200501010000 METAR MROC 010000Z 11011KT 9999 FEW030 22/17 A2994 NOSIG=
200501010100 METAR MROC 010100Z 10007KT 9999 FEW035 22/17 A2997 NOSIG=
200501010200 METAR MROC 010200Z VRB03KT 9999 FEW035 22/17 A2999 BECMG 11008KT=
200501010300 METAR MROC 010300Z 06008KT 9999 FEW030 21/17 A3000 NOSIG=
200501010400 METAR MROC 010400Z 08004KT 9999 FEW030 20/17 A3001=
200501010500 METAR MROC 010500Z 07003KT 9999 FEW030 20/16 A3000 NOSIG=
200501010600 METAR MROC 010600Z 11014KT CAVOK 21/16 A2999 NOSIG=
200501011000 METAR MROC 011000Z 06006KT CAVOK 20/16 A2996 NOSIG=
200501011100 METAR MROC 011100Z 08003KT CAVOK 20/16 A2997 NOSIG=
200501011200 METAR MROC 011200Z 03006KT 9999 FEW025 19/15 A2999 NOSIG=
200501011300 METAR MROC 011300Z 11011KT 9999 FEW025 21/16 A3001 NOSIG=
200501011400 METAR MROC 011400Z 11014KT 9999 FEW030 23/17 A3003 NOSIG=
200501011500 METAR MROC 011500Z 11015KT 9999 FEW035 25/16 A3003 NOSIG=
200501011600 METAR MROC 011600Z 11015KT 9999 FEW040 27/16 A3003 NOSIG=
200501011700 METAR MROC 011700Z 10014KT 9999 FEW040 28/15 A3002 NOSIG=
200501011800 METAR MROC 011800Z 08012KT 9999 FEW025 SCT040 27/16 A3001 NOSIG=
200501011900 METAR MROC 011900Z 10012KT 9999 FEW025 SCT045 27/16 A2997 NOSIG=
200501012000 METAR MROC 012000Z 09016KT 9999 FEW030 27/16 A2995 NOSIG=
200501012100 METAR MROC 012100Z 08016KT 9999 FEW025 28/15 A2994 NOSIG=
200501012200 METAR MROC 012200Z 09016KT 9999 FEW025 24/16 A2995 NOSIG=
200501012300 METAR MROC 012300Z 08014KT 9999 FEW025 24/15 A2995 NOSIG=
200501012347 METAR MROC 020000Z 11012KT 9999 FEW030 22/15 A2997 NOSIG=
200501020000 METAR MROC 020000Z 11012KT 9999 FEW030 22/15 A2997 NOSIG=
200501020100 METAR MROC 020100Z 08006KT CAVOK 21/16 A2999 NOSIG=
200501020200 METAR MROC 020200Z 06009KT CAVOK 21/15 A3001 NOSIG=
200501020300 METAR MROC 020300Z 06006KT CAVOK 21/16 A3002 NOSIG=
200501020400 METAR MROC 020400Z 10012KT CAVOK 21/16 A3001 NOSIG=
200501020600 METAR MROC 020600Z 10011KT CAVOK 21/16 A2997=
200501020700 METAR MROC 020700Z 10012KT CAVOK 21/16 A2995=
200501020800 METAR MROC 020800Z 10008KT CAVOK 20/15 A2996=
200501021200 METAR MROC 021200Z 05009KT 9999 FEW025 20/16 A2999=
200501021300 METAR MROC 021300Z 06005KT 9999 FEW025 21/17 A3002=
200501021400 METAR MROC 021400Z 11014KT 9999 FEW025 23/17 A3002=
200501021500 METAR MROC 021500Z 10015KT 9999 FEW025 SCT170 24/17 A3003=
200501021600 METAR MROC 021600Z 08015KT 9999 FEW025 SCT220 25/16 A3002=
200501021700 METAR MROC 021700Z 09020KT 9999 FEW025 SCT200 27/17 A3000=
200501021800 METAR MROC 021800Z 11021KT 9999 FEW025 SCT150 26/17 A2997=
200501021900 METAR MROC 021900Z 10020KT 9999 FEW025 SCT150 27/17 A2994=
200501022000 METAR MROC 022000Z 10017KT 9999 FEW025 SCT150 27/17 A2992=
200501022100 METAR MROC 022100Z 10014KT 9999 SCT035 SCT120 28/18 A2991 NOSIG=
200501022200 METAR MROC 022200Z 07014KT 9999 FEW035 SCT120 26/17 A2992 NOSIG=
200501022300 METAR MROC 022300Z 09015KT 9999 FEW035 SCT120 24/17 A2991 NOSIG=
200501030000 METAR MROC 030000Z 11020KT 9999 FEW035 SCT120 22/17 A2993 NOSIG=
200501030100 METAR MROC 030100Z 11014KT CAVOK 21/17 A2997 NOSIG=
200501030200 METAR MROC 030200Z 11010KT CAVOK 21/17 A2999 NOSIG=
200501030300 METAR MROC 030300Z 11011KT CAVOK 21/17 A3000 NOSIG=
200501030400 METAR MROC 030400Z 09015KT CAVOK 22/17 A2999 NOSIG=
200501030500 METAR MROC 030500Z 10018KT CAVOK 23/16 A2998 NOSIG=
200501030600 METAR MROC 030600Z 10017KT CAVOK 22/17 A2996 NOSIG=
200501030700 METAR MROC 030700Z 08015KT CAVOK 22/16 A2994=
200501030800 METAR MROC 030800Z 11015KT CAVOK 22/17 A2991=
200501030900 METAR MROC 030900Z 11020KT CAVOK 22/17 A2991=
200501031000 METAR MROC 031000Z 11017KT CAVOK 22/17 A2992=
200501031100 METAR MROC 031100Z 10016KT 9999 FEW030 22/17 A2993=
200501031200 METAR MROC 031200Z 10018KT 9999 FEW025 SCT080 22/17 A2993=
200501031300 METAR MROC 031300Z 10015KT 9999 FEW030 SCT100 23/16 A2996 NOSIG=
200501031400 METAR MROC 031400Z 09013KT 9999 FEW030 BKN100 23/16 A2999 NOSIG=
200501031500 METAR MROC 031500Z 09022KT 9999 FEW030 BKN100 24/16 A2999 NOSIG=
200501031600 METAR MROC 031600Z 08018KT 9999 FEW030 BKN100 25/15 A2999 NOSIG=
200501031700 METAR MROC 031700Z 08017KT 9999 FEW030 BKN100 25/17 A2998 NOSIG=
200501031800 METAR MROC 031800Z 08015KT 9999 FEW030 BKN100 27/17 A2996 NOSIG=
200501031900 METAR MROC 031900Z 09016KT 9999 FEW030 SCT100 27/17 A2993 NOSIG=
200501032000 METAR MROC 032000Z 08019KT 9999 FEW030 27/16 A2990 NOSIG=
200501032100 METAR MROC 032100Z 10016KT 9999 FEW035 27/17 A2989 NOSIG=
200501032200 METAR MROC 032200Z 07014KT 9999 FEW035 26/17 A2990 NOSIG=
200501032300 METAR MROC 032300Z 08012KT 9999 FEW035 24/17 A2991 NOSIG=
200501040000 METAR MROC 040000Z 10015KT 9999 FEW035 22/16 A2992 NOSIG=
200501040100 METAR MROC 040100Z 09012KT CAVOK 22/16 A2994=
200501040200 METAR MROC 040200Z 11017KT CAVOK 21/16 A2996=
200501040300 METAR MROC 040300Z 10013KT CAVOK 21/15 A2998=
200501040400 METAR MROC 040400Z 11016KT CAVOK 20/15 A2997=
200501040500 METAR MROC 040500Z 10013KT CAVOK 21/16 A2996=
200501040600 METAR MROC 040600Z 10015KT CAVOK 20/16 A2994=
200501040900 METAR MROC 040900Z 10010KT CAVOK 20/15 A2991=
200501041000 METAR MROC 041000Z 11016KT CAVOK 20/15 A2991=
200501041100 METAR MROC 041100Z 11018KT CAVOK 20/15 A2991=
200501041200 METAR MROC 041200Z 11016KT CAVOK 20/15 A2993=
200501041300 METAR MROC 041300Z 10016KT CAVOK 22/16 A2997 NOSIG=
200501041400 METAR MROC 041400Z 07015KT 9999 FEW025 25/16 A3000 NOSIG=
200501041500 METAR MROC 041500Z 11013KT 9999 FEW030 SCT080 24/17 A3001 NOSIG=
200501041600 METAR MROC 041600Z 12014KT 9999 FEW030 SCT080 24/17 A3000 NOSIG=
200501041700 METAR MROC 041700Z 11017KT 9999 SCT030 25/17 A2998 NOSIG=
200501041800 METAR MROC 041800Z 11016KT 9999 SCT030 25/17 A2995 NOSIG=
200501041900 METAR MROC 041900Z 11016KT 9999 SCT030 26/17 A2993 NOSIG=
200501042000 METAR MROC 042000Z 10014KT 9999 SCT030 26/17 A2991 NOSIG=
200501042100 METAR MROC 042100Z 08014KT 9999 SCT025 26/16 A2990=
200501042200 METAR MROC 042200Z 10011KT 9999 BKN030 24/15 A2990=
200501042300 METAR MROC 042300Z 08013KT 9999 SCT030 23/15 A2993=
200501050000 METAR MROC 050000Z 09012KT 9999 SCT030 22/15 A2993=
200501050100 METAR MROC 050100Z 10013KT 9999 FEW030 21/16 A2995 NOSIG=
200501050200 METAR MROC 050200Z 11012KT 9999 FEW030 21/15 A2997=
200501050300 METAR MROC 050300Z 10017KT 9999 FEW035 21/16 A2998 NOSIG=
200501050400 METAR MROC 050400Z 08015KT 9999 FEW035 20/16 A2999 NOSIG=
200501050500 METAR MROC 050500Z 10011KT 9999 FEW035 21/14 A2996 NOSIG=
200501050600 METAR MROC 050600Z 10013KT CAVOK 20/14 A2995 NOSIG=
200501050700 METAR MROC 050700Z 10012KT CAVOK 20/14 A2992 NOSIG=
200501050800 METAR MROC 050800Z 11011KT CAVOK 20/14 A2991 NOSIG=
200501050900 METAR MROC 050900Z 08013KT CAVOK 20/14 A2990 NOSIG=
200501051000 METAR MROC 051000Z 09011KT CAVOK 20/14 A2989 NOSIG=
200501051100 METAR MROC 051100Z 10013KT CAVOK 20/13 A2990 NOSIG=
200501051200 METAR MROC 051200Z 10010KT 9999 FEW035 19/14 A2991 NOSIG=
200501051300 METAR MROC 051300Z 10015KT 9999 FEW030 20/15 A2994=
200501051400 METAR MROC 051400Z 11018KT 9999 FEW033 23/13 A2996=
200501051500 METAR MROC 051500Z 11022KT CAVOK 24/13 A2996=
200501051600 METAR MROC 051600Z 11017KT 9999 FEW040 25/14 A2996=
200501051700 METAR MROC 051700Z 10018KT 9999 FEW035 26/13 A2996=
200501051800 METAR MROC 051800Z 09018KT 9999 FEW038 27/13 A2994=
200501051900 METAR MROC 051900Z 08014KT 9999 FEW035 27/14 A2990=
200501052000 METAR MROC 052000Z 07017KT 9999 FEW035 27/13 A2988=
200501052100 METAR MROC 052100Z 06014KT 9999 FEW040 27/12 A2985 NOSIG=
200501052200 METAR MROC 052200Z 05016KT 9999 FEW035 26/13 A2985 NOSIG=
200501052300 METAR MROC 052300Z 00000KT 9999 FEW018 SCT080 BKN110 25/21 A2982=
200501060000 METAR MROC 060000Z 10016KT 9999 FEW035 21/16 A2988 NOSIG=
200501060100 METAR MROC 060100Z 10012KT CAVOK 21/16 A2990 NOSIG=
200501060200 METAR MROC 060200Z 08012KT CAVOK 21/15 A2992 NOSIG=
200501060300 METAR MROC 060300Z 11013KT CAVOK 20/15 A2993 NOSIG=
200501060400 METAR MROC 060400Z 10017KT CAVOK 20/14 A2993 NOSIG=
200501060500 METAR MROC 060500Z 11016KT CAVOK 20/14 A2992 NOSIG=
200501060600 METAR MROC 060600Z 10014KT CAVOK 20/14 A2991 NOSIG=
200501060700 METAR MROC 060700Z 11016KT CAVOK 20/14 A2989 NOSIG=
200501060900 METAR MROC NIL=
200501061100 METAR MROC 061100Z 10015KT CAVOK 19/13 A2989=
200501061200 METAR MROC 061200Z 10015KT CAVOK 19/14 A2990 NOSIG=
200501061300 METAR MROC 061300Z 11014KT CAVOK 21/15 A2991=
200501061400 METAR MROC 061400Z 10018KT CAVOK 23/16 A2993 NOSIG=
200501061500 METAR MROC 061500Z 10017KT 9999 FEW035 24/16 A2994 NOSIG=
200501061600 METAR MROC 061600Z 10021KT 9999 FEW030 24/16 A2994 NOSIG=
200501061700 METAR MROC 061700Z 10018KT 9999 FEW030 25/16 A2992 NOSIG=
200501061800 METAR MROC 061800Z 09022KT 9999 FEW025 26/15 A2991 NOSIG=
200501061900 METAR MROC 061900Z 10020KT 9999 FEW030 26/15 A2989 NOSIG=
200501062000 METAR MROC 062000Z 11018KT 9999 FEW035 26/15 A2987 NOSIG=
200501062100 METAR MROC 062100Z 12013KT 9999 FEW035 26/15 A2986 NOSIG=
200501062200 METAR MROC 062200Z 09013KT CAVOK 26/14 A2987 NOSIG=
200501062300 METAR MROC 062300Z 11014KT CAVOK 24/15 A2987 NOSIG=
200501070000 METAR MROC 070000Z 10018KT CAVOK 22/15 A2988 NOSIG=
200501070100 METAR MROC 070100Z 10016KT CAVOK 22/15 A2991 NOSIG=
200501070200 METAR MROC 070200Z 10019KT CAVOK 22/15 A2993 NOSIG=
200501070300 METAR MROC 070300Z 10014KT CAVOK 21/16 A2994=
200501070400 METAR MROC 070400Z 12016KT CAVOK 21/15 A2994=
200501070500 METAR MROC 070500Z 10016KT CAVOK 21/16 A2993=
200501070600 METAR MROC 070600Z 11013KT CAVOK 20/16 A2992=
200501070700 METAR MROC 070700Z 11013KT CAVOK 20/16 A2991=
200501070800 METAR MROC 070800Z 11017KT CAVOK 20/16 A2990=
200501070900 METAR MROC 070900Z 11012KT CAVOK 20/16 A2990=
200501071000 METAR MROC 071000Z 11014KT 9999 FEW040 20/16 A2990=
200501071100 METAR MROC 071100Z 11016KT 9999 FEW040 20/15 A2990=
200501071200 METAR MROC 071200Z 11015KT 9999 FEW030 20/16 A2991=
200501071400 METAR MROC 071400Z 10017G27KT 9999 FEW030 23/16 A2997 NOSIG=
200501071500 METAR MROC 071500Z 09014G24KT 9999 FEW035 25/16 A2998 NOSIG=
200501071600 METAR MROC 071600Z 11014G25KT 9999 FEW035 26/16 A2997 NOSIG=
200501071700 METAR MROC 071700Z 08015KT 9999 FEW035 27/16 A2996 NOSIG=
200501071800 METAR MROC 071800Z 09015KT 9999 FEW030 26/16 A2996 NOSIG=
200501071900 METAR MROC 071900Z 09014G24KT 9999 FEW035 27/15 A2993 NOSIG=
200501072000 METAR MROC 072000Z 08018KT 9999 FEW035 27/15 A2990 NOSIG=
200501072100 METAR MROC 072100Z 10011KT 9999 FEW035 27/16 A2990 NOSIG=
200501072200 METAR MROC 072200Z 09015KT 9999 SCT030 25/16 A2990 NOSIG=
200501072300 METAR MROC 072300Z 10017KT 9999 SCT030 23/15 A2990 NOSIG=
200501072355 METAR MROC 080000Z 10012KT 9999 FEW030 22/14 A2993 NOSIG=
200501080000 METAR MROC 080000Z 10012KT 9999 FEW030 22/14 A2993 NOSIG=
200501080100 METAR MROC 080100Z 10015KT 9999 FEW030 21/15 A2994 NOSIG=
200501080200 METAR MROC 080200Z 10018KT 9999 FEW025 21/15 A2996 NOSIG=
200501080300 METAR MROC 080300Z 10020KT 9999 FEW025 21/16 A2998 NOSIG=
200501080400 METAR MROC 080400Z 10017KT CAVOK 21/15 A2999 NOSIG=
200501080500 METAR MROC 080500Z 10017KT CAVOK 21/15 A2996 NOSIG=
200501080600 METAR MROC 080600Z 11021KT CAVOK 21/15 A2995 NOSIG=
200501080700 METAR MROC 080700Z 11018KT CAVOK 21/16 A2993=
200501080800 METAR MROC 080800Z 09018KT CAVOK 22/15 A2992=
200501080900 METAR MROC 080900Z 10018KT CAVOK 21/16 A2991=
200501081000 METAR MROC 081000Z 11018KT CAVOK 21/16 A2992=
200501081100 METAR MROC 081100Z 11019KT CAVOK 21/16 A2993=
200501081200 METAR MROC 081200Z 10018KT CAVOK 21/16 A2994=
200501081300 METAR MROC 081300Z 11016KT CAVOK 22/16 A2996 NOSIG=
200501081400 METAR MROC 081400Z 11020KT 9999 FEW035 24/16 A2999 NOSIG=
200501081500 METAR MROC 081500Z 11021KT 9999 FEW035 25/16 A2999 NOSIG=
200501081600 METAR MROC 081600Z 11019KT 9999 FEW035 25/17 A2998 NOSIG=
200501081700 METAR MROC 081700Z 11019KT 9999 FEW035 27/17 A2997 NOSIG=
200501081800 METAR MROC 081800Z 11017KT 9999 SCT035 27/17 A2997 NOSIG=
200501081900 METAR MROC 081900Z 11016KT 9999 SCT035 26/17 A2995 NOSIG=
200501082000 METAR MROC 082000Z 10015KT 9999 SCT035 SCT100 27/17 A2992 NOSIG=
200501082100 METAR MROC 082100Z 11014KT 9999 FEW020 SCT035 27/16 A2991 NOSIG=
200501082200 METAR MROC 082200Z 10012KT 9999 FEW025 BKN040 26/16 A2990 NOSIG=
200501082300 METAR MROC 082300Z 11011KT 9999 SCT040 BKN080 24/17 A2992 NOSIG=
200501090000 METAR MROC 090000Z 08008KT 9999 SCT035 BKN080 22/17 A2994 NOSIG=
200501090100 METAR MROC 090100Z 10011KT 9999 FEW035 SCT080 21/17 A2997 NOSIG=
200501090200 METAR MROC 090200Z 11016KT 9999 FEW030 SCT100 22/17 A3000 NOSIG=
200501090300 METAR MROC 090300Z 09015KT 9999 FEW035 SCT120 22/16 A3000 BECMG -RA=
200501090400 METAR MROC 090400Z 09013KT 9999 FEW025 SCT120 22/16 A3000 BECMG -RA=
200501090500 METAR MROC 090500Z 10012KT 9999 FEW035 SCT100 22/17 A2998 BECMG -RA=
200501090600 METAR MROC 090600Z 11011KT 9999 -RA SCT025 BKN100 21/18 A2997 BECMG -RA=
200501090700 METAR MROC 090700Z 10010KT 9999 SCT025 BKN100 19/18 A2997 BECMG -RA=
200501090900 METAR MROC 090900Z 09008KT 9999 -RA SCT030 BKN100 20/17 A2995 BECMG -RA=
200501091000 METAR MROC 091000Z 11011KT 9999 +DZ SCT030 BKN100 19/17 A2994 BECMG -RA=
200501091100 METAR MROC 091100Z 11012KT 9999 DZ FEW035 BKN100 19/17 A2995 BECMG -RA=
200501091200 METAR MROC 091200Z 10013KT 9999 FEW025 BKN080 20/17 A2995 BECMG -RA=
200501091300 METAR MROC 091300Z 11017KT 9999 FEW025 BKN090 21/17 A2997 NOSIG=
200501091400 METAR MROC 091400Z 11015KT 9999 -RA SCT030 BKN090 21/17 A2999 NOSIG=
200501091500 METAR MROC 091500Z 11019KT 9999 FEW030 BKN090 22/17 A2998 NOSIG=
200501091600 METAR MROC 091600Z 10017KT 9999 FEW030 BKN100 25/16 A2997 NOSIG=
200501091700 METAR MROC 091700Z 10016KT 9999 FEW030 BKN100 25/17 A2996 NOSIG=
200501091800 METAR MROC 091800Z 10018KT 9999 FEW030 BKN100 25/17 A2993 NOSIG=
200501091900 METAR MROC 091900Z 11022KT 9999 FEW030 BKN100 25/16 A2991 NOSIG=
200501092000 METAR MROC 092000Z 10018G28KT 9999 FEW030 BKN100 26/16 A2989=
200501092100 METAR MROC 092100Z 11015KT 9999 SCT030 BKN100 24/17 A2989=
200501092200 METAR MROC 092200Z 11014KT 9999 SCT030 BKN090 24/17 A2989=
200501092300 METAR MROC 092300Z 11013G23KT 9999 FEW025 BKN080 22/16 A2990=
200501100000 METAR MROC 100000Z 10012KT 9999 FEW025 BKN080 22/16 A2992=
200501100100 METAR MROC 100100Z 11014KT 9999 FEW030 BKN080 22/16 A2994=
200501100200 METAR MROC 100200Z 11015KT 9999 -DZ FEW030 BKN080 21/17 A2998=
200501100300 METAR MROC 100300Z 11015KT 9999 -DZ FEW030 BKN100 20/17 A2999 NOSIG=
200501100400 METAR MROC 100400Z 09011KT 9999 FEW030 SCT100 21/17 A2999 NOSIG=
200501100500 METAR MROC 100500Z 11013KT 9999 -RA FEW030 BKN100 20/17 A2999 NOSIG=
200501100600 METAR MROC 100600Z 07006KT 9999 FEW030 SCT100 21/16 A2999 NOSIG=
200501100700 METAR MROC 100700Z 110014KT 9999 FEW030 SCT100 21/16 A2996 NOSIG=
200501100800 METAR MROC 100800Z 08007KT 9999 FEW030 SCT100 21/16 A2994 NOSIG=
200501100900 METAR MROC 100900Z 11013KT 9999 FEW030 SCT100 21/16 A2993 NOSIG=
200501101000 METAR MROC 101000Z 10016KT 9999 FEW030 SCT100 21/16 A2993 NOSIG=
200501101100 METAR MROC 101100Z 10016KT 9999 FEW030 SCT100 20/15 A2993 NOSIG=
200501101200 METAR MROC 101200Z 10019KT 9999 FEW035 BKN100 20/15 A2994 NOSIG=
200501101300 METAR MROC 101300Z 11019KT 9999 FEW030 BKN100 20/16 A2996=
200501101400 METAR MROC 101400Z 10019KT 9999 FEW025 BKN090 21/15 A2998=
200501101500 METAR MROC 101500Z 11017KT 9999 FEW030 BKN090 22/15 A2999=
200501101600 METAR MROC 101600Z 11020G30KT 9999 FEW030 BKN090 23/16 A2990=
200501101700 METAR MROC 101700Z 10020KT 9999 FEW030 BKN100 25/17 A2997=
200501101800 METAR MROC 101800Z 11018KT 9999 FEW025 BKN100 26/16 A2996=
200501101900 METAR MROC 101900Z 11018KT 9999 FEW030 BKN100 26/17 A2994=
200501102000 METAR MROC 102000Z 11020KT 9999 FEW030 SCT110 24/16 A2989 NOSIG=
200501102100 METAR MROC 102100Z 11018KT 9999 FEW025 BKN120 24/16 A2989 NOSIG=
200501102200 METAR MROC 102200Z 11018KT 9999 FEW025 BKN120 22/16 A2989 NOSIG=
200501102300 METAR MROC 102300Z 10014KT 9999 FEW025 BKN120 21/16 A2990 NOSIG=
200501110000 METAR MROC 110000Z 09012KT 9999 FEW025 BKN120 21/16 A2992 NOSIG=
200501110100 METAR MROC 110100Z 11016KT 9999 FEW025 BKN120 21/16 A2993 NOSIG=
200501110200 METAR MROC 110200Z 11015KT 9999 FEW025 BKN120 21/16 A2995 NOSIG=
200501110400 METAR MROC 110400Z 10013KT CAVOK 21/16 A2997 NOSIG=
200501110500 METAR MROC 110500Z 10015KT CAVOK 21/16 A2996 NOSIG=
200501110600 METAR MROC 110600Z 11016KT CAVOK 21/17 A2995 NOSIG=
200501110700 METAR MROC NIL=
200501110800 METAR MROC NIL=
200501110900 METAR MROC NIL=
200501111000 METAR MROC 111000Z 11015KT CAVOK 21/17 A2990 NOSIG=
200501111100 METAR MROC 111100Z 10009KT CAVOK 21/17 A2992 NOSIG=
200501111200 METAR MROC 111200Z 09011KT 9999 FEW020 BKN090 21/16 A2993 NOSIG=
200501111300 METAR MROC 111300Z 11011KT 9999 FEW025 BKN100 21/17 A2996 NOSIG=
200501111400 METAR MROC 111400Z 10011KT 9999 FEW025 BKN100 23/17 A2999 NOSIG=
200501111500 METAR MROC 111500Z 10014KT 9999 FEW030 SCT120 25/17 A2999 NOSIG=
200501111600 METAR MROC 111600Z 11014KT 9999 FEW030 SCT140 26/17 A2998 NOSIG=
200501111700 METAR MROC 111700Z 10012KT 9999 FEW030 SCT140 26/17 A2997 NOSIG=
200501111800 METAR MROC 111800Z 10016KT 9999 FEW030 27/17 A2994 NOSIG=
200501111900 METAR MROC 111900Z 11014KT 9999 FEW030 28/17 A2992 NOSIG=
200501112000 METAR MROC 112000Z 12013KT 9999 SCT030 27/18 A2990 NOSIG=
200501112100 METAR MROC 112100Z 12013KT 9999 SCT025 SCT120 25/17 A2988 NOSIG=
200501112200 METAR MROC 112200Z 06008KT 9999 SCT025 BKN120 25/17 A2990 NOSIG=
200501112300 METAR MROC 112300Z 11010KT 9999 FEW030 SCT120 23/17 A2992 NOSIG=
200501120000 METAR MROC 120000Z 10009KT 9999 FEW030 SCT140 22/17 A2994 NOSIG=
200501120100 METAR MROC 120100Z 10010KT CAVOK 21/17 A2995 NOSIG=
200501120200 METAR MROC 120200Z 09010KT CAVOK 21/17 A2998 NOSIG=
200501120300 METAR MROC 120300Z 05013KT CAVOK 21/16 A2999 NOSIG=
200501120400 METAR MROC 120400Z 08008KT CAVOK 21/16 A2999=
200501120500 METAR MROC 120500Z 09004KT CAVOK 21/16 A2999=
200501120600 METAR MROC 120600Z 02004KT CAVOK 20/17 A2998=
200501120700 METAR MROC 120700Z 09005KT CAVOK 21/16 A2996=
200501120900 METAR MROC 120900Z 08007KT CAVOK 21/16 A2992=
200501121000 METAR MROC 121000Z 01006KT CAVOK 20/16 A2992=
200501121100 METAR MROC 121100Z 05008KT CAVOK 21/16 A2991=
200501121200 METAR MROC 121200Z 10004KT CAVOK 20/16 A2991=
200501121300 METAR MROC 121300Z 11008KT CAVOK 22/17 A2994 NOSIG=
200501121400 METAR MROC 121400Z 12014KT CAVOK 25/17 A2997 NOSIG=
200501121500 METAR MROC 121500Z 10010G20KT CAVOK 26/17 A2999 NOSIG=
200501121600 METAR MROC 121600Z 10008KT CAVOK 28/17 A2998 NOSIG=
200501121700 METAR MROC 121700Z 14010KT CAVOK 28/16 A2996 NOSIG=
200501121800 METAR MROC 121800Z 13008KT 9999 SCT035 SCT120 29/17 A2994 NOSIG=
200501121900 METAR MROC 121900Z 13003KT 9999 SCT030 SCT120 27/17 A2991 BECMG 22007KT=
200501122000 METAR MROC 122000Z 12008KT 9999 SCT035 BKN120 26/16 A2990 BECMG -RA=
200501122100 METAR MROC 122100Z 11009KT 9999 FEW035 BKN120 26/16 A2989 NOSIG=
200501122200 METAR MROC 122200Z 25008KT 9999 SCT030 BKN100 23/20 A2990 NOSIG=
200501122300 METAR MROC 122300Z 28007KT 9999 SCT030 BKN100 23/20 A2991 NOSIG=
200501130000 METAR MROC 130000Z 32004KT 9999 FEW035 BKN100 22/20 A2992 NOSIG=
200501130100 METAR MROC 130100Z 24003KT 9999 FEW035 21/20 A2994 NOSIG=
200501130200 METAR MROC 130200Z 29003KT 9999 FEW035 21/20 A2997 NOSIG=
200501130300 METAR MROC 130300Z 24003KT 8000 FEW003 SCT015 BKN030 20/20 A2998 BECMG 06004KT 9999 SCT025=
200501130400 METAR MROC 130400Z 00000KT 8000 FEW003 SCT030 BKN070 20/19 A2998 NOSIG=
200501130500 METAR MROC 130500Z 03005KT 9999 FEW030 SCT070 20/18 A2997 NOSIG=
200501130600 METAR MROC 130600Z 06008KT CAVOK 20/18 A2995 NOSIG=
200501130700 METAR MROC 130700Z 05006KT CAVOK 20/17 A2994 NOSIG=
200501130800 METAR MROC 130800Z 06008KT CAVOK 19/17 A2993=
200501130900 METAR MROC 130900Z 08004KT CAVOK 19/16 A2993=
200501131000 METAR MROC 131000Z 03006KT CAVOK 18/16 A2992=
200501131100 METAR MROC 131100Z 12005KT CAVOK 17/16 A2994=
200501131200 METAR MROC 131200Z 06005KT CAVOK 17/15 A2996=
200501131300 METAR MROC 131300Z 12004KT CAVOK 19/16 A2998 NOSIG=
200501131400 METAR MROC 131400Z 10005KT CAVOK 24/17 A3000 NOSIG=
200501131500 METAR MROC 131500Z 12005KT CAVOK 27/17 A3000 NOSIG=
200501131600 METAR MROC 131600Z 25010KT CAVOK 27/17 A2999 NOSIG=
200501131700 METAR MROC 131700Z 24008KT 9999 FEW040 28/18 A2997 NOSIG=
200501131800 METAR MROC 131800Z 24007KT 9999 SCT040 28/19 A2996 NOSIG=
200501131900 METAR MROC 131900Z 25011KT 9999 BKN040 28/20 A2993 NOSIG=
200501132000 METAR MROC 132000Z 23009KT 9999 BKN035 28/20 A2991 NOSIG=
200501132100 METAR MROC 132100Z 27008KT 9999 SCT025 28/20 A2990 NOSIG=
200501132200 METAR MROC 132200Z 24010KT 9999 SCT028 26/20 A2990 NOSIG=
200501132300 METAR MROC 132300Z 24007KT 9999 SCT020 SCT030 25/21 A2992 NOSIG=
200501140000 METAR MROC 140000Z 24006KT 9999 BKN020 SCT035 23/21 A2995 NOSIG=
200501140100 METAR MROC 140100Z 00000KT 9999 -RA SCT025 SCT100 23/21 A2997=
200501140200 METAR MROC 140200Z 03005KT 9999 FEW025 22/20 A2999 NOSIG=
200501140300 METAR MROC 140300Z 09005KT 9999 FEW025 22/19 A3000 NOSIG=
200501140400 METAR MROC 140400Z 03003KT CAVOK 22/20 A3002 NOSIG=
200501140500 METAR MROC 140500Z 06004KT CAVOK 21/18 A2999 NOSIG=
200501140600 METAR MROC 140600Z 03005KT CAVOK 21/18 A2999 NOSIG=
200501140700 METAR MROC 140700Z 08003KT CAVOK 20/18 A2999 NOSIG=
200501140900 METAR MROC 140900Z 08007KT CAVOK 19/17 A2997 NOSIG=
200501141100 METAR MROC 141100Z 08006KT CAVOK 20/17 A2999 NOSIG=
200501141200 METAR MROC 141200Z 07007KT CAVOK 20/17 A3001 NOSIG=
200501141300 METAR MROC 141300Z 07008KT CAVOK 21/17 A3002 NOSIG=
200501141400 METAR MROC 141400Z 12006KT CAVOK 25/17 A3004 NOSIG=
200501141500 METAR MROC 141500Z 10013KT CAVOK 26/18 A3005 NOSIG=
200501141600 METAR MROC 141600Z 12012KT 9999 FEW035 28/18 A3005 NOSIG=
200501141700 METAR MROC 141700Z 11010KT 9999 FEW040 29/18 A3002 NOSIG=
200501141800 METAR MROC 141800Z 23005KT 9999 FEW040 30/18 A3000 NOSIG=
200501141900 METAR MROC 141900Z 11014KT 9999 SCT040 28/19 A2997 NOSIG=
200501142000 METAR MROC 142000Z 11014KT 9999 FEW040 29/19 A2994 NOSIG=
200501142200 METAR MROC 142200Z 12018KT 9999 SCT030 SCT300 26/18 A2993=
200501142300 METAR MROC 142300Z 10012KT 9999 FEW030 SCT110 25/16 A2995=
200501150000 METAR MROC 150000Z 11017KT 9999 FEW030 SCT090 23/16 A2995=
200501150100 METAR MROC 150100Z 11017KT CAVOK 23/16 A2997=
200501150200 METAR MROC 150200Z 11016KT CAVOK 23/16 A3000=
200501150300 METAR MROC 150300Z 10012KT CAVOK 22/16 A3004 NOSIG=
200501150400 METAR MROC 150400Z 10012KT CAVOK 22/16 A3002 NOSIG=
200501150500 METAR MROC 150500Z 11021KT CAVOK 22/17 A2999 NOSIG=
200501150600 METAR MROC 150600Z 11021KT CAVOK 22/17 A2999 NOSIG=
200501150700 METAR MROC 150700Z 10016KT CAVOK 22/17 A2997 NOSIG=
200501150800 METAR MROC 150800Z 10017KT CAVOK 22/17 A2996 NOSIG=
200501150900 METAR MROC 150900Z 10015KT CAVOK 22/17 A2996 NOSIG=
200501151100 METAR MROC 151100Z 10017KT 9999 FEW035 BKN100 20/17 A2996 NOSIG=
200501151200 METAR MROC 151200Z 08012KT 9999 SCT030 BKN100 21/17 A2998 NOSIG=
200501151300 METAR MROC 151300Z 10007KT 9999 SCT025 BKN100 22/17 A3000=
200501151400 METAR MROC 151400Z 11017KT 9999 SCT025 BKN100 24/17 A3000=
200501151500 METAR MROC 151500Z 11011KT 9999 SCT025 BKN100 24/17 A3002=
200501151600 METAR MROC 151600Z 09019KT 9999 FEW025 BKN160 27/15 A3002=
200501151700 METAR MROC 151700Z 10022KT 9999 FEW025 SCT250 26/17 A3001=
200501151800 METAR MROC 151800Z 10017KT 9999 SCT025 SCT250 26/16 A2999=
200501151900 METAR MROC 151900Z 08017KT 9999 SCT025 27/16 A2997=
200501152000 METAR MROC 152000Z 11020KT 9999 SCT025 26/17 A2995=
200501152100 METAR MROC 152100Z 09015KT 9999 FEW025 26/16 A2994 NOSIG=
200501152200 METAR MROC 152200Z 11018KT 9999 FEW025 25/15 A2994 NOSIG=
200501152300 METAR MROC 152300Z 09015KT 9999 FEW025 24/15 A2996 NOSIG=
200501160000 METAR MROC 160000Z 09015KT 9999 FEW025 22/15 A2998 NOSIG=
200501160100 METAR MROC 160100Z 10016KT 9999 FEW025 21/16 A3000=
200501160200 METAR MROC 160200Z 10017KT CAVOK 21/16 A3000 NOSIG=
200501160300 METAR MROC 160300Z 11010G20KT CAVOK 21/16 A3003 NOSIG=
200501160400 METAR MROC 160400Z 11017KT CAVOK 21/16 A3003 NOSIG=
200501160500 METAR MROC 160500Z 10017KT CAVOK 21/16 A3003 NOSIG=
200501160600 METAR MROC 160600Z 10011KT 9999 FEW040 21/16 A3001 NOSIG=
200501160700 METAR MROC 160700Z 10008KT 9999 FEW040 21/16 A3001 NOSIG=
200501161100 METAR MROC 161100Z 10009KT 9999 FEW035 20/17 A2997 NOSIG=
200501161200 METAR MROC 161200Z 10008KT 9999 SCT040 BKN090 21/16 A3000 NOSIG=
200501161300 METAR MROC 161300Z 11014KT 9999 -DZ SCT040 BKN120 21/16 A3001=
200501161400 METAR MROC 161400Z 11017KT 9999 -DZ SCT030 BKN080 22/17 A3004 NOSIG=
200501161500 METAR MROC 161500Z 12017KT 9999 SCT025 BKN080 23/17 A3004 NOSIG=
200501161600 METAR MROC 161600Z 10017KT 9999 FEW025 SCT045 25/17 A3005 NOSIG=
200501161700 METAR MROC 161700Z 11020KT 9999 FEW025 BKN070 24/17 A3002 NOSIG=
200501161800 METAR MROC 161800Z 10016KT 9999 FEW025 BKN070 23/17 A3001 NOSIG=
200501161900 METAR MROC 161900Z 11017KT 9999 SCT025 BKN070 24/17 A2998 NOSIG=
200501162000 METAR MROC 162000Z 10018KT 9999 SCT025 BKN070 24/16 A2996 NOSIG=
200501162100 METAR MROC 162100Z 09016KT 9999 SCT030 BKN090 24/15 A2995 NOSIG=
200501162200 METAR MROC 162200Z 09014KT 9999 FEW030 SCT100 23/16 A2997 NOSIG=
200501162300 METAR MROC 162300Z 07014G24KT 9999 FEW035 SCT250 23/15 A2997 NOSIG=
200501162350 METAR MROC 170000Z 09014KT 9999 FEW030 SCT250 22/15 A2999=
200501170000 METAR MROC 170000Z 09014KT 9999 FEW030 SCT250 22/15 A2999=
200501170100 METAR MROC 170100Z 11014KT 9999 FEW030 20/16 A3000 NOSIG=
200501170148 METAR MROC 170148Z 10010KT 9999 FEW030 20/16 A3003 NOSIG=
200501170200 METAR MROC 170200Z 10010KT 9999 FEW030 20/16 A3003 NOSIG=
200501170300 METAR MROC 170300Z 10016KT 9999 FEW030 21/15 A3004=
200501170500 METAR MROC 170500Z 10009KT 9999 FEW030 21/15 A3004=
200501170600 METAR MROC 170600Z 07004KT CAVOK 21/14 A3003=
200501170700 METAR MROC 170700Z 04005KT CAVOK 20/15 A3003=
200501170800 METAR MROC 170800Z 23004KT CAVOK 20/15 A2999=
200501170900 METAR MROC 170900Z 26005KT 9999 SCT025 20/15 A3000=
200501171000 METAR MROC 171000Z 09011KT 9999 SCT025 19/15 A3000=
200501171100 METAR MROC 171100Z 10008KT 9999 SCT025 20/14 A2999=
200501171200 METAR MROC 171200Z 10014KT 9999 SCT020 SCT300 19/14 A3003=
200501171300 METAR MROC 171300Z 09010G20KT 9999 FEW030 SCT250 19/13 A3004 NOSIG=
200501171400 METAR MROC 171400Z 10012G22KT 9999 FEW030 20/13 A3006 NOSIG=
200501171500 METAR MROC 171500Z 11015G30KT 9999 FEW025 21/14 A3006 NOSIG=
200501171600 METAR MROC 171600Z 09010G20KT 9999 FEW030 23/15 A3005 NOSIG=
200501171700 METAR MROC 171700Z 10017G27KT 9999 FEW030 24/15 A3002 NOSIG=
200501171800 METAR MROC 171800Z 13015G25KT 9999 FEW030 24/15 A3000 NOSIG=
200501171900 METAR MROC 171900Z 10019G29KT 9999 FEW035 23/14 A2997 NOSIG=
200501172000 METAR MROC 172000Z 10021G33KT 9999 FEW030 22/11 A2998 NOSIG=
200501172100 METAR MROC 172100Z 11018KT 9999 SCT030 22/13 A2997 NOSIG=
200501172200 METAR MROC 172200Z 10022G32KT 9999 FEW030 21/13 A2997 NOSIG=
200501172300 METAR MROC 172300Z 11014KT 9999 SCT030 20/13 A2999 NOSIG=
200501180000 METAR MROC 180000Z 11018KT 9999 FEW030 SCT250 19/14 A2999 NOSIG=
200501180100 METAR MROC 180100Z 11012KT 9999 FEW030 18/13 A3003 NOSIG=
200501180200 METAR MROC 180200Z 10019KT 9999 FEW030 18/14 A3004 NOSIG=
200501180300 METAR MROC 180300Z 11016KT 9999 FEW030 18/14 A3007 NOSIG=
200501180400 METAR MROC 180400Z 11010KT 9999 FEW030 18/12 A3009 NOSIG=
200501180500 METAR MROC 180500Z 11012KT CAVOK 17/13 A3007 NOSIG=
200501180600 METAR MROC 180600Z 11012KT CAVOK 17/13 A3006 NOSIG=
200501180700 METAR MROC 180700Z 11018KT CAVOK 17/13 A3004=
200501180800 METAR MROC 180800Z 10012KT CAVOK 17/13 A3003=
200501180900 METAR MROC 180900Z 07010KT 9999 FEW030 17/13 A3001=
200501181000 METAR MROC 181000Z 10012KT 9999 FEW030 17/13 A3000=
200501181100 METAR MROC 181100Z 07012KT 9999 FEW030 17/14 A3001=
200501181200 METAR MROC 181200Z 11018KT 9999 FEW025 18/14 A3002=
200501181300 METAR MROC 181300Z 07008KT 9999 FEW030 18/14 A3004 NOSIG=
200501181400 METAR MROC 181400Z 11015KT 9999 FEW030 21/15 A3007 NOSIG=
200501181500 METAR MROC 181500Z 12017KT 9999 FEW030 22/15 A3008 NOSIG=
200501181600 METAR MROC 181600Z 10015KT 9999 FEW030 23/15 A3006 NOSIG=
200501181700 METAR MROC 181700Z 10013KT 9999 SCT030 24/16 A3006 NOSIG=
200501181800 METAR MROC 181800Z 10016KT 9999 SCT030 25/15 A3003 NOSIG=
200501181900 METAR MROC 181900Z 10022KT 9999 SCT030 25/14 A2999 NOSIG=
200501182000 METAR MROC 182000Z 11017G27KT 9999 SCT030 25/15 A2996 NOSIG=
200501182100 METAR MROC 182100Z 08010KT 9999 FEW025 26/13 A2997 NOSIG=
200501182200 METAR MROC 182200Z 10017KT 9999 FEW025 22/13 A2997 NOSIG=
200501182300 METAR MROC 182300Z 10021G32KT 9999 FEW025 20/13 A2998 NOSIG=
200501190000 METAR MROC 190000Z 11018KT 9999 FEW025 19/14 A2999 NOSIG=
200501190100 METAR MROC 190100Z 10020G32KT 9999 FEW025 18/13 A3000 NOSIG=
200501190200 METAR MROC 190200Z 10019KT 9999 FEW025 18/13 A3004 NOSIG=
200501190300 METAR MROC 190300Z 11022G32KT 9999 FEW030 18/13 A3004 NOSIG=
200501190400 METAR MROC 190400Z 11018KT CAVOK 19/14 A3006 NOSIG=
200501190500 METAR MROC 190500Z 10013G23KT CAVOK 19/14 A3005 NOSIG=
200501190600 METAR MROC 190600Z 09010KT CAVOK 18/12 A3003 NOSIG=
200501190700 METAR MROC 190700Z 10014KT 9999 FEW030 SCT120 18/13 A3001 NOSIG=
200501191000 METAR MROC 191000Z 10014G25KT 9999 FEW025 18/15 A2999 NOSIG=
200501191200 METAR MROC 191200Z 10015G28KT 9999 FEW020 18/13 A2999 NOSIG=
200501191300 METAR MROC 191300Z 10023KT 9999 FEW025 19/13 A3000 NOSIG=
200501191400 METAR MROC 191400Z 10021G31KT 9999 FEW025 20/13 A3004 NOSIG=
200501191500 METAR MROC 191500Z 10022KT 9999 FEW025 22/14 A3004 NOSIG=
200501191600 METAR MROC 191600Z 10022KT 9999 FEW030 23/14 A3004 NOSIG=
200501191700 METAR MROC 191700Z 11022KT 9999 FEW030 23/14 A3001 NOSIG=
200501191800 METAR MROC 191800Z 10018G28KT 9999 FEW030 24/15 A2998 NOSIG=
200501191900 METAR MROC 191900Z 10016KT 9999 FEW030 24/15 A2995 NOSIG=
200501192000 METAR MROC 192000Z 10018G28KT 9999 FEW030 24/15 A2993 NOSIG=
200501192100 METAR MROC 192100Z 12019G29KT 9999 FEW030 23/16 A2990=
200501192200 METAR MROC 192200Z 11019KT 9999 FEW025 23/15 A2991=
200501192300 METAR MROC 192300Z 11021KT 9999 FEW025 21/15 A2992=
200501200000 METAR MROC 200000Z 10016KT 9999 FEW025 20/15 A2996=
200501200100 METAR MROC 200100Z 10010KT 9999 FEW030 20/14 A2998=
200501200200 METAR MROC 200200Z 11021KT CAVOK 19/14 A3000 NOSIG=
200501200300 METAR MROC 200300Z 12020KT 9999 FEW025 23/14 A2997 NOSIG=
200501200400 METAR MROC 200400Z 09015KT CAVOK 19/14 A3003 NOSIG=
200501200500 METAR MROC 200500Z 10014KT CAVOK 18/13 A3004 NOSIG=
200501200600 METAR MROC 200600Z 08010KT CAVOK 19/14 A3005 NOSIG=
200501200700 METAR MROC 200700Z 06007KT CAVOK 18/14 A3003 NOSIG=
200501200800 METAR MROC 200800Z 08007KT CAVOK 18/14 A3002 NOSIG=
200501200900 METAR MROC 200900Z 09010KT CAVOK 18/14 A3001 NOSIG=
200501201000 METAR MROC 201000Z 10008KT CAVOK 18/14 A3000 NOSIG=
200501201100 METAR MROC 201100Z 08006KT 9999 FEW030 18/14 A3002 NOSIG=
200501201200 METAR MROC 201200Z 09010KT 9999 FEW030 18/14 A3004 NOSIG=
200501201300 METAR MROC NIL=
200501201400 METAR MROC 201400Z 10011KT 9999 FEW025 21/14 A3008=
200501201500 METAR MROC 201500Z 09008KT 9999 FEW025 24/13 A3008=
200501201600 METAR MROC 201600Z 10015KT 9999 FEW030 23/13 A3008=
200501201700 METAR MROC 201700Z 11013KT 9999 FEW030 24/14 A3006=
200501201800 METAR MROC 201800Z 12016KT 9999 FEW030 24/14 A3004=
200501201900 METAR MROC 201900Z 10012KT 9999 FEW025 25/14 A3002=
200501202000 METAR MROC 202000Z 10013KT 9999 FEW025 25/14 A3000=
200501202100 METAR MROC 202100Z 12020KT 9999 FEW025 23/14 A2997 NOSIG=
200501202200 METAR MROC 202200Z 11017KT 9999 FEW025 22/14 A2998 NOSIG=
200501202300 METAR MROC 202300Z 11019G29KT 9999 FEW025 20/13 A2997 NOSIG=
200501210000 METAR MROC 210000Z 10014KT 9999 FEW025 18/13 A3000 NOSIG=
200501210100 METAR MROC 210100Z 11016KT 9999 FEW030 18/14 A3003 NOSIG=
200501210200 METAR MROC 210200Z 11014KT 9999 FEW030 18/14 A3006 NOSIG=
200501210300 METAR MROC 210300Z 09015KT CAVOK 18/14 A3007 NOSIG=
200501210400 METAR MROC 210400Z VRB03KT CAVOK 18/14 A3000 NOSIG=
200501210500 METAR MROC 210500Z 07009KT 9999 FEW030 19/14 A3007=
200501210600 METAR MROC 210600Z 04009KT CAVOK 18/14 A3005 NOSIG=
200501210800 METAR MROC 210800Z 02004KT CAVOK 18/14 A3000 NOSIG=
200501211000 METAR MROC 211000Z 06011KT CAVOK 18/14 A3000 NOSIG=
200501211100 METAR MROC 211100Z 07014KT 9999 FEW030 18/14 A3002 NOSIG=
200501211200 METAR MROC 211200Z 07008KT 9999 FEW025 SCT120 18/15 A3002 NOSIG=
200501211300 METAR MROC 211300Z 06007KT 9999 FEW025 SCT100 19/15 A3005 NOSIG=
200501211400 METAR MROC 211400Z 10012KT 9999 FEW025 BKN120 20/15 A3007 NOSIG=
200501211500 METAR MROC 211500Z 11012KT 9999 FEW025 BKN120 21/15 A3008 NOSIG=
200501211600 METAR MROC 211600Z 11016KT 9999 FEW025 BKN120 22/15 A3007 NOSIG=
200501211700 METAR MROC 211700Z 12015KT 9999 FEW025 BKN090 23/15 A3006=
200501211800 METAR MROC 211800Z 12017KT 9999 FEW025 SCT120 24/15 A3003 NOSIG=
200501211900 METAR MROC 211900Z 12017KT 9999 FEW025 SCT140 25/15 A3000=
200501212000 METAR MROC 212000Z 12016KT 9999 FEW025 SCT140 24/15 A2998 NOSIG=
200501212200 METAR MROC 212200Z 12016KT 9999 FEW030 SCT140 24/15 A2997 NOSIG=
200501220000 METAR MROC 220000Z 11017KT 9999 FEW030 20/15 A3000 NOSIG=
200501220100 METAR MROC 220100Z 11014G24KT CAVOK 19/15 A3002 NOSIG=
200501220200 METAR MROC 220200Z 10014G24KT CAVOK 19/15 A3004 NOSIG=
200501220300 METAR MROC 220300Z 11015KT CAVOK 19/15 A3006=
200501220400 METAR MROC 220400Z 12015KT CAVOK 19/15 A3007=
200501220500 METAR MROC 220500Z 11011KT CAVOK 19/15 A3006=
200501220600 METAR MROC 220600Z 09006KT CAVOK 19/15 A3006=
200501220700 METAR MROC 220700Z 10010KT CAVOK 19/15 A3002=
200501220800 METAR MROC 220800Z 10010KT CAVOK 19/15 A3001=
200501220900 METAR MROC 220900Z 08007KT CAVOK 19/15 A3001=
200501221000 METAR MROC 221000Z 06008KT CAVOK 18/15 A3001=
200501221100 METAR MROC 221100Z 06010KT 9999 FEW025 18/15 A3003=
200501221200 METAR MROC 221200Z 06010KT 9999 FEW025 18/15 A3003=
200501221300 METAR MROC 221300Z 08008KT CAVOK 20/15 A3005 NOSIG=
200501221400 METAR MROC 221400Z 10013KT CAVOK 22/15 A3008 NOSIG=
200501221500 METAR MROC 221500Z 11016KT CAVOK 23/15 A3009 NOSIG=
200501221600 METAR MROC 221600Z 09014KT CAVOK 25/15 A3008 NOSIG=
200501221700 METAR MROC 221700Z 11017KT 9999 FEW025 26/16 A3007 NOSIG=
200501221800 METAR MROC 221800Z 11013KT 9999 FEW030 27/16 A3004 NOSIG=
200501221900 METAR MROC 221900Z 10011KT 9999 FEW035 SCT300 27/16 A3001 NOSIG=
200501222000 METAR MROC 222000Z 10011KT 9999 SCT035 SCT300 28/16 A2999 NOSIG=
200501222100 METAR MROC 222100Z 12010KT 9999 SCT035 BKN300 27/16 A2998 NOSIG=
200501222200 METAR MROC 222200Z 10014KT 9999 SCT035 BKN300 26/16 A2998 NOSIG=
200501222300 METAR MROC 222300Z 11011KT 9999 SCT040 BKN300 24/16 A2999 NOSIG=
200501230000 METAR MROC 230000Z 11010KT 9999 FEW035 BKN300 21/16 A3001 NOSIG=
200501230100 METAR MROC 230100Z 12006KT 9999 FEW035 BKN300 19/15 A3004=
200501230200 METAR MROC 230200Z 11009KT CAVOK 20/15 A3007=
200501230300 METAR MROC 230300Z 11005KT CAVOK 19/15 A3009 NOSIG=
200501230400 METAR MROC 230400Z 09007KT CAVOK 19/15 A3009 NOSIG=
200501230500 METAR MROC 230500Z 08005KT CAVOK 18/15 A3008 NOSIG=
200501230600 METAR MROC 230600Z 06009KT CAVOK 18/15 A3006 NOSIG=
200501230700 METAR MROC 230700Z 07013KT CAVOK 18/15 A3003=
200501230800 METAR MROC 230800Z 09007KT CAVOK 18/15 A3002=
200501230900 METAR MROC 230900Z 06008KT CAVOK 18/14 A3001=
200501231000 METAR MROC 231000Z 07008KT CAVOK 17/14 A3001=
200501231100 METAR MROC 231100Z 08007KT CAVOK 18/14 A3002=
200501231200 METAR MROC 231200Z 07008KT CAVOK 17/14 A3004=
200501231300 METAR MROC 231300Z 04006KT CAVOK 18/14 A3006 NOSIG=
200501231400 METAR MROC 231400Z 12008KT CAVOK 23/15 A3008 NOSIG=
200501231500 METAR MROC 231500Z 10011KT CAVOK 24/15 A3009 NOSIG=
200501231600 METAR MROC 231600Z 11015KT 9999 FEW040 25/15 A3009 NOSIG=
200501231700 METAR MROC 231700Z 11011KT 9999 FEW040 26/15 A3008 NOSIG=
200501231800 METAR MROC 231800Z 12013KT 9999 FEW045 27/15 A3004 NOSIG=
200501231900 METAR MROC 231900Z 10013KT 9999 FEW045 27/15 A3001 NOSIG=
200501232000 METAR MROC 232000Z 11014KT 9999 FEW045 SCT100 28/14 A2999 NOSIG=
200501232100 METAR MROC 232100Z 10008KT 9999 SCT040 27/13 A2998 NOSIG=
200501232200 METAR MROC 232200Z 10005KT 9999 FEW040 SCT090 27/14 A2998 NOSIG=
200501232300 METAR MROC 232300Z 26010KT 9999 SCT040 24/18 A3000 NOSIG=
200501240000 METAR MROC 240000Z 11006KT 9999 FEW040 22/16 A3002 NOSIG=
200501240100 METAR MROC 240100Z 06003KT 9999 FEW040 21/15 A3006 NOSIG=
200501240200 METAR MROC 240200Z 05005KT CAVOK 21/15 A3007 NOSIG=
200501240300 METAR MROC 240300Z 09008KT CAVOK 20/16 A3011 NOSIG=
200501240400 METAR MROC 240400Z 03005KT CAVOK 20/15 A3011 NOSIG=
200501240500 METAR MROC 240500Z 10014KT CAVOK 20/16 A3009 NOSIG=
200501240600 METAR MROC 240600Z 09011KT CAVOK 20/15 A3008 NOSIG=
200501240900 METAR MROC 240900Z 09010KT CAVOK 19/15 A3006 NOSIG=
200501241000 METAR MROC 241000Z 07010KT CAVOK 19/15 A3006 NOSIG=
200501241100 METAR MROC 241100Z 10013KT CAVOK 20/15 A3007 NOSIG=
200501241200 METAR MROC 241200Z 10011KT 9999 FEW030 SCT250 20/15 A3009 NOSIG=
200501241300 METAR MROC 241300Z 08008KT 9999 SCT035 21/16 A3011 NOSIG=
200501241400 METAR MROC 241400Z 11009KT 9999 FEW030 23/16 A3014 NOSIG=
200501241500 METAR MROC 241500Z 11009KT 9999 SCT035 24/16 A3014 NOSIG=
200501241600 METAR MROC 241600Z 03005KT 9999 SCT035 25/15 A3013 NOSIG=
200501241700 METAR MROC 241700Z 09013KT 9999 FEW035 25/14 A3010 NOSIG=
200501241800 METAR MROC 241800Z 11016KT 9999 FEW035 25/14 A3008 NOSIG=
200501241900 METAR MROC 241900Z 10019KT 9999 FEW035 25/13 A3004 NOSIG=
200501242000 METAR MROC 242000Z 10020G30KT 9999 FEW030 SCT050 24/13 A3001 NOSIG=
200501242100 METAR MROC 242100Z 10014KT 9999 SCT030 SCT250 23/13 A3001=
200501242200 METAR MROC 242200Z 11017KT 9999 FEW030 SCT250 23/13 A3001=
200501242300 METAR MROC 242300Z 11020KT 9999 FEW030 21/16 A3001=
200501250200 METAR MROC 250200Z 11015KT 9999 FEW030 19/15 A3006=
200501250300 METAR MROC 250300Z 11018KT 9999 FEW035 20/15 A3006 NOSIG=
200501250400 METAR MROC 250400Z 11020KT 9999 FEW035 20/15 A3004 NOSIG=
200501250500 METAR MROC 250500Z 10012KT 9999 FEW035 19/15 A3006 NOSIG=
200501250600 METAR MROC 250600Z 08011KT 9999 FEW035 19/14 A3007 NOSIG=
200501250700 METAR MROC 250700Z 10011KT 9999 FEW035 18/12 A3003 NOSIG=
200501250800 METAR MROC 250800Z 10016KT 9999 FEW035 17/11 A3002 NOSIG=
200501250900 METAR MROC 250900Z 11018KT 9999 FEW035 17/10 A3000 NOSIG=
200501251000 METAR MROC 251000Z 10015KT 9999 FEW035 17/12 A2999 NOSIG=
200501251100 METAR MROC 251100Z 11017KT 9999 FEW035 17/12 A3000 NOSIG=
200501251200 METAR MROC 251200Z 11016KT 9999 FEW035 18/12 A3001 NOSIG=
200501251300 METAR MROC 251300Z 11017KT 9999 FEW030 19/12 A3002=
200501251400 METAR MROC 251400Z 11019KT 9999 FEW030 21/13 A3006=
200501251500 METAR MROC 251500Z 11019KT 9999 FEW030 22/13 A3006=
200501251600 METAR MROC 251600Z 12020KT 9999 FEW030 23/14 A3005=
200501251700 METAR MROC 251700Z 10016KT 9999 FEW035 25/14 A3003=
200501251800 METAR MROC 251800Z 10015KT 9999 FEW035 25/15 A3000=
200501251900 METAR MROC 251900Z 09016KT 9999 SCT030 25/15 A2999=
200501252100 METAR MROC 252100Z 10016KT 9999 FEW030 24/14 A2995 NOSIG=
200501252200 METAR MROC 252200Z 11015KT 9999 FEW030 24/14 A2995 NOSIG=
200501252300 METAR MROC 252300Z 12015KT 9999 FEW025 21/14 A2994 NOSIG=
200501260000 METAR MROC 260000Z 12015G25KT 9999 FEW025 20/14 A2994 NOSIG=
200501260100 METAR MROC 260100Z 10021KT CAVOK 19/14 A2997 NOSIG=
200501260200 METAR MROC 260200Z 10019KT CAVOK 19/14 A2999 NOSIG=
200501260300 METAR MROC 260300Z 11017KT CAVOK 19/14 A3000 NOSIG=
200501260400 METAR MROC 260400Z 11015KT CAVOK 19/14 A3001 NOSIG=
200501260600 METAR MROC 260600Z 10020KT CAVOK 19/13 A2997 NOSIG=
200501260900 METAR MROC 260900Z 11015KT CAVOK 18/13 A2992 NOSIG=
200501261100 METAR MROC 261100Z 10016KT CAVOK 18/13 A2993 NOSIG=
200501261200 METAR MROC 261200Z 11020KT CAVOK 18/13 A2994 NOSIG=
200501261300 METAR MROC 261300Z 11015KT CAVOK 19/14 A2996 NOSIG=
200501261400 METAR MROC 261400Z 10015KT 9999 FEW035 21/15 A2998 NOSIG=
200501261500 METAR MROC 261500Z 10015KT 9999 FEW035 23/15 A3000 NOSIG=
200501261600 METAR MROC 261600Z 11018KT 9999 FEW030 24/16 A3000 NOSIG=
200501261700 METAR MROC 261700Z 11018KT 9999 FEW030 25/15 A2998 NOSIG=
200501261800 METAR MROC 261800Z 11020KT 9999 FEW030 25/15 A2997 NOSIG=
200501261900 METAR MROC 261900Z 11016KT 9999 FEW025 25/15 A2994 NOSIG=
200501262000 METAR MROC 262000Z 10018KT 9999 FEW030 25/15 A2991 NOSIG=
200501262100 METAR MROC 262100Z 10014KT 9999 FEW035 25/15 A2990 NOSIG=
200501262200 METAR MROC 262200Z 10018KT 9999 FEW030 24/15 A2990 NOSIG=
200501262300 METAR MROC 262300Z 11011KT 9999 FEW030 22/15 A2991 NOSIG=
200501270000 METAR MROC 270000Z 11015KT 9999 FEW025 20/15 A2992 NOSIG=
200501270100 METAR MROC 270100Z 12015KT CAVOK 20/15 A2994 NOSIG=
200501270200 METAR MROC 270200Z 12017KT CAVOK 19/15 A2995 NOSIG=
200501270300 METAR MROC 270300Z 12016KT CAVOK 19/15 A2998 NOSIG=
200501270400 METAR MROC 270400Z 10016KT CAVOK 20/15 A2999 NOSIG=
200501270500 METAR MROC 270500Z 11015KT CAVOK 19/15 A2999 NOSIG=
200501270600 METAR MROC 270600Z 10015KT CAVOK 19/15 A2998 NOSIG=
200501271000 METAR MROC 271000Z 090011KT 9999 FEW030 20/18 A2993=
200501271100 METAR MROC 271100Z 06005KT 9999 FEW030 19/15 A2996=
200501271200 METAR MROC 271200Z 09009KT 9999 FEW030 20/16 A2997 NOSIG=
200501271300 METAR MROC 271300Z 11016KT CAVOK 21/16 A2998 NOSIG=
200501271500 METAR MROC 271500Z 11016KT CAVOK 24/16 A3002 NOSIG=
200501271600 METAR MROC 271600Z 12011KT 9999 FEW030 26/16 A3001 NOSIG=
200501271700 METAR MROC 271700Z 11017KT 9999 FEW030 26/16 A2999 NOSIG=
200501271800 METAR MROC 271800Z 11015KT 9999 FEW030 27/16 A2997 NOSIG=
200501271900 METAR MROC 271900Z 10013KT 9999 FEW035 28/16 A2994 NOSIG=
200501272000 METAR MROC 272000Z 11016KT 9999 FEW035 27/16 A2992 NOSIG=
200501272300 METAR MROC 272300Z 11013KT 9999 FEW035 25/16 A2991 NOSIG=
200501280000 METAR MROC 280000Z 11009KT 9999 FEW035 23/16 A2993 NOSIG=
200501280100 METAR MROC 280100Z 10012KT 9999 FEW035 21/16 A2995 NOSIG=
200501280200 METAR MROC 280200Z 11016KT 9999 FEW035 21/17 A2997 NOSIG=
200501280300 METAR MROC 280300Z 10015KT 9999 FEW030 21/17 A2999 NOSIG=
200501280400 METAR MROC 280400Z 10015KT 9999 FEW030 21/16 A2999 NOSIG=
200501280500 METAR MROC 280500Z 10014KT 9999 FEW030 21/17 A2999 NOSIG=
200501280600 METAR MROC 280600Z 10014KT CAVOK 21/16 A2997 NOSIG=
200501280700 METAR MROC 280700Z 08007KT CAVOK 21/17 A2996 NOSIG=
200501280800 METAR MROC 280800Z 06010KT CAVOK 21/17 A2995=
200501280900 METAR MROC 280900Z 07006KT CAVOK 21/17 A2994=
200501281000 METAR MROC 281000Z 07008KT CAVOK 20/17 A2994=
200501281100 METAR MROC 281100Z 08009KT 9999 FEW030 21/17 A2995=
200501281200 METAR MROC 281200Z 11016KT 9999 FEW025 21/17 A2996=
200501281300 METAR MROC 281300Z 11014KT 9999 FEW030 22/17 A2997 NOSIG=
200501281400 METAR MROC 281400Z 11014KT 9999 FEW030 24/17 A2999 NOSIG=
200501281500 METAR MROC 281500Z 10019KT 9999 FEW030 25/17 A2999 NOSIG=
200501281600 METAR MROC 281600Z 11017KT 9999 FEW030 ///// A2999 NOSIG=
200501281607 METAR MROC 281607Z 11017KT 9999 FEW030 26/17 A2999 NOSIG=
200501281700 METAR MROC 281700Z 09018KT 9999 SCT035 28/17 A2997 NOSIG=
200501281800 METAR MROC 281800Z 10017KT 9999 SCT035 28/17 A2994 NOSIG=
200501281900 METAR MROC 281900Z 11017KT 9999 SCT035 28/17 A2993 NOSIG=
200501282000 METAR MROC 282000Z 09016KT 9999 SCT035 28/16 A2990 NOSIG=
200501282100 METAR MROC 282100Z 09015KT 9999 FEW035 28/17 A2988 NOSIG=
200501282200 METAR MROC 282200Z 10016KT 9999 FEW030 SCT250 27/16 A2987=
200501282300 METAR MROC 282300Z 10016KT 9999 FEW030 SCT250 25/17 A2988=
200501290000 METAR MROC 290000Z 10011KT 9999 FEW025 SCT250 23/16 A2990=
200501290100 METAR MROC 290100Z 09013KT CAVOK 22/17 A2992 NOSIG=
200501290200 METAR MROC 290200Z 11014KT CAVOK 21/17 A2993 NOSIG=
200501290300 METAR MROC 290300Z 09012KT CAVOK 22/16 A2996 NOSIG=
200501290400 METAR MROC 290400Z 10014KT CAVOK 22/16 A2996 NOSIG=
200501290500 METAR MROC 290500Z 10018KT CAVOK 22/17 A2995 NOSIG=
200501290600 METAR MROC 290600Z 09010G20KT CAVOK 22/15 A2995 NOSIG=
200501290800 METAR MROC 290800Z 10012KT CAVOK 21/14 A2992 NOSIG=
200501291000 METAR MROC 291000Z 10016KT CAVOK 21/15 A2991 NOSIG=
200501291100 METAR MROC 291100Z 10015KT CAVOK 21/14 A2993 NOSIG=
200501291200 METAR MROC 291200Z 10013KT CAVOK 20/14 A2994 NOSIG=
200501291300 METAR MROC 291300Z 11018KT CAVOK 21/15 A2994=
200501291400 METAR MROC 291400Z 12018KT CAVOK 23/14 A2996=
200501291500 METAR MROC 291500Z 11017KT CAVOK 24/15 A2996=
200501291700 METAR MROC 291700Z 10020G30KT CAVOK 27/14 A2995=
200501291800 METAR MROC 291800Z 10020KT CAVOK 27/15 A2993=
200501291900 METAR MROC 291900Z 10020KT CAVOK 28/14 A2991=
200501292000 METAR MROC 292000Z 10016KT 9999 FEW030 27/13 A2989=
200501292100 METAR MROC 292100Z 10017KT 9999 FEW035 BKN250 27/14 A2988 NOSIG=
200501292200 METAR MROC 292200Z 10018KT 9999 FEW035 BKN250 25/15 A2988 NOSIG=
200501292300 METAR MROC 292300Z 10016KT 9999 FEW035 BKN250 25/15 A2989 NOSIG=
200501300000 METAR MROC 300000Z 11015KT 9999 FEW035 BKN250 23/15 A2990=
200501300100 METAR MROC 300100Z 10015KT 9999 FEW035 SCT250 22/14 A2992 NOSIG=
200501300200 METAR MROC 300200Z 10014KT 9999 FEW030 SCT250 22/15 A2994 NOSIG=
200501300300 METAR MROC 300300Z 10017KT 9999 FEW035 22/15 A2995 NOSIG=
200501300400 METAR MROC 300400Z 10017KT 9999 FEW035 22/14 A2994 NOSIG=
200501300600 METAR MROC NIL=
200501300700 METAR MROC 300700Z 10013KT 9999 FEW035 21/15 A2992 NOSIG=
200501300800 METAR MROC 300800Z 12011KT 9999 FEW035 20/15 A2990 NOSIG=
200501301000 METAR MROC 301000Z 10014KT 9999 FEW035 21/14 A2988 NOSIG=
200501301100 METAR MROC 301100Z 10011KT 9999 FEW035 20/14 A2988 NOSIG=
200501301200 METAR MROC 301200Z 06006KT 9999 FEW035 19/14 A2991 NOSIG=
200501301300 METAR MROC 301300Z 11016KT 9999 FEW030 20/15 A2992=
200501301400 METAR MROC 301400Z 11019KT 9999 FEW035 23/15 A2993=
200501301500 METAR MROC 301500Z 10019KT 9999 FEW035 24/14 A2995=
200501301600 METAR MROC 301600Z 10015KT 9999 FEW040 26/13 A2995=
200501301700 METAR MROC 301700Z 09015KT 9999 FEW040 27/13 A2994=
200501301800 METAR MROC 301800Z 08015KT 9999 FEW040 28/12 A2991=
200501301900 METAR MROC 301900Z 07018KT 9999 FEW040 29/12 A2989=
200501302000 METAR MROC 302000Z 07018KT 9999 FEW040 28/12 A2987=
200501302100 METAR MROC 302100Z 07019KT 9999 FEW045 28/13 A2985 NOSIG=
200501302200 METAR MROC 302200Z 07016KT 9999 FEW040 27/14 A2985 NOSIG=
200501302300 METAR MROC 302300Z 07016KT 9999 FEW035 24/15 A2986 NOSIG=
200501310000 METAR MROC 310000Z 10012KT 9999 FEW030 22/14 A2988 NOSIG=
200501310100 METAR MROC 310100Z 12010KT 9999 FEW030 21/15 A2990 NOSIG=
200501310200 METAR MROC 310200Z 10010KT CAVOK 21/14 A2992=
200501310300 METAR MROC 310300Z 10010KT CAVOK 21/14 A2993=
200501310400 METAR MROC 310400Z 10015KT CAVOK 21/14 A2993=
200501310500 METAR MROC 310500Z 10010KT CAVOK 20/13 A2993=
200501310600 METAR MROC 310600Z 10013KT CAVOK 20/14 A2991=
200501310700 METAR MROC 310700Z 10015KT CAVOK 21/14 A2989=
200501310900 METAR MROC 310900Z 11014KT CAVOK 19/14 A2987=
200501311000 METAR MROC 311000Z 11013KT CAVOK 19/14 A2987=
200501311100 METAR MROC 311100Z 11013KT CAVOK 19/14 A2989=
200501311200 METAR MROC 311200Z 11015KT 9999 FEW040 19/14 A2991=
200501311300 METAR MROC 311300Z 11015KT 9999 FEW040 SCT080 20/15 A2993 NOSIG=
200501311400 METAR MROC 311400Z 11018KT 9999 FEW035 22/15 A2994 NOSIG=
200501311500 METAR MROC 311500Z 12017KT 9999 FEW035 24/15 A2993 NOSIG=
200501311600 METAR MROC 311600Z 12017KT 9999 FEW035 SCT080 26/16 A2992 NOSIG=
200501311700 METAR MROC 311700Z 12017KT 9999 FEW035 SCT080 26/16 A2992 NOSIG=
200501311800 METAR MROC 311800Z 12020KT 9999 FEW025 SCT100 26/16 A2990=
200501311900 METAR MROC 311900Z 11020KT 9999 FEW025 SCT080 26/15 A2988=
200501312000 METAR MROC 312000Z 11018KT 9999 FEW025 SCT100 27/16 A2985 NOSIG=
200501312100 METAR MROC 312100Z 09012KT 9999 FEW030 SCT100 26/16 A2986 NOSIG=
200501312200 METAR MROC 312200Z 11012KT 9999 SCT030 SCT100 25/16 A2985 NOSIG=
200501312300 METAR MROC 312300Z 12010KT 9999 FEW030 23/16 A2985 NOSIG=
200502010000 METAR MROC 010000Z 08008KT 9999 FEW030 23/16 A2986 NOSIG=
200502010100 METAR MROC 010100Z 10010KT 9999 FEW030 21/16 A2988=
200502010200 METAR MROC 010200Z 11008KT 9999 FEW030 21/16 A2990=
200502010300 METAR MROC 010300Z 10010KT 9999 FEW030 21/16 A2992=
200502010400 METAR MROC 010400Z 10010KT 9999 FEW030 21/16 A2993=
200502010500 METAR MROC 010500Z 11014KT 9999 FEW030 20/16 A2991=
200502010600 METAR MROC 010600Z 11010KT 9999 FEW030 20/15 A2990=
200502010700 METAR MROC 010700Z 10014KT 9999 FEW030 20/15 A2988=
200502010900 METAR MROC 010900Z 10013KT 9999 CAVOK 20/14 A2987=
200502011000 METAR MROC 011000Z 11014KT 9999 CAVOK 20/14 A2988=
200502011100 METAR MROC 011100Z 11009KT CAVOK 19/14 A2990=
200502011200 METAR MROC 011200Z 12009KT CAVOK 19/14 A2992=
200502011300 METAR MROC 011300Z 09013KT CAVOK 21/14 A2993 NOSIG=
200502011400 METAR MROC 011400Z 09014KT CAVOK 23/14 A2996 NOSIG=
200502011500 METAR MROC 011500Z 10014G24KT CAVOK 24/14 A2996 NOSIG=
200502011600 METAR MROC 011600Z 09019KT CAVOK 25/15 A2995 NOSIG=
200502011700 METAR MROC 011700Z 09016KT 9999 FEW035 26/15 A2993 NOSIG=
200502011800 METAR MROC 011800Z 11011KT 9999 FEW035 27/15 A2991 NOSIG=
200502011900 METAR MROC 011900Z 10015G27KT 9999 FEW030 27/15 A2988 NOSIG=
200502012000 METAR MROC 012000Z 12019KT 9999 FEW030 26/16 A2986 NOSIG=
200502012100 METAR MROC 012100Z 10019KT 9999 FEW035 25/16 A2985 NOSIG=
200502012200 METAR MROC 012200Z 11014KT 9999 FEW035 24/15 A2986 NOSIG=
200502012300 METAR MROC 012300Z 11020KT 9999 FEW030 22/15 A2986 NOSIG=
200502020000 METAR MROC 020000Z 10017KT 9999 FEW030 21/15 A2989 NOSIG=
200502020100 METAR MROC 020100Z 11018KT 9999 FEW030 20/14 A2991 NOSIG=
200502020200 METAR MROC 020200Z 12014KT 9999 FEW035 20/15 A2992 NOSIG=
200502020300 METAR MROC 020300Z 11018KT 9999 FEW030 20/14 A2995 NOSIG=
200502020400 METAR MROC 020400Z 11015KT 9999 FEW030 20/14 A2996 NOSIG=
200502020500 METAR MROC 020500Z 11010KT 9999 FEW030 19/14 A2995 NOSIG=
200502020600 METAR MROC 020600Z 11018KT 9999 FEW030 19/14 A2994 NOSIG=
200502020700 METAR MROC 020700Z 11015KT 9999 FEW030 19/14 A2992 NOSIG=
200502020800 METAR MROC 020800Z 11014KT 9999 FEW030 19/14 A2990=
200502020900 METAR MROC 020900Z 12017KT CAVOK 19/14 A2989=
200502021000 METAR MROC 021000Z 11019KT CAVOK 19/14 A2989=
200502021100 METAR MROC 021100Z 10014KT CAVOK 18/12 A2990=
200502021200 METAR MROC 021200Z 11014KT CAVOK 18/11 A2991=
200502021300 METAR MROC 021300Z 11016KT CAVOK 20/11 A2992 NOSIG=
200502021400 METAR MROC 021400Z 10014KT CAVOK 23/11 A2994 NOSIG=
200502021500 METAR MROC 021500Z 11016KT CAVOK 25/11 A2995 NOSIG=
200502021600 METAR MROC 021600Z 11018KT CAVOK 26/13 A2995 NOSIG=
200502021700 METAR MROC 021700Z 11015KT CAVOK 27/14 A2994 NOSIG=
200502021800 METAR MROC 021800Z 13017KT 9999 FEW040 27/14 A2991 NOSIG=
200502021900 METAR MROC 021900Z 10015KT 9999 FEW040 27/15 A2990 NOSIG=
200502022000 METAR MROC 022000Z 09012KT 9999 FEW040 27/15 A2988 NOSIG=
200502022100 METAR MROC 022100Z 10014KT 9999 FEW030 27/15 A2987=
200502022200 METAR MROC 022200Z 08016KT 9999 FEW035 25/15 A2988=
200502022300 METAR MROC 022300Z 08014KT 9999 SCT030 23/13 A2990=
200502030000 METAR MROC 030000Z 09013KT 9999 FEW025 21/11 A2993=
200502030100 METAR MROC 030100Z 10015KT CAVOK 20/11 A2994=
200502030200 METAR MROC 030200Z 11017KT 9999 FEW035 19/13 A2996 NOSIG=
200502030300 METAR MROC 030300Z 10012G22KT CAVOK 20/12 A2997 NOSIG=
200502030400 METAR MROC 030400Z 11021KT CAVOK 20/12 A2998 NOSIG=
200502030500 METAR MROC 030500Z 10017KT CAVOK 20/11 A2997 NOSIG=
200502030600 METAR MROC 030600Z 10012G22KT CAVOK 20/12 A2995 NOSIG=
200502030700 METAR MROC 030700Z 10014G24KT CAVOK 20/11 A2994 NOSIG=
200502031000 METAR MROC 031000Z 10017KT CAVOK 19/12 A2991 NOSIG=
200502031100 METAR MROC 031100Z 10015KT CAVOK 19/13 A2994 NOSIG=
200502031200 METAR MROC 031200Z 11014KT CAVOK 18/13 A2997 NOSIG=
200502031300 METAR MROC 031300Z 10016KT CAVOK 20/13 A2998=
200502031400 METAR MROC 031400Z 10020KT CAVOK 22/13 A3000=
200502031500 METAR MROC 031500Z 10018KT CAVOK 24/13 A3000=
200502031600 METAR MROC 031600Z 10020KT CAVOK 25/12 A3001=
200502031700 METAR MROC 031700Z 10021KT 9999 FEW030 25/12 A2999=
200502031800 METAR MROC 031800Z 09021KT 9999 FEW035 26/12 A2996=
200502031900 METAR MROC 031900Z 08019KT 9999 FEW030 27/12 A2994=
200502032000 METAR MROC 032000Z 08020KT CAVOK 26/13 A2991=
200502032100 METAR MROC 032100Z 09018KT 9999 FEW035 25/14 A2991=
200502032300 METAR MROC 032300Z 08016KT 9999 FEW030 22/13 A2992=
200502040000 METAR MROC 040000Z 09014KT 9999 FEW030 20/11 A2992=
200502040100 METAR MROC 040100Z 11020KT 9999 FEW035 20/13 A2993 NOSIG=
200502040300 METAR MROC 040300Z 11018KT CAVOK 19/14 A2996 NOSIG=
200502040400 METAR MROC 040400Z 11016KT CAVOK 19/13 A2999 NOSIG=
200502040500 METAR MROC 040500Z 11010KT CAVOK 18/13 A2999 NOSIG=
200502040600 METAR MROC 040600Z 10017KT CAVOK 19/13 A2997 NOSIG=
200502040700 METAR MROC 040700Z 11017KT CAVOK 19/13 A2995 NOSIG=
200502040800 METAR MROC 040800Z 10016KT CAVOK 18/13 A2993 NOSIG=
200502040900 METAR MROC 040900Z 10021KT CAVOK 19/13 A2993 NOSIG=
200502041000 METAR MROC 041000Z 09016KT 9999 FEW035 19/12 A2995 NOSIG=
200502041100 METAR MROC 041100Z 11016KT 9999 FEW035 18/13 A2998 NOSIG=
200502041200 METAR MROC 041200Z 11018KT 9999 FEW035 18/13 A2998 NOSIG=
200502041300 METAR MROC 041300Z 10018KT 9999 FEW035 19/13 A3000=
200502041400 METAR MROC 041400Z 11021G31KT 9999 FEW035 21/13 A3002=
200502041500 METAR MROC 041500Z 12024KT 9999 FEW035 22/13 A3001=
200502041600 METAR MROC 041600Z 10021KT 9999 FEW035 24/22 A3001=
200502041700 METAR MROC 041700Z 10018G28KT 9999 FEW040 25/12 A3000=
200502041800 METAR MROC 041800Z 10020KT 9999 FEW035 25/14 A2998=
200502041900 METAR MROC 041900Z 08018KT 9999 FEW030 25/14 A2994=
200502042000 METAR MROC 042000Z 07018KT 9999 FEW035 26/12 A2991=
200502042100 METAR MROC 042100Z 08019KT 9999 FEW040 25/11 A2989 NOSIG=
200502042200 METAR MROC 042200Z 08018KT 9999 FEW040 24/11 A2989 NOSIG=
200502042300 METAR MROC 042300Z 07018KT 9999 FEW040 23/11 A2991 NOSIG=
200502050000 METAR MROC 050000Z 08016KT 9999 FEW040 21/12 A2992 NOSIG=
200502050100 METAR MROC 050100Z 10016KT 9999 FEW040 20/13 A2995 NOSIG=
200502050200 METAR MROC 050200Z 10019KT CAVOK 19/14 A2996=
200502050300 METAR MROC 050300Z 10018KT CAVOK 19/14 A2997=
200502050400 METAR MROC 050400Z 10022KT CAVOK 19/14 A2998=
200502050500 METAR MROC 050500Z 10019KT CAVOK 19/14 A2996=
200502050700 METAR MROC 050700Z 11015KT CAVOK 19/14 A2993=
200502050800 METAR MROC 050800Z 10014KT CAVOK 19/14 A2993=
200502050900 METAR MROC 050900Z 11020KT CAVOK 19/14 A2991=
200502051000 METAR MROC 051000Z 11017KT CAVOK 19/14 A2992=
200502051115 METAR MROC 051115Z 10016KT CAVOK 19/13 A2993=
200502051200 METAR MROC 051200Z 09014KT 9999 FEW025 19/13 A2994=
200502051300 METAR MROC 051300Z 11016KT 9999 FEW025 20/14 A2997 NOSIG=
200502051400 METAR MROC 051400Z 10014KT 9999 FEW030 21/14 A3000 NOSIG=
200502051500 METAR MROC 051500Z 10020KT 9999 FEW030 23/12 A3001 NOSIG=
200502051600 METAR MROC 051600Z 09020KT 9999 FEW035 24/12 A3000 NOSIG=
200502051700 METAR MROC 051700Z 11020G32KT CAVOK 24/15 A2997 NOSIG=
200502051800 METAR MROC 051800Z 11022G32KT 9999 FEW040 24/16 A2993 NOSIG=
200502051900 METAR MROC 051900Z 11022G32KT 9999 FEW040 25/15 A2992 NOSIG=
200502052000 METAR MROC 052000Z 09020G30KT 9999 FEW025 26/15 A2989 NOSIG=
200502052100 METAR MROC 052100Z 09015KT 9999 FEW035 26/15 A2988 NOSIG=
200502052200 METAR MROC 052200Z 09016KT 9999 FEW030 25/14 A2988 NOSIG=
200502052300 METAR MROC 052300Z 07015G25KT 9999 FEW030 23/14 A2990 NOSIG=
200502060000 METAR MROC 060000Z 10016G26KT 9999 FEW030 20/15 A2991 NOSIG=
200502060100 METAR MROC 060100Z 09016G27KT CAVOK 20/14 A2992 NOSIG=
200502060200 METAR MROC 060200Z 11023KT CAVOK 19/15 A2992 NOSIG=
200502060300 METAR MROC 060300Z 10019KT CAVOK 20/15 A2996=
200502060400 METAR MROC 060400Z 11011KT CAVOK 18/14 A2998=
200502060500 METAR MROC 060500Z 10015KT CAVOK 19/14 A2998=
200502060600 METAR MROC 060600Z 10016KT CAVOK 19/14 A2996=
200502060700 METAR MROC 060700Z 10018KT CAVOK 19/14 A2995=
200502060800 METAR MROC 060800Z 10018KT CAVOK 18/14 A2994=
200502060900 METAR MROC 060900Z 12018KT CAVOK 19/14 A2993=
200502061000 METAR MROC 061000Z 11015KT CAVOK 18/14 A2994=
200502061100 METAR MROC 061100Z 11018KT CAVOK 18/14 A2994=
200502061200 METAR MROC 061200Z 11018KT 9999 FEW030 18/14 A2994=
200502061300 METAR MROC 061300Z 10015G25KT CAVOK 20/13 A2996 NOSIG=
200502061400 METAR MROC 061400Z 10015G26KT CAVOK 21/14 A2999 NOSIG=
200502061500 METAR MROC 061500Z 10016G26KT CAVOK 23/14 A3000 NOSIG=
200502061600 METAR MROC 061600Z 10016KT CAVOK 25/23 A3000 NOSIG=
200502061700 METAR MROC 061700Z 12018KT CAVOK 26/13 A2998 NOSIG=
200502061800 METAR MROC 061800Z 10017KT CAVOK 26/14 A2997 NOSIG=
200502061900 METAR MROC 061900Z 09014KT 9999 FEW040 27/14 A2995 NOSIG=
200502062000 METAR MROC 062000Z 09015G25KT 9999 FEW040 26/14 A2993 NOSIG=
200502062100 METAR MROC 062100Z 10016KT 9999 FEW040 26/14 A2991 NOSIG=
200502062200 METAR MROC 062200Z 09014KT 9999 FEW040 25/13 A2991 NOSIG=
200502062300 METAR MROC 062300Z 09017KT 9999 FEW040 23/13 A2991 NOSIG=
200502070000 METAR MROC 070000Z 09017KT 9999 FEW040 23/13 A2991 NOSIG=
200502070100 METAR MROC 070100Z 10015KT 9999 FEW040 20/13 A2994 NOSIG=
200502070200 METAR MROC 070200Z 09016KT 9999 FEW040 19/12 A2996=
200502070500 METAR MROC 070500Z 09014KT CAVOK 18/14 A3001 NOSIG=
200502070600 METAR MROC 070600Z 10018KT CAVOK 19/10 A2998 NOSIG=
200502070700 METAR MROC 070700Z 10015KT CAVOK 18/12 A2997 NOSIG=
200502070800 METAR MROC 070800Z 11016KT CAVOK 18/10 A2993=
200502070900 METAR MROC 070900Z 11012KT CAVOK 17/11 A2994=
200502071000 METAR MROC 071000Z 06008KT CAVOK 17/09 A2994=
200502071100 METAR MROC 071100Z 08009KT CAVOK 17/09 A2994=
200502071200 METAR MROC 071200Z 10018KT CAVOK 17/09 A2994=
200502071300 METAR MROC 071300Z 10014KT CAVOK 19/08 A2996 NOSIG=
200502071400 METAR MROC 071400Z 11014KT CAVOK 21/08 A2998 NOSIG=
200502071500 METAR MROC 071500Z 10016KT CAVOK 24/12 A2999 NOSIG=
200502071600 METAR MROC 071600Z 11015KT CAVOK 26/14 A2999 NOSIG=
200502071700 METAR MROC 071700Z 11019KT CAVOK 27/14 A2996 NOSIG=
200502071800 METAR MROC 071800Z 11014KT 9999 FEW040 28/13 A2993 NOSIG=
200502071900 METAR MROC 071900Z 10015KT 9999 FEW040 29/14 A2990 NOSIG=
200502072000 METAR MROC 072000Z 09012KT 9999 FEW040 29/14 A2988=
200502072100 METAR MROC 072100Z 10013KT 9999 FEW040 28/15 A2986=
200502072200 METAR MROC 072200Z 11014KT 9999 FEW040 26/15 A2986=
200502072300 METAR MROC 072300Z 11014KT 9999 FEW040 24/15 A2987=
200502080000 METAR MROC 080000Z 10014KT 9999 FEW040 22/16 A2988=
200502080100 METAR MROC 080100Z 10010KT 9999 FEW045 21/16 A2992=
200502080200 METAR MROC 080200Z 08010KT CAVOK 21/16 A2995=
200502080300 METAR MROC 080300Z 09010KT CAVOK 21/15 A2997 NOSIG=
200502080400 METAR MROC 080400Z 12005KT 9999 FEW035 20/16 A2999 NOSIG=
200502080500 METAR MROC 080500Z 11004KT CAVOK 20/16 A2998 NOSIG=
200502080600 METAR MROC 080600Z 08007KT CAVOK 20/16 A2997 NOSIG=
200502080700 METAR MROC 080700Z 06007KT CAVOK 20/16 A2997 NOSIG=
200502080900 METAR MROC 080900Z 10007KT 9999 FEW025 SCT120 19/15 A2994 NOSIG=
200502081000 METAR MROC 081000Z 08005KT 9999 FEW030 19/15 A2994 NOSIG=
200502081200 METAR MROC 081200Z 09006KT 9999 FEW020 19/15 A2996 NOSIG=
200502081300 METAR MROC 081300Z 10009KT CAVOK 21/15 A2997=
200502081400 METAR MROC 081400Z 10012KT CAVOK 23/15 A2998=
200502081500 METAR MROC 081500Z 11014KT CAVOK 24/16 A3000=
200502081600 METAR MROC 081600Z 10015KT 9999 FEW035 26/16 A2999=
200502081700 METAR MROC 081700Z 12015KT 9999 FEW035 27/16 A2997=
200502081800 METAR MROC 081800Z 12015KT 9999 FEW035 27/16 A2995=
200502081900 METAR MROC 081900Z 10015KT 9999 SCT040 27/16 A2992=
200502082000 METAR MROC 082000Z 11016KT 9999 SCT030 27/15 A2989=
200502082100 METAR MROC 082100Z 12018KT 9999 SCT030 27/16 A2987=
200502082200 METAR MROC 082200Z 12016KT 9999 SCT030 25/16 A2987=
200502082300 METAR MROC 082300Z 11019KT 9999 SCT030 23/16 A2988=
200502090000 METAR MROC 090000Z 10013KT 9999 SCT030 21/15 A2990=
200502090100 METAR MROC 090100Z 10012KT 9999 SCT030 20/15 A2993=
200502090200 METAR MROC 090200Z 10011KT 9999 SCT030 20/16 A2996=
200502090300 METAR MROC 090300Z 11013KT 9999 SCT030 20/15 A2997 NOSIG=
200502090400 METAR MROC 090400Z 11015KT 9999 FEW030 20/16 A2996 NOSIG=
200502090500 METAR MROC 090500Z 10019KT 9999 FEW030 20/15 A2995 NOSIG=
200502090600 METAR MROC 090600Z 10014KT 9999 FEW035 19/15 A2995 NOSIG=
200502090700 METAR MROC 090700Z 10012KT 9999 FEW035 19/15 A2993 NOSIG=
200502090800 METAR MROC 090800Z 09007KT 9999 FEW035 19/15 A2992 NOSIG=
200502090900 METAR MROC 090900Z 09010KT 9999 FEW035 19/15 A2990 NOSIG=
200502091000 METAR MROC 091000Z 07007KT 9999 FEW035 18/14 A2991 NOSIG=
200502091100 METAR MROC 091100Z 06006KT 9999 FEW035 18/14 A2990 NOSIG=
200502091200 METAR MROC 091200Z 11012KT 9999 FEW035 19/15 A2991 NOSIG=
200502091300 METAR MROC 091300Z 11011KT 9999 FEW035 20/15 A2993=
200502091400 METAR MROC 091400Z 11018KT 9999 FEW035 22/15 A2995=
200502091500 METAR MROC 091500Z 10012KT 9999 FEW035 22/15 A2995=
200502091600 METAR MROC 091600Z 10012KT 9999 FEW035 25/13 A2997=
200502091700 METAR MROC 091700Z 11014KT 9999 FEW040 26/13 A2996=
200502091800 METAR MROC 091800Z 10012KT 9999 FEW040 27/14 A2993=
200502091900 METAR MROC 091900Z 09012KT 9999 FEW040 28/14 A2990=
200502092000 METAR MROC 092000Z 09014KT 9999 FEW040 27/14 A2987=
200502092100 METAR MROC 092100Z 11014KT 9999 FEW040 27/14 A2985 NOSIG=
200502092200 METAR MROC 092200Z 09015KT 9999 FEW040 26/14 A2985 NOSIG=
200502092300 METAR MROC 092300Z 10014KT 9999 FEW040 24/14 A2987 NOSIG=
200502100000 METAR MROC 100000Z 10015KT 9999 FEW035 22/15 A2988 NOSIG=
200502100100 METAR MROC 100100Z 10014KT 9999 FEW035 21/15 A2991 NOSIG=
200502100200 METAR MROC 100200Z 09012KT CAVOK 20/15 A2994=
200502100300 METAR MROC 100300Z 09007KT CAVOK 20/15 A2997=
200502100400 METAR MROC 100400Z 10011KT CAVOK 20/14 A2997=
200502100500 METAR MROC 100500Z 11013KT CAVOK 19/15 A2998=
200502100600 METAR MROC 100600Z 10009KT CAVOK 19/14 A2997=
200502100700 METAR MROC 100700Z 10008KT CAVOK 19/14 A2994=
200502100900 METAR MROC 100900Z 10010KT CAVOK 18/14 A2992=
200502101000 METAR MROC 101000Z 11012KT CAVOK 19/14 A2991=
200502101100 METAR MROC 101100Z 10012KT CAVOK 19/14 A2993=
200502101200 METAR MROC 101200Z 11012KT 9999 FEW025 19/15 A2995=
200502101300 METAR MROC 101300Z 09012KT 9999 FEW030 20/14 A2998=
200502101400 METAR MROC 101400Z 09015KT 9999 FEW030 22/13 A3000 NOSIG=
200502101500 METAR MROC 101500Z 10018KT 9999 FEW035 23/14 A3001 NOSIG=
200502101600 METAR MROC 101600Z 10016KT 9999 FEW035 25/14 A3000 NOSIG=
200502101700 METAR MROC 101700Z 09015KT 9999 FEW035 26/14 A2997 NOSIG=
200502101800 METAR MROC 101800Z 08015KT 9999 FEW030 26/13 A2995 NOSIG=
200502101900 METAR MROC 101900Z 10018KT 9999 FEW035 SCT300 27/12 A2993 NOSIG=
200502102000 METAR MROC 102000Z 09015KT 9999 FEW035 BKN300 25/13 A2992 NOSIG=
200502102100 METAR MROC 102100Z 08018KT 9999 FEW035 SCT250 26/14 A2990 NOSIG=
200502102200 METAR MROC 102200Z 09018KT 9999 FEW030 25/14 A2990 NOSIG=
200502110000 METAR MROC 110000Z 09014KT 9999 FEW035 SCT300 22/15 A2993 NOSIG=
200502110100 METAR MROC 110100Z 10015KT CAVOK 20/16 A2995 NOSIG=
200502110200 METAR MROC 110200Z 11015KT CAVOK 20/16 A2998 NOSIG=
200502110300 METAR MROC 110300Z 10014KT CAVOK 20/16 A2997=
200502110400 METAR MROC 110400Z 10011KT CAVOK 20/16 A3002=
200502110600 METAR MROC 110600Z 10011KT CAVOK 20/15 A2999=
200502110700 METAR MROC 110700Z 10014KT 9999 FEW040 20/15 A2998=
200502110800 METAR MROC 110800Z 10010KT 9999 FEW040 19/15 A2996=
200502110900 METAR MROC 110900Z 11013KT 9999 FEW040 19/15 A2996=
200502111100 METAR MROC 111100Z 10014KT 9999 FEW035 19/15 A2996=
200502111200 METAR MROC 111200Z 11018KT 9999 FEW030 20/15 A2998=
200502111300 METAR MROC 111300Z 10018KT 9999 FEW030 20/16 A3001 NOSIG=
200502111400 METAR MROC 111400Z 11018G28KT 9999 FEW030 22/16 A3000 NOSIG=
200502111500 METAR MROC 111500Z 11015G25KT 9999 FEW030 24/16 A3002 NOSIG=
200502111600 METAR MROC 111600Z 10020G30KT 9999 FEW030 25/16 A3002 NOSIG=
200502111700 METAR MROC 111700Z 10013G23KT 9999 FEW035 27/16 A3000 NOSIG=
200502111800 METAR MROC 111800Z 13015G25KT 9999 FEW035 26/16 A2999 NOSIG=
200502111900 METAR MROC 111900Z 11024KT 9999 FEW030 27/16 A2996 NOSIG=
200502112000 METAR MROC 112000Z 11016G26KT 9999 FEW030 26/16 A2995 NOSIG=
200502112100 METAR MROC 112100Z 12014G24KT 9999 FEW030 25/16 A2994 NOSIG=
200502112200 METAR MROC 112200Z 10016KT 9999 FEW030 25/15 A2995 NOSIG=
200502112300 METAR MROC 112300Z 11010G20KT 9999 FEW030 23/14 A2997 NOSIG=
200502120000 METAR MROC 120000Z 11012G22KT 9999 FEW030 20/15 A2999 NOSIG=
200502120100 METAR MROC 120100Z 10016KT CAVOK 20/15 A3000 NOSIG=
200502120200 METAR MROC 120200Z 10015KT CAVOK 20/15 A3002 NOSIG=
200502120300 METAR MROC 120300Z 11014KT CAVOK 19/13 A3005 NOSIG=
200502120400 METAR MROC 120400Z 11014KT CAVOK 18/13 A3007 NOSIG=
200502120500 METAR MROC 120500Z 11018KT CAVOK 18/13 A3006 NOSIG=
200502120600 METAR MROC 120600Z 10016KT CAVOK 18/12 A3004 NOSIG=
200502120700 METAR MROC 120700Z 11020KT CAVOK 18/13 A3000 NOSIG=
200502120800 METAR MROC 120800Z 11018KT CAVOK 18/13 A2999=
200502120900 METAR MROC 120900Z 10022KT CAVOK 18/11 A2999=
200502121000 METAR MROC 121000Z 11022G32KT CAVOK 18/13 A2999=
200502121100 METAR MROC 121100Z 10020G30KT CAVOK 18/12 A2999=
200502121200 METAR MROC 121200Z 10020G30KT CAVOK 18/12 A3001=
200502121300 METAR MROC 121300Z 10018G28KT CAVOK 19/12 A3003 NOSIG=
200502121400 METAR MROC 121400Z 18004KT 9999 FEW025 SCT100 23/20 A3004=
200502121500 METAR MROC 121500Z 10016KT CAVOK 23/11 A3007 NOSIG=
200502121600 METAR MROC 121600Z 09016KT CAVOK 25/09 A3005 NOSIG=
200502121700 METAR MROC 121700Z 10014G24KT CAVOK 27/11 A3003 NOSIG=
200502121800 METAR MROC 121800Z 09016G26KT CAVOK 27/12 A3001 NOSIG=
200502121900 METAR MROC 121900Z 10018KT CAVOK 27/14 A2999 NOSIG=
200502122000 METAR MROC 122000Z 09015G25KT CAVOK 27/14 A2997 NOSIG=
200502122100 METAR MROC 122100Z 08020KT CAVOK 26/14 A2996=
200502122200 METAR MROC 122200Z 09018KT CAVOK 25/15 A2996=
200502122300 METAR MROC 122300Z 08014KT 9999 FEW035 SCT250 24/15 A2997=
200502130000 METAR MROC 130000Z 10014KT 9999 FEW030 22/15 A2998=
200502130100 METAR MROC 130100Z 10012KT 9999 FEW030 21/16 A2999 BECMG CAVOK=
200502130200 METAR MROC 130200Z 11015KT CAVOK 21/16 A3000 NOSIG=
200502130300 METAR MROC 130300Z 10014KT 9999 FEW035 21/15 A3002 NOSIG=
200502130400 METAR MROC 130400Z 10013KT CAVOK 20/15 A3002 NOSIG=
200502130500 METAR MROC 130500Z 07014KT 9999 FEW030 21/14 A3001 NOSIG=
200502130600 METAR MROC 130600Z 08013KT 9999 FEW030 21/14 A3000 NOSIG=
200502131000 METAR MROC 131000Z 11015KT 9999 FEW035 20/15 A2995 NOSIG=
200502131100 METAR MROC 131100Z 11013KT 9999 FEW035 19/15 A2997 NOSIG=
200502131200 METAR MROC 131200Z 09010KT 9999 FEW030 19/15 A3000 NOSIG=
200502131300 METAR MROC 131300Z 10010KT 9999 SCT025 19/15 A3002=
200502131400 METAR MROC 131400Z 11016KT 9999 FEW030 22/15 A3003=
200502131500 METAR MROC 131500Z 11008KT 9999 SCT030 23/15 A3005=
200502131600 METAR MROC 131600Z 12019KT 9999 FEW035 24/15 A3004=
200502131700 METAR MROC 131700Z 09012KT 9999 FEW035 27/14 A3003=
200502131800 METAR MROC 131800Z 10015KT 9999 FEW035 26/14 A2999=
200502131900 METAR MROC 131900Z 11015KT 9999 FEW040 27/15 A2996=
200502132000 METAR MROC 132000Z 09013KT 9999 FEW040 27/15 A2994=
200502132100 METAR MROC 132100Z 11015KT 9999 FEW040 27/14 A2992=
200502132200 METAR MROC 132200Z 10014KT 9999 SCT040 26/14 A2992 NOSIG=
200502132300 METAR MROC 132300Z 10010KT 9999 SCT040 26/14 A2993 NOSIG=
200502140000 METAR MROC 140000Z 09011KT 9999 SCT035 23/14 A2995 NOSIG=
200502140100 METAR MROC 140100Z 11012KT 9999 FEW035 21/15 A2997=
200502140200 METAR MROC 140200Z 11013KT 9999 FEW035 20/15 A2998 NOSIG=
200502140300 METAR MROC 140300Z 10014KT 9999 FEW030 20/16 A3000 NOSIG=
200502140400 METAR MROC 140400Z 11012KT CAVOK 20/13 A3001 NOSIG=
200502140500 METAR MROC 140500Z 10010KT CAVOK 20/15 A3000 NOSIG=
200502140600 METAR MROC 140600Z 10015KT CAVOK 20/15 A3000 NOSIG=
200502140700 METAR MROC 140700Z 10010KT CAVOK 20/15 A2998 NOSIG=
200502140800 METAR MROC 140800Z 10014KT CAVOK 20/14 A2996 NOSIG=
200502140900 METAR MROC 140900Z 10012KT CAVOK 19/14 A2996 NOSIG=
200502141000 METAR MROC 141000Z 10013KT CAVOK 19/15 A2997 NOSIG=
200502141100 METAR MROC 141100Z 10015KT CAVOK 19/15 A2998 NOSIG=
200502141200 METAR MROC 141200Z 07010KT CAVOK 18/15 A3001 NOSIG=
200502141300 METAR MROC 141300Z 04010KT CAVOK 20/15 A3002=
200502141400 METAR MROC 141400Z 09010KT 9999 FEW030 23/16 A3004=
200502141500 METAR MROC 141500Z 11015KT 9999 FEW035 24/15 A3004=
200502141600 METAR MROC 141600Z 12013KT 9999 FEW035 SCT110 26/15 A3004=
200502141700 METAR MROC 141700Z 11012KT 9999 FEW040 27/15 A3003=
200502141800 METAR MROC 141800Z 10017KT 9999 SCT035 27/15 A3000=
200502141900 METAR MROC 141900Z 10013KT 9999 SCT035 29/15 A2997=
200502142000 METAR MROC 142000Z 13011KT 9999 SCT035 27/16 A2995=
200502142100 METAR MROC 142100Z 11010KT 9999 FEW035 SCT045 26/16 A2994 NOSIG=
200502142200 METAR MROC 142200Z 10012KT 9999 FEW030 SCT045 26/16 A2993 NOSIG=
200502142300 METAR MROC 142300Z 11015KT 9999 FEW025 24/16 A2993 NOSIG=
200502150000 METAR MROC 150000Z 10014KT 9999 FEW025 22/16 A2995=
200502150100 METAR MROC 150100Z 10012KT 9999 FEW030 22/17 A2997 NOSIG=
200502150200 METAR MROC 150200Z 11010KT CAVOK 21/17 A2999=
200502150300 METAR MROC 150300Z 10010KT CAVOK 21/16 A3000=
200502150400 METAR MROC 150400Z 11008KT CAVOK 20/16 A3002=
200502150500 METAR MROC 150500Z 10010KT CAVOK 20/15 A3002=
200502150700 METAR MROC 150700Z 07008KT CAVOK 19/15 A2999=
200502150800 METAR MROC 150800Z 02004KT CAVOK 19/14 A2998=
200502150900 METAR MROC 150900Z 17004KT CAVOK 18/14 A2996=
200502151000 METAR MROC 151000Z 10014KT CAVOK 20/14 A2996=
200502151100 METAR MROC 151100Z 10014KT CAVOK 20/15 A2996=
200502151200 METAR MROC 151200Z 11013KT 9999 FEW040 20/15 A2998=
200502151300 METAR MROC 151300Z 10012KT 9999 FEW035 BKN080 21/15 A3001 NOSIG=
200502151400 METAR MROC 151400Z 11017KT 9999 FEW035 BKN080 22/16 A3002 NOSIG=
200502151500 METAR MROC 151500Z 12014KT 9999 FEW030 24/16 A3003 NOSIG=
200502151600 METAR MROC 151600Z 10018KT 9999 FEW025 26/16 A3003 NOSIG=
200502151700 METAR MROC 151700Z 12016KT 9999 FEW030 26/16 A3003 NOSIG=
200502151800 METAR MROC 151800Z 11019KT 9999 SCT030 27/15 A2999 NOSIG=
200502151900 METAR MROC 151900Z 11017KT 9999 FEW030 27/15 A2996 NOSIG=
200502152000 METAR MROC 152000Z 10018KT 9999 FEW030 27/15 A2994 NOSIG=
200502152100 METAR MROC 152100Z 10013G23KT 9999 SCT030 27/15 A2992 NOSIG=
200502152200 METAR MROC 152200Z 11013KT 9999 FEW035 26/16 A2991 NOSIG=
200502152300 METAR MROC 152300Z 12020KT 9999 FEW030 22/16 A2993 NOSIG=
200502160000 METAR MROC 160000Z 10019KT 9999 FEW035 21/15 A2991 NOSIG=
200502160100 METAR MROC 160100Z 10014KT 9999 FEW035 20/13 A2998=
200502160200 METAR MROC 160200Z 10013KT 9999 FEW035 20/13 A3000=
200502160300 METAR MROC 160300Z 11012KT 9999 FEW040 19/14 A3001=
200502160500 METAR MROC 160500Z 10011KT CAVOK 19/13 A3002=
200502160600 METAR MROC 160600Z 08008KT CAVOK 19/13 A2999=
200502160700 METAR MROC 160700Z 10008KT CAVOK 19/13 A2997=
200502160800 METAR MROC 160800Z 08007KT CAVOK 18/13 A2995=
200502160900 METAR MROC 160900Z 06009KT CAVOK 18/13 A2993=
200502161100 METAR MROC 161100Z 10009KT CAVOK 18/13 A2992=
200502161200 METAR MROC 161200Z 08006KT CAVOK 18/13 A2996=
200502161300 METAR MROC 161300Z 09009KT CAVOK 20/14 A2998 NOSIG=
200502161400 METAR MROC 161400Z 08010KT CAVOK 23/15 A2999 NOSIG=
200502161500 METAR MROC 161500Z 11012KT CAVOK 26/15 A2999 NOSIG=
200502161600 METAR MROC 161600Z 10012KT 9999 FEW040 SCT250 27/16 A3000 NOSIG=
200502161700 METAR MROC 161700Z 13014KT 9999 SCT040 SCT070 25/16 A2998 NOSIG=
200502161800 METAR MROC 161800Z 11012KT 9999 SCT040 SCT070 26/16 A2996 NOSIG=
200502161900 METAR MROC 161900Z 11011KT 9999 FEW045 SCT080 26/16 A2993 NOSIG=
200502162000 METAR MROC 162000Z 13010KT 9999 FEW040 SCT090 27/17 A2990 NOSIG=
200502162100 METAR MROC 162100Z 10012KT 9999 FEW040 SCT080 27/17 A2988 NOSIG=
200502162200 METAR MROC 162200Z 12012KT 9999 SCT020 SCT090 25/21 A2989 NOSIG=
200502162300 METAR MROC 162300Z 11014KT 9999 SCT020 SCT100 24/16 A2990 NOSIG=
200502170000 METAR MROC 170000Z 10010KT 9999 SCT020 BKN100 23/16 A2992 NOSIG=
200502170100 METAR MROC 170100Z 11008KT 9999 SCT020 BKN120 22/17 A2995 NOSIG=
200502170200 METAR MROC 170200Z 11007KT 9999 FEW025 BKN120 22/17 A2997 NOSIG=
200502170300 METAR MROC 170300Z 10008KT 9999 FEW030 BKN120 21/16 A2999 NOSIG=
200502170400 METAR MROC 170400Z 11014KT 9999 FEW030 BKN120 21/16 A2999 NOSIG=
200502170500 METAR MROC 170500Z 07006KT 9999 FEW030 SCT120 21/16 A2999 NOSIG=
200502170600 METAR MROC 170600Z 10006KT 9999 FEW035 SCT120 20/16 A2997 NOSIG=
200502170700 METAR MROC 170700Z 06003KT CAVOK 19/16 A2995 NOSIG=
200502170800 METAR MROC 170800Z 10010KT CAVOK 20/16 A2992=
200502170900 METAR MROC 170900Z 10004KT CAVOK 19/15 A2991=
200502171000 METAR MROC 171000Z 09010KT 9999 FEW030 SCT045 20/16 A2992=
200502171100 METAR MROC 171100Z 10003KT 9999 FEW030 SCT070 20/16 A2993=
200502171200 METAR MROC 171200Z 08008KT 9999 FEW030 SCT070 19/16 A2994=
200502171300 METAR MROC 171300Z 10012KT 9999 FEW030 SCT080 21/16 A2995 NOSIG=
200502171400 METAR MROC 171400Z 11012KT 9999 FEW030 24/16 A2996 NOSIG=
200502171500 METAR MROC 171500Z 10015KT 9999 FEW030 SCT090 26/17 A2997 NOSIG=
200502171600 METAR MROC 171600Z 09014KT 9999 FEW040 SCT100 27/16 A2997 NOSIG=
200502171700 METAR MROC 171700Z 09014KT 9999 SCT040 26/16 A2997 NOSIG=
200502171800 METAR MROC 171800Z 11015KT 9999 SCT042 28/16 A2994 NOSIG=
200502171900 METAR MROC 171900Z 08012KT 9999 SCT040 28/16 A2992 NOSIG=
200502172000 METAR MROC 172000Z 10014KT 9999 SCT045 28/15 A2990 NOSIG=
200502172100 METAR MROC 172100Z 10014KT 9999 SCT040 28/16 A2987=
200502172200 METAR MROC 172200Z 09012KT 9999 SCT035 26/16 A2987=
200502172300 METAR MROC 172300Z 10014KT 9999 SCT040 24/16 A2989=
200502180000 METAR MROC 180000Z 11015KT 9999 SCT030 23/16 A2989=
200502180100 METAR MROC 180100Z 09008KT CAVOK 21/16 A2992=
200502180200 METAR MROC 180200Z 11015KT CAVOK 21/16 A2992=
200502180300 METAR MROC 180300Z 10010KT CAVOK 21/16 A2994 NOSIG=
200502180400 METAR MROC 180400Z 11015KT CAVOK 21/16 A2994 NOSIG=
200502180500 METAR MROC 180500Z 10012G22KT CAVOK 21/16 A2994 NOSIG=
200502180600 METAR MROC 180600Z 10016KT CAVOK 21/16 A2993 NOSIG=
200502181100 METAR MROC 181100Z 09011KT 9999 FEW035 21/16 A2991 NOSIG=
200502181200 METAR MROC 181200Z 09010KT 9999 FEW030 SCT100 SCT250 20/17 A2993 NOSIG=
200502181300 METAR MROC 181300Z 09006KT 9999 FEW030 SCT150 23/17 A2995=
200502181400 METAR MROC 181400Z 07013KT 9999 FEW025 SCT120 25/15 A2994=
200502181500 METAR MROC 181500Z 07015KT 9999 FEW030 26/15 A2996=
200502181600 METAR MROC 181600Z 09020G30KT 9999 SCT035 27/14 A2995=
200502181700 METAR MROC 181700Z 09017KT 9999 FEW035 27/15 A2996=
200502181800 METAR MROC 181800Z 08017KT 9999 FEW035 27/14 A2994=
200502181900 METAR MROC 181900Z 08019KT 9999 FEW035 27/15 A2993=
200502182100 METAR MROC 182100Z 10014KT 9999 SCT030 26/15 A2989=
200502182200 METAR MROC 182200Z 08016G26KT 9999 FEW030 25/15 A2988=
200502182300 METAR MROC 182300Z 08016KT 9999 FEW030 24/14 A2990=
200502190000 METAR MROC 190000Z 09017KT 9999 FEW030 22/15 A2992=
200502190100 METAR MROC 190100Z 09014KT 9999 FEW030 22/15 A2992=
200502190200 METAR MROC 190200Z 11017KT 9999 FEW030 20/16 A2994=
200502190300 METAR MROC 190300Z 10016KT 9999 FEW030 21/16 A2994 NOSIG=
200502190400 METAR MROC 190400Z 10016KT CAVOK 21/16 A2996 NOSIG=
200502190500 METAR MROC 190500Z 10015G25KT CAVOK 20/16 A2996 NOSIG=
200502190600 METAR MROC 190600Z 10018KT CAVOK 20/16 A2994 NOSIG=
200502190700 METAR MROC 190700Z 10014G24KT CAVOK 20/16 A2992 NOSIG=
200502190800 METAR MROC 190800Z 12016KT CAVOK 20/16 A2992 NOSIG=
200502190900 METAR MROC 190900Z 11015KT CAVOK 20/15 A2991 NOSIG=
200502191000 METAR MROC 191000Z 11018KT CAVOK 20/16 A2991 NOSIG=
200502191100 METAR MROC 191100Z 10018KT CAVOK 20/15 A2992 NOSIG=
200502191200 METAR MROC 191200Z 10012G22KT 9999 FEW030 SCT110 21/15 A2994 NOSIG=
200502191300 METAR MROC 191300Z 10017KT 9999 FEW030 21/15 A2996=
200502191400 METAR MROC 191400Z 10020KT 9999 FEW025 SCT090 22/19 A2999=
200502191500 METAR MROC 191500Z 11019KT 9999 FEW025 SCT080 24/15 A3002=
200502191600 METAR MROC 191600Z 10018G28KT 9999 FEW025 SCT080 24/15 A3003=
200502191700 METAR MROC 191700Z 10022KT 9999 FEW025 SCT070 25/15 A3001=
200502191800 METAR MROC 191800Z 10019KT 9999 FEW025 SCT110 26/15 A2999=
200502191900 METAR MROC 191900Z 10015KT 9999 SCT025 SCT100 26/15 A2997=
200502192000 METAR MROC 192000Z 11020KT 9999 SCT030 SCT100 27/15 A2996=
200502192100 METAR MROC 192100Z 11018KT 9999 FEW035 SCT120 25/15 A2995 NOSIG=
200502192200 METAR MROC 192200Z 10020KT 9999 FEW040 24/14 A2994 NOSIG=
200502192300 METAR MROC 192300Z 10019KT 9999 FEW035 22/15 A2996 NOSIG=
200502200000 METAR MROC 200000Z 10020KT 9999 FEW030 20/15 A2997 NOSIG=
200502200100 METAR MROC 200100Z 11017KT CAVOK 20/15 A2998=
200502200200 METAR MROC 200200Z 11020G30KT CAVOK 20/15 A2999=
200502200300 METAR MROC 200300Z 11021KT CAVOK 20/15 A3002=
200502200400 METAR MROC 200400Z 10020KT CAVOK 20/15 A3004=
200502200500 METAR MROC 200500Z 09016KT CAVOK 20/15 A3005=
200502200600 METAR MROC 200600Z 12014KT CAVOK 19/15 A3004=
200502200700 METAR MROC 200700Z 11020KT CAVOK 19/15 A3002=
200502200800 METAR MROC 200800Z 11019KT CAVOK 19/14 A3000=
200502200900 METAR MROC 200900Z 10014KT CAVOK 19/14 A3000=
200502201100 METAR MROC 201100Z 10015KT CAVOK 19/14 A2999=
200502201200 METAR MROC 201200Z 10017KT 9999 FEW025 SCT250 19/13 A3001=
200502201300 METAR MROC 201300Z 10014KT 9999 FEW025 SCT250 21/13 A3003 NOSIG=
200502201400 METAR MROC 201400Z 10015KT 9999 FEW025 22/13 A3005 NOSIG=
200502201500 METAR MROC 201500Z 09017KT 9999 FEW030 BKN250 23/13 A3006 NOSIG=
200502201600 METAR MROC 201600Z 09016KT CAVOK 25/13 A3005 NOSIG=
200502201700 METAR MROC 201700Z 10016G26KT CAVOK 25/13 A3004 NOSIG=
200502201800 METAR MROC 201800Z 10019KT 9999 FEW040 BKN250 26/23 A3001 NOSIG=
200502201900 METAR MROC 201900Z 09015G25KT CAVOK 27/12 A2998 NOSIG=
200502202000 METAR MROC 202000Z 10013KT 9999 FEW030 27/13 A2996=
200502202100 METAR MROC 202100Z 07017KT 9999 FEW035 27/12 A2994 NOSIG=
200502202200 METAR MROC 202200Z 07021KT 9999 FEW030 SCT140 25/14 A2993 NOSIG=
200502202300 METAR MROC 202300Z 08014KT 9999 FEW030 SCT120 23/14 A2995 NOSIG=
200502210000 METAR MROC 210000Z 11015KT 9999 FEW030 SCT120 21/15 A2995 NOSIG=
200502210100 METAR MROC 210100Z 10014KT 9999 FEW030 21/15 A2997 NOSIG=
200502210200 METAR MROC 210200Z 11012KT 9999 FEW030 20/15 A2999 NOSIG=
200502210300 METAR MROC 210300Z 10016KT 9999 FEW030 20/15 A3001=
200502210400 METAR MROC 210400Z 10016KT 9999 FEW030 20/15 A3002 NOSIG=
200502210500 METAR MROC 210500Z 11017KT 9999 FEW030 20/15 A3001=
200502210600 METAR MROC 210600Z 10015KT 9999 FEW030 20/14 A3001=
200502210700 METAR MROC 210700Z 10016KT 9999 FEW030 21/14 A3000=
200502210900 METAR MROC 210900Z 11015KT 9999 FEW030 20/14 A2996=
200502211100 METAR MROC 211100Z 11012KT CAVOK 21/15 A2997=
200502211200 METAR MROC 211200Z 12010KT CAVOK 21/14 A2998=
200502211300 METAR MROC 211300Z 11015KT CAVOK 23/14 A2999 NOSIG=
200502211400 METAR MROC 211400Z 11016KT CAVOK 23/14 A3001 NOSIG=
200502211500 METAR MROC 211500Z 10017KT CAVOK 24/15 A3002 NOSIG=
200502211600 METAR MROC 211600Z 10019KT CAVOK 27/15 A3002 NOSIG=
200502211700 METAR MROC 211700Z 11017KT CAVOK 27/15 A3002 NOSIG=
200502211800 METAR MROC 211800Z 10013KT CAVOK 29/16 A2998 NOSIG=
200502211900 METAR MROC 211900Z 12016KT CAVOK 28/16 A2996 NOSIG=
200502212000 METAR MROC NIL=
200502212100 METAR MROC NIL=
200502212200 METAR MROC NIL=
200502212300 METAR MROC NIL=
200502220000 METAR MROC NIL=
200502220100 METAR MROC NIL=
200502220200 METAR MROC NIL=
200502220300 METAR MROC NIL=
200502220400 METAR MROC NIL=
200502220500 METAR MROC NIL=
200502220600 METAR MROC NIL=
200502220700 METAR MROC NIL=
200502220800 METAR MROC NIL=
200502220900 METAR MROC NIL=
200502221000 METAR MROC NIL=
200502221100 METAR MROC NIL=
200502221200 METAR MROC NIL=
200502221300 METAR MROC NIL=
200502221400 METAR MROC NIL=
200502221500 METAR MROC NIL=
200502221600 METAR MROC NIL=
200502221700 METAR MROC NIL=
200502221800 METAR MROC NIL=
200502221900 METAR MROC NIL=
200502222000 METAR MROC NIL=
200502222100 METAR MROC NIL=
200502222200 METAR MROC NIL=
200502222300 METAR MROC NIL=
200502230000 METAR MROC 230000Z 11012KT 9999 FEW025 22/16 A2993=
200502230100 METAR MROC 230100Z 11015KT 9999 FEW030 22/16 A2994=
200502230200 METAR MROC 230200Z 11010KT CAVOK 22/16 A2997=
200502230400 METAR MROC 230400Z 06005KT CAVOK 21/15 A3000 NOSIG=
200502230500 METAR MROC 230500Z 11016KT CAVOK 21/16 A2998 NOSIG=
200502230600 METAR MROC 230600Z 12015KT CAVOK 21/16 A2996 NOSIG=
200502230700 METAR MROC 230700Z 07009KT CAVOK 21/16 A2996 NOSIG=
200502231000 METAR MROC 211000Z 12014G24KT CAVOK 21/16 A2991 NOSIG=
200502231200 METAR MROC 231200Z 12015KT 9999 FEW030 21/17 A2995 NOSIG=
200502231300 METAR MROC 231300Z 11010KT 9999 FEW020 22/17 A2996=
200502231400 METAR MROC 231400Z 11016KT 9999 FEW020 24/16 A2998=
200502231500 METAR MROC 231500Z 11018KT 9999 FEW020 26/16 A2999=
200502231600 METAR MROC 231600Z 10020KT 9999 FEW025 26/15 A3000=
200502231700 METAR MROC 231700Z 12020KT 9999 SCT025 26/14 A3000=
200502231800 METAR MROC 231800Z 11020G30KT 9999 FEW030 25/14 A2999=
200502231900 METAR MROC 231900Z 11020G30KT 9999 SCT030 24/14 A2997=
200502232000 METAR MROC 232000Z 11022KT 9999 FEW030 24/12 A2993=
200502232100 METAR MROC 232100Z 11020KT 9999 FEW020 25/13 A2992=
200502232200 METAR MROC 232200Z 11015G25KT 9999 FEW030 24/21 A2992=
200502232300 METAR MROC 232300Z 11018KT 9999 SCT030 22/13 A2992=
200502240000 METAR MROC 240000Z 11019KT 9999 FEW030 20/13 A2993=
200502240100 METAR MROC 240100Z 11017KT CAVOK 20/13 A2996=
200502240200 METAR MROC 240200Z 11013KT CAVOK 20/13 A2998=
200502240300 METAR MROC 240300Z 10015KT CAVOK 20/13 A3000 NOSIG=
200502240400 METAR MROC 240400Z 08012KT CAVOK 20/13 A3001 NOSIG=
200502240500 METAR MROC 240500Z 09013KT CAVOK 19/12 A3000 NOSIG=
200502240600 METAR MROC 240600Z 06007KT CAVOK 19/13 A2999 NOSIG=
200502240700 METAR MROC 240700Z 09008KT CAVOK 20/13 A2999 NOSIG=
200502240900 METAR MROC 240900Z 10008KT CAVOK 18/13 A2994 NOSIG=
200502241000 METAR MROC 241000Z 07009KT CAVOK 19/13 A2994 NOSIG=
200502241100 METAR MROC 241100Z 07010KT CAVOK 19/14 A2995 NOSIG=
200502241200 METAR MROC 241200Z 07012KT CAVOK 19/14 A2997 NOSIG=
200502241300 METAR MROC 241300Z 08011KT CAVOK 21/14 A2999=
200502241400 METAR MROC 241400Z 09010KT CAVOK 23/14 A3001=
200502241500 METAR MROC 241500Z 10010KT CAVOK 25/14 A3001=
200502241600 METAR MROC 241600Z 13009KT CAVOK 28/15 A3001=
200502241700 METAR MROC 241700Z 11010KT CAVOK 30/15 A2999=
200502241800 METAR MROC 241800Z 10007KT 9999 FEW045 31/14 A2996=
200502241900 METAR MROC 241900Z 11011KT 9999 FEW040 32/13 A2992=
200502242000 METAR MROC 242000Z 26010KT 9999 SCT035 31/17 A2989=
200502242100 METAR MROC 242100Z 24009KT 9999 FEW030TCU SCT045 28/18 A2988 NOSIG=
200502242200 METAR MROC 242200Z 16007KT 9999 SCT040 SCT080 26/17 A2990 NOSIG=
200502242300 METAR MROC 242300Z 14006KT 9999 FEW035 SCT100 25/17 A2990 NOSIG=
200502250000 METAR MROC 250000Z 12007KT 9999 FEW030 SCT100 24/17 A2990 NOSIG=
200502250100 METAR MROC 250100Z 11006KT CAVOK 22/17 A2992=
200502250200 METAR MROC 250200Z 09006KT CAVOK 21/17 A2995=
200502250300 METAR MROC 250300Z 10007KT CAVOK 21/17 A2996=
200502250400 METAR MROC 250400Z 10008KT CAVOK 21/17 A2996=
200502250500 METAR MROC 250500Z 10009KT CAVOK 21/16 A2996=
200502250600 METAR MROC 250600Z 08007KT CAVOK 21/16 A2996=
200502250700 METAR MROC 250700Z 07009KT CAVOK 19/16 A2995=
200502250800 METAR MROC 250800Z 06006KT CAVOK 19/15 A2994=
200502250900 METAR MROC 250900Z 07009KT CAVOK 19/15 A2992=
200502251100 METAR MROC 251100Z 08007KT CAVOK 19/15 A2993=
200502251200 METAR MROC 251200Z 08010KT CAVOK 19/15 A2995=
200502251300 METAR MROC 251300Z 10007KT CAVOK 21/15 A2996 NOSIG=
200502251400 METAR MROC 251400Z 09007KT CAVOK 25/15 A2998 NOSIG=
200502251500 METAR MROC 251500Z 12007KT CAVOK 27/15 A3001=
200502251600 METAR MROC 251600Z 21005KT 9999 FEW045 28/16 A3000 NOSIG=
200502251700 METAR MROC 251700Z 24005KT 9999 FEW045 29/16 A2998 NOSIG=
200502251800 METAR MROC 251800Z 26006KT 9999 FEW045 31/16 A2995 NOSIG=
200502251900 METAR MROC 251900Z 28009KT 9999 FEW045 31/16 A2992 NOSIG=
200502252000 METAR MROC 252000Z 25010KT 9999 SCT040 31/17 A2989 BECMG 7000 VCSH=
200502252100 METAR MROC 252100Z 14006KT 9999 SCT030 28/18 A2989 NOSIG=
200502252200 METAR MROC 252200Z 12008KT 9999 BKN040 SCT100 25/18 A2990 BECMG -RA=
200502252300 METAR MROC 252300Z 22004KT 9999 SCT035 BKN120 21/19 A2992 NOSIG=
200502260000 METAR MROC 260000Z 11003KT 9999 FEW035 BKN120 22/20 A2994 NOSIG=
200502260100 METAR MROC 260100Z 00000KT 9999 FEW035 BKN120 22/19 A2995 NOSIG=
200502260200 METAR MROC 260200Z 12005KT CAVOK 22/18 A2997 NOSIG=
200502260300 METAR MROC 260300Z 00000KT CAVOK 20/18 A2998=
200502260400 METAR MROC 260400Z 08006KT CAVOK 21/18 A2998=
200502260600 METAR MROC 260600Z 07004KT CAVOK 19/17 A2996=
200502260700 METAR MROC 260700Z 07009KT CAVOK 18/16 A2995=
200502260800 METAR MROC 260800Z 06009KT CAVOK 18/15 A2994=
200502260900 METAR MROC 260900Z 07005KT CAVOK 17/14 A2994=
200502261000 METAR MROC 261000Z 06008KT CAVOK 17/14 A2993=
200502261100 METAR MROC 261100Z 07005KT CAVOK 16/13 A2996=
200502261200 METAR MROC 261200Z 08003KT CAVOK 16/13 A2997=
200502261300 METAR MROC 261300Z 10005KT CAVOK 17/14 A3000 NOSIG=
200502261400 METAR MROC 261400Z 10004KT CAVOK 23/16 A3001 NOSIG=
200502261500 METAR MROC 261500Z 00000KT CAVOK 26/15 A3002 NOSIG=
200502261600 METAR MROC 261600Z 00000KT CAVOK 28/15 A3001 NOSIG=
200502261700 METAR MROC 261700Z 30005KT CAVOK 28/15 A2999 NOSIG=
200502261800 METAR MROC 261800Z 25005KT 9999 FEW040 29/16 A2996 NOSIG=
200502261900 METAR MROC 261900Z 25007KT 9999 FEW035 30/17 A2994 NOSIG=
200502262000 METAR MROC 262000Z 24013KT 9999 SCT040 30/18 A2991 NOSIG=
200502262100 METAR MROC 262100Z 26012KT 9999 SCT030TCU 30/19 A2990 BECMG 7000 VCSH=
200502262200 METAR MROC 262200Z 24014KT 9999 SCT030TCU SCT045 28/19 A2990 NOSIG=
200502262300 METAR MROC 262300Z 25008KT 9999 SCT035 BKN120 26/19 A2992 NOSIG=
200502270000 METAR MROC 270000Z 00000KT 9999 SCT030 BKN140 24/16 A2995 RERA NOSIG=
200502270100 METAR MROC 270100Z 00000KT 9999 SCT035 SCT130 24/19 A2996 NOSIG=
200502270200 METAR MROC 270200Z 29004KT 9999 SCT030 OVC120 23/19 A2997 NOSIG=
200502270300 METAR MROC 270300Z 00000KT 9999 SCT025 BKN120 23/19 A2998=
200502270400 METAR MROC 270400Z 00000KT 9999 FEW025 SCT120 22/19 A2999 NOSIG=
200502270500 METAR MROC 270500Z 10006KT 9999 FEW030 SCT120 21/18 A2999 NOSIG=
200502270600 METAR MROC 270600Z 04010KT CAVOK 21/18 A2998 NOSIG=
200502270700 METAR MROC 270700Z 09005KT CAVOK 20/17 A2997 NOSIG=
200502270800 METAR MROC 270800Z 07006KT CAVOK 19/16 A2996=
200502270900 METAR MROC 270900Z 05008KT CAVOK 20/16 A2996=
200502271000 METAR MROC 271000Z 06006KT CAVOK 19/16 A2997=
200502271100 METAR MROC 271100Z 06009KT CAVOK 17/15 A2998=
200502271200 METAR MROC 271200Z 08006KT CAVOK 17/15 A3000=
200502271300 METAR MROC 271300Z 06009KT CAVOK 19/15 A3002 NOSIG=
200502271400 METAR MROC 271400Z 10006KT CAVOK 24/16 A3003 NOSIG=
200502271500 METAR MROC 271500Z 12008KT CAVOK 26/15 A3003 NOSIG=
200502271600 METAR MROC 271600Z 09003KT CAVOK 29/15 A3003 BECMG 24008KT=
200502271700 METAR MROC 271700Z 20004KT CAVOK 31/12 A3000 NOSIG=
200502271800 METAR MROC 271800Z 24010KT CAVOK 32/13 A2997 NOSIG=
200502271900 METAR MROC 271900Z 240005KT 9999 FEW045 32/14 A2994 NOSIG=
200502272000 METAR MROC 272000Z 24009KT 9999 FEW045 32/16 A2992 NOSIG=
200502272100 METAR MROC 272100Z 24010KT 9999 FEW040 31/18 A2991=
200502272200 METAR MROC 272200Z 23010KT 9999 FEW030 SCT100 29/20 A2992=
200502272300 METAR MROC 272300Z 24009KT 9999 FEW035 SCT150 27/20 A2993=
200502280000 METAR MROC 280000Z 23006KT 9999 SCT025 SCT100 25/20 A2995=
200502280100 METAR MROC 280100Z 24004KT 9999 FEW035 23/19 A2998=
200502280200 METAR MROC 280200Z 00000KT CAVOK 22/19 A3000=
200502280300 METAR MROC 280300Z 00000KT CAVOK 22/19 A3002 NOSIG=
200502280400 METAR MROC 280400Z 00000KT 9999 FEW030 SCT120 23/19 A3002 NOSIG=
200502280500 METAR MROC 280500Z 09003KT CAVOK 20/17 A3000 NOSIG=
200502280600 METAR MROC 280600Z 10003KT CAVOK 20/16 A2998 NOSIG=
200502280700 METAR MROC 280700Z 00000KT CAVOK 19/15 A2996 NOSIG=
200502280800 METAR MROC 280800Z 00000KT CAVOK 18/15 A2995 NOSIG=
200502280900 METAR MROC 280900Z 07005KT CAVOK 17/13 A2995 NOSIG=
200502281000 METAR MROC 281000Z 08006KT CAVOK 17/12 A2996 NOSIG=
200502281100 METAR MROC 281100Z 08004KT CAVOK 17/12 A2997 NOSIG=
200502281200 METAR MROC 281200Z 08004KT CAVOK 17/12 A2998 NOSIG=
200502281300 METAR MROC 281300Z 10004KT CAVOK 19/12 A2999=
200502281400 METAR MROC 281400Z 15003KT CAVOK 24/13 A3001=
200502281500 METAR MROC 281500Z 27006KT CAVOK 26/16 A3003=
200502281600 METAR MROC 281600Z 28008KT CAVOK 27/18 A3003=
200502281700 METAR MROC 281700Z 25011KT CAVOK 28/17 A3002=
200502281800 METAR MROC 281800Z 23007KT 9999 FEW040 30/16 A2999=
200502281900 METAR MROC 281900Z 26010KT 9999 FEW040 30/17 A2996=
200502282000 METAR MROC 282000Z 28009KT 9999 SCT040 31/16 A2994=
200502282100 METAR MROC 282100Z 24009KT 9999 FEW035 30/18 A2991=
200502282300 METAR MROC 282300Z 26011KT 9999 SCT035 26/21 A2993=
200503010000 METAR MROC 010000Z 25010KT 9999 FEW020 BKN100 24/20 A2996=
200503010100 METAR MROC 010100Z 25007KT 9999 FEW015 SCT035 23/21 A2998=
200503010200 METAR MROC 010200Z 27005KT 8000 VCFG FEW006 SCT025 23/21 A3000=
200503010300 METAR MROC 010300Z 24004KT 6000 VCFG FEW005 BKN020 22/21 A3002=
200503010400 METAR MROC 010400Z 23003KT 7000 VCFG FEW006 BKN020 22/21 A3004 BECMG 9999=
200503010500 METAR MROC 010500Z 00000KT 8000 VCFG FEW008 SCT025 22/21 A3003 BECMG 9999=
200503010600 METAR MROC 010600Z 00000KT 9999 FEW015 22/21 A3002 BECMG 9999=
200503010700 METAR MROC 010700Z 23004KT 8000 VCFG SCT012 21/20 A3000 NOSIG=
200503010800 METAR MROC 010800Z 10004KT 9999 SCT025 20/17 A2998 NOSIG=
200503010900 METAR MROC 010900Z 04005 CAVOK 20/16 A2997 NOSIG=
200503011000 METAR MROC 011000Z 11003KT CAVOK 19/16 A2997 NOSIG=
200503011100 METAR MROC 011100Z 09004KT CAVOK 17/14 A2998 NOSIG=
200503011200 METAR MROC 011200Z 06006KT CAVOK 18/15 A2999 NOSIG=
200503011300 METAR MROC 011300Z 03005KT CAVOK 19/15 A3002=
200503011400 METAR MROC 011400Z 08004KT CAVOK 24/16 A3004=
200503011500 METAR MROC 011500Z 10010KT CAVOK 26/14 A3004=
200503011600 METAR MROC 011600Z 12010KT CAVOK 28/12 A3004=
200503011700 METAR MROC 011700Z 10009KT CAVOK 30/10 A3001=
200503011800 METAR MROC 011800Z 12014KT CAVOK 32/10 A2997=
200503011900 METAR MROC 011900Z 13010KT 9999 FEW035 SCT250 32/08 A2996=
200503012000 METAR MROC 012000Z 25015KT 9999 SCT035 SCT250 29/18 A2994=
200503012100 METAR MROC 012100Z 23006KT 9999 SCT030 SCT300 30/19 A2992 NOSIG=
200503012200 METAR MROC 012200Z 26014KT 9999 BKN030 SCT300 28/19 A2991 NOSIG=
200503012300 METAR MROC 012300Z 25010KT 9999 SCT030 BKN300 26/20 A2994 NOSIG=
200503020000 METAR MROC 020000Z 24006KT 9999 FEW030 BKN300 24/18 A2996 NOSIG=
200503020100 METAR MROC 020100Z 12010KT 9999 FEW035 BKN300 23/18 A2998 NOSIG=
200503020200 METAR MROC 020200Z 11006KT CAVOK 23/17 A3001=
200503020300 METAR MROC 020300Z 10010KT CAVOK 22/16 A3003=
200503020400 METAR MROC 020400Z 08005KT CAVOK 21/15 A3004=
200503020500 METAR MROC 020500Z 09006KT CAVOK 21/15 A3003=
200503020600 METAR MROC 020600Z 10006KT CAVOK 20/15 A3001=
200503020700 METAR MROC 020700Z 07008KT CAVOK 20/15 A2999=
200503020800 METAR MROC 020800Z 10011KT CAVOK 20/14 A2998=
200503020900 METAR MROC 020900Z 09006KT CAVOK 18/14 A2997=
200503021200 METAR MROC 021200Z 06010KT CAVOK 16/09 A3000=
200503021300 METAR MROC 021300Z 05006KT CAVOK 19/10 A3002 NOSIG=
200503021400 METAR MROC 021400Z 09004KT CAVOK 23/12 A3004=
200503021500 METAR MROC 021500Z 06003KT CAVOK 27/13 A3005 NOSIG=
200503021600 METAR MROC 021600Z 24004KT 9999 FEW040 28/10 A3004 NOSIG=
200503021700 METAR MROC 021700Z 26010KT 9999 FEW040 30/10 A3001 NOSIG=
200503021800 METAR MROC 021800Z 25010KT 9999 FEW040 30/14 A2998 NOSIG=
200503021900 METAR MROC 021900Z 24010KT 9999 SCT035 28/18 A2997 BECMG BKN030=
200503022000 METAR MROC 022000Z 25014KT 9999 SCT035 28/18 A2994 BECMG BKN030=
200503022100 METAR MROC 022100Z 23010KT 9999 SCT030 28/19 A2993 NOSIG=
200503022200 METAR MROC 022200Z 23007KT 9999 SCT030 25/19 A2994 NOSIG=
200503022300 METAR MROC 022300Z 20004KT 9999 SCT025 24/19 A2996 NOSIG=
200503030000 METAR MROC 030000Z 20004KT CAVOK 24/19 A2998=
200503030100 METAR MROC 030100Z 14003KT CAVOK 23/17 A2999=
200503030200 METAR MROC 030200Z 00000KT CAVOK 22/17 A2999=
200503030300 METAR MROC 030300Z 08006KT CAVOK 21/17 A3003 NOSIG=
200503030400 METAR MROC 030400Z 09005KT CAVOK 21/17 A3003 NOSIG=
200503030500 METAR MROC 030500Z 08005KT CAVOK 21/17 A3003 NOSIG=
200503030600 METAR MROC 030600Z 07009KT CAVOK 21/17 A3002 NOSIG=
200503030700 METAR MROC 030700Z 06007KT CAVOK 20/16 A3000 NOSIG=
200503030800 METAR MROC 030800Z 08004KT CAVOK 20/16 A2999 NOSIG=
200503030900 METAR MROC 030900Z 06003KT CAVOK 19/16 A2999 NOSIG=
200503031000 METAR MROC 031000Z 03006KT CAVOK 19/15 A2999 NOSIG=
200503031100 METAR MROC 031100Z 04004KT CAVOK 18/15 A3000 NOSIG=
200503031200 METAR MROC 031200Z 06007KT CAVOK 19/15 A3002 NOSIG=
200503031300 METAR MROC 031300Z 07006KT CAVOK 21/16 A3003 NOSIG=
200503031400 METAR MROC 031400Z 11004KT CAVOK 24/16 A3004 NOSIG=
200503031500 METAR MROC 031500Z 24004KT CAVOK 27/17 A3005 NOSIG=
200503031600 METAR MROC 031600Z 25010KT 9999 FEW045 28/17 A3006=
200503031700 METAR MROC 031700Z 26014KT 9999 SCT040 29/19 A3002=
200503031800 METAR MROC 031800Z 26014KT 9999 SCT040 29/19 A3002=
200503031900 METAR MROC 031900Z 24016KT 9999 SCT035 29/19 A2998=
200503032000 METAR MROC 032000Z 25012KT 9999 SCT035 SCT100 29/19 A2996=
200503032100 METAR MROC 032100Z 21008KT 9999 SCT030 SCT290 28/20 A2995 NOSIG=
200503032200 METAR MROC 032200Z 25011KT 9999 SCT030 SCT290 27/19 A2995 NOSIG=
200503032300 METAR MROC 032300Z 25012KT 9999 SCT030 SCT3900 25/19 A2996 NOSIG=
200503040000 METAR MROC 040000Z 26009KT 9999 FEW018 BKN030 23/20 A2999 NOSIG=
200503040100 METAR MROC 040100Z 25007KT 9000 SCT012 SCT030 22/20 A3001 NOSIG=
200503040200 METAR MROC 040200Z 25004KT 8000 VCFG FEW010 SCT030 22/20 A3004 NOSIG=
200503040300 METAR MROC 040300Z 23003KT 9999 FEW015 BKN025 21/19 A3006 NOSIG=
200503040400 METAR MROC 040400Z 29004KT 9999 FEW015 BKN025 21/20 A3007 NOSIG=
200503040500 METAR MROC 040500Z 29008KT 9999 SCT030 BKN070 21/20 A3005 NOSIG=
200503040600 METAR MROC 040600Z 00000KT 9999 FEW010 SCT030 21/19 A3003 BECMG 07005KT=
200503040700 METAR MROC 040700Z 00000KT 9999 FEW010 SCT030 21/19 A3002=
200503040800 METAR MROC 040800Z 00000KT 9999 FEW020 BKN080 21/19 A3000=
200503040900 METAR MROC 040900Z 00000KT 9999 FEW020 BKN100 21/19 A2999=
200503041000 METAR MROC 041000Z 00000KT 9999 FEW020 BKN100 21/19 A2999=
200503041100 METAR MROC 041100Z 00000KT 9000 SCT020 BKN100 20/19 A3001 NOSIG RMK HZY=
200503041200 METAR MROC 041200Z 07004KT 9000 FEW015 SCT120 19/17 A3003 NOSIG RMK HZY=
200503041300 METAR MROC 041300Z 06006KT CAVOK 21/17 A3003 NOSIG=
200503041400 METAR MROC 041400Z 08005KT CAVOK 26/18 A3005 NOSIG=
200503041500 METAR MROC 041500Z 10005KT CAVOK 28/17 A3006 NOSIG=
200503041600 METAR MROC 041600Z 24004KT 9999 FEW035 SCT350 30/16 A3005 NOSIG=
200503041700 METAR MROC 041700Z 22004KT 9999 SCT040 SCT300 29/16 A3002 NOSIG=
200503041800 METAR MROC 041800Z 27008KT 9999 SCT040 SCT300 30/18 A2999 NOSIG=
200503041900 METAR MROC 041900Z 26007KT 9999 BKN035 30/18 A2997 NOSIG=
200503042000 METAR MROC 042000Z 24009KT 9999 SCT035 31/18 A2995=
200503042100 METAR MROC 042100Z 04010KT 9999 SCT035TCU 31/14 A2992=
200503042200 METAR MROC 042200Z 23006KT 9999 FEW040 SCT250 29/19 A2993=
200503042300 METAR MROC 042300Z 25013KT 9999 FEW040 SCT200 27/20 A2994=
200503050000 METAR MROC 050000Z 24011KT 9999 FEW035 SCT150 25/20 A2997=
200503050100 METAR MROC 050100Z 30005KT 9999 SCT035 24/21 A3001=
200503050200 METAR MROC 050200Z 26006KT 9999 SCT020 22/21 A3005=
200503050300 METAR MROC 050300Z 24005KT 9999 SCT025 22/21 A3008 NOSIG=
200503050400 METAR MROC 050400Z 00000KT 9999 FEW030 21/21 A3008 NOSIG=
200503050500 METAR MROC 050500Z 00000KT 9999 FEW030 21/19 A3008 NOSIG=
200503050600 METAR MROC 050600Z 00000KT CAVOK 22/16 A3006 NOSIG=
200503050700 METAR MROC 050700Z 08006KT CAVOK 20/16 A3003 NOSIG=
200503050800 METAR MROC 050800Z 09008KT CAVOK 21/17 A3001 NOSIG=
200503050900 METAR MROC 050900Z 01004KT CAVOK 19/15 A3001 NOSIG=
200503051000 METAR MROC 051000Z 00000KT CAVOK 18/15 A3001 NOSIG=
200503051100 METAR MROC 051100Z 05007KT CAVOK 19/14 A3003 NOSIG=
200503051200 METAR MROC 051200Z 05006KT 9999 FEW025 17/13 A3004 NOSIG=
200503051300 METAR MROC 051300Z 07007KT CAVOK 19/14 A3006=
200503051400 METAR MROC 051400Z 10010KT CAVOK 23/15 A3007=
200503051500 METAR MROC 051500Z 10018KT CAVOK 25/15 A3006=
200503051600 METAR MROC 051600Z 10012KT CAVOK 27/15 A3008=
200503051700 METAR MROC 051700Z 11014KT CAVOK 29/15 A3006=
200503051800 METAR MROC 051800Z 11015KT CAVOK 29/15 A3002=
200503051900 METAR MROC 051900Z 11011KT 9999 FEW035 SCT250 30/15 A3001=
200503052000 METAR MROC 052000Z 11014KT 9999 FEW035 SCT250 30/14 A2998=
200503052100 METAR MROC 052100Z 11008KT 9999 FEW035 SCT250 30/14 A2996=
200503052200 METAR MROC 052200Z 11016KT 9999 FEW030TCU SCT110 29/16 A2996=
200503052300 METAR MROC 052300Z 12017KT 9999 FEW030 SCT060 BKN110 27/17 A2997=
200503060000 METAR MROC 060000Z 12006KT 9999 SCT030 BKN110 25/17 A3001=
200503060100 METAR MROC 060100Z 13008KT CAVOK 23/16 A3004=
200503060200 METAR MROC 060200Z 10012KT CAVOK 22/15 A3007=
200503060300 METAR MROC 060300Z 10014KT CAVOK 22/14 A3008 NOSIG=
200503060400 METAR MROC 060400Z 10016KT CAVOK 21/14 A3009 NOSIG=
200503060500 METAR MROC 060500Z 10013KT CAVOK 21/15 A3009 NOSIG=
200503060600 METAR MROC 060600Z 09008KT CAVOK 20/14 A3008 NOSIG=
200503060700 METAR MROC 060700Z 10016KT CAVOK 20/14 A3006 NOSIG=
200503060800 METAR MROC 060800Z 11016KT CAVOK 21/14 A3004 NOSIG=
200503060900 METAR MROC 060900Z 11016KT CAVOK 21/14 A3003 NOSIG=
200503061000 METAR MROC 061000Z 10018KT CAVOK 21/15 A3002 NOSIG=
200503061100 METAR MROC 061100Z 11015KT 9999 FEW035 SCT100 21/14 A3004 NOSIG=
200503061200 METAR MROC 061200Z 11015KT CAVOK 21/14 A3005 NOSIG=
200503061300 METAR MROC 061300Z 11016KT CAVOK 22/15 A3007=
200503061400 METAR MROC 061400Z 10015KT CAVOK 25/15 A3009=
200503061500 METAR MROC 061500Z 10012KT 9999 FEW025 SCT120 26/15 A3009=
200503061600 METAR MROC 061600Z 11015G25KT CAVOK 28/14 A3010=
200503061700 METAR MROC 061700Z 11014KT CAVOK 28/14 A3008=
200503061800 METAR MROC 061800Z 10013KT CAVOK 29/15 A3005=
200503061900 METAR MROC 061900Z 11011KT 9999 FEW035 BKN250 30/15 A3003=
200503062000 METAR MROC 062000Z 11011KT 9999 SCT035 BKN250 29/15 A3000=
200503062100 METAR MROC 062100Z 09010KT 9999 FEW030 BKN250 30/15 A2998 NOSIG=
200503062200 METAR MROC 062200Z 24010KT 9999 FEW030 SCT120 25/21 A3000 NOSIG=
200503062300 METAR MROC 062300Z 23005KT 9999 FEW025 SCT120 BKN250 24/20 A3002 NOSIG=
200503070000 METAR MROC 070000Z 25005KT 9999 SCT030 BKN120 23/20 A3004 NOSIG=
200503070100 METAR MROC 070100Z 24004KT 9999 FEW020 SCT030 23/20 A3006 NOSIG=
200503070200 METAR MROC 070200Z 14003KT CAVOK 22/18 A3008=
200503070300 METAR MROC 070300Z 12007KT CAVOK 22/17 A3011=
200503070400 METAR MROC 070400Z 11004KT CAVOK 22/16 A3011=
200503070500 METAR MROC 070500Z 10009KT CAVOK 21/15 A3010=
200503070600 METAR MROC 070600Z 10012KT CAVOK 21/15 A3008=
200503070700 METAR MROC 070700Z 10010KT CAVOK 20/15 A3005=
200503070800 METAR MROC 070800Z 10011KT CAVOK 20/15 A3004=
200503070900 METAR MROC 070900Z 10010KT CAVOK 20/14 A3003=
200503071100 METAR MROC 071100Z 10010KT CAVOK 20/14 A3004=
200503071200 METAR MROC 071200Z 10010KT CAVOK 19/14 A3005=
200503071300 METAR MROC 071300Z 11010KT CAVOK 21/13 A3007 NOSIG=
200503071400 METAR MROC 071400Z 11012KT CAVOK 24/12 A3009 NOSIG=
200503071500 METAR MROC 071500Z 10015KT CAVOK 25/12 A3008 NOSIG=
200503071600 METAR MROC 071600Z 10014KT CAVOK 27/11 A3008 NOSIG=
200503071700 METAR MROC 071700Z 09011KT CAVOK 29/13 A3006 NOSIG=
200503071800 METAR MROC 071800Z 09010KT 9999 FEW040 BKN230 30/13 A3003 NOSIG=
200503071900 METAR MROC 071900Z 24010KT 9999 FEW035 BKN230 29/16 A3000 BECMG SCT025=
200503072000 METAR MROC 072000Z 23010KT 9999 FEW030 BKN230 27/19 A2998 NOSIG=
200503072100 METAR MROC 072100Z 24013KT 9999 SCT035 BKN240 29/20 A2996 NOSIG=
200503072200 METAR MROC 072200Z 24013KT 9999 SCT030 BKN240 24/20 A2996 NOSIG=
200503072300 METAR MROC 072300Z 25008KT 9999 FEW030 BKN250 23/20 A2998 NOSIG=
200503080000 METAR MROC 080000Z 24006KT 9999 FEW025 BKN250 22/19 A2999 NOSIG=
200503080100 METAR MROC 080100Z 27005KT 9999 SCT030 BKN250 22/20 A3002=
200503080200 METAR MROC 080200Z 260003KT 9999 FEW030 SCT150 21/20 A3002=
200503080300 METAR MROC 080300Z 00000KT 9999 SCT025 SCT130 21/20 A3005=
200503080400 METAR MROC 080400Z 00000KT 9999 SCT025 SCT130 21/20 A3006=
200503080500 METAR MROC 080500Z 10003KT 9999 FEW030 SCT130 21/18 A3005=
200503080600 METAR MROC 080600Z 00000KT 9999 FEW030 SCT130 20/18 A3004=
200503080700 METAR MROC 080700Z 00000KT CAVOK 19/16 A3002=
200503080800 METAR MROC 080800Z 00000KT CAVOK 20/17 A3004=
200503080900 METAR MROC 080900Z 00000KT 9999 FEW030 SCT120 20/17 A3001=
200503081000 METAR MROC 081000Z 00000KT 9999 FEW025 SCT110 20/17 A3001=
200503081100 METAR MROC 081100Z 08003KT 9999 FEW030 SCT110 20/17 A3002=
200503081200 METAR MROC 081200Z 03004KT 9999 FEW035 SCT100 20/17 A3002=
200503081300 METAR MROC 081300Z 00000KT 9999 FEW015 SCT045 22/17 A3006 RMK 5000SW HZ=
200503081400 METAR MROC 081400Z 00000KT 9999 FEW030 24/18 A3007 RMK 3000SW HZ=
200503081500 METAR MROC 081500Z 03004KT 9999 FEW030 27/17 A3007 RMK HZ LEVE SW=
200503081600 METAR MROC 081600Z 00000KT 9999 FEW035 27/16 A3005 RMK HZ LEVE SW=
200503081700 METAR MROC 081700Z 27008KT 9999 SCT035 29/17 A3003 NOSIG=
200503081800 METAR MROC 081800Z 28008KT 9999 SCT035 30/18 A3000 NOSIG=
200503081900 METAR MROC 081900Z 22009KT 9999 SCT035 31/18 A2997 NOSIG=
200503082000 METAR MROC 082000Z 26012KT 9999 SCT035 30/17 A2994 RMK HZ LEVE ARWND=
200503082100 METAR MROC 082100Z 25014KT 9999 BKN030 27/19 A2992 TEMPO 6000 VCSH=
200503082200 METAR MROC 082200Z 19008KT 9999 SCT030 SCT080 24/21 A2993 NOSIG=
200503082300 METAR MROC 082300Z 20006KT 9999 SCT030 BKN100 24/20 A2994 NOSIG=
200503090000 METAR MROC 090000Z 20005KT 9999 FEW030 BKN120 23/20 A2996 NOSIG=
200503090100 METAR MROC 090100Z 23004KT 9999 FEW030 SCT120 22/20 A2998 TEMPO 05008KT CAVOK=
200503090200 METAR MROC 090200Z 28003KT 9999 FEW015 SCT030 21/20 A3001 RMK 5000SW HZ=
200503090300 METAR MROC 090300Z 00000KT 9999 FEW015 SCT025 21/20 A3002 RMK HZ LEVE ARWND.=
200503090400 METAR MROC 090400Z 26005KT 9999 4000SW BR FEW001 SCT004 21/20 A3003 NOSIG=
200503090500 METAR MROC 090500Z 00000KT 7000 VCFG FEW001 SCT006 21/20 A3003 NOSIG=
200503090600 METAR MROC 090600Z 26004KT 8000 VCFG FEW002 SCT004 BKN010 21/20 A3001 NOSIG=
200503090700 METAR MROC 090700Z 00000KT 8000 FEW002 SCT004 21/20 A2998 NOSIG=
200503090800 METAR MROC 090800Z 00000KT 8000 VCFG FEW003 BKN007 21/20 A2996=
200503090900 METAR MROC 090900Z 00000KT 8000 -RA VCFG SCT005 SCT020 21/20 A2997=
200503091000 METAR MROC 091000Z 00000KT 9000 -DZ FEW005 SCT120 21/20 A2996=
200503091100 METAR MROC 091100Z 00000KT 9000 FEW005 SCT010 BKN100 21/20 A2998=
200503091145 METAR MROC 091145Z 26003KT 3000 -RA BR SCT002 SCT005 BKN100 21/20 A2999=
200503091200 METAR MROC 091200Z 00000KT 3000 -RA BR SCT002 BKN005 21/20 A2999=
200503091300 METAR MROC 091300Z 24005KT 1000 -RA FG VV001 20/20 A3001 NOSIG=
200503091400 METAR MROC 091400Z 24004KT 1500 RA BR FEW001 SCT004 BKN120 20/19 A3004 NOSIG=
200503091500 METAR MROC 091500Z 00000KT 4000 -RA BR SCT005 OVC120 20/19 A3005 BECMG 8000=
200503091600 METAR MROC 091600Z 25005KT 4000 RA BR FEW005 BKN010 20/19 A3005 NOSIG=
200503091700 METAR MROC 091700Z 19003KT 9999 FEW006 BKN015 21/20 A3003 NOSIG=
200503091800 METAR MROC 091800Z 26004KT 9999 SCT012 BKN025 24/20 A3001 NOSIG=
200503091900 METAR MROC 091900Z 19004KT 9999 SCT020 BKN100 26/20 A2997 NOSIG=
200503092000 METAR MROC 092000Z 29007KT 9999 SCT025 SCT100 27/20 A2994 TEMPO 6000=
200503092100 METAR MROC 092100Z 25010KT 9999 -DZ SCT015TCU SCT080 25/20 A2991=
200503092200 METAR MROC 092200Z 26009KT 9999 -DZ SCT015 BKN100 23/19 A2991=
200503092300 METAR MROC 092300Z 24007KT 9000 VCFG SCT008 BKN100 22/20 A2992=
200503100000 METAR MROC 100000Z 24005KT 6000 DZ BR SCT004 SCT025 21/20 A2993=
200503100100 METAR MROC 100100Z 27006KT 7000 BR SCT002 SCT035 21/20 A2995=
200503100200 METAR MROC 100200Z 23006KT 6000SW BR SCT002 SCT040 21/20 A2998=
200503100300 METAR MROC 100300Z 27003KT 7000 VCFG FEW005 BKN035 21/20 A3001=
200503100400 METAR MROC 100400Z 28004KT 9999 FEW007 SCT025 20/20 A3002=
200503100500 METAR MROC 100500Z 31003KT 9999 FEW007 SCT030 21/20 A3002=
200503100600 METAR MROC 100600Z 00000KT 9999 FEW015 SCT030 20/19 A3001=
200503100700 METAR MROC 100700Z 00000KT 9999 FEW020 20/19 A3000=
200503100800 METAR MROC 100800Z 00000KT CAVOK 19/19 A2997=
200503100900 METAR MROC 100900Z 07006KT CAVOK 19/18 A2996=
200503101000 METAR MROC 101000Z 09003KT CAVOK 19/18 A2995=
200503101100 METAR MROC 101100Z 00000KT 9999 FEW003 18/17 A2997=
200503101200 METAR MROC 101200Z 10003KT 9999 3000SW BR FEW001 18/17 A2998=
200503101300 METAR MROC 101300Z 07004KT CAVOK 20/17 A3000=
200503101400 METAR MROC 101400Z 09004KT CAVOK 25/18 A3001=
200503101500 METAR MROC 101500Z 29004KT CAVOK 26/18 A3002=
200503101600 METAR MROC 101600Z 28004KT CAVOK 29/17 A3001=
200503101700 METAR MROC 101700Z 24010KT 9999 SCT040 29/18 A2999=
200503101800 METAR MROC 101800Z 23009KT 9999 SCT035 SCT220 30/18 A2997=
200503101900 METAR MROC 101900Z 22008KT 9999 -RA SCT020TCU SCT120 29/19 A2993=
200503102000 METAR MROC 102000Z 22007KT 9999 RA SCT020 BKN100 27/19 A2992 TEMPO 5000 RA=
200503102100 METAR MROC 102100Z 33007KT 9999 SCT018 BKN080 25/21 A2991=
200503102200 METAR MROC 102200Z 26009KT 9999 SCT020 BKN090 26/20 A2991=
200503102300 METAR MROC 102300Z 25005KT 1000 +RA FEW012 SCT018 OVC100 22/21 A2994=
200503110000 METAR MROC 110000Z 02004KT 8000 SCT015 BKN250 21/20 A2994=
200503110100 METAR MROC 110100Z 00000KT 9999 FEW020 SCT250 21/20 A2997=
200503110200 METAR MROC 110200Z 02004KT 9999 FEW020 SCT270 21/20 A2998=
200503110300 METAR MROC 110300Z 30003KT CAVOK 21/20 A3000 NOSIG=
200503110400 METAR MROC 110400Z 00000KT CAVOK 22/18 A3002 NOSIG=
200503110500 METAR MROC 110500Z 10004KT CAVOK 21/18 A3002 NOSIG=
200503110600 METAR MROC 110600Z 05005KT CAVOK 21/17 A2999 NOSIG=
200503110800 METAR MROC 110800Z 08007KT CAVOK 21/18 A2996 NOSIG=
200503110900 METAR MROC 110900Z 04005KT CAVOK 20/16 A2996 NOSIG=
200503111000 METAR MROC 111000Z 05005KT CAVOK 20/17 A2997 NOSIG=
200503111100 METAR MROC 111100Z 06006KT CAVOK 20/16 A2997 NOSIG=
200503111200 METAR MROC 111200Z 11007KT CAVOK 20/17 A2999 NOSIG=
200503111300 METAR MROC 111300Z 11012KT 9999 FEW020 22/17 A3001=
200503111400 METAR MROC 111400Z 12016KT 9999 FEW020 24/17 A3002=
200503111500 METAR MROC 111500Z 12012KT 9999 FEW025 26/17 A3003=
200503111600 METAR MROC 111600Z 09012KT 9999 SCT025 27/17 A3004=
200503111700 METAR MROC 111700Z 07015KT 9999 SCT025 28/16 A3002=
200503111800 METAR MROC 111800Z 09016KT 9999 SCT030 29/15 A3000=
200503111900 METAR MROC 111900Z 08010KT 9999 FEW030 30/15 A2998=
200503112000 METAR MROC 112000Z 13007KT 9999 SCT030 30/16 A2994=
200503112100 METAR MROC 112100Z 09008KT 9999 SCT030 30/15 A2993 NOSIG=
200503112200 METAR MROC 112200Z 08010KT 9999 SCT030 29/15 A2993 NOSIG=
200503112300 METAR MROC 112300Z 10008KT 9999 SCT030 28/17 A2994 NOSIG=
200503120000 METAR MROC 120000Z 10010KT 9999 SCT030 25/17 A2996 NOSIG=
200503120100 METAR MROC 120100Z 00000KT 9999 FEW030 23/20 A2999 BECMG VRB03KT CAVOK=
200503120200 METAR MROC 120200Z 10008KT CAVOK 23/18 A3000=
200503120300 METAR MROC 120300Z 10014KT CAVOK 23/18 A3002=
200503120400 METAR MROC 120400Z 07006KT CAVOK 22/17 A3003=
200503120500 METAR MROC 120500Z 12015KT CAVOK 22/17 A3003=
200503120600 METAR MROC 120600Z 10010KT CAVOK 22/17 A3003=
200503120700 METAR MROC 120700Z 07009KT CAVOK 21/17 A3001=
200503120900 METAR MROC 120900Z 08006KT CAVOK 21/17 A2999=
200503121000 METAR MROC 121000Z 03006KT CAVOK 21/17 A2999=
200503121100 METAR MROC 121100Z 07008KT CAVOK 21/17 A3000=
200503121200 METAR MROC 121200Z 09006KT 9999 FEW015 21/16 A3002=
200503121300 METAR MROC 121300Z 05010KT 9999 FEW017 22/18 A3005 NOSIG=
200503121400 METAR MROC 121400Z 06011KT 9999 FEW020 24/17 A3007 NOSIG=
200503121500 METAR MROC 121500Z 06011KT 9999 FEW020 24/17 A3007 NOSIG=
200503121600 METAR MROC 121600Z 11018KT 9999 FEW020 26/18 A3006 NOSIG=
200503121700 METAR MROC 121700Z 10016KT 9999 FEW025 BKN300 27/17 A3006 NOSIG=
200503121800 METAR MROC 121800Z 10019KT 9999 FEW030 BKN250 26/14 A3004 NOSIG=
200503121900 METAR MROC 121900Z 08015KT 9999 FEW035 BKN250 27/15 A3002 NOSIG=
200503122000 METAR MROC 122000Z 08013KT 9999 FEW035 SCT080 BKN250 26/16 A3000=
200503122100 METAR MROC 122100Z 08013KT 9999 FEW030 SCT090 SCT250 25/15 A2999 NOSIG=
200503122200 METAR MROC 122200Z 09016KT 9999 FEW030 BKN250 25/16 A2998 NOSIG=
200503122300 METAR MROC 122300Z 09013KT 9999 FEW035 BKN250 24/16 A2999 NOSIG=
200503130000 METAR MROC 130000Z 11013KT CAVOK 23/15 A2999 NOSIG=
200503130100 METAR MROC 130100Z 11012KT CAVOK 22/16 A3001 NOSIG=
200503130200 METAR MROC 130200Z 09011KT CAVOK 21/16 A3003 NOSIG=
200503130300 METAR MROC 130300Z 09013KT CAVOK 22/15 A3003=
200503130400 METAR MROC 130400Z 08010KT CAVOK 21/14 A3006=
200503130500 METAR MROC 130500Z 09013KT CAVOK 21/14 A3005=
200503130600 METAR MROC 130600Z 10013KT CAVOK 22/14 A3003=
200503130700 METAR MROC 130700Z 11009KT CAVOK 21/14 A3002=
200503130800 METAR MROC 130800Z 11015KT CAVOK 20/14 A2999=
200503130900 METAR MROC 130900Z 11015KT CAVOK 20/14 A2999=
200503131000 METAR MROC 131000Z 11016KT CAVOK 20/14 A2998=
200503131100 METAR MROC 131100Z 11012KT CAVOK 19/14 A2999=
200503131200 METAR MROC 131200Z 11011KT CAVOK 20/14 A3001=
200503131300 METAR MROC 131300Z 10012KT CAVOK 21/14 A3003 NOSIG=
200503131400 METAR MROC 131400Z 10015KT CAVOK 25/13 A3003 NOSIG=
200503131500 METAR MROC 131500Z 11015KT CAVOK 27/13 A3004 NOSIG=
200503131600 METAR MROC 131600Z 10015KT CAVOK 29/12 A3003 NOSIG=
200503131700 METAR MROC 131700Z 11015KT CAVOK 29/13 A3002 NOSIG=
200503131800 METAR MROC 131800Z 13010KT 9999 FEW040 30/11 A3000 NOSIG=
200503131900 METAR MROC 131900Z 13009KT 9999 FEW030 SCT250 30/12 A2997 RMK TCU SW=
200503132000 METAR MROC 132000Z 10012KT 9999 FEW030TCU SCT250 30/12 A2993=
200503132100 METAR MROC 132100Z 11009KT 9999 FEW035 SCT300 29/13 A2992 NOSIG=
200503132200 METAR MROC 132200Z 29004KT 9999 FEW030 28/19 A2992 NOSIG=
200503132300 METAR MROC 132300Z 23008KT 9999 FEW030 25/21 A2993 NOSIG=
200503140000 METAR MROC 140000Z 24005KT 9999 SCT030 23/20 A2994 NOSIG=
200503140100 METAR MROC 140100Z 24004KT 9999 SCT035 22/19 A2997=
200503140200 METAR MROC 140200Z 00000KT 9999 FEW030 22/19 A2998=
200503140300 METAR MROC 140300Z 0903KT 9999 FEW030 21/17 A2999 NOSIG=
200503140400 METAR MROC 140400Z 08005KT 9999 FEW030 21/16 A2999 NOSIG=
200503140500 METAR MROC 140500Z 05005KT CAVOK 20/16 A2999 NOSIG=
200503140700 METAR MROC 140700Z 00000KT CAVOK 19/15 A2996 NOSIG=
200503140800 METAR MROC 140800Z 05008KT CAVOK 19/15 A2995=
200503140900 METAR MROC 140900Z 09008KT CAVOK 20/16 A2995=
200503141000 METAR MROC 141000Z 07009KT CAVOK 19/15 A2993=
200503141100 METAR MROC 141100Z 09010KT CAVOK 20/15 A2996=
200503141200 METAR MROC 141200Z 05009KT CAVOK 18/14 A2998=
200503141300 METAR MROC 141300Z 10010KT CAVOK 22/15 A3000 NOSIG=
200503141400 METAR MROC 141400Z 11006KT CAVOK 24/15 A3001 NOSIG=
200503141500 METAR MROC 141500Z 11011KT CAVOK 26/14 A3001 NOSIG=
200503141600 METAR MROC 141600Z 12011KT CAVOK 27/14 A3000 NOSIG=
200503141700 METAR MROC 141700Z 10012KT CAVOK 28/15 A2998 NOSIG=
200503141800 METAR MROC 141800Z 11015KT 9999 FEW040 BKN300 29/14 A2995 NOSIG=
200503141900 METAR MROC 141900Z 11010KT 9999 FEW040 SCT300 30/15 A2993=
200503142000 METAR MROC 142000Z 11007KT 9999 SCT040 SCT300 30/15 A2990 NOSIG=
200503142100 METAR MROC 142100Z 24010KT 9999 SCT025TCU SCT100 29/18 A2988=
200503142200 METAR MROC 142200Z 21005KT 9999 FEW025TCU SCT040 26/20 A2989=
200503142300 METAR MROC 142300Z 22007KT 9999 FEW025TCU SCT050 26/20 A2989=
200503150000 METAR MROC 150000Z 24006KT 9999 FEW020TCU SCT070 23/20 A2992=
200503150100 METAR MROC 150100Z 24003KT 9999 FEW040 22/14 A2993=
200503150300 METAR MROC 150300Z 09005KT CAVOK 21/17 A2997 NOSIG=
200503150400 METAR MROC 150400Z 08008KT CAVOK 21/17 A2997 NOSIG=
200503150500 METAR MROC 150500Z 09007KT CAVOK 21/17 A2997 NOSIG=
200503150600 METAR MROC 150600Z 06003KT CAVOK 20/16 A2996 NOSIG=
200503150700 METAR MROC 150700Z 09005KT CAVOK 20/16 A2994 NOSIG=
200503150800 METAR MROC 150800Z 09007KT CAVOK 20/16 A2992 NOSIG=
200503151000 METAR MROC 151000Z 10011KT CAVOK 20/16 A2993 NOSIG=
200503151100 METAR MROC 151100Z 10009KT CAVOK 20/16 A2994 NOSIG=
200503151200 METAR MROC 151200Z 10010KT 9999 FEW035 20/16 A2995 NOSIG=
200503151300 METAR MROC 151300Z 11014KT CAVOK 23/16 A2996=
200503151400 METAR MROC 151400Z 11012KT CAVOK 24/16 A2998=
200503151500 METAR MROC 151500Z 11014KT CAVOK 26/15 A2999=
200503151600 METAR MROC 151600Z 13011KT CAVOK 27/15 A2999=
200503151700 METAR MROC 151700Z 10010KT 9999 FEW035 29/15 A2997=
200503151800 METAR MROC 151800Z 11011KT 9999 SCT030 30/15 A2996=
200503151900 METAR MROC 151900Z 12010KT 9999 SCT030 30/14 A2994=
200503152000 METAR MROC 152000Z 12011KT 9999 FEW025TCU SCT100 30/15 A2991=
200503152100 METAR MROC 152100Z 12008KT 9999 SCT030 30/15 A2989=
200503152200 METAR MROC 152200Z 23010KT 9999 BKN030 27/21 A2990=
200503152300 METAR MROC 152300Z 23006KT 9999 SCT030 25/20 A2991=
200503160000 METAR MROC 160000Z 22004KT 9999 FEW030 SCT250 24/20 A2993=
200503160100 METAR MROC 160100Z 30005KT 9999 FEW030 SCT250 23/20 A2994=
200503160200 METAR MROC 160200Z 00000KT 9999 FEW035 23/20 A2996=
200503160300 METAR MROC 160300Z 10006KT CAVOK 22/18 A2998 NOSIG=
200503160400 METAR MROC 160400Z 09005KT CAVOK 22/18 A2998 NOSIG=
200503160500 METAR MROC 160500Z 08008KT CAVOK 21/17 A2998 NOSIG=
200503160600 METAR MROC 160600Z 06009KT CAVOK 20/17 A2996 NOSIG=
200503160700 METAR MROC 160700Z 11003KT CAVOK 20/17 A2996 NOSIG=
200503160800 METAR MROC 160800Z 06005KT CAVOK 18/15 A2995 NOSIG=
200503160900 METAR MROC 160900Z 06008KT CAVOK 18/15 A2994 NOSIG=
200503161000 METAR MROC 161000Z 03005KT CAVOK 19/16 A2994 NOSIG=
200503161100 METAR MROC 161100Z 06009KT CAVOK 18/15 A2995 NOSIG=
200503161200 METAR MROC 161200Z 05010KT CAVOK 19/15 A2997 NOSIG=
200503161300 METAR MROC 161300Z 06009KT 9999 FEW030 SCT250 22/16 A2999=
200503161400 METAR MROC 161400Z 11010KT 9999 SCT030 SCT250 25/16 A3000=
200503161500 METAR MROC 161500Z 10008KT 9999 SCT030 SCT250 27/15 A3001=
200503161600 METAR MROC 161600Z 09003KT 9999 SCT030 BKN090 28/15 A3001 TEMPO 24008KT 9999 SCT025TCU=
200503161700 METAR MROC 161700Z 26007KT 9999 SCT035 BKN250 29/17 A2999=
200503161800 METAR MROC 161800Z 21005KT 9999 SCT035 SCT250 29/17 A2996 NOSIG=
200503161900 METAR MROC 161900Z 23011KT 9999 SCT035 SCT250 29/18 A2993=
200503162000 METAR MROC 162000Z 23010KT 9999 BKN030 29/20 A2991=
200503162100 METAR MROC 162100Z 24012KT 9999 FEW025TCU SCT035 28/20 A2990 NOSIG=
200503162200 METAR MROC 162200Z 24010KT 9999 SCT025TCU SCT035 27/20 A2990 TEMPO 7000 VCSH=
200503162300 METAR MROC 162300Z 24008KT 9999 SCT025TCU BKN035 25/20 A2992=
200503170000 METAR MROC 170000Z 24009KT 9999 SCT025 BKN040 24/21 A2993 NOSIG=
200503170100 METAR MROC 170100Z 25006KT 9999 SCT020 BKN040 23/20 A2996 NOSIG=
200503170200 METAR MROC 170200Z 00000KT 9999 SCT025 22/20 A2998=
200503170300 METAR MROC 170300Z 24003KT 9999 SCT025 21/19 A2999=
200503170400 METAR MROC 170400Z 24003KT 9999 FEW020 SCT100 21/20 A2999=
200503170500 METAR MROC 170500Z 00000KT 9000 FEW010 SCT100 21/20 A3000 RMK BR DST SW=
200503170600 METAR MROC 170600Z 00000KT 9000 FEW010 SCT090 21/20 A2998 RMK BR SW DST=
200503170900 METAR MROC 170900Z 00000KT 8000 VCFG SCT010 SCT070 21/20 A2997=
200503171000 METAR MROC 171000Z 00000KT 9999 FEW015 SCT100 21/20 A2998=
200503171100 METAR MROC 171100Z 00000KT 7000 VCFG FEW005 SCT025 21/20 A2999=
200503171200 METAR MROC 171200Z 10003KT 9999 SCT030 20/19 A3000=
200503171300 METAR MROC 171300Z 08003KT 8000 22/20 A3002 RMK HZY=
200503171400 METAR MROC 171400Z 11004KT 8000 25/19 A3003 RMK HZY=
200503171500 METAR MROC 171500Z 00000KT 9999 FEW045 SCT300 27/19 A3003 BECMG 24006KT=
200503171600 METAR MROC 171600Z 26006KT 9999 FEW040 SCT300 28/16 A3002 NOSIG=
200503171700 METAR MROC 171700Z 24007KT 9999 FEW040 SCT300 30/17 A3000 NOSIG=
200503171800 METAR MROC 171800Z 25008KT 9999 FEW040 SCT300 30/15 A2997 NOSIG=
200503171900 METAR MROC 171900Z 22010KT 9999 FEW030TCU SCT040 31/17 A2995 NOSIG=
200503172000 METAR MROC 172000Z 24017KT 9999 FEW025TCU SCT040 30/18 A2994 NOSIG=
200503172100 METAR MROC 172100Z 23010KT 9999 FEW025TCU SCT040 28/18 A2994 NOSIG=
200503172200 METAR MROC 172200Z 25011KT 9999 SCT030 28/18 A2992 NOSIG=
200503172300 METAR MROC 172300Z 24009KT 9999 FEW035 27/18 A2994 NOSIG=
200503180000 METAR MROC 180000Z 25006KT CAVOK 25/18 A2996 NOSIG=
200503180100 METAR MROC 180100Z 25005KT CAVOK 22/18 A2999 TEMPO 04008KT=
200503180200 METAR MROC 180200Z 28006KT CAVOK 22/19 A3002=
200503180300 METAR MROC 180300Z 00000KT CAVOK 21/19 A3003=
200503180400 METAR MROC 180400Z 00000KT CAVOK 21/19 A3002=
200503180500 METAR MROC 180500Z 00000KT CAVOK 20/19 A3002=
200503180600 METAR MROC 180600Z 09006KT CAVOK 20/18 A2999=
200503180700 METAR MROC 180700Z 03006KT CAVOK 21/17 A2997=
200503180800 METAR MROC 180800Z 11003KT CAVOK 19/17 A2997=
200503180900 METAR MROC 180900Z 09003KT CAVOK 19/18 A2997=
200503181000 METAR MROC 181000Z 00000KT CAVOK 20/18 A2998=
200503181100 METAR MROC 181100Z 03003KT 9999 SCT040 21/17 A2999=
200503181200 METAR MROC 181200Z 00000KT 9999 FEW035 SCT080 19/17 A3000=
200503181300 METAR MROC 181300Z 01004KT 7000 FEW045 SCT250 22/18 A3003 RMK HZ ARWND=
200503181400 METAR MROC 181400Z 09005KT 8000 SCT250 27/18 A3003 RMK HZ ARWND=
200503181500 METAR MROC 181500Z 10012KT 9999 BKN250 29/17 A3003 RMK 7000SW HZ=
200503181600 METAR MROC 181600Z 11017KT CAVOK 29/15 A3002 RMK HZ LEVE ARWND=
200503181700 METAR MROC 181700Z 09012KT CAVOK 30/16 A3000 RMK HZ LEVE ARWND=
200503181800 METAR MROC 181800Z 13010KT 9999 FEW040 BKN250 30/16 A2998 RMK LEVE HZY=
200503181900 METAR MROC 181900Z 20008KT 9999 SCT035 BKN250 28/19 A2996 RMK 8000SW HZ=
200503182000 METAR MROC 182000Z 12010KT 9999 SCT035 BKN250 31/17 A2992 RMK HZY=
200503182100 METAR MROC 182100Z 14008KT 9999 BKN040 BKN250 A2992 NOSIG=
200503182200 METAR MROC 182200Z 13008KT 9999 SCT030 BKN280 27/17 A2992 NOSIG=
200503182300 METAR MROC 182300Z 06007KT 9999 BKN040 BKN280 25/15 A2995 NOSIG=
200503190000 METAR MROC 190000Z 10013KT 9999 FEW030 BKN280 24/15 A2994 NOSIG=
200503190100 METAR MROC 190100Z 10012KT 9999 FEW030 BKN280 23/16 A2997 NOSIG=
200503190200 METAR MROC 190200Z 11013KT 9999 FEW030 BKN280 23/16 A2998 NOSIG=
200503190300 METAR MROC 190300Z 11012KT CAVOK 23/17 A3001 NOSIG=
200503190400 METAR MROC 190400Z 11018KT CAVOK 23/16 A3000 NOSIG=
200503190500 METAR MROC 190500Z 11012KT CAVOK 22/16 A3000 NOSIG=
200503190600 METAR MROC 190600Z 10011KT CAVOK 22/16 A2999 NOSIG=
200503190700 METAR MROC 190700Z 12012KT CAVOK 22/16 A2996=
200503190800 METAR MROC 190800Z 07006KT CAVOK 21/15 A2995=
200503190900 METAR MROC 190900Z 08005KT CAVOK 20/15 A2995=
200503191000 METAR MROC 191000Z 02004KT CAVOK 21/14 A2996=
200503191100 METAR MROC 191100Z 07006KT CAVOK 20/14 A2998=
200503191200 METAR MROC 191200Z 10005KT CAVOK 20/15 A2998=
200503191300 METAR MROC 191300Z 09006KT CAVOK 23/16 A3000 TEMPO 9999=
200503191400 METAR MROC 191400Z 12007KT 9999 FEW045 BKN280 24/14 A3003 NOSIG=
200503191500 METAR MROC 191500Z 11007KT CAVOK 27/13 A3003 NOSIG=
200503191600 METAR MROC 191600Z 11011KT CAVOK 28/14 A3003 NOSIG=
200503191700 METAR MROC 191700Z 12009KT CAVOK 30/13 A3002 NOSIG=
200503191800 METAR MROC 191800Z 25008KT 9999 FEW035 BKN290 30/19 A2999 NOSIG=
200503191900 METAR MROC 191900Z 19004KT 9999 FEW040 BKN280 29/19 A2997 NOSIG=
200503192000 METAR MROC 192000Z 24007KT 9999 FEW035 BKN280 29/19 A2995 TEMPO VRB03KT=
200503192100 METAR MROC 192100Z 12006KT 9999 SCT035 BKN280 28/19 A2993=
200503192200 METAR MROC 192200Z 11007KT 9999 FEW035 BKN250 29/16 A2993=
200503192300 METAR MROC 192300Z 11011KT 9999 FEW030 SCT250 27/17 A2993=
200503200000 METAR MROC 200000Z 11011KT 9999 FEW030 BKN250 25/17 A2996=
200503200100 METAR MROC 200100Z 14010KT 9999 FEW030 SCT250 24/18 A2998 NOSIG=
200503200200 METAR MROC 200200Z 12010KT 9999 FEW030 23/18 A3001 NOSIG=
200503200300 METAR MROC 200300Z 09003KT CAVOK 22/18 A3001 NOSIG=
200503200400 METAR MROC 200400Z 11006KT CAVOK 22/18 A3002 NOSIG=
200503200500 METAR MROC 200500Z 26005KT 9999 FEW012 22/19 A3004 RMK 7000SW VCFG=
200503200600 METAR MROC 200600Z 00000KT 9999 FEW010 21/18 A3003 RMK 7000SW VCFG=
200503200700 METAR MROC 200700Z 06003KT CAVOK 20/17 A3000 NOSIG=
200503200800 METAR MROC 200800Z 04005KT CAVOK 20/17 A2999 NOSIG=
200503200900 METAR MROC 200900Z 08006KT CAVOK 19/16 A2998 NOSIG=
200503201000 METAR MROC 201000Z 08009KT CAVOK 21/16 A2997 NOSIG=
200503201100 METAR MROC 201100Z 09006KT CAVOK 21/16 A2999 NOSIG=
200503201200 METAR MROC 201200Z 07007KT CAVOK 20/16 A3001 RMK HZY=
200503201300 METAR MROC 201300Z 11006KT CAVOK 22/17 A3003=
200503201400 METAR MROC 201400Z 10007KT CAVOK 23/16 A3004=
200503201500 METAR MROC 201500Z 09010KT CAVOK 25/17 A3003=
200503201600 METAR MROC 201600Z 10011KT CAVOK 27/16 A3001=
200503201700 METAR MROC 201700Z 12010KT CAVOK 30/17 A3000=
200503201800 METAR MROC 201800Z 10014KT 9999 FEW030 BKN250 29/17 A2998=
200503201900 METAR MROC 201900Z 11012KT 9999 SCT030 BKN250 30/17 A2996=
200503202000 METAR MROC 202000Z 10013KT 9999 SCT030TCU BKN250 29/17 A2994=
200503202100 METAR MROC 202100Z 23007KT 9999 SCT025TCU SCT090 BKN250 26/20 A2993=
200503202200 METAR MROC 202200Z 23007KT 9999 FEW030 BKN250 24/20 A2993 TEMPO VRB03KT=
200503202300 METAR MROC 202300Z 28008KT 6000 VCFG FEW006 BKN250 22/20 A2996 TEMPO 4000 BR SCT001 SCT008=
200503210000 METAR MROC 210000Z 31004KT 7000 VCFG SCT010 BKN100 22/20 A2997=
200503210100 METAR MROC 210100Z 26003KT 7000 VCFG SCT012 BKN250 22/20 A2999 TEMPO CAVOK=
200503210200 METAR MROC 210200Z 00000KT 9999 FEW035 SCT250 22/20 A3000=
200503210300 METAR MROC 210300Z 28004KT 9999 FEW010 SCT080 BKN280 21/20 A3002 NOSIG=
200503210400 METAR MROC 210400Z 30005KT 7000 VCFG BKN010 SCT030 21/20 A3003 NOSIG=
200503210500 METAR MROC 210500Z 26004KT 9999 VCFG SCT010 SCT030 21/20 A3003 NOSIG=
200503210600 METAR MROC 210600Z 00000KT 9999 FEW010 SCT280 20/20 A3000=
200503210700 METAR MROC 210700Z 08004KT CAVOK 20/19 A2997 NOSIG=
200503210800 METAR MROC 210800Z 10003KT CAVOK 19/18 A2996 NOSIG=
200503210900 METAR MROC 210900Z 07007KT CAVOK 19/17 A2995 NOSIG=
200503211000 METAR MROC 211000Z 07005KT CAVOK 20/17 A2994 NOSIG=
200503211100 METAR MROC 211100Z 06006KT CAVOK 19/17 A2995 NOSIG=
200503211200 METAR MROC 211200Z 06009KT CAVOK 19/17 A2995 NOSIG=
200503211300 METAR MROC 211300Z 08009KT CAVOK 22/17 A2997=
200503211400 METAR MROC 211400Z 11009KT CAVOK 25/17 A2999=
200503211500 METAR MROC 211500Z 22005KT CAVOK 26/18 A3001=
200503211600 METAR MROC 211600Z 25008KT 9999 FEW035 SCT270 27/19 A3000=
200503211700 METAR MROC 211700Z 25008KT 9999 SCT030 28/19 A2998=
200503211800 METAR MROC 211800Z 24010KT 9999 SCT030 29/20 A2996=
200503211900 METAR MROC 211900Z 26008KT 9999 SCT030 29/19 A2994=
200503212000 METAR MROC 212000Z 21010KT 9999 BKN030 29/19 A2988=
200503212100 METAR MROC 212100Z 25011KT 9999 SCT030 28/20 A2985 NOSIG=
200503212300 METAR MROC 212300Z 23007KT 9999 FEW020TCU BKN035 26/21 A2987 TEMPO 7000 VCSH RMK VIS 7000N VCSH HZ=
200503220000 METAR MROC 220000Z 21003KT 7000 3000E -TSRA FEW015CB BKN025 24/21 A2989 NOSIG=
200503220100 METAR MROC 220100Z 24005KT 9999 -DZ FEW005 SCT025 BKN070 23/21 A2992 TEMPO 5000 BR RMK VIS 7000N VCFG=
200503220200 METAR MROC 220200Z 23003KT 9999 FEW006 SCT025 22/21 A2993 NOSIG=
200503220300 METAR MROC 220300Z 00000KT 9999 FEW008 SCT030 21/20 A2995=
200503220400 METAR MROC 220400Z 00000KT 9999 SCT030 21/19 A2996=
200503220500 METAR MROC 220500Z 10004KT 9999 SCT030 21/19 A2996=
200503220600 METAR MROC 220600Z 08006KT 9999 SCT030 20/18 A2995=
200503220700 METAR MROC 220700Z 09003KT 9999 FEW030 20/18 A2992=
200503220800 METAR MROC 220800Z 08005KT CAVOK 20/17 A2991=
200503220900 METAR MROC 220900Z 02005KT CAVOK 19/17 A2990=
200503221000 METAR MROC 221000Z 07006KT CAVOK 19/16 A2991=
200503221100 METAR MROC 221100Z 06010KT CAVOK 19/16 A2992=
200503221300 METAR MROC 221300Z 03008KT CAVOK 21/16 A2996 TEMPO 24008KT=
200503221400 METAR MROC 221400Z 10008KT CAVOK 25/16 A2996 NOSIG=
200503221500 METAR MROC 221500Z 10010KT CAVOK 27/16 A2997 NOSIG=
200503221600 METAR MROC 221600Z 06008KT 9999 FEW045 29/15 A2997 RMK HZY TEMPO 24008KT=
200503221700 METAR MROC 221700Z 21008KT 9999 SCT040 30/18 A2996 RMK HZY TEMPO SCT025TCU=
200503221800 METAR MROC 221800Z 23009KT 9999 SCT040 28/19 A2995 RMK HZY NOSIG=
200503221900 METAR MROC 221900Z 24013KT 9999 FEW025TCU SCT040 28/20 A2992 TEMPO 7000 VCSH RMK RASH DIST SW HZY=
200503222000 METAR MROC 222000Z 24010KT 9999 SCT025TCU SCT040 25/19 A2990 TEMPO 5000 TSRA SCT020CB=
200503222100 METAR MROC 222100Z 25008KT 9999 FEW025TCU SCT035 25/20 A2990 RMK 7000SW HZ=
200503222200 METAR MROC 222200Z 29004KT 9999 3000SE -RA FEW006 BKN020 23/21 A2991=
200503222300 METAR MROC 222300Z 00000KT 9999 FEW008 SCT035 SCT090 22/20 A2992=
200503230000 METAR MROC 230000Z 00000KT 9999 FEW035 BKN090 22/20 A2993 NOSIG=
200503230100 METAR MROC 230100Z 07003KT 9999 FEW030 SCT140 21/20 A2995 NOSIG=
200503230200 METAR MROC 230200Z 04007KT CAVOK 22/19 A2997 NOSIG=
200503230300 METAR MROC 230300Z 00000KT CAVOK 22/19 A3000=
200503230400 METAR MROC 230400Z 09003KT CAVOK 21/20 A3000=
200503230500 METAR MROC 230500Z 36003KT CAVOK 22/19 A3001=
200503230600 METAR MROC 230600Z 00000KT 9999 FEW005 SCT250 21/20 A2997=
200503230700 METAR MROC 230700Z 00000KT 9999 FEW005 SCT250 20/21 A2995=
200503230800 METAR MROC 230800Z 00000KT CAVOK 20/19 A2993=
200503230900 METAR MROC 230900Z 06007KT CAVOK 20/18 A2994=
200503231000 METAR MROC 231000Z 06004KT CAVOK 19/17 A2993=
200503231100 METAR MROC 231100Z 04005KT CAVOK 19/17 A2994=
200503231200 METAR MROC 231200Z 07009KT CAVOK 20/17 A2995=
200503231300 METAR MROC 231300Z 06005KT CAVOK 22/18 A2999 RMK LEVE HZY=
200503231400 METAR MROC 231400Z 07004KT CAVOK 25/19 A3000 RMK HZ SW=
200503231500 METAR MROC 231500Z 12007KT CAVOK 27/18 A3000 NOSIG=
200503231600 METAR MROC 231600Z 10006KT 9999 FEW035 30/18 A3000 RMK HZ SW=
200503231700 METAR MROC 231700Z 26014KT 9999 FEW025TCU SCT035 29/19 A2999 RMK HZY=
200503231800 METAR MROC 231800Z 23010KT 9999 FEW020TCU SCT035 27/20 A2998 RMK HZ SW=
200503231900 METAR MROC 231900Z 24014KT 9999 FEW020TCU SCT030 SCT0250 29/20 A2994=
200503232000 METAR MROC 232000Z 23006KT 9999 SCT020TCU SCT030 27/20 A2993=
200503232100 METAR MROC 232100Z 03008KT 9999 4000N -RA FEW015TCU BKN030 23/19 A2993 NOSIG=
200503232200 METAR MROC 232200Z 00000KT 9999 4000S -RA FEW008 SCT015 BKN120 22/20 A2993 TEMPO 4000 -RA BR FEW002 SCT008=
200503232300 METAR MROC 232300Z 00000KT 6000 VCFG FEW003 BKN020 BKN120 22/21 A2996 TEMPO 3000 BR SCT001 SCT005=
200503240000 METAR MROC 240000Z 00000KT 6000 VCFG FEW007 SCT120 OVC250 22/21 A2996 NOSIG=
200503240100 METAR MROC 240100Z 00000KT 8000 FEW020 SCT120 BKN250 22/21 A2991 TEMPO 04006KT CAVOK=
200503240200 METAR MROC 240200Z 00000KT 9999 FEW035 SCT120 22/20 A2999 NOSIG=
200503240300 METAR MROC 240300Z 04005KT CAVOK 22/20 A3001 RMK LEVE HZ=
200503240400 METAR MROC 240400Z 07005KT CAVOK 21/19 A3002 NOSIG=
200503240500 METAR MROC 240500Z 04005KT CAVOK 20/18 A3002 NOSIG=
200503240600 METAR MROC 240600Z 02005KT CAVOK 20/18 A3002 NOSIG=
200503240700 METAR MROC 240700Z 07003KT CAVOK 19/18 A3001=
200503240800 METAR MROC 240800Z 06003KT CAVOK 19/17 A2999=
200503240900 METAR MROC 240900Z 04003KT CAVOK 19/17 A2999 RMK LTNG DST SSE S=
200503241000 METAR MROC 241000Z 06005KT CAVOK 19/17 A3000=
200503241100 METAR MROC 241100Z 05006KT CAVOK 18/17 A2999=
200503241200 METAR MROC 241200Z 06005KT CAVOK 19/17 A3001=
200503241300 METAR MROC 241300Z 07007KT CAVOK 23/18 A3003 NOSIG=
200503241400 METAR MROC 241400Z 10013KT CAVOK 25/18 A3003 NOSIG=
200503241500 METAR MROC 241500Z 11013KT CAVOK 26/18 A3004 NOSIG=
200503241600 METAR MROC 241600Z 12009KT CAVOK 28/17 A3003 NOSIG=
200503241700 METAR MROC 241700Z 12008KT 9999 FEW035 SCT300 30/17 A3002 NOSIG=
200503241800 METAR MROC 241800Z 24010KT 9999 BKN035 28/20 A3000 NOSIG=
200503241900 METAR MROC 241900Z 23006KT 9999 FEW020TCU SCT040 26/22 A2998 NOSIG=
200503242000 METAR MROC 242000Z 25009KT 9999 BKN030 25/21 A2997 NOSIG=
200503242100 METAR MROC 242100Z 30005KT 7000 RA SCT010CB SCT050 24/19 A2995=
200503242200 METAR MROC 242200Z 15003KT 9999 FEW005 SCT025 BKN170 22/21 A2996=
200503242300 METAR MROC 242300Z 27005KT 9999 FEW010 SCT020 BKN150 22/21 A2998=
200503250000 METAR MROC 250000Z 32004KT 9999 SCT020 SCT100 22/21 A3001=
200503250100 METAR MROC 250100Z 10004KT 9999 SCT025 SCT120 22/21 A2999=
200503250200 METAR MROC 250200Z 09005KT 9999 FEW030 SCT120 22/19 A2999=
200503250300 METAR MROC 250300Z 00000KT 9999 FEW035 BKN120 22/19 A3002 NOSIG=
200503250400 METAR MROC 250400Z 00000KT 9999 FEW035 BKN120 21/19 A3003 NOSIG=
200503250500 METAR MROC 250500Z 06005KT CAVOK 20/18 A3003 NOSIG=
200503250600 METAR MROC 250600Z 06008KT CAVOK 20/17 A3001 RMK HZ SW=
200503250700 METAR MROC 250700Z 07008KT CAVOK 20/17 A2999 RMK HZ SW=
200503250800 METAR MROC 250800Z 05009KT CAVOK 20/16 A2997=
200503250900 METAR MROC 250900Z 02005KT CAVOK 20/16 A2997=
200503251000 METAR MROC 251000Z 10006KT CAVOK 21/17 A2997=
200503251100 METAR MROC 251100Z 07008KT CAVOK 20/16 A2997=
200503251200 METAR MROC 251200Z 10006KT CAVOK 20/17 A2999=
200503251300 METAR MROC 251300Z 07005KT CAVOK 23/17 A3001=
200503251400 METAR MROC 251400Z 11008KT CAVOK 25/17 A3003=
200503251500 METAR MROC 251500Z 11010KT CAVOK 27/17 A3002=
200503251600 METAR MROC 251600Z 11011KT CAVOK 29/17 A3001=
200503251700 METAR MROC 251700Z 10014KT CAVOK 30/17 A2999=
200503251800 METAR MROC 251800Z 09010KT 9999 FEW040 31/16 A2998=
200503251900 METAR MROC 251900Z 10010KT 9999 SCT040 31/16 A2994=
200503252000 METAR MROC 252000Z 11012KT 9999 FEW040 SCT250 30/16 A2991=
200503252100 METAR MROC 252100Z 11012KT 9999 SCT030TCU SCT250 29/16 A2987=
200503252200 METAR MROC 252200Z 11010KT 9999 FEW030 SCT150 28/17 A2989=
200503252300 METAR MROC 252300Z 120009KT 9999 SCT020 BKN250 26/17 A2990=
200503260000 METAR MROC 260000Z 22004KT 9999 FEW030 BKN250 24/17 A2992=
200503260100 METAR MROC 260100Z 27003KT 9999 FEW035 OVC270 23/20 A2996=
200503260200 METAR MROC 260200Z 12003KT CAVOK 23/19 A2998=
200503260300 METAR MROC 260300Z 08003KT CAVOK 22/18 A3001 NOSIG=
200503260400 METAR MROC 260400Z 25004KT CAVOK 21/20 A3003=
200503260500 METAR MROC 260500Z 06004KT CAVOK 21/19 A3002 NOSIG=
200503260600 METAR MROC 260600Z 07003KT CAVOK 21/19 A3000 NOSIG=
200503260700 METAR MROC 260700Z 08004KT CAVOK 20/18 A2997 NOSIG=
200503260800 METAR MROC 260800Z 06008KT CAVOK 19/16 A2995 NOSIG=
200503260900 METAR MROC 260900Z 07007KT CAVOK 20/16 A2992 NOSIG=
200503261000 METAR MROC 261000Z 100005KT CAVOK 20/17 A2993 NOSIG=
200503261100 METAR MROC 261100Z 08007KT CAVOK 20/16 A2993 NOSIG=
200503261200 METAR MROC 261200Z 05007KT CAVOK 21/17 A2994=
200503261300 METAR MROC 261300Z 11010KT CAVOK 22/17 A2996=
200503261400 METAR MROC 261400Z 08008KT CAVOK 25/17 A2997=
200503261500 METAR MROC 261500Z 09009KT CAVOK 26/17 A2997=
200503261600 METAR MROC 261600Z 10012KT CAVOK 29/16 A2996=
200503261700 METAR MROC 261700Z 10010KT CAVOK 29/15 A2994=
200503261800 METAR MROC 261800Z 11010KT CAVOK 30/16 A2991=
200503261900 METAR MROC 261900Z 09013KT 9999 FEW040 SCT250 30/16 A2988=
200503262000 METAR MROC 262000Z 11010KT 9999 FEW035 BKN250 31/14 A2986=
200503262100 METAR MROC 262100Z 11010KT 9999 FEW035 BKN270 30/15 A2985 NOSIG=
200503262200 METAR MROC 262200Z 12009KT 9999 FEW030 BKN270 28/16 A2985 TEMPO 24008KT 7000 VCSH=
200503262300 METAR MROC 262300Z 20004KT 9999 FEW030 BKN270 26/19 A2988 NOSIG=
200503270000 METAR MROC 270000Z 24005KT 9999 FEW030 BKN270 23/21 A2991 NOSIG=
200503270100 METAR MROC 270100Z 00000KT 9999 FEW040 23/19 A2993=
200503270200 METAR MROC 270200Z 18003KT CAVOK 22/18 A2995 RMK HZ LEVE=
200503270300 METAR MROC 270300Z 28003KT 9999 FEW030 SCT100 22/20 A2997=
200503270400 METAR MROC 270400Z 00000KT 9999 FEW035 SCT150 21/20 A2998=
200503270500 METAR MROC 270500Z 07003KT 9999 FEW035 SCT100 21/18 A2998=
200503270600 METAR MROC 270600Z 10003KT 9999 FEW030 SCT100 21/18 A2997=
200503270700 METAR MROC 270700Z 04005KT 9999 FEW040 21/17 A2995=
200503270900 METAR MROC 270900Z 07003KT CAVOK 20/17 A2992=
200503271000 METAR MROC 271000Z 02005KT CAVOK 20/16 A2994=
200503271100 METAR MROC 271100Z 10003KT CAVOK 20/16 A2994=
200503271200 METAR MROC 271200Z 10004KT CAVOK 19/16 A2994=
200503271300 METAR MROC 271300Z 08005KT CAVOK 21/16 A2995 NOSIG=
200503271400 METAR MROC 271400Z 09007KT CAVOK 26/16 A2996 NOSIG=
200503271500 METAR MROC 271500Z 10007KT CAVOK 28/15 A2997 NOSIG=
200503271600 METAR MROC 271600Z 10008KT CAVOK 29/16 A2997 NOSIG=
200503271700 METAR MROC 271700Z 24005KT 9999 FEW040 BKN250 30/15 A2995 NOSIG=
200503271800 METAR MROC 271800Z 24009KT 9999 SCT040 31/17 A2992 NOSIG=
200503271900 METAR MROC 271900Z 24006KT 9999 SCT040 29/19 A2990 RMK RN DST SW=
200503272000 METAR MROC 272000Z 24014KT 9999 SCT035 28/21 A2989 NOSIG=
200503272100 METAR MROC 272100Z 24012KT 9999 FEW025TCU SCT035 27/21 A2987 NOSIG=
200503272200 METAR MROC 272200Z 25012KT 9999 FEW015CB BKN030 23/21 A2989 TEMPO 3000 TSRA SCT015CB BKN025=
200503272300 METAR MROC 272300Z 24005KT 9999 TS FEW015CB BKN030 23/20 A2991 RMK 5000N VCSH TEMPO 3000 SHRA=
200503280000 METAR MROC 280000Z 00000KT 9999 FEW020 BKN035 22/19 A2992 TEMPO -RA=
200503280100 METAR MROC 280100Z 00000KT 9999 FEW020 BKN035 23/19 A2994 NOSIG=
200503280200 METAR MROC 280200Z 00000KT 9999 FEW020 BKN040 23/19 A2996 NOSIG=
200503280300 METAR MROC 280300Z 16004KT 9999 FEW020 BKN090 22/19 A2999=
200503280400 METAR MROC 280400Z 09005KT 9999 FEW030 SCT100 21/18 A2998=
200503280500 METAR MROC 280500Z 09007KT CAVOK 22/16 A2996=
200503280600 METAR MROC 280600Z 00000KT CAVOK 21/18 A2997=
200503280700 METAR MROC 280700Z 07003KT 9999 SCT045 21/18 A2996=
200503280800 METAR MROC 280800Z 30004KT 9999 FEW025 SCT100 21/19 A2995=
200503280900 METAR MROC 280900Z 27003KT 9999 FEW020 SCT040 21/19 A2995=
200503281000 METAR MROC 281000Z 00000KT 9999 SCT040 20/19 A2995=
200503281100 METAR MROC 281100Z 07005KT 9999 FEW040 SCT120 21/18 A2996=
200503281200 METAR MROC 281200Z 09005KT 9999 FEW045 SCT100 21/18 A2996=
200503281300 METAR MROC 281300Z 11004KT 9999 FEW040 SCT120 23/18 A2999 TEMPO 24008KT=
200503281400 METAR MROC 281400Z 24006KT 9999 FEW040 SCT120 23/19 A3001=
200503281500 METAR MROC 281500Z 25005KT 9999 SCT035 BKN120 24/19 A3002 RMK RN DST SE=
200503281600 METAR MROC 281600Z 26005KT 9999 SCT030 BKN120 25/20 A3002 TEMPO 7000=
200503281700 METAR MROC 281700Z 00000KT 9999 SCT035 BKN120 27/19 A2999 TEMPO 24008KT 6000 VCSH=
200503281800 METAR MROC 281800Z 03005KT 9999 FEW015TCU SCT030 26/18 A2997=
200503281900 METAR MROC 281900Z 10006KT 9999 SCT035 SCT120 28/19 A2995 NOSIG=
200503282000 METAR MROC 282000Z 11009KT 9999 SCT030 BKN120 28/19 A2995 TEMPO 4000 -RA BR=
200503282100 METAR MROC 282100Z 11005KT 5000 RA SCT025 BKN120 21/20 A2991 NOSIG=
200503282200 METAR MROC 282200Z 169003KT 9999 SCT025 BKN100 21/20 A2992 RERA RMK VIS N 6KM NOSIG=
200503282300 METAR MROC 282300Z 11004KT 6000 RA SCT020 OVC100 21/19 A2993 NOSIG=
200503290000 METAR MROC 290000Z 11006KT 7000 RA SCT025 OVC100 20/19 A2994 NOSIG=
200503290100 METAR MROC 290100Z 11507KT 9999 SCT020 OVC100 20/19 A2996 RERA=
200503290200 METAR MROC 290200Z 08006KT 9999 SCT030 OVC120 21/18 A2998=
200503290300 METAR MROC 290300Z 05004KT 9999 FEW035 BKN150 21/18 A3000 NOSIG=
200503290400 METAR MROC 290400Z 08006KT CAVOK 21/17 A3000 NOSIG=
200503290500 METAR MROC 290500Z 06009KT CAVOK 21/17 A2998 NOSIG=
200503290600 METAR MROC 290600Z 04005KT CAVOK 20/17 A2996 NOSIG=
200503290700 METAR MROC 290700Z 00000KT CAVOK 20/17 A2995 NOSIG=
200503290800 METAR MROC 290800Z 00000KT CAVOK 20/17 A2995=
200503290900 METAR MROC 290900Z 00000KT CAVOK 19/17 A2995=
200503291000 METAR MROC 291000Z 05003KT CAVOK 19/17 A2995=
200503291100 METAR MROC 291100Z 04005KT CAVOK 19/16 A2996=
200503291200 METAR MROC 291200Z 05005KT 9999 FEW035 BKN250 20/16 A2998=
200503291300 METAR MROC 291300Z 06007KT 9999 FEW030 BKN280 22/17 A2999 NOSIG=
200503291400 METAR MROC 291400Z 11012KT 9999 FEW030 BKN280 24/18 A3001 NOSIG=
200503291500 METAR MROC 291500Z 11012KT 9999 FEW030 BKN280 26/18 A3001 NOSIG=
200503291600 METAR MROC 291600Z 09011KT 9999 FEW030 BKN280 28/17 A3002 NOSIG=
200503291700 METAR MROC 291700Z 10008KT 9999 SCT030 BKN280 28/18 A3001 NOSIG=
200503291800 METAR MROC 291800Z 12007KT 9999 SCT030 BKN280 28/18 A2998 NOSIG=
200503291900 METAR MROC 291900Z 22009KT 9999 BKN030 SCT280 27/20 A2996 NOSIG=
200503292000 METAR MROC 292000Z 25015KT 9999 4000N VCSH SCT020TCU SCT030 25/20 A2993 TEMPO 4000 SHRA=
200503292100 METAR MROC 292100Z 31006KT 8000 VCSH SCT006 BKN035 22/19 A2994=
200503292200 METAR MROC 292200Z 32005KT 8000 VCFG FEW005 SCT030 SCT150 22/20 A2992 RMK VIS RED SW=
200503292300 METAR MROC 292300Z 26007KT 4000SW BR SCT002 SCT035 21/20 A2996 TEMPO 2000 BR SCT001 SCT005=
200503300000 METAR MROC 300000Z 34005KT 9999 SCT025 BKN150 21/20 A2997=
200503300100 METAR MROC 300100Z 30004KT 7000 VCFG FEW001 SCT035 21/19 A2998 TEMPO 05008KT CAVOK=
200503300200 METAR MROC 300200Z 26005KT 6000 VCFG FEW001 SCT035 20/20 A3002 BECMG 04005KT 9999=
200503300300 METAR MROC 300300Z 00000KT 9999 4000SW BR FEW002 SCT020 21/20 A3003=
200503300400 METAR MROC 300400Z 00000KT 5000 BR FEW002 SCT007 20/19 A3002=
200503300500 METAR MROC 300500Z 06003KT CAVOK 20/19 A3001=
200503300600 METAR MROC 300600Z 09005KT CAVOK 20/17 A3000=
200503300700 METAR MROC 300700Z 07008KT CAVOK 20/17 A2996=
200503300800 METAR MROC 300800Z 08005KT CAVOK 20/16 A2996=
200503300900 METAR MROC 300900Z 09007KT CAVOK 20/16 A2995=
200503301000 METAR MROC 301000Z 11008KT CAVOK 20/16 A2996=
200503301100 METAR MROC 301100Z 08009KT CAVOK 20/15 A2997=
200503301200 METAR MROC 301200Z 07007KT CAVOK 20/15 A2997 NOSIG=
200503301300 METAR MROC 301300Z 10008KT CAVOK 22/16 A3000 NOSIG=
200503301400 METAR MROC 301400Z 11016KT CAVOK 23/15 A3001=
200503301500 METAR MROC 301500Z 11018KT CAVOK 25/15 A3001=
200503301600 METAR MROC 301600Z 11018KT CAVOK 26/14 A3001=
200503301700 METAR MROC 301700Z 11012KT CAVOK 27/15 A3000=
200503301800 METAR MROC 301800Z 11012KT 9999 FEW035 SCT250 29/15 A2998=
200503301900 METAR MROC 301900Z 14010KT 9999 FEW030 SCT250 30/15 A2995=
200503302000 METAR MROC 302000Z 10008KT 9999 FEW030 SCT250 30/16 A2993=
200503302100 METAR MROC 302100Z 16004KT 9999 SCT030 BKN250 29/16 A2991=
200503302200 METAR MROC 302200Z 23006KT 9999 SCT030 BKN250 26/20 A2990=
200503302300 METAR MROC 302300Z 24010KT 9999 SCT030 BKN250 24/21 A2992=
200503310000 METAR MROC 310000Z 19004KT 9999 SCT030 BKN250 23/20 A2994=
200503310100 METAR MROC 310100Z 12006KT 9999 SCT030 BKN250 22/18 A2996=
200503310200 METAR MROC 310200Z 11009KT 9999 SCT030 BKN250 22/16 A2997=
200503310300 METAR MROC 310300Z 08004KT 9999 FEW012 21/15 A3000 NOSIG=
200503310400 METAR MROC 310400Z 07009KT CAVOK 20/12 A3000 NOSIG=
200503310500 METAR MROC 310500Z 07009KT CAVOK 19/12 A3000 NOSIG=
200503310600 METAR MROC 310600Z 05008KT CAVOK 20/12 A2998 NOSIG=
200503310700 METAR MROC 310700Z 07008KT CAVOK 18/12 A2997 NOSIG=
200503310800 METAR MROC 310800Z 08003KT CAVOK 18/14 A2995 NOSIG=
200503310900 METAR MROC 310900Z 07004KT CAVOK 17/14 A2993 NOSIG=
200503311000 METAR MROC 311000Z 08006KT CAVOK 17/13 A2994 NOSIG=
200503311100 METAR MROC 311100Z 05007KT CAVOK 17/14 A2996 NOSIG=
200503311200 METAR MROC 311200Z 07007KT CAVOK 18/14 A2997 NOSIG=
200503311300 METAR MROC 311300Z 10006KT CAVOK 21/15 A2999=
200503311400 METAR MROC 311400Z 10010KT CAVOK 24/14 A3000=
200503311500 METAR MROC 311500Z 11009KT 9999 FEW035 27/15 A3001=
200503311600 METAR MROC 311600Z 18004KT 9999 FEW035 28/16 A3000 TEMPO 24008KT 9999 SCT020TCU=
200503311700 METAR MROC 311700Z 28004KT 9999 SCT030 29/16 A2999=
200503311800 METAR MROC 311800Z 25004KT 9999 BKN030 29/18 A2996=
200503311900 METAR MROC 311900Z 23007KT 9999 BKN030 28/18 A2993=
200503312000 METAR MROC 312000Z 24010KT 9999 BKN030TCU 28/20 A2991 TEMPO 7000 VCSH=
200503312100 METAR MROC 312100Z 26012KT 9999 SCT025TCU 27/20 A2989 NOSIG=
200503312200 METAR MROC 312200Z 25014KT 9999 FEW015TCU BKN030 25/20 A2989 TEMPO 6000 VCSH RMK VIS 8000S DUE RASH=
200503312300 METAR MROC 312300Z 23010KT 9999 FEW007 SCT020 BKN250 23/21 A2991 TEMPO 6000 VCFG=
200504010000 METAR MROC 010000Z 23004KT 9999 4000SW BR FEW005 BKN015 22/21 A2993 BECMG 4000=
200504010100 METAR MROC 010100Z 240004KT 9999 FEW010 BKN020 22/21 A2995 BECMG RMK VIS SW 8KM DUE LOW ST/=
200504010200 METAR MROC 010200Z 23004KT 6000 BR FEW005 BKN012 21/20 A2998=
200504010300 METAR MROC 010300Z 26006KT 5000 BR FEW003 BKN012 21/19 A3000=
200504010400 METAR MROC 010400Z 00000KT 8000 FEW004 BKN015 21/19 A3001=
200504010500 METAR MROC 010500Z 00000KT 8000 FEW004 SCT015 21/19 A2999=
200504010600 METAR MROC 010600Z 00000KT 9999 SCT030 20/19 A2998=
200504010700 METAR MROC 010700Z 00000KT 9999 SCT030 20/19 A2997=
200504010800 METAR MROC 010800Z 00000KT CAVOK 20/18 A2994=
200504010900 METAR MROC 010900Z 07006KT CAVOK 20/17 A2993=
200504011000 METAR MROC 011000Z 10004KT CAVOK 20/18 A2994=
200504011100 METAR MROC 011100Z 09004KT CAVOK 20/17 A2995=
200504011200 METAR MROC 011200Z 09006KT 9999 SCT045 21/17 A2996=
200504011300 METAR MROC 011300Z 10007KT 9999 FEW040 SCT100 23/17 A2998 NOSIG=
200504011400 METAR MROC 011400Z 11012KT CAVOK 25/17 A3000 NOSIG=
200504011500 METAR MROC 011500Z 11007KT CAVOK 28/17 A3000 NOSIG=
200504011600 METAR MROC 011600Z 09004KT 9999 FEW040 BKN250 29/17 A2999 NOSIG=
200504011700 METAR MROC 011700Z 23007KT 9999 SCT040 SCT250 29/19 A2998 NOSIG=
200504011800 METAR MROC 011800Z 25012KT 9999 FEW030TCU SCT040 27/20 A2996 NOSIG=
200504011900 METAR MROC 011900Z 24012KT 9999 FEW025TCU SCT035 28/20 A2994 NOSIG=
200504012000 METAR MROC 012000Z 25012KT 9999 FEW025 SCT035 27/20 A2991 NOSIG=
200504012100 METAR MROC 012100Z 25012KT 9999 SCT025TCU SCT035 28/21 A2990=
200504012200 METAR MROC 012200Z 21007KT 9999 SCT015CB BKN025TCU 26/21 A2990 NOSIG=
200504012300 METAR MROC 012300Z 34004KT 9999 -DZ FEW025 BKN035 23/20 A2991 BECMG 4000 DZ FEW001 SCT008=
200504020000 METAR MROC 020000Z 21003KT 9999 SCT030 BKN100 23/21 A2993 NOSIG=
200504020100 METAR MROC 020100Z 30003KT 9999 FEW030 BKN100 22/21 A2994 BECMG CAVOK=
200504020200 METAR MROC 020200Z 29003KT 9999 FEW035 BKN120 22/21 A2996 NOSIG=
200504020300 METAR MROC 020300Z 08006KT 9999 FEW015 SCT035 22/19 A2997=
200504020400 METAR MROC 020400Z 08004KT 9999 FEW035 21/18 A2997=
200504020500 METAR MROC 020500Z 04007KT 9999 FEW035 22/18 A2997=
200504020600 METAR MROC 020600Z 06006KT 9999 FEW035 20/17 A2996=
200504020700 METAR MROC 020700Z 05009KT 9999 FEW035 21/17 A2995=
200504020800 METAR MROC 020800Z 06009KT 9999 FEW035 SCT090 20/17 A2995=
200504020900 METAR MROC 020900Z 07007KT CAVOK 20/17 A2994=
200504021000 METAR MROC 021000Z 07009KT CAVOK 20/17 A2995=
200504021100 METAR MROC 021100Z 06009KT CAVOK 20/17 A2995=
200504021200 METAR MROC 021200Z 09006KT CAVOK 20/17 A2997=
200504021300 METAR MROC 021300Z 06007KT 9999 FEW040 BKN250 23/17 A2998 NOSIG=
200504021400 METAR MROC 021400Z 11011KT 9999 FEW035 BKN250 26/17 A3001 NOSIG=
200504021500 METAR MROC 021500Z 11010KT 9999 FEW035 SCT250 27/18 A3001 NOSIG=
200504021600 METAR MROC 021600Z 09007KT 9999 FEW035 BKN100 29/17 A3001 NOSIG=
200504021700 METAR MROC 021700Z 10006KT 9999 FEW035 SCT100 BKN250 31/16 A2999 NOSIG=
200504021800 METAR MROC 021800Z 06014KT 9999 FEW035 SCT100 32/14 A2997 NOSIG=
200504021900 METAR MROC 021900Z 06010KT 9999 SCT040 SCT250 31/14 A2993 NOSIG=
200504022000 METAR MROC 022000Z 24010KT 9999 SCT035 BKN250 28/21 A2992 NOSIG=
200504022100 METAR MROC 022100Z 27008KT 9999 FEW030 BKN280 31/17 A2988 NOSIG=
200504022200 METAR MROC 022200Z 26014KT 9999 FEW030 SCT040 BKN280 27/19 A2990 NOSIG=
200504022300 METAR MROC 022300Z 26004KT 9999 SCT030 BKN250 27/17 A2991 NOSIG=
200504030000 METAR MROC 030000Z 25007KT 9999 FEW030 SCT280 24/21 A2994 NOSIG=
200504030100 METAR MROC 030100Z 09008KT CAVOK 24/16 A2997 NOSIG=
200504030200 METAR MROC 030200Z 11011KT CAVOK 23/16 A2998=
200504030300 METAR MROC 030300Z 10010KT CAVOK 22/17 A3001 NOSIG=
200504030400 METAR MROC 030400Z 09008KT CAVOK 22/17 A3002 NOSIG=
200504030500 METAR MROC 030500Z 10011KT CAVOK 22/14 A3001 NOSIG=
200504030600 METAR MROC 030600Z 09009KT CAVOK 22/14 A2999 NOSIG=
200504030700 METAR MROC 030700Z 12010KT CAVOK 21/14 A2998=
200504030800 METAR MROC 030800Z 11012KT CAVOK 22/14 A2995=
200504030900 METAR MROC 030900Z 11016KT CAVOK 22/14 A2994=
200504031000 METAR MROC 031000Z 10015KT CAVOK 22/14 A2995=
200504031100 METAR MROC 031100Z 11015KT CAVOK 22/15 A2996=
200504031200 METAR MROC 031200Z 11018KT CAVOK 22/14 A2999=
200504031300 METAR MROC 031300Z 12016KT CAVOK 23/15 A3002 RMK HZ E NOSIG=
200504031400 METAR MROC 031400Z 09013KT CAVOK 25/14 A3004 NOSIG=
200504031500 METAR MROC 031500Z 09015KT CAVOK 26/13 A3006 NOSIG=
200504031600 METAR MROC 031600Z 08018KT CAVOK 27/13 A3004 NOSIG=
200504031700 METAR MROC 031700Z 06023KT CAVOK 29/13 A3003 NOSIG=
200504031800 METAR MROC 031800Z 06024KT CAVOK 29/12 A3000 NOSIG=
200504031900 METAR MROC 031900Z 07020KT CAVOK 30/11 A2998 NOSIG=
200504032000 METAR MROC 032000Z 07018KT CAVOK 29/12 A2996=
200504032100 METAR MROC 032100Z 08015KT CAVOK 29/13 A2994=
200504032200 METAR MROC 032200Z 05018KT CAVOK 28/12 A2993=
200504032300 METAR MROC 032300Z 08015KT CAVOK 26/23 A2994=
200504040000 METAR MROC 040000Z 08011KT CAVOK 24/14 A2996=
200504040100 METAR MROC 040100Z 07012KT CAVOK 23/15 A2997 NOSIG=
200504040200 METAR MROC 040200Z 11012KT CAVOK 22/16 A2999 NOSIG=
200504040300 METAR MROC 040300Z 10013KT CAVOK 22/15 A2999 NOSIG=
200504040400 METAR MROC 040400Z 09016KT CAVOK 22/14 A2999 NOSIG=
200504040500 METAR MROC 040500Z 10014KT CAVOK 22/15 A2998 NOSIG=
200504040600 METAR MROC 040600Z 11019KT CAVOK 21/15 A2996 NOSIG=
200504040700 METAR MROC 040700Z 11013KT CAVOK 21/15 A2994 NOSIG=
200504040800 METAR MROC 040800Z 11014KT CAVOK 20/15 A2994 NOSIG=
200504040900 METAR MROC 040900Z 12015KT CAVOK 20/15 A2993 NOSIG=
200504041000 METAR MROC 041000Z 10012KT CAVOK 20/15 A2996 NOSIG=
200504041100 METAR MROC 041100Z 11015KT CAVOK 20/15 A2996 NOSIG=
200504041200 METAR MROC 041200Z 11016KT 9999 FEW040 21/15 A2996 NOSIG=
200504041300 METAR MROC 041300Z 11012KT CAVOK 22/16 A2999=
200504041400 METAR MROC 041400Z 10014KT CAVOK 25/15 A3000=
200504041600 METAR MROC 041600Z 09013KT CAVOK 28/15 A2999=
200504041700 METAR MROC 041700Z 10010G20KT CAVOK 29/15 A2999=
200504041800 METAR MROC 041800Z 10012KT 9999 FEW035 29/15 A2996=
200504041900 METAR MROC 041900Z 09013KT 9999 FEW035 29/15 A2994=
200504042000 METAR MROC 042000Z 10015KT 9999 FEW040 28/15 A2990=
200504042100 METAR MROC 042100Z 10010KT 9999 FEW035 27/16 A2990=
200504042200 METAR MROC 042200Z 09010KT 9999 FEW030 27/15 A2990=
200504042300 METAR MROC 042300Z 11014KT 9999 SCT028 25/16 A2990=
200504050000 METAR MROC 050000Z 10011KT 9999 SCT025 23/15 A2992=
200504050100 METAR MROC 050100Z 11013KT 9999 FEW035 22/14 A2994 BECMG CAVOK=
200504050200 METAR MROC 050200Z 11015KT CAVOK 22/15 A2995 NOSIG=
200504050300 METAR MROC 050300Z 10020KT CAVOK 21/14 A2996 NOSIG=
200504050400 METAR MROC 050400Z 10015KT CAVOK 22/14 A2996 NOSIG=
200504050500 METAR MROC 050500Z 10010KT CAVOK 22/16 A2995 NOSIG=
200504050600 METAR MROC 050600Z 11013KT CAVOK 22/16 A2994 NOSIG=
200504050900 METAR MROC 050900Z 10007KT CAVOK 20/17 A2991 NOSIG=
200504051000 METAR MROC 051000Z 12014KT 9999 FEW030 21/17 A2991 NOSIG=
200504051100 METAR MROC 051100Z 11017KT 9999 FEW025 BKN080 21/16 A2991 NOSIG=
200504051200 METAR MROC 051200Z 10015KT 9999 FEW025 BKN080 21/16 A2994 NOSIG=
200504051300 METAR MROC 051300Z 10012KT 9999 FEW025 BKN070 22/14 A2996=
200504051400 METAR MROC 051400Z 11017KT 9999 FEW025 BKN080 23/15 A2998=
200504051500 METAR MROC 051500Z 09014KT 9999 SCT025 BKN080 25/14 A2998=
200504051600 METAR MROC 051600Z 11018KT 9999 SCT025 BKN080 25/15 A2999=
200504051700 METAR MROC 051700Z 09016KT 9999 SCT025 BKN080 26/15 A3000=
200504051800 METAR MROC 051800Z 09014KT 9999 FEW030 SCT090 BKN250 25/15 A2997=
200504051900 METAR MROC 051900Z 11017KT 9999 FEW030 SCT100 BKN250 27/16 A2992=
200504052000 METAR MROC 052000Z 11014KT 9999 SCT030 BKN250 27/17 A2991=
200504052100 METAR MROC 052100Z 10012KT 9999 FEW030 BKN250 27/17 A2988 NOSIG=
200504052200 METAR MROC 052200Z 10015KT 9999 FEW030 OVC250 25/17 A2987 NOSIG=
200504052300 METAR MROC 052300Z 11012KT 9999 FEW025 OVC250 25/17 A2989 NOSIG=
200504060000 METAR MROC 060000Z 10012KT 9999 FEW025 BKN250 23/17 A2992 NOSIG=
200504060100 METAR MROC 060100Z 07009KT 9999 FEW030 BKN250 22/18 A2995 NOSIG=
200504060200 METAR MROC 060200Z 10009KT CAVOK 22/18 A2997=
200504060300 METAR MROC 060300Z 10017KT CAVOK 22/18 A2997=
200504060400 METAR MROC 060400Z 11013KT CAVOK 22/17 A2997=
200504060500 METAR MROC 060500Z 12016KT CAVOK 22/17 A2996=
200504060600 METAR MROC 060600Z 11017KT CAVOK 22/16 A2996=
200504060700 METAR MROC 060700Z 110113KT CAVOK 22/16 A2995=
200504060800 METAR MROC 060800Z 10015KT CAVOK 21/17 A2991=
200504061200 METAR MROC 061200Z 11014KT 9999 FEW025 SCT250 21/15 A2993=
200504061400 METAR MROC NIL=
200504061500 METAR MROC 061500Z 10019G29KT 9999 FEW030 SCT250 25/16 A2999 NOSIG=
200504061600 METAR MROC 061600Z 11019KT 9999 FEW030 SCT250 26/16 A2999 NOSIG=
200504061700 METAR MROC 061700Z 11020KT 9999 FEW035 BKN250 28/15 A2997 NOSIG=
200504061800 METAR MROC 061800Z 09015G25KT 9999 FEW030 BKN250 28/16 A2997 NOSIG=
200504061900 METAR MROC 061900Z 10015KT 9999 FEW035 BKN250 28/15 A2995 NOSIG=
200504062000 METAR MROC 062000Z 10013KT 9999 FEW035 BKN250 28/16 A2992=
200504062100 METAR MROC 062100Z 11014KT 9999 FEW035 BKN250 27/16 A2991=
200504062200 METAR MROC 062200Z 12014KT 9999 FEW035 BKN250 25/16 A2991 NOSIG=
200504062300 METAR MROC 062300Z 11011KT 9999 FEW035 OVC250 24/18 A2993 NOSIG=
200504070000 METAR MROC 070000Z 11014KT 9999 SCT035 OVC250 23/16 A2995 NOSIG=
200504070100 METAR MROC 070100Z 10012KT 9999 FEW040 OVC250 23/15 A2998=
200504070200 METAR MROC 070200Z 10012KT CAVOK 23/16 A2998=
200504070300 METAR MROC 070300Z 09014KT CAVOK 22/16 A3000=
200504070400 METAR MROC 070400Z 09014KT CAVOK 22/17 A3000=
200504070500 METAR MROC 070500Z 09007KT CAVOK 22/17 A3001=
200504070600 METAR MROC 070600Z 09006KT CAVOK 22/17 A2999=
200504070700 METAR MROC 070700Z 08004KT CAVOK 21/17 A2996=
200504070800 METAR MROC 070800Z 08007KT CAVOK 22/17 A2995=
200504070900 METAR MROC 070900Z 07008KT CAVOK 22/18 A2993=
200504071000 METAR MROC 071000Z 11012KT CAVOK 22/18 A2992=
200504071100 METAR MROC 071100Z 09004KT 9999 FEW040 SCT100 21/17 A2995=
200504071200 METAR MROC 071200Z 10006KT 9999 FEW030 SCT100 BKN250 21/17 A2997=
200504071300 METAR MROC 071300Z 00000KT 9999 FEW030 SCT100 BKN250 24/17 A2999 RMK CB DST S NOSIG=
200504071400 METAR MROC 071400Z 11011KT 9999 FEW035 BKN250 26/18 A3001 NOSIG=
200504071500 METAR MROC 071500Z 12012KT 9999 FEW030 BKN250 27/18 A3001 NOSIG=
200504071600 METAR MROC 071600Z 11016KT 9999 FEW035 BKN250 28/18 A3000 NOSIG=
200504071700 METAR MROC 071700Z 11017KT 9999 FEW035 BKN250 28/18 A2999 NOSIG=
200504071800 METAR MROC 071800Z 11014KT 9999 FEW040 SCT100 BKN250 29/18 A2997 NOSIG=
200504071900 METAR MROC 071900Z 12016KT 9999 FEW035 SCT100 BKN250 30/17 A2993 NOSIG=
200504072000 METAR MROC 072000Z 09012KT 9999 SCT035 BKN100 28/18 A2992 NOSIG=
200504072100 METAR MROC 072100Z 11013KT 9999 FEW035 SCT120 BKN280 28/17 A2989 NOSIG=
200504072200 METAR MROC 072200Z 11012KT 9999 FEW030 SCT120 BKN280 27/18 A2988 NOSIG=
200504072300 METAR MROC 072300Z 10010KT 9999 FEW030 SCT130 BKN280 24/18 A2990 NOSIG=
200504080000 METAR MROC 080000Z 14005KT 9999 FEW020 SCT040 BKN280 24/18 A2992 BECMG 24006KT=
200504080100 METAR MROC 080100Z 14006KT 9999 FEW035 BKN280 23/18 A2994 BECMG CAVOK=
200504080200 METAR MROC 080200Z 08005KT 9999 FEW035 23/18 A2995 NOSIG=
200504080300 METAR MROC 080300Z 12012KT CAVOK 23/18 A2997 NOSIG=
200504080400 METAR MROC 080400Z 11016KT CAVOK 23/17 A2996 NOSIG=
200504080500 METAR MROC 080500Z 10011KT CAVOK 23/17 A2996 NOSIG=
200504080600 METAR MROC 080600Z 02004KT CAVOK 23/17 A2993 NOSIG=
200504080700 METAR MROC 080700Z 10007KT CAVOK 23/17 A2990 NOSIG=
200504080800 METAR MROC 080800Z 08005KT CAVOK 22/17 A2989=
200504080900 METAR MROC 080900Z 09003KT CAVOK 22/17 A2988=
200504081000 METAR MROC 081000Z 11011KT CAVOK 22/17 A2990 RMK LTNG DIST S SSW=
200504081100 METAR MROC 081100Z 07006KT CAVOK 22/17 A2992 RMK LTNG DIST S SSW=
200504081200 METAR MROC 081200Z 04008KT CAVOK 22/17 A2993=
200504081300 METAR MROC 081300Z 07005KT 9999 FEW030 OVC150 23/17 A2995 NOSIG=
200504081400 METAR MROC 081400Z 11011KT CAVOK 23/17 A2996 NOSIG=
200504081500 METAR MROC 081500Z 11011KT 9999 FEW040 BKN150 25/18 A2997 NOSIG=
200504081600 METAR MROC 081600Z 12008KT 9999 BKN040 SCT250 26/18 A2997 NOSIG=
200504081700 METAR MROC 081700Z 10007KT 9999 BKN040 SCT250 27/18 A2997 NOSIG=
200504081800 METAR MROC 081800Z 13004KT 9999 BKN040 SCT150 27/18 A2995 NOSIG=
200504081900 METAR MROC 081900Z 25006KT 9999 FEW020 BKN040 26/20 A2994 NOSIG=
200504082000 METAR MROC 082000Z 28004KT 9999 BKN035 SCT150 26/19 A2992 NOSIG=
200504082100 METAR MROC 082100Z 29003KT 9999 SCT030 BKN150 24/19 A2990=
200504082200 METAR MROC 082200Z 32005KT 9000 FEW020TCU SCT100 BKN220 24/20 A2989 RMK TCU SW=
200504082300 METAR MROC 082300Z 28004KT 9999 SCT035 BKN220 23/21 A2990=
200504090000 METAR MROC 090000Z 11004KT 9999 FEW025 SCT150 23/18 A2991=
200504090100 METAR MROC 090100Z 32003KT 9999 FEW020 SCT150 23/21 A2992=
200504090200 METAR MROC 090200Z 00000KT 9999 FEW030 SCT150 22/19 A2993=
200504090300 METAR MROC 090300Z 07005KT 9999 FEW030 22/18 A2994 NOSIG=
200504090400 METAR MROC 090400Z 00000KT 9999 FEW035 23/18 A2996 NOSIG=
200504090500 METAR MROC 090500Z 05009KT 9999 FEW035 22/18 A2996 NOSIG=
200504090600 METAR MROC 090600Z 07009KT CAVOK 22/18 A2994 NOSIG=
200504090700 METAR MROC 090700Z 06004KT CAVOK 22/17 A2992 NOSIG=
200504090800 METAR MROC 090800Z 08007KT CAVOK 22/18 A2990 NOSIG=
200504090900 METAR MROC 090900Z 07010KT CAVOK 22/18 A2988 NOSIG=
200504091000 METAR MROC 091000Z 07008KT CAVOK 22/17 A2989 NOSIG=
200504091100 METAR MROC 091100Z 08005KT CAVOK 22/18 A2990 NOSIG=
200504091200 METAR MROC 091200Z 06008KT CAVOK 21/18 A2992 NOSIG=
200504091300 METAR MROC 091300Z 09012KT 9999 FEW035 BKN150 23/18 A2994=
200504091400 METAR MROC 091400Z 11014KT CAVOK 26/18 A2996=
200504091500 METAR MROC 091500Z 11010KT 9999 FEW040 BKN170 27/18 A2997 BECMG 24008KT=
200504091600 METAR MROC 091600Z 11012KT 9999 FEW040 BKN220 27/18 A2997=
200504091700 METAR MROC 091700Z 10014KT 9999 FEW035 SCT150 BKN250 27/18 A2995=
200504091800 METAR MROC 091800Z 12017KT 9999 SCT030TCU SCT120 28/18 A2993=
200504091900 METAR MROC 091900Z 11015KT 9999 SCT030CB SCT100 27/17 A2990 BECMG 4000 TSRA=
200504092000 METAR MROC 092000Z 12010KT 9999 -DZ SCT030CB SCT100 26/16 A2988=
200504092100 METAR MROC 092100Z 09008KT 9999 SCT030 BKN130 25/18 A2987=
200504092200 METAR MROC 092200Z 11006KT 9999 SCT030 BKN130 24/18 A2988=
200504092300 METAR MROC 092300Z 11008KT 9999 SCT030 BKN130 23/18 A2990=
200504100000 METAR MROC 100000Z 11006KT 9999 SCT030 BKN130 23/17 A2991=
200504100100 METAR MROC 100100Z 08005KT 9999 FEW030 BKN130 22/17 A2983=
200504100200 METAR MROC 100200Z 10006KT CAVOK 22/17 A2994=
200504100300 METAR MROC 100300Z 10007KT CAVOK 22/16 A2994=
200504100400 METAR MROC 100400Z 06005KT CAVOK 21/16 A2995 NOSIG=
200504100500 METAR MROC 100500Z 09005KT CAVOK 21/16 A2995 NOSIG=
200504100700 METAR MROC 100700Z 10005KT CAVOK 21/16 A2990 NOSIG=
200504100800 METAR MROC 100800Z 07007KT CAVOK 20/15 A2990 NOSIG=
200504100900 METAR MROC 100900Z 07007KT CAVOK 20/15 A2989 NOSIG=
200504101000 METAR MROC 101000Z 07003KT CAVOK 19/15 A2990 NOSIG=
200504101100 METAR MROC 101100Z 07003KT CAVOK 19/15 A2991 NOSIG=
200504101200 METAR MROC 101200Z 05005KT CAVOK 19/15 A2994 NOSIG=
200504101300 METAR MROC 101300Z 04005KT CAVOK 23/15 A2996=
200504101400 METAR MROC 101400Z 04005KT CAVOK 27/15 A2997=
200504101500 METAR MROC 101500Z 29006KT CAVOK 28/16 A2997=
200504101600 METAR MROC 101600Z 22005KT 9999 FEW035 BKN250 29/15 A2995=
200504101700 METAR MROC 101700Z 26010KT 9999 FEW035 BKN250 30/18 A2994=
200504101800 METAR MROC 101800Z 25009KT 9999 SCT030 BKN250 29/19 A2992=
200504101900 METAR MROC 101900Z 25006KT 9999 SCT025TCU BKN250 30/18 A2988 BECMG 6000 VCSH=
200504102000 METAR MROC 102000Z 23008KT 7000 VCSH SCT020 BKN250 27/19 A2987 BECMG 6000 -SHRA=
200504102100 METAR MROC 102100Z 10010KT 2000 TSRA SCT015CB BKN030 21/20 A2987 BECMG 7000=
200504102200 METAR MROC 102200Z VRB03KT 9999 -RA FEW020 SCT030 BKN100 21/20 A2988 RETS BECMG RMK VIS 8KMS N NNW=
200504102300 METAR MROC 102300Z 02003KT 9999 FEW030 SCT045 BKN100 21/21 A2990 NOSIG=
200504110000 METAR MROC 110000Z 30003KT 9999 FEW025 OVC120 22/21 A2991 NOSIG=
200504110100 METAR MROC 110100Z 00000KT 9999 FEW035 BKN120 21/20 A2992 BECMG CAVOK=
200504110200 METAR MROC 110200Z 01005KT 9999 FEW035 BKN150 22/20 A2992=
200504110300 METAR MROC 110300Z 00000KT CAVOK 22/20 A2993 RMK BR ARND=
200504110400 METAR MROC 110400Z 00000KT 3000SW BR FEW001 SCT050 21/20 A2994=
200504110500 METAR MROC 110500Z 00000KT 9999 FEW005 SCT060 20/20 A2994 RMK BR SW=
200504110600 METAR MROC 110600Z 04005KT CAVOK 21/19 A2993=
200504110700 METAR MROC 110700Z 00000KT 9999 FEW002 SCT100 20/19 A2992 RMK BR ARND=
200504110800 METAR MROC 110800Z 00000KT 9999 FEW005 SCT100 20/19 A2991 RMK BR SW=
200504111000 METAR MROC 111000Z 03003KT CAVOK 19/18 A2989=
200504111100 METAR MROC 111100Z 00000KT CAVOK 19/18 A2991=
200504111200 METAR MROC 111200Z 00000KT 9999 FEW035 BKN200 19/18 A2992=
200504111300 METAR MROC 111300Z 04004KT 9999 FEW035 BKN180 21/19 A2993 NOSIG=
200504111400 METAR MROC 111400Z 10004KT 9999 FEW030 BKN180 24/19 A2995 NOSIG=
200504111500 METAR MROC 111500Z 11008KT 9999 FEW025 SCT180 BKN250 25/19 A2996 BECMG 24008KT=
200504111600 METAR MROC 111600Z 11011KT 9999 FEW030 BKN220 26/19 A2995 BECMG 24008KT=
200504111700 METAR MROC 111700Z 13008KT 9999 SCT030 BKN220 27/18 A2994 NOSIG=
200504111800 METAR MROC 111800Z 25015KT 9999 FEW025TCU SCT035 BKN220 25/21 A2992 BECMG 5000 VCSH=
200504111900 METAR MROC 111900Z 26010KT 9999 FEW020TCU SCT030 BKN230 25/21 A2990 NOSIG=
200504112000 METAR MROC 112000Z 24006KT 9999 FEW015TCU SCT025 BKN250 26/21 A2987 NOSIG=
200504112100 METAR MROC 112100Z 22005KT 9999 FEW025TCU SCT100 BKN250 27/21 A2986 RMK HZ ARND NOSIG=
200504112200 METAR MROC 112200Z 20005KT 9999 FEW025 SCT100 BKN250 26/21 A2986 RMK HZ ARND NOSIG=
200504112300 METAR MROC 112300Z 25008KT 9999 FEW025 SCT030 BKN250 25/22 A2986 NOSIG=
200504120000 METAR MROC 120000Z 25005KT 9999 FEW006 SCT015 BKN030 23/22 A2988 BECMG RMK HZ ARND=
200504120100 METAR MROC 120100Z 27004KT 9999 FEW015 SCT025 BKN100 22/21 A2990 BECMG RMK HZ ARND=
200504120200 METAR MROC 120200Z 28004KT 8000 FEW005 SCT010 BKN025 22/21 A2991 NOSIG=
200504120300 METAR MROC 120300Z 00000KT 6000 VCFG SCT020 BKN250 22/21 A2994 NOSIG=
200504120400 METAR MROC 120400Z 00000KT 6000 VCFG FEW007 SCT020 BKN250 22/21 A2994 BECMG 10005KT 8000=
200504120500 METAR MROC 120500Z 00000KT 9999 SCT025 BKN250 22/21 A2994 NOSIG=
200504120600 METAR MROC 120600Z 00000KT 5000 BR FEW004 SCT020 BKN250 22/21 A2993 NOSIG=
200504120700 METAR MROC 120700Z 00000KT 6000 VCFG FEW005 SCT020 SCT250 22/22 A2991=
200504120800 METAR MROC 120800Z 00000KT 3000SW BR FEW002 SCT020 SCT250 22/21 A2990=
200504120900 METAR MROC 120900Z 00000KT 4000 BR FEW003 SCT020 SCT250 22/21 A2988=
200504121000 METAR MROC 121000Z 00000KT 5000 BR FEW004 SCT015 SCT250 22/21 A2989=
200504121100 METAR MROC 121100Z 00000KT 3000SW BR FEW002 BKN015 21/21 A2990=
200504121200 METAR MROC 121200Z 02004KT 7000 VCFG FEW002 BKN250 21/19 A2991=
200504121300 METAR MROC 121300Z 06005KT 9999 FEW040 OVC250 22/19 A2992 NOSIG=
200504121400 METAR MROC 121400Z 04005KT CAVOK 25/19 A2993 BECMG RMK OVC250=
200504121500 METAR MROC 121500Z 12010KT 9999 FEW040 OVC250 27/19 A2993 NOSIG=
200504121600 METAR MROC 121600Z 11010KT 9999 FEW040 BKN250 29/17 A2992 RMK SCT020TCU=
200504121700 METAR MROC 121700Z 24011KT 9999 SCT040 BKN100 27/21 A2991 RMK HZ ARND=
200504121800 METAR MROC 121800Z 24008KT 9999 FEW025TCU SCT035 BKN250 27/21 A2990 BECMG RMK HZ ARND=
200504121900 METAR MROC 121900Z 10012KT 9999 FEW015TCU SCT030 BKN250 28/17 A2992=
200504121910 METAR MROC 121910Z 10012KT 9999 FEW015TCU SCT030 BKN250 28/17 A2992=
200504122000 METAR MROC 122000Z 22006KT 9999 -RA FEW025TCU SCT035 BKN250 29/22 A2986 RMK HZ ARND=
200504122100 METAR MROC 122100Z 26007KT 7000 VCSH FEW020 SCT035 BKN250 26/22 A2984 NOSIG=
200504122200 METAR MROC 122200Z 34004KT 9999 SCT025 BKN250 24/21 A2984 NOSIG=
200504122300 METAR MROC 122300Z 27004KT 7000 VCFG FEW012 OVC250 23/22 A2986 NOSIG=
200504130000 METAR MROC 130000Z 23004KT 6000 VCFG BKN010 SCT250 23/22 A2987 NOSIG=
200504130100 METAR MROC 130100Z 28004KT 5000 2000NE VCFG SCT010 SCT030 23/22 A2990=
200504130200 METAR MROC 130200Z 23503KT 4000 2000NE VCFG SCT008 BKN015 22/21 A2991=
200504130300 METAR MROC 130300Z 00000KT 6000 VCFG SCT010 SCT020 22/21 A2992=
200504130400 METAR MROC 130400Z 08006KT 9999 FEW020 22/18 A2992 NOSIG=
200504130500 METAR MROC 130500Z 06006KT 9999 FEW030 21/18 A2992 NOSIG=
200504130600 METAR MROC 130600Z 08005KT 9999 FEW035 SCT250 21/17 A2992 NOSIG=
200504130700 METAR MROC 130700Z 10010KT 9999 FEW035 SCT250 21/17 A2990 NOSIG=
200504130800 METAR MROC 130800Z 07009KT 9999 FEW035 SCT250 21/17 A2989=
200504130900 METAR MROC 130900Z 05008KT 9999 FEW035 SCT250 20/17 A2988=
200504131000 METAR MROC 131000Z 08006KT CAVOK 20/17 A2989=
200504131100 METAR MROC 131100Z 02007KT CAVOK 21/17 A2990=
200504131200 METAR MROC 131200Z 09006KT CAVOK 21/17 A2991=
200504131300 METAR MROC 131300Z 03006KT CAVOK 23/17 A2994 NOSIG=
200504131400 METAR MROC 131400Z 10007KT CAVOK 26/17 A2995 NOSIG=
200504131500 METAR MROC 131500Z 11010KT 9999 FEW045 SCT300 28/17 A2995 NOSIG=
200504131600 METAR MROC 131600Z 10011KT 9999 FEW045 30/16 A2993 NOSIG=
200504131700 METAR MROC 131700Z 09003KT 9999 FEW040 SCT300 31/16 A2991=
200504131800 METAR MROC 131800Z 13008KT 9999 FEW040 30/15 A2988 NOSIG=
200504131900 METAR MROC 131900Z 08007KT 9999 FEW040 31/15 A2986 NOSIG=
200504132000 METAR MROC 132000Z 08007KT 9999 FEW040 32/14 A2983=
200504132100 METAR MROC 132100Z 12010KT 9999 FEW035 30/16 A2982=
200504132200 METAR MROC 132200Z 23010KT 9999 FEW025 SCT250 28/22 A2981=
200504132300 METAR MROC 132300Z 23009KT 9999 SCT025 SCT180 26/21 A2984=
200504140000 METAR MROC 140000Z 25005KT 9999 SCT025 SCT250 24/22 A2985=
200504140100 METAR MROC 140100Z 30004KT 9999 FEW035 SCT250 24/22 A2989 BECMG CAVOK=
200504140200 METAR MROC 140200Z 31004KT 9999 FEW035 SCT250 23/22 A2991 NOSIG=
200504140300 METAR MROC 140300Z 08006KT 9999 FEW035 SCT250 22/20 A2992 NOSIG=
200504140400 METAR MROC 140400Z 10004KT 9999 FEW035 22/19 A2992 NOSIG=
200504140500 METAR MROC 140500Z 10007KT 9999 FEW035 22/18 A2993 NOSIG=
200504140600 METAR MROC 140600Z 09004KT 9999 FEW035 SCT120 22/19 A2992 NOSIG=
200504140700 METAR MROC 140700Z 00000KT 9999 FEW035 SCT120 22/19 A2991 NOSIG=
200504140800 METAR MROC 140800Z 05004KT 9999 FEW035 21/18 A2989 NOSIG=
200504140900 METAR MROC 140900Z 09007KT 9999 FEW035 22/18 A2989 NOSIG=
200504141000 METAR MROC 141000Z 02506KT 9999 FEW035 22/18 A2990 NOSIG=
200504141100 METAR MROC 141100Z 09004KT 9999 FEW035 21/18 A2991 NOSIG=
200504141200 METAR MROC 141200Z 06004KT 9999 FEW035 SCT250 22/18 A2992 NOSIG=
200504141400 METAR MROC 141400Z 10006KT 9999 FEW030 SCT250 24/18 A2994=
200504141500 METAR MROC 141500Z 10010KT 9999 FEW025 SCT250 27/18 A2994=
200504141600 METAR MROC 141600Z 11017KT 9999 FEW025 SCT250 27/18 A2993=
200504141700 METAR MROC 141700Z 11015G25KT 9999 SCT025 SCT250 26/17 A2993=
200504141900 METAR MROC 141900Z 13014KT 9999 SCT025 SCT100 28/18 A2988=
200504142000 METAR MROC 142000Z 10014KT 9999 SCT030 SCT150 29/18 A2986=
200504142100 METAR MROC 142100Z 10010KT 9999 SCT030 SCT110 28/18 A2984=
200504142200 METAR MROC 142200Z 11012KT 9999 SCT030 SCT110 27/18 A2985=
200504142300 METAR MROC 142300Z 11014KT 9999 FEW035 SCT250 25/15 A2986=
200504150000 METAR MROC 150000Z 11014KT 9999 FEW035 SCT250 24/15 A2987=
200504150100 METAR MROC 150100Z 11011KT 9999 FEW035 23/15 A2990=
200504150200 METAR MROC 150200Z 10013KT 9999 FEW035 23/15 A2991=
200504150300 METAR MROC 150300Z 10012KT CAVOK 23/16 A2993 NOSIG=
200504150400 METAR MROC 150400Z 11011KT CAVOK 22/16 A2994 NOSIG=
200504150500 METAR MROC 150500Z 07010KT CAVOK 22/16 A2993 NOSIG=
200504150600 METAR MROC 150600Z 07005KT CAVOK 22/14 A2992 NOSIG=
200504150700 METAR MROC 150700Z 04006KT CAVOK 21/14 A2989 NOSIG=
200504150800 METAR MROC 150800Z 05006KT CAVOK 22/13 A2988 NOSIG=
200504150900 METAR MROC 150900Z 05007KT CAVOK 21/13 A2987 NOSIG=
200504151000 METAR MROC 151000Z 08006KT CAVOK 21/14 A2987 NOSIG=
200504151100 METAR MROC 151100Z 06010KT CAVOK 21/12 A2989 NOSIG=
200504151200 METAR MROC 151200Z 06007KT CAVOK 21/13 A2990 NOSIG=
200504151300 METAR MROC 151300Z 11012KT CAVOK 23/14 A2991=
200504151400 METAR MROC 151400Z 11014KT CAVOK 25/14 A2994=
200504151500 METAR MROC 151500Z 11014KT CAVOK 27/14 A2995=
200504151600 METAR MROC 151600Z 09015KT CAVOK 28/12 A2994=
200504151700 METAR MROC 151700Z 09010KT CAVOK 29/13 A2994=
200504151800 METAR MROC 151800Z 09012KT CAVOK 30/13 A2991=
200504151900 METAR MROC 151900Z 08013KT CAVOK 30/15 A2988=
200504152000 METAR MROC 152000Z 10013KT 9999 FEW035 30/15 A2985=
200504152100 METAR MROC 152100Z 09016KT 9999 FEW040 SCT250 29/15 A2986 NOSIG=
200504152200 METAR MROC 152200Z 10012KT 9999 FEW035 SCT120 BKN250 27/16 A2987 NOSIG=
200504152300 METAR MROC 152300Z 11015KT 9999 FEW035 SCT120 BKN250 25/18 A2989 NOSIG=
200504160000 METAR MROC 160000Z 08010KT 9999 FEW030 SCT100 BKN250 25/18 A2991 NOSIG=
200504160100 METAR MROC 160100Z 12013KT 9999 FEW030 SCT250 23/17 A2992 NOSIG=
200504160200 METAR MROC 160200Z 11012KT 9999 FEW035 23/17 A2993 NOSIG=
200504160300 METAR MROC 160300Z 10014KT 9999 FEW035 SCT140 23/17 A2994 NOSIG=
200504160400 METAR MROC 160400Z 11015KT 9999 FEW035 SCT140 23/17 A2993=
200504160500 METAR MROC 160500Z 11013KT 9999 FEW035 22/18 A2993=
200504160600 METAR MROC 160600Z 11016KT 9999 FEW035 23/17 A2992=
200504160700 METAR MROC 160700Z 11014KT 9999 FEW035 22/17 A2990=
200504160800 METAR MROC 160800Z 10015KT 9999 FEW035 22/17 A2987=
200504160900 METAR MROC 160900Z 11018KT 9999 FEW035 22/17 A2985=
200504161000 METAR MROC 161000Z 11023KT 9999 FEW035 22/17 A2987=
200504161100 METAR MROC 161100Z 11020KT 9999 FEW035 22/17 A2990=
200504161200 METAR MROC 161200Z 10020KT 9999 FEW030 SCT090 22/18 A2990=
200504161300 METAR MROC 161300Z 10014KT 9999 FEW025 BKN080 23/17 A2994 NOSIG=
200504161400 METAR MROC 161400Z 10011KT 9999 FEW025 BKN080 25/17 A2998 NOSIG=
200504161500 METAR MROC 161500Z 10016KT 9999 FEW025 BKN080 24/17 A2998 NOSIG=
200504161600 METAR MROC 161600Z 11020G30KT 9999 FEW030 BKN080 25/17 A2995 NOSIG=
200504161700 METAR MROC 161700Z 09018G28KT 9999 FEW030 BKN100 27/17 A2995 NOSIG=
200504161800 METAR MROC 161800Z 09019G29KT 9999 FEW030 BKN100 27/17 A2993 NOSIG=
200504161900 METAR MROC 161900Z 09020KT 9999 FEW030 BKN080 27/17 A2990 NOSIG=
200504162000 METAR MROC 162000Z 09017G27KT 9999 FEW030 BKN100 25/17 A2988 NOSIG=
200504162100 METAR MROC 162100Z 10018KT 9999 FEW035 BKN100 26/17 A2989 RMK DZ DST N/NE=
200504162200 METAR MROC 162200Z 09019KT 9999 SCT030 BKN100 25/17 A2987 RMK DZ DST N/NE=
200504162300 METAR MROC 162300Z 08017KT 9999 SCT030 BKN100 24/17 A2989 RMK RN DST N=
200504170000 METAR MROC 170000Z 10019KT 9999 SCT030 BKN100 24/16 A2992 RMK RN DST N/NE=
200504170100 METAR MROC 170100Z 08015KT CAVOK 24/17 A2995=
200504170200 METAR MROC 170200Z 10013KT CAVOK 23/17 A2996=
200504170300 METAR MROC 170300Z 10018KT CAVOK 23/17 A2998=
200504170400 METAR MROC 170400Z 10020G30KT CAVOK 22/18 A2998=
200504170500 METAR MROC 170500Z 10017KT CAVOK 23/18 A2998=
200504170600 METAR MROC 170600Z 10013KT CAVOK 22/17 A2998=
200504170700 METAR MROC 170700Z 10015G25KT CAVOK 21/16 A2996=
200504170800 METAR MROC 170800Z 10019KT CAVOK 21/16 A2993=
200504171000 METAR MROC 171000Z 04012KT CAVOK 22/17 A2996=
200504171115 METAR MROC 271115Z 06005KT 9999 FEW025 SCT120 19/17 A3001=
200504171200 METAR MROC 171200Z 10016KT 9999 FEW020 BKN180 22/17 A2994=
200504171300 METAR MROC 171300Z 10016KT 9999 FEW030 BKN250 22/17 A2995 RMK DZ DST N/NE=
200504171400 METAR MROC 171400Z 10013KT 9999 SCT030 BKN250 24/17 A2998 RMK RN DST N/NE=
200504171500 METAR MROC 171500Z 11019KT 9999 FEW030 BKN250 24/18 A2999 RMK DZ DST N/NE=
200504171600 METAR MROC 171600Z 09017KT 9999 FEW030 SCT100 BKN250 25/17 A2997 RMK RN DST N/NE=
200504171700 METAR MROC 171700Z 10016KT 9999 FEW030 SCT100 BKN250 26/18 A2997 RMK RN DST N/NE=
200504171800 METAR MROC 171800Z 11015KT 9999 SCT030 BKN250 28/18 A2996 RMK RN DST N/NE=
200504171900 METAR MROC 171900Z 10010KT 9999 SCT030 BKN100 28/18 A2991 RMK RN DST N/NE=
200504172000 METAR MROC 172000Z 11016KT 9999 SCT030 BKN100 28/18 A2989 RMK RN DST N/NE=
200504172100 METAR MROC 172100Z 11015KT 9999 FEW035 SCT090 26/18 A2988 NOSIG=
200504172200 METAR MROC 172200Z 10018KT 9999 FEW035 SCT090 24/17 A2988 NOSIG=
200504172300 METAR MROC 172300Z 11018KT 9999 FEW030 BKN090 24/17 A2992 NOSIG=
200504180000 METAR MROC 180000Z 10016KT 9999 FEW025 SCT090 23/17 A2995 NOSIG=
200504180100 METAR MROC 180100Z 10016KT 9999 FEW025 SCT090 22/17 A2998 NOSIG=
200504180200 METAR MROC 180200Z 11016KT 9999 FEW030 SCT100 23/18 A2998 NOSIG=
200504180300 METAR MROC 180300Z 11016KT 9999 FEW025 BKN080 23/18 A3000 NOSIG=
200504180400 METAR MROC 180400Z 11014KT 9999 FEW025 BKN080 23/18 A3000 NOSIG=
200504180500 METAR MROC 180500Z VRB03KT 9999 FEW025 BKN080 22/18 A2999 NOSIG=
200504180600 METAR MROC 180600Z 08005KT 9999 FEW030 BKN100 22/17 A2997 NOSIG=
200504180700 METAR MROC 180700Z 08012KT 9999 FEW030 SCT100 23/17 A2993 NOSIG=
200504180800 METAR MROC 180800Z 11014KT 9999 FEW025 SCT120 23/18 A2991=
200504180900 METAR MROC 180900Z 10014KT 9999 FEW025 SCT120 22/18 A2990=
200504181000 METAR MROC 181000Z 11014KT 9999 FEW025 SCT120 22/18 A2990=
200504181100 METAR MROC 181100Z 10012KT 9999 FEW025 SCT250 22/18 A2991=
200504181200 METAR MROC 181200Z 08010KT 9999 FEW025 BKN250 22/18 A2992=
200504181300 METAR MROC 181300Z 11007KT 9999 FEW025 BKN250 23/18 A2995 NOSIG=
200504181400 METAR MROC 181400Z 10008KT 9999 FEW025 BKN280 25/18 A2997 NOSIG=
200504181500 METAR MROC 181500Z 10010KT 9999 FEW025 BKN250 28/18 A2998 NOSIG=
200504181600 METAR MROC 181600Z 11013KT 9999 FEW025 SCT280 28/18 A2997 NOSIG=
200504181700 METAR MROC 181700Z 13014KT 9999 FEW025 SCT280 29/18 A2997=
200504181800 METAR MROC 181800Z 11015KT 9999 FEW025 BKN050 27/18 A2996=
200504181900 METAR MROC 181900Z 12014KT 9999 FEW025 SCT050 29/18 A2992 BECMG 24008=
200504182000 METAR MROC 182000Z 11015KT 9999 FEW025 SCT050 BKN280 29/19 A2991 NOSIG=
200504182100 METAR MROC 182100Z 11016KT 9999 BKN030 26/18 A2990=
200504182200 METAR MROC 182200Z 10007KT 9999 SCT030 SCT150 26/18 A2990=
200504182300 METAR MROC 182300Z 08007KT 9000 DZ FEW010 SCT025 SCT100 23/20 A2992=
200504190000 METAR MROC 190000Z 11010KT 9999 SCT025 SCT200 22/19 A2992 RERA=
200504190100 METAR MROC 190100Z 10006KT 9999 SCT030 SCT250 22/18 A2993=
200504190200 METAR MROC 190200Z 11012KT 9999 FEW035 SCT250 22/18 A2994=
200504190300 METAR MROC 190300Z 00000KT 9999 FEW025 SCT250 22/18 A2995 NOSIG=
200504190400 METAR MROC 190400Z 08006KT 9999 FEW030 SCT250 22/18 A2995 NOSIG=
200504190500 METAR MROC 190500Z 10009KT 9999 FEW035 23/18 A2995 NOSIG=
200504190600 METAR MROC 190600Z 09007KT 9999 FEW030 SCT250 22/18 A2993 NOSIG=
200504190700 METAR MROC 190700Z 09006KT 9999 FEW030 SCT250 22/18 A2991 NOSIG=
200504190800 METAR MROC 190800Z 06005KT 9999 FEW030 SCT250 22/18 A2990 NOSIG=
200504190900 METAR MROC 190900Z 11007KT 9999 FEW030 SCT250 22/18 A2990 NOSIG=
200504191000 METAR MROC 191000Z 10004KT 9999 FEW030 21/18 A2991 NOSIG=
200504191100 METAR MROC 191100Z 12008KT 9999 FEW030 21/17 A2991 NOSIG=
200504191200 METAR MROC 191200Z 13010KT 9999 SCT030 BKN250 22/17 A2993 RMK DZ DST N/NE=
200504191300 METAR MROC 191300Z VRB03KT 9999 SCT025 BKN250 23/18 A2995=
200504191400 METAR MROC 191400Z 05004KT 9999 FEW025 SCT200 25/18 A2996=
200504191500 METAR MROC 191500Z 10010KT 9999 FEW025 SCT150 26/19 A2996=
200504191600 METAR MROC 191600Z 10013KT 9999 SCT025 SCT100 26/17 A2997=
200504191700 METAR MROC 191700Z 10015KT 9999 FEW030 BKN150 28/17 A2997=
200504191800 METAR MROC 191800Z 10013KT 9999 FEW030 BKN170 29/17 A2995=
200504191900 METAR MROC 191900Z 11018KT 9999 FEW035 SCT200 29/17 A2993=
200504192000 METAR MROC 192000Z 11009KT 9999 FEW035 SCT200 30/17 A2991=
200504192100 METAR MROC 192100Z 11010KT 9999 FEW030 SCT250 28/17 A2990=
200504192200 METAR MROC 192200Z 13010KT 9999 SCT030TCU SCT250 28/17 A2989=
200504192300 METAR MROC 192300Z 12007KT 9999 FEW025TCU SCT250 26/17 A2991 BECMG 24008KT=
200504200000 METAR MROC 200000Z 15004KT 9999 SCT025TCU 24/17 A2993 RMK TCU DST SW=
200504200100 METAR MROC 200100Z 10004KT 9999 FEW035 23/17 A2995 RMK TS DIST S/SW=
200504200200 METAR MROC 200200Z 10010KT CAVOK 22/17 A2998 RMK TS DIST SW=
200504200300 METAR MROC 200300Z 06011KT 9999 FEW030 SCT270 22/17 A3000 NOSIG=
200504200600 METAR MROC 200600Z 10010KT CAVOK 21/17 A2995 NOSIG=
200504200900 METAR MROC 200900Z 09004KT CAVOK 21/16 A2991 NOSIG=
200504201000 METAR MROC 201000Z 08005KT CAVOK 20/16 A2992 NOSIG=
200504201200 METAR MROC 201200Z 05008KT 9999 FEW030 BKN270 20/15 A2995 NOSIG=
200504201300 METAR MROC 201300Z 11014KT CAVOK 23/15 A2998=
200504201400 METAR MROC 201400Z 11013KT CAVOK 24/15 A2999=
200504201500 METAR MROC 201500Z 11014KT CAVOK 25/16 A2999=
200504201600 METAR MROC 201600Z 12015KT CAVOK 28/16 A2998=
200504201700 METAR MROC 201700Z 12014KT CAVOK 29/16 A2988=
200504201800 METAR MROC 201800Z 10011KT 9999 FEW040 BKN250 30/16 A2997=
200504201900 METAR MROC 201900Z 10013KT 9999 FEW040 BKN250 30/16 A2994=
200504202000 METAR MROC 202000Z 11011KT 9999 FEW040 BKN250 31/15 A2992=
200504202100 METAR MROC 202100Z 11010KT 9999 FEW040 BKN250 30/16 A2991 NOSIG=
200504202200 METAR MROC 202200Z VRB04KT 9999 FEW030TCU BKN250 29/16 A2990 BECMG 24008KT 8000 VCSH=
200504202300 METAR MROC 202300Z 24010KT 9999 FEW040 BKN250 26/17 A2996 NOSIG=
200504210000 METAR MROC 210000Z 22005KT 9999 FEW025 BKN250 24/20 A2995 NOSIG=
200504210100 METAR MROC 210100Z 24005KT 9999 FEW025 SCT250 22/21 A2998=
200504210200 METAR MROC 210200Z 29003KT 9999 FEW020 22/21 A3001 RMK HZ ARND=
200504210300 METAR MROC 210300Z 07007KT 9999 FEW040 22/18 A3002=
200504210400 METAR MROC 210400Z 07006KT CAVOK 22/17 A3003=
200504210500 METAR MROC 210500Z 08006KT CAVOK 21/16 A3002=
200504210700 METAR MROC 210700Z 07007KT CAVOK 21/16 A2996=
200504210800 METAR MROC 210800Z 08005KT CAVOK 20/16 A2993=
200504210900 METAR MROC 210900Z 05008KT CAVOK 20/16 A2992=
200504211000 METAR MROC 211000Z 05008KT CAVOK 20/15 A2992=
200504211100 METAR MROC 211100Z 06005KT CAVOK 19/15 A2993=
200504211200 METAR MROC 211200Z 06008KT CAVOK 19/15 A2994=
200504211300 METAR MROC 211300Z 09005KT CAVOK 23/16 A2997 NOSIG=
200504211400 METAR MROC 211400Z 14004KT CAVOK 26/16 A2998 BECMG 24008KT 9999 SCT025TCU=
200504211500 METAR MROC 211500Z 26010KT CAVOK 26/19 A2999 NOSIG=
200504211600 METAR MROC 211600Z 24010KT 9999 FEW030 BKN250 27/19 A2998 NOSIG=
200504211700 METAR MROC 211700Z 26007KT 9999 FEW035 BKN250 28/19 A2997 NOSIG=
200504211800 METAR MROC 211800Z 25010KT 9999 FEW035 BKN250 29/20 A2996 NOSIG=
200504211900 METAR MROC 211900Z 24012KT 9999 SCT035 BKN250 28/20 A2993 NOSIG=
200504212000 METAR MROC 212000Z 25011KT 9999 SCT030 SCT250 28/20 A2991 BECMG 7000=
200504212100 METAR MROC 212100Z 24011KT 9999 SCT030 BKN250 28/20 A2990 RMK BECMG 6000 VCSH=
200504212200 METAR MROC 212200Z 23009KT 9999 FEW025TCU SCT035 BKN250 27/20 A2990 NOSIG=
200504212300 METAR MROC 212300Z 23008KT 9999 FEW025TCU SCT035 SCT250 25/20 A2992 BECMG RMK HZ ARND=
200504220000 METAR MROC 220000Z 25009KT 9999 FEW025TCU SCT035 SCT250 23/21 A2994 RMK HZ ARND=
200504220100 METAR MROC 220100Z 22005KT 9999 SCT012 SCT035 BKN250 23/21 A2997 BECMG RMK HZ ARND=
200504220200 METAR MROC 220200Z 29004KT 9999 FEW008 SCT030 BKN250 22/21 A2997 RMK VIS SW 8KM DUE LOW ST  HZ ARND=
200504220300 METAR MROC 220300Z 32003KT 9999 SCT020 BKN250 22/21 A2999 BECMG 06005 CAVOK=
200504220400 METAR MROC 220400Z 00000KT 9999 SCT020 BKN250 22/21 A3000=
200504220500 METAR MROC 220500Z 00000KT 7000 VCFG FEW005 SCT018 BKN250 22/20 A3000=
200504220600 METAR MROC 220600Z 00000KT 8000 FEW005 SCT025 BKN250 21/20 A2997=
200504220700 METAR MROC 220700Z 07003KT 9999 SCT030 BKN250 20/18 A2994=
200504220800 METAR MROC 220800Z 00000KT 9999 FEW005 SCT030 BKN250 19/17 A2993=
200504220900 METAR MROC 220900Z 02005KT 9999 FEW005 SCT035 BKN250 19/17 A2993=
200504221000 METAR MROC 221000Z 00000KT 9999 FEW007 SCT035 BKN250 19/17 A2995=
200504221100 METAR MROC 221100Z 09003KT CAVOK 18/16 A2995=
200504221200 METAR MROC 221200Z 04003KT CAVOK 18/16 A2997=
200504221300 METAR MROC 221300Z 07003KT CAVOK 21/17 A2997 NOSIG=
200504221400 METAR MROC 221400Z 00000KT CAVOK 26/15 A2999 BECMG RMK HZ ARND=
200504221500 METAR MROC 221500Z 26007KT CAVOK 26/18 A3001 RMK HZ ARND=
200504221600 METAR MROC 221600Z 24010KT CAVOK 27/17 A2999 BECMG RMK HZ ARND=
200504221700 METAR MROC 221700Z 22008KT 9999 FEW040 BKN250 28/20 A2998 BECMG 9999 SCT040 RMK HZ ARND=
200504221800 METAR MROC 221800Z 24012KT 9999 FEW040 BKN250 28/20 A2997 RMK HZ ARND=
200504221900 METAR MROC 221900Z 24013KT 9999 FEW035 BKN250 28/20 A2995 BECMG RMK HZ ARND=
200504222000 METAR MROC 222000Z 24008KT 9999 SCT035 BKN250 28/20 A2993 BECMG RMK HZ ARND=
200504222100 METAR MROC 222100Z 25010KT 9999 SCT030 BKN280 28/20 A2992 NOSIG=
200504222200 METAR MROC 222200Z 26009KT 9999 SCT030 BKN280 27/20 A2990 NOSIG=
200504222300 METAR MROC 222300Z 25011KT 9999 FEW025 BKN260 25/21 A2992 BECMG RMK HZY =
200504230000 METAR MROC 230000Z 24006KT 5000 HZ FEW025 SCT280 23/21 A2994 BECMG 3000 BR FEW001 SCT010=
200504230100 METAR MROC 230100Z 28004KT 5000 HZ FEW025 SCT280 22/21 A2998 NOSIG=
200504230200 METAR MROC 230200Z 00000KT 5000 HZ FEW020 BKN100 22/20 A2999 NOSIG=
200504230300 METAR MROC 230300Z 29004KT 7000 VCFG FEW025 SCT100 22/21 A3001 BECMG 9999=
200504230400 METAR MROC 230400Z 00000KT 8000 FEW005 SCT250 22/21 A3002 NOSIG=
200504230500 METAR MROC 230500Z 00000KT 8000 VCFG FEW007 BKN250 22/21 A3002 NOSIG=
200504230600 METAR MROC 230600Z 05007KT 9999 SCT020 BKN250 20/16 A3000 NOSIG=
200504230700 METAR MROC 230700Z 07007KT 9999 FEW020 SCT120 BKN250 20/17 A2997 NOSIG=
200504230800 METAR MROC 230800Z 04007KT 9999 FEW020 SCT120 20/17 A2995=
200504230900 METAR MROC 230900Z 10005KT CAVOK 19/15 A2994=
200504231000 METAR MROC 231000Z 09004KT CAVOK 19/16 A2995=
200504231100 METAR MROC 231100Z 08006KT CAVOK 18/15 A2997=
200504231200 METAR MROC 231200Z 10004KT CAVOK 17/15 A2997 RMK LGT HZ ARND=
200504231300 METAR MROC 231300Z 10004KT CAVOK 21/15 A2998 NOSIG=
200504231400 METAR MROC 231400Z 00000KT CAVOK 26/15 A3001 BECMG 24006KT=
200504231600 METAR MROC 231600Z 29004KT 9999 FEW025 SCT300 30/17 A3000 RMK HZY NOSIG=
200504231700 METAR MROC 231700Z 21006KT 9999 FEW025 SCT300 29/18 A2999 RMK HZY NOSIG=
200504231800 METAR MROC 231800Z 23011KT 7000 FEW030 SCT280 30/18 A2997 RMK HZY NOSIG=
200504231900 METAR MROC 231900Z 23011KT 9999 SCT030 BKN280 29/20 A2995 RMK VIS N 6KM DUE HZ=
200504232000 METAR MROC 232000Z 25014KT 6000 -RA SCT025 BKN280 27/20 A2993 BECMG 5000 SHRA SCT020TCU BKN030 RMK HZY=
200504232100 METAR MROC 232100Z 34010KT 6000 -RA SCT015 SCT050 22/20 A2994=
200504232200 METAR MROC 232200Z 00000KT 9999 SCT025 SCT100 22/19 A2994 RERA=
200504232300 METAR MROC 232300Z 30003KT 9999 FEW025 SCT250 23/19 A2994=
200504240000 METAR MROC 240000Z 33004KT 9999 FEW025 BKN200 23/19 A2996 RMK HZ=
200504240100 METAR MROC 240100Z 10004KT 9999 FEW025 21/20 A2996=
200504240200 METAR MROC 240200Z 08004KT 9999 FEW025 21/18 A2998 RMK HZ ARND=
200504240300 METAR MROC 240300Z 11008KT 9999 FEW035 21/18 A3000 NOSIG=
200504240400 METAR MROC 240400Z 07008KT 9999 FEW035 20/17 A3002 NOSIG=
200504240500 METAR MROC 240500Z 08005KT 9999 FEW035 21/18 A3001 NOSIG=
200504240600 METAR MROC 240600Z 06006KT 9999 FEW035 20/17 A3000 NOSIG=
200504240700 METAR MROC 240700Z 06006KT 9999 FEW035 20/17 A2998 NOSIG=
200504240800 METAR MROC 240800Z 07003KT 9999 FEW035 19/16 A2997 NOSIG=
200504240900 METAR MROC 240900Z 00000KT 9999 FEW035 18/16 A2997 NOSIG=
200504241000 METAR MROC 241000Z 13004KT 9999 FEW035 17/15 A2997 NOSIG=
200504241100 METAR MROC 241100Z 08004KT 9999 FEW035 SCT250 17/15 A2997 NOSIG=
200504241200 METAR MROC 241200Z 05005KT 9999 FEW035 SCT250 18/15 A3000 BECMG RMK HZ ARND=
200504241300 METAR MROC 241300Z 04003KT 9000 FEW025 SCT250 21/16 A3003 RMK HZ=
200504241400 METAR MROC 241400Z VRB03KT 7000 HZ FEW020 SCT250 25/17 A3004 RMK VIS RED SW=
200504241500 METAR MROC 241500Z VRB03KT 8000 FEW020 SCT250 27/15 A3002 RMK HZ BECMG 25010KT=
200504241600 METAR MROC 241600Z 25009KT 7000 VCHZ FEW020 SCT250 27/19 A3001 BECMG RMK HZ ARND=
200504241700 METAR MROC 241700Z 21008KT 9000 FEW030 SCT250 28/19 A3001 RMK HZ=
200504241800 METAR MROC 241800Z 22009KT 8000 FEW020 SCT250 28/19 A2998 RMK HZ=
200504241900 METAR MROC 241900Z 24012KT 9999 FEW025 SCT250 29/20 A2996=
200504242000 METAR MROC 242000Z 23009KT 9000 FEW025 SCT120 29/20 A2995 RMK HZ ARND=
200504242100 METAR MROC 242100Z 35010KT 9000 -TSDZ SCT015CB SCT090 24/15 A2995=
200504242200 METAR MROC 242200Z 30005KT 9000 SCT025 SCT200 22/16 A2995 RMK HZ=
200504242300 METAR MROC 242300Z 32003KT 9000 FEW025 BKN200 22/18 A2996 RMK HZ SW=
200504250000 METAR MROC 250000Z 00000KT 9000 SCT025 SCT150 22/18 A2998 RMK HZ=
200504250100 METAR MROC 250100Z 07003KT 9999 FEW030 SCT150 21/18 A3000 BECMG RMK HZ ARND=
200504250200 METAR MROC 250200Z 00000KT CAVOK 21/19 A3000 BECMG RMK HZ ARND=
200504250300 METAR MROC 250300Z 00000KT CAVOK 20/18 A3002 RMK HZ ARND NOSIG=
200504250400 METAR MROC 250400Z 04003KT CAVOK 19/15 A3003 NOSIG=
200504250600 METAR MROC 250600Z 07007KT CAVOK 18/15 A3001 NOSIG=
200504250700 METAR MROC 250700Z 08004KT CAVOK 18/13 A3000 NOSIG=
200504250800 METAR MROC 250800Z 07007KT CAVOK 18/13 A2997 NOSIG=
200504250900 METAR MROC 250900Z 06005KT CAVOK 18/13 A2997 NOSIG=
200504251000 METAR MROC 251000Z 05009KT CAVOK 18/13 A2997 NOSIG=
200504251100 METAR MROC 251100Z 09006KT CAVOK 17/11 A2999 NOSIG=
200504251200 METAR MROC 251200Z 04008KT CAVOK 17/11 A3001 NOSIG=
200504251300 METAR MROC 251300Z 07008KT CAVOK 21/12 A3002=
200504251400 METAR MROC 251400Z 06005KT CAVOK 26/09 A3003=
200504251500 METAR MROC 251500Z 12007KT CAVOK 29/07 A3004=
200504251600 METAR MROC 251600Z 20008KT CAVOK 29/12 A3003=
200504251700 METAR MROC 251700Z 23009KT CAVOK 27/14 A3003=
200504251800 METAR MROC 251800Z 25010KT 9999 FEW040 SCT250 29/16 A3001=
200504251900 METAR MROC 251900Z 21010KT 9999 FEW040 SCT250 29/19 A2998=
200504252000 METAR MROC 252000Z 14013KT 9999 FEW040 SCT250 28/19 A2995=
200504252100 METAR MROC 252100Z 26011KT 9999 FEW035 BKN250 28/20 A2993=
200504252200 METAR MROC 252200Z 24012KT 9999 FEW035 BKN250 27/20 A2993=
200504252300 METAR MROC 252300Z 24011KT 9999 FEW035 BKN250 25/20 A2995=
200504260000 METAR MROC 260000Z 22007KT 9999 FEW035 BKN250 23/20 A2996=
200504260100 METAR MROC 260100Z 26007KT 9999 FEW025 SCT250 23/21 A2998 RMK HZ ARND=
200504260200 METAR MROC 260200Z 00000KT 7000 SCT010 22/21 A2999 RMK BR SW=
200504260300 METAR MROC 260300Z 24003KT 7000 SCT015 22/21 A3002 RMK BR SW=
200504260400 METAR MROC 260400Z 00000KT 8000 SCT015 21/20 A3003 RMK BR ARND=
200504260500 METAR MROC 260500Z 00000KT 6000 BR FEW010 SCT025 21/20 A3003 RMK VIS RED SW=
200504260600 METAR MROC 260600Z 00000KT 9000 FEW015 SCT070 21/19 A3002 RMK BR ARND=
200504260800 METAR MROC 260800Z 04003KT 9999 FEW025 SCT100 21/18 A2999=
200504260900 METAR MROC 260900Z 05005KT 9999 SCT035 20/18 A2999=
200504261100 METAR MROC 261100Z 10003KT 9999 SCT040 18/16 A3000=
200504261200 METAR MROC 261200Z 07006KT 8000 FEW010 SCT250 18/16 A3001 RMK HZ ARND=
200504261300 METAR MROC 261300Z 11003KT 7000 SCT250 21/16 A3004 RMK HZ ARND=
200504261400 METAR MROC 261400Z 00000KT 9999 4000SW HZ FEW020 24/17 A3006 BECMG 24006KT=
200504261500 METAR MROC 261500Z 24004KT 7000 FEW020 26/19 A3005 RMK HZY=
200504261600 METAR MROC 261600Z 27007KT 7000 FEW035 26/18 A3004 RMK HZY=
200504261700 METAR MROC 261700Z 29008KT 8000 FEW035 SCT250 28/18 A3003 RMK HYZ NOSIG=
200504261800 METAR MROC 261800Z 23009KT 9000 FEW035 SCT250 28/20 A3001 RMK HZY NOSIG=
200504261900 METAR MROC 261900Z 26009KT 9999 SCT035 SCT250 28/20 A2998 RMK HZY=
200504262000 METAR MROC 262000Z 26010KT 9999 SCT035 BKN250 28/20 A2995 RMK HZY NOSIG=
200504262100 METAR MROC 262100Z 26012KT 9999 SCT030 BKN250 27/20 A2995 BECMG RMK HZ ARND=
200504262200 METAR MROC 262200Z 23006KT 9999 FEW025 SCT035 BKN250 25/21 A2995 BECMG RMK HZ ARND=
200504262300 METAR MROC 262300Z 24009KT 9999 FEW030 BKN250 24/20 A2995 BECMG RMK HZ ARND=
200504270000 METAR MROC 270000Z 26008KT 9999 FEW015 SCT025 BKN250 23/20 A2998 BECMG RMK HZ ARND=
200504270100 METAR MROC 270100Z 27007KT 9999 FEW025 BKN250 22/20 A3001 NOSIG=
200504270200 METAR MROC 270200Z 25005KT 9999 FEW025 SCT035 22/20 A3003 NOSIG=
200504270300 METAR MROC 270300Z 24004KT 9999 FEW025 SCT040 22/20 A3004 RMK HZ ARND=
200504270400 METAR MROC 270400Z VRB03KT 9999 FEW025 SCT040 21/19 A3006 RMK HZ ARND=
200504270500 METAR MROC 270500Z VRB03KT 9999 FEW015 BKN030 21/19 A3005 RMK HZ ARND=
200504270600 METAR MROC 270600Z VRB03KT 8000 SCT015 BKN030 20/19 A3003 RMK ST/HZ SW=
200504270700 METAR MROC 270700Z 00000KT 9999 SCT025 SCT100 20/19 A3003 RMK HZ ARND=
200504270800 METAR MROC 270800Z 04003KT 9999 SCT030 21/19 A3001=
200504270900 METAR MROC 270900Z 06005KT 9999 FEW020 SCT100 20/19 A3000=
200504271100 METAR MROC 271100Z 07007KT 9999 FEW020 SCT150 19/16 A3002=
200504271115 METAR MROC 271115Z 06005KT 9999 FEW025 SCT120 19/17 A3001=
200504271200 METAR MROC 271200Z 05005KT 8000 FEW015 SCT250 20/17 A3003 RMK HZ SW=
200504271300 METAR MROC 271300Z 09004KT CAVOK 22/17 A3005 BECMG 24008KT RMK HZ ARND=
200504271400 METAR MROC 271400Z 05004KT CAVOK 26/16 A3006 BECMG RMK HZ ARND=
200504271500 METAR MROC 271500Z 07004KT CAVOK 29/13 A3005 BECMG RMK HZ ARND=
200504271600 METAR MROC 271600Z 22003KT CAVOK 31/12 A3005 BECMG RMK HZ ARND=
200504271700 METAR MROC 271700Z 13007KT CAVOK 31/12 A3003 BECMG RMK HZ ARND=
200504271800 METAR MROC 271800Z 24013KT 9999 FEW040 BKN300 30/18 A3000 BECMG RMK HZ ARND=
200504272000 METAR MROC 272000Z 26013KT 8000 FEW040 BKN250 27/21 A2998 BECMG RMK HZ ARND=
200504272100 METAR MROC 272100Z 26011KT 5000 HZ FEW035 BKN300 27/21 A2997 NOSIG=
200504272200 METAR MROC 272200Z 24008KT 5000 HZ FEW035 BKN300 26/21 A2998 NOSIG=
200504272300 METAR MROC 272300Z 24006KT 5000 HZ FEW030 BKN300 25/21 A2999 NOSIG=
200504280000 METAR MROC 280000Z 26008KT 5000 HZ FEW008 SCT030 BKN280 23/21 A3001 NOSIG=
200504280100 METAR MROC 280100Z 24004KT 5000 HZ FEW010 SCT025 BKN280 23/21 A3003  NOSIG=
200504280200 METAR MROC 280200Z 27005KT 4000 HZ FEW008 SCT025 22/21 A3005 NOSIG=
200504280300 METAR MROC 280300Z 00000KT 9999 4000SW BR HZ FEW006 SCT020 22/21 A3007 NOSIG=
200504280400 METAR MROC 280400Z 00000KT 7000 FEW012 SCT025 22/21 A3006 RMK HZY NOSIG=
200504280500 METAR MROC 280500Z 08003KT 9999 FEW012 SCT250 21/18 A3005 RMK HZY NOSIG=
200504280600 METAR MROC 280600Z 01003KT 9999 FEW015 SCT250 21/17 A3004 RMK HZY=
200504280700 METAR MROC 280700Z 05005KT CAVOK 19/17 A3003 RMK HZY=
200504280800 METAR MROC 280800Z 06005KT CAVOK 18/16 A3001 NOSIG=
200504280900 METAR MROC 280900Z 08003KT CAVOK 18/15 A2999 RMK HZY NOSIG=
200504281000 METAR MROC 281000Z 04006KT CAVOK 19/14 A3001 NOSIG=
200504281100 METAR MROC 281100Z 05003KT CAVOK 19/13 A3002 NOSIG=
200504281200 METAR MROC 281200Z 05009KT CAVOK 20/13 A3005 RMK HZ SW NOSIG=
200504281300 METAR MROC 281300Z 05012KT CAVOK 23/13 A3005 RMK HZY NOSIG=
200504281400 METAR MROC 281400Z 06004KT CAVOK 26/13 A3005 RMK HZY NOSIG=
200504281500 METAR MROC 281500Z 10008KT CAVOK 28/10 A3005 RMK HZY NOSIG=
200504281600 METAR MROC 281600Z 09010KT CAVOK 31/10 A3006 RMK HZY NOSIG=
200504281700 METAR MROC 281700Z 10003KT CAVOK 32/09 A3004 RMK HZY NOSIG=
200504281800 METAR MROC 281800Z 23009KT CAVOK 29/17 A3002 RMK HZY NOSIG=
200504281900 METAR MROC 281900Z 25009KT 9999 FEW030 SCT300 30/18 A2998 RMK HZY NOSIG=
200504282000 METAR MROC 282000Z 23010KT 9999 FEW030 SCT300 30/18 A2996 RMK HZY NOSIG=
200504282100 METAR MROC 282100Z 27009KT 9999 SCT030 29/19 A2995 RMK HZ ARND=
200504282200 METAR MROC 282200Z 24010KT 9000 SCT025TCU 28/19 A2994 RMK HZ ARND=
200504282300 METAR MROC 282300Z 22008KT 9999 FEW020 SCT060 26/20 A2996=
200504290000 METAR MROC 290000Z 20007KT 9999 FEW020 SCT250 25/18 A2998 RMK HZ ARND=
200504290100 METAR MROC 290100Z 12010KT 9999 FEW035 24/18 A3000 BECMG CAVOK=
200504290200 METAR MROC 290200Z 11006KT CAVOK 23/17 A3003 RMK HZ LEVE=
200504290300 METAR MROC 290300Z 10006KT 9999 FEW035 23/16 A3005 NOSIG=
200504290400 METAR MROC 290400Z 10008KT 9999 FEW035 22/14 A3005 NOSIG=
200504290500 METAR MROC 290500Z 10004KT CAVOK 22/12 A3006 NOSIG=
200504290600 METAR MROC 290600Z 02009KT CAVOK 21/12 A3004 NOSIG=
200504290700 METAR MROC 290700Z 09006KT CAVOK 21/12 A3003 NOSIG=
200504290900 METAR MROC 290900Z 07008KT CAVOK 19/12 A2999 NOSIG=
200504291000 METAR MROC 291000Z 07010KT CAVOK 20/12 A2998 NOSIG=
200504291100 METAR MROC 291100Z 09006KT CAVOK 20/13 A3000 NOSIG=
200504291200 METAR MROC 291200Z 09005KT CAVOK 21/13 A2999 BECMG RMK CB DST SW=
200504291300 METAR MROC 291300Z 11011KT CAVOK 24/14 A3001=
200504291500 METAR MROC 291500Z 12016KT CAVOK 27/17 A3002=
200504291600 METAR MROC 291600Z 09012KT 9999 FEW030 SCT120 27/17 A3004=
200504291700 METAR MROC 291700Z 09010KT 9999 FEW025 SCT100 27/16 A3004=
200504291800 METAR MROC 291800Z 11014KT 9999 FEW025 SCT100 25/17 A3002=
200504291900 METAR MROC 291900Z 08013KT 9999 FEW025 SCT100 30/16 A2999=
200504292000 METAR MROC 292000Z 10013KT 9999 SCT040 30/15 A2996=
200504292100 METAR MROC 292100Z 11009KT 9999 SCT040 28/16 A2995=
200504292200 METAR MROC 292200Z 13005KT 9999 SCT035 28/16 A2995=
200504292300 METAR MROC 292300Z 11008KT 9999 FEW035 SCT250 27/16 A2997=
200504300000 METAR MROC 300000Z 23010KT 9999 SCT030 SCT250 24/19 A2998=
200504300100 METAR MROC 300100Z 25009KT 9999 SCT030 SCT250 23/20 A3001=
200504300200 METAR MROC 300200Z 30006KT 9999 SCT030 SCT250 22/20 A3003=
200504300300 METAR MROC 300300Z 00000KT 9999 FEW030 SCT280 22/20 A3006 RMK HZY NOSIG=
200504300400 METAR MROC 300400Z 06004KT 9999 SCT020 SCT280 22/19 A3007 RMK HZY NOSIG=
200504300500 METAR MROC 300500Z 07008KT 9999 FEW020 SCT280 21/18 A3007 RMK HZY NOSIG=
200504300600 METAR MROC 300600Z 06007KT CAVOK 21/17 A3005 NOSIG=
200504300700 METAR MROC 300700Z 09005KT CAVOK 20/17 A3003 NOSIG=
200504300800 METAR MROC 300800Z 07006KT CAVOK 19/16 A3001=
200504300900 METAR MROC 300900Z 07010KT CAVOK 19/16 A3000=
200504301000 METAR MROC 301000Z 07009KT CAVOK 20/16 A3000 NOSIG=
200504301100 METAR MROC 301100Z 08008KT CAVOK 20/15 A3000=
200504301200 METAR MROC 301200Z 07010KT CAVOK 20/15 A3001 NOSIG=
200504301300 METAR MROC 301300Z 07006KT CAVOK 24/14 A3004=
200504301400 METAR MROC 301400Z 08006KT CAVOK 27/13 A3006=
200504301500 METAR MROC 301500Z 22004KT CAVOK 27/16 A3005=
200504301600 METAR MROC 301600Z 29005KT CAVOK 30/15 A3004=
200504301700 METAR MROC 301700Z 11009KT CAVOK 31/11 A3002=
200504301800 METAR MROC 301800Z 26008KT 9999 FEW035 SCT250 32/16 A3000=
200504301900 METAR MROC 301900Z 26010KT 9999 SCT030 SCT250 31/17 A2998=
200504302000 METAR MROC 302000Z 24010KT 9999 SCT030 SCT250 29/20 A2997=
200504302100 METAR MROC 302100Z 25011KT 9999 SCT030 29/20 A2996 NOSIG=
200504302200 METAR MROC 302200Z 22010KT 9999 SCT030 SCT300 27/20 A2995 NOSIG=
200504302300 METAR MROC 302300Z 23009KT 9999 SCT025 25/20 A2997 NOSIG=
200505010000 METAR MROC 010000Z 24008KT 9999 SCT025 SCT300 23/21 A3000 RMK HZ SW=
200505010100 METAR MROC 010100Z 24005KT 9999 SCT025 SCT280 23/21 A3002 RMK HZ LEVE ARND/ NOSIG=
200505010200 METAR MROC 010200Z 28003KT 9999 SCT015 SCT100 22/21 A3004 RMK HZ ARND=
200505010300 METAR MROC 010300Z 28004KT 9999 SCT020 22/21 A3005 RMK HZ ARND=
200505010400 METAR MROC 010400Z 24004KT 9999 SCT015 22/20 A3006 RMK HZ ARND=
200505010500 METAR MROC 010500Z 00000KT 9000 SCT015 22/20 A3006 RMK HZ ARND=
200505010600 METAR MROC 010600Z 00000KT 9999 FEW025 SCT100 22/20 A3005 RMK HZ ARND=
200505010700 METAR MROC 010700Z 00000KT 9999 FEW025 SCT150 21/19 A3002=
200505010900 METAR MROC 010900Z 09003KT 9999 FEW025 SCT150 21/18 A3000 RMK HZ ARND=
200505011100 METAR MROC 011100Z 09004KT 9999 FEW025 SCT150 20/17 A3003 RMK HZ ARND=
200505011200 METAR MROC 011200Z 09003KT 9999 FEW030 SCT250 20/17 A3004=
200505011300 METAR MROC 011300Z 00000KT CAVOK 23/17 A3006 RMK HZ SW NOSIG=
200505011400 METAR MROC 011400Z 00000KT CAVOK 26/17 A3006 NOSIG=
200505011500 METAR MROC 011500Z 23004KT CAVOK 28/17 A3006 NOSIG=
200505011600 METAR MROC 011600Z 28006KT 9999 FEW045 29/18 A3005 NOSIG=
200505011700 METAR MROC 011700Z 25009KT 9999 FEW040 30/19 A3003 NOSIG=
200505011800 METAR MROC 011800Z 25013KT 9999 SCT035 29/20 A3001 NOSIG=
200505011900 METAR MROC 011900Z 23011KT 9999 FEW025 SCT035 31/20 A2997 NOSIG=
200505012000 METAR MROC 012000Z 24011KT 9999 4000N -TSRA SCT015CB SCT030 27/21 A2995 BECMG 6000 -RA=
200505012100 METAR MROC 012100Z 04009KT 5000 2000N +TSRA SCT015CB BKN030 21/19 A2998 NOSIG=
200505012200 METAR MROC 012200Z 00000KT 9999 FEW030 BKN250 21/20 A2997 NOSIG=
200505020000 METAR MROC 020000Z 30003KT 9999 FEW035 SCT120 BKN250 23/21 A2999 NOSIG=
200505020100 METAR MROC 020100Z 00000KT 9999 FEW035 SCT120 SCT250 23/21 A3002 BECMG 04006KT CAVOK=
200505020200 METAR MROC 020200Z 00000KT 9999 FEW020 SCT035 22/21 A3002 NOSIG=
200505020300 METAR MROC 020300Z 00000KT 9999 FEW025 SCT040 22/20 A3003=
200505020500 METAR MROC 020500Z 00000KT 9999 FEW030 SCT040 21/19 A3007=
200505020600 METAR MROC 020600Z 03004KT CAVOK 21/19 A3004=
200505020800 METAR MROC 020800Z 00000KT CAVOK 19/18 A3000=
200505020900 METAR MROC 020900Z 09004KT CAVOK 19/16 A2999=
200505021100 METAR MROC 021100Z 07006KT CAVOK 18/16 A3000=
200505021200 METAR MROC 021200Z 00000KT CAVOK 20/16 A3001=
200505021300 METAR MROC 021300Z 04006KT CAVOK 21/17 A3003 RMK OVC250=
200505021400 METAR MROC 021400Z 04003KT CAVOK 25/17 A3005 BECMG RMK OVC250=
200505021500 METAR MROC 021500Z 10007KT CAVOK 27/17 A3006 BECMG RMK OVC250=
200505021600 METAR MROC 021600Z 11012KT 9999 FEW040 BKN250 28/16 A3004 NOSIG=
200505021700 METAR MROC 021700Z 13012KT 9999 FEW035 BKN250 29/11 A3002 NOSIG=
200505021800 METAR MROC 021800Z 14005KT 9999 FEW035 BKN250 30/15 A3000 NOSIG=
200505021900 METAR MROC 021900Z 24005KT 9999 SCT035 BKN250 28/19 A2997 NOSIG=
200505022000 METAR MROC 022000Z 13006KT 9999 SCT035 BKN250 29/17 A2994 NOSIG=
200505022100 METAR MROC 022100Z 14005KT 9999 FEW040 BKN280 30/17 A2991 NOSIG=
200505022200 METAR MROC 022200Z 24008KT 9999 SCT035 BKN280 28/21 A2992 NOSIG=
200505022300 METAR MROC 022300Z VRB04KT 9999 SCT030 BKN280 26/21 A2995 NOSIG=
200505030000 METAR MROC 030000Z 09007KT 9999 SCT015TCU BKN280 24/18 A2998 NOSIG=
200505030100 METAR MROC 030100Z 07007KT 9999 FEW012 SCT150 BKN250 23/17 A3001 RMK TS DST S NOSIG=
200505030200 METAR MROC 030200Z VRB04KT 9999 FEW015 SCT035 BKN250 23/18 A3004 NOSIG=
200505030300 METAR MROC 030300Z 35005KT CAVOK 22/19 A3004 NOSIG=
200505030400 METAR MROC 030400Z 07005KT CAVOK 22/18 A3006 NOSIG=
200505030500 METAR MROC 030500Z 06006KT CAVOK 22/18 A3004 NOSIG=
200505030600 METAR MROC 030600Z 00000KT CAVOK 22/18 A3003 NOSIG=
200505030700 METAR MROC 030700Z 35005KT CAVOK 21/19 A3004 NOSIG=
200505030800 METAR MROC 030800Z 00000KT CAVOK 21/19 A3002 NOSIG=
200505030900 METAR MROC 030900Z 07003KT 9999 FEW035 SCT080 21/19 A3001 NOSIG=
200505031000 METAR MROC 031000Z 00000KT 9999 FEW030 SCT090 21/19 A3001 NOSIG=
200505031100 METAR MROC 031100Z 00000KT CAVOK 20/19 A3003 NOSIG=
200505031200 METAR MROC 031200Z 00000KT 9999 FEW045 BKN090 21/19 A3004 NOSIG=
200505031300 METAR MROC 031300Z 00000KT 9999 FEW012 SCT035 OVC150 21/19 A3005 NOSIG=
200505031400 METAR MROC 031400Z VRB03KT 9999 FEW012 SCT040 OVC150 22/19 A3007 BECMG 24008KT=
200505031500 METAR MROC 031500Z 27004KT 9999 FEW035 OVC150 24/19 A3007 NOSIG=
200505031600 METAR MROC 031600Z 00000KT 9999 FEW040 OVC150 25/19 A3006 NOSIG=
200505031700 METAR MROC 031700Z 13006KT 9999 FEW025 BKN150 26/18 A3005 NOSIG=
200505031800 METAR MROC 031800Z 10006KT 9999 FEW030 BKN150 27/18 A3003 NOSIG=
200505031900 METAR MROC 031900Z 08006KT 9999 FEW030 BKN260 28/18 A3000 NOSIG=
200505032000 METAR MROC 032000Z 13003KT 9999 FEW030 BKN260 28/18 A2997 NOSIG=
200505032100 METAR MROC 032100Z 24010KT 9999 SCT020TCU SCT120 26/22 A2996=
200505032200 METAR MROC 032200Z 24008KT 9999 SCT030TCU SCT100 25/21 A2996 RMK CB DST SE=
200505032300 METAR MROC 032300Z 11007KT 9000 SCT015CB SCT120 23/18 A2998 RMK CB RN SW=
200505040000 METAR MROC 040000Z 06006KT 9000 SCT015CB SCT100 22/19 A3002=
200505040100 METAR MROC 040100Z 08004KT 9999 SCT020 OVC120 22/18 A3001 NOSIG=
200505040200 METAR MROC 040200Z 06006KT 9999 FEW025 BKN140 22/18 A3002 NOSIG=
200505040300 METAR MROC 040300Z 23003KT 9999 FEW035 BKN250 21/19 A3004 NOSIG=
200505040400 METAR MROC 040400Z 00000KT CAVOK 21/18 A3004 NOSIG=
200505040500 METAR MROC 040500Z 06006KT CAVOK 20/18 A3004 NOSIG=
200505040600 METAR MROC 040600Z 10005KT CAVOK 20/17 A3002 NOSIG=
200505040700 METAR MROC 040700Z 10005KT CAVOK 20/17 A3000 NOSIG=
200505040800 METAR MROC 040800Z 05005KT CAVOK 20/17 A2999 NOSIG=
200505040900 METAR MROC 040900Z 11004KT CAVOK 20/17 A2999 NOSIG=
200505041000 METAR MROC 041000Z 11008KT CAVOK 21/16 A2999 NOSIG=
200505041100 METAR MROC 041100Z 10004KT CAVOK 20/16 A3000 NOSIG=
200505041200 METAR MROC 041200Z 08005KT CAVOK 19/16 A3002 BECMG RMK CB DST S/SW=
200505041300 METAR MROC 041300Z 07006KT CAVOK 23/17 A3005 BECMG RMK CB DST S=
200505041400 METAR MROC 041400Z 11006KT CAVOK 26/17 A3006=
200505041500 METAR MROC 041500Z 10006KT 9999 FEW035 SCT250 28/17 A3007=
200505041600 METAR MROC 041600Z 11006KT 9999 SCT030 SCT250 28/17 A3006=
200505041700 METAR MROC 041700Z 24006KT 9999 SCT025 SCT250 28/19 A3004=
200505041800 METAR MROC 041800Z 24006KT 9999 SCT025TCU SCT100 28/19 A3002=
200505041900 METAR MROC 041900Z 26010KT 9999 SCT025TCU SCT120 29/19 A2999=
200505042000 METAR MROC 042000Z 27009KT 9999 SCT030TCU SCT200 28/20 A2996=
200505042100 METAR MROC 042100Z 23005KT 9999 1500E -TSRA FEW015CB BKN030 26/21 A2995=
200505042200 METAR MROC 042200Z 11003KT 8000 -RA SCT025 BKN100 19/18 A2996 BECMG 3000 -RA BR=
200505042300 METAR MROC 042300Z 00000KT 9999 SCT030 SCT100 20/19 A2997=
200505050000 METAR MROC 050000Z 31005KT 9999 SCT030 SCT100 21/19 A2999=
200505050100 METAR MROC 050100Z 33003KT 9999 SCT030 SCT100 22/19 A3002=
200505050200 METAR MROC 050200Z 34003KT 9999 FEW035 22/20 A3003 BECMG 04006KT CAVOK=
200505050300 METAR MROC 050300Z 00000KT 9999 SCT045 SCT280 21/19 A3005 NOSIG=
200505050400 METAR MROC 050400Z 00000KT 9999 BKN045 21/19 A3005 NOSIG=
200505050500 METAR MROC 050500Z 06004KT 9999 FEW045 21/18 A3005=
200505050600 METAR MROC 050600Z VRB03KT CAVOK 21/19 A3003 NOSIG=
200505050700 METAR MROC 050700Z 08003KT CAVOK 19/18 A3001 NOSIG=
200505050800 METAR MROC 050800Z 00000KT CAVOK 21/17 A3001 NOSIG=
200505050900 METAR MROC 050900Z 04006KT CAVOK 20/17 A2998 NOSIG=
200505051000 METAR MROC 051000Z 08005KT CAVOK 20/17 A3000 NOSIG=
200505051100 METAR MROC 051100Z 06005KT CAVOK 20/16 A3000 NOSIG=
200505051200 METAR MROC 051200Z 03005KT CAVOK 20/16 A3002 NOSIG=
200505051300 METAR MROC 051300Z 12004KT CAVOK 23/18 A3004 NOSIG=
200505051400 METAR MROC 051400Z 11011KT 9999 FEW035 SCT250 25/18 A3005=
200505051500 METAR MROC 051500Z 11012KT 9999 FEW035 BKN250 26/17 A3006=
200505051600 METAR MROC 051600Z 11015KT 9999 FEW035 BKN250 27/17 A3005=
200505051700 METAR MROC 051700Z 13006KT 9999 FEW030 SCT120 BKN250 28/17 A3005=
200505051800 METAR MROC 051800Z 24010KT 9999 SCT030 BKN100 25/20 A3005=
200505051900 METAR MROC 051900Z 26007KT 9999 SCT030 BKN130 25/20 A3001=
200505052000 METAR MROC 052000Z 25007KT 9999 SCT025TCU BKN250 27/21 A2997=
200505052100 METAR MROC 052100Z 24008KT 9999 3000S VCSH SCT025TCU BKN250 26/21 A2995 BECMG 5000 -TSRA FEW015CB BKN025=
200505052200 METAR MROC 052200Z 13004KT 9999 -RA FEW025 BKN100 21/19 A2996 RMK 5000W BECMG 8000=
200505052300 METAR MROC 052300Z 00000KT 9999 FEW030 BKN200 22/20 A2997 NOSIG=
200505060000 METAR MROC 060000Z 11006KT 9999 FEW030 SCT250 22/18 A2999 NOSIG=
200505060100 METAR MROC 060100Z 10006KT CAVOK 21/17 A3001 NOSIG=
200505060200 METAR MROC 060200Z 11004KT CAVOK 20/18 A3003=
200505060300 METAR MROC 060300Z 08006KT CAVOK 21/17 A3003=
200505060400 METAR MROC 060400Z 10010KT CAVOK 22/17 A3003=
200505060500 METAR MROC 060500Z 11010KT CAVOK 21/16 A3002=
200505060600 METAR MROC 060600Z 10008KT CAVOK 20/15 A3000=
200505060700 METAR MROC 060700Z 10006KT CAVOK 20/14 A2999=
200505060900 METAR MROC 060900Z 08006KT CAVOK 17/13 A2997=
200505061000 METAR MROC 061000Z 11006KT CAVOK 19/14 A2996=
200505061200 METAR MROC 061200Z 03005KT CAVOK 18/13 A3000=
200505061300 METAR MROC 061300Z 11012KT CAVOK 22/15 A3001 NOSIG=
200505061400 METAR MROC 061400Z 11017KT CAVOK 24/14 A3001 NOSIG=
200505061500 METAR MROC 061500Z 10012KT CAVOK 26/15 A3003 NOSIG=
200505061600 METAR MROC 061600Z 08012KT CAVOK 28/13 A3002 NOSIG=
200505061700 METAR MROC 061700Z 09011KT CAVOK 28/14 A3002 NOSIG=
200505061800 METAR MROC 061800Z 10007KT 9999 FEW040 SCT250 29/15 A2999 BECMG 24006KT=
200505061900 METAR MROC 061900Z 22007KT 9999 SCT040 28/19 A2996 NOSIG=
200505062000 METAR MROC 062000Z 21004KT 9999 FEW020TCU SCT035 27/20 A2993 NOSIG=
200505062100 METAR MROC 062100Z 26009KT 9999 FEW025TCU BKN035 27/20 A2992 NOSIG=
200505062200 METAR MROC 062200Z 24012KT 9999 FEW025TCU BKN035 26/21 A2990 NOSIG=
200505062300 METAR MROC 062300Z 01005KT 9999 3000SW +RA SCT025TCU BKN035 22/19 A2993 NOSIG=
200505070000 METAR MROC 070000Z 18003KT 9999 FEW035 BKN250 21/19 A2995 NOSIG=
200505070100 METAR MROC 070100Z 00000KT 9999 FEW030 BKN250 22/18 A2997 NOSIG=
200505070200 METAR MROC 070200Z 00000KT 9999 FEW030 SCT250 21/17 A2999 NOSIG=
200505070300 METAR MROC 070300Z 08004KT CAVOK 21/17 A3000 NOSIG=
200505070400 METAR MROC 070400Z 02007KT CAVOK 20/17 A2999=
200505070500 METAR MROC 070500Z 07008KT CAVOK 20/16 A2998=
200505070600 METAR MROC 070600Z 10012KT CAVOK 21/17 A2996=
200505070700 METAR MROC 070700Z 11015KT CAVOK 21/16 A2994=
200505070800 METAR MROC 070800Z 10014KT CAVOK 21/17 A2992=
200505071000 METAR MROC 071000Z 11011KT CAVOK 21/17 A2992=
200505071100 METAR MROC 071100Z 09006KT 9999 FEW040 22/16 A2992=
200505071200 METAR MROC 071200Z 36003KT 9999 FEW040 21/17 A2996=
200505071300 METAR MROC 071300Z 06005KT CAVOK 23/17 A2998 BECMG RMK CB DST S/SW=
200505071400 METAR MROC 071400Z 09012KT 9999 FEW040 24/17 A2998 BECMG RMK CB DST S=
200505071500 METAR MROC 071500Z 11015KT 9999 FEW040 26/17 A2999 BECMG RMK CB DST S=
200505071600 METAR MROC 071600Z 11015KT 9999 FEW035 28/15 A2999 BECMG RMK CB DST S=
200505071700 METAR MROC 071700Z 10011KT 9999 SCT035 28/17 A2999 BECMG RMK CB DST S=
200505071800 METAR MROC 071800Z 11009KT 9999 SCT035 29/18 A2997 NOSIG=
200505071900 METAR MROC 071900Z 12013KT 9999 SCT035 SCT250 29/17 A2993 BECMG RMK TCU DST ARND=
200505072000 METAR MROC 072000Z 18005KT 9999 SCT035 SCT250 29/17 A2991 BECMG RMK TCU/RN DST SW=
200505072100 METAR MROC 072100Z 25012KT 9999 SCT030 SCT250 24/20 A2991 RMK RN DST SW/ N=
200505072200 METAR MROC 072200Z 36003KT 9999 0800SE +RA FEW020TCU SCT030 BKN250 23/20 A2992=
200505072300 METAR MROC 072300Z 12005KT 9999 SCT025 BKN100 23/21 A2993=
200505080000 METAR MROC 080000Z 00000KT 9999 FEW030 BKN100 22/21 A2993=
200505080100 METAR MROC 080100Z 08009KT 9999 FEW035 SCT100 22/19 A2995 BECMG CAVOK=
200505080200 METAR MROC 080200Z 10009KT CAVOK 22/18 A2996=
200505080300 METAR MROC 080300Z 07006KT CAVOK 21/18 A2997=
200505080400 METAR MROC 080400Z 09003KT CAVOK 21/18 A2998=
200505080500 METAR MROC 080500Z 05007KT CAVOK 21/18 A2999=
200505080600 METAR MROC 080600Z 06009KT CAVOK 21/18 A2996 NOSIG=
200505080700 METAR MROC 080700Z 06007KT CAVOK 21/18 A2994 NOSIG=
200505080800 METAR MROC 080800Z 07006KT CAVOK 21/18 A2993 NOSIG=
200505080900 METAR MROC 080900Z 07009KT CAVOK 20/18 A2992 NOSIG=
200505081000 METAR MROC 081000Z 09005KT CAVOK 21/18 A2993 NOSIG=
200505081100 METAR MROC 081100Z 07009KT CAVOK 21/18 A2993 NOSIG=
200505081200 METAR MROC 081200Z 06008KT CAVOK 21/18 A2995 NOSIG=
200505081300 METAR MROC 081300Z 05007KT 9999 FEW040 24/18 A2996=
200505081400 METAR MROC 081400Z 10010KT 9999 FEW040 26/18 A2997=
200505081500 METAR MROC 081500Z 11012KT 9999 FEW035 27/18 A2997=
200505081600 METAR MROC 081600Z 13009KT 9999 SCT035 28/18 A2997=
200505081700 METAR MROC 081700Z 10008KT 9999 SCT035 30/18 A2995=
200505081800 METAR MROC 081800Z 28004KT 9999 FEW020TCU SCT035 28/19 A2994=
200505081900 METAR MROC 081900Z 28005KT 9999 FEW020 SCT030 28/20 A2991=
200505082000 METAR MROC 082000Z 24012KT 9999 +RA FEW020 SCT030 25/21 A2989=
200505082100 METAR MROC 082100Z 01003KT 8000 -TSRA SCT015CB SCT090 22/21 A2988=
200505082200 METAR MROC 082200Z 20007KT 3000SW -RA SCT008CB SCT030 20/20 A2991=
200505082300 METAR MROC 082300Z 06005KT 8000 -RA SCT020CB SCT080 20/20 A2992 BECMG -RA=
200505090000 METAR MROC 090000Z 00000KT 9999 FEW030 SCT100 21/20 A2993 RERA=
200505090100 METAR MROC 090100Z 28004KT 5000SW BR FEW003 SCT150 21/20 A2996=
200505090200 METAR MROC 090200Z 00000KT 9999 FEW030 SCT120 21/20 A2998=
200505090300 METAR MROC 090300Z 00000KT 9999 -RA FEW035 BKN100 21/20 A3000 NOSIG=
200505090400 METAR MROC 090400Z 02005KT 9999 FEW035 SCT120 21/20 A2998 NOSIG=
200505090500 METAR MROC 090500Z 00000KT 9999 FEW035 SCT120 21/20 A3000 NOSIG=
200505090600 METAR MROC 090600Z 00000KT CAVOK 21/20 A2998 NOSIG=
200505090700 METAR MROC 090700Z 05004KT CAVOK 20/19 A2996 NOSIG=
200505090800 METAR MROC 090800Z 07007KT CAVOK 20/18 A2991 NOSIG=
200505090900 METAR MROC 090900Z 09006KT CAVOK 20/18 A2987 NOSIG=
200505091000 METAR MROC 091000Z 15005KT 9999 FEW030 SCT250 21/18 A2990 NOSIG=
200505091100 METAR MROC 091100Z 00000KT 9999 FEW035 SCT250 20/18 A2992 NOSIG=
200505091200 METAR MROC 091200Z 00000KT 9999 FEW030 BKN250 19/17 A2994 NOSIG=
200505091300 METAR MROC 091300Z 01005KT CAVOK 22/18 A2995=
200505091400 METAR MROC 091400Z 08010KT CAVOK 25/19 A2995=
200505091500 METAR MROC 091500Z 10010KT CAVOK 27/19 A2995=
200505091600 METAR MROC 091600Z 10010KT 9999 FEW035 SCT250 27/20 A2993=
200505091700 METAR MROC 091700Z 10012KT 9999 SCT025 SCT200 28/19 A2993=
200505091800 METAR MROC 091800Z 11012KT 9999 SCT025TCU SCT150 28/19 A2991=
200505091900 METAR MROC 091900Z 24010KT 9999 SCT020TCU SCT100 26/21 A2989 BECMG 6000 VCSH=
200505092100 METAR MROC 092100Z 30005KT 7000 -RA FEW015CB SCT030 BKN100 24/22 A2987=
200505092200 METAR MROC 092200Z 10004KT 5000SW FEW015 SCT030 BKN100 23/22 A2986 BECMG 9999=
200505092300 METAR MROC 092300Z VRB03KT 7000 VCSH FEW015TCU SCT030 SCT110 24/20 A2986=
200505100000 METAR MROC 100000Z 23005KT 9999 3000NW -DZ BR FEW008 SCT025 BKN030 23/21 A2989 BECMG 5000 FEW005=
200505100100 METAR MROC 100100Z VRB03KT 9999 FEW008 SCT025 BKN030 22/20 A2992=
200505100200 METAR MROC 100200Z 30005KT 9999 FEW008 BKN030 22/20 A2994=
200505100300 METAR MROC 100300Z 30004KT 9999 FEW010 OVC120 21/20 A2994 NOSIG=
200505100400 METAR MROC 100400Z 00000KT 9999 FEW012 OVC120 21/20 A2993 NOSIG=
200505100500 METAR MROC 100500Z 00000KT 9999 FEW035 BKN120 21/20 A2993=
200505100600 METAR MROC 100600Z 03006KT 9999 FEW035 BKN120 21/20 A2992=
200505100700 METAR MROC 100700Z 03007KT 9999 FEW035 BKN120 21/20 A2988=
200505100800 METAR MROC 100800Z 10005KT CAVOK 20/19 A2986=
200505100900 METAR MROC 100900Z 12005KT CAVOK 21/18 A2986 RMK LTNG DST SW=
200505101000 METAR MROC 101000Z 08004KT CAVOK 19/18 A2988=
200505101100 METAR MROC 101100Z 04006KT CAVOK 20/18 A2989=
200505101200 METAR MROC 101200Z 08004KT 9999 FEW030 SCT110 BKN250 21/18 A2989=
200505101300 METAR MROC 101300Z 06004KT CAVOK 23/19 A2990 NOSIG=
200505101400 METAR MROC 101400Z VRB03KT CAVOK 25/19 A2991 NOSIG=
200505101500 METAR MROC 101500Z 25006KT CAVOK 24/20 A2993 BECMG 1517 9999 FEW030 BKN250=
200505101600 METAR MROC 101600Z 27005KT 9999 FEW035 BKN250 26/20 A2992 NOSIG=
200505101700 METAR MROC 101700Z 26006KT 9999 SCT035 SCT090 26/20 A2991 NOSIG=
200505101800 METAR MROC 101800Z 30006KT 9999 FEW025 BKN035 27/21 A2988 NOSIG=
200505101900 METAR MROC 101900Z 27008KT 9999 FEW025TCU SCT035 SCT120 27/21 A2986 BECMG 6000 VCSH=
200505102000 METAR MROC 102000Z 23008KT 9999 FEW025TCU SCT035 SCT250 26/21 A2984 BECMG 6000 VCSH=
200505102100 METAR MROC 102100Z 23007KT 9999 FEW025TCU SCT035 SCT250 26/22 A2983 BECMG 6000 VCSH=
200505102200 METAR MROC 102200Z 24011KT 9999 FEW015TCU BKN030 24/21 A2982 RMK 6000 NE VCSH BECMG 4000 BR=
200505102300 METAR MROC 102300Z 00000KT 6000 1000E +TSRA FEW003 SCT010CB BKN025 23/21 A2984 BECMG 0800 -RA FG SCT001 BKN005=
200505110000 METAR MROC 110000Z 02004KT 4000 RA FEW015 BKN090 21/20 A2987 BECMG 5000 DZ BR=
200505110100 METAR MROC 110100Z 04003KT 7000 RA SCT020 SCT100 21/20 A2988=
200505110200 METAR MROC 110200Z 04006KT 9999 FEW025 BKN120 21/20 A2990 RERA=
200505110300 METAR MROC 110300Z 00000KT 9999 FEW030 SCT120 21/20 A2989=
200505110400 METAR MROC 110400Z 08006KT 9999 FEW030 SCT100 22/19 A2990=
200505110500 METAR MROC 110500Z 06007KT CAVOK 21/20 A2988=
200505110600 METAR MROC 110600Z 04004KT CAVOK 21/19 A2987=
200505110700 METAR MROC 110700Z 10009KT CAVOK 21/19 A2985=
200505110900 METAR MROC 110900Z 07010KT CAVOK 21/18 A2982=
200505111100 METAR MROC 111100Z 08005KT CAVOK 21/18 A2984=
200505111200 METAR MROC 111200Z 04005KT CAVOK 21/18 A2984=
200505111300 METAR MROC 111300Z 06003KT CAVOK 25/19 A2987 NOSIG=
200505111400 METAR MROC 111400Z 08006KT CAVOK 26/19 A2988 NOSIG=
200505111500 METAR MROC 111500Z 12004KT CAVOK 28/19 A2988 BECMG 24008KT=
200505111600 METAR MROC 111600Z 15006KT 9999 FEW035 BKN250 28/18 A2988 NOSIG=
200505111700 METAR MROC 111700Z 24008KT 9999 SCT035 27/22 A2986 NOSIG=
200505111800 METAR MROC 111800Z 24004KT 9999 FEW020TCU SCT035 28/21 A2984 BECMG 5000 VCSH=
200505111900 METAR MROC 111900Z 26011KT 9999 SCT015CB BKN030 27/21 A2982 RMK RN DST NE BECMG 3000 TSRA=
200505112000 METAR MROC 112000Z 22007KT 9999 3000SW TSRA FEW005 FEW010CB BKN080 21/20 A2982 BECMG 9999=
200505112100 METAR MROC 112100Z 07004KT 9999 3000SW -RA FEW025 BKN100 21/20 A2982 RMK TS DST SW=
200505112200 METAR MROC 112200Z 09003KT 9999 SCT025 BKN100 23/21 A2980 RMK ST BAJOS SW=
200505112300 METAR MROC 112300Z 10005KT 9999 FEW030 OVC100 23/20 A2981 RMK CB DST S/SW=
200505120000 METAR MROC 120000Z 11008KT 9999 FEW030 BKN100 23/19 A2981=
200505120100 METAR MROC 120100Z 00000KT 9999 FEW030 BKN100 23/20 A2985 NOSIG=
200505120200 METAR MROC 120200Z 07004KT 9999 FEW035 SCT120 23/19 A2987 NOSIG=
200505120300 METAR MROC 120300Z 07007KT 9999 SCT030 SCT120 22/19 A2987 NOSIG=
200505120400 METAR MROC 120400Z 08004KT 9999 BKN030 22/19 A2990 NOSIG=
200505120500 METAR MROC 120500Z VRB03KT 9999 FEW025 SCT030 22/19 A2991 NOSIG=
200505120600 METAR MROC 120600Z 02004KT 9999 FEW025 BKN030 21/20 A2989 NOSIG=
200505120700 METAR MROC 120700Z 07007KT 9999 SCT030 BKN120 22/19 A2987=
200505120800 METAR MROC 120800Z 04007KT 9999 FEW030 BKN120 21/18 A2984=
200505120900 METAR MROC 120900Z 03007KT CAVOK 22/18 A2983=
200505121000 METAR MROC 121000Z 06008KT CAVOK 22/18 A2983=
200505121100 METAR MROC 121100Z VRB03KT CAVOK 21/18 A2984=
200505121200 METAR MROC 121200Z 08006KT CAVOK 22/18 A2987=
200505121300 METAR MROC 121300Z 06007KT CAVOK 24/19 A2988 RMK SCT250 RMK CB DST S=
200505121400 METAR MROC 121400Z 11009KT CAVOK 26/20 A2988 RMK SCT250 RMK CB DST S=
200505121500 METAR MROC 121500Z 10011KT 9999 FEW040 SCT250 27/19 A2988 NOSIG=
200505121600 METAR MROC 121600Z 10015KT 9999 FEW040 SCT250 27/20 A2989 RMK CB DST S=
200505121700 METAR MROC 121700Z 11010KT 9999 FEW040 SCT250 29/20 A2987 BECMG 24008=
200505121800 METAR MROC 121800Z 12011KT 9999 4000SW SCT025TCU BKN250 30/19 A2984 BECMG 4000 -TSRA RMK TCU/RASH DST SW=
200505121832 METAR MROC 121832Z 12011KT 9999 4000SW SCT025TCU BKN250 30/19 A2984 BECMG 4000 -TSRA RMK TCU/RASH DST SW=
200505121900 METAR MROC 121900Z 11012KT 9999 4000SW VCTS FEW015CB SCT025 BKN100 29/19 A2984 BECMG RMK CB/RASH DST SW=
200505122000 METAR MROC 122000Z 12009KT 9999 6000SW VCTS FEW025CB SCT035 BKN100 28/19 A2981 BECMG RMK CB/RASH DST S/SW=
200505122100 METAR MROC 122100Z 30011KT 9999 4000SW -RA FEW010 SCT030 BKN100 23/20 A2984=
200505122200 METAR MROC 122200Z 31004KT 9999 4000SW -RA FEW003 SCT025 BKN100 22/21 A2984 RMK FG DST SW=
200505122300 METAR MROC 122300Z 15003KT 9999 FEW008 SCT030 BKN100 22/21 A2986=
200505130000 METAR MROC 130000Z 02004KT 9999 FEW035 BKN110 23/21 A2986=
200505130100 METAR MROC 130100Z 00000KT 9999 FEW035 SCT140 22/21 A2989 RMK LTNG DIST S SW NOSIG=
200505130200 METAR MROC 130200Z 00000KT 9999 FEW030 SCT140 22/21 A2990 NOSIG=
200505130300 METAR MROC 130300Z 34005KT 9999 FEW030 SCT120 22/21 A2993 NOSIG=
200505130400 METAR MROC 130400Z 35004KT 9999 FEW015 SCT120 22/21 A2993 NOSIG=
200505130500 METAR MROC 130500Z 00000KT 9999 FEW020 21/21 A2993 NOSIG=
200505130600 METAR MROC 130600Z 05004KT 9999 FEW030 21/20 A2990 NOSIG=
200505130900 METAR MROC 130900Z 10007KT CAVOK 21/19 A2984 NOSIG=
200505131000 METAR MROC 131000Z 11010KT CAVOK 22/18 A2983 NOSIG=
200505131100 METAR MROC 131100Z 03010KT CAVOK 21/18 A2985 NOSIG=
200505131200 METAR MROC 131200Z 11004KT CAVOK 21/18 A2987 NOSIG=
200505131300 METAR MROC 131300Z 04007KT CAVOK 23/18 A2989=
200505131400 METAR MROC 131400Z 09007KT CAVOK 26/19 A2989=
200505131500 METAR MROC 131500Z 08009KT 9999 FEW045 SCT120 28/20 A2990=
200505131600 METAR MROC 131600Z 10010KT 9999 FEW045 SCT120 29/19 A2989=
200505131700 METAR MROC 131700Z 25009KT 9999 SCT045 28/21 A2989=
200505131800 METAR MROC 131800Z 24012KT 9999 SCT040 29/22 A2987=
200505131900 METAR MROC 131900Z 23010KT 9999 SCT040 29/21 A2984=
200505132000 METAR MROC 132000Z 26008KT 9999 FEW015TCU SCT035 29/22 A2983=
200505132100 METAR MROC 132100Z 08007KT 9999 2000E TSRA SCT010CB BKN100 25/17 A2983 BECMG 3000 +TSRA=
200505132200 METAR MROC 132200Z 00000KT 9999 SCT030 BKN100 24/22 A2983 BECMG VRB03KT 6000 VCFG=
200505132300 METAR MROC 132300Z 23004KT 9999 SCT030 SCT100 25/21 A2984=
200505140000 METAR MROC 140000Z 25004KT 9999 SCT030 BKN100 23/20 A2986=
200505140100 METAR MROC 140100Z 29003KT 9999 SCT030 BKN100 23/20 A2987=
200505140200 METAR MROC 140200Z 27003KT 9999 FEW030 BKN100 23/20 A2990 BECMG 06008KT CAVOK=
200505140300 METAR MROC 140300Z 28003KT 9999 FEW030 BKN120 23/20 A2992 NOSIG=
200505140400 METAR MROC 140400Z 00000KT 9999 FEW035 BKN120 23/20 A2995 NOSIG=
200505140500 METAR MROC 140500Z 29003KT 9999 FEW035 BKN120 23/21 A2995 NOSIG=
200505140600 METAR MROC 140600Z 25003KT 9999 FEW035 BKN120 22/20 A2994 NOSIG=
200505140700 METAR MROC 140700Z 00000KT 9999 FEW035 BKN120 22/20 A2990 NOSIG=
200505140800 METAR MROC 140800Z 00000KT 9999 FEW035 BKN120 21/20 A2990 NOSIG=
200505140900 METAR MROC 140900Z 00000KT 9999 FEW035 BKN120 21/20 A2988 NOSIG=
200505141000 METAR MROC 141000Z 00000KT 9999 FEW035 BKN120 21/20 A2988 BECMG RMK=
200505141100 METAR MROC 141100Z 01004KT 9999 FEW030 BKN120 21/19 A2990 NOSIG=
200505141200 METAR MROC 141200Z 00000KT 9999 FEW035 BKN120 21/20 A2990 NOSIG=
200505141300 METAR MROC 141300Z 13003KT 9999 FEW030 BKN120 23/21 A2992=
200505141400 METAR MROC 141400Z 00000KT 9999 FEW025 BKN250 25/21 A2992=
200505141500 METAR MROC 141500Z 00000KT 9999 FEW025 BKN250 28/20 A2991=
200505141600 METAR MROC 141600Z 26004KT 9999 FEW030 BKN250 28/20 A2991=
200505141700 METAR MROC 141700Z 24009KT 9999 SCT030 BKN250 27/22 A2990=
200505141800 METAR MROC 141800Z 23006KT 9999 SCT030 BKN250 27/21 A2989=
200505141900 METAR MROC 141900Z 24007KT 9999 SCT030 BKN250 27/22 A2988=
200505142000 METAR MROC 142000Z 25012KT 9999 SCT020TCU SCT100 BKN250 26/22 A2985=
200505142100 METAR MROC 142100Z 24012KT 9999 -DZRA FEW025 SCT100 BKN250 24/20 A2984 BECMG 7000 VCSH=
200505142200 METAR MROC 142200Z 23004KT 9999 4000NE -RA FEW020 SCT030 BKN100 23/21 A2986 BECMG 5000=
200505142300 METAR MROC 142300Z 24005KT 5000 -DZ FEW012CB SCT020 BKN030 23/21 A2986 BECMG 5000 -RA BR FEW007 SCT025=
200505150000 METAR MROC 150000Z VRB03KT 9999 FEW006 SCT030 BKN120 23/21 A2988 BECMG 06006KT=
200505150100 METAR MROC 150100Z 02004KT 9999 FEW006 SCT020 BKN030 23/20 A2990 RMK VIS 6000S DUE ST=
200505150200 METAR MROC 150200Z 25005KT 9999 FEW005 SCT015 BKN030 22/21 A2993 RMK 5000 S DUE ST BECMG 5000 BR SCT005 BKN010=
200505150300 METAR MROC 150300Z 00000KT 9999 FEW003 SCT015 BKN035 22/21 A2995 RMK VIS S 5000 DUE ST LOW=
200505150400 METAR MROC 150400Z 28004KT 9999 FEW015 SCT035 BKN100 22/21 A2995=
200505150500 METAR MROC 150500Z 26007KT 9999 FEW015 SCT035 BKN110 21/20 A2993=
200505150600 METAR MROC 150600Z 27005KT 9999 FEW010 SCT030 BKN110 21/20 A2992=
200505150700 METAR MROC 150700Z 30004KT 9999 FEW010 SCT030 BKN110 21/20 A2990=
200505150800 METAR MROC 150800Z 27006KT 9999 FEW008 SCT015 BKN100 21/20 A2989=
200505150900 METAR MROC 150900Z 24005KT 9999 -DZ FEW008 SCT015 BKN100 21/20 A2989=
200505151000 METAR MROC 151000Z 30003KT 9999 FEW008 SCT010 BKN100 21/20 A2989=
200505151100 METAR MROC 151100Z 36005KT 9999 FEW010 SCT025 BKN100 21/20 A2989=
200505151200 METAR MROC 151200Z 29003KT 9999 FEW010 SCT025 BKN100 21/20 A2991=
200505151400 METAR MROC 151400Z VRB03KT 9999 FEW020 SCT030 24/20 A2995=
200505151500 METAR MROC 151500Z 25005KT 9999 SCT030 BKN250 26/20 A2996=
200505151600 METAR MROC 151600Z 26007KT 9999 SCT030 SCT130 26/20 A2996=
200505151700 METAR MROC 151700Z 18006KT 9999 SCT030 SCT250 27/21 A2994=
200505151800 METAR MROC 151800Z 24010KT 9999 SCT030 SCT250 26/21 A2992=
200505151900 METAR MROC 151900Z 26012KT 9999 SCT030TCU BKN250 27/21 A2989=
200505152000 METAR MROC 152000Z 24012KT 9999 FEW015 FEW025CB BKN030 24/21 A2987=
200505152100 METAR MROC 152100Z 24005KT 9999 FEW015 SCT025CB SCT120 24/21 A2985 NOSIG=
200505152200 METAR MROC 152200Z 23005KT 9999 FEW030 BKN100 24/20 A2985 NOSIG=
200505152300 METAR MROC 152300Z 29005KT 9999 -RA FEW025 BKN100 25/21 A2986 NOSIG=
200505160000 METAR MROC 160000Z 32003KT 9999 SCT025 BKN090 23/21 A2988 RMK RN DST NW NE E BECMG 5000 RA=
200505160100 METAR MROC 160100Z 28006KT 9999 -RA SCT020 OVC090 22/21 A2990 NOSIG=
200505160200 METAR MROC 160200Z 00000KT 9999 -RA SCT012 OVC090 21/20 A2993 NOSIG=
200505160300 METAR MROC 160300Z VRB03KT 9999 -DZ SCT015 OVC100 21/20 A2994 NOSIG=
200505160400 METAR MROC 160400Z 10004KT 9000 RA FEW015 OVC100 21/20 A2994=
200505160500 METAR MROC 160500Z 05003KT 9999 FEW015 BKN100 20/19 A2993 RERA=
200505160600 METAR MROC 160600Z 09004KT 9999 FEW020 SCT100 20/19 A2990=
200505160700 METAR MROC 160700Z 00000KT 9999 FEW020 SCT120 20/19 A2989=
200505160800 METAR MROC 160800Z 00000KT 9999 FEW025 SCT150 19/18 A2988=
200505161000 METAR MROC 161000Z 05003KT CAVOK 19/18 A2987=
200505161100 METAR MROC 161100Z 08004KT CAVOK 18/18 A2988=
200505161200 METAR MROC 161200Z 03004KT CAVOK 19/18 A2989=
200505161300 METAR MROC 161300Z 00000KT CAVOK 21/19 A2992 NOSIG=
200505161400 METAR MROC 161400Z 28003KT 9999 FEW040 BKN120 23/20 A2994 NOSIG=
200505161500 METAR MROC 161500Z 27005KT 9999 FEW035 BKN120 24/21 A2994 NOSIG=
200505161600 METAR MROC 161600Z 28008KT 9999 SCT030 BKN120 25/20 A2994 NOSIG=
200505161700 METAR MROC 161700Z 24006KT 9999 FEW020TCU SCT025 BKN120 25/20 A2992 NOSIG=
200505161800 METAR MROC 161800Z 24010KT 9999 FEW015TCU SCT025 SCT120 24/21 A2990 RMK RN DST SSE NW BECMG 8000 -RA=
200505161900 METAR MROC 161900Z 22005KT 8000 3000N RA FEW010 SCT010 BKN100 22/20 A2990 BECMG 5000 RA=
200505162000 METAR MROC 162000Z 26011KT 8000 FEW020 OVC100 22/20 A2989 RMK 8000 RN ARND BECMG RA=
200505162100 METAR MROC 162100Z 25007KT 9999 FEW010 SCT020 OVC100 22/19 A2989 BECMG 6000 -RA=
200505162200 METAR MROC 162200Z 28005KT 9999 FEW010 SCT020 OVC100 22/19 A2990 NOSIG=
200505162300 METAR MROC 162300Z 25003KT 9999 FEW010 OVC100 21/19 A2992 BECMG 7000 -RA=
200505170000 METAR MROC 170000Z 00000KT 9999 -RA FEW015 OVC100 21/20 A2993 NOSIG=
200505170100 METAR MROC 170100Z 08003KT 9999 DZ FEW025 OVC100 20/19 A2993 NOSIG=
200505170200 METAR MROC 170200Z 08005KT 9999 FEW035 BKN100 21/19 A2994 NOSIG=
200505170300 METAR MROC 170300Z 08004KT 9999 FEW035 BKN120 20/19 A2996=
200505170400 METAR MROC 170400Z 08006KT CAVOK 20/18 A2995=
200505170500 METAR MROC 170500Z 07007KT CAVOK 20/18 A2994=
200505170600 METAR MROC 170600Z 06008KT CAVOK 20/18 A2992=
200505170700 METAR MROC 170700Z 11004KT CAVOK 20/18 A2989=
200505170800 METAR MROC 170800Z 03004KT CAVOK 21/18 A2988=
200505170900 METAR MROC 170900Z 02005KT CAVOK 20/18 A2989=
200505171100 METAR MROC 171100Z VRB03KT CAVOK 19/18 A2991=
200505171200 METAR MROC 171200Z 03004KT CAVOK 19/17 A2993=
200505171300 METAR MROC 171300Z 00000KT CAVOK 22/18 A2995 NOSIG=
200505171400 METAR MROC 171400Z 00000KT 9999 FEW025 BKN120 23/18 A2997 BECMG 24006KT=
200505171500 METAR MROC 171500Z 20003KT 9999 FEW030 SCT120 25/19 A2998 NOSIG=
200505171600 METAR MROC 171600Z 25006KT 9999 FEW030 SCT300 26/19 A2997 NOSIG=
200505171700 METAR MROC 171700Z 24006KT 9999 FEW030 SCT120 26/19 A2995 NOSIG=
200505171800 METAR MROC 171800Z 21005KT 9999 FEW035 SCT120 27/20 A2993 NOSIG=
200505171900 METAR MROC 171900Z 23010KT 9999 FEW035 SCT140 27/21 A2991 NOSIG=
200505172000 METAR MROC 172000Z 26010KT 9999 FEW025TCU BKN130 26/21 A2981 BECMG 5000 VCSH=
200505172100 METAR MROC 172100Z 25012KT 9999 -RA FEW015TCU SCT030 BKN120 25/22 A2988=
200505172200 METAR MROC 172200Z 25008KT 9999 5000SW -DZ FEW002 SCT030 BKN120 23/21 A2987=
200505172300 METAR MROC 172300Z 29007KT 9999 4000SW FEW002 SCT015 BKN120 22/21 A2989=
200505180000 METAR MROC 180000Z 24009KT 9999 FEW008 SCT020 BKN110 22/21 A2992=
200505180100 METAR MROC 180100Z 29006KT 9999 SCT020 BKN110 22/20 A2995=
200505180200 METAR MROC 180200Z 28003KT 9999 FEW010 SCT025 BKN110 22/19 A2997=
200505180300 METAR MROC 180300Z 27004KT 9999 FEW012 SCT025 BKN100 21/19 A2998 NOSIG=
200505180400 METAR MROC 180400Z 27004KT 9999 FEW015 SCT025 BKN100 21/20 A2999 NOSIG=
200505180600 METAR MROC 180600Z 30005KT 9999 SCT015 BKN090 21/20 A2996 NOSIG=
200505180700 METAR MROC 180700Z 30004KT 9999 SCT015 BKN120 21/20 A2994 NOSIG=
200505180900 METAR MROC 180900Z 00000KT 9999 -RA SCT012 BKN090 21/20 A2992=
200505181000 METAR MROC 181000Z 00000KT 8000 RA FEW007 SCT012 BKN090 21/20 A2993=
200505181100 METAR MROC 181100Z 00000KT 8000 DZ FEW005 SCT015 BKN090 20/20 A2995=
200505181200 METAR MROC 181200Z 24004KT 5000 2000E RA SCT003 BKN080 20/20 A2996=
200505181300 METAR MROC 181300Z 00000KT 5000 RA SCT003 BKN080 20/20 A2997=
200505181400 METAR MROC 181400Z 00000KT 7000 -RA FEW010 OVC100 21/20 A3000=
200505181500 METAR MROC 181500Z 00000KT 7000 DZ FEW010 OVC100 21/20 A3000 BECMG 9999=
200505181600 METAR MROC 181600Z 20003KT 9999 DZ FEW010 OVC110 22/20 A2999=
200505181700 METAR MROC 181700Z 25003KT 9999 -DZ FEW010 OVC120 23/21 A2997=
200505181800 METAR MROC 181800Z 26006KT 9999 FEW025 OVC120 24/21 A2996=
200505181900 METAR MROC 181900Z 25006KT 9999 FEW025 SCT120 BKN240 25/20 A2993=
200505182000 METAR MROC 182000Z 27011KT 9999 FEW025 SCT120 BKN240 27/21 A2990=
200505182100 METAR MROC 182100Z 25010KT 9999 FEW015 SCT100 SCT250 25/20 A2989=
200505182200 METAR MROC 182200Z 26008KT 9999 FEW020 SCT120 SCT240 24/20 A2990=
200505182300 METAR MROC 182300Z 30007KT 9999 SCT020 SCT200 23/20 A2990=
200505190000 METAR MROC 190000Z 26006KT 9000 FEW005 SCT100 22/20 A2991 RMK BR ARND=
200505190100 METAR MROC 190100Z 24004KT 8000 SCT008 BKN120 21/20 A2993 RMK LOW ST ARND =
200505190200 METAR MROC 190200Z 00000KT 8000 SCT010 SCT120 21/20 A2994 RMK LOW ST ARND/=
200505190300 METAR MROC 190300Z 00000KT 8000 SCT012 SCT120 21/20 A2996 RMK LOW ST ARND=
200505190400 METAR MROC 190400Z 00000KT 8000 VCFG FEW007 SCT015 BKN120 21/20 A2997 NOSIG=
200505190500 METAR MROC 190500Z 00000KT 8000 VCFG FEW010 SCT020 BKN120 21/20 A2996 NOSIG=
200505190600 METAR MROC 190600Z 00000KT 9999 FEW025 SCT120 21/20 A2994 NOSIG=
200505190700 METAR MROC 190700Z 00000KT 9999 FEW025 SCT120 21/20 A2992=
200505190800 METAR MROC 190800Z 00000KT 9999 FEW015 BKN120 20/19 A2990=
200505190900 METAR MROC 190900Z 07003KT 9999 FEW025 OVC120 19/18 A2988=
200505191000 METAR MROC 191000Z 00000KT CAVOK 20/18 A2990=
200505191100 METAR MROC 191100Z 06004KT CAVOK 19/18 A2991=
200505191200 METAR MROC 191200Z 08003KT CAVOK 19/18 A2992=
200505191300 METAR MROC 191300Z 06004KT CAVOK 22/18 A2994=
200505191400 METAR MROC 191400Z 00000KT CAVOK 25/20 A2995=
200505191500 METAR MROC 191500Z 20004KT 9999 FEW035 BKN220 26/20 A2997=
200505191600 METAR MROC 191600Z 25005KT 9999 FEW035 SCT250 26/21 A2997=
200505191700 METAR MROC 191700Z 26006KT 9999 FEW030 SCT250 26/20 A2995=
200505191800 METAR MROC 191800Z 25008KT 9999 SCT025 SCT250 26/21 A2994=
200505191900 METAR MROC 191900Z 25013KT 9999 SCT020TCU SCT150 25/21 A2991=
200505192000 METAR MROC 192000Z 26009KT 9999 SCT020TCU SCT170 25/20 A2989=
200505192100 METAR MROC 192100Z 25008KT 9999 SCT025 BKN260 25/21 A2988 NOSIG=
200505192200 METAR MROC 192200Z 27010KT 8000 FEW015 BKN025 24/21 A2987 BECMG 4000 BR FEW007 BKN020=
200505192300 METAR MROC 192300Z 27007KT 8000 SCT015 BKN025 22/20 A2988 BECMG 4000 BR SCT007 BKN020=
200505200000 METAR MROC 200000Z 28005KT 7000 VCFG SCT010 BKN025 22/20 A2992 BECMG 3000 BR SCT005 BKN015=
200505200100 METAR MROC 200100Z 25004KT 6000 VCFG SCT008 BKN025 21/20 A2994 BECMG 3000 BR SCT005 BKN020=
200505200200 METAR MROC 200200Z VRB03KT 6000 VCFG SCT007 BKN020 21/20 A2995 BECMG 3000 BR SCT005 BKN020=
200505200300 METAR MROC 200300Z 28004KT 7000 VCFG FEW008 SCT025 BKN120 21/20 A2995=
200505200400 METAR MROC 200400Z 30003KT 9999 FEW008 SCT025 BKN120 21/20 A2997=
200505200500 METAR MROC 200500Z 00000KT 9999 FEW008 SCT025 BKN120 21/20 A2996=
200505200600 METAR MROC 200600Z 30003KT 9999 FEW008 SCT025 BKN120 21/20 A2996=
200505200700 METAR MROC 200700Z 00000KT 9999 FEW008 SCT035 BKN120 21/20 A2994=
200505200800 METAR MROC 200800Z 29003KT 9999 FEW008 SCT025 BKN120 21/20 A2993=
200505200900 METAR MROC 200900Z 29004KT 8000 RA FEW008 SCT025 BKN110 21/20 A2993=
200505201000 METAR MROC 201000Z 33003KT 9999 FEW010 SCT025 BKN110 20/20 A2993=
200505201100 METAR MROC 201100Z 00000KT 9999 FEW010 SCT025 BKN110 21/20 A2993=
200505201200 METAR MROC 201200Z 00000KT 9999 4000SW FEW002 SCT010 BKN100 21/20 A2994=
200505201300 METAR MROC 201300Z 00000KT 9999 4000S BR FEW006 SCT025 BKN110 22/20 A2997 BECMG 9999=
200505201400 METAR MROC 201400Z VRB03KT 9999 FEW020 SCT030 BKN120 23/20 A2998 BECMG 24008KT=
200505201500 METAR MROC 201500Z 24004KT 8000 SCT025 BKN100 23/20 A2999 BECMG RMK HZ LGT ARND=
200505201600 METAR MROC 201600Z 26007KT 9999 SCT030 SCT120 25/20 A2999 NOSIG=
200505201700 METAR MROC 201700Z 24008KT 9999 BKN030 25/20 A2997 NOSIG=
200505201800 METAR MROC 201800Z 24007KT 9999 FEW025TCU BKN030 26/20 A2996 NOSIG=
200505201900 METAR MROC 201900Z 26013KT 9999 FEW015 SCT030 BKN110 25/20 A2994 RMK VIS SW/W 7KM DUE RN HZ BECMG 5000 VCSH=
200505202000 METAR MROC 202000Z 29009KT 9999 FEW015 SCT030 BKN110 22/19 A2992 RMK VIS 6KM DUE RN/HZ BECMG 5000 VCSH=
200505202100 METAR MROC 202100Z 27007KT 5000 2000W DZ BR FEW003 SCT015 BKN100 22/20 A2990 BECMG 3000 RA=
200505202200 METAR MROC 202200Z 29005KT 2000 DZ BR BKN010 BKN090 20/19 A2994 RMK 6000 E NOSIG=
200505202300 METAR MROC 202300Z 31004KT 3000 -DZ BR BKN008 BKN090 20/20 A2994 NOSIG=
200505210000 METAR MROC 210000Z 31004KT 6000 DZ SCT015 BKN100 21/19 A2996 NOSIG=
200505210100 METAR MROC 210100Z 29004KT 8000 FEW010 BKN120 21/19 A2999 RMK VCFG SW W=
200505210200 METAR MROC 210200Z 28004KT 8000 FEW008 BKN120 21/19 A3001 RMK 5000 SW VCFG NOSIG=
200505210300 METAR MROC 210300Z 33003KT 8000 -DZ SCT015 OVC100 20/19 A3003=
200505210400 METAR MROC 210400Z VRB03KT 7000 -DZ SCT010 OVC100 20/19 A3001=
200505210500 METAR MROC 210500Z 00000KT 7000 -DZ SCT006 OVC180 19/19 A3002=
200505210600 METAR MROC 210600Z 00000KT 8000 SCT015 OVC100 20/19 A3000=
200505210700 METAR MROC 210700Z 00000KT 9999 SCT020 BKN100 20/19 A2998=
200505210800 METAR MROC 210800Z 00000KT 9999 SCT030 SCT120 19/19 A2996=
200505211000 METAR MROC 211000Z 07006KT 9999 FEW030 SCT150 19/18 A2995=
200505211100 METAR MROC 211100Z 05004KT CAVOK 18/17 A2996=
200505211200 METAR MROC 211200Z 08004KT CAVOK 18/17 A2998 RMK HZ=
200505211300 METAR MROC 211300Z 07004KT CAVOK 22/18 A3001 RMK LEVE HZY BECMG 24008KT=
200505211400 METAR MROC 211400Z 00000KT 9999 FEW030 BKN250 24/18 A3002 RMK LEVE HZY NOSIG=
200505211500 METAR MROC 211500Z 25005KT 9999 FEW025 BKN250 24/19 A3003 RMK LEVE HZY NOSIG=
200505211600 METAR MROC 211600Z 24005KT 9999 FEW025 BKN250 24/20 A3003 RMK LEVE HZY=
200505211700 METAR MROC 211700Z 28005KT 9999 FEW025 BKN220 25/19 A3002 RMK LEVE HZY NOSIG=
200505211800 METAR MROC 211800Z 29005KT 9999 SCT025 BKN220 25/20 A3001 RMK 7000SW HZ BECMG 6000 -RA VCFG=
200505211900 METAR MROC 211900Z 27007KT 9999 SCT020 SCT220 24/20 A2998 RMK 7000SW HZ NOSIG=
200505212000 METAR MROC 212000Z 28009KT 9999 SCT020 SCT220 26/21 A2996 RMK LEVE HZY NOSIG=
200505212100 METAR MROC 212100Z 25010KT 9999 FEW010 SCT020 BKN250 25/20 A2994 BECMG 5000 VCSH=
200505212200 METAR MROC 212200Z 23010KT 8000 VCSH FEW010 BKN020 24/21 A2994 BECMG 3000 SHRA=
200505212300 METAR MROC 212300Z 25010KT 7000 -RA FEW008 BKN020 22/19 A2996 NOSIG=
200505220000 METAR MROC 220000Z 24006KT 9999 FEW008 SCT020 BKN100 21/19 A2997 NOSIG=
200505220100 METAR MROC 220100Z 24003KT 9999 FEW012 SCT025 BKN100 21/19 A2998=
200505220200 METAR MROC 220200Z 26004KT 9999 FEW010 SCT030 20/19 A2998=
200505220300 METAR MROC 220300Z VRB03KT 9999 SCT010 BKN030 20/19 A3001=
200505220400 METAR MROC 220400Z 00000KT 9999 FEW015 BKN030 20/19 A3002=
200505220500 METAR MROC 220500Z 00000KT 9999 FEW012 SCT030 20/19 A3002=
200505220600 METAR MROC 220600Z VRB03KT 9999 FEW030 20/19 A3001=
200505220700 METAR MROC 220700Z 06005KT 9999 FEW030 20/19 A3000=
200505220800 METAR MROC 220800Z 06004KT 9999 FEW030 SCT090 19/18 A2999=
200505220900 METAR MROC 220900Z 07006KT CAVOK 18/17 A2998=
200505221000 METAR MROC 221000Z 07003KT CAVOK 18/16 A2998=
200505221100 METAR MROC 221100Z 03003KT CAVOK 18/16 A2999=
200505221200 METAR MROC 221200Z 03004KT CAVOK 18/16 A3000=
200505221300 METAR MROC 221300Z 00000KT CAVOK 21/17 A3003=
200505221400 METAR MROC 221400Z 12003KT CAVOK 24/18 A3004 BECMG 24006KT=
200505221500 METAR MROC 221500Z 20003KT 9999 FEW040 BKN300 25/18 A3005 NOSIG=
200505221600 METAR MROC 221600Z 24006KT 9999 FEW040 BKN300 26/18 A3004 NOSIG=
200505221700 METAR MROC 221700Z 25009KT 9999 FEW040 BKN300 27/18 A3003 NOSIG=
200505221800 METAR MROC 221800Z 25011KT 9999 FEW035TCU BKN300 27/20 A3001 BECMG 8000 VCSH RMK CB RASH DST S ESE=
200505221900 METAR MROC 221900Z 19006KT 9999 FEW025TCU SCT035 BKN140 23/20 A3000 BECMG 8000 RA RMK VIS SW 8KMS DUE RASH=
200505222000 METAR MROC 222000Z 26010KT 9999 FEW020TCU SCT035 BKN140 23/20 A2998 BECMG 8000 RA RMK CB RASH DIST ESE=
200505222100 METAR MROC 222100Z 25008KT 9999 -RA FEW020TCU SCT030 BKN130 22/20 A2996 BECMG 4000 RA=
200505222200 METAR MROC 222200Z 28005KT 9999 FEW010 SCT030 BKN130 23/19 A2997=
200505222300 METAR MROC 222300Z 23004KT 9999 FEW010 SCT030 BKN130 23/20 A2995 BECMG 6000 VCFG=
200505230000 METAR MROC 230000Z 28005KT 9999 FEW010TCU SCT025 BKN130 22/20 A2996 BECMG 5000 BR=
200505230100 METAR MROC 230100Z 24003KT 7000 VCFG FEW010TCU SCT020 BKN100 22/20 A2999 BECMG 04004KT 9999=
200505230200 METAR MROC 230200Z 28003KT 7000 VCFG FEW010 SCT025 BKN100 22/20 A3000 NOSIG=
200505230300 METAR MROC 230300Z 00000KT 9999 4000SW DZ BR FEW003 SCT015 BKN100 21/20 A3001=
200505230400 METAR MROC 230400Z 23004KT 7000 3000SW BR FEW003 SCT015 SCT100 21/20 A3002=
200505230500 METAR MROC 230500Z 00000KT 8000 FEW005 SCT015 SCT100 21/20 A3002 RMK 6000SW VCFG=
200505230600 METAR MROC 230600Z 29003KT 7000 VCFG FEW006 SCT015 21/20 A3000=
200505230700 METAR MROC 230700Z 00000KT 7000 3000SW BR FEW003 BKN012 21/20 A3000=
200505230800 METAR MROC 230800Z 24003KT 7000 VCFG FEW005 BKN012 20/20 A2999 RMK 4000SW BR=
200505230900 METAR MROC 230900Z 00000KT 7000 VCFG FEW005 SCT015 20/20 A2998=
200505231000 METAR MROC 231000Z 08003KT 9999 FEW007 SCT015 20/18 A2997 RMK 7000SW=
200505231100 METAR MROC 231100Z 04004KT CAVOK 19/17 A2998=
200505231200 METAR MROC 231200Z 10003KT CAVOK 19/17 A2999 RMK LEVE HZY=
200505231300 METAR MROC 231300Z 26006KT 9999 FEW003 SCT300 22/18 A3000=
200505231400 METAR MROC 231400Z 24004KT 9999 FEW005 SCT300 23/19 A3001=
200505231500 METAR MROC 231500Z 25008KT 9999 FEW020 BKN300 25/20 A3004=
200505231600 METAR MROC 231600Z 27005KT 9999 FEW025 BKN300 26/20 A3004=
200505231700 METAR MROC 231700Z 24010KT 9999 FEW015TCU SCT030 BKN300 26/21 A3002=
200505231800 METAR MROC 231800Z 25010KT 9999 -RA FEW010TCU SCT030 SCT100 BKN300 24/21 A3002=
200505231900 METAR MROC 231900Z 30006KT 9999 FEW010 SCT130 BKN100 23/19 A2999=
200505232000 METAR MROC 232000Z 20005KT 9999 FEW008 SCT025 BKN100 23/20 A2997=
200505232100 METAR MROC 232100Z 23004KT 8000 -RA FEW008 SCT020 BKN100 21/20 A2997=
200505232200 METAR MROC 232200Z 00000KT 9999 FEW007 SCT020 BKN100 22/20 A2997=
200505232300 METAR MROC 232300Z 00000KT 7000 RA VCFG FEW005 SCT015 BKN100 21/20 A2999=
200505240000 METAR MROC 240000Z 00000KT 6000 3000NW -RA BR FEW004 SCT015 OVC100 20/20 A3002 NOSIG=
200505240100 METAR MROC 240100Z 00000KT 9000 -RA SCT015 OVC100 21/20 A3001 NOSIG=
200505240200 METAR MROC 240200Z 00000KT 8000 SCT020 BKN130 20/19 A3001 NOSIG=
200505240300 METAR MROC 240300Z 26007KT 2000 BR SCT001 SCT140 BKN250 20/19 A3002=
200505240400 METAR MROC 240400Z 32004KT 8000 VCFG FEW003 SCT140 BKN250 20/19 A3005 NOSIG=
200505240500 METAR MROC 240500Z 00000KT 8000 VCFG FEW005 BKN015 20/19 A3005 NOSIG=
200505240600 METAR MROC 240600Z 00000KT 9999 FEW010 SCT025 BKN140 20/19 A3002 NOSIG=
200505240700 METAR MROC 240700Z 05003KT 9999 FEW030 BKN140 19/18 A3000 NOSIG=
200505240800 METAR MROC 240800Z 02003KT 9999 FEW030 SCT140 19/18 A2999=
200505240900 METAR MROC 240900Z 05005KT CAVOK 18/17 A2999=
200505241000 METAR MROC 241000Z 08004KT CAVOK 18/17 A2998=
200505241100 METAR MROC 241100Z 04006KT CAVOK 19/17 A2999=
200505241200 METAR MROC 241200Z 06006KT CAVOK 19/17 A2999=
200505241300 METAR MROC 241300Z 05006KT CAVOK 21/18 A3000=
200505241400 METAR MROC 241400Z 00000KT CAVOK 25/18 A3001 BECMG 24008KT=
200505241500 METAR MROC 241500Z 24007KT CAVOK 26/17 A3001=
200505241600 METAR MROC 241600Z 26009KT CAVOK 26/20 A3000=
200505241700 METAR MROC 241700Z 22006KT 9999 FEW040 SCT260 27/20 A2999=
200505241800 METAR MROC 241800Z 26014KT 9999 FEW040 SCT140 27/21 A2998=
200505241900 METAR MROC 241900Z 28011KT 7000 VCSH FEW010CB SCT035 BKN110 27/21 A2996 BECMG 4000 TS RA=
200505242000 METAR MROC 242000Z 28005KT 6000 -TS RA SCT012CB OVC100 23/20 A2997 NOSIG=
200505242100 METAR MROC 242100Z 25007KT 6000 -RA FEW012CB SCT030 BKN100 23/21 A2995 NOSIG=
200505242200 METAR MROC 242200Z 27004KT 8000 FEW015 SCT030 BKN100 22/20 A2993 NOSIG=
200505242300 METAR MROC 242300Z 28004KT 9999 FEW015 SCT030 BKN100 22/20 A2994 NOSIG=
200505250000 METAR MROC 250000Z VRB03KT 9999 SCT015 BKN030 22/20 A2996 NOSIG=
200505250100 METAR MROC 250100Z VRB03KT 9999 FEW015 SCT030 BKN120 22/20 A2996 NOSIG=
200505250200 METAR MROC 250200Z VRB03KT 9999 FEW007 BKN030 21/20 A2999 BECMG 22005KT 6000 VCFG=
200505250300 METAR MROC 250300Z 00000KT 9999 FEW007 BKN030 22/20 A3000=
200505250400 METAR MROC 250400Z 31004KT 9999 FEW007 SCT030 BKN120 22/20 A3002=
200505250500 METAR MROC 250500Z 00000KT 9999 FEW007 SCT030 BKN120 22/20 A3002=
200505250600 METAR MROC 250600Z 00000KT 9999 FEW008 SCT030 BKN120 21/20 A2998=
200505250700 METAR MROC 250700Z 00000KT 9999 FEW035 SCT120 21/20 A2996=
200505250800 METAR MROC 250800Z 30003KT CAVOK 20/19 A2994=
200505250900 METAR MROC 250900Z 34004KT 8000 FEW002 SCT010 20/19 A2993=
200505251000 METAR MROC 251000Z 16003KT 8000 FEW002 SCT010 20/19 A2996=
200505251100 METAR MROC 251100Z 00000KT 8000 FEW004 SCT015 BKN100 20/19 A2996=
200505251200 METAR MROC 251200Z 06005KT 9999 4000SW FEW002 SCT020 BKN250 20/19 A2997=
200505251300 METAR MROC 251300Z 07004KT 9999 FEW035 BKN120 22/19 A2999=
200505251400 METAR MROC 251400Z VRB03KT 9999 FEW030 BKN120 25/19 A3001 BECMG 25007KT=
200505251500 METAR MROC 251500Z 23008KT 9999 FEW030 BKN120 24/20 A3002 NOSIG=
200505251600 METAR MROC 251600Z 23006KT 9999 SCT035 SCT270 25/21 A3002 NOSIG=
200505251700 METAR MROC 251700Z 23009KT 9999 SCT035 BKN270 26/21 A3001 NOSIG=
200505251800 METAR MROC 251800Z 28009KT 9999 FEW025TCU SCT030 SCT120 26/21 A3000 BECMG 7000 VCSH=
200505251900 METAR MROC 251900Z 25006KT 9999 SCT030 SCT120 26/21 A2997 BECMG 7000=
200505252000 METAR MROC 252000Z 25007KT 9999 FEW030 BKN120 26/21 A2995 NOSIG=
200505252100 METAR MROC 252100Z 25007KT 9999 FEW030 BKN120 25/22 A2992 RMK RN DST E SE BECMG 6000 VCSH=
200505252200 METAR MROC 252200Z 28007KT 7000 VCSH FEW020 BKN100 24/21 A2990 BECMG 5000 RA BR SCT003 BKN015=
200505252300 METAR MROC 252300Z 27006KT 7000 3000SW BR FEW003 SCT015 BKN100 23/21 A2991 BECMG 2000 BR=
200505260000 METAR MROC 260000Z 25006KT 7000 VCFG FEW003 SCT010 SCT100 22/21 A2994 RMK 4000 SW BR BECMG 2000 BR=
200505260100 METAR MROC 260100Z 25007KT 5000 2000SW FEW002 SCT008 BKN025 22/21 A2995 BECMG 1500 BR SCT001 BKN010=
200505260200 METAR MROC 260200Z 00000KT 7000 VCFG FEW002 SCT015 BKN100 22/21 A2999 BECMG 04005KT 9999=
200505260300 METAR MROC 260300Z 00000KT 7000 VCFG FEW002 BKN030 22/21 A2999 NOSIG=
200505260400 METAR MROC 260400Z 00000KT 6000 VCFG FEW003 BKN015 22/21 A2999=
200505260500 METAR MROC 260500Z 25003KT 6000 VCFG FEW004 BKN015 22/21 A2999=
200505260600 METAR MROC 260600Z 00000KT 6000 VCFG FEW004 BKN015 21/20 A2998=
200505260700 METAR MROC 260700Z 11003KT 6000 VCFG FEW005 BKN020 21/20 A2995=
200505260800 METAR MROC 260800Z 00000KT 7000 VCFG FEW006 SCT020 21/20 A2995=
200505260900 METAR MROC 260900Z 00000KT 9999 FEW010 SCT030 20/19 A2994=
200505261000 METAR MROC 261000Z 08008KT CAVOK 21/18 A2992=
200505261100 METAR MROC 261100Z 01005KT CAVOK 20/18 A2994=
200505261200 METAR MROC 261200Z 07008KT 9999 FEW030 21/18 A2997=
200505261300 METAR MROC 261300Z 09008KT CAVOK 24/19 A2996 NOSIG=
200505261400 METAR MROC 261400Z 12013KT CAVOK 26/18 A2999 NOSIG=
200505261500 METAR MROC 261500Z 17005KT CAVOK 28/18 A2999 BECMG 24006KT=
200505261600 METAR MROC 261600Z 25010KT CAVOK 27/21 A2997 NOSIG=
200505261700 METAR MROC 261700Z 26007KT 9999 FEW035 SCT250 28/21 A2997 NOSIG=
200505261800 METAR MROC 261800Z 25011KT 9999 SCT030 BKN250 27/22 A2996 NOSIG=
200505261900 METAR MROC 261900Z 25012KT 9999 FEW020TCU SCT035 SCT250 28/22 A2995 BECMG 5000 VCSH=
200505262000 METAR MROC 262000Z 25008KT 7000 VCSH FEW015CB SCT030 SCT120 26/22 A2993 BECMG 3000 -TS RA=
200505262100 METAR MROC 262100Z 23007KT 9999 -TSRA FEW015CB SCT030 BKN100 23/20 A2993 BECMG 8000 RA RMK VIS N NW 4KMS DUE VCSH=
200505262200 METAR MROC 262200Z 30005KT 9999 FEW015 SCT035 BKN120 23/20 A2992 NOSIG=
200505262300 METAR MROC 262300Z 23004KT 9999 FEW010 SCT035 BKN120 23/20 A2995 NOSIG=
200505270000 METAR MROC 270000Z 29003KT 9999 FEW010 BKN035 23/19 A2996 NOSIG=
200505270100 METAR MROC 270100Z 00000KT 9999 FEW010 SCT035 BKN120 22/20 A2997 BECMG 10005KT=
200505270200 METAR MROC 270200Z 00000KT 9999 FEW035 SCT120 BKN250 22/20 A2999 NOSIG=
200505270300 METAR MROC 270300Z 06005KT CAVOK 20/19 A2998 NOSIG=
200505270400 METAR MROC 270400Z 04004KT CAVOK 21/18 A2999 NOSIG=
200505270500 METAR MROC 270500Z 05004KT CAVOK 20/18 A2998 NOSIG=
200505270600 METAR MROC 270600Z VRB03KT CAVOK 20/18 A2997 NOSIG=
200505270700 METAR MROC 270700Z 06005KT CAVOK 20/18 A2996 NOSIG=
200505270800 METAR MROC 270800Z 07011KT CAVOK 20/17 A2994=
200505270900 METAR MROC 270900Z 04005KT CAVOK 20/16 A2993=
200505271000 METAR MROC 271000Z 04008KT CAVOK 21/17 A2994=
200505271100 METAR MROC 271100Z 10006KT CAVOK 22/17 A2994=
200505271200 METAR MROC 271200Z 02005KT CAVOK 20/17 A2997=
200505271300 METAR MROC 271300Z 05005KT CAVOK 23/18 A2998 NOSIG=
200505271400 METAR MROC 271400Z 27007KT CAVOK 24/19 A2999 BECMG 9999 SCT030=
200505271500 METAR MROC 271500Z 28005KT CAVOK 25/19 A3001 NOSIG=
200505271600 METAR MROC 271600Z 27005KT 9999 FEW035 BKN250 26/20 A3001 NOSIG=
200505271700 METAR MROC 271700Z 24004KT 9999 SCT035 BKN250 27/20 A3000 NOSIG=
200505271800 METAR MROC 271800Z 14004KT 9999 FEW035 BKN250 29/18 A2998 BECMG 24008KT=
200505271900 METAR MROC 271900Z 24004KT 9999 SCT030 SCT250 29/21 A2995 BECMG 7000=
200505272000 METAR MROC 272000Z 23008KT 9999 FEW020TCU SCT030 28/22 A2993 BECMG 7000 VCSH FEW015CB BKN025=
200505272100 METAR MROC 272100Z 23011KT 9999 FEW020TCU SCT030 25/22 A2994=
200505272200 METAR MROC 272200Z 26011KT 6000 VCFG FEW001 SCT010 BKN030 23/21 A2993 BECMG 1500 TSRA=
200505272300 METAR MROC 272300Z 17005KT 6000 -RA FEW005 SCT030 BKN100 21/21 A2996 NOSIG=
200505280000 METAR MROC 280000Z 26008KT 6000 VCFG FEW003 SCT020 BKN100 21/21 A2997=
200505280100 METAR MROC 280100Z 03004KT 9999 SCT020 BKN120 21/20 A2997 NOSIG=
200505280200 METAR MROC 280200Z 00000KT 9999 FEW025 SCT130 21/20 A2997 NOSIG=
200505280300 METAR MROC 280300Z 12009KT CAVOK 22/19 A2997 NOSIG=
200505280400 METAR MROC 280400Z 10004KT CAVOK 22/18 A2999 NOSIG=
200505280500 METAR MROC 280500Z 08005KT CAVOK 22/18 A2997 NOSIG=
200505280600 METAR MROC 280600Z 00000KT CAVOK 22/18 A2995 NOSIG=
200505280700 METAR MROC 280700Z 07006KT CAVOK 22/18 A2995 NOSIG=
200505280800 METAR MROC 280800Z 07006KT CAVOK 21/18 A2994 NOSIG=
200505280900 METAR MROC 280900Z 00000KT CAVOK 22/18 A2992 NOSIG=
200505281000 METAR MROC 281000Z 02006KT CAVOK 21/18 A2992 NOSIG=
200505281100 METAR MROC 281100Z 04006KT CAVOK 22/18 A2993 NOSIG=
200505281200 METAR MROC 281200Z 09006KT 9999 -RA BKN090 22/18 A2993=
200505281300 METAR MROC 281300Z 11011KT 9999 -DZ OVC130 22/17 A2995=
200505281400 METAR MROC 281400Z 11011KT 9999 -DZ OVC130 22/17 A2995=
200505281500 METAR MROC 281500Z 11017KT CAVOK 24/17 A2996 RMK SCT120 BKN250=
200505281600 METAR MROC 281600Z 11017KT CAVOK 26/18 A2994 RMK SCT120 BKN250 NOSIG=
200505281700 METAR MROC 281700Z 12017KT CAVOK 28/18 A2994 RMK OVC250 NOSIG=
200505281800 METAR MROC 281800Z 10012KT 9999 FEW040 OVC250 28/18 A2993=
200505281900 METAR MROC 281900Z 08014KT 9999 FEW040 OVC250 28/19 A2992=
200505282000 METAR MROC 282000Z 07014KT 9999 FEW040 OVC250 29/18 A2992=
200505282100 METAR MROC 282100Z 09008KT 9999 SCT035 OVC250 29/18 A2991=
200505282200 METAR MROC 282200Z 11004KT 9999 FEW035 SCT140 BKN250 28/19 A2989 BECMG 23006=
200505282300 METAR MROC 282300Z 26007KT 9999 FEW035 SCT130 BKN250 25/22 A2990=
200505290000 METAR MROC 290000Z 26006KT 5000 BR FEW003 SCT010 BKN250 23/22 A2991 BECMG 3000 BR=
200505290100 METAR MROC 290100Z 25005KT 5000 BR FEW002 SCT009 BKN250 22/22 A2992 BECMG 9999=
200505290200 METAR MROC 290200Z 00000KT 4000 1300SW BR FEW002 SCT008 BKN020 22/22 A2995 BECMG 7000 VCFG=
200505290300 METAR MROC 290300Z 00000KT 0500 FG VV/// 22/21 A2994 BECMG 5000 BR=
200505290400 METAR MROC 290400Z 00000KT 2000SW BR SCT001 SCT008 21/21 A2994 BECMG 05005KT 7000 VCFG=
200505290500 METAR MROC 290500Z 07005KT 9999 FEW030 BKN250 22/19 A2993 NOSIG=
200505290600 METAR MROC NIL=
200505291200 METAR MROC 291200Z 06007KT CAVOK 20/18 A2992=
200505291300 METAR MROC 291300Z 00000KT CAVOK 24/18 A2994=
200505291400 METAR MROC 291400Z 13006KT 9999 FEW040 BKN250 26/18 A2995=
200505291500 METAR MROC 291500Z 09008KT 9999 SCT035 SCT250 28/17 A2997=
200505291600 METAR MROC 291600Z 07008KT 9999 SCT040 BKN250 29/18 A2995=
200505291700 METAR MROC 291700Z 24007KT 9999 SCT035 BKN250 27/21 A2994=
200505291900 METAR MROC 291900Z 24008KT 9999 SCT035 BKN250 27/21 A2991=
200505292000 METAR MROC 292000Z 23006KT 9999 SCT035 SCT250 28/21 A2990=
200505292100 METAR MROC 292100Z 20004KT 9999 SCT025 SCT150 BKN250 27/22 A2987 NOSIG=
200505292200 METAR MROC 292200Z 25010KT 9999 FEW008 SCT102 BKN250 25/22 A2987 RMK VSBY N 7KM NOSIG=
200505292300 METAR MROC 292300Z 20004KT 9999 SCT030 SCT140 BKN250 25/21 A2988 NOSIG=
200505300000 METAR MROC 300000Z 12005KT 9999 FEW040 SCT090 BKN250 24/19 A2989 NOSIG=
200505300100 METAR MROC 300100Z 100007KT 9999 FEW040 BKN250 24/18 A2988 NOSIG=
200505300200 METAR MROC 300200Z 12007KT CAVOK 23/17 A2988 NOSIG=
200505300300 METAR MROC 300300Z 08005KT CAVOK 23/18 A2990 NOSIG=
200505300400 METAR MROC 300400Z 26005KT 9999 FEW010 BKN250 21/21 A2992=
200505300500 METAR MROC 300500Z 05004KT 9999 2000SW BR FEW001 SCT015 BKN250 21/20 A2993 NOSIG=
200505300600 METAR MROC 300600Z 07004KT 9999 FEW015 BKN250 20/19 A2992 RMK LTNG DST SW NOSIG=
200505300700 METAR MROC 300700Z 08006KT CAVOK 20/18 A2991=
200505300800 METAR MROC 300800Z 05010KT CAVOK 21/18 A2988=
200505300900 METAR MROC 300900Z 05009KT CAVOK 20/17 A2988 NOSIG=
200505301000 METAR MROC 301000Z 09009KT CAVOK 21/17 A2988=
200505301100 METAR MROC 301100Z 09006KT CAVOK 21/17 A2990=
200505301200 METAR MROC 301200Z 10007KT 9999 FEW045 SCT120 BKN250 21/17 A2992=
200505301300 METAR MROC 301300Z 12010KT CAVOK 22/18 A2991 NOSIG=
200505301400 METAR MROC 301400Z 11011KT 9999 FEW035 SCT140 BKN250 25/19 A2994 NOSIG=
200505301500 METAR MROC 301500Z 10012KT 9999 FEW035 BKN250 25/19 A2994 NOSIG=
200505301600 METAR MROC 301600Z 10008KT 9999 FEW040 BKN250 27/19 A2994 NOSIG=
200505301700 METAR MROC 301700Z 12013KT CAVOK 28/18 A2992 NOSIG=
200505301800 METAR MROC 301800Z 10008KT CAVOK 30/18 A2991 NOSIG=
200505301900 METAR MROC 301900Z 23006KT CAVOK 28/22 A2988 BECMG BKN250=
200505302000 METAR MROC 302000Z 24010KT 9999 FEW025 BKN250 27/21 A2987=
200505302100 METAR MROC 302100Z 22007KT 9999 FEW030 BKN250 26/21 A2987 NOSIG=
200505302200 METAR MROC 302200Z 24009KT 9999 FEW030 BKN250 25/21 A2986 NOSIG=
200505302300 METAR MROC 302300Z 21003KT 8000 FEW008 SCT020 SCT250 24/22 A2987 RMK=
200505310000 METAR MROC 310000Z 24004KT 6000 -RA BR FEW003 BKN015 23/22 A2990=
200505310100 METAR MROC 310100Z 25007KT 7000 VCFG FEW003 SCT008 SCT100 22/22 A2990 BECMG 5000 -RA BR=
200505310200 METAR MROC 310200Z 26007KT 7000 3000SW BR FEW002 SCT010 22/21 A2991 BECMG VRB03 6000 VCFG=
200505310300 METAR MROC 310300Z 23004KT 6000 3000SW -DZ BR FEW005 BKN010 22/21 A2993 BECMG 8000 -DZ=
200505310400 METAR MROC 310400Z 00000KT 5000 VCFG FEW010 BKN015 22/21 A2994 NOSIG=
200505310500 METAR MROC 310500Z 00000KT 7000 VCFG FEW010 SCT020 22/21 A2993 BECMG 03006=
200505310600 METAR MROC 310600Z 00000KT 7000 VCFG FEW008 SCT018 22/21 A2992=
200505310700 METAR MROC 310700Z 00000KT 6000 VCFG FEW004 BKN018 22/21 A2989=
200505310800 METAR MROC 310800Z 24008KT 0500 VV/// 21/21 A2989=
200505310900 METAR MROC 310900Z 28006KT 7000 VCFG FEW004 SCT030 BKN100 20/19 A2989=
200505311000 METAR MROC 311000Z 00000KT 9999 FEW005 SCT030 BKN100 20/19 A2990=
200505311100 METAR MROC 311100Z 29003KT 9999 SCT030 BKN100 20/19 A2991=
200505311200 METAR MROC 311200Z 12003KT 9999 SCT025 BKN180 20/19 A2992=
200505311300 METAR MROC 311300Z 05004KT CAVOK 22/19 A2994 NOSIG=
200505311400 METAR MROC 311400Z 14005KT 9999 FEW002 SCT120 BKN250 24/19 A2995 RMK 8000SW VCFG BECMG 24006KT=
200505311500 METAR MROC 311500Z 28005KT 9999 FEW030 BKN250 24/21 A2996 NOSIG=
200505311600 METAR MROC 311600Z 20003KT 9999 SCT030 BKN250 27/22 A2996 NOSIG=
200505311700 METAR MROC 311700Z 11011KT 9999 SCT030 BKN250 27/20 A2994=
200505311800 METAR MROC 311800Z 12010KT 9999 FEW035 SCT120 BKN250 27/18 A2992=
200505311900 METAR MROC 311900Z 11010KT 9999 FEW035 BKN250 28/19 A2990=
200505312000 METAR MROC 312000Z 20005KT 9999 FEW015 SCT030 SCT120 27/19 A2989 RMK RN DST E=
200505312100 METAR MROC 312100Z 21007KT 9000 4000SW -TSRA SCT010CB SCT030 23/20 A2990 RMK TMTA AL WSW SW CIZALLADURA AL SW WSW BECMG 3000=
200505312200 METAR MROC 312200Z 23003KT 9999 -RA FEW035 OVC100 21/20 A2991 NOSIG=
200505312300 METAR MROC 312300Z 33005KT 5000 -RA BR FEW003 SCT007 OVC100 20/20 A2994 NOSIG=
200506010000 METAR MROC 010000Z 33003KT 9999 -RA FEW005 OVC120 21/20 A2993 BECMG 6000 VCFG=
200506010100 METAR MROC 010100Z 00000KT 9999 FEW008 OVC120 20/19 A2995 NOSIG=
200506010200 METAR MROC 010200Z 28003KT 9999 FEW010 OVC120 20/19 A2997 BECMG 05006KT CAVOK=
200506010300 METAR MROC 010300Z 00000KT 9999 FEW010 OVC130 20/19 A2998 NOSIG=
200506010400 METAR MROC 010400Z 00000KT CAVOK 20/19 A2997 NOSIG=
200506010500 METAR MROC 010500Z 00000KT CAVOK 20/19 A2997 NOSIG=
200506010600 METAR MROC 010600Z 00000KT CAVOK 20/19 A2997 NOSIG=
200506010700 METAR MROC 010700Z 05003KT CAVOK 19/18 A2995 NOSIG=
200506010800 METAR MROC 010800Z 00000KT CAVOK 19/18 A2993 NOSIG=
200506010900 METAR MROC 010900Z 00000KT CAVOK 19/18 A2993 NOSIG=
200506011000 METAR MROC 011000Z 00000KT CAVOK 19/18 A2994 NOSIG=
200506011100 METAR MROC 011100Z 12003KT CAVOK 19/18 A2994 NOSIG=
200506011200 METAR MROC 011200Z 06007KT CAVOK 20/18 A2995 NOSIG=
200506011300 METAR MROC 011300Z 11004KT CAVOK 22/19 A2996 BECMG 24006KT=
200506011400 METAR MROC 011400Z VRB03KT CAVOK 24/19 A2996 BECMG 24006KT 9999 FEW030=
200506011500 METAR MROC 011500Z 24005KT 9999 FEW045 SCT140 24/20 A2998 NOSIG=
200506011600 METAR MROC 011600Z 25007KT 9999 FEW040 SCT140 BKN250 26/20 A2997 NOSIG=
200506011700 METAR MROC 011700Z 25010KT 9999 FEW035 SCT140 BKN250 25/20 A2998 NOSIG=
200506011800 METAR MROC 011800Z 25012KT 9999 FEW025TCU BKN120 24/20 A2996 BECMG 6000 VCSH=
200506011900 METAR MROC 011900Z 25011KT 9999 SCT017TCU SCT030 25/21 A2994 BECMG 4000 TSRA=
200506012000 METAR MROC 012000Z 26014KT 9999 -RA FEW015CB SCT020 BKN080 23/21 A2994 BECMG RMK VIS S SSE 7KMS=
200506012100 METAR MROC 012100Z 26009KT 9999 -RA FEW008 SCT020 BKN080 22/20 A2992=
200506012300 METAR MROC 012300Z 24004KT 9999 3000SW BR FEW002 SCT015 BKN090 22/20 A2994 BECMG 8000 BR=
200506020000 METAR MROC 020000Z 33003KT 9999 FEW002 SCT010 BKN090 22/20 A2996 NOSIG=
200506020100 METAR MROC 020100Z 00000KT 9999 SCT010 BKN100 22/20 A2997 BECMG 6000 BR=
200506020200 METAR MROC 020200Z 00000KT 9999 SCT015 BKN100 21/20 A2998=
200506020300 METAR MROC 020300Z 00000KT 9999 FEW030 BKN120 21/20 A2999=
200506020400 METAR MROC 020400Z 30004KT 9999 FEW015 SCT120 21/20 A2999=
200506020500 METAR MROC 020500Z 00000KT 9999 FEW008 SCT120 21/20 A2999 RMK 7000 SSW W VCFG=
200506020600 METAR MROC 020600Z 00000KT 9999 FEW007 SCT120 20/20 A2997 RMK 5000 SW BR=
200506020700 METAR MROC 020700Z 00000KT 8000 3000SW BR FEW002 SCT025 SCT120 20/19 A2996 BECMG 5000=
200506020800 METAR MROC 020800Z VRB03KT 5000 BR FEW004 BKN025 21/20 A2996 BECMG 8000=
200506020900 METAR MROC 020900Z 02003KT 9999 FEW003 SCT025 BKN120 20/20 A2994 RMK 6000 S/SW DUE ST BECMG 05006KT 9999=
200506021000 METAR MROC 021000Z 04003KT 9999 FEW025 BKN120 20/19 A2993 BECMG CAVOK=
200506021100 METAR MROC 021100Z VRB03KT CAVOK 19/19 A2993 NOSIG=
200506021200 METAR MROC 021200Z 04006KT CAVOK 20/18 A2994=
200506021300 METAR MROC 021300Z 11004KT CAVOK 23/20 A2996=
200506021400 METAR MROC 021400Z 11004KT 9999 FEW035 BKN120 26/20 A2997=
200506021500 METAR MROC 021500Z 24006KT 9999 FEW035 SCT120 BKN260 27/21 A2997=
200506021600 METAR MROC 021600Z 25009KT 9999 FEW035 BKN260 27/21 A2997=
200506021700 METAR MROC 021700Z 27012KT 9999 SCT035 27/20 A2995=
200506021800 METAR MROC 021800Z 25011KT 9999 SCT035 27/21 A2994 NOSIG=
200506021900 METAR MROC 021900Z 25013KT 9999 FEW020 SCT035 27/21 A2991 RMK RN DST SE=
200506022000 METAR MROC 022000Z 28011KT 9999 4000SW -DZ FEW020 BKN030 23/21 A2989 NOSIG=
200506022100 METAR MROC 022100Z 24011KT 4000 -RA BR FEW004 BKN015 22/21 A2990=
200506022200 METAR MROC 022200Z 33005KT 7000 FEW006 SCT020 BKN100 21/20 A2988=
200506022300 METAR MROC 022300Z 30004KT 8000 FEW006 SCT020 BKN110 22/21 A2990=
200506030000 METAR MROC 030000Z 29003KT 8000 -RA FEW006 SCT025 BKN120 22/21 A2992=
200506030100 METAR MROC 030100Z 00000KT 8000 FEW005 SCT025 BKN120 22/21 A2994=
200506030200 METAR MROC 030200Z 00000KT 9999 FEW007 SCT025 BKN120 22/21 A2995=
200506030300 METAR MROC 030300Z 00000KT 9999 FEW008 SCT025 BKN120 21/21 A2996 NOSIG=
200506030400 METAR MROC 030400Z 00000KT 0500 FG VV/// 21/20 A2996 BECMG 4000 BR RMK VIS N QD UNLTD=
200506030500 METAR MROC 030500Z 00000KT 5000 BR SCT004 SCT025 BKN130 21/20 A2995 NOSIG=
200506030600 METAR MROC 030600Z 00000KT 8000 VCFG FEW004 SCT020 BKN130 21/20 A2994 NOSIG=
200506030700 METAR MROC 030700Z 00000KT 0500 FG VV/// 21/20 A2990 NOSIG=
200506030800 METAR MROC 030800Z 00000KT 9999 FEW002 SCT010 BKN250 20/20 A2989 RMK VIS 4KMS SW DUE BR=
200506030900 METAR MROC 030900Z 06003KT 9999 FEW003 BKN250 20/19 A2989 RMK VIS SSW SW 7KMS DUE VCFG NOSIG=
200506031000 METAR MROC 031000Z 03003KT 9999 FEW005 BKN250 19/18 A2989 NOSIG=
200506031100 METAR MROC 031100Z 11003KT CAVOK 18/17 A2990 NOSIG=
200506031200 METAR MROC 031200Z 07004KT CAVOK 18/17 A2991 NOSIG=
200506031300 METAR MROC 031300Z 00000KT CAVOK 22/19 A2992=
200506031400 METAR MROC 031400Z 00000KT CAVOK 25/19 A2995=
200506031500 METAR MROC 031500Z 00000KT 9999 FEW035 SCT250 26/19 A2995=
200506031600 METAR MROC 031600Z 24008KT 9999 FEW035 SCT250 26/20 A2994=
200506031700 METAR MROC 031700Z 24010KT 9999 SCT035 SCT250 26/21 A2993=
200506031800 METAR MROC 031800Z 27009KT 9999 SCT030 SCT250 26/21 A2991=
200506031900 METAR MROC 031900Z 28008KT 9999 SCT020TCU SCT250 26/21 A2989=
200506032000 METAR MROC 032000Z 23004KT 9999 SCT020TCU SCT250 25/22 A2986=
200506032100 METAR MROC 032100Z 24008KT 9999 SCT015TCU BKN250 25/22 A2984 NOSIG=
200506032200 METAR MROC 032200Z 26011KT 9999 SCT008 SCT020 BKN250 24/22 A2984 BECMG 6000 VCFG BKN005 BKN015=
200506032300 METAR MROC 032300Z 25009KT 2000 BR SCT001 BKN004 22/21 A2986 NOSIG=
200506040000 METAR MROC 040000Z 24006KT 2000 BR FEW001 BKN004 21/21 A2988 NOSIG=
200506040100 METAR MROC 040100Z 27005KT 5000 -RA BR FEW001 SCT025 BKN120 21/21 A2991 NOSIG=
200506040200 METAR MROC 040200Z 32004KT 7000 BCFG FEW005 SCT020 BKN120 22/21 A2993 NOSIG=
200506040300 METAR MROC 040300Z 00000KT 9999 FEW008 SCT020 BKN120 22/21 A2994 NOSIG=
200506040400 METAR MROC 040400Z 00000KT 9999 -DZ FEW025 BKN120 22/21 A2994 NOSIG=
200506040500 METAR MROC 040500Z 25003KT 8000 DZ SCT002 BKN110 21/21 A2994=
200506040600 METAR MROC 040600Z VRB02KT 8000 -DZ SCT003 OVC110 21/21 A2992 BECMG 3000 -RA BR=
200506040700 METAR MROC 040700Z 30007KT 9999 -DZ FEW030 OVC110 21/21 A2991 BECMG 6000 BR=
200506040800 METAR MROC 040800Z VRB03KT 9999 FEW040 OVC110 22/21 A2988 NOSIG=
200506040900 METAR MROC 040900Z 04005KT 9999 FEW001 BKN110 21/20 A2987 NOSIG=
200506041000 METAR MROC 041000Z 00000KT 0500 FG VV/// 21/20 A2988=
200506041100 METAR MROC 041100Z 11003KT 3000 BR FEW001 SCT005 BKN110 21/20 A2989 BECMG 9999=
200506041200 METAR MROC NIL=
200506041300 METAR MROC 041300Z 30004KT 9999 3000W BR FEW002 SCT040 BKN120 21/21 A2993 NOSIG=
200506041400 METAR MROC 041400Z 29005KT 5000 BR SCT010 SCT120 23/21 A2993 NOSIG=
200506041500 METAR MROC 041500Z 26003KT 6000 VCFG SCT012 SCT120 25/21 A2994 NOSIG=
200506041600 METAR MROC 041600Z 24004KT 9999 BKN018 26/21 A2994 RMK VSBY N NE 6KM NOSIG=
200506041700 METAR MROC 041700Z 27008KT 9999 SCT020 26/21 A2992 RMK VSBY N NE 6KM=
200506041800 METAR MROC 041800Z 25009KT 9999 FEW015CB SCT030TCU 27/22 A2989 RMK RASH E NOSIG=
200506041900 METAR MROC 041900Z 20004KT 9999 SCT015CB BKN030 23/20 A2989 RMK RASH E NOSIG=
200506042000 METAR MROC 042000Z 23007KT 6000 TS VCSH SCT010CB SCT025 BKN120 22/20 A2988 RMK VSBY SE UNL TS SW=
200506042100 METAR MROC 042100Z 35004KT 4000 -RA BR FEW006 SCT015 BKN090 21/20 A2987=
200506042200 METAR MROC 042200Z 10004KT 8000 -RA VCFG FEW008 SCT015 BKN100 21/20 A2987 RMK 5000SW BR=
200506042300 METAR MROC 042300Z 28003KT 9999 FEW004 BKN120 22/21 A2988 RMK 7000 SE VCSH=
200506050000 METAR MROC 050000Z 00000KT 9999 -RA FEW006 BKN120 22/21 A2991 RMK 5000 SSW SSE BR VCSH=
200506050100 METAR MROC 050100Z 00000KT 7000 -DZ FEW006 BKN120 21/21 A2993=
200506050200 METAR MROC 050200Z 00000KT 7000 VCFG SCT008 SCT120 21/21 A2994=
200506050300 METAR MROC 050300Z 00000KT 8000 3000W BR FEW004 SCT010 SCT120 21/21 A2995 NOSIG=
200506050400 METAR MROC 050400Z 00000KT 1500 BR FEW002 SCT010 SCT120 21/20 A2996 NOSIG=
200506050500 METAR MROC 050500Z 00000KT 6000 VCFG FEW004 SCT020 SCT120 21/20 A2996=
200506050600 METAR MROC 050600Z 32003KT 5000 -RA BR FEW004 SCT020 BKN100 21/20 A2996=
200506050700 METAR MROC 050700Z 00000KT 8000 -DZ FEW008 BKN120 21/20 A2994 NOSIG=
200506050800 METAR MROC 050800Z 00000KT 9999 FEW008 SCT150 21/20 A2993 NOSIG=
200506050900 METAR MROC 050900Z 00000KT 9999 FEW015 SCT150 21/20 A2992 NOSIG=
200506051000 METAR MROC 051000Z 000000KT 8000 -RA FEW015 OVC110 20/20 A2991 NOSIG=
200506051100 METAR MROC 051100Z 03003KT 9999 FEW020 OVC150 20/20 A2991 NOSIG=
200506051200 METAR MROC 051200Z 04003KT CAVOK 21/20 A2991 NOSIG=
200506051300 METAR MROC 051300Z 07005KT CAVOK 22/19 A2992 NOSIG=
200506051400 METAR MROC 051400Z 07003KT CAVOK 25/20 A2993 RMK HZ LEVE SW BECMG 24006=
200506051500 METAR MROC 051500Z 26006KT CAVOK 25/22 A2996 NOSIG=
200506051600 METAR MROC 051600Z 27010KT 9999 SCT020 SCT250 25/21 A2996 RMK CU DES ARND=
200506051700 METAR MROC 051700Z 24012KT 9999 FEW006 SCT015 SCT250 25/21 A2996 RMK 7000 SW VCFG BECMG 6000 VCSH=
200506051800 METAR MROC 051800Z 23010KT 9999 SCT020 BKN120 24/20 A2994 RMK CB RN DST S BECMG 6000 VCSH=
200506051900 METAR MROC 051900Z 26008KT 9999 SCT015 SCT025TCU 25/21 A2992 RMK RN DST E=
200506052000 METAR MROC 052000Z 27006KT 6000 -RA FEW010 SCT020 SCT100 22/21 A2991=
200506052100 METAR MROC 052100Z 28007KT 6000 2000E -RA FEW010 BKN100 21/20 A2990=
200506052200 METAR MROC 052200Z 24010KT 4000 DZ BR FEW003 BKN007 21/20 A2991 BECMG 2000 -RA BR=
200506052300 METAR MROC 052300Z 23007KT 3000 -RA BR FEW002 BKN007 20/19 A2993 RMK L0W ST/ FG OVR AP07 NOSIG=
200506060000 METAR MROC 060000Z 22003KT 3000 -RA BR FEW001 SCT005 OVC100 20/19 A2995 BECMG 6000 RMK CONDICIONES VARIABLES=
200506060100 METAR MROC 060100Z 34004KT 2000 RA BR FEW001 SCT006 OVC100 20/19 A2998 BECMG 4000=
200506060200 METAR MROC 060200Z 19003KT 0500 -RA FG VV/// 20/19 A3000 NOSIG=
200506060300 METAR MROC 060300Z 19003KT 1000 RA BR SCT002 BKN005 19/19 A3002 NOSIG=
200506060400 METAR MROC 060400Z 07005KT 9999 -RA FEW004 SCT030 BKN100 19/19 A3002 NOSIG=
200506060500 METAR MROC 060500Z 08004KT 9999 -RA SCT030 BKN100 19/19 A3001 NOSIG=
200506060600 METAR MROC 060600Z 08003KT 9999 -RA FEW030 BKN100 19/19 A3001 NOSIG=
200506060700 METAR MROC 060700Z 00000KT 9999 -RA FEW030 BKN100 19/19 A2999 NOSIG=
200506060800 METAR MROC 060800Z 00000KT 9999 FEW035 SCT100 19/19 A2997 NOSIG=
200506060900 METAR MROC 060900Z 00000KT 9999 FEW020 BKN120 19/19 A2997 NOSIG=
200506061000 METAR MROC 061000Z 00000KT 9999 FEW015 BKN120 19/18 A2996 NOSIG=
200506061100 METAR MROC 061100Z 10004KT CAVOK 19/18 A2995 NOSIG=
200506061200 METAR MROC 061200Z 03005KT CAVOK 19/18 A2997 NOSIG=
200506061300 METAR MROC 061300Z 07005KT CAVOK 21/19 A2997 BECMG 24006KT 9999 SCT020=
200506061400 METAR MROC 061400Z 10006KT CAVOK 23/19 A2998 NOSIG=
200506061500 METAR MROC 061500Z 12003KT CAVOK 25/19 A2999 NOSIG=
200506061600 METAR MROC 061600Z VRB03KT 9999 FEW040 SCT140 BKN250 28/18 A2998 BECMG 24006KT=
200506061700 METAR MROC 061700Z 24004KT 9999 FEW040 SCT250 28/18 A2997 NOSIG=
200506061800 METAR MROC 061800Z 23007KT 9999 FEW035 BKN140 27/18 A2997 NOSIG=
200506061900 METAR MROC 061900Z 25009KT 9999 FEW035 BKN130 27/20 A2995 BECMG 6000=
200506062000 METAR MROC 062000Z 24011KT 9999 DZ FEW007 SCT025 BKN100 22/21 A2994 RMK VIS ENE 7KMS BECMG 6000=
200506062100 METAR MROC 062100Z 22007KT 9999 FEW007 SCT025 BKN120 24/20 A2992=
200506062200 METAR MROC 062200Z 26008KT 9999 SCT020 SCT120 BKN250 25/20 A2990=
200506062300 METAR MROC 062300Z 24009KT 9999 SCT020 BKN250 24/20 A2992=
200506070000 METAR MROC 070000Z 25008KT 9999 SCT025 SCT120 BKN250 23/20 A2994 NOSIG=
200506070100 METAR MROC 070100Z 27006KT 9999 FEW035 SCT120 BKN250 22/20 A2995 NOSIG=
200506070200 METAR MROC 070200Z 31005KT 9999 FEW015 SCT120 21/19 A2996 NOSIG=
200506070300 METAR MROC 070300Z 33003KT 9999 FEW008 SCT120 21/19 A2998=
200506070400 METAR MROC 070400Z 30003KT 9999 FEW020 SCT120 21/19 A3000=
200506070500 METAR MROC 070500Z 00000KT 9999 FEW025 SCT120 21/19 A2998=
200506070600 METAR MROC 070600Z 00000KT CAVOK 20/19 A2996=
200506070700 METAR MROC 070700Z 03005KT CAVOK 20/19 A2993 NOSIG=
200506070800 METAR MROC 070800Z VRB03KT CAVOK 20/19 A2991 NOSIG=
200506070900 METAR MROC 070900Z 07004KT CAVOK 20/18 A2990 NOSIG=
200506071000 METAR MROC 071000Z 00000KT CAVOK 20/18 A2990 NOSIG=
200506071100 METAR MROC 071100Z 00000KT CAVOK 20/19 A2991=
200506071200 METAR MROC 071200Z 00000KT CAVOK 20/18 A2993 RMK CB DST S=
200506071300 METAR MROC 071300Z 12003KT CAVOK 22/20 A2994=
200506071400 METAR MROC 071400Z 24005KT 9999 FEW040 SCT120 24/19 A2996 NOSIG=
200506071500 METAR MROC 071500Z 28007KT 9999 SCT040 BKN120 24/20 A2997=
200506071600 METAR MROC 071600Z 26010KT 9999 SCT030 BKN120 25/20 A2997=
200506071700 METAR MROC 071700Z 30012KT 9999 FEW008 SCT030 BKN110 22/20 A2997 BECMG 8000 RA=
200506071800 METAR MROC 071800Z 27007KT 9999 FEW010 BKN030 25/21 A2993 NOSIG=
200506071900 METAR MROC 071900Z 25013KT 9999 3000N RA FEW010 SCT030 BKN110 24/21 A2992 BECMG 8000 -RA=
200506072000 METAR MROC 072000Z 34014KT 9999 FEW005 SCT020 BKN100 22/21 A2990 BECMG 8000 RA=
200506072100 METAR MROC 072100Z 27010KT 2000 +RA BR OVC005 22/20 A2992=
200506072130 METAR MROC 072130Z 27010KT 2000 +RA BR OVC005 22/20 A2992=
200506072200 METAR MROC 072200Z 28009KT 1000 +RA BR SCT002 SCT006 BKN015 20/20 A2991=
200506072300 METAR MROC 072300Z 32005KT 6000 -RA FEW005 SCT020 OVC100 20/20 A2992 NOSIG=
200506080000 METAR MROC 080000Z 34005KT 8000 RA SCT008 OVC100 20/20 A2993 NOSIG=
200506080100 METAR MROC 080100Z 30003KT 9999 RA FEW020 OVC100 20/19 A2993=
200506080200 METAR MROC 080200Z 00000KT 9999 -RA FEW020 OVC100 20/19 A2994=
200506080300 METAR MROC 080300Z 00000KT 9999 -RA FEW010 BKN020 20/19 A2997 BECMG 04006KT=
200506080400 METAR MROC 080400Z 32003KT 9999 SCT010 BKN020 20/19 A2999 NOSIG=
200506080500 METAR MROC 080500Z 00000KT 9999 SCT010 BKN020 20/20 A2997 NOSIG=
200506080600 METAR MROC 080600Z 00000KT 9999 FEW010 SCT025 BKN100 20/19 A2996 NOSIG=
200506080700 METAR MROC 080700Z 00000KT 9999 FEW025 SCT100 BKN250 19/19 A2992 NOSIG=
200506080800 METAR MROC 080800Z 08005KT CAVOK 19/18 A2991 NOSIG=
200506080900 METAR MROC 080900Z 00000KT CAVOK 18/18 A2990 NOSIG=
200506081000 METAR MROC 081000Z 07004KT CAVOK 19/18 A2989 NOSIG=
200506081100 METAR MROC 081100Z 06003KT CAVOK 19/18 A2989 NOSIG=
200506081200 METAR MROC 081200Z 03003KT 9999 SCT030 BKN100 20/19 A2992 NOSIG=
200506081300 METAR MROC 081300Z 00000KT 9999 SCT030 BKN100 21/19 A2992=
200506081400 METAR MROC 081400Z 02004KT 9999 SCT030 BKN120 23/19 A2993=
200506081500 METAR MROC 081500Z 26005KT 9999 SCT020 BKN120 26/20 A2994=
200506081600 METAR MROC 081600Z 23005KT 9999 SCT020 BKN120 25/21 A2993=
200506081700 METAR MROC 081700Z 27008KT 5000 -RA SCT015 BKN100 22/21 A2993=
200506081800 METAR MROC 081800Z 27009KT 7000 2000W -RA BR FEW002 SCT007 OVC100 22/21 A2992 BECMG 2000 +RA=
200506081900 METAR MROC 081900Z 24006KT 9999 2000E RA FEW010TCU SCT020 BKN120 25/24 A2980=
200506081935 METAR MROC 081935Z 24006KT 9999 2000E RA FEW010TCU SCT020 BKN120 25/24 A2980=
200506082000 METAR MROC 082000Z 25008KT 8000 -RA SCT020 BKN090 22/20 A2989=
200506082100 METAR MROC 082100Z 26005KT 7000 -DZ FEW005 SCT012 BKN080 23/21 A2987 BECMG RMK VSBY SE S E UNL=
200506082200 METAR MROC 082200Z 31005KT 6000 -RA FEW006 BKN012 22/21 A2987 NOSIG=
200506082300 METAR MROC 082300Z 32005KT 9999 4000S -RA BR BKN008 BKN120 22/20 A2987 NOSIG=
200506090000 METAR MROC 090000Z 20003KT 3000 TSRA BR FEW006CB BKN010 20/20 A2990 RMK TS SW=
200506090100 METAR MROC 090100Z 00000KT 6000 -RA VCFG FEW005 SCT025 BKN100 20/20 A2992 NOSIG=
200506090300 METAR MROC 090300Z 12004KT 9999 5000SW VCFG FEW001 SCT008 BKN100 21/20 A2991 NOSIG=
200506090400 METAR MROC 090400Z 32008KT 9999 4000SW VCFG FEW001 SCT005 BKN100 21/20 A2993 NOSIG=
200506090500 METAR MROC 090500Z 18004KT 0500 FG VV/// 20/20 A2994 NOSIG=
200506090600 METAR MROC 090600Z 01012KT 9999 FEW005 BKN100 20/20 A2993 NOSIG=
200506090700 METAR MROC 090700Z 04003KT 9999 FEW015 BKN100 20/20 A2991=
200506090800 METAR MROC 090800Z 12002KT 9999 FEW015 BKN100 20/19 A2989=
200506090900 METAR MROC 090900Z 08002KT 9999 FEW015 BKN100 20/19 A2990=
200506091000 METAR MROC 091000Z 00000KT 9999 FEW015 BKN100 20/19 A2990=
200506091100 METAR MROC 091100Z 09006KT CAVOK 20/19 A2988=
200506091200 METAR MROC 091200Z 06005KT CAVOK 20/19 A2991 NOSIG=
200506091300 METAR MROC 091300Z 00000KT 9999 BKN020 SCT120 22/19 A2993 NOSIG=
200506091400 METAR MROC 091400Z 09004KT 9999 FEW025 SCT120 BKN270 24/20 A2994 RMK CB DST SW NOSIG=
200506091500 METAR MROC 091500Z VRB03KT 9999 FEW025 SCT120 BKN270 25/20 A2993 BECMG RMK CB DST S SW=
200506091600 METAR MROC 091600Z 25006KT 9999 FEW025 BKN270 27/20 A2995 RMK CB S NOSIG=
200506091700 METAR MROC 091700Z 25007KT 9999 SCT020TCU FEW030 BKN250 26/21 A2994 RMK RN SW NOSIG=
200506091800 METAR MROC 091800Z 26009KT 9999 SCT010 SCT030 BKN120 23/21 A2994 NOSIG=
200506091900 METAR MROC 091900Z 29006KT 9999 SCT020 SCT130 BKN270 26/22 A2990 NOSIG=
200506092000 METAR MROC 092000Z 26009KT 9999 SCT015TCU BKN270 27/21 A2988 RMK RASH CB E NOSIG=
200506092100 METAR MROC 092100Z 24011KT 9999 FEW003 BKN020 23/22 A2989 RMK 5000 SW NW BR VCSH BECMG 4000 -RA=
200506092200 METAR MROC 092200Z 25010KT 2000 0800SW -RA FG SCT001 BKN004 22/21 A2988=
200506092300 METAR MROC 092300Z 28006KT 6000 VCFG VCSH FEW002 SCT008 BKN100 22/21 A2988=
200506100000 METAR MROC 100000Z 29006KT 5000 BR VCSH FEW002 SCT008 SCT100 22/21 A2991=
200506100100 METAR MROC 100100Z 02003KT 7000 RA SCT015 BKN090 21/21 A2992=
200506100200 METAR MROC 100200Z 00000KT 9999 FEW025 SCT120 21/21 A2993=
200506100300 METAR MROC 100300Z 00000KT 9999 FEW025 SCT120 21/21 A2994=
200506100400 METAR MROC 100400Z 34003KT 9999 FEW030 SCT120 21/21 A2994=
200506100500 METAR MROC 100500Z 00000KT 9999 FEW030 SCT120 21/20 A2993=
200506100600 METAR MROC 100600Z 00000KT 9999 VCFG FEW004 SCT025 BKN100 21/20 A2995=
200506100700 METAR MROC 100700Z 00000KT 7000 VCFG FEW005 SCT025 BKN100 21/20 A2994=
200506100800 METAR MROC 100800Z 13003KT 9999 FEW025 SCT120 20/20 A2990=
200506100900 METAR MROC 100900Z 31004KT 6000 VCFG FEW004 SCT025 21/20 A2990=
200506101000 METAR MROC 101000Z 03006KT 6000 VCFG FEW004 BKN030 21/20 A2990=
200506101100 METAR MROC 101100Z 21005KT 8000 VCFG FEW003 BKN030 21/20 A2992 BECMG 3000 BR SCT001 BKN030=
200506101200 METAR MROC 101200Z 00000KT 2000 BR BKN004 21/20 A2995=
200506101300 METAR MROC 101300Z 11004KT 9999 FEW005 SCT120 SCT250 22/20 A2992 RMK 7000 SW VCFG=
200506101400 METAR MROC 101400Z 21004KT 9999 4000SW BR VCSH FEW002 BKN120 22/21 A2996=
200506101500 METAR MROC 101500Z 29003KT 3000 BR FEW002 SCT010 SCT120 22/21 A2997=
200506101600 METAR MROC 101600Z 22004KT 7000 VCFG SCT010 SCT120 24/21 A2997=
200506101700 METAR MROC 101700Z 25010KT 8000 VCFG FEW003 SCT015 SCT120 24/21 A2997=
200506101800 METAR MROC 101800Z 25008KT 9999 FEW006 BKN120 23/21 A2997 RMK 7000SW=
200506101900 METAR MROC 101900Z 27004KT 9999 FEW008 BKN120 23/20 A2996=
200506102000 METAR MROC 102000Z 24005KT 9999 FEW020 BKN120 23/20 A2994=
200506102100 METAR MROC 102100Z 24005KT 9999 FEW010 SCT025 OVC120 23/21 A2992 NOSIG=
200506102200 METAR MROC 102200Z 29007KT 9999 FEW010 SCT025 BKN100 23/20 A2995 BECMG 7000 VCFG=
200506102300 METAR MROC 102300Z 31003KT 9999 FEW010 SCT020 OVC120 23/20 A2995 NOSIG=
200506110000 METAR MROC 110000Z 00000KT 9999 FEW020 OVC120 22/20 A2995 NOSIG=
200506110100 METAR MROC 110100Z 06005KT CAVOK 21/19 A2996 NOSIG=
200506110200 METAR MROC 110200Z 25005KT 0200 FG VV/// 20/20 A2996 BECMG 2000 BR=
200506110300 METAR MROC 110300Z 25003KT 0200 FG VV/// 20/20 A2998 NOSIG=
200506110400 METAR MROC 110400Z 00000KT 0100 VV/// 20/20 A2998 NOSIG=
200506110500 METAR MROC 110500Z 10004KT 2000 BR SCT001 SCT005 BKN140 20/20 A2996 BECMG 5000 BR=
200506110600 METAR MROC 110600Z 10006KT 9999 FEW002 BKN140 20/19 A2995 NOSIG=
200506110700 METAR MROC 110700Z 04005KT CAVOK 20/19 A2994 NOSIG=
200506110800 METAR MROC 110800Z 07006KT CAVOK 20/17 A2991 NOSIG=
200506110900 METAR MROC 110900Z 09004KT CAVOK 20/17 A2990 NOSIG=
200506111000 METAR MROC 111000Z VRB03KT 0200 FG VV/// 20/20 A2990=
200506111100 METAR MROC 111100Z 26005KT 1200 BR SCT001 BKN140 19/19 A2994 NOSIG=
200506111200 METAR MROC 111200Z 26006KT 5000 BR SCT003 SCT025 19/19 A2997 NOSIG=
200506111300 METAR MROC 111300Z 02003KT 9999 FEW003 SCT020 OVC120 20/19 A2999 NOSIG=
200506111400 METAR MROC 111400Z 06003KT 9999 FEW020 OVC120 21/19 A2999 NOSIG=
200506111500 METAR MROC 111500Z 10004KT CAVOK 24/19 A2998 BECMG 24006KT=
200506111600 METAR MROC 111600Z 00000KT CAVOK 25/18 A2998 NOSIG=
200506111700 METAR MROC 111700Z 25006KT CAVOK 25/20 A2997 NOSIG=
200506111800 METAR MROC 111800Z 25006KT 9999 FEW015 SCT140 BKN240 24/20 A2997 NOSIG=
200506111900 METAR MROC 111900Z 29007KT 9999 FEW015 SCT140 BKN240 25/20 A2995 NOSIG=
200506112000 METAR MROC 112000Z 23007KT 9999 FEW015 SCT140 BKN250 25/21 A2994 NOSIG=
200506112100 METAR MROC 112100Z 26008KT 9999 FEW025 OVC250 26/21 A2992=
200506112200 METAR MROC 112200Z 25010KT 9999 FEW020 BKN240 24/21 A2991=
200506112300 METAR MROC 112300Z 27007KT 9999 FEW020 BKN250 23/20 A2993=
200506112354 METAR MROC 120000Z 28005KT 9999 FEW015 SCT260 22/21 A2994=
200506120000 METAR MROC 120000Z 28005KT 9999 FEW015 SCT260 22/21 A2994=
200506120100 METAR MROC 120100Z 00000KT 9999 5000SW BR FEW001 SCT020 22/20 A2995=
200506120200 METAR MROC 120200Z 29003KT 9000 4000SW BR SCT003 SCT020 21/21 A2996 BECMG 4000 BR BKN002=
200506120300 METAR MROC 120300Z 32004KT 8000 -DZ VCFG FEW005 SCT020 21/20 A2999=
200506120400 METAR MROC 120400Z 05004KT 9999 FEW003 BKN100 21/20 A2998=
200506121500 MROC 121500Z 00000KT CAVOK 26/17 A2998=
200506121600 METAR MROC 121600Z 26007KT 9999 FEW030 BKN250 27/21 A2993=
200506121700 METAR MROC 121700Z 26011KT 9999 FEW030 BKN250 27/22 A2992=
200506121800 METAR MROC 121800Z 23010KT 9999 FEW020 SCT035 BKN250 27/22 A2992=
200506121900 METAR MROC 121900Z 27010KT 9999 -RA SCT008 BKN020 25/22 A2991=
200506122000 METAR MROC 122000Z 27010KT 7000 3000E DZ FEW004CB SCT020 BKN250 24/22 A2990 RMK TS SE=
200506122100 METAR MROC 122100Z 28006KT 7000 VCFG FEW007CB BKN020 24/22 A2990 BECMG 5000 -RA BR=
200506122200 METAR MROC 122200Z 25006KT 6000 VCFG SCT006 BKN020 23/22 A2989 NOSIG=
200506122300 METAR MROC 122300Z 21004KT 6000 VCFG SCT006 BKN020 23/22 A2990 NOSIG=
200506130000 METAR MROC 130000Z 00000KT 6000 -RA VCFG FEW005 SCT020 BKN150 23/21 A2991=
200506130100 METAR MROC 130100Z 31003KT 6000 VCFG FEW003 SCT015 BKN150 22/22 A2992=
200506130200 METAR MROC 130200Z 00000KT 5000 BR FEW003 BKN012 22/21 A2992 NOSIG=
200506130300 METAR MROC 130300Z 00000KT 4000 BR FEW002 SCT010 BKN140 22/21 A2993=
200506130335 METAR MROC 130335Z 28005KT 0800 FG BKN001 SCT003 22/21 A2993 BECMG 4000 BR=
200506130400 METAR MROC 130400Z 28004KT 2000 BR SCT001 BKN003 22/21 A2993 BECMG 6000=
200506130500 METAR MROC 130500Z 00000KT 0300 FG VV/// 21/21 A2994 NOSIG=
200506130600 METAR MROC 130600Z 07004KT 9999 2000SW BR FEW001 SCT140 BKN250 21/21 A2992 BECMG CAVOK=
200506130700 METAR MROC 130700Z 06004KT CAVOK 20/19 A2990 NOSIG=
200506130800 METAR MROC 130800Z 30003KT 9999 FEW001 BKN250 20/19 A2990 RMK VIS S SSW 6KMS POR BANCO DE NIEBLA NOSIG=
200506130900 METAR MROC 130900Z 00000KT 9999 FEW001 BKN250 19/18 A2988 RMK VIS S SSW 6KMS/BR NOSIG=
200506131000 METAR MROC 131000Z 00000KT 9999 3000S BR FEW001 BKN250 19/18 A2988 BECMG 2000 BR=
200506131100 METAR MROC 131100Z 05005KT 9999 FEW005 SCT300 19/18 A2989 NOSIG=
200506131200 METAR MROC 131200Z 06004KT CAVOK 19/18 A2990 NOSIG=
200506131300 METAR MROC 131300Z 06005KT CAVOK 22/20 A2992 NOSIG=
200506131400 METAR MROC 131400Z 13004KT CAVOK 26/19 A2992 NOSIG=
200506131500 METAR MROC 131500Z 13005KT CAVOK 28/18 A2993=
200506131600 METAR MROC 131600Z 25009KT 9999 FEW040 26/21 A2993=
200506131700 METAR MROC 131700Z 26010KT 9999 SCT030TCU 27/21 A2991=
200506131800 METAR MROC 131800Z 28009KT 7000 VCSH FEW010TCU SCT030 26/22 A2990 BECMG 5000 RA=
200506131900 METAR MROC 131900Z 27010KT 7000 VCSH SCT015CB SCT100 26/21 A2989 BECMG 3000 -TS RA=
200506132000 METAR MROC 132000Z 28006KT 7000 VCSH SCT015 SCT100 26/23 A2985=
200506132100 METAR MROC 132100Z 24005KT 9999 FEW015TCU SCT030 BKN120 25/22 A2984 RMK RASH NE NOSIG=
200506132200 METAR MROC 132200Z 26009KT 9999 SCT020TCU BKN280 25/21 A2983 RMK VSBY N NE 6KM LOW ST NOSIG=
200506132300 METAR MROC 132300Z 27005KT 6000 VCFG FEW006 SCT025 BKN120 23/21 A2984 NOSIG=
200506140000 METAR MROC 140000Z 35005KT 6000 VCFG BKN007 SCT025 23/20 A2986 NOSIG=
200506140100 METAR MROC 140100Z 26005KT 6000 TSRA SCT005 BKN010 FEW015CB 21/19 A2990 NOSIG=
200506140200 METAR MROC 140200Z 32004KT 6000 SCT005 BKN010 20/19 A2993 NOSIG=
200506140300 METAR MROC 140300Z 28005KT 6000 RA FEW002 SCT012 OVC100 20/19 A2995=
200506140400 METAR MROC 140400Z 00000KT 9999 -RA SCT015 OVC100 20/19 A2994=
200506140500 METAR MROC 140500Z 00000KT 9999 -RA FEW012 OVC100 20/19 A2995=
200506140600 METAR MROC 140600Z VRB03KT 2000 BR SCT002 OVC100 20/19 A2993=
200506140640 METAR MROC 140640Z 00000KT 9999 FEW010 SCT030 OVC100 20/19 A2993=
200506140700 METAR MROC 140700Z 00000KT 8000 2000SE SCT010 OVC100 20/20 A2991=
200506140800 METAR MROC 140800Z 00000KT 9999 FEW010 OVC100 20/19 A2989=
200506140900 METAR MROC 140900Z 00000KT 9999 FEW015 OVC120 19/19 A2987=
200506141000 METAR MROC 141000Z 00000KT CAVOK 19/18 A2987=
200506141100 METAR MROC 141100Z 00000KT CAVOK 19/18 A2989 NOSIG=
200506141200 METAR MROC 141200Z 09004KT 9999 FEW030 OVC250 19/18 A2990 NOSIG=
200506141300 METAR MROC 141300Z 12004KT CAVOK 20/19 A2991 NOSIG=
200506141400 METAR MROC 141400Z 00000KT CAVOK 23/20 A2994 NOSIG=
200506141500 METAR MROC 141500Z 20004KT 9999 FEW012 OVC260 24/20 A2996 NOSIG=
200506141600 METAR MROC 141600Z 20003KT 9999 FEW020 OVC270 26/20 A2995 NOSIG=
200506141700 METAR MROC 141700Z 30004KT 9999 FEW025 BKN280 28/20 A2994 NOSIG=
200506141800 METAR MROC 141800Z 23005KT 9999 FEW030 BKN280 28/20 A2993 NOSIG=
200506141900 METAR MROC 141900Z 26009KT 9999 SCT030 BKN280 28/21 A2990 NOSIG=
200506142000 METAR MROC 142000Z 27012KT 9999 FEW015TCU SCT025 BKN280 27/22 A2988 RMK RN SW E NOSIG=
200506142100 METAR MROC 142100Z 24007KT 9999 FEW006 SCT015CB SCT120 24/20 A2989 RMK 6000SW VCSH BECMG 3000 -TSRA=
200506142200 METAR MROC 142200Z 23008KT 4000 VCSH BR FEW003 SCT008 SCT015CB 23/22 A2989 RMK 2500SW NW VCSH BR=
200506142300 METAR MROC 142300Z 25005KT 6000 VCSH FEW003 SCT012 SCT120 22/21 A2993=
200506150000 METAR MROC 150000Z 27004KT 7000 VCSH VCFG FEW003 SCT010 BKN120 22/21 A2993=
200506150100 METAR MROC 150100Z 29003KT 9999 FEW003 SCT010 SCT120 22/21 A2996 RMK 8000SW=
200506150200 METAR MROC 150200Z 32003KT 9999 FEW008 SCT020 BKN120 22/20 A2997=
200506150300 METAR MROC 150300Z 00000KT 9999 SCT035 BKN120 21/20 A3000=
200506150400 METAR MROC 150400Z 36003KT 9999 SCT035 BKN120 22/20 A2998=
200506150500 METAR MROC 150500Z 24005KT 0500 FG VV/// 21/20 A2998 NOSIG=
200506150600 METAR MROC 150600Z 00000KT 2000 BR SCT003 SCT020 21/20 A2998=
200506150700 METAR MROC 150700Z 26005KT 2000 BR SCT003 SCT015 21/20 A2995=
200506150800 METAR MROC 150800Z 28006KT 2000 BR SCT003 BKN010 21/20 A2994=
200506150900 METAR MROC 150900Z 00000KT 4000 BR FEW003 BKN010 21/20 A2992=
200506151000 METAR MROC 151000Z 00000KT 5000 BR FEW004 BKN010 21/20 A2993 NOSIG=
200506151100 METAR MROC 151100Z 10003KT 8000 3000SW BR FEW001 SCT025 21/20 A2994 BECMG 9999=
200506151200 METAR MROC 151200Z 06004KT 9999 FEW025 SCT250 20/20 A2996=
200506151300 METAR MROC 151300Z 00000KT CAVOK 24/21 A2998=
200506151400 METAR MROC 151400Z 25007KT 9999 FEW002 BKN250 23/21 A2999 RMK 6000SW=
200506151500 METAR MROC 151500Z 28007KT 8000 FEW025 BKN250 25/21 A2999 RMK 8000 HZ=
200506151600 METAR MROC 151600Z 25008KT 9999 FEW030 BKN250 26/21 A3000=
200506151700 METAR MROC 151700Z 27008KT 9999 FEW030 BKN250 26/21 A2998=
200506151800 METAR MROC 151800Z 25010KT 9999 FEW030 BKN250 26/21 A2997 RMK HZ LEVE E=
200506151900 METAR MROC 151900Z 24011KT 9999 SCT030 BKN250 26/22 A2995=
200506152000 METAR MROC 152000Z 26008KT 9999 SCT030 SCT250 27/21 A2991=
200506152100 METAR MROC 152100Z 26009KT 9999 FEW025TCU SCT035 28/21 A2989 BECMG 7000 VCSH=
200506152200 METAR MROC 152200Z 23009KT 9999 3000SE VCSH FEW015CB BKN025 25/22 A2990 BECMG 4000 -RA BR=
200506152300 METAR MROC 152300Z 25005KT 9999 FEW008 FEW015CB BKN025 25/22 A2992 BECMG 6000 VCFG=
200506160000 METAR MROC 160000Z 24005KT 9999 FEW005 SCT020TCU BKN035 23/21 A2994 RMK VIS SSE S SSW 8KMS DUE RN/LOW ST BECMG 5000 RA BR=
200506160100 METAR MROC 160100Z 26005KT 8000 VCFG SCT005 BKN010 22/21 A2997 BECMG 4000 BR SCT001 BKN004=
200506160200 METAR MROC 160200Z 00000KT 8000 VCFG FEW003 BKN010 22/20 A2998 BECMG RMK VIS SE S UNLTD=
200506160300 METAR MROC 160300Z 26003KT 5000 BR FEW001 SCT006 BKN025 21/21 A2996 NOSIG=
200506160400 METAR MROC 160400Z 00000KT 6000 VCFG FEW004 BKN010 21/20 A3000 NOSIG=
200506160500 METAR MROC 160500Z 00000KT 6000 -RA VCFG FEW005 SCT010 BKN025 22/21 A3001 NOSIG=
200506160600 METAR MROC 160600Z 00000KT 6000 VCFG FEW005 SCT015 BKN120 22/21 A3001 NOSIG=
200506160700 METAR MROC 160700Z 00000KT 6000 VCFG FEW005 SCT010 BKN035 22/21 A2999 NOSIG=
200506160800 METAR MROC 160800Z 00000KT 9999 6000SW VCFG FEW006 SCT010 BKN035 22/21 A2997 NOSIG=
200506161000 METAR MROC 161000Z 00000KT 5000 BR FEW001 SCT006 BKN030 21/21 A2997 RMK VSBY SW W 3KM NOSIG=
200506161100 METAR MROC 161100Z 00000KT 6000 VCFG FEW002 SCT020 BKN120 21/21 A2998 RMK VSBY SW 4KM NOSIG=
200506161200 METAR MROC 161200Z 00000KT 5000 BR FEW002 SCT020 BKN260 21/21 A3000 NOSIG=
200506161300 METAR MROC 161300Z 00000KT 9999 FEW004 SCT015 23/20 A3001 RMK VIS SE S 8KMS/HZ BECMG CAVOK=
200506161400 METAR MROC 161400Z 00000KT 9999 FEW015 SCT300 24/21 A3001 RMK HZ LGT ARND BECMG 24007KT=
200506161500 METAR MROC 161500Z 24006KT 9999 SCT015 SCT300 24/21 A3002 RMK HZY NOSIG=
200506161600 METAR MROC 161600Z 24006KT 9999 SCT020 SCT300 26/21 A3001 RMK HZY NOSIG=
200506161700 METAR MROC 161700Z 26007KT 9999 FEW030 SCT300 27/21 A2999 NOSIG=
200506161800 METAR MROC 161800Z 26007KT 9999 SCT030 SCT300 27/22 A2997 NOSIG=
200506161900 METAR MROC 161900Z 25010KT 9999 FEW015TCU SCT025 28/23 A2995 RMK CB RASH DST NE BECMG 7000 VCSH=
200506162000 METAR MROC 162000Z 25013KT 9999 -RA FEW015CB BKN025 25/22 A2994 RMK RASH DST E ESE  BECMG 3000 TSRA=
200506162100 METAR MROC 162100Z 25009KT 8000 VCSH FEW010CB BKN025 23/22 A2993=
200506162200 METAR MROC 162200Z 07005KT 9999 5000SW RA FEW010CB SCT030 BKN100 21/19 A2994=
200506162300 METAR MROC 162300Z 00000KT 9999 5000SW BR FEW001 SCT045 BKN100 22/20 A2994=
200506170000 METAR MROC 170000Z 00000KT 9999 FEW005 SCT045 BKN100 21/20 A2997=
200506170100 METAR MROC 170100Z 00000KT 9999 FEW045 BKN100 21/21 A2999=
200506170200 METAR MROC 170200Z 24005KT 9999 DZ FEW045 BKN100 21/21 A3000=
200506170300 METAR MROC 170300Z 00000KT 9999 FEW003 SCT008 BKN100 22/21 A3000 RMK 5000SW BR LGT DST SE=
200506170400 METAR MROC 170400Z 00000KT 9999 FEW010 SCT120 22/21 A3000=
200506170500 METAR MROC 170500Z 22003KT 2000 BR BKN002 21/21 A2998=
200506170600 METAR MROC 170600Z 29003KT 7000 3000SW BR BKN005 21/21 A2999=
200506170700 METAR MROC 170700Z VRB03KT 9999 4000SW BR SCT005 SCT120 21/20 A2995 BECMG 9999=
200506170800 METAR MROC 170800Z 36003KT 9999 FEW005 BKN120 21/20 A2995 BECMG RMK 7000 S/SW DUE ST=
200506170900 METAR MROC 170900Z 36005KT 9999 FEW005 BKN120 21/19 A2994 BECMG RMK 7000 S/SW DUE ST=
200506171000 METAR MROC 171000Z 15003KT 9999 FEW003 SCT120 20/19 A2994 BECMG RMK 6000 S/SW DUE ST=
200506171100 METAR MROC 171100Z 02005KT 9999 FEW003 SCT250 20/19 A2996 BECMG RMK 6000 S/SW DUE ST=
200506171200 METAR MROC 171200Z 10004KT 9999 FEW003 BKN250 20/19 A2996=
200506171300 METAR MROC 171300Z 05004KT CAVOK 23/20 A2999 RMK BKN250=
200506171400 METAR MROC 171400Z 26004KT CAVOK 24/21 A3001=
200506171500 METAR MROC 171500Z 18005KT 9999 FEW040 BKN240 26/20 A2999=
200506171600 METAR MROC 171600Z 25007KT 9999 FEW040 SCT240 27/21 A2999=
200506171700 METAR MROC 171700Z 25009KT 9999 FEW040 SCT260 26/21 A2998 RMK HZ ARND=
200506171800 METAR MROC 171800Z 24012KT 9999 SCT035 27/23 A2997 RMK HZ ARND=
200506171900 METAR MROC 171900Z 24014KT 9999 FEW010TCU SCT035 27/22 A2994 RMK RN N NE=
200506172000 METAR MROC 172000Z 36009KT 9999 2000E VCSH FEW010TCU SCT020 BKN035 24/19 A2994=
200506172100 METAR MROC 172100Z 00000KT 9999 SCT025 BKN120 22/20 A2995 NOSIG=
200506180100 METAR MROC 180100Z 00000KT 8000 FEW006 SCT035 22/21 A2999=
200506180200 METAR MROC 180200Z 00000KT 7000 VCFG FEW006 SCT035 BKN100 22/21 A3001=
200506180300 METAR MROC NIL=
200506180400 METAR MROC NIL=
200506180500 METAR MROC NIL=
200506180600 METAR MROC NIL=
200506180700 METAR MROC NIL=
200506180800 METAR MROC 180800Z 03005KT 9999 FEW030 SCT140 20/19 A2995 NOSIG=
200506181000 METAR MROC 181000Z 06007KT CAVOK 19/18 A2993 NOSIG=
200506181100 METAR MROC 181100Z 04007KT CAVOK 20/18 A2994 NOSIG=
200506181200 METAR MROC 181200Z 04007KT CAVOK 20/18 A2994 NOSIG=
200506181300 METAR MROC 181300Z 00000KT CAVOK 20/19 A2996=
200506181400 METAR MROC 181400Z 09005KT CAVOK 26/20 A2997=
200506181500 METAR MROC 181500Z 09004KT CAVOK 28/19 A2998=
200506181600 METAR MROC 181600Z 23006KT 9999 FEW040 BKN250 26/21 A2998 NOSIG=
200506181700 METAR MROC 181700Z 23005KT 9999 FEW040 BKN250 28/22 A2996=
200506181800 METAR MROC 181800Z 24009KT 9999 SCT030 27/21 A2995=
200506181900 METAR MROC 181900Z 25011KT 9999 BKN020 26/22 A2992=
200506182000 METAR MROC 182000Z 24010KT 9999 SCT025 SCT250 26/22 A2991=
200506182100 METAR MROC 182100Z 22006KT 9999 -RA FEW015TCU SCT030 SCT280 25/21 A2990 BECMG RMK VSBY NE E 7KM DUE RASH=
200506182200 METAR MROC 182200Z 24008KT 7000 VCSH FEW015TCU SCT030 BKN130 23/20 A2991 RMK VSBY SE S SW W UNL NOSIG=
200506182300 METAR MROC 182300Z 25008KT 6000 -TSRA FEW010CB SCT050 BKN130 22/20 A2993 BECMG RMK TS E VSBY SE UNL=
200506190000 METAR MROC 190000Z 31003KT 5000 TSRA SCT007 FEW015CB OVC120 22/21 A2996 BECMG RMK TS SE=
200506190100 METAR MROC 190100Z 00000KT 9999 4000SW BR FEW002 SCT045 OVC120 22/20 A2999 NOSIG=
200506190200 METAR MROC 190200Z 00000KT 9999 RA VCFG FEW002 SCT008 OVC120 21/20 A2999 BECMG RMK VSBY SW 5KM=
200506190300 METAR MROC 190300Z 00000KT 9999 5000SW FEW002 SCT015 BKN120 21/20 A3002=
200506190400 METAR MROC 190400Z 25005KT 9999 3000SW BR FEW002 SCT010 BKN110 21/20 A3002 BECMG 4000 BR=
200506190500 METAR MROC 190500Z 13003KT 9999 4000SW BR FEW002 SCT010 BKN110 21/20 A3001 NOSIG=
200506190600 METAR MROC 190600Z 32004KT 9999 FEW003 SCT020 BKN120 21/20 A2999 NOSIG=
200506190700 METAR MROC 190700Z 32003KT 9999 3000SW BR FEW001 SCT005 BKN120 20/20 A2997 NOSIG=
200506190800 METAR MROC 190800Z 00000KT 9999 5000SW BR FEW001 SCT008 BKN120 19/19 A2995 NOSIG=
200506190900 METAR MROC 190900Z 06004KT 9999 FEW008 SCT025 BKN120 19/18 A2993=
200506191000 METAR MROC 191000Z 07005KT 9999 FEW008 BKN120 18/17 A2992 NOSIG=
200506191100 METAR MROC 191100Z 06008KT CAVOK 18/17 A2992 NOSIG=
200506191200 METAR MROC 191200Z 03006KT CAVOK 22/19 A2997 NOSIG=
200506191300 METAR MROC 191300Z 03006KT CAVOK 22/19 A2997 NOSIG=
200506191400 METAR MROC 191400Z 00000KT CAVOK 25/19 A2997 NOSIG=
200506191500 METAR MROC 191500Z 11009KT CAVOK 27/19 A2996 NOSIG=
200506191600 METAR MROC 191600Z 11007KT 9999 FEW030 SCT300 28/19 A2996 NOSIG=
200506191700 METAR MROC 191700Z 24008KT 9999 FEW035 SCT280 27/21 A2995 NOSIG=
200506191800 METAR MROC 191800Z 24009KT 9999 FEW025 BKN300 27/22 A2994 NOSIG=
200506191900 METAR MROC 191900Z 25009KT 9999 SCT025TCU BKN300 27/22 A2993 BECMG RMK VSBY NE 6KM DUE RASH RN N=
200506192000 METAR MROC 192000Z 25008KT 9999 SCT015TCU SCT030 24/22 A2991 NOSIG=
200506192100 METAR MROC 192100Z 26008KT 7000 3000SW VCSH BR FEW005 SCT015CB SCT120 23/22 A2990 BECMG 5000 BR=
200506192200 METAR MROC 192200Z 26005KT 9999 VCFG FEW007 SCT120 23/22 A2990 RMK 6000SW VCFG=
200506192300 METAR MROC 192300Z 28003KT 6000 VCFG FEW004 SCT120 23/22 A2990=
200506200000 METAR MROC 200000Z 26004KT 6000 2500SW BR FEW002 BKN015 22/21 A2991 BECMG 3000 BR=
200506200100 METAR MROC 200100Z 00000KT 9999 FEW015 SCT250 22/21 A2994=
200506200200 METAR MROC 200200Z 00000KT 9999 FEW020 SCT250 22/21 A2995=
200506200300 METAR MROC 200300Z 01005KT 9999 SCT030 SCT120 23/21 A2996=
200506200400 METAR MROC 200400Z 09003KT 9999 SCT030 SCT130 23/10 A2997=
200506200500 METAR MROC 200500Z 06006KT 9999 SCT030 SCT130 22/19 A2997=
200506200600 METAR MROC 200600Z 29004KT 9999 FEW040 SCT140 21/20 A2997=
200506200700 METAR MROC 200700Z 32003KT 9999 3000W BR SCT004 SCT140 21/20 A2995=
200506200800 METAR MROC 200800Z 33004KT 7000 4000W BR FEW004 SCT140 21/20 A2996=
200506200900 METAR MROC 200900Z 00000KT 9999 -RA FEW035 SCT140 21/20 A2993=
200506201000 METAR MROC 201000Z 04006KT CAVOK 21/19 A2989=
200506201100 METAR MROC 201100Z 01005KT CAVOK 21/19 A2989=
200506201200 METAR MROC 201200Z 00000KT CAVOK 21/18 A2988=
200506201400 METAR MROC 201400Z 36003KT 9999 FEW035 BKN250 25/20 A2999=
200506201500 METAR MROC 201500Z 09004KT 9999 FEW035 BKN250 27/20 A2998=
200506201600 METAR MROC 201600Z 12010KT 9999 FEW035 SCT120 SCT250 26/18 A2998=
200506201700 METAR MROC 201700Z 11007KT 9999 FEW040 BKN250 29/19 A2996=
200506201800 METAR MROC 201800Z 12007KT 9999 FEW040 BKN250 28/19 A2993=
200506201900 METAR MROC 201900Z 09005KT 9999 SCT040 SCT120 29/18 A2994=
200506202000 METAR MROC 202000Z 24009KT 9999 SCT015 BKN120 24/22 A2991 RMK 8000SW=
200506202100 METAR MROC 202100Z 25009KT 5000SW VCSH BR SCT005 BKN015 24/22 A2990 BECMG 3000=
200506202200 METAR MROC 202200Z 25008KT 5000 BR SCT004 BKN010 22/21 A2990 NOSIG=
200506202300 METAR MROC 202300Z 25005KT 7000 VCFG FEW005 SCT010 BKN100 22/21 A2991 BECMG 5000 BR=
200506210000 METAR MROC 210000Z 00000KT 9999 FEW005 OVC100 22/20 A2993 RMK VIS N QUAD 7KMS/VCFG  BECMG 7000=
200506210100 METAR MROC 210100Z 00000KT 9999 FEW010 SCT120 BKN250 21/20 A2994 BECMG CAVOK=
200506210200 METAR MROC 210200Z 21003KT 9999 FEW015 SCT120 BKN250 21/20 A2995 NOSIG=
200506210300 METAR MROC 210300Z 20003KT 9999 FEW015 SCT130 21/20 A2997 NOSIG=
200506210400 METAR MROC 210400Z 35006KT 9999 FEW025 BKN120 21/20 A2999 NOSIG=
200506210500 METAR MROC 210500Z 00000KT CAVOK 21/20 A3000 NOSIG=
200506210600 METAR MROC 210600Z 00000KT CAVOK 20/20 A2997 NOSIG=
200506210700 METAR MROC 210700Z 05003KT CAVOK 20/18 A2995 NOSIG=
200506210800 METAR MROC 210800Z 08003KT CAVOK 19/18 A2995 NOSIG=
200506210900 METAR MROC 210900Z 10004KT CAVOK 19/18 A2993 NOSIG=
200506211000 METAR MROC 211000Z 00000KT CAVOK 19/18 A2993 NOSIG=
200506211100 METAR MROC 211100Z 00000KT CAVOK 19/18 A2994 NOSIG=
200506211200 METAR MROC 211200Z 00000KT CAVOK 19/17 A2996 NOSIG=
200506211300 METAR MROC 211300Z 00000KT 9999 FEW010 BKN025 21/18 A2997 BECMG 24006KT=
200506211400 METAR MROC 211400Z 00000KT 9999 FEW015 SCT025 BKN250 23/20 A3000 RMK HZY NOSIG=
200506211500 METAR MROC 211500Z 00000KT 9999 SCT025 BKN250 25/19 A3000 NOSIG=
200506211600 METAR MROC 211600Z 05003KT 9999 FEW025 BKN250 28/19 A2999 RMK HZ LGT ARND BECMG 24007KT=
200506211700 METAR MROC 211700Z 28005KT 9999 FEW025 BKN250 26/20 A2998 BECMG RMK HZY=
200506211800 METAR MROC 211800Z 27007KT 9999 FEW030 BKN250 28/20 A2997 RMK HZY TCU DST SSW NE NOSIG=
200506211900 METAR MROC 211900Z 24007KT 9999 FEW020TCU SCT035 BKN250 26/20 A2994 BECMG 5000 VCSH SCT015CB RMK CB/RASH DST E=
200506212000 METAR MROC 212000Z 24010KT 7000 TS VCSH SCT015CB BKN030 24/21 A2993 BECMG 4000 TSRA RMK VIS S 4KMS=
200506212100 METAR MROC 212100Z 05006KT 3000 +RA SCT015CB BKN030 20/19 A2994 NOSIG=
200506212200 METAR MROC 212200Z 30005KT 5000 RA FEW001 SCT010 BKN100 20/19 A2996 NOSIG=
200506212300 METAR MROC 212300Z 33007KT 8000 RA FEW005 SCT015 OVC100 20/19 A2997 NOSIG=
200506220000 METAR MROC 220000Z 11009KT 9999 -RA FEW005 OVC100 20/19 A2998=
200506220100 METAR MROC 220100Z 10004KT 9999 -RA FEW015 OVC100 20/19 A3000 NOSIG=
200506220200 METAR MROC 220200Z 00000KT 9999 FEW015 OVC100 21/19 A3001 RERA=
200506220300 METAR MROC 220300Z 00000KT 9999 -DZ FEW003 BKN100 20/19 A3001 RMK 7000SW=
200506220400 METAR MROC 220400Z 36003KT 9999 FEW004 BKN250 20/19 A3002 RMK 7000SW=
200506220500 METAR MROC 220500Z 00000KT 9999 FEW004 BKN250 19/18 A3001=
200506220600 METAR MROC 220600Z 06006KT CAVOK 18/17 A2998=
200506220700 METAR MROC 220700Z 05004KT CAVOK 18/18 A2998 NOSIG=
200506220800 METAR MROC 220800Z 11003KT CAVOK 18/17 A2998 NOSIG=
200506220900 METAR MROC 220900Z 07006KT CAVOK 18/17 A2996 NOSIG=
200506221000 METAR MROC 221000Z 08005KT CAVOK 19/17 A2996 NOSIG=
200506221100 METAR MROC 221100Z 08003KT CAVOK 19/17 A2996 NOSIG=
200506221200 METAR MROC 221200Z 10003KT CAVOK 19/17 A2997 RMK CB DST SW=
200506221300 METAR MROC 221300Z 05004KT CAVOK 20/18 A2999 NOSIG=
200506221400 METAR MROC 221400Z 19002KT CAVOK 21/18 A3001 NOSIG=
200506221500 METAR MROC 221500Z 00000KT 9999 FEW045 SCT130 BKN250 23/19 A3003 NOSIG=
200506221600 METAR MROC 221600Z 00000KT 9999 FEW045 SCT130 BKN250 24/20 A3003 NOSIG=
200506221700 METAR MROC 221700Z 29004KT 9999 FEW040 SCT130 BKN250 26/20 A3001 NOSIG=
200506221800 METAR MROC 221800Z 24004KT 9999 FEW040 BKN250 27/20 A2999 NOSIG=
200506221900 METAR MROC 221900Z 25004KT 9999 SCT035 BKN250 29/20 A2997 NOSIG=
200506222000 METAR MROC 222000Z 25015KT 9999 6000SW VCFG FEW003 SCT010 BKN035 24/22 A2996 NOSIG=
200506222100 METAR MROC 222100Z 25013KT 6000 VCFG SCT002 BKN010 22/21 A2995 BECMG 3000 BR BKN001=
200506222200 METAR MROC 222200Z 32003KT 6000 VCSH BKN004 FEW010CB 22/21 A2997 BECMG 1500 TS RA=
200506230000 METAR MROC 230000Z 07003KT 9999 -RA FEW009 OVC100 20/19 A2997 NOSIG=
200506230100 METAR MROC 230100Z 02006KT 9999 FEW010 OVC100 20/19 A2998=
200506230200 METAR MROC 230200Z 00000KT CAVOK 20/19 A2999=
200506230300 METAR MROC 230300Z 03003KT 9999 SCT030 BKN100 20/19 A3001 NOSIG=
200506230400 METAR MROC 230400Z 00000KT 9999 FEW035 SCT120 BKN250 20/19 A3000 NOSIG=
200506230500 METAR MROC 230500Z 02004KT CAVOK 20/19 A3000 NOSIG=
200506230600 METAR MROC 230600Z 00000KT CAVOK 19/18 A3000 NOSIG=
200506230700 METAR MROC 230700Z 00000KT 9999 FEW025 SCT120 BKN250 19/17 A2998 NOSIG=
200506230800 METAR MROC 230800Z 08003KT 9999 FEW025 BKN120 19/18 A2997 NOSIG=
200506230900 METAR MROC 230900Z 05004KT 9999 FEW025 SCT120 19/18 A2996 RMK LTNG DST S SSE=
200506231000 METAR MROC 231000Z 04006KT 9999 FEW030 SCT100 19/18 A2996 NOSIG=
200506231100 METAR MROC 231100Z 03007KT CAVOK 18/17 A2996 NOSIG=
200506231200 METAR MROC 231200Z 07007KT CAVOK 18/17 A2998 NOSIG=
200506231300 METAR MROC 231300Z 00000KT CAVOK 19/17 A2999=
200506231400 METAR MROC 231400Z 00000KT CAVOK 23/18 A2999=
200506231500 METAR MROC 231500Z 00000KT CAVOK 25/18 A3001=
200506231600 METAR MROC 231600Z 00000KT 9999 FEW035 BKN250 25/20 A3001 BECMG 24006KT=
200506231700 METAR MROC 231700Z 22006KT 9999 FEW035 BKN250 24/20 A3000=
200506231800 METAR MROC 231800Z 27009KT 9999 SCT030 BKN250 26/20 A3000=
200506231900 METAR MROC 231900Z 26009KT 9999 FEW010TCU SCT030 BKN250 24/21 A2998 BECMG 5000 VCSH=
200506232000 METAR MROC 232000Z 24008KT 9999 SCT020TCU SCT120 BKN250 25/21 A2996 BECMG 5000 VCSH=
200506232100 METAR MROC 232100Z 24010KT 9999 SCT020 SCT130 BKN260 25/21 A2994 BECMG RMK RASH/CB E=
200506232200 METAR MROC 232200Z 23006KT 9999 FEW012 SCT025 BKN120 24/21 A2994 BECMG RMK RASH E=
200506232300 METAR MROC 232300Z 25006KT 9999 FEW010 BKN120 23/21 A2994 BECMG RMK VSBY E 7KM DUE RASH VSBY N NE 6KM DUE LOW ST=
200506240000 METAR MROC 240000Z 00000KT 7000 RA VCFG FEW008 OVC100 22/21 A2995 BECMG RMK VSBY SE UNL=
200506240300 METAR MROC 240300Z 13002KT 9999 FEW020 OVC100 20/20 A3000 NOSIG=
200506240500 METAR MROC 240500Z 10012KT 9999 FEW015 BKN100 20/19 A3001 NOSIG=
200506240600 METAR MROC 240600Z 08002KT 9999 FEW015 BKN110 20/19 A3000 NOSIG=
200506240700 METAR MROC 240700Z 10002KT 9999 FEW015 BKN110 20/19 A2999 NOSIG=
200506240800 METAR MROC 240800Z 07004KT 9999 FEW015 BKN110 20/18 A2997 NOSIG=
200506241000 METAR MROC 241000Z 10006KT 9999 FEW020 BKN120 19/18 A2995 NOSIG=
200506241100 METAR MROC 241100Z 07005KT CAVOK 18/17 A2995 NOSIG=
200506241200 METAR MROC 241200Z 07007KT CAVOK 19/17 A2995 NOSIG=
200506241300 METAR MROC 241300Z 08004KT CAVOK 22/18 A2997 BECMG RMK CB DST S=
200506241400 METAR MROC 241400Z 23005KT 9999 FEW020 SCT130 24/20 A2999 BECMG RMK CB S=
200506241500 METAR MROC 241500Z 23006KT 9999 FEW025 BKN120 23/19 A3000 NOSIG=
200506241600 METAR MROC 241600Z 26007KT 9999 SCT015 BKN120 24/20 A3001 NOSIG=
200506241700 METAR MROC 241700Z 27007KT 9999 SCT020 SCT120 26/20 A2999 NOSIG=
200506241800 METAR MROC 241800Z 27007KT 9999 SCT025 SCT120 26/20 A2997 NOSIG=
200506241900 METAR MROC 241900Z 25008KT 9999 FEW015CB SCT030 SCT250 27/21 A2995 BECMG RMK CB/RN E NE=
200506242000 METAR MROC 242000Z 26009KT 9999 SCT015CB SCT025 BKN120 25/21 A2992 BECMG 7000 TSRA RMK CB RN ARND=
200506242100 METAR MROC 242100Z 20005KT 6000 VCSH FEW008 SCT015CB BKN100 23/19 A2992 RMK 3000SE BECMG 4000 -TSRA=
200506242200 METAR MROC 242200Z 30003KT 8000 3500SW BR VCSH FEW005 SCT025 BKN100 22/19 A2993=
200506242300 METAR MROC 242300Z 30008KT 6000 -RA VCFG FEW005 BKN020 21/20 A2995=
200506250000 METAR MROC 250000Z 02006KT 5000 RA SCT015 OVC080 20/19 A2997=
200506250100 METAR MROC 250100Z 00000KT 7000 RA SCT015 OVC080 20/19 A2998=
200506250200 METAR MROC 250200Z 11003KT 8000 RA FEW025 OVC080 20/19 A2999=
200506250300 METAR MROC 250300Z 07004KT 9999 -RA FEW030 OVC100 20/19 A2999 NOSIG=
200506250400 METAR MROC 250400Z 00000KT 9999 FEW030 OVC100 20/19 A3000=
200506250500 METAR MROC 250500Z 07003KT CAVOK 20/19 A2998=
200506250600 METAR MROC 250600Z 08005KT CAVOK 19/17 A2998=
200506250700 METAR MROC 250700Z 07006KT CAVOK 19/17 A2997 NOSIG=
200506250800 METAR MROC 250800Z 06006KT CAVOK 19/17 A2997  NOSIG=
200506250900 METAR MROC 250900Z 07006KT CAVOK 19/18 A2994 NOSIG=
200506251000 METAR MROC 251000Z 03005KT CAVOK 18/17 A2993 NOSIG=
200506251100 METAR MROC 251100Z 05006KT CAVOK 18/16 A2992 NOSIG=
200506251200 METAR MROC 251200Z 05004KT CAVOK 18/16 A2994 NOSIG=
200506251300 METAR MROC 251300Z 00000KT CAVOK 22/18 A2998=
200506251400 METAR MROC 251400Z 11003KT CAVOK 23/19 A2998=
200506251500 METAR MROC 251500Z 07003KT CAVOK 26/19 A2996=
200506251600 METAR MROC 251600Z 00000KT CAVOK 29/18 A2995 BECMG 24006KT=
200506251700 METAR MROC 251700Z 25010KT 9999 FEW040 BKN250 27/20 A2994=
200506251800 METAR MROC 251800Z 26011KT 9999 SCT035 BKN250 27/21 A2994=
200506251900 METAR MROC 251900Z 27011KT 9999 FEW020CB BKN025 26/22 A2992 BECMG 6000 TSRA=
200506252000 METAR MROC 252000Z 24010KT 7000 VCSH FEW012CB SCT025TCU SCT120 23/21 A2992 RMK 4000SW/NE=
200506252100 METAR MROC 252100Z 13008KT 0500 +TSRA VV/// 19/19 A2992 RMK GRAN ACUMULACION DE AGUA SOBRE LA PISTA BECMG 4000=
200506252200 METAR MROC 252200Z 00000KT 8000 -TSRA FEW020CB BKN100 19/19 A2991 RMK VIS E SE UNLTD NOSIG=
200506252300 METAR MROC 252300Z 00000KT 9999 -RA FEW020 OVC100 20/20 A2994 RETS RMK VIS NNW NW 8KMS BECMG 7000 -RA BR=
200506260000 METAR MROC 260000Z 00000KT 9999 FEW002 SCT025 OVC100 20/20 A2994 BECMG 6000 VCFG=
200506260100 METAR MROC 260100Z 31003KT 7000 VCFG FEW004 SCT025 BKN100 21/20 A2997 BECMG 4000 BR RMK VIS SE/SSE/S UNLTD=
200506260200 METAR MROC 260200Z 00000KT 7000 VCFG FEW004 SCT025 BKN100 20/20 A2999 BECMG 9999=
200506260300 METAR MROC 260300Z 00000KT 6000 VCFG FEW001 BKN015 20/20 A3001 NOSIG=
200506260400 METAR MROC 260400Z 00000KT 7000 VCFG FEW002 BKN015 20/20 A3002 NOSIG=
200506260500 METAR MROC 260500Z 00000KT 7000 VCFG FEW008 BKN015 20/20 A3001 NOSIG=
200506260600 METAR MROC 260600Z 00000KT 9999 FEW025 SCT120 20/20 A2998 NOSIG=
200506260700 METAR MROC 260700Z 09004KT CAVOK 20/19 A2996 NOSIG=
200506260800 METAR MROC 260800Z 06006KT CAVOK 20/19 A2995 NOSIG=
200506260900 METAR MROC 260900Z 08005KT CAVOK 20/18 A2994 NOSIG=
200506261000 METAR MROC 261000Z 09005KT CAVOK 20/18 A2993 NOSIG=
200506261100 METAR MROC 261100Z 11005KT CAVOK 19/17 A2993 NOSIG=
200506261200 METAR MROC 261200Z 02003KT CAVOK 19/18 A2995 NOSIG=
200506261300 METAR MROC 261300Z 10004KT CAVOK 21/18 A2997 NOSIG=
200506261400 METAR MROC 261400Z 00000KT CAVOK 25/20 A2998 BECMG 24007KT=
200506261500 METAR MROC 261500Z 24007KT 9999 FEW025 BKN250 24/19 A2998 NOSIG=
200506261600 METAR MROC 261600Z 28007KT 9999 FEW025 BKN250 25/20 A2999 NOSIG=
200506261700 METAR MROC 261700Z 24009KT 9999 SCT030 SCT100 26/21 A2998 BECMG 7000 TS VCSH SCT015CB RMK RASH DST E=
200506261800 METAR MROC 261800Z 23006KT 9999 -RA FEW025TCU SCT035 BKN100 24/20 A2996 BECMG 5000=
200506261900 METAR MROC 261900Z 24009KT 9999 FEW020TCU BKN035 24/21 A2995 RERA=
200506262000 METAR MROC 262000Z 25007KT 9999 -RA FEW015CB SCT025 BKN100 24/20 A2993 RMK VIS E 7KMS/VCSH BECMG 5000 TSRA=
200506262100 METAR MROC 262100Z 26007KT 3000 RA FEW015CB SCT025 BKN100 21/20 A2993 NOSIG=
200506262200 METAR MROC 262200Z 28009KT 5000 -RA FEW003 SCT025 OVC100 21/20 A2993 NOSIG=
200506262300 METAR MROC 262300Z 24005KT 5000 RA FEW003 SCT020 OVC100 21/20 A2995 NOSIG=
200506270000 METAR MROC 270000Z 30004KT 5000 RA FEW001 SCT008 OVC100 20/19 A2997 NOSIG=
200506270100 METAR MROC 270100Z 32006KT 8000 -RA FEW008 SCT015 OVC100 19/19 A2999 NOSIG=
200506270200 METAR MROC 270200Z 00000KT 8000 -DZ FEW008 SCT015 OVC100 19/18 A3001 NOSIG=
200506270300 METAR MROC 270300Z 12003KT 9999 SCT030 SCT120 19/18 A3001 BECMG 22004KT 5000 BR=
200506270400 METAR MROC 270400Z 10004KT CAVOK 19/18 A3001=
200506270500 METAR MROC 270500Z 08005KT CAVOK 19/18 A3000=
200506270600 METAR MROC 270600Z 05007KT CAVOK 19/18 A2999=
200506270700 METAR MROC 270700Z 06006KT CAVOK 19/18 A2997 NOSIG=
200506270800 METAR MROC 270800Z 04005KT CAVOK 18/17 A2995 NOSIG=
200506270900 METAR MROC 270900Z 06004KT CAVOK 18/17 A2994 NOSIG=
200506271100 METAR MROC 271100Z 03006KT CAVOK 18/17 A2994 NOSIG=
200506271200 METAR MROC 271200Z 05006KT CAVOK 19/17 A2996=
200506271300 METAR MROC 271300Z 06005KT CAVOK 22/18 A2998 NOSIG=
200506271400 METAR MROC 271400Z 08005KT CAVOK 25/19 A2998 NOSIG=
200506271500 METAR MROC 271500Z 36006KT CAVOK 26/18 A2999 NOSIG=
200506271600 METAR MROC 271600Z 11008KT 9999 FEW045 BKN260 27/19 A2998 NOSIG=
200506271700 METAR MROC 271700Z 12009KT 9999 FEW045 BKN260 28/19 A2997 NOSIG=
200506271800 METAR MROC 271800Z 08008KT 9999 SCT040 BKN260 28/19 A2996 NOSIG=
200506271900 METAR MROC 271900Z 10008KT 9999 SCT040 BKN260 27/19 A2993 NOSIG=
200506272000 METAR MROC 272000Z 10011KT 9999 SCT040 BKN260 27/19 A2991 NOSIG=
200506272100 METAR MROC 272100Z 12008KT 9999 SCT035 SCT120 BKN260 28/18 A2989=
200506272200 METAR MROC 272200Z 12005KT 9999 FEW035 BKN250 27/19 A2989=
200506272300 METAR MROC 272300Z 25007KT 9999 FEW035 SCT120 BKN250 24/22 A2990=
200506280000 METAR MROC 280000Z 25007KT 8000 3000NW BR FEW002 SCT010 BKN030 22/21 A2991 NOSIG=
200506280100 METAR MROC 280100Z 26004KT 3000 BR SCT002 BKN010 22/21 A2995=
200506280200 METAR MROC 280200Z 26004KT 4000 BR FEW004 BKN015 22/21 A2997=
200506280300 METAR MROC 280300Z 00000KT 4000 BR FEW002 BKN010 22/21 A2998 BECMG 2000 BR=
200506280400 METAR MROC 280400Z 00000KT 7000 VCFG FEW002 SCT010 BKN250 21/21 A2998 BECMG 04005KT 9999=
200506280500 METAR MROC 280500Z 00000KT 9999 4000SW BR SCT002 BKN250 21/20 A2998 RMK HZY NOSIG=
200506280600 METAR MROC 280600Z 00000KT 5000 1400SW BR SCT001 BKN250 21/21 A2997 RMK BANCO DE NIEBLA SOBRE APROX07 BECMG 7000=
200506280700 METAR MROC 280700Z 00000KT 9999 4000SW BR FEW001 BKN250 20/19 A2994 NOSIG=
200506280800 METAR MROC 280800Z 00000KT 9999 FEW005 BKN250 20/19 A2992 NOSIG=
200506281000 METAR MROC 281000Z 07005KT CAVOK 20/18 A2992 NOSIG=
200506281100 METAR MROC 281100Z 03005KT CAVOK 20/18 A2992 NOSIG=
200506281200 METAR MROC 281200Z 00000KT CAVOK 20/18 A2992 NOSIG=
200506281300 METAR MROC 281300Z 00000KT CAVOK 23/19 A2994=
200506281400 METAR MROC 281400Z 04003KT CAVOK 26/19 A2995=
200506281500 METAR MROC 281500Z 24006KT 9999 FEW035 BKN250 25/20 A2997=
200506281600 METAR MROC 281600Z 26007KT 9999 SCT030 BKN270 25/20 A2996=
200506281700 METAR MROC 281700Z 23010KT 9999 SCT030 SCT250 26/21 A2994=
200506281800 METAR MROC 281800Z 24015KT 9999 FEW015TCU SCT030 BKN270 25/21 A2993=
200506281900 METAR MROC 281900Z 23009KT 7000 -TS VCSH SCT010CB BKN030 24/20 A2990=
200506282000 METAR MROC 282000Z 34006KT 7000 VCSH BKN010CB 22/21 A2990=
200506282100 METAR MROC 282100Z 24007KT 9000 FEW005 SCT020 SCT100 21/20 A2990=
200506282200 METAR MROC 282200Z 27005KT 6000 -DZ BR SCT003 SCT040 21/20 A2991=
200506282300 METAR MROC 282300Z 25008KT 0500 DZ FG SCT001 SCT008 20/20 A2993=
200506290000 METAR MROC 290000Z 24003KT 3000 BR SCT002 SCT060 20/19 A2993=
200506290100 METAR MROC 290100Z 00000KT 7000 VCFG FEW002 SCT025 20/19 A2995=
200506290200 METAR MROC 290200Z 13003KT 9999 SCT030 19/19 A2997=
200506290300 METAR MROC 290300Z 26006KT 9999 SCT030 SCT250 20/19 A2999 NOSIG=
200506290400 METAR MROC 290400Z 33003KT 9999 SCT025 SCT250 20/19 A2999 NOSIG=
200506290500 METAR MROC 290500Z 00000KT 9999 SCT025 SCT250 20/19 A2998 NOSIG=
200506290600 METAR MROC 290600Z 36008KT 9999 FEW003 SCT030 BKN250 20/19 A2996 NOSIG=
200506290700 METAR MROC 290700Z 00000KT 9999 FEW030 BKN250 19/19 A2995 NOSIG=
200506290800 METAR MROC 290800Z 08005KT 9999 FEW030 BKN250 19/19 A2995 NOSIG=
200506290900 METAR MROC 290900Z 33007KT CAVOK 19/18 A2993 NOSIG=
200506291000 METAR MROC 291000Z 00000KT CAVOK 19/18 A2994 NOSIG=
200506291100 METAR MROC 291100Z 07003KT CAVOK 10/18 A2995 NOSIG=
200506291200 METAR MROC 291200Z 00000KT 9999 FEW040 SCT120 BKN250 19/18 A2998 NOSIG=
200506291300 METAR MROC 291300Z 27004KT 6000 DZ SCT003 SCT050 19/19 A2999=
200506291400 METAR MROC 291400Z 31004KT 8000 -DZ SCT010 SCT090 20/19 A3000=
200506291500 METAR MROC 291500Z 00000KT 9999 SCT008 SCT070 21/19 A3000=
200506291600 METAR MROC 291600Z 27004KT 8000 -DZ FEW010 SCT040 SCT150 21/19 A3002=
200506291700 METAR MROC 291700Z 27003KT 9000 FEW010 BKN120 22/19 A3002=
200506291800 METAR MROC 291800Z 31004KT 9000 FEW010 BKN150 23/20 A2998 RMK HZ ARND=
200506291900 METAR MROC 291900Z 30004KT 9999 FEW020 BKN200 24/20 A2996=
200506292000 METAR MROC 292000Z 31004KT 9999 FEW030 BKN240 27/20 A2994=
200506292100 METAR MROC 292100Z 24007KT 9999 FEW040 SCT140 BKN250 25/21 A2992=
200506292200 METAR MROC 292200Z 24006KT 9999 FEW030 BKN250 24/20 A2993=
200506292300 METAR MROC 292300Z 23003KT 9999 FEW035 BKN250 24/20 A2995=
200506300000 METAR MROC 300000Z 16003KT 9999 FEW030 SCT120 BKN250 23/20 A2999=
200506300100 METAR MROC 300100Z 10013KT CAVOK 22/17 A3000=
200506300200 METAR MROC 300200Z 10011KT CAVOK 23/18 A3003=
200506300300 METAR MROC 300300Z 11013KT CAVOK 22/16 A3003=
200506300400 METAR MROC 300400Z 11009KT CAVOK 22/16 A3003=
200506300500 METAR MROC 300500Z 25004KT CAVOK 20/16 A3003=
200506300600 METAR MROC 300600Z 24004KT CAVOK 20/18 A3000=
200506300700 METAR MROC 300700Z 24004KT 9999 FEW007 20/18 A3001=
200506300800 METAR MROC 300800Z 02004KT 9999 FEW007 SCT120 20/18 A2998=
200506300900 METAR MROC 300900Z 09003KT CAVOK 19/17 A2998=
200506301000 METAR MROC 301000Z 08005KT CAVOK 19/17 A2997 NOSIG=
200506301100 METAR MROC 301100Z 02007KT CAVOK 19/16 A2998 NOSIG=
200506301200 METAR MROC 301200Z 10003KT CAVOK 18/16 A3000=
200506301300 METAR MROC 301300Z 08016KT CAVOK 21/16 A3002=
200506301400 METAR MROC 301400Z 12005KT CAVOK 25/16 A3003=
200506301500 METAR MROC 301500Z 10004KT CAVOK 26/17 A3003=
200506301600 METAR MROC 301600Z 25006KT CAVOK 25/18 A3004=
200506301700 METAR MROC 301700Z 26006KT 9999 FEW030 BKN250 25/19 A3003=
200506301800 METAR MROC 301800Z 30004KT 9999 FEW030 BKN250 26/19 A3003=
200506301900 METAR MROC 301900Z 25008KT 9999 SCT025TCU BKN250 24/20 A3001=
200506302000 METAR MROC 302000Z 24007KT 9999 SCT035 BKN250 24/20 A3000=
200506302100 METAR MROC 302100Z 25009KT 9999 FEW020 SCT030 OVC220 24/20 A2998 NOSIG=
200506302200 METAR MROC 302200Z 26007KT 9999 FEW020 SCT030 BKN140 23/21 A2998 BECMG 6000 -RA VCFG=
200506302300 METAR MROC 302300Z 27008KT 9999 FEW010 SCT020 BKN140 23/21 A2998 BECMG -RA VCFG=
200507010000 METAR MROC 010000Z 27004KT 9999 4000SW BR FEW004 SCT020 BKN250 22/21 A2999 RMK LOW ST- NEAR AP07 TO SW/S BECMG 4000 BR=
200507010100 METAR MROC 010100Z 24006KT 9999 4000SW FEW003 SCT008 BKN250 22/21 A3001 NOSIG=
200507010200 METAR MROC 010200Z 25005KT 5000 2400SW BR SCT002 BKN005 21/20 A3002 RMK VIS SSE SE 8KMS BECMG 1000 BR=
200507010300 METAR MROC 010300Z 24004KT 2500SW BR SCT002 SCT015 21/20 A3003=
200507010400 METAR MROC 010400Z 00000KT 9999 FEW005 SCT030 21/20 A3004=
200507010500 METAR MROC 010500Z 00000KT 9999 FEW010 SCT035 20/20 A3004=
200507010600 METAR MROC 010600Z 28003KT 4000SW BR SCT001 SCT020 21/20 A3003=
200507010700 METAR MROC 010700Z 03004KT 9999 FEW010 SCT030 21/18 A3002=
200507010800 METAR MROC 010800Z 03003KT 9999 FEW025 SCT100 20/19 A3000=
200507010900 METAR MROC 010900Z 03003KT 9999 SCT025 SCT100 20/19 A3000=
200507011000 METAR MROC 011000Z 00000KT 9999 FEW010 SCT040 20/19 A3001=
200507011100 METAR MROC 011100Z 00000KT 8000 VCFG FEW005 SCT100 20/19 A3000=
200507011200 METAR MROC 011200Z 10003KT 9999 FEW025 SCT150 19/19 A3001=
200507011300 METAR MROC 011300Z 08005KT CAVOK 20/18 A3002 NOSIG=
200507011400 METAR MROC 011400Z 00000KT 9999 FEW030 BKN120 23/19 A3005 RMK HZY BECMG 24007KT=
200507011500 METAR MROC 011500Z 27006KT 9999 FEW015 SCT140 BKN220 24/20 A3006 RMK HZY NOSIG=
200507011600 METAR MROC 011600Z 30004KT 9999 FEW015 SCT140 BKN230 25/19 A3006 RMK HZY NOSIG=
200507011700 METAR MROC 011700Z 24004KT 9999 FEW020 BKN250 27/20 A3004 NOSIG=
200507011800 METAR MROC 011800Z 22004KT 9999 FEW025 BKN250 27/20 A3001 NOSIG=
200507011900 METAR MROC 011900Z 25012KT 9999 SCT025TCU BKN250 26/21 A2999 BECMG 5000 TSRA SCT015CB BKN025 RMK VIS S 8KMS/SH=
200507012000 METAR MROC 012000Z 20008KT 5000 2400SW TSRA SCT015CB BKN025 20/17 A3001 RMK VIS E /NE UNLTD BECMG 2000=
200507012100 METAR MROC 012100Z 00000KT 6000 2500SW RA BR FEW001 SCT005 OVC100 20/20 A3001 NOSIG=
200507012200 METAR MROC 012200Z 09003KT 9999 FEW001 SCT020 OVC100 21/20 A2999 NOSIG=
200507012300 METAR MROC 012300Z 00000KT 9999 FEW001 SCT008 OVC100 22/20 A2999 NOSIG=
200507020000 METAR MROC 020000Z 00000KT 9999 FEW020 BKN100 21/20 A2999 NOSIG=
200507020100 METAR MROC 020100Z 00000KT CAVOK 20/19 A3001 NOSIG=
200507020200 METAR MROC 020200Z 00000KT CAVOK 20/19 A3003 NOSIG=
200507020300 METAR MROC 020300Z 02003KT CAVOK 20/19 A3004=
200507020500 METAR MROC 020500Z 02004KT CAVOK 19/18 A3003=
200507020600 METAR MROC 020600Z 06004KT CAVOK 19/18 A3003=
200507020700 METAR MROC 020700Z 11003KT CAVOK 18/17 A3001 NOSIG=
200507020800 METAR MROC 020800Z 06004KT CAVOK 19/17 A3000 NOSIG=
200507020900 METAR MROC 020900Z VRB03KT CAVOK 18/17 A3000 NOSIG=
200507021000 METAR MROC 021000Z 06005KT CAVOK 18/17 A3000 NOSIG=
200507021100 METAR MROC 021100Z 06006KT CAVOK 18/16 A3001 NOSIG=
200507021200 METAR MROC 021200Z 06007KT CAVOK 19/17 A3002=
200507021300 METAR MROC 021300Z 09004KT CAVOK 21/18 A3001 NOSIG=
200507021400 METAR MROC 021400Z 10006KT CAVOK 25/19 A3002 NOSIG=
200507021500 METAR MROC 021500Z 26010KT 9999 FEW045 BKN140 25/21 A3004 NOSIG=
200507021600 METAR MROC 021600Z 25009KT 9999 FEW040 SCT140 26/20 A3005 NOSIG=
200507021700 METAR MROC 021700Z 25011KT 9999 SCT040 26/20 A3004 NOSIG=
200507021800 METAR MROC 021800Z 24013KT 9999 FEW010TCU SCT040 27/21 A3003 BECMG 8000 VCSH=
200507021900 METAR MROC 021900Z 24013KT 9999 FEW010TCU SCT040 27/21 A3000 BECMG 8000 VCSH=
200507022000 METAR MROC 022000Z 25013KT 9999 FEW010CB SCT035 26/20 A2998 BECMG 6000=
200507022100 METAR MROC 022100Z 18003KT 8000 SCT015 OVC100 22/20 A2998=
200507022200 METAR MROC 022200Z 24003KT 8000 -RA SCT015 OVC100 20/19 A3000 NOSIG=
200507022300 METAR MROC 022300Z 00000KT 7000 3000NW -RA SCT012 OVC100 20/19 A3004 NOSIG=
200507030000 METAR MROC 030000Z 00000KT 4000 -RA SCT015 OVC100 20/19 A3007 BECMG 2000=
200507030100 METAR MROC 030100Z 00000KT 6000 -RA SCT015 OVC100 20/19 A3010 NOSIG=
200507030200 METAR MROC 030200Z 09003KT 7000 -RA SCT015 OVC100 19/19 A3012 NOSIG=
200507030300 METAR MROC 030300Z 02004KT 7000 -RA FEW015 OVC100 19/18 A3012 BECMG 9999=
200507030400 METAR MROC 030400Z 08004KT 9999 -DZ OVC100 19/18 A3012 BECMG CAVOK=
200507030500 METAR MROC 030500Z 07007KT CAVOK 19/18 A3009 NOSIG=
200507030600 METAR MROC 030600Z 07008KT CAVOK 19/18 A3006 NOSIG=
200507030700 METAR MROC 030700Z 09006KT CAVOK 20/17 A3003 NOSIG=
200507030800 METAR MROC 030800Z 07008KT CAVOK 20/17 A3000 NOSIG=
200507030900 METAR MROC 030900Z 10003KT CAVOK 19/16 A3000 NOSIG=
200507031000 METAR MROC 031000Z 00000KT CAVOK 18/16 A3002 NOSIG=
200507031100 METAR MROC 031100Z 05004KT CAVOK 17/15 A3004 NOSIG=
200507031200 METAR MROC 031200Z 09005KT CAVOK 17/16 A3005 NOSIG=
200507031300 METAR MROC 031300Z 09006KT CAVOK 21/17 A3007 NOSIG=
200507031400 METAR MROC 031400Z VRB03KT CAVOK 24/17 A3009=
200507031500 METAR MROC 031500Z 24003KT CAVOK 25/16 A3010 NOSIG=
200507031600 METAR MROC 031600Z 00000KT CAVOK 26/16 A3009 NOSIG=
200507031700 METAR MROC 031700Z 25003KT CAVOK 27/17 A3007=
200507031800 METAR MROC 031800Z 27007KT 9999 FEW040 BKN250 27/19 A3004=
200507031900 METAR MROC 031900Z 23006KT 9999 FEW035 SCT250 28/19 A3003 NOSIG=
200507032000 METAR MROC 032000Z 25009KT 9999 FEW035 SCT220 27/20 A3001=
200507032100 METAR MROC 032100Z 25012KT 9999 FEW030 BKN250 26/20 A3001=
200507032200 METAR MROC 032200Z 24010KT 9999 SCT020CB BKN250 25/21 A3001=
200507032300 METAR MROC 032300Z 24006KT 9999 SCT015TCU SCT030 BKN250 23/21 A3003=
200507040000 METAR MROC 040000Z 00000KT 9999 FEW005 SCT025 BKN100 23/20 A3004 NOSIG=
200507040100 METAR MROC 040100Z 28006KT 9999 FEW005 SCT025 BKN120 22/21 A3006 NOSIG=
200507040200 METAR MROC 040200Z 00000KT 9999 FEW025 BKN120 22/20 A3007 NOSIG=
200507040300 METAR MROC 040300Z 00000KT 9999 FEW025 BKN120 21/20 A3008 NOSIG=
200507040400 METAR MROC 040400Z 08002KT 9999 FEW035 BKN120 21/20 A3008 NOSIG=
200507040500 METAR MROC 040500Z 06004KT 9999 FEW005 SCT120 21/19 A3008 NOSIG=
200507040600 METAR MROC 040600Z 01004KT 9999 FEW035 SCT120 21/18 A3008 NOSIG=
200507040700 METAR MROC 040700Z 05005KT CAVOK 20/18 A3006 NOSIG=
200507040800 METAR MROC 040800Z 08009KT CAVOK 21/18 A3004 NOSIG=
200507040900 METAR MROC 040900Z 08007KT CAVOK 21/17 A3003 NOSIG=
200507041000 METAR MROC 041000Z 05006KT CAVOK 21/17 A3003 NOSIG=
200507041100 METAR MROC 041100Z 04009KT CAVOK 21/17 A3001 NOSIG=
200507041200 METAR MROC 041200Z 01005KT 9999 FEW045 SCT300 21/17 A3005 RMK CB DST S=
200507041300 METAR MROC 041300Z 10010KT CAVOK 24/17 A3007=
200507041400 METAR MROC 041400Z 10014KT CAVOK 26/17 A3009=
200507041500 METAR MROC 041500Z 10013KT CAVOK 27/17 A3010=
200507041600 METAR MROC 041600Z 10010KT CAVOK 28/17 A3008=
200507041700 METAR MROC 041700Z 11014KT 9999 FEW035 SCT250 28/17 A3009=
200507041800 METAR MROC 041800Z 10009KT 9999 SCT030 SCT250 28/18 A3007=
200507041900 METAR MROC 041900Z 10013KT 9999 SCT035 SCT200 29/19 A3004=
200507042000 METAR MROC 042000Z 09011KT 9999 SCT030 SCT250 29/18 A3003=
200507042100 METAR MROC 042100Z 10008KT 9999 SCT030 SCT250 28/18 A3002=
200507042200 METAR MROC 042200Z 07010KT 9999 FEW040 SCT250 27/15 A3002=
200507042300 METAR MROC 042300Z 26007KT 9999 FEW040 SCT250 24/22 A3003=
200507050000 METAR MROC 050000Z 00000KT 9999 FEW035 BKN250 23/20 A3003=
200507050100 METAR MROC 050100Z 18003KT CAVOK 22/18 A3003=
200507050200 METAR MROC 050200Z 00000KT CAVOK 22/17 A3003=
200507050300 METAR MROC 050300Z 03009KT CAVOK 22/16 A3005 NOSIG=
200507050400 METAR MROC 050400Z 36005KT CAVOK 22/16 A3007 NOSIG=
200507050500 METAR MROC 050500Z 01003KT CAVOK 22/16 A3007 NOSIG=
200507050600 METAR MROC 050600Z 05008KT CAVOK 21/16 A3006 NOSIG=
200507050700 METAR MROC 050700Z 06004KT CAVOK 20/15 A3004 NOSIG=
200507050800 METAR MROC 050800Z 02005KT CAVOK 20/16 A3003 NOSIG=
200507050900 METAR MROC 050900Z 04004KT CAVOK 20/15 A3000 NOSIG=
200507051000 METAR MROC 051000Z 04007KT CAVOK 20/15 A3000 NOSIG=
200507051100 METAR MROC 051100Z 02004KT CAVOK 19/15 A3001 NOSIG=
200507051200 METAR MROC 051200Z 04006KT CAVOK 19/14 A3003 NOSIG=
200507051300 METAR MROC 051300Z 10010KT CAVOK 22/16 A3006=
200507051400 METAR MROC 051400Z 10006KT CAVOK 25/17 A3006=
200507051500 METAR MROC 051500Z 12011KT CAVOK 26/16 A3007=
200507051600 METAR MROC 051600Z 12008KT CAVOK 27/18 A3006=
200507051700 METAR MROC 051700Z 10005KT CAVOK 29/18 A3005=
200507051800 METAR MROC 051800Z 24009KT 9999 SCT040 BKN250 26/19 A3004=
200507051900 METAR MROC 051900Z 24009KT 9999 SCT040 BKN250 27/20 A3002=
200507052000 METAR MROC 052000Z 23007KT 9999 SCT030 BKN250 27/21 A2999=
200507052100 METAR MROC 052100Z 23008KT 9999 FEW020TCU BKN250 27/21 A2998 BECMG 7000 VCSH=
200507052200 METAR MROC 052200Z 24008KT 9999 FEW010 SCT20TCU BKN250 25/21 A2997 NOSIG=
200507052300 METAR MROC 052300Z 22005KT 9999 SCT008 SCT020 23/22 A2998 RMK VIS N NNE 7KMS/ LOW ST BECMG 5000 BR=
200507060000 METAR MROC 060000Z 25005KT 5000 BR SCT004 SCT020 22/21 A2999 RMK VIS E SE UNLTD BECMG 3000=
200507060100 METAR MROC 060100Z 00000KT 9999 4500SW BR FEW004 SCT020 22/21 A3000 NOSIG=
200507060200 METAR MROC 060200Z 25003KT 7000 VCFG SCT015 21/21 A3002=
200507060300 METAR MROC 060300Z 10004KT CAVOK 21/20 A3003=
200507060400 METAR MROC 060400Z 13004KT CAVOK 21/18 A3004=
200507060500 METAR MROC 060500Z 08005KT CAVOK 21/18 A3003=
200507060600 METAR MROC 060600Z 06003KT CAVOK 21/18 A3001=
200507060700 METAR MROC 060700Z 03004KT CAVOK 21/17 A3000=
200507060800 METAR MROC 060800Z 08006KT CAVOK 21/17 A2997=
200507060900 METAR MROC 060900Z 04003KT CAVOK 20/17 A2998=
200507061000 METAR MROC 061000Z 08006KT CAVOK 21/17 A2999=
200507061100 METAR MROC 061100Z 06008KT CAVOK 20/17 A3001=
200507061200 METAR MROC 061200Z 07006KT CAVOK 19/17 A3002=
200507061300 METAR MROC 061300Z 12004KT CAVOK 22/18 A3004 NOSIG=
200507061400 METAR MROC 061400Z 06005KT CAVOK 25/18 A3003 BECMG 24006KT=
200507061500 METAR MROC 061500Z 24006KT 9999 FEW040 SCT250 26/19 A3004 NOSIG=
200507061600 METAR MROC 061600Z 28009KT 9999 FEW040 SCT250 27/20 A3005 NOSIG=
200507061700 METAR MROC 061700Z 27008KT 9999 SCT035 SCT250 26/20 A3005 NOSIG=
200507061800 METAR MROC 061800Z 24007KT 9999 SCT035 26/20 A3003 NOSIG=
200507061900 METAR MROC 061900Z 25010KT 9999 SCT035 26/21 A3000 BECMG 7000 VCSH SCT020TCU=
200507062000 METAR MROC 062000Z 25011KT 9999 FEW020TCU SCT035 27/22 A2998 BECMG 7000 VCSH=
200507062100 METAR MROC 062100Z 25013KT 9999 SCT020 SCT035 27/22 A2996 NOSIG=
200507062200 METAR MROC 062200Z 25010KT 9999 FEW010 SCT025 BKN110 25/21 A2996 NOSIG=
200507062300 METAR MROC 062300Z 25012KT 9999 FEW010 SCT025 BKN110 23/22 A2998 NOSIG=
200507070100 METAR MROC 070100Z 25009KT 8000 -DZ SCT008 BKN100 21/21 A3002 NOSIG=
200507070200 METAR MROC 070200Z 24007KT 6000 VCFG FEW001 SCT008 BKN100 21/21 A3004 BECMG 4000 BR=
200507070300 METAR MROC 070300Z 26006KT 6000 VCFG FEW003 BKN015 21/20 A3006 BECMG 3000 BR=
200507070400 METAR MROC 070400Z 00000KT 6000 VCFG FEW002 BKN012 21/20 A3007 RMK 4000NE BR BECMG 3000 BR=
200507070500 METAR MROC 070500Z 00000KT 5000 BR FEW001 SCT006 SCT100 21/20 A3006=
200507070600 METAR MROC 070600Z 23003KT 6000 VCFG FEW001 SCT005 BKN100 21/20 A3004=
200507070700 METAR MROC 070700Z 26003KT 6000 VCFG FEW001 SCT007 BKN100 21/20 A3003=
200507070800 METAR MROC 070800Z VRB03KT 7000 3000SW BR SCT001 BKN020 21/20 A3001 BECMG 8000 SCT006 BKN025=
200507070900 METAR MROC 070900Z VRB03KT 9999 4000SW BR SCT003 SCT020 20/20 A3000 BECMG 9999 FEW005 SCT025=
200507071000 METAR MROC 071000Z 30004KT 9999 FEW003 SCT030 20/18 A3000 RMK VIS 6000 S/SW DUE ST CB LTNG DST S=
200507071100 METAR MROC 071100Z 02003KT 9999 FEW003 SCT260 19/18 A3002 RMK VIS 6000 S/SW DUE ST CB LTNG DST S=
200507071200 METAR MROC 071200Z 04005KT 9999 FEW003 BKN250 21/18 A3003 RMK 7000SW=
200507071300 METAR MROC 071300Z 25003KT 9999 FEW003 BKN250 22/19 A3006 RMK HZ ARND NOSIG=
200507071400 METAR MROC 071400Z 25004KT 9999 FEW008 BKN250 23/19 A3006 RMK HZ ARND NOSIG=
200507071500 METAR MROC 071500Z 09003KT 9999 FEW040 BKN250 25/19 A3005 RMK HZ ARND NOSIG=
200507071600 METAR MROC 071600Z 00000KT 9999 FEW040 BKN250 27/19 A3003 RMK HZ ARND NOSIG=
200507071700 METAR MROC 071700Z 27010KT 9999 FEW040 BKN250 28/21 A3001 RMK HZ ARND NOSIG=
200507071800 METAR MROC 071800Z 24015KT 9999 FEW015TCU SCT030 BKN260 25/22 A3001 RMK HZ ARND BECMG 8000 VCSH=
200507071900 METAR MROC 071900Z 23011KT 9999 FEW015TCU SCT030 SCT120 BKN260 23/20 A3001 BECMG 8000 VCSH RMK HZ ARND=
200507072000 METAR MROC 072000Z 18004KT 9999 4000N BR SCT015 BKN110 24/21 A2998 NOSIG=
200507072100 METAR MROC 072100Z 00000KT 9999 SCT015 BKN120 24/21 A2998=
200507072200 METAR MROC 072200Z 25004KT 9999 SCT015 BKN120 25/21 A2998=
200507072300 METAR MROC 072300Z 24007KT 9999 SCT015 BKN120 24/21 A2998=
200507080000 METAR MROC 080000Z 23006KT 9999 SCT010 BKN120 23/21 A3000 RMK HZ ARND NOSIG=
200507080100 METAR MROC 080100Z 23004KT 8000 SCT010 BKN120 22/21 A3002 RMK HZ ARND NOSIG=
200507080200 METAR MROC 080200Z 25005KT 3000 BR FEW003 SCT008 BKN120 22/21 A3003 BECMG 2000 BR BKN005=
200507080300 METAR MROC 080300Z 28005KT 2000 BR SCT001 BKN010 22/21 A3004 BECMG 0500 VV///=
200507080400 METAR MROC 080400Z 00000KT 2500SW 0700SE FG SCT001 BKN004 21/21 A3005 BECMG 0500=
200507080500 METAR MROC 080500Z 00000KT 0500 FG VV/// 21/21 A3005 REDZ NOSIG=
200507080600 METAR MROC 080600Z 24003KT 1000 BR BKN001 SCT004 21/21 A3006 RMK VIS N 3KMS BECMG 0500 FG CONDICIONES VARIABLES=
200507080700 METAR MROC 080700Z 28003KT 2000 BR SCT001 BKN004 21/21 A3004 NOSIG=
200507080800 METAR MROC 080800Z 00000KT 2000 BR SCT001 BKN005 21/21 A3003 NOSIG=
200507080900 METAR MROC 080900Z 00000KT 5000 BR FEW002 SCT005 BKN020 21/20 A3001 RMK VIS 8KMS E SE BECMG 8000=
200507081000 METAR MROC 081000Z 00000KT 9999 FEW005 SCT020 20/19 A3002 RMK VIS 8KMS SSW DUE BR NOSIG=
200507081100 METAR MROC 081100Z 00000KT 9999 FEW012 19/18 A3003 BECMG RMK HZY=
200507081200 METAR MROC 081200Z 03005KT 9999 FEW010 20/18 A3004 RMK VIS SSW SW 7KMS DUE FG NOSIG=
200507081300 METAR MROC 081300Z 00000KT CAVOK 23/19 A3005=
200507081400 METAR MROC 081400Z 01004KT CAVOK 25/19 A3005=
200507081500 METAR MROC 081500Z 24004KT 9999 FEW035 27/19 A3005=
200507081600 METAR MROC 081600Z 25009KT 9999 SCT030 26/21 A3004 NOSIG=
200507081700 METAR MROC 081700Z 26007KT 9999 SCT030 27/20 A3002 NOSIG=
200507081800 METAR MROC 081800Z 24006KT 9999 SCT025 28/21 A3001 NOSIG=
200507081900 METAR MROC 081900Z 24006KT 9999 SCT020 28/22 A2999 NOSIG=
200507082000 METAR MROC 082000Z 25012KT 9999 SCT020TCU 27/22 A2996 BECMG 5000 VCSH=
200507082100 METAR MROC 082100Z 24007KT 8000 -DZ SCT015CB SCT060 26/22 A2996=
200507082200 METAR MROC 082200Z 23004KT 8000 DZ SCT015TCU SCT100 23/21 A2996=
200507082300 METAR MROC 082300Z 24004KT 3000SW 9999NE -DZ BR SCT002 SCT015 23/22 A2997=
200507090000 METAR MROC 090000Z 29005KT 7000 VCFG SCT003 22/22 A2998=
200507090100 METAR MROC 090100Z 30004KT 9999 FEW015 BKN100 22/21 A2999=
200507090200 METAR MROC 090200Z 30003KT 9999 FEW015 SCT100 22/20 A3001=
200507090400 METAR MROC 090400Z 00000KT 9999 FEW020 SCT100 22/21 A3003 NOSIG=
200507090500 METAR MROC 090500Z 35003KT 9999 FEW035 SCT110 22/21 A3002 NOSIG=
200507090600 METAR MROC 090600Z 08008KT 9999 FEW035 BKN110 22/19 A3001 NOSIG=
200507090700 METAR MROC 090700Z 03005KT 9999 FEW035 SCT110 21/19 A3001 NOSIG=
200507090800 METAR MROC 090800Z 06005KT 9999 FEW035 SCT110 22/18 A2999 NOSIG=
200507090900 METAR MROC 090900Z 00000KT 9999 FEW001 BKN110 21/19 A2999 NOSIG=
200507091000 METAR MROC 091000Z 00000KT 9999 FEW001 SCT020 BKN110 21/19 A2999 NOSIG=
200507091100 METAR MROC 091100Z 04004KT 9999 FEW001 BKN100 21/19 A2998 NOSIG=
200507091200 METAR MROC 091200Z 31005KT 9999 FEW003 BKN080 21/19 A3000 NOSIG=
200507091300 METAR MROC 091300Z 30004KT 9999 FEW003 SCT150 22/19 A3001=
200507091400 METAR MROC 091400Z 23005KT 9999 FEW015 24/20 A3001=
200507091500 METAR MROC 091500Z 27005KT 9999 FEW020 25/20 A3002=
200507091600 METAR MROC 091600Z 26005KT 9999 FEW030 27/19 A3001=
200507091700 METAR MROC NIL=
200507091800 METAR MROC 091800Z 25006KT 9999 SCT030 29/21 A2998=
200507091900 METAR MROC 091900Z 25007KT 9999 SCT030TCU 28/21 A2996=
200507092000 METAR MROC 092000Z 24010KT 9999 SCT020CB SCT070 27/22 A2993=
200507092100 METAR MROC 092100Z 22004KT 7000 3000N -RA FEW015CB SCT025 BKN090 24/20 A2994=
200507092200 METAR MROC 092200Z 30007KT 6000 -RA FEW010CB BKN015 22/21 A2996=
200507092300 METAR MROC 092300Z 32004KT 8000 FEW008 BKN100 21/20 A2995 RMK RN DST SW=
200507100000 METAR MROC 100000Z 29003KT 9999 FEW015 BKN100 22/20 A2996 RMK 7000 SSE VCSH=
200507100100 METAR MROC 100100Z 00000KT 9999 FEW010 BKN100 22/21 A2997 RMK LGTN DST N NW W SW=
200507100200 METAR MROC 100200Z 00000KT 9999 FEW015 BKN100 22/21 A3000 RMK LGTN DST NW W SW=
200507100300 METAR MROC 100300Z 00000KT 7000 VCFG FEW004 SCT010 BKN100 22/21 A3003 NOSIG=
200507100400 METAR MROC 100400Z 03008KT 9999 FEW020 BKN120 22/21 A3002 NOSIG=
200507100500 METAR MROC 100500Z 05003KT 9999 FEW030 BKN120 21/20 A2999 NOSIG=
200507100600 METAR MROC 100600Z 03004KT CAVOK 22/19 A2998 NOSIG=
200507100700 METAR MROC 100700Z 08009KT 9999 FEW030 SCT120 21/18 A2995 NOSIG=
200507100800 METAR MROC 100800Z 05009KT CAVOK 21/19 A2993=
200507100900 METAR MROC 100900Z 02005KT CAVOK 20/17 A2993 NOSIG=
200507101000 METAR MROC 101000Z 06008KT CAVOK 20/17 A2993 NOSIG=
200507101100 METAR MROC 101100Z 08005KT CAVOK 19/16 A2994 BECMG RMK LTNG AND CB=
200507101200 METAR MROC 101200Z 10009KT CAVOK 20/16 A2994 NOSIG=
200507101300 METAR MROC 101300Z 05008KT CAVOK 23/17 A2996=
200507101400 METAR MROC 101400Z 10005KT CAVOK 26/17 A2998 RMK CB DST SSW=
200507101500 METAR MROC 101500Z 10010KT CAVOK 27/17 A2998=
200507101600 METAR MROC 101600Z 10007KT CAVOK 29/16 A2999=
200507101700 METAR MROC 101700Z 24009KT CAVOK 27/21 A3000=
200507101800 METAR MROC 101800Z 28009KT 9999 FEW040 BKN250 27/21 A2999=
200507101900 METAR MROC 101900Z 28009KT 9999 FEW035 BKN280 28/21 A2995=
200507102000 METAR MROC 102000Z 27011KT 9999 FEW015CB SCT025TCU SCT250 28/21 A2994 BECMG 5000 VCSH=
200507102100 METAR MROC 102100Z 28004KT 9999 FEW015CB SCT025TCU BKN220 26/22 A2992 BECMG 5000 VCSH RMK CB RASH DST N NNW=
200507102200 METAR MROC 102200Z 24010KT 9999 FEW010 SCT025TCU BKN230 25/22 A2991=
200507102300 METAR MROC 102300Z 25008KT 9999 -RA FEW010 SCT020TCU BKN100 23/21 A2994 BECMG 7000 -RA VCFG=
200507110000 METAR MROC 110000Z 31004KT 9999 FEW015CB SCT025 BKN100 23/21 A2995 BECMG RMK VIS E/SE 8KMS DUE RASH=
200507110100 METAR MROC 110100Z 27004KT 9999 FEW010 SCT025 BKN100 22/21 A2998 NOSIG=
200507110200 METAR MROC 110200Z 25004KT 9999 FEW010 SCT025 BKN100 22/21 A2999 BECMG CAVOK=
200507110300 METAR MROC 110300Z 26005KT 9999 SCT010 OVC100 22/21 A3001=
200507110600 METAR MROC 110600Z 00000KT 9999 FEW015 SCT100 22/21 A3001=
200507110700 METAR MROC 110700Z 00000KT 9999 FEW015 SCT100 21/20 A2999=
200507110900 METAR MROC 110900Z 08003KT 9999 FEW035 SCT150 20/19 A2995=
200507111000 METAR MROC 111000Z 08005KT 9999 FEW040 SCT200 19/18 A2994=
200507111100 METAR MROC 111100Z 04004KT CAVOK 19/18 A2994=
200507111200 METAR MROC 111200Z 10004KT CAVOK 19/17 A2996=
200507111300 METAR MROC 111300Z 00000KT 9999 FEW035 SCT120 BKN250 22/18 A2998 BECMG 24007KT RMK HZ LGT ARND=
200507111400 METAR MROC 111400Z 00000KT 9999 FEW035 SCT100 BKN250 25/19 A3001 NOSIG=
200507111500 METAR MROC 111500Z 26008KT 9999 FEW035 BKN250 24/20 A3001 RMK LGT HZ ARND=
200507111600 METAR MROC 111600Z 28006KT 9999 SCT030 BKN250 25/20 A3001 RMK LGT HZ ARND PCPN DST E=
200507111700 METAR MROC 111700Z 26006KT 9999 SCT025 BKN250 25/20 A3001 BECMG 7000=
200507111800 METAR MROC 111800Z 26007KT 9999 BKN025TCU SCT250 24/21 A2999 BECMG 7000 TS VCSH SCT017CB RMK PCPN DIST SE E=
200507111900 METAR MROC 111900Z 23007KT 9999 3000NW -RA SCT025TCU BKN030 21/20 A2997 BECMG 5000=
200507112000 METAR MROC 112000Z 22006KT 8000 3500NW -RA FEW012CB BKN030 21/19 A2998 RMK VIS S UNLTD BECMG 3000 TSRA=
200507112100 METAR MROC 112100Z 07002KT 6000 -TSRA FEW010CB SCT008 BKN030 20/19 A3000 NOSIG=
200507112200 METAR MROC 112200Z 30004KT 8000 RA FEW001 SCT020 OVC100 20/19 A3000 NOSIG=
200507112300 METAR MROC 112300Z 00000KT 8000 RA FEW001 SCT020 OVC100 20/19 A3002 BECMG 5000 BR RA=
200507120000 METAR MROC 120000Z 00000KT 8000 RA FEW001 SCT020 OVC100 20/19 A3005 RMK VIS S UNL BECMG 5000 RA BR=
200507120100 METAR MROC 120100Z 10003KT 9999 -RA FEW020 OVC100 19/19 A3007 BECMG 5000 -RA BR=
200507120200 METAR MROC 120200Z 07007KT 9999 RA FEW020 OVC100 19/19 A3011 BECMG 5000 -RA BR=
200507120300 METAR MROC 120300Z 04004KT 9999 -DZ BKN120 19/18 A3010 BECMG CAVOK=
200507120400 METAR MROC 120400Z 12008KT 9999 -RA OVC100 19/18 A3008=
200507120500 METAR MROC 120500Z 07005KT CAVOK 19/18 A3005=
200507121300 METAR MROC 121300Z 10003KT CAVOK 20/17 A3006 NOSIG=
200507121400 METAR MROC 121400Z 10004KT CAVOK 23/17 A3007 NOSIG=
200507121500 METAR MROC 121500Z 00000KT CAVOK 24/17 A3008 NOSIG=
200507121600 METAR MROC 121600Z 26003KT CAVOK 26/18 A3008 NOSIG=
200507121700 METAR MROC 121700Z 20004KT 9999 FEW045 BKN140 27/18 A3007 NOSIG=
200507121800 METAR MROC 121800Z 23005KT 9999 FEW045 BKN140 27/18 A3006 BECMG 8000=
200507121900 METAR MROC 121900Z 24011KT 9999 SCT040 BKN140 26/19 A3006 NOSIG=
200507122000 METAR MROC 122000Z 26009KT 9999 SCT040 SCT140 BKN250 26/20 A3003 NOSIG=
200507122100 METAR MROC 122100Z 27006KT 9999 FEW040 SCT140 BKN250 25/19 A3002 NOSIG=
200507122200 METAR MROC 122200Z 24005KT 9999 FEW040 BKN250 25/20 A3003 NOSIG=
200507122300 METAR MROC 122300Z 27005KT 9999 FEW030 BKN250 24/20 A3002 NOSIG=
200507130000 METAR MROC 130000Z 26006KT 9999 FEW007 SCT020 BKN250 22/20 A3004 BECMG 7000 VCFG=
200507130100 METAR MROC 130100Z 27008KT 8000 FEW006 SCT020 BKN250 21/20 A3007 NOSIG=
200507130200 METAR MROC 130200Z 28006KT 8000 SCT005 BKN020 21/20 A3008=
200507130300 METAR MROC 130300Z 00000KT 7000 VCFG FEW004 SCT010 BKN025 21/20 A3008 BECMG 9999=
200507130400 METAR MROC 130400Z 00000KT 9999 SCT010 BKN025 21/20 A3008 NOSIG=
200507130500 METAR MROC 130500Z 00000KT 9999 FEW025 BKN250 20/20 A3007 NOSIG=
200507130600 METAR MROC 130600Z 00000KT 9999 FEW008 BKN250 20/19 A3006 NOSIG=
200507130700 METAR MROC 130700Z 00000KT 9999 FEW006 BKN250 20/19 A3004 BECMG RMK VIS S SSW 6KMS DUE FG=
200507130800 METAR MROC 130800Z 02004KT 9999 FEW004 BKN250 19/18 A3003 BECMG RMK THING FG FEW TO S SSW=
200507130900 METAR MROC 130900Z 00000KT 9999 FEW008 BKN250 18/18 A3003 BECMG RMK=
200507131000 METAR MROC 131000Z 00000KT CAVOK 18/17 A3004 NOSIG=
200507131100 METAR MROC 131100Z 04004KT CAVOK 18/17 A3004 NOSIG=
200507131200 METAR MROC 131200Z 00000KT 9999 FEW035 BKN250 18/17 A3005 BECMG RMK LGT HZ ARND=
200507131300 METAR MROC 131300Z 02007KT 9999 FEW030 BKN250 20/17 A3007=
200507131400 METAR MROC 131400Z 00000KT 9999 FEW025 BKN250 24/19 A3007 NOSIG=
200507131500 METAR MROC 131500Z 00000KT 9999 FEW025 BKN250 27/19 A3008 NOSIG=
200507131600 METAR MROC 131600Z 24009KT 9999 FEW030 BKN250 26/20 A3007 NOSIG=
200507131700 METAR MROC 131700Z 23007KT 9999 FEW030 BKN250 26/20 A3006 NOSIG=
200507131800 METAR MROC 131800Z 24009KT 9999 SCT030TCU BKN250 26/21 A3004 NOSIG=
200507131900 METAR MROC 131900Z 26008KT 7000 -TS VCSH SCT015CB BKN120 26/21 A3002 BECMG 3000 -TS RA=
200507132000 METAR MROC 132000Z 31004KT 8000 -RA SCT015CB SCT080 24/19 A3001 NOSIG=
200507132100 METAR MROC 132100Z 20003KT 9000 -DZ SCT015 SCT080 22/20 A3001=
200507132200 METAR MROC 132200Z 23005KT 9000 SCT015 BKN100 22/20 A3000=
200507132300 METAR MROC 132300Z 25006KT 9999 FEW015 BKN090 21/20 A3002=
200507140000 METAR MROC 140000Z 30005KT 5000SW DZ BR SCT003 SCT025 20/20 A3004 RMK VIS RED SW=
200507140100 METAR MROC 140100Z 00000KT 9999 FEW010 OVC100 20/20 A3006=
200507140200 METAR MROC 140200Z 00000KT 9000 -RA SCT020 OVC100 20/20 A3008=
200507140300 METAR MROC 140300Z 23003KT 9999 SCT020 OVC100 20/20 A3008 NOSIG=
200507140400 METAR MROC 140400Z 27004KT 9999 SCT020 OVC100 20/20 A3009 NOSIG=
200507140500 METAR MROC 140500Z 31004KT 9999 FEW002 SCT025 BKN100 20/20 A3008 NOSIG=
200507140600 METAR MROC 140600Z 00000KT 9999 SCT025 BKN100 20/19 A3006 NOSIG=
200507140700 METAR MROC 140700Z 00000KT 9999 FEW025 BKN100 20/19 A3003 NOSIG=
200507140800 METAR MROC 140800Z 00000KT CAVOK 19/19 A3000 NOSIG=
200507140900 METAR MROC 140900Z 32003KT CAVOK 19/18 A2999 NOSIG=
200507141000 METAR MROC 141000Z 00000KT 1000 FG VV/// 19/18 A2998 NOSIG=
200507141100 METAR MROC 141100Z 35003KT 0500 VV/// 19/19 A2999 NOSIG=
200507141200 METAR MROC 141200Z 00000KT 2500 BR FEW001 SCT005 BKN010 19/19 A3002 NOSIG=
200507141300 METAR MROC 141300Z 06003KT 5000 BR FEW010 SCT025 BKN100 20/18 A3004=
200507141400 METAR MROC 141400Z 08007KT 9999 FEW010 SCT150 22/19 A3003=
200507141500 METAR MROC 141500Z 10004KT 9999 FEW035 SCT200 24/19 A3003=
200507141600 METAR MROC 141600Z 24003KT 9999 FEW035 BKN220 26/19 A3002=
200507141700 METAR MROC 141700Z 20003KT 9999 SCT030 SCT200 26/19 A3002=
200507141800 METAR MROC 141800Z 24008KT 9999 SCT035 SCT200 24/20 A2999=
200507141900 METAR MROC 141900Z 25009KT 9999 SCT020TCU BKN200 24/21 A2997=
200507142000 METAR MROC 142000Z 23004KT 9999 SCT015 BKN200 23/21 A2996=
200507142100 METAR MROC 142100Z 25005KT 5000 DZ BR FEW003 SCT012 BKN100 22/21 A2994 RMK 3000 NE=
200507142200 METAR MROC 142200Z 24007KT 3000 VCSH BR FEW001 SCT006 BKN035 21/21 A2994=
200507142300 METAR MROC 142300Z 24009KT 7000 VCFG FEW006 SCT010 BKN100 21/20 A2996=
200507150000 METAR MROC 150000Z 00000KT 7000 VCFG FEW003 SCT008 BKN100 21/20 A2997=
200507150100 METAR MROC 150100Z 00000KT 9999 FEW003 SCT120 20/19 A2999 RMK 7000SW=
200507150200 METAR MROC 150200Z 00000KT 9999 DZ FEW006 BKN100 20/19 A3000=
200507150300 METAR MROC 150300Z 25003KT 9999 FEW004 SCT035 BKN250 20/19 A3001 BECMG 5000 BR=
200507150400 METAR MROC 150400Z 31004KT 8000 FEW005 SCT020 BKN100 20/19 A3002 NOSIG=
200507150500 METAR MROC 150500Z 00000KT 9999 FEW008 BKN250 20/19 A3000 NOSIG=
200507150600 METAR MROC 150600Z 00000KT 8000 FEW004 SCT020 BKN250 20/19 A2998 NOSIG=
200507150700 METAR MROC 150700Z 00000KT 9999 FEW004 SCT010 SCT120 20/19 A2998 NOSIG=
200507150800 METAR MROC 150800Z 00000KT 9999 FEW005 SCT012 SCT120 20/19 A2997 NOSIG=
200507150900 METAR MROC 150900Z 00000KT 9999 FEW010 SCT120 20/19 A2997 NOSIG=
200507151000 METAR MROC 151000Z 00000KT CAVOK 19/19 A2996 NOSIG=
200507151100 METAR MROC 151100Z 02005KT CAVOK 19/18 A2997 NOSIG=
200507151200 METAR MROC 151200Z 08004KT CAVOK 20/18 A2997 NOSIG=
200507151300 METAR MROC 151300Z 06004KT CAVOK 21/18 A2999=
200507151400 METAR MROC 151400Z 23003KT CAVOK 23/20 A3000=
200507151500 METAR MROC 151500Z 28006KT 9999 FEW035 BKN250 24/19 A3001=
200507151600 METAR MROC 151600Z 23007KT 9999 FEW035 BKN250 25/19 A3001=
200507151700 METAR MROC 151700Z 24005KT 9999 FEW015CB SCT030 SCT250 25/20 A3000 RMK 7000 NE VCSH=
200507151800 METAR MROC 151800Z 27010KT 9999 FEW015CB SCT025TCU 24/20 A2999 RMK 7000 NE VCSH BECMG -TSRA=
200507151900 METAR MROC 151900Z 25005KT 9999 4000NW VCSH FEW012CB BKN025 21/20 A2998=
200507152000 METAR MROC 152000Z 23005KT 6000 2500SW -RA BR FEW006 SCT020 BKN100 21/21 A2996=
200507152100 METAR MROC 152100Z 25007KT 3000 -RA BR SCT004 BKN015 21/20 A2995 BECMG 1000 RA BR=
200507152200 METAR MROC 152200Z 24006KT 2500 RA SCT010 BKN020 18/17 A2996 NOSIG=
200507152300 METAR MROC 152300Z 31007KT 4000 -RA FEW005 SCT010 OVC100 19/18 A2998 BECMG 2000=
200507160000 METAR MROC 160000Z 00000KT 9999 -RA FEW008 SCT015 BKN025 19/18 A2999 BECMG 4000 -RA BR RMK CONDICIONES VARIABLES=
200507160100 METAR MROC 160100Z 00000KT 9999 -RA FEW010 SCT015 BKN025 19/18 A3001 NOSIG=
200507160200 METAR MROC 160200Z 00000KT 9999 -RA FEW010 SCT015 BKN025 19/18 A3003 NOSIG=
200507160300 METAR MROC 160300Z 00000KT 9999 -RA FEW015 SCT025 BKN100 19/18 A3003 NOSIG=
200507160400 METAR MROC 160400Z 00000KT 9999 -DZ FEW020 OVC120 19/18 A3004=
200507160500 METAR MROC 160500Z 04004KT CAVOK 19/18 A3003=
200507160600 METAR MROC 160600Z 07003KT CAVOK 18/18 A3001=
200507160700 METAR MROC 160700Z 02005KT CAVOK 19/18 A2999=
200507160800 METAR MROC 160800Z 00000KT CAVOK 19/19 A2997=
200507161000 METAR MROC 161000Z 00000KT CAVOK 19/18 A2998=
200507161100 METAR MROC 161100Z 00000KT CAVOK 19/18 A2998=
200507161200 METAR MROC 161200Z 00000KT CAVOK 18/18 A2999=
200507161300 METAR MROC 161300Z 10004KT CAVOK 19/19 A3002 BECMG 24006KT RMK HZY=
200507161400 METAR MROC 161400Z 08003KT 9999 FEW020 SCT120 23/19 A3003 NOSIG=
200507161500 METAR MROC 161500Z 00000KT 9999 FEW025 SCT120 BKN250 24/19 A3003 NOSIG=
200507161600 METAR MROC 161600Z 26010KT 9999 FEW025 SCT140 BKN250 24/20 A3004 RMK HZY NOSIG=
200507161700 METAR MROC 161700Z 27008KT 9999 FEW025 BKN140 26/19 A3005 NOSIG=
200507161800 METAR MROC 161800Z 24011KT 9999 FEW020 SCT035 BKN140 24/20 A3003 NOSIG=
200507161900 METAR MROC 161900Z 24009KT 9999 FEW015CB SCT025 BKN100 25/21 A3001 RMK RASH DST E ESE=
200507162000 METAR MROC 162000Z 24006KT 9999 FEW015CB SCT025 BKN100 24/21 A2998 BECMG 3000 TSRA=
200507162100 METAR MROC 162100Z 21003KT 9999 -RA FEW010 SCT030 BKN100 23/21 A2997 NOSIG=
200507162200 METAR MROC 162200Z 08004KT 9999 FEW010 SCT030 BKN100 23/21 A2996 NOSIG=
200507162300 METAR MROC 162300Z 00000KT 9999 FEW025 SCT100 BKN250 24/21 A2996 NOSIG=
200507170000 METAR MROC 170000Z 26015KT 9999 FEW005 SCT025 BKN250 22/21 A2998 NOSIG=
200507170100 METAR MROC 170100Z 24007KT 6000 BR FEW001 SCT005 BKN250 20/20 A3000 BECMG 1200 BR=
200507170200 METAR MROC 170200Z VRB03KT 9999 3000SW RA BR FEW001 BKN100 20/20 A3002 BECMG 5000 RA BR=
200507170300 METAR MROC 170300Z 00000KT 9999 -DZ FEW003 BKN100 20/20 A3001 RMK 6000 SW VCFG=
200507170400 METAR MROC 170400Z 00000KT 9999 DZ FEW003 BKN100 20/20 A3003 RMK 6000 SW VCFG=
200507170500 METAR MROC 170500Z 12003KT CAVOK 20/20 A3002=
200507170600 METAR MROC 170600Z 07007KT CAVOK 21/19 A3000=
200507170700 METAR MROC 170700Z 08006KT CAVOK 21/18 A2998=
200507170800 METAR MROC 170800Z VRB03KT CAVOK 20/18 A2997=
200507170900 METAR MROC 170900Z 28004KT 0200 VV/// 19/19 A2996 BECMG 3000 BR SCT001 BKN010=
200507171000 METAR MROC 171000Z VRB03KT 0800 VV/// 19/19 A2996 BECMG 4000 BR SCT003 BKN015=
200507171100 METAR MROC 171100Z VRB03KT 0200 FG VV/// 18/18 A2998 BECMG 4000 BR SCT003 SCT020=
200507171200 METAR MROC 171200Z 04003KT 9999 FEW001 BKN250 18/18 A3000 RMK CB DST SSW=
200507171300 METAR MROC 171300Z 07003KT CAVOK 20/18 A3001 RMK CB DST SW NOSIG=
200507171400 METAR MROC 171400Z 28005KT CAVOK 23/19 A3003 RMK CB DST SW NOSIG=
200507171500 METAR MROC 171500Z 26005KT 9999 FEW040 BKN250 25/19 A3004 NOSIG=
200507171600 METAR MROC 171600Z 26008KT 9999 FEW040 BKN250 26/19 A3002 NOSIG=
200507171700 METAR MROC 171700Z 25011KT 9999 FEW040 BKN250 27/21 A3002 NOSIG=
200507171800 METAR MROC 171800Z 24010KT 9999 SCT035 SCT250 26/21 A3000 RMK CB DST E NOSIG=
200507171900 METAR MROC 171900Z 24011KT 9999 -TS FEW010CB SCT035 BKN250 25/21 A2998 RMK RAS DST SE N BECMG 7000 VCSH=
200507172000 METAR MROC 172000Z 27015KT 9999 5000E RA FEW010CB SCT030 BKN110 24/22 A2996 BECMG 5000 SHRA=
200507172100 METAR MROC 172100Z 33003KT 8000 FEW015 BKN100 23/24 A2994 RMK RASH SE=
200507172200 METAR MROC 172200Z 24003KT 9999 FEW010 SCT025 SCT120 25/20 A2995 NOSIG=
200507172300 METAR MROC 172300Z 00000KT 9999 FEW010 SCT025 SCT140 23/21 A2996 NOSIG=
200507180000 METAR MROC 180000Z 25005KT 8000 SCT010 SCT020 BKN120 22/21 A2998 BECMG 5000 BR=
200507180100 METAR MROC 180100Z 00000KT 8000 FEW007 SCT020 BKN120 22/21 A2998 NOSIG=
200507180200 METAR MROC 180200Z 00000KT 9999 SCT030 SCT120 21/20 A2997 BECMG 08005KT=
200507180300 METAR MROC 180300Z 24003KT 7000 2500SW BR FEW001 SCT004 21/20 A2999 RMK VIS E ENE UNLTD BECMG 9999=
200507180400 METAR MROC 180400Z 00000KT 0600 FG VV/// 21/20 A3000 RMK VIS N UNLTD BECMG 2000 BR=
200507180500 METAR MROC 180500Z 00000KT 0100 FG VV/// 21/20 A3000 NOSIG=
200507180600 METAR MROC 180600Z 02003KT 0500 FG VV/// 20/20 A2999 BECMG 3000 BR=
200507180700 METAR MROC 180700Z 08005KT 9999 FEW025 20/18 A2997 BECMG RMK VIS S SSW SW 8KMS/BR/ OCNL LTNG DIST S SSW=
200507180800 METAR MROC 180800Z 04005KT 9999 FEW030 19/18 A2994 BECMG RMK LTNG DIST S=
200507180900 METAR MROC 180900Z 05007KT CAVOK 20/17 A2993 BECMG RMK LTNG DIST S SSW=
200507181000 METAR MROC 181000Z 06008KT CAVOK 19/17 A2994 BECMG RMK LTNG DST S SSW=
200507181100 METAR MROC 181100Z 05007KT CAVOK 19/17 A2994 NOSIG=
200507181200 METAR MROC 181200Z 05008KT CAVOK 20/17 A2995 NOSIG=
200507181300 METAR MROC 181300Z 10009KT CAVOK 23/18 A2996 NOSIG=
200507181400 METAR MROC 181400Z 11008KT CAVOK 25/19 A2998 NOSIG=
200507181500 METAR MROC 181500Z 12010KT 9999 FEW035 BKN250 26/19 A2998 NOSIG=
200507181600 METAR MROC 181600Z 11009KT 9999 FEW035 BKN250 28/18 A2999 NOSIG=
200507181700 METAR MROC 181700Z 10008KT 9999 SCT030 BKN250 27/19 A2999 NOSIG=
200507181800 METAR MROC 181800Z 11009KT 9999 SCT030 BKN250 27/18 A2996 NOSIG=
200507181900 METAR MROC 181900Z 12006KT 9999 FEW030 SCT045 BKN260 27/18 A2994 NOSIG=
200507182000 METAR MROC 182000Z 25009KT 9999 FEW025 SCT040 BKN250 26/22 A2993 NOSIG=
200507182100 METAR MROC 182100Z 26010KT 9999 SCT015TCU SCT090 25/22 A2991=
200507182200 METAR MROC 182200Z 25009KT 9999 SCT020TCU BKN250 24/22 A2991=
200507182300 METAR MROC 182300Z 25008KT 9000 -RA SCT020CB SCT090 24/21 A2992=
200507190000 METAR MROC 190000Z 35004KT 6000 RA BR SCT008 SCT030 22/21 A2995 RMK VIS RED SW=
200507190100 METAR MROC 190100Z 30004KT 9000 -DZ SCT010 OVC100 21/21 A2997=
200507190200 METAR MROC 190200Z 00000KT 9999 FEW015 SCT120 21/20 A2998 RMK CB DST W=
200507190300 METAR MROC 190300Z 07003KT 9999 FEW030 SCT120 21/20 A3000 NOSIG=
200507190400 METAR MROC 190400Z 08007KT CAVOK 20/19 A3000 NOSIG=
200507190500 METAR MROC 190500Z 07008KT CAVOK 20/17 A3000 NOSIG=
200507190700 METAR MROC 190700Z 03008KT CAVOK 20/17 A2995 NOSIG=
200507190800 METAR MROC 190800Z 12010KT CAVOK 21/17 A2991 NOSIG=
200507190900 METAR MROC 190900Z 06010KT CAVOK 21/17 A2990 NOSIG=
200507191000 METAR MROC 191000Z 00000KT CAVOK 21/18 A2992 NOSIG=
200507191100 METAR MROC 191100Z 05007KT CAVOK 19/17 A2994 NOSIG=
200507191200 METAR MROC 191200Z 06007KT 9999 FEW040 SCT120 BKN250 19/17 A2995 NOSIG=
200507191300 METAR MROC 191300Z 08004KT CAVOK 22/18 A2996=
200507191400 METAR MROC 191400Z 08008KT CAVOK 23/18 A2999=
200507191500 METAR MROC 191500Z 10010KT CAVOK 26/17 A2998=
200507191600 METAR MROC 191600Z 10010KT 9999 FEW030 BKN280 26/18 A2998 NOSIG=
200507191700 METAR MROC 191700Z 11007KT 9999 FEW030 BKN280 27/16 A2997 NOSIG=
200507191800 METAR MROC 191800Z 11010KT 9999 FEW030 BKN250 28/17 A2996=
200507191900 METAR MROC 191900Z 17005KT 9999 SCT025 BKN250 29/17 A2993=
200507192000 METAR MROC 192000Z 220007KT 9999 FEW025TCU SCT140 BKN300 25/20 A2993 BECMG RMK RN DIST E/ SE/ S=
200507192100 METAR MROC 192100Z 24011KT 9999 FEW025 BKN140 25/22 A2989=
200507192200 METAR MROC 192200Z 24008KT 9999 3000SE -DZ FEW015 SCT025 BKN100 24/21 A2991=
200507192300 METAR MROC 192300Z 26005KT 9999 SCT020 BKN100 22/21 A2992 RMK 7000SW NW W VCSH=
200507200000 METAR MROC 200000Z 00000KT 9999 FEW020 SCT120 SCT250 21/20 A2995 RMK 6000NE VCSH=
200507200100 METAR MROC 200100Z 30004KT 9999 FEW012 SCT120 SCT250 21/20 A2997 RMK 7000 SW VCFG=
200507200200 METAR MROC 200200Z 00000KT 5000 BR FEW002 SCT006 BKN100 20/20 A3001 BECMG 7000=
200507200400 METAR MROC 200400Z 00000KT 8000 FEW007 BKN100 20/19 A3002 NOSIG=
200507200500 METAR MROC 200500Z 00000KT 9999 FEW007 BKN100 20/19 A3000 NOSIG=
200507200600 METAR MROC 200600Z 00000KT 7000 VCFG FEW002 SCT120 20/19 A3000 BECMG 5000 BR=
200507200700 METAR MROC 200700Z 00000KT 6000 3000W BR FEW002 SCT120 20/19 A2997 BECMG 2000 BR=
200507200800 METAR MROC 200800Z 00000KT 7000 3500W BR FEW002 SCT120 19/18 A2995 NOSIG=
200507200900 METAR MROC 200900Z 00000KT 8000 4000W BR FEW003 SCT120 19/18 A2995 NOSIG=
200507201000 METAR MROC 201000Z 00000KT 9999 5000SW BR FEW010 BKN120 19/18 A2995 BECMG 24005KT 3000 BR BKN008=
200507201100 METAR MROC 201100Z 08003KT 9999 FEW020 SCT140 19/18 A2996 NOSIG=
200507201200 METAR MROC 201200Z 07006KT 9999 FEW020 SCT120 BKN250 19/18 A2997 NOSIG=
200507201300 METAR MROC 201300Z 10005KT 9999 FEW045 BKN120 20/18 A2999=
200507201400 METAR MROC 201400Z 07006KT CAVOK 22/18 A3000 RMK LEVE HZY=
200507201500 METAR MROC 201500Z 00000KT CAVOK 25/19 A3000 RMK HZ LEVE SW BECMG 24008KT=
200507201600 METAR MROC 201600Z 15003KT CAVOK 26/19 A2999 RMK HZ SW=
200507201700 METAR MROC 201700Z 25007KT 9999 FEW030 SCT120 SCT250 24/20 A3000 RMK HZ SW=
200507201800 METAR MROC 201800Z 24006KT 9999 FEW020 OVC130 23/19 A2998 NOSIG=
200507201900 METAR MROC 201900Z 21003KT 7000 -RA FEW015 SCT080 OVC130 23/20 A2996 BECMG RMK VSBY S SW UNL=
200507202000 METAR MROC 202000Z 22003KT 7000 -RA FEW012 SCT020 OVC120 23/20 A2995 RMK VSBY S UNL=
200507202100 METAR MROC 202100Z 24005KT 5000 -RA FEW005 FEW015TCU BKN030 22/21 A2994 BECMG 3000 -RA BR RMK VIS E/ESE UNLTD=
200507202200 METAR MROC 202200Z 26006KT 5000 -RA SCT005 BKN025 21/20 A2994 NOSIG=
200507202300 METAR MROC 202300Z 26004KT 9999 DZ FEW004 SCT030 BKN100 21/20 A2994 BECMG RMK VIS N/S UNLTD=
200507210000 METAR MROC 210000Z 00000KT 9999 -RA SCT030 OVC100 21/20 A2995 NOSIG=
200507210100 METAR MROC 210100Z 08005KT 9999 DZ SCT030 SCT100 20/18 A2997=
200507210200 METAR MROC 210200Z 10004KT 9999 DZ SCT030 BKN100 20/18 A2998=
200507210300 METAR MROC 210300Z 09005KT 9999 FEW040 BKN100 20/18 A3001=
200507210400 METAR MROC 210400Z 00000KT 9999 FEW040 BKN100 20/18 A3002=
200507210500 METAR MROC 210500Z 00000KT 5000SW BR SCT002 BKN150 19/18 A3002=
200507210600 METAR MROC 210600Z 03004KT 9999 FEW005 BKN200 19/19 A3000=
200507210700 METAR MROC 210700Z 00000KT CAVOK 19/18 A2998=
200507210800 METAR MROC 210800Z 00000KT CAVOK 19/18 A2995=
200507210900 METAR MROC 210900Z 09003KT CAVOK 19/18 A2994=
200507211000 METAR MROC 211000Z 02005KT CAVOK 19/18 A2995=
200507211100 METAR MROC 211100Z 01003KT CAVOK 19/18 A2995=
200507211200 METAR MROC 211200Z 00000KT 9999 FEW030 SCT100 BKN200 28/17 A2997=
200507211300 METAR MROC 211300Z 09004KT CAVOK 20/18 A2998 BECMG RMK BKN100=
200507211400 METAR MROC 211400Z 00000KT CAVOK 23/19 A3000 BECMG 24007KT RMK BKN100=
200507211500 METAR MROC 211500Z 29003KT CAVOK 25/19 A3002 BECMG RMK BKN120=
200507211600 METAR MROC 211600Z 31005KT 9999 FEW030 BKN130 26/19 A3001 NOSIG=
200507211700 METAR MROC 211700Z 25007KT 9999 FEW030 SCT250 26/19 A3001 NOSIG=
200507211800 METAR MROC 211800Z 26010KT 9999 FEW025TCU SCT035 26/20 A3001 BECMG 7000 VCSH RMK FEW250 PCPN DST SE=
200507211900 METAR MROC 211900Z 25012KT 9999 FEW015CB SCT025TCU BKN100 25/21 A2999 BECMG 5000 TSRA RMK TS RASH DST SE ESE=
200507211936 METAR MROC 211936Z 24008KT 9999 TS VCSH SCT015CB SCT025TCU 25/21 A2999 BECMG 2000 TSRA RMK VSBY ESE/S 6KM=
200507212000 METAR MROC 212000Z 20006KT 9999 4000SW -RA SCT012CB SCT025TCU BKN100 23/21 A2999 BECMG 2000 TSRA RMK RASH VIS 6KMS TO E TSDST E SE=
200507212100 METAR MROC 212100Z 10005KT 4000SW -RA FEW015 SCT030 BKN100 21/20 A2998 NOSIG=
200507212200 METAR MROC 212200Z 23006KT 9999 FEW001 SCT020 BKN100 22/19 A3000 NOSIG=
200507212300 METAR MROC 212300Z 30003KT 9999 5000E VCSH FEW001 SCT020 BKN100 22/19 A3003 NOSIG=
200507220000 METAR MROC 220000Z 00000KT 9999 SCT020 BKN100 22/19 A3002 NOSIG=
200507220100 METAR MROC 220100Z 00000KT 9999 SCT020 BKN100 20/20 A3001 NOSIG=
200507220200 METAR MROC 220200Z 08004KT 9999 FEW035 BKN100 20/19 A3002 NOSIG=
200507220300 METAR MROC 220300Z 00000KT 9999 FEW035 BKN100 20/19 A3005 RMK 7000SW=
200507220400 METAR MROC 220400Z 00000KT 7000 3000SW BR FEW005 SCT100 20/19 A3006 RMK 9999 N NE=
200507220500 METAR MROC 220500Z 03005KT 9999 FEW003 SCT120 20/19 A3004 RMK 7000SW=
200507220600 METAR MROC 220600Z 03007KT CAVOK 19/17 A3002=
200507220700 METAR MROC 220700Z 00000KT CAVOK 19/17 A3000=
200507220800 METAR MROC 220800Z 08005KT CAVOK 19/17 A2999=
200507220900 METAR MROC 220900Z 08006KT CAVOK 19/17 A2997=
200507221000 METAR MROC 221000Z 07006KT CAVOK 18/17 A2997=
200507221100 METAR MROC 221100Z 04003KT CAVOK 18/16 A2999=
200507221200 METAR MROC 221200Z 09003KT CAVOK 17/16 A3001=
200507221300 METAR MROC 221300Z 07006KT CAVOK 20/17 A3002 NOSIG=
200507221400 METAR MROC 221400Z 05009KT CAVOK 24/18 A3003 NOSIG=
200507221500 METAR MROC 221500Z 10012KT CAVOK 25/18 A3003 NOSIG=
200507221600 METAR MROC 221600Z 12016KT 9999 FEW045 SCT130 BKN260 25/18 A3004 NOSIG=
200507221700 METAR MROC 221700Z 11014KT 9999 FEW045 SCT130 BKN260 26/18 A3004 NOSIG=
200507221800 METAR MROC 221800Z 11008KT 9999 FEW045 SCT130 BKN260 26/18 A3003 NOSIG=
200507221900 METAR MROC 221900Z 14006KT 9999 FEW045 BKN130 26/19 A3003 NOSIG=
200507222000 METAR MROC 222000Z 12007KT 9999 FEW045 BKN130 25/18 A3001 NOSIG=
200507222100 METAR MROC 222100Z 25007KT 9999 SCT015 BKN130 24/22 A2998 BECMG 7000=
200507222200 METAR MROC 222200Z 26007KT 9999 SCT010 BKN120 23/21 A2996 BECMG 5000 BR=
200507222300 METAR MROC 222300Z 23006KT 7000 VCFG SCT006 BKN120 22/21 A2996 BECMG 5000 BR=
200507230000 METAR MROC 230000Z 25004KT 6000 VCFG SCT007 SCT120 BKN250 22/21 A2999 BECMG 4000 BR=
200507230100 METAR MROC 230100Z 00000KT 6000 VCFG FEW005 SCT120 BKN250 21/20 A3001=
200507230200 METAR MROC 230200Z 00000KT 6000 VCFG FEW005 SCT120 BKN250 21/20 A3001=
200507230300 METAR MROC 230300Z 27004KT 5000 BR FEW004 BKN250 21/20 A3003 BECMG 3000 RMK VIS N SE UNL=
200507230400 METAR MROC 230400Z 07006KT CAVOK 21/18 A3004 NOSIG=
200507230500 METAR MROC 230500Z 09007KT CAVOK 21/17 A3003 NOSIG=
200507230600 METAR MROC 230600Z 05006KT CAVOK 20/17 A3001 NOSIG=
200507230800 METAR MROC 230800Z 05005KT CAVOK 20/17 A3000 NOSIG=
200507230900 METAR MROC 230900Z 03005KT CAVOK 18/16 A2999 NOSIG=
200507231000 METAR MROC 231000Z 06008KT CAVOK 18/16 A2998 BECMG RMK LTNG DIST S SSW=
200507231100 METAR MROC 231100Z 06008KT CAVOK 18/16 A3000 BECMG RMK CB/LTNG DIST S SSW=
200507231200 METAR MROC 231200Z 07007KT CAVOK 19/16 A3003 NOSIG=
200507231300 METAR MROC 231300Z 06008KT CAVOK 21/17 A3003=
200507231400 METAR MROC 231400Z 10007KT CAVOK 23/17 A3003=
200507231500 METAR MROC 231500Z 24006KT CAVOK 24/20 A3005=
200507231600 METAR MROC NIL=
200507231700 METAR MROC 231700Z 27006KT CAVOK 26/20 A3003=
200507231800 METAR MROC NIL=
200507231900 METAR MROC NIL=
200507232000 METAR MROC NIL=
200507232100 METAR MROC NIL=
200507232200 METAR MROC 232200Z 25013KT 9999 FEW015 SCT030 BKN250 25/22 A2998 RMK CB RN DST N CB DST S=
200507232300 METAR MROC 232300Z 28009KT 9999 -RA FEW008 SCT020 BKN100 23/22 A2998=
200507240400 METAR MROC 240400Z 00000KT 9999 SCT008 BKN110 21/20 A3004 NOSIG=
200507241200 METAR MROC 241200Z 00000KT 9999 FEW003 SCT100 BKN250 19/18 A3001 NOSIG=
200507241600 METAR MROC 241600Z 22003KT CAVOK 26/21 A3005=
200507241700 METAR MROC 241700Z 25009KT 9999 SCT030 SCT250 26/20 A3004=
200507241800 METAR MROC 241800Z 26005KT 9999 SCT025 SCT250 27/21 A3002=
200507241900 METAR MROC 241900Z 23009KT 9999 SCT025TCU SCT250 27/21 A3000=
200507242000 METAR MROC 242000Z 25008KT 9999 SCT025 SCT250 26/22 A2997=
200507242100 METAR MROC 242100Z 25009KT 9999 FEW015TCU SCT025 26/22 A2995 RMK RN DST NE E SE=
200507242200 METAR MROC 242200Z 22005KT 9999 FEW015TCU SCT020 25/20 A2994 RMK RN DST NE=
200507242300 METAR MROC 242300Z 25005KT 9999 FEW015TCU SCT020 BKN120 24/22 A2996 RMK 7000 NE E VCSH=
200507250000 METAR MROC 250000Z 23004KT 6000 2500SW BR FEW006 SCT015TCU BKN120 22/22 A2998=
200507250100 METAR MROC 250100Z 16003KT 9999 FEW005 SCT025 BKN120 22/21 A2999 RMK 7000 NE VCFG=
200507250300 METAR MROC 250300Z 08003KT CAVOK 21/20 A3000=
200507250400 METAR MROC 250400Z 13010KT CAVOK 22/18 A3001=
200507250500 METAR MROC 250500Z 07003KT CAVOK 22/18 A3002=
200507250600 METAR MROC 250600Z 12008KT CAVOK 22/18 A3001=
200507250800 METAR MROC 250800Z 08007KT CAVOK 21/18 A2996=
200507250900 METAR MROC 250900Z 10006KT CAVOK 21/17 A2995=
200507251100 METAR MROC 251100Z 29003KT CAVOK 21/17 A2995 BECMG 4000SW BR SCT008=
200507251200 METAR MROC 251200Z 30004KT CAVOK 20/18 A2999=
200507251300 METAR MROC 251300Z 12003KT CAVOK 21/19 A3000=
200507251400 METAR MROC 251400Z 10005KT CAVOK 24/19 A3000=
200507251500 METAR MROC 251500Z 11011KT CAVOK 27/19 A3000=
200507251600 METAR MROC 251600Z 11010KT CAVOK 27/19 A2999=
200507251700 METAR MROC 251700Z 11014KT 9999 FEW035 BKN250 28/19 A2997=
200507251800 METAR MROC 251800Z 14007KT 9999 FEW035 SCT250 30/19 A2996=
200507251900 METAR MROC 251900Z 26011KT 9999 FEW020TCU SCT030 26/22 A2996 RMK RN DST N NE=
200507252000 METAR MROC 252000Z 25009KT 9999 -RA FEW012TCU SCT025 25/22 A2995=
200507252100 METAR MROC 252100Z 29008KT 9999 FEW015CB BKN025 26/22 A2993 BECMG 7000 VCSH=
200507252200 METAR MROC 252200Z 26014KT 9999 FEW015CB SCT025 BKN250 25/22 A2993 BECMG 5000 VCSH=
200507252300 METAR MROC 252300Z 22004KT 9999 FEW005 SCT020 BKN140 23/21 A2996 NOSIG=
200507260000 METAR MROC 260000Z 30005KT 9999 FEW007 BKN020 23/21 A2998 NOSIG=
200507260100 METAR MROC 260100Z 00000KT 9999 FEW005 SCT020 BKN250 22/21 A3000 BECMG 06005KT=
200507260200 METAR MROC 260200Z 00000KT 9999 SCT010 SCT020 22/21 A3000 NOSIG=
200507260300 METAR MROC 260300Z 10003KT CAVOK 22/21 A2999 NOSIG=
200507260400 METAR MROC 260400Z 10008KT CAVOK 23/18 A2997 NOSIG=
200507260500 METAR MROC 260500Z 12009KT CAVOK 22/18 A2996=
200507260600 METAR MROC 260600Z 03006KT CAVOK 21/18 A2996 NOSIG=
200507260800 METAR MROC 260800Z 02003KT CAVOK 21/19 A2994 NOSIG=
200507260900 METAR MROC 260900Z 34005KT CAVOK 21/19 A2993=
200507261000 METAR MROC 261000Z 10006KT CAVOK 22/18 A2992=
200507261200 METAR MROC 261200Z 07006KT 9999 SCT030 SCT200 21/18 A2994=
200507261300 METAR MROC 261300Z 10005KT 9999 FEW030 BKN070 22/19 A2996 NOSIG=
200507261400 METAR MROC 261400Z 11007KT 9999 FEW030 BKN070 23/18 A2997 NOSIG=
200507261500 METAR MROC 261500Z 07007KT 9999 -RA FEW030 BKN070 24/19 A2998 NOSIG=
200507261600 METAR MROC 261600Z 09008KT 9999 FEW030 SCT100 BKN250 25/20 A2995 NOSIG=
200507261700 METAR MROC 261700Z 10012KT 9999 FEW030 BKN250 27/20 A2995 NOSIG=
200507261800 METAR MROC 261800Z 11011KT 9999 FEW035 SCT100 BKN250 26/19 A2992 NOSIG=
200507261900 METAR MROC 261900Z 10007KT 9999 FEW035 SCT120 BKN250 28/20 A2991 BECMG 24006KT=
200507262000 METAR MROC 262000Z 10007KT 9999 FEW035 BKN250 30/19 A2989 NOSIG=
200507262100 METAR MROC 262100Z 27013KT 9999 FEW015 BKN110 25/22 A2989 NOSIG=
200507262200 METAR MROC 262200Z 25012KT 9999 SCT020 BKN110 24/22 A2991 NOSIG=
200507270000 METAR MROC 270000Z 25003KT 9999 FEW025 BKN110 23/21 A2993 NOSIG=
200507270100 METAR MROC 270100Z 22003KT 9999 FEW030 BKN120 22/21 A2995 NOSIG=
200507270200 METAR MROC 270200Z 12008KT 9999 FEW030 BKN120 22/19 A2997 NOSIG=
200507270300 METAR MROC 270300Z 04003KT 9999 FEW035 SCT120 22/19 A2998=
200507270400 METAR MROC 270400Z 10004KT 9999 FEW035 SCT120 22/19 A2999=
200507270500 METAR MROC 270500Z 09006KT CAVOK 22/18 A2998=
200507270600 METAR MROC 270600Z 10010KT CAVOK 23/19 A2996=
200507270700 METAR MROC 270700Z 10007KT 9999 FEW035 SCT120 23/18 A2995 BECMG CAVOK=
200507270800 METAR MROC 270800Z 10007KT 9999 FEW035 SCT120 22/18 A2994 NOSIG=
200507270900 METAR MROC 270900Z 10011KT 9999 FEW035 22/19 A2993 BECMG CAVOK=
200507271000 METAR MROC 271000Z 11008KT CAVOK 22/18 A2990 NOSIG=
200507271100 METAR MROC 271100Z 10013KT CAVOK 22/18 A2991=
200507271200 METAR MROC 271200Z 10012KT CAVOK 23/18 A2993 RMK RN DST E=
200507271300 METAR MROC 271300Z 11014KT 9999 FEW040 SCT250 24/19 A2996=
200507271400 METAR MROC 271400Z 10015KT 9999 FEW040 BKN260 25/19 A2997 NOSIG=
200507271500 METAR MROC 271500Z 08009KT 9999 FEW040 BKN260 27/18 A2995 NOSIG=
200507271600 METAR MROC 271600Z 13007KT 9999 FEW040 BKN260 29/20 A2994 NOSIG=
200507271700 METAR MROC 271700Z 09014KT 9999 SCT040 BKN260 29/17 A2995 NOSIG=
200507271800 METAR MROC 271800Z 12011KT 9999 SCT040 BKN260 29/19 A2994 NOSIG=
200507271900 METAR MROC 271900Z 10007KT 9999 FEW015TCU SCT040 SCT250 29/18 A2992 NOSIG=
200507272000 METAR MROC 272000Z 14009KT 9999 FEW015 SCT040 SCT250 28/18 A2990 NOSIG=
200507272100 METAR MROC 272100Z 02015KT 9999 4000NW RA SCT025 OVC150 25/21 A2989 NOSIG=
200507272200 METAR MROC 272200Z 00000KT 9999 FEW030 SCT120 BKN250 24/21 A2990 NOSIG=
200507272300 METAR MROC 272300Z 00000KT 9999 SCT030 BKN120 24/20 A2993 RMK TS DST SW=
200507280000 METAR MROC 280000Z 00000KT 9999 SCT030 BKN150 23/19 A2994=
200507280100 METAR MROC 280100Z 09004KT 9999 SCT030 BKN150 23/19 A2996 NOSIG=
200507280200 METAR MROC 280200Z 10013KT 9999 SCT030 BKN150 23/18 A2995=
200507280300 METAR MROC 280300Z 11015KT 9999 FEW030 BKN140 23/18 A2994 NOSIG=
200507280400 METAR MROC 280400Z 09010KT 9999 FEW030 BKN140 23/19 A2996 BECMG RMK=
200507280500 METAR MROC 280500Z 09006KT 9999 FEW030 BKN140 22/18 A2996 BECMG RMK=
200507280600 METAR MROC 280600Z 07007KT CAVOK 22/18 A2994 BECMG RMK LTNG DST ALL S QD=
200507280700 METAR MROC 280700Z 11012KT CAVOK 23/18 A2991 NOSIG=
200507280800 METAR MROC 280800Z 11012KT CAVOK 23/18 A2991 NOSIG=
200507280900 METAR MROC 280900Z 12013KT CAVOK 23/19 A2991 BECMG RMK LTNG DST QD S=
200507281000 METAR MROC 281000Z 11011KT CAVOK 23/19 A2992 NOSIG=
200507281100 METAR MROC 281100Z 07011KT 9999 -RA BKN100 SCT140 22/19 A2994 NOSIG=
200507281200 METAR MROC 281200Z 12013KT 9999 -RA OVC100 21/19 A2993 NOSIG=
200507281300 METAR MROC 281300Z 30005KT 9999 SCT045 OVC130 22/19 A2996 NOSIG=
200507281400 METAR MROC 281400Z 11007KT 9999 FEW035 OVC120 24/19 A2998 NOSIG=
200507281500 METAR MROC 281500Z 09004KT CAVOK 23/20 A3000 NOSIG=
200507281600 METAR MROC 281600Z 10014KT 9999 -RA OVC120 22/19 A3000 BECMG RMK VSBY E 6KM=
200507281700 METAR MROC 281700Z 10013KT 9999 -RA OVC120 21/18 A3000 NOSIG=
200507281800 METAR MROC 281800Z 10014KT CAVOK 24/18 A2993 NOSIG=
200507281900 METAR MROC 281900Z 12010KT CAVOK 28/19 A2990 NOSIG=
200507282100 METAR MROC 282100Z 06016KT 9999 SCT025 SCT170 27/18 A2992=
200507282200 METAR MROC 282200Z 10007KT 9999 FEW030 BKN200 26/18 A2992=
200507282300 METAR MROC 282300Z 10011KT 9999 -DZ FEW035 BKN150 25/17 A2991=
200507290000 METAR MROC 290000Z 10012KT CAVOK 24/17 A2990=
200507290100 METAR MROC 290100Z 12008KT CAVOK 23/17 A2993=
200507290200 METAR MROC 290200Z 12006KT CAVOK 23/16 A2996=
200507290300 METAR MROC 290300Z 01008KT CAVOK 22/18 A2998 NOSIG=
200507290400 METAR MROC 290400Z 08006KT CAVOK 22/18 A2996 NOSIG=
200507290500 METAR MROC 290500Z 04004KT CAVOK 21/17 A2996 NOSIG=
200507290600 METAR MROC 290600Z 03005KT CAVOK 22/17 A2995 NOSIG=
200507290700 METAR MROC 290700Z 200032KT CAVOK 22/17 A2996 NOSIG=
200507290800 METAR MROC 290800Z 11010KT CAVOK 21/18 A2994 NOSIG=
200507290900 METAR MROC 290900Z 10008KT CAVOK 21/18 A2993 RMK TSTM DST S=
200507291000 METAR MROC 091000Z 10008KT CAVOK 21/18 A2994 NOSIG=
200507291100 METAR MROC 291100Z 05007KT CAVOK 21/17 A2994 NOSIG=
200507291200 METAR MROC 291200Z 05004KT 9999 FEW040 SCT130 BKN250 21/17 A2994 NOSIG=
200507291300 METAR MROC 291300Z 12009KT 9999 FEW030 BKN200 23/18 A2997=
200507291400 METAR MROC 291400Z 13007KT 9000 -DZ SCT025 BKN150 23/19 A2999=
200507291500 METAR MROC 291500Z 12009KT 9999 SCT035 SCT250 26/19 A2999=
200507291600 METAR MROC 291600Z 12007KT 9999 SCT035 SCT200 27/20 A2999=
200507291700 METAR MROC 291700Z 13008KT 9999 SCT035 SCT250 29/19 A2998=
200507291800 METAR MROC 291800Z 06009KT 9999 SCT025TCU SCT100 29/19 A2997=
200507291900 METAR MROC 291900Z 07006KT 9999 SCT030 SCT250 30/20 A2993=
200507292000 METAR MROC 292000Z 22004KT 9999 FEW020 SCT030 27/23 A2994=
200507292100 METAR MROC 292100Z 00000KT 9999 FEW015 BKN035 24/20 A2994 RERA BECMG RMK RN DST NE W=
200507292200 METAR MROC 292200Z 10004KT 9999 SCT035 OVC140 23/20 A2994 BECMG RMK RN N=
200507292300 METAR MROC 292300Z 09003KT 9999 -RA SCT030 OVC140 24/20 A2994 BECMG RMK RN N NE=
200507300000 METAR MROC 300000Z 08008KT 9999 -RA SCT025 SCT080 OVC140 22/20 A2997 BECMG RMK VSBY N NE 6KM DUE RN=
200507300100 METAR MROC 300100Z 10009KT 9999 SCT030 BKN140 21/19 A2999 NOSIG=
200507300200 METAR MROC 300200Z 08005KT 9999 FEW035 BKN140 22/19 A2999 NOSIG=
200507300300 METAR MROC 300300Z 08004KT CAVOK 22/19 A3000 NOSIG=
200507300400 METAR MROC 300400Z 10007KT CAVOK 22/19 A3000 NOSIG=
200507300500 METAR MROC 300500Z 08006KT CAVOK 22/19 A2999=
200507300600 METAR MROC 300600Z 09008KT CAVOK 22/18 A2997=
200507300700 METAR MROC 300700Z 09006KT CAVOK 23/17 A2995=
200507300900 METAR MROC 300900Z 10010KT CAVOK 22/17 A2995=
200507301000 METAR MROC 301000Z 10009KT 9999 DZ SCT025 SCT120 20/17 A2993=
200507301100 METAR MROC 301100Z 09005KT 9999 SCT025 SCT100 20/17 A2993 RERA=
200507301200 METAR MROC 301200Z 06006KT CAVOK 21/16 A2996=
200507301300 METAR MROC 301300Z 11011KT CAVOK 23/17 A2997=
200507301400 METAR MROC 301400Z 10014G26KT CAVOK 25/17 A2998=
200507301500 METAR MROC 301500Z 12013KT CAVOK 24/17 A2999=
200507301600 METAR MROC 301600Z 10010KT CAVOK 26/17 A2998=
200507301700 METAR MROC 301700Z 10012KT CAVOK 26/16 A2998=
200507301800 METAR MROC 301800Z 09013KT CAVOK 27/17 A2999=
200507301900 METAR MROC 301900Z 09013KT 9999 FEW045 SCT250 29/18 A2997=
200507302000 METAR MROC 302000Z 07016KT 9999 FEW040 29/16 A2994=
200507302100 METAR MROC 302100Z 09012KT 9999 FEW040 SCT100 BKN250 29/17 A2994 NOSIG=
200507302200 METAR MROC 302200Z 10008KT 9999 FEW040 SCT120 BKN250 28/15 A2994 NOSIG=
200507302300 METAR MROC 302300Z VRB04KT 9999 FEW035 BKN120 25/21 A2997 BECMG 24005KT=
200507310000 METAR MROC 310000Z 28003KT 9999 FEW010 SCT020 BKN120 22/21 A2999 NOSIG=
200507310100 METAR MROC 310100Z 00000KT 9999 FEW030 SCT120 BKN250 22/20 A3001 RMK LTNG=
200507310200 METAR MROC 310200Z 09005KT 9999 FEW035 SCT120 BKN250 21/20 A3003 BECMG CAVOK RMK TS DIST S=
200507310300 METAR MROC 310300Z 00000KT 9999 FEW035 SCT120 22/18 A3003 RMK LTNG DST S=
200507310400 METAR MROC 310400Z 13006KT CAVOK 22/17 A3003=
200507310700 METAR MROC 310700Z 09006KT CAVOK 21/17 A2996=
200507310800 METAR MROC 310800Z 10012KT CAVOK 22/17 A2995=
200507310900 METAR MROC 310900Z 10012G24KT CAVOK 22/17 A2994=
200507311000 METAR MROC 311000Z 10016KT CAVOK 21/16 A2994=
200507311100 METAR MROC 311100Z 11012KT CAVOK 21/17 A2993=
200507311200 METAR MROC 311200Z 09016KT 9999 FEW030 SCT100 BKN250 22/17 A2995=
200507311300 METAR MROC 311300Z 11011KT 9999 FEW030 BKN120 22/15 A3000 NOSIG=
200507311400 METAR MROC 311400Z 12008KT CAVOK 23/16 A2999 BECMG RMK BKN100=
200507311500 METAR MROC 311500Z 10005KT CAVOK 24/16 A3001 BECMG RMK BKN120=
200507311600 METAR MROC 311600Z 11012KT 9999 FEW040 SCT120 27/23 A2999 NOSIG=
200507311700 METAR MROC 311700Z 11014KT 9999 FEW040 SCT120 27/18 A2998 NOSIG=
200507311800 METAR MROC 311800Z 10013KT 9999 FEW035 SCT120 28/18 A2997 BECMG 24007KT=
200507311900 METAR MROC 311900Z 10012KT 9999 FEW035 SCT120 27/19 A2995 NOSIG=
200507312000 METAR MROC 312000Z 09012KT 9999 FEW035 SCT120 BKN300 28/19 A2993 NOSIG=
200507312100 METAR MROC 312100Z 10016KT 9999 FEW020 SCT120 BKN300 26/19 A2992 NOSIG=
200507312200 METAR MROC 312200Z 12017KT 9999 SCT020 BKN110 25/18 A2994 NOSIG=
200507312300 METAR MROC 312300Z 33004KT 9999 SCT020 BKN110 23/20 A2997 NOSIG=
200508010000 METAR MROC 010000Z 35009KT 9999 SCT030 BKN100 22/20 A2997 NOSIG=
200508010100 METAR MROC 010100Z 10010KT 9999 FEW030 BKN100 21/18 A2998 NOSIG=
200508010200 METAR MROC 010200Z 11017KT 9999 FEW030 BKN100 22/17 A2998 NOSIG=
200508010300 METAR MROC 010300Z 12011KT CAVOK 22/16 A3001=
200508010400 METAR MROC 010400Z 08009KT CAVOK 22/16 A3001=
200508010500 METAR MROC 010500Z 06003KT CAVOK 22/16 A3001=
200508010600 METAR MROC 010600Z 10007KT CAVOK 22/16 A3000=
200508010700 METAR MROC 010700Z 26008KT 0800SW 9999E FG SCT001 SCT260 20/18 A2999 BECMG 2000 BR SCT002 SCT020=
200508010800 METAR MROC 010800Z 30004KT 0800SW 6000E FG SCT001 BKN012 20/20 A2999 BECMG 4000 BR SCT003 SCT020=
200508010900 METAR MROC 010900Z 04004KT 9999 FEW003 SCT260 19/18 A2997 RMK VIS 5000 S/W DUE ST CB/LTNG DST S/SW BECMG CAVOK=
200508011000 METAR MROC 011000Z 03004KT 9999 FEW030 SCT260 19/17 A2997 RMK CB/LTNG HVY DST SSE/S/SW ST S=
200508011100 METAR MROC 011100Z 03005KT 9999 FEW020 SCT250 19/17 A2996 RMK CB LTNG DST SSW SW=
200508011200 METAR MROC 011200Z 10006KT CAVOK 21/17 A2998 RMK CB DST SSW SW RN DST E=
200508011300 METAR MROC 011300Z 04007KT CAVOK 22/18 A3001 NOSIG=
200508011400 METAR MROC 011400Z 10012KT CAVOK 25/18 A3001 NOSIG=
200508011500 METAR MROC 011500Z 12013KT CAVOK 26/18 A3002 NOSIG=
200508011600 METAR MROC 011600Z 11015KT CAVOK 26/18 A3002 NOSIG=
200508011700 METAR MROC 011700Z 11017KT 9999 FEW040 SCT120 BKN250 25/19 A3002 NOSIG=
200508011800 METAR MROC 011800Z 10010KT 9999 FEW040 BKN120 26/18 A3001 NOSIG=
200508011900 METAR MROC 011900Z 12014KT 9999 SCT035 BKN120 26/18 A3000 NOSIG=
200508012000 METAR MROC 012000Z 10013KT 9999 SCT035 SCT120 BKN250 27/19 A2996 NOSIG=
200508012100 METAR MROC 012100Z 27005KT 9999 SCT030 BKN150 26/21 A2995 NOSIG=
200508012200 METAR MROC 012200Z 09005KT 9999 FEW030 BKN150 26/18 A2994 NOSIG=
200508012300 METAR MROC 012300Z 27004KT 9999 FEW025 BKN150 24/21 A2996 NOSIG=
200508020000 METAR MROC 020000Z 10008KT 9999 FEW025 BKN150 24/18 A2998 NOSIG=
200508020100 METAR MROC 020100Z 31003KT 9999 FEW030 BKN150 22/21 A3001=
200508020200 METAR MROC 020200Z 25003KT 9999 FEW030 BKN150 21/21 A3002 NOSIG=
200508020300 METAR MROC 020300Z 02003KT CAVOK 22/20 A3002 BECMG RMK HZY=
200508020400 METAR MROC 020400Z 00000KT CAVOK 21/19 A3002 NOSIG=
200508020500 METAR MROC 020500Z 26004KT 0200 FG VV/// 20/20 A3002 BECMG 6000=
200508020600 METAR MROC 020600Z 36003KT 1200 BR BKN001 20/20 A3002 BECMG 6000=
200508020700 METAR MROC 020700Z 05005KT 9999 FEW003 BKN250 19/19 A2999 NOSIG=
200508020800 METAR MROC 020800Z 05004KT CAVOK 19/18 A2997 NOSIG=
200508020900 METAR MROC 020900Z 07008KT CAVOK 20/17 A2995 NOSIG=
200508021000 METAR MROC 021000Z 11007KT CAVOK 21/16 A2994 NOSIG=
200508021100 METAR MROC 021100Z 11011KT CAVOK 21/17 A2993 NOSIG=
200508021200 METAR MROC 021200Z 10010KT CAVOK 22/16 A2995 NOSIG=
200508021300 METAR MROC 021300Z 12009KT CAVOK 24/16 A2999=
200508021400 METAR MROC 021400Z 12011KT CAVOK 25/17 A3001=
200508021500 METAR MROC 021500Z 12008KT CAVOK 27/17 A3001=
200508021600 METAR MROC 021600Z 11011KT 9999 FEW035 SCT250 28/18 A3000=
200508021700 METAR MROC 021700Z 11009KT 9999 FEW035 SCT250 30/18 A2999=
200508021800 METAR MROC 021800Z 09009KT 9999 BKN035 29/19 A2998=
200508021900 METAR MROC 021900Z 11004KT 9999 BKN035 27/19 A2997 RMK RN N NE=
200508022000 METAR MROC 022000Z 07009KT 9999 SCT035 SCT250 28/18 A2994=
200508022100 METAR MROC 022100Z 26010KT 8000 VCFG FEW005 BKN090 24/22 A2995 RMK BR SW=
200508022200 METAR MROC 022200Z 27008KT 9000 FEW010 BKN120 24/21 A2995 RMK BR ARND=
200508022300 METAR MROC 022300Z 26005KT 9999 FEW005 BKN150 23/21 A2996 RMK BR ARND=
200508030000 METAR MROC 030000Z 28003KT 9999 FEW010 BKN200 22/21 A2999=
200508030200 METAR MROC 030200Z 00000KT CAVOK 22/20 A3002 BECMG RMK LTNG DST S=
200508030300 METAR MROC 030300Z 00000KT CAVOK 21/20 A3002 NOSIG=
200508030400 METAR MROC 030400Z 00000KT CAVOK 22/18 A2998 NOSIG=
200508030500 METAR MROC 030500Z 34005KT CAVOK 21/20 A3002 NOSIG=
200508030600 METAR MROC 030600Z 12009KT CAVOK 20/17 A2996 NOSIG=
200508030700 METAR MROC 030700Z 11017KT CAVOK 22/17 A2994=
200508030800 METAR MROC 030800Z 12015KT CAVOK 22/17 A2995=
200508030900 METAR MROC 030900Z 11009KT CAVOK 21/17 A2995=
200508031000 METAR MROC 031000Z 12011KT CAVOK 21/17 A2994=
200508031100 METAR MROC 031100Z 12011KT CAVOK 21/17 A2994 NOSIG=
200508031200 METAR MROC 031200Z 08008KT 9999 FEW030 BKN300 20/17 A2996 NOSIG=
200508031300 METAR MROC 031300Z 11006KT CAVOK 24/18 A2996=
200508031700 METAR MROC 031700Z 13007KT 9999 SCT025TCU SCT100 27/19 A2995 NOSIG=
200508031800 METAR MROC 031800Z 11006KT 9999 FEW020 BKN040 27/19 A2994 BECMG RMK VSBY N 6KM=
200508031900 METAR MROC 031900Z 01005KT 9999 SCT025TCU SCT090 25/19 A2993=
200508032000 METAR MROC 032000Z 12008KT 9999 SCT025 SCT120 27/19 A2990=
200508032100 METAR MROC 032100Z 09005KT 9999 FEW015 SCT030 BKN120 26/18 A2989 RMK RN DST E=
200508032200 METAR MROC 032200Z 10010KT 9999 FEW015 BKN120 24/19 A2989 RMK RN DST SE E=
200508032300 METAR MROC 032300Z 09011KT 9999 SCT030 BKN120 24/17 A2991=
200508040000 METAR MROC 040000Z 08009KT 9999 FEW025 BKN120 23/17 A2993=
200508040100 METAR MROC 040100Z 11011KT CAVOK 22/17 A2993=
200508040200 METAR MROC 040200Z 12007KT CAVOK 22/18 A2995 RMK CB LTNG DST S SW W=
200508040300 METAR MROC 040300Z 10005KT CAVOK 22/17 A2998 NOSIG=
200508040500 METAR MROC 040500Z 00000KT CAVOK 20/18 A2996 NOSIG=
200508040600 METAR MROC 040600Z 09004KT CAVOK 21/18 A2996 NOSIG=
200508040700 METAR MROC 040700Z 10005KT CAVOK 21/18 A2994 NOSIG=
200508040800 METAR MROC 040800Z 09013KT CAVOK 21/17 A2992 NOSIG=
200508040900 METAR MROC 040900Z 09007KT CAVOK 21/17 A2991 NOSIG=
200508041000 METAR MROC 041000Z 07008KT CAVOK 21/18 A2991 RMK LTNG DIST SSW/ NOSIG=
200508041100 METAR MROC 041100Z 04006KT CAVOK 20/17 A2994 RMK LTNG DIST SW / NOSIG=
200508041200 METAR MROC 041200Z 08004KT 9999 FEW030 SCT250 20/17 A2996 NOSIG=
200508041300 METAR MROC 041300Z 07005KT 9999 FEW030 BKN250 23/18 A2997=
200508041400 METAR MROC 041400Z 11011KT 9999 FEW020 SCT250 24/18 A2997=
200508041500 METAR MROC 041500Z 09011KT 9999 FEW035 SCT250 28/17 A2998=
200508041600 METAR MROC 041600Z 08012KT 9999 FEW030 SCT250 28/17 A2997=
200508041700 METAR MROC 041700Z 10008KT CAVOK 30/19 A2995 NOSIG=
200508041800 METAR MROC 041800Z 09011KT 9999 FEW035 BKN250 29/18 A2994 NOSIG=
200508041900 METAR MROC 041900Z 07012KT 9999 FEW020 BKN035 28/18 A2993 NOSIG=
200508042000 METAR MROC 042000Z 10008KT 9999 BKN035 SCT250 28/19 A2991 RMK RN DST E=
200508042100 METAR MROC 042100Z 11012KT 9999 SCT035 SCT100 28/18 A2989 NOSIG=
200508042200 METAR MROC 042200Z 11010KT 9999 SCT035 SCT120 27/17 A2990 NOSIG=
200508042300 METAR MROC 042300Z 11011KT 9999 FEW035 SCT120 BKN250 26/18 A2991 NOSIG=
200508050000 METAR MROC 050000Z 00000KT 9999 FEW010 SCT100 BKN250 24/18 A2993 BECMG 24006KT 6000 BR SCT006 RMK LOW CLDS TO SW W=
200508050100 METAR MROC 050100Z 31004KT 9999 FEW005 SCT100 BKN250 22/21 A2995 BECMG RMK VIS SW W 7KMS DUE LOW ST=
200508050200 METAR MROC 050200Z 30004KT 9999 FEW005 SCT100 BKN250 22/21 A2996 NOSIG=
200508050300 METAR MROC 050300Z 04003KT CAVOK 22/20 A2998=
200508050400 METAR MROC 050400Z 06005KT CAVOK 22/19 A2999=
200508050500 METAR MROC 050500Z 17004KT CAVOK 21/19 A2998=
200508050600 METAR MROC 050600Z 29003KT 7000SW VCFG SCT002 21/20 A2998=
200508050700 METAR MROC 050700Z 32005KT 9999 FEW010 SCT100 20/20 A2996=
200508050900 METAR MROC 050900Z 07006KT CAVOK 21/18 A2992=
200508051000 METAR MROC 051000Z 10007KT CAVOK 22/18 A2992=
200508051100 METAR MROC 051100Z 07004KT CAVOK 22/18 A2994=
200508051200 METAR MROC 051200Z 03004KT CAVOK 21/17 A2994=
200508051300 METAR MROC 051300Z 35004KT CAVOK 21/18 A2996 NOSIG=
200508051400 METAR MROC 051400Z 10004KT CAVOK 24/19 A2996 NOSIG=
200508051500 METAR MROC 051500Z 11011KT 9999 FEW030 BKN250 25/19 A2996 NOSIG=
200508051600 METAR MROC 051600Z 11012KT 9999 SCT025 SCT120 BKN250 26/19 A2997 NOSIG=
200508051700 METAR MROC 051700Z 11012KT 9999 SCT025 SCT120 BKN250 26/19 A2997 NOSIG=
200508051800 METAR MROC 051800Z 11012KT 9999 SCT025 SCT120 BKN250 27/19 A2996 NOSIG=
200508051900 METAR MROC 051900Z 08009KT 9999 SCT035 SCT120 BKN250 27/18 A2994 NOSIG=
200508052000 METAR MROC 052000Z 08010KT 9999 SCT030 BKN120 27/18 A2993 RMK RN E BECMG 6000 -RA=
200508052100 METAR MROC 052100Z 08011KT 9999 SCT030 BKN120 26/16 A2992 RMK RN S NOSIG=
200508052200 METAR MROC 052200Z 10010KT 9999 SCT030 BKN120 25/17 A2992 NOSIG=
200508052300 METAR MROC 052300Z 11009KT 9999 SCT025 BKN120 24/18 A2993 NOSIG=
200508060000 METAR MROC 060000Z 11014KT 9999 SCT025 BKN110 23/17 A2995 NOSIG=
200508060100 METAR MROC 060100Z 10009KT 9999 FEW035 BKN110 23/18 A2997 NOSIG=
200508060200 METAR MROC 060200Z 12008KT 9999 FEW035 BKN110 22/18 A2997 NOSIG=
200508060300 METAR MROC 060300Z 11007KT 9999 FEW035 BKN120 22/17 A2999 RMK CB LTNG DST SSW SW=
200508060400 METAR MROC 060400Z 11010KT CAVOK 22/17 A3000 RMK CB LTNG DST SW=
200508060500 METAR MROC 060500Z 12007KT CAVOK 22/17 A3000=
200508060600 METAR MROC 060600Z 00000KT CAVOK 21/17 A2997=
200508060700 METAR MROC 060700Z 04010KT CAVOK 20/17 A2995=
200508060800 METAR MROC 060800Z 07005KT CAVOK 19/16 A2992=
200508060900 METAR MROC 060900Z 07005KT CAVOK 19/15 A2992=
200508061000 METAR MROC 061000Z 07008KT CAVOK 18/15 A2992=
200508061100 METAR MROC 061100Z 02004KT CAVOK 19/16 A2992=
200508061200 METAR MROC 061200Z 19004KT CAVOK 23/21 A2993 RMK DZ DST NE CB DST SW=
200508061300 METAR MROC 061300Z 07010KT CAVOK 20/17 A2996 RMK CB SW NOSIG=
200508061400 METAR MROC 061400Z 01007KT CAVOK 22/17 A2997 NOSIG=
200508061500 METAR MROC 061500Z 08005KT 9999 FEW040 BKN120 23/17 A2998 NOSIG=
200508061600 METAR MROC 061600Z 10010KT 9999 FEW040 BKN120 24/18 A2998 NOSIG=
200508061700 METAR MROC 061700Z 10005KT CAVOK 25/18 A2997 NOSIG=
200508061800 METAR MROC 061800Z VRB03KT CAVOK 26/18 A2996 NOSIG=
200508061900 METAR MROC 061900Z 25006KT CAVOK 26/19 A2994 NOSIG=
200508062000 METAR MROC 062000Z VRB03KT 9999 FEW040 BKN250 25/20 A2993 NOSIG=
200508062100 METAR MROC 062100Z 28004KT 9999 FEW035 SCT100 BKN250 26/20 A2992=
200508062200 METAR MROC 062200Z 10004KT 9999 FEW035 SCT100 BKN250 26/19 A2992=
200508062300 METAR MROC 062300Z 24006KT 9999 FEW035 SCT100 BKN250 23/21 A2994=
200508070000 METAR MROC 070000Z 25005KT 9999 FEW030 BKN110 22/21 A2997=
200508070100 METAR MROC 070100Z 26004KT 8000 FEW005 SCT030 BKN100 22/21 A2999 NOSIG=
200508070200 METAR MROC 070200Z 00000KT 8000 -DZ FEW006 SCT030 BKN100 22/21 A2999 NOSIG=
200508070300 METAR MROC 070300Z 08004KT 9999 FEW035 BKN100 21/19 A2998 NOSIG=
200508070400 METAR MROC 070400Z 10012KT CAVOK 22/18 A2997 NOSIG=
200508070500 METAR MROC 070500Z 11007KT CAVOK 22/18 A2997 NOSIG=
200508070600 METAR MROC 070600Z 08008KT 9999 FEW025 SCT100 21/18 A2996 NOSIG=
200508070700 METAR MROC 070700Z 32004KT 9999 FEW025 SCT100 21/18 A2996 NOSIG=
200508070800 METAR MROC 070800Z 05006KT 9999 FEW030 BKN100 21/18 A2995 NOSIG=
200508070900 METAR MROC 070900Z 05004KT CAVOK 21/18 A2995 NOSIG=
200508071000 METAR MROC 071000Z 05003KT CAVOK 20/17 A2993 NOSIG=
200508071100 METAR MROC 071100Z 02006KT CAVOK 20/17 A2993 NOSIG=
200508071200 METAR MROC 071200Z 11012KT 9999 FEW030 BKN120 22/18 A2995 NOSIG=
200508071300 METAR MROC 071300Z 12011KT 9999 FEW030 BKN120 23/18 A2997 NOSIG=
200508071400 METAR MROC 071400Z 10012KT 9999 FEW030 SCT120 BKN250 24/18 A2999 NOSIG=
200508071500 METAR MROC 071500Z 10008KT 9999 -RA SCT030 SCT120 BKN250 24/18 A3000 NOSIG=
200508071600 METAR MROC 071600Z 12007KT 9999 SCT025 BKN120 24/18 A3000 NOSIG=
200508071700 METAR MROC 071700Z 11011KT 9999 SCT025 BKN130 25/18 A2999 NOSIG=
200508071800 METAR MROC 071800Z 11014KT 9999 SCT025 BKN120 26/18 A2998 NOSIG=
200508071900 METAR MROC 071900Z 10016KT 9999 SCT020 BKN100 25/17 A2996 NOSIG=
200508072000 METAR MROC 072000Z 09015KT 9999 SCT025 BKN100 25/17 A2994 NOSIG=
200508072100 METAR MROC 072100Z 08015KT 9999 SCT015CB BKN080 24/16 A2996=
200508072200 METAR MROC 072200Z 10016KT 9999 SCT030 SCT180 25/16 A2992 NOSIG=
200508072300 METAR MROC 072300Z 11018KT 9999 SCT035 SCT200 23/16 A2992 NOSIG=
200508080000 METAR MROC 080000Z 11015KT 9999 SCT045 SCT250 23/17 A2993 NOSIG=
200508080100 METAR MROC 080100Z 10010KT CAVOK 22/16 A2994 NOSIG=
200508080200 METAR MROC 080200Z 10015KT CAVOK 22/15 A2993=
200508080300 METAR MROC 080300Z 10016KT CAVOK 23/15 A2995 NOSIG=
200508080400 METAR MROC 080400Z 11015KT CAVOK 22/15 A2997 NOSIG=
200508080600 METAR MROC 080600Z 10012KT CAVOK 21/15 A2997 NOSIG=
200508080700 METAR MROC 080700Z 11014KT CAVOK 21/15 A2995 RMK LTNG DST SW=
200508080900 METAR MROC 080900Z 11012KT CAVOK ///// A2993 NOSIG=
200508081100 METAR MROC 081100Z 04008KT CAVOK 21/15 A2996 NOSIG=
200508081200 METAR MROC 081200Z 11015KT CAVOK ///// A2997 NOSIG=
200508081300 METAR MROC NIL=
200508081402 METAR MROC 081400Z 12016KT CAVOK 24/16 A3000=
200508081500 METAR MROC 081500Z 10014KT CAVOK 25/17 A3001=
200508081600 METAR MROC NIL=
200508081700 METAR MROC NIL=
200508081800 METAR MROC 081800Z 11014KT 9999 SCT030 BKN280 27/17 A2995 NOSIG=
200508081900 METAR MROC 081900Z 10012KT 9999 BKN030 SCT280 26/15 A2996 NOSIG=
200508082000 METAR MROC 082000Z 11015KT 9999 SCT025 SCT100 25/15 A2994=
200508082100 METAR MROC 082100Z 12017KT 9999 FEW025 BKN100 24/16 A2993 RMK DZ DST E NE=
200508082200 METAR MROC 082200Z 10016KT 9999 FEW030 BKN110 24/16 A2992=
200508082300 METAR MROC 082300Z 11015KT CAVOK 23/17 A2993=
200508090000 METAR MROC 090000Z 12012KT CAVOK 22/16 A2995=
200508090100 METAR MROC 090100Z 11011KT CAVOK 22/17 A2997=
200508090200 METAR MROC 090200Z 10010KT CAVOK 22/17 A2999=
200508090300 METAR MROC 090300Z 12013KT CAVOK 22/17 A3000 NOSIG=
200508090400 METAR MROC 090400Z 12013KT CAVOK 22/17 A3000 NOSIG=
200508090500 METAR MROC 050900Z 10007KT CAVOK 22/19 A3000 NOSIG=
200508090700 METAR MROC 090700Z 05006KT CAVOK 21/17 A2998 NOSIG=
200508090800 METAR MROC 090800Z 35004KT CAVOK 29/17 A2994 NOSIG=
200508090900 METAR MROC 090900Z 06006KT CAVOK 21/17 A2994=
200508091000 METAR MROC 091000Z 08005KT CAVOK 20/16 A2993 NOSIG=
200508091100 METAR MROC 091100Z 09008KT CAVOK 20/17 A2995 NOSIG=
200508091200 METAR MROC 091200Z 10010KT 9999 FEW035 BKN120 22/18 A2995 NOSIG=
200508091300 METAR MROC 091300Z 01007KT CAVOK 23/18 A2998 RMK DZ DST NE E=
200508091400 METAR MROC 091400Z 10006KT CAVOK 25/19 A2999 RMK DZ DST NE E=
200508091500 METAR MROC 091500Z 13008KT 9999 SCT035 SCT250 26/19 A3000 RMK RN DST NE E=
200508091600 METAR MROC 091600Z 11015KT 9999 SCT030 SCT250 27/20 A3000=
200508091700 METAR MROC 091700Z 13010KT 9999 SCT030 SCT250 28/19 A2998=
200508091800 METAR MROC 091800Z 10017KT 9999 FEW015 BKN025 27/17 A2997 RMK RN DST N NE E SE=
200508091900 METAR MROC 091900Z 10013KT 9999 DZ SCT030 BKN120 23/19 A2997=
200508092000 METAR MROC 092000Z 13010KT CAVOK 24/19 A2995 RMK RN DST NE E=
200508092100 METAR MROC 092100Z 14009KT 9999 FEW020 OVC130 23/18 A2993 NOSIG=
200508092200 METAR MROC 092200Z 11010KT 9999 FEW025 BKN130 23/17 A2995 NOSIG=
200508092300 METAR MROC 092300Z 00000KT 9999 FEW030 SCT100 BKN250 23/17 A2997 BECMG 6000 VCFG=
200508100000 METAR MROC 100000Z 02003KT CAVOK 22/18 A2997 NOSIG=
200508100100 METAR MROC 100100Z 10008KT CAVOK 22/17 A2997 NOSIG=
200508100200 METAR MROC 100200Z VRB03KT CAVOK 22/17 A2999=
200508100300 METAR MROC 100300Z 07004KT CAVOK 22/18 A3001=
200508100400 METAR MROC 100400Z 11008KT CAVOK 22/17 A3001=
200508100500 METAR MROC 100500Z 09006KT CAVOK 22/17 A3001=
200508100600 METAR MROC 100600Z 10008KT CAVOK 21/18 A2999=
200508100700 METAR MROC 100700Z 25004KT CAVOK 20/18 A2999 NOSIG=
200508100800 METAR MROC 100800Z 24003KT 9999 FEW005 19/18 A2998 RMK BR ARND=
200508100900 METAR MROC 100900Z 00000KT 9999 FEW010 SCT150 18/18 A2997=
200508101000 METAR MROC 101000Z 00000KT CAVOK 18/18 A2998=
200508101200 METAR MROC 101200Z 00000KT CAVOK 18/17 A2999=
200508101300 METAR MROC 101300Z 00000KT CAVOK 22/19 A3000 NOSIG=
200508101400 METAR MROC 101400Z 06004KT 9999 FEW035 BKN250 25/19 A3000 NOSIG=
200508101500 METAR MROC 101500Z 11014KT 9999 FEW035 BKN250 26/18 A3001 NOSIG=
200508101600 METAR MROC 101600Z 11011KT 9999 FEW040 BKN250 27/18 A3001 NOSIG=
200508101700 METAR MROC 101700Z 12009KT 9999 FEW040 SCT250 28/18 A3000 NOSIG=
200508101800 METAR MROC 101800Z 12005KT 9999 FEW040 SCT300 30/18 A2997 BECMG 26008=
200508101900 METAR MROC 101900Z 24011KT 9999 FEW025TCU SCT040 28/21 A2994 RMK CB TS RASH DIST S BECMG 4000 TSRA=
200508102100 METAR MROC 102100Z 18007KT 9999 2000SE RA FEW020CB SCT030 BKN100 25/20 A2994 NOSIG=
200508102200 METAR MROC 102200Z 10005KT 6000 RA FEW020CB SCT030 BKN100 19/19 A2996 RMK VIS S UNL TSTM DST NW=
200508102300 METAR MROC 102300Z 02005KT 8000 RA SCT030 OVC100 20/19 A2998 BECMG RA RMK VIS S UNL=
200508110000 METAR MROC 110000Z 10005KT 8000 -RA SCT030 OVC100 20/20 A2998 TEMPO RA=
200508110100 METAR MROC 110100Z 06009KT 9999 FEW030 BKN100 22/19 A3002 NOSIG=
200508110200 METAR MROC 110200Z 05008KT CAVOK 21/19 A3001 NOSIG=
200508110300 METAR MROC 110300Z 10003KT CAVOK 21/19 A3003=
200508110400 METAR MROC 110400Z 33004KT 9999 -DZ BKN090 20/19 A3005=
200508110500 METAR MROC 110500Z 03004KT 9999 DZ BKN090 21/19 A3004=
200508110600 METAR MROC 110600Z 07006KT CAVOK 20/19 A3001=
200508110700 METAR MROC 110700Z 06010KT CAVOK 20/18 A2998=
200508110800 METAR MROC 110800Z 05008KT CAVOK 21/18 A2996=
200508110900 METAR MROC 110900Z 07006KT CAVOK 21/18 A2996=
200508111100 METAR MROC 111100Z 08005KT CAVOK 21/17 A2997=
200508111200 METAR MROC 111200Z 05008KT CAVOK 20/17 A2999=
200508111300 METAR MROC 111300Z 09005KT 9999 FEW045 SCT130 23/18 A3001 NOSIG=
200508111400 METAR MROC 111400Z 09009KT 9999 FEW045 SCT130 BKN260 25/19 A3002 NOSIG=
200508111500 METAR MROC 111500Z 11008KT 9999 FEW045 BKN260 26/19 A3002 NOSIG=
200508111600 METAR MROC 111600Z 12008KT 9999 FEW040 BKN260 28/19 A3002 NOSIG=
200508111700 METAR MROC 111700Z 26010KT 9999 SCT040 BKN260 26/20 A3001 NOSIG=
200508111800 METAR MROC 111800Z 22007KT 9999 SCT040 BKN250 27/21 A2999 NOSIG=
200508111900 METAR MROC 111900Z 24011KT 9999 FEW020TCU SCT035 BKN250 27/21 A2997 NOSIG=
200508112000 METAR MROC 112000Z 29020G30KT 1000 +TSRA FEW015CB SCT030 BKN100 19/18 A2995 RMK VIS E UNL=
200508112100 METAR MROC 112100Z 22004KT 3000 +TS RA FEW010CB SCT030 OVC100 20/20 A2998=
200508112200 METAR MROC 112200Z 30005KT 9000 FEW007 SCT020 OVC100 20/20 A2998 NOSIG=
200508112300 METAR MROC 112300Z 00000KT 9999 FEW007 BKN100 22/20 A2998 NOSIG=
200508120000 METAR MROC 120000Z 00000KT 9999 FEW015 BKN100 21/20 A2998=
200508120100 METAR MROC 120100Z 30003KT 9999 FEW010 BKN100 21/20 A3000=
200508120200 METAR MROC 120200Z 00000KT 0500 VV/// 20/20 A3001 NOSIG=
200508120300 METAR MROC 120300Z 00000KT 2000SW BR SCT001 SCT100 BKN250 20/19 A3004 BECMG 7000 VCFG RMK VIS SE E 8KMS VIS 1KM TO N QD=
200508120500 METAR MROC 120500Z 01006KT 9999 FEW025 BKN250 20/18 A3002 NOSIG=
200508120600 METAR MROC 120600Z 06004KT 9999 FEW025 BKN250 19/18 A2999 NOSIG=
200508120700 METAR MROC 120700Z 07005KT 9999 FEW025 BKN250 20/18 A2996 NOSIG=
200508120800 METAR MROC 120800Z 03006KT 9999 FEW025 BKN250 18/16 A2995 NOSIG=
200508120900 METAR MROC 120900Z 00000KT 9999 FEW030 BKN250 20/17 A2995 NOSIG=
200508121000 METAR MROC 121000Z 04006KT 9999 SCT030 BKN250 20/17 A2996 NOSIG=
200508121100 METAR MROC 121100Z 08003KT 9999 FEW030 SCT100 BKN250 20/18 A2998 BECMG RMK LTNG DIST S SSW=
200508121200 METAR MROC 121200Z 01006KT 9999 FEW030 BKN250 19/17 A2999 BECMG RMK CB DIST S SSW SW=
200508121300 METAR MROC 121300Z VRB03KT 9999 FEW015 SCT250 20/18 A3000=
200508121400 METAR MROC 121400Z 24004KT 9999 FEW025 SCT100 SCT250 22/19 A3002 NOSIG=
200508121600 METAR MROC 121600Z 09011KT 9999 SCT040 SCT200 24/19 A3001=
200508121700 METAR MROC 121700Z 10010KT 9999 DZ SCT020 SCT150 23/18 A3003 NOSIG=
200508121800 METAR MROC 121800Z 09006KT 9000 -RA SCT020 BKN120 22/19 A3002 NOSIG=
200508121900 METAR MROC 121900Z 03005KT 9999 -DZ SCT030 SCT180 23/19 A2999 NOSIG=
200508122000 METAR MROC 122000Z 09005KT 9999 FEW035 BKN200 25/19 A2997=
200508122100 METAR MROC 122100Z 22009KT 9999 FEW025 BKN220 24/20 A2994=
200508122200 METAR MROC 122200Z 24006KT 9999 FEW020 BKN200 24/21 A2995=
200508122300 METAR MROC 122300Z 25006KT 9999 SCT020 SCT140 23/21 A2997=
200508130000 METAR MROC 130000Z 25005KT 9999 FEW005 SCT025 SCT120 22/21 A2998=
200508130100 METAR MROC 130100Z 26003KT 9999 FEW010 SCT100 21/20 A2999=
200508130200 METAR MROC 130200Z 00000KT 9999 FEW020 SCT100 21/20 A3001=
200508130300 METAR MROC 130300Z 00000KT 9999 FEW020 SCT100 21/20 A3003 NOSIG=
200508130400 METAR MROC 130400Z 05005KT 9999 FEW035 SCT100 20/19 A3003 NOSIG=
200508130500 METAR MROC 130500Z 36005KT CAVOK 21/19 A3004 NOSIG=
200508130600 METAR MROC 130600Z 00000KT CAVOK 21/19 A3002 NOSIG=
200508130700 METAR MROC 130700Z 00000KT CAVOK 20/19 A2998 NOSIG=
200508130800 METAR MROC 130800Z 05007KT CAVOK 21/18 A2997 NOSIG=
200508130900 METAR MROC 130900Z 06003KT CAVOK 20/18 A2996 NOSIG=
200508131000 METAR MROC 131000Z 35003KT CAVOK 20/18 A2997 NOSIG=
200508131100 METAR MROC 131100Z 01005KT CAVOK 20/18 A2997 NOSIG=
200508131200 METAR MROC 131200Z 10003KT 9999 FEW040 BKN100 19/18 A2998 NOSIG=
200508131300 METAR MROC 131300Z 00000KT 9999 FEW040 SCT150 21/19 A3001=
200508131400 METAR MROC 131400Z 00000KT 9999 FEW040 SCT170 23/20 A3002=
200508131500 METAR MROC 131500Z 00000KT 9999 FEW040 BKN200 23/20 A3003=
200508131600 METAR MROC 131600Z 00000KT 9999 FEW035 BKN200 25/20 A3002=
200508131700 METAR MROC 131700Z 11005KT 9999 SCT030 SCT180 26/19 A3002=
200508131800 METAR MROC 131800Z 22006KT 9999 -DZ SCT025 SCT120 24/20 A3001=
200508131900 METAR MROC 131900Z 25007KT 9000 DZ SCT020 SCT100 23/21 A2999=
200508132000 METAR MROC 132000Z 25008KT 9000 -DZ SCT015 SCT100 23/21 A2997 RMK BR W=
200508132100 METAR MROC 132100Z 24006KT 9999 4000SW BR FEW003 SCT012 BKN090 23/21 A2995=
200508132200 METAR MROC 132200Z 22006KT 9000 FEW006 SCT015 BKN090 23/21 A2995=
200508132300 METAR MROC 132300Z 15003KT 5000 2000SW -TSRA FEW003 SCT025CB BKN090 22/21 A2997 RMK CB S SW W=
200508140000 METAR MROC 140000Z 01004KT 9999 -RA FEW035 BKN120 20/20 A2999=
200508140100 METAR MROC 140100Z 08011KT CAVOK 21/18 A2999=
200508140200 METAR MROC 140200Z 10009KT CAVOK 21/18 A3000=
200508140300 METAR MROC 140300Z 09006KT 9999 -RA BKN120 20/18 A3003 NOSIG=
200508140400 METAR MROC 140400Z 09005KT 9999 -RA BKN120 20/18 A3003 NOSIG=
200508140500 METAR MROC 140500Z 06007KT CAVOK 20/17 A3002 NOSIG=
200508140600 METAR MROC 140600Z 00000KT CAVOK 20/18 A3002 NOSIG=
200508140700 METAR MROC 140700Z 36003KT CAVOK 19/18 A2999 NOSIG=
200508140800 METAR MROC 140800Z 01003KT 9999 SCT030 BKN110 19/18 A2998 NOSIG=
200508140900 METAR MROC 140900Z 05005KT 9999 SCT025 BKN110 18/18 A2998 NOSIG=
200508141000 METAR MROC 141000Z 06006KT 9999 SCT030 SCT110 19/17 A2997 NOSIG=
200508141100 METAR MROC 141100Z 08005KT CAVOK 18/17 A2998 NOSIG=
200508141200 METAR MROC 141200Z 05007KT 9999 FEW030 SCT250 18/16 A2997 NOSIG=
200508141300 METAR MROC 141300Z 09010KT CAVOK 22/17 A3000 RMK CB DST S SW=
200508141400 METAR MROC 141400Z 10006KT CAVOK 23/18 A3002 RMK CB DST S SW=
200508141500 METAR MROC 141500Z 23005KT 9999 FEW035 BKN250 24/18 A3003=
200508141600 METAR MROC 141600Z 26006KT 9999 FEW035 BKN250 26/18 A3002=
200508141700 METAR MROC 141700Z 22006KT 9999 SCT030 SCT120 27/20 A3002 RMK TCU RN DST E=
200508141800 METAR MROC 141800Z 23006KT 9999 4000E -RA FEW015TCU SCT025 BKN120 24/20 A3000=
200508141900 METAR MROC 141900Z 22008KT 9999 SCT015TCU BKN025 25/21 A2997 RMK 7000SW=
200508142000 METAR MROC 142000Z 24008KT 9999 -RA SCT015TCU BKN025 23/20 A2997 RMK 6000SSE SHRA=
200508142100 METAR MROC 142100Z 24010KT 7000 3000SW -RA FEW003 FEW015CB BKN025 21/20 A2997 BECMG 2000=
200508142200 METAR MROC 142200Z 25008KT 3000 -RA BR SCT003 BKN010 20/19 A2998 BECMG 1000 BR=
200508142300 METAR MROC 142300Z 25004KT 4000 -RA BR SCT004 SCT020 OVC100 20/19 A3000 BECMG 6000=
200508150000 METAR MROC 150000Z 22004KT 2500 -RA BR SCT004 BKN010 19/19 A3002 NOSIG=
200508150100 METAR MROC 150100Z 31005KT 9999 -DZ FEW005 SCT035 BKN100 19/19 A3002 NOSIG=
200508150300 METAR MROC 150300Z 10004KT 9999 FEW020 BKN100 19/18 A3003 NOSIG=
200508150400 METAR MROC 150400Z 06005KT CAVOK 19/18 A3002 NOSIG=
200508150500 METAR MROC 150500Z 07005KT CAVOK 20/18 A3002 NOSIG=
200508150600 METAR MROC 150600Z 00000KT CAVOK 19/17 A3002 NOSIG=
200508150700 METAR MROC 150700Z 04005KT CAVOK 19/17 A3001 NOSIG=
200508150800 METAR MROC 150800Z 02006KT CAVOK 19/17 A2999 NOSIG=
200508150900 METAR MROC 150900Z 04004KT CAVOK 19/18 A2997 NOSIG=
200508151000 METAR MROC 151000Z 02006KT CAVOK 20/17 A2997 NOSIG=
200508151100 METAR MROC 151100Z 04006KT CAVOK 19/17 A2997 NOSIG=
200508151200 METAR MROC 151200Z 00000KT CAVOK 20/17 A2999 NOSIG=
200508151300 METAR MROC 151300Z 05003KT CAVOK 21/18 A3001 NOSIG=
200508151400 METAR MROC 151400Z 05005KT CAVOK 22/19 A3002 NOSIG=
200508151500 METAR MROC 151500Z 31005KT 9999 FEW030 SCT120 BKN250 24/19 A3004 NOSIG=
200508151600 METAR MROC 151600Z 00000KT 9999 FEW035 SCT120 BKN250 26/19 A3004 NOSIG=
200508151700 METAR MROC 151700Z 23008KT 9999 SCT035 SCT120 26/20 A3003 NOSIG=
200508151800 METAR MROC 151800Z 23009KT 9999 FEW030 SCT120 BKN250 26/21 A3000 NOSIG=
200508151900 METAR MROC 151900Z 25010KT 9999 FEW020TCU SCT035 BKN250 25/20 A2997 BECMG 7000 VCSH RMK RN DIST ESE=
200508152000 METAR MROC 152000Z 24009KT 5000 -RA SCT015CB BKN025 23/20 A2997 BECMG 2000 TSRA RMK VIS SW W UNLTD=
200508152100 METAR MROC 152100Z 23006KT 4000 BR FEW001 SCT010 BKN025 22/21 A2994 NOSIG=
200508152200 METAR MROC 152200Z 23006KT 6000 VCFG FEW003 SCT010 BKN100 21/21 A2993 NOSIG=
200508152300 METAR MROC 152300Z 28004KT 8000 FEW003 SCT020 BKN100 22/21 A2995 RMK VIS N 3000 NOSIG=
200508160000 METAR MROC 160000Z 25003KT 9999 3000SW BR FEW001 SCT008 BKN100 22/20 A2996 NOSIG=
200508160100 METAR MROC 160100Z 29003KT 9999 3000SW BR FEW001 SCT008 BKN100 21/20 A2999 NOSIG=
200508160200 METAR MROC 160200Z 00000KT 9999 FEW008 BKN100 21/19 A3001 NOSIG=
200508160300 METAR MROC 160300Z 00000KT 9999 FEW020 BKN120 21/19 A3003 NOSIG=
200508160400 METAR MROC 160400Z 36004KT 9999 FEW025 BKN120 21/20 A3003 NOSIG=
200508160500 METAR MROC 160500Z 00000KT 9999 FEW030 SCT120 21/20 A3003 NOSIG=
200508160600 METAR MROC 160600Z 00000KT 9999 FEW003 SCT250 21/19 A2999 RMK 9000 SW ST LTNG DST W=
200508160700 METAR MROC 160700Z 25003KT 9999 FEW003 BKN250 19/19 A2998 RMK 4000 SW DUE ST BECMG 3000 BR SCT002 SCT020=
200508160800 METAR MROC 160800Z VRB03KT 7000 3000SW BR FEW001 SCT015 BKN025 19/19 A2997 BECMG 1500 BR SCT001 BKN015=
200508160900 METAR MROC 160900Z VRB03KT 8000 4000SW BR FEW002 SCT012 BKN020 20/19 A2995 NOSIG=
200508161000 METAR MROC 161000Z VRB03KT 9999 FEW002 SCT020 BKN120 19/19 A2995 RMK 6000 SW DUE ST NOSIG=
200508161100 METAR MROC 161100Z 00000KT 9999 FEW003 SCT250 19/18 A2999 NOSIG=
200508161200 METAR MROC 161200Z 11003KT 9999 FEW003 SCT120 BKN250 19/18 A2995 RMK 6000SW DUE ST=
200508161300 METAR MROC 161300Z 00000KT CAVOK 20/19 A2996 NOSIG=
200508161400 METAR MROC 161400Z 21007KT 9999 FEW001 BKN130 21/19 A2999 NOSIG=
200508161500 METAR MROC 161500Z 27004KT 9999 FEW040 SCT130 BKN250 22/19 A3001 NOSIG=
200508161600 METAR MROC 161600Z 26003KT 9999 FEW030 BKN250 23/19 A3001 RMK HZ ARND NOSIG=
200508161700 METAR MROC 161700Z 00000KT 9999 FEW030 BKN250 25/20 A2999 RMK HZY ARND=
200508161800 METAR MROC 161800Z 23010KT 9999 FEW030 BKN250 25/20 A2997 RMK HZY ARND=
200508161900 METAR MROC 161900Z 24010KT 9999 FEW030 BKN250 25/21 A2994 RMK HZY ARND NOSIG=
200508162000 METAR MROC 162000Z 23010KT 9999 5000NE VCSH FEW010CB SCT030 BKN250 26/21 A2991 RMK RN S BECMG 5000 RA=
200508162100 METAR MROC 162100Z 23009KT 9999 -RA FEW010CB BKN100 23/21 A2990 BECMG 5000 VCSH=
200508162200 METAR MROC 162200Z 25007KT 7000 -RA SCT007 BKN100 22/21 A2991 BECMG 3000 BR FEW005=
200508162300 METAR MROC 162300Z 22004KT 8000 3000NW -RA SCT006 BKN100 21/21 A2992 NOSIG=
200508170000 METAR MROC 170000Z 00000KT 8000 -RA SCT009 BKN100 21/20 A2995 NOSIG=
200508170100 METAR MROC 170100Z 28004KT 8000 -RA SCT008 BKN100 21/20 A2996 NOSIG=
200508170200 METAR MROC 170200Z 26004KT 6000 -RA SCT008 BKN100 20/20 A3000 BECMG 3000 -RA=
200508170300 METAR MROC 170300Z 28003KT 4000 DZ BR FEW002 SCT010 BKN100 20/20 A3002 BECMG 1000 -RA BR=
200508170400 METAR MROC 170400Z 00000KT 7000 VCFG FEW004 BKN010 21/20 A3003 BECMG RMK VIS E/SE/N UNLTD=
200508170500 METAR MROC 170500Z 00000KT 7000 -RA VCFG FEW004 SCT010 BKN100 20/19 A3002 BECMG RMK VIS E SE S UNLTD=
200508170600 METAR MROC 170600Z 00000KT 5000 BR FEW003 SCT007 BKN100 20/19 A2999 BECMG 3000 RMK VIS SE 8KMS VIS N UNLTD=
200508170700 METAR MROC 170700Z 00000KT 5000 BR FEW001 SCT007 BKN100 20/20 A2997 BECMG RMK VIS N QUAD UNLTD=
200508170800 METAR MROC 170800Z 27003KT 3000SW BR SCT001 BKN005 20/19 A2995 BECMG RMK CONDICIONES VARIABLES=
200508170900 METAR MROC 170900Z 29003KT 7000 VCFG SCT005 BKN015 20/19 A2993 BECMG RMK VIS N UNLTD=
200508171000 METAR MROC 171000Z 34004KT 9999 FEW005 BKN015 20/19 A2993 NOSIG=
200508171100 METAR MROC 171100Z 00000KT 9999 FEW003 SCT015 BKN100 19/19 A2993 BECMG RMK VIS S SSW 6KMS/BR=
200508171200 METAR MROC 171200Z 00000KT 9999 FEW015 BKN100 19/19 A2994 NOSIG=
200508171300 METAR MROC 171300Z 03004KT 9999 FEW030 BKN110 21/20 A2997 NOSIG=
200508171400 METAR MROC 171400Z 00000KT 9999 FEW030 BKN110 23/20 A2998 BECMG 24006KT=
200508171500 METAR MROC 171500Z 00000KT 9999 FEW030 BKN130 27/20 A2999 BECMG 24006KT=
200508171600 METAR MROC 171600Z 00000KT 9999 FEW030 BKN130 27/20 A2997 NOSIG=
200508171700 METAR MROC 171700Z 20005KT 9999 FEW030 BKN130 26/20 A2996 NOSIG=
200508171800 METAR MROC 171800Z 25007KT 9999 FEW030 BKN130 27/20 A2994 NOSIG=
200508171900 METAR MROC 171900Z 23013KT 9999 SCT015TCU BKN120 25/21 A2992 BECMG 3000 SHRA=
200508172000 METAR MROC 172000Z 24010KT 9999 SCT015 SCT025TCU BKN120 24/21 A2991 RMK RN NW SW E BECMG 5000 VCSH=
200508172100 METAR MROC 172100Z 25008KT 9999 FEW006 SCT030TCU SCT150 23/21 A2989=
200508172200 METAR MROC 172200Z 28008KT 9000 -RA BR FEW005 SCT025 SCT120 21/20 A2989=
200508172300 METAR MROC 172300Z 30007KT 9999 DZ SCT010 SCT100 21/20 A2992=
200508180000 METAR MROC 180000Z 33004KT 9999 DZ SCT010 BKN100 21/19 A2994=
200508180100 METAR MROC 180100Z 00000KT 9999 DZ SCT015 OVC100 20/20 A2997=
200508180200 METAR MROC 180200Z 06004KT 9999 DZ SCT020 OVC120 20/19 A2998=
200508180400 METAR MROC 180400Z 27004KT 9999 DZ OVC120 20/19 A3002 NOSIG=
200508180500 METAR MROC 180500Z 00000KT 9999 DZ BKN120 20/19 A3002 NOSIG=
200508180600 METAR MROC 180600Z 00000KT CAVOK 19/18 A2999 NOSIG=
200508180700 METAR MROC 180700Z 00000KT CAVOK 19/18 A2998 NOSIG=
200508180800 METAR MROC 180800Z 04003KT CAVOK 19/18 A2995 NOSIG=
200508180900 METAR MROC 180900Z 06003KT CAVOK 19/18 A2993 NOSIG=
200508181000 METAR MROC 181000Z 06007KT CAVOK 20/18 A2990 NOSIG=
200508181100 METAR MROC 181100Z 09003KT CAVOK 20/18 A2991 NOSIG=
200508181200 METAR MROC 181200Z 21004KT 9999 FEW010 BKN100 19/18 A2993 NOSIG=
200508181300 METAR MROC 181300Z 26004KT 9999 FEW010 BKN100 20/18 A2998=
200508181400 METAR MROC 181400Z 30003KT 9999 FEW006 SCT070 SCT150 21/19 A3000=
200508181500 METAR MROC 181500Z 00000KT 9999 FEW010 BKN120 24/19 A3000=
200508181600 METAR MROC 181600Z 27004KT 9999 SCT015 BKN120 24/20 A3000 NOSIG=
200508181700 METAR MROC 181700Z 22005KT 9999 SCT015 SCT150 24/20 A2999 NOSIG=
200508181800 METAR MROC 181800Z 23006KT 9999 SCT015 SCT200 26/20 A2997=
200508181900 METAR MROC 181900Z 22007KT 9999 SCT015 SCT180 26/20 A2996=
200508182000 METAR MROC 182000Z 22008KT 9999 SCT015TCU SCT150 26/20 A2994=
200508182100 METAR MROC 182100Z 23013KT 9999 FEW020CB SCT030TCU 24/22 A2992 RMK RN DST SW W 8000=
200508182200 METAR MROC 182200Z 24010KT 9999 FEW015CB SCT025TCU SCT120 23/20 A2993 RMK RN DST S SSW 8000=
200508182300 METAR MROC 182300Z 27005KT 9999 SCT020 BKN100 22/20 A2994 RMK RN DST SW SE E=
200508190000 METAR MROC 190000Z 23003KT 9999 SCT020 BKN120 21/19 A2996 RMK RN DST SW W N NE=
200508190100 METAR MROC 190100Z 00000KT 9999 FEW015 BKN120 21/19 A2998 NOSIG=
200508190200 METAR MROC 190200Z 00000KT 9999 FEW008 BKN120 21/19 A2999 NOSIG=
200508190300 METAR MROC 190300Z 00000KT 9999 FEW030 BKN120 20/19 A3000 NOSIG=
200508190400 METAR MROC 190400Z 02005KT 9999 FEW030 BKN130 21/20 A2998 NOSIG=
200508190600 METAR MROC 190600Z 00000KT CAVOK 20/18 A2999 NOSIG=
200508190700 METAR MROC 190700Z 00000KT CAVOK 20/18 A2997 NOSIG=
200508190800 METAR MROC 190800Z 08005KT CAVOK 20/17 A2995 NOSIG=
200508190900 METAR MROC 190900Z 10005KT CAVOK 19/17 A2994 NOSIG=
200508191000 METAR MROC 191000Z 04004KT CAVOK 18/18 A2994 NOSIG=
200508191100 METAR MROC 191100Z 35004KT CAVOK 18/17 A2996 NOSIG=
200508191200 METAR MROC 191200Z 35003KT CAVOK 18/16 A2997 NOSIG=
200508191300 METAR MROC 191300Z 00000KT CAVOK 22/18 A3002 RMK CB DST S SSW=
200508191400 METAR MROC 191400Z 00000KT CAVOK 24/18 A3004 RMK CB DST SSW BECMG 24006=
200508191500 METAR MROC 191500Z 25005KT CAVOK 25/19 A3004=
200508191600 METAR MROC 191600Z 24004KT 9999 FEW030 BKN250 26/19 A3002=
200508191700 METAR MROC 191700Z 23004KT 9999 FEW030 BKN300 27/19 A3000 NOSIG=
200508191800 METAR MROC 191800Z 23010KT 9999 SCT030 BKN300 27/21 A2997 NOSIG=
200508191900 METAR MROC 191900Z 22010KT 9999 SCT025 BKN300 27/21 A2995 BECMG RMK CB SW=
200508192000 METAR MROC 192000Z 22010KT 9999 FEW015 SCT025 BKN300 25/21 A2994 NOSIG=
200508192100 METAR MROC 192100Z 25011KT 9999 FEW015CB BKN025 24/21 A2993 BECMG 3000 TSRA RMK RN VIS 7KMS TO N QUAD=
200508192200 METAR MROC 192200Z 23006KT 9999 FEW015CB BKN025 23/20 A2993 BECMG RMK VIS S/ 7KMS DUE RASH=
200508192300 METAR MROC 192300Z 23006KT 9999 FEW010 SCT025 BKN120 23/19 A2994 NOSIG=
200508200000 METAR MROC 200000Z 26005KT 9999 FEW010 SCT120 BKN250 22/19 A2996 BECMG 4000 BR FEW001 SCT010=
200508200100 METAR MROC 200100Z 00000KT 9999 FEW010 SCT140 BKN250 21/20 A2997 BECMG 12004KT CAVOK=
200508200200 METAR MROC 200200Z 00000KT 9999 FEW035 20/20 A2998 BECMG 04005KT CAVOK=
200508200300 METAR MROC 200300Z 28004KT CAVOK 20/20 A2999=
200508200400 METAR MROC 200400Z 30005KT CAVOK 20/19 A3000=
200508200500 METAR MROC 200500Z 01003KT CAVOK 20/18 A2999=
200508200600 METAR MROC 200600Z 35005KT CAVOK 19/18 A2998=
200508200700 METAR MROC 200700Z 03003KT CAVOK 19/17 A2996=
200508200800 METAR MROC 200800Z 02007KT CAVOK 20/17 A2995=
200508200900 METAR MROC 200900Z 02006KT CAVOK 19/17 A2995=
200508201000 METAR MROC 201000Z 08006KT CAVOK 20/17 A2995=
200508201100 METAR MROC 201100Z 10010KT CAVOK 20/17 A2996=
200508201200 METAR MROC 201200Z 08008KT CAVOK 20/17 A2996=
200508201300 METAR MROC 201300Z 08005KT CAVOK 23/17 A2999 BECMG RMK CB DIST S FEW CI=
200508201400 METAR MROC 201400Z 11008KT CAVOK 25/18 A3000 NOSIG=
200508201500 METAR MROC 201500Z 08004KT 9999 FEW040 BKN250 27/18 A3001 BECMG 25008KT=
200508201600 METAR MROC 201600Z 08009KT 9999 FEW035 SCT180 BKN250 26/18 A3000 BECMG RMK TCU DIST S=
200508201700 METAR MROC 201700Z 08007KT 9999 FEW035 BKN230 29/18 A3000 NOSIG=
200508201800 METAR MROC 201800Z 11007KT 9999 SCT030 BKN270 30/23 A2995 NOSIG=
200508201900 METAR MROC 201900Z 11010KT 9999 FEW040 BKN230 29/18 A2994 BECMG 24008KT=
200508202000 METAR MROC 202000Z 23011KT 9999 SCT035 BKN230 27/22 A2992 NOSIG=
200508202100 METAR MROC 202100Z 25013KT 9999 SCT035 BKN230 26/22 A2991 NOSIG=
200508202200 METAR MROC 202200Z 23013KT 9999 FEW010 SCT030 SCT230 24/21 A2991 NOSIG=
200508202300 METAR MROC 202300Z 23011KT 9999 -RA FEW010 BKN030 23/21 A2993 BECMG 8000 RA=
200508210000 METAR MROC 210000Z 23006KT 8000 RA FEW010 BKN030 22/21 A2994 NOSIG=
200508210100 METAR MROC 210100Z 00000KT 9999 SCT030 BKN100 22/21 A2995 NOSIG=
200508210200 METAR MROC 210200Z 00000KT 9999 SCT030 SCT100 22/19 A2997 NOSIG=
200508210300 METAR MROC 210300Z 07005KT 9999 FEW030 BKN130 21/19 A3000 NOSIG=
200508210400 METAR MROC 210400Z 03004KT 9999 FEW030 SCT120 22/19 A3000 NOSIG=
200508210500 METAR MROC 210500Z 08003KT 9999 SCT030 SCT120 21/19 A3001 NOSIG=
200508210600 METAR MROC 210600Z 02004KT CAVOK 21/19 A2999 RMK LTNG DST W NOSIG=
200508210700 METAR MROC 210700Z 06006KT CAVOK 21/19 A2995 NOSIG=
200508210800 METAR MROC 210800Z 00000KT CAVOK 20/18 A2995 NOSIG=
200508210900 METAR MROC 210900Z 05005KT 9999 FEW030 SCT120 BKN260 21/18 A2993 NOSIG=
200508211000 METAR MROC 211000Z 03004KT CAVOK 21/18 A2994 NOSIG=
200508211100 METAR MROC 211100Z 04007KT CAVOK 21/18 A2994=
200508211200 METAR MROC 211200Z 26007KT 9999 4000SW BR FEW002 SCT045 BKN250 20/18 A2994 BECMG 2000SW=
200508211300 METAR MROC 211300Z 24007KT 9999 4000SW BR FEW001 SCT045 BKN120 20/19 A2996 NOSIG=
200508211400 METAR MROC 211400Z VRB03KT 3000 BR FEW001 BKN120 20/20 A3000 BECMG 6000 VCFG=
200508211500 METAR MROC 211500Z 24004KT 9999 3000SW BR FEW001 BKN120 21/20 A3003 NOSIG=
200508211600 METAR MROC 211600Z 28003KT 9999 FEW025 SCT120 BKN250 25/20 A3003 NOSIG=
200508211700 METAR MROC 211700Z 24007KT 9999 SCT030 BKN250 26/20 A3001 NOSIG=
200508211800 METAR MROC 211800Z 22009KT 9999 SCT030 SCT130 BKN250 26/21 A2998 NOSIG=
200508211900 METAR MROC 211900Z 23011KT 9999 SCT030 BKN250 25/21 A2996 NOSIG=
200508212000 METAR MROC 212000Z 22012KT 9999 FEW010 SCT030 BKN120 22/21 A2994 RERA BECMG 6000 VCSH=
200508212100 METAR MROC 212100Z 22005KT 7000 VCFG SCT006 BKN030 23/21 A2992 BECMG 5000 BR=
200508212200 METAR MROC 212200Z 24007KT 7000 VCFG SCT010 BKN120 22/20 A2993 NOSIG=
200508212300 METAR MROC 212300Z 24004KT 7000 VCFG SCT010 BKN120 22/20 A2994 NOSIG=
200508220000 METAR MROC 220000Z 24005KT 8000 SCT012 BKN120 22/20 A2996 NOSIG=
200508220100 METAR MROC 220100Z 23004KT 9999 SCT020 BKN120 21/20 A2998 NOSIG=
200508220200 METAR MROC 220200Z 27005KT 9999 SCT025 SCT120 21/20 A3000 NOSIG=
200508220300 METAR MROC 220300Z 28004KT 9999 SCT010 SCT120 21/20 A3003 NOSIG=
200508220400 METAR MROC 220400Z 29003KT 9999 SCT010 SCT120 21/20 A3004 NOSIG=
200508220500 METAR MROC 220500Z 00000KT 9999 FEW010 SCT020 BKN120 21/19 A3004 NOSIG=
200508220600 METAR MROC 220600Z 00000KT 9999 FEW010 SCT020 BKN120 21/20 A3001 NOSIG=
200508220700 METAR MROC 220700Z 00000KT 9999 SCT025 BKN120 20/19 A3000 NOSIG=
200508220800 METAR MROC 220800Z 00000KT 9999 FEW025 BKN100 20/18 A2996 NOSIG=
200508220900 METAR MROC 220900Z 00000KT 9999 FEW030 BKN120 19/18 A2995 NOSIG=
200508221000 METAR MROC 221000Z 03006KT CAVOK 19/17 A2994 NOSIG=
200508221100 METAR MROC 221100Z 05007KT CAVOK 18/17 A2993 NOSIG=
200508221200 METAR MROC 221200Z 05008KT CAVOK 19/17 A2993 NOSIG=
200508221300 METAR MROC 221300Z 07005KT CAVOK 23/18 A2995 NOSIG=
200508221400 METAR MROC 221400Z 08008KT CAVOK 25/18 A2997 NOSIG=
200508221500 METAR MROC 221500Z 22004KT CAVOK 26/19 A2998 NOSIG=
200508221600 METAR MROC 221600Z 24011KT 9999 FEW030 SCT130 BKN250 24/19 A2999 NOSIG=
200508221700 METAR MROC 221700Z 23008KT 9999 FEW030 SCT130 BKN250 24/20 A3000 NOSIG=
200508221800 METAR MROC 221800Z 24011KT 9999 SCT030 BKN250 24/19 A2998 NOSIG=
200508221900 METAR MROC 221900Z 23007KT 9999 SCT025 BKN250 24/22 A2995 NOSIG=
200508222000 METAR MROC 222000Z 22007KT 9999 SCT020 OVC250 25/20 A2993 BECMG RMK RN NE=
200508222100 METAR MROC 222100Z 23006KT 9999 SCT020TCU SCT220 24/20 A2992 RMK CB RN DST N E=
200508222200 METAR MROC 222200Z 26007KT 9000 SCT020TCU SCT120 23/21 A2992 RMK CB RN NE E=
200508222300 METAR MROC 222300Z 06007KT 6000 -TSRA SCT006CB SCT030 21/18 A2995=
200508230000 METAR MROC 230000Z 00000KT 9000 -RA SCT020CB SCT090 20/19 A2997=
200508230100 METAR MROC 230100Z 00000KT 8000 -RA FEW010 OVC100 20/19 A2998=
200508230200 METAR MROC 230200Z 00000KT 9999 -DZ FEW015 OVC100 20/19 A3000=
200508230300 METAR MROC 230300Z 36004KT 9999 FEW025 OVC100 21/19 A3000 NOSIG=
200508230400 METAR MROC 230400Z 00000KT 9999 FEW025 OVC100 20/19 A3000 NOSIG=
200508230500 METAR MROC 230500Z 36004KT CAVOK 20/19 A2999 NOSIG=
200508230600 METAR MROC 230600Z 00000KT CAVOK 20/19 A2998 NOSIG=
200508230700 METAR MROC 230700Z 03004KT CAVOK 20/18 A2995 NOSIG=
200508230800 METAR MROC 230800Z 28004KT 9999 FEW003 BKN110 19/19 A2994 NOSIG=
200508230900 METAR MROC 230900Z 00000KT CAVOK 19/18 A2995 NOSIG=
200508231000 METAR MROC NIL=
200508231100 METAR MROC 231100Z 00000KT 7000 VCFG FEW001 BKN110 19/19 A2996 NOSIG=
200508231200 METAR MROC 231200Z 06006KT 9999 FEW025 BKN110 19/18 A2996 NOSIG=
200508231300 METAR MROC 231300Z 08006KT 9999 FEW025 SCT150 22/19 A2998=
200508231400 METAR MROC 231400Z 21005KT 9999 FEW010 SCT200 22/21 A2999=
200508231500 METAR MROC 231500Z 30004KT 9999 FEW020 SCT250 24/19 A3000=
200508231600 METAR MROC 231600Z 24006KT 9999 SCT020 SCT280 26/20 A3001 NOSIG=
200508231700 METAR MROC NIL=
200508231800 METAR MROC NIL=
200508231900 METAR MROC NIL=
200508232000 METAR MROC NIL=
200508232100 METAR MROC NIL=
200508232200 METAR MROC NIL=
200508232300 METAR MROC NIL=
200508240000 METAR MROC NIL=
200508240100 METAR MROC NIL=
200508240200 METAR MROC NIL=
200508240300 METAR MROC NIL=
200508240400 METAR MROC NIL=
200508240500 METAR MROC NIL=
200508240600 METAR MROC NIL=
200508240700 METAR MROC NIL=
200508240800 METAR MROC NIL=
200508240900 METAR MROC NIL=
200508241000 METAR MROC NIL=
200508241100 METAR MROC NIL=
200508241200 METAR MROC NIL=
200508241300 METAR MROC 241300Z 14003KT CAVOK 22/18 A2999 NOSIG=
200508241500 METAR MROC 241500Z 23006KT CAVOK 24/19 A2999 NOSIG=
200508241600 METAR MROC 241600Z 22005KT 9999 FEW035 25/19 A2999 NOSIG=
200508241700 METAR MROC 241700Z 24011KT 9999 SCT030 26/20 A3000 NOSIG=
200508241800 METAR MROC 241800Z 24010KT 9999 FEW020CB SCT030 25/21 A2998 BECMG 5000 -TS VCSH=
200508241900 METAR MROC 241900Z 00000KT 9999 3000SW -RA SCT004 BKN090 22/20 A2996 NOSIG=
200508242000 METAR MROC 242000Z 21006KT 9999 4500SW -TS VCSH BR FEW003 SCT012CB BKN100 22/21 A2995 BECMG 5000 TSRA=
200508242100 METAR MROC 242100Z 26006KT 9999 4000N -TSRA FEW015CB SCT025 BKN100 19/19 A2996 BECMG 6000 RMK TS MOV TO W NW=
200508242200 METAR MROC 242200Z 31007KT 4000 RA BR FEW003 SCT010 BKN100 20/19 A2997 BECMG 2000 -RA BR RMK VIS SE /S 6KMS=
200508242300 METAR MROC 242300Z 00000KT 8000 -RA FEW010 SCT035 BKN100 19/19 A2998 BECMG RMK VIS SE S UNLTD=
200508250000 METAR MROC 250000Z 11003KT 9999 FEW005 SCT035 BKN100 19/19 A2999 BECMG RMK VIS N NNW 6KMS DUE LOW CLOUDS=
200508250100 METAR MROC 250100Z 02004KT 9999 FEW035 BKN120 20/19 A3000 BECMG CAVOK=
200508250200 METAR MROC 250200Z 34003KT CAVOK 20/19 A3004=
200508250300 METAR MROC 250300Z 02005KT CAVOK 20/19 A3005=
200508250400 METAR MROC 250400Z 05009KT 9999 DZ SCT025 OVC120 20/18 A3006=
200508250500 METAR MROC 250500Z 01006KT CAVOK 20/18 A3005=
200508250600 METAR MROC 250600Z 05004KT CAVOK 18/17 A3002=
200508250700 METAR MROC 250700Z 07005KT CAVOK 19/17 A2999=
200508250800 METAR MROC 250800Z 06007KT CAVOK 19/17 A2997=
200508250900 METAR MROC NIL=
200508251000 METAR MROC 251000Z 01006KT CAVOK 20/17 A2996=
200508251100 METAR MROC 251100Z 05008KT CAVOK 20/17 A2996=
200508251200 METAR MROC 251200Z 09003KT CAVOK 19/17 A2999 RMK BR S/SW=
200508251300 METAR MROC 251300Z 20003KT 9999 FEW035 BKN120 20/18 A3001 BECMG RMK CB DIST S=
200508251400 METAR MROC 251400Z 00000KT 9999 FEW030 BKN120 23/18 A3001 NOSIG=
200508251500 METAR MROC 251500Z 10012KT 9999 FEW030 BKN120 26/18 A3000 NOSIG=
200508251600 METAR MROC 251600Z 10011KT 9999 FEW035 BKN120 26/18 A3000 NOSIG=
200508251700 METAR MROC 251700Z 10010KT 9999 FEW040 BKN300 27/18 A3001 BECMG 24008KT=
200508251800 METAR MROC NIL=
200508251900 METAR MROC 251900Z 22009KT 9999 SCT035 BKN250 26/21 A2996 BECMG RMK RN DIST E=
200508252000 METAR MROC 252000Z 25008KT 9999 4000N RA FEW015CB SCT025 BKN120 24/21 A2995 BECMG 2000 TSRA=
200508252100 METAR MROC 252100Z 05003KT 9999 -RA SCT015 SCT030 OVC120 21/19 A2994 NOSIG=
200508252200 METAR MROC 252200Z 09003KT 9999 FEW020 SCT080 BKN120 21/20 A2995 NOSIG=
200508252300 METAR MROC 252300Z 25003KT 9999 FEW012 SCT080 BKN120 22/19 A2996 NOSIG=
200508260000 METAR MROC 260000Z 21003KT 2000 BR SCT001 SCT005 BKN120 21/20 A2999 BECMG 1000 -RA=
200508260100 METAR MROC 260100Z 22003KT 3000 BR SCT002 BKN120 21/20 A3000 BECMG 1000 -RA BR=
200508260200 METAR MROC 260200Z 21003KT 3000 BR FEW001 BKN005 20/20 A3001 BECMG 1000 -RA BR=
200508260245 METAR MROC 260245Z 00000KT 1500 BR SCT001 BKN003 20/20 A3001 BECMG 0800 FG=
200508260300 METAR MROC 260300Z 00000KT 3000 BR SCT001 BKN006 20/20 A3001 NOSIG=
200508260400 METAR MROC 260400Z 36004KT 5000 BR FEW003 SCT006 BKN120 21/20 A3002 RMK LTNG DST SSW NOSIG=
200508260500 METAR MROC 260500Z 10003KT 9999 FEW003 BKN120 20/19 A3002 RMK 7000SW=
200508260600 METAR MROC 260600Z 05006KT CAVOK 20/18 A3000 RMK LTNG DST S SW NOSIG=
200508260700 METAR MROC 260700Z 06005KT 9999 FEW002 BKN260 20/17 A2998 RMK VIS 8000 S/SW DUE ST NOSIG=
200508260800 METAR MROC 260800Z 03008KT 9999 FEW002 BKN260 20/17 A2997 RMK ST S NOSIG=
200508260900 METAR MROC 260900Z 06008KT CAVOK 19/16 A2996 RMK CB/LTNG DST SSE/S NOSIG=
200508261000 METAR MROC 261000Z 04006KT CAVOK 18/16 A2996 RMK CB/LTNG DST S NOSIG=
200508261100 METAR MROC 261100Z 33004KT CAVOK 19/16 A2999 RMK CB/LTNG DSTS NOSIG=
200508261200 METAR MROC 261200Z 02004KT CAVOK 18/16 A2999 RMK CB DST S NOSIG=
200508261300 METAR MROC 261300Z 07003KT CAVOK 22/18 A3001 BECMG RMK CB S SW=
200508261400 METAR MROC 261400Z VRB03KT CAVOK 23/17 A3001 BECMG RMK CB S SW=
200508261500 METAR MROC 261500Z 22006KT 9999 FEW025 BKN270 25/19 A3001 NOSIG=
200508261600 METAR MROC 261600Z 23009KT 9999 SCT025 SCT270 25/20 A3001 NOSIG=
200508261700 METAR MROC 261700Z 22012KT 9999 FEW020TCU SCT030 SCT270 25/20 A3001 NOSIG=
200508261800 METAR MROC 261800Z 24008KT 9999 FEW020TCU SCT030 26/20 A2998 BECMG RMK RN E=
200508261900 METAR MROC 261900Z 23010KT 9999 FEW020TCU SCT030 26/21 A2994 RMK RN E SE=
200508262000 METAR MROC 262000Z 24012KT 9999 FEW020TCU BKN030 26/21 A2991 RMK RN E BKMG 8000 VCSH=
200508262100 METAR MROC 262100Z 23012KT 8000 RA SCT012TCU BKN110 22/21 A2991 BECMG 6000=
200508262300 METAR MROC 262300Z 24009KT 1500 -RA BR FEW001 SCT010 OVC100 21/20 A2994 NOSIG=
200508270200 METAR MROC 270200Z 20003KT 4000 -RA BR FEW005 SCT015 OVC100 20/19 A3003 BECMG 3000=
200508270300 METAR MROC 270300Z 36005KT 9999 4000SW -RA SCT015 OVC100 18/18 A3004 BECMG 06005KT=
200508270500 METAR MROC 270500Z 08004KT CAVOK 19/18 A2999 NOSIG=
200508270600 METAR MROC 270600Z 05008KT CAVOK 19/18 A2995 NOSIG=
200508270700 METAR MROC 270700Z 08007KT CAVOK 20/17 A2991 NOSIG=
200508270800 METAR MROC 270800Z 00000KT CAVOK 19/17 A2991 NOSIG=
200508270900 METAR MROC 270900Z 00000KT CAVOK 19/17 A2991 NOSIG=
200508271000 METAR MROC 271000Z 00000KT CAVOK 19/17 A2992 NOSIG=
200508271100 METAR MROC 271100Z 00000KT CAVOK 18/17 A2994 NOSIG=
200508271200 METAR MROC 271200Z 09003KT 9999 FEW020 BKN300 18/17 A2994=
200508271400 METAR MROC 271400Z 11004KT CAVOK 23/18 A2997 BECMG 24008KT=
200508271500 METAR MROC 271500Z 25003KT 9999 FEW035 SCT270 25/17 A2997 NOSIG=
200508271600 METAR MROC 271600Z 22007KT 9999 FEW030 SCT270 25/19 A2998 BECMG SCT030=
200508271700 METAR MROC 271700Z 23009KT 9999 SCT030 SCT250 27/19 A2997 NOSIG=
200508271800 METAR MROC 271800Z 23009KT 9999 SCT030 SCT270 27/20 A2994 NOSIG=
200508271900 METAR MROC 271900Z 24012KT 9999 SCT030 SCT270 26/21 A2992 NOSIG=
200508272000 METAR MROC 272000Z 23010KT 9999 SCT020TCU BKN270 26/21 A2990 NOSIG=
200508272100 METAR MROC 272100Z 23010KT 9999 FEW010 SCT030TCU SCT180 25/20 A2988=
200508272200 METAR MROC 272200Z 24010KT 9999 FEW010 SCT030TCU SCT200 24/21 A2988=
200508272300 METAR MROC 272300Z 24008KT 8000 VCFG SCT006 SCT220 22/21 A2989 RMK VIS RED SW=
200508280000 METAR MROC 280000Z 25007KT 6000SW BR SCT002 21/20 A2991=
200508280100 METAR MROC 280100Z 27005KT 7000 VCFG FEW002 SCT020 21/20 A2994 RMK BR S/SW=
200508280200 METAR MROC 280200Z 23005KT 8000 VCFG SCT003 21/20 A2995 RMK BR S/SW=
200508280300 METAR MROC 280300Z 28005KT 7000 VCFG FEW003 BKN008 21/20 A2997 NOSIG=
200508280400 METAR MROC 280400Z 30004KT 9999 SCT003 BKN100 21/20 A2998 NOSIG=
200508280500 METAR MROC 280500Z VRB03KT 9999 SCT003 OVC100 21/19 A2996 NOSIG=
200508280600 METAR MROC 280600Z VRB03KT 9999 FEW007 BKN100 20/19 A2994 NOSIG=
200508280700 METAR MROC 280700Z 05004KT 9999 FEW010 BKN100 19/18 A2992 NOSIG=
200508280800 METAR MROC 280800Z 08004KT 9999 FEW020 SCT100 19/18 A2991 NOSIG=
200508280900 METAR MROC 280900Z 03005KT CAVOK 19/17 A2990 NOSIG=
200508281000 METAR MROC 281000Z 05006KT CAVOK 19/17 A2989 NOSIG=
200508281100 METAR MROC 281100Z 05006KT CAVOK 19/17 A2990 NOSIG=
200508281200 METAR MROC 281200Z 04004KT CAVOK 20/17 A2990 NOSIG=
200508281400 METAR MROC 281400Z 22005KT CAVOK 24/19 A2993=
200508281500 METAR MROC 281500Z 23006KT CAVOK 25/20 A2995=
200508281600 METAR MROC 281600Z 22007KT 9999 SCT030TCU SCT200 25/20 A2997=
200508281700 METAR MROC 281700Z 25006KT 9999 SCT020TCU SCT100 24/20 A2996=
200508281800 METAR MROC 281800Z 20010KT 7000 VCSH SCT010TCU SCT030 23/19 A2995 RMK VIS RED S/SW=
200508281900 METAR MROC 281900Z 20007KT 6000 -RA SCT010CB SCT025 20/18 A2996=
200508282000 METAR MROC 282000Z 20006KT 4000SW -RA SCT006 SCT025 19/18 A2995=
200508282100 METAR MROC 282100Z 29008KT 3000 -RA BR SCT004 BKN010 19/18 A2995 NOSIG=
200508282200 METAR MROC 282200Z 09004KT 9999 -DZ FEW004 SCT015 BKN100 19/18 A2995 RMK 700SW VCFG=
200508282300 METAR MROC 282300Z 12004KT 9999 FEW030 BKN110 20/19 A2995 NOSIG=
200508290000 METAR MROC 290000Z 10004KT CAVOK 20/18 A2997 RMK RN DST SE NE NOSIG=
200508290100 METAR MROC 290100Z 07005KT 9999 -RA OVC090 19/17 A2998 BECMG DZ=
200508290200 METAR MROC 290200Z 09005KT 9999 OVC100 19/17 A2998 BECMG -DZ=
200508290300 METAR MROC 290300Z 05007KT CAVOK 19/17 A2998 NOSIG=
200508290400 METAR MROC 290400Z 05008KT CAVOK 18/17 A2997 NOSIG=
200508290500 METAR MROC 290500Z 07006KT CAVOK 18/17 A2996 NOSIG=
200508290600 METAR MROC 290600Z 08006KT CAVOK 18/16 A2995 NOSIG=
200508290700 METAR MROC 290700Z 08004KT CAVOK 17/15 A2995 NOSIG=
200508290800 METAR MROC 290800Z 26003KT CAVOK 17/16 A2995 NOSIG=
200508290900 METAR MROC 290900Z 10003KT CAVOK 17/16 A2995 NOSIG=
200508291000 METAR MROC 291000Z 04004KT CAVOK 17/16 A2997 NOSIG=
200508291100 METAR MROC 291100Z 05004KT CAVOK 17/16 A2998 NOSIG=
200508291200 METAR MROC 291200Z 08004KT CAVOK 17/16 A2998 NOSIG=
200508291300 METAR MROC 291300Z 09004KT CAVOK 20/17 A2999 NOSIG=
200508291400 METAR MROC 291400Z 00000KT CAVOK 24/17 A3002 BECMG 24006KT=
200508291500 METAR MROC 291500Z 25003KT CAVOK 26/18 A3001 NOSIG=
200508291700 METAR MROC 291700Z 29004KT 9999 FEW040 BKN250 28/18 A2999 NOSIG=
200508291800 METAR MROC 291800Z 27008KT 9999 FEW035 BKN250 28/19 A2997 RMK RN DST NE E NOSIG=
200508291900 METAR MROC 291900Z 00000KT 9999 SCT030 SCT250 27/19 A2995 RMK 7000 NE SHRA NOSIG=
200508292000 METAR MROC 292000Z 09009KT 9999 FEW045 SCT120 BKN250 26/18 A2994 NOSIG=
200508292100 METAR MROC 292100Z 11012KT 9999 FEW040 SCT140 BKN220 26/18 A2992 NOSIG=
200508292200 METAR MROC 292200Z 10011KT 9999 FEW040 SCT140 BKN220 25/18 A2993 NOSIG=
200508292300 METAR MROC 292300Z 09010KT CAVOK 24/17 A2992 NOSIG=
200508300000 METAR MROC 300000Z 10004KT CAVOK 23/18 A2994 NOSIG=
200508300100 METAR MROC 300100Z 22004KT 9999 FEW003 BKN150 21/20 A2995 BECMG 7000=
200508300200 METAR MROC 300200Z 23003KT 2000SW BR SCT001 21/20 A2997=
200508300300 METAR MROC 300300Z 00000KT 6000SW BR FEW002 SCT020 21/20 A2998=
200508300400 METAR MROC 300400Z 26004KT 1000SW FG SCT001 21/20 A3000=
200508300500 METAR MROC 300500Z 02004KT 3000SW BR FEW002 SCT100 20/20 A2999=
200508300600 METAR MROC 300600Z 00000KT 6000SW VCFG FEW003 SCT090 20/19 A2998=
200508300700 METAR MROC 300700Z 26003KT 3000SW BR SCT002 20/19 A2997=
200508300800 METAR MROC 300800Z 00000KT 0800 FG SCT001 20/19 A2996=
200508300900 METAR MROC 300900Z 34004KT 9999 FEW001 19/19 A2995 RMK BR S/SW CB S=
200508301000 METAR MROC 301000Z 05003KT 9999 FEW005 20/17 A2996 RMK CB DST S=
200508301100 METAR MROC 301100Z 10007KT 9999 FEW015 SCT120 20/17 A2997=
200508301200 METAR MROC 301200Z 00000KT 9999 FEW004 SCT120 20/19 A3000=
200508301225 METAR MROC 301225Z 00000KT 9999 FEW004 SCT120 20/19 A3000=
200508301240 METAR MROC 301240Z 29003KT 2000 BR FEW002 SCT120 20/19 A3000=
200508301300 METAR MROC 301300Z 06003KT CAVOK 22/18 A3000 NOSIG=
200508301400 METAR MROC 301400Z 08005KT CAVOK 25/18 A3001 NOSIG=
200508301500 METAR MROC 301500Z 11008KT CAVOK 26/17 A3001 BECMG RMK CB DIST SSW=
200508301600 METAR MROC 301600Z 10006KT 9999 FEW045 SCT300 30/18 A3001 BECMG 24010KT=
200508301700 METAR MROC 301700Z 22007KT 9999 SCT035 SCT250 26/22 A3002 NOSIG=
200508301800 METAR MROC 301800Z 25011KT 9999 SCT035 SCT250 26/22 A3000 NOSIG=
200508301900 METAR MROC 301900Z 25010KT 9999 FEW025TCU SCT035 27/22 A2997 BECMG 7000 VCSH FEW015CB BKN025=
200508302000 METAR MROC 302000Z 25010KT 9999 FEW025TCU SCT035 27/22 A2995 NOSIG=
200508302100 METAR MROC 302100Z 28010KT 9999 SCT025TCU SCT035 25/22 A2992=
200508302200 METAR MROC 302200Z 20004KT 9999 FEW020CB SCT030 BKN100 25/22 A2992=
200508302300 METAR MROC 302300Z 11004KT 9999 FEW010 SCT025 23/21 A2992=
200508302358 METAR MROC 310000Z 00000KT 9999 FEW005 SCT025 BKN110 22/21 A2993=
200508310000 METAR MROC 310000Z 00000KT 9999 FEW005 SCT025 BKN110 22/21 A2993=
200508310100 METAR MROC 310100Z 23004KT 5000 BR FEW002 SCT015 22/21 A2993=
200508310200 METAR MROC 310200Z 00000KT 9999 5000 BR FEW001 SCT020 22/21 A2995=
200508310300 METAR MROC 310300Z 00000KT 9999 3000SW BR FEW001 SCT020 BKN120 22/21 A2996 NOSIG=
200508310400 METAR MROC 310400Z 00000KT 9999 SCT005 SCT120 20/20 A2997 RMK 5000SW BR NOSIG=
200508310500 METAR MROC 310500Z 05003KT 9999 FEW003 BKN100 20/19 A2997 RMK 7000SW=
200508310600 METAR MROC 310600Z 03004KT 9999 FEW035 BKN250 20/18 A2995 RMK LTNG DST S NOSIG=
200508310700 METAR MROC 310700Z VRB03KT 9999 FEW035 BKN250 19/18 A2994 RMK CB/LTNG DST S/SW ST S BECMG 00000KT 7000 FEW003 SCT030=
200508310800 METAR MROC 310800Z 05008KT CAVOK 20/18 A2991 RMK CB/LTNG DST SSE/S/SW NOSIG=
200508310900 METAR MROC 310900Z 09009KT CAVOK 21/17 A2988 RMK CB/LTNG DST SSE/S/SW NOSIG=
200508311000 METAR MROC 311000Z 10009KT CAVOK 21/17 A2990 RMK LINE CB HVY LTNG DST SSE/S NOSIG=
200508311100 METAR MROC 311100Z 09008KT 9999 FEW035 SCT120 21/18 A2992 RMK CB/LTNG DST SSE/S BECMG CAVOK=
200508311200 METAR MROC 311200Z 07006KT CAVOK 21/18 A2992 NOSIG=
200508311300 METAR MROC 311300Z 10007KT CAVOK 23/18 A2995=
200508311400 METAR MROC 311400Z 09005KT CAVOK 24/18 A2995=
200508311500 METAR MROC 311500Z 10009KT 9999 FEW030 BKN250 27/18 A2998=
200508311600 METAR MROC 311600Z 09007KT 9999 FEW035 BKN250 29/18 A2996=
200508311700 METAR MROC 311700Z 09009KT 9999 FEW030 BKN230 28/17 A2994=
200508311800 METAR MROC 311800Z 10005KT 9999 FEW030 BKN240 30/18 A2990=
200508311900 METAR MROC 311900Z 21009KT 9999 FEW025TCU BKN250 27/22 A2988=
200508312000 METAR MROC 312000Z 22011KT 9999 FEW025TCU SCT120 BKN250 25/22 A2987=
200508312100 METAR MROC 312100Z 22008KT 9999 SCT030 BKN250 26/22 A2985=
200508312200 METAR MROC 312200Z 24009KT 9999 SCT020 BKN250 25/22 A2986 NOSIG=
200508312300 METAR MROC 312300Z 23008KT 9000 FEW008 SCT020 BKN250 23/22 A2987 BECMG 5000 BR SCT005=
200509010000 METAR MROC 010000Z 22008KT 8000 SCT008 SCT020 BKN250 22/21 A2990 BECMG 6000 VCFG=
200509010100 METAR MROC 010100Z 00000KT 7000 VCFG FEW005 SCT020 BKN250 21/21 A2993 NOSIG=
200509010200 METAR MROC 010200Z 00000KT 7000 VCFG FEW005 SCT020 BKN250 21/20 A2995 NOSIG=
200509010300 METAR MROC 010300Z 36004KT 9999 FEW004 SCT025 BKN250 22/20 A2996 BECMG 7000 VCFG RMK VIS SW W NW 6KMS LTNG DIST S SSE=
200509010400 METAR MROC 010400Z 00000KT 9999 FEW025 SCT120 BKN250 21/20 A2998 BECMG 2000 BR RMK DELGADA NIEBLA AL S SSW=
200509010500 METAR MROC 010500Z 00000KT 9999 FEW025 SCT120 BKN120 20/20 A2997 NOSIG=
200509010600 METAR MROC 010600Z 07003KT 9999 FEW030 SCT120 20/19 A2996 BECMG RMK DELGADA NIEBLA AL S SSW=
200509010700 METAR MROC 010700Z 06004KT CAVOK 20/18 A2992 NOSIG=
200509010800 METAR MROC 010800Z 07003KT CAVOK 20/18 A2989 NOSIG=
200509010900 METAR MROC 010900Z 11007KT CAVOK 21/17 A2987 NOSIG=
200509011000 METAR MROC 011000Z 07004KT CAVOK 21/17 A2989 NOSIG=
200509011200 METAR MROC 011200Z 06004KT 9999 FEW025 BKN070 21/17 A2990 BECMG RMK CB DIST S=
200509011300 METAR MROC 011300Z 11010KT 9999 FEW025 BKN080 23/18 A2992 NOSIG=
200509011400 METAR MROC 011400Z 10012KT 9999 FEW025 BKN080 23/17 A2994 NOSIG=
200509011500 METAR MROC 011500Z 09008KT 9999 FEW025 BKN080 25/18 A2996 NOSIG=
200509011600 METAR MROC 011600Z 11008KT 9999 SCT030 SCT080 BKN250 25/18 A2996 NOSIG=
200509011700 METAR MROC 011700Z 07008KT 9999 FEW020 SCT030 BKN250 26/18 A2995 NOSIG=
200509011800 METAR MROC 011800Z 07004KT 9999 SCT030 BKN250 27/19 A2991 NOSIG=
200509011900 METAR MROC 011900Z 24007KT 9999 FEW015 SCT030 BKN250 26/20 A2989 NOSIG=
200509012000 METAR MROC 012000Z 23009KT 0500 -RA FG VV/// 21/20 A2989 BECMG 1000 BR=
200509012100 METAR MROC 012100Z 22005KT 3000 -RA BR SCT002 SCT020 20/19 A2989=
200509012200 METAR MROC 012200Z 23008KT 4000 -RA BR SCT002 SCT015 20/19 A2990=
200509012300 METAR MROC 012300Z 26006KT 3000SW DZ BR SCT001 SCT015 20/19 A2991=
200509020000 METAR MROC 020000Z 28005KT 4000SW DZ BR SCT002 SCT020 19/19 A2993=
200509020100 METAR MROC 020100Z 00000KT 9999 FEW006 SCT020 20/19 A2997=
200509020200 METAR MROC 020200Z 00000KT 4000SW BR SCT001 SCT015 20/19 A3000=
200509020300 METAR MROC 020300Z 00000KT 8000 BCFG FEW002 SCT022 BKN120 20/19 A2999=
200509020400 METAR MROC 020400Z 09003KT 9999 FEW035 SCT120 19/19 A2998=
200509020500 METAR MROC 020500Z 06005KT CAVOK 20/19 A2997=
200509020600 METAR MROC 020600Z 00000KT CAVOK 20/18 A2997=
200509020700 METAR MROC 020700Z 00000KT CAVOK 19/18 A2995=
200509020800 METAR MROC 020800Z 00000KT 9999 0800E FG FEW001 19/18 A2993=
200509020900 METAR MROC 020900Z 00000KT 8000 VCFG FEW001 SCT120 19/18 A2993=
200509021000 METAR MROC 021000Z 06003KT CAVOK 18/18 A2994=
200509021100 METAR MROC 021100Z 07003KT CAVOK 18/17 A2994=
200509021200 METAR MROC 021200Z 04005KT CAVOK 18/17 A2994=
200509021300 METAR MROC 021300Z 03005KT CAVOK 22/18 A2997=
200509021400 METAR MROC 021400Z 24004KT CAVOK 23/19 A2999=
200509021500 METAR MROC 021500Z 24006KT 9999 FEW035 SCT250 24/19 A2999=
200509021600 METAR MROC 021600Z 25005KT 9999 FEW035 SCT250 26/20 A2998=
200509021700 METAR MROC 021700Z 22010KT 9999 SCT030 SCT250 25/21 A2998=
200509021800 METAR MROC 021800Z 23013KT 9999 SCT025TCU SCT250 25/20 A2996=
200509021900 METAR MROC 021900Z 22012KT 9000 SCT015TCU SCT035 23/21 A2993=
200509022000 METAR MROC 022000Z 04003KT 1000 TSRA SCT001 SCT015CB 21/20 A2993=
200509022100 METAR MROC 022100Z 14004KT 4000 -RA BR FEW001 SCT008 BKN090 19/19 A2994 RMK 3000SW BR NOSIG=
200509022200 METAR MROC 022200Z 00000KT 5000 RA BR FEW001 SCT008 BKN090 19/18 A2995 RMK 5000SW TS DST S SW BECMG 2000 -RA BR=
200509022300 METAR MROC 022300Z 08003KT 9999 -RA FEW003 OVC090 19/18 A2995 RMK 7000SW -RA BR NOSIG=
200509030000 METAR MROC 030000Z 06005KT 9999 -RA FEW005 OVC090 19/18 A2996 RMK TS DST SSW NOSIG=
200509030100 METAR MROC 030100Z 26003KT 9999 -RA FEW003 OVC100 19/18 A2999 BECMG 6000 VCFG=
200509030200 METAR MROC 030200Z 00000KT 7000 3000E BR FEW002 BKN120 19/18 A3000 BECMG 0800 FG=
200509030300 METAR MROC 030300Z 05007KT 9999 FEW025 BKN120 20/18 A3000 NOSIG=
200509030400 METAR MROC 030400Z 09003KT CAVOK 20/18 A3000 NOSIG=
200509030500 METAR MROC 030500Z 05007KT CAVOK 20/18 A2998 NOSIG=
200509030600 METAR MROC 030600Z 00000KT CAVOK 21/18 A2995 NOSIG=
200509030700 METAR MROC 030700Z 11994KT CAVOK 20/18 A2994 NOSIG=
200509030800 METAR MROC 030800Z 00000KT CAVOK 19/18 A2993 BECMG 9999=
200509030900 METAR MROC 030900Z 07005KT CAVOK 19/17 A2994 NOSIG=
200509031000 METAR MROC 031000Z 03004KT CAVOK 20/17 A2995 NOSIG=
200509031100 METAR MROC 031100Z 03003KT CAVOK 20/17 A2996 NOSIG=
200509031200 METAR MROC 031200Z 32003KT CAVOK 19/17 A2998 NOSIG=
200509031300 METAR MROC 031300Z 00000KT CAVOK 20/18 A3001 NOSIG=
200509031400 METAR MROC 031400Z 02003KT CAVOK 21/18 A3002 NOSIG=
200509031500 METAR MROC 031500Z 00000KT CAVOK 23/18 A3002 NOSIG=
200509031600 METAR MROC 031600Z 34003KT CAVOK 25/18 A3002 BECMG 23006KT=
200509031700 METAR MROC 031700Z 00000KT 9999 FEW045 BKN120 26/19 A2999 BECMG 24006KT=
200509031745 METAR MROC 031745Z 23008KT 9999 FEW035 SCT120 BKN250 26/21 A2997 NOSIG=
200509031800 METAR MROC 031800Z 23010KT 9999 SCT030 SCT120 26/20 A2997 NOSIG=
200509031900 METAR MROC 031900Z 21009KT 9999 4000SW VCSH FEW015 SCT025 SCT120 24/20 A2996 RMK 4000NE SHRA BECMG -RA=
200509032000 METAR MROC 032000Z 19005KT 9999 -RA FEW015 SCT025 BKN120 23/19 A2995 RMK 6000E SHRA BECMG 7000 +RA=
200509032100 METAR MROC 032100Z 36005KT 9999 -RA FEW015TCU SCT030 BKN120 22/20 A2993 NOSIG=
200509032200 METAR MROC 032200Z 28003KT 9999 FEW015TCU BKN025 23/20 A2993 BECMG 6000 -RA VCFG RMK VIS S SSW 7KMS DUE RASH=
200509032300 METAR MROC 032300Z 00000KT 9999 FEW001 SCT025 BKN120 21/20 A2994 BECMG 4000 BR RMK LOW ST S QD=
200509040000 METAR MROC 040000Z 31003KT 9999 -RA FEW025 BKN120 21/20 A2994 BECMG RMK ST/SC OVER MOUNTAINS TO N/ NE/ E/ SE=
200509040100 METAR MROC 040100Z 00000KT 9999 FEW030 SCT120 21/20 A2995=
200509040200 METAR MROC 040200Z 10004KT CAVOK 20/19 A2996=
200509040300 METAR MROC 040300Z 01005KT CAVOK 21/19 A2997=
200509040400 METAR MROC 040400Z 05009KT CAVOK 20/18 A2996=
200509040500 METAR MROC 040500Z 04005KT CAVOK 20/18 A2995=
200509040615 METAR MROC 040615Z 06006KT CAVOK 19/17 A2994=
200509040700 METAR MROC 040700Z 01003KT CAVOK 19/17 A2994 NOSIG=
200509040800 METAR MROC 040800Z 07004KT CAVOK 19/17 A2993 NOSIG=
200509040900 METAR MROC 040900Z 01006KT CAVOK 19/17 A2992=
200509041000 METAR MROC 041000Z 03006KT CAVOK 19/17 A2993=
200509041100 METAR MROC 041100Z 07003KT CAVOK 18/17 A2995=
200509041200 METAR MROC 041200Z 05008KT CAVOK 19/16 A2995=
200509041300 METAR MROC 041300Z 08006KT CAVOK 22/18 A2997 NOSIG=
200509041400 METAR MROC 041400Z 08005KT CAVOK 25/18 A3000 NOSIG=
200509041500 METAR MROC 041500Z 22004KT CAVOK 27/20 A3000 NOSIG=
200509041600 METAR MROC 041600Z 23008KT 9999 FEW045 26/20 A2998 NOSIG=
200509041700 METAR MROC 041700Z 22007KT 9999 FEW040 26/20 A2997 NOSIG=
200509041800 METAR MROC 041800Z 25008KT 9999 FEW030TCU 26/20 A2999 BECMG 7000 VCSH=
200509041900 METAR MROC 041900Z 24007KT 9999 FEW025TCU SCT035 27/21 A2992 BECMG 4000 RA=
200509042000 METAR MROC 042000Z 24012KT 9999 FEW017CB BKN030 26/22 A2990 BECMG 3000 TSRA=
200509042100 METAR MROC 042100Z 22005KT 5000 TS RA FEW008 SCT010CB BKN025 23/21 A2990 RMK S UNL NOSIG=
200509042200 METAR MROC 042200Z 24007KT 7000 -DZ FEW005 SCT010 BKN100 22/20 A2988 BECMG 5000 DZ=
200509042300 METAR MROC 042300Z 22007KT 5000 BR FEW001 SCT008 BKN100 22/21 A2991 BECMG 2000 BR=
200509050000 METAR MROC 050000Z 22007KT 5000 +RA BR FEW001 SCT008 BKN100 22/21 A2994 NOSIG=
200509050100 METAR MROC 050100Z 02010KT 9999 -TSRA FEW010CB SCT030 OVC100 20/19 A2996 NOSIG=
200509050200 METAR MROC 050200Z 02003KT 9999 RA SCT010 OVC100 20/20 A2995 RMK LTNG DST SW=
200509050300 METAR MROC 050300Z 00000KT 9999 FEW003 BKN120 20/19 A2997 NOSIG=
200509050400 METAR MROC 050400Z 32008KT 9999 FEW003 SCT120 21/19 A2998 NOSIG=
200509050500 METAR MROC 050500Z 07003KT 9999 FEW015 BKN120 20/19 A2997 NOSIG=
200509050600 METAR MROC 050600Z 05005KT 9999 FEW025 SCT120 20/18 A2995 NOSIG=
200509050700 METAR MROC 050700Z 00000KT CAVOK 20/18 A2994 NOSIG=
200509050800 METAR MROC 050800Z VRB03KT CAVOK 20/18 A2991 NOSIG=
200509050900 METAR MROC 050900Z 00000KT CAVOK 20/18 A2992 NOSIG=
200509051000 METAR MROC 051000Z 36004KT CAVOK 19/18 A2992 NOSIG=
200509051100 METAR MROC 051100Z 04004KT CAVOK 19/17 A2991 NOSIG=
200509051200 METAR MROC 051200Z 04005KT CAVOK 20/17 A2992 NOSIG=
200509051300 METAR MROC 051300Z 09005KT CAVOK 23/18 A2993 NOSIG=
200509051400 METAR MROC 051400Z 10010KT CAVOK 25/18 A2994 NOSIG=
200509051500 METAR MROC 051500Z 11007KT CAVOK 27/19 A2994 NOSIG=
200509051600 METAR MROC 051600Z 10008KT CAVOK 28/19 A2994 NOSIG=
200509051700 METAR MROC 051700Z 21006KT 9999 FEW040 SCT300 27/22 A2995 NOSIG=
200509051800 METAR MROC 051800Z 23010KT 9999 BKN030 26/22 A2993 NOSIG=
200509051900 METAR MROC 051900Z 23009KT 9999 BKN030 26/22 A2991 NOSIG=
200509052000 METAR MROC 052000Z 23012KT 9999 -RA SCT010 SCT030 25/22 A2990 NOSIG=
200509052100 METAR MROC 052100Z 22014KT 7000 3000NW TS RA SCT006CB BKN020 22/22 A2989 BECMG 4000=
200509052200 METAR MROC 052200Z 25004KT 4000 -RA BR SCT005 SCT010CB OVC100 21/21 A2993 NOSIG=
200509052300 METAR MROC 052300Z 00000KT 5000 BR FEW005 SCT010 OVC100 20/20 A2992 NOSIG=
200509060000 METAR MROC 060000Z 34004KT 7000 FEW007 SCT015 BKN100 21/20 A2993 NOSIG=
200509060100 METAR MROC 060100Z 00000KT 9000 FEW0010 SCT020 BKN100 21/20 A2994 NOSIG=
200509060200 METAR MROC 060200Z 24004KT 9000 FEW010 BKN100 21/20 A2996 BECMG 6000=
200509060300 METAR MROC 060300Z 00000KT 9999 FEW020 BKN120 21/20 A2998 NOSIG=
200509060400 METAR MROC 060400Z 00000KT 9999 FEW020 BKN120 20/20 A2998 NOSIG=
200509060500 METAR MROC 060500Z 08003KT 9999 FEW025 BKN120 20/19 A2998 NOSIG=
200509060600 METAR MROC 060600Z 06006KT CAVOK 19/18 A2996 NOSIG=
200509060700 METAR MROC 060700Z 03003KT CAVOK 19/18 A2994 NOSIG=
200509060800 METAR MROC 060800Z 01006KT CAVOK 19/18 A2991 NOSIG=
200509060900 METAR MROC 060900Z 05007KT CAVOK 18/17 A2990 NOSIG=
200509061000 METAR MROC 061000Z 36004KT CAVOK 19/18 A2990 NOSIG=
200509061100 METAR MROC 061100Z 01004KT CAVOK 20/17 A2990 NOSIG=
200509061200 METAR MROC 061200Z 03008KT CAVOK 20/17 A2990 NOSIG=
200509061300 METAR MROC 061300Z 02007KT 9999 FEW030 BKN250 21/18 A2991 NOSIG=
200509061400 METAR MROC 061400Z 09014KT 9999 FEW030 BKN250 23/18 A2991 NOSIG=
200509061500 METAR MROC 061500Z 10016KT 9999 FEW030 BKN250 25/19 A2993 NOSIG=
200509061600 METAR MROC 061600Z 09014KT 9999 FEW030 BKN250 26/18 A2995 NOSIG=
200509061700 METAR MROC 061700Z 08018KT 9999 SCT030 BKN250 28/18 A2994 NOSIG=
200509061800 METAR MROC 061800Z 08014KT 9999 SCT030 BKN140 27/19 A2993 NOSIG=
200509061900 METAR MROC 061900Z 11011KT 9999 FEW030 BKN150 28/18 A2990 NOSIG=
200509062000 METAR MROC 062000Z 08006KT 9999 SCT030 BKN200 27/18 A2990 NOSIG=
200509062100 METAR MROC 062100Z 10010KT 9999 FEW030 BKN200 26/18 A2989=
200509062200 METAR MROC 062200Z 12010KT 9999 FEW020 SCT100 BKN250 25/17 A2988=
200509062300 METAR MROC 062300Z 24010KT 3000SW BR SCT002 SCT020 22/21 A2989=
200509070000 METAR MROC 070000Z 24007KT 3000SW BR SCT002 SCT020 22/21 A2990=
200509070100 METAR MROC 070100Z 00000KT 6000SW BR FEW002 SCT020 22/21 A2992=
200509070200 METAR MROC 070200Z 35004KT 9999 FEW020 SCT100 21/20 A2992=
200509070300 METAR MROC 070300Z 05005KT 9999 FEW035 BKN280 21/16 A2995 NOSIG=
200509070400 METAR MROC 070400Z 08008KT CAVOK 21/16 A2996=
200509070500 METAR MROC 070500Z 03006KT CAVOK 20/16 A2996 NOSIG=
200509070600 METAR MROC 070600Z 06007KT CAVOK 20/16 A2995 NOSIG=
200509070700 METAR MROC 070700Z 07007KT CAVOK 19/15 A2991 NOSIG=
200509070800 METAR MROC 070800Z 35006KT CAVOK 19/15 A2990 NOSIG=
200509070900 METAR MROC 070900Z 10008KT CAVOK 20/15 A2991 NOSIG=
200509071000 METAR MROC 071000Z 090005KT CAVOK 20/16 A2992 NOSIG=
200509071100 METAR MROC 071100Z 05005KT CAVOK 19/16 A2993 NOSIG=
200509071200 METAR MROC 071200Z 01005KT CAVOK 20/16 A2992 RMK CB S NOSIG=
200509071300 METAR MROC 071300Z 06004KT CAVOK 21/17 A2993=
200509071400 METAR MROC 071400Z 09003KT CAVOK 24/17 A2995=
200509071500 METAR MROC 071500Z 09008KT CAVOK 27/16 A2995=
200509071600 METAR MROC 071600Z 14006KT CAVOK 27/16 A2996=
200509071700 METAR MROC 071700Z 24009KT CAVOK 26/20 A2995=
200509071800 METAR MROC 071800Z 23008KT 9999 FEW035 SCT250 27/21 A2993=
200509071900 METAR MROC 071900Z 23006KT 9999 SCT025TCU SCT250 26/21 A2991=
200509072000 METAR MROC 072000Z 23007KT 9999 FEW020TCU SCT040 26/22 A2989=
200509072100 METAR MROC 072100Z 26008KT 9999 FEW020TCU BKN035 25/20 A2987 RMK TCU/RN DST N BECMG 7000 -RA=
200509072200 METAR MROC 072200Z 23006KT 9999 FEW007 SCT020 23/22 A2987 RMK 7000SW=
200509072300 METAR MROC 072300Z 22007KT 7000 3000SW BR FEW006 BKN012 22/21 A2989 BECMG 3000 BR=
200509080000 METAR MROC 080000Z 00000KT 2000 -DZ BR SCT001 BKN006 21/21 A2991 BECMG 4000 BR=
200509080100 METAR MROC 080100Z 00000KT 7000 3000SW BR SCT001 BKN006 21/21 A2993 NOSIG=
200509080200 METAR MROC 080200Z 24003KT 9999 4000SW BR FEW002 BKN010 22/21 A2994 BECMG 9999=
200509080300 METAR MROC 080300Z 00000KT 5000 BR FEW003 BKN010 21/20 A2999 BECMG 3000=
200509080400 METAR MROC 080400Z 33003KT 8000 FEW005 SCT020 21/20 A2994 NOSIG=
200509080500 METAR MROC 080500Z 00000KT 8000 FEW010 SCT090 21/20 A2994 NOSIG=
200509080600 METAR MROC 080600Z 01004KT 9999 FEW010 SCT100 21/19 A2993 NOSIG=
200509080700 METAR MROC 080700Z 07006KT 9999 FEW030 22/18 A2990 NOSIG=
200509080800 METAR MROC 080800Z 10010KT 9999 FEW030 22/18 A2988 NOSIG=
200509080900 METAR MROC 080900Z 11008KT CAVOK 21/18 A2987 NOSIG=
200509081000 METAR MROC 081000Z 02006KT CAVOK 21/18 A2991 NOSIG=
200509081100 METAR MROC 081100Z 08006KT CAVOK 21/18 A2991 RMK LTNG DIST SW  NOSIG=
200509081200 METAR MROC 081200Z 08005KT 9999 -RA FEW035 BKN100 21/18 A2993=
200509081300 METAR MROC 081300Z 10008KT 9999 -DZ FEW035 BKN110 22/19 A2994 NOSIG=
200509081400 METAR MROC 081400Z 10009KT 9999 FEW035 BKN120 24/19 A2997 NOSIG=
200509081500 METAR MROC 081500Z 11011KT 9999 FEW035 SCT120 SCT250 25/19 A2996 NOSIG=
200509081600 METAR MROC 081600Z 08016KT 9999 FEW035 BKN120 26/18 A2997 NOSIG=
200509081700 METAR MROC 081700Z 06014KT 9999 FEW035 SCT120 BKN250 27/18 A2997 NOSIG=
200509081800 METAR MROC 081800Z 11015G25KT 9999 FEW045 SCT120 BKN250 26/16 A2994 NOSIG=
200509081900 METAR MROC 081900Z 10008KT CAVOK 26/15 A2990 NOSIG=
200509082000 METAR MROC 082000Z 08004KT CAVOK 26/17 A2989 NOSIG=
200509082100 METAR MROC 082100Z 22007KT 9999 FEW010 BKN140 25/21 A2988 NOSIG=
200509082200 METAR MROC 082200Z 25007KT 9999 FEW010 SCT140 BKN250 25/21 A2990 NOSIG=
200509082300 METAR MROC 082300Z 10008KT 9999 FEW010 SCT120 BKN250 25/17 A2991 BECMG RMK LOW CLDS TO SW=
200509090000 METAR MROC 090000Z 19004KT 9999 FEW035 SCT120 BKN250 22/21 A2993 NOSIG=
200509090100 METAR MROC 090100Z 11004KT CAVOK 22/18 A2994 NOSIG=
200509090200 METAR MROC 090200Z 08004KT CAVOK 22/18 A2996=
200509090300 METAR MROC 090300Z 05005KT CAVOK 21/18 A2997=
200509090400 METAR MROC 090400Z 07005KT CAVOK 21/18 A2998=
200509090500 METAR MROC 090500Z 06005KT CAVOK 21/18 A2998=
200509090600 METAR MROC 090600Z 02004KT CAVOK 21/18 A2997=
200509090700 METAR MROC 090700Z 00000KT CAVOK 20/18 A2994=
200509090800 METAR MROC 090800Z 00000KT CAVOK 21/18 A2992=
200509091000 METAR MROC 091000Z 10010KT CAVOK 22/18 A2991=
200509091100 METAR MROC 091100Z 10008KT CAVOK 22/18 A2993=
200509091200 METAR MROC 091200Z 09006KT CAVOK 22/18 A2993=
200509091300 METAR MROC 091300Z 09010KT CAVOK 24/18 A2994 NOSIG=
200509091400 METAR MROC 091400Z 11010KT 9999 FEW040 BKN250 26/19 A2996 NOSIG=
200509091500 METAR MROC 091500Z 08009KT 9999 FEW040 BKN250 27/18 A2996 NOSIG=
200509091600 METAR MROC 091600Z 08009KT 9999 FEW035 SCT250 29/18 A2996 BECMG 24008KT=
200509091700 METAR MROC 091700Z 08008KT 9999 FEW035 SCT140 28/17 A2994 NOSIG=
200509091800 METAR MROC 091800Z 11004KT 9999 FEW025TCU SCT035 30/18 A2992=
200509091900 METAR MROC 091900Z 09008KT 9999 FEW020TCU SCT035 28/19 A2989 BECMG 7000 RA=
200509092000 METAR MROC 092000Z 10009KT 9999 FEW020TCU BKN045 27/20 A2987 RERA NOSIG=
200509092100 METAR MROC 092100Z 10006KT 9999 FEW012 BKN040 24/19 A2998 BECMG RMK VSBY N 6KM=
200509092200 METAR MROC 092200Z 28006KT 9999 FEW010 SCT035 BKN250 23/21 A2990 NOSIG=
200509092300 METAR MROC 092300Z VRB03KT 9999 -RA FEW010 SCT035 BKN250 22/20 A2991 NOSIG=
200509100000 METAR MROC 100000Z 31004KT 9999 FEW040 BKN080 22/20 A2994 NOSIG=
200509100100 METAR MROC 100100Z 33003KT 9999 -RA FEW040 BKN100 21/20 A2996 NOSIG=
200509100200 METAR MROC 100200Z 24003KT 9999 FEW040 BKN100 21/20 A2999 NOSIG=
200509100300 METAR MROC 100300Z 00000KT 9999 -DZ FEW015 BKN100 21/20 A2999 RMK 7000SW=
200509100400 METAR MROC 100400Z 00000KT 9999 FEW003 BKN100 21/20 A2998 NOSIG=
200509100500 METAR MROC 100500Z 05008KT CAVOK 21/18 A2995 NOSIG=
200509100600 METAR MROC 100600Z 07009KT CAVOK 22/18 A2994 NOSIG=
200509100700 METAR MROC 100700Z 07006KT CAVOK 22/18 A2992 NOSIG=
200509100800 METAR MROC 100800Z 08007KT CAVOK 22/18 A2991 NOSIG=
200509100900 METAR MROC 100900Z 02007KT CAVOK 21/17 A2991 RMK LTNG DST SSE/SW NOSIG=
200509101000 METAR MROC 101000Z 08009KT CAVOK 22/18 A2992 NOSIG=
200509101100 METAR MROC 101100Z 09008KT CAVOK 22/18 A2993 NOSIG=
200509101200 METAR MROC 101200Z 10012KT 9999 FEW030 SCT120 22/18 A2993 NOSIG=
200509101300 METAR MROC 101300Z 08005KT 9999 FEW030 SCT130 24/18 A2997 NOSIG=
200509101400 METAR MROC 101400Z 10006KT 9999 FEW030 BKN120 24/19 A2998 NOSIG=
200509101500 METAR MROC 101500Z 10010KT 9999 FEW035 SCT280 27/18 A2999 NOSIG=
200509101600 METAR MROC 101600Z 22006KT 9999 SCT020 26/20 A2999 NOSIG=
200509101700 METAR MROC 101700Z 27003KT 9999 FEW020 SCT030 28/20 A2998 NOSIG=
200509101800 METAR MROC 101800Z 31004KT 9999 BKN030 28/20 A2995 NOSIG=
200509101900 METAR MROC 101900Z 06007KT 9999 SCT030 SCT120 29/19 A2992 NOSIG=
200509102000 METAR MROC 102000Z 08007KT 9999 FEW020 BKN040 25/18 A2991 BECMG 8000 RA RMK RN NW N NE E SE=
200509102100 METAR MROC 102100Z 25005KT 9000 FEW010 SCT030 BKN120 21/19 A2992 NOSIG=
200509102200 METAR MROC 102200Z 08003KT 9999 FEW030 BKN120 21/19 A2993 NOSIG=
200509102300 METAR MROC 102300Z 09003KT 9999 FEW030 BKN120 22/19 A2992 NOSIG=
200509110000 METAR MROC 110000Z 05005KT 9999 FEW030 BKN120 22/18 A2994 NOSIG=
200509110200 METAR MROC 110200Z 10010KT 9999 FEW030 BKN120 22/18 A2997 NOSIG=
200509110300 METAR MROC 110300Z 10011KT CAVOK 22/18 A2999 NOSIG=
200509110400 METAR MROC 110400Z 09010KT CAVOK 22/17 A2999 NOSIG=
200509110500 METAR MROC 110500Z 01005KT CAVOK 22/17 A2997 NOSIG=
200509110600 METAR MROC 110600Z 08003KT CAVOK 21/17 A2995 NOSIG=
200509110700 METAR MROC 110700Z 00000KT CAVOK 21/18 A2993 RERA NOSIG=
200509110800 METAR MROC 110800Z 07003KT CAVOK 21/17 A2993 NOSIG=
200509110900 METAR MROC 110900Z 07003KT CAVOK 21/17 A2994 NOSIG=
200509111000 METAR MROC 111000Z 10012KT 9999 FEW035 BKN140 22/17 A2994 NOSIG=
200509111100 METAR MROC 111100Z 10009KT 9999 FEW035 BKN130 21/17 A2995 NOSIG=
200509111200 METAR MROC 111200Z 08008KT CAVOK 22/17 A2996 NOSIG=
200509111300 METAR MROC 111300Z 10009KT CAVOK 23/18 A2997 NOSIG=
200509111400 METAR MROC 111400Z 11008KT 9999 FEW040 SCT250 26/18 A2998 NOSIG=
200509111500 METAR MROC 111500Z 11010KT 9999 FEW040 SCT250 28/18 A2999 NOSIG=
200509111600 METAR MROC 111600Z 08012KT 9999 SCT035 29/18 A2999 NOSIG=
200509111700 METAR MROC 111700Z 27007KT 9999 BKN035 26/21 A2999 NOSIG=
200509111800 METAR MROC 111800Z 10010KT 9999 BKN035 29/18 A2997 NOSIG=
200509111900 METAR MROC 111900Z 08008KT 9999 SCT030 SCT250 30/18 A2994 NOSIG=
200509112000 METAR MROC 112000Z 12008KT 9999 SCT030TCU SCT100 29/19 A2993 NOSIG=
200509112100 METAR MROC 112100Z 20005KT 7000 VCFG FEW010TCU SCT030 SCT100 25/22 A2993=
200509112200 METAR MROC 112200Z 22010KT 9000 FEW004 SCT030 SCT200 23/21 A2993 RMK BR/SW W=
200509112300 METAR MROC 112300Z 11003KT 9999 FEW020 BKN200 23/20 A2993=
200509120000 METAR MROC 120000Z 09013KT 9999 FEW025 SCT250 23/18 A2994=
200509120100 METAR MROC 120100Z 09012KT CAVOK 22/18 A2994=
200509120200 METAR MROC 120200Z 09010KT CAVOK 22/18 A2996=
200509120300 METAR MROC 120300Z 09015KT CAVOK 23/18 A2999 BECMG RMK LTNG DST S SW=
200509120400 METAR MROC 120400Z 10013KT CAVOK 23/18 A3001 BECMG RMK LTNG DST S=
200509120500 METAR MROC 120500Z 11008KT CAVOK 23/18 A3002 BECMG RMK LTNG DST S=
200509120600 METAR MROC 120600Z 10008KT CAVOK 23/18 A3002 BECMG RMK LTNG DST SW=
200509120700 METAR MROC 120700Z 06007KT CAVOK 22/18 A2997 NOSIG=
200509120800 METAR MROC 120800Z 10013KT CAVOK 23/18 A2993 NOSIG=
200509120900 METAR MROC 120900Z 06009KT CAVOK 23/18 A2994 NOSIG=
200509121000 METAR MROC 121000Z 09010KT CAVOK 23/17 A2993 NOSIG=
200509121100 METAR MROC 121100Z 09011KT CAVOK 23/18 A2994 NOSIG=
200509121200 METAR MROC 121200Z 10010KT 9999 FEW030 BKN280 22/18 A2994 BECMG RMK CB DST SW=
200509121300 METAR MROC 121300Z 09013KT CAVOK 23/18 A2993=
200509121400 METAR MROC 121400Z 09016KT CAVOK 26/18 A2998=
200509121500 METAR MROC 121500Z 08015KT CAVOK 28/18 A2998=
200509121600 METAR MROC 121600Z 06014KT 9999 FEW035 SCT250 28/16 A2999=
200509121700 METAR MROC 121700Z 07010KT 9999 FEW030 SCT200 29/16 A3000=
200509121800 METAR MROC 121800Z 05010KT 9999 SCT030 SCT250 30/17 A3000=
200509121900 METAR MROC 121900Z 06013KT 9999 SCT030TCU SCT200 30/17 A2995=
200509122000 METAR MROC 122000Z 09010KT 9999 SCT020TCU SCT200 30/17 A2992=
200509122100 METAR MROC 122100Z 11012KT 9999 FEW035 SCT120 BKN240 27/18 A2990 NOSIG=
200509122200 METAR MROC 122200Z 10009KT 9999 SCT040 SCT120 27/18 A2992 NOSIG=
200509122300 METAR MROC 122300Z 13005KT 9999 FEW035 BKN120 25/17 A2995 NOSIG=
200509130000 METAR MROC 130000Z 29005KT 9999 FEW035 BKN120 22/21 A2997 RMK RN DST NE LTNG SW W BECMG FEW005 7000SW VCFG=
200509130100 METAR MROC 130100Z 29004KT CAVOK 22/20 A2999 RMK LTNG S SW BECMG 14005KT=
200509130200 METAR MROC 130200Z 00000KT CAVOK 21/20 A3000 NOSIG=
200509130300 METAR MROC 130300Z 00000KT CAVOK 21/20 A3003 NOSIG=
200509130400 METAR MROC 130400Z 03005KT CAVOK 21/20 A3003 NOSIG=
200509130500 METAR MROC 130500Z 09004KT CAVOK 20/18 A3001 NOSIG=
200509130600 METAR MROC 130600Z 03003KT CAVOK 21/18 A2999 NOSIG=
200509130700 METAR MROC 130700Z 07004KT CAVOK 20/17 A2996 NOSIG=
200509130800 METAR MROC 130800Z 03005KT CAVOK 20/18 A2995 NOSIG=
200509130900 METAR MROC 130900Z 02004KT CAVOK 21/18 A2992 NOSIG=
200509131000 METAR MROC 131000Z 06003KT CAVOK 21/18 A2994  NOSIG=
200509131100 METAR MROC 131100Z 04005KT CAVOK 20/17 A2996 NOSIG=
200509131200 METAR MROC 131200Z 03007KT 9999 -RA SCT100 BKN130 21/18 A2997 NOSIG=
200509131300 METAR MROC 131300Z 00000KT CAVOK 21/18 A2996 NOSIG=
200509131400 METAR MROC 131400Z 29005KT 9999 SCT045 BKN120 21/19 A3002 NOSIG=
200509131500 METAR MROC 131500Z 30003KT 9999 FEW035 BKN120 22/19 A3004 NOSIG=
200509131600 METAR MROC 131600Z 26005KT 9999 FEW030 SCT120 BKN240 24/19 A3001 NOSIG=
200509131700 METAR MROC 131700Z 24004KT 9999 SCT030 BKN120 24/19 A3001 NOSIG=
200509131800 METAR MROC 131800Z 30006KT 9999 SCT025 BKN250 25/20 A2998 NOSIG=
200509131900 METAR MROC 131900Z 24010KT 9999 FEW008 SCT025 BKN120 24/21 A2995 RMK=
200509132000 METAR MROC 132000Z 22010KT 5000 2000SW -RA BR SCT003 SCT012 BKN100 22/20 A2994 BECMG 5000 -RA BR=
200509132100 METAR MROC 132100Z 25005KT 6000 3000SW -RA BR SCT004 BKN015 21/20 A2994 BECMG 3000 -RA BR=
200509132200 METAR MROC 132200Z 23004KT 6000 VCFG SCT004 BKN015 21/20 A2994 NOSIG=
200509132300 METAR MROC 132300Z 00000KT 8000 VCFG FEW004 SCT010 BKN250 22/20 A2995 NOSIG=
200509140000 METAR MROC 140000Z 23004KT 9999 FEW004 SCT015TCU BKN250 20/20 A2998 BECMG 6000 -RA BR RMK VIS N NE 7KMS POR ST BAJOS=
200509140100 METAR MROC 140100Z 23004KT 7000 VCFG FEW003 SCT008 BKN250 20/20 A3001 NOSIG=
200509140200 METAR MROC 140200Z 23003KT 7000 VCFG FEW003 SCT010 BKN250 20/20 A3002 BECMG 4000 BR SCT001 BKN010=
200509140300 METAR MROC 140300Z 33003KT 7000 -DZ BR FEW002 SCT010 SCT090 21/20 A3004=
200509140400 METAR MROC 140400Z 00000KT 6000 DZ BR FEW002 SCT015 SCT100 21/20 A3002=
200509140500 METAR MROC 140500Z 00000KT 8000 2000SW BR SCT001 SCT030 20/20 A3001=
200509140600 METAR MROC 140600Z 00000KT 8000 2000SW DZ BR SCT001 SCT025 20/20 A3000=
200509140700 METAR MROC 140700Z 00000KT 5000SW BR FEW002 SCT015 SCT100 20/19 A3000=
200509140800 METAR MROC 140800Z 00000KT 9999 3000SW BR SCT002 SCT030 20/20 A3000=
200509141000 METAR MROC 141000Z 00000KT 6000SW BR FEW002 SCT025 20/19 A2998=
200509141100 METAR MROC 141100Z 26003KT 8000 2000SW BR SCT002 SCT020 20/19 A3000=
200509141200 METAR MROC 141200Z 00000KT 6000 BR FEW002 SCT150 20/19 A3001=
200509141300 METAR MROC 141300Z 03010KT 9999 FEW001 SCT160 BKN220 21/19 A2999 BECMG RMK VIS S SSW 7KMS POR NIEBLA/ BRUMA LIGERA=
200509141400 METAR MROC 141400Z 06006KT CAVOK 23/19 A3001 NOSIG=
200509141500 METAR MROC 141500Z 23006KT CAVOK 23/17 A3004 NOSIG=
200509141600 METAR MROC 141600Z 22007KT 9999 FEW035 BKN220 24/20 A3003 BECMG RMK H Z Y=
200509141700 METAR MROC 141700Z 26006KT 9999 FEW020 SCT150 BKN220 24/20 A3002 BECMG RMK H Z Y=
200509141800 METAR MROC 141800Z 23006KT 9999 FEW015TCU BKN220 26/20 A3000 BECMG RMK H Z Y=
200509141900 METAR MROC 141900Z 23007KT 9999 FEW015TCU SCT160 BKN220 25/20 A2995 BECMG 7000 -RA RMK HZY=
200509142000 METAR MROC 142000Z 24008KT 9999 FEW015TCU SCT025 BKN250 25/21 A2993 BECMG RMK RN DIST ESE S=
200509142100 METAR MROC 142100Z 22008KT 9999 4000N VCSH SCT010 BKN025 23/21 A2993 BECMG RA=
200509142200 METAR MROC 142200Z 22007KT 5000 VCSH BKN010 SCT020TCU 22/21 A2995 RMK VSBY E UNL BECMG 3000 RA BR=
200509142300 METAR MROC 142300Z 29006KT 4000 -TSRA SCT010CB BKN025 20/19 A2997 BECMG 6000=
200509150000 METAR MROC 150000Z 00000KT 9999 FEW006 SCT035 BKN120 19/19 A3000 RETS BECMG RMK VSBY W 7KM DUE RN LTNG SW=
200509150100 METAR MROC 150100Z 01003KT 9999 FEW012 BKN120 20/19 A3001 NOSIG=
200509150200 METAR MROC 150200Z 10003KT 9999 FEW040 BKN120 20/19 A3002 NOSIG=
200509150300 METAR MROC 150300Z 07003KT 9999 -DZ FEW003 BKN100 21/19 A3001 NOSIG=
200509150400 METAR MROC 150400Z 04007KT CAVOK 21/18 A2999 NOSIG=
200509150500 METAR MROC 150500Z 01008KT CAVOK 22/18 A2997 NOSIG=
200509150600 METAR MROC 150600Z 33006KT CAVOK 21/18 A2995 NOSIG=
200509150700 METAR MROC 150700Z 07005KT CAVOK 22/17 A2995 NOSIG=
200509150800 METAR MROC 150800Z VRB03KT CAVOK 21/17 A2996 NOSIG=
200509150900 METAR MROC 150900Z 05004KT 9999 FEW030 BKN120 19/17 A2996 RMK LTNG DST SSE/S ST S BECMG VRB03KT 6000 VCFG FEW004 SCT025=
200509151000 METAR MROC 151000Z VRB03KT 9999 FEW030 BKN120 20/17 A2997 RMK LTNG DST S NOSIG=
200509151100 METAR MROC 151100Z 09010KT CAVOK 21/16 A2997 RMK LTNG DST S NOSIG=
200509151200 METAR MROC 151200Z 10015KT CAVOK 21/17 A2997 NOSIG=
200509151300 METAR MROC 151300Z 12014KT 9999 FEW040 SCT120 BKN250 22/17 A2999 NOSIG=
200509151400 METAR MROC 151400Z 09011KT 9999 FEW040 SCT080 BKN280 25/18 A3002 NOSIG=
200509151500 METAR MROC 151500Z 09013KT 9999 FEW040 SCT080 BKN280 26/18 A3004 NOSIG=
200509151600 METAR MROC 151600Z 09011KT 9999 FEW035 SCT100 BKN280 26/18 A3002 NOSIG=
200509151700 METAR MROC 151700Z 10010KT 9999 FEW040 BKN100 27/18 A3000 NOSIG=
200509151800 METAR MROC 151800Z 12008KT 9999 FEW040 BKN100 26/17 A2999 NOSIG=
200509151900 METAR MROC 151900Z 06011KT 9999 FEW040 SCT080 BKN130 26/17 A2998 NOSIG=
200509152000 METAR MROC 152000Z 07009KT 9999 FEW040 BKN130 26/16 A2995 NOSIG=
200509152100 METAR MROC 152100Z 09011KT 9999 FEW035 SCT120 BKN250 26/16 A2993=
200509152200 METAR MROC 152200Z 10007KT 9999 FEW035 SCT120 BKN250 26/16 A2994 NOSIG=
200509152300 METAR MROC 152300Z 12005KT CAVOK 24/18 A2995=
200509152353 METAR MROC 160000Z 23006KT CAVOK 22/20 A2995 BECMG 6000=
200509160000 METAR MROC 160000Z 23006KT CAVOK 22/20 A2995 BECMG 6000=
200509160100 METAR MROC 160100Z 25004KT 5000 BR FEW005 SCT015 22/21 A2998 NOSIG=
200509160200 METAR MROC 160200Z 22004KT 8000 3000SW BR FEW003 SCT015 21/20 A3001 NOSIG=
200509160300 METAR MROC 160300Z 00000KT 8000 VCFG FEW005 SCT020 BKN120 21/20 A3003 BECMG 4000 BR=
200509160400 METAR MROC 160400Z 00000KT 9999 FEW004 BKN120 20/19 A3003 NOSIG=
200509160500 METAR MROC 160500Z 03003KT CAVOK 21/17 A3001 NOSIG=
200509160600 METAR MROC 160600Z 08004KT CAVOK 20/16 A3000 NOSIG=
200509160700 METAR MROC 160700Z 04005KT CAVOK 21/16 A2998 NOSIG=
200509160800 METAR MROC 160800Z 27004KT 9999 FEW008 BKN120 20/17 A2998 NOSIG=
200509160900 METAR MROC 160900Z 00000KT 9999 FEW010 BKN120 19/18 A2997 NOSIG=
200509161000 METAR MROC 161000Z 05005KT 9999 FEW020 BKN100 20/16 A2997 NOSIG=
200509161100 METAR MROC 161100Z 01006KT 9999 FEW025 BKN100 21/16 A2997 NOSIG=
200509161200 METAR MROC 161200Z 06005KT CAVOK 21/16 A2996 NOSIG=
200509161300 METAR MROC 161300Z 06004KT CAVOK 22/16 A2998 NOSIG=
200509161400 METAR MROC 161400Z 00000KT 9999 FEW035 BKN120 23/16 A2999 NOSIG=
200509161500 METAR MROC 161500Z 10012KT 9999 FEW035 BKN120 24/17 A3004 NOSIG=
200509161600 METAR MROC 161600Z 09010KT 9999 FEW030 BKN110 25/17 A3005 NOSIG=
200509161700 METAR MROC 161700Z 09010KT 9999 FEW030 BKN110 25/18 A3003 NOSIG=
200509161800 METAR MROC 161800Z 02003KT 9999 FEW035 SCT100 OVC250 26/18 A3001 NOSIG=
200509161900 METAR MROC 161900Z 09010KT 9999 FEW025 SCT100 BKN250 28/17 A3000 NOSIG=
200509162000 METAR MROC 162000Z 09013KT 9999 FEW030 SCT120 BKN250 28/18 A2993 NOSIG=
200509162100 METAR MROC 162100Z 09015KT 9999 FEW035 BKN150 26/17 A2990=
200509162200 METAR MROC 162200Z 09013KT CAVOK 26/17 A2988=
200509162300 METAR MROC 162300Z 09012KT CAVOK 25/17 A2991=
200509170000 METAR MROC 170000Z 10012KT CAVOK 23/17 A2992=
200509170100 METAR MROC 170100Z 10010KT CAVOK 23/18 A2994=
200509170200 METAR MROC 170200Z 14005KT CAVOK 23/18 A2997=
200509170300 METAR MROC 170300Z 24007KT 9999 SCT005 SCT040 BKN120 21/20 A2997 RMK VSBY S SW 5KM DUE LOW ST BECMG 5000 BR=
200509170400 METAR MROC 170400Z VRB03KT 9999 FEW002 BKN120 21/20 A3000 RMK VSBY SW 5KM DUE LW ST NOSIG=
200509170500 METAR MROC 170500Z VRB03KT 9999 4000SW BR FEW002 SCT010 BKN120 21/20 A3001 NOSIG=
200509170600 METAR MROC 170600Z 04004KT 9999 FEW035 SCT120 21/20 A2999 NOSIG=
200509170700 METAR MROC 170700Z 05006KT 9999 FEW040 SCT120 21/18 A2997 NOSIG=
200509170800 METAR MROC 170800Z 07004KT CAVOK 20/17 A2995 NOSIG=
200509170900 METAR MROC 170900Z 04006KT CAVOK 20/17 A2994 NOSIG=
200509171000 METAR MROC 171000Z 03006KT CAVOK 20/17 A2991 NOSIG=
200509171100 METAR MROC 171100Z 03006KT CAVOK 20/17 A2992 NOSIG=
200509171200 METAR MROC 171200Z 08006KT CAVOK 20/17 A2992 NOSIG=
200509171300 METAR MROC 171300Z 00000KT CAVOK 24/17 A2996=
200509171400 METAR MROC 171400Z 29005KT CAVOK 24/18 A2997=
200509171500 METAR MROC 171500Z 09007KT CAVOK 27/18 A2996=
200509171600 METAR MROC 171600Z 09009KT CAVOK 30/17 A2995=
200509171700 METAR MROC 171700Z 10004KT 9999 SCT030 SCT250 30/17 A2995=
200509171800 METAR MROC 171800Z 23010KT 9999 FEW020TCU SCT040 26/22 A2993=
200509171900 METAR MROC 171900Z 24007KT 9999 SCT020TCU SCT100 27/22 A2991=
200509172000 METAR MROC 172000Z 25008KT 9999 SCT025TCU SCT200 25/22 A2987 RERA=
200509172100 METAR MROC 172100Z 09020KT 0500 +TSRA SCT015CB BKN030 20/19 A2987 BECMG 3000 TSRA=
200509172200 METAR MROC 172200Z 10010KT 7000 3000SW -RA BR FEW003 SCT030 BKN090 20/20 A2987 BECMG 5000SW -RA BR=
200509172300 METAR MROC 172300Z 03005KT 9999 -RA FEW030 SCT270 BKN100 21/20 A2990 NOSIG=
200509180000 METAR MROC 180000Z 33005KT 9999 RA OVC090 21/20 A2990 NOSIG=
200509180100 METAR MROC 180100Z 30008KT 9999 DZ OVC090 22/20 A2994 NOSIG=
200509180200 METAR MROC 180200Z 29009KT 9999 DZ OVC100 21/20 A2995 NOSIG=
200509180300 METAR MROC 180300Z 30005KT CAVOK 21/20 A2996=
200509180400 METAR MROC 180400Z 00000KT CAVOK 20/19 A2996 NOSIG=
200509180500 METAR MROC 180500Z 03004KT CAVOK 20/19 A2996 NOSIG=
200509180600 METAR MROC 180600Z 00000KT CAVOK 20/19 A2994 NOSIG=
200509180700 METAR MROC 180700Z 02006KT CAVOK 20/18 A2993 NOSIG=
200509180800 METAR MROC 180800Z 05006KT CAVOK 20/19 A2990 NOSIG=
200509180900 METAR MROC 180900Z 04003KT CAVOK 20/19 A2989 NOSIG=
200509181000 METAR MROC 181000Z 03005KT CAVOK 21/19 A2990 NOSIG=
200509181100 METAR MROC 181100Z 09008KT CAVOK 21/18 A2989 NOSIG=
200509181200 METAR MROC 181200Z 08009KT CAVOK 21/17 A2988 NOSIG=
200509181300 METAR MROC 181300Z 09020KT CAVOK 23/17 A2989 NOSIG=
200509181400 METAR MROC 181400Z 09011KT CAVOK 25/18 A2992 NOSIG=
200509181500 METAR MROC 181500Z 09012KT 9999 FEW035 SCT120 25/18 A2994 NOSIG=
200509181600 METAR MROC 181600Z 10008KT 9999 FEW035 SCT120 BKN250 28/18 A2999 NOSIG=
200509181700 METAR MROC 181700Z 12008KT 9999 SCT035 SCT120 28/19 A2992 NOSIG=
200509181800 METAR MROC 181800Z 03012KT 9999 SCT035 BKN250 29/20 A2989 NOSIG=
200509181900 METAR MROC 181900Z 10005KT 9999 SCT035 SCT120 28/19 A2985 BECMG 28006KT=
200509182000 METAR MROC 182000Z 00000KT 9999 SCT015CB SCT030 29/19 A2983 RMK RN DST NW NE E BECMG 3000 TSRA=
200509182100 METAR MROC 182100Z 23011KT 9999 FEW015CB BKN025 23/21 A2984 BECMG 5000 -RA BR RMK VIS SW 6KMS DUE RASH=
200509182200 METAR MROC 182200Z 23008KT 4000 BR SCT004 BKN010 22/21 A2986 BECMG 2000 RMK VIS S SE E 8KMS=
200509182300 METAR MROC 182300Z 27010KT 9999 SCT005 BKN015 22/21 A2988 BECMG 6000=
200509190000 METAR MROC 190000Z 22004KT 9999 FEW004 BKN015 22/21 A2990 BECMG RMK VIS SSW SW 7KMS DUE LOW CLOWDS=
200509190100 METAR MROC 190100Z 00000KT 9999 FEW004 SCT020 BKN250 22/21 A2993 NOSIG=
200509190200 METAR MROC 190200Z 00000KT 9999 FEW005 SCT025 22/21 A2994=
200509190300 METAR MROC 190300Z 26003KT 9999 FEW003 SCT025 22/21 A2996=
200509190400 METAR MROC 190400Z 24004KT 9999 FEW002 SCT070 21/21 A2998 RMK BR ARND=
200509190500 METAR MROC 190500Z 00000KT 9999 FEW005 FEW030 21/20 A2996=
200509190600 METAR MROC 190600Z 00000KT 9999 FEW005 SCT100 20/19 A2996=
200509190700 METAR MROC 290700Z 00000KT 9999 FEW003 SCT030 21/19 A2993=
200509191000 METAR MROC 191000Z 08004KT CAVOK 19/19 A2990=
200509191100 METAR MROC 191100Z 03007KT CAVOK 20/18 A2991=
200509191200 METAR MROC 191200Z 04008KT CAVOK 21/18 A2992=
200509191300 METAR MROC 191300Z 07006KT CAVOK 24/19 A2995 BECMG RMK BKN300=
200509191400 METAR MROC 191400Z 09007KT 9999 FEW040 SCT300 26/18 A2998 NOSIG=
200509191500 METAR MROC 191500Z 11005KT 9999 FEW040 SCT300 28/18 A2997 NOSIG=
200509191600 METAR MROC 191600Z 19006KT 9999 FEW035 SCT300 27/21 A2996 BECMG 25008KT=
200509191700 METAR MROC 191700Z 22007KT 9999 FEW035 SCT300 28/21 A2995 NOSIG=
200509191800 METAR MROC 191800Z 23008KT 9999 FEW020TCU SCT035 27/22 A2992 BECMG 5000 -TSRA SCT015CB BKN025 RMK RN DIST N NNW=
200509191900 METAR MROC 191900Z 10017KT 3000 +TSRA SCT015CB SCT030 BKN100 19/18 A2991 BECMG 7000 RMK STRONG TS SE S SW MOVNG TO W VIS E QD UNLTD=
200509192000 METAR MROC 192000Z 00000KT 9999 -TS FEW015CB SCT035 BKN120 20/19 A2991 BECMG 24008KT 7000 VCFG SCT005 RMK TS DIST WSW W=
200509192100 METAR MROC 192100Z 30003KT 3000 RA BR FEW005 BKN020 20/19 A2992 NOSIG=
200509192200 METAR MROC 192200Z 12003KT 4000 -RA BR SCT008 SCT015 BKN120 20/19 A2992 NOSIG=
200509192300 METAR MROC 192300Z 08003KT 6000 -RA SCT015 SCT040 BKN120 20/19 A2994=
200509200000 METAR MROC 200000Z VRB03KT 9999 -RA FEW015 SCT040 OVC120 21/20 A2996 BECMG RMK VSBY SW W 6KM DUE LOW ST=
200509200100 METAR MROC 200100Z 27003KT 6000 RA VCFG SCT005 SCT040 OVC120 20/20 A2994 NOSIG=
200509200300 METAR MROC 200300Z 03004KT 9999 FEW003 SCT025 20/19 A3000 NOSIG=
200509200400 METAR MROC 200400Z 04003KT 7000 RA FEW035 OVC090 19/18 A3002 NOSIG=
200509200500 METAR MROC 200500Z 01003KT 9999 -DZ OVC100 19/19 A3000 NOSIG=
200509200600 METAR MROC 200600Z 06004KT CAVOK 20/19 A2998 NOSIG=
200509200700 METAR MROC 200700Z 06005KT CAVOK 20/18 A2996 NOSIG=
200509200800 METAR MROC 200800Z 04006KT CAVOK 20/18 A2993 NOSIG=
200509200900 METAR MROC 200900Z 07006KT CAVOK 20/18 A2992 NOSIG=
200509201000 METAR MROC 201000Z 06008KT CAVOK 20/18 A2993 NOSIG=
200509201100 METAR MROC 201100Z 06005KT CAVOK 20/18 A2993 RMK TCU DST S NOSIG=
200509201200 METAR MROC 201200Z 07005KT CAVOK 19/17 A2996 RMK CB DST SW NOSIG=
200509201300 METAR MROC 201300Z 30005KT CAVOK 20/18 A3001 NOSIG=
200509201400 METAR MROC 201400Z 24007KT 9999 FEW010 BKN100 20/18 A3004 NOSIG=
200509201500 METAR MROC 201500Z 32003KT 9999 FEW010 BKN100 22/19 A3004 NOSIG=
200509201600 METAR MROC 201600Z 25003KT 9999 FEW012 BKN100 23/18 A3002 NOSIG=
200509201700 METAR MROC 201700Z 23009KT 9999 SCT015 BKN100 23/19 A3003 NOSIG=
200509201800 METAR MROC 201800Z 25005KT 9999 FEW015 BKN100 24/19 A3002 NOSIG=
200509201900 METAR MROC 201900Z 22005KT 9999 SCT020 SCT280 25/19 A2998 NOSIG=
200509202000 METAR MROC 202000Z 23007KT 9999 SCT025 SCT280 26/19 A2995 NOSIG=
200509202100 METAR MROC 202100Z 22008KT 9999 FEW025TCU SCT280 25/20 A2992 BECMG 6000 VCSH=
200509202200 METAR MROC 202200Z 21008KT 9999 -RA FEW020 SCT030 BKN100 21/20 A2994 NOSIG=
200509202300 METAR MROC 202300Z 21006KT 9999 FEW015 SCT0215 BKN100 21/20 A2994 NOSIG=
200509202355 METAR MROC 210000Z 28005KT 9999 FEW008 SCT020 OVC100 21/20 A2998 BECMG 5000 -RA=
200509210000 METAR MROC 210000Z 28005KT 9999 FEW008 SCT020 OVC100 21/20 A2998 BECMG 5000 -RA=
200509210100 METAR MROC 210100Z 23006KT 6000 RA FEW005 SCT015 OVC090 20/20 A3000 NOSIG=
200509210200 METAR MROC 210200Z 26007KT 5000 RA FEW003 SCT015 OVC080 20/20 A3005 NOSIG=
200509210300 METAR MROC 210300Z 28003KT 6000 RA FEW035 OVC100 20/19 A3007 NOSIG=
200509210400 METAR MROC 210400Z 31003KT 9999 -RA FEW005 OVC100 20/19 A3005 BECMG RMK VIS 7KMS TO S SSW DUE LOW CLOWDS=
200509210500 METAR MROC 210500Z 00000KT 9999 3000SW BR FEW001 OVC120 20/19 A3004 BECMG 7000 VCFG RMK THING FG SCTD S SSW W=
200509210600 METAR MROC 210600Z 00000KT 9999 4000SW BR FEW001 SCT010 BKN120 20/19 A3001 NOSIG=
200509210700 METAR MROC 210700Z 00000KT 9999 FEW002 SCT010 BKN120 19/19 A2996 BECMG RMK VIS SSW SW 7KMS DUE FG=
200509210800 METAR MROC 210800Z 04003KT CAVOK 19/19 A2998 NOSIG=
200509210900 METAR MROC 210900Z 28003KT 9999 FEW010 OVC120 19/18 A2995 NOSIG=
200509211000 METAR MROC 211000Z 09004KT CAVOK 18/18 A2994 NOSIG=
200509211100 METAR MROC 211100Z 04005KT CAVOK 19/18 A2997 NOSIG=
200509211200 METAR MROC 211200Z 03003KT CAVOK 19/17 A2998 BECMG RMK THING FG TO S SSW=
200509211600 METAR MROC 211600Z 26004KT 9999 FEW025 BKN240 24/20 A3001 NOSIG=
200509211700 METAR MROC 211700Z 26004KT 9999 FEW025 BKN240 25/19 A2999 NOSIG=
200509211800 METAR MROC 211800Z 22006KT 9999 FEW025 BKN240 25/20 A2996 RMK TCU DST SE W=
200509211900 METAR MROC 211900Z 23008KT 9999 FEW015 SCT022TCU BKN240 25/20 A2993 BECMG 7000 VCSH=
200509212000 METAR MROC 212000Z 25011KT 9999 FEW020TCU SCT120 BKN240 24/21 A2992 BECMG 5000 RA=
200509212100 METAR MROC 212100Z 24009KT 9000 FEW006 SCT025TCU SCT080 24/21 A2992 RMK RN ARND=
200509212200 METAR MROC 212200Z 24008KT 6000 -DZ SCT006 SCT035TCU 22/21 A2992 RMK VIS RED W=
200509212300 METAR MROC 212300Z 27005KT 9999 2500SW -DZ BR SCT002 SCT015 21/20 A2995=
200509220000 METAR MROC 220000Z 28005KT 4000SW -DZ BR SCT003 SCT025 20/20 A2997=
200509220100 METAR MROC 220100Z 32003KT 8000 VCFG FEW005 OVC100 21/20 A2997 RMK BR SW=
200509220200 METAR MROC 220200Z 22003KT 7000 -DZ BR FEW002 SCT020 OVC100 20/20 A3001=
200509220400 METAR MROC 220400Z 00000KT 9999 FEW010 OVC100 20/20 A3001 NOSIG=
200509220500 METAR MROC 220500Z 00000KT 9999 FEW005 SCT015 OVC100 20/20 A3002 NOSIG=
200509220600 METAR MROC 220600Z 28004KT 6000 -DZ VCFG SCT005 OVC100 20/20 A3001 NOSIG=
200509220700 METAR MROC 220700Z 23004KT 2500 RA BR SCT001 SCT006 20/19 A3000 NOSIG=
200509220800 METAR MROC 220800Z 26005KT 4000 DZ BR SCT001 BKN006 19/19 A3000 BECMG 1000 BR=
200509220900 METAR MROC 220900Z 30004KT 9999 4000SW BR FEW001 BKN010 19/19 A3000 BECMG 3000 BR=
200509221000 METAR MROC 221000Z 29004KT 9999 FEW001 SCT015 BKN100 19/18 A3000 NOSIG=
200509221100 METAR MROC 221100Z 03003KT 9999 SCT012 BKN120 19/18 A3000 NOSIG=
200509221200 METAR MROC 221200Z 09003KT 9999 FEW010 OVC100 19/18 A2999 NOSIG=
200509221300 METAR MROC 221300Z 09006KT CAVOK 20/19 A2997=
200509221400 METAR MROC 221400Z 08004KT CAVOK 22/19 A2998=
200509221500 METAR MROC 221500Z 09004KT CAVOK 23/19 A2998=
200509221600 METAR MROC 221600Z 21006KT CAVOK 22/19 A3000=
200509221700 METAR MROC 221700Z 28004KT CAVOK 24/18 A3000=
200509221800 METAR MROC 221800Z 24004KT 9999 SCT025 SCT150 25/18 A2999=
200509221900 METAR MROC 221900Z 24006KT 9999 SCT025 BKN220 25/18 A2996=
200509222000 METAR MROC 222000Z 23009KT 9999 SCT025 SCT250 24/20 A2992=
200509222100 METAR MROC 222100Z 24011KT 9999 SCT020 BKN250 23/20 A2991 BECMG 7000=
200509222200 METAR MROC 222200Z 25010KT 6000 VCFG BKN008 SCT025 21/20 A2993 BECMG 3000 BR=
200509222300 METAR MROC 222300Z 26007KT 6000 VCFG SCT005 BKN012 21/20 A2993 NOSIG=
200509230000 METAR MROC 230000Z 25007KT 7000 VCFG SCT005 BKN250 20/19 A2996 NOSIG=
200509230100 METAR MROC 230100Z 27003KT 7000 RA VCFG FEW005 SCT012 BKN100 20/19 A2998 NOSIG=
200509230200 METAR MROC 230200Z 35003KT 7000 RA VCFG FEW005 SCT015 BKN100 20/19 A3000 NOSIG=
200509230300 METAR MROC 230300Z 00000KT 9999 -RA OVC100 20/19 A3002 NOSIG=
200509230400 METAR MROC 230400Z 00000KT 9999 FEW025 BKN120 20/19 A3004 NOSIG=
200509230500 METAR MROC 230500Z 00000KT 9999 FEW005 SCT025 BKN120 19/19 A3003 BECMG 5000 BR=
200509230600 METAR MROC 230600Z 00000KT 9999 FEW020 BKN100 20/19 A3001 NOSIG=
200509230700 METAR MROC 230700Z 22004KT 7000 VCFG FEW003 SCT020 BKN120 20/19 A3001 BECMG 5000 BR=
200509230800 METAR MROC 230800Z 22005KT 5000 BR FEW001 SCT020 BKN120 19/19 A3000 NOSIG=
200509230900 METAR MROC 230900Z 28003KT 9999 FEW005 SCT020 BKN120 19/18 A3000 NOSIG=
200509231000 METAR MROC 231000Z 02006KT 9999 SCT020 BKN120 19/18 A3001 NOSIG=
200509231100 METAR MROC 231100Z 06006KT 9999 FEW020 BKN130 19/17 A3000 NOSIG=
200509231200 METAR MROC 231200Z 08006KT CAVOK 18/17 A2999 NOSIG=
200509231300 METAR MROC 231300Z 06003KT CAVOK 21/18 A3001 NOSIG=
200509231400 METAR MROC 231400Z 21003KT CAVOK 22/19 A3003 NOSIG=
200509231500 METAR MROC 231500Z 22005KT 9999 FEW030 SCT130 24/20 A3002 NOSIG=
200509231600 METAR MROC 231600Z 22005KT 9999 FEW030 SCT120 25/20 A3003 NOSIG=
200509231700 METAR MROC 231700Z 23006KT 9999 SCT030 BKN120 25/20 A3001 NOSIG=
200509231800 METAR MROC 231800Z 24011KT 9999 FEW015 SCT025 BKN120 25/21 A2999 NOSIG=
200509231900 METAR MROC 231900Z 23010KT 7000 VCSH BKN020 SCT120 24/21 A2997 RMK 5000NE SHRA BECMG 5000 -TSRA=
200509232000 METAR MROC 232000Z 24010KT 3000 -RA BR SCT003 BKN010 21/21 A2994 RMK 1500NW BECMG 1000 -RA BR=
200509232100 METAR MROC 232100Z 22007KT 3000 BR SCT004 BKN008 21/20 A2993 BECMG RMK VIS 6KMS S SE E=
200509232200 METAR MROC 232200Z 24009KT 0400SW FG BKN001 SCT005 21/20 A2994 BECMG RMK VIS SE 6KMS SE=
200509232300 METAR MROC 232300Z 23008KT 2000 RA BR SCT003 BKN007 21/19 A2998 NOSIG=
200509240000 METAR MROC 240000Z 00000KT 6000 -RA VCFG SCT004 SCT010 BKN100 20/20 A2999 BECMG RMK VIS N NE 9999 RMK PISTA MOJADA=
200509240100 METAR MROC 240100Z 06003KT 8000 -RA FEW004 SCT010 OVC100 19/19 A3002 BECMG RMK VIS N/SE UNL=
200509240200 METAR MROC 240200Z 08003KT 8000 -RA SCT010 OVC100 19/19 A3004=
200509240300 METAR MROC 240300Z 09003KT 6000 -RA FEW004 SCT010 OVC100 19/19 A3006=
200509240400 METAR MROC 240400Z 00000KT 9000 3000SW -RA FEW003 SCT010 OVC100 19/19 A3007=
200509240500 METAR MROC 240500Z 00000KT 4000 1200SW DZ BR FEW001 SCT010 OVC100 19/19 A3006=
200509240600 METAR MROC 240600Z 00000KT 6000 1200SW -DZ BR FEW001 SCT015 19/19 A3005=
200509240700 METAR MROC 240700Z 00000KT 8000 1500SW -DZ BR SCT002 SCT015 OVC100 19/19 A3002=
200509240800 METAR MROC 240800Z 25003KT 0500 FG SCT001 SCT010 19/19 A3001=
200509240900 METAR MROC 240900Z 00000KT 4000 1000SW FG SCT001 SCT015 19/19 A3001=
200509241000 METAR MROC 241000Z 00000KT 4000 BR SCT003 SCT020 19/19 A3001=
200509241100 METAR MROC 241100Z 00000KT 7000 VCFG FEW003 SCT025 SCT100 19/19 A3002=
200509241200 METAR MROC 241200Z 04003KT 5000SW BR SCT004 SCT025 19/19 A3004=
200509241300 METAR MROC 241300Z 00000KT 9999 FEW003 SCT120 BKN250 20/19 A3004 BECMG RMK DISPERSOS BANCOS DE NIEBLA DIST S NNW W=
200509241400 METAR MROC 241400Z 00000KT 9999 FEW008 SCT120 BKN250 23/19 A3005 BECMG 24005KT RMK VIS SSW 7KMS POR ST BJS=
200509241500 METAR MROC 241500Z 00000KT 9999 FEW004 SCT140 BKN250 24/19 A3005 BECMG RMK VIS S SSW 7KMS POR ST BJS=
200509241600 METAR MROC 241600Z 26006KT 9999 FEW010 SCT140 BKN250 24/20 A3005 NOSIG=
200509241700 METAR MROC 241700Z 23009KT 9999 FEW010 SCT020 BKN250 24/21 A3003 NOSIG=
200509241800 METAR MROC 241800Z 23009KT 9999 SCT010 SCT020 BKN250 23/21 A3001 BECMG 6000 -RA VCFG=
200509241900 METAR MROC 241900Z 23013KT 6000 VCFG SCT005 BKN010 23/21 A2998 BECMG 4000 -RA BR RMK VIS N 4KMS VIS SE E UNLTD=
200509242000 METAR MROC 242000Z 24009KT 3000 BR SCT003 BKN006 22/20 A2997 BECMG 0500 FG RMK VIS E SE 6KMS=
200509242100 METAR MROC 242100Z 23008KT 0800 -RA FG SCT001 BKN004 20/20 A2995 BECMG 1500 -RA BR=
200509242200 METAR MROC 242200Z 22006KT 0200 -RA FG VV001 20/20 A2995 NOSIG=
200509242300 METAR MROC 242300Z 22005KT 1200 RA BR SCT001 BKN004 20/20 A2996 NOSIG=
200509250000 METAR MROC 250000Z 22004KT 3000 RA BR FEW001 BKN005 20/20 A2998=
200509250100 METAR MROC 250100Z 20006KT 0200 -DZ FG SCT001 BKN005 20/19 A3001 NOSIG=
200509250200 METAR MROC 250200Z 23006KT 0200 -DZ FG OVC001 19/19 A3003 NOSIG=
200509250300 METAR MROC 250300Z 00000KT 0500 2000N DZ FG OVC001 20/19 A3005 NOSIG=
200509250400 METAR MROC 250400Z 00000KT 6000 2000SW -DZ BR BKN003 19/19 A3006 NOSIG=
200509250600 METAR MROC 250600Z 08003KT 7000 3000SW -DZ BR SCT001 BKN012 20/19 A3004 NOSIG=
200509250700 METAR MROC 250700Z VRB03KT 0600 -DZ FG BKN001 BKN010 19/19 A3001 BECMG 3000 BR SCT002 BKN015=
200509250800 METAR MROC 250800Z 00000KT 0800 FG BKN001 BKN010 20/19 A3000 BECMG 3000 BR SCT002 BKN015=
200509250900 METAR MROC 250900Z VRB03KT 9999 SCT003 SCT120 19/19 A2998 RMK 4000SW DUE ST BECMG 2000 BR SCT001 SCT020=
200509251000 METAR MROC 251000Z 00000KT 9999 SCT003 SCT025 19/19 A2999 RMK 2000SW DUE ST BECMG 1500 BR SCT001 BKN015=
200509251100 METAR MROC 251100Z 28003KT 0100 FG VV/// 19/19 A3002 NOSIG=
200509251200 METAR MROC 251200Z 00000KT 0500 -DZ FG OVC001 19/19 A3003 BECMG 3000 BR=
200509251220 METAR MROC 251220Z 09003KT 7000 2000SW BR SCT001 BKN005 19/19 A3003 BECMG 4000 BR=
200509251300 METAR MROC 251300Z 08003KT 9999 FEW020 SCT100 BKN280 20/20 A3004 NOSIG=
200509251400 METAR MROC 251400Z 00000KT 9999 FEW010 SCT120 BKN280 22/21 A3005 NOSIG=
200509251500 METAR MROC 251500Z 29004KT 9999 FEW020 SCT120 25/20 A3005 NOSIG=
200509251600 METAR MROC 251600Z 24008KT 9999 FEW010 SCT020TCU SCT120 24/21 A3005 NOSIG=
200509251700 METAR MROC 251700Z 23007KT 9999 SCT015 SCT280 24/21 A3002 NOSIG=
200509251800 METAR MROC 251800Z 23008KT 9999 -RA SCT012 SCT025 24/21 A3000 BECMG 5000 SHRA RMK VSBY NE 5KM DUE RN=
200509251900 METAR MROC 251900Z 23008KT 9999 4000NW BKN012 SCT015TCU 24/21 A2997 BECMG 5000 SHRA=
200509252000 METAR MROC 252000Z 22003KT 1300 TSRA BKN010 FEW015CB 20/20 A2996 NOSIG=
200509252100 METAR MROC 252100Z 28004KT 7000 VCFG FEW005 SCT020 OVC100 21/20 A2994 NOSIG=
200509252200 METAR MROC 252200Z 23006KT 9999 3000W BR FEW001 SCT020 OVC100 21/20 A2994 BECMG 1500 BR=
200509252225 METAR MROC 252225Z 32004KT 3000 RA BR SCT001 BKN010 21/20 A2999=
200509252300 METAR MROC 252300Z 21005KT 0500 FG OVC001 21/20 A2995 NOSIG=
200509252350 METAR MROC 260000Z 04004KT 0100 FG OVC001 20/20 A2998 BECMG 1200 BR=
200509260000 METAR MROC 260000Z 04004KT 0100 FG OVC001 20/20 A2998 BECMG 1200 BR=
200509260100 METAR MROC 260100Z 00000KT 3000 RA BR SCT001 BKN020 20/20 A3002 NOSIG=
200509260400 METAR MROC 260400Z 00000KT 9999 DZ FEW002 OVC100 19/18 A3003 BECMG 6000 RMK VIS S SSW 7KMS DUE FG=
200509260500 METAR MROC 260500Z 29003KT 2000 BR SCT001 BKN100 19/19 A3001 BECMG RMK VIS 7KMS SE E=
200509260600 METAR MROC 260600Z 11004KT 9999 4000SW BR FEW001 OVC120 19/18 A2997 NOSIG=
200509260700 METAR MROC 260700Z 01006KT 9999 FEW004 BKN120 19/18 A2995 NOSIG=
200509260800 METAR MROC 260800Z 22007KT 0500 FG VV /// 19/18 A2996 NOSIG=
200509260900 METAR MROC 260900Z 28004KT 0700 FG VV/// 19/19 A2997 NOSIG=
200509261000 METAR MROC 261000Z 00000KT 0700 FG VV/// 19/19 A2996 NOSIG=
200509261100 METAR MROC 261100Z 00000KT 9999 FEW001 BKN120 18/18 A2998 BECMG RMK FG VIS 4KMS TO SSW SW=
200509261200 METAR MROC 261200Z 02006KT 9999 FEW035 BKN120 19/18 A2999 BECMG RMK VIS SSW SW 7KMS DUE FG=
200509261300 METAR MROC 261300Z 00000KT 9999 FEW035 SCT120 BKN280 22/18 A2999 NOSIG=
200509261400 METAR MROC 261400Z 18004KT CAVOK 24/19 A3002 BECMG 24005KT=
200509261500 METAR MROC 261500Z 24009KT 9999 FEW025 BKN280 23/20 A3003 NOSIG=
200509261600 METAR MROC 261600Z 24007KT 9999 FEW025 SCT120 BKN250 25/19 A3003 NOSIG=
200509261700 METAR MROC 261700Z 24008KT 9999 FEW025 BKN250 25/20 A3001 NOSIG=
200509261800 METAR MROC 261800Z 24004KT 9999 FEW025 SCT120 BKN250 26/21 A2999 NOSIG=
200509261900 METAR MROC 261900Z 24010KT 9999 FEW025 BKN250 25/21 A2996 BECMG 5000=
200509262000 METAR MROC 262000Z 24012KT 9999 FEW025 SCT250 25/21 A2992 BECMG 5000=
200509262100 METAR MROC 262100Z 25012KT 9000 SCT010 SCT220 23/21 A2991=
200509262200 METAR MROC 262200Z 23008KT 9000 SCT006 SCT150 22/20 A2992=
200509262300 METAR MROC 262300Z 23006KT 9999 FEW010 SCT100 22/20 A2994=
200509270000 METAR MROC 270000Z 23005KT 8000 VCFG SCT007 SCT030 21/20 A2997=
200509270100 METAR MROC 270100Z 22005KT 9000 VCFG FEW004 SCT030 21/20 A2999=
200509270200 METAR MROC 270200Z 23004KT 9999 SCT010 OVC100 21/20 A3001=
200509270300 METAR MROC 270300Z 27003KT 5000 BR FEW002 SCT030 BKN100 21/19 A3002 BECMG RMK VSBY E SE UNL=
200509270400 METAR MROC 270400Z 25004KT 5000 BR SCT004 BKN010 21/20 A3003 NOSIG=
200509270500 METAR MROC 270500Z 26003KT 5000 DZ BR FEW002 BKN006 20/20 A3002 BECMG 3000 BR RMK VSBY E SE 7KM=
200509270600 METAR MROC 270600Z 23003KT 5000 BR BKN005 BKN100 20/20 A3000 BECMG 3000 BR=
200509270700 METAR MROC 270700Z 00000KT 5000 BR FEW002 SCT006 BKN120 20/20 A2998 NOSIG=
200509270800 METAR MROC 270800Z 06003KT 9999 FEW010 BKN120 20/20 A2995 NOSIG=
200509270900 METAR MROC 270900Z 00000KT 8000 VCFG FEW010 BKN120 21/20 A2996 NOSIG=
200509271000 METAR MROC 271000Z 00000KT 5000 BR SCT005 BKN120 20/20 A2996 BECMG 3000=
200509271100 METAR MROC 271100Z 00000KT 9999 SCT025 BKN100 20/19 A2996 NOSIG=
200509271200 METAR MROC 271200Z 00000KT 9999 FEW025 SCT120 BKN260 20/19 A2997 BECMG RMK VSBY E 6KM LOW ST=
200509271300 METAR MROC 271300Z 00000KT 9999 FEW010 BKN250 21/20 A2998=
200509271400 METAR MROC 271400Z 00000KT 9999 FEW010 SCT200 22/20 A3001=
200509271500 METAR MROC 271500Z 22004KT 9999 SCT015 SCT250 24/20 A3002=
200509271600 METAR MROC 271600Z 24006KT 9999 FEW015 SCT220 25/20 A3002=
200509271700 METAR MROC 271700Z 22007KT 9999 SCT020 SCT250 26/20 A3000=
200509271800 METAR MROC 271800Z 24009KT 9999 FEW015 SCT030TCU 25/20 A2997=
200509271900 METAR MROC 271900Z 24008KT 9999 FEW015TCU SCT030 26/22 A2994=
200509272000 METAR MROC 272000Z 23010KT 8000 VCFG SCT010 SCT150 24/21 A2992=
200509272100 METAR MROC 272100Z 24006KT 7000 3000SW RA BR FEW001 SCT010CB BKN100 22/21 A2993 BECMG TSRA=
200509272200 METAR MROC 272200Z 00000KT 7000 RA SCT010CB BKN100 21/21 A2993 BECMG 5000SW BR=
200509272300 METAR MROC 272300Z 09003KT 9999 4000SW BR FEW003 SCT025 BKN100 21/21 A2995 NOSIG=
200509280000 METAR MROC 280000Z 00000KT 9999 FEW040 SCT120 BKN250 21/20 A2996 RMK RN DST NE NOSIG=
200509280100 METAR MROC 280100Z 00000KT 9999 FEW005 BKN250 21/20 A2998 RMK 7000SW=
200509280200 METAR MROC 280200Z 00000KT 9999 FEW006 BKN250 20/20 A2999 BECMG 5000SW BR=
200509280350 METAR MROC 280350Z 00000KT 7000 VCFG FEW001 BKN025 20/19 A3000 NOSIG=
200509280400 METAR MROC 280400Z 00000KT 7000 VCFG FEW001 BKN025 20/19 A3000 NOSIG=
200509280500 METAR MROC 280500Z 02005KT 8000 VCFG FEW001 BKN035 20/19 A3000 NOSIG=
200509280600 METAR MROC 280600Z 06003KT 9999 FEW005 SCT030 BKN130 20/19 A2999 NOSIG=
200509280700 METAR MROC 280700Z 09004KT CAVOK 19/18 A2997 NOSIG=
200509280800 METAR MROC 280800Z 04004KT CAVOK 20/10 A2995=
200509280900 METAR MROC 280900Z 03006KT CAVOK 19/18 A2995 NOSIG=
200509281000 METAR MROC 281000Z 06004KT CAVOK 18/17 A2996  NOSIG=
200509281100 METAR MROC 281100Z 07006KT CAVOK 18/17 A2997 NOSIG=
200509281200 METAR MROC 281200Z 07004KT 9999 FEW025 BKN250 19/17 A2998 NOSIG=
200509281300 METAR MROC 281300Z 08003KT 9999 FEW003 SCT030 BKN250 22/19 A2999 RMK 7000SW VCFG NOSIG=
200509281400 METAR MROC 281400Z 18004KT 9999 4000SW BR FEW003 BKN025 22/19 A3002 BECMG 23006KT 3000SW BR VCSH=
200509281500 METAR MROC 281500Z 24008KT 9999 3000SW VCSH BR FEW003 BKN012 22/20 A3004 BECMG -RA=
200509281600 METAR MROC 281600Z 23005KT 9999 SCT020 BKN250 23/20 A3003 NOSIG=
200509281700 METAR MROC 281700Z 21004KT 9999 SCT025 BKN250 25/21 A3001 NOSIG=
200509281800 METAR MROC 281800Z 25007KT 9999 SCT025 BKN250 25/21 A2998 NOSIG=
200509281900 METAR MROC 281900Z 23014KT 9999 SCT025 BKN250 25/22 A2995 NOSIG=
200509282000 METAR MROC 282000Z 22010KT 8000 3500SW VCSH SCT003 BKN012 22/20 A2995 BECMG 4000 RA=
200509282100 METAR MROC 282100Z 23010KT 4000 1800NW -RA BR SCT003 BKN010 20/19 A2995 BECMG 6000 RMK VIS SE S 8KMS=
200509282200 METAR MROC 282200Z 25008KT 3000 -RA BR SCT003 BKN008 20/19 A2997 BECMG RMK VIS SE S 8KMS=
200509282300 METAR MROC 282300Z 26009KT 3000 -TSRA FEW003 SCT010 FEW015CB 19/19 A3000 BECMG 1000 BR RMK LOW ST OVER AP07=
200509290000 METAR MROC 290000Z 01008KT 9999 -RA FEW030 OVC100 19/19 A3002 BECMG RMK VIS SSW SW 8KMS TS DIST NE=
200509290100 METAR MROC 290100Z 00000KT 9999 2500SW -RA BR FEW001 OVC100 19/19 A3002 BECMG 4000 RMK LOW ST SSW SW=
200509290300 METAR MROC 290300Z 00000KT 4000SW -DZ BR FEW005 OVC100 19/19 A3004=
200509290400 METAR MROC 290400Z 00000KT 3000 1000SW FG SCT001 19/19 A3003=
200509290500 METAR MROC 290500Z 35004KT 9000 FEW010 SCT100 19/19 A3003=
200509290600 METAR MROC 290600Z 02003KT 9999 FEW005 SCT100 19/18 A3000=
200509290700 METAR MROC 290700Z 00000KT 9999 FEW015 SCT100 19/18 A2999=
200509290810 METAR MROC 290810Z 03004KT 9999 FEW020 SCT100 18/17 A2998=
200509290900 METAR MROC 290900Z 04004KT CAVOK 17/17 A2997=
200509291000 METAR MROC 291000Z 00000KT CAVOK 17/16 A2998 NOSIG=
200509291100 METAR MROC 291100Z 02005KT CAVOK 18/16 A2999 NOSIG=
200509291200 METAR MROC 291200Z 08004KT CAVOK 17/17 A3000 NOSIG=
200509291300 METAR MROC 291300Z 05003KT CAVOK 20/17 A3001 NOSIG=
200509291400 METAR MROC 291400Z 10003KT CAVOK 23/18 A3004 BECMG 24008KT=
200509291500 METAR MROC 291500Z 22006KT 9999 FEW020 BKN100 22/19 A3006 NOSIG=
200509291600 METAR MROC 291600Z 22007KT 9999 FEW020 SCT120 BKN250 23/19 A3004 NOSIG=
200509291700 METAR MROC 291700Z 24007KT 9999 SCT020 BKN120 24/20 A3003 NOSIG=
200509291800 METAR MROC 291800Z 25009KT 9999 FEW015TCU SCT025 BKN140 24/20 A2999 BECMG 7000 VCSH SCT015CB=
200509291900 METAR MROC 291900Z 25010KT 4000 RA FEW010 SCT020CB BKN120 21/20 A2997 BECMG 3000 TSRA RMK VIS SE S 7KMS PISTA MOJADA=
200509292000 METAR MROC 292000Z 23008KT 2000 RA SCT005 SCT015 BKN100 20/20 A2995 BECMG RMK LOW CLOWDS OVER AP07=
200509292100 METAR MROC 292100Z 00000KT 5000 -RA BR BKN005 SCT020 20/20 A2993 NOSIG=
200509292200 METAR MROC 292200Z 00000KT 6000 VCFG SCT005 OVC120 20/20 A2993 NOSIG=
200509292300 METAR MROC 292300Z 00000KT 6000 VCFG SCT005 OVC120 20/20 A2995 NOSIG=
200509300000 METAR MROC 300000Z 00000KT 6000 VCFG FEW006 SCT120 BKN260 20/19 A2995 BECMG RMK VSBY SE S SW UNL VSBY N 5KM DUE LOW ST=
200509300100 METAR MROC 300100Z 00000KT CAVOK 20/19 A2997 NOSIG=
200509300120 METAR MROC 300120Z 24004KT 7000 VCFG SCT001 BKN120 20/19 A2998 BECMG 2000 BR=
200509300200 METAR MROC 300200Z 26004KT 6000 VCFG FEW006 SCT030 BKN120 20/19 A2999 BECMG 2000 BR=
200509300300 METAR MROC 300300Z 00000KT 9999 4000NE BR FEW006 BKN120 20/19 A3001 BECMG 5000 BR=
200509300400 METAR MROC 300400Z 00000KT 9999 FEW003 BKN015 20/19 A3002 RMK 7000SE=
200509300500 METAR MROC 300500Z 00000KT 7000 3000SW BR SCT003 BKN012 20/19 A2999 RMK 9999 N BECMG 3000 BR=
200509300600 METAR MROC 300600Z 26004KT 3000 DZ BR SCT002 BKN006 20/19 A2998 RMK 6000 E N BECMG 1500 BR=
200509300700 METAR MROC 300700Z 23003KT 5000 BR SCT002 BKN006 19/19 A2995 RMK 4000SW DUE ST BECMG 1500 BR SCT001 BKN006=
200509300800 METAR MROC 300800Z 29003KT 7000 VCFG FEW002 SCT008 BKN015 20/19 A2993 RMK VIS 5000SW DUE ST NOSIG=
200509300900 METAR MROC 300900Z VRB03KT 7000 VCFG SCT002 BKN012 20/19 A2993 RMK 4000SW DUE ST NOSIG=
200509301000 METAR MROC 301000Z VRB03KT 7000 2000SW BR FEW001 SCT008 BKN015 20/19 A2993 BECMG 1000 FG SCT001 BKN010=
200509301100 METAR MROC 301100Z 00000KT 8000 3000SW BR FEW001 BKN110 19/19 A2994 NOSIG=
200509301200 METAR MROC 301200Z 00000KT 8000 3000NW FEW002 SCT110 20/19 A2996 NOSIG=
200509301300 METAR MROC 301300Z 00000KT 9999 4000SW BR FEW003 BKN120 21/20 A2997 RMK VSBY SE S SW LOW ST BECMG 3000 BR=
200509301400 METAR MROC 301400Z 24004KT 6000 VCFG FEW003 BKN010 21/20 A2999 NOSIG=
200509301500 METAR MROC 301500Z 27003KT 9999 BKN015 BKN130 23/20 A2999 RMK VSBY N 7KM DUE LW ST NOSIG=
200509301600 METAR MROC 301600Z 25007KT 9999 BKN015 BKN130 23/20 A2999 NOSIG=
200509301700 METAR MROC 301700Z 24008KT 9999 BKN015 SCT280 24/20 A2997 NOSIG=
200509301800 METAR MROC 301800Z 22008KT 9999 SCT020 BKN270 24/20 A2994 NOSIG=
200509301900 METAR MROC 301900Z 23012KT 9999 SCT020 BKN280 24/20 A2990 NOSIG=
200509302000 METAR MROC 302000Z 24011KT 9999 FEW015TCU SCT020 BKN280 23/20 A2988 RMK RN SE NOSIG=
200509302100 METAR MROC 302100Z 26012KT 9999 SCT015 BKN120 22/20 A2987 BECMG 7000=
200509302200 METAR MROC 302200Z 24009KT 9999 FEW010 SCT020 BKN100 21/20 A2988 BECMG 3000 BR=
200509302300 METAR MROC 302300Z 23006KT 7000 VCFG FEW005 SCT020 BKN100 21/20 A2991 NOSIG=
200510010000 METAR MROC 010000Z 23003KT 5000 BR FEW001 SCT010 BKN025 20/19 A2992 BECMG 3000 BR=
200510010100 METAR MROC 010100Z 00000KT 7000 VCFG FEW003 SCT010 BKN100 20/19 A2995 NOSIG=
200510010200 METAR MROC 010200Z 00000KT 7000 VCFG FEW002 SCT015 OVC100 20/19 A2998 NOSIG=
200510010300 METAR MROC 010300Z 00000KT 9999 -RA VCFG FEW004 SCT020 OVC100 20/19 A2999 BECMG 6000 RMK VIS SSW SW 7KMS=
200510010400 METAR MROC 010400Z 00000KT 9999 -RA VCFG FEW003 SCT025 BKN100 20/19 A3000 BECMG RMK VIS SSW SW 7KMS=
200510010500 METAR MROC 010500Z 00000KT 9999 -RA FEW025 OVC100 20/19 A2998 NOSIG=
200510010600 METAR MROC 010600Z 31003KT 9999 4000SW DZ BR SCT004 OVC120 20/19 A2995 BECMG 3000 BR=
200510010700 METAR MROC 010700Z 00000KT 1200 BR SCT001 BKN004 20/19 A2993 NOSIG=
200510010800 METAR MROC 010800Z 00000KT 3000 BR SCT002 BKN006 20/19 A2991 NOSIG=
200510010900 METAR MROC 010900Z 00000KT 4000 BR FEW002 SCT010 BKN120 20/19 A2990 NOSIG=
200510011000 METAR MROC 011000Z 00000KT 4000 BR FEW002 SCT010 BKN120 20/19 A2990 NOSIG=
200510011100 METAR MROC 011100Z 00000KT 4000 BR FEW002 SCT010 BKN120 20/19 A2991 NOSIG=
200510011200 METAR MROC 011200Z 00000KT 5000 BR FEW003 BKN018 20/19 A2994 BECMG 8000 RMK VIS E SE UNLTD=
200510011300 METAR MROC 011300Z 00000KT 9999 FEW008 BKN260 21/19 A2996 NOSIG=
200510011400 METAR MROC 011400Z 21003KT 9999 FEW015 SCT260 22/19 A2998 NOSIG=
200510011500 METAR MROC 011500Z 27006KT 9999 FEW020 23/20 A2998 NOSIG=
200510011600 METAR MROC 011600Z 22006KT 9999 FEW025 SCT250 24/20 A2998=
200510011700 METAR MROC 011700Z 23009KT 9999 FEW030 SCT250 25/20 A2996 NOSIG=
200510011800 METAR MROC 011800Z 24009KT 9999 SCT025TCU SCT250 26/21 A2994 BECMG 5000 VCSH=
200510011900 METAR MROC 011900Z 23009KT 9999 SCT025TCU SCT250 25/20 A2990 BECMG 5000 VCSH=
200510012000 METAR MROC 012000Z 24011KT 9999 SCT020TCU SCT035 24/21 A2988 NOSIG=
200510012100 METAR MROC 012100Z 23011KT 5000 BR SCT002 SCT020 22/20 A2988=
200510012200 METAR MROC 012200Z 24009KT 7000 -DZ BR SCT004 SCT025 21/19 A2990=
200510012300 METAR MROC 012300Z 21003KT 4000SW -RA BR SCT003 SCT020 20/20 A2991=
200510020000 METAR MROC 020000Z 29004KT 6000 -RA BR FEW004 SCT015 OVC100 20/20 A2994=
200510020100 METAR MROC 020100Z 00000KT 8000 DZ BR SCT006 OVC100 20/20 A2996=
200510020200 METAR MROC 020200Z 00000KT 8000 -DZ BR FEW003 SCT015 OVC100 20/20 A2996=
200510020300 METAR MROC 020300Z 32003KT 3000 BR SCT001 SCT008 BKN120 20/20 A2996 NOSIG=
200510020400 METAR MROC 020400Z 00000KT 0800 FG SCT001 SCT006 20/20 A2996 NOSIG=
200510020500 METAR MROC 020500Z 23003KT 2500 BR FEW001 SCT008 BKN100 20/20 A2999 NOSIG=
200510020600 METAR MROC 020600Z 33003KT 6000 VCFG SCT006 SCT100 20/20 A2998 NOSIG=
200510020700 METAR MROC 020700Z 00000KT 6000 VCFG FEW006 SCT030 BKN100 20/19 A2996 NOSIG=
200510020800 METAR MROC 020800Z 00000KT 6000 VCFG FEW005 SCT030 20/19 A2994 NOSIG=
200510020900 METAR MROC 020900Z 00000KT 5000 BR FEW001 SCT005 BKN030 19/19 A2992 NOSIG=
200510021000 METAR MROC 021000Z 00000KT 5000 BR FEW005 SCT030 BKN100 19/19 A2993 NOSIG=
200510021100 METAR MROC 021100Z 02004KT 9999 4000W BR FEW005 SCT030 BKN120 19/19 A2994 NOSIG=
200510021200 METAR MROC 021200Z 00000KT 9999 SCT025 SCT100 19/19 A2995 NOSIG=
200510021300 METAR MROC 021300Z 06004KT 9999 FEW010 SCT180 21/19 A2996 RMK BR ARND=
200510021400 METAR MROC 021400Z 21003KT 9000 FEW010 SCT200 24/20 A2998 RMK BR ARND=
200510021500 METAR MROC 021500Z 22004KT 9000 SCT010 SCT250 24/20 A3000=
200510021600 METAR MROC 021600Z 22004KT 9999 SCT020 SCT250 24/20 A2999=
200510021700 METAR MROC 021700Z 24008KT 9999 SCT020 SCT250 24/21 A2997=
200510021800 METAR MROC 021800Z 24012KT 9999 FEW015TCU SCT035 24/21 A2994=
200510021900 METAR MROC 021900Z 23012KT 2000 RA BR SCT002 SCT015CB 21/20 A2993=
200510022000 METAR MROC 022000Z 21005KT 2500 RA BR SCT002 SCT015 20/19 A2992=
200510022100 METAR MROC 022100Z 28005KT 4000 1500NW RA BR FEW003 BKN025 20/19 A2992 BECMG 3000 RA BR=
200510022200 METAR MROC 022200Z 24009KT 1500 RA BR SCT003 BKN010 20/19 A2993 NOSIG=
200510022300 METAR MROC 022300Z 27006KT 2000 RA BR SCT003 BKN010 20/19 A2995 NOSIG=
200510030000 METAR MROC 030000Z 28007KT 1500 RA OVC007 19/19 A2998 BECMG 3000 RA=
200510030100 METAR MROC 030100Z 00000KT 4000 RA SCT007 BKN090 19/19 A3000 RMK 7000E NOSIG=
200510030200 METAR MROC 030200Z 00000KT 4000 RA FEW008 BKN090 19/19 A3002 RMK 7000E NOSIG=
200510030300 METAR MROC 030300Z 07003KT 9999 -RA OVC100 19/19 A3002 NOSIG=
200510030400 METAR MROC 030400Z 04003KT CAVOK 19/18 A3001 NOSIG=
200510030500 METAR MROC 030500Z 08004KT CAVOK 18/18 A2998 NOSIG=
200510030600 METAR MROC 030600Z 00000KT CAVOK 19/18 A2999 NOSIG=
200510030700 METAR MROC 030700Z 00000KT CAVOK 19/18 A2997 NOSIG=
200510030800 METAR MROC 030800Z 11004KT CAVOK 19/18 A2995 NOSIG=
200510030900 METAR MROC 030900Z 00000KT CAVOK 18/18 A2995 NOSIG=
200510031000 METAR MROC 031000Z 00000KT CAVOK 18/18 A2996  NOSIG=
200510031100 METAR MROC 031100Z 07003KT CAVOK 18/18 A2996 NOSIG=
200510031200 METAR MROC 031200Z 05006KT CAVOK 18/18 A2995 NOSIG=
200510031300 METAR MROC 031300Z 00000KT 9999 FEW002 BKN120 21/19 A2998 RMK 7000SW=
200510031400 METAR MROC 031400Z 00000KT 9999 FEW002 BKN120 22/19 A3000 RMK 7000SW=
200510031500 METAR MROC 031500Z 00000KT 9999 FEW025 BKN120 25/19 A3000 BECMG 24006KT=
200510031600 METAR MROC 031600Z 23004KT 9999 FEW030 BKN120 25/20 A2999 NOSIG=
200510031700 METAR MROC 031700Z 24009KT 9999 SCT030 SCT120 25/21 A2996 NOSIG=
200510031800 METAR MROC 031800Z 23011KT 9999 FEW015TCU SCT025 25/21 A2994 RMK 7000NE=
200510031900 METAR MROC 031900Z 29009KT 2000 -RA SCT015CB BKN025 21/20 A2993 BECMG 1000 TSRA=
200510032000 METAR MROC 032000Z 24010KT 5000 VCSH BR SCT015CB BKN025 21/20 A2991 BECMG 3000 -TSRA=
200510032100 METAR MROC 032100Z 23010KT 4000 2000N BR FEW001 SCT004 BKN015 21/20 A2990 BECMG 2000 RMK VIS E SE UNLTD=
200510032200 METAR MROC 032200Z 25009KT 0500 FG VV/// 20/20 A2990 NOSIG=
200510032300 METAR MROC 032300Z 23011KT 0200 DZ FG VV/// 19/19 A2990 NOSIG=
200510040000 METAR MROC 040000Z 23008KT 0600 DZ FG VV/// 19/19 A2993 NOSIG=
200510040100 METAR MROC 040100Z 23007KT 3000 -RA BR FEW001 SCT005 BKN020 19/19 A2995 NOSIG=
200510040200 METAR MROC 040200Z 24004KT 4000 1500SW RA BR FEW001 SCT010 OVC100 19/19 A2996=
200510040300 METAR MROC 040300Z 22003KT 6000 2000SW RA BR FEW002 SCT015 OVC100 19/19 A2999=
200510040400 METAR MROC 040400Z 27004KT 6000 2000SW RA BR SCT003 OVC100 19/19 A3001=
200510040500 METAR MROC 040500Z 03005KT 6000SW -RA BR SCT010 OVC100 19/19 A3000=
200510040600 METAR MROC 040600Z 11003KT 8000 -RA FEW015 OVC100 19/18 A2997=
200510040700 METAR MROC 040700Z 06006KT 9999 FEW015 SCT100 19/18 A2994 RERA=
200510040800 METAR MROC 040800Z 06006KT 9000 DZ FEW015 SCT090 19/18 A2992=
200510040900 METAR MROC 040900Z 12003KT 7000 -DZ BR FEW003 SCT150 19/18 A2991=
200510041000 METAR MROC 041000Z 00000KT 1500SW BR SCT003 SCT100 19/18 A2991=
200510041100 METAR MROC 041100Z 17004KT 0300 FG VV/// 19/18 A2992=
200510041200 METAR MROC 041200Z 01004KT 6000 BR FEW005 SCT100 19/18 A2995=
200510041300 METAR MROC 041300Z 00000KT 9999 FEW003 SCT020 BKN120 20/20 A2997 BECMG RMK VIS S SW 7KMS/FG=
200510041400 METAR MROC 041400Z 21003KT 9999 FEW010 SCT020 BKN120 22/19 A2999 BECMG RMK LOW CLOWDS TO S SW=
200510041500 METAR MROC 041500Z 00000KT 9999 FEW015 SCT120 BKN250 23/19 A3000 BECMG RMK LOW CLOWDS S SW=
200510041600 METAR MROC 041600Z 22004KT 9999 FEW020 SCT120 BKN250 25/20 A2999 NOSIG=
200510041700 METAR MROC 041700Z 25006KT 9999 FEW025 SCT140 BKN250 26/20 A2996 BECMG 7000 VCSH=
200510041800 METAR MROC 041800Z 24010KT 9999 FEW025 BKN250 25/21 A2995 NOSIG=
200510041900 METAR MROC 041900Z 24011KT 9999 FEW012 SCT025 BKN250 24/21 A2992 BECMG RMK RN DST SW=
200510042000 METAR MROC 042000Z 24010KT 7000 3000SW BR FEW001 SCT005 BKN020 21/20 A2991 BECMG 1500 RA BR RMK VIS E SE UNL=
200510042200 METAR MROC 042200Z 25010KT 0400 -DZ FG VV001 20/19 A2990 NOSIG=
200510042300 METAR MROC 042300Z 25006KT 0300 FG VV001 19/19 A2992 NOSIG=
200510050000 METAR MROC 050000Z 23004KT 1300 BR SCT001 BKN005 19/19 A2994 RMK VSBY SW W 1000 BECMG 1500 BR=
200510050100 METAR MROC 050100Z 24004KT 1500 -RA BR SCT001 BKN006 19/19 A2996 BECMG 1000 BR=
200510050200 METAR MROC 050200Z 24003KT 2500 -DZ BR FEW001 SCT005 OVC100 19/19 A2997 NOSIG=
200510050300 METAR MROC 050300Z 25004KT 2000 0800SW +DZ FG BKN002 BKN090 19/19 A2998 NOSIG=
200510050400 METAR MROC 050400Z 26004KT 1200 +DZ BR SCT001 BKN005 19/19 A2998 NOSIG=
200510050500 METAR MROC 050500Z 24003KT 0800 DZ FG BKN001 SCT005 19/19 A2997 RMK 2000E N NOSIG=
200510050600 METAR MROC 050600Z 25003KT 3000 -DZ BR FEW001 SCT004 BKN120 19/19 A2996 NOSIG=
200510050700 METAR MROC 050700Z VRB03KT 0800 -DZ FG SCT001 BKN010 19/19 A2994 RMK 3000N DUE ST NOSIG=
200510050800 METAR MROC 050800Z 20005KT 0800 DZ FG FEW001 BKN010 19/19 A2993 NOSIG=
200510050900 METAR MROC 050900Z VRB03KT 3000 BR SCT001 BKN012 19/18 A2993 RMK VIS 1500SW DUE ST BECMG 5000 FEW001 BKN015=
200510051000 METAR MROC 051000Z 22003KT 0100 FG VV/// 19/18 A2994 NOSIG=
200510051100 METAR MROC 051100Z 18004KT 0100 FG VV/// 19/18 A2996 BECMG 2000 BR SCT002 BKN015=
200510051200 METAR MROC 051200Z 00000KT 0100 FG VV/// 19/19 A2997 BECMG 2000 BR=
200510051300 METAR MROC 051300Z 00000KT 1300 0600SW -DZ BR SCT001 SCT006 19/19 A2999 BECMG 1500 BR=
200510051400 METAR MROC 051400Z 00000KT 6000 VCFG BKN007 SCT020 20/19 A3001 NOSIG=
200510051500 METAR MROC 051500Z 00000KT 9999 SCT015 BKN250 23/19 A3001 BECMG 24008=
200510051600 METAR MROC 051600Z 20003KT 9999 FEW015TCU BKN020 24/20 A3001 BECMG 5000 VCSH=
200510051700 METAR MROC 051700Z 25006KT 9999 SCT025 SCT280 25/20 A2998 NOSIG=
200510051800 METAR MROC 051800Z 23010KT 9999 SCT020 25/21 A2996 NOSIG=
200510051900 METAR MROC 051900Z 23009KT 9999 SCT025 25/21 A2994 NOSIG=
200510052000 METAR MROC 052000Z 23011KT 9999 SCT020 SCT280 25/20 A2992 NOSIG=
200510052100 METAR MROC 052100Z 24010KT 9999 SCT020TCU SCT270 24/20 A2991=
200510052200 METAR MROC 052200Z 24008KT 9000 SCT010 BKN015 22/20 A2992 BECMG RMK 6000 SW=
200510052300 METAR MROC 052300Z 22008KT 7000 VCFG SCT005 BKN010 21/20 A2993 BECMG 5000 BR=
200510060000 METAR MROC 060000Z 21005KT 6000 VCFG SCT005 BKN010 21/20 A2995 BECMG 5000 BR=
200510060100 METAR MROC 060100Z 22006KT 1500 -DZ BR SCT003 BKN010 20/20 A2997 BECMG 2000 -DZ BR=
200510060200 METAR MROC 060200Z 23003KT 1000 -DZ BR SCT002 BKN010 20/20 A2999 BECMG 1500 -DZ BR=
200510060235 METAR MROC 060235Z 00000KT 0300 FG VV/// 20/20 A3000 NOSIG=
200510060300 METAR MROC 060300Z 00000KT 0200 -DZ FG VV/// 20/20 A3000 NOSIG=
200510060400 METAR MROC 060400Z 23005KT 0100 VV/// 20/20 A3000 NOSIG=
200510060500 METAR MROC 060500Z 25004KT 0100 FG VV/// 20/20 A3000 NOSIG=
200510060600 METAR MROC 060600Z 26003KT 0100 FG VV/// 20/19 A2999 NOSIG=
200510060700 METAR MROC 060700Z 00000KT 0100 FG VV/// 20/19 A2998 NOSIG=
200510060800 METAR MROC 060800Z 00000KT 0400 FG VV/// 20/19 A2996 NOSIG=
200510060900 METAR MROC 090600Z 24003KT 0100 FG VV/// 19/19 A2996 NOSIG=
200510061000 METAR MROC 061000Z 24003KT 0100 FG VV/// 19/19 A2997 NOSIG=
200510061100 METAR MROC 061100Z 22003KT 0100 FG VV/// 19/19 A2998 BECMG 3000=
200510061200 METAR MROC 061200Z 22003KT 0100 FG VV/// 19/19 A3000 NOSIG=
200510061300 METAR MROC 061300Z 00000KT 0100 FG VV/// 19/19 A3002 NOSIG=
200510061400 METAR MROC 061400Z 24004KT 1000 BR OVC001 19/19 A3004 NOSIG=
200510061500 METAR MROC 061500Z 08003KT 6000 VCFG SCT009 BKN015 21/20 A3005 BECMG 9999=
200510061600 METAR MROC 061600Z 24003KT 9999 SCT010 SCT020 24/20 A3005 NOSIG=
200510061700 METAR MROC 061700Z 24010KT 9999 SCT015 SCT020 23/20 A3003 NOSIG=
200510061800 METAR MROC 061800Z 23008KT 9999 SCT010 SCT020 24/21 A3001 NOSIG=
200510061900 METAR MROC 061900Z 22008KT 9999 SCT010 SCT020 24/21 A2998 NOSIG=
200510062000 METAR MROC 062000Z 23010KT 9999 SCT010 SCT020 24/21 A2996 NOSIG=
200510062100 METAR MROC 062100Z 24011KT 7000 VCFG SCT006 SCT025 22/21 A2995 RMK VIS RED SW=
200510062200 METAR MROC 062200Z 23006KT 7000 1500SW BR SCT001 SCT010 21/21 A2994=
200510062300 METAR MROC 062300Z 22004KT 1000 FG DZ SCT001 SCT010 20/20 A2996=
200510070000 METAR MROC 070000Z 21004KT 0100 FG VV/// 20/20 A2996=
200510070100 METAR MROC 070100Z 21006KT 0100 FG VV/// 20/20 A2999=
200510070200 METAR MROC 070200Z 23007KT 0100 FG VV/// 20/20 A3000=
200510070300 METAR MROC 070300Z 23008KT 0100 FG VV/// 20/19 A3002 NOSIG=
200510070400 METAR MROC 070400Z 23005KT 1200 BR SCT001 BKN005 19/19 A3003 BECMG 1000 BR=
200510070500 METAR MROC 070500Z 22003KT 2000 BR FEW001 BKN005 19/19 A3001 BECMG 1000 BR=
200510070600 METAR MROC 070600Z 00000KT 3000 -DZ BR SCT001 BKN005 19/19 A2999 BECMG 1000 BR=
200510070700 METAR MROC 070700Z 00000KT 4000 BR FEW001 BKN007 19/19 A2996 BECMG 1000 BR=
200510070800 METAR MROC 070800Z 00000KT 4000 BR FEW001 SCT008 19/19 A2996 BECMG 1000 BR=
200510070900 METAR MROC 070900Z 00000KT 2000 BR SCT001 SCT006 19/19 A2996 BECMG 1000 BR=
200510071000 METAR MROC 071000Z 00000KT 1500 BR FEW002 BKN006 19/19 A2997 BECMG 1000 BR=
200510071100 METAR MROC 071100Z 28003KT 5000 1500SW BR FEW001 SCT005 BKN120 19/19 A2997 BECMG 1000 BR=
200510071200 METAR MROC 071200Z 00000KT 2000 -DZ BR FEW001 BKN005 19/19 A2999 BECMG 1000 BR=
200510071300 METAR MROC 071300Z 00000KT 2000 BR FEW003 SCT010 BKN025 19/19 A3001 BECMG 6000 FEW010 SCT025 BKN100=
200510071400 METAR MROC 071400Z 27003KT 4000 BR SCT003 SCT020 20/19 A3003=
200510071500 METAR MROC 071500Z 00000KT 5000 BR SCT003 SCT020 22/19 A3004=
200510071600 METAR MROC 071600Z 22003KT 8000 VCFG SCT015 SCT030 22/19 A3003=
200510071700 METAR MROC 071700Z 25004KT 8000 VCFG SCT015 SCT030 23/19 A3002=
200510071800 METAR MROC 071800Z 23007KT 9999 SCT010 SCT040 23/20 A3000 RMK BR ARND=
200510071900 METAR MROC 071900Z 27008KT 9999 SCT010TCU SCT050 24/20 A2998=
200510072000 METAR MROC 072000Z 26007KT 9999 SCT015TCU SCT090 24/20 A2995=
200510072100 METAR MROC 072100Z 21004KT 9999 FEW015TCU SCT025 BKN090 24/21 A2993 RMK 7000E VCSH BECMG 7000 VCSH=
200510072200 METAR MROC 072200Z 22006KT 8000 SCT015 BKN090 22/20 A2993 RMK 6000E=
200510072300 METAR MROC 072300Z 22004KT 6000 2000NW DZ BR SCT003 BKN015 21/20 A2995 BECMG 2000 DZ BR=
200510080000 METAR MROC 080000Z 23008KT 2000 0500SW -RA BR SCT001 SCT010 20/20 A2998 BECMG 1000 RA BR=
200510080100 METAR MROC 080100Z 23006KT 0100 FG VV/// 20/20 A3001 NOSIG=
200510080200 METAR MROC 080200Z 22005KT 1200 BR SCT001 BKN005 20/20 A3002 NOSIG=
200510080300 METAR MROC 030800Z 18003KT 1200SW 5000SE SCT001 BKN004 20/19 A3004 BECMG 5000=
200510080400 METAR MROC 080400Z 22004KT 1000 BR VV/// 20/20 A3004 NOSIG=
200510080500 METAR MROC 080500Z 21007KT 1200 DZ BR BKN003 19/19 A3003 NOSIG=
200510080600 METAR MROC 080600Z 19003KT 1000 BR OVC001 19/19 A3003 NOSIG=
200510080700 METAR MROC 080700Z 27003KT 1000 BR OVC001 19/10 A3001 NOSIG=
200510080800 METAR MROC 080800Z VRB03KT 1500 BR OVC004 19/19 A2998 BECMG 2000 BR=
200510080900 METAR MROC 080900Z VRB03KT 1500 BR OVC004 19/19 A2997 BECMG 2000=
200510081000 METAR MROC 081000Z 01005KT 5000 BR SCT008 19/18 A2998 BECMG 7000=
200510081100 METAR MROC 081100Z 29003KT 4000 BR FEW003 SCT012 19/18 A3001 NOSIG=
200510081200 METAR MROC 081200Z 00000KT 7000 VCFG FEW004 BKN100 19/19 A3003 BECMG 1500 BR=
200510081300 METAR MROC 081300Z 00000KT 9999 3000SW BR SCT002 BKN100 19/19 A3004 NOSIG=
200510081400 METAR MROC 081400Z 12003KT 9999 FEW006 BKN120 21/20 A3006 RMK 7000 NW NE VCFG NOSIG=
200510081500 METAR MROC 081500Z 00000KT 9999 SCT025 BKN250 24/20 A3007 BECMG 24006KT=
200510081600 METAR MROC 081600Z 21006KT 9999 SCT025 BKN250 24/20 A3006 NOSIG=
200510081700 METAR MROC 081700Z 22007KT 9999 FEW025 BKN250 25/21 A3004 NOSIG=
200510081800 METAR MROC 081800Z 20005KT 9999 SCT030 BKN250 26/20 A3002 NOSIG=
200510081900 METAR MROC 081900Z 22010KT 9999 FEW015TCU SCT025 BKN250 25/19 A2999 RMK RN DST SSW BECMG 5000SW VCSH=
200510082000 METAR MROC 082000Z 23008KT 3000 -RA FEW010CB SCT015 BKN100 22/21 A2998 BECMG TSRA=
200510082100 METAR MROC 082100Z 25007KT 7000 -DZ VCSH FEW005 FEW015CB BKN030 21/20 A2998 BECMG RMK VIS N NW 5KMS=
200510082200 METAR MROC 082200Z 23007KT 3000 -RA BR SCT005 BKN010 20/20 A2999 BECMG 1000=
200510082300 METAR MROC 082300Z 23008KT 2000 -RA BR FEW001 SCT010 BKN100 20/19 A3001 BECMG RMK CONDICOINES VARIABLES=
200510090000 METAR MROC 090000Z 24007KT 3000 -RA BR SCT002 SCT006 BKN100 19/19 A3004 BECMG 5000=
200510090100 METAR MROC 090100Z 00000KT 3000 RA BR FEW001 SCT006 OVC100 19/19 A3006=
200510090200 METAR MROC 090200Z 00000KT 3000 -RA BR FEW001 SCT005 OVC100 19/19 A3008=
200510090300 METAR MROC 090300Z 24004KT 3000 DZ BR FEW001 SCT005 OVC100 19/19 A3009=
200510090400 METAR MROC 090400Z 00000KT 4000 DZ BR SCT002 OVC100 19/19 A3008 RMK VIS RED SW=
200510090500 METAR MROC 090500Z 00000KT 5000 BR FEW001 SCT010 BKN100 19/19 A3007 RMK VIS RED SW=
200510090600 METAR MROC 090600Z 00000KT 7000 VCFG SCT010 SCT100 19/19 A3005=
200510090900 METAR MROC 090900Z 00000KT 3000SW BR FEW001 SCT010 SCT100 19/19 A3001=
200510091000 METAR MROC 091000Z 00000KT 2000 BR FEW001 SCT006 SCT020 19/19 A3000=
200510091100 METAR MROC 091100Z 09003KT 9999 FEW010 SCT020 SCT100 19/19 A3002=
200510091200 METAR MROC 091200Z 00000KT 9000 SCT015 OVC150 19/19 A3004=
200510091300 METAR MROC 091300Z 08003KT 9999 FEW004 BKN120 20/19 A3006 NOSIG=
200510091400 METAR MROC 091400Z 00000KT 9999 FEW008 OVC120 22/20 A3008 BECMG 24006KT=
200510091500 METAR MROC 091500Z 00000KT 9999 SCT015 BKN140 23/19 A3008 NOSIG=
200510091600 METAR MROC 091600Z 25004KT 9999 SCT020 BKN250 24/20 A3007 NOSIG=
200510091700 METAR MROC 091700Z 25008KT 9999 SCT020 BKN250 24/21 A3006 BECMG 7000=
200510091800 METAR MROC 091800Z 23007KT 9999 FEW020 BKN030 24/20 A3004 NOSIG=
200510091900 METAR MROC 091900Z 22006KT 9999 FEW030 BKN250 25/20 A3000 BECMG RMK CB DIST SSW=
200510092000 METAR MROC 092000Z 25010KT 9999 FEW015TCU BKN025 24/21 A2998 BECMG 5000 RA SCT015CB=
200510092100 METAR MROC 092100Z 24010KT 9999 3000N -RA BR FEW002 BKN006 21/20 A2988 BECMG 3000 BR=
200510092200 METAR MROC 092200Z 24011KT 0800 -RA FG SCT001 BKN005 20/20 A2999 NOSIG=
200510092300 METAR MROC 092300Z 23007KT 1300 RA BR SCT002 BKN005 20/19 A3000 NOSIG=
200510100000 METAR MROC 100000Z 00000KT 5000 RA BR FEW002 SCT006 BKN030 20/19 A3004 NOSIG=
200510100100 METAR MROC 100100Z 24004KT 6000 TSRA FEW002 BKN006 FEW015CB 20/20 A3007 NOSIG=
200510100200 METAR MROC 100200Z 00000KT 9999 -RA FEW003 SCT035 BKN120 20/19 A3008 NOSIG=
200510100300 METAR MROC 100300Z 00000KT 9999 -RA FEW003 SCT020 BKN100 19/19 A3009 RMK 5000SW -RA BR NOSIG=
200510100400 METAR MROC 100400Z 00000KT 9999 -DZ FEW005 BKN025 20/19 A3010 RMK 5000SW BR NOSIG=
200510100500 METAR MROC 100500Z 00000KT 7000 3000SW -DZ BR SCT002 BKN025 20/19 A3008 BECMG 2000 BR=
200510100600 METAR MROC 100600Z 00000KT 1500 DZ BR SCT001 BKN005 19/19 A3005 BECMG 3000 -RA BR=
200510100700 METAR MROC 100700Z 00000KT 7000 VCFG FEW002 BKN020 19/19 A3003 RMK 4000 E DUE ST BECMG 9999 SCT020 SCT120=
200510100800 METAR MROC 100800Z VRB03KT 9999 -DZ FEW002 SCT020 BKN030 19/19 A3001 RMK VIS 7000 SW DUE ST NOSIG=
200510100900 METAR MROC 100900Z VRB03KT 7000 -DZ SCT020 BKN030 19/19 A3000 RMK VIS 4000 SW RN ARND BECMG 3000 -RABR FEW002 BKN020=
200510101000 METAR MROC 101000Z VRB03KT 7000 2000SW DZ BR FEW003 BKN015 19/19 A3000 BECMG 2000 -DZRA BR FEW004 BKN020=
200510101100 METAR MROC 101100Z VRB03KT 8000 FEW003 SCT015 BKN030 20/19 A3001 RMK VIS 6000 SW DUE ST NOSIG=
200510101200 METAR MROC 101200Z 00000KT 7000 3000N BR FEW006 BKN030 20/19 A3003 BECMG 9999=
200510101300 METAR MROC 101300Z VRB03KT 9999 FEW010 SCT030 BKN120 20/19 A3005 RMK VSBY NW 6KM DUE LOS ST NOSIG=
200510101400 METAR MROC 101400Z 28004KT 6000 VCFG FEW003 SCT008 BKN120 21/20 A3006 BECMG RMK VSBY E SE UNL=
200510101500 METAR MROC 101500Z 00000KT 9999 BKN012 SCT120 22/20 A3007 NOSIG=
200510101600 METAR MROC 101600Z 26007KT 9999 BKN015 SCT120 24/20 A3006 NOSIG=
200510101700 METAR MROC 101700Z 24006KT 9999 BKN020 25/20 A3004 NOSIG=
200510101800 METAR MROC 101800Z 27007KT 9999 BKN020 25/20 A3001 NOSIG=
200510101900 METAR MROC 101900Z 24008KT 9999 BKN020 25/20 A2997 BECMG RMK RN SE S=
200510102000 METAR MROC 102000Z 20007KT 9999 BKN020 SCT120 23/21 A2996 RMK VSBY S 5KM DUE RN RN ARND=
200510102100 METAR MROC 102100Z 23010KT 4000SW BR SCT005 SCT015 OVC100 21/20 A2995=
200510102200 METAR MROC 102200Z 25006KT 5000 BR SCT006 SCT015 OVC100 21/20 A2995 BECMG 3000 BR=
200510102300 METAR MROC 102300Z 28005KT 2000 BR SCT004 SCT010 OVC100 20/20 A2997 BECMG 1000 BR=
200510110000 METAR MROC 110000Z 30004KT 4000 RA BR FEW005 SCT010 OVC100 20/20 A2999 NOSIG=
200510110100 METAR MROC 110100Z 22004KT 3000 -RA BR FEW005 SCT010 OVC100 20/20 A3002 NOSIG=
200510110200 METAR MROC 110200Z 00000KT 3000 -DZ BR FEW005 SCT010 OVC100 20/20 A3001 NOSIG=
200510110300 METAR MROC 110300Z 00000KT 5000 BR FEW002 SCT010 BKN120 20/20 A3003 BECMG 7000 RMK VIS 3KMS SSW DUE LOW CLOWDS=
200510110400 METAR MROC 110400Z 24003KT 2000 -RA BR SCT002 BKN010 20/19 A3003 NOSIG=
200510110500 METAR MROC 110500Z 23003KT 0800 FG BKN001 SCT004 20/19 A3001 BECMG 0500 RMK VIS S/SE 4KMS=
200510110600 METAR MROC 110600Z 28004KT 4000 1500N -RADZ BR SCT001 SCT005 BKN100 20/20 A2999 BECMG RMK VIS SE S UNLTD=
200510110700 METAR MROC 110700Z 25004KT 5000 /RA BR SCT005 OVC100 20/19 A2996 NOSIG=
200510110800 METAR MROC 110800Z 28004KT 7000 -RA VCFG FEW003 SCT010 BKN100 19/19 A2995 NOSIG=
200510110900 METAR MROC 110900Z 26003KT 4000 -RA BR SCT003 SCT007 BKN100 19/19 A2995 BECMG RMK CONDICIONES VARIABLES=
200510111000 METAR MROC 111000Z 26003KT 0700 -DZ FG VV/// 20/19 A2995 NOSIG=
200510111100 METAR MROC 111100Z 25009KT 9999 FEW004 OVC120 19/19 A2996 NOSIG=
200510111200 METAR MROC 111200Z 00000KT 9999 4000N BR FEW001 SCT010 BKN080 19/19 A2997 NOSIG=
200510111300 METAR MROC 111300Z 00000KT 9999 FEW010 BKN080 19/19 A3000 NOSIG=
200510111400 METAR MROC 111400Z 17003KT 9999 4000W -RA FEW015 BKN070 22/19 A3001 NOSIG=
200510111500 METAR MROC 111500Z 00000KT 3000 -RA SCT006 SCT012 OVC080 20/19 A3003 NOSIG=
200510111600 METAR MROC 111600Z 22007KT 3000 -RA BR SCT005 SCT012 OVC080 20/19 A3003 BECMG 5000 BR=
200510111700 METAR MROC 111700Z 23007KT 9999 BKN015 24/21 A3003 NOSIG=
200510111800 METAR MROC 111800Z 25011KT 9999 4000E VCSH SCT008 SCT015 BKN100 21/20 A2998 BECMG 3000 BR=
200510111900 METAR MROC 111900Z 26008KT 7000 VCSH FEW007 SCT015 BKN100 21/19 A2996 BECMG 3000 BR=
200510112000 METAR MROC 112000Z 27010KT 8000 FEW007 SCT015 BKN100 22/18 A2994 NOSIG=
200510112100 METAR MROC 112100Z 29007KT 3000 DZ BR FEW002 SCT006 SCT020 20/19 A2994=
200510112200 METAR MROC 112200Z 00000KT 9999 SCT010 BKN090 19/18 A2995 RMK RN N NE DST=
200510112300 METAR MROC 112300Z 00000KT 9999 SCT020 BKN100 19/18 A2996=
200510120000 METAR MROC 120000Z 00000KT 9999 SCT025 BKN150 19/18 A2997=
200510120100 METAR MROC 120100Z 00000KT 9999 FEW025 BKN100 19/18 A2999=
200510120200 METAR MROC 120200Z 10003KT 9999 FEW030 SCT150 19/18 A3001=
200510120300 METAR MROC 120300Z 06004KT CAVOK 19/18 A3002 NOSIG=
200510120400 METAR MROC 120400Z 06003KT CAVOK 18/17 A3002 NOSIG=
200510120500 METAR MROC 120500Z 06004KT CAVOK 18/17 A3001 NOSIG=
200510120600 METAR MROC 120600Z 02003KT CAVOK 19/18 A2997 NOSIG=
200510120700 METAR MROC 120700Z 27003KT 9999 SCT025 BKN120 18/17 A2997 NOSIG=
200510120800 METAR MROC 120800Z 00000KT 9999 SCT025 BKN120 18/18 A2995 NOSIG=
200510120900 METAR MROC 120900Z 06004KT 9999 DZ SCT020 BKN120 18/18 A2993 NOSIG=
200510121000 METAR MROC 121000Z 09003KT 9999 DZ SCT020 BKN100 18/18 A2993 NOSIG=
200510121100 METAR MROC 121100Z VRB03KT 9999 FEW001 BKN100 18/18 A2994 NOSIG=
200510121200 METAR MROC 121200Z 00000KT 6000 DZ FEW010 BKN030 19/18 A2996 RMK VSBY E SE UNL NOSIG=
200510121300 METAR MROC 121300Z 32003KT 9999 FEW005 SCT025 BKN150 20/19 A2998=
200510121400 METAR MROC 121400Z 26003KT 9999 SCT010 SCT090 22/19 A3000=
200510121500 METAR MROC 121500Z 23005KT 9000 SCT008 SCT070 22/19 A3000=
200510121600 METAR MROC 121600Z 20007KT 6000 DZ BR FEW003 SCT010 SCT060 21/20 A3000=
200510121700 METAR MROC 121700Z 22006KT 9999 SCT010 BKN150 23/20 A2998=
200510121800 METAR MROC 121800Z 25007KT 4000 DZ BR FEW003 SCT010 SCT070 22/20 A2995 RMK VIS RED SW=
200510121900 METAR MROC 121900Z 28008KT 6000 VCSH SCT007 SCT060 23/20 A2992=
200510122000 METAR MROC 122000Z 24008KT 9999 3000SW DZ BR FEW003 SCT010 SCT060 20/20 A2991=
200510122100 METAR MROC 122100Z 24010KT 5000 2000SW RA BR SCT001 BKN010 20/19 A2991 BECMG 3000 RA BR=
200510122200 METAR MROC 122200Z 22003KT 7000 3000SW -RA BR FEW005 SCT025 BKN100 20/19 A2993 NOSIG=
200510122300 METAR MROC 122300Z 23006KT 4000 -RA BR SCT003 BKN010 19/19 A2994 BECMG 1500 -RA BR=
200510130000 METAR MROC 130000Z 24007KT 4000 1200SW +DZ BR BKN003 SCT090 19/19 A2996 NOSIG=
200510130100 METAR MROC 130100Z 27003KT 3000 DZ BR SCT002 SCT008 19/19 A2999 NOSIG=
200510130200 METAR MROC 130200Z 28005KT 9999 -DZ FEW012 BKN090 19/19 A3000 NOSIG=
200510130300 METAR MROC 130300Z 32003KT 9999 FEW012 BKN100 19/19 A3001 NOSIG=
200510130400 METAR MROC 130400Z 00000KT 9999 SCT012 BKN100 19/19 A3001 NOSIG=
200510130500 METAR MROC 130500Z 00000KT 9999 SCT020 BKN100 19/18 A2999 NOSIG=
200510130600 METAR MROC 130600Z 00000KT 9999 SCT020 BKN100 19/18 A2997 NOSIG=
200510130700 METAR MROC 130700Z 00000KT 9999 FEW025 BKN100 19/19 A2995 NOSIG=
200510130800 METAR MROC 130800Z 00000KT 9999 FEW030 OVC100 19/18 A2993 NOSIG=
200510130900 METAR MROC 130900Z 23004KT 9999 FEW030 BKN100 19/18 A2991 NOSIG=
200510131000 METAR MROC 131000Z 00000KT 9999 -RA FEW030 BKN100 21/18 A2993 NOSIG=
200510131100 METAR MROC 131100Z 330004KT 9999 FEW030 BKN120 19/18 A2993 RERA NOSIG=
200510131200 METAR MROC 131200Z 00000KT 9999 FEW010 SCT035 BKN100 19/18 A2994 NOSIG=
200510131300 METAR MROC 131300Z 00000KT 9999 BKN030 SCT090 19/19 A2997 RMK 7000NE=
200510131400 METAR MROC 131400Z 27003KT 9999 FEW025 BKN040 22/19 A2999 RMK VCSH NNE DUE ST SW=
200510131500 METAR MROC 131500Z 28003KT 9999 BKN025 SCT090 23/19 A3000 RMK 7000SW=
200510131600 METAR MROC 131600Z 23008KT 9999 4000SW BR VCSH FEW003 SCT025 BKN090 21/19 A2999 NOSIG=
200510131700 METAR MROC 131700Z 24008KT 9999 SCT025 BKN090 22/20 A2997 RMK 7000SW RN DST VCFG=
200510131800 METAR MROC 131800Z 24006KT 9999 FEW010 SCT025 BKN090 23/20 A2995 RMK 7000SSW VCSH RN DST NW NOSIG=
200510131900 METAR MROC 131900Z 25008KT 9999 SCT020 SCT090 23/20 A2992 RMK RN DST SW NW NE=
200510132000 METAR MROC 132000Z 22007KT 6000 2000SW VCSH BR FEW002 SCT020 BKN090 21/20 A2990 BECMG 2000 BR=
200510132100 METAR MROC 132100Z 00000KT 7000 3000SW -RA BR FEW003 SCT020 BKN100 20/20 A2989 BECMG 2000 -RA BR=
200510132200 METAR MROC 132200Z 27006KT 7000 3000SW -DZ BR SCT003 SCT020 BKN100 20/20 A2990 NOSIG=
200510132220 METAR MROC 132220Z 26006KT 3000 -RA BR SCT003 BKN020 20/19 A2991 NOSIG=
200510132300 METAR MROC 132300Z 23003KT 3000 -RA BR SCT003 SCT015 BKN100 20/19 A2992 BECMG RMK LOW CLOWDS SW W=
200510140000 METAR MROC 140000Z 25008KT 6000 -RA FEW003 SCT025 BKN100 19/19 A2994 BECMG 3000 DZ BR=
200510140100 METAR MROC 140100Z 30004KT 9999 DZ FEW010 SCT025 BKN100 19/19 A2996 BECMG 7000 VCFG=
200510140200 METAR MROC 140200Z 00000KT 9000 FEW005 SCT015 SCT100 19/19 A2998=
200510140300 METAR MROC 140300Z 25003KT 9999 SCT010 SCT100 20/19 A3000=
200510140400 METAR MROC 140400Z 25003KT 8000 3000SW DZ BR FEW001 SCT015 OVC100 19/19 A3000=
200510140500 METAR MROC 140500Z 27004KT 8000 VCFG FEW002 SCT010 BKN100 19/19 A3000=
200510140600 METAR MROC 140600Z 30004KT 9999 FEW005 SCT020 SCT100 19/19 A2998=
200510140700 METAR MROC 140700Z 29003KT 9000 DZ BR FEW004 SCT020 OVC100 19/19 A2996=
200510140900 METAR MROC 140900Z 00000KT 8000 DZ BR FEW005 SCT020 OVC100 19/19 A2994=
200510141000 METAR MROC 141000Z 00000KT 9999 FEW001 SCT100 19/19 A2994=
200510141100 METAR MROC 141100Z 00000KT 9999 SCT020 SCT150 19/19 A2996=
200510141200 METAR MROC 141200Z 00000KT 9999 FEW025 SCT120 19/19 A2997=
200510141300 METAR MROC 141300Z 00000KT 9999 FEW010 BKN080 21/20 A2998 NOSIG=
200510141400 METAR MROC 141400Z 00000KT 9999 FEW005 SCT030 BKN080 22/20 A3000 BECMG 24007KT=
200510141500 METAR MROC 141500Z 22003KT 9999 FEW020 SCT030 BKN080 23/20 A3001 BECMG 7000 VCSH=
200510141600 METAR MROC 141600Z 23007KT 9999 FEW015 SCT100 BKN250 23/21 A3001 NOSIG=
200510141700 METAR MROC 141700Z 23009KT 9999 FEW012 SCT020 BKN120 23/20 A2998 NOSIG=
200510141800 METAR MROC 141800Z 24006KT 9999 FEW010 SCT020TCU BKN120 24/20 A2996 BECMG 5000 RA RMK VIS S SSW 7KMS DUE VCSH=
200510141900 METAR MROC 141900Z 22010KT 9999 3000SW -DZ BR FEW004 SCT010 BKN020 22/21 A2994 BECMG 4000 -RA BR=
200510142000 METAR MROC 142000Z 21004KT 8000 VCSH FEW010 SCT025 BKN120 21/20 A2993 BECMG 6000 RMK VIS S UNLTD=
200510142100 METAR MROC 142100Z 25004KT 3000 RA BR SCT006 SCT030 BKN120 20/19 A2993 BECMG 1000=
200510142200 METAR MROC 142200Z 28004KT 4000 -RA BR SCT005 SCT010 20/20 A2992 RMK VSBY E 8KM BECMG 2000=
200510142300 METAR MROC 142300Z 25007KT 2000 RA BR SCT006 BKN012 19/19 A2994 BECMG 1000 BR=
200510150000 METAR MROC 150000Z 00000KT 7000 -RA VCFG FEW006 SCT012 BKN120 19/19 A2995 NOSIG=
200510150100 METAR MROC 150100Z 25003KT 6000 RA VCFG FEW005 BKN010 19/19 A2998 NOSIG=
200510150200 METAR MROC 150200Z 31004KT 7000 VCFG FEW003 SCT020 OVC120 20/19 A3000 NOSIG=
200510150300 METAR MROC 150300Z 00000KT 6000 VCFG SCT003 SCT020 20/19 A3001 RMK 3000SW BR NOSIG=
200510150400 METAR MROC 150400Z 00000KT 9999 FEW003 SCT010 BKN100 19/19 A3000 RMK 7000SW VCFG NOSIG=
200510150500 METAR MROC 150500Z 29004KT 9999 FEW010 SCT035 BKN100 20/19 A2999 NOSIG=
200510150600 METAR MROC 150600Z 32003KT 9999 FEW015 SCT040 BKN120 20/19 A2997 NOSIG=
200510150700 METAR MROC 150700Z 36004KT 9999 -DZ FEW015 BKN030 20/19 A2994 NOSIG=
200510150800 METAR MROC 150800Z 29003KT 9999 FEW005 SCT030 BKN120 20/19 A2993 NOSIG=
200510150900 METAR MROC 150900Z 27003KT 9999 -DZ FEW003 SCT015 BKN030 20/19 A2992 RMK VIS 6000 S/SW DUE ST BECMG 6000 VCFG SCT003 BKN015=
200510151000 METAR MROC 151000Z 28005KT 7000 3000SW BR SCT002 BKN015 19/19 A2992 BECMG 1500 BR SCT001 BKN010=
200510151100 METAR MROC 151100Z 27004KT 7000 VCFG FEW002 SCT015 SCT030 19/19 A2993 RMK VIS 5000 SW DUE ST BECMG 4000 BR SCT002 BKN012=
200510151200 METAR MROC 151200Z 25004KT 1500 -RA BR SCT001 BKN010 19/19 A2996 NOSIG=
200510151300 METAR MROC 151300Z 30004KT 7000 VCFG FEW004 BKN020 19/19 A2998 RMK VSBY S UNL VSBY N 5KM DUE LW ST NOSIG=
200510151400 METAR MROC 151400Z 00000KT 9999 FEW008 SCT020 BKN100 23/20 A3000 RMK VSBY N 6KM LOW ST NOSIG=
200510151500 METAR MROC 151500Z 24004KT 9999 FEW015 SCT025 BKN250 23/20 A3000 NOSIG=
200510151600 METAR MROC 151600Z 24004KT 9999 BKN015 SCT250 24/19 A2999 NOSIG=
200510151700 METAR MROC 151700Z 22008KT 9999 BKN020 BKN250 24/20 A2995 RMK RN S SE NOSIG=
200510151800 METAR MROC 151800Z 24010KT 9999 FEW012TCU BKN020 25/20 A2993 RMK RN S BECMG 5000 -RA=
200510151900 METAR MROC 151900Z 18005KT 9999 FEW015 SCT120 BKN260 23/20 A2992 RMK VSBY N 6KM DUE RN NOSIG=
200510152000 METAR MROC 152000Z 21006KT 9999 FEW020 SCT120 BKN260 24/20 A2989 NOSIG=
200510152100 METAR MROC 152100Z 19004KT 8000 RA FEW007 SCT020 BKN100 20/20 A2989 NOSIG=
200510152200 METAR MROC 152200Z 24003KT 9999 FEW007 SCT030 BKN110 22/20 A2988 NOSIG=
200510152300 METAR MROC 152300Z 00000KT 9999 FEW007 SCT025 BKN110 21/19 A2990 NOSIG=
200510160000 METAR MROC 160000Z 24003KT 9999 SCT025 BKN110 21/20 A2992 BECMG 6000=
200510160100 METAR MROC 160100Z 25004KT 8000 FEW007 SCT025 BKN110 20/20 A2994 NOSIG=
200510160200 METAR MROC 160200Z 27003KT 8000 FEW006 SCT025 BKN110 20/20 A2997 NOSIG=
200510160300 METAR MROC 160300Z 00000KT 5000 RA FEW005 SCT020 BKN120 20/19 A2998 BECMG 3000 -RA BR RMK VIS N 8KMS=
200510160400 METAR MROC 160400Z 00000KT 9999 FEW003 SCT015 BKN120 20/19 A2998 RERA BECMG RMK VIS S SSW 7KMS DUE LOW ST=
200510160500 METAR MROC 160500Z 00000KT 9999 FEW015 BKN120 19/19 A2997 NOSIG=
200510160600 METAR MROC 160600Z 00000KT 9999 FEW012 BKN120 19/18 A2994 NOSIG=
200510160700 METAR MROC 160700Z 00000KT 5000 2000SW BR SCT001 BKN120 19/19 A2993 BECMG 0500 FG=
200510160800 METAR MROC 160800Z 29003KT 8000 VCFG FEW003 SCT020 BKN120 19/19 A2992 BECMG RMK VIS SE S UNLTD=
200510160900 METAR MROC 160900Z 33003KT 9999 FEW008 SCT020 BKN130 20/19 A2992 NOSIG=
200510161000 METAR MROC 161000Z 00000KT 9999 FEW020 SCT130 19/18 A2992 NOSIG=
200510161100 METAR MROC 161100Z 00000KT 9999 FEW030 SCT130 18/18 A2993 NOSIG=
200510161200 METAR MROC 161200Z 00000KT CAVOK 18/18 A2995 NOSIG=
200510161300 METAR MROC 161300Z 00000KT 9999 FEW025 SCT140 22/19 A2997 NOSIG=
200510161400 METAR MROC 161400Z 00000KT 9999 SCT025 SCT140 22/19 A2999 BECMG 25006KT=
200510161500 METAR MROC 161500Z 26005KT 9999 SCT015 BKN120 23/19 A3000 NOSIG=
200510161600 METAR MROC 161600Z 23008KT 9999 SCT018 BKN120 24/19 A3000 NOSIG=
200510161700 METAR MROC 161700Z 21007KT 9999 SCT020 BKN120 25/20 A2997 NOSIG=
200510161800 METAR MROC 161800Z 20006KT 9999 SCT25TCU SCT250 26/20 A2994 NOSIG=
200510161900 METAR MROC 161900Z 24012KT 9999 FEW010 SCT020TCU 25/21 A2991 BECMG 6000 VCSH=
200510162000 METAR MROC 162000Z 25011KT 9999 3000SW RA BR SCT004 SCT020TCU 21/20 A2990=
200510162100 METAR MROC 162100Z 27006KT 2500 DZ BR FEW002 BKN015 21/20 A2989=
200510162200 METAR MROC 162200Z 29006KT 4000SW DZ BR FEW002 BKN020 21/20 A2989=
200510162300 METAR MROC 162300Z 26009KT 2000 RA BR SCT002 SCT015 20/19 A2990=
200510170000 METAR MROC 170000Z 29004KT 9999 3000SW -RA BR FEW002 BKN020 20/19 A2992=
200510170100 METAR MROC 170100Z 30003KT 8000 -DZ BR FEW003 OVC100 20/19 A2995=
200510170200 METAR MROC 170200Z 28003KT 8000 -DZ BR FEW003 OVC100 20/19 A2997=
200510170300 METAR MROC 170300Z 00000KT 9999 FEW010 OVC100 20/19 A2998 NOSIG=
200510170400 METAR MROC 170400Z 00000KT 9999 FEW015 OVC120 20/19 A2997 NOSIG=
200510170500 METAR MROC 170500Z 00000KT 9999 FEW001 SCT010 BKN120 20/19 A2996 BECMG RMK VSBY W 5KM=
200510170600 METAR MROC 170600Z 00000KT 9999 FEW010 OVC120 20/19 A2993 NOSIG=
200510170700 METAR MROC 170700Z 00000KT 9999 FEW010 BKN120 20/19 A2993 NOSIG=
200510170800 METAR MROC 170800Z 00000KT 9999 FEW030 BKN120 20/19 A2992 NOSIG=
200510170900 METAR MROC 170900Z 00000KT 9999 FEW030 BKN120 19/19 A2992 NOSIG=
200510171000 METAR MROC 171000Z 06003KT CAVOK 18/18 A2990 NOSIG=
200510171100 METAR MROC 171100Z 02004KT CAVOK 18/18 A2991 NOSIG=
200510171200 METAR MROC 171200Z 01004KT CAVOK 19/18 A2993 NOSIG=
200510171300 METAR MROC 171300Z 00000KT 0300 FG SCT001 20/19 A2994=
200510171400 METAR MROC 171400Z 00000KT 6000 BR SCT003 SCT150 22/20 A2997 RMK VIS RED SW=
200510171500 METAR MROC 171500Z 26006KT 9000 SCT010 SCT030 23/20 A2999=
200510171600 METAR MROC 171600Z 23006KT 9999 SCT015 SCT100 24/20 A2998=
200510171700 METAR MROC 171700Z 23008KT 9999 SCT020 SCT150 24/20 A2996=
200510171800 METAR MROC 171800Z 23009KT 9999 SCT020 SCT150 26/20 A2992=
200510171900 METAR MROC 171900Z 27006KT 9999 SCT015 SCT090 26/20 A2989=
200510172000 METAR MROC 172000Z 27007KT 9999 SCT010 SCT070 24/20 A2987 RMK RN ARND=
200510172100 METAR MROC 172100Z 22008KT 9999 BKN025 SCT090 23/20 A2987 RMK RN DST S SSE BECMG 7000 -RA=
200510172200 METAR MROC 172200Z 24010KT 8000 3000NW BR VCSH FEW003 SCT030 BKN120 22/19 A2988 NOSIG=
200510172300 METAR MROC 172300Z 29003KT 5000 RA BR FEW003 SCT015 BKN090 20/20 A2990 RMK 3000SW NOSIG=
200510180000 METAR MROC 180000Z 29003KT 7000 RA SCT015 BKN090 20/19 A2991 NOSIG=
200510180100 METAR MROC 180100Z 00000KT 9999 RA FEW007 OVC090 20/19 A2992 NOSIG=
200510180200 METAR MROC 180200Z 00000KT 9999 -DZ FEW004 BKN100 20/19 A2994 NOSIG=
200510180300 METAR MROC 180300Z 00000KT 9999 FEW010 SCT150 20/19 A2994=
200510180400 METAR MROC 180400Z 00000KT 9999 FEW010 FEW100 19/18 A2996=
200510180500 METAR MROC 180500Z 00000KT 6000 BR FEW002 SCT010 BKN100 19/18 A2996 RMK VIS RED SW=
200510180600 METAR MROC 180600Z 00000KT 6000 BR FEW002 SCT015 BKN090 19/19 A2995=
200510180700 METAR MROC 180700Z 20004KT 5000SW BR FEW001 SCT010 BKN050 19/19 A2993=
200510180800 METAR MROC 180800Z 00000KT 4000SW -DZ BR FEW002 SCT015 SCT030 19/18 A2991=
200510180900 METAR MROC 180900Z 01004KT 9999 SCT010 SCT150 19/18 A2991=
200510181000 METAR MROC 181000Z 13003KT 9999 FEW010 SCT120 19/18 A2991=
200510181100 METAR MROC 181100Z 09003KT CAVOK 19/18 A2992 NOSIG=
200510181200 METAR MROC 181200Z 08006KT CAVOK 19/18 A2992 NOSIG=
200510181300 METAR MROC 181300Z 00000KT CAVOK 21/19 A2994 NOSIG=
200510181400 METAR MROC 181400Z 22005KT CAVOK 23/19 A2996 NOSIG=
200510181500 METAR MROC 181500Z 23007KT 9999 SCT030 SCT250 24/19 A2997 NOSIG=
200510181600 METAR MROC 181600Z 23008KT 9999 FEW020 SCT030 25/20 A2997=
200510181700 METAR MROC 181700Z 23009KT 9999 SCT025 SCT250 25/20 A2995 NOSIG=
200510181800 METAR MROC 181800Z 24009KT 9999 SCT025 BKN250 24/20 A2992 NOSIG=
200510181900 METAR MROC 181900Z 22009KT 9999 FEW015TCU SCT025 24/20 A2989 RMK TCU SSW 7000 VCSH BECMG -RA=
200510182000 METAR MROC 182000Z 22006KT 9999 FEW015 SCT025 24/21 A2987 NOSIG=
200510182100 METAR MROC 182100Z 24012KT 9999 FEW015TCU SCT025 24/21 A2986 BECMG 7000 RMK VCSH RASH DST NW=
200510182200 METAR MROC 182200Z 25009KT 9999 4000SW VCSH FEW005 SCT015TCU BKN025 22/20 A2987 BECMG 4000 RA=
200510182300 METAR MROC 182300Z 24007KT 9999 4000SW VCSH FEW004 SCT015 BKN025 21/20 A2989 NOSIG=
200510190000 METAR MROC 190000Z 27007KT 5000 BR FEW001 SCT004 BKN020 20/20 A2991 BECMG RMK VIS E/SE UNLTD=
200510190100 METAR MROC 190100Z 25008KT 7000 -RA FEW004 SCT010 BKN100 20/20 A2992 BECMG RMK VIS SE E UNLTD=
200510190200 METAR MROC 190200Z 25007KT 4000 -RA BR FEW002 SCT010 BKN100 20/20 A2992=
200510190300 METAR MROC 190300Z 26007KT 6000 RA FEW003 SCT010 OVC100 20/20 A2992 NOSIG=
200510190400 METAR MROC 190400Z 27004KT 6000 FEW004 SCT012 OVC100 20/20 A2999 NOSIG=
200510190500 METAR MROC 190500Z 29005KT 8000 FEW004 SCT015 OVC100 20/20 A2998 NOSIG=
200510190600 METAR MROC 190600Z 30005KT 9999 FEW005 SCT015 OVC100 20/19 A2995 NOSIG=
200510190700 METAR MROC 190700Z 00000KT 9999 FEW005 SCT015 OVC100 20/19 A2993 NOSIG=
200510190800 METAR MROC 190800Z 25003KT 8000 FEW005 SCT015 OVC100 20/19 A2992 BECMG 6000=
200510190900 METAR MROC 190900Z 29003KT 8000 FEW005 SCT015 OVC100 20/19 A2992 NOSIG=
200510191000 METAR MROC 191000Z 00000KT 6000 DZ FEW004 SCT010 OVC100 20/19 A2992 BECMG 5000 -RA=
200510191100 METAR MROC 191100Z 00000KT 6000 DZ FEW004 SCT010 OVC100 20/19 A2993 NOSIG=
200510191200 METAR MROC 191200Z 35003KT 6000 VCFG FEW004 SCT015 OVC100 20/19 A2994 BECMG 8000=
200510191300 METAR MROC 191300Z 00000KT 8000 BR FEW004 BKN020 20/19 A2995 BECMG 6000 -RA BR RMK VIS E UNL=
200510191400 METAR MROC 191400Z 00000KT 8000 DZ BR FEW006 SCT015 BKN100 22/20 A2998 BECMG 24006KT 5000 -RA RMK VIS S SSW 5KMS=
200510191500 METAR MROC 191500Z 27004KT 9999 FEW015 BKN120 23/20 A2999 BECMG 5000 -RA BR RMK PCPN DST SE S=
200510191600 METAR MROC 191600Z 24004KT 9999 -RA SCT008 BKN015 23/21 A2998 NOSIG=
200510191700 METAR MROC 191700Z 20006KT 7000 -RA FEW005 SCT105 BKN025 22/21 A2997 BECMG 3000 RMK VIS S SSW 4KMS=
200510191800 METAR MROC 191800Z 21004KT 9999 FEW015 SCT030 BKN250 25/21 A2995 BECMG 6000 -RA RMK RN E SE NW=
200510191900 METAR MROC 191900Z 25008KT 6000 -RA FEW010 SCT025 BKN100 21/20 A2992 BECMG 4000 RMK VIS E SE UNLTD=
200510192000 METAR MROC 192000Z 24007KT 2000 RA BR SCT002 BKN010 21/20 A2990 BECMG RMK CONDICIONES VARIABLES=
200510192100 METAR MROC 192100Z 24008KT 2000 RA BR FEW003 BKN010 20/19 A2991 NOSIG=
200510192200 METAR MROC 192200Z 25007KT 2500 RA BR SCT002 BKN008 20/19 A2992 NOSIG=
200510192300 METAR MROC 192300Z 28003KT 3000 RA BR SCT002 BKN010 20/20 A2993 NOSIG=
200510200000 METAR MROC 200000Z 33003KT 9999 -RA FEW010 OVC100 20/20 A2995 NOSIG=
200510200100 METAR MROC 200100Z 28004KT 9999 -RA FEW008 OVC100 20/20 A2997 NOSIG=
200510200200 METAR MROC 200200Z 00000KT 9999 RA FEW008 BKN020 20/19 A2997 NOSIG=
200510200300 METAR MROC 200300Z 00000KT 7000 -RA BR FEW005 OVC090 20/19 A2998 NOSIG=
200510200400 METAR MROC 200400Z 00000KT 9999 2000SW -DZ BR FEW003 BKN090 20/19 A2998 BECMG 1500SW BR=
200510200500 METAR MROC 200500Z 00000KT 0500 -DZ FG BKN001 SCT090 20/19 A2998 RMK 5000N BECMG 1500 DZ BR=
200510200600 METAR MROC 200600Z 00000KT 6000 -DZ VCFG FEW002 SCT006 BKN090 20/20 A2997 RMK 4000SW BR NOSIG=
200510200700 METAR MROC 200700Z VRB03KT 9999 -DZ FEW003 SCT015 BKN090 20/20 A2995 RMK VIS 5000 SW DUE ST NOSIG=
200510200800 METAR MROC 200800Z 35003KT 9999 FEW003 SCT025 BKN100 20/19 A2993 RMK VIS 6000 SSE/SW DUE ST NOSIG=
200510200900 METAR MROC 200900Z 13003KT 9999 FEW005 SCT030 BKN100 20/19 A2992 RMK VIS 8000 SSE/SW DUE ST NOSIG=
200510201000 METAR MROC 201000Z VRB03KT 9999 -DZ FEW003 SCT030 BKN090 20/19 A2992 RMK VIS 7000 S/SW DUE ST RN BECMG 22004KT 5000 -DZRA=
200510201100 METAR MROC 201100Z 02005KT 9999 -DZ FEW030 BKN090 20/19 A2993 RMK VIS 7000 SW DUE ST BECMG 6000 -DZ VCFG FEW003 BKN090=
200510201200 METAR MROC 201200Z 00000KT 9999 -DZ FEW002 SCT090 BKN220 20/19 A2995 RMK 4000SSW BR NOSIG=
200510201300 METAR MROC 201300Z 00000KT 3000 DZ BR SCT003 BKN015 20/20 A2997 NOSIG=
200510201400 METAR MROC 201400Z 00000KT 6000 VCFG SCT010 SCT025 22/20 A2998 NOSIG=
200510201500 METAR MROC 201500Z 00000KT 9999 FEW008 BKN015 23/20 A2998 BECMG RMK VSBY N 6KM=
200510201600 METAR MROC 201600Z 18003KT 9999 SCT020 BKN260 25/20 A2999 NOSIG=
200510201700 METAR MROC 201700Z 24009KT 9999 SCT015 BKN260 24/21 A2997 NOSIG=
200510201800 METAR MROC 201800Z 22009KT 9999 BKN010 SCT020 23/21 A2995 BECMG RMK VSBY SE 6KM DUE RN=
200510201900 METAR MROC 201900Z 22004KT 9999 SCT015 BKN080 24/21 A2991 BECMG RMK RN SW=
200510202000 METAR MROC 202000Z 24012KT 5000 RA BR BKN005 SCT012 21/21 A2990 BECMG 3000 -RA BR=
200510202100 METAR MROC 202100Z 28005KT 5000 BR SCT006 BKN015 21/21 A2989 BECMG 3000 BR=
200510202200 METAR MROC 202200Z 24008KT 5000 1200E BR FEW001 SCT005 BKN015 21/20 A2991 BECMG 1500 BR=
200510202300 METAR MROC 202300Z 24006KT 1000 BR SCT001 BKN010 20/20 A2992 NOSIG=
200510210000 METAR MROC 210000Z 25003KT 2000 DZ BR FEW002 SCT005 BKN015 20/20 A2994 BECMG 3000 BR=
200510210100 METAR MROC 210100Z 00000KT 7000 DZ SCT008 OVC100 20/20 A2994 BECMG 9999=
200510210200 METAR MROC 210200Z 04003KT 9999 SCT012 OVC100 20/20 A2998 NOSIG=
200510210300 METAR MROC 210300Z 33004KT 9999 FEW001 SCT020 BKN100 21/20 A2999 BECMG 2000 -RA BR RMK VIS SSW SW 5KMS/BR=
200510210400 METAR MROC 210400Z 22005KT 0500 RA FG VV/// 20/20 A3000 BECMG 2000=
200510210500 METAR MROC 210500Z 32008KT 9999 -RA FEW015 OVC100 20/20 A3000 BECMG RMK VIS SSW SW 6KMS/VCFG=
200510210600 METAR MROC 210600Z 00000KT 0500SW FG VV/// 20/19 A2999 BECMG RMK VIS CDTE N UNL CONDICIONES VARIABLES=
200510210610 METAR MROC 210610Z 00000KT 4000 1500E BR SCT001 SCT005 BKN100 20/19 A2999 BECMG RMK VIS S/N UNLTD CONDICIONES VARIABLES=
200510210700 METAR MROC 210700Z 00000KT 5000 -RA BR FEW002 SCT004 BKN100 20/19 A2997 NOSIG=
200510210800 METAR MROC 210800Z 00000KT 9999 DZ FEW003 OVC100 19/19 A2995 BECMG RMK VIS SSW SW 6KMS/FG=
200510210900 METAR MROC 210900Z 00000KT 9999 -RA SCT040 OVC100 19/18 A2990 NOSIG=
200510211000 METAR MROC 211000Z 03004KT CAVOK 20/19 A2991 NOSIG=
200510211100 METAR MROC 211100Z 00000KT CAVOK 19/19 A2992 BECMG RMK THING FG TO S SSW=
200510211140 METAR MROC 211140Z 26003KT 0500 FG VV001 19/19 A2994 BECMG 6000=
200510211200 METAR MROC 211200Z 26004KT 0100 FG VV/// 19/19 A2995 NOSIG=
200510211300 METAR MROC 211300Z 00000KT 0200 DZ FG VV/// 20/19 A2997 NOSIG=
200510211400 METAR MROC 211400Z 32004KT 9000 SCT008 BKN120 20/19 A2999 NOSIG=
200510211500 METAR MROC 211500Z 00000KT 9999 SCT015 BKN120 24/20 A3000 NOSIG=
200510211600 METAR MROC 211600Z 00000KT 9999 FEW025 BKN110 25/20 A3000 NOSIG=
200510211700 METAR MROC 211700Z 00000KT 9999 SCT025 BKN100 25/19 A2997 NOSIG=
200510211800 METAR MROC 211800Z 24006KT 9999 SCT020TCU SCT120 26/21 A2994 NOSIG=
200510211900 METAR MROC 211900Z 23008KT 9999 SCT020TCU BKN250 26/21 A2989 NOSIG=
200510212000 METAR MROC 212000Z 25010KT 9999 5000SW -DZ BR FEW001 SCT015 BKN025 21/21 A2990 BECMG 3000 BR=
200510212100 METAR MROC 212100Z 24009KT 5000 2500SW RA BR FEW001 SCT006 BKN030 20/20 A2990=
200510212200 METAR MROC 212200Z 28005KT 2500 RA BR FEW001 SCT005 BKN025 20/20 A2993=
200510212300 METAR MROC 212300Z 31003KT 7000 3000SW -RA BR SCT003 SCT015 20/19 A2994=
200510220000 METAR MROC 220000Z 00000KT 8000 -RA SCT015 OVC100 20/19 A2995=
200510220100 METAR MROC 220100Z 06003KT 8000 -RA SCT015 OVC100 20/19 A2997=
200510220200 METAR MROC 220200Z 02006KT 6000SW RA SCT010 OVC100 20/19 A2999=
200510220300 METAR MROC 220300Z 07004KT 9999 RA SCT040 OVC100 19/19 A2998 NOSIG=
200510220400 METAR MROC 220400Z 06004KT 9999 RA FEW040 OVC100 19/19 A2997 NOSIG=
200510220500 METAR MROC 220500Z 28003KT 5000 RA BR FEW005 SCT040 BKN100 19/19 A2998 NOSIG=
200510220600 METAR MROC 220600Z 00000KT 5000 -RA BR FEW005 OVC100 19/19 A2997 NOSIG=
200510220700 METAR MROC 220700Z 05005KT 9999 -RA FEW035 OVC100 19/18 A2994 NOSIG=
200510220800 METAR MROC 220800Z 00000KT 9999 -RA SCT040 OVC100 19/18 A2989 NOSIG=
200510220950 METAR MROC 221000Z 00000KT 9999 -RA VCFG FEW001 OVC100 18/18 A2992 NOSIG=
200510221000 METAR MROC 221000Z 00000KT 9999 -RA VCFG FEW001 OVC100 18/18 A2992 NOSIG=
200510221100 METAR MROC 221100Z 00000KT 9999 -RA FEW030 OVC100 18/18 A2994 NOSIG=
200510221200 METAR MROC 221200Z 12003KT 9999 DZ SCT015 OVC100 23/23 A2981 NOSIG=
200510221300 METAR MROC 221300Z 00000KT 9000 FEW010 SCT020 BKN080 19/19 A2997=
200510221400 METAR MROC 221400Z 07003KT 9000 FEW010 SCT025 SCT100 21/19 A2998=
200510221500 METAR MROC 221500Z 00000KT 9000 SCT020 BKN100 23/19 A3000=
200510221600 METAR MROC 221600Z 00000KT 9999 FEW025 SCT120 BKN250 26/20 A2998 RMK VIS SW 8KMS DUE RASH=
200510221700 METAR MROC 221700Z 23008KT 9999 FEW005 SCT025 BKN100 22/20 A2997 RMK VIS SW 7KMS DUE RASH=
200510221800 METAR MROC 221800Z 25008KT 9999 FEW015 SCT030 BKN100 23/20 A2995=
200510221900 METAR MROC 221900Z 24010KT 9999 FEW025 SCT030 BKN100 22/20 A2993 RMK VIS S 8KMS DUE RN=
200510222000 METAR MROC 222000Z 23008KT 4000 -RA BR FEW001 SCT003 BKN025 20/19 A2991=
200510222100 METAR MROC 222100Z 25007KT 5000 2000SW -DZ BR SCT002 BKN020 21/20 A2991 BECMG 2000 RA=
200510222200 METAR MROC 222200Z 27005KT 2000 RA BR SCT001 BKN010 19/19 A2993 RMK 1200SW BECMG 3000-RA=
200510222300 METAR MROC 222300Z 00000KT 5000 2000SW RA BR FEW002 SCT006 BKN080 19/19 A2994 BECMG 1500 DZ BR=
200510230000 METAR MROC 230000Z 00000KT 7000 -RA VCFG FEW003 SCT008 BKN090 19/19 A2996 RMK 5000SW -RA BR NOSIG=
200510230100 METAR MROC 230100Z 00000KT 7000 -RA FEW003 SCT010 BKN090 19/19 A2999 RMK 5000SW -RA BR NOSIG=
200510230200 METAR MROC 230200Z 00000KT 6000 -RA FEW005 OVC090 19/19 A3000 NOSIG=
200510230300 METAR MROC 230300Z 31003KT 7000 DZ FEW005 SCT030 OVC100 19/19 A3001 NOSIG=
200510230400 METAR MROC 230400Z 02003KT 8000 -RA SCT030 OVC100 19/19 A3001 NOSIG=
200510230500 METAR MROC 230500Z 00000KT 9999 DZ SCT030 OVC100 19/19 A3001 NOSIG=
200510230600 METAR MROC 230600Z 00000KT 9999 -DZ SCT030 OVC100 19/19 A2999 NOSIG=
200510230700 METAR MROC 230700Z 00000KT 9999 -RA SCT030 OVC100 19/18 A2997 NOSIG=
200510230800 METAR MROC 230800Z 00000KT 6000 -DZ VCFG FEW004 OVC080 19/18 A2996 NOSIG=
200510230900 METAR MROC 230900Z 00000KT 9999 4000SW BR FEW003 OVC080 19/18 A2994 NOSIG=
200510231000 METAR MROC 231000Z 06003KT 8000 -RA OVC100 19/18 A2993 NOSIG=
200510231100 METAR MROC 231100Z 00000KT 9999 FEW008 OVC100 19/18 A2997 RERA NOSIG=
200510231200 METAR MROC 231200Z 00000KT 8000 FEW005 OVC100 19/18 A2997 NOSIG=
200510231300 METAR MROC 231300Z 28003KT 9999 4000SW BR FEW005 SCT030 BKN120 20/19 A2999 NOSIG=
200510231400 METAR MROC 231400Z 00000KT 9999 FEW007 BKN120 22/19 A3001 RMK 7000SW=
200510231500 METAR MROC 231500Z 24007KT 7000 3000SW VCSH BR FEW005 BKN020 22/19 A3003 BECMG DZ=
200510231600 METAR MROC 231600Z 21007KT 9999 FEW007 SCT020TCU BKN100 22/19 A3003 RMK 6000SW BECMG RA=
200510231700 METAR MROC 231700Z 27008KT 9999 SCT020TCU SCT025 22/19 A3001 NOSIG=
200510231800 METAR MROC 231800Z 22008KT 9999 FEW006 SCT020TCU BKN120 23/19 A2998 BECMG 7000 VCSH=
200510231900 METAR MROC 231900Z 21006KT 7000 3000SW -RA BR SCT002 BKN020 21/20 A2997 BECMG 4000 1500SW RA BR=
200510232000 METAR MROC 232000Z 26011KT 2000 -RA BR SCT002 BKN015 20/20 A2996 RMK 5000E BECMG 3000 1000SW BR=
200510232100 METAR MROC 232100Z 26010KT 5000 BR SCT003 BKN010 20/19 A2995 RERA BECMG 3000 -RA BR=
200510232200 METAR MROC 232200Z 25009KT 5000 BR SCT003 BKN010 20/19 A2996 BECMG RMK VIS E 7KMS=
200510232300 METAR MROC 232300Z 27007KT 5000 BR SCT004 BKN008 20/19 A2998 NOSIG=
200510240000 METAR MROC 240000Z 27004KT 4000 -RA BR SCT004 BKN008 19/19 A2999 NOSIG=
200510240100 METAR MROC 240100Z 28004KT 7000 VCFG SCT005 SCT010 BKN120 19/19 A3001 NOSIG=
200510240200 METAR MROC 240200Z 28003KT 6000 VCFG SCT005 SCT010 BKN120 19/19 A3004 BECMG 3000 BR=
200510240300 METAR MROC 240300Z 28003KT 8000 FEW006 SCT030 OVC110 19/19 A3005 NOSIG=
200510240400 METAR MROC 240400Z 28003KT 8000 DZ FEW007 SCT030 OVC110 19/19 A3006 NOSIG=
200510240500 METAR MROC 240500Z 00000KT 9999 SCT030 OVC100 19/19 A3005 NOSIG=
200510240600 METAR MROC 240600Z 27003KT 7000 DZ VCFG FEW005 SCT030 OVC100 19/19 A3003 NOSIG=
200510240700 METAR MROC 240700Z 00000KT 5000 DZ BR FEW003 SCT030 OVC100 19/18 A3002 NOSIG=
200510240800 METAR MROC 240800Z 00000KT 9999 DZ SCT030 OVC100 19/19 A3001=
200510240900 METAR MROC 240900Z 00000KT 9999 FEW030 OVC100 19/18 A3001=
200510241000 METAR MROC 241000Z 00000KT CAVOK 19/18 A3001=
200510241100 METAR MROC 241100Z 09004KT CAVOK 18/18 A3002=
200510241200 METAR MROC 241200Z 05005KT 9999 FEW002 BKN100 19/18 A3003 NOSIG=
200510241300 METAR MROC 241300Z 00000KT 9999 FEW003 BKN120 21/19 A3005 NOSIG=
200510241400 METAR MROC 241400Z 00000KT 9999 SCT030 SCT130 23/19 A3006 BECMG 24007KT=
200510241500 METAR MROC 241500Z 24003KT 9999 FEW030 SCT045 24/19 A3008 NOSIG=
200510241600 METAR MROC 241600Z 24005KT 9999 SCT030 25/20 A3007 NOSIG=
200510241700 METAR MROC 241700Z 21006KT 9999 FEW030 26/19 A3005 NOSIG=
200510241800 METAR MROC 241800Z 22009KT 9999 FEW035 26/20 A3002 NOSIG=
200510241900 METAR MROC 241900Z 23012KT 9999 FEW035 25/20 A2999 BECMG RMK FEW CI CB DST ENE=
200510242000 METAR MROC 242000Z 22009KT 9999 FEW035 SCT250 26/21 A2996 NOSIG=
200510242100 METAR MROC 242100Z 23012KT 9999 FEW020 BKN260 25/21 A2994 RMK RN NE NOSIG=
200510242200 METAR MROC 242200Z 23013KT 9999 FEW020 BKN260 24/20 A2995 RMK RN NE NOSIG=
200510242300 METAR MROC 242300Z 24010KT 9999 FEW015 SCT100 BKN260 22/20 A2997 RMK VSBY N NE 6KM DUE RN NOSIG=
200510250000 METAR MROC 250000Z 23005KT 9999 SCT010 BKN040 21/19 A3000 RMK VSBY N NE 5KM DUE RN BECMG 5000 RA=
200510250100 METAR MROC 250100Z 30003KT 6000 RA SCT010 BKN035 20/19 A3003 RMK VSBY E UNL  BECMG 9999=
200510250200 METAR MROC 250200Z 27003KT 7000 -RA BR SCT005 SCT012 BKN030 19/19 A3005 RMK VSBY N NE E UNL BKMG 9999=
200510250300 METAR MROC 250300Z 00000KT 9999 4000SW -RA BR SCT003 BKN020 20/20 A3007 BECMG RA BR=
200510250400 METAR MROC 250400Z 00000KT 9999 4000SW -RA BR FEW004 SCT015 BKN100 20/20 A3005 NOSIG=
200510250500 METAR MROC 250500Z 00000KT 9000 3000SW BR SCT003 BKN100 20/20 A3004 RMK FEW010 SC BECMG 5000 BR=
200510250600 METAR MROC 250600Z 00000KT 9000 3000SW BR BKN005 SCT100 20/20 A3003 BECMG 5000 -RA BR=
200510250700 METAR MROC 250700Z 29003KT 5000 RA BR FEW005 SCT015 BKN090 20/20 A3000 BECMG 3000 -RA BR SCT002 BKN015=
200510250800 METAR MROC 250800Z 09004KT 9999 -DZ FEW003 SCT020 BKN090 20/19 A2999 RMK VIS 5000 SW DUE ST NOSIG=
200510250900 METAR MROC 250900Z 30005KT 9999 FEW003 SCT030 BKN090 20/19 A2999 RMK VIS 6000SW DUE ST LTNG DST SSE BECMG 5000 BR=
200510251000 METAR MROC 251000Z VRB03KT 9999 4000SW BR FEW002 SCT030 BKN090 19/19 A2999 NOSIG=
200510251100 METAR MROC 251100Z VRB03KT 9999 -DZ FEW003 OVC090 19/19 A3000 RMK VIS 6000 SW DUE ST NOSIG=
200510251200 METAR MROC 251200Z 10003KT 9999 FEW003 SCT035 BKN100 19/18 A3002 RMK VIS 6000SW DUE ST VCSH DST SE E NE=
200510251300 METAR MROC 251300Z 10008KT 9999 FEW012 SCT080 BKN120 20/18 A3004 NOSIG=
200510251400 METAR MROC 251400Z 11006KT 9999 FEW015 SCT080 BKN120 21/17 A3006 RMK RN N NE E NOSIG=
200510251500 METAR MROC 251500Z 12005KT 9999 -RA FEW020 SCT080 BKN130 20/17 A3007 NOSIG=
200510251600 METAR MROC 251600Z 14003KT 9999 -RA FEW025 BKN130 20/19 A3006 NOSIG=
200510251700 METAR MROC 251700Z 00000KT 9999 -RA FEW030 BKN130 24/17 A3004 NOSIG=
200510251800 METAR MROC 251800Z 30004KT 9999 FEW030 BKN100 23/16 A3001 RMK RN N NE E NOSIG=
200510251900 METAR MROC 251900Z 07008KT 9999 FEW025 BKN120 22/16 A3000 RMK RN N NE E S NOSIG=
200510252000 METAR MROC 252000Z 09007KT 9999 FEW025 BKN120 22/16 A2996 NOSIG=
200510252100 METAR MROC 252100Z 11006KT 9999 FEW030 BKN120 22/15 A2995 NOSIG=
200510252200 METAR MROC 252200Z 11008KT 9999 FEW030 BKN120 21/14 A2998 NOSIG=
200510252300 METAR MROC 252300Z 09007KT 9999 SCT030 BKN120 20/14 A2999 NOSIG=
200510260000 METAR MROC 260000Z 110112KT 9999 FEW035 BKN120 19/13 A3000 NOSIG=
200510260100 METAR MROC 260100Z 10008KT CAVOK 19/13 A3002 NOSIG=
200510260200 METAR MROC 260200Z 07010KT CAVOK 19/14 A3004 NOSIG=
200510260300 METAR MROC 260300Z 09010KT CAVOK 19/15 A3005 NOSIG=
200510260400 METAR MROC 260400Z 07009KT CAVOK 19/15 A3004 NOSIG=
200510260500 METAR MROC 260500Z 09006KT CAVOK 19/14 A3002 NOSIG=
200510260600 METAR MROC 260600Z 09009KT CAVOK 19/15 A2999 NOSIG=
200510260700 METAR MROC 260700Z 10008KT CAVOK 19/15 A2996 NOSIG=
200510260800 METAR MROC 260800Z 11004KT CAVOK 19/15 A2994 NOSIG=
200510260900 METAR MROC 260900Z 08008KT CAVOK 19/16 A2994 NOSIG=
200510261000 METAR MROC 261000Z 10007KT CAVOK 19/16 A2995 NOSIG=
200510261100 METAR MROC 261100Z 04004KT 9999 FEW035 BKN120 19/16 A2997 NOSIG=
200510261200 METAR MROC 261200Z 10004KT 9999 SCT035 BKN120 19/16 A2999 BECMG 8000 -RA BKN030=
200510261300 METAR MROC 261300Z 36005KT 9999 SCT035 BKN110 20/17 A3001 NOSIG=
200510261400 METAR MROC 261400Z 03004KT 9999 SCT030 BKN110 21/17 A3002 NOSIG=
200510261500 METAR MROC 261500Z 11003KT 9999 SCT030 BKN110 23/18 A3002 NOSIG=
200510261600 METAR MROC 261600Z 00000KT 9999 SCT030 BKN110 24/18 A3001 NOSIG=
200510261700 METAR MROC 261700Z 01006KT 9999 SCT030 BKN110 25/17 A2999 NOSIG=
200510261800 METAR MROC 261800Z 10007KT 9999 FEW030 BKN110 25/17 A2996 NOSIG=
200510261900 METAR MROC 261900Z 07007KT 9999 FEW030 BKN110 23/16 A2994=
200510262000 METAR MROC 262000Z 09003KT 9999 DZ FEW025 BKN100 22/17 A2992=
200510262100 METAR MROC 262100Z 09006KT 9999 -DZ FEW025 BKN140 20/17 A2991=
200510262200 METAR MROC 262200Z 13005KT 9999 -DZ FEW020 BKN100 19/17 A2993=
200510262300 METAR MROC 262300Z 14004KT 9999 -DZ FEW020 SCT100 BKN200 19/16 A2994=
200510270000 METAR MROC 270000Z 09006KT 9999 FEW030 SCT150 19/16 A2995=
200510270100 METAR MROC 270100Z 08004KT 9999 -DZ FEW025 BKN120 18/16 A2997=
200510270200 METAR MROC 270200Z 11005KT 9999 -DZ FEW025 BKN100 19/16 A2999=
200510270300 METAR MROC 270300Z 09007KT 9999 FEW040 OVC120 19/16 A3000 NOSIG=
200510270400 METAR MROC 270400Z 00000KT 9999 FEW040 OVC130 19/16 A3000 NOSIG=
200510270500 METAR MROC 270500Z 13004KT 9999 FEW040 OVC120 19/16 A2998 NOSIG=
200510270600 METAR MROC 270600Z 10006KT 9999 FEW040 OVC120 19/15 A2999 NOSIG=
200510270700 METAR MROC 270700Z 13003KT CAVOK 19/15 A2996 NOSIG=
200510270800 METAR MROC 270800Z 00000KT CAVOK 19/16 A2993 NOSIG=
200510270900 METAR MROC 270900Z 36004KT 9999 FEW040 OVC120 18/16 A2994 NOSIG=
200510271000 METAR MROC 271000Z 00000KT 9999 FEW040 OVC120 18/16 A2994 NOSIG=
200510271100 METAR MROC 271100Z 00000KT CAVOK 16/16 A2997 NOSIG=
200510271200 METAR MROC 271200Z 00000KT CAVOK 16/15 A2998 NOSIG=
200510271300 METAR MROC 271300Z 06004KT CAVOK 20/16 A3000=
200510271400 METAR MROC 271400Z 09006KT CAVOK 23/16 A3000=
200510271500 METAR MROC 271500Z 27003KT CAVOK 25/16 A3001=
200510271600 METAR MROC 271600Z 22004KT CAVOK 26/17 A3000=
200510271700 METAR MROC 271700Z 24007KT 9999 FEW030 SCT100 26/17 A2998=
200510271800 METAR MROC 271800Z 25009KT 9999 FEW030 SCT150 26/18 A2995=
200510271900 METAR MROC 271900Z 24010KT 9999 FEW030 SCT150 26/19 A2993=
200510272000 METAR MROC 272000Z 25011KT 9999 SCT025TCU SCT200 26/20 A2991=
200510272100 METAR MROC 272100Z 23011KT 9999 SCT025TCU BKN230 25/20 A2991 RMK RN DST E NOSIG=
200510272200 METAR MROC 272200Z 23012KT 9999 FEW020 SCT120 BKN250 23/19 A2992 RMK CB DST S SSW NOSIG=
200510272300 METAR MROC 272300Z 23009KT 9999 SCT020 BKN100 21/19 A2995 RMK RN DST E NOSIG=
200510280000 METAR MROC 280000Z 25004KT 9999 FEW030 BKN100 21/18 A2997 RMK DZ DST NE NOSIG=
200510280100 METAR MROC 280100Z 00000KT 9999 FEW035 SCT120 21/18 A2999 NOSIG=
200510280200 METAR MROC 280200Z 00000KT CAVOK 21/18 A3001 NOSIG=
200510280300 METAR MROC 280300Z 24003KT CAVOK 20/18 A3002 NOSIG=
200510280400 METAR MROC 280400Z 23003KT 9999 FEW010 SCT120 20/19 A3002 NOSIG=
200510280500 METAR MROC 280500Z 22004KT 8000 2000SW -DZ BR SCT001 SCT015 19/19 A3002 BECMG 1000=
200510280600 METAR MROC 280600Z 00000KT 7000 2000SW -DZ BR FEW001 SCT015 19/19 A3000=
200510280700 METAR MROC 280700Z 00000KT 8000 2000SW BR FEW001 SCT015 19/19 A2997=
200510280900 METAR MROC 280900Z 00000KT 7000 1500SW BR SCT001 19/18 A2995=
200510281000 METAR MROC 281000Z 00000KT 9999 FEW010 18/18 A2995=
200510281100 METAR MROC 281100Z 00000KT 9999 SCT010 18/17 A2997 NOSIG=
200510281200 METAR MROC 281200Z 00000KT 8000 VCFG FEW004 SCT100 18/17 A2998=
200510281300 METAR MROC 281300Z 00000KT 9999 FEW035 20/18 A3000 RMK 6000SW HZ=
200510281400 METAR MROC 281400Z 00000KT 9999 FEW035 23/19 A3001 RMK 8000 SW NW HZ=
200510281500 METAR MROC 281500Z 26004KT 9999 FEW035 24/18 A3002 RMK LEVE HZY=
200510281600 METAR MROC 281600Z 20003KT 9999 FEW025TCU SCT035 25/19 A3001 RMK LEVE HZY=
200510281700 METAR MROC 281700Z 27006KT 9999 SCT025TCU SCT030 25/19 A2999 RMK LEVE HZY=
200510281800 METAR MROC 281800Z 24008KT 9999 FEW025TCU SCT030 BKN120 26/19 A2997 NOSIG=
200510281900 METAR MROC 281900Z 19006KT 9999 FEW020 SCT030 26/19 A2995 RMK RN DST E NOSIG=
200510282000 METAR MROC 282000Z 21007KT 9999 FEW020 SCT030 26/21 A2992 NOSIG=
200510282100 METAR MROC 282100Z 22010KT 9999 FEW025 SCT140 BKN250 24/21 A2991 NOSIG=
200510282200 METAR MROC 282200Z 22011KT 9999 FEW015TCU SCT025 BKN250 22/20 A2992 BECMG 7000 VCSH=
200510282300 METAR MROC 282300Z 23007KT 9999 FEW010 SCT025 BKN120 21/20 A2994 NOSIG=
200510290000 METAR MROC 290000Z 25006KT 9999 FEW010 BKN120 21/20 A2995 BECMG 5000 -RA BR=
200510290100 METAR MROC 290100Z 22006KT 9999 FEW005 SCT010 BKN120 21/20 A2998 BECMG 5000 -RA BR=
200510290200 METAR MROC 290200Z 21005KT 9000 FEW005 SCT015 20/20 A3000=
200510290300 METAR MROC 290300Z 00000KT 9999 FEW005 SCT015 20/20 A3002=
200510290400 METAR MROC 290400Z 00000KT 9000 FEW005 SCT015 20/20 A3002=
200510290500 METAR MROC 290500Z 00000KT 9000 FEW005 SCT015 20/20 A3002=
200510290600 METAR MROC 290600Z 00000KT 8000 VCFG FEW002 SCT015 20/19 A3001 RMK VIS RED SW=
200510290700 METAR MROC 290700Z 00000KT 9999 3000SW BR FEW001 SCT015 20/19 A2998=
200510290800 METAR MROC 290800Z 23004KT 2000 BR FEW001 SCT010 20/19 A2997=
200510290900 METAR MROC 290900Z 25003KT 3000 BR FEW001 SCT015 20/19 A2997=
200510291000 METAR MROC 291000Z 25003KT 7000 1500SW BR FEW001 SCT015 20/19 A2998=
200510291100 METAR MROC 291100Z 00000KT 6000 BR FEW003 SCT060 20/19 A2998 RMK VIS RED SW=
200510291200 METAR MROC 291200Z 00000KT 8000 VCFG FEW005 SCT150 19/19 A3000=
200510291300 METAR MROC 291300Z 00000KT 6000 VCFG FEW008 SCT140 BKN250 20/19 A3002 BECMG 24006KT 9999 SCT020 RMK VIS E UNLTD=
200510291400 METAR MROC 291400Z 00000KT 7000 VCFG FEW010 SCT020 BKN250 22/19 A3004 NOSIG=
200510291500 METAR MROC 291500Z 24004KT 9999 FEW010 BKN020 22/19 A3005 BECMG 5000 BR RMK BRUMOSO=
200510291600 METAR MROC 291600Z 21008KT 9999 SCT020 BKN250 23/19 A3004 NOSIG=
200510291700 METAR MROC 291700Z 22008KT 9999 SCT025 BKN250 25/20 A3001 NOSIG=
200510291800 METAR MROC 291800Z 24014KT 9999 4000SW BR FEW003 SCT025 BKN120 22/20 A2998 BECMG 4000 BR RMK LOW CLOWDS S SW=
200510291900 METAR MROC 291900Z 23011KT 7000 VCFG SCT005 BKN010 22/20 A2996 NOSIG=
200510292000 METAR MROC 292000Z 25005KT 9999 SCT008 BKN015 22/20 A2993 BECMG 4000 BR RMK HZY=
200510292100 METAR MROC 292100Z 21006KT 9999 SCT015 BKN120 23/19 A2992 NOSIG=
200510292200 METAR MROC 292200Z 23006KT 9999 SCT012 SCT035 BKN120 22/20 A2991 RMK VSBY NW N 6KM LOW ST NOSIG=
200510292300 METAR MROC 292300Z 23006KT 6000 VCFG SCT012 BKN030 21/19 A2993 NOSIG=
200510300000 METAR MROC 300000Z 23004KT 6000 VCFG FEW005 SCT030 BKN100 20/20 A2993 RMK VSBY S SE UNL NOSIG=
200510300100 METAR MROC 300100Z 23003KT 7000 VCFG FEW005 SCT030 BKN120 20/20 A2996 NOSIG=
200510300200 METAR MROC 300200Z 25005KT 6000 VCFG SCT003 SCT030 20/19 A2998 NOSIG=
200510300300 METAR MROC 300300Z 00000KT 7000 VCFG FEW003 SCT025 20/19 A3000 RMK 9999E BECMG 5000 BR=
200510300400 METAR MROC 300400Z 00000KT 7000 VCFG FEW003 SCT012 20/20 A3000 RMK 5000SW BR BECMG 3000 BR=
200510300500 METAR MROC 300500Z 22004KT 5000 BR SCT003 BKN012 20/20 A2999 RMK 3000NE BECMG 3000 BR=
200510300600 METAR MROC 300600Z 23003KT 4000 1500SW -DZ BR SCT002 BKN012 20/20 A2997 BECMG 2000 BR=
200510300700 METAR MROC 300700Z 23007KT 0100 FG VV/// 20/19 A2994 NOSIG=
200510300800 METAR MROC 300800Z 20004KT 0800 FG VV/// 19/19 A2993 NOSIG=
200510300900 METAR MROC 300900Z 20004KT 0800 FG VV/// 19/19 A2992 NOSIG=
200510301000 METAR MROC 301000Z 00000KT 5000 2000SW BR SCT002 BKN015 20/19 A2994 BECMG 6000 VCFG SCT003 BKN020=
200510301100 METAR MROC 301100Z VRB03KT 5000 1500SW BR SCT002 BKN015 19/19 A2995 BECMG 3000 BR=
200510301200 METAR MROC 301200Z 00000KT 3000 BR SCT002 BKN015 19/19 A2998 BECMG 5000 BR=
200510301300 METAR MROC 301300Z 00000KT 2000 BR SCT001 BKN012 20/19 A3000 NOSIG=
200510301400 METAR MROC 301400Z 20003KT 5000 BR FEW002 SCT010 BKN100 21/19 A3002 NOSIG=
200510301500 METAR MROC 301500Z 26004KT 6000 VCFG FEW003 BKN015 22/19 A3003 BECMG RMK VSBY SE S UNL VSBY N 4KM=
200510301600 METAR MROC 301600Z 20004KT 9999 SCT020 SCT040 BKN100 23/19 A3003 NOSIG=
200510301700 METAR MROC 301700Z 20004KT 9999 BKN020 OVC100 23/19 A3000 BECMG RMK VSBY N 6KM LOW ST=
200510301800 METAR MROC 301800Z 23006KT 9999 BKN030 OVC120 24/20 A2997 NOSIG=
200510301900 METAR MROC 301900Z 24011KT 9999 SCT010 SCT030 BKN100 22/20 A2994 NOSIG=
200510302000 METAR MROC 302000Z 23010KT 7000 VCFG FEW005 BKN120 23/20 A2992 NOSIG=
200510302100 METAR MROC 302100Z 20006KT 9999 SCT015 BKN120 22/20 A2990 NOSIG=
200510302200 METAR MROC 302200Z 20005KT 9999 BKN013 21/20 A2990 NOSIG=
200510302300 METAR MROC 302300Z 22004KT 9999 SCT012 BKN120 21/19 A2992 NOSIG=
200510310000 METAR MROC 310000Z 23007KT 8000 SCT010 BKN120 20/20 A2993 NOSIG=
200510310100 METAR MROC 310100Z 22006KT 8000 FEW010 BKN120 20/19 A2996 NOSIG=
200510310200 METAR MROC 310200Z 23004KT 8000 -DZ FEW015 BKN120 19/19 A2998 NOSIG=
200510310300 METAR MROC 310300Z 00000KT 9999 SCT015 SCT120 20/18 A2999 BECMG 5000 BR RMK VIS N NE 7KMS/VCFG=
200510310400 METAR MROC 310400Z 00000KT 9999 FEW010 BKN020 20/18 A2999 NOSIG=
200510310500 METAR MROC 310500Z 00000KT 9999 SCT010 BKN020 20/19 A2998 NOSIG=
200510310600 METAR MROC 310600Z 00000KT 9999 -RA SCT010 BKN020 20/19 A2997 NOSIG=
200510310700 METAR MROC 310700Z 00000KT 9999 SCT025 19/19 A2995 RERA NOSIG=
200510310800 METAR MROC 310800Z 00000KT 9999 FEW025 SCT120 19/19 A2993 NOSIG=
200510310900 METAR MROC 310900Z 05003KT 9999 FEW025 BKN120 19/18 A2993 BECMG RMK THING FG TO S SSW=
200510311000 METAR MROC 311000Z 26003KT 6000 2500NW BR FEW002 BKN120 19/19 A2993 BECMG 2000 RMK VIS SE S UNLTD=
200510311100 METAR MROC 311100Z 00000KT 7000 VCFG FEW003 SCT020 19/19 A2995 BECMG RMK VIS SSE SE UNLTD=
200510311200 METAR MROC 311200Z 00000KT 9999 SCT020 BKN120 19/18 A2998 BECMG RMK HZY=
200510311300 METAR MROC 311300Z 00000KT 9999 FEW006 SCT020 BKN120 21/18 A3000 NOSIG=
200510311400 METAR MROC 311400Z 00000KT 9999 FEW015 BKN120 21/17 A3002 NOSIG=
200510311500 METAR MROC 311500Z 00000KT 9999 SCT025 BKN120 23/18 A3002 NOSIG=
200510311700 METAR MROC 311700Z 23005KT 9999 SCT025 BKN120 23/19 A3001 NOSIG=
200510311800 METAR MROC 311800Z 22007KT 9999 SCT020 BKN120 24/19 A2998 NOSIG=
200510311900 METAR MROC 311900Z 20005KT 9999 SCT020 BKN120 24/20 A2995 NOSIG=
200510312000 METAR MROC 312000Z 19004KT 9999 SCT020 BKN120 24/20 A2993 NOSIG=
200510312100 METAR MROC 312100Z 23007KT 9000 SCT015 SCT150 22/20 A2993 RMK RN DST W S E=
200510312200 METAR MROC 312200Z 25005KT 8000 DZ FEW010 BKN030 22/20 A2994=
200510312300 METAR MROC 312300Z 29005KT 8000 VCFG SCT005 SCT070 22/20 A2996=
200511010000 METAR MROC 010000Z 00000KT 9999 SCT010 SCT100 21/20 A2997 RERA=
200511010100 METAR MROC 010100Z 25003KT 9999 FEW010 SCT100 21/19 A2999=
200511010200 METAR MROC 010200Z 00000KT 9999 FEW010 SCT100 21/20 A3002=
200511010300 METAR MROC 010300Z 26003KT 9999 FEW010 BKN120 21/20 A3002 NOSIG=
200511010400 METAR MROC 010400Z 00000KT 9999 FEW012 BKN100 21/20 A3002 NOSIG=
200511010600 METAR MROC 010600Z 03004KT 9999 FEW025 BKN100 20/19 A2999 NOSIG=
200511010700 METAR MROC 010700Z 00000KT 9999 FEW025 BKN100 20/19 A2993 NOSIG=
200511010800 METAR MROC 010800Z 00000KT 9999 FEW025 BKN100 20/20 A2992 NOSIG=
200511010900 METAR MROC 010900Z 36003KT CAVOK 19/18 A2994=
200511011000 METAR MROC 011000Z 01004KT CAVOK 19/17 A2995 NOSIG=
200511011100 METAR MROC 011100Z 08003KT CAVOK 18/17 A2997 NOSIG=
200511011200 METAR MROC 011200Z 08003KT 9999 FEW008 SCT280 18/17 A3000 NOSIG=
200511011300 METAR MROC 011300Z 00000KT CAVOK 22/18 A3001 RMK BR ARND=
200511011400 METAR MROC 011400Z 00000KT 9999 FEW010 SCT180 23/19 A3003=
200511011500 METAR MROC 011500Z 22006KT 9999 FEW020 SCT200 24/20 A3004=
200511011900 METAR MROC 011900Z 24007KT 1500 RA SCT003 SCT025 22/20 A2997=
200511012000 METAR MROC 012000Z 23007KT 7000 BR SCT010 SCT150 22/21 A2994=
200511012100 METAR MROC 012100Z 23006KT 5000 BR FEW005 SCT015 BKN120 23/21 A2994 NOSIG=
200511012200 METAR MROC 012200Z 23004KT 7000 VCFG SCT008 BKN120 23/21 A2993 NOSIG=
200511012300 METAR MROC 012300Z 24006KT 3000 BR FEW001 SCT006 BKN120 22/21 A2995 BECMG 1500 BR=
200511020000 METAR MROC 020000Z 22003KT 3000 BR FEW003 BKN012 21/21 A2998 NOSIG=
200511020100 METAR MROC 020100Z 00000KT 3000 BR FEW003 BKN012 21/21 A3001 RMK 5000E BR NOSIG=
200511020200 METAR MROC 020200Z 00000KT 3000 BR FEW003 BKN012 21/21 A3002 RMK 5000E BR NOSIG=
200511020300 METAR MROC 020300Z 00000KT 4000 BR FEW003 BKN020 21/20 A3004 NOSIG=
200511020400 METAR MROC 020400Z 00000KT 3000 BR FEW002 BKN020 21/20 A3003 BECMG 5000 BR=
200511020420 SPECI MROC 020420Z 00000KT 3000 BR FEW002 BKN020 21/20 A3003 BECMG 5000 BR=
200511020500 METAR MROC 020500Z 00000KT 7000 VCFG FEW004 SCT020 20/20 A3001 NOSIG=
200511020600 METAR MROC 020600Z 01003KT 8000 FEW004 SCT020 20/19 A2999 NOSIG=
200511020700 METAR MROC 020700Z 00000KT 9999 SCT030 19/18 A2998=
200511020800 METAR MROC 020800Z 06007KT 9999 SCT030 21/18 A2996 NOSIG=
200511020900 METAR MROC 020900Z 09004KT 9999 SCT030 19/18 A2995 NOSIG=
200511021000 METAR MROC 021000Z 04004KT 9999 SCT035 20/18 A2995 NOSIG=
200511021100 METAR MROC 021100Z 05006KT 9999 SCT030 20/18 A2996 NOSIG=
200511021200 METAR MROC 021200Z 08004KT 9999 SCT030 BKN120 20/18 A2998 NOSIG=
200511021300 METAR MROC 021300Z 36004KT 9999 FEW030 BKN250 21/18 A3001 NOSIG=
200511021400 METAR MROC 021400Z 04003KT 9999 FEW035 BKN250 23/19 A3003 NOSIG=
200511021500 METAR MROC 021500Z 04008KT 9999 -RA FEW035 SCT120 BKN250 23/19 A3005 NOSIG=
200511021600 METAR MROC 021600Z 07003KT 9999 -RA FEW040 SCT120 BKN250 22/19 A3005 RMK 5000E RA NOSIG=
200511021700 METAR MROC 021700Z 09003KT 9999 RA FEW040 BKN120 21/20 A3003 RMK 5000E RA NOSIG=
200511021800 METAR MROC 021800Z 04004KT 9999 -RA FEW035 BKN120 21/19 A3001 NOSIG=
200511021900 METAR MROC 211900Z 30003KT 9999 -RA FEW020 BKN100 21/19 A2999 RMK 7000SW VCFG NOSIG=
200511022000 METAR MROC 022000Z 05006KT 9999 -RA BKN120 21/19 A2996 NOSIG=
200511022100 METAR MROC 022100Z 01006KT 9999 -RA OVC120 21/19 A2994 NOSIG=
200511022200 METAR MROC 022200Z 00000KT 9999 -RA OVC120 21/19 A2994 NOSIG=
200511022300 METAR MROC 022300Z 13003KT 9999 DZ FEW025 OVC120 20/20 A2995 NOSIG=
200511030000 METAR MROC 030000Z 03003KT 9999 FEW030 OVC120 21/19 A2997 NOSIG=
200511030100 METAR MROC 030100Z 08004KT 9999 FEW030 SCT100 20/18 A3001=
200511030200 METAR MROC 030200Z 06004KT 9999 FEW035 SCT120 19/18 A3003=
200511030300 METAR MROC 030300Z 08005KT CAVOK 20/17 A3004=
200511030400 METAR MROC 030400Z 05005KT CAVOK 19/18 A3004=
200511030500 METAR MROC 030500Z 10003KT CAVOK 20/17 A3003=
200511030600 METAR MROC 030600Z 04003KT CAVOK 19/17 A3002=
200511030700 METAR MROC 030700Z 00000KT CAVOK 19/17 A3000=
200511030813 METAR MROC 030813Z 00000KT CAVOK 19/17 A2998=
200511030900 METAR MROC 030900Z 00000KT CAVOK 18/17 A2999=
200511031000 METAR MROC 031000Z 08005KT CAVOK 19/17 A2997=
200511031100 METAR MROC 031100Z 09008KT CAVOK 20/17 A2999=
200511031200 METAR MROC 031200Z 09006KT 9999 FEW020 SCT100 21/18 A3001=
200511031300 METAR MROC 031300Z 07006KT 9999 FEW025 BKN120 21/18 A3003 NOSIG=
200511031400 METAR MROC 031400Z 04005KT 9999 FEW030 BKN100 22/18 A3004 NOSIG=
200511031500 METAR MROC 031500Z 02003KT 9999 FEW025 BKN070 23/18 A3005 NOSIG=
200511031600 METAR MROC 031600Z 09006KT 9999 FEW025 SCT070 BKN120 23/19 A3004 NOSIG=
200511031700 METAR MROC 031700Z 04003KT 9999 -RA FEW025 OVC100 23/19 A3003 NOSIG=
200511031800 METAR MROC 031800Z 13004KT 9999 DZ FEW030 OVC100 22/20 A3002 NOSIG=
200511031900 METAR MROC 031900Z 22005KT 9999 -RA FEW020 SCT040 BKN100 21/20 A3001 BECMG 7000 -RA VCFG=
200511032000 METAR MROC 032000Z 27004KT 5000 -RA BR FEW003 SCT015 BKN100 21/20 A2999 BECMG 3000=
200511032100 METAR MROC 032100Z 23003KT 5000 -RA BR FEW005 SCT012 OVC100 20/20 A2998 RMK VSBY S UNL NOSIG=
200511032200 METAR MROC 032200Z 00000KT 5000 RA BR FEW005 SCT035 OVC100 21/20 A2997 RMK VSBY S SE UNL NOSIG=
200511040000 METAR MROC 040000Z 32004KT 9999 -RA SCT030 OVC100 20/20 A2998 RMK VSBY SW 6KM NOSIG=
200511040100 METAR MROC 040100Z 00000KT CAVOK 20/19 A2999 NOSIG=
200511040200 METAR MROC 040200Z 03004KT CAVOK 20/19 A3001 NOSIG=
200511040300 METAR MROC 040300Z 09003KT CAVOK 21/17 A3004 NOSIG=
200511040400 METAR MROC 040400Z 03005KT CAVOK 20/19 A3004 NOSIG=
200511040500 METAR MROC 040500Z 24003KT 9999 FEW003 BKN100 20/19 A3004 NOSIG=
200511040600 METAR MROC 040600Z 00000KT CAVOK 19/19 A3002 NOSIG=
200511040700 METAR MROC 040700Z 01005KT CAVOK 20/18 A2999 NOSIG=
200511040800 METAR MROC 040800Z 04004KT CAVOK 19/18 A2997 NOSIG=
200511040900 METAR MROC 040900Z 07011KT CAVOK 19/18 A2994 NOSIG=
200511041000 METAR MROC 041000Z 08013KT CAVOK 20/17 A2992 NOSIG=
200511041100 METAR MROC 041100Z 08011KT CAVOK 20/17 A2994 NOSIG=
200511041200 METAR MROC 041200Z 11006KT CAVOK 20/17 A2996 RMK DZ DST NE=
200511041300 METAR MROC 041300Z 04004KT CAVOK 21/17 A2999 NOSIG=
200511041400 METAR MROC 041400Z 08003KT CAVOK 22/18 A3000 NOSIG=
200511041500 METAR MROC 041500Z 07003KT 9999 FEW030 BKN120 25/19 A3002 NOSIG=
200511041600 METAR MROC 041600Z 11008KT 9999 FEW030 BKN120 26/19 A3001 NOSIG=
200511041700 METAR MROC 041700Z 28004KT 9999 SCT040 BKN270 25/20 A2998 NOSIG=
200511041800 METAR MROC 041800Z 22006KT 9999 SCT030 SCT280 27/21 A2995 NOSIG=
200511041900 METAR MROC 041900Z 23010KT 9999 FEW015CB SCT035 SCT280 25/21 A2993 BECMG RMK CB/RN S NW N=
200511042000 METAR MROC 042000Z 23011KT 5000 -TSRA SCT010CB BKN030 20/19 A2994 RMK VSBY SE E UNL VSBY N 3KM DUE RASH NOSIG=
200511042100 METAR MROC 042100Z 00000KT 8000 -RA SCT008 OVC100 20/19 A2994 NOSIG=
200511042200 METAR MROC 042200Z 27004KT 8000 3000SW -RA BR FEW002 SCT005 OVC100 20/20 A2995 NOSIG=
200511042300 METAR MROC 042300Z 25003KT 3000 -RA BR FEW002 SCT005 OVC100 20/19 A2997 NOSIG=
200511050000 METAR MROC 050000Z 00000KT 6000 FEW007 SCT015 OVC100 20/19 A2999 NOSIG=
200511050100 METAR MROC 050100Z 07004KT 9999 -DZ SCT035 OVC100 20/19 A2998 NOSIG=
200511050200 METAR MROC 050200Z 06006KT 9999 FEW040 BKN100 20/18 A2998 NOSIG=
200511050300 METAR MROC 050300Z 00000KT CAVOK 20/18 A2999 NOSIG=
200511050400 METAR MROC 050400Z 00000KT CAVOK 20/18 A3000 BECMG 24004KT 3000SW BR RMK DVLPNG FG TO S SSW=
200511050500 METAR MROC 050500Z 00000KT 9999 FEW002 BKN120 19/19 A2999 BECMG RMK VIS SSW SW 7KMS DUE LOW ST=
200511050600 METAR MROC 050600Z 05007KT CAVOK 19/18 A2996 NOSIG=
200511050700 METAR MROC 050700Z 00000KT CAVOK 19/18 A2994 NOSIG=
200511050800 METAR MROC 050800Z 00000KT 9999 FEW005 BKN120 20/18 A2993 BECMG RMK DVLPNG FG TO S SSW TEND WIND WNW=
200511050900 METAR MROC 050900Z 00000KT 9999 FEW005 BKN120 19/18 A2992 BECMG RMK THING FG TO S SSW TEND WIND SSE=
200511051000 METAR MROC 051000Z 06003KT 9999 FEW008 BKN120 18/17 A2992 NOSIG=
200511051100 METAR MROC 051100Z 07003KT 9999 FEW030 BKN120 17/17 A2992 BECMG CAVOK=
200511051200 METAR MROC 051200Z 06003KT CAVOK 17/16 A2993 NOSIG=
200511051300 METAR MROC 051300Z 00000KT CAVOK 20/17 A2995 NOSIG=
200511051400 METAR MROC 051400Z 01004KT CAVOK 23/18 A2997 NOSIG=
200511051500 METAR MROC 051500Z 00000KT CAVOK 25/19 A2997 BECMG 24006KT=
200511051600 METAR MROC 051600Z 11005KT 9999 FEW040 27/18 A2996 NOSIG=
200511051700 METAR MROC 051700Z 20006KT 9999 SCT040 27/21 A2994 NOSIG=
200511051800 METAR MROC 051800Z 23007KT 9999 SCT035 27/20 A2993 NOSIG=
200511051900 METAR MROC 051900Z 22010KT 9999 SCT025TCU 26/21 A2989 NOSIG=
200511052000 METAR MROC 052000Z 23012KT 9999 FEW010CB SCT025 26/22 A2987 BECMG 3000 SHRA=
200511052100 METAR MROC 052100Z 24007KT 5000SW BR SCT005 BKN020 22/21 A2988=
200511052200 METAR MROC 052200Z 12003KT 1500 -TSRA SCT003 SCT015 20/19 A2991=
200511052300 METAR MROC 052300Z 00000KT 8000 -RA FEW015 BKN090 20/19 A2991=
200511060000 METAR MROC 060000Z 00000KT 9999 DZ FEW010 BKN100 20/19 A2991=
200511060100 METAR MROC 060100Z 00000KT 9999 FEW030 20/19 A2992 RERA=
200511060200 METAR MROC 060200Z 07004KT CAVOK 19/19 A2995=
200511060300 METAR MROC 060300Z 03004KT CAVOK 20/18 A2995 NOSIG=
200511060400 METAR MROC 060400Z 00000KT CAVOK 20/18 A2995 NOSIG=
200511060500 METAR MROC 060500Z VRB03KT CAVOK 19/18 A2995 NOSIG=
200511060600 METAR MROC 060600Z 03004KT CAVOK 18/18 A2994 NOSIG=
200511060700 METAR MROC 060700Z 01006KT CAVOK 19/17 A2992 NOSIG=
200511060800 METAR MROC 060800Z 00000KT CAVOK 19/18 A2993 NOSIG=
200511060900 METAR MROC 060900Z 00000KT CAVOK 19/17 A2992 NOSIG=
200511061000 METAR MROC 061000Z 06005KT CAVOK 19/17 A2992 NOSIG=
200511061100 METAR MROC 061100Z 06007KT CAVOK 19/17 A2992 NOSIG=
200511061200 METAR MROC 061200Z 04008KT 9999 FEW020 19/17 A2994 BECMG RMK CB DST S=
200511061300 METAR MROC 061300Z 02005KT CAVOK 22/18 A2996=
200511061400 METAR MROC 061400Z 08006KT CAVOK 25/19 A2998=
200511061500 METAR MROC 061500Z 09009KT 9999 FEW025 SCT180 26/19 A2998=
200511061600 METAR MROC 061600Z 09010KT 9999 FEW025 SCT200 27/19 A2996=
200511061700 METAR MROC 061700Z 08007KT 9999 FEW030 28/18 A2994=
200511061800 METAR MROC 061800Z 10008KT 9999 SCT030 29/19 A2991=
200511061900 METAR MROC 061900Z 07009KT 9999 FEW025TCU SCT040 29/19 A2989=
200511062000 METAR MROC 062000Z 09006KT 9000 SCT015TCU SCT035 27/18 A2986=
200511062100 METAR MROC 062100Z 26010KT 9999 4000SW VCFG FEW003 SCT015CB SCT025 23/21 A2987 BECMG 2000SW -TSRA=
200511062200 METAR MROC 062200Z 27006KT 9999 2000SW VCSH BR FEW003 BKN020 22/21 A2989 NOSIG=
200511062300 METAR MROC 062300Z 00000KT 7000 VCFG FEW005 SCT025 BKN250 22/21 A2989 BECMG RMK 9999E=
200511070200 METAR MROC 070200Z 03004KT CAVOK 21/18 A2994 NOSIG=
200511070300 METAR MROC 070300Z 11008KT CAVOK 21/18 A2996 NOSIG=
200511070400 METAR MROC 070400Z 09008KT CAVOK 21/17 A2996 NOSIG=
200511070500 METAR MROC 070500Z 09008KT CAVOK 22/15 A2994 NOSIG=
200511070600 METAR MROC 070600Z 09006KT CAVOK 21/15 A2993 NOSIG=
200511070900 METAR MROC 070900Z 09003KT CAVOK 20/16 A2988 NOSIG=
200511071000 METAR MROC 071000Z 33003KT CAVOK 29/15 A2989 NOSIG=
200511071100 METAR MROC 071100Z 01005KT CAVOK 19/15 A2992 NOSIG=
200511071200 METAR MROC 071200Z 10005KT CAVOK 19/15 A2995 NOSIG=
200511071300 METAR MROC 071300Z 08006KT CAVOK 24/16 A2996 NOSIG=
200511071400 METAR MROC 071400Z 10010KT CAVOK 24/17 A2996 NOSIG=
200511071500 METAR MROC 071500Z 09013KT CAVOK 26/18 A2996 NOSIG=
200511071600 METAR MROC 071600Z 09013KT 9999 SCT025 BKN250 26/18 A2997 NOSIG=
200511071700 METAR MROC 071700Z 10015KT 9999 SCT030 BKN250 26/19 A2995 NOSIG=
200511071800 METAR MROC 071800Z 08012KT 9999 FEW030 BKN250 25/17 A2994 NOSIG=
200511071900 METAR MROC 071900Z 09012KT 9999 FEW035 BKN250 25/16 A2990 NOSIG=
200511072000 METAR MROC 072000Z 07006KT CAVOK 25/17 A2989 NOSIG=
200511072100 METAR MROC 072100Z 12005KT 9999 FEW035 SCT120 BKN170 25/16 A2989 NOSIG=
200511072200 METAR MROC 072200Z 10004KT 9999 FEW035 SCT120 BKN170 23/17 A2990 BECMG 24005KT 7000 VCFG RMK LOW ST DIST TO SSW SW=
200511072300 METAR MROC 072300Z 06008KT 9999 FEW030 SCT120 BKN170 22/17 A2991 NOSIG=
200511080000 METAR MROC 080000Z 08006KT CAVOK 21/17 A2992 NOSIG=
200511080100 METAR MROC 080100Z 05007KT CAVOK 21/17 A2994 NOSIG=
200511080200 METAR MROC 080200Z 08009KT CAVOK 21/17 A2994=
200511080300 METAR MROC 080300Z 08009KT CAVOK 21/16 A2994=
200511080400 METAR MROC 080400Z 09009KT CAVOK 22/16 A2994=
200511080500 METAR MROC 080500Z 08007KT CAVOK 21/16 A2993=
200511080600 METAR MROC 080600Z 10005KT CAVOK 21/17 A2993=
200511080800 METAR MROC 080800Z 06003KT 9999 FEW020 SCT090 20/16 A2990 RMK CB S=
200511080900 METAR MROC 080900Z 11006KT CAVOK 20/17 A2988=
200511081000 METAR MROC 081000Z 10009KT CAVOK 21/17 A2989=
200511081100 METAR MROC 081100Z 09007KT 9999 FEW030 SCT150 21/17 A2991=
200511081200 METAR MROC 081200Z 08005KT 9999 -DZ SCT015 SCT090 21/17 A2994=
200511081300 METAR MROC 081300Z 06007KT 9999 SCT035 SCT100 BKN250 23/18 A2995 NOSIG=
200511081400 METAR MROC 081400Z 09011KT 9999 SCT035 SCT100 BKN250 24/19 A2997 RMK RN DIST E BECMG 7000 -RA=
200511081500 METAR MROC 081500Z 10013KT 5000 RA SCT030 BKN080 21/19 A2999 BECMG 3000 RMK VIS S UNLTD=
200511081600 METAR MROC 081600Z 09007KT 7000 -RA SCT035 BKN100 20/19 A3000 BECMG RMK VIS SE/ S UNLTD=
200511081700 METAR MROC 081700Z 08005KT 9999 -RA FEW035 BKN100 21/20 A2997 NOSIG=
200511081800 METAR MROC 081800Z 09012KT 9999 FEW035 BKN100 24/19 A2993 NOSIG=
200511081900 METAR MROC 081900Z 10011KT 9999 FEW030 BKN100 23/18 A2991 NOSIG=
200511082000 METAR MROC 082000Z 08012KT 9999 FEW030 BKN100 23/17 A2989 BECMG RMK RN DST E/SE=
200511082100 METAR MROC 082100Z 10016KT 9999 FEW030 SCT080 BKN130 23/17 A2988 NOSIG=
200511082200 METAR MROC 082200Z 10010KT 9999 -RA FEW020 SCT080 BKN130 22/18 A2991 NOSIG=
200511082300 METAR MROC 082300Z 10009KT 9999 -RA FEW030 OVC140 21/18 A2993 NOSIG=
200511090000 METAR MROC 090000Z 09008KT 9999 FEW025 SCT140 OVC250 21/17 A2993 NOSIG=
200511090100 METAR MROC 090100Z 10009KT 9999 FEW025 SCT090 OVC250 21/18 A2997 NOSIG=
200511090200 METAR MROC 090200Z 09008KT 9999 FEW025 SCT090 OVC250 21/18 A2999 NOSIG=
200511090300 METAR MROC 090300Z 10009KT CAVOK 21/18 A3000 NOSIG=
200511090400 METAR MROC 090400Z 03006KT CAVOK 21/18 A3001 NOSIG=
200511090500 METAR MROC 090500Z 02004KT CAVOK 20/17 A2999 NOSIG=
200511090600 METAR MROC 090600Z 01003KT CAVOK 20/17 A2998 NOSIG=
200511090700 METAR MROC 090700Z 02007KT CAVOK 19/17 A2995 NOSIG=
200511090800 METAR MROC 090800Z 02009KT CAVOK 20/17 A2994 NOSIG=
200511090900 METAR MROC 090900Z 02006KT CAVOK 18/16 A2994 NOSIG=
200511091000 METAR MROC 191000Z 06005KT CAVOK 20/17 A2993 NOSIG=
200511091100 METAR MROC 091100Z 04006KT CAVOK 20/17 A2995 NOSIG=
200511091200 METAR MROC 091200Z 03007KT CAVOK 20/17 A2997 NOSIG=
200511091300 METAR MROC 091300Z 08006KT CAVOK 23/18 A2998 NOSIG=
200511091400 METAR MROC 091400Z 09005KT 9999 SCT030 25/18 A2999 NOSIG=
200511091500 METAR MROC 091500Z 10011KT 9999 FEW030 SCT100 27/19 A2999 NOSIG=
200511091600 METAR MROC 091600Z 09008KT 9999 FEW035 SCT280 29/19 A2998 NOSIG=
200511091700 METAR MROC 091700Z 06013KT 9999 FEW035 SCT280 28/19 A2997 NOSIG=
200511091800 METAR MROC 091800Z 08013KT 9999 -RA FEW035 SCT080 26/17 A2994 NOSIG=
200511091900 METAR MROC 091900Z 08012KT 9999 FEW035 BKN100 26/18 A2991 RMK RN NW N NE NOSIG=
200511092000 METAR MROC 092000Z 08012KT 9999 -RA FEW035 BKN120 25/19 A2990 NOSIG=
200511092100 METAR MROC 092100Z 08012KT 9999 -RA FEW030 BKN120 23/17 A2989 NOSIG=
200511092200 METAR MROC 092200Z 09013KT 9999 FEW030 BKN120 23/17 A2989 NOSIG=
200511092300 METAR MROC 092300Z 08009KT 9000 -RA SCT030 BKN120 22/18 A2991 NOSIG=
200511100000 METAR MROC 100000Z 09010KT 9999 SCT030 BKN120 21/18 A2993 NOSIG=
200511100100 METAR MROC 100100Z 04003KT 9999 SCT032 BKN120 22/18 A2995 NOSIG=
200511100200 METAR MROC 100200Z 08008KT 9999 FEW035 BKN130 22/19 A2997 NOSIG=
200511100300 METAR MROC 100300Z 10006KT 9999 FEW035 BKN120 22/19 A2998 NOSIG=
200511100400 METAR MROC 100400Z 05003KT 9999 FEW035 BKN120 22/18 A2998 NOSIG=
200511100500 METAR MROC 100500Z 13003KT 9999 FEW035 BKN120 21/19 A2998 BECMG 24004KT 3000SW RMK DVLPNG FG TO S SSW=
200511100600 METAR MROC 100600Z 07003KT 9999 -RA FEW003 SCT030 BKN100 20/19 A2997 BECMG RMK VIS SSW 5KMS DUE LOW ST=
200511100700 METAR MROC 100700Z 00000KT 9999 FEW030 BKN100 20/19 A2994 RERA BECMG RMK LTNG DST S/ SSW=
200511100800 METAR MROC 100800Z 00000KT 9999 FEW030 BKN120 20/19 A2993 NOSIG=
200511100900 METAR MROC 100900Z 00000KT 9999 FEW030 BKN120 20/19 A2992 NOSIG=
200511101000 METAR MROC 101000Z 06004KT CAVOK 19/18 A2998 NOSIG=
200511101100 METAR MROC 101100Z 04006KT CAVOK 20/18 A2992 NOSIG=
200511101200 METAR MROC 101200Z 05006KT 9999 FEW030 BKN070 21/18 A2994 BECMG -RA RMK RN DST ENE NE=
200511101300 METAR MROC 101300Z 08004KT 9999 SCT030 BKN080 21/20 A2997 REDZ BECMG RMK RN DIST N=
200511101400 METAR MROC 101400Z 07005KT 9999 FEW030 BKN100 24/20 A2999 NOSIG=
200511101500 METAR MROC 101500Z 05007KT 9999 RA SCT030 BKN100 22/20 A3001 BECMG -RA=
200511101600 METAR MROC 101600Z 11003KT 9999 FEW030 SCT120 24/20 A2999 NOSIG=
200511101700 METAR MROC 101700Z 06007KT 9999 SCT030 SCT120 26/19 A2996 NOSIG=
200511101800 METAR MROC 101800Z 09007KT 9999 -RA SCT030 BKN120 24/21 A2994 NOSIG=
200511101900 METAR MROC 101900Z 29005KT 7000 -RA SCT030 BKN120 26/19 A2991 BECMG 6000 RA=
200511102000 METAR MROC 102000Z 11005KT 7000 -RA SCT030 BKN120 21/20 A2990 NOSIG=
200511102100 METAR MROC 102100Z 08003KT 9999 DZ SCT025 BKN100 21/20 A2989=
200511102200 METAR MROC 102200Z 05003KT 9999 SCT030 SCT100 22/19 A2989=
200511102300 METAR MROC 102300Z 07008KT 9999 FEW030 BKN120 22/18 A2989=
200511110000 METAR MROC 110000Z 10006KT 9999 DZ FEW025 SCT120 21/19 A2993=
200511110100 METAR MROC 110100Z 04006KT 9999 DZ FEW015 BKN100 20/18 A2995=
200511110200 METAR MROC 110200Z 03005KT 9999 -RA FEW020 OVC100 20/18 A2999=
200511110300 METAR MROC 110300Z 06008KT 9999 RA FEW030 OVC100 20/18 A2999 NOSIG=
200511110400 METAR MROC 110400Z 08006KT 9999 -RA FEW030 OVC100 20/19 A2999 NOSIG=
200511110500 METAR MROC 110500Z 07006KT 9999 -RA FEW030 OVC100 19/18 A2997 NOSIG=
200511110600 METAR MROC 110600Z 07004KT 9999 -RA FEW035 OVC100 19/18 A2996 NOSIG=
200511110700 METAR MROC 110700Z 05004KT 9999 -RA FEW030 OVC100 19/18 A2994 NOSIG=
200511110800 METAR MROC 110800Z 03004KT 9999 FEW030 OVC100 19/18 A2992 NOSIG=
200511110900 METAR MROC 110900Z 05005KT CAVOK 19/18 A2989 NOSIG=
200511111000 METAR MROC 111000Z 06006KT CAVOK 19/18 A2992 NOSIG=
200511111100 METAR MROC 111100Z 09003KT 9999 -RA FEW025 OVC100 19/17 A2994 NOSIG=
200511111200 METAR MROC 111200Z 06008KT 9999 -RA FEW025 OVC100 20/17 A2995 NOSIG=
200511111300 METAR MROC 111300Z 06007KT 9999 FEW030 BKN150 20/17 A2996=
200511111400 METAR MROC 111400Z 09014KT 9999 FEW030 SCT150 21/17 A2997=
200511111500 METAR MROC 111500Z 09013KT 9999 FEW030 SCT150 22/18 A2998=
200511111600 METAR MROC 111600Z 08010KT 9999 DZ FEW030 BKN150 22/19 A2998=
200511111700 METAR MROC 111700Z 06005KT 9999 DZ FEW025 BKN120 21/19 A2997=
200511111800 METAR MROC 111800Z 09006KT 9999 DZ FEW020 BKN120 21/19 A2995=
200511111900 METAR MROC 111900Z 09005KT 9999 FEW025 BKN150 22/19 A2992=
200511112000 METAR MROC 112000Z 08007KT 9999 DZ FEW030 OVC120 23/19 A2990 NOSIG=
200511112100 METAR MROC 112100Z 10004KT 9999 SCT030 BKN100 22/19 A2989 RMK RN DST ARND BECMG RA=
200511112200 METAR MROC 112200Z 09007KT 9999 FEW030 OVC100 21/18 A2990 RMK RN DST NE NOSIG=
200511112300 METAR MROC 112300Z 10005KT 9999 FEW030 BKN120 21/18 A2992 NOSIG=
200511120000 METAR MROC 120000Z 08005KT 9999 FEW035 BKN120 20/18 A2994 RMK DZ DST NE NOSIG=
200511120100 METAR MROC 120100Z 05005KT 9999 FEW030 SCT120 BKN250 21/17 A2997 NOSIG=
200511120200 METAR MROC 120200Z 09003KT CAVOK 20/18 A2998 NOSIG=
200511120300 METAR MROC 120300Z 07004KT CAVOK 20/18 A3000 NOSIG=
200511120400 METAR MROC 120400Z 08004KT CAVOK 20/17 A2999 NOSIG=
200511120500 METAR MROC 120500Z 08005KT CAVOK 20/17 A2998 NOSIG=
200511120600 METAR MROC 120600Z 04006KT CAVOK 19/17 A2994 NOSIG=
200511120700 METAR MROC 120700Z 04008KT CAVOK 20/17 A2993 NOSIG=
200511120800 METAR MROC 120800Z 05008KT CAVOK 19/17 A2991 NOSIG=
200511120900 METAR MROC 120900Z 03003KT CAVOK 20/17 A2991 NOSIG=
200511121000 METAR MROC 121000Z 01008KT CAVOK 20/17 A2992 NOSIG=
200511121100 METAR MROC 121100Z 06004KT CAVOK 19/17 A2994 NOSIG=
200511121200 METAR MROC 121200Z 01006KT CAVOK 19/19 A2995 NOSIG=
200511121300 METAR MROC 121300Z 03004KT CAVOK 19/17 A2996 NOSIG=
200511121400 METAR MROC 121400Z 36005KT CAVOK 23/18 A2999 NOSIG=
200511121500 METAR MROC 121500Z 11007KT CAVOK 25/19 A2998 NOSIG=
200511121600 METAR MROC 121600Z 11010KT CAVOK 26/18 A2997 NOSIG=
200511121700 METAR MROC 121700Z 11006KT 9999 FEW040 BKN120 27/19 A2996 NOSIG=
200511121800 METAR MROC 121800Z 22010KT 9999 SCT025TCU SCT120 24/20 A2994 NOSIG=
200511121900 METAR MROC 121900Z 22010KT 9999 SCT020CB BKN030 24/20 A2992 RMK RN DST NNE BECMG 7000 VCSH=
200511122000 METAR MROC 122000Z 36005KT 6000 1200E +TSRA BKN010CB SCT020 24/19 A2990 BECMG 2000 TSRA=
200511122100 METAR MROC 122100Z 00000KT 9999 -RA FEW010 SCT020 BKN120 20/19 A2990 BECMG 5000 RMK VIS S SSW 5KMS=
200511122200 METAR MROC 122200Z 00000KT 9999 FEW010 SCT030 BKN100 21/20 A2992 RERA NOSIG=
200511122300 METAR MROC 122300Z 00000KT 9999 -RA FEW004 SCT030 BKN100 21/20 A2993 BECMG 7000 VCFG=
200511130000 METAR MROC 130000Z 05007KT 9999 FEW030 BKN120 21/18 A2996 NOSIG=
200511130100 METAR MROC 130100Z 09006KT CAVOK 20/17 A2998 NOSIG=
200511130200 METAR MROC 130200Z 07006KT CAVOK 21/17 A3001 NOSIG=
200511130300 METAR MROC 130300Z 07006KT CAVOK 21/18 A3001 NOSIG=
200511130400 METAR MROC 130400Z 07006KT CAVOK 21/20 A3000 NOSIG=
200511130700 METAR MROC 130700Z 00000KT CAVOK 19/17 A2995 NOSIG=
200511130800 METAR MROC 130800Z 23005KT 8000 FEW004 18/17 A2994 NOSIG=
200511130900 METAR MROC 130900Z 34004KT 9999 5000SW BR FEW004 17/17 A2994 NOSIG=
200511131000 METAR MROC 131000Z 03004KT 9999 6000SW VCFG FEW004 17/16 A2995 NOSIG=
200511131100 METAR MROC 131100Z 05007KT CAVOK 18/16 A2996 NOSIG=
200511131200 METAR MROC 131200Z 04008KT CAVOK 19/16 A2997 NOSIG=
200511131300 METAR MROC 131300Z 02007KT CAVOK 21/16 A2999 NOSIG=
200511131400 METAR MROC 131400Z 06004KT CAVOK 24/17 A3000 BECMG RMK CB DST S=
200511131500 METAR MROC 131500Z 23006KT 9999 FEW025 24/19 A3002 NOSIG=
200511131600 METAR MROC 131600Z 24007KT 9999 FEW030 24/19 A3002 NOSIG=
200511131700 METAR MROC 131700Z 24008KT 9999 FEW030 25/20 A3000 NOSIG=
200511131800 METAR MROC 131800Z 25009KT 9999 SCT025 SCT250 25/20 A2998 BECMG 6000=
200511131900 METAR MROC 131900Z 25009KT 9999 FEW020TCU BKN030 25/20 A2995 NOSIG=
200511132000 METAR MROC 132000Z 23008KT 9999 FEW015TCU BKN030 23/20 A2993 BECMG 5000 RA RMK RN NEAR TO SE S=
200511132100 METAR MROC 132100Z 23007KT 7000 RA SCT010 SCT030 BKN120 22/21 A2992 RMK VSBY SE S SW UNL BECMG 5000 -RA=
200511132200 METAR MROC 132200Z 22005KT 6000 VCFG FEW006 BKN010 21/21 A2992 RMK VSBY SE S UNL VSY N 4KM NOSIG=
200511132300 METAR MROC 132300Z 22005KT 0200 -DZ FG VV/// 20/20 A2994 BECMG 2000=
200511140000 METAR MROC 140000Z 18003KT 1000 BR SCT001 SCT005 20/20 A2996=
200511140012 METAR MROC 140012Z VRB02KT 1500 BR SCT001 SCT005 20/20 A2996 BECMG 2500 BR=
200511140100 METAR MROC 140100Z 25005KT 0500 FG BKN001 SCT005 20/20 A2998 BECMG 1200 BR=
200511140200 METAR MROC 140200Z 29003KT 6000 VCFG SCT005 BKN120 20/19 A2999 RMK RMK VSBY E SE S UNL BECMG 9999=
200511140300 METAR MROC 140300Z 00000KT 9999 FEW005 SCT120 BKN250 20/19 A3000 NOSIG=
200511140400 METAR MROC 140400Z 07005KT 9999 FEW015 BKN120 20/19 A3000 NOSIG=
200511140500 METAR MROC 140500Z 00000KT CAVOK 20/18 A2998 NOSIG=
200511140600 METAR MROC 140600Z 08006KT 9999 +DZ OVC100 21/18 A2997 NOSIG=
200511140700 METAR MROC 140700Z 07006KT 9999 FEW030 BKN110 20/18 A2995 NOSIG=
200511140800 METAR MROC 140800Z 09017KT 9999 FEW030 BKN120 21/18 A2993 NOSIG=
200511140900 METAR MROC 140900Z 02007KT 9999 FEW030 BKN120 20/18 A2992 NOSIG=
200511141000 METAR MROC 141000Z 05008KT 9999 FEW030 BKN120 20/18 A2993 NOSIG=
200511141100 METAR MROC 141100Z 05005KT 9999 FEW030 BKN120 19/18 A2994 BECMG CAVOK=
200511141200 METAR MROC 141200Z 04004KT 9999 FEW025 SCT120 21/18 A2996 NOSIG=
200511141300 METAR MROC 141300Z 06005KT 9999 FEW025 BKN090 23/19 A2998 RMK DZ NE NOSIG=
200511141400 METAR MROC 141400Z 03006KT 9999 FEW025 SCT100 25/19 A3000 NOSIG=
200511141500 METAR MROC 141500Z 09011KT 9999 FEW025 BKN100 25/18 A2999 NOSIG=
200511141600 METAR MROC 141600Z 07013KT 9999 FEW025 SCT120 26/18 A2997 NOSIG=
200511141700 METAR MROC 141700Z 10011KT 9999 FEW025 BKN120 27/18 A2996 NOSIG=
200511141800 METAR MROC 141800Z 11009KT 9999 FEW025 BKN100 26/19 A2993 NOSIG=
200511141900 METAR MROC 141900Z 12007KT 9999 FEW015 BKN025 24/18 A2990 BECMG 8000 RA=
200511142000 METAR MROC 142000Z 10008KT 9999 FEW020 SCT035 BKN120 23/19 A2989 RMK RN E NOSIG=
200511142100 METAR MROC 142100Z 22007KT 9999 SCT020 BKN120 23/20 A2989 BECMG 7000=
200511142200 METAR MROC 142200Z 22008KT 9999 SCT015 BKN100 21/20 A2991 NOSIG=
200511142300 METAR MROC 142300Z 00000KT 9999 -RA FEW010 BKN100 21/19 A2991 NOSIG=
200511150000 METAR MROC 150000Z 00000KT 9999 FEW005 BKN100 20/19 A2992 NOSIG=
200511150100 METAR MROC 150100Z 00000KT 9999 FEW005 BKN100 21/20 A2995 NOSIG=
200511150200 METAR MROC 150200Z 00000KT 9999 FEW005 BKN1000 21/20 A2998 NOSIG=
200511150300 METAR MROC 150300Z 00000KT 9999 FEW030 BKN100 20/19 A2998 NOSIG=
200511150400 METAR MROC 150400Z 08005KT CAVOK 21/18 A2997 NOSIG=
200511150500 METAR MROC 150500Z 08006KT CAVOK 21/18 A2996 NOSIG=
200511150600 METAR MROC 150600Z 00000KT CAVOK 20/18 A2994 NOSIG=
200511150700 METAR MROC 150700Z 06006KT CAVOK 20/18 A2993 NOSIG=
200511150800 METAR MROC 150800Z 05006KT CAVOK 20/18 A2990 NOSIG=
200511150900 METAR MROC 150900Z 08005KT 9999 FEW035 BKN100 20/18 A2988 BECMG 4000SW BR RMK FG BANK VIS 7KMS TO S SSW=
200511151100 METAR MROC 151100Z 08003KT 9999 DZ FEW035 BKN100 20/18 A2989 NOSIG=
200511151200 METAR MROC 151200Z 09003KT 9999 FEW035 SCT100 BKN250 20/18 A2991 BECMG RMK RN DIST OVER MNTNS TO E/NE/N=
200511151300 METAR MROC 151300Z 08004KT 9999 SCT030 BKN100 22/18 A2994 NOSIG=
200511151400 METAR MROC 151400Z 11008KT 9999 SCT030 BKN110 23/18 A2995 NOSIG=
200511151500 METAR MROC 151500Z 13006KT 9999 FEW030 BKN110 24/18 A2996 NOSIG=
200511151600 METAR MROC 151600Z 10009KT 9999 -RA FEW030 BKN110 23/19 A2996 NOSIG=
200511151700 METAR MROC 151700Z 08005KT 9999 -RA FEW030 BKN110 24/19 A2995 NOSIG=
200511151800 METAR MROC 151800Z 08008KT 9999 FEW030 BKN110 25/19 A2992 NOSIG=
200511151900 METAR MROC 151900Z 10007KT 9999 FEW030 BKN110 25/19 A2989 NOSIG=
200511152000 METAR MROC 152000Z 09008KT 9999 FEW030 BKN110 24/18 A2987 NOSIG=
200511152100 METAR MROC 152100Z 13004KT 9999 FEW030 SCT100 BKN200 24/18 A2987=
200511152200 METAR MROC 152200Z 07006KT 9999 FEW030 BKN150 24/17 A2988=
200511152300 METAR MROC 152300Z 14003KT 9999 FEW030 BKN150 22/18 A2989=
200511160000 METAR MROC 160000Z 11004KT 9999 FEW030 SCT100 21/18 A2991=
200511160100 METAR MROC 160100Z 05004KT CAVOK 21/18 A2993=
200511160200 METAR MROC 160200Z 08003KT CAVOK 21/17 A2994=
200511160300 METAR MROC 160300Z 08006KT CAVOK 21/18 A2996 NOSIG=
200511160400 METAR MROC 160400Z 09007KT CAVOK 22/17 A2996 NOSIG=
200511160500 METAR MROC 160500Z 10005KT 9999 -DZ OVC120 21/18 A2995 NOSIG=
200511160600 METAR MROC 160600Z 08006KT 9999 FEW035 BKN120 21/18 A2994 NOSIG=
200511160700 METAR MROC 160700Z 03004KT CAVOK 21/17 A2992 NOSIG=
200511160800 METAR MROC 160800Z 06004KT CAVOK 20/17 A2990 NOSIG=
200511160900 METAR MROC 160900Z 07005KT CAVOK 20/17 A2988 NOSIG=
200511161000 METAR MROC 161000Z 06007KT CAVOK 20/17 A2988 NOSIG=
200511161100 METAR MROC 161100Z 04008KT CAVOK 21/17 A2990 NOSIG=
200511161200 METAR MROC 161200Z 11004KT CAVOK 20/17 A2991 NOSIG=
200511161300 METAR MROC 161300Z 00000KT CAVOK 21/18 A2994=
200511161400 METAR MROC 161400Z 00000KT CAVOK 22/18 A2997=
200511161500 METAR MROC 161500Z 00000KT CAVOK 24/18 A2996=
200511161600 METAR MROC 161600Z 10008KT CAVOK 25/18 A2995=
200511161700 METAR MROC 161700Z 00000KT 9999 SCT030 SCT100 27/18 A2993=
200511161800 METAR MROC 161800Z 20007KT 9999 SCT035 SCT120 26/18 A2990=
200511161900 METAR MROC 161900Z 23010KT 9999 SCT025 SCT100 25/21 A2987=
200511162000 METAR MROC 162000Z 24013KT 9999 SCT006 SCT080 23/21 A2985=
200511162100 METAR MROC 162100Z 23009KT 9999 SCT015 BKN090 22/20 A2985 RMK 7000 NE VCSH BECMG 7000 VCSH=
200511162200 METAR MROC 162200Z 19003KT 9999 FEW015 SCT025 BKN100 21/19 A2987 RMK 7000NE VCSH=
200511162300 METAR MROC 162300Z 18003KT 9999 BKN025 SCT090 20/19 A2989 RMK RN DST NE BECMG RA=
200511170000 METAR MROC 170000Z 21003KT 9999 FEW005 SCT035 BKN100 20/19 A2990 RMK 7000NE VCFG NOSIG=
200511170100 METAR MROC 170100Z 00000KT 9999 SCT025 SCT100 20/19 A2991 RMK 7000NE=
200511170200 METAR MROC 170200Z 00000KT 9999 SCT025 BKN100 20/19 A2993 NOSIG=
200511170300 METAR MROC 170300Z 00000KT 9999 SCT020 SCT100 20/19 A2994=
200511170400 METAR MROC 170400Z 00000KT 9999 SCT015 BKN100 20/19 A2994=
200511170500 METAR MROC 170500Z 20003KT 9999 SCT020 BKN120 20/19 A2993=
200511170600 METAR MROC 170600Z 23005KT 8000 VCFG FEW004 SCT020 20/19 A2991=
200511170700 METAR MROC 170700Z 23003KT 7000 DZ FEW004 SCT015 OVC100 19/19 A2989 RMK VIS RED SW=
200511170800 METAR MROC 170800Z 19004KT 8000 2000SW DZ BR SCT002 SCT015 19/19 A2988=
200511170900 METAR MROC 170900Z 21006KT 5000 BR FEW001 SCT015 19/19 A2987 RMK VIS RED SW=
200511171100 METAR MROC 171100Z 22005KT 9999 SCT004 19/19 A2989=
200511171200 METAR MROC 171200Z 25005KT 2000 BR SCT002 SCT010 19/19 A2991=
200511171300 METAR MROC 171300Z 24006KT 3000 +DZ BR FEW003 OVC025 19/19 A2993 BECMG 5000 BR=
200511171400 METAR MROC 171400Z 23004KT 7000 VCFG SCT015 BKN100 21/19 A2996 BECMG 8000=
200511171500 METAR MROC 171500Z 25005KT 9999 4000NE VCSH BKN025 SCT090 21/19 A2997 BECMG -RA=
200511171600 METAR MROC 171600Z 00000KT 9999 BKN030 SCT090 22/19 A2997 RMK 6000NE=
200511171700 METAR MROC 171700Z 23005KT 9999 FEW015 SCT030 BKN090 22/20 A2995 RMK 7000NE VCSH NOSIG=
200511171800 METAR MROC 171800Z 23009KT 9999 FEW015 SCT030 BKN090 22/20 A2992 RMK 7000NE VCSH NOSIG=
200511171900 METAR MROC 171900Z 22006KT 9999 BKN025 SCT090 24/21 A2989 RMK 7000NE=
200511172000 METAR MROC 172000Z 23011KT 9999 4000SW BR SCT003 BKN015 22/20 A2987 RMK 7000NE VCSH BECMG 5000 BR=
200511172100 METAR MROC 172100Z 22008KT 3000 DZ BR SCT003 BKN010 21/20 A2986 NOSIG=
200511172200 METAR MROC 172200Z 22007KT 2000 -RA BR SCT002 BKN008 20/20 A2987 BECMG RMK VIS SE S 5KMS=
200511172300 METAR MROC 172300Z 26005KT 4000 DZ BR SCT003 BKN008 20/19 A2988 BECMG RMK LOW ST OVER AP07=
200511180000 METAR MROC 180000Z 25005KT 7000 VCFG FEW003 BKN007 20/19 A2990 BECMG 4000 BR RMK VIS SE SSE UNLTD=
200511180100 METAR MROC 180100Z 27004KT 4000 DZ BR FEW002 BKN005 20/19 A2992 BECMG 2000 RMK VIS SE ESE 7KMS=
200511180200 METAR MROC 180200Z 23003KT 8000 3000SW -DZ BR FEW002 BKN010 20/19 A2994=
200511180300 METAR MROC 180300Z 26003KT 7000 BR FEW003 SCT015 OVC100 20/19 A2995=
200511180400 METAR MROC 180400Z 00000KT 8000 BR SCT004 OVC100 20/19 A2996=
200511180500 METAR MROC 180500Z 00000KT 9999 FEW010 BKN100 20/19 A2995=
200511180600 METAR MROC 180600Z 00000KT 8000 BR SCT003 OVC100 20/19 A2994=
200511180700 METAR MROC 180700Z 00000KT 9999 FEW015 BKN120 20/19 A2992=
200511180800 METAR MROC 180800Z 00000KT 9999 FEW010 BKN100 20/19 A2990=
200511180900 METAR MROC 180900Z 00000KT 9999 FEW005 BKN100 19/19 A2989=
200511181000 METAR MROC 181000Z 00000KT 9999 SCT010 SCT100 19/19 A2990=
200511181100 METAR MROC 181100Z 00000KT 9999 SCT010 SCT100 20/19 A2991=
200511181200 METAR MROC 181200Z 00000KT 5000 BR SCT003 SCT090 20/19 A2993=
200511181300 METAR MROC 181300Z 00000KT 5000 BR FEW002 SCT008 BKN140 20/19 A2996 BECMG 9999 RMK VIS N NW UNLTD=
200511181400 METAR MROC 181400Z 27004KT 9999 FEW008 SCT020 BKN120 21/20 A2998 NOSIG=
200511181500 METAR MROC 181500Z 24004KT 9999 SCT015 BKN025 22/20 A2999 BECMG 7000 -RA=
200511181600 METAR MROC 181600Z 26006KT 9999 SCT015 SCT025 BKN250 23/20 A2998 BECMG RMK FEW AC=
200511181700 METAR MROC 181700Z 24006KT 9999 SCT015 BKN025 23/20 A2997 BECMG 7000 -RA=
200511181800 METAR MROC 181800Z 26005KT 9999 FEW015 BKN025 24/20 A2994 BECMG RMK FEW AC/CI=
200511181900 METAR MROC 181900Z 25006KT 9999 FEW015 BKN025 24/20 A2991 NOSIG=
200511182000 METAR MROC 182000Z 24009KT 9999 FEW015 BKN025 24/20 A2989 NOSIG=
200511182100 METAR MROC 182100Z 21007KT 9999 BKN015 SCT030 23/20 A2988 RMK RN E NOSIG=
200511190000 METAR MROC 190000Z 27005KT 6000 VCFG SCT003 SCT012 20/20 A2992 BECMG 1000 BR=
200511190200 METAR MROC 190200Z 25003KT 5000 DZ BR SCT002 BKN006 20/20 A2997 BECMG 1000 DZ BR=
200511190300 METAR MROC 190300Z 26004KT 4000 1500NE BR FEW002 SCT006 BKN090 20/20 A2999 BECMG 1500 -DZ BR=
200511190400 METAR MROC 190400Z 00000KT 7000 VCFG FEW005 SCT010 BKN090 20/20 A2999 RMK 5000SW BR NOSIG=
200511190500 METAR MROC 190500Z 29003KT 5000 BR FEW003 BKN015 20/20 A2997 BECMG 3000 -RA BR=
200511190600 METAR MROC 190600Z 00000KT 5000 BR FEW003 BKN015 20/20 A2996 RMK 7000E BECMG 3000 DZ BR=
200511190700 METAR MROC 190700Z 28004KT 9999 FEW003 SCT025 BKN100 20/20 A2994 RMK VIS 5000 SW DUE ST NOSIG=
200511190800 METAR MROC 190800Z 27004KT 8000 SCT003 BKN025 20/20 A2993 RMK VIS 5000 SW DUE ST BECMG 4000 -DZ BR SCT002 BKN020=
200511190900 METAR MROC 190900Z 23003KT 7000 3000SW -DZ BR SCT002 BKN020 20/19 A2992 BECMG 1200 DZ BR SCT001 BKN015=
200511191000 METAR MROC 191000Z 33004KT 8000 FEW003 SCT012 BKN020 20/19 A2992 RMK VIS 4000 SW DUE ST NOSIG=
200511191100 METAR MROC 191100Z VRB03KT 9999 SCT025 BKN120 20/19 A2994 RMK VIS 8000 S DUE ST NOSIG=
200511191200 METAR MROC 191200Z 00000KT 9999 FEW030 SCT100 BKN250 19/19 A2996 NOSIG=
200511191300 METAR MROC 191300Z 00000KT 9999 FEW010 BKN035 20/20 A2998 NOSIG=
200511191400 METAR MROC 191400Z 08003KT 6000 DZ VCFG SCT012 BKN080 21/20 A3000 BECMG RMK VSBY E 3KM VSBY S SW W UNL=
200511191500 METAR MROC 191500Z 10003KT 9999 FEW025 BKN080 24/21 A3001 NOSIG=
200511191600 METAR MROC 191600Z 12003KT 9999 SCT020 SCT100 25/20 A3000 NOSIG=
200511191700 METAR MROC 191700Z 24007KT 9999 SCT020 SCT300 26/20 A2998 NOSIG=
200511191800 METAR MROC 191800Z 24008KT 9999 SCT025 26/20 A2995 NOSIG=
200511191900 METAR MROC 191900Z 23008KT 9999 SCT025 26/20 A2992 NOSIG=
200511192000 METAR MROC 192000Z 22008KT 9999 SCT030 SCT100 25/20 A2990 NOSIG=
200511192100 METAR MROC 192100Z 21009KT 9999 SCT025TCU BKN100 24/21 A2989 RMK RN S NOSIG=
200511192200 METAR MROC 192200Z 23008KT 9999 FEW025 SCT100 BKN250 23/20 A2990 NOSIG=
200511192300 METAR MROC 192300Z 23009KT 9999 SCT020 SCT100 BKN250 22/19 A2992 NOSIG=
200511200000 METAR MROC 200000Z 27003KT 9999 SCT020 SCT100 BKN250 21/20 A2993 NOSIG=
200511200100 METAR MROC 200100Z 28003KT 9999 -DZ SCT020 SCT100 21/20 A2997 BECMG 7000 VCFG=
200511200200 METAR MROC 200200Z 27005KT 7000 -DZ SCT010 SCT100 20/19 A2999=
200511200300 METAR MROC 200300Z 00000KT 7000 -RA SCT015 BKN100 20/19 A3001 NOSIG=
200511200400 METAR MROC 200400Z 00000KT 9999 -DZ SCT015 BKN100 20/19 A3001 BECMG RMK VIS S SSW 7KMS DUE FG=
200511200500 METAR MROC 200500Z 00000KT 9999 FEW015 SCT030 BKN100 20/19 A2999 NOSIG=
200511200600 METAR MROC 200600Z 06003KT 9999 FEW030 SCT120 19/19 A2997 NOSIG=
200511200700 METAR MROC 200700Z 01003KT 9999 FEW030 BKN100 19/19 A2996 BECMG RMK LGT FG AND VIS 8KMS TO S SSW=
200511200800 METAR MROC 200800Z 00000KT 9999 2000SW BR FEW001 BKN100 19/19 A2994 BECMG RMK LGT FG OVR AP07 WIND TEND EAST=
200511200900 METAR MROC 200900Z 01004KT 9999 FEW035 SCT100 20/19 A2993 BECMG CAVOK RMK LGT FG TO S SSW=
200511201000 METAR MROC 201000Z 00000KT 9999 2000S BR FEW001 SCT120 18/18 A2993 BECMG RMK FG BNK TO SE S SSW=
200511201100 METAR MROC 201100Z 00000KT 0500SW FG SCT001 SCT120 18/17 A2995 BECMG 07005KT 9999 RMK FG BANK OVR RNWY VIS E/N QUAD UNLTD=
200511201200 METAR MROC 201200Z 00000KT 9999 FEW035 BKN250 18/17 A2997 BECMG RMK THING FG BANK TO S QUAD=
200511201300 METAR MROC 201300Z 02004KT 9999 FEW035 BKN250 21/18 A2998 NOSIG=
200511201400 METAR MROC 201400Z 00000KT 9999 FEW035 BKN250 24/19 A3000 NOSIG=
200511201500 METAR MROC 201500Z 14003KT 9999 FEW035 BKN250 26/19 A3000 NOSIG=
200511201600 METAR MROC 201600Z 24012KT 9999 SCT030 BKN250 26/21 A3000 NOSIG=
200511201700 METAR MROC 201700Z 22009KT 9999 SCT030 BKN250 25/21 A2999 NOSIG=
200511201800 METAR MROC 201800Z 23009KT 9999 SCT030 BKN250 25/21 A2995 NOSIG=
200511201900 METAR MROC 201900Z 23010KT 9999 FEW020 SCT030 BKN250 25/21 A2994=
200511202000 METAR MROC 202000Z 24010KT 9999 FEW015TCU SCT025 BKN250 25/21 A2992=
200511202100 METAR MROC 202100Z 22008KT 9999 FEW015TCU SCT025 BKN250 23/21 A2991 NOSIG=
200511202200 METAR MROC 202200Z 24009KT 8000 VCFG SCT010 SCT250 22/20 A2992=
200511202300 METAR MROC 202300Z 27005KT 7000 VCFG SCT004 SCT025 21/20 A2993 RMK VIS RED SW=
200511210000 METAR MROC 210000Z 25005KT 6000 BR FEW002 SCT015 21/20 A2995 RMK VIS RED SW=
200511210100 METAR MROC 210100Z 27003KT 5000SW BR FEW002 SCT025 21/20 A2997=
200511210200 METAR MROC 210200Z 25004KT 0500 FG -DZ VV/// 21/20 A3000=
200511210300 METAR MROC 210300Z 00000KT 6000 VCFG FEW001 SCT005 BKN012 21/20 A3001 BECMG RMK VSBY E SE UNL=
200511210400 METAR MROC 210400Z 00000KT 6000 VCFG FEW002 SCT006 BKN100 21/20 A3001 BECMG RMK VSBY E SE UNL=
200511210500 METAR MROC 210500Z 00000KT 9999 FEW002 SCT008 21/20 A3000 BECMG RMK VSBY S SW 5KM LOW ST=
200511210600 METAR MROC 210600Z 01005KT 9999 FEW001 SCT130 20/18 A2998 BECMG RMK VSBY S 6KM LOW ST=
200511210700 METAR MROC 210700Z 01004KT CAVOK 19/17 A2996 NOSIG=
200511210800 METAR MROC 210800Z 02006KT CAVOK 19/17 A2995 NOSIG=
200511210900 METAR MROC 210900Z 07007KT CAVOK 19/16 A2992 NOSIG=
200511211000 METAR MROC 211000Z 05005KT CAVOK 19/16 A2995 NOSIG=
200511211100 METAR MROC 211100Z 06007KT CAVOK 17/16 A2997 NOSIG=
200511211200 METAR MROC 211200Z 04007KT CAVOK 18/16 A2998 NOSIG=
200511211300 METAR MROC 211300Z 03009KT CAVOK 21/16 A3000=
200511211400 METAR MROC 211400Z 04006KT CAVOK 24/17 A3002=
200511211500 METAR MROC 211500Z 09010KT CAVOK 24/16 A3005 NOSIG=
200511211600 METAR MROC 211600Z 24006KT CAVOK 27/19 A3000=
200511211700 METAR MROC 211700Z 22010KT CAVOK 26/20 A2999=
200511211800 METAR MROC 211800Z 22008KT 9999 FEW035 26/20 A2997=
200511211900 METAR MROC 211900Z 25010KT 9999 SCT035 27/20 A2994=
200511212000 METAR MROC 212000Z 24010KT 9999 SCT030TCU 25/20 A2992=
200511212100 METAR MROC 212100Z 22008KT 9999 FEW020TCU SCT030 26/21 A2991 NOSIG=
200511212200 METAR MROC 212200Z 21009KT 9999 SCT025 24/21 A2992 NOSIG=
200511212300 METAR MROC 212300Z 23008KT 5000 BR SCT006 SCT030 22/21 A2994 RMK VIS 7000E VCFG BECMG 3000 BR=
200511220000 METAR MROC 220000Z 23005KT 7000 3000SW BR FEW003 BKN008 21/20 A2996 NOSIG=
200511220100 METAR MROC 220100Z 29003KT 5000 RA BR SCT006 OVC090 21/20 A2998 BECMG 7000 -RA=
200511220200 METAR MROC 220200Z 26003KT 7000 VCFG FEW005 SCT015 BKN100 20/20 A3001 RMK 9999E NOSIG=
200511220300 METAR MROC 220300Z 00000KT 9999 FEW010 BKN100 20/20 A3002 NOSIG=
200511220400 METAR MROC 220400Z 00000KT 9999 1500SW BR FEW001 SCT010 BKN100 20/20 A3001 NOSIG=
200511220500 METAR MROC 220500Z 00000KT 5000 2000SW BR FEW001 BKN100 20/19 A3001 BECMG 9999=
200511220600 METAR MROC 220600Z 33005KT 7000 VCFG FEW003 SCT100 20/19 A2998 NOSIG=
200511220700 METAR MROC 220700Z 00000KT 9999 2000SW BR FEW002 SCT100 19/19 A2995 BECMG 1000 BR=
200511220800 METAR MROC 220800Z 00000KT 9999 1500SW BR FEW002 SCT100 19/18 A2995 BECMG 8000=
200511220900 METAR MROC 220900Z 00000KT 9999 FEW005 SCT100 18/18 A2994 NOSIG=
200511221000 METAR MROC 221000Z 00000KT CAVOK 18/18 A2995 NOSIG=
200511221100 METAR MROC 221100Z 00000KT CAVOK 19/18 A2998 NOSIG=
200511221200 METAR MROC 221200Z 07005KT 9999 BKN040 21/17 A3000 BECMG 6000 -RA=
200511221300 METAR MROC 221300Z 07004KT 9999 FEW035 SCT100 20/19 A3002 RERA RMK 7000N E VCSH NOSIG=
200511221400 METAR MROC 221400Z 00000KT 9999 FEW035 SCT120 22/19 A3002 RMK 7000 SE E VCSH=
200511221500 METAR MROC 221500Z 09005KT 9999 FEW030 BKN120 24/17 A3003 RMK RN DST NE E SE NOSIG=
200511221600 METAR MROC 221600Z 11011KT 9999 FEW035 BKN120 23/18 A3002 RMK RN DST NE=
200511221700 METAR MROC 221700Z 10005KT 9999 SCT035 BKN120 26/18 A2999 RMK RN DST E NOSIG=
200511221800 METAR MROC 221800Z 20011KT 9999 FEW035 BKN120 25/18 A2996 RMK RN DST NE E NOSIG=
200511221900 METAR MROC 221900Z 01019KT 9999 BKN035 SCT120 26/18 A2993 RMK RN DST NE E NOSIG=
200511222000 METAR MROC 222000Z 32016KT 9999 BKN035 SCT120 25/17 A2992 RMK RN DST NE E SE NOSIG=
200511222100 METAR MROC 222100Z 14006KT 9999 SCT030 BKN100 25/19 A2992 BECMG 7000 RA=
200511222200 METAR MROC 222200Z 00000KT 9999 -RA SCT030 BKN100 21/19 A2992 NOSIG=
200511222300 METAR MROC 222300Z 10004KT 9999 -RA FEW025 OVC100 20/19 A2994 NOSIG=
200511230000 METAR MROC 230000Z 10005KT 9999 -RA FEW030 OVC100 19/18 A2996 NOSIG=
200511230100 METAR MROC 230100Z 08008KT 9999 -DZ FEW030 BKN120 20/17 A2998 NOSIG=
200511230200 METAR MROC 230200Z 09009KT 9999 -DZ FEW025 SCT100 19/18 A3000=
200511230300 METAR MROC 230300Z 09006KT 9999 DZ FEW025 SCT100 20/18 A3003=
200511230400 METAR MROC 230400Z 10003KT 9999 FEW030 SCT100 20/18 A3004=
200511230500 METAR MROC 230500Z 24004KT 9999 FEW030 SCT100 20/17 A3004=
200511230600 METAR MROC 230600Z 11003KT 9999 FEW030 SCT120 18/14 A3003=
200511230700 METAR MROC 230700Z 00000KT 9999 FEW030 SCT120 18/14 A3001=
200511230900 METAR MROC 230900Z 06009KT CAVOK 18/12 A3000=
200511231000 METAR MROC 231000Z 04008KT CAVOK 17/11 A3002=
200511231100 METAR MROC 231100Z 07012KT CAVOK 17/09 A3002=
200511231200 METAR MROC 231200Z 07008KT 9999 FEW040 SCT100 17/11 A3004=
200511231300 METAR MROC 231300Z 10009KT 9999 FEW040 BKN100 18/12 A3006 NOSIG=
200511231400 METAR MROC 231400Z 10010KT 9999 FEW035 SCT100 BKN250 20/13 A3009 NOSIG=
200511231500 METAR MROC 231500Z 09012G22KT 9999 FEW035 SCT100 BKN250 20/13 A3009 NOSIG=
200511231600 METAR MROC 231600Z 08014G26KT 9999 FEW040 SCT120 BKN220 21/13 A3009 NOSIG=
200511231700 METAR MROC 231700Z 09014G26KT 9999 FEW040 SCT080 BKN220 21/13 A3007 NOSIG=
200511231800 METAR MROC 231800Z 07012G22KT CAVOK 21/14 A3004 RMK SCT080 BKN170=
200511231900 METAR MROC 231900Z 08010G20KT CAVOK 21/14 A3002 RMK SCT080 BKN140 NOSIG=
200511232000 METAR MROC 232000Z 09010G20KT CAVOK 21/14 A3000 NOSIG=
200511232100 METAR MROC 232100Z 09010KT CAVOK 21/14 A2999 NOSIG=
200511232200 METAR MROC 232200Z 08011KT CAVOK 20/14 A2999 NOSIG=
200511232300 METAR MROC 232300Z 07010KT CAVOK 19/14 A3002 NOSIG=
200511240000 METAR MROC 240000Z 06007KT CAVOK 18/14 A3004 NOSIG=
200511240100 METAR MROC 240100Z 08007KT CAVOK 19/14 A3006 NOSIG=
200511240200 METAR MROC 240200Z 06010KT 9999 FEW035 SCT080 BKN130 19/15 A3009 NOSIG=
200511240300 METAR MROC 240300Z 09012KT CAVOK 19/15 A3011 NOSIG=
200511240400 METAR MROC 240400Z 06010KT CAVOK 19/15 A3009 NOSIG=
200511240500 METAR MROC 240500Z 08011KT CAVOK 19/15 A3007 NOSIG=
200511240600 METAR MROC 240600Z 08011KT CAVOK 19/15 A3005 NOSIG=
200511240700 METAR MROC 240700Z 06011KT CAVOK 19/15 A3002 NOSIG=
200511240800 METAR MROC 240800Z 07013KT CAVOK 19/15 A3000 NOSIG=
200511240900 METAR MROC 240900Z 09011KT CAVOK 19/15 A2999 NOSIG=
200511241000 METAR MROC 241000Z 06011KT CAVOK 19/15 A3000 NOSIG=
200511241100 METAR MROC 241100Z 07012KT CAVOK 19/15 A3002 NOSIG=
200511241200 METAR MROC 241200Z 07011KT CAVOK 19/15 A3002 NOSIG=
200511241300 METAR MROC 241300Z 07007KT CAVOK 20/16 A3005 NOSIG=
200511241400 METAR MROC 241400Z 09009KT CAVOK 22/16 A3005 NOSIG=
200511241500 METAR MROC 241500Z 09010KT CAVOK 24/16 A3005 NOSIG=
200511241600 METAR MROC 241600Z 10013KT CAVOK 25/16 A3003 NOSIG=
200511241700 METAR MROC 241700Z 10013KT CAVOK 25/16 A3001 NOSIG=
200511241800 METAR MROC 241800Z 08012KT 9999 FEW035 26/17 A2998 NOSIG=
200511241900 METAR MROC 241900Z 08009KT 9999 FEW035 25/17 A2995 NOSIG=
200511242000 METAR MROC 242000Z 09011KT 9999 FEW035 26/17 A2993 NOSIG=
200511242100 METAR MROC 242100Z 11011KT 9999 SCT035 25/17 A2993 NOSIG=
200511242200 METAR MROC 242200Z 12007KT 9999 SCT035 23/17 A2994 NOSIG=
200511242300 METAR MROC 242300Z 09010KT 9999 SCT030 SCT120 22/16 A2996 NOSIG=
200511250000 METAR MROC 250000Z 07007KT 9999 SCT035 20/16 A2998 NOSIG=
200511250100 METAR MROC 250100Z 06009KT 9999 SCT035 20/16 A3000 NOSIG=
200511250200 METAR MROC 250200Z 08006KT 9999 SCT035 20/16 A3002 NOSIG=
200511250300 METAR MROC 250300Z 36005KT 9999 FEW035 20/17 A3003 BECMG CAVOK=
200511250400 METAR MROC 250400Z 35005KT CAVOK 19/16 A3002 NOSIG=
200511250500 METAR MROC 250500Z 35004KT CAVOK 18/16 A3001 NOSIG=
200511250600 METAR MROC 250600Z 31003KT CAVOK 18/16 A2999 NOSIG=
200511250700 METAR MROC 250700Z 00000KT 9999 FEW040 18/16 A2997 NOSIG=
200511250800 METAR MROC 250800Z 34004KT 9999 FEW040 18/16 A2996 NOSIG=
200511250900 METAR MROC 250900Z 36004KT 9999 FEW040 18/16 A2996 NOSIG=
200511251000 METAR MROC 251000Z 01005KT 9999 FEW040 18/15 A2997 NOSIG=
200511251100 METAR MROC 251100Z 03006KT 9999 FEW035 18/15 A2999 BECMG CAVOK=
200511251200 METAR MROC 251200Z 03007KT 9999 FEW030 18/15 A3001 NOSIG=
200511251300 METAR MROC 251300Z 01009KT 9999 FEW030 19/16 A3001 NOSIG=
200511251400 METAR MROC 251400Z 01005KT 9999 FEW030 19/16 A3001 NOSIG=
200511251500 METAR MROC 251500Z 10014KT 9999 BKN030 23/17 A3005 NOSIG=
200511251600 METAR MROC 251600Z 10010KT 9999 BKN030 24/18 A3004 NOSIG=
200511251700 METAR MROC 251700Z 11014KT 9999 BKN030 24/17 A3001 NOSIG=
200511252000 METAR MROC 252000Z 10009KT 9999 SCT030 26/17 A2995 NOSIG=
200511252100 METAR MROC 252100Z 10013KT 9999 SCT025TCU 25/17 A2994=
200511252200 METAR MROC 252200Z 12010KT 9999 FEW020TCU SCT120 24/17 A2995=
200511252300 METAR MROC 252300Z 12004KT 9999 SCT020 23/18 A2998=
200511260000 METAR MROC 260000Z 00000KT 9999 SCT030 21/18 A3000=
200511260200 METAR MROC 260200Z 06005KT CAVOK 20/17 A3002=
200511260300 METAR MROC 260300Z 03003KT CAVOK 20/16 A3002 NOSIG=
200511260500 METAR MROC 260500Z 09005KT CAVOK 19/16 A3001 NOSIG=
200511260600 METAR MROC 260600Z 05009KT CAVOK 19/15 A2999 NOSIG=
200511260700 METAR MROC 260700Z 07003KT CAVOK 18/15 A2998 NOSIG=
200511260800 METAR MROC 260800Z 09005KT CAVOK 19/14 A2995 NOSIG=
200511260900 METAR MROC 260900Z 07006KT CAVOK 19/13 A2994 NOSIG=
200511261000 METAR MROC 261000Z 06006KT CAVOK 19/13 A2995 NOSIG=
200511261100 METAR MROC 261100Z 08009KT CAVOK 19/13 A2996 NOSIG=
200511261200 METAR MROC 261200Z 06007KT 9999 FEW040 BKN100 19/14 A2997 NOSIG=
200511261300 METAR MROC 261300Z 05010KT CAVOK 20/15 A3000=
200511261400 METAR MROC 261400Z 06007KT CAVOK 22/15 A3002=
200511261500 METAR MROC 261500Z 08007KT CAVOK 24/16 A3002=
200511261600 METAR MROC 261600Z 08009KT CAVOK 26/17 A3001=
200511261700 METAR MROC 261700Z 21006KT 9999 FEW035 SCT120 26/18 A2999=
200511261800 METAR MROC 261800Z 22008KT 9999 SCT025 SCT170 26/19 A2997=
200511261900 METAR MROC 261900Z 24010KT 9999 FEW020TCU SCT040 24/20 A2994=
200511262000 METAR MROC 262000Z 22008KT 9999 FEW015TCU SCT030 SCT150 24/20 A2992=
200511262100 METAR MROC 262100Z 23010KT 9999 4000SE -RA SCT015TCU BKN025 22/20 A2992 NOSIG=
200511262200 METAR MROC 262200Z 26006KT 9999 4000E -RA BR FEW005 SCT010 BKN030 21/20 A2992 BECMG 9999=
200511262300 METAR MROC 262300Z 21004KT 6000 2500SW -RA BR FEW002 SCT010 BKN025 21/20 A2994 BECMG 3000 RA=
200511270000 METAR MROC 270000Z 17003KT 7000 3000SW DZ BR FEW003 SCT010 BKN090 20/20 A2996 NOSIG=
200511270100 METAR MROC 270100Z 21004KT 6000 -DZ BR FEW005 SCT012 BKN090 20/20 A2998 NOSIG=
200511270200 METAR MROC 270200Z 23005KT 1200 BR SCT001 BKN005 20/19 A3000 RMK 0800SW BR BECMG 3000 -RA BR=
200511270300 METAR MROC 270300Z 00000KT 3000 BR BKN004 19/19 A3000 NOSIG=
200511270400 METAR MROC 270400Z 00000KT 9999 FEW010 19/19 A2999 NOSIG=
200511270600 METAR MROC 270600Z 06004KT CAVOK 18/17 A2996 NOSIG=
200511270700 METAR MROC 270700Z 00000KT 9999 FEW010 19/19 A2999 NOSIG=
200511270800 METAR MROC 270800Z 05008KT CAVOK 18/16 A2992 NOSIG=
200511271000 METAR MROC 271000Z 05006KT CAVOK 19/16 A2991 NOSIG=
200511271100 METAR MROC 271100Z 00000KT CAVOK 17/15 A2993 NOSIG=
200511271200 METAR MROC 271200Z 06005KT CAVOK 17/15 A2994 NOSIG=
200511271300 METAR MROC 271300Z 04007KT CAVOK 20/17 A2995 NOSIG=
200511271400 METAR MROC 271400Z 18003KT CAVOK 24/18 A2997 BECMG 24005KT=
200511271500 METAR MROC 271500Z 24009KT CAVOK 23/18 A2997 NOSIG=
200511271600 METAR MROC 271600Z 22010KT CAVOK 24/19 A2996 NOSIG=
200511271700 METAR MROC 271700Z 23009KT 9999 FEW035 25/20 A2994 NOSIG=
200511271800 METAR MROC 271800Z 22012KT 9999 SCT035 SCT250 25/21 A2991 NOSIG=
200511271900 METAR MROC 271900Z 23011KT 9999 FEW015 SCT030 25/20 A2989 NOSIG=
200511272000 METAR MROC 272000Z 23012KT 9999 SCT035 26/21 A2986 RMK DZ DST NE=
200511272100 METAR MROC 272100Z 21007KT 9999 FEW020 SCT035 24/20 A2985 BECMG RMK TCU DST S=
200511272200 METAR MROC 272200Z 21008KT 9999 FEW004 SCT015TCU BKN030 23/21 A2986 BECMG 5000 -RA BR=
200511272300 METAR MROC 272300Z 22006KT 9999 FEW004 SCT015TCU SCT025 21/20 A2987 BECMG 6000 VCFG=
200511280000 METAR MROC 280000Z 25006KT 7000 VCFG FEW003 SCT010 BKN020 21/20 A2989 BECMG RMK LOW CLOWDS OVER AP07 VIS SE UNLTD=
200511280100 METAR MROC 280100Z 26003KT 7000 VCFG FEW003 SCT008 BKN020 21/20 A2992 BECMG RMK LOW CLDS OVER AP07 VIS SE SSE UNLTD=
200511280200 METAR MROC 280200Z 00000KT 7000 VCFG FEW002 SCT010 BKN020 21/20 A2993 BECMG 9999=
200511280300 METAR MROC 280300Z 27003KT 7000 BKNOO7 21/20 A2995 BECMG 9999=
200511280400 METAR MROC 280400Z 00000KT 7000 VCFG BKN007 20/19 A2995 NOSIG=
200511280500 METAR MROC 280500Z 00000KT 9999 FEW010 20/19 A2995 NOSIG=
200511280900 METAR MROC 280900Z 05007KT CAVOK 17/15 A2989 NOSIG=
200511281000 METAR MROC 281000Z 06005KT CAVOK 17/15 A2989 NOSIG=
200511281100 METAR MROC 281100Z 05003KT CAVOK 17/15 A2990 NOSIG=
200511281200 METAR MROC 281200Z 02007KT CAVOK 17/15 A2992 NOSIG=
200511281300 METAR MROC 281300Z 02006KT CAVOK 20/16 A2993 NOSIG=
200511281400 METAR MROC 281400Z 09005KT CAVOK 24/17 A2995 NOSIG=
200511281500 METAR MROC 281500Z 10009KT CAVOK 25/17 A2996 NOSIG=
200511281600 METAR MROC 281600Z 09008KT 9999 FEW040 27/16 A2995 NOSIG=
200511281700 METAR MROC 281700Z 11006KT 9999 FEW040 28/17 A2993 NOSIG=
200511281800 METAR MROC 281800Z 24011G21KT 9999 FEW040 26/20 A2991 NOSIG=
200511281900 METAR MROC 281900Z 23010G20KT 9999 FEW040 26/21 A2988 NOSIG=
200511282000 METAR MROC 282000Z 23009KT 9999 FEW025TCU SCT035 26/20 A2986 NOSIG=
200511282100 METAR MROC 282100Z 23010KT 9999 FEW025 25/21 A2986 NOSIG=
200511282200 METAR MROC 282200Z 22009KT 9999 FEW025 23/21 A2986 BECMG 8000=
200511282300 METAR MROC 282300Z 23006KT 6000 VCFG FEW002 SCT010 22/20 A2987 BECMG 3000 BR RMK VSBY SE S UNL VSBY NW N 3KM LOS ST=
200511290000 METAR MROC 290000Z 27003KT 7000 VCFG FEW002 SCT010 21/20 A2990 BECMG RMK VSBY E SE S UNL=
200511290100 METAR MROC 290100Z 22003KT 7000 VCFG SCT007 21/20 A2992 BECMG RMK VSBY E SE S UNL=
200511290300 METAR MROC 290300Z 05011KT CAVOK 20/16 A2995 NOSIG=
200511290400 METAR MROC 290400Z 03010KT CAVOK 19/15 A2995 NOSIG=
200511290500 METAR MROC 290500Z 05008KT CAVOK 17/14 A2994 NOSIG=
200511290600 METAR MROC 290600Z 04007KT CAVOK 18/14 A2992 NOSIG=
200511290700 METAR MROC 290700Z 06010KT CAVOK 16/12 A2991 NOSIG=
200511290800 METAR MROC 290800Z 03006KT CAVOK 15/12 A2990 NOSIG=
200511290900 METAR MROC 290900Z 04007KT CAVOK 15/11 A2990 NOSIG=
200511291000 METAR MROC 291000Z 08007KT CAVOK 17/13 A2991 NOSIG=
200511291100 METAR MROC 291100Z 05005KT CAVOK 17/13 A2993 NOSIG=
200511291200 METAR MROC 291200Z 06013KT CAVOK 18/14 A2994 RMK TCU DST SW=
200511291300 METAR MROC 291300Z 08008KT CAVOK 20/14 A2996 NOSIG=
200511291400 METAR MROC 291400Z 06006KT CAVOK 24/15 A2998 NOSIG=
200511291500 METAR MROC 291500Z 09008KT CAVOK 26/15 A2998 NOSIG=
200511291600 METAR MROC 291600Z 15005KT CAVOK 26/17 A2996 NOSIG=
200511291700 METAR MROC 291700Z 24009KT CAVOK 26/18 A2994 NOSIG=
200511291800 METAR MROC 291800Z 23010KT 9999 FEW030 26/19 A2992 NOSIG=
200511291900 METAR MROC 291900Z 22010KT 9999 FEW035 26/20 A2990 NOSIG=
200511292000 METAR MROC 292000Z 23010KT 9999 FEW030 26/20 A2989 NOSIG=
200511292100 METAR MROC 292100Z 23011KT 9999 FEW030 25/20 A2989 NOSIG=
200511292200 METAR MROC 292200Z 23008KT 9999 FEW030 24/21 A2989 NOSIG=
200511292300 METAR MROC 292300Z 23006KT 9999 FEW015 SCT030 21/19 A2991 NOSIG=
200511300000 METAR MROC 300000Z 00000KT 9999 SCT025 21/19 A2993 NOSIG=
200511300100 METAR MROC 300100Z 00000KT 9999 SCT025 21/18 A2995 NOSIG=
200511300200 METAR MROC 300200Z 00000KT 9999 SCT025 20/18 A2997 NOSIG=
200511300300 METAR MROC 300300Z 06005KT CAVOK 20/17 A2998 NOSIG=
200511300400 METAR MROC 300400Z 00000KT CAVOK 20/17 A2999 NOSIG=
200511300500 METAR MROC 300500Z 36005KT CAVOK 20/17 A2998 NOSIG=
200511300600 METAR MROC 300600Z 00000KT CAVOK 21/16 A2996 NOSIG=
200511300700 METAR MROC 300700Z 03005KT CAVOK 20/16 A2993 NOSIG=
200511300800 METAR MROC 300800Z 05004KT CAVOK 20/16 A2992 NOSIG=
200511300900 METAR MROC 300900Z 07009KT CAVOK 18/16 A2992 NOSIG=
200511301000 METAR MROC 301000Z 02005KT CAVOK 18/16 A2992 NOSIG=
200511301100 METAR MROC 301100Z 02005KT CAVOK 19/15 A2993 NOSIG=
200511301200 METAR MROC 301200Z 06005KT CAVOK 19/15 A2995 NOSIG=
200511301300 METAR MROC 301300Z 07005KT CAVOK 21/16 A2997 NOSIG=
200511301400 METAR MROC 301400Z 10010KT 9999 FEW030 24/16 A2998 NOSIG=
200511301500 METAR MROC 301500Z 10012KT 9999 FEW030 SCT250 26/17 A2999 NOSIG=
200511301600 METAR MROC 301600Z 06012KT 9999 FEW030 SCT250 27/13 A2999 NOSIG=
200511301700 METAR MROC 301700Z 06010KT 9999 FEW030 SCT250 28/13 A2996 NOSIG=
200511301800 METAR MROC 301800Z 05013KT 9999 FEW030 28/13 A2994 NOSIG=
200511301900 METAR MROC 301900Z 04009KT 9999 FEW030 28/13 A2991 NOSIG=
200511302000 METAR MROC 302000Z 11008KT 9999 FEW030 SCT250 29/13 A2989 NOSIG=
200511302100 METAR MROC 302100Z 22007KT 9999 SCT020 26/20 A2988=
200511302200 METAR MROC 302200Z 23010KT 9999 FEW025 24/20 A2989=
200511302300 METAR MROC 302300Z 23009KT 9999 FEW025 23/20 A2991=
200512010000 METAR MROC 010000Z 24005KT 9999 SCT030 21/19 A2994=
200512010100 METAR MROC 010100Z 24003KT 9999 FEW015 21/20 A2996=
200512010200 METAR MROC 010200Z 00000KT 9999 FEW012 SCT100 20/20 A2999=
200512010300 METAR MROC 010300Z 00000KT 9999 FEW005 20/20 A3001 BECMG CAVOK RMK VSBY SW 5KM LOW ST=
200512010400 METAR MROC 010400Z 05007KT CAVOK 19/16 A3001 NOSIG=
200512010500 METAR MROC 010500Z 05007KT CAVOK 18/15 A3000 NOSIG=
200512010600 METAR MROC 010600Z 05004KT CAVOK 18/14 A2998 NOSIG=
200512010700 METAR MROC 010700Z 06005KT CAVOK 17/12 A2996 NOSIG=
200512010800 METAR MROC 010800Z 07006KT CAVOK 17/14 A2995 NOSIG=
200512010900 METAR MROC 010900Z 06005KT CAVOK 17/13 A2995 NOSIG=
200512011000 METAR MROC 011000Z 04007KT CAVOK 17/13 A2994 NOSIG=
200512011100 METAR MROC 011100Z 02011KT CAVOK 17/12 A2994 NOSIG=
200512011200 METAR MROC 011200Z 04010KT CAVOK 17/12 A2995 NOSIG=
200512011300 METAR MROC 011300Z 09003KT CAVOK 19/14 A2998=
200512011400 METAR MROC 011400Z 09003KT CAVOK 23/15 A2998=
200512011500 METAR MROC 011500Z 09011KT CAVOK 26/15 A2998=
200512011600 METAR MROC 011600Z 08014KT CAVOK 27/15 A2998=
200512011700 METAR MROC 011700Z 07013KT 9999 FEW040 SCT170 28/16 A2997=
200512011800 METAR MROC 011800Z 09010KT 9999 FEW040 SCT150 28/17 A2995=
200512011900 METAR MROC 011900Z 09012KT 9999 SCT030 28/16 A2993=
200512012000 METAR MROC 012000Z 18006KT 9999 FEW025 SCT040 26/16 A2992=
200512012100 METAR MROC 012100Z 23011KT 9999 FEW025 SCT035 25/20 A2991 BECMG 7000 RMK SW VCSH=
200512012200 METAR MROC 012200Z 23015KT 9999 SCT030 24/20 A2992 NOSIG=
200512012300 METAR MROC 012300Z 23010KT 9999 SCT008 SCT025 21/20 A2994 NOSIG=
200512020000 METAR MROC 020000Z 24004KT 9999 SCT015 SCT250 20/19 A2995 NOSIG=
200512020100 METAR MROC 020100Z 00000KT 9999 FEW005 SCT012 BKN250 20/19 A2997 RMK 7000SW VCFG NOSIG=
200512020200 METAR MROC 020200Z 00000KT 9999 FEW003 SCT012 BKN250 20/20 A3000 RMK 6000SW VCFG NOSIG=
200512020300 METAR MROC 020300Z 09004KT 9999 SCT030 20/17 A3000 NOSIG=
200512020400 METAR MROC 020400Z 06003KT 9999 SCT030 20/17 A3000 NOSIG=
200512020500 METAR MROC 020500Z 07003KT 9999 SCT030 19/17 A2998 NOSIG=
200512020600 METAR MROC 020600Z 05004KT 9999 SCT030 19/17 A2997 NOSIG=
200512020700 METAR MROC 020700Z 08005KT 9999 SCT030 19/17 A2994 NOSIG=
200512020800 METAR MROC 020800Z 09007KT 9999 SCT030 20/16 A2991 NOSIG=
200512020900 METAR MROC 020900Z 10010KT 9999 FEW030 20/16 A2989 NOSIG=
200512021000 METAR MROC 021000Z 09010KT CAVOK 20/16 A2991 NOSIG=
200512021100 METAR MROC 021100Z 09011KT CAVOK 20/16 A2991 NOSIG=
200512021200 METAR MROC 021200Z 08009KT 9999 FEW030 20/16 A2993 NOSIG=
200512021300 METAR MROC 021300Z 09019KT 9999 FEW045 21/16 A2996 NOSIG=
200512021400 METAR MROC 021400Z 10017KT 9999 FEW045 23/16 A3000 NOSIG=
200512021500 METAR MROC 021500Z 09020KT 9999 FEW035 SCT250 25/16 A3000 NOSIG=
200512021600 METAR MROC 021600Z 08019KT CAVOK 26/15 A2999 NOSIG=
200512021700 METAR MROC 021700Z 08018KT 9999 FEW035 SCT250 27/15 A2998 NOSIG=
200512021800 METAR MROC 021800Z 07017KT 9999 SCT035 27/15 A2995 NOSIG=
200512021900 METAR MROC 021900Z 06018KT 9999 SCT035 28/16 A2993 NOSIG=
200512022000 METAR MROC 022000Z 06017KT 9999 SCT040 28/14 A2990 NOSIG=
200512022100 METAR MROC 022100Z 07010KT 9999 FEW035 SCT270 28/14 A2989=
200512022200 METAR MROC 022200Z 23010KT 9999 SCT035 24/21 A2990 NOSIG=
200512022300 METAR MROC 022300Z 22008KT 9999 SCT005 SCT035 21/20 A2992 BECMG 7000=
200512030000 METAR MROC 030000Z 23007KT 7000 VCFG SCT004 BKN015 20/20 A2993 BECMG 4000 BR RMK VIS ESE UNLTD LOW CLOWDS OVR AP07=
200512030100 METAR MROC 030100Z 00000KT 7000 VCFG FEW003 SCT010 20/19 A2996 RMK VIS E QUAD UNLTD BECMG 04006KT 9999=
200512030200 METAR MROC 030200Z 12007KT 9999 FEW035 20/18 A2998 BECMG CAVOK=
200512030300 METAR MROC 030300Z 34006KT CAVOK 20/18 A2999=
200512030400 METAR MROC 030400Z 11004KT CAVOK 19/17 A2998=
200512030500 METAR MROC 030500Z 07009KT CAVOK 20/16 A2997=
200512030600 METAR MROC 030600Z 08006KT CAVOK 19/15 A2996=
200512030700 METAR MROC 030700Z 10010KT CAVOK 20/15 A2993=
200512030800 METAR MROC 030800Z 08014KT CAVOK 20/15 A2992=
200512030900 METAR MROC 030900Z 09010KT CAVOK 20/15 A2991=
200512031100 METAR MROC 031100Z 09014KT CAVOK 20/15 A2993=
200512031200 METAR MROC 031200Z 09013KT CAVOK 20/15 A2994=
200512031300 METAR MROC 031300Z 11009KT CAVOK 22/15 A2997 NOSIG=
200512031400 METAR MROC 031400Z 09013KT CAVOK 24/14 A2998 NOSIG=
200512031500 METAR MROC 031500Z 09015KT CAVOK 26/12 A2999 BECMG RMK BKN250=
200512031600 METAR MROC 031600Z 08014KT CAVOK 26/14 A2999 BECMG 24006KT=
200512031700 METAR MROC 031700Z 07011KT CAVOK 26/15 A2998 BECMG RMK BKN250=
200512031800 METAR MROC 031800Z 07010KT 9999 FEW040 BKN250 26/16 A2996 NOSIG=
200512031900 METAR MROC 031900Z 05012KT 9999 FEW040 BKN250 26/16 A2993 NOSIG=
200512032000 METAR MROC 032000Z 05012KT 9999 FEW040 FEW040 BKN250 26/16 A2993 NOSIG=
200512032100 METAR MROC 032100Z 04013KT 9999 FEW035 BKN250 26/16 A2992 NOSIG=
200512032200 METAR MROC 032200Z 07004KT 9999 SCT035 SCT250 25/16 A2993 NOSIG=
200512032300 METAR MROC 032300Z 25007KT 9999 SCT030 SCT250 22/20 A2994 NOSIG=
200512032352 METAR MROC 040000Z 27007KT 9999 FEW030 SCT250 21/20 A2996 NOSIG=
200512040000 METAR MROC 040000Z 27007KT 9999 FEW030 SCT250 21/20 A2996 NOSIG=
200512040100 METAR MROC 040100Z 27004KT 9999 FEW025 SCT250 21/20 A2999 NOSIG=
200512040200 METAR MROC 040200Z 00000KT 9999 FEW005 SCT025 20/19 A3001 RMK 7000SW VCFG NOSIG=
200512040300 METAR MROC 040300Z 03009KT CAVOK 21/17 A3001 NOSIG=
200512040400 METAR MROC 040400Z 00000KT 9999 FEW003 20/19 A3002 RMK 7000SW VCFG NOSIG=
200512040500 METAR MROC 040500Z 04007KT CAVOK 20/16 A3001 NOSIG=
200512040600 METAR MROC 040600Z 03010KT CAVOK 19/16 A3000 NOSIG=
200512040700 METAR MROC 040700Z 05004KT CAVOK 19/15 A2998 NOSIG=
200512040800 METAR MROC 040800Z 04007KT CAVOK 18/15 A2995 NOSIG=
200512040900 METAR MROC 040900Z 05004KT CAVOK 19/15 A2995 NOSIG=
200512041000 METAR MROC 041000Z 02007KT CAVOK 18/14 A2996 NOSIG=
200512041100 METAR MROC 041100Z 04005KT CAVOK 18/14 A2997 NOSIG=
200512041200 METAR MROC 041200Z 06005KT CAVOK 18/14 A3000 NOSIG=
200512041300 METAR MROC 041300Z 36003KT CAVOK 19/15 A3002=
200512041400 METAR MROC 041400Z 02004KT CAVOK 23/16 A3003 NOSIG=
200512041500 METAR MROC 041500Z 09008KT CAVOK 25/16 A3003 NOSIG=
200512041600 METAR MROC 041600Z 10009KT CAVOK 27/16 A3002 NOSIG=
200512041700 METAR MROC 041700Z 10010KT 9999 FEW035 27/16 A3000 NOSIG=
200512041800 METAR MROC 041800Z 11006KT 9999 SCT035 26/16 A2999 NOSIG=
200512041900 METAR MROC 041900Z 17004KT 9999 SCT035 26/18 A2997=
200512042000 METAR MROC 042000Z 20005KT 9999 SCT035 25/19 A2995 NOSIG=
200512042100 METAR MROC 042100Z 23009KT 9999 SCT035 25/21 A2994 NOSIG=
200512042200 METAR MROC 042200Z 23009KT 9999 SCT025 24/21 A2995 NOSIG=
200512042300 METAR MROC 042300Z 23009KT 9999 SCT030 22/19 A2997 NOSIG=
200512050000 METAR MROC 050000Z 22006KT 9999 SCT030 21/19 A2998=
200512050100 METAR MROC 050100Z 00000KT 9999 -RA SCT030 SCT100 20/19 A3002 NOSIG=
200512050200 METAR MROC 050200Z 27003KT 9999 SCT030 20/19 A3003 NOSIG=
200512050300 METAR MROC 050300Z 00000KT 9999 SCT010 BKN025 20/19 A3005 NOSIG=
200512050400 METAR MROC 050400Z 00000KT 9999 SCT030 20/19 A3005 NOSIG=
200512050500 METAR MROC 050500Z 03003KT 9999 FEW030 20/18 A3004 BECMG CAVOK=
200512050600 METAR MROC 050600Z 07005KT CAVOK 18/16 A3003 NOSIG=
200512050700 METAR MROC 050700Z 05005KT CAVOK 18/16 A3002 NOSIG=
200512050800 METAR MROC 050800Z 07007KT CAVOK 18/15 A3001 NOSIG=
200512050900 METAR MROC 050900Z 04006KT CAVOK 17/14 A3000 NOSIG=
200512051000 METAR MROC 051000Z 08007KT CAVOK 18/15 A3002 NOSIG=
200512051100 METAR MROC 051100Z 03009KT CAVOK 17/14 A3002 NOSIG=
200512051200 METAR MROC 051200Z 04008KT CAVOK 18/14 A3001 NOSIG=
200512051300 METAR MROC 051300Z 07003KT CAVOK 20/15 A3004 NOSIG=
200512051400 METAR MROC 051400Z 09008KT CAVOK 23/15 A3004 NOSIG=
200512051500 METAR MROC 051500Z 09011KT CAVOK 25/15 A3004 NOSIG=
200512051600 METAR MROC 051600Z 12008KT CAVOK 27/14 A3002 NOSIG=
200512051700 METAR MROC 051700Z 11004KT CAVOK 28/16 A3001 NOSIG=
200512051800 METAR MROC 051800Z 25012KT 9999 FEW040 BKN250 25/19 A2995 NOSIG=
200512051900 METAR MROC 051900Z 23009KT 9999 FEW040 BKN250 26/19 A2996 NOSIG=
200512052000 METAR MROC 052000Z 24010KT 9999 SCT040 SCT250 26/20 A2995 NOSIG=
200512052100 METAR MROC 052100Z 22009KT 9999 SCT025TCU SCT250 25/20 A2994=
200512052200 METAR MROC 052200Z 23010KT 9999 SCT025 BKN250 23/19 A2994=
200512052300 METAR MROC 052300Z 23007KT 9999 SCT010 SCT040 22/20 A2996=
200512060000 METAR MROC 060000Z 22008KT 9999 SCT012 21/20 A2996=
200512060100 METAR MROC 060100Z 24005KT 8000 VCFG FEW005 SCT030 21/20 A2999 RMK BR SW=
200512060200 METAR MROC 060200Z 00000KT 8000 VCFG FEW004 SCT020 20/20 A3001 RMK BR SW=
200512060300 METAR MROC 060300Z 00000KT 9999 FEW0005 SCT025 20/19 A3002=
200512060400 METAR MROC 060400Z 00806KT CAVOK 20/19 A3001 NOSIG=
200512060500 METAR MROC 060500Z 00000KT CAVOK 20/17 A2995=
200512060528 METAR MROC 060600Z 00000KT CAVOK 20/17 A2995=
200512060700 METAR MROC 060700Z 08006KT CAVOK 20/15 A2995=
200512060900 METAR MROC 060900Z 09010KT CAVOK 19/15 A2994=
200512061000 METAR MROC 061000Z 06004KT CAVOK 18/15 A2994=
200512061100 METAR MROC 061100Z 04006KT CAVOK 18/14 A2995=
200512061200 METAR MROC 061200Z 05006KT CAVOK 18/14 A2997=
200512061300 METAR MROC 061300Z 06003KT CAVOK 21/15 A2999=
200512061400 METAR MROC 061400Z 10011KT CAVOK 23/15 A3000=
200512061500 METAR MROC 061500Z 10013KT CAVOK 25/15 A3000=
200512061600 METAR MROC 061600Z 10010KT CAVOK 26/15 A2999=
200512061700 METAR MROC 061700Z 10012KT CAVOK 27/14 A2997=
200512061800 METAR MROC 061800Z 07011KT 9999 FEW035 28/14 A2995=
200512061900 METAR MROC 061900Z 10008KT 9999 SCT025 27/15 A2993=
200512062000 METAR MROC 062000Z 06010KT 9999 FEW025 28/15 A2990=
200512062100 METAR MROC 062100Z 09012KT 9999 FEW035 SCT130 27/15 A2988 NOSIG=
200512062200 METAR MROC 062200Z 22012KT 9999 FEW030 SCT120 25/20 A2989 NOSIG=
200512062300 METAR MROC 062300Z 13004KT 9999 SCT030 SCT120 23/20 A2991 NOSIG=
200512070000 METAR MROC 070000Z 11007KT 9999 FEW035 SCT120 22/17 A2992 NOSIG=
200512070100 METAR MROC 070100Z 00000KT 9999 FEW035 21/19 A2994 NOSIG=
200512070200 METAR MROC 070200Z 00000KT CAVOK 21/18 A2996 NOSIG=
200512070300 METAR MROC 070300Z 00000KT CAVOK 20/19 A2992 BECMG 03005KT=
200512070400 METAR MROC 070400Z 05009KT CAVOK 21/16 A2997 NOSIG=
200512070500 METAR MROC 070500Z 08004KT CAVOK 20/16 A2996 NOSIG=
200512070600 METAR MROC 070600Z 09010KT CAVOK 21/16 A2993 NOSIG=
200512070700 METAR MROC 070700Z 07006KT CAVOK 20/16 A2991 NOSIG=
200512070800 METAR MROC 070800Z 09013KT CAVOK 20/16 A2988 NOSIG=
200512070900 METAR MROC 070900Z 09009KT CAVOK 20/16 A2987 NOSIG=
200512071000 METAR MROC 071000Z 10011KT CAVOK 20/16 A2988 NOSIG=
200512071100 METAR MROC 071100Z 09011KT CAVOK 21/16 A2991 NOSIG=
200512071200 METAR MROC 071200Z 09012KT 9999 FEW035 BKN120 20/16 A2993 NOSIG=
200512071300 METAR MROC 071300Z 10016KT 9999 FEW035 21/16 A2995 NOSIG=
200512071400 METAR MROC 071400Z 09020KT 9999 FEW040 SCT250 24/17 A2996 NOSIG=
200512071500 METAR MROC 071500Z 09017KT 9999 FEW030 SCT120 25/17 A2998 NOSIG=
200512071600 METAR MROC 071600Z 07019KT 9999 SCT035 25/17 A2998 NOSIG=
200512071700 METAR MROC 071700Z 07010G23KT 9999 SCT035 27/16 A2996 RMK DZ DST NE NOSIG=
200512071800 METAR MROC 071800Z 08015KT 9999 BKN030 24/17 A2993 RMK RN DST SSW NE NOSIG=
200512071900 METAR MROC 071900Z 06019KT 9999 SCT035 25/16 A2990 NOSIG=
200512072000 METAR MROC 072000Z 06015G25KT 9999 FEW035 27/16 A2987 NOSIG=
200512072100 METAR MROC 072100Z 06013KT 9999 SCT030 26/16 A2986 RMK DZ N NE=
200512072200 METAR MROC 072200Z 05015KT 9999 SCT030 25/15 A2986 RMK DZ N NE=
200512072300 METAR MROC 072300Z 07013KT 9999 DZ BKN030 23/16 A2988=
200512080000 METAR MROC 080000Z 10010KT 9999 SCT030 22/15 A2989=
200512080100 METAR MROC 080100Z 03004KT 9999 FEW030 22/15 A2993=
200512080200 METAR MROC 080200Z 04010G20KT 9999 FEW030 21/17 A2997 NOSIG=
200512080300 METAR MROC 080300Z 10009KT 9999 SCT030 20/16 A2998=
200512080400 METAR MROC 080400Z 11006KT CAVOK 20/15 A2997=
200512080500 METAR MROC 080500Z 09003KT CAVOK 18/16 A2997=
200512080600 METAR MROC 080600Z VRB03KT CAVOK 18/16 A2995=
200512080700 METAR MROC 080700Z 35006KT CAVOK 18/16 A2993=
200512080800 METAR MROC 080800Z 01006KT CAVOK 19/15 A2992=
200512081000 METAR MROC NIL=
200512081100 METAR MROC 081100Z 09008KT CAVOK 19/15 A2992=
200512081200 METAR MROC 081200Z 09009KT 9999 FEW020 20/15 A2994=
200512081300 METAR MROC 081300Z 08010G20KT 9999 FEW030 21/14 A2997 NOSIG=
200512081400 METAR MROC 081400Z 08010G20KT 9999 FEW030 24/15 A2998 NOSIG=
200512081500 METAR MROC 081500Z 07010G23KT 9999 FEW035 25/14 A2998 NOSIG=
200512081600 METAR MROC 081600Z 07011G23KT 9999 FEW035 26/16 A2998 NOSIG=
200512081700 METAR MROC 081700Z 07016G30KT 9999 SCT035 27/16 A2996 NOSIG=
200512081800 METAR MROC 081800Z 06018G33KT 9999 SCT035 26/16 A2994 NOSIG=
200512081900 METAR MROC 081900Z 09015G28KT 9999 SCT035 27/17 A2990 NOSIG=
200512082000 METAR MROC 082000Z 04020KT 9999 SCT035 27/15 A2989 NOSIG=
200512082100 METAR MROC 082100Z 05015KT 9999 SCT035 27/15 A2989 NOSIG=
200512082200 METAR MROC 082200Z 05017KT 9999 FEW035 24/13 A2989 NOSIG=
200512082300 METAR MROC 082300Z 06012KT 9999 FEW030 23/14 A2991 NOSIG=
200512090000 METAR MROC 090000Z 06009KT 9999 FEW030 22/14 A2993 NOSIG=
200512090100 METAR MROC 090100Z 08009KT CAVOK 21/14 A2995 NOSIG=
200512090200 METAR MROC 090200Z 08014KT CAVOK 22/16 A2998 NOSIG=
200512090300 METAR MROC 090300Z 06009KT CAVOK 21/15 A2999 NOSIG=
200512090400 METAR MROC 090400Z 08017KT CAVOK 21/15 A2999 NOSIG=
200512090500 METAR MROC 090500Z 07018KT CAVOK 22/15 A2997 NOSIG=
200512090600 METAR MROC 090600Z 08015KT CAVOK 22/15 A2998 NOSIG=
200512090700 METAR MROC 090700Z 09007KT CAVOK 21/15 A2996 NOSIG=
200512090800 METAR MROC 090800Z 09011KT CAVOK 21/15 A2995 NOSIG=
200512090900 METAR MROC 090900Z 09016KT CAVOK 20/15 A2994 NOSIG=
200512091000 METAR MROC 091000Z 08015KT CAVOK 21/15 A2993 NOSIG=
200512091100 METAR MROC 091100Z 09012KT CAVOK 19/15 A2996 NOSIG=
200512091200 METAR MROC 091200Z 08006KT CAVOK 19/15 A2997 NOSIG=
200512091300 METAR MROC 091300Z 09006KT CAVOK 22/16 A2999 NOSIG=
200512091400 METAR MROC 091400Z 06009G19KT 9999 FEW040 25/16 A3001 NOSIG=
200512091500 METAR MROC 091500Z 05017KT 9999 FEW040 25/16 A3001 NOSIG=
200512091600 METAR MROC 091600Z 05019KT 9999 FEW040 26/14 A3000 NOSIG=
200512091700 METAR MROC 091700Z 06013KT 9999 FEW040 26/13 A2998 NOSIG=
200512091800 METAR MROC 091800Z 06011G21KT 9999 FEW040 26/14 A2995 NOSIG=
200512091900 METAR MROC 091900Z 05010G20KT 9999 SCT040 25/12 A2992 NOSIG=
200512092000 METAR MROC 092000Z 05016KT 9999 FEW040 27/12 A2990 NOSIG=
200512092100 METAR MROC 092100Z 04015KT 9999 FEW040 27/13 A2988 NOSIG=
200512092200 METAR MROC 092200Z 07010KT 9999 FEW040 26/14 A2988 NOSIG=
200512092300 METAR MROC 092300Z 06011KT 9999 FEW035 24/17 A2990 NOSIG=
200512100000 METAR MROC 100000Z 08005KT 9999 FEW035 21/14 A2991 NOSIG=
200512100100 METAR MROC 100100Z 08009KT 9999 FEW035 20/15 A2993 NOSIG=
200512100200 METAR MROC 100200Z 07006KT 9999 FEW035 20/15 A2995=
200512100300 METAR MROC 100300Z 10009KT CAVOK 20/15 A2995 NOSIG=
200512100400 METAR MROC 100400Z 09011KT CAVOK 20/16 A2994 NOSIG=
200512100500 METAR MROC 100500Z 10010KT CAVOK 20/15 A2994 NOSIG=
200512100600 METAR MROC 100600Z 11009KT CAVOK 20/15 A2993 NOSIG=
200512100800 METAR MROC 100800Z 06005KT CAVOK 18/14 A2991 NOSIG=
200512100900 METAR MROC 100900Z 33003KT CAVOK 18/14 A2990 NOSIG=
200512101000 METAR MROC 101000Z 05008KT CAVOK 17/14 A2992 NOSIG=
200512101100 METAR MROC 101100Z 04003KT CAVOK 17/14 A2993=
200512101200 METAR MROC 101200Z 02005KT CAVOK 17/14 A2994 NOSIG=
200512101300 METAR MROC 101300Z 06005KT CAVOK 21/15 A2996 NOSIG=
200512101400 METAR MROC 101400Z 11006KT CAVOK 24/16 A2996 NOSIG=
200512101500 METAR MROC 101500Z 10010KT CAVOK 27/16 A2996 NOSIG=
200512101600 METAR MROC 101600Z 08010KT 9999 FEW045 28/16 A2996 NOSIG=
200512101700 METAR MROC 101700Z 10005KT 9999 FEW045 29/16 A2994 NOSIG=
200512101800 METAR MROC 101800Z 07007KT 9999 FEW045 29/17 A2991 NOSIG=
200512101900 METAR MROC 101900Z 26009KT 9999 SCT040 25/19 A2988 NOSIG=
200512102000 METAR MROC 102000Z 25008KT 9999 SCT040 26/20 A2986 NOSIG=
200512102100 METAR MROC 102100Z 25010KT 9999 FEW020TCU SCT035 25/20 A2986=
200512102200 METAR MROC 102200Z 22007KT 9999 FEW015TCU SCT040 24/20 A2986=
200512102300 METAR MROC 102300Z 22005KT 9999 SCT025 22/20 A2989=
200512110000 METAR MROC 110000Z 00000KT 9999 SCT030 21/19 A2991=
200512110100 METAR MROC 110100Z 00000KT 9999 FEW030 20/19 A2993 BECMG CAVOK=
200512110200 METAR MROC 110200Z 00000KT 9999 FEW030 20/18 A2995 NOSIG=
200512110300 METAR MROC 110300Z 30004KT 9999 FEW010 19/19 A2996 NOSIG=
200512110400 METAR MROC 110400Z 01004KT CAVOK 19/18 A2995 NOSIG=
200512110500 METAR MROC 110500Z 03003KT CAVOK 20/18 A2995 NOSIG=
200512110600 METAR MROC 110600Z 28003KT CAVOK 20/18 A2993 NOSIG=
200512110700 METAR MROC 110700Z 00000KT CAVOK 20/17 A2992 NOSIG=
200512110800 METAR MROC 110800Z 03004KT CAVOK 20/17 A2991 NOSIG=
200512110900 METAR MROC 110900Z 04007KT CAVOK 20/17 A2989 NOSIG=
200512111000 METAR MROC 111000Z 05007KT CAVOK 20/18 A2989 NOSIG=
200512111100 METAR MROC 111100Z 05004KT 9999 FEW040 SCT090 20/17 A2990 NOSIG=
200512111200 METAR MROC 111200Z 07008KT 9999 FEW030 BKN090 20/18 A2992 NOSIG=
200512111300 METAR MROC 111300Z 00000KT 9999 FEW030 BKN090 23/18 A2994=
200512111400 METAR MROC 111400Z 13003KT 9999 FEW025 SCT150 25/19 A2996=
200512111500 METAR MROC 111500Z 11008KT 9999 FEW030 SCT200 27/18 A2997=
200512111600 METAR MROC 111600Z 09011KT CAVOK 28/18 A2994=
200512111700 METAR MROC 111700Z 09009KT 9999 FEW025 SCT150 29/18 A2993=
200512111800 METAR MROC 111800Z 24011KT 9999 SCT025 27/21 A2991=
200512111900 METAR MROC 111900Z 23013KT 9999 FEW025 SCT040 27/21 A2989=
200512112000 METAR MROC 112000Z 24012KT 9999 SCT020TCU SCT040 25/21 A2988=
200512112100 METAR MROC 112100Z 22014KT 9999 SCT012TCU BKN025 24/21 A2988 RMK RN DST N NE NOSIG=
200512112200 METAR MROC 112200Z 28009KT 9999 FEW012 BKN020 23/20 A2989 BECMG -RA=
200512112300 METAR MROC 112300Z 22006KT 9999 FEW010 SCT025 BKN250 23/21 A2990 BECMG -RA=
200512120000 METAR MROC 120000Z 21005KT 9999 FEW007 SCT020 BKN250 22/21 A2991 RMK 7000SW VCFG BECMG -RA BR=
200512120100 METAR MROC 120100Z 22004KT 9999 FEW003 SCT020 22/21 A2995 RMK 7000SW=
200512120200 METAR MROC 120200Z 26005KT 9999 FEW003 SCT015 22/21 A2996 RMK 7000W VCFG BECMG 5000 BR=
200512120300 METAR MROC 120300Z 00000KT 8000 VCFG FEW004 SCT050 21/21 A2997=
200512120400 METAR MROC 120400Z 24003KT 7000 VCFG FEW003 SCT040 21/21 A2997=
200512120500 METAR MROC 120500Z 09006KT 5000SW DZ BR FEW003 SCT050 21/20 A2996=
200512120600 METAR MROC 120600Z 00000KT 9999 FEW025 SCT100 21/19 A2994=
200512120700 METAR MROC 120700Z 00000KT 4000SW -RA BR FEW005 SCT030 SCT080 21/19 A2992=
200512120800 METAR MROC 120800Z 00000KT 7000 DZ BR FEW005 SCT050 SCT100 21/19 A2991=
200512120900 METAR MROC 120900Z 00000KT 5000SW DZ BR FEW003 BKN090 21/20 A2990=
200512121000 METAR MROC 121000Z 00000KT 5000SW DZ BR FEW002 SCT090 20/19 A2990=
200512121100 METAR MROC 121100Z 00000KT 8000 VCFG FEW005 SCT080 21/19 A2989 RMK BR SW=
200512121200 METAR MROC 121200Z 00000KT 9999 FEW020 SCT060 20/19 A2992=
200512121300 METAR MROC 121300Z 29005KT 9999 FEW030 BKN090 21/20 A2995 RMK RN DST E NOSIG=
200512121400 METAR MROC 121400Z 06005KT 9999 DZ FEW030 SCT090 BKN250 22/20 A2996 NOSIG=
200512121500 METAR MROC 121500Z 11009KT 9999 FEW030 SCT100 23/19 A2995 RMK RN DST N NE NOSIG=
200512121600 METAR MROC 121600Z 06007KT 090V340 9999 RA SCT030 BKN090 23/20 A2996 BECMG 24008KT=
200512121700 METAR MROC 121700Z 28005KT 9999 SCT030 SCT100 24/21 A2994 RMK RN DST E NOSIG=
200512121800 METAR MROC 121800Z 09010KT 9999 SCT035 BKN110 27/20 A2991 RMK RN DST E NE BECMG -RA=
200512121900 METAR MROC 121900Z 00000KT 9999 SCT030 BKN120 26/19 A2990 BECMG 24008KT 5000 -RA=
200512122000 METAR MROC 122000Z 09004KT 9999 -RA SCT030 BKN120 25/20 A2988 NOSIG=
200512122100 METAR MROC 122100Z 09002KT 9999 -RA SCT030 BKN120 23/21 A2987 NOSIG=
200512122200 METAR MROC 122200Z 10007KT 9999 FEW030 BKN120 23/19 A2986 NOSIG=
200512122300 METAR MROC 122300Z 05002KT 9999 FEW030 SCT120 23/19 A2989 NOSIG=
200512130000 METAR MROC 130000Z 11004KT 9999 FEW030 SCT120 21/18 A2991 NOSIG=
200512130100 METAR MROC 130100Z 09004KT 9999 FEW030 SCT120 22/18 A2994 NOSIG=
200512130200 METAR MROC 130200Z 07007KT 9999 FEW030 SCT100 22/18 A2997=
200512130300 METAR MROC 130300Z 05003KT 8000 DZ FEW020 SCT080 21/19 A2999=
200512130400 METAR MROC 130400Z 00000KT 9000 SCT015 SCT090 20/19 A3000 RERA=
200512130500 METAR MROC 130500Z 00000KT 9999 FEW025 SCT120 20/19 A2998 RERA=
200512130600 METAR MROC 130600Z 03005KT 9999 FEW030 SCT150 20/19 A2996=
200512130700 METAR MROC 130700Z 00000KT 9999 FEW025 SCT100 20/19 A2994=
200512130900 METAR MROC 130900Z 35003KT 9999 FEW030 SCT120 20/19 A2991=
200512131100 METAR MROC 131100Z 05004KT 9999 -DZ FEW020 SCT100 21/18 A2994=
200512131200 METAR MROC 131200Z 08009KT 9999 -DZ SCT015 SCT060 21/17 A2995=
200512131300 METAR MROC 131300Z 10008KT 9999 SCT020 SCT080 21/18 A2998 RMK N NE=
200512131400 METAR MROC 131400Z 09007KT 9999 SCT020 SCT080 21/17 A2998 RMK N NE=
200512131500 METAR MROC 131500Z 08015KT 9999 SCT020 SCT100 22/17 A2997 NOSIG=
200512131600 METAR MROC 131600Z 09019KT 9999 FEW030 SCT100 BKN260 24/17 A2997 NOSIG=
200512131700 METAR MROC 131700Z 08015G25KT 9999 FEW030 BKN260 25/17 A2995 NOSIG=
200512131800 METAR MROC 131800Z 07019KT 9999 FEW030 BKN260 25/17 A2991=
200512131900 METAR MROC 131900Z 09012KT 9999 FEW030 BKN260 25/17 A2991 RMK RN N NE NW=
200512132000 METAR MROC 132000Z 08012G22KT 9999 FEW030 BKN260 24/17 A2989 RMK RN N NE NOSIG=
200512132100 METAR MROC 132100Z 11014KT 9999 FEW030 BKN040 23/17 A2988 NOSIG=
200512132200 METAR MROC 132200Z 11010KT 9999 SCT040 BKN280 22/17 A2988 NOSIG=
200512132300 METAR MROC 132300Z 09012G22KT 9999 SCT040 BKN280 21/16 A2988 NOSIG=
200512140100 METAR MROC 140100Z 09014KT 9999 SCT040 BKN280 20/16 A2989 NOSIG=
200512140200 METAR MROC 140200Z 08011KT CAVOK 21/16 A2995 NOSIG=
200512140300 METAR MROC 140300Z 09016KT CAVOK 20/16 A2997 NOSIG=
200512140400 METAR MROC 140400Z 09021KT CAVOK 21/16 A2996 NOSIG=
200512140500 METAR MROC 140500Z 09010G20KT CAVOK 20/16 A2996 NOSIG=
200512140600 METAR MROC 140600Z 09011G21KT CAVOK 20/15 A2995 NOSIG=
200512140700 METAR MROC 140700Z 06009KT CAVOK 20/16 A2994 NOSIG=
200512140800 METAR MROC 140800Z 09013G23KT CAVOK 20/16 A2992 NOSIG=
200512140900 METAR MROC 140900Z 36006KT CAVOK 20/16 A2991 NOSIG=
200512141000 METAR MROC 141000Z 07009KT CAVOK 19/16 A2991 NOSIG=
200512141100 METAR MROC 141100Z 07009KT CAVOK 20/17 A2990 NOSIG=
200512141200 METAR MROC 141200Z 09010KT 9999 FEW025 SCT120 BKN250 20/17 A2993 RMK RN DST E NE N NOSIG=
200512141213 METAR MROC 141213Z 09010KT 9999 FEW025 SCT120 BKN250 20/17 A2993 RMK RN DST E NE N NOSIG=
200512141300 METAR MROC 141300Z 09014KT 9999 FEW025 SCT080 BKN280 21/17 A2993 NOSIG=
200512141400 METAR MROC 141400Z 09017KT 9999 FEW025 SCT080 BKN280 24/17 A2995 NOSIG=
200512141500 METAR MROC 141500Z 10013G23KT 9999 FEW025 SCT080 BKN280 23/17 A2995 NOSIG=
200512141600 METAR MROC 141600Z 08015KT 9999 FEW025 SCT080 25/16 A2996 NOSIG=
200512141700 METAR MROC 141700Z 08014KT 9999 FEW025 SCT080 26/18 A2996 NOSIG=
200512141800 METAR MROC 141800Z 08010KT 9999 FEW025 SCT080 25/17 A2994 NOSIG=
200512141900 METAR MROC 141900Z 10010KT 9999 FEW025 SCT080 25/18 A2991 NOSIG=
200512142000 METAR MROC 142000Z 10010KT 9999 FEW025 SCT100 27/18 A2988 NOSIG=
200512142100 METAR MROC 142100Z 09012KT 9999 SCT030 SCT150 25/17 A2987=
200512142200 METAR MROC 142200Z 09008KT 9999 SCT025 SCT200 25/16 A2988=
200512142300 METAR MROC 142300Z 10010KT 9999 SCT020 BKN250 23/16 A2988=
200512150000 METAR MROC 150000Z 10010KT 9999 SCT025 21/15 A2991=
200512150100 METAR MROC 150100Z 10008KT CAVOK 21/16 A2994=
200512150200 METAR MROC 150200Z 06006KT CAVOK 20/16 A2996=
200512150300 METAR MROC 150300Z 05003KT CAVOK 20/16 A2998 NOSIG=
200512150400 METAR MROC 150400Z 15002KT CAVOK 19/16 A2997=
200512150500 METAR MROC 150500Z 10007KT CAVOK 19/15 A2995 NOSIG=
200512150600 METAR MROC 150600Z 03005KT CAVOK 18/15 A2994 NOSIG=
200512150700 METAR MROC 150700Z 05007KT CAVOK 17/14 A2992 NOSIG=
200512150800 METAR MROC 150800Z 07005KT CAVOK 16/13 A2990 NOSIG=
200512150900 METAR MROC 150900Z 07005KT CAVOK 15/13 A2990 NOSIG=
200512151100 METAR MROC 151100Z 06003KT CAVOK 15/12 A2991 NOSIG=
200512151200 METAR MROC 151200Z 06006KT CAVOK 14/12 A2992 NOSIG=
200512151300 METAR MROC 151300Z 06005KT CAVOK 19/12 A2995=
200512151400 METAR MROC 151400Z 05008KT CAVOK 24/13 A2997=
200512151500 METAR MROC 151500Z 09005KT CAVOK 26/14 A2997=
200512151600 METAR MROC 151600Z 09008KT CAVOK 27/14 A2996=
200512151700 METAR MROC 151700Z 05005KT CAVOK 29/13 A2994=
200512151800 METAR MROC 151800Z VRB03KT CAVOK 30/12 A2991 BECMG 24008KT=
200512151900 METAR MROC 151900Z 24012KT 9999 SCT025 27/18 A2989=
200512152000 METAR MROC 152000Z 24011KT 9999 SCT025 SCT250 26/19 A2987=
200512152100 METAR MROC 152100Z 22008KT 9999 SCT020 SCT250 26/20 A2987=
200512152200 METAR MROC 152200Z 24008KT 9999 SCT020 SCT250 26/19 A2986=
200512152300 METAR MROC 152300Z 25006KT 9999 SCT025 SCT200 24/21 A2987=
200512160000 METAR MROC 160000Z 20003KT 9999 SCT025 22/21 A2989=
200512160100 METAR MROC 160100Z 20003KT 9999 FEW025 21/19 A2992=
200512160200 METAR MROC 160200Z 09004KT CAVOK 21/17 A2994 NOSIG=
200512160300 METAR MROC 160300Z 00000KT CAVOK 21/17 A2996 NOSIG=
200512160400 METAR MROC 160400Z 09003KT CAVOK 20/16 A2996 NOSIG=
200512160500 METAR MROC 160500Z 04005KT CAVOK 20/16 A2995 NOSIG=
200512160600 METAR MROC 160600Z 09008KT 9999 FEW030 SCT100 20/16 A2994 BECMG CAVOK=
200512160700 METAR MROC 160700Z 08005KT CAVOK 20/16 A2992 NOSIG=
200512160800 METAR MROC 160800Z 07006KT CAVOK 19/16 A2990 NOSIG=
200512160900 METAR MROC 160900Z 06006KT CAVOK 19/14 A2990 NOSIG=
200512161000 METAR MROC 161000Z 07007KT CAVOK 20/14 A2989 NOSIG=
200512161100 METAR MROC 161100Z 09012KT CAVOK 21/13 A2989 NOSIG=
200512161200 METAR MROC 161200Z 07010KT CAVOK 20/13 A2991 NOSIG=
200512161300 METAR MROC 161300Z 08008KT CAVOK 21/14 A2994=
200512161400 METAR MROC 161400Z 10013KT CAVOK 22/13 A2996=
200512161500 METAR MROC 161500Z 10017KT CAVOK 24/14 A2997=
200512161600 METAR MROC 161600Z 10012KT CAVOK 26/13 A2997=
200512161700 METAR MROC 161700Z 10012KT CAVOK 27/12 A2995=
200512161800 METAR MROC 161800Z 10010KT CAVOK 27/13 A2993=
200512161900 METAR MROC 161900Z 07010KT CAVOK 27/13 A2991=
200512162000 METAR MROC 162000Z 08008KT 9999 FEW030 BKN250 27/12 A2990=
200512162100 METAR MROC 162100Z 08010KT 9999 FEW035 BKN250 26/13 A2989 NOSIG=
200512162200 METAR MROC 162200Z 09011KT CAVOK 25/13 A2991 NOSIG=
200512162300 METAR MROC 162300Z 08007KT CAVOK 23/11 A2992 NOSIG=
200512170000 METAR MROC 170000Z 00000KT CAVOK 20/14 A2995 NOSIG=
200512170100 METAR MROC 170100Z 03004KT CAVOK 20/11 A2997 NOSIG=
200512170200 METAR MROC 170200Z 05009KT CAVOK 17/13 A2998 NOSIG=
200512170300 METAR MROC 170300Z 09008KT CAVOK 19/17 A3000 NOSIG=
200512170400 METAR MROC 170400Z 06006KT CAVOK 18/12 A3000=
200512170500 METAR MROC 170500Z 06009KT CAVOK 17/12 A3000 NOSIG=
200512170600 METAR MROC 170600Z 09006KT CAVOK 18/13 A2999 NOSIG=
200512170700 METAR MROC 170700Z 04008KT CAVOK 17/12 A2997 NOSIG=
200512170800 METAR MROC 170800Z 03007KT CAVOK 17/12 A2997 NOSIG=
200512170900 METAR MROC 170900Z 09007KT CAVOK 18/11 A2996 NOSIG=
200512171000 METAR MROC 171000Z 02006KT CAVOK 18/12 A2997 NOSIG=
200512171100 METAR MROC 171100Z 03008KT CAVOK 18/12 A2999 NOSIG=
200512171200 METAR MROC 171200Z 07008KT CAVOK 19/12 A2999 NOSIG=
200512171300 METAR MROC 171300Z 04012KT CAVOK 20/14 A3003 NOSIG=
200512171400 METAR MROC 171400Z 09008KT CAVOK 22/15 A3004 NOSIG=
200512171500 METAR MROC 171500Z 09013KT CAVOK 26/14 A3005 NOSIG=
200512171600 METAR MROC 171600Z 09010G20KT CAVOK 26/12 A3005 NOSIG=
200512171700 METAR MROC 171700Z 08016KT CAVOK 27/13 A3004 NOSIG=
200512171800 METAR MROC 171800Z 10014KT CAVOK 28/13 A3001 NOSIG=
200512171900 METAR MROC 171900Z 10011KT 9999 FEW040 28/13 A2999 NOSIG=
200512172000 METAR MROC 172000Z 18006KT 9999 FEW035 27/18 A2998 BECMG 24006KT=
200512172100 METAR MROC 172100Z 19004KT 9999 FEW040 27/20 A2997 NOSIG=
200512172200 METAR MROC 172200Z 22009KT 9999 FEW040 25/19 A2997=
200512172300 METAR MROC 172300Z 23006KT 9999 FEW040 22/20 A2999 NOSIG=
200512180000 METAR MROC 180000Z 23003KT 9999 FEW040 20/19 A3002 NOSIG=
200512180100 METAR MROC 180100Z 18003KT 9999 FEW040 20/18 A3004 NOSIG=
200512180200 METAR MROC 180200Z 00000KT 9999 FEW040 19/19 A3006 NOSIG=
200512180300 METAR MROC 180300Z 09007KT CAVOK 19/15 A3007 NOSIG=
200512180400 METAR MROC 180400Z 09010KT CAVOK 20/14 A3006 NOSIG=
200512180500 METAR MROC 180500Z 08009KT CAVOK 19/14 A3005 NOSIG=
200512180600 METAR MROC 180600Z 07010KT CAVOK 20/15 A3004 NOSIG=
200512180700 METAR MROC 180700Z 10011KT CAVOK 19/14 A3003 NOSIG=
200512180800 METAR MROC 180800Z 10010KT CAVOK 19/14 A3002 NOSIG=
200512180900 METAR MROC 180900Z 10011KT CAVOK 19/14 A3001 NOSIG=
200512181000 METAR MROC 181000Z 09013KT CAVOK 19/14 A3002 NOSIG=
200512181100 METAR MROC 181100Z 09011KT CAVOK 19/14 A3004 NOSIG=
200512181200 METAR MROC 181200Z 09008KT CAVOK 19/14 A3006 NOSIG=
200512181300 METAR MROC 181300Z 09009KT CAVOK 21/15 A3007 NOSIG=
200512181400 METAR MROC 181400Z 10011KT CAVOK 21/15 A3008 NOSIG=
200512181500 METAR MROC 181500Z 11009KT CAVOK 25/13 A3008 NOSIG=
200512181600 METAR MROC 181600Z 10012KT CAVOK 26/12 A3008 NOSIG=
200512181700 METAR MROC 181700Z 10011KT CAVOK 28/13 A3006 NOSIG=
200512181800 METAR MROC 181800Z 11009KT 9999 FEW040 28/13 A3004 NOSIG=
200512181900 METAR MROC 181900Z 06009KT 9999 FEW040 29/15 A3001=
200512182000 METAR MROC 182000Z 06008KT 9999 FEW040 28/14 A3000 NOSIG=
200512182100 METAR MROC 182100Z 09008KT 9999 SCT030 26/15 A2999 NOSIG=
200512182200 METAR MROC 182200Z 09009KT 9999 SCT030 25/16 A3000 NOSIG=
200512182300 METAR MROC 182300Z 09008KT 9999 SCT030 24/16 A3001 NOSIG=
200512190000 METAR MROC 190000Z 09009KT 9999 FEW030 21/16 A3003 NOSIG=
200512190100 METAR MROC 190100Z 10011KT CAVOK 21/15 A3005 NOSIG=
200512190200 METAR MROC 190200Z 10008KT CAVOK 20/15 A3007 NOSIG=
200512190300 METAR MROC 190300Z 10015KT CAVOK 20/15 A3008 NOSIG=
200512190400 METAR MROC 190400Z 10013KT CAVOK 19/15 A3008 NOSIG=
200512190500 METAR MROC 190500Z 09015KT CAVOK 19/14 A3007 NOSIG=
200512190600 METAR MROC 190600Z 09014KT CAVOK 19/14 A3005 NOSIG=
200512190700 METAR MROC 190700Z 09012KT CAVOK 19/14 A3004 NOSIG=
200512190800 METAR MROC 190800Z 10016KT CAVOK 20/13 A3001 NOSIG=
200512190900 METAR MROC 190900Z 11017KT CAVOK 19/14 A3001 NOSIG=
200512191000 METAR MROC 191000Z 10018KT CAVOK 19/14 A3001 NOSIG=
200512191100 METAR MROC 191100Z 10016KT CAVOK 18/13 A3001 NOSIG=
200512191200 METAR MROC 191200Z 10015KT CAVOK 19/13 A3002 NOSIG=
200512191300 METAR MROC 191300Z 10012KT CAVOK 21/14 A3004 NOSIG=
200512191400 METAR MROC 191400Z 09009KT CAVOK 24/14 A3006 NOSIG=
200512191500 METAR MROC 191500Z 08015KT 9999 FEW030 24/16 A3007 NOSIG=
200512191600 METAR MROC 191600Z 09013KT 9999 SCT035 23/15 A3007 NOSIG=
200512191700 METAR MROC 191700Z 09012KT 9999 BKN035 24/15 A3004 NOSIG=
200512191800 METAR MROC 191800Z 07014KT 9999 BKN035 24/14 A3003 NOSIG=
200512191900 METAR MROC 191900Z 09012KT 9999 SCT035 26/14 A2999 NOSIG=
200512192000 METAR MROC 192000Z 08012KT 9999 FEW035 SCT090 27/14 A2997 NOSIG=
200512192100 METAR MROC 192100Z 08006KT 9999 FEW040 27/14 A2995 NOSIG=
200512192200 METAR MROC 192200Z 07012KT CAVOK 26/13 A2995 NOSIG=
200512192300 METAR MROC 192300Z 07009KT 9999 FEW045 SCT250 24/13 A2997 NOSIG=
200512200000 METAR MROC 200000Z 10008KT 9999 FEW045 SCT250 22/14 A2999 NOSIG=
200512200100 METAR MROC 200100Z 10006KT CAVOK 21/13 A3001 NOSIG=
200512200200 METAR MROC 200200Z 07010KT CAVOK 20/15 A3003 NOSIG=
200512200300 METAR MROC 200300Z 08008KT CAVOK 20/13 A3005 NOSIG=
200512200400 METAR MROC 200400Z 08009KT CAVOK 20/13 A3004 NOSIG=
200512200500 METAR MROC 200500Z 09013KT CAVOK 20/14 A3002 NOSIG=
200512200600 METAR MROC 200600Z 09012KT CAVOK 20/13 A3000=
200512200700 METAR MROC 200700Z 10011KT CAVOK 19/14 A2998 NOSIG=
200512200800 METAR MROC 200800Z 10011KT CAVOK 19/14 A2997 NOSIG=
200512200900 METAR MROC 200900Z 09011KT CAVOK 19/14 A2996 NOSIG=
200512201000 METAR MROC 201000Z 09012KT CAVOK 20/19 A2998 NOSIG=
200512201100 METAR MROC 201100Z 08010KT CAVOK 20/14 A2999 NOSIG=
200512201200 METAR MROC 201200Z 08010KT CAVOK 21/13 A3000 NOSIG=
200512201300 METAR MROC 201300Z 10013KT CAVOK 21/14 A3002 NOSIG=
200512201400 METAR MROC 201400Z 10014KT CAVOK 23/14 A3004 NOSIG=
200512201500 METAR MROC 201500Z 09009KT CAVOK 24/13 A3004 NOSIG=
200512201600 METAR MROC 201600Z 09014KT CAVOK 26/14 A3003 NOSIG=
200512201700 METAR MROC 201700Z 08014KT 9999 FEW045 BKN250 26/15 A3001 NOSIG=
200512201800 METAR MROC 201800Z 06014KT 9999 FEW045 BKN250 27/15 A2999 NOSIG=
200512201900 METAR MROC 201900Z 05014KT 9999 FEW040 BKN250 27/14 A2996 NOSIG=
200512202000 METAR MROC 202000Z 08007KT 9999 FEW040 BKN250 28/16 A2994 NOSIG=
200512202100 METAR MROC 202100Z 06016KT 9999 FEW035 SCT120 25/16 A2993 NOSIG=
200512202200 METAR MROC 202200Z 08011KT 9999 FEW035 SCT250 25/15 A2993 NOSIG=
200512202300 METAR MROC 202300Z 10010KT 9999 SCT030 BKN250 23/14 A2994 NOSIG=
200512210000 METAR MROC 210000Z 08008KT 9999 SCT030 BKN250 22/14 A2997 NOSIG=
200512210100 METAR MROC 210100Z 09010KT 9999 FEW030 BKN250 21/10 A2998 NOSIG=
200512210200 METAR MROC 210200Z 09014KT CAVOK 21/11 A3001 NOSIG=
200512210300 METAR MROC 210300Z 10013KT CAVOK 20/12 A3002 NOSIG=
200512210400 METAR MROC 210400Z 09013KT CAVOK 21/13 A3001 NOSIG=
200512210500 METAR MROC 210500Z 10014KT CAVOK 20/13 A2999 NOSIG=
200512210600 METAR MROC 210600Z 09009KT CAVOK 19/13 A2999 NOSIG=
200512210700 METAR MROC 210700Z 10008KT CAVOK 19/13 A2999 NOSIG=
200512210800 METAR MROC 210800Z 10012KT CAVOK 19/13 A2998 NOSIG=
200512210900 METAR MROC 210900Z 09009KT CAVOK 19/13 A2997 NOSIG=
200512211000 METAR MROC 211000Z 09010KT CAVOK 19/13 A2997 NOSIG=
200512211100 METAR MROC 211100Z 10010KT CAVOK 19/12 A2998 NOSIG=
200512211200 METAR MROC 211200Z 10010KT CAVOK 19/12 A3003 NOSIG=
200512211400 METAR MROC 211400Z 11009KT CAVOK 23/13 A3006 NOSIG=
200512211500 METAR MROC 211500Z 11011KT CAVOK 25/13 A3006 NOSIG=
200512211600 METAR MROC 211600Z 10012KT CAVOK 26/14 A3004 NOSIG=
200512211700 METAR MROC 211700Z 08015KT 9999 FEW030 BKN250 25/15 A3002 NOSIG=
200512211800 METAR MROC 211800Z 08015KT 9999 FEW030 BKN250 27/16 A3000 NOSIG=
200512211900 METAR MROC 211900Z 09013KT 9999 FEW030 BKN230 24/15 A2998 NOSIG=
200512212000 METAR MROC 212000Z 09010KT 9999 FEW030 BKN250 25/15 A2997 NOSIG=
200512212100 METAR MROC 212100Z 08018KT 9999 FEW030 SCT250 25/15 A2996 NOSIG=
200512212200 METAR MROC 212200Z 09018KT 9999 FEW030 24/13 A2996 NOSIG=
200512212300 METAR MROC 212300Z 10019KT 9999 FEW035 22/13 A2997 NOSIG=
200512220000 METAR MROC 220000Z 10015KT CAVOK 21/14 A2998 NOSIG=
200512220100 METAR MROC 220100Z 10019KT CAVOK 20/14 A3000 NOSIG=
200512220200 METAR MROC 220200Z 10014KT CAVOK 20/14 A3002 NOSIG=
200512220300 METAR MROC 220300Z 04008KT CAVOK 19/14 A3004 NOSIG=
200512220400 METAR MROC 220400Z 05003KT CAVOK 19/12 A3004=
200512220500 METAR MROC 220500Z 33004KT CAVOK 18/12 A3003=
200512220600 METAR MROC 220600Z 04006KT CAVOK 18/12 A3003=
200512220700 METAR MROC 220700Z 03004KT CAVOK 18/11 A3000=
200512220900 METAR MROC 220900Z 03006KT CAVOK 17/13 A2998=
200512221000 METAR MROC 221000Z 01006KT CAVOK 17/12 A2998=
200512221100 METAR MROC 221100Z 09009KT CAVOK 18/13 A2998=
200512221200 METAR MROC 221200Z 05008KT CAVOK 18/13 A3001=
200512221300 METAR MROC 221300Z 04010KT CAVOK 20/13 A3004 NOSIG=
200512221400 METAR MROC 221400Z 07015KT CAVOK 23/14 A3004 NOSIG=
200512221500 METAR MROC 221500Z 10016KT CAVOK 25/15 A3004 NOSIG=
200512221600 METAR MROC 221600Z 09020KT CAVOK 27/13 A3003 NOSIG=
200512221700 METAR MROC 221700Z 10017KT CAVOK 28/13 A3000 NOSIG=
200512221800 METAR MROC 221800Z 11017KT 9999 FEW045 28/14 A2999 NOSIG=
200512221900 METAR MROC 221900Z 14003KT 9999 FEW040 29/14 A2997 NOSIG=
200512222000 METAR MROC 222000Z 22014KT 9999 SCT035 25/18 A2995 NOSIG=
200512222100 METAR MROC 222100Z 23008KT 9999 SCT035 25/19 A2995 NOSIG=
200512222200 METAR MROC 222200Z 23011KT 9999 SCT035 24/20 A2996 NOSIG=
200512222300 METAR MROC 222300Z 22004KT 9999 FEW020 SCT035 21/18 A2998 NOSIG=
200512230000 METAR MROC 230000Z 22002KT 9999 SCT030 20/18 A2999 NOSIG=
200512230100 METAR MROC 230100Z 24005KT 9999 SCT030 19/17 A3001 NOSIG=
200512230200 METAR MROC 230200Z 00000KT CAVOK 19/17 A3003=
200512230300 METAR MROC 230300Z 09005KT CAVOK 19/16 A3004=
200512230400 METAR MROC 230400Z 13003KT CAVOK 19/16 A3003=
200512230500 METAR MROC 230500Z 09009KT CAVOK 19/15 A3001=
200512230600 METAR MROC 230600Z 05009KT CAVOK 19/15 A3001=
200512230800 METAR MROC 230800Z 02011KT CAVOK 19/15 A2999=
200512230900 METAR MROC 230900Z 07007KT CAVOK 19/15 A2998=
200512231000 METAR MROC 231000Z 05007KT CAVOK 19/15 A2998=
200512231100 METAR MROC 231100Z 08012KT CAVOK 19/15 A2997=
200512231200 METAR MROC 231200Z 09016KT CAVOK 20/16 A2998=
200512231300 METAR MROC 231300Z 09016KT 9999 FEW035 21/16 A3000 NOSIG=
200512231400 METAR MROC 231400Z 09011KT 9999 FEW035 24/16 A3003 NOSIG=
200512231500 METAR MROC 231500Z 10018KT 9999 FEW035 24/16 A3002 NOSIG=
200512231600 METAR MROC 231600Z 07014KT 9999 FEW035 27/15 A3003 NOSIG=
200512231800 METAR MROC 231800Z 08011KT 9999 FEW035 28/16 A2997 NOSIG=
200512231900 METAR MROC 231900Z 07011KT 9999 FEW035 28/15 A2994 RMK FU S=
200512232000 METAR MROC 232000Z 08011KT 9999 FEW035 28/14 A2992 NOSIG=
200512232100 METAR MROC 232100Z 10010KT 9999 SCT035 28/14 A2992 RMK CB SE/SW NOSIG=
200512232200 METAR MROC 232200Z 11008KT 9999 SCT035 SCT260 26/15 A2992 NOSIG=
200512232300 METAR MROC 232300Z 23008KT 9999 FEW015 SCT030 BKN260 23/20 A2995 NOSIG=
200512240000 METAR MROC 240000Z 23007KT 9999 FEW010 SCT130 21/19 A2997 NOSIG=
200512240100 METAR MROC 240100Z 17005KT 9999 FEW025 SCT100 21/17 A3000 NOSIG=
200512240200 METAR MROC 240200Z 09005KT 9999 SCT030 21/17 A3001 NOSIG=
200512240300 METAR MROC 240300Z 09006KT CAVOK 20/17 A3004 NOSIG=
200512240400 METAR MROC 240400Z 09004KT CAVOK 19/16 A3003 NOSIG=
200512240500 METAR MROC 240500Z 09008KT CAVOK 20/16 A3003 RMK CB TS DST NW=
200512240600 METAR MROC 240600Z 05013KT CAVOK 19/15 A3002 NOSIG=
200512241200 METAR MROC 241200Z 05007KT CAVOK 18/14 A3000 NOSIG=
200512241300 METAR MROC 241300Z 04007KT CAVOK 19/15 A3001 NOSIG=
200512241400 METAR MROC 241400Z 09010KT CAVOK 22/15 A3003 NOSIG=
200512241500 METAR MROC 241500Z 08011KT CAVOK 25/15 A3003 NOSIG=
200512241600 METAR MROC 241600Z 10014KT CAVOK 26/14 A3002 NOSIG=
200512241700 METAR MROC 241700Z 10011KT CAVOK 28/14 A2999 NOSIG=
200512241800 METAR MROC 241800Z 10009KT 9999 FEW040 29/15 A2997 NOSIG=
200512241900 METAR MROC 241900Z 21007KT 9999 FEW040 27/17 A2994 NOSIG=
200512242000 METAR MROC 242000Z 23010KT 9999 SCT040 25/19 A2992 NOSIG=
200512242100 METAR MROC 242100Z 22010KT 9999 FEW035 BKN130 24/19 A2992 NOSIG=
200512242200 METAR MROC 242200Z 23010KT 9999 SCT020 BKN130 22/20 A2994 NOSIG=
200512242300 METAR MROC 242300Z 22007KT 9999 SCT020 BKN130 22/20 A2996 NOSIG=
200512250000 METAR MROC 250000Z 23006KT 9999 SCT020 BKN130 21/20 A2997 NOSIG=
200512250100 METAR MROC 250100Z 23005KT 9999 FEW003 SCT020 SCT130 21/20 A2999 RMK 7000 S/SW DUE ST NOSIG=
200512250200 METAR MROC 250200Z 24004KT 6000 VCFG SCT003 BKN020 20/20 A3002 RMK VIS UNL E BECMG 9999 SCT020 SCT130=
200512250300 METAR MROC 250300Z 22004KT 6000 VCFG SCT008 20/19 A3003 NOSIG=
200512250400 METAR MROC 250400Z 00000KT 8000 2000 BR FEW002 SCT010 20/19 A3003 NOSIG=
200512250500 METAR MROC 250500Z 00000KT 8000 2000SW BR FEW002 SCT010 20/19 A3002 NOSIG=
200512250600 METAR MROC 250600Z 00000KT 3000 BR FEW001 SCT008 20/19 A3000 NOSIG=
200512250700 METAR MROC 250700Z 00000KT 3000 BR FEW003 SCT008 20/19 A2998 NOSIG=
200512250800 METAR MROC 250800Z 00000KT 3000 BR FEW001 SCT008 19/19 A2997 BECMG 5000=
200512250900 METAR MROC 250900Z 00000KT 5000 BR FEW001 SCT010 20/18 A2996=
200512251000 METAR MROC 251000Z 29007KT 4000 BR FEW001 SCT010 19/19 A2998=
200512251100 METAR MROC 251100Z 06002KT 9999 2000SW BR FEW001 SCT010 19/18 A2998=
200512251200 METAR MROC 251200Z 01003KT 9999 FEW001 SCT010 BKN275 19/18 A3000=
200512251300 METAR MROC 251300Z 01006KT CAVOK 19/17 A3002 NOSIG=
200512251400 METAR MROC 251400Z 06006KT CAVOK 22/17 A3003 NOSIG=
200512251500 METAR MROC 251500Z 00000KT CAVOK 24/17 A3004 NOSIG=
200512251600 METAR MROC 251600Z 24009KT 9999 FEW045 25/19 A3004 NOSIG=
200512251700 METAR MROC 251700Z 25011KT 9999 FEW045 25/19 A3002 NOSIG=
200512251800 METAR MROC 251800Z 23008KT 9999 SCT030 26/18 A3001=
200512251900 METAR MROC 251900Z 21004KT 9999 RA BKN030 24/19 A2998 NOSIG=
200512252000 METAR MROC 252000Z 28003KT 9999 BKN030 22/19 A2995 NOSIG=
200512252100 METAR MROC 252100Z 23004KT 9999 SCT015TCU SCT090 24/20 A2995=
200512252200 METAR MROC 252200Z 23006KT 9999 SCT025 SCT220 23/20 A2994=
200512252300 METAR MROC 252300Z 26006KT 9999 FEW010 BKN180 22/20 A2996 BECMG 7000 VCFG=
200512260000 METAR MROC 260000Z 23003KT 8000 VCFG FEW005 SCT025 21/20 A2999 RMK VIS RED SW=
200512260100 METAR MROC 260100Z 25003KT 8000 DZ BR FEW010 SCT100 21/20 A3002 RMK VIS RED SW=
200512260200 METAR MROC 260200Z 00000KT 9999 FEW010 SCT040 21/20 A3005=
200512260300 METAR MROC 260300Z 00000KT 9999 FEW025 SCT120 21/20 A3005 NOSIG=
200512260400 METAR MROC 260400Z 11006KT CAVOK 20/18 A3005 NOSIG=
200512260500 METAR MROC 260500Z 08004KT CAVOK 20/17 A3000 NOSIG=
200512260600 METAR MROC 260600Z 06003KT CAVOK 20/17 A3000 NOSIG=
200512260700 METAR MROC 260700Z 00000KT CAVOK 20/17 A2999 NOSIG=
200512260800 METAR MROC 260800Z 09008KT CAVOK 20/16 A2996 NOSIG=
200512260900 METAR MROC 260900Z 09008KT CAVOK 20/16 A2998 NOSIG=
200512261000 METAR MROC 261000Z 09008KT CAVOK 20/16 A2999 NOSIG=
200512261100 METAR MROC 261100Z 08007KT CAVOK 20/16 A2999 NOSIG=
200512261200 METAR MROC 261200Z 09009KT 9999 FEW035 BKN100 20/16 A3000 NOSIG=
200512261300 METAR MROC 261300Z 07005KT 9999 FEW030 SCT100 22/17 A3003=
200512261400 METAR MROC 261400Z 09007KT 9999 SCT025 SCT100 22/17 A3007=
200512261500 METAR MROC 261500Z 09008KT 9999 FEW020 SCT150 23/17 A3007=
200512261600 METAR MROC 261600Z 08010KT 9999 FEW020 SCT180 25/17 A3006=
200512261700 METAR MROC 261700Z 07014KT 9999 FEW020 SCT200 26/15 A3004=
200512261800 METAR MROC 261800Z 10010KT 9999 FEW020 SCT250 27/17 A3002=
200512261900 METAR MROC 261900Z 12011KT 9999 SCT020 SCT220 27/17 A2999=
200512262000 METAR MROC 262000Z 05009KT 9999 SCT025 SCT100 27/16 A2998=
200512262100 METAR MROC 262100Z 22011KT 9999 FEW025 SCT120 BKN220 24/20 A2996 NOSIG=
200512262200 METAR MROC 262200Z 24014KT 9999 FEW035 SCT120 BKN240 23/20 A2998 NOSIG=
200512262300 METAR MROC 262300Z 23008KT 9999 4000SE VCSH SCT015 BKN090 22/20 A3000 BECMG 8000=
200512270000 METAR MROC 270000Z 14006KT 9999 RA SCT025 BKN090 21/20 A3002 NOSIG=
200512270100 METAR MROC 270100Z 22005KT 9999 -RA FEW035 OVC090 21/19 A3004 NOSIG=
200512270200 METAR MROC 270200Z 09009KT 9999 DZ FEW035 BKN100 20/18 A3006 NOSIG=
200512270300 METAR MROC 230700Z 01008KT 9999 DZ FEW015 BKN100 20/18 A3006=
200512270400 METAR MROC 270400Z 06003KT 9999 DZ FEW025 SCT120 20/17 A3008=
200512270500 METAR MROC 270500Z 08004KT 9999 -DZ FEW030 SCT120 20/18 A3007=
200512270600 METAR MROC 270600Z 05006KT 9999 -DZ FEW030 SCT130 20/18 A3004=
200512270700 METAR MROC 270700Z 30006KT 9999 FEW030 SCT150 20/18 A3001=
200512271000 METAR MROC 271000Z 33004KT 9999 FEW030 BKN120 20/18 A2997=
200512271200 METAR MROC 271200Z 05010KT 9999 SCT025 SCT150 20/17 A3002=
200512271300 METAR MROC 271300Z 02010KT 9999 FEW030 SCT120 BKN250 22/18 A3003 NOSIG=
200512271400 METAR MROC 271400Z 08010KT 9999 FEW030 SCT120 24/18 A3005 NOSIG=
200512271500 METAR MROC 271500Z 10016KT 9999 FEW035 BKN250 25/18 A3005 NOSIG=
200512271600 METAR MROC 271600Z 10017KT 9999 SCT035 BKN250 28/18 A3004 NOSIG=
200512271700 METAR MROC 271700Z 11011KT 9999 SCT035 BKN100 24/18 A3002 NOSIG=
200512271800 METAR MROC 271800Z 10019KT 9999 FEW035 SCT120 26/18 A2999 NOSIG=
200512271900 METAR MROC 271900Z 06006KT 9999 SCT030 BKN100 24/19 A2998 RMK RN DST NE BECMG 24006KT=
200512272000 METAR MROC 272000Z 26007KT 9999 SCT030 BKN100 23/20 A2997 NOSIG=
200512272100 METAR MROC 272100Z 23008KT 9999 SCT025 BKN100 23/20 A2996 NOSIG=
200512272200 METAR MROC 272200Z 20003KT 9999 FEW010 SCT025 BKN100 22/20 A2996 NOSIG=
200512272300 METAR MROC 272300Z 24006KT 9999 SCT030 BKN100 21/20 A2998 NOSIG=
200512280000 METAR MROC 280000Z 24005KT 9999 FEW030 SCT100 20/20 A3000 NOSIG=
200512280100 METAR MROC 280100Z 29004KT 9999 FEW030 SCT100 20/20 A3003 NOSIG=
200512280200 METAR MROC 280200Z 10003KT 9999 FEW003 SCT030 BKN100 20/19 A3005 NOSIG=
200512280300 METAR MROC 280300Z 01005KT 9999 SCT030 SCT100 20/18 A3006 NOSIG=
200512280400 METAR MROC 280400Z 07004KT 9999 SCT030 SCT100 20/18 A3005 NOSIG=
200512280500 METAR MROC 280500Z 07005KT 9999 FEW030 SCT100 20/18 A3002 NOSIG=
200512280600 METAR MROC 280600Z 00000KT 9999 FEW030 SCT100 20/18 A3001 BECMG 8000 -RA FEW008=
200512280700 METAR MROC 280700Z 00000KT 9999 FEW035 SCT140 19/18 A3000 NOSIG=
200512280800 METAR MROC 280800Z 01005KT 9999 FEW035 SCT250 20/18 A2998 NOSIG=
200512280900 METAR MROC 280900Z 05005KT CAVOK 19/17 A2997 NOSIG=
200512281000 METAR MROC 281000Z 00000KT CAVOK 19/17 A2999 NOSIG=
200512281100 METAR MROC 281100Z 05007KT CAVOK 17/16 A3000 NOSIG=
200512281200 METAR MROC 281200Z 07006KT CAVOK 18/16 A3000 NOSIG=
200512281400 METAR MROC 281400Z 24005KT CAVOK 21/18 A3005 NOSIG=
200512281500 METAR MROC 281500Z 23004KT 9999 FEW040 BKN260 23/19 A3005 NOSIG=
200512281600 METAR MROC 281600Z 23008KT 9999 FEW035 BKN260 24/19 A3004 NOSIG=
200512281700 METAR MROC 281700Z 26006KT 9999 FEW035 BKN260 25/19 A3004 NOSIG=
200512281800 METAR MROC 281800Z 23005KT 9999 SCT030 BKN260 25/19 A3001 NOSIG=
200512281900 METAR MROC 281900Z 25007KT 9999 SCT030 BKN250 25/19 A2997 NOSIG=
200512282000 METAR MROC 282000Z 21007KT 9999 SCT030 SCT120 BKN250 25/20 A2995 NOSIG=
200512282100 METAR MROC 282100Z 22008KT 9999 SCT025 BKN260 25/20 A2993 NOSIG=
200512282200 METAR MROC 282200Z 23012KT 9999 FEW012 SCT025 BKN260 23/20 A2995 NOSIG=
200512282300 METAR MROC 282300Z 23006KT 9999 SCT015 SCT030 BKN260 22/20 A2995 NOSIG=
200512290000 METAR MROC 290000Z 26005KT 9999 FEW015 SCT030 BKN130 21/20 A2996 NOSIG=
200512290100 METAR MROC 290100Z 28004KT 9999 FEW030 BKN130 22/20 A2999 BECMG 04006KT=
200512290200 METAR MROC 290200Z 00000KT 7000 VCFG FEW001 SCT010 BKN130 21/20 A3002 BECMG 4000 BR SCT001 SCT006=
200512290300 METAR MROC 290300Z 00000KT 9999 FEW003 SCT015 20/20 A3002 RMK 7000SW=
200512290400 METAR MROC 290400Z 00000KT 9999 FEW003 SCT020 20/19 A3001 RMK 7000SW=
200512290500 METAR MROC 290500Z 02005KT 9999 FEW020 19/17 A3001 RMK DUE ST SW NOSIG=
200512290600 METAR MROC 290600Z 09004KT CAVOK 18/16 A2998 NOSIG=
200512290700 METAR MROC 290700Z 05008KT CAVOK 18/16 A2996 NOSIG=
200512290800 METAR MROC 290800Z 06007KT CAVOK 17/15 A2994 NOSIG=
200512290900 METAR MROC 290900Z 09005KT CAVOK 17/15 A2994 NOSIG=
200512291000 METAR MROC 291000Z 06006KT CAVOK 17/14 A2994 NOSIG=
200512291100 METAR MROC 291100Z 04009KT CAVOK 17/15 A2994 NOSIG=
200512291200 METAR MROC 291200Z 06009KT CAVOK 18/15 A2995 NOSIG=
200512291300 METAR MROC 291300Z 07005KT CAVOK 19/15 A2998 NOSIG=
200512291400 METAR MROC 291400Z 00000KT CAVOK 23/17 A3001 NOSIG=
200512291415 METAR MROC 291415Z 28904KT CAVOK 23/17 A3002=
200512291500 METAR MROC 291500Z 26003KT CAVOK 24/18 A3002 NOSIG=
200512291600 METAR MROC 291600Z 23004KT 9999 FEW030 SCT300 25/18 A3000 NOSIG=
200512291700 METAR MROC 291700Z 23006KT 9999 FEW030 SCT280 26/18 A2999 NOSIG=
200512291800 METAR MROC 291800Z 25007KT 9999 FEW030 SCT280 27/18 A2995 NOSIG=
200512291900 METAR MROC 291900Z 23009KT 9999 FEW035 BKN280 27/19 A2992 NOSIG=
200512292000 METAR MROC 292000Z 23011KT 9999 FEW020 BKN030 25/19 A2990 NOSIG=
200512292100 METAR MROC 292100Z 23008KT 9999 SCT020TCU SCT030 24/21 A2989 RMK RN DST N NW=
200512292200 METAR MROC 292200Z 23010KT 9999 FEW020 SCT030 23/20 A2991 NOSIG=
200512292300 METAR MROC 292300Z 22007KT 7000 VCSH FEW010CB SCT030 BKN100 22/20 A2999 BECMG 4000 RA=
200512300000 METAR MROC 300000Z 22008KT 7000 VCFG FEW015 SCT025 BKN100 21/20 A2994 NOSIG=
200512300100 METAR MROC 300100Z 22004KT 8000 FEW010 SCT025 BKN100 21/20 A2997 NOSIG=
200512300200 METAR MROC 300200Z 00000KT 9999 SCT025 BKN100 21/20 A2998 NOSIG=
200512300300 METAR MROC 300300Z 00000KT 9999 SCT025 BKN100 21/20 A2998 NOSIG=
200512300400 METAR MROC 300400Z 00000KT 9999 FEW030 SCT100 20/19 A2999 NOSIG=
200512300500 METAR MROC 300500Z 04004KT 9999 FEW030 SCT120 19/18 A2997 NOSIG=
200512300600 METAR MROC 300600Z 05005KT CAVOK 19/17 A2996 NOSIG=
200512300700 METAR MROC 300700Z 04008KT CAVOK 19/16 A2993 NOSIG=
200512300800 METAR MROC 300800Z 02006KT CAVOK 18/16 A2992 NOSIG=
200512300900 METAR MROC 300900Z 02007KT CAVOK 18/16 A2991 NOSIG=
200512301000 METAR MROC 301000Z 05004KT CAVOK 18/16 A2992 NOSIG=
200512301100 METAR MROC 301100Z 04005KT CAVOK 19/16 A2992 NOSIG=
200512301200 METAR MROC 301200Z 04008KT CAVOK 19/16 A2994 NOSIG=
200512301300 METAR MROC 301300Z 04007KT 9999 FEW030 20/16 A2997 NOSIG=
200512301400 METAR MROC 301400Z 10012KT 9999 FEW030 23/17 A2998 NOSIG=
200512301500 METAR MROC 301500Z 09013KT CAVOK 24/16 A2999 NOSIG=
200512301600 METAR MROC 301600Z 08013KT 9999 FEW040 26/16 A2999 NOSIG=
200512301700 METAR MROC 301700Z 09009KT 9999 FEW045 28/16 A2997 BECMG 24006=
200512301800 METAR MROC 301800Z 13006KT 9999 FEW045 29/15 A2994 NOSIG=
200512301900 METAR MROC 301900Z 23012KT 9999 SCT040 27/20 A2991 NOSIG=
200512302000 METAR MROC 302000Z 22009KT 9999 SCT035 26/20 A2989 NOSIG=
200512302100 METAR MROC 302100Z 24008KT 9999 SCT030 26/19 A2988=
200512302200 METAR MROC 302200Z 23009KT 9999 SCT030 25/20 A2989=
200512302300 METAR MROC 302300Z 23006KT 9999 SCT025 23/20 A2990=
200512310000 METAR MROC 310000Z 20004KT 8000 VCFG FEW006 SCT025 22/20 A2992 RMK BR SW=
200512310100 METAR MROC 310100Z 12004KT 9999 FEW025 21/17 A2994=
200512310200 METAR MROC 310200Z 07005KT 9999 FEW030 20/17 A2997=
200512310300 METAR MROC 310300Z 08004KT CAVOK 19/14 A2999 NOSIG=
200512310400 METAR MROC 310400Z 11005KT CAVOK 18/14 A2999 NOSIG=
200512310500 METAR MROC 310500Z 10006KT CAVOK 19/14 A2999 NOSIG=
200512310600 METAR MROC 310600Z 09008KT CAVOK 19/14 A2998 NOSIG=
200512310700 METAR MROC 310700Z 08005KT CAVOK 18/14 A2997 NOSIG=
200512310800 METAR MROC 310800Z 05005KT CAVOK 17/14 A2996 NOSIG=
200512310900 METAR MROC 310900Z 04008KT CAVOK 16/13 A2995 NOSIG=
200512311000 METAR MROC 311000Z 05010KT CAVOK 15/13 A2995 NOSIG=
200512311100 METAR MROC 311100Z 04009KT CAVOK 16/12 A2996 NOSIG=
200512311200 METAR MROC 311200Z 06006KT CAVOK 16/13 A2997 NOSIG=
200512311300 METAR MROC 311300Z 06010KT CAVOK 19/13 A2998=
200512311400 METAR MROC 311400Z 10014KT CAVOK 21/12 A2999=
200512311500 METAR MROC 311500Z 11012KT CAVOK 24/11 A2999=
200512311600 METAR MROC 311600Z 10014KT CAVOK 26/10 A2997=
200512311700 METAR MROC 311700Z 10012KT CAVOK 27/10 A2996=
200512311800 METAR MROC 311800Z 08009KT CAVOK 28/11 A2994=
200512311900 METAR MROC 311900Z 10010KT CAVOK 28/11 A2991=
200512312000 METAR MROC 312000Z 22007KT 9999 FEW040 27/16 A2990 NOSIG=
200512312100 METAR MROC 312100Z 23016KT 9999 SCT035 SCT280 26/19 A2989 NOSIG=
200512312200 METAR MROC 312200Z 24013KT 9999 SCT035 24/17 A2990 NOSIG=
200512312300 METAR MROC 312300Z 22007KT 9999 FEW025 BKN250 23/20 A2991 NOSIG=
