200601010000 METAR MROC 010000Z 22004KT 9999 FEW004 SCT020 BKN250 21/20 A2993 RMK 8000SW DUE ST=
200601010100 METAR MROC 010100Z 25004KT 9999 FEW010 SCT030 BKN250 21/20 A2995 NOSIG=
200601010200 METAR MROC 010200Z 08004KT CAVOK 19/16 A2997 NOSIG=
200601010300 METAR MROC 010300Z 10007KT CAVOK 19/15 A2999 NOSIG=
200601010400 METAR MROC 010400Z 10010KT CAVOK 19/15 A2999 NOSIG=
200601010500 METAR MROC 010500Z 10007KT CAVOK 18/14 A2998 NOSIG=
200601010600 METAR MROC 010600Z 10008KT CAVOK 18/13 A2996 NOSIG=
200601010700 METAR MROC 010700Z 09009KT CAVOK 18/13 A2994 NOSIG=
200601010800 METAR MROC 010800Z 08008KT CAVOK 19/12 A2993 NOSIG=
200601010900 METAR MROC 010900Z 10010KT CAVOK 19/13 A2992 NOSIG=
200601011000 METAR MROC 011000Z 10010KT CAVOK 19/13 A2992 NOSIG=
200601011100 METAR MROC 011100Z 01005KT CAVOK 18/12 A2993 NOSIG=
200601011200 METAR MROC 011200Z 09008KT CAVOK 18/13 A2995 NOSIG=
200601011300 METAR MROC 011300Z 10009KT CAVOK 21/14 A2997 NOSIG=
200601011400 METAR MROC 011400Z 11005KT CAVOK 23/14 A2999 NOSIG=
200601011500 METAR MROC 011500Z 10013KT 9999 FEW045 25/16 A3000 NOSIG=
200601011600 METAR MROC 011600Z 11011KT 9999 FEW035 25/16 A2999 NOSIG=
200601011700 METAR MROC 011700Z 10010KT 9999 FEW035 27/17 A2998 NOSIG=
200601011800 METAR MROC 011800Z 09008KT 9999 FEW035 28/17 A2995 NOSIG=
200601011900 METAR MROC 011900Z 11006KT 9999 SCT025 27/16 A2992 NOSIG=
200601012000 METAR MROC 012000Z 24010KT 9999 FEW020 BKN035 24/19 A2991 BECMG 7000SW=
200601012100 METAR MROC 012100Z 25009KT 9999 FEW015 BKN030 25/21 A2991 NOSIG=
200601012200 METAR MROC 012200Z 22006KT 9999 FEW015 BKN030 23/20 A2992 NOSIG=
200601012300 METAR MROC 012300Z 26006KT 9999 BKN030 22/19 A2994 NOSIG=
200601020000 METAR MROC 020000Z 24006KT 9999 BKN030 21/19 A2997 NOSIG=
200601020100 METAR MROC 020100Z 00000KT 9999 SCT030 SCT080 20/19 A2999 NOSIG=
200601020200 METAR MROC 020200Z 25004KT 9999 SCT030 SCT080 20/19 A3001 NOSIG=
200601020300 METAR MROC 020300Z 27003KT 9999 SCT008 19/19 A3002 RMK 7000SW VCFG=
200601020400 METAR MROC 020400Z 00000KT CAVOK 19/18 A3001 RMK DUE ST SW=
200601020500 METAR MROC 020500Z 05008KT CAVOK 20/16 A3000 NOSIG=
200601020600 METAR MROC 020600Z 09011KT CAVOK 20/16 A2999 NOSIG=
200601020700 METAR MROC 020700Z 02006KT CAVOK 19/16 A2997 NOSIG=
200601020800 METAR MROC 020800Z 09003KT CAVOK 19/16 A2995 NOSIG=
200601020900 METAR MROC 020900Z 320003KT CAVOK 19/16 A2996 NOSIG=
200601021200 METAR MROC 021200Z 10009KT CAVOK 20/16 A2997 NOSIG=
200601021300 METAR MROC 021300Z 08009KT 9999 FEW040 SCT140 21/16 A3001 NOSIG=
200601021400 METAR MROC 021400Z 09013KT 9999 FEW040 BKN230 23/15 A3002 NOSIG=
200601021500 METAR MROC 021500Z 09015KT 9999 FEW040 BKN230 25/15 A3003 NOSIG=
200601021600 METAR MROC 021600Z 09013KT 9999 FEW040 BKN230 26/14 A3002 NOSIG=
200601021700 METAR MROC 021700Z 07013KT 9999 FEW040 BKN240 27/13 A3002 NOSIG=
200601021800 METAR MROC 021800Z 05015KT 9999 FEW040 SCT120 BKN240 28/14 A3000 NOSIG=
200601021900 METAR MROC 021900Z 06016KT 9999 FEW040 BKN240 27/13 A2997 NOSIG=
200601022000 METAR MROC 022000Z 05019KT 9999 FEW040 BKN240 27/14 A2995 NOSIG=
200601022100 METAR MROC 022100Z 04014KT 9999 FEW040 BKN300 27/14 A2994 NOSIG=
200601022200 METAR MROC 022200Z 08006KT 9999 FEW040 BKN300 26/14 A2995 NOSIG=
200601022300 METAR MROC 022300Z 23007KT 9999 FEW040 BKN280 21/19 A2998 NOSIG=
200601030000 METAR MROC 030000Z 26004KT 9999 FEW008 SCT035 BKN280 20/20 A3000 RMK VSBY NW N 6KM LOW ST NOSIG=
200601030100 METAR MROC 030100Z 00000KT 9999 FEW010 SCT300 20/19 A3001 NOSIG=
200601030200 METAR MROC 030200Z 00000KT CAVOK 19/18 A3003 NOSIG=
200601030300 METAR MROC 030300Z 08005KT CAVOK 19/15 A3004 NOSIG=
200601030400 METAR MROC 030400Z 07008KT CAVOK 20/15 A3005 NOSIG=
200601030500 METAR MROC 030500Z 06006KT CAVOK 19/14 A3004 NOSIG=
200601030600 METAR MROC 030600Z 05009KT CAVOK 19/14 A3002 NOSIG=
200601030700 METAR MROC 030700Z 02006KT CAVOK 18/14 A2999 NOSIG=
200601030800 METAR MROC 030800Z 05011KT CAVOK 18/14 A2997 NOSIG=
200601030900 METAR MROC 030900Z 04010KT CAVOK 18/13 A2998 NOSIG=
200601031000 METAR MROC 031000Z 06004KT CAVOK 18/14 A2999 NOSIG=
200601031100 METAR MROC 031100Z 01008KT CAVOK 18/13 A3000 NOSIG=
200601031200 METAR MROC 031200Z 06009KT CAVOK 18/14 A3002 NOSIG=
200601031300 METAR MROC 031300Z 03004KT CAVOK 19/14 A3004 NOSIG=
200601031400 METAR MROC 031400Z 05005KT CAVOK 22/15 A3006 NOSIG=
200601031500 METAR MROC 031500Z 10008KT CAVOK 23/15 A3007 NOSIG=
200601031600 METAR MROC 031600Z 08012KT CAVOK 26/15 A3007 NOSIG=
200601031700 METAR MROC 031700Z 11008KT CAVOK 27/15 A3005 NOSIG=
200601031800 METAR MROC 031800Z 21006KT 9999 FEW040 BKN260 25/17 A3004 NOSIG=
200601031900 METAR MROC 031900Z 19005KT 9999 SCT035 BKN260 25/18 A3001 NOSIG=
200601032000 METAR MROC 032000Z 25009KT 9999 SCT035 BKN260 25/18 A2999 NOSIG=
200601032100 METAR MROC 032100Z 22010KT 9999 SCT030 BKN140 24/18 A2998 NOSIG=
200601032200 METAR MROC 032200Z 24009KT 9999 SCT030 BKN140 22/18 A2998 NOSIG=
200601032300 METAR MROC 032300Z 25004KT 9999 SCT030 BKN250 21/19 A2999 NOSIG=
200601040000 METAR MROC 040000Z 00000KT 9999 SCT030 SCT250 20/19 A2999 NOSIG=
200601040100 METAR MROC 040100Z 07007KT 9999 SCT030 21/17 A3000 NOSIG=
200601040200 METAR MROC 040200Z 10010KT CAVOK 21/16 A3002=
200601040300 METAR MROC 040300Z 08005KT CAVOK 21/16 A3005 NOSIG=
200601040400 METAR MROC 040400Z 30003KT CAVOK 20/18 A3005 NOSIG=
200601040500 METAR MROC 040500Z 00000KT CAVOK 20/16 A3005 NOSIG=
200601040600 METAR MROC 040600Z 01006KT CAVOK 18/16 A3004 NOSIG=
200601040700 METAR MROC 040700Z 02005KT CAVOK 18/16 A3003 NOSIG=
200601040800 METAR MROC 040800Z 05004KT CAVOK 17/14 A3000=
200601040900 METAR MROC 040900Z 35004KT CAVOK 17/14 A3000=
200601041100 METAR MROC 041100Z 02007KT CAVOK 17/13 A3000=
200601041200 METAR MROC 041200Z 03007KT CAVOK 18/14 A3001=
200601041300 METAR MROC 041300Z 01006KT CAVOK 19/14 A3003 NOSIG=
200601041400 METAR MROC 041400Z 09010KT CAVOK 22/15 A3003 NOSIG=
200601041500 METAR MROC 041500Z 09013KT CAVOK 25/15 A3003 NOSIG=
200601041600 METAR MROC 041600Z 10014KT CAVOK 26/15 A3002 NOSIG=
200601041700 METAR MROC 041700Z 09013KT CAVOK 27/15 A3001 NOSIG=
200601041800 METAR MROC 041800Z 07009KT 9999 FEW040 28/15 A2998 NOSIG=
200601041900 METAR MROC 041900Z 11012KT 9999 FEW040 28/16 A2995 NOSIG=
200601042000 METAR MROC 042000Z 09009KT 9999 SCT030TCU 26/15 A2994=
200601042100 METAR MROC 042100Z 10011KT 9999 SCT025TCU 27/16 A2992=
200601042200 METAR MROC 042200Z 11007KT 9999 FEW025TCU SCT090 26/15 A2994=
200601042300 METAR MROC 042300Z 00000KT 9999 FEW020TCU SCT150 25/17 A2995=
200601050000 METAR MROC 050000Z 23008KT 9999 SCT020 21/19 A2998 RMK TCU W=
200601050100 METAR MROC 050100Z 33005KT 9999 SCT020 21/19 A3000=
200601050200 METAR MROC 050200Z 06004KT 9999 FEW030 20/18 A3002=
200601050300 METAR MROC 050300Z 07007KT CAVOK 20/15 A3003 NOSIG=
200601050400 METAR MROC 050400Z 09007KT CAVOK 20/15 A3002 NOSIG=
200601050500 METAR MROC 050500Z 04007KT CAVOK 20/15 A3002 NOSIG=
200601050600 METAR MROC 050600Z 05009KT CAVOK 19/17 A3001 NOSIG=
200601050700 METAR MROC 050700Z 03006KT CAVOK 19/15 A2998 NOSIG=
200601050800 METAR MROC 050800Z 06006KT CAVOK 19/15 A2998 NOSIG=
200601050900 METAR MROC 050900Z 05004KT CAVOK 19/15 A2997 NOSIG=
200601051000 METAR MROC 051000Z 03004KT CAVOK 18/15 A2997 NOSIG=
200601051100 METAR MROC 051100Z 04008KT CAVOK 19/15 A2996 NOSIG=
200601051200 METAR MROC 051200Z 01005KT CAVOK 19/14 A2997 NOSIG=
200601051300 METAR MROC 051300Z 01004KT CAVOK 20/15 A3000=
200601051400 METAR MROC 051400Z 08010KT CAVOK 23/16 A3002=
200601051500 METAR MROC 051500Z 11011KT CAVOK 25/16 A3002=
200601051600 METAR MROC 051600Z 09013KT CAVOK 26/15 A3002=
200601051700 METAR MROC 051700Z 10012KT 9999 FEW030 SCT250 27/15 A2999=
200601051800 METAR MROC 051800Z 11012KT 9999 SCT035 27/16 A2996=
200601051900 METAR MROC 051900Z 10010KT 9999 SCT030 26/16 A2992=
200601052000 METAR MROC 052000Z 13008KT 9999 SCT020TCU SCT100 26/15 A2990=
200601052100 METAR MROC 052100Z 23016KT 9999 SCT020TCU BKN030 21/19 A2992 RMK RN DST SW W NW NOSIG=
200601052200 METAR MROC 052200Z 21009KT 7000 -RA VCFG FEW006 SCT025 BKN100 21/19 A2992 NOSIG=
200601052300 METAR MROC 052300Z 00000KT 9999 SCT020 SCT250 20/19 A2994 NOSIG=
200601060000 METAR MROC 060000Z 00000KT 9999 SCT030 SCT120 20/19 A2995 RMK RN DST NE NOSIG=
200601060100 METAR MROC 060100Z 08008KT 9999 RA SCT035 OVC100 20/17 A2998 NOSIG=
200601060200 METAR MROC 060200Z 09008KT 9999 RA FEW035 BKN100 19/17 A2999 NOSIG=
200601060300 METAR MROC 060300Z 05005KT 9999 FEW025 SCT100 20/17 A3001 REDZ=
200601060400 METAR MROC 060400Z 07006KT 9999 FEW035 19/17 A3000=
200601060500 METAR MROC 060500Z 09005KT 9999 FEW035 19/16 A2999=
200601060600 METAR MROC 060600Z 02007KT CAVOK 19/17 A2999=
200601060800 METAR MROC 060800Z 05005KT CAVOK 18/16 A2995=
200601060900 METAR MROC 060900Z 00000KT CAVOK 19/17 A2994=
200601061000 METAR MROC 061000Z 00000KT CAVOK 19/16 A2996=
200601061100 METAR MROC 061100Z 00000KT 9999 DZ FEW020 OVC100 19/17 A2997=
200601061200 METAR MROC 061200Z 08004KT 9999 -DZ FEW020 BKN090 18/17 A2999=
200601061300 METAR MROC 061300Z 05006KT 9999 SCT030 BKN090 19/17 A3001 RMK RN DST S E NE NOSIG=
200601061400 METAR MROC 061400Z 09004KT 9999 FEW030 BKN120 21/17 A3004 NOSIG=
200601061500 METAR MROC 061500Z 28005KT 9999 FEW035 SCT120 22/16 A3004 RMK DZ DST NE E NOSIG=
200601061600 METAR MROC 061600Z 23006KT 9999 SCT030 SCT120 24/16 A3003 RMK DZ DST NE E NOSIG=
200601061700 METAR MROC 061700Z NIL=
200601061800 METAR MROC 061800Z NIL=
200601061900 METAR MROC 061900Z NIL=
200601062000 METAR MROC 062000Z 35012KT 9999 SCT030 BKN100 22/13 A2994 RMK RN DST E NE NOSIG=
200601062100 METAR MROC 062100Z 10008KT 9999 SCT030 BKN100 21/14 A2994 NOSIG=
200601062200 METAR MROC 062200Z 09007KT 9999 FEW035 BKN100 20/14 A2995 NOSIG=
200601062300 METAR MROC 062300Z 10009KT 9999 FEW035 OVC100 19/14 A2997 NOSIG=
200601070000 METAR MROC 070000Z 09005KT 9999 FEW040 OVC100 19/13 A2999 NOSIG=
200601070100 METAR MROC 070100Z 10011KT 9999 FEW040 BKN100 18/14 A3001 NOSIG=
200601070200 METAR MROC 070200Z 10009KT 9999 FEW040 BKN100 19/13 A3003 NOSIG=
200601070300 METAR MROC 070300Z 08010KT 9999 FEW040 SCT100 19/13 A3004=
200601070400 METAR MROC 070400Z 09018G28KT 9999 FEW040 SCT150 19/13 A3005=
200601070500 METAR MROC 070500Z 09020KT CAVOK 18/12 A3002=
200601070600 METAR MROC 070600Z 09018KT CAVOK 18/12 A3000=
200601070700 METAR MROC 070700Z 09020KT CAVOK 19/12 A2997=
200601070800 METAR MROC 070800Z 09018KT CAVOK 19/13 A2996=
200601071000 METAR MROC 071000Z 09018KT CAVOK 18/12 A2994=
200601071112 METAR MROC 071112Z 08013KT CAVOK 18/12 A2999=
200601071200 METAR MROC 071200Z 07020KT 9999 FEW045 19/12 A2998=
200601071300 METAR MROC 071300Z 08016KT 9999 FEW045 20/13 A3000 NOSIG=
200601071400 METAR MROC 071400Z 09014KT 9999 SCT040 SCT110 21/14 A3004 RMK DZ N NE=
200601071500 METAR MROC 071500Z 08016KT 9999 SCT040 FEW300 22/14 A3004 NOSIG=
200601071600 METAR MROC 071600Z 09014KT 9999 SCT040 FEW300 22/14 A3005 NOSIG=
200601071700 METAR MROC 071700Z 09015KT 9999 SCT040 23/15 A3002 NOSIG=
200601071800 METAR MROC 071800Z 09021KT 9999 SCT040 SCT130 23/15 A2998 NOSIG=
200601071900 METAR MROC 071900Z 10018KT 9999 FEW040 SCT300 23/16 A2996 NOSIG=
200601072000 METAR MROC 072000Z 08019KT 9999 FEW035 SCT300 24/15 A2996 NOSIG=
200601072100 METAR MROC 072100Z 09013KT 9999 SCT030 SCT120 24/16 A2994 NOSIG=
200601072200 METAR MROC 072200Z 07013KT 9999 FEW030 SCT120 23/15 A2995 NOSIG=
200601072300 METAR MROC 072300Z 09012KT 9999 SCT030 22/15 A2996 NOSIG=
200601080000 METAR MROC 080000Z 08012KT 9999 FEW025 20/14 A2998 NOSIG=
200601080100 METAR MROC 080100Z 08010KT 9999 FEW030 19/15 A3000 NOSIG=
200601080200 METAR MROC 080200Z 08012KT 9999 FEW025 19/14 A3001 NOSIG=
200601080300 METAR MROC 080300Z 07013KT CAVOK 19/15 A3002 NOSIG=
200601080400 METAR MROC 080400Z 08012KT CAVOK 19/15 A3003 NOSIG=
200601080500 METAR MROC 080500Z 09012KT CAVOK 18/14 A3002 NOSIG=
200601080700 METAR MROC 080700Z 08019KT CAVOK 18/14 A2997 NOSIG=
200601080800 METAR MROC 080800Z 08013G24KT CAVOK 18/14 A2995 NOSIG=
200601080900 METAR MROC 080900Z 09016KT CAVOK 18/14 A2993 NOSIG=
200601081000 METAR MROC 081000Z 08012KT CAVOK 18/14 A2996 NOSIG=
200601081100 METAR MROC 081100Z 10017KT 9999 FEW030 19/14 A2995 NOSIG=
200601081200 METAR MROC 081200Z 09010G21KT 9999 FEW030 18/14 A2998 RMK RN DST E NE NOSIG=
200601081300 METAR MROC 081300Z 07010G20KT 9999 FEW025 19/15 A2999 RMK DZ DST E/NE=
200601081400 METAR MROC 081400Z 08016G26KT 9999 FEW025 21/15 A3001 NOSIG=
200601081500 METAR MROC 081500Z 09015G25KT 9999 FEW025 BKN130 22/16 A3001 NOSIG=
200601081600 METAR MROC 081600Z 08014KT 9999 FEW025 BKN130 24/16 A3001 NOSIG=
200601081700 METAR MROC 081700Z 08015KT 9999 FEW030 SCT130 26/16 A2999 NOSIG=
200601081800 METAR MROC 081800Z 08017G27KT 9999 FEW025 SCT130 25/16 A2997 NOSIG=
200601081900 METAR MROC 081900Z 10019G29KT 9999 FEW025 SCT120 25/16 A2994 NOSIG=
200601082000 METAR MROC 082000Z 09014G26KT 9999 FEW025 SCT120 25/16 A2992 NOSIG=
200601082100 METAR MROC 082100Z 08010G21KT 9999 FEW030 SCT140 25/16 A2992 RMK DZ DST N/NE/E NOSIG=
200601082200 METAR MROC 082200Z 08015G28KT 9999 FEW030 BKN130 25/16 A2991 NOSIG=
200601082300 METAR MROC 082300Z 08018G33KT 9999 FEW030 BKN120 23/16 A2992 NOSIG=
200601090000 METAR MROC 090000Z 09015G28KT 9999 FEW030 SCT120 22/16 A2994 NOSIG=
200601090100 METAR MROC 090100Z 09012KT 9999 FEW030 SCT120 21/17 A2997=
200601090200 METAR MROC 090200Z 07012KT 9999 FEW030 SCT120 21/16 A2999=
200601090300 METAR MROC 090300Z 08010KT 9999 FEW035 SCT120 21/16 A3000 NOSIG=
200601090400 METAR MROC 090400Z 09007KT 9999 FEW035 20/16 A3001 NOSIG=
200601090500 METAR MROC 090500Z 09011KT 9999 FEW035 21/17 A3000=
200601090600 METAR MROC 090600Z 10014KT 9999 FEW035 SCT120 21/17 A2997 NOSIG=
200601090700 METAR MROC 090700Z 10014KT 9999 FEW035 SCT120 20/16 A2996 NOSIG=
200601090800 METAR MROC 090800Z 09005KT 9999 FEW035 BKN120 20/16 A2995=
200601090900 METAR MROC 090900Z 07015KT 9999 FEW035 BKN120 21/15 A2993 NOSIG=
200601091000 METAR MROC 091000Z 09009KT 9999 FEW030 BKN120 21/14 A2993=
200601091100 METAR MROC 091100Z 09013KT 9999 FEW030 BKN110 21/11 A2994=
200601091200 METAR MROC 091200Z 09008KT CAVOK 20/13 A2996 NOSIG=
200601091300 METAR MROC 091300Z 09012KT CAVOK 20/14 A3000 NOSIG=
200601091400 METAR MROC 091400Z 09013KT CAVOK 22/13 A3001 NOSIG=
200601091500 METAR MROC 091500Z 09013KT CAVOK 25/14 A3001 NOSIG=
200601091600 METAR MROC 091600Z 09013KT CAVOK 26/14 A3001 NOSIG=
200601091700 METAR MROC 091700Z 09015G30KT CAVOK 23/14 A3000 NOSIG=
200601091800 METAR MROC 091800Z 08018G32KT CAVOK 27/14 A2997 NOSIG=
200601091900 METAR MROC 091900Z 07019G36KT 9999 FEW035 SCT120 27/15 A2994 NOSIG=
200601092000 METAR MROC 092000Z 07019G35KT 9999 FEW035 SCT120 26/14 A2993 NOSIG=
200601092100 METAR MROC 092100Z 07016KT 9999 FEW030 SCT140 26/16 A2991=
200601092200 METAR MROC 092200Z 06019KT 9999 FEW025 SCT170 24/16 A2990=
200601092300 METAR MROC 092300Z 07014KT 9999 FEW025 SCT200 24/15 A2991=
200601100000 METAR MROC 100000Z 08013KT 9999 FEW025 22/15 A2992=
200601100100 METAR MROC 100100Z 08013KT 9999 FEW025 22/15 A2994=
200601100200 METAR MROC 100200Z 08011KT CAVOK 22/15 A2996=
200601100300 METAR MROC 100300Z 10016KT CAVOK 21/15 A2997 NOSIG=
200601100400 METAR MROC 100400Z 09016KT CAVOK 20/15 A2998 NOSIG=
200601100500 METAR MROC 100500Z 08015KT CAVOK 20/15 A2997 NOSIG=
200601100600 METAR MROC 100600Z 10014KT CAVOK 20/15 A2995 NOSIG=
200601100700 METAR MROC 100700Z 10014KT CAVOK 20/15 A2992 NOSIG=
200601100800 METAR MROC 100800Z 09016KT CAVOK 20/15 A2992 NOSIG=
200601100900 METAR MROC 100900Z 08005KT CAVOK 20/15 A3000 NOSIG=
200601101000 METAR MROC 101000Z 09016KT CAVOK 20/14 A2992 NOSIG=
200601101100 METAR MROC 101100Z 09016KT CAVOK 19/14 A2991 NOSIG=
200601101200 METAR MROC 101200Z 10017KT CAVOK 19/13 A2994 NOSIG=
200601101300 METAR MROC 101300Z 02008KT CAVOK 19/12 A2998=
200601101400 METAR MROC 101400Z 09011KT CAVOK 23/13 A2999=
200601101500 METAR MROC 101500Z 10012KT CAVOK 25/13 A3000=
200601101600 METAR MROC 101600Z 09015KT CAVOK 26/13 A3000=
200601101700 METAR MROC 101700Z 09016KT CAVOK 27/14 A2998=
200601101800 METAR MROC 101800Z 07015KT CAVOK 28/14 A2996=
200601101900 METAR MROC 101900Z 08014KT CAVOK 28/14 A2994=
200601102000 METAR MROC 102000Z 07013KT CAVOK 28/14 A2991=
200601102100 METAR MROC 102100Z 07018KT 9999 FEW045 28/14 A2990 NOSIG=
200601102200 METAR MROC 102200Z 07011KT CAVOK 27/15 A2991 NOSIG=
200601102300 METAR MROC 102300Z 07012KT CAVOK 25/15 A2991 NOSIG=
200601110000 METAR MROC 110000Z VRB03KT CAVOK 22/17 A2993 NOSIG=
200601110100 METAR MROC 110100Z 30005KT CAVOK 20/19 A2996 NOSIG=
200601110200 METAR MROC 110200Z 30003KT 9999 FEW040 20/19 A2999 NOSIG=
200601110300 METAR MROC 110300Z 00000KT 9999 FEW040 20/15 A2999 NOSIG=
200601110400 METAR MROC 110400Z 09006KT 9999 FEW040 21/15 A2999 NOSIG=
200601110500 METAR MROC 110500Z 05007KT 9999 FEW035 21/15 A2999 NOSIG=
200601110600 METAR MROC 110600Z 06009KT 9999 FEW035 20/14 A2996 NOSIG=
200601110700 METAR MROC 110700Z 09014G25KT CAVOK 21/14 A2992 NOSIG=
200601110800 METAR MROC 110800Z 02009KT CAVOK 19/14 A2992 NOSIG=
200601110900 METAR MROC 110900Z 04008KT CAVOK 19/15 A2992 NOSIG=
200601111000 METAR MROC 111000Z 02009KT CAVOK 19/15 A2992 NOSIG=
200601111100 METAR MROC 111100Z 08010KT 9999 FEW035 21/16 A2992 NOSIG=
200601111200 METAR MROC 111200Z 10011KT 9999 FEW030 20/16 A2993 NOSIG=
200601111300 METAR MROC 111300Z 09014KT CAVOK 21/16 A2995 NOSIG=
200601111400 METAR MROC 111400Z 10013KT CAVOK 23/16 A2998 NOSIG=
200601111500 METAR MROC 111500Z 09010G20KT CAVOK 25/16 A2998 NOSIG=
200601111600 METAR MROC 111600Z 07010G20KT 9999 FEW040 26/16 A2999 NOSIG=
200601111700 METAR MROC 111700Z 07012G22KT 9999 FEW035 27/15 A2997 NOSIG=
200601111800 METAR MROC 111800Z 08013KT 9999 FEW035 28/15 A2994 NOSIG=
200601111900 METAR MROC 111900Z 10013KT 9999 FEW035 28/15 A2991 NOSIG=
200601112000 METAR MROC 112000Z 08012KT 9999 FEW035 29/16 A2989 NOSIG=
200601112100 METAR MROC 112100Z 09011KT 9999 FEW030 28/16 A2988 NOSIG=
200601112200 METAR MROC 112200Z 10011KT 9999 SCT030 27/15 A2987 NOSIG=
200601112300 METAR MROC 112300Z 10009KT 9999 SCT030 25/16 A2989 NOSIG=
200601120000 METAR MROC 120000Z 10010KT 9999 SCT030 23/17 A2990 NOSIG=
200601120100 METAR MROC 120100Z 09005KT CAVOK 21/16 A2993 NOSIG=
200601120200 METAR MROC 120200Z 08005KT CAVOK 12/16 A2994=
200601120300 METAR MROC 120300Z 00000KT CAVOK 20/17 A2996=
200601120400 METAR MROC 120400Z 10005KT CAVOK 20/16 A2996 NOSIG=
200601120500 METAR MROC 120500Z 09010KT CAVOK 20/16 A2994=
200601120600 METAR MROC 120600Z 09011KT CAVOK 20/16 A2992=
200601120700 METAR MROC 120700Z 09005KT CAVOK 20/16 A2989=
200601120800 METAR MROC 120800Z 09013KT CAVOK 20/15 A2988=
200601121000 METAR MROC 121000Z 09017KT CAVOK 20/15 A2987=
200601121100 METAR MROC 121100Z 09011KT CAVOK 20/15 A2989=
200601121200 METAR MROC 121200Z 10012KT CAVOK 20/14 A2990=
200601121300 METAR MROC 121300Z 09012KT CAVOK 21/14 A2993 NOSIG=
200601121400 METAR MROC 121400Z 07009KT CAVOK 24/15 A2995 NOSIG=
200601121500 METAR MROC 121500Z 10012KT CAVOK 26/15 A2994 NOSIG=
200601121600 METAR MROC 121600Z 08013KT CAVOK 27/15 A2994 NOSIG=
200601121700 METAR MROC 121700Z 10018KT 9999 FEW045 28/15 A2991 NOSIG=
200601121800 METAR MROC 121800Z 09011KT 9999 FEW045 29/16 A2989 NOSIG=
200601121900 METAR MROC 121900Z 09010KT 9999 FEW040 28/16 A2987 NOSIG=
200601122000 METAR MROC 122000Z 10009KT 9999 SCT040 28/16 A2984 NOSIG=
200601122100 METAR MROC 122100Z 10010KT 9999 SCT040 27/// A//// NOSIG=
200601122200 METAR MROC 122200Z 10012G22KT 9999 SCT040 26/17 A2985 NOSIG=
200601122300 METAR MROC 122300Z 07007KT 9999 SCT040 26/16 A2986 NOSIG=
200601130000 METAR MROC 130000Z 09008KT 9999 FEW035 23/17 A2987 BECMG RMK RFGS 15KT=
200601130100 METAR MROC 130100Z 31004KT 9999 FEW035 21/19 A2990=
200601130200 METAR MROC 130200Z 09003KT CAVOK 21/17 A2991=
200601130300 METAR MROC 130300Z 05007KT CAVOK 21/17 A2993 NOSIG=
200601130400 METAR MROC 130400Z 07009KT CAVOK 20/17 A2994 NOSIG=
200601130500 METAR MROC 130500Z 09010KT CAVOK 21/16 A2992=
200601130600 METAR MROC 130600Z 09010KT CAVOK 21/16 A2990 NOSIG=
200601130700 METAR MROC 130700Z 09014G24KT CAVOK 21/15 A2986 NOSIG=
200601130800 METAR MROC 130800Z 09010G20KT CAVOK 21/15 A2986 NOSIG=
200601130900 METAR MROC 130900Z 05008KT CAVOK 21/15 A2987 NOSIG=
200601131100 METAR MROC 131100Z 09010G20KT CAVOK 20/16 A2988 NOSIG=
200601131200 METAR MROC 131200Z 10015KT CAVOK 20/16 A2990 NOSIG=
200601131300 METAR MROC 131300Z 09015G28KT CAVOK 21/15 A2992 NOSIG=
200601131400 METAR MROC 131400Z 10014G25KT CAVOK 23/15 A2994 NOSIG=
200601131500 METAR MROC 131500Z 10015G28KT CAVOK 26/15 A2994 NOSIG=
200601131600 METAR MROC 131600Z 10013G23KT CAVOK 28/15 A2995 NOSIG=
200601131700 METAR MROC 131700Z 10010G20KT CAVOK 28/15 A2994 NOSIG=
200601131800 METAR MROC 131800Z 08012G22KT 9999 FEW040 28/15 A2991 NOSIG=
200601131900 METAR MROC 131900Z 09011G21KT 9999 FEW040 28/15 A2987 NOSIG=
200601132000 METAR MROC 132000Z 07012G23KT 9999 FEW040 29/16 A2986 NOSIG=
200601132100 METAR MROC 132100Z 08012KT 9999 FEW040 29/// A2985 NOSIG=
200601132200 METAR MROC 132200Z 08010KT 9999 FEW035 28/15 A2985 NOSIG=
200601132300 METAR MROC 132300Z 09012KT 9999 FEW035 26/15 A2987 NOSIG=
200601140000 METAR MROC 140000Z 08012KT 9999 FEW035 24/15 A2988 NOSIG=
200601140100 METAR MROC 140100Z 03009KT 9999 FEW035 23/15 A2991 NOSIG=
200601140200 METAR MROC 140200Z 00000KT 9999 FEW035 21/17 A2994 NOSIG=
200601140300 METAR MROC 140300Z 10007KT 9999 FEW035 21/16 A2996 NOSIG=
200601140400 METAR MROC 140400Z 07013KT 9999 FEW035 21/16 A2996 NOSIG=
200601140500 METAR MROC 140500Z 07011KT 9999 FEW035 21/16 A2996 NOSIG=
200601140600 METAR MROC 140600Z 07013KT CAVOK 21/16 A2994 NOSIG=
200601140700 METAR MROC 140700Z 09012KT CAVOK 20/16 A2992 NOSIG=
200601140800 METAR MROC 140800Z 09013KT CAVOK 20/15 A2991 NOSIG=
200601140900 METAR MROC 140900Z 09016KT CAVOK 20/15 A2990=
200601141000 METAR MROC 141000Z 09011KT CAVOK 20/14 A2992=
200601141100 METAR MROC 141100Z 09016KT CAVOK 20/14 A2992 NOSIG=
200601141200 METAR MROC 141200Z 10015KT CAVOK 20/14 A2995 NOSIG=
200601141300 METAR MROC 141300Z 10016KT CAVOK 21/14 A2997 NOSIG=
200601141400 METAR MROC 141400Z 10015KT CAVOK 24/14 A2999 NOSIG=
200601141500 METAR MROC 141500Z 12015G30KT CAVOK 24/15 A2998=
200601141600 METAR MROC 141600Z 08013KT CAVOK 28/14 A3000 NOSIG=
200601141700 METAR MROC 141700Z 10015KT 9999 FEW040 27/15 A2998 NOSIG=
200601141800 METAR MROC 141800Z 09014KT 9999 FEW040 BKN250 28/16 A2995 NOSIG=
200601141900 METAR MROC 141900Z 09012KT 9999 SCT035 BKN140 26/16 A2993 NOSIG=
200601142000 METAR MROC 142000Z 10013KT 9999 SCT035 BKN120 26/17 A2991 NOSIG=
200601142100 METAR MROC 142100Z 09014KT 9999 SCT035 SCT120 25/17 A2991 NOSIG=
200601142200 METAR MROC 142200Z 08012KT 9999 -DZ FEW030 BKN120 25/18 A2992 NOSIG=
200601142300 METAR MROC 142300Z 09009KT 9999 FEW025 BKN120 24/17 A2994 NOSIG=
200601142352 METAR MROC 150000Z 10008KT 9999 FEW025 SCT120 23/17 A2995=
200601150000 METAR MROC 150000Z 10008KT 9999 FEW025 SCT120 23/17 A2995=
200601150100 METAR MROC 150100Z 10009KT 9999 FEW030 SCT120 22/17 A2997 NOSIG=
200601150200 METAR MROC 150200Z 08008KT 9999 FEW030 SCT110 22/16 A2998  BECMG RMK RN DIST ENE =
200601150300 METAR MROC 150300Z 08007KT 9999 FEW030 BKN120 20/17 A2999 NOSIG=
200601150400 METAR MROC 150400Z 07008KT 9999 -RA BKN100 20/18 A3000 NOSIG=
200601150500 METAR MROC 150500Z 08006KT 9999 FEW035 BKN120 20/17 A2999 NOSIG=
200601150600 METAR MROC 150600Z 07008KT CAVOK 21/17 A2998 NOSIG=
200601150700 METAR MROC 150700Z 08008KT 9999 DZ BKN100 21/17 A2997 NOSIG=
200601150800 METAR MROC 150800Z 08007KT 9999 FEW030 BKN100 20/17 A2998 NOSIG=
200601150900 METAR MROC 150900Z 07004KT 9999 FEW030 BKN100 20/17 A2993 NOSIG=
200601151000 METAR MROC 151000Z 09013G23KT 9999 FEW030 BKN100 20/16 A2994 NOSIG=
200601151100 METAR MROC 151100Z 09014G26KT 9999 FEW030 BKN120 20/16 A2994 NOSIG=
200601151200 METAR MROC 151200Z 08010G20KT 9999 SCT030 SCT120 20/16 A2997 BECMG RMK RN DST E=
200601151300 METAR MROC 151300Z 09010G20KT 9999 FEW025 SCT120 20/16 A2999 NOSIG=
200601151400 METAR MROC 151400Z 09013KT 9999 FEW030 22/16 A2999 NOSIG=
200601151500 METAR MROC 151500Z 09018KT 9999 FEW030 23/16 A2999 NOSIG=
200601151600 METAR MROC 151600Z 09015KT 9999 FEW015 BKN090 23/16 A2999 BECMG 8000 -RA=
200601151800 METAR MROC 151800Z 08008KT 9999 SCT030 SCT100 22/18 A2996 BECMG -RA=
200601151900 METAR MROC 151900Z 08015KT 9999 SCT030 BKN100 24/18 A2993 BECMG RMK VIS N/ NE 9000 DUE RN=
200601152000 METAR MROC 152000Z 10010KT 9999 SCT025 OVC100 22/18 A2992 BECMG RMK VIS NW/ N/ NE/ E 9 KM DUE RN=
200601152100 METAR MROC 152100Z 10014KT 9999 SCT025 BKN090 22/16 A2992 RMK RN DST E NE NOSIG=
200601152200 METAR MROC 152200Z 10022KT 9999 SCT030 SCT110 23/15 A2991 RMK RN DST N NE E NOSIG=
200601152300 METAR MROC 152300Z 09020G30KT 9999 FEW030 BKN110 21/15 A2993 RMK RN DST E NE E NOSIG=
200601160000 METAR MROC 160000Z 10011KT 9999 -RA SCT030 BKN090 19/16 A2995 RMK 7000SE=
200601160100 METAR MROC 160100Z 10015KT 9999 SCT030 BKN100 19/16 A2997 NOSIG=
200601160200 METAR MROC 160200Z 10014KT 9999 SCT030 BKN100 20/16 A2998 NOSIG=
200601160300 METAR MROC 160300Z 09016KT 9999 FEW030 SCT120 19/16 A2999 NOSIG=
200601160400 METAR MROC 160400Z 10010KT 9999 FEW030 SCT120 19/16 A2998 NOSIG=
200601160500 METAR MROC 160500Z 08008KT 9999 FEW030 SCT120 20/16 A2997 NOSIG=
200601160600 METAR MROC 160600Z 06006KT 9999 FEW035 SCT120 19/16 A2996 NOSIG=
200601160700 METAR MROC 160700Z 09007KT 9999 SCT030 20/16 A2995 NOSIG=
200601160800 METAR MROC 160800Z 07003KT 9999 FEW030 SCT100 19/16 A2993 NOSIG=
200601160900 METAR MROC 160900Z 07008KT 9999 FEW030 19/16 A2991 NOSIG=
200601161000 METAR MROC 161000Z 06008KT 9999 FEW030 19/15 A2993 NOSIG=
200601161100 METAR MROC 161100Z 07003KT 9999 FEW030 SCT100 19/15 A2994 NOSIG=
200601161200 METAR MROC 161200Z 05006KT 9999 SCT030 BKN100 19/15 A2996 NOSIG=
200601161300 METAR MROC 161300Z 06008KT 9999 FEW030 BKN100 20/15 A2998 RMK RN DST E NE N=
200601161400 METAR MROC 161400Z 07007KT 9999 FEW030 BKN110 21/16 A3001 RMK RN DST E NE=
200601161500 METAR MROC 161500Z 09007KT 9999 FEW030 BKN110 23/16 A3000 RMK RN DST E NE NOSIG=
200601161600 METAR MROC 161600Z 10007KT 9999 SCT030 BKN100 23/16 A3000 RMK RN DST E NE=
200601161700 METAR MROC 161700Z 08010KT 9999 SCT030 BKN100 24/16 A2998 RMK RN DST E NE NOSIG=
200601161800 METAR MROC 161800Z 10012KT 9999 SCT025 BKN090 22/16 A2996 BECMG 8000 -RA RMK RN DST S SE E NE=
200601161900 METAR MROC 161900Z 11009KT 9999 SCT030 BKN100 23/16 A2994 RMK DZ DST E NE N NOSIG=
200601162000 METAR MROC 162000Z 10009KT 9999 FEW030 BKN100 23/16 A2992 RMK DZ DST E NE N NOSIG=
200601162100 METAR MROC 162100Z 11007KT 9999 FEW030 BKN100 23/17 A2991 NOSIG=
200601162200 METAR MROC 162200Z 10006KT 9999 FEW030 BKN100 23/17 A2991 NOSIG=
200601162300 METAR MROC 162300Z 11005KT 9999 FEW030 BKN100 22/17 A2993 NOSIG=
200601170000 METAR MROC 170000Z 11006KT 9999 SCT030 BKN100 22/17 A2994 NOSIG=
200601170100 METAR MROC 170100Z 08006KT 9999 SCT025 SCT100 21/17 A2996=
200601170200 METAR MROC 170200Z 08007KT 9999 FEW035 SCT120 20/17 A2998=
200601170300 METAR MROC 170300Z 07006KT CAVOK 20/16 A2998=
200601170400 METAR MROC 170400Z 06003KT CAVOK 20/16 A2998=
200601170500 METAR MROC 170500Z 00000KT CAVOK 19/16 A2999=
200601170600 METAR MROC 170600Z 04007KT CAVOK 19/16 A2998=
200601170700 METAR MROC 170700Z 00000KT CAVOK 18/15 A2997=
200601170800 METAR MROC 170800Z 33003KT CAVOK 18/15 A2998=
200601170900 METAR MROC 170900Z 06003KT CAVOK 17/15 A2996=
200601171010 METAR MROC 171010Z 05008KT CAVOK 16/15 A2998=
200601171100 METAR MROC 171100Z 02006KT CAVOK 16/14 A2998=
200601171200 METAR MROC 171200Z 03007KT CAVOK 16/14 A2999=
200601171300 METAR MROC 171300Z 06004KT CAVOK 18/15 A3002 NOSIG=
200601171400 METAR MROC 171400Z 09005KT CAVOK 22/16 A3004 NOSIG=
200601171500 METAR MROC 171500Z 00000KT CAVOK 24/16 A3004 NOSIG=
200601171600 METAR MROC 171600Z 00000KT 9999 FEW040 26/16 A3003 NOSIG=
200601171700 METAR MROC 171700Z 10006KT 9999 FEW040 28/16 A3001 NOSIG=
200601171800 METAR MROC 171800Z VRB03KT 9999 SCT035 28/16 A2998 NOSIG=
200601171900 METAR MROC 171900Z 24009KT 9999 FEW020 SCT030 28/17 A2997 NOSIG=
200601172000 METAR MROC 172000Z 23010KT 9999 FEW020 BKN030 27/18 A2996 NOSIG=
200601172100 METAR MROC 172100Z 22010KT 9999 FEW025TCU BKN035 25/19 A2996 BECMG RMK PCPN DIST S WSW=
200601172200 METAR MROC 172200Z 19006KT 9999 FEW025TCU SCT035 BKN300 24/19 A2997 BECMG RMK HZY PCPN DST SSW=
200601172300 METAR MROC 172300Z 19003KT 9999 SCT025 BKN035 22/18 A2999 NOSIG=
200601180000 METAR MROC 180000Z 00000KT 9999 FEW025 BKN035 21/19 A3001 BECMG 06005KT=
200601180100 METAR MROC 180100Z 00000KT 9999 FEW030 SCT080 20/19 A3002 NOSIG=
200601180200 METAR MROC 180200Z 04004KT 9999 FEW030 21/19 A3003 NOSIG=
200601180300 METAR MROC 180300Z 01006KT 9999 FEW035 20/17 A3006 NOSIG=
200601180400 METAR MROC 180400Z 07006KT CAVOK 20/17 A3006 NOSIG=
200601180500 METAR MROC 180500Z 08005KT CAVOK 18/16 A3004 NOSIG=
200601180600 METAR MROC 180600Z 02006KT CAVOK 19/15 A3002 NOSIG=
200601180700 METAR MROC 180700Z 06006KT CAVOK 20/15 A3001 NOSIG=
200601180800 METAR MROC 180800Z 10010KT CAVOK 20/15 A2998 NOSIG=
200601180900 METAR MROC 190900Z 08016KT CAVOK 20/14 A2993=
200601181000 METAR MROC 181000Z 05011KT 9999 FEW030 20/16 A3001 NOSIG=
200601181100 METAR MROC 181100Z 00000KT CAVOK 19/15 A3001 NOSIG=
200601181300 METAR MROC 181300Z 09012G22KT 9999 FEW025 SCT120 21/16 A3004 NOSIG=
200601181400 METAR MROC 181400Z 08015G27KT 9999 FEW025 23/15 A3006 BECMG RMK FEW120=
200601181500 METAR MROC 181500Z 08015G28KT 9999 FEW030 25/16 A3005 NOSIG=
200601181600 METAR MROC 181600Z 09021G32KT 9999 SCT030 25/16 A3003 NOSIG=
200601181700 METAR MROC 181700Z 09017G27KT 9999 SCT030 26/16 A3006 NOSIG=
200601181800 METAR MROC 181800Z 07016G26KT 9999 FEW030 27/27 A3003 NOSIG=
200601181900 METAR MROC 181900Z 05019G30KT 9999 FEW035 27/14 A2999 NOSIG=
200601182000 METAR MROC 182000Z 08015G25KT 9999 FEW035 26/15 A2997 NOSIG=
200601182100 METAR MROC 182100Z 09016KT 9999 SCT035 26/16 A2996 NOSIG=
200601182200 METAR MROC 182200Z 09017KT 9999 SCT035 25/15 A2994 NOSIG=
200601182300 METAR MROC 182300Z 09012KT 9999 FEW035 24/16 A2997 NOSIG=
200601190000 METAR MROC 190000Z 07013KT 9999 SCT030 22/16 A2997 NOSIG=
200601190100 METAR MROC 190100Z 08016KT 9999 SCT030 22/15 A2999 NOSIG=
200601190200 METAR MROC 190200Z 05020G30KT 9999 SCT030 22/14 A3001 NOSIG=
200601190300 METAR MROC 190300Z 06016KT CAVOK 22/14 A3006 NOSIG=
200601190400 METAR MROC 190400Z 06015G26KT CAVOK 22/14 A3004 NOSIG=
200601190500 METAR MROC 190500Z 06020KT CAVOK 21/14 A3000 NOSIG=
200601190600 METAR MROC 190600Z 08015KT CAVOK 21/14 A2997 NOSIG=
200601190700 METAR MROC 190700Z 09010KT CAVOK 20/14 A2997=
200601190800 METAR MROC 190800Z 09012KT CAVOK 20/14 A2994=
200601190900 METAR MROC 190900Z 08016KT CAVOK 20/14 A2993=
200601191000 METAR MROC 191000Z 07012KT CAVOK 21/13 A2996=
200601191100 METAR MROC 191100Z 07019KT CAVOK 21/13 A2995=
200601191200 METAR MROC 191200Z 06015KT 9999 FEW040 21/13 A2996 NOSIG=
200601191300 METAR MROC 191300Z 07014KT 9999 FEW030 22/19 A2997 NOSIG=
200601191400 METAR MROC 191400Z 07021KT 9999 FEW030 23/12 A2999 NOSIG=
200601191500 METAR MROC 191500Z 06019KT 9999 FEW030 24/12 A2999 NOSIG=
200601191600 METAR MROC 191600Z 06018KT 9999 FEW030 26/10 A2999 NOSIG=
200601191700 METAR MROC 191700Z 05026KT 9999 FEW035 26/09 A2997 NOSIG=
200601191800 METAR MROC 191800Z 05015KT 9999 FEW035 26/15 A2996 NOSIG=
200601191900 METAR MROC 191900Z 06020KT 9999 FEW035 27/10 A2991 NOSIG=
200601192000 METAR MROC 192000Z 06020KT 9999 FEW035 26/12 A2989 NOSIG=
200601192100 METAR MROC 192100Z 05018G28KT 9999 FEW030 25/14 A2990=
200601192200 METAR MROC 192200Z 06015KT 9999 FEW025 FEW150 24/15 A2989=
200601192300 METAR MROC 192300Z 07013KT 9999 FEW025 SCT180 23/16 A2990=
200601200000 METAR MROC 200000Z 09012KT 9999 FEW025 SCT100 21/15 A2990=
200601200100 METAR MROC 200100Z 09012KT CAVOK 21/14 A2992=
200601200200 METAR MROC 200200Z 10009KT CAVOK 21/13 A2993=
200601200300 METAR MROC 200300Z 08011KT CAVOK 21/15 A2995 NOSIG=
200601200400 METAR MROC 200400Z 08011KT CAVOK 21/15 A2995 NOSIG=
200601200500 METAR MROC 200500Z 11008KT CAVOK 19/15 A2994 NOSIG=
200601200600 METAR MROC 200600Z 10008KT CAVOK 19/14 A2993 NOSIG=
200601200700 METAR MROC 200700Z 11007KT CAVOK 20/14 A2989 NOSIG=
200601200800 METAR MROC 200800Z 10008KT CAVOK 20/15 A2987=
200601200900 METAR MROC 200900Z 09010KT CAVOK 20/15 A2986=
200601201000 METAR MROC 201000Z 09011KT 9999 FEW030 21/15 A2987=
200601201100 METAR MROC 201100Z 09012KT 9999 FEW030 21/15 A2988 RMK RAFAGAS 17KTS=
200601201200 METAR MROC 201200Z 09012KT 9999 SCT030 21/15 A2989 RMK RN DST E/SE=
200601201300 METAR MROC 201300Z 09008KT 9999 SCT025 22/15 A2992=
200601201400 METAR MROC 201400Z 09012KT 9999 SCT025 23/15 A2994=
200601201500 METAR MROC 201500Z 08013KT 9999 SCT030 25/16 A2993=
200601201600 METAR MROC 201600Z 08015KT 9999 FEW030 26/14 A2992=
200601201700 METAR MROC 201700Z 03017KT 9999 FEW030 28/14 A2991=
200601201800 METAR MROC 201800Z 06016KT 9999 FEW035 28/14 A2988=
200601201900 METAR MROC 201900Z 04017KT 9999 FEW035 28/14 A2985=
200601202000 METAR MROC 202000Z 05020KT 9999 FEW035 28/13 A2982=
200601202100 METAR MROC 202100Z 06016G26KT 9999 FEW035 26/13 A2981 NOSIG=
200601202200 METAR MROC 202200Z 06018KT CAVOK 26/12 A2982 NOSIG=
200601202300 METAR MROC 202300Z 07011KT CAVOK 24/13 A2984 NOSIG=
200601210000 METAR MROC 210000Z 06015KT CAVOK 22/12 A2985 NOSIG=
200601210100 METAR MROC 210100Z 07015KT CAVOK 22/13 A2987 NOSIG=
200601210200 METAR MROC 210200Z 08016KT CAVOK 21/13 A2989 NOSIG=
200601210300 METAR MROC 210300Z 08011KT CAVOK 20/13 A2990 NOSIG=
200601210400 METAR MROC 210400Z 08011KT CAVOK 20/14 A2990 NOSIG=
200601210500 METAR MROC 210500Z 09011KT CAVOK 20/13 A2990 NOSIG=
200601210600 METAR MROC 210600Z 07014KT CAVOK 20/12 A2989 NOSIG=
200601210700 METAR MROC 210700Z 09016KT CAVOK 19/13 A2986 NOSIG=
200601210800 METAR MROC 210800Z 08013KT CAVOK 19/13 A2984 NOSIG=
200601210900 METAR MROC 210900Z 09010KT CAVOK 19/10 A2982 NOSIG=
200601211000 METAR MROC 211000Z 09013KT CAVOK 20/10 A2983 NOSIG=
200601211100 METAR MROC 211100Z 09014KT CAVOK 20/10 A2984 NOSIG=
200601211200 METAR MROC 211200Z 09010KT CAVOK 20/10 A2987 NOSIG=
200601211300 METAR MROC 211300Z 10009KT CAVOK 21/11 A2990 NOSIG=
200601211400 METAR MROC 211400Z 08012G22KT CAVOK 25/11 A2991 NOSIG=
200601211500 METAR MROC 211500Z 09013G23KT CAVOK 26/211 A2991 NOSIG=
200601211600 METAR MROC 211600Z 09013G23KT CAVOK 27/13 A2991 NOSIG=
200601211700 METAR MROC 211700Z 09016KT CAVOK 27/13 A2989 NOSIG=
200601211800 METAR MROC 211800Z 08015KT CAVOK 28/13 A2987 NOSIG=
200601211900 METAR MROC 211900Z 07016KT 9999 FEW045 28/14 A2984 NOSIG=
200601212000 METAR MROC 212000Z 07017KT 9999 FEW045 27/15 A2982 NOSIG=
200601212100 METAR MROC 212100Z 06014KT 9999 FEW045 27/14 A2981=
200601212200 METAR MROC 212200Z 07018KT 9999 FEW045 26/14 A2982 NOSIG=
200601212300 METAR MROC 212300Z 06013KT 9999 FEW045 25/14 A2983 NOSIG=
200601220000 METAR MROC 220000Z 06017KT 9999 FEW045 23/15 A2984 NOSIG=
200601220100 METAR MROC 220100Z 07010G20KT 9999 FEW045 23/15 A2986 NOSIG=
200601220200 METAR MROC 220200Z 09011KT CAVOK 22/15 A2988=
200601220300 METAR MROC 220300Z 09013KT CAVOK 21/15 A2990=
200601220400 METAR MROC 220400Z 09013KT CAVOK 20/15 A2990=
200601220500 METAR MROC 220500Z 09013KT CAVOK 20/15 A2989=
200601220600 METAR MROC 220600Z 10011KT CAVOK 20/15 A2988=
200601220700 METAR MROC 220700Z 08013KT CAVOK 21/15 A2987=
200601220800 METAR MROC 220800Z 02008KT CAVOK 20/15 A2987=
200601221000 METAR MROC 221000Z 08010KT CAVOK 20/15 A2986=
200601221200 METAR MROC 221200Z 36008KT CAVOK 18/14 A2990=
200601221300 METAR MROC 221300Z 03004KT CAVOK 20/15 A2992 NOSIG=
200601221400 METAR MROC 221400Z 10018KT CAVOK 23/15 A2990 NOSIG=
200601221500 METAR MROC 221500Z 10012KT CAVOK 25/15 A2991 NOSIG=
200601221600 METAR MROC 221600Z 09015KT CAVOK 26/15 A2991 NOSIG=
200601221700 METAR MROC 221700Z 08010KT 9999 FEW045 28/15 A2990=
200601221800 METAR MROC 221800Z 09014KT 9999 FEW045 28/15 A2988 NOSIG=
200601221900 METAR MROC 221900Z 10013KT 9999 SCT040 28/16 A2986 NOSIG=
200601222000 METAR MROC 222000Z 10011KT 9999 SCT040 28/16 A2985 NOSIG=
200601222100 METAR MROC 222100Z 20006KT 9999 FEW025TCU SCT040 26/20 A2985 RMK HZY=
200601222200 METAR MROC 222200Z 23011KT 9999 FEW025 SCT040 26/20 A2985 NOSIG=
200601222300 METAR MROC 222300Z 23009KT 9999 FEW025 SCT040 24/20 A2987 NOSIG=
200601230000 METAR MROC 230000Z 23006KT 9999 SCT025 22/20 A2989 NOSIG=
200601230100 METAR MROC 230100Z 00000KT 9999 FEW030 22/19 A2992 BECMG 10006KT=
200601230200 METAR MROC 230200Z 08003KT 9999 FEW030 21/18 A2993 BECMG 08007KT=
200601230300 METAR MROC 230300Z 08006KT CAVOK 21/16 A2994 NOSIG=
200601230400 METAR MROC 230400Z 08009KT CAVOK 21/16 A2993 NOSIG=
200601230500 METAR MROC 230500Z 06010KT CAVOK 20/16 A2991 NOSIG=
200601230600 METAR MROC 230600Z 08011KT CAVOK 21/15 A2989 NOSIG=
200601230700 METAR MROC 230700Z 07011KT CAVOK 21/15 A2987 NOSIG=
200601230800 METAR MROC 230800Z 05008KT CAVOK 20/15 A2986 NOSIG=
200601230900 METAR MROC 230900Z 05007KT CAVOK 20/15 A2985 NOSIG=
200601231000 METAR MROC 231000Z 02010KT CAVOK 20/15 A2986 NOSIG=
200601231100 METAR MROC 231100Z 06007KT CAVOK 20/15 A2987 NOSIG=
200601231200 METAR MROC 231200Z 04006KT CAVOK 19/15 A2988 NOSIG=
200601231300 METAR MROC 231300Z 09003KT CAVOK 21/15 A2991 NOSIG=
200601231400 METAR MROC 231400Z 11005KT CAVOK 24/16 A2993 NOSIG=
200601231500 METAR MROC 231500Z 11003KT 9999 FEW045 26/17 A2994 NOSIG=
200601231600 METAR MROC 231600Z 25008KT 9999 SCT040 25/18 A2994 NOSIG=
200601231700 METAR MROC 231700Z 23007KT 9999 BKN040 25/18 A2993 NOSIG=
200601231800 METAR MROC 231800Z 28006KT 9999 BKN040 26/18 A2991 NOSIG=
200601231900 METAR MROC 231900Z VRB03KT 9999 BKN040 27/17 A2988 NOSIG=
200601232000 METAR MROC 232000Z 11008KT 9999 FEW035 SCT120 28/17 A2986 NOSIG=
200601232100 METAR MROC 232100Z 13008KT 9999 FEW030 SCT120 30/17 A2986 NOSIG=
200601232200 METAR MROC 232200Z 11010KT 9999 FEW030 SCT120 26/16 A2986 NOSIG=
200601232300 METAR MROC 232300Z 11005KT 9999 FEW030 SCT250 26/17 A2987 NOSIG=
200601240000 METAR MROC 240000Z 00000KT 9999 FEW030 SCT120 24/19 A2988 NOSIG=
200601240100 METAR MROC 240100Z 05004KT 9999 FEW030 23/19 A2990 NOSIG=
200601240200 METAR MROC 240200Z 07006KT 9999 FEW035 22/17 A2992 NOSIG=
200601240300 METAR MROC 240300Z 04004KT 9999 FEW035 22/17 A2993 NOSIG=
200601240400 METAR MROC 240400Z 08007KT 9999 FEW035 22/17 A2993=
200601240500 METAR MROC 240500Z 06006KT CAVOK 22/17 A2993 NOSIG=
200601240600 METAR MROC 240600Z 04005KT CAVOK 21/16 A2992=
200601240700 METAR MROC 240700Z 03009KT CAVOK 21/17 A2990=
200601240800 METAR MROC 240800Z 09016KT CAVOK 22/17 A2987=
200601240900 METAR MROC 240900Z 09012KT CAVOK 21/16 A2986=
200601241000 METAR MROC 241000Z 09013KT CAVOK 21/16 A2985=
200601241100 METAR MROC 241100Z 08010KT CAVOK 21/16 A2986=
200601241200 METAR MROC 241200Z 09013KT CAVOK 21/16 A2987 NOSIG=
200601241300 METAR MROC 241300Z 09012KT CAVOK 22/16 A2988 NOSIG=
200601241400 METAR MROC 241400Z 10014KT CAVOK 25/17 A2990 NOSIG=
200601241500 METAR MROC 241500Z 09011KT 9999 FEW035 27/16 A2992 NOSIG=
200601241600 METAR MROC 241600Z 08014KT 9999 FEW030 28/16 A2993 NOSIG=
200601241700 METAR MROC 241700Z 06013KT 9999 FEW030 29/17 A2991 NOSIG=
200601241800 METAR MROC 241800Z 08012KT 9999 FEW030 29/12 A2989 NOSIG=
200601241900 METAR MROC 241900Z 08015KT 9999 SCT030 29/16 A2986 NOSIG=
200601242000 METAR MROC 242000Z 09014KT 9999 SCT030 29/17 A2984 NOSIG=
200601242100 METAR MROC 242100Z 09011KT 9999 FEW025 SCT100 29/17 A2983=
200601242200 METAR MROC 242200Z 09014KT 9999 FEW025 SCT120 25/17 A2984=
200601242300 METAR MROC 242300Z 09014KT 9999 FEW025 SCT140 23/17 A2986=
200601250000 METAR MROC 250000Z 10014KT 9999 FEW025 22/16 A2987=
200601250100 METAR MROC 250100Z 08010KT 9999 FEW030 22/16 A2991 NOSIG=
200601250200 METAR MROC 250200Z 09012KT 9999 FEW030 22/16 A2992 NOSIG=
200601250300 METAR MROC 230300Z 09009KT 9999 FEW035 22/16 A2994 NOSIG=
200601250400 METAR MROC 250400Z 08014KT CAVOK 22/17 A2993 NOSIG=
200601250600 METAR MROC 250600Z 09017KT CAVOK 21/17 A2990 NOSIG=
200601250700 METAR MROC 250700Z 10016KT CAVOK 21/17 A2989 NOSIG=
200601250800 METAR MROC 250800Z 09014KT CAVOK 21/17 A2988=
200601250900 METAR MROC 250900Z 08012KT 9999 FEW030 21/17 A2987=
200601251000 METAR MROC 251000Z 09012KT 9999 FEW030 21/17 A2988=
200601251100 METAR MROC 251100Z 09014KT 9999 FEW030 20/17 A2989=
200601251200 METAR MROC 251200Z 09014KT 9999 FEW025 21/17 A2991 RMK PCPN DIST N/E QDS=
200601251300 METAR MROC 251300Z 10016KT CAVOK 22/17 A2992 NOSIG=
200601251400 METAR MROC 251400Z 10016KT CAVOK 24/17 A2995 NOSIG=
200601251500 METAR MROC 251500Z 09014KT 9999 FEW025 26/16 A2998 NOSIG=
200601251600 METAR MROC 251600Z 10012KT 9999 FEW030 27/15 A2998 NOSIG=
200601251700 METAR MROC 251700Z 10017KT CAVOK 27/14 A2997=
200601251800 METAR MROC 251800Z 06018KT CAVOK 28/15 A2994=
200601251900 METAR MROC 251900Z 07017KT CAVOK 28/16 A2992=
200601252000 METAR MROC 252000Z 09006KT CAVOK 28/16 A2989=
200601252100 METAR MROC 252100Z 09020KT CAVOK 27/14 A2987 NOSIG=
200601252200 METAR MROC 252200Z 08011G21KT CAVOK 27/14 A2987 NOSIG=
200601252300 METAR MROC 252300Z 07010G20KT CAVOK 25/14 A2987 NOSIG=
200601260000 METAR MROC 260000Z 08011KT CAVOK 23/15 A2989 NOSIG=
200601260100 METAR MROC 260100Z 08012KT CAVOK 23/14 A2991 NOSIG=
200601260200 METAR MROC 260200Z 10010G20KT CAVOK 22/15 A2992 NOSIG=
200601260300 METAR MROC 260300Z 09013KT CAVOK 22/15 A2995 NOSIG=
200601260400 METAR MROC 260400Z 09013KT CAVOK 21/15 A2996 NOSIG=
200601260500 METAR MROC 160500Z 09013KT CAVOK 21/16 A2995 NOSIG=
200601260600 METAR MROC 260600Z 09015KT CAVOK 20/15 A2994 NOSIG=
200601260800 METAR MROC 260800Z 10016KT CAVOK 21/15 A2990 NOSIG=
200601260900 METAR MROC 260900Z 09017KT CAVOK 21/16 A2989 NOSIG=
200601261000 METAR MROC 261000Z 09015KT CAVOK 20/16 A2991 NOSIG=
200601261100 METAR MROC 261100Z 09015KT 9999 FEW035 21/16 A2992 NOSIG=
200601261200 METAR MROC 261200Z 10016KT 9999 FEW030 20/16 A2994 NOSIG=
200601261300 METAR MROC 261300Z 10015KT 9999 FEW030 21/16 A2997 NOSIG=
200601261400 METAR MROC 261400Z 09016G26KT CAVOK 24/17 A2998 NOSIG=
200601261500 METAR MROC 261500Z 09013G23KT 9999 FEW035 25/17 A3000 NOSIG=
200601261600 METAR MROC 261600Z 09018G28KT 9999 FEW035 26/17 A3000 NOSIG=
200601261630 METAR MROC 261630Z 20006KT 9999 3000N DZ BKN040 SCT090 25/22 A2994=
200601261700 METAR MROC 261700Z 09018G28KT 9999 FEW035 27/18 A2999 NOSIG=
200601261800 METAR MROC 261800Z 10015G25KT 9999 FEW030 27/17 A2997 NOSIG=
200601261900 METAR MROC 261900Z 09015G25KT 9999 FEW030 28/17 A2994 NOSIG=
200601262100 METAR MROC 262100Z 10018KT 9999 FEW030 SCT100 27/17 A2992=
200601262200 METAR MROC 262200Z 09013KT 9999 SCT030 27/16 A2992 NOSIG=
200601262300 METAR MROC 262300Z 10014KT 9999 FEW015 SCT025 25/17 A2994 NOSIG=
200601270000 METAR MROC 270000Z 09012KT 9999 SCT025 24/17 A2996 NOSIG=
200601270100 METAR MROC 270100Z 10015KT 9999 FEW035 22/18 A2997 NOSIG=
200601270200 METAR MROC 270200Z 09015KT 9999 FEW030 22/18 A2998 NOSIG=
200601270300 METAR MROC 270300Z 09019KT CAVOK 22/17 A2998=
200601270400 METAR MROC 270400Z 08018KT CAVOK 22/17 A3000=
200601270500 METAR MROC 270500Z 10016KT CAVOK 22/17 A3000=
200601270600 METAR MROC 270600Z 10018KT CAVOK 21/17 A2999=
200601270700 METAR MROC 270700Z 08016KT CAVOK 21/16 A2997=
200601270800 METAR MROC 270800Z 09018KT CAVOK 21/16 A2994=
200601270900 METAR MROC 270900Z 09016KT CAVOK 21/16 A2995=
200601271000 METAR MROC 271000Z 10012KT CAVOK 21/16 A2996=
200601271200 METAR MROC 271200Z 09017KT 9999 FEW025 20/14 A2998=
200601271300 METAR MROC 271300Z 09020KT 9999 SCT025 21/15 A3000 NOSIG=
200601271400 METAR MROC 271400Z 09021KT 9999 SCT025 23/15 A3002 NOSIG=
200601271500 METAR MROC 271500Z 08017KT 9999 SCT030 24/14 A3003 NOSIG=
200601271600 METAR MROC 271600Z 06019KT 9999 SCT030 25/15 A3003 NOSIG=
200601271700 METAR MROC 271700Z 08020KT 9999 SCT030 26/14 A3002 NOSIG=
200601271800 METAR MROC 271800Z 10024KT 9999 SCT030 25/16 A3000 NOSIG=
200601271900 METAR MROC 271900Z 07022KT 9999 SCT030 26/16 A2996 NOSIG=
200601272000 METAR MROC 272000Z 09014KT 9999 SCT030 26/16 A2994 NOSIG=
200601272100 METAR MROC 272100Z 07026KT 9999 FEW030 25/15 A2992 BECMG RMK RFGS 32KTS=
200601272200 METAR MROC 272200Z 08019G30KT 9999 FEW030 25/16 A2992 NOSIG=
200601272300 METAR MROC 272300Z 07019G31KT 9999 FEW030 24/16 A2994 NOSIG=
200601280000 METAR MROC 280000Z 09019KT 9999 FEW030 21/16 A2996 BECMG RMK RFGS 26KTS PCPN DST ENE NE=
200601280100 METAR MROC 280100Z 10010G20KT 9999 FEW030 20/16 A2997 NOSIG=
200601280200 METAR MROC 280200Z 09017KT 9999 FEW030 21/16 A2999 NOSIG=
200601280300 METAR MROC 280300Z 10013G23KT 9999 FEW030 21/16 A3001 NOSIG=
200601280400 METAR MROC 280400Z 10013KT 9999 FEW030 21/16 A3001 NOSIG=
200601280500 METAR MROC 280500Z 10010G20KT 9999 FEW030 21/17 A3000 NOSIG=
200601280600 METAR MROC 280600Z 09012G22KT 9999 FEW030 21/17 A2999 NOSIG=
200601280700 METAR MROC 280700Z 09013KT CAVOK 21/17 A2996 NOSIG=
200601280800 METAR MROC 280800Z 10011KT CAVOK 21/17 A2995 NOSIG=
200601280900 METAR MROC 280900Z 09014G24KT CAVOK 21/17 A2994 NOSIG=
200601281000 METAR MROC 281000Z 09013G23KT CAVOK 21/16 A2994 NOSIG=
200601281100 METAR MROC 281100Z 09013G23KT CAVOK 22/17 A2995 NOSIG=
200601281200 METAR MROC 281200Z 09012G22KT 9999 FEW025 21/17 A2996 RMK RN DST E NE NOSIG=
200601281300 METAR MROC 281300Z 09015KT 9999 FEW025 22/17 A2997 BECMG RMK DZ DST N NE=
200601281400 METAR MROC 281400Z 09014KT 9999 FEW030 24/16 A3000 BECMG RMK DZ DST N NE=
200601281500 METAR MROC 281500Z 09020KT 9999 FEW030 25/16 A2998 BECMG RMK DZ DST NE=
200601281600 METAR MROC 281600Z 09017G27KT 9999 FEW030 27/16 A3001 BECMG RMK DZ DST NE=
200601281700 METAR MROC 281700Z 09014G25KT 9999 FEW030 SCT300 28/17 A3000 NOSIG=
200601281800 METAR MROC 281800Z 09015G25KT 9999 FEW030 SCT045 28/17 A2998 RMK PCPN DST=
200601281900 METAR MROC 281900Z 08018KT 9999 FEW030 SCT070 BKN250 27/17 A2996 BECMG RMK PCPN DST E/NE/N=
200601282000 METAR MROC 282000Z 09014KT 9999 FEW030 SCT070 BKN250 26/16 A2995 BECMG RMK DZ DST N NE=
200601282100 METAR MROC 282100Z 07015KT 9999 FEW030 SCT100 SCT250 26/17 A2992 NOSIG=
200601282200 METAR MROC 282200Z 08015KT 9999 FEW030 SCT250 27/17 A2993 RMK RN N NE NOSIG=
200601282300 METAR MROC 282300Z 07014KT 9999 SCT030 BKN250 24/17 A2994 NOSIG=
200601290000 METAR MROC 290000Z 07013KT 9999 SCT030 SCT250 23/17 A2994 NOSIG=
200601290100 METAR MROC 290100Z 09011KT 9999 SCT030 SCT250 22/17 A2996 NOSIG=
200601290200 METAR MROC 290200Z 08010KT 9999 FEW035 22/17 A2997 NOSIG=
200601290300 METAR MROC 290300Z 08011KT 9999 FEW035 22/16 A2998 NOSIG=
200601290400 METAR MROC 290400Z 08012KT CAVOK 22/16 A2997 NOSIG=
200601290500 METAR MROC 290500Z 09013KT CAVOK 21/15 A2996 NOSIG=
200601290600 METAR MROC 290600Z 08010KT CAVOK 21/16 A2997 NOSIG=
200601290700 METAR MROC 290700Z 10015KT CAVOK 21/15 A2994 NOSIG=
200601290800 METAR MROC 290800Z 10015KT CAVOK 21/15 A2992=
200601290900 METAR MROC 290900Z 09014KT CAVOK 21/15 A2991=
200601291100 METAR MROC 291100Z 09012KT CAVOK 21/14 A2994=
200601291200 METAR MROC 291200Z 09015KT CAVOK 21/14 A2993 NOSIG=
200601291300 METAR MROC 291300Z 10014KT CAVOK 22/14 A2996 NOSIG=
200601291400 METAR MROC 291400Z 10016KT CAVOK 24/14 A2996 NOSIG=
200601291500 METAR MROC 291500Z 10017KT CAVOK 26/14 A2997 NOSIG=
200601291600 METAR MROC 291600Z 09013KT CAVOK 28/14 A2998 NOSIG=
200601291700 METAR MROC 291700Z 08011KT CAVOK 29/15 A2998 NOSIG=
200601291800 METAR MROC 291800Z 06013KT 9999 FEW035 BKN250 29/16 A2997 NOSIG=
200601291900 METAR MROC 291900Z 06015KT 9999 FEW030 BKN250 27/15 A2994 NOSIG=
200601292000 METAR MROC 292000Z 09011KT 9999 FEW030 BKN250 28/16 A2992 NOSIG=
200601292100 METAR MROC 292100Z 10010KT 9999 FEW030 BKN250 28/15 A2991 NOSIG=
200601292200 METAR MROC 292200Z 09009KT 9999 FEW030 BKN250 27/14 A2991 NOSIG=
200601292300 METAR MROC 292300Z 05012KT 9999 FEW025 BKN250 25/15 A2992=
200601300000 METAR MROC 300000Z 10006KT 9999 FEW025 SCT250 24/15 A2994=
200601300100 METAR MROC 300100Z 06003KT 9999 FEW030 SCT250 22/19 A2996 NOSIG=
200601300200 METAR MROC 300200Z 00000KT CAVOK 21/19 A2997 NOSIG=
200601300300 METAR MROC 300300Z 07006KT CAVOK 21/16 A2998 NOSIG=
200601300400 METAR MROC 300400Z 09009KT CAVOK 22/15 A2997 NOSIG=
200601300500 METAR MROC 300500Z 10009KT CAVOK 22/15 A2996 NOSIG=
200601300600 METAR MROC 300600Z 09012KT CAVOK 22/15 A2995 NOSIG=
200601300700 METAR MROC 300700Z 10014KT CAVOK 22/15 A2992 NOSIG=
200601300800 METAR MROC 300800Z 09008KT CAVOK 21/15 A2992=
200601300900 METAR MROC 300900Z 02004KT CAVOK 19/15 A2991 NOSIG=
200601301000 METAR MROC 301000Z 01004KT CAVOK 20/15 A2990=
200601301100 METAR MROC 301100Z 10010KT CAVOK 21/15 A2991=
200601301200 METAR MROC 301200Z 09015KT CAVOK 20/16 A2993=
200601301300 METAR MROC 301300Z 10014KT CAVOK 21/16 A2994=
200601301400 METAR MROC 301400Z 09015KT CAVOK 24/15 A2996=
200601301500 METAR MROC 301500Z 10018KT CAVOK 25/16 A2996=
200601301600 METAR MROC 301600Z 10012KT CAVOK 27/16 A2996=
200601301700 METAR MROC 301700Z 10014KT CAVOK 28/15 A2995=
200601301800 METAR MROC 301800Z 09013KT CAVOK 28/16 A2993=
200601301900 METAR MROC 301900Z 09012KT 9999 FEW035 SCT250 30/15 A2992=
200601302000 METAR MROC 302000Z 10015KT 9999 FEW025 SCT250 30/17 A2989=
200601302100 METAR MROC 302100Z 10015KT 9999 FEW030 SCT250 28/17 A2987 NOSIG=
200601302200 METAR MROC 302200Z 08009KT 9999 FEW020 SCT030 27/17 A2989 RMK CB TCU RN DST SW BECMG 24004KT=
200601302300 METAR MROC 302300Z 10004KT 9999 FEW025 BKN035 25/15 A2991 NOSIG=
200601310000 METAR MROC 310000Z 04011KT 9999 FEW040 BKN250 23/18 A2993 NOSIG=
200601310100 METAR MROC 310100Z 01206KT 9999 FEW040 23/18 A2995 NOSIG=
200601310200 METAR MROC 310200Z 08009KT 9999 FEW040 22/17 A2997 NOSIG=
200601310300 METAR MROC 310300Z 08008KT 9999 FEW040 22/17 A2999 NOSIG=
200601310400 METAR MROC 310400Z 06007KT 9999 FEW035 22/17 A2999 NOSIG=
200601310500 METAR MROC 310500Z 09007KT 9999 FEW035 22/17 A2998 NOSIG=
200601310600 METAR MROC 310600Z 09005KT 9999 FEW035 21/17 A2997 NOSIG=
200601310700 METAR MROC 310700Z 08009KT 9999 FEW035 21/17 A2994 NOSIG=
200601310800 METAR MROC 310800Z 10010KT 9999 FEW030 22/17 A2992 NOSIG=
200601310900 METAR MROC 310900Z 09008KT 9999 FEW030 21/17 A2990 NOSIG=
200601311000 METAR MROC 311000Z 07006KT 9999 FEW030 22/17 A2991 NOSIG=
200601311100 METAR MROC 311100Z 09005KT 9999 FEW030 21/17 A2992 NOSIG=
200601311200 METAR MROC 311200Z 05009KT 9999 FEW030 SCT120 BKN250 21/17 A2992 NOSIG=
200601311300 METAR MROC 311300Z 06006KT 9999 FEW030 BKN250 22/17 A2993 NOSIG=
200601311400 METAR MROC 311400Z 04005KT 9999 FEW030 BKN250 23/17 A2995 NOSIG=
200601311430 METAR MROC 311430Z 27003KT 9999 FEW030 BKN250 25/18 A2996 NOSIG=
200601311500 METAR MROC 311500Z 08009KT 9999 FEW030 BKN250 25/18 A2997 NOSIG=
200601311600 METAR MROC 311600Z 28007KT 9999 SCT030 SCT110 24/19 A2998 RERA RMK RN DST N NE E NOSIG=
200601311700 METAR MROC 311700Z 09014KT 9999 FEW030 SCT110 25/18 A2994 NOSIG=
200601311800 METAR MROC 311800Z 10012KT 9999 FEW030 SCT110 26/18 A2993 RMK RN DST N NE E NOSIG=
200601311900 METAR MROC 311900Z 12010KT 9999 SCT030 SCT110 25/18 A2992 NOSIG=
200601312000 METAR MROC 312000Z 12013G23KT 9999 FEW030 SCT120 27/18 A2989 NOSIG=
200601312100 METAR MROC 312100Z 10013KT 9999 FEW030 SCT120 27/18 A2988 NOSIG=
200601312200 METAR MROC 312200Z 08008KT 4000 RA SCT030 BKN080 21/19 A2991 BECMG 6000 RA=
200601312300 METAR MROC 312300Z 10010KT 6000 -RA FEW010 SCT030 OVC080 20/19 A2991 NOSIG=
200602010000 METAR MROC 010000Z 00000KT 9999 FEW030 OVC100 21/18 A2994 RERA NOSIG=
200602010100 METAR MROC 010100Z 09006KT 9999 -RA FEW030 OVC100 20/18 A2996 NOSIG=
200602010200 METAR MROC 010200Z 09007KT 9999 FEW035 OVC100 20/17 A2996 NOSIG=
200602010300 METAR MROC 010300Z 07011KT 9999 SCT025 21/17 A2998=
200602010400 METAR MROC 010400Z 10011KT 9999 SCT030 21/17 A3000=
200602010500 METAR MROC 010500Z 09010KT 9999 FEW035 SCT100 21/16 A2998=
200602010600 METAR MROC 010600Z 09012KT 9999 FEW035 SCT120 21/15 A2995=
200602010700 METAR MROC 010700Z 09010KT CAVOK 20/16 A2994=
200602010810 METAR MROC 010810Z 09014KT CAVOK 20/14 A2992=
200602011000 METAR MROC 011000Z 09014KT CAVOK 20/14 A2992=
200602011120 METAR MROC 011120Z 09015KT CAVOK 20/14 A2993=
200602011200 METAR MROC 011200Z 09013KT CAVOK 19/14 A2994=
200602011300 METAR MROC 011300Z 09018KT CAVOK 20/13 A2994 NOSIG=
200602011400 METAR MROC 011400Z 10015KT CAVOK 23/10 A2996 NOSIG=
200602011500 METAR MROC 011500Z 09015KT CAVOK 25/09 A2996 NOSIG=
200602011600 METAR MROC 011600Z 08016KT CAVOK 27/08 A2996 NOSIG=
200602011700 METAR MROC 011700Z 08005KT 9999 FEW024 BKN280 27/22 A2988=
200602012000 METAR MROC 012000Z 09011KT 9999 FEW045 BKN275 28/13 A2988 NOSIG=
200602012100 METAR MROC 012100Z 09011KT 9999 FEW045 BKN250 27/13 A2987 NOSIG=
200602012200 METAR MROC 012200Z 09010KT 9999 FEW045 BKN250 27/15 A2986 NOSIG=
200602012300 METAR MROC 012300Z 09010KT 9999 FEW025 SCT040 24/16 A2988 NOSIG=
200602020000 METAR MROC 020000Z 09009KT 9999 FEW030 23/16 A2990 NOSIG=
200602020100 METAR MROC 020100Z 08010KT 9999 FEW030 SCT250 21/17 A2990 NOSIG=
200602020200 METAR MROC 020200Z 08008KT 9999 FEW030 BKN240 21/16 A2993 NOSIG=
200602020300 METAR MROC 020300Z 07006KT CAVOK 21/16 A2995 NOSIG=
200602020400 METAR MROC 020400Z 06008KT CAVOK 21/16 A2996 NOSIG=
200602020500 METAR MROC 020500Z 08006KT CAVOK 20/16 A2995 NOSIG=
200602020600 METAR MROC 020600Z 06006KT CAVOK 20/16 A2994 NOSIG=
200602020700 METAR MROC 020700Z 10006KT CAVOK 20/16 A2992 NOSIG=
200602020800 METAR MROC 020800Z 08005KT CAVOK 19/16 A2997 NOSIG=
200602020900 METAR MROC 020900Z 07008KT CAVOK 20/16 A2991 NOSIG=
200602021000 METAR MROC 021000Z 04008KT CAVOK 19/16 A2991 NOSIG=
200602021100 METAR MROC 021100Z 06006KT CAVOK 18/15 A2993 NOSIG=
200602021200 METAR MROC 021200Z 05007KT CAVOK 17/15 A2994 NOSIG=
200602021300 METAR MROC 021300Z 06006KT CAVOK 19/16 A2996 NOSIG=
200602021400 METAR MROC 021400Z 09007KT CAVOK 23/16 A2997 NOSIG=
200602021500 METAR MROC 021500Z 08010KT CAVOK 25/16 A2996 NOSIG=
200602021600 METAR MROC 021600Z 09009KT CAVOK 27/16 A2995 NOSIG=
200602021700 METAR MROC 021700Z 30004KT 9999 FEW045 SCT300 29/15 A2993 NOSIG=
200602021800 METAR MROC 021800Z 23010KT 9999 FEW045 SCT300 28/18 A2991 NOSIG=
200602021900 METAR MROC 021900Z 23012KT 9999 SCT030 SCT270 28/19 A2990 NOSIG=
200602022000 METAR MROC 022000Z 22011KT 9999 SCT035 SCT100 27/19 A2988 NOSIG=
200602022100 METAR MROC 022100Z 22007KT 9999 SCT020 BKN100 25/19 A2987 BECMG 8000=
200602022200 METAR MROC 022200Z 08003KT 9999 -RA FEW015 SCT025 BKN100 21/20 A2987 NOSIG=
200602022300 METAR MROC 022300Z 01005KT 9999 4000E VCRA FEW010TCU SCT025 BKN100 22/20 A2990 BECMG 9999 RMK 2000E DUE RA=
200602030000 METAR MROC 030000Z 06004KT 8000 -RA FEW015 BKN100 21/19 A2991 NOSIG=
200602030100 METAR MROC 030100Z 11004KT 8000 -DZ SCT025 BKN100 20/19 A2993 NOSIG=
200602030200 METAR MROC 030200Z 09004KT 9999 FEW030 SCT120 20/19 A2993 NOSIG=
200602030300 METAR MROC 030300Z 00000KT CAVOK 21/19 A2994 NOSIG=
200602030400 METAR MROC 030400Z 00000KT CAVOK 20/19 A2995=
200602030432 METAR MROC 030432Z 00000KT 9999 2000SW FEW001 SCT120 19/19 A2995 NOSIG=
200602030500 METAR MROC 030500Z 33003KT 9999 1000SW VCFG FEW001 SCT120 20/19 A2995 NOSIG=
200602030600 METAR MROC 030600Z 00000KT 9999 2000SW FEW001 SCT120 20/19 A2994=
200602030700 METAR MROC 030700Z 00000KT 9999 3000SW VCFG FEW001 SCT120 19/19 A2991=
200602030800 METAR MROC 030800Z 00000KT 9999 FEW001 SCT120 19/19 A2989=
200602030900 METAR MROC 030900Z VRB03KT 9999 FEW010 SCT120 18/18 A2989=
200602031100 METAR MROC 031100Z 08003KT 9999 FEW015 SCT110 19/18 A2990=
200602031200 METAR MROC 031200Z 34003KT 9999 FEW005 SCT025 BKN110 19/18 A2991=
200602031300 METAR MROC 031300Z 03005KT 9999 SCT045 BKN230 20/18 A2993 NOSIG=
200602031400 METAR MROC 031400Z 05003KT 9999 FEW040 SCT110 BKN230 22/18 A2994 BECMG 24005KT=
200602031500 METAR MROC 031500Z 00000KT 9999 FEW035 BKN250 23/19 A2996 BECMG 24005KT=
200602031600 METAR MROC 031600Z 23006KT 9999 FEW035 BKN230 25/19 A2996 NOSIG=
200602031700 METAR MROC 031700Z 18005KT 9999 FEW035 SCT130 BKN250 26/19 A2994 NOSIG=
200602031800 METAR MROC 031800Z 24008KT 9999 SCT030TCU BKN130 26/19 A2992 NOSIG=
200602031900 METAR MROC 031900Z 25013KT 9999 SCT025TCU BKN130 25/20 A2990 NOSIG=
200602032000 METAR MROC 032000Z 24015KT 8000 FEW010TCU SCT025 BKN130 24/19 A2988 BECMG 5000 SHRA=
200602032100 METAR MROC 032100Z 24012KT 8000 SCT010TCU SCT050 24/20 A2989 RMK RN ARND=
200602032200 METAR MROC 032200Z 22008KT 7000 DZ BR SCT010 SCT090 20/19 A2989=
200602032300 METAR MROC 032300Z 23003KT 6000 -DZ BR SCT004 SCT025 20/19 A2990 RMK VIS RED S SW=
200602032325 METAR MROC 032325Z 00000KT 5000 RA BR SCT003 SCT020 20/19 A2992 RMK VIS RED S SW=
200602040000 METAR MROC 040000Z 00000KT 4000SW -RA BR SCT004 OVC090 20/19 A2992=
200602040100 METAR MROC 040100Z 25003KT 6000 -RA SCT003 OVC100 20/19 A2994 RMK VIS RED SW=
200602040200 METAR MROC 040200Z 00000KT 8000 -RA FEW003 OVC100 20/19 A2996=
200602040300 METAR MROC 040300Z 00000KT 9999 DZ FEW004 OVC100 20/19 A2998 BECMG RMK VIS WSW W 8KMS DUE LOW ST=
200602040400 METAR MROC 040400Z 00000KT 9999 DZ FEW004 OVC100 20/19 A2997 NOSIG=
200602040500 METAR MROC 040500Z 00000KT 7000 -RA FEW006 OVC100 20/19 A2997 NOSIG=
200602040600 METAR MROC 040600Z 00000KT 5000 BR SCT004 BKN100 20/19 A2997 NOSIG=
200602040700 METAR MROC 040700Z 00000KT 8000 SCT005 BKN100 20/19 A2995 BECMG 04005KT=
200602040800 METAR MROC 040800Z 00000KT 8000 -RA FEW003 OVC100 20/19 A2994 NOSIG=
200602040900 METAR MROC 040900Z 31003KT 9999 -RA FEW006 OVC100 20/19 A2993=
200602041000 METAR MROC 041000Z 00000KT 9000 -RA FEW006 OVC100 20/19 A2992=
200602041100 METAR MROC 041100Z 00000KT 9999 FEW030 OVC100 20/19 A2994=
200602041200 METAR MROC 041200Z 04005KT 9999 FEW040 OVC080 20/19 A2996=
200602041300 METAR MROC 041300Z 00000KT 9999 DZ FEW030 BKN100 20/19 A2997=
200602041400 METAR MROC 041400Z 07003KT 9000 FEW020 BKN120 21/20 A2999 RMK BR ARND=
200602041500 METAR MROC 041500Z 24005KT 8000 3000SW BR FEW001 BKN100 22/21 A3000=
200602041600 METAR MROC 041600Z 25005KT 8000 4000SW BR SCT003 BKN060 23/21 A3000=
200602041700 METAR MROC 041700Z 24007KT 6000 VCFG SCT008 BKN100 23/20 A2999=
200602041800 METAR MROC 041800Z 21004KT 9999 SCT012 SCT120 25/20 A2996=
200602041900 METAR MROC 041900Z 23005KT 9999 SCT015 SCT150 26/20 A2994=
200602042000 METAR MROC 042000Z 15005KT 9000 DZ SCT010TCU SCT090 24/20 A2991=
200602042100 METAR MROC 042100Z 14003KT 6000 -RA SCT015 SCT030 BKN120 21/20 A2992 RMK VSBY S SE UNL=
200602042200 METAR MROC 042200Z 31005KT 7000 -RA FEW005 SCT015 OVC120 20/19 A2991 NOSIG=
200602042300 METAR MROC 042300Z VRB03KT 9999 -RA FEW015 OVC120 20/19 A2993 NOSIG=
200602050000 METAR MROC 050000Z 10003KT 9999 FEW015 OVC120 20/19 A2994 NOSIG=
200602050100 METAR MROC 050100Z 05003KT CAVOK 21/19 A2996 NOSIG=
200602050200 METAR MROC 050200Z 10008KT CAVOK 21/17 A2998 NOSIG=
200602050300 METAR MROC 050300Z 09008KT 9999 -RA OVC100 20/17 A3001 NOSIG=
200602050400 METAR MROC 050400Z 09010KT CAVOK 20/16 A3001 NOSIG=
200602050500 METAR MROC 050500Z 07005KT 9999 FEW035 BKN100 21/16 A3000 NOSIG=
200602050600 METAR MROC 050600Z 09009KT 9999 FEW035 SCT100 21/16 A2998 NOSIG=
200602050700 METAR MROC 050700Z 10012KT 9999 FEW035 SCT110 21/16 A2995 NOSIG=
200602050800 METAR MROC 050800Z 11011KT CAVOK 22/15 A2993 NOSIG=
200602050900 METAR MROC 050900Z 09012KT CAVOK 22/15 A2993 NOSIG=
200602051000 METAR MROC 051000Z 09015KT CAVOK 22/14 A2993 NOSIG=
200602051100 METAR MROC 051100Z 10015KT CAVOK 21/15 A2994 NOSIG=
200602051200 METAR MROC 051200Z 09019KT 9999 FEW035 BKN120 21/15 A2994 NOSIG=
200602051300 METAR MROC 051300Z 09016KT 9999 FEW030 SCT100 22/16 A2997 NOSIG=
200602051400 METAR MROC 051400Z 09015KT CAVOK 24/17 A3000 NOSIG=
200602051600 METAR MROC 051600Z 08019KT 9999 FEW035 SCT120 26/17 A3001 NOSIG=
200602051700 METAR MROC 051700Z 07017KT 9999 FEW035 SCT120 26/15 A2998 NOSIG=
200602051800 METAR MROC 051800Z 08016KT 9999 FEW035 SCT120 27/15 A2998 NOSIG=
200602051900 METAR MROC 051900Z 07016G26KT 9999 FEW035 27/14 A2996 NOSIG=
200602052000 METAR MROC 052000Z 06015KT 9999 FEW035 SCT120 27/14 A2994 NOSIG=
200602052100 METAR MROC 052100Z 06013KT 9999 FEW040 SCT130 27/14 A2992=
200602052200 METAR MROC 052200Z 06015KT 9999 SCT040 24/15 A2993 NOSIG=
200602052300 METAR MROC 052300Z 08011KT 9999 SCT040 24/14 A2995=
200602060000 METAR MROC 060000Z 06011KT 9999 FEW015 SCT035 22/15 A2996 NOSIG=
200602060100 METAR MROC 060100Z 08012KT CAVOK 22/15 A2996=
200602060200 METAR MROC 060200Z 07014KT CAVOK 22/15 A2998=
200602060300 METAR MROC 060300Z 08008KT CAVOK 21/15 A2999=
200602060400 METAR MROC 060400Z 08008KT CAVOK 21/16 A3000=
200602060500 METAR MROC 060500Z 09010KT CAVOK 21/16 A2999=
200602060600 METAR MROC 060600Z 09011KT CAVOK 20/16 A2997=
200602060700 METAR MROC 060700Z 09011KT CAVOK 20/16 A2995=
200602060800 METAR MROC 060800Z 08011KT CAVOK 21/16 A2995=
200602061100 METAR MROC 061100Z 07010KT 9999 FEW030 SCT100 20/16 A2994=
200602061200 METAR MROC 061200Z 11009KT 9999 BKN030 21/17 A2997 RMK RN N NE=
200602061300 METAR MROC 061300Z 11009KT 9999 BKN030 21/17 A2997 RMK RN N NE=
200602061400 METAR MROC 061400Z 11012KT 9999 BKN030 22/17 A2999 NOSIG=
200602061500 METAR MROC 061500Z 09012KT 9999 SCT030 BKN080 24/18 A3000 NOSIG=
200602061600 METAR MROC 061600Z 10014KT 9999 SCT030 BKN080 24/18 A3000 RMK RN S N NE NOSIG=
200602061700 METAR MROC 061700Z 12014KT 9999 SCT030 BKN080 26/18 A2999 RMK RN N NE E NOSIG=
200602061800 METAR MROC 061800Z 10016KT 9999 -RA SCT030 BKN080 25/18 A2997 NOSIG=
200602061900 METAR MROC 061900Z 12012KT 9999 SCT030 BKN100 26/18 A2995 NOSIG=
200602062000 METAR MROC 062000Z 08012KT 9999 SCT030 BKN120 28/18 A2993 NOSIG=
200602062100 METAR MROC 062100Z 08010KT 9999 SCT030 BKN120 28/17 A2991 BECMG RMK DZ DST ENE=
200602062200 METAR MROC 062200Z 09011KT 9999 FEW030 BKN140 26/17 A2991 BECMG RMK RFGS 18KT=
200602062300 METAR MROC 062300Z 10014KT 9999 FEW025 SCT140 24/17 A2992 BECMG RMK RFGS 20KTS=
200602070000 METAR MROC 070000Z 08007KT 9999 FEW030 SCT140 23/17 A2994 NOSIG=
200602070100 METAR MROC 070100Z 06005KT CAVOK 22/16 A2997 NOSIG=
200602070200 METAR MROC 070200Z 10007KT CAVOK 21/17 A2998 NOSIG=
200602070300 METAR MROC 070300Z 07006KT CAVOK 21/16 A3000 NOSIG=
200602070400 METAR MROC 070400Z 09012KT CAVOK 21/17 A3000 NOSIG=
200602070500 METAR MROC 070500Z 09012KT CAVOK 21/17 A3000 NOSIG=
200602070600 METAR MROC 070600Z 08013KT CAVOK 21/16 A2997 NOSIG=
200602070700 METAR MROC 070700Z 09010KT CAVOK 21/16 A2996 NOSIG=
200602070800 METAR MROC 070800Z 09009KT CAVOK 20/15 A2995 NOSIG=
200602070900 METAR MROC 070900Z 08008KT CAVOK 20/15 A2994 NOSIG=
200602071000 METAR MROC 071000Z 10010KT CAVOK 18/14 A2994 NOSIG=
200602071100 METAR MROC 071100Z 10007KT CAVOK 19/14 A2995 NOSIG=
200602071200 METAR MROC 071200Z 07005KT CAVOK 18/11 A2997 NOSIG=
200602071300 METAR MROC 071300Z 06009KT CAVOK 19/13 A2999 NOSIG=
200602071400 METAR MROC 071400Z 08010G20KT CAVOK 22/13 A3002 NOSIG=
200602071500 METAR MROC 071500Z 10015KT CAVOK 23/14 A3002 NOSIG=
200602071600 METAR MROC 071600Z 10017KT CAVOK 25/13 A3001 NOSIG=
200602071700 METAR MROC 071700Z 10014KT CAVOK 26/14 A3000 NOSIG=
200602071800 METAR MROC 071800Z 10015KT CAVOK 27/13 A2997 NOSIG=
200602071900 METAR MROC 071900Z 09012KT CAVOK 28/13 A2994 NOSIG=
200602072000 METAR MROC 072000Z 09009KT 9999 FEW045 29/13 A2992 NOSIG=
200602072100 METAR MROC 072100Z 07009KT 9999 SCT040 28/23 A2991 NOSIG=
200602072200 METAR MROC 072200Z 13004KT 9999 FEW035 SCT250 27/14 A2992 NOSIG=
200602072300 METAR MROC 072300Z 23006KT 9999 FEW035 SCT250 26/20 A2993 NOSIG=
200602080000 METAR MROC 080000Z 07010KT 9999 FEW035 SCT250 23/14 A2995 NOSIG=
200602080100 METAR MROC 080100Z 08011KT 9999 FEW035 22/15 A2996 NOSIG=
200602080200 METAR MROC 080200Z 08012KT 9999 SCT040 21/16 A2999 NOSIG=
200602080300 METAR MROC 080300Z 09012KT CAVOK 21/15 A3000=
200602080400 METAR MROC 080400Z 09014KT CAVOK 21/15 A3000 NOSIG=
200602080500 METAR MROC 080500Z 08015KT CAVOK 20/14 A2999=
200602080600 METAR MROC 080600Z 07017KT CAVOK 20/14 A2997=
200602080700 METAR MROC 080700Z 08016KT CAVOK 20/14 A2994=
200602080800 METAR MROC 080800Z 09014KT CAVOK 19/14 A2994=
200602080900 METAR MROC 080900Z 09015KT CAVOK 19/14 A2992=
200602081000 METAR MROC 081000Z 08016KT CAVOK 19/14 A2993=
200602081100 METAR MROC 081100Z 08017KT CAVOK 20/13 A2993=
200602081200 METAR MROC 081200Z 07016KT CAVOK 19/13 A2994 NOSIG=
200602081300 METAR MROC 081300Z 09019KT CAVOK 21/11 A2995 NOSIG=
200602081400 METAR MROC 081400Z 08014KT CAVOK 24/11 A2998 NOSIG=
200602081500 METAR MROC 081500Z 09011KT CAVOK 26/11 A2998 NOSIG=
200602081600 METAR MROC 081600Z 10018KT CAVOK 26/14 A2998 NOSIG=
200602081700 METAR MROC 081700Z 09016KT 9999 FEW045 27/14 A2996 NOSIG=
200602081800 METAR MROC 081800Z 08020KT 9999 FEW040 26/15 A2994 RMK DZ N NE NOSIG=
200602081900 METAR MROC 081900Z 06019KT 9999 SCT035 SCT130 26/15 A2993 NOSIG=
200602082000 METAR MROC 082000Z 09018KT 9999 FEW035 26/16 A2991 NOSIG=
200602082100 METAR MROC 082100Z 10019KT 9999 SCT030 25/15 A2989=
200602082200 METAR MROC 082200Z 07014KT 9999 SCT025 26/15 A2990=
200602082300 METAR MROC 082300Z 06014KT 9999 SCT025 24/14 A2992=
200602090000 METAR MROC 090000Z 07009KT 9999 SCT020 22/14 A2993=
200602090100 METAR MROC 090100Z 06012KT 9999 SCT030 22/13 A2994 NOSIG=
200602090200 METAR MROC 090200Z 10008KT 9999 FEW030 21/13 A2998 NOSIG=
200602090300 METAR MROC 090300Z 10017KT 9999 FEW035 20/14 A2999 NOSIG=
200602090400 METAR MROC 090400Z 10015KT CAVOK 20/14 A3001 NOSIG=
200602090500 METAR MROC 090500Z 09016KT CAVOK 19/14 A3000 NOSIG=
200602090600 METAR MROC 090600Z 09014KT CAVOK 19/12 A3001 NOSIG=
200602090700 METAR MROC 090700Z 09017KT CAVOK 20/12 A2998 NOSIG=
200602090800 METAR MROC 090800Z 09017G27KT CAVOK 20/11 A2996=
200602090900 METAR MROC 090900Z 10018G28KT CAVOK 19/11 A2995=
200602091000 METAR MROC 091000Z 09018KT CAVOK 19/11 A2995=
200602091100 METAR MROC 091100Z 09019KT CAVOK 20/11 A2997=
200602091200 METAR MROC 091200Z 09016KT CAVOK 19/12 A2999 RMK RFGS 24KT=
200602091300 METAR MROC 091300Z 04016KT CAVOK 20/12 A3001=
200602091400 METAR MROC 091400Z 09017KT CAVOK 23/10 A3003=
200602091500 METAR MROC 091500Z 08015KT CAVOK 25/09 A3004=
200602091600 METAR MROC 091600Z 08016KT CAVOK 26/10 A3005=
200602091700 METAR MROC 091700Z 06021KT CAVOK 26/11 A3003=
200602091800 METAR MROC 091800Z 08019KT CAVOK 27/11 A3000=
200602091900 METAR MROC 091900Z 06020KT CAVOK 27/12 A2998=
200602092000 METAR MROC 092000Z 07022G32KT CAVOK 27/12 A2995=
200602092100 METAR MROC 092100Z 07018G28KT CAVOK 26/11 A2995 NOSIG=
200602092200 METAR MROC 092200Z 08018G28KT CAVOK 26/09 A2995 NOSIG=
200602092300 METAR MROC 092300Z 08017KT CAVOK 24/10 A2996 NOSIG=
200602100000 METAR MROC 100000Z 07018KT CAVOK 22/08 A2997 NOSIG=
200602100100 METAR MROC 100100Z 08018KT CAVOK 22/08 A2998 NOSIG=
200602100200 METAR MROC 100200Z 09018KT CAVOK 22/08 A3000 NOSIG=
200602100300 METAR MROC 100300Z 09019KT CAVOK 21/10 A3001 NOSIG=
200602100400 METAR MROC 100400Z 09017KT CAVOK 21/10 A3002 NOSIG=
200602100500 METAR MROC 100500Z 09018KT CAVOK 21/09 A3001 NOSIG=
200602100600 METAR MROC 100600Z 09015KT CAVOK 21/09 A3001 NOSIG=
200602100700 METAR MROC 100700Z 09013KT CAVOK 21/09 A2998 NOSIG=
200602100800 METAR MROC 100800Z 09012KT CAVOK 19/11 A2996 NOSIG=
200602100900 METAR MROC 100900Z 08014KT CAVOK 19/13 A2996=
200602101000 METAR MROC 101000Z 08012KT CAVOK 19/13 A2996 NOSIG=
200602101100 METAR MROC 101100Z 09013KT CAVOK 19/13 A2997 NOSIG=
200602101200 METAR MROC 101200Z 08011KT CAVOK 20/12 A2999 NOSIG=
200602101300 METAR MROC 101300Z 08011KT CAVOK 22/13 A3001 NOSIG=
200602101400 METAR MROC 101400Z 09016KT CAVOK 23/13 A3003 NOSIG=
200602101500 METAR MROC 101500Z 09017KT CAVOK 26/12 A3004 NOSIG=
200602101600 METAR MROC 101600Z 07018KT CAVOK 28/09 A3004 NOSIG=
200602101700 METAR MROC 101700Z 07016G26KT CAVOK 28/09 A3002 NOSIG=
200602101800 METAR MROC 101800Z 08016KT CAVOK 29/09 A3000 NOSIG=
200602101900 METAR MROC 101900Z 08014G24KT CAVOK 29/088 A2998 NOSIG=
200602102000 METAR MROC 102000Z 08016KT CAVOK 28/17 A2997 NOSIG=
200602102100 METAR MROC 102100Z 07015KT 9999 FEW040 28/07 A2997 NOSIG=
200602102200 METAR MROC 102200Z 09013KT 9999 FEW040 28/09 A2993 NOSIG=
200602102300 METAR MROC 102300Z 09009KT 9999 FEW040 26/09 A2995 NOSIG=
200602110000 METAR MROC 110000Z 06011KT 9999 FEW040 23/11 A2997 NOSIG=
200602110100 METAR MROC 110100Z 07012KT CAVOK 22/11 A2999 NOSIG=
200602110200 METAR MROC 110200Z 07014KT CAVOK 21/12 A3001 NOSIG=
200602110300 METAR MROC 110300Z 07011KT CAVOK 21/11 A3003=
200602110400 METAR MROC 110400Z 09013KT CAVOK 20/11 A3003=
200602110500 METAR MROC 110500Z 10012KT CAVOK 19/11 A3003=
200602110600 METAR MROC 110600Z 09013KT CAVOK 19/11 A3002=
200602110700 METAR MROC 110700Z 09013KT CAVOK 19/12 A3000=
200602110810 METAR MROC 110810Z 08010KT CAVOK 19/12 A2998=
200602111010 METAR MROC 111010Z 09008KT CAVOK 17/12 A2998=
200602111100 METAR MROC 111100Z 06010KT CAVOK 16/11 A2999=
200602111200 METAR MROC 111200Z 05011KT CAVOK 15/11 A2999=
200602111300 METAR MROC 111300Z 05013KT CAVOK 18/12 A3001 NOSIG=
200602111400 METAR MROC 111400Z 06006KT CAVOK 22/12 A3003 NOSIG=
200602111500 METAR MROC 111500Z 10015KT CAVOK 25/11 A3003 NOSIG=
200602111800 METAR MROC 111800Z 10006KT CAVOK 30/11 A2999 NOSIG=
200602112000 METAR MROC 112000Z 26010KT 9999 FEW040 28/17 A2995 NOSIG=
200602112100 METAR MROC 112100Z 24012KT 9999 FEW040 27/18 A2994 NOSIG=
200602112200 METAR MROC 112200Z 25010KT 9999 SCT040 27/17 A2995 NOSIG=
200602112300 METAR MROC 112300Z 23008KT 9999 FEW035 25/18 A2997 NOSIG=
200602120000 METAR MROC 120000Z 22005KT 9999 FEW030 22/18 A2998 NOSIG=
200602120100 METAR MROC 120100Z 08007KT CAVOK 21/16 A3001 NOSIG=
200602120200 METAR MROC 120200Z 10006KT CAVOK 20/16 A3004 NOSIG=
200602120300 METAR MROC 120300Z 08010KT CAVOK 20/13 A3005 NOSIG=
200602120400 METAR MROC 120400Z 07008KT CAVOK 20/09 A3006 NOSIG=
200602120500 METAR MROC 120500Z 07007KT CAVOK 20/09 A3005 NOSIG=
200602120600 METAR MROC 120600Z 04008KT CAVOK 19/10 A3005 NOSIG=
200602120700 METAR MROC 120700Z 06006KT CAVOK 19/11 A3003 NOSIG=
200602120800 METAR MROC 120800Z 05008KT CAVOK 18/11 A3000 NOSIG=
200602120900 METAR MROC 120900Z 04008KT CAVOK 18/11 A2999 NOSIG=
200602121000 METAR MROC 121000Z 03006KT CAVOK 18/11 A2999 NOSIG=
200602121100 METAR MROC 121100Z 04008KT CAVOK 18/12 A3000 NOSIG=
200602121200 METAR MROC 121200Z 02007KT CAVOK 17/11 A3000 NOSIG=
200602121300 METAR MROC 121300Z 03007KT CAVOK 20/12 A3002 NOSIG=
200602121400 METAR MROC 121400Z 09012KT CAVOK 23/13 A3003 NOSIG=
200602121500 METAR MROC 121500Z 09012KT CAVOK 24/14 A3005 NOSIG=
200602121600 METAR MROC 121600Z 09014KT 9999 FEW040 26/14 A3004 NOSIG=
200602121700 METAR MROC 121700Z 09015KT 9999 FEW040 27/14 A3002 NOSIG=
200602121800 METAR MROC 121800Z 09016G26KT 9999 FEW040 28/14 A2999 NOSIG=
200602121900 METAR MROC 121900Z 09017G27KT 9999 FEW040 28/13 A2997 NOSIG=
200602122000 METAR MROC 122000Z 09015G25KT 9999 FEW040 28/12 A2995 NOSIG=
200602122100 METAR MROC 122100Z 09013KT 9999 FEW040 27/14 A2995 NOSIG=
200602122200 METAR MROC 122200Z 09015KT 9999 FEW035 26/15 A2996 NOSIG=
200602122300 METAR MROC 122300Z 08015KT 9999 FEW035 25/15 A2997 NOSIG=
200602130000 METAR MROC 130000Z 08011KT 9999 FEW035 23/15 A2999 NOSIG=
200602130100 METAR MROC 130100Z 08014KT 9999 FEW035 22/15 A3002 NOSIG=
200602130200 METAR MROC 130200Z 09015KT CAVOK 21/15 A3005 NOSIG=
200602130300 METAR MROC 130300Z 08018KT CAVOK 21/15 A3007 NOSIG=
200602130400 METAR MROC 130400Z 08014KT CAVOK 21/14 A3008=
200602130500 METAR MROC 130500Z 08018KT CAVOK 21/13 A3005 NOSIG=
200602130600 METAR MROC 130600Z 08012KT CAVOK 20/14 A3005 NOSIG=
200602130700 METAR MROC 130700Z 09019KT CAVOK 21/11 A3002=
200602130800 METAR MROC 130800Z 09022KT CAVOK 20/13 A2999=
200602130900 METAR MROC 130900Z 09020KT CAVOK 20/13 A2999=
200602131000 METAR MROC 131000Z 09024KT CAVOK 20/14 A2999=
200602131100 METAR MROC 131100Z 09021KT CAVOK 20/14 A2999=
200602131200 METAR MROC 131200Z 09022KT 9999 FEW035 20/15 A3000=
200602131300 METAR MROC 131300Z 08022G32KT 9999 FEW035 SCT250 21/15 A3001 RMK DZ N NE=
200602131400 METAR MROC 131400Z 10023KT 9999 FEW035 SCT250 22/16 A3003 RMK DZ N NE NOSIG=
200602131500 METAR MROC 131500Z 08025KT 9999 FEW035 SCT270 23/15 A3005 NOSIG=
200602131600 METAR MROC 131600Z 09019KT 9999 FEW035 SCT270 25/16 A3006 RMK DZ N NE NOSIG=
200602131700 METAR MROC 131700Z 09022KT 9999 FEW035 SCT270 25/16 A3003 RMK DZ N NE NOSIG=
200602131800 METAR MROC 131800Z 09019KT 9999 FEW035 SCT270 26/16 A3003 NOSIG=
200602131900 METAR MROC 131900Z 09023KT 9999 FEW035 SCT270 25/16 A2999 RMK DZ N NE NOSIG=
200602132000 METAR MROC 132000Z 09020KT 9999 FEW035 SCT270 25/16 A2998 NOSIG=
200602132100 METAR MROC 132100Z 09021KT 9999 FEW035 SCT270 25/16 A2995 RMK RAFAGAS OCACIONALE 28KT NOSIG=
200602132200 METAR MROC 132200Z 10022KT 9999 FEW030 BKN270 24/16 A2994 RMK DZ DST N/NE RAFAGAS OCACIONALES 30KT NOSIG=
200602132300 METAR MROC 132300Z 10022KT 9999 SCT030 SCT270 23/16 A2995 RMK DZ DST N/NE RAFAGAS OCACIONALES 28KT NOSIG=
200602140000 METAR MROC 140000Z 09019KT 9999 SCT030 SCT270 21/16 A2996 RMK DZ DST N/NE RAFAGAS OCACIONALES 28KT NOSIG=
200602140100 METAR MROC 140100Z 09021KT 9999 FEW030 SCT300 21/16 A3000 RMK DZ NE/N DST RAFAGAS OCACIONALE 30KT NOSIG=
200602140200 METAR MROC 140200Z 09016KT 9999 FEW030 SCT270 20/15 A3003 RMK DZ DST N/NE RAFAGAS OCACIONALES 24KT NOSIG=
200602140300 METAR MROC 140300Z 10017KT 9999 FEW030 20/15 A3005 RMK OCNL GUSTS 24KTS NOSIG=
200602140400 METAR MROC 140400Z 10018KT 9999 FEW030 20/15 A3005 BECMG RMK DZ DST N NE RFGS 24KT=
200602140500 METAR MROC 140500Z 05009KT 9999 FEW030 20/14 A3006 BECMG RMK DZ DST N/NE/E RFGS 15KT=
200602140600 METAR MROC 140600Z 09011G21KT 9999 FEW030 19/14 A3005 BECMG RMK DZ DST N/NE/E=
200602140700 METAR MROC 140700Z 06011G22KT 9999 FEW030 18/13 A3003 NOSIG=
200602140800 METAR MROC 140800Z 09012G25KT 9999 FEW030 18/13 A3000=
200602140900 METAR MROC 140900Z 09019KT 9999 FEW030 18/14 A2998 RMK RFGS 25KT=
200602141000 METAR MROC 141000Z 09022KT 9999 FEW030 18/14 A2997 RMK RFGS 28KT=
200602141100 METAR MROC 141100Z 08018KT 9999 FEW030 19/14 A2998 RMK RFGS 25KT=
200602141200 METAR MROC 141200Z 09019G30KT 9999 FEW025 SCT300 19/14 A2999 RMK DZ DST N NE E=
200602141300 METAR MROC 141300Z 10022KT 9999 FEW030 SCT300 20/14 A2998 RMK DZ DST N/NE/E RAFAGAS OCACIONALES 30KT NOSIG=
200602141400 METAR MROC 141400Z 10025G35KT 9999 FEW030 SCT300 21/15 A2999 RMK DZ DST N/NE/E NOSIG=
200602141500 METAR MROC 141500Z 09022KT 9999 FEW035 24/15 A3002 RMK DZ DST N/NE/E RAFAGAS OCACIONALES 29KT NOSIG=
200602141600 METAR MROC 141600Z 09023KT 9999 FEW035 24/16 A3002 RMK DZ DST N/NE/E RAFAGAS OCACIONALES 31KT NOSIG=
200602141700 METAR MROC 141700Z 09022G32KT 9999 FEW035 25/16 A3001 RMK DZ DST N/NE/E NOSIG=
200602141800 METAR MROC 141800Z 08020KT 9999 FEW035 27/15 A3000 RMK DZ DST N/NE/E RAFAGAS OCACIONALES 27KT NOSIG=
200602141900 METAR MROC 141900Z 08018KT 9999 FEW035 27/15 A2996 RMK DZ DST N/NE/E RAFAGAS OCACIONALES 29KT NOSIG=
200602142000 METAR MROC 142000Z 09017KT 9999 SCT035 27/15 A2994 RMK DZ DST N/NE/E RAFAGAS OCACIONALES 25KT NOSIG=
200602142100 METAR MROC 142100Z 07016G26KT 9999 FEW035 26/15 A2993 NOSIG=
200602142200 METAR MROC 142200Z 08015G25KT 9999 FEW035 26/15 A2992 NOSIG=
200602142300 METAR MROC 142300Z 07017G27KT 9999 FEW035 25/15 A2992 NOSIG=
200602150000 METAR MROC 150000Z 07018G28KT 9999 FEW035 22/15 A2994 NOSIG=
200602150100 METAR MROC 150100Z 07016KT 9999 FEW035 22/15 A2996 NOSIG=
200602150200 METAR MROC 150200Z 07015G25KT 9999 FEW035 21/15 A2998 NOSIG=
200602150300 METAR MROC 150300Z 06020KT 9999 FEW035 22/15 A2999 NOSIG=
200602150400 METAR MROC 150400Z 06020KT 9999 FEW035 22/14 A3000 NOSIG=
200602150500 METAR MROC 150500Z 07012KT 9999 FEW035 21/14 A3000 NOSIG=
200602150600 METAR MROC 150600Z 07015KT 9999 FEW035 21/15 A2999 NOSIG=
200602150700 METAR MROC 150700Z 08015KT 9999 FEW035 21/15 A2996 NOSIG=
200602150800 METAR MROC 150800Z 09016KT 9999 FEW035 21/15 A2994 NOSIG=
200602150900 METAR MROC 150900Z 08020KT 9999 FEW035 21/15 A2990 NOSIG=
200602151000 METAR MROC 151000Z 09020KT 9999 FEW035 22/16 A2991 NOSIG=
200602151100 METAR MROC 151100Z 09018KT 9999 FEW035 21/16 A2991 NOSIG=
200602151200 METAR MROC 151200Z 10020KT 9999 FEW030 21/16 A2992 BECMG RMK DZ N NE=
200602151300 METAR MROC 151300Z 09020KT 9999 FEW030 21/16 A2995 RMK OCNL GUSTS 26KTS/ NOSIG=
200602151400 METAR MROC 151400Z 10019KT 9999 FEW030 23/16 A2997 NOSIG=
200602151500 METAR MROC 151500Z 09018G28KT 9999 FEW025 25/16 A3000 NOSIG=
200602151600 METAR MROC 151600Z 09017KT 9999 FEW030 25/16 A3001 NOSIG=
200602151700 METAR MROC 151700Z 09017KT 9999 FEW030 26/17 A3000 NOSIG=
200602151800 METAR MROC 151800Z 08019KT 9999 SCT030 25/11 A2999 NOSIG=
200602151900 METAR MROC 151900Z 09019G29KT 9999 SCT030 27/13 A2995 BECMG RMK FU COSTADO SUR DE LA PISTA=
200602152000 METAR MROC 152000Z 09019KT 9999 FEW035 26/14 A2992 BECMG RMK FU S DE LA PISTA=
200602152100 METAR MROC 152100Z 10019KT CAVOK 26/14 A2990=
200602152200 METAR MROC 152200Z 07016KT CAVOK 25/13 A2990 NOSIG=
200602152300 METAR MROC 152300Z 09016KT 9999 FEW040 SCT300 24/14 A2991 NOSIG=
200602160000 METAR MROC 160000Z 08014KT 9999 FEW040 SCT300 23/14 A2993 NOSIG=
200602160100 METAR MROC 160100Z 07015KT CAVOK 22/14 A2994 NOSIG=
200602160200 METAR MROC 160200Z 07012KT CAVOK 22/14 A2996 NOSIG=
200602160300 METAR MROC 160300Z 08014G24KT CAVOK 21/14 A2996 NOSIG=
200602160400 METAR MROC 160400Z 08014KT CAVOK 21/14 A2997 RMK RAFAGAS 20KT NOSIG=
200602160500 METAR MROC 160500Z 09009KT CAVOK 20/15 A2997 NOSIG=
200602160600 METAR MROC 160600Z 10016KT CAVOK 20/14 A2994 RMK RAFAGAS 22KT NOSIG=
200602160700 METAR MROC 160700Z 10015KT CAVOK 20/15 A2993 RMK DZ DST E RAFAGAZ 20KT NOSIG=
200602160800 METAR MROC 160800Z 10015KT CAVOK 20/15 A2991 RMK DZ DST E RAFAGAS 21KT=
200602160900 METAR MROC 160900Z 10015KT CAVOK 20/14 A2991 RMK DZ DST E RAFAGAS 22KT NOSIG=
200602161000 METAR MROC 161000Z 09013KT CAVOK 20/14 A2991 RMK DZ DST E RAFAGAS 19KT NOSIG=
200602161100 METAR MROC 161100Z 09013KT CAVOK 20/14 A2992 RMK DZ DST E NOSIG=
200602161200 METAR MROC 161200Z 08012KT CAVOK 20/15 A2995 RMK DZ DST E NOSIG=
200602161300 METAR MROC 161300Z 09014KT 9999 FEW030 SCT300 21/15 A2996 NOSIG=
200602161400 METAR MROC 161400Z 08015KT 9999 FEW030 SCT300 23/14 A2997 NOSIG=
200602161500 METAR MROC 161500Z 09019KT 9999 FEW030 SCT300 26/13 A2998 NOSIG=
200602161600 METAR MROC 161600Z 08013KT 9999 FEW030 SCT300 27/14 A2998 NOSIG=
200602161700 METAR MROC 161700Z 07014KT 9999 FEW030 SCT300 27/15 A2997 NOSIG=
200602161800 METAR MROC 161800Z 06017KT 9999 FEW030 SCT300 28/16 A2994 NOSIG=
200602161900 METAR MROC 161900Z 07017KT 9999 FEW035 28/16 A2992 NOSIG=
200602162000 METAR MROC 162000Z 08015G25KT 9999 FEW035 28/15 A2991=
200602162100 METAR MROC 162100Z 07017KT 9999 FEW030 27/16 A2990 BECMG RMK DZ DST N NE=
200602162200 METAR MROC 162200Z 08016KT 9999 FEW030 25/16 A2989 NOSIG=
200602162300 METAR MROC 162300Z 08012KT 9999 FEW030 24/15 A2990 NOSIG=
200602170000 METAR MROC 170000Z 09014KT 9999 FEW030 22/15 A2992 NOSIG=
200602170100 METAR MROC 170100Z 08016KT CAVOK 22/16 A2994 NOSIG=
200602170200 METAR MROC 170200Z 10013KT CAVOK 21/15 A2997 NOSIG=
200602170300 METAR MROC 170300Z 09017KT CAVOK 21/16 A2998 NOSIG=
200602170400 METAR MROC 170400Z 07017KT CAVOK 21/15 A2998 NOSIG=
200602170500 METAR MROC 170500Z 08015KT CAVOK 21/15 A2998 NOSIG=
200602170600 METAR MROC 170600Z 09015KT CAVOK 21/16 A2997 NOSIG=
200602170700 METAR MROC 170700Z 10016KT CAVOK 20/16 A2995 NOSIG=
200602170800 METAR MROC 170800Z 09015KT CAVOK 21/16 A2993 NOSIG=
200602170900 METAR MROC 170900Z 10018KT CAVOK 21/16 A2992 NOSIG=
200602171000 METAR MROC 171000Z 10018KT CAVOK 20/16 A2993 NOSIG=
200602171100 METAR MROC 171100Z 10018KT CAVOK 20/15 A2994 NOSIG=
200602171200 METAR MROC 171200Z 10017KT CAVOK 20/15 A2995 NOSIG=
200602171300 METAR MROC 171300Z 09015KT 9999 FEW030 21/14 A2997 RMK DZ DST N NE=
200602171400 METAR MROC 171400Z 09017KT 9999 FEW030 23/14 A2999=
200602171500 METAR MROC 171500Z 09018G29KT 9999 FEW035 25/14 A2999 BECMG RMK PCPN DST N NE=
200602171600 METAR MROC 171600Z 09020G30KT 9999 FEW035 25/15 A2999 RMK DZ DST N NE=
200602171700 METAR MROC 171700Z 09019G29KT 9999 FEW035 26/15 A2999 NOSIG=
200602171800 METAR MROC 171800Z 10018G28KT 9999 FEW035 27/15 A2996 NOSIG=
200602171900 METAR MROC 171900Z 10019KT 9999 FEW035 27/16 A2994 BECMG RMK RFGS 27KTS=
200602172000 METAR MROC 172000Z 09016KT 9999 FEW035 27/16 A2992 NOSIG=
200602172100 METAR MROC 172100Z 09018KT 9999 FEW035 26/16 A2991 NOSIG=
200602172200 METAR MROC 172200Z 08015KT 9999 FEW035 26/16 A2990 NOSIG=
200602172300 METAR MROC 172300Z 09015KT 9999 FEW030 26/16 A2990 NOSIG=
200602180000 METAR MROC 180000Z 10015KT 9999 FEW030 21/15 A2993 NOSIG=
200602180100 METAR MROC 180100Z 10014KT 9999 FEW030 21/15 A2995 NOSIG=
200602180200 METAR MROC 180200Z 10016KT 9999 FEW030 21/15 A2998 NOSIG=
200602180300 METAR MROC 180300Z 10017KT CAVOK 20/14 A2999 NOSIG=
200602180400 METAR MROC 180400Z 10015KT CAVOK 20/15 A3001 NOSIG=
200602180500 METAR MROC 180500Z 10015KT CAVOK 21/14 A3000=
200602180600 METAR MROC 180600Z 10014KT CAVOK 20/15 A2998=
200602180700 METAR MROC 180700Z 09017KT CAVOK 20/14 A2997=
200602180800 METAR MROC 180800Z 10010KT CAVOK 20/15 A2996=
200602180900 METAR MROC 180900Z 09013KT CAVOK 20/15 A2996=
200602181000 METAR MROC 181000Z 10014KT CAVOK 21/14 A2994=
200602181100 METAR MROC 181100Z 10018KT CAVOK 20/15 A2995=
200602181200 METAR MROC 181200Z 09018KT 9999 FEW030 20/15 A2996=
200602181300 METAR MROC 181300Z 09020KT 9999 FEW030 21/15 A2998 NOSIG=
200602181400 METAR MROC 181400Z 09017KT 9999 FEW030 22/15 A3000 NOSIG=
200602181500 METAR MROC 181500Z 09015KT 9999 FEW030 24/15 A3001 NOSIG=
200602181600 METAR MROC 181600Z 09020KT 9999 SCT025 25/15 A3002 NOSIG=
200602181700 METAR MROC 181700Z 09018KT 9999 SCT025 25/14 A3001 RMK RN N NE NOSIG=
200602181800 METAR MROC 181800Z 09016KT 9999 SCT030 27/13 A2999 NOSIG=
200602181900 METAR MROC 181900Z 09020KT 9999 SCT030 27/14 A2995 NOSIG=
200602182000 METAR MROC 182000Z 10018KT 9999 SCT030 27/14 A2994 NOSIG=
200602182100 METAR MROC 182100Z 09019G29KT 9999 SCT030 26/14 A2992 NOSIG=
200602182200 METAR MROC 182200Z 09016KT 9999 SCT030 26/14 A2992 RMK RAFAGAS DE 23KT NOSIG=
200602182300 METAR MROC 182300Z 09014KT 9999 FEW030 24/14 A2993 RMK DZ DST NE/E RAFAGAS 23KT NOSIG=
200602190000 METAR MROC 190000Z 09015KT 9999 FEW030 22/15 A2994 RMK DZ DST NE/E RAFAGAS 21KT NOSIG=
200602190100 METAR MROC 190100Z 09018KT CAVOK 21/15 A2996 RMK DZ DST E RAFAGAS 24KT NOSIG=
200602190200 METAR MROC 190200Z 10017KT CAVOK 21/15 A2997 RMK DZ DST E RAFAGAS 22KT NOSIG=
200602190300 METAR MROC 190300Z 10018KT CAVOK 21/15 A2998 NOSIG=
200602190400 METAR MROC 190400Z 09019KT CAVOK 21/15 A2999 BECMG RMK RFGS 28KT=
200602190500 METAR MROC 190500Z 09016G26KT CAVOK 20/15 A2999=
200602190600 METAR MROC 190600Z 10019KT 9999 FEW030 20/16 A2997 RMK RFGS 26KT=
200602190700 METAR MROC 190700Z 10020G30KT 9999 FEW030 21/16 A2994=
200602190800 METAR MROC 190800Z 10017G27KT 9999 FEW030 20/16 A2992=
200602190900 METAR MROC 190900Z 09019G30KT 9999 FEW030 19/14 A2993=
200602191000 METAR MROC 191000Z 09016G26KT 9999 FEW030 20/13 A2994=
200602191100 METAR MROC 191100Z 08015KT 9999 FEW030 20/10 A2995=
200602191200 METAR MROC 191200Z 10018G28KT 9999 FEW030 19/12 A2996=
200602191300 METAR MROC 191300Z 09018KT CAVOK 20/12 A3000 RMK RAFAGAS 26KT NOSIG=
200602191400 METAR MROC 191400Z 09018KT CAVOK 22/14 A3001 RMK RAFAGAS DE 25KT NOSIG=
200602191500 METAR MROC 191500Z 08019KT CAVOK 24/13 A3003 RMK RAFAGAS DE 26KT NOSIG=
200602191600 METAR MROC 191600Z 08020KT CAVOK 25/11 A3003 RMK RAFAGAS DE 28KT NOSIG=
200602191700 METAR MROC 191700Z 07020G30KT CAVOK 26/11 A3002=
200602191800 METAR MROC 191800Z 06025G36KT CAVOK 26/11 A3001=
200602191900 METAR MROC 191900Z 06022KT 9999 FEW035 26/09 A2999 RMK RAFAGAS DE 29KT NOSIG=
200602192000 METAR MROC 192000Z 05023G23KT 9999 FEW035 26/11 A2996=
200602192100 METAR MROC 192100Z 06020G30KT 9999 FEW040 26/11 A2994 NOSIG=
200602192200 METAR MROC 192200Z 05020G30KT 9999 FEW040 25/12 A2993 NOSIG=
200602192300 METAR MROC 192300Z 05022G32KT 9999 FEW040 24/11 A2994 NOSIG=
200602200000 METAR MROC 200000Z 05022G32KT 9999 FEW040 22/11 A2994 NOSIG=
200602200100 METAR MROC 200100Z 07014G24KT CAVOK 21/11 A2997 NOSIG=
200602200200 METAR MROC 200200Z 08017KT CAVOK 20/11 A2999 NOSIG=
200602200300 METAR MROC 200300Z 09013KT CAVOK 19/11 A3001 NOSIG=
200602200400 METAR MROC 200400Z 09014KT CAVOK 19/11 A3002 NOSIG=
200602200500 METAR MROC 200500Z 09016KT CAVOK 19/09 A3001 NOSIG=
200602200600 METAR MROC 200600Z 09014KT CAVOK 19/08 A2999 NOSIG=
200602200700 METAR MROC 200700Z 09014KT CAVOK 20/08 A2997 NOSIG=
200602200800 METAR MROC 200800Z 09014KT CAVOK 20/08 A2996 NOSIG=
200602200900 METAR MROC 200900Z 09014KT CAVOK 20/10 A2993 NOSIG=
200602201000 METAR MROC 201000Z 09019KT CAVOK 19/08 A2991 NOSIG=
200602201100 METAR MROC 201100Z 09014KT CAVOK 19/10 A2994 NOSIG=
200602201200 METAR MROC 201200Z 10014KT CAVOK 19/10 A2998 NOSIG=
200602201300 METAR MROC 201300Z 10013KT CAVOK 20/11 A2999 NOSIG=
200602201400 METAR MROC 201400Z 08018KT CAVOK 22/12 A3000 NOSIG=
200602201500 METAR MROC 201500Z 09018KT CAVOK 25/10 A3002 NOSIG=
200602201600 METAR MROC 201600Z 09017G27KT CAVOK 26/11 A3002 NOSIG=
200602201700 METAR MROC 201700Z 08016KT CAVOK 27/12 A3001 NOSIG=
200602201800 METAR MROC 201800Z 06016G26KT CAVOK 27/13 A2999 NOSIG=
200602201900 METAR MROC 201900Z 07015KT CAVOK 28/12 A2997 NOSIG=
200602202000 METAR MROC 202000Z 08013G23KT CAVOK 28/12 A2994 NOSIG=
200602202100 METAR MROC 202100Z 10013KT 9999 FEW045 27/12 A2993=
200602202200 METAR MROC 202200Z 08013KT 9999 FEW045 26/11 A2993=
200602202300 METAR MROC 202300Z 08011KT 9999 FEW045 25/11 A2994=
200602210000 METAR MROC 210000Z 08016KT CAVOK 22/11 A2995 NOSIG=
200602210100 METAR MROC 210100Z 08014KT CAVOK 21/12 A2996 NOSIG=
200602210200 METAR MROC 210200Z 08016KT CAVOK 20/12 A2997 NOSIG=
200602210300 METAR MROC 210300Z 09015KT CAVOK 20/13 A3000 RMK RAFAGAS DE 22KT NOSIG=
200602210400 METAR MROC 210400Z 08016KT CAVOK 20/12 A3000 RMK RAFAGAS 22KT NOSIG=
200602210500 METAR MROC 210500Z 08015KT CAVOK 20/11 A3000 RMK RAFAGAS DE 21KT NOSIG=
200602210600 METAR MROC 210600Z 09012KT CAVOK 19/12 A2999 RMK RAFAGAS DE 18KT NOSIG=
200602210700 METAR MROC 210700Z 09017KT CAVOK 19/13 A2996 RMK RAFAGAS 23KT NOSIG=
200602210800 METAR MROC 210800Z 10015KT CAVOK 19/12 A2994 RMK RAFAGAS DE 21KT NOSIG=
200602210900 METAR MROC 210900Z 09016KT 9999 FEW035 19/13 A2994 RMK RAFAGAS DE 22KT DZ DST E NOSIG=
200602211000 METAR MROC 211000Z 09015KT CAVOK 19/14 A2994 NOSIG=
200602211100 METAR MROC 211100Z 09020KT CAVOK 19/13 A2994 RMK RAFAGAS DE 28KT NOSIG=
200602211200 METAR MROC 211200Z 10014KT CAVOK 18/13 A2998 RMK RAFAGAS DE 20KT DZ DST NE/E NOSIG=
200602211300 METAR MROC 211300Z 09015KT CAVOK 20/13 A2999 NOSIG=
200602211400 METAR MROC 211400Z 08018KT CAVOK 23/13 A2999 NOSIG=
200602211500 METAR MROC 211500Z 09017KT CAVOK 25/14 A3001 NOSIG=
200602211600 METAR MROC 211600Z 08017KT CAVOK 25/15 A3000 NOSIG=
200602211700 METAR MROC 211700Z 10016KT 9999 FEW045 26/15 A2999 NOSIG=
200602211800 METAR MROC 211800Z 10015KT 9999 FEW045 SCT300 27/15 A2997=
200602211900 METAR MROC 211900Z 10019KT 9999 SCT045 SCT300 26/14 A2995 NOSIG=
200602212000 METAR MROC 212000Z 07017KT 9999 SCT040 SCT300 25/14 A2994 NOSIG=
200602220200 METAR MROC 220200Z 10013KT CAVOK 19/13 A2998 NOSIG=
200602220300 METAR MROC 220300Z 08012KT CAVOK 19/13 A2999 NOSIG=
200602220500 METAR MROC 220500Z 09013KT CAVOK 19/09 A2999 NOSIG=
200602220600 METAR MROC 220600Z 09014KT CAVOK 19/10 A2998 NOSIG=
200602220700 METAR MROC 220700Z 10013KT CAVOK 18/11 A2995 NOSIG=
200602220800 METAR MROC 220800Z 09013KT CAVOK 18/10 A2994 NOSIG=
200602220900 METAR MROC 220900Z 08010KT CAVOK 18/10 A2994 NOSIG=
200602221000 METAR MROC 221000Z 09012KT CAVOK 19/10 A2993 NOSIG=
200602221100 METAR MROC 221100Z 11012KT CAVOK 19/09 A2993 NOSIG=
200602221200 METAR MROC 221200Z 10012KT 9999 SCT035 19/11 A2995 NOSIG=
200602221300 METAR MROC 221300Z 10012KT 9999 SCT035 19/13 A2996 BECMG RMK PCPN DST N NE E SE=
200602221400 METAR MROC 221400Z 10013KT 9999 FEW035 22/15 A2997 BECMG RMK DZ DST N NE=
200602221500 METAR MROC 221500Z 10014KT 9999 FEW035 25/16 A2998 RMK DZ DST N NE=
200602221600 METAR MROC 221600Z 09012KT 9999 FEW040 27/15 A2999 BECMG RMK RFGS 20KT=
200602221700 METAR MROC 221700Z 08014KT 9999 FEW040 27/15 A2998 NOSIG=
200602221800 METAR MROC 221800Z 09012KT 9999 FEW040 28/14 A2996 NOSIG=
200602221900 METAR MROC 221900Z 09014KT 9999 FEW045 28/14 A2993 BECMG RMK RFGS 22KT=
200602222000 METAR MROC 222000Z 07012G22KT 9999 FEW040 29/13 A2991 NOSIG=
200602222100 METAR MROC 222100Z 09012G23KT 9999 FEW040 29/13 A2989 NOSIG=
200602222200 METAR MROC 222200Z 07012KT 9999 FEW040 28/14 A2989 NOSIG=
200602222300 METAR MROC 222300Z 06006KT 9999 FEW040 26/14 A2990 NOSIG=
200602230000 METAR MROC 230000Z 09009KT 9999 FEW040 24/15 A2991 NOSIG=
200602230100 METAR MROC 230100Z 07010KT 9999 FEW030 22/15 A2992=
200602230200 METAR MROC 230200Z 09010KT CAVOK 22/16 A2994 NOSIG=
200602230300 METAR MROC 230300Z 07012KT CAVOK 22/15 A2996 NOSIG=
200602230400 METAR MROC 230400Z 08014KT CAVOK 22/15 A2997 NOSIG=
200602230500 METAR MROC 230500Z 08013KT CAVOK 21/15 A2996=
200602230600 METAR MROC 230600Z 09014KT CAVOK 21/15 A2993 NOSIG=
200602230700 METAR MROC 230700Z 09017KT CAVOK 20/16 A2991=
200602230800 METAR MROC 230800Z 10015KT CAVOK 20/15 A2990=
200602230900 METAR MROC 230900Z 10014KT CAVOK 20/15 A2988=
200602231000 METAR MROC 231000Z 09018KT CAVOK 20/16 A2988=
200602231100 METAR MROC 231100Z 09017KT CAVOK 20/15 A2988=
200602231200 METAR MROC 231200Z 09016KT 9999 FEW040 BKN300 20/14 A2992=
200602231300 METAR MROC 231300Z 10014KT 9999 FEW035 21/15 A2994 BECMG CAVOK=
200602231400 METAR MROC 231400Z 10016KT 9999 FEW030 23/16 A2996=
200602231500 METAR MROC 231500Z 10017KT 9999 FEW030 25/15 A2998=
200602231600 METAR MROC 231600Z 09014KT 9999 FEW040 27/14 A2998 NOSIG=
200602231700 METAR MROC 231700Z 08015KT 9999 FEW040 27/15 A2996 NOSIG=
200602231800 METAR MROC 231800Z 10012KT 9999 FEW045 28/16 A2994 NOSIG=
200602231900 METAR MROC 231900Z 08013KT 9999 FEW035 29/18 A2992=
200602232000 METAR MROC 232000Z 08013KT 9999 SCT030 29/15 A2989=
200602232100 METAR MROC 232100Z 09011KT 9999 SCT035 29/16 A2987 NOSIG=
200602232200 METAR MROC 232200Z 10013KT 9999 SCT035 26/16 A2986 NOSIG=
200602232300 METAR MROC 232300Z 09012KT 9999 SCT035 25/15 A2988 NOSIG=
200602240000 METAR MROC 240000Z 09011KT 9999 FEW030 23/16 A2990 RMK DZ DST NE/E NOSIG=
200602240100 METAR MROC 240100Z 10013KT 9999 FEW030 22/16 A2992 RMK DST DST NE/E NOSIG=
200602240200 METAR MROC 240200Z 10008KT CAVOK 21/15 A2995 RMK DZT DST NE/E NOSIG=
200602240300 METAR MROC 240300Z 10012KT CAVOK 21/15 A2996 NOSIG=
200602240400 METAR MROC 240400Z 10014KT CAVOK 21/15 A2997 NOSIG=
200602240500 METAR MROC 240500Z 09016KT CAVOK 21/15 A2998 NOSIG=
200602240600 METAR MROC 240600Z 10015KT CAVOK 21/16 A2996 NOSIG=
200602240700 METAR MROC 240700Z 10015KT CAVOK 21/16 A2994 NOSIG=
200602240800 METAR MROC 240800Z 10015KT CAVOK 20/16 A2991=
200602240900 METAR MROC 240900Z 10015KT CAVOK 21/15 A2990=
200602241000 METAR MROC 241000Z 11013KT CAVOK 20/16 A2992=
200602241100 METAR MROC 241100Z 10016KT CAVOK 21/16 A2992=
200602241200 METAR MROC 241200Z 10015G25KT 9999 FEW030 BKN070 21/16 A2994 RMK PCPN DST N NE E=
200602241300 METAR MROC 241300Z 10016KT 9999 FEW030 BKN070 21/16 A2995 RMK PCPN DST N/NE/E NOSIG=
200602241400 METAR MROC 241400Z 09018KT 9999 FEW030 BKN070 22/16 A2998 RMK DZ DST=
200602241500 METAR MROC 241500Z 10016KT 9999 FEW030 BKN080 24/17 A2999 RMK DZ DST N/NE/E NOSIG=
200602241600 METAR MROC 241600Z 10018KT 9999 FEW035 BKN080 24/17 A2999 RMK DZ DST N/NE/E NOSIG=
200602241700 METAR MROC 241700Z 09018KT 9999 FEW035 BKN080 25/16 A2998 RMK DZ DST N/NE/E RAFAGAS DE 26KT NOSIG=
200602241800 METAR MROC 241800Z 09013KT 9999 -DZRA FEW030 BKN070 24/17 A2997 RMK RAFAGAS DE 20KT NOSIG=
200602241900 METAR MROC 241900Z 08014KT 9999 FEW035 BKN090 28/17 A2994 RMK DZ DST N/NE/E NOSIG=
200602242000 METAR MROC 242000Z 09014KT 9999 FEW035 BKN090 26/16 A2991 RMK DZ DST N/NE/E RAFAGAS DE 21KT NOSIG=
200602242100 METAR MROC 242100Z 09014KT 9999 SCT030 BKN090 25/16 A2990 NOSIG=
200602242200 METAR MROC 242200Z 08015KT 9999 FEW030 BKN090 24/16 A2989 NOSIG=
200602242300 METAR MROC 242300Z 06017KT 9999 FEW030 SCT090 24/15 A2990 NOSIG=
200602250000 METAR MROC 250000Z 08015KT 9999 FEW030 22/15 A2991 NOSIG=
200602250100 METAR MROC 250100Z 07015KT 9999 FEW030 22/14 A2994 BECMG CAVOK=
200602250200 METAR MROC 250200Z 10015KT CAVOK 21/14 A2997 NOSIG=
200602250300 METAR MROC 250300Z 09015KT CAVOK 20/14 A2999 NOSIG=
200602250400 METAR MROC 250400Z 09015KT CAVOK 20/15 A3000=
200602250500 METAR MROC 250500Z 10017KT CAVOK 20/15 A2999=
200602250600 METAR MROC 250600Z 09019KT CAVOK 20/14 A2997=
200602250700 METAR MROC 250700Z 10016KT CAVOK 20/14 A2994=
200602250800 METAR MROC 250800Z 10019KT CAVOK 19/14 A2992=
200602250900 METAR MROC 250900Z 10017KT CAVOK 19/14 A2991=
200602251000 METAR MROC 251000Z 10018KT CAVOK 19/14 A2994=
200602251100 METAR MROC 251100Z 10017KT CAVOK 19/14 A2993=
200602251200 METAR MROC 251200Z 10017KT CAVOK 19/13 A2993=
200602251300 METAR MROC 251300Z 10018KT 9999 FEW035 21/14 A2996 NOSIG=
200602251400 METAR MROC 251400Z 09019KT CAVOK 22/15 A2998 NOSIG=
200602251500 METAR MROC 251500Z 09016G26KT CAVOK 24/15 A2999 NOSIG=
200602251600 METAR MROC 251600Z 10020G30KT CAVOK 26/15 A2999 NOSIG=
200602251700 METAR MROC 251700Z 08017G27KT 9999 FEW030 26/15 A2997 NOSIG=
200602251800 METAR MROC 251800Z 08017KT 9999 FEW030 25/15 A2997 NOSIG=
200602251900 METAR MROC 251900Z 09018G28KT 9999 FEW030 25/14 A2995 NOSIG=
200602252000 METAR MROC 252000Z 07015KT 9999 FEW030 26/13 A2993 NOSIG=
200602252100 METAR MROC 252100Z 08012KT 9999 FEW030 26/18 A2991 RMK DZ DST NE=
200602252200 METAR MROC 252200Z 08015KT 9999 FEW030 24/14 A2991 NOSIG=
200602252300 METAR MROC 252300Z 08017KT 9999 FEW030 23/13 A2991=
200602260000 METAR MROC 260000Z 07011KT 9999 FEW035 21/13 A2993 NOSIG=
200602260100 METAR MROC 260100Z 08012KT CAVOK 20/14 A2995 NOSIG=
200602260200 METAR MROC 260200Z 10014KT CAVOK 19/13 A2998 NOSIG=
200602260300 METAR MROC 260300Z 09011KT CAVOK 19/12 A2999 NOSIG=
200602260400 METAR MROC 260400Z 10016KT CAVOK 19/11 A2999 NOSIG=
200602260500 METAR MROC 260500Z 09009G19KT CAVOK 19/10 A2998 NOSIG=
200602260600 METAR MROC 260600Z 08010KT CAVOK 18/10 A2998 NOSIG=
200602260700 METAR MROC 260700Z 07009KT CAVOK 18/10 A2996 NOSIG=
200602260800 METAR MROC 260800Z 08009KT CAVOK 18/10 A2993 NOSIG=
200602260900 METAR MROC 260900Z 06009KT CAVOK 17/10 A2992 NOSIG=
200602261000 METAR MROC 261000Z 08009KT CAVOK 17/09 A2993 NOSIG=
200602261100 METAR MROC 261100Z 05009KT CAVOK 16/09 A2994 NOSIG=
200602261200 METAR MROC 261200Z 05006KT CAVOK 16/09 A2997 NOSIG=
200602261300 METAR MROC 261300Z 04010KT CAVOK 19/10 A3000 NOSIG=
200602261400 METAR MROC 261400Z 10011KT CAVOK 23/10 A3000=
200602261500 METAR MROC 261500Z 10013KT CAVOK 25/10 A3001=
200602261600 METAR MROC 261600Z 10014KT CAVOK 27/11 A3001=
200602261700 METAR MROC 261700Z 10011KT CAVOK 29/12 A2999=
200602261800 METAR MROC 261800Z 11009KT CAVOK 30/12 A2996=
200602261900 METAR MROC 261900Z 10013KT 9999 FEW045 30/12 A2993 NOSIG=
200602262000 METAR MROC 262000Z 10010KT 9999 FEW040 29/14 A2992=
200602262100 METAR MROC 262100Z 10012KT 9999 FEW040 SCT250 28/14 A2990 RMK CB DST S NOSIG=
200602262200 METAR MROC 262200Z 10011KT 9999 FEW035 SCT250 27/15 A2992 NOSIG=
200602262300 METAR MROC 262300Z 10013KT 9999 FEW035 25/15 A2993 NOSIG=
200602270000 METAR MROC 270000Z 10011KT 9999 FEW030 23/16 A2994 NOSIG=
200602270100 METAR MROC 270100Z 09009KT 9999 FEW030 22/17 A2999 NOSIG=
200602270200 METAR MROC 270200Z 08008KT 9999 FEW030 22/16 A3001 NOSIG=
200602270300 METAR MROC 270300Z 10012KT 9999 FEW040 21/16 A3002 NOSIG=
200602270400 METAR MROC 270400Z 10013KT CAVOK 20/15 A3002 NOSIG=
200602270500 METAR MROC 270500Z 08011KT CAVOK 20/15 A3003 NOSIG=
200602270600 METAR MROC 270600Z 09011KT CAVOK 19/15 A3001 NOSIG=
200602270700 METAR MROC 270700Z 09014KT CAVOK 19/13 A3000 NOSIG=
200602270800 METAR MROC 270800Z 10013KT CAVOK 19/13 A2998 NOSIG=
200602270900 METAR MROC 270900Z 10011KT CAVOK 18/13 A2998 NOSIG=
200602271000 METAR MROC 271000Z 10017G27KT CAVOK 19/13 A2996 NOSIG=
200602271100 METAR MROC 271100Z 09016KT 9999 FEW025 SCT100 18/13 A2999 NOSIG=
200602271200 METAR MROC 271200Z 09016KT 9999 FEW025 SCT100 18/13 A2999 NOSIG=
200602271300 METAR MROC 271300Z 09014KT 9999 FEW030 19/12 A3002 RMK DZ NNE DST=
200602271400 METAR MROC 271400Z 08014KT 9999 FEW035 22/11 A3002 NOSIG=
200602271500 METAR MROC 271500Z 08018G28KT 9999 FEW040 24/12 A3004 BECMG RMK FEW AC=
200602271600 METAR MROC 271600Z 09016G26KT 9999 FEW040 SCT140 25/11 A3003 NOSIG=
200602271700 METAR MROC 271700Z 07020G30KT 9999 FEW040 SCT140 25/12 A3001 NOSIG=
200602271800 METAR MROC 271800Z 07017G28KT 9999 FEW040 SCT140 27/13 A2999 NOSIG=
200602271900 METAR MROC 271900Z 09018KT 9999 FEW040 27/12 A2998 NOSIG=
200602272000 METAR MROC 272000Z 08018G28KT 9999 FEW045 SCT220 26/13 A2995 NOSIG=
200602272100 METAR MROC 272100Z 07012G22KT 9999 FEW045 SCT250 26/12 A2994 NOSIG=
200602272200 METAR MROC 272200Z 06015KT 9999 FEW045 25/13 A2995=
200602272300 METAR MROC 272300Z 07015KT 9999 FEW045 SCT250 23/12 A2996 NOSIG=
200602280000 METAR MROC 280000Z 07013KT 9999 FEW040 SCT140 22/12 A2996 NOSIG=
200602280100 METAR MROC 280100Z 07015KT CAVOK 21/13 A2997 NOSIG=
200602280200 METAR MROC 280200Z 09017KT CAVOK 21/13 A2997 NOSIG=
200602280300 METAR MROC 280300Z 09017KT CAVOK 20/14 A3000=
200602280400 METAR MROC 280400Z 09019KT CAVOK 21/14 A2999=
200602280500 METAR MROC 280500Z 10017KT CAVOK 20/15 A3000=
200602280600 METAR MROC 280600Z 10014KT CAVOK 20/14 A2999=
200602280700 METAR MROC 280700Z 09016KT CAVOK 20/14 A2996=
200602280800 METAR MROC 280800Z 09016KT CAVOK 20/14 A2994=
200602280900 METAR MROC 280900Z 09015KT CAVOK 20/19 A2994=
200602281000 METAR MROC 281000Z 09013KT CAVOK 20/13 A2995=
200602281200 METAR MROC 281200Z 10017KT CAVOK 20/13 A2995 NOSIG=
200602281300 METAR MROC 281300Z 09014KT CAVOK 22/13 A2997 NOSIG=
200602281400 METAR MROC 281400Z 10018KT CAVOK 24/13 A2999 NOSIG=
200602281500 METAR MROC 281500Z 08019KT CAVOK 25/13 A2999 NOSIG=
200602281600 METAR MROC 281600Z 07015KT CAVOK 26/14 A3000=
200602281700 METAR MROC 281700Z 09016KT CAVOK 27/14 A2998 NOSIG=
200602281800 METAR MROC 281800Z 08015KT 9999 FEW040 27/14 A2995 NOSIG=
200602281900 METAR MROC 281900Z 06017KT 9999 FEW040 28/14 A2993 NOSIG=
200602282000 METAR MROC 282000Z 09015KT 9999 FEW035 28/15 A2990 NOSIG=
200602282100 METAR MROC 282100Z 09014KT 9999 FEW035 27/15 A2989 NOSIG=
200602282200 METAR MROC 282200Z 09012KT 9999 FEW035 27/16 A2989 NOSIG=
200602282300 METAR MROC 282300Z 10013KT 9999 FEW035 24/16 A2990 NOSIG=
200603010000 METAR MROC 010000Z 09013KT 9999 FEW030 22/15 A2992 RMK RAFAGAS DE 20KT NOSIG=
200603010100 METAR MROC 010100Z 10011KT CAVOK 21/15 A2994 NOSIG=
200603010200 METAR MROC 010200Z 09012KT CAVOK 20/16 A2995 NOSIG=
200603010300 METAR MROC 010300Z 10016KT CAVOK 20/16 A2997 NOSIG=
200603010400 METAR MROC 010400Z 10018KT CAVOK 20/16 A2998 NOSIG=
200603010500 METAR MROC 010500Z 10017KT CAVOK 20/16 A2998 NOSIG=
200603010600 METAR MROC 010600Z 09016KT CAVOK 20/15 A2998 NOSIG=
200603010700 METAR MROC 010700Z 10016KT CAVOK 20/15 A2995 NOSIG=
200603010800 METAR MROC 010800Z 09012KT CAVOK 19/15 A2993=
200603010900 METAR MROC 010900Z 09012KT CAVOK 19/14 A2992=
200603011000 METAR MROC 011000Z 09011KT CAVOK 19/14 A2993=
200603011100 METAR MROC 011100Z 10011KT CAVOK 19/15 A2994=
200603011200 METAR MROC 011200Z 10007KT CAVOK 20/15 A2995=
200603011300 METAR MROC 011300Z 10010KT CAVOK 21/16 A2998 NOSIG=
200603011400 METAR MROC 011400Z 10014KT CAVOK 23/16 A2998 RMK DZ DST NE/E RAFAGAS DE 22KT NOSIG=
200603011500 METAR MROC 011500Z 09015KT CAVOK 25/16 A2999 RMK DZ DST NE/E RAFAGAS DE 23KT NOSIG=
200603011600 METAR MROC 011600Z 10016KT 9999 FEW035 27/16 A2998 RMK DZ DST NE/E RAFAGAS DE 22KT NOSIG=
200603011700 METAR MROC 011700Z 09013KT 9999 FEW035 28/16 A2997 RMK DZ DST E NOSIG=
200603011800 METAR MROC 011800Z 09013KT 9999 FEW035 29/16 A2995 RMK DZ DST E NOSIG=
200603011900 METAR MROC 011900Z 11010KT 9999 FEW035 29/16 A2992 RMK DZ DST E NOSIG=
200603012000 METAR MROC 012000Z 09011KT 9999 FEW035 29/17 A2989 RMK DZ DST E NOSIG=
200603012100 METAR MROC 012100Z 09012KT 9999 SCT035 28/17 A2988 NOSIG=
200603012200 METAR MROC 012200Z 10012KT 9999 FEW035 27/16 A2988 NOSIG=
200603012300 METAR MROC 012300Z 09012KT 9999 FEW035 24/17 A2989=
200603020000 METAR MROC 020000Z 09013KT 9999 FEW030 SCT040 23/16 A2992 NOSIG=
200603020100 METAR MROC 020100Z 10014KT 9999 FEW030 21/16 A2994 NOSIG=
200603020200 METAR MROC 020200Z 09011KT 9999 FEW030 21/15 A2997 NOSIG=
200603020300 METAR MROC 020300Z 10013KT 9999 FEW030 21/16 A2998 NOSIG=
200603020400 METAR MROC 020400Z 10010KT 9999 FEW030 21/16 A3000 NOSIG=
200603020500 METAR MROC 020500Z 09012KT 9999 FEW030 20/16 A3000 NOSIG=
200603020600 METAR MROC 020600Z 07008KT 9999 FEW030 20/16 A2999 NOSIG=
200603020700 METAR MROC 020700Z 08007KT 9999 FEW030 20/15 A2996=
200603020800 METAR MROC 020800Z 07010KT 9999 FEW030 20/15 A2994 NOSIG=
200603020900 METAR MROC 020900Z 09013KT 9999 FEW030 20/16 A2993 NOSIG=
200603021000 METAR MROC 021000Z 10016KT 9999 FEW030 20/16 A2993 NOSIG=
200603021100 METAR MROC 021100Z 10014KT 9999 FEW030 20/16 A2994=
200603021200 METAR MROC 021200Z 10014KT 9999 FEW030 20/15 A2992 NOSIG=
200603021300 METAR MROC 021300Z 10010KT 9999 FEW025 22/16 A3000 NOSIG=
200603021400 METAR MROC 021400Z 10015KT 9999 FEW030 23/16 A3001 NOSIG=
200603021500 METAR MROC 021500Z 10015KT 9999 FEW025 25/16 A3002 NOSIG=
200603021600 METAR MROC 021600Z 08013KT 9999 FEW025 28/16 A3001 NOSIG=
200603021700 METAR MROC 021700Z 08011KT 9999 FEW030 28/15 A3000 NOSIG=
200603021800 METAR MROC 021800Z 10015KT 9999 FEW030 28/15 A2998 NOSIG=
200603021900 METAR MROC 021900Z 10015KT 9999 FEW030 28/15 A2994 NOSIG=
200603022000 METAR MROC 022000Z 10014KT 9999 FEW035 28/15 A2991 NOSIG=
200603022100 METAR MROC 022100Z 09010KT 9999 FEW035 28/15 A2989=
200603022200 METAR MROC 022200Z 08012KT 9999 FEW035 28/15 A2989=
200603022300 METAR MROC 022300Z 08010KT 9999 FEW035 26/16 A2990=
200603030000 METAR MROC 030000Z 10010KT 9999 FEW040 23/16 A2992=
200603030100 METAR MROC 030100Z 10013KT CAVOK 22/16 A2994=
200603030200 METAR MROC 030200Z 08005KT CAVOK 22/17 A2998=
200603030300 METAR MROC 030300Z 06009KT CAVOK 21/17 A3000 NOSIG=
200603030400 METAR MROC 030400Z 05008KT CAVOK 21/17 A3000=
200603030500 METAR MROC 030500Z 08009KT CAVOK 20/17 A2999 NOSIG=
200603030600 METAR MROC 030600Z 04008KT CAVOK 20/16 A2999 NOSIG=
200603030700 METAR MROC 030700Z 09009KT CAVOK 21/16 A2996 NOSIG=
200603030800 METAR MROC 030800Z 08007KT CAVOK 20/15 A2994 NOSIG=
200603030900 METAR MROC 030900Z 04008KT CAVOK 19/15 A2993 NOSIG=
200603031000 METAR MROC 031000Z 05006KT CAVOK 18/15 A2994 NOSIG=
200603031100 METAR MROC 031100Z 08008KT CAVOK 20/15 A2995 NOSIG=
200603031200 METAR MROC 031200Z 07007KT CAVOK 19/15 A2998 NOSIG=
200603031300 METAR MROC 031300Z 04008KT CAVOK 21/15 A3001=
200603031400 METAR MROC 031400Z 08010KT CAVOK 24/15 A3002=
200603031500 METAR MROC 031500Z 10013KT CAVOK 26/15 A3002=
200603031600 METAR MROC 031600Z 10010KT CAVOK 28/16 A3002=
200603031700 METAR MROC 031700Z 09008KT 9999 FEW045 30/15 A3000=
200603031800 METAR MROC 031800Z 12005KT 9999 FEW045 31/15 A2997=
200603031900 METAR MROC 031900Z 26011KT 9999 SCT040 28/17 A2996=
200603032000 METAR MROC 032000Z 25008KT 9999 SCT040 29/17 A2993 NOSIG=
200603032100 METAR MROC 032100Z 23009KT 9999 SCT040 29/18 A2991 BECMG RMK HZY=
200603032200 METAR MROC 032200Z 24009KT 9999 BKN035 28/18 A2991 BECMG RMK HZY=
200603032300 METAR MROC 032300Z 12006KT 9999 SCT035 25/17 A2992 NOSIG=
200603040000 METAR MROC 040000Z 10007KT 9999 SCT035 23/17 A2993 NOSIG=
200603040100 METAR MROC 040100Z 08006KT 9999 FEW035 22/17 A2995 NOSIG=
200603040200 METAR MROC 040200Z 10009KT 9999 FEW035 21/16 A2998 NOSIG=
200603040300 METAR MROC 040300Z 09007KT CAVOK 22/15 A3000 NOSIG=
200603040400 METAR MROC 040400Z 10012KT CAVOK 22/16 A3000 NOSIG=
200603040500 METAR MROC 040500Z 10010KT CAVOK 21/16 A3000 NOSIG=
200603040600 METAR MROC 040600Z 10012KT CAVOK 21/16 A2999 NOSIG=
200603040700 METAR MROC 040700Z 10012KT CAVOK 21/16 A2996 NOSIG=
200603040800 METAR MROC 040800Z 05005KT CAVOK 20/16 A2995 NOSIG=
200603041000 METAR MROC 041000Z 08005KT CAVOK 20/19 A2995 NOSIG=
200603041100 METAR MROC 041100Z 05003KT CAVOK 20/15 A2996 NOSIG=
200603041200 METAR MROC 041200Z 04005KT 9999 FEW020 19/15 A2999 NOSIG=
200603041300 METAR MROC 041300Z 10012KT 9999 FEW025 22/16 A3000 NOSIG=
200603041400 METAR MROC 041400Z 09013KT 9999 FEW030 25/15 A3002 NOSIG=
200603041500 METAR MROC 041500Z 08014KT 9999 FEW035 26/15 A3002 NOSIG=
200603041600 METAR MROC 041600Z 08012KT 9999 FEW035 28/15 A3002 NOSIG=
200603041700 METAR MROC 041700Z 09015KT 9999 FEW035 28/15 A3000 NOSIG=
200603041800 METAR MROC 041800Z 09015G25KT 9999 FEW035 29/15 A2997 NOSIG=
200603041900 METAR MROC 041900Z 09015KT 9999 FEW035 29/15 A2995 NOSIG=
200603042000 METAR MROC 042000Z 09014KT 9999 FEW030 29/16 A2993 NOSIG=
200603042100 METAR MROC 042100Z 09013KT 9999 FEW030 26/16 A2991 NOSIG=
200603042200 METAR MROC 042200Z 10017KT 9999 FEW030 25/16 A2991 NOSIG=
200603042300 METAR MROC 042300Z 10013KT 9999 FEW030 25/16 A2992 NOSIG=
200603050100 METAR MROC 050100Z 10016KT 9999 FEW030 21/15 A2995 NOSIG=
200603050200 METAR MROC 050200Z 09017KT 9999 FEW030 21/16 A2998 NOSIG=
200603050300 METAR MROC 050300Z 10013KT 9999 FEW030 21/15 A2999=
200603050400 METAR MROC 050400Z 09019KT CAVOK 21/15 A3000=
200603050500 METAR MROC 050500Z 08016KT CAVOK 21/15 A2999=
200603050600 METAR MROC 050600Z 09017KT CAVOK 21/16 A2997=
200603050700 METAR MROC 050700Z 09020KT CAVOK 21/15 A2996=
200603050800 METAR MROC 050800Z 10019KT CAVOK 21/15 A2995=
200603050900 METAR MROC 050900Z 10018KT CAVOK 21/15 A2995=
200603051100 METAR MROC 051100Z 10020KT CAVOK 20/15 A2996=
200603051200 METAR MROC 051200Z 10017KT 9999 FEW035 20/14 A2998=
200603051300 METAR MROC 051300Z 10019KT 9999 FEW035 21/14 A3001 NOSIG=
200603051400 METAR MROC 051400Z 10020KT CAVOK 23/12 A3001 NOSIG=
200603051500 METAR MROC 051500Z 09020KT CAVOK 25/12 A3002 NOSIG=
200603051600 METAR MROC 051600Z 09017KT 9999 FEW045 26/13 A3003=
200603051700 METAR MROC 051700Z 09017KT 9999 FEW045 27/13 A3002 NOSIG=
200603051800 METAR MROC 051800Z 08017KT 9999 FEW040 27/12 A3000=
200603051900 METAR MROC 051900Z 08019KT 9999 FEW040 27/11 A2998 NOSIG=
200603052000 METAR MROC 052000Z 07016KT 9999 FEW040 27/12 A2997 NOSIG=
200603052100 METAR MROC 052100Z 07020KT 9999 FEW040 27/12 A2995 RMK RAFAGAS DE 29KT NOSIG=
200603052200 METAR MROC 052200Z 06021G31KT 9999 FEW040 26/13 A2996=
200603052300 METAR MROC 052300Z 08016KT 9999 FEW040 24/12 A2997 RMK RAFAGAS DE 23KT NOSIG=
200603060000 METAR MROC 060000Z 08016G26KT CAVOK 22/12 A2998 NOSIG=
200603060100 METAR MROC 060100Z 07016KT CAVOK 21/12 A3000 RMK RAFAGAS DE 23KT NOSIG=
200603060200 METAR MROC 060200Z 08018KT CAVOK 20/13 A3002 RMK RAFAGAS DE 25KT NOSIG=
200603060300 METAR MROC 060300Z 09016KT CAVOK 20/13 A3004=
200603060700 METAR MROC 060700Z 09016KT CAVOK 20/14 A3000=
200603060800 METAR MROC 060800Z 09015KT CAVOK 21/14 A2998=
200603060900 METAR MROC 060900Z 09014KT CAVOK 20/14 A2997=
200603061000 METAR MROC 061000Z 09014G25KT CAVOK 20/14 A2998=
200603061100 METAR MROC 061100Z 09015G25KT CAVOK 20/14 A2998=
200603061200 METAR MROC 061200Z 10016KT 9999 FEW035 19/14 A3000=
200603061300 METAR MROC 061300Z 09017KT CAVOK 21/14 A3003 RMK RAFAGAS DE 26KT NOSIG=
200603061400 METAR MROC 061400Z 10018G29KT CAVOK 23/14 A3005 NOSIG=
200603061500 METAR MROC 061500Z 09017KT CAVOK 24/15 A3006 RMK RAFAGAS DE 23KT NOSIG=
200603061600 METAR MROC 061600Z 10017G28KT 9999 FEW045 25/15 A3006 NOSIG=
200603061700 METAR MROC 061700Z 09021KT 9999 FEW045 26/15 A3005 RMK RAFAGAS DE 27KT NOSIG=
200603061800 METAR MROC 061800Z 07017G27KT 9999 FEW045 27/14 A3003 NOSIG=
200603061900 METAR MROC 061900Z 07016G28KT 9999 FEW045 27/14 A3001 NOSIG=
200603062000 METAR MROC 062000Z 08015KT 9999 FEW045 28/14 A2999 RMK RAFAGAS DE 24KT NOSIG=
200603062100 METAR MROC 062100Z 06017KT 9999 FEW040 SCT300 27/14 A2998 NOSIG=
200603062200 METAR MROC 062200Z 07013KT 9999 FEW040 BKN300 26/14 A2998 NOSIG=
200603062300 METAR MROC 062300Z 09011KT 9999 FEW040 BKN300 24/15 A2999 NOSIG=
200603070000 METAR MROC 070000Z 09011KT 9999 FEW040 SCT300 22/14 A3002 NOSIG=
200603070100 METAR MROC 070100Z 10018KT CAVOK 21/15 A3002 NOSIG=
200603070200 METAR MROC 070200Z 10016KT CAVOK 21/15 A3004 NOSIG=
200603070300 METAR MROC 070300Z 09012KT CAVOK 21/14 A3007 NOSIG=
200603070400 METAR MROC 070400Z 08011KT CAVOK 21/14 A3007 NOSIG=
200603070500 METAR MROC 070500Z 10015KT CAVOK 20/14 A3006 NOSIG=
200603070600 METAR MROC 070600Z 09010KT CAVOK 20/14 A3005 NOSIG=
200603070700 METAR MROC 070700Z 10010KT CAVOK 19/14 A3002 NOSIG=
200603070800 METAR MROC 070800Z 10019KT CAVOK 20/13 A3000 NOSIG=
200603070900 METAR MROC 070900Z 10016KT CAVOK 19/14 A2999 NOSIG=
200603071000 METAR MROC 071000Z 09014KT CAVOK 19/14 A3000 NOSIG=
200603071100 METAR MROC 071100Z 09014KT CAVOK 20/15 A3001 NOSIG=
200603071300 METAR MROC 071300Z 09016KT 9999 FEW025 20/14 A3005 NOSIG=
200603071400 METAR MROC 071400Z 10017KT 9999 FEW030 22/14 A3005 NOSIG=
200603071500 METAR MROC 071500Z 09018G28KT 9999 FEW030 24/14 A3006 NOSIG=
200603071600 METAR MROC 071600Z 09019G29KT 9999 FEW030 24/15 A3006 NOSIG=
200603071700 METAR MROC 071700Z 09017KT 9999 FEW040 26/15 A3004 NOSIG=
200603071800 METAR MROC 071800Z 08017G27KT 9999 FEW040 26/15 A3001 NOSIG=
200603071900 METAR MROC 071900Z 09018G28KT 9999 FEW040 26/15 A2999 NOSIG=
200603072000 METAR MROC 072000Z 09018KT 9999 FEW040 26/15 A2997 NOSIG=
200603072100 METAR MROC 072100Z 09013KT 9999 SCT040 26/13 A2996=
200603072200 METAR MROC 072200Z 08013KT 9999 SCT040 25/12 A2997=
200603072300 METAR MROC 072300Z 08015KT 9999 SCT040 24/12 A2998=
200603080000 METAR MROC 080000Z 09015KT FEW040 20/11 A2999=
200603080100 METAR MROC 080100Z 10018KT CAVOK 20/13 A3001 NOSIG=
200603080200 METAR MROC 080200Z 10018KT CAVOK 20/13 A3002 NOSIG=
200603080300 METAR MROC 080300Z 10019KT CAVOK 20/13 A3004 NOSIG=
200603080400 METAR MROC 080400Z 10017KT CAVOK 19/13 A3005 RMK RAFAGAS DE 26KT NOSIG=
200603080500 METAR MROC 080500Z 10016KT CAVOK 20/13 A3004 RMK RAFAGAS DE 22KT NOSIG=
200603080600 METAR MROC 080600Z 09016G24KT CAVOK 19/14 A3001 NOSIG=
200603080700 METAR MROC 080700Z 09018KT CAVOK 20/14 A2999 RMK RAFAGAS DE 25KT NOSIG=
200603080800 METAR MROC 080800Z 09016KT CAVOK 19/14 A2997 RMK RAFAGAS DE 22KT NOSIG=
200603080900 METAR MROC 080900Z 09017KT CAVOK 20/14 A2997 RMK RAFAGAS DE 24KT NOSIG=
200603081000 METAR MROC 081000Z 10015KT CAVOK 19/15 A2997 NOSIG=
200603081100 METAR MROC 081100Z 09016KT CAVOK 19/15 A2998 RMK RAFAGAS DE 22KT NOSIG=
200603081200 METAR MROC 081200Z 10016KT CAVOK 19/14 A3000 RMK DZ DST NE/E RAFAGAS DE 24KT NOSIG=
200603081300 METAR MROC 081300Z 10019KT 9999 FEW040 20/15 A3001 NOSIG=
200603081400 METAR MROC 081400Z 10016KT 9999 FEW040 21/15 A3003 NOSIG=
200603081500 METAR MROC 081500Z 10018KT 9999 FEW040 23/15 A3003 NOSIG=
200603081600 METAR MROC 081600Z 10019KT 9999 FEW030 25/15 A3003 NOSIG=
200603081700 METAR MROC 081700Z 10017KT 9999 FEW030 26/15 A3002 NOSIG=
200603081800 METAR MROC 081800Z 10015KT 9999 FEW030 26/15 A3000 NOSIG=
200603081900 METAR MROC 081900Z 09014KT 9999 FEW030 28/15 A2998 NOSIG=
200603082000 METAR MROC 082000Z 10015KT 9999 SCT030 28/15 A2995 NOSIG=
200603082100 METAR MROC 082100Z 10012KT 9999 SCT035 27/15 A2992 NOSIG=
200603082200 METAR MROC 082200Z 09013KT 9999 FEW035 26/15 A2992 NOSIG=
200603082300 METAR MROC 082300Z 09012KT 9999 FEW035 24/15 A2994 BECMG RMK RFGS 18KT=
200603090000 METAR MROC 090000Z 09014KT 9999 FEW035 22/15 A2995 BECMG RMK RFGS 22KT=
200603090100 METAR MROC 090100Z 09011KT 9999 FEW035 21/15 A2998 BECMG CAVOK=
200603090200 METAR MROC 090200Z 09012KT CAVOK 20/15 A3000=
200603090300 METAR MROC 090300Z 10009KT CAVOK 20/15 A3002 NOSIG=
200603090400 METAR MROC 090400Z 09010KT CAVOK 20/15 A3002=
200603090500 METAR MROC 090500Z 09010KT CAVOK 20/15 A3001=
200603090600 METAR MROC 090600Z 06010KT CAVOK 20/15 A2999 NOSIG=
200603090900 METAR MROC 090900Z 07009KT CAVOK 19/15 A2996 NOSIG=
200603091000 METAR MROC 091000Z 06009KT CAVOK 19/15 A2996=
200603091100 METAR MROC 091100Z 05012KT CAVOK 19/15 A2997 NOSIG=
200603091200 METAR MROC 091200Z 05010KT CAVOK 19/15 A2999 NOSIG=
200603091300 METAR MROC 091300Z 08009KT CAVOK 21/16 A3001 NOSIG=
200603091400 METAR MROC 091400Z 09012KT CAVOK 23/15 A3002 NOSIG=
200603091500 METAR MROC 091500Z 10014KT CAVOK 27/15 A3002 NOSIG=
200603091600 METAR MROC 091600Z 10014KT CAVOK 27/15 A3002 NOSIG=
200603091700 METAR MROC 091700Z 10011KT 9999 FEW045 29/16 A3001 NOSIG=
200603091800 METAR MROC 091800Z 09007KT 9999 FEW045 30/15 A2999 NOSIG=
200603091900 METAR MROC 091900Z 26009KT 9999 SCT045 28/17 A2997 NOSIG=
200603092000 METAR MROC 092000Z 24009KT 9999 SCT045 29/17 A2993 NOSIG=
200603092100 METAR MROC 092100Z 25013KT 9999 FEW040 29/18 A2991 NOSIG=
200603092200 METAR MROC 092200Z 24010KT 9999 BKN035 27/18 A2992 NOSIG=
200603092300 METAR MROC 092300Z 18004KT 9999 FEW020 SCT040 26/18 A2994 NOSIG=
200603100000 METAR MROC 100000Z 23005KT 9999 SCT030 23/18 A2995 NOSIG=
200603100100 METAR MROC 100100Z 10006KT 9999 SCT030 21/17 A2997=
200603100200 METAR MROC 100200Z 12005KT 9999 FEW030 21/16 A2999 NOSIG=
200603100300 METAR MROC 100300Z 09004KT 9999 FEW030 20/16 A3001=
200603100500 METAR MROC 100500Z 08005KT CAVOK 20/16 A3000=
200603100600 METAR MROC 100600Z 08003KT CAVOK 19/16 A2999=
200603100700 METAR MROC 100700Z 06005KT CAVOK 18/15 A2997=
200603100800 METAR MROC 100800Z 07004KT CAVOK 18/15 A2994=
200603100900 METAR MROC 100900Z 06004KT CAVOK 17/14 A2994=
200603101000 METAR MROC 101000Z 05009KT CAVOK 18/14 A2994=
200603101100 METAR MROC 101100Z 06005KT CAVOK 18/14 A2996=
200603101200 METAR MROC 101200Z 04007KT CAVOK 18/14 A2997=
200603101300 METAR MROC 101300Z 10014KT CAVOK 21/15 A3001 NOSIG=
200603101400 METAR MROC 101400Z 07007KT CAVOK 25/15 A3002 NOSIG=
200603101500 METAR MROC 101500Z 09007KT CAVOK 27/15 A3002=
200603101600 METAR MROC 101600Z 09007KT CAVOK 29/14 A3002 BECMG 24006KT=
200603101900 METAR MROC 101900Z 25009KT 9999 SCT040 29/17 A2995 NOSIG=
200603102000 METAR MROC 102000Z 25012KT 9999 SCT040 29/17 A2993 NOSIG=
200603102100 METAR MROC 102100Z 21005KT 9999 FEW030 SCT060 27/18 A2992 NOSIG=
200603102200 METAR MROC 102200Z 23008KT 9999 SCT040 28/18 A2991=
200603102300 METAR MROC 102300Z 24008KT 9999 FEW035 SCT100 26/18 A2992=
200603110000 METAR MROC 110000Z 10012KT 9999 FEW035 24/16 A2994=
200603110100 METAR MROC 110100Z 10011KT 9999 FEW040 22/17 A2996 NOSIG=
200603110200 METAR MROC 110200Z 10009KT CAVOK 22/16 A2999 NOSIG=
200603110300 METAR MROC 110300Z 09009KT CAVOK 21/16 A3001 NOSIG=
200603110400 METAR MROC 110400Z 10012KT CAVOK 21/16 A3001 NOSIG=
200603110500 METAR MROC 110500Z 10014KT CAVOK 21/15 A3001 NOSIG=
200603110600 METAR MROC 110600Z 09011KT CAVOK 20/15 A2999 NOSIG=
200603110700 METAR MROC 110700Z 10007KT CAVOK 20/16 A2998 NOSIG=
200603110800 METAR MROC 110800Z 04010KT CAVOK 20/15 A2998=
200603110900 METAR MROC 110900Z 08010KT CAVOK 20/15 A2996=
200603111000 METAR MROC 111000Z 09011KT CAVOK 20/15 A2996=
200603111100 METAR MROC 111100Z 10011KT CAVOK 20/15 A2998=
200603111200 METAR MROC 111200Z 10011KT 9999 FEW035 20/15 A3000=
200603111300 METAR MROC 111300Z 10014KT 9999 SCT045 22/15 A3002=
200603111400 METAR MROC 111400Z 10015KT 9999 SCT045 24/16 A3003=
200603111500 METAR MROC 111500Z 10016KT 9999 FEW035 25/15 A3004=
200603111600 METAR MROC 111600Z 11015KT 9999 FEW035 26/16 A3005=
200603111700 METAR MROC 111700Z 09013KT 9999 FEW035 28/16 A3003=
200603111800 METAR MROC 111800Z 09014KT 9999 SCT040 29/16 A3000=
200603111900 METAR MROC 111900Z 09013KT 9999 SCT035 29/16 A2998=
200603112000 METAR MROC 112000Z 10014KT 9999 SCT035 29/16 A2996=
200603112100 METAR MROC 112100Z 10013KT 9999 FEW040 28/16 A2993 RMK RN DST S NOSIG=
200603112200 METAR MROC 112200Z 10013KT 9999 FEW030 SCT045 26/16 A2994 NOSIG=
200603112300 METAR MROC 112300Z 11011KT 9999 FEW025 SCT040 24/16 A2996 NOSIG=
200603120000 METAR MROC 120000Z 10013KT 9999 FEW025 SCT040 22/16 A2998 NOSIG=
200603120100 METAR MROC 120100Z 09013KT 9999 FEW035 22/15 A3000 BECMG CAVOK=
200603120200 METAR MROC 120200Z 09010KT CAVOK 21/15 A3003=
200603120400 METAR MROC 120400Z 09013KT CAVOK 21/16 A3005 NOSIG=
200603120500 METAR MROC 120500Z 08010KT CAVOK 21/16 A3004=
200603120600 METAR MROC 120600Z 09011KT CAVOK 21/16 A3003 NOSIG=
200603120700 METAR MROC 120700Z 08009KT 9999 FEW035 21/16 A3001=
200603122100 METAR MROC 122100Z 09013KT 9999 SCT030 SCT260 27/16 A2993=
200603122200 METAR MROC 122200Z 10014KT 9999 FEW015 SCT030 BKN260 26/16 A2992=
200603122300 METAR MROC 122300Z 10014KT 9999 SCT030 BKN260 24/15 A2993=
200603130000 METAR MROC 130000Z 10016KT 9999 FEW035 BKN250 22/15 A2995=
200603130100 METAR MROC 130100Z 10013KT 9999 FEW035 SCT250 21/15 A2996=
200603130148 METAR MROC 130200Z 10014KT CAVOK 21/15 A2999=
200603130200 METAR MROC 130200Z 10014KT CAVOK 21/15 A2999=
200603130251 METAR MROC 130300Z 09015KT CAVOK 21/15 A3000=
200603130300 METAR MROC 130300Z 09015KT CAVOK 21/15 A3000=
200603130400 METAR MROC 130400Z 10014KT CAVOK 21/14 A3000=
200603130500 METAR MROC 130500Z 10011KT CAVOK 20/14 A3000=
200603130600 METAR MROC 130600Z 10011KT CAVOK 20/13 A2999=
200603130800 METAR MROC 130800Z 10012KT CAVOK 20/14 A2995=
200603130900 METAR MROC 130900Z 09008KT CAVOK 20/13 A2994=
200603131000 METAR MROC 131000Z 06007KT CAVOK 19/13 A2996=
200603131100 METAR MROC 131100Z 06006KT CAVOK 19/13 A2996=
200603131200 METAR MROC 131200Z 08007KT CAVOK 19/12 A2997=
200603131300 METAR MROC 131300Z 09006KT CAVOK 22/12 A2999=
200603131400 METAR MROC 131400Z 10014KT CAVOK 24/12 A2998=
200603131600 METAR MROC 131600Z 11014KT CAVOK 27/12 A2999=
200603131700 METAR MROC 131700Z 10012KT CAVOK 29/12 A2997=
200603131800 METAR MROC 131800Z 09014KT 9999 FEW045 30/13 A2994=
200603131900 METAR MROC 131900Z 10013KT 9999 FEW045 29/14 A2992=
200603132000 METAR MROC 132000Z 09013KT 9999 FEW040 29/14 A2990=
200603140000 METAR MROC 140000Z 08010KT 9999 FEW040 23/16 A2989 NOSIG=
200603140100 METAR MROC 140100Z 10010KT 9999 FEW040 22/16 A2992 NOSIG=
200603140200 METAR MROC 140200Z 10009KT 9999 FEW035 21/15 A2994 NOSIG=
200603140300 METAR MROC 140300Z 10012KT CAVOK 20/15 A2996 NOSIG=
200603140400 METAR MROC 140400Z 10013KT CAVOK 20/15 A2997 NOSIG=
200603140500 METAR MROC 140500Z 08012KT CAVOK 20/14 A2996 NOSIG=
200603140600 METAR MROC 140600Z 10010KT CAVOK 20/16 A2995 NOSIG=
200603140700 METAR MROC 140700Z 09009KT CAVOK 19/14 A2993 NOSIG=
200603140800 METAR MROC 140800Z 09010KT CAVOK 19/12 A2992 NOSIG=
200603140900 METAR MROC 140900Z 08008KT CAVOK 19/13 A2991 NOSIG=
200603141000 METAR MROC 141000Z 10013KT CAVOK 19/15 A2990 NOSIG=
200603141100 METAR MROC 141100Z 10013KT CAVOK 19/14 A2992 NOSIG=
200603141200 METAR MROC 141200Z 10012KT CAVOK 19/14 A2994 NOSIG=
200603141300 METAR MROC 141300Z 10012KT CAVOK 21/14 A2996 NOSIG=
200603141400 METAR MROC 141400Z 09012KT CAVOK 23/13 A2998 NOSIG=
200603141500 METAR MROC 141500Z 10013KT CAVOK 26/11 A2999 NOSIG=
200603141600 METAR MROC 141600Z 08009KT CAVOK 29/10 A2999 NOSIG=
200603141700 METAR MROC 141700Z 09011KT CAVOK 29/11 A2998 NOSIG=
200603141800 METAR MROC 141800Z 06011KT 9999 FEW045 30/11 A2994 NOSIG=
200603141900 METAR MROC 141900Z 11009KT 9999 FEW045 31/12 A2993 NOSIG=
200603142000 METAR MROC 142000Z 09013KT 9999 FEW045 29/13 A2991 RMK TUC DST S NOSIG=
200603142100 METAR MROC 142100Z 08012KT 9999 SCT040 SCT250 29/14 A2990 NOSIG=
200603142200 METAR MROC 142200Z 10014KT 9999 SCT035 SCT250 27/16 A2991=
200603142300 METAR MROC 142300Z 10017KT 9999 SCT SCT250 25/16 A2991=
200603150000 METAR MROC 150000Z 10011KT 9999 SCT030 SCT250 23/15 A2994 NOSIG=
200603150100 METAR MROC 150100Z 10017KT 9999 FEW040 21/14 A2996 BECMG CAVOK=
200603150200 METAR MROC 150200Z 10019KT CAVOK 21/15 A2999=
200603150300 METAR MROC 150300Z 10014KT CAVOK 21/15 A3001=
200603150400 METAR MROC 150400Z 10014KT CAVOK 20/15 A3001=
200603150500 METAR MROC 150500Z 09012KT CAVOK 20/15 A3002=
200603150600 METAR MROC 150600Z 09011KT CAVOK 20/14 A3001=
200603150700 METAR MROC 150700Z 09009KT CAVOK 20/14 A2998=
200603150800 METAR MROC 150800Z 09011KT CAVOK 20/14 A2997=
200603150900 METAR MROC 150900Z 09007KT CAVOK 19/14 A2996=
200603151000 METAR MROC 151000Z 08009KT CAVOK 20/12 A2995=
200603151100 METAR MROC 151100Z 10007KT CAVOK 19/12 A2996=
200603151200 METAR MROC 151200Z 07011KT CAVOK 20/11 A2998=
200603151300 METAR MROC 151300Z 10011KT CAVOK 20/13 A3000=
200603151400 METAR MROC 151400Z 08012KT CAVOK 24/12 A3002=
200603151500 METAR MROC 151500Z 09016KT CAVOK 26/09 A3002=
200603151600 METAR MROC 151600Z 09017KT CAVOK 27/07 A3003=
200603151700 METAR MROC 151700Z 07016KT CAVOK 28/10 A3002=
200603151800 METAR MROC 151800Z 06016KT CAVOK 28/11 A3000=
200603151900 METAR MROC 151900Z 07015KT 9999 FEW045 28/11 A2998=
200603152000 METAR MROC 152000Z 06016KT 9999 FEW040 SCT120 28/14 A2995=
200603152100 METAR MROC 152100Z 08014KT 9999 FEW035 SCT100 27/14 A2993=
200603152200 METAR MROC 152200Z 09014KT 9999 SCT045 26/13 A2993=
200603152300 METAR MROC 152300Z 10016KT 9999 FEW030 SCT090 22/13 A2995=
200603160000 METAR MROC 160000Z 10014KT 9999 FEW025 22/12 A2997=
200603160300 METAR MROC 160300Z 09014KT CAVOK 20/14 A3004 RMK RAFAGAS DE 21KT NOSIG=
200603160400 METAR MROC 160400Z 09015KT CAVOK 20/13 A3004 NOSIG=
200603160500 METAR MROC 160500Z 09014KT CAVOK 20/14 A3005 RMK RAFAGAS DE 20KT DZ DST E NOSIG=
200603160600 METAR MROC 160600Z 10014KT 9999 FEW035 20/14 A3003 RMK DZ DST N/NE/E NOSIG=
200603160700 METAR MROC 160700Z 10012KT 9999 SCT035 20/14 A3000 RMK DZ DST NE/E NOSIG=
200603160800 METAR MROC 160800Z 09013KT 9999 SCT035 19/13 A2999 RMK DZ DST NE/E NOSIG=
200603160900 METAR MROC 160900Z 07011KT 9999 FEW035 19/13 A2999 RMK DZ DST N/NE/E NOSIG=
200603161000 METAR MROC 161000Z 08011KT 9999 FEW035 19/13 A2998 RMK DZ DST NE/E NOSIG=
200603161100 METAR MROC 161100Z 08012KT CAVOK 19/12 A2999 RMK DZ DST NE/E NOSIG=
200603161200 METAR MROC 161200Z 08013KT CAVOK 19/13 A3000 RMK DZ DST NE/E RAFAGAS DE 21KT NOSIG=
200603161300 METAR MROC 161300Z 10011KT CAVOK 21/13 A3002=
200603161400 METAR MROC 161400Z 10012KT CAVOK 23/14 A3003=
200603161500 METAR MROC 161500Z 10018KT CAVOK 24/12 A3004=
200603161600 METAR MROC 161600Z 08017KT CAVOK 26/12 A3004=
200603161700 METAR MROC 161700Z 07013KT CAVOK 28/10 A3002=
200603161800 METAR MROC 161800Z 10010KT CAVOK 28/11 A3000=
200603161900 METAR MROC 161900Z 07007KT CAVOK 29/13 A2998=
200603162000 METAR MROC 162000Z 08011KT 9999 FEW040 28/12 A2996=
200603162100 METAR MROC 162100Z 08012KT 9999 FEW040 28/13 A2993 NOSIG=
200603162200 METAR MROC 162200Z 09013KT 9999 FEW040 27/15 A2993 NOSIG=
200603162300 METAR MROC 162300Z 09014KT 9999 FEW040 24/16 A2994 NOSIG=
200603170000 METAR MROC 170000Z 09015KT 9999 FEW040 22/15 A2994 NOSIG=
200603170100 METAR MROC 170100Z 10016KT CAVOK 21/15 A2997 NOSIG=
200603170200 METAR MROC 170200Z 10016KT CAVOK 21/16 A3000 NOSIG=
200603170300 METAR MROC 170300Z 10013KT CAVOK 20/16 A3001 NOSIG=
200603170400 METAR MROC 170400Z 09014KT CAVOK 20/16 A3001 NOSIG=
200603170500 METAR MROC 170500Z 09014KT CAVOK 20/16 A3001 NOSIG=
200603170600 METAR MROC 170600Z 09016KT CAVOK 20/15 A2999 NOSIG=
200603170700 METAR MROC 170700Z 09017KT CAVOK 20/16 A2995=
200603170800 METAR MROC 170800Z 10018KT CAVOK 20/15 A2993 NOSIG=
200603170900 METAR MROC 170900Z 09015KT CAVOK 20/15 A2994=
200603171000 METAR MROC 171000Z 10022KT CAVOK 22/15 A2994 NOSIG=
200603171100 METAR MROC 171100Z 10018KT CAVOK 20/15 A2995 NOSIG=
200603171200 METAR MROC 171200Z 10019KT 9999 FEW030 20/15 A2998 NOSIG=
200603171300 METAR MROC 171300Z 09013KT 9999 FEW030 21/14 A3001 NOSIG=
200603171400 METAR MROC 171400Z 10016KT CAVOK 23/15 A3003 NOSIG=
200603171500 METAR MROC 171500Z 10018KT CAVOK 25/15 A3004 NOSIG=
200603171600 METAR MROC 171600Z 10018KT CAVOK 26/15 A3004 NOSIG=
200603171700 METAR MROC 171700Z 09015KT 9999 FEW040 27/15 A3003 NOSIG=
200603171800 METAR MROC 171800Z 10016KT 9999 FEW040 27/16 A3001 NOSIG=
200603171900 METAR MROC 171900Z 10015KT 9999 FEW035 27/16 A2999 NOSIG=
200603172100 METAR MROC 172100Z 10016KT 9999 SCT030 27/15 A2996=
200603172200 METAR MROC 172200Z 09013KT 9999 SCT030 27/15 A2995=
200603172300 METAR MROC 172300Z 10018KT 9999 FEW035 24/16 A2994=
200603180000 METAR MROC 180000Z 09011KT 9999 FEW035 23/16 A2995=
200603180100 METAR MROC 180100Z 10009KT CAVOK 21/16 A2997=
200603180200 METAR MROC 180200Z 07008KT CAVOK 21/16 A2998=
200603180300 METAR MROC 180300Z 09014KT CAVOK 21/16 A2997=
200603180400 METAR MROC 180400Z 09013KT CAVOK 21/16 A3000 NOSIG=
200603180500 METAR MROC 180500Z 10011KT 9999 FEW040 21/16 A3000 NOSIG=
200603180600 METAR MROC 180600Z 10012KT 9999 FEW040 21/16 A2999 NOSIG=
200603180700 METAR MROC 180700Z 10013KT 9999 FEW040 21/16 A2997 NOSIG=
200603180800 METAR MROC 180800Z 10011KT 9999 FEW040 21/16 A2996 NOSIG=
200603180900 METAR MROC 180900Z 10013KT 9999 FEW035 20/16 A2995 NOSIG=
200603181000 METAR MROC 181000Z 09013KT 9999 FEW035 20/16 A2995=
200603181100 METAR MROC 181100Z 09013KT 9999 FEW035 21/16 A2995 NOSIG=
200603181200 METAR MROC 181200Z 09011KT 9999 SCT030 20/16 A2997 BECMG RMK DZ N NE=
200603181300 METAR MROC 181300Z 10011KT 9999 SCT030 21/15 A3000 RMK RMK DZ N NE SE S=
200603181400 METAR MROC 181400Z 10014KT 9999 SCT030 22/16 A3002=
200603181500 METAR MROC 181500Z 06018KT 9999 SCT030 25/15 A3003 NOSIG=
200603181600 METAR MROC 181600Z 08014KT 9999 SCT030 26/15 A3002 NOSIG=
200603181700 METAR MROC 181700Z 06015KT 9999 SCT030 27/15 A3000=
200603181800 METAR MROC 181800Z 06020KT 9999 SCT035 26/15 A2998 NOSIG=
200603181900 METAR MROC 181900Z 08013KT 9999 SCT035 28/13 A2997 NOSIG=
200603182000 METAR MROC 182000Z 11015KT 9999 SCT035 27/13 A2995=
200603182100 METAR MROC 182100Z 10015KT 9999 FEW040 26/14 A2992 RMK DZ DST NE/E RAFAGAS DE 22KT NOSIG=
200603182200 METAR MROC 182200Z 09014KT 9999 FEW040 26/14 A2991 RMK DZ DST E RAFAGAS DE 21KT=
200603182300 METAR MROC 182300Z 09015KT 9999 FEW040 24/15 A2992 RMK DZ DST E RAFAGAS DE 23KT NOSIG=
200603190000 METAR MROC 190000Z 09012KT 9999 FEW035 21/14 A2994 RMK DZ DST NE/E NOSIG=
200603190100 METAR MROC 190100Z 08011KT CAVOK 21/14 A2995=
200603190200 METAR MROC 190200Z 08011KT CAVOK 21/14 A2996 RMK DZ DST NE/E RAFAGAS DE 20KT NOSIG=
200603190300 METAR MROC 190300Z 07014KT CAVOK 21/13 A2997 NOSIG=
200603190400 METAR MROC 190400Z 08013KT CAVOK 20/13 A2998 NOSIG=
200603190500 METAR MROC 190500Z 09013KT CAVOK 20/12 A2999 NOSIG=
200603190600 METAR MROC 190600Z 10013KT CAVOK 20/13 A2998 NOSIG=
200603190700 METAR MROC 190700Z 10015KT CAVOK 20/13 A2995 NOSIG=
200603190900 METAR MROC 190900Z 10012KT CAVOK 19/14 A2995 NOSIG=
200603191000 METAR MROC 191000Z 10011KT CAVOK 19/13 A2994 NOSIG=
200603191100 METAR MROC 191100Z 09014KT CAVOK 18/13 A2995 NOSIG=
200603191200 METAR MROC 191200Z 10013KT CAVOK 18/13 A2995 NOSIG=
200603191300 METAR MROC 191300Z 10016KT CAVOK 20/14 A2997 RMK DZ DST E RAFAGAS DE 22KT NOSIG=
200603191400 METAR MROC 191400Z 10016KT CAVOK 22/14 A2998 RMK RAFAGAS DE 22KT NOSIG=
200603191500 METAR MROC 191500Z 09015KT CAVOK 25/14 A2998 RMK RAFAGAS DE 21KT NOSIG=
200603191600 METAR MROC 191600Z 09014KT CAVOK 26/14 A2998 RMK RAFAGAS DE 23KT NOSIG=
200603191700 METAR MROC 191700Z 07013KT CAVOK 27/14 A2997 RMK RAFAGAS DE 20KT NOSIG=
200603191800 METAR MROC 191800Z 08013KT 9999 FEW045 28/14 A2995 NOSIG=
200603191900 METAR MROC 191900Z 09014KT 9999 FEW045 28/13 A2993 NOSIG=
200603192000 METAR MROC 192000Z 09013KT 9999 FEW045 29/14 A2990 RMK RAFAGAS DE 21KT NOSIG=
200603192100 METAR MROC 192100Z 08012KT 9999 SCT045 28/15 A2989 NOSIG=
200603192200 METAR MROC 192200Z 09014KT 9999 SCT035 26/15 A2987 NOSIG=
200603192300 METAR MROC 192300Z 08012KT 9999 SCT035 25/15 A2989 NOSIG=
200603200000 METAR MROC 200000Z 09010KT 9999 FEW030 FEW030 22/16 A2991 NOSIG=
200603200100 METAR MROC 200100Z 09009KT 9999 FEW035 21/16 A2994 NOSIG=
200603200200 METAR MROC 200200Z 10014KT CAVOK 21/16 A2995 NOSIG=
200603200300 METAR MROC 200300Z 10014KT CAVOK 21/16 A2996 NOSIG=
200603200400 METAR MROC 200400Z 10012KT CAVOK 20/14 A2997 NOSIG=
200603200500 METAR MROC 200500Z 09010KT CAVOK 20/14 A2996 NOSIG=
200603200600 METAR MROC 200600Z 10010KT CAVOK 19/14 A2995=
200603200700 METAR MROC 200700Z 08008KT CAVOK 19/14 A2993=
200603200800 METAR MROC 200800Z 09011KT CAVOK 19/13 A2992=
200603201000 METAR MROC 201000Z 08011KT CAVOK 19/13 A2993=
200603201100 METAR MROC 201100Z 08011KT CAVOK 18/12 A2994=
200603201200 METAR MROC 201200Z 08013KT CAVOK 18/12 A2995=
200603201300 METAR MROC 201300Z 09010KT CAVOK 20/13 A2998 NOSIG=
200603201400 METAR MROC 201400Z 10010KT CAVOK 24/13 A3000 NOSIG=
200603201500 METAR MROC 201500Z 10013KT CAVOK 26/11 A3000 NOSIG=
200603201600 METAR MROC 201600Z 10014KT CAVOK 28/12 A2999 NOSIG=
200603201700 METAR MROC 201700Z 10008KT CAVOK 30/12 A2997 NOSIG=
200603201800 METAR MROC 201800Z 00000KT 9999 FEW040 30/09 A2994 BECMG 26008KT=
200603201900 METAR MROC 201900Z 10010KT 9999 SCT040 31/12 A2991 NOSIG=
200603202000 METAR MROC 202000Z 25012KT 9999 SCT035 28/15 A2989=
200603202100 METAR MROC 202100Z 23009KT 9999 SCT035 30/16 A2987=
200603202200 METAR MROC 202200Z 14005KT 9999 SCT040 27/16 A2987=
200603202300 METAR MROC 202300Z 15004KT 9999 SCT030 26/15 A2987=
200603210000 METAR MROC 210000Z 15005KT 9999 FEW030 24/16 A2989=
200603210100 METAR MROC 210100Z 12008KT CAVOK 22/15 A2991=
200603210300 METAR MROC 210300Z 10009KT CAVOK 20/15 A2996 NOSIG=
200603210400 METAR MROC 210400Z 08006KT CAVOK 19/14 A2996=
200603210500 METAR MROC 210500Z 06009KT CAVOK 19/13 A2997=
200603210600 METAR MROC 210600Z 07010KT CAVOK 19/13 A2994=
200603210700 METAR MROC 210700Z 07010KT CAVOK 19/13 A2993=
200603210800 METAR MROC 210800Z 06010KT CAVOK 18/13 A2992=
200603210900 METAR MROC 210900Z 06010KT CAVOK 18/13 A2992=
200603211100 METAR MROC 211100Z 08009KT CAVOK 18/13 A2994=
200603211200 METAR MROC 211200Z 07009KT CAVOK 18/12 A2996=
200603211300 METAR MROC 211300Z 08008KT CAVOK 21/12 A2998=
200603211400 METAR MROC 211400Z 10011KT CAVOK 25/12 A2999=
200603211500 METAR MROC 211500Z 10008KT CAVOK 27/12 A3001=
200603211600 METAR MROC 211600Z 09006KT CAVOK 29/11 A3000=
200603211700 METAR MROC 211700Z 06007KT CAVOK 30/11 A2997=
200603211800 METAR MROC 211800Z 08004KT 9999 FEW045 31/12 A2995=
200603211900 METAR MROC 211900Z 21004KT 9999 SCT040 29/11 A2993=
200603212000 METAR MROC 212000Z 25010KT 9999 SCT040 28/16 A2992=
200603212100 METAR MROC 212100Z 23007KT 9999 SCT040 29/16 A2990 NOSIG=
200603212200 METAR MROC 212200Z VRB03KT 9999 SCT040 27/16 A2990 NOSIG=
200603212300 METAR MROC 212300Z 14004KT 9999 SCT035 26/17 A2991 NOSIG=
200603220000 METAR MROC 220000Z 17004KT 9999 BKN040 25/17 A2993 NOSIG=
200603220100 METAR MROC 220100Z 11007KT 9999 BKN040 23/17 A2994 NOSIG=
200603220200 METAR MROC 220200Z 07007KT 9999 SCT040 22/16 A2996 NOSIG=
200603220300 METAR MROC 220300Z 10011KT CAVOK 22/17 A2997 NOSIG=
200603220400 METAR MROC 220400Z 10011KT CAVOK 21/16 A2998 NOSIG=
200603220500 METAR MROC 220500Z 08007KT CAVOK 21/16 A2998 NOSIG=
200603220600 METAR MROC 220600Z 06008KT CAVOK 21/16 A2997 NOSIG=
200603220700 METAR MROC 220700Z 08006KT CAVOK 20/16 A2995 NOSIG=
200603220800 METAR MROC 220800Z 09007KT CAVOK 20/15 A2994 NOSIG=
200603220900 METAR MROC 220900Z 06010KT CAVOK 20/15 A2994 NOSIG=
200603221000 METAR MROC 221000Z 06008KT CAVOK 20/15 A2995 NOSIG=
200603221100 METAR MROC 221100Z 09003KT CAVOK 20/15 A2996 NOSIG=
200603221200 METAR MROC 221200Z 06006KT CAVOK 19/15 A2998 NOSIG=
200603221300 METAR MROC 221300Z 10007KT 9999 SCT030 21/15 A3000 NOSIG=
200603221400 METAR MROC 221400Z 10010KT 9999 BKN040 23/16 A3002=
200603221500 METAR MROC 221500Z 10015KT 9999 BKN040 23/16 A3003 NOSIG=
200603221600 METAR MROC 221600Z 09010KT 9999 DZ SCT035 SCT080 23/17 A3005 NOSIG=
200603221700 METAR MROC 221700Z 09012KT 9999 SCT030 SCT080 26/16 A3004 REDZ NOSIG=
200603221800 METAR MROC 221800Z 10012KT 9999 BKN035 25/16 A3002 NOSIG=
200603221900 METAR MROC 221900Z 10010KT 9999 FEW030 SCT090 26/16 A2997 NOSIG=
200603222000 METAR MROC 222000Z 10012KT 9999 FEW030 SCT250 28/16 A2994 NOSIG=
200603222100 METAR MROC 222100Z 10015KT 9999 SCT030 SCT100 26/15 A2994 RMK RN S SW=
200603222200 METAR MROC 222200Z 10010KT 9999 SCT030 SCT100 25/16 A2993 NOSIG=
200603222300 METAR MROC 222300Z 10018KT 9999 SCT040 SCT100 23/16 A2997 NOSIG=
200603230000 METAR MROC 230000Z 10010KT 9999 SCT040 SCT100 23/16 A2995 NOSIG=
200603230100 METAR MROC 230100Z 10012KT 9999 FEW040 SCT120 22/16 A2998 NOSIG=
200603230200 METAR MROC 230200Z 10010KT 9999 FEW045 22/16 A3000=
200603230300 METAR MROC 230300Z 06005KT CAVOK 21/16 A3002=
200603230400 METAR MROC 230400Z 08005KT CAVOK 21/16 A3003=
200603230500 METAR MROC 230500Z 03008KT CAVOK 21/16 A3003=
200603230600 METAR MROC 230600Z 09008KT CAVOK 21/16 A3001=
200603230700 METAR MROC 230700Z 04005KT CAVOK 20/16 A2999=
200603230800 METAR MROC 230800Z 07007KT CAVOK 20/16 A2998=
200603231000 METAR MROC 231000Z 06009KT CAVOK 20/16 A2999=
200603231100 METAR MROC 231100Z 05007KT CAVOK 20/16 A3001=
200603231200 METAR MROC 231200Z 05006KT CAVOK 20/16 A3001=
200603231300 METAR MROC 231300Z 09008KT 9999 FEW030 BKN220 22/16 A3003 NOSIG=
200603231400 METAR MROC 231400Z 07009KT 9999 FEW030 SCT220 24/16 A3005=
200603231500 METAR MROC 231500Z 09012KT 9999 FEW030 SCT260 26/17 A3006 NOSIG=
200603231600 METAR MROC 231600Z 08009KT 9999 SCT035 27/16 A3005=
200603231700 METAR MROC 231700Z 09011KT 9999 SCT035 28/16 A3003=
200603231800 METAR MROC 231800Z 09008KT 9999 SCT035 29/16 A3000 NOSIG=
200603231900 METAR MROC 231900Z 15007KT 9999 SCT035 29/18 A2998=
200603232000 METAR MROC 232000Z 24012KT 9999 FEW015TCU SCT030 27/18 A2995=
200603232100 METAR MROC 232100Z 23010KT 9999 FEW015TCU SCT030 26/19 A2993 RMK RN DST S SSW HZY=
200603232200 METAR MROC 232200Z 22009KT 9999 FEW012 SCT030 BKN140 22/19 A2995 BECMG RMK LOW ST S SSW=
200603232300 METAR MROC 232300Z 26007KT 9999 FEW012CB SCT040 BKN120 22/19 A2996 BECMG RMK VIS ENE 8KMS DUE RASH=
200603240000 METAR MROC 240000Z 00000KT 9999 FEW025 BKN035 22/19 A2998 BECMG 04007KT RMK HZ LGT ARND=
200603240200 METAR MROC 240200Z 00000KT 9999 FEW035 BKN120 22/19 A3001 RMK HZ DIST ARND=
200603240300 METAR MROC 240300Z 00000KT 9999 FEW025 SCT100 21/19 A3002 NOSIG=
200603240400 METAR MROC 240400Z 07006KT CAVOK 21/18 A3001 NOSIG=
200603240500 METAR MROC 240500Z 07008KT CAVOK 21/17 A3002=
200603240600 METAR MROC 240600Z 07007KT CAVOK 20/17 A3000 NOSIG=
200603240700 METAR MROC 240700Z 09008KT CAVOK 21/15 A2998 NOSIG=
200603240800 METAR MROC 240800Z 04010KT CAVOK 20/14 A2997 NOSIG=
200603240900 METAR MROC 240900Z 06006KT CAVOK 20/15 A2997 NOSIG=
200603241000 METAR MROC 241000Z 05004KT CAVOK 19/14 A2998 NOSIG=
200603241100 METAR MROC 241100Z 04008KT CAVOK 20/14 A2988 NOSIG=
200603241200 METAR MROC 241200Z 07007KT CAVOK 19/14 A2999 NOSIG=
200603241300 METAR MROC 241300Z 07006KT CAVOK 22/15 A3003 NOSIG=
200603241400 METAR MROC 241400Z 10009KT CAVOK 25/14 A3005 NOSIG=
200603241500 METAR MROC 241500Z 11012KT CAVOK 26/16 A3004 NOSIG=
200603241600 METAR MROC 241600Z 09013KT 9999 FEW045 28/16 A3005 NOSIG=
200603241700 METAR MROC 241700Z 10012KT 9999 FEW040 29/16 A3003 NOSIG=
200603241800 METAR MROC 241800Z 10008KT 9999 SCT040 28/13 A3000 NOSIG=
200603241900 METAR MROC 241900Z 12013KT 9999 FEW040 SCT250 29/14 A2997 NOSIG=
200603242000 METAR MROC 242000Z 11015KT 9999 FEW035 BKN250 28/16 A2994 NOSIG=
200603242100 METAR MROC 242100Z 11015KT 9999 FEW025 SCT040 BKN250 25/15 A2994 NOSIG=
200603242200 METAR MROC 242200Z 11014KT 9999 FEW025 SCT050 BKN250 24/17 A2995 NOSIG=
200603242300 METAR MROC 242300Z 09013KT 9999 FEW030 BKN250 24/16 A2996 NOSIG=
200603250000 METAR MROC 250000Z 10011KT 9999 FEW030 BKN250 23/16 A2997 NOSIG=
200603250100 METAR MROC 250100Z 09009KT CAVOK 23/16 A2998 NOSIG=
200603250200 METAR MROC 250200Z 07010KT CAVOK 22/16 A3001 NOSIG=
200603250300 METAR MROC 250300Z 12006KT CAVOK 21/16 A3002 NOSIG=
200603250400 METAR MROC 250400Z 07003KT CAVOK 20/15 A3002 NOSIG=
200603250500 METAR MROC 250500Z 09005KT CAVOK 21/15 A3003 NOSIG=
200603250600 METAR MROC 250600Z 09007KT CAVOK 20/15 A3000 NOSIG=
200603250700 METAR MROC 250700Z 09010KT CAVOK 20/15 A2998 NOSIG=
200603250800 METAR MROC 250800Z 10013KT CAVOK 20/15 A2996 NOSIG=
200603250900 METAR MROC 250900Z 10011KT CAVOK 20/15 A2996 NOSIG=
200603251000 METAR MROC 251000Z 10012KT CAVOK 20/15 A2996 NOSIG=
200603251100 METAR MROC 251100Z 10011KT CAVOK 21/15 A2998 NOSIG=
200603251200 METAR MROC 251200Z 09012KT 9999 FEW030 BKN250 21/15 A2998 NOSIG=
200603251300 METAR MROC 251300Z 09016KT 9999 FEW030 BKN250 22/16 A3001=
200603251400 METAR MROC 251400Z 10015KT 9999 FEW030 BKN270 25/16 A3002 NOSIG=
200603251500 METAR MROC 251500Z 09016KT 9999 FEW030 BKN270 26/16 A3004 NOSIG=
200603251600 METAR MROC 251600Z 09019KT 9999 FEW030 SCT270 26/16 A3004 NOSIG=
200603251700 METAR MROC 251700Z 08017KT 9999 FEW030 SCT270 28/16 A3002 NOSIG=
200603251800 METAR MROC 251800Z 10014KT 9999 SCT025 SCT260 28/16 A2998 NOSIG=
200603251900 METAR MROC 251900Z 11016KT 9999 SCT025 SCT250 27/15 A2997 NOSIG=
200603252000 METAR MROC 252000Z 11015KT 9999 SCT025 SCT100 25/16 A2996=
200603252059 MROC 252059Z 09014KT 9999 SCT025 SCT180 24/15 A2993=
200603252100 METAR MROC 252100Z 09014KT 9999 SCT025 SCT180 24/15 A2993=
200603252200 METAR MROC 252200Z 10016KT 9999 SCT030 25/15 A2993=
200603252300 METAR MROC 252300Z 10017KT 9999 FEW025 SCT100 23/15 A2993=
200603252356 MROC 260000Z 10016KT 9999 FEW025 21/15 A2996=
200603260000 METAR MROC 260000Z 10016KT 9999 FEW025 21/15 A2996=
200603260100 METAR MROC 260100Z 10013KT 9999 FEW030 21/15 A2999 NOSIG=
200603260200 METAR MROC 260200Z 08015KT CAVOK 28/17 A2984=
200603260300 METAR MROC 260300Z 11016KT 9999 FEW040 21/14 A3003 NOSIG=
200603260400 METAR MROC 260400Z 10014KT CAVOK 21/14 A3004 NOSIG=
200603260500 METAR MROC 260500Z 10015KT CAVOK 21/14 A3004 NOSIG=
200603260600 METAR MROC 260600Z 10015KT CAVOK 20/14 A3001 NOSIG=
200603260700 METAR MROC 260700Z 09014KT CAVOK 20/13 A2998 NOSIG=
200603260800 METAR MROC 260800Z 09015KT CAVOK 20/13 A2997=
200603260900 METAR MROC 260900Z 09015KT CAVOK 20/14 A2996=
200603261000 METAR MROC 261000Z 10014KT CAVOK 20/14 A2996=
200603261100 METAR MROC 261100Z 10015KT CAVOK 20/13 A2997=
200603261200 METAR MROC 261200Z 09014KT 9999 FEW025 BKN250 19/14 A2999=
200603261300 METAR MROC 261300Z 10014KT CAVOK 22/14 A3001=
200603261400 METAR MROC 261400Z 10019KT CAVOK 23/14 A3002=
200603261500 METAR MROC 261500Z 09020KT CAVOK 24/14 A3004=
200603261600 METAR MROC 261600Z 10017KT CAVOK 25/15 A3005=
200603261700 METAR MROC 261700Z 09016KT CAVOK 27/12 A3003=
200603261800 METAR MROC 261800Z 07014KT CAVOK 28/11 A3001=
200603261900 METAR MROC 261900Z 08014KT CAVOK 28/12 A2998=
200603262000 METAR MROC 262000Z 08017KT CAVOK 28/12 A2995=
200603262100 METAR MROC 262100Z 07014KT CAVOK 28/12 A2993 NOSIG=
200603262200 METAR MROC 262200Z 07014KT CAVOK 26/12 A2993 NOSIG=
200603262300 METAR MROC 262300Z 07015KT 9999 FEW030 OVC250 24/13 A2994 NOSIG=
200603270000 METAR MROC 270000Z 07013KT 9999 FEW030 BKN250 23/13 A2996 NOSIG=
200603270100 METAR MROC 270100Z 10009KT 9999 FEW030 21/14 A2999 BECMG CAVOK=
200603270200 METAR MROC 270200Z 09010KT 9999 FEW035 21/13 A3003 NOSIG=
200603270300 METAR MROC 270300Z 10014KT 9999 FEW040 20/13 A3004=
200603270400 METAR MROC 270400Z 10012KT CAVOK 20/12 A3006=
200603270500 METAR MROC 270500Z 10015KT CAVOK 19/12 A3006=
200603270600 METAR MROC 270600Z 10015KT CAVOK 19/12 A3004=
200603270700 METAR MROC 270700Z 10014KT CAVOK 19/13 A3002=
200603270800 METAR MROC 270800Z 09016KT CAVOK 19/13 A3000=
200603270900 METAR MROC 270900Z 10017KT CAVOK 19/12 A2998=
200603271000 METAR MROC 271000Z 10017KT CAVOK 19/12 A2998=
200603271100 METAR MROC 271100Z 10017KT CAVOK 20/12 A2998=
200603271200 METAR MROC 271200Z 09016KT 9999 FEW030 SCT140 20/13 A2999=
200603271300 METAR MROC 271300Z 09015G25KT 9999 FEW040 BKN250 21/13 A3003 NOSIG=
200603271400 METAR MROC 271400Z 09015G25KT CAVOK 21/13 A3009 NOSIG=
200603271500 METAR MROC 271500Z 10018G28KT CAVOK 23/13 A3005 NOSIG=
200603271600 METAR MROC 271600Z 10016KT CAVOK 25/14 A3005 NOSIG=
200603271700 METAR MROC 271700Z 08015KT CAVOK 26/14 A3004 NOSIG=
200603271800 METAR MROC 271800Z 07014KT CAVOK 27/14 A3001 NOSIG=
200603271900 METAR MROC 271900Z 08018KT CAVOK 27/16 A2998 NOSIG=
200603272000 METAR MROC 272000Z 07014KT 9999 FEW035 SCT270 28/15 A2997=
200603272100 METAR MROC 272100Z 07013KT 9999 FEW035 SCT250 27/15 A2996 NOSIG=
200603272200 METAR MROC 272200Z 07012G22KT 9999 FEW035 BKN280 26/16 A2995 NOSIG=
200603272300 METAR MROC 272300Z 07013KT 9999 FEW035 SCT250 24/16 A2997 NOSIG=
200603280000 METAR MROC 280000Z 09015KT 9999 FEW035 SCT250 22/16 A2998 NOSIG=
200603280100 METAR MROC 280100Z 08012KT CAVOK 21/16 A2999 NOSIG=
200603280200 METAR MROC 280200Z 09015KT CAVOK 22/16 A3002 NOSIG=
200603280300 METAR MROC 280300Z 10016KT CAVOK 21/16 A3003=
200603280400 METAR MROC 280400Z 10015KT CAVOK 21/16 A3004=
200603280500 METAR MROC 280500Z 09007KT CAVOK 21/16 A3004=
200603280600 METAR MROC 280600Z 09019KT CAVOK 21/16 A3002=
200603280700 METAR MROC 280700Z 09013KT CAVOK 21/16 A3000=
200603280800 METAR MROC 280800Z 09013KT CAVOK 20/16 A2998=
200603280900 METAR MROC 280900Z 10014KT CAVOK 20/19 A2996=
200603281200 METAR MROC 281200Z 10018KT 9999 FEW020 SCT250 20/15 A3000=
200603281300 METAR MROC 281300Z 10017KT 9999 FEW030 BKN250 21/15 A3004 RMK DZ DST NE NOSIG=
200603281400 METAR MROC 281400Z 09016G28KT 9999 FEW030 BKN250 22/16 A3006 NOSIG=
200603281500 METAR MROC 281500Z 10017G27KT 9999 FEW035 BKN250 25/15 A3007 NOSIG=
200603281600 METAR MROC 281600Z 11015G26KT 9999 FEW035 BKN250 24/16 A3006 NOSIG=
200603281700 METAR MROC 281700Z 09017G27KT 9999 FEW035 BKN250 27/16 A3004 NOSIG=
200603281800 METAR MROC 281800Z 09014G24KT 9999 FEW035 BKN250 27/15 A3002 NOSIG=
200603281900 METAR MROC 281900Z 10014KT 9999 FEW035 BKN250 27/15 A3000 NOSIG=
200603282000 METAR MROC 282000Z 08012KT 9999 FEW035 BKN250 28/16 A2997 NOSIG=
200603282100 METAR MROC 282100Z 10018KT 9999 FEW030 BKN250 26/16 A2994 NOSIG=
200603282200 METAR MROC 282200Z 10018KT 9999 FEW030 SCT250 25/16 A2994 NOSIG=
200603282300 METAR MROC 282300Z 10015KT 9999 FEW030 SCT040 24/16 A2994 NOSIG=
200603290000 METAR MROC 290000Z 09012KT 9999 FEW030 SCT250 22/16 A2997 NOSIG=
200603290300 METAR MROC 290300Z 08010KT 9999 FEW040 22/17 A2999 NOSIG=
200603290400 METAR MROC 290400Z 09015KT CAVOK 22/17 A2998 NOSIG=
200603290500 METAR MROC 290500Z 09015KT CAVOK 22/17 A2998 NOSIG=
200603290600 METAR MROC 290600Z 09012KT CAVOK 22/17 A2997 NOSIG=
200603290800 METAR MROC 290800Z 10011KT CAVOK 22/17 A2995 NOSIG=
200603290900 METAR MROC 290900Z 10014KT CAVOK 21/16 A2992 NOSIG=
200603291000 METAR MROC 291000Z 10016KT CAVOK 21/16 A2992 NOSIG=
200603291100 METAR MROC 291100Z 10018KT CAVOK 21/16 A2993 NOSIG=
200603291200 METAR MROC 291200Z 09016KT 9999 FEW025 BKN080 21/16 A2996 NOSIG=
200603291300 METAR MROC 291300Z 06010KT 9999 FEW035 BKN080 23/17 A2999 BECMG RMK DZ DST N NE=
200603291400 METAR MROC 291400Z 08014KT 9999 FEW030 BKN070 24/17 A3000 BECMG RMK RN DST N NE E=
200603291500 METAR MROC 291500Z 10014KT 9999 FEW030 BKN070 25/17 A3001 BECMG RMK RN DST N NE E=
200603291600 METAR MROC 291600Z 10015KT 9999 FEW030 BKN070 26/18 A3002 BECMG RMK RN DST N NE E=
200603291700 METAR MROC 291700Z 10015KT 9999 -RA FEW030 BKN080 26/17 A3001 NOSIG=
200603291800 METAR MROC 291800Z 10016KT 9999 SCT030 BKN080 25/18 A2999 RERA BECMG 9000 -RA RMK RN DST N NE ESE=
200603291900 METAR MROC 291900Z 10009KT 9999 -DZ FEW030 BKN080 24/19 A2997 RMK RN DST E NE N=
200603292000 METAR MROC 292000Z 10014KT 9999 DZ FEW030 BKN100 26/17 A2994 BECMG RMK RN DST NE E=
200603292100 METAR MROC 292100Z 09011KT 9999 FEW030 BKN100 26/18 A2992=
200603292200 METAR MROC 292200Z 10012KT 9999 SCT030 BKN100 25/17 A2992 RMK DZ N NE=
200603292300 METAR MROC 292300Z 09010KT 9999 BKN030 23/17 A2993 RMK RN N NE=
200603300000 METAR MROC 300000Z 08014KT 9999 FEW030 SCT130 23/17 A2994=
200603300100 METAR MROC 300100Z 09010KT 9999 FEW030 22/17 A2995=
200603300200 METAR MROC 300200Z 10017KT 9999 FEW030 22/17 A2995=
200603300300 METAR MROC 300300Z 10014KT CAVOK 22/17 A2998 NOSIG=
200603300400 METAR MROC 300400Z 10016KT 9999 FEW035 22/18 A2999 NOSIG=
200603300500 METAR MROC 300500Z 10013KT 9999 FEW035 22/17 A2998 NOSIG=
200603300600 METAR MROC 300600Z 09011KT 9999 FEW035 22/17 A2996 NOSIG=
200603300700 METAR MROC 300700Z 10012KT 9999 FEW035 22/17 A2993 NOSIG=
200603300800 METAR MROC 300800Z 06008KT 9999 SCT035 22/17 A2993 NOSIG=
200603300900 METAR MROC 300900Z 06004KT 9999 FEW030 21/17 A2994 NOSIG=
200603301000 METAR MROC 301000Z 10011KT 9999 FEW030 21/17 A2992 NOSIG=
200603301100 METAR MROC 301100Z 10012G22KT 9999 FEW030 SCT250 21/17 A2992 NOSIG=
200603301200 METAR MROC 301200Z 09012G22KT 9999 FEW030 SCT250 21/17 A2995 RMK DZ DST E NE N NOSIG=
200603301300 METAR MROC 301300Z 09015KT 9999 FEW030 23/17 A2998=
200603301400 METAR MROC 301400Z 09016KT 9999 FEW030 BKN090 24/17 A3001 NOSIG=
200603301500 METAR MROC 301500Z 07014KT 9999 FEW030 BKN090 25/17 A3003=
200603301600 METAR MROC 301600Z 09019KT 9999 FEW030 BKN090 26/17 A3001=
200603301700 METAR MROC 301700Z 08015KT 9999 SCT030 29/17 A3000=
200603301800 METAR MROC 301800Z 10013KT 9999 FEW030 SCT050 29/17 A2999=
200603301900 METAR MROC 301900Z 09011KT 9999 SCT030 SCT050 29/16 A2996=
200603302000 METAR MROC 302000Z 11014KT 9999 SCT030 SCT080 30/17 A2993=
200603302100 METAR MROC 302100Z 09005KT 9999 SCT015 SCT070 24/19 A2993 RERA=
200603302200 METAR MROC 302200Z 09008KT 9999 SCT025 BKN100 24/18 A2994=
200603302300 METAR MROC 302300Z 09005KT 9999 FEW020 SCT100 SCT230 24/17 A2995=
200603310300 METAR MROC 310300Z 07005KT 9999 -RA FEW030 OVC100 20/18 A3005 NOSIG=
200603310500 METAR MROC 310500Z 10014KT 9999 FEW030 OVC100 21/16 A3004 NOSIG=
200603310600 METAR MROC 310600Z 09008KT 9999 FEW025 OVC100 21/18 A3003 NOSIG=
200603310700 METAR MROC 310700Z 04011KT 9999 SCT025 BKN100 21/17 A3000 RMK DZ DST E NOSIG=
200603310800 METAR MROC 310800Z 09011KT 9999 FEW030 BKN110 21/17 A2998 RMK DZ DST E NOSIG=
200603310900 METAR MROC 310900Z 07008KT 9999 FEW030 BKN110 21/16 A2998 RMK DZ DST E NOSIG=
200603311000 METAR MROC 311000Z 09010KT 9999 FEW030 BKN110 21/16 A2997 NOSIG=
200603311100 METAR MROC 311100Z 10012KT 9999 FEW030 BKN110 21/17 A2997 NOSIG=
200603311200 METAR MROC 311200Z 10011KT 9999 FEW030 SCT120 BKN260 21/17 A3000 RMK DZ DST NE/E NOSIG=
200603311300 METAR MROC 311300Z 10013KT 9999 FEW025 SCT150 22/16 A3003=
200603311400 METAR MROC 311400Z 09015KT 9999 FEW040 SCT200 25/16 A3004=
200603311500 METAR MROC 311500Z 10017KT 9999 FEW035 SCT250 25/17 A3005=
200603311600 METAR MROC 311600Z 09019KT 9999 FEW035 SCT250 26/17 A3005=
200603311700 METAR MROC 311700Z 08014KT 9999 FEW035 SCT250 28/16 A3005=
200603311800 METAR MROC 311800Z 09013KT 9999 SCT040 SCT250 28/16 A3003=
200603311900 METAR MROC 311900Z 08018KT 9999 FEW040 SCT250 29/15 A3000=
200603312000 METAR MROC 312000Z 09014KT 9999 FEW040 SCT250 29/15 A2998=
200603312100 METAR MROC 312100Z 08012KT 9999 SCT040 BKN260 27/16 A2996 NOSIG=
200603312200 METAR MROC 312200Z 06015KT 9999 SCT040 BKN260 26/16 A2998 NOSIG=
200603312300 METAR MROC 312300Z 10010KT 9999 FEW030 BKN260 25/15 A2999 NOSIG=
200604010000 METAR MROC 010000Z 09012KT 9999 FEW040 SCT100 BKN260 23/16 A3001 NOSIG=
200604010100 METAR MROC 010100Z 10015KT 9999 FEW040 BKN150 23/15 A3003 RMK LTNG=
200604010200 METAR MROC 010200Z 09012KT 9999 FEW040 BKN140 22/16 A3006 RMK LTNG=
200604010300 METAR MROC 010300Z 10013KT 9999 FEW040 SCT140 22/15 A3006=
200604010400 METAR MROC 010400Z 07016KT 9999 FEW040 SCT140 22/13 A3006=
200604010500 METAR MROC 010500Z 09014KT 9999 FEW040 22/13 A3005=
200604010600 METAR MROC 010600Z 09016KT CAVOK 21/13 A3001=
200604010700 METAR MROC 010700Z 10018KT CAVOK 21/12 A2998=
200604010800 METAR MROC 010800Z 09016KT CAVOK 21/13 A2997=
200604010900 METAR MROC 010900Z 09019KT CAVOK 22/14 A2997=
200604011000 METAR MROC 011000Z 10012KT CAVOK 20/14 A3001=
200604011100 METAR MROC 011100Z 11013KT CAVOK 20/14 A3002=
200604011200 METAR MROC 011200Z 10013KT CAVOK 20/14 A3003=
200604011300 METAR MROC 011300Z 11013KT CAVOK 21/14 A3004 NOSIG=
200604011400 METAR MROC 011400Z 10013KT CAVOK 25/14 A3005 NOSIG=
200604011500 METAR MROC 011500Z 10017KT CAVOK 27/14 A3005 NOSIG=
200604011600 METAR MROC 011600Z 09012KT CAVOK 29/15 A3005 NOSIG=
200604011700 METAR MROC 011700Z 09012KT CAVOK 30/14 A3004 NOSIG=
200604011800 METAR MROC 011800Z 08013KT 9999 FEW035 BKN250 28/15 A3002 NOSIG=
200604011900 METAR MROC 011900Z 08015KT 9999 FEW035 BKN250 29/15 A2999 NOSIG=
200604012000 METAR MROC 012000Z 07010KT 9999 FEW035 SCT250 29/14 A2998 NOSIG=
200604012100 METAR MROC 012100Z 07013KT 9999 FEW035 SCT300 29/14 A2995 NOSIG=
200604012200 METAR MROC 012200Z 07012KT 9999 FEW035 SCT300 28/14 A2995 NOSIG=
200604012300 METAR MROC 012300Z 05019KT 9999 FEW040 SCT300 26/14 A2996 NOSIG=
200604020000 METAR MROC 020000Z 08009KT CAVOK 23/14 A2997 NOSIG=
200604020100 METAR MROC 020100Z 09010KT CAVOK 23/14 A2997 NOSIG=
200604020200 METAR MROC 020200Z 08012KT CAVOK 22/15 A2999 NOSIG=
200604020300 METAR MROC 020300Z 08014KT CAVOK 21/14 A3000=
200604020400 METAR MROC 020400Z 09015KT CAVOK 21/14 A3000=
200604020500 METAR MROC 020500Z 10015KT CAVOK 21/14 A2999=
200604020600 METAR MROC 020600Z 10014KT CAVOK 21/14 A2997=
200604020700 METAR MROC 020700Z 10013KT CAVOK 21/13 A2997=
200604020900 METAR MROC 020900Z 10012KT CAVOK 20/15 A2995=
200604021000 METAR MROC 021000Z 10014KT CAVOK 20/14 A2995=
200604021100 METAR MROC 021100Z 09013KT CAVOK 20/14 A2996=
200604021200 METAR MROC 021200Z 09010KT CAVOK 20/14 A2998=
200604021300 METAR MROC 021300Z 10013KT CAVOK 22/15 A3000 NOSIG=
200604021400 METAR MROC 021400Z 10016KT CAVOK 24/15 A3001 NOSIG=
200604021500 METAR MROC 021500Z 10014KT CAVOK 24/15 A3002 NOSIG=
200604021700 METAR MROC 021700Z 09015KT CAVOK 29/13 A3002 NOSIG=
200604021800 METAR MROC 021800Z 09009KT CAVOK 29/13 A2999 NOSIG=
200604021900 METAR MROC 021900Z 09011KT 9999 FEW045 BKN250 29/14 A2997 NOSIG=
200604022000 METAR MROC 022000Z 08012KT 9999 FEW045 BKN250 29/14 A2995 NOSIG=
200604022100 METAR MROC 022100Z 10012KT 9999 SCT035 BKN220 28/14 A2993=
200604022200 METAR MROC 022200Z 07009KT 9999 SCT030 BKN220 27/14 A2993=
200604022300 METAR MROC 022300Z 10010KT 9999 FEW030 BKN250 25/15 A2994=
200604030000 METAR MROC 030000Z 10009KT 9999 FEW025 BKN250 23/16 A2995=
200604030100 METAR MROC 030100Z 10011KT CAVOK 21/16 A2996=
200604030200 METAR MROC 030200Z 11012KT CAVOK 21/16 A2998=
200604030300 METAR MROC 030300Z 10014KT CAVOK 21/15 A3000 NOSIG=
200604030400 METAR MROC 030400Z 10013KT CAVOK 21/16 A3000 NOSIG=
200604030500 METAR MROC 030500Z 10015KT CAVOK 21/15 A2990 NOSIG=
200604030600 METAR MROC 030600Z 10013KT CAVOK 21/15 A2997 NOSIG=
200604030900 METAR MROC 030900Z 09010KT CAVOK 20/15 A2994 NOSIG=
200604031000 METAR MROC 031000Z 09012KT CAVOK 20/14 A2994 NOSIG=
200604031100 METAR MROC 031100Z 09010KT CAVOK 20/13 A2995 NOSIG=
200604031200 METAR MROC 031200Z 10010KT CAVOK 20/13 A2997 NOSIG=
200604031300 METAR MROC 031300Z 09014KT CAVOK 22/13 A2998 RMK DZ DST NE/E RAFAGAS DE 23KT NOSIG=
200604031400 METAR MROC 031400Z 09014KT CAVOK 23/14 A3000 NOSIG=
200604031500 METAR MROC 031500Z 09016KT 9999 FEW035 BKN250 24/15 A3001 NOSIG=
200604031600 METAR MROC 031600Z 09017KT 9999 FEW035 BKN250 24/14 A3001 NOSIG=
200604031700 METAR MROC 031700Z 07015KT 9999 FEW035 BKN250 26/14 A3002 NOSIG=
200604031800 METAR MROC 031800Z 08014KT 9999 FEW035 BKN250 26/13 A3000 NOSIG=
200604031900 METAR MROC 031900Z 08013KT 9999 FEW040 BKN250 27/13 A2997 NOSIG=
200604032000 METAR MROC 032000Z 10015KT 9999 FEW040 BKN250 26/14 A2994 NOSIG=
200604032100 METAR MROC 032100Z 10016KT 9999 FEW040 BKN250 25/14 A2992 NOSIG=
200604032200 METAR MROC 032200Z 10015KT 9999 FEW040 SCT250 25/12 A2991 NOSIG=
200604032300 METAR MROC 032300Z 09014KT 9999 FEW045 SCT250 24/14 A2991=
200604040000 METAR MROC 040000Z 09015KT 9999 FEW040 SCT250 23/15 A2993 NOSIG=
200604040100 METAR MROC 040100Z 09012KT 9999 FEW040 SCT250 21/16 A2995 NOSIG=
200604040200 METAR MROC 040200Z 09014KT CAVOK 21/16 A2997 NOSIG=
200604040300 METAR MROC 040300Z 10012KT CAVOK 20/15 A3000 NOSIG=
200604040400 METAR MROC 040400Z 10013KT CAVOK 20/15 A3001 NOSIG=
200604040500 METAR MROC 040500Z 09018KT CAVOK 20/14 A2999 NOSIG=
200604040600 METAR MROC 040600Z 10011G21KT CAVOK 20/12 A2997 NOSIG=
200604040700 METAR MROC 040700Z 09017KT CAVOK 20/11 A2995 NOSIG=
200604040800 METAR MROC 040800Z 04008KT CAVOK 19/12 A2995 NOSIG=
200604040900 METAR MROC 040900Z 09007KT CAVOK 19/13 A2995 NOSIG=
200604041100 METAR MROC 041100Z 11009KT CAVOK 19/14 A2997 NOSIG=
200604041200 METAR MROC 041200Z 07005KT CAVOK 19/15 A2999 NOSIG=
200604041300 METAR MROC 041300Z 07007KT CAVOK 22/15 A3000 NOSIG=
200604041400 METAR MROC 041400Z 10014KT CAVOK 23/16 A2999 NOSIG=
200604041500 METAR MROC 041500Z 10014KT CAVOK 25/16 A3000 NOSIG=
200604041600 METAR MROC 041600Z 10016KT 9999 FEW045 BKN250 27/16 A3000 BECMG RMK DZ DST NE=
200604041700 METAR MROC 041700Z 11013KT 9999 FEW045 BKN250 28/16 A2999 BECMG RMK DZ NE=
200604041900 METAR MROC 041900Z 09012KT 9999 FEW040 BKN250 29/16 A2996 BECMG RMK TCU S=
200604042000 METAR MROC 042000Z 10015KT 9999 SCT035 BKN250 28/16 A2992 NOSIG=
200604042100 METAR MROC 042100Z 11015KT 9999 SCT035TCU SCT200 27/16 A2990=
200604042200 METAR MROC 042200Z 09013KT 9999 SCT035TCU SCT120 26/16 A2991=
200604050100 METAR MROC 050100Z 10009KT 9999 FEW045 24/16 A2999=
200604050200 METAR MROC 050200Z 09010KT CAVOK 21/15 A3000=
200604050300 METAR MROC 050300Z 09004KT CAVOK 20/15 A3002 NOSIG=
200604051300 METAR MROC 051300Z 08006KT CAVOK 22/15 A3001=
200604051400 METAR MROC 051400Z 10015KT CAVOK 23/15 A3003=
200604051500 METAR MROC 051500Z 09011KT CAVOK 24/15 A3003=
200604051600 METAR MROC 051600Z 10012KT CAVOK 25/15 A3002=
200604051700 METAR MROC 051700Z 10011KT CAVOK 25/15 A3001 RMK BKN250=
200604051800 METAR MROC 051800Z 10014KT 9999 FEW035 BKN250 27/15 A3000=
200604051900 METAR MROC 051900Z 10012KT 9999 FEW030 SCT250 28/16 A2996=
200604052000 METAR MROC 052000Z 09014KT 9999 SCT030 SCT250 27/15 A2995=
200604052100 METAR MROC 052100Z 09012KT 9999 FEW035 SCT300 28/15 A2993 NOSIG=
200604052200 METAR MROC 052200Z 11015KT 9999 FEW035 SCT300 27/15 A2992 NOSIG=
200604052300 METAR MROC 052300Z 11012KT 9999 FEW035 24/16 A2992 NOSIG=
200604060000 METAR MROC 060000Z 09010KT 9999 FEW030 SCT300 22/16 A2996 NOSIG=
200604060100 METAR MROC 060100Z 09006KT 9999 FEW045 22/16 A2998=
200604060200 METAR MROC 060200Z 09008KT CAVOK 21/16 A2999=
200604060300 METAR MROC 060300Z 09011KT CAVOK 20/15 A3001=
200604060400 METAR MROC 060400Z 08011KT CAVOK 21/15 A3001=
200604060500 METAR MROC 060500Z 10012KT CAVOK 20/15 A3000=
200604060600 METAR MROC 060600Z 08012KT CAVOK 20/15 A2998=
200604060700 METAR MROC 060700Z 05009KT CAVOK 20/14 A2997=
200604060900 METAR MROC 060900Z 06005KT CAVOK 19/14 A2995=
200604061100 METAR MROC 061100Z 09008KT CAVOK 19/14 A2996=
200604061200 METAR MROC 061200Z 06007KT CAVOK 19/14 A2998=
200604061300 METAR MROC 061300Z 07006KT CAVOK 22/15 A3001 NOSIG=
200604061400 METAR MROC 061400Z 10012KT CAVOK 24/14 A3001 NOSIG=
200604061500 METAR MROC 061500Z 11014KT CAVOK 26/13 A3001 NOSIG=
200604061600 METAR MROC 061600Z 10014KT CAVOK 28/13 A3000 NOSIG=
200604061700 METAR MROC 061700Z 09011KT 9999 FEW035 SCT300 29/13 A2999 NOSIG=
200604061800 METAR MROC 061800Z 10010KT 9999 FEW030 SCT300 30/14 A2996 NOSIG=
200604061900 METAR MROC 061900Z 21005KT 9999 SCT030 SCT300 29/15 A2994 NOSIG=
200604062000 METAR MROC 062000Z 22008KT 9999 -RA BKN030 26/19 A2992 NOSIG=
200604062100 METAR MROC 062100Z 22007KT 9999 SCT030 SCT250 24/19 A2990 NOSIG=
200604062200 METAR MROC 062200Z 21005KT 9999 SCT035 BKN250 26/20 A2991 NOSIG=
200604062300 METAR MROC 062300Z 23008KT 9999 SCT030TCU BKN250 25/19 A2991 NOSIG=
200604070000 METAR MROC 070000Z 11006KT 9999 -RA BKN025 22/17 A2994 BECMG RMK 6000 E SSW=
200604070100 METAR MROC 070100Z 10003KT 9999 -RA OVC090 20/19 A2997 NOSIG=
200604070200 METAR MROC 070200Z 09009KT 9999 FEW015 OVC090 20/17 A2998 RERA NOSIG=
200604070300 METAR MROC 070300Z 09007KT 9999 FEW025 BKN110 20/17 A3000 NOSIG=
200604070400 METAR MROC 070400Z 10009KT CAVOK 20/16 A3001 NOSIG=
200604070500 METAR MROC 070500Z 09009KT CAVOK 20/15 A3000 NOSIG=
200604070600 METAR MROC 070600Z 09010KT CAVOK 20/15 A2998 NOSIG=
200604070700 METAR MROC 070700Z 08009KT CAVOK 20/15 A2996 NOSIG=
200604070800 METAR MROC 070800Z 07008KT CAVOK 20/14 A2995 NOSIG=
200604070900 METAR MROC 070900Z 05009KT CAVOK 18/14 A2994 NOSIG=
200604071000 METAR MROC 071000Z 04008KT CAVOK 18/13 A2995 NOSIG=
200604071100 METAR MROC 071100Z 05008KT CAVOK 18/13 A2996 NOSIG=
200604071200 METAR MROC 071200Z 09008KT CAVOK 19/13 A2997 NOSIG=
200604071300 METAR MROC 071300Z 09009KT CAVOK 22/13 A3000 NOSIG=
200604071400 METAR MROC 071400Z 09014KT CAVOK 25/13 A3001 NOSIG=
200604071500 METAR MROC 071500Z 08012KT CAVOK 27/13 A3002 NOSIG=
200604071600 METAR MROC 071600Z 10016KT CAVOK 28/13 A3002 NOSIG=
200604071700 METAR MROC 071700Z 09010KT CAVOK 29/13 A3000 NOSIG=
200604071800 METAR MROC 071800Z 13008KT 9999 FEW040 BKN250 30/13 A2998 NOSIG=
200604071900 METAR MROC 071900Z 23007KT 9999 FEW030TCU BKN250 30/17 A2995 BECMG 26012KT=
200604072000 METAR MROC 072000Z 24009KT 9999 FEW015CB SCT030 25/17 A2994 RMK 7000SW=
200604072100 METAR MROC 072100Z 23009KT 9999 SCT025TCU BKN250 24/17 A2995 RMK RASH DST NW/N CB DST SSW=
200604072200 METAR MROC 072200Z 00000KT 9999 FEW025TCU SCT030 BKN120 25/16 A2994 NOSIG=
200604072300 METAR MROC 072300Z 19007KT 9999 FEW025 SCT030 BKN100 23/18 A2995 RMK RN DST SE/SSE=
200604080000 METAR MROC 080000Z 00000KT 9999 SCT030 BKN100 20/18 A2997 NOSIG=
200604080200 METAR MROC 080200Z 07004KT 9999 FEW035 20/17 A3001 NOSIG=
200604080300 METAR MROC 080300Z 07007KT CAVOK 20/17 A3002 NOSIG=
200604080400 METAR MROC 080400Z 06008KT CAVOK 20/17 A3003 NOSIG=
200604080500 METAR MROC 080500Z 04010KT CAVOK 20/16 A3001 NOSIG=
200604080600 METAR MROC 080600Z 06006KT CAVOK 18/16 A2999 NOSIG=
200604080700 METAR MROC 080700Z 07005KT CAVOK 19/15 A2997 NOSIG=
200604080900 METAR MROC 080900Z 08004KT CAVOK 18/15 A2996 NOSIG=
200604081000 METAR MROC 081000Z 06008KT CAVOK 18/14 A2999 NOSIG=
200604081100 METAR MROC 081100Z 06007KT CAVOK 17/13 A2999 NOSIG=
200604081200 METAR MROC 081200Z 06009KT CAVOK 17/12 A2999 NOSIG=
200604081300 METAR MROC 081300Z 08006KT CAVOK 21/13 A3001 RMK BKN250=
200604081400 METAR MROC 081400Z 08005KT CAVOK 24/14 A3003 RMK BKN250=
200604081500 METAR MROC 081500Z 10004KT CAVOK 27/12 A3003 RMK BKN250=
200604081600 METAR MROC 081600Z 25005KT CAVOK 28/14 A3003 RMK BKN250=
200604081700 METAR MROC 081700Z 24006KT 9999 FEW040 BKN250 29/16 A3002 NOSIG=
200604081800 METAR MROC 081800Z 20006KT 9999 FEW040 SCT250 29/17 A3000=
200604081900 METAR MROC 081900Z 23008KT 9999 SCT035 SCT250 30/16 A2997=
200604082000 METAR MROC 082000Z 24011KT 9999 SCT035 BKN250 29/17 A2994=
200604082100 METAR MROC 082100Z 23010KT 9999 SCT035 SCT250 29/19 A2993 NOSIG=
200604082200 METAR MROC 082200Z 22009KT 9999 SCT030 28/19 A2992 NOSIG=
200604082300 METAR MROC 082300Z 23010KT 9999 SCT030 26/19 A2994 NOSIG=
200604090000 METAR MROC 090000Z 23006KT 9999 SCT030 SCT250 24/19 A2996 NOSIG=
200604090100 METAR MROC 090100Z 25005KT 9999 SCT030 SCT250 22/20 A3000 NOSIG=
200604090200 METAR MROC 090200Z 21003KT 9999 SCT025 SCT250 21/20 A3002 BECMG 10006KT=
200604090300 METAR MROC 090300Z 00000KT 9999 SCT020 SCT120 21/20 A3004 NOSIG=
200604090400 METAR MROC 090400Z 00000KT 9999 SCT035 21/20 A3005 NOSIG=
200604090500 METAR MROC 090500Z 06007KT CAVOK 20/17 A3002 NOSIG=
200604090600 METAR MROC 090600Z 06005KT CAVOK 20/17 A2999 NOSIG=
200604090700 METAR MROC 090700Z 01008KT CAVOK 20/17 A2997 NOSIG=
200604090800 METAR MROC 090800Z 05005KT CAVOK 19/15 A2995 NOSIG=
200604090900 METAR MROC 090900Z 03006KT CAVOK 19/16 A2994 NOSIG=
200604091000 METAR MROC 091000Z 09005KT CAVOK 20/16 A2994 NOSIG=
200604091100 METAR MROC 091100Z 05006KT CAVOK 20/17 A2995 NOSIG=
200604091200 METAR MROC 091200Z 04008KT CAVOK 20/16 A2998 NOSIG=
200604091300 METAR MROC 091300Z 09008KT CAVOK 23/17 A2999 NOSIG=
200604091400 METAR MROC 091400Z 09007KT CAVOK 26/17 A3002 NOSIG=
200604091500 METAR MROC 091500Z 11009KT 9999 FEW040 SCT250 28/17 A3001 NOSIG=
200604091600 METAR MROC 091600Z 12008KT 9999 FEW040 29/16 A3001 NOSIG=
200604091700 METAR MROC 091700Z 09006KT 9999 SCT040 31/16 A2999 NOSIG=
200604091800 METAR MROC 091800Z 26006KT 9999 BKN035 29/18 A2997 NOSIG=
200604091900 METAR MROC 091900Z 25009KT 9999 BKN030 30/19 A2993 NOSIG=
200604092000 METAR MROC 092000Z 20009KT 9999 SCT025TCU SCT150 29/20 A2990=
200604092100 METAR MROC 092100Z 22009KT 9999 SCT025TCU SCT140 28/20 A2989=
200604092200 METAR MROC 092200Z 08003KT 9999 -DZ SCT015TCU SCT070 25/16 A2990=
200604092300 METAR MROC 092300Z 19004KT 5000 RA SCT010CB SCT090 20/19 A2992 RMK VIS RED S SW W=
200604100000 METAR MROC 100000Z 00000KT 9999 SCT030 SCT100 21/19 A2993 RERA=
200604100100 METAR MROC 100100Z 12005KT 9999 FEW030 BKN120 21/19 A2995 NOSIG=
200604100200 METAR MROC 100200Z 08009KT 9999 FEW030 BKN150 21/18 A2997 NOSIG=
200604100300 METAR MROC 100300Z 10006KT 9999 FEW030 SCT120 21/18 A2998 NOSIG=
200604100400 METAR MROC 100400Z 08007KT 9999 FEW035 SCT120 21/17 A3000 NOSIG=
200604100500 METAR MROC 100500Z 06006KT 9999 FEW035 21/17 A2999 NOSIG=
200604100600 METAR MROC 100600Z 07007KT CAVOK 21/17 A2997 NOSIG=
200604100700 METAR MROC 100700Z 06006KT CAVOK 21/17 A2995 NOSIG=
200604100800 METAR MROC 100800Z 07003KT CAVOK 20/17 A2993 NOSIG=
200604100900 METAR MROC 100900Z 10005KT CAVOK 21/16 A2992 NOSIG=
200604101000 METAR MROC 101000Z 02006KT CAVOK 19/16 A2993 NOSIG=
200604101100 METAR MROC 101100Z 05005KT 9999 FEW035 SCT250 19/16 A2993 NOSIG=
200604101200 METAR MROC 101200Z 04008KT 9999 FEW035 BKN120 19/16 A2995 NOSIG=
200604101300 METAR MROC 101300Z 03004KT CAVOK 20/16 A2998=
200604101400 METAR MROC 101400Z 05005KT CAVOK 23/17 A2999=
200604101500 METAR MROC 101500Z 08005KT CAVOK 25/17 A2999=
200604101600 METAR MROC 101600Z 10013KT CAVOK 26/16 A2999=
200604101700 METAR MROC 101700Z 10012KT 9999 FEW035 SCT200 28/17 A2998=
200604101800 METAR MROC 101800Z 10013KT 9999 SCT025TCU SCT080 26/17 A2996=
200604101900 METAR MROC 101900Z 10009KT 9999 FEW030 SCT100 28/16 A2993=
200604102000 METAR MROC 102000Z 08011KT 9999 FEW030TCU SCT150 28/16 A2989=
200604102100 METAR MROC 102100Z 10009KT 9999 SCT030 BKN300 28/16 A2987=
200604102200 METAR MROC 102200Z 10006KT 9999 SCT030 BKN300 30/16 A2987 NOSIG=
200604102300 METAR MROC 102300Z 23009KT 9999 FEW025 SCT040 BKN300 25/21 A2988 NOSIG=
200604110000 METAR MROC 110000Z 17007KT 9999 FEW020 SCT035 BKN280 24/17 A2991 NOSIG=
200604110100 METAR MROC 110100Z 32005KT 9999 SCT030 SCT280 23/18 A2994 NOSIG=
200604110200 METAR MROC 110200Z 32003KT 9999 SCT030 SCT100 23/19 A2995 NOSIG=
200604110300 METAR MROC 110300Z 11004KT 9999 FEW030 SCT100 22/18 A2997 NOSIG=
200604110400 METAR MROC 110400Z 07004KT 9999 FEW030 SCT110 22/17 A2997 NOSIG=
200604110500 METAR MROC 110500Z 07008KT CAVOK 22/17 A2997 NOSIG=
200604110600 METAR MROC 110600Z 07008KT CAVOK 22/17 A2995 NOSIG=
200604110700 METAR MROC 110700Z 10014KT CAVOK 22/17 A2991 NOSIG=
200604110800 METAR MROC 110800Z 09013KT CAVOK 22/17 A2990 NOSIG=
200604110900 METAR MROC 110900Z 10012KT CAVOK 22/17 A2989 NOSIG=
200604111000 METAR MROC 111000Z 00000KT CAVOK 22/17 A2990 NOSIG=
200604111100 METAR MROC 111100Z 06004KT 9999 FEW030 21/16 A2992 NOSIG=
200604111200 METAR MROC 111200Z 06009KT 9999 FEW030 BKN250 21/17 A2994 NOSIG=
200604111300 METAR MROC 111300Z 07008KT 9999 FEW030 BKN250 24/17 A2997 NOSIG=
200604111400 METAR MROC 111400Z 11006KT 9999 SCT025 BKN250 25/17 A2998 NOSIG=
200604111500 METAR MROC 111500Z 08011KT 9999 FEW025 BKN250 25/16 A2999 NOSIG=
200604111600 METAR MROC 111600Z 07011KT 9999 FEW025 BKN280 25/16 A2997 NOSIG=
200604111700 METAR MROC 111700Z 10015KT 9999 SCT025 BKN280 27/16 A2997 NOSIG=
200604111800 METAR MROC 111800Z 10015KT 9999 SCT025 SCT100 27/17 A2995 NOSIG=
200604111900 METAR MROC 111900Z 10015KT 9999 SCT030 BKN100 26/16 A2991 NOSIG=
200604112000 METAR MROC 112000Z 09014KT 9999 SCT030 SCT100 25/16 A2989 NOSIG=
200604112100 METAR MROC 112100Z 09014KT 9999 SCT025 BKN100 24/15 A2989 RMK RN DST NE SE S=
200604112200 METAR MROC 112200Z 09015KT 9999 SCT030 BKN120 24/15 A2989 NOSIG=
200604112300 METAR MROC 112300Z 07014KT 9999 FEW030 BKN120 23/15 A2990 NOSIG=
200604120000 METAR MROC 120000Z 08011G21KT 9999 SCT035 BKN120 22/14 A2994 NOSIG=
200604120100 METAR MROC 120100Z 09014KT 9999 FEW035 SCT120 22/15 A2995 NOSIG=
200604120200 METAR MROC 120200Z 10019KT 9999 FEW035 SCT120 21/14 A2996=
200604120300 METAR MROC 120300Z 10019KT CAVOK 21/15 A2998=
200604120400 METAR MROC 120400Z 10019KT CAVOK 20/14 A3000=
200604120500 METAR MROC 120500Z 09013KT CAVOK 21/13 A3000=
200604120600 METAR MROC 120600Z 10017KT CAVOK 22/14 A2998=
200604120700 METAR MROC 120700Z 10015KT CAVOK 21/14 A2996=
200604120800 METAR MROC 120800Z 09016KT CAVOK 21/14 A2994=
200604121000 METAR MROC 121000Z 09013KT CAVOK 21/14 A2993 RMK LTNG DST S=
200604121100 METAR MROC 121100Z 10014KT CAVOK 21/14 A2994=
200604121200 METAR MROC 121200Z 09013KT 9999 FEW045 SCT150 21/13 A2996=
200604121300 METAR MROC 121300Z 10015KT CAVOK 22/14 A2998 NOSIG=
200604121400 METAR MROC 121400Z 10014KT CAVOK 24/15 A3000 NOSIG=
200604121500 METAR MROC 121500Z 10013G23KT CAVOK 25/15 A3000 NOSIG=
200604121600 METAR MROC 121600Z 08013KT CAVOK 27/14 A3002 NOSIG=
200604121800 METAR MROC 121800Z 11016KT 9999 FEW040 SCT250 29/14 A3000 NOSIG=
200604121900 METAR MROC 121900Z 10012G22KT 9999 FEW040 BKN250 28/15 A2997 NOSIG=
200604122000 METAR MROC 122000Z 10017KT 9999 SCT035 BKN250 26/15 A2996=
200604122100 METAR MROC 122100Z 10014KT 9999 SCT030 BKN250 25/16 A2995=
200604122200 METAR MROC 122200Z 10012KT 9999 SCT030 BKN250 25/15 A2996 NOSIG=
200604122300 METAR MROC 122300Z 11012KT 9999 SCT030 BKN100 23/16 A2998 NOSIG=
200604130000 METAR MROC 130000Z 10011KT 9999 SCT030 BKN100 22/15 A2998 NOSIG=
200604130100 METAR MROC 130100Z 10013KT 9999 FEW030 BKN130 21/14 A2999 NOSIG=
200604130200 METAR MROC 130200Z 08010KT CAVOK 20/15 A3002 NOSIG=
200604130300 METAR MROC 130300Z 10010KT CAVOK 21/14 A3004 NOSIG=
200604130400 METAR MROC 130400Z 10012KT CAVOK 20/14 A3005 NOSIG=
200604130600 METAR MROC 130600Z 09014KT CAVOK 20/14 A3002 NOSIG=
200604130700 METAR MROC 130700Z 10013KT CAVOK 20/13 A3000 NOSIG=
200604130900 METAR MROC 130900Z 07006KT CAVOK 18/12 A2999 NOSIG=
200604131000 METAR MROC 131000Z 07006KT CAVOK 18/12 A2999 NOSIG=
200604131100 METAR MROC 131100Z 08006KT CAVOK 19/12 A3000 NOSIG=
200604131200 METAR MROC 131200Z 07006KT CAVOK 19/11 A3001 NOSIG=
200604131300 METAR MROC 131300Z 09006KT CAVOK 21/13 A3002 NOSIG=
200604131400 METAR MROC 131400Z 10014KT CAVOK 23/12 A3003 NOSIG=
200604131500 METAR MROC 131500Z 09013KT CAVOK 25/11 A3004 NOSIG=
200604131600 METAR MROC 131600Z 10014KT CAVOK 26/14 A3004=
200604131700 METAR MROC 131700Z 08010KT 9999 FEW040 SCT250 28/13 A3002=
200604131800 METAR MROC 131800Z 09009KT 9999 SCT035 BKN250 29/13 A3001=
200604131900 METAR MROC 131900Z 10011KT 9999 FEW030 SCT040 28/13 A2998 RMK RN DST S=
200604132000 METAR MROC 132000Z 10010KT 9999 -DZ SCT015TCU SCT100 28/13 A2998=
200604132100 METAR MROC 132100Z 19005KT 7000 -RA SCT015 SCT050 20/17 A2998 RMK VIS RED SW=
200604132200 METAR MROC 132200Z 04003KT 9999 DZ SCT020 SCT090 20/18 A2998=
200604132300 METAR MROC 132300Z 07006KT 9999 FEW025 SCT150 SCT250 22/18 A2998 RERA=
200604140000 METAR MROC 140000Z 15003KT 9999 SCT035 SCT250 20/17 A2999=
200604140100 METAR MROC 140100Z 09007KT CAVOK 19/15 A3001=
200604140200 METAR MROC 140200Z 08005KT CAVOK 19/15 A3003=
200604140300 METAR MROC 140300Z 10008KT CAVOK 20/15 A3005 NOSIG=
200604140500 METAR MROC 140500Z 10011KT CAVOK 20/14 A3004 NOSIG=
200604140600 METAR MROC 140600Z 09011KT CAVOK 20/13 A3003 NOSIG=
200604140700 METAR MROC 140700Z 10010KT CAVOK 20/13 A3001 NOSIG=
200604140800 METAR MROC 140800Z 10011KT CAVOK 19/13 A2999 NOSIG=
200604140900 METAR MROC 140900Z 09007KT CAVOK 19/13 A2999 NOSIG=
200604141010 METAR MROC 141010Z 08008KT CAVOK 19/13 A2999 NOSIG=
200604141100 METAR MROC 141100Z 08006KT CAVOK 19/13 A3000 NOSIG=
200604141200 METAR MROC 141200Z 07008KT CAVOK 19/13 A3000 NOSIG=
200604141300 METAR MROC 141300Z 10012KT CAVOK 21/13 A3001=
200604141400 METAR MROC 141400Z 08011KT CAVOK 23/14 A3003=
200604141500 METAR MROC 141500Z 10010KT CAVOK 24/14 A3004=
200604141600 METAR MROC 141600Z 11011KT CAVOK 26/14 A3003=
200604141700 METAR MROC 141700Z 09013KT 9999 FEW035 27/14 A3002=
200604141800 METAR MROC 141800Z 11010KT 9999 SCT030 27/14 A3000=
200604141900 METAR MROC 141900Z 12012KT 9999 FEW020TCU SCT040 28/15 A2997=
200604142000 METAR MROC 142000Z 11011KT 9999 SCT030TCU SCT140 26/14 A2994=
200604142100 METAR MROC 142100Z 10011KT 9999 SCT030TCU SCT100 25/14 A2993=
200604142200 METAR MROC 142200Z 10011KT 9999 SCT035TCU SCT120 24/14 A2993=
200604142300 METAR MROC 142300Z 10007KT 9999 SCT040TCU SCT120 24/14 A2993=
200604150000 METAR MROC 150000Z 09009KT 9999 SCT035 SCT090 22/14 A2996=
200604150100 METAR MROC 150100Z 09008KT 9999 SCT040 21/14 A2998=
200604150200 METAR MROC 150200Z 09006KT 9999 SCT035 20/14 A3001 NOSIG=
200604150300 METAR MROC 150300Z 08007KT 9999 FEW035 20/13 A3002 NOSIG=
200604150400 METAR MROC 150400Z 09005KT 9999 FEW035 20/12 A3004 NOSIG=
200604150500 METAR MROC 150500Z 06005KT CAVOK 19/14 A3003 NOSIG=
200604150600 METAR MROC 150600Z 04007KT CAVOK 18/10 A3002 NOSIG=
200604150700 METAR MROC 150700Z 06008KT CAVOK 18/10 A3001 NOSIG=
200604150800 METAR MROC 150800Z 09009KT CAVOK 19/12 A2998 NOSIG=
200604150900 METAR MROC 150900Z 10011KT CAVOK 19/11 A2997 NOSIG=
200604151000 METAR MROC 151000Z 10013KT CAVOK 19/12 A2998 NOSIG=
200604151100 METAR MROC 151100Z 10011KT CAVOK 19/10 A2999 NOSIG=
200604151200 METAR MROC 151200Z 08008KT CAVOK 18/10 A3001 RMK SCT120=
200604151300 METAR MROC 151300Z 09009KT CAVOK 21/12 A3002=
200604151400 METAR MROC 151400Z 09014KT CAVOK 24/13 A3004=
200604151500 METAR MROC 151500Z 10012KT CAVOK 25/12 A3004=
200604151600 METAR MROC 151600Z 11008KT CAVOK 28/11 A3003=
200604151700 METAR MROC 151700Z VRB03KT CAVOK 30/12 A3002=
200604151800 METAR MROC 151800Z 24011KT 9999 FEW040 30/12 A2998=
200604151900 METAR MROC 151900Z 21007KT 9999 SCT040 30/13 A2997=
200604152000 METAR MROC 152000Z 21009KT 9999 SCT030 29/15 A2994=
200604152200 METAR MROC 152200Z 19005KT 9999 SCT035 SCT100 25/18 A2995 NOSIG=
200604152300 METAR MROC 152300Z 18004KT 9999 SCT030 SCT100 26/19 A2996 NOSIG=
200604160000 METAR MROC 160000Z 14006KT 9999 -RA BKN030 SCT100 24/17 A2998 NOSIG=
200604160100 METAR MROC 160100Z 17005KT 9999 FEW035 SCT120 21/17 A3000=
200604160200 METAR MROC 160200Z 08007KT 9999 FEW035 SCT120 22/17 A3003=
200604160300 METAR MROC 160300Z VRB03KT 9999 FEW030 SCT100 22/17 A3005=
200604160400 METAR MROC 160400Z 06006KT CAVOK 21/16 A3006=
200604160500 METAR MROC 160500Z 08004KT CAVOK 20/16 A3006=
200604160600 METAR MROC 160600Z 08008KT CAVOK 20/15 A3004=
200604160700 METAR MROC 160700Z 05008KT CAVOK 19/15 A3002=
200604160900 METAR MROC 160900Z 05009KT CAVOK 18/14 A2999=
200604161000 METAR MROC 161000Z 04006KT CAVOK 18/14 A3001=
200604161100 METAR MROC 161100Z 05007KT CAVOK 17/14 A3002=
200604161200 METAR MROC 161200Z 08003KT CAVOK 18/14 A3004=
200604161300 METAR MROC 161300Z 05008KT CAVOK 22/14 A3006 NOSIG=
200604161400 METAR MROC 161400Z 10008KT CAVOK 25/14 A3007 NOSIG=
200604161500 METAR MROC 161500Z 10009KT CAVOK 27/14 A3008 NOSIG=
200604161600 METAR MROC 161600Z 10004KT 9999 FEW040 29/13 A3008 NOSIG=
200604161700 METAR MROC 161700Z 23003KT 9999 FEW030 30/13 A3005 NOSIG=
200604161800 METAR MROC 161800Z 24008KT 9999 SCT030 30/15 A3002 NOSIG=
200604161900 METAR MROC 161900Z 22007KT 9999 SCT035 31/15 A2999 NOSIG=
200604162000 METAR MROC 162000Z 23012KT 9999 SCT035 29/19 A2997 NOSIG=
200604162100 METAR MROC 162100Z 22011KT 9999 FEW020TCU SCT030 28/19 A2997 NOSIG=
200604162200 METAR MROC 162200Z 20006KT 9999 FEW020TCU SCT030 27/18 A2997 NOSIG=
200604162300 METAR MROC 162300Z 21005KT 9999 FEW025 BKN040 26/18 A2998 NOSIG=
200604162350 METAR MROC 162350Z 18004KT 9999 -DZ SCT035 SCT100 24/19 A2999=
200604170000 METAR MROC 170000Z 21003KT 9999 -DZ BKN035 SCT100 24/19 A3000 NOSIG=
200604170100 METAR MROC 170100Z 22003KT 9999 SCT035 SCT120 23/20 A3001 NOSIG=
200604170200 METAR MROC 170200Z 00000KT 9999 FEW040 SCT150 23/19 A3002=
200604170300 METAR MROC 170300Z 10004KT 9999 FEW040 SCT180 22/18 A3003=
200604170400 METAR MROC 170400Z 10004KT CAVOK 21/17 A3005=
200604170500 METAR MROC 170500Z 09006KT CAVOK 21/16 A3004=
200604170600 METAR MROC 170600Z 10004KT CAVOK 20/16 A3002=
200604170700 METAR MROC 170700Z 09003KT CAVOK 19/16 A3001=
200604170800 METAR MROC 170800Z 00000KT CAVOK 18/16 A3000=
200604171000 METAR MROC 171000Z 09003KT CAVOK 17/15 A3000=
200604171100 METAR MROC 171100Z 07003KT CAVOK 17/15 A3000=
200604171200 METAR MROC 171200Z 08003KT CAVOK 18/15 A3002=
200604171300 METAR MROC 171300Z 10003KT CAVOK 20/16 A3004 NOSIG=
200604171400 METAR MROC 171400Z 16003KT CAVOK 24/16 A3006 BECMG 26006KT RMK HZ SW W=
200604171500 METAR MROC 171500Z 22003KT CAVOK 25/17 A3006 NOSIG=
200604171600 METAR MROC 171600Z 23004KT CAVOK 27/16 A3005 NOSIG=
200604171700 METAR MROC 171700Z 25008KT 9999 FEW040 BKN250 28/16 A3003 NOSIG=
200604171800 METAR MROC 171800Z 25011KT 9999 FEW035 BKN250 29/17 A3002 NOSIG=
200604171900 METAR MROC 171900Z 23012KT 9999 FEW025 BKN250 29/18 A2999 NOSIG=
200604172000 METAR MROC 172000Z 22008KT 9999 FEW025TCU SCT030 BKN250 27/17 A2997 NOSIG=
200604172100 METAR MROC 172100Z 23009KT 9999 FEW025TCU SCT035 BKN300 27/19 A2996 BECMG RMK HZY=
200604172200 METAR MROC 172200Z 23010KT 9999 FEW020TCU BKN035 26/19 A2996 BECMG -RA RMK HZY=
200604172300 METAR MROC 172300Z 22009KT 9999 FEW020 SCT030 25/20 A2997 BECMG RMK HZY=
200604180000 METAR MROC 180000Z 23007KT 9999 FEW015 SCT030 22/19 A2998 BECMG RMK HZY=
200604180100 METAR MROC 180100Z 00000KT 9999 FEW025 SCT035 22/19 A3000 NOSIG=
200604180200 METAR MROC 180200Z 00000KT 9999 SCT035 21/19 A3001 NOSIG=
200604180300 METAR MROC 180300Z 00000KT 9999 FEW030 BKN100 21/19 A3002 NOSIG=
200604180400 METAR MROC 180400Z 00000KT 9999 SCT030 21/19 A3003 NOSIG=
200604180500 METAR MROC 180500Z 00000KT CAVOK 20/19 A3003 NOSIG=
200604180600 METAR MROC 180600Z 00000KT CAVOK 20/19 A3002 NOSIG=
200604180800 METAR MROC 180800Z 07004KT CAVOK 18/16 A2998 NOSIG=
200604180900 METAR MROC 180900Z 10004KT CAVOK 18/16 A2998 NOSIG=
200604181000 METAR MROC 181000Z 07003KT CAVOK 17/14 A2997 NOSIG=
200604181100 METAR MROC 181100Z 08003KT CAVOK 17/14 A2998 NOSIG=
200604181200 METAR MROC 181200Z 05006KT CAVOK 18/14 A2999 NOSIG=
200604181300 METAR MROC 181300Z 10003KT CAVOK 21/15 A3001 BECMG RMK HZY=
200604181400 METAR MROC 181400Z 00000KT CAVOK 24/17 A3003 BECMG 24007KT RMK HZY=
200604181500 METAR MROC 181500Z 25004KT 9999 FEW035 SCT300 25/18 A3003 BECMG RMK HZY=
200604181600 METAR MROC 181600Z 23006KT 9999 FEW035 SCT300 27/17 A3002 BECMG RMK HZY=
200604181700 METAR MROC 181700Z 25008KT 9999 FEW035 SCT300 28/16 A3001 BECMG RMK HZY=
200604181800 METAR MROC 181800Z 22007KT 9999 SCT035 29/17 A2999 BECMG RMK HZY=
200604181900 METAR MROC 181900Z 25009KT 9999 FEW030TCU SCT040 30/17 A2996 NOSIG=
200604182000 METAR MROC 182000Z 23008KT 9999 FEW025TCU SCT040 30/16 A2993 NOSIG=
200604182100 METAR MROC 182100Z 24012KT 9999 FEW020TCU SCT030 28/18 A2991 NOSIG=
200604182200 METAR MROC 182200Z 23013KT 9999 FEW020TCU SCT030 28/19 A2991 BECMG RMK RN DST S=
200604182300 METAR MROC 182300Z 24013KT 9999 FEW020 SCT030 26/19 A2993 NOSIG=
200604190000 METAR MROC 190000Z 23009KT 9999 FEW020 SCT030 23/20 A2994 NOSIG=
200604190100 METAR MROC 190100Z 24005KT 9999 FEW020 SCT035 22/19 A2997 NOSIG=
200604190200 METAR MROC 190200Z 24004KT 9999 SCT035 22/19 A2999 NOSIG=
200604190300 METAR MROC 190300Z 23003KT 9999 SCT025 SCT130 21/20 A3000 NOSIG=
200604190400 METAR MROC 190400Z 00000KT 9999 FEW008 SCT025 21/20 A3000 NOSIG=
200604190500 METAR MROC 190500Z 00000KT 9999 FEW006 SCT020 21/20 A2999 NOSIG=
200604190600 METAR MROC 190600Z 00000KT 9999 SCT004 SCT015 20/19 A2997 RMK 7000SW=
200604190700 METAR MROC 190700Z 24003KT 9999 FEW004 SCT020 BKN120 21/20 A2996 NOSIG=
200604190800 METAR MROC 190800Z 00000KT 9999 FEW004 SCT035 20/18 A2996 NOSIG=
200604190900 METAR MROC 190900Z 06003KT 9999 FEW010 SCT025 19/17 A2995 NOSIG=
200604191000 METAR MROC 191000Z 06006KT 9999 SCT025 SCT120 18/15 A2994 NOSIG=
200604191100 METAR MROC 191100Z 04005KT 9999 FEW025 SCT120 19/15 A2994 NOSIG=
200604191200 METAR MROC 191200Z 04006KT 9999 BKN250 20/16 A2995 RMK 7000SW HZ NOSIG=
200604191300 METAR MROC 191300Z 08003KT CAVOK 21/15 A2999 RMK HZ ARND=
200604191400 METAR MROC 191400Z 28003KT CAVOK 25/16 A3000 RMK HZ ARND=
200604191500 METAR MROC 191500Z 24005KT CAVOK 27/17 A2999 BECMG RMK HZ ARND=
200604191600 METAR MROC 191600Z 23007KT CAVOK 28/17 A2998 BECMG RMK HZ ARND=
200604191700 METAR MROC 191700Z 24007KT 9999 FEW040 BKN250 30/18 A2997 BECMG RMK HZ ARND=
200604191800 METAR MROC 191800Z 24015KT 9999 SCT030 BKN250 29/19 A2996 BECMG RMK HZ ARND=
200604191900 METAR MROC 191900Z 22009KT 9999 SCT025TCU BKN250 29/19 A2994 BECMG RMK HZ ARND=
200604192000 METAR MROC 192000Z 22009KT 9999 SCT020TCU BKN250 28/20 A2991 BECMG RMK HZ ARND RN DST ENE=
200604192100 METAR MROC 192100Z 22010KT 9999 SCT020TCU BKN250 28/20 A2991 BECMG 7000 VCSH RMK HZ ARND=
200604192200 METAR MROC 192200Z 12005KT 9999 SCT020TCU SCT030 24/15 A2990 BECMG 7000 RA=
200604192300 METAR MROC 192300Z 15004KT 5000 -RA BR SCT020 SCT030 BKN250 21/19 A2991 BECMG RMK HZ RN ARND=
200604200000 METAR MROC 200000Z 09004KT 8000 -RA SCT025 BKN100 21/19 A2994 NOSIG=
200604200100 METAR MROC 200100Z 00000KT 9999 SCT025 BKN100 21/20 A2995 NOSIG=
200604200200 METAR MROC 200200Z 09003KT 9999 DZ FEW025 OVC100 21/20 A2997 NOSIG=
200604200300 METAR MROC 200300Z 00000KT 9999 FEW020 BKN100 21/20 A2998 REDZ BECMG RMK HZY=
200604200400 METAR MROC 200400Z 00000KT 9999 FEW020 BKN100 21/20 A2998 NOSIG=
200604200500 METAR MROC 200500Z 05007KT CAVOK 21/17 A2996 NOSIG=
200604200600 METAR MROC 200600Z 05007KT CAVOK 21/14 A2994 NOSIG=
200604200700 METAR MROC 200700Z 06005KT CAVOK 21/12 A2992 NOSIG=
200604200800 METAR MROC 200800Z 06005KT CAVOK 22/11 A2991=
200604200900 METAR MROC 200900Z 03007KT CAVOK 20/12 A2991 NOSIG=
200604201000 METAR MROC 201000Z 07003KT CAVOK 19/11 A2992=
200604201100 METAR MROC 201100Z 03003KT CAVOK 18/12 A2994 RMK RMK LTNG DST S SSE=
200604201200 METAR MROC 201200Z 06003KT CAVOK 19/12 A2994=
200604201300 METAR MROC 201300Z 00000KT CAVOK 22/15 A2997 BECMG RMK HZ ARND=
200604201400 METAR MROC 201400Z 25003KT CAVOK 25/13 A2998 BECMG RMK HZ ARND=
200604201500 METAR MROC 201500Z 22007KT CAVOK 26/17 A2998 NOSIG=
200604201600 METAR MROC 201600Z 24011KT CAVOK 27/20 A2998 NOSIG=
200604201700 METAR MROC NIL=
200604201800 METAR MROC 201800Z 23009KT 9999 FEW030 BKN250 29/19 A2996 NOSIG=
200604201900 METAR MROC 201900Z /////KT 9999 SCT030 BKN250 28/20 A2989 NOSIG=
200604202000 METAR MROC 202000Z 21007KT 9999 SCT025 BKN250 26/20 A2988 BECMG 6000 VCSH=
200604202100 METAR MROC 202100Z 10003KT 6000 -RA FEW015 BKN035 22/19 A2990 RMK VSBY E/SE/S UNL VSBY SW 4KM NOSIG=
200604202200 METAR MROC 202200Z 24004KT 9999 FEW020 SCT035 BKN100 21/20 A2989 RERA RMK RN SW NOSIG=
200604202300 METAR MROC 202300Z 00000KT 9999 FEW030 BKN100 22/21 A2991 NOSIG=
200604210000 METAR MROC 210000Z 25003KT 9999 SCT030 BKN100 22/20 A2991 NOSIG=
200604210100 METAR MROC 210100Z 00000KT 9999 SCT030 BKN100 22/21 A2993 NOSIG=
200604210200 METAR MROC 210200Z 00000KT 9999 FEW030 BKN100 22/21 A2994 NOSIG=
200604210300 METAR MROC 210300Z 08003KT 9999 FEW030 BKN100 22/19 A2996 NOSIG=
200604210400 METAR MROC 210400Z 07003KT CAVOK 22/18 A2994 NOSIG=
200604210500 METAR MROC 210500Z 02003KT CAVOK 22/17 A2994 NOSIG=
200604210600 METAR MROC 210600Z 05010KT CAVOK 21/16 A2993 NOSIG=
200604210700 METAR MROC 210700Z 02007KT CAVOK 21/15 A2991 NOSIG=
200604210800 METAR MROC 210800Z 09003KT CAVOK 20/15 A2989 NOSIG=
200604210900 METAR MROC 210900Z 07004KT CAVOK 20/15 A2988 NOSIG=
200604211000 METAR MROC 211000Z 04008KT CAVOK 20/15 A2989 NOSIG=
200604211100 METAR MROC 211100Z 03005KT CAVOK 20/15 A2991 NOSIG=
200604211200 METAR MROC 211200Z 01006KT CAVOK 19/15 A2992 NOSIG=
200604211300 METAR MROC 211300Z 02006KT CAVOK 23/16 A2995 NOSIG=
200604211400 METAR MROC 211400Z 10010KT CAVOK 26/17 A2995 NOSIG=
200604211500 METAR MROC 211500Z 10011KT CAVOK 27/17 A2994=
200604211600 METAR MROC 211600Z 10012KT 9999 FEW035 29/18 A2993 NOSIG=
200604211700 METAR MROC 211700Z 10008KT 9999 FEW035 30/17 A2992 NOSIG=
200604211800 METAR MROC 211800Z 11008KT 9999 FEW035 31/18 A2990 NOSIG=
200604211900 METAR MROC 211900Z 15006KT 9999 FEW025 BKN045 29/19 A2988 NOSIG=
200604212000 METAR MROC 212000Z 09004KT 9999 BKN035 29/20 A2986 NOSIG=
200604212100 METAR MROC 212100Z 22011KT 9999 BKN035 29/22 A2984 NOSIG=
200604212200 METAR MROC 212200Z 24008KT 9999 FEW020TCU BKN030 26/21 A2984 RMK RN DST SW W BECMG -RA=
200604212300 METAR MROC 212300Z 12006KT 9999 FEW025 SCT030 27/19 A2986 NOSIG=
200604220000 METAR MROC 220000Z 32008KT 9999 SCT035 SCT250 24/22 A2990 NOSIG=
200604220100 METAR MROC 220100Z 00000KT 9999 FEW035 SCT120 24/22 A2991 NOSIG=
200604220200 METAR MROC 220200Z 09009KT 9999 FEW030 24/19 A2992 NOSIG=
200604220300 METAR MROC 220300Z 05005KT 9999 FEW035 23/19 A2992 BECMG CAVOK=
200604220400 METAR MROC 220400Z 25005KT 9999 FEW035 23/19 A2992 NOSIG=
200604220500 METAR MROC 220500Z 08007KT CAVOK 23/17 A2993=
200604220600 METAR MROC 220600Z 09006KT CAVOK 23/14 A2992 NOSIG=
200604220700 METAR MROC 220700Z 11010KT CAVOK 23/18 A2989 NOSIG=
200604220800 METAR MROC 220800Z 10005KT CAVOK 22/18 A2999 NOSIG=
200604220900 METAR MROC 220900Z 04007KT CAVOK 21/18 A2990 NOSIG=
200604221000 METAR MROC 221000Z 08005KT CAVOK 22/18 A2989 NOSIG=
200604221100 METAR MROC 221100Z 11009KT 9999 FEW030 SCT080 23/18 A2990 NOSIG=
200604221200 METAR MROC 221200Z 11008KT 9999 FEW030 SCT070 23/18 A2992 NOSIG=
200604221300 METAR MROC 221300Z 09011KT CAVOK 24/19 A2994 NOSIG=
200604221400 METAR MROC 221400Z 10010G20KT 9999 FEW030 SCT090 24/19 A2995 NOSIG=
200604221600 METAR MROC 221600Z 07014KT 9999 SCT030 29/17 A2995 NOSIG=
200604221700 METAR MROC 221700Z 07011KT 9999 FEW035 SCT120 28/18 A2993 NOSIG=
200604221800 METAR MROC 221800Z 08013KT 9999 FEW035 BKN120 29/18 A2992 NOSIG=
200604221900 METAR MROC 221900Z 08008KT 9999 FEW030 SCT120 30/18 A2989 NOSIG=
200604222000 METAR MROC 222000Z 06017KT 9999 SCT035 31/16 A2985 NOSIG=
200604222100 METAR MROC 222100Z 05013KT 9999 FEW040 SCT250 31/17 A2983 NOSIG=
200604222200 METAR MROC 222200Z 06012KT 9999 FEW035 SCT250 29/17 A2984 NOSIG=
200604222300 METAR MROC 222300Z 07013KT 9999 FEW035 27/17 A2986 BECMG RMK RFGS 20KT=
200604230000 METAR MROC 230000Z 10007KT 9999 FEW035 26/18 A2988=
200604230100 METAR MROC 230100Z 09006KT 9999 FEW035 25/19 A2991 NOSIG=
200604230200 METAR MROC 230200Z 01007KT 5000SW RA BKN030 23/19 A2993 BECMG 9999 -DZ SCT030=
200604230300 METAR MROC 230300Z 11004KT 9999 SCT035 22/20 A2994 NOSIG=
200604230400 METAR MROC 230400Z 05006KT CAVOK 22/19 A2994 NOSIG=
200604230500 METAR MROC 230500Z 11004KT CAVOK 23/19 A2993 NOSIG=
200604230600 METAR MROC 230600Z 10013KT CAVOK 23/18 A2992 NOSIG=
200604230700 METAR MROC 230700Z 09014KT CAVOK 23/19 A2989 NOSIG=
200604230800 METAR MROC 230800Z 10004KT CAVOK 22/18 A2989 NOSIG=
200604230900 METAR MROC 230900Z 07007KT CAVOK 23/18 A2988 NOSIG=
200604231000 METAR MROC 231000Z 10010KT CAVOK 23/18 A2989 NOSIG=
200604231100 METAR MROC 231100Z 11012KT CAVOK 22/17 A2990 NOSIG=
200604231200 METAR MROC 231200Z 06008KT 9999 FEW030 BKN270 22/18 A2993 NOSIG=
200604231300 METAR MROC 231300Z 01007KT 9999 FEW035 BKN250 24/18 A2995 NOSIG=
200604231400 METAR MROC 231400Z 09013KT 9999 FEW035 BKN250 26/17 A2996 NOSIG=
200604231500 METAR MROC 231500Z 08015KT 9999 FEW040 BKN250 27/17 A2997 NOSIG=
200604231600 METAR MROC 231600Z 08015KT 9999 FEW040 SCT300 28/17 A2997 BECMG RMK RFGS 21KTS=
200604231700 METAR MROC 231700Z 06017G27KT 9999 FEW035 30/15 A2996 NOSIG=
200604231800 METAR MROC 231800Z 08015KT 9999 FEW040 SCT300 30/15 A2994 NOSIG=
200604231900 METAR MROC 231900Z 07015KT 9999 FEW040 SCT300 30/15 A2991 BECMG RMK RFGS 22KTS=
200604232000 METAR MROC 232000Z 09014KT 9999 FEW040 SCT300 30/13 A2989 BECMG RMK RFGS 20KTS=
200604232100 METAR MROC 232100Z 09013KT 9999 FEW040 30/12 A2989=
200604232200 METAR MROC 232200Z 07014KT 9999 FEW040 29/12 A2989 NOSIG=
200604232300 METAR MROC 232300Z 07013KT 9999 FEW040 27/14 A2990 NOSIG=
200604240000 METAR MROC 240000Z 09012KT 9999 FEW030 25/14 A2993 NOSIG=
200604240100 METAR MROC 240100Z 10012KT 9999 FEW030 24/15 A2994 NOSIG=
200604240200 METAR MROC 240200Z 10014KT 9999 FEW030 23/16 A2996 NOSIG=
200604240300 METAR MROC 240300Z 10013KT CAVOK 23/16 A2997 NOSIG=
200604240400 METAR MROC 240400Z 10015KT CAVOK 22/16 A2998 NOSIG=
200604240500 METAR MROC 240500Z 10013KT CAVOK 22/16 A2998 NOSIG=
200604240600 METAR MROC 240600Z 10016KT CAVOK 22/16 A2996 NOSIG=
200604240700 METAR MROC 240700Z 10012KT CAVOK 22/16 A2994 NOSIG=
200604240800 METAR MROC 240800Z 10010KT CAVOK 22/16 A2992 NOSIG=
200604240900 METAR MROC 240900Z 09009KT CAVOK 22/16 A2989 NOSIG=
200604241000 METAR MROC 241000Z 06005KT CAVOK 21/16 A2990 NOSIG=
200604241100 METAR MROC 241100Z 07007KT CAVOK 21/16 A2991 NOSIG=
200604241200 METAR MROC 241200Z 09015G25KT CAVOK 22/16 A2991 NOSIG=
200604241300 METAR MROC 241300Z 09014KT 9999 FEW025 BKN250 23/16 A2993 NOSIG=
200604241400 METAR MROC 241400Z 10019KT 9999 FEW025 BKN250 25/17 A2995 NOSIG=
200604241500 METAR MROC 241500Z 10017KT 9999 FEW025 BKN250 27/16 A2997 NOSIG=
200604241600 METAR MROC 241600Z 09013KT 9999 FEW030 BKN250 28/24 A2996 NOSIG=
200604241700 METAR MROC 241700Z 10015KT 9999 FEW030 SCT250 29/16 A2996 NOSIG=
200604241800 METAR MROC 241800Z 07007KT 9999 FEW030 SCT250 30/16 A2994 NOSIG=
200604241900 METAR MROC 241900Z 08012KT 9999 SCT030 SCT250 31/16 A2990 NOSIG=
200604242000 METAR MROC 242000Z 09011KT 9999 SCT030 BKN250 30/17 A2987 NOSIG=
200604242100 METAR MROC 242100Z 08012KT 9999 FEW012TCU SCT080 SCT220 26/17 A2988 RMK RN S=
200604242200 METAR MROC 242200Z 11012KT 9000 FEW015 SCT090 SCT200 24/16 A2990 RMK VIS RED SW/RN=
200604242300 METAR MROC 242300Z 11008KT 9999 SCT025 SCT150 24/17 A2993=
200604250000 METAR MROC 250000Z 08008KT 9999 SCT025 SCT250 23/17 A2992=
200604250100 METAR MROC 250100Z 09009KT 9999 FEW030 SCT180 23/17 A2996=
200604250200 METAR MROC 250200Z 09010KT 9999 FEW040 SCT200 23/17 A2997=
200604250300 METAR MROC 250300Z 09011KT CAVOK 22/17 A2997=
200604250400 METAR MROC 250400Z 07004KT CAVOK 22/17 A2998 NOSIG=
200604250500 METAR MROC 250500Z 10006KT CAVOK 22/18 A2996 NOSIG=
200604250600 METAR MROC 250600Z 08008KT CAVOK 22/17 A2994 NOSIG=
200604250700 METAR MROC 250700Z 09012KT CAVOK 22/17 A2992 NOSIG=
200604250800 METAR MROC 250800Z 09008KT CAVOK 21/17 A2990 NOSIG=
200604250900 METAR MROC 250900Z 00000KT CAVOK 21/17 A2989 BECMG RMK LTNG DST SSE=
200604251000 METAR MROC 251000Z 00000KT CAVOK 21/17 A2992 BECMG RMK LTNG DST S SSE=
200604251100 METAR MROC 251100Z 07005KT CAVOK 19/16 A2992 NOSIG=
200604251200 METAR MROC 251200Z 01005KT CAVOK 20/16 A2995 NOSIG=
200604251300 METAR MROC 251300Z 35004KT CAVOK 22/17 A2996=
200604251400 METAR MROC 251400Z 00000KT 9999 FEW040 SCT120 24/18 A2999=
200604251500 METAR MROC 251500Z 10005KT 9999 FEW025 BKN220 27/18 A2998=
200604251600 METAR MROC 251600Z 10018KT 9999 SCT020 SCT080 25/17 A2999 BECMG 5000 RA=
200604251700 METAR MROC 251700Z 12011KT 9999 SCT035 SCT150 24/17 A3000 RERA RMK RN ARND=
200604251800 METAR MROC 251800Z 11011KT 9999 FEW040 BKN200 26/17 A2996=
200604251900 METAR MROC 251900Z 09011KT 9999 FEW045 BKN220 28/16 A2992=
200604252000 METAR MROC 252000Z 09010KT 9999 FEW045 BKN220 28/15 A2989=
200604252100 METAR MROC 252100Z 10012KT 9999 FEW030 SCT100 BKN250 27/14 A2989 NOSIG=
200604252200 METAR MROC 252200Z 10012KT 9999 FEW030 SCT100 BKN250 26/15 A2991 NOSIG=
200604252300 METAR MROC 252300Z 11010KT 9999 FEW020 BKN250 24/16 A2992 NOSIG=
200604260000 METAR MROC 260000Z 11009KT CAVOK 24/16 A2995 NOSIG=
200604260100 METAR MROC 260100Z 08009KT CAVOK 23/16 A2996 NOSIG=
200604260200 METAR MROC 260200Z 10006KT CAVOK 23/16 A2998 NOSIG=
200604260300 METAR MROC 260300Z 10005KT CAVOK 22/16 A3002 NOSIG=
200604260500 METAR MROC 260500Z 00000KT 9999 FEW004 SCT030 20/16 A3001 NOSIG=
200604260600 METAR MROC 260600Z 00000KT 9999 3000SW BR FEW003 SCT030 20/19 A2999 NOSIG=
200604260700 METAR MROC 260700Z 00000KT 9999 FEW004 SCT030 19/18 A2998 NOSIG=
200604260800 METAR MROC 260800Z 05007KT 9999 FEW005 SCT030 19/17 A2996 NOSIG=
200604260900 METAR MROC 260900Z 07004KT 9999 SCT030 20/16 A2995 NOSIG=
200604261000 METAR MROC 261000Z 08004KT CAVOK 20/16 A2996 NOSIG=
200604261100 METAR MROC 261100Z 07005KT CAVOK 19/16 A2996 NOSIG=
200604261200 METAR MROC 261200Z 06007KT CAVOK 20/17 A2997 NOSIG=
200604261300 METAR MROC 261300Z 08004KT CAVOK 23/17 A2997 NOSIG=
200604261400 METAR MROC 261400Z 06005KT CAVOK 27/17 A3000 NOSIG=
200604261500 METAR MROC 261500Z 23007KT CAVOK 26/18 A3002 BECMG 9999 SCT030 SCT120 BKN250=
200604261600 METAR MROC 261600Z 21004KT 9999 FEW030 SCT130 BKN250 28/17 A3001 NOSIG=
200604261700 METAR MROC 261700Z 09009KT 9999 FEW040 SCT120 BKN250 30/16 A2999 NOSIG=
200604261800 METAR MROC 261800Z 10011KT 9999 FEW040 BKN260 30/17 A2997 NOSIG=
200604261900 METAR MROC 261900Z 10012KT 9999 SCT035 BKN260 30/16 A2994 NOSIG=
200604262000 METAR MROC 262000Z 10008KT 9999 FEW020TCU BKN035 29/16 A2992 RMK CB/RN SE VSBY NW 6KM DUE RN NOSIG=
200604262100 METAR MROC 262100Z 14005KT 9999 3000SW -RA FEW003 SCT030 BKN080 19/18 A2993 NOSIG=
200604262200 METAR MROC 262200Z 07006KT 9999 -DZ FEW030 BKN110 20/19 A2992 NOSIG=
200604262300 METAR MROC 262300Z 00000KT 9999 -DZ FEW035 SCT120 SCT220 21/19 A2994 NOSIG=
200604270000 METAR MROC 270000Z 08005KT 9999 -RA BKN090 21/18 A2996 NOSIG=
200604270100 METAR MROC 270100Z 10008KT CAVOK 22/19 A2997 NOSIG=
200604270200 METAR MROC 270200Z 06006KT CAVOK 22/18 A3000 NOSIG=
200604270300 METAR MROC 270300Z 00000KT CAVOK 22/18 A3002 RMK SCT100=
200604270400 METAR MROC 270400Z 27005KT CAVOK 21/18 A3004=
200604270500 METAR MROC 270500Z 00000KT CAVOK 21/19 A3001=
200604270600 METAR MROC 270600Z 00000KT CAVOK 22/18 A3001 NOSIG=
200604270700 METAR MROC 270700Z 06008KT CAVOK 20/18 A2999=
200604270800 METAR MROC 270800Z 07007KT CAVOK 21/17 A2995=
200604270900 METAR MROC 270900Z 11008KT CAVOK 21/17 A2994=
200604271100 METAR MROC 271100Z 03007KT CAVOK 20/17 A2996=
200604271200 METAR MROC 271200Z 07003KT CAVOK 21/17 A2999=
200604271300 METAR MROC 271300Z VRB03KT CAVOK 21/18 A3002 NOSIG=
200604271400 METAR MROC 271400Z 00000KT CAVOK 23/18 A3004 BECMG 24006KT=
200604271500 METAR MROC 271500Z 27005KT CAVOK 26/18 A3003 NOSIG=
200604271600 METAR MROC 271600Z 16007KT 9999 FEW045 BKN250 28/20 A3001 NOSIG=
200604271700 METAR MROC 271700Z 23006KT 9999 FEW040 SCT250 27/20 A3001 NOSIG=
200604271800 METAR MROC 271800Z 23010KT 9999 SCT035 28/20 A2999 NOSIG=
200604271900 METAR MROC 271900Z 22009KT 9999 SCT030 28/20 A2997 NOSIG=
200604272000 METAR MROC 272000Z 21010KT 9999 FEW015CB BKN030 25/21 A2995 BECMG 4000=
200604272100 METAR MROC 272100Z 10007KT 5000 TSRA SCT012CB SCT025 BKN100 19/18 A2997 BECMG 7000 RMK VIS E QUAD UNLTD=
200604272200 METAR MROC 272200Z VRB03KT 9999 DZ SCT035 BKN100 18/16 A2996 BECMG RMK VIS SSW SW 7KMS DUE RN=
200604272300 METAR MROC 272300Z 00000KT 9999 SCT030 BKN120 21/17 A2997 NOSIG=
200604280000 METAR MROC 280000Z 00000KT 9999 FEW025 SCT040 BKN250 20/19 A2999 NOSIG=
200604280100 METAR MROC 280100Z 05003KT 9999 FEW025 SCT040 BKN250 20/19 A2999 NOSIG=
200604280200 METAR MROC 280200Z 01007KT 9999 FEW025 BKN250 20/18 A3001 NOSIG=
200604280300 METAR MROC 280300Z 08004KT CAVOK 20/18 A3002 NOSIG=
200604280400 METAR MROC 280400Z 05005KT CAVOK 20/17 A3003 NOSIG=
200604280500 METAR MROC 280500Z 02004KT CAVOK 19/17 A3002 NOSIG=
200604280600 METAR MROC 280600Z 09006KT CAVOK 20/16 A3000 NOSIG=
200604280700 METAR MROC 280700Z 10009KT CAVOK 18/15 A2998 NOSIG=
200604280800 METAR MROC 280800Z 09006KT CAVOK 19/16 A2995 NOSIG=
200604280900 METAR MROC 280900Z 05007KT CAVOK 19/15 A2996 NOSIG=
200604281000 METAR MROC 281000Z 06008KT CAVOK 17/14 A2995 NOSIG=
200604281100 METAR MROC 281100Z 02004KT CAVOK 17/14 A2997 NOSIG=
200604281200 METAR MROC 281200Z 05005KT CAVOK 20/15 A2999 NOSIG=
200604281300 METAR MROC 281300Z 03005KT CAVOK 22/17 A3000 NOSIG=
200604281400 METAR MROC 281400Z 10014KT CAVOK 24/16 A3000 NOSIG=
200604281500 METAR MROC 281500Z 10012KT CAVOK 26/16 A3001 NOSIG=
200604281600 METAR MROC 281600Z 10010KT CAVOK 29/16 A3000 BECMG 24006KT=
200604281700 METAR MROC 281700Z 12007KT 9999 FEW040 29/16 A2999 NOSIG=
200604281735 METAR MROC 281735Z 24010KT 9999 SCT040 27/19 A2998 NOSIG=
200604281800 METAR MROC 281800Z 23010KT 9999 SCT040 27/20 A2997 BECMG 5000 VCSH=
200604281900 METAR MROC 281900Z 23008KT 9999 FEW025TCU SCT040 27/20 A2995 NOSIG=
200604282000 METAR MROC 282000Z 22008KT 9999 FEW025TCU SCT040 27/20 A2993 NOSIG=
200604282100 METAR MROC 282100Z 31011KT 9999 4000W SCT010CB SCT025 BKN100 22/20 A2991 BECMG 2000 TSRA RMK RASH W NW=
200604282200 METAR MROC 282200Z 24006KT 9999 FEW015TCU SCT035 23/21 A2991 NOSIG=
200604282300 METAR MROC 282300Z 25005KT 9999 FEW020 SCT035 23/21 A2992 NOSIG=
200604290000 METAR MROC 290000Z 25005KT 8000 SCT020 BKN230 22/20 A2994 NOSIG=
200604290100 METAR MROC 290100Z 00000KT 9999 SCT030 22/20 A2996 NOSIG=
200604290200 METAR MROC 290200Z 00000KT 9999 SCT030 21/20 A2998 NOSIG=
200604290300 METAR MROC 290300Z 07005KT CAVOK 21/18 A2998 NOSIG=
200604290400 METAR MROC 290400Z 04006KT CAVOK 21/19 A2998 NOSIG=
200604290500 METAR MROC 290500Z 05008KT CAVOK 21/18 A2996 NOSIG=
200604290600 METAR MROC 290600Z 07005KT 9999 FEW030 21/18 A2996 NOSIG=
200604290700 METAR MROC 290700Z 00000KT 9999 BKN030 21/17 A2994 NOSIG=
200604290800 METAR MROC 290800Z 10009KT 9999 SCT030 21/17 A2992 NOSIG=
200604290900 METAR MROC 290900Z 10009KT CAVOK 21/16 A2991 NOSIG=
200604291000 METAR MROC 291000Z 10010KT CAVOK 20/16 A2991 NOSIG=
200604291100 METAR MROC 291100Z 09009KT CAVOK 21/16 A2992 NOSIG=
200604291200 METAR MROC 291200Z 04007KT CAVOK 21/16 A2993 NOSIG=
200604291300 METAR MROC 291300Z 09010KT CAVOK 24/16 A2995 NOSIG=
200604291400 METAR MROC 291400Z 12012KT CAVOK 25/16 A2996 NOSIG=
200604291500 METAR MROC 291500Z 09012KT 9999 FEW030 27/16 A2997 NOSIG=
200604291600 METAR MROC 291600Z 08011KT 9999 FEW030 28/16 A2997 NOSIG=
200604291700 METAR MROC 291700Z 10010KT 9999 FEW030 29/16 A2995 NOSIG=
200604291800 METAR MROC 291800Z 12010KT 9999 SCT030 30/16 A2993 NOSIG=
200604291900 METAR MROC 291900Z 11013KT 9999 SCT030 29/16 A2990 NOSIG=
200604292000 METAR MROC 292000Z 09012KT 9999 SCT030 29/17 A2988 NOSIG=
200604292100 METAR MROC 292100Z 11008KT 9999 SCT030TCU 29/17 A2987=
200604292200 METAR MROC 292200Z 22010KT 9999 FEW030TCU SCT150 27/20 A2988=
200604292300 METAR MROC 292300Z 23007KT 9999 SCT030 SCT180 24/20 A2989=
200604300000 METAR MROC 300000Z 25009KT 9999 SCT020 SCT180 23/20 A2990=
200604300100 METAR MROC 300100Z 28004KT 9999 FEW025 SCT100 23/21 A2993=
200604300200 METAR MROC 300200Z 25004KT 9999 SCT040 22/21 A2995=
200604300300 METAR MROC 300300Z 07005KT 9999 SCT040 22/18 A2996 NOSIG=
200604300400 METAR MROC 300400Z 08005KT 9999 FEW040 21/17 A2997 NOSIG=
200604300500 METAR MROC 300500Z 05006KT CAVOK 21/17 A2997 NOSIG=
200604300600 METAR MROC 300600Z 08005KT CAVOK 21/17 A2995 NOSIG=
200604300700 METAR MROC 300700Z 05008KT CAVOK 20/16 A2992 NOSIG=
200604300800 METAR MROC 300800Z 08007KT CAVOK 20/16 A2990 NOSIG=
200604300900 METAR MROC 300900Z 02005KT CAVOK 19/15 A2990 BECMG RMK LTNG DST S SSW=
200604301000 METAR MROC 301000Z 06007KT CAVOK 19/15 A2990 BECMG RMK OCNL LTNG DST S SSW=
200604301100 METAR MROC 301100Z 05008KT CAVOK 19/15 A2992 NOSIG=
200604301200 METAR MROC 301200Z 05007KT CAVOK 20/15 A2993 NOSIG=
200604301300 METAR MROC 301300Z 01004KT CAVOK 22/15 A2995=
200604301400 METAR MROC 301400Z 09009KT CAVOK 26/16 A2996=
200604301500 METAR MROC 301500Z 09012KT CAVOK 26/15 A2997=
200604301600 METAR MROC 301600Z 11011KT CAVOK 28/16 A2996=
200604301700 METAR MROC 301700Z 09010KT CAVOK 29/15 A2995=
200604301800 METAR MROC 301800Z 11012KT 9999 FEW035 SCT250 30/15 A2992=
200604301900 METAR MROC 301900Z 12012KT 9999 SCT030 SCT250 29/15 A2990=
200604302000 METAR MROC 302000Z 14005KT 9999 SCT025TCU SCT250 28/16 A2988 BECMG 24008KT=
200604302100 METAR MROC 302100Z 19007KT 9999 SCT025 BKN250 27/21 A2987 RMK TCU RN SW NOSIG=
200604302200 METAR MROC 302200Z 22009KT 9999 BKN030 BKN250 24/20 A2988 NOSIG=
200604302300 METAR MROC 302300Z 22008KT 9999 FEW012 SCT025 BKN250 24/21 A2988 NOSIG=
200605010000 METAR MROC 010000Z 00000KT 9999 FEW015 SCT025 BKN250 23/20 A2989 NOSIG=
200605010100 METAR MROC 010100Z 09004KT 9999 FEW025 SCT250 22/16 A2991 NOSIG=
200605010200 METAR MROC 010200Z 09008KT 9999 22/15 A2991 NOSIG=
200605010300 METAR MROC 010300Z 08005KT CAVOK 22/14 A2995 NOSIG=
200605010600 METAR MROC 010600Z 07007KT CAVOK 20/12 A2995 NOSIG=
200605010700 METAR MROC 010700Z 09006KT CAVOK 20/12 A2991 NOSIG=
200605010800 METAR MROC 010800Z 03005KT CAVOK 19/12 A2991 NOSIG=
200605010900 METAR MROC 010900Z 06007KT CAVOK 20/11 A2990 NOSIG=
200605011000 METAR MROC 011000Z 09004KT CAVOK 19/12 A2990 NOSIG=
200605011100 METAR MROC 011100Z 10008KT CAVOK 20/12 A2990 NOSIG=
200605011200 METAR MROC 011200Z 08007KT CAVOK 21/12 A2991 NOSIG=
200605011300 METAR MROC 011300Z 09007KT CAVOK 22/12 A2994 NOSIG=
200605011400 METAR MROC 011400Z 11008KT CAVOK 25/13 A2994 NOSIG=
200605011500 METAR MROC 011500Z 11013KT CAVOK 27/12 A2994 NOSIG=
200605011700 METAR MROC 011700Z 12008KT 9999 30/12 A2993 NOSIG=
200605011800 METAR MROC 011800Z 23005KT 9999 FEW035 29/18 A2991 NOSIG=
200605011900 METAR MROC 011900Z 21006KT 9999 FEW030 30/19 A2990 NOSIG=
200605012000 METAR MROC 012000Z 19007KT 9999 SCT025 29/19 A2988 NOSIG=
200605012100 METAR MROC 012100Z 17006KT 9999 SCT030 29/18 A2988 NOSIG=
200605012200 METAR MROC 012200Z 23011KT 9999 SCT030 28/19 A2988 NOSIG=
200605012300 METAR MROC 012300Z 22008KT 9999 FEW030 26/19 A2990 NOSIG=
200605020000 METAR MROC 020000Z 25010KT 9999 FEW025 SCT110 24/19 A2993 NOSIG=
200605020100 METAR MROC 020100Z 31003KT 9999 FEW030 23/20 A2995 NOSIG=
200605020200 METAR MROC 020200Z 09006KT CAVOK 22/17 A2997 NOSIG=
200605020300 METAR MROC 020300Z 10005KT CAVOK 22/15 A2998=
200605020400 METAR MROC 020400Z 10011KT CAVOK 21/15 A2998=
200605020500 METAR MROC 020500Z 10012KT CAVOK 21/14 A2998=
200605020600 METAR MROC 020600Z 10011KT CAVOK 21/14 A2997=
200605020700 METAR MROC 020700Z 10012KT CAVOK 21/13 A2994=
200605020900 METAR MROC 020900Z 05009KT CAVOK 19/11 A2993=
200605021000 METAR MROC 021000Z 06005KT CAVOK 18/11 A2993=
200605021100 METAR MROC 021100Z 09008KT CAVOK 20/11 A2994 NOSIG=
200605021200 METAR MROC 021200Z 07008KT CAVOK 21/12 A2995=
200605021300 METAR MROC 021300Z 05008KT CAVOK 23/13 A2997 NOSIG=
200605021400 METAR MROC 021400Z 10011G21KT CAVOK 25/11 A2996 NOSIG=
200605021500 METAR MROC 021500Z 10013KT CAVOK 28/10 A2997 NOSIG=
200605021600 METAR MROC 021600Z 09011G21KT CAVOK 29/08 A2995 NOSIG=
200605021700 METAR MROC 021700Z 10012KT CAVOK 30/12 A2994 NOSIG=
200605021800 METAR MROC 021800Z 10016KT CAVOK 30/13 A2992 NOSIG=
200605021900 METAR MROC 021900Z 10013KT 9999 FEW045 30/13 A2991 NOSIG=
200605022000 METAR MROC 022000Z 09011KT 9999 FEW040 30/14 A2989 NOSIG=
200605022100 METAR MROC 022100Z 10011KT 9999 FEW040 30/14 A2989 BECMG RMK CB DST ESE TCU DST SW=
200605022200 METAR MROC 022200Z 08010KT 9999 FEW030 SCT250 29/16 A2990 RMK CB/TCU DST S SSW=
200605022300 METAR MROC 022300Z 15004KT 9999 SCT035 BKN250 27/17 A2993 BECMG RMK CBS DST SE S SW=
200605030000 METAR MROC 030000Z 14003KT 9999 FEW030 SCT250 25/17 A2996 NOSIG=
200605030100 METAR MROC 030100Z 13005KT 9999 FEW030 SCT250 23/17 A2997 NOSIG=
200605030200 METAR MROC 030200Z 16003KT 9999 SCT030 23/20 A2999  NOSIG=
200605030300 METAR MROC 030300Z 23003KT 9999 FEW030 22/20 A3001 NOSIG=
200605030400 METAR MROC 030400Z 00000KT 9999 FEW025 22/20 A3001 NOSIG=
200605030500 METAR MROC 030500Z 00000KT 9999 FEW035 21/18 A3000 NOSIG=
200605030600 METAR MROC 030600Z 07007KT CAVOK 21/15 A3000 NOSIG=
200605030700 METAR MROC 030700Z 05007KT CAVOK 20/14 A2999 NOSIG=
200605030800 METAR MROC 030800Z 04008KT CAVOK 20/14 A2997 NOSIG=
200605030900 METAR MROC 030900Z 09010KT CAVOK 21/14 A2995 NOSIG=
200605031000 METAR MROC 031000Z 35006KT CAVOK 19/14 A2996 NOSIG=
200605031100 METAR MROC 031100Z 05007KT CAVOK 20/13 A2997 NOSIG=
200605031200 METAR MROC 031200Z 09007KT CAVOK 22/13 A2999 NOSIG=
200605031300 METAR MROC 031300Z 05005KT CAVOK 23/13 A3001 NOSIG=
200605031400 METAR MROC 031400Z 10007KT CAVOK 23/14 A3002 NOSIG=
200605031500 METAR MROC 031500Z 10008KT CAVOK 24/15 A3003 NOSIG=
200605031600 METAR MROC 031600Z 10009KT CAVOK 27/14 A3000 NOSIG=
200605031700 METAR MROC 031700Z 11011KT CAVOK 27/15 A2999 NOSIG=
200605031800 METAR MROC 031800Z 10012KT CAVOK 27/16 A2998 NOSIG=
200605031900 METAR MROC 031900Z 11010KT 9999 FEW040 SCT140 BKN250 28/17 A2995 NOSIG=
200605032000 METAR MROC 032000Z 09011KT 9999 FEW035 SCT140 BKN220 27/17 A2993 NOSIG=
200605032100 METAR MROC 032100Z 08012KT 9999 SCT030 BKN220 27/18 A2992 RMK RN NE NOSIG=
200605032200 METAR MROC 032200Z 09010KT 9999 FEW030 BKN220 26/18 A2991 NOSIG=
200605032300 METAR MROC 032300Z 10010KT 9999 FEW030 BKN220 26/18 A2992 NOSIG=
200605040000 METAR MROC 040000Z 10007KT 9999 FEW030 BKN220 23/16 A2994 NOSIG=
200605040100 METAR MROC 040100Z 10013KT 9999 FEW030 BKN220 22/17 A2996 NOSIG=
200605040200 METAR MROC 040200Z 10012KT 9999 FEW030 SCT200 22/16 A2997 NOSIG=
200605040300 METAR MROC 040300Z 10008KT CAVOK 22/15 A2999 NOSIG=
200605040400 METAR MROC 040400Z 09007KT CAVOK 21/15 A3000 NOSIG=
200605040500 METAR MROC 040500Z 10008KT CAVOK 21/15 A2999 NOSIG=
200605040600 METAR MROC 040600Z 29003KT CAVOK 20/15 A2999 NOSIG=
200605040700 METAR MROC 040700Z 08004KT CAVOK 19/15 A2998 NOSIG=
200605040800 METAR MROC 040800Z 05005KT CAVOK 19/14 A2997 NOSIG=
200605040900 METAR MROC 040900Z 06005KT CAVOK 19/15 A2997 NOSIG=
200605041000 METAR MROC 041000Z 06008KT CAVOK 19/15 A2996 NOSIG=
200605041100 METAR MROC 041100Z 06009KT CAVOK 19/14 A2997 NOSIG=
200605041200 METAR MROC 041200Z 06007KT CAVOK 19/14 A2997 NOSIG=
200605041300 METAR MROC 041300Z 07008KT CAVOK 23/15 A2999 NOSIG=
200605041400 METAR MROC 041400Z 09012KT CAVOK 26/14 A2999 NOSIG=
200605041500 METAR MROC 041500Z 10015KT CAVOK 27/14 A3000 NOSIG=
200605041600 METAR MROC 041600Z 11010KT CAVOK 29/15 A3000 NOSIG=
200605041700 METAR MROC 041700Z 11010KT 9999 FEW045 BKN250 29/15 A2998 NOSIG=
200605041800 METAR MROC 041800Z 09010KT 9999 FEW040 BKN250 30/15 A2997 NOSIG=
200605041900 METAR MROC 041900Z 11009KT 9999 FEW040 BKN250 31/14 A2994 NOSIG=
200605042000 METAR MROC 042000Z 22011KT 9999 SCT035TCU BKN250 29/19 A2993 NOSIG=
200605042100 METAR MROC 042100Z 22009KT 9999 SCT030 SCT250 28/20 A2992=
200605042200 METAR MROC 042200Z 22011KT 9999 SCT035 SCT250 27/20 A2992=
200605042300 METAR MROC 042300Z 22008KT 9999 SCT030TCU SCT250 25/20 A2993=
200605050000 METAR MROC 050000Z 23008KT 9999 FEW020 SCT035 24/19 A2995=
200605050100 METAR MROC 050100Z 22004KT 9999 FEW035 SCT120 23/20 A2998=
200605050200 METAR MROC 050200Z 24004KT 9999 FEW040 SCT150 22/20 A2999=
200605050300 METAR MROC 050300Z 09007KT CAVOK 22/16 A3002 NOSIG=
200605050400 METAR MROC 050400Z 10008KT CAVOK 22/17 A3001 NOSIG=
200605050500 METAR MROC 050500Z 07009KT CAVOK 21/17 A3001 NOSIG=
200605050600 METAR MROC 050600Z 06008KT CAVOK 21/17 A3000 NOSIG=
200605050700 METAR MROC 050700Z 07009KT CAVOK 21/16 A2998 NOSIG=
200605050800 METAR MROC 050800Z 05007KT CAVOK 20/16 A2996 NOSIG=
200605050900 METAR MROC 050900Z 08007KT CAVOK 21/16 A2995 NOSIG=
200605051000 METAR MROC 051000Z 08003KT CAVOK 20/16 A2995 NOSIG=
200605051100 METAR MROC 051100Z 06003KT CAVOK 19/16 A2995 NOSIG=
200605051200 METAR MROC 051200Z 06009KT CAVOK 21/17 A2997 NOSIG=
200605051300 METAR MROC 051300Z 06008KT CAVOK 23/17 A2998=
200605051400 METAR MROC 051400Z 10008KT 9999 FEW030 BKN220 24/17 A2999 BECMG 24008KT=
200605051500 METAR MROC 051500Z 10013KT 9999 FEW035 SCT250 25/16 A3000=
200605051600 METAR MROC 051600Z 10015KT 9999 FEW035 SCT250 26/17 A3000=
200605051700 METAR MROC 051700Z 10012KT 9999 FEW040 SCT250 27/17 A2999=
200605051800 METAR MROC 051800Z 10008KT 9999 FEW035 BKN250 27/18 A2999=
200605051900 METAR MROC 051900Z 10007KT 9999 SCT030 SCT150 27/18 A2996 BECMG 24008KT=
200605052000 METAR MROC 052000Z 11007KT 9999 SCT30TCU SCT130 29/18 A2994 NOSIG=
200605052100 METAR MROC 052100Z 22008KT 9999 SCT025TCU BKN300 26/20 A2992 NOSIG=
200605052200 METAR MROC 052200Z 19005KT 9999 SCT025 BKN280 25/21 A2992 NOSIG=
200605052300 METAR MROC 052300Z 19006KT 9999 FEW010 SCT025 BKN280 24/18 A2994 RMK VSBY SW W NW N 6KM LOW ST RN SW NOSIG=
200605060000 METAR MROC 060000Z 10010KT 9999 FEW012 SCT030 23/17 A2997 NOSIG=
200605060100 METAR MROC 060100Z 08008KT 9999 SCT030 23/18 A3000 NOSIG=
200605060200 METAR MROC 060200Z 11004KT 9999 FEW030 22/17 A3001 NOSIG=
200605060500 METAR MROC 060500Z 08003KT CAVOK 21/17 A3002 BECMG RMK LTNG DST S=
200605060600 METAR MROC 060600Z 08003KT CAVOK 21/17 A2999 BECMG RMK LTNG DST S=
200605060700 METAR MROC 060700Z 00000KT CAVOK 20/17 A2997 NOSIG=
200605060800 METAR MROC 060800Z 00000KT CAVOK 19/17 A2994 NOSIG=
200605060900 METAR MROC 060900Z 36004KT CAVOK 20/16 A2993 NOSIG=
200605061000 METAR MROC 061000Z 07004KT 9999 FEW040 21/16 A2994 NOSIG=
200605061100 METAR MROC 061100Z 05004KT 9999 FEW040 21/16 A2995 NOSIG=
200605061200 METAR MROC 061200Z 07006KT CAVOK 21/16 A2996 NOSIG=
200605061300 METAR MROC 061300Z 08007KT CAVOK 24/17 A2997 NOSIG=
200605061400 METAR MROC 061400Z 22007KT CAVOK 24/18 A2999 NOSIG=
200605061500 METAR MROC 061500Z 23011KT 9999 FEW020 BKN280 25/20 A3001 NOSIG=
200605061600 METAR MROC 061600Z 24008KT 9999 FEW025 BKN280 25/20 A3001 NOSIG=
200605061700 METAR MROC 061700Z 23008KT 9999 SCT020 BKN280 26/20 A3000 NOSIG=
200605061800 METAR MROC 061800Z 23009KT 9999 SCT025 BKN280 26/20 A2998 NOSIG=
200605061900 METAR MROC 061900Z 23011KT 9999 SCT025 BKN280 26/20 A2996 NOSIG=
200605062000 METAR MROC 062000Z 21008KT 9999 SCT025 BKN280 26/20 A2994 RMK CB RN E RN NW NOSIG=
200605062100 METAR MROC 062100Z 23005KT 9999 FEW015CB SCT025 BKN120 25/20 A2993 RMK RN DST NNE NE NOSIG=
200605062200 METAR MROC 062200Z 17004KT 9999 FEW015TCU SCT025 BKN120 25/20 A2993 RMK RN DST NW N NE E=
200605062235 METAR MROC 062235Z 22007KT 9999 1500 VCSH FEW012 SCT025 BKN120 24/20 A2993 BECMG -RA=
200605062300 METAR MROC 062300Z 24008KT 9999 1000N RA SCT015 BKN025 23/21 A2994 NOSIG=
200605070000 METAR MROC 070000Z 00000KT 9999 -RA FEW015 BKN080 22/21 A2996 NOSIG=
200605070100 METAR MROC 070100Z 28003KT 9999 FEW005 SCT015 22/21 A2998 BECMG 5000 BR=
200605070200 METAR MROC 070200Z 28003KT 9999 FEW005 SCT015 SCT100 22/21 A3000 NOSIG=
200605070300 METAR MROC 070300Z 00000KT 9999 FEW010 SCT090 22/21 A3002 RMK BR ARND=
200605070400 METAR MROC 070400Z 29004KT 9999 FEW010 SCT090 22/21 A3002 RMK BR ARND=
200605070500 METAR MROC 070500Z 00000KT 9999 FEW010 21/20 A3001 RMK BR ARND=
200605070600 METAR MROC 070600Z 07004KT CAVOK 21/19 A2999=
200605070700 METAR MROC 070700Z 05008KT CAVOK 20/18 A2997=
200605071000 METAR MROC 071000Z 04003KT CAVOK 19/17 A2995=
200605071100 METAR MROC 071100Z 00000KT CAVOK 18/17 A2996 NOSIG=
200605071200 METAR MROC 071200Z 01004KT CAVOK 19/17 A2998=
200605071300 METAR MROC 071300Z 35006KT CAVOK 22/18 A3000 NOSIG=
200605071400 METAR MROC 071400Z 07004KT CAVOK 26/18 A3000 NOSIG=
200605071500 METAR MROC 071500Z 10011KT CAVOK 28/17 A3000 NOSIG=
200605071600 METAR MROC 071600Z 12007KT 9999 FEW035 29/17 A2998 BECMG 24008KT=
200605071700 METAR MROC 071700Z 24011KT 9999 FEW035 28/20 A2998 NOSIG=
200605071800 METAR MROC 071800Z 24010KT 9999 SCT035 29/21 A2995 NOSIG=
200605071900 METAR MROC 071900Z 21008KT 9999 FEW015CB SCT030 29/22 A2993 BECMG 7000=
200605072000 METAR MROC 072000Z 23012KT 9999 2000NE VCSH FEW015CB BKN025 29/22 A2990 BECMG SHRA=
200605072100 METAR MROC 072100Z 34011KT 2000SW -TSRA SCT015CB BKN025 22/21 A2991 BECMG RMK VIS E QUAD UNLTD=
200605072200 METAR MROC 072200Z 15003KT 9999 DZ FEW015CB SCT025 BKN100 21/20 A2991 BECMG RMK VIS SW 7KMS DUE RASH=
200605072300 METAR MROC 072300Z 00000KT 9999 FEW015 SCT025 BKN100 21/21 A2994 NOSIG=
200605080000 METAR MROC 080000Z 33004KT 9999 FEW010 SCT020 BKN250 22/21 A2995 NOSIG=
200605080100 METAR MROC 080100Z 00000KT 9999 FEW010 SCT020 BKN250 22/21 A2998 NOSIG=
200605080200 METAR MROC 080200Z 32004KT 9999 FEW020 BKN250 22/21 A2999 NOSIG=
200605080300 METAR MROC 080300Z 00000KT 9999 FEW030 BKN120 21/20 A3000 NOSIG=
200605080400 METAR MROC 080400Z 00000KT 9999 FEW025 BKN100 21/20 A3001=
200605080500 METAR MROC 080500Z 01005KT 9999 FEW030 SCT120 21/19 A3000 NOSIG=
200605080600 METAR MROC 080600Z 04003KT CAVOK 19/18 A2997 NOSIG=
200605080700 METAR MROC 080700Z 02006KT CAVOK 19/18 A2996 NOSIG=
200605080800 METAR MROC 080800Z 08004KT CAVOK 19/17 A2993 NOSIG=
200605080900 METAR MROC 080900Z 06003KT CAVOK 19/16 A2993 NOSIG=
200605081000 METAR MROC 081000Z 02004KT CAVOK 18/16 A2993 NOSIG=
200605081200 METAR MROC 081200Z 05005KT CAVOK 18/15 A2997 NOSIG=
200605081300 METAR MROC 081300Z 03005KT CAVOK 21/17 A2998 NOSIG=
200605081400 METAR MROC 081400Z 36006KT CAVOK 23/17 A2999 NOSIG=
200605081500 METAR MROC 081500Z 23005KT CAVOK 25/16 A3000 NOSIG=
200605081600 METAR MROC 081600Z 24006KT CAVOK 27/19 A2998 NOSIG=
200605081700 METAR MROC 081700Z 24005KT 9999 FEW040 SCT300 27/19 A2997 NOSIG=
200605081800 METAR MROC 081800Z 22008KT 9999 FEW035 29/18 A2995 NOSIG=
200605081900 METAR MROC 081900Z 24011KT 9999 FEW025TCU SCT035 28/19 A2993 BECMG 6000 VCSH=
200605082000 METAR MROC 082000Z 24009KT 9999 FEW025TCU SCT035 27/21 A2990 BECMG RMK RN DST E-ESE=
200605082100 METAR MROC 082100Z 21012KT 9999 FEW015TCU SCT030 27/22 A2988 RMK RN=
200605082200 METAR MROC 082200Z 19008KT 9999 FEW015TCU SCT030 BKN100 24/21 A2988 RMK VIS NW/ N/ NE/E 7 KM DUE RN=
200605082300 METAR MROC 082300Z 19005KT 2500 RA SCT008 SCT030 OVC100 22/21 A2990 BECMG RMK VIS SW 6 KM DUE RN=
200605090000 METAR MROC 090000Z VRB03KT 7000 -RA SCT008 SCT030 OVC100 22/21 A2992 BECMG 9000 RMK VIS S/ SW 9999=
200605090100 METAR MROC 090100Z 04006KT 8000 TSRA FEW015CB SCT030 OVC100 21/21 A2997 NOSIG=
200605090200 METAR MROC 090200Z 06005KT 9000 RA SCT030 OVC100 20/20 A2999 BECMG 9999 -RA=
200605090300 METAR MROC 090300Z 02009KT 9999 -RA SCT030 BKN100 20/20 A2998 NOSIG=
200605090400 METAR MROC 090400Z 25006KT 9999 FEW012 BKN140 20/19 A2999 RMK BECMG 3000SW BR=
200605090500 METAR MROC 090500Z 00000KT 9999 FEW007 BKN220 20/20 A2999 RMK 7000SSW=
200605090600 METAR MROC 090600Z 06005KT 9999 FEW015 SCT120 20/20 A2996 NOSIG=
200605090700 METAR MROC 090700Z VRB03KT 9999 FEW025 SCT120 20/19 A2992 NOSIG=
200605090800 METAR MROC 090800Z VRB03KT 9999 FEW030 BKN120 20/19 A2990 NOSIG=
200605090900 METAR MROC 090900Z 07004KT 9999 FEW030 BKN120 20/19 A2988 NOSIG=
200605091000 METAR MROC 091000Z VRB03KT 0600 FG SCT001 BKN010 20/20 A2990 RMK BECMG 3000 BR SCT003 SCT020=
200605091100 METAR MROC 091100Z VRB03KT 8000 FEW003 BKN020 20/20 A2991 NOSIG=
200605091200 METAR MROC 091200Z 08003KT 9999 FEW012 BKN035 21/20 A2992 RMK DZ DST NE N NW NOSIG=
200605091300 METAR MROC 091300Z 11004KT 9999 FEW015 SCT035 BKN250 23/21 A2995 NOSIG=
200605091400 METAR MROC 091400Z 03003KT 9999 FEW020 SCT100 BKN250 25/20 A2996 NOSIG=
200605091500 METAR MROC 091500Z 21004KT 9999 SCT020 BKN110 26/21 A2996 NOSIG=
200605091600 METAR MROC 091600Z 20009KT 9999 SCT020 BKN250 25/21 A2996 NOSIG=
200605091700 METAR MROC 091700Z 23008KT 7000 VCSH SCT020TCU BKN250 26/21 A2993 NOSIG=
200605091800 METAR MROC 091800Z 22006KT 6000 -TS VCSH FEW015CB SCT025 BKN100 25/20 A2992 BECMG 5000 RA RMK 9999 W=
200605091900 METAR MROC 091900Z 35004KT 3000 RA SCT010 OVC100 22/21 A2991 NOSIG=
200605092000 METAR MROC 092000Z 35003KT 7000 FEW007 SCT025 OVC100 22/21 A2989 NOSIG=
200605092100 METAR MROC 092100Z 26010KT 8000 -DZ FEW005 SCT025 BKN120 21/20 A2989 RMK BR/SW S=
200605092200 METAR MROC 092200Z 28005KT 8000 4000SW -DZ BR FEW002 SCT010 SCT090 21/20 A2990=
200605092300 METAR MROC 092300Z 29004KT 7000 BR FEW002 BKN015 21/20 A2991 RMK VIS RED SW W=
200605100000 METAR MROC 100000Z 32005KT 6000 TSRA FEW004 SCT010CB SCT035 21/20 A2995=
200605100100 METAR MROC 100100Z 31004KT 6000SW -TSRA SCT010CB OVC100 20/20 A2997=
200605100200 METAR MROC 100200Z 31003KT 8000 -RA SCT010 OVC100 20/20 A2999=
200605100300 METAR MROC 100300Z 02005KT 8000 -RA SCT020 OVC100 21/20 A3001 NOSIG=
200605100400 METAR MROC 100400Z 00000KT 9999 DZ OVC100 20/20 A3000 NOSIG=
200605100500 METAR MROC 100500Z 00000KT 9999 SCT006 BKN015 20/20 A3000 NOSIG=
200605100600 METAR MROC 100600Z 05003KT 9999 SCT007 BKN015 20/20 A2998 NOSIG=
200605100700 METAR MROC 100700Z 06005KT 9999 FEW020 OVC120 20/20 A2995 NOSIG=
200605100800 METAR MROC 100800Z 06003KT CAVOK 20/19 A2993 NOSIG=
200605100900 METAR MROC 100900Z 10003KT CAVOK 20/19 A2993 NOSIG=
200605101000 METAR MROC 101000Z 07007KT CAVOK 20/18 A2992 NOSIG=
200605101100 METAR MROC 101100Z 04007KT CAVOK 19/18 A2994 NOSIG=
200605101200 METAR MROC 101200Z 10003KT CAVOK 19/18 A2994 NOSIG=
200605101300 METAR MROC 101300Z 05004KT CAVOK 21/18 A2995=
200605101400 METAR MROC 101400Z 00000KT CAVOK 23/20 A2997 BECMG 24006KT=
200605101500 METAR MROC 101500Z 00000KT CAVOK 25/19 A2999=
200605101600 METAR MROC 101600Z 00000KT CAVOK 26/19 A2999 NOSIG=
200605101700 METAR MROC 101700Z 25006KT CAVOK 26/20 A2998 NOSIG=
200605101800 METAR MROC 101800Z 23007KT 9999 FEW030 SCT250 26/21 A2998 NOSIG=
200605101900 METAR MROC 101900Z 22008KT 9999 SCT025 SCT250 26/21 A2994 NOSIG=
200605102000 METAR MROC 102000Z 23007KT 9999 SCT020TCU SCT150 26/21 A2992 NOSIG=
200605102100 METAR MROC 102100Z 24011KT 9999 SCT020 SCT120 25/21 A2990 RMK RN E NOSIG=
200605102200 METAR MROC 102200Z 25011KT 9999 FEW010CB BKN020 24/21 A2990 RMK CB RASH E BECMG 6000 RA=
200605110000 METAR MROC 110000Z 23008KT 5000 TSRA BKN006 SCT010CB 21/21 A2996 NOSIG=
200605110100 METAR MROC 110100Z 00000KT 9999 FEW015 SCT030 BKN120 20/20 A2998 RETS NOSIG=
200605110200 METAR MROC 110200Z 30005KT 9999 FEW015 SCT150 20/20 A3000 RERA=
200605110300 METAR MROC 110300Z 00000KT 9999 FEW020 SCT150 20/20 A3002=
200605110400 METAR MROC 110400Z 00000KT CAVOK 20/20 A3003=
200605110500 METAR MROC 110500Z 00000KT CAVOK 20/20 A3002=
200605110600 METAR MROC 110600Z 01004KT CAVOK 20/19 A3000=
200605110700 METAR MROC 110700Z 02005KT CAVOK 20/19 A2997=
200605110800 METAR MROC 110800Z 09006KT 9999 FEW040 SCT120 20/18 A2993=
200605110900 METAR MROC 110900Z 00000KT CAVOK 20/18 A2993=
200605111000 METAR MROC 111000Z 00000KT CAVOK 19/18 A2995=
200605111100 METAR MROC 111100Z 34003KT CAVOK 19/18 A2997=
200605111200 METAR MROC 111200Z 00000KT 9999 FEW025 SCT250 19/18 A2999=
200605111300 METAR MROC 111300Z 12003KT 9999 FEW020 BKN280 23/20 A3001 NOSIG=
200605111400 METAR MROC 111400Z 00000KT 9999 FEW015 BKN280 25/21 A3002=
200605111500 METAR MROC 111500Z 27003KT 9999 FEW020 BKN280 26/21 A3003 NOSIG=
200605111600 METAR MROC 111600Z 26003KT 9999 FEW020 BKN280 27/20 A3001 NOSIG=
200605111700 METAR MROC 111700Z 25009KT 9999 SCT025 BKN280 27/21 A3000 NOSIG=
200605111800 METAR MROC 111800Z 23011KT 9999 FEW012CB BKN025 26/22 A2998 BECMG RMK CB RN SE=
200605111900 METAR MROC 111900Z 20005KT 9999 FEW015CB SCT025 BKN280 25/20 A2997 RMK RN N E NOSIG=
200605120400 METAR MROC 120400Z 00000KT 9999 FEW010 SCT020 21/20 A3003 NOSIG=
200605120500 METAR MROC 120500Z 00000KT 9999 FEW010 SCT025 21/20 A3002 NOSIG=
200605120800 METAR MROC 120800Z 07006KT CAVOK 21/18 A2995 NOSIG=
200605120900 METAR MROC 120900Z 00000KT CAVOK 19/19 A2994 NOSIG=
200605121000 METAR MROC 121000Z 00000KT CAVOK 18/17 A2993 NOSIG=
200605121100 METAR MROC 121100Z 00000KT CAVOK 20/18 A2994 NOSIG=
200605121200 METAR MROC 121200Z 00000KT 9999 FEW030 SCT300 19/17 A2996 NOSIG=
200605121300 METAR MROC 121300Z 03003KT CAVOK 23/18 A3000 NOSIG=
200605121400 METAR MROC 121400Z 10008KT 9999 FEW035 SCT250 26/19 A3000 NOSIG=
200605121500 METAR MROC 121500Z 09012KT 9999 FEW035 SCT250 28/18 A2999 NOSIG=
200605121600 METAR MROC 121600Z 07014KT 9999 FEW035 29/17 A2998 NOSIG=
200605121700 METAR MROC 121700Z 08010KT 9999 FEW035 30/18 A2996 NOSIG=
200605121800 METAR MROC 121800Z 14005KT 9999 FEW015CB SCT030 30/17 A2995 BECMG 24008KT 7000 VCSH=
200605121900 METAR MROC 121900Z 23015KT 9999 FEW015TCU SCT030 27/23 A2993 RMK 7000SW=
200605122000 METAR MROC 122000Z 25015KT 9999 SCT012CB BKN025 26/22 A2991 RMK RN DST E NE N SW BECMG 3000 -TSRA=
200605122050 METAR MROC 122050Z 24008KT 2000 TSRA SCT012CB BKN020TCU 22/20 A2993 BECMG RMK VIS S SW 5KMS=
200605122100 METAR MROC 122100Z 04008KT 1200 TSRA SCT012CB BKN020TCU 21/19 A2992 BECMG RMK VIS E UNLTD TS MOVNG E TO W=
200605130000 METAR MROC 130000Z 27004KT 6000 VCFG FEW003 BKN008 22/21 A2995 BECMG 4000 BR=
200605130100 METAR MROC 130100Z 00000KT 9999 FEW008 BKN015 21/21 A2995 BECMG RMK HZY=
200605130200 METAR MROC 130200Z 00000KT 9999 SCT012 SCT090 22/21 A2998 NOSIG=
200605130300 METAR MROC 130300Z 00000KT 9999 FEW020 21/20 A2998 NOSIG=
200605130400 METAR MROC 130400Z 01004KT 9999 FEW015 21/20 A2999 NOSIG=
200605130500 METAR MROC 130500Z 04005KT CAVOK 20/18 A3000 NOSIG=
200605130600 METAR MROC 130600Z 03008KT CAVOK 19/17 A2998 NOSIG=
200605130700 METAR MROC 130700Z 05011KT CAVOK 19/17 A2996 NOSIG=
200605130800 METAR MROC 130800Z 10004KT CAVOK 20/17 A2995 NOSIG=
200605130900 METAR MROC 130900Z 05007KT CAVOK 20/17 A2993 NOSIG=
200605131000 METAR MROC 131000Z 05007KT CAVOK 20/17 A2993 NOSIG=
200605131100 METAR MROC 131100Z 06006KT CAVOK 21/17 A2994 NOSIG=
200605131200 METAR MROC 131200Z 04007KT 9999 FEW025 BKN300 21/17 A2994 NOSIG=
200605131300 METAR MROC 131300Z 09005KT 9999 FEW030 BKN300 23/18 A2998 BECMG RMK CB DIST S=
200605131400 METAR MROC 131400Z 09011KT 9999 FEW030 BKN300 24/18 A3000 BECMG RMK CB DST S=
200605131500 METAR MROC 131500Z 09010KT 9999 FEW035 BKN300 26/17 A2999 NOSIG=
200605131600 METAR MROC 131600Z 10013KT 9999 FEW035 BKN270 27/18 A2998 NOSIG=
200605131700 METAR MROC 131700Z 09011KT 9999 FEW035 BKN250 28/18 A2998 NOSIG=
200605131800 METAR MROC 131800Z 10011KT 9999 FEW035 BKN250 28/18 A2997 NOSIG=
200605131900 METAR MROC 131900Z 09008KT 9999 FEW035 BKN250 29/18 A2995 NOSIG=
200605132000 METAR MROC 132000Z 22007KT 9999 SCT025 SCT250 28/21 A2992 NOSIG=
200605132100 METAR MROC 132100Z 23012KT 9999 SCT025 BKN250 27/22 A2992 NOSIG=
200605132200 METAR MROC 132200Z 23012KT 9999 FEW010 SCT025TCU BKN250 23/22 A2993 NOSIG=
200605132300 METAR MROC 132300Z 22010KT 9999 FEW010 SCT025TCU BKN250 23/21 A2996 NOSIG=
200605140000 METAR MROC 140000Z 00000KT 7000 VCSH SCT008CB BKN015 23/21 A2998 BECMG 3000 RA=
200605140100 METAR MROC 140100Z 00000KT 9999 -RA SCT025 BKN100 20/20 A3000 BECMG 10006KT=
200605140200 METAR MROC 140200Z 36003KT 9999 FEW040 BKN100 21/20 A3000 NOSIG=
200605140300 METAR MROC 140300Z 00000KT CAVOK 20/20 A2999 NOSIG=
200605140400 METAR MROC 140400Z 09008KT CAVOK 21/19 A2999 NOSIG=
200605140500 METAR MROC 140500Z 06011KT CAVOK 22/19 A2999 NOSIG=
200605140600 METAR MROC 140600Z 03005KT CAVOK 21/18 A2998 NOSIG=
200605140700 METAR MROC 140700Z 05005KT CAVOK 21/18 A2996 NOSIG=
200605140800 METAR MROC 140800Z 09010KT CAVOK 22/18 A2993 NOSIG=
200605140900 METAR MROC 140900Z 09007KT CAVOK 21/17 A2993 NOSIG=
200605141100 METAR MROC 141100Z 04004KT CAVOK 20/17 A2996 NOSIG=
200605141200 METAR MROC 141200Z 07006KT CAVOK 20/17 A2997 NOSIG=
200605141300 METAR MROC 141300Z 07005KT 9999 FEW018 BKN250 23/18 A3000 NOSIG=
200605141500 METAR MROC 141500Z 10014KT 9999 FEW030 BKN250 25/18 A3000 NOSIG=
200605141600 METAR MROC 141600Z 10012KT 9999 FEW030 BKN250 26/19 A3000 NOSIG=
200605141700 METAR MROC 141700Z 10009KT 9999 SCT030 BKN250 27/18 A3000 NOSIG=
200605141800 METAR MROC 141800Z 09007KT 9999 SCT030 BKN250 29/19 A2998 NOSIG=
200605141900 METAR MROC 141900Z 19006KT 9999 SCT030TCU BKN250 27/21 A2995 NOSIG=
200605142000 METAR MROC 142000Z 22010KT 9000 FEW025TCU SCT035 SCT250 25/21 A2994 RMK RN SW W=
200605142100 METAR MROC 142100Z 23009KT 9999 SCT030TCU SCT180 25/22 A2994=
200605142200 METAR MROC 142200Z 21005KT 9999 SCT015TCU SCT100 25/22 A2993 RMK BR ARND=
200605142300 METAR MROC 142300Z 23006KT 9999 FEW010 BKN090 24/21 A2994 RMK BR ARND=
200605150000 METAR MROC 150000Z 07005KT 4000 1000SW RA SCT002 SCT020 20/20 A2997 BECMG 5000=
200605150100 METAR MROC 150100Z 05003KT 9999 FEW015 21/20 A2997 RERA=
200605150200 METAR MROC 150200Z 01004KT 9999 FEW030 21/20 A2998=
200605150300 METAR MROC 150300Z 00000KT CAVOK 21/20 A2999 NOSIG=
200605150400 METAR MROC 150400Z 06006KT CAVOK 20/19 A3001 NOSIG=
200605150500 METAR MROC 150500Z 04005KT CAVOK 21/19 A3001 NOSIG=
200605150600 METAR MROC 150600Z 05010KT CAVOK 21/19 A2999 NOSIG=
200605150700 METAR MROC 150700Z 03003KT CAVOK 20/18 A2999 NOSIG=
200605150800 METAR MROC 150800Z 04007KT CAVOK 20/18 A2997 NOSIG=
200605150900 METAR MROC 150900Z 07003KT CAVOK 19/18 A2997 NOSIG=
200605151000 METAR MROC 151000Z 04006KT CAVOK 19/18 A2997 BECMG RMK OCNL LTNG DST S=
200605151100 METAR MROC 151100Z 03008KT CAVOK 20/18 A2998 NOSIG=
200605151200 METAR MROC 151200Z 08003KT CAVOK 20/18 A2999 BECMG RMK CB DST S=
200605151300 METAR MROC 151300Z 08005KT CAVOK 24/19 A3000=
200605151400 METAR MROC 151400Z 08007KT CAVOK 26/18 A3001=
200605151500 METAR MROC 151500Z 09010KT CAVOK 27/19 A3001=
200605151600 METAR MROC 151600Z 10011KT CAVOK 28/19 A3000=
200605151700 METAR MROC 151700Z 11008KT 9999 SCT030 SCT250 29/19 A3000 BECMG 25008KT=
200605151800 METAR MROC 151800Z 22008KT 9999 SCT030TCU SCT250 28/21 A2999=
200605151900 METAR MROC 151900Z 24009KT 9999 FEW020TCU SCT035 28/21 A2997 BECMG 6000 TSRA=
200605152000 METAR MROC 152000Z 23011KT 9000 SCT020TCU SCT070 25/22 A2995 RMK RN ARND=
200605152100 METAR MROC 152100Z 10003KT 9999 SCT012TCU BKN030 22/19 A2995 RMK VSBY NW TKM DUE RASH RN S NOSIG=
200605152200 METAR MROC 152200Z 00000KT 9999 SCT020 BKN260 22/20 A2995 RMK CB RN TS SW NOSIG=
200605152300 METAR MROC 152300Z 00000KT 9999 FEW020 SCT120 BKN260 23/21 A2996 NOSIG=
200605160000 METAR MROC 160000Z 00000KT 9999 BKN030 SCT120 22/20 A2998 NOSIG=
200605160100 METAR MROC 160100Z 00000KT 9999 FEW025 BKN260 22/20 A3000 NOSIG=
200605160200 METAR MROC 160200Z 00000KT 9999 SCT025 BKN260 22/21 A3002 NOSIG=
200605160300 METAR MROC 160300Z 08004KT 9999 SCT040 BKN120 21/19 A3000 NOSIG=
200605160400 METAR MROC 160400Z 21005KT 9999 FEW045 SCT120 21/19 A3002 NOSIG=
200605160500 METAR MROC 160500Z 00000KT CAVOK 21/19 A3003 NOSIG=
200605160600 METAR MROC 160600Z 35004KT CAVOK 20/20 A3001 NOSIG=
200605160700 METAR MROC 160700Z 00000KT 9999 FEW006 SCT045 BKN120 20/19 A3000 NOSIG=
200605160800 METAR MROC 160800Z 07003KT 9999 FEW006 SCT045 BKN120 20/19 A3000 NOSIG=
200605160900 METAR MROC 160900Z 06006KT CAVOK 20/10 A2999 NOSIG=
200605161000 METAR MROC 161000Z 07006KT CAVOK 21/19 A2996=
200605161100 METAR MROC 161100Z 08005KT CAVOK 20/19 A2997 NOSIG=
200605161200 METAR MROC 161200Z 07005KT CAVOK 21/18 A2998 NOSIG=
200605161300 METAR MROC 161300Z 23004KT CAVOK 22/20 A3001 RMK CB DST S NOSIG=
200605161400 METAR MROC 161400Z 00000KT 9999 FEW025 BKN280 25/19 A3001 NOSIG=
200605161500 METAR MROC 161500Z 23005KT 9999 FEW025 BKN280 25/20 A3001 NOSIG=
200605161600 METAR MROC 161600Z 23006KT 9999 FEW025 BKN280 26/21 A3001 NOSIG=
200605161700 METAR MROC 161700Z 25009KT 9999 SCT015 SCT120 BKN280 26/22 A3001 NOSIG=
200605161800 METAR MROC 161800Z 24009KT 9999 SCT020 SCT120 BKN260 26/22 A2999 NOSIG=
200605161900 METAR MROC 161900Z 24009KT 9999 FEW012 SCT025 BKN120 26/22 A2996 RMK RN E NOSIG=
200605162000 METAR MROC 162000Z 25009KT 9999 FEW012 SCT030 BKN250 26/21 A2994 NOSIG=
200605162100 METAR MROC 162100Z 23008KT 9999 FEW015CB BKN030 25/21 A2994 RMK 7000NW=
200605162200 METAR MROC 162200Z 23009KT 9999 FEW015 SCT025 BKN120 24/22 A2993 NOSIG=
200605162300 METAR MROC 162300Z 23006KT 9999 FEW020 SCT120 SCT250 23/21 A2995 BECMG 7000 VCFG SCT003=
200605170000 METAR MROC 170000Z 26005KT 9999 SCT020TCU BKN120 23/21 A2997 RMK RN DST N NE E BECMG -RA 7000 VCFG SCT003=
200605170100 METAR MROC 170100Z 30004KT 9999 SCT012 BKN120 23/21 A2999 NOSIG=
200605170200 METAR MROC 170200Z 25006KT 9999 FEW005 SCT025 SCT120 22/21 A3001 NOSIG=
200605170300 METAR MROC 170300Z 27008KT 9999 FEW010 SCT060 22/21 A3002=
200605170400 METAR MROC 170400Z 26004KT 9999 FEW015 FEW100 22/21 A3004=
200605170500 METAR MROC 170500Z 29005KT 9999 FEW015 SCT100 22/21 A3003=
200605170600 METAR MROC 170600Z 32005KT 9999 FEW006 SCT120 22/21 A3001 RMK BR ARND=
200605170700 METAR MROC 170700Z 00000KT 9999 FEW006 SCT120 22/20 A2997=
200605170800 METAR MROC 170800Z 22004KT 9999 1500SW BR SCT001 SCT015 21/21 A2996=
200605170900 METAR MROC 170900Z 03004KT 9999 FEW010 SCT120 21/20 A2995 RMK BR ARND=
200605171000 METAR MROC 171000Z 18003KT 4000SW BR SCT010 SCT060 21/21 A2995=
200605171100 METAR MROC 171100Z 28003KT 5000 BR FEW002 SCT010 21/21 A2997 BECMG 2000 BR=
200605171200 METAR MROC 171200Z 00000KT 8000 2000SW BR SCT001 SCT020 21/21 A2999=
200605171300 METAR MROC 171300Z 09003KT 9999 FEW003 BKN120 23/21 A3000 NOSIG=
200605171400 METAR MROC 171400Z 04007KT 9999 FEW003 BKN250 26/20 A3000 NOSIG=
200605171500 METAR MROC 171500Z 21004KT 9999 FEW030 SCT120 SCT250 27/22 A2999 RMK HZ SW W NOSIG=
200605171600 METAR MROC 171600Z 21010KT 9999 SCT030 BKN250 27/22 A2999 RMK 8000SW HZ HZY NOSIG=
200605171700 METAR MROC 171700Z 24014KT 9999 FEW015TCU SCT025 SCT250 27/23 A2999 RMK HZY=
200605171800 METAR MROC 171800Z 22008KT 9999 FEW015TCU SCT025 28/22 A2997 RMK HZY=
200605171900 METAR MROC 171900Z 24012KT 7000 VCSH SCT015CB BKN025 24/22 A2997 BECMG 6000 TSRA=
200605172000 METAR MROC 172000Z 24011KT 4000 1200SW TSRA SCT008CB BKN015 22/22 A2997 BECMG 1500 TSRA=
200605172100 METAR MROC 172100Z 03006KT 2000 TSRA SCT012CB BKN020 20/20 A2997 BECMG RMK VIS N NE 1200 MTS VIS S 6KMS=
200605172200 METAR MROC 172200Z 01005KT 5000 -RA FEW010 SCT020 BKN100 20/20 A2998 NOSIG=
200605172300 METAR MROC 172300Z 12003KT 5000 -RA FEW008 SCT020 BKN100 20/20 A2999 BECMG 3000 BR SCT003 BKN008=
200605180100 METAR MROC 180100Z 35003KT 9999 -RA FEW010 SCT020 BKN100 21/20 A3003 NOSIG=
200605180200 METAR MROC 180200Z 00000KT 9999 -RA FEW010 SCT020 BKN100 20/20 A3004 NOSIG=
200605180300 METAR MROC 180300Z 08004KT 9999 RA FEW030 OVC100 20/20 A3005 NOSIG=
200605180400 METAR MROC 180400Z 08004KT 9999 -RA OVC100 20/20 A3005=
200605180500 METAR MROC 180500Z 06004KT 9999 FEW030 SCT100 21/20 A3004 NOSIG=
200605180600 METAR MROC 180600Z 15003KT 4000SW BR FEW001 SCT010 BKN025 20/20 A3003=
200605180700 METAR MROC 180700Z 00000KT 0800 FG FEW001 SCT010 BKN120 20/19 A3002=
200605180800 METAR MROC 180800Z 00000KT CAVOK 20/19 A3000 NOSIG=
200605181000 METAR MROC 181000Z 01005KT CAVOK 20/19 A2999 NOSIG=
200605181100 METAR MROC 181100Z 11003KT CAVOK 20/19 A3000 NOSIG=
200605181200 METAR MROC 181200Z 04003KT CAVOK 20/19 A3000 RMK CB DST S/NE NOSIG=
200605181300 METAR MROC 181300Z 00000KT CAVOK 21/20 A3004 BECMG 24005KT RMK LGT HZ ARND=
200605181400 METAR MROC 181400Z 00000KT 9999 FEW025 SCT150 BKN250 22/20 A3005 RMK HZY CB DST SE S SSW=
200605181500 METAR MROC 181500Z 00000KT 9999 FEW025 SCT150 BKN250 24/20 A3006 RMK CB DST HZ ARND CB LINE DST SE S SSW=
200605181600 METAR MROC 181600Z 20003KT 9999 FEW025 SCT150 BKN250 25/21 A3006 RMK HZY=
200605181700 METAR MROC 181700Z 25003KT 9999 FEW025 BKN250 26/20 A3004 BECMG RMK HZ ARND=
200605181900 METAR MROC 181900Z 20004KT 9999 TS FEW018CB SCT025 BKN220 26/21 A3001 BECMG RMK TS RASH VIS 9KMS TO N NE=
200605182000 METAR MROC 182000Z 30007KT 9999 -TSRA SCT012 BKN030 23/20 A3000 BECMG RMK RASH VIS S/SW 7KMS TS NEAR AP07=
200605182100 METAR MROC 182100Z 25008KT 9999 FEW004 SCT030 BKN200 22/20 A3000 NOSIG=
200605182200 METAR MROC 182200Z 27003KT 9999 FEW030 SCT120 OVC220 22/20 A3000 BECMG 10006KT=
200605182300 METAR MROC 182300Z 00000KT 9999 FEW025 SCT120 OVC250 23/19 A3000 NOSIG=
200605190000 METAR MROC 190000Z 00000KT CAVOK 22/19 A2999 NOSIG=
200605190100 METAR MROC 190100Z VRB03KT CAVOK 22/19 A3000 NOSIG=
200605190200 METAR MROC 190200Z 00000KT CAVOK 21/20 A3003 NOSIG=
200605190300 METAR MROC 190300Z 07005KT CAVOK 21/19 A3005 NOSIG=
200605190400 METAR MROC 190400Z 07006KT CAVOK 22/18 A3005 NOSIG=
200605190500 METAR MROC 190500Z 22004KT CAVOK 21/19 A3005 NOSIG=
200605190600 METAR MROC 190600Z 29003KT CAVOK 20/19 A3004 RMK TS DST S NOSIG=
200605190700 METAR MROC 190700Z 32002KT CAVOK 20/18 A3002 NOSIG=
200605190800 METAR MROC 190800Z 02005KT CAVOK 20/18 A3001 NOSIG=
200605190900 METAR MROC 190900Z 06008KT CAVOK 20/18 A2999 NOSIG=
200605191000 METAR MROC 191000Z 04006KT CAVOK 20/17 A2999 NOSIG=
200605191100 METAR MROC 191100Z 09005KT CAVOK 21/18 A3001 NOSIG=
200605191200 METAR MROC 191200Z 06010KT 9999 FEW045 BKN120 21/17 A3002 NOSIG=
200605191300 METAR MROC 191300Z 06007KT 9999 FEW035 BKN110 22/18 A3004 NOSIG=
200605191400 METAR MROC 191400Z 10006KT CAVOK 26/19 A3004 NOSIG=
200605191500 METAR MROC 191500Z 10011KT 9999 FEW035 BKN110 26/19 A3005 NOSIG=
200605191600 METAR MROC 191600Z 12007KT 9999 FEW030 BKN110 26/19 A3005 NOSIG=
200605191700 METAR MROC 191700Z 10007KT 9999 SCT030 BKN110 27/19 A3004 NOSIG=
200605191800 METAR MROC 191800Z 11006KT 9999 SCT025 BKN120 27/19 A3003 NOSIG=
200605191900 METAR MROC 191900Z 25005KT 9999 SCT030 SCT120 BKN250 26/20 A3000 RMK RN DST N NE=
200605192000 METAR MROC 192000Z 29008KT 9999 SCT025 SCT120 BKN250 27/21 A2998 RMK RN DST NW=
200605192100 METAR MROC 192100Z 19006KT 9999 DZ SCT020TCU SCT120 25/22 A2996=
200605192200 METAR MROC 192200Z 09006KT 9999 3000SW -RA FEW015CB SCT030 SCT180 24/19 A2997=
200605192300 METAR MROC 192300Z VRB03KT 8000 VCSH FEW015 SCT030 SCT180 22/20 A3000 RMK BR ARND=
200605200000 METAR MROC 200000Z 09005KT 4000SW -RA BR FEW005 SCT012 SCT025 21/20 A3004=
200605200100 METAR MROC 200100Z 07004KT 5000SW RA SCT015 OVC090 20/20 A3005=
200605200200 METAR MROC 200200Z 10007KT 9000 -RA SCT020 OVC100 20/19 A3005=
200605200300 METAR MROC 200300Z 09011KT 9999 -RA OVC100 20/19 A3004 NOSIG=
200605200400 METAR MROC 200400Z 10006KT 9999 DZ OVC100 21/19 A3003 NOSIG=
200605200500 METAR MROC 200500Z 26007KT 9999 FEW035 BKN100 20/20 A3005 BECMG 5000 BR SCT004 BKN010=
200605200600 METAR MROC 200600Z 29003KT 9999 DZ FEW005 SCT010 BKN025 21/19 A3003 NOSIG=
200605200700 METAR MROC 200700Z 00000KT 9999 DZ SCT010 SCT020 BKN120 20/20 A3001 NOSIG=
200605200800 METAR MROC 200800Z 09003KT 9999 FEW010 SCT025 BKN120 20/19 A2998 REDZ NOSIG=
200605200900 METAR MROC 200900Z 08004KT 9999 FEW030 BKN120 20/19 A2996 BECMG CAVOK=
200605201000 METAR MROC 201000Z 02005KT CAVOK 20/18 A2996 NOSIG=
200605201100 METAR MROC 201100Z 08009KT CAVOK 21/18 A2996 NOSIG=
200605201200 METAR MROC 201200Z 08008KT CAVOK 22/18 A2997 NOSIG=
200605201300 METAR MROC 201300Z 08008KT CAVOK 22/18 A2998=
200605201400 METAR MROC 201400Z 09010KT CAVOK 25/19 A2999=
200605201500 METAR MROC 201500Z 10006KT CAVOK 27/19 A3000 BECMG 24008KT=
200605201600 METAR MROC 201600Z 09009KT CAVOK 28/19 A3000=
200605201700 METAR MROC 201700Z 13008KT 9999 SCT020 SCT100 28/19 A2999=
200605201800 METAR MROC 201800Z 23015KT 9999 FEW015TCU BKN025 26/22 A2998=
200605201900 METAR MROC 201900Z 29008KT 9999 SCT008CB SCT025 25/21 A2997 BECMG 5000 TSRA=
200605202100 METAR MROC 202100Z 00000KT 9999 BKN020 BKN100 24/21 A2993 RMK RN N SE S BECMG RA=
200605202200 METAR MROC 202200Z 00000KT 9999 FEW020 SCT120 BKN250 24/21 A2993 NOSIG=
200605202300 METAR MROC 202300Z 00000KT 9999 FEW020 SCT130 BKN250 24/21 A2995 NOSIG=
200605210000 METAR MROC 210000Z 22003KT 9999 SCT025 SCT120 BKN250 23/21 A2996 NOSIG=
200605210100 METAR MROC 210100Z 00000KT 9999 FEW025 SCT120 BKN250 22/21 A2999 NOSIG=
200605210200 METAR MROC 210200Z 00000KT 9999 SCT035 BKN250 22/21 A3000 NOSIG=
200605210300 METAR MROC 210300Z 00000KT 9999 FEW040 SCT250 22/21 A3001 NOSIG=
200605210400 METAR MROC 210400Z 00000KT 9999 SCT030 SCT250 21/21 A3001 NOSIG=
200605210500 METAR MROC 210500Z 00000KT 9999 SCT030 SCT250 22/21 A3001 NOSIG=
200605210600 METAR MROC 210600Z 00000KT 9999 FEW004 SCT030 SCT250 22/21 A2998 NOSIG=
200605210700 METAR MROC 210700Z 00000KT 9999 FEW003 SCT030 SCT250 21/21 A2994=
200605210800 METAR MROC 210800Z 00000KT 9999 SCT030 SCT250 21/21 A2993 NOSIG=
200605210900 METAR MROC 210900Z 01004KT 9999 SCT030 21/20 A2993 NOSIG=
200605211000 METAR MROC 211000Z 09003KT CAVOK 21/19 A2994 NOSIG=
200605211100 METAR MROC 211100Z 08005KT 9999 FEW045 21/18 A2994 NOSIG=
200605211200 METAR MROC 211200Z 05005KT 9999 FEW025 20/18 A2994 NOSIG=
200605211300 METAR MROC 211300Z 08007KT 9999 FEW020 SCT120 24/19 A2996 NOSIG=
200605211400 METAR MROC 211400Z 10009KT 9999 FEW025 SCT130 25/19 A2996 NOSIG=
200605211500 METAR MROC 211500Z 10011KT 9999 FEW020 SCT270 27/19 A2995 NOSIG=
200605211600 METAR MROC 211600Z 10009KT 9999 SCT025 SCT250 27/19 A2996 NOSIG=
200605211800 METAR MROC 211800Z 24008KT 9999 SCT025 SCT270 28/22 A2993 NOSIG=
200605211900 METAR MROC 211900Z 26007KT 9999 BKN025 27/22 A2990 RMK RN S NOSIG=
200605212000 METAR MROC 212000Z 21006KT 5000 2000SW RA SCT012 BKN020 24/23 A2988 BECMG 7000 -RA=
200605212100 METAR MROC 212100Z 23010KT 5000 BR SCT008 SCT030 22/22 A2987 NOSIG=
200605212200 METAR MROC 212200Z 29004KT 7000 VCFG FEW004 BKN012 22/21 A2988 RMK 9999 QUAD N NOSIG=
200605212300 METAR MROC 212300Z 28005KT 7000 VCFG FEW003 BKN012 22/21 A2989 RMK 9999 QUAD N NOSIG=
200605220000 METAR MROC 220000Z 28004KT 9999 FEW005 BKN015 22/21 A2992 RMK 7000 SW VCFG NOSIG=
200605220100 METAR MROC 220100Z 25005KT 9999 SCT012 SCT100 22/21 A2995 NOSIG=
200605220200 METAR MROC 220200Z 25004KT 9999 -RA FEW005 SCT012 SCT120 22/21 A2997 BECMG 7000 VCFG FEW004 SCT012=
200605220300 METAR MROC 220300Z 00000KT 9999 SCT010 OVC100 21/21 A2999 RERA=
200605220400 METAR MROC 220400Z 00000KT 9999 FEW010 BKN120 22/20 A2999=
200605220500 METAR MROC 220500Z 06004KT 9999 SCT015 21/20 A2997=
200605220600 METAR MROC 220600Z 07005KT 9999 SCT035 21/20 A2993=
200605220900 METAR MROC 220900Z 13004KT CAVOK 21/17 A2990 RMK LTNG DST S SW=
200605221200 METAR MROC 221200Z 09004KT CAVOK 18/17 A2993=
200605221300 METAR MROC 221300Z 03004KT CAVOK 23/18 A2997 RMK CB DST S NOSIG=
200605221400 METAR MROC 221400Z 03003KT 9999 SCT035 SCT120 24/18 A2998 RMK HZ LEVE SW NOSIG=
200605221500 METAR MROC 221500Z 24005KT 9999 BKN030 SCT120 25/19 A2999 NOSIG=
200605221600 METAR MROC 221600Z 24009KT 9999 SCT030 BKN120 24/20 A2999 RMK RN DST NE NOSIG=
200605221700 METAR MROC 221700Z 24006KT 9999 SCT020 BKN120 25/20 A2999 RMK DZ DST NE E NOSIG=
200605221800 METAR MROC 221800Z 24008KT 9999 SCT020 BKN100 24/21 A2996 RMK RN DST N NE E BECMG -RA=
200605221900 METAR MROC 221900Z 23005KT 4000 VCSH SCT008 BKN015 23/21 A2994 RMK 8000 SSE E BECMG RA=
200605222000 METAR MROC 222000Z 08004KT 9000 FEW005 SCT015 BKN120 24/21 A2991 NOSIG=
200605222200 METAR MROC 222200Z 07003KT 9999 FEW025 BKN100 22/19 A2991 RERA NOSIG=
200605222300 METAR MROC 222300Z 11003KT 9999 SCT025 BKN140 22/19 A2993 NOSIG=
200605230000 METAR MROC 230000Z 11005KT 9999 FEW025 SCT045 BKN140 22/18 A2996 BECMG RMK CB RASH DST S SSE=
200605230100 METAR MROC 230100Z 05007KT 9999 FEW030 SCT070 BKN250 22/18 A2997 NOSIG=
200605230200 METAR MROC 230200Z 05007KT 9999 FEW030 SCT250 21/18 A2998 NOSIG=
200605230300 METAR MROC 230300Z 10003KT 9999 FEW020 SCT280 20/18 A2998 NOSIG=
200605230400 METAR MROC 230400Z 05003KT CAVOK 20/18 A2998 NOSIG=
200605230500 METAR MROC 230500Z 06005KT CAVOK 20/18 A2996 NOSIG=
200605230600 METAR MROC 230600Z 06004KT CAVOK 20/18 A2995 NOSIG=
200605230700 METAR MROC 230700Z 28004KT CAVOK 20/18 A2995 NOSIG=
200605230800 METAR MROC 230800Z 00000KT 9999 FEW015 SCT030 20/19 A2996 NOSIG=
200605230900 METAR MROC 230900Z 00000KT 9999 SCT015 SCT025 20/19 A2996 NOSIG=
200605231000 METAR MROC 231000Z 00000KT 9999 BKN015 20/19 A2996 NOSIG=
200605231100 METAR MROC 231100Z 08005KT 9999 FEW020 SCT260 20/19 A2996 NOSIG=
200605231200 METAR MROC 231200Z 07004KT CAVOK 19/18 A2998 NOSIG=
200605231300 METAR MROC 231300Z 09003KT CAVOK 23/18 A3001 BECMG RMK CB DST S=
200605231400 METAR MROC 231400Z 00000KT CAVOK 26/19 A3000 BECMG 24006KT=
200605231500 METAR MROC 231500Z 21003KT 9999 FEW040 BKN300 26/20 A3001 NOSIG=
200605231600 METAR MROC 231600Z 24005KT 9999 FEW035 BKN300 26/20 A3001 NOSIG=
200605231700 METAR MROC 231700Z 25007KT 9999 FEW025TCU SCT035 BKN250 27/20 A2999 BECMG 5000 VCSH RMK RN DST S CB DST SSE S=
200605231800 METAR MROC 231800Z 22009KT 9999 4000NW VCSH SCT025TCU BKN040 23/22 A2999 RERA BECMG RMK DVLPNG HVY CU ARND CB/TS RASH DST SE=
200605231900 METAR MROC 231900Z 23006KT 9999 -RA FEW015CB SCT040 BKN100 22/21 A2998 BECMG RMK RASH DST NNE=
200605232000 METAR MROC 232000Z 29004KT 9999 FEW012 SCT035 BKN100 23/21 A2997 NOSIG=
200605232100 METAR MROC 232100Z 25004KT 9999 FEW010 SCT030TCU BKN100 23/21 A2997 BECMG 8000 RA=
200605232200 METAR MROC 232200Z 28006KT 9999 FEW008 SCT025 OVC100 22/21 A2994 NOSIG=
200605232300 METAR MROC 232300Z 24004KT 9999 SCT010 OVC120 22/20 A2997 BECMG 8000 RA=
200605240000 METAR MROC 240000Z 23004KT 5000 BR SCT005 SCT010 OVC100 21/21 A2999 BECMG 3000 BR RA=
200605240100 METAR MROC 240100Z 26004KT 5000 BR SCT005 SCT010 OVC100 21/21 A3002 NOSIG=
200605240200 METAR MROC 240200Z 27005KT 5000 SCT005 SCT010 OVC100 21/20 A3004 NOSIG=
200605240300 METAR MROC 240300Z 27003KT 7000 VCFG SCT005 SCT100 21/20 A3006 NOSIG=
200605240400 METAR MROC 240400Z 25003KT 9999 FEW005 SCT015 21/20 A3006 RMK 7000S=
200605240500 METAR MROC 240500Z 00000KT 9999 SCT003 SCT012 21/20 A3006 RMK 7000 SW VCFG NOSIG=
200605240600 METAR MROC 240600Z 00000KT 9999 SCT005 SCT020 21/20 A3005 RMK 7000SE=
200605240700 METAR MROC 240700Z 00000KT 9999 FEW003 BKN020 20/20 A3003 RMK VIS 5KM S DUE ST BECMG 6000 VCFG=
200605240800 METAR MROC 240800Z 00000KT 9999 FEW004 BKN025 20/20 A3002 RMK VIS 8KM S/N DUE ST NOSIG=
200605240900 METAR MROC 240900Z 07002KT 9999 SCT025 BKN120 20/20 A3000 BECMG CAVOK=
200605241000 METAR MROC 241000Z VRB03KT 9999 SCT030 BKN120 20/19 A3000 BECMG CAVOK=
200605241100 METAR MROC 241100Z 11003KT 9999 FEW040 BKN120 20/19 A3001 NOSIG=
200605241200 METAR MROC 241200Z 10002KT 9999 FEW003 BKN120 20/19 A3002 RMK LGT HZ ST SSW SW W=
200605241300 METAR MROC 241300Z 06005KT CAVOK 21/20 A3004 NOSIG=
200605241400 METAR MROC 241400Z 08004KT CAVOK 24/20 A3003 NOSIG=
200605241500 METAR MROC 241500Z 10006KT CAVOK 26/18 A3003 NOSIG=
200605241600 METAR MROC 241600Z 24011KT 9999 FEW030 SCT120 BKN250 25/19 A3002 BECMG RMK HZ ARND=
200605241700 METAR MROC 241700Z 25006KT 9999 FEW030 SCT120 BKN250 26/21 A3002 NOSIG=
200605241800 METAR MROC 241800Z 24005KT 9999 SCT030 SCT120 BKN250 27/22 A3001 NOSIG=
200605241900 METAR MROC 241900Z 20006KT 9999 SCT030 SCT120 BKN250 27/22 A2998 NOSIG=
200605242000 METAR MROC 242000Z 25006KT 9999 -RA SCT030TCU BKN110 24/22 A2996 NOSIG=
200605242100 METAR MROC 242100Z 25007KT 9999 4000SW -TS FEW001 SCT010 BKN100 23/22 A2995 BECMG 3000=
200605242200 METAR MROC 242200Z 25003KT 8000 VCFG FEW001 SCT008 BKN100 21/21 A2996=
200605242300 METAR MROC 242300Z 00000KT 9999 FEW001 SCT010 BKN100 21/21 A2997=
200605250000 METAR MROC 250000Z 28003KT 9999 3000SW BR FEW001 SCT015 OVC100 21/21 A3000=
200605250100 METAR MROC 250100Z 00000KT 9999 3000SW BR FEW001 BKN100 21/21 A2999=
200605250200 METAR MROC 250200Z 04005KT 9999 FEW030 BKN100 21/21 A3001 BECMG CAVOK=
200605250300 METAR MROC 250300Z 06005KT 9999 FEW030 SCT120 BKN250 21/19 A3002 NOSIG=
200605250400 METAR MROC 250400Z 05007KT 9999 FEW030 BKN250 21/19 A3002 NOSIG=
200605250500 METAR MROC 250500Z 04007KT CAVOK 22/18 A3003 NOSIG=
200605250600 METAR MROC 250600Z 09005KT CAVOK 20/18 A3002 BECMG RMK LTNG DST SSW=
200605250700 METAR MROC 250700Z 03003KT CAVOK 21/18 A3000 BECMG RMK LTNG DST S SSW=
200605250800 METAR MROC 250800Z 06007KT CAVOK 21/18 A2998 BECMG RMK LTNG DST S=
200605250900 METAR MROC 250900Z 03007KT CAVOK 20/18 A2997 BECMG RMK LTNG DST S=
200605251000 METAR MROC 251000Z 06004KT CAVOK 21/18 A2998 NOSIG=
200605251100 METAR MROC 251100Z 05007KT CAVOK 19/17 A2997 NOSIG=
200605251200 METAR MROC 251200Z 05005KT CAVOK 21/18 A2997 NOSIG=
200605251300 METAR MROC 251300Z 09008KT CAVOK 24/19 A2998=
200605251400 METAR MROC 251400Z 10009KT 9999 FEW040 SCT270 25/18 A2998=
200605251500 METAR MROC 251500Z 10009KT 9999 FEW040 SCT270 27/18 A2998=
200605251600 METAR MROC 251600Z 09011KT 9999 SCT040 SCT270 28/18 A2997=
200605251700 METAR MROC 251700Z 09008KT 9999 SCT040 SCT270 30/19 A2996=
200605251800 METAR MROC 251800Z 09010KT 9999 SCT035 SCT270 29/18 A2994=
200605252000 METAR MROC 252000Z 23011KT 9999 FEW015 SCT030 28/23 A2990=
200605252100 METAR MROC 252100Z 23014KT 9999 3000N VCSH SCT010CB BKN012 25/22 A2990 BECMG 6000 -TSRA RMK VSBY NW N NE 3KM DUE RASH=
200605252200 METAR MROC 252200Z 31003KT 6000 RA FEW010 BKN025 20/19 A2992 BECMG RMK RASH W VSBY E SE UNL=
200605252300 METAR MROC 252300Z 00000KT 9999 -RA SCT025 OVC120 20/19 A2992 NOSIG=
200605260000 METAR MROC 260000Z 04004KT 9999 SCT030 OVC120 20/20 A2993 NOSIG=
200605260100 METAR MROC 260100Z 24004KT 9999 FEW015 OVC120 20/20 A2994 NOSIG=
200605260200 METAR MROC 260200Z 00000KT 9999 FEW023 BKN260 20/20 A2997 NOSIG=
200605260300 METAR MROC 260300Z 00000KT 9999 FEW035 SCT270 21/19 A2997 NOSIG=
200605260400 METAR MROC 260400Z 00000KT 9999 FEW035 SCT270 20/19 A2998 NOSIG=
200605260500 METAR MROC 260500Z 01004KT 9999 FEW035 SCT250 20/20 A2999 NOSIG=
200605260600 METAR MROC 260600Z 00000KT 9999 FEW035 SCT270 20/18 A2998 NOSIG=
200605260700 METAR MROC 260700Z 02005KT 9999 FEW035 SCT250 20/18 A2994 NOSIG=
200605260800 METAR MROC 260800Z 01005KT 9999 FEW035 SCT270 20/18 A2993 NOSIG=
200605260900 METAR MROC 260900Z 07006KT 9999 SCT035 21/18 A2991 NOSIG=
200605261000 METAR MROC 261000Z 07004KT 9999 SCT035 21/19 A2989 NOSIG=
200605261100 METAR MROC 261100Z 10012KT 9999 SCT030 22/10 A2991 NOSIG=
200605261200 METAR MROC 261200Z 04008KT 9999 FEW030 BKN250 21/18 A2993 NOSIG=
200605261300 METAR MROC 261300Z 06005KT CAVOK 23/19 A2995 NOSIG=
200605261400 METAR MROC 261400Z 33003KT CAVOK 25/19 A2995 NOSIG=
200605261500 METAR MROC 261500Z 11008KT CAVOK 27/18 A2995 NOSIG=
200605261600 METAR MROC 261600Z 10012KT CAVOK 28/19 A2996 NOSIG=
200605261700 METAR MROC 261700Z 10007KT 9999 FEW030 BKN100 28/19 A2994 RMK RN E NOSIG=
200605261800 METAR MROC 261800Z 10007KT 9999 FEW030 BKN100 28/19 A2994 RMK RN E NOSIG=
200605261900 METAR MROC 261900Z 01008KT 9999 -RA SCT025 BKN100 25/19 A2994 RMK VSBY N NE 6KM DUE RN=
200605262000 METAR MROC 262000Z 08005KT 9999 FEW020TCU SCT120 BKN270 26/19 A2992 RMK CB SE S SW NOSIG=
200605262100 METAR MROC 262100Z 13002KT 9999 FEW030 SCT120 BKN250 25/19 A2991 RMK RN DST NW NOSIG=
200605262200 METAR MROC 262200Z VRB03KT 9999 SCT030 BKN120 25/19 A2990 NOSIG=
200605262300 METAR MROC 262300Z 25005KT 9999 FEW015 SCT030 SCT120 24/20 A2991 NOSIG=
200605270000 METAR MROC 270000Z 00000KT 9999 SCT020 BKN110 23/21 A2992 NOSIG=
200605270100 METAR MROC 270100Z 05003KT 9999 FEW025 SCT120 23/19 A2993 NOSIG=
200605270200 METAR MROC 270200Z 17003KT 9999 FEW020 SCT120 22/20 A2996 NOSIG=
200605270300 METAR MROC 270300Z 10004KT 9999 FEW030 SCT120 23/19 A2998=
200605270400 METAR MROC 270400Z 09005KT CAVOK 22/19 A2999=
200605270500 METAR MROC 270500Z 00000KT CAVOK 22/20 A2997=
200605270600 METAR MROC 270600Z 00000KT CAVOK 20/19 A2995=
200605270700 METAR MROC 270700Z 02004KT CAVOK 21/19 A2993=
200605270800 METAR MROC 270800Z 05004KT CAVOK 19/17 A2991=
200605270900 METAR MROC 270900Z 06006KT CAVOK 20/18 A2990=
200605271000 METAR MROC 271000Z 05007KT CAVOK 20/18 A2990=
200605271100 METAR MROC 271100Z 03009KT CAVOK 21/18 A2991=
200605271200 METAR MROC 271200Z 04005KT CAVOK 21/18 A2992=
200605271300 METAR MROC 271300Z VRB03KT CAVOK 22/18 A2995 NOSIG=
200605271400 METAR MROC 271400Z VRB03KT CAVOK 24/18 A2997 NOSIG=
200605271500 METAR MROC 271500Z 00000KT CAVOK 28/19 A2997 NOSIG=
200605271600 METAR MROC 271600Z 24003KT 9999 FEW040 BKN250 28/19 A2997 NOSIG=
200605271700 METAR MROC 271700Z 24008KT 9999 FEW020TCU SCT030 BKN250 26/20 A2996 NOSIG=
200605271800 METAR MROC 271800Z 20006KT 9999 FEW020TCU BKN030 27/20 A2995 NOSIG=
200605271900 METAR MROC 271900Z 22007KT 9999 SCT025 BKN110 26/22 A2993 NOSIG=
200605272000 METAR MROC 272000Z 22004KT 3000 TSRA FEW010CB SCT030 BKN090 22/21 A2993 BECMG 5000 -TSRA=
200605272100 METAR MROC 272100Z 02006KT 5000 1500N RA SCT020CB BKN035 21/21 A2994 BECMG 1500 SHRA RMK VIS ESE UNLTD=
200605272200 METAR MROC 272200Z 00000KT 6000 DZ VCSH SCT010 BKN025 21/21 A2995 BECMG RMK VIS E SE UNLTD=
200605272230 METAR MROC 272230Z 23004KT 4000 1500SW -RA BR FEW001 SCT004 BKN015 21/21 A2996 BECMG 1000 BR BKN001 RMK FG BANK TO S SSE=
200605272300 METAR MROC 272300Z 00000KT 2500 -RA BR FEW001 SCT004 BKN015 21/21 A2995 BECMG RMK VIS N NE 7KMS=
200605280000 METAR MROC 280000Z 00000KT 9999 -RA FEW020 OVC120 21/20 A2993 BECMG RMK TEND WIND EAST=
200605280100 METAR MROC 280100Z 07005KT CAVOK 21/20 A2993 NOSIG=
200605280200 METAR MROC 280200Z 06007KT CAVOK 21/19 A2995 NOSIG=
200605280300 METAR MROC 280300Z 07008KT CAVOK 21/18 A2996 NOSIG=
200605280400 METAR MROC 280400Z 06005KT CAVOK 21/18 A2997 NOSIG=
200605280500 METAR MROC 280500Z 01003KT CAVOK 22/18 A2999 NOSIG=
200605280600 METAR MROC 280600Z 08005KT CAVOK 21/18 A2999 RMK LTNG DST S/SW=
200605280700 METAR MROC 280700Z 05005KT CAVOK 20/18 A2998 RMK LTNG DST S/SE=
200605280800 METAR MROC 280800Z 04005KT CAVOK 19/17 A2998 NOSIG=
200605280900 METAR MROC 280900Z 04006KT CAVOK 19/17 A2997 NOSIG=
200605281000 METAR MROC 281000Z 04005KT CAVOK 19/17 A2996 NOSIG=
200605281100 METAR MROC 281100Z 04006KT CAVOK 19/17 A2996 NOSIG=
200605281200 METAR MROC 281200Z 01005KT CAVOK 20/17 A2997 NOSIG=
200605281300 METAR MROC 281300Z 12003KT CAVOK 20/18 A2998 NOSIG=
200605281400 METAR MROC 281400Z 07005KT CAVOK 23/19 A3000 NOSIG=
200605281500 METAR MROC 281500Z 10006KT CAVOK 24/19 A3000 NOSIG=
200605281600 METAR MROC 281600Z 10013KT CAVOK 24/19 A3001 NOSIG=
200605281700 METAR MROC 281700Z 09010KT 9999 FEW035 BKN220 26/19 A2999 NOSIG=
200605281800 METAR MROC 281800Z 10015KT 9999 FEW035 BKN220 25/19 A2997 NOSIG=
200605281900 METAR MROC 281900Z 10014KT 9999 FEW035 SCT150 BKN220 25/19 A2996 NOSIG=
200605282000 METAR MROC 282000Z 11011KT 9999 FEW035 SCT150 BKN220 26/19 A2994 NOSIG=
200605282100 METAR MROC 282100Z 10011KT 9999 FEW035 SCT140 BKN250 26/19 A2992 NOSIG=
200605282200 METAR MROC 282200Z 22005KT 9999 SCT035 SCT130 BKN250 24/21 A2993 NOSIG=
200605282300 METAR MROC 282300Z 25006KT 9999 SCT025 SCT120 BKN250 23/22 A2994 NOSIG=
200605290000 METAR MROC 290000Z 24005KT 5000 BR FEW003 SCT035 BKN250 22/21 A2995 BECMG 3000 BR=
200605290100 METAR MROC 290100Z 00000KT 7000 VCFG FEW003 SCT035 BKN250 22/21 A2997 NOSIG=
200605290200 METAR MROC 290200Z VRB03KT 9999 3500SW BR FEW002 SCT035 BKN250 21/21 A2997 NOSIG=
200605290300 METAR MROC 290300Z VRB03KT 9999 3500SW FEW003 SCT030 21/21 A3001 NOSIG=
200605290400 METAR MROC 290400Z VRB03KT 9999 4000SW FEW003 BKN250 21/21 A3001 NOSIG=
200605290500 METAR MROC 290500Z VRB03KT 9999 FEW003 BKN250 21/20 A3001 RMK 7000SW=
200605290600 METAR MROC 290600Z VRB03KT 9999 FEW030 BKN250 20/19 A2999 NOSIG=
200605290700 METAR MROC 290700Z VRB03KT CAVOK 21/19 A2996 NOSIG=
200605290800 METAR MROC 290800Z VRB03KT CAVOK 21/18 A2995 NOSIG=
200605290900 METAR MROC 290900Z 00000KT CAVOK 20/18 A2996 NOSIG=
200605291000 METAR MROC 291000Z 07002KT CAVOK 19/18 A2996 NOSIG=
200605291100 METAR MROC 291100Z 03005KT CAVOK 19/18 A2996 NOSIG=
200605291200 METAR MROC 291200Z 04007KT CAVOK 20/18 A2997 NOSIG=
200605291300 METAR MROC 291300Z 09008KT CAVOK 22/18 A2999 NOSIG=
200605291400 METAR MROC 291400Z 11013KT 9999 FEW035 BKN250 24/18 A2999 NOSIG=
200605291500 METAR MROC 291500Z 11008KT 9999 FEW035 BKN250 25/19 A3001 BECMG RMK CB DST SW=
200605291600 METAR MROC 291600Z 09009KT 9999 FEW030 BKN250 26/19 A3001 NOSIG=
200605291700 METAR MROC 291700Z 07007KT 9999 SCT030 BKN250 27/19 A3000 NOSIG=
200605291800 METAR MROC 291800Z 10009KT 9999 SCT030 BKN250 27/20 A2997 BECMG RMK RN NE=
200605291900 METAR MROC 291900Z 10008KT 9999 SCT025 BKN250 27/20 A2995 NOSIG=
200605292000 METAR MROC 292000Z VRB03KT 9999 SCT025TCU BKN250 28/20 A2993 BECMG RMK TCU DST S SW=
200605292100 METAR MROC 292100Z 10008KT 9999 FEW015TCU SCT030 BKN120 26/19 A2992=
200605292200 METAR MROC 292200Z 26007KT 9999 3000N BR FEW001 SCT030 BKN120 23/22 A2993=
200605292300 METAR MROC 292300Z 28005KT 9999 3000SW BR FEW001 SCT030 BKN120 23/21 A2995=
200605300000 METAR MROC 300000Z 00000KT 9999 FEW030 SCT120 BKN250 22/20 A2996=
200605300100 METAR MROC 300100Z 08003KT 9999 FEW035 SCT250 22/20 A2997=
200605300200 METAR MROC 300200Z 10010KT CAVOK 22/18 A2998=
200605300300 METAR MROC 300300Z 04004KT CAVOK 21/18 A2999 NOSIG=
200605300400 METAR MROC 300400Z 08004KT CAVOK 21/18 A2998 BECMG RMK LTNG DST S SSW=
200605300500 METAR MROC 300500Z 04004KT CAVOK 21/18 A2999 RMK LTNG DST S SSW=
200605300600 METAR MROC 300600Z 05004KT CAVOK 20/18 A2995 NOSIG=
200605300700 METAR MROC 300700Z 00000KT CAVOK 19/18 A2994 NOSIG=
200605300800 METAR MROC 300800Z 02006KT CAVOK 19/17 A2993 NOSIG=
200605300900 METAR MROC 300900Z 05003KT CAVOK 18/17 A2991 BECMG RMK LTNG DST S=
200605301000 METAR MROC 301000Z 07003KT CAVOK 18/16 A2990 BECMG RMK LTNG DST S=
200605301100 METAR MROC 301100Z 11007KT CAVOK 20/17 A2991 BECMG RMK CB/LTNG DST S=
200605301200 METAR MROC 301200Z 09007KT CAVOK 21/17 A2993 BECMG RMK CB DST S SSW=
200605301300 METAR MROC 301300Z 10008KT CAVOK 23/17 A2995 RMK CB DST SW=
200605301400 METAR MROC 301400Z 10008KT CAVOK 25/18 A2995 RMK CB DST SW=
200605301500 METAR MROC 301500Z 11008KT 9999 FEW040 BKN250 27/17 A2996=
200605301600 METAR MROC 301600Z 09007KT 9999 FEW040 BKN250 28/18 A2996 RMK CB DST SW=
200605301700 METAR MROC 301700Z 09005KT 9999 SCT040 BKN260 29/17 A2995 BECMG 24008KT=
200605301800 METAR MROC 301800Z 23005KT 9999 SCT040 SCT260 27/20 A2993=
200605301900 METAR MROC 301900Z 00000KT 9999 FEW015TCU SCT040 31/18 A2991=
200605302000 METAR MROC 302000Z 22006KT 9999 FEW015TCU SCT035 27/22 A2990=
200605302100 METAR MROC 302100Z 23013KT 9999 FEW015TCU SCT030 27/23 A2988 RMK VSBY N 6KM DUE RN RN DST SW NE NOSIG=
200605302200 METAR MROC 302200Z VRB04KT 1000 TSRA FEW012CB BKN020 23/22 A2990 RMK TS E BECMG 3000 RA=
200605302300 METAR MROC 302300Z VRB03KT 9999 -RA FEW015 BKN120 21/20 A2991 RMK DST TS W NOSIG=
200605310000 METAR MROC 310000Z 34003KT 9999 FEW020 SCT120 BKN250 20/20 A2992 NOSIG=
200605310100 METAR MROC 310100Z 00000KT 9999 FEW020 SCT130 BKN250 21/20 A2993 NOSIG=
200605310200 METAR MROC 310200Z 00000KT 9999 FEW030 SCT250 21/19 A2995 NOSIG=
200605310300 METAR MROC 310300Z 09005KT 9999 FEW035 SCT120 21/19 A2995 NOSIG=
200605310400 METAR MROC 310400Z 07004KT CAVOK 21/18 A2995 NOSIG=
200605310500 METAR MROC 310500Z 04005KT CAVOK 20/18 A2996 NOSIG=
200605310600 METAR MROC 310600Z 00000KT CAVOK 19/18 A2994 NOSIG=
200605310700 METAR MROC 310700Z 05006KT CAVOK 20/17 A2992 NOSIG=
200605310800 METAR MROC 310800Z 09004KT CAVOK 19/17 A2992 NOSIG=
200605310900 METAR MROC 310900Z 00000KT CAVOK 20/17 A2990 NOSIG=
200605311000 METAR MROC 311000Z 00000KT CAVOK 20/16 A2991 NOSIG=
200605311100 METAR MROC 311100Z 05010KT CAVOK 21/17 A2992 NOSIG=
200605311200 METAR MROC 311200Z 06004KT 9999 FEWO30 SCT250 20/17 A2992 BECMG RMK CB TCU DST S=
200605311300 METAR MROC 311300Z 10007KT 9999 FEW030 SCT250 23/17 A2994 NOSIG=
200605311400 METAR MROC 311400Z 07010KT CAVOK 25/18 A2997 RMK CB DST S NOSIG=
200605311500 METAR MROC 311500Z 10006KT 9999 27/17 A2995 RMK CB DST S NOSIG=
200605311600 METAR MROC 311600Z 11008KT 9999 FEW025 SCT280 28/19 A2993 BECMG RMK CB DST S=
200605311700 METAR MROC 311700Z 23012KT 9999 FEW020 SCT035 26/21 A2994 NOSIG=
200605311800 METAR MROC 311800Z 23011KT 9999 FEW020TCU BKN030 26/22 A2994 RMK RN NE NOSIG=
200605311900 METAR MROC 311900Z 23010KT 9999 VCSH FEW015TCU BKN025 25/21 A2993 RMK VSBY E 8KM DUE RASH RN N NOSIG=
200605312000 METAR MROC 312000Z 12004KT 9999 RA FEW018TCU SCT025 BKN120 24/21 A2992 RMK VSBY N NE 6KM DUE RN NOSIG=
200605312100 METAR MROC 312100Z 28006KT 9999 -RA SCT020 BKN100 22/21 A2992 RMK 7000SW=
200605312200 METAR MROC 312200Z 27006KT 9999 4000SW BR SCT003 BKN015 22/21 A2992 BECMG 4000 BR=
200605312300 METAR MROC 312300Z 29004KT 7000 3000SW BR FEW003 BKN010 22/21 A2994 NOSIG=
200606010000 METAR MROC 010000Z 00000KT 9999 3000SW BR SCT003 BKN012 21/21 A2995 BECMG 7000 -RA=
200606010600 METAR MROC 010600Z 00000KT CAVOK 21/21 A2999=
200606011200 METAR MROC 011200Z 00000KT 9999 FEW001 BKN120 21/20 A2996 RMK 2000 SW BR=
200606011500 METAR MROC 011500Z 24009KT 9999 FEW003 SCT025 SCT100 24/21 A2999 RMK 5000SW VCSH HZ=
200606011600 METAR MROC 011600Z 28006KT 9999 SCT020 BKN250 26/21 A2998 RMK HZ W SW=
200606011700 METAR MROC 011700Z 27006KT 9999 FEW020TCU SCT025 BKN250 27/21 A2996 RMK HZ W SW BECMG 7000N VCSH=
200606011800 METAR MROC 011800Z 23005KT 9999 FEW015TCU SCT030 SCT250 28/21 A2994 NOSIG=
200606011900 METAR MROC 011900Z 05007KT 9999 4000NE -TSRA FEW010CB SCT025 24/21 A2992 NOSIG=
200606011930 METAR MROC 011930Z 36005KT 9999 4000SW -TS VCSH FEW008CB SCT025 ///// A2990=
200606012000 METAR MROC 012000Z 26005KT 9999 FEW015CB BKN030 25/22 A2989 RMK 7000SW=
200606012100 METAR MROC 012100Z 17005KT 9999 FEW015CB BKN035 23/21 A2990 BECMG RMK RASH DST SW WSW TS DST S=
200606012200 METAR MROC 012200Z 10012KT 9999 SCT035 BKN100 24/19 A2990 NOSIG=
200606012300 METAR MROC 012300Z 09009KT 9999 SCT035 BKN100 24/19 A2991 NOSIG=
200606020100 METAR MROC 020100Z 09005KT CAVOK 23/18 A2995 NOSIG=
200606020200 METAR MROC 020200Z 10008KT CAVOK 22/18 A2997 BECMG RMK LTNG DIST SW=
200606020300 METAR MROC 020300Z 08005KT 9999 FEW025 BKN100 22/18 A2999 NOSIG=
200606020400 METAR MROC 020400Z 09003KT 9999 FEW025 SCT045 BKN270 22/17 A3000 NOSIG=
200606020500 METAR MROC 020500Z 06006KT CAVOK 22/16 A3000 NOSIG=
200606020600 METAR MROC 020600Z 15007KT CAVOK 21/17 A2999 NOSIG=
200606020700 METAR MROC 020700Z 12003KT CAVOK 21/17 A2999 NOSIG=
200606020800 METAR MROC 020800Z 00000KT CAVOK 21/18 A2999 NOSIG=
200606020900 METAR MROC 020900Z 00000KT CAVOK 20/18 A2998 NOSIG=
200606021000 METAR MROC 021000Z 09003KT CAVOK 20/18 A2998 NOSIG=
200606021100 METAR MROC 021100Z 00000KT CAVOK 19/18 A2998 NOSIG=
200606021200 METAR MROC 021200Z 10003KT CAVOK 19/18 A2998 NOSIG=
200606021300 METAR MROC 021300Z 08005KT CAVOK 22/19 A2999 NOSIG=
200606021400 METAR MROC 021400Z 09007KT CAVOK 24/18 A3000 NOSIG=
200606021500 METAR MROC 021500Z 09005KT CAVOK 26/19 A3003 NOSIG=
200606021600 METAR MROC 021600Z 21003KT 9999 FEW040 SCT140 BKN250 27/19 A3002 NOSIG=
200606021900 METAR MROC 021900Z 22009KT 9999 SCT025 BKN250 26/22 A2997 RMK BECMG 5000 VCSH=
200606022000 METAR MROC 022000Z 23009KT 9999 SCT025 BKN250 26/21 A2996 NOSIG=
200606030000 METAR MROC 030000Z VRB03KT 9999 -RA FEW008 SCT020 BKN110 22/20 A2997 NOSIG=
200606031300 METAR MROC 031300Z 00000KT 9999 FEW040 SCT120 BKN250 21/20 A3003 NOSIG=
200606031400 METAR MROC 031400Z 00000KT 9999 FEW035 SCT120 BKN250 24/20 A3003 BECMG 24006KT=
200606031500 METAR MROC 031500Z 24006KT 9999 FEW030 SCT120 BKN250 24/20 A3004 NOSIG=
200606031700 METAR MROC 031700Z 23006KT 9999 FEW030 SCT120 BKN250 25/20 A3001 NOSIG=
200606031900 METAR MROC 031900Z 19007KT 9999 SCT030 BKN250 27/20 A2997 BECMG RMK TCU DST S=
200606032000 METAR MROC 032000Z 24014KT 9000 SCT030TCU SCT120 BKN250 26/21 A2995 RMK TCU RN DST W=
200606032100 METAR MROC 032100Z 24012KT 8000 FEW008 SCT015 BKN100 23/21 A2995 BECMG 4000 -RA BR=
200606032200 METAR MROC 032200Z 25005KT 8000 FEW005 SCT015 BKN100 22/21 A2996=
200606032300 METAR MROC 032300Z 29004KT 3000 RA FEW002 SCT015 BKN100 21/21 A2997=
200606040000 METAR MROC 040000Z 26004KT 6000 -RA FEW005 SCT025 OVC100 21/21 A2999=
200606040100 METAR MROC 040100Z 00000KT 6000 -RA FEW005 SCT025 OVC100 21/21 A3001 NOSIG=
200606040200 METAR MROC 040200Z 27003KT 7000 -RA FEW005 SCT025 OVC100 21/21 A3003 NOSIG=
200606040300 METAR MROC 040300Z 00000KT 7000 -RA FEW003 SCT020 OVC100 20/20 A3004 BECMG RMK VIS SE UNLTD=
200606040400 METAR MROC 040400Z 00000KT 9999 SCT020 BKN100 20/20 A3004 NOSIG=
200606040500 METAR MROC 040500Z 00000KT 9999 FEW020 BKN120 20/20 A3003 BECMG RMK TEND WIND ESE=
200606040600 METAR MROC 040600Z 00000KT CAVOK 20/20 A3000 NOSIG=
200606040700 METAR MROC 040700Z 00000KT 2000SW 9999E BR SCT001 BKN140 20/20 A2999 BECMG 0800 FG BKN001=
200606040800 METAR MROC 040800Z 00000KT 0500 FG BKN001 20/20 A2997 BECMG RMK VIS ESE S SSW UNLTD=
200606040825 METAR MROC 040825Z 32005KT 5000 BR FEW001 SCT007 BKN250 20/20 A2999 RMK VIS S SSW SW UNLTD=
200606040900 METAR MROC 040900Z 02003KT 9999 FEW002 SCT020 BKN100 20/19 A2997 BECMG RMK FG TO SE S=
200606041000 METAR MROC 041000Z 00000KT 9999 FEW020 SCT100 BKN250 19/19 A2997 BECMG RMK FG TO S SSW=
200606041100 METAR MROC 041100Z 03005KT CAVOK 19/18 A2997 NOSIG=
200606041200 METAR MROC 041200Z 05006KT CAVOK 19/18 A2997 NOSIG=
200606041300 METAR MROC 041300Z 00000KT CAVOK 23/20 A3000=
200606041400 METAR MROC 041400Z 00000KT CAVOK 26/21 A3001=
200606041500 METAR MROC 041500Z 26003KT CAVOK 26/21 A3001=
200606041600 METAR MROC 041600Z 25004KT 9999 FEW040 BKN260 25/20 A3000=
200606041700 METAR MROC 041700Z 22007KT 9999 FEW040 BKN260 25/21 A2998=
200606041800 METAR MROC 041800Z 22004KT 9999 FEW040 SCT130 BKN250 26/21 A2997 BECMG 6000 VCSH=
200606041900 METAR MROC 041900Z 23008KT 9999 FEW035 SCT130 BKN250 25/21 A2994=
200606042000 METAR MROC 042000Z 25009KT 9999 SCT035 SCT120 BKN250 26/21 A2992=
200606042100 METAR MROC 042100Z 24009KT 9999 BKN020 25/21 A2989 BECMG RMK RN/CB N NE=
200606042200 METAR MROC 042200Z 24008KT 9999 SCT012 SCT030 23/21 A2989 RMK VSBY N NE 6KM DUE RN NOSIG=
200606042300 METAR MROC 042300Z 26007KT 6000 -RA VCFG SCT006 BKN012 22/21 A2991 RMK VSBY SE S SW UNL VSBY N 4KM NOSIG=
200606050000 METAR MROC 050000Z 25006KT 5000 -RA BR SCT004 SCT012 22/21 A2993 NOSIG=
200606050300 METAR MROC 050300Z 22005KT 7000 RA SCT020 OVC100 20/20 A3000 NOSIG=
200606050400 METAR MROC 050400Z 00000KT 7000 RA SCT025 OVC100 20/20 A3002 NOSIG=
200606050500 METAR MROC 050500Z 00000KT 8000 RA SCT025 OVC100 20/20 A3002 NOSIG=
200606050600 METAR MROC 050600Z 00000KT 9999 FEW006 SCT025 OVC100 20/20 A2999 NOSIG=
200606050700 METAR MROC 050700Z 00000KT 9999 FEW006 SCT025 OVC100 20/20 A2997 NOSIG=
200606050800 METAR MROC 050800Z 00000KT 9999 SCT025 BKN100 20/20 A2994 NOSIG=
200606050900 METAR MROC 050900Z 06005KT CAVOK 19/19 A2992 NOSIG=
200606051000 METAR MROC 051000Z 07004KT CAVOK 19/18 A2992 NOSIG=
200606051100 METAR MROC 051100Z VRB03KT 9999 FEW003 SCT120 OVC250 18/18 A2994 NOSIG=
200606051200 METAR MROC 051200Z 00000KT 9999 FEW003 SCT070 OVC250 19/18 A2996 BECMG RMK LOW ST S 7KM=
200606051300 METAR MROC 051300Z 09003KT 9999 FEW015 BKN250 21/19 A2997 RMK LOW ST SE S SW NOSIG=
200606051400 METAR MROC 051400Z 10005KT 9999 FEW035 SCT100 BKN250 22/20 A2999 NOSIG=
200606051500 METAR MROC 051500Z 10003KT 9999 FEW020 BKN100 24/19 A2999 NOSIG=
200606051600 METAR MROC 051600Z 12003KT 9999 FEW020 SCT100 BKN250 27/20 A2998 NOSIG=
200606051700 METAR MROC 051700Z 22005KT 9999 FEW025 BKN270 26/21 A2997 NOSIG=
200606051800 METAR MROC 051800Z 24007KT 9999 FEW025 BKN270 27/21 A2994 NOSIG=
200606051900 METAR MROC 051900Z 23010KT 9999 SCT020 BKN270 27/22 A2991 RMK RN DST E SW N NOSIG=
200606052000 METAR MROC 052000Z 23009KT 9999 BKN015 SCT270 26/22 A2990 RMK RN SW E=
200606052100 METAR MROC 052100Z 23014KT 9999 3000SW VCSH SCT010CB SCT015 24/21 A2989 BECMG 3000 TSRA=
200606052200 METAR MROC 052200Z 21007KT 7000 VCSH FEW010CB BKN025 23/20 A2989 NOSIG=
200606052300 METAR MROC 052300Z 25007KT 7000 3000SE -RA SCT015 BKN080 22/20 A2992 BECMG 5000 -RA=
200606060000 METAR MROC 060000Z 28006KT 7000 RA SCT020 OVC080 20/20 A2993 NOSIG=
200606060100 METAR MROC 060100Z 30005KT 9999 RA SCT015 OVC100 20/20 A2996 NOSIG=
200606060200 METAR MROC 060200Z 32004KT 9999 DZ FEW006 SCT015 SCT100 20/20 A2998 NOSIG=
200606060300 METAR MROC 060300Z 26003KT 9999 FEW006 SCT100 20/19 A2999=
200606060400 METAR MROC 060400Z 00000KT 9999 FEW006 SCT100 20/19 A2999=
200606060500 METAR MROC 060500Z 00000KT 9999 FEW006 SCT100 20/20 A2999=
200606060600 METAR MROC 060600Z 00000KT 8000 FEW0003 BKN100 20/20 A2997 RMK FG S SW=
200606060700 METAR MROC 060700Z 00000KT 9999 FEW030 BKN100 20/20 A2993=
200606060800 METAR MROC 060800Z 00000KT 9999 FEW030 BKN100 20/20 A2992=
200606060900 METAR MROC 060900Z 14002KT 9999 FEW030 BKN100 19/19 A2991=
200606061000 METAR MROC 061000Z 00000KT 9999 FEW030 BKN100 20/19 A2992=
200606061100 METAR MROC 061100Z 00000KT 9999 FEW003 SCT036 BKN100 20/19 A2995=
200606061200 METAR MROC 061200Z 00000KT 9999 FEW003 SCT030 BKN100 20/19 A2995=
200606061300 METAR MROC 061300Z 22004KT 9999 SCT008 BKN030 21/19 A2998 RMK 7000SW=
200606061400 METAR MROC 061400Z 24004KT 1500 -DZ BR SCT002 BKN020 20/20 A2999 RMK 4000E BR BECMG 5000 BR=
200606061500 METAR MROC 061500Z VRB03KT 9999 SCT015 BKN120 22/20 A3001 NOSIG=
200606061600 METAR MROC 061600Z 00000KT 9999 FEW025 SCT120 BKN250 26/20 A3000 NOSIG=
200606061700 METAR MROC 061700Z 00000KT 9999 FEW025 BKN250 27/20 A2998 NOSIG=
200606061800 METAR MROC 061800Z 24008KT 9999 SCT025 BKN250 27/20 A2996 RMK DZ DST SE NOSIG=
200606061900 METAR MROC 061900Z 23011KT 7000 3000SW DZ FEW008 SCT025 SCT100 23/20 A2994 RMK 9999 N BECMG 6000 RA=
200606062000 METAR MROC 062000Z 23009KT 7000 VCSH SCT010 BKN025 22/21 A2992 NOSIG=
200606062100 METAR MROC 062100Z 25010KT 9999 FEW005 SCT020 BKN100 21/20 A2992 BECMG RMK VIS WNW NW 6KMS DUE RN AND LOW ST=
200606062200 METAR MROC 062200Z 29007KT 8000 DZ VCFG SCT004 SCT020 BKN100 21/20 A2992 BECMG 6000 RMK VIS S SW 4KMS DUE RN/LOW ST=
200606062300 METAR MROC 062300Z 29005KT 9999 -RA FEW004 SCT017 OVC100 21/20 A2994 NOSIG=
200606070000 METAR MROC 070000Z 26005KT 9999 FEW005 SCT015 BKN100 21/19 A2994 BECMG 8000 -RA VCFG RMK RN DST ESE=
200606070100 METAR MROC 070100Z 00000KT 9999 FEW010 SCT020 BKN100 21/19 A2998 BECMG RMK FEW LOW ST TO SSW SW=
200606070200 METAR MROC 070200Z 23003KT 9999 FEW009 SCT020 BKN100 21/19 A3000 BECMG RMK VIS SW 8KM DUE LOW ST=
200606070300 METAR MROC 070300Z 00000KT 5000 -RA BR SCT002 BKN006 20/20 A3001 NOSIG=
200606070400 METAR MROC 070400Z 23003KT 5000 BR SCT002 BKN012 20/20 A3002=
200606070600 METAR MROC 070600Z 26005KT 8000 3000SW -DZ FEW001 SCT005 BKN025 19/19 A3002=
200606070700 METAR MROC 070700Z 28004KT 3000 -DZ FEW001 SCT005 BKN025 19/19 A3000=
200606070800 METAR MROC 070800Z 32003KT 9999 FEW005 BKN015 19/19 A2999 NOSIG=
200606070900 METAR MROC 070900Z 36005KT 9999 FEW005 BKN015 19/19 A2997 NOSIG=
200606071000 METAR MROC 071000Z 00000KT 9999 FEW002 BKN020 20/19 A2998 NOSIG=
200606071100 METAR MROC 071100Z 00000KT 9999 FEW005 SCT020 BKN100 20/19 A2999 BECMG RMK VSBY SW W 6KM LOW ST=
200606071400 METAR MROC 071400Z 27003KT 8000 VCFG FEW003 SCT015 OVC100 21/19 A3004 REDZ BECMG RMK VIS S SSW UNLTD=
200606071500 METAR MROC 071500Z 23003KT 9999 -RA FEW010 SCT020 BKN100 22/19 A3006 NOSIG=
200606071600 METAR MROC 071600Z 31003KT 9999 FEW010 OVC100 23/19 A3005 NOSIG=
200606071700 METAR MROC 071700Z 26004KT 9999 FEW015 BKN100 24/19 A3004 BECMG RMK RN VIS 8KMS TO SW=
200606071800 METAR MROC 071800Z 27009KT 8000 -DZ VCFG FEW005 SCT025 BKN080 23/20 A3003 BECMG 6000 RMK VIS 5KMS TO NW VIS E SE SSE UNLTD=
200606071900 METAR MROC 071900Z 28005KT 9999 FEW010 SCT025 BKN120 23/20 A3001 BECMG 8000 RMK RN DST N/ E SE=
200606072000 METAR MROC 072000Z 23005KT 9999 FEW010 BKN020 24/20 A2998 NOSIG=
200606072100 METAR MROC 072100Z 24010KT 9999 SCT015 BKN100 24/19 A2996 BECMG RA RMK RN DST S=
200606072200 METAR MROC 072200Z 22006KT 9999 FEW010 SCT020 BKN100 23/19 A2996 NOSIG=
200606072300 METAR MROC 072300Z 23007KT 9999 SCT020 BKN140 23/20 A2997 NOSIG=
200606080000 METAR MROC 080000Z 26007KT 9999 FEW020 SCT140 BKN250 21/20 A2999 NOSIG=
200606080100 METAR MROC 080100Z 00000KT 9999 FEW020 SCT130 BKN250 21/20 A3002 NOSIG=
200606080200 METAR MROC 080200Z 00000KT 9999 FEW030 SCT130 SCT250 21/20 A3004 NOSIG=
200606080300 METAR MROC 080300Z 00000KT 9999 FEW030 BKN120 21/20 A3006 NOSIG=
200606080400 METAR MROC 080400Z 00000KT CAVOK 20/20 A3007 NOSIG=
200606080500 METAR MROC 080500Z 06004KT 9999 -DZ OVC100 21/19 A3006 NOSIG=
200606080600 METAR MROC 080600Z 00000KT 9999 FEW015 SCT120 20/19 A3004 NOSIG=
200606080700 METAR MROC 080700Z 05002KT 9999 FEW030 BKN120 20/19 A3003 NOSIG=
200606080800 METAR MROC 080800Z VRB03KT 9999 FEW030 BKN120 20/19 A3000 NOSIG=
200606080900 METAR MROC 080900Z 07002KT 9999 SCT030 SCT120 20/19 A2999 NOSIG=
200606081000 METAR MROC 081000Z 00000KT 9999 SCT030 SCT120 20/18 A2999 NOSIG=
200606081100 METAR MROC 081100Z VRB03KT CAVOK 19/18 A3000 NOSIG=
200606081200 METAR MROC 081200Z VRB03KT CAVOK 20/18 A3002 NOSIG=
200606081300 METAR MROC 081300Z 06004KT CAVOK 21/19 A3004 NOSIG=
200606081400 METAR MROC 081400Z 00000KT CAVOK 24/19 A3004 BECMG 23006KT=
200606081500 METAR MROC 081500Z 25005KT 9999 FEW030 BKN130 25/19 A3005 NOSIG=
200606081600 METAR MROC 081600Z 22005KT 9999 SCT030 BKN130 25/20 A3005 NOSIG=
200606081700 METAR MROC 081700Z 24008KT 9999 SCT030 BKN120 26/19 A3004 NOSIG=
200606081800 METAR MROC 081800Z 25010KT 9999 SCT030 BKN130 27/20 A3003 NOSIG=
200606081900 METAR MROC 081900Z 26007KT 9999 SCT030 BKN120 25/19 A3000 NOSIG=
200606082000 METAR MROC 082000Z 24010KT 9999 SCT030 BKN110 25/20 A2998 NOSIG=
200606082100 METAR MROC 082100Z 25009KT 9999 -RA SCT030 BKN110 24/21 A2997=
200606082200 METAR MROC 082200Z 24004KT 9999 3000N RA FEW005 BKN110 21/20 A2998 BECMG 5000 -RA BR SCT001 SCT010=
200606082300 METAR MROC 082300Z 35003KT 9999 3000SW -RA BR FEW001 SCT005 BKN100 20/19 A2998=
200606090000 METAR MROC 090000Z 00000KT 9999 3000SW BR FEW001 SCT005 BKN100 21/20 A2999=
200606090100 METAR MROC 090100Z 26004KT 9999 FEW005 BKN100 21/21 A3002=
200606090200 METAR MROC 090200Z 30003KT 8000 FEW005 BKN100 21/20 A3005 RMK FG DST S SW=
200606090300 METAR MROC 090300Z 00000KT 9999 FEW003 SCT010 BKN100 21/20 A3006 BECMG RMK VIS S SW 8KMS DUE FG=
200606090400 METAR MROC 090400Z 00000KT 9999 FEW003 SCT010 BKN100 21/20 A3005 NOSIG=
200606090500 METAR MROC 090500Z 00000KT 9999 FEW003 SCT010 BKN100 21/20 A3004 BECMG RMK VIS SSW 8 DUE FG=
200606090600 METAR MROC 090600Z 00000KT 9999 FEW006 BKN120 21/20 A3002 BECMG RMK FG LIG TO S SSW=
200606090700 METAR MROC 090700Z 00000KT 9999 4000SW BR SCT002 SCT006 BKN120 21/20 A3000 BECMG 3000=
200606090800 METAR MROC 090800Z 00000KT 2500 DZ BR SCT002 BKN005 21/20 A2999 BECMG RMK VIS E 6KMS/ENE N UNLTD=
200606090900 METAR MROC 090900Z 00000KT 5000 -DZ BR FEW002 BKN007 20/20 A2996 BECMG RMK VIS N/E QUAD UNLTD=
200606091000 METAR MROC 091000Z 00000KT 3000SW 1200SE BR FEW001 SCT005 BKN250 20/19 A2995 RMK FG BANK IN S/ QUAD VIS N/ QUAD UNLTD=
200606091100 METAR MROC 091100Z 00000KT 3000 BR FEW001 BKN008 19/19 A2996 BECMG RMK VIS N QUAD UNLTD=
200606091200 METAR MROC 091200Z VRB03KT 9999 4000SW BR FEW001 BKN140 19/18 A2997 BECMG RMK FG BANK TO SE S SW=
200606091300 METAR MROC 091300Z 00000KT 9999 FEW002 BKN140 22/19 A3001 BECMG 24006=
200606091400 METAR MROC 091400Z 00000KT 9999 FEW002 BKN140 24/20 A3002 NOSIG=
200606091600 METAR MROC 091600Z 25009KT 9999 FEW030 SCT140 BKN260 25/20 A3003=
200606091700 METAR MROC 091700Z 23008KT 9999 SCT030 SCT130 BKN260 25/21 A3002=
200606091800 METAR MROC 091800Z 22009KT 9999 SCT030 BKN260 26/20 A3000=
200606091900 METAR MROC 091900Z 24011KT 9999 SCT030 BKN260 26/21 A2996=
200606092000 METAR MROC 092000Z 23009KT 9999 DZ SCT025 SCT110 BKN260 23/21 A2994 BECMG 5000 -RA BR=
200606092100 METAR MROC 092100Z 28008KT 1000 RA BR BKN004 SCT012CB 21/20 A2992 NOSIG=
200606092200 METAR MROC 092200Z 00000KT 6000 -RA VCFG FEW005 SCT010 OVC120 20/20 A2993 RMK VSBY NW N NE UNL VSBY S SW 4KM NOSIG=
200606092300 METAR MROC 092300Z 00000KT 5000 -RA BR FEW001 BKN005 21/20 A2994 RMK VSBY SW 3KM NE 7KM NOSIG=
200606100000 METAR MROC 100000Z 00000KT 7000 VCFG FEW006 SCT030 BKN100 20/20 A2996 RMK VSBY SE S SW UNL VSBY N 4KM LOW ST NOSIG=
200606100100 METAR MROC 100100Z 00000KT CAVOK 20/19 A2998 NOSIG=
200606100200 METAR MROC 100200Z 00000KT CAVOK 20/19 A2999 NOSIG=
200606100300 METAR MROC 100300Z 24003KT CAVOK 20/20 A3003 NOSIG=
200606100500 METAR MROC 100500Z 00000KT 7000 SCT004 SCT010 BKN110 20/20 A3004 NOSIG=
200606100600 METAR MROC 100600Z VRB03KT 9999 FEW005 BKN110 20/20 A3002 NOSIG=
200606100700 METAR MROC 100700Z 05004KT 9999 FEW015 BKN110 19/19 A2993 NOSIG=
200606100800 METAR MROC 100800Z 21004KT 8000 FEW004 SCT015 BKN110 19/19 A2997 NOSIG=
200606100900 METAR MROC 100900Z 00000KT 7000 VCFG FEW004 SCT010 BKN100 19/19 A2997 NOSIG=
200606101000 METAR MROC 101000Z 00000KT 7000 VCFG FEW004 SCT015 BKN100 19/18 A2995 NOSIG=
200606101100 METAR MROC 101100Z 00000KT 8000 FEW004 SCT025 BKN100 19/19 A2996 NOSIG=
200606101200 METAR MROC 101200Z 00000KT 7000 VCFG FEW002 SCT040 OVC100 19/19 A2997 NOSIG=
200606101300 METAR MROC 101300Z 00000KT 6000 VCFG FEW005 BKN020 20/19 A3000 RMK VSBY NE UNL NOSIG=
200606101400 METAR MROC 101400Z 00000KT 7000 VCFG FEW006 SCT020 BKN100 22/20 A3000 NOSIG=
200606101500 METAR MROC 101500Z 00000KT 9999 FEW020 SCT120 BKN250 25/20 A3001 NOSIG=
200606101600 METAR MROC 101600Z 00000KT 9999 FEW025 SCT100 BKN250 27/19 A3000 NOSIG=
200606101700 METAR MROC 101700Z VRB02KT 9999 FEW025 SCT100 BKN280 27/19 A2998 NOSIG=
200606101800 METAR MROC 101800Z 23008KT 9999 FEW025 SCT100 BKN260 26/21 A2996 NOSIG=
200606101900 METAR MROC 101900Z 23007KT 9999 FEW020 SCT100 BKN280 25/20 A2994 RMK RN NW NE NOSIG=
200606102000 METAR MROC 102000Z 24012KT 9999 SCT020CB SCT025 24/21 A2991 RMK 7000NE=
200606102100 METAR MROC 102100Z 25012KT 3000 VCSH SCT012CB BKN020 22/19 A2992 BECMG TSRA=
200606102200 METAR MROC 102200Z 08002KT 4000 RA BR FEW003 SCT010 BKN080 20/19 A2994 NOSIG=
200606102300 METAR MROC 102300Z VRB03KT 6000 -RA VCFG FEW005 BKN090 20/20 A2995 NOSIG=
200606110000 METAR MROC 110000Z 32004KT 8000 -RA VCFG FEW003 SCT025 BKN100 20/20 A2997 NOSIG=
200606110100 METAR MROC 110100Z 30004KT 7000 -RA VCFG SCT012 BKN080 20/20 A2999 NOSIG=
200606110200 METAR MROC 110200Z 28004KT 9999 -RA FEW015 OVC090 19/19 A3001 RMK 7000SW=
200606110300 METAR MROC 110300Z 00000KT 9999 FEW015 OVC090 19/19 A3001=
200606110400 METAR MROC 110400Z 05004KT CAVOK 19/19 A3001=
200606110500 METAR MROC 110500Z 26005KT 9999 3000SW BR FEW001 BKN100 19/19 A3001=
200606110600 METAR MROC 110600Z 00000KT 9999 FEW002 BKN100 19/19 A3000=
200606110700 METAR MROC 110700Z 07003KT CAVOK 19/19 A2999=
200606110800 METAR MROC 110800Z 07004KT CAVOK 19/19 A2996=
200606111000 METAR MROC 111000Z 05006KT CAVOK 19/18 A2993=
200606111100 METAR MROC 111100Z 08007KT CAVOK 20/18 A2992=
200606111200 METAR MROC 131200Z 06007KT CAVOK 22/18 A2994 RMK CB TCU DST SSW SW NOSIG=
200606111300 METAR MROC 111300Z 24008KT 9999 BKN025 SCT090 20/19 A2998 RMK 8000SW=
200606111400 METAR MROC 111400Z 21002KT 9999 FEW008 SCT030 SCT090 21/19 A3001 RMK 6000E VCFG NOSIG=
200606111500 METAR MROC 111500Z 27005KT 9999 FEW020 SCT030 23/19 A3001 NOSIG=
200606111600 METAR MROC 111600Z 12002KT 9999 SCT030 26/18 A3001 NOSIG=
200606111700 METAR MROC 111700Z 21006KT 9999 SCT030 26/20 A2999 NOSIG=
200606111800 METAR MROC 111800Z 22004KT 9999 SCT030 SCT250 27/19 A2997 NOSIG=
200606111900 METAR MROC 111900Z 23006KT 9999 SCT035 28/19 A2995 NOSIG=
200606112000 METAR MROC 112000Z 22007KT 9999 SCT030 SCT250 29/20 A2992 NOSIG=
200606112100 METAR MROC 112100Z 23010KT 9999 FEW025TCU SCT030 27/20 A2991 BECMG 7000 VCSH=
200606112200 METAR MROC 112200Z 23010KT 9999 -TS VCSH SCT012CB BKN020 23/21 A2993 BECMG 3000 TSRA BKN010CB RMK RASH VIS 7KMS E NE=
200606112300 METAR MROC 112300Z 24005KT 9999 4000NW -RA FEW010 BKN025 22/21 A2993 NOSIG=
200606120000 METAR MROC 120000Z 00000KT 9999 FEW010 SCT030 BKN140 21/20 A2995 NOSIG=
200606120100 METAR MROC 120100Z 00000KT 9999 FEW005 BKN250 21/20 A2995 NOSIG=
200606120200 METAR MROC 120200Z 00000KT 9999 FEW010 BKN250 21/20 A2997 NOSIG=
200606120300 METAR MROC 120300Z 32003KT 9999 4000W BR SCT005 21/20 A2998 BECMG RMK VSBY NE E SE UNL=
200606120400 METAR MROC 120400Z 00000KT 9999 FEW005 19/19 A2998 BECMG RMK LOW ST W=
200606120500 METAR MROC 120500Z 07004KT CAVOK 19/18 A2998=
200606120600 METAR MROC 120600Z 01006KT CAVOK 19/17 A2997=
200606120700 METAR MROC 120700Z 08003KT CAVOK 17/17 A2996=
200606120800 METAR MROC 120800Z 07003KT CAVOK 17/16 A2997 NOSIG=
200606120900 METAR MROC 120900Z 00000KT CAVOK 17/16 A2994 NOSIG=
200606121000 METAR MROC 121000Z 07003KT CAVOK 17/16 A2995 NOSIG=
200606121100 METAR MROC 121100Z 04004KT CAVOK 17/16 A2997 NOSIG=
200606121200 METAR MROC 121200Z 06003KT CAVOK 17/16 A2997 NOSIG=
200606121300 METAR MROC 121300Z 06003KT CAVOK 20/17 A2998 NOSIG=
200606121400 METAR MROC 121400Z 09003KT CAVOK 25/18 A2998 NOSIG=
200606121500 METAR MROC 121500Z 10004KT CAVOK 27/18 A2998 NOSIG=
200606121600 METAR MROC 121600Z 24004KT 9999 FEW035 BKN300 28/18 A2997 NOSIG=
200606121700 METAR MROC 121700Z 24010KT 9999 SCT040 SCT300 27/21 A2996 NOSIG=
200606121800 METAR MROC 121800Z 24010KT 9999 SCT040 SCT300 27/21 A2996 NOSIG=
200606121900 METAR MROC 121900Z 23009KT 9999 FEW020TCU SCT030 27/20 A2993 NOSIG=
200606130000 METAR MROC 130000Z 25004KT 3000 -RA BR FEW003 SCT020 OVC100 22/22 A2992 BECMG 4000 -RA=
200606130100 METAR MROC 130100Z 00000KT 6000 -RA VCFG FEW004 SCT020 OVC100 22/21 A2993 NOSIG=
200606130200 METAR MROC 130200Z 02004KT 9999 SCT025 BKN100 21/20 A2995 NOSIG=
200606130300 METAR MROC 130300Z 34004KT 9999 -DZ SCT025 BKN100 21/21 A2996 NOSIG=
200606130400 METAR MROC 130400Z 02004KT 9999 FEW025 SCT250 21/20 A2995 NOSIG=
200606130500 METAR MROC 130500Z 06004KT 9999 FEW035 SCT250 19/19 A2995 RMK DUE ST SW NOSIG=
200606130600 METAR MROC 130600Z 05002KT 9999 FEW006 SCT030 SCT120 20/19 A2994 NOSIG=
200606130700 METAR MROC 130700Z VRB03KT 9999 FEW004 SCT030 BKN120 19/19 A2994 RMK VIS 8000 S DUE ST LTNG DST S BECMG 6000 VCFG=
200606130800 METAR MROC 130800Z 06004KT 9999 SCT030 BKN120 20/19 A2992 RMK ST S/SW=
200606130900 METAR MROC 130900Z VRB03KT CAVOK 20/18 A2990 RMK LINE CB/LTNG DST S/SW NOSIG=
200606131000 METAR MROC 131000Z 10006KT CAVOK 20/18 A2990 RMK LINE CB DST S NOSIG=
200606131100 METAR MROC 131100Z 06007KT CAVOK 20/17 A2992 RMK LINE CB/TCU DST S/SW NOSIG=
200606131200 METAR MROC 131200Z 06007KT CAVOK 22/18 A2994 RMK CB TCU DST SSW SW NOSIG=
200606131300 METAR MROC 131300Z 05006KT CAVOK 23/19 A2994=
200606131400 METAR MROC 131400Z 20005KT FEW040 BKN260 25/20 A2997=
200606131500 METAR MROC 131500Z 29005KT 9999 FEW040 SCT120 BKN260 26/19 A2998=
200606131600 METAR MROC 131600Z 23007KT 9999 SCT035 SCT120 BKN260 25/21 A2997=
200606131700 METAR MROC 131700Z 23004KT 9999 SCT035 SCT120 BKN260 28/21 A2994=
200606131800 METAR MROC 131800Z 23007KT 9999 BKN025TCU SCT260 28/21 A2992=
200606131900 METAR MROC 131900Z 22007KT 9999 FEW015TCU SCT030 BKN260 26/23 A2990=
200606132000 METAR MROC 132000Z 22008KT 9999 FEW015TCU SCT030 SCT120 23/21 A2990=
200606132100 METAR MROC 132100Z 26007KT 9999 DZ FEW012 SCT025 SCT120 22/21 A2990=
200606132200 METAR MROC 132200Z 29006KT 9999 FEW006 SCT015 SCT060 22/20 A2991 RMK BR ARND=
200606132300 METAR MROC 132300Z 30005KT 8000 -DZ BR SCT006 SCT020 22/20 A2992=
200606140000 METAR MROC 140000Z 00000KT 9999 SCT010 SCT120 22/20 A2992 RERA=
200606140100 METAR MROC 140100Z 18004KT 9999 FEW025 SCT180 21/20 A2993=
200606140200 METAR MROC 140200Z 01005KT 9999 FEW035 SCT150 21/20 A2997=
200606140300 METAR MROC 140300Z 00000KT 9999 FEW010 BKN035 22/20 A2999 NOSIG=
200606140400 METAR MROC 140400Z 27004KT 9999 FEW010 BKN035 22/20 A3000 NOSIG=
200606140500 METAR MROC 140500Z 03003KT 9999 FEW010 SCT035 BKN100 21/20 A3000 NOSIG=
200606140600 METAR MROC 140600Z 09003KT 9999 -DZ SCT040 BKN100 21/20 A2999 NOSIG=
200606140700 METAR MROC 140700Z 02003KT 9999 -RA FEW040 OVC100 21/20 A2998 NOSIG=
200606140800 METAR MROC 140800Z 00000KT 9999 DZ SCT025 BKN100 20/20 A2994 NOSIG=
200606140900 METAR MROC 140900Z 00000KT 9999 FEW025 OVC100 20/20 A2995 REDZ NOSIG=
200606141000 METAR MROC 141000Z 00000KT 9999 FEW025 OVC100 20/20 A2995 NOSIG=
200606141100 METAR MROC 141100Z 00000KT 9999 FEW025 BKN100 20/20 A2996 BECMG RMK LOW ST SE=
200606141200 METAR MROC 141200Z 10003KT 9999 FEW030 BKN070 20/19 A2997 NOSIG=
200606141300 METAR MROC 141300Z 01004KT 9999 FEW045 SCT220 22/20 A2997=
200606141400 METAR MROC 141400Z 20003KT 9999 SCT040 SCT100 22/21 A3000=
200606141500 METAR MROC 141500Z 22003KT 9999 FEW025 SCT250 26/20 A2999=
200606141600 METAR MROC 141600Z 23006KT 9999 SCT020TCU SCT180 26/21 A3000=
200606141700 METAR MROC 141700Z 22007KT 9999 SCT020TCU SCT120 26/22 A2999=
200606141800 METAR MROC 141800Z 24010KT 9999 SCT015TCU SCT090 26/22 A2997 BECMG 5000 -TSRA=
200606141900 METAR MROC 141900Z 22011KT 7000 -RA BR SCT008CB SCT070 22/21 A2996 BECMG 3000 -RA BR=
200606142000 METAR MROC 142000Z 23005KT 6000 DZ BR FEW005 BKN050 22/20 A2996=
200606142100 METAR MROC 142100Z 35005KT 9999 FEW006 OVC120 22/20 A2994 RMK VSBY N 6KM DUE RN NOSIG=
200606142200 METAR MROC 142200Z 08003KT 9999 -RA FEW020 BKN120 22/20 A2995 RMK VSBY N NE E 7KM NOSIG=
200606142300 METAR MROC 142300Z 09006KT 9999 -RA FEW035 OVC120 21/20 A2996 NOSIG=
200606150000 METAR MROC 150000Z 09007KT 9999 -RA OVC120 20/19 A2997 NOSIG=
200606150100 METAR MROC 150100Z 05006KT CAVOK 21/19 A2998 NOSIG=
200606150200 METAR MROC 150200Z 05007KT CAVOK 20/19 A2996 NOSIG=
200606150300 METAR MROC 150300Z 00000KT CAVOK 20/19 A2997=
200606150400 METAR MROC 150400Z 35004KT CAVOK 20/19 A2999=
200606150500 METAR MROC 150500Z 28004KT CAVOK 20/19 A2999=
200606150600 METAR MROC 150600Z 00000KT CAVOK 21/20 A3000=
200606150700 METAR MROC 150700Z 00000KT CAVOK 20/20 A2999=
200606150800 METAR MROC 150800Z 07003KT CAVOK 20/19 A2997=
200606150900 METAR MROC 150900Z 05004KT CAVOK 19/18 A2997=
200606151000 METAR MROC 151000Z 05008KT CAVOK 19/18 A2995=
200606151100 METAR MROC 151100Z 03006KT CAVOK 19/17 A2997=
200606151200 METAR MROC 151200Z 04004KT CAVOK 20/17 A2997=
200606151300 METAR MROC 151300Z 16003KT CAVOK 23/18 A3001=
200606151400 METAR MROC 151400Z 23004KT 9999 FEW025 BKN280 23/20 A3003 NOSIG=
200606151500 METAR MROC 151500Z 24006KT 9999 SCT025 BKN280 25/20 A3005 NOSIG=
200606151600 METAR MROC 151600Z 25006KT 9999 SCT025 BKN280 25/19 A3004 NOSIG=
200606151700 METAR MROC 151700Z 27006KT 9999 SCT025 BKN280 26/20 A3002 NOSIG=
200606151800 METAR MROC 151800Z 23006KT 9999 FEW025 BKN280 26/20 A2999 NOSIG=
200606151900 METAR MROC 151900Z 23007KT 9999 FEW025 BKN280 27/21 A2996 NOSIG=
200606152000 METAR MROC 152000Z 24009KT 9999 SCT030 BKN280 27/21 A2993 NOSIG=
200606152100 METAR MROC 152100Z 25010KT 9999 SCT025 SCT120 BKN260 26/22 A2992 NOSIG=
200606152200 METAR MROC 152200Z 25007KT 9999 -RA SCT020TCU BKN100 25/22 A2992 BECMG 6000 RA=
200606152300 METAR MROC 152300Z 00000KT 4000 FEW015CB SCT025 OVC100 21/20 A2994 RMK VIS E SE 9999=
200606152354 METAR MROC 160000Z 27004KT 9999 FEW020CB BKN035 20/20 A2995 RMK VIS SW 6000 CB=
200606160000 METAR MROC 160000Z 27004KT 9999 FEW020CB BKN035 20/20 A2995 RMK=
200606160100 METAR MROC 160100Z 25004KT 7000 VCFG FEW005 SCT025 OVC100 20/20 A2998=
200606160200 METAR MROC 160200Z 00000KT 9999 FEW003 BKN120 20/20 A2996 RMK VIS 6KM S DUE ST BECMG VRB03KT 7000 VCFG=
200606160300 METAR MROC 160300Z 00000KT CAVOK 20/19 A2995=
200606160400 METAR MROC 160400Z 19004KT 0500 FG BKN001 20/19 A2997 BECMG 3000=
200606160500 METAR MROC 160500Z 00000KT CAVOK 20/19 A2997=
200606160600 METAR MROC 160600Z 05003KT CAVOK 20/19 A2997=
200606160700 METAR MROC 160700Z 00000KT CAVOK 20/19 A2996=
200606160800 METAR MROC 160800Z 25003KT CAVOK 20/19 A2997=
200606160900 METAR MROC 160900Z 01005KT 9999 FEW030 SCT100 19/18 A2995=
200606161000 METAR MROC 161000Z 36006KT CAVOK 19/17 A2993=
200606161100 METAR MROC 161100Z 05010KT CAVOK 20/17 A2994=
200606161200 METAR MROC 161200Z 06004KT CAVOK 19/17 A2995=
200606161300 METAR MROC 161300Z 07005KT CAVOK 22/18 A2996 NOSIG=
200606161400 METAR MROC 161400Z 03004KT CAVOK 25/15 A2995 NOSIG=
200606161500 METAR MROC 161500Z 25007KT CAVOK 25/20 A2997=
200606161600 METAR MROC 161600Z 22006KT 9999 FEW035 26/20 A2997=
200606161700 METAR MROC 161700Z 22005KT 9999 SCT035 27/21 A2996=
200606161800 METAR MROC 161800Z 25006KT 9999 SCT035 SCT250 28/21 A2994=
200606161854 METAR MROC 181900Z 28008KT 9999 SCT030TCU BKN250 26/20 A2994 BECMG 7000 VCSH=
200606161900 METAR MROC 161900Z 28008KT 9999 SCT030TCU BKN250 26/20 A2994 BECMG 7000 VCSH=
200606162000 METAR MROC 162000Z 22010KT 9999 SCT025TCU BKN250 26/22 A2990 BECMG 7000 VCSH=
200606162100 METAR MROC 162100Z 21007KT 9999 FEW020TCU SCT040 BKN250 25/22 A2990 BECMG 7000 VCSH SCT015CB BKN025 RMK CB DST SE S=
200606162200 METAR MROC 162200Z 24011KT 9999 3000NW DZ VCSH FEW015TCU SCT035 BKN120 22/21 A2990 BECMG RMK LOW CLOWDS TO SW NEAR APCH07=
200606162300 METAR MROC 162300Z NIL=
200606170000 METAR MROC 170000Z 29003KT 9999 FEW007 SCT035 BKN120 22/21 A2994 BECMG RMK LOW CLDS OVCER APCH07=
200606170100 METAR MROC 170100Z 27003KT 9999 SCT006 SCT015 BKN120 22/20 A2994 NOSIG=
200606170200 METAR MROC 170200Z 33003KT 9999 FEW008 SCT020 BKN120 22/20 A2997 NOSIG=
200606170300 METAR MROC 170300Z 00000KT 9999 FEW008 SCT020 BKN120 22/20 A2998 NOSIG=
200606170400 METAR MROC 170400Z 00000KT 9999 SCT020 BKN250 21/20 A2998 NOSIG=
200606170500 METAR MROC 170500Z 00000KT 9999 FEW030 21/20 A2997 NOSIG=
200606170600 METAR MROC 170600Z 00000KT 9999 FEW030 20/19 A2994 NOSIG=
200606170700 METAR MROC 170700Z 07006KT CAVOK 21/19 A2992 NOSIG=
200606170800 METAR MROC 170800Z 06005KT CAVOK 21/19 A2992 NOSIG=
200606170900 METAR MROC 170900Z 05003KT CAVOK 21/18 A2991 NOSIG=
200606171000 METAR MROC 171000Z 04004KT CAVOK 21/18 A2990 NOSIG=
200606171100 METAR MROC 171100Z 35004KT 9999 FEW030 SCT090 21/18 A2991 NOSIG=
200606171200 METAR MROC 171200Z 34005KT 9999 FEW030 SCT090 20/18 A2993 NOSIG=
200606171300 METAR MROC 171300Z 00000KT 9999 FEW030 SCT100 23/19 A2994 NOSIG=
200606171400 METAR MROC 171400Z 12003KT 9999 FEW030 SCT100 25/19 A2996 NOSIG=
200606171500 METAR MROC 171500Z VRB03KT 9999 FEW025 SCT080 25/20 A2996 BECMG 24008KT=
200606171600 METAR MROC 171600Z 09008KT 9999 FEW030 SCT120 28/18 A2997 NOSIG=
200606171700 METAR MROC 171700Z 05009KT 9999 SCT035 SCT140 29/18 A2996 NOSIG=
200606171800 METAR MROC 171800Z 06008KT 9999 SCT035 SCT140 BKN250 29/18 A2994 NOSIG=
200606171900 METAR MROC 171900Z 08010KT 9999 SCT030 SCT120 BKN250 27/19 A2993 NOSIG=
200606172000 METAR MROC 172000Z 10010KT 9999 -RA SCT030 BKN070 23/19 A2994 NOSIG=
200606172100 METAR MROC 172100Z 10011KT 9999 FEW035 BKN270 24/18 A2991=
200606172200 METAR MROC 172200Z 10012KT 9999 FEW035 BKN270 25/17 A2989=
200606172300 METAR MROC 172300Z 10010KT 9999 FEW035 OVC260 24/16 A2989=
200606180000 METAR MROC 180000Z 10006KT CAVOK 23/16 A2991=
200606180100 METAR MROC 180100Z 10008KT CAVOK 22/16 A2992=
200606180200 METAR MROC 180200Z 10007KT CAVOK 22/17 A2993=
200606180300 METAR MROC 180300Z 10009KT CAVOK 21/17 A2993=
200606180400 METAR MROC 180400Z 05008KT CAVOK 21/17 A2993=
200606180500 METAR MROC 180500Z 02007KT CAVOK 21/16 A2995=
200606180600 METAR MROC 180600Z 02004KT CAVOK 21/16 A2994=
200606180700 METAR MROC 180700Z 07006KT CAVOK 22/17 A2992 NOSIG=
200606180800 METAR MROC 180800Z 05004KT CAVOK 20/17 A2991 NOSIG=
200606180900 METAR MROC 180900Z 10010KT CAVOK 21/17 A2990 NOSIG=
200606181000 METAR MROC 181000Z 09007KT CAVOK 21/17 A2991 NOSIG=
200606181100 METAR MROC 181100Z 09007KT CAVOK 21/17 A2991 NOSIG=
200606181200 METAR MROC 181200Z 09007KT CAVOK 21/17 A2991 NOSIG=
200606181300 METAR MROC 181300Z 07004KT CAVOK 21/17 A2991=
200606181400 METAR MROC 181400Z 09016KT CAVOK 25/16 A2997=
200606181500 METAR MROC 181500Z 10013KT CAVOK 27/17 A2998=
200606181600 METAR MROC 181600Z 10011KT 9999 FEW040 BKN300 28/16 A2996=
200606181700 METAR MROC 181700Z 12010KT 9999 FEW040 BKN300 29/16 A2995=
200606181800 METAR MROC 181800Z 22006KT 9999 SCT035 SCT300 28/22 A2995=
200606181900 METAR MROC 181900Z 22009KT 9999 FEW015TCU SCT035 28/22 A2993=
200606182100 METAR MROC 182100Z 24009KT 9999 FEW035 SCT120 SCT250 26/23 A2989 NOSIG=
200606182200 METAR MROC 182200Z 21008KT 9000 SCT012TCU SCT040 25/22 A2991 RMK BR ARND BECMG 6000 VCSH=
200606190000 METAR MROC 190000Z 34004KT 9999 FEW010 SCT025 BKN250 23/20 A2992 RMK BR SW W=
200606190100 METAR MROC 190100Z 00000KT 9999 FEW015 22/20 A2993=
200606190200 METAR MROC 190200Z 05004KT CAVOK 22/19 A2993=
200606190300 METAR MROC 190300Z 05006KT CAVOK 22/18 A2994 NOSIG=
200606190400 METAR MROC 190400Z 09011KT CAVOK 22/18 A2995 NOSIG=
200606190500 METAR MROC 190500Z 10009KT CAVOK 22/18 A2995 NOSIG=
200606190600 METAR MROC 190600Z 10010KT CAVOK 22/18 A2995 BECMG RMK OCNL LTNG DST S SSE=
200606190700 METAR MROC 190700Z 07006KT CAVOK 21/17 A2993 BECMG RMK LTNG DST S SSE=
200606190800 METAR MROC 190800Z VRB03KT CAVOK 21/17 A2992 BECMG RMK LTNG DST SSE S=
200606190900 METAR MROC 190900Z 01004KT CAVOK 21/19 A2991 BECMG RMK LTNG DST S SSE=
200606191000 METAR MROC 191000Z 08006KT CAVOK 21/17 A2992 BECMG RMK LTNG DST S SSE=
200606191100 METAR MROC 191100Z 07005KT CAVOK 21/17 A2992 BECMG RMK CB LTNG DST S=
200606191200 METAR MROC 191200Z 09012KT CAVOK 22/17 A2993 BECMG RMK CB DIST S=
200606191300 METAR MROC 191300Z 09010KT CAVOK 23/17 A2995=
200606191400 METAR MROC 191400Z 10015KT CAVOK 25/18 A2996=
200606191500 METAR MROC 191500Z 11015KT CAVOK 26/18 A2997=
200606191600 METAR MROC 191600Z 10015KT CAVOK 28/17 A2998=
200606191700 METAR MROC 191700Z 08012KT CAVOK 29/18 A2997=
200606191800 METAR MROC 191800Z 07013KT 9999 FEW035 BKN250 30/18 A2995=
200606191900 METAR MROC 191900Z 08015KT 9999 FEW030 BKN250 29/18 A2994=
200606192000 METAR MROC 192000Z 08012KT 9999 FEW020 BKN200 28/17 A2992=
200606192100 METAR MROC 192100Z 08008KT 9999 BKN035 SCT270 27/18 A2991 NOSIG=
200606192200 METAR MROC 192200Z 11009KT 9999 SCT030 OVC250 26/19 A2992 NOSIG=
200606192300 METAR MROC 192300Z 11009KT 9999 FEW015 SCT150 BKN250 24/19 A2993 NOSIG=
200606200000 METAR MROC 200000Z 05006KT 9999 FEW025 BKN250 24/19 A2994 NOSIG=
200606200100 METAR MROC 200100Z 06004KT 9999 FEW030 BKN250 23/18 A2995 NOSIG=
200606200200 METAR MROC 200200Z 24006KT 9999 FEW002 SCT005 BKN250 22/21 A2998 BECMG RMK VSBY SW 5KM LOW ST=
200606200300 METAR MROC 200300Z 00000KT 9999 FEW005 SCT250 22/21 A2999=
200606200400 METAR MROC 200400Z 35004KT 9999 3000SW VCFG FEW001 SCT250 22/21 A2999=
200606200500 METAR MROC 200500Z 00000KT 9999 3000SW VCFG FEW001 SCT250 22/21 A2999=
200606200600 METAR MROC 200600Z 06005KT CAVOK 21/18 A2997=
200606200700 METAR MROC 200700Z 11003KT CAVOK 20/18 A2995=
200606200800 METAR MROC 200800Z 11003KT CAVOK 21/17 A2992=
200606200900 METAR MROC 200900Z 05007KT CAVOK 21/17 A2991=
200606201000 METAR MROC 201000Z 09008KT CAVOK 22/17 A2991=
200606201100 METAR MROC 201100Z 03006KT CAVOK 21/17 A2992=
200606201200 METAR MROC 201200Z 06005KT CAVOK 21/17 A2992=
200606201300 METAR MROC 201300Z 02004KT CAVOK 23/17 A2995 RMK BKN250=
200606201400 METAR MROC 201400Z 10012KT CAVOK 25/18 A2995 NOSIG=
200606201500 METAR MROC 201500Z 09009KT 9999 FEW035 BKN270 28/18 A2997 NOSIG=
200606201600 METAR MROC 201600Z 09012KT 9999 BKN035 SCT090 26/19 A2998 RMK RN N NE NOSIG=
200606201700 METAR MROC 201700Z 06014KT 9999 BKN035 SCT090 26/17 A2999 RMK RN NW N NE E NOSIG=
200606201800 METAR MROC 201800Z 10013KT 9999 -RA BKN035 SCT100 24/19 A2997 NOSIG=
200606201900 METAR MROC 201900Z 10015KT 9999 SCT035 BKN250 26/17 A2993 NOSIG=
200606202000 METAR MROC 202000Z 07019G29KT 9999 SCT035 SCT090 BKN270 27/18 A2991 NOSIG=
200606202100 METAR MROC 202100Z 10019KT CAVOK 26/17 A2988 NOSIG=
200606202200 METAR MROC 202200Z 10010KT CAVOK 27/16 A2989 NOSIG=
200606202300 METAR MROC 202300Z 11008KT 9999 FEW008 BKN120 26/17 A2991 NOSIG=
200606210000 METAR MROC 210000Z 08008KT 9999 FEW012 BKN120 24/15 A2994 NOSIG=
200606210100 METAR MROC 210100Z 10006KT CAVOK 23/17 A2996 RMK TS DST S SSW NOSIG=
200606210200 METAR MROC 210200Z 11010KT CAVOK 22/18 A2999 RMK CB/ LTNG DST S NOSIG=
200606210300 METAR MROC 210300Z 10008KT CAVOK 22/17 A3000 RMK CB/LTNG DST S SW W=
200606210400 METAR MROC 210400Z 00000KT CAVOK 22/18 A3001 RMK LTNG DST S=
200606210500 METAR MROC 210500Z 27003KT CAVOK 21/18 A3002 RMK LTNG DST SW=
200606210600 METAR MROC 210600Z 30003KT CAVOK 21/19 A3001 RMK LTNG DST SW=
200606210700 METAR MROC 210700Z 08004KT 9999 FEW035 SCT150 20/17 A2998=
200606210800 METAR MROC 210800Z 07005KT 9999 FEW035 SCT180 21/18 A2996=
200606211000 METAR MROC 211000Z 10008KT CAVOK 23/17 A2992=
200606211100 METAR MROC 211100Z 10012KT CAVOK 22/17 A2993=
200606211200 METAR MROC 211200Z 11012KT CAVOK 22/17 A2992=
200606211300 METAR MROC 211300Z 11014KT CAVOK 24/18 A2994 NOSIG=
200606211400 METAR MROC 211400Z 11012KT 9999 FEW040 SCT120 26/18 A2996 NOSIG=
200606211500 METAR MROC 211500Z 10009KT 9999 FEW040 SCT160 25/18 A2998 NOSIG=
200606211600 METAR MROC 211600Z 08007KT 9999 FEW035 BKN120 27/18 A2999 NOSIG=
200606211700 METAR MROC 211700Z 07009KT 9999 SCT035 BKN120 28/18 A3000 NOSIG=
200606211800 METAR MROC 211800Z 07011KT 9999 FEW030 BKN120 28/18 A2996 BECMG RMK DZ DST NE E=
200606211900 METAR MROC 211900Z 11009KT 9999 FEW020 SCT030 SCT120 29/19 A2994 NOSIG=
200606212000 METAR MROC 212000Z 11013KT 9999 FEW015 SCT025 BKN100 26/19 A2993 RMK RN DST NE E SE S SW=
200606212100 METAR MROC 212100Z 10009KT 9999 DZ SCT025 BKN045 25/19 A2992 NOSIG=
200606212200 METAR MROC 212200Z 10010KT 9999 FEW025 SCT045 BKN080 25/18 A2993 REDZ NOSIG=
200606212300 METAR MROC 212300Z 07010KT 9999 FEW045 BKN080 25/17 A2993 BECMG RMK LOW ST TO SW=
200606220000 METAR MROC 220000Z VRB03KT 9999 FEW002 BKN080 23/18 A2995 BECMG 24005KT 4000SW BR SCT002 RMK LOW ST TO SW NEAR APCH07=
200606220100 METAR MROC 220100Z 29005KT 9999 4000SW BR FEW002 BKN100 21/20 A2996 NOSIG=
200606220200 METAR MROC 220200Z 28006KT 9999 3000SW BR FEW002 BKN120 21/20 A2998 NOSIG=
200606220300 METAR MROC 220300Z 12003KT 9999 FEW010 SCT280 21/20 A2997 NOSIG=
200606220400 METAR MROC 220400Z 00000KT CAVOK 21/20 A2999 NOSIG=
200606220500 METAR MROC 220500Z 02003KT CAVOK 21/20 A3000 NOSIG=
200606220600 METAR MROC 220600Z 02005KT CAVOK 21/19 A2999 NOSIG=
200606220700 METAR MROC 220700Z 06008KT CAVOK 20/18 A2996 NOSIG=
200606220800 METAR MROC 220800Z 06004KT CAVOK 21/18 A2995 NOSIG=
200606220900 METAR MROC 220900Z 06006KT CAVOK 21/17 A2994 NOSIG=
200606221000 METAR MROC 221000Z 36004KT CAVOK 21/17 A2994 NOSIG=
200606221100 METAR MROC 221100Z 03004KT CAVOK 20/17 A2996 NOSIG=
200606221200 METAR MROC 221200Z 03006KT CAVOK 20/17 A2997 RMK CB DST S NOSIG=
200606221300 METAR MROC 221300Z 06005KT CAVOK 23/18 A2998 NOSIG=
200606221400 METAR MROC 221400Z 10004KT CAVOK 26/18 A2998 NOSIG=
200606221500 METAR MROC 221500Z 23008KT CAVOK 26/20 A3000 NOSIG=
200606221600 METAR MROC 221600Z 25008KT 9999 FEW045 SCT300 27/19 A2999 NOSIG=
200606221700 METAR MROC 221700Z 23009KT 9999 SCT035 SCT300 27/21 A2999 NOSIG=
200606221800 METAR MROC 221800Z 23010KT 9999 FEW025TCU SCT035 27/22 A2998 BECMG 7000 VCSH=
200606221900 METAR MROC 221900Z 22009KT 9999 FEW020CB BKN025 26/22 A2995 RMK RASH TS DST ESE BECMG 5000 TS VCSH=
200606222000 METAR MROC 222000Z 22007KT 9999 2000SW TSRA SCT015CB BKN025 23/22 A2994 BECMG 2000=
200606222100 METAR MROC 222100Z 24007KT 8000 VCSH FEW015CB SCT020 OVC100 21/21 A2994=
200606222200 METAR MROC 222200Z 00000KT 8000 -DZ FEW015 SCT030 OVC100 22/21 A2994 RMK VIS S SE UNL NOSIG=
200606222300 METAR MROC 222300Z 00000KT 9999 -RA FEW001 SCT020 OVC100 22/20 A2996 RMK VIS SW W 4000 DUE FG=
200606230000 METAR MROC 230000Z 10003KT 9999 -RA FEW001 SCT020 OVC100 21/21 A2996 RMK VIS SW W 4000 DUE FG=
200606230100 METAR MROC 230100Z 10006KT 9999 FEW030 OVC100 21/20 A2997=
200606230200 METAR MROC 230200Z 09006KT 9999 -RA OVC100 21/20 A2997 NOSIG=
200606230300 METAR MROC 230300Z 06006KT CAVOK 22/19 A2997 NOSIG=
200606230400 METAR MROC 230400Z 08004KT CAVOK 21/19 A2997 NOSIG=
200606230500 METAR MROC 230500Z 12005KT CAVOK 22/19 A2998 NOSIG=
200606230600 METAR MROC 230600Z 09007KT CAVOK 22/19 A2997 NOSIG=
200606230700 METAR MROC 230700Z 07004KT 9999 FEW030 BKN120 21/18 A2995 RMK CB/LTNG DST SW NOSIG=
200606230800 METAR MROC 230800Z VRB03KT 9999 FEW002 BKN120 19/18 A2995 RMK VIS 6KM S/SW DUE ST LTNG DST S BECMG 6000 VCFG=
200606230900 METAR MROC 230900Z 22004KT 9999 FEW002 BKN120 20/18 A2993 RMK VIS 6KM S/SW DUE ST LINE CB/HVY LTNG DST SSE/S/SW BECMG 6000 VCFG=
200606231000 METAR MROC 231000Z 35007KT 9999 FEW030 BKN120 21/18 A2993 RMK ST/LTNG DST S BECMG CAVOK=
200606231100 METAR MROC 231100Z 04006KT CAVOK 20/18 A2993 RMK ST S CB/LTNG DST SSE/S NOSIG=
200606231200 METAR MROC 231200Z 01006KT CAVOK 21/18 A2995 RMK DUE ST SSW CB DST SW=
200606231300 METAR MROC 231300Z 06008KT CAVOK 22/19 A2996=
200606231400 METAR MROC 231400Z 05004KT CAVOK 26/19 A2996 NOSIG=
200606231500 METAR MROC 231500Z 11008KT CAVOK 27/20 A2997 NOSIG=
200606231600 METAR MROC 231600Z 10009KT 9999 FEW040 BKN240 28/19 A2997 NOSIG=
200606231700 METAR MROC 231700Z 24011KT 9999 SCT035 BKN240 27/22 A2998 NOSIG=
200606231800 METAR MROC 231800Z 26008KT 9999 SCT035 BKN240 27/22 A2996 NOSIG=
200606231900 METAR MROC 231900Z 23007KT 9999 FEW015TCU SCT035 BKN240 27/22 A2995 NOSIG=
200606232000 METAR MROC 232000Z 21007KT 9999 FEW015TCU SCT030 BKN240 26/22 A2993 BECMG 8000 VCSH=
200606232100 METAR MROC 232100Z 22006KT 9000 -TSDZ FEW010TCU SCT025CB SCT100 24/21 A2993=
200606232200 METAR MROC 232200Z 30005KT 7000 DZ BR SCT010CB SCT060 22/21 A2993 RMK BR S SW=
200606232300 METAR MROC 232300Z 00000KT 8000 SCT010 SCT240 22/21 A2990 RMK BR S SW W=
200606240000 METAR MROC 240000Z 00000KT 8000 VCFG FEW004 SCT020 BKN150 22/21 A2992 RMK BR ARND=
200606240100 METAR MROC 240100Z 00000KT 8000 VCFG SCT010 SCT060 22/21 A2994 RMK BR ARND=
200606240200 METAR MROC 240200Z 00000KT 9000 SCT010 SCT100 22/21 A2995 RMK LTNG/CB N=
200606240300 METAR MROC 240300Z 00000KT 9999 FEW007 OVC100 22/21 A2997 BECMG 8000 -RA RMK VIS S SW 7KMS DUE LOW ST/ LTNG DST NE SSW=
200606240400 METAR MROC 240400Z 00000KT 5000 BR SCT002 BKN100 21/21 A2998 BECMG 2000 -RA BR RMK VIS SW 3KM VIS N/E QUAD UNLTD=
200606240500 METAR MROC 240500Z 00000KT 7000 VCFG FEW002 BKN100 22/21 A2998 BECMG 04005KT 9999 FEW035 RMK LTNG DST N NE=
200606240600 METAR MROC 240600Z 00000KT 9999 FEW035 OVC120 21/20 A2996 NOSIG=
200606240700 METAR MROC 240700Z 00000KT 9999 FEW035 BKN120 21/20 A2993 BECMG RMK=
200606240800 METAR MROC 240800Z 22003KT 0500 9999E FG SCT001 BKN120 20/20 A2991 BECMG RMK FG BANK OVER RNY LTNG DIST SSE S=
200606240900 METAR MROC 240900Z 23003KT 1500 BR SCT001 BKN004 21/20 A2992 BECMG 2000=
200606241000 METAR MROC 241000Z 00000KT 0500 FG VV001 20/20 A2991 NOSIG=
200606241100 METAR MROC 241100Z 00000KT 0200 FG VV/// 20/20 A2994 NOSIG=
200606241110 METAR MROC 241110Z 02003KT 2000 BR SCT001 BKN004 20/20 A2995 BECMG 4000=
200606241200 METAR MROC 241200Z 02006KT 9999 VCFG FEW001 BKN250 20/19 A2994 BECMG CAVOK RMK CB DST S VIS SSW 8KMS=
200606241300 METAR MROC 241300Z 08004KT CAVOK 23/20 A2993 BECMG 24008KT=
200606241400 METAR MROC 241400Z 10010KT CAVOK 25/19 A2994=
200606241500 METAR MROC 241500Z 11010KT CAVOK 27/20 A2998=
200606241600 METAR MROC 241600Z 11008KT 9999 FEW035 SCT250 28/20 A2997=
200606241700 METAR MROC 241700Z 11009KT CAVOK 29/19 A2995=
200606241800 METAR MROC 241800Z 11008KT 9999 SCT025TCU SCT250 30/18 A2993=
200606241900 METAR MROC 241900Z 22012KT 9999 SCT020TCU BKN250 27/23 A2991 RMK RN=
200606242000 METAR MROC 242000Z 22009KT 7000 VCSH SCT010TCU SCT040 25/22 A2990 RMK BR S SW=
200606242100 METAR MROC 242100Z 28012KT 4000 -TSRA SCT008 SCT012CB SCT025 20/19 A2992 RMK VSBY ESE 7KM NOSIG=
200606242200 METAR MROC 242200Z 29007KT 6000 -TSRA FEW010CB OVC100 20/10 A2993 RMK VSBY SE UNL NOSIG=
200606242300 METAR MROC 242300Z 10003KT 9999 -RA OVC100 20/20 A2991 RMK VSBY W 7KM DUE RN NOSIG=
200606250000 METAR MROC 250000Z 08003KT 9999 -RA OVC100 20/19 A2991 NOSIG=
200606250100 METAR MROC 250100Z 03009KT CAVOK 21/19 A2992 NOSIG=
200606250200 METAR MROC 250200Z 00000KT CAVOK 21/19 A2996 RMK LTNG DST SW=
200606250300 METAR MROC 250300Z 31003KT CAVOK 20/19 A2998 NOSIG=
200606250400 METAR MROC 250400Z VRB03KT CAVOK 20/19 A2999=
200606250500 METAR MROC 250500Z 06004KT CAVOK 20/19 A2998 NOSIG=
200606250600 METAR MROC 250600Z 05006KT CAVOK 20/18 A2996=
200606250700 METAR MROC 250700Z 05007KT CAVOK 20/18 A2993 NOSIG=
200606250800 METAR MROC 250800Z 07005KT CAVOK 20/18 A2992=
200606250900 METAR MROC 250900Z 05006KT CAVOK 20/18 A2991 NOSIG=
200606251000 METAR MROC 251000Z 05005KT CAVOK 20/18 A2990 NOSIG=
200606251100 METAR MROC 251100Z 06006KT CAVOK 20/18 A2991 NOSIG=
200606251200 METAR MROC 251200Z 04003KT CAVOK 21/18 A2992 NOSIG=
200606251300 METAR MROC 251300Z 36003KT CAVOK 24/19 A2994 RMK CB DST S/SW=
200606251400 METAR MROC 251400Z 25004KT CAVOK 25/20 A2996 NOSIG=
200606251500 METAR MROC 251500Z 22008KT 9999 FEW020 BKN120 25/20 A2998 NOSIG=
200606251600 METAR MROC 251600Z 23008KT 9999 FEW018 BKN120 24/21 A2998 NOSIG=
200606251700 METAR MROC 251700Z 23005KT 9999 SCT018 BKN120 25/21 A2997 NOSIG=
200606251800 METAR MROC 251800Z 21003KT 9999 FEW025 SCT120 28/20 A2994 NOSIG=
200606252000 METAR MROC 252000Z 24011KT 9999 TS FEW015CB SCT025 SCT120 26/22 A2989 RMK TS RASH E RN Z NOSIG=
200606252100 METAR MROC 252100Z 15004KT 7000 2000SW -RA FEW002 SCT010CB BKN015 23/22 A2990 RMK TS DST SE S SSW BECMG 4000 -TSRA=
200606252200 METAR MROC 252200Z 09004KT 7000 3000SW +TS VCSH SCT008CB BKN015 20/19 A2991=
200606252300 METAR MROC 252300Z 00000KT 7000 RA SCT015 OVC090 20/19 A2993 NOSIG=
200606260000 METAR MROC 260000Z 08002KT 8000 RA SCT020 OVC090 20/19 A2993 NOSIG=
200606260100 METAR MROC 260100Z 08005KT 9999 -RA OVC090 20/20 A2993 NOSIG=
200606260200 METAR MROC 260200Z 06005KT 9999 SCT025 OVC100 21/19 A2994 RERA=
200606260300 METAR MROC 260300Z 06007KT CAVOK 22/19 A2995=
200606260400 METAR MROC 260400Z 01004KT CAVOK 22/18 A2995=
200606260500 METAR MROC 260500Z 09008KT CAVOK 21/18 A2994=
200606260600 METAR MROC 260600Z 08006KT CAVOK 21/18 A2994=
200606260700 METAR MROC 260700Z 05004KT CAVOK 19/18 A2991=
200606260900 METAR MROC 260900Z 02006KT CAVOK 20/17 A2987=
200606261000 METAR MROC 261000Z 06003KT CAVOK 19/17 A2989=
200606261100 METAR MROC 261100Z 07004KT CAVOK 20/18 A2990=
200606261200 METAR MROC 261200Z 20005KT CAVOK 20/18 A2991=
200606261300 METAR MROC 261300Z 00000KT CAVOK 23/19 A2994 NOSIG=
200606261400 METAR MROC 261400Z 26005KT 9999 FEW030 BKN250 23/20 A2996 NOSIG=
200606261500 METAR MROC 261500Z 09002KT 9999 SCT030 BKN250 26/20 A2996 NOSIG=
200606261600 METAR MROC 261600Z 31002KT 9999 SCT030 BKN250 27/20 A2996 NOSIG=
200606261700 METAR MROC 261700Z 18003KT 9999 FEW035 BKN250 28/21 A2993 NOSIG=
200606261800 METAR MROC 261800Z 23006KT 9999 FEW035 SCT120 BKN250 26/21 A2993 NOSIG=
200606261900 METAR MROC 261900Z 22005KT 9999 SCT035 BKN230 26/22 A2991 NOSIG=
200606262000 METAR MROC 262000Z 23005KT 9999 BKN025 SCT220 25/21 A2991 RMK VIS 8000NE=
200606262100 METAR MROC 262100Z 22003KT 9999 4000NW VCSH FEW020CB SCT035 BKN100 23/22 A2990 RERA BECMG RMK RASH WNW NW=
200606262200 METAR MROC 262200Z 02003KT 9999 SCT030 BKN100 23/21 A2988=
200606262300 METAR MROC 262300Z 00000KT 9999 FEW030 OVC120 24/19 A2989 BECMG 5000 BR RMK LOW ST SW NEAR APCH07=
200606270100 METAR MROC 270100Z 08009KT 9999 FEW035 SCT120 BKN250 22/19 A2993 BECMG CAVOK=
200606270200 METAR MROC 270200Z 03006KT CAVOK 21/18 A2993 NOSIG=
200606270300 METAR MROC 270300Z 04003KT 9999 FEW035 BKN250 22/19 A2995 NOSIG=
200606270400 METAR MROC 270400Z 05008KT CAVOK 22/19 A2998 NOSIG=
200606270500 METAR MROC 270500Z 03003KT CAVOK 22/18 A2998 NOSIG=
200606270600 METAR MROC 270600Z 06008KT CAVOK 22/18 A2995 NOSIG=
200606270700 METAR MROC 270700Z 07005KT CAVOK 22/18 A2994 NOSIG=
200606270900 METAR MROC 270900Z 04004KT CAVOK 21/18 A2993 NOSIG=
200606271000 METAR MROC 271000Z 06004KT 9999 19/18 A2994 NOSIG=
200606271100 METAR MROC 271100Z 07005KT CAVOK 20/17 A2994 NOSIG=
200606271200 METAR MROC 271200Z 05006KT CAVOK 21/18 A2993 NOSIG=
200606271300 METAR MROC 271300Z 10007KT CAVOK 24/19 A2992 NOSIG=
200606271400 METAR MROC 271400Z 10012KT CAVOK 25/19 A2993 NOSIG=
200606271500 METAR MROC 271500Z 10012KT 9999 FEW035 27/19 A2994 BECMG RMK POCOS CIRROS=
200606271600 METAR MROC 271600Z 11010KT 9999 FEW035 28/19 A2995 NOSIG=
200606271700 METAR MROC 271700Z 21007KT 9999 SCT035 27/21 A2996 NOSIG=
200606271800 METAR MROC 271800Z 25011KT 9999 FEW025 BKN040 26/21 A2995 NOSIG=
200606271900 METAR MROC 271900Z 24011KT 9999 FEW025TCU SCT040 28/23 A2993 NOSIG=
200606272000 METAR MROC 272000Z 26013KT 9999 2000W SHRA SCT017CB BKN035 23/23 A2991 NOSIG=
200606272100 METAR MROC 272100Z 27007KT 9999 FEW001 SCT015CB BKN035 23/22 A2991 RMK=
200606272200 METAR MROC 272200Z 30005KT 9999 -RA FEW001 SCT020 BKN100 23/21 A2991 RMK VIS SW 4000 VCFG NOSIG=
200606272300 METAR MROC 272300Z 00000KT 8000 VCFG FEW001 SCT020 BKN100 23/22 A2992 NOSIG=
200606280000 METAR MROC 280000Z 00000KT 9999 5000E VCFG FEW001 SCT020 BKN120 22/21 A2995 NOSIG=
200606280100 METAR MROC 280100Z 00000KT 9999 FEW025 BKN120 22/21 A2997 NOSIG=
200606280200 METAR MROC 280200Z 00000KT 9999 FEW035 SCT120 BKN250 22/21 A2999 NOSIG=
200606280300 METAR MROC 280300Z VRB03KT 9999 FEW035 SCT120 22/21 A3000 RMK TS DST S SSW NOSIG=
200606280400 METAR MROC 280400Z 34004KT 9999 FEW035 BKN250 22/21 A2999 NOSIG=
200606280500 METAR MROC 280500Z 09006KT CAVOK 22/20 A2997 NOSIG=
200606280600 METAR MROC 280600Z 10012G22KT CAVOK 23/20 A2993 NOSIG=
200606280700 METAR MROC 280700Z 10015KT CAVOK 23/20 A2991 RMK RAFAGAS DE 21KT NOSIG=
200606280800 METAR MROC 280800Z 11013KT CAVOK 23/19 A2990 NOSIG=
200606280900 METAR MROC 280900Z 07007KT 9999 FEW030 BKN120 22/19 A2992 BECMG CAVOK=
200606281000 METAR MROC 281000Z VRB03KT 9999 SCT030 BKN120 22/19 A2992 RMK DZ DST E NOSIG=
200606281100 METAR MROC 281100Z 10007KT 9999 SCT030 BKN120 23/19 A2993 RMK DZ DST E NOSIG=
200606281200 METAR MROC 281200Z 10010KT 9999 SCT030 SCT250 23/19 A2995 RMK DZ DST NE=
200606281300 METAR MROC 281300Z 11011KT 9999 SCT030 SCT120 BKN250 24/19 A2996 RMK DZ DST N=
200606281400 METAR MROC 281400Z 10007KT 9999 SCT030 SCT120 BKN250 25/20 A2999 RMK RN N NE=
200606281500 METAR MROC 281500Z 12006KT 9999 FEW015 SCT030 BKN250 25/20 A2999 RMK RN N NOSIG=
200606281600 METAR MROC 281600Z 12003KT 9999 SCT035 BKN250 26/21 A2999 NOSIG=
200606281700 METAR MROC 281700Z 24011KT 9999 SCT035 BKN250 25/22 A2999 NOSIG=
200606281800 METAR MROC 281800Z 24003KT 9999 FEW035 BKN250 25/22 A2998 BECMG 12008KT=
200606281900 METAR MROC 281900Z 16004KT 9999 SCT035 BKN250 29/20 A2995 NOSIG=
200606282000 METAR MROC 282000Z 10005KT 9999 BKN035 SCT250 29/18 A2993 NOSIG=
200606282100 METAR MROC 282100Z 09008KT 9999 SCT030 SCT090 26/19 A2992=
200606282200 METAR MROC 282200Z 29004KT 9999 SCT030 BKN220 25/22 A2990=
200606282300 METAR MROC 282300Z 11003KT 9999 FEW030 BKN220 25/20 A2991=
200606290000 METAR MROC 290000Z 13003KT 9999 SCT020 BKN150 24/20 A2994 RMK BR S SW=
200606290100 METAR MROC 290100Z 00000KT 9999 FEW030 BKN200 23/22 A2996 RMK BR S SW=
200606290200 METAR MROC 290200Z 05004KT CAVOK 23/20 A2997=
200606290300 METAR MROC 290300Z 35003KT CAVOK 23/21 A2997 NOSIG=
200606290400 METAR MROC 290400Z 11006KT CAVOK 23/19 A2997 NOSIG=
200606290500 METAR MROC 290500Z 09009KT 9999 FEW030 BKN250 24/19 A2996 NOSIG=
200606290600 METAR MROC 290600Z 10007KT 9999 FEW035 BKN250 23/20 A2995 NOSIG=
200606290700 METAR MROC 290700Z 09008KT 9999 FEW035 SCT080 23/19 A2993 NOSIG=
200606290800 METAR MROC 290800Z 10007KT 9999 FEW035 SCT080 23/20 A2991 NOSIG=
200606290900 METAR MROC 290900Z 10010KT 9999 FEW035 23/19 A2990 NOSIG=
200606291000 METAR MROC 291000Z 11007KT 9999 FEW035 23/19 A2990 NOSIG=
200606291100 METAR MROC 291100Z 07006KT 9999 FEW035 SCT080 23/19 A2990 NOSIG=
200606291200 METAR MROC 291200Z 10008KT 9999 SCT035 BKN070 23/19 A2992 BECMG 8000 -RA RMK RN DIST ALL QUAD E=
200606291300 METAR MROC 291300Z 08005KT 8000 DZ SCT020 SCT080 23/19 A2996=
200606291400 METAR MROC 291400Z 03006KT 8000 -RA SCT015 SCT070 22/20 A2996=
200606291500 METAR MROC 291500Z 02003KT 8000 DZ SCT020 SCT080 22/20 A2997=
200606291600 METAR MROC 291600Z 08009KT 9000 DZ SCT020 SCT090 22/20 A2996=
200606291700 METAR MROC 291700Z 09008KT 9999 SCT025 BKN200 25/20 A2995 REDZ=
200606291800 METAR MROC 291800Z 09011KT 9999 FEW025 BKN220 28/20 A2993=
200606291900 METAR MROC 291900Z 09015KT 9999 SCT030 SCT180 27/19 A2992=
200606292000 METAR MROC 292000Z 05014KT 9999 SCT025 SCT250 28/19 A2990=
200606292100 METAR MROC 292100Z 06013KT 9999 FEW025 SCT100 BKN280 29/19 A2989 RMK CB DST N RN NE NOSIG=
200606292200 METAR MROC 292200Z 06008KT 9999 FEW021CB 33/23 Q1008 A2988 RMK VP/07006KT CB/N/NE/NW=
200606292300 METAR MROC 292300Z 09008KT 9999 SCT025 BKN250 25/19 A2990 NOSIG=
200606300000 METAR MROC 300000Z 09007KT 9999 FEW025 SCT040 BKN280 25/19 A2990 NOSIG=
200606300100 METAR MROC 300100Z 10010KT 9999 FEW030 BKN280 24/19 A2992 NOSIG=
200606300200 METAR MROC 300200Z 09012KT CAVOK 24/19 A2991 NOSIG=
200606300300 METAR MROC 300300Z 10012KT 9999 FEW030 SCT280 24/19 A2992 NOSIG=
200606300400 METAR MROC 300400Z 10012KT 9999 FEW035 SCT250 24/19 A2992 NOSIG=
200606300500 METAR MROC 300500Z 09010KT 9999 FEW035 SCT250 24/19 A2993 NOSIG=
200606300600 METAR MROC 300600Z 11011KT CAVOK 23/19 A2991 NOSIG=
200606300700 METAR MROC 300700Z 10010KT CAVOK 23/19 A2990=
200606300800 METAR MROC 300800Z 10006KT CAVOK 23/19 A2989 NOSIG=
200606300900 METAR MROC 300900Z 08003KT CAVOK 23/19 A2989=
200606301000 METAR MROC 301000Z 08005KT CAVOK 23/20 A2989 NOSIG=
200606301100 METAR MROC 301100Z 03003KT 9999 FEW030 SCT120 22/20 A2990 NOSIG=
200606301200 METAR MROC 301200Z 05006KT 9999 -RA FEW030 BKN120 21/20 A2992 NOSIG=
200606301300 METAR MROC 301300Z 02006KT 9999 FEW025 SCT045 BKN250 22/20 A2993 RMK CB RN N NOSIG=
200606301400 METAR MROC 301400Z 08010KT 9999 -RA FEW025 SCT080 BKN250 23/20 A2992 RMK RN N=
200606301500 METAR MROC 301500Z 09015KT 9999 FEW025 SCT080 BKN250 25/19 A2991 RMK RN N NOSIG=
200606301600 METAR MROC 301600Z 10016KT 9999 FEW025 BKN250 26/20 A2988 RMK RN NE NOSIG=
200606301700 METAR MROC 301700Z 10017KT 9999 FEW025 BKN250 27/20 A2988 RMK RN N NE=
200606301800 METAR MROC 301800Z 10019KT 9999 FEW025 BKN250 26/20 A2986 RMK RN N NE NOSIG=
200606301900 METAR MROC 301900Z 09012KT 9999 FEW025 SCT045 BKN250 29/20 A2986 RMK RN N NE NOSIG=
200606302000 METAR MROC 302000Z 09013KT 9999 SCT025 BKN250 27/20 A2986 RMK RN N NE NOSIG=
200606302100 METAR MROC 302100Z 09008KT 9999 SCT025 SCT250 26/19 A2986 NOSIG=
200606302200 METAR MROC 302200Z 10010KT 9999 FEW025 BKN250 25/19 A2985 RMK RN DST NE E NOSIG=
200606302300 METAR MROC 302300Z 10011KT 9999 FEW030 BKN250 25/19 A2986 NOSIG=
200607010000 METAR MROC 010000Z 10012KT 9999 FEW030 BKN250 24/19 A2987 RMK DZ DST N RN DST NE E NOSIG=
200607010100 METAR MROC 010100Z 10007KT 9999 FEW030 BKN250 24/19 A2989 RMK DZ DST N NE E=
200607010200 METAR MROC 010200Z 09012KT 9999 FEW035 SCT250 24/18 A2990 NOSIG=
200607010300 METAR MROC 010300Z 09012KT CAVOK 23/19 A2990=
200607010400 METAR MROC 010400Z 10013KT CAVOK 24/19 A2992=
200607010500 METAR MROC 010500Z 09009KT CAVOK 24/19 A2992=
200607010600 METAR MROC 010600Z 08006KT CAVOK 23/19 A2992=
200607010800 METAR MROC 010800Z 07006KT CAVOK 23/19 A2989=
200607010900 METAR MROC 010900Z 06003KT CAVOK 22/19 A2989=
200607011000 METAR MROC 011000Z 07003KT CAVOK 21/19 A2990=
200607011100 METAR MROC 011100Z 01005KT CAVOK 22/19 A2990=
200607011200 METAR MROC 011200Z 05007KT 9999 FEW020 SCT120 22/19 A2989=
200607011300 METAR MROC 011300Z 10013KT 9999 FEW030 24/19 A2990 RMK DZ DST NE NOSIG=
200607011400 METAR MROC 011400Z 10015KT 9999 FEW030 SCT120 24/20 A2991 RMK DZ DST NE E NOSIG=
200607011500 METAR MROC 011500Z 09012KT 9999 FEW030 SCT250 27/20 A2992 RMK DZ DST NE NOSIG=
200607011600 METAR MROC 011600Z 08011KT 9999 FEW035 28/19 A2992 RMK DZ DST NE NOSIG=
200607011700 METAR MROC 011700Z 05014KT 9999 FEW035 28/19 A2992 NOSIG=
200607011800 METAR MROC 011800Z 10012KT 9999 FEW035 29/19 A2991 NOSIG=
200607011900 METAR MROC 011900Z 06011KT 9999 SCT030 30/20 A2990 NOSIG=
200607012000 METAR MROC 012000Z 09010KT 9999 FEW035 SCT250 30/19 A2988 NOSIG=
200607012100 METAR MROC 012100Z 08011KT 9999 SCT035 30/19 A2987 NOSIG=
200607012200 METAR MROC 012200Z 10011KT 9999 SCT035 28/19 A2987 NOSIG=
200607012300 METAR MROC 012300Z 09009KT 9999 FEW030 SCT250 28/19 A2988 NOSIG=
200607020000 METAR MROC 020000Z 11006KT 9999 VCFG FEW003 SCT035 26/19 A2992 BECMG RMK LOW ST VIS 8KMS TO SW=
200607020100 METAR MROC 020100Z 27006KT 9999 4000SW VCFG FEW001 SCT015 23/22 A2993 BECMG 3000 BR BKN003=
200607020200 METAR MROC 020200Z 00000KT 9999 FEW008 SCT250 23/22 A2995 BECMG 05005KT CAVOK=
200607020300 METAR MROC 020300Z 03004KT 9999 FEW030 SCT250 23/22 A2995 NOSIG=
200607020400 METAR MROC 020400Z 08004KT CAVOK 22/19 A2997 NOSIG=
200607020500 METAR MROC 020500Z 08003KT CAVOK 23/19 A2996 RMK LTNG DST S/SW=
200607020600 METAR MROC 020600Z 08005KT CAVOK 22/19 A2998 RMK LTNG DST S/SW/W=
200607020700 METAR MROC 020700Z 07008KT CAVOK 22/18 A2996 RMK LTNG DST S/SW/W=
200607020800 METAR MROC 020800Z 10012KT CAVOK 23/18 A2991 NOSIG=
200607020900 METAR MROC 020900Z 06006KT CAVOK 22/19 A2992 NOSIG=
200607021000 METAR MROC 021000Z 03004KT CAVOK 21/19 A2993 NOSIG=
200607021100 METAR MROC 021100Z 05007KT CAVOK 22/19 A2994 RMK LTNG DST S NOSIG=
200607021200 METAR MROC 021200Z 02004KT 9999 FEW025 SCT040 BKN250 23/19 A2998 RMK DZ N NOSIG=
200607021300 METAR MROC 021300Z 07007KT 9999 SCT035 BKN070 23/20 A3000 BECMG RMK CB/RN DIST NE N=
200607021400 METAR MROC 021400Z 08006KT 9999 SCT100 BKN220 24/20 A2999 RERA NOSIG=
200607021500 METAR MROC 021500Z 10008KT 9999 FEW025 SCT120 BKN220 25/20 A2997 NOSIG=
200607021600 METAR MROC 021600Z 10011KT 9999 FEW035 SCT120 BKN230 28/19 A2997 NOSIG=
200607021700 METAR MROC 021700Z 08013KT 9999 FEW035 BKN250 29/19 A2996 NOSIG=
200607021800 METAR MROC 021800Z 08012KT 9999 SCT035 SCT250 29/19 A2995 NOSIG=
200607021900 METAR MROC 021900Z 06012KT 9999 SCT035 SCT250 29/18 A2994 NOSIG=
200607022000 METAR MROC 022000Z 06014KT 9999 FEW035 BKN250 30/19 A2993 NOSIG=
200607022100 METAR MROC 022100Z 06009KT 9999 FEW035 BKN250 30/19 A2992=
200607022200 METAR MROC 022200Z 06009KT 9999 SCT035 BKN250 30/19 A2993=
200607022300 METAR MROC 022300Z 22012KT 9999 FEW015 SCT035 BKN250 26/23 A2994 NOSIG=
200607030000 METAR MROC 030000Z 27007KT 6000 VCFG FEW001 SCT010 BKN250 24/23 A2996 RMK VIS S SE UNL=
200607030100 METAR MROC 030100Z 19003KT 9999 FEW008 SCT030 BKN250 23/23 A2999 NOSIG=
200607030200 METAR MROC 030200Z 19003KT 9999 3000SW VCFG FEW001 SCT030 BKN250 23/23 A3002 NOSIG=
200607030300 METAR MROC 030300Z 24002KT 7000 VCFG SCT003 BKN025 23/22 A3002 RMK TS DST SSE BECMG 9999=
200607030400 METAR MROC 030400Z 00000KT 9999 FEW030 22/21 A3005 RMK DUE ST SW LTNG DST S SSW=
200607030500 METAR MROC 030500Z 26004KT 9999 FEW001 SCT005 22/22 A3006 RMK 5000SW BR NOSIG=
200607030600 METAR MROC 030600Z 00000KT 9999 FEW003 SCT250 22/21 A3001 RMK LTNG SW NOSIG=
200607030700 METAR MROC 030700Z VRB03KT 9999 FEW003 BKN250 21/20 A2998 RMK VIS 8KM S/SW DUE ST NOSIG=
200607030800 METAR MROC 030800Z 01005KT 9999 FEW025 BKN250 22/19 A2995 NOSIG=
200607030900 METAR MROC 030900Z 10004KT CAVOK 22/19 A2996 NOSIG=
200607031000 METAR MROC 031000Z VRB03KT 9999 FEW030 SCT120 BKN250 21/19 A2998 NOSIG=
200607031100 METAR MROC 031100Z 01005KT CAVOK 21/19 A2999 RMK CB/LTNG DST N NOSIG=
200607031200 METAR MROC 031200Z 06004KT CAVOK 21/19 A3001 NOSIG=
200607031300 METAR MROC 031300Z 36004KT 9999 FEW040 BKN250 23/19 A3001 NOSIG=
200607031400 METAR MROC 031400Z 11006KT 9999 FEW040 OVC250 26/20 A3002 NOSIG=
200607031500 METAR MROC 031500Z 12008KT 9999 FEW040 OVC250 27/20 A3002 NOSIG=
200607031600 METAR MROC 031600Z 12007KT 9999 FEW035 OVC250 29/20 A3001 NOSIG=
200607031700 METAR MROC 031700Z 26011KT 9999 SCT030 OVC250 27/21 A3001 NOSIG=
200607031800 METAR MROC 031800Z 25009KT 9999 SCT030 OVC250 26/21 A3001 NOSIG=
200607031900 METAR MROC 031900Z 26008KT 9999 SCT030 OVC250 27/21 A2999 NOSIG=
200607032000 METAR MROC 032000Z 24010KT 9000 VCSH SCT025TCU SCT180 27/21 A2997 RMK RN E NE SE=
200607032100 METAR MROC 032100Z 24012KT 9000 DZ SCT015TCU SCT090 25/21 A2996=
200607032200 METAR MROC 032200Z 27008KT 5000SW BR SCT004 SCT025 22/21 A2998 RERA=
200607032300 METAR MROC 032300Z 26006KT 1000 FG SCT001 SCT010 22/22 A3000=
200607040000 METAR MROC 040000Z 00000KT 5000NE -DZ FEW003 SCT025 SCT200 22/21 A3002 RMK BR ARND=
200607040100 METAR MROC 040100Z 04004KT 9999 FEW030 22/21 A3003 REDZ=
200607040200 METAR MROC 040200Z 01004KT 9999 FEW035 SCT150 22/21 A3004=
200607040300 METAR MROC 040300Z 06005KT CAVOK 22/20 A3003 NOSIG=
200607040400 METAR MROC 040400Z 06008KT CAVOK 22/20 A3003 NOSIG=
200607040600 METAR MROC 040600Z 06006KT CAVOK 22/19 A3002 NOSIG=
200607040700 METAR MROC 040700Z 04007KT CAVOK 21/19 A2998 NOSIG=
200607040800 METAR MROC 040800Z 08005KT CAVOK 22/19 A2998 BECMG RMK LTNG DST SSW=
200607040900 METAR MROC 040900Z 33004KT CAVOK 20/19 A2999 NOSIG=
200607041000 METAR MROC 041000Z 02006KT CAVOK 21/18 A2998 BECMG RMK LTNG DST S SSE=
200607041100 METAR MROC 041100Z 05006KT CAVOK 22/18 A2991 BECMG RMK LTNG DST SSE S SSW=
200607041200 METAR MROC 041200Z 02005KT CAVOK 22/19 A2999 BECMG RMK CB DST SE S SSW=
200607041300 METAR MROC 041300Z 07005KT CAVOK 25/20 A3000=
200607041400 METAR MROC 041400Z 10009KT CAVOK 26/20 A3000=
200607041500 METAR MROC 041500Z 10013KT 9999 FEW030 SCT250 26/19 A3002=
200607041700 METAR MROC 041700Z 07007KT 9999 FEW020 BKN220 26/18 A3000=
200607041800 METAR MROC 041800Z 10008KT 9999 FEW030 BKN230 26/18 A2999=
200607041900 METAR MROC 041900Z 09009KT 9999 FEW025 SCT140 BKN250 26/18 A2998=
200607042000 METAR MROC 042000Z 31006KT 9999 FEW030 BKN250 28/18 A2994=
200607042100 METAR MROC 042100Z 11010KT 9999 FEW030 BKN250 27/19 A2993 NOSIG=
200607042200 METAR MROC 042200Z 09009KT 9999 FEW030 BKN250 27/18 A2993 NOSIG=
200607042300 METAR MROC 042300Z 11008KT 9999 FEW030 BKN250 26/19 A2993 NOSIG=
200607050000 METAR MROC 050000Z 10006KT 9999 FEW025 SCT040 BKN250 25/18 A2997 RMK RN N NE NOSIG=
200607050200 METAR MROC 050200Z 03003KT 9999 RA FEW025 BKN035 22/20 A3001 NOSIG=
200607050300 METAR MROC 050300Z 09008KT 9999 FEW020 SCT035 22/19 A3004 RERA NOSIG=
200607050400 METAR MROC 050400Z 10005KT CAVOK 21/17 A3004 NOSIG=
200607050500 METAR MROC 050500Z 09004KT 9999 RA BKN100 20/17 A3005 NOSIG=
200607050600 METAR MROC 050600Z 02004KT CAVOK 20/18 A3000 RERA NOSIG=
200607050700 METAR MROC 050700Z 02006KT CAVOK 20/19 A2998 NOSIG=
200607050800 METAR MROC 050800Z 02005KT CAVOK 21/18 A2996=
200607050900 METAR MROC 050900Z VRB03KT CAVOK 20/18 A2996 NOSIG=
200607051000 METAR MROC 051000Z 32003KT CAVOK 20/19 A2995 NOSIG=
200607051100 METAR MROC 051100Z 00000KT CAVOK 19/18 A2997 NOSIG=
200607051200 METAR MROC 051200Z 00000KT 3000 BR SCT001 BKN250 19/19 A2999 NOSIG=
200607051300 METAR MROC 051300Z 01005KT CAVOK 20/19 A3000 NOSIG=
200607051400 METAR MROC 051400Z 25004KT CAVOK 23/18 A3002 NOSIG=
200607051500 METAR MROC 051500Z 10008KT CAVOK 25/16 A3003 NOSIG=
200607051600 METAR MROC 051600Z 11009KT CAVOK 26/18 A3004 RMK BKN120=
200607051700 METAR MROC 051700Z 21004KT CAVOK 26/19 A3003 NOSIG=
200607051800 METAR MROC 051800Z 25007KT 9999 FEW025 SCT100 BKN240 26/21 A3001 NOSIG=
200607051900 METAR MROC 051900Z 24003KT 9999 FEW025 BKN120 27/21 A2999 NOSIG=
200607052000 METAR MROC 052000Z 24008KT 9999 SCT020 BKN120 25/22 A2997 NOSIG=
200607052100 METAR MROC 052100Z 21005KT 9999 SCT020 BKN120 24/22 A2997 NOSIG=
200607052200 METAR MROC 052200Z 22005KT 9999 FEW008 SCT015 BKN120 23/22 A2997 RMK VIS 7000 SW VCFG=
200607052300 METAR MROC 052300Z 22002KT 9999 4000SW BR FEW003 SCT015 BKN120 23/22 A2999 RMK BECMG 6000 VCFG=
200607060000 METAR MROC 060000Z 00000KT 9999 FEW005 SCT030 BKN120 23/22 A3000 RMK VIS 7000 SW N VCFG=
200607060100 METAR MROC 060100Z 23002KT 9999 FEW025 SCT120 22/21 A3002 RMK DUE ST VIS 9000SW=
200607060200 METAR MROC 060200Z 11002KT 9999 FEW003 BKN120 22/19 A3003 RMK LTNG SSW=
200607060300 METAR MROC 060300Z 23003KT 9999 FEW004 SCT150 21/20 A3005=
200607060400 METAR MROC 060400Z 00000KT 9999 FEW030 SCT150 21/20 A3004=
200607060500 METAR MROC 060500Z 06005KT CAVOK 20/19 A3004=
200607060600 METAR MROC 060600Z 02005KT CAVOK 22/19 A3002=
200607060700 METAR MROC 060700Z 08005KT CAVOK 21/18 A2999=
200607060800 METAR MROC 060800Z 05009KT CAVOK 21/18 A2997=
200607060900 METAR MROC 060900Z 04006KT CAVOK 20/17 A2996=
200607061100 METAR MROC 061100Z 32005KT 9999 FEW035 BKN120 20/18 A3000 NOSIG=
200607061200 METAR MROC 061200Z 10003KT 8000 VCFG SCT010 SCT220 20/18 A3003=
200607061300 METAR MROC 061300Z VRB03KT CAVOK 23/19 A3005 RMK CB TCU DST SW=
200607061400 METAR MROC 061400Z 00000KT CAVOK 24/19 A3006 NOSIG=
200607061500 METAR MROC 061500Z 27003KT 9999 FEW030 BKN250 25/20 A3005 NOSIG=
200607061600 METAR MROC 061600Z 00000KT 9999 FEW035 BKN250 28/19 A3004 NOSIG=
200607061700 METAR MROC 061700Z 26003KT 9999 FEW030 BKN250 28/20 A3002 NOSIG=
200607061800 METAR MROC 061800Z 23007KT 9999 FEW040 BKN250 27/20 A3000 NOSIG=
200607061900 METAR MROC 061900Z 21007KT 9999 SCT025 BKN250 27/22 A3000 NOSIG=
200607062000 METAR MROC 062000Z 24009KT 9999 SCT025 BKN250 26/22 A2997 NOSIG=
200607062100 METAR MROC 062100Z 25012KT 9999 FEW012CB SCT025 BKN250 25/22 A2995 BECMG 5000 TSRA RMK TS DIST ESE=
200607062200 METAR MROC 062200Z 25008KT 5000 -RA SCT004 BKN025 23/22 A2996 BECMG RMK VIS E QUAD UNLTD=
200607062300 METAR MROC 062300Z 00000KT 9999 VCFG FEW004 SCT010 BKN120 23/22 A2998 BECMG RMK VIS S SW 5KMS DUE LOW ST=
200607070000 METAR MROC 070000Z 10002KT 9999 VCFG FEW005 SCT140 BKN250 22/21 A2999 BECMG RMK VIS S WNW 7KMS DUE LOW ST/ CB LTNG DIST NE=
200607070100 METAR MROC 070100Z 00000KT 5000 BR FEW002 SCT005 BKN120 22/21 A3000 BECMG 3000 RMK VIS N/ ENE UNLTD OCNL LTNG DST S/N=
200607070200 METAR MROC 070200Z 00000KT 5000 BR FEW003 SCT008 BKN120 22/21 A3004 BECMG 3000 RMK LTNG DIST S/N=
200607070300 METAR MROC 070300Z 00000KT 9999 -RA FEW003 SCT020 BKN100 22/21 A3005 RMK LW ST SW W NOSIG=
200607070400 METAR MROC 070400Z 04004KT 9999 RA SCT025 BKN100 22/20 A3006 RMK LTNG DST S SW N NOSIG=
200607070500 METAR MROC 070500Z 10005KT 9999 -RA FEW025 BKN100 21/19 A3004=
200607070600 METAR MROC 070600Z 06007KT 9999 -RA FEW030 BKN100 21/19 A3000=
200607070700 METAR MROC 070700Z 10007KT 9999 -DZ FEW030 BKN250 21/19 A3000=
200607070800 METAR MROC 070800Z 10003KT 9999 FEW035 BKN120 20/19 A2999 NOSIG=
200607070900 METAR MROC 070900Z 00000KT CAVOK 20/19 A2998 NOSIG=
200607071000 METAR MROC 071000Z 00000KT 9999 FEW025 BKN130 20/19 A2999 NOSIG=
200607071100 METAR MROC 071100Z 03004KT CAVOK 20/18 A3000 NOSIG=
200607071200 METAR MROC 071200Z 01004KT CAVOK 20/19 A3002 NOSIG=
200607071300 METAR MROC 071300Z 09004KT CAVOK 22/19 A3002 NOSIG=
200607071400 METAR MROC 071400Z 07006KT CAVOK 25/20 A3002 NOSIG=
200607071500 METAR MROC 071500Z 09009KT CAVOK 27/20 A2997 NOSIG=
200607071600 METAR MROC 071600Z 20006KT CAVOK 27/20 A2999 BECMG 24010KT 9999 SCT030=
200607071700 METAR MROC 071700Z VRB04KT 9999 SCT035 SCT120 28/20 A2999 NOSIG=
200607071800 METAR MROC 071800Z 23007KT 9999 SCT035 SCT120 26/22 A3000 NOSIG=
200607071900 METAR MROC 071900Z 10006KT 9999 SCT035 BKN120 27/21 A2998 NOSIG=
200607072000 METAR MROC 072000Z 26004KT 9999 FEW025 SCT040 BKN120 28/20 A2997 BECMG 5000 -RA=
200607072100 METAR MROC 072100Z 10007KT 9999 FEW015TCU SCT030 BKN120 27/20 A2995=
200607072200 METAR MROC 072200Z 09009KT 9999 SCT030 BKN120 26/20 A2993=
200607072300 METAR MROC 072300Z 12005KT 9999 FEW010 SCT030 BKN120 26/19 A2995 NOSIG=
200607080000 METAR MROC 080000Z 24006KT 9999 FEW010 BKN030 24/22 A2996 NOSIG=
200607080100 METAR MROC 080100Z 12005KT 9999 FEW035 SCT120 BKN250 23/19 A2997 NOSIG=
200607080200 METAR MROC 080200Z 08008KT 9999 FEW035 SCT120 23/19 A2999=
200607080300 METAR MROC 080300Z 05007KT CAVOK 23/18 A3000 NOSIG=
200607080400 METAR MROC 080400Z 04006KT CAVOK 22/18 A3002 RMK LTNG SSW=
200607080500 METAR MROC 080500Z 08002KT CAVOK 22/18 A3002 RMK LTNG SW=
200607080600 METAR MROC 080600Z 08002KT CAVOK 22/18 A3002 RMK LTNG S SW W=
200607080700 METAR MROC 080700Z 24005KT CAVOK 21/19 A3000 RMK CB/LTNG DST SSE BECMG 7000 VCFG FEW005 BKN120=
200607080800 METAR MROC 080800Z 30003KT 9999 FEW008 BKN030 21/20 A2999 RMK VIS 8KM SSE DUE ST LTNG DST S BECMG 6000 VCFG=
200607080900 METAR MROC 080900Z 03005KT 9999 SCT025 SCT120 21/19 A2997 RMK ST S=
200607081000 METAR MROC 081000Z 09005KT CAVOK 20/18 A2996 NOSIG=
200607081100 METAR MROC 081100Z 03007KT CAVOK 20/18 A2996 RMK LTNG DST N NOSIG=
200607081200 METAR MROC 081200Z 09009KT 9999 FEW025 BKN250 22/18 A2996 RMK DZ DST NE NOSIG=
200607081300 METAR MROC 081300Z 08008KT 9999 FEW030 BKN250 23/19 A2997 NOSIG=
200607081400 METAR MROC 081400Z 10013KT 9999 FEW030 BKN250 25/19 A2997=
200607081800 METAR MROC 081800Z 11011KT 9999 SCT030 BKN250 27/18 A2996=
200607081900 METAR MROC 081900Z 10010KT 9999 FEW030 SCT100 BKN250 27/18 A2994 NOSIG=
200607082000 METAR MROC 082000Z 14003KT 9999 FEW030 SCT100 BKN250 28/19 A2992 NOSIG=
200607082100 METAR MROC 082100Z 24011KT 9999 FEW030 SCT110 BKN250 24/22 A2993 BECMG 6000 -RA VCFG=
200607082200 METAR MROC 082200Z 25007KT 9999 FEW007 SCT015 BKN250 24/22 A2993 RMK RN N NE E=
200607082300 METAR MROC 082300Z 25005KT 8000 -RA FEW006 SCT012 OVC100 22/22 A2994 BECMG 4000 -RA BR=
200607090000 METAR MROC 090000Z VRB03KT 9999 FEW020 SCT100 OVC250 22/21 A2995 BECMG 6000 VCFG=
200607090100 METAR MROC 090100Z 00000KT 9999 FEW025 SCT110 OVC250 22/21 A2999 NOSIG=
200607090200 METAR MROC 090200Z 29004KT 9999 FEW025 SCT100 OVC250 21/21 A3000 NOSIG=
200607090300 METAR MROC 090300Z 28003KT 9999 VCFG FEW002 SCT010 BKN100 21/21 A3000 BECMG 5000 BR RMK VIS S SW 7KMS DUE LOW ST=
200607090400 METAR MROC 090400Z 00000KT 9999 VCFG FEW002 SCT015 BKN120 21/20 A3001 BECMG RMK VIS S SW 8KMS DUE LOW ST=
200607090500 METAR MROC 090500Z 00000KT 9999 FEW020 SCT140 BKN250 21/20 A2999 NOSIG=
200607090600 METAR MROC 090600Z 02005KT 9999 FEW025 SCT140 BKN250 21/20 A2998 BECMG CAVOK=
200607090700 METAR MROC 090700Z 06005KT CAVOK 21/19 A2995 NOSIG=
200607090800 METAR MROC 090800Z 05007KT CAVOK 21/19 A2993 NOSIG=
200607090900 METAR MROC 090900Z 06006KT CAVOK 20/18 A2991 NOSIG=
200607091000 METAR MROC 091000Z 26003KT CAVOK 20/18 A2993 NOSIG=
200607091100 METAR MROC 091100Z 24005KT 9999 FEW003 SCT140 20/19 A2993 BECMG RMK LOW ST S SSW SW=
200607091200 METAR MROC 091200Z 31003KT 3000 1200S BR SCT001 SCT140 20/19 A2995 BECMG 2000 RMK VIS E 7KMS=
200607091300 METAR MROC 091300Z 35003KT 8000 FEW010 SCT130 BKN250 21/19 A2995 BECMG CAVOK=
200607091400 METAR MROC 091400Z 00000KT 9999 FEW020 SCT130 SCT250 25/14 A2996 BECMG 24006=
200607091500 METAR MROC 091500Z 26006KT 9999 FEW030 BKN250 25/21 A2998 NOSIG=
200607091600 METAR MROC 091600Z 24006KT 9999 FEW035 BKN250 26/21 A2997=
200607091700 METAR MROC 091700Z 23009KT 9999 SCT030 BKN250 27/21 A2997 NOSIG=
200607091800 METAR MROC 091800Z 22009KT 9999 FEW012 SCT025 BKN100 26/22 A2996 BECMG 6000 VCSH=
200607091900 METAR MROC 091900Z 23009KT 9999 FEW012 SCT020TCU BKN100 24/22 A2994 NOSIG=
200607092000 METAR MROC 092000Z 24010KT 1500 RA SCT007 SCT015 OVC100 22/21 A2991 BECMG 4000 -RA=
200607092100 METAR MROC 092100Z 25007KT 3000 RA BR BKN005 SCT015 21/20 A2991 RMK VSBY N NE 5KM NOSIG=
200607092200 METAR MROC 092200Z 22008KT 1000 RA BR FEW002 BKN005 20/19 A2992 RMK TS DST S NOSIG=
200607092300 METAR MROC 092300Z 32004KT 5000 RA BR FEW003 SCT025 OVC100 20/20 A2995 RMK NW 3KM NOSIG=
200607100000 METAR MROC 100000Z 29003KT 6000 RA VCFG FEW003 OVC100 20/20 A2996 RMK VSBY W 4KM LOW ST NOSIG=
200607100100 METAR MROC 100100Z 00000KT 6000 2000SW RA BR SCT003 OVC100 20/20 A2996 NOSIG=
200607100200 METAR MROC 100200Z 00000KT 9999 -RA FEW010 OVC100 20/20 A2997 NOSIG=
200607100300 METAR MROC 100300Z 32002KT 9999 FEW008 OVC100 20/19 A3000 NOSIG=
200607100400 METAR MROC 100400Z 01005KT 9999 FEW030 BKN100 20/20 A2999=
200607100500 METAR MROC 100500Z 02007KT 9999 FEW030 BKN110 20/19 A2998 NOSIG=
200607100600 METAR MROC 100600Z 03003KT CAVOK 20/19 A2996 NOSIG=
200607100700 METAR MROC 100700Z 04007KT CAVOK 20/18 A2994 NOSIG=
200607100800 METAR MROC 100800Z 00000KT CAVOK 20/18 A2992 NOSIG=
200607100900 METAR MROC 100900Z 00000KT CAVOK 20/18 A2993=
200607101000 METAR MROC 101000Z 03005KT CAVOK 20/18 A2993=
200607101100 METAR MROC 101100Z 08002KT CAVOK 20/18 A2993=
200607101200 METAR MROC 101200Z 00000KT CAVOK 22/22 A2995 RMK FG W NW=
200607101300 METAR MROC 101300Z 02004KT 9999 FEW035 BKN120 21/19 A2996=
200607101400 METAR MROC 101400Z 09005KT 9999 FEW030 SCT120 BKN250 23/19 A2996 RMK CB DST NE NOSIG=
200607101500 METAR MROC 101500Z 10011KT 9999 FEW030 BKN250 24/19 A2996 NOSIG=
200607101600 METAR MROC 101600Z 11010KT 9999 FEW035 BKN250 26/20 A2997=
200607101700 METAR MROC 101700Z 10010KT 9999 FEW030 BKN270 28/19 A2996 NOSIG=
200607101800 METAR MROC 101800Z 11008KT 9999 SCT035 SCT270 28/19 A2994 NOSIG=
200607101900 METAR MROC 101900Z 09005KT 9999 FEW030 BKN270 29/18 A2993 NOSIG=
200607102000 METAR MROC 102000Z 13004KT 9999 FEW030 BKN270 30/19 A2990 NOSIG=
200607102100 METAR MROC 102100Z 24009KT 9999 FEW035 SCT120 SCT250 26/23 A2989 NOSIG=
200607102200 METAR MROC 102200Z 24008KT 9999 FEW015TCU SCT030 SCT250 25/23 A2989 BECMG 6000 -TSRA=
200607102300 METAR MROC 102300Z 25007KT 9999 4000SW VCFG FEW003 SCT020 BKN120 24/23 A2991=
200607110000 METAR MROC 110000Z 25006KT 7000 3000SW BR FEW002 SCT008 SCT120 23/22 A2993 RMK BECMG 5000 BR=
200607110100 METAR MROC 110100Z 29003KT 8000 VCFG FEW005 SCT012 BKN250 22/22 A2994 NOSIG=
200607110200 METAR MROC 110200Z 00000KT 9999 FEW025 SCT120 BKN250 22/21 A2995 NOSIG=
200607110400 METAR MROC 110400Z 10007KT 9999 FEW030 SCT130 23/18 A2997 NOSIG=
200607110500 METAR MROC 110500Z 07006KT 9999 FEW030 SCT130 22/18 A2997 NOSIG=
200607110600 METAR MROC 110600Z 10006KT CAVOK 22/18 A2996 NOSIG=
200607110700 METAR MROC 110700Z 01006KT 9999 FEW035 BKN120 22/16 A2996 NOSIG=
200607110800 METAR MROC 110800Z 00000KT 9999 FEW035 BKN120 22/19 A2995 NOSIG=
200607110900 METAR MROC 110900Z 09005KT 9999 FEW035 BKN120 22/19 A2993 NOSIG=
200607111000 METAR MROC 111000Z 11008KT 9999 FEW030 BKN120 20/18 A2992=
200607111100 METAR MROC 111100Z 10009KT CAVOK 22/19 A2993=
200607111200 METAR MROC 111200Z 10008KT 9999 FEW030 BKN120 22/19 A2994 NOSIG=
200607111300 METAR MROC 111300Z 10011KT 9999 FEW030 BKN120 24/19 A2996 RMK DZ/RN DST N/NE/E NOSIG=
200607111400 METAR MROC 111400Z 09013KT 9999 FEW030 BKN110 26/19 A2998 RMK DZ/RN DST N/NE/E NOSIG=
200607111500 METAR MROC 111500Z 11019KT 9999 FEW035 BKN120 26/18 A2999 NOSIG=
200607111600 METAR MROC 111600Z 10013KT CAVOK 26/16 A2999 NOSIG=
200607111700 METAR MROC 111700Z 11009KT 9999 -RA BKN100 26/18 A2997 NOSIG=
200607111800 METAR MROC 111800Z 10007KT CAVOK 26/18 A2994 NOSIG=
200607111900 METAR MROC 111900Z 09010KT CAVOK 28/17 A2993 NOSIG=
200607112000 METAR MROC 112000Z 09010KT CAVOK 28/18 A2992 NOSIG=
200607112100 METAR MROC 112100Z 09011KT 9999 FEW040 BKN250 28/17 A2991 NOSIG=
200607112200 METAR MROC 112200Z 09012KT 9999 FEW040 BKN250 27/17 A2990 NOSIG=
200607112300 METAR MROC 112300Z 08009KT 9999 FEW040 SCT250 26/18 A2991 NOSIG=
200607120000 METAR MROC 120000Z 09011KT 9999 FEW040 SCT120 BKN250 24/17 A2994 NOSIG=
200607120100 METAR MROC 120100Z 10005KT CAVOK 23/17 A2996=
200607120200 METAR MROC 120200Z 10008KT CAVOK 23/18 A2997 NOSIG=
200607120300 METAR MROC 120300Z 10012KT CAVOK 23/18 A2998 NOSIG=
200607120400 METAR MROC 120400Z 07007KT CAVOK 22/18 A3000=
200607120500 METAR MROC 120500Z 05005KT CAVOK 22/18 A3000=
200607120600 METAR MROC 120600Z 10011KT CAVOK 22/18 A2998=
200607120700 METAR MROC 120700Z 09009KT CAVOK 22/18 A2996=
200607120800 METAR MROC 120800Z 10010KT CAVOK 22/18 A2994 NOSIG=
200607120900 METAR MROC 120900Z 10011KT CAVOK 23/18 A2992 NOSIG=
200607121000 METAR MROC 121000Z 10010KT CAVOK 22/18 A2991 NOSIG=
200607121100 METAR MROC 121100Z 10009KT CAVOK 22/18 A2992 NOSIG=
200607121200 METAR MROC 121200Z 11011KT CAVOK 22/18 A2994 RMK FEW300 RMK CB DST S NOSIG=
200607121300 METAR MROC 121300Z 10010KT 9999 FEW030 SCT250 24/18 A2996 BECMG RMK CB DIST S SW=
200607121400 METAR MROC 121400Z 10009KT 9999 FEW030 SCT250 26/19 A2997 BECMG RMK FEW120 CB DIST SW=
200607121500 METAR MROC 121500Z 10010KT 9999 FEW030 SCT130 BKN250 27/19 A2998 NOSIG=
200607121600 METAR MROC 121600Z 09013KT 9999 FEW030 BKN300 28/19 A2998 NOSIG=
200607121700 METAR MROC 121700Z 08008KT 9999 FEW035 BKN300 29/19 A2998 NOSIG=
200607121800 METAR MROC 121800Z 10011KT 9999 SCT035 29/19 A2997 NOSIG=
200607121900 METAR MROC 121900Z 09010KT 9999 SCT035 SCT300 28/19 A2995 NOSIG=
200607122000 METAR MROC 122000Z 09008KT 9999 SCT030 SCT270 30/19 A2992 NOSIG=
200607122100 METAR MROC 122100Z 10010KT 9999 SCT030 SCT270 29/19 A2990 NOSIG=
200607122200 METAR MROC 122200Z 08007KT 9999 SCT030 BKN260 27/19 A2989 NOSIG=
200607122300 METAR MROC 122300Z 10003KT 9999 FEW010 SCT030 BKN260 26/19 A2991 NOSIG=
200607130000 METAR MROC 130000Z 23007KT 9999 4000SW VCFG FEW001 SCT030 BKN260 23/22 A2993 NOSIG=
200607130100 METAR MROC 130100Z 24006KT 9999 4000SW VCFG FEW001 SCT035 BKN260 22/22 A2996 NOSIG=
200607130200 METAR MROC 130200Z 28004KT 9999 3000 VCFG FEW001 SCT008 BKN260 22/22 A2997 NOSIG=
200607130300 METAR MROC 130300Z 29003KT 9999 4000SW BR FEW003 SCT012 22/21 A3001 NOSIG=
200607130400 METAR MROC 130400Z 27003KT 9999 FEW008 SCT120 22/21 A3001 RMK VIS 7000 S SSE VCFG=
200607130500 METAR MROC 130500Z 00000KT 9999 FEW003 BKN250 21/21 A2999 RMK VIS 7000 SW SSE VCFG=
200607130600 METAR MROC 130600Z 23002KT 7000 3000NE BR FEW002 BKN120 21/21 A2999 RMK 4000SW BR 9999N NOSIG=
200607130700 METAR MROC 130700Z 00000KT 7000 VCFG FEW002 SCT120 21/20 A2996 BECMG 9999=
200607130800 METAR MROC 130800Z 05004KT 9999 FEW030 SCT270 21/19 A2992 RMK CB/LTNG DST SSE/S BECMG CAVOK=
200607130900 METAR MROC 130900Z 10014KT 9999 FEW030 SCT100 22/19 A2991 RMK DZ DST E RAFAGAS DE 23KT BECMG 7000 -DZ=
200607131000 METAR MROC 131000Z 10011KT 9999 DZRA FEW030 OVC090 21/19 A2992 BECMG -DZ=
200607131100 METAR MROC 131100Z 12010KT 9999 FEW030 SCT110 BKN270 22/19 A2991 RMK TCU/RN DST N BECMG CAVOK=
200607131200 METAR MROC 131200Z 10010KT 9999 FEW030 SCT120 SCT250 23/19 A2993 RMK DZ DST NE E NOSIG=
200607131300 METAR MROC 131300Z 10009KT 9999 FEW035 BKN120 23/19 A2994 NOSIG=
200607131400 METAR MROC 131400Z 07004KT 9999 FEW035 SCT120 BKN250 25/20 A2995 NOSIG=
200607131500 METAR MROC 131500Z 09012KT 9999 SCT030 BKN120 24/18 A2999=
200607131600 METAR MROC 131600Z 09011KT 9999 FEW035 SCT120 BKN250 26/19 A2997 NOSIG=
200607131700 METAR MROC 131700Z 10005KT 9999 SCT035 BKN250 27/19 A2997 NOSIG=
200607131800 METAR MROC 131800Z 02008KT 9999 SCT035 BKN250 27/19 A2996 RERA RMK RN N NE=
200607131900 METAR MROC 131900Z 24009KT 9999 BKN035 SCT250 25/22 A2994 NOSIG=
200607132000 METAR MROC 132000Z 23006KT 9999 BKN035 SCT250 26/21 A2992 RMK RN E SE=
200607132100 METAR MROC 132100Z VRB03KT 7000 -RA SCT020 OVC100 23/22 A2994 NOSIG=
200607132200 METAR MROC 132200Z VRB03KT 7000 -RA SCT020 OVC110 22/21 A2994 NOSIG=
200607132300 METAR MROC 132300Z 00000KT 5000 -RA SCT020 OVC100 21/20 A2996 NOSIG=
200607140000 METAR MROC 140000Z VRB03KT 6000 -RA BR FEW005 SCT020 OVC100 21/20 A2996 NOSIG=
200607140100 METAR MROC 140100Z 00000KT 9999 SCT020 OVC100 21/20 A2997 NOSIG=
200607140200 METAR MROC 140200Z VRB03KT 9999 SCT025 OVC100 21/20 A2999 NOSIG=
200607140300 METAR MROC 140300Z 02003KT 9999 -RA VCFG FEW003 SCT020 BKN100 21/20 A3000 RMK VIS 7KMS S SSW DUE LOW ST=
200607140400 METAR MROC 140400Z 07004KT 9999 FEW001 SCT025 BKN120 20/19 A3000 NOSIG=
200607140500 METAR MROC 140500Z 00000KT 9999 SCT030 BKN120 21/20 A3000 BECMG RMK LGT FG S QUAD=
200607140600 METAR MROC 140600Z 32005KT 9999 FEW005 SCT030 BKN120 21/20 A2998 NOSIG=
200607140700 METAR MROC 140700Z 35002KT 9999 FEW005 SCT030 BKN120 21/20 A2997 NOSIG=
200607140800 METAR MROC 140800Z 00000KT 9999 FEW030 BKN120 20/20 A2994 NOSIG=
200607140900 METAR MROC 140900Z 04004KT 9999 -RA OVC120 20/20 A2994 NOSIG=
200607141000 METAR MROC 141000Z 00000KT 9999 DZ OVC100 20/19 A2993 NOSIG=
200607141100 METAR MROC 141100Z 09002KT CAVOK 20/19 A2995 NOSIG=
200607141200 METAR MROC 141200Z 00000KT CAVOK 20/19 A2995 BECMG RMK LGT HZ ARND=
200607141300 METAR MROC 141300Z 01006KT CAVOK 21/19 A2995 RMK BKN250=
200607141400 METAR MROC 141400Z 00000KT 9999 FEW030 BKN120 24/20 A2996 NOSIG=
200607141500 METAR MROC 141500Z VRB03KT 9999 FEW030 BKN110 25/20 A2998 BECMG 24008KT=
200607141600 METAR MROC 141600Z 22010KT 9999 FEW030 BKN110 22/20 A2999 BECMG 5000 -RA=
200607141700 METAR MROC 141700Z 29006KT 9999 SCT030 BKN110 23/21 A2999 NOSIG=
200607141800 METAR MROC 141800Z 29004KT 9999 FEW010 SCT030 BKN110 24/20 A2997 NOSIG=
200607141900 METAR MROC 141900Z 27005KT 9999 FEW010 BKN110 25/21 A2995 NOSIG=
200607142000 METAR MROC 142000Z 26004KT 9999 SCT025 BKN110 26/21 A2993 NOSIG=
200607142100 METAR MROC 142100Z 12006KT 9999 BKN025 SCT120 26/19 A2991 NOSIG=
200607142200 METAR MROC 142200Z 23009KT 9999 FEW006 SCT025 BKN250 24/21 A2993 NOSIG=
200607142300 METAR MROC 142300Z 25006KT 5000 BR SCT006 SCT025 BKN250 22/21 A2995 RMK VSBY NE E UNL NOSIG=
200607150000 METAR MROC 150000Z 29003KT 9999 4000NW BR FEW003 BKN120 22/21 A2997 RMK VSBY NE E SE UNL NOSIG=
200607150100 METAR MROC 150100Z 07006KT 9999 FEW025 BKN120 22/18 A2998 RMK LOW ST W NOSIG=
200607150200 METAR MROC 150200Z 08007KT 9999 FEW030 BKN120 23/18 A3000 RMK LTNG DST S NOSIG=
200607150300 METAR MROC 150300Z 09009KT CAVOK 22/18 A3002 NOSIG=
200607150400 METAR MROC 150400Z 05005KT CAVOK 22/18 A3002 NOSIG=
200607150500 METAR MROC 150500Z 05005KT CAVOK 22/18 A3002 NOSIG=
200607150600 METAR MROC 150600Z 05009KT CAVOK 22/18 A3000=
200607150700 METAR MROC 150700Z 06007KT CAVOK 21/18 A2997 NOSIG=
200607150800 METAR MROC 150800Z 09008KT CAVOK 22/18 A2994=
200607150900 METAR MROC 150900Z 11009KT CAVOK 22/17 A2994=
200607151000 METAR MROC 151000Z 24002KT CAVOK 20/18 A2997=
200607151100 METAR MROC 151100Z 25003KT CAVOK 19/19 A2997=
200607151200 METAR MROC 151200Z 08002KT CAVOK 18/17 A2998 NOSIG=
200607151300 METAR MROC 151300Z 02007KT 9999 FEW035 SCT120 BKN250 21/18 A3000=
200607151400 METAR MROC 151400Z 04006KT CAVOK 24/19 A3000 RMK BKN270 RMK CB DST S NOSIG=
200607151500 METAR MROC 151500Z 09006KT CAVOK 26/19 A3000 RMK FEW120 BKN280 NOSIG=
200607151600 METAR MROC 151600Z 09006KT CAVOK 28/19 A3000=
200607151700 METAR MROC 151700Z 12006KT 9999 FEW030 SCT120 BKN280 29/19 A2998 NOSIG=
200607151800 METAR MROC 151800Z 23008KT 9999 SCT025 BKN280 28/21 A2997 NOSIG=
200607151900 METAR MROC 151900Z 23012KT 9999 BKN025 BKN280 27/22 A2996 NOSIG=
200607152000 METAR MROC 152000Z 24010KT 9999 4000NE TS VCSH SCT010CB SCT025 BKN270 25/22 A2995 NOSIG=
200607152100 METAR MROC 152100Z 22003KT 9999 2000E -TSRA BR FEW002 SCT008CB BKN090 21/20 A2996 RMK 4000SW BR=
200607152200 METAR MROC 152200Z 00000KT 9999 DZ SCT035 BKN100 21/21 A2996 RMK 7000W CB LTNG W=
200607152300 METAR MROC 152300Z 01004KT 9999 -RA FEW015 OVC090 22/20 A2996 RMK 7000W=
200607160000 METAR MROC 160000Z 09002KT 9999 -DZ FEW006 SCT045 BKN250 21/21 A2997 NOSIG=
200607160200 METAR MROC 160200Z 10006KT 9999 FEW030 SCT250 21/20 A2999 NOSIG=
200607160300 METAR MROC 160300Z 36003KT 9999 FEW030 SCT250 22/19 A3000 NOSIG=
200607160400 METAR MROC 160400Z 06009KT 9999 FEW035 SCT250 22/19 A3000 NOSIG=
200607160500 METAR MROC 160500Z 04008KT 9999 FEW035 SCT250 22/19 A3000 NOSIG=
200607160600 METAR MROC 160600Z 06005KT 9999 FEW035 21/19 A2999 NOSIG=
200607160700 METAR MROC 160700Z 03005KT 9999 FEW035 22/18 A2997 NOSIG=
200607160800 METAR MROC 160800Z 04005KT 9999 FEW035 21/18 A2994 NOSIG=
200607160900 METAR MROC 160900Z 08008KT 9999 FEW035 22/18 A2993 NOSIG=
200607161000 METAR MROC 161000Z 11011KT CAVOK 21/18 A2992=
200607161100 METAR MROC 161100Z 10009KT CAVOK 21/18 A2993=
200607161200 METAR MROC 161200Z 10011KT 9999 FEW030 BKN250 22/17 A2995 NOSIG=
200607161300 METAR MROC 161300Z 10014KT 9999 FEW030 SCT270 24/18 A2994 NOSIG=
200607161400 METAR MROC 161400Z 10013KT CAVOK 25/18 A2995 NOSIG=
200607161500 METAR MROC 161500Z 11013KT 9999 FEW035 SCT250 26/18 A2997 NOSIG=
200607161600 METAR MROC 161600Z 12008KT 9999 FEW030 SCT250 28/18 A2996 NOSIG=
200607161700 METAR MROC 161700Z 11009KT 9999 SCT030 28/18 A2995 NOSIG=
200607161800 METAR MROC 161800Z 13006KT 9999 SCT025 BKN250 28/18 A2994 NOSIG=
200607161900 METAR MROC 161900Z 24009KT 9999 -RA FEW012CB SCT030 BKN250 26/21 A2992 RMK 8000SW RN NOSIG=
200607162000 METAR MROC 162000Z 20013KT 2000 0800SW TS SHRA SCT008CB BKN012 22/21 A2992=
200607162100 METAR MROC 162100Z 09004KT 9999 3000SW -RA SCT020 OVC110 20/19 A2994 RETS BECMG 9999=
200607162200 METAR MROC 162200Z 34005KT 9999 -RA OVC120 21/20 A2991 NOSIG=
200607162300 METAR MROC 162300Z 22005KT 0100 FG VV/// 21/20 A2991 NOSIG=
200607170000 METAR MROC 170000Z 29005KT 9999 FEW003 BKN100 21/20 A2993 BECMG RMK LOW ST ENE THING FG BNK TO SW NEAR APCH07=
200607170100 METAR MROC 170100Z 27004KT 9999 FEW005 BKN100 21/19 A2995 BECMG 3000SW BR=
200607170200 METAR MROC 170200Z 00000KT CAVOK 20/20 A2997=
200607170300 METAR MROC 170300Z 04003KT CAVOK 21/20 A2998 RMK LTNG DST S NOSIG=
200607170400 METAR MROC 170400Z 00000KT CAVOK 21/19 A2998=
200607170500 METAR MROC 170500Z 00000KT CAVOK 20/19 A2999=
200607170600 METAR MROC 170600Z 03005KT CAVOK 20/19 A2996 RMK LTNG DST S=
200607170700 METAR MROC 170700Z 12002KT CAVOK 20/19 A2994=
200607170900 METAR MROC 170900Z 08004KT CAVOK 20/18 A2993 NOSIG=
200607171000 METAR MROC 171000Z 10003KT CAVOK 19/18 A2992 NOSIG=
200607171100 METAR MROC 171100Z 06004KT CAVOK 20/18 A2992 RMK SCT080 BKN120=
200607171200 METAR MROC 171200Z 00000KT CAVOK 19/18 A2994 RMK BKN120 SCT280 NOSIG=
200607171300 METAR MROC 171300Z 00000KT CAVOK 22/19 A2995 NOSIG=
200607171400 METAR MROC 171400Z 21003KT CAVOK 23/20 A2997 NOSIG=
200607171500 METAR MROC 171500Z 27002KT 9999 FEW030 SCT120 BKN300 25/19 A2997 NOSIG=
200607171600 METAR MROC 171600Z 12007KT 9999 FEW030 SCT120 BKN270 27/19 A2997 NOSIG=
200607171700 METAR MROC 171700Z 22008KT 9999 SCT030 SCT120 26/21 A2996 BECMG 5000=
200607171800 METAR MROC 171800Z 24010KT 9999 FEW030 SCT120 BKN250 25/21 A2993 NOSIG=
200607171900 METAR MROC 171900Z 25008KT 9999 FEW015 SCT025 BKN250 26/21 A2992 BECMG RMK CB RASH DIST E DVLPNG CU ARND=
200607172000 METAR MROC 172000Z 24011KT 8000 VCSH SCT010CB BKN025 24/21 A2991 BECMG 2000 TSRA RMK RASH E S SW VIS N W QUAD UNLTD=
200607172100 METAR MROC 172100Z 21007KT 2000 -TSRA FEW001 SCT010CB BKN025 21/21 A2992 NOSIG=
200607172200 METAR MROC 172200Z 20007KT 2000 RA FEW001 SCT010 BKN025 20/20 A2994 NOSIG=
200607172300 METAR MROC 172300Z 18002KT 2500 RA FEW001 SCT010 BKN025 20/19 A2998 NOSIG=
200607180000 METAR MROC 180000Z 08003KT 3000 RA FEW001 SCT020 OVC100 19/19 A2998 NOSIG=
200607180100 METAR MROC 180100Z 09004KT 9999 RA SCT020 OVC100 19/19 A2998 NOSIG=
200607180200 METAR MROC 180200Z 07004KT 9999 -RA FEW030 OVC100 20/19 A2999 NOSIG=
200607180300 METAR MROC 180300Z 10003KT 9999 -RA FEW035 OVC100 20/19 A3001 NOSIG=
200607180400 METAR MROC 180400Z 06007KT CAVOK 20/18 A3002 NOSIG=
200607180500 METAR MROC 180500Z 06010KT CAVOK 20/19 A2998 NOSIG=
200607180600 METAR MROC 180600Z 09005KT CAVOK 20/19 A2994 NOSIG=
200607180700 METAR MROC 180700Z 00000KT CAVOK 20/18 A2993 NOSIG=
200607180800 METAR MROC 180800Z 29003KT CAVOK 20/18 A2993 BECMG 30006KT 7000 VCFG FEW004 BKN110=
200607180900 METAR MROC 180900Z 10002KT CAVOK 18/18 A2995 BECMG 9999 FEW004 BKN120=
200607181000 METAR MROC 181000Z 10003KT CAVOK 18/18 A2996 NOSIG=
200607181100 METAR MROC 181100Z 08004KT CAVOK 18/17 A2995 NOSIG=
200607181200 METAR MROC 181200Z 07006KT CAVOK 19/17 A2997 NOSIG=
200607181300 METAR MROC 181300Z 10004KT CAVOK 21/18 A2999 NOSIG=
200607181400 METAR MROC 181400Z 09004KT CAVOK 23/19 A3000 NOSIG=
200607181500 METAR MROC 181500Z 05002KT CAVOK 27/18 A3000 BECMG 24006KT=
200607181600 METAR MROC 181600Z 24003KT CAVOK 26/18 A2998 NOSIG=
200607181700 METAR MROC 181700Z 24009KT 9999 FEW040 BKN120 28/20 A2997 NOSIG=
200607181800 METAR MROC 181800Z 28007KT 9999 FEW040 SCT120 BKN260 28/19 A2995 NOSIG=
200607181900 METAR MROC 181900Z 24009KT 9999 FEW015TCU SCT035 BKN300 27/20 A2993 NOSIG=
200607182000 METAR MROC 182000Z 24012KT 9999 VCSH FEW015TCU BKN035 28/21 A2992 NOSIG=
200607182100 METAR MROC 182100Z 23007KT 6000 -TS RA FEW010CB BKN025 OVC100 21/20 A2992 BECMG 3000 -RA BR=
200607182200 METAR MROC 182200Z 00000KT 6000 -RA FEW010 SCT025 OVC100 20/19 A2993 NOSIG=
200607182300 METAR MROC 182300Z 00000KT 7000 -RA FEW010 SCT020 OVC100 20/19 A2996 NOSIG=
200607190000 METAR MROC 190000Z 00000KT 7000 -RA FEW010 SCT020 OVC100 20/20 A2998 BECMG 4000 -RA BR=
200607190100 METAR MROC 190100Z 00000KT 8000 -RA SCT025 OVC100 21/20 A2999 NOSIG=
200607190200 METAR MROC 190200Z 00000KT 9999 3000SW BR FEW002 SCT025 OVC100 20/20 A3001 BECMG 6000 VCFG=
200607190300 METAR MROC 190300Z 30003KT 9999 3000E BR FEW001 SCT020 BKN100 21/20 A3002 NOSIG=
200607190400 METAR MROC 190400Z 34003KT 9999 4000E BR FEW001 SCT020 BKN100 20/20 A3002 BECMG RMK FG BNK ENE E=
200607190500 METAR MROC 190500Z 14003KT 9999 VCFG FEW003 SCT025 BKN120 20/19 A2999 BECMG RMK VIS E ESE 7KMS DUE FG=
200607190600 METAR MROC 190600Z 07005KT 9999 FEW025 BKN120 20/20 A2996 NOSIG=
200607190700 METAR MROC 190700Z 07005KT CAVOK 21/19 A2995 NOSIG=
200607190800 METAR MROC 190800Z 06008KT CAVOK 21/18 A2995 NOSIG=
200607190900 METAR MROC 190900Z 00000KT CAVOK 20/18 A2994 NOSIG=
200607191000 METAR MROC 191000Z 06003KT CAVOK 20/18 A2994 NOSIG=
200607191100 METAR MROC 191100Z 02006KT CAVOK 20/18 A2996 NOSIG=
200607191200 METAR MROC 191200Z 06007KT CAVOK 20/18 A2995 NOSIG=
200607191300 METAR MROC 191300Z 08007KT CAVOK 22/18 A2997 NOSIG=
200607191400 METAR MROC 191400Z 11010KT CAVOK 25/19 A2996 NOSIG=
200607191500 METAR MROC 191500Z 12007KT CAVOK 26/19 A2997 NOSIG=
200607191600 METAR MROC 191600Z 24008KT 9999 FEW040 BKN250 25/21 A2999 NOSIG=
200607191700 METAR MROC 191700Z 23012KT 9999 SCT035 BKN250 25/21 A2999 BECMG RMK RN DST NE=
200607191800 METAR MROC 191800Z 22009KT 9999 FEW015TCU SCT035 BKN250 26/20 A2998 BECMG 6000 VCSH RMK RASH DST NE E=
200607191900 METAR MROC 191900Z 20008KT 9999 FEW015TCU SCT035 SCT120 24/20 A2996 BECMG RMK RN DST N S=
200607192000 METAR MROC 192000Z 26006KT 9999 FEW010CB SCT025 BKN120 24/21 A2996 BECMG 7000 VCSH=
200607192100 METAR MROC 192100Z 34007KT 4000 RA BR SCT005 BKN015 21/20 A2996 NOSIG=
200607192200 METAR MROC 192200Z 20003KT 2000 RA BR SCT002 BKN010 20/20 A2998 NOSIG=
200607192300 METAR MROC 192300Z 00000KT 7000 -RA BR FEW003 SCT025 OVC100 20/20 A2998 RMK VSBY E SE S UNL=
200607200000 METAR MROC 200000Z 09003KT 9999 FEW015 OVC120 20/20 A2998 NOSIG=
200607200100 METAR MROC 200100Z 07005KT CAVOK 21/20 A2998 NOSIG=
200607200200 METAR MROC 200200Z 08007KT CAVOK 21/19 A2998 NOSIG=
200607200300 METAR MROC 200300Z 09011KT CAVOK 22/19 A2999=
200607200400 METAR MROC 200400Z 03007KT CAVOK 22/19 A3000=
200607200500 METAR MROC 200500Z 03006KT CAVOK 21/19 A2999=
200607200600 METAR MROC 200600Z 04007KT CAVOK 21/18 A2998 NOSIG=
200607200700 METAR MROC 200700Z 05008KT 9999 20/18 A2995=
200607200800 METAR MROC 200800Z 05008KT CAVOK 21/18 A2994=
200607200900 METAR MROC 200900Z 05006KT CAVOK 21/19 A2995 RMK LTNG DST SW=
200607201000 METAR MROC 201000Z 06008KT CAVOK 21/18 A2995=
200607201100 METAR MROC 201100Z 08004KT CAVOK 21/18 A2996=
200607201200 METAR MROC 201200Z 03005KT CAVOK 21/18 A2997=
200607201300 METAR MROC 201300Z 06004KT CAVOK 23/19 A2998 RMK CB DST S NOSIG=
200607201400 METAR MROC 201400Z 22005KT CAVOK 23/20 A3001 NOSIG=
200607201500 METAR MROC 201500Z 26005KT 9999 FEW025 SCT280 25/20 A3003 NOSIG=
200607201600 METAR MROC 201600Z 24005KT 9999 SCT025 SCT280 25/20 A3002 NOSIG=
200607201700 METAR MROC 201700Z 25005KT 9999 FEW025 BKN260 26/21 A3001 NOSIG=
200607201800 METAR MROC 201800Z 26009KT 9999 SCT025 BKN280 27/21 A2999 NOSIG=
200607201900 METAR MROC 201900Z 22009KT 9999 SCT015CB SCT030 25/21 A2996 RMK RASH/TS NW RN E S NOSIG=
200607202000 METAR MROC 202000Z 24009KT 7000 -TSDZ FEW004 SCT020CB SCT100 23/22 A2995=
200607202100 METAR MROC 202100Z 25003KT 8000 -DZ BR FEW006 SCT050 SCT150 23/22 A2993=
200607202200 METAR MROC 202200Z 23003KT 7000 VCFG SCT005 SCT070 23/22 A2993=
200607202300 METAR MROC 202300Z VRB03KT 6000 -RA BR SCT005 SCT060 23/22 A2994=
200607210000 METAR MROC 210000Z 10005KT 9000 -DZ FEW015 SCT100 22/20 A2995=
200607210100 METAR MROC 210100Z 04006KT 9999 FEW025 SCT120 22/19 A2998 RMK LTNG DST SW W=
200607210200 METAR MROC 210200Z 05004KT 9999 FEW020 SCT100 22/19 A3000 RMK LTNG DST S SW W=
200607210300 METAR MROC 210300Z 08004KT 7000 VCFG FEW003 SCT040 21/20 A3000 BECMG 3000 BR=
200607210400 METAR MROC 210400Z 00000KT 0600 FG SCT002 SCT040 21/21 A3004 NOSIG=
200607210500 METAR MROC 210500Z 00000KT 9999 SCT035 21/21 A3004 NOSIG=
200607210600 METAR MROC 210600Z 00000KT 9999 SCT035 20/20 A3001 NOSIG=
200607210800 METAR MROC 210800Z 05007KT CAVOK 20/18 A2997 NOSIG=
200607210900 METAR MROC 210900Z 03005KT CAVOK 20/18 A2995 NOSIG=
200607211000 METAR MROC 211000Z 06006KT CAVOK 20/18 A2995 NOSIG=
200607211100 METAR MROC 211100Z 02005KT CAVOK 20/18 A2995 NOSIG=
200607211200 METAR MROC 211200Z 07005KT CAVOK 19/18 A2997 NOSIG=
200607211300 METAR MROC 211300Z 06006KT CAVOK 21/18 A2998=
200607211400 METAR MROC 211400Z 01004KT CAVOK 23/19 A3001=
200607211500 METAR MROC 211500Z 18006KT CAVOK 25/20 A3002=
200607211600 METAR MROC 211600Z 10005KT CAVOK 27/19 A3000=
200607211700 METAR MROC 211700Z 22005KT 9999 FEW030 SCT250 27/21 A2999=
200607211800 METAR MROC 211800Z 24010KT 9999 FEW025 SCT250 26/21 A2997=
200607211900 METAR MROC 211900Z 25008KT 9999 SCT015TCU SCT040 25/22 A2997=
200607212000 METAR MROC 212000Z 23009KT 8000 -TS VCSH SCT010CB SCT070 24/21 A2995=
200607212100 METAR MROC 212100Z 09005KT 1500 TSRA SCT012CB BKN025 20/19 A2996 NOSIG=
200607212200 METAR MROC 212200Z 02008KT 8000 -RA FEW010 SCT025 OVC100 20/19 A2997 BECMG RMK VIS ESE SE S UNLTD RETS=
200607212300 METAR MROC 212300Z 02004KT 9999 -RA SCT025 OVC100 20/18 A2998 NOSIG=
200607220000 METAR MROC 220000Z 12003KT 9999 FEW025 SCT120 BKN250 19/19 A2997 NOSIG=
200607220100 METAR MROC 220100Z 09004KT CAVOK 20/19 A2998 NOSIG=
200607220200 METAR MROC 220200Z 02003KT CAVOK 20/19 A3000 NOSIG=
200607220300 METAR MROC 220300Z 13003KT CAVOK 19/19 A3002 NOSIG=
200607220400 METAR MROC 220400Z 12003KT 9999 FEW001 SCT280 19/19 A3004 RMK LOW ST SW NOSIG=
200607220500 METAR MROC 220500Z 00000KT 9999 FEW001 SCT280 19/18 A3003=
200607220600 METAR MROC 220600Z 04006KT CAVOK 20/18 A3000=
200607220700 METAR MROC 220700Z 04006KT CAVOK 21/18 A2997=
200607220800 METAR MROC 220800Z 03005KT CAVOK 20/18 A2995 NOSIG=
200607220900 METAR MROC 220900Z 03008KT CAVOK 19/17 A2993 NOSIG=
200607221000 METAR MROC 221000Z 05006KT CAVOK 20/17 A2993 NOSIG=
200607221100 METAR MROC 221100Z 09008KT 9999 FEW025 SCT080 BKN270 21/18 A2994 NOSIG=
200607221200 METAR MROC 221200Z 04006KT 9999 FEW025 SCT100 BKN270 20/18 A2996 NOSIG=
200607221300 METAR MROC 221300Z 11011KT 9999 FEW025 SCT100 BKN120 21/18 A2996 NOSIG=
200607221400 METAR MROC 221400Z 10013KT 9999 FEW025 SCT100 BKN250 24/18 A2998 NOSIG=
200607221500 METAR MROC 221500Z 11011KT 9999 FEW025 BKN100 24/19 A3001 NOSIG=
200607221600 METAR MROC 221600Z 10010KT 9999 FEW030 BKN100 26/18 A3002 NOSIG=
200607221700 METAR MROC 221700Z 10008KT 9999 FEW030 BKN250 27/19 A3000 NOSIG=
200607221800 METAR MROC 221800Z 09005KT 9999 FEW035 SCT140 29/19 A2998 BECMG 24007KT=
200607221900 METAR MROC 221900Z 22010KT 9999 FEW020TCU SCT035 26/20 A2996 BECMG 5000 VCSH RMK RN DST E NW=
200607222000 METAR MROC 222000Z 30011KT 9999 3000SW -RA VCSH FEW015CB SCT025 BKN100 21/20 A2994 BECMG RMK RASH SW W=
200607222100 METAR MROC 222100Z 22005KT 9999 3000SW VCFG FEW005 SCT025 BKN100 22/21 A2996 NOSIG=
200607222200 METAR MROC 222200Z 00000KT 9999 RA FEW005 SCT025 BKN100 21/20 A2995 NOSIG=
200607222300 METAR MROC 222300Z 00000KT 9999 RA FEW025 BKN100 21/21 A2995 NOSIG=
200607230000 METAR MROC 230000Z 05004KT 9999 FEW010 OVC100 21/20 A2994=
200607230100 METAR MROC 230100Z 04002KT CAVOK 21/19 A2996 NOSIG=
200607230200 METAR MROC 230200Z 02005KT CAVOK 21/19 A2997=
200607230300 METAR MROC 230300Z 08006KT CAVOK 21/18 A3000=
200607230400 METAR MROC 230400Z 09006KT CAVOK 21/18 A3002=
200607230500 METAR MROC 230500Z 08005KT CAVOK 21/17 A3003=
200607230600 METAR MROC 230600Z 02007KT CAVOK 18/16 A3001=
200607230700 METAR MROC 230700Z 00000KT CAVOK 18/16 A3000=
200607230800 METAR MROC 230800Z 07004KT CAVOK 17/15 A2998 NOSIG=
200607230900 METAR MROC 230900Z 06010KT CAVOK 16/14 A2997=
200607231000 METAR MROC 231000Z 04008KT CAVOK 17/14 A2996=
200607231100 METAR MROC 231100Z 05010KT CAVOK 17/14 A2996=
200607231200 METAR MROC 231200Z 05009KT CAVOK 17/13 A2997=
200607231300 METAR MROC 231300Z 05009KT CAVOK 21/15 A2998 NOSIG=
200607231400 METAR MROC 231400Z 10009KT CAVOK 24/16 A2998 NOSIG=
200607231500 METAR MROC 231500Z 10011KT CAVOK 25/17 A2999 NOSIG=
200607231600 METAR MROC 231600Z 10016KT 9999 FEW040 SCT120 26/16 A2999=
200607231700 METAR MROC 231700Z 08013KT 9999 FEW040 SCT120 27/17 A3000 NOSIG=
200607231800 METAR MROC 231800Z 10015KT 9999 FEW030 SCT110 28/17 A2999 NOSIG=
200607231900 METAR MROC 231900Z 11012KT 9999 SCT030 FEW110 28/17 A2997 NOSIG=
200607232000 METAR MROC 232000Z 11009KT 9999 SCT030 SCT100 28/17 A2995 NOSIG=
200607232100 METAR MROC 232100Z 18007KT 9999 -RA SCT030 BKN100 25/20 A2995 BECMG 5000 -RA=
200607232200 METAR MROC 232200Z 24011KT 9999 FEW010 SCT030 BKN120 23/21 A2994 RMK RN DST NE=
200607232300 METAR MROC 232300Z 23006KT 9999 FEW010 SCT030 SCT130 23/21 A2995 NOSIG=
200607240000 METAR MROC 240000Z 00000KT 9999 SCT020 BKN100 22/20 A2995 NOSIG=
200607240100 METAR MROC 240100Z 00000KT 9999 SCT025 BKN100 22/20 A2998 NOSIG=
200607240200 METAR MROC 240200Z 00000KT 9999 FEW035 SCT130 21/20 A3000 NOSIG=
200607240300 METAR MROC 240300Z 07006KT 9999 FEW035 BKN120 21/17 A3001 BECMG RMK=
200607240400 METAR MROC 240400Z 09007KT 9999 FEW035 BKN120 22/17 A3002 BECMG CAVOK RMK LTNG DST S SSW=
200607240500 METAR MROC 240500Z 08007KT CAVOK 21/17 A3002 NOSIG=
200607240600 METAR MROC 240600Z 06006KT CAVOK 21/17 A3000 NOSIG=
200607240700 METAR MROC 240700Z 09006KT CAVOK 21/17 A2998 NOSIG=
200607240800 METAR MROC 240800Z 07006KT CAVOK 20/17 A2996 NOSIG=
200607240900 METAR MROC 240900Z 07007KT CAVOK 21/17 A2996 NOSIG=
200607241000 METAR MROC 241000Z 09006KT CAVOK 21/17 A2995 NOSIG=
200607241100 METAR MROC 241100Z 09006KT CAVOK 21/17 A2994 BECMG RMK LTNG DST S=
200607241200 METAR MROC 241200Z 06007KT 9999 FEW040 BKN080 21/17 A2996 BECMG RMK CB LINE DIST SSE S SSW=
200607241300 METAR MROC 241300Z 10010KT CAVOK 23/17 A2998 NOSIG=
200607241400 METAR MROC 241400Z 11008KT CAVOK 23/18 A2999 NOSIG=
200607241500 METAR MROC 241500Z 11011KT CAVOK 27/18 A2999 NOSIG=
200607241600 METAR MROC 241600Z 11008KT CAVOK 28/18 A2999 NOSIG=
200607241700 METAR MROC 241700Z 12005KT 9999 FEW040 SCT110 29/19 A2999 NOSIG=
200607241800 METAR MROC 241800Z 22011KT 9999 FEW040 SCT110 28/23 A2997 NOSIG=
200607241900 METAR MROC 241900Z 25009KT 9999 SCT020TCU SCT110 26/23 A2994 NOSIG=
200607242000 METAR MROC 242000Z 22011KT 9999 VCSH SCT020TCU BKN100 26/22 A2992 BECMG 7000 VCSH=
200607242100 METAR MROC 242100Z 15006KT 9999 -RA FEW025 OVC100 20/19 A2995 RMK TS DST W NOSIG=
200607242200 METAR MROC 242200Z 36004KT 9999 -RA FEW025 OVC100 21/20 A2993 NOSIG=
200607242300 METAR MROC 242300Z 28003KT 9999 4000SW BR FEW001 OVC100 20/20 A2994 NOSIG=
200607250000 METAR MROC 250000Z 06004KT 9999 FEW030 OVC100 21/20 A2995 NOSIG=
200607250100 METAR MROC 210100Z 10009KT CAVOK 21/19 A2996 NOSIG=
200607250200 METAR MROC 250200Z 09007KT CAVOK 21/18 A2998 NOSIG=
200607250300 METAR MROC 250300Z 12007KT CAVOK 21/18 A2998 NOSIG=
200607250400 METAR MROC 250400Z 11012KT CAVOK 22/18 A2999=
200607250500 METAR MROC 250500Z 10010KT CAVOK 22/18 A2998 NOSIG=
200607250600 METAR MROC 250600Z 10008KT CAVOK 22/18 A2997 NOSIG=
200607250700 METAR MROC 250700Z 09005KT CAVOK 22/18 A2996 NOSIG=
200607250800 METAR MROC 250800Z 07003KT CAVOK 21/17 A2995 NOSIG=
200607250900 METAR MROC 250900Z 11010KT CAVOK 21/18 A2995 NOSIG=
200607251000 METAR MROC 251000Z 10008KT CAVOK 22/18 A2993 NOSIG=
200607251100 METAR MROC 251100Z 09009KT CAVOK 21/17 A2994 NOSIG=
200607251200 METAR MROC 251200Z 10009KT CAVOK 21/18 A2993 NOSIG=
200607251300 METAR MROC 251300Z 10009KT 9999 23/18 A2995 NOSIG=
200607251400 METAR MROC 251400Z 09013KT CAVOK 25/18 A2996 NOSIG=
200607251500 METAR MROC 251500Z 08010KT 9999 FEW030 27/18 A2997 NOSIG=
200607251600 METAR MROC 251600Z 08013KT 9999 FEW035 27/18 A2998 NOSIG=
200607251700 METAR MROC 251700Z 07013KT 9999 BKN035 26/17 A2998 NOSIG=
200607251800 METAR MROC 251800Z 07016KT 9999 SCT035 28/17 A2995 RMK DZ SE NE NOSIG=
200607251900 METAR MROC 251900Z 08013KT 9999 SCT035 BKN280 27/17 A2993 NOSIG=
200607252000 METAR MROC 252000Z 08016KT 9999 SCT025 BKN250 27/17 A2991=
200607252100 METAR MROC 252100Z 05012KT 9999 SCT025 BKN200 27/16 A2991=
200607252200 METAR MROC 252200Z 06015KT 9999 SCT025 BKN250 26/16 A2991=
200607252300 METAR MROC 252300Z 06008KT 9999 FEW030 BKN250 25/17 A2993=
200607260000 METAR MROC 260000Z 05007KT 9999 SCT020 SCT180 21/18 A2996 REDZ=
200607260100 METAR MROC 260100Z 13003KT 9999 FEW030 SCT170 21/17 A2996=
200607260200 METAR MROC 260200Z 06003KT CAVOK 21/17 A2998=
200607260300 METAR MROC 260300Z 11004KT CAVOK 21/16 A2998 NOSIG=
200607260400 METAR MROC 260400Z 11009KT CAVOK 21/17 A2998 NOSIG=
200607260500 METAR MROC 260500Z 09009KT CAVOK 22/17 A2998 NOSIG=
200607260600 METAR MROC 260600Z 13004KT CAVOK 22/17 A2998 NOSIG=
200607260700 METAR MROC 260700Z 10010KT CAVOK 21/16 A2993 NOSIG=
200607260800 METAR MROC 260800Z 09004KT CAVOK 22/16 A2992 NOSIG=
200607260900 METAR MROC 260900Z 09009KT CAVOK 21/16 A2991 NOSIG=
200607261000 METAR MROC 261000Z 11006KT CAVOK 20/16 A2993 NOSIG=
200607261100 METAR MROC 261100Z 11009KT CAVOK 20/16 A2994 NOSIG=
200607261200 METAR MROC 261200Z 11011KT CAVOK 21/16 A2996 NOSIG=
200607261300 METAR MROC 261300Z 10008KT CAVOK 22/17 A2998=
200607261400 METAR MROC 261400Z 10006KT CAVOK 24/17 A2998=
200607261500 METAR MROC 261500Z 07010KT CAVOK 26/16 A3000=
200607261600 METAR MROC 261600Z 08009KT CAVOK 27/15 A3000=
200607261700 METAR MROC 261700Z 06010KT 9999 FEW030 BKN250 27/15 A3000=
200607261800 METAR MROC 261800Z 10009KT 9999 FEW030 BKN250 26/15 A2998=
200607261900 METAR MROC 261900Z 06010KT 9999 FEW025 BKN250 28/15 A2997=
200607262000 METAR MROC 262000Z 23010KT 9999 SCT040 SCT250 25/21 A2995=
200607262100 METAR MROC 262100Z 24010KT 7000 VCFG SCT005 BKN020 23/21 A2995 BECMG 3000 BR RMK VIS E ESE UNLTD=
200607262200 METAR MROC 262200Z 24010KT 1200 BR SCT001 BKN004 21/20 A2996 BECMG 0500 FG RMK CONDICIONES VARIABLES=
200607262235 METAR MROC 262235Z 24008KT 2000 -RA BR SCT001 BKN004 20/20 A2998 BECMG 5000=
200607262300 METAR MROC 262300Z 03007KT 2000 9999E RA BR SCT020TCU BKN100 19/18 A3000 BECMG 6000=
200607270000 METAR MROC 270000Z 12003KT 9999 FEW020 SCT080 BKN120 19/19 A3000 RERA BECMG RMK RN DIST E/W QUADS=
200607270100 METAR MROC 270100Z 10003KT 9999 FEW025 SCT080 BKN120 19/19 A3002 NOSIG=
200607270200 METAR MROC 270200Z 09006KT 9999 FEW020 BKN120 19/18 A3003 NOSIG=
200607270300 METAR MROC 270300Z 09006KT 9999 -RA OVC120 20/18 A3005 NOSIG=
200607270400 METAR MROC 270400Z 09008KT 9999 -RA OVC120 20/17 A3005=
200607270500 METAR MROC 270500Z 07005KT CAVOK 20/17 A3004=
200607270600 METAR MROC 270600Z 10003KT CAVOK 20/17 A3003=
200607270700 METAR MROC 270700Z 01005KT CAVOK 19/18 A3002=
200607270800 METAR MROC 270800Z 03005KT 9999 20/17 A3000 NOSIG=
200607270900 METAR MROC 270900Z 08005KT CAVOK 20/16 A2998 NOSIG=
200607271000 METAR MROC 271000Z 04005KT CAVOK 20/17 A2997 NOSIG=
200607271100 METAR MROC 271100Z 06009KT 9999 20/16 A2997 NOSIG=
200607271200 METAR MROC 271200Z 07008KT CAVOK 21/16 A2997 NOSIG=
200607271300 METAR MROC 271300Z 07007KT CAVOK 22/16 A3000 NOSIG=
200607271400 METAR MROC 271400Z 07008KT CAVOK 22/16 A3001 NOSIG=
200607271500 METAR MROC 271500Z 08009KT CAVOK 24/16 A3002 NOSIG=
200607271600 METAR MROC 271600Z 09007KT CAVOK 25/16 A3003 NOSIG=
200607271700 METAR MROC 271700Z 09008KT CAVOK 28/18 A3002 NOSIG=
200607271800 METAR MROC 271800Z 21007KT 9999 FEW045 BKN250 27/20 A3001 NOSIG=
200607271900 METAR MROC 271900Z 24011KT 9999 FEW035 SCT130 BKN250 26/21 A3001 NOSIG=
200607272000 METAR MROC 272000Z 24011KT 9999 SCT010 FEW020TCU BKN035 24/21 A3000 BECMG 5000 TS VCSH RMK CB RASH DST E RN SW=
200607272100 METAR MROC 272100Z 25011KT 9999 FEW010 SCT020TCU BKN035 23/21 A2999 RMK RN NE E=
200607272200 METAR MROC 272200Z 04007KT 4000 TS +RA FEW010 SCT015CB BKN030 19/18 A3002 NOSIG=
200607272300 METAR MROC 272300Z 05005KT 9999 -RA FEW005 SCT030 OVC100 19/18 A3002=
200607280000 METAR MROC 280000Z 30004KT 9999 -RA FEW001 SCT030 OVC100 19/18 A3005 NOSIG=
200607280100 METAR MROC 280100Z 02002KT 9999 DZ FEW003 OVC100 19/19 A3006 NOSIG=
200607280200 METAR MROC 280200Z 12002KT 9999 FEW020 OVC100 19/18 A3006 NOSIG=
200607280300 METAR MROC 280300Z 02003KT CAVOK 19/19 A3007=
200607280400 METAR MROC 280400Z 04003KT CAVOK 19/17 A3009=
200607280500 METAR MROC 280500Z 07003KT CAVOK 18/17 A3008=
200607280600 METAR MROC 280600Z 07004KT CAVOK 18/17 A3006=
200607280700 METAR MROC 280700Z 08006KT CAVOK 18/17 A3004=
200607280800 METAR MROC 280800Z 05007KT CAVOK 19/17 A3002=
200607280900 METAR MROC 280900Z 08008KT CAVOK 20/17 A3000=
200607281000 METAR MROC 281000Z 08007KT CAVOK 20/16 A2999 NOSIG=
200607281100 METAR MROC 281100Z 08007KT CAVOK 20/15 A3001=
200607281200 METAR MROC 281200Z 05007KT CAVOK 18/15 A3001=
200607281300 METAR MROC 281300Z 07006KT CAVOK 22/16 A3003 NOSIG=
200607281400 METAR MROC 281400Z 02003KT CAVOK 25/17 A3005 NOSIG=
200607281500 METAR MROC 281500Z 27006KT CAVOK 25/18 A3005 NOSIG=
200607281600 METAR MROC 281600Z 24009KT 9999 FEW035 BKN120 25/19 A3007 RMK CB DST SW=
200607281700 METAR MROC 281700Z 22008KT 9999 FEW035 BKN120 25/20 A3006 NOSIG=
200607281800 METAR MROC 281800Z 23011KT 9999 SCT030 BKN100 25/21 A3005 BECMG 8000=
200607281900 METAR MROC 281900Z 26008KT 9999 FEW015TCU SCT030 BKN100 26/20 A3003 RMK RN E BECMG 8000 VCSH=
200607282000 METAR MROC 282000Z 24006KT 9999 FEW015TCU BKN030 26/20 A3000 BECMG 8000 VCSH=
200607282100 METAR MROC 282100Z 23010KT 9999 SCT020TCU SCT250 26/20 A2997 BECMG RMK RN DST N NE=
200607282200 METAR MROC 282200Z 24013KT 9999 SCT015CB SCT100 25/21 A2996 BECMG 6000 RA=
200607282300 METAR MROC 282300Z 00000KT 4000 -RA FEW008 SCT015 OVC100 21/19 A3000 NOSIG=
200607290000 METAR MROC 290000Z 33004KT 7000 RA FEW010 SCT015 OVC100 21/20 A3002 NOSIG=
200607290100 METAR MROC 290100Z 28003KT 9999 5000W -RA BR FEW004 SCT015 OVC100 21/20 A3003 NOSIG=
200607290200 METAR MROC 290200Z 05004KT 9999 SCT020 OVC100 20/20 A3004 NOSIG=
200607290300 METAR MROC 290300Z 25007KT 9999 4000SW BR SCT008 OVC100 19/19 A3006 BECMG 3000 BR OVC006=
200607290400 METAR MROC 290400Z 28004KT 9999 VCFG FEW004 OVC100 20/19 A3008 BECMG RMK VIS 8KMS TO SE E DUE FG=
200607290500 METAR MROC 290500Z 00000KT 9999 FEW004 OVC120 20/19 A3007 NOSIG=
200607290600 METAR MROC 290600Z 04003KT 9999 FEW035 BKN120 20/19 A3005 NOSIG=
200607290700 METAR MROC 290700Z 01006KT 9999 FEW035 BKN120 19/18 A3003 NOSIG=
200607290800 METAR MROC 290800Z 05005KT 9999 FEW035 BKN120 18/17 A3002 NOSIG=
200607290900 METAR MROC 290900Z 00000KT 9999 VCFG FEW004 BKN120 18/17 A3001 BECMG RMK VIS 6KMS TO E ESE DUE FG BNK=
200607291000 METAR MROC 291000Z 03004KT 9999 FEW030 SCT120 18/17 A3001 NOSIG=
200607291100 METAR MROC 291100Z 07003KT CAVOK 18/17 A3000 NOSIG=
200607291200 METAR MROC 291200Z 11003KT CAVOK 18/17 A3001 BECMG RMK CBS DST SSE S LGT HZ ARND=
200607291300 METAR MROC 291300Z 07003KT CAVOK 21/17 A3003 BECMG 24007KT=
200607291400 METAR MROC 291400Z VRB03KT 9999 FEW030 BKN250 23/19 A3005 NOSIG=
200607291500 METAR MROC 291500Z VRB03KT 9999 FEW030 BKN250 23/19 A3005 NOSIG=
200607291600 METAR MROC 291600Z 23005KT 9999 SCT025 SCT250 25/16 A3006 NOSIG=
200607291700 METAR MROC 291700Z 26007KT 9999 SCT025 SCT250 25/20 A3004 NOSIG=
200607291800 METAR MROC 291800Z 24009KT 9999 SCT020TCU SCT250 26/20 A3002 NOSIG=
200607291900 METAR MROC 291900Z 23012KT 9999 SCT020TCU SCT250 26/20 A2999 NOSIG=
200607292000 METAR MROC 292000Z 28009KT 9000 SCT010CB SCT020 BKN100 23/19 A2997 BECMG 4000 TSRA=
200607292100 METAR MROC 292100Z 22004KT 5000 -RA FEW010 SCT025 BKN120 21/20 A2997 RMK VSBY SE S SW UNL NOSIG=
200607292200 METAR MROC 292200Z 00000KT 4000 RA FEW010 SCT025 OVC100 21/20 A2998 NOSIG=
200607292300 METAR MROC 292300Z 26009KT 3000 RA BR SCT005 FEW010CB SCT015 20/19 A2999 NOSIG=
200607300000 METAR MROC 300000Z 33004KT 6000 RA BR FEW005 SCT020 OVC100 20/19 A3001 NOSIG=
200607300100 METAR MROC 300100Z 00000KT 9999 -RA SCT020 OVC120 19/19 A3003 NOSIG=
200607300200 METAR MROC 300200Z 11003KT 9999 FEW020 OVC120 20/19 A3004 NOSIG=
200607300300 METAR MROC 300300Z 08003KT CAVOK 19/19 A3003=
200607300400 METAR MROC 300400Z 08006KT CAVOK 20/19 A3003 NOSIG=
200607300500 METAR MROC 300500Z 07006KT 9999 -DZ OVC100 20/19 A3002 NOSIG=
200607300600 METAR MROC 300600Z 04005KT CAVOK 20/18 A3000=
200607300700 METAR MROC 300700Z 00000KT CAVOK 19/18 A2999=
200607300800 METAR MROC 300800Z 32005KT CAVOK 19/18 A2997 NOSIG=
200607300900 METAR MROC 300900Z 25004KT CAVOK 19/18 A2997 NOSIG=
200607301000 METAR MROC 301000Z VRB03KT 9999 FEW025 BKN100 19/19 A2997=
200607301100 METAR MROC 301100Z 09004KT 9999 FEW030 BKN100 18/18 A2997 NOSIG=
200607301200 METAR MROC 301200Z 07006KT CAVOK 19/18 A2997 NOSIG=
200607301300 METAR MROC 301300Z 07006KT CAVOK 21/18 A2996=
200607301400 METAR MROC 301400Z 10006KT CAVOK 24/18 A2997 NOSIG=
200607301500 METAR MROC 301500Z VRB03KT CAVOK 26/19 A2999 NOSIG=
200607301600 METAR MROC 301600Z 23009KT 9999 FEW030 SCT120 25/20 A2999 NOSIG=
200607301700 METAR MROC 301700Z 23008KT 9999 FEW030 SCT250 26/20 A2998=
200607301800 METAR MROC 301800Z 23010KT 9999 BKN020 26/21 A2997 NOSIG=
200607301900 METAR MROC 301900Z 24014KT 9999 FEW015TCU SCT025 25/20 A2995 NOSIG=
200607302000 METAR MROC 302000Z 24008KT 9999 FEW010TCU SCT025 SCT250 24/21 A2994=
200607302100 METAR MROC 302100Z 23009KT 9999 FEW020TCU SCT050 SCT220 23/20 A2992=
200607302200 METAR MROC 302200Z 26006KT 9999 FEW010TCU SCT070 SCT250 23/21 A2992=
200607302300 METAR MROC 302300Z 25008KT 7000 VCFG FEW003 SCT015TCU 23/21 A2993 RMK VIS RED SW/W=
200607310000 METAR MROC 310000Z 22007KT 0800 RA BR SCT001 SCT006 20/20 A2996 BECMG 3000=
200607310100 METAR MROC 310100Z 24007KT 8000 2000SW -RA BR FEW002 BKN012 20/20 A2998=
200607310200 METAR MROC 310200Z 24009KT 6000 2000SW DZ BR FEW002 SCT010 OVC100 20/20 A3001=
200607310300 METAR MROC 310300Z 28006KT 6000 -RA VCFG FEW002 SCT010 OVC100 20/20 A3002 BECMG 3000 -RA BR=
200607310400 METAR MROC 310400Z 00000KT 8000 -RA VCFG FEW003 OVC100 20/20 A3003 NOSIG=
200607310500 METAR MROC 310500Z 00000KT 9000 -RA VCFG FEW004 OVC100 20/19 A3001 NOSIG=
200607310600 METAR MROC 310600Z 06008KT CAVOK 20/19 A2999 NOSIG=
200607310700 METAR MROC 310700Z 06005KT CAVOK 20/19 A2996 NOSIG=
200607310800 METAR MROC 310800Z 04008KT CAVOK 20/19 A2996 NOSIG=
200607310900 METAR MROC 310900Z 08004KT CAVOK 19/18 A2993 NOSIG=
200607311000 METAR MROC 311000Z 06005KT CAVOK 20/18 A2995 NOSIG=
200607311100 METAR MROC 311100Z 09003KT CAVOK 19/18 A2996=
200607311200 METAR MROC 311200Z 04004KT CAVOK 19/17 A2997 NOSIG=
200607311300 METAR MROC 311300Z 31005KT CAVOK 21/19 A3000=
200607311400 METAR MROC 311400Z 24004KT CAVOK 23/19 A3001=
200607311500 METAR MROC 311500Z 24006KT 9999 FEW025 SCT250 24/20 A3002=
200607311600 METAR MROC 311600Z 27007KT 9999 FEW015 SCT040 24/20 A3003=
200607311700 METAR MROC 311700Z 27008KT 9999 FEW015TCU SCT035 25/21 A3003=
200607311800 METAR MROC 311800Z 24008KT 9999 FEW020TCU SCT080 SCT250 26/21 A3001=
200607311900 METAR MROC 311900Z 24009KT 9999 FEW015TCU SCT030 SCT100 25/22 A2999=
200607312000 METAR MROC 312000Z 22011KT 9000 SCT010TCU SCT040 24/22 A2997 RMK BR ARND=
200607312100 METAR MROC 312100Z 24010KT 9999 FEW005 SCT035 BKN120 23/20 A2996 BECMG RMK RASH DST E ESE=
200607312200 METAR MROC 312200Z 27005KT 9999 FEW005 SCT030 BKN120 23/19 A2997 BECMG RMK RASH DST E/NNW=
200607312300 METAR MROC 312300Z 26005KT 9999 FEW012 SCT030 BKN130 22/19 A2999 NOSIG=
200608010000 METAR MROC 010000Z 08002KT 9999 FEW035 SCT120 BKN250 22/19 A2999 BECMG RMK CB LTNG DIST SSE S/ RN DIST ENE=
200608010100 METAR MROC 010100Z 01004KT 9999 FEW035 BKN140 22/19 A3000 BECMG RMK=
200608010200 METAR MROC 010200Z 00000KT 9999 SCT030 OVC120 22/20 A3001 NOSIG=
200608010300 METAR MROC 010300Z 08004KT 9999 BKN030 21/20 A3001 NOSIG=
200608010400 METAR MROC 010400Z 08005KT 9999 BKN035 22/19 A3002 NOSIG=
200608010500 METAR MROC 010500Z 03005KT 9999 SCT035 22/19 A3002=
200608010600 METAR MROC 010600Z 10006KT CAVOK 22/19 A3002=
200608010700 METAR MROC 010700Z 08006KT CAVOK 22/18 A3000=
200608010800 METAR MROC 010800Z 06005KT CAVOK 21/18 A3000 NOSIG=
200608010900 METAR MROC 010900Z 03004KT CAVOK 20/17 A2999 NOSIG=
200608011000 METAR MROC 011000Z 05007KT CAVOK 20/17 A2998 NOSIG=
200608011100 METAR MROC 011100Z 07005KT CAVOK 18/16 A2998 NOSIG=
200608011200 METAR MROC 011200Z 03004KT CAVOK 20/17 A3000 NOSIG=
200608011300 METAR MROC 011300Z 06006KT CAVOK 23/18 A3001 NOSIG=
200608011400 METAR MROC 011400Z 10006KT CAVOK 25/19 A3002 NOSIG=
200608011500 METAR MROC 011500Z 10007KT CAVOK 27/18 A3003 NOSIG=
200608011600 METAR MROC 011600Z 11004KT 9999 FEW040 28/18 A3002 NOSIG=
200608011700 METAR MROC 011700Z 24009KT 9999 FEW040 27/21 A3001 NOSIG=
200608011800 METAR MROC 011800Z 23009KT 9999 FEW035 27/22 A2999 NOSIG=
200608011900 METAR MROC 011900Z 22011KT 9999 SCT030 27/22 A2998 BECMG 5000 VCSH=
200608012000 METAR MROC 012000Z 22007KT 9999 SCT025 27/22 A2996 BECMG RMK RN DST NNW=
200608012100 METAR MROC 012100Z 23010KT 9999 FEW010 SCT025 26/23 A2995 NOSIG=
200608012200 METAR MROC 012200Z 21009KT 9999 RA SCT010 BKN025 25/22 A2995 NOSIG=
200608012300 METAR MROC 012300Z 23007KT 9999 4000E VCFG -TS FEW005 SCT010 BKN025 23/22 A2996 NOSIG=
200608020000 METAR MROC 020000Z 24003KT 8000 -RA SCT003 SCT020 BKN100 22/22 A2998 NOSIG=
200608020100 METAR MROC 020100Z 00000KT 9999 4000SW VCFG FEW002 SCT020 BKN100 22/22 A2999 NOSIG=
200608020200 METAR MROC 020200Z 00000KT 9999 3000SW VCFG FEW001 SCT025 22/22 A3001 NOSIG=
200608020300 METAR MROC 020300Z 00000KT 9999 3000SW FEW001 FEW030 22/21 A3003 RMK BR/SW=
200608020400 METAR MROC 020400Z 00000KT 9999 2000SW FEW001 FEW030 22/21 A3003 RMK BR SW=
200608020500 METAR MROC 020500Z 01003KT CAVOK 21/19 A3002=
200608020600 METAR MROC 020600Z 10007KT CAVOK 21/18 A3001 RMK LTNG DST S=
200608020700 METAR MROC 020700Z 07006KT CAVOK 21/18 A2998 RMK LTNG DST S=
200608020800 METAR MROC 020800Z 06007KT CAVOK 20/17 A2996=
200608020900 METAR MROC 020900Z 03004KT CAVOK 21/17 A2997 RMK CB/LTNG DST S NOSIG=
200608021000 METAR MROC 021000Z 05006KT CAVOK 20/17 A2998=
200608021100 METAR MROC 021100Z 08006KT CAVOK 20/17 A2999=
200608021200 METAR MROC 021200Z 10010KT CAVOK 21/17 A2998 RMK CB DST SW=
200608021300 METAR MROC 021300Z 11010KT CAVOK 22/17 A3001 NOSIG=
200608021400 METAR MROC 021400Z 10009KT CAVOK 24/18 A3002 NOSIG=
200608021500 METAR MROC 021500Z 11007KT CAVOK 26/19 A3003 NOSIG=
200608021600 METAR MROC 021600Z 11008KT 9999 FEW040 BKN250 27/18 A3003 NOSIG=
200608021700 METAR MROC 021700Z 25008KT 9999 FEW040 SCT120 BKN250 26/21 A3004 NOSIG=
200608021800 METAR MROC 021800Z 26008KT 9999 FEW040 SCT120 BKN250 27/22 A3003 NOSIG=
200608021900 METAR MROC 021900Z 23007KT 9999 SCT035 BKN250 27/21 A2999 NOSIG=
200608022000 METAR MROC 022000Z 25004KT 9999 SCT035 BKN250 28/21 A2997 NOSIG=
200608022100 METAR MROC 022100Z 21011KT 9999 SCT030TCU BKN250 27/21 A2995 NOSIG=
200608022200 METAR MROC 022200Z 22010KT 9999 FEW015TCU SCT025 BKN250 25/22 A2995 NOSIG=
200608022300 METAR MROC 022300Z 232009KT 9999 FEW010TCU SCT020 BKN250 24/22 A2996 BECMG 6000 VCFG=
200608030000 METAR MROC 030000Z 25006KT 8000 VCFG FEW006 BKN012TCU 23/22 A2998 BECMG 6000 -RA VCFG=
200608030100 METAR MROC 030100Z 24004KT 8000 VCFG FEW006 SCT025 BKN250 22/22 A3001 NOSIG=
200608030200 METAR MROC 030200Z 00000KT 8000 VCFG FEW006 SCT025 BKN250 22/22 A3002 NOSIG=
200608030300 METAR MROC 030300Z 00000KT 9999 VCFG FEW004 SCT020 BKN250 22/22 A3003 BECMG RMK VIS S SW 8KMS DUE LOW ST WIND TEND NE=
200608030400 METAR MROC 030400Z 26004KT 7000 VCFG SCT004 SCT020 22/21 A3004 BECMG 4000 BR RMK VIS NE E UNLTD=
200608030500 METAR MROC 030500Z 25004KT 2000 BR FEW001 BKN003 22/21 A3005 BECMG 0500 FG=
200608030600 METAR MROC 030600Z 00000KT 2000 BR FEW001 BKN004 22/21 A3002 BECMG 4000=
200608030700 METAR MROC 030700Z 00000KT 9999 VCFG FEW004 BKN250 20/20 A2998 BECMG RMK VIS SSW SW 7KMS DUE FG=
200608030800 METAR MROC 030800Z 04005KT 9999 FEW035 BKN250 21/19 A2998 BECMG RMK=
200608030900 METAR MROC 030900Z 09003KT 9999 FEW035 SCT250 19/18 A2997 BECMG RMK=
200608031100 METAR MROC 031100Z 07004KT CAVOK 20/17 A2997 BECMG RMK CB LTNG DST S=
200608031200 METAR MROC 031200Z 03006KT CAVOK 20/17 A2998 BECMG RMK CB LINE DST S SSW SW=
200608031300 METAR MROC 031300Z 06003KT CAVOK 23/18 A3000 NOSIG=
200608031400 METAR MROC 031400Z 02005KT CAVOK 24/19 A3005 BECMG 24006KT=
200608031500 METAR MROC 031500Z 11005KT 9999 FEW030 SCT250 27/18 A3002 NOSIG=
200608031600 METAR MROC 031600Z 24007KT 9999 FEW030 SCT250 27/21 A3002 NOSIG=
200608031700 METAR MROC 031700Z 24010KT 9999 SCT030 SCT250 27/21 A3001 NOSIG=
200608031800 METAR MROC 031800Z 24009KT 9999 SCT025TCU SCT250 26/21 A2999 NOSIG=
200608031900 METAR MROC 031900Z 22008KT 9999 SCT020TCU SCT250 27/22 A2997 NOSIG=
200608032000 METAR MROC 032000Z 23011KT 9999 FEW010 BKN020TCU 27/21 A2996 NOSIG=
200608032100 METAR MROC 032100Z 23012KT 7000 -RA FEW012 BKN020TCU 24/23 A2995 RMK VSBY NE E UNL NOSIG=
200608032200 METAR MROC 032200Z 23009KT 9999 4000N TS VCSH FEW015CB BKN030 24/21 A2996 NOSIG=
200608032300 METAR MROC 032300Z 25007KT 9999 SCT008 BKN020 23/22 A2998 RMK VSBY SW 5KM LOW ST NOSIG=
200608040000 METAR MROC 040000Z 30003KT 9999 SCT008 SCT080 22/20 A3000 RMK VSBY N 6KM LOW ST NOSIG=
200608040100 METAR MROC 040100Z 00000KT 9999 SCT030 SCT100 22/21 A3001 NOSIG=
200608040200 METAR MROC 040200Z 00000KT 9999 FEW025 SCT120 21/20 A3003 NOSIG=
200608040300 METAR MROC 040300Z 00000KT 9999 FEW035 SCT120 22/20 A3004 NOSIG=
200608040400 METAR MROC 040400Z 07002KT 9999 FEW035 SCT120 20/19 A3004 NOSIG=
200608040500 METAR MROC 040500Z 07002KT 9999 FEW035 SCT250 20/19 A3003 NOSIG=
200608040600 METAR MROC 040600Z 03006KT CAVOK 20/18 A3001 NOSIG=
200608040700 METAR MROC 040700Z 02005KT CAVOK 20/18 A3000=
200608040800 METAR MROC 040800Z 31003KT CAVOK 20/17 A2999=
200608040900 METAR MROC 040900Z 05007KT CAVOK 20/17 A2998=
200608041000 METAR MROC 041000Z 03005KT CAVOK 20/17 A2997=
200608041100 METAR MROC 041100Z 02005KT CAVOK 19/17 A2997=
200608041200 METAR MROC 041200Z 06007KT 9999 FEW040 BKN250 20/17 A2998 NOSIG=
200608041300 METAR MROC 041300Z 11006KT 9999 FEW035 SCT250 23/18 A3000=
200608041400 METAR MROC 041400Z 10011KT 9999 FEW030 BKN280 25/19 A3001 NOSIG=
200608041500 METAR MROC 041500Z 11008KT 9999 FEW035 BKN280 27/19 A3000 NOSIG=
200608041600 METAR MROC 041600Z 08012KT 9999 FEW035 BKN280 28/18 A3001 NOSIG=
200608041700 METAR MROC 041700Z 07011KT 9999 BKN030 28/18 A3000 NOSIG=
200608041800 METAR MROC 041800Z 08009KT 9999 SCT030 BKN260 27/18 A2997 NOSIG=
200608041900 METAR MROC 041900Z 09008KT 9999 SCT030 BKN260 29/19 A2996 NOSIG=
200608042000 METAR MROC 042000Z 08007KT 9999 FEW020 SCT030 BKN260 29/18 A2993 NOSIG=
200608042100 METAR MROC 042100Z 24005KT 9999 FEW015 SCT035 SCT250 27/22 A2991 NOSIG=
200608042200 METAR MROC 042200Z 24009KT 9999 SCT030 BKN250 25/23 A2990 NOSIG=
200608042300 METAR MROC 042300Z 28003KT 9999 FEW015 BKN030 25/22 A2992 RMK DZ DST SW RN DST NE=
200608050000 METAR MROC 050000Z 09006KT 9999 FEW030 BKN250 24/19 A2992 NOSIG=
200608050100 METAR MROC 050100Z 11007KT 9999 FEW035 BKN250 23/19 A2992 NOSIG=
200608050200 METAR MROC 050200Z 08011KT 9999 FEW035 24/19 A2994 NOSIG=
200608050300 METAR MROC 050300Z 10011KT 9999 FEW035 SCT100 23/18 A2996 NOSIG=
200608050400 METAR MROC 050400Z 01005KT 9999 FEW040 23/18 A2996 NOSIG=
200608050500 METAR MROC 050500Z 00000KT CAVOK 22/17 A2995 NOSIG=
200608050600 METAR MROC 050600Z 09006KT CAVOK 22/16 A2994 NOSIG=
200608050700 METAR MROC NIL=
200608050800 METAR MROC 050800Z 10010KT CAVOK 22/17 A2992 NOSIG=
200608050900 METAR MROC 050900Z 08011KT CAVOK 22/18 A2992 NOSIG=
200608051000 METAR MROC 051000Z 09011KT CAVOK 22/18 A2990 NOSIG=
200608051100 METAR MROC 051100Z 08011KT CAVOK 22/17 A2990 NOSIG=
200608051200 METAR MROC 051200Z 10009KT CAVOK 22/18 A2992 NOSIG=
200608051300 METAR MROC 051300Z 11014KT CAVOK 23/18 A2994 RMK RN DST NE TCU DST SW=
200608051400 METAR MROC 051400Z 09012KT 9999 SCT040 BKN250 23/18 A2995 RMK DZ DST NE CB DST SSW=
200608051500 METAR MROC 051500Z 10015KT 9999 FEW035 SCT120 BKN250 26/18 A2995 RMK RN DST NE=
200608051600 METAR MROC 051600Z 08011KT 9999 FEW035 BKN250 26/18 A2996 NOSIG=
200608051700 METAR MROC 051700Z 08012KT 9999 FEW035 BKN250 28/18 A2995 NOSIG=
200608051800 METAR MROC 051800Z 09010KT 9999 FEW030 BKN250 28/18 A2993 RMK DZ DST NE=
200608051900 METAR MROC 051900Z 06005KT 9999 FEW030 BKN250 28/17 A2991 BECMG 25006KT=
200608052000 METAR MROC 052000Z 08007KT 9999 FEW030 BKN250 30/18 A2988 NOSIG=
200608052100 METAR MROC 052100Z 10011KT 9999 SCT030 SCT300 29/19 A2987 BECMG RMK=
200608052200 METAR MROC 052200Z 07013KT 9999 SCT035 SCT300 27/18 A2988 BECMG RMK CB/TCU DST S=
200608052300 METAR MROC 052300Z 09004KT 9999 VCFG FEW003 SCT035 BKN250 26/18 A2989 BECMG 24006KT RMK VIS SW 7KMS DUE LOW CLDS=
200608060000 METAR MROC 060000Z 24004KT 9999 FEW008 BKN250 24/22 A2991 BECMG RMK CB LINE DST SE S SW=
200608060100 METAR MROC 060100Z 00000KT 9999 FEW030 SCT250 23/21 A2992 NOSIG=
200608060200 METAR MROC 060200Z 05008KT CAVOK 22/18 A2992 NOSIG=
200608060300 METAR MROC 060300Z 09012KT CAVOK 23/18 A3002 NOSIG=
200608060400 METAR MROC 060400Z 09013KT CAVOK 23/18 A2992 NOSIG=
200608060500 METAR MROC 060500Z 09013KT CAVOK 23/17 A2992=
200608060600 METAR MROC 060600Z 10015KT CAVOK 22/18 A2992=
200608060700 METAR MROC 060700Z 09014KT CAVOK 23/17 A2991 RMK LTNG DST S/SW=
200608060800 METAR MROC 060800Z 10014KT CAVOK 23/17 A2991 NOSIG=
200608060900 METAR MROC 060900Z 09008KT CAVOK 22/17 A2991 NOSIG=
200608061000 METAR MROC 061000Z 11008KT CAVOK 21/17 A2991 NOSIG=
200608061100 METAR MROC 061100Z 03007KT CAVOK 20/16 A2992 NOSIG=
200608061200 METAR MROC 061200Z 05006KT CAVOK 20/16 A2993 RMK CB N NE NOSIG=
200608061300 METAR MROC 061300Z 08006KT CAVOK 22/17 A2995 BECMG RMK CB DST S/E=
200608061400 METAR MROC 061400Z 10012KT CAVOK 23/18 A2995 NOSIG=
200608061500 METAR MROC 061500Z 11012KT CAVOK 24/18 A2997 NOSIG=
200608061600 METAR MROC 061600Z 10008KT 9999 FEW035 SCT130 BKN250 24/19 A2997 REDZ NOSIG=
200608061700 METAR MROC 061700Z 11009KT 9999 FEW030 BKN250 26/19 A2997 NOSIG=
200608061800 METAR MROC 061800Z 09011KT 9999 FEW030 BKN250 27/19 A2995 NOSIG=
200608061900 METAR MROC 061900Z 09007KT 9999 FEW030 BKN250 28/18 A2994 NOSIG=
200608062000 METAR MROC 062000Z 11007KT 9999 FEW035 BKN250 27/19 A2991 NOSIG=
200608062100 METAR MROC 062100Z 08009KT 9999 FEW035 BKN250 28/18 A2989 NOSIG=
200608062200 METAR MROC 062200Z 07008KT 9999 FEW035 BKN250 28/19 A2990 NOSIG=
200608062300 METAR MROC 062300Z 12005KT 9999 FEW010TCU SCT040 BKN250 26/19 A2991 NOSIG=
200608070000 METAR MROC 070000Z 28005KT 9999 FEW003 SCT040 BKN250 ///// A//// RMK TCU DST SW=
200608070100 METAR MROC 070100Z 00000KT 9999 SCT040 BKN250 23/22 A2994 RERA=
200608070200 METAR MROC 070200Z 11009KT 9999 FEW040 SCT250 22/18 A2995 NOSIG=
200608070300 METAR MROC 070300Z 04008KT 9999 FEW035 SCT250 22/18 A2999 NOSIG=
200608070400 METAR MROC 070400Z 09010KT CAVOK 22/18 A2998 RMK LTNG DST SSW=
200608070500 METAR MROC 070500Z 10012KT CAVOK 22/18 A2997 NOSIG=
200608070600 METAR MROC 070600Z 10013KT CAVOK 22/18 A2996 NOSIG=
200608070700 METAR MROC 070700Z 11010KT CAVOK 22/18 A2993 NOSIG=
200608070800 METAR MROC 070800Z 11011KT CAVOK 21/17 A2992 RMK LTNG DST S NOSIG=
200608070900 METAR MROC 070900Z 10009KT CAVOK 22/17 A2990 RMK CB/LTNG DST S NOSIG=
200608071000 METAR MROC 071000Z 10010KT CAVOK 22/17 A2992 RMK LTNG DST S NOSIG=
200608071100 METAR MROC 071100Z 09007KT CAVOK 21/17 A2993 NOSIG=
200608071200 METAR MROC 071200Z 11011KT CAVOK 22/17 A2994 NOSIG=
200608071300 METAR MROC 071300Z 11012KT 9999 FEW030 BKN250 23/18 A2995 NOSIG=
200608071400 METAR MROC 071400Z 09011KT 9999 FEW030 BKN250 26/18 A2995 NOSIG=
200608071500 METAR MROC 071500Z 07013KT 9999 FEW030 BKN250 27/17 A2996 NOSIG=
200608071600 METAR MROC 071600Z 09013KT 9999 FEW030 SCT260 28/18 A2995 NOSIG=
200608071700 METAR MROC 071700Z 08012KT 9999 SCT030 SCT260 28/18 A2996 NOSIG=
200608071800 METAR MROC 071800Z 09013KT 9999 BKN030 29/18 A2994 NOSIG=
200608071900 METAR MROC 071900Z 09009KT 9999 SCT030 BKN250 29/18 A2992 NOSIG=
200608072000 METAR MROC 072000Z 09012KT 9999 SCT020TCU SCT200 30/18 A2990=
200608072100 METAR MROC 072100Z 09008KT 9000 FEW015 SCT045 SCT150 23/19 A2989 RERA=
200608072200 METAR MROC 072200Z 09006KT 9999 SCT040 SCT180 24/19 A2990=
200608072300 METAR MROC 072300Z 00000KT 9999 FEW020 SCT070 SCT200 23/20 A2991=
200608080000 METAR MROC 080000Z 11007KT 9000 SCT015 SCT170 23/18 A2993=
200608080100 METAR MROC 080100Z 09006KT 9999 FEW025 SCT120 23/18 A2997 RMK LTNG DST S=
200608080200 METAR MROC 080200Z 08003KT CAVOK 23/18 A2997=
200608080300 METAR MROC 080300Z 26003KT 9999 SCT030 BKN120 22/19 A2999 BECMG RMK OCNL=
200608080400 METAR MROC 080400Z 30002KT 9999 FEW030 OVC140 22/19 A3001 NOSIG=
200608080500 METAR MROC 080500Z 11002KT 9999 FEW035 SCT140 BKN250 21/20 A2999 NOSIG=
200608080600 METAR MROC 080600Z 02003KT CAVOK 21/19 A2996=
200608080700 METAR MROC 080700Z 08009KT CAVOK 22/18 A2994 NOSIG=
200608080800 METAR MROC 080800Z 10011KT CAVOK 22/18 A2990 NOSIG=
200608080900 METAR MROC 080900Z 10015KT CAVOK 22/17 A2989 NOSIG=
200608081000 METAR MROC 081000Z 10011KT CAVOK 21/17 A2989 NOSIG=
200608081100 METAR MROC 081100Z 10012KT CAVOK 22/17 A2988 NOSIG=
200608081200 METAR MROC 081200Z 10014KT 9999 FEW025 SCT250 22/17 A2988 NOSIG=
200608081300 METAR MROC 081300Z 10015KT CAVOK 23/17 A2992=
200608081400 METAR MROC 081400Z 09016KT CAVOK 25/17 A2993=
200608081500 METAR MROC 081500Z 10016KT CAVOK 26/18 A2994=
200608081600 METAR MROC 081600Z 09013KT CAVOK 27/18 A2995=
200608081700 METAR MROC 081700Z 07012KT 9999 FEW030 SCT120 25/17 A2995=
200608081800 METAR MROC 081800Z 09012KT 9999 FEW030 SCT150 26/15 A2994=
200608081900 METAR MROC 081900Z 08009KT 9999 FEW030 BKN120 26/16 A2996=
200608082000 METAR MROC 082000Z 08006KT 9999 SCT030 BKN120 28/16 A2993 RMK CB DST S=
200608082100 METAR MROC 082100Z 09005KT 9999 FEW030 BKN130 28/16 A2991 NOSIG=
200608082200 METAR MROC 082200Z 11005KT 9999 FEW030 BKN120 27/17 A2990 NOSIG=
200608082300 METAR MROC 082300Z 11005KT 9999 FEW030 BKN120 25/17 A2992 NOSIG=
200608090000 METAR MROC 090000Z 15003KT CAVOK 23/17 A2993 NOSIG=
200608090100 METAR MROC 090100Z 13005KT CAVOK 22/18 A2996 NOSIG=
200608090200 METAR MROC 090200Z 10003KT CAVOK 22/19 A2997 NOSIG=
200608090300 METAR MROC 090300Z 07004KT CAVOK 21/19 A2999 NOSIG=
200608090400 METAR MROC 090400Z 07006KT CAVOK 21/18 A3000 NOSIG=
200608090500 METAR MROC 090500Z 07006KT CAVOK 21/17 A2999 NOSIG=
200608090600 METAR MROC 090600Z 07007KT CAVOK 21/17 A2997 NOSIG=
200608090700 METAR MROC 090700Z 08006KT CAVOK 22/17 A2995 NOSIG=
200608090800 METAR MROC 090800Z 08011KT CAVOK 22/16 A2993=
200608090900 METAR MROC 090900Z 10010KT CAVOK 22/16 A2993 NOSIG=
200608091000 METAR MROC 091000Z 05005KT CAVOK 22/16 A2992 NOSIG=
200608091100 METAR MROC 091100Z 06009KT CAVOK 21/16 A2993 NOSIG=
200608091200 METAR MROC 091200Z 08004KT CAVOK 21/17 A2992 RMK RN N=
200608091300 METAR MROC 091300Z 10011KT 9999 FEW030 BKN100 23/17 A2994 NOSIG=
200608091400 METAR MROC 091400Z 10011KT 9999 FEW040 BKN100 25/17 A2996 NOSIG=
200608091500 METAR MROC 091500Z 10011KT 9999 FEW035 BKN100 26/17 A2996 NOSIG=
200608091600 METAR MROC 091600Z 10012KT 9999 FEW040 BKN120 28/18 A2997 NOSIG=
200608091700 METAR MROC 091700Z 11010KT 9999 BKN035 SCT120 26/18 A2998 RMK DZ NE NOSIG=
200608091800 METAR MROC 091800Z 09009KT 9999 BKN035 SCT120 26/18 A2997 RMK RN N NOSIG=
200608091900 METAR MROC 091900Z 11009KT 9999 -RA BKN035 SCT100 24/18 A2995 NOSIG=
200608092000 METAR MROC 092000Z 12004KT 9999 SCT030 SCT120 24/20 A2993 NOSIG=
200608092100 METAR MROC 092100Z 30005KT 9999 4000SW -RA BR FEW003 OVC090 24/21 A2991 NOSIG=
200608092200 METAR MROC 092200Z 22004KT 9999 FEW003 SCT040 SCT120 24/21 A2991 RMK 7000SW VCFG=
200608092300 METAR MROC 092300Z 26005KT 9999 FEW003 SCT120 BKN250 22/21 A2992 RMK 7000SW VCFG=
200608100000 METAR MROC 100000Z 00000KT 9999 FEW005 SCT100 BKN250 22/20 A2993 RMK 7000SW VCFG=
200608100100 METAR MROC 100100Z 00000KT 9999 FEW010 SCT120 BKN250 21/20 A2995 NOSIG=
200608100200 METAR MROC 100200Z 08005KT CAVOK 21/19 A2995 NOSIG=
200608100300 METAR MROC 100300Z 10008KT CAVOK 22/18 A2995=
200608100400 METAR MROC 100400Z 05006KT CAVOK 22/18 A2995=
200608100500 METAR MROC 100500Z 07006KT CAVOK 21/18 A2994=
200608100600 METAR MROC NIL=
200608100700 METAR MROC 100700Z 08005KT CAVOK 22/18 A2994=
200608100800 METAR MROC NIL=
200608100900 METAR MROC 100900Z 08005KT CAVOK 21/17 A2992=
200608101000 METAR MROC 101000Z 05007KT CAVOK 20/17 A2992 NOSIG=
200608101100 METAR MROC 101100Z 05008KT CAVOK 20/17 A2992 NOSIG=
200608101200 METAR MROC 101200Z 08003KT CAVOK 20/17 A2993=
200608101300 METAR MROC 101300Z 06006KT CAVOK 23/18 A2996 NOSIG=
200608101400 METAR MROC 101400Z 10011KT CAVOK 24/18 A2994 NOSIG=
200608101500 METAR MROC 101500Z 11010KT CAVOK 26/18 A2994 NOSIG=
200608101600 METAR MROC 101600Z 10011KT CAVOK 28/18 A2994 NOSIG=
200608101700 METAR MROC 101700Z 12013KT 9999 FEW030 BKN250 29/18 A2993 NOSIG=
200608101800 METAR MROC 101800Z 14004KT 9999 SCT030 BKN250 29/18 A2991 BECMG 26006KT=
200608101900 METAR MROC 101900Z 23009KT 9999 FEW015TCU SCT030 BKN250 27/21 A2989 NOSIG=
200608102000 METAR MROC 102000Z 21012KT 9999 FEW015CB SCT025 SCT250 28/21 A2987 RMK 8000NE VCSH BECMG 7000 -TSRA=
200608102100 METAR MROC 102100Z 35009KT 2000 TSRA SCT015CB SCT025TCU 21/18 A2990 BECMG 5000 RMK VIS E UNLTD ACUMULACION DE AGUA EN LA PISTA=
200608102200 METAR MROC 102200Z 27004KT 7000 VCSH FEW003 BKN100 21/20 A2988 BECMG RMK VIS S UNLTD RETS=
200608102300 METAR MROC 102300Z 19002KT 9999 FEW020 SCT100 BKN250 22/21 A2989 NOSIG=
200608110000 METAR MROC 110000Z 00000KT 9999 FEW025 SCT100 BKN250 22/21 A2991 BECMG RMK RN DST ENE SE=
200608110100 METAR MROC 110100Z 01003KT 9999 FEW030 SCT120 BKN250 22/20 A2993 NOSIG=
200608110200 METAR MROC 110200Z 06004KT 9999 -DZ SCT020 BKN120 21/19 A2995 RERA NOSIG=
200608110300 METAR MROC 110300Z 06005KT 9999 FEW030 BKN120 21/18 A2996 RMK LTNG DST SW W NOSIG=
200608110400 METAR MROC 110400Z 02006KT CAVOK 21/19 A2997 NOSIG=
200608110500 METAR MROC 110500Z 08005KT CAVOK 21/18 A2996=
200608110600 METAR MROC 110600Z 06006KT CAVOK 20/19 A2994=
200608110700 METAR MROC 110700Z 05005KT CAVOK 21/18 A2992=
200608110800 METAR MROC 110800Z 10004KT CAVOK 20/18 A2991=
200608110900 METAR MROC 110900Z 06005KT CAVOK 21/18 A2990 NOSIG=
200608111000 METAR MROC 111000Z 04005KT CAVOK 20/18 A2989 RMK LTNG DST S NOSIG=
200608111100 METAR MROC 111100Z 06004KT 9999 FEW020 BKN260 21/18 A2989 NOSIG=
200608111200 METAR MROC 111200Z 10010KT CAVOK 21/18 A2990 RMK FEW100 BKN260 RMK CB DST NE SW NOSIG=
200608111300 METAR MROC 111300Z 09007KT CAVOK 22/18 A2993 BECMG RMK FEW140 BKN250=
200608111400 METAR MROC 111400Z 10002KT 9999 FEW030 BKN250 25/20 A2994 NOSIG=
200608111500 METAR MROC 111500Z 11006KT CAVOK 26/20 A2993 NOSIG=
200608111600 METAR MROC 111600Z 15002KT 9999 FEW040 SCT140 BKN250 28/19 A2994 BECMG 24007KT=
200608111700 METAR MROC 111700Z 25009KT 9999 SCT040 BKN250 26/21 A2994 NOSIG=
200608111800 METAR MROC 111800Z 23006KT 9999 FEW040 BKN250 27/21 A2991 NOSIG=
200608111900 METAR MROC 111900Z 11004KT 9999 FEW040 BKN250 29/19 A2988 NOSIG=
200608112000 METAR MROC 112000Z 11006KT 9999 FEW040 BKN250 29/18 A2986 NOSIG=
200608112100 METAR MROC 112100Z 24008KT 9999 SCT040 BKN250 28/22 A2983 NOSIG=
200608112200 METAR MROC 112200Z 23009KT 9999 FEW008 SCT035 BKN250 24/23 A2984 NOSIG=
200608112300 METAR MROC 112300Z 30003KT 9999 4000SW VCFG FEW002 BKN025 23/20 A2989 NOSIG=
200608120000 METAR MROC 120000Z 31003KT 9999 4000SW VCFG FEW001 FEW010TCU BKN030 21/20 A2991 NOSIG=
200608120100 METAR MROC 120100Z 00000KT 9999 SCT030 SCT100 21/20 A2993 NOSIG=
200608120200 METAR MROC 120200Z 02005KT 9999 FEW030 SCT100 22/20 A2995 NOSIG=
200608120300 METAR MROC NIL=
200608120400 METAR MROC 120400Z 06004KT CAVOK 22/19 A2997 RMK LTNG DST SW=
200608120500 METAR MROC 120500Z 03004KT CAVOK 22/19 A2996 NOSIG=
200608120600 METAR MROC 120600Z 04004KT CAVOK 21/18 A2995 NOSIG=
200608120700 METAR MROC 120700Z 05002KT CAVOK 22/18 A2993 NOSIG=
200608120800 METAR MROC 120800Z 07003KT CAVOK 20/18 A2990 NOSIG=
200608120900 METAR MROC 120900Z 30004KT CAVOK 19/18 A2990 NOSIG=
200608121000 METAR MROC 121000Z 34004KT 9999 FEW020 BKN120 20/19 A2992 NOSIG=
200608121100 METAR MROC 121100Z 06002KT CAVOK 19/18 A2992 NOSIG=
200608121200 METAR MROC 121200Z 02004KT CAVOK 20/18 A2992 NOSIG=
200608121300 METAR MROC 121300Z 00000KT 9999 FEW035 SCT120 BKN250 21/19 A2993 NOSIG=
200608121400 METAR MROC 121400Z 08002KT 9999 FEW035 BKN250 23/20 A2994 NOSIG=
200608121500 METAR MROC 121500Z 00000KT 9999 FEW035 BKN250 25/19 A2993 NOSIG=
200608121600 METAR MROC 121600Z 12003KT 9999 FEW035 BKN250 27/19 A2992 NOSIG=
200608121700 METAR MROC 121700Z 10009KT 9999 FEW035 BKN250 28/19 A2990 NOSIG=
200608121800 METAR MROC 121800Z 10004KT 9999 FEW035 SCT120 BKN250 30/19 A2990 NOSIG=
200608121900 METAR MROC 121900Z 00000KT 9999 SCT030 BKN250 30/17 A2987 NOSIG=
200608122000 METAR MROC 122000Z 24010KT 9999 FEW008 SCT030 BKN250 27/22 A2984 NOSIG=
200608122100 METAR MROC 122100Z 20010KT 9000 FEW010TCU SCT025 SCT200 24/20 A2984=
200608122200 METAR MROC 122200Z 29011KT 8000 VCSH FEW010TCU SCT025 SCT150 22/20 A2988=
200608122300 METAR MROC 122300Z 25006KT 8000 -DZ BR SCT008 SCT015 23/20 A2988=
200608130000 METAR MROC 130000Z 00000KT 8000 VCFG SCT008 SCT030 22/20 A2991=
200608130100 METAR MROC 130100Z 35003KT 9999 SCT030 22/20 A2993=
200608130200 METAR MROC 130200Z 03003KT 9999 FEW040 22/20 A2992=
200608130300 METAR MROC 130300Z 00000KT 9999 FEW035 BKN250 22/20 A2995 NOSIG=
200608130400 METAR MROC 130400Z 00000KT CAVOK 21/20 A2995 NOSIG=
200608130500 METAR MROC 130500Z 06006KT CAVOK 22/19 A2995 NOSIG=
200608130600 METAR MROC 130600Z 33002KT 9999 FEW025 BKN100 20/18 A2993 NOSIG=
200608130700 METAR MROC 130700Z 32005KT CAVOK 21/20 A2992 NOSIG=
200608130800 METAR MROC 130800Z 31003KT CAVOK 21/20 A2992 NOSIG=
200608130900 METAR MROC 130900Z 00000KT CAVOK 20/19 A2991 NOSIG=
200608131000 METAR MROC 131000Z 00000KT CAVOK 20/19 A2991 NOSIG=
200608131100 METAR MROC 131100Z 02005KT CAVOK 21/19 A2992 NOSIG=
200608131200 METAR MROC 131200Z 33002KT 9999 FEW025 BKN100 20/18 A2993 NOSIG=
200608131300 METAR MROC 131300Z 11007KT CAVOK 24/19 A2995 NOSIG=
200608131400 METAR MROC 131400Z 09007KT 9999 FEW040 BKN120 25/19 A2996 NOSIG=
200608131500 METAR MROC 131500Z 09009KT 9999 FEW040 SCT250 28/19 A2996 BECMG 24006KT=
200608131600 METAR MROC 131600Z 06011KT 9999 FEW035 SCT250 29/28 A2995=
200608131700 METAR MROC 131700Z 11008KT 9999 SCT035 BKN250 30/18 A2995 BECMG 25010KT=
200608131750 METAR MROC 131750Z 28006KT 9999 SCT035 BKN250 28/22 A2994 NOSIG=
200608131800 METAR MROC 131800Z 24008KT 9999 SCT035 BKN250 27/22 A2994 NOSIG=
200608131900 METAR MROC 131900Z 31005KT 9999 FEW020TCU SCT030 SCT250 28/21 A2992 NOSIG=
200608132000 METAR MROC 132000Z 21007KT 9999 SCT015TCU SCT030 28/21 A2991 NOSIG=
200608132100 METAR MROC 132100Z 23014KT 9999 SCT007 SCT030 24/22 A2989 RMK VN NOSIG=
200608132200 METAR MROC 132200Z 26005KT 9999 FEW025 SCT140 BKN250 24/21 A2991 RMK VSBY N NE 6KM LOW ST NOSIG=
200608132300 METAR MROC 132300Z 00000KT 9999 FEW020 OVC250 24/22 A2991 NOSIG=
200608140000 METAR MROC 140000Z 34002KT CAVOK 24/18 A2992 NOSIG=
200608140100 METAR MROC 140100Z 10009KT CAVOK 23/18 A2994 NOSIG=
200608140200 METAR MROC 140200Z 10010KT CAVOK 23/18 A2995 NOSIG=
200608140300 METAR MROC 140300Z 11011KT CAVOK 23/18 A2997 NOSIG=
200608140400 METAR MROC 140400Z 11004KT CAVOK 23/18 A2997 NOSIG=
200608140500 METAR MROC 140500Z 12009KT CAVOK 23/19 A2997 NOSIG=
200608140600 METAR MROC 140600Z 08010KT CAVOK 23/19 A2995 NOSIG=
200608140700 METAR MROC 140700Z 09013KT CAVOK 23/18 A2994 NOSIG=
200608140800 METAR MROC 140800Z 10013KT CAVOK 23/19 A2993=
200608140900 METAR MROC 140900Z 10012KT CAVOK 23/18 A2992=
200608141000 METAR MROC 141000Z 09011KT CAVOK 23/18 A2992 NOSIG=
200608141100 METAR MROC 141100Z 11011KT CAVOK 23/18 A2992 NOSIG=
200608141200 METAR MROC 141200Z 10007KT 9999 FEW035 BKN250 22/18 A2993 RMK CB DST S=
200608141300 METAR MROC 141300Z 11007KT 9999 FEW035 SCT120 24/19 A2994 RMK CB DST S NOSIG=
200608141400 METAR MROC 141400Z 10011KT CAVOK 25/19 A2995 RMK BKN280 CB DST S NOSIG=
200608141500 METAR MROC 141500Z 10012KT 9999 FEW025 BKN280 26/19 A2997 RMK CB DST S NOSIG=
200608141600 METAR MROC 141600Z 10013KT 9999 FEW025 BKN280 27/19 A2998 NOSIG=
200608141700 METAR MROC 141700Z 10010KT 9999 FEW025 OVC250 27/18 A2996=
200608141800 METAR MROC 141800Z 10010KT 9999 FEW025 SCT120 BKN250 27/19 A2992 NOSIG=
200608141900 METAR MROC 141900Z 10014KT 9999 FEW025 SCT080 BKN250 27/19 A2991 NOSIG=
200608142000 METAR MROC 142000Z 08009KT 9999 FEW025 OVC250 27/19 A2991=
200608142100 METAR MROC 142100Z 07012KT 9999 SCT025 BKN220 27/19 A2990=
200608142200 METAR MROC 142200Z 09012KT 9999 FEW025 OVC250 26/18 A2989=
200608142300 METAR MROC 142300Z 10012KT 9999 FEW025 BKN250 25/18 A2990=
200608150000 METAR MROC 150000Z 10010KT 9999 FEW020 SCT070 BKN220 25/18 A2994=
200608150100 METAR MROC 150100Z 09012KT CAVOK 24/19 A2992=
200608150200 METAR MROC 150200Z 09015KT CAVOK 23/19 A2991=
200608150300 METAR MROC 150300Z 10015KT CAVOK 23/19 A2994=
200608150400 METAR MROC 150400Z 11003KT CAVOK 22/19 A2996=
200608150500 METAR MROC 150500Z 09009KT CAVOK 23/19 A2996 RMK LTNG DST S/E=
200608150600 METAR MROC 150600Z 10010KT CAVOK 23/19 A2995 RMK LTNG DST S/SW=
200608150700 METAR MROC NIL=
200608150800 METAR MROC 150800Z 10013KT CAVOK 23/19 A2994 RMK LTNG DST S SW=
200608150900 METAR MROC 150900Z 10011KT CAVOK 22/18 A2993=
200608151000 METAR MROC 151000Z 09013KT CAVOK 22/18 A2988 NOSIG=
200608151100 METAR MROC 151100Z 10015KT CAVOK 22/18 A2994=
200608151200 METAR MROC 151200Z 09006KT 9999 FEW015 SCT250 22/18 A2993=
200608151300 METAR MROC 151300Z 10009KT 9999 FEW030 SCT250 24/18 A2994 NOSIG=
200608151400 METAR MROC 151400Z 10009KT 9999 FEW030 BKN250 26/18 A2997 NOSIG=
200608151500 METAR MROC 151500Z 07012KT 9999 FEW030 BKN250 27/17 A2998 RMK DZ DST NE=
200608151600 METAR MROC 151600Z 10011KT 9999 SCT030 BKN250 27/18 A2999 NOSIG=
200608151700 METAR MROC 151700Z 11014KT 9999 SCT025 BKN250 26/19 A2998 RMK DZ DST NE=
200608151800 METAR MROC 151800Z 09010KT CAVOK 26/19 A2999 NOSIG=
200608151900 METAR MROC 151900Z 04003KT 9999 FEW040 BKN250 27/18 A2995 NOSIG=
200608152000 METAR MROC 152000Z 06011KT 9999 FEW030 BKN250 27/17 A2995 NOSIG=
200608152100 METAR MROC 152100Z 08007KT 9999 FEW030 BKN250 26/18 A2993 BECMG RMK CB DIST SW=
200608152200 METAR MROC 152200Z 11005KT 9999 FEW030 SCT140 BKN250 26/18 A2993 NOSIG=
200608152300 METAR MROC 152300Z 08009KT 9999 FEW030 SCT140 BKN250 26/18 A2994 NOSIG=
200608160000 METAR MROC 160000Z 11014KT 9999 FEW030 SCT140 BKN250 24/18 A2995 BECMG RMK CB LTNG DST S=
200608160100 METAR MROC 160100Z 10009KT 9999 FEW030 BKN130 23/19 A2997 BECMG RMK=
200608160200 METAR MROC 160200Z 10006KT CAVOK 23/18 A2998 BECMG RMK LTNG DIST SW=
200608160300 METAR MROC 160300Z 09009KT CAVOK 23/18 A2997 NOSIG=
200608160400 METAR MROC 160400Z 10008KT CAVOK 23/18 A2998 RMK LTNG DST S SW NOSIG=
200608160500 METAR MROC 160500Z 08009KT CAVOK 23/18 A3001=
200608160600 METAR MROC NIL=
200608160800 METAR MROC 160800Z 03004KT 9999 -RA SCT030 BKN120 22/19 A2992 RMK TS DST N NOSIG=
200608160900 METAR MROC 160900Z 06007KT 9999 -RA SCT030 BKN120 22/19 A2992 RMK LTNG DST S NOSIG=
200608161000 METAR MROC 161000Z 08006KT 9999 -RA FEW030 BKN100 21/18 A2990 NOSIG=
200608161100 METAR MROC 161100Z 06010KT 9999 -RA FEW030 BKN100 21/18 A2989 NOSIG=
200608161200 METAR MROC 161200Z 08006KT CAVOK 21/17 A2992 RMK FEW090 BKN280 NOSIG=
200608161300 METAR MROC 161300Z 09007KT CAVOK 22/17 A2996 NOSIG=
200608161400 METAR MROC 161400Z 10007KT CAVOK 23/18 A2998 NOSIG=
200608161500 METAR MROC 161500Z VRB03KT CAVOK 26/18 A2997 BECMG 24006KT RMK CB DST S=
200608161600 METAR MROC 161600Z 14005KT CAVOK 27/17 A2998 NOSIG=
200608161700 METAR MROC 161700Z 11010KT 9999 FEW040 SCT140 BKN250 28/17 A2998 NOSIG=
200608161800 METAR MROC 161800Z 08010KT 9999 FEW040 SCT130 BKN250 26/17 A2997 NOSIG=
200608161900 METAR MROC 161900Z 11011KT 9999 FEW035 BKN120 25/17 A2996 BECMG RMK PCPN DST ENE=
200608162000 METAR MROC 162000Z 10012KT 9999 FEW035 BKN120 23/18 A2994 BECMG RMK PCPN DST ESE=
200608162100 METAR MROC 162100Z 11012KT 9999 -RA FEW030 BKN120 22/18 A2995 NOSIG=
200608162200 METAR MROC 162200Z 11014KT 9999 FEW030 SCT100 BKN250 23/18 A2993 RERA=
200608162300 METAR MROC 162300Z 11013KT 9999 -RA FEW030 SCT100 BKN250 22/17 A2995 NOSIG=
200608170000 METAR MROC 170000Z 09005KT 9999 FEW030 OVC130 27/21 A2984 RMK RN DST N NE E=
200608170100 METAR MROC 170100Z 09006KT CAVOK 21/16 A2998 NOSIG=
200608170200 METAR MROC 170200Z 10010KT CAVOK 22/16 A2997 NOSIG=
200608170300 METAR MROC 170300Z 10012KT CAVOK 23/15 A2999 NOSIG=
200608170400 METAR MROC 170400Z 05007KT CAVOK 22/16 A2997 NOSIG=
200608170500 METAR MROC 170500Z 03006KT CAVOK 22/16 A2996 NOSIG=
200608170600 METAR MROC 170600Z 07007KT CAVOK 22/16 A2995 NOSIG=
200608170700 METAR MROC 170700Z 10004KT CAVOK 22/16 A2995 NOSIG=
200608170800 METAR MROC 170800Z 11006KT 9999 FEW030 BKN120 22/16 A2993 RMK CB/LTNG DST S NOSIG=
200608170900 METAR MROC 170900Z 10005KT CAVOK 22/16 A2994 NOSIG=
200608171000 METAR MROC 171000Z 27004KT CAVOK 20/17 A2993 NOSIG=
200608171100 METAR MROC 171100Z 33003KT CAVOK 20/17 A2995 NOSIG=
200608171200 METAR MROC 171200Z 09002KT CAVOK 19/17 A2997 NOSIG=
200608171300 METAR MROC 171300Z 03006KT CAVOK 21/17 A2998 NOSIG=
200608171400 METAR MROC 171400Z 09004KT 9999 FEW030 BKN120 24/19 A2998 NOSIG=
200608171500 METAR MROC 171500Z 12004KT 9999 FEW030 SCT120 BKN250 26/19 A2998 NOSIG=
200608171600 METAR MROC 171600Z 11007KT 9999 FEW030 SCT120 BKN250 28/19 A2999 NOSIG=
200608171700 METAR MROC 171700Z 15005KT 9999 SCT030 BKN250 27/18 A2999 NOSIG=
200608171800 METAR MROC 171800Z 25012KT 9999 FEW015TCU BKN030 27/21 A2997 NOSIG=
200608171900 METAR MROC 171900Z 22009KT 9999 -RA FEW010TCU BKN030 25/21 A2994 NOSIG=
200608172000 METAR MROC 172000Z 22009KT 6000 RA SCT002 BKN030 22/21 A2993 NOSIG=
200608172100 METAR MROC 172100Z 23007KT 3000 BR SCT002 BKN020 21/20 A2993=
200608172200 METAR MROC 172200Z 17003KT 6000 -TS RABR FEW004 SCT015 OVC100 21/20 A2993 RMK TS DST S=
200608172300 METAR MROC 172300Z VRB03KT 6000 -RA BR FEW005 SCT020 BKN100 21/20 A2994 NOSIG=
200608180000 METAR MROC 180000Z VRB03KT 6000 VCFG FEW005 SCT020 OVC100 21/20 A2997 NOSIG=
200608180100 METAR MROC 180100Z 05006KT 9999 SCT025 OVC100 22/20 A2999 NOSIG=
200608180200 METAR MROC 190200Z 06010KT 9999 SCT025 BKN100 21/19 A3000 NOSIG=
200608180300 METAR MROC 180300Z 10009KT CAVOK 22/18 A3001 BECMG RMK LTNG DIST NE/S=
200608180400 METAR MROC 180400Z 11003KT CAVOK 22/18 A3001 BECMG RMK LTNG DST S=
200608180500 METAR MROC 180500Z 24003KT CAVOK 21/19 A3002 NOSIG=
200608180600 METAR MROC 180600Z 30003KT CAVOK 20/19 A2998 NOSIG=
200608180700 METAR MROC 180700Z 08003KT CAVOK 20/18 A2997 NOSIG=
200608180800 METAR MROC 180800Z 08006KT CAVOK 21/18 A2994 NOSIG=
200608180900 METAR MROC 180900Z 05006KT CAVOK 21/17 A2992 NOSIG=
200608181000 METAR MROC 101000Z 10011KT CAVOK 22/17 A2991 NOSIG=
200608181100 METAR MROC 181100Z 10010KT CAVOK 21/17 A2991 NOSIG=
200608181200 METAR MROC 181200Z 09010KT CAVOK 22/17 A2992 NOSIG=
200608181300 METAR MROC 181300Z 11008KT CAVOK 23/18 A2994 NOSIG=
200608181400 METAR MROC NIL=
200608181500 METAR MROC 181500Z 27003KT CAVOK 25/19 A2998 BECMG RMK TCU DST SW=
200608181600 METAR MROC 181600Z 24007KT 9999 FEW030 SCT250 26/20 A2997 NOSIG=
200608181700 METAR MROC 181700Z 21006KT 9999 SCT030 SCT130 27/21 A2997 NOSIG=
200608181800 METAR MROC 181800Z 21004KT 9999 SCT030 SCT120 27/20 A2995 NOSIG=
200608181900 METAR MROC 181900Z 21007KT 9999 SCT030 SCT120 27/21 A2992 BECMG RMK RN DST W=
200608182100 METAR MROC 182100Z 25006KT 6000 VCSH SCT010 FEW015CB SCT030 21/20 A2993 RMK RN NW NOSIG=
200608182200 METAR MROC 182200Z 31005KT 9999 FEW010 SCT025 BKN280 22/20 A2992 NOSIG=
200608182300 METAR MROC 182300Z 26005KT 9999 SCT012 SCT080 22/20 A2993 RMK VSBY N 7KM NOSIG=
200608190000 METAR MROC 190000Z 29004KT 9999 FEW010 BKN030 21/20 A2995 NOSIG=
200608190100 METAR MROC 190100Z 00000KT 9999 FEW025 SCT120 BKN280 21/20 A2998 NOSIG=
200608190200 METAR MROC 190200Z 00000KT 9999 -RA FEW025 BKN100 21/20 A2999 NOSIG=
200608190300 METAR MROC 190300Z 00000KT 9999 FEW025 BKN100 20/20 A3000 NOSIG=
200608190400 METAR MROC 190400Z 00000KT 9999 FEW040 BKN100 20/20 A3000=
200608190500 METAR MROC 190500Z 00000KT 9999 FEW040 BKN100 20/19 A2999 NOSIG=
200608190600 METAR MROC 190600Z 01002KT 9999 FEW030 BKN100 20/19 A2998 NOSIG=
200608190700 METAR MROC 190700Z 05002KT 9999 FEW035 BKN110 19/19 A2996 NOSIG=
200608190800 METAR MROC 190800Z 05005KT CAVOK 18/18 A2995 NOSIG=
200608190900 METAR MROC 190900Z 08003KT CAVOK 18/17 A2992 NOSIG=
200608191000 METAR MROC 191000Z 03005KT CAVOK 18/17 A2993 NOSIG=
200608191100 METAR MROC 191100Z 05008KT CAVOK 19/17 A2992 NOSIG=
200608191200 METAR MROC 191200Z 08004KT CAVOK 20/17 A2992 NOSIG=
200608191300 METAR MROC 191300Z 01005KT CAVOK 23/19 A2995 NOSIG=
200608191400 METAR MROC 191400Z 10012KT CAVOK 24/19 A2995 NOSIG=
200608191500 METAR MROC 191500Z 10012KT 9999 FEW025 BKN280 26/19 A2995 NOSIG=
200608191600 METAR MROC 191600Z 11011KT 9999 FEW035 SCT280 28/19 A2995 NOSIG=
200608191700 METAR MROC 191700Z 23011KT 9999 SCT025 SCT280 26/21 A2994 RMK CB DST S NOSIG=
200608191800 METAR MROC 191800Z 23012KT 9999 4000N VCSH SCT012CB FEW025 27/21 A2993 BECMG 4000 TSRA=
200608191900 METAR MROC 191900Z 28006KT 9999 -RA FEW015 BKN030 24/22 A2991 NOSIG=
200608192000 METAR MROC 192000Z 22005KT 9999 RA FEW015 BKN030 22/21 A2991 RMK VSBY SW W 6KM DUE RN NOSIG=
200608192100 METAR MROC 192100Z 25008KT 9999 DZ SCT008 BKN025 22/21 A2991 RMK 7000SW=
200608192200 METAR MROC 192200Z 25006KT 7000 3000SW RA BR SCT003 BKN015 21/20 A2991 BECMG 4000 RMK RN BR=
200608192300 METAR MROC 192300Z 00000KT 5000 RA BR FEW003 SCT012 BKN090 21/20 A2994 NOSIG=
200608200000 METAR MROC 200000Z 30002KT 9999 FEW006 SCT030 BKN120 21/20 A2995 RMK 7000SW VCFG=
200608200100 METAR MROC 200100Z 00000KT 9999 FEW010 BKN250 21/20 A2996 NOSIG=
200608200200 METAR MROC 200200Z 07003KT 9999 -DZ BKN100 SCT250 20/20 A2996 NOSIG=
200608200300 METAR MROC 200300Z 06003KT CAVOK 21/20 A2997=
200608200400 METAR MROC 200400Z 25003KT CAVOK 20/20 A2999 RMK BR ARND=
200608200500 METAR MROC 200500Z 00000KT 0800 FG SCT001 20/20 A3000=
200608200600 METAR MROC 200600Z 01003KT 8000 VCFG FEW025 SCT150 20/20 A2997=
200608200700 METAR MROC 200700Z 06004KT 9999 FEW025 SCT120 19/18 A2995=
200608200800 METAR MROC 200800Z 06007KT CAVOK 19/17 A2994=
200608200900 METAR MROC 200900Z 07004KT CAVOK 18/17 A2993=
200608201000 METAR MROC 201000Z 06004KT CAVOK 18/17 A2993 NOSIG=
200608201100 METAR MROC 201100Z 03003KT CAVOK 18/17 A2994 NOSIG=
200608201200 METAR MROC 201200Z 07004KT CAVOK 18/17 A2995=
200608201300 METAR MROC 201300Z 09002KT CAVOK 20/18 A2997 NOSIG=
200608201400 METAR MROC 201400Z 00000KT CAVOK 24/19 A2999 BECMG 24006KT=
200608201500 METAR MROC 201500Z 29004KT 9999 FEW030 SCT120 BKN250 26/19 A2999 NOSIG=
200608201600 METAR MROC 201600Z 24006KT 9999 FEW030 BKN250 25/20 A2999 NOSIG=
200608201700 METAR MROC 201700Z 00000KT 9999 FEW030 SCT130 BKN250 26/20 A2998 NOSIG=
200608201800 METAR MROC 201800Z 27008KT 9999 SCT030 BKN250 26/20 A2997 NOSIG=
200608201900 METAR MROC 201900Z 26008KT 9999 FEW015TCU SCT025 BKN250 26/20 A2994 NOSIG=
200608202000 METAR MROC 202000Z 23008KT 9999 4000SW VCSH SCT012CB SCT025 BKN250 25/21 A2992 BECMG 5000 TSRA=
200608202100 METAR MROC 202100Z 24013KT 9999 FEW010 SCT025TCU BKN130 24/21 A2991 BECMG 5000 RMK VCSH RASH DST E QUAD=
200608202200 METAR MROC 202200Z 24012KT 9999 FEW008 SCT018TCU BKN100 22/20 A2992 BECMG 2000 TSRA RMK RASH DST E SE=
200608202300 METAR MROC 202300Z 26006KT 7000 -RA FEW005 SCT020 BKN100 21/20 A2994 NOSIG=
200608210000 METAR MROC 210000Z 00000KT 7000 -RA VCFG FEW004 SCT020 BKN120 21/21 A2997 NOSIG=
200608210100 METAR MROC 210100Z 12003KT 9999 DZ FEW010 SCT025 BKN120 21/20 A2998 NOSIG=
200608210200 METAR MROC 210200Z 06004KT 9999 SCT025 BKN120 21/20 A2998 REDZ NOSIG=
200608210300 METAR MROC 210300Z 06008KT 9999 -RA OVC100 21/19 A2999 NOSIG=
200608210400 METAR MROC 210400Z 06009KT CAVOK 21/19 A3000=
200608210500 METAR MROC 210500Z 10007KT CAVOK 22/19 A2998=
200608210600 METAR MROC 210600Z 04006KT CAVOK 21/19 A2996=
200608210700 METAR MROC 210700Z 00000KT CAVOK 20/19 A2995=
200608210800 METAR MROC 210800Z 09003KT CAVOK 20/18 A2995 NOSIG=
200608210900 METAR MROC 210900Z 01005KT CAVOK 19/18 A2995 NOSIG=
200608211000 METAR MROC 211000Z 03003KT CAVOK 19/17 A2996 NOSIG=
200608211100 METAR MROC 211100Z 06005KT CAVOK 18/17 A2997 NOSIG=
200608211200 METAR MROC 211200Z 02006KT CAVOK 19/17 A2998 RMK CB DST S SW NE NOSIG=
200608211300 METAR MROC 211300Z 06004KT CAVOK 19/17 A3000 RMK CB DST S SW=
200608211400 METAR MROC 211400Z 06002KT CAVOK 22/19 A3001 NOSIG=
200608211500 METAR MROC 211500Z 05004KT CAVOK 25/18 A3001 NOSIG=
200608211600 METAR MROC 211600Z 32003KT 9999 FEW030 BKN250 27/19 A3002 NOSIG=
200608211700 METAR MROC 211700Z 24009KT 9999 FEW040 BKN250 26/21 A3001 NOSIG=
200608211800 METAR MROC 211800Z 24010KT 9999 SCT025TCU SCT140 27/21 A3000 BECMG 7000 VCSH RMK PCPN DST ENE=
200608211900 METAR MROC 211900Z 23006KT 9999 -RA FEW015CB BKN025 24/21 A2998 BECMG 5000 TSRA=
200608212000 METAR MROC 212000Z 25006KT 9999 FEW020TCU SCT035 BKN250 24/22 A2996 BECMG RMK RERA PCPN DST ENE=
200608212100 METAR MROC 212100Z 25007KT 9999 FEW020TCU SCT035 BKN250 25/22 A2995 NOSIG=
200608212200 METAR MROC 212200Z 24007KT 9999 SCT020 BKN250 25/22 A2995 NOSIG=
200608212300 METAR MROC 212300Z 00000KT 9999 FEW015TCU SCT020 BKN250 25/21 A2994 NOSIG=
200608220000 METAR MROC 220000Z 23005KT CAVOK FEW030 BKN250 23/22 A2996 NOSIG=
200608220100 METAR MROC 220100Z 21003KT 9999 FEW030 BKN250 22/21 A2999 NOSIG=
200608220200 METAR MROC 220200Z 11002KT 9999 FEW030 BKN250 22/21 A3001 NOSIG=
200608220300 METAR MROC 220300Z 31003KT 9999 FEW030 BKN250 22/21 A3002 NOSIG=
200608220400 METAR MROC 220400Z 02004KT 9999 FEW030 SCT120 BKN250 22/21 A3002 NOSIG=
200608220500 METAR MROC 220500Z 10005KT CAVOK 22/19 A3001 NOSIG=
200608220600 METAR MROC 220600Z 09007KT CAVOK 22/19 A2999 NOSIG=
200608220700 METAR MROC 220700Z 12008KT CAVOK 22/18 A2996 NOSIG=
200608220800 METAR MROC 220800Z 07005KT CAVOK 22/18 A2997 NOSIG=
200608220900 METAR MROC 220900Z 06003KT CAVOK 21/18 A2997 NOSIG=
200608221000 METAR MROC 221000Z 11006KT CAVOK 20/18 A2998 NOSIG=
200608221100 METAR MROC 221100Z 05005KT CAVOK 19/18 A2998 NOSIG=
200608221200 METAR MROC 221200Z 06009KT CAVOK 20/18 A2999 RMK LINEA CB DST SSW SW W=
200608221300 METAR MROC 221300Z 03005KT 9999 FEW040 BKN250 21/18 A3002 NOSIG=
200608221400 METAR MROC 221400Z 07006KT 9999 FEW040 SCT120 BKN250 22/18 A3006 RMK TCU DST SW=
200608221500 METAR MROC 221500Z 34004KT 9999 FEW040 SCT120 BKN250 23/19 A3005 NOSIG=
200608221600 METAR MROC 221600Z 09009KT 9999 FEW040 SCT120 OVC250 25/19 A3004 NOSIG=
200608221700 METAR MROC 221700Z 09010KT 9999 FEW040 SCT120 OVC250 25/18 A3004 NOSIG=
200608221800 METAR MROC 221800Z 14006KT 9999 FEW040 SCT120 OVC260 25/19 A3001 NOSIG=
200608221900 METAR MROC 221900Z 12009KT 9999 FEW035 SCT120 BKN260 28/19 A2997 NOSIG=
200608222000 METAR MROC 222000Z 09010KT 9999 FEW035 SCT120 BKN260 27/18 A2997 NOSIG=
200608222100 METAR MROC 222100Z 09008KT CAVOK 25/19 A2994 NOSIG=
200608222200 METAR MROC 222200Z 10013KT CAVOK 24/18 A2992 NOSIG=
200608222300 METAR MROC 222300Z 11006KT CAVOK 24/18 A2994 NOSIG=
200608230000 METAR MROC 230000Z 09007KT CAVOK 24/18 A2995 NOSIG=
200608230100 METAR MROC 230100Z 10005KT CAVOK 23/17 A2997 NOSIG=
200608230200 METAR MROC 230200Z 08006KT CAVOK 22/18 A2999 NOSIG=
200608230300 METAR MROC 230300Z 03003KT CAVOK 22/18 A3002 NOSIG=
200608230400 METAR MROC 230400Z 08006KT CAVOK 22/18 A3002 NOSIG=
200608230500 METAR MROC 230500Z 10007KT CAVOK 22/18 A3001 NOSIG=
200608230600 METAR MROC 230600Z 36003KT CAVOK 21/18 A3002 BECMG RMK LTNG DIST SSW=
200608230700 METAR MROC 230700Z 08006KT CAVOK 22/18 A3001 BECMG RMK LTNG DST S SSW=
200608230800 METAR MROC 230800Z 11009KT CAVOK 23/18 A2997 BECMG RMK LTNG DST S=
200608230900 METAR MROC 230900Z 10010KT CAVOK 22/18 A2994 BECMG RMK LTNG DST S SSW=
200608231000 METAR MROC 231000Z 03005KT CAVOK 22/18 A2995 BECMG RMK LTNG DST S=
200608231100 METAR MROC 231100Z 05007KT 9999 FEW030 BKN250 22/18 A2998 NOSIG=
200608231200 METAR MROC 231200Z 05004KT 9999 FEW030 SCT140 BKN220 22/18 A2998 BECMG RMK CB DST SSW SW=
200608231300 METAR MROC 231300Z 10009KT 9999 FEW030 SCT140 SCT200 22/18 A2995=
200608231400 METAR MROC 231400Z 09009KT 9999 SCT025 SCT180 24/18 A3001=
200608231700 METAR MROC 231700Z 19003KT 9999 FEW025 BKN250 27/21 A3001 NOSIG=
200608231800 METAR MROC 231800Z 12006KT 9999 SCT030 SCT250 29/20 A2999=
200608231900 METAR MROC 231900Z 11007KT 9999 SCT025 SCT250 29/18 A2997=
200608232000 METAR MROC 232000Z VRB03KT 9999 SCT020TCU SCT250 29/18 A2993=
200608232100 METAR MROC 232100Z 22010KT 9999 FEW015TCU SCT025 BKN270 27/23 A2991 NOSIG=
200608232200 METAR MROC 232200Z 22003KT 9999 FEW015TCU SCT030 SCT270 27/22 A2991 NOSIG=
200608232300 METAR MROC 232300Z 23009KT 9999 FEW025 BKN270 24/23 A2992 NOSIG=
200608240000 METAR MROC 240000Z 25005KT 5000 BR BKN006 SCT025 23/22 A2996 RMK VSBY N NE 3KM NOSIG=
200608240100 METAR MROC 240100Z 24005KT 5000 BR FEW002 BKN007 22/22 A2998 NOSIG=
200608240200 METAR MROC 240200Z 19002KT 5000 BR FEW003 SCT007 22/22 A2999 NOSIG=
200608240300 METAR MROC 240300Z 00000KT 6000 VCFG FEW003 SCT010 22/22 A2999 NOSIG=
200608240400 METAR MROC 240400Z 00000KT 9999 FEW025 SCT100 22/21 A2997 NOSIG=
200608240500 METAR MROC 240500Z 08004KT 9999 FEW035 SCT100 BKN250 21/19 A2998 NOSIG=
200608240600 METAR MROC 240600Z 02003KT CAVOK 22/18 A2996 NOSIG=
200608240700 METAR MROC 240700Z 31003KT CAVOK 22/18 A2995 NOSIG=
200608240800 METAR MROC 240800Z 00000KT CAVOK 22/18 A2994 NOSIG=
200608240900 METAR MROC 240900Z 05007KT CAVOK 21/18 A2990 NOSIG=
200608241000 METAR MROC 241000Z 08009KT CAVOK 21/18 A2987=
200608241100 METAR MROC 241100Z 10015KT CAVOK 22/17 A2981 NOSIG=
200608241200 METAR MROC 241200Z 10011KT 9999 FEW030 BKN120 22/17 A2991 NOSIG=
200608241300 METAR MROC 241300Z 11011KT 9999 FEW030 BKN100 23/18 A2993=
200608241400 METAR MROC 241400Z 10007KT 9999 FEW025 SCT100 BKN250 24/18 A2996 NOSIG=
200608241500 METAR MROC 241500Z 22006KT 9999 SCT030 BKN120 22/20 A2998 RMK VSBY NW 5KM DUE RN/ RN N NE NOSIG=
200608241600 METAR MROC NIL=
200608241700 METAR MROC 241700Z 23006KT 9999 FEW010 BKN025 23/20 A3000 RMK RN NW SW NOSIG=
200608241800 METAR MROC 241800Z 17004KT 9999 FEW010 SCT025 BKN120 23/20 A2997 RMK VSBY N 7KM NOSIG=
200608241900 METAR MROC 241900Z 23010KT 9999 -RA SCT012 BKN025 22/21 A2995 RMK VSBY NW N NE 6KM NOSIG=
200608242000 METAR MROC 242000Z 24010KT 3000 RA SCT008 BKN025 20/19 A2994 NOSIG=
200608242100 METAR MROC 242100Z 31003KT 8000 VCFG FEW010 SCT030 BKN180 21/20 A2991 RMK BR ARND=
200608242200 METAR MROC 242200Z 00000KT 9000 FEW010 SCT040 BKN180 21/19 A2989 RMK BR ARND=
200608242300 METAR MROC 242300Z 27006KT 9999 FEW015 SCT050 BKN200 21/20 A2990=
200608250000 METAR MROC 250000Z 27005KT 9999 FEW015 SCT070 BKN180 21/19 A2993=
200608250100 METAR MROC 250100Z 00000KT 9999 -DZ FEW020 BKN120 21/19 A2996=
200608250200 METAR MROC 250200Z 32003KT 9999 SCT040 SCT180 20/19 A2998=
200608250300 METAR MROC 250300Z 00000KT CAVOK 20/18 A2999=
200608250400 METAR MROC 250400Z 28003KT CAVOK 20/19 A2999 BECMG 6000 VCFG=
200608250500 METAR MROC 250500Z 28004KT 9999 FEW030 SCT180 20/20 A2997=
200608250600 METAR MROC 250600Z 00000KT 9999 FEW025 SCT100 20/19 A2997=
200608250700 METAR MROC 250700Z 00000KT 6000 3000SW DZ BR FEW001 SCT012 SCT030 20/19 A2996=
200608250800 METAR MROC 250800Z 00000KT 4000SW BR FEW001 SCT015 OVC100 20/19 A2996=
200608250900 METAR MROC 250900Z 00000KT 3000SW -DZ BR FEW001 SCT010 OVC100 19/19 A2993=
200608251000 METAR MROC 251000Z 07004KT CAVOK 19/19 A2994=
200608251100 METAR MROC 251100Z 06007KT 9999 -DZ FEW025 OVC100 19/18 A2993=
200608251200 METAR MROC 251200Z 04009KT CAVOK 20/18 A2992 NOSIG=
200608251300 METAR MROC 251300Z 03005KT CAVOK 21/18 A2995 NOSIG=
200608251400 METAR MROC 251400Z 09002KT CAVOK 22/19 A2997 NOSIG=
200608251500 METAR MROC 251500Z 19004KT CAVOK 23/20 A2999 NOSIG=
200608251600 METAR MROC 251600Z 24005KT CAVOK 24/19 A2999 NOSIG=
200608251700 METAR MROC 251700Z 25006KT CAVOK 25/20 A2998 NOSIG=
200608251800 METAR MROC 251800Z 24007KT 9999 SCT030 BKN120 24/20 A2996 NOSIG=
200608251900 METAR MROC 251900Z 27005KT 9999 SCT030 BKN120 25/19 A2995 NOSIG=
200608252000 METAR MROC 252000Z 23004KT 9999 SCT025 BKN120 25/20 A2993 NOSIG=
200608252100 METAR MROC 252100Z 24006KT 9999 SCT020 BKN120 25/20 A2991 BECMG 7000=
200608252200 METAR MROC 252200Z 23007KT 9999 FEW010 SCT025 BKN120 23/21 A2990 NOSIG=
200608252300 METAR MROC 252300Z 22006KT 9999 FEW007 SCT025 BKN120 22/21 A2990 NOSIG=
200608260000 METAR MROC 260000Z 25005KT 9999 FEW007 SCT030 BKN250 22/21 A2993 BECMG RMK CB DST SE WSW=
200608260100 METAR MROC 260100Z 25005KT 6000 2500SW BR SCT003 BKN007 21/21 A2995 BECMG 2500 FG RMK OVCR AP 07=
200608260200 METAR MROC 260200Z 27005KT 8000 3500SW DZ BR SCT004 BKN008 21/21 A2998 NOSIG=
200608260300 METAR MROC 260300Z 00000KT 6000 VCFG FEW006 BKN025 21/21 A3000 NOSIG=
200608260400 METAR MROC 260400Z 08005KT 9999 RA SCT025 BKN100 19/19 A3001 NOSIG=
200608260500 METAR MROC 260500Z 08004KT 9999 -RA SCT025 BKN100 20/19 A2999 NOSIG=
200608260600 METAR MROC 260600Z 19004KT 9999 SCT030 BKN120 20/18 A2997=
200608260700 METAR MROC 260700Z 00000KT 9999 -RA SCT030 BKN100 19/19 A2996=
200608260800 METAR MROC 260800Z 00000KT 9999 FEW006 SCT025 BKN100 19/19 A2995 NOSIG=
200608260900 METAR MROC 260900Z 03004KT 9999 FEW010 SCT025 BKN100 20/18 A2994=
200608261000 METAR MROC 261000Z 09003KT 9999 FEW020 SCT100 19/19 A2994 NOSIG=
200608261100 METAR MROC 261100Z 06006KT 9999 FEW040 SCT080 20/18 A2994 NOSIG=
200608261200 METAR MROC 261200Z 06006KT CAVOK 20/18 A2994 RMK BKN100 NOSIG=
200608261300 METAR MROC 261300Z 11003KT CAVOK 20/19 A2997 NOSIG=
200608261400 METAR MROC 261400Z 07004KT CAVOK 21/19 A2999 NOSIG=
200608261500 METAR MROC 261500Z 07004KT CAVOK 22/19 A3000 NOSIG=
200608261600 METAR MROC 261600Z 10003KT 9999 FEW040 BKN120 25/19 A2999 NOSIG=
200608261700 METAR MROC 261700Z 25003KT 9999 FEW040 BKN120 27/19 A2998 NOSIG=
200608261800 METAR MROC 261800Z 23011KT 9999 FEW010TCU SCT030 BKN120 25/21 A2998 NOSIG=
200608261900 METAR MROC 261900Z 21008KT 9999 FEW010TCU SCT030 BKN120 25/21 A2994 BECMG 5000 VCSH=
200608262000 METAR MROC 262000Z 10007KT 9999 FEW010TCU SCT030 BKN120 23/19 A2993 RMK RN S SE BECMG 6000 -RA=
200608262100 METAR MROC 262100Z 23005KT 9999 4000SW -RA VCSH FEW020 OVC100 21/19 A2994 NOSIG=
200608262200 METAR MROC 262200Z 30002KT 5000 RA FEW003 SCT012 BKN100 20/19 A2995 NOSIG=
200608262300 METAR MROC 262300Z 10003KT 9999 -RA SCT040 BKN100 20/19 A2995 NOSIG=
200608270000 METAR MROC 270000Z 07004KT 9999 DZ OVC100 20/19 A2995 NOSIG=
200608270100 METAR MROC 270100Z 00000KT CAVOK 20/19 A2997 NOSIG=
200608270200 METAR MROC 270200Z 04003KT CAVOK 20/19 A2999 BECMG RMK LGT FG TO SSW=
200608270300 METAR MROC 270300Z 12002KT 9999 DZ OVC100 20/19 A3000 NOSIG=
200608270400 METAR MROC 270400Z 22003KT 9999 -DZ OVC100 19/19 A3002 NOSIG=
200608270500 METAR MROC 270500Z 02004KT CAVOK 20/19 A3002 NOSIG=
200608270600 METAR MROC 270600Z 07003KT 9999 -DZ BKN120 SCT250 19/19 A2999 NOSIG=
200608270700 METAR MROC 270700Z 05006KT CAVOK 19/18 A2997 NOSIG=
200608270800 METAR MROC 270800Z 07007KT CAVOK 20/18 A2993 NOSIG=
200608270900 METAR MROC 270900Z 05005KT CAVOK 20/18 A2991 NOSIG=
200608271000 METAR MROC 271000Z 06006KT CAVOK 20/18 A2990 NOSIG=
200608271100 METAR MROC 271100Z 06006KT CAVOK 20/18 A2990 NOSIG=
200608271200 METAR MROC 271200Z 30002KT 9999 FEW003 BKN120 19/18 A2993 NOSIG=
200608271300 METAR MROC 271300Z 30003KT 9999 FEW003 BKN120 20/18 A2995 NOSIG=
200608271400 METAR MROC 271400Z 23003KT 9999 FEW005 BKN120 21/20 A2998 NOSIG=
200608271500 METAR MROC 271500Z 24005KT 9999 FEW025 BKN120 23/19 A2999 NOSIG=
200608271600 METAR MROC 271600Z 23004KT 9999 FEW025 BKN120 25/20 A2999 NOSIG=
200608271700 METAR MROC 271700Z 22007KT 9999 FEW025 BKN120 25/20 A2998 NOSIG=
200608271800 METAR MROC 271800Z 22007KT 9999 SCT025 BKN120 25/20 A2997 NOSIG=
200608271900 METAR MROC 271900Z 26007KT 9999 SCT025 BKN120 25/21 A2995 NOSIG=
200608272000 METAR MROC 272000Z 22006KT 9999 SCT020TCU SCT150 26/21 A2992=
200608272100 METAR MROC 272100Z 24010KT 9999 SCT012TCU SCT120 25/21 A2991=
200608272200 METAR MROC 272200Z 26010KT 7000 -TS DZ FEW004 SCT010CB SCT030 23/21 A2991 RMK RN ARND=
200608272300 METAR MROC 272300Z 24003KT 8000 3000SW -TSRA FEW003 SCT012CB BKN035 20/20 A2995=
200608280000 METAR MROC 280000Z 00000KT 4000SW -RA FEW003 SCT012CB OVC090 19/19 A2998=
200608280100 METAR MROC 280100Z 00000KT 4000SW RA SCT015 OVC100 20/19 A3000=
200608280200 METAR MROC 280200Z 33004KT 4000SW RA SCT015 OVC100 20/19 A3001 RMK VIS 9999 NE=
200608280225 METAR MROC 280225Z 20002KT 9999 -RA FEW003 OVC100 20/19 A3002 NOSIG=
200608280300 METAR MROC 280300Z 20002KT 9999 -RA BR FEW003 OVC100 20/19 A3003 BECMG 3000 RMK VIS S SSW 5KMS CONDICIONES VARIABLES=
200608280400 METAR MROC 280400Z 06005KT 9999 -DZ OVC100 20/19 A3003 NOSIG=
200608280500 METAR MROC 280500Z 08007KT CAVOK 19/19 A2998 NOSIG=
200608280600 METAR MROC 280600Z 07005KT 9999 DZ OVC100 20/18 A2995 NOSIG=
200608280700 METAR MROC 280700Z 09003KT CAVOK 19/17 A2993 REDZ NOSIG=
200608280800 METAR MROC 280800Z 15004KT CAVOK 19/18 A2992 NOSIG=
200608280900 METAR MROC 280900Z 00000KT CAVOK 18/17 A2992 NOSIG=
200608281000 METAR MROC 281000Z 06003KT CAVOK 18/17 A2992 NOSIG=
200608281100 METAR MROC 281100Z 06005KT CAVOK 17/16 A2994 NOSIG=
200608281200 METAR MROC 281200Z 08004KT CAVOK 18/16 A2994 NOSIG=
200608281300 METAR MROC 281300Z 07006KT CAVOK 21/17 A2997=
200608281400 METAR MROC 281400Z 00000KT CAVOK 25/18 A2998 BECMG 24006KT=
200608281500 METAR MROC 281500Z 25006KT CAVOK 25/18 A2998=
200608281600 METAR MROC 281600Z 20003KT 9999 FEW030 26/19 A2999=
200608281700 METAR MROC 281700Z 22006KT 9999 FEW025 SCT250 26/19 A2997=
200608281800 METAR MROC 281800Z 22006KT 9999 SCT020 BKN220 27/21 A2995=
200608281900 METAR MROC 281900Z 23009KT 9999 SCT020 BKN230 26/21 A2993=
200608282000 METAR MROC 282000Z 24012KT 9999 SCT025TCU BKN230 26/22 A2991=
200608282100 METAR MROC 282100Z 24012KT 9999 SCT020TCU SCT280 25/22 A2990 NOSIG=
200608282200 METAR MROC 282200Z 24011KT 9999 SCT015 FEW020TCU 25/22 A2989 NOSIG=
200608282300 METAR MROC 282300Z 24011KT 9999 SCT010 SCT025 23/22 A2990 RMK VSBY N 7KM LOW ST NOSIG=
200608290000 METAR MROC 290000Z 24011KT 5000 BR BKN007 SCT012 23/22 A2990 RMK VSBY E 7KM NOSIG=
200608290100 METAR MROC 290100Z 24006KT 5000 BR FEW002 BKN006 21/21 A2993 NOSIG=
200608290200 METAR MROC 290200Z 25005KT 3000 1000SW BR FEW002 BKN006 21/21 A2995 NOSIG=
200608290300 METAR MROC 290300Z 22003KT 7000 2000W BR FEW002 BKN010 21/21 A2997 NOSIG=
200608290400 METAR MROC 290400Z 00000KT 7000 2000W FEW002 BKN010 22/21 A2998 NOSIG=
200608290500 METAR MROC 290500Z 25002KT 9000 2000W BR DZ FEW002 BKN015 22/21 A2998 NOSIG=
200608290600 METAR MROC 290600Z 23002KT 8000 2000W BR FEW001 BKN008 21/21 A2998 NOSIG=
200608290700 METAR MROC 290700Z 00000KT 8000 2000W BR FEW001 BKN008 21/21 A2995 NOSIG=
200608290800 METAR MROC 290800Z 28003KT 8000 2000W BR FEW001 BKN008 21/21 A2994 NOSIG=
200608290900 METAR MROC 290900Z 27002KT 6000 VCFG FEW001 BKN005 21/21 A2992 NOSIG=
200608291000 METAR MROC 291000Z 06003KT 9999 1500SW BR SCT005 21/20 A2992 NOSIG=
200608291100 METAR MROC NIL=
200608291200 METAR MROC NIL=
200608291300 METAR MROC 291300Z 01003KT CAVOK 23/20 A2998 NOSIG=
200608291400 METAR MROC 291400Z 27003KT 9999 FEW015 BKN280 24/20 A2999 NOSIG=
200608291500 METAR MROC 291500Z 22005KT 9999 SCT015 BKN280 25/21 A2999 NOSIG=
200608291600 METAR MROC 291600Z 23006KT 9999 SCT029 SCT280 26/21 A2999 NOSIG=
200608291700 METAR MROC 291700Z 26006KT 9999 SCT020 SCT280 27/21 A2997 NOSIG=
200608291800 METAR MROC 291800Z 23007KT 9999 SCT025 BKN280 27/22 A2995 NOSIG=
200608291900 METAR MROC 291900Z 23008KT 9999 SCT020 SCT280 27/21 A2991 NOSIG=
200608292000 METAR MROC 292000Z 23009KT 9999 SCT020TCU SCT280 27/22 A2990 NOSIG=
200608292100 METAR MROC 292100Z 24010KT 9999 FEW015CB SCT020 SCT250 27/23 A2989 RMK RN DST SSW SW W BECMG 5000 SW VCSH=
200608292200 METAR MROC 292200Z 27008KT 5000 2000SW -TSRA FEW006CB SCT015 BKN090 22/21 A2992=
200608292300 METAR MROC 292300Z 05005KT 9999 4000SW RA FEW012 BKN025 20/19 A2991=
200608300000 METAR MROC 300000Z 11003KT 9999 FEW015 BKN035 20/20 A2994 NOSIG=
200608300100 METAR MROC 300100Z 04003KT 9999 SCT035 SCT100 21/20 A2993 NOSIG=
200608300200 METAR MROC 300200Z 00000KT 9999 SCT025 SCT100 21/21 A2994=
200608300300 METAR MROC 300300Z 36005KT CAVOK 21/20 A2996=
200608300400 METAR MROC 300400Z 01006KT CAVOK 21/19 A2997=
200608300500 METAR MROC 300500Z 07006KT CAVOK 20/19 A2997=
200608300600 METAR MROC 300600Z 02008KT CAVOK 20/19 A2994=
200608300700 METAR MROC NIL=
200608300706 METAR MROC 300706Z 16003KT CAVOK 20/19 A2995=
200608300800 METAR MROC 300800Z 00000KT CAVOK 20/19 A2994=
200608300900 METAR MROC 300900Z 00000KT CAVOK 19/18 A2991=
200608301000 METAR MROC 301000Z 00000KT CAVOK 20/18 A2991 NOSIG=
200608301100 METAR MROC 301100Z 30003KT CAVOK 19/18 A2993 NOSIG=
200608301200 METAR MROC 301200Z 06003KT 7000 VCFG FEW002 BKN250 19/18 A2995 BECMG 9999=
200608301300 METAR MROC 301300Z 00000KT 9999 FEW030 BKN250 21/20 A2997 NOSIG=
200608301400 METAR MROC 301400Z 35004KT 9999 FEW030 BKN250 25/20 A2999 NOSIG=
200608301500 METAR MROC 301500Z 13008KT 9999 FEW035 BKN280 27/20 A2999 NOSIG=
200608301600 METAR MROC 301600Z 25009KT 9999 FEW030 BKN250 26/22 A3000 NOSIG=
200608301700 METAR MROC 301700Z 22011KT 9999 FEW020TCU SCT035 SCT250 26/22 A2999 NOSIG=
200608301800 METAR MROC 301800Z 24006KT 9999 FEW020TCU SCT030 BKN250 27/22 A2997 NOSIG=
200608301900 METAR MROC 301900Z 23011KT 9999 SCT020TCU SCT030 26/22 A2994 NOSIG=
200608302000 METAR MROC 302000Z 30010KT 0800 -TS VCSH SCT010CB BKN015 22/21 A2993=
200608302100 METAR MROC 302100Z 26010KT 9999 DZ VCSH FEW003 FEW010CB BKN025 21/20 A2994 BECMG RMK VIS S SSW 7KMS TS DST S/W=
200608302200 METAR MROC 302200Z 04009KT 9999 FEW030 SCT120 BKN250 23/20 A2992 NOSIG=
200608302300 METAR MROC 302300Z 00000KT 9999 FEW035 BKN250 23/21 A2993 NOSIG=
200608310000 METAR MROC 310000Z 00000KT 9999 FEW035 SCT120 BKN250 23/21 A2994 NOSIG=
200608310100 METAR MROC 310100Z 26005KT 9999 VCFG FEW005 SCT140 BKN250 21/20 A2994 BECMG 5000 BR RMK VIS 7KMS TO N QUAD=
200608310200 METAR MROC 310200Z 30003KT 9999 FEW008 SCT140 BKN250 21/20 A2994 NOSIG=
200608310300 METAR MROC 310300Z 00000KT CAVOK 21/20 A2996 NOSIG=
200608310400 METAR MROC 310400Z 00000KT CAVOK 20/19 A2997 NOSIG=
200608310500 METAR MROC 310500Z 11003KT CAVOK 19/19 A2999=
200608310600 METAR MROC 310600Z 02004KT CAVOK 20/18 A2999=
200608310700 METAR MROC 310700Z 03003KT CAVOK 20/19 A2998=
200608310800 METAR MROC 310800Z 06003KT 9999 19/18 A2993 NOSIG=
200608310900 METAR MROC 310900Z 06003KT CAVOK 18/17 A2994 NOSIG=
200608311000 METAR MROC 311000Z 03006KT CAVOK 19/18 A2993 NOSIG=
200608311100 METAR MROC 311100Z 03003KT CAVOK 20/28 A2994 NOSIG=
200608311200 METAR MROC 311200Z 08005KT CAVOK 20/17 A2996 RMK FEW100 BKN250 RMK CB DST S SW NOSIG=
200608311300 METAR MROC 311300Z 06006KT CAVOK 22/19 A2998 NOSIG=
200608311400 METAR MROC 311400Z 23007KT 9999 FEW025 BKN140 23/19 A3002 NOSIG=
200608311500 METAR MROC 311500Z 23011KT 9999 SCT030 SCT120 23/20 A3003 NOSIG=
200608311600 METAR MROC 311600Z 26006KT 9999 FEW008 SCT025 BKN130 23/20 A3003 BECMG 7000 VCSH=
200608311700 METAR MROC 311700Z 22004KT 9999 FEW008 SCT020 BKN130 23/21 A3002 BECMG RMK HZY=
200608311800 METAR MROC 311800Z VRB04KT 9999 SCT030 BKN250 25/21 A2998 BECMG RMK HZY=
200608311900 METAR MROC 311900Z 00000KT 9999 FEW035 BKN250 28/21 A2995 RMK HZY=
200608312000 METAR MROC 312000Z 24010KT 9999 FEW020TCU SCT035 BKN250 25/22 A2993 BECMG RMK HZY=
200608312100 METAR MROC 312100Z 23011KT 9999 FEW020TCU SCT035 BKN250 24/21 A2994 NOSIG=
200608312200 METAR MROC 312200Z 24009KT 9999 4000SW VCFG FEW003 FEW015CB BKN035 22/21 A2996 RMK RN E NOSIG=
200608312300 METAR MROC 312300Z 26005KT 9999 1000SW BR RA VCSH FEW002 FEW015CB BKN020 21/20 A2996=
200609010000 METAR MROC 010000Z 00000KT 9999 2000SW BR FEW002 SCT008 BKN025 20/20 A2998 NOSIG=
200609010100 METAR MROC 010100Z 05004KT 9999 FEW030 SCT120 BKN250 20/19 A3000=
200609010200 METAR MROC 010200Z 04004KT 9999 FEW030 SCT120 BKN250 20/20 A3000 NOSIG=
200609010300 METAR MROC 010300Z 01006KT CAVOK 22/19 A3000 NOSIG=
200609010400 METAR MROC 010400Z 02008KT CAVOK 21/18 A3000 NOSIG=
200609010500 METAR MROC 010500Z 05009KT CAVOK 21/16 A2997 NOSIG=
200609010600 METAR MROC 010600Z 07005KT CAVOK 20/17 A2996 NOSIG=
200609010700 METAR MROC 010700Z 07002KT CAVOK 19/16 A2996 NOSIG=
200609010800 METAR MROC 010800Z 34002KT CAVOK 19/16 A2995 NOSIG=
200609010900 METAR MROC 010900Z 05002KT CAVOK 17/16 A2995 NOSIG=
200609011000 METAR MROC 011000Z 00706KT CAVOK 18/16 A2994 NOSIG=
200609011100 METAR MROC 011100Z 03005KT CAVOK 18/15 A2995 NOSIG=
200609011200 METAR MROC 011200Z 10002KT CAVOK 18/15 A2997 NOSIG=
200609011300 METAR MROC 011300Z 33002KT CAVOK 20/16 A2999 NOSIG=
200609011400 METAR MROC 011400Z 00000KT CAVOK 24/18 A3001 NOSIG=
200609011500 METAR MROC 011500Z 25003KT 9999 FEW040 BKN250 24/18 A3002 NOSIG=
200609011600 METAR MROC 011600Z 25005KT 9999 FEW040 BKN250 25/20 A3001 NOSIG=
200609011700 METAR MROC 011700Z 26008KT 9999 FEW040 SCT110 BKN250 26/20 A2999 NOSIG=
200609011800 METAR MROC 011800Z 22007KT 9999 FEW035 BKN240 26/21 A2997 NOSIG=
200609011900 METAR MROC 011900Z 24009KT 9999 FEW035 BKN240 26/22 A2994 NOSIG=
200609012000 METAR MROC 012000Z 29006KT 9999 SCT030 BKN240 25/21 A2993 NOSIG=
200609012100 METAR MROC 012100Z 25009KT 9999 FEW015 SCT035CB SCT220 25/21 A2993 RMK CB RN N/NE E=
200609012200 METAR MROC 012200Z 24005KT 5000 -TSRA SCT010CB SCT090 22/21 A2993=
200609012300 METAR MROC 012300Z 00000KT 8000 -DZ BR SCT008 SCT025 22/21 A2994=
200609020000 METAR MROC 020000Z 00000KT 9999 FEW020 BKN100 22/21 A2997 RERA=
200609020100 METAR MROC 020100Z 00000KT 8000 -RA FEW010 OVC100 21/21 A2999=
200609020200 METAR MROC 020200Z 01007KT 9000 RA FEW025 OVC100 21/19 A3000=
200609020300 METAR MROC 020300Z 36003KT 9999 DZ OVC100 21/19 A3001 NOSIG=
200609020400 METAR MROC 020400Z 07003KT CAVOK 20/19 A3000 NOSIG=
200609020500 METAR MROC 020500Z 09002KT CAVOK 20/19 A2998 NOSIG=
200609020600 METAR MROC 020600Z 08002KT CAVOK 19/18 A2997 NOSIG=
200609020700 METAR MROC 020700Z 07002KT CAVOK 19/18 A2996 NOSIG=
200609020800 METAR MROC 020800Z 08003KT CAVOK 18/17 A2996 NOSIG=
200609020900 METAR MROC 020900Z 07003KT CAVOK 17/16 A2995 NOSIG=
200609021000 METAR MROC 021000Z 06005KT CAVOK 18/16 A2995 BECMG RMK LTNG DST SSW=
200609021100 METAR MROC 021100Z 02007KT CAVOK 19/17 A2995 NOSIG=
200609021200 METAR MROC 021200Z 05007KT CAVOK 20/17 A2996 BECMG RMK CB DST S=
200609021300 METAR MROC 021300Z 05009KT CAVOK 21/18 A2997=
200609021400 METAR MROC 021400Z 10005KT CAVOK 25/19 A2997 BECMG 24006KT=
200609021500 METAR MROC 021500Z 08008KT CAVOK 27/19 A2997=
200609021600 METAR MROC 021600Z 09014KT 9999 FEW030 SCT250 27/18 A2995=
200609021700 METAR MROC 021700Z 11009KT 9999 FEW025 SCT250 29/18 A2995 BECMG 24008KT=
200609021800 METAR MROC 021800Z 13009KT 9999 SCT020TCU SCT250 29/19 A2994=
200609021900 METAR MROC 021900Z 19006KT 9999 SCT020TCU SCT180 26/22 A2992=
200609022000 METAR MROC 022000Z 22011KT 9999 SCT025TCU BKN100 23/21 A2991 RMK RN DST N/NE=
200609022100 METAR MROC 022100Z 25007KT 7000 VCFG BKN008 SCT025 22/21 A2991 RMK VSBY NE UNL BECMG 5000 BR=
200609022200 METAR MROC 022200Z 28004KT 6000 VCFG SCT005 SCT025 BKN120 22/21 A2991 NOSIG=
200609022300 METAR MROC NIL=
200609030000 METAR MROC 030000Z 06003KT 5000 RA BR FEW003 SCT020 OVC100 21/20 A2995 NOSIG=
200609030100 METAR MROC 030100Z 09005KT 9999 RA FEW025 OVC100 20/19 A2997 NOSIG=
200609030200 METAR MROC 030200Z 00000KT 9999 -RA FEW025 OVC100 21/20 A2998=
200609030300 METAR MROC 030300Z 16002KT CAVOK 21/19 A3001 NOSIG=
200609030400 METAR MROC 030400Z 00000KT CAVOK 20/19 A3002 NOSIG=
200609030500 METAR MROC 030500Z 12002KT CAVOK 20/19 A3000 NOSIG=
200609030600 METAR MROC 030600Z 04004KT CAVOK 20/19 A2999 NOSIG=
200609030700 METAR MROC 030700Z 06008KT CAVOK 20/18 A2997 NOSIG=
200609030800 METAR MROC 030800Z 06008KT CAVOK 21/18 A2993 NOSIG=
200609030900 METAR MROC 030900Z 06005KT CAVOK 21/18 A2994 NOSIG=
200609031000 METAR MROC 031000Z 16003KT CAVOK 19/18 A2995 NOSIG=
200609031100 METAR MROC 031100Z 07004KT CAVOK 18/17 A2996 NOSIG=
200609031200 METAR MROC 031200Z 03008KT CAVOK 19/17 A2997 NOSIG=
200609031300 METAR MROC 031300Z 01003KT CAVOK 21/18 A2998=
200609031400 METAR MROC 031400Z 10010KT CAVOK 24/19 A2999 NOSIG=
200609031500 METAR MROC 031500Z 10012KT CAVOK 25/19 A2998 NOSIG=
200609031600 METAR MROC 031600Z 10010KT 9999 FEW025 BKN280 26/19 A2999 NOSIG=
200609031700 METAR MROC 031700Z 10008KT 9999 FEW025 BKN280 28/18 A2999 RMK CB DST SE NOSIG=
200609031800 METAR MROC 031800Z 14006KT 9999 FEW020TCU SCT030 BKN250 26/22 A2997 RMK RN N NOSIG=
200609031900 METAR MROC 031900Z 23009KT 9999 4000NE VCSH FEW012TCU SCT025 BKN250 26/22 A2995 RMK RN DST SW NW N NOSIG=
200609032000 METAR MROC 032000Z 11004KT 9999 SCT020 BKN250 25/22 A2992 RMK RN NW N NOSIG=
200609032100 METAR MROC 032100Z 26011KT 9999 FEW008 SCT015TCU SCT025 24/22 A2992 RMK VCSH ARND 7000SW=
200609032200 METAR MROC 032200Z 26006KT 9999 FEW008 SCT015 BKN250 24/21 A2992=
200609032300 METAR MROC 032300Z 20003KT 9999 FEW004 SCT015 BKN250 23/20 A2994 NOSIG=
200609040000 METAR MROC 040000Z 00000KT 9999 BKN025 SCT250 21/20 A2997 RMK TS DST SSW BECMG DZ=
200609040100 METAR MROC 040100Z 30003KT 9999 SCT020 SCT120 21/21 A3000 NOSIG=
200609040200 METAR MROC 040200Z 00000KT 8000 VCFG FEW005 SCT015 21/20 A3000=
200609040300 METAR MROC 040300Z 00000KT 9999 FEW012 SCT150 21/20 A3002=
200609040400 METAR MROC 040400Z 09005KT CAVOK 20/20 A3002=
200609040500 METAR MROC 040500Z 08006KT CAVOK 20/17 A3004=
200609040600 METAR MROC 040600Z 04011KT CAVOK 20/17 A2999=
200609040700 METAR MROC NIL=
200609040800 METAR MROC 040800Z 02006KT CAVOK 19/17 A2997=
200609040900 METAR MROC 040900Z 00000KT CAVOK 18/16 A2998=
200609041000 METAR MROC 041000Z 05007KT CAVOK 17/16 A2998 NOSIG=
200609041100 METAR MROC 041100Z 06007KT CAVOK 17/16 A2998 NOSIG=
200609041200 METAR MROC 041200Z 01007KT CAVOK 19/16 A2999 NOSIG=
200609041300 METAR MROC 041300Z 10007KT CAVOK 22/17 A3000 NOSIG=
200609041400 METAR MROC 041400Z 09004KT CAVOK 26/18 A3001 NOSIG=
200609041500 METAR MROC 041500Z 00000KT CAVOK 29/16 A3001 NOSIG=
200609041600 METAR MROC 041600Z 09010KT CAVOK 29/18 A3000 NOSIG=
200609041700 METAR MROC 041700Z 08009KT CAVOK 29/18 A3000 NOSIG=
200609041800 METAR MROC 041800Z 08011KT 9999 FEW035 BKN250 29/18 A2997 NOSIG=
200609041900 METAR MROC 041900Z 10011KT 9999 FEW020CB SCT030 SCT250 30/18 A2996 NOSIG=
200609042000 METAR MROC 042000Z 11009KT 9999 FEW015TCU SCT030 SCT250 26/19 A2992 NOSIG=
200609042100 METAR MROC 042100Z 13004KT 9999 FEW015TCU SCT030 BKN250 27/20 A2994 BECMG RMK CB DST SW W WNW RASH DST NW SE=
200609042200 METAR MROC 042200Z 19009KT 9999 FEW012CB SCT025 BKN120 25/19 A2996 BECMG RMK RASH DST SE=
200609042300 METAR MROC 042300Z 16005KT 9999 VCFG FEW003 OVC120 23/19 A2997 BECMG RMK VIS 6KMS NW NNW=
200609050000 METAR MROC 050000Z 10008KT CAVOK 23/18 A2999 NOSIG=
200609050100 METAR MROC 050100Z 08005KT CAVOK 22/18 A3002 BECMG RMK LTNG DST WSW=
200609050200 METAR MROC 050200Z 08004KT CAVOK 21/18 A3002 NOSIG=
200609050300 METAR MROC 050300Z 08008KT CAVOK 22/18 A3003 NOSIG=
200609050400 METAR MROC 050400Z 10011KT CAVOK 22/17 A3001=
200609050500 METAR MROC 050500Z 10010KT CAVOK 22/17 A2999=
200609050600 METAR MROC 050600Z 09012KT CAVOK 22/17 A2996=
200609050700 METAR MROC 050700Z 10012KT CAVOK 23/16 A2994=
200609050800 METAR MROC 050800Z 11012KT CAVOK 22/16 A2994 NOSIG=
200609050900 METAR MROC 050900Z 02006KT CAVOK 22/16 A2996 NOSIG=
200609051000 METAR MROC 051000Z 02003KT 9999 21/16 A2997 NOSIG=
200609051100 METAR MROC 051100Z 05010KT CAVOK 20/16 A3000 RMK LTNG DST S NOSIG=
200609051200 METAR MROC 051200Z 04007KT CAVOK 20/16 A3000 RMK CB DST S NOSIG=
200609051300 METAR MROC 051300Z 04003KT CAVOK 23/17 A3003 NOSIG=
200609051400 METAR MROC 051400Z VRB03KT CAVOK 26/17 A3004 NOSIG=
200609051500 METAR MROC 051500Z 23006KT 9999 FEW040 SCT300 26/19 A3004=
200609051600 METAR MROC 051600Z 17003KT 9999 SCT030 27/20 A3002 NOSIG=
200609051700 METAR MROC 051700Z 12003KT 9999 SCT040 28/19 A2999 NOSIG=
200609051800 METAR MROC 051800Z 10010KT 9999 FEW040 30/18 A2997 NOSIG=
200609051900 METAR MROC 051900Z 11009KT 9999 FEW040 30/18 A2994 NOSIG=
200609052000 METAR MROC 052000Z 25010KT 9999 VCSH FEW020TCU BKN040 26/22 A2992 BECMG 5000 RMK RASH SSW=
200609052100 METAR MROC 052100Z 24011KT 9999 FEW020TCU SCT040 BKN100 23/21 A2992 NOSIG=
200609052200 METAR MROC 052200Z 28005KT 9999 5000SW BR FEW001 SCT010 BKN100 23/21 A2993 NOSIG=
200609052300 METAR MROC 052300Z 28005KT 9999 4000SW BR FEW001 SCT010 BKN100 23/21 A2996 NOSIG=
200609060000 METAR MROC 060000Z 27003KT 9999 4000SW BR FEW001 SCT010 BKN100 22/21 A2997 NOSIG=
200609060100 METAR MROC 060100Z 19002KT 9999 1000SW BR FEW001 SCT010 BKN100 22/21 A2999 NOSIG=
200609060200 METAR MROC NIL=
200609060300 METAR MROC 060300Z 24002KT 9999 FEW010 BKN250 22/20 A3002 NOSIG=
200609060400 METAR MROC 060400Z 35003KT 9999 FEW030 SCT120 22/20 A3003 RMK DUE ST N NE=
200609060500 METAR MROC 060500Z 01002KT 9999 FEW035 SCT250 22/20 A3002 NOSIG=
200609060600 METAR MROC 060600Z 01004KT 9999 FEW035 SCT250 21/20 A3000 RMK LTNG DST SW=
200609060700 METAR MROC 060700Z 08002KT 9999 FEW035 SCT250 20/19 A2998 NOSIG=
200609060800 METAR MROC 060800Z 02004KT 9999 FEW035 SCT250 20/19 A2997 NOSIG=
200609060900 METAR MROC 060900Z 11004KT CAVOK 19/18 A2995 RMK CB/LTNG DST S/SW NOSIG=
200609061000 METAR MROC 061000Z 09005KT CAVOK 20/18 A2997 NOSIG=
200609061100 METAR MROC 061100Z 09008KT CAVOK 21/18 A2998 NOSIG=
200609061200 METAR MROC 061200Z 10005KT CAVOK 21/18 A2998 NOSIG=
200609061300 METAR MROC 061300Z 05005KT CAVOK 22/18 A3000 RMK CB SW NOSIG=
200609061400 METAR MROC 061400Z 09007KT 9999 FEW030 SCT120 BKN250 24/19 A3002 NOSIG=
200609061500 METAR MROC 061500Z 10009KT CAVOK 25/18 A3001 NOSIG=
200609061600 METAR MROC 061600Z 12010KT 9999 FEW035 OVC250 30/23 A2986=
200609061700 METAR MROC 061700Z 00000KT CAVOK 27/19 A2999 NOSIG=
200609061800 METAR MROC 061800Z 24012KT 9999 FEW040 BKN250 26/22 A2998 NOSIG=
200609061900 METAR MROC 061900Z 22010KT 9999 FEW015TCU SCT035 BKN250 26/22 A2996 NOSIG=
200609062000 METAR MROC 062000Z 25008KT 5000 -TSRA SCT010CB SCT060 24/22 A2994=
200609062100 METAR MROC 062100Z 12004KT 8000 1500SW TSRA FEW001 SCT012CB SCT100 20/20 A2995=
200609062200 METAR MROC 062200Z 29003KT 8000 -DZ BR FEW010 SCT020 BKN100 20/19 A2997 BECMG 4000 -RA BR=
200609062300 METAR MROC 062300Z 15003KT 1500 -RA FEW001 BKN015 19/18 A3000=
200609070000 METAR MROC 070000Z 35006KT 6000 -RA SCT010 SCT060 19/18 A3002=
200609070100 METAR MROC 070100Z 08005KT 9999 -DZ FEW015 OVC100 19/18 A3001=
200609070200 METAR MROC 070200Z 09005KT 9999 FEW025 BKN120 19/18 A2999 RERA=
200609070300 METAR MROC 070300Z 07006KT CAVOK 20/17 A3000=
200609070400 METAR MROC 070400Z 00000KT CAVOK 19/18 A3000 NOSIG=
200609070500 METAR MROC 070500Z 09004KT CAVOK 18/17 A3000 NOSIG=
200609070600 METAR MROC 070600Z 05004KT CAVOK 18/17 A2999 NOSIG=
200609070700 METAR MROC 070700Z 07005KT CAVOK 17/16 A2997 NOSIG=
200609070800 METAR MROC 070800Z 06008KT CAVOK 18/16 A2995 NOSIG=
200609070900 METAR MROC 070900Z 06009KT CAVOK 19/16 A2993 NOSIG=
200609071000 METAR MROC 071000Z 07006KT CAVOK 20/17 A2993 BECMG RMK LTNG DST S=
200609071100 METAR MROC 071100Z 03006KT CAVOK 19/17 A2993 NOSIG=
200609071200 METAR MROC 071200Z 05006KT CAVOK 19/17 A2994 BECMG RMK CB DST SSW SW=
200609071300 METAR MROC NIL=
200609071400 METAR MROC NIL=
200609071500 METAR MROC 071500Z 10005KT CAVOK 27/19 A2999=
200609071600 METAR MROC 071600Z 10010KT CAVOK 28/17 A2998=
200609071700 METAR MROC NIL=
200609071800 METAR MROC NIL=
200609071900 METAR MROC 071900Z 23011KT 9999 SCT020TCU SCT080 26/21 A2995=
200609072000 METAR MROC 072000Z 25014KT 7000 -TSDZ SCT010CB SCT025 24/21 A2993 RMK RN ARND=
200609072100 METAR MROC 072100Z 09005KT 3000 RA FEW010CB SCT018 BKN120 20/19 A2993 RMK VSBY NE UNL BECMG 5000=
200609072200 METAR MROC 072200Z 08003KT 9999 FEW020 BKN250 21/20 A2993 RMK RN DST W NW NOSIG=
200609072300 METAR MROC 072300Z 00000KT 9999 FEW008 SCT025 BKN250 22/20 A2995 BECMG 5000 BR SCT005=
200609080000 METAR MROC 080000Z 28003KT 9999 -RA SCT015 BKN120 21/20 A2995 NOSIG=
200609080100 METAR MROC 080100Z 18002KT 9999 SCT020 BKN120 21/20 A2999 RMK LOW ST SW NOSIG=
200609080200 METAR MROC 080200Z VRB02KT 9999 SCT020 BKN120 21/20 A3000 BECMG 6000=
200609080300 METAR MROC 080300Z 36002KT CAVOK 21/20 A3003 NOSIG=
200609080400 METAR MROC 080400Z 09003KT CAVOK 20/19 A3003 NOSIG=
200609080500 METAR MROC 080500Z 03004KT CAVOK 20/19 A3001 NOSIG=
200609080600 METAR MROC 080600Z 07002KT CAVOK 19/18 A2999 NOSIG=
200609080700 METAR MROC 080700Z 05004KT CAVOK 18/17 A2997 NOSIG=
200609080800 METAR MROC NIL=
200609080900 METAR MROC 080900Z 07005KT CAVOK 18/17 A2995=
200609081000 METAR MROC 081000Z 10003KT CAVOK 27/16 A2996=
200609081100 METAR MROC 081100Z 05004KT CAVOK 18/16 A2998=
200609081200 METAR MROC NIL=
200609081300 METAR MROC 081300Z 10002KT CAVOK 20/17 A3001=
200609081400 METAR MROC NIL=
200609081500 METAR MROC NIL=
200609081600 METAR MROC 081600Z 23003KT 9999 FEW020 BKN280 27/19 A3001 NOSIG=
200609081700 METAR MROC NIL=
200609081800 METAR MROC 081800Z 23009KT 9999 SCT025TCU BKN280 27/20 A3000 RMK RN DST NE NW S NOSIG=
200609081900 METAR MROC 081900Z 23007KT 9999 VCSH FEW015TCU SCT025 SCT120 24/22 A2997 RMK VSBY N NE 6KM DUE RASH RN DST ARND NOSIG=
200609082000 METAR MROC 082000Z 21007KT 9999 FEW015TCU SCT025 BKN250 22/20 A2996 RMK VSBY N 6KM DUE RN RN DST S NOSIG=
200609082100 METAR MROC 082100Z 23007KT 9999 2000SW RA FEW012CB SCT020 SCT250 22/20 A2995 BECMG 5000 -TSRA=
200609082200 METAR MROC 082200Z 27005KT 5000 2000N RA BR FEW003 SCT020 BKN120 20/20 A2996 NOSIG=
200609082300 METAR MROC 082300Z 33002KT 8000 -RA FEW007 SCT030 BKN100 21/19 A2997 NOSIG=
200609090000 METAR MROC 090000Z 36002KT 7000 -RA FEW012 OVC090 20/19 A3000 NOSIG=
200609090100 METAR MROC 090100Z 02002KT 9999 DZ OVC090 20/19 A3001 NOSIG=
200609090200 METAR MROC 090200Z 09004KT 9999 -DZ FEW012 OVC090 20/19 A3000 NOSIG=
200609090300 METAR MROC 090300Z 07006KT 9999 -DZ OVC100 20/19 A3000=
200609090400 METAR MROC 090400Z 08004KT CAVOK 20/19 A3000=
200609090500 METAR MROC 090500Z 00000KT CAVOK 19/18 A2998=
200609090600 METAR MROC 090600Z 00000KT 9999 2000SW BR SCT001 SCT025 19/18 A2999=
200609090700 METAR MROC 090700Z 00000KT 9999 FEW010 SCT100 19/19 A2998=
200609090800 METAR MROC 090800Z 13003KT CAVOK 18/17 A2997=
200609090900 METAR MROC 090900Z 00000KT CAVOK 18/17 A2996=
200609091000 METAR MROC 091000Z 00000KT CAVOK 18/17 A2996 NOSIG=
200609091100 METAR MROC 091100Z 09004KT CAVOK 16/16 A2996 NOSIG=
200609091200 METAR MROC 091200Z 06006KT CAVOK 17/16 A2998 NOSIG=
200609091300 METAR MROC 091300Z 08003KT CAVOK 18/17 A2998 RMK CB DST SSW SW=
200609091400 METAR MROC 091400Z VRB03KT CAVOK 21/18 A3002 RMK CB DST SW W=
200609091500 METAR MROC 091500Z 20002KT CAVOK 23/18 A3002 NOSIG=
200609091600 METAR MROC 091600Z 00000KT CAVOK 25/18 A3002 NOSIG=
200609091700 METAR MROC 091700Z 23008KT 9999 FEW035 BKN250 25/19 A3001 NOSIG=
200609091800 METAR MROC 091800Z 26010KT 9999 SCT030 BKN250 26/20 A2999 NOSIG=
200609091900 METAR MROC 091900Z 26007KT 9999 FEW020 SCT030 SCT250 25/20 A2995 NOSIG=
200609092000 METAR MROC 092000Z 26009KT 9999 VCSH FEW015TCU SCT025 BKN250 25/21 A2992 RMK VIS 7000SW VCSH=
200609092100 METAR MROC 092100Z 23007KT 9999 FEW015 SCT025 BKN120 23/19 A2991 BECMG RMK RN DST SSW=
200609092200 METAR MROC 092200Z 23010KT 7000 VCFG SCT004 SCT025 BKN120 22/21 A2992 BECMG 4000 BR=
200609092300 METAR MROC 092300Z 23010KT 0300 FG VV/// 21/20 A2994 NOSIG=
200609100000 METAR MROC 100000Z 24007KT 4000 1500SW -RA BR SCT001 SCT015 BKN100 21/20 A2997 BECMG RMK LOW ST OVCER AP07 WET RUNWAY=
200609100100 METAR MROC 100100Z 00000KT 8000 -RA FEW015 BKN100 20/20 A3000 BECMG 9999=
200609100200 METAR MROC 100200Z 07006KT 9999 -RA FEW020 OVC100 19/19 A3001 RMK WET RNY/ NOSIG=
200609100300 METAR MROC 100300Z 03005KT 9999 -RA FEW020 OVC100 20/19 A3002 NOSIG=
200609100400 METAR MROC 100400Z 00000KT 9999 -RA FEW030 OVC100 20/19 A3002 NOSIG=
200609100500 METAR MROC 100500Z 02003KT 9999 -RA FEW030 OVC100 20/19 A3001=
200609100600 METAR MROC 100600Z 05003KT 9999 FEW035 BKN100 19/18 A2998=
200609100700 METAR MROC 100700Z 04005KT CAVOK 19/18 A2994=
200609100800 METAR MROC 100800Z 00000KT CAVOK 19/18 A2994 NOSIG=
200609100900 METAR MROC 100900Z 09003KT CAVOK 19/18 A2995 NOSIG=
200609101000 METAR MROC 101000Z 09003KT CAVOK 18/17 A2995 NOSIG=
200609101100 METAR MROC 101100Z 08004KT CAVOK 18/17 A2997 NOSIG=
200609101200 METAR MROC 101200Z 05006KT CAVOK 19/17 A2998 NOSIG=
200609101300 METAR MROC 101300Z 06003KT CAVOK 20/18 A3001 NOSIG=
200609101400 METAR MROC 101400Z 09004KT CAVOK 23/19 A3000 BECMG 24006KT=
200609101500 METAR MROC 101500Z 11007KT CAVOK 26/19 A3002 BECMG 24006KT=
200609101600 METAR MROC 101600Z 23007KT 9999 FEW030 BKN120 24/20 A3003 NOSIG=
200609101700 METAR MROC 101700Z 22007KT 9999 FEW030 BKN120 25/20 A3002 BECMG 7000=
200609101800 METAR MROC 101800Z 25006KT 9999 FEW030 SCT120 BKN250 26/20 A2999 NOSIG=
200609101900 METAR MROC 101900Z 25010KT 9999 FEW020TCU SCT035 27/21 A2995 BECMG 7000 VCSH RMK CB RASH DST ENE=
200609102000 METAR MROC 102000Z 24012KT 9999 -TS VCSH FEW015CB SCT025 BKN250 25/22 A2992 BECMG 3000 TSRA RMK RASH VIS 8KMS TO N/ NE/S TS S QUAD=
200609102100 METAR MROC NIL=
200609102200 METAR MROC 102200Z 07004KT 8000 RA FEW010CB SCT025 BKN100 21/19 A2993 RMK VIS S UNL=
200609102300 METAR MROC 102300Z 10005KT 8000 RA FEW010 SCT030 BKN100 20/20 A2995 RMK VIS S UNL=
200609110000 METAR MROC 110000Z 07004KT 9999 FEW030 OVC100 21/20 A2996 NOSIG=
200609110100 METAR MROC 110100Z 09003KT 9999 -RA OVC100 20/19 A2996 NOSIG=
200609110200 METAR MROC 110200Z 20002KT CAVOK 20/19 A2997 NOSIG=
200609110300 METAR MROC 110300Z 27002KT 9999 FEW006 BKN120 20/20 A3000 NOSIG=
200609110400 METAR MROC 110400Z 00000KT 9999 FEW015 SCT120 BKN250 20/19 A3002 NOSIG=
200609110500 METAR MROC 110500Z 02004KT 9999 FEW020 SCT250 19/19 A3001 NOSIG=
200609110600 METAR MROC 110600Z 09002KT CAVOK 18/18 A3001 NOSIG=
200609110700 METAR MROC 110700Z 08003KT CAVOK 18/17 A3000 NOSIG=
200609110800 METAR MROC 110800Z 05006KT CAVOK 18/17 A2998 NOSIG=
200609110900 METAR MROC 110900Z 06007KT 9999 FEW030 SCT120 17/16 A2997 BECMG CAVOK=
200609111000 METAR MROC 111000Z 07005KT 9999 SCT030 SCT100 18/17 A2996 NOSIG=
200609111100 METAR MROC 111100Z 04004KT CAVOK 17/16 A2996 NOSIG=
200609111200 METAR MROC 111200Z 10003KT CAVOK 18/17 A2995 NOSIG=
200609111300 METAR MROC 111300Z 04004KT CAVOK 21/18 A2999 NOSIG=
200609111400 METAR MROC 111400Z 08005KT CAVOK 24/19 A3002 NOSIG=
200609111500 METAR MROC 111500Z 05003KT CAVOK 26/19 A3002 NOSIG=
200609111600 METAR MROC 111600Z 00000KT 9999 FEW040 BKN250 28/19 A3003 BECMG 24006KT=
200609111700 METAR MROC 111700Z 22008KT 9999 FEW040 BKN250 26/21 A3002 NOSIG=
200609111800 METAR MROC 111800Z 24012KT 9999 SCT035 BKN250 26/22 A3000 NOSIG=
200609111900 METAR MROC 111900Z 22010KT 9999 SCT035 BKN250 26/22 A2997 NOSIG=
200609112000 METAR MROC 112000Z 23010KT 9999 FEW015TCU SCT040 25/21 A2995=
200609112100 METAR MROC 112100Z 23010KT 9999 SCT020TCU SCT200 25/21 A2994=
200609112200 METAR MROC 112200Z 22006KT 5000 -RA SCT010 SCT030 23/22 A2993=
200609112300 METAR MROC 112300Z 22005KT 8000 VCFG FEW008 SCT035 23/22 A2994 RERA=
200609120000 METAR MROC 120000Z 24005KT 5000 BR FEW003 SCT015 22/22 A2997 RMK VIS RED SW W=
200609120100 METAR MROC 120100Z 24003KT 6000 BR FEW004 FEW025 22/21 A2998 RMK VIS RED SW W=
200609120200 METAR MROC 120200Z 00000KT 8000 VCFG FEW004 SCT020 22/21 A3000 RMK BR ARND=
200609120300 METAR MROC 120300Z 00000KT 7000 VCFG FEW005 SCT010 22/21 A3002 NOSIG=
200609120400 METAR MROC 120400Z 33004KT 9999 FEW008 BKN250 22/21 A3003 BECMG RMK=
200609120500 METAR MROC 120500Z VRB03KT 9999 2000SW BR FEW001 SCT005 BKN250 21/20 A3002 NOSIG=
200609120600 METAR MROC 120600Z 29002KT 9999 VCFG FEW002 SCT130 BKN250 20/19 A3002 BECMG RMK VIS 5KMS TO S SSW=
200609120700 METAR MROC 120700Z 04003KT 9999 FEW030 BKN250 20/18 A2999 NOSIG=
200609120800 METAR MROC 120800Z 05005KT CAVOK 19/18 A2997 BECMG RMK LTNG DST S=
200609120900 METAR MROC 120900Z 08005KT CAVOK 19/17 A2996 BECMG RMK LTNG DST SSW=
200609121000 METAR MROC 121000Z 03005KT CAVOK 19/17 A2996 NOSIG=
200609121100 METAR MROC 121100Z 05007KT CAVOK 19/17 A2997 NOSIG=
200609121200 METAR MROC 121200Z 05008KT CAVOK 19/17 A2996 NOSIG=
200609121300 METAR MROC 121300Z 10010KT CAVOK 23/18 A2998=
200609121400 METAR MROC 121400Z 11010KT CAVOK 25/18 A3001=
200609121500 METAR MROC 121500Z 10012KT CAVOK 26/18 A3001=
200609121600 METAR MROC 121600Z 10010KT CAVOK 28/19 A3001=
200609121700 METAR MROC 121700Z 14005KT 9999 SCT030 SCT250 29/19 A3001 BECMG 24006KT=
200609121800 METAR MROC 121800Z 22007KT 9999 SCT025 SCT250 26/22 A2999=
200609121900 METAR MROC 121900Z 23011KT 9000 SCT015TCU SCT040 25/22 A2998 RMK RN ARND=
200609122000 METAR MROC 122000Z 22005KT 9999 FEW015 SCT030 SCT180 25/21 A2997=
200609122100 METAR MROC 122100Z 24008KT 5000 -RA BR SCT005 FEW020TCU BKN120 21/21 A2998 NOSIG=
200609122200 METAR MROC 122200Z 30005KT 7000 VCFG FEW002 BKN010 21/20 A2997 RMK VSBY W NW UNL NOSIG=
200609122300 METAR MROC 122300Z 27008KT 9999 FEW005 OVC120 22/20 A2997 NOSIG=
200609130000 METAR MROC 130000Z 00000KT CAVOK 21/20 A2998 NOSIG=
200609130100 METAR MROC 130100Z 02003KT CAVOK 21/20 A2998 NOSIG=
200609130200 METAR MROC NIL=
200609130300 METAR MROC 130300Z 04006KT CAVOK 21/18 A3001 NOSIG=
200609130400 METAR MROC 130400Z 06005KT CAVOK 21/18 A3002 NOSIG=
200609130500 METAR MROC 130500Z 07005KT CAVOK 20/17 A3000 NOSIG=
200609130600 METAR MROC 130600Z 04007KT CAVOK 19/16 A3000=
200609130700 METAR MROC 130700Z 04006KT CAVOK 19/16 A2998 NOSIG=
200609130800 METAR MROC NIL=
200609130900 METAR MROC 130900Z 13002KT CAVOK 20/15 A2996=
200609131000 METAR MROC 131000Z 06003KT CAVOK 18/15 A2997=
200609131100 METAR MROC 131100Z 08004KT CAVOK 18/16 A2997=
200609131200 METAR MROC 131200Z 06006KT CAVOK 18/16 A2997=
200609131300 METAR MROC 131300Z 07003KT CAVOK 22/17 A2999 RMK CB DST S=
200609131400 METAR MROC 131400Z 07005KT CAVOK 26/17 A3001 RMK FEW090 BKN280 NOSIG=
200609131500 METAR MROC 131500Z 11010KT CAVOK 27/18 A3000 NOSIG=
200609131600 METAR MROC 131600Z 09011KT CAVOK 27/18 A2998 NOSIG=
200609131700 METAR MROC 131700Z 10010KT CAVOK 28/18 A2997 NOSIG=
200609131800 METAR MROC 131800Z 10010KT 9999 SCT040 BKN280 29/18 A2995 NOSIG=
200609131900 METAR MROC 131900Z VRB04KT 9999 SCT040 SCT120 27/21 A2994 BECMG 24006=
200609132000 METAR MROC 132000Z 23010KT 9999 SCT030 BKN120 24/22 A2993 RMK RN NW N NE NOSIG=
200609132100 METAR MROC 132100Z 24009KT 7000 VCSH SCT012TCU SCT030 24/22 A2993 RMK VSBY E SE S UNL BECMG 5000 RA=
200609132200 METAR MROC 132200Z 22004KT 9999 VCSH FEW004 SCT025 BKN220 22/18 A2992 RMK VIS 8000SW TS DST SW W ESTO ES UNA PRUEBA=
200609132300 METAR MROC 132300Z 08002KT 9999 SCT015 BKN080 20/19 A2995 RMK RN DST S=
200609140000 METAR MROC 140000Z 01002KT 9999 RA OVC090 21/19 A2995 NOSIG=
200609140100 METAR MROC 140100Z VRB03KT 9999 -RA OVC090 20/20 A2998 NOSIG=
200609140200 METAR MROC 140200Z 00000KT 9999 FEW015 OVC110 20/19 A2999 NOSIG=
200609140300 METAR MROC 140300Z 00000KT CAVOK 20/19 A3001 REDZ=
200609140400 METAR MROC 140400Z 01005KT CAVOK 20/18 A3002=
200609140500 METAR MROC 140500Z 03006KT CAVOK 20/18 A3001 NOSIG=
200609140600 METAR MROC 140600Z 05006KT CAVOK 20/18 A3001=
200609140700 METAR MROC NIL=
200609140800 METAR MROC 140800Z 02006KT CAVOK 19/17 A2996=
200609140900 METAR MROC 140900Z 10004KT CAVOK 19/17 A2996=
200609141000 METAR MROC 141000Z 02003KT CAVOK 18/17 A2997 NOSIG=
200609141100 METAR MROC 141100Z 05005KT CAVOK 18/16 A2998 NOSIG=
200609141200 METAR MROC 141200Z 06006KT CAVOK 18/16 A3000 NOSIG=
200609141300 METAR MROC 141300Z 10004KT CAVOK 22/18 A3002 NOSIG=
200609141400 METAR MROC 141400Z 35006KT CAVOK 24/18 A3004 NOSIG=
200609141500 METAR MROC 141500Z 10009KT CAVOK 27/18 A3003 NOSIG=
200609141600 METAR MROC 141600Z 10012KT 9999 FEW035 SCT250 28/18 A3003 NOSIG=
200609141700 METAR MROC 141700Z 22006KT 9999 SCT030 BKN250 27/21 A3003 NOSIG=
200609141800 METAR MROC 141800Z 13004KT 9999 FEW020TCU SCT030 BKN250 27/19 A3000 NOSIG=
200609141900 METAR MROC 141900Z 25014KT 9999 FEW015CB SCT030 SCT250 26/22 A2996 NOSIG=
200609142000 METAR MROC 142000Z 01010KT 2000 0800N -TSRA SCT008CB BKN015 21/19 A2997 BECMG 5000 2000SW -TSRA=
200609142100 METAR MROC 142100Z 17005KT 9999 -RA FEW004 SCT025 BKN100 20/19 A2995 NOSIG=
200609142200 METAR MROC 142200Z VRB03KT 9999 -RA FEW005 SCT030 OVC100 21/20 A2998 NOSIG=
200609142300 METAR MROC 142300Z 02002KT 9999 FEW030 OVC100 21/20 A2998 RERA NOSIG=
200609150000 METAR MROC 150000Z 00000KT 9999 FEW030 BKN120 21/20 A3000 NOSIG=
200609150100 METAR MROC 150100Z 11002KT 9999 FEW030 BKN120 20/19 A3002 NOSIG=
200609150200 METAR MROC 150200Z 11003KT 9999 FEW030 BKN120 20/19 A3004 NOSIG=
200609150300 METAR MROC 150300Z 10007KT CAVOK 20/18 A3004 RMK FEW100 BKN280 LTNG DST S NOSIG=
200609150400 METAR MROC 150400Z 04006KT CAVOK 20/17 A3006 NOSIG=
200609150500 METAR MROC 150500Z 03008KT CAVOK 19/17 A3005=
200609150600 METAR MROC 150600Z 16002KT CAVOK 19/16 A3004=
200609150700 METAR MROC 150700Z 00000KT CAVOK 18/16 A3003=
200609150800 METAR MROC 150800Z 05006KT CAVOK 17/15 A2999 NOSIG=
200609150900 METAR MROC 150900Z 08007KT CAVOK 17/15 A2999 NOSIG=
200609151000 METAR MROC 151000Z 05006KT CAVOK 17/15 A2999 NOSIG=
200609151100 METAR MROC 151100Z 03006KT CAVOK 17/15 A2999 RMK FEW080 BKN280 NOSIG=
200609151200 METAR MROC 151200Z 05006KT CAVOK 18/15 A3000 NOSIG=
200609151300 METAR MROC 151300Z 03007KT CAVOK 20/16 A3001 NOSIG=
200609151400 METAR MROC 151400Z 07008KT CAVOK 25/18 A3003 NOSIG=
200609151500 METAR MROC 151500Z 08012KT CAVOK 26/17 A3003 NOSIG=
200609151600 METAR MROC 151600Z 08010KT CAVOK 27/18 A3004 NOSIG=
200609151700 METAR MROC 151700Z 10013KT 9999 FEW035 BKN120 27/18 A3002 NOSIG=
200609151800 METAR MROC 151800Z 11015KT 9999 FEW035 BKN250 26/19 A3000 NOSIG=
200609151900 METAR MROC 151900Z 10011KT 9999 FEW030 BKN250 26/19 A2999 BECMG RMK PCPN DST NE=
200609152000 METAR MROC 152000Z 11010KT 9999 FEW030 BKN250 26/19 A2996=
200609152100 METAR MROC 152100Z 10012KT 9999 FEW030 BKN250 26/19 A2995 NOSIG=
200609152200 METAR MROC 152200Z 11008KT 9999 FEW030 BKN250 24/19 A2995 NOSIG=
200609152300 METAR MROC 152300Z 10009KT 9999 FEW040 BKN250 24/18 A2995 NOSIG=
200609160000 METAR MROC 160000Z 10008KT 9999 FEW040 BKN250 23/18 A2996 NOSIG=
200609160100 METAR MROC 160100Z 25006KT CAVOK 21/20 A2998=
200609160200 METAR MROC 160200Z 27004KT CAVOK 21/20 A3000 NOSIG=
200609160300 METAR MROC 160300Z 26003KT 9999 SCT007 SCT250 21/20 A3003 NOSIG=
200609160400 METAR MROC 160400Z 00000KT 9999 SCT005 SCT015 21/20 A3004 NOSIG=
200609160500 METAR MROC 160500Z 08006KT 9999 FEW030 SCT250 20/18 A3001 RMK CB TS DST S SSW=
200609160600 METAR MROC 160600Z 09011KT CAVOK 21/17 A2999 RMK LTNG DST S SSW SW=
200609160700 METAR MROC 160700Z 09008KT CAVOK 21/16 A2998 NOSIG=
200609160800 METAR MROC 160800Z 05008KT CAVOK 20/16 A2996 NOSIG=
200609160900 METAR MROC 160900Z 06009KT CAVOK 20/16 A2995 NOSIG=
200609161000 METAR MROC 161000Z 12002KT CAVOK 19/16 A2998 NOSIG=
200609161100 METAR MROC 161100Z 00000KT CAVOK 19/16 A2999 RMK LTNG DST SSE NOSIG=
200609161200 METAR MROC 161200Z 00000KT CAVOK 20/17 A2999 RMK DUE ST SW=
200609161300 METAR MROC 161300Z 00000KT CAVOK 21/18 A3001 NOSIG=
200609161400 METAR MROC 161400Z 30003KT CAVOK 24/18 A3002 NOSIG=
200609161500 METAR MROC 161500Z 25005KT CAVOK 25/18 A3004 NOSIG=
200609161600 METAR MROC 161600Z 22007KT 9999 FEW040 BKN120 25/19 A3004 NOSIG=
200609161700 METAR MROC 161700Z 23008KT 9999 FEW040 BKN120 25/20 A3002 NOSIG=
200609161800 METAR MROC 161800Z 26010KT 9999 SCT040 BKN120 26/21 A2999 NOSIG=
200609161900 METAR MROC 161900Z 22008KT 9999 FEW015CB BKN025 27/22 A2995 BECMG 8000=
200609162000 METAR MROC 162000Z 20006KT 8000 -TSRA SCT010CB SCT035 24/21 A2995=
200609162100 METAR MROC 162100Z 04003KT 7000 -RA FEW010 OVC100 21/20 A2996=
200609162200 METAR MROC 162200Z 05004KT 9000 DZ FEW015 OVC120 21/20 A2994=
200609162300 METAR MROC 162300Z 07005KT 9000 DZ FEW015 BKN100 21/20 A2995 RMK BR ARND=
200609170000 METAR MROC 170000Z 10006KT 9999 -DZ FEW025 BKN120 21/19 A2994=
200609170100 METAR MROC 170100Z 04008KT CAVOK 22/19 A2996 RERA=
200609170200 METAR MROC 170200Z 07004KT CAVOK 21/19 A2997=
200609170300 METAR MROC 170300Z 04007KT CAVOK 22/18 A2999 NOSIG=
200609170400 METAR MROC 170400Z 10005KT CAVOK 21/18 A3000 NOSIG=
200609170500 METAR MROC 170500Z 00000KT CAVOK 20/19 A3001 NOSIG=
200609170600 METAR MROC 170600Z 00000KT 9999 FEW025 SCT120 20/19 A3000 NOSIG=
200609170700 METAR MROC 170700Z 00000KT 9999 FEW025 SCT120 21/19 A2997 NOSIG=
200609170800 METAR MROC 170800Z 09004KT CAVOK 20/19 A2995 NOSIG=
200609170900 METAR MROC 170900Z 07004KT CAVOK 20/18 A2993 NOSIG=
200609171000 METAR MROC 171000Z 06004KT CAVOK 19/18 A2993 NOSIG=
200609171100 METAR MROC 171100Z 00000KT CAVOK 19/17 A2996 NOSIG=
200609171200 METAR MROC 171200Z 02006KT CAVOK 19/17 A2997 BECMG RMK CB LINE DST SSE S SSW=
200609171300 METAR MROC 171300Z 10006KT CAVOK 23/18 A2999=
200609171400 METAR MROC 171400Z 08009KT CAVOK 23/18 A2999=
200609171500 METAR MROC 171500Z 11007KT CAVOK 26/18 A2999=
200609171600 METAR MROC 171600Z 08004KT CAVOK 27/18 A3000=
200609171700 METAR MROC 171700Z 25005KT 9999 SCT025 SCT250 28/19 A2998=
200609171800 METAR MROC 171800Z 24010KT 9999 SCT025TCU SCT250 27/21 A2995=
200609171900 METAR MROC 171900Z 22009KT 9999 SCT020TCU SCT180 26/21 A2993=
200609172000 METAR MROC 172000Z 11014KT 1000 TSRA SCT005CB SCT020 20/17 A2995=
200609172100 METAR MROC NIL=
200609172105 METAR MROC 172105Z 09005KT 9999 FEW015 BKN100 19/18 A2991 RERA=
200609172200 METAR MROC 172200Z 07006KT 9999 FEW020 BKN120 21/19 A2990=
200609172300 METAR MROC 172300Z 14007KT 9999 FEW015 BKN190 21/20 A2992 RMK BR ARND=
200609180000 METAR MROC 180000Z 00000KT CAVOK 21/20 A2994=
200609180100 METAR MROC 180100Z 00000KT CAVOK 20/20 A3000=
200609180300 METAR MROC 180300Z 07003KT CAVOK 20/19 A3000 NOSIG=
200609180400 METAR MROC 180400Z 36004KT CAVOK 21/19 A3002=
200609180500 METAR MROC 180500Z 22005KT CAVOK 20/19 A3002=
200609180600 METAR MROC 180600Z 32002KT CAVOK 20/19 A3000 NOSIG=
200609180700 METAR MROC 180700Z 10003KT 9999 FEW030 BKN100 19/19 A2998=
200609180800 METAR MROC 180800Z 07006KT CAVOK 20/19 A2996=
200609180900 METAR MROC 180900Z 04007KT CAVOK 20/19 A2994=
200609181000 METAR MROC 181000Z 07005KT CAVOK 19/18 A2994=
200609181100 METAR MROC 181100Z 10003KT CAVOK 19/18 A2994=
200609181200 METAR MROC 181200Z 00000KT CAVOK 19/18 A2997 NOSIG=
200609181300 METAR MROC 181300Z 04003KT CAVOK 22/18 A2999=
200609181400 METAR MROC 181400Z 06002KT CAVOK 24/18 A3001 NOSIG=
200609181500 METAR MROC 181500Z 23007KT 9999 FEW030 SCT280 24/20 A3004 NOSIG=
200609181600 METAR MROC 181600Z 23008KT 9999 SCT020TCU 25/20 A2987 RMK RN ENE NOSIG=
200609181700 METAR MROC 181700Z 23007KT 9999 SCT020TCU SCT080 25/20 A3002 RMK RN E/N NOSIG=
200609181800 METAR MROC 181800Z 23005KT 9999 SCT015TCU BKN025 25/20 A3000 RMK RN DST ARND NOSIG=
200609181900 METAR MROC 181900Z 22009KT 9999 FEW015TCU SCT025 SCT120 24/20 A2997 RMK RN DST NW NOSIG=
200609182000 METAR MROC NIL=
200609182300 METAR MROC 182300Z 01006KT 9999 RA OVC090 21/19 A3000 NOSIG=
200609190000 METAR MROC 190000Z 05006KT 9999 RA OVC090 20/19 A3002 NOSIG=
200609190100 METAR MROC 190100Z 09008KT 9999 RA OVC090 19/19 A3004 NOSIG=
200609190200 METAR MROC 190200Z 05008KT 9999 -DZ BKN120 SCT250 20/18 A3004 NOSIG=
200609190300 METAR MROC 190300Z 11005KT 9999 FEW025 BKN120 19/18 A3004=
200609190400 METAR MROC 190400Z 00000KT 9999 FEW025 BKN120 19/19 A3005=
200609190500 METAR MROC 190500Z 00000KT 9999 FEW025 BKN120 19/19 A3006=
200609190600 METAR MROC 190600Z 00000KT CAVOK 19/18 A3005 NOSIG=
200609190700 METAR MROC 190700Z 08003KT CAVOK 19/18 A3003 NOSIG=
200609190800 METAR MROC NIL=
200609190900 METAR MROC NIL=
200609191000 METAR MROC 191000Z 05005KT CAVOK 17/16 A3000 NOSIG=
200609191100 METAR MROC 191100Z 08004KT CAVOK 18/17 A3002 NOSIG=
200609191200 METAR MROC 191200Z 08004KT CAVOK 18/16 A3004 NOSIG=
200609191300 METAR MROC 191300Z 11003KT CAVOK 21/18 A3007 NOSIG=
200609191400 METAR MROC 191400Z 10003KT CAVOK 22/18 A3010 NOSIG=
200609191500 METAR MROC 191500Z 00000KT 9999 FEW030 BKN120 25/18 A3010 NOSIG=
200609191600 METAR MROC 191600Z 02003KT 9999 FEW030 SCT250 26/19 A3009 NOSIG=
200609191700 METAR MROC 191700Z 04003KT 9999 FEW030 BKN250 28/19 A3006 NOSIG=
200609191800 METAR MROC 191800Z 23007KT 9999 FEW030 SCT120 SCT250 28/19 A3002 NOSIG=
200609191900 METAR MROC 191900Z 22004KT 9999 FEW030 BKN250 28/18 A2998 NOSIG=
200609192000 METAR MROC 192000Z 23009KT 9999 3000SE VCSH FEW020CB SCT030 28/19 A2996 BECMG 5000 -TSRA=
200609192100 METAR MROC 192100Z 21005KT 9999 1000SW TSRA SCT012CB BKN025 24/20 A2995 BECMG 1000 +TSRA RMK TS S SW=
200609192120 METAR MROC 192120Z 07006KT 2000 TSRA SCT015CB SCT025 BKN100 21/20 A2998 BECMG 3000 RMK ACUMULACION DE AGUA SOBRE LA PISTA=
200609192200 METAR MROC 192200Z 13003KT 9999 4000N -RA VCSH FEW005 SCT025 BKN100 20/20 A2998 NOSIG=
200609192300 METAR MROC 192300Z 10005KT 9999 -RA FEW020 BKN100 20/20 A2999 BECMG RMK CB TLNG DST SE S=
200609200000 METAR MROC 200000Z 08004KT 9999 -RA FEW025 OVC100 20/20 A3001 NOSIG=
200609200100 METAR MROC 200100Z 06005KT 9999 -RA OVC100 20/19 A3003 NOSIG=
200609200200 METAR MROC 200200Z 07005KT 9999 -RA OVC110 20/19 A3004 NOSIG=
200609200300 METAR MROC 200300Z 10003KT CAVOK 20/19 A3005 NOSIG=
200609200400 METAR MROC 200400Z 19002KT CAVOK 20/19 A3006=
200609200500 METAR MROC 200500Z 24003KT 9999 3000SW BR FEW001 SCT010 BKN120 20/20 A3005=
200609200600 METAR MROC 200600Z 27003KT 9999 FEW010 SCT025 BKN120 20/20 A3003=
200609200700 METAR MROC 200700Z 34004KT 9999 FEW025 BKN120 20/20 A3001=
200609200800 METAR MROC 200800Z 00000KT 9999 SCT015 BKN120 20/20 A2999 NOSIG=
200609200900 METAR MROC 200900Z 10004KT 9999 FEW015 BKN120 20/19 A2998 NOSIG=
200609201000 METAR MROC 201000Z 07005KT CAVOK 20/18 A2997 NOSIG=
200609201100 METAR MROC 201100Z 02004KT 9999 FEW025 SCT120 20/18 A2999 NOSIG=
200609201200 METAR MROC 201200Z 07003KT 9999 FEW035 BKN120 19/18 A3000 RMK VSBY S 6KM LOW ST NOSIG=
200609201300 METAR MROC 201300Z 00000KT 9999 VCFG FEW002 BKN100 20/19 A3002 BECMG RMK VIS 6KMS TO S SSW=
200609201400 METAR MROC 201400Z 22003KT 9999 FEW005 BKN070 22/20 A3006 BECMG RMK HZY=
200609201500 METAR MROC 201500Z 23005KT 9999 FEW010 SCT070 BKN120 22/20 A3007 RMK HZY NOSIG=
200609201600 METAR MROC 201600Z 24005KT 9999 FEW010 SCT080 BKN250 24/20 A3007 BECMG RMK HZY=
200609201700 METAR MROC 201700Z 24004KT 9999 SCT020 SCT120 24/20 A3005 NOSIG=
200609201800 METAR MROC 201800Z 22005KT 9999 VCSH FEW010 SCT020 BKN100 24/20 A3002 BECMG 3000 RA RMK VIS 5KMS TO SE=
200609201900 METAR MROC 201900Z 11003KT 9999 VCSH FEW020TCU BKN120 23/20 A2998 BECMG 3000 RMK VIS 6KMS TO ENE E=
200609202000 METAR MROC 202000Z 12004KT 9999 BKN020 BKN120 26/21 A2995 NOSIG=
200609202100 METAR MROC 202100Z 10008KT 9999 FEW020 SCT120 BKN250 24/19 A2993 NOSIG=
200609202200 METAR MROC 202200Z 00000KT 9999 FEW015TCU SCT025 BKN250 25/20 A2993 NOSIG=
200609202300 METAR MROC 202300Z 18003KT 9999 FEW015TCU SCT025 BKN100 23/20 A2995 NOSIG=
200609210000 METAR MROC 210000Z 27004KT 9999 FEW035 BKN100 22/20 A2998 NOSIG=
200609210100 METAR MROC 210100Z 33006KT 9999 5000SW -RA BR FEW001 SCT035 BKN100 20/19 A3002=
200609210200 METAR MROC 210200Z 30004KT 9999 5000SW -RA BR FEW003 BKN100 20/19 A3000 NOSIG=
200609210300 METAR MROC 210300Z 09004KT 9999 -RA OVC090 20/19 A3005 NOSIG=
200609210400 METAR MROC 210400Z 07003KT 9999 RA OVC090 20/19 A3005 NOSIG=
200609210500 METAR MROC 210500Z 07005KT 9999 -DZ BKN120 SCT250 20/19 A3003 NOSIG=
200609210600 METAR MROC 210600Z 08005KT 9999 +DZ OVC120 20/19 A3000 NOSIG=
200609210700 METAR MROC 210700Z 07005KT 9999 -DZRA OVC100 20/18 A2998 NOSIG=
200609210800 METAR MROC 210800Z 06005KT CAVOK 19/18 A2996 NOSIG=
200609210900 METAR MROC 210900Z 08003KT CAVOK 19/18 A2995 NOSIG=
200609211000 METAR MROC 211000Z 06002KT CAVOK 18/16 A2995 NOSIG=
200609211100 METAR MROC 211100Z 08004KT CAVOK 19/16 A2995 NOSIG=
200609211200 METAR MROC 211200Z 06007KT CAVOK 20/17 A2996 RMK CB DST SW NOSIG=
200609211300 METAR MROC 211300Z 10003KT CAVOK 21/17 A2999=
200609211400 METAR MROC 211400Z 23007KT CAVOK 22/18 A3003 NOSIG=
200609211500 METAR MROC 211500Z 27007KT 9999 FEW040 SCT300 23/18 A3004=
200609211600 METAR MROC 211600Z 28004KT 9999 FEW010 SCT300 25/19 A3004=
200609211700 METAR MROC 211700Z 20003KT 9999 SCT035 SCT130 26/19 A3002 NOSIG=
200609211800 METAR MROC 211800Z 24008KT 9999 SCT035 SCT130 27/21 A2999 NOSIG=
200609211900 METAR MROC 211900Z 26011KT 9999 FEW020TCU BKN035 26/21 A2996 BECMG 8000 VCSH=
200609212000 METAR MROC 212000Z 22008KT 9999 FEW015CB BKN035 25/20 A2994 RMK RASH NE BECMG 8000 VCSH=
200609212100 METAR MROC 212100Z 23011KT 9999 FEW015CB BKN025 24/21 A2992 RMK VSBY NE NW 7KM DUE RN=
200609212200 METAR MROC 212200Z 22005KT 5000 VCSH FEW010CB BKN020 23/20 A2995 RMK VSBY N NE 3KM DUE RASH VSBY SE S SW UNL BECMG 3000 TSRA=
200609212300 METAR MROC 212300Z 28002KT 5000 RA BKN020 BKN100 19/18 A2998 NOSIG=
200609220000 METAR MROC 220000Z 02004KT 9999 RA SCT020 OVC100 20/19 A3000 RMK VSBY W 7KM NOSIG=
200609220100 METAR MROC 220100Z 00000KT 6000 RA VCFG FEW002 SCT025 OVC100 19/19 A3004 NOSIG=
200609220200 METAR MROC 220200Z 34503KT 7000 RA VCFG FEW002 SCT025 OVC100 20/19 A3005 NOSIG=
200609220300 METAR MROC 220300Z 09005KT 9999 -RA OVC100 20/19 A3004 NOSIG=
200609220400 METAR MROC 220400Z 07007KT CAVOK 20/19 A3001 NOSIG=
200609220500 METAR MROC 220500Z 06007KT CAVOK 21/19 A2998 NOSIG=
200609220600 METAR MROC 220600Z 02005KT CAVOK 20/18 A2998 NOSIG=
200609220700 METAR MROC 220700Z 00000KT CAVOK 19/18 A2997 NOSIG=
200609220800 METAR MROC 220800Z 06008KT CAVOK 18/17 A2994 NOSIG=
200609220900 METAR MROC 220900Z 05008KT CAVOK 19/17 A2993 NOSIG=
200609221000 METAR MROC 221000Z 09006KT CAVOK 19/17 A2995 NOSIG=
200609221100 METAR MROC 221100Z 03003KT CAVOK 18/17 A2996 NOSIG=
200609221200 METAR MROC 221200Z 04004KT CAVOK 18/16 A2999 BECMG RMK CB DST S=
200609221300 METAR MROC 221300Z 10003KT CAVOK 21/18 A3001=
200609221400 METAR MROC 221400Z 00000KT CAVOK 24/18 A3003=
200609221500 METAR MROC 221500Z 00000KT CAVOK 26/20 A3004=
200609221600 METAR MROC 221600Z 23007KT CAVOK 26/20 A3003=
200609221700 METAR MROC 221700Z 22008KT 9999 FEW035 26/20 A3001=
200609221800 METAR MROC 221800Z 24011KT 9999 SCT030 27/21 A2999=
200609221900 METAR MROC 221900Z 24010KT 9999 SCT025 SCT250 26/21 A2997=
200609222000 METAR MROC 222000Z 24009KT 9999 SCT025 SCT250 26/22 A2994=
200609222100 METAR MROC 222100Z 22008KT 9999 -RA SCT010TCU SCT025 SCT280 24/22 A2992 RMK VSBY N NE 5KM DUE RASH NOSIG=
200609222200 METAR MROC 222200Z 22005KT 9999 -RA SCT012 SCT025 BKN280 23/22 A2993 NOSIG=
200609222300 METAR MROC 222300Z 22004KT 9999 SCT006 SCT025 23/22 A2994 RMK VSBY N NE 6KM DUE LOW ST NOSIG=
200609230000 METAR MROC 230000Z 25003KT 9999 VCFG SCT006 BKN090 22/21 A2995 RMK VSBY NW N NE 5KM LOW ST NOSIG=
200609230100 METAR MROC 230100Z 00000KT 6000 VCFG SCT005 22/21 A2996 NOSIG=
200609230200 METAR MROC 230200Z 13002KT 9999 FEW008 SCT280 21/21 A2997 NOSIG=
200609230300 METAR MROC 230300Z VRB03KT CAVOK 21/20 A2998 NOSIG=
200609230400 METAR MROC 230400Z VRB03KT CAVOK 21/20 A2999 NOSIG=
200609230500 METAR MROC 230500Z 03005KT CAVOK 20/19 A2999 NOSIG=
200609230600 METAR MROC 230600Z 30003KT CAVOK 21/19 A2996 NOSIG=
200609230700 METAR MROC 230700Z 09010KT CAVOK 21/19 A2993 NOSIG=
200609230800 METAR MROC 230800Z 09012KT CAVOK 22/19 A2991=
200609230900 METAR MROC NIL=
200609231000 METAR MROC 231000Z 10011KT CAVOK 22/17 A2991 NOSIG=
200609231100 METAR MROC 231100Z 09009KT CAVOK 21/17 A2993 NOSIG=
200609231200 METAR MROC 231200Z VRB03KT CAVOK 20/17 A2994 NOSIG=
200609231300 METAR MROC 231300Z 00000KT CAVOK 23/18 A2996 RMK TCU DST SW=
200609231400 METAR MROC 231400Z 10008KT CAVOK 27/18 A2998 NOSIG=
200609231500 METAR MROC 231500Z 09009KT 9999 FEW030 SCT280 28/18 A3000 NOSIG=
200609231600 METAR MROC 231600Z 09006KT 9999 FEW030 SCT280 29/18 A2999 NOSIG=
200609231700 METAR MROC 231700Z 09006KT 9999 FEW030 SCT280 29/19 A2996 NOSIG=
200609231800 METAR MROC 231800Z VRB06KT 9999 BKN025 27/21 A2994 BECMG 24006KT VCSH FEW015TCU BKN025=
200609231900 METAR MROC 231900Z 22007KT 9999 SCT030 SCT280 28/22 A2991 NOSIG=
200609232000 METAR MROC 232000Z 23010KT 9999 FEW020TCU SCT030 28/22 A2989 NOSIG=
200609232100 METAR MROC 232100Z 22011KT 9999 SCT015CB BKN030 27/23 A2987 RMK RN DST N NE=
200609232200 METAR MROC 232200Z 28011KT 9999 4000W TSRA SCT010CB BKN020 21/19 A2989 RMK TS S SW W=
200609232300 METAR MROC 232300Z 08002KT 9999 FEW006 SCT030 SCT250 21/20 A2990 NOSIG=
200609240000 METAR MROC 240000Z 24004KT 9999 FEW008 SCT030 SCT250 22/20 A2992 RMK=
200609240100 METAR MROC 240100Z 02008KT 9999 FEW020 SCT040 22/21 A2994 RMK LTNG DST S SW=
200609240200 METAR MROC 240200Z 00000KT CAVOK 22/20 A2994 RMK LTNG DST SSW SW=
200609240300 METAR MROC 240300Z 10004KT CAVOK 21/20 A2996 RMK BR S/SW=
200609240400 METAR MROC 240400Z 07005KT CAVOK 21/18 A2995=
200609240500 METAR MROC 240500Z 10009KT CAVOK 21/18 A2993=
200609240600 METAR MROC 240600Z 08006KT CAVOK 21/18 A2992=
200609240700 METAR MROC 240700Z 02004KT CAVOK 20/17 A2991=
200609240800 METAR MROC 240800Z 09007KT CAVOK 21/18 A2988=
200609240900 METAR MROC 240900Z 10004KT CAVOK 21/17 A2988=
200609241000 METAR MROC NIL=
200609241100 METAR MROC 241100Z 10008KT CAVOK 21/17 A2989=
200609241200 METAR MROC 241200Z 10008KT CAVOK 22/17 A2990=
200609241300 METAR MROC 241300Z 11016KT CAVOK 23/17 A2991 NOSIG=
200609241400 METAR MROC 241400Z 10012KT CAVOK 25/17 A2994 NOSIG=
200609241500 METAR MROC 241500Z 09011KT CAVOK 27/16 A2995 NOSIG=
200609241600 METAR MROC 241600Z 09010KT CAVOK 28/16 A2995 NOSIG=
200609241700 METAR MROC 241700Z 08011KT 9999 FEW045 SCT250 29/16 A2995 NOSIG=
200609241800 METAR MROC 241800Z 08009KT 9999 FEW035 BKN280 29/16 A2992 NOSIG=
200609241900 METAR MROC 241900Z 09006KT 9999 FEW035 BKN280 30/15 A2989 RMK TCU DST SW BECMG 23008KT=
200609242000 METAR MROC 242000Z 11007KT 9999 FEW025TCU FEW030 BKN280 30/14 A2986 RMK CB DST SW BECMG 23008KT=
200609242100 METAR MROC 242100Z 23010KT 9999 SCT020TCU BKN250 25/23 A2987 BECMG RMK PCPN DST WNW NW=
200609242200 METAR MROC 242200Z 25012KT 9999 FEW020TCU SCT035 BKN250 23/21 A2988 NOSIG=
200609242300 METAR MROC 242300Z 28005KT 9999 SCT020 BKN250 23/21 A2989 NOSIG=
200609250000 METAR MROC 250000Z 22002KT 9999 FEW015TCU BKN035 23/20 A2992 BECMG 7000 -RA RMK PCPN DST N=
200609250040 METAR MROC 250040Z 19002KT 9999 RA FEW015 BKN035 22/20 A2994 RMK VIS 7KMS TO E=
200609250100 METAR MROC 250100Z 07007KT 8000 -RA FEW020 BKN035 20/19 A2995 BECMG RMK WET RNY=
200609250200 METAR MROC 250200Z 09003KT 9999 FEW020 OVC120 21/20 A2997 RERA NOSIG=
200609250300 METAR MROC 250300Z 08003KT CAVOK 21/19 A2999 NOSIG=
200609250400 METAR MROC 250400Z 11005KT CAVOK 20/18 A2999=
200609250500 METAR MROC 250500Z 08007KT CAVOK 20/17 A2999=
200609250600 METAR MROC 250600Z 02006KT CAVOK 19/17 A2998 RMK LTNG DST S=
200609250700 METAR MROC 250700Z 05006KT CAVOK 19/17 A2997=
200609250800 METAR MROC 250800Z 060006KT CAVOK 18/16 A2995 NOSIG=
200609250900 METAR MROC 250900Z 06007KT CAVOK 18/16 A2993 NOSIG=
200609251000 METAR MROC NIL=
200609251100 METAR MROC 251100Z 07008KT CAVOK 20/15 A2994 NOSIG=
200609251200 METAR MROC 251200Z 05008KT CAVOK 18/15 A2994 NOSIG=
200609251300 METAR MROC 251300Z 04006KT CAVOK 22/17 A2997 NOSIG=
200609251400 METAR MROC 251400Z 11013KT CAVOK 24/16 A2996 NOSIG=
200609251500 METAR MROC 251500Z 09012KT CAVOK 26/17 A2998 NOSIG=
200609251600 METAR MROC 251600Z 09011KT CAVOK 27/17 A3000 NOSIG=
200609251700 METAR MROC 251700Z 10007KT 9999 FEW040 SCT300 29/17 A2998 NOSIG=
200609251800 METAR MROC 251800Z 23010KT 9999 SCT040 27/20 A2996 BECMG RMK FEW250=
200609251900 METAR MROC 251900Z 23014KT 9999 FEW025TCU SCT035 26/21 A2993 BECMG 5000 VCSH RMK RASH DST N/E=
200609252000 METAR MROC 252000Z 04010G22KT 0500 +TSRA VV/// 20/18 A2994 BECMG 2000 RMK ACUMULACION DE AGUA SOBRE PISTA=
200609252025 METAR MROC 252025Z 14007KT 3000 TSRA FEW020CB SCT030 BKN120 19/19 A2994 BECMG 9999 RMK VIS E SE UNLTD=
200609252100 METAR MROC 252100Z 08002KT 9999 SCT020 BKN100 19/18 A2994=
200609252200 METAR MROC 252200Z 06004KT 9999 FEW030 BKN110 21/19 A2992 NOSIG=
200609252300 METAR MROC 252300Z 36008KT 9999 FEW030 SCT110 BKN250 22/19 A2992 NOSIG=
200609260000 METAR MROC 260000Z 00000KT 9999 FEW040 SCT110 BKN250 20/19 A2995=
200609260100 METAR MROC 260100Z 08002KT CAVOK 20/19 A2996 RMK LTNG DST SW=
200609260200 METAR MROC 260200Z 00000KT CAVOK 21/18 A2998 NOSIG=
200609260300 METAR MROC 260300Z 05007KT CAVOK 19/17 A2998 NOSIG=
200609260400 METAR MROC 260400Z 00000KT CAVOK 20/18 A2999 NOSIG=
200609260500 METAR MROC 260500Z 35002KT CAVOK 20/18 A2999 NOSIG=
200609260600 METAR MROC 260600Z 36007KT CAVOK 19/18 A2999 NOSIG=
200609260700 METAR MROC 260700Z 09003KT 9999 FEW025 BKN120 18/17 A2996 NOSIG=
200609260800 METAR MROC 260800Z 05005KT CAVOK 19/17 A2995 NOSIG=
200609260900 METAR MROC 260900Z 05006KT CAVOK 20/16 A2994 NOSIG=
200609261000 METAR MROC 261000Z 09008KT CAVOK 20/17 A2994 NOSIG=
200609261100 METAR MROC 261100Z 06007KT CAVOK 21/16 A2996 NOSIG=
200609261200 METAR MROC 261200Z 07006KT CAVOK 20/17 A2997 NOSIG=
200609261300 METAR MROC 261300Z 09005KT CAVOK 23/17 A2999 NOSIG=
200609261400 METAR MROC 261400Z 31005KT CAVOK 24/18 A3002 NOSIG=
200609261500 METAR MROC 261500Z 19002KT CAVOK 26/19 A3001 NOSIG=
200609261600 METAR MROC 261600Z 23004KT 9999 FEW040 27/19 A3002 NOSIG=
200609261700 METAR MROC 261700Z 22003KT 9999 FEW040 29/19 A3000 NOSIG=
200609261800 METAR MROC 261800Z 24007KT 9999 FEW040 28/20 A2996 NOSIG=
200609261900 METAR MROC 261900Z 23008KT 9999 FEW025TCU 28/21 A2994 NOSIG=
200609262000 METAR MROC 262000Z 23010KT 9999 SCT025 28/21 A2991=
200609262100 METAR MROC 262100Z 22011KT 9999 FEW015TCU SCT035 27/22 A2990=
200609262200 METAR MROC 262200Z 22010KT 9000 SCT010TCU SCT025 25/23 A2992 RMK BR ARND=
200609262300 METAR MROC 262300Z 06009KT 1500 TSRA SCT004CB SCT050 20/19 A2994=
200609262315 METAR MROC 262315Z 01003KT 4000SW -RA FEW010CB SCT060 20/19 A2994 RMK VIS RED SW=
200609270000 METAR MROC 270000Z 00000KT 9999 FEW010TCU SCT150 21/20 A2995 RERA=
200609270100 METAR MROC 270100Z 04003KT 9999 FEW030 SCT180 20/20 A2998=
200609270200 METAR MROC 270200Z 00000KT CAVOK 21/20 A2999=
200609270300 METAR MROC 270300Z 06003KT CAVOK 20/19 A3000 NOSIG=
200609270400 METAR MROC 270400Z 08005KT CAVOK 21/19 A3000 NOSIG=
200609270500 METAR MROC 270500Z 05008KT CAVOK 22/19 A2998 NOSIG=
200609270600 METAR MROC 270600Z 04008KT CAVOK 21/19 A2997 NOSIG=
200609270700 METAR MROC 270700Z 07006KT CAVOK 21/18 A2995 NOSIG=
200609270800 METAR MROC 270800Z 08004KT CAVOK 21/18 A2993 NOSIG=
200609270900 METAR MROC 270900Z 05007KT CAVOK 21/18 A2993 BECMG RMK LTNG DST S=
200609271000 METAR MROC 271000Z 09005KT CAVOK 21/18 A2994 BECMG RMK LTNG DST SSW=
200609271100 METAR MROC 271100Z 03007KT CAVOK 21/18 A2994 BECMG RMK CB/LTNG OCNL DST S SSW=
200609271200 METAR MROC 271200Z 07005KT CAVOK 21/18 A2996 BECMG RMK CB DST WSW=
200609271300 METAR MROC 271300Z 04003KT CAVOK 23/19 A2998=
200609271400 METAR MROC 271400Z 09011KT CAVOK 26/19 A2999=
200609271500 METAR MROC NIL=
200609271600 METAR MROC 271600Z 11009KT CAVOK 28/20 A2999=
200609271700 METAR MROC 271700Z 13010KT 9999 SCT030 29/19 A2998=
200609271800 METAR MROC 271800Z 24009KT 9999 FEW020 SCT040 26/22 A2996=
200609271900 METAR MROC 271900Z 22009KT 9999 FEW020TCU SCT035 28/23 A2993=
200609272000 METAR MROC 272000Z 22013KT 8000 VCFG SCT012CB SCT070 25/22 A2991=
200609272100 METAR MROC 272100Z 23008KT 9999 VCSH FEW015 SCT025 BKN260 24/22 A2992 RMK VSBY W 7KM DUE RASH NOSIG=
200609272200 METAR MROC 272200Z 23004KT 9999 SCT010 FEW020TCU BKN260 23/21 A2992 NOSIG=
200609272300 METAR MROC 272300Z 00000KT 9999 FEW010 SCT025 BKN260 23/21 A2993 NOSIG=
200609280000 METAR MROC 280000Z 23003KT 9999 FEW025 SCT260 22/21 A2994 NOSIG=
200609280100 METAR MROC 280100Z 00000KT 9999 FEW040 22/21 A2996=
200609280200 METAR MROC 280200Z 00000KT CAVOK 21/21 A2998=
200609280300 METAR MROC 280300Z 14003KT CAVOK 22/20 A2999=
200609280400 METAR MROC 280400Z 08005KT CAVOK 23/19 A3000=
200609280500 METAR MROC 280500Z 00000KT CAVOK 22/20 A2998=
200609280600 METAR MROC 280600Z 01003KT CAVOK 22/19 A2998=
200609280700 METAR MROC 280700Z 01004KT CAVOK 21/19 A2996=
200609280800 METAR MROC 280800Z 03005KT CAVOK 20/18 A2994=
200609280900 METAR MROC NIL=
200609281000 METAR MROC NIL=
200609281100 METAR MROC 281100Z 10014KT CAVOK 23/19 A2992=
200609281200 METAR MROC 281200Z 11012KT 9999 SCT030 SCT150 23/19 A2996=
200609281300 METAR MROC 281300Z 35004KT 9999 FEW025 SCT100 BKN260 23/19 A2996 NOSIG=
200609281400 METAR MROC 281400Z 20003KT 9999 SCT030 BKN250 23/20 A3001 NOSIG=
200609281500 METAR MROC 281500Z 00000KT 9999 SCT030 BKN260 24/20 A2999 NOSIG=
200609281600 METAR MROC 281600Z 07010KT 9999 FEW030 BKN280 28/20 A2998 NOSIG=
200609281700 METAR MROC 281700Z 11008KT 9999 FEW030 SCT120 BKN280 28/19 A2996 NOSIG=
200609281800 METAR MROC 281800Z 09010KT 9999 SCT030 BKN280 29/19 A2995 NOSIG=
200609281900 METAR MROC 281900Z 10007KT 9999 FEW025 BKN280 29/19 A2991 RMK TCU RN SW NOSIG=
200609282000 METAR MROC 282000Z 20007KT 9999 FEW020TCU SCT030 BKN280 27/23 A2990 RMK RN DST NW=
200609282100 METAR MROC 282100Z 24010KT 9999 FEW015TCU SCT025 BKN250 24/22 A2990 NOSIG=
200609282200 METAR MROC 282200Z 23007KT 9999 SCT020 SCT250 24/22 A2989 RMK RN DST NE NOSIG=
200609282300 METAR MROC 282300Z 24003KT 9999 SCT030 BKN250 23/22 A2991 NOSIG=
200609290000 METAR MROC 290000Z 27003KT 9999 FEW035 SCT250 23/21 A2993 NOSIG=
200609290100 METAR MROC 290100Z 07003KT CAVOK 22/21 A2995 NOSIG=
200609290200 METAR MROC 290200Z 03003KT CAVOK 23/19 A2998 NOSIG=
200609290300 METAR MROC 290300Z 03004KT CAVOK 23/19 A2999 NOSIG=
200609290400 METAR MROC 290400Z 00000KT CAVOK 22/20 A2999=
200609290500 METAR MROC 290500Z 08003KT CAVOK 20/19 A2998 NOSIG=
200609290600 METAR MROC 290600Z VRB03KT CAVOK 21/18 A2997 NOSIG=
200609290700 METAR MROC 290700Z 05009KT CAVOK 21/18 A2993=
200609290800 METAR MROC 290800Z 09009KT CAVOK 22/18 A2992 NOSIG=
200609290900 METAR MROC 290900Z 10013KT CAVOK 22/18 A2990 NOSIG=
200609291000 METAR MROC 291000Z 11007KT CAVOK 22/18 A2990=
200609291100 METAR MROC 291100Z 03005KT CAVOK 21/17 A2992 NOSIG=
200609291200 METAR MROC 291200Z 09008KT CAVOK 22/17 A2994 NOSIG=
200609291300 METAR MROC 291300Z 10012KT 9999 FEW035 BKN250 24/18 A2995 NOSIG=
200609291400 METAR MROC 291400Z 10013KT 9999 FEW035 BKN250 25/18 A2998 NOSIG=
200609291500 METAR MROC 291500Z 10011KT 9999 FEW040 BKN250 28/19 A2998 NOSIG=
200609291600 METAR MROC 291600Z 10008KT 9999 FEW035 BKN250 28/18 A2999 NOSIG=
200609291700 METAR MROC 291700Z 11010KT 9999 FEW030 BKN250 29/18 A2997 NOSIG=
200609291800 METAR MROC 291800Z 11010KT 9999 FEW040 BKN250 29/18 A2997 NOSIG=
200609291900 METAR MROC 291900Z 21005KT 9999 FEW020TCU SCT030 SCT250 26/22 A2991 NOSIG=
200609292000 METAR MROC 292000Z 23011KT 9999 FEW015TCU SCT030 SCT250 26/22 A2989 NOSIG=
200609292100 METAR MROC 292100Z 24013KT 5000 2000N -TSRA FEW005 SCT012CB BKN025 23/21 A2991 BECMG 1500 RMK VIS SE S UNLTD=
200609292200 METAR MROC 292200Z 14005KT 9999 4000SW VCSH FEW005 FEW015CB BKN100 20/19 A2993 RMK RETSRA NOSIG=
200609292300 METAR MROC 292300Z 00000KT 9999 VCFG FEW0004 SCT030 BKN100 21/20 A2994 RERA BECMG RMK VIS SW 5KMS DUE LOW CLOUDS=
200609300000 METAR MROC 300000Z 00000KT 9999 VCFG FEW004 SCT030 BKN100 21/21 A2998 BECMG RMK VIS SW 7KMS DUE LOW ST=
200609300100 METAR MROC 300100Z 26002KT 9999 VCFG FEW003 SCT030 BKN120 21/20 A2998 BECMG RMK VIS SSE S SSW 6KMS DUE LOW ST=
200609300200 METAR MROC 300200Z 29002KT 9999 SCT030 BKN120 21/20 A2999 NOSIG=
200609300300 METAR MROC 300300Z 09003KT CAVOK 20/20 A3002 NOSIG=
200609300400 METAR MROC 300400Z 03006KT CAVOK 20/20 A3002 NOSIG=
200609300500 METAR MROC 300500Z 01005KT CAVOK 20/19 A3001=
200609300600 METAR MROC 300600Z 00000KT CAVOK 19/18 A3000=
200609300700 METAR MROC 300700Z 05006KT CAVOK 19/18 A2996=
200609300800 METAR MROC 300800Z 05005KT CAVOK 19/18 A2994 NOSIG=
200609300900 METAR MROC 300900Z 06005KT CAVOK 20/17 A2992 NOSIG=
200609301000 METAR MROC 301000Z 03008KT CAVOK 21/17 A2993 NOSIG=
200609301100 METAR MROC 301100Z 02006KT CAVOK 21/17 A2994 NOSIG=
200609301200 METAR MROC 301200Z 07006KT CAVOK 21/17 A2995 NOSIG=
200609301300 METAR MROC 301300Z 00000KT 9999 FEW035 BKN240 24/23 A2981=
200609301400 METAR MROC 301400Z 10014KT CAVOK 24/18 A2997 NOSIG=
200609301500 METAR MROC NIL=
200609301600 METAR MROC 301600Z 10014KT 9999 FEW035 BKN250 28/18 A2997 NOSIG=
200609301700 METAR MROC 301700Z 10012KT 9999 FEW035 BKN250 29/19 A2996 NOSIG=
200609301800 METAR MROC 301800Z 09012KT 9999 FEW035 BKN250 29/19 A2994 NOSIG=
200609301900 METAR MROC 301900Z 09013KT 9999 SCT030 BKN250 29/19 A2991 RMK RN DST ENE NOSIG=
200609302000 METAR MROC 302000Z 08011KT 9999 SCT030 SCT120 BKN250 28/17 A2991 RMK RN N/E/SW BECMG 24007KT 8000 -RA=
200609302100 METAR MROC 302100Z 00000KT 9999 -RA SCT030 BKN110 22/19 A2993 NOSIG=
200609302200 METAR MROC 302200Z 18002KT 9999 FEW035 BKN110 22/20 A2993 RERA=
200609302300 METAR MROC 302300Z 05005KT 9999 FEW035 BKN110 23/19 A2993 NOSIG=
200610010000 METAR MROC 010000Z 00000KT 9999 FEW035 BKN120 22/20 A2995 NOSIG=
200610010100 METAR MROC 010100Z 34003KT CAVOK 21/19 A2999 RMK LTNG DST SW=
200610010200 METAR MROC 010200Z 03005KT CAVOK 21/19 A3000 NOSIG=
200610010300 METAR MROC 010300Z 05007KT CAVOK 20/17 A3000 NOSIG=
200610010400 METAR MROC 010400Z 06008KT CAVOK 20/17 A3000 NOSIG=
200610010500 METAR MROC 010500Z 05005KT CAVOK 19/16 A2999 NOSIG=
200610010600 METAR MROC 010600Z 06008KT CAVOK 20/16 A2996 NOSIG=
200610010700 METAR MROC 010700Z 09006KT CAVOK 20/16 A2992 NOSIG=
200610010800 METAR MROC 010800Z 11010KT CAVOK 21/16 A2990 NOSIG=
200610010900 METAR MROC 010900Z 10012KT CAVOK 21/16 A2991 NOSIG=
200610011000 METAR MROC 011000Z 10011KT CAVOK 21/16 A2992 NOSIG=
200610011100 METAR MROC 011100Z 09008KT CAVOK 20/16 A2993 NOSIG=
200610011200 METAR MROC 011200Z 06007KT CAVOK 20/16 A2993 RMK CB DST SSW W=
200610011300 METAR MROC 011300Z 09006KT CAVOK 24/17 A2995 NOSIG=
200610011400 METAR MROC 011400Z 24010KT 9999 SCT012TCU SCT025 25/22 A2991=
200610011500 METAR MROC 011500Z 11011KT 9999 FEW045 BKN250 26/17 A3000 NOSIG=
200610011600 METAR MROC 011600Z 11010KT 9999 FEW045 SCT120 BKN250 28/18 A3000=
200610011700 METAR MROC 011700Z 26009KT 9999 SCT035 BKN120 27/20 A2999 NOSIG=
200610011800 METAR MROC 011800Z 24004KT 9999 SCT035 BKN120 26/21 A2996 NOSIG=
200610011900 METAR MROC 011900Z 23011KT 9999 BKN035 SCT120 26/22 A2993 NOSIG=
200610012000 METAR MROC 012000Z 24010KT 9999 -RA SCT012TCU SCT025 25/22 A2991=
200610012025 METAR MROC 012025Z 24010KT 4000 RA BR SCT008 SCT020 23/22 A2990=
200610012100 METAR MROC 012100Z 24013KT 9999 4000SW DZ BR FEW002 SCT015 SCT070 22/22 A2991=
200610012200 METAR MROC 012200Z 24011KT 3000SW DZ BR FEW001 SCT010 SCT025 21/20 A2994=
200610012300 METAR MROC 012300Z 27003KT 5000 BR SCT003 SCT025 21/20 A2996 RMK VIS RED S SW RERA=
200610020000 METAR MROC 020000Z 00000KT 8000 VCFG FEW003 SCT025 21/20 A2996 RERA=
200610020100 METAR MROC 020100Z 06005KT 9999 FEW020 SCT120 20/20 A2996=
200610020200 METAR MROC 020200Z 05007KT 9999 FEW030 SCT150 22/20 A2996=
200610020300 METAR MROC 020300Z 14003KT CAVOK 21/19 A2998 NOSIG=
200610020400 METAR MROC 020400Z 09004KT CAVOK 22/19 A2999 NOSIG=
200610020500 METAR MROC 020500Z 10009KT CAVOK 22/18 A2998 NOSIG=
200610020600 METAR MROC 020600Z 10010KT CAVOK 22/18 A2996 NOSIG=
200610020700 METAR MROC 020700Z 10011KT CAVOK 22/17 A2993 NOSIG=
200610020800 METAR MROC 020800Z 10010KT CAVOK 22/17 A2992 NOSIG=
200610020900 METAR MROC 020900Z 10010KT CAVOK 21/17 A2992 NOSIG=
200610021000 METAR MROC 021000Z 09007KT CAVOK 21/17 A2992 NOSIG=
200610021100 METAR MROC 021100Z 09011KT CAVOK 21/17 A2993 NOSIG=
200610021200 METAR MROC 021200Z 10010KT CAVOK 22/17 A2995 BECMG RMK CB DST SW=
200610021300 METAR MROC 021300Z 10013KT CAVOK 23/17 A2996=
200610021400 METAR MROC 021400Z 10013KT CAVOK 24/17 A2997=
200610021500 METAR MROC 021500Z 10014KT CAVOK 27/17 A2998=
200610021600 METAR MROC 021600Z 10014KT CAVOK 27/18 A2998=
200610021700 METAR MROC 021700Z 09010KT 9999 FEW030 SCT150 29/17 A2996=
200610021800 METAR MROC 021800Z 10012KT 9999 FEW025 SCT180 30/18 A2993=
200610021900 METAR MROC 021900Z 07007KT 9999 FEW025 SCT200 28/18 A2991 BECMG 24008KT=
200610022000 METAR MROC 022000Z 23011KT 9999 SCT025 SCT250 25/22 A2987=
200610022100 METAR MROC 022100Z 24010KT 9999 SCT012 FEW020TCU BKN280 24/22 A2987 NOSIG=
200610022200 METAR MROC 022200Z 22006KT 9999 VCSH FEW006 SCT015 BKN280 24/22 A2987 RMK VSBY N W 6KM DUE RN NOSIG=
200610022300 METAR MROC 022300Z 23005KT 6000 VCFG SCT006 SCT015 BKN280 23/21 A2990 RMK VSBY S SW UNL VSBY N 4KM NOSIG=
200610030000 METAR MROC 030000Z 25002KT 9999 VCFG FEW006 SCT130 BKN280 22/21 A2992 RMK VSBY N 6KM DUE LOW ST NOSIG=
200610030100 METAR MROC 030100Z 28003KT 9999 VCFG FEW006 SCT130 BKN260 22/21 A2995=
200610030200 METAR MROC 030200Z 27003KT 9999 FEW025 BKN260 22/21 A2996 RMK LTNG DST S NOSIG=
200610030300 METAR MROC 030300Z VRB03KT 9999 FEW040 SCT120 BKN250 22/20 A2997 NOSIG=
200610030400 METAR MROC 030400Z 36002KT 9999 FEW040 SCT120 BKN250 22/20 A2998 NOSIG=
200610030500 METAR MROC 030500Z 00000KT 9999 FEW040 SCT120 BKN250 22/20 A2996 NOSIG=
200610030600 METAR MROC 030600Z 12003KT CAVOK 22/19 A2994 NOSIG=
200610030700 METAR MROC 030700Z 09005KT CAVOK 22/18 A2992=
200610030800 METAR MROC 030800Z 05005KT CAVOK 21/18 A2990=
200610030900 METAR MROC 030900Z 05005KT CAVOK 21/18 A2989 NOSIG=
200610031000 METAR MROC 031000Z 10010KT CAVOK 22/18 A2987=
200610031100 METAR MROC 031100Z 110013KT CAVOK 22/18 A2987 NOSIG=
200610031200 METAR MROC 031200Z 10015KT 9999 FEW040 SCT120 BKN250 23/19 A2990 NOSIG=
200610031300 METAR MROC 031300Z 10015KT 9999 SCT030 SCT250 24/19 A2991 RMK CB DST S=
200610031400 METAR MROC 031400Z 10014KT 9999 FEW030 SCT280 26/19 A2993 RMK CB DST S NOSIG=
200610031500 METAR MROC 031500Z 10015KT 9999 FEW030 SCT280 27/19 A2995 NOSIG=
200610031600 METAR MROC 031600Z 07012KT 9999 SCT030 SCT090 BKN270 28/18 A2995 NOSIG=
200610031700 METAR MROC 031700Z 08011KT 9999 SCT030 SCT090 27/18 A2994 RMK DZ N NE NOSIG=
200610031800 METAR MROC 031800Z 08009KT 9999 -RA BKN030 SCT120 25/17 A2992 NOSIG=
200610031900 METAR MROC 031900Z 10010KT 9999 SCT035 BKN120 25/18 A2988 RMK DZ NE NOSIG=
200610032000 METAR MROC 032000Z 09008KT 9999 FEW035 SCT120 BKN280 26/18 A2986 NOSIG=
200610032100 METAR MROC 032100Z 07008KT 9999 SCT035 SCT120 27/17 A2986 NOSIG=
200610032200 METAR MROC 032200Z 09011KT 9999 FEW035 SCT120 SCT250 26/16 A2985 NOSIG=
200610032300 METAR MROC 032300Z 08006KT 9999 FEW035 SCT120 BKN250 25/17 A2987 NOSIG=
200610040000 METAR MROC 040000Z 05002KT 9999 FEW035 SCT120 23/20 A2990 NOSIG=
200610040100 METAR MROC 040100Z 10010KT 9999 FEW035 SCT120 23/18 A2993 NOSIG=
200610040200 METAR MROC 040200Z 10009KT 9999 -DZ SCT035 SCT140 23/18 A2994=
200610040300 METAR MROC 040300Z 11008KT 9999 FEW030 SCT150 22/18 A2993 RMK DZ DST N NE=
200610040400 METAR MROC 040400Z 10007KT CAVOK 22/17 A2995=
200610040500 METAR MROC 040500Z 07005KT CAVOK 21/17 A2994=
200610040600 METAR MROC 040600Z 06007KT CAVOK 21/17 A2994=
200610040700 METAR MROC 040700Z 09008KT CAVOK 21/17 A2989=
200610040800 METAR MROC 040800Z 05003KT CAVOK 20/17 A2986=
200610040900 METAR MROC 040900Z 06003KT CAVOK 20/17 A2986=
200610041000 METAR MROC 041000Z 11007KT CAVOK 21/17 A2987 NOSIG=
200610041100 METAR MROC 041100Z 06006KT CAVOK 19/16 A2987 NOSIG=
200610041200 METAR MROC 041200Z 02005KT CAVOK 20/17 A2989 NOSIG=
200610041300 METAR MROC 041300Z 07005KT 9999 FEW035 BKN250 24/18 A2992 NOSIG=
200610041400 METAR MROC 041400Z 11012KT 9999 FEW035 BKN250 25/18 A2993 NOSIG=
200610041500 METAR MROC NIL=
200610041600 METAR MROC 041600Z 10015KT CAVOK 28/17 A2991 NOSIG=
200610041700 METAR MROC 041700Z 09009KT 9999 FEW035 SCT250 29/18 A2989 NOSIG=
200610041800 METAR MROC 041800Z 11008KT 9999 FEW035 SCT250 29/18 A2985 NOSIG=
200610041900 METAR MROC 041900Z 11007KT 9999 FEW030 BKN250 29/18 A2983 BECMG 22006KT=
200610042000 METAR MROC 042000Z 05010KT 9999 VCSH FEW025 SCT090 BKN250 25/19 A2981=
200610042100 METAR MROC 042100Z 07015KT 9999 4000E -RA VCSH SCT025 BKN100 22/19 A2984=
200610042200 METAR MROC 042200Z 26002KT 9999 -RA VCFG FEW004 SCT030 BKN100 23/21 A2982 RMK VIS N 6KMS DUE LOW ST=
200610042300 METAR MROC 042300Z 00000KT 9999 FEW003 SCT030 BKN100 22/20 A2985 BECMG RMK LOW ST=
200610050000 METAR MROC 050000Z 35002KT 9999 FEW010 SCT030 BKN100 22/20 A2987 NOSIG=
200610050100 METAR MROC 050100Z 08004KT 9999 FEW030 OVC120 22/19 A2988 NOSIG=
200610050200 METAR MROC 050200Z 10007KT CAVOK 22/18 A2991 NOSIG=
200610050300 METAR MROC NIL=
200610050400 METAR MROC 050400Z 03006KT CAVOK 22/17 A2992=
200610050500 METAR MROC 050500Z 06007KT CAVOK 21/18 A2989=
200610050600 METAR MROC 050600Z 08008KT CAVOK 22/17 A2986 RMK LTNG DST S=
200610050700 METAR MROC 050700Z 08008KT CAVOK 22/17 A2985=
200610050800 METAR MROC 050800Z 03011KT 9999 FEW025 SCT120 21/17 A2984 RMK LTNG DST S NOSIG=
200610050900 METAR MROC 050900Z 06006KT CAVOK 21/17 A2984 NOSIG=
200610051000 METAR MROC 051000Z 10006KT CAVOK 21/17 A2994 NOSIG=
200610051100 METAR MROC 051100Z 10011KT CAVOK 21/18 A2984 NOSIG=
200610051200 METAR MROC 051200Z 11010KT CAVOK 21/17 A2987 NOSIG=
200610051300 METAR MROC 051300Z 10010KT CAVOK 23/18 A2989 NOSIG=
200610051400 METAR MROC 051400Z 09008KT CAVOK 26/18 A2991 NOSIG=
200610051500 METAR MROC 051500Z 08011KT CAVOK 27/18 A2991 NOSIG=
200610051600 METAR MROC 051600Z 10010KT 9999 FEW035 SCT100 28/18 A2991 NOSIG=
200610051700 METAR MROC 051700Z 10007KT 9999 FEW035 SCT100 29/19 A2988 NOSIG=
200610051800 METAR MROC 051800Z 10008KT 9999 FEW035 SCT130 29/19 A2985 NOSIG=
200610051900 METAR MROC 051900Z 23010KT 9999 VCSH FEW020TCU SCT035 26/21 A2982 BECMG RMK VIS SSW 5KMS=
200610052000 METAR MROC 052000Z 22008KT 9999 SCT030 SCT130 25/22 A2981 BECMG RMK SCT RN DIST ARND TCU DST S=
200610052100 METAR MROC 052100Z 23011KT 9999 FEW010TCU SCT025 BKN120 24/22 A2981 NOSIG=
200610052200 METAR MROC 052200Z 23008KT 9999 FEW002 SCT025 BKN120 23/21 A2982 NOSIG=
200610052300 METAR MROC 052300Z 21002KT 9999 3000E RA FEW002 FEW010CB SCT025 BKN120 22/21 A2984 NOSIG=
200610060000 METAR MROC 060000Z 27004KT 9999 -RA FEW008 SCT020 BKN100 22/21 A2985 NOSIG=
200610060100 METAR MROC 060100Z 19002KT 9999 RA FEW008 SCT020 BKN100 22/21 A2988 NOSIG=
200610060200 METAR MROC 060200Z 00000KT 9999 FEW015 SCT025 BKN120 22/21 A2991=
200610060300 METAR MROC 060300Z 00000KT 2000 BR SCT001 BKN012 21/21 A2993 NOSIG=
200610060400 METAR MROC 060400Z 00000KT 5000 BR FEW001 OVC030 21/20 A2994=
200610060500 METAR MROC 060500Z 12002KT 7000 VCFG SCT005 BKN025 20/20 A2992=
200610060600 METAR MROC 060600Z 00000KT 4000 BR SCT003 BKN020 20/20 A2991=
200610060700 METAR MROC 060700Z 00000KT 7000 VCFG FEW003 SCT020 21/20 A2990=
200610060800 METAR MROC 060800Z 08002KT 7000 VCFG FEW003 SCT020 SCT120 20/20 A2988=
200610060900 METAR MROC 060900Z 04003KT 9999 FEW003 SCT025 19/19 A2988 RMK 7000SW=
200610061000 METAR MROC 061000Z 03005KT CAVOK 19/18 A2988=
200610061100 METAR MROC 061100Z 09002KT CAVOK 19/18 A2990 NOSIG=
200610061200 METAR MROC 061200Z 02006KT CAVOK 20/18 A2992 NOSIG=
200610061300 METAR MROC 061300Z 06003KT 9999 FEW040 BKN250 23/20 A2995 NOSIG=
200610061400 METAR MROC 061400Z 19002KT 9999 FEW040 BKN250 26/20 A2995=
200610061500 METAR MROC 061500Z 08005KT 9999 FEW040 BKN250 27/19 A2995 NOSIG=
200610061600 METAR MROC 061600Z 24007KT 9999 FEW040 BKN250 26/21 A2996=
200610061700 METAR MROC 061700Z 23007KT 9999 SCT035 BKN250 27/24 A2993 RMK RN DST E=
200610061800 METAR MROC 061800Z 22006KT 9999 SCT035 BKN250 28/22 A2991=
200610061900 METAR MROC 061900Z 23011KT 9999 BKN030 26/23 A2987 NOSIG=
200610062000 METAR MROC 062000Z 06005KT 9999 5000E TS +RA FEW010CB BKN030 22/20 A2988 NOSIG=
200610062100 METAR MROC 062100Z 10003KT 9000 -TS DZ FEW005 SCT020CB BKN090 21/20 A2988=
200610062200 METAR MROC 062200Z 31004KT 4000SW BR FEW003 SCT020 OVC100 20/20 A2990 RERA=
200610062300 METAR MROC 062300Z VRB03KT 6000 1000SW FG SCT001 SCT050 21/21 A2990=
200610070000 METAR MROC 070000Z 00000KT 9000 FEW020 BKN100 21/20 A2990=
200610070100 METAR MROC 070100Z 05007KT CAVOK 22/20 A2994=
200610070200 METAR MROC 070200Z 05009KT CAVOK 22/19 A2996 RMK LTNG DST S SW=
200610070300 METAR MROC 070300Z 07008KT CAVOK 22/19 A2998 NOSIG=
200610070400 METAR MROC 070400Z 11007KT CAVOK 22/19 A2997 NOSIG=
200610070500 METAR MROC 070500Z 09006KT CAVOK 22/19 A2995 NOSIG=
200610070600 METAR MROC 070600Z 05006KT CAVOK 21/19 A2993 NOSIG=
200610070700 METAR MROC 070700Z 06006KT CAVOK 21/19 A2990 NOSIG=
200610070800 METAR MROC 070800Z 05005KT CAVOK 22/19 A2990 BECMG RMK LTNG DST SSE S SSW=
200610070900 METAR MROC 070900Z VRB03KT CAVOK 22/18 A2991 BECMG RMK LTNG DST S=
200610071000 METAR MROC 071000Z 08006KT CAVOK 21/18 A2990 BECMG RMK LTNG DST S=
200610071100 METAR MROC 071100Z 08007KT CAVOK 22/18 A2993 NOSIG=
200610071200 METAR MROC 071200Z 10008KT CAVOK 22/18 A2993 BECMG RMK BKN120=
200610071300 METAR MROC 071300Z 09008KT CAVOK 24/19 A2995=
200610071400 METAR MROC 071400Z 07010KT CAVOK 26/19 A2995=
200610071500 METAR MROC 071500Z 10013KT CAVOK 25/19 A2994=
200610071600 METAR MROC 071600Z 10013KT CAVOK 28/20 A2996=
200610071700 METAR MROC 071700Z 09011KT 9999 SCT025 SCT100 28/18 A2995=
200610071800 METAR MROC 071800Z 10013KT 9999 SCT025 SCT250 29/19 A2991=
200610071900 METAR MROC 071900Z 17005KT 9999 SCT025TCU SCT220 30/20 A2989=
200610072000 METAR MROC 072000Z 32008KT 6000 -TSDZ SCT010CB SCT090 22/21 A2988 RMK VIS RED W=
200610072100 METAR MROC 072100Z 36004KT 9999 TS VCSH FEW012CB SCT035 BKN140 22/20 A2989 RMK VSBY W 7KM DUE TS/RASH RN E NOSIG=
200610072200 METAR MROC 072200Z 24006KT 9999 FEW006 SCT030 BKN120 20/19 A2990 NOSIG=
200610072300 METAR MROC 072300Z 00000KT 9999 -RA FEW015 BKN120 20/20 A2993 NOSIG=
200610080000 METAR MROC 080000Z 00000KT 9999 -RA FEW030 OVC120 20/20 A2994 NOSIG=
200610080100 METAR MROC 080100Z 00000KT 9999 -RA FEW035 OVC100 21/20 A2996 NOSIG=
200610080200 METAR MROC 080200Z 00000KT 9999 -RA FEW025 OVC100 21/20 A2998 NOSIG=
200610080300 METAR MROC 080300Z VRB03KT 9999 FEW025 OVC120 21/20 A3002 NOSIG=
200610080400 METAR MROC 080400Z 11003KT 9999 FEW035 OVC120 21/20 A2999 NOSIG=
200610080500 METAR MROC 080500Z 11002KT CAVOK 20/20 A2998 NOSIG=
200610080600 METAR MROC 080600Z 02004KT CAVOK 20/20 A2996=
200610080700 METAR MROC 080700Z 09003KT CAVOK 20/19 A2994 NOSIG=
200610080800 METAR MROC 080800Z 07004KT CAVOK 20/19 A2992=
200610080900 METAR MROC 080900Z 07003KT CAVOK 20/18 A2991=
200610081000 METAR MROC 081000Z 04005KT CAVOK 19/18 A2991 NOSIG=
200610081100 METAR MROC 081100Z 09003KT CAVOK 19/17 A2993=
200610081200 METAR MROC 081200Z 04004KT CAVOK 19/17 A2996 NOSIG=
200610081300 METAR MROC 081300Z 03003KT CAVOK 22/19 A2997 RMK BKN250 RMK CB DST S=
200610081400 METAR MROC 081400Z 00000KT CAVOK 24/19 A2999 NOSIG=
200610081500 METAR MROC 081500Z 23006KT 9999 FEW030 SCT130 BKN260 25/20 A3001 NOSIG=
200610081600 METAR MROC 081600Z 24006KT 9999 FEW030 SCT130 27/21 A3000 NOSIG=
200610081700 METAR MROC 081700Z 24008KT 9999 FEW030TCU BKN270 27/21 A2998 RMK CB SE NOSIG=
200610081800 METAR MROC 081800Z 24008KT 9999 SCT020TCU BKN260 27/22 A2994 RMK RN S ENE NOSIG=
200610081900 METAR MROC 081900Z 20005KT 9999 VCSH SCT020CB BKN250 26/22 A2992 RMK VSBY E 5KM DUE RASH NOSIG=
200610082000 METAR MROC 082000Z 12006KT 9999 TSRA FEW015CB SCT030 BKN120 22/20 A2991 RMK VSBY S 5KM DUE TS/RASH NOSIG=
200610082100 METAR MROC 082100Z 00000KT 9999 4000SW VCSH FEW010 BKN120 22/20 A2990 NOSIG=
200610082200 METAR MROC 082200Z 06002KT 9999 -RA FEW008 BKN100 22/21 A2989 NOSIG=
200610082300 METAR MROC 082300Z 00000KT 9999 -DZ FEW003 BKN120 22/21 A2992 NOSIG=
200610090000 METAR MROC 090000Z 00000KT 9999 -RA FEW008 0VC120 21/21 A2995 NOSIG=
200610090100 METAR MROC 090100Z 22002KT 9999 -RA BR SCT005 BKN100 21/21 A2997 RMK VIS 5000SW BECMG 3000 BR DZ=
200610090200 METAR MROC 090200Z 00000KT 9999 FEW015 OVC120 21/20 A3000 RERA=
200610090300 METAR MROC 090300Z 01004KT 9999 FEW025 OVC140 21/20 A3001=
200610090400 METAR MROC 090400Z 00000KT 9999 FEW020 BKN120 21/20 A3000=
200610090500 METAR MROC 090500Z 04004KT 9999 FEW025 BKN120 21/20 A2997=
200610090600 METAR MROC 090600Z 05007KT 9999 FEW020 SCT100 21/20 A2996=
200610090700 METAR MROC NIL=
200610090800 METAR MROC 090800Z 06006KT CAVOK 21/19 A2991=
200610090900 METAR MROC NIL=
200610090914 METAR MROC 090914Z 07004KT CAVOK 20/19 A2990=
200610091000 METAR MROC 091000Z 08005KT CAVOK 21/19 A2991=
200610091100 METAR MROC 091100Z 07007KT CAVOK 21/18 A2992=
200610091200 METAR MROC 091200Z 10010KT CAVOK 21/18 A2994=
200610091300 METAR MROC 091300Z 11005KT CAVOK 24/19 A2996 NOSIG=
200610091400 METAR MROC 091400Z 08006KT CAVOK 25/19 A2997 NOSIG=
200610091500 METAR MROC 091500Z 21008KT 9999 FEW035 BKN250 24/20 A3001 NOSIG=
200610091600 METAR MROC 091600Z 25009KT 9999 FEW035 BKN250 24/20 A3002 NOSIG=
200610091700 METAR MROC 091700Z 25009KT 9999 FEW015 SCT030 SCT250 24/21 A3000 RMK CU DES SW=
200610091800 METAR MROC 091800Z 24009KT 9999 FEW008 SCT025 SCT250 24/21 A2998 NOSIG=
200610091900 METAR MROC 091900Z 24009KT 9999 FEW008 BKN025 24/21 A2995 NOSIG=
200610092000 METAR MROC 092000Z 23005KT 9999 FEW015 SCT030 BKN250 25/21 A2992 NOSIG=
200610092100 METAR MROC 092100Z 23007KT 9999 FEW015TCU SCT045 BKN140 25/20 A2991 NOSIG=
200610092200 METAR MROC 092200Z 23008KT 9999 FEW015 SCT040 BKN120 23/21 A2991 BECMG RMK RN DIST E=
200610092300 METAR MROC 092300Z 23004KT 9999 FEW010 SCT025 BKN120 23/20 A2994 NOSIG=
200610100000 METAR MROC 100000Z 25005KT 9999 FEW010 BKN030 22/20 A2997 BECMG -RA RMK LTNG DIS NW N E=
200610100100 METAR MROC 100100Z 00000KT 9999 SCT030 BKN100 22/20 A2999 BECMG RMK LTNG DST NW N=
200610100200 METAR MROC 100200Z 07003KT 9999 SCT025 OVC110 21/20 A3001 RERA RMK=
200610100300 METAR MROC 100300Z 06004KT 9999 -RA FEW035 OVC110 21/20 A3002 NOSIG=
200610100400 METAR MROC 100400Z 00000KT 9999 FEW035 OVC110 21/20 A3001 NOSIG=
200610100500 METAR MROC 100500Z 12002KT 9999 3000SW VCFG FEW010 SCT025 BKN120 21/20 A2998=
200610100600 METAR MROC 100600Z 06002KT CAVOK 21/20 A2997=
200610100700 METAR MROC 100700Z 32003KT CAVOK 21/20 A2997=
200610100800 METAR MROC 100800Z 09002KT CAVOK 20/20 A2995=
200610100900 METAR MROC 100900Z 08004KT CAVOK 20/19 A2994=
200610101000 METAR MROC 101000Z 07005KT CAVOK 20/19 A2995 NOSIG=
200610101100 METAR MROC 101100Z 10003KT CAVOK 20/19 A2999 NOSIG=
200610101200 METAR MROC 101200Z 33002KT CAVOK 20/19 A3000 RMK BKN120 CB DST S NOSIG=
200610101300 METAR MROC 101300Z 06003KT CAVOK 21/20 A3000 NOSIG=
200610101400 METAR MROC 101400Z 13002KT CAVOK 22/21 A3002 BECMG 24005KT=
200610101500 METAR MROC 101500Z 23005KT 9999 FEW020 BKN120 24/21 A3004 NOSIG=
200610101600 METAR MROC 101600Z 25005KT 9999 FEW025 BKN120 25/21 A3005 NOSIG=
200610101700 METAR MROC 101700Z 22005KT 9999 FEW025 SCT120 27/21 A3001 NOSIG=
200610101800 METAR MROC 101800Z 24006KT 9999 SCT025TCU BKN250 28/21 A2997 BECMG 7000 VCSH RMK CB DST ENE/ RN DST E SE=
200610101900 METAR MROC 101900Z 25004KT 9999 FEW020TCU BKN030 26/21 A2993 BECMG 7000 VCSH RMK RN DST E=
200610102000 METAR MROC 102000Z 16005KT 9999 3000S -TSRA FEW015CB SCT030 BKN120 21/20 A2992 BECMG 6000=
200610102100 METAR MROC 102100Z 24004KT 9999 VCFG FEW002 SCT030 BKN120 22/22 A2991 NOSIG=
200610102200 METAR MROC 102200Z 20004KT 5000 BR FEW001 SCT008 BKN120 22/22 A2992 NOSIG=
200610102300 METAR MROC 102300Z 23004KT 5000 +RA BR FEW001 SCT008 BKN100 22/21 A2996 RMK TSTM S=
200610110000 METAR MROC 110000Z 06007KT 5000 TS +RA FEW010CB SCT025 BKN100 20/20 A2999 NOSIG=
200610110100 METAR MROC 110100Z 08005KT 9999 RA FEW025 OVC100 19/19 A3001 NOSIG=
200610110200 METAR MROC 110200Z 00000KT 9999 RA OVC100 19/19 A3003 NOSIG=
200610110300 METAR MROC 110300Z 00000KT 9999 DZ FEW025 BKN120 20/19 A3006 NOSIG=
200610110400 METAR MROC 110400Z 00000KT 9999 FEW030 BKN120 20/19 A3006 NOSIG=
200610110500 METAR MROC 110500Z 00000KT 9999 -RA FEW030 BKN100 20/20 A3006 NOSIG=
200610110600 METAR MROC 110600Z 10002KT 9999 FEW030 SCT120 20/19 A3003 NOSIG=
200610110700 METAR MROC 110700Z 00000KT CAVOK 20/19 A2999 NOSIG=
200610110800 METAR MROC 110800Z 07005KT CAVOK 19/19 A2996 NOSIG=
200610110900 METAR MROC 110900Z 07008KT CAVOK 20/19 A2993 NOSIG=
200610111000 METAR MROC 111000Z 09007KT CAVOK 20/18 A2991 NOSIG=
200610111100 METAR MROC 111100Z 08011KT CAVOK 21/17 A2991 NOSIG=
200610111200 METAR MROC 111200Z 02003KT CAVOK 21/17 A2995 NOSIG=
200610111300 METAR MROC 111300Z 00000KT CAVOK 21/18 A2999 NOSIG=
200610111400 METAR MROC 111400Z 00000KT CAVOK 23/18 A3001 NOSIG=
200610111500 METAR MROC 111500Z 24005KT 9999 FEW040 BKN120 24/19 A3003 NOSIG=
200610111600 METAR MROC 111600Z 29005KT 9999 FEW040 SCT120 BKN250 26/19 A3003 NOSIG=
200610111700 METAR MROC 111700Z 23006KT 9999 SCT040 BKN120 27/20 A3000 NOSIG=
200610111800 METAR MROC 111800Z 22006KT 9999 SCT030 BKN110 27/20 A2997 NOSIG=
200610111900 METAR MROC 111900Z 22003KT 9999 SCT030 BKN110 28/19 A2995 NOSIG=
200610112000 METAR MROC 112000Z 23012KT 9999 SCT025TCU BKN180 27/20 A2993=
200610112100 METAR MROC 112100Z 23011KT 8000 VCSH SCT010TCU SCT150 24/22 A2993 RMK VIS RED W=
200610112200 METAR MROC 112200Z 23009KT 9000 SCT010 SCT100 23/21 A2993 RMK BR ARND=
200610112300 METAR MROC 112300Z 28007KT 8000 -RA BR SCT005 SCT025 22/21 A2997=
200610120000 METAR MROC 120000Z 29004KT 6000 -TSRA SCT010CB OVC080 21/20 A3002=
200610120100 METAR MROC 120100Z 04005KT 8000 -RA SCT015CB OVC100 20/19 A3004=
200610120200 METAR MROC 120200Z 07005KT 9999 FEW035 BKN140 20/20 A3004 RERA=
200610120300 METAR MROC 120300Z 10004KT CAVOK 20/20 A3001 NOSIG=
200610120400 METAR MROC 120400Z 00000KT CAVOK 20/19 A3002 NOSIG=
200610120500 METAR MROC 120500Z 31005KT 9999 FEW007 SCT100 BKN130 20/20 A3003 BECMG 24004KT 4000SW BR=
200610120600 METAR MROC 120600Z 00000KT 9999 FEW007 SCT070 BKN120 21/20 A3001 BECMG RMK LTNG DIST S=
200610120700 METAR MROC 120700Z 10003KT 9999 FEW010 BKN120 20/19 A3000 NOSIG=
200610120800 METAR MROC 120800Z 08003KT CAVOK 20/19 A2998 NOSIG=
200610120900 METAR MROC 120900Z 03006KT CAVOK 20/19 A2998 NOSIG=
200610121000 METAR MROC 121000Z 11002KT CAVOK 19/18 A2999 NOSIG=
200610121100 METAR MROC 121100Z 05005KT CAVOK 19/18 A2998 NOSIG=
200610121200 METAR MROC 121200Z 08004KT CAVOK 19/18 A2999 NOSIG=
200610121300 METAR MROC 121300Z 07006KT CAVOK 21/18 A3000=
200610121400 METAR MROC 121400Z 08003KT CAVOK 24/19 A3002 BECMG 24006KT=
200610121500 METAR MROC 121500Z 22003KT CAVOK 25/20 A3002=
200610121600 METAR MROC NIL=
200610121700 METAR MROC 121700Z 24007KT CAVOK 27/21 A2999=
200610121800 METAR MROC 121800Z 24010KT 9999 SCT025TCU SCT250 27/21 A2997=
200610121900 METAR MROC 121900Z 24009KT 9999 SCT025TCU SCT150 27/22 A2994=
200610122000 METAR MROC 122000Z 24010KT 9999 SCT025TCU SCT120 26/22 A2992=
200610122100 METAR MROC 122100Z 23011KT 9999 SCT015 26/22 A2990 RMK RN DST S NOSIG=
200610122200 METAR MROC NIL=
200610122300 METAR MROC 122300Z 24010KT 5000 BR BKN006 SCT015 22/21 A2993 NOSIG=
200610130000 METAR MROC 130000Z 24010KT 5000 BR FEW001 BKN005 22/21 A2995 RMK VSBY SW W 3KM LTNG DST S NOSIG=
200610130100 METAR MROC 130100Z 25005KT 6000 BR FEW003 SCT035 BKN100 21/21 A2998 RMK VSBY NE 4KM=
200610130200 METAR MROC 130200Z 28003KT 6000 RA VCFG SCT005 SCT030 BKN100 21/21 A3001 NOSIG=
200610130300 METAR MROC 130300Z VRB03KT 8000 SCT005 SCT030 BKN100 22/21 A3002 RMK FG ARND=
200610130400 METAR MROC 130400Z 23002KT 9999 FEW008 SCT030 BKN100 21/21 A3002 NOSIG=
200610130500 METAR MROC 130500Z 00000KT 9999 4000SW VCFG FEW002 SCT008 BKN100 21/21 A3001=
200610130600 METAR MROC 130600Z VRB03KT 9999 4000SW VCFG FEW002 SCT020 BKN100 22/21 A3000=
200610130700 METAR MROC 130700Z 00000KT 9999 FEW020 SCT100 21/21 A2998 NOSIG=
200610130800 METAR MROC 130800Z 03005KT CAVOK 20/19 A2995=
200610130900 METAR MROC 130900Z 05008KT CAVOK 20/19 A2994=
200610131000 METAR MROC 131000Z 08004KT CAVOK 20/18 A2993=
200610131100 METAR MROC 131100Z 08002KT CAVOK 19/18 A2994=
200610131200 METAR MROC 131200Z 36006KT 9999 FEW005 SCT250 21/18 A2996=
200610131300 METAR MROC 131300Z 04004KT 9999 FEW030 23/19 A2999 NOSIG=
200610131400 METAR MROC 131400Z 01003KT 9999 FEW025 SCT120 26/20 A3000 NOSIG=
200610131500 METAR MROC 131500Z 11010KT 9999 FEW025 SCT120 27/20 A2999 NOSIG=
200610131600 METAR MROC 131600Z 07009KT 9999 FEW030 SCT120 30/19 A2999 NOSIG=
200610131700 METAR MROC 131700Z 08007KT 9999 FEW030 SCT120 29/18 A2997 NOSIG=
200610131800 METAR MROC 131800Z 08009KT 9999 FEW030 SCT120 30/18 A2994 NOSIG=
200610131900 METAR MROC 131900Z 06012KT 9999 SCT020 29/22 A2992 NOSIG=
200610132000 METAR MROC 132000Z 24008KT 9999 SCT020 29/23 A2990=
200610132100 METAR MROC 132100Z 24009KT 9999 FEW025TCU SCT030 27/23 A2989 NOSIG=
200610132200 METAR MROC 132200Z 22008KT 9999 SCT025 26/22 A2990 NOSIG=
200610132300 METAR MROC 132300Z 23008KT 7000 VCFG SCT008 SCT025 23/22 A2993 NOSIG=
200610140000 METAR MROC 140000Z 26003KT 9999 SCT030 23/21 A2994 RMK LTNG DST S=
200610140100 METAR MROC 140100Z 29004KT 9999 FEW005 SCT030 23/21 A2999 NOSIG=
200610140200 METAR MROC 140200Z 29003KT 9999 FEW030 22/21 A3000 NOSIG=
200610140300 METAR MROC 140300Z 00000KT 9999 FEW030 21/20 A3002=
200610140400 METAR MROC 140400Z 02005KT CAVOK 21/19 A3001=
200610140500 METAR MROC 140500Z 00000KT CAVOK 20/18 A3000=
200610140600 METAR MROC NIL=
200610140700 METAR MROC NIL=
200610140800 METAR MROC 140800Z 09004KT CAVOK 18/16 A2993=
200610140900 METAR MROC 140900Z 08003KT CAVOK 18/16 A2994=
200610141000 METAR MROC 141000Z 08004KT CAVOK 17/16 A2992 NOSIG=
200610141100 METAR MROC 141100Z 05009KT CAVOK 18/16 A2995=
200610141200 METAR MROC 141200Z 06006KT CAVOK 20/16 A2996 NOSIG=
200610141300 METAR MROC 141300Z 07006KT CAVOK 21/17 A2998 NOSIG=
200610141400 METAR MROC 141400Z 00000KT CAVOK 25/18 A3000 NOSIG=
200610141500 METAR MROC 141500Z 10011KT CAVOK 26/18 A3001 NOSIG=
200610141600 METAR MROC 141600Z 09007KT CAVOK 27/18 A3000 NOSIG=
200610141700 METAR MROC 141700Z 11013KT CAVOK 29/18 A2997 NOSIG=
200610141800 METAR MROC 141800Z 10011KT 9999 FEW045 BKN250 27/18 A2994 NOSIG=
200610141900 METAR MROC 141900Z 17006KT 9999 FEW035 BKN250 29/19 A2992 NOSIG=
200610142000 METAR MROC 142000Z 25013KT 9999 BKN030 SCT250 25/22 A2990 NOSIG=
200610142100 METAR MROC 142100Z 24009KT 9999 FEW020TCU SCT030 BKN250 24/21 A2989 BECMG 7000 VCSH=
200610142200 METAR MROC 142200Z 24007KT 9999 FEW015TCU BKN025 24/21 A2989 BECMG 7000 VCSH=
200610142300 METAR MROC 142300Z 25006KT 9999 VCSH FEW006 SCT025 BKN250 23/21 A2991 BECMG 5000 BR RMK VIS 7KMS TO NW=
200610150000 METAR MROC NIL=
200610150100 METAR MROC NIL=
200610150200 METAR MROC 150200Z 22003KT 9999 4000SW BR FEW005 BKN250 22/21 A2998 BECMG 9999=
200610150300 METAR MROC 150300Z 34002KT 9999 BR FEW002 SCT250 21/21 A3000 NOSIG=
200610150400 METAR MROC 150400Z 00000KT 9999 BR FEW002 SCT006 21/21 A3000 RMK VSBY E 5KM NOSIG=
200610150500 METAR MROC 150500Z 00000KT 9999 BR FEW002 SCT025 21/21 A3000=
200610150600 METAR MROC 150600Z 03003KT CAVOK 22/18 A2998=
200610150700 METAR MROC 150700Z 09004KT CAVOK 21/19 A2996=
200610150800 METAR MROC 150800Z 10004KT CAVOK 21/18 A2994 NOSIG=
200610150900 METAR MROC 150900Z 08007KT CAVOK 22/18 A2992 NOSIG=
200610151000 METAR MROC 151000Z 07005KT CAVOK 20/18 A2994 NOSIG=
200610151100 METAR MROC 151100Z 02003KT 9999 FEW030 BKN100 21/18 A2995 RMK CB DST E NOSIG=
200610151200 METAR MROC 151200Z 11003KT 9999 FEW030 BKN100 21/18 A2997 NOSIG=
200610151300 METAR MROC 151300Z 09003KT 9999 FEW030 BKN120 21/19 A2998 NOSIG=
200610151400 METAR MROC 151400Z 09009KT 9999 FEW030 SCT120 BKN300 26/19 A2998 NOSIG=
200610151500 METAR MROC 151500Z 09010KT 9999 FEW035 SCT100 BKN300 26/18 A2999 NOSIG=
200610151600 METAR MROC 151600Z 07009KT 9999 FEW040 SCT080 28/18 A2999 NOSIG=
200610151700 METAR MROC 151700Z 09009KT 9999 SCT040 SCT100 29/19 A2997 NOSIG=
200610151800 METAR MROC 151800Z 09006KT 9999 SCT040 SCT080 30/18 A2993 BECMG 24008KT=
200610151900 METAR MROC 151900Z 09005KT 9999 SCT035 BKN280 32/20 A2990 RMK CB RN DST E=
200610152000 METAR MROC 152000Z 22011KT 9999 FEW020TCU BKN035 26/22 A2988 RMK RASH=
200610152100 METAR MROC 152100Z 25011KT 9999 -RA FEW020TCU BKN035 24/21 A2987 NOSIG=
200610152200 METAR MROC 152200Z 28007KT 9999 FEW010 BKN035 22/21 A2988 NOSIG=
200610152300 METAR MROC 152300Z 28007KT 9999 SCT010 BKN120 22/21 A2993 NOSIG=
200610160000 METAR MROC 160000Z 28004KT 9999 FEW010 SCT035 BKN120 21/21 A2994 NOSIG=
200610160100 METAR MROC 160100Z 28004KT 9999 FEW010 SCT035 BKN120 21/20 A2997=
200610160200 METAR MROC 160200Z 32002KT 8000 -RA SCT030 BKN120 21/20 A3001 NOSIG=
200610160300 METAR MROC 160300Z 25003KT 9999 SCT025 SCT120 20/20 A3002 NOSIG=
200610160400 METAR MROC 160400Z 12002KT 9999 DZ FEW005 SCT025 SCT120 20/20 A3002 NOSIG=
200610160500 METAR MROC 160500Z 14002KT 9999 DZ FEW080 SCT120 20/20 A3000 NOSIG=
200610160600 METAR MROC 160600Z 02006KT CAVOK 20/20 A2998 NOSIG=
200610160700 METAR MROC 160700Z 19003KT 9999 VCFG FEW003 SCT120 20/19 A2997 RMK VIS 8KM SSE/S DUE ST BECMG 3000 BR SCT003 SCT120=
200610160800 METAR MROC 160800Z 31002KT 8000 VCFG SCT003 BKN020 20/20 A2996 NOSIG=
200610160900 METAR MROC 160900Z 00000KT 7000 VCFG SCT003 BKN020 20/20 A2999 NOSIG=
200610161000 METAR MROC 161000Z 30005KT 8000 -DZ VCFG FEW003 BKN025 20/19 A2999 NOSIG=
200610161100 METAR MROC 161100Z 33005KT 8000 -DZ VCFG FEW003 SCT025 SCT100 20/19 A3000 NOSIG=
200610161200 METAR MROC 161200Z 10002KT 9999 SCT025 SCT120 20/19 A3003 NOSIG=
200610161300 METAR MROC 161300Z 18002KT 9999 FEW003 SCT025 SCT120 21/20 A3006 NOSIG=
200610161400 METAR MROC 161400Z 29002KT 9999 SCT020 SCT120 23/20 A3005 NOSIG=
200610161500 METAR MROC 161500Z 29004KT 9999 SCT020 SCT120 25/20 A3006=
200610161600 METAR MROC 161600Z 26007KT 9999 FEW015 BKN035 24/19 A3006=
200610161700 METAR MROC 161700Z 28004KT 9999 SCT035 26/20 A3002 NOSIG=
200610161800 METAR MROC 161800Z 29009KT 9999 SCT030 27/20 A3000=
200610161900 METAR MROC 161900Z 25008KT 9999 BKN030 26/21 A2998 NOSIG=
200610162000 METAR MROC 162000Z 24012KT 9999 FEW010 SCT030 25/21 A2995 NOSIG=
200610162100 METAR MROC 162100Z 24009KT 9999 SCT010 SCT030 22/21 A2994 BECMG 3000 -RA BR=
200610162200 METAR MROC 162200Z 25009KT 9999 -RA SCT010 SCT070 21/20 A2996=
200610162300 METAR MROC 162300Z 24005KT 9000 -DZ BR SCT010 SCT050 21/21 A2997 BECMG 6000 VCFG=
200610170000 METAR MROC 170000Z 23007KT 9000 FEW010 SCT100 21/20 A2999 RMK BR SW W=
200610170100 METAR MROC 170100Z 25007KT 9999 3000SW BR FEW002 SCT012 21/20 A3002=
200610170200 METAR MROC 170200Z 26006KT 6000 BR SCT002 20/20 A3004 RMK BR ARND=
200610170300 METAR MROC 170300Z 30005KT 7000 VCFG FEW002 SCT007 20/20 A3006 RMK VIS E UNLTD BECMG 4000 BR=
200610170400 METAR MROC 170400Z 00000KT 8000 VCFG FEW004 BKN020 21/20 A3005 BECMG 4000=
200610170500 METAR MROC 170500Z 00000KT 8000 VCFG FEW004 BKN020 20/20 A3004 NOSIG=
200610170600 METAR MROC 170600Z 00000KT 9999 FEW008 SCT020 20/20 A3004 NOSIG=
200610170700 METAR MROC 170700Z 24002KT 2000 BR SCT002 SCT006 20/20 A3000 RMK VIS N NE UNL NOSIG=
200610170800 METAR MROC 170800Z 00000KT 5000 2000SW BR SCT002 SCT006 20/20 A2999 RMK LOW ST OVCER APCH07 NOSIG=
200610170900 METAR MROC 170900Z 00000KT 9999 VCFG FEW004 SCT030 20/20 A2999 RMK VIS SW 7KMS=
200610171000 METAR MROC 171000Z 00000KT 9999 FEW010 SCT035 20/19 A2999 NOSIG=
200610171100 METAR MROC 171100Z 01004KT 9999 SCT030 SCT100 20/19 A3000 NOSIG=
200610171200 METAR MROC 171200Z 12002KT 9999 DZ SCT030 SCT080 20/19 A3001 RMK FG BANK DST TO S SSW NOSIG=
200610171300 METAR MROC 171300Z 09003KT 9999 FEW045 SCT150 22/20 A3002=
200610171400 METAR MROC 171400Z 09003KT 9999 FEW045 SCT180 24/20 A3003 BECMG 24006KT=
200610171500 METAR MROC 171500Z VRB03KT 9999 FEW030 SCT170 25/20 A3003=
200610171600 METAR MROC 171600Z 22006KT 9999 FEW025 SCT170 26/20 A3003=
200610171700 METAR MROC 171700Z 27008KT 9999 SCT025 SCT150 27/20 A3001=
200610171800 METAR MROC 171800Z 25009KT 9999 SCT020TCU SCT120 25/21 A2998=
200610171900 METAR MROC 171900Z 25010KT 9999 FEW020TCU SCT035 26/22 A2995=
200610172000 METAR MROC 172000Z 23011KT 9999 FEW010TCU SCT035 SCT150 24/21 A2993 RMK RN DST N NE=
200610172100 METAR MROC 172100Z 25011KT 9999 3000N RA BKN010 SCT020TCU 23/21 A2992 NOSIG=
200610172200 METAR MROC 172200Z 23008KT 6000 VCSH SCT008 SCT020 BKN120 21/21 A2994 NOSIG=
200610172300 METAR MROC 172300Z 25006KT 5000 BR SCT004 BKN010 21/21 A2996 RMK RN N NOSIG=
200610180000 METAR MROC 180000Z 25007KT 5000 DZ BR SCT003 BKN010 21/20 A2996 NOSIG=
200610180100 METAR MROC 180100Z 24005KT 5000 BR SCT002 SCT010 BKN120 21/20 A2998 NOSIG=
200610180200 METAR MROC 180200Z 23003KT 5000 BR FEW003 SCT006 BKN100 20/19 A3001 NOSIG=
200610180300 METAR MROC 180300Z 03003KT 9999 FEW010 SCT100 20/19 A3002=
200610180400 METAR MROC 180400Z 13006KT 2000SW RA SCT010 OVC050 20/19 A3001=
200610180500 METAR MROC 180500Z 00000KT 9999 FEW015 SCT100 20/19 A3000 RERA=
200610180600 METAR MROC 180600Z 00000KT 9999 4000SW DZ BR SCT010 OVC080 20/19 A3000=
200610180700 METAR MROC 180700Z 25005KT 5000 DZ BR SCT010 OVC090 19/19 A2998=
200610180800 METAR MROC 180800Z 01004KT 6000 -DZ BR SCT010 OVC090 20/19 A2996=
200610180900 METAR MROC 180900Z 00000KT 5000 BR SCT010 SCT100 20/19 A2995 RMK VIS RED SW=
200610181000 METAR MROC 181000Z 00000KT 9000 2000SW BR FEW001 SCT010 OVC100 20/20 A2994=
200610181100 METAR MROC 181100Z 25004KT 9000 3000SW DZ BR FEW001 SCT015 OVC100 20/19 A2996=
200610181200 METAR MROC 181200Z 32004KT 4000 -DZ BR SCT005 SCT020 20/20 A2998=
200610181300 METAR MROC 181300Z 29003KT 6000 VCFG SCT006 BKN250 21/20 A3000 NOSIG=
200610181400 METAR MROC 181400Z 26004KT 9999 FEW008 BKN015 23/20 A3001 NOSIG=
200610181500 METAR MROC 181500Z 21005KT 9999 SCT015 SCT100 23/21 A3001 RMK RN NW NOSIG=
200610181600 METAR MROC NIL=
200610181700 METAR MROC 181700Z 250907KT 9999 FEW010 SCT020 BKN250 24/22 A3000 NOSIG=
200610181800 METAR MROC 181800Z 24012KT 5000 DZ BR SCT008 BKN020 22/21 A2997 RMK VSBY NE E UNL NOSIG=
200610181900 METAR MROC 181900Z 25010KT 3000 DZ BR SCT003 BKN012 21/20 A2995 NOSIG=
200610182000 METAR MROC 182000Z 25009KT 3000 DZ BR FEW003 SCT010 BKN120 21/21 A2992 NOSIG=
200610182100 METAR MROC 182100Z 26010KT 5000 DZ BR SCT006 BKN020 21/20 A2991 BECMG 3000=
200610182200 METAR MROC 182200Z 26009KT 2000 RA BR SCT003 BKN015 20/20 A2992 NOSIG=
200610182300 METAR MROC 182300Z 27004KT 5000 -RA BR FEW005 BKN020 20/20 A2993 NOSIG=
200610190000 METAR MROC 190000Z 25003KT 5000 -RA BR FEW005 SCT020 BKN080 20/19 A2995=
200610190100 METAR MROC 190100Z 34004KT 3000 DZ BR FEW003 BKN015 20/19 A2998=
200610190200 METAR MROC 190200Z 35004KT 7000 DZ VCFG FEW008 SCT020 BKN090 20/19 A2998 NOSIG=
200610190300 METAR MROC 190300Z 14003KT 9999 FEW030 BKN100 19/19 A2999 NOSIG=
200610190400 METAR MROC 190400Z VRB03KT 9999 FEW030 BKN100 20/19 A2998=
200610190500 METAR MROC 190500Z 00000KT 9999 FEW030 BKN100 20/19 A2997 NOSIG=
200610190600 METAR MROC 190600Z 09002KT 9999 FEW035 BKN110 20/19 A2995 NOSIG=
200610190700 METAR MROC 190700Z 00000KT 9999 FEW035 BKN110 20/19 A2993=
200610190800 METAR MROC 190800Z 24003KT 0200 FG VV/// 19/19 A2991 NOSIG=
200610190900 METAR MROC 190900Z 28003KT 0500 FG VV/// 19/19 A2992 NOSIG=
200610191000 METAR MROC 191000Z 35004KT 5000 BR FEW002 SCT020 20/19 A2991=
200610191100 METAR MROC 191100Z 00000KT 7000 VCFG FEW002 BKN100 20/19 A2992=
200610191200 METAR MROC 191200Z 06003KT 9999 FEW008 BKN100 20/19 A2994 NOSIG=
200610191300 METAR MROC 191300Z 08003KT 9999 FEW030 BKN100 21/20 A2996 RMK DUE ST SW DZ DST N=
200610191400 METAR MROC 191400Z 11002KT 9999 FEW003 BKN120 23/20 A2997 NOSIG=
200610191500 METAR MROC 191500Z 25004KT 9999 SCT030 BKN250 25/20 A2998 NOSIG=
200610191600 METAR MROC 191600Z 23007KT 9999 SCT030 BKN250 25/20 A2998 NOSIG=
200610191700 METAR MROC 191700Z 24006KT 9999 SCT025 BKN250 26/21 A2996 NOSIG=
200610191800 METAR MROC 191800Z 24008KT 9999 FEW020TCU SCT025 BKN250 26/20 A2993 NOSIG=
200610191900 METAR MROC 191900Z 23011KT 9999 4000SW VCSH FEW015CB SCT025 SCT250 24/21 A2991 BECMG 7000 3000SW -TSRA=
200610192000 METAR MROC 192000Z 24007KT 4000 -RA BR SCT004 BKN015 21/20 A2990 RMK VIS 7000E NOSIG=
200610192100 METAR MROC 192100Z 23007KT 9000 SCT010 BKN100 21/20 A2990 BECMG 6000 -RA VCFG=
200610192200 METAR MROC 192200Z 28005KT 9000 SCT010 BKN100 22/20 A2989 NOSIG=
200610192300 METAR MROC 192300Z 00000KT 9999 SCT010 BKN100 22/20 A2990 NOSIG=
200610192320 METAR MROC 192320Z 27013KT 5000 FEW003 BKN015CB SCT090 27/23 A2990 RMK UNL E=
200610200000 METAR MROC 200000Z 00000KT 9999 SCT010 BKN100 21/20 A2990 NOSIG=
200610200100 METAR MROC 200100Z 00000KT 8000 VCFG SCT010 BKN100 21/20 A2994 BECMG 6000 VCFG=
200610200200 METAR MROC 200200Z 24006KT 6000 VCFG FEW003 SCT010 BKN100 20/20 A2996 BECMG 3000 BR=
200610200300 METAR MROC 200300Z 24005KT 5000 DZ BR SCT001 BKN005 20/20 A2998 RMK VSBY E 3KM NOSIG=
200610200400 METAR MROC 200400Z 29004KT 6000 VCFG FEW001 SCT005 BKN012 20/20 A2998 NOSIG=
200610200500 METAR MROC 200500Z 27003KT 6000 VCFG FEW001 SCT005 BKN025 20/20 A2997 NOSIG=
200610200600 METAR MROC 200600Z 25007KT 3000 -DZ BR SCT001 SCT005 BKN015 20/19 A2996=
200610200700 METAR MROC 200700Z 23007KT 3000 -RA BR SCT002 SCT005 BKN025 19/19 A2994=
200610200800 METAR MROC 200800Z 24004KT 5000 BR FEW002 SCT005 BKN120 19/19 A2993 RMK VSBY S UNL NOSIG=
200610200900 METAR MROC 200900Z 26005KT 5000 DZ BR FEW002 SCT005 BKN100 19/19 A2992 NOSIG=
200610201000 METAR MROC 201000Z 29004KT 5000 BR SCT005 SCT015 BKN100 20/19 A2992 RMK VSBY SE S UNL=
200610201100 METAR MROC 201100Z 27003KT 9999 VCFG SCT010 SCT025 BKN120 19/19 A2993=
200610201200 METAR MROC 201200Z 00000KT 9999 FEW010 SCT025 BKN120 20/19 A2995 RMK DZ NW N NOSIG=
200610201300 METAR MROC 201300Z 00000KT 9999 FEW012 SCT025 BKN100 21/20 A2996 BECMG 24006=
200610201400 METAR MROC 201400Z 00000KT 9999 FEW015 BKN120 22/20 A2998 NOSIG=
200610201500 METAR MROC 201500Z 23004KT 9999 SCT015 BKN120 22/20 A2999 NOSIG=
200610201600 METAR MROC 201600Z 24006KT 9999 SCT015 BKN120 22/20 A2999 NOSIG=
200610201700 METAR MROC 201700Z 27007KT 9999 SCT020 BKN120 23/20 A2997 RMK NW N SSW RN DST N NW=
200610201800 METAR MROC NIL=
200610201900 METAR MROC NIL=
200610202000 METAR MROC 202000Z 24003KT 9999 5000N -RA BR SCT010 OVC100 21/20 A2990 NOSIG=
200610202100 METAR MROC 202100Z 24003KT 9999 SCT010 OVC100 22/20 A2989 RMK=
200610202200 METAR MROC 202200Z 24008KT 5000 RA BR FEW001 SCT005 OVC100 20/20 A2990 NOSIG=
200610202300 METAR MROC 202300Z 25007KT 2000 RA BR FEW001 BKN008 20/20 A2992 NOSIG=
200610210000 METAR MROC 210000Z 26005KT 5000 RA BR FEW001 SCT008 OVC100 20/19 A2993=
200610210100 METAR MROC 210100Z 29004KT 5000 RA BR FEW001 SCT008 OVC100 20/19 A2995=
200610210200 METAR MROC 210200Z 31004KT 7000 RA FEW001 SCT008 OVC100 20/20 A2997 RMK FG ARND=
200610210300 METAR MROC 210300Z 28003KT 9999 -DZ FEW005 BKN015 20/20 A2999 BECMG 7000 -RA=
200610210400 METAR MROC 210400Z 31003KT 7000 RA FEW005 BKN015 20/20 A3000 NOSIG=
200610210500 METAR MROC 210500Z 32004KT 7000 RA VCFG FEW004 SCT015 OVC090 20/19 A2999 RMK=
200610210600 METAR MROC 210600Z 18002KT 9999 4000SW RA BR FEW002 SCT015 OVC090 20/19 A2996 NOSIG=
200610210700 METAR MROC 210700Z 00000KT 7000 -DZRA VCFG FEW002 SCT015 OVC090 19/19 A2995 BECMG 4000 BR SCT002 BKN015=
200610210800 METAR MROC 210800Z 15002KT 9999 -RA FEW003 BKN090 19/19 A2992 NOSIG=
200610210900 METAR MROC 210900Z 27003KT 8000 2000SW BR SCT001 SCT020 BKN090 19/19 A2992 BECMG 3000 BR SCT001 BKN012=
200610211000 METAR MROC 211000Z 27006KT 5000 2000SW -DZRA BR SCT002 BKN015 20/19 A2994 BECMG 3000 BR SCT001 BKN015=
200610211100 METAR MROC 211100Z 08005KT 8000 VCFG SCT005 BKN025 19/19 A2993 NOSIG=
200610211200 METAR MROC 211200Z 25002KT 9999 VCFG FEW006 BKN025 19/19 A2994 RMK=
200610211300 METAR MROC 211300Z 24004KT 7000 VCFG FEW002 SCT010 BKN030 20/19 A2998 NOSIG=
200610211400 METAR MROC 211400Z 27007KT 9999 FEW008 SCT030 BKN100 20/20 A3002 NOSIG=
200610211500 METAR MROC 211500Z 27005KT 9999 FEW008 SCT030 BKN100 22/19 A3005 NOSIG=
200610211600 METAR MROC 211600Z 27005KT 9999 4000SW -DZ FEW003 SCT020 BKN100 21/20 A3005 NOSIG=
200610211700 METAR MROC 211700Z 31004KT 9999 4000SW -DZ FEW003 SCT020 BKN100 21/20 A3003=
200610211800 METAR MROC 211800Z 28003KT 6000 RA FEW003 SCT010 OVC100 20/20 A3000=
200610211900 METAR MROC 211900Z 24004KT 6000 RA FEW003 SCT010 OVC100 20/19 A2998 RMK FG ARND=
200610212000 METAR MROC 212000Z 12002KT 9999 SCT015 OVC100 22/20 A2994=
200610212100 METAR MROC 212100Z 00000KT 9999 FEW015 BKN180 23/20 A2992=
200610212200 METAR MROC 212200Z 24008KT 9000 FEW010 BKN150 22/19 A2994 RMK BR ARND=
200610212300 METAR MROC 212300Z 24003KT 8000 BR FEW003 SCT020 21/20 A2995 BECMG 2000 BR SCT001 SCT010=
200610220000 METAR MROC 220000Z 00000KT 8000 FEW003 SCT020 OVC100 20/19 A3002 NOSIG=
200610220100 METAR MROC 220100Z 00000KT 8000 VCFG FEW005 SCT020 OVC100 20/20 A2999=
200610220200 METAR MROC 220200Z 24003KT 4000 1000SW -RA BR SCT001 SCT015 20/20 A3001=
200610220300 METAR MROC 220300Z 00000KT 7000 -RA BR FEW005 SCT020 20/20 A3003 NOSIG=
200610220400 METAR MROC 220400Z 04005KT 5000 DZ FEW003 SCT015 OVC100 20/19 A3003 NOSIG=
200610220500 METAR MROC 220500Z 00000KT 8000 FEW003 SCT020 OVC100 20/19 A3002 NOSIG=
200610220600 METAR MROC 220600Z 00000KT 4000 BR SCT005 SCT010 OVC100 20/17 A3000 NOSIG=
200610220700 METAR MROC 220700Z 00000KT 2000 BR SCT003 SCT010 OVC100 20/19 A2999 NOSIG=
200610220800 METAR MROC 220800Z 00000KT 3000 BR SCT003 SCT012 OVC100 20/20 A2998 NOSIG=
200610220900 METAR MROC 220900Z 00000KT 9999 FEW008 SCT015 OVC100 20/18 A2996=
200610221000 METAR MROC 221000Z 00000KT 9999 -DZ SCT010 OVC100 20/19 A2998 NOSIG=
200610221100 METAR MROC 221100Z 00000KT 9999 FEW015 BKN100 20/19 A2999 NOSIG=
200610221200 METAR MROC 221200Z 00000KT 9999 5000NE VCFG FEW005 SCT020 BKN100 20/19 A3002 NOSIG=
200610221300 METAR MROC 221300Z 00000KT 9999 FEW005 BKN120 22/20 A3003 RMK BR ARND=
200610221400 METAR MROC 221400Z 29003KT 9000 FEW008 SCT025 SCT100 22/19 A3005 RMK BR ARND=
200610221500 METAR MROC 221500Z 00000KT 9999 SCT010 SCT090 24/20 A3006=
200610221600 METAR MROC 221600Z 26003KT 9999 SCT020 26/20 A3006=
200610221700 METAR MROC 221700Z 23008KT 9999 FEW015TCU SCT035 26/21 A3003=
200610221800 METAR MROC 221800Z 22007KT 9999 FEW015TCU SCT035 26/20 A3000=
200610221900 METAR MROC 221900Z 23010KT 9000 FEW010TCU SCT035 26/22 A2997 RMK RN ARND=
200610222000 METAR MROC 222000Z 23010KT 9999 FEW010TCU SCT035 26/22 A2995 RMK RN ARND=
200610222100 METAR MROC 222100Z 23007KT 6000 -RA BR SCT008 SCT020TCU BKN120 23/21 A2994 RMK VSBY NE 4KM NOSIG=
200610222200 METAR MROC 222200Z 23007KT 6000 VCSH BKN010 SCT018TCU 23/21 A2995 NOSIG=
200610222300 METAR MROC 222300Z 23006KT 4000 BR SCT002 BKN006 21/21 A2996 RMK VSBU NE 6KM RN ARND NOSIG=
200610230000 METAR MROC 230000Z 23007KT 3000 BR SCT001 BKN006 21/20 A2999 RMK VSBY E 2KM NOSIG=
200610230100 METAR MROC 230100Z 23005KT 5000 BR FEW002 BKN006 21/20 A3002 NOSIG=
200610230200 METAR MROC 230200Z 26002KT 5000 BR FEW002 BKN006 21/20 A3003 NOSIG=
200610230300 METAR MROC 230300Z 00000KT 6000 VCFG FEW002 SCT006 BKN100 21/20 A3005 NOSIG=
200610230400 METAR MROC 230400Z 00000KT 6000 VCFG FEW002 SCT006 BKN100 21/20 A3004=
200610230500 METAR MROC 230500Z 00000KT 6000 2000SW BR FEW001 SCT006 BKN100 21/20 A3003=
200610230600 METAR MROC 230600Z 00000KT 8000 2000SW BR FEW001 SCT010 BKN100 21/20 A3002 NOSIG=
200610230700 METAR MROC 230700Z 00000KT 8000 2000SW BR FEW001 SCT010 BKN100 21/20 A3000=
200610230800 METAR MROC 230800Z 06002KT 9999 2000SW BR FEW001 SCT020 SCT100 21/20 A2999=
200610230900 METAR MROC 230900Z 00000KT 9999 FEW030 SCT120 20/19 A2999=
200610231000 METAR MROC 231000Z 04004KT CAVOK 20/18 A2999=
200610231100 METAR MROC 231100Z 07007KT CAVOK 19/18 A3000=
200610231200 METAR MROC 231200Z 06007KT 9999 FEW003 BKN250 20/18 A3001 NOSIG=
200610231300 METAR MROC 231300Z 22004KT 9999 FEW003 BKN250 21/19 A3004=
200610231400 METAR MROC 231400Z 24003KT 9999 FEW002 BKN260 23/20 A3005 RMK VSBY S 6KM DUE FG NOSIG=
200610231500 METAR MROC 231500Z 26004KT CAVOK 25/20 A3006 NOSIG=
200610231600 METAR MROC 231600Z 22006KT 9999 SCT030 BKN260 25/21 A3005 NOSIG=
200610231700 METAR MROC 231700Z 24008KT 9999 FEW030 SCT120 BKN280 26/21 A3002 RMK RN NW N NOSIG=
200610231800 METAR MROC 231800Z 24010KT 9999 FEW015 BKN120 25/22 A2999 NOSIG=
200610231900 METAR MROC 231900Z 24010KT 9999 FEW015CB BKN025 26/22 A2997 RMK RN NE E NOSIG=
200610232000 METAR MROC 232000Z 24007KT 6000 2000NE TSRA FEW012CB BKN025 25/21 A2997 RMK VSBY SW UNL=
200610232100 METAR MROC 232100Z 30005KT 9999 SCT020 BKN250 23/21 A2994 RMK RN DST E NE=
200610232200 METAR MROC 232200Z 23002KT 9999 VCFG SCT015 BKN250 24/21 A2995 RMK VIS 7000SW=
200610232300 METAR MROC 232300Z 23006KT 7000 3000NW BR FEW002 SCT012 BKN250 22/21 A2998 RMK BECMG 3000 BR=
200610240000 METAR MROC 240000Z 26004KT 7000 2000SW BR FEW001 SCT006 SCT015 22/21 A2999 BECMG 5000 BR=
200610240100 METAR MROC 240100Z 20002KT 5000 0800SW FG SCT001 BKN006 22/21 A3002 BECMG 1000 BR OVC001=
200610240200 METAR MROC 240200Z 00000KT 7000 VCFG SCT003 BKN012 22/21 A3003 RMK VIS 4000SW=
200610240300 METAR MROC 240300Z 00000KT 1000 BR SCT001 21/21 A3003=
200610240400 METAR MROC 240400Z 25003KT 9999 3000SW BR FEW002 FEW100 21/21 A3004=
200610240500 METAR MROC 240500Z 00000KT 9999 4000SW BR FEW002 SCT100 21/21 A3004=
200610240600 METAR MROC 240600Z 05008KT 9999 FEW015 20/18 A3002 RMK LTNG DST S SW=
200610240700 METAR MROC 240700Z 36005KT CAVOK 20/18 A2999 RMK LTNG DST S=
200610240800 METAR MROC 240800Z 35003KT CAVOK 20/18 A2997=
200610240900 METAR MROC 240900Z 05005KT CAVOK 20/17 A2997 RMK LTNG DST S=
200610241000 METAR MROC 241000Z 07003KT CAVOK 20/17 A2997=
200610241100 METAR MROC 241100Z 08003KT CAVOK 19/16 A2997=
200610241200 METAR MROC 241200Z 04006KT CAVOK 18/16 A3000 RMK BR ARND=
200610241300 METAR MROC 241300Z 06006KT CAVOK 22/17 A3002 NOSIG=
200610241400 METAR MROC 241400Z 01007KT CAVOK 24/18 A3001 NOSIG=
200610241500 METAR MROC 241500Z 12008KT CAVOK 26/18 A3001 NOSIG=
200610241600 METAR MROC 241600Z 11010KT CAVOK 28/17 A3000 NOSIG=
200610241700 METAR MROC 241700Z 24011KT CAVOK 26/21 A2997 NOSIG=
200610241800 METAR MROC 241800Z 24009KT 9999 FEW040 BKN250 27/22 A2995 NOSIG=
200610241900 METAR MROC 241900Z 23008KT 9999 SCT035 SCT250 26/22 A2994 NOSIG=
200610242000 METAR MROC 242000Z 23007KT 9999 FEW015 SCT030 26/22 A2992 NOSIG=
200610242100 METAR MROC 242100Z 24009KT 9999 SCT030 SCT120 28/22 A2990 NOSIG=
200610242200 METAR MROC 242200Z 23005KT 9999 SCT030 SCT120 25/22 A2992 NOSIG=
200610242300 METAR MROC 242300Z 25005KT 9999 SCT030 BKN250 24/22 A2993 BECMG 07006KT=
200610250000 METAR MROC 250000Z 23005KT 6000 VCFG FEW005 SCT025 BKN250 22/22 A2996 NOSIG=
200610250100 METAR MROC 250100Z 00000KT 6000 VCFG FEW005 SCT025 SCT250 22/21 A2998 NOSIG=
200610250200 METAR MROC 250200Z 06003KT 9999 SCT030 SCT250 22/19 A3002 BECMG RMK=
200610250300 METAR MROC 250300Z 03004KT CAVOK 22/18 A3002 RMK LTNG DST S SW NOSIG=
200610250400 METAR MROC 250400Z 07005KT CAVOK 21/18 A3002 NOSIG=
200610250500 METAR MROC 250500Z 10008KT CAVOK 22/18 A3001=
200610250600 METAR MROC 250600Z 08006KT CAVOK 22/18 A2999=
200610250700 METAR MROC 250700Z 34003KT CAVOK 21/18 A2998=
200610250800 METAR MROC 250800Z 03004KT CAVOK 20/18 A2996 NOSIG=
200610250900 METAR MROC 250900Z 08005KT CAVOK 21/17 A2995 NOSIG=
200610251000 METAR MROC 251000Z 05004KT CAVOK 21/17 A2996 NOSIG=
200610251100 METAR MROC 251100Z 12005KT CAVOK 21/17 A2998 NOSIG=
200610251200 METAR MROC 251200Z 01004KT CAVOK 20/17 A3000 RMK FEW100 BKN260 RMK CB DST S NOSIG=
200610251300 METAR MROC 251300Z 04006KT CAVOK 22/17 A3002 NOSIG=
200610251400 METAR MROC 251400Z 09010KT CAVOK 25/17 A3003 NOSIG=
200610251500 METAR MROC 251500Z 11008KT CAVOK 26/17 A3003 NOSIG=
200610251600 METAR MROC 251600Z 10010KT 9999 FEW030 SCT120 SCT250 29/18 A3001 NOSIG=
200610251700 METAR MROC 251700Z 12009KT 9999 FEW030 BKN120 28/18 A3000 NOSIG=
200610251800 METAR MROC 251800Z 22006KT 9999 FEW030 SCT130 BKN250 29/20 A2997=
200610251900 METAR MROC 251900Z 24012KT 9999 SCT020TCU BKN110 26/21 A2995 BECMG 5000 VCSH=
200610252000 METAR MROC 252000Z 23010KT 9999 FEW010 SCT030 24/23 A2994 NOSIG=
200610252100 METAR MROC 252100Z 23011KT 9999 FEW010 BKN030 24/22 A2993 RERA=
200610252200 METAR MROC 252200Z 23008KT 9999 4000N RA FEW010TCU SCT030 OVC100 22/21 A2995=
200610252300 METAR MROC NIL=
200610260000 METAR MROC 260000Z 33005KT 9999 FEW025 BKN100 21/20 A2999 NOSIG=
200610260100 METAR MROC 260100Z 00000KT 9999 FEW030 BKN100 20/20 A3001=
200610260200 METAR MROC 260200Z 05003KT CAVOK 20/19 A3004=
200610260300 METAR MROC 260300Z 35007KT CAVOK 20/20 A3004 NOSIG=
200610260400 METAR MROC 260400Z 00000KT 9999 2000SW BR SCT001 BKN250 20/19 A3005 RMK 4000E BECMG 7000SW VCFG=
200610260500 METAR MROC 260500Z 10003KT 9999 FEW030 BKN250 20/20 A3004 RMK DUE ST SW=
200610260600 METAR MROC 260600Z 03007KT CAVOK 20/19 A2999 NOSIG=
200610260700 METAR MROC 260700Z 04007KT 9999 FEW025 BKN110 21/18 A2995 NOSIG=
200610260800 METAR MROC 260800Z 08004KT CAVOK 20/18 A2992 NOSIG=
200610260900 METAR MROC 260900Z 07007KT CAVOK 21/18 A2991 NOSIG=
200610261000 METAR MROC 261000Z 10010KT CAVOK 22/18 A2993 NOSIG=
200610261100 METAR MROC 261100Z 36007KT CAVOK 21/18 A2996 NOSIG=
200610261200 METAR MROC 261200Z 06006KT CAVOK 21/18 A2998 RMK CB DST S NOSIG=
200610261300 METAR MROC 261300Z 36004KT CAVOK 23/19 A3000 RMK CB DST S=
200610261400 METAR MROC 261400Z 11012KT 9999 FEW035 SCT260 24/19 A3001 RMK CB SW NOSIG=
200610261500 METAR MROC 261500Z 11011KT 9999 FEW035 BKN260 26/20 A3003 NOSIG=
200610261600 METAR MROC NIL=
200610261700 METAR MROC 261700Z 10009KT 9999 SCT030 SCT120 29/20 A3000=
200610261800 METAR MROC 261800Z 09012KT 9999 SCT030 SCT120 29/18 A2998 NOSIG=
200610261900 METAR MROC 261900Z 06014KT 9999 SCT030 SCT120 29/18 A2994 NOSIG=
200610262000 METAR MROC 262000Z 09010KT 9999 SCT030 SCT120 29/18 A2992 NOSIG=
200610262100 METAR MROC 262100Z 08008KT 9000 FEW010TCU SCT120 SCT250 27/17 A2992 RMK DZ W=
200610262200 METAR MROC 262200Z 24005KT 9999 SCT030 SCT250 24/22 A2993 RMK BR ARND S SW W=
200610262300 METAR MROC 262300Z 22006KT 9000 FEW003 SCT035 SCT180 23/22 A2994 RMK BR ARND=
200610270000 METAR MROC 270000Z 23003KT 9999 SCT030 SCT180 22/21 A2995=
200610270100 METAR MROC 270100Z 11004KT CAVOK 22/17 A2997=
200610270200 METAR MROC 270200Z 00000KT CAVOK 22/20 A2999=
200610270300 METAR MROC 270300Z 11007KT CAVOK 23/16 A3000 NOSIG=
200610270400 METAR MROC NIL=
200610270500 METAR MROC NIL=
200610270600 METAR MROC NIL=
200610270700 METAR MROC 270700Z 10007KT CAVOK 22/17 A2999 NOSIG=
200610270800 METAR MROC 270800Z 00000KT CAVOK 20/17 A2994 NOSIG=
200610270900 METAR MROC 270900Z 00000KT CAVOK 19/16 A2995 NOSIG=
200610271000 METAR MROC 271000Z 02004KT CAVOK 18/16 A2994 NOSIG=
200610271100 METAR MROC 271100Z 04006KT CAVOK 18/15 A2996 NOSIG=
200610271200 METAR MROC 271200Z 07008KT CAVOK 19/16 A2997 NOSIG=
200610271300 METAR MROC 271300Z 10006KT CAVOK 23/17 A2997=
200610271400 METAR MROC 271400Z 10008KT CAVOK 25/16 A2998=
200610271500 METAR MROC 271500Z 10010KT CAVOK 28/14 A2998=
200610271600 METAR MROC 271600Z 07006KT CAVOK 30/14 A2998=
200610271700 METAR MROC 271700Z 10005KT CAVOK 30/15 A2996 BECMG 24008KT=
200610271800 METAR MROC 271800Z 25013KT 9999 FEW030 27/21 A2994=
200610271900 METAR MROC 271900Z 25010KT 9999 FEW030 27/21 A2993 NOSIG=
200610272000 METAR MROC 272000Z 25008KT 9999 FEW020TCU SCT035 26/21 A2991=
200610272100 METAR MROC 272100Z 24009KT 9999 SCT025TCU SCT250 26/22 A2989 NOSIG=
200610272200 METAR MROC 272200Z 23009KT 9999 SCT020 25/21 A2991 NOSIG=
200610272300 METAR MROC 272300Z 23006KT 9999 FEW020 SCT040 23/21 A2993 NOSIG=
200610280000 METAR MROC 280000Z 23003KT 9999 VCFG SCT010 SCT025 22/21 A2996 RMK VSBY N 6KM LOW ST NOSIG=
200610280100 METAR MROC 280100Z 00000KT 9999 FEW9010 SCT025 22/21 A2999 NOSIG=
200610280200 METAR MROC 280200Z 00000KT 9999 FEW020 22/20 A2999 NOSIG=
200610280300 METAR MROC 280300Z 00000KT 9999 FEW020 21/20 A3001 NOSIG=
200610280400 METAR MROC 280400Z 35002KT 9999 FEW025 21/20 A2999 NOSIG=
200610280500 METAR MROC 280500Z 02006KT CAVOK 21/19 A2998 NOSIG=
200610280600 METAR MROC 280600Z 06005KT CAVOK 21/18 A2996=
200610280700 METAR MROC 280700Z 05007KT CAVOK 20/18 A2994=
200610280800 METAR MROC 280800Z 06009KT CAVOK 20/18 A2992 NOSIG=
200610280900 METAR MROC 280900Z 06006KT CAVOK 21/17 A2993=
200610281000 METAR MROC 281000Z 06008KT CAVOK 20/17 A2994 NOSIG=
200610281100 METAR MROC 281100Z 03008KT CAVOK 20/17 A2996=
200610281200 METAR MROC 281200Z 03008KT CAVOK 20/17 A2996 RMK CB DST S NOSIG=
200610281300 METAR MROC 281300Z 02006KT CAVOK 22/18 A2998 RMK CB DST S=
200610281400 METAR MROC 281400Z 09007KT CAVOK 26/18 A2998 NOSIG=
200610281500 METAR MROC 281500Z 32006KT CAVOK 27/18 A2998 NOSIG=
200610281600 METAR MROC 281600Z 10014KT 9999 FEW040 BKN280 29/17 A2998 NOSIG=
200610281700 METAR MROC 281700Z 08009KT 9999 SCT040 BKN280 30/17 A2996 NOSIG=
200610281800 METAR MROC 281800Z 11006KT 9999 FEW030 BKN040 29/18 A2994 NOSIG=
200610281900 METAR MROC 281900Z 24008KT 9999 SCT035 SCT280 28/21 A2991 NOSIG=
200610282000 METAR MROC 282000Z 22008KT 9999 FEW020TCU SCT035 27/22 A2989 RMK RN NE NOSIG=
200610282100 METAR MROC 282100Z 23009KT 9999 SCT020TCU SCT030 26/23 A2987 NOSIG=
200610282200 METAR MROC 282200Z 24010KT 9999 -RA SCT012 BKN025 25/22 A2988 RMK VIS 7000SW NE=
200610282300 METAR MROC 282300Z 26008KT 5000 2000SW -RA BR SCT003 BKN015 23/23 A2990 RMK 3000 BR=
200610290000 METAR MROC 290000Z 22002KT 7000 -RA VCFG FEW005 BKN025 23/22 A2994 RMK 9999N LTNG W=
200610290100 METAR MROC 290100Z 25002KT 9999 -RA FEW008 SCT025 BKN090 21/21 A2997 RMK LTNG E W=
200610290200 METAR MROC 290200Z 00000KT 9999 -DZ FEW035 BKN120 21/20 A2999 RMK LTNG SE S SSW SW=
200610290300 METAR MROC 290300Z 05004KT CAVOK 22/20 A3001 RMK LTNG DST S SW=
200610290400 METAR MROC 290400Z 00000KT CAVOK 22/20 A3004 RMK LTNG DST SW=
200610290500 METAR MROC 290500Z 24003KT 9999 FEW020 FEW120 21/20 A3002=
200610290600 METAR MROC 290600Z 27003KT 9999 2000SW BR FEW001 SCT012 21/20 A3000=
200610290700 METAR MROC 290700Z 05004KT 9999 FEW015 20/20 A2997=
200610290800 METAR MROC NIL=
200610290900 METAR MROC 290900Z 00000KT CAVOK 20/19 A2997=
200610291000 METAR MROC 291000Z 03003KT CAVOK 20/18 A2995=
200610291100 METAR MROC 291100Z 02005KT CAVOK 20/18 A2997=
200610291200 METAR MROC 291200Z 03005KT CAVOK 19/18 A2999=
200610291300 METAR MROC 291300Z 09004KT CAVOK 21/19 A3001 NOSIG=
200610291400 METAR MROC 291400Z 35003KT CAVOK 24/19 A3002 NOSIG=
200610291500 METAR MROC 291500Z 31005KT 9999 FEW035 BKN250 25/19 A3003 NOSIG=
200610291600 METAR MROC 291600Z 27008KT 9999 SCT030 BKN250 26/20 A3002 NOSIG=
200610291700 METAR MROC 291700Z 21002KT 9999 SCT030 BKN250 26/21 A2998 RMK RN DST SSE=
200610291800 METAR MROC 291800Z 24008KT 9999 FEW020TCU SCT030 SCT250 26/21 A2995 RMK RN DST SSE NE=
200610291900 METAR MROC 291900Z 27010KT 9999 VCSH SCT020TCU BKN030 25/21 A2991 RMK VIS 7000NW=
200610292000 METAR MROC 292000Z 01002KT 9999 4000W VCSH SCT015CB BKN025 24/21 A2991 RMK RN ARND BECMG 5000 -TSRA=
200610292100 METAR MROC 292100Z 19005KT 9999 -RA SCT020 OVC100 22/21 A2990 NOSIG=
200610292200 METAR MROC 292200Z 22005KT 9999 FEW004 SCT020 BKN100 21/20 A2991 NOSIG=
200610292300 METAR MROC 292300Z 26004KT 8000 VCFG FEW004 SCT025 BKN120 21/21 A2992 BECMG 5000 BR=
200610300000 METAR MROC 300000Z 28003KT 8000 VCFG FEW004 SCT025 BKN120 21/21 A2992 NOSIG=
200610300100 METAR MROC 300100Z 27003KT 7000 VCFG FEW004 SCT025 BKN120 21/21 A2992 NOSIG=
200610300200 METAR MROC 300200Z 19002KT 9999 SCT020 BKN120 21/20 A2999 RMK LOW ST N/ NOSIG=
200610300300 METAR MROC 300300Z 30003KT 6000 VCFG SCT003 BKN120 21/21 A3002 RMK VSBY NE E UNL VSBY SW 4KM LOW ST NOSIG=
200610300400 METAR MROC 300400Z 28002KT 7000 VCFG FEW003 SCT010 BKN120 21/20 A3000 RMK VSBY SW E UNL NOSIG=
200610300500 METAR MROC 300500Z 29003KT 9999 FEW010 BKN120 21/20 A2999=
200610300600 METAR MROC 300600Z 28002KT 9999 FEW015 BKN120 21/20 A2997=
200610300700 METAR MROC 300700Z 00000KT 9999 FEW035 SCT120 20/19 A2994=
200610300800 METAR MROC 300800Z 09004KT 9999 FEW035 SCT120 20/19 A2991 NOSIG=
200610300900 METAR MROC 300900Z 05005KT CAVOK 20/18 A2990 NOSIG=
200610301000 METAR MROC 301000Z 06005KT CAVOK 21/18 A2988 NOSIG=
200610301100 METAR MROC 301100Z 08005KT CAVOK 21/18 A2990 NOSIG=
200610301200 METAR MROC 301200Z 03007KT CAVOK 21/18 A2991 NOSIG=
200610301300 METAR MROC 301300Z 00000KT 9999 SCT025 BKN140 23/19 A2996 NOSIG=
200610301400 METAR MROC 301400Z 23003KT 9999 SCT025 BKN120 22/20 A2999 NOSIG=
200610301500 METAR MROC 301500Z 30004KT 9999 FEW030 BKN120 23/19 A3000 NOSIG=
200610301600 METAR MROC NIL=
200610301700 METAR MROC NIL=
200610301800 METAR MROC NIL=
200610301900 METAR MROC 301900Z 24010KT 9999 SCT020 BKN100 24/21 A2992 NOSIG=
200610302000 METAR MROC 302000Z 23009KT 9999 SCT020TCU OVC100 24/20 A2991 BECMG 5000 VCSH=
200610302100 METAR MROC 302100Z 26005KT 9999 SCT015TCU OVC100 23/21 A2990 RMK RN NE E=
200610302200 METAR MROC 302200Z 23006KT 9999 SCT015 OVC100 22/21 A2991 NOSIG=
200610302300 METAR MROC 302300Z 23003KT 9999 4000N BR FEW005 SCT020 BKN100 22/20 A2993 NOSIG=
200610310000 METAR MROC 310000Z 26003KT 9999 FEW020 BKN100 22/20 A2995 NOSIG=
200610310100 METAR MROC 310100Z 23002KT 9999 FEW030 BKN110 21/20 A2997 NOSIG=
200610310200 METAR MROC 310200Z 27002KT 9999 DZ FEW030 BKN110 21/20 A2998 NOSIG=
200610310300 METAR MROC 310300Z 00000KT 9999 FEW020 SCT120 20/20 A2998 NOSIG=
200610310400 METAR MROC 310400Z 10002KT 9999 SCT012 SCT120 20/19 A2998 NOSIG=
200610310500 METAR MROC 310500Z 01003KT 9999 FEW008 SCT120 20/19 A2997 NOSIG=
200610310600 METAR MROC 310600Z 07004KT CAVOK 18/18 A2994 NOSIG=
200610310700 METAR MROC 310700Z 05004KT CAVOK 19/18 A2993 NOSIG=
200610310800 METAR MROC 310800Z 09003KT CAVOK 18/17 A2991 NOSIG=
200610310900 METAR MROC 310900Z 09003KT CAVOK 18/17 A2991 NOSIG=
200610311000 METAR MROC 311000Z 07004KT CAVOK 18/17 A2992 NOSIG=
200610311100 METAR MROC 311100Z 05005KT CAVOK 18/17 A2992 NOSIG=
200610311200 METAR MROC 311200Z 08002KT CAVOK 19/17 A2995 RMK CB DST SSW SW=
200610311300 METAR MROC 311300Z 10003KT CAVOK 22/19 A2996 NOSIG=
200610311400 METAR MROC 311400Z 00000KT 9999 FEW040 BKN280 25/19 A2997 NOSIG=
200610311500 METAR MROC 311500Z 22005KT 9999 FEW040 BKN280 25/20 A2998=
200610311600 METAR MROC 311600Z 23005KT 9999 FEW040 BKN280 25/20 A2998 NOSIG=
200610311700 METAR MROC 311700Z 25007KT 9999 SCT035 BKN250 26/20 A2995 NOSIG=
200610311800 METAR MROC 311800Z 23007KT 9999 FEW015 SCT035 BKN250 25/20 A2992 NOSIG=
200610311900 METAR MROC 311900Z 19005KT 9999 FEW015 SCT030 SCT110 24/21 A2990 NOSIG=
200610312000 METAR MROC 212000Z 21007KT 9999 -DZ FEW010 SCT030 BKN110 22/20 A2989 NOSIG=
200610312100 METAR MROC 312100Z 00000KT 9999 FEW020 SCT120 20/20 A2998 NOSIG=
200610312200 METAR MROC 312200Z 25003KT 9999 SCT025 BKN200 23/20 A2989=
200610312300 METAR MROC 312300Z 24003KT 9999 FEW020 SCT035 SCT200 22/20 A2990=
200611010000 METAR MROC 010000Z 00000KT 9999 FEW025 21/20 A2991=
200611010100 METAR MROC 010100Z 00000KT 9999 FEW035 21/20 A2995=
200611010200 METAR MROC 010200Z 00000KT 9999 FEW010 SCT120 21/20 A2997=
200611010300 METAR MROC NIL=
200611010400 METAR MROC 010400Z 00000KT 5000 FEW004 SCT020 21/20 A2997 NOSIG=
200611010500 METAR MROC 010500Z 00000KT 5000 2000W BR FEW003 SCT020 BKN120 20/20 A2995 BECMG 4000 BR=
200611010600 METAR MROC 010600Z 00000KT 9999 5000W BR FEW003 SCT025 BKN120 20/19 A2994 BECMG 9999=
200611010700 METAR MROC 010700Z 00000KT 9999 5000W BR FEW003 SCT025 BKN120 20/19 A2992 NOSIG=
200611010800 METAR MROC 010800Z 00000KT 9999 SCT025 BKN120 20/20 A2991 NOSIG=
200611010900 METAR MROC 010900Z 07003KT CAVOK 20/20 A2990 NOSIG=
200611011000 METAR MROC 011000Z 07004KT CAVOK 20/19 A2989 NOSIG=
200611011100 METAR MROC 011100Z 04004KT 9999 FEW020 BKN100 21/19 A2992 NOSIG=
200611011200 METAR MROC 011200Z 06004KT 9999 SCT030 BKN100 20/19 A2995 NOSIG=
200611011300 METAR MROC 011300Z 08003KT 9999 FEW035 SCT100 22/19 A2996=
200611011400 METAR MROC 011400Z 10003KT 9999 FEW035 SCT200 24/19 A2998 BECMG 24006KT=
200611011500 METAR MROC 011500Z 00000KT 9999 FEW025 SCT200 26/19 A2998=
200611011600 METAR MROC 011600Z 28005KT 9999 FEW025 SCT180 26/20 A2998 RMK HZY=
200611011700 METAR MROC 011700Z 27005KT 9999 FEW025 SCT150 26/20 A2994 RMK HZY=
200611011800 METAR MROC 011800Z 20005KT 9999 SCT025 SCT180 26/21 A2991=
200611011900 METAR MROC 011900Z 22006KT 9999 SCT025TCU SCT140 25/22 A2987=
200611012000 METAR MROC 012000Z 24014KT 5000 DZ BR SCT003 SCT020 23/21 A2985 RMK RN ARND=
200611012100 METAR MROC 012100Z 22007KT 3000 -RA BR SCT002 BKN010 21/20 A2986 NOSIG=
200611012200 METAR MROC 012200Z 21004KT 5000 BR SCT003 BKN030 21/20 A2988 RMK VSBY SE S SW UNL RN DST ARND NOSIG=
200611012300 METAR MROC 012300Z 32002KT 6000 VCFG FEW005 SCT020 BKN100 21/20 A2992 RMK VSBY E SE S UNL NOSIG=
200611020000 METAR MROC 020000Z 07004KT 7000 RA VCFG FEW006 SCT025 OVC100 21/20 A2993 RMK VSBY NE E SE S UNL TS NE NOSIG=
200611020100 METAR MROC 020100Z 08004KT 9999 RA SCT025 OVC100 20/20 A2995 NOSIG=
200611020200 METAR MROC 020200Z 07003KT 9999 -RA FEW030 BKN120 20/19 A2995 NOSIG=
200611020300 METAR MROC 020300Z 05005KT CAVOK 20/19 A2995 RERA NOSIG=
200611020400 METAR MROC 020400Z 06004KT CAVOK 20/19 A2996 NOSIG=
200611020500 METAR MROC 020500Z 00000KT 1500 BR FEW001 BKN100 20/19 A2996 NOSIG=
200611020600 METAR MROC 020600Z 00000KT 9999 FEW020 BKN120 19/19 A2994=
200611020700 METAR MROC 020700Z 04003KT CAVOK 18/18 A2993 NOSIG=
200611020710 METAR MROC 020710Z 01004KT CAVOK 19/18 A2992=
200611020800 METAR MROC 020800Z 07005KT CAVOK 18/17 A2992 NOSIG=
200611020900 METAR MROC 020900Z 04006KT CAVOK 19/17 A2991 NOSIG=
200611021000 METAR MROC 021000Z 04004KT CAVOK 18/16 A2990=
200611021100 METAR MROC 021100Z 09003KT CAVOK 17/16 A2991=
200611021200 METAR MROC 021200Z 04002KT CAVOK 19/17 A2994 RMK CB DST SW=
200611021300 METAR MROC 021300Z 06005KT CAVOK 22/18 A2996 RMK CB DST S NOSIG=
200611021400 METAR MROC 021400Z 22003KT CAVOK 24/19 A2998 NOSIG=
200611021500 METAR MROC 021500Z 32002KT 9999 FEW030 26/19 A2997 NOSIG=
200611021600 METAR MROC 021600Z 23005KT 9999 FEW030 26/20 A2997 NOSIG=
200611021700 METAR MROC 021700Z 26009KT 9999 SCT030 27/21 A2994 NOSIG=
200611021800 METAR MROC 021800Z 23009KT 9999 RA SCT020TCU SCT030 25/21 A2991 RMK VSBY NE 6KM DUE RASH NOSIG=
200611021900 METAR MROC 021900Z 20006KT 9999 FEW010 BKN035 23/21 A2989 RERA RMK RN DST S SW NOSIG=
200611022000 METAR MROC 022000Z 22006KT 9999 4000N VCSH SCT015TCU SCT030 23/21 A2987 RMK RN DST ARND NOSIG=
200611022100 METAR MROC 022100Z 22006KT 7000 VCSH FEW015TCU SCT030 SCT100 22/20 A2986 BECMG 5000 -RA=
200611022200 METAR MROC 022200Z 26004KT 7000 3000SW BR FEW002 BKN015 21/20 A2988 RMK VIS 4000N=
200611022300 METAR MROC 022300Z 22006KT 2000 RA BR SCT002 BKN006 20/19 A2991 BECMG 4000 -RA BR=
200611030000 METAR MROC 030000Z 30005KT 7000 RA VCFG SCT006 BKN020 19/19 A2994 RMK 4000SW BR=
200611030100 METAR MROC 030100Z 12002KT 9999 DZ VCFG FEW006 SCT025 BKN100 19/19 A2997 RMK VIS 7000SW=
200611030200 METAR MROC 030200Z 08004KT 9999 FEW030 SCT120 SCT250 20/19 A2997 NOSIG=
200611030300 METAR MROC 030300Z 07007KT 9999 DZ SCT020 SCT100 20/19 A2995=
200611030400 METAR MROC 030400Z 11010KT CAVOK 20/19 A2993 RERA=
200611030500 METAR MROC 030500Z 32004KT CAVOK 20/19 A2994=
200611030600 METAR MROC 030600Z 00000KT CAVOK 19/18 A2993=
200611030700 METAR MROC NIL=
200611030800 METAR MROC 030800Z 05004KT CAVOK 19/18 A2990=
200611030900 METAR MROC 030900Z 06004KT CAVOK 19/18 A2988=
200611031000 METAR MROC 031000Z 02007KT CAVOK 19/18 A2988=
200611031100 METAR MROC 031100Z 08005KT 9999 FEW030 SCT250 20/18 A2988=
200611031200 METAR MROC 031200Z 07007KT 9999 FEW030 SCT100 20/18 A2991=
200611031300 METAR MROC 031300Z 10006KT CAVOK 22/18 A2993 NOSIG=
200611031400 METAR MROC 031400Z 07004KT CAVOK 23/19 A2994 NOSIG=
200611031500 METAR MROC 031500Z 12006KT CAVOK 25/19 A2996 NOSIG=
200611031600 METAR MROC 031600Z 16004KT 9999 FEW040 BKN120 27/18 A2995 BECMG 24006KT=
200611031700 METAR MROC 031700Z 24009KT 9999 SCT035 BKN120 25/20 A2993 NOSIG=
200611031800 METAR MROC 031800Z 24005KT 9999 SCT030 BKN120 25/20 A2990 NOSIG=
200611031900 METAR MROC 031900Z 20006KT 9999 SCT030 BKN120 26/22 A2988 NOSIG=
200611032000 METAR MROC 032000Z 23008KT 9999 FEW015TCU SCT025 SCT120 25/22 A2985 RMK RN DST N NE=
200611032100 METAR MROC 032100Z 26007KT 9999 VCSH SCT020CB BKN100 24/21 A2984 BECMG 7000 RA=
200611032200 METAR MROC 032200Z 18005KT 9999 3000W RA FEW004 SCT020 BKN100 20/19 A2986 BECMG 9999=
200611032300 METAR MROC 032300Z 00000KT 9999 SCT030 SCT120 21/20 A2987 NOSIG=
200611040000 METAR MROC 040000Z 06005KT 9999 SCT030 BKN120 21/19 A2988 NOSIG=
200611040100 METAR MROC 040100Z 06006KT 9999 FEW030 BKN120 22/18 A2991 NOSIG=
200611040200 METAR MROC 040200Z 00000KT 9999 FEW035 SCT120 22/19 A2998 NOSIG=
200611040300 METAR MROC NIL=
200611040400 METAR MROC 040400Z 10006KT CAVOK 20/17 A2993 NOSIG=
200611040500 METAR MROC 040500Z 05004KT CAVOK 20/17 A2993=
200611040600 METAR MROC 040600Z 34004KT CAVOK 20/17 A2993=
200611040700 METAR MROC 040700Z 06005KT CAVOK 18/17 A2991=
200611040800 METAR MROC 040800Z 05005KT CAVOK 19/16 A2990 NOSIG=
200611040900 METAR MROC 040900Z 03004KT CAVOK 18/16 A2987 NOSIG=
200611041000 METAR MROC 041000Z 08005KT CAVOK 19/16 A2988 NOSIG=
200611041100 METAR MROC 041100Z 04007KT 9999 19/16 A2988 NOSIG=
200611041200 METAR MROC 041200Z 02005KT CAVOK 19/17 A2990 NOSIG=
200611041300 METAR MROC 041300Z 35503KT CAVOK 22/18 A2992 NOSIG=
200611041400 METAR MROC 041400Z 12005KT CAVOK 24/18 A2993 NOSIG=
200611041500 METAR MROC 041500Z 10010KT 9999 FEW035 SCT130 26/18 A2993 NOSIG=
200611041600 METAR MROC 041600Z 09008KT 9999 FEW035 28/19 A2992 NOSIG=
200611041700 METAR MROC 041700Z 09007KT 9999 SCT030 29/18 A2990 NOSIG=
200611041800 METAR MROC 041800Z 08005KT 9999 SCT030 28/18 A2987 NOSIG=
200611041900 METAR MROC 041900Z 22003KT 9999 SCT025 SCT120 26/21 A2984 BECMG 5000=
200611042000 METAR MROC 042000Z 24009KT 9999 SCT025 SCT080 25/22 A2982 NOSIG=
200611042100 METAR MROC 042100Z 23008KT 9999 SCT020 SCT080 25/22 A2981 NOSIG=
200611042200 METAR MROC 042200Z 22007KT 9999 FEW005 SCT020 BKN100 23/21 A2984 NOSIG=
200611042300 METAR MROC 042300Z 30005KT 9999 FEW010 SCT020 BKN100 21/19 A2986=
200611050000 METAR MROC 050000Z 26003KT 9999 SCT030 SCT100 21/19 A2989 NOSIG=
200611050100 METAR MROC 050100Z 32002KT 9999 FEW030 SCT120 21/20 A2991 NOSIG=
200611050200 METAR MROC 050200Z 09004KT 9999 FEW030 SCT120 22/15 A2993 NOSIG=
200611050300 METAR MROC 050300Z 10006KT CAVOK 21/17 A2994 NOSIG=
200611050400 METAR MROC 050400Z 11010KT CAVOK 21/17 A2993 NOSIG=
200611050500 METAR MROC 050500Z 11011KT CAVOK 21/17 A2992 NOSIG=
200611050600 METAR MROC 050600Z 09014KT CAVOK 21/17 A2990 NOSIG=
200611050700 METAR MROC 050700Z 10009KT CAVOK 21/16 A2990 NOSIG=
200611050800 METAR MROC 050800Z 11010KT CAVOK 20/16 A2988 NOSIG=
200611050900 METAR MROC 050900Z 11011KT CAVOK 20/16 A2986 RMK CB DST SW NOSIG=
200611051000 METAR MROC 051000Z 10010KT CAVOK 21/16 A2986 RMK CB DST SW NOSIG=
200611051100 METAR MROC 051100Z 10010KT CAVOK 20/16 A2988 RMK CB DST S/SW NOSIG=
200611051200 METAR MROC 051200Z 10012KT CAVOK 21/16 A2990 NOSIG=
200611051300 METAR MROC 051300Z 10012KT CAVOK 22/16 A2991 NOSIG=
200611051400 METAR MROC 051400Z 10016KT CAVOK 24/18 A2991 NOSIG=
200611051500 METAR MROC 051500Z 08012KT 9999 FEW040 SCT250 27/17 A2993 NOSIG=
200611051600 METAR MROC 051600Z 07008KT 9999 FEW040 SCT120 26/17 A2991=
200611051700 METAR MROC 051700Z 08008KT 9999 FEW040 SCT120 29/17 A2989=
200611051800 METAR MROC 051800Z 08008KT 9999 SCT040 29/17 A2988=
200611051900 METAR MROC 051900Z 24011KT 9999 SCT035 26/22 A2985 NOSIG=
200611052000 METAR MROC 052000Z 24011KT 9999 BKN035 27/22 A2983 NOSIG=
200611052100 METAR MROC 052100Z 23010KT 9999 BKN035 25/22 A2982 BECMG 5000 -RA=
200611052200 METAR MROC 052200Z 23007KT 9999 FEW010 SCT035 24/22 A2983 BECMG 6000=
200611052300 METAR MROC 052300Z 24008KT 0500 FG SCT001 SCT008 22/21 A2985=
200611060000 METAR MROC 060000Z 27004KT 9999 3000SW BR FEW001 SCT015 21/21 A2988=
200611060100 METAR MROC 060100Z 00000KT 8000 VCFG FEW010 FEW040 21/21 A2990=
200611060200 METAR MROC 060200Z 00000KT 9999 FEW015 21/20 A2991=
200611060300 METAR MROC 060300Z 08005KT CAVOK 21/18 A2992 NOSIG=
200611060400 METAR MROC 060400Z 05003KT CAVOK 21/18 A2993 NOSIG=
200611060500 METAR MROC 060500Z 03007KT CAVOK 21/18 A2992 NOSIG=
200611060600 METAR MROC 060600Z 07003KT CAVOK 21/18 A2993 NOSIG=
200611060700 METAR MROC NIL=
200611060800 METAR MROC 060800Z 01007KT CAVOK 20/18 A2988 NOSIG=
200611060900 METAR MROC 060900Z 01004KT CAVOK 20/18 A2987 NOSIG=
200611061000 METAR MROC NIL=
200611061100 METAR MROC 061100Z 07004KT CAVOK 21/18 A2988 NOSIG=
200611061200 METAR MROC 061200Z 08004KT 9999 SCT030 BKN100 21/19 A2991 BECMG RMK DZ N NE=
200611061300 METAR MROC 061300Z 07004KT 9999 FEW025 SCT100 BKN250 23/19 A2991=
200611061400 METAR MROC 061400Z 10010KT 9999 FEW025 SCT250 25/19 A2993=
200611061500 METAR MROC 061500Z 11010KT 9999 FEW025 SCT250 26/19 A2993=
200611061600 METAR MROC 061600Z 09011KT 9999 FEW025 SCT250 27/20 A2992=
200611061700 METAR MROC 061700Z 10007KT 9999 SCT025 SCT220 27/20 A2990 RMK DZ N NE E=
200611061800 METAR MROC 061800Z 30007KT 8000 -RA SCT010 SCT035 24/21 A2989=
200611061900 METAR MROC 061900Z 19006KT 9999 SCT020 SCT120 26/21 A2986 RMK RN ARND=
200611062000 METAR MROC 062000Z 10008KT 9999 SCT020 SCT120 25/20 A2984 RMK DZ N NE E=
200611062100 METAR MROC 062100Z 21005KT 9999 VCFG FEW008 SCT030 BKN120 24/21 A2984 RMK VIS 7 KMS S SW DUE LOW ST BECMG 8000=
200611062200 METAR MROC 062200Z 25008KT 9999 VCFG FEW006 SCT030 BKN120 23/22 A2986 RMK VIS 6KMS SW WNW DUE LOW ST BECMG 7000=
200611062300 METAR MROC 062300Z VRB03KT 9999 FEW004 SCT120 BKN250 22/19 A2987 RMK VIS N NW 6KMS DUE LOW ST NOSIG=
200611070000 METAR MROC 070000Z 22002KT 9999 FEW004 SCT120 BKN250 22/21 A2988 NOSIG=
200611070100 METAR MROC 070100Z 00000KT 9999 FEW004 SCT120 BKN250 22/20 A2991 NOSIG=
200611070140 METAR MROC 070140Z 24005KT 0500 FG VV/// 21/21 A2993 BECMG 3000 BR=
200611070200 METAR MROC 070200Z 00000KT 1000 BR FEW001 SCT003 BKN010 21/21 A2992=
200611070300 METAR MROC 070300Z 05003KT 9999 3000SW BR FEW002 SCT025 21/21 A2995 NOSIG=
200611070400 METAR MROC 070400Z 31003KT 9999 2000SW BR FEW001 SCT035 21/20 A2995 NOSIG=
200611070500 METAR MROC 070500Z 03004KT 9999 FEW035 SCT080 21/19 A2993 NOSIG=
200611070600 METAR MROC 070600Z 02005KT CAVOK 20/19 A2991 NOSIG=
200611070700 METAR MROC 070700Z 01004KT CAVOK 20/18 A2989 NOSIG=
200611070800 METAR MROC 070800Z 02007KT CAVOK 20/18 A2988 NOSIG=
200611070900 METAR MROC 070900Z 02007KT CAVOK 21/18 A2988 NOSIG=
200611071000 METAR MROC 071000Z 03007KT CAVOK 20/17 A2988 NOSIG=
200611071100 METAR MROC 071100Z 10008KT CAVOK 21/18 A2989=
200611071200 METAR MROC 071200Z 11010KT CAVOK 21/18 A2991 RMK CB DST SW=
200611071300 METAR MROC 071300Z 11010KT CAVOK 23/18 A2994 RMK BKN300 CB DST SW NOSIG=
200611071400 METAR MROC 071400Z 13004KT 9999 FEW030 SCT300 26/19 A2996 RMK CB DST SW NOSIG=
200611071500 METAR MROC 071500Z 25007KT 9999 FEW030 SCT300 26/20 A2996 NOSIG=
200611071600 METAR MROC 071600Z 24008KT 9999 SCT030 SCT300 26/20 A2996 NOSIG=
200611071700 METAR MROC 071700Z 23007KT 9999 SCT030 SCT300 27/22 A2994 NOSIG=
200611071800 METAR MROC 071800Z 24010KT 9999 FEW020TCU SCT030 27/22 A2991 RMK RASH=
200611071900 METAR MROC 071900Z 32008KT 9999 4000W VCSH SCT017TCU BKN030 22/20 A2990 RMK RASH W WNW NW BECMG 3000 TSRA=
200611072000 METAR MROC 072000Z 27005KT 9999 4000SW VCSH FEW004 FEW017TCU BKN030 21/20 A2990 RMK LOW ST OVER APCH07 RN DST ESE BECMG 3000 TSRA=
200611072100 METAR MROC 072100Z 25006KT 4000 1500SW -RA BR SCT001 BKN008 FEW015CB 21/20 A2991 BECMG 3000 -TSRA=
200611072200 METAR MROC 072200Z 26005KT 1500 -RA BR BKN002 BKN008 20/20 A2991 RMK VIS 1000 NW BECMG 3000 -RA BR=
200611072300 METAR MROC 072300Z 31004KT 5000 BR FEW004 BKN020 20/20 A2993 RMK VIS 7000E 9999N=
200611080000 METAR MROC 080000Z 00000KT 9999 FEW007 SCT025 20/19 A2995 NOSIG=
200611080100 METAR MROC 080100Z 36004KT 9999 SCT025 SCT100 20/20 A2997 NOSIG=
200611080200 METAR MROC 080200Z 08004KT CAVOK 19/19 A2998 NOSIG=
200611080300 METAR MROC 080300Z 06005KT CAVOK 19/18 A2999=
200611080400 METAR MROC 080400Z 07009KT CAVOK 20/18 A2998=
200611080500 METAR MROC 080500Z 08006KT CAVOK 20/17 A2998=
200611080600 METAR MROC NIL=
200611080700 METAR MROC 080700Z 00000KT CAVOK 19/17 A2995=
200611080800 METAR MROC 080800Z 06006KT CAVOK 18/17 A2993=
200611080900 METAR MROC 080900Z 08003KT CAVOK 17/16 A2992=
200611081000 METAR MROC 081000Z 07003KT CAVOK 17/16 A2992=
200611081100 METAR MROC 081100Z 09004KT CAVOK 16/16 A2993=
200611081200 METAR MROC 081200Z 08005KT CAVOK 18/16 A2993=
200611081300 METAR MROC 081300Z 06006KT CAVOK 22/18 A2995 NOSIG=
200611081400 METAR MROC 081400Z 10005KT CAVOK 25/19 A2996 NOSIG=
200611081500 METAR MROC 081500Z 09006KT CAVOK 27/19 A2996 NOSIG=
200611081600 METAR MROC 081600Z 22005KT 9999 FEW045 27/21 A2995 NOSIG=
200611081700 METAR MROC 081700Z 21004KT 9999 SCT040 28/21 A2993 NOSIG=
200611081800 METAR MROC 081800Z 19004KT 9999 SCT020TCU SCT035 27/21 A2990 BECMG -TS VCSH RMK RN DST SE E=
200611081900 METAR MROC 081900Z 24011KT 9999 VCSH SCT015TCU SCT030 26/22 A2987 RMK VIS 7000SW RN DST SE E=
200611082000 METAR MROC 082000Z 23013KT 7000 3000NE -RA SCT015CB BKN030 24/21 A2986 BECMG 3000 -TSRA=
200611082100 METAR MROC 082100Z 24010KT 9999 FEW010 BKN030 24/21 A2986 BECMG 7000=
200611082200 METAR MROC 082200Z 00000KT 4000 RA FEW008 SCT025 OVC100 21/20 A2989 NOSIG=
200611082300 METAR MROC 082300Z 00000KT 8000 VCFG FEW006 SCT025 BKN110 21/20 A2990 NOSIG=
200611090000 METAR MROC 090000Z 28004KT 8000 VCFG FEW008 SCT025 BKN110 21/20 A2992 NOSIG=
200611090100 METAR MROC 090100Z 27003KT 8000 VCFG FEW008 SCT025 BKN110 21/20 A2995 NOSIG=
200611090200 METAR MROC 090200Z 00000KT 7000 VCFG FEW005 SCT025 BKN110 21/20 A2996 NOSIG=
200611090300 METAR MROC 090300Z 00000KT 9999 2000SW BR SCT001 BKN100 20/20 A2997 RMK LOW ST OVCER APCH07 BECMG 1000 BR=
200611090400 METAR MROC 090400Z 30004KT 2000 BR FEW001 SCT004 BKN100 20/20 A2998 RMK VIS N NE 7KMS BECMG 5000=
200611090500 METAR MROC 090500Z 35004KT 8000 2500SW VCFG FEW001 SCT004 BKN120 20/20 A2997 RMK CONDICIONES VARIABLES=
200611090600 METAR MROC 090600Z 00000KT 5000 BR FEW002 SCT006 19/19 A2997 RMK VIS E NE UNLTD BECMG 8000=
200611090700 METAR MROC 090700Z 09003KT 9999 FEW006 SCT020 18/17 A2995 NOSIG=
200611090800 METAR MROC 090800Z 06006KT CAVOK 17/16 A2994 NOSIG=
200611090900 METAR MROC 090900Z 06007KT CAVOK 17/16 A2993 NOSIG=
200611091000 METAR MROC 091000Z 05006KT CAVOK 17/15 A2993 NOSIG=
200611091100 METAR MROC 091100Z 05004KT CAVOK 17/15 A2995 NOSIG=
200611091200 METAR MROC 091200Z 08005KT CAVOK 17/15 A2996 NOSIG=
200611091300 METAR MROC 091300Z 04008KT CAVOK 21/17 A2998 NOSIG=
200611091400 METAR MROC 091400Z 33004KT CAVOK 23/17 A3000 NOSIG=
200611091500 METAR MROC 091500Z 25004KT 9999 FEW040 BKN280 25/19 A3000 NOSIG=
200611091600 METAR MROC 091600Z 11009KT 9999 FEW040 BKN280 28/18 A2997 NOSIG=
200611091700 METAR MROC 091700Z 14004KT 9999 FEW040 BKN250 28/18 A2996 NOSIG=
200611091800 METAR MROC NIL=
200611091900 METAR MROC 091900Z 24011KT 9999 SCT020TCU BKN250 25/21 A2991 NOSIG=
200611092000 METAR MROC 092000Z 23011KT 9999 SCT020TCU BKN250 25/22 A2990 BECMG 6000 VCSH=
200611092100 METAR MROC 092100Z 27010KT 3000 TS +RA FEW005 SCT010CB BKN030 22/21 A2990 NOSIG=
200611092200 METAR MROC 092200Z 24006KT 3000 RA BR FEW005 BKN030 21/21 A2992 NOSIG=
200611092300 METAR MROC 092300Z 27003KT 5000 BR FEW003 SCT030 BKN100 20/20 A2993 NOSIG=
200611100000 METAR MROC 100000Z 25002KT 9999 4000SW -RA BR FEW002 SCT030 BKN100 20/20 A2995=
200611100100 METAR MROC 100100Z 33003KT 9999 4000SW BR FEW002 SCT035 BKN100 21/20 A2996 NOSIG=
200611100200 METAR MROC 100200Z 29003KT 9999 FEW035 SCT120 20/20 A2999 NOSIG=
200611100300 METAR MROC 100300Z 00000KT 9999 FEW025 SCT250 20/20 A3000 NOSIG=
200611100400 METAR MROC 100400Z 07002KT CAVOK 20/19 A2999 NOSIG=
200611100500 METAR MROC 100500Z 06006KT CAVOK 19/18 A2999 NOSIG=
200611100600 METAR MROC 100600Z 05005KT CAVOK 18/17 A2997 NOSIG=
200611100700 METAR MROC 100700Z 04508KT CAVOK 19/17 A2995 NOSIG=
200611100800 METAR MROC 100800Z 06007KT CAVOK 19/17 A2994 NOSIG=
200611100900 METAR MROC 100900Z 08005KT 9999 FEW030 19/17 A2992 NOSIG=
200611101000 METAR MROC 101000Z 04007KT 9999 FEW030 20/17 A2993 NOSIG=
200611101100 METAR MROC 101100Z 03006KT CAVOK 20/17 A2994 NOSIG=
200611101200 METAR MROC 101200Z 07006KT CAVOK 20/17 A2996 RMK CB DST SSW NOSIG=
200611101300 METAR MROC 101300Z 07005KT CAVOK 22/18 A2998 NOSIG=
200611101400 METAR MROC 101400Z 11008KT CAVOK 25/18 A2998 NOSIG=
200611101500 METAR MROC 101500Z 10007KT 9999 FEW040 SCT250 27/19 A3001 NOSIG=
200611101600 METAR MROC 101600Z 23010KT 9999 SCT040 SCT250 25/21 A3001 NOSIG=
200611101700 METAR MROC 101700Z 23005KT 9999 SCT035 SCT250 26/21 A2999 NOSIG=
200611101800 METAR MROC 101800Z 25008KT 9999 FEW015TCU BKN035 25/21 A2996 NOSIG=
200611101900 METAR MROC 101900Z 23010KT 9999 FEW015 BKN035 26/22 A2994 RMK RN E=
200611102000 METAR MROC 102000Z 23007KT 9999 3000N BR FEW005 SCT015 BKN035 22/21 A2992 NOSIG=
200611102100 METAR MROC 102100Z 26008KT 9000 -DZ FEW010TCU SCT045 SCT090 23/21 A2992 BECMG 6000 -RA=
200611102200 METAR MROC 102200Z 30005KT 9000 SCT010 SCT090 21/20 A2995 RERA RMK BR ARND=
200611102300 METAR MROC 102300Z 29008KT 8000 DZ SCT010 SCT080 20/19 A2997 RMK BR ARND=
200611110000 METAR MROC 110000Z 30003KT 9999 FEW015 SCT100 21/20 A2998 REDZ=
200611110100 METAR MROC 110100Z 00000KT 8000 DZ SCT015 SCT100 21/20 A3000=
200611110200 METAR MROC 110200Z 00000KT 9999 FEW020 SCT120 21/20 A3001 REDZ=
200611110300 METAR MROC 110300Z 03003KT CAVOK 20/19 A3003 NOSIG=
200611110400 METAR MROC 110400Z 02003KT CAVOK 20/19 A3003=
200611110500 METAR MROC NIL=
200611110600 METAR MROC NIL=
200611110700 METAR MROC 110700Z 08004KT CAVOK 18/17 A2997 NOSIG=
200611110800 METAR MROC 110800Z 03006KT CAVOK 19/17 A2995 NOSIG=
200611110900 METAR MROC 110900Z 05008KT CAVOK 19/17 A2994 NOSIG=
200611111000 METAR MROC 111000Z 05007KT CAVOK 18/17 A2994 NOSIG=
200611111100 METAR MROC 111100Z 08007KT CAVOK 19/17 A2997 NOSIG=
200611111200 METAR MROC 111200Z 03003KT CAVOK 19/17 A2999 NOSIG=
200611111300 METAR MROC 111300Z 05007KT CAVOK 21/18 A3000=
200611111400 METAR MROC 111400Z 10004KT CAVOK 25/19 A3001=
200611111500 METAR MROC 111500Z 09010KT CAVOK 26/19 A3002=
200611111600 METAR MROC 111600Z 10006KT 9999 SCT035 28/19 A3001 BECMG 24008KT=
200611111700 METAR MROC 111700Z 22008KT 9999 FEW020 SCT090 25/21 A2999=
200611111800 METAR MROC 111800Z 23004KT 9999 SCT020TCU SCT120 26/21 A2997=
200611111900 METAR MROC 111900Z 24007KT 9999 SCT015TCU SCT100 25/22 A2994 BECMG 6000 VCSH=
200611112000 METAR MROC 112000Z 22007KT 8000 VCSH SCT015TCU SCT100 24/22 A2993=
200611112100 METAR MROC 112100Z 28007KT 9999 FEW010 SCT025 BKN100 24/23 A2993 NOSIG=
200611112200 METAR MROC 112200Z 07006KT 9999 FEW010 BKN030 24/19 A2994 NOSIG=
200611112300 METAR MROC 112300Z 07005KT 9999 FEW010 SCT030 BKN250 23/18 A2995 NOSIG=
200611120000 METAR MROC 120000Z 04004KT 9999 FEW030 SCT100 BKN250 22/21 A2998 RMK=
200611120100 METAR MROC 120100Z 11003KT 9999 FEW030 SCT100 BKN250 21/18 A3000 NOSIG=
200611120200 METAR MROC 120200Z 10004KT 9999 FEW030 SCT120 BKN250 21/17 A3002=
200611120300 METAR MROC 120300Z 05011KT CAVOK 21/16 A3002=
200611120400 METAR MROC 120400Z 05006KT CAVOK 20/16 A3000=
200611120500 METAR MROC 120500Z 00000KT CAVOK 20/16 A3001=
200611120600 METAR MROC 120600Z 00000KT CAVOK 18/16 A3000=
200611120700 METAR MROC 120700Z 02008KT CAVOK 19/16 A2998=
200611120800 METAR MROC 120800Z 06008KT CAVOK 18/17 A2996=
200611120900 METAR MROC NIL=
200611120907 METAR MROC 120907Z 06008KT CAVOK 18/15 A2997=
200611121000 METAR MROC 121000Z 06009KT CAVOK 17/14 A2997=
200611121100 METAR MROC NIL=
200611121111 METAR MROC 121111Z 12003KT CAVOK 18/15 A2999=
200611121200 METAR MROC 121200Z 04005KT CAVOK 18/15 A3000=
200611121300 METAR MROC 121300Z 08005KT CAVOK 21/16 A3001 NOSIG=
200611121400 METAR MROC 121400Z 05008KT CAVOK 24/18 A3001 NOSIG=
200611121500 METAR MROC 121500Z 10013KT CAVOK 24/18 A3000 NOSIG=
200611121600 METAR MROC 121600Z 10017KT CAVOK 25/18 A2999 NOSIG=
200611121700 METAR MROC 121700Z 10014KT 9999 FEW035 SCT120 BKN250 26/18 A2997 NOSIG=
200611121800 METAR MROC 121800Z 11009KT 9999 FEW035 SCT120 BKN250 25/19 A2997=
200611121900 METAR MROC 121900Z 11011KT 9999 FEW035 BKN120 26/18 A2993 NOSIG=
200611122000 METAR MROC 122000Z 16004KT 9999 SCT035 BKN100 25/19 A2993 BECMG 25010KT=
200611122100 METAR MROC 122100Z 11010KT 9999 SCT030 BKN080 25/18 A2990 RMK RN DST NE E SE=
200611122125 METAR MROC 122125Z 26010KT 9999 FEW020CB BKN030 24/21 A2992 NOSIG=
200611122200 METAR MROC 122200Z 20006KT 9999 VCSH FEW015CB SCT025 SCT100 24/20 A2993 RMK VIS 7000SW RN DST N NE E SE=
200611122300 METAR MROC 122300Z 06003KT 9999 FEW015 SCT030 SCT120 24/19 A2994 NOSIG=
200611130000 METAR MROC 130000Z 11003KT 9999 FEW030 SCT120 22/17 A2997 NOSIG=
200611130100 METAR MROC 130100Z 09007KT CAVOK 22/17 A3000 NOSIG=
200611130200 METAR MROC 130200Z 11002KT CAVOK 22/17 A3002 NOSIG=
200611130300 METAR MROC 130300Z 06003KT CAVOK 21/16 A3003=
200611130400 METAR MROC 130400Z 04004KT CAVOK 21/17 A3004 NOSIG=
200611130500 METAR MROC 130500Z 00000KT CAVOK 20/18 A3003=
200611130600 METAR MROC 130600Z 08004KT CAVOK 21/18 A3000=
200611130700 METAR MROC 130700Z 04005KT CAVOK 20/17 A2998=
200611130800 METAR MROC 130800Z 06004KT CAVOK 18/17 A2996=
200611130900 METAR MROC 130900Z 10008KT CAVOK 20/16 A2997=
200611131300 METAR MROC NIL=
200611131400 METAR MROC 131400Z 10010KT CAVOK 24/17 A3001 NOSIG=
200611131500 METAR MROC 131500Z 12012KT CAVOK 25/17 A3002 NOSIG=
200611131600 METAR MROC 131600Z 11007KT 9999 FEW035 SCT120 27/17 A3000 NOSIG=
200611131700 METAR MROC 131700Z 26010KT 9999 FEW030 SCT120 BKN250 25/20 A3000 NOSIG=
200611131800 METAR MROC 131800Z 26008KT 9999 FEW025 SCT120 BKN250 26/20 A2997=
200611131900 METAR MROC 131900Z 22006KT 9999 SCT025 SCT120 25/20 A2994 NOSIG=
200611132000 METAR MROC 132000Z 22009KT 9999 FEW015 SCT025 SCT120 24/21 A2992 RMK RN DST E NE=
200611132100 METAR MROC 132100Z 24010KT 9999 3000NW VCFG FEW010 SCT020 BKN120 22/20 A2993 BECMG 3000 BR RMK 3000NW BR=
200611132200 METAR MROC NIL=
200611132300 METAR MROC 132300Z 28006KT 4000 BR FEW004 SCT020 BKN100 21/20 A2996 BECMG 2000 BR=
200611140000 METAR MROC 140000Z 00000KT 7000 VCFG FEW008 SCT020 BKN100 21/20 A2997=
200611140100 METAR MROC 140100Z 06003KT 9999 VCFG SCT028 BKN110 21/20 A2997 NOSIG=
200611140200 METAR MROC 140200Z 02004KT 9999 FEW030 BKN120 21/18 A2999 NOSIG=
200611140300 METAR MROC 140300Z 19002KT 9999 0700SW FG SCT001 SCT120 19/18 A3002 RMK FG BANK OVCER APCH07 BECMG 0500=
200611140400 METAR MROC 140400Z 00000KT 9999 FEW002 SCT120 19/19 A3003 RMK THING FOG TO SSW SW NEAR APCH07 NOSIG=
200611140500 METAR MROC 140500Z 04004KT CAVOK 20/18 A3002 NOSIG=
200611140600 METAR MROC 140600Z 01005KT CAVOK 19/18 A3000 NOSIG=
200611140700 METAR MROC 140700Z 25002KT CAVOK 19/18 A2999 NOSIG=
200611140800 METAR MROC 140800Z VRB03KT CAVOK 18/17 A2996 NOSIG=
200611140900 METAR MROC NIL=
200611141000 METAR MROC 141000Z 00000KT CAVOK 17/16 A2996 NOSIG=
200611141100 METAR MROC 141100Z 06007KT CAVOK 17/16 A2995 NOSIG=
200611141200 METAR MROC 141200Z 07007KT CAVOK 19/16 A2996 NOSIG=
200611141300 METAR MROC 141300Z 04005KT CAVOK 21/17 A2997 NOSIG=
200611141400 METAR MROC 141400Z 10012KT CAVOK 25/16 A2996 NOSIG=
200611141500 METAR MROC 141500Z 10011KT CAVOK 26/15 A2997 NOSIG=
200611141600 METAR MROC 141600Z 10009KT CAVOK 27/16 A2997 NOSIG=
200611141700 METAR MROC NIL=
200611141800 METAR MROC NIL=
200611141900 METAR MROC 141900Z 24007KT 9999 SCT030 BKN250 25/20 A2990 BECMG 6000=
200611142000 METAR MROC 142000Z 24010KT 9999 SCT015TCU BKN030 25/20 A2987 BECMG 6000 VCSH=
200611142100 METAR MROC 142100Z 23010KT 9999 -RA SCT015TCU SCT030 BKN100 21/20 A2987 RMK 3000MTS N NE SH=
200611142200 METAR MROC 142200Z 27009KT 9999 3000SW -RA BR FEW002 SCT010 BKN100 21/20 A2989 RMK VIS N NE 3000MTS=
200611142300 METAR MROC 142300Z 25006KT 9999 2000SW BR FEW001 SCT010 BKN100 20/20 A2991 RERA=
200611150000 METAR MROC 150000Z 29003KT 9999 3000SW -RA BR FEW001 SCT010 BKN100 20/20 A2993=
200611150100 METAR MROC 150100Z 28003KT 9999 3000SW -RA BR FEW001 SCT010 OVC100 20/19 A2995 NOSIG=
200611150200 METAR MROC 150200Z 00000KT 9999 FEW010 OVC100 20/19 A2997 NOSIG=
200611150300 METAR MROC 150300Z 00000KT 9999 FEW006 BKN100 20/19 A2997 NOSIG=
200611150400 METAR MROC 150400Z 00000KT 9999 FEW012 BKN100 19/19 A2998 NOSIG=
200611150500 METAR MROC 150500Z 00000KT 9999 SCT004 BKN120 20/19 A2996 RMK VIS 5000 SW E BECMG 0800 FG BKN001=
200611150600 METAR MROC 150600Z 00000KT 2000 -DZ BR SCT002 BKN100 20/19 A2994 RMK VIS 9999N BECMG 0800 FG BKN001=
200611150700 METAR MROC 150700Z 00000KT 9999 SCT003 BKN020 20/19 A2991 RMK VIS 4KM SW DUE ST NOSIG=
200611150800 METAR MROC 150800Z 10003KT 9999 FEW003 BKN025 19/19 A2989 RMK VIS 4KM SW DUE ST NOSIG=
200611150900 METAR MROC 150900Z 05003KT 9999 FEW003 SCT025 BKN110 19/19 A2988 RMK VIS SW 6KM DUE ST NOSIG=
200611151000 METAR MROC 151000Z 05002KT 9999 FEW003 SCT025 BKN110 19/18 A2988 RMK VIS S 7KM DUE ST BECMG CAVOK=
200611151100 METAR MROC 151100Z 00000KT 9999 3000SW BR FEW001 SCT025 BKN110 19/19 A2989=
200611151300 METAR MROC 151300Z 25002KT 9999 FEW008 SCT025 BKN120 21/19 A2993=
200611151400 METAR MROC 151400Z 23005KT 9999 SCT025 SCT120 BKN250 21/19 A2996 NOSIG=
200611151500 METAR MROC 151500Z 25007KT 9999 SCT025 SCT120 BKN250 22/19 A2998=
200611151600 METAR MROC 151600Z 24006KT 9999 FEW025 SCT120 BKN250 22/19 A2998=
200611151700 METAR MROC 151700Z 22006KT 9999 SCT025 BKN120 22/20 A2996=
200611151800 METAR MROC 151800Z 23006KT 9999 SCT025 BKN120 22/20 A2994=
200611152000 METAR MROC 152000Z 23007KT 3000 RA BR FEW001 SCT010 OVC100 20/20 A2990=
200611152100 METAR MROC 152100Z 23005KT 7000 -DZ BR FEW002 SCT008 OVC080 20/20 A2989=
200611152200 METAR MROC 152200Z 27004KT 7000 -DZ BR FEW002 SCT006 SCT025 20/20 A2990=
200611152300 METAR MROC 152300Z 29004KT 3000 -DZ BR FEW001 SCT006 SCT020 20/19 A2991=
200611160000 METAR MROC 160000Z 26003KT 5000 -DZ BR FEW001 SCT008 OVC090 20/19 A2993=
200611160100 METAR MROC 160100Z 29003KT 8000 -DZ BR FEW002 SCT010 OVC100 20/19 A2996=
200611160200 METAR MROC 160200Z 28004KT 9000 FEW005 SCT015 SCT100 20/19 A2998 RMK BR ARND=
200611160300 METAR MROC 160300Z 00000KT 9999 FEW006 SCT015 BKN100 20/19 A2998 NOSIG=
200611160400 METAR MROC 160400Z 00000KT 9999 FEW020 SCT100 19/19 A2998 NOSIG=
200611160500 METAR MROC 160500Z 00000KT 9999 FEW020 SCT100 19/19 A2997 NOSIG=
200611160600 METAR MROC 160600Z 00000KT 8000 VCFG FEW005 SCT030 SCT100 19/19 A2995=
200611160700 METAR MROC 160700Z 00000KT 9999 VCFG FEW007 SCT030 SCT100 19/19 A2994 NOSIG=
200611160800 METAR MROC 160800Z 00000KT 9999 FEW030 SCT100 19/18 A2991 NOSIG=
200611160900 METAR MROC 160900Z 00000KT 9999 FEW030 19/18 A2992 NOSIG=
200611161000 METAR MROC 161000Z 03003KT 9999 FEW030 19/18 A2992 NOSIG=
200611161100 METAR MROC 161100Z 10002KT CAVOK 18/18 A2994 NOSIG=
200611161200 METAR MROC 161200Z 05006KT CAVOK 18/18 A2994 NOSIG=
200611161300 METAR MROC 161300Z 05005KT CAVOK 20/18 A2993=
200611161400 METAR MROC 161400Z 00000KT CAVOK 22/19 A2998 RMK HZY=
200611161500 METAR MROC 161500Z 00000KT 9999 FEW010 BKN150 23/19 A3000 BECMG 24006KT=
200611161600 METAR MROC 161600Z 22006KT 9999 FEW020 BKN170 24/20 A2999=
200611161700 METAR MROC 161700Z 25007KT 9999 FEW020 BKN150 24/20 A2997=
200611161800 METAR MROC 161800Z 28005KT 9999 SCT020TCU BKN150 24/19 A2994=
200611161900 METAR MROC 161900Z 22006KT 8000 RA SCT012TCU BKN120 22/20 A2991=
200611162000 METAR MROC 162000Z 21005KT 8000 -RA SCT010TCU BKN100 22/20 A2989=
200611162100 METAR MROC NIL=
200611162200 METAR MROC NIL=
200611162300 METAR MROC NIL=
200611170000 METAR MROC NIL=
200611170300 METAR MROC NIL=
200611170500 MROC 170500Z 00000KT 7000 2000SW BR FEW001 SCT015 20/20 A2999=
200611170600 MROC 170600Z 00000KT 7000 2000SW BR FEW001 SCT015 20/20 A2996=
200611171100 METAR MROC 171100Z 07003KT 9999 FEW010 18/18 A2995=
200611171200 METAR MROC 171200Z 04004KT 9999 FEW010 SCT040 18/17 A2996=
200611171300 METAR MROC NIL=
200611171500 METAR MROC NIL=
200611171800 METAR MROC NIL=
200611172100 METAR MROC 172100Z 13005KT 9999 3000SW VCSH SCT010CB BKN020TCU 20/19 A2990 RMK VIS 6000 NE BECMG -TSRA=
200611172200 METAR MROC 172200Z 09003KT 7000 -RA SCT020 BKN090 20/19 A2990 NOSIG=
200611172300 METAR MROC 172300Z 00000KT 8000 -RA SCT020 BKN090 20/20 A2992 RMK VIS 5000N VCSH BR=
200611180000 METAR MROC 180000Z 32002KT 9999 -DZ FEW015 SCT040 BKN100 21/20 A2994 NOSIG=
200611180100 METAR MROC 180100Z 00000KT 9999 -DZ FEW015 SCT030 BKN100 21/20 A2998 NOSIG=
200611180200 METAR MROC 180200Z 08002KT 9999 VCFG FEW008 SCT025 BKN100 20/20 A2999 RMK VIS 7KM SW=
200611180300 METAR MROC NIL=
200611180900 METAR MROC NIL=
200611181000 METAR MROC 181000Z 00000KT 4000 BR FEW001 SCT020 20/20 A2992 NOSIG=
200611181100 METAR MROC NIL=
200611181200 METAR MROC 181200Z 00000KT 7000 VCFG FEW002 SCT020 BKN100 19/19 A2996=
200611181300 METAR MROC 181300Z 32003KT 9999 VCFG FEW003 SCT030 SCT100 20/19 A2999 RMK VIS 7000SW=
200611181400 METAR MROC 181400Z 28003KT 9999 VCFG FEW004 SCT120 BKN250 23/20 A2999 RMK VIS 7000SW=
200611181500 METAR MROC 181500Z 23005KT 7000 VCHZ FEW020 BKN250 24/21 A3001 RMK VIS 9999N=
200611181600 METAR MROC 181600Z 23002KT 9999 4000SW HZ FEW020 SCT120 SCT250 25/20 A2999=
200611181700 METAR MROC 181700Z 24005KT 7000 VCHZ FEW008 SCT020 SCT250 25/20 A2997=
200611181800 METAR MROC 181800Z 26006KT 9999 SCT025 BKN250 26/20 A2994 RMK RN DST E=
200611181900 METAR MROC 181900Z 23008KT 9999 FEW015TCU SCT025 SCT250 24/20 A2991 RMK RN DST SW NE E=
200611182000 METAR MROC 182000Z 25006KT 9999 FEW012TCU SCT025 SCT250 25/21 A2988 NOSIG=
200611182100 METAR MROC 182100Z 22012KT 9999 VCFG SCT010 SCT025TCU 23/21 A2988 RMK VIS N 7000 DWE FG BECMG 4000 BR=
200611182200 METAR MROC 182200Z 22005KT 7000 FEW008 SCT020TCU BKN100 21/20 A2990 BECMG 5000 BR=
200611182300 METAR MROC 182300Z 23004KT 4000 BR SCT005 BKN013 21/20 A2992 BECMG 2000 BR=
200611190000 METAR MROC 190000Z 00000KT 6000 VCFG FEW006 SCT025 BKN100 21/20 A2994 NOSIG=
200611190100 METAR MROC 190100Z 00000KT 7000 VCFG FEW005 SCT025 BKN100 21/20 A2996 NOSIG=
200611190200 METAR MROC 190200Z 00000KT 7000 VCFG FEW005 SCT030 BKN100 20/20 A2999 BECMG 9999=
200611190300 METAR MROC 190300Z 26002KT 7000 VCFG FEW003 SCT010 BKN120 21/20 A3001 NOSIG=
200611190400 METAR MROC 190400Z 00000KT 7000 VCFG FEW003 SCT008 BKN120 20/20 A3001 NOSIG=
200611190500 METAR MROC 190500Z 23003KT 4000 BR SCT003 BKN007 20/20 A3000 NOSIG=
200611190600 METAR MROC 190600Z 00000KT 5000 BR SCT003 SCT006 20/20 A2997 NOSIG=
200611190700 METAR MROC 190700Z 00000KT 8000 VCFG FEW005 SCT010 20/20 A2995 NOSIG=
200611190800 METAR MROC 190800Z 00000KT 0400 FG VV/// 20/19 A2993 RMK VIS N NE UNL BECMG 4000=
200611190900 METAR MROC 190900Z 13002KT 2000 BR SCT001 SCT005 19/19 A2992 BECMG 5000=
200611191000 METAR MROC 191000Z 11002KT 7000 VCFG FEW001 BKN006 20/19 A2992 BECMG 9999=
200611191100 METAR MROC 191100Z 03004KT 9999 FEW008 BKN250 19/18 A2994 NOSIG=
200611191200 METAR MROC 191200Z 09003KT CAVOK 18/18 A2995 RMK LGT HZ ARND NOSIG=
200611191300 METAR MROC 191300Z 09004KT CAVOK 21/18 A2997 BECMG RMK SCT250=
200611191400 METAR MROC 191400Z 04007KT CAVOK 23/18 A2998 BECMG RMK BKN250=
200611191500 METAR MROC 191500Z 11006KT 9999 FEW035 BKN250 26/18 A2999 NOSIG=
200611191600 METAR MROC 191600Z 24009KT 9999 FEW035 SCT250 26/20 A2997 NOSIG=
200611191700 METAR MROC 191700Z 23009KT 9999 SCT035 SCT250 27/21 A2996 NOSIG=
200611191800 METAR MROC 191800Z 21007KT 9999 SCT030 SCT250 26/20 A2994 NOSIG=
200611191900 METAR MROC 191900Z 21009KT 9999 SCT025CB SCT250 25/21 A2991 BECMG 5000=
200611192000 METAR MROC 192000Z 21004KT 8000 VCSH SCT010CB SCT025 BKN100 24/21 A2991 BECMG 3000 TSRA RMK TS RASH NW N E=
200611192100 METAR MROC 192100Z 36005KT 9999 +RA SCT010CB SCT025 BKN100 21/19 A2990=
200611192200 METAR MROC 192200Z 30002KT 9999 FEW010CB SCT025 BKN100 20/19 A2990=
200611192300 METAR MROC 192300Z 06002KT 8000 VCFG FEW001 SCT008 BKN100 20/20 A2991=
200611200000 METAR MROC 200000Z 00000KT 9999 -RA FEW030 OVC100 20/20 A2993=
200611200100 METAR MROC 200100Z 12002KT 9999 -RA FEW030 OVC100 20/20 A2996 NOSIG=
200611200200 METAR MROC 200200Z 23006KT 9999 -DZ FEW030 OVC100 20/20 A2999 NOSIG=
200611200300 METAR MROC 200300Z 00000KT 7000 3000SW +DZ BR FEW006 BKN090 20/20 A3000=
200611200400 METAR MROC 200400Z 28002KT 9999 DZ FEW015 BKN090 20/20 A3001 RMK LTNG DST SSW=
200611200500 METAR MROC 200500Z 32002KT 9999 -DZ FEW015 SCT030 BKN100 21/20 A2999=
200611200600 METAR MROC 200600Z 26002KT 9999 -DZ FEW015 SCT030 BKN100 20/20 A2998 NOSIG=
200611200700 METAR MROC 200700Z 10002KT 9999 FEW015 SCT030 BKN100 20/20 A2994 NOSIG=
200611200800 METAR MROC 200800Z 00000KT 9999 FEW001 SCT025 BKN100 20/20 A2994 RMK VIS SW 7KM DUE ST BECMG 5000 BR SCT001 SCT020=
200611200900 METAR MROC 200900Z 33003KT 9999 -DZ SCT025 BKN100 20/20 A2993 RMK VIS SW 7KM DUE ST NOSIG=
200611201000 METAR MROC 201000Z 01003KT 9999 SCT030 SCT110 20/20 A2993 NOSIG=
200611201100 METAR MROC 201100Z 00000KT 9999 FEW030 SCT110 20/19 A2994 BECMG CAVOK=
200611201200 METAR MROC 201200Z 00000KT 9999 FEW030 SCT100 SCT250 20/19 A2996 NOSIG=
200611201300 METAR MROC 201300Z 15002KT 9999 FEW030 SCT100 SCT250 22/20 A2998=
200611201400 METAR MROC 201400Z 09004KT 9999 FEW035 BKN250 24/19 A3000=
200611201500 METAR MROC 201500Z 13005KT 9999 FEW035 BKN250 25/19 A3001=
200611201600 METAR MROC NIL=
200611201700 METAR MROC 201700Z 15003KT 9999 SCT035 SCT100 BKN250 26/20 A2998=
200611201800 METAR MROC 201800Z 26005KT 9999 SCT035 BKN250 26/19 A2995=
200611201900 METAR MROC 201900Z 14003KT 9999 FEW035 SCT120 BKN250 27/19 A2993=
200611202000 METAR MROC 202000Z 12006KT 9999 FEW015 SCT100 BKN250 26/18 A2992=
200611202100 METAR MROC 202100Z 14004KT 8000 VCSH SCT020 SCT100 24/19 A2992 RMK RN SW=
200611202200 METAR MROC 202200Z 31008KT 9999 SCT020 BKN120 23/18 A2993 RMK DZ SW/W/N/NE/E=
200611202300 METAR MROC 202300Z VRB03KT 9999 SCT025 BKN150 21/18 A2995=
200611210000 METAR MROC 210000Z 10005KT 9999 SCT025 SCT100 21/18 A2997=
200611210100 METAR MROC 210100Z 10004KT 9999 FEW035 SCT150 21/18 A3001=
200611210200 METAR MROC 210200Z 10008KT CAVOK 21/18 A3003=
200611210300 METAR MROC 210300Z 18006KT CAVOK 21/16 A3007 BECMG RMK DZ DIST E=
200611210400 METAR MROC 210400Z 11009KT CAVOK 20/14 A3008 NOSIG=
200611210500 METAR MROC 210500Z 11007KT CAVOK 18/14 A3007 NOSIG=
200611210600 METAR MROC 210600Z 09012KT CAVOK 19/14 A3005 NOSIG=
200611210700 METAR MROC 210700Z 08012KT CAVOK 19/14 A3003 NOSIG=
200611210800 METAR MROC NIL=
200611210900 METAR MROC 210900Z 10014KT CAVOK 19/14 A3001 NOSIG=
200611211000 METAR MROC 211000Z 10016KT CAVOK 19/14 A3000 NOSIG=
200611211100 METAR MROC 211100Z 10013KT CAVOK 19/14 A3001 NOSIG=
200611211200 METAR MROC 211200Z 10014KT CAVOK 19/15 A3003 BECMG RMK DZ N NE OVCR RDGS 6CI250=
200611211300 METAR MROC 211300Z 10013KT 9999 FEW025 SCT250 21/15 A3005=
200611211400 METAR MROC 211400Z 10014KT 9999 FEW025 SCT250 22/15 A3006=
200611211500 METAR MROC 211500Z 11016KT 9999 FEW025 SCT250 23/16 A3007 RMK DZ N NE E=
200611211600 METAR MROC 211600Z 10016KT 9999 FEW025 SCT250 24/16 A3006 RMK DZ N NE E DST=
200611211700 METAR MROC 211700Z 10017KT CAVOK 24/16 A3004 RMK DZ DST N NE E=
200611211800 METAR MROC NIL=
200611211900 METAR MROC 211900Z 10015KT 9999 FEW025 SCT250 24/16 A2999 RMK DZ N NE E=
200611212000 METAR MROC 212000Z 10018KT 9999 FEW020 SCT200 24/16 A2996 RMK DZ N NE E=
200611212100 METAR MROC 212100Z 09017KT 9999 FEW025 23/15 A2995 RMK DZ NW N NE NOSIG=
200611212200 METAR MROC 212200Z 10019KT 9999 FEW025 22/15 A2995 RMK DZ NW N NE NOSIG=
200611212300 METAR MROC 212300Z 10017G27KT 9999 FEW025 20/15 A2997 NOSIG=
200611220000 METAR MROC 220000Z 10015KT CAVOK 20/15 A2999 NOSIG=
200611220100 METAR MROC 220100Z 08012KT CAVOK 19/15 A3004 NOSIG=
200611220200 METAR MROC 220200Z 10012KT CAVOK 18/14 A3006 NOSIG=
200611220300 METAR MROC 220300Z 09011KT CAVOK 18/14 A3007=
200611220400 METAR MROC 220400Z 09007KT CAVOK 18/12 A3009=
200611220500 METAR MROC 220500Z 08013KT CAVOK 17/12 A3008=
200611220600 METAR MROC 220600Z 09011KT CAVOK 17/12 A3007=
200611220700 METAR MROC 220700Z 10015KT CAVOK 16/11 A3004=
200611220800 METAR MROC 220800Z 07010KT CAVOK 16/11 A3003=
200611220900 METAR MROC 220900Z 06005KT CAVOK 16/11 A3003=
200611221000 METAR MROC 221000Z 07009KT CAVOK 16/11 A3006=
200611221100 METAR MROC 221100Z 08008KT CAVOK 16/10 A3004=
200611221200 METAR MROC 221200Z 09007KT 9999 FEW040 15/10 A3005=
200611221300 METAR MROC 221300Z 09016KT 9999 FEW030 17/10 A3006=
200611221400 METAR MROC 221400Z 10015KT 9999 FEW025 19/11 A3007 NOSIG=
200611221500 METAR MROC 221500Z 10017KT 9999 FEW025 19/11 A3008 NOSIG=
200611221600 METAR MROC 221600Z 10019G30KT 9999 FEW020 20/12 A3006 NOSIG=
200611221700 METAR MROC 221700Z 10020G30KT 9999 FEW020 20/13 A3004 NOSIG=
200611221800 METAR MROC NIL=
200611221900 METAR MROC 221900Z 10015G25KT 9999 FEW020 22/13 A3000 NOSIG=
200611222000 METAR MROC NIL=
200611222100 METAR MROC 222100Z 11016KT 9999 FEW030 21/14 A2997 NOSIG=
200611222200 METAR MROC 222200Z 11017KT 9999 FEW025 SCT120 20/14 A2998 NOSIG=
200611222300 METAR MROC 222300Z 10014G24KT 9999 FEW030 18/14 A2999 NOSIG=
200611230000 METAR MROC 230000Z 10015G26KT 9999 FEW030 18/14 A3000 NOSIG=
200611230100 METAR MROC 230100Z 10016KT CAVOK 18/14 A3002 NOSIG=
200611230200 METAR MROC 230200Z 09014KT CAVOK 19/14 A3003=
200611230300 METAR MROC 230300Z 07009KT CAVOK 18/15 A3005=
200611230400 METAR MROC 230400Z 10016KT CAVOK 19/15 A3005=
200611230500 METAR MROC 230500Z 10015KT CAVOK 19/15 A3004=
200611230600 METAR MROC 230600Z 11014KT CAVOK 19/15 A3002=
200611230700 METAR MROC 230700Z 09011KT CAVOK 18/14 A3001=
200611230800 METAR MROC 230800Z 06005KT CAVOK 17/13 A3000=
200611230900 METAR MROC 230900Z 06012KT CAVOK 17/13 A2997=
200611231000 METAR MROC 231000Z 06010KT CAVOK 16/13 A2998=
200611231100 METAR MROC 231100Z 06009KT CAVOK 16/13 A2999=
200611231200 METAR MROC 231200Z 07009KT 9999 FEW030 16/13 A3000=
200611231300 METAR MROC 231300Z 07011KT 9999 FEW030 18/13 A3002 NOSIG=
200611231400 METAR MROC 231400Z 09014KT 9999 FEW030 20/14 A3003 NOSIG=
200611231500 METAR MROC 231500Z 10016G27KT 9999 FEW030 22/14 A3002 NOSIG=
200611231600 METAR MROC 231600Z 11018G28KT 9999 FEW030 23/15 A3000 NOSIG=
200611231700 METAR MROC 231700Z 11016G26KT 9999 FEW030 22/15 A2998 NOSIG=
200611231800 METAR MROC 231800Z 11016KT 9999 FEW030 24/16 A2997 NOSIG=
200611231900 METAR MROC 231900Z 11011G21KT 9999 FEW030 25/16 A2994 NOSIG=
200611232000 METAR MROC 232000Z 11010G20KT 9999 FEW030 25/16 A2991 NOSIG=
200611232100 METAR MROC 232100Z 12014G28KT 9999 FEW030 23/16 A2990 NOSIG=
200611232200 METAR MROC 232200Z 11016KT 9999 FEW025 SCT250 21/16 A2992 NOSIG=
200611232300 METAR MROC 232300Z 09013G28KT 9999 FEW025 SCT250 20/15 A2994 NOSIG=
200611240000 METAR MROC 240000Z 10011G22KT 9999 FEW025 19/15 A2996 NOSIG=
200611240100 METAR MROC 240100Z 10011KT 9999 FEW025 19/15 A2998 NOSIG=
200611240200 METAR MROC 240200Z 09011KT 9999 FEW025 19/15 A3000 NOSIG=
200611240300 METAR MROC 240300Z 09015KT CAVOK 19/15 A3001 NOSIG=
200611240400 METAR MROC 240400Z 08012KT CAVOK 19/15 A3001 NOSIG=
200611240500 METAR MROC 240500Z 07010G20KT CAVOK 18/15 A3001 NOSIG=
200611240600 METAR MROC 240600Z 05010G20KT CAVOK 18/15 A2999 NOSIG=
200611240700 METAR MROC 240700Z 09008KT CAVOK 18/15 A2996 NOSIG=
200611240800 METAR MROC 240800Z 07005KT CAVOK 16/14 A2994 NOSIG=
200611240900 METAR MROC 240900Z 06010KT CAVOK 17/13 A2994 NOSIG=
200611241000 METAR MROC 241000Z 06010KT CAVOK 16/13 A2993 NOSIG=
200611241100 METAR MROC 241100Z 04013KT CAVOK 16/13 A2994 NOSIG=
200611241200 METAR MROC 241200Z 07009KT CAVOK 17/12 A2995 NOSIG=
200611241300 METAR MROC 241300Z 09009KT 9999 FEW020 20/12 A2996 NOSIG=
200611241400 METAR MROC 241400Z 08014KT 9999 FEW025 21/12 A2998 NOSIG=
200611241500 METAR MROC 241500Z 08015KT 9999 FEW025 23/13 A2999 NOSIG=
200611241600 METAR MROC 241600Z 09013G26KT 9999 FEW025 24/14 A2998 NOSIG=
200611241700 METAR MROC 241700Z 08010G20KT 9999 FEW025 25/15 A2995 NOSIG=
200611241800 METAR MROC 241800Z 10014KT 9999 FEW025 26/15 A2993 NOSIG=
200611241900 METAR MROC 241900Z 09010G20KT 9999 FEW025 26/16 A2989 NOSIG=
200611242000 METAR MROC 242000Z 08010KT 9999 FEW025 SCT250 27/17 A2987 NOSIG=
200611242100 METAR MROC 242100Z 10009KT 9999 FEW030 SCT250 27/17 A2987=
200611242200 METAR MROC 242200Z 10009KT 9999 SCT030 SCT250 26/16 A2988=
200611242300 METAR MROC 242300Z 11003KT 9999 FEW035 SCT250 24/17 A2989=
200611250000 METAR MROC NIL=
200611250100 METAR MROC 250100Z 08004KT 9999 FEW035 SCT250 20/16 A2995=
200611250200 METAR MROC 250200Z 10009KT 9999 FEW035 SCT250 20/16 A2997=
200611250300 METAR MROC 250300Z 10008KT 9999 FEW030 20/16 A2998 NOSIG=
200611250400 METAR MROC 250400Z 06007KT 9999 FEW035 19/16 A2998 NOSIG=
200611250500 METAR MROC 250500Z 06006KT CAVOK 19/16 A2997 NOSIG=
200611250600 METAR MROC 250600Z 05010KT CAVOK 20/16 A2995 NOSIG=
200611250700 METAR MROC 250700Z 06007KT CAVOK 19/16 A2993 NOSIG=
200611250800 METAR MROC 250800Z 07008KT CAVOK 20/16 A2991 NOSIG=
200611250900 METAR MROC 250900Z 04011KT CAVOK 19/16 A2990 NOSIG=
200611251000 METAR MROC 251000Z 06007KT CAVOK 19/16 A2990 NOSIG=
200611251100 METAR MROC 251100Z 06006KT CAVOK 18/16 A2991 NOSIG=
200611251200 METAR MROC 251200Z 09007KT CAVOK 20/16 A2993 NOSIG=
200611251300 METAR MROC 251300Z 09010KT CAVOK 21/16 A2996=
200611251400 METAR MROC 251400Z 09010KT 9999 FEW030 BKN260 22/16 A2999=
200611251500 METAR MROC 251500Z 10012KT 9999 FEW030 BKN260 24/16 A2998=
200611251600 METAR MROC 251600Z 10012KT 9999 SCT030 BKN240 25/17 A2997=
200611251700 METAR MROC 251700Z 11011KT 9999 SCT030 BKN240 24/16 A2996=
200611251800 METAR MROC 251800Z 11010KT 9999 SCT030 SCT240 26/17 A2995=
200611251900 METAR MROC 251900Z 12011KT 9999 FEW035 SCT250 27/17 A2991=
200611252000 METAR MROC 252000Z 12010KT 9999 FEW035 SCT250 27/17 A2989=
200611252100 METAR MROC 252100Z 09010KT 9999 FEW035 SCT250 27/16 A2987 NOSIG=
200611252200 METAR MROC 252200Z 10012KT 9999 FEW035 SCT250 26/17 A2988 NOSIG=
200611252300 METAR MROC 252300Z 11009KT 9999 SCT035 23/17 A2989 NOSIG=
200611260000 METAR MROC 260000Z 10009KT 9999 FEW035 22/17 A2991 NOSIG=
200611260100 METAR MROC 260100Z 10008KT CAVOK 21/17 A2994 NOSIG=
200611260200 METAR MROC 260200Z 09008KT CAVOK 21/17 A2995=
200611260300 METAR MROC 260300Z 10009KT CAVOK 21/17 A2997 NOSIG=
200611260400 METAR MROC 260400Z 04004KT CAVOK 19/17 A2995 NOSIG=
200611260500 METAR MROC 260500Z 10005KT CAVOK 21/18 A2994 NOSIG=
200611260600 METAR MROC 260600Z 06010KT CAVOK 21/17 A2993 NOSIG=
200611260700 METAR MROC NIL=
200611260800 METAR MROC 260800Z 10009KT 9999 FEW035 21/18 A2990 NOSIG=
200611260900 METAR MROC 260900Z 01003KT 9999 FEW035 20/16 A2991 NOSIG=
200611261000 METAR MROC 261000Z 13003KT 9999 FEW035 19/16 A2993 NOSIG=
200611261100 METAR MROC 261100Z 040005KT 9999 FEW035 17/17 A2993 NOSIG=
200611261200 METAR MROC 261200Z 06003KT 9999 FEW035 17/16 A2995 NOSIG=
200611261300 METAR MROC 261300Z 04004KT 9999 FEW035 21/17 A2998 NOSIG=
200611261400 METAR MROC 261400Z 10007KT CAVOK 24/18 A2998 NOSIG=
200611261500 METAR MROC 261500Z 13006KT CAVOK 26/19 A2998 NOSIG=
200611261600 METAR MROC 261600Z 12006KT 9999 FEW035 SCT070 27/18 A2997 NOSIG=
200611261700 METAR MROC 261700Z 12006KT 9999 FEW035 BKN070 26/18 A2997 NOSIG=
200611261800 METAR MROC 261800Z 24010KT 9999 SCT030 SCT070 25/20 A2995 NOSIG=
200611261900 METAR MROC 261900Z 23007KT 9999 FEW030 SCT045 26/20 A2992 NOSIG=
200611262000 METAR MROC 262000Z 24009KT 9999 FEW030 SCT045 27/21 A2989=
200611262100 METAR MROC 262100Z 22005KT 9999 SCT020 SCT030 25/21 A2988 NOSIG=
200611262200 METAR MROC 262200Z 24009KT 9999 FEW010 BKN025 24/21 A2988 NOSIG=
200611262300 METAR MROC 262300Z 24006KT 9999 SCT010 SCT025 23/21 A2990 NOSIG=
200611270000 METAR MROC 270000Z 24004KT 9999 VCFG SCT008 SCT020 22/21 A2993 RMK VSBY N NE 7KM LOW ST NOSIG=
200611270100 METAR MROC 270100Z 00000KT 9999 FEW045 22/21 A2994 NOSIG=
200611270200 METAR MROC NIL=
200611270300 METAR MROC 270300Z 11004KT 9999 FEW045 21/19 A2996 NOSIG=
200611270400 METAR MROC 270400Z 10003KT 9999 FEW045 20/19 A2996=
200611270500 METAR MROC 270500Z 26003KT 9999 FEW040 21/20 A2995=
200611270600 METAR MROC 270600Z 06006KT CAVOK 21/18 A2993=
200611270700 METAR MROC 270700Z 07006KT CAVOK 21/18 A2992=
200611270800 METAR MROC NIL=
200611270900 METAR MROC 270900Z 09006KT CAVOK 21/18 A2990=
200611271000 METAR MROC 271000Z 28003KT CAVOK 20/18 A2991=
200611271100 METAR MROC 271100Z 07005KT CAVOK 20/18 A2992=
200611271200 METAR MROC 271200Z 09009KT 9999 FEW030 21/18 A2993=
200611271300 METAR MROC 271300Z 00000KT 9999 FEW030 23/19 A2996 RMK CB DST S=
200611271400 METAR MROC 271400Z 09010KT 9999 FEW035 SCT260 24/19 A2997 RMK DZ NE CB S SW NOSIG=
200611271500 METAR MROC 271500Z 10011KT 9999 FEW030 SCT260 26/19 A2999 RMK DZ NE NOSIG=
200611271600 METAR MROC 271600Z 12010KT 9999 SCT030 SCT280 27/19 A2998 RMK DZ NW N NE NOSIG=
200611271700 METAR MROC 271700Z 11008KT 9999 SCT030 SCT080 27/19 A2995 RMK DZ N NOSIG=
200611271800 METAR MROC NIL=
200611271900 METAR MROC NIL=
200611272000 METAR MROC 272000Z 24010KT 9999 SCT018 SCT035 24/22 A2991 NOSIG=
200611272100 METAR MROC NIL=
200611272200 METAR MROC 272200Z 30004KT 2000 0800NW RA FG SCT002 BKN010 21/20 A2989 BECMG 3000 RA BR=
200611272300 METAR MROC 272300Z 28003KT 9999 4000 VCSH BR FEW006 BKN020 20/19 A2991 RMK VIS 5000 SW=
200611280000 METAR MROC 280000Z 33002KT 9999 -DZ SCT020 SCT090 20/19 A2992 NOSIG=
200611280100 METAR MROC 280100Z 32004KT 9999 SCT030 SCT100 21/19 A2996 NOSIG=
200611280200 METAR MROC 280200Z 19002KT 9999 FEW030 SCT100 20/19 A2997 NOSIG=
200611280300 METAR MROC 280300Z 33003KT 9999 FEW030 BKN120 20/19 A2998 NOSIG=
200611280400 METAR MROC 280400Z 03004KT 9999 FEW030 BKN120 21/19 A2998 BECMG CAVOK=
200611280500 METAR MROC 280500Z 05004KT CAVOK 20/19 A2995 NOSIG=
200611280600 METAR MROC 280600Z 03005KT CAVOK 20/18 A2994 NOSIG=
200611280700 METAR MROC 280700Z 07005KT CAVOK 20/18 A2992 NOSIG=
200611280800 METAR MROC 280800Z 04002KT CAVOK 19/18 A2989 NOSIG=
200611280900 METAR MROC 280900Z 34004KT CAVOK 19/18 A2988 NOSIG=
200611281000 METAR MROC 281000Z 05009KT CAVOK 21/18 A2989 NOSIG=
200611281100 METAR MROC 281100Z 04004KT CAVOK 20/18 A2990=
200611281200 METAR MROC 281200Z 06003KT CAVOK 20/18 A2991 RMK DZ DST NE ENE DZ DST NE ENE=
200611281300 METAR MROC 281300Z 10007KT CAVOK 23/19 A2993 NOSIG=
200611281400 METAR MROC 281400Z 09009KT 9999 SCT035 25/19 A2995 NOSIG=
200611281500 METAR MROC 281500Z 07008KT 9999 FEW035 SCT120 27/20 A2995 RMK DZ DST E NOSIG=
200611281600 METAR MROC 281600Z 09007KT 9999 FEW035 SCT120 28/20 A2993 NOSIG=
200611281700 METAR MROC 281700Z 12006KT 9999 SCT030 SCT120 27/19 A2991 NOSIG=
200611281800 METAR MROC 281800Z 26007KT 9999 SCT015 BKN030 25/22 A2989 RMK RN DST ARND=
200611281900 METAR MROC 281900Z 24008KT 9999 4000SW -RA BR FEW002 SCT015TCU BKN030 21/21 A2988 RMK VIS 5000 N=
200611282000 METAR MROC 282000Z 29004KT 4000 -RA BR SCT004 SCT020TCU BKN030 21/21 A2987 RMK VIS 9999 E=
200611282100 METAR MROC 282100Z 28005KT 5000 BR FEW003 SCT015TCU OVC100 21/21 A2987 BECMG 2000 BR=
200611282200 METAR MROC 282200Z 26005KT 0800 -RA FG SCT002 BKN010 OVC100 21/20 A2988 NOSIG=
200611282300 METAR MROC 282300Z 00000KT 7000 3500NE BR SCT003 SCT020 BKN100 21/20 A2989 NOSIG=
200611290000 METAR MROC 290000Z 00000KT 9999 VCFG FEW007 SCT020 BKN100 20/20 A2992 NOSIG=
200611290100 METAR MROC 290100Z 02003KT 9999 FEW020 BKN100 21/20 A2994 NOSIG=
200611290200 METAR MROC 290200Z 00000KT 9999 FEW020 BKN100 21/20 A2996 NOSIG=
200611290300 METAR MROC 290300Z 00000KT 9999 -RA FEW015 BKN100 21/20 A2998 NOSIG=
200611290400 METAR MROC 290400Z 30002KT 9999 BKN025 21/20 A2998 NOSIG=
200611290500 METAR MROC 290500Z 00000KT 9999 SCT025 SCT120 20/19 A2995=
200611290600 METAR MROC 290600Z 04003KT CAVOK 20/19 A2993=
200611290700 METAR MROC 290700Z 13007KT CAVOK 20/19 A2991=
200611290800 METAR MROC 290800Z 06004KT 9999 FEW030 SCT120 19/18 A2993 NOSIG=
200611290900 METAR MROC 290900Z 07005KT 9999 FEW030 SCT120 BKN250 19/18 A2995 NOSIG=
200611291000 METAR MROC 291000Z 09008KT 9999 FEW025 SCT120 BKN250 20/18 A2988 NOSIG=
200611291100 METAR MROC 291100Z 08006KT 9999 FEW025 SCT100 20/17 A2989 NOSIG=
200611291200 METAR MROC 291200Z 10012KT 9999 FEW025 SCT100 BKN280 21/17 A2991 RMK DZ N NOSIG=
200611291300 METAR MROC 291300Z 11008KT 9999 FEW025 BKN100 22/18 A2993 NOSIG=
200611291400 METAR MROC 291400Z 11014KT 9999 FEW025 BKN110 24/18 A2996 NOSIG=
200611291500 METAR MROC 291500Z 10013KT 9999 FEW025 BKN100 26/19 A2995 NOSIG=
200611291600 METAR MROC 291600Z 10011KT 9999 FEW025 BKN100 26/18 A2994 NOSIG=
200611291700 METAR MROC NIL=
200611291800 METAR MROC 291800Z 11014KT 9999 -RA SCT020TCU BKN100 26/18 A2990 RERA NOSIG=
200611291900 METAR MROC 291900Z 09010KT 9999 FEW010 SCT020TCU BKN100 26/19 A2988 NOSIG=
200611292000 METAR MROC 292000Z 12005KT 9999 SCT020 BKN100 25/20 A2986 NOSIG=
200611292100 METAR MROC 292100Z 12007KT 9999 SCT020 BKN100 25/19 A2984=
200611292200 METAR MROC 292200Z 10009KT 9999 SCT020 BKN100 24/18 A2986=
200611292300 METAR MROC 292300Z 09006KT 9999 SCT020 BKN100 23/18 A2987=
200611300000 METAR MROC 300000Z 08006KT 9999 FEW030 BKN100 23/18 A2990=
200611300100 METAR MROC 300100Z 05003KT 9999 FEW030 BKN110 22/18 A2992=
200611300200 METAR MROC 300200Z 10003KT 9999 FEW030 BKN110 22/18 A2995=
200611300300 METAR MROC 300300Z 07002KT CAVOK 22/18 A2996 NOSIG=
200611300400 METAR MROC 300400Z 00000KT 9999 FEW030 SCT120 21/19 A2996 NOSIG=
200611300500 METAR MROC 300500Z 36005KT 9999 FEW030 SCT120 21/19 A2994 NOSIG=
200611300600 METAR MROC 300600Z 09005KT 9999 FEW035 BKN120 21/18 A2991 NOSIG=
200611300700 METAR MROC 300700Z 05004KT 9999 FEW035 SCT120 20/18 A2990 NOSIG=
200611300800 METAR MROC 300800Z 03007KT 9999 SCT030 20/18 A2989 NOSIG=
200611300900 METAR MROC 300900Z 02005KT 9999 FEW030 SCT120 20/18 A2988 NOSIG=
200611301000 METAR MROC 301000Z 04004KT 9999 FEW030 20/17 A2989 NOSIG=
200611301100 METAR MROC 301100Z 04005KT 9999 FEW030 19/17 A2990 BECMG CAVOK=
200611301300 METAR MROC 301300Z 34002KT CAVOK 22/18 A2995=
200611301400 METAR MROC 301400Z 14005KT 9999 FEW030 BKN300 25/18 A2996=
200611301500 METAR MROC 301500Z 12005KT 9999 FEW030 SCT100 BKN300 25/18 A2997=
200611301600 METAR MROC NIL=
200611301700 METAR MROC 301700Z 24007KT 9999 SCT030 SCT100 27/20 A2994=
200611301800 METAR MROC 301800Z 25010KT 9999 BKN030 26/21 A2991=
200611301900 METAR MROC 301900Z 21005KT 9999 BKN030 27/21 A2988 RMK RN N NE E=
200611302000 METAR MROC 302000Z 25007KT 3000 +RA FEW010TCU BKN030 23/21 A2987 RMK VIS S SW UNL=
200611302100 METAR MROC 302100Z 23008KT 4000 -RA BR FEW005 SCT025 BKN100 22/21 A2987 RMK VIS NE ENE UNLTD BECMG 7000=
200611302200 METAR MROC 302200Z 24010KT 0800 FG BKN001 SCT004 21/20 A2989 RMK FG BANK OVER APCH07 NOSIG=
200611302300 METAR MROC 302300Z 21002KT 0800 FG SCT001 BKN003 21/21 A2991 RMK NIEBLA DENSA ALRED NOSIG=
200612010000 METAR MROC NIL=
200612010100 METAR MROC 010100Z 00000KT 9999 FEW030 SCT120 BKN250 21/20 A2995 NOSIG=
200612010200 METAR MROC 010200Z 29004KT 9999 -RA FEW004 SCT030 BKN120 21/20 A2997=
200612010300 METAR MROC 010300Z 36005KT 9999 SCT025 OVC120 21/20 A2998 NOSIG=
200612010400 METAR MROC 010400Z 05007KT 9999 FEW025 OVC120 21/20 A2996 NOSIG=
200612010500 METAR MROC 010500Z 04007KT 9999 FEW030 OVC120 22/19 A2995 NOSIG=
200612010600 METAR MROC 010600Z 00000KT 9999 VCFG FEW005 SCT030 BKN120 21/20 A2994 NOSIG=
200612010700 METAR MROC NIL=
200612010800 METAR MROC 010800Z 05006KT 7000 VCFG FEW002 SCT030 BKN120 21/19 A2991=
200612010900 METAR MROC 010900Z 01004KT 8000 VCFG FEW003 SCT030 BKN120 21/19 A2990=
200612011000 METAR MROC NIL=
200612011100 METAR MROC 011100Z 08005KT CAVOK 21/18 A2992 NOSIG=
200612011200 METAR MROC 011200Z 01005KT 9999 FEW025 BKN110 20/18 A2994 NOSIG=
200612011300 METAR MROC 011300Z 04008KT 9999 FEW030 BKN100 22/18 A2996 NOSIG=
200612011400 METAR MROC 011400Z 09007KT 9999 FEW030 BKN120 24/20 A2998 NOSIG=
200612011500 METAR MROC 011500Z 09007KT 9999 FEW030 BKN120 26/20 A2999 NOSIG=
200612011600 METAR MROC 011600Z 11005KT 9999 SCT030 BKN120 25/20 A2998 NOSIG=
200612011700 METAR MROC 011700Z 08011KT 9999 FEW030 BKN120 27/19 A2995 BECMG 24007KT=
200612011800 METAR MROC 011800Z 10011KT 9999 FEW030 BKN080 27/19 A2992 NOSIG=
200612011900 METAR MROC 011900Z 10011KT 9999 FEW030 SCT120 27/19 A2989 NOSIG=
200612012000 METAR MROC 012000Z 09007KT 9999 FEW030 SCT045 29/19 A2986 RMK TCU DIST S/E BECMG 24007KT=
200612012100 METAR MROC 012100Z 11008KT 9999 FEW030 SCT280 28/19 A2984 RMK CB DST S NOSIG=
200612012200 METAR MROC 012200Z 11011KT 9999 SCT035 SCT280 27/19 A2984 NOSIG=
200612012300 METAR MROC 012300Z 10009KT 9999 FEW008 SCT030 BKN280 25/18 A2987 RMK DZ NE N=
200612020000 METAR MROC 020000Z 27003KT 9999 FEW030 SCT280 23/22 A2989 RMK LTNG DST S NOSIG=
200612020100 METAR MROC 020100Z 10006KT 9999 FEW030 BKN280 23/18 A2992 NOSIG=
200612020200 METAR MROC 020200Z 01008KT 9999 FEW025 BKN280 23/19 A2994 NOSIG=
200612020300 METAR MROC 020300Z 06006KT 9999 FEW025 SCT120 BKN280 22/19 A2995=
200612020400 METAR MROC 020400Z 02005KT 9999 FEW035 SCT120 BKN280 23/19 A2995=
200612020500 METAR MROC 020500Z 09007KT 9999 FEW035 SCT120 BKN280 22/18 A2993=
200612020600 METAR MROC 020600Z 07004KT CAVOK 21/18 A2993 RMK LTNG DST SW=
200612020700 METAR MROC 020700Z 02003KT CAVOK 22/18 A2991=
200612020800 METAR MROC 020800Z 10005KT CAVOK 22/19 A2989=
200612020900 METAR MROC 020900Z 00000KT CAVOK 21/18 A2989=
200612021000 METAR MROC 021000Z 04007KT CAVOK 21/18 A2988=
200612021100 METAR MROC 021100Z VRB03KT CAVOK 21/18 A2991=
200612021200 METAR MROC 021200Z VRB03KT 9999 FEW040 SCT080 BKN250 21/18 A2993=
200612021300 METAR MROC 021300Z 10005KT 9999 FEW030 SCT100 BKN250 22/19 A2995 RMK DZ DST N=
200612021400 METAR MROC 021400Z 10014KT 9999 -RA FEW030 BKN140 22/18 A2995 NOSIG=
200612021500 METAR MROC 021500Z 10007KT 9999 -RA FEW030 BKN140 22/18 A2998 NOSIG=
200612021600 METAR MROC 021600Z 05007KT 9999 FEW030 BKN140 23/19 A2999 RMK DZ N NE NOSIG=
200612021700 METAR MROC 021700Z 09010KT 9999 -RA FEW030 BKN130 25/19 A2996 NOSIG=
200612021800 METAR MROC 021800Z 08006KT 9999 FEW030 BKN130 23/20 A2994 RMK DZ NW N NE NOSIG=
200612021900 METAR MROC 021900Z 11007KT 9999 SCT035 BKN130 25/20 A2990 RMK DZ NE N NW NOSIG=
200612022000 METAR MROC 022000Z 12005KT 9999 BKN035 SCT130 24/21 A2990 RMK DZ N NE NOSIG=
200612022100 METAR MROC 022100Z 12006KT 9999 DZ BKN025 SCT100 26/20 A2988 RMK RN DST S SE E NE N=
200612022200 METAR MROC 022200Z 08010KT 9999 -DZ FEW030 SCT100 SCT250 25/18 A2987 RMK RN DST SE E NE=
200612022300 METAR MROC 022300Z 10010KT 9999 FEW030 SCT100 BKN250 23/18 A2988 RMK RN DST N NE E=
200612030000 METAR MROC 030000Z 09010G24KT 9999 FEW030 BKN250 22/17 A2990 NOSIG=
200612030100 METAR MROC 030100Z 10017KT CAVOK 22/16 A2992 NOSIG=
200612030200 METAR MROC 030200Z 10012G22KT CAVOK 22/17 A2993 NOSIG=
200612030300 METAR MROC 030300Z 09011KT CAVOK 22/15 A2995 NOSIG=
200612030400 METAR MROC 030400Z 10009KT CAVOK 21/16 A2995 NOSIG=
200612030500 METAR MROC 030500Z 04011KT CAVOK 21/15 A2996 NOSIG=
200612030600 METAR MROC 030600Z 10012KT CAVOK 21/16 A2994 NOSIG=
200612030700 METAR MROC 030700Z 10013KT CAVOK 21/16 A2992 NOSIG=
200612030800 METAR MROC 030800Z 08010KT CAVOK 20/16 A2991 NOSIG=
200612030900 METAR MROC 030900Z 10013KT CAVOK 20/15 A2989 NOSIG=
200612031000 METAR MROC 031000Z 11017KT CAVOK 21/14 A2989=
200612031100 METAR MROC 031100Z 10017KT CAVOK 21/13 A2989=
200612031200 METAR MROC 031200Z 10016KT CAVOK 20/14 A2990 NOSIG=
200612031300 METAR MROC 031300Z 10010G20KT CAVOK 22/14 A2994 NOSIG=
200612031400 METAR MROC 031400Z 10011KT CAVOK 25/14 A2995 NOSIG=
200612031500 METAR MROC 031500Z 09014G24KT CAVOK 25/15 A2995 NOSIG=
200612031600 METAR MROC 031600Z 10019KT CAVOK 27/16 A2995 NOSIG=
200612031700 METAR MROC 031700Z 09013G23KT CAVOK 28/16 A2994 NOSIG=
200612031800 METAR MROC 031800Z 07019KT CAVOK 28/16 A2992 NOSIG=
200612031900 METAR MROC 031900Z 07013KT CAVOK 29/13 A2990 NOSIG=
200612032000 METAR MROC 032000Z 07012KT CAVOK 28/15 A2989 NOSIG=
200612032100 METAR MROC 032100Z 07015KT CAVOK 27/15 A2987 NOSIG=
200612032200 METAR MROC 032200Z 07014KT CAVOK 27/14 A2987 NOSIG=
200612032300 METAR MROC 032300Z 07010KT CAVOK 25/15 A2988 NOSIG=
200612040000 METAR MROC 040000Z 08012KT CAVOK 23/16 A2989 NOSIG=
200612040100 METAR MROC 040100Z 09008KT CAVOK 23/16 A2992 NOSIG=
200612040200 METAR MROC 040200Z 09012KT CAVOK 22/17 A2993 NOSIG=
200612040300 METAR MROC 040300Z 09013KT CAVOK 22/17 A2994 NOSIG=
200612040400 METAR MROC 040400Z 09014KT CAVOK 22/17 A2993 NOSIG=
200612040500 METAR MROC 040500Z 09014G24KT CAVOK 22/17 A2993=
200612040600 METAR MROC 040600Z 10015G25KT CAVOK 22/18 A2992=
200612040700 METAR MROC 040700Z 10012G22KT CAVOK 22/18 A2991=
200612040800 METAR MROC 040800Z 10012KT CAVOK 22/17 A2991 NOSIG=
200612040900 METAR MROC 040900Z 09013KT CAVOK 22/16 A2990 NOSIG=
200612041000 METAR MROC 041000Z 09009KT 9999 FEW025 BKN100 22/16 A2989=
200612041100 METAR MROC NIL=
200612041200 METAR MROC 041200Z 09008KT 9999 FEW025 SCT100 22/17 A2993 RMK DZ N NE NOSIG=
200612041300 METAR MROC 041300Z 09010KT 9999 FEW025 SCT100 23/14 A2996 NOSIG=
200612041400 METAR MROC 041400Z 09013KT 9999 FEW025 SCT110 26/17 A2998=
200612041500 METAR MROC 041500Z 07016KT 9999 FEW025 BKN250 26/17 A2998 NOSIG=
200612041600 METAR MROC 041600Z 08017KT 9999 SCT025 BKN100 25/18 A2999 BECMG RMK DZ N NE E=
200612041700 METAR MROC 041700Z 08014KT 9999 SCT025 BKN100 25/17 A2998 BECMG RMK DZ N NE=
200612041800 METAR MROC 041800Z 07020G40KT 9999 SCT025 BKN100 25/17 A2996 RMK DZ N NE N=
200612041900 METAR MROC 041900Z 09011G22KT 9999 SCT025 SCT100 25/17 A2992 NOSIG=
200612042000 METAR MROC 042000Z 08015G30KT 9999 SCT025 BKN100 24/15 A2987 NOSIG=
200612042100 METAR MROC 042100Z 07020KT 9999 SCT025 BKN110 23/16 A2986=
200612042200 METAR MROC 042200Z 08013KT 9999 SCT025 BKN110 23/16 A2990=
200612042300 METAR MROC 042300Z 09016KT 9999 SCT030 SCT120 22/16 A2990=
200612050000 METAR MROC 050000Z 09016KT 9999 SCT030 BKN250 21/16 A2990=
200612050100 METAR MROC 050100Z 09011KT 9999 SCT030 BKN250 21/17 A2994=
200612050200 METAR MROC 050200Z 10018KT 9999 SCT030 BKN250 20/13 A2996=
200612050300 METAR MROC 050300Z 09018G28KT 9999 FEW030 SCT250 20/14 A2996 NOSIG=
200612050400 METAR MROC 050400Z 09020G33KT 9999 FEW030 SCT250 21/13 A2997 NOSIG=
200612050500 METAR MROC 050500Z 10019G32KT CAVOK 21/13 A2994 NOSIG=
200612050600 METAR MROC 050600Z 10022KT CAVOK 20/13 A2993 NOSIG=
200612050700 METAR MROC 050700Z 10015KT 9999 FEW003 SCT260 20/14 A2992 RMK RAFAGAS 23KT DZ DST E NOSIG=
200612050800 METAR MROC 050800Z 10019KT CAVOK 20/14 A2990 RMK RAFAGAS DE 26KT NOSIG=
200612050900 METAR MROC 050900Z 10018G28KT CAVOK 19/13 A2990 NOSIG=
200612051000 METAR MROC 051000Z 10016KT CAVOK 19/14 A2992 RMK RAFAGAS DE 23KT NOSIG=
200612051100 METAR MROC 051100Z 10016KT CAVOK 20/15 A2993 RMK RAFAGAS DE 25KT NOSIG=
200612051200 METAR MROC 051200Z 10016KT 9999 FEW030 SCT250 20/15 A2996 RMK RAFAGAS DE 22KT NOSIG=
200612051300 METAR MROC 051300Z 11018KT 9999 FEW035 SCT250 20/16 A2997=
200612051400 METAR MROC 051400Z 10021KT 9999 FEW035 SCT250 22/16 A2999=
200612051500 METAR MROC 051500Z 10021KT 9999 SCT030 23/17 A2998=
200612051600 METAR MROC 051600Z 08019KT 9999 SCT030 23/16 A2999=
200612051700 METAR MROC 051700Z 08025KT 9999 SCT030 24/16 A2997=
200612051800 METAR MROC 051800Z 07018KT 9999 SCT030 25/16 A2994=
200612051900 METAR MROC 051900Z 10024KT 9999 FEW030 25/16 A2990=
200612052000 METAR MROC 052000Z 09019KT 9999 FEW030 26/16 A2988=
200612052100 METAR MROC 052100Z 10021G34KT 9999 FEW030 25/16 A2988 NOSIG=
200612052200 METAR MROC 052200Z 10018G28KT 9999 FEW030 24/17 A2988 RMK DZ DST N NE NOSIG=
200612052300 METAR MROC 052300Z 10016KT 9999 FEW030 22/16 A2990 RMK DZ DST N NE RFGS 22KTS NOSIG=
200612060000 METAR MROC 060000Z 09012KT 9999 FEW030 20/16 A2992 RMK DZ DST N NE NOSIG=
200612060100 METAR MROC 060100Z 05010KT 9999 FEW030 20/16 A2996 NOSIG=
200612060200 METAR MROC 060200Z 09017KT CAVOK 20/16 A2997 NOSIG=
200612060300 METAR MROC 060300Z 08019G36KT CAVOK 21/15 A2997 NOSIG=
200612060400 METAR MROC 060400Z 09017G32KT CAVOK 20/16 A2999 NOSIG=
200612060500 METAR MROC 060500Z 10016G30KT 9999 FEW040 20/17 A2998 NOSIG=
200612060600 METAR MROC 060600Z 09019G36KT 9999 FEW040 21/17 A2996 NOSIG=
200612060700 METAR MROC NIL=
200612060800 METAR MROC 060800Z 10006KT 9999 FEW035 21/16 A2994 NOSIG=
200612060900 METAR MROC 060900Z 09012G24KT 9999 FEW035 21/17 A2992 NOSIG=
200612061000 METAR MROC 061000Z 09007KT 9999 FEW035 21/16 A2994 NOSIG=
200612061100 METAR MROC 061100Z 10011KT 9999 SCT030 21/17 A2995 NOSIG=
200612061200 METAR MROC 061200Z 10010KT 9999 FEW030 BKN100 21/17 A2996 NOSIG=
200612061300 METAR MROC 061300Z 10011KT 9999 FEW025 BKN080 22/17 A2998 RMK RN/DZ IN HALL N QUAD=
200612061400 METAR MROC 061400Z 10012KT 9999 FEW030 BKN080 23/18 A2999 RMK RN/DZ IN HALL N QUAD NOSIG=
200612061500 METAR MROC 061500Z 10015KT 9999 FEW030 BKN070 23/18 A3000 RMK RN/DZ IN ALL N QUAD NOSIG=
200612061600 METAR MROC 061600Z 10010KT 9999 FEW025 BKN060 25/18 A3000 RMK RN/DZ DIST N NE ENE NOSIG=
200612061700 METAR MROC 061700Z 07014KT 9999 FEW030 SCT080 27/18 A2998 RMK DZ DST N NE HZY=
200612061800 METAR MROC 061800Z 08012KT 9999 FEW030 SCT100 28/18 A2995 RMK DZ DST N NNW NOSIG=
200612061900 METAR MROC 061900Z 09014KT 9999 FEW030 BKN070 26/17 A2993 RMK DZ DST NE=
200612062000 METAR MROC 062000Z 10009KT 9999 SCT030 BKN060 24/18 A2992 RMK PCPN DST TO E AND N QUADS BECMG -RA/DZ=
200612062100 METAR MROC 062100Z 11009KT 9999 BKN030 SCT080 23/18 A2992 RMK DZ NW N NE NOSIG=
200612062200 METAR MROC 062200Z 10009KT 9999 -DZ SCT030 BKN080 22/18 A2992 NOSIG=
200612062300 METAR MROC 062300Z 10009KT 9999 SCT030 SCT080 22/18 A2993 RMK DZ NE N NW NOSIG=
200612070000 METAR MROC 070000Z 09010KT 9999 SCT030 SCT080 22/17 A2994 NOSIG=
200612070100 METAR MROC 070100Z 09013KT 9999 FEW030 SCT080 22/17 A2995 NOSIG=
200612070200 METAR MROC 070200Z 09010KT 9999 FEW030 SCT100 21/16 A2997 NOSIG=
200612070300 METAR MROC 070300Z 10011KT CAVOK 21/17 A2998=
200612070400 METAR MROC 070400Z 09008KT CAVOK 21/17 A2998=
200612070500 METAR MROC 070500Z 03004KT CAVOK 21/17 A2998=
200612070600 METAR MROC 070600Z 05006KT CAVOK 21/17 A2997=
200612070700 METAR MROC 070700Z 02004KT CAVOK 21/17 A2996=
200612070800 METAR MROC 070800Z 10015KT CAVOK 21/17 A2993=
200612070900 METAR MROC 070900Z 08008KT CAVOK 21/17 A2994=
200612071000 METAR MROC 071000Z 10008KT CAVOK 21/17 A2994=
200612071100 METAR MROC 071100Z 09005KT CAVOK 20/11 A2996=
200612071200 METAR MROC 071200Z 07006KT 9999 FEW030 BKN250 21/17 A2996=
200612071300 METAR MROC 071300Z 11010KT 9999 FEW030 SCT100 22/17 A2997=
200612071400 METAR MROC 071400Z 10012KT 9999 FEW035 SCT300 24/18 A2999 NOSIG=
200612071500 METAR MROC 071500Z 10013KT 9999 FEW040 25/18 A3000 NOSIG=
200612071600 METAR MROC 071600Z 00000KT 9999 SCT040 26/18 A3000 NOSIG=
200612071700 METAR MROC 071700Z 07011KT 9999 SCT030 SCT100 26/18 A3000 RMK DZ NW N NE NOSIG=
200612071800 METAR MROC 071800Z 08011KT 9999 FEW030 SCT080 28/17 A2998 NOSIG=
200612071900 METAR MROC 071900Z 08009KT 9999 FEW035 29/17 A2995 NOSIG=
200612072000 METAR MROC 072000Z 09010KT 9999 SCT035 29/17 A2993 NOSIG=
200612072100 METAR MROC 072100Z 10007KT 9999 FEW025 SCT250 27/17 A2992 NOSIG=
200612072200 METAR MROC 072200Z 10009KT 9999 FEW035 SCT300 27/17 A2992 NOSIG=
200612072300 METAR MROC 072300Z 25011KT 9999 FEW020 SCT035 23/21 A2994 NOSIG=
200612080000 METAR MROC 080000Z 26003KT 9999 FEW020 SCT250 22/21 A2997 NOSIG=
200612080100 METAR MROC 080100Z 24002KT 9999 FEW025 SCT120 22/20 A2998 NOSIG=
200612080200 METAR MROC 080200Z 12003KT 9999 SCT030 21/20 A3001 NOSIG=
200612080300 METAR MROC 080300Z 06003KT CAVOK 20/17 A3002 NOSIG=
200612080400 METAR MROC 080400Z 03006KT CAVOK 21/17 A3003 NOSIG=
200612080500 METAR MROC 080500Z 06008KT CAVOK 21/17 A3003 NOSIG=
200612080600 METAR MROC 080600Z 09006KT CAVOK 20/17 A3001 NOSIG=
200612080700 METAR MROC 080700Z 11009KT CAVOK 20/17 A2999 NOSIG=
200612080800 METAR MROC 080800Z 09007KT CAVOK 20/17 A2998 NOSIG=
200612080900 METAR MROC 080900Z 04007KT CAVOK 20/17 A2996 NOSIG=
200612081000 METAR MROC 081000Z 04003KT CAVOK 20/16 A2996 NOSIG=
200612081100 METAR MROC 081100Z 04008KT CAVOK 20/16 A2997 NOSIG=
200612081200 METAR MROC 081200Z 06006KT CAVOK 19/16 A2998 NOSIG=
200612081300 METAR MROC 081300Z 09008KT CAVOK 22/16 A3001 NOSIG=
200612081400 METAR MROC 081400Z 10008KT CAVOK 24/17 A3003 NOSIG=
200612081500 METAR MROC 081500Z 11012KT CAVOK 26/16 A3003 NOSIG=
200612081600 METAR MROC 081600Z 11010KT CAVOK 26/16 A3003 NOSIG=
200612081700 METAR MROC 081700Z 11004KT 9999 FEW035 BKN120 28/17 A3001 NOSIG=
200612081800 METAR MROC 081800Z 14005KT 9999 FEW035 BKN120 29/17 A2998 NOSIG=
200612081900 METAR MROC 081900Z 23010KT 9999 SCT030 BKN120 27/19 A2996 NOSIG=
200612082000 METAR MROC 082000Z 23008KT 9999 SCT030 BKN120 26/20 A2996 RERA NOSIG=
200612082100 METAR MROC 082100Z 24007KT 9999 SCT030 SCT120 26/21 A2994 NOSIG=
200612082200 METAR MROC 082200Z 24010KT 9999 SCT025TCU SCT130 24/21 A2995 BECMG RMK RN N CB DST S=
200612082300 METAR MROC 082300Z 23008KT 9999 VCFG FEW010 SCT020 BKN120 22/21 A2997 NOSIG=
200612090000 METAR MROC 090000Z 24006KT 8000 VCFG FEW010 SCT025 BKN120 22/21 A2998 NOSIG=
200612090100 METAR MROC 090100Z 30003KT 8000 -RA SCT025 BKN100 21/21 A3002=
200612090200 METAR MROC 090200Z 03004KT 9999 FEW030 SCT120 21/20 A3004=
200612090300 METAR MROC 090300Z 06005KT CAVOK 20/18 A3006 RMK SCT100 NOSIG=
200612090400 METAR MROC 090400Z 06007KT CAVOK 21/18 A3005 NOSIG=
200612090500 METAR MROC 090500Z 08007KT CAVOK 21/18 A3004=
200612090600 METAR MROC 090600Z 07008KT CAVOK 20/17 A3002 NOSIG=
200612090700 METAR MROC 090700Z 07005KT CAVOK 20/17 A3001 NOSIG=
200612090800 METAR MROC 090800Z 05005KT CAVOK 20/17 A3000 NOSIG=
200612090900 METAR MROC 090900Z 05004KT CAVOK 21/17 A3000 NOSIG=
200612091000 METAR MROC 091000Z 06004KT CAVOK 20/16 A2999 NOSIG=
200612091100 METAR MROC 091100Z 05007KT CAVOK 19/17 A2998 NOSIG=
200612091200 METAR MROC 091200Z 08006KT CAVOK 20/17 A2999 NOSIG=
200612091300 METAR MROC 091300Z 10011KT CAVOK 22/17 A3001 NOSIG=
200612091400 METAR MROC 091400Z 11010KT CAVOK 24/18 A3003 NOSIG=
200612091500 METAR MROC 091500Z 09012G24KT 9999 FEW035 26/17 A3004 NOSIG=
200612091600 METAR MROC 091600Z 08010KT 9999 FEW035 27/17 A3003 NOSIG=
200612091700 METAR MROC 091700Z 10010KT 9999 FEW040 29/18 A3001 NOSIG=
200612091800 METAR MROC 091800Z 12007KT 9999 SCT040 SCT250 29/17 A2998 NOSIG=
200612091900 METAR MROC 091900Z 23010KT 9999 FEW015 SCT035 26/21 A2996 NOSIG=
200612092000 METAR MROC 092000Z 23007KT 9999 SCT030 SCT250 27/21 A2994 NOSIG=
200612092100 METAR MROC 092100Z 24011KT 9999 FEW015 SCT030 24/21 A2993=
200612092200 METAR MROC 092200Z 20004KT 3000 +RA -TS FEW015CB BKN030 22/21 A2995=
200612092300 METAR MROC 092300Z 23005KT 6000 VCFG FEW002 SCT008 BKN030 21/21 A2998 RMK VIS N UNL=
200612100000 METAR MROC 100000Z 18003KT 9999 3000SW -RA FEW002 SCT010 BKN100 21/20 A2999=
200612100100 METAR MROC 100100Z 24004KT 9999 3000SW -RA FEW002 SCT010 BKN100 21/20 A3002=
200612100200 METAR MROC 100200Z 26003KT 3000 1500SW BR FEW001 SCT005 BKN015 20/20 A3004=
200612100300 METAR MROC 100300Z 00000KT 3000 -DZBR SCT002 BKN010 20/20 A3007 RMK VIS 5000 N BECMG 05005KT 6000 VCFG=
200612100400 METAR MROC 100400Z 00000KT 5000 BR FEW003 SCT015 SCT100 20/20 A3006 NOSIG=
200612100500 METAR MROC 100500Z 00000KT 7000 -DZ VCFG FEW007 SCT025 SCT250 20/19 A3005 NOSIG=
200612100600 METAR MROC 100600Z 02003KT 7000 -DZ VCFG FEW004 SCT020 SCT100 20/20 A3004 NOSIG=
200612100700 METAR MROC 100700Z 03006KT CAVOK 20/19 A3001 NOSIG=
200612100800 METAR MROC 100800Z 02006KT CAVOK 19/18 A2998 NOSIG=
200612100900 METAR MROC 100900Z 04004KT CAVOK 19/18 A2996 NOSIG=
200612101000 METAR MROC 101000Z 03007KT CAVOK 20/17 A2998 NOSIG=
200612101100 METAR MROC 101100Z 05005KT CAVOK 20/17 A2999 NOSIG=
200612101200 METAR MROC 101200Z 04007KT 9999 FEW035 SCT250 20/18 A3000 NOSIG=
200612101300 METAR MROC 101300Z 03004KT 9999 FEW035 SCT250 21/18 A3003=
200612101400 METAR MROC 101400Z 09007KT 9999 FEW035 SCT120 23/18 A3004=
200612101500 METAR MROC 101500Z 10009KT 9999 FEW035 SCT120 24/19 A3003=
200612101600 METAR MROC 101600Z 10006KT 9999 FEW040 SCT120 28/19 A3003=
200612101700 METAR MROC 101700Z 14007KT 9999 SCT040 BKN120 28/19 A3001 RMK RN E=
200612101800 METAR MROC 101800Z 12006KT 9999 SCT040 BKN120 28/19 A2998 RMK RN E=
200612101827 METAR MROC 101827Z 23011KT 9999 SCT040 BKN120 26/21 A2997=
200612101900 METAR MROC 101900Z 22007KT 9999 SCT030 BKN120 26/21 A2996 RMK RN N NE E=
200612102000 METAR MROC 102000Z 18003KT 9999 3000SW -RA FEW010 SCT020 BKN100 21/20 A2995=
200612102100 METAR MROC 102100Z 25006KT 9999 VCFG FEW005 SCT020 BKN120 21/20 A2995 RMK RERA VIS 6KMS SW DUE LOW CLOUDS BECMG 5000 BR=
200612102200 METAR MROC 102200Z 00000KT 9999 FEW007 SCT120 BKN250 22/20 A2994 NOSIG=
200612102300 METAR MROC 102300Z 00000KT 9999 FEW030 SCT120 BKN250 21/20 A2994 NOSIG=
200612110000 METAR MROC 110000Z 21003KT 9999 FEW030 BKN120 21/20 A2996 NOSIG=
200612110100 METAR MROC 110100Z 32004KT 9999 FEW030 BKN120 21/20 A2999 REDZ NOSIG=
200612110200 METAR MROC 110200Z 33003KT 9999 FEW035 BKN130 21/20 A3001 NOSIG=
200612110300 METAR MROC 110300Z 34002KT 9999 FEW035 BKN130 21/20 A3003 NOSIG=
200612110400 METAR MROC 110400Z 04003KT 9999 FEW040 BKN130 20/19 A3003 NOSIG=
200612110500 METAR MROC 110500Z 06004KT CAVOK 21/19 A3001 NOSIG=
200612110600 METAR MROC 110600Z 02006KT CAVOK 21/19 A2999 BECMG RMK LTNG DST S=
200612110700 METAR MROC 110700Z 03004KT CAVOK 21/18 A2997 NOSIG=
200612110800 METAR MROC NIL=
200612110900 METAR MROC 110900Z 24004KT CAVOK 19/18 A2995 NOSIG=
200612111000 METAR MROC 111000Z 00000KT CAVOK 19/18 A2998 NOSIG=
200612111100 METAR MROC 111100Z 00000KT CAVOK 20/18 A2999 NOSIG=
200612111200 METAR MROC 111200Z 36003KT 9999 FEW040 BKN130 20/18 A3001 NOSIG=
200612111300 METAR MROC 111300Z 02006KT 9999 FEW035 BKN100 21/19 A3003 RMK LGT HZ ARND NOSIG=
200612111400 METAR MROC 111400Z 05005KT 9999 FEW035 BKN100 24/19 A3005 NOSIG=
200612111500 METAR MROC 111500Z 09009KT 9999 -RA SCT030 BKN100 21/20 A3007 RMK VIS 6KMS TO W/NW NOSIG=
200612111600 METAR MROC 111600Z 36005KT 9999 SCT030 BKN100 23/20 A3006 RMK RERA RN DIS NNW NW E NOSIG=
200612111700 METAR MROC 111700Z 11005KT 9999 FEW025 BKN100 24/20 A3004 RMK RN DIST N NE E=
200612111800 METAR MROC 111800Z 13004KT 9999 -RA FEW025 OVC100 24/20 A3001 NOSIG=
200612111900 METAR MROC 111900Z 15002KT 9999 -RA SCT030 BKN100 25/20 A2999 NOSIG=
200612112000 METAR MROC 112000Z 11005KT 9999 -RA FEW030 OVC100 22/20 A2998 NOSIG=
200612112100 METAR MROC 112100Z 10006KT 9999 FEW012 SCT025 OVC100 22/19 A2997 RMK RN ARND=
200612112200 METAR MROC 112200Z 08005KT 9999 FEW030 BKN120 22/19 A2997 NOSIG=
200612112300 METAR MROC 112300Z 10003KT 9999 FEW020 OVC120 22/19 A2997 NOSIG=
200612120000 METAR MROC 120000Z 07006KT 9999 FEW020 BKN120 22/18 A2999 NOSIG=
200612120100 METAR MROC 120100Z 06008KT 9999 FEW030 BKN120 21/17 A3001 NOSIG=
200612120200 METAR MROC 120200Z 09004KT 9999 FEW040 BKN140 21/18 A3003 NOSIG=
200612120300 METAR MROC 120300Z 11007KT 9999 FEW040 BKN140 21/18 A3005=
200612120400 METAR MROC 120400Z 05007KT 9999 FEW040 BKN140 21/18 A3005=
200612120500 METAR MROC 120500Z 07006KT 9999 FEW040 BKN130 21/19 A3004=
200612120600 METAR MROC 120600Z VRB03KT 9999 FEW040 BKN130 21/19 A3003=
200612120700 METAR MROC 120700Z 06003KT 9999 FEW040 BKN130 21/18 A3001=
200612120800 METAR MROC 120800Z 00000KT 9999 FEW040 BKN130 21/16 A3000=
200612120900 METAR MROC 120900Z 02005KT 9999 FEW040 BKN130 21/18 A2998=
200612121000 METAR MROC 121000Z 04007KT 9999 FEW040 BKN120 20/18 A2998=
200612121100 METAR MROC 121100Z 08004KT 9999 FEW035 BKN120 20/19 A2999=
200612121200 METAR MROC 121200Z 35003KT 9999 FEW035 BKN120 21/18 A3001=
200612121210 METAR MROC 121210Z 23004KT 9999 SCT020TCU SCT080 23/23 A2985 RMK TCU RASH NW N NE=
200612121300 METAR MROC 121300Z 07004KT 9999 FEW035 BKN120 22/18 A3003=
200612121400 METAR MROC 121400Z 08005KT 9999 FEW035 BKN100 23/18 A3005 NOSIG=
200612121500 METAR MROC 121500Z 10005KT 9999 FEW030 BKN100 24/18 A3005 NOSIG=
200612121600 METAR MROC 121600Z 09008KT 9999 FEW030 BKN100 26/18 A3004 NOSIG=
200612121700 METAR MROC 121700Z 10014KT 9999 FEW025 BKN120 26/18 A3002 NOSIG=
200612121800 METAR MROC 121800Z 10012KT 9999 FEW030 BKN120 26/17 A2999 NOSIG=
200612121900 METAR MROC 121900Z 10013KT 9999 FEW030 SCT120 BKN250 27/15 A2997 NOSIG=
200612122000 METAR MROC 122000Z 09012KT 9999 FEW030 SCT120 BKN250 28/16 A2994 NOSIG=
200612122100 METAR MROC 122100Z 10007KT 9999 FEW030 BKN250 28/16 A2994 NOSIG=
200612122200 METAR MROC 122200Z 12004KT 9999 FEW035 BKN250 27/16 A2994 NOSIG=
200612122300 METAR MROC 122300Z 23010KT 9999 VCFG SCT015 BKN250 22/21 A2997 RMK VIS 7000 NE N NW NOSIG=
200612130000 METAR MROC 130000Z 27004KT 9999 FEW012 SCT250 22/21 A3000 NOSIG=
200612130100 METAR MROC 130100Z 24004KT 9999 FEW015 SCT030 21/20 A3003 NOSIG=
200612130200 METAR MROC 130200Z 00000KT 9999 RA SCT030 BKN100 21/20 A3006 NOSIG=
200612130300 METAR MROC 130300Z 34003KT 9999 DZ SCT025 BKN100 21/20 A3007 NOSIG=
200612130400 METAR MROC 130400Z 00000KT 9999 SCT025 BKN100 21/20 A3008 REDZ NOSIG=
200612130500 METAR MROC 130500Z 02004KT 9999 SCT025 BKN100 21/20 A3006 NOSIG=
200612130600 METAR MROC 130600Z 00000KT 9999 FEW010 SCT025 BKN100 20/19 A3005 NOSIG=
200612130700 METAR MROC 130700Z 00000KT 9999 FEW025 SCT120 BKN250 19/18 A3004 NOSIG=
200612130800 METAR MROC 130800Z 06003KT 9999 SCT020 SCT120 19/18 A3002 NOSIG=
200612130900 METAR MROC 130900Z 07004KT 9999 BKN020 19/18 A3002=
200612131000 METAR MROC NIL=
200612131100 METAR MROC 131100Z 06007KT CAVOK 17/15 A3000=
200612131200 METAR MROC 131200Z 05007KT CAVOK 18/16 A3002 RMK BKN250=
200612131300 METAR MROC 131300Z 08003KT CAVOK 20/16 A3004 NOSIG=
200612131400 METAR MROC 131400Z 36004KT CAVOK 23/17 A3006 NOSIG=
200612131500 METAR MROC 131500Z 00000KT CAVOK 24/17 A3006 BECMG 24007KT=
200612131600 METAR MROC 131600Z 23005KT CAVOK 24/19 A3005 NOSIG=
200612131700 METAR MROC 131700Z 25008KT 9999 FEW035 SCT250 26/18 A3003 NOSIG=
200612131800 METAR MROC 131800Z 27008KT 9999 FEW035 27/20 A3000 NOSIG=
200612131900 METAR MROC 131900Z 25009KT 9999 SCT030 SCT250 26/20 A2997 NOSIG=
200612132000 METAR MROC 132000Z 23009KT 9999 SCT030 BKN250 27/20 A2995=
200612132100 METAR MROC 132100Z 23010KT 9999 FEW015TCU SCT030 BKN300 26/21 A2993 NOSIG=
200612132200 METAR MROC 132200Z 24009KT 9999 FEW012TCU SCT030 BKN250 23/21 A2994 BECMG RMK RN N NE E=
200612132300 METAR MROC 132300Z 23010KT 3000 BR FEW003 BKN015 21/21 A2995 NOSIG=
200612140000 METAR MROC 140000Z 24005KT 5000 BR FEW004 BKN015 21/20 A2998 NOSIG=
200612140100 METAR MROC 140100Z 27004KT 6000 VCFG FEW004 SCT015 21/20 A3000 NOSIG=
200612140200 METAR MROC 140200Z 22004KT 3000 BR FEW002 BKN010 21/20 A3002 BECMG RMK 6000 E=
200612140300 METAR MROC 140300Z 00000KT 7000 VCFG FEW003 SCT025 BKN100 20/10 A3004 RMK VSBY S SW W UNL NOSIG=
200612140400 METAR MROC 140400Z 09002KT 9999 FEW025 SCT100 20/20 A3004 NOSIG=
200612140500 METAR MROC 140500Z 14002KT 9999 FEW040 SCT280 20/19 A3002 NOSIG=
200612140600 METAR MROC 140600Z 36004KT CAVOK 20/19 A3001 NOSIG=
200612140700 METAR MROC 140700Z 01004KT CAVOK 20/18 A2999 NOSIG=
200612140800 METAR MROC 140800Z 10002KT CAVOK 19/19 A2997 NOSIG=
200612140900 METAR MROC 140900Z 36004KT CAVOK 19/18 A2996 NOSIG=
200612141000 METAR MROC 141000Z 34003KT CAVOK 20/18 A2996 NOSIG=
200612141100 METAR MROC 141100Z 00000KT CAVOK 18/17 A2997 NOSIG=
200612141200 METAR MROC 141200Z 00000KT CAVOK 19/18 A2997 NOSIG=
200612141300 METAR MROC 141300Z 08007KT CAVOK 22/19 A2999 RMK 2CI250 NOSIG=
200612141400 METAR MROC 141400Z 20005KT CAVOK 24/19 A3002 NOSIG=
200612141500 METAR MROC 141500Z 23008KT 9999 FEW040 SCT140 24/20 A3002 NOSIG=
200612141600 METAR MROC 141600Z 24009KT 9999 SCT040 25/20 A3002 NOSIG=
200612141700 METAR MROC 141700Z 24009KT 9999 SCT035 26/21 A3000 NOSIG=
200612141800 METAR MROC 141800Z 23010KT 9999 SCT030TCU SCT140 27/21 A2997 NOSIG=
200612141900 METAR MROC 141900Z 23010KT 9999 FEW015TCU BKN025 26/21 A2994 BECMG 5000 VCSH=
200612142000 METAR MROC 142000Z 23010KT 9999 3000E RA SCT010CB BKN025 25/21 A2991 BECMG 5000 RA=
200612142100 METAR MROC 142100Z 32008KT 9999 3000E RA -TS SCT010CB BKN025 22/20 A2991 RMK VIS N NE 3000 MTS DUE RA=
200612142200 METAR MROC 142200Z 23002KT 9999 3000SW VCSH FEW003 SCT015 BKN100 20/20 A2992 RERA=
200612142300 METAR MROC 142300Z 09003KT 9999 FEW030 BKN100 20/20 A2993=
200612150000 METAR MROC 150000Z 15002KT 9999 FEW030 BKN100 20/20 A2994=
200612150100 METAR MROC 150100Z 00000KT 9999 FEW030 BKN100 21/20 A2997=
200612150200 METAR MROC 150200Z 04002KT CAVOK 21/20 A2999 NOSIG=
200612150300 METAR MROC 150300Z 26002KT CAVOK 21/20 A3001 NOSIG=
200612150400 METAR MROC 150400Z 07004KT CAVOK 20/19 A2998 NOSIG=
200612150500 METAR MROC 150500Z 30003KT CAVOK 19/18 A2997 NOSIG=
200612150600 METAR MROC 150600Z 00000KT CAVOK 19/18 A2997 NOSIG=
200612150700 METAR MROC 150700Z 06005KT CAVOK 18/17 A2994 NOSIG=
200612150800 METAR MROC 150800Z 06005KT 9999 19/18 A2991 NOSIG=
200612150900 METAR MROC 150900Z 02005KT CAVOK 19/17 A2991 NOSIG=
200612151000 METAR MROC 151000Z 09006KT CAVOK 20/17 A2990 NOSIG=
200612151100 METAR MROC 151100Z 09007KT CAVOK 20/17 A2992 NOSIG=
200612151200 METAR MROC 151200Z 03009KT 9999 FEW030 SCT120 BKN250 21/18 A2994=
200612151300 METAR MROC 151300Z 10012KT 9999 FEW030 SCT120 BKN250 22/17 A2996=
200612151400 METAR MROC 151400Z 10013KT 9999 FEW030 BKN250 23/16 A2999=
200612151500 METAR MROC 151500Z 12015KT 9999 FEW030 BKN250 24/16 A2999=
200612151600 METAR MROC 151600Z 10012KT 9999 FEW030 BKN250 26/16 A2998=
200612151700 METAR MROC 151700Z 10013KT CAVOK 27/16 A2996=
200612151800 METAR MROC 151800Z 10009KT 9999 FEW040 BKN250 28/16 A2993=
200612151900 METAR MROC 151900Z 10009KT 9999 FEW040 BKN250 29/16 A2991=
200612152000 METAR MROC 152000Z 25010KT 9999 FEW040 BKN250 27/21 A2989=
200612152100 METAR MROC 152100Z 23008KT 9999 FEW015 BKN250 25/21 A2988 RMK CB DST S NOSIG=
200612152200 METAR MROC 152200Z 26007KT 9999 SCT015 BKN250 24/21 A2989 RMK CB DST TO S QUAD NOSIG=
200612152300 METAR MROC 152300Z 24011KT 9999 VCFG SCT004 BKN010 22/21 A2992 RMK VIS WNW NW 7KMS BECMG 4000 BR=
200612160000 METAR MROC 160000Z 20004KT 9999 FEW010 SCT025 BKN250 21/20 A2995 NOSIG=
200612160100 METAR MROC 160100Z 30003KT 9999 FEW015 SCT030 BKN250 21/19 A2997=
200612160200 METAR MROC 160200Z 31003KT 9999 FEW030 SCT100 21/20 A3000=
200612160300 METAR MROC 160300Z 31006KT 9999 FEW035 SCT120 21/19 A3002 NOSIG=
200612160400 METAR MROC 160400Z 09003KT CAVOK 19/17 A3002 NOSIG=
200612160500 METAR MROC 160500Z 02005KT CAVOK 20/17 A3002 NOSIG=
200612160600 METAR MROC 160600Z 08004KT CAVOK 18/17 A3000 NOSIG=
200612160700 METAR MROC NIL=
200612160800 METAR MROC 160800Z 06007KT CAVOK 18/15 A2995 NOSIG=
200612160900 METAR MROC 160900Z 06015G28KT CAVOK 19/15 A2993 NOSIG=
200612161000 METAR MROC 161000Z 05010G20KT CAVOK 18/14 A2994 NOSIG=
200612161100 METAR MROC 161100Z 05010KT CAVOK 18/14 A2995 NOSIG=
200612161200 METAR MROC 161200Z 08010KT CAVOK 20/15 A2996 NOSIG=
200612161300 METAR MROC 161300Z 03007KT CAVOK 20/15 A2998 NOSIG=
200612161400 METAR MROC 161400Z 09007KT CAVOK 24/16 A3000 NOSIG=
200612161500 METAR MROC 161500Z 10014KT CAVOK 25/17 A3000 NOSIG=
200612161600 METAR MROC 161600Z 10014KT 9999 FEW045 26/17 A2998 NOSIG=
200612161700 METAR MROC 161700Z 09014KT 9999 FEW045 27/15 A2996 NOSIG=
200612161800 METAR MROC 161800Z 10012KT 9999 FEW045 28/15 A2995 NOSIG=
200612161900 METAR MROC 161900Z 10010KT 9999 FEW045 29/15 A2992 NOSIG=
200612162000 METAR MROC 162000Z 24009KT 9999 FEW040 26/21 A2990 NOSIG=
200612162100 METAR MROC 162100Z 24012KT 9999 FEW030 26/20 A2989 NOSIG=
200612162200 METAR MROC 162200Z 23010KT 9999 FEW030 25/21 A2989=
200612162300 METAR MROC 162300Z 24009KT 9999 FEW020 23/21 A2991 NOSIG=
200612170000 METAR MROC 170000Z 25005KT 9999 VCFG FEW005 BKN012 22/21 A2994 RMK VSBY NW N 5KM LOW ST NOSIG=
200612170100 METAR MROC 170100Z 27005KT 9999 VCFG FEW008 SCT015 21/21 A2997 RMK VIS N NE 7KM DUE LOW ST/BECMG 07006KT 9999 SCT020=
200612170200 METAR MROC 170200Z 29002KT 9999 FEW015 SCT040 21/20 A3000 NOSIG=
200612170300 METAR MROC 170300Z 12003KT 9999 FEW025 SCT120 20/19 A3001=
200612170400 METAR MROC 170400Z 10006KT 9999 FEW025 20/17 A3001=
200612170500 METAR MROC 170500Z 05002KT 9999 FEW040 20/18 A3001=
200612170600 METAR MROC 170600Z 11009KT CAVOK 20/16 A2999=
200612170700 METAR MROC 170700Z 10011KT CAVOK 20/16 A2997=
200612170800 METAR MROC 170800Z 11012KT CAVOK 20/15 A2996=
200612170900 METAR MROC 170900Z 11008KT CAVOK 20/16 A2996=
200612171000 METAR MROC 171000Z 03004KT CAVOK 19/15 A2997=
200612171100 METAR MROC 171100Z 05005KT CAVOK 19/16 A2998=
200612171200 METAR MROC 171200Z 05004KT CAVOK 19/15 A3000=
200612171300 METAR MROC 171300Z 00000KT CAVOK 21/16 A3002 NOSIG=
200612171400 METAR MROC 171400Z 09012KT CAVOK 24/17 A3003 NOSIG=
200612171500 METAR MROC 171500Z 09012KT CAVOK 26/17 A3003 NOSIG=
200612171600 METAR MROC 171600Z 09012KT CAVOK 27/17 A3002 NOSIG=
200612171700 METAR MROC 171700Z 09016KT 9999 FEW035 27/17 A3000 NOSIG=
200612171800 METAR MROC 171800Z 08012KT 9999 FEW035 28/16 A2997 NOSIG=
200612171900 METAR MROC 171900Z 08013KT 9999 FEW035 28/16 A2995 NOSIG=
200612172000 METAR MROC 172000Z 09011KT 9999 FEW040 28/15 A2991 NOSIG=
200612172100 METAR MROC 172100Z 09014KT 9999 FEW040 27/14 A2990 NOSIG=
200612172200 METAR MROC 172200Z 06015KT CAVOK 26/14 A2991 NOSIG=
200612172300 METAR MROC 172300Z 05014KT CAVOK 25/15 A2992 NOSIG=
200612180000 METAR MROC 180000Z 09012KT CAVOK 23/15 A2993 NOSIG=
200612180100 METAR MROC 180100Z 09013KT CAVOK 22/15 A2994 NOSIG=
200612180200 METAR MROC 180200Z 09016KT CAVOK 22/15 A2996 NOSIG=
200612180300 METAR MROC 180300Z 09014KT CAVOK 21/16 A2997 NOSIG=
200612180400 METAR MROC 180400Z 10015KT CAVOK 21/16 A2996 NOSIG=
200612180500 METAR MROC 180500Z 10014KT CAVOK 21/16 A2997 NOSIG=
200612180600 METAR MROC 180600Z 10014KT CAVOK 21/16 A2995 NOSIG=
200612180700 METAR MROC 180700Z 10014KT CAVOK 21/15 A2994 NOSIG=
200612180800 METAR MROC 180800Z 10013KT CAVOK 20/15 A2994 NOSIG=
200612180900 METAR MROC 180900Z 09006KT CAVOK 19/15 A2994=
200612181000 METAR MROC 181000Z 02003KT CAVOK 18/14 A2994=
200612181100 METAR MROC 181100Z 09012KT CAVOK 20/16 A2995=
200612181200 METAR MROC 181200Z 10014KT CAVOK 20/14 A2996 RMK CB DIST S=
200612181300 METAR MROC 181300Z 10010KT CAVOK 22/15 A2999 NOSIG=
200612181400 METAR MROC 181400Z 10016KT CAVOK 25/14 A3001 NOSIG=
200612181500 METAR MROC 181500Z 10016KT CAVOK 26/13 A3002 NOSIG=
200612181600 METAR MROC 181600Z 09013KT CAVOK 28/13 A3001 NOSIG=
200612181700 METAR MROC 181700Z 09016KT CAVOK 28/12 A2999 NOSIG=
200612181800 METAR MROC 181800Z 08019KT CAVOK 28/12 A2997 NOSIG=
200612181900 METAR MROC 181900Z 08016KT CAVOK 29/08 A2993 NOSIG=
200612182000 METAR MROC 182000Z 09014KT CAVOK 28/11 A2992 NOSIG=
200612182100 METAR MROC 182100Z 06012G22KT 9999 FEW040 28/13 A2991 NOSIG=
200612182200 METAR MROC 182200Z 09012KT 9999 FEW040 27/15 A2991 NOSIG=
200612182300 METAR MROC 182300Z 10014G26KT 9999 FEW035 25/15 A2992 NOSIG=
200612190000 METAR MROC 190000Z 08011G22KT 9999 FEW035 23/16 A2994 NOSIG=
200612190100 METAR MROC 190100Z 07008KT 9999 FEW035 22/16 A2997 NOSIG=
200612190200 METAR MROC 190200Z 08008KT CAVOK 22/17 A2998 NOSIG=
200612190300 METAR MROC 190300Z 10011KT 9999 FEW045 21/17 A3000 NOSIG=
200612190400 METAR MROC 190400Z 09007KT CAVOK 21/16 A3001 NOSIG=
200612190500 METAR MROC NIL=
200612190600 METAR MROC 190600Z 09010KT CAVOK 21/15 A2997 NOSIG=
200612190700 METAR MROC 190700Z 10010KT CAVOK 21/16 A2996 NOSIG=
200612190800 METAR MROC 190800Z 10012KT CAVOK 20/16 A2995 NOSIG=
200612190900 METAR MROC 190900Z 09008KT CAVOK 20/16 A2993 NOSIG=
200612191000 METAR MROC 191000Z 09011KT CAVOK 21/16 A2991 NOSIG=
200612191100 METAR MROC 191100Z 05009KT CAVOK 19/15 A2992 NOSIG=
200612191200 METAR MROC 191200Z 10012KT CAVOK 21/15 A2994 NOSIG=
200612191300 METAR MROC 191300Z 10010G20KT CAVOK 22/16 A2995=
200612191400 METAR MROC 191400Z 10017G32KT CAVOK 24/16 A2997 NOSIG=
200612191500 METAR MROC 191500Z 10014G27KT 9999 FEW040 25/16 A2997 NOSIG=
200612191600 METAR MROC 191600Z 10013G24KT 9999 FEW040 26/16 A2997 NOSIG=
200612191700 METAR MROC 191700Z 08011G22KT 9999 SCT035 26/16 A2997 NOSIG=
200612191800 METAR MROC 191800Z 08010G20KT 9999 SCT035 27/17 A2995 NOSIG=
200612191900 METAR MROC 191900Z 09010KT 9999 SCT040 27/17 A2992 NOSIG=
200612192000 METAR MROC 192000Z 09006KT 9999 SCT035 27/17 A2991 NOSIG=
200612192100 METAR MROC 192100Z 09009KT 9999 SCT035 27/17 A2990=
200612192200 METAR MROC 192200Z 09011KT 9999 SCT035 26/15 A2990=
200612192300 METAR MROC 192300Z 07010KT 9999 FEW035 25/15 A2992=
200612200000 METAR MROC 200000Z 10006KT 9999 FEW035 22/16 A2994=
200612200100 METAR MROC 200100Z 07007KT CAVOK 21/17 A2996=
200612200200 METAR MROC 200200Z 07006KT CAVOK 21/16 A2998=
200612200300 METAR MROC 200300Z 06008KT CAVOK 21/16 A2999 NOSIG=
200612200400 METAR MROC 200400Z 11005KT CAVOK 20/16 A3000 NOSIG=
200612200500 METAR MROC 200500Z 10006KT CAVOK 20/16 A3000 NOSIG=
200612200600 METAR MROC 200600Z 07004KT CAVOK 20/16 A2999 NOSIG=
200612200700 METAR MROC 200700Z 08006KT CAVOK 20/15 A2997 NOSIG=
200612200800 METAR MROC 200800Z 05013KT CAVOK 20/16 A2995 NOSIG=
200612200900 METAR MROC 200900Z 02010KT CAVOK 20/16 A2994 NOSIG=
200612201000 METAR MROC 201000Z 02009KT 9999 FEW030 19/16 A2996 NOSIG=
200612201100 METAR MROC 201100Z 06009KT CAVOK 20/16 A2996 NOSIG=
200612201200 METAR MROC 201200Z 05006KT CAVOK 19/16 A2999 NOSIG=
200612201300 METAR MROC 201300Z 06009KT CAVOK 21/16 A3000=
200612201400 METAR MROC 201400Z 10008KT CAVOK 24/16 A3002=
200612201500 METAR MROC 201500Z 10008KT CAVOK 25/16 A3001=
200612201600 METAR MROC 201600Z 10007KT 9999 FEW040 26/17 A3001=
200612201700 METAR MROC 201700Z 10006KT 9999 FEW040 29/17 A2997=
200612201800 METAR MROC 201800Z 08007KT 9999 FEW040 29/17 A2994=
200612201900 METAR MROC 201900Z 15005KT 9999 FEW040 30/17 A2990=
200612202000 METAR MROC 202000Z 23009KT 9999 BKN035 25/21 A2990=
200612202100 METAR MROC 202100Z 24009KT 9999 FEW025 SCT035 26/21 A2990 RMK PCPN=
200612202200 METAR MROC 202200Z 26010KT 9999 VCSH FEW017TCU BKN025 26/20 A2991 RMK VIS 6KMS TO N NNW CB RASH DST S BECMG -RA=
200612202300 METAR MROC 202300Z 24002KT 9999 -RA VCSH FEW015TCU SCT025 BKN250 21/20 A2994 RMK VIS S SSW 8KMS NOSIG=
200612210000 METAR MROC 210000Z 04002KT 9999 FEW010 BKN030 21/20 A2996 RERA NOSIG=
200612210100 METAR MROC 210100Z 00000KT 9999 FEW010 SCT030 BKN250 21/20 A2997=
200612210200 METAR MROC 210200Z 00000KT 9999 FEW030 SCT250 21/20 A3000=
200612210300 METAR MROC 210300Z 02003KT 9999 FEW035 SCT140 21/20 A3002 NOSIG=
200612210400 METAR MROC 210400Z 06004KT 9999 FEW035 21/18 A3002 NOSIG=
200612210500 METAR MROC 210500Z 00000KT 9999 FEW035 20/19 A3002 NOSIG=
200612210600 METAR MROC 210600Z 05005KT 9999 FEW035 20/18 A3001 NOSIG=
200612210700 METAR MROC NIL=
200612210800 METAR MROC NIL=
200612210900 METAR MROC 210900Z 10004KT CAVOK 18/16 A2998 NOSIG=
200612211000 METAR MROC NIL=
200612211100 METAR MROC 211100Z 04006KT CAVOK 17/15 A3000 NOSIG=
200612211200 METAR MROC 211200Z 06006KT CAVOK 17/15 A3002 NOSIG=
200612211300 METAR MROC 211300Z 02008KT CAVOK 19/16 A3004 NOSIG=
200612211400 METAR MROC 211400Z 08003KT CAVOK 24/16 A3006=
200612211500 METAR MROC 211500Z VRB03KT CAVOK 25/18 A3006 BECMG 24006KT=
200612211600 METAR MROC 211600Z 23007KT 9999 FEW030 25/19 A3006 NOSIG=
200612211700 METAR MROC 211700Z 26010KT 9999 FEW030 25/19 A3004 NOSIG=
200612211800 METAR MROC 211800Z 23007KT 9999 SCT035 26/19 A3001 BECMG 8000 VCSH=
200612211900 METAR MROC 211900Z 23009KT 9999 SCT035 27/20 A2998 NOSIG=
200612212000 METAR MROC 212000Z 24009KT 9999 SCT035 27/20 A2996 NOSIG=
200612212100 METAR MROC 212100Z 23010KT 9999 SCT030 25/21 A2994 NOSIG=
200612212200 METAR MROC 212200Z 23010KT 9999 VCSH FEW012 BKN025 24/21 A2995 RMK VSBY N 5KM DUE RASH RN DST S NOSIG=
200612212300 METAR MROC 212300Z 35004KT 7000 -RA FEW010 BKN020 22/20 A2997 RMK VSBY N S UN BECMG 9999=
200612220000 METAR MROC 220000Z 23004KT 7000 -RA FEW008 BKN020 21/20 A2999 RMK VSBY NE S UNL NOSIG=
200612220100 METAR MROC 220100Z 27003KT 9999 FEW010 SCT030 BKN250 21/20 A3000=
200612220200 METAR MROC 220200Z 00000KT 9999 FEW015 SCT030 BKN250 21/20 A3003=
200612220300 METAR MROC 220300Z 30002KT 9999 FEW015 SCT030 BKN250 21/20 A3004=
200612220400 METAR MROC 220400Z 28002KT 9999 FEW015 SCT030 20/19 A3004=
200612220500 METAR MROC 220500Z 00000KT 9999 FEW020 SCT030 19/19 A3004=
200612220600 METAR MROC 220600Z 01002KT 9999 FEW030 20/19 A3002=
200612220700 METAR MROC 220700Z 01003KT CAVOK 19/17 A2999=
200612220800 METAR MROC 220800Z 04007KT CAVOK 19/16 A2997=
200612220900 METAR MROC 220900Z 03006KT CAVOK 18/16 A2997=
200612221000 METAR MROC 221000Z VRB03KT CAVOK 18/16 A2998=
200612221100 METAR MROC 221100Z 05008KT CAVOK 18/16 A2999=
200612221200 METAR MROC 221200Z 02008KT CAVOK 18/15 A3000=
200612221300 METAR MROC 221300Z 06010KT CAVOK 20/16 A3002 NOSIG=
200612221400 METAR MROC 221400Z 05006KT CAVOK 23/17 A3004 NOSIG=
200612221500 METAR MROC 221500Z 10005KT CAVOK 26/16 A3004 NOSIG=
200612221600 METAR MROC 221600Z 18003KT CAVOK 27/17 A3004 NOSIG=
200612221700 METAR MROC 221700Z 25011KT 9999 FEW030 26/20 A3002 NOSIG=
200612221800 METAR MROC 221800Z 23010KT 9999 FEW035 26/20 A3000 NOSIG=
200612221900 METAR MROC 221900Z 24011KT 9999 FEW035 26/21 A2998 NOSIG=
200612222000 METAR MROC 222000Z 25010KT 9999 SCT030 26/21 A2996 NOSIG=
200612222100 METAR MROC 222100Z 24010KT 9999 SCT030 26/20 A2996 NOSIG=
200612222200 METAR MROC 222200Z 21008KT 9999 FEW015TCU SCT030 24/20 A2996 NOSIG=
200612222300 METAR MROC 222300Z 23007KT 7000 3000SE VCSH SCT008 BKN025 23/21 A2998 NOSIG=
200612230000 METAR MROC 230000Z 22002KT 7000 VCFG SCT008 BKN025 22/21 A2999 NOSIG=
200612230100 METAR MROC 230100Z 00000KT 7000 VCFG SCT006 SCT025 22/21 A3001 NOSIG=
200612230200 METAR MROC 230200Z 00000KT 9999 FEW010 SCT030 21/20 A3003 NOSIG=
200612230300 METAR MROC 230300Z 06002KT 9999 SCT030 21/20 A3004 NOSIG=
200612230400 METAR MROC 230400Z 00000KT 9999 FEW035 20/20 A3003 NOSIG=
200612230500 METAR MROC 230500Z 03004KT 9999 FEW035 21/19 A3002 NOSIG=
200612230600 METAR MROC 230600Z 04004KT CAVOK 21/18 A3001 NOSIG=
200612230700 METAR MROC 230700Z 06007KT CAVOK 20/18 A2999 NOSIG=
200612230800 METAR MROC 230800Z 02006KT CAVOK 20/17 A2997=
200612230900 METAR MROC 230900Z 05008KT CAVOK 20/17 A2996=
200612231000 METAR MROC 231000Z 04008KT CAVOK 20/17 A2997=
200612231100 METAR MROC 231100Z 05006KT CAVOK 19/17 A2999=
200612231200 METAR MROC 231200Z 03006KT CAVOK 19/16 A2999 RMK FEW250=
200612231300 METAR MROC 231300Z 03007KT CAVOK 21/17 A3002 NOSIG=
200612231400 METAR MROC 231400Z 09011KT CAVOK 24/18 A3003 NOSIG=
200612231500 METAR MROC 231500Z 09012KT 9999 FEW040 26/18 A3002 NOSIG=
200612231600 METAR MROC 231600Z 09011KT 9999 FEW040 27/18 A3002 NOSIG=
200612231700 METAR MROC 231700Z 11011KT 9999 FEW035 28/18 A3000 NOSIG=
200612231800 METAR MROC 231800Z 09010KT 9999 SCT035 29/17 A2997 NOSIG=
200612231900 METAR MROC 231900Z 08010KT 9999 SCT035 29/17 A2994 NOSIG=
200612232000 METAR MROC 232000Z 10012KT 9999 SCT030 28/17 A2991 NOSIG=
200612232100 METAR MROC 232100Z 11012G22KT 9999 SCT030 28/18 A2990 NOSIG=
200612232200 METAR MROC 232200Z 11012KT 9999 SCT030 26/18 A2990 NOSIG=
200612232300 METAR MROC 232300Z 10013G24KT 9999 -RA SCT030 SCT120 24/18 A2993 RMK RN DST NE=
200612240000 METAR MROC 240000Z 12010KT 9999 SCT030 SCT120 23/18 A2995 NOSIG=
200612240100 METAR MROC 240100Z 08005KT 9999 SCT035 23/18 A2998 NOSIG=
200612240200 METAR MROC 240200Z 08004KT 9999 SCT035 22/18 A3002 NOSIG=
200612240300 METAR MROC 240300Z 04005KT CAVOK 22/18 A3003 NOSIG=
200612240400 METAR MROC 240400Z 06007KT CAVOK 22/19 A3003 NOSIG=
200612240500 METAR MROC 240500Z 05009KT CAVOK 21/18 A3002 NOSIG=
200612240600 METAR MROC 240600Z 08005KT CAVOK 22/18 A3000 NOSIG=
200612240700 METAR MROC 240700Z 04004KT CAVOK 21/18 A2998 NOSIG=
200612240800 METAR MROC 240800Z 08010KT CAVOK 20/17 A2999 NOSIG=
200612240900 METAR MROC 240900Z 09009KT CAVOK 20/17 A2999 NOSIG=
200612241000 METAR MROC 241000Z 060009KT 9999 SCT030 21/17 A2998 NOSIG=
200612241100 METAR MROC 241100Z 07007KT CAVOK 19/17 A2997 NOSIG=
200612241200 METAR MROC 241200Z 03006KT CAVOK 21/17 A2998 NOSIG=
200612241300 METAR MROC 241300Z 07008KT CAVOK 21/17 A2997 NOSIG=
200612241400 METAR MROC 241400Z 10010KT CAVOK 25/18 A3001 NOSIG=
200612241500 METAR MROC 241500Z 10010KT 9999 FEW040 SCT250 28/18 A3001 NOSIG=
200612241600 METAR MROC 241600Z 12007KT 9999 FEW040 SCT250 29/18 A3000 NOSIG=
200612241700 METAR MROC 241700Z 08009KT 9999 SCT035 29/18 A2994 NOSIG=
200612241800 METAR MROC 241800Z 14004KT 9999 SCT035 29/18 A2997 NOSIG=
200612241900 METAR MROC 241900Z 23012G22KT 9999 BKN030 26/21 A2993 BECMG RMK RN DST NW N NE=
200612242000 METAR MROC 242000Z 26010KT 9999 VCSH FEW010TCU SCT030 26/19 A2991 RMK RASH DST NW RN N NE=
200612242100 METAR MROC NIL=
200612242200 METAR MROC 242200Z 22003KT 9999 SCT020 BKN250 22/20 A2994=
200612242300 METAR MROC 242300Z 01003KT 9999 SCT020 BKN250 22/20 A2995=
200612250000 METAR MROC 250000Z 09004KT 9999 SCT020 BKN250 21/20 A2996=
200612250100 METAR MROC 250100Z 00000KT 9999 FEW030 SCT250 22/19 A2998=
200612250200 METAR MROC 250200Z 04002KT CAVOK 21/18 A3000=
200612250300 METAR MROC NIL=
200612250400 METAR MROC 250400Z 06003KT CAVOK 21/18 A3002 NOSIG=
200612250500 METAR MROC NIL=
200612250600 METAR MROC 250600Z 04008KT CAVOK 21/18 A2998 NOSIG=
200612250700 METAR MROC 250700Z 04007KT CAVOK 21/18 A2998 NOSIG=
200612250800 METAR MROC 250800Z 03005KT CAVOK 21/18 A2993 NOSIG=
200612250900 METAR MROC NIL=
200612251000 METAR MROC 251000Z 04007KT CAVOK 19/17 A2996 NOSIG=
200612251100 METAR MROC NIL=
200612251200 METAR MROC 251200Z 05005KT CAVOK 20/17 A2996 NOSIG=
200612251300 METAR MROC 251300Z 04006KT CAVOK 22/17 A2999=
200612251400 METAR MROC 251400Z 06008KT 9999 FEW040 SCT250 25/18 A3001=
200612251500 METAR MROC 251500Z 10012KT 9999 FEW040 26/19 A3001=
200612251600 METAR MROC 251600Z 08014KT 9999 FEW040 28/19 A2999=
200612251700 METAR MROC 251700Z 10017KT 9999 FEW040 SCT110 28/18 A2996=
200612251800 METAR MROC 251800Z 10015KT 9999 FEW035 SCT110 28/18 A2994=
200612251900 METAR MROC 251900Z 10015KT 9999 SCT035 26/18 A2992=
200612252000 METAR MROC 252000Z 11011KT 9999 BKN035 25/17 A2990=
200612252100 METAR MROC 252100Z 09012KT 9999 FEW035 BKN250 28/18 A2987 RMK CB DIST SSW NOSIG=
200612252200 METAR MROC 252200Z 11012KT 9999 FEW035 SCT045 BKN250 25/18 A2989 NOSIG=
200612252300 METAR MROC 252300Z 10014KT 9999 FEW035 SCT120 BKN250 24/18 A2991 NOSIG=
200612260000 METAR MROC 260000Z 10006KT 9999 FEW035 SCT120 BKN250 23/18 A2995 RMK CB LTNG DIST S NOSIG=
200612260100 METAR MROC NIL=
200612260200 METAR MROC 260200Z 09006KT 9999 FEW030 BKN120 22/18 A2999 NOSIG=
200612260300 METAR MROC 260300Z 09006KT CAVOK 22/18 A3002 NOSIG=
200612260400 METAR MROC 260400Z 06007KT CAVOK 21/18 A3002 NOSIG=
200612260500 METAR MROC 260500Z 01005KT CAVOK 22/18 A3003 NOSIG=
200612260600 METAR MROC 260600Z 02006KT CAVOK 21/18 A3001 NOSIG=
200612260700 METAR MROC 260700Z 02006KT CAVOK 21/18 A3000 NOSIG=
200612260800 METAR MROC 260800Z 04007KT CAVOK 21/18 A2997 NOSIG=
200612260900 METAR MROC NIL=
200612261000 METAR MROC NIL=
200612261100 METAR MROC 261100Z 01004KT 9999 FEW040 21/17 A2997 NOSIG=
200612261200 METAR MROC 261200Z 01006KT 9999 FEW035 BKN120 20/17 A2997 NOSIG=
200612261300 METAR MROC 261300Z 10013KT 9999 FEW035 25/18 A2999 NOSIG=
200612261400 METAR MROC NIL=
200612261500 METAR MROC 261500Z 09015KT 9999 FEW035 26/17 A3000 NOSIG=
200612261600 METAR MROC 261600Z 09014KT 9999 FEW040 27/16 A3000 NOSIG=
200612261700 METAR MROC 261700Z 08015KT 9999 FEW040 27/17 A2999 NOSIG=
200612261800 METAR MROC NIL=
200612261900 METAR MROC NIL=
200612262000 METAR MROC 262000Z 10014KT 9999 SCT040 28/15 A2992 RMK RFGS 21KT NOSIG=
200612262100 METAR MROC 262100Z 09010KT 9999 SCT040 26/16 A2991 NOSIG=
200612262200 METAR MROC NIL=
200612262300 METAR MROC 262300Z 11010KT 9999 FEW040 25/14 A2993 NOSIG=
200612270000 METAR MROC 270000Z 10011KT 9999 FEW040 23/16 A2997 NOSIG=
200612270100 METAR MROC 270100Z 09011KT 9999 FEW040 22/16 A3000=
200612270200 METAR MROC 270200Z 10013KT CAVOK 22/16 A3002=
200612270300 METAR MROC 270300Z 10015KT CAVOK 22/15 A3003=
200612270400 METAR MROC 270400Z 07010KT CAVOK 22/16 A3006=
200612270500 METAR MROC 270500Z 05005KT CAVOK 20/16 A3005=
200612270600 METAR MROC 270600Z 07005KT CAVOK 19/16 A3004=
200612270700 METAR MROC 270700Z 10008KT CAVOK 20/16 A3002=
200612270800 METAR MROC NIL=
200612270900 METAR MROC 270900Z 03008KT CAVOK 19/15 A2998=
200612271000 METAR MROC 271000Z 08010KT CAVOK 19/15 A2998=
200612271100 METAR MROC 271100Z 06008KT CAVOK 19/15 A2999=
200612271200 METAR MROC 271200Z 02010KT 9999 FEW040 OVC110 19/15 A3001=
200612271300 METAR MROC 271300Z 05008KT 9999 FEW020 BKN100 19/15 A3005 RMK DZ N NE NOSIG=
200612271400 METAR MROC 271400Z 08008KT 9999 FEW020 BKN100 20/14 A3007 RMK DZ N NE NOSIG=
200612271500 METAR MROC 271500Z 09009KT 9999 FEW020 BKN100 22/15 A3007 NOSIG=
200612271600 METAR MROC 271600Z 09012KT 9999 FEW025 BKN100 22/15 A3005 RMK DZ N=
200612271700 METAR MROC 271700Z 10012G22KT 9999 FEW025 SCT100 23/16 A3002 RMK DZ N NE NOSIG=
200612271800 METAR MROC 271800Z 11014KT 9999 FEW025 SCT120 24/17 A2999 RMK DZ N NE NOSIG=
200612271900 METAR MROC 271900Z 10010KT 9999 FEW030 SCT100 24/17 A2997 NOSIG=
200612272000 METAR MROC 272000Z 10011KT 9999 FEW030 BKN120 24/16 A2996 RMK DZ N NE NOSIG=
200612272100 METAR MROC 272100Z 10011KT 9999 FEW030 SCT120 24/16 A2994 NOSIG=
200612272200 METAR MROC 272200Z 09013KT 9999 FEW035 BKN120 22/16 A2995 NOSIG=
200612272300 METAR MROC 272300Z 04009KT 9999 FEW035 SCT120 21/16 A2997 RMK DZ DST N NE E=
200612280000 METAR MROC 280000Z 07005KT 9999 FEW030 SCT120 20/16 A2998 RMK DZ DST NE E NOSIG=
200612280100 METAR MROC 280100Z 09008KT 9999 FEW035 SCT120 20/16 A3000=
200612280200 METAR MROC 280200Z 10008KT CAVOK 21/16 A3003=
200612280300 METAR MROC 280300Z 09007KT CAVOK 20/16 A3005 NOSIG=
200612280400 METAR MROC NIL=
200612280500 METAR MROC 280500Z 09008KT CAVOK 20/16 A3004 NOSIG=
200612280600 METAR MROC 280600Z 10008KT CAVOK 20/16 A3001 NOSIG=
200612280700 METAR MROC NIL=
200612280800 METAR MROC 280800Z 10007KT CAVOK 20/16 A2997=
200612280900 METAR MROC 280900Z 10012KT CAVOK 20/16 A2996=
200612281000 METAR MROC 281000Z 10009KT 9999 FEW030 SCT100 19/16 A2997=
200612281100 METAR MROC 281100Z 05008KT 9999 FEW030 SCT100 20/16 A2998=
200612281200 METAR MROC 281200Z 10012KT 9999 FEW030 BKN120 20/16 A2999 RMK DZ DIST N NE=
200612281300 METAR MROC 281300Z 11013KT 9999 FEW040 BKN120 21/16 A3001 NOSIG=
200612281400 METAR MROC 281400Z 10017KT CAVOK 23/17 A3002 NOSIG=
200612281500 METAR MROC 281500Z 10018KT 9999 FEW035 SCT120 23/17 A3002 NOSIG=
200612281600 METAR MROC 281600Z 10013G23KT 9999 FEW035 26/18 A3001 NOSIG=
200612281700 METAR MROC 281700Z 09017KT 9999 FEW035 26/17 A3000 NOSIG=
200612281800 METAR MROC 281800Z 10012G22KT 9999 FEW035 27/18 A2998 NOSIG=
200612281900 METAR MROC 281900Z 10015KT 9999 FEW035 27/18 A2994 NOSIG=
200612282000 METAR MROC 282000Z 10012G22KT 9999 SCT030 27/18 A2991 NOSIG=
200612282100 METAR MROC 282100Z 08013G24KT 9999 SCT030 SCT250 26/16 A2990 BECMG RMK RN NE=
200612282200 METAR MROC 282200Z 10011KT 9999 SCT030 SCT250 26/17 A2991 BECMG RMK RN NE=
200612282300 METAR MROC 282300Z 10012G22KT 9999 SCT030 SCT250 24/17 A2993 NOSIG=
200612290000 METAR MROC 290000Z 11014G26KT 9999 SCT030 SCT250 22/17 A2994 NOSIG=
200612290100 METAR MROC 290100Z 10011KT 9999 SCT035 22/18 A2995 NOSIG=
200612290200 METAR MROC 290200Z 10014KT 9999 FEW035 22/16 A2996 NOSIG=
200612290300 METAR MROC NIL=
200612290400 METAR MROC 290400Z 09013KT CAVOK 22/17 A2999 NOSIG=
200612290500 METAR MROC 290500Z 10009KT CAVOK 21/17 A2998 NOSIG=
200612290600 METAR MROC 290600Z 10011KT CAVOK 21/17 A2997 NOSIG=
200612290700 METAR MROC NIL=
200612290800 METAR MROC 290800Z 10012KT CAVOK 22/18 A2995 NOSIG=
200612290900 METAR MROC 290900Z 10015KT CAVOK 22/18 A2992 NOSIG=
200612291000 METAR MROC 291000Z 10012KT CAVOK 21/17 A2993 NOSIG=
200612291100 METAR MROC 291100Z 10011KT CAVOK 21/17 A2995 NOSIG=
200612291200 METAR MROC 291200Z 09011KT 9999 FEW030 21/16 A2995 NOSIG=
200612291300 METAR MROC 291300Z 10014G24KT 9999 FEW030 22/17 A3000 NOSIG=
200612291400 METAR MROC 291400Z 10016G30KT 9999 FEW030 24/17 A3001 NOSIG=
200612291500 METAR MROC 291500Z 10013G23KT 9999 FEW025 25/17 A3001 BECMG RMK RN N NE=
200612291600 METAR MROC 291600Z 10014G26KT 9999 FEW030 27/16 A3000 BECMG RMK DZ NE=
200612291700 METAR MROC 291700Z 09015G29KT 9999 FEW030 27/16 A2998 BECMG RMK DZ NE=
200612291800 METAR MROC 291800Z 08012G23KT 9999 FEW030 28/17 A2997 BECMG RMK DZ NE=
200612291900 METAR MROC 291900Z 09013G24KT 9999 FEW030 28/18 A2993 BECMG RMK DZ NE=
200612292000 METAR MROC 292000Z 06015G27KT 9999 FEW025 28/17 A2990 BECMG RMK DZ NE=
200612292100 METAR MROC 292100Z 08011KT 9999 FEW025 27/16 A2989=
200612292200 METAR MROC 292200Z 08014KT 9999 FEW025 26/15 A2989=
200612292300 METAR MROC 292300Z 09013KT 9999 FEW025 25/16 A2990=
200612300000 METAR MROC 300000Z 10010KT CAVOK 23/17 A2991=
200612300100 METAR MROC 300100Z 10014KT CAVOK 23/16 A2992=
200612300200 METAR MROC 300200Z 08016KT CAVOK 23/16 A2995 NOSIG=
200612300300 METAR MROC 300300Z 09017KT CAVOK 22/16 A2998 NOSIG=
200612300400 METAR MROC 300400Z 10014G24KT CAVOK 22/16 A2997 NOSIG=
200612300500 METAR MROC 300500Z 10011G22KT CAVOK 22/17 A2995 NOSIG=
200612300600 METAR MROC 300600Z 09015KT CAVOK 22/16 A2995 NOSIG=
200612300700 METAR MROC 300700Z 11017KT CAVOK 21/18 A2993 NOSIG=
200612300800 METAR MROC 300800Z 10015KT 9999 FEW035 21/17 A2992 NOSIG=
200612300900 METAR MROC 300900Z 11016G26KT 9999 FEW035 21/17 A2991 NOSIG=
200612301000 METAR MROC 301000Z 11015KT 9999 FEW035 21/17 A2992 NOSIG=
200612301100 METAR MROC 301100Z 10016KT CAVOK 21/16 A2994 NOSIG=
200612301200 METAR MROC 301200Z 10018KT CAVOK 21/15 A2996 NOSIG=
200612301300 METAR MROC 301300Z 10008KT CAVOK 22/15 A2999=
200612301400 METAR MROC 301400Z 10012KT CAVOK 24/16 A3000=
200612301500 METAR MROC 301500Z 10012KT CAVOK 26/15 A2999=
200612301600 METAR MROC 301600Z 11013KT CAVOK 27/16 A2999=
200612301700 METAR MROC 301700Z 11013KT CAVOK 28/17 A2997=
200612301800 METAR MROC 301800Z 10015KT 9999 FEW040 28/17 A2995=
200612301900 METAR MROC 301900Z 10013KT 9999 FEW040 28/17 A2991=
200612302000 METAR MROC 302000Z 11015KT 9999 SCT035 27/18 A2989=
200612302100 METAR MROC 302100Z 11012KT 9999 FEW030 27/18 A2988 NOSIG=
200612302200 METAR MROC NIL=
200612302300 METAR MROC 302300Z 10013KT 9999 FEW030 SCT080 24/18 A2990 RMK PCPN=
200612310000 METAR MROC 310000Z 11009KT 9999 FEW030 SCT100 22/18 A2994 RMK PCPN DIST ENE=
200612310100 METAR MROC 310100Z 11007KT 9999 FEW030 22/17 A2996 NOSIG=
200612310200 METAR MROC 310200Z 09006KT 9999 FEW030 21/17 A2999 NOSIG=
200612310300 METAR MROC 310300Z 10008KT 9999 FEW030 21/17 A3001 NOSIG=
200612310400 METAR MROC 310400Z 10012G23KT 9999 FEW030 21/17 A3000 NOSIG=
200612310500 METAR MROC 310500Z 10011G21KT 9999 FEW030 21/17 A2998 NOSIG=
200612310600 METAR MROC 310600Z 10011G21KT 9999 FEW030 21/17 A2997 NOSIG=
200612310700 METAR MROC 310700Z 10015G28KT 9999 FEW030 21/17 A2995 NOSIG=
200612310800 METAR MROC 310800Z 10014G25KT 9999 FEW030 21/17 A2993 NOSIG=
200612310900 METAR MROC 310900Z 11014G25KT 9999 FEW030 21/16 A2992 NOSIG=
200612311000 METAR MROC 311000Z 11014G28KT 9999 FEW030 21/16 A2992 NOSIG=
200612311100 METAR MROC 311100Z 10013G24KT 9999 FEW030 21/16 A2992 NOSIG=
200612311200 METAR MROC 311200Z 10012G22KT 9999 SCT030 21/16 A2995 NOSIG=
200612311300 METAR MROC NIL=
200612311400 METAR MROC 311400Z 10013KT 9999 SCT030 22/17 A2999 RMK RFGS 19KT NOSIG=
200612311500 METAR MROC 311500Z 10016KT 9999 SCT030 25/18 A3000 RMK DZ DIST N NE NOSIG=
200612311600 METAR MROC 311600Z 11016KT 9999 SCT030 25/18 A2999 RMK DZ DIST N NE NOSIG=
200612311700 METAR MROC 311700Z 10011KT 9999 BKN030 25/18 A2998 RMK DZ DIST N NE NOSIG=
200612311800 METAR MROC 311800Z 08014KT 9999 BKN030 26/17 A2996 RMK DZ DIST N NE NOSIG=
200612311900 METAR MROC 311900Z 10016KT 9999 SCT030 27/17 A2993 RMK DZ DIST N NE NOSIG=
200612312000 METAR MROC 312000Z 10016KT 9999 SCT030 26/17 A2990 RMK RFGS 22KT=
200612312100 METAR MROC 312100Z 10017KT 9999 SCT035 25/17 A2989 RMK GST23KT NOSIG=
200612312200 METAR MROC 312200Z 10016G26KT 9999 FEW035 25/16 A2990 NOSIG=
200612312300 METAR MROC 312300Z 11013KT 9999 FEW035 23/17 A2991 NOSIG=
