200701010000 METAR MROC 010000Z 10016KT 9999 FEW030 22/16 A2993 BECMG=
200701010100 METAR MROC 010100Z 10014KT 9999 FEW030 22/17 A2996 BECMG=
200701010200 METAR MROC NIL=
200701010300 METAR MROC 010300Z 09010KT 9999 FEW035 21/16 A2999=
200701010400 METAR MROC 010400Z 10008KT CAVOK 20/16 A2999=
200701010500 METAR MROC 010500Z 11009KT CAVOK 20/16 A2998=
200701010600 METAR MROC 010600Z 09007KT CAVOK 20/16 A2997=
200701010700 METAR MROC 010700Z 06006KT CAVOK 20/16 A2996=
200701010800 METAR MROC 010800Z 08004KT CAVOK 20/16 A2995=
200701010900 METAR MROC 010900Z 09006KT CAVOK 19/16 A2993=
200701011000 METAR MROC 011000Z VRB03KT CAVOK 19/16 A2993=
200701011100 METAR MROC 011100Z 08004KT CAVOK 20/16 A2993=
200701011200 METAR MROC 011200Z 09004KT CAVOK 20/16 A2994=
200701011300 METAR MROC 011300Z 10009KT CAVOK 22/17 A2996=
200701011400 METAR MROC 011400Z 10011KT CAVOK 24/17 A2998 BECMG=
200701011500 METAR MROC 011500Z 10012KT CAVOK 26/17 A2999 BECMG=
200701011600 METAR MROC 011600Z 07012KT 9999 FEW035 27/16 A2998 BECMG=
200701011700 METAR MROC 011700Z 08011KT 9999 FEW035 28/17 A2996 BECMG=
200701011800 METAR MROC 011800Z 07013KT 9999 FEW035 28/17 A2993 BECMG=
200701011900 METAR MROC 011900Z 10013KT 9999 FEW040 29/16 A2990 BECMG=
200701012000 METAR MROC 012000Z 10012KT 9999 FEW035 29/16 A2988 BECMG=
200701012100 METAR MROC 012100Z 09008KT 9999 FEW035 29/17 A2987 BECMG=
200701012200 METAR MROC 012200Z 09009KT 9999 FEW035 28/17 A2987 BECMG=
200701012300 METAR MROC 012300Z 13008KT 9999 FEW035 25/17 A2988 BECMG=
200701020000 METAR MROC 020000Z 10009KT 9999 FEW035 22/17 A2991 BECMG=
200701020100 METAR MROC 020100Z 10004KT 9999 FEW040 22/17 A2993=
200701020200 METAR MROC 020200Z 09015KT 9999 FEW040 23/18 A2994=
200701020300 METAR MROC 020300Z 08010KT 9999 FEW030 SCT045 22/17 A2996 BECMG=
200701020400 METAR MROC 020400Z 10012KT 9999 FEW030 SCT100 21/16 A2997 BECMG=
200701020500 METAR MROC 020500Z 10012KT 9999 FEW030 21/16 A2997 BECMG=
200701020600 METAR MROC 020600Z 10017KT 9999 FEW030 21/15 A2995 BECMG=
200701020700 METAR MROC 020700Z 10016KT 9999 FEW030 21/15 A2994 BECMG=
200701020800 METAR MROC 020800Z 11015KT 9999 FEW030 20/15 A2992 RMK RFGS 20KT=
200701020900 METAR MROC 020900Z 11016KT 9999 FEW030 20/15 A2991 RMK RFGS 24KT=
200701021000 METAR MROC 021000Z 10016KT 9999 FEW030 21/16 A2991 RMK RFGS 23KT=
200701021100 METAR MROC 021100Z 10014KT CAVOK 20/15 A2991=
200701021200 METAR MROC 021200Z 10016KT CAVOK 21/15 A2992 RMK RAFAGAS 22KT=
200701021300 METAR MROC 021300Z 10016KT CAVOK 22/14 A2993 RMK RAFAGAS 22KT BECMG=
200701021400 METAR MROC 021400Z 10019KT CAVOK 24/14 A2995 RMK GUST 25KT BECMG=
200701021500 METAR MROC 021500Z 10016G26KT CAVOK 25/15 A2997 BECMG=
200701021600 METAR MROC 021600Z 10017KT CAVOK 26/15 A2997 RMK GUST 24KT BECMG=
200701021700 METAR MROC 021700Z 07016G26KT CAVOK 27/15 A2994 BECMG=
200701021800 METAR MROC 021800Z 07015KT CAVOK 28/15 A2993 RMK GUST 26KT BECMG=
200701021900 METAR MROC 021900Z 07018G28KT CAVOK 28/15 A2990 BECMG=
200701022000 METAR MROC 022000Z 06020KT CAVOK 28/16 A2988=
200701022100 METAR MROC 022100Z 05020G37KT 9999 FEW035 28/17 A2986 BECMG=
200701022200 METAR MROC 022200Z 07013G24KT 9999 FEW035 27/17 A2986 BECMG=
200701022300 METAR MROC 022300Z 08014G25KT 9999 FEW035 25/17 A2987 BECMG=
200701030000 METAR MROC 030000Z 07015KT 9999 SCT030 24/17 A2988=
200701030100 METAR MROC 030100Z 10011KT 9999 FEW030 23/17 A2990=
200701030200 METAR MROC 030200Z 09013KT 9999 FEW035 23/17 A2993=
200701030300 METAR MROC 030300Z 10013KT 9999 FEW035 BKN100 22/17 A2996 BECMG=
200701030400 METAR MROC 030400Z 09013KT 9999 FEW035 BKN100 22/17 A2996 BECMG=
200701030500 METAR MROC 030500Z 09015KT 9999 FEW035 BKN100 22/17 A2995 BECMG=
200701030600 METAR MROC 030600Z 10014KT CAVOK 22/17 A2993 BECMG=
200701030700 METAR MROC 030700Z 09016KT CAVOK 22/17 A2992 BECMG=
200701030800 METAR MROC 030800Z 08013KT CAVOK 22/17 A2992 BECMG=
200701030900 METAR MROC 030900Z 09012KT CAVOK 22/16 A2991 BECMG=
200701031000 METAR MROC 031000Z 09015KT CAVOK 22/16 A2992 BECMG=
200701031100 METAR MROC 031100Z 10017KT CAVOK 22/16 A2993 BECMG=
200701031200 METAR MROC 031200Z 08013KT CAVOK 21/16 A2994 BECMG=
200701031300 METAR MROC 031300Z 09014G27KT 9999 FEW030 22/16 A2997 BECMG=
200701031400 METAR MROC 031400Z 08016G30KT 9999 FEW025 24/16 A3000 BECMG=
200701031500 METAR MROC 031500Z 08016G31KT 9999 FEW025 26/15 A3000 BECMG=
200701031600 METAR MROC 031600Z 09017G31KT 9999 FEW030 26/16 A2999 BECMG=
200701031700 METAR MROC 031700Z 08020G38KT 9999 FEW030 26/16 A2997 BECMG=
200701031800 METAR MROC 031800Z 07020G37KT 9999 FEW030 27/15 A2995 BECMG=
200701031900 METAR MROC 031900Z 07018G32KT 9999 FEW025 27/14 A2993 BECMG=
200701032000 METAR MROC 032000Z 08015G28KT 9999 FEW025 27/15 A2991 BECMG RMK RN DST NE=
200701032100 METAR MROC 032100Z 07013KT 9999 FEW035 27/14 A2990=
200701032200 METAR MROC 032200Z 07016KT 9999 FEW035 28/16 A2991=
200701032300 METAR MROC 032300Z 09011KT 9999 FEW030 24/16 A2992=
200701040000 METAR MROC 040000Z 08004KT 9999 FEW030 22/16 A2993=
200701040100 METAR MROC 040100Z 09012KT 9999 FEW030 22/17 A2995 GUST 16KT BECMG=
200701040200 METAR MROC 040200Z 08014KT CAVOK 22/16 A2999 BECMG=
200701040300 METAR MROC 040300Z 10013KT CAVOK 21/17 A3000 BECMG=
200701040400 METAR MROC 040400Z 10015G25KT CAVOK 21/17 A3000 BECMG=
200701040500 METAR MROC 040500Z 10013KT CAVOK 21/16 A2998 BECMG=
200701040600 METAR MROC 040600Z 10011G21KT CAVOK 21/16 A2997 BECMG=
200701040700 METAR MROC 040700Z 10018KT CAVOK 21/16 A2994 RMK GUST 22KT=
200701040800 METAR MROC 040800Z 07008KT CAVOK 20/16 A2994 BECMG=
200701040900 METAR MROC 040900Z 10015KT CAVOK 21/17 A2992 BECMG=
200701041000 METAR MROC 041000Z 09011G21KT CAVOK 21/17 A2992 BECMG=
200701041100 METAR MROC 041100Z 10017KT CAVOK 21/17 A2991 BECMG=
200701041200 METAR MROC 041200Z 10018G28KT CAVOK 22/17 A2991 BECMG=
200701041300 METAR MROC 041300Z 10019KT 9999 FEW035 22/17 A2993=
200701041400 METAR MROC 041400Z 10016KT 9999 FEW035 23/17 A2995=
200701041500 METAR MROC 041500Z 10019KT 9999 FEW030 24/17 A2998=
200701041600 METAR MROC 041600Z 11017KT 9999 FEW030 25/18 A2997=
200701041700 METAR MROC 041700Z 09014KT 9999 SCT030 27/17 A2996=
200701041800 METAR MROC 041800Z 09014KT 9999 SCT030 27/17 A2994=
200701041900 METAR MROC 041900Z 10014KT 9999 SCT030 26/17 A2992=
200701042000 METAR MROC 042000Z 09010KT 9999 BKN030 26/17 A2990=
200701042100 METAR MROC 042100Z 12010KT 9999 BKN030 25/18 A2990 RMK DZ DIST N NE=
200701042200 METAR MROC 042200Z 09011KT 9999 BKN030 24/17 A2990 RMK PCPN DIST N NE BECMG=
200701042300 METAR MROC 042300Z 11005KT 9999 BKN030 23/17 A2992=
200701050000 METAR MROC 050000Z 10007KT 9999 SCT030 22/17 A2993 RMK PCPN DST N NE=
200701050100 METAR MROC 050100Z 10008KT 9999 SCT035 21/17 A2995 BECMG=
200701050200 METAR MROC 050200Z 09009KT 9999 FEW030 21/16 A2998 BECMG=
200701050300 METAR MROC 050300Z 06004KT 9999 FEW030 21/17 A2998 BECMG=
200701050400 METAR MROC 050400Z 04008KT 9999 FEW030 22/17 A2998 BECMG=
200701050500 METAR MROC 050500Z 07006KT 9999 FEW030 22/17 A2997 BECMG=
200701050600 METAR MROC 050600Z 04006KT CAVOK 20/17 A2995 BECMG=
200701050700 METAR MROC 050700Z 06004KT CAVOK 20/17 A2992 BECMG=
200701050800 METAR MROC 050800Z 07004KT CAVOK 20/17 A2991 BECMG=
200701050900 METAR MROC 050900Z 09005KT CAVOK 21/18 A2991 BECMG=
200701051000 METAR MROC 051000Z 06007KT CAVOK 20/17 A2992 BECMG=
200701051100 METAR MROC 051100Z 04005KT CAVOK 21/17 A2992 BECMG=
200701051200 METAR MROC 051200Z 05004KT 9999 FEW035 SCT100 20/18 A2992 BECMG=
200701051300 METAR MROC 051300Z 06006KT 9999 FEW035 BKN250 21/18 A2993 BECMG=
200701051400 METAR MROC 051400Z 07006KT 9999 FEW035 BKN250 25/19 A2997 RMK DZ DIST N NE=
200701051500 METAR MROC 051500Z 10012KT 9999 SCT035 25/19 A2996 RMK PCPN DST NE BECMG=
200701051600 METAR MROC 051600Z 11015KT 9999 SCT035 26/19 A2995 BECMG=
200701051700 METAR MROC 051700Z 11012KT 9999 FEW030 SCT045 26/19 A2993 RMK DZ DST N NE BECMG=
200701051800 METAR MROC 051800Z 10012KT 9999 FEW030 SCT040 27/19 A2992 RMK PCPN DST N NE BECMG=
200701051900 METAR MROC 051900Z 12012KT 9999 FEW030 SCT040 28/19 A2989 BECMG=
200701052000 METAR MROC 052000Z 12010KT 9999 FEW025 SCT035 28/19 A2986 BECMG 24008KT=
200701052100 METAR MROC 052100Z 12007KT 9999 SCT020 SCT280 27/19 A2985 RN DST SW BECMG=
200701052200 METAR MROC 052200Z 12010KT 9999 SCT025 SCT280 26/19 A2985 RN SW NE BECMG=
200701052300 METAR MROC 052300Z 10009KT 9999 SCT025 SCT280 24/18 A2988 BECMG=
200701060000 METAR MROC 060000Z 35005KT 9999 SCT025 SCT280 24/20 A2991 BECMG=
200701060100 METAR MROC 060100Z 09003KT 9999 FEW030 SCT280 22/18 A2993 BECMG=
200701060200 METAR MROC 060200Z 07005KT 9999 FEW030 SCT280 22/18 A2995 BECMG=
200701060300 METAR MROC 060300Z 08007KT 9999 FEW030 22/18 A2997=
200701060400 METAR MROC NIL=
200701060500 METAR MROC 060500Z 09006KT 9999 FEW035 21/18 A2996=
200701060600 METAR MROC 060600Z 10009KT CAVOK 22/18 A2994=
200701060700 METAR MROC 060700Z 08007KT CAVOK 21/18 A2992=
200701060800 METAR MROC 060800Z 08005KT CAVOK 21/18 A2990=
200701060900 METAR MROC 060900Z 02004KT CAVOK 21/18 A2988=
200701061000 METAR MROC 061000Z 05004KT CAVOK 21/18 A2989=
200701061100 METAR MROC 061100Z 10006KT CAVOK 21/18 A2991=
200701061200 METAR MROC 061200Z 08004KT 9999 FEW030 21/18 A2992=
200701061300 METAR MROC 061300Z 11011KT 9999 FEW035 22/18 A2994=
200701061400 METAR MROC 061400Z 09007KT 9999 FEW025 SCT300 26/18 A2996 BECMG=
200701061500 METAR MROC 061500Z 09013KT 9999 FEW030 SCT300 26/18 A2996 BECMG=
200701061600 METAR MROC 061600Z 09013KT 9999 FEW030 SCT300 27/18 A2996 DZ N NE BECMG=
200701061700 METAR MROC 061700Z 10015G25KT 9999 FEW040 SCT300 28/18 A2993 BECMG=
200701061800 METAR MROC 061800Z 10013KT 9999 SCT040 BKN280 28/18 A2991 DZ N NE BECMG=
200701061900 METAR MROC 061900Z 09014KT 9999 SCT030 BKN280 27/18 A2988 GTS22KT BECMG=
200701062000 METAR MROC 062000Z 09013KT 9999 FEW035 BKN280 27/18 A2987 BECMG=
200701062100 METAR MROC 062100Z 09012KT 9999 FEW035 BKN250 27/17 A2986 BECMG=
200701062200 METAR MROC 062200Z 09011KT 9999 FEW040 BKN280 26/17 A2987 BECMG=
200701062300 METAR MROC 062300Z 09016KT 9999 FEW035 SCT120 BKN250 25/18 A2988 BECMG=
200701070000 METAR MROC 070000Z 10014KT 9999 FEW035 SCT250 23/18 A2990 BECMG=
200701070100 METAR MROC 070100Z 11007KT 9999 FEW035 23/18 A2992 BECMG=
200701070200 METAR MROC 070200Z 10013KT CAVOK 22/17 A2994 BECMG=
200701070300 METAR MROC 070300Z 11009KT CAVOK 22/17 A2994 BECMG=
200701070400 METAR MROC 070400Z 09011KT CAVOK 21/17 A2994 BECMG=
200701070500 METAR MROC 070500Z 09011KT CAVOK 21/17 A2994 RMK RFGS 17KT BECMG=
200701070600 METAR MROC 070600Z 08013KT CAVOK 21/16 A2992 BECMG=
200701070700 METAR MROC 070700Z 09012KT CAVOK 21/16 A2990 BECMG=
200701070800 METAR MROC 070800Z 09015KT CAVOK 21/16 A2989=
200701070900 METAR MROC 070900Z 09017KT CAVOK 21/15 A2990=
200701071000 METAR MROC 071000Z 10016KT CAVOK 20/15 A2991=
200701071100 METAR MROC 071100Z 09015KT CAVOK 20/15 A2992=
200701071200 METAR MROC 071200Z 10011KT CAVOK 20/14 A2994=
200701071300 METAR MROC 071300Z 09014G24KT CAVOK 22/13 A2996 BECMG=
200701071400 METAR MROC 071400Z 09018KT CAVOK 24/13 A2999 BECMG=
200701071500 METAR MROC 071500Z 09012G22KT CAVOK 26/13 A2997 BECMG=
200701071600 METAR MROC 071600Z 09014G24KT CAVOK 26/15 A2996 BECMG=
200701071700 METAR MROC 071700Z 08018KT CAVOK 26/16 A2995 BECMG=
200701071800 METAR MROC 071800Z 08017KT CAVOK 27/15 A2992 BECMG=
200701071900 METAR MROC 071900Z 06019KT 9999 FEW045 27/15 A2991 RMK GUST 22KT BECMG=
200701072000 METAR MROC 072000Z 06014G25KT 9999 FEW040 27/14 A2989 BECMG=
200701072100 METAR MROC 072100Z 06014G26KT 9999 FEW040 27/14 A2988 BECMG=
200701072200 METAR MROC 072200Z 06020G37KT 9999 FEW040 26/13 A2988 BECMG=
200701072300 METAR MROC 072300Z 06018G34KT 9999 FEW040 24/13 A2989 BECMG=
200701080000 METAR MROC 080000Z 05015G28KT 9999 FEW040 23/13 A2990 BECMG=
200701080100 METAR MROC 080100Z 06013KT 9999 FEW040 22/14 A2993=
200701080200 METAR MROC 080200Z 07010G20KT CAVOK 22/14 A2995=
200701080300 METAR MROC 080300Z 07014KT CAVOK 21/14 A2996 BECMG=
200701080400 METAR MROC 080400Z 09013KT CAVOK 21/14 A2997 BECMG=
200701080500 METAR MROC 080500Z 09012G22KT CAVOK 21/13 A2996=
200701080600 METAR MROC 080600Z 08014KT CAVOK 21/13 A2994 BECMG=
200701080700 METAR MROC 080700Z 08012KT CAVOK 21/13 A2994 BECMG=
200701080800 METAR MROC 080800Z 10010KT CAVOK 19/14 A2993 BECMG=
200701080900 METAR MROC 080900Z 09008KT CAVOK 19/13 A2993 BECMG=
200701081000 METAR MROC 081000Z 10006KT CAVOK 20/14 A2994 BECMG=
200701081100 METAR MROC 081100Z 10010KT CAVOK 20/14 A2995 BECMG=
200701081200 METAR MROC 081200Z 10010KT CAVOK 19/14 A2996 BECMG=
200701081300 METAR MROC 081300Z 11012G22KT CAVOK 21/14 A2998 BECMG=
200701081400 METAR MROC 081400Z 08013KT CAVOK 23/15 A3000 BECMG=
200701081500 METAR MROC 081500Z 09013G24KT CAVOK 25/15 A3000 BECMG=
200701081600 METAR MROC 081600Z 08016G30KT CAVOK 26/24 A3000 BECMG=
200701081700 METAR MROC 081700Z 10015G28KT CAVOK 27/13 A2998 BECMG=
200701081800 METAR MROC 081800Z 07015G28KT CAVOK 28/11 A2996 BECMG=
200701081900 METAR MROC 081900Z 09016G29KT CAVOK 28/12 A2993 BECMG=
200701082000 METAR MROC 082000Z 07016G29KT 9999 FEW045 27/14 A2991 BECMG=
200701082100 METAR MROC 082100Z 07015KT 9999 FEW045 27/15 A2990=
200701082200 METAR MROC 082200Z 07017KT 9999 FEW045 26/15 A2990=
200701082300 METAR MROC 082300Z 07019KT 9999 FEW040 24/16 A2992=
200701090000 METAR MROC 090000Z 05020KT 9999 FEW040 23/16 A2994=
200701090100 METAR MROC 090100Z 09014KT 9999 FEW040 22/16 A2995=
200701090200 METAR MROC 090200Z 08014KT CAVOK 22/15 A2997=
200701090300 METAR MROC 090300Z 09015KT CAVOK 22/15 A3000 BECMG=
200701090400 METAR MROC 090400Z 08016KT CAVOK 21/14 A3001 BECMG=
200701090500 METAR MROC 090500Z 09013KT CAVOK 21/15 A3000 RMK GUST 21KT BECMG=
200701090600 METAR MROC 090600Z 10013G23KT CAVOK 20/15 A2998 BECMG=
200701090700 METAR MROC 090700Z 10015KT CAVOK 20/14 A2996 BECMG=
200701090800 METAR MROC 090800Z 10014KT CAVOK 20/14 A2994 RMK GUST 22KT BECMG=
200701090900 METAR MROC 090900Z 10012G22KT CAVOK 20/14 A2994 BECMG=
200701091000 METAR MROC 091000Z 09015KT CAVOK 21/14 A2995 BECMG=
200701091100 METAR MROC 091100Z 09014KT CAVOK 20/14 A2995 BECMG=
200701091200 METAR MROC 091200Z 10018KT CAVOK 20/14 A2996 BECMG=
200701091300 METAR MROC 091300Z 10014KT 9999 FEW040 21/15 A2999=
200701091400 METAR MROC 091400Z 10020KT 9999 FEW040 22/16 A3000=
200701091500 METAR MROC 091500Z 10020KT CAVOK 25/15 A3001=
200701091600 METAR MROC 091600Z 10021KT CAVOK 26/14 A3000=
200701091700 METAR MROC 091700Z 09018KT 9999 FEW040 26/15 A2999=
200701091800 METAR MROC 091800Z 07024KT 9999 FEW040 26/15 A2996=
200701091900 METAR MROC 091900Z 09016KT 9999 FEW040 26/15 A2994=
200701092000 METAR MROC 092000Z 07017KT 9999 FEW040 26/15 A2992=
200701092100 METAR MROC 092100Z 08016KT 9999 FEW035 26/16 A2991 RMK PCPN DIST NE BECMG=
200701092200 METAR MROC 092200Z 07014KT 9999 FEW035 24/14 A2992 BECMG=
200701092300 METAR MROC 092300Z 08014KT 9999 FEW035 23/13 A2993 BECMG=
200701100000 METAR MROC 100000Z 10016G26KT 9999 FEW035 21/13 A2995 BECMG=
200701100100 METAR MROC 100100Z 10019KT 9999 FEW035 21/14 A2999=
200701100200 METAR MROC 100200Z 09016KT CAVOK 21/13 A3000=
200701100300 METAR MROC 100300Z 10017KT CAVOK 20/14 A3001 BECMG=
200701100400 METAR MROC 100400Z 09017G30KT CAVOK 20/14 A3000 BECMG=
200701100500 METAR MROC 100500Z 10018G33KT CAVOK 20/15 A2998 BECMG=
200701100600 METAR MROC 100600Z 10019G36KT CAVOK 20/15 A2997 BECMG=
200701100700 METAR MROC NIL=
200701100800 METAR MROC 100800Z 10020G37KT CAVOK 20/15 A2993 BECMG=
200701100900 METAR MROC 100900Z 10018G32KT CAVOK 20/14 A2991 BECMG=
200701101000 METAR MROC 101000Z 10018G34KT CAVOK 21/14 A2991 BECMG=
200701101100 METAR MROC 101100Z 09010G30KT CAVOK 20/14 A2992 BECMG=
200701101200 METAR MROC 101200Z 10017KT 9999 FEW040 SCT300 21/13 A2993 BECMG=
200701101300 METAR MROC 101300Z 09017KT CAVOK 21/14 A2996 BECMG=
200701101400 METAR MROC 101400Z 09015KT CAVOK 23/15 A2999 RMK RFGS 23KT BECMG=
200701101500 METAR MROC 101500Z 09018KT CAVOK 25/15 A2998 BECMG=
200701101600 METAR MROC 101600Z 09016G26KT CAVOK 26/15 A2997 BECMG=
200701101700 METAR MROC 101700Z 09017G27KT CAVOK 27/15 A2996 BECMG=
200701101800 METAR MROC 101800Z 09018G28KT 9999 FEW045 27/15 A2992 BECMG=
200701101900 METAR MROC 101900Z 08021G31KT 9999 FEW040 27/16 A2990 BECMG=
200701102000 METAR MROC 102000Z 08016KT 9999 FEW035 27/16 A2989 BECMG=
200701102100 METAR MROC 102100Z 07015KT 9999 FEW035 26/16 A2988 RMK RAFAGAS DE 24KT BECMG=
200701102200 METAR MROC 102200Z 07015KT 9999 FEW035 25/15 A2989 RMK RAFAGAS DE 24KT BECMG=
200701102300 METAR MROC 102300Z 07017KT 9999 FEW035 23/15 A2991 RMK RAFAGAS DE 24KT BECMG=
200701110000 METAR MROC 110000Z 07016KT 9999 FEW035 22/14 A2993 RMK RAFAGAS 25KT BECMG=
200701110100 METAR MROC 110100Z 07015KT 9999 FEW030 22/14 A2993 RMK RAFAGAS DE 21KT BECMG=
200701110200 METAR MROC 110200Z 08016KT CAVOK 21/15 A2997 RMK RAFAGAS 22KT=
200701110300 METAR MROC 110300Z 09015KT CAVOK 21/14 A2998=
200701110400 METAR MROC 110400Z 09015G25KT CAVOK 21/13 A2998=
200701110500 METAR MROC 110500Z 09017KT CAVOK 21/15 A2998=
200701110600 METAR MROC 110600Z 09015KT CAVOK 21/15 A2996=
200701110700 METAR MROC 110700Z 09020KT CAVOK 20/13 A2993=
200701110800 METAR MROC 110800Z 09020KT CAVOK 20/13 A2993=
200701110900 METAR MROC 110900Z 09015G25KT CAVOK 20/15 A2992=
200701111000 METAR MROC 111000Z 09013KT CAVOK 20/14 A2992=
200701111100 METAR MROC 111100Z 09016KT CAVOK 20/14 A2994=
200701111200 METAR MROC 111200Z 09013KT CAVOK 20/14 A2995=
200701111300 METAR MROC 111300Z 09016KT CAVOK 21/14 A2998 RMK RAFAGAS DE 24KT BECMG=
200701111400 METAR MROC 111400Z 10017KT CAVOK 23/15 A3001 RMK RAFAGAS 23KT BECMG=
200701111500 METAR MROC 111500Z 10016KT CAVOK 24/15 A3001 RMK RAFAGAS DE 25KT BECMG=
200701111600 METAR MROC 111600Z 09017KT CAVOK 25/15 A3001 RMK RAFAGAS DE 26KT BECMG 9999 FEW035=
200701111700 METAR MROC 111700Z 09018KT 9999 FEW035 26/15 A3000 RMK RAFAGAS DE 26KT BECMG=
200701111800 METAR MROC 111800Z 09017KT 9999 FEW035 26/14 A2999 RMK RAFAGAS DE 23KT BECMG=
200701111900 METAR MROC 111900Z 08015KT 9999 FEW035 26/13 A2997 RMK RAFAGAS DE 21KT BECMG=
200701112000 METAR MROC 112000Z 08015KT 9999 FEW035 26/11 A2994 RMK RAFAGAS DE 23KT BECMG=
200701112100 METAR MROC 112100Z 10013G23KT 9999 FEW035 26/14 A2993 BECMG=
200701112200 METAR MROC 112200Z 08018KT 9999 FEW040 25/11 A2992 BECMG=
200701112300 METAR MROC 112300Z 09017KT 9999 FEW040 23/14 A2993 BECMG=
200701120000 METAR MROC 120000Z 10018KT 9999 FEW035 21/16 A2994 BECMG=
200701120100 METAR MROC 120100Z 10013KT CAVOK 21/15 A2996 BECMG=
200701120200 METAR MROC 120200Z 10018KT CAVOK 20/15 A2998 BECMG=
200701120300 METAR MROC 120300Z 10017KT CAVOK 20/14 A2999 RMK RFGS 24KT BECMG=
200701120400 METAR MROC 120400Z 10017KT CAVOK 20/14 A2999 BECMG=
200701120500 METAR MROC 120500Z 09017G27KT CAVOK 20/13 A2997 BECMG=
200701120600 METAR MROC 120600Z 09014KT CAVOK 21/12 A2994 BECMG=
200701120700 METAR MROC 120700Z 09017KT CAVOK 20/13 A2991 RMK RFGS 24KT BECMG=
200701120800 METAR MROC 120800Z 09014KT CAVOK 20/14 A2991=
200701120900 METAR MROC 120900Z 10018KT CAVOK 20/14 A2990 RMK RFGS 24KT=
200701121000 METAR MROC 121000Z 10016KT CAVOK 20/14 A2991=
200701121100 METAR MROC 121100Z 10014KT CAVOK 20/14 A2991 RMK RFGS 21KT=
200701121200 METAR MROC 121200Z 09014KT CAVOK 20/15 A2992 BECMG=
200701121300 METAR MROC 121300Z 08018KT CAVOK 22/15 A2995 BECMG=
200701121400 METAR MROC 121400Z 09013G23KT CAVOK 24/16 A2998 BECMG=
200701121500 METAR MROC 121500Z 09013G23KT CAVOK 26/16 A2999 BECMG=
200701121600 METAR MROC 121600Z 09018KT 9999 FEW035 SCT120 27/16 A2999 BECMG=
200701121700 METAR MROC 121700Z 07015G25KT 9999 SCT035 27/17 A2998 RMK DZ DST NE BECMG=
200701121800 METAR MROC 121800Z 04018G29KT 9999 SCT030 28/18 A2996 RMK RN DST NE=
200701121900 METAR MROC 121900Z 06020G31KT 9999 SCT035 27/15 A2994 RMK DZ DST NE=
200701122000 METAR MROC 122000Z 05024G34KT 9999 FEW045 27/15 A2990 BECMG=
200701122100 METAR MROC 122100Z 06019G35KT 9999 FEW040 27/15 A2989 BECMG RMK RN N NE=
200701122200 METAR MROC 122200Z 07015G28KT 9999 FEW035 25/15 A2989 BECMG RMK RN N NE=
200701122300 METAR MROC 122300Z 06020G37KT 9999 FEW035 24/15 A2990 BECMG RMK RN N NE=
200701130000 METAR MROC 130000Z 08013G25KT 9999 FEW030 23/14 A2990 BECMG=
200701130100 METAR MROC 130100Z 07016G30KT 9999 FEW030 22/14 A2993 BECMG=
200701130200 METAR MROC 130200Z 08015G28KT CAVOK 22/15 A2995 BECMG=
200701130300 METAR MROC 130300Z 07016KT CAVOK 22/15 A2996 BECMG=
200701130400 METAR MROC 130400Z 08017G28KT CAVOK 22/15 A2995 BECMG=
200701130500 METAR MROC 130500Z 08017KT CAVOK 21/16 A2995 RMK RAFAGAS 25KT BECMG=
200701130600 METAR MROC 130600Z 07017KT 9999 FEW030 21/16 A2993 RMK RAFAGAS DE 24KT BECMG=
200701130700 METAR MROC 130700Z 08017KT 9999 FEW030 22/16 A2990 RMK RAFAGAS DE 26KT BECMG=
200701130800 METAR MROC 130800Z 08016KT CAVOK 22/15 A2988 RMK RAFAGAS DE 24KT BECMG=
200701130900 METAR MROC 130900Z 08015KT CAVOK 22/15 A2987 RMK RAFAGAS DE 24KT BECMG=
200701131000 METAR MROC 131000Z 08014KT CAVOK 22/15 A2988 RMK RAFAGAS DE 22KT BECMG=
200701131100 METAR MROC 131100Z 10014KT CAVOK 21/15 A2989 RMK RAFAGAS DE 21KT BECMG=
200701131200 METAR MROC 131200Z 08013KT CAVOK 21/16 A2990 BECMG=
200701131300 METAR MROC 131300Z 10011KT 9999 SCT035 23/15 A2993=
200701131400 METAR MROC 131400Z 06015G27KT 9999 FEW035 SCT100 25/15 A2996 BECMG RMK RN N NE=
200701131500 METAR MROC 131500Z 07017G32KT 9999 FEW030 SCT100 25/16 A2995 BECMG=
200701131600 METAR MROC 131600Z 08019G34KT 9999 FEW030 SCT100 26/15 A2996 BECMG RMK RN N NE=
200701131700 METAR MROC 131700Z 08016G31KT 9999 FEW030 SCT100 27/16 A2995 BECMG RMK RN N NE=
200701131800 METAR MROC 131800Z 06023G43KT 9999 FEW030 SCT100 28/15 A2993 BECMG RMK RN N NE=
200701131900 METAR MROC 131900Z 07016G30KT 9999 FEW030 28/15 A2989 BECMG RMK RN N NE=
200701132000 METAR MROC 132000Z 07016G30KT 9999 FEW030 28/15 A2987 BECMG RMK RN N NE=
200701132100 METAR MROC 132100Z 06018KT 9999 FEW030 27/24 A2984=
200701132200 METAR MROC 132200Z 07012KT 9999 FEW030 27/14 A2986=
200701132300 METAR MROC 132300Z 07012KT 9999 FEW030 25/16 A2988=
200701140000 METAR MROC 140000Z 09008KT 9999 FEW030 23/15 A2990=
200701140100 METAR MROC 140100Z 07011KT 9999 FEW035 23/16 A2992=
200701140200 METAR MROC 140200Z 10016KT CAVOK 22/16 A2994=
200701140300 METAR MROC 140300Z 09012G22KT CAVOK 22/16 A2995 BECMG=
200701140400 METAR MROC 140400Z 07010G20KT CAVOK 22/15 A2995 BECMG=
200701140500 METAR MROC 140500Z 09018KT CAVOK 23/15 A2995 BECMG=
200701140600 METAR MROC 140600Z 10014KT CAVOK 21/15 A2994 BECMG=
200701140700 METAR MROC 140700Z 09016KT CAVOK 22/16 A2990 BECMG=
200701140800 METAR MROC NIL=
200701140900 METAR MROC 140900Z 08013KT CAVOK 21/15 A2989 BECMG=
200701141000 METAR MROC 141000Z 10014G24KT CAVOK 21/16 A2990 BECMG=
200701141100 METAR MROC 141100Z 08012KT CAVOK 21/15 A2991 BECMG=
200701141200 METAR MROC 141200Z 09015KT CAVOK 21/15 A2991 BECMG=
200701141300 METAR MROC 141300Z 09016KT CAVOK 23/15 A2992=
200701141400 METAR MROC 141400Z 09017KT 9999 FEW040 24/15 A2995=
200701141500 METAR MROC 141500Z 09018KT 9999 FEW040 26/15 A2995=
200701141600 METAR MROC 141600Z 08018KT 9999 FEW040 27/15 A2994=
200701141700 METAR MROC 141700Z 09023KT 9999 FEW035 27/15 A2992=
200701141800 METAR MROC 141800Z 08018KT 9999 FEW035 28/15 A2990=
200701141900 METAR MROC 141900Z 09015KT 9999 FEW035 27/16 A2989=
200701142000 METAR MROC 142000Z 06023KT 9999 FEW035 27/16 A2986=
200701142100 METAR MROC 142100Z 07017G29KT 9999 FEW035 27/15 A2984 BECMG=
200701142200 METAR MROC 142200Z 08018G28KT 9999 FEW035 26/16 A2985 BECMG=
200701142300 METAR MROC 142300Z 08018KT 9999 FEW035 24/15 A2986 BECMG=
200701150000 METAR MROC 150000Z 10016G26KT 9999 FEW030 22/15 A2987 BECMG=
200701150100 METAR MROC 150100Z 08017KT CAVOK 26/18 A2988=
200701150200 METAR MROC 150200Z 10019KT 9999 FEW030 22/16 A2991=
200701150300 METAR MROC 150300Z 09017G31KT 9999 FEW030 22/16 A2992 BECMG=
200701150400 METAR MROC 150400Z 09016G30KT CAVOK 22/16 A2992 BECMG=
200701150500 METAR MROC 150500Z 09017G30KT CAVOK 22/16 A2992 BECMG=
200701150600 METAR MROC 150600Z 09017G31KT CAVOK 22/16 A2992 BECMG=
200701150700 METAR MROC NIL=
200701150800 METAR MROC 150800Z 10014G25KT CAVOK 21/16 A2989 BECMG=
200701150900 METAR MROC 150900Z 09017G31KT CAVOK 21/16 A2987 BECMG=
200701151000 METAR MROC NIL=
200701151100 METAR MROC 151100Z 09014G25KT CAVOK 21/15 A2987 BECMG=
200701151200 METAR MROC 151200Z 09014KT 9999 FEW035 21/15 A2988 BECMG=
200701151300 METAR MROC 151300Z 08014KT 9999 FEW035 22/16 A2991 BECMG=
200701151400 METAR MROC 151400Z 09015KT 9999 FEW035 24/17 A2993 BECMG=
200701151500 METAR MROC 151500Z 09017KT 9999 FEW035 25/17 A2995 RMK DZ DIST NE BECMG=
200701151600 METAR MROC 151600Z 09019KT 9999 FEW035 26/16 A2995 RMK RFGS 26KT BECMG=
200701151700 METAR MROC 151700Z 08019KT 9999 FEW035 27/15 A2994 RMK RFGS 26KT BECMG=
200701151800 METAR MROC 151800Z 07020G30KT 9999 FEW035 27/15 A2995 BECMG=
200701151900 METAR MROC 151900Z 07019KT 9999 FEW035 SCT220 28/17 A2990 BECMG=
200701152000 METAR MROC 152000Z 09017G28KT 9999 FEW035 SCT180 27/17 A2987 RMK PCPN=
200701152100 METAR MROC 152100Z 07017KT 9999 FEW035 SCT180 26/15 A2985 RMK DZ DST NE RAFAGAS DE 25KT BECMG=
200701152200 METAR MROC 152200Z 08014KT 9999 FEW035 SCT150 26/15 A2985 RMK DZ DST NE RAFAGAS DE 22KT BECMG=
200701152300 METAR MROC 152300Z 08017KT 9999 FEW035 SCT150 24/15 A2986 RMK DZ DST=
200701160000 METAR MROC 160000Z 09015KT 9999 FEW035 SCT150 23/16 A2988 RMK DZ DST=
200701160100 METAR MROC 160100Z 09015KT 9999 FEW035 SCT150 22/16 A2988 RMK DZ DST=
200701160200 METAR MROC 160200Z 09020KT 9999 FEW035 SCT130 22/16 A2989 RMK DZ DST=
200701160300 METAR MROC 160300Z 09016KT CAVOK 22/16 A2992=
200701160400 METAR MROC 160400Z 09013KT CAVOK 22/17 A2991 BECMG=
200701160500 METAR MROC 160500Z 09014KT CAVOK 22/16 A2991 BECMG=
200701160600 METAR MROC 160600Z 09016KT CAVOK 21/16 A2989 BECMG=
200701160700 METAR MROC 160700Z 10015KT CAVOK 22/16 A2989 BECMG=
200701160800 METAR MROC 160800Z 09014KT CAVOK 22/17 A2988 BECMG=
200701160900 METAR MROC 160900Z 10014KT CAVOK 22/15 A2988 BECMG=
200701161000 METAR MROC 161000Z 10015KT CAVOK 21/15 A2989 BECMG=
200701161100 METAR MROC 161100Z 10015KT CAVOK 21/15 A2989 BECMG=
200701161200 METAR MROC 161200Z 09015KT CAVOK 21/15 A2990 BECMG=
200701161300 METAR MROC 161300Z 09019G29KT CAVOK 22/15 A2991 RMK DZ DST NE/E BECMG=
200701161400 METAR MROC 161400Z 10019KT CAVOK 24/16 A2994 RMK DZ DST NE/E RAFAGAS DE 25KT BECMG=
200701161500 METAR MROC 161500Z 08018KT 9999 FEW035 25/15 A2997 RMK DZ DST NE/E RAFAGAS DE 26KT BECMG=
200701161600 METAR MROC 161600Z 08016KT 9999 FEW035 26/16 A2997 RMK DZ DST NE RAFAGAS DE 22KT BECMG=
200701161700 METAR MROC 161700Z 09019KT 9999 FEW035 27/17 A2995 RKM DZ DST NE RAFAGAS DE 26KT BECMG=
200701161800 METAR MROC 161800Z 08017KT 9999 FEW035 26/16 A2993 RMK DZ DST NE RAFAGAS DE 24KT BECMG=
200701161900 METAR MROC 161900Z 09021G32KT 9999 FEW035 26/15 A2990 RMK DZ DST NE BECMG=
200701162000 METAR MROC 162000Z 08018KT 9999 FEW035 27/16 A2989 RMK DZ DST NE RAFAGAS DE 23KT BECMG=
200701162100 METAR MROC 162100Z 10018KT 9999 FEW035 26/16 A2987 RMK GUST 23KT BECMG=
200701162200 METAR MROC 162200Z 07017KT 9999 FEW040 26/14 A2998 RMK GUST 21KT BECMG=
200701162300 METAR MROC 162300Z 09016KT 9999 FEW035 24/15 A2989 BECMG=
200701170000 METAR MROC 170000Z 08019G29KT 9999 FEW035 22/15 A2990 BECMG=
200701170100 METAR MROC 170100Z 08018G28KT 9999 FEW035 22/15 A2991 BECMG CAVOK=
200701170200 METAR MROC 170200Z 10016KT CAVOK 21/16 A2994=
200701170300 METAR MROC 170300Z 10020G30KT CAVOK 21/15 A2996 BECMG=
200701170400 METAR MROC 170400Z 10016KT CAVOK 21/16 A2996 BECMG=
200701170500 METAR MROC 170500Z 09016KT CAVOK 21/15 A2997 BECMG=
200701170600 METAR MROC 170600Z 10017G27KT CAVOK 21/15 A2995 BECMG=
200701170700 METAR MROC 170700Z 09016KT CAVOK 21/15 A2993 BECMG=
200701170800 METAR MROC 170800Z 10018KT CAVOK 20/16 A2992 RMK RFGS 24KT=
200701170900 METAR MROC 170900Z 09018KT CAVOK 20/15 A2991 RMK RFGS 25KT=
200701171000 METAR MROC 171000Z 10018KT 9999 FEW030 21/15 A2992=
200701171100 METAR MROC 171100Z 09016KT 9999 FEW030 21/15 A2992=
200701171200 METAR MROC 171200Z 10020G30KT 9999 FEW030 21/15 A2993 RMK DZ DIST N NE=
200701171300 METAR MROC 171300Z 10015G25KT 9999 FEW035 21/16 A2995 RMK DZ DST NE E BECMG=
200701171400 METAR MROC 171400Z 08017G27KT 9999 FEW035 24/15 A2997 BECMG=
200701171500 METAR MROC 171500Z 09014G24KT CAVOK 25/15 A2999 BECMG=
200701171600 METAR MROC 171600Z 10020KT 9999 FEW035 26/16 A2998 BECMG=
200701171700 METAR MROC 171700Z 09018G28KT 9999 FEW035 27/15 A2997 BECMG=
200701171800 METAR MROC 171800Z 09018G29KT 9999 FEW035 SCT250 27/15 A2997 BECMG=
200701171900 METAR MROC 171900Z 08021KT 9999 SCT035 SCT250 27/16 A2993=
200701172000 METAR MROC 172000Z 09017G27KT 9999 FEW035 SCT250 25/16 A2992 BECMG=
200701172100 METAR MROC 172100Z 09021G39KT 9999 SCT030 BKN250 25/15 A2992 BECMG=
200701172200 METAR MROC 172200Z 08013G25KT 9999 FEW030 BKN250 25/15 A2993 BECMG RMK DZ NE=
200701172300 METAR MROC 172300Z 08016G29KT 9999 FEW030 SCT140 SCT250 23/14 A2992 BECMG RMK DZ NE=
200701180000 METAR MROC 180000Z 10012G23KT 9999 FEW030 SCT140 22/14 A2995 BECMG=
200701180100 METAR MROC 180100Z 10014G25KT 9999 FEW030 SCT140 21/15 A2996 BECMG=
200701180200 METAR MROC 180200Z 10015G27KT 9999 FEW030 SCT140 21/15 A2998 BECMG=
200701180300 METAR MROC 180300Z 10019KT 9999 FEW030 SCT140 21/16 A2999 RMK DZ DST NE RAFAGAS DE 27KT BECMG=
200701180400 METAR MROC 180400Z 10017KT 9999 FEW030 SCT140 22/17 A3001 RMK DZ DST=
200701180500 METAR MROC 180500Z 10014KT 9999 FEW030 SCT120 21/17 A3001 RMK DZ DST=
200701180600 METAR MROC 180600Z 10017KT 9999 FEW030 BKN120 21/17 A2999 RMK DZ DST=
200701180700 METAR MROC 180700Z 10016G26KT 9999 FEW030 BKN120 20/16 A2997 RMK DZ DST NE/E BECMG=
200701180800 METAR MROC 180800Z 10018KT 9999 FEW025 SCT120 20/16 A2995 RMK DZ DST=
200701180900 METAR MROC 180900Z 10017KT 9999 FEW025 SCT120 20/16 A2993 RMK DZ DST=
200701181000 METAR MROC 181000Z 09010KT 9999 FEW025 20/15 A2993 RMK DZ DST NE BECMG CAVOK=
200701181100 METAR MROC 181100Z 09016KT CAVOK 21/15 A2995 RMK DZ DST NE RAFAGAS DE 22KT BECMG=
200701181200 METAR MROC 181200Z 10016KT 9999 FEW030 20/14 A2995 RMK DZ DST NE/E RAFAGAS DE 24KT BECMG=
200701181300 METAR MROC 181300Z 10021KT 9999 FEW030 21/14 A2998 RMK RN DST N/NE=
200701181400 METAR MROC 181400Z 11023G43KT 9999 FEW030 22/15 A3000 BECMG RMK RN N NE=
200701181500 METAR MROC 181500Z 08017G31KT 9999 FEW025 24/14 A3003 BECMG RMK RN N NE=
200701181600 METAR MROC 181600Z 10023G42KT 9999 FEW025 23/15 A3003 BECMG RMK RN N NE=
200701181700 METAR MROC 181700Z 09021G38KT 9999 FEW030 24/14 A3002 BECMG RMK RN N NE=
200701181800 METAR MROC 181800Z 09020G37KT 9999 SCT030 25/13 A3001 BECMG RMK RN N NE=
200701181900 METAR MROC 181900Z 09019G36KT 9999 SCT030 25/14 A2999 BECMG RMK RN N NE=
200701182000 METAR MROC 182000Z 09017G31KT 9999 SCT030 25/15 A2996 BECMG RMK RN N NE=
200701182100 METAR MROC 182100Z 10022KT 9999 SCT030 24/15 A2993=
200701182200 METAR MROC NIL=
200701182300 METAR MROC 182300Z 09017KT 9999 FEW035 22/14 A2993=
200701190000 METAR MROC 190000Z 09012KT 9999 FEW035 20/14 A2994=
200701190100 METAR MROC 190100Z 09017KT CAVOK 20/12 A2997=
200701190200 METAR MROC 190200Z 09015KT CAVOK 20/11 A2999=
200701190300 METAR MROC 190300Z 09016G26KT CAVOK 19/13 A3001 BECMG=
200701190400 METAR MROC 190400Z 10019KT CAVOK 19/14 A3003 RMK GUST 26KT BECMG=
200701190500 METAR MROC 190500Z 10018KT CAVOK 19/14 A3002 BECMG=
200701190600 METAR MROC 190600Z 10014G24KT CAVOK 19/13 A3000 BECMG=
200701190700 METAR MROC 190700Z 10012G22KT CAVOK 19/14 A3000 BECMG=
200701190800 METAR MROC 190800Z 11017KT CAVOK 19/13 A2997 BECMG=
200701190900 METAR MROC 190900Z 11021KT CAVOK 19/14 A2995 BECMG=
200701191000 METAR MROC 191000Z 10020KT CAVOK 19/14 A2995 BECMG=
200701191100 METAR MROC 191100Z 10016KT CAVOK 19/14 A2998 BECMG=
200701191200 METAR MROC 191200Z 10014G24KT 9999 FEW035 19/14 A2998 BECMG=
200701191300 METAR MROC 191300Z 10018KT 9999 FEW035 20/14 A3002=
200701191400 METAR MROC 191400Z 10015KT 9999 FEW035 22/15 A3004=
200701191500 METAR MROC 191500Z 09015KT 9999 FEW035 23/15 A3006=
200701191600 METAR MROC 191600Z 09015KT 9999 FEW035 25/15 A3006=
200701191700 METAR MROC 191700Z 06017KT 9999 SCT030 25/14 A3005=
200701191800 METAR MROC 191800Z 05016KT 9999 SCT030 26/13 A3002=
200701191900 METAR MROC 191900Z 07019KT 9999 FEW030 26/14 A3000=
200701192000 METAR MROC 192000Z 06019KT 9999 FEW030 SCT260 27/13 A2995=
200701192100 METAR MROC 192100Z 08014KT 9999 FEW035 SCT300 26/13 A2994 RMK RFGS 22KT BECMG=
200701192200 METAR MROC 192200Z 07015KT 9999 FEW035 25/13 A2994 RFGS 22KT BECMG=
200701192300 METAR MROC 192300Z 08014KT 9999 FEW035 24/14 A2996 RMK RFGS 22KT BECMG=
200701200000 METAR MROC 200000Z 09013KT 9999 FEW035 22/14 A2996 BECMG=
200701200100 METAR MROC 200100Z 10012G22KT CAVOK 21/15 A2998=
200701200200 METAR MROC 200200Z 10014KT CAVOK 21/15 A2999=
200701200300 METAR MROC 200300Z 10016G31KT CAVOK 20/15 A3000 BECMG=
200701200400 METAR MROC 200400Z 10014G26KT CAVOK 20/15 A2999 BECMG=
200701200500 METAR MROC 200500Z 08015G27KT CAVOK 20/16 A2999 BECMG=
200701200600 METAR MROC 200600Z 09012G22KT CAVOK 20/16 A2999 BECMG=
200701200700 METAR MROC NIL=
200701200800 METAR MROC 200800Z 10015G27KT CAVOK 20/15 A2996 BECMG=
200701200900 METAR MROC 200900Z 09012G25KT CAVOK 18/17 A2994 BECMG=
200701201000 METAR MROC 201000Z 09012G22KT CAVOK 20/14 A2994 BECMG=
200701201100 METAR MROC 201100Z 10014G26KT CAVOK 19/15 A2997 BECMG=
200701201200 METAR MROC 201200Z 10013G25KT CAVOK 20/15 A2997 BECMG=
200701201300 METAR MROC 201300Z 11015G25KT 9999 FEW030 20/15 A2999 RMK PCPN DST NE BECMG=
200701201400 METAR MROC 201400Z 11016KT 9999 FEW030 22/16 A3001 RMK PCPN DST NE BECMG=
200701201500 METAR MROC 201500Z 10016KT 9999 FEW030 24/16 A3002 RMK RFGS 23KT PCPN DST NE BECMG=
200701201600 METAR MROC 201600Z 10017G27KT 9999 FEW030 25/15 A3002 BECMG=
200701201700 METAR MROC 201700Z 10018KT 9999 FEW030 26/15 A3002 BECMG=
200701201800 METAR MROC 201800Z 09018G28KT 9999 FEW030 25/16 A2999 BECMG=
200701201900 METAR MROC 201900Z 09017G27KT 9999 FEW030 26/16 A2997 BECMG=
200701202000 METAR MROC 202000Z 10015G25KT 9999 FEW030 26/15 A2995 BECMG=
200701202100 METAR MROC 202100Z 08014KT 9999 FEW035 26/16 A2993 RMK DZ DST E RAFAGAS DE 20KT BECMG=
200701202200 METAR MROC 202200Z 09013KT 9999 FEW035 26/14 A2992 RMK DZ DST E BECMG=
200701202300 METAR MROC 202300Z 09013KT 9999 FEW035 24/15 A2994 RMK DZ DST E RAFAGAS DE 21KT=
200701210000 METAR MROC 210000Z 09013KT 9999 FEW030 22/15 A2995 RMK DZ DST E BECMG CAVOK=
200701210100 METAR MROC 210100Z 10010KT 9999 FEW030 22/14 A2996 RMK DZ DST E BECMG CAVOK=
200701210200 METAR MROC 210200Z 10010KT CAVOK 21/16 A2998 BECMG=
200701210300 METAR MROC 210300Z 10015KT CAVOK 21/16 A3000=
200701210400 METAR MROC 210400Z 10018KT CAVOK 21/15 A3000=
200701210500 METAR MROC 210500Z 09015KT CAVOK 20/15 A2998=
200701210600 METAR MROC 210600Z 10013KT CAVOK 20/15 A2998=
200701210700 METAR MROC 210700Z 10018KT CAVOK 20/15 A2996=
200701210800 METAR MROC 210800Z 10010KT CAVOK 19/14 A2995=
200701210900 METAR MROC 210900Z 09007KT CAVOK 20/14 A2995=
200701211000 METAR MROC 211000Z 08004KT CAVOK 19/14 A2996=
200701211100 METAR MROC 211100Z 06008KT CAVOK 19/13 A2998=
200701211200 METAR MROC 211200Z 06008KT CAVOK 18/13 A2998=
200701211300 METAR MROC 211300Z 09009KT CAVOK 20/12 A2999 BECMG=
200701211400 METAR MROC 211400Z 10015KT CAVOK 23/12 A3001 RMK RAFAGAS DE 22KT BECMG=
200701211500 METAR MROC 211500Z 10016KT CAVOK 25/11 A3001 RMK RAFAGAS DE 22KT BECMG=
200701211600 METAR MROC 211600Z 10016KT CAVOK 27/12 A3001 RMK RAFAGAS DE 21KT BECMG=
200701211700 METAR MROC 211700Z 10015KT CAVOK 28/11 A2999 RMK RAFAGAS DE 22KT BECMG=
200701211800 METAR MROC 211800Z 09014KT CAVOK 28/13 A2997 RMK RAFAGAS DE 20KT BECMG=
200701211900 METAR MROC 211900Z 09012KT 9999 FEW035 29/14 A2995 BECMG=
200701212000 METAR MROC 212000Z 09013KT 9999 FEW035 SCT270 29/15 A2993 BECMG=
200701212100 METAR MROC 212100Z 10015KT 9999 FEW035 27/15 A2992 BECMG=
200701212200 METAR MROC 212200Z 09014KT 9999 FEW035 27/16 A2992 BECMG=
200701212300 METAR MROC 212300Z 11015KT 9999 SCT030 23/17 A2994 RMK HZ SSW BECMG=
200701220000 METAR MROC 220000Z 10013KT 9999 FEW030 SCT120 22/16 A2995 BECMG=
200701220100 METAR MROC 220100Z 10013KT 9999 FEW030 22/16 A2997 BECMG CAVOK=
200701220200 METAR MROC 220200Z 09007KT 9999 FEW030 21/15 A2999=
200701220300 METAR MROC 220300Z 10014KT 9999 FEW030 21/15 A3001 BECMG=
200701220400 METAR MROC 220400Z 10014KT 9999 FEW030 21/15 A3001 BECMG=
200701220500 METAR MROC 220500Z 09010KT 9999 FEW030 20/15 A3000 BECMG=
200701220600 METAR MROC 220600Z 10011KT CAVOK 20/15 A2999 BECMG=
200701220700 METAR MROC 220700Z 08009KT CAVOK 20/14 A2997 BECMG=
200701220800 METAR MROC 220800Z 08008KT CAVOK 20/14 A2996=
200701220900 METAR MROC 220900Z 07009KT CAVOK 20/14 A2995=
200701221000 METAR MROC 221000Z 07009KT CAVOK 19/14 A2994=
200701221100 METAR MROC 221100Z 09010KT CAVOK 20/14 A2994=
200701221200 METAR MROC 221200Z 07010KT CAVOK 20/14 A2996 BECMG=
200701221300 METAR MROC NIL=
200701221400 METAR MROC NIL=
200701221500 METAR MROC 221500Z 10015KT CAVOK 26/15 A3000 BECMG=
200701221600 METAR MROC 221600Z 10013KT CAVOK 27/16 A2999 BECMG=
200701221700 METAR MROC 221700Z 11010KT CAVOK 29/16 A2997 BECMG=
200701221800 METAR MROC 221800Z 11014KT 9999 FEW040 28/16 A2995 BECMG=
200701221900 METAR MROC 221900Z 09012KT 9999 FEW040 28/16 A2992 BECMG=
200701222000 METAR MROC 222000Z 11012KT 9999 FEW035 28/17 A2990 BECMG=
200701222100 METAR MROC 222100Z 09008KT 9999 SCT035 27/17 A2989 BECMG=
200701222200 METAR MROC 222200Z 10011KT 9999 SCT035 27/17 A2988 BECMG=
200701222300 METAR MROC 222300Z 10014G25KT 9999 SCT035 24/17 A2989 BECMG=
200701230000 METAR MROC 230000Z 10013G26KT 9999 BKN035 22/17 A2991 BECMG=
200701230100 METAR MROC 230100Z 09010KT 9999 FEW035 SCT120 22/17 A2993=
200701230200 METAR MROC 230200Z 10012KT 9999 FEW035 23/17 A2994 BECMG CAVOK=
200701230300 METAR MROC 230300Z 10013KT CAVOK 22/17 A2995 BECMG=
200701230400 METAR MROC 230400Z 09009KT CAVOK 21/16 A2994 BECMG=
200701230500 METAR MROC 230500Z 10011KT CAVOK 21/16 A2993 BECMG=
200701230600 METAR MROC 230600Z 07011KT CAVOK 21/16 A2993 BECMG=
200701230700 METAR MROC 230700Z 06007KT CAVOK 20/16 A2991 BECMG=
200701230800 METAR MROC 230800Z 08008KT CAVOK 21/16 A2990 BECMG=
200701230900 METAR MROC 230900Z 10014KT CAVOK 20/15 A2988 BECMG=
200701231000 METAR MROC 231000Z 10012KT CAVOK 21/15 A2989 BECMG=
200701231100 METAR MROC 231100Z 06010KT CAVOK 20/15 A2991 BECMG=
200701231200 METAR MROC 231200Z 05006KT CAVOK 19/16 A2992 BECMG=
200701231300 METAR MROC 231300Z 10008KT CAVOK 22/16 A2994 BECMG=
200701231400 METAR MROC 231400Z 10013G24KT CAVOK 24/16 A2994 BECMG=
200701231500 METAR MROC 231500Z 09015G27KT CAVOK 27/16 A2995 BECMG=
200701231600 METAR MROC 231600Z 09010G20KT CAVOK 28/17 A2995 BECMG=
200701231700 METAR MROC 231700Z 10015G27KT 9999 FEW035 28/16 A2993 BECMG=
200701231800 METAR MROC 231800Z 09013G24KT 9999 FEW030 29/17 A2991 BECMG=
200701231900 METAR MROC 231900Z 09014G26KT 9999 SCT030 29/18 A2988 BECMG=
200701232000 METAR MROC 232000Z 10018G32KT 9999 SCT030 28/18 A2985 BECMG=
200701232100 METAR MROC 232100Z 10014KT 9999 SCT030 27/18 A2984=
200701232200 METAR MROC 232200Z 10015KT 9999 SCT030 26/17 A2985=
200701232300 METAR MROC 232300Z 09010KT 9999 SCT030 25/17 A2986=
200701240000 METAR MROC 240000Z 00000KT 9999 SCT030 23/18 A2987=
200701240100 METAR MROC 240100Z 10015KT 9999 FEW030 22/18 A2988=
200701240200 METAR MROC 240200Z 12013KT 9999 FEW030 22/18 A2989=
200701240300 METAR MROC 240300Z 10014KT 9999 FEW035 22/17 A2991 BECMG=
200701240400 METAR MROC 240400Z 09010G20KT 9999 FEW035 21/16 A2992 BECMG=
200701240500 METAR MROC 240500Z 08007KT 9999 FEW035 22/15 A2993 BECMG=
200701240600 METAR MROC 240600Z 10012KT 9999 FEW035 21/15 A2992 BECMG=
200701240700 METAR MROC 240700Z 10018KT CAVOK 21/16 A2990 BECMG=
200701240800 METAR MROC 240800Z 10012KT CAVOK 21/14 A2991 BECMG=
200701240900 METAR MROC 240900Z 10012KT CAVOK 20/14 A2990 BECMG=
200701241000 METAR MROC 241000Z 10013KT CAVOK 21/13 A2990 BECMG=
200701241100 METAR MROC 241100Z 09014KT CAVOK 20/14 A2990 BECMG=
200701241200 METAR MROC 241200Z 10012KT CAVOK 20/14 A2993 BECMG=
200701241300 METAR MROC 241300Z 10013KT CAVOK 21/14 A2994=
200701241400 METAR MROC 241400Z 10015KT CAVOK 23/14 A2996=
200701241500 METAR MROC 241500Z 10012KT CAVOK 26/14 A2997=
200701241600 METAR MROC 241600Z 11013KT CAVOK 27/14 A2997=
200701241700 METAR MROC 241700Z 10011KT CAVOK 29/13 A2995=
200701241800 METAR MROC 241800Z 08013KT 9999 FEW040 29/15 A2993=
200701241900 METAR MROC 241900Z 09012KT 9999 FEW040 29/16 A2991=
200701242000 METAR MROC 242000Z 09013KT 9999 SCT035 29/16 A2990=
200701242100 METAR MROC 242100Z 09011KT 9999 FEW030 29/16 A2987 RMK RFGS 17KT BECMG=
200701242200 METAR MROC 242200Z 10011KT 9999 FEW030 28/15 A2987 BECMG=
200701242300 METAR MROC 242300Z 10011KT 9999 FEW030 25/17 A2989 RMK RFGS 20KT BECMG=
200701250000 METAR MROC 250000Z 09009KT 9999 FEW030 23/16 A2991 BECMG=
200701250100 METAR MROC 250100Z 10010KT 9999 FEW030 22/17 A2992 BECMG=
200701250200 METAR MROC 250200Z 10012KT 9999 FEW030 21/17 A2995 BECMG=
200701250300 METAR MROC 250300Z 10010KT 9999 FEW030 21/17 A2998=
200701250400 METAR MROC 250400Z 11008KT CAVOK 21/17 A2998=
200701250500 METAR MROC 250500Z 09012KT CAVOK 21/17 A2998=
200701250600 METAR MROC 250600Z 09011KT CAVOK 21/17 A2997=
200701250700 METAR MROC 250700Z 09012KT CAVOK 21/16 A2994=
200701250800 METAR MROC 250800Z 08009KT CAVOK 20/16 A2993=
200701250900 METAR MROC 250900Z 07005KT CAVOK 20/16 A2993=
200701251000 METAR MROC 251000Z 05009KT CAVOK 20/17 A2994=
200701251100 METAR MROC 251100Z 05010KT CAVOK 20/17 A2995=
200701251200 METAR MROC 251200Z 06008KT CAVOK 20/17 A2998=
200701251300 METAR MROC 251300Z 35004KT 9999 SCT035 BKN250 21/16 A3000 BECMG=
200701251400 METAR MROC 251400Z 07009KT 9999 SCT035 SCT250 23/16 A3002 BECMG=
200701251500 METAR MROC 251500Z 08010KT 9999 FEW035 SCT045 25/16 A3003 BECMG=
200701251600 METAR MROC 251600Z 09010KT 9999 FEW040 BKN250 26/17 A3002 BECMG=
200701251700 METAR MROC 251700Z 10011KT 9999 FEW040 BKN250 27/17 A3002 BECMG=
200701251800 METAR MROC 251800Z 10012KT 9999 FEW040 SCT070 27/16 A2999 BECMG=
200701251900 METAR MROC 251900Z 10012KT 9999 FEW040 BKN250 28/16 A2994 BECMG=
200701252000 METAR MROC 252000Z 10014KT 9999 FEW035 BKN250 28/17 A2992 BECMG=
200701252100 METAR MROC 252100Z 10014KT 9999 FEW035 BKN250 28/16 A2990 BECMG=
200701252200 METAR MROC 252200Z 09013KT 9999 FEW035 BKN250 26/16 A2990 BECMG=
200701252300 METAR MROC 252300Z 10014KT 9999 FEW035 BKN250 24/17 A2992 BECMG=
200701260000 METAR MROC 260000Z 10014KT 9999 FEW030 BKN250 23/17 A2994 BECMG=
200701260100 METAR MROC 260100Z 10011KT 9999 FEW030 BKN250 22/17 A2995 BECMG=
200701260200 METAR MROC 260200Z 10014KT 9999 FEW030 BKN250 22/17 A2998 BECMG=
200701260300 METAR MROC 260300Z 06005KT 9999 FEW035 21/17 A3001 BECMG=
200701260400 METAR MROC 260400Z 07006KT 9999 FEW035 21/17 A3002 BECMG=
200701260500 METAR MROC 260500Z 01006KT 9999 FEW035 21/17 A3002 BECMG=
200701260600 METAR MROC 260600Z 10010KT 9999 FEW035 21/17 A3002 BECMG=
200701260700 METAR MROC 260700Z 05014KT 9999 FEW035 21/16 A2999=
200701260800 METAR MROC NIL=
200701260900 METAR MROC 260900Z 11010KT 9999 FEW035 21/16 A2996 BECMG=
200701261000 METAR MROC 261000Z 10007KT 9999 FEW035 20/15 A2996=
200701261100 METAR MROC 261100Z 05010KT 9999 FEW035 20/15 A2997 BECMG=
200701261200 METAR MROC 261200Z 06009KT 9999 FEW035 SCT140 19/15 A2999 BECMG=
200701261300 METAR MROC 261300Z 09008KT 9999 FEW035 BKN250 20/14 A3002 RMK DZ DST N/NE/E BECMG=
200701261400 METAR MROC 261400Z 10015KT 9999 FEW035 BKN250 21/14 A3004 RMK DZ DST N/NE/E RAFAGAS DE 23KT BECMG=
200701261500 METAR MROC 261500Z 10016KT 9999 FEW035 BKN250 23/14 A3005 RMK DZ DST N/NE/E RAFAGAS DE 25KT BECMG=
200701261600 METAR MROC 261600Z 10021KT 9999 FEW035 SCT250 24/13 A3005 RMK DZ DST=
200701261700 METAR MROC 261700Z 11021KT 9999 FEW035 BKN250 24/14 A3003 RMK DZ DST=
200701261800 METAR MROC 261800Z 10018KT 9999 FEW035 BKN250 24/15 A3002 RMK DZ DST=
200701261900 METAR MROC 261900Z 10017KT 9999 FEW035 BKN250 24/15 A2999 RMK DZ DST=
200701262000 METAR MROC 262000Z 10016KT 9999 FEW035 BKN250 25/16 A2998 RMK DZ DST=
200701262100 METAR MROC 262100Z 10012G22KT 9999 FEW035 BKN250 24/15 A2996 DZ DST NE BECMG=
200701262200 METAR MROC 262200Z 10014G26KT 9999 FEW040 BKN250 23/15 A2996 RMK DZ DST NE=
200701262300 METAR MROC 262300Z 10016KT 9999 FEW040 BKN250 22/16 A2996 BECMG=
200701270000 METAR MROC 270000Z 10010G20KT CAVOK 22/16 A2998 BECMG=
200701270100 METAR MROC 270100Z 11011KT CAVOK 21/16 A2999=
200701270200 METAR MROC 270200Z 08007KT CAVOK 21/16 A3001=
200701270300 METAR MROC 270300Z 06004KT CAVOK 20/15 A3002 BECMG=
200701270400 METAR MROC 270400Z 08008KT CAVOK 20/15 A3003 BECMG=
200701270500 METAR MROC 270500Z 09007KT CAVOK 20/15 A3003 BECMG=
200701270600 METAR MROC 270600Z 06007KT CAVOK 19/15 A3002 BECMG=
200701270800 METAR MROC 270800Z 07009KT CAVOK 19/15 A2997=
200701270900 METAR MROC 270900Z 09009KT CAVOK 19/14 A2996=
200701271000 METAR MROC 271000Z 08010KT CAVOK 19/14 A2996=
200701271100 METAR MROC 271100Z 10013KT CAVOK 19/15 A2996=
200701271200 METAR MROC 271200Z 10012KT CAVOK 19/14 A2998=
200701271300 METAR MROC 271300Z 09014KT CAVOK 21/14 A3000 BECMG=
200701271400 METAR MROC 271400Z 10017KT CAVOK 23/14 A3001 BECMG=
200701271500 METAR MROC 271500Z 10019KT CAVOK 24/14 A3002 BECMG=
200701271600 METAR MROC 271600Z 09020KT CAVOK 26/15 A3002 BECMG=
200701271700 METAR MROC 271700Z 09012KT CAVOK 26/15 A3000 BECMG=
200701271800 METAR MROC 271800Z 10013KT CAVOK 27/15 A2998 BECMG=
200701271900 METAR MROC 271900Z 10011KT CAVOK 27/15 A2995 BECMG=
200701272000 METAR MROC 272000Z 10012KT CAVOK 28/16 A2992 BECMG=
200701272100 METAR MROC 272100Z 11012G22KT 9999 SCT035 BKN120 27/16 A2991 BECMG=
200701272200 METAR MROC 272200Z 09009KT 9999 FEW035 BKN130 26/16 A2991 BECMG=
200701272300 METAR MROC 272300Z 09010KT 9999 FEW035 BKN130 23/16 A2993 BECMG=
200701280000 METAR MROC 280000Z 09014G27KT 9999 FEW035 BKN130 22/16 A2993 BECMG=
200701280100 METAR MROC 280100Z 09012KT 9999 FEW035 22/16 A2995 BECMG CAVOK=
200701280200 METAR MROC 280200Z 06010KT 9999 FEW035 21/16 A2998=
200701280300 METAR MROC 280300Z 07008KT CAVOK 20/16 A3001 BECMG=
200701280400 METAR MROC 280400Z 08008KT CAVOK 20/15 A3001 BECMG=
200701280500 METAR MROC 280500Z 08006KT CAVOK 20/15 A3001 BECMG=
200701280700 METAR MROC 280700Z 07006KT CAVOK 19/14 A2997 BECMG=
200701280800 METAR MROC 280800Z 07007KT CAVOK 19/14 A2995 BECMG=
200701280900 METAR MROC 280900Z 09009KT CAVOK 20/14 A2994 BECMG=
200701281000 METAR MROC 281000Z 09011KT CAVOK 20/15 A2994 BECMG=
200701281100 METAR MROC 281100Z 09007KT CAVOK 20/15 A2996 BECMG=
200701281200 METAR MROC 281200Z 06008KT CAVOK 20/14 A2998 BECMG=
200701281300 METAR MROC 281300Z 08011KT CAVOK 22/15 A3000 BECMG=
200701281400 METAR MROC 281400Z 10012G24KT CAVOK 23/15 A3002 BECMG=
200701281500 METAR MROC 281500Z 09012G22KT CAVOK 25/16 A3003 BECMG=
200701281600 METAR MROC 281600Z 11016G30KT CAVOK 26/16 A3002 BECMG=
200701281700 METAR MROC 281700Z 09014G25KT 9999 FEW040 BKN300 27/16 A3002 BECMG=
200701281800 METAR MROC 281800Z 09015G28KT 9999 FEW040 SCT300 27/16 A2999 BECMG=
200701281900 METAR MROC 281900Z 10014G26KT 9999 FEW040 SCT280 28/16 A2996 BECMG=
200701282000 METAR MROC 282000Z 10017G31KT 9999 SCT040 SCT280 27/16 A2994 BECMG=
200701282100 METAR MROC 282100Z 10015KT 9999 FEW040 BKN280 27/16 A2992=
200701282200 METAR MROC 282200Z 09013KT 9999 FEW040 BKN280 27/16 A2992=
200701282300 METAR MROC 282300Z 10018KT 9999 SCT040 SCT250 23/16 A2994=
200701290000 METAR MROC 290000Z 10012KT 9999 SCT040 22/16 A2998=
200701290100 METAR MROC 290100Z 10014KT 9999 FEW035 SCT120 21/16 A2999 BECMG CAVOK=
200701290200 METAR MROC 290200Z 10012KT CAVOK 20/16 A3003=
200701290300 METAR MROC 290300Z 10018KT CAVOK 20/16 A3004 BECMG=
200701290400 METAR MROC 290400Z 10012G22KT CAVOK 20/16 A3003 BECMG=
200701290500 METAR MROC 290500Z 09018KT CAVOK 21/16 A3002 BECMG=
200701290600 METAR MROC 290600Z 09013KT CAVOK 20/16 A3001 BECMG=
200701290700 METAR MROC 290700Z 10017KT CAVOK 20/16 A2999 BECMG=
200701290800 METAR MROC 290800Z 10014KT CAVOK 20/16 A2997 BECMG=
200701290900 METAR MROC 290900Z 10016KT CAVOK 20/15 A2997 BECMG=
200701291000 METAR MROC 291000Z 10017KT CAVOK 20/15 A2998 BECMG=
200701291100 METAR MROC 291100Z 10015KT CAVOK 20/15 A2999 BECMG=
200701291200 METAR MROC 291200Z 11015KT 9999 FEW030 20/16 A3001 BECMG=
200701291300 METAR MROC 291300Z 11016KT 9999 FEW030 21/16 A3003=
200701291400 METAR MROC 291400Z 09016KT 9999 FEW030 22/16 A3004=
200701291500 METAR MROC 291500Z 11018KT 9999 FEW030 24/17 A3005=
200701291600 METAR MROC 291600Z 09015KT 9999 FEW030 27/16 A3004=
200701291700 METAR MROC 291700Z 08012KT 9999 FEW030 28/17 A3002=
200701291800 METAR MROC 291800Z 07016KT 9999 SCT030 28/17 A2999=
200701291900 METAR MROC 291900Z 10014KT 9999 SCT030 28/17 A2996=
200701292000 METAR MROC 292000Z 08015KT 9999 SCT030 27/17 A2993=
200701292100 METAR MROC 292100Z 10017KT 9999 SCT030 25/16 A2991 RMK DZ DST N NE BECMG=
200701292200 METAR MROC 292200Z 09012G22KT 9999 SCT030 24/16 A2992 RMK DZ DST N NE BECMG=
200701292300 METAR MROC 292300Z 09012KT 9999 SCT030 24/16 A2992 RMK DZ DST N NE BECMG=
200701300000 METAR MROC 300000Z 10013KT 9999 FEW030 21/16 A2992 RMK DZ DST NE BECMG=
200701300100 METAR MROC 300100Z 10016KT 9999 FEW030 22/16 A2993 BECMG=
200701300200 METAR MROC 300200Z 11015KT 9999 FEW030 21/16 A2995 BECMG=
200701300300 METAR MROC 300300Z 06012G22KT 9999 FEW030 22/15 A3001 BECMG=
200701300400 METAR MROC 300400Z 09014G25KT 9999 FEW030 21/15 A3001 BECMG=
200701300500 METAR MROC 300500Z 10018G33KT 9999 FEW030 21/15 A3000 BECMG=
200701300600 METAR MROC 300600Z 11014G26KT 9999 FEW030 21/16 A3000 BECMG=
200701300700 METAR MROC 300700Z 09008KT 9999 FEW030 21/16 A2998 BECMG=
200701300800 METAR MROC NIL=
200701300900 METAR MROC 300900Z 11014KT 9999 FEW030 21/16 A2994=
200701301000 METAR MROC 301000Z 03008KT 9999 FEW030 20/16 A2996 BECMG=
200701301100 METAR MROC 301100Z 10015G28KT 9999 FEW030 21/17 A2997 BECMG=
200701301200 METAR MROC 301200Z 04008KT 9999 FEW030 21/16 A3001 BECMG=
200701301300 METAR MROC 301300Z 06012KT 9999 FEW025 22/16 A3003 BECMG=
200701301400 METAR MROC 301400Z 10016KT 9999 FEW025 23/17 A3003 BECMG=
200701301500 METAR MROC 301500Z 10018KT 9999 FEW025 25/17 A3004 RMK RFGS 22KT BECMG=
200701301600 METAR MROC 301600Z 10018G28KT 9999 FEW035 26/17 A3003 BECMG=
200701301700 METAR MROC 301700Z 10019KT 9999 FEW030 27/17 A3002 RMK RFGS 26KT=
200701301800 METAR MROC 301800Z 09015KT 9999 FEW025 28/18 A3001 RMK PCPN DST ENE BECMG=
200701301900 METAR MROC 301900Z 10015KT 9999 SCT030 27/17 A2999 RMK PCPN DIST ENE=
200701302000 METAR MROC 302000Z 09013KT 9999 SCT030 28/17 A2995 RMK PCPN DST NE ENE BECMG=
200701302100 METAR MROC 302100Z 09014KT 9999 SCT030 SCT090 26/17 A2994 RMK DZ DST=
200701302200 METAR MROC 302200Z 09014KT 9999 SCT030 26/16 A2994 RMK DZ DST N/NE=
200701302300 METAR MROC 302300Z 09013KT 9999 FEW030 24/15 A2995 RMK DZ DST N/NE=
200701310000 METAR MROC 310000Z 09014KT 9999 FEW030 22/16 A2997 RMK DZ DST N/NE/E BECMG=
200701310100 METAR MROC 310100Z 11012KT 9999 FEW030 21/16 A2999 RMK DZ DST NE/E BECMG=
200701310200 METAR MROC 310200Z 11016KT 9999 FEW030 21/16 A2999 RMK DZ DST N/NE/E BECMG=
200701310300 METAR MROC 310300Z 10015KT 9999 FEW030 21/17 A3002=
200701310400 METAR MROC 310400Z 09014KT 9999 FEW030 21/16 A3003=
200701310500 METAR MROC 310500Z 09010KT 9999 FEW030 21/16 A3002=
200701310600 METAR MROC 310600Z 06010KT 9999 FEW035 20/16 A3001=
200701310700 METAR MROC 310700Z 02006KT CAVOK 19/16 A2999=
200701310800 METAR MROC 3108000Z 06008KT CAVOK 19/15 A2997=
200701310900 METAR MROC 310900Z 07008KT CAVOK 19/15 A2996=
200701311000 METAR MROC 311000Z 10006KT CAVOK 19/15 A2996=
200701311100 METAR MROC 311100Z 11012KT CAVOK 19/15 A2997=
200701311200 METAR MROC 311200Z 10014KT CAVOK 19/15 A2996=
200701311300 METAR MROC 311300Z 10012KT CAVOK 21/15 A2999=
200701311400 METAR MROC 311400Z 10013KT CAVOK 23/15 A3002 BECMG=
200701311500 METAR MROC 311500Z 10016KT CAVOK 24/15 A3002 RMK RAFAGAS DE 23KT BECMG=
200701311600 METAR MROC 311600Z 10013KT CAVOK 26/15 A3002 BECMG=
200701311700 METAR MROC 311700Z 10012KT CAVOK 27/15 A3000 BECMG=
200701311800 METAR MROC 311800Z 09013KT CAVOK 28/15 A2997 BECMG=
200701311900 METAR MROC 311900Z 10012KT 9999 FEW035 29/15 A2995 BECMG=
200701312000 METAR MROC 312000Z 09012KT 9999 FEW035 29/15 A2993 BECMG=
200701312100 METAR MROC 312100Z 09012KT 9999 FEW035 28/15 A2991 BECMG=
200701312200 METAR MROC 312200Z 10011KT 9999 FEW035 27/15 A2991 BECMG=
200701312300 METAR MROC 312300Z 10012KT 9999 FEW030 26/16 A2993 BECMG=
200702010000 METAR MROC 010000Z 10013KT 9999 FEW025 23/16 A2994 BECMG=
200702010100 METAR MROC 010100Z 10010KT 9999 FEW030 21/16 A2996=
200702010200 METAR MROC NIL=
200702010300 METAR MROC 010300Z 10012KT 9999 FEW030 21/16 A2999 BECMG=
200702010400 METAR MROC 010400Z 10010KT 9999 FEW030 21/15 A3000 BECMG=
200702010500 METAR MROC 010500Z 09007KT CAVOK 21/15 A3000 BECMG=
200702010600 METAR MROC 010600Z 10008KT CAVOK 21/15 A2998 BECMG=
200702010700 METAR MROC 010700Z 06008KT CAVOK 20/15 A2996 BECMG=
200702010800 METAR MROC 010800Z 09007KT CAVOK 20/15 A2994=
200702010900 METAR MROC 010900Z 07007KT CAVOK 20/15 A2992=
200702011000 METAR MROC 011000Z 06009KT CAVOK 19/15 A2993=
200702011100 METAR MROC 011100Z 07007KT CAVOK 19/16 A2993=
200702011200 METAR MROC 011200Z 10013KT CAVOK 30/17 A2993 BECMG=
200702011300 METAR MROC 011300Z 08008KT CAVOK 22/16 A2997 BECMG=
200702011400 METAR MROC 011400Z 08009KT CAVOK 24/17 A2999 BECMG=
200702011500 METAR MROC 011500Z 10016KT CAVOK 26/16 A2999 BECMG=
200702011600 METAR MROC 011600Z 11014KT CAVOK 28/16 A2998 BECMG=
200702011700 METAR MROC 011700Z 08010KT CAVOK 29/17 A2996 BECMG=
200702011800 METAR MROC 011800Z 10013KT CAVOK 30/17 A2993 BECMG=
200702011900 METAR MROC 011900Z 10009KT 9999 FEW035 30/17 A2991=
200702012000 METAR MROC 012000Z 20006KT 9999 FEW035 28/19 A2990=
200702012100 METAR MROC 012100Z 10007KT 9999 SCT030 30/17 A2988 BECMG=
200702012200 METAR MROC 012200Z 19003KT 9999 SCT030 27/18 A2988 BECMG=
200702012300 METAR MROC 012300Z 24003KT 9999 SCT025 26/19 A2990 BECMG=
200702020000 METAR MROC 020000Z 15004KT 9999 FEW030 24/18 A2992 BECMG=
200702020100 METAR MROC 020100Z 17003KT 9999 FEW030 22/18 A2994=
200702020200 METAR MROC 020200Z 08004KT 9999 FEW035 21/18 A2996=
200702020300 METAR MROC 020300Z 07006KT CAVOK 21/18 A2997 BECMG=
200702020400 METAR MROC 020400Z 06008KT CAVOK 20/17 A2998 BECMG=
200702020500 METAR MROC 020500Z 09005KT CAVOK 20/17 A2996 BECMG=
200702020600 METAR MROC 020600Z 06005KT CAVOK 18/16 A2996 BECMG=
200702020700 METAR MROC 020700Z 05007KT CAVOK 17/15 A2995 BECMG=
200702020800 METAR MROC 020800Z 06008KT CAVOK 18/16 A2994 BECMG=
200702020900 METAR MROC 020900Z 06009KT 9999 FEW025 18/15 A2994 BECMG=
200702021000 METAR MROC 021000Z 05009KT 9999 FEW025 18/15 A2994 BECMG=
200702021100 METAR MROC 021100Z 06008KT CAVOK 18/14 A2996 BECMG=
200702021200 METAR MROC 021200Z 06008KT CAVOK 17/14 A2997 BECMG=
200702021300 METAR MROC 021300Z 07008KT CAVOK 20/15 A3000 BECMG=
200702021400 METAR MROC 021400Z 10008KT 9999 FEW040 SCT300 23/16 A3001 BECMG=
200702021500 METAR MROC 021500Z 09011G22KT CAVOK 25/15 A3001 BECMG=
200702021600 METAR MROC 021600Z 09010KT CAVOK 27/15 A3001 BECMG=
200702021700 METAR MROC 021700Z 00000KT 9999 FEW040 SCT300 28/13 A2999 BECMG 24008=
200702021800 METAR MROC 021800Z 11010KT 9999 FEW040 SCT300 31/14 A2995 BECMG=
200702021900 METAR MROC 021900Z 22006KT 9999 FEW040 SCT300 30/16 A2992 BECMG=
200702022000 METAR MROC 022000Z 00000KT 9999 SCT040 SCT300 30/16 A2990 BECMG=
200702022100 METAR MROC 022100Z 09013KT 9999 SCT040 29/16 A2989=
200702022200 METAR MROC 022200Z 09010KT 9999 FEW040 28/16 A2989=
200702022300 METAR MROC 022300Z 10008KT 9999 FEW040 27/16 A2990=
200702030000 METAR MROC 030000Z 10008KT CAVOK 24/17 A2992=
200702030100 METAR MROC 030100Z 10004KT CAVOK 23/17 A2994=
200702030200 METAR MROC 030200Z 07009KT CAVOK 22/17 A2995=
200702030300 METAR MROC 030300Z 07010KT CAVOK 22/16 A2998 BECMG=
200702030400 METAR MROC 030400Z 07008KT CAVOK 21/16 A2999 BECMG=
200702030500 METAR MROC 030500Z 11004KT CAVOK 20/15 A2999 BECMG=
200702030600 METAR MROC 030600Z 06008KT CAVOK 18/14 A2999 BECMG=
200702030700 METAR MROC NIL=
200702030800 METAR MROC 030800Z 07008KT CAVOK 17/14 A2996 BECMG=
200702030900 METAR MROC 030900Z 06011KT CAVOK 17/14 A2995 BECMG=
200702031000 METAR MROC 031000Z 09007KT CAVOK 18/14 A2997 BECMG=
200702031100 METAR MROC 031100Z 07009KT CAVOK 18/14 A3000 BECMG=
200702031200 METAR MROC 031200Z 06008KT CAVOK 17/14 A3000 BECMG=
200702031300 METAR MROC 031300Z 04008KT 9999 FEW040 SCT250 19/14 A3002=
200702031400 METAR MROC 031400Z 10007KT 9999 FEW040 SCT250 24/16 A3004=
200702031500 METAR MROC 031500Z 10011KT 9999 FEW040 26/16 A3004=
200702031600 METAR MROC 031600Z 12010KT 9999 FEW040 27/16 A3004=
200702031700 METAR MROC 031700Z 10014KT 9999 FEW040 28/15 A3001=
200702031800 METAR MROC 031800Z 10011KT 9999 FEW035 29/17 A2998=
200702031900 METAR MROC 031900Z 10015KT 9999 FEW035 28/16 A2995=
200702032000 METAR MROC 032000Z 09011KT 9999 FEW035 28/16 A2992=
200702032100 METAR MROC 032100Z 08012KT 9999 FEW035 28/16 A2991 BECMG=
200702032200 METAR MROC 032200Z 08012G22KT 9999 FEW035 27/15 A2991 BECMG=
200702032300 METAR MROC 032300Z 09012KT 9999 FEW035 25/15 A2991 BECMG=
200702040000 METAR MROC 040000Z 10011KT 9999 FEW035 23/16 A2993 BECMG=
200702040100 METAR MROC 040100Z 10010KT 9999 FEW035 22/15 A2996 BECMG CAVOK=
200702040200 METAR MROC 040200Z 09011KT CAVOK 22/15 A2997=
200702040300 METAR MROC 040300Z 10012G22KT CAVOK 22/15 A2999 BECMG=
200702040400 METAR MROC 040400Z 09014G26KT CAVOK 21/15 A2999 BECMG=
200702040500 METAR MROC 040500Z 09015G28KT CAVOK 21/15 A2999 BECMG=
200702040600 METAR MROC 040600Z 11014G26KT CAVOK 21/15 A2998 BECMG=
200702040700 METAR MROC NIL=
200702040800 METAR MROC 040800Z 10016G30KT CAVOK 21/15 A2994 BECMG=
200702040900 METAR MROC 040900Z 10013G23KT CAVOK 20/16 A2994 BECMG=
200702041000 METAR MROC 041000Z 10010KT CAVOK 20/16 A2994 BECMG=
200702041100 METAR MROC 041100Z 11012G24KT CAVOK 20/16 A2995 BECMG=
200702041200 METAR MROC 041200Z 11013KT 9999 FEW030 BKN250 20/15 A2997 BECMG=
200702041300 METAR MROC 041300Z 09014KT 9999 FEW030 BKN300 21/14 A2999 RMK HZ LIG ARND=
200702041400 METAR MROC 041400Z 10016G26KT 9999 FEW030 BKN300 23/15 A3002 RMK LGT HZ ARND BECMG=
200702041500 METAR MROC 041500Z 10019KT 9999 FEW030 SCT300 24/14 A3002 RMK LGT HZ ARND BECMG=
200702041600 METAR MROC 041600Z 09015G25KT 9999 FEW035 25/13 A3002 BECMG=
200702041700 METAR MROC 041700Z 10016G26KT 9999 FEW040 27/12 A3002 BECMG=
200702041800 METAR MROC 041800Z 09015KT 9999 FEW040 28/13 A3000 BECMG=
200702041900 METAR MROC 041900Z 08016KT 9999 FEW040 28/13 A2998 HZ ARND BECMG=
200702042000 METAR MROC 042000Z 09014KT 9999 FEW040 29/13 A2995 RMK HZ LGT ARND BECMG=
200702042100 METAR MROC 042100Z 08014KT 9999 FEW040 28/13 A2993 BECMG=
200702042200 METAR MROC 042200Z 07014KT 9999 FEW040 27/14 A2992 BECMG=
200702042300 METAR MROC 042300Z 07014KT 9999 FEW035 25/13 A2993 BECMG=
200702050000 METAR MROC 050000Z 07012KT 9999 FEW035 23/13 A2995 BECMG=
200702050100 METAR MROC 050100Z 08012KT CAVOK 22/14 A2997 BECMG=
200702050200 METAR MROC 050200Z 08015KT CAVOK 22/14 A3000 RMK RAFAGAS 21KT BECMG=
200702050300 METAR MROC 050300Z 10013KT CAVOK 22/14 A3001=
200702050400 METAR MROC 050400Z 09016KT CAVOK 22/13 A3002=
200702050500 METAR MROC 050500Z 10014KT CAVOK 21/14 A3002=
200702050600 METAR MROC 050600Z 11014KT CAVOK 21/14 A3001=
200702050700 METAR MROC 050700Z 10013KT CAVOK 21/13 A2999=
200702050800 METAR MROC 050800Z 11009KT CAVOK 21/13 A2998=
200702050900 METAR MROC 050900Z 09013KT CAVOK 21/15 A2997=
200702051000 METAR MROC 051000Z 11013KT CAVOK 20/14 A2996=
200702051100 METAR MROC NIL=
200702051200 METAR MROC 051200Z 09008KT CAVOK 20/15 A2998=
200702051300 METAR MROC 051300Z 11013KT CAVOK 21/15 A2999 BECMG=
200702051400 METAR MROC 051400Z 10017G28KT CAVOK 24/15 A3001 BECMG=
200702051500 METAR MROC 051500Z 10016KT CAVOK 26/15 A3003 RMK RAFAGAS DE 22KT BECMG=
200702051600 METAR MROC 051600Z 09013KT 9999 FEW035 27/15 A3004 BECMG=
200702051700 METAR MROC 051700Z 09013KT 9999 FEW035 28/15 A3003 BECMG=
200702051800 METAR MROC 051800Z 09014KT 9999 FEW035 28/14 A3001 BECMG=
200702051900 METAR MROC 051900Z 10014KT 9999 FEW035 29/14 A2999 RMK FU SOBRE LA PISTA 07 BECMG=
200702052000 METAR MROC 052000Z 09014KT 9999 FEW035 28/14 A2996 RMK RAFAGAS DE 22KT BECMG=
200702052100 METAR MROC 052100Z 08012KT 9999 FEW035 28/14 A2994 BECMG=
200702052200 METAR MROC 052200Z 09012KT CAVOK 27/14 A2995 BECMG=
200702052300 METAR MROC 052300Z 08009KT CAVOK 26/14 A2996 BECMG=
200702060000 METAR MROC 060000Z 08010KT 9999 FEW035 23/14 A2997 BECMG=
200702060100 METAR MROC 060100Z 07013KT CAVOK 23/14 A2998 BECMG=
200702060200 METAR MROC 060200Z 09013KT CAVOK 22/14 A3000 BECMG=
200702060300 METAR MROC 060300Z 09015KT CAVOK 22/14 A3002 BECMG=
200702060400 METAR MROC 060400Z 09012KT CAVOK 22/14 A3004 BECMG=
200702060500 METAR MROC 060500Z 10015KT CAVOK 21/14 A3004 BECMG=
200702060600 METAR MROC 060600Z 10014KT CAVOK 21/14 A3003 BECMG=
200702060700 METAR MROC 060700Z 09012KT CAVOK 21/14 A3002 BECMG=
200702060800 METAR MROC 060800Z 09011KT CAVOK 20/15 A3000=
200702060900 METAR MROC 060900Z 09014KT CAVOK 21/15 A3000=
200702061000 METAR MROC 061000Z 10012KT CAVOK 20/15 A3001=
200702061100 METAR MROC 061100Z 10012KT CAVOK 20/15 A3002=
200702061200 METAR MROC 061200Z 10014KT CAVOK 20/12 A3003=
200702061300 METAR MROC 061300Z 10016KT 9999 SKC 21/11 A3004 BECMG=
200702061400 METAR MROC 061400Z 10017KT 9999 SKC 24/10 A3006 RMK GUST 23KT=
200702061500 METAR MROC 061500Z 10020KT CAVOK 26/10 A3007 BECMG=
200702061600 METAR MROC 061600Z 08016KT CAVOK 28/12 A3007 BECMG=
200702061700 METAR MROC 061700Z 07022KT CAVOK 27/15 A3006 BECMG=
200702061800 METAR MROC 061800Z 08020KT CAVOK 27/15 A3004 BECMG=
200702061900 METAR MROC 061900Z 08016G26KT 9999 FEW035 27/16 A3001 BECMG=
200702062000 METAR MROC 062000Z 06025KT 9999 FEW040 27/16 A2998 RMK GUST 31KT=
200702062100 METAR MROC 062100Z 10020G37KT 9999 FEW035 26/15 A2995 BECMG=
200702062200 METAR MROC 062200Z 08015G28KT 9999 SCT030 24/15 A2997 BECMG=
200702062300 METAR MROC 062300Z 09012G22KT 9999 SCT025 24/15 A2998 BECMG=
200702070000 METAR MROC 070000Z 06012G22KT 9999 SCT025 22/15 A2999 BECMG=
200702070100 METAR MROC 070100Z 08011KT 9999 FEW030 21/13 A3001=
200702070200 METAR MROC 070200Z 11011KT 9999 FEW030 20/14 A3005=
200702070300 METAR MROC 070300Z 11012KT CAVOK 20/14 A3006 BECMG=
200702070400 METAR MROC 070400Z 10009KT CAVOK 20/14 A3009 BECMG=
200702070500 METAR MROC 070500Z 10012KT CAVOK 20/14 A3008 BECMG=
200702070600 METAR MROC 070600Z 10014KT CAVOK 20/14 A3007 BECMG=
200702070700 METAR MROC 070700Z 09011KT CAVOK 19/14 A3006 BECMG=
200702070800 METAR MROC 070800Z 10011KT CAVOK 19/13 A3003 BECMG=
200702070900 METAR MROC 070900Z 09012KT CAVOK 19/14 A3002 BECMG=
200702071000 METAR MROC 071000Z 09014KT CAVOK 18/13 A3000 BECMG=
200702071100 METAR MROC 071100Z 10016KT CAVOK 19/13 A3002 RMK RAFAGAS DE 22KT BECMG=
200702071200 METAR MROC 071200Z 09013KT CAVOK 18/13 A3003 BECMG=
200702071300 METAR MROC 071300Z 09018G36KT CAVOK 20/13 A3004 BECMG=
200702071400 METAR MROC 071400Z 09019G35KT CAVOK 22/14 A3006 BECMG=
200702071500 METAR MROC 071500Z 10018G34KT 9999 FEW030 24/12 A3007 BECMG=
200702071600 METAR MROC 071600Z 08017G31KT 9999 FEW030 26/11 A3007 BECMG=
200702071700 METAR MROC 071700Z 08014G26KT 9999 FEW030 27/12 A3005 BECMG RMK RN N NE=
200702071800 METAR MROC 071800Z 07014G27KT 9999 FEW030 28/11 A3003 BECMG=
200702071900 METAR MROC 071900Z 10013G25KT 9999 FEW030 27/12 A3000 BECMG=
200702072000 METAR MROC 072000Z 11016G29KT 9999 FEW030 28/13 A2997 RMK RN N NE=
200702072100 METAR MROC 072100Z 09013KT 9999 FEW030 27/13 A2995=
200702072200 METAR MROC 072200Z 10009KT 9999 SCT030 25/14 A2995=
200702072300 METAR MROC 072300Z 11009KT 9999 SCT030 24/13 A2997=
200702080000 METAR MROC 080000Z 11012KT 9999 SCT030 22/13 A2999=
200702080100 METAR MROC 080100Z 09011KT 9999 FEW030 21/14 A3001=
200702080200 METAR MROC 080200Z 10013KT CAVOK 21/14 A3003=
200702080300 METAR MROC 080300Z 10012KT CAVOK 21/13 A3006 BECMG=
200702080400 METAR MROC 080400Z 09012KT CAVOK 21/12 A3007 BECMG=
200702080500 METAR MROC 080500Z 10015KT CAVOK 20/10 A3006 BECMG=
200702080600 METAR MROC 080600Z 11013KT CAVOK 20/11 A3006 BECMG=
200702080700 METAR MROC 080700Z 10014KT CAVOK 19/11 A3004 BECMG=
200702080800 METAR MROC 080800Z 11015KT CAVOK 19/11 A3001 BECMG=
200702080900 METAR MROC 080900Z 11014KT CAVOK 19/11 A3000 BECMG=
200702081000 METAR MROC 081000Z 10015KT CAVOK 19/11 A3001 BECMG=
200702081100 METAR MROC 081100Z 10014KT CAVOK 19/11 A3004 BECMG=
200702081200 METAR MROC 081200Z 10015KT CAVOK 18/11 A3005 BECMG=
200702081300 METAR MROC 081300Z 10012KT CAVOK 20/11 A3006=
200702081400 METAR MROC 081400Z 11015KT CAVOK 23/12 A3008=
200702081500 METAR MROC 081500Z 10010KT CAVOK 25/13 A3009=
200702081600 METAR MROC 081600Z 09017KT CAVOK 26/13 A3008=
200702081700 METAR MROC 081700Z 12015KT 9999 FEW040 27/12 A3006=
200702081800 METAR MROC 081800Z 11015KT 9999 FEW040 27/13 A3003=
200702081900 METAR MROC 081900Z 11010KT 9999 SCT040 29/14 A3000=
200702082000 METAR MROC 082000Z 10014KT 9999 SCT040 28/14 A2996=
200702082100 METAR MROC 082100Z 09013KT 9999 FEW040 27/15 A2996 RMK LGT HZ ARND BECMG=
200702082200 METAR MROC 082200Z 09014KT 9999 FEW040 26/16 A2997 RMK LGT HZ ARND BECMG=
200702082300 METAR MROC 082300Z 10014KT 9999 FEW040 24/16 A2998 LGT HZ ARND BECMG=
200702090000 METAR MROC 090000Z 09011KT 9999 FEW035 22/15 A3000 RMK LGT HZ ARND BECMG=
200702090100 METAR MROC 090100Z 08011KT 9999 FEW035 21/15 A3004 BECMG CAVOK=
200702090200 METAR MROC 090200Z 10010KT CAVOK 21/16 A3006=
200702090300 METAR MROC 090300Z 09011KT CAVOK 21/16 A3007=
200702090400 METAR MROC 090400Z 10010KT CAVOK 20/16 A3008=
200702090500 METAR MROC 090500Z 07007KT CAVOK 19/16 A3009=
200702090600 METAR MROC 090600Z 07010KT CAVOK 19/15 A3007=
200702090700 METAR MROC 090700Z 07010KT CAVOK 19/14 A3004=
200702090800 METAR MROC 090800Z 08009KT CAVOK 18/14 A3003=
200702090900 METAR MROC 090900Z 07010KT CAVOK 18/13 A3002=
200702091000 METAR MROC 091000Z 10014KT 9999 SKC 28/10 A3007 BECMG=
200702091100 METAR MROC 091100Z 08010KT CAVOK 19/13 A3004=
200702091200 METAR MROC 091200Z 07012KT CAVOK 19/12 A3006=
200702091300 METAR MROC 091300Z 08009KT CAVOK 20/13 A3007 BECMG=
200702091400 METAR MROC 091400Z 09012KT CAVOK 22/14 A3007 BECMG=
200702091500 METAR MROC 091500Z 10010KT 9999 SKC 25/12 A3008=
200702091600 METAR MROC 091600Z 10014KT 9999 SKC 28/10 A3007 BECMG=
200702091700 METAR MROC 091700Z 11012KT CAVOK 29/12 A3004 BECMG=
200702091800 METAR MROC 091800Z 10012KT CAVOK 29/12 A3003 BECMG=
200702091900 METAR MROC 091900Z 10012KT CAVOK 29/12 A3000 BECMG=
200702092000 METAR MROC 092000Z 10012KT CAVOK 29/13 A2998 RMK NSC BECMG=
200702092100 METAR MROC 092100Z 10011KT CAVOK 29/13 A2996=
200702092200 METAR MROC 092200Z 09012KT 9999 FEW040 28/14 A2996 BECMG=
200702092300 METAR MROC 092300Z 09012KT 9999 FEW040 26/15 A2998 BECMG=
200702100000 METAR MROC 100000Z 10008KT 9999 FEW035 23/16 A3001 BECMG=
200702100100 METAR MROC 100100Z 10008KT 9999 FEW030 22/16 A3004 BECMG=
200702100200 METAR MROC 100200Z 10009KT CAVOK 21/16 A3006 BECMG=
200702100300 METAR MROC 100300Z 09005KT CAVOK 21/15 A3007=
200702100400 METAR MROC 100400Z 07005KT CAVOK 20/15 A3007=
200702100500 METAR MROC 100500Z 04006KT CAVOK 19/13 A3007=
200702100600 METAR MROC 100600Z 06002KT CAVOK 18/13 A3006=
200702100700 METAR MROC 100700Z 06008KT CAVOK 19/13 A3005=
200702100800 METAR MROC NIL=
200702100900 METAR MROC 100900Z 06008KT CAVOK 18/13 A3003=
200702101000 METAR MROC 101000Z 05010KT CAVOK 18/13 A3004=
200702101100 METAR MROC 101100Z 04010KT CAVOK 18/13 A3005=
200702101200 METAR MROC 101200Z 07011KT CAVOK 19/13 A3005=
200702101300 METAR MROC 101300Z 09010KT CAVOK 20/12 A3006 BECMG=
200702101400 METAR MROC 101400Z 10014G24KT CAVOK 23/13 A3007 BECMG=
200702101500 METAR MROC 101500Z 10016KT CAVOK 25/12 A3006 RMK RAFAGAS DE 23KT BECMG=
200702101600 METAR MROC 101600Z 10013KT CAVOK 26/13 A3008 BECMG=
200702101700 METAR MROC 101700Z 10012KT CAVOK 27/14 A3005 BECMG=
200702101800 METAR MROC 101800Z 10012KT 9999 FEW040 28/13 A3003 BECMG=
200702101900 METAR MROC 101900Z 09010KT 9999 FEW040 29/14 A3001 BECMG=
200702102000 METAR MROC 102000Z 09012KT 9999 FEW040 28/14 A2999 BECMG=
200702102100 METAR MROC 102100Z 11013KT 9999 SCT035 28/14 A2997 BECMG=
200702102200 METAR MROC 102200Z 11014KT 9999 SCT035 27/15 A2997 BECMG=
200702102300 METAR MROC 102300Z 10012KT 9999 FEW035 25/15 A2997 BECMG=
200702110000 METAR MROC 110000Z 10015KT CAVOK 23/16 A2999 BECMG=
200702110100 METAR MROC 110100Z 10012KT CAVOK 21/17 A3001 BECMG=
200702110200 METAR MROC 110200Z 09010KT CAVOK 21/17 A3003 BECMG=
200702110300 METAR MROC 110300Z 09012KT CAVOK 21/16 A3004 BECMG=
200702110400 METAR MROC NIL=
200702110500 METAR MROC 110500Z 04007KT CAVOK 20/19 A3004 BECMG=
200702110600 METAR MROC 110600Z 06004KT CAVOK 19/15 A3003 BECMG=
200702110700 METAR MROC 110700Z 06007KT CAVOK 19/15 A3001 BECMG=
200702110800 METAR MROC 110800Z 05006KT CAVOK 18/14 A3000=
200702110900 METAR MROC 110900Z 03005KT CAVOK 18/14 A3000=
200702111000 METAR MROC 111000Z 06008KT CAVOK 17/14 A3001=
200702111100 METAR MROC 111100Z 04008KT CAVOK 18/14 A3004=
200702111200 METAR MROC 111200Z 07008KT CAVOK 18/14 A3005=
200702111300 METAR MROC 111300Z 06009KT CAVOK 21/14 A3006 BECMG=
200702111400 METAR MROC 111400Z 10010KT CAVOK 23/15 A3008 BECMG=
200702111500 METAR MROC 111500Z 09011KT CAVOK 25/15 A3008 BECMG=
200702111600 METAR MROC 111600Z 11016KT CAVOK 27/14 A3006 BECMG=
200702111700 METAR MROC 111700Z 09015KT CAVOK 29/14 A3003 BECMG=
200702111800 METAR MROC 111800Z 10015KT CAVOK 29/14 A3001 BECMG=
200702111900 METAR MROC 111900Z 10013KT 9999 FEW045 29/16 A2998 BECMG=
200702112000 METAR MROC 112000Z 10015KT 9999 FEW040 29/16 A2996 BECMG=
200702112100 METAR MROC 112100Z 09010KT 9999 SCT035 28/14 A2994 BECMG=
200702112200 METAR MROC 112200Z 10012G22KT 9999 FEW030 28/14 A2994 BECMG=
200702112300 METAR MROC 112300Z 10008KT 9999 FEW030 26/16 A2995 BECMG=
200702120000 METAR MROC 120000Z 10010KT 9999 FEW030 23/16 A2997 BECMG=
200702120100 METAR MROC 120100Z 10013KT 9999 FEW030 22/16 A3000 BECMG=
200702120200 METAR MROC 120200Z 09010KT CAVOK 22/17 A3002 BECMG=
200702120300 METAR MROC 120300Z 10012KT CAVOK 22/17 A3003 BECMG=
200702120400 METAR MROC 120400Z 09009KT CAVOK 21/17 A3004 BECMG=
200702120500 METAR MROC 120500Z 05008KT CAVOK 20/16 A3004 BECMG=
200702120600 METAR MROC 120600Z 09011KT CAVOK 22/16 A3001 BECMG=
200702120700 METAR MROC 120700Z 09012KT CAVOK 21/16 A3000 BECMG=
200702120800 METAR MROC 120800Z 10010KT CAVOK 21/16 A2997 BECMG=
200702120900 METAR MROC 120900Z 09007KT CAVOK 20/16 A2998 BECMG=
200702121000 METAR MROC 121000Z 06006KT CAVOK 19/16 A2999 BECMG=
200702121100 METAR MROC 121100Z 05008KT CAVOK 20/15 A3000 BECMG=
200702121200 METAR MROC 121200Z 05008KT CAVOK 19/15 A3002 BECMG=
200702121300 METAR MROC 121300Z 01006KT CAVOK 21/15 A3003 BECMG=
200702121400 METAR MROC 121400Z 10011G21KT CAVOK 24/16 A3005 BECMG=
200702121500 METAR MROC 121500Z 10013G25KT CAVOK 26/15 A3006 BECMG=
200702121600 METAR MROC 121600Z 11013G25KT CAVOK 27/15 A3005 BECMG=
200702121700 METAR MROC 121700Z 11011KT CAVOK 28/15 A3003 BECMG=
200702121800 METAR MROC 121800Z 10014G26KT CAVOK 29/15 A2999 BECMG=
200702121900 METAR MROC 121900Z 10007KT CAVOK 31/15 A2996 BECMG=
200702122000 METAR MROC 122000Z 11011KT 9999 SCT030 30/15 A2993 BECMG 24006=
200702122100 METAR MROC 122100Z 10009KT 9999 SCT030 30/15 A2991=
200702122200 METAR MROC 122200Z 10009KT 9999 SCT030 27/16 A2992=
200702122300 METAR MROC 122300Z 14004KT 9999 SCT030 27/16 A2993 RMK FU SE=
200702130000 METAR MROC 130000Z VRB03KT 9999 SCT030 25/17 A2995=
200702130100 METAR MROC 130100Z 11008KT 9999 FEW030 23/17 A2997=
200702130200 METAR MROC NIL=
200702130300 METAR MROC 130300Z 09007KT CAVOK 22/17 A3003 BECMG=
200702130400 METAR MROC 130400Z 06007KT CAVOK 21/17 A3003 BECMG/=
200702130500 METAR MROC 130500Z 06004KT CAVOK 21/17 A3002 BECMG=
200702130600 METAR MROC 130600Z 08003KT CAVOK 19/15 A3001 BECMG=
200702130700 METAR MROC 130700Z 07005KT CAVOK 19/15 A2998 BECMG=
200702130800 METAR MROC 130800Z 05009KT CAVOK 18/15 A2995 BECMG=
200702130900 METAR MROC 130900Z 06009KT CAVOK 17/13 A2995 BECMG=
200702131000 METAR MROC 131000Z 07007KT CAVOK 18/15 A2996 BECMG=
200702131100 METAR MROC 131100Z 06008KT CAVOK 18/15 A2997 BECMG=
200702131200 METAR MROC 131200Z 07009KT CAVOK 17/14 A2999 BECMG=
200702131220 METAR MROC 131220Z 13008KT CAVOK 17/14 A3002=
200702131300 METAR MROC 131300Z 07008KT CAVOK 19/15 A3002=
200702131400 METAR MROC 131400Z 09008KT CAVOK 23/15 A3004=
200702131500 METAR MROC 131500Z 09006KT CAVOK 26/14 A3005=
200702131600 METAR MROC 131600Z 14002KT CAVOK 28/13 A3004 BECMG 24006KT 9999 SCT020=
200702131700 METAR MROC 131700Z 19002KT 9999 FEW040 30/14 A3001=
200702131800 METAR MROC 131800Z 24007KT 9999 FEW040 30/17 A2998=
200702131900 METAR MROC 131900Z 22009KT 9999 FEW040 31/17 A2995=
200702132000 METAR MROC 132000Z 26009KT 9999 FEW040 30/16 A2992=
200702132100 METAR MROC 132100Z 22010KT 9999 FEW040 29/19 A2991 RMK HZY BECMG=
200702132200 METAR MROC 132200Z 23013KT 9999 SCT040 27/19 A2992 RMK HZY BECMG=
200702132300 METAR MROC 132300Z 23009KT 9999 SCT035 26/18 A2993 RMK HZY BECMG=
200702140000 METAR MROC 140000Z 24009KT 9999 FEW025 24/18 A2995 RMK HZY BECMG=
200702140100 METAR MROC 140100Z 23004KT 9999 FEW025 23/18 A2998=
200702140200 METAR MROC 140200Z 00000KT 9999 FEW025 22/18 A3000=
200702140300 METAR MROC 140300Z 00000KT 9999 FEW040 21/18 A3002 BECMG=
200702140400 METAR MROC 140400Z 00000KT 9999 FEW040 21/18 A3003 BECMG=
200702140500 METAR MROC 140500Z 03004KT CAVOK 20/17 A3002 BECMG=
200702140600 METAR MROC 140600Z 03005KT CAVOK 19/15 A3002 BECMG=
200702140700 METAR MROC NIL=
200702140800 METAR MROC NIL=
200702140900 METAR MROC 140900Z 06005KT CAVOK 17/13 A2997 BECMG=
200702141000 METAR MROC 141000Z 05010KT CAVOK 16/13 A2997 BECMG=
200702141100 METAR MROC 141100Z 08005KT CAVOK 16/12 A2998 BECMG=
200702141200 METAR MROC 141200Z 09004KT CAVOK 16/12 A3000 BECMG=
200702141300 METAR MROC 141300Z 07005KT CAVOK 18/13 A3002 BECMG=
200702141400 METAR MROC 141400Z 08005KT 9999 SKC 23/15 A3004 RMK HZY BECMG=
200702141500 METAR MROC 141500Z 15002KT CAVOK 26/17 A3004 RMK HZY BECMG 24006KT=
200702141600 METAR MROC 141600Z 26005KT CAVOK 27/17 A3003 RMK HZY=
200702141700 METAR MROC 141700Z 24007KT CAVOK 29/16 A3001 RMK HZY BECMG=
200702141800 METAR MROC 141800Z 24006KT 9999 FEW045 30/14 A2998 RMK HZY BECMG=
200702141900 METAR MROC 141900Z 24010KT 9999 SCT045 30/17 A2995 RMK HZY BECMG=
200702142000 METAR MROC 142000Z 24012KT 9999 SCT045 30/19 A2992 RMK HZY BECMG=
200702142100 METAR MROC 142100Z 25012KT 9999 BKN045 29/16 A2991 RMK HZ LGT ARND BECMG=
200702142200 METAR MROC 142200Z 23014KT 9999 BKN040 28/18 A2991 RMK HZ LGT ARND TCU SE BECMG=
200702142300 METAR MROC 142300Z 23010KT 9999 BKN040 26/18 A2993 RMK HZ LGT ARND TCU SE/S BECMG=
200702150000 METAR MROC 150000Z 23008KT 9999 BKN040 25/18 A2995 RMK HZ ARND TCU E BECMG=
200702150100 METAR MROC 150100Z 23004KT 9999 BKN035 23/19 A2998 BECMG=
200702150200 METAR MROC 150200Z 21002KT 9999 BKN030 22/18 A3000 BECMG=
200702150300 METAR MROC 150300Z 09005KT 9999 BKN030 22/18 A3002=
200702150400 METAR MROC 150400Z 10007KT 9999 SCT035 22/18 A3003=
200702150500 METAR MROC 150500Z 08006KT 9999 FEW035 21/17 A3002=
200702150600 METAR MROC 150600Z 09007KT CAVOK 21/17 A3001=
200702150700 METAR MROC 150700Z 06007KT CAVOK 20/16 A3000=
200702150800 METAR MROC 150800Z 04005KT CAVOK 20/16 A2998=
200702150900 METAR MROC 150900Z 06008KT CAVOK 20/16 A2997=
200702151000 METAR MROC NIL=
200702151100 METAR MROC 151100Z 05010KT CAVOK 19/14 A2998=
200702151200 METAR MROC 151200Z 06009KT CAVOK 18/14 A3000=
200702151300 METAR MROC 151300Z 06006KT CAVOK 20/15 A3002 BECMG=
200702151400 METAR MROC 151400Z 09008KT CAVOK 24/14 A3003 RMK HZ LGT ARND BECMG=
200702151500 METAR MROC 151500Z 04003KT CAVOK 27/11 A3004 RMK HZ LGT ARND BECMG 24008KT=
200702151600 METAR MROC 151600Z VRB03KT CAVOK 29/11 A3003 RMK HZ LGT ARND BECMG 24008KT=
200702151700 METAR MROC 151700Z 12006KT CAVOK 30/12 A3001 RMK HZ LGT ARND BECMG=
200702151800 METAR MROC 151800Z 25006KT 9999 FEW040 30/14 A2998 RMK HZ LGT ARND BECMG=
200702151900 METAR MROC 151900Z 26010KT 9999 SCT040 31/15 A2995 RMK HZ LGT ARND BECMG=
200702152000 METAR MROC 152000Z 25012KT 9999 FEW030TCU FEW040 30/17 A2992 RMK HZ LGT ARND TCU DST S BECMG=
200702152100 METAR MROC 152100Z 22012KT 9999 VCSH SCT025TCU SCT035 28/17 A2992 RMK VIS 8000SW VCSH=
200702152200 METAR MROC 152200Z 19006KT 9999 VCSH FEW025 BKN030 23/21 A2994 RMK VIS 7000SW VCSH=
200702152300 METAR MROC 152300Z 15003KT 9999 VCSH FEW015 BKN035 22/20 A2997 RMK VIS 7000SW VCSH HZY=
200702160000 METAR MROC 160000Z 13002KT 9999 BKN035 22/19 A2999 BECMG=
200702160100 METAR MROC 160100Z 25003KT 9999 SCT035 23/18 A3001 BECMG CAVOK=
200702160200 METAR MROC 160200Z 00000KT 9999 FEW035 22/18 A3003=
200702160300 METAR MROC 160300Z 11003KT CAVOK 21/17 A3004=
200702160400 METAR MROC 160400Z 11005KT CAVOK 20/16 A3006 BECMG=
200702160500 METAR MROC 160500Z 08006KT CAVOK 20/14 A3007 BECMG=
200702160600 METAR MROC 160600Z 15002KT CAVOK 18/15 A3006 BECMG=
200702160700 METAR MROC 160700Z 06006KT CAVOK 17/12 A3004=
200702160800 METAR MROC 160800Z 07010KT CAVOK 18/12 A3000=
200702160900 METAR MROC 160900Z 06010KT CAVOK 17/09 A3000=
200702161000 METAR MROC 161000Z 02006KT CAVOK 18/08 A3001=
200702161100 METAR MROC 161100Z 06007KT CAVOK 18/08 A3002=
200702161200 METAR MROC 161200Z 07005KT CAVOK 16/07 A3004=
200702161300 METAR MROC 161300Z 06011KT CAVOK 19/08 A3006 RMK HZ SW=
200702161400 METAR MROC 161400Z 10011KT CAVOK 24/09 A3007 BECMG=
200702161500 METAR MROC 161500Z 10010KT CAVOK 26/04 A3007=
200702161600 METAR MROC 161600Z 09010KT CAVOK 28/06 A3008=
200702161700 METAR MROC 161700Z 09006KT CAVOK 29/05 A3004=
200702161800 METAR MROC 161800Z 10005KT CAVOK 32/04 A3000=
200702161900 METAR MROC 161900Z 19005KT CAVOK 32/05 A2997=
200702162000 METAR MROC 162000Z 23014KT CAVOK 31/10 A2994 BECMG=
200702162100 METAR MROC 162100Z 23011KT 9999 FEW030 SCT250 30/14 A2993 BECMG=
200702162200 METAR MROC 162200Z 21007G14KT 9999 FEW030 SCT250 28/15 A2993 BECMG=
200702162300 METAR MROC 162300Z 20003KT 9999 FEW030 SCT250 26/15 A2995 BECMG=
200702170000 METAR MROC 170000Z 17004KT CAVOK 24/14 A2997 BECMG=
200702170100 METAR MROC 170100Z 10007KT CAVOK 22/15 A3000 BECMG=
200702170200 METAR MROC 170200Z 10006KT CAVOK 21/14 A3003 BECMG=
200702170300 METAR MROC 170300Z 34003KT CAVOK 21/14 A3007 BECMG=
200702170400 METAR MROC 170400Z 02002KT 9999 FEW030 20/14 A3008 BECMG=
200702170500 METAR MROC 170500Z 09005KT 9999 FEW030 20/15 A3007 BECMG=
200702170600 METAR MROC 170600Z 08008KT CAVOK 20/15 A3006 BECMG=
200702170700 METAR MROC 170700Z 08006KT CAVOK 19/14 A3005 BECMG=
200702170800 METAR MROC 170800Z 05008KT CAVOK 18/14 A3002 RMK CB/LTNG DST S BECMG=
200702170900 METAR MROC 170900Z 07007KT CAVOK 19/13 A3001=
200702171000 METAR MROC 171000Z 10011KT CAVOK 19/13 A3001 BECMG=
200702171100 METAR MROC 171100Z 03006KT CAVOK 17/11 A3003 BECMG=
200702171200 METAR MROC 171200Z 02009KT CAVOK 18/11 A3004 RMK TCU DST S BECMG=
200702171300 METAR MROC 171300Z 36007KT CAVOK 19/10 A3006 BECMG=
200702171400 METAR MROC 171400Z 09011G21KT CAVOK 24/10 A3006 BECMG=
200702171500 METAR MROC 171500Z 10015G28KT CAVOK 26/11 A3007 BECMG=
200702171600 METAR MROC 171600Z 09012G22KT 9999 FEW040 SCT300 27/11 A3007 BECMG=
200702171700 METAR MROC 171700Z 07010KT 9999 FEW035 SCT300 28/11 A3005 BECMG=
200702171800 METAR MROC 171800Z 10009KT 9999 FEW035 SCT300 28/12 A3003 BECMG=
200702171900 METAR MROC 171900Z 09009KT 9999 FEW035 SCT300 29/12 A3000 BECMG=
200702172000 METAR MROC 172000Z 11011KT 9999 FEW030 28/12 A2998=
200702172100 METAR MROC 172100Z 10015KT 9999 SCT030 28/13 A2995=
200702172200 METAR MROC 172200Z 11018KT 9999 SCT030 26/14 A2995=
200702172300 METAR MROC 172300Z 10018KT 9999 SCT030 24/13 A2996=
200702180000 METAR MROC 180000Z 10013KT 9999 FEW030 23/14 A2998=
200702180100 METAR MROC 180100Z 10010KT 9999 FEW035 22/15 A3001 BECMG=
200702180200 METAR MROC 180200Z 09014KT CAVOK 22/15 A3003 BECMG=
200702180300 METAR MROC 180300Z 10015KT CAVOK 21/14 A3006 BECMG=
200702180400 METAR MROC 180400Z 11016KT CAVOK 21/14 A3006 BECMG=
200702180500 METAR MROC 180500Z 10015KT CAVOK 21/14 A3006 BECMG=
200702180600 METAR MROC 180600Z 10013KT CAVOK 20/14 A3005 BECMG=
200702180700 METAR MROC 180700Z 09010KT CAVOK 20/13 A3003 BECMG=
200702180800 METAR MROC 180800Z 10012KT CAVOK 20/12 A3002 BECMG=
200702180900 METAR MROC 180900Z 10013KT CAVOK 20/12 A3001 BECMG=
200702181000 METAR MROC 181000Z 10015KT CAVOK 20/11 A3001 BECMG=
200702181100 METAR MROC 181100Z 11014KT CAVOK 20/11 A3002 BECMG=
200702181200 METAR MROC 181200Z 10013KT CAVOK 20/11 A3004 BECMG=
200702181300 METAR MROC 181300Z 10011KT CAVOK 22/11 A3006=
200702181400 METAR MROC 181400Z 09013KT CAVOK 15/09 A3008=
200702181500 METAR MROC 181500Z 09018KT CAVOK 27/08 A3009=
200702181600 METAR MROC 181600Z 08018KT CAVOK 28/09 A3009=
200702181700 METAR MROC 181700Z 06024KT CAVOK 28/12 A3007=
200702181800 METAR MROC 181800Z 08017KT 9999 FEW040 SCT300 27/13 A3006=
200702181900 METAR MROC 181900Z 10021KT 9999 FEW040 SCT300 27/13 A3003=
200702182000 METAR MROC 182000Z 08019KT 9999 FEW035 SCT300 28/13 A3000=
200702182100 METAR MROC 182100Z 09018G28KT 9999 SCT030 SCT300 27/13 A2999 BECMG=
200702182200 METAR MROC 182200Z 04016G26KT 9999 SCT030 SCT300 25/15 A3001 RMK RASH DST ENE BECMG=
200702182300 METAR MROC 182300Z 06020G31KT 9999 VCSH FEW025 BKN070 23/15 A3002 RMK VIS N NE 8KMS BECMG -DZRA=
200702190000 METAR MROC 190000Z 08011KT 9999 FEW025 BKN040 22/16 A3004 RMK RN DIST N/E QUADS BECMG=
200702190100 METAR MROC 190100Z 08006KT 9999 FEW030 SCT040 21/16 A3007 BECMG=
200702190200 METAR MROC 190200Z 10006KT 9999 FEW030 21/15 A3008=
200702190300 METAR MROC 190300Z 09009KT 9999 FEW030 20/15 A3010 BECMG=
200702190400 METAR MROC 190400Z 08005KT 9999 FEW030 20/15 A3011 BECMG=
200702190500 METAR MROC 190500Z 09010KT 9999 FEW030 19/15 A3009 BECMG=
200702190600 METAR MROC 190600Z 08012G22KT 9999 FEW035 19/14 A3008 BECMG=
200702190700 METAR MROC 190700Z 09011KT 9999 FEW035 19/15 A3006 BECMG=
200702190800 METAR MROC NIL=
200702190900 METAR MROC 190900Z 02009KT 9999 FEW035 SCT120 19/15 A3003=
200702191000 METAR MROC 191000Z 02007KT 9999 FEW035 SCT120 17/14 A3004=
200702191100 METAR MROC 191100Z 36008KT 9999 FEW030 18/15 A3004=
200702191200 METAR MROC 191200Z 06010KT 9999 FEW030 SCT120 19/14 A3004 BECMG=
200702191300 METAR MROC 191300Z 07015G25KT 9999 SCT030 SCT300 20/14 A3006 RMK PCPN DST NW N NE BECMG=
200702191400 METAR MROC 191400Z 09015KT 9999 FEW030 22/15 A3007 RMK PCPN DST ALL N QUAD=
200702191500 METAR MROC 191500Z 07019G30KT 9999 FEW030 24/15 A3008 RMK PCPN DIST N QUAD BECMG=
200702191600 METAR MROC 191600Z 08015G25KT 9999 FEW040 26/15 A3006 RMK PCPN DST N QUAD BECMG=
200702191700 METAR MROC 191700Z 08015G25KT 9999 FEW040 26/15 A3006 RMK PCPN DST N QUAD BECMG=
200702191800 METAR MROC 191800Z 08021G33KT 9999 FEW035 25/15 A3004 RMK PCPN DIST N QD BECMG=
200702191900 METAR MROC 191900Z 06020G30KT SCT030 26/14 A3002 RMK PCPN DST N QD BECMG=
200702192000 METAR MROC 192000Z 05024KT 9999 SCT035 25/14 A3002 RMK RFGS 30KT PCPN DST N QUAD=
200702192100 METAR MROC 192100Z 06018G28KT 9999 SCT035 25/14 A2998 RMK DZ DST NE/E BECMG=
200702192200 METAR MROC 192200Z 07017KT 9999 SCT035 24/14 A2999 RMK DZ DST NE/E RAFAGAS DE 26KT BECMG=
200702192300 METAR MROC 192300Z 09011KT 9999 SCT035 22/15 A3000 RMK RN DST N/NE/E BECMG=
200702200000 METAR MROC 200000Z 06016G26KT 9999 FEW035 21/14 A3001 RMK RN DST N/NE/E BECMG=
200702200100 METAR MROC 200100Z 08013KT 9999 SCT030 20/15 A3003 RMK RN DST N/NE/E RAFAGAS DE 21KT BECMG=
200702200200 METAR MROC 200200Z 07013KT 9999 SCT030 20/14 A3005 RMK RN DST NE/E BECMG=
200702200300 METAR MROC 200300Z 08012KT 9999 SCT030 20/15 A3006=
200702200400 METAR MROC 200400Z 10017KT 9999 FEW030 19/15 A3005=
200702200500 METAR MROC 200500Z 10015KT 9999 FEW030 19/15 A3003=
200702200600 METAR MROC 200600Z 10018KT CAVOK 20/15 A3002=
200702200700 METAR MROC 200700Z 11017KT CAVOK 19/15 A3000=
200702200800 METAR MROC 200800Z 10003KT CAVOK 21/17 A2987 BECMG=
200702200900 METAR MROC 200900Z 10020KT CAVOK 20/15 A2997=
200702201000 METAR MROC 201000Z 10016KT CAVOK 20/15 A2997=
200702201100 METAR MROC 201100Z 09013KT CAVOK 21/15 A2999=
200702201200 METAR MROC 201200Z 10014KT 9999 FEW040 SCT300 20/15 A3000=
200702201300 METAR MROC 201300Z 10013KT 9999 FEW035 SCT300 21/15 A3002 RMK DZ DST N/NE/E BECMG=
200702201400 METAR MROC 201400Z 10013KT 9999 FEW030 SCT300 23/15 A3003 RMK DZ N/NE/E BECMG=
200702201500 METAR MROC 201500Z 10015KT 9999 FEW030 SCT300 25/16 A3005 RMK DZ DST N/NE/E RAFAGAS 23KT BECMG=
200702201600 METAR MROC 201600Z 09015KT 9999 FEW035 SCT300 26/16 A3006 RMK DZ DST N/NE/E RAFAGAS DE 23KT BECMG=
200702201700 METAR MROC 201700Z 10018KT 9999 SCT035 SCT300 26/16 A3002 RMK DZ DST N/NE/E RAFAGAS DE 24KT BECMG=
200702201800 METAR MROC 201800Z 10015KT 9999 BKN035 24/16 A3001 RMK DZ DST N/NE/E RAFAGAS DE 21KT=
200702201900 METAR MROC 201900Z 10014KT 9999 BKN035 25/16 A2999 RMK DZ DST N/NE/E RAFAGAS DE 21KT BECMG=
200702202000 METAR MROC 202000Z 09012KT 9999 BKN035 25/16 A2998 RMK DZ DST N/NE/E BECMG=
200702202100 METAR MROC 202100Z 10013KT 9999 BKN040 27/16 A2994 RMK DZ N NE BECMG=
200702202200 METAR MROC 202200Z 10012G22KT 9999 BKN040 26/16 A2993 DZ N NE BECMG=
200702202300 METAR MROC 202300Z 10013KT 9999 BKN040 23/17 A2995 DZ N NE BECMG=
200702210000 METAR MROC 210000Z 09013KT 9999 BKN040 23/16 A2995 DZ N NE BECMG=
200702210100 METAR MROC 210100Z 09012KT 9999 SCT035 23/16 A2998=
200702210200 METAR MROC 210200Z 10015KT 9999 FEW035 21/16 A2999 BECMG CAVOK=
200702210300 METAR MROC 210300Z 07013KT CAVOK 21/15 A3000 BECMG=
200702210400 METAR MROC 210400Z 10010KT CAVOK 20/15 A3002 BECMG=
200702210500 METAR MROC 210500Z 11012KT CAVOK 20/14 A3002 BECMG=
200702210600 METAR MROC 210600Z 09011KT CAVOK 20/14 A3002 BECMG=
200702210700 METAR MROC 210700Z 08011KT CAVOK 20/14 A3001 BECMG=
200702210800 METAR MROC 210800Z 10012KT CAVOK 20/13 A2998=
200702210900 METAR MROC 210900Z 10016KT CAVOK 20/13 A2996=
200702211000 METAR MROC 211000Z 09013KT CAVOK 19/13 A2997=
200702211100 METAR MROC 211100Z 10012KT 9999 SKC 19/13 A2997=
200702211200 METAR MROC 211200Z 10013KT CAVOK 19/13 A2999 RMK BKN300 RFGS 18KT=
200702211300 METAR MROC 211300Z 10012KT CAVOK 21/13 A3000 SCT300 BECMG=
200702211400 METAR MROC 211400Z 10014KT CAVOK 24/13 A3000 SCT300 GTS 21KT BECMG=
200702211500 METAR MROC 211500Z 09015KT CAVOK 26/13 A3002 SCT300 BECMG=
200702211600 METAR MROC 211600Z 10014KT CAVOK 27/12 A3002 SCT300 BECMG=
200702211700 METAR MROC 211700Z 08013KT CAVOK 28/11 A3000 BECMG=
200702211800 METAR MROC 211800Z 08013KT CAVOK 28/11 A3000 BECMG=
200702211900 METAR MROC 211900Z 08012KT 9999 FEW040 30/11 A2996 BECMG=
200702212000 METAR MROC 212000Z 08012KT 9999 FEW040 29/10 A2994 BECMG=
200702212100 METAR MROC 212100Z 07011G21KT 9999 FEW040 29/10 A2992 BECMG=
200702212200 METAR MROC 212200Z 05015G27KT 9999 FEW040 29/11 A2992 BECMG=
200702212300 METAR MROC 212300Z 06013G24KT 9999 FEW040 27/11 A2993 BECMG=
200702220000 METAR MROC 220000Z 07010KT 9999 FEW035 24/12 A2995 BECMG=
200702220100 METAR MROC 220100Z 07011KT CAVOK 23/12 A2997=
200702220200 METAR MROC 220200Z 08011KT CAVOK 22/12 A2999=
200702220300 METAR MROC 220300Z 07008KT CAVOK 21/12 A3001=
200702220400 METAR MROC 220400Z 10008KT CAVOK 20/14 A3002 BECMG=
200702220500 METAR MROC 220500Z 10008KT CAVOK 19/14 A3002 BECMG=
200702220600 METAR MROC 220600Z 10013KT CAVOK 20/14 A3000 BECMG=
200702220700 METAR MROC 220700Z 09010KT CAVOK 20/14 A2998 BECMG=
200702220800 METAR MROC 220800Z 08014KT CAVOK 20/14 A2996 BECMG=
200702220900 METAR MROC 220900Z 10015KT CAVOK 20/14 A2995 RMK RAFAGAS DE 23KT BECMG=
200702221000 METAR MROC 221000Z 08010KT CAVOK 20/14 A2995 BECMG=
200702221100 METAR MROC 221100Z 08015KT CAVOK 20/14 A2996 BECMG=
200702221200 METAR MROC 221200Z 08016KT CAVOK 20/14 A2997 RMK RAFAGAS DE 21KT DZ DST NE/E BECMG=
200702221300 METAR MROC 221300Z 08015G28KT CAVOK 22/13 A2999 BECMG=
200702221400 METAR MROC 221400Z 09016G30KT CAVOK 24/12 A3002 BECMG=
200702221500 METAR MROC 221500Z 07020G36KT CAVOK 26/10 A3001 BECMG=
200702221600 METAR MROC 221600Z 08017G32KT 9999 NCS 27/10 A3001 BECMG=
200702221700 METAR MROC 221700Z 08013G25KT CAVOK 29/10 A2999 BECMG=
200702221800 METAR MROC 221800Z 08017G32KT CAVOK 29/11 A2996 BECMG=
200702221900 METAR MROC 221900Z 09018G32KT CAVOK 30/10 A2992 BECMG=
200702222000 METAR MROC 222000Z 07016G31KT CAVOK 30/10 A2991 BECMG=
200702222100 METAR MROC 222100Z 06023KT CAVOK 28/12 A2990=
200702222200 METAR MROC 222200Z 05021KT 9999 FEW040 27/13 A2990=
200702230400 METAR MROC 230400Z 07014KT CAVOK 21/13 A2999 BECMG=
200702230500 METAR MROC 230500Z 07017KT CAVOK 21/13 A2998 BECMG=
200702230600 METAR MROC 230600Z 09010KT CAVOK 20/13 A2997 BECMG=
200702230700 METAR MROC 230700Z 09013KT CAVOK 20/12 A2995 BECMG=
200702230800 METAR MROC 230800Z 10013KT CAVOK 20/12 A2993 BECMG=
200702230900 METAR MROC 230900Z 07014KT CAVOK 20/13 A2993 BECMG=
200702231000 METAR MROC 231000Z 09016KT CAVOK 20/13 A2992 BECMG=
200702231100 METAR MROC 231100Z 09015KT CAVOK 20/13 A2992 BECMG=
200702231200 METAR MROC 231200Z 09016KT CAVOK 20/13 A2992 BECMG=
200702231300 METAR MROC 231300Z 09017KT CAVOK 21/12 A2997=
200702231400 METAR MROC 231400Z 10016KT CAVOK 23/12 A2998 RMK BKN300=
200702231500 METAR MROC 231500Z 10017KT CAVOK 24/13 A3000=
200702231600 METAR MROC 231600Z 07013KT CAVOK 27/14 A3000=
200702231700 METAR MROC 231700Z 08014KT 9999 FEW040 27/14 A2998=
200702231800 METAR MROC 231800Z 05019KT 9999 FEW040 28/14 A2996=
200702231900 METAR MROC 231900Z 10012KT 9999 FEW040 29/13 A2993=
200702232000 METAR MROC 232000Z 07015KT 9999 FEW035 29/13 A2991=
200702232100 METAR MROC 232100Z 09013KT 9999 FEW040 29/13 A2989 BECMG RMK LGT HZ ARND=
200702232200 METAR MROC 232200Z 01010KT 9999 FEW040 28/13 A2988 RMK HZY BECMG=
200702232300 METAR MROC 232300Z 10011KT 9999 FEW035 26/14 A2990 RMK HZY BECMG=
200702240000 METAR MROC 240000Z 10008KT 9999 FEW035 23/14 A2992 RMK HZY BECMG=
200702240100 METAR MROC 240100Z 10011KT 9999 FEW040 21/15 A2994 BECMG=
200702240200 METAR MROC 240200Z 07011KT CAVOK 21/14 A2997 BECMG=
200702240300 METAR MROC 240300Z 08007KT CAVOK 20/14 A2999 BECMG=
200702240400 METAR MROC 240400Z 11010KT CAVOK 20/14 A2998 BECMG=
200702240500 METAR MROC 240500Z 09012G23KT CAVOK 20/13 A2998 BECMG=
200702240600 METAR MROC 240600Z 09011G21KT CAVOK 20/10 A2996 BECMG=
200702240700 METAR MROC 240700Z 09013G24KT CAVOK 20/11 A2994 BECMG=
200702240800 METAR MROC NIL=
200702240900 METAR MROC 240900Z 06007KT CAVOK 19/12 A2993 BECMG=
200702241000 METAR MROC 241000Z 10012G23KT CAVOK 19/13 A2992 BECMG=
200702241100 METAR MROC 241100Z 08006KT CAVOK 19/12 A2994 BECMG=
200702241200 METAR MROC 241200Z 04011G21KT 9999 SKC 18/12 A2996 BECMG=
200702241300 METAR MROC 241300Z 05006KT CAVOK 20/11 A2998 BECMG=
200702241400 METAR MROC 241400Z 10015KT CAVOK 22/12 A2999 BECMG=
200702241500 METAR MROC 241500Z 10015G25KT CAVOK 24/12 A2999 BECMG=
200702241600 METAR MROC 241600Z 09014KT CAVOK 26/12 A2999 BECMG=
200702241700 METAR MROC 241700Z 09013KT CAVOK 27/13 A2998 BECMG=
200702241800 METAR MROC 241800Z 09010KT 9999 FEW045 29/13 A2996 BECMG=
200702241900 METAR MROC 241900Z 10012KT 9999 FEW040 29/14 A2993 RMK HZ LGT ARND BECMG=
200702242000 METAR MROC 242000Z 11013KT 9999 FEW035 29/14 A2990 RMK LGT HZ ARND BECMG=
200702242100 METAR MROC 242100Z 10013KT 9999 FEW035 28/14 A2987 BECMG=
200702242200 METAR MROC 242200Z 10012KT 9999 FEW035 28/15 A2988 BECMG=
200702242300 METAR MROC 242300Z 09013KT 9999 FEW035 25/16 A2990 BECMG=
200702250000 METAR MROC 250000Z 09010KT CAVOK 23/15 A2991 RMK HZ LGT S/SW BECMG=
200702250100 METAR MROC 250100Z 09011KT CAVOK 22/15 A2994 BECMG=
200702250200 METAR MROC 250200Z 08010KT CAVOK 21/15 A2997 BECMG=
200702250300 METAR MROC 250300Z 09008KT CAVOK 21/15 A2998=
200702250400 METAR MROC 250400Z 08011KT CAVOK 20/14 A2998=
200702250500 METAR MROC 250500Z 09013KT 9999 VSC 21/14 A2997=
200702250600 METAR MROC 250600Z 05009KT CAVOK 20/14 A2996=
200702250700 METAR MROC 250700Z 09009KT CAVOK 21/14 A2993=
200702250800 METAR MROC 250800Z 06011KT CAVOK 20/14 A2992=
200702250900 METAR MROC 250900Z 06011KT CAVOK 20/14 A2992=
200702251000 METAR MROC 251000Z 07006KT CAVOK 19/14 A2993=
200702251100 METAR MROC 251100Z 07007KT CAVOK 19/13 A2995=
200702251200 METAR MROC 251200Z 06008KT 9999 SNC 17/13 A2997=
200702251300 METAR MROC 251300Z 08007KT CAVOK 21/14 A2999 BECMG=
200702251400 METAR MROC 251400Z 09008KT CAVOK 24/14 A3001 BECMG=
200702251500 METAR MROC 251500Z 09009KT 9999 SKC 26/14 A3001 BECMG=
200702251600 METAR MROC 251600Z 10007KT CAVOK 29/13 A3000 BECMG=
200702251700 METAR MROC 251700Z 16002KT CAVOK 31/13 A2997 BECMG=
200702251800 METAR MROC 251800Z 25010KT CAVOK 31/14 A2993 BECMG FEW040=
200702251900 METAR MROC 251900Z 23009KT 9999 FEW035 31/16 A2990 BECMG=
200702252000 METAR MROC 252000Z 24013KT 9999 FEW035 29/18 A2988 BECMG=
200702252100 METAR MROC 252100Z 24010KT 9999 SCT035 29/19 A2987 BECMG=
200702252200 METAR MROC 252200Z 25010KT 9999 FEW035 28/18 A2987 BECMG=
200702252300 METAR MROC 252300Z 22005KT 9999 FEW035 26/18 A2989=
200702260000 METAR MROC 260000Z 12004KT 9999 FEW030 24/17 A2991 BECMG=
200702260100 METAR MROC 260100Z 10010KT 9999 FEW030 23/16 A2992 BECMG=
200702260200 METAR MROC 260200Z 09010KT CAVOK 22/17 A2994 BECMG=
200702260300 METAR MROC 260300Z 09006KT CAVOK 22/16 A2995 BECMG=
200702260400 METAR MROC 260400Z 08013KT CAVOK 22/16 A2996 BECMG=
200702260500 METAR MROC 260500Z 08008KT CAVOK 22/15 A2996 BECMG=
200702260600 METAR MROC 260600Z 04007KT CAVOK 21/15 A2996 BECMG=
200702260700 METAR MROC 260700Z 06009KT CAVOK 20/15 A2994=
200702260800 METAR MROC 260800Z 05010KT CAVOK 20/15 A2992=
200702260900 METAR MROC 260900Z 06010KT CAVOK 20/14 A2991=
200702261000 METAR MROC 261000Z 05007KT 9999 SKC 20/12 A2991=
200702261100 METAR MROC 261100Z 07007KT 9999 SKC 20/11 A2993=
200702261200 METAR MROC 261200Z 06008KT CAVOK 19/12 A2994=
200702261300 METAR MROC 261300Z 03005KT CAVOK 21/13 A2997 BECMG=
200702261400 METAR MROC 261400Z 10014KT CAVOK 24/13 A2996=
200702261500 METAR MROC 261500Z 11011KT CAVOK 28/13 A2997 BECMG=
200702261600 METAR MROC 261600Z 11013KT CAVOK 29/14 A2997 BECMG=
200702261700 METAR MROC 261700Z 10012KT CAVOK 30/13 A2995 BECMG=
200702261800 METAR MROC 261800Z 13012KT CAVOK 30/14 A2993 BECMG=
200702261900 METAR MROC 261900Z 13010KT CAVOK 30/14 A2991 BECMG=
200702262000 METAR MROC 262000Z 12010KT CAVOK 30/14 A2989 BECMG=
200702262100 METAR MROC 262100Z 11007KT 9999 FEW035 30/15 A2987 BECMG=
200702262200 METAR MROC 262200Z 10007KT 9999 FEW035 29/15 A2987 BECMG RMK HZ ARND=
200702262300 METAR MROC 262300Z 09009KT 9999 FEW035 27/15 A2988 RMK HZ ARND=
200702270000 METAR MROC 270000Z 09010KT CAVOK 25/15 A2990 BECMG=
200702270100 METAR MROC 270100Z 08012KT CAVOK 24/14 A2991=
200702270200 METAR MROC 270200Z 10014KT CAVOK 23/16 A2993=
200702270300 METAR MROC 270300Z 09012KT CAVOK 23/15 A2994 BECMG=
200702270400 METAR MROC 270400Z 10014KT CAVOK 23/15 A2994 BECMG=
200702270500 METAR MROC 270500Z 10012KT CAVOK 22/15 A2993 BECMG=
200702270600 METAR MROC 270600Z 36002KT CAVOK 22/14 A2994 BECMG=
200702270700 METAR MROC 270700Z VRB03KT CAVOK 21/14 A2991 BECMG=
200702270800 METAR MROC 270800Z 09009KT CAVOK 22/16 A2989 BECMG=
200702270900 METAR MROC 270900Z 11015KT CAVOK 22/16 A2987 BECMG=
200702271000 METAR MROC 271000Z 01503KT CAVOK 21/15 A2989 BECMG=
200702271100 METAR MROC 271100Z 01506KT CAVOK 20/15 A2989 BECMG=
200702271200 METAR MROC 271200Z 09008KT CAVOK 22/16 A2991 BECMG=
200702271300 METAR MROC 271300Z 05003KT CAVOK 23/16 A2993 RMK HZ ARND=
200702271400 METAR MROC 271400Z 10013G24KT CAVOK 26/16 A2993 RMK HZ ARND=
200702271500 METAR MROC 271500Z 09011KT CAVOK 28/16 A2994 BECMG RMK HZ ARND=
200702271600 METAR MROC 271600Z 09012G23KT CAVOK 30/15 A2994 BECMG RMK HZ ARND=
200702271700 METAR MROC 271700Z 11008KT CAVOK 30/15 A2993 BECMG RMK LGT HZ ARND=
200702271800 METAR MROC 271800Z 09010KT 9999 FEW040 31/16 A2991 BECMG RMK LGT HZ ARND=
200702271900 METAR MROC 271900Z 10012G23KT 9999 FEW040 31/16 A2987 BECMG RMK LGT HZ ARND=
200702272000 METAR MROC 272000Z 10010KT 9999 SCT040 31/15 A2985 BECMG RMK LGT HZ ARND=
200702272100 METAR MROC 272100Z 16005KT 9999 SCT035 29/20 A2984 BECMG0 24008KT=
200702272200 METAR MROC 272200Z 20008KT 9999 SCT035 29/19 A2984=
200702272300 METAR MROC 272300Z 23011KT 9999 FEW035 26/19 A2985=
200702280000 METAR MROC 280000Z 24009KT CAVOK 24/19 A2988 RMK TRACE SC HZ W=
200702280100 METAR MROC NIL=
200702280200 METAR MROC 280200Z 13002KT CAVOK 22/18 A2992=
200702280300 METAR MROC 280300Z 00000KT CAVOK 21/17 A2992 BECMG=
200702280400 METAR MROC 280400Z 00000KT CAVOK 21/17 A2992 BECMG=
200702280500 METAR MROC 280500Z 09006KT CAVOK 22/18 A2992 BECMG=
200702280600 METAR MROC 280600Z 31005KT CAVOK 21/17 A2991 BECMG=
200702280700 METAR MROC 280700Z 01003KT CAVOK 22/17 A2988 BECMG=
200702280800 METAR MROC 280800Z 10003KT CAVOK 21/17 A2987 BECMG=
200702280900 METAR MROC 280900Z 09004KT CAVOK 20/15 A2986=
200702281000 METAR MROC 281000Z 05005KT CAVOK 20/16 A2986 BECMG=
200702281100 METAR MROC 281100Z 09008KT CAVOK 22/17 A2987 BECMG=
200702281200 METAR MROC 281200Z 10012KT CAVOK 22/17 A2988 HZY BECMG=
200702281300 METAR MROC 281300Z 10013KT 9999 FEW040 23/17 A2990 RMK HZ ARND=
200702281400 METAR MROC 281400Z 11020KT 9999 FEW040 25/17 A2991 RMK HZ W=
200702281500 METAR MROC 281500Z 08013KT 9999 FEW040 28/17 A2992 RMK HZ W=
200702281600 METAR MROC NIL=
200702281700 METAR MROC 281700Z 09014KT 9999 SCT035 31/15 A2989 RMK HZ ARND=
200702281800 METAR MROC 281800Z 08007KT 9999 SCT035 32/15 A2987 RMK HZ ARND=
200702281900 METAR MROC 281900Z 06010KT 9999 SCT030 32/16 A2984 RMK HZ ARND=
200702282000 METAR MROC NIL=
200702282100 METAR MROC NIL=
200703010000 METAR MROC NIL=
200703010100 METAR MROC NIL=
200703010200 METAR MROC NIL=
200703010300 METAR MROC 010300Z 11013G24KT CAVOK 24/17 A2988 BECMG=
200703010400 METAR MROC 010400Z 10010KT CAVOK 23/17 A2990 BECMG=
200703010500 METAR MROC NIL=
200703010600 METAR MROC NIL=
200703010700 METAR MROC NIL=
200703010800 METAR MROC NIL=
200703010900 METAR MROC 010900Z 01006KT CAVOK 20/15 A2986 BECMG=
200703011100 METAR MROC 011100Z 08005KT CAVOK 21/17 A2986 BECMG=
200703011200 METAR MROC 011200Z 10010KT CAVOK 22/17 A2987 BECMG=
200703011300 METAR MROC 011300Z 10010KT CAVOK 23/17 A2989 RMK LG HZ ARND TRACE SC=
200703011400 METAR MROC 011400Z 11013KT 9999 FEW025 25/17 A2989 RMK HZY BECMG=
200703011500 METAR MROC 011500Z 10017KT 9999 FEW035 26/17 A2990 RMK HZY BECMG=
200703011600 METAR MROC 011600Z 08012KT 9999 FEW035 29/15 A2990 RMK HZY BECMG=
200703011700 METAR MROC 011700Z 09014KT CAVOK 29/16 A2988 RMK TRACE OF CU HZY BECMG=
200703011800 METAR MROC 011800Z 10013KT 9999 FEW045 30/16 A2985 RMK HZY BECMG=
200703011900 METAR MROC NIL=
200703012000 METAR MROC 012000Z 09012KT 9999 FEW040 30/16 A2979 RMK HZY BECMG=
200703012100 METAR MROC NIL=
200703012200 METAR MROC 012200Z 11008KT 9999 SCT040 29/17 A2977 RMK TCU DST SW BECMG=
200703012300 METAR MROC 012300Z 11509KT 9999 FEW035 28/16 A2979 RMK CB DST S TCU DST SW FEWAC BECMG=
200703020000 METAR MROC 020000Z 11010KT 9999 FEW035 SCT300 24/18 A2982 RMK CB DST S HZ SW/W BECMG=
200703020100 METAR MROC 020100Z 12007KT 9999 SCT030 24/18 A2984 RMK 2CI300 BECMG=
200703020200 METAR MROC 020200Z 10008KT 9999 FEW030 23/18 A2988 RMK 1CI300 BECMG=
200703020300 METAR MROC 020300Z 09007KT 9999 FEW030 23/18 A2990=
200703020400 METAR MROC 020400Z 10008KT 9999 FEW030 23/17 A2989=
200703020500 METAR MROC NIL=
200703020600 METAR MROC 020600Z 10010KT CAVOK 22/18 A2986 RMK TRACE SC=
200703020700 METAR MROC 020700Z 09008KT CAVOK 22/17 A2984 TRACE SCT=
200703020800 METAR MROC 020800Z 07011KT CAVOK 22/17 A2984 TRACE SCT=
200703020900 METAR MROC 020900Z 08007KT CAVOK 22/17 A2985=
200703021000 METAR MROC 021000Z 10012KT CAVOK 20/14 A2990=
200703021100 METAR MROC 021100Z 06007KT CAVOK 21/16 A2986=
200703021200 METAR MROC 021200Z 06011KT CAVOK 21/16 A2987=
200703021300 METAR MROC NIL=
200703021400 METAR MROC NIL=
200703021500 METAR MROC 021500Z 09010KT CAVOK 26/16 A2990 RMK 1CI280 BECMG=
200703021700 METAR MROC 021700Z 10011KT CAVOK 30/14 A2987 BECMG 24009KT 9999 FEW040=
200703021800 METAR MROC 021800Z 10012KT 9999 FEW040 30/14 A2985 BECMG=
200703021900 METAR MROC 021900Z 10013KT 9999 FEW040 30/14 A2983=
200703022000 METAR MROC 022000Z 09013KT 9999 FEW040 30/14 A2980 TCU DST DST S BECMG=
200703022100 METAR MROC 022100Z 10012KT 9999 FEW030 30/15 A2978 BECMG=
200703022200 METAR MROC 022200Z 08011KT 9999 FEW030 29/16 A2978 BECMG=
200703022300 METAR MROC NIL=
200703030000 METAR MROC NIL=
200703030100 METAR MROC NIL=
200703030200 METAR MROC 030200Z 09009KT 9999 FEW030 23/18 A2989=
200703030300 METAR MROC 030300Z 10010KT 9999 FEW035 21/18 A2990 BECMG=
200703030400 METAR MROC 030400Z 09011KT 9999 FEW035 22/18 A2990 BECMG=
200703030500 METAR MROC 030500Z 09007KT CAVOK 22/18 A2991 BECMG=
200703030600 METAR MROC 030600Z 06007KT CAVOK 22/18 A2990 BECMG=
200703030700 METAR MROC 030700Z 07008KT CAVOK 22/17 A2987 RMK TRAZAS SC=
200703030800 METAR MROC 030800Z 08007KT CAVOK 21/17 A2987=
200703030900 METAR MROC 030900Z 05007KT CAVOK 20/16 A2986 RMK TRACE OF SC=
200703031000 METAR MROC 031000Z 10009KT CAVOK 21/17 A2986=
200703031100 METAR MROC NIL=
200703031200 METAR MROC NIL=
200703031300 METAR MROC 031300Z 06008KT 9999 FEW030 23/16 A2992=
200703031400 METAR MROC 031400Z 10014KT CAVOK 25/16 A2992 BECMG=
200703031500 METAR MROC 031500Z 09014KT CAVOK 26/16 A2992 TRACE SCT=
200703031600 METAR MROC 031600Z 10016KT CAVOK 28/15 A2992 TRACE SCT BECMG=
200703031700 METAR MROC 031700Z 09013KT 9999 FEW030 30/15 A2990 BECMG=
200703031800 METAR MROC 031800Z 10010G20KT 9999 FEW035 30/15 A2988 BECMG=
200703031900 METAR MROC 031900Z 09012KT 9999 FEW035 30/15 A2985 BECMG=
200703032000 METAR MROC 032000Z 09011KT 9999 FEW035 30/15 A2994 BECMG=
200703032100 METAR MROC 032100Z 07013KT 9999 FEW035 30/15 A2981 BECMG=
200703032200 METAR MROC 032200Z 08012G22KT 9999 FEW035 SCT280 30/14 A2982 BECMG=
200703032300 METAR MROC 032300Z 08012KT 9999 FEW030 BKN280 27/13 A2983 BECMG=
200703040000 METAR MROC NIL=
200703040100 METAR MROC 040100Z 10010KT 9999 FEW030 SCT250 24/15 A2987 BECMG=
200703040200 METAR MROC 040200Z 08010KT 9999 FEW030 SCT250 24/14 A2990 BECMG=
200703040300 METAR MROC 040300Z 10010KT 9999 FEW030 23/15 A2992 BECMG=
200703040400 METAR MROC 040400Z 09008KT 9999 FEW030 23/14 A2993 BECMG=
200703040500 METAR MROC NIL=
200703040700 METAR MROC NIL=
200703040800 METAR MROC 040800Z 05010KT CAVOK 20/15 A2992 BECMG=
200703040900 METAR MROC 040900Z 04005KT CAVOK 20/15 A2991 RMK 1CI270 BECMG=
200703041000 METAR MROC 041000Z 03007KT CAVOK 20/14 A2993 RMK 1CI270 BECMG=
200703041100 METAR MROC 041100Z 10013KT CAVOK 21/15 A2992 RMK RAFAGAS DE 20KT BECMG=
200703041200 METAR MROC 041200Z 10014KT 9999 FEW030 21/16 A2993 RMK DZ DST N/NE/E RAFAGAS DE 20KT BECMG=
200703041300 METAR MROC 041300Z 10012G22KT CAVOK 23/16 A2996 BECMG=
200703041400 METAR MROC 041400Z 10016G30KT 9999 FEW030 25/16 A2997 BECMG=
200703041500 METAR MROC 041500Z 10016G30KT 9999 FEW030 26/15 A2998 BECMG=
200703041600 METAR MROC 041600Z 09015G28KT 9999 FEW030 28/14 A2999 BECMG=
200703041700 METAR MROC 041700Z 08018G32KT 9999 FEW030 28/13 A2998 BECMG=
200703041800 METAR MROC 041800Z 08018G29KT 9999 FEW035 29/13 A2992 BECMG=
200703041900 METAR MROC 041900Z 09014G26KT 9999 FEW035 29/13 A2994 BECMG=
200703042000 METAR MROC 042000Z 07015G28KT 9999 FEW040 30/15 A2990 BECMG=
200703042100 METAR MROC 042100Z 07012G22KT 9999 FEW035 30/14 A2988 BECMG RMK RN DST NE=
200703042200 METAR MROC 042200Z 09013G24KT 9999 SCT025 BKN100 24/18 A2989 RMK RN DST NE=
200703042300 METAR MROC 042300Z 08013G23KT 9999 SCT030 BKN250 25/17 A2989 RMK RN N NE=
200703050000 METAR MROC 050000Z 10012G22KT 9999 FEW030 SCT250 23/16 A2991 BECMG=
200703050100 METAR MROC NIL=
200703050200 METAR MROC 050200Z 10013KT CAVOK 22/15 A2997=
200703050300 METAR MROC 050300Z 10012KT CAVOK 22/14 A2999 BECMG=
200703050400 METAR MROC 050400Z 09014KT CAVOK 21/15 A3000 SCT280 BECMG=
200703050500 METAR MROC 050500Z 10014KT CAVOK 21/15 A3000 SCT280 BECMG=
200703050600 METAR MROC NIL=
200703050700 METAR MROC 050700Z 10013KT CAVOK 20/15 A2999 BECMG=
200703050800 METAR MROC 050800Z 09014KT CAVOK 20/15 A2998 BECMG=
200703050900 METAR MROC NIL=
200703051000 METAR MROC 051000Z 08014KT CAVOK 20/15 A2996 BECMG=
200703051100 METAR MROC 051100Z 09014KT 9999 FEW030 SCT080 20/16 A2997 BECMG=
200703051200 METAR MROC 051200Z 08016KT 9999 FEW030 20/14 A2999 DZ N NE BECMG=
200703051300 METAR MROC 051300Z 09019KT 9999 FEW030 SCT270 21/11 A3000 RMK DZ N=
200703051400 METAR MROC 051400Z 10021KT 9999 FEW040 SCT270 23/11 A3001 RMK RAFAGAS 22KTS=
200703051500 METAR MROC 051500Z 08020KT CAVOK 25/07 A3002 RMK RAFAGAS 28KTS=
200703051600 METAR MROC 051600Z 08017KT CAVOK 26/05 A3001 RMK SCT250 RAFAGAS 23KTS=
200703051700 METAR MROC 051700Z 07022KT CAVOK 27/17 A3000=
200703051800 METAR MROC 051800Z 07021KT CAVOK 27/06 A2999 RMK FEW270 RAFAGAS 28KT=
200703051900 METAR MROC 051900Z 07020KT 9999 FEW040 28/08 A2997=
200703052000 METAR MROC 052000Z 06025KT 9999 FEW040 28/07 A2994=
200703052100 METAR MROC 052100Z 07019G29KT 9999 FEW045 27/10 A2992 BECMG=
200703052200 METAR MROC 052200Z 06020KT 9999 FEW040 26/13 A2993 BECMG=
200703052300 METAR MROC 052300Z 06020KT 9999 FEW035 24/11 A2994 BECMG=
200703060100 METAR MROC 060100Z 09016KT CAVOK 22/13 A2997=
200703060200 METAR MROC 060200Z 08015KT CAVOK 21/11 A2999=
200703060300 METAR MROC 060300Z 10018G33KT CAVOK 21/12 A3000 BECMG=
200703060400 METAR MROC 060400Z 10017G31KT CAVOK 21/13 A3000 BECMG=
200703060500 METAR MROC 060500Z 09017G31KT CAVOK 20/13 A3001 BECMG=
200703060600 METAR MROC 060600Z 09017G31KT CAVOK 20/14 A2999 BECMG=
200703060700 METAR MROC 060700Z 09017G31KT CAVOK 20/14 A2998 BECMG=
200703060800 METAR MROC 060800Z 09018G25KT CAVOK 19/14 A2995 BECMG=
200703060900 METAR MROC NIL=
200703061000 METAR MROC 061000Z 10016G30KT CAVOK 19/13 A2995 BECMG=
200703061100 METAR MROC 061100Z 10018G34KT CAVOK 19/14 A2992 BECMG=
200703061200 METAR MROC 061200Z 11017G32KT CAVOK 19/13 A2999 BECMG RMK TRACE SC CB DST S=
200703061300 METAR MROC 061300Z 10017G27KT CAVOK 20/14 A3001 RMK FEW250 BECMG=
200703061400 METAR MROC 061400Z 09016KT CAVOK 23/12 A3002 RMK FEW250 RFGS 22KT BECMG=
200703061500 METAR MROC 061500Z 10018G28KT CAVOK 25/10 A3004 RMK TRACE SC BECMG=
200703061600 METAR MROC 061600Z 09018G29KT CAVOK 27/10 A3005 RMK TRACE SC BECMG=
200703061700 METAR MROC 061700Z 09016G27KT CAVOK 28/09 A3003 RMK TACE SC BECMG=
200703061800 METAR MROC 061800Z 07016KT CAVOK 29/10 A3000 RMK TRACE SC BECMG=
200703061900 METAR MROC 061900Z 08014G24KT CAVOK 29/11 A2999 TRACE CU/SC BECMG=
200703062000 METAR MROC 062000Z 06015KT CAVOK 29/10 A2996 TRACE SCT CU CI BECMG=
200703062100 METAR MROC 062100Z 06020KT 9999 FEW035 28/14 A2994 RMK RAFAGAS DE 27KT BECMG=
200703062200 METAR MROC 062200Z 06017KT 9999 FEW035 27/15 A2994 RMK RAFAGAS DE 23KT=
200703062300 METAR MROC 062300Z 08015KT 9999 FEW035 25/13 A2995 RMK RAFAGAS DE 23KT=
200703070000 METAR MROC 070000Z 08011KT 9999 FEW035 23/11 A2997 RMK 1CI270 BECMG=
200703070100 METAR MROC 070100Z 10013KT CAVOK 22/13 A2998 RMK 1CI270 BECMG=
200703070200 METAR MROC 070200Z 09012KT CAVOK 21/14 A3000 RMK 1CI270 BECMG=
200703070300 METAR MROC 070300Z 10015KT CAVOK 22/13 A3002 RMK RAFAGAS 21KT=
200703070400 METAR MROC 070400Z 09014KT CAVOK 21/14 A3003 RMK FEWCI250=
200703070500 METAR MROC 070500Z 10017KT CAVOK 21/15 A3002 RMK FEWCI270=
200703070600 METAR MROC 070600Z 10019KT CAVOK 21/14 A3000 RMK RAFAGAS 23KT FEWCI270=
200703070700 METAR MROC 070700Z 09013KT CAVOK 21/14 A2999 RMK FEWCI270=
200703070800 METAR MROC 070800Z 10018KT CAVOK 21/14 A2998 RMK FEW270=
200703070900 METAR MROC 070900Z 10018KT CAVOK 21/13 A//// RMK FEW270=
200703071000 METAR MROC 071000Z 10018KT CAVOK 20/13 A2996 RMK FEW270=
200703071100 METAR MROC 071100Z 10018KT CAVOK 20/14 A2997 RMK FAFAGAS 26KT FEW250=
200703071200 METAR MROC 071200Z 10014KT CAVOK 20/14 A2999 RMK TRACE SC FEW300=
200703071300 METAR MROC 071300Z 10017KT CAVOK 21/14 A3001 RMK 1CI270 BECMG=
200703071400 METAR MROC 071400Z 10018KT CAVOK 23/13 A3001 RMK RAFAGAS DE 24KT 1CI270 BECMG=
200703071500 METAR MROC 071500Z 09017KT CAVOK 25/13 A3003 RMK RAFAGAS DE 23KT BECMG=
200703071600 METAR MROC 071600Z 09018KT 9999 FEW035 26/13 A3003 RMK RAFAGAS DE 26KT=
200703071700 METAR MROC 071700Z 08014KT 9999 FEW035 28/13 A3001 RMK RAFAGAS DE 22KT BECMG=
200703071800 METAR MROC 071800Z 08012KT 9999 FEW035 29/13 A2999 RMK RAFAGAS DE 20KT BECMG=
200703071900 METAR MROC 071900Z 09015KT 9999 FEW035 29/14 A2997 RMK RAFAGAS DE 20KT BECMG=
200703072000 METAR MROC 072000Z 08014KT 9999 FEW035 29/14 A2994 RMK RAFAGAS DE 21KT TCU DST S BECMG=
200703072100 METAR MROC 072100Z 09013KT 9999 FEW040 28/15 A2992 CB DST S BECMG=
200703072200 METAR MROC 072200Z 10014KT 9999 FEW040 27/16 A2993 CB DST S BECMG=
200703072300 METAR MROC 072300Z 09011KT 9999 FEW040 SCT120 25/16 A2994 BECMG=
200703080000 METAR MROC 080000Z 09008KT 9999 FEW035 SCT290 23/16 A2996 BECMG=
200703080100 METAR MROC 080100Z 10012KT 9999 FEW030 SCT270 22/17 A2997 BECMG=
200703080200 METAR MROC 080200Z 07008KT 9999 FEW030 21/16 A3000 BECMG TRACE AC=
200703080300 METAR MROC 080300Z 08009KT 9999 FEW030 21/16 A3001 BECMG=
200703080400 METAR MROC 080400Z 08010KT 9999 FEW030 21/16 A3001 BECMG=
200703080500 METAR MROC 080500Z 06007KT 9999 FEW030 21/15 A3002 BECMG=
200703080600 METAR MROC 080600Z 06010KT 9999 FEW030 20/16 A3001 BECMG=
200703080700 METAR MROC 080700Z 10014KT 9999 FEW030 20/16 A2998 BECMG=
200703080800 METAR MROC 080800Z 10014KT 9999 FEW030 20/16 A2996=
200703080900 METAR MROC 080900Z 10014KT 9999 FEW030 21/16 A2996=
200703081000 METAR MROC 081000Z 09012KT 9999 FEW030 21/15 A2996=
200703081100 METAR MROC 081100Z 09007KT 9999 FEW030 20/15 A2997=
200703081200 METAR MROC 081200Z 07008KT 9999 FEW030 SCT250 20/15 A2999 BECMG=
200703081300 METAR MROC 081300Z 09011KT CAVOK 22/15 A3000 BKN280 TRACE SCT BECMG=
200703081400 METAR MROC 081400Z 08015G25KT CAVOK 24/15 A3001 SCT280 TRACE SC BECMG=
200703081500 METAR MROC 081500Z 09017G27KT CAVOK 24/15 A3002 SCT280 TRACE CU BECMG=
200703081600 METAR MROC 081600Z 08014KT 9999 FEW030 27/14 A3002 BECMG=
200703081700 METAR MROC 081700Z 10015KT 9999 FEW030 28/14 A3000 BECMG=
200703081800 METAR MROC 081800Z 09014KT 9999 FEW035 29/24 A2998 BECMG=
200703081900 METAR MROC 081900Z 09012KT 9999 FEW035 29/14 A2995 BECMG=
200703082000 METAR MROC 082000Z 09013KT 9999 FEW040 30/14 A2992 BECMG=
200703082100 METAR MROC 082100Z 08012KT 9999 SCT040 29/14 A2990=
200703082200 METAR MROC 082200Z 10013KT 9999 SCT040 28/15 A2989=
200703082300 METAR MROC 082300Z 11012KT 9999 SCT040 FEW100 26/15 A2991 RMK HZ W=
200703090000 METAR MROC 090000Z 10010KT 9999 SCT035 23/14 A2994 RMK HZ W=
200703090100 METAR MROC 090100Z 09007KT 9999 FEW035 22/14 A2996 BECMG=
200703090200 METAR MROC 090200Z 09010KT 9999 FEW030 22/14 A2998 BECMG=
200703090300 METAR MROC 090300Z 09011KT CAVOK 21/14 A2999 BECMG=
200703090400 METAR MROC 090400Z 10013KT CAVOK 21/14 A2999 BECMG=
200703090500 METAR MROC 090500Z 09009KT CAVOK 21/13 A2999 BECMG=
200703090600 METAR MROC 090600Z 07004KT CAVOK 20/12 A2998 BECMG=
200703090700 METAR MROC 090700Z 07008KT CAVOK 20/12 A2995 BECMG=
200703090800 METAR MROC 090800Z 08006KT CAVOK 19/11 A2994 BECMG=
200703090900 METAR MROC 090900Z 09006KT CAVOK 18/11 A2994 BECMG=
200703091000 METAR MROC 091000Z 06009KT CAVOK 18/12 A2994 BECMG=
200703091100 METAR MROC 091100Z 09010KT CAVOK 19/12 A2995 BECMG=
200703091200 METAR MROC 091200Z 02005KT CAVOK 18/12 A2998 BECMG=
200703091300 METAR MROC 091300Z 10010KT CAVOK 21/12 A2998 RMK TRACE SC=
200703091400 METAR MROC 091400Z 11018G33KT CAVOK 24/12 A2999 BECMG RMK TRACE SC=
200703091500 METAR MROC 091500Z 10013G23KT CAVOK 25/12 A3000 RMK TRACE SC=
200703091600 METAR MROC 091600Z 10012G23KT CAVOK 27/13 A3000 BECMG RMK TRACE SC=
200703091700 METAR MROC 091700Z 11013G25KT CAVOK 28/14 A2998 BECMG RMK TRACE SC=
200703091800 METAR MROC 091800Z 11013G23KT 9999 FEW035 29/15 A2996 BECMG=
200703091900 METAR MROC 091900Z 09010KT 9999 FEW035 29/15 A2994 BECMG=
200703092000 METAR MROC 092000Z 10014G26KT 9999 FEW030 28/15 A2991 BECMG=
200703092100 METAR MROC 092100Z 08014KT 9999 FEW030 28/14 A2990 RMK CB S=
200703092200 METAR MROC 092200Z 09011KT 9999 FEW030 SCT260 27/14 A2990 RMK CB DST S=
200703092300 METAR MROC 092300Z 09008KT 9999 SCT035 FEW260 26/14 A2992=
200703100000 METAR MROC 100000Z 12006KT 9999 SCT035 24/14 A2994=
200703100100 METAR MROC 100100Z 10008KT 9999 FEW030 22/14 A2996=
200703100200 METAR MROC 100200Z 10008KT 9999 FEW030 21/15 A2999=
200703100300 METAR MROC 100300Z 10008KT CAVOK 21/14 A2999=
200703100400 METAR MROC 100400Z 08009KT CAVOK 22/13 A3000 BECMG=
200703100500 METAR MROC 100500Z 10011KT CAVOK 20/14 A3000 BECMG=
200703100600 METAR MROC 100600Z 11010KT CAVOK 20/14 A2997 FEW280 BECMG=
200703100700 METAR MROC 100700Z 10007KT CAVOK 21/14 A2995 BECMG=
200703100800 METAR MROC 100800Z 10011KT CAVOK 20/15 A2994 FEW280 BECMG=
200703100900 METAR MROC 100900Z 10009KT CAVOK 21/15 A2994 FEW280 BECMG=
200703101000 METAR MROC 101000Z 10013KT CAVOK 20/15 A2995 BECMG=
200703101100 METAR MROC 101100Z 09013KT CAVOK 20/15 A2996 BECMG=
200703101200 METAR MROC 101200Z 10015KT CAVOK 20/15 A2996 TRACE SCT DZ NE BECMG=
200703101300 METAR MROC 101300Z 11013KT CAVOK 22/16 A2998 TRACE SCT=
200703101400 METAR MROC 101400Z 10016KT 9999 FEW040 24/17 A2999=
200703101500 METAR MROC 101500Z 11014KT 9999 FEW040 26/17 A3000=
200703101600 METAR MROC 101600Z 10013KT 9999 FEW035 28/16 A3001=
200703101700 METAR MROC 101700Z 09013KT 9999 SCT035 SCT250 29/17 A2999=
200703101800 METAR MROC 101800Z 10016KT 9999 SCT030 SCT240 29/17 A2996=
200703101900 METAR MROC 101900Z 08014KT 9999 SCT030 SCT240 27/17 A2995=
200703102000 METAR MROC 102000Z 09016KT 9999 BKN030 SCT240 27/16 A2992=
200703102100 METAR MROC 102100Z 10015KT 9999 FEW030 SCT040 27/16 A2989 BECMG=
200703102200 METAR MROC 102200Z 10016KT 9999 FEW030 SCT040 26/16 A2990 RMK FEW300 DZ DST ENE BECMG=
200703102300 METAR MROC 102300Z 10016KT 9999 FEW030 SCT040 24/16 A2992 RMK FEW270 BECMG=
200703110000 METAR MROC 110000Z 09010KT 9999 FEW030 SCT120 23/16 A2994 RMK CB DST SSE SCT250=
200703110100 METAR MROC 110100Z 10016KT 9999 FEW030 SCT120 22/17 A2995=
200703110200 METAR MROC 110200Z 11016KT CAVOK 22/17 A2997=
200703110400 METAR MROC 110400Z 10013G24KT CAVOK 22/17 A2998 BECMG=
200703110500 METAR MROC NIL=
200703110600 METAR MROC 110600Z 10013G24KT CAVOK 22/17 A2995 BECMG=
200703110700 METAR MROC 110700Z 10011G22KT CAVOK 22/17 A2993=
200703110800 METAR MROC 110800Z 11011G21KT CAVOK 22/17 A2991 BECMG=
200703110900 METAR MROC 110900Z 11009KT CAVOK 22/17 A2990 BECMG=
200703111000 METAR MROC 111000Z 10010KT CAVOK 22/17 A2992 BECMG=
200703111100 METAR MROC 111100Z 10013G23KT CAVOK 22/17 A2993=
200703111200 METAR MROC 111200Z 10016G30KT 9999 FEW030 22/17 A2995 BECMG=
200703111300 METAR MROC 111300Z 11014KT 9999 FEW025 BKN280 23/18 A2997 RMK DZ DST N NE=
200703111400 METAR MROC 111400Z 10016KT 9999 FEW025 SCT040 23/18 A2998 RMK RN DIST N NE E BECMG=
200703111500 METAR MROC 111500Z 09016KT 9999 FEW030 SCT040 24/17 A2999 RMK RFGS 23KT=
200703111600 METAR MROC 111600Z 09016KT 9999 FEW030 SCT120 27/16 A2999 RMK RFGS 22KT=
200703111700 METAR MROC 111700Z 09018KT 9999 FEW030 SCT140 28/15 A2997 RMK RFGS 24KT BECMG=
200703111800 METAR MROC 111800Z 08015KT 9999 FEW030 SCT130 29/15 A2997 RMK HZY BECMG=
200703111900 METAR MROC 111900Z 08015KT 9999 FEW030 SCT130 29/16 A2995 RMK BECMG=
200703112000 METAR MROC 112000Z 08016KT 9999 FEW030 SCT130 28/16 A2993 RMK HZY=
200703112100 METAR MROC 112100Z 08016KT 9999 FEW035 SCT130 27/16 A2991 RMK DZ DST NE BECMG=
200703112200 METAR MROC 112200Z 08013KT 9999 FEW035 SCT260 26/15 A2991 RMK DZ NE LGT HZ ARND FEW AC BECMG=
200703112300 METAR MROC 112300Z 09013KT 9999 FEW035 SCT260 24/15 A2992 RMK DZ DST NE CB/RN DST SW HZ LGT ARND FEW120 BECMG=
200703120000 METAR MROC 120000Z 09013KT 9999 FEW035 SCT110 24/16 A2993 RMK DZ DST N/NE/E HZ LGT ARND BECMG=
200703120100 METAR MROC 120100Z 09014KT 9999 FEW030 SCT110 23/17 A2996 RMK DZ DST NE FEW260 BECMG=
200703120200 METAR MROC 120200Z 08014KT 9999 FEW030 SCT110 23/16 A2998 RMK DZ DST NE BECMG=
200703120300 METAR MROC 120300Z 10016KT 9999 FEW035 SCT110 23/16 A2998=
200703120400 METAR MROC 120400Z 09005KT CAVOK 22/16 A3001 RMK SCT120=
200703120500 METAR MROC 120500Z 09014KT CAVOK 22/17 A3000 RMK SCT120=
200703120600 METAR MROC 120600Z 09010KT CAVOK 22/17 A3000 RMK FEW120=
200703120700 METAR MROC 120700Z 11013KT CAVOK 22/16 A2998 RMK FEW120=
200703120800 METAR MROC 120800Z 10010KT CAVOK 22/16 A2997 RMK FEW120=
200703120900 METAR MROC 120900Z 10013KT CAVOK 22/17 A2995 RMK FEW120=
200703121000 METAR MROC 121000Z 09012KT CAVOK 22/17 A2996 RMK FEW120=
200703121100 METAR MROC 121100Z 11015KT CAVOK 22/16 A2998 RMK FEW120=
200703121200 METAR MROC 121200Z 10015KT 9999 FEW040 BKN100 22/15 A2999=
200703121300 METAR MROC 121300Z 10014KT 9999 FEW040 BKN100 22/15 A3000 DZ DST N/NE BECMG=
200703121400 METAR MROC 121400Z 09013KT 9999 FEW035 BKN100 23/16 A3002 RMK DZ DST=
200703121500 METAR MROC 121500Z 08013KT 9999 FEW035 BKN110 28/15 A3002 RMK DZ DST=
200703121600 METAR MROC 121600Z 07015KT 9999 FEW035 SCT120 28/15 A3001 RMK DZ DST NE/E HZ LGT SW RAFAGAS DE 23KT BECMG=
200703121700 METAR MROC 121700Z 070017G17KT 9999 FEW040 SCT120 28/15 A2999 RMK DZ DST NE/E HZ LGT ARND BECMG=
200703121800 METAR MROC 121800Z 05020KT 9999 FEW040 29/16 A2998 RMK DZ DST NE/E HZ LGT SW RAFAGAS DE 28KT BECMG=
200703121900 METAR MROC 121900Z 06017KT 9999 FEW040 30/15 A2995 HZ LGT SW RAFAGAS DE 24KT BECMG=
200703122000 METAR MROC 122000Z 06014KT 9999 FEW040 SCT120 30/14 A2993 RMK HZ LGT SW BECMG=
200703122100 METAR MROC 122100Z 05017KT 9999 FEW030 SCT120 28/15 A2992 DZ NE BECMG=
200703122200 METAR MROC 122200Z 07012KT 9999 FEW030 SCT120 BKN280 28/15 A2993 BECMG=
200703122300 METAR MROC 122300Z 08011KT 9999 FEW030 SCT280 26/15 A2994 BECMG=
200703130000 METAR MROC 130000Z 09011KT 9999 FEW030 SCT045 25/15 A2996 DZ N NE BECMG=
200703130100 METAR MROC 130100Z 08011KT 9999 FEW030 SCT040 23/16 A2999 BECMG RMK RN N NE=
200703130200 METAR MROC 130200Z 07015KT 9999 SCT035 23/15 A3001 BECMG RMK DZ N NE=
200703130300 METAR MROC 130300Z 07013KT 9999 FEW035 SCT060 23/16 A3003 RMK RAFGS 20KT BECMG=
200703130400 METAR MROC 130400Z 08011KT 9999 FEW035 SCT070 22/16 A3003 BECMG=
200703130500 METAR MROC 130500Z 08015KT 9999 FEW035 SCT070 22/16 A3002 BECMG=
200703130600 METAR MROC 130600Z 09013KT 9999 FEW035 22/16 A3001 BECMG=
200703130700 METAR MROC 130700Z 10015KT 9999 FEW035 21/16 A2999 BECMG=
200703130800 METAR MROC 130800Z 10016KT 9999 FEW035 21/16 A2997=
200703130900 METAR MROC 130900Z 09016KT 9999 FEW035 22/16 A2997=
200703131000 METAR MROC 131000Z 09014KT 9999 FEW035 22/16 A2998=
200703131100 METAR MROC 131100Z 08015KT 9999 FEW035 22/14 A3000=
200703131200 METAR MROC 131200Z 08014KT 9999 FEW035 21/14 A3001 RMK LGT HZ ARND=
200703131300 METAR MROC 131300Z 10016KT CAVOK 22/15 A3003 TRACE CU BECMG=
200703131400 METAR MROC 131400Z 10016G26KT CAVOK 24/15 A3004 TRACE CU BECMG=
200703131500 METAR MROC 131500Z 10017G27KT CAVOK 26/24 A3006 BECMG=
200703131600 METAR MROC 131600Z 07015G25KT CAVOK 27/12 A3007 TRACE CU BECMG=
200703131700 METAR MROC 131700Z 06018G28KT 9999 FEW030 28/13 A3005 BECMG=
200703131800 METAR MROC 131800Z 07015KT 9999 FEW030 29/13 A3003 BECMG=
200703131900 METAR MROC 131900Z 08014KT 9999 FEW030 29/14 A2999 BECMG=
200703132000 METAR MROC 132000Z 08012KT 9999 FEW030 30/12 A2996 BECMG=
200703132100 METAR MROC 132100Z 07016G30KT 9999 FEW030 28/16 A2995 BECMG=
200703132200 METAR MROC 132200Z 09010KT 9999 FEW030 26/14 A2997 BECMG=
200703132300 METAR MROC 132300Z 09008KT 9999 FEW025 SCT110 25/14 A2997=
200703140000 METAR MROC 140000Z 09014G26KT 9999 FEW025 SCT120 23/15 A2998 BECMG=
200703140100 METAR MROC 140100Z 09012KT 9999 FEW030 23/15 A3000 BECMG=
200703140200 METAR MROC 140200Z 08010KT CAVOK 22/13 A3002 TRACE SCT BECMG=
200703140300 METAR MROC 140300Z 09011KT CAVOK 22/12 A3004 BECMG=
200703140400 METAR MROC 140400Z 10012KT CAVOK 21/12 A3004 BECMG=
200703140500 METAR MROC 140500Z 10014KT CAVOK 20/14 A3003 BECMG=
200703140600 METAR MROC 140600Z 11011KT CAVOK 20/13 A3002 BECMG=
200703140700 METAR MROC 140700Z 10012KT CAVOK 20/12 A2998 BECMG=
200703140800 METAR MROC 140800Z 11013KT CAVOK 20/12 A2996 BECMG=
200703140900 METAR MROC 140900Z 10014KT CAVOK 20/12 A2996 BECMG=
200703141000 METAR MROC 141000Z 10012KT CAVOK 19/12 A2997 BECMG=
200703141100 METAR MROC 141100Z 11011KT CAVOK 19/12 A2998 BECMG=
200703141200 METAR MROC 141200Z 09010KT CAVOK 20/11 A3001 RMK TCU DST S BECMG=
200703141300 METAR MROC 141300Z 11013G24KT CAVOK 22/18 A3002 BECMG=
200703141400 METAR MROC 141400Z 09013G25KT CAVOK 24/12 A3003 BECMG=
200703141500 METAR MROC 141500Z 10016G30KT CAVOK 26/11 A3003 BECMG RMK TRACE SC FEW270=
200703141600 METAR MROC 141600Z 10013G25KT CAVOK 28/11 A3003 BECMG RMK TRACE SC CI=
200703141700 METAR MROC 141700Z 08013G24KT CAVOK 29/11 A3002 BECMG RMK TRACE SC=
200703141800 METAR MROC 141800Z 10013G23KT 9999 FEW030 30/12 A2999 BECMG=
200703141900 METAR MROC 141900Z 10010KT 9999 FEW030 31/12 A2996 BECMG=
200703142000 METAR MROC 142000Z 09009KT 9999 SCT030TCU 31/12 A2993 BECMG 24008KT=
200703142100 METAR MROC 142100Z VRB02KT 9999 FEW015TCU SCT030 29/13 A2991 RMK RN DST S=
200703142200 METAR MROC 142200Z VRB02KT 9999 SCT030 FEW250 27/14 A2991 RMK RN DST SW=
200703142300 METAR MROC 142300Z 23006KT 9999 FEW030 SCT250 24/18 A2993 RMK CB DST S SW=
200703150000 METAR MROC 150000Z 32004KT 9999 FEW030 SCT250 24/18 A2996=
200703150100 METAR MROC 150100Z 09004KT 9999 FEW030 22/16 A2997 BECMG=
200703150200 METAR MROC 150200Z 08006KT 9999 FEW030 22/17 A2999 BECMG=
200703150300 METAR MROC 150300Z 09007KT CAVOK 21/15 A3000 BECMG=
200703150400 METAR MROC 150400Z 08006KT CAVOK 21/15 A3001 BECMG=
200703150500 METAR MROC 150500Z 110011KT CAVOK 21/15 A2999 BECMG=
200703150600 METAR MROC 150600Z 10012KT CAVOK 21/15 A2997 FEW300 BECMG=
200703150700 METAR MROC 150700Z 10011KT CAVOK 21/14 A2995 FEW300 BECMG=
200703150800 METAR MROC 150800Z 10011KT CAVOK 20/14 A2995 FEW300 BECMG=
200703150900 METAR MROC 150900Z 07012KT CAVOK 20/13 A2994 FEW300 BECMG=
200703151000 METAR MROC 151000Z 10009KT 9999 20/13 A2994 FEW300 BECMG=
200703151100 METAR MROC 151100Z 09009KT CAVOK 20/14 A2995 FEW300 BECMG=
200703151200 METAR MROC 151200Z 10009KT CAVOK 20/13 A2997 FEW280 BECMG=
200703151300 METAR MROC 151300Z 10012KT CAVOK 22/13 A2998 RMK SCT250=
200703151400 METAR MROC 151400Z 11014KT CAVOK 25/13 A2999 RMK FEW250=
200703151500 METAR MROC 151500Z 10010KT CAVOK 28/12 A3000 RMK FEW250=
200703151600 METAR MROC 151600Z 10010KT CAVOK 20/13 A3000 RMK SCT260=
200703151700 METAR MROC 151700Z 07007KT 9999 FEW040 SCT260 31/12 A2998 BECMG 24008KT=
200703151800 METAR MROC 151800Z 00000KT 9999 SCT040 30/12 A2995=
200703151900 METAR MROC 151900Z 24008KT 9999 SCT035 30/16 A2992=
200703152000 METAR MROC 152000Z 22010KT 9999 SCT035 30/18 A2989 RMK HZ W=
200703152100 METAR MROC 152100Z 25014KT 9999 FEW025TCU SCT035 29/20 A2988 RMK HZY BECMG=
200703152200 METAR MROC 152200Z 22011KT 9999 FEW025TCU SCT035 27/19 A2988 RMK HZY=
200703152300 METAR MROC 152300Z 20007KT 9999 -TS VCSH FEW015CB BKN025 26/19 A2990 RMK TS/RASH AND VIS 7KMS TO ENE BECMG -RA=
200703160000 METAR MROC 160000Z 10005KT 9999 SCT030 SCT100 22/20 A2993 RMK TS DST NNE N RETS BECMG=
200703160100 METAR MROC 160100Z 09003KT 9999 FEW030 SCT100 22/20 A2994 BECMG=
200703160200 METAR MROC 160200Z 00000KT 9999 FEW030 21/20 A2996 BECMG=
200703160300 METAR MROC 160300Z 11004KT 9999 FEW030 20/18 A2999 BECMG=
200703160400 METAR MROC 160400Z 09005KT 9999 FEW030 21/18 A3000 BECMG=
200703160500 METAR MROC 160500Z 03006KT 9999 FEW030 21/18 A3000 BECMG=
200703160600 METAR MROC 160600Z 09010KT 9999 FEW030 21/17 A2996 BECMG=
200703160700 METAR MROC NIL=
200703160800 METAR MROC 160800Z 02008KT CAVOK 20/16 A2993=
200703160900 METAR MROC 160900Z 06009KT CAVOK 20/16 A2993 BECMG=
200703161000 METAR MROC 161000Z 06008KT CAVOK 20/15 A2993=
200703161100 METAR MROC 161100Z 05010KT CAVOK 20/15 A2994 BECMG=
200703161200 METAR MROC 161200Z 06009KT CAVOK 20/14 A2996 RMK SCT270=
200703161300 METAR MROC 161300Z 00000KT CAVOK 22/17 A2984 RMK SCT250 FU ARND=
200703161400 METAR MROC 161400Z 10009KT CAVOK 25/15 A2999 RMK BKN250 LGT HZ ARND=
200703161500 METAR MROC 161500Z 11012KT CAVOK 27/16 A3000 RMK SCT300 BECMG=
200703161600 METAR MROC 161600Z 10012KT CAVOK 29/13 A2999 RMK TRAZAS DE CU SCT300 BECMG=
200703161700 METAR MROC 161700Z 10011KT 9999 FEW040 30/13 A2997 RMK FEW CI BECMG=
200703161800 METAR MROC 161800Z 13006KT 9999 FEW040 32/13 A2994 RMK FEW300 BECMG 24008KT=
200703161900 METAR MROC 161900Z 22006KT 9999 FEW025TCU SCT035 29/17 A2992 BECMG=
200703162000 METAR MROC 162000Z 18008KT 9999 SCT020TCU SCT035 26/20 A2990 RMK CB=
200703162100 METAR MROC 162100Z 19006KT 9999 FEW020TCU SCT035 BKN100 24/20 A2989 BECMG=
200703162200 METAR MROC 162200Z 19006KT 9999 FEW020TCU BKN035 24/20 A2990 RMK TCU RN DST E/S BECMG=
200703162300 METAR MROC 162300Z 12005KT 9999 3000SW -RA FEW015TCU BKN030 20/19 A2992 BECMG 4000=
200703170000 METAR MROC 170000Z 20002KT 9999 SCT035 BKN100 21/20 A2994 RMK VIS 8KM W DUE RN BECMG=
200703170100 METAR MROC 170100Z 08002KT 9999 SCT035 BKN100 21/18 A2996 BECMG=
200703170200 METAR MROC 170200Z 05003KT 9999 SCT030 SCT110 21/19 A2998 BECMG=
200703170300 METAR MROC 170300Z 06003KT 9999 SCT030 SCT110 21/17 A3001=
200703170400 METAR MROC 170400Z 06007KT 9999 FEW030 SCT110 21/17 A3003=
200703170500 METAR MROC 170500Z 04006KT 9999 FEW030 SCT110 21/17 A3003=
200703170600 METAR MROC 170600Z 06007KT CAVOK 21/17 A3001 RMK FEW120=
200703170700 METAR MROC 170700Z 08003KT CAVOK 20/16 A2998 RMK SCT120=
200703170800 METAR MROC 170800Z 09003KT CAVOK 19/16 A2997 RMK SCT120=
200703170900 METAR MROC 170900Z 02004KT CAVOK 21/13 A2996 RMK SCT120=
200703171000 METAR MROC 171000Z 03007KT CAVOK 18/13 A2996 RMK SCT120=
200703171100 METAR MROC 171100Z 08004KT CAVOK 18/12 A2997 FEW120=
200703171200 METAR MROC 171200Z 08004KT CAVOK 16/12 A3000 RMK FEW120 SCT300=
200703171300 METAR MROC 171300Z 03006KT CAVOK 20/13 A3003 RMK FEW300 BECMG=
200703171400 METAR MROC 171400Z 31005KT CAVOK 23/14 A3005 RMK 2CI300 BECMG=
200703171500 METAR MROC 171500Z 12007KT CAVOK 27/14 A3004 RMK FEW300 BECMG=
200703171600 METAR MROC 171600Z 12009KT 9999 FEW035 28/12 A3004 RMK FEW300 BECMG=
200703171700 METAR MROC 171700Z 24010KT 9999 FEW035 27/18 A3004 BECMG=
200703171800 METAR MROC 171800Z 23010KT 9999 FEW035 28/18 A3001 BECMG=
200703171900 METAR MROC 171900Z 22010KT 9999 SCT035 29/18 A2998 BECMG=
200703172000 METAR MROC 172000Z 26012KT 9999 FEW025TCU SCT035 28/18 A2995 RMK TCU OVER STND RN N BECMG 8000 RA=
200703172100 METAR MROC 172100Z 13006KT 9999 -RA FEW020 BKN030 22/18 A2994 RMK VSBY E 6KM DUE RASH BECMG 6000 -TSRA=
200703172200 METAR MROC 172200Z 00000KT 9999 FEW030 SCT120 BKN280 23/19 A2994 RN DST S BECMG=
200703172300 METAR MROC 172300Z 00000KT 9999 FEW030 SCT120 BKN280 23/20 A2994 BECMG=
200703180000 METAR MROC 180000Z 10008KT 9999 FEW030 BKN250 23/16 A2995 BECMG=
200703180100 METAR MROC 180100Z 09010KT 9999 FEW030 BKN250 22/16 A2997=
200703180200 METAR MROC 180200Z 10009KT CAVOK 22/16 A2999=
200703180300 METAR MROC 180300Z 09010KT CAVOK 22/15 A3001 BECMG=
200703180500 METAR MROC 180500Z 10016KT CAVOK 21/16 A3001 BECMG=
200703180600 METAR MROC 180600Z 10018KT CAVOK 21/15 A3000 BECMG=
200703180700 METAR MROC 180700Z 10015KT CAVOK 21/15 A2998 BECMG=
200703180800 METAR MROC 180800Z 10017KT CAVOK 20/15 A2995=
200703180900 METAR MROC 180900Z 10018KT CAVOK 21/14 A2994=
200703181000 METAR MROC 181000Z 10017KT CAVOK 21/14 A2994=
200703181100 METAR MROC 181100Z 10016KT CAVOK 21/13 A2996=
200703181200 METAR MROC 181200Z 10015KT CAVOK 21/14 A2998 RMK TRAZAS DE SC/CI=
200703181300 METAR MROC 181300Z 10016KT CAVOK 23/14 A3000 TRACE SCT BECMG=
200703181400 METAR MROC 181400Z 10017KT CAVOK 25/14 A3001 TRACE SCT BECMG=
200703181500 METAR MROC 181500Z 10015KT CAVOK 27/24 A3002 TRACE SCT BECMG=
200703181600 METAR MROC 181600Z 09015KT CAVOK 28/14 A3002 TRACE SCT BECMG=
200703181700 METAR MROC 181700Z 08013KT 9999 FEW030 28/16 A3001 BECMG=
200703181800 METAR MROC 181800Z 07015KT 9999 FEW035 29/15 A2999 BECMG=
200703181900 METAR MROC 181900Z 07012KT 9999 SCT030 30/16 A2996 DZ N NE BECMG=
200703182000 METAR MROC 182000Z 08012KT 9999 BKN030 29/17 A2993 DZ N NE BECMG=
200703182100 METAR MROC 182100Z 06017G27KT 9999 SCT030 BKN090 25/16 A2992 BECMG=
200703182200 METAR MROC 182200Z 08012G22KT 9999 FEW030 SCT100 27/16 A2992=
200703182300 METAR MROC 182300Z 08013G23KT 9999 FEW030 BKN100 24/16 A2994 RMK RN DST N NE=
200703190000 METAR MROC 190000Z 08010KT 9999 SCT030 BKN100 23/15 A2996=
200703190100 METAR MROC 190100Z 07007KT 9999 SCT035 BKN120 22/16 A2998 BECMG=
200703190200 METAR MROC 190200Z 10014KT 9999 FEW030 SCT150 22/16 A3000 BECMG=
200703190300 METAR MROC 190300Z 07014KT 9999 FEW030 22/15 A2999 RMK RAFAGAS DE 21KT FEW150=
200703190400 METAR MROC 190400Z 08015KT 9999 FEW030 22/16 A3001 RMK RAFAGAS DE 22KT BECMG=
200703190500 METAR MROC 190500Z 10017KT 9999 FEW030 21/16 A3000 RMK RAFAGAS DE 26KT BECMG=
200703190600 METAR MROC 190600Z 10016KT 9999 FEW030 21/17 A2999 RMK RAFAGAS DE 25KT BECMG=
200703190700 METAR MROC 190700Z 10015KT 9999 FEW030 21/16 A2997 RMK RAFAGAS DE 20KT BECMG=
200703190800 METAR MROC 190800Z 09013KT 9999 FEW030 21/16 A2996 RMK RAFAGAS DE 21KT BECMG=
200703190900 METAR MROC 190900Z 10011KT 9999 FEW030 20/17 A2996 BECMG=
200703191000 METAR MROC 191000Z 08008KT 9999 FEW030 20/17 A2996 BECMG=
200703191100 METAR MROC 191100Z 07006KT 9999 FEW030 20/16 A2998 BECMG=
200703191200 METAR MROC 191200Z 10015KT 9999 FEW030 21/16 A2998 RMK RAFAGAS DE 20KT RN DST N/NE/E BECMG=
200703191300 METAR MROC 191300Z 10016G30KT 9999 FEW030 22/16 A3000 RMK DZ N NE=
200703191400 METAR MROC 191400Z 10016G29KT 9999 FEW030 24/17 A2999 RMK DZ N NE=
200703191500 METAR MROC 191500Z 11016G29KT 9999 FEW030 SCT090 25/17 A3001 RMK RN N NE=
200703191600 METAR MROC 191600Z 09018G34KT 9999 FEW025 SCT100 26/17 A3002 RMK RN N NE=
200703191700 METAR MROC 191700Z 10020G36KT 9999 FEW025 SCT100 28/17 A3001 RMK RN N NE=
200703191800 METAR MROC 191800Z 11017G31KT 9999 SCT035 SCT120 28/17 A2999 RMK RN N NE=
200703191900 METAR MROC 191900Z 10020G37KT 9999 SCT025 SCT110 27/16 A2997 RMK RN N NE=
200703192000 METAR MROC 192000Z 09018G33KT 9999 SCT025 SCT110 27/17 A2995 RMK RN N NE=
200703192100 METAR MROC NIL=
200703192200 METAR MROC 192200Z 10014KT 9999 SCT025 BKN100 25/17 A2994=
200703192300 METAR MROC 192300Z 09014KT 9999 SCT030 SCT100 25/16 A2994=
200703200000 METAR MROC 200000Z 09010KT 9999 FEW030 SCT100 24/15 A2997=
200703200100 METAR MROC 200100Z 05016KT 9999 FEW030 23/14 A2998 BECMG=
200703200200 METAR MROC 200200Z 09016KT 9999 FEW030 22/13 A3001 BECMG=
200703200300 METAR MROC 200300Z 09015KT CAVOK 22/13 A3001 BECMG=
200703200400 METAR MROC 290400Z 10018KT CAVOK 21/14 A3000 TRACE SCT BECMG=
200703200500 METAR MROC 200500Z 10020KT CAVOK 21/14 A3000 TRACE SCT BECMG=
200703200600 METAR MROC 200600Z 10017KT CAVOK 21/14 A3000 TRACE SCT BECMG=
200703200700 METAR MROC 200700Z 10016KT CAVOK 21/14 A2999 BECMG=
200703200800 METAR MROC 200800Z 10017KT CAVOK 21/13 A2998 BECMG=
200703200900 METAR MROC 200900Z 10017KT CAVOK 20/13 A2997 BECMG=
200703201000 METAR MROC 201000Z 10017KT CAVOK 21/14 A2995 BECMG=
200703201100 METAR MROC 201100Z 09015KT CAVOK 21/14 A2997 BECMG=
200703201200 METAR MROC 201200Z 10016KT CAVOK 21/15 A2998 FEW300 BECMG=
200703201300 METAR MROC 201300Z 09016G26KT CAVOK 22/16 A3000 BECMG=
200703201400 METAR MROC 201400Z 10017G27KT 9999 FEW035 24/16 A3003 RMK DZ DST NNE NE=
200703201500 METAR MROC 201500Z 08018KT 9999 FEW035 26/15 A3004 RMK G23KT DZ DST NE=
200703201600 METAR MROC 201600Z 10020KT CAVOK 28/15 A3004 RMK TRACE SC G24KT=
200703201700 METAR MROC 201700Z 08017KT CAVOK 28/12 A3002 RMK TRACE SC G22KT=
200703201800 METAR MROC 201800Z 08016KT CAVOK 29/11 A3000 RMK TRACE SC=
200703201900 METAR MROC 201900Z 07015G25KT 9999 FEW040 30/14 A2997 BECMG=
200703202000 METAR MROC 202000Z 06019KT 9999 FEW035 29/14 A2994 RMK GUST 24KT=
200703202100 METAR MROC 202100Z 07017KT 9999 FEW040 28/15 A2992 BECMG=
200703202200 METAR MROC 202200Z 07015KT 9999 FEW040 27/16 A2992 BECMG=
200703202300 METAR MROC 202300Z 07017KT 9999 FEW035 25/16 A2993 BECMG=
200703210000 METAR MROC 210000Z 07018KT CAVOK 23/16 A2994 RMK TRAZAS SC BECMG=
200703210100 METAR MROC 210100Z 10008KT CAVOK 22/16 A2996 BECMG=
200703210200 METAR MROC 210200Z 08016KT CAVOK 22/16 A2997 BECMG=
200703210300 METAR MROC 210300Z 10015G29KT CAVOK 22/16 A2999=
200703210400 METAR MROC 210400Z 08014G26KT CAVOK 22/15 A2999=
200703210500 METAR MROC NIL=
200703210600 METAR MROC 210600Z 10014G26KT CAVOK 20/15 A2992=
200703210700 METAR MROC 210700Z 10018G33KT CAVOK 21/15 A2994=
200703210800 METAR MROC 210800Z 11916G31KT CAVOK 20/14 A2993=
200703210900 METAR MROC 210900Z 11018G33KT CAVOK 21/12 A2992=
200703211000 METAR MROC 211000Z 10018G33KT CAVOK 20/13 A2992=
200703211100 METAR MROC 211100Z 10018G33KT CAVOK 20/14 A2993=
200703211200 METAR MROC 211200Z 11014G25KT CAVOK 20/14 A2995 CB DST S TRACE SCT CI=
200703211400 METAR MROC 211400Z 10018KT CAVOK 24/12 A2998 RMK SCT250 BECMG=
200703211500 METAR MROC 211500Z 10017KT CAVOK 27/12 A2998 FEW250 BECMG=
200703211600 METAR MROC 211600Z 10017KT CAVOK 28/14 A2999 RMK TZS SC/CI BECMG=
200703211700 METAR MROC 211700Z 10016KT CAVOK 28/14 A2997 RMK TRAZAS SC/CI BECMG=
200703211800 METAR MROC 211800Z 10016KT CAVOK 29/16 A2996 RMK TRAZAS SC SCT270 BECMG=
200703211900 METAR MROC 211900Z 09014KT 9999 FEW035 SCT300 29/16 A2993 BECMG=
200703212000 METAR MROC 212000Z 10014KT 9999 FEW035TCU 29/15 A2992 RMK FEWCI BECMG=
200703212100 METAR MROC 212100Z 09014KT 9999 FEW035 27/15 A2991 RMK RAFAGAS DE 22KT TCU DST S BECMG=
200703212200 METAR MROC 212200Z 08012KT 9999 FEW035 27/15 A2991 RMK FEW270 TCU DST ESE BECMG=
200703212300 METAR MROC 212300Z 09013KT 9999 FEW030 24/14 A2991 RMK TCU DST S BECMG=
200703220000 METAR MROC 220000Z 09016KT 9999 FEW030 23/13 A2993 RMK TCU DST S RAFAGAS DE 21KT BECMG=
200703220100 METAR MROC 220100Z 11014KT 9999 FEW030 22/13 A2995 RMK RAFAGAS DE 21KT BECMG=
200703220200 METAR MROC 220200Z 11015KT 9999 FEW030 21/14 A2998 RMK RAFAGAS DE 22KT BECMG=
200703220300 METAR MROC 220300Z 10016KT 9999 FEW035 21/15 A2999 BECMG=
200703220400 METAR MROC 220400Z 10018KT CAVOK 21/15 A2999 RMK FEW CI=
200703220500 METAR MROC 220500Z 10014KT CAVOK 20/15 A2997 RMK TRCE SC G21KT=
200703220600 METAR MROC 220600Z 10015KT CAVOK 21/14 A2995 RMK TRACE SC=
200703220700 METAR MROC 220700Z 11012KT CAVOK 21/14 A2994 RMK TRCE SC=
200703220800 METAR MROC 220800Z 05006KT CAVOK 20/14 A2993 RMK TRACE SC=
200703220900 METAR MROC 220900Z 01006KT CAVOK 19/13 A2992 RMK TRACE SC=
200703221000 METAR MROC 221000Z 02004KT CAVOK 19/13 A2992 RMK TRACE SC=
200703221100 METAR MROC 221100Z 04005KT CAVOK 19/13 A2993 RMK TRACE SC=
200703221200 METAR MROC 221200Z 07007KT CAVOK 20/13 A2994 RMK TRACE SC=
200703221300 METAR MROC 221300Z 08005KT CAVOK 22/13 A2997 BECMG=
200703221400 METAR MROC 221400Z 10010KT CAVOK 24/14 A2997 BECMG=
200703221500 METAR MROC 221500Z 11016KT CAVOK 26/13 A2997 RMK RAFAJAS DE 22KT=
200703221600 METAR MROC 221600Z 10016KT 9999 FEW040 27/14 A2997 RMK RAFAGAS DE 25KT BECMG=
200703221700 METAR MROC 221700Z 08017KT 9999 FEW040 28/15 A2996 RMK RAFAGAS DE 22KT BECMG=
200703221800 METAR MROC 221800Z 07016KT 9999 FEW040 29/15 A2992 RMK RAFAGAS DE 22KT BECMG=
200703221900 METAR MROC 221900Z 08014KT 9999 FEW040 30/15 A2990 RMK RAFAGAS DE 21KT BECMG=
200703222000 METAR MROC 222000Z 08014KT 9999 FEW040 29/16 A2988 RMK RAFAGAS DE 22KT TCU DST S BECMG=
200703222100 METAR MROC 222100Z 06014KT 9999 FEW035 29/15 A2986 BECMG=
200703222200 METAR MROC 222200Z 07013KT 9999 FEW040 28/16 A2986 BECMG=
200703222300 METAR MROC 222300Z 09012KT 9999 SCT030 26/16 A2987 BECMG=
200703230000 METAR MROC 230000Z 08012KT 9999 FEW030 23/16 A2988 BECMG=
200703230100 METAR MROC 230100Z 11013KT 9999 FEW030 22/16 A2990=
200703230200 METAR MROC 230200Z 10015KT 9999 FEW030 22/14 A2993=
200703230300 METAR MROC 230300Z 10016KT 9999 FEW035 22/14 A2994 BECMG=
200703230400 METAR MROC 230400Z 11017KT 9999 FEW035 21/14 A2994 BECMG=
200703230500 METAR MROC 230500Z 10018KT 9999 FEW035 21/14 A2993 BECMG=
200703230600 METAR MROC 230600Z 10016KT CAVOK 21/14 A2993 RMK SCT270 BECMG=
200703230700 METAR MROC 230700Z 06010KT CAVOK 20/12 A2993 BECMG=
200703230800 METAR MROC 230800Z 05008KT CAVOK 20/19 A2992=
200703230900 METAR MROC 230900Z 10014KT CAVOK 21/14 A2990=
200703231000 METAR MROC 231000Z 10012KT CAVOK 20/14 A2990=
200703231100 METAR MROC 231100Z 10010KT CAVOK 20/14 A2991 RMK TRAZAS CI=
200703231200 METAR MROC 231200Z 05007KT CAVOK 20/14 A2994 RMK TRAZAS SC TCU DIST SSW=
200703231300 METAR MROC 231300Z 10013KT CAVOK 23/15 A2995 TRACE SCT BECMG=
200703231400 METAR MROC 231400Z 11015KT CAVOK 24/14 A2996 TRACE SC BECMG=
200703231500 METAR MROC 231500Z 10016KT CAVOK 26/14 A2997 TRACE SC BECMG=
200703231600 METAR MROC 231600Z 10014KT CAVOK 28/12 A2996 TRACE SCT BECMG=
200703231700 METAR MROC 231700Z 09010KT 9999 FEW035 30/14 A2995 BECMG=
200703231800 METAR MROC 231800Z 09010KT 9999 FEW035 30/13 A2992 BECMG=
200703231900 METAR MROC 231900Z 10007KT 9999 SCT030 31/12 A2990 BECMG=
200703232000 METAR MROC 232000Z 13006KT 9999 SCT030 31/12 A2987 TCU RN S BECMG=
200703232100 METAR MROC 232100Z 20008KT 7000 SCT030 BKN100 25/19 A2987 RMK RASH W 7000 E UNL=
200703232200 METAR MROC 232200Z 24011G21KT 9999 SCT025 SCT080 23/19 A2988 RMK RN DST N NW=
200703232300 METAR MROC 232300Z 30004KT 9999 FEW025 SCT060 24/18 A2989=
200703240000 METAR MROC 240000Z 10005KT 9999 FEW025 SCT050 23/18 A2991=
200703240100 METAR MROC 240100Z 10003KT 9999 FEW030 23/17 A2992=
200703240200 METAR MROC 240200Z 10004KT 9999 FEW030 23/17 A2994=
200703240300 METAR MROC 240300Z 10012KT 9999 FEW030 21/16 A2995 BECMG=
200703240400 METAR MROC 240400Z 09010KT CAVOK 22/15 A2995 BECMG=
200703240500 METAR MROC 240500Z 10014KT CAVOK 21/15 A2995 RMK RAFAGAS DE 22KT BECMG=
200703240600 METAR MROC 240600Z 10017KT CAVOK 21/15 A2994 RMK RAFAGAS DE 26KT BECMG=
200703240700 METAR MROC 240700Z 09014KT CAVOK 21/15 A2993 RMK RAFAGAS DE 22KT BECMG=
200703240800 METAR MROC 240800Z 06009KT CAVOK 21/15 A2992 BECMG=
200703240900 METAR MROC 240900Z 10010KT CAVOK 20/14 A2992 BECMG=
200703241000 METAR MROC 241000Z 09011KT CAVOK 20/15 A2993 BECMG=
200703241100 METAR MROC 241100Z 08007KT CAVOK 20/14 A2995 BECMG=
200703241200 METAR MROC 241200Z 08005KT CAVOK 20/14 A2997 BECMG=
200703241300 METAR MROC 241300Z 08004KT CAVOK 23/15 A3000 RMK TRACE SC=
200703241400 METAR MROC 241400Z 10016G30KT CAVOK 24/15 A3000 RMK TRACE SC=
200703241500 METAR MROC 241500Z 10014KT CAVOK 26/14 A3001 BECMG RMK TRACE SC=
200703241600 METAR MROC 241600Z 09013G24KT 9999 FEW040 28/14 A3000 BECMG=
200703241700 METAR MROC 241700Z 10014G25KT 9999 FEW040 28/15 A2998 BECMG=
200703241800 METAR MROC 241800Z 09011G21KT 9999 FEW040 30/15 A2996 BECMG=
200703241900 METAR MROC 241900Z 10012KT 9999 FEW030TCU 29/16 A2994 BECMG 22006KT=
200703242000 METAR MROC 242000Z 08010KT 9999 FEW025TCU 30/15 A2992=
200703242100 METAR MROC 242100Z 09006KT 9999 FEW015TCU SCT030 29/14 A2990 RMK CB RN DST SW=
200703242200 METAR MROC 242200Z 12011KT 9999 FEW020 28/16 A2990 BECMG=
200703242300 METAR MROC 242300Z 10012KT 9999 FEW030 SCT090 25/17 A2991 BECMG=
200703250000 METAR MROC 250000Z 08010KT 9999 FEW030 SCT090 23/17 A2993 BECMG=
200703250100 METAR MROC 250100Z 08008KT CAVOK 23/16 A2997 RMK TRACE SC FEW100=
200703250200 METAR MROC 250200Z 09009KT 9999 FEW030 SCT090 22/16 A2998 BECMG=
200703250300 METAR MROC 250300Z 10010KT 9999 FEW035 SCT090 22/15 A3000 BECMG=
200703250400 METAR MROC 250400Z 07008KT 9999 FEW035 21/16 A3001 BECMG=
200703250500 METAR MROC 250500Z 10013KT CAVOK 21/16 A2999 BECMG=
200703250600 METAR MROC 250600Z 10014KT CAVOK 21/16 A2997 BECMG=
200703250700 METAR MROC 250700Z 09012KT CAVOK 21/14 A2996 BECMG=
200703250800 METAR MROC 250800Z 08014KT CAVOK 21/16 A2994 BECMG=
200703250900 METAR MROC 250900Z 10014KT CAVOK 21/15 A2994 BECMG=
200703251000 METAR MROC 251000Z 09014KT CAVOK 21/15 A2995 BECMG=
200703251100 METAR MROC 251100Z 07008KT CAVOK 21/15 A2996 TRACE SCT BECMG=
200703251200 METAR MROC 251200Z 04008KT CAVOK 20/16 A2997 TRACE SCT BECMG=
200703251300 METAR MROC 251300Z 08014KT CAVOK 23/16 A3000 RMK TRACE SC=
200703251400 METAR MROC 251400Z 10016KT 9999 FEW035 24/16 A3000 RMK GUST 21KT=
200703251500 METAR MROC 251500Z 08014G26KT 9999 FEW035 26/17 A3000 RMK RN DST NE E=
200703251600 METAR MROC 251600Z 09014G28KT 9999 FEW035 27/16 A2999 RMK DZ DST NE E=
200703251700 METAR MROC 251700Z 09013KT 9999 FEW035 28/16 A2998 RMK DZ DST NE E=
200703251800 METAR MROC 251800Z 11014KT 9999 SCT035 27/16 A2995 RMK DZ DST NE=
200703251900 METAR MROC 251900Z 10014KT 9999 SCT030 27/16 A2993 BECMG=
200703252000 METAR MROC 252000Z 09013KT 9999 SCT030 28/16 A2991 BECMG=
200703252100 METAR MROC 252100Z 10018KT 9999 SCT030 27/16 A2989 RMK TCU DST S BECMG=
200703252200 METAR MROC 252200Z 10018KT 9999 FEW030 25/16 A2990 RMK FEW080 BECMG=
200703252300 METAR MROC 252300Z 11014G24KT 9999 FEW030 SCT070 23/16 A2992 BECMG=
200703260000 METAR MROC 260000Z 10014KT 9999 FEW030 21/15 A2994=
200703260100 METAR MROC 260100Z 09009KT 9999 FEW030 21/14 A2997 BECMG=
200703260200 METAR MROC 260200Z 08007KT 9999 FEW030 20/14 A2999 BECMG=
200703260300 METAR MROC 260300Z 11016G30KT 9999 FEW030 21/14 A3000=
200703260400 METAR MROC 260400Z 11013G23KT 9999 FEW030 21/15 A3001=
200703260500 METAR MROC 260500Z 10012G22KT 9999 FEW030 20/14 A3001=
200703260600 METAR MROC 260600Z 11012G22KT CAVOK 20/14 A2999=
200703260700 METAR MROC NIL=
200703260800 METAR MROC 260800Z 10015G27KT CAVOK 20/14 A2994=
200703260900 METAR MROC 260900Z 10010KT CAVOK 29/14 A2994=
200703261000 METAR MROC 261000Z 05010KT CAVOK 19/14 A2995=
200703261100 METAR MROC 261100Z 07007KT 9999 SNC 19/14 A2995=
200703261200 METAR MROC 261200Z 06009KT CAVOK 19/14 A2997 BECMG RMK TRACE SC=
200703261300 METAR MROC 261300Z 07007KT CAVOK 22/14 A2999 TRACE OF SCT=
200703261400 METAR MROC 261400Z 10012KT CAVOK 25/13 A3000 TRACE OF SCT BECMG=
200703261500 METAR MROC 261500Z 10015KT CAVOK 26/12 A2999 TRACE OF SCT BECMG=
200703261600 METAR MROC 261600Z 10014KT CAVOK 28/10 A2998 RMK TRACE OF SC BECMG=
200703261700 METAR MROC 261700Z 10012KT 9999 FEW040 29/13 A2996 BECMG=
200703261800 METAR MROC 261800Z 10010KT 9999 FEW040 30/13 A2993 BECMG=
200703261900 METAR MROC 261900Z 10007KT 9999 FEW040 31/13 A2990 BECMG=
200703262000 METAR MROC 262000Z 10007KT 9999 SCT035 31/15 A2988 RMK TCU DIST S=
200703262100 METAR MROC 262100Z 24010KT 9999 SCT035 29/17 A2986 RMK TCU E/SE BECMG=
200703262200 METAR MROC 262200Z 25010KT 9999 SCT035 28/17 A2987 RMK TCU E/S BECMG=
200703262300 METAR MROC 262300Z 15006KT 9999 FEW025 SCT035 25/17 A2990 RMK TCU N/SE BECMG=
200703270000 METAR MROC 270000Z 14006KT 9999 FEW025 BKN035 24/17 A2992 RMK TCU SE BECMG=
200703270100 METAR MROC 270100Z 18004KT 9999 -RA FEW020 BKN030 22/18 A2995 BECMG=
200703270200 METAR MROC 270200Z 18004KT 9999 FEW020 SCT030 22/18 A2997 BECMG=
200703270300 METAR MROC 270300Z 17002KT 9999 FEW020 SCT040 22/18 A3000 BECMG=
200703270400 METAR MROC 270400Z 16003KT 9999 FEW025 BKN045 22/17 A3001 BECMG=
200703270500 METAR MROC 270500Z 11004KT 9999 FEW025 SCT035 21/16 A3000 BECMG=
200703270600 METAR MROC 270600Z 08005KT 9999 FEW025 21/15 A2998 BECMG=
200703270700 METAR MROC 270700Z 08008KT 9999 FEW025 20/19 A2996 BECMG=
200703270800 METAR MROC 270800Z 06004KT CAVOK 20/14 A2995 RMK TRCE SC=
200703270900 METAR MROC 270900Z 08006KT CAVOK 19/14 A2994 RMK TRACE SC=
200703271000 METAR MROC 271000Z 06008KT CAVOK 18/14 A2995 RMK TRACE SC=
200703271100 METAR MROC 271100Z 06009KT CAVOK 19/14 A2995 RMK TRACE SC=
200703271200 METAR MROC 271200Z 06007KT CAVOK 18/14 A2996 RMK TRACE CU CI=
200703271300 METAR MROC 271300Z 08007KT CAVOK 22/14 A2998 BECMG=
200703271400 METAR MROC 271400Z 08008KT CAVOK 25/14 A2999 BECMG=
200703271500 METAR MROC 271500Z 10010KT CAVOK 27/14 A2998 RMK FEW280 BECMG=
200703271600 METAR MROC 271600Z 11008KT CAVOK 29/14 A2997 RMK FEW280=
200703271700 METAR MROC 271700Z 04006KT 9999 FEW040 SCT280 30/11 A2996 RMK BECMG 24010KT 9999 FEW025TCU=
200703271800 METAR MROC 271800Z 26008KT 9999 FEW040 31/13 A2993 RMK FEW280 BECMG=
200703271900 METAR MROC 271900Z 25010KT 9999 FEW040 SCT280 31/14 A2990 BECMG=
200703272000 METAR MROC 272000Z 26013KT 9999 FEW025TCU SCT040 30/16 A2988 RMK FEW280 TCU N BECMG=
200703272100 METAR MROC 272100Z 22011KT 9999 FEW015 BKN030 29/17 A2987 RN DST E SE BECMG=
200703272200 METAR MROC 272200Z 12012KT 9999 FEW015 BKN030 23/18 A2989 RN NE E SE VSBY E 6KM DUE RN BECMG -RA=
200703272300 METAR MROC 272300Z 10010KT 9999 FEW020 SCT030 23/19 A2991 RN E BECMG=
200703280000 METAR MROC 280000Z 11007KT 9999 SCT025 SCT100 23/18 A2992 RN DST E BECMG=
200703280100 METAR MROC 280100Z VRB03KT 9999 SCT025 22/18 A2995 BECMG=
200703280200 METAR MROC 280200Z VRB03KT 9999 SCT030 22/18 A2998 BECMG=
200703280300 METAR MROC 280300Z 13004KT 9999 FEW030 22/18 A2999 BECMG=
200703280400 METAR MROC 280400Z 10003KT 9999 FEW030 20/18 A3000 BECMG=
200703280500 METAR MROC 280500Z 10002KT 9999 FEW030 20/17 A3001 BECMG=
200703280600 METAR MROC 280600Z 09005KT 9999 FEW030 21/16 A3000 BECMG=
200703280700 METAR MROC 280700Z 09005KT 9999 FEW030 20/16 A2997=
200703280800 METAR MROC 280800Z 04007KT 9999 FEW030 20/16 A2995 RMK LTNG DST SSE=
200703280900 METAR MROC 280900Z 04009KT 9999 FEW030 19/15 A2993 RMK OCNL LTNG DST SSE=
200703281000 METAR MROC 281000Z 06007KT 9999 FEW030 20/16 A2994=
200703281100 METAR MROC 281100Z 04006KT CAVOK 19/14 A2997 RMK TRAZAS SC SCT250=
200703281200 METAR MROC 281200Z 03006KT CAVOK 19/14 A2999 RMK TRAZAS SC CU BKN250=
200703281300 METAR MROC 281300Z 07006KT CAVOK 22/15 A3000 BKN250 BECMG=
200703281400 METAR MROC 281400Z 08008KT CAVOK 24/14 A3001 BKN250 BECMG=
200703281500 METAR MROC 281500Z 01003KT CAVOK 27/14 A3001 BKN250 BECMG=
200703281600 METAR MROC 281600Z 18505KT CAVOK 27/16 A3000 BKN250 BECMG=
200703281700 METAR MROC 281700Z 21006KT 9999 FEW040 BKN280 29/17 A2998 BECMG=
200703281800 METAR MROC 281800Z 22009KT 9999 FEW040 SCT300 29/17 A2996 BECMG=
200703281900 METAR MROC 281900Z 22008KT 9999 FEW040 SCT300 30/16 A2993 BECMG=
200703282000 METAR MROC 282000Z 23008KT 9999 SCT040 SCT300 30/15 A2990 BECMG=
200703282100 METAR MROC 282100Z 21009KT 9999 SCT035 BKN250 29/18 A2988 BECMG=
200703282200 METAR MROC 282200Z 23011KT 9999 SCT030 SCT250 28/19 A2989=
200703282300 METAR MROC 282300Z 20005KT 9999 SCT030 BKN250 26/20 A2990 RMK RN NE=
200703290000 METAR MROC 290000Z VRB03KT 9999 SCT030 BKN250 25/17 A2990=
200703290100 METAR MROC 290100Z 12003KT 9999 SCT030 SCT250 23/18 A2992=
200703290200 METAR MROC 290200Z 09004KT 9999 FEW030 SCT250 22/18 A2995=
200703290300 METAR MROC 290300Z 10003KT 9999 FEW030 SCT250 22/17 A2996 BECMG=
200703290400 METAR MROC 290400Z 09006KT 9999 FEW030 SCT250 21/17 A2998 BECMG=
200703290500 METAR MROC 290500Z 08007KT 9999 FEW030 SCT250 21/15 A2998 BECMG=
200703290600 METAR MROC 290600Z 10012KT CAVOK 21/16 A2997 RMK FEW250 BECMG=
200703290700 METAR MROC 290700Z 10010KT CAVOK 21/15 A2994 BECMG=
200703290800 METAR MROC 290800Z 10012KT CAVOK 21/15 A2993 RMK FEW250 BECMG=
200703290900 METAR MROC 290900Z 10010KT CAVOK 21/14 A2993 RMK FEW250 BECMG=
200703291000 METAR MROC 291000Z 04006KT CAVOK 20/14 A2993 RMK FEW250 BECMG=
200703291100 METAR MROC 291100Z 05006KT CAVOK 19/14 A2995 RMK FEW250 BECMG=
200703291200 METAR MROC 291200Z 04012KT CAVOK 19/13 A2997 RMK SCT280 CB DST S BECMG=
200703291300 METAR MROC 291300Z 04006KT CAVOK 23/16 A2999 RMK TRACE CU CB DST SW BKN250=
200703291400 METAR MROC 291400Z 10008KT CAVOK 26/14 A3000 RMK TRACE SC BKN270=
200703291500 METAR MROC 291500Z 11017G31KT CAVOK 27/13 A2999 RMK TRACE SC BKN270=
200703291600 METAR MROC 291600Z 10010KT 9999 FEW045 BKN270 29/11 A2999=
200703291700 METAR MROC 291700Z 11011KT 9999 FEW040 BKN270 29/22 A2996=
200703291800 METAR MROC 291800Z 11011G21KT 9999 FEW040 BKN270 30/13 A2993=
200703291900 METAR MROC 291900Z 12009KT 9999 SCT035 SCT270 31/13 A2990=
200703292000 METAR MROC 292000Z 21003KT 9999 SCT035 30/16 A2988=
200703292100 METAR MROC 292100Z 22012KT 9999 FEW020TCU SCT030 29/20 A2986 BECMG=
200703292200 METAR MROC 292200Z 20008KT 9999 SCT020TCU SCT035 26/20 A2987=
200703292300 METAR MROC 292300Z 20006KT 9999 FEW015TCU SCT025 25/20 A2989 RMK TCU NE=
200703300000 METAR MROC 300000Z 20004KT 9999 SCT015TCU SCT025 24/20 A2991=
200703300100 METAR MROC 300100Z 23005KT 9999 SCT025 BKN250 23/20 A2994=
200703300200 METAR MROC 300200Z 00000KT 9999 SCT030 SCT259 22/20 A2996=
200703300300 METAR MROC 300300Z 08005KT CAVOK 22/15 A2998 FEW250 BECMG=
200703300400 METAR MROC 300400Z 08006KT CAVOK 22/15 A2998 FEW250 BECMG=
200703300500 METAR MROC 300500Z 07005KT CAVOK 22/15 A2997 FEW280 BECMG=
200703300600 METAR MROC 300600Z 09006KT CAVOK 20/15 A2996 FEW280 BECMG=
200703300700 METAR MROC 300700Z 09008KT CAVOK 20/15 A2995 BECMG=
200703300800 METAR MROC 300800Z 07007KT CAVOK 20/14 A2993 BECMG=
200703300900 METAR MROC 300900Z 07009KT CAVOK 20/15 A2991 BECMG=
200703301000 METAR MROC 301000Z 07006KT CAVOK 20/15 A2992 FEW300 BECMG=
200703301100 METAR MROC 301100Z 050009KT CAVOK 20/14 A2993 FEW300 BECMG=
200703301200 METAR MROC 301200Z 10013KT CAVOK 21/14 A2993 TRACE SCT BECMG=
200703301300 METAR MROC 301300Z 10013KT CAVOK 23/15 A02995 RMK TRCE CU=
200703301400 METAR MROC 301400Z 10017KT CAVOK 25/15 A2996 RMK TRACE SC GUST 21KT=
200703301500 METAR MROC 301500Z 10018KT CAVOK 27/14 A2997 RMK TRACE SC=
200703301600 METAR MROC 301600Z 10014KT CAVOK 28/15 A2996 RMK TRACE CU=
200703301700 METAR MROC 301700Z 11008KT 9999 FEW040 30/14 A2994 BECMG=
200703301800 METAR MROC 301800Z 10008KT 9999 SCT030 31/14 A2991 BECMG=
200703301900 METAR MROC 301900Z 12007KT 9999 FEW025 SCT035 30/13 A2989 BECMG 22007KT=
200703302000 METAR MROC 302000Z 19005KT 9999 SCT020 SCT035 29/19 A2986 BECMG 24012KT=
200703302100 METAR MROC 302100Z 20007KT 9999 SCT020TCU SCT040 26/20 A2985 RMK LGT HZ ARND BECMG 8000 VCSH=
200703302200 METAR MROC 302200Z 10014KT 9999 FEW025TCU SCT035 25/16 A2984 BECMG=
200703302300 METAR MROC 302300Z 08008KT 9999 FEW025 SCT040 25/16 A2986 RMK CB DST S BECMG=
200703310000 METAR MROC 310000Z 10011KT 9999 FEW030 BKN040 23/16 A2988 RMK CB DST SSE=
200703310100 METAR MROC NIL=
200703310200 METAR MROC 310200Z 10012KT 9999 FEW030 SCT040 22/15 A2992 BECMG=
200703310300 METAR MROC 310300Z 10011KT 9999 FEW030 22/15 A2993=
200703310400 METAR MROC 310400Z 11013G24KT CAVOK 22/15 A2993 BECMG=
200703310500 METAR MROC 310500Z 05008KT CAVOK 21/13 A2993 BECMG=
200703310600 METAR MROC 310600Z 10008KT CAVOK 22/12 A2991 BECMG=
200703310700 METAR MROC 310700Z 06007KT CAVOK 20/12 A2989 BECMG=
200703310800 METAR MROC 310800Z 07005KT CAVOK 20/12 A2988=
200703310900 METAR MROC 310900Z 06010G20KT CAVOK 19/12 A2987=
200703311000 METAR MROC 311000Z 06008KT CAVOK 20/12 A2988=
200703311100 METAR MROC 311100Z 06008KT CAVOK 17/12 A2991=
200703311200 METAR MROC 311200Z 08004KT CAVOK 19/13 A2992 RMK TRACE CU FEW250=
200703311300 METAR MROC 311300Z 07004KT CAVOK 22/13 A2994 RMK SCT250 BECMG=
200703311400 METAR MROC 311400Z 10011KT CAVOK 25/12 A2995 RMK TRAZAS SC SCT250 BECMG=
200703311500 METAR MROC 311500Z 10013KT CAVOK 27/11 A2995 RMK TRAZAS CU AC SCT300=
200703311600 METAR MROC 311600Z 10010KT CAVOK 29/11 A2993 RMK TRAZAS CU AC SCT300 BECMG=
200703311700 METAR MROC 311700Z 12006KT CAVOK 30/11 A2992 RMK SCT250 TRAZAS CU AC=
200703311800 METAR MROC 311800Z 19004KT 9999 FEW030 SCT100 BKN300 31/12 A2990 BECMG=
200703311900 METAR MROC 311900Z 23009KT 9999 SCT030TCU SCT300 30/16 A2987 BECMG=
200703312000 METAR MROC 312000Z 20008KT 9999 FEW025TCU SCT035 27/19 A2986 RMK RN DST SW=
200703312100 METAR MROC 312100Z 23010KT 9999 FEW025TCU SCT035 26/19 A2985 RMK FEW250 CB DST W BECMG=
200703312200 METAR MROC 312200Z 22007KT 9999 FEW025TCU SCT035 BKN250 25/20 A2985 RMK CB RN DST W/SW BECMG=
200703312300 METAR MROC 312300Z 18002KT 9999 FEW025TCU BKN035 24/20 A2986 RMK TCU E BECMG=
200704010000 METAR MROC 010000Z 23003KT 9999 FEW015TCU BKN030 24/20 A2988 RMK FEW250 TCU/RN E/S BECMG 10006KT -RA=
200704010100 METAR MROC 010100Z 10006KT 9999 BKN030 SCT110 21/19 A2990 BECMG=
200704010200 METAR MROC 010200Z 09008KT 9999 BKN030 22/18 A2992 RMK FEW250 BECMG=
200704010300 METAR MROC 010300Z 09007KT 9999 FEW030 SCT120 22/18 A2994 BECMG=
200704010400 METAR MROC 010400Z 04005KT CAVOK 21/17 A2995 RMK TRACE SC BECMG=
200704010500 METAR MROC 010500Z 09010KT CAVOK 22/17 A2993 RMK TRACE SC BECMG=
200704010600 METAR MROC 010600Z 07009KT CAVOK 21/17 A2991 RMK TRACE SC BECMG=
200704010700 METAR MROC 010700Z 11005KT 9999 FEW030 SCT120 22/17 A2990 BECMG=
200704010800 METAR MROC 010800Z 05008KT 9999 FEW030 SCT120 21/17 A2988 BECMG=
200704010900 METAR MROC 010900Z 06006KT CAVOK 21/17 A2989 TRACE SCT BECMG=
200704011000 METAR MROC 011000Z 06005KT CAVOK 20/16 A2990 BECMG=
200704011100 METAR MROC 011100Z 06009KT CAVOK 20/16 A2991 RMK TRACE SC BECMG=
200704011200 METAR MROC 011200Z 09006KT CAVOK 21/16 A2993 RMK TRACE SC CI BECMG=
200704011300 METAR MROC 011300Z 09008KT CAVOK 23/16 A2994 RMK FEW300 BECMG=
200704011400 METAR MROC 011400Z 08012KT CAVOK 24/16 A2996 RMK FEW300 BECMG=
200704011500 METAR MROC 011500Z 10010KT CAVOK 27/16 A2997 RMK FEW300 BECMG=
200704011600 METAR MROC 011600Z 11008KT 9999 FEW040 30/17 A2996 RMK FEW300 BECMG=
200704011700 METAR MROC 011700Z 10008KT 9999 FEW040 30/16 A2995 BECMG 24010KT=
200704011800 METAR MROC 011800Z 12008KT 9999 FEW040 30/16 A2992 BECMG=
200704011900 METAR MROC 011900Z 08012KT 9999 SCT040 32/16 A2990 RMK RAFAGAS DE 20KT TCU DST S/SW CB DST ESE FEW080 BECMG=
200704012000 METAR MROC 012000Z 10010KT 9999 SCT040 30/16 A2987 RMK TCU DST S CB DST ESE FEW100 BECMG=
200704012100 METAR MROC 012100Z 07009KT 9999 SCT025 SCT100 29/16 A2986 CB DST S BECMG=
200704012200 METAR MROC 012200Z 11010KT 9999 FEW025 BKN280 29/17 A2986 CB SE BECMG=
200704012300 METAR MROC 012300Z 10010KT 9999 FEW025 SCT280 27/17 A2987 CB DST SE BECMG=
200704020000 METAR MROC 020000Z 08007KT 9999 FEW030 SCT280 25/17 A2989 BECMG=
200704020100 METAR MROC 020100Z 10011KT 9999 FEW030 24/18 A2991 BECMG=
200704020200 METAR MROC 020200Z 09009KT 9999 FEW030 23/17 A2994 BECMG=
200704020300 METAR MROC 020300Z 09012KT 9999 FEW030 23/17 A2996 BECMG=
200704020400 METAR MROC 020400Z 10014KT 9999 FEW030 22/17 A2996 RMK FEW300 BECMG=
200704020500 METAR MROC 020500Z 09013KT CAVOK 22/17 A2997 RMK TRAZAS SC SCT300 BECMG=
200704020600 METAR MROC 020600Z 09014KT CAVOK 22/17 A2996 RMK TRAZAS SC SCT300 BECMG=
200704020700 METAR MROC 020700Z 09014KT CAVOK 22/16 A2994 RMK TRAZAS SC SCT300 BECMG=
200704020800 METAR MROC 020800Z 10012KT CAVOK 23/15 A2992 RMK TRAZAS SC FEW300 BECMG=
200704020900 METAR MROC 020900Z 10012KT CAVOK 22/16 A2992 RMK TRAZAS SC FEW300 BECMG=
200704021000 METAR MROC 021000Z 09007KT CAVOK 21/16 A2993 RMK TRAZAS SC FEW300 BECMG=
200704021100 METAR MROC 021100Z 09010KT CAVOK 22/16 A2994 RMK TRAZAS SC FEW120 BECMG=
200704021200 METAR MROC 021200Z 10013KT CAVOK 22/16 A2996 RMK TRAZAS SC AC FEW300=
200704021300 METAR MROC 021300Z 10012KT CAVOK 23/16 A2997 FEW300 BECMG=
200704021400 METAR MROC 021400Z 10014KT CAVOK 26/16 A2998 TRACE CU=
200704021500 METAR MROC 021500Z 10014KT CAVOK 28/15 A2998 TRACE SCT=
200704021600 METAR MROC 021600Z 10012KT 9999 FEW030 29/16 A2999 BECMG=
200704021700 METAR MROC 021700Z 09010KT 9999 FEW030 30/16 A2997 BECMG=
200704021800 METAR MROC 021800Z 09010KT 9999 FEW025 31/16 A2994 BECMG=
200704021900 METAR MROC 021900Z 10012KT 9999 FEW030 31/15 A2991 BECMG=
200704022000 METAR MROC 022000Z 11011KT 9999 FEW030 BKN270 33/15 A2989 BECMG=
200704022100 METAR MROC 022100Z 23016KT 9999 SCT025TCU BKN250 28/20 A2988 RMK RN DST N NW=
200704022300 METAR MROC 022300Z 00000KT 9999 5000W VCRA FEW010CB SCT020 BKN250 20/18 A2993 BECMG 06008 RMK TSRA W=
200704030000 METAR MROC 030000Z 05005KT 9999 SCT020 BKN250 21/20 A2995 BECMG=
200704030100 METAR MROC 030100Z 06004KT 9999 FEW025 SCT120 BKN250 22/19 A2996 BECMG=
200704030200 METAR MROC 030200Z 09008KT 9999 FEW030 SCT250 22/19 A2998 BECMG=
200704030300 METAR MROC 030300Z 00000KT 9999 FEW030 BKN110 22/19 A3001 BECMG=
200704030400 METAR MROC 030400Z 09003KT 9999 FEW030 SCT110 22/18 A3001 RMK FEW280 BECMG=
200704030500 METAR MROC 030500Z 10010KT 9999 FEW030 SCT120 23/18 A3000 RMK FEW280 BECMG=
200704030600 METAR MROC 030600Z 11013KT 9999 FEW030 BKN280 22/18 A2998 RMK FEW120 BECMG=
200704030700 METAR MROC 030700Z 10009KT 9999 FEW030 BKN280 22/18 A2997 BECMG=
200704030800 METAR MROC 030800Z 09010KT 9999 FEW030 BKN280 23/17 A2995 BECMG=
200704030900 METAR MROC 030900Z 10009KT 9999 FEW030 BKN280 22/17 A2994 RMK FEW130 BECMG=
200704031000 METAR MROC 031000Z 10012KT 9999 FEW030 BKN280 22/17 A2993 BECMG=
200704031100 METAR MROC 031100Z 09008KT CAVOK 22/17 A2995 RMK BKN280 BECMG=
200704031200 METAR MROC 031200Z 10007KT CAVOK 22/17 A2997 RMK FEW130 BKN280 CB DST S BECMG=
200704031300 METAR MROC 031300Z 09009KT 9999 FEW030 BKN200 23/17 A3001 BECMG=
200704031400 METAR MROC 031400Z 10013KT 9999 FEW035 BKN230 26/17 A3001 BECMG=
200704031500 METAR MROC 031500Z 09010KT 9999 FEW030 BKN230 27/16 A3002 BECMG=
200704031600 METAR MROC NIL=
200704031700 METAR MROC 031700Z 10008KT 9999 SCT030 BKN240 30/16 A3001 BECMG=
200704031800 METAR MROC 031800Z 09005KT 9999 SCT030 BKN240 31/14 A2998 BECMG=
200704031900 METAR MROC 031900Z 10007KT 9999 SCT030TCU BKN230 31/16 A2994 RMK RN DST N=
200704032000 METAR MROC 032000Z 22014G25KT 9999 SCT025CB BKN110 25/21 A2993 BECMG 6000 SHRA RMK CB RN N NE=
200704032100 METAR MROC 032100Z 24007KT 9999 FEW015TCU SCT025 BKN120 24/19 A2994 RMK RN DST NE BECMG=
200704032200 METAR MROC NIL=
200704032300 METAR MROC 032300Z 18002KT 9999 SCT030 BKN120 24/20 A2993 BECMG=
200704040000 METAR MROC 040000Z 26003KT 9999 FEW030 BKN130 24/19 A2994 BECMG=
200704040100 METAR MROC 040100Z 07006KT 9999 FEW030 BKN120 23/17 A2994=
200704040200 METAR MROC 040200Z 10015KT 9999 FEW035 SCT120 23/18 A2993=
200704040300 METAR MROC 040300Z 10014KT CAVOK 23/17 A2993 TRACE SCT BKN250 BECMG=
200704040400 METAR MROC 040400Z 10013KT 9999 FEW030 BKN280 23/18 A2995 BECMG=
200704040500 METAR MROC 040500Z 10016KT 9999 FEW030 BKN130 23/18 A2995 BECMG=
200704040600 METAR MROC 040600Z 09012KT CAVOK 23/17 A2994 BKN130 BECMG=
200704040700 METAR MROC 040700Z 10013KT CAVOK 22/18 A2993 BKN130 BECMG=
200704040800 METAR MROC 040800Z 10011KT CAVOK 22/17 A2991 BKN130 BECMG=
200704040900 METAR MROC 040900Z 09012KT CAVOK 22/17 A2991 BKN120 BECMG=
200704041000 METAR MROC 041000Z 08010KT 9999 FEW00 BKN120 22/18 A2993 BECMG=
200704041100 METAR MROC 041100Z 06009KT 9999 FEW030 BKN120 22/18 A2992 BECMG=
200704041200 METAR MROC 041200Z 09008KT 9999 FEW030 BKN250 22/18 A2994 FEW120 BECMG=
200704041300 METAR MROC 041300Z 06004KT 9999 FEW025 BKN120 23/18 A2998 RMK DZ DST NE E SE=
200704041400 METAR MROC 041400Z 10009KT 9999 SCT030 BKN120 24/18 A3000 RMK DZ DST NE E BECMG=
200704041500 METAR MROC 041500Z 09004KT 9999 FEW030 BKN110 25/18 A3000 RMK DZ DST NE E=
200704041600 METAR MROC 041600Z 10008KT 9999 FEW030 BKN120 28/18 A3000 BECMG=
200704041700 METAR MROC 041700Z 12009KT 9999 FEW035 BKN120 28/18 A2997 RMK DZ DST NE E=
200704041800 METAR MROC 041800Z 09005KT 9999 SCT025 BKN120 30/17 A2995 RMK DZ DST NE E BECMG 24008KT=
200704041900 METAR MROC 041900Z 21009KT 9999 FEW025 SCT035 SCT120 27/20 A2992 BECMG=
200704042000 METAR MROC 042000Z 23011KT 9999 SCT035 BKN120 26/21 A2990 RMK RN DST NW N NE E SE BECMG=
200704042100 METAR MROC 042100Z 31005KT 7000 -TSRA FEW016CB SCT030 BKN120 23/22 A2990 RMK OCNL TS TO N NNW VIS S QD UNLTD BECMG=
200704042200 METAR MROC 042200Z 06007KT 9999 -DZ VCSH FEW010 SCT020 BKN120 21/19 A2990 RMK VIS 7KMS TO W BECMG=
200704042300 METAR MROC 042300Z 25003KT 9999 VCFG FEW004 SCT025 BKN120 21/20 A2992 RMK VIS S 6KMS BECMG=
200704050000 METAR MROC 050000Z 05003KT 9999 FEW006 SCT035 BKN120 21/20 A2993=
200704050100 METAR MROC 050100Z 09002KT 9999 SCT030 BKN120 21/20 A2993=
200704050200 METAR MROC 050200Z 09009KT 9999 FEW030 SCT120 22/19 A2993=
200704050300 METAR MROC 050300Z 10006KT 9999 FEW030 SCT120 21/19 A2994 BECMG=
200704050400 METAR MROC 050400Z 06010KT 9999 FEW035 SCT130 22/19 A2994 BECMG=
200704050500 METAR MROC 050500Z 07003KT CAVOK 21/18 A2995 BECMG=
200704050600 METAR MROC 050600Z 35004KT CAVOK 21/19 A2995 BECMG=
200704050700 METAR MROC 050700Z 04004KT 9999 FEW030 SCT130 20/18 A2992 BECMG RMK LTNG S DST=
200704050900 METAR MROC 050900Z 05005KT CAVOK 20/19 A2989 BECMG=
200704051000 METAR MROC NIL=
200704051100 METAR MROC 051100Z 00000KT 9999 FEW030 SCT130 20/18 A2991 BECMG=
200704051200 METAR MROC 051200Z 08003KT 9999 FEW030 BKN100 20/18 A2993 BECMG RMK RN DST N NE=
200704051300 METAR MROC 051300Z 07005KT 9999 -RA FEW030 BKN100 20/19 A2995 BECMG=
200704051400 METAR MROC 051400Z 07006KT CAVOK 23/19 A2997 RMK TRAZAS SC BKN100 SCT250 RERA BECMG=
200704051500 METAR MROC 051500Z 10009KT CAVOK 24/19 A2998 RMK TRAZAS SC BKN070 SCT120 BECMG=
200704051600 METAR MROC 051600Z 21006KT 9999 SCT030 SCT120 BKN250 24/20 A3000=
200704051700 METAR MROC 051700Z 25006KT 9999 FEW030 SCT140 BKN250 25/20 A2999 BECMG=
200704051800 METAR MROC 051800Z 20004KT 9999 FEW030 SCT180 BKN250 26/20 A2997 BECMG=
200704051900 METAR MROC 051900Z 06005KT 9999 FEW030 SCT160 BKN250 28/18 A2993 BECMG=
200704052000 METAR MROC 052000Z 09008KT 9999 FEW030 SCT160 BKN250 27/17 A2989 BECMG=
200704052100 METAR MROC 052100Z 10009KT 9999 FEW030 SCT130 BKN250 27/18 A2988 RMK TCU DST S/SW BECMG=
200704052200 METAR MROC 052200Z 09007KT 9999 FEW030 BKN250 26/17 A2988 RMK FEW120 TCU/CB DST S BECMG=
200704052234 METAR MROC 052234Z 21006KT 9999 SCT030 BKN250 25/21 A2990 RMK FEW120 CB DST S BECMG=
200704052300 METAR MROC 052300Z 23008KT 9999 SCT030 SCT120 25/21 A2990 RMK CB DST S BECMG=
200704060000 METAR MROC 060000Z 22004KT 9999 FEW025TCU SCT110 BKN250 22/21 A2993 RMK TCU/RN DST SW BECMG=
200704060100 METAR MROC 060100Z 00000KT 9999 SCT025 SCT110 22/21 A2993 RMK SCT250 BECMG=
200704060200 METAR MROC 060200Z 00000KT 9999 3000 VCBR FEW010 BKN110 21/20 A2994 RMK FEW030 BECMG=
200704060300 METAR MROC 060300Z 07005KT 9999 FEW030 BKN110 22/18 A2995 RMK DZ DST NE E=
200704060400 METAR MROC 060400Z 07008KT 9999 -DZ BKN110 23/18 A2996 RMK TRACE ST DZ DST N NE=
200704060500 METAR MROC 060500Z 04007KT CAVOK 22/18 A2996 RMK TRACE ST SCT120 SCT250=
200704060600 METAR MROC 060600Z 00000KT CAVOK 21/18 A2996 RMK SCT120=
200704060700 METAR MROC 060700Z 07003KT CAVOK 20/17 A2994 RMK TRACE SC SCT250 BECMG=
200704060800 METAR MROC 060800Z 03004KT CAVOK 20/17 A2991 RMR TRACE SCT BKN250 BECMG=
200704060900 METAR MROC 060900Z 06003KT CAVOK 20/16 A2992 RMK TRACE SC BKN250 BECMG=
200704061000 METAR MROC 061000Z 03006KT CAVOK 19/16 A2992 RMK TRACE SC BKN250 BECMG=
200704061100 METAR MROC 061100Z 01006KT CAVOK 19/16 A2993 RMK TRACE SC SCT250 BECMG=
200704061200 METAR MROC 061200Z 12003KT CAVOK 21/16 A2995 RMK TRACE SC SCT110 SCT250 BECMG=
200704061300 METAR MROC 061300Z 11002KT CAVOK 20/16 A2997 RMK BKN110 FEW250 TCU DST S BECMG=
200704061400 METAR MROC 061400Z 09004KT CAVOK 22/17 A2998 RMK BKN110 SCT250 BECMG=
200704061500 METAR MROC 061500Z 10005KT CAVOK 24/17 A3000 RMK SCT110 SCT250 BECMG=
200704061600 METAR MROC 061600Z 32005KT CAVOK 26/17 A3000 RMK FEW120 BKN250 BECMG=
200704061700 METAR MROC 061700Z 10008KT CAVOK 27/16 A2997 RMK FEW120 BKN250 BECMG=
200704061800 METAR MROC 061800Z 11006KT 9999 FEW035 BKN250 29/16 A2995 RMK FEW120 BECMG=
200704061900 METAR MROC 061900Z 25005KT 9999 SCT035 SCT250 28/17 A2992 RMK FEW120 BECMG=
200704062000 METAR MROC 062000Z 23007KT 9999 FEW025 BKN035 26/19 A2990 RMK FEW100 BECMG=
200704062100 METAR MROC 072100Z 24010KT 9999 FEW020TCU BKN030 26/19 A2989 RN DST N BECMG=
200704062200 METAR MROC 062200Z 25007KT 9999 FEW020 BKN030 28/19 A2989 RN NW N NE S BECMG 8000 RA=
200704062300 METAR MROC 062300Z 13005KT 9999 SCT020 BKN030 24/19 A2992 RN NE N NE E BECMG 8000 -SHRA=
200704070000 METAR MROC 070000Z 10004KT 9999 FEW020 BKN030 23/19 A2995 RN NE E BECMG 8000 -SHRA=
200704070100 METAR MROC 070100Z 08006KT 9999 SCT030 SCT120 BKN250 21/17 A2997 BECMG=
200704070200 METAR MROC 070200Z 10011KT 9999 BKN035 SCT120 21/17 A2998 BECMG=
200704070300 METAR MROC 070300Z 10016KT 9999 SCT035 22/16 A2999 RMK FEW120 BECMG=
200704070400 METAR MROC 070400Z 11015KT 9999 SCT035 21/17 A3000 RMK FEW120 BECMG=
200704070500 METAR MROC 070500Z 10013KT 9999 FEW035 22/16 A2998 RMK FEW120 BECMG=
200704070600 METAR MROC 070600Z 10012KT CAVOK 22/16 A2997 RMK TRAZAS SC SCT120 BECMG=
200704070700 METAR MROC 070700Z 10006KT CAVOK 21/16 A2995 RMK TRAZAS SC FEW120 BECMG=
200704070800 METAR MROC 070800Z 18002KT CAVOK 22/16 A2994 RMK TRAZAS SC FEW120 LTNG=
200704070900 METAR MROC 070900Z 08004KT CAVOK 21/16 A2995 RMK TRAZAS SC SCT120 OCNL=
200704071000 METAR MROC 071000Z 07007KT CAVOK 21/16 A2994 RMK TRAZAS SC SCT120 BECMG=
200704071100 METAR MROC 071100Z 06007KT CAVOK 21/16 A2998 RMK TRAZAS SC BKN120 BECMG=
200704071200 METAR MROC 071200Z 06007KT 9999 FEW035 SCT100 BKN160 21/16 A2999 BECMG=
200704071300 METAR MROC 071300Z 08007KT CAVOK 22/16 A3000 BKN120 BECMG=
200704071400 METAR MROC 071400Z 09011KT CAVOK 23/16 A3003 BKN120 BECMG=
200704071500 METAR MROC 071500Z 10010KT 9999 FEW025 BKN120 24/16 A3004 DZ NE BECMG=
200704071600 METAR MROC 071600Z 10013KT 9999 FEW030 SCT120 BKN230 25/17 A3004 BECMG=
200704071700 METAR MROC 071700Z 10011KT 9999 FEW030 SCT120 BKN230 25/17 A3002 BECMG=
200704071800 METAR MROC 071800Z 10013KT 9999 FEW030 SCT100 BKN250 26/17 A3000 DZ NE BECMG=
200704071900 METAR MROC 071900Z 10011KT 9999 FEW025 SCT100 BKN250 26/17 A2997 BECMG=
200704072000 METAR MROC 072000Z 10012KT 9999 SCT025 BKN250 26/17 A2995 BECMG=
200704072100 METAR MROC 072100Z 10010KT 9999 FEW015 SCT025 BKN250 27/17 A2994 BECMG RMK RN DST NE=
200704072200 METAR MROC 072200Z 08010KT 9999 SCT025 BKN250 26/16 A2994 RMK DZ N NE=
200704072300 METAR MROC 072300Z 09010KT 9999 SCT020 SCT100 BKN250 24/17 A2997 BECMG=
200704072350 METAR MROC 080000Z 10010KT 9999 SCT025 BKN100 23/17 A3000 BECMG=
200704080000 METAR MROC 080000Z 10010KT 9999 SCT025 BKN100 23/17 A3000 BECMG=
200704080100 METAR MROC 080100Z 08005KT 9999 FEW030 SCT120 23/16 A3003 BECMG=
200704080200 METAR MROC 080200Z 09005KT 9999 FEW030 22/16 A3005 BECMG=
200704080300 METAR MROC 080300Z 10007KT 9999 FEW030 SCT120 22/16 A3005 BECMG=
200704080400 METAR MROC 080400Z 10002KT 9999 SCT030 SCT120 21/17 A3006 BECMG=
200704080500 METAR MROC 080500Z 07004KT 9999 FEW030 BKN120 21/17 A3008 BECMG=
200704080600 METAR MROC 080600Z 07002KT 9999 FEW030 BKN100 20/17 A3006 RMK FEW220 BECMG=
200704080700 METAR MROC 080700Z 09005KT 9999 FEW030 BKN110 20/17 A3002 BECMG=
200704080800 METAR MROC 080800Z 06010KT 9999 FEW030 SCT120 21/17 A3000 RMK SCT250 BECMG=
200704080900 METAR MROC 080900Z 10012KT 9999 FEW030 BKN120 22/16 A2998 BECMG=
200704081000 METAR MROC 081000Z 10012KT 9999 FEW030 BKN120 22/16 A2999 BECMG=
200704081100 METAR MROC 081100Z 08008KT 9999 FEW025 SCT120 21/17 A3002 BECMG=
200704081200 METAR MROC 081200Z 05008KT 9999 FEW025 BKN120 21/17 A3004 RMK DZ DST N/NE BECMG=
200704081300 METAR MROC 081300Z 09013KT 9999 FEW025 SCT120 SCT250 22/17 A3006 RMK DZ DST N NE BECMG=
200704081400 METAR MROC 081400Z 11009KT 9999 FEW035 SCT120 24/16 A3008 RMK FEWCC BECMG=
200704081500 METAR MROC 081500Z 10014KT 9999 FEW030 SCT120 26/16 A3008 BECMG=
200704081600 METAR MROC 081600Z 11011KT 9999 FEW025 SCT120 26/16 A3008 BECMG=
200704081700 METAR MROC 081700Z 12013KT 9999 FEW025 BKN110 27/16 A3006 BECMG=
200704081800 METAR MROC 081800Z 10012KT 9999 FEW025 SCT120 29/17 A3005 RMK FEW250 BECMG=
200704081900 METAR MROC 081900Z 10012KT 9999 FEW025TCU BKN250 28/17 A3001 BECMG=
200704082000 METAR MROC 082000Z 09012KT 9999 SCT030 BKN040 26/17 A2999 BECMG=
200704082100 METAR MROC 082100Z 10011KT 9999 VCSH SCT025 BKN035 25/17 A3000 RMK 6000SW RN DST N NE SE=
200704082200 METAR MROC 082200Z 10010KT 9999 SCT025 BKN090 22/18 A3001 RN DST ARND BECMG=
200704082300 METAR MROC 082300Z 07010KT 9999 DZ SCT025 BKN220 22/18 A3001=
200704082359 METAR MROC 090000Z VRB03KT 9999 FEW030 BKN250 22/18 A3004 BECMG=
200704090000 METAR MROC 090000Z VRB03KT 9999 FEW030 BKN250 22/18 A3004 BECMG=
200704090100 METAR MROC 090100Z 08005KT 9999 FEW030 BKN250 21/18 A3005 BECMG=
200704090200 METAR MROC 090200Z 08007KT 9999 FEW030 BKN250 21/17 A3005 BECMG=
200704090300 METAR MROC 090300Z 08011KT CAVOK 22/17 A3006 FEW120 BECMG=
200704090400 METAR MROC 090400Z 06004KT CAVOK 21/17 A3007 FEW250 BECMG=
200704090500 METAR MROC 090500Z 03006KT CAVOK 21/18 A3006 BECMG=
200704090600 METAR MROC 090600Z 04006KT CAVOK 21/17 A3004 FEW250 BECMG=
200704090700 METAR MROC 090700Z 06007KT CAVOK 21/18 A3002 BECMG=
200704090800 METAR MROC 090800Z 05004KT CAVOK 21/17 A3003 SCT120 BECMG=
200704090900 METAR MROC 090900Z 06005KT CAVOK 20/17 A3003 SCT120 BECMG=
200704091000 METAR MROC 091000Z 03004KT CAVOK 20/17 A3002 FEW120 BKN250 BECMG=
200704091100 METAR MROC 091100Z 06004KT 9999 FEW030 BKN100 21/17 A3003 BECMG=
200704091200 METAR MROC 091200Z 04006KT CAVOK 22/17 A3004 BKN100 TRACE SCT BECMG=
200704091300 METAR MROC 091300Z 10007KT CAVOK 23/17 A3006 RMK TRACE CU SC BKN120=
200704091400 METAR MROC 091400Z 10012G22KT CAVOK 26/17 A3008 BECMG RMK BKN120=
200704091500 METAR MROC 091500Z 10012G23KT CAVOK 26/17 A3008 BECMG RMK TRACE SC SCT130 BKN250=
200704091600 METAR MROC 091600Z 11008KT 9999 FEW030 SCT130 BKN250 29/17 A3008 BECMG=
200704091700 METAR MROC 091700Z 22010KT 9999 SCT030 BKN250 29/20 A3006 BECMG=
200704091800 METAR MROC 091800Z 21007KT 9999 SCT025 BKN250 28/19 A3003 BECMG=
200704091900 METAR MROC 091900Z 23008KT 9999 FEW015TCU SCT025 BKN250 29/20 A2999 BECMG=
200704092000 METAR MROC 092000Z 23012G22KT 9999 FEW010TCU SCT025 BKN250 27/20 A2996 BECMG 8000 RA RMK CB RN N NE=
200704092100 METAR MROC 092100Z 30006KT 9999 TSRA FEW015CB BKN030 21/19 A2998 VIS S SW 4KM DUE TSTM BECMG=
200704092200 METAR MROC 092200Z 18002KT 9999 SCT030 OVC150 22/20 A2997 RN DIST W BECMG=
200704092300 METAR MROC 092300Z 27005KT 9999 SCT020 OVC140 22/20 A2999 BECMG=
200704100000 METAR MROC 100000Z 00000KT 9999 FEW030 OVC150 22/19 A3001 BECMG=
200704100100 METAR MROC 100100Z 05003KT 9999 FEW030 BKN120 21/20 A3001=
200704100200 METAR MROC 100200Z 00000KT 9999 FEW030 SCT120 21/19 A3003=
200704100300 METAR MROC 100300Z 34004KT 9999 FEW030 SCT120 21/19 A3005 BECMG=
200704100400 METAR MROC 100400Z 00000KT 9999 FEW030 SCT120 20/19 A3006 BECMG=
200704100500 METAR MROC 100500Z 05008KT CAVOK 20/18 A3005 BECMG=
200704100600 METAR MROC 100600Z 08006KT CAVOK 29/17 A3003 BECMG=
200704100700 METAR MROC NIL=
200704100800 METAR MROC 100800Z 04008KT CAVOK 20/17 A2998 BECMG=
200704100900 METAR MROC 100900Z 12005KT CAVOK 20/17 A2998 BECMG=
200704101000 METAR MROC 101000Z 00000KT CAVOK 19/16 A2998 BECMG=
200704101100 METAR MROC 101100Z 02004KT 9999 FEW035 SCT250 19/17 A2998 BECMG=
200704101200 METAR MROC 101200Z 00000KT 9999 FEW015 SCT025 BKN250 18/16 A2997 BECMG RMK DZ N NE HZ LGT ARND=
200704101300 METAR MROC 101300Z 07003KT CAVOK 21/18 A3002 BECMG/ RMK HZ LGT ARND OVC250/=
200704101400 METAR MROC 101400Z 00000KT CAVOK 23/19 A3004 OVC250 TRACE SCT BECMG 23006KT=
200704101500 METAR MROC 101500Z 29004KT 9999 FEW040 OVC250 25/19 A3005 HZY BECMG=
200704101700 METAR MROC 101700Z 22009KT 9999 SCT040 SCT120 BKN250 26/19 A3001 BECMG HZ DIST W=
200704101800 METAR MROC 101800Z 22010KT 9999 SCT030TCU SCT120 BKN250 26/20 A2999 BECMG=
200704101900 METAR MROC 101900Z 20007KT 9999 SCT030 OVC120 25/20 A2997 BECMG=
200704102000 METAR MROC 102000Z 24006KT 9999 VCSH SCT020 OVC120 24/20 A2994  BECMG 5000 SHRA  RMK VIS N NE NW 6KM DUE RN=
200704102020 METAR MROC 102020Z 24005KT 9999 -RA SCT020 OVC120 23/20 A2993 RMK VIS N/NE 4KMS DUE RN=
200704102100 METAR MROC 102100Z 32006KT 9999 -DZRA FEW015 SCT020 BKN100 22/21 A2994 RMK VIS ESE/W 5KM BECMG=
200704102200 METAR MROC 102200Z 30003KT 9999 FEW015 SCT030 BKN110 22/20 A2993 RMK VIS 8KM SW/W LINEA TCU/ CHECK TEXT NEW ENDING ADDED KATLYTAA=
200704102300 METAR MROC 102300Z 21005KT 9999 4000W -DZ BR FEW005 FEW010CB BKN025 22/20 A2996 RMK CB/LTNG VIS 5KM S/SW BECMG 5000 -RA BR FEW003 SCT015=
200704110000 METAR MROC 110000Z 00000KT 9999 -DZ FEW015 BKN025 21/20 A2998 RMK SCT110 BECMG=
200704110100 METAR MROC 110100Z 28004KT 9999 -DZRA FEW015 SCT025 SCT100 21/20 A2999 RMK VIS S/SW 8KM BECMG=
200704110200 METAR MROC 110200Z 32004KT 9999 FEW010 SCT025 BKN100 21/20 A3001 BECMG=
200704110300 METAR MROC 110300Z 11002KT 9999 SCT030 BKN100 21/20 A3002 BECMG=
200704110400 METAR MROC 110400Z 00000KT 9999 FEW030 BKN120 21/20 A3002 BECMG=
200704110500 METAR MROC 110500Z 00000KT 9999 FEW030 SCT120 21/20 A3002 BECMG=
200704110600 METAR MROC 110600Z 00000KT 9999 FEW030 SCT120 21/20 A3000 BECMG=
200704110700 METAR MROC 110700Z 13002KT 9999 FEW030 SCT120 21/20 A2998 BECMG=
200704110800 METAR MROC 110800Z 09003KT 9999 FEW030 SCT120 20/20 A2996 BECMG=
200704110900 METAR MROC 110900Z 06003KT CAVOK 20/19 A2994 RMK TRACE SC SCT250=
200704111000 METAR MROC 111000Z 07005KT 9999 FEW030 SCT250 20/18 A2993 BECMG=
200704111100 METAR MROC 111100Z 11002KT 9999 FEW030 SCT120 SCT250 19/18 A2996 BECMG=
200704111200 METAR MROC 111200Z 05003KT 9999 FEW045 SCT120 20/18 A2998 RMK FEW250 CB DST SSW BECMG=
200704111300 METAR MROC 111300Z 06004KT CAVOK 22/19 A3000 RMK TCU DST S BECMG=
200704111400 METAR MROC 111400Z 10002KT CAVOK 25/19 A3001 RMK SCT150 FEW260 TU DST S/SW BECMG=
200704111500 METAR MROC 111500Z 16002KT CAVOK 27/19 A3000 RMK FEW150 FEW260 CB DST SW BECMG 25008KT 9999 FEW030=
200704111600 METAR MROC 111600Z 23007KT 9999 FEW040 27/20 A3000 RMK FEW260 TCU DST S BECMG=
200704111700 METAR MROC 111700Z 23008KT 9999 SCT035 28/20 A2999 BECMG=
200704111900 METAR MROC 111900Z 22006KT 9999 SCT035 SCT260 28/20 A2994 RMK TCU/CB DST S/SW HZ LGT ARND BECMG=
200704112000 METAR MROC 112000Z 23012KT 9999 FEW025TCU BKN035 27/21 A2991 RMK TCU SCT ARND RN DSR ESE BECMG=
200704112100 METAR MROC 112100Z 23009KT 9999 FEW020TCU BKN030 26/21 A2991 RN NE BECMG=
200704112200 METAR MROC 112200Z 20006KT 9999 FEW020TCU SCT030 BKN130 24/20 A2992 RN NE BECMG=
200704112300 METAR MROC 112300Z 22006KT 4000 -SHRA FEW010TCU BKN025 23/20 A2994 VSBY E SE UNL BECMG=
200704120000 METAR MROC 120000Z 24007KT 4000 -RA BR BKN005 SCT025 21/21 A2995 BECMG=
200704120100 METAR MROC 120100Z 23009KT 4000 TSRA FEW002 BKN005 FEW010CB 21/21 A3000 TS S BECMG=
200704120200 METAR MROC 120200Z 22002KT 5000 -RA BR FEW002 BKN006 21/20 A3002 VSBY S UNL VSBY W 3KM LOW ST BECMG=
200704120300 METAR MROC 120300Z 29003KT 9000 -DZ FEW008 BKN110 21/21 A3003 BECMG RMK VIS SW 5K=
200704120400 METAR MROC 120400Z 07003KT 9999 FEW015 OVC120 21/20 A3004 REDZ BECMG=
200704120500 METAR MROC 120500Z 29003KT 9999 FEW020 OVC100 21/21 A3002 BECMG RMK RN DIST NE=
200704120600 METAR MROC 120600Z 15004KT 9999 FEW015 OVC120 21/21 A3001 BECMG=
200704120700 METAR MROC 120700Z 00000KT 9999 SCT020 OVC100 21/20 A2999 BECMG VIS SW 7KM DUE LOW ST=
200704120800 METAR MROC 120800Z 00000KT 9999 FEW020 SCT120 21/20 A2998 BECMG=
200704120900 METAR MROC 120900Z 03006KT 9999 FEW030 SCT140 21/20 A2996 BECMG RMK=
200704121000 METAR MROC 121000Z 04004KT CAVOK 20/19 A2998 BECMG=
200704121100 METAR MROC 121100Z 06006KT CAVOK 20/18 A2999 BECMG/RMK TRACE SCT=
200704121200 METAR MROC 121200Z 04006KT CAVOK 21/18 A3000 BECMG/ RMK TRACE SC LINE CB DIST SW=
200704121300 METAR MROC 121300Z 19003KT 9999 FEW005 BKN250 22/20 A3004 VSBY S SW 5KM DUE LOW ST BECMG=
200704121400 METAR MROC 121400Z 27003KT 9999 FEW010 BKN270 24/20 A3005 HZY BECMG=
200704121500 METAR MROC 121500Z 00000KT 9999 FEW012 BKN270 26/20 A3004 HZY BECMG=
200704121600 METAR MROC 121600Z 33003KT 9999 FEW015 BKN250 29/20 A3001 HZY BECMG=
200704121700 METAR MROC 121700Z 15003KT 9999 FEW025 BKN250 31/19 A3000 HZY BECMG=
200704121800 METAR MROC 121800Z 23012KT 9999 SCT020TCU BKN250 28/22 A2998 BECMG=
200704121900 METAR MROC 121900Z 23013KT 9999 SCT015TCU BKN260 26/22 A2995 VSBY NW N NE 6KM DUE LW ST BECMG=
200704122000 METAR MROC 122000Z 25014KT 5000 SHRA FEW008 SCT010CB SCT025 24/21 A2995 VSBY N NE 2KM DUE RASH BECMG=
200704122100 METAR MROC 122100Z 27004KT 7000 VCFG FEW010 BKN025 22/21 A2994 BECMG=
200704122300 METAR MROC 122300Z 22005KT 4000 BR FEW003 SCT015 BKN100 22/21 A2995 BECMG 2000 RA BR=
200704130000 METAR MROC 130000Z 00000KT 7000 VCFG SCT025 BKN100 21/21 A2996 BECMG=
200704130100 METAR MROC 130100Z VRB03KT 8000 VCFG SCT025 BKN100 21/21 A2999 BECMG=
200704130200 METAR MROC 130200Z 25005KT 4000 BR FEW003 SCT025 BKN100 21/20 A3002=
200704130300 METAR MROC NIL=
200704130400 METAR MROC 130400Z 08003KT 9999 FEW005 BKN100 21/20 A3004 RMK FEW025 VIS S/SW 6KM DUE ST BECMG=
200704130500 METAR MROC 130500Z 04005KT 9999 FEW015 OVC110 21/20 A3004 BECMG=
200704130600 METAR MROC 130600Z 00000KT 9999 FEW010 OVC110 20/20 A3002 RMK FEW025 VIS 8KM SW DUE ST BECMG=
200704130700 METAR MROC 130700Z 12002KT 0100 VV/// 20/19 A3000 BECMG 1500 BR SCT003 SCT012=
200704130800 METAR MROC 130800Z 07002KT 9999 FEW003 BKN120 20/19 A2998 RMK VIS S/SW 7KM DUE ST BECMG=
200704130900 METAR MROC 130900Z 09006KT 9999 FEW003 SCT120 21/18 A2996 RMK VIS S/SW 8KM DUE ST SCT250 BECMG=
200704131000 METAR MROC 131000Z 05004KT CAVOK 20/18 A2997 RMK FEW120 SCT250 BECMG=
200704131100 METAR MROC 131100Z 04006KT CAVOK 20/17 A2998 BECMG=
200704131200 METAR MROC 131200Z 10004KT CAVOK 21/18 A3000 RMK FEW120 SCT250 BECMG=
200704131300 METAR MROC 131300Z 09009KT CAVOK 24/18 A3002 BECMG=
200704131400 METAR MROC 131400Z 11007KT CAVOK 26/19 A3003 RMK TRACE CU SCT250=
200704131500 METAR MROC 131500Z 32004KT 9999 FEW025 BKN250 28/19 A3003 BECMG=
200704131600 METAR MROC 131600Z 04008KT 9999 FEW025 BKN250 30/17 A3002 BECMG=
200704131700 METAR MROC 131700Z 13007KT 9999 SCT025 BKN250 31/18 A3000 BECMG RMK HZ LGT ARND=
200704131800 METAR MROC 131800Z 25009KT 9999 SCT025 BKN250 28/21 A2999 BECMG=
200704131900 METAR MROC 131900Z 23012KT 9999 SCT020TCU BKN250 27/22 A2996 BECMG=
200704132000 METAR MROC 132000Z 23010KT 9999 SCT020TCU BKN250 28/22 A2994 BECMG=
200704132100 METAR MROC 132100Z 25010KT 9999 SCT030TCU BKN250 28/22 A2993 BECMG=
200704132200 METAR MROC 132200Z 23008KT 9999 SCT025 BKN250 26/22 A2992 BECMG=
200704132300 METAR MROC 132300Z 23007KT 9999 FEW030 BKN250 24/21 A2993 BECMG=
200704140000 METAR MROC 140000Z 24006KT 9999 FEW030 BKN250 24/22 A2995 BECMG=
200704140100 METAR MROC 140100Z 27005KT 9999 FEW030 SCT250 24/22 A2997 BECMG=
200704140200 METAR MROC 140200Z 27003KT 9999 FEW030 23/21 A2998 BECMG=
200704140300 METAR MROC 140300Z 00000KT 9999 FEW010 23/21 A2999 LOW ST SW BECMG=
200704140400 METAR MROC 140400Z 00000KT 9999 FEW010 22/20 A3000 BECMG=
200704140500 METAR MROC 140500Z 09003KT CAVOK 22/19 A3000 FEW120 BECMG=
200704140600 METAR MROC 140600Z 00000KT 9999 FEW010 22/19 A2999 LOW ST SW=
200704140700 METAR MROC NIL=
200704140800 METAR MROC 140800Z 00000KT 9999 SCT010 20/20 A2996 VSBY S SW 6KM DUE LOW ST=
200704140900 METAR MROC 140900Z 07003KT 9999 FEW012 20/19 A2995 LOW ST SW BECMG=
200704141000 METAR MROC 141000Z 06004KT 9999 FEW015 20/18 A2996 BECMG=
200704141100 METAR MROC 141100Z 09007KT 9999 FEW020 SCT60 21/18 A2997 BECMG=
200704141200 METAR MROC 141200Z 02007KT 9999 SCT020 SCT270 23/21 A2984 BECMG=
200704141300 METAR MROC 141300Z 06003KT 9999 SCT030 SCT250 22/19 A3000 BECMG=
200704141400 METAR MROC 141400Z VRB02KT 9999 SCT030 SCT250 26/19 A3003 BECMG=
200704141500 METAR MROC 141500Z 10003KT 9999 FEW015 SCT120 27/19 A3003 RMK FEW250 BECMG 24007KT=
200704141600 METAR MROC 141600Z 12008KT 9999 SCT025 BKN120 27/18 A3003 BECMG=
200704141700 METAR MROC 141700Z 10011KT 9999 SCT025 SCT100 28/19 A3000 BECMG=
200704141800 METAR MROC 141800Z 11013KT 9999 FEW020 SCT030 27/18 A2999 BECMG=
200704141900 METAR MROC 141900Z 10010KT 9999 SCT020 BKN030 27/18 A2996 RMK RN DST N NE E SW W BECMG=
200704142000 METAR MROC 142000Z 10010KT 9999 -RA SCT030 BKN100 25/18 A2993 BECMG0=
200704142100 METAR MROC 142100Z 10010KT 9999 4000W SCT020 OVC100 24/18 A2994  RERA BECMG=
200704142200 METAR MROC 142200Z 10010KT 9999 SCT020 OVC120 24/17 A2993 BECMG RMK RN DIST W=
200704142300 METAR MROC 142300Z 09010KT 9999 FEW025 OVC120 23/17 A2994 BECMG RN=
200704150000 METAR MROC 150000Z 06008KT CAVOK 23/17 A2995 BECMG TRACE SC BKN130=
200704150100 METAR MROC 150100Z 08007KT CAVOK 23/17 A2996 BECMG=
200704150200 METAR MROC 150200Z 02006KT CAVOK 22/17 A2998 BECMG=
200704150300 METAR MROC 150300Z 00000KT CAVOK 21/17 A2999 BECMG=
200704150400 METAR MROC 150400Z VRB03KT CAVOK 20/17 A3002 BECMG=
200704150500 METAR MROC 150500Z 05006KT CAVOK 20/17 A3002 BECMG=
200704150600 METAR MROC NIL=
200704150700 METAR MROC 150700Z 07004KT CAVOK 18/16 A3000 BECMG=
200704150800 METAR MROC NIL=
200704150900 METAR MROC 150900Z 06005KT CAVOK 18/16 A2997 BECMG=
200704151000 METAR MROC 151000Z 07004KT CAVOK 19/17 A2997 BECMG=
200704151100 METAR MROC 151100Z 07004KT CAVOK 19/16 A2998 BECMG=
200704151200 METAR MROC 151200Z 07005KT CAVOK 18/16 A3000 BECMG RMK BKN250=
200704151300 METAR MROC 151300Z 06008KT CAVOK 21/17 A3003 BECMG RMK SCT150 BKN250=
200704151400 METAR MROC 151400Z 04006KT CAVOK 25/19 A3005 BECMG SCT150 BKN270=
200704151500 METAR MROC 151500Z 08004KT 9999 FEW040 BKN270 26/18 A3005 BECMG=
200704151600 METAR MROC 151600Z 12003KT 9999 FEW040 SCT120 BKN270 27/18 A3005 BECMG=
200704151700 METAR MROC 151700Z 23003KT 9999 SCT035 BKN250 28/19 A3003 BECMG=
200704151800 METAR MROC 151800Z 27006KT 9999 SCT030 BKN250 30/19 A3001 BECMG=
200704151900 METAR MROC 151900Z 23009KT 9999 SCT030TCU BKN260 28/19 A2996 BECMG=
200704152000 METAR MROC 152000Z 260009KT 9999 FEW030 SCT040 BKN270 29/20 A2994 BECMG=
200704152100 METAR MROC 152100Z 23011KT 9999 FEW02TCU BKN270 28/21 A2993 BECMG=
200704152200 METAR MROC 152200Z 23009KT 9999 FEW025TCU BKN270 27/22 A2992 RMK HZ W BECMG=
200704152300 METAR MROC 152300Z 20006KT 9999 FEW025TCU SCT270 26/21 A2994 RMK FEW035 HZ W BECMG=
200704160000 METAR MROC 160000Z 24007KT 9999 SCT035 SCT270 24/21 A2998 RMK TCU DST N BECMG=
200704160100 METAR MROC 160100Z 26003KT 9999 FEW015 SCT030 SCT270 23/21 A3000 BECMG=
200704160200 METAR MROC 160200Z 00000KT 9999 SCT015 SCT025 22/21 A3003 BECMG=
200704160300 METAR MROC 160300Z VRB03KT 9999 FEW020 22/21 A3005 BECMG=
200704160400 METAR MROC 160400Z 00000KT 9999 FEW020 22/21 A3006 BECMG=
200704160500 METAR MROC 160500Z 10004KT CAVOK 21/18 A3005 RMK TRACE SC=
200704160600 METAR MROC 160600Z 07006KT CAVOK 21/17 A3005 RMK TRACE SC BECMG=
200704160700 METAR MROC 160700Z 10008KT CAVOK 21/17 A3003 RMK TRACE SC BECMG=
200704160800 METAR MROC 160800Z 10009KT CAVOK 21/17 A3002 RMK TRACE SC BECMG=
200704160900 METAR MROC 160900Z 09006KT CAVOK 21/17 A3000 TRACE SCT BECMG=
200704161000 METAR MROC 161000Z 08012KT CAVOK 22/16 A2998 RMK TRACE SC BECMG=
200704161100 METAR MROC 161100Z 09009KT CAVOK 22/16 A2999 RMK TRACE SC BECMG=
200704161200 METAR MROC 161200Z 08015KT CAVOK 23/15 A3001 RMK TRACE SC CI BECMG=
200704161300 METAR MROC 161300Z 09014KT 9999 FEW035 24/14 A3002 RMK FEW250 RAFAGAS DE 22KT BECMG=
200704161400 METAR MROC 161400Z 07020KT 9999 FEW035 25/14 A3004 RMK FEW250 RAFAGAS DE 29KT BECMG=
200704161500 METAR MROC 161500Z 08018KT 9999 FEW035 26/14 A3004 RMK FEW250 RAFAGAS DE 26KT BECMG=
200704161600 METAR MROC 161600Z 09016KT 9999 FEW035 27/14 A3004 RMK FEW250 RAFAGAS DE 25KT BECMG=
200704161700 METAR MROC 161700Z 08015KT 9999 FEW035 28/13 A3004 RMK FEW250 RAFAGAS DE 21KT BECMG=
200704161800 METAR MROC 161800Z 09015KT 9999 FEW035 29/13 A3001 RMK FEW250 RAFAGAS DE 21KT BECMG=
200704161900 METAR MROC 161900Z 08015KT 9999 FEW035 SCT300 29/13 A2997 RMK RAFAGAS DE 21KT BECMG=
200704162000 METAR MROC 162000Z 06014G24KT 9999 FEW035 BKN300 30/11 A2995 BECMG=
200704162100 METAR MROC 162100Z 07014KT CAVOK 29/11 A2993 TRACE CU BKN270 BECMG=
200704162200 METAR MROC 162200Z 06014KT CAVOK 28/12 A2993 TRACE SCT BKN270 BECMG=
200704162300 METAR MROC 162300Z 07013KT CAVOK 26/13 A2994 TRACE SCT BKN270 BECMG=
200704170000 METAR MROC 170000Z 08013KT CAVOK 24/14 A2995 TRACE SCT BKN270 BECMG=
200704170100 METAR MROC 170100Z 09013KT CAVOK 23/15 A2997=
200704170200 METAR MROC 170200Z 09018KT CAVOK 23/14 A2993=
200704170300 METAR MROC 170300Z 10020KT CAVOK 22/15 A3000 BECMG/SCT280=
200704170400 METAR MROC 170400Z 10018KT CAVOK 22/15 A3000 BECMG/SCT280=
200704170500 METAR MROC 170500Z 10013KT CAVOK 21/14 A3001 BECMG=
200704170600 METAR MROC 170600Z 02006KT CAVOK 20/14 A3001 BECMG=
200704170700 METAR MROC 170700Z 06007KT CAVOK 20/15 A3000 BECMG=
200704170800 METAR MROC 170800Z 04010KT CAVOK 19/13 A2987 BECMG=
200704170900 METAR MROC 170900Z 10011KT CAVOK 20/14 A2996 BECMG=
200704171000 METAR MROC 171000Z 08013KT CAVOK 20/14 A2995 BECMG=
200704171100 METAR MROC 171100Z 11018KT CAVOK 20/14 A2995 BECMG/TRACE SC/ SCT230=
200704171200 METAR MROC 171200Z 08019KT CAVOK 21/12 A2997 BECMG/TRACE SCT SCT250=
200704171300 METAR MROC 171300Z 10015KT CAVOK 22/14 A2999 SCT280=
200704171400 METAR MROC 171400Z 10014KT CAVOK 25/14 A3000 SCT250 BECMG=
200704171500 METAR MROC 171500Z 10015KT CAVOK 27/10 A3000 SCT250 BECMG=
200704171600 METAR MROC 171600Z 10016KT CAVOK 28/10 A2999 SCT270 BECMG=
200704171700 METAR MROC 171700Z 10014KT CAVOK 29/11 A2998 SCT280 BECMG=
200704171800 METAR MROC 171800Z 10011KT CAVOK 30/12 A2994 SCT250 TRACE CU BECMG=
200704171900 METAR MROC 171900Z 11012KT CAVOK 31/13 A2991 RMK SCT250 TRACE CU BECMG=
200704172000 METAR MROC 172000Z 10009KT 9999 FEW035 BKN250 31/12 A2989=
200704172100 METAR MROC 172100Z 21005KT 9999 SCT035 SCT250 30/14 A2987 BECMG=
200704172200 METAR MROC 172200Z 22010KT 9999 SCT030 SCT250 27/18 A2998 BECMG=
200704172300 METAR MROC 172300Z 20005KT 9999 SCT030 SCT250 26/19 A2989 BECMG=
200704180000 METAR MROC 180000Z 13006KT 9999 SCT030 SCT250 24/18 A2990 BECMG=
200704180100 METAR MROC 180100Z 12007KT 9999 SCT030 SCT250 22/17 A2992 BECMG=
200704180200 METAR MROC 180200Z 12006KT CAVOK 21/17 A2995 BECMG RMK SCT250=
200704180300 METAR MROC 180300Z 09005KT 9999 FEW030 SCT120 21/17 A2996 RMK SCT250 BECMG=
200704180400 METAR MROC 180400Z 08006KT 9999 FEW030 SCT120 21/16 A2996 RMK SCT250 BECMG=
200704180500 METAR MROC 180500Z 06008KT CAVOK 20/16 A2996 RMK FEW120 BKN250 BECMG=
200704180600 METAR MROC 180600Z 07008KT CAVOK 20/16 A2994 RMK BKN250 BECMG=
200704180700 METAR MROC 180700Z 06007KT CAVOK 18/15 A2992 RMK BKN250 BECMG=
200704180800 METAR MROC 180800Z 06010KT CAVOK 19/15 A2990 RMK SCT250 BECMG=
200704180900 METAR MROC 180900Z 06009KT CAVOK 17/14 A2990 RMK SCT250 BECMG=
200704181000 METAR MROC 181000Z 05010KT CAVOK 18/13 A2989 RMK SCT250 BECMG=
200704181100 METAR MROC 181100Z 06008KT CAVOK 16/11 A2991 RMK SCT250 BECMG=
200704181200 METAR MROC 181200Z 07006KT CAVOK 18/12 A2993 RMK BKN280 HZ DST W BECMG=
200704181300 METAR MROC 181300Z 07006KT CAVOK 22/15 A2994 BECMG RMK SCT280=
200704181400 METAR MROC 181400Z 08007KT CAVOK 26/13 A2995 BECMG RMK SCT280=
200704181500 METAR MROC 181500Z 10007KT CAVOK 29/11 A2995 BECMG RMK SCT280=
200704181600 METAR MROC 181600Z 24007KT CAVOK 29/15 A2994 BECMG RMK SCT250=
200704181700 METAR MROC 181700Z 24010KT CAVOK 30/11 A2993 RMK SCT250=
200704181800 METAR MROC 181800Z 20008KT 9999 FEW030 31/14 A2991 BECMG=
200704181900 METAR MROC 181900Z 25011KT 9999 FEW030 31/12 A2989 BECMG=
200704182000 METAR MROC 182000Z 24012G22KT 9999 SCT030 30/18 A2997 BECMG=
200704182100 METAR MROC 182100Z 23008KT 9999 SCT030 29/20 A2986 BECMG=
200704182200 METAR MROC 182200Z 23013KT 9999 SCT030 27/20 A2986 BECMG=
200704182300 METAR MROC 182300Z 24013KT 9999 SCT030 25/19 A2987 BECMG=
200704190000 METAR MROC 190000Z 23007KT 9999 SCT030 23/19 A2990 BECMG=
200704190100 METAR MROC 190100Z 29004KT 9999 SCT020 SCT100 23/19 A2992 BECMG=
200704190200 METAR MROC 190200Z 25004KT 9999 SCT030 22/20 A2994 BECMG=
200704190300 METAR MROC 190300Z 26005KT 9999 SCT010 22/20 A2996 HZY BECMG=
200704190400 METAR MROC 190400Z 00000KT 7000 VCFG FEW002 SCT006 22/20 A2997 VSBY E SE UNL BECMG=
200704190500 METAR MROC 190500Z 26004KT 6000 VCFG FEW002 SCT006 21/20 A2998 BECMG=
200704190600 METAR MROC 190600Z 08002KT 7000 VCFG FEW005 BKN015 20/19 A2996 VSBY NE E UNL BECMG=
200704190700 METAR MROC 190700Z 02006KT 9999 FEW010 20/16 A2994 HZY BECMG=
200704190800 METAR MROC 190800Z 04004KT 9999 FEW010 19/15 A2993 BECMG=
200704190900 METAR MROC 190900Z 05004KT 9999 FEW010 18/14 A2993 HZ W BECMG=
200704191000 METAR MROC 191000Z 06004KT CAVOK 17/13 A2994 BECMG=
200704191100 METAR MROC 191100Z 09003KT CAVOK 16/13 A2994 FEW280 BECMG=
200704191200 METAR MROC 191200Z 07005KT CAVOK 18/14 A2995 BKN280 HZ W BECMG=
200704191300 METAR MROC 191300Z 11002KT CAVOK 22/15 A2995 RMK SCT270 HZ W BECMG=
200704191400 METAR MROC 191400Z 28004KT CAVOK 25/16 A2998 RMK SCT250 HZ W=
200704191500 METAR MROC 191500Z 29003KT CAVOK 26/17 A2997 RMK TRACE SC SCT250 HZ SW=
200704191600 METAR MROC 191600Z 17003KT CAVOK 28/17 A2996 RMK TRACE SC SCT250 HZ SW W=
200704191700 METAR MROC 191700Z 25007KT CAVOK 29/16 A2995 RMK TRACE SC SCT250 HZ W=
200704191800 METAR MROC 191800Z 20007KT 9999 FEW030 SCT250 30/18 A2992 RMK HZ SW W BECMG=
200704191900 METAR MROC 191900Z 23011KT 9999 FEW030 30/17 A2990 RMK HZ W BECMG=
200704192000 METAR MROC 192000Z 24013KT 9999 SCT030 28/19 A2988 RMK LEVE HZY BECMG=
200704192100 METAR MROC 192100Z 21009KT 9999 SCT030TCU BKN250 29/20 A2987 HZY=
200704192200 METAR MROC 192200Z 24014KT 9999 FEW010TCU SCT020 BKN250 26/20 A2987 RN NNE DIST/HZY=
200704192300 METAR MROC 192300Z 22011KT 9999 SCT020 BKN250 24/21 A2991 RERA BECMG=
200704200000 METAR MROC 200000Z 24006KT 9999 SCT040 BKN270 23/20 A2994 BECMG=
200704200100 METAR MROC 200100Z 28005KT 9999 SCT035 BKN250 23/21 A2996 BECMG=
200704200200 METAR MROC 200200Z 26005KT 9999 SCT035 BKN250 22/21 A2999 BECMG=
200704200300 METAR MROC 200300Z 00000KT 9999 3000SW BR FEW001 SCT015 22/21 A3000=
200704200400 METAR MROC NIL=
200704200600 METAR MROC NIL=
200704200700 METAR MROC NIL=
200704200800 METAR MROC NIL=
200704200900 METAR MROC NIL=
200704201100 METAR MROC 201100Z 03005KT 9999 FEW035 SCT250 18/14 A2998 BECMG=
200704201200 METAR MROC 201200Z 01006KT 9999 FEW010 SCT100 BKN250 18/14 A2999 BECMG RMK HZ ARND=
200704201300 METAR MROC 201300Z 10003KT 8000 3000SW VCFG FEW008 SCT030 BKN250 20/15 A3001 VIS N UNL BECMG=
200704201400 METAR MROC 201400Z 10003KT 9999 SCT030 BKN100 22/18 A3002 BECMG/ RMK VIS SW 6KM DUE HEAVY HZ=
200704201500 METAR MROC 201500Z 06005KT 9999 FEW030 SCT110 BKN250 27/15 A3001 BECMG/ RMK LGT HZ ARND=
200704201600 METAR MROC 201600Z 11012KT CAVOK 30/12 A2999 BECMG RMK TRACE SC  SCT120 BKN270 HZ LGT ARND=
200704201700 METAR MROC 201700Z 07012KT CAVOK 31/11 A2998 BECMG RMK TRACE SC OVC270  HZ LGT ARND=
200704201800 METAR MROC 201800Z 22013KT 9999 FEW040 BKN270 30/17 A2996 BECMG/ HZ LGT ARND=
200704201900 METAR MROC 201900Z 24013KT 9999 SCT035TCU BKN250 29/20 A2995 BECMG/HZY=
200704202000 METAR MROC 202000Z 22010KT 9999 SCT030TCU BKN250 28/21 A2992 BECMG/VIS SW W 7KM DUE HEAVY HZ=
200704202100 METAR MROC 202100Z 21005KT 9999 SCT030TCU SCT130 26/20 A2991 RMK SCT250 VIS 7KM W/NW/E DUE HZ BECMG=
200704202200 METAR MROC 202200Z 23007KT 9999 SCT030 SCT250 25/20 A2991 RMK FEW120 HZ ARND BECMG=
200704202300 METAR MROC 202300Z 26007KT 9999 FEW030 SCT120 25/20 A2993 RMK SCT250 TCU DST S HZ LGT ARND=
200704210000 METAR MROC 210000Z 24003KT 9999 FEW025 SCT110 23/20 A2996 RMK BKN250 HZ LGT ARND BECMG=
200704210100 METAR MROC 210100Z 26004KT 9999 FEW015 SCT110 22/20 A2998 RMK SCT250 HZ LGT ARND BECMG=
200704210200 METAR MROC 210200Z 24004KT 9999 FEW006 BKN015 22/21 A3000 RMK VIS S/SW 8KM DUE ST BECMG 5000 BR SCT003 BKN012=
200704210300 METAR MROC 210300Z 08002KT 9999 VCFG FEW008 BKN015 21/20 A3003 RMK 6000SW BECMG=
200704210400 METAR MROC 210400Z 06007KT 9999 FEW030 SCT120 21/15 A3003 RMK HZY BECMG=
200704210500 METAR MROC 210500Z 06005KT 9999 FEW030 BKN140 21/13 A3003 RMK HZY=
200704210600 METAR MROC 210600Z 08003KT 9999 FEW030 SCT120 SCT250 22/13 A3002 RMK HZ SSW SW W BECMG=
200704210700 METAR MROC 210700Z 26002KT 9999 FEW015 BKN250 21/19 A3002 RMK FEW030=
200704210800 METAR MROC 210800Z 00000KT 9999 FEW015 SCT030 SCT250 20/19 A3000 RMK HZ S SW W=
200704210900 METAR MROC 210900Z 04002KT 9999 FEW030 BKN250 20/16 A2999 RMK HZ S SW W=
200704211000 METAR MROC 211000Z 07003KT CAVOK 18/14 A3000 RMK SCT250 HZ S SW W=
200704211100 METAR MROC 211100Z 06006KT CAVOK 18/13 A3000 RMK TRACE SC SCT250 HZ SW=
200704211200 METAR MROC 211200Z 03004KT CAVOK 18/13 A3002 RMK TRACE SC SCT250 HZ SW=
200704211300 METAR MROC 211300Z 03007KT CAVOK 22/12 A3004 RMK BKN250 HZ LGT ARND BECMG=
200704211400 METAR MROC 211400Z 08003KT CAVOK 28/12 A3005 RMK BKN280 HZ LGT ARND CB DST S BECMG=
200704211500 METAR MROC 211500Z 02004KT CAVOK 29/12 A3005 RMK SCT280 HZ LGT ARND BECMG=
200704211600 METAR MROC 211600Z 09011KT CAVOK 30/11 A3003 RMK SCT280 HZ LGT ARND BECMG=
200704211700 METAR MROC 211700Z 10010KT 9999 FEW035 30/12 A3003 RMK FEW280 HZ LGT ARND CB DST SW BECMG=
200704211800 METAR MROC 211800Z 11006KT 9999 FEW035 31/11 A3000 RMK FEW280 HZ LGT ARND BECMG=
200704211900 METAR MROC 211900Z 24011KT 9999 FEW035 SCT280 30/19 A2998 RMK HZ LGT ARND BECMG=
200704212000 METAR MROC 212000Z 22010KT 9999 FEW035 29/20 A2996 RMK FEW280 HZ LGT ARND TCU S BECMG=
200704212100 METAR MROC 212100Z 24013KT 9999 FEW025TCU FEW280 28/21 A2994 HZY BECMG=
200704212200 METAR MROC 212200Z 22010KT 9999 -RA SCT020 SCT120 25/22 A2993 VSBY NE E 6KM DUE RN HZY BECMG=
200704212300 METAR MROC 212300Z 03009KT 9999 -RA FEW015TCU SCT035 BKN280 21/19 A2996 VSBY W 6KM DUE RN BECMG=
200704220000 METAR MROC 220000Z 03003KT 9999 FEW025 BKN120 22/19 A2997 VSBY W 7KM HZY BECMG=
200704220100 METAR MROC 220100Z 00000KT 9999 FEW030 BKN120 22/20 A2998=
200704220200 METAR MROC 220200Z 00000KT 9999 FEW030 BKN120 21/19 A3000=
200704220300 METAR MROC 220300Z 35002KT CAVOK 22/19 A3002 BECMG/TRACE SCT AC=
200704220400 METAR MROC 220400Z 02008KT CAVOK 20/18 A3003 BECMG TRACE SC=
200704220500 METAR MROC 220500Z 03006KT CAVOK 20/16 A3001 BECMG=
200704220600 METAR MROC 220600Z 02007KT CAVOK 20/16 A2999 BECMG=
200704220700 METAR MROC 220700Z 03006KT CAVOK 21/14 A2995 BECMG=
200704220800 METAR MROC NIL=
200704220900 METAR MROC 220900Z 02005KT CAVOK 21/14 A2993 BECMG=
200704221000 METAR MROC 221000Z 05003KT CAVOK 20/14 A2995 BECMG=
200704221100 METAR MROC 221100Z 03007KT CAVOK 19/15 A2997 BECMG=
200704221200 METAR MROC 221200Z 03005KT CAVOK 20/14 A2996 BECMG/RMK HZ LGT W TCU=
200704221300 METAR MROC 221300Z 05004KT CAVOK 22/16 A3001 FEW300 CB DST S BECMG=
200704221400 METAR MROC 221400Z 29003KT CAVOK 25/16 A3002 FEW300 CB DST S BECMG=
200704221500 METAR MROC 221500Z 10010KT CAVOK 28/14 A3002 FEW300 BECMG=
200704221600 METAR MROC 221600Z 10009KT CAVOK 29/14 A3001 FEW300 BECMG=
200704221700 METAR MROC 221700Z 12009KT 9999 FEW035 30/14 A3000 BECMG=
200704221800 METAR MROC 221800Z 23011KT 9999 SCT035 28/20 A3000 BECMG=
200704221900 METAR MROC 221900Z 24012KT 9999 SCT035 29/20 A2999 BECMG=
200704222000 METAR MROC 222000Z 23009KT 9999 SCT030 28/21 A2997 BECMG=
200704222100 METAR MROC 222100Z 24011KT 9999 FEW015TCU SCT030 27/21 A2995 BECMG RMK TCU RA N NE=
200704222200 METAR MROC 222200Z 24012G22KT 9999 FEW015 SCT030 26/21 A2995 BECMG=
200704222300 METAR MROC 222300Z 22005KT 9999 SCT030 25/21 A2996 BECMG=
200704230000 METAR MROC 230000Z 23004KT 9999 SCT030 23/20 A2998 BECMG=
200704230100 METAR MROC 230100Z 26004KT 9999 SCT030 BKN120 23/21 A3000 BECMG=
200704230200 METAR MROC 230200Z 06008KT 9999 FEW035 SCT120 22/16 A3001 BECMG=
200704230300 METAR MROC 230300Z 05004KT CAVOK 22/15 A3002 RMK FEW250 BECMG=
200704230400 METAR MROC 230400Z 07010KT CAVOK 21/15 A3002 RMK FEW250 BECMG=
200704230500 METAR MROC 230500Z 09007KT CAVOK 22/15 A3001 RMK FEW250 BECMG=
200704230600 METAR MROC 230600Z 10008KT 9999 FEW030 21/14 A3000 RMK FEW250 BECMG=
200704230700 METAR MROC 230700Z 10011KT 9999 FEW030 21/14 A2998 RMK FEW250 BECMG=
200704230800 METAR MROC 230800Z 03004KT CAVOK 20/16 A2998 RMK FEW250 BECMG=
200704230900 METAR MROC 230900Z 15002KT CAVOK 21/14 A2997 RMK FEW250 BECMG=
200704231000 METAR MROC 231000Z 07006KT CAVOK 20/14 A2998 RMK FEW250 BECMG=
200704231100 METAR MROC 231100Z 08009KT 9999 FEW035 20/15 A2999 BECMG=
200704231200 METAR MROC 231200Z 10011KT CAVOK 21/15 A3000 RMK FEW280 BECMG=
200704231300 METAR MROC 231300Z 10013G24KT 9999 FEW035 SCT300 23/16 A3001 BECMG=
200704231400 METAR MROC 231400Z 09014G25KT 9999 FEW035 SCT300 25/16 A3003 BECMG=
200704231500 METAR MROC 231500Z 09013G25KT 9999 FEW030 SCT270 27/14 A3003 BECMG=
200704231600 METAR MROC 231600Z 09017G32KT 9999 FEW030 SCT270 28/12 A3003 BECMG=
200704231700 METAR MROC 231700Z 08008KT 9999 FEW030 SCT270 30/12 A3002 BECMG=
200704231800 METAR MROC 231800Z 11015G28KT 9999 FEW030 31/13 A2999 BECMG=
200704231900 METAR MROC 231900Z 11008KT 9999 SCT030 31/12 A2997 BECMG=
200704232000 METAR MROC 232000Z 09012KT 9999 SCT025TCU 31/12 A2995 BECMG=
200704232100 METAR MROC 232100Z 10006KT 9999 FEW025 29/13 A2994 RMK HZ SW W BECMG=
200704232200 METAR MROC 232200Z 22006KT 9999 FEW030 29/19 A2994 RMK HZ SW W BECMG=
200704232300 METAR MROC 232300Z 09004KT 9999 FEW030 27/19 A2995 RMK HZ W BECMG=
200704240000 METAR MROC 240000Z 23010KT 9999 FEW025 24/21 A2997 RMK HZ W BECMG 5000SW BR=
200704240100 METAR MROC 240100Z 09008KT 9999 FEW035 24/16 A3000 BECMG=
200704240200 METAR MROC 240200Z 06010KT CAVOK 23/17 A3002 RMK TRACE SC BECMG=
200704240300 METAR MROC 240300Z 09010KT CAVOK 23/16 A3004 TRACE CU BECMG=
200704240400 METAR MROC 240400Z 10013KT CAVOK 22/16 A3005 TRACE CU BECMG=
200704240500 METAR MROC 240500Z 08009KT 9999 SKC 22/15 A3004 BECMG=
200704240600 METAR MROC 240600Z 09009KT 9999 SKC 21/16 A3002 BECMG=
200704240700 METAR MROC 240700Z 10008KT 9999 SKC 21/16 A3000 BECMG=
200704240800 METAR MROC 240800Z 10012KT 9999 FEW035 21/15 A2998 BECMG=
200704240900 METAR MROC NIL=
200704241000 METAR MROC 241000Z 08008KT CAVOK 20/15 A3000 BECMG=
200704241100 METAR MROC 241100Z 07005KT CAVOK 20/15 A3000 TRACE CU SCT100 BECMG=
200704241200 METAR MROC 241200Z 09007KT CAVOK 21/15 A3000 TRACE SCT FEW120 CB DST S BECMG=
200704241300 METAR MROC 241300Z 04005KT CAVOK 24/16 A3004 RMK TRACE SC CI BECMG=
200704241400 METAR MROC 241400Z 10009KT CAVOK 26/16 A3004 RMK TRACE SC CB DST SW BECMG=
200704241500 METAR MROC 241500Z 09012KT CAVOK 27/16 A3004 RMK TRACE SC CI BECMG=
200704241600 METAR MROC 241600Z 08010KT 9999 FEW040 28/15 A3003 BECMG=
200704241700 METAR MROC 241700Z 10011KT 9999 FEW035 30/16 A3002 BECMG=
200704241800 METAR MROC 241800Z 08009KT 9999 FEW035 30/16 A2998 BECMG 24008KT=
200704241900 METAR MROC 241900Z 12004KT 9999 FEW035 31/15 A2995 BECMG 24008KT 9999 SCT020TCU=
200704242000 METAR MROC 242000Z 22009KT 9999 SCT030TCU 30/19 A2991=
200704242100 METAR MROC 242100Z 22012KT 9999 FEW020 SCT030TCU 27/21 A2990 BECMG/ RN DIST S=
200704242200 METAR MROC 242200Z 21008KT 9999 SCT020 SCT030 BKN250 24/19 A2991 BECMG RMK VIS NW 6KM DUE RASH=
200704242300 METAR MROC 242300Z 28005KT 9999 SCT015 OVC150 23/21 A2995 BECMG RN=
200704250000 METAR MROC 250000Z 30006KT 9999 FEW012 SCT015 BKN120 23/20 A2997  BECMG=
200704250100 METAR MROC 250100Z 24005KT 9999 FEW008 SCT015 BKN120 23/20 A3000 BECMG VIS SW 6KM DUE LOW ST=
200704250200 METAR MROC 250200Z 24003KT 9999 SCT012 BKN120 21/20 A3002 BECMG=
200704250300 METAR MROC 250300Z 07004KT 9999 SCT010 BKN110 21/20 A3002 BECMG=
200704250400 METAR MROC 250400Z 00000KT 9999 FEW015 SCT120 21/20 A3003 BECMG=
200704250500 METAR MROC 250500Z 06007KT 9999 FEW020 SCT120 21/17 A3002 BECMG=
200704250600 METAR MROC 250600Z 07007KT 9999 FEW030 21/16 A3000 BECMG=
200704250700 METAR MROC 250700Z 05009KT 9999 FEW030 20/16 A2999 BECMG=
200704250800 METAR MROC 250800Z 08006KT CAVOK 20/16 A2997 BECMG=
200704250900 METAR MROC 250900Z 05007KT CAVOK 19/15 A2997 BECMG=
200704251000 METAR MROC 251000Z 05007KT CAVOK 19/15 A2998 BECMG=
200704251100 METAR MROC NIL=
200704251200 METAR MROC 251200Z 04007KT CAVOK 19/15 A3000 BECMG RMK SCT270=
200704251300 METAR MROC 251300Z 06009KT CAVOK 22/14 A3001 BECMG/ RMK TRACE SC BKN270=
200704251400 METAR MROC 251400Z 04005KT CAVOK 25/17 A3003 BECMG  TRACE CU HZ LGT W BKN260=
200704251500 METAR MROC 251500Z 09008KT CAVOK 27/15 A3002 BECMG  RMK CU AC HZ LGT W  BKN260=
200704251700 METAR MROC 251700Z 24008KT 9999 FEW040TCU BKN250 28/18 A2999 BECMG HZ LGT W=
200704251800 METAR MROC 251800Z 22009KT 9999 SCT030 BKN250 29/18 A2997 BECMG HZ LGT W=
200704251900 METAR MROC 251900Z 22008KT 9999 FEW020 SCT030 BKN250 29/20 A2994 BECMG HZ LGT W=
200704252000 METAR MROC 252000Z 24010KT 9999 FEW020TCU SCT030 BKN250 26/20 A2992 BECMG 5000 -TSRA SCT015CB BKN030 RMK RN DIST N/NE=
200704252100 METAR MROC 252100Z 30004KT -RA 9999 FEW015TCU BKN030 25/20 A2990 RMK SCT250 VIS 5KM DUE RN BECMG 5000 RA=
200704252200 METAR MROC 252200Z 28013KT 9999 3000SW TSRA FEW010CB SCT030 SCT100 19/18 A2992 BECMG 5000 RA FEW015 SCT030 BKN100=
200704252300 METAR MROC 252300Z 26004KT 8000 -DZRA VCFG FEW005 SCT025 BKN110 19/19 A2994 RMK VIS S/SW/W 4KM BECMG 2000 BR SCT003 BKN012=
200704260000 METAR MROC 260000Z 27003KT 9999 -DZRA FEW008 SCT025 BKN110 19/18 A2997 RMK VIS S/SW 8KM LTNG DST SW/W BECMG=
200704260100 METAR MROC 260100Z 09002KT 8000 RA SCT020 BKN090 19/19 A2999 BECMG=
200704260200 METAR MROC 260200Z 16002KT 9999 SCT030 BKN100 19/19 A3001 BECMG=
200704260300 METAR MROC 260300Z 01003KT 9999 SCT030 BKN120 20/19 A3003 BECMG=
200704260400 METAR MROC 260400Z 10002KT 9999 FEW030 BKN120 20/19 A3004 BECMG=
200704260500 METAR MROC 260500Z 07002KT 9999 FEW030 BKN120 20/19 A3003 BECMG=
200704260600 METAR MROC 260600Z 04005KT 9999 FEW030 SCT120 20/19 A3001 BECMG=
200704260700 METAR MROC 260700Z 06010KT CAVOK 20/17 A2997 RMK TRACE SC FEW120 SCT250=
200704260800 METAR MROC 260800Z 06009KT CAVOK 20/16 A2995 RMK SCT250=
200704260900 METAR MROC NIL=
200704261000 METAR MROC 261000Z 04007KT CAVOK 21/15 A2993 RMK SCT250=
200704261200 METAR MROC 261200Z 09013KT CAVOK 21/16 A2994 RMK FEW120 SCT250=
200704261300 METAR MROC 261300Z 07006KT CAVOK 24/16 A2997 BECMG=
200704261400 METAR MROC 261400Z 10006KT CAVOK 26/17 A2999 RMK FEW120 SCT280 BECMG=
200704261500 METAR MROC 261500Z 24009KT 9999 FEW030 SCT280 25/19 A3000 RMK CB DST S BECMG=
200704261600 METAR MROC 261600Z 25008KT 9999 FEW030 26/20 A3000 RMK FEW280 BECMG=
200704261700 METAR MROC 261700Z 24009KT 9999 BKN035 26/20 A3000 RMK TCU DST ESE BECMG=
200704261800 METAR MROC 261800Z 24010KT 9999 FEW025 BKN035 27/20 A2999 BECMG=
200704261900 METAR MROC 261900Z 24009KT 9999 FEW020TCU BKN030 26/20 A2995 RMK FEW110 TCU/RASH NE BECMG 5000 RA=
200704262000 METAR MROC 262000Z 15004KT 9999 2000N -RA FEW10CB SCT030 SCT110 25/20 A2994 RMK CB/RASH N/NW BECMG 5000 -TSRA=
200704262100 METAR MROC 262100Z 28008KT 9999 4000W -RA FEW010TCU SCT025 SCT140 21/20 A2995 RETS BECMG=
200704262200 METAR MROC 262200Z 02003KT 9999 BKN015 SCT030 22/20 A2994 BECMG=
200704262300 METAR MROC 262300Z 00000KT 9999 FEW012 SCT120 BKN280 22/20 A2994 BECMG=
200704270000 METAR MROC 270000Z 00000KT 9999 SCT030 BKN120 22/20 A2996 RN DST NE BECMG=
200704270100 METAR MROC 270100Z VRB03KT 9999 FEW030 BKN120 22/20 A2998 MOSIG=
200704270200 METAR MROC 270200Z 06005KT 9999 FEW020 SCT120 BKN230 22/19 A2999 BECMG=
200704270300 METAR MROC 270300Z 06004KT CAVOK 22/18 A3000 BECMG/RMK TRACE SCT BKN130=
200704270400 METAR MROC 270400Z 03005KT CAVOK 22/18 A3001 BECMG/TRACE SCT BKN130=
200704270500 METAR MROC 270500Z 03004KT CAVOK 20/18 A3000 BECMG TRACE SC SCT120=
200704270600 METAR MROC 270600Z 05004KT CAVOK 19/18 A2998 BECMG/TRACE AC=
200704270700 METAR MROC 270700Z 06009KT CAVOK 21/17 A2995 BECMG TRACE AC CI=
200704270800 METAR MROC 270800Z 06010KT CAVOK 21/17 A2993 BECMG/TRACE CI=
200704270900 METAR MROC 270900Z 06007KT CAVOK 20/17 A2991 BECMG/SCT140=
200704271000 METAR MROC 271000Z 02008KT CAVOK 21/17 A2992  BECMG TRACE SC BKN140=
200704271100 METAR MROC 271100Z 05008KT CAVOK 21/17 A2993 BECMG/TRACE SCT SCT140=
200704271200 METAR MROC 271200Z 04007KT CAVOK 21/17 A2995 BECMG/RMK TRACE SCT AC SCT270/HZ LGT W=
200704271300 METAR MROC 271300Z 08005KT CAVOK 21/17 A2999 FEW120 BECMG=
200704271400 METAR MROC 271400Z 06003KT CAVOK 26/18 A3001 SCT100 BECMG 24008=
200704271500 METAR MROC 271500Z 09010KT 9999 FEW035 BKN100 25/18 A3001 DZ NE BECMG=
200704271600 METAR MROC 271600Z 10011KT 9999 -RA SCT025 BKN100 22/19 A3003 VSBY NE E 6KM DUERN BECMG=
200704271700 METAR MROC 271700Z 11010KT 9999 -RA FEW025 BKN100 22/19 A3002 BECMG=
200704271800 METAR MROC 271800Z 11008KT 9999 -RA FEW030 BKN100 24/18 A2999 BECMG=
200704271900 METAR MROC 271900Z 16005KT 9999 FEW030 BKN120 27/18 A2995 BECMG=
200704272000 METAR MROC 272000Z 28004KT 9999 SCT045 BKN120 26/19 A2995 BECMG=
200704272100 METAR MROC 272100Z 12008KT 9999 SCT025 BKN120 26/18 A2994 RMK RN E W=
200704272200 METAR MROC 272200Z 12008KT 9999 SCT025 BKN130 25/18 A2994 BECMG=
200704272300 METAR MROC 272300Z 10011KT 9999 SCT025 BKN130 24/17 A2995 BECMG=
200704272330 METAR MROC 272330Z 09007KT 9999 FEW035 SCT080 BKN150 23/17 A3000 RMK LOW ST DST W=
200704280000 METAR MROC 280000Z 09004KT 9999 FEW030 BKN130 24/17 A2998 BECMG=
200704280100 METAR MROC 280100Z 14003KT 9999 FEW030 SCT120 22/19 A3000=
200704280200 METAR MROC 280200Z 08004KT 9999 FEW040 SCT120 22/16 A3001=
200704280300 METAR MROC 280300Z 01005KT CAVOK 21/18 A3001 RMK FEW120 SCT260 BECMG=
200704280400 METAR MROC 280400Z 04006KT CAVOK 21/16 A3001 RMK BKN260 BECMG=
200704280500 METAR MROC 280500Z 09010KT CAVOK 22/17 A2999 RMK BKN260 BECMG=
200704280600 METAR MROC 280600Z 11014KT CAVOK 22/17 A2998 RMK RAFAGAS DE 21KT FEW120 SCT260 BECMG=
200704280700 METAR MROC 280700Z 11012KT CAVOK 22/16 A2996 RMK FEW120 SCT260 BECMG=
200704280800 METAR MROC 280800Z 01005KT CAVOK 21/17 A2996 RMK SCT260 BECMG=
200704280900 METAR MROC 280900Z 02005KT CAVOK 20/16 A2996 RMK FEW260 BECMG=
200704281000 METAR MROC 281000Z 05010KT CAVOK 20/16 A2997 RMK FEW260 BECMG=
200704281100 METAR MROC 281100Z 02003KT 9999 FEW030 SCT120 21/16 A2998 BECMG=
200704281200 METAR MROC 281200Z 06005KT 9999 FEW035 SCT260 21/17 A2998 RMK FEW120 TCU DST S BECMG=
200704281300 METAR MROC 281300Z 09004KT 9999 FEW035 SCT260 25/17 A3000 BECMG=
200704281400 METAR MROC 281400Z 10013G24KT 9999 FEW030 SCT250 26/18 A3001 BECMG=
200704281500 METAR MROC 281500Z 10011G21KT 9999 SCT030 SCT250 27/19 A3002 BECMG RMK RN NE=
200704281600 METAR MROC 281600Z 10007KT 9999 BKN030 25/17 A3000 BECMG 8000 -RA RMK RN N NE=
200704281700 METAR MROC 281700Z 03011KT 9999 SCT025 SCT100 27/18 A3002 BECMG RMK RN N NE=
200704281800 METAR MROC 281800Z 11009KT 9999 SCT030 SCT250 26/17 A3001 BECMG RMK DZ N NE=
200704281900 METAR MROC 281900Z 10013G24KT 9999 SCT025 BKN100 28/18 A2997 BECMG RMK DZ N NE=
200704282000 METAR MROC 282000Z 09010KT 9999 SCT025 BKN100 26/17 A2995 BECMG RMK DZ N NE=
200704282100 METAR MROC 282100Z 10009KT 9999 FEW015 SCT030 BKN100 27/17 A2994 BECMG=
200704282200 METAR MROC 282200Z 25008KT 9999 FEW015 SCT030 SCT100 24/19 A2995 BECMG=
200704282300 METAR MROC 282300Z 00000KT 7000 DZ BR SCT007 BKN025 22/21 A2998 RMK RN ARND BECMG=
200704290000 METAR MROC 290000Z 10005KT 9999 -RA SCT025 BKN100 21/19 A3000 BECMG=
200704290100 METAR MROC 290100Z 09004KT 9999 SCT030 BKN120 21/19 A3002 BECMG=
200704290200 METAR MROC 290200Z 06007KT 9999 FEW030 SCT120 21/18 A3004 BECMG0=
200704290300 METAR MROC 290300Z 10011KT CAVOK 22/17 A3005 BKN120 BECMG=
200704290400 METAR MROC 290400Z 09009KT CAVOK 22/17 A3006 BKN120 BECMG=
200704290500 METAR MROC 290500Z 07007KT CAVOK 22/16 A3004 BKN120 BECMG=
200704290600 METAR MROC 290600Z 10011KT CAVOK 22/16 A3000 BKN120 BECMG=
200704290700 METAR MROC 290700Z 10016KT CAVOK 22/15 A2998 SCT120 BECMG=
200704290800 METAR MROC NIL=
200704290900 METAR MROC 290900Z 10012KT CAVOK 22/15 A2997 FEW300 BECMG=
200704291000 METAR MROC 291000Z 03007KT CAVOK 19/14 A2997 FEW300 BECMG=
200704291100 METAR MROC 291100Z 06008KT CAVOK 20/14 A3000 FEW100 NOPSIG=
200704291200 METAR MROC 291200Z 08009KT CAVOK 21/15 A3000 FEW100 BECMG=
200704291300 METAR MROC 291300Z 11016KT CAVOK 22/15 A3001 RMK FEW120 GUST 22KT BECMG=
200704291400 METAR MROC 291400Z 10011G22KT CAVOK 23/14 A3004 RMK SCT120 BECMG=
200704291500 METAR MROC 291500Z 10018KT CAVOK 26/15 A3004 RMK SCT120 BECMG=
200704291600 METAR MROC 291600Z 11016KT CAVOK 27/15 A3004 RMK SCT120 BECMG=
200704291700 METAR MROC 291700Z 11013KT CAVOK 29/13 A3003 RMK SCT120 BECMG=
200704291800 METAR MROC 291800Z 07011KT CAVOK 30/13 A3001 RMK FEW 120 SCT250 BECMG=
200704291900 METAR MROC 291900Z 04014KT CAVOK 30/14 A2997 RMK BKN250=
200704292000 METAR MROC 292000Z 08008KT 9999 FEW045 BKN250 30/15 A2994 BECMG=
200704292100 METAR MROC 292100Z 11008KT 9999 FEW045 BKN270 29/15 A2993 BECMG=
200704292200 METAR MROC 292200Z 10012KT 9999 FEW040 SCT270 28/14 A2991 BECMG=
200704292300 METAR MROC 292300Z 07010KT 9999 FEW040 BKN250 28/14 A2991 BECMG=
200704300100 METAR MROC 300100Z 26004KT 9999 FEW015 SCT250 22/21 A2997 BECMG=
200704300200 METAR MROC 300200Z 29004KT 9999 FEW015 21/20 A2999 BECMG TRACE CI=
200704300300 METAR MROC 300300Z 00000KT 9999 FEW030 SCT250 21/18 A3001 BECMG=
200704300400 METAR MROC 300400Z 00000KT CAVOK 22/17 A3002 BECMG=
200704300500 METAR MROC 300500Z 08005KT CAVOK 21/17 A3001 BECMG=
200704300600 METAR MROC 300600Z 01005KT CAVOK 22/16 A3000 BECMG=
200704300700 METAR MROC NIL=
200704300800 METAR MROC NIL=
200704300900 METAR MROC 300900Z 03009KT CAVOK 20/16 A2995 BECMG=
200704301100 METAR MROC 301100Z 07008KT CAVOK 20/16 A2994 BECMG=
200704301200 METAR MROC 301200Z 07007KT CAVOK 21/15 A2996 RMK TRACE SC SCT250 DZ NE=
200704301300 METAR MROC 301300Z 09005KT 9999 FEW040 BKN260 23/16 A2999 BECMG RMK DZ NE DIST CB DIST S N=
200704301400 METAR MROC 301400Z 10008KT 9999 SCT040 25/17 A3001 BECMG/RMK DZ NE=
200704301500 METAR MROC 301500Z 07009KT 9999 SCT035 BKN250 27/17 A3000 BECMG RMK DZ NE=
200704301600 METAR MROC 301600Z 05011KT 9999 FEW030 SCT040 BKN250 28/17 A3000 BECMG/DZ NE=
200704301700 METAR MROC 301700Z 06008KT 9999 FEW030 SCT040 BKN250 28/17 A2999 BECMG=
200704301800 METAR MROC 301800Z 12003KT 9999 4000NE VCSH SCT030 BKN140 27/17 A2997 BECMG 24007KT=
200704301900 METAR MROC 301900Z VRB03KT 9999 SCT020 OVC110 26/17 A2994 BECMG VIS ENE 8KM DUE/ RN QUAD N=
200704302000 METAR MROC 302000Z 27010KT 9999 FEW030 SCT110 BKN250 25/20 A2991 BECMG RN=
200704302100 METAR MROC 302100Z 29007KT 9999 FEW020 SCT035 BKN120 24/20 A2991 BECMG=
200704302300 METAR MROC 302300Z 20002KT 9999 FEW035 SCT070 BKN250 24/19 A2991 RMK TCU DST S BECMG=
200705010000 METAR MROC 010000Z 24004KT 9999 SCT035 SCT110 23/19 A2993 RMK FEW250 TCU DST S BECMG=
200705010100 METAR MROC 010100Z 24002KT 9999 SCT035 SCT110 22/19 A2995 RMK FEW250 BECMG=
200705010200 METAR MROC 010200Z 00000KT 9999 FEW035 SCT110 21/18 A2998 RMK SCT250 BECMG=
200705010300 METAR MROC 010300Z 08007KT 9999 FEW035 SCT120 21/17 A2999 BECMG=
200705010400 METAR MROC 010400Z 03006KT 9999 FEW040 BKN100 21/17 A2999 BECMG=
200705010600 METAR MROC 010600Z 06007KT CAVOK 22/16 A2996 RMK BKN120 BECMG=
200705010700 METAR MROC 010700Z 00000KT CAVOK 20/16 A2995 RMK SCT120 BECMG=
200705010800 METAR MROC 010800Z 05005KT CAVOK 20/16 A2991 RMK SCT120=
200705010900 METAR MROC 010900Z 04011KT CAVOK 20/16 A2991 RMK SCT120=
200705011000 METAR MROC 011000Z 03008KT CAVOK 21/16 A2990 RMK SCT250=
200705011100 METAR MROC 011100Z 07009KT CAVOK 21/16 A2991 RMK SCT250=
200705011200 METAR MROC 011200Z 09010KT CAVOK 22/16 A2992 RMK TRACE AC=
200705011300 METAR MROC 011300Z 05005KT CAVOK 22/17 A2996 RMK SCT120 BKN250=
200705011400 METAR MROC 011400Z 10008KT CAVOK 26/17 A2996 RMK FEW260 TCU DST S BECMG=
200705011500 METAR MROC 011500Z VRB03KT 9999 FEW040 28/17 A2987 RMK FEW260 CB DST S BECMG 27010KT=
200705011600 METAR MROC 011600Z 10008KT 9999 FEW040 29/16 A2996 BECMG 27010KT=
200705011700 METAR MROC 011700Z 10010KT 9999 SCT040 SCT280 28/16 A2995 BECMG 27010KT=
200705011800 METAR MROC 011800Z 10007KT 9999 SCT040 SCT280 30/17 A2992 BECMG 27010KT 9999 FEW025TCU SCT035 SCT100=
200705011900 METAR MROC 011900Z 12007KT 9999 SCT035 SCT280 30/17 A2990 RMK FEW080 TCU DST E/S BECMG 27010KT 9999 FEW025TCU SCT035=
200705012000 METAR MROC 012000Z 23008KT 9999 FEW20CB SCT035 SCT100 27/20 A2988 RMK FEW280 TCU OVER STND RN S BECMG 7000 -TSRA SCT012CB SCT030 SCT100=
200705012100 METAR MROC 012100Z 21006KT 9999 FEW015CB SCT030 BKN260 25/20 A2987 RN DST SW NW N NE TS DST NW=
200705012200 METAR MROC 012200Z 30008KT 7000 3000NW TS VCSH FEW012CB SCT025 BKN260 21/19 A2990 VSBY SE UNL TS NW BECMG 6000 RA=
200705012300 METAR MROC 012300Z 00000KT 6000 -RA VCFG FEW005 SCT020 BKN120 21/20 A2993 VIS S UNL BECMG=
200705012358 METAR MROC 020000Z VRB03KT 9999 FEW010 BKN030 21/20 A2994 BECMG=
200705020000 METAR MROC 020000Z VRB03KT 9999 FEW010 BKN030 21/20 A2994 BECMG=
200705020100 METAR MROC 020100Z 05005KT 9999 -RA FEW025 BKN120 21/19 A2997 BECMG=
200705020200 METAR MROC 020200Z 03003KT 9999 FEW025 SCT130 21/19 A2999 BECMG=
200705020300 METAR MROC 020300Z 02005KT 9999 FEW035 BKN130 22/18 A3000 BECMG/ LTNG=
200705020400 METAR MROC 020400Z 10006KT 9999 FEW030 OVC120 21/18 A3000 BECMG/ LTNG=
200705020500 METAR MROC 020500Z 00000KT 9999 FEW020 OVC120 21/19 A3000 BECMG/ FU AND FIRE NW=
200705020600 METAR MROC 020600Z 02004KT CAVOK 20/19 A2998 BECMG/TRACE SCT OVC140 FU NW=
200705020700 METAR MROC 020700Z 20002KT CAVOK 21/18 A2996 BECMG/ TRACE SC/ OVC140=
200705020800 METAR MROC 020800Z 18002KT CAVOK 20/18 A2994 BECMG/ TRACE SCT BKN150 SCT250=
200705020900 METAR MROC 020900Z 09004KT CAVOK 20/18 A2994 BECMG  TRACE SC SCT150 SCT250=
200705021000 METAR MROC 021000Z 06007KT CAVOK 20/17 A2994 BECMG/TRACE SCT OVC150=
200705021100 METAR MROC 021100Z 06007KT CAVOK 20/18 A2993 BECMG/RMK OVC150=
200705021200 METAR MROC 021200Z 10004KT CAVOK 21/16 A2993 BECMG TRACE SC SCT150 BKN250=
200705021300 METAR MROC 021300Z 05005KT CAVOK 22/17 A2996 RMK SCT120 BKN250=
200705021400 METAR MROC 021400Z VRB02KT CAVOK 26/18 A2997 FEW120 BKN270 BECMG 24008=
200705021500 METAR MROC 021500Z 10012KT CAVOK 27/17 A2996 SCT120 SCT270 BECMG=
200705021700 METAR MROC 021700Z 10011KT 9999 FEW030 SCT120 BKN270 29/17 A2994 BECMG=
200705021800 METAR MROC 021800Z 19005KT 9999 FEW020TCU BKN120 29/17 A2993 CB RN SE BECMG 7000 RA=
200705022000 METAR MROC 022000Z 25008KT 9999 FEW012 SCT025 BKN120 22/20 A2992 VSBY N NE 7KM DUE RN BECMG=
200705022100 METAR MROC 022100Z 24003KT 7000 -RA VCFG FEW004 BKN020 22/20 A2991 BECMG=
200705022200 METAR MROC 022200Z 00000KT 7000 FEW005 BKN020 23/20 A2991 BECMG=
200705022300 METAR MROC 022300Z 00000KT 8000 VCFG FEW006 SCT020 BKN130 22/20 A2991 BECMG=
200705030000 METAR MROC 030000Z 00000KT 7000 FEW005 SCT020 BKN130 22/20 A2995 BECMG=
200705030100 METAR MROC 030100Z VRB03KT 8000 3000SW RA FEW001 SCT025 OVC100 21/20 A2998 BECMG=
200705030200 METAR MROC 030200Z 07006KT 9999 DZ FEW030 BKN100 20/19 A2998 BECMG=
200705030300 METAR MROC 030300Z 05005KT 9999 FEW030 BKN110 21/18 A2999 BECMG=
200705030400 METAR MROC 030400Z 08007KT CAVOK 21/18 A2998 BECMG=
200705030500 METAR MROC 030500Z 06006KT CAVOK 20/18 A2998 RMK BKN120 BECMG=
200705030600 METAR MROC 030600Z 06004KT CAVOK 20/18 A2998 RMK FEW060 BKN120 BECMG=
200705030700 METAR MROC 030700Z 09002KT CAVOK 21/18 A2996 RMK FEW060 BKN120 BECMG=
200705030800 METAR MROC 030800Z 29002KT CAVOK 20/18 A2995 RMK SCT120 SCT260 BECMG=
200705030900 METAR MROC 030900Z 05002KT CAVOK 20/18 A2993 RMK BKN120 BECMG=
200705031000 METAR MROC 031000Z 03002KT CAVOK 19/18 A2993 RMK SCT120 SCT260 BECMG=
200705031100 METAR MROC 031100Z 03004KT CAVOK 19/17 A2995 RMK SCT120 FEW260 BECMG=
200705031200 METAR MROC 031200Z 10003KT CAVOK 18/17 A2995 RMK FEW120 SCT260 BECMG=
200705031300 METAR MROC 031300Z 00000KT CAVOK 22/18 A2997 RMK SCT260=
200705031400 METAR MROC 031400Z 22003KT CAVOK 25/19 A2998 BECMG RMK TRACE SC SCT270=
200705031500 METAR MROC 031500Z 23007KT 9999 FEW030 BKN270 25/20 A2999 BECMG=
200705031600 METAR MROC 031600Z 23011KT 9999 SCT030 BKN270 26/20 A3000 BECMG=
200705031800 METAR MROC 031800Z 20006KT 9999 VCSH FEW015CB SCT025 SCT270 26/20 A2997 BECMG 8000 VCSH RMK N NE E=
200705031900 METAR MROC 031900Z 23007KT 9999 5000E VCSH FEW015CB SCT025 SCT100 28/20 A2994 BECMG 4000 SHRA RMK RASH E=
200705032000 METAR MROC 032000Z 24010KT 9999 RA FEW010 SCT020 BKN100 24/21 A2993 BECMG=
200705032100 METAR MROC 032100Z 22008KT 5000 DZ VCSH FEW005 SCT030 BKN090 22/21 A2992 RMK VIS 9999 SW BECMG=
200705032200 METAR MROC 032200Z 23007KT 5000 VCSH FEW005 SCT020 BKN090 22/20 A2993 RMK VIS 9999 SW BECMG=
200705032300 METAR MROC 032300Z 26006KT 9999 VCSH SCT015 BKN090 22/19 A2995 RMK VIS 5000E BECMG 6000 -RA=
200705040000 METAR MROC 040000Z 27003KT 9999 -RA BKN015 SCT090 21/20 A2998 RMK VIS 7000 SW BECMG=
200705040100 METAR MROC 040100Z 27002KT 9999 -RA BKN015 BKN100 20/20 A2999=
200705040200 METAR MROC 040200Z 03003KT 9999 SCT030 BKN120 20/20 A3001 BECMG=
200705040300 METAR MROC 040300Z 00000KT 9999 -RA OVC120 20/19 A3001 BECMG=
200705040400 METAR MROC 040400Z 22003KT 5000 0500 N FG SCT001 OVC120 20/20 A3002 VSBY SE S UNL BECMG 2000 BR=
200705040500 METAR MROC 040500Z 33003KT 6000 VCFG FEW001 OVC120 20/20 A3001 VSBY S SW 5KM BECMG=
200705040600 METAR MROC 040600Z 12003KT 9999 VCFG FEW001 BKN280 20/19 A2998 VSBY S 5KM DUE FG BECMG=
200705040700 METAR MROC 040700Z 02004KT 9999 FEW012 BKN280 19/18 A2993 BECMG=
200705040800 METAR MROC 040800Z 04004KT CAVOK 19/17 A2993 SCT280 BECMG=
200705040900 METAR MROC 040900Z 09004KT CAVOK 19/17 A2993 BKN270 BECMG=
200705041100 METAR MROC 041100Z 10003KT CAVOK 18/17 A2993 FEW120 BKN270 CB DST S BECMG=
200705041200 METAR MROC 041200Z 04006KT CAVOK 19/17 A2993 FEW120 SCT280 CB DST SW BECMG=
200705041300 METAR MROC 041300Z 06004KT CAVOK 22/18 A2997 RMK FEW120 BECMG 24006KT=
200705041400 METAR MROC 041400Z 11004KT CAVOK 25/18 A2997 RMK FEW300 DESARROLLO CU DIST SW W BECMG=
200705041500 METAR MROC 041500Z 24011KT 9999 FEW025 SCT300 24/20 A2998 BECMG=
200705041600 METAR MROC 041600Z 24006KT 9999 FE030 SCT270 25/20 A2998 BECMG=
200705041700 METAR MROC 041700Z 20005KT 9999 SCT030 27/21 A2997 BECMG=
200705041800 METAR MROC 041800Z 21006KT 9999 FEW025TCU SCT030 28/20 A2996 BECMG=
200705041900 METAR MROC 041900Z 24008KT 9999 SCT025CB SCT030 28/21 A2993 RMK RN DST NE SE=
200705042000 METAR MROC 042000Z 03005KT 9999 3000E RA SCT020CB BKN030 25/22 A2991 BECMG=
200705042100 METAR MROC 042100Z 26002KT 9999 4000W TS VCSH FEW015CB SCT030 SCT250 24/21 A2990 BECMG=
200705042200 METAR MROC 042200Z 19005KT 9999 4000SW VCFG FEW005 SCT015 OVC140 22/21 A2990 BECMG 5000 RA=
200705042300 METAR MROC 042300Z 22004KT 9999 SCT015 BKN030 23/21 A2991 VIS NE 8KM DUE LOW ST/BECMG=
200705050000 METAR MROC 050000Z 00000KT 9999 SCT020 BKN120 23/21 A2992 BECMG/ VIS N NE 8KM DUE LOW ST AND HZ/CB DIST SW=
200705050100 METAR MROC 050100Z 27003KT 9999 SCT020 BKN120 22/21 A2993 RMK VIS N/NE/E 8KMS LOW/ST ARND=
200705050200 METAR MROC 050200Z 28004KT 9999 FEW010 SCT025 BKN120 22/21 A2994 BECMG=
200705050300 METAR MROC 050300Z 27003KT 9999 VCFG FEW005 SCT130 21/21 A2996=
200705050400 METAR MROC 050400Z 34004KT 9999 5000W BR FEW002 SCT130 21/21 A2996=
200705050500 METAR MROC 050500Z 33004KT 9999 VCFG FEW993 SCT130 20/19 A2994=
200705050600 METAR MROC 050600Z 02004KT CAVOK 20/18 A2993 RMK SCT130=
200705050700 METAR MROC 050700Z 36004KT CAVOK 20/18 A2992 RMK SCT130=
200705050800 METAR MROC NIL=
200705050900 METAR MROC 050900Z 03006KT CAVOK 20/17 A2991=
200705051000 METAR MROC 051000Z 06006KT CAVOK 20/17 A2990 BECMG=
200705051100 METAR MROC 051100Z 06003KT CAVOK 20/17 A2990 BECMG RMK SCT130=
200705051200 METAR MROC 051200Z 06008KT CAVOK 20/17 A2992 BECMG RMK SCT250=
200705051300 METAR MROC 051300Z 04002KT CAVOK 24/17 A2993 BECMG/TRACE SCT CI CB=
200705051400 METAR MROC 051400Z 24007KT CAVOK 24/19 A2995 BECMG/RMK TRACE SC/ SCT250 CB DIST SW=
200705051500 METAR MROC 051500Z 28006KT 9999 FEW040 SCT270 26/19 A2995 BECMG  CB DIST SW=
200705051600 METAR MROC 051600Z 23008KT 9999 SCT040 SCT270 27/19 A2995 BECMG/ RMK CB DIST S=
200705051700 METAR MROC 051700Z 26005KT 9999 SCT040 28/19 A2994 BECMG/TRACE CI=
200705051800 METAR MROC 051800Z 25007KT 9999 FEW025TCU SCT040 29/21 A2992 BECMG TRACE CI=
200705051900 METAR MROC 051900Z 21511KT 9999 FEW015 SCT025CB BKN040 29/21 A2989 BECMG 5000 SHRA/RMK VIS N NE 8KM DUE RASH/TRACE CI=
200705052000 METAR MROC 052000Z 19004KT 3000 TSRA SCT010CB BKN025 24/18 A2988 BECMG VIS SW W UNL=
200705052100 METAR MROC 052100Z 34005KT 4000 RA SCT010 SCT025 OVC100 20/19 A2989 BECMG 5000 RA=
200705052200 METAR MROC 052200Z 32004KT 9999 -RA VCTS FEW010CB SCT025 BKN100 20/19 A2990 RMK VIS SW/W 7KM DUE CBTS BECMG=
200705052300 METAR MROC 052300Z 15003KT 9999 -RA FEW025 OVC100 21/20 A2991 RMK TCU DST S/SW BECMG=
200705060000 METAR MROC 060000Z 05006KT 9999 FEW030 SCT110 22/20 A2990 RMK SCT260 BECMG=
200705060100 METAR MROC 060100Z 04005KT 9999 SCT030 BKN110 22/20 A2991 RMK FEW260 BECMG=
200705060200 METAR MROC 060200Z 09004KT 9999 FEW030 BKN120 21/19 A2992 RMK FEW260 BECMG=
200705060300 METAR MROC 060300Z 06008KT 9999 FEW035 SCT120 SCT250 22/19 A2990 BECMG=
200705060400 METAR MROC 060400Z 09006KT CAVOK 22/19 A2991 RMK FEW120 BKN250 BECMG=
200705060500 METAR MROC 060500Z 20003KT CAVOK 20/19 A2993 RMK FEW120 BKN250 BECMG=
200705060600 METAR MROC 060600Z 04007KT CAVOK 20/19 A2992 RMK FEW120 BKN250 BECMG=
200705060700 METAR MROC 060700Z 05008KT 9999 FEW045 SCT250 21/18 A2990 BECMG=
200705060800 METAR MROC 060800Z 08003KT 9999 FEW035 SCT100 21/19 A2989=
200705060900 METAR MROC 060900Z 08002KT 9999 FEW030 BKN100 20/19 A2989=
200705061000 METAR MROC 061000Z 01002KT 9999 FEW040 BKN250 21/19 A2990=
200705061100 METAR MROC 061100Z 07002KT 9999 FEW030 BKN250 20/19 A2992=
200705061200 METAR MROC 061200Z 06002KT 9999 FEW030 SCT100 SCT250 21/19 A2993 RMK DZ DST NE=
200705061300 METAR MROC 061300Z 36003KT 9999 SCT030 BKN100 23/20 A2994 RMK SCT250 DZ DST N BECMG=
200705061400 METAR MROC 061400Z 04002KT 9999 FEW035 SCT070 BKN110 24/20 A2995 BECMG=
200705061500 METAR MROC 061500Z 20003KT 9999 SCT040 BKN260 24/21 A2996 BECMG=
200705061600 METAR MROC 061600Z 11005KT 9999 FEW040 BKN260 26/20 A2995 BECMG=
200705061700 METAR MROC 061700Z 11009KT 9999 SCT035 SCT090 26/19 A2995 RMK SCT250 RN DST N/NE/E BECMG=
200705061800 METAR MROC 061800Z 13005KT 9999 SCT030 SCT100 28/19 A2992 RMK SCT250 TCU DST S/SW RN DST N/NE/E BECMG=
200705061900 METAR MROC 061900Z 11005KT 9999 FEW025TCU BKN035 28/19 A2989 RMK CB/TCU S/SW RN E BECMG 22006KT=
200705062000 METAR MROC 062000Z 13008KT 9999 FEW030 BKN250 27/19 A2987 RMK FEW120 CB DST SW/S BECMG=
200705062100 METAR MROC 062100Z 19006KT 9999 FEW030 SCT130 BKN270 27/20 A2988 BECMG=
200705062200 METAR MROC 062200Z 24010KT 9999 FEW012TCU SCT020 BKN270 25/21 A2989 VSBY NW N 6KM DUE RN CB SE S BECMG=
200705062300 METAR MROC 062300Z 26006KT 9999 4000NW VCSH BKN010 SCT025 23/18 A2990 VECMG 9000 RA=
200705070000 METAR MROC 070000Z 32003KT 7000 -RA VCFG FEW005 BKN012 21/19 A2993 VSBY E SE UNL BECMG=
200705070200 METAR MROC 070200Z 00000KT 9999 SCT010 BKN250 22/21 A2993 BECMG=
200705070300 METAR MROC 070300Z 25005KT 9999 SCT008 BKN270 21/21 A2996  BECMG=
200705070400 METAR MROC 070400Z 27002KT 1500 BR FEW001 BKN008 21/21 A2998 BECMG=
200705070500 METAR MROC 070500Z 00000KT 8000 3000SW VCFG FEW005 SCT025 BKN250 21/21 A2998 BECMG=
200705070600 METAR MROC 070600Z 00000KT 9000 3000SW FEW008 SCT025 OVC250 21/20 A2998 BECMG/RMK HZ AND LOW ST ARND=
200705070700 METAR MROC 070700Z 32003KT 9999 SCT020 OVC250 21/21 A2998 BECMG=
200705070800 METAR MROC 070800Z 27003KT 9999 SCT020 OVC150 21/20 A2983 BECMG=
200705070900 METAR MROC 070900Z 35004KT 9999 SCT020 21/29 A2991 BECMG RMK TRACE CI=
200705071000 METAR MROC 071000Z 09003KT CAVOK 21/20 A2989 BECMG/RMK TRACE SCT SCT250=
200705071100 METAR MROC 071100Z 09006KT CAVOK 21/19 A2988 BECMG/ RMK TRACE SC SCT140 BKN240=
200705071200 METAR MROC 071200Z 08008KT CAVOK 22/19 A2988 BECMG RMK CB DIST SW TRACE SC BKN140 SCT250=
200705071300 METAR MROC 071300Z 10004KT CAVOK 24/19 A2990 BKN260 CB DST S N BECMG=
200705071400 METAR MROC 071400Z 21007KT 9999 SCT020 BKN260 24/20 A2993 BECMG=
200705071500 METAR MROC 071500Z 24006KT 9999 SCT020 BKN260 25/21 A2993 BECMG=
200705071600 METAR MROC 071600Z 24006KT 9999 SCT020 BKN260 26/21 A2993 BECMG=
200705071700 METAR MROC 071700Z 25008KT 9999 SCT020 SCT280 27/21 A2992 BECMG=
200705071800 METAR MROC 071800Z 24009KT 9999 FEW015TCU BKN025 27/21 A2990 BECMG=
200705071900 METAR MROC 071900Z 22010KT 9999 -TS VCSH FEW015CB BKN025 28/21 A2987 VSBY NE 6KM DUE TS/RASH BECMG 5000 -TSRA=
200705072000 METAR MROC 072000Z 02012KT 3000 1000N TSRA SCT010CB BKN020 21/20 A2987 VSBY S UNL BECMG 1500 TSRA=
200705072100 METAR MROC 072100Z 09003KT 8000 -TSRA FEW004 SCT020 OVC120 20/19 A2987 BECMG=
200705072200 METAR MROC 072200Z 09003KT 9999 SCT020 BKN130 21/20 A2987 BECMG RMK RN NE E=
200705072300 METAR MROC 072300Z 00000KT 9999 SCT030 BKN200 22/21 A2987 BECMG=
200705080000 METAR MROC 080000Z 10004KT 9999 SCT025 BKN220 21/19 A2989 BECMG=
200705080100 METAR MROC 080100Z 10007KT 9999 FEW030 BKN250 22/18 A2991 BECMG=
200705080200 METAR MROC 080200Z 08005KT 9999 FEW020 SCT250 22/18 A2994 BECMG=
200705080300 METAR MROC 080300Z 09006KT CAVOK 22/18 A2995 RMK SCT120 BKN250 BECMG=
200705080400 METAR MROC 080400Z 06004KT 9999 FEW030 SCT080 BKN120 22/18 A2997 BECMG=
200705080500 METAR MROC 080500Z 09003KT 9999 FEW030 BKN120 21/18 A2997 BECMG=
200705080600 METAR MROC 080600Z 10003KT 9999 FEW030 OVC120 20/18 A2995 BECMG=
200705080700 METAR MROC 080700Z 08002KT CAVOK 20/17 A2993 RMK OVC120 BECMG=
200705080800 METAR MROC 080800Z 03005KT CAVOK 20/17 A2989 RMK OVC120 BECMG=
200705080900 METAR MROC 080900Z 02005KT CAVOK 20/17 A2987 RMK OVC120 BECMG=
200705081000 METAR MROC 081000Z 07003KT CAVOK 20/16 A2987 RMK BKN120 BECMG=
200705081100 METAR MROC 081100Z 11003KT CAVOK 20/16 A2989 RMK SCT120 SCT260 BECMG=
200705081200 METAR MROC 081200Z 08002KT CAVOK 20/16 A2992 RMK FEW120 BKN280 TCU DST S/SW BECMG=
200705081300 METAR MROC 081300Z 08005KT CAVOK 23/17 A2994 BECMG RMK SCT250=
200705081400 METAR MROC 081400Z 10005KT CAVOK 26/17 A2994 BECMG 24008KT RMK SCT250=
200705081500 METAR MROC 081500Z 09009KT 9999 FEW030 SCT250 27/17 A2994 BECMG=
200705081600 METAR MROC 081600Z 11010KT 9999 FEW030 SCT250 28/18 A2994 BECMG=
200705081700 METAR MROC 081700Z 13003KT 9999 SCT030 SCT250 30/19 A2993 BECMG=
200705081800 METAR MROC 081800Z 24011KT 9999 SCT020TCU 28/21 A2992 BECMG=
200705081900 METAR MROC 081900Z 23011KT 9999 SCT020TCU 28/21 A2989 BECMG 6000 VCSH=
200705082000 METAR MROC 082000Z 23012KT 9999 SCT020CB BKN250 27/22 A2987 RMK BECMG 4000 TSRA=
200705082100 METAR MROC 082100Z 21005KT 9999 3000E VCSH FEW015CB SCT025 SCT250 24/21 A2989 BECMG 4000 TSRA=
200705082200 METAR MROC 082200Z 35004KT 9999 -RA FEW015CB BKN025 23/19 A2988 RMK FEW250 BECMG=
200705082300 METAR MROC 082300Z 05003KT 9999 FEW030 SCT120 SCT220 22/20 A2990 BECMG=
200705090000 METAR MROC 090000Z 00000KT 9999 SCT030 BKN220 23/20 A2992 BECMG=
200705090100 METAR MROC 090100Z 00000KT 9999 FEW030 SCT120 BKN240 22/20 A2993 BECMG=
200705090200 METAR MROC 090200Z 07003KT 9999 FEW025 SCT120 BKN240 22/20 A2996 BECMG=
200705090300 METAR MROC 090300Z 10004KT 9999 FEW030 BKN100 22/19 A2998 BECMG=
200705090500 METAR MROC 090500Z 03005KT CAVOK 21/18 A2994 BKN120 BECMG=
200705090600 METAR MROC 090600Z 28003KT 9999 VCFG FEW002 BKN120 21/19 A2996 VSBY S SW 5KM DUE FG=
200705090700 METAR MROC 090700Z 22003KT 9999 FEW005 BKN120 20/19 A2996 BECMG=
200705090800 METAR MROC NIL=
200705091000 METAR MROC 091000Z 29003KT 9999 VCFG FEW001 BKN120 19/18 A2994 VSBY S SW 5KM DUE FG BECMG=
200705091100 METAR MROC 091100Z 04002KT CAVOK 19/17 A2995 BKN120 BECMG=
200705091200 METAR MROC 091200Z 02007KT CAVOK 20/18 A2997 SCT090 BKN130 BECMG=
200705091300 METAR MROC 091300Z 00000KT CAVOK 23/18 A2999 RMK FEW120 BKN250 BECMG 24006KT=
200705091400 METAR MROC 091400Z 11005KT CAVOK 25/19 A2998 RMK TRACE SC BKN250 HZ SW=
200705091500 METAR MROC 091500Z 08003KT CAVOK 27/18 A2998 RMK TRACE CU SC BKN250=
200705091600 METAR MROC 091600Z 14003KT 9999 FEW040 BKN250 28/18 A2999 RMK LEVE HZY BECMG=
200705091700 METAR MROC 091700Z 23007KT 9999 SCT035 BKN120 27/20 A2998 RMK LEVE HZY BECMG=
200705091800 METAR MROC 091800Z 24010KT 9999 FEW035 BKN250 28/21 A2996 RMK FEW120 BECMG=
200705091900 METAR MROC 091900Z 23010KT 9999 FREW015TCU SCT030 BKN250 27/22 A2994 RMK RN SW BECMG 5000 +RA=
200705092000 METAR MROC 092000Z 22009KT 9999 FEW010 SCT030 BKN120 25/22 A2992=
200705092100 METAR MROC 092100Z 23012KT 9999 -RA VCSH FEW015CB SCT025 BKN120 24/21 A2992 RMK RASH VIS 8KMS TO S RASH DIST E BECMG 5000 TSRA=
200705092200 METAR MROC 092200Z 23009KT 7000 -RA BR VCSH FEW005 SCT010 BKN025 23/21 A2993 RMK BECMG 4000 -RA BR=
200705092300 METAR MROC 092300Z 25006KT 2000SW -RA BR SCT004 FEW015CB BKN120 22/21 A2994 RMK VIS N/E QUAD 8KMS BECMG=
200705100000 METAR MROC 100000Z 21004KT 3000 RA SCT025 BKN100 21/20 A2997 BECMG 5000=
200705100100 METAR MROC 100100Z 25003KT 2000 RA BR SCT002 SCT010 BKN100 21/20 A2999 BECMG 5000=
200705100200 METAR MROC 100200Z 06006KT 9999 FEW030 BKN120 20/20 A2999 BECMG=
200705100300 METAR MROC NIL=
200705100400 METAR MROC 100400Z 07008KT 9999 FEW030 SCT120 21/19 A2998 BECMG=
200705100500 METAR MROC 100500Z 06008KT 9999 FEW030 SCT120 22/19 A2996 BECMG=
200705100600 METAR MROC 100600Z 08007KT 9999 FEW035 SCT140 22/18 A2995 BECMG=
200705100700 METAR MROC 100700Z 05005KT 9999 FEW035 SCT140 21/18 A2993 BECMG=
200705100800 METAR MROC NIL=
200705100900 METAR MROC 100900Z 00000KT 9999 FEW035 19/18 A2992 BECMG=
200705101000 METAR MROC 101000Z 04004KT CAVOK 20/18 A2992 BECMG=
200705101100 METAR MROC 101100Z 06009KT CAVOK 19/17 A2993 BECMG=
200705101200 METAR MROC 101200Z 05005KT 9999 FEW035 SCT270 20/17 A2995 BECMG RMK CB DST SSW=
200705101300 METAR MROC 101300Z 00000KT CAVOK 23/18 A2997 TRACE SC  SCT 270 CB DIST S=
200705101400 METAR MROC 101400Z 10009KT CAVOK 26/18 A2998 TRACE SCT SCT270 CB DST S=
200705101500 METAR MROC 101500Z 07006KT 9999 FEWO30 SCT250 28/19 A2998 BECMG/ CB=
200705101600 METAR MROC 101600Z 22008KT 9999 FEW030TCU SCT150 BKN250 27/20 A2998 BECMG/CB DIST SW=
200705101700 METAR MROC 101700Z 24010KT 9999 SCT035TCU BKN250 27/22 A2997 BECMG=
200705101800 METAR MROC 101800Z 23011KT 9999 SCT030TCU BKN250 27/22 A2996 BECMG/ TCU ARND=
200705101900 METAR MROC 101900Z 23010KT 9999 FEW020CB SCT030TCU BKN250 26/21 A2994 BECMG/ CB RN N NW=
200705102000 METAR MROC 102000Z 21007KT 9999 SCT015 OVC130 26/22 A2993 RMK RN W NW BECMG HVH853 102000Z GG MUHAYMYX MYNNYMYX SBBRYZYX SKZZMAMX SPZZMAMX SVZZMAMX TJSJYMYX TNCCYMYX MPDAYFYX 102000Z MROCYMYX=
200705102100 METAR MROC 102100Z 23005KT 6000 -TSRA FEW015CB SCT025 BKN110 24/21 A2993 RMK VIS SE/S/W UNL VIS N 4KM BECMG 3000 SCT012CB BKN025=
200705102200 METAR MROC 102200Z 11002KT 9999 VCFG FEW012CB SCT025 BKN110 23/21 A2992 RMK VIS SW 7KMS DUE LOW ST BECMG 6000 -RA VCFG=
200705102300 METAR MROC 102300Z 24004KT 9999 4000SW -RA VCFG FEW006 SCT020 BKN110 23/21 A2993 RMK TCU DST S BECMG 5000 BR=
200705110000 METAR MROC 110000Z 25005KT 7000 -DZ VCFG SCT003 BKN015 22/21 A2995 RMK VIS SW 4KM DUE ST BECMG 3000 BR=
200705110100 METAR MROC 110100Z 25006KT 7000 -DZRA VCFG FEW003 BKN020 22/21 A2995 RMK VIS SW 5KM DUE ST LTNG IN THE CLOUD BECMG 4000 BR SCT002 BKN012=
200705110200 METAR MROC 110200Z 28003KT 5000 2000SW +RA FEW002 BKN020 22/21 A2997 BECMG 7000 -RA VCFG FEW003 BKN025=
200705110300 METAR MROC 110300Z 00000KT 9999 VCFG FEW015 SCT120 BKN220 22/21 A2997 RMK VIS 7000SW BECMG=
200705110400 METAR MROC 110400Z 10002KT 9999 FEW025 BKN220 21/21 A2997 BECMG=
200705110500 METAR MROC 110500Z 11002KT CAVOK 21/20 A2996 RMK BKN250 TRACE SC=
200705110600 METAR MROC 110600Z 07006KT CAVOK 21/18 A2994 RMK TRCE SC BECMG=
200705110700 METAR MROC 110700Z 06005KT CAVOK 21/18 A2992 RMK TRCE SC=
200705110800 METAR MROC 110800Z 05006KT CAVOK 21/18 A2994 RMK TRACE SC=
200705110900 METAR MROC 110900Z 06007KT CAVOK 20/18 A2990 RMK TRCE SC=
200705111000 METAR MROC 111000Z 07005KT CAVOK 20/18 A2991 RMK TRACE SC CB DST SSW=
200705111100 METAR MROC 111100Z 05004KT CAVOK 19/18 A2993 RMK TRACE ST SC CB TS DST SSW=
200705111200 METAR MROC 111200Z 05006KT CAVOK 20/18 A2994 RMK SCT250 TRACE SC=
200705111300 METAR MROC 111300Z 06009KT CAVOK 24/19 A2996 RMK SCT260 BECMG=
200705111400 METAR MROC 111400Z 06005KT 9999 FEW030 SCT260 26/20 A2998 BECMG 24006KT=
200705111500 METAR MROC 111500Z 24006KT 9999 FEW030 SCT260 26/21 A2997 BECMG=
200705111600 METAR MROC 111600Z 25006KT 9999 FEW035 BKN260 27/21 A2996 BECMG=
200705111700 METAR MROC 111700Z 23007KT 9999 FEW020TCU FEW035 SCT260 27/21 A2995 RMK TCU S/SE BECMG=
200705111800 METAR MROC 111800Z 25008KT 9999 SCT030TCU SCT260 28/21 A2994 RMK TCU SCTED ARND BECMG=
200705111900 METAR MROC 111900Z 23009KT 9999 FEW025CB SCT030 SCT260 28/22 A2992 RMK CB N/S RN S BECMG=
200705112000 METAR MROC 112000Z 23009KT 9999 VCTS FEW020CB SCT030 SCT120 26/22 A2990 RMK CB/TS N/NE CB S BECMG 7000 -TSRA SCT015CB SCT030=
200705112100 METAR MROC 112100Z 31003KT 7000 3000SE +RA FEW015CB SCT025 BKN120 23/20 A2989 VSBY SW UNL BECMG=
200705112200 METAR MROC 112200Z 13002KT 9999 -RA FEW0010 SCT030 BKN120 23/21 A2990 VSBY S 6KM DUE RN BECMG=
200705112300 METAR MROC 112300Z 00000KT 9999 FEW030 SCT130 BKN250 23/21 A2991 CB DST SE BECMG=
200705112330 METAR MROC 112330Z 10009KT 9999 SCT020 BKN100 24/19 A2996=
200705120000 METAR MROC 120000Z 13002KT 9999 FEW030 SCT120 BKN280 23/22 A2993 CB SE BECMG=
200705120100 METAR MROC 120100Z 09006KT 9999 FEW030 BKN130 23/20 A2995 BECMG=
200705120200 METAR MROC 120200Z 08005KT CAVOK 23/19 A2995 BKN130 BECMG=
200705120300 METAR MROC 120300Z 07007KT CAVOK 23/19 A2997 BECMG/ BKN140=
200705120400 METAR MROC 120400Z 06010KT CAVOK 23/19 A2998 BECMG TRACE SCT SCT140=
200705120500 METAR MROC 120500Z 07008KT CAVOK 23/18 A2998 BECMG/ TRACE SCT SCT 140=
200705120600 METAR MROC 120600Z 06007KT CAVOK 22/18 A2996 BECMG=
200705120700 METAR MROC 120700Z 10008KT CAVOK 22/18 A2995 RMK FEW270 BECMG=
200705120800 METAR MROC 120800Z 05008KT CAVOK 21/18 A2994 RMK TRACE SC FEW270 BECMG=
200705120900 METAR MROC 120900Z 06007KT CAVOK 21/18 A2993 BECMG/ TRACE CI SCT LTNG=
200705121000 METAR MROC 121000Z 04010KT CAVOK 21/18 A2994 BECMG/ TRACE CI SCT=
200705121100 METAR MROC 121100Z 06005KT CAVOK 21/18 A2994 BECMG TRACE SC  BKN250 CB DIST SW=
200705121200 METAR MROC 121200Z 04006KT CAVOK 21/18 A2996 BECMG/TRACE SCT AC BKN250 CB DIST SW=
200705121300 METAR MROC 121300Z 00000KT CAVOK 24/18 A3000 BECMG=
200705121400 METAR MROC 121400Z 30003KT CAVOK 26/19 A3000 FEW250 CB DST S BECMG=
200705121500 METAR MROC 121500Z 28003KT CAVOK 28/20 A3000 TRACE CU FEW120 SCT280 BECMG=
200705121600 METAR MROC 121600Z 09004KT 9999 FEW020 SCT120 30/18 A2999 BECMG=
200705121700 METAR MROC 121700Z 23007KT 9999 SCT025 SCT120 28/21 A2997 BECMG=
200705121800 METAR MROC 121800Z 23009KT 9999 BKN025 28/21 A2995 BECMG=
200705121900 METAR MROC 121900Z 23009KT 9999 SCT015CB FEW025 BKN120 27/22 A2992 RN NW NE S BECMG 6000 -TSRA=
200705122000 METAR MROC 122000Z 25011KT 1500 TSRA SCT008 BKN020 23/22 A2992 VSBY N 0500 BECMG 2000 RA=
200705122100 METAR MROC 122100Z 28003KT 7000 -RA VCFG FEW008 SCT015 OVC100 21/20 A2995 BECMG RMK RN DST NW N=
200705122200 METAR MROC 122200Z 00000KT 8000 VCFG FEW006 SCT020 OVC110 21/21 A2994 BECMG RMK RN DST W NW=
200705122300 METAR MROC 122300Z 11004KT 9999 FEW010 SCT120 OVC250 22/21 A2995 BECMG=
200705130000 METAR MROC 130000Z 28003KT 8000 FEW008 SCT030 SCT130 22/21 A2998 BECMG 6000 -RA=
200705130100 METAR MROC 130100Z 00000KT 5000 BR FEW003 SCT025 BKN120 22/21 A2999 BECMG 4000 -RA=
200705130200 METAR MROC 130200Z 07003KT 9999 FEW025 SCT120 BKN250 22/21 A3002 BECMG=
200705130300 METAR MROC 130300Z 07004KT 9999 FEW030 SCT120 SCT250 22/21 A3004 BECMG=
200705130400 METAR MROC 130400Z 14003KT 9999 SCT030 BKN120 22/21 A3006 RMK FEW080=
200705130500 METAR MROC 130500Z 29002KT 9999 BKN035 SCT080 21/20 A3008 BECMG=
200705130600 METAR MROC 130600Z 00000KT 9999 SCT030 SCT110 21/20 A3004 RMK FEW080=
200705130700 METAR MROC 130700Z 10003KT 9999 FEW030 OVC110 20/20 A3002 BECMG=
200705130800 METAR MROC 130800Z 09003KT CAVOK 20/19 A2997 RMK OVC110 BECMG=
200705130900 METAR MROC 130900Z 08006KT CAVOK 21/19 A2993 RMK OVC120 BECMG=
200705131000 METAR MROC 131000Z 06007KT CAVOK 21/19 A2993 RMK OVC120 BECMG=
200705131100 METAR MROC 131100Z 10005KT CAVOK 22/19 A2997 RMK SCT120 SCT280 BECMG=
200705131200 METAR MROC 131200Z 34003KT 9999 FEW001 BKN120 22/19 A3000 RMK SCT280 ST S/SW BECMG 7000 VCFG=
200705131300 METAR MROC 131300Z 22003KT 5000 1200SW BR SCT001 BKN130 21/20 A3004 BECMG 2000 BR=
200705131400 METAR MROC 131400Z 26003KT 9999 FEW020 BKN120 24/20 A3005 BECMG=
200705131500 METAR MROC 131500Z 24006KT 9999 FEW020 SCT130 SCT250 25/21 A3004 BECMG=
200705131600 METAR MROC 131600Z 22004KT 9999 FEW020 SCT130 27/22 A3003 BECMG=
200705131700 METAR MROC 131700Z 25006KT 9999 SCT020 SCT130 28/22 A3000 BECMG=
200705131800 METAR MROC 131800Z 23008KT 9999 SCT020TCU 29/22 A2998 BECMG=
200705131900 METAR MROC 131900Z 24008KT 9999 SCT020TCU 29/22 A2994 BECMG RMK CB DST E RN DST NW=
200705132000 METAR MROC 132000Z 21007KT 9999 VCTS FEW010CB SCT020 28/24 A2991 BECMG 6000 VCSH RMK TS RASH S=
200705132100 METAR MROC 132100Z 19003KT 6000 -TS VCSH SCT008 BKN015 22/20 A2991 RERA RMK 9999 N BECMG=
200705132200 METAR MROC 132200Z 30004KT 9999 FEW015 SCT025 BKN120 23/20 A2993 RMK TS RN DST SW BECMG=
200705132300 METAR MROC 132300Z 26008KT 9999 4000SW -RA BR FEW003 SCT030 BKN200 22/21 A2997 RMK VCSH SW W BECMG VIS 7000 RA=
200705140000 METAR MROC 140000Z 34003KT 9999 -RA FEW025 BKN090 22/20 A3000 RMK VIS 5000SW VCSH BR CB TS DST SSW SW W BECMG=
200705140100 METAR MROC 140100Z 06007KT 9999 -RA FEW025 OVC100 22/20 A2999 BECMG=
200705140200 METAR MROC 140200Z 23006KT 6000 -RA SCT020 OVC100 22/20 A3002 BECMG=
200705140300 METAR MROC 140300Z 30003KT 9999 -RA FEW002 OVC120 21/20 A3004 FG W BECMG=
200705140400 METAR MROC 140400Z 00000KT CAVOK 21/20 A3004 BKN120 BECMG=
200705140500 METAR MROC 140500Z 00000KT CAVOK 21/20 A2998 BKN120 BECMG=
200705140600 METAR MROC 140600Z 11003KT CAVOK 21/20 A2996 BKN130 BECMG0=
200705140700 METAR MROC 140700Z 00000KT CAVOK 20/20 A2994 BKN130 BECMG=
200705140800 METAR MROC 140800Z 19003KT 9999 FEW008 BKN120 21/20 A2994=
200705140900 METAR MROC NIL=
200705141000 METAR MROC 141000Z 07007KT 9999 FEW025 BKN120 22/18 A2995 CB/LTNG DST S BECMG=
200705141100 METAR MROC 141100Z 05008KT 9999 FEW025 SCR120 BKN250 22/19 A2994 CB/LTNG DST S BECMG=
200705141200 METAR MROC 141200Z 07006KT 9999 FEW025 SCT280 22/19 A2996 CB DST SE RN NE BECMG=
200705141300 METAR MROC 141300Z 09006KT CAVOK 25/19 A2999 RMK BKN250=
200705141400 METAR MROC 141400Z 16003KT CAVOK 25/20 A3001 BKN250 BECMG 24006KT=
200705141500 METAR MROC 141500Z 25007KT 9999 FEW030 BKN250 25/21 A3002 BECMG=
200705141600 METAR MROC 141600Z 24008KT 9999 FEW030 BKN250 25/21 A3003 BECMG=
200705141700 METAR MROC 141700Z 26005KT 9999 FEW030 BKN250 26/21 A3000 BECMG=
200705141800 METAR MROC 141800Z 22006KT 9999 SCT035 BKN250 27/22 A2997 BECMG 6000=
200705141900 METAR MROC 141900Z 25014KT 9999 SCT035 BKN250 26/22 A2995 BECMG=
200705142000 METAR MROC 142000Z 24010KT 9999 FEW020TCU SCT030 SCT250 25/22 A2995 RMK RN DST ARND BECMG 5000 -SHRA=
200705142100 METAR MROC 142100Z 25010KT 7000 3000N -RA VCSH FEW005 SCT015TCU BKN025 23/22 A2994 RMK VIS S SSW UNLTD BECMG 5000 RA BR=
200705142200 METAR MROC 142200Z 25004KT 6000 DZ VCFG SCT005 SCT012TCU 23/22 A2993 VIS S UNLTD BECMG=
200705142300 METAR MROC 142300Z 23003KT 9000 4000N BR SCT004 SCT020 BKN250 23/22 A2994 RMK VIS SSW UNLTD BECMG=
200705150000 METAR MROC 150000Z 24002KT 9999 FEW008 SCT025 BKN250 23/21 A2997 BECMG=
200705150100 METAR MROC 150100Z 00000KT 8000 VCFG FEW004 SCT025 BKN250 22/21 A2998 BECMG=
200705150200 METAR MROC 150200Z 06004KT 9999 FEW010 SCT025 BKN250 22/21 A3000 BECMG=
200705150300 METAR MROC 150300Z 05006KT 9999 FEW030 22/19 A3000 BECMG=
200705150400 METAR MROC 150400Z 10003KT 9999 FEW030 22/19 A3000 BECMG=
200705150500 METAR MROC 150500Z 03006KT CAVOK 22/18 A3000 BECMG=
200705150600 METAR MROC 150600Z 06006KT CAVOK 22/18 A2999 BECMG=
200705150700 METAR MROC NIL=
200705150800 METAR MROC NIL=
200705150900 METAR MROC 150900Z 00000KT 9999 FEW030 SCT100 23/18 A2994 BECMG=
200705151000 METAR MROC 151000Z 11010KT 9999 FEW030 SCT100 23/18 A2993 BECMG=
200705151100 METAR MROC 151100Z 07006KT 9999 FEW030 SCT100 22/17 A2993 BECMG=
200705151200 METAR MROC 151200Z 06004KT 9999 FEW030 22/18 A2993 BECMG=
200705151300 METAR MROC 151300Z 02006KT 9999 FEW030 24/18 A2996 RMK TRAZAS AC BECMG=
200705151400 METAR MROC 151400Z 10009KT 9999 FEW030 26/19 A2997 RMK FEW100 BECMG=
200705151500 METAR MROC 151500Z 07006KT 9999 FEW030 27/19 A2998 RMK TRAZAS CI BECMG=
200705151600 METAR MROC 151600Z 12008KT 9999 FEW035 29/19 A2997 RMK TRAZAS AC BECMG 24008KT=
200705151700 METAR MROC 151700Z 23011KT 9999 SCT030 28/22 A2995 BECMG=
200705151800 METAR MROC 151800Z 24011KT 9999 FEW025TCU SCT035 26/22 A2995 BECMG=
200705151900 METAR MROC 151900Z 24011KT 9999 FEW017CB SCT025 27/22 A2994 RMK RASH=
200705152000 METAR MROC 152000Z 25012KT 9999 4000E -TS VCSH SCT015CB BKN025 26/22 A2992 RMK TS RASH IN ALL E QUAD BECMG 2000 TSRA=
200705152100 METAR MROC 152100Z 24010KT 9999 4000E -TS RA SCT015CB BKN025 25/21 A2989 BECMG=
200705152200 METAR MROC 152200Z 23006KT 9999 3000E -TS +RA SCT015CB BKN025 23/21 A2991 BECMG=
200705152300 METAR MROC 152300Z 23008KT 3000 -RA BR FEW002 SCT025 BKN100 21/21 A2993 BECMG=
200705160000 METAR MROC 160000Z 33007KT 3000 TS RA FEW002 FEW015CB SCT025 BKN100 21/20 A2996 BECMG=
200705160100 METAR MROC 160100Z 13003KT 6000 RA FEW002 SCT030 OVC100 21/20 A3000 BECMG=
200705160200 METAR MROC 160200Z 05004KT 6000 RA FEW005 SCT030 OVC100 21/20 A3002=
200705160300 METAR MROC 160300Z 11004KT 9999 -RA SCT030 OVC090 21/20 A3000 BECMG=
200705160400 METAR MROC 160400Z 09004KT 9999 -DZ SCT100 SCT250 21/20 A2998 BECMG=
200705160500 METAR MROC 160500Z 21002KT CAVOK 21/20 A2998 RMK SCT120 BECMG=
200705160600 METAR MROC 160600Z 06005KT CAVOK 21/19 A2996 RMK FEW120 SCT250 BECMG=
200705160700 METAR MROC 160700Z 07008KT CAVOK 22/18 A2994 RMK SCT250 BECMG=
200705160800 METAR MROC 160800Z 08004KT CAVOK 21/18 A2992 RMK SCT250 BECMG=
200705160900 METAR MROC 160900Z 07006KT CAVOK 20/18 A2992 RMK SCT250 BECMG=
200705161000 METAR MROC 161000Z 05004KT CAVOK 20/18 A2992 RMK SCT250 BECMG=
200705161100 METAR MROC 161100Z 11004KT CAVOK 20/18 A2992 RMK BKN250 NOIG=
200705161200 METAR MROC 161200Z 05006KT CAVOK 21/18 A2993 RMK BKN250 BECMG=
200705161300 METAR MROC 161300Z 10007KT CAVOK 23/19 A2994 RMK BKN250 BECMG=
200705161400 METAR MROC 161400Z 04006KT CAVOK 25/20 A2996 RMK BKN250 TRACE SC CU=
200705161500 METAR MROC 161500Z 12006KT CAVOK 27/20 A2995 RMK BKN250 TRACE SC CU=
200705161600 METAR MROC 161600Z 11009KT 9999 FEW030 BKN250 28/19 A2995=
200705161700 METAR MROC 161700Z 07006KT 9999 FEW030 BKN250 29/18 A2994=
200705161800 METAR MROC 161800Z 22007KT 9999 SCT030 SCT250 27/22 A2993=
200705161900 METAR MROC 161900Z 23009KT 9999 SCT030 SCT250 28/23 A2990=
200705162000 METAR MROC 162000Z 20006KT 9999 BKN030 27/22 A2988 RMK RN N NE=
200705162100 METAR MROC 162100Z 25005KT 9999 4000WS VCSH FEW015CB SCT025 BKN250 24/22 A2988 RERA/ BECMG=
200705162200 METAR MROC 162200Z 21007KT 5000 -RA BR SCT005 FEW010CB BKN030 22/21 A2989 VSBY S SE E UNL VSBY N/NW 3KM BECMG=
200705162300 METAR MROC 162300Z 29004KT 2500 TSRA SCT008CB BKN025 22/20 A2993 BECMG=
200705170000 METAR MROC 170000Z 09004KT 9999 -RA FEW025 OVC120 21/20 A2993 RETS BECMG=
200705170100 METAR MROC 170100Z 03007KT 9999 FEW030 OVC130 22/19 A2994 BECMG=
200705170200 METAR MROC 170200Z 10006KT CAVOK 22/19 A2995 BKN130 BECMG=
200705170300 METAR MROC 170300Z 10003KT CAVOK 22/17 A2997 BECMG=
200705170400 METAR MROC 170400Z 04005KT CAVOK 22/20 A2998 BECMG=
200705170500 METAR MROC 170500Z 02005KT CAVOK 21/17 A2997 BECMG=
200705170600 METAR MROC 170600Z 05005KT CAVOK 22/18 A2995 BECMG=
200705170700 METAR MROC 170700Z 08003KT CAVOK 23/18 A2993 BECMG=
200705170800 METAR MROC 170800Z 09002KT CAVOK 20/19 A2992 RMK TRAZAS SC BKN120 BECMG=
200705170900 METAR MROC 170900Z VRB03KT CAVOK 20/19 A2991 RMK TRAZAS SC BKN120 BECMG=
200705171000 METAR MROC 171000Z 05002KT CAVOK 20/19 A2993 BECMG=
200705171100 METAR MROC 171100Z 06002KT CAVOK 20/19 A2993 BECMG=
200705171200 METAR MROC 171200Z 03002KT 9999 4000SW BR FEW001 SCT120 BKN220 20/19 A2995 RMK FOG NEAR APCH07 BECMG 1500SW=
200705171300 METAR MROC 171300Z 27003KT 9999 2500SW BR FEW001 SCT120 BKN260 21/20 A2998 VSBY S SW W 2500 DUE FG BECMG=
200705171400 METAR MROC 171400Z 34003KT 9999 4000SW BR FEW001 BKN250 23/20 A2999 BECMG=
200705171500 METAR MROC 171500Z 24002KT CAVOK 24/20 A2999 TRACE CU OVC250 BECMG=
200705171600 METAR MROC 171600Z 25007KT 9999 FEW025 BKN250 25/22 A2999 BECMG=
200705171700 METAR MROC 171700Z 25006KT 9999 FEW030 BKN250 28/21 A2997 BECMG=
200705171800 METAR MROC 171800Z 23009KT 9999 FEW025 SCT260 27/22 A2994 BECMG=
200705171900 METAR MROC 171900Z 24011KT 9999 FEW020TCU SCT025 SCT250 27/23 A2991 VSBY NW N NE 6KM RN NE BECMG=
200705172000 METAR MROC 172000Z 24011KT 7000 VCSH FEW012CB BKN025 26/22 A2990 VSBY SE S SW W UNL VSBY E 5KM DUE TS/RASH=
200705172100 METAR MROC 172100Z 11009KT 1500 TSRA SCT008CB BKN020 23/21 A2990 BECMG 3000 RA=
200705172200 METAR MROC 172200Z 04004KT 8000 VCTS RA FEW015 SCT025 BKN100 21/20 A2991 RMK RN N TS RASH SW=
200705172300 METAR MROC 172300Z 23006KT 7000 -RA FEW005 SCT020 BKN100 22/21 A2993 BECMG=
200705180000 METAR MROC 180000Z 31008KT 6000 -RA BR FEW004 SCT020 OVC100 21/21 A2997 BECMG=
200705180100 METAR MROC 180100Z 33003KT 6000 -RA BR SCT020 OVC100 22/20 A3000 BECMG=
200705180200 METAR MROC 180200Z 11005KT 9999 -RA FEW030 OVC100 21/20 A3001 BECMG=
200705180300 METAR MROC 180300Z 35002KT 9999 FEW030 BKN100 21/20 A3002 BECMG=
200705180400 METAR MROC 180400Z 23003KT 9999 FEW035 BKN100 21/20 A3005 BECMG=
200705180500 METAR MROC 180500Z 00000KT 9999 FEW035 BKN100 21/20 A3004 BECMG=
200705180600 METAR MROC 180600Z 00000KT CAVOK 21/20 A3003 RMK TRACE SC BKN100=
200705180700 METAR MROC 180700Z 00000KT CAVOK 21/20 A3000 RMK TRACE SC BKN100=
200705180800 METAR MROC 180800Z 05004KT CAVOK 20/19 A//// RMK BKN110=
200705180900 METAR MROC 180900Z 10004KT CAVOK 20/19 A2996 RMK BKN110=
200705181000 METAR MROC NIL=
200705181100 METAR MROC 181100Z 05007KT CAVOK 20/18 A2993 RMK TRACE SC BKN110=
200705181200 METAR MROC 181200Z 09009KT CAVOK 21/18 A2995 TRACE SCT SCT120 BKN250=
200705181300 METAR MROC 181300Z 09007KT CAVOK 24/19 A2996 BECMG=
200705181400 METAR MROC 181400Z 11011KT CAVOK 26/19 A2997 BECMG RMK TRACE SC SCT250=
200705181500 METAR MROC 181500Z 10012G22KT 9999 SCT025 SCT200 27/19 A2999 BECMG=
200705181600 METAR MROC 181600Z 13007KT 9999 BKN030 26/19 A2998 BECMG=
200705181700 METAR MROC 181700Z 11008KT 9999 SCT030 27/19 A2997 BECMG=
200705181800 METAR MROC 181800Z 22011G22KT 9999 VCSH FEW010TCU BKN025 28/19 A2996 BECMG RMK TCU RN DST SW=
200705181900 METAR MROC 181900Z 25008KT 9999 4000N VCSH FEW010TCU SCT030 24/21 A2994 BECMG 6000 RA RMK RASH N=
200705182000 METAR MROC 182000Z 28007KT 9999 5000N RA FEW010 BKN030 23/21 A2994=
200705182100 METAR MROC 182100Z 23013KT 5000 2000SW DZBR SCT004 BKN012 21/20 A2994 RMK BECMG 3000 RABR=
200705182200 METAR MROC 182200Z 24008KT 1000 0300SW -DZBR BKN001 SCT012 20/20 A2995 BECMG=
200705182300 METAR MROC 182300Z 23006KT 4000 1800SW RABR SCT003 BKN015 20/20 A2997 BECMG 5000 -RABR=
200705182325 METAR MROC 182325Z 36002KT 3000 RABR SCT002 BKN008 20/20 A2999 BECMG=
200705190000 METAR MROC 190000Z 25004KT 5000 RABR SCT004 BKN020 20/19 A3000 BECMG=
200705190100 METAR MROC 190100Z 00000KT 7000 RA VCFG FEW005 SCT020 BKN090 20/19 A3002 RMK 9999 -RA=
200705190200 METAR MROC 190200Z 01004KT 9999 -RA FEW008 SCT030 BKN090 20/20 A3004 BECMG=
200705190300 METAR MROC 190300Z 01003KT 9999 FEW025 BKN120 21/19 A3005 LW ST SW BECMG=
200705190400 METAR MROC 190400Z 08003KT CAVOK 20/19 A3004 OVC120 BECMG=
200705190500 METAR MROC 190500Z 05006KT CAVOK 21/18 A3001 BKN120 BECMG=
200705190600 METAR MROC 190600Z 06007KT CAVOK 21/18 A3000 BKN120 BECMG=
200705190700 METAR MROC 190700Z 07004KT CAVOK 21/18 A2999 BKN120 BECMG=
200705190800 METAR MROC 190800Z 06003KT CAVOK 21/18 A2997 BKN120 BECMG=
200705190900 METAR MROC 190900Z 00000KT CAVOK 19/18 A2995 BECMG=
200705191000 METAR MROC 191000Z 01003KT 9999 3000SW BR FEW001 BKN120 19/18 A2995 BECMG=
200705191100 METAR MROC 191100Z 00000KT CAVOK 19/18 A2996 SCT120 BKN250 LOW ST SW BECMG=
200705191200 METAR MROC 191200Z 05002KT CAVOK 19/18 A2999 SCT120 BKN250 BECMG=
200705191300 METAR MROC 191300Z 00000KT 9999 FEW035 SCT100 BKN250 21/18 A3002 RMK TRACE ST BECMG=
200705191400 METAR MROC 191400Z 26006KT 9999 FEW010 SCT120 BKN250 22/19 A3003 BECMG=
200705191500 METAR MROC 191500Z 27003KT 9999 FEW015 SCT110 BKN250 23/19 A3004=
200705191600 METAR MROC 191600Z 00000KT CAVOK 25/20 A3003 RMK SCT120 BKN250 BECMG=
200705191700 METAR MROC 191700Z 24003KT CAVOK 25/20 A3000 RMK SCT120 BKN250 TRACE SC=
200705191800 METAR MROC 191800Z 21004KT 9999 FEW035 BKN250 26/20 A2998 RMK FEWAC BECMG=
200705191900 METAR MROC 191900Z 22005KT 9999 SCT030 BKN250 26/21 A2995 BECMG=
200705192000 METAR MROC 192000Z 24010KT 9999 FEW015TCU SCT030 SCT250 25/21 A2994 BECMG 6000 VCSH=
200705192100 METAR MROC 192100Z 23008KT 9999 SCT010 FEW015CB BKN025 24/22 A2992 RMK HZY PCPN DST S/E BECMG 5000 RA BR=
200705192200 METAR MROC 192200Z 18005KT 0500 -RA FG VV/// 22/21 A2992 RMK TS DIST ESE BECMG 2000=
200705192300 METAR MROC 192300Z 10003KT 4000 -TSRA FEW012CB SCT020 BKN100 21/20 A2996 BECMG 6000=
200705200000 METAR MROC 200000Z 09006KT 9999 -RA FEW020 OVC120 20/20 A2998 BECMG=
200705200100 METAR MROC 200100Z 08005KT 9999 -RA OVC120 20/19 A2996 BECMG=
200705200200 METAR MROC 200200Z 08010KT 9999 FEW030 BKN120 21/19 A2998 BECMG CAVOK=
200705200300 METAR MROC 200300Z 20004KT 9999 FEW025 BKN120 22/19 A3001 BECMG=
200705200400 METAR MROC 200400Z 06010KT 9999 FEW025 SCT120 22/19 A3002 BECMG=
200705200500 METAR MROC 200500Z 10005KT 9999 FEW035 SCT120 22/19 A3004 BECMG=
200705200600 METAR MROC 200600Z 00000KT 9999 FEW035 SCT120 21/19 A3002 BECMG=
200705200700 METAR MROC 200700Z 10010KT 9999 FEW035 SCT120 22/18 A2998 BECMG=
200705200800 METAR MROC NIL=
200705200900 METAR MROC 200900Z 01006KT CAVOK 21/18 A2995 BECMG RMK BKN120=
200705201000 METAR MROC 201000Z 29003KT CAVOK 20/19 A2996 BECMG=
200705201100 METAR MROC 201100Z 31003KT CAVOK 20/19 A2998 BECMG/TRACE SCT OVC120=
200705201200 METAR MROC 201200Z 00000KT 9999 FEW004 SCT020 BKN140 20/19 A2999 BECMG=
200705201300 METAR MROC 201300Z 10004KT 9999 FEW030 BKN120 23/20 A3000 BECMG=
200705201400 METAR MROC 201400Z 07004KT 9999 FEW040 BKN120 25/19 A3002 BECMG 24006=
200705201500 METAR MROC 201500Z 04005KT CAVOK 26/19 A3000 RMK TRACE SC SCT140 BKN250 BECMG 24006KT=
200705201600 METAR MROC 201600Z 14005KT 9999 FEW030 BKN250 29/18 A2999 RMK CB DST S BECMG=
200705201700 METAR MROC 201700Z 24011KT 9999 FEW020TCU SCT030 BKN250 26/21 A2999 BECMG 7000 VCSH=
200705201800 METAR MROC 201800Z 23010KT 9999 -RA VCSH FEW017CB SCT025 BKN120 24/21 A2999 RMK RASH VIS 7KMS TO SSE BECMG 5000 RA=
200705201900 METAR MROC 201900Z 14004KT 9999 VCSH FEW015CB SCT025 BKN100 23/21 A2999 RMK VIS 7KMS S BECMG 6000 -RA=
200705202000 METAR MROC 202000Z 32004KT 9999 2000NW VCSH FEW015CB SCT025 BKN100 23/20 A2997 BECMG 2000 TSRA=
200705202100 METAR MROC 202100Z 34003KT 9999 -RA SCT030 BKN100 23/20 A2995 BECMG=
200705202200 METAR MROC 202200Z 02003KT 9999 -RA SCT030 BKN100 22/20 A2995 BECMG=
200705202300 METAR MROC 202300Z 02004KT 9999 -RA FEW030 BKN100 22/20 A2995 BECMG=
200705210000 METAR MROC 210000Z 10005KT 9999 -RA FEW030 BKN100 21/19 A2996 BECMG=
200705210100 METAR MROC 210100Z 10004KT 9999 FEW035 BKN110 21/19 A2996 BECMG=
200705210200 METAR MROC 210200Z 07004KT CAVOK 20/19 A2997 RMK SCT110 BKN250=
200705210300 METAR MROC 210300Z 01005KT CAVOK 21/19 A3000 RMK FEW120 BKN250 BECMG=
200705210400 METAR MROC 210400Z 27003KT 9999 FEW030 SCT120 21/19 A3003 BECMG 7000=
200705210500 METAR MROC 210500Z 34003KT 9999 FEW025 BKN090 21/19 A3003 BECMG=
200705210600 METAR MROC 210600Z 15002KT 9999 FEW025 BKN090 21/19 A3001 BECMG=
200705210700 METAR MROC 210700Z 10002KT 9999 -DZRA FEW015 SCT025 BKN090 20/19 A2999 BECMG=
200705210800 METAR MROC 210800Z 05004KT 9999 SCT030 BKN090 20/19 A2996 RMK LTMG DST S BECMG=
200705210900 METAR MROC 210900Z 31002KT 9999 FEW015 SCT030 SCT100 20/19 A2996 BECMG=
200705211000 METAR MROC 211000Z 13002KT 9999 FEW007 SCT025 BKN100 20/19 A2997 RMK ST E/S/SW BECMG VRB03KT 7000 VCFG=
200705211100 METAR MROC 211100Z 07002KT 8000 3000SW -DZRA VCFG FEW001 SCT025 BKN100 20/19 A2998 RMK BR SW BECMG=
200705211200 METAR MROC 211200Z 04002KT 9999 FEW015 SCT100 BKN250 20/19 A3000 RMK TRACE ST S SW W RN DST SW W BECMG=
200705211300 METAR MROC 211300Z 11002KT 9999 FEW035 SCT110 BKN250 21/20 A3000 BECMG=
200705211400 METAR MROC 211400Z 09002KT 9999 FEW035 SCT110 BKN250 24/20 A3000 BECMG=
200705211500 METAR MROC 211500Z 00000KT 9999 FEW035 BKN250 27/19 A3001 BECMG=
200705211600 METAR MROC 211600Z 22007KT 9999 SCT030 BKN250 24/20 A3002 BECMG=
200705211700 METAR MROC 211700Z 25010KT 9999 SCT030 BKN250 24/21 A3001 RMK RN N NE=
200705211800 METAR MROC 211800Z 25008KT 9999 FEW005 SCT025 BKN110 22/20 A3001 RMK RN N NE=
200705211900 METAR MROC 211900Z 24006KT 6000 -RA BR FEW002 SCT005 OVC100 21/21 A3000 BECMG=
200705212000 METAR MROC 212000Z 26004KT 3000 RA BR FEW001 SCT005 OVC100 20/20 A2999 BECMG=
200705212100 METAR MROC 212100Z 34005KT 5000 -RA BR FEW002 SCT005 BKN012 20/20 A2997 BECMG=
200705212200 METAR MROC 212200Z 00000KT 9999 -RA FEW012 OVC100 21/20 A2996 BECMG=
200705212300 METAR MROC 212300Z 00000KT 7000 -RA VCFG FEW012 OVC100 21/20 A2998 VSBY SE S UNL BECMG=
200705220000 METAR MROC 220000Z 00000KT 9999 -RA FEW012 OVC100 20/19 A3000 VSBY NW N 6KM DUE LOW ST BECMG=
200705220100 METAR MROC 220100Z 07003KT 9999 -RA OVC100 20/19 A3001 BECMG=
200705220200 METAR MROC 220200Z 07004KT 9999 -RA OVC120 20/19 A3002 BECMG=
200705220300 METAR MROC 220300Z 08006KT 9999 -RA OVC120 20/19 A3002 BECMG=
200705220400 METAR MROC 220400Z 08003KT 9999 -DZ OVC120 20/18 A3002 BECMG=
200705220500 METAR MROC 220500Z 12002KT 9999 3000S BR FEW001 OVC120 19/18 A3001 RMK DVLPNG FG BANK TO S SSW BECMG 5000=
200705220600 METAR MROC 220600Z 00000KT 9999 2500S BR FEW001 OVC120 19/18 A2998 RMK FG BANK TO S QUAD BECMG 3000 BR SCT001 BNK010=
200705220700 METAR MROC 220700Z 31005KT 9999 FEW003 OVC120 19/18 A2997 BECMG=
200705220800 METAR MROC 220800Z 29003KT 9999 VCFG FEW003 SCT010 BKN120 20/19 A2997 RMK VIS 5KMS TO S SSW BECMG 5000 BR=
200705220900 METAR MROC 220900Z 09002KT 9999 FEW008 SCT020 BKN120 20/19 A2996 RMK VIS SSE 9KMS BECMG=
200705221000 METAR MROC 221000Z 09003KT 9999 SCT030 BKN120 19/19 A2995 RMK TRAZAS ST BECMG=
200705221100 METAR MROC 221100Z 09005KT 9999 SCT040 BKN120 20/18 A2996 BECMG=
200705221200 METAR MROC 221200Z 03005KT 9999 FEW035 BKN100 20/19 A2997 RMK FEW250 LGT HZ ARND BECMG=
200705221300 METAR MROC 221300Z 08004KT 9999 SCT025 BKN090 21/19 A2998 BECMG=
200705221400 METAR MROC 221400Z 08005KT 9999 FEW025 BKN100 25/19 A2998 CB DST SW BECMG=
200705221500 METAR MROC 221500Z 13004KT 9999 FEW025 SCT100 BKN250 26/19 A2998 CB DST SW BECMG 24010KT=
200705221600 METAR MROC 221600Z 19002KT 9999 BKN025 BKN250 26/20 A2998 BECMG=
200705221700 METAR MROC 221700Z 24009KT 9999 BKN030 SCT250 26/21 A2997 BECMG=
200705221800 METAR MROC 221800Z 23005KT 9999 SCT025 BKN250 27/20 A2995 BECMG=
200705221900 METAR MROC 221900Z 24010KT 9999 FEW020 BKN030 25/21 A2992 CB DST S SW RN N BECMG=
200705222000 METAR MROC 222000Z 23008KT 6000 RA FEW015TCU SCT025 BKN100 23/21 A2991 VSBY SE S SW UNL VSBY NE N 4KM DUE RN BECMG=
200705222100 METAR MROC 222100Z 24006KT 9999 3000SW -RA SCT015 OVC110 22/21 A2991 BECMG 9999/ WET RNY=
200705222200 METAR MROC 222200Z 26006KT 7000 -RA FEW005 SCT015 BKN100 21/21 A2991 BECMG VCFG -RA=
200705222300 METAR MROC 222300Z 26005KT 7000 VCFG FEW003 SCT010 BKN100 21/20 A2994 BECMG=
200705230000 METAR MROC 230000Z 00000KT 8000 VCFG FEW006 SCT025 BKN120 21/20 A2995 BECMG=
200705230100 METAR MROC 230100Z VRB03KT 9999 FEW030 BKN120 21/20 A2997 BECMG=
200705230200 METAR MROC 230200Z 27003KT 9999 VCFG FEW004 SCT030 BKN120 21/20 A2999 BECMG=
200705230222 METAR MROC 230222Z 24005KT 8000 -DZ VCFG SCT010 OVC100 21/20 A2999 BECMG 6000=
200705230300 METAR MROC 230300Z 27003KT 8000 VCFG FEW010 BKN100 21/20 A2999 BECMG=
200705230400 METAR MROC 230400Z 00000KT 9999 FEW010 BKN100 21/20 A3000 BECMG=
200705230500 METAR MROC 230500Z 00000KT 9999 FEW025 BKN110 21/20 A3000 BECMG=
200705230600 METAR MROC 230600Z 00000KT CAVOK 20/20 A2998 BECMG=
200705230700 METAR MROC 230700Z 07004KT CAVOK 20/19 A2995 TRACE SCT SCT120=
200705230800 METAR MROC 230800Z 03005KT CAVOK 19/18 A2993 RMK TRACE SC SCT120=
200705230900 METAR MROC 230900Z 06004KT CAVOK 18/18 A2992=
200705231000 METAR MROC 231000Z 03004KT 1000 FG FEW001 SCT120 19/19 A2992=
200705231100 METAR MROC 231100Z 06003KT 9999 FEW008 SCT120 18/17 A2992=
200705231200 METAR MROC 231200Z 36002KT 9999 FEW003 BKN120 19/18 A2995=
200705231300 METAR MROC 231300Z 00000KT 9999 FEW005 BKN120 20/19 A2997 BECMG 24006=
200705231400 METAR MROC 231400Z 00000KT 9999 FEW005 BKN110 22/20 A2998 BECMG=
200705231500 METAR MROC 231500Z VRB03KT 9999 SCT030 BKN100 23/20 A2999 BECMG=
200705231600 METAR MROC 231600Z VRB03KT 9999 VCFG FEW020 BKN100 24/20 A2998 BECMG=
200705231700 METAR MROC 231700Z 26006KT 9999 SCT025 BKN250 26/21 A2995 BECMG=
200705231800 METAR MROC 231800Z 30003KT 9999 SCT020TCU SCT250 26/20 A2993 BECMG=
200705231900 METAR MROC 231900Z 00000KT 9999 RA FEW010TCU SCT020 BKN110 28/20 A2989 BECMG 5000 SHRA=
200705232000 METAR MROC 232000Z 27008KT 9999 4000NW VCSH SCT015CB BKN100 22/20 A2988 BECMG RMK RASH CB NW=
200705232100 METAR MROC 232100Z 29005KT 7000 2000SW VCSH SCT008CB BKN015 22/20 A2988 BECMG VIS 5000 RA BR=
200705232200 METAR MROC 232200Z 23007KT 7000 3000SW BR VCSH SCT003 BKN015 22/21 A2988 BECMG VIS 4000 RA BR=
200705232300 METAR MROC 232300Z 24005KT 1500 -RA BR SCT002 BKN006 21/20 A2989 RMK VIS 3000E=
200705240000 METAR MROC 240000Z 25002KT 6000 -RA VCFG SCT006 BKN020 21/20 A2992 RMK 9999 N LTNG S BECMG=
200705240100 METAR MROC 240100Z 28002KT 7000 DZ VCFG SCT005 BKN020 20/20 A2995 BECMG=
200705240200 METAR MROC 240200Z 32005KT 9999 SCT020 BKN100 20/20 A2997 RMK LTNG S BECMG=
200705240300 METAR MROC 240300Z 00000KT 9999 FEW006 SCT040 BKN100 20/19 A2998 BECMG=
200705240400 METAR MROC 240400Z 25004KT 9999 FEW015 OVC100 20/20 A3000 BECMG=
200705240500 METAR MROC 240500Z 03003KT 9999 FEW020 OVC100 20/20 A3000 BECMG=
200705240600 METAR MROC 240600Z 00000KT 9999 FEW030 SCT120 20/19 A2998 BECMG=
200705240700 METAR MROC 240700Z 31003KT 9999 FEW015 OVC100 20/19 A2996 BECMG=
200705240800 METAR MROC 240800Z 00000KT 9999 FEW015 OVC100 20/19 A2995 BECMG=
200705240900 METAR MROC 240900Z 33002KT 9999 FEW015 SCT040 BKN100 20/20 A2994 BECMG=
200705241000 METAR MROC 241000Z 00000KT 9999 FEW008 SCT040 20/19 A2994 VSBY SW 6KM LOW ST BECMG=
200705241100 METAR MROC 241100Z 31002KT 9999 FEW008 BKN020 20/19 A2994 BECMG=
200705241200 METAR MROC 241200Z 00000KT 6000 VCFG FEW003 SCT012 BKN120 20/20 A2997 BECMG=
200705241300 METAR MROC 241300Z 00000KT 9999 VCFG FEW005 SCT015 BKN120 23/20 A2998 RMK 7000SW BECMG=
200705241400 METAR MROC 241400Z 00000KT 9999 SCT015 SCT250 24/20 A2998 RMK ST SW HZY BECMG 24006KT=
200705241500 METAR MROC 241500Z 27008KT 9999 VCFG FEW003 SCT015TCU SCT250 24/21 A2999 RMK VIS 7000 SW HZ ARND BECMG 6000 VCFG=
200705241600 METAR MROC 241600Z 23008KT 7000 FEW015TCU SCT020 SCT250 25/21 A2999 RMK VIS 7000 HZ 9999 N BECMG=
200705241700 METAR MROC 241700Z 20005KT 9999 FEW008 SCT015CB SCT025 25/21 A2998 RMK RN DST NE SSE BECMG 7000 VCTS=
200705241800 METAR MROC 241800Z 24004KT 9999 -RA FEW015CB SCT020 BKN100 25/21 A2996 BECMG=
200705241900 METAR MROC 241900Z 25008KT 9999 7000W VCSH SCT010CB SCT020 SCT100 24/21 A2994 RMK VIS 7000S RN BECMG -RA=
200705242000 METAR MROC 242000Z 20002KT 1000 -TSRA FEW008CB BKN090 21/20 A2994 BECMG 5000 -RA=
200705242100 METAR MROC 242100Z 25008KT 5000 VCSH BR FEW005 SCT010 BKN025 21/20 A2992 RMK VIS S UNLTD BECMG 4000 BR=
200705242200 METAR MROC 242200Z 28006KT 7000 2000SW -RA BR SCT003 BKN010 21/20 A2993 BECMG 2000 -RA BR BKN003=
200705242300 METAR MROC 242300Z 24004KT 2000 -RA BR SCT003 BKN015 20/20 A2995 RMK VIS E 4KMS BECMG=
200705250000 METAR MROC 250000Z 23005KT 8000 SCT005 BKN025 21/20 A2998 BECMG 5000 -RA BR=
200705250100 METAR MROC 250100Z 26005KT 0500 FG VV/// 20/19 A2999 BECMG 3000=
200705250200 METAR MROC 250200Z 00000KT 0700 FG V/// 20/19 A3001 RMK VIS E 1500MTS BECMG 3000 BR=
200705250300 METAR MROC 250300Z 26004KT 3000 -RA BR FEW002 SCT010 OVC100 20/19 A3002 BECMG=
200705250400 METAR MROC 250400Z 28004KT 3000 -RA BR FEW003 SCT015 OVC100 20/19 A3003 BECMG=
200705250500 METAR MROC 250500Z 00000KT 8000 3000SW -RABR FEW008 SCT020 OVC100 20/19 A3002 BECMG=
200705250600 METAR MROC 250600Z 00000KT 1200 BR FEW001 SCT015 OVC100 20/19 A3001 RMK 8000N BECMG=
200705250700 METAR MROC 250700Z 00000KT 2500 BR FEW002 SCT020 OVC100 20/19 A2999 RMK 7000N BECMG=
200705250800 METAR MROC 250800Z 00000KT 7000 2000SW BR FEW002 SCT020 OVC100 20/19 A2998 RMK 7000 N NE BECMG=
200705250900 METAR MROC 250900Z 27003KT 0500 FG VV/// 20/19 A2997 MOSIG=
200705251000 METAR MROC 251000Z 27004KT 2000 BR FEW002 SCT012 OVC100 20/19 A2996 RMK VIS SW 1200MTS CNDS VRBL BECMG=
200705251100 METAR MROC 251100Z 23004KT 0800 FG SCT001 BKN005 19/19 A2998 RMK APP CLSD WET RNY BECMG=
200705251200 METAR MROC 251200Z 00000KT 0700 1500E FG FEW001 SCT010 OVC100 20/19 A3000 BECMG=
200705251300 METAR MROC 251300Z 21002KT 2000 BR FEW001 SCT003 BKN010 20/19 A3002 FG BANK NEAR APCH 07 VIS S 1KM BECMG 0500=
200705251400 METAR MROC 251400Z 23004KT 4000 BR FEW001 SCT004 BKN012 20/20 A3004 RMK VIS=
200705251500 METAR MROC 251500Z 24003KT 6000 VCFG FEW004 SCT015 BKN100 21/20 A3004 VIS SW 4KMS BECMG 3000 -RA BR=
200705251600 METAR MROC 251600Z 24003KT 9999 FEW005 SCT015 BKN120 23/20 A3003 RMK PCPN DST S BECMG 8000 -RA=
200705251700 METAR MROC 251700Z 24006KT 9999 FEW010 SCT020 BKN120 24/21 A3001 BECMG=
200705251800 METAR MROC 251800Z 24009KT 9999 FEW010 SCT025 BKN120 25/21 A2999 RMK RN DST S BECMG 6000 -RA=
200705251900 METAR MROC 251900Z 24008KT 9999 FEW015TCU SCT025 BKN140 25/21 A2997 RMK PCPN DST ESE S BECMG 6000 -RA=
200705252000 METAR MROC 252000Z 24009KT 9999 FEW015TCU SCT025 BKN120 24/20 A2995 RMK RN DST ESE S BECMG 5000 -RA BR SCT003 BKN010=
200705252100 METAR MROC 252100Z 22010KT 9999 FEW015TCU SCT025 BKN120 24/21 A2994=
200705252200 METAR MROC 252200Z 25009KT 9999 FEW015 SCT025 BKN120 24/21 A2994=
200705252300 METAR MROC 252300Z 24010KT 8000 VCFG FEW005 SCT010 BKN100 22/20 A2995 RMK BECMG 5000 -RA BR=
200705260000 METAR MROC 260000Z 23005KT 8000 SCT005 BKN025 21/20 A2998 BECMG 5000 -RA BR=
200705260100 METAR MROC 260100Z 22005KT 3000 BR FEW001 SCT005 BKN025 20/20 A3000 BECMG 1500 RA BR=
200705260200 METAR MROC 260200Z 23007KT 5000 BR FEW001 SCT008 BKN030 20/19 A3002 BECMG 1500 RA BR=
200705260300 METAR MROC 260300Z 24004KT 7000 +DZ VCFG FEW003 SCT012 BKN030 19/19 A3004 BECMG=
200705260400 METAR MROC 260400Z 00000KT 5000 +DZ BR FEW003 SCT012 BKN030 20/19 A3004 BECMG=
200705260500 METAR MROC 260500Z 00000KT 9999 FEW008 SCT030 BKN120 20/19 A3003 BECMG=
200705260600 METAR MROC 260600Z 00000KT 9999 FEW015 BKN100 20/19 A3002 BECMG=
200705260700 METAR MROC NIL=
200705260800 METAR MROC 260800Z 00000KT 9999 3000 BR FEW001 SCT015 19/19 A2997 RMK ST THIN OVER STND BECMG 2000 BR SCT001 SCT012=
200705260900 METAR MROC 260900Z 00000KT 1500 BR SCT001 19/19 A2996 RMK VIS E/SE UNL FEW012 BECMG 5000 BR FEW001=
200705261000 METAR MROC 261000Z 00000KT 4000 0800SW BR SCT001 18/18 A2996 RMK FEW012 VIS E UNL BECMG 5000 BR SCT002=
200705261100 METAR MROC 261100Z 05002KT 2000 0800ZW BR SCT001 SCT012 19/19 A2997 BECMG 3000 BR SCT002 SCT015=
200705261200 METAR MROC 261200Z 00000KT 0100 FG VV/// 19/19 A2999 BECMG=
200705261300 METAR MROC 261300Z 10002KT 4000 9999E BR SCT001 20/19 A3002=
200705261400 METAR MROC 261400Z 00000KT 4000 9999 BR SCT001 SCT250 21/19 A3002 BECMG 9999=
200705261500 METAR MROC 261500Z 24002KT 9999 4000N BR FEW001 SCT005 BKN250 23/19 A3002 BECMG=
200705261600 METAR MROC 261600Z 22007KT 9999 FEW010 SCT025 BKN250 24/20 A3001 BECMG=
200705261700 METAR MROC 261700Z 22010KT 9999 FEW010 BKN040 25/20 A3000 BECMG=
200705261800 METAR MROC 261800Z 25010KT 9999 FEW015 BKN040 25/21 A2999 BECMG=
200705261900 METAR MROC 261900Z 22008KT 9999 SCT030 SCT120 25/21 A2998=
200705262000 METAR MROC 262000Z 23009KT 9999 SCT030 SCT120 25/21 A2996 BECMG=
200705262100 METAR MROC 262100Z 25010KT 9999 SCT015 SCT260 25/21 A2993 CB DST SE BECMG=
200705262200 METAR MROC 262200Z 25011KT 9999 SCT012 SCT260 25/21 A2993 CB DST SE BECMG=
200705262300 METAR MROC 262300Z 23009KT 6000 VCFG SCT006 SCT015 23/21 A2995 VSBY NE E SE UNL BECMG=
200705270000 METAR MROC 270000Z 25007KT 5000 BR FEW001 BKN005 21/20 A2997 VSBY NW W 3KM DUE LOW ST BECMG=
200705270100 METAR MROC 270100Z 24008KT 0800 FG VV001 21/20 A2999 BECMG=
200705270200 METAR MROC 270200Z 24007KT 0500 FG VV001 21/20 A3002 BECMG=
200705270300 METAR MROC 270300Z 25005KT 0100 FG VV/// 20/20 A3004 BECMG=
200705270400 METAR MROC 270400Z 25005KT 1500 BR SCT001 BKN004 20/20 A3005 BECMG 3000 BR=
200705270500 METAR MROC 270500Z 22004KT 2000 BR SCT001 BKN003 20/20 A3004 CONDICIONES VARIABLES BECMG 0500 FG=
200705270600 METAR MROC 270600Z 20004KT 0200 -DZ FG VV/// 20/19 A3003 BECMG=
200705270700 METAR MROC 270700Z 22003KT 0200 -DZ FG VV/// 20/19 A3000 BECMG=
200705270800 METAR MROC 270800Z 21002KT 0300 DZ FG VV/// 20/19 A2999 BECMG=
200705270900 METAR MROC 270900Z 23004KT 0600 FG VV/// 20/19 A2998 BECMG=
200705271000 METAR MROC 271000Z 20002KT 1500 BR SCT001 BKN003 19/19 A2999 RMK CONDICIONES MUY VRBLS BECMG 0500 FG=
200705271100 METAR MROC 271100Z 00000KT 6000 VCFG FEW002 SCT006 BKN120 19/19 A2999=
200705271200 METAR MROC 271200Z 00000KT 4000 BR SCT003 BKN008 19/19 A3000 RMK VIS NW N 3KMS CONDICION VRBLE BECMG 8000 VCFG=
200705271300 METAR MROC 271300Z 19002KT 0800 FG VV001 20/19 A3003 BECMG=
200705271400 METAR MROC 271400Z 21002KT 1500 BR SCT001 SCT006 20/20 A3004 BECMG=
200705271500 METAR MROC 271500Z 18002KT 6000 VCFG SCT005 BKN010 21/20 A3005 VSBY NE E UNL BECMG=
200705271600 METAR MROC 271600Z 25005KT 9999 SCT010 SCT020 23/20 A3004 VSBY W NW N 6KM DUE LOW ST BECMG=
200705271700 METAR MROC 271700Z 26006KT 9999 BKN015 24/21 A3002 VSBY NW N 6KM BECMG=
200705271800 METAR MROC 271800Z 24007KT 9999 SCT015 SCT250 26/21 A3000 BECMG=
200705271900 METAR MROC 271900Z 22009KT 9999 SCT020 SCT250 25/21 A2997 BECMG=
200705272000 METAR MROC 272000Z 24009KT 9999 VCFG FEW010 SCT015 24/21 A2995 VSBY NW N 6KM DUE LOW ST BECMG=
200705272100 METAR MROC 272100Z 25009KT 9999 VCFG FEW015 SCT025 BKN250 23/21 A2995 RMK VIS NW/N 6KMS BECMG=
200705272200 METAR MROC 272200Z 23009KT 9999 VCFG FEW015 SCT025 BKN100 22/20 A2995 RMK VIS NW/N 5KMS LOW ST BECMG=
200705272300 METAR MROC 272300Z 23007KT 8000 3000SW BR FEW005 SCT015 BKN025 22/20 A2995 BECMG 4000 BR=
200705272355 METAR MROC 280000Z 21003KT 3000 BR FEW003 SCT012 BKN020 22/20 A2997 BECMG=
200705280000 METAR MROC 280000Z 21003KT 3000 BR FEW003 SCT012 BKN020 22/20 A2997 BECMG=
200705280100 METAR MROC 280100Z 25003KT 4000 1500SW -RABR FEW005 SCT015 BKN020 21/20 A2999=
200705280200 METAR MROC 280200Z 00000KT 3000 1200SW BR FEW003 SCT010 BKN020 21/21 A3001 RERA CNDS VRBL BECMG=
200705280300 METAR MROC 280300Z 00000KT 3000 BR FEW001 SCT010 BKN020 21/20 A3002=
200705280400 METAR MROC 280400Z 19002KT 2000 BR FEW001 SCT008 BKN020 21/20 A3002=
200705280500 METAR MROC 280500Z 23003KT 3000 1200SW BR FEW001 SCT008 BKN020 21/20 A3000=
200705280600 METAR MROC 280600Z 22002KT 0800 FG VV/// 20/20 A3002 BECMG=
200705280700 METAR MROC 280700Z 28004KT 3000 BR FEW001 SCT008 BKN020 20/20 A3000=
200705280800 METAR MROC 280800Z 22003KT 5000 1000SW FG FEW001 SCT015 BKN025 20/20 A2998 BECMG=
200705280900 METAR MROC 280900Z 00000KT 4000 1000SW FG FEW001 SCT015 BKN025 20/20 A2998 BECMG=
200705281000 METAR MROC 281000Z 34002KT 8000 2000SW BR FEW001 SCT010 BKN025 20/19 A2998 BECMG=
200705281100 METAR MROC 281100Z 00000KT 9999 3000SW BR FEW003 SCT025 BKN100 18/18 A2998 BECMG=
200705281200 METAR MROC 281200Z 00000KT 9999 3000SW BR FEW003 SCT025 BKN100 19/18 A3001 BECMG=
200705281300 METAR MROC 281300Z 00000KT 9999 4000SW BR FEW001 SCT010 BKN025 20/19 A3005 BECMG 6000 VCFG=
200705281400 METAR MROC 281400Z 28003KT 9999 3000SW BR FEW001 SCT015 22/19 A3004 BECMG=
200705281500 METAR MROC 281500Z 25005KT 7000 3000SW BR FEW001 SCT012 23/20 A3005 RMK CNDS VRL BECMG=
200705281600 METAR MROC 281600Z 30005KT 5000 BR FEW006 SCT020 24/20 A3004 BECMG=
200705281700 METAR MROC 281700Z 23007KT 7000 VCFG FEW006 SCT025 BKN250 24/20 A3004 BECMG=
200705281800 METAR MROC 281800Z 23009KT 5000 BR FEW003 SCT020 24/21 A3002 BECMG 3000 BR=
200705281900 METAR MROC 281900Z 25009KT 6000 2000SW BR SCT002 BKN015 24/21 A3000 BECMG 2000 BR SCT001 BKN010=
200705282000 METAR MROC 282000Z 27003KT 5000 2000SW BR SCT002 BKN010 24/21 A2998 BECMG 2000 BR SCT001 BKN008=
200705282100 METAR MROC 282100Z 25008KT 6000 VCFG SCT005 BKN020 23/21 A2996 RMK VIS 8000N BECMG 3000 BR=
200705282200 METAR MROC 282200Z 25009KT 7000 VCFG SCT005 SCT020 23/20 A2996 BECMG=
200705282300 METAR MROC 282300Z 26008KT 7000 3000SW BR SCT002 BKN012 22/20 A2997 BECMG 3000 BR=
200705290000 METAR MROC 290000Z 30003KT 7000 3000SW BR SCT002 BKN012 22/20 A2997 BECMG -RA BR=
200705290100 METAR MROC 290100Z 24004KT 7000 3000SW BR SCT002 BKN012 21/20 A2999 BECMG=
200705290200 METAR MROC 290200Z 24005KT 3000 1000SW BR SCT001 BKN006 21/20 A3001 BECMG=
200705290300 METAR MROC 290300Z 27004KT 0200 -DZ FG VV001 21/20 A3003 BECMG=
200705290400 METAR MROC 290400Z 24005KT 0100 -DZ FG VV001 21/20 A3004 BECMG=
200705290500 METAR MROC 290500Z 23004KT 0100 -DZ FG VV001 21/20 A3004 BECMG=
200705290600 METAR MROC 290600Z 23003KT 0100 -DZ FG VV001 21/20 A3002 BECMG=
200705290700 METAR MROC 290700Z 22003KT 0100 FG VV001 20/20 A3000 BECMG=
200705290800 METAR MROC 290800Z 21003KT 0100 FG VV001 20/20 A2999 BECMG=
200705290900 METAR MROC 290900Z 22004KT 0100 FG VV001 20/20 A2999 BECMG=
200705291000 METAR MROC 291000Z 22004KT 0100 FG VV001 20/20 A2998 BECMG=
200705291100 METAR MROC 291100Z 21003KT 0100 FG VV001 20/20 A2999 BECMG=
200705291200 METAR MROC 291200Z 17002KT 0100 -DZ FG VV001 20/20 A3000 BECMG=
200705291300 METAR MROC 291300Z 18003KT 0100 -DZ FG VV/// 20/20 A3003 BECMG=
200705291400 METAR MROC 291400Z 24002KT 3000 BR FEW001 BKN006 21/20 A3003 BECMG 5000 BR=
200705291500 METAR MROC 291500Z 27002KT 7000 VCFG SCT012 SCT250 22/21 A3004 BECMG=
200705291600 METAR MROC 291600Z 23010KT 7000 VCFG SCT012 BKN250 24/21 A3004 BECMG=
200705291700 METAR MROC NIL=
200705291800 METAR MROC NIL=
200705291900 METAR MROC NIL=
200705292000 METAR MROC 292000Z 24008KT 3000 BR SCT003 BKN012 23/21 A2996 RMK VIS 6000E BECMG=
200705292100 METAR MROC 292100Z 23006KT 6000 -DZ VCSH SCT004 BKN010 23/21 A2995 RMK VIS S SSW UNLTD BECMG 3000 -RA BR=
200705292200 METAR MROC 292200Z 23005KT 4000 -RA BR FEW002 SCT005 BKN010 22/21 A2994 RMK VIS NW N NE 2500 BECMG 2000=
200705292300 METAR MROC 292300Z 24006KT 4000 BR FEW002 SCT004 BKN010 22/21 A2995 RMK VIS N 2500 BECMG 0500 FG=
200705300000 METAR MROC 300000Z 23003KT 2500 BR FEW001 SCT004 BKN250 21/21 A2996 RMK FG OVER AP07 BECMG 0500 FG VV///=
200705300100 METAR MROC 300100Z 23003KT 5000 BR FEW001 SCT005 BKN012 21/21 A2998 BECMG 2000 BR SCT001 BKN004=
200705300200 METAR MROC 300200Z 21002KT 5000 2000SW -DZ BR SCT001 SCT004 BKN010 21/21 A3000 RMK LOW ST OVER APCH07 BECMG 2000=
200705300300 METAR MROC 300300Z 24004KT 5000 2000SW BR FEW001 SCT005 BKN015 21/21 A3002 BECMG=
200705300400 METAR MROC 300400Z 24005KT 0800 FG SCT001 BKN008 21/21 A3004 BECMG=
200705300500 METAR MROC 300500Z 09003KT 5000 1000E BR FEW001 SCT010 20/20 A3004 BECMG 0500 FG=
200705300600 METAR MROC 300600Z 03006KT 7000 VCFG FEW001 SCT020 20/19 A2999 CNDS VRL=
200705300700 METAR MROC 300700Z 22006KT 5000 2000SW BR FEW001 BKN010 20/19 A2997 BECMG=
200705300800 METAR MROC 300800Z 00000KT 7000 2000SW BR FEW008 BKN012 20/19 A2996 BECMG=
200705300900 METAR MROC 300900Z 00000KT 9999 3000SW VCFG FEW008 OVC100 20/19 A2996 BECMG=
200705301000 METAR MROC 301000Z 00000KT 9999 2000SW VCFG FEW005 SCT015 OVC100 20/19 A2996 BECMG=
200705301100 METAR MROC 301100Z 16003KT 9999 SCT015 OVC100 20/19 A2997 RMK TRACE ST BECMG=
200705301200 METAR MROC 301200Z 32003KT 9999 SCT020 OVC100 20/19 A2998 RMK TRACE ST BECMG=
200705301300 METAR MROC 301300Z 00000KT 9999 BKN020 SCT120 21/19 A3000 RMK TRACE ST LGT HZ ARND BECMG=
200705301400 METAR MROC 301400Z 00000KT 9999 FEW015 SCT025 23/20 A3001 RMK TRACE ST LGT HZ ARND BECMG=
200705301500 METAR MROC 301500Z 12003KT 9999 SCT025 SCT040 26/20 A3002 RMK LGT HZ ARND BECMG 24006KT=
200705301600 METAR MROC 301600Z 23005KT 9999 SCT025 SCT250 26/21 A3001 BECMG=
200705301700 METAR MROC 301700Z 25006KT 9999 SCT025 BKN250 27/20 A3000 BECMG=
200705301800 METAR MROC 301800Z 23009KT 9999 FEW020TCU BKN250 26/19 A2998 RMK PCPN DST SE BECMG=
200705301900 METAR MROC 301900Z 24013KT 9999 FEW017TCU SCT025 BKN250 26/20 A2997 RMK CB TS RASH DST SE S BECMG 5000 RA=
200705302000 METAR MROC 302000Z 23013KT 3000 -RA FEW005 FEW015CB BKN025 22/20 A2995 RMK VIS N UNLTD BECMG=
200705302100 METAR MROC 302100Z 24012KT 3000 -RA FEW002 FEW015CB BKN025 21/20 A2995 BECMG=
200705302200 METAR MROC 302200Z 24008KT 4000 -RA BR FEW002 SCT015 BKN025 21/19 A2994 BECMG=
200705302300 METAR MROC 302300Z 25004KT 3000 RA BR FEW002 SCT015 BKN025 20/19 A2996 BECMG=
200705310000 METAR MROC 310000Z 12002KT 5000 RA BR FEW002 SCT015 BKN030 20/19 A2998 BECMG=
200705310100 METAR MROC 310100Z 22003KT 3000 +RA BR FEW002 SCT015 BKN030 19/18 A3001 BECMG=
200705310200 METAR MROC 310200Z 07002KT 9999 2000SW -RA BR FEW002 SCT030 OVC100 19/18 A3002 BECMG=
200705310300 METAR MROC 310300Z 11003KT 9999 -RA FEW030 BKN100 19/18 A3003 BECMG=
200705310400 METAR MROC 310400Z 06005KT CAVOK 19/18 A3003 RMK BKN100 BECMG=
200705310500 METAR MROC 310500Z 00000KT CAVOK 19/18 A3003 RMK BKN100 BECMG=
200705310600 METAR MROC 310600Z 28003KT 9999 -DZ FEW020 BKN100 20/18 A3002 BECMG=
200705310700 METAR MROC 310700Z 29003KT 9999 FEW006 SCT020 BKN100 20/19 A3000 RMK VIS SW 8KM DUE ST BECMG 7000 -DZRA VCFG=
200705310800 METAR MROC 310800Z 00000KT 9999 FEW005 SCT025 BKN090 20/18 A2998 RMK VIS SSE/S/SW 8KM DUE ST BECMG 7000 -DZRA VCFG=
200705310900 METAR MROC 310900Z 00000KT 9999 FEW005 SCT025 20/19 A2996 RMK SCT090 VIS SW 6KM VIS SSE/S 8KM DUE ST BECMG=
200705311000 METAR MROC 311000Z 00000KT 7000 3000SW BR SCT002 BKN010 20/18 A2995 RMK VIS N/NE UNL BECMG 7000 VCSHSCT005 BKN020=
200705311100 METAR MROC 311100Z 00000KT 9999 VCFG FEW006 BKN020 20/19 A2994 RMK VIS SW/W 6 KM DUE ST BECMG=
200705311200 METAR MROC 311200Z 00000KT 9999 VCFG FEW004 BKN020 20/19 A2997 RNK VIS 6000 S SW BECMG=
200705311300 METAR MROC 311300Z 03005KT 9999 VCFG FEW004 SCT020 BKN250 21/19 A2998 BECMG=
200705311400 METAR MROC 311400Z 00000KT 9999 VCFG FEW008 SCT025 BKN250 25/19 A3000 BECMG=
200705311500 METAR MROC 311500Z 20003KT 9999 FEW010TCU SCT025 BKN250 25/20 A3002 BECMG=
200705311600 METAR MROC 311600Z 25010KT 3000 -RA BR FEW001 SCT008 BKN020 21/20 A3004 BECMG=
200705311700 METAR MROC 311700Z 29007KT 3000 RA BR FEW001 SCT008 BKN020 20/19 A3005 BECMG=
200705311800 METAR MROC 311800Z 28007KT 8000 VCFG FEW003 SCT010 BKN030 23/20 A3002 BECMG=
200705311900 METAR MROC 311900Z 27007KT 9999 FEW008 BKN030 23/19 A2999 BECMG=
200705312000 METAR MROC 312000Z 24011KT 9999 SCT010 BKN030 24/19 A2996 BECMG=
200705312100 METAR MROC 312100Z 25007KT 9999 SCT006 BKN012 23/19 A2996 RN S BECMG=
200705312200 METAR MROC 312200Z 23008KT 9999 FEW008 SCT018 BKN120 22/19 A2996 RN S BECMG=
200705312300 METAR MROC 312300Z 25008KT 9999 SCT006 SCT015 BKN120 21/18 A2997 RN S/NE/E BECMG=
200706010000 METAR MROC 010000Z 26006KT 9999 VCFG SCT007 BKN015 21/19 A2998 VSBY NW N 7KM LOW ST RN S NE E BECMG=
200706010100 METAR MROC 010100Z 26003KT 9999 VCFG SCT005 BKN015 21/19 A3000 VSBY NW N 7KM LOW ST BECMG=
200706010200 METAR MROC 010200Z 00000KT 6000 -RA VCFG FEW002 SCT006 BKN015 20/19 A3003 VSBY SW 4KM N BECMG=
200706010300 METAR MROC 010300Z 26003KT 4000 -RA BR SCT002 BKN010 20/19 A3004 RMK VIS N 7KMS BECMG 1000=
200706010400 METAR MROC 010400Z 28003KT 5000 BR FEW002 SCT010 BKN120 20/19 A3005 VIS SSE 8KMS BECMG 7000 VCFG=
200706010500 METAR MROC 010500Z 27004KT 8000 3500SW VCFG FEW003 SCT010 BKN120 20/19 A3006 RMK VIS N UNLTD BECMG 3000 BR=
200706010600 METAR MROC 010600Z 34003KT 8000 VCFG FEW003 SCT010 BKN120 20/19 A3004 BECMG 5000 BR=
200706010700 METAR MROC 010700Z 00000KT 9999 VCFG FEW004 SCT015 BKN120 20/19 A3002 RMK VIS 7KMS TO S SW DUE LOW ST BECMG=
200706010800 METAR MROC 010800Z 24002KT 8000 VCFG FEW003 SCT010 BKN120 20/19 A3001 RMK VIS S SW 5KMS BECMG 3000 BR=
200706010900 METAR MROC 010900Z 27002KT 8000 VCFG FEW003 SCT010 BKN120 20/19 A2999 RMK VIS S SW 6KMS BECMG 3000 BR=
200706011000 METAR MROC 011000Z 00000KT 9999 FEW004 SCT015 BKN120 19/18 A2998 BECMG=
200706011100 METAR MROC 011100Z 00000KT 9999 VCFG BKN120 SCT250 19/18 A2998 RMK TRACE LOW ST VIS SW 7KMS BECMG=
200706011200 METAR MROC 011200Z 00000KT CAVOK 20/18 A2998 RMK TRACE OF LOW ST SCT130 BKN270 LGT HZ ARND BECMG=
200706011300 METAR MROC 011300Z 03003KT 9999 VCFG FEW002 BKN120 22/19 A3000 VSBY SW 6KM DUE LOW ST BECMG=
200706011400 METAR MROC 011400Z 26002KT 9999 FEW015 BKN120 25/20 A3002 BECMG=
200706011500 METAR MROC 011500Z 24006KT 9999 FEW015 BKN120 24/20 A3003 BECMG=
200706011600 METAR MROC 011600Z 24006KT 9999 FEW015 BKN120 25/20 A3003 BECMG=
200706011700 METAR MROC 011700Z 25008KT 9999 FEW015 BKN120 25/20 A3003 BECMG=
200706011800 METAR MROC 011800Z 26008KT 9999 SCT015 BKN120 25/20 A3002 BECMG=
200706011900 METAR MROC 011900Z 23007KT 9999 FEW010 SCT020 BKN120 25/20 A3000 BECMG=
200706012000 METAR MROC 012000Z 24011KT 9999 SCT006 SCT020 24/20 A2998 BECMG=
200706012100 METAR MROC 012100Z 24009KT 9999 FEW006 SCT015 BKN030 23/20 A2997 BECMG 5000 BR=
200706012200 METAR MROC 012200Z 25009KT 9999 FEW006 SCT020 BKN250 22/20 A2997 BECMG=
200706012300 METAR MROC 012300Z 27008KT 9999 FEW002 BKN020 22/19 A2998 BECMG 6000=
200706012357 METAR MROC 020000Z 23006KT 7000 3000SW SCT002 BKN015 21/19 A3000 BECMG=
200706020000 METAR MROC 020000Z 23006KT 7000 3000SW SCT002 BKN015 21/19 A3000 BECMG=
200706020100 METAR MROC 020100Z 23004KT 7000 3000SW BR SCT001 BKN015 20/19 A3001 BECMG=
200706020200 METAR MROC 020200Z 23005KT 0100 FG VV/// 20/19 A3002 BECMG=
200706020300 METAR MROC 020300Z 21002KT 0500 FG VV/// 20/19 A3003 BECMG=
200706020400 METAR MROC 020400Z 00000KT 1500 BR FEW001 BKN003 20/19 A3004 RMK VIS N 3000MTS=
200706020500 METAR MROC 020500Z 22002KT 9999 2000SW BR FEW001 SCT003 BKN130 20/19 A3003 BECMG=
200706020531 METAR MROC 020531Z 21003KT 5000 BR FEW001 SCT003 BKN130 20/19 A3002 BECMG=
200706020600 METAR MROC 020600Z 24002KT 2000 BR FEW001 BKN005 20/19 A3002 BECMG=
200706020700 METAR MROC 020700Z 23003KT 3000 100SW BR FEW001 BKN005 20/19 A3001 BECMG=
200706020800 METAR MROC 020800Z 18002KT 0500 FG VV/// 20/19 A3001=
200706020900 METAR MROC 020900Z 00000KT 1000 BR FEW001 BKN003 20/19 A2999 BECMG=
200706021000 METAR MROC 021000Z 13002KT 3000 1000SW BR FEW001 BKN003 20/19 A2999 BECMG=
200706021100 METAR MROC 021100Z 00000KT 7000 2000SW BR FEW001 SCT003 BKN130 20/19 A3000 BECMG=
200706021200 METAR MROC 021200Z 00000KT 7000 2000SW BR FEW001 SCT003 BKN120 20/19 A3001 BECMG=
200706021300 METAR MROC 021300Z 00000KT 9999 3000SW BR FEW003 SCT012 BKN140 24/19 A3002 BECMG 04004KT 9999=
200706021400 METAR MROC 021400Z 23004KT 9999 4000SW FEW003 SCT025 BKN250 23/20 A3002 BECMG=
200706021500 METAR MROC 021500Z 24005KT 9999 4000SW BR FEW003 SCT120 26/20 A3002 BECMG=
200706021600 METAR MROC 021600Z 22006KT 9999 FEW015 SCT120 26/21 A3002 BECMG=
200706021700 METAR MROC 021700Z 22009KT 9999 FEW010 SCT020 25/21 A3002 BECMG RMK HZ ARND=
200706021800 METAR MROC 021800Z 25008KT 7000 VCFG FEW003 BKN015 25/21 A3002 BECMG 5000 RA=
200706021852 METAR MROC 021852Z 22007KT 9999 4000SW VCRA FEW002 SCT010 BKN025 23/20 A3001 BECMG 3000 RA=
200706021900 METAR MROC 021900Z 22007KT 9999 4000SW VCRA FEW002 SCT010 BKN025 23/20 A3001 BECMG 3000 RA=
200706022000 METAR MROC 022000Z 27008KT 9999 4000SW FEW001 SCT008 BKN020 24/20 A2999 BECMG 5000 RA=
200706022100 METAR MROC 022100Z 24007KT 4000 BR VCSH SCT003 BKN020 23/20 A2997 RMK VIS 7000E=
200706022200 METAR MROC 022200Z 23007KT 3000 BR VCSH SCT003 BKN015 22/20 A2997 RMK VIS 5000E BECMG=
200706022300 METAR MROC 022300Z 27004KT 3000 -RA BR FEW003 SCT010 BKN090 22/20 A2998 RMK VIS 6000E=
200706030000 METAR MROC 030000Z 26005KT 3000 DZ BR FEW003 SCT015 SCT090 21/20 A3000 RMK VIS 6000E BECMG RA=
200706030100 METAR MROC 030100Z 26005KT 5000 BR SCT003 BKN020 21/20 A3002 RMK VIS 9999 E=
200706030200 METAR MROC 030200Z 25008KT 9999 VCFG SCT005 SCT020 21/20 A3004 RMK VIS 6000SW=
200706030300 METAR MROC 030300Z 25005KT 5000 BR FEW002 SCT006 BKN020 21/20 A3006 BECMG=
200706030400 METAR MROC 030400Z 26003KT 5000 BR SCT004 SCT008 21/19 A3006 BECMG=
200706030500 METAR MROC 030500Z 10002KT 9999 FEW010 SCT020 21/19 A3005 BECMG=
200706030600 METAR MROC 030600Z 09003KT 9999 FEW025 SCT120 20/19 A3003 BECMG=
200706030700 METAR MROC NIL=
200706030800 METAR MROC 030800Z 06003KT 9999 4000 VCFG FEW002 SCT010 20/18 A3001 BECMG=
200706030900 METAR MROC 030900Z 00000KT 6000 VCFG SCT002 SCT015 20/18 A3000=
200706031000 METAR MROC 031000Z 01004KT 6000 BR SCT003 SCT015 19/18 A2999 VSBY SW 4KM BECMG=
200706031100 METAR MROC 031100Z 00000KT 9999 FEW008 SCT015 19/18 A2999 LOW ST SW BECMG=
200706031200 METAR MROC 031200Z 06002KT 9999 FEW006 SCT250 19/17 A3000 BECMG=
200706031300 METAR MROC 031300Z 34002KT 9999 FEW006 SCT250 22/18 A3001 BECMG=
200706031400 METAR MROC 031400Z 33002KT CAVOK 25/18 A3002 RMK TRACE SC SCT250 BECMG=
200706031500 METAR MROC 031500Z 25006KT CAVOK 26/20 A3002 TRACE SCT SCT250 BECMG=
200706031600 METAR MROC 031600Z 23007KT 9999 FEW035 BKN250 25/20 A3001 LEVE HZY BECMG=
200706031700 METAR MROC 031700Z 23010KT 9999 SCT035 SCT250 25/20 A3001 RMK LEVE HZY BECMG=
200706031800 METAR MROC 031800Z 22008KT 9999 FEW015TCU SCT030 SCT250 26/20 A3000 BECMG=
200706031900 METAR MROC 031900Z 24010KT 9999 FEW015TCU BKN025 25/21 A2999 RMK RN DST E BECMG=
200706032000 METAR MROC 032000Z 27010KT 9999 VCSH SCT015 BKN025 26/21 A2998 RMK VIS 7000 VCSH NE E BECMG=
200706032100 METAR MROC 032100Z 20006KT 9999 FEW015CB BKN025 22/20 A2997 RMK RASH DST N NW ESE BECMG 6000 TSRA=
200706032200 METAR MROC 032200Z 25008KT 9999 VCFG FEW003 SCT020 BKN035 23/21 A2997 RMK VIS SW 6KMS RASH DIST NW BECMG=
200706032300 METAR MROC 032300Z 27007KT 9999 FEW003 SCT020 BKN035 23/20 A2997 RMK LOS ST NEAR APCH07 BECMG 7000 VCFG=
200706040000 METAR MROC 040000Z 30003KT 9999 FEW004 SCT020 BKN035 22/20 A3000 LOW ST NEAR APCH07 BECMG=
200706040100 METAR MROC 040100Z 25003KT 9999 FEW004 SCT030 BKN100 22/20 A3001 RMK LOW ST TO SSW SW BECMG=
200706040200 METAR MROC 040200Z 25002KT 1500 BR SCT001 BKN003 21/20 A3002 CONDICIONES VRBLS BECMG 0500 FG=
200706040300 METAR MROC 040300Z 00000KT 6000 BR FEW001 SCT009 BKN100 21/20 A3004 BECMG 8000 VCFG=
200706040400 METAR MROC 040400Z 00000KT 9999 FEW030 20/19 A3003 BECMG=
200706040500 METAR MROC 040500Z 02005KT 9999 FEW030 20/18 A3002 BECMG=
200706040600 METAR MROC 040600Z 00000KT 8000 VCFG FEW003 SCT100 20/18 A3000=
200706040700 METAR MROC 040700Z 06006KT 8000 VCFG FEW003 SCT100 20/18 A2999 BECMG=
200706040800 METAR MROC 040800Z 24006KT 5000 9999E BR FEW003 SCT100 20/19 A2998 RMK BR W BECMG 3000W=
200706040900 METAR MROC 040900Z 26004KT 5000 BR FEW003 BKN012 20/19 A2999 BECMG=
200706041000 METAR MROC 041000Z 30003KT 6000 VCFG FEW003 SCT012 SCT100 21/19 A2998 BECMG=
200706041100 METAR MROC 041100Z 00000KT 9999 FEW012 SCT030 20/19 A2999 TRACE ST BECMG=
200706041200 METAR MROC 041200Z 00000KT 9999 VCFG FEW010 SCT030 21/19 A3001 RMK VIS 6000 W BECMG=
200706041300 METAR MROC 041300Z 03003KT 9999 FEW008 BKN300 22/19 A3002 RMK LGT HZ ARND TRACE SC AC BECMG=
200706041400 METAR MROC 041400Z 31003KT 9999 FEW010 SCT300 25/19 A3001 RMK LGT HZ ARND BECMG=
200706041500 METAR MROC 041500Z 23006KT 9999 FEW020 25/20 A3001 RMK LGT HZ ARND FEWCI BECMG=
200706041600 METAR MROC 041600Z 24008KT 9999 FEW025 26/21 A3002 RMK LGT HZ ARND BECMG=
200706041700 METAR MROC 041700Z 23008KT 9999 SCT025 26/21 A3001 RMK FEW AC LGT HZ ARND BECMG=
200706041800 METAR MROC 041800Z 22009KT 9999 FEW017TCU SCT025 27/22 A2999 RMK RASH DST TO N NE ENE BECMG 7000 VCSH=
200706041900 METAR MROC 041900Z 23010KT 9999 VCSH FEW015CB SCT025 25/21 A2998 RMK VIS N NE 8KMS BECMG 5000 TSRA=
200706042000 METAR MROC 042000Z 24010KT 2000 TSRA SCT012CB BKN020TCU 23/21 A2996 RMK VIS S SSW UNLTD BECMG 0800 TSRA=
200706042100 METAR MROC 042100Z 04005KT 9999 3000SW VCSH -TS FEW010CB SCT025 BKN100 20/19 A2996=
200706042200 METAR MROC 042200Z 15002KT 9999 FEW010 SCT025 BKN100 21/20 A2996 BECMG=
200706042300 METAR MROC 042300Z 21002KT 9999 2000SW BR FEW001 SCT008 BKN025 21/20 A2997 RMK VIS N NE 3000MTS DUE ST LOW=
200706050000 METAR MROC 050000Z 22006KT 3000 -RA BR FEW001 SCT008 BKN025 20/19 A3000=
200706050100 METAR MROC 050100Z 25005KT 7000 2000SW -RA BR FEW001 SCT025 OVC100 20/19 A3002 BECMG=
200706050200 METAR MROC 050200Z 34004KT 7000 2000SW RA BR FEW001 SCT025 OVC100 20/19 A3005 BECMG=
200706050300 METAR MROC 050300Z 34004KT 9999 -RA SCT015 BKN100 20/18 A3008 RMK VIS 7000SE VCFG VCSH BECMG=
200706050400 METAR MROC 050400Z 36004KT 9999 -DZ FEW020 BKN100 20/19 A3007 BECMG=
200706050500 METAR MROC 050500Z 08008KT CAVOK 20/18 A3002 RMK TRACE SC SCT120 BECMG=
200706050600 METAR MROC 050600Z 06010KT CAVOK 20/18 A3000 RMK SCT250 BECMG=
200706050700 METAR MROC 050700Z 06005KT CAVOK 20/17 A2998 SCT250 BECMG=
200706050800 METAR MROC 050800Z 00000KT CAVOK 19/18 A2999 RMK SCT250 BECMG=
200706050900 METAR MROC 050900Z 26004KT 9999 3000SW BR SCT002 BKN012 19/18 A2999 BECMG 2000 BR SCT001 BKN008=
200706051000 METAR MROC 051000Z 32002KT 9999 3000SW BR SCT003 BKN015 19/18 A2999 BECMG 5000 BR SCT004 SCT015=
200706051100 METAR MROC 051100Z 09002KT 9999 3000 SW BR SCT004 BKN020 19/18 A3000 BECMG 9999 SCT020 SCT260=
200706051200 METAR MROC 051200Z 06003KT 9999 SCT030 20/18 A3001 RMK TRACE ST BECMG=
200706051300 METAR MROC 051300Z 05005KT CAVOK 22/18 A3002 RMK CB DST SW BKN250 TRACE AC=
200706051400 METAR MROC 051400Z 05007KT CAVOK 24/18 A3002 RMK FEW130 FEW250 CB DST SW=
200706051500 METAR MROC 051500Z 22010KT 9999 FEW040 SCT250 25/20 A3003 RMK CB DST SW BECMG=
200706051600 METAR MROC 051600Z 23007KT 9999 FEW040 SCT250 26/20 A3004 CB DST SW=
200706051700 METAR MROC 051700Z 26006KT 9999 SCT035 SCT250 26/19 A3002 BECMG=
200706051800 METAR MROC 051800Z 24008KT 9999 SCT035 SCT250 26/20 A3000 BECMG=
200706051900 METAR MROC 051900Z 23009KT 9999 FEW015TCU SCT030 BKN250 27/21 A2998 BECMG=
200706052000 METAR MROC 052000Z 23010KT 9999 FEW015TCU SCT030 BKN250 27/20 A2996 RMK RN N NE BECMG 7000 VCSH=
200706052100 METAR MROC 052100Z 21006KT 5000 TSRA FEW015CB BKN025 21/20 A2996 VSBY S SE E UNL VSBY NW N 3000 BECMG=
200706052118 METAR MROC 052118Z 24007KT 9999 4000NW TS VCSH FEW012CB SCT030 SCT250 21/20 A2996 TS NW BECMG=
200706052200 METAR MROC 052200Z 28008KT 9999 VCFG SCT008 SCT025 21/20 A2997 VSBY NW N 6KM BECMG=
200706052300 METAR MROC 052300Z 24005KT 5000 VCSH FEW010TCU BKN030 21/20 A2999 VSBY E SE S UNL VSBY NW N 5KM DUE RASH BECMG=
200706060000 METAR MROC 060000Z 29004KT 6000 VCFG FEW010 SCT045 BKN080 21/20 A3000 VSBY E SE S UNL FG W BECMG=
200706060100 METAR MROC 060100Z 27002KT 9999 FEW006 SCT020 BKN120 21/19 A3002 BECMG=
200706060200 METAR MROC 060200Z 00000KT 9999 SCT025 SCT100 21/19 A3003 BECMG=
200706060300 METAR MROC 060300Z 11003KT 9999 FEW030 SCT080 21/20 A3004 BECMG=
200706060400 METAR MROC 060400Z 10002KT 9999 FEW035 SCT080 20/19 A3003 BECMG=
200706060500 METAR MROC 060500Z 03006KT CAVOK 20/18 A3003 RMK TRACE SC BKN120 BECMG=
200706060600 METAR MROC 060600Z 00000KT CAVOK 20/18 A3001 RMK RACE OF SC BKN120 BECMG=
200706060700 METAR MROC 060700Z 11002KT CAVOK 20/18 A2999 RMK TRACE SC BKN120 BECMG=
200706060800 METAR MROC 060800Z 31002KT 7000 2000SW VCFG FEW002 SCT006 19/18 A2998 RMK SCT120 VIS N NE UNLTD BECMG 1500 BR=
200706060900 METAR MROC 060900Z 10004KT 9999 3000SW BR FEW002 SCT120 18/17 A2997 RMK FG BANK NEAR APCH 07 BECMG=
200706061000 METAR MROC 061000Z 06004KT 9999 4000SW BR FEW001 SCT120 18/17 A2996 RMK LTNG DST S BECMG=
200706061100 METAR MROC 061100Z 35002KT 9999 VCFG SCT250 18/17 A2997 RMK VIS S SSW 6KMS LTNG DIST S BECMG=
200706061200 METAR MROC 061200Z 00000KT 0500 FG VV/// 19/18 A3000 RMK VIS N 2KMS BECMG 5000 BR=
200706061300 METAR MROC 061300Z 05002KT 0500 FG VV/// 19/18 A3001=
200706061400 METAR MROC 061400Z 00000KT 9999 BR FEW002 BKN270 24/19 A3002 VSBY S SW 5KM BECMG=
200706061500 METAR MROC 061500Z 23005KT 9999 BR FEW005 BKN270 24/19 A3000 VSBY SW W 5KM BECMG=
200706061600 METAR MROC 061600Z 29004KT 9999 FEW018 BKN270 27/20 A2999 HZ W BECMG=
200706061700 METAR MROC 061700Z 26007KT 9999 VCFG FEW020 BKN270 25/20 A2999 VSBY NW N 6KM DUE LOW ST BECMG=
200706061800 METAR MROC 061800Z 24009KT 7000 VCFG FEW015TCU SCT025 BKN250 25/20 A3000 VSBY SE S UNL BECMG=
200706061900 METAR MROC 061900Z 23009KT 7000 VCSH FEW015TCU BKN025 25/21 A2997 VSBY SE S UNL RN NE BECMG=
200706062000 METAR MROC 062000Z 24011KT 5000 -RA BR FEW008 BKN015 23/21 A2995 VSBY SE S UNL VSBY NW N 3KM DUE RASH BECMG=
200706062100 METAR MROC 062100Z 27006KT 9999 VCFG FEW010 SCT025 BKN250 24/20 A2993 BECMG=
200706062200 METAR MROC 062200Z 26007KT 9000 VCFG FEW008 SCT025 BKN250 24/20 A2993 BECMG=
200706062300 METAR MROC 062300Z 25006KT 9000 VCFG FEW006 SCT025 BKN220 22/20 A2995 BECMG=
200706070000 METAR MROC 070000Z 28007KT 9999 VCFG FEW006 SCT025 BKN220 22/20 A2996 RMK 8000 N DUE FG BECMG=
200706070100 METAR MROC 070100Z 29005KT 8000 VCFG FEW007 SCT025 SCT110 22/20 A2998 BECMG=
200706070300 METAR MROC NIL=
200706070400 METAR MROC NIL=
200706070500 METAR MROC NIL=
200706070600 METAR MROC 070600Z 00000KT CAVOK 20/19 A2995 RK FEW120 BKN250 TRACE SCT=
200706070700 METAR MROC 070700Z 29004KT CAVOK 20/18 A2995 RMK TRACE SC FEW120 BKN250=
200706070800 METAR MROC 070800Z 10002KT CAVOK 20/18 A2995 RMK SCT120 BKN250 BECMG=
200706070900 METAR MROC 070900Z 03003KT CAVOK 20/17 A2993 RMK BKN250=
200706071000 METAR MROC 071000Z 00000KT CAVOK 19/17 A2993 RMK BN250=
200706071100 METAR MROC 071100Z 00000KT 0500 FG BKN001 19/18 A2994 RMK VIS E UNL=
200706071200 METAR MROC 071200Z 03003KT 9999 2000SW BR FEW001 BKN120 19/17 A2996 BECMG=
200706071300 METAR MROC 071300Z 00000KT CAVOK 21/18 A2997 RMK BKN100 TRACE SC BECMG=
200706071400 METAR MROC 071400Z 23003KT 9999 VCFG FEW005 SCT100 BKN250 22/19 A2998 RMK LOW ST W=
200706071500 METAR MROC 071500Z 26005KT 9999 FEW020 SCT100 BKN250 24/19 A2998 BECMG=
200706071600 METAR MROC 071600Z 22006KT 9999 SCT020 BKN250 25/20 A2997 BECMG=
200706071700 METAR MROC 071700Z 22006KT 9999 SCT020 BKN250 25/20 A2997 BECMG=
200706071800 METAR MROC 071800Z 25007KT 9999 VCSH SCT015TCU BKN250 26/20 A2995 RMK RN DST NE TE HVH647 071800Z GG MUHAYMYX MYNNYMYX SBBRYZYX SKZZMAMX SPZZMAMX SVZZMAMX TJSJYMYX TNCCYMYX MPDAYFYX 071800Z MROCYMYX SACS31 CHECK TEXT NEW ENDING ADDED KATLYTAA=
200706071900 METAR MROC 071900Z 23009KT 9999 VCSH SCT015TCU BKN250 25/20 A2994 BECMG=
200706072000 METAR MROC 072000Z 24008KT 9999 5000E SCT010TCU SCT025 BKN250 25/20 A2992 RMK RASH NE E BECMG 4000 RA=
200706072100 METAR MROC 072100Z 22007KT 5000 -RA BR FEW006 SCT015TCU SCT030 23/20 A2991 RNK 9999 S SSW BECMG 3000 RA BR=
200706072200 METAR MROC NIL=
200706072300 METAR MROC NIL=
200706080000 METAR MROC 080000Z 29005KT 9999 4000SW BR FEW003 BKN030 21/19 A2997 BECMG=
200706080100 METAR MROC 080100Z 00000KT 9999 SCT030 SCT100 21/19 A2998 BECMG=
200706080200 METAR MROC 080200Z 12002KT 9999 SCT030 SCT120 20/19 A2999 BECMG=
200706080300 METAR MROC 080300Z 11002KT 9999 BKN035 SCT120 20/19 A3000 BECMG=
200706080400 METAR MROC 080400Z 00000KT CAVOK 20/19 A3000 FEW100 BECMG=
200706080500 METAR MROC 080500Z 02005KT 9999 FEW030 SCT100 20/18 A3000 LOW ST SW BECMG=
200706080600 METAR MROC NIL=
200706080700 METAR MROC NIL=
200706080800 METAR MROC NIL=
200706080900 METAR MROC NIL=
200706081000 METAR MROC NIL=
200706081100 METAR MROC 081100Z 08006KT CAVOK 21/17 A2993 SCT080 BKN270 BECMG=
200706081200 METAR MROC 081200Z 06011KT CAVOK 21/17 A2994 TRACE CU OVC100 BECMG=
200706081300 METAR MROC 081300Z 11006KT CAVOK 22/18 A2997 RMK BKN120 BECMG=
200706081600 METAR MROC NIL=
200706081635 SPECI MROC 081635Z 10011KT CAVOK 26/18 A2996 RMK TRACE CU BKN120 SCT250=
200706081700 METAR MROC 081700Z 10010KT CAVOK 27/18 A2995 RMK TRACE CU SCT120 SCT250 BECMG=
200706081800 METAR MROC 081800Z 09013KT 9999 FEW030 SCT120 SCT250 27/17 A2994 BECMG=
200706081900 METAR MROC 081900Z 10012KT 9999 FEW030 BKN120 26/18 A2992 BECMG=
200706082000 METAR MROC 082000Z 13006KT 9999 FEW015 SCT030 BKN120 28/18 A2991 RMK RN DST NE E BECMG 23007KT=
200706082100 METAR MROC 082100Z 23009KT 9999 FEW015TCU SCT030 BKN120 24/21 A2992 RMK PCPN DST N NE BECMG 7000 VCSH=
200706082200 METAR MROC 082200Z 23008KT 7000 VCFG FEW003 SCT015 BKN120 23/21 A2993 BECMG 3000 BR=
200706082300 METAR MROC 082300Z 23006KT 3000 BR SCT002 SCT010 BKN140 22/20 A2994 RMK VIS 2KMS TO SW BECMG 1000=
200706090000 METAR MROC 090000Z 23005KT 0700 FG SCT001 BKN004 21/20 A2995 RMK FG BANK MOV FROM SW TO NE BECMG 0300=
200706090100 METAR MROC 090100Z 24002KT 5000 2000SW BR FEW001 SCT003 BKN010 21/20 A2997 RMK CONDICIONES VRBLS BECMG=
200706090200 METAR MROC 090200Z 00000KT 2500 BR SCT001 SCT005 21/20 A2997 FG BANK OVER APCH 07 VIS N 4KMS BECMG 6000 VCFG=
200706090300 METAR MROC 090300Z 26002KT 2000 BR SCT003 BKN010 21/20 A2999 CNDS VRBL BECMG 4000=
200706090400 METAR MROC 090400Z 00000KT 7000 VCFG FEW003 SCT010 BKN025 21/20 A2998 RMK NISIG=
200706090500 METAR MROC 090500Z 00000KT 4000 BR FEW002 SCT010 BKN015 20/19 A2992 BECMG=
200706090600 METAR MROC 090600Z 06006KT CAVOK 19/18 A2994=
200706090700 METAR MROC NIL=
200706090800 METAR MROC 090800Z 09007KT CAVOK 21/15 A2991 BECMG=
200706090900 METAR MROC 090900Z 07007KT CAVOK 20/16 A2991 BECMG=
200706091000 METAR MROC NIL=
200706091100 METAR MROC NIL=
200706091300 METAR MROC NIL=
200706091400 METAR MROC NIL=
200706091500 METAR MROC NIL=
200706091600 METAR MROC 091600Z 26008KT 9999 FEW040 SCT300 27/19 A2995 BECMG=
200706091700 METAR MROC 091700Z 25007KT 9999 SCT040 26/19 A2994 RMK FEWCI BECMG=
200706091800 METAR MROC 091800Z 22008KT 9999 FEW025TCU SCT035 28/21 A2992 BECMG 7000 VCSH=
200706091900 METAR MROC 091900Z 23010KT 9999 VCSH FEW015CB SCT025 BKN300 27/21 A2990 RMK RASH VIS 8KMS TO ENE BECMG 5000 -TSRA=
200706092000 METAR MROC 092000Z 22005KT 9999 4000NE VCSH SCT012CBBKN025 23/18 A2991 BECMG 3000 TSRA=
200706092100 METAR MROC 092100Z 10005KT 6000 2000SW -TS RA FEW012CB SCT025 BKN100 19/18 A2991 BECMG=
200706092200 METAR MROC 092200Z 29003KT 9999 2000SW RA FEW012CB SCT025 OVC100 19/18 A2992 VIS N NE 3000MTS=
200706092300 METAR MROC 092300Z 08003KT 9999 -RA FEW015 SCT030 OVC100 19/18 A2993 BECMG=
200706100000 METAR MROC 100000Z 07002KT 9999 RA FEW030 OVC100 19/18 A2995 BECMG=
200706100100 METAR MROC 100100Z 31002KT 9999 FEW030 OVC100 19/18 A2997 RERA BECMG=
200706100200 METAR MROC 100200Z 00000KT 9999 FEW030 BKN100 19/18 A2998 BECMG=
200706100300 METAR MROC 100300Z 16002KT 9999 FEW020 SCT100 19/18 A2999 RMK DUE ST SW BECMG=
200706100400 METAR MROC 100400Z 02005KT CAVOK 20/18 A2999 RMK SCT120 BECMG=
200706100500 METAR MROC NIL=
200706100600 METAR MROC 100600Z 05006KT CAVOK 19/17 A2995 RMK SCT250 BECMG=
200706100700 METAR MROC 100700Z 05003KT CAVOK 18/17 A2992 RMK BKN250 BECMG=
200706100800 METAR MROC 100800Z 04003KT CAVOK 19/17 A2989 RMK BKN250 BECMG=
200706100900 METAR MROC 100900Z 06004KT CAVOK 18/17 A2988 RMK SCT120 SCT250 BECMG=
200706101000 METAR MROC 101000Z 05004KT CAVOK 18/17 A2990 RMK SCT120 SCT250 BECMG=
200706101100 METAR MROC 101100Z 34002KT CAVOK 18/17 A2991 RMK BKN120 SCT250 BECMG=
200706101200 METAR MROC 101200Z 06006KT CAVOK 18/16 A2992 RMK DUE ST SW TRACE SC BKN120 SCT250=
200706101300 METAR MROC 101300Z 09005KT CAVOK 21/18 A2992 RMK TRCE SC SCT120 BKN250=
200706101400 METAR MROC 101400Z 09004KT CAVOK 24/19 A2993 RMK TRACE SC AC BKN250=
200706101500 METAR MROC 101500Z 00000KT 9999 FEW040 BKN250 27/18 A2993 BECMG=
200706101600 METAR MROC 101600Z 20008KT 9999 SCT040 BKN250 25/20 A2993 BECMG=
200706101700 METAR MROC 101700Z 23011KT 9999 SCT040 BKN250 25/19 A2993 BECMG=
200706101800 METAR MROC 101800Z 22006KT 9999 SCT035 BKN250 24/20 A2992 BECMG=
200706101900 METAR MROC 101900Z 23011KT 9999 FEW015TCU SCT035 BKN250 24/20 A2993 BECMG=
200706102000 METAR MROC 102000Z 23009KT 9999 FEW015TCU SCT030 BKN250 24/20 A2990 BECMG=
200706102100 METAR MROC 102100Z 24010KT 9999 FEW007 SCT015 BKN250 23/20 A2990 RN DST S BECMG=
200706102200 METAR MROC 102200Z 24009KT 5000 BR SCT004 BKN012 21/20 A2990 BECMG=
200706102300 METAR MROC 102300Z 24006KT 5000 BR SCT003 SCT012 BKN120 21/20 A2993 RN N BECMG=
200706110000 METAR MROC 110000Z 24008KT 4000 BR SCT002 BKN008 20/19 A2994 BECMG=
200706110100 METAR MROC 110100Z 24005KT 5000 -RA BR SCT002 BKN006 20/19 A2996 VSBY SW 4KM BECMG=
200706110200 METAR MROC 110200Z 00000KT 6000 VCFG SCT002 SCT010 BKN120 20/19 A2999 VSBY SW 4KM VSBY SE UNL BECMG=
200706110300 METAR MROC 110300Z 00000KT 9999 VCFG FEW003 SCT010 BKN030 20/19 A2999 RMK VIS NW 8KMS BECMG 7000=
200706110400 METAR MROC 110400Z 05005KT 9999 FEW030 SCT130 20/18 A2996 BECMG=
200706110500 METAR MROC 110500Z 08008KT CAVOK 21/17 A2993 RMK TRAZAS SC SCT130=
200706110600 METAR MROC 110600Z 09008KT CAVOK 20/17 A2993 RMK TRAZAS SC SCT250 BECMG=
200706110700 METAR MROC 110700Z 08005KT CAVOK 21/17 A2992 RMK TRAZAS SC SCT250 BECMG=
200706110800 METAR MROC 110800Z 21005KT CAVOK 20/18 A2994 RMK TRACE ST SC SCT250 BECMG 7000 VCFG ST003=
200706110900 METAR MROC 110900Z 29004KT 9999 4000SW BR FEW002 SCT010 19/18 A2993 BECMG 3000=
200706111000 METAR MROC 111000Z 00000KT 9999 4000SW FEW002 SCT010 BKN100 19/18 A2994=
200706111100 METAR MROC 111100Z 08003KT 9999 FEW020 BKN120 19/18 A2994=
200706111200 METAR MROC 111200Z 06005KT CAVOK 19/17 A2995 RMK TRACE SC BKN300 BECMG=
200706111300 METAR MROC 111300Z 09005KT CAVOK 22/17 A2996 SCT280 BECMG=
200706111400 METAR MROC 111400Z 15002KT 9999 24/18 A2997 SCT280 BECMG=
200706111500 METAR MROC 111500Z 22005KT CAVOK 25/18 A2998 SCT300 BECMG 9999 FEW035=
200706111600 METAR MROC 111600Z 24007KT 9999 FEW040 SCT300 26/19 A2997 BECMG=
200706111700 METAR MROC 111700Z 24011KT 9999 SCT030 SCT300 25/20 A2996 BECMG=
200706111800 METAR MROC 111800Z 23011KT 9999 FEW012 SCT025 26/21 A2996 BECMG SCT025TCU=
200706111900 METAR MROC 111900Z 24009KT 9999 SCT020 SCT250 26/21 A2993 BECMG=
200706112000 METAR MROC 112000Z 22008KT 9999 SCT020 SCT300 27/21 A2992 RN NW NE BECMG=
200706112100 METAR MROC 112100Z 25012KT 9999 VCSH FEW010 SCT015TCU BKN250 26/20 A2990 RMK RASH E BECMG 5000 VCSH=
200706112200 METAR MROC 112200Z 22011KT 9999 3000E VCSH SCT010CB SCT020 BKN100 23/20 A2990 RMK RASH E BECMG 3000 RA=
200706112300 METAR MROC 112300Z 20003KT 9999 8000 3000E RA FEW010CB BKN020 21/20 A2991 RMK RASH E NE 8000 W BECMG=
200706120000 METAR MROC 120000Z 33003KT 9999 -TS SCT010CB BKN100 20/19 A2996 BECMG=
200706120100 METAR MROC 120100Z 00000KT 9999 RA SCT020 OVC100 20/19 A2997 BECMG=
200706120200 METAR MROC 120200Z 00000KT 9999 -RA SCT025 OVC100 20/19 A2994 BECMG=
200706120300 METAR MROC 120300Z 10004KT 9999 FEW030 OVC100 20/19 A2996 BECMG=
200706120400 METAR MROC 120400Z 30002KT 9999 FEW030 BKN100 20/19 A2997 BECMG=
200706120500 METAR MROC 120500Z 26004KT 9999 FEW030 BKN100 20/19 A2997 BECMG=
200706120600 METAR MROC 120600Z 11002KT 9999 200SW BR FEW001 BKN110 20/19 A2996 BECMG=
200706120700 METAR MROC 120700Z 34002KT 9999 FEW035 SCT110 BKN250 20/19 A2995 BECMG=
200706120800 METAR MROC 120800Z 02005KT CAVOK 19/18 A2994 SCT120=
200706120900 METAR MROC 120900Z 01004KT CAVOK 19/18 A2991 BECMG=
200706121000 METAR MROC 121000Z 02005KT CAVOK 20/17 A2991=
200706121100 METAR MROC 121100Z 01004KT CAVOK 20/11 A2990 RMK TRACE SC BKN250=
200706121200 METAR MROC 121200Z 06005KT 9999 FEW040 SCT130 19/17 A2992 BECMG=
200706121300 METAR MROC 121300Z 35005KT 9999 FEW035 SCT250 23/18 A2992 BECMG=
200706121400 METAR MROC 121400Z 07012KT 9999 FEW025 25/18 A2993 BECMG=
200706121500 METAR MROC 121500Z 10020G37KT 9999 FEW025 26/18 A2993 BECMG=
200706121600 METAR MROC 121600Z 10015KT 9999 FEW025 28/17 A2993 BECMG=
200706121700 METAR MROC 121700Z 10011KT 9999 SCT030 30/16 A2993 BECMG=
200706121800 METAR MROC 121800Z 25010KT 9999 FEW010 BKN020 25/21 A2993 BECMG=
200706121900 METAR MROC 121900Z 23010KT 9999 FEW010 SCT025 26/21 A2991 RMK GST19KT BECMG=
200706122000 METAR MROC 122000Z 24009KT 9999 RA SCT010TCU BKN020 25/21 A2989 RMK BECMG 6000 RA=
200706122100 METAR MROC 122100Z 22008KT 7000 3000SW -RA BR SCT003 BKN020TCU 24/22 A2989 BECMG 3000 RA=
200706122200 METAR MROC 122200Z 16003KT 6000 2000SW -RA BR FEW001 SCT012 BKN070 21/20 A2990 BECMG=
200706122300 METAR MROC 122300Z 34003KT 9999 FEW015 BKN120 22/20 A2990 BECMG=
200706130000 METAR MROC 130000Z 35004KT 9999 FEW015 SCT120 SCT250 22/20 A2990 BECMG=
200706130100 METAR MROC 130100Z 25004KT 9999 VCFG FEW004 SCT015 SCT120 21/20 A2992 RMK 7000SW VCFG BECMG=
200706130200 METAR MROC 130200Z 30004KT 3000 BR SCT002 SCT006 21/20 A2995 RMK 7000 N E BECMG 1500 BR=
200706130300 METAR MROC 130300Z 00000KT 5000 BR SCT002 BKN270 21/20 A2994 VSBY SW 4KM VSBY N NE 6KM=
200706130400 METAR MROC 130400Z 09004KT 9999 FEW030 BKN270 21/20 A2993 LOW ST SW BECMG=
200706130500 METAR MROC 130500Z 01006KT CAVOK 22/19 A2992 FEW080 BKN270 LTNG DST SE BECMG=
200706130600 METAR MROC 130600Z 00000KT CAVOK 21/18 A2992 BECMG RMK TRAZAS AC LTNG DST S/SW=
200706130700 METAR MROC 130700Z 08002KT CAVOK 21/18 A2991 BECMG RMK LTNG DST S=
200706130800 METAR MROC 130800Z 09003KT CAVOK 20/18 A2989 BKN250 BECMG=
200706130900 METAR MROC 130900Z 01003KT CAVOK 19/17 A2987 BKN270 LTNG S SW FG S BECMG=
200706131000 METAR MROC 131000Z 00000KT CAVOK 19/17 A2987 SCT280 LTNG DST S BECMG=
200706131100 METAR MROC 131100Z 09002KT CAVOK 18/17 A2988 BKN280 BECMG=
200706131200 METAR MROC 131200Z 06003KT CAVOK 19/17 A2989 TRACE CU BKN280 CB DST S SW BECMG=
200706131300 METAR MROC 131300Z 12002KT CAVOK 23/19 A2988 RMK TRACE SC BKN250 CB DST SW=
200706131400 METAR MROC 131400Z 31002KT CAVOK 25/19 A2990 RMK TRACE SC BKN250=
200706131500 METAR MROC 131500Z 23004KT CAVOK 26/19 A2991 RMK TRACE CU BKN250=
200706131600 METAR MROC 131600Z 25008KT 9999 FEW030 BKN250 26/20 A2992 BECMG=
200706131700 METAR MROC 131700Z 22008KT 9999 SCT030 BKN250 26/21 A2992 BECMG=
200706131800 METAR MROC 131800Z 22009KT 9999 FEW020TCU SCT030 27/21 A2990 RMK HZ E BECMG=
200706131900 METAR MROC 131900Z 24009KT 9999 SCT020TCU SCT030 27/21 A2987 BECMG 7000 -TS VCSH=
200706132000 METAR MROC 132000Z 24010KT 9999 VCSH SCT015CB SCT025 26/21 A2985 RMK 7000 E SE BECMG 5000 TS VCSH=
200706132100 METAR MROC 132100Z 24012KT 6000 -TS VCSH FEW004 FEW015CB BKN025 23/22 A2984 RMK VIS E ESE UNLTD BECMG 3000 TSRA=
200706132200 METAR MROC 132200Z 23010KT 4000 BR VCSH SCT004 BKN010 22/21 A2982 RMK TS DST N NNW VIS E 6KMS BEMG 3000 TSRA=
200706132220 METAR MROC 132220Z 23009KT 2000 -RA BR SCT002 BKN008 22/20 A2984 FOG OVER APCH07 BECMG 0500 FG=
200706132300 METAR MROC 132300Z 23009KT 0700 FG BKN001 SCT003 22/21 A2986 RMK FG BANK MOVNG FROM SW TO NE BECMG=
200706140000 METAR MROC 140000Z 26003KT 160V310 0800 +TSRA BKN010CB SCT025TCU 19/18 A2993 RMK VERY STRONG TS OVER STN ACUMULACION DE AGUA EN PISTA BECMG 5000=
200706140100 METAR MROC 140100Z 01003KT 5000 TSRA FEW020CB SCT030 BKN100 19/18 A2998 TS LTNG TO W BECMG 8000=
200706140200 METAR MROC 140200Z 18005KT 4000 1500SE RA BR FEW001 SCT008 BKN100 19/18 A3000 RMK RETS BECMG 0500 VIS N NE 7KMS=
200706140300 METAR MROC 140300Z 00000KT 9999 FEW008 BKN100 19/18 A2995 BECMG=
200706140400 METAR MROC 140400Z 07008KT CAVOK 19/18 A2993 BECMG=
200706140500 METAR MROC 140500Z 08006KT CAVOK 19/17 A2993 RMK BKN100 BECMG=
200706140600 METAR MROC 140600Z 07003KT CAVOK 19/17 A2992 RMK BKN100 BECMG=
200706140700 METAR MROC 140700Z 09004KT CAVOK 18/16 A2987 RMK BKN100 BECMG=
200706140800 METAR MROC 140800Z 07004KT CAVOK 18/16 A2987 RMK BKN100 BECMG=
200706140900 METAR MROC 140900Z 05005KT CAVOK 17/15 A2987 RMK BKN100 BECMG=
200706141000 METAR MROC 141000Z 08003KT CAVOK 17/15 A2990 RMK BKN100 BECMG=
200706141100 METAR MROC 141100Z 08007KT CAVOK 17/15 A2991 RMK TRACE SC CI CB DIST S BECMG=
200706141200 METAR MROC 141200Z 07005KT CAVOK 18/15 A2992 RMK BKN250 BECMG=
200706141300 METAR MROC 141300Z 08005KT CAVOK 20/15 A2992 RMK BKN250 CB DST S BECMG=
200706141400 METAR MROC 141400Z 07005KT CAVOK 24/16 A2993 RMK TRACE SC BKN250 CB DST S BECMG=
200706141500 METAR MROC 141500Z 10003KT CAVOK 27/15 A2994 RMK TRACE SC BKN250 BECMG 24006KT=
200706141600 METAR MROC 141600Z 20003KT CAVOK 28/17 A2993 RMK TRACE CU BKN250 BECMG=
200706141700 METAR MROC 141700Z 24006KT 9999 FEW045 BKN250 28/18 A2993 BECMG=
200706141800 METAR MROC 141800Z 25010KT 9999 FEW045 SCT250 28/18 A2991 BECMG=
200706141900 METAR MROC 141900Z 24010KT 9999 FEW035TCU SCT250 28/19 A2989 RMK TRAZAS AC BECMG=
200706142000 METAR MROC 142000Z 25008KT 9999 FEW020CB SCT030 28/20 A2987 RMK RASH DST E ESE BECMG 6000 RA=
200706142100 METAR MROC 142100Z 23008KT 9999 FEW015CB BKN030 25/21 A2985 BECMG=
200706142200 METAR MROC 142200Z 23010KT 7000 VCFG FEW002 SCT015 BKN030 24/21 A2984=
200706142300 METAR MROC 142300Z 23011KT 3000 -TSRA FEW002 SCT015CB BKN30 22/21 A2987 BECMG=
200706150000 METAR MROC 150000Z 22009KT 6000 200SW RA BR FEW005 SCT030 BKN100 20/19 A2992 BECMG=
200706150100 METAR MROC 150100Z 35005KT 9999 FEW030 BKN100 20/19 A2995 RERA BECMG=
200706150200 METAR MROC 150200Z 30003KT 9999 FEW030 BKN100 20/19 A2998 BECMG=
200706150300 METAR MROC 150300Z 24004KT 9999 4000SW RA SCT015 BKN080 20/19 A3000 BECMG=
200706150400 METAR MROC 150400Z 32004KT 9999 FEW012 SCT080 21/19 A3000 BECMG=
200706150500 METAR MROC 150500Z 12003KT CAVOK 20/19 A2999 RMK SCT120 BECMG=
200706150600 METAR MROC 150600Z 09004KT CAVOK 20/19 A2997 RMK BKN250 BECMG=
200706150700 METAR MROC 150700Z 07006KT CAVOK 20/19 A2993 RMK SCT120 SCT250=
200706150800 METAR MROC 150800Z 05007KT CAVOK 20/18 A2990 RMK FEW120 SCT250 BECMG=
200706150900 METAR MROC 150900Z 08007KT 9999 FEW030 SCT250 20/18 A2989 BECMG=
200706151000 METAR MROC 151000Z 09004KT 9999 FEW030 SCT250 20/17 A2991 BECMG=
200706151100 METAR MROC 151100Z 05004KT CAVOK 20/16 A2992 RMK BKN250 CB DST E BECMG=
200706151200 METAR MROC 151200Z 08006KT CAVOK 20/16 A2993 RMK BKN250 BECMG=
200706151300 METAR MROC 151300Z 06007KT CAVOK 23/18 A2995 RMK BKN250=
200706151400 METAR MROC 151400Z 19004KT CAVOK 25/20 A2997 RMK SCT120 BKN250=
200706151500 METAR MROC 151500Z 25004KT 9999 FEW040 SCT120 BKN250 26/19 A2996 BECMG=
200706151600 METAR MROC 151600Z 24008KT 9999 FEW040 BKN250 26/19 A2996 BECMG=
200706151700 METAR MROC 151700Z 23009KT 9999 SCT035 BKN250 27/20 A2996 BECMG=
200706151800 METAR MROC 151800Z 25006KT 9999 SCT035 BKN250 26/20 A2996 BECMG=
200706151900 METAR MROC 151900Z 22006KT 9999 SCT030 BKN250 26/20 A2994 BECMG=
200706152000 METAR MROC 152000Z 24010KT 9999 SCT030 SCT120 25/21 A2992 RMK FEW250 RN N NE=
200706152100 METAR MROC 152100Z 23008KT 9999 FEW015CB SCT020 BKN250 25/21 A2990 RASH NW NE BECMG=
200706152200 METAR MROC 152200Z 25010KT 9999 BKN010 SCT020 23/21 A2990 VSBY N 6KM DUE LOW ST BECMG=
200706152300 METAR MROC 152300Z 23010KT 9999 4000N SCT006 SCT020 22/21 A2993 VSBYNW N NE 4KM DUE LW ST BECMG=
200706160000 METAR MROC 160000Z 29005KT 5000 TSRA BR BKN010 FEW012CB 22/20 A2995 VSBY SE UNL VSBY N 3KM TS S BECMG=
200706160100 METAR MROC 160100Z 24006KT 9999 FEW010 SCT030 BKN120 21/19 A2997 LTNG DST W BECMG=
200706160200 METAR MROC 160200Z 29005KT 9999 FEW012 SCT025 BKN120 21/19 A2999 RN E BECMG=
200706160300 METAR MROC 160300Z 00000KT 9999 FEW008 SCT030 21/18 A2999 RMK FEW AC BECMG 7000 VCFG=
200706160400 METAR MROC 160400Z 00000KT 9999 FEW010 SCT030 BKN250 19/18 A3001 BECMG 7000 VCFG=
200706160500 METAR MROC 160500Z 35004KT 9999 FEW030 BKN250 20/19 A3000 BECMG 7000=
200706160600 METAR MROC 160600Z 04003KT CAVOK 19/18 A2998 RMK TRAZAS SC SCT250 BECMG=
200706160700 METAR MROC 160700Z 04004KT CAVOK 19/18 A2996 RMK TRAZAS SC SCT250 BECMG=
200706160800 METAR MROC 160800Z 03004KT CAVOK 19/18 A2994 RMK TRAZAS ST SC SCT250=
200706160900 METAR MROC 160900Z 04005KT CAVOK 19/17 A2994 RMK TRAZAS ST SC SCT250 OCNL LTNG DIST S BECMG=
200706161000 METAR MROC 161000Z 00000KT CAVOK 18/17 A2995 RMK SCT250 BECMG=
200706161100 METAR MROC 161100Z 04004KT CAVOK 18/16 A2996 RMK SCT250 BECMG=
200706161200 METAR MROC 161200Z 03004KT CAVOK 19/16 A2998 RMK TRAZAS SC AC BKN300 BECMG=
200706161300 METAR MROC 161300Z 00000KT CAVOK 22/18 A2998 RMK TRAZAS SC SCT250 BECMG=
200706161400 METAR MROC 161400Z 03005KT CAVOK 26/18 A2999 BKN300 TRACE SCT BECMG=
200706161500 METAR MROC 161500Z 10012KT 9999 FEW040 BKN300 26/18 A2999 BECMG=
200706161600 METAR MROC 161600Z 10008KT 9999 FEW040 BKN300 28/17 A3000 BECMG=
200706161700 METAR MROC 161700Z 12007KT 9999 FEW040 BKN300 29/17 A2999 BECMG=
200706161800 METAR MROC 161800Z 24012KT 9999 SCT030 SCT300 27/21 A2997 HZ NW N BECMG=
200706161900 METAR MROC NIL=
200706162000 METAR MROC 162000Z 23011KT 9999 VCSH SCT015CB SCT025 24/21 A2995 VSBY N NE 6KM DUE RASH TCU RN DST S TS DST SE BECMG 6000 -TSRA=
200706162100 METAR MROC 162100Z 24011KT 3000 TSRA SCT006CB BKN015 22/21 A2996 RMK UNL S BECMG 2000 TSRA=
200706162200 METAR MROC 162200Z 33004KT 3000 RA FEW007 SCT015 OVC100 19/18 A2999 BECMG=
200706162300 METAR MROC 162300Z 07003KT 9999 VCFG FEW010 SCT020 OVC100 20/19 A2999 RMK FG DST N E BECMG=
200706170000 METAR MROC 170000Z 11003KT 9999 SCT025 BKN120 20/19 A2998 RMK RN DST N NE E BECMG=
200706170100 METAR MROC 170100Z 07003KT 9999 SCT030 BKN120 20/18 A2999 BECMG=
200706170200 METAR MROC 170200Z 02003KT CAVOK 20/19 A3001 RMK SCT120 BECMG=
200706170300 METAR MROC 170300Z 14002KT CAVOK 19/18 A3003=
200706170400 METAR MROC 170400Z 09002KT CAVOK 19/18 A3002=
200706170500 METAR MROC 170500Z 05008KT CAVOK 19/17 A3002=
200706170600 METAR MROC 170600Z 05006KT CAVOK 19/17 A3000=
200706170700 METAR MROC 170700Z 04003KT CAVOK 20/17 A2998 BECMG=
200706170800 METAR MROC 170800Z VRB03KT CAVOK 19/18 A2998 BECMG=
200706170900 METAR MROC 170900Z 34004KT CAVOK 19/18 A2998 RMK TRACE SC CB DST S=
200706171000 METAR MROC 171000Z 09002KT CAVOK 17/17 A2998 RMK TRACE SC SCT250=
200706171100 METAR MROC 171100Z 04005KT CAVOK 18/17 A2998 RMK TRACE SC BKN250=
200706171200 METAR MROC 171200Z 03006KT CAVOK 19/17 A2999 RMK TRACE SC BKN250 TCU DST S SW=
200706171300 METAR MROC 171300Z 07006KT CAVOK 22/18 A3000 RMK BKN250 TCU DST SW=
200706171400 METAR MROC 171400Z 06004KT CAVOK 25/17 A3000 RMK TRACE TCU DST SW SCT250=
200706171500 METAR MROC 171500Z 10010KT CAVOK 26/17 A2999 RMK TRACE SC SCT250=
200706171600 METAR MROC 171600Z 11011KT 9999 FEW025 SCT250 28/17 A2999 BECMG=
200706171700 METAR MROC 171700Z 09008KT 9999 SCT025 SCT250 28/16 A2998 RMK TCU SW=
200706171800 METAR MROC 171800Z 24011KT 9999 SCT025 SCT250 27/20 A2998 BECMG=
200706171900 METAR MROC 171900Z 24009KT 9999 FEW015TCU SCT025 SCT250 27/21 A2996 RMK TCU DST SW=
200706172000 METAR MROC 172000Z 24011KT 9999 FEW013TCU SCT025 SCT250 26/21 A2994 BECMG=
200706172100 METAR MROC 172100Z 24016KT 9999 VCSH FEW015CB SCT025 25/21 A2993 RMK=
200706172200 METAR MROC 172200Z 23012KT 5000 2000SW -TS VCSH BR FEW002 SCT010CB BKN015 23/21 A2994 BECMG 1500 TSRA=
200706172300 METAR MROC NIL=
200706180000 METAR MROC NIL=
200706180100 METAR MROC NIL=
200706180200 METAR MROC NIL=
200706180300 METAR MROC NIL=
200706180400 METAR MROC NIL=
200706180500 METAR MROC NIL=
200706180600 METAR MROC NIL=
200706180700 METAR MROC NIL=
200706180800 METAR MROC NIL=
200706180900 METAR MROC NIL=
200706181000 METAR MROC NIL=
200706181100 METAR MROC NIL=
200706181200 METAR MROC NIL=
200706181300 METAR MROC 181300Z 09009KT CAVOK 22/18 A2997 RMK TRACE SC AC BKN250 CB DST SSW SW W BECMG=
200706181400 METAR MROC 181400Z 10010KT CAVOK 23/17 A2998 RMK BKN120 SCT250 BECMG=
200706181500 METAR MROC 181500Z 08004KT CAVOK 24/17 A2998 RMK SCT120 BKN250 BECMG=
200706181600 METAR MROC 181600Z 11014KT 9999 FEW035 BKN250 25/17 A2997 RMK FEW120 BECMG=
200706181700 METAR MROC 181700Z 09009KT 9999 FEW030 BKN250 25/18 A2998 RMK FEW120 BECMG=
200706181800 METAR MROC 181800Z 09012KT 9999 SCT030 BKN250 25/17 A2996 RMK RN DST NE=
200706181900 METAR MROC 181900Z 08006KT 9999 FEW030 SCT120 BKN250 26/18 A2994 BECMG=
200706182000 METAR MROC 182000Z 27007KT 9999 FEW030 BKN250 26/19 A2992 RMK FEW120 BECMG=
200706182100 METAR MROC 182100Z 28008KT 9999 SCT030 BKN230 26/19 A2991 RMK LGT HZ ARND BECMG 7000 VCFG=
200706182200 METAR MROC 182200Z 24006KT 9999 SCT030 BKN220 24/21 A2991 RMK TRAZAS ST TO SW BECMG 7000 VCFG=
200706182300 METAR MROC 182300Z 19002KT 9999 FEW030 BKN250 24/18 A2990 RMK TRAZAS ST AL S SW N BECMG=
200706190000 METAR MROC 190000Z 28005KT 9999 4000SW BR FEW030 BKN250 22/21 A2993 RMK FG BANK MOV TO E NEAR APCH RWY07 BECMG 3000=
200706190100 METAR MROC NIL=
200706190200 METAR MROC 190200Z 28002KT 9999 3000W BR FEW001 SCT120 BKN250 21/20 A2996 BECMG 7000 VCFG=
200706190300 METAR MROC 190300Z VRB03KT CAVOK 22/20 A2995 RMK TRACE SC SCT120=
200706190400 METAR MROC 190400Z 08006KT CAVOK 22/18 A2996 TRACE SCT SCT120=
200706190500 METAR MROC 190500Z 09006KT 9999 SCT030 23/17 A2997 BECMG=
200706190600 METAR MROC 190600Z 07009KT 9999 SCT030 23/17 A2995 BECMG=
200706190700 METAR MROC 190700Z 08010KT 9999 FEW030 23/16 A2994 BECMG=
200706190800 METAR MROC 190800Z 10008KT CAVOK 22/17 A2992 RMK TRACE SC BECMG=
200706190900 METAR MROC 190900Z 10008KT CAVOK 22/17 A2992 RMK TRACE SC BECMG=
200706191000 METAR MROC 191000Z 06006KT CAVOK 21/17 A2993 RMK TRACE SC BECMG=
200706191100 METAR MROC 191100Z 04006KT CAVOK 19/16 A2993 RMK TRACE SC BKN250 TCU=
200706191200 METAR MROC 191200Z 05002KT 9999 FEW030 BKN250 21/17 A2995 RMK CB DST SW BECMG=
200706191300 METAR MROC 191300Z 03004KT 9999 FEW040 SCT250 23/17 A2996 RMK CB DST SSW SW BECMG=
200706191400 METAR MROC 191400Z 32004KT 9999 FEW035 SCT270 25/17 A2998 BECMG=
200706191500 METAR MROC 191500Z 07012KT 9999 FEW030 SCT300 27/16 A2999 BECMG=
200706191600 METAR MROC 191600Z 06014KT 9999 SCT035 28/16 A2998 RMK FEW CI BECMG=
200706191700 METAR MROC 191700Z 07011KT 9999 SCT035 28/16 A2998 RMK RFGS 17KT BECMG=
200706191800 METAR MROC 191800Z 09010KT 9999 SCT040 28/16 A2996 BECMG=
200706191900 METAR MROC 191900Z 08005KT 9999 SCT040 30/15 A2993=
200706192000 METAR MROC 192000Z 06013KT 9999 FEW035 30/15 A2992 RMK FEW 300 BECMG=
200706192100 METAR MROC 192100Z 08010KT 9999 FEW035 BKN250 30/15 A2990 BECMG=
200706192200 METAR MROC 192200Z 03009KT 9999 SCT035 BKN250 30/15 A2990=
200706192300 METAR MROC 192300Z 04010KT 9999 SCT035 BKN250 28/15 A2992=
200706200000 METAR MROC 200000Z 12004KT 9999 FEW035 BKN270 25/17 A2993 BECMG=
200706200100 METAR MROC 200100Z 11004KT CAVOK 23/17 A2994 RMK BKN250=
200706200200 METAR MROC NIL=
200706200300 METAR MROC 200300Z 10010KT CAVOK 22/17 A2997 RMK SCT250 BECMG=
200706200400 METAR MROC 200400Z 10012KT CAVOK 22/17 A2997 RMK SCT250 TRACE SC=
200706200500 METAR MROC 200500Z 10014KT CAVOK 22/16 A2997 RMK SCT250 TRACE SC=
200706200600 METAR MROC 200600Z 08011KT CAVOK 22/16 A2995 RMK SCT250 TRACE SC=
200706200700 METAR MROC 200700Z 07015KT CAVOK 22/16 A2993 RMK SCT250 CB/LTNG DST SSE RAFAGAS DE 20KT BECMG=
200706200800 METAR MROC 200800Z 10010KT CAVOK 21/15 A2991 RMK SCT250 CB/LTNG DST S BECMG=
200706200900 METAR MROC 200900Z 09011KT CAVOK 21/16 A2991 RMK SCT250 CB/LTNG DST S BECMG=
200706201000 METAR MROC 201000Z 09010KT 9999 FEW030 SCT250 21/16 A2993 RMK CB/LTNG DST S BECMG=
200706201100 METAR MROC 201100Z 10012KT CAVOK 21/16 A2994 RMK SCT250 CB/LTNG DST S BECMG=
200706201200 METAR MROC 201200Z 11011KT CAVOK 21/16 A2995 RMK BKN250 BECMG=
200706201300 METAR MROC 201300Z 11012KT CAVOK 23/16 A2996 RMK BKN250 TRACE SC=
200706201400 METAR MROC 201400Z 09007KT 9999 FEW040 SCT130 BKN250 25/17 A2997 BECMG=
200706201500 METAR MROC 201500Z 10012KT 9999 FEW045 BKN250 25/17 A2995 BECMG=
200706201600 METAR MROC 201600Z 10015KT 9999 FEW045 SCT120 BKN250 26/17 A2995 BECMG=
200706201700 METAR MROC 201700Z 10014KT 9999 FEW045 SCT120 BKN250 27/16 A2996 BECMG=
200706201800 METAR MROC 201800Z 10011KT 9999 FEW035 SCT120 BKN250 28/17 A2997 BECMG=
200706201900 METAR MROC 201900Z 11010KT 9999 SCT035 SCT120 BKN250 28/17 A2994 BECMG=
200706202000 METAR MROC 202000Z 16003KT SCT035 SCT120 28/17 A2993 RMK FEW250=
200706202100 METAR MROC 202100Z 27007KT 9999 FEW020 SCT030 BKN260 25/21 A2993 RN ARND BECMG=
200706202200 METAR MROC 202200Z 08012KT 5000 RA SCT015 BKN025 20/19 A2997 VSBY NE UNL VSBY SW W NW 4KM BECMG 9999=
200706202300 METAR MROC 202300Z 11010KT 9999 -RA OVC120 20/17 A2995 TRAZAS DE CU BECMG=
200706210000 METAR MROC 210000Z 34003KT 9999 -RA BKN090 SCT120 21/17 A2997 BECMG=
200706210100 METAR MROC 210100Z 35004KT CAVOK 21/18 A2997 BKN120 SCT260 BECMG=
200706210200 METAR MROC 210200Z 14002KT CAVOK 19/18 A2999 BKN120 SCT260 BECMG=
200706210300 METAR MROC 210300Z 06005KT CAVOK 20/18 A3002 RMK BKN120 SCT250 BECMG=
200706210400 METAR MROC 210400Z 02005KT CAVOK 20/18 A3001 RMK BKN120 SCT250 BECMG=
200706210500 METAR MROC 210500Z 06003KT CAVOK 19/17 A2999 RMK BKN120 SCT250 BECMG=
200706210600 METAR MROC 210600Z 05008KT CAVOK 20/16 A2997 RMK BKN120 SCT250 LTNG DST S BECMG=
200706210700 METAR MROC 210700Z 20003KT CAVOK 20/16 A2997 RMK BKN120 SCT250 OCNL=
200706210800 METAR MROC 210800Z 29003KT CAVOK 20/17 A2997 RMK BKN120 SCT250 BECMG=
200706210900 METAR MROC 210900Z 13002KT 9999 -RA OVC120 19/17 A2997 BECMG=
200706211000 METAR MROC 211000Z 04003KT 9999 -DZ OVC120 20/17 A2996 BECMG=
200706211100 METAR MROC 211100Z 06004KT CAVOK 19/17 A2997 RMK BKN120 REDZ BECMG=
200706211200 METAR MROC 211200Z 00000KT CAVOK 20/17 A2998 RMK TRAZAS SC BKN120 BECMG=
200706211300 METAR MROC 211300Z 00000KT CAVOK 21/17 A3001 BKN090 TRAZAS DE CU CB DST S BECMG=
200706211400 METAR MROC 211400Z 00000KT CAVOK 23/17 A3002 SCT090 SCT260 TRAZAS DE CU BECMG=
200706211500 METAR MROC 211500Z 10004KT CAVOK 25/16 A2998 SCT100 SCT260 TRAZAS DE CU BECMG=
200706211600 METAR MROC 211600Z 00000KT 9999 FEW030 BKN100 28/17 A2998 VECMG 24010KT=
200706211700 METAR MROC 211700Z 24006KT 9999 FEW030 BKN120 27/18 A2997 BECMG=
200706211800 METAR MROC 211800Z 23007KT 9999 FEW030 BKN120 28/19 A2996 BECMG=
200706211900 METAR MROC 211900Z 23009KT 9999 SCT030 SCT120 27/19 A2994 BECMG=
200706212000 METAR MROC 212000Z 23011KT 9999 SCT020TCU SCT120 27/21 A2991 BECMG=
200706212100 METAR MROC 212100Z 12006KT 0500 TSRA SCT007CB BKN020 21/21 A2991 BECMG=
200706212200 METAR MROC 212200Z 16004KT 9999 4000W -TSRA FEW007CB SCT020 OVC100 19/18 A2995 RMK BECMG UNL=
200706212300 METAR MROC 212300Z 07004KT 9999 -RA FEW007 SCT015 OVC100 20/19 A2997 RMK 8000E DUE VCSH BECMG=
200706220000 METAR MROC 220000Z 31002KT 8000 VCFG FEW005 SCT025 BKN100 20/19 A2998 BECMG=
200706220100 METAR MROC 220100Z 02003KT 9999 SCT025 BKN100 21/19 A2999 BECMG=
200706220200 METAR MROC 220200Z 07004KT CAVOK 20/19 A2999 RMK BKN100 BECMG=
200706220300 METAR MROC 220300Z 05005KT CAVOK 22/18 A2999 BKN120=
200706220400 METAR MROC 220400Z 36006KT CAVOK 22/18 A2999 RMK BKN120=
200706220500 METAR MROC 220500Z 03007KT CAVOK 22/17 A2999 RMK BKN120=
200706220600 METAR MROC 220600Z 06005KT CAVOK 22/17 A2998 RMK SCT120 BKN250=
200706220700 METAR MROC 220700Z 09007KT CAVOK 22/17 A2996 BECMG=
200706220800 METAR MROC 220800Z 27005KT CAVOK 20/17 A2995=
200706220900 METAR MROC 220900Z 32005KT 9999 SCT008 SCT120 20/18 A2997=
200706221000 METAR MROC 221000Z 12002KT 9999 SCT008 SCT120 20/18 A2997=
200706221100 METAR MROC 221100Z 00000KT 9999 SCT008 SCT120 20/18 A2997=
200706221200 METAR MROC 221200Z 21004KT 9999 FEW030 BKN090 24/22 A2988 RMK RN DIST E, TRACE CI=
200706221300 METAR MROC 221300Z 26005KT CAVOK 22/18 A2999 RMK TRACE SC SCT250=
200706221400 METAR MROC 221400Z 31003KT 9999 FEW035 SCT035 25/18 A2999=
200706221500 METAR MROC 221500Z 11012KT 9999 FEW030 SCT250 26/18 A2998 BECMG=
200706221600 METAR MROC 221600Z 09008KT 9999 FEW035 SCT250 27/18 A2998 BECMG=
200706221700 METAR MROC 221700Z 23011KT 9999 SCT030 SCT250 26/21 A2997 BECMG=
200706221800 METAR MROC 221800Z 24010KT 9999 SCT025 BKN250 27/20 A2997 BECMG=
200706221900 METAR MROC 221900Z 23008KT 9999 BKN015TCU 26/21 A2995 RMK BECMG 5000=
200706222000 METAR MROC 222000Z 23009KT 9999 VCSH SCT010 BKN015TCU 25/22 A2994 RMK RASH DST N NE BECMG 3000 RA=
200706222100 METAR MROC 222100Z 23008KT 9999 VCSH FEW008CB SCT015 SCT025 24/21 A2992 RMK 7000 NE BECMG 5000 -RA BR=
200706222200 METAR MROC 222200Z 23009KT 7000 3000SW VCSH BR SCT003 FEW008CB SCT015 23/21 A2992 RMK 3000NW BECMG=
200706222210 METAR MROC 222210Z 28008KT 9999 4000S -RA FEW015TCU BKN025 28/25 A2988=
200706222300 METAR MROC 222300Z 23008KT 0200 FG VV/// 21/21 A2993 BECMG=
200706230000 METAR MROC 230000Z 23007KT 0200 FG DZ VV/// 21/20 A2994 BECMG=
200706230100 METAR MROC 230100Z 25008KT 7000 3000SW -TSDZ SCT004 FEW010CB SCT090 21/20 A2997 BECMG -TSRA=
200706230200 METAR MROC 230200Z 26004KT 5000 2000SW -RA BR BKN005 SCT090 21/20 A3000 BECMG=
200706230300 METAR MROC 230300Z 26002KT 5000 -RA BR FEW001 BKN006 21/20 A3001 VSBY SE E 7KM VSBY SW 3KM DUE LOW ST BECMG 7000=
200706230400 METAR MROC 230400Z 00000KT 5000 -DZ BR FEW002 SCT006 BKN100 21/20 A3001 VSBY SW 4KM VSBY E 7KM BECMG=
200706230500 METAR MROC 230500Z 08002KT 6000 VCFG SCT008 BKN030 21/20 A2999 VSBY E SE UNL BECMG=
200706230600 METAR MROC 230600Z 06005KT CAVOK 20/19 A2996 BECMG=
200706230700 METAR MROC 230700Z 13003KT 9999 FEW008 SCT025 20/19 A2995 BECMG=
200706230800 METAR MROC 230800Z 00000KT 0200 FG VV/// 20/19 A2995 BECMG=
200706230900 METAR MROC 230900Z 02004KT 5000 BR FEW002 19/19 A2993 VSBY N NE E 7KM VSBY SW 4KM BECMG 6000=
200706231000 METAR MROC 231000Z 07003KT 9999 4000SW BR FEW002 19/18 A2993 BECMG=
200706231100 METAR MROC 231100Z 34002KT CAVOK 19/17 A2994 FEW130 SCT260 CB DST NE BECMG=
200706231200 METAR MROC 231200Z 05002KT CAVOK 18/17 A2994 FEW130 BKN260 TRAZAS DE CU BECMG=
200706231300 METAR MROC 231300Z 12005KT CAVOK 20/18 A2996 RMKTRACE SCT SCT250 BECMG=
200706231400 METAR MROC 231400Z 08004KT CAVOK 24/19 A2996 RMK TRACE AC SCT250 BECMG=
200706231500 METAR MROC 231500Z VRB03KT CAVOK 26/19 A2996 RMK FEW120 SCT250 BECMG=
200706231600 METAR MROC 231600Z 23005KT 9999 FEW035 BKN120 26/21 A2997 RMK HZ W BECMG=
200706231700 METAR MROC 231700Z 23007KT 9999 SCT025 BKN120 26/20 A2996 RMK LEVE HZ ARND BECMG=
200706231800 METAR MROC 231800Z 26006KT 8000 3000NE VCSH BR SCT020 BKN100 26/19 A2995 BECMG 5000 -RA BR=
200706231900 METAR MROC 231900Z 28005KT 7000 VCFG SCT020TCU BKN100 26/21 A2993 RMK 5000SW BR BECMG=
200706232000 METAR MROC 232000Z 24006KT 9999 VCFG SCT020TCU BKN100 26/21 A2990 RMK 7000 SW NE=
200706232100 METAR MROC 232100Z 24009KT 7000 VCSH SCT012TCU BKN020 24/22 A2990 BECMG 3000 RA BR=
200706232200 METAR MROC 232200Z 23008KT 5000 BR VCSH FEW003 SCT008 BKN020 24/21 A2991 RMK VIS SW 4KMS BECMG 2000 EA BR=
200706232300 METAR MROC 232300Z 24008KT 2000 BR FEW002 BKN005 22/21 A2991 BECMG 0500 FG=
200706240000 METAR MROC 240000Z 24007KT 2500 -RA BR FEW001 BKN004 22/21 A2993 BECMG 0500 DZ FG=
200706240100 METAR MROC 240100Z 34002KT 7000 VCFG FEW002 SCT006 BKN100 22/21 A2994 RMK VIS NE E SE UNLTD BECMG 4000 BR=
200706240200 METAR MROC 240200Z 28004KT 9999 4000N BR FEW002 SCT008 BKN120 22/21 A2995 BECMG 5000=
200706240300 METAR MROC 240300Z 00000KT 6000 VCFG FEW004 SCT015 BKN100 21/21 A2997 BECMG=
200706240400 METAR MROC 240400Z 34005KT 7000 VCFG FEW005 SCT020 BKN110 21/20 A2997 BECMG=
200706240500 METAR MROC 240500Z 01005KT 7000 VCFG FEW005 SCT020 21/20 A2995 BECMG=
200706240600 METAR MROC 240600Z 03003KT 9999 SCT025 21/19 A2995 BECMG=
200706240700 METAR MROC 240700Z 03006KT 8000 VCFG FEW005 SCT025 21/19 A2991 BECMG=
200706240800 METAR MROC 240800Z 05006KT 8000 VCFG FEW005 SCT025 21/18 A2990 BECMG=
200706240900 METAR MROC 240900Z 06004KT 9999 FEW030 21/18 A2990 BECMG=
200706241000 METAR MROC 241000Z 03008KT CAVOK 20/18 A2990 RMK LTNG DIST SW TRACE SC BKN250 BECMG=
200706241100 METAR MROC 241100Z 07005KT 9999 FEW035 BKN250 21/17 A2990 RMK TRACE AC CB DIST SW BECMG=
200706241200 METAR MROC 241200Z 11008KT 9999 FEW035 BKN250 22/18 A2990 BECMG=
200706241300 METAR MROC 241300Z 03005KT 9999 FEW030 BKN250 22/18 A2992 BECMG=
200706241400 METAR MROC 241400Z 11009KT 9999 FEW035 BKN250 25/18 A2994 BECMG=
200706241500 METAR MROC 241500Z 34003KT 9999 SCT035 BKN250 26/19 A2996 RMK PCPN DST ENE BECMG=
200706241600 METAR MROC 241600Z 26007KT 9999 SCT030 BKN250 26/20 A2996 BECMG=
200706241700 METAR MROC 241700Z 25005KT 9999 SCT030 BKN250 27/20 A2995 BECMG=
200706241800 METAR MROC 241800Z 28005KT 9999 FEW025TCU SCT035 26/20 A2994 BECMG 7000 -TS VCSH SCT015CB BKN025=
200706241900 METAR MROC 241900Z 24007KT 9999 FEW020TCU SCT035 27/20 A2991 RMK PCPN DST ENE BECMG 7000 RA=
200706242000 METAR MROC 242000Z 22006KT 9999 SCT017TCU SCT035 26/20 A2990 BECMG 7000 RA=
200706242100 METAR MROC 242100Z 24008KT 9999 SCT015TCU SCT035 24/22 A2990 BECMG=
200706242200 METAR MROC 242200Z 20002KT 9999 FEW015TCU SCT035 BKN100 23/20 A2990 BECMG=
200706242300 METAR MROC 242300Z 27006KT 9999 3000SW BR FEW001 SCT035 BKN100 23/21 A2991 BECMG=
200706250000 METAR MROC 250000Z 29004KT 9999 3000SW BR FEW001 SCT035 SCT100 22/21 A2994 RMK VIS N NE 4000MTS DUE LOW ST FEW250=
200706250100 METAR MROC 250100Z 30003KT 9999 3000SW BR FEW001 SCT030 SCT100 22/20 A2997 RMK FEW250=
200706250200 METAR MROC 250200Z 36002KT 9999 FEW035 SCT250 22/20 A2997 BECMG CAVOK=
200706250300 METAR MROC 250300Z 11011KT 9999 DZ FEW035 BKN100 22/18 A2998 RMK LTNG NNE NE BECMG=
200706250400 METAR MROC 250400Z 04005KT CAVOK 22/19 A2999 RMK TRACE SC BKN120 BECMG=
200706250500 METAR MROC 250500Z 06006KT CAVOK 21/18 A2998 RMK TRACE SC BKN120 LTNG NE E BECMG=
200706250600 METAR MROC 250600Z 09009KT CAVOK 22/18 A2996 RMK TRACE SC SCT120 BKN250=
200706250700 METAR MROC 250700Z 09007KT CAVOK 22/18 A2993 RMK SCT120 BKN250 BECMG=
200706250800 METAR MROC 250800Z 33004KT CAVOK 20/18 A2992 RMK SCT120 BKN250 BECMG=
200706250900 METAR MROC 250900Z 09005KT 9999 FEW030 BKN250 21/18 A2993 BECMG=
200706251000 METAR MROC 251000Z 09010KT 9999 FEW030 SCT120 BKN250 22/18 A2990 BECMG=
200706251100 METAR MROC 251100Z 10009KT 9999 FEW030 SCT100 22/17 A2991 RMK SCT250 DZ DST NE/E BECMG=
200706251200 METAR MROC 251200Z 09011KT 9999 SCT030 BKN100 22/18 A2993 RMK RN DST NE E BECMG=
200706251300 METAR MROC 251300Z 11012KT 9999 FEW030 SCT100 BKN250 23/17 A2994 RMK CB DST S=
200706251400 METAR MROC 251400Z 10008KT 9999 SCT030 BKN100 23/18 A2997 RMK FEW250 DZ DST SE S N=
200706251500 METAR MROC 251500Z 09007KT 9999 -DZ SCT030 BKN100 22/18 A2999 BECMG=
200706251600 METAR MROC 251600Z 10009KT 9999 -RA FEW030 OVC100 22/19 A3001 BECMG=
200706251700 METAR MROC 251700Z 10009KT 9999 FEW030 OVC100 24/19 A2999 RERA RMK FEW250=
200706251800 METAR MROC 251800Z 09011KT 9999 FEW030 SCT110 BKN250 27/18 A2997 BECMG=
200706251900 METAR MROC 251900Z 04012KT 9999 SCT030 SCT110 BKN250 27/17 A2996 BECMG=
200706252000 METAR MROC 252000Z 09011KT 9999 SCT025 BKN250 27/15 A2995 RMK FEW110=
200706252100 METAR MROC 252100Z 06011KT 9999 FEW040 BKN130 SCT250 26/15 A2994 BECMG=
200706252200 METAR MROC 252200Z 09007KT 9999 -RA FEW040 BKN120 24/17 A2994 BECMG=
200706252300 METAR MROC NIL=
200706260000 METAR MROC NIL=
200706260100 METAR MROC NIL=
200706260200 METAR MROC 260200Z 10017KT CAVOK 23/16 A2998 TRAZAS CU BKN100 BECMG=
200706260300 METAR MROC NIL=
200706260400 METAR MROC 260400Z 09013KT CAVOK 22/17 A2997 BECMG=
200706260500 METAR MROC NIL=
200706260600 METAR MROC 260600Z 09016KT CAVOK 23/17 A2994 BECMG=
200706260700 METAR MROC NIL=
200706260800 METAR MROC NIL=
200706260900 METAR MROC NIL=
200706261000 METAR MROC NIL=
200706261100 METAR MROC NIL=
200706261200 METAR MROC NIL=
200706261300 METAR MROC NIL=
200706261400 METAR MROC 261400Z 09011KT 9999 FEW030 SCT080 25/17 A3002 SCT250 DZ NE NSIG=
200706261500 METAR MROC 261500Z 07014KT FEW030 SCT250 27/16 A3002 BECMG=
200706261600 METAR MROC 261600Z 08014KT 9999 FEW030 BKN270 28/17 A3001 DZ NE BECMG=
200706261700 METAR MROC 261700Z 08015KT 9999 FEW030 BKN090 27/16 A3001 BECMG=
200706261800 METAR MROC 261800Z 07011KT 9999 FEW030 BKN090 27/17 A3000 BECMG=
200706261900 METAR MROC 261900Z 09009KT 9999 FEW030 BKN100 SCT250 29/18 A2998 BECMG=
200706262000 METAR MROC 262000Z 10008KT 9999 FEW030 BKN240 28/17 A2996 BECMG=
200706262100 METAR MROC 262100Z 13005KT 9999 SCT030 BKN250 27/18 A2995 BECMG=
200706262200 METAR MROC 262200Z 04007KT 9999 FEW025 SCT100 BKN250 25/21 A2994 BECMG=
200706262300 METAR MROC 262300Z 02003KT 9999 FEW025 BKN250 25/19 A2995 BECMG=
200706270000 METAR MROC 270000Z 10009KT 9999 FEW030 BKN250 23/17 A2996 BECMG=
200706270100 METAR MROC 270100Z 10008KT 9999 FEW030 SCT250 23/17 A2996 BECMG=
200706270200 METAR MROC 270200Z 11008KT CAVOK 23/18 A2996 RMK TRACE SC SCT250 BECMG=
200706270300 METAR MROC 270300Z 11008KT CAVOK 23/18 A2998 RMK TRACE SC SCT250=
200706270400 METAR MROC 270400Z 06004KT CAVOK 22/17 A2999 BECMG=
200706270500 METAR MROC 270500Z 07005KT CAVOK 22/17 A2998 BECMG=
200706270600 METAR MROC 270600Z 09009KT CAVOK 22/17 A2995 RMK TRACE SC BECMG=
200706270700 METAR MROC 270700Z 09008KT CAVOK 23/17 A2992 RMK TRACE SC BECMG=
200706270800 METAR MROC 270800Z 08011KT CAVOK 23/16 A2990 RMK TRACE SC BECMG=
200706270900 METAR MROC 270900Z 10010KT CAVOK 23/16 A2988 RMK TRACE SC BECMG=
200706271000 METAR MROC 271000Z 09012KT CAVOK 23/15 A2987 RMK TRACE SC BECMG=
200706271100 METAR MROC 271100Z 09012KT CAVOK 22/16 A2987 RMK TRACE SC SCT070 BECMG=
200706271200 METAR MROC 271200Z 10011KT 9999 FEW045 SCT070 BKN250 22/16 A2992 BECMG=
200706271300 METAR MROC 271300Z 01009KT CAVOK 23/16 A2995 RMK TRACE SC SCT250 CB DST SW=
200706271400 METAR MROC 271400Z 10011KT CAVOK 25/17 A2993 RMK TRACE SC SCT100 BKN250 RASH DST S=
200706271500 METAR MROC 271500Z 11010KT 9999 FEW040 BKN250 25/17 A2996 BECMG=
200706271600 METAR MROC 271600Z 22004KT 9999 SCT025 BKN250 23/19 A2997 BECMG=
200706271700 METAR MROC 271700Z 25009KT 9999 FEW030 SCT080 BKN240 24/20 A2997 BECMG=
200706271800 METAR MROC 271800Z 24007KT 9999 VCSH FEW010TCU SCT020 BKN130 24/20 A2998 RMK RN DST N NE BECMG 5000 VCSH=
200706271900 METAR MROC 271900Z 27007KT 9999 SCT015 BKN130 25/20 A2995 BECMG=
200706272000 METAR MROC NIL=
200706272100 METAR MROC NIL=
200706272200 METAR MROC 272200Z 06006KT 9999 FEW025 SCT120 BKN250 24/20 A2987 RMK RN DST NE E BECMG=
200706272300 METAR MROC 272300Z 23008KT 9999 3000SW BR SCT003 SCT120 24/21 A2988 RMK FEW025 FEW250 RN DST NE E BECMG=
200706280000 METAR MROC 280000Z 24003KT 9999 4500SW BR FEW003 SCT030 BKN250 22/21 A2990 RMK CB DST NE RN DST NE E BECMG=
200706280100 METAR MROC 280100Z 07002KT 9999 FEW005 SCT025 SCT100 22/21 A2993 RMK FEW250 7000SW=
200706280200 METAR MROC 280200Z 09007KT 9999 FEW025 SCT120 23/18 A2994 BECMG=
200706280300 METAR MROC 280300Z 10009KT CAVOK 23/18 A2994 BKN100 LTNG DST N BECMG=
200706280400 METAR MROC 280400Z 10013KT CAVOK 23/17 A2996 SCT100 TRAZAS DE CU BECMG=
200706280500 METAR MROC 280500Z 11007KT CAVOK 22/17 A2996 TRAZAS DE CU BECMG=
200706280600 METAR MROC 280600Z 28002KT CAVOK 21/18 A2995 RMK SCT250 BECMG=
200706280700 METAR MROC 280700Z 33005KT 9999 3000SW VCFG FEW001 SCT130 20/19 A2994 VSBY S SW 3KM DUE FG BECMG=
200706280800 METAR MROC 280800Z 26003KT 9999 3000S VCFG FEW001 SCT100 19/19 A2993 VSBY S/SW 3KM DUE FG BECMG=
200706280900 METAR MROC 280900Z 01003KT 9999 FEW001 SCT120 19/18 A2992 VSBY S 5KM DUE FG BECMG=
200706281000 METAR MROC 281000Z 00000KT CAVOK 18/17 A2993 FG S SCT120 BECMG/=
200706281100 METAR MROC 281100Z 05004KT CAVOK 18/17 A2994 FEW120 BECMG=
200706281200 METAR MROC 281200Z 02005KT CAVOK 19/17 A2996 TRAZAS DE CU SCT260 CB DST SE/N BECMG=
200706281300 METAR MROC 281300Z 06008KT CAVOK 22/17 A2996 RMK TRACE SC SCT250 BECMG=
200706281400 METAR MROC 281400Z 02007KT CAVOK 25/17 A2997 RMK TRACE SC BKN250 BECMG=
200706281500 METAR MROC 281500Z 08005KT CAVOK 26/17 A2996 RMK TRACE SC BKN250 BECMG=
200706281600 METAR MROC 281600Z 09006KT 9999 FEW035 SCT250 28/17 A2995 BECMG=
200706281700 METAR MROC 281700Z 24008KT 9999 FEW030 SCT120 27/19 A2994 RMK FEW250=
200706281800 METAR MROC 281800Z 24009KT 9999 FEW010TCU SCT025 BKN250 28/19 A2992 BECMG=
200706281900 METAR MROC 281900Z 24012KT 9999 VCSH FEW010CB SCT020TCU 26/20 A2991 RMK RN DST S SW BECMG 5000 -TSRA=
200706282000 METAR MROC 282000Z 22013KT 5000 2000SW -TSRA BR FEW001 SCT008CB BKN012 23/21 A2992 BECMG 1500 +TSSHRA=
200706282100 METAR MROC 282100Z 35006KT 9999 FEW015CB SCT025 BKN100 21/18 A2992 RMK RETSRA BECMG=
200706282200 METAR MROC 282200Z 11004KT 9999 SCT030 BKN100 21/20 A2993 BECMG=
200706282300 METAR MROC 282300Z 07004KT 9999 SCT030 BKN100 22/19 A2994 RMK TRACE OF LOW ST TO SSW LGT HZ ARND BECMG=
200706290000 METAR MROC 290000Z 11003KT 9999 DZ FEW035 SCT080 BKN120 22/20 A2997 BECMG=
200706290100 METAR MROC 290100Z 06005KT 9999 -RA FEW035 BKN080 22/20 A2997 BECMG=
200706290200 METAR MROC 290200Z 09006KT CAVOK 21/18 A2998 RMK RERA TRACE SC BKN120 BECMG=
200706290300 METAR MROC 290300Z 33003KT CAVOK 22/19 A3000 BECMG=
200706290400 METAR MROC 290400Z 06003KT CAVOK 21/18 A3000 BECMG=
200706290500 METAR MROC 290500Z 05004KT CAVOK 22/17 A3000 RMK BECMG=
200706290600 METAR MROC 290600Z 05005KT CAVOK 21/18 A2998 BECMG=
200706290700 METAR MROC 290700Z 08006KT CAVOK 22/18 A2996 RNK TRECE SCT SCT 250=
200706290800 METAR MROC 290800Z 05005KT CAVOK 22/18 A2995 BECMG=
200706290900 METAR MROC 290900Z 00000KT CAVOK 20/18 A2995 TRACE SCT SCT120 BKN250=
200706291000 METAR MROC 291000Z 03003KT CAVOK 20/17 A2995 TRACE SCT AC SCT250 LTNG=
200706291100 METAR MROC 291100Z 31003KT 9999 FEW030 BKN250 19/18 A2996 RMK LTNG DST S=
200706291200 METAR MROC 291200Z 11004KT 9999 SCT035 BKN250 19/17 A2997 BECMG=
200706291300 METAR MROC 291300Z VRB03KT CAVOK 20/19 A3002 RMK TRACE SC SCT120 BKN250 CB DST SE S BECMG=
200706291400 METAR MROC 291400Z 00000KT CAVOK 24/19 A3003 RMK TRACE SC SCT120 BKN250 CB DST SE S BECMG=
200706291500 METAR MROC 291500Z 15003KT 9999 FEW030 SCT120 BKN250 25/19 A3002 BECMG=
200706291600 METAR MROC 291600Z 00000KT 9999 FEW030 SCT140 BKN230 27/19 A3001 BECMG 24006KT=
200706291700 METAR MROC 291700Z 22008KT 9999 FEW025 SCT120 BKN220 24/21 A3001=
200706291800 METAR MROC 291800Z 27006KT 9999 SCT030 SCT045 BKN220 25/20 A3001 RMK PCPN DST E CB DST NE E BECMG=
200706291900 METAR MROC 291900Z 09006KT 9999 FEW030 SCT100 BKN220 26/19 A2998 RMK RN DST NE E BECMG=
200706292000 METAR MROC 292000Z 10013KT 9999 FEW040 SCT100 BKN180 24/17 A2995 RMK RN DST NE E BECMG=
200706292100 METAR MROC 292100Z 10014KT 9999 FEW040 SCT110 BKN200 24/16 A2994 BECMG=
200706292200 METAR MROC 292200Z 11012KT 9999 FEW040 SCT110 BKN250 24/17 A2996 BECMG=
200706292300 METAR MROC 292300Z 11008KT CAVOK 23/17 A2996 BECMG=
200706300000 METAR MROC 300000Z 22003KT 9999 FEW030 OVC250 23/16 A2997 BECMG=
200706300100 METAR MROC 300100Z 26005KT 9999 FEW003 OVC250 22/21 A3000=
200706300200 METAR MROC 300200Z 30004KT 9999 2000SW BR FEW001 SCT005 OVC250 22/20 A3003 BECMG=
200706300300 METAR MROC 300300Z 29002KT 9999 FEW006 SCT015 22/19 A3005 RMK SCT250 BECMG=
200706300400 METAR MROC 300400Z 00000KT 9999 SCT015 BKN120 21/19 A3005 RERA BECMG=
200706300500 METAR MROC 300500Z 04003KT 9999 SCT025 BKN100 20/19 A3005 BECMG=
200706300600 METAR MROC 300600Z 07005KT 9999 FEW035 BKN120 20/18 A3004 BECMG=
200706300700 METAR MROC 300700Z 10003KT 9999 FEW030 BKN120 20/17 A3000 BECMG=
200706300800 METAR MROC 300800Z 04005KT 9999 FEW030 BKN120 21/17 A2999 BECMG=
200706300900 METAR MROC 300900Z 09004KT 9999 FEW030 BKN110 20/17 A2997 BECMG=
200706301000 METAR MROC 301000Z 09005KT 9999 FEW030 BKN110 20/17 A2997 BECMG=
200706301100 METAR MROC 301100Z 10011KT CAVOK 21/16 A2997 RMK BKN120 BECMG=
200706301200 METAR MROC 301200Z 10009KT 9999 FEW025 BKN120 21/17 A2999 RMK FEW250 RN DST NE E BECMG=
200706301300 METAR MROC NIL=
200706301400 METAR MROC 301400Z 11011KT 9999 FEW025 BKN120 23/18 A3003 BECMG=
200706301500 METAR MROC 301500Z 11009KT 9999 FEW025 SCT120 BKN250 25/18 A3005 BECMG=
200706301600 METAR MROC 301600Z 10006KT 9999 FEW025 SCT120 BKN250 27/18 A3002 BECMG=
200706301700 METAR MROC 301700Z 09007KT 9999 FEW030 SCT120 BKN250 28/18 A3000 BECMG=
200706301800 METAR MROC 301800Z 12009KT 9999 SCT030 BKN250 27/18 A2999 BECMG=
200706301900 METAR MROC 301900Z 24012KT 9999 SCT030 BKN250 26/21 A3000 BECMG 7000=
200706302000 METAR MROC 302000Z 24010KT 9999 SCT030 BKN250 25/21 A2998 BECMG 7000=
200706302100 METAR MROC 302100Z 23005KT 9999 4000NE -RA SCT015 SCT025 23/21 A2997 BECMG=
200706302200 METAR MROC 302200Z 23004KT 9999 FEW012 SCT030 BKN130 24/21 A2996 RERA VSBY N 6KM DUE LOS ST BECMG=
200706302300 METAR MROC 302300Z 24007KT 9999 BKN012 SCT025 23/21 A2997 VSBY N 6KM DUE LOW ST BECMG=
200707010000 METAR MROC 010000Z 23005KT 5000 BR FEW002 BKN008 23/21 A2998 VSBY N 3KM VSBY S 7KM BECMG=
200707010100 METAR MROC 010100Z 23005KT 9999 FEW008 BKN035 22/20 A3001 VSBY NW N 6KM DUE LOW ST BECMG=
200707010200 METAR MROC 010200Z 00000KT 9999 FEW010 BKN035 22/20 A3002 BECMG=
200707010300 METAR MROC 010300Z 00000KT 9999 VCFG FEW010 SCT025 BKN120 21/20 A3003 RMK VIS NW N 7KMS BECMG=
200707010400 METAR MROC 010400Z 03004KT 9999 FEW010 SCT025 BKN120 22/20 A3003 RMK HZY BECMG=
200707010500 METAR MROC 010500Z 08003KT 9999 FEW025 BKN120 22/19 A3003 BECMG=
200707010600 METAR MROC 010600Z 08006KT CAVOK 23/18 A3002 RMK TRAZAS SC BKN120 BECMG=
200707010700 METAR MROC 010700Z 11004KT CAVOK 22/18 A3000 RMK TRACE SC BKN120=
200707010800 METAR MROC 010800Z 08006KT CAVOK 22/18 A2999 RMK TRACE SC BKN120 LTNG DST S=
200707010900 METAR MROC 010900Z 05005KT CAVOK 22/18 A3000 TRACE ST SCT BKN120=
200707011000 METAR MROC 011000Z 06006KT CAVOK 22/18 A2999 RMK TRACE SC BKN120=
200707011100 METAR MROC 011100Z 10003KT CAVOK 21/18 A3000 RMK TRACE SC SCT080 BKN120=
200707011200 METAR MROC 011200Z 07004KT CAVOK 22/18 A3001 RMK TRACE ST SC SCT120 SCT250 CB DIST S SW=
200707011300 METAR MROC 011300Z 04005KT CAVOK 21/18 A3002 RMK CB DST S/SW HZY TRAZAS SC BKN250=
200707011400 METAR MROC 011400Z 07004KT CAVOK 24/18 A3003 TRAZAS DE CU FEW100 BKN270 CB DST S BECMG=
200707011500 METAR MROC 011500Z 10004KT CAVOK 27/18 A3003 TRZAS CU BKN270 CB S BECMG=
200707011600 METAR MROC 011600Z 11006KT 9999 FEW020 SCT280 29/17 A3003 CB DST S BECMG=
200707011700 METAR MROC 011700Z 17002KT 9999 SCT025 SCT280 29/19 A3002 BECMG=
200707011800 METAR MROC 011800Z 24008KT 9999 FEW020 SCT040 27/20 A3001 CB DST SE BECMG=
200707011900 METAR MROC 011900Z 24010KT 9999 SCT015TCU SCT120 26/21 A3000 CB N NE SE S BECMG=
200707012000 METAR MROC 012000Z 26008KT 9999 VCSH FEW010 BKN020 27/22 A2999 VSBY N 6KM CHECK TEXT NEW ENDING ADDED KATLYTAA=
200707012100 METAR MROC 012100Z 24012KT 9999 SCT008 BKN020TCU 26/22 A2997 BECMG=
200707012200 METAR MROC 012200Z 24013KT 8000 3000NE BR SCT005 BKN020 23/22 A2996 RMK BECMG 3000 BR=
200707012300 METAR MROC 012300Z 24008KT 3000 -TSRA FEW004 SCT010CB OVC100 22/21 A2998 BECMG=
200707020000 METAR MROC 020000Z 36003KT 9999 VCSH FEW004 SCT015 OVC100 21/20 A3001 RMK RASH W 9999 E BECMG=
200707020100 METAR MROC 020100Z 00000KT 9999 SCT030 21/20 A3000 BECMG=
200707020200 METAR MROC 020200Z 33005KT 9999 FEW030 BKN150 22/21 A3004 BECMG=
200707020300 METAR MROC 020300Z 10002KT 9999 FEW030 SCT150 21/20 A3004 BECMG=
200707020400 METAR MROC 020400Z 00000KT 9999 FEW030 SCT150 21/20 A3003 BECMG=
200707020500 METAR MROC 020500Z 34005KT 9999 FEW030 BKN150 21/20 A3003 BECMG=
200707020600 METAR MROC 020600Z 00000KT 9999 FEW030 SCT250 20/19 A3001 BECMG=
200707020700 METAR MROC 020700Z 09006KT 9999 FEW030 22/18 A2998 BECMG=
200707020800 METAR MROC 020800Z 05006KT 9999 FEW030 SCT250 21/18 A2998=
200707020900 METAR MROC 020900Z 03005KT 9999 FEW030 SCT250 22/18 A2998=
200707021000 METAR MROC 021000Z 09005KT 9999 FEW030 SCT250 22/18 A2998=
200707021100 METAR MROC 021100Z 02004KT CAVOK 22/18 A2997 RMK SCT060=
200707021200 METAR MROC 021200Z 09004KT CAVOK 22/18 A2998 RMK BKN060=
200707021300 METAR MROC 021300Z 35003KT 9999 FEW035 SCT100 BKN250 24/18 A3000 BECMG=
200707021400 METAR MROC 021400Z 09009KT 9999 SCT035 SCT250 26/19 A3001 BECMG=
200707021500 METAR MROC 021500Z 09012KT 9999 SCT030 SCT250 27/19 A3000 RMK CB DST SW=
200707021600 METAR MROC 021600Z 09010KT 9999 SCT030 SCT250 28/18 A3000 BECMG=
200707021700 METAR MROC 021700Z 09007KT 9999 SCT025 30/17 A3000 BECMG=
200707021800 METAR MROC 021800Z 10004KT 9999 SCT030 SCT250 31/17 A2997 BECMG=
200707021900 METAR MROC 021900Z 24010KT 9999 BKN030 27/22 A2996 BECMG=
200707022000 METAR MROC 022000Z 23013KT 9999 BKN025TCU 27/23 A2994 RMK BECMG VCSH=
200707022100 METAR MROC 022100Z 22008KT 8000 3000SW -TS RN SCT012CB SCT020 BKN120 24/22 A2994 RMK 5000 RN DST N BECMG 3000 +TSRA=
200707022200 METAR MROC 022200Z 23008KT 9999 3000SW BR FEW003 BKN020 23/21 A2995 RMK SCT120 BECMG=
200707022300 METAR MROC 022300Z 23004KT 9999 3000SW BR FEW003 SCT020 23/21 A2996 RMK SCT120 BECMG=
200707030000 METAR MROC 030000Z 22005KT 9999 3000SW BR FEW002 SCT008 23/21 A2997 RMK 5000N BR FEW020 BECMG 2000BR=
200707030100 METAR MROC 030100Z 00000KT 9999 4000SW BR FEW004 SCT008 22/21 A3001 BECMG=
200707030200 METAR MROC 030200Z 04005KT 9999 FEW012 SCT120 22/21 A3000 BECMG=
200707030300 METAR MROC 030300Z 10007KT CAVOK 23/19 A3000 BKN280 BECMG=
200707030400 METAR MROC 030400Z 10004KT CAVOK 22/19 A2999 FEW280 BECMG=
200707030500 METAR MROC 030500Z 27006KT CAVOK 21/19 A3000 BECMG=
200707030600 METAR MROC 030600Z 36005KT 9999 FEW030 21/19 A3000 FG S BECMG=
200707030700 METAR MROC 030700Z 03003KT 9999 FEW030 21/19 A2997 LTNG DST NE BECMG=
200707030800 METAR MROC NIL=
200707030900 METAR MROC 030900Z 09002KT 9999 FEW030 BKN250 22/18 A2994 LTNG DST S SW SE BECMG=
200707031000 METAR MROC 031000Z 10007KT 9999 FEW025 BKN250 23/18 A2995 LTNG DST S SW BECMG=
200707031100 METAR MROC 031100Z 10008KT 9999 FEW025 BKN250 23/18 A2995 CB M S BECMG=
200707031200 METAR MROC 031200Z 06005KT 9999 FEW025 BKN250 22/18 A2997 FEW100 CB NE S SW BECMG=
200707031300 METAR MROC 031300Z 08007KT 9999 FEW025 BKN250 23/18 A2999 BECMG=
200707031400 METAR MROC 031400Z 10010KT 9999 FEW030 BKN120 24/18 A3000 RMK DZ DST NE E BECMG=
200707031500 METAR MROC 031500Z 10012KT 9999 FEW035 SCT120 24/18 A2999 RMK SCT250 BECMG=
200707031600 METAR MROC 031600Z 09012KT 9999 FEW035 BKN250 27/18 A2998 RMK FEW120 BECMG=
200707031700 METAR MROC 031700Z 10013KT 9999 FEW030 SCT100 BKN250 26/17 A2996 BECMG=
200707031800 METAR MROC 031800Z 11014KT 9999 FEW030 SCT100 BKN250 25/16 A2999 BECMG=
200707031900 METAR MROC 031900Z 10010KT 9999 FEW015 SCT100 BKN250 27/17 A2994 BECMG=
200707032000 METAR MROC 032000Z 11006KT 9999 FEW015 SCT100 BKN250 28/17 A2992 BECMG=
200707032100 METAR MROC 032100Z VRB02KT 9999 FEW035 SCT140 BKN250 30/18 A2990 BECMG=
200707032200 METAR MROC 032200Z 12005KT 9999 SCT035 BKN250 27/18 A2991 PCPN DIST NW BECMG=
200707032300 METAR MROC 032300Z 24009KT 9999 FEW020 SCT035 BKN250 25/21 A2992 BECMG=
200707040000 METAR MROC 040000Z 23006KT 9999 FEW025 SCT035 BKN250 24/22 A2995 BECMG=
200707040100 METAR MROC 040100Z 28004KT 9999 FEW035 SCT120 23/21 A2996 BECMG=
200707040200 METAR MROC 040200Z 00000KT 9999 FEW035 SCT120 22/21 A2997 BECMG=
200707040300 METAR MROC 040300Z 05007KT 9999 FEW035 SCT130 22/18 A2996 BECMG=
200707040400 METAR MROC 040400Z 07006KT CAVOK 22/18 A2996 BECMG=
200707040500 METAR MROC 040500Z 10002KT CAVOK 22/18 A2996 BECMG=
200707040600 METAR MROC 040600Z 10009KT CAVOK 22/18 A2992 BECMG=
200707040700 METAR MROC NIL=
200707040800 METAR MROC NIL=
200707040900 METAR MROC NIL=
200707041000 METAR MROC 041000Z 04008KT CAVOK 21/17 A2992 BECMG=
200707041100 METAR MROC NIL=
200707041200 METAR MROC 041200Z 09009KT 9999 FEW030 SCT250 22/18 A2992 BECMG=
200707041300 METAR MROC 041300Z 10010KT 9999 FEW030 SCT250 23/18 A2994 BECMG=
200707041400 METAR MROC 041400Z 10012KT 9999 FEW030 BKN250 25/18 A2995 RMK CB DST NE TCU DST S BECMG=
200707041500 METAR MROC 041500Z 08009KT 9999 FEW030 BKN250 27/19 A2997 RMK DZ DST N BECMG=
200707041600 METAR MROC 041600Z 10015KT 10015KT 9999 FEW030 BKN250 26/17 A2995 BECMG=
200707041700 METAR MROC 041700Z 09013KT 9999 FEW030 BKN250 27/17 A2995 RMK TRACE AC BECMG=
200707041800 METAR MROC 041800Z 07012KT 9999 FEW030 BKN250 28/17 A2995 BECMG=
200707041900 METAR MROC 041900Z 05012KT 9999 FEW030 BKN250 29/17 A2993 RMK TRACE AC BECMG=
200707042000 METAR MROC 042000Z 09012KT 9999 FEW030 BKN250 28/17 A2991 RMK TRACE AC BECMG=
200707042100 METAR MROC 042100Z 08009KT 9999 FEW030 BKN250 27/17 A2990 BECMG=
200707042200 METAR MROC 042200Z 07009KT 9999 FEW030 SCT120 BKN250 27/17 A2988 BECMG=
200707042300 METAR MROC 042300Z 08004KT 9999 SCT030 BKN250 26/18 A2989 RMK RN N NE BECMG=
200707050000 METAR MROC 050000Z 06002KT 9999 SCT035 BKN250 25/18 A2990 BECMG=
200707050100 METAR MROC 050100Z 08013KT 9999 FEW035 SCT120 24/17 A2991 BECMG=
200707050200 METAR MROC 050200Z 09010KT CAVOK 24/17 A2993 BECMG=
200707050300 METAR MROC 050300Z 11013KT CAVOK 23/18 A2992 RMK TRACE SC AC BBKN250=
200707050400 METAR MROC 050400Z 10017KT CAVOK 23/18 A2994 RMK TRACE SC SCT250 GUST 22KT BECMG=
200707050500 METAR MROC 050500Z 10015KT CAVOK 23/18 A2999 RMK TRACE SC SCT250 GUST 22KT=
200707050600 METAR MROC 050600Z 03009KT 9999 FEW030 SCT100 23/18 A2993 RMK LTNG S SW=
200707050700 METAR MROC 050700Z 36005KT 9999 FEW030 SCT100 22/18 A2992 RMK FEW250=
200707050800 METAR MROC 050800Z 06007KT 9999 4000SW RA FEW030 BKN090 21/19 A2993 RMK LTNG SSW=
200707050900 METAR MROC 050900Z 06006KT 9999 FEW030 SCT100 21/19 A2992 RMK REDZ FEW120 LTNG S SE=
200707051000 METAR MROC 051000Z 03008KT 9999 FEW030 SCT100 21/19 A2993 RMK LTNG ARND=
200707051100 METAR MROC 051100Z 32002KT 9999 SCT030 BKN100 21/19 A2992 RMK LTNG S SW=
200707051200 METAR MROC 051200Z 11004KT 9999 SCT030 BKN100 21/19 A2993 RMK RN DST NE E=
200707051300 METAR MROC 051300Z 07004KT 9999 SCT030 BKN100 22/19 A2993 BECMG=
200707051400 METAR MROC 051400Z 06005KT 9999 SCT030 BKN100 22/18 A2995 BECMG=
200707051500 METAR MROC 051500Z 09015KT 9999 SCT030 BKN100 22/18 A2997 BECMG=
200707051600 METAR MROC 051600Z 05005KT 9999 -DZ FEW030 SCT110 BKN250 22/17 A2996 BECMG=
200707051700 METAR MROC 051700Z 09015KT 9999 FEW030 SCT110 BKN250 23/18 A2995 BECMG=
200707051800 METAR MROC 051800Z 09011KT 9999 FEW035 SCT110 BKN250 24/17 A2996 BECMG=
200707051900 METAR MROC 051900Z 10008KT 9999 FEW035 SCT110 BKN250 25/18 A2994 BECMG=
200707052000 METAR MROC 052000Z 10010KT 9999 FEW035 SCT110 BKN250 24/18 A2991 BECMG=
200707052100 METAR MROC 052100Z 10008KT CAVOK 24/17 A2989 SCT140 BKN250 24/17 A2989 BECMG=
200707052200 METAR MROC 052200Z 06005KT CAVOK 24/17 A2991 SCT140 BKN250 TRAZAS CU BECMG=
200707052300 METAR MROC 052300Z 10011KT CAVOK 24/17 A2990 SCT140 BKN250 TRAZAS CU BECMG=
200707060000 METAR MROC 060000Z 09009KT CAVOK 23/17 A2990 RMK BKN250 TRAZAS SC BECMG=
200707060100 METAR MROC 0690100Z 09004KT CAVOK 22/17 A2990 RMK TRAZAS SC BKN250 BECMG=
200707060200 METAR MROC 060200Z 10013KT CAVOK 23/17 A2993 RMK BKN250 BECMG=
200707060300 METAR MROC 060300Z 10012KT CAVOK 22/17 A2994 RMK FEW140 BKN250 BECMG=
200707060400 METAR MROC 060400Z 10008KT CAVOK 22/17 A2994 RMK FEW140 BKN250 BECMG=
200707060500 METAR MROC 060500Z 08010KT CAVOK 23/17 A2995 RMK TRACE SC AC BKN250 BECMG=
200707060600 METAR MROC 060600Z 09014KT CAVOK 23/17 A2995 RMK TRACE SC AC BKN250 BECMG=
200707060700 METAR MROC 060700Z 09007KT CAVOK 22/18 A2993 RMK TRACE SC AC SCT250 BECMG=
200707060800 METAR MROC 060800Z 04009KT CAVOK 20/17 A2990 RMK TRACE SC SCT250=
200707060900 METAR MROC 060900Z 11011KT CAVOK 22/18 A2992 RMK TRACE SC SCT250=
200707061000 METAR MROC 061000Z 08005KT CAVOK 22/17 A2993 RMK TRACE SC SCT250=
200707061100 METAR MROC 061100Z 07005KT 9999 FEW030 BKN250 21/18 A2994 RMK LTNG DST S=
200707061200 METAR MROC 061200Z 10009KT 9999 FEW030 SCT150 BKN250 22/18 A2995 PCPN DST E=
200707061300 METAR MROC NIL=
200707061400 METAR MROC 061400Z 09008KT 9999 FEW020 SCT040 BKN250 25/18 A2997 DZ NE BECMG=
200707061500 METAR MROC 061500Z 09011KT 9999 FEW025 BKN250 26/18 A2998 BECMG=
200707061600 METAR MROC 061600Z 09011KT 9999 FEW025 BKN270 28/17 A2997 BECMG=
200707061700 METAR MROC 061700Z 07011KT 9999 FEW025 BKN270 28/17 A2995 BECMG=
200707061800 METAR MROC 061800Z 07011KT 9999 FEW025 BKN270 29/17 A2993 BECMG=
200707061900 METAR MROC 061900Z 08008KT 9999 FEW025 SCT040 BKN250 28/17 A2992 BECMG=
200707062000 METAR MROC 062000Z 09008KT 9999 FEW025 BKN270 29/17 A2990 BECMG=
200707062100 METAR MROC 062100Z 23007KT 9999 FEW010TCU SCT025 BKN250 25/22 A2990 BECMG=
200707062200 METAR MROC 062200Z 22009KT 8000 VCFG FEW008 SCT020 BKN250 24/22 A2991 RMK BECMG 5000 -RA BR=
200707062300 METAR MROC 062300Z 21006KT 0800 FG SCT001 SCT010 OVC100 22/21 A2994 RMK BECMG=
200707070000 METAR MROC 070000Z 27004KT 6000 VCFG FEW003 SCT015 OVC100 22/20 A2996 BECMG=
200707070100 METAR MROC 070100Z 00000KT 9999 SCT020 BKN100 21/19 A2997 BECMG=
200707070200 METAR MROC 070200Z 00000KT 9999 SCT025 BKN100 21/20 A2998 BECMG=
200707070300 METAR MROC 070300Z 17002KT 9999 SCT025 BKN100 21/20 A3000 BECMG=
200707070400 METAR MROC 070400Z 00000KT 9999 3000SW BR FEW002 SCT010 BKN100 21/20 A3000 BECMG=
200707070500 METAR MROC 070500Z 23003KT 9999 3000SW BR FEW001 SCT010 BKN100 21/20 A3000=
200707070600 METAR MROC 070600Z 03004KT 9999 3000SW BR FEW002 SCT015 BKN110 21/20 A2996 BECMG=
200707070700 METAR MROC 070700Z 11004KT 9999 3000SW BR FEW002 BKN110 21/19 A2993 BECMG=
200707070800 METAR MROC 070800Z 05009KT 9999 FEW030 SCT110 BKN250 21/18 A2992=
200707070900 METAR MROC 070900Z 06009KT 9999 FEW030 SCT120 BKN250 21/18 A2990=
200707071000 METAR MROC 071000Z 36006KT 9999 FEW030 SCT120 BKN250 21/18 A2992=
200707071100 METAR MROC 071100Z 06009KT 9999 FEW030 SCT120 BKN250 22/18 A2993=
200707071200 METAR MROC 071200Z 05009KT 9999 FEW030 SCT120 BKN250 22/18 A2994=
200707071300 METAR MROC 071300Z 08007KT 9999 FEW030 SCT120 BKN250 23/18 A2996 BECMG=
200707071400 METAR MROC 071400Z 06007KT 9999 FEW030 SCT120 BKN250 24/19 A2997 BECMG=
200707071500 METAR MROC 071500Z 10008KT 9999 FEW030 SCT100 BKN250 25/19 A2998 RMK RN DST N=
200707071600 METAR MROC 071600Z 09006KT 9999 FEW030 SCT100 BKN250 26/18 A2998 BECMG=
200707071700 METAR MROC 071700Z 11010KT 9999 FEW030 SCT100 OVC250 25/18 A2998 BECMG=
200707071800 METAR MROC 071800Z 11011KT 9999 -RA FEW030 SCT100 OVC250 25/19 A2997 BECMG=
200707071900 METAR MROC 071900Z 11008KT 9999 FEW030 SCT100 BKN250 27/19 A2994 BECMG=
200707072000 METAR MROC 072000Z 10008KT 9999 FEW030 SCT100 BKN250 28/17 A2992 BECMG=
200707072100 METAR MROC 072100Z 11002KT 9999 FEW030 SCT100 BKN250 27/18 A2991 BECMG=
200707072200 METAR MROC 072200Z 11004KT 9999 FEW015 SCT100 BKN250 25/18 A2991 BECMG=
200707072300 METAR MROC 072300Z 10008KT 9999 FEW025 SCT100 BKN250 25/17 A2993 BECMG=
200707080000 METAR MROC 080000Z 05005KT 9999 FEW035 SCT100 BKN250 23/16 A2995 BECMG=
200707080100 METAR MROC 080100Z 08006KT 9999 FEW030 BKN150 23/16 A2997 RMK LTNG=
200707080200 METAR MROC 080200Z 10009KT 9999 FEW035 OVC150 23/16 A2998 BECMG=
200707080300 METAR MROC 080300Z 06003KT CAVOK 23/16 A2999 TRAZAS SCT BKN250 BECMG=
200707080400 METAR MROC 080400Z 27005KT 9999 4000SW BR FEW005 BKN250 21/18 A3000 BECMG 3000=
200707080500 METAR MROC 080500Z 28004KT 9999 4000SW VCFG FEW003 SCT006 BKN250 21/20 A3001 VSBY SW W 4KM BECMG=
200707080600 METAR MROC 080600Z 01002KT 9999 FEW010 BKN250 21/18 A2999 BECMG=
200707080700 METAR MROC 080700Z 08003KT 9999 SCT015 BKN250 21/18 A2997 BECMG=
200707080800 METAR MROC NIL=
200707080900 METAR MROC 080900Z 09004KT CAVOK 21/17 A2994 SCT250 BECMG=
200707081000 METAR MROC 081000Z 09005KT CAVOK 21/17 A2993 SCT250 BECMG=
200707081100 METAR MROC 081100Z 05008KT CAVOK 21/17 A2994 FEW100 BKN250 BECMG=
200707081200 METAR MROC 081200Z 07008KT CAVOK 21/17 A2995 SCT100 SCT250 TRAZAS SCT BECMG=
200707081300 METAR MROC 081300Z 09009KT CAVOK 22/17 A2996 RMK TRACE AC SCT250 BECMG=
200707081400 METAR MROC 081400Z 10014KT CAVOK 25/17 A2996 RMK SCT120 SCT250 BECMG=
200707081500 METAR MROC 081500Z 10012KT CAVOK 27/17 A2996 RMK TRACE SC SCT100 BECMG=
200707081600 METAR MROC 081600Z 11011KT 9999 FEW045 SCT100 26/17 A2997 BECMG=
200707081700 METAR MROC 081700Z 08010KT 9999 FEW035 BKN120 29/18 A2997 BECMG=
200707081800 METAR MROC 081800Z 09010KT 9999 FEW030 BKN120 27/16 A2996 BECMG=
200707081900 METAR MROC 081900Z 12004KT 9999 SCT025 BKN100 28/17 A2992 BECMG 24006KT=
200707082000 METAR MROC 082000Z 23017KT 9999 3000SW -TSRA FEW010CB SCT025 BKN100 23/21 A2992 BECMG=
200707082100 METAR MROC 082100Z 26015KT 3000 -TS VCSH BR FEW002 SCT010CB BKN025 20/19 A2995 RMK VIS E S 7KMS BECMG 1500 TSRA=
200707082200 METAR MROC 082200Z 33006KT 8000 VCSH FEW003 FEW015CB BKN025 21/19 A2998 RMK VIS 5KMS SW BECMG=
200707082300 METAR MROC 082300Z 00000KT 9999 -RA FEW025 OVC120 21/19 A3000 BECMG=
200707090000 METAR MROC 090000Z 08004KT CAVOK 21/19 A2999 RMK TRACE ST SC OVC120 BECMG=
200707090100 METAR MROC 090100Z 09006KT CAVOK 20/17 A2999 RERA TRACE SCT OVC150 BECMG=
200707090200 METAR MROC 090200Z 10011KT CAVOK 21/17 A2999 TRACE SCT BKN150 BECMG=
200707090300 METAR MROC 090300Z 09012KT CAVOK 21/17 A2999 BECMG RMK TRACE SC SCT150=
200707090400 METAR MROC 090400Z 08006KT CAVOK 21/16 A2999 RMK TRACE SC SCT150 BECMG=
200707090500 METAR MROC 090500Z 25003KT CAVOK 20/17 A2999 RMK TRACE SC SCT150 BECMG=
200707090600 METAR MROC 090600Z 28003KT CAVOK 20/17 A2999 RMK SCT150 BECMG=
200707090700 METAR MROC 090700Z 08002KT CAVOK 19/17 A2998 RMK SCT150 BECMG=
200707090800 METAR MROC 090800Z 00000KT CAVOK 19/17 A2998 RMK SCT150 BECMG=
200707090900 METAR MROC 090900Z 01006KT CAVOK 19/17 A2997 RMK SCT150 BECMG=
200707091000 METAR MROC 091000Z 08003KT 9999 FEW035 18/16 A2997 BECMG=
200707091100 METAR MROC 091100Z 04007KT 9999 FEW030 19/16 A2998 BECMG=
200707091200 METAR MROC 091200Z 05007KT 9999 FEW030 19/16 A2999 RMK CBDST S SW BECMG=
200707091300 METAR MROC 091300Z 21002KT CAVOK 22/17 A3001 RMK TRACE SC SCT140 SCT250 CB DST S BECMG=
200707091400 METAR MROC 091400Z 23004KT CAVOK 23/17 A3002 RMK TRACE SC SCT140 FEW CI CC CB DST S BECMG=
200707091500 METAR MROC 091500Z 22005KT CAVOK 24/18 A3003 RMK TRACE SC CU FEW300 BECMG=
200707091600 METAR MROC 091600Z 31003KT 9999 FEW035 BKN250 27/17 A3000 RMK FEW120 BECMG=
200707091700 METAR MROC 091700Z 23013KT 9999 FEW030 BKN250 26/19 A3000 BECMG=
200707091800 METAR MROC 091800Z 22008KT 9999 FEW020TCU SCT035 26/18 A2999 RMK RN DST S SSW E BECMG 7000 VCSH=
200707091900 METAR MROC 091900Z 23008KT 9999 -TS VCSH FEW015CB BKN030 24/18 A2998 RMK VIS NE ENE 6KMS BECMG 5000 TSRA=
200707092000 METAR MROC 092000Z 22006KT 9999 VCSH FEW015CB BKN030 24/20 A2997 VIS 8KMS NNW RASH DIST E SE BECMG 5000 TSRA=
200707092100 METAR MROC 092100Z 02004KT 7000 +RA FEW015CB BKN030 22/20 A2997 BECMG 4000=
200707092200 METAR MROC 092200Z 14004KT 9999 3000SW RA FEW010CB SCT030 BKN100 21/20 A2998 BECMG=
200707092300 METAR MROC 092300Z 22002KT 4000 RA BR FEW001 SCT010 BKN100 21/20 A2999 BECMG=
200707100000 METAR MROC 100000Z 29002KT 8000 2000 -RA BR FEW001 SCT010 OVC100 20/19 A3000 RMK VIS N 4000MTS=
200707100100 METAR MROC 100100Z 02005KT 9999 3000SW -RA FEW012 OVC100 20/19 A3000 BECMG=
200707100200 METAR MROC 100200Z 09005KT 9999 -RA FEW030 BKN100 20/18 A3000 BECMG=
200707100300 METAR MROC 100300Z 10010KT CAVOK 20/17 A3000 RMK TRACE SC BKN120 SCT250=
200707100400 METAR MROC 100400Z 10008KT CAVOK 21/17 A2999 RMK TRACE SC FEW120 BKN250 BECMG=
200707100500 METAR MROC 100500Z 09008KT CAVOK 21/17 A2999 RMK TRACE SC SCT120 BECMG=
200707100600 METAR MROC 100600Z 06008KT CAVOK 21/17 A2999 RMK TRACE SC FEW120 SCT250 BECMG=
200707100700 METAR MROC 100700Z 36003KT CAVOK 21/17 A2998 RMK TRACE SC SCT120 BECMG=
200707100800 METAR MROC 100800Z 06005KT 9999 FEW035 SCT120 20/17 A2996=
200707100900 METAR MROC 100900Z 10011KT 9999 FEW030 SCT120 21/17 A2995=
200707101000 METAR MROC 101000Z 08004KT CAVOK 21/17 A2995 RMK TRACE SC AC SCT250=
200707101100 METAR MROC 101100Z 07005KT 9999 FEW030 SCT250 21/17 A2996=
200707101200 METAR MROC 101200Z 06003KT 9999 FEW025 SCT250 19/17 A2999 RMK CB DST S SSW DZ DST NE=
200707101300 METAR MROC 101300Z 02004KT 9999 FEW025 SCT250 22/17 A3001 RMK CB DST S SW=
200707101400 METAR MROC 101400Z 10008KT 9999 FEW025 SCT250 24/18 A3000 RMK CB DST S SW BECMG=
200707101500 METAR MROC 101500Z 10012KT 9999 FEW025 SCT250 25/18 A3000 TRACE CU BECMG=
200707101600 METAR MROC 101600Z 11011KT 9999 SCT030 SCT250 26/18 A3000 RMK TCU SW BECMG=
200707101700 METAR MROC 101700Z 13007KT 9999 FEW015TCU SCT030 26/18 A2998 TRACE CI BECMG=
200707101800 METAR MROC 101800Z 23006KT 9999 FEW015TCU BKN035 25/20 A2998 RMK RN N NE BECMG=
200707101900 METAR MROC 101900Z 27007KT 9999 FEW015TCU BKN035 25/20 A2997 RMK RN SW BECMG=
200707102000 METAR MROC 102000Z 23012KT 9999 FEW015TCU BKN035 24/21 A2995 RN S SW BECMG=
200707102100 METAR MROC 102100Z 33003KT 4000 TSRA FEW010CB BKN025 21/19 A2995 VSBY NE E SE UNL BECMG 9999=
200707102200 METAR MROC 102200Z 31004KT 9999 -RA FEW010 SCT030 BKN120 21/20 A2995 VSBY NW 6KM DUE RN BECMG=
200707102300 METAR MROC 102300Z 02005KT 9999 -RA FEW030 BKN120 21/20 A2994 BECMG=
200707110000 METAR MROC 110000Z 09006KT 9999 FEW030 BKN120 21/19 A2994 BECMG=
200707110100 METAR MROC 110100Z 00000KT 9999 FEW035 BKN120 22/19 A2996 BECMG=
200707110200 METAR MROC 110200Z 02002KT 9999 FEW035 BKN120 22/19 A2998 BECMG=
200707110300 METAR MROC 110300Z 04005KT 9999 SCT035 SCT120 21/19 A2998 BECMG=
200707110400 METAR MROC 110400Z 05004KT 9999 SCT035 SCT120 21/19 A2999 BECMG=
200707110500 METAR MROC 110500Z 05003KT 9999 FEW035 SCT120 21/17 A2998 BECMG=
200707110600 METAR MROC 110600Z 07007KT CAVOK 22/17 A2996 RMK TRACE SC SCT120 BECMG=
200707110700 METAR MROC 110700Z 08004KT CAVOK 22/17 A2995 RMK TRACE SC SCT120 LTNG=
200707110800 METAR MROC 110800Z 04005KT CAVOK 22/17 A2994 RMK TRACE SC SCT120 SCT250=
200707110900 METAR MROC 110900Z 04005KT CAVOK 21/17 A2994 RMK TRACE SC FEW120 BKN250=
200707111000 METAR MROC 111000Z 06006KT CAVOK 21/17 A2993 RMK TRACE SC SCT120 BKN250=
200707111100 METAR MROC 111100Z 09007KT CAVOK 21/17 A2993 RMK TRACE SC BKN120 CB=
200707111200 METAR MROC 111200Z 04007KT CAVOK 21/17 A2994 RMK TRACE SC SCT120 BKN250=
200707111300 METAR MROC 111300Z 09006KT CAVOK 22/17 A2996 TRAZAS SCT SCT150 BKN250 BECMG=
200707111400 METAR MROC 111400Z 10012KT CAVOK 23/17 A2997 TRAZAS SCT BKN250 BECMG=
200707111500 METAR MROC 111500Z 10013KT CAVOK 26/17 A2996 TRAZAS SC CB DST S BKN250 BECMG=
200707111600 METAR MROC 111600Z 11010KT CAVOK 26/17 A2996 TRAZAS SCT FEW100 BKN250 CB DST S BECMG=
200707111700 METAR MROC 111700Z 20003KT 9999 FEW030 SCT100 BKN250 28/20 A2997 BECMG=
200707111800 METAR MROC 111800Z 21006KT 9999 FEW020 BKN030 28/20 A2997 RN NE E BECMG=
200707111900 METAR MROC 111900Z 12009KT 9999 FEW025 BKN250 26/19 A2993 RN SW BECMG=
200707112000 METAR MROC 112000Z 10012KT 9999 SCT030 SCT120 BKN250 26/17 A2991 RN SE SW BECMG=
200707112100 METAR MROC 112100Z 11015KT 9999 FEW025 SCT100 BKN200 23/21 A2991 BECMG=
200707112200 METAR MROC 112200Z 10013KT 9999 SCT030 OVC200 23/15 A2991 BECMG=
200707112300 METAR MROC 112300Z 11010KT 9999 FEW030 SCT100 OVC200 23/15 A2990 BECMG=
200707120000 METAR MROC 120000Z 10010KT CAVOK 24/13 A2992 RMK TRACE SC OVC200=
200707120100 METAR MROC 120100Z 05011KT CAVOK 22/14 A2993 BECMG=
200707120200 METAR MROC 120200Z 09008KT 9999 FEW035 BKN100 22/15 A2996 BECMG=
200707120300 METAR MROC 120300Z 06004KT 9999 FEW035 BKN110 22/15 A2999 BECMG=
200707120400 METAR MROC 120400Z 06007KT 9999 FEW035 BKN110 21/15 A2999 BECMG=
200707120500 METAR MROC NIL=
200707120600 METAR MROC NIL=
200707120700 METAR MROC 120700Z 08004KT CAVOK 21/16 A2995 RMK BKN110 TRACE SC BECMG=
200707120800 METAR MROC 120800Z 07006KT CAVOK 21/16 A2995 RMK BKN110 TRACE SC=
200707120900 METAR MROC 120900Z 10012KT CAVOK 22/16 A2993 RMK TRACE SC BKN120=
200707121000 METAR MROC 121000Z 10014KT CAVOK 21/16 A2993 RMK BKN120=
200707121100 METAR MROC 121100Z 10010KT CAVOK 21/16 A2993 RMK BKN120=
200707121200 METAR MROC 121200Z 10009KT CAVOK 21/16 A2994 RMK BKN100 TRACE SC=
200707121300 METAR MROC 121300Z 10013KT 9999 FEW030 SCT100 22/16 A2996 RMK DZ NE=
200707121400 METAR MROC 121400Z 10012KT 9999 FEW035 BKN250 24/17 A2996 RMK CB DST SW BECMG=
200707121500 METAR MROC 121500Z 10011KT 9999 FEW030 BKN250 26/17 A2997 BECMG=
200707121600 METAR MROC 121600Z 10011KT 9999 FEW030 BKN250 28/16 A2996 BECMG=
200707121700 METAR MROC 121700Z 10007KT 9999 SCT025TCU SCT250 27/16 A2996 RMK TCU S BECMG=
200707121800 METAR MROC 121800Z 14006KT 9999 VCSH SCT020TCU SCT100 28/17 A2995 RMK RASH DST W BECMG 24006KT=
200707121900 METAR MROC 121900Z 24008KT 7000 VCTS RA FEW010CB SCT020 BKN100 23/19 A2993 RMK TSRA NW BECMG 3000 RA=
200707122000 METAR MROC 122000Z 20005KT 6000 VCTS RA SCT010CB BKN020 21/18 A2995 RMK RN ARND BECMG 3000 RA=
200707122100 METAR MROC 122100Z 14002KT 7000 3000NE -RA FEW008CB BKN020 20/19 A2995 BECMG=
200707122200 METAR MROC 122200Z 05004KT 9999 4000NW DZ BR FEW008 SCT020 BKN090 20/19 A2995 BECMG=
200707122300 METAR MROC 122300Z 06005KT 9999 -RA SCT025 BKN080 20/19 A2997 RMK VIS 7000 NE E VCSH BECMG=
200707130000 METAR MROC 130000Z 07006KT 9999 RA FEW020 OVC090 20/18 A2998 BECMG=
200707130100 METAR MROC 130100Z 07005KT 9999 -RA FEW020 OVC100 20/18 A3000 BECMG=
200707130200 METAR MROC 130200Z 06005KT 9999 -RA FEW030 OVC100 20/18 A3001 BECMG=
200707130300 METAR MROC NIL=
200707130400 METAR MROC NIL=
200707130500 METAR MROC NIL=
200707130600 METAR MROC NIL=
200707130700 METAR MROC NIL=
200707130800 METAR MROC NIL=
200707130900 METAR MROC NIL=
200707131000 METAR MROC NIL=
200707131100 METAR MROC 131100Z 02006KT CAVOK 19/17 A2997 TRAZAS SCT BKN090 BECMG=
200707131200 METAR MROC 131200Z 02005KT CAVOK 19/17 A2998 TRAZAS SCT SCT100 SCT250 CB DST NE/S BECMG=
200707131300 METAR MROC 131300Z 04007KT CAVOK 21/17 A2998 RMK BKN250 CB DST SSW=
200707131400 METAR MROC 131400Z 05011KT CAVOK 22/18 A2999 RMK TRACE SC BKN250 CB DST SW BECMG=
200707131500 METAR MROC 131500Z 11007KT CAVOK 25/18 A2999 RMK TRACE SC BKN250 TCU DST SSW BECMG=
200707131600 METAR MROC 131600Z 16005KT 9999 FEW040 BKN250 27/17 A2999 BECMG 24010KT=
200707131700 METAR MROC 131700Z 24010KT 9999 SCT035 SCT250 26/20 A2999 BECMG=
200707131800 METAR MROC 131800Z 24010KT 9999 FEW020TCU SCT030 BKN250 26/20 A2998 BECMG=
200707131900 METAR MROC 131900Z 24009KT 9999 FEW015CB BKN025 26/21 A2996 RMK RN DST NE BECMG=
200707132000 METAR MROC 132000Z 25011KT 2000 +TSRA SCT008CB BKN020 24/21 A2994 BECMG=
200707132100 METAR MROC 132100Z 20004KT 7000 -RA FEW015CB SCT025 BKN120 22/20 A2994 RMK RETS VIS E SE UNLTD TRACE ST TO S SSW BECMG=
200707132200 METAR MROC 132200Z 24007KT 4000 BR SCT004 BKN008 21/20 A2994 RMK VIS SSE 8KMS VIS N NE 2500 BECMG=
200707132300 METAR MROC NIL=
200707132340 METAR MROC 132340Z 22004KT 3000 -RA BR FEW002 SCT006 BKN015 21/20 A2995 VIS S SE 5KMS BECMG=
200707140000 METAR MROC 140000Z 25004KT 4000 TSRA FEW002 FEW012CB BKN020 21/20 A2997 VIS S SSW 8KMS BECMG 5000 -RA=
200707140100 METAR MROC 140100Z 10003KT 9999 -RA FEW030 OVC100 21/20 A2997 RMK TRACE ST TO SW TSTM DST WSW BECMG=
200707140200 METAR MROC 140200Z 25004KT 9999 -RA FEW015 OVC120 21/19 A2999 BECMG=
200707140300 METAR MROC 140300Z 00000KT 9999 FEW020 BKN120 20/20 A3000 BECMG=
200707140400 METAR MROC 140400Z 13002KT 9999 FEW020 BKN120 20/19 A2999 BECMG=
200707140500 METAR MROC 140500Z VRB02KT 9999 FEW025 SCT120 20/19 A3000 BECMG=
200707140600 METAR MROC 140600Z 02004KT 9999 FEW030 20/19 A2999 BECMG=
200707140700 METAR MROC 140700Z 35002KT 8000 VCFG FEW004 SCT030 19/18 A2995 BECMG=
200707140800 METAR MROC NIL=
200707140900 METAR MROC 140900Z 05002KT 7000 VCFG FEW004 SCT035 18/17 A2992 RMK FG SW W BECMG=
200707141000 METAR MROC 141000Z 07002KT 9999 VCFG FEW004 17/17 A2993 RMK FG S SW=
200707141100 METAR MROC 141100Z 07003KT 9999 FEW004 SCT035 18/16 A2995 BECMG=
200707141200 METAR MROC 141200Z 34005KT 9999 FEW030 SCT045 19/17 A2996 BECMG=
200707141300 METAR MROC 141300Z 05006KT 9999 FEW035 BKN250 20/18 A2998 RMK CB LINE DST S SW W=
200707141400 METAR MROC 141400Z 07003KT 9999 FEW035 BKN250 23/19 A2999 BECMG=
200707141500 METAR MROC 141500Z 08007KT 9999 FEW035 SCT120 BKN250 25/18 A2998 BECMG=
200707141600 METAR MROC 141600Z 20004KT 9999 FEW030 SCT120 BKN250 26/20 A2998 BECMG=
200707141700 METAR MROC 141700Z 24014KT 9999 FEW012 SCT020 BKN250 24/21 A2998 RMK CB DST SE S RN S SW BECMG 6000 VCSH=
200707141800 METAR MROC 141800Z 24008KT 9999 FEW015TCU SCT025 BKN140 24/20 A2996 RMK RASH DST ENE CB DST S SSE BECMG 6000 VCSH=
200707141900 METAR MROC 141900Z 23009KT 9999 FEW008 FEW015CB BKN025 23/19 A2996 RMK TS RASH DIST ESE BECMG 5000 TSRA=
200707141915 METAR MROC 141915Z 22006KT 9999 -RA FEW015CB BKN025 22/20 A2995 RMK TS DIST SSE BECMG 5000 TSRA=
200707142000 METAR MROC 142000Z 24006KT 3000 -RA FEW005 FEW015CB BKN025 22/20 A2995 RMK VIS E 5KMS BECMG 6000=
200707142100 METAR MROC 142100Z 25007KT 7000 3000SW -RA BR FEW005 SCT025 BKN100 22/20 A2993 BECMG=
200707142200 METAR MROC 142200Z 30006KT 7000 3000SW RA BR FEW005 SCT025 OVC100 21/20 A2994 BECMG=
200707142300 METAR MROC 142300Z 25002KT 9999 3000SW VCFG FEW003 SCT025 OVC100 22/19 A2994 BECMG=
200707150000 METAR MROC NIL=
200707150100 METAR MROC NIL=
200707150200 METAR MROC NIL=
200707150300 METAR MROC 150300Z 04007KT CAVOK 20/18 A2999 RMK TRACE SC SCT120 BECMGNG=
200707150400 METAR MROC 150400Z 10002KT 9999 FEW030 SCT120 20/18 A3000 RMK TRACE ST SCT250 BECMG=
200707150500 METAR MROC 150500Z 04004KT CAVOK 20/18 A2999 RMK FEW120 BKN250=
200707150600 METAR MROC 150600Z 24007KT 0800 FG OVC002 29/19 A2999 BECMG=
200707150700 METAR MROC 150700Z 34003KT 9999 4000SW BR SCT006 SCT120 20/19 A2998=
200707150800 METAR MROC 150800Z 04002KT 9999 VCFG SCT005 SCT120 20/18 A2997 RMK VIS 7000 SW=
200707150900 METAR MROC 150900Z 09002KT 9999 FEW020 BKN120 20/18 A2996=
200707151000 METAR MROC 151000Z 08003KT 9999 SCT020 BKN120 20/18 A2998=
200707151100 METAR MROC 151100Z 02005KT 9999 FEW035 SCT120 20/18 A2998=
200707151200 METAR MROC 151200Z 04004KT 9999 FEW010 SCT250 20/17 A2998 RMK FEW120 TRACE SC CB DST SSW=
200707151300 METAR MROC 151300Z 08002KT 9999 FEW010 SCT250 22/18 A2998 RMK TRACE SC=
200707151400 METAR MROC 151400Z 11003KT 9999 FEW045 SCT250 25/18 A3000 BECMG=
200707151500 METAR MROC 151500Z 24007KT 9999 FEW045 SCT250 24/20 A3001 BECMG=
200707151600 METAR MROC 151600Z 23006KT 9999 SCT045 BKN110 25/20 A3002 BECMG=
200707151700 METAR MROC 151700Z 23006KT 9999 SCT040 BKN110 25/20 A3001 BECMG=
200707151800 METAR MROC 151800Z 22007KT 9999 SCT040 BKN110 25/20 A3000 BECMG=
200707151900 METAR MROC 151900Z 25007KT 9999 FEW015TCU SCT030 BKN110 25/20 A2999 BECMG=
200707152000 METAR MROC 152000Z 24002KT 3000 -RA TS FEW015CB SCT030 OVC100 22/20 A2998 BECMG=
200707152100 METAR MROC 152100Z 10003KT 6000 VCSH FEW005 SCT012 BKN120 21/20 A2996 VSBY NE E SE UNL RN SW W NW BECMG=
200707152200 METAR MROC 152200Z 24006KT 4000 BR SCT003 FEW012CB BKN120 22/21 A2997 BECMG=
200707152300 METAR MROC 152300Z 00000KT 4000 BR SCT002 OVC120 22/21 A2997 BECMG=
200707160000 METAR MROC 160000Z 00000KT 4000 BR FEW002 SCT030 OVC120 22/20 A2998 VSBY SW 3KM DUE FG VSBY E 6KM BECMG=
200707160100 METAR MROC 160100Z 22002KT 6000 VCFG FEW003 SCT035 BKN120 21/19 A2999 VSBY NE E SE UNL BECMG=
200707160200 METAR MROC 160200Z 09007KT 9999 VCFG FEW005 OVC120 21/18 A2999 VSBY S SW 6KM DUE FG BECMG=
200707160300 METAR MROC 160300Z 08005KT CAVOK 21/18 A3001 RMK TRACE ST SC BKN120 BECMG=
200707160400 METAR MROC 160400Z 06005KT CAVOK 21/18 A3002 RMK TRACE SC BKN120 BECMG=
200707160500 METAR MROC 160500Z 04005KT CAVOK 21/18 A3003 RMK TRACE SC BKN120 BECMG=
200707160600 METAR MROC 160600Z 09006KT CAVOK 22/18 A3001 RMK TRACE SC SCT120 SCT250 BECMG=
200707160700 METAR MROC 160700Z 08008KT CAVOK 22/18 A2998 RMK TRACE SC SCT120 SCT250=
200707160800 METAR MROC 160800Z 08005KT CAVOK 21/18 A2997 RMK TRACE SC SCT120 SCT250=
200707160900 METAR MROC 160900Z 07004KT CAVOK 21/17 A2996 RMK TRACE SCT120 BECMG=
200707161000 METAR MROC 161000Z 09008KT CAVOK 21/17 A2995 RMK TRACE SC FEW120 BKN250=
200707161100 METAR MROC 161100Z 09011KT CAVOK 21/17 A2995 RMK TRACE SC SCT120 SCT250=
200707161200 METAR MROC 161200Z 11010KT CAVOK 22/17 A2998 RMK SCT120 BKN250 RMK CB DST SSW=
200707161300 METAR MROC 161300Z 100006KT CAVOK 23/17 A2998 SCT100 SCT260 TRAZAS SCT BECMG=
200707161400 METAR MROC 161400Z 09013KT 9999 FEW035 BKN100 24/15 A2999 BECMG=
200707161500 METAR MROC 161500Z 10011KT CAVOK 24/14 A2998 BKN100 TRAZAS SCT BECMG=
200707161600 METAR MROC 161600Z 10016KT CAVOK 26/13 A2999 FEW120 TRAZAS SCT BECMG=
200707161700 METAR MROC 161700Z 09015KT 9999 FEW035 SCT120 27/13 A3000 BECMG=
200707161800 METAR MROC 161800Z 07013KT 9999 FEW035 SCT120 27/13 A2999 BECMG=
200707161900 METAR MROC 161900Z 09011KT 9999 FEW030 BKN120 27/13 A2997 BECMG=
200707162000 METAR MROC 162000Z 09013KT 9999 FEW030 BKN120 27/14 A2995 BECMG=
200707162100 METAR MROC 162100Z 08011KT 9999 FEW030 BKN120 28/13 A2994 BECMG=
200707162200 METAR MROC 162200Z 11007KT 9999 FEW030 SCT130 27/14 A2993 BECMG=
200707162300 METAR MROC 162300Z 10009KT 9999 FEW040 SCT130 26/14 A2994 BECMG=
200707170000 METAR MROC 170000Z 21006KT 9999 FEW040 SCT140 22/20 A2997 BECMG=
200707170100 METAR MROC 170100Z 29003KT 9999 FEW035 SCT130 22/19 A2999 BECMG0=
200707170200 METAR MROC 170200Z 13003KT 9999 FEW035 SCT130 21/19 A3000 BECMG=
200707170300 METAR MROC 170300Z 01003KT 9999 FEW035 SCT130 21/18 A3001 BECMG=
200707170400 METAR MROC 170400Z 06004KT 9999 FEW035 SCT130 19/15 A3004 BECMG=
200707170500 METAR MROC NIL=
200707170600 METAR MROC 170600Z 04004KT 9999 FEW035 BKN130 19/14 A3004 BECMG=
200707170700 METAR MROC 170700Z 06007KT CAVOK 17/14 A3002 RMK TRACE SC FEW120=
200707170800 METAR MROC 170800Z 03006KT CAVOK 18/15 A2999 RMK TRACE SC SCT120=
200707170900 METAR MROC 170900Z 07005KT CAVOK 19/15 A2998 RMK FEW120 TRACE SC=
200707171000 METAR MROC 171000Z 08007KT CAVOK 20/15 A2998 TRACE SCT SCT129=
200707171100 METAR MROC 171100Z 05006KT CAVOK 18/15 A2999 RMK BKN100 TRACE SC=
200707171200 METAR MROC 171200Z 06007KT CAVOK 20/15 A3000 RMK BKN100 TCU DST SW=
200707171300 METAR MROC 171300Z 07008KT CAVOK 21/15 A3001 BECMG=
200707171400 METAR MROC 171400Z 10008KT CAVOK 24/16 A3002 RMK TRACE SC SCT250 BECMG=
200707171500 METAR MROC 171500Z 10005KT 9999 FEW035 SCT110 BKN250 26/17 A3002 BECMG=
200707171600 METAR MROC 171600Z 11012KT 9999 FEW035 SCT110 BKN250 26/17 A3003 BECMG=
200707171700 METAR MROC 171700Z 10012KT 9999 SCT030 BKN250 26/17 A3004 BECMG=
200707171800 METAR MROC 171800Z 10013KT 9999 SCT030 OVC250 25/17 A3003 RMK RN DST N E BECMG=
200707171900 METAR MROC 171900Z 10013KT 9999 SCT030 OVC250 25/16 A3000 BECMG=
200707172000 METAR MROC 172000Z 10010KT 9999 SCT025 OVC250 25/17 A2998 BECMG=
200707172100 METAR MROC 172100Z 23005KT 9999 FEW035 SCT120 BKN250 25/20 A2996 BECMG=
200707172200 METAR MROC 172200Z 22007KT 9999 FEW030 BKN250 25/20 A2996 RMK FEW120 BECMG=
200707172300 METAR MROC 172300Z 23009KT 9999 SCT020 BKN250 23/20 A2998 BECMG=
200707180000 METAR MROC 180000Z 22002KT 9999 SCT015 BKN250 22/20 A3000 RMK FEW120 BECMG=
200707180100 METAR MROC 180100Z 23003KT 9999 VCFG FEW005 SCT015 BKN100 21/20 A3002 RMK VIS 7000SW BECMG=
200707180200 METAR MROC 180200Z 00000KT 9999 SCT012 SCT250 21/20 A3004 RMK FEW120 BECMG=
200707180300 METAR MROC 180300Z 04004KT 9999 FEW010 OVC250 21/19 A3004 BECMG=
200707180400 METAR MROC 180400Z 06007KT CAVOK 21/15 A3004 TRAZAS SCT OVC250 BECMG=
200707180500 METAR MROC 180500Z 07007KT CAVOK 22/14 A3003 TRAZAS SCT SCT130 BKN250 BECMG=
200707180600 METAR MROC 180600Z 05008KT CAVOK 21/14 A3001 SCT130 BKN250 TRAZAS SCT BECMG=
200707180700 METAR MROC 180700Z 04009KT CAVOK 21/15 A2998 SCT130 BKN250 TRAZAS SCT BECMG=
200707180800 METAR MROC NIL=
200707180900 METAR MROC 180900Z 29005KT 9999 4000SW BR FEW003 BKN008 19/18 A2999 VSBYS SW W 4KM DUE LOW ST BECMG 5000=
200707181000 METAR MROC 181000Z 13003KT 9999 FEW005 BKN012 19/18 A2999 BECMG=
200707181100 METAR MROC 181100Z 12002KT CAVOK 19/17 A2999 TRAZAS SCT SCT250 CB LTNG DST S BECMG=
200707181200 METAR MROC 181200Z 06007KT CAVOK 19/16 A3000 FEW250 TRAZAS SC CB/LTNG DST S BECMG=
200707181300 METAR MROC 181300Z 02008KT 9999 FEW035 BKN250 22/16 A3001 RMK RN DST S SSW BECMG=
200707181400 METAR MROC 181400Z 10011KT CAVOK 25/17 A3001 RMK TRACE SC SCT120 BKN250 RN DST S SW BECMG=
200707181500 METAR MROC 181500Z 11012KT 9999 FEW025 BKN120 24/17 A3001 RMK FEW250 RN DST S SW W GUST 18KT BECMG=
200707181600 METAR MROC 181600Z 12007KT 9999 -RA FEW035 BKN120 24/17 A3004 RMK SCT250 RN DST S SW W BECMG 24006KT=
200707181700 METAR MROC 181700Z 09005KT CAVOK 24/18 A3003 RMK TRACE SC BKN120 SCT250 BECMG 24006KT=
200707181800 METAR MROC 181800Z 28008KT 9999 VCFG FEW003 BKN120 22/19 A3003 RMR VIS 7000SW RN DST SW W BECMG=
200707181900 METAR MROC 181900Z 28005KT 9999 VCFG FEW003 SCT015 BKN120 22/19 A3002 RMK VIS 7000SW RN DST S SW W BECMG=
200707182000 METAR MROC 182000Z 23004KT 9999 FEW003 SCT012 BKN120 23/19 A3000 BECMG=
200707182100 METAR MROC 182100Z 09004KT 9999 FEW015 BKN120 25/19 A2997 BECMG=
200707182200 METAR MROC 182200Z 11008KT 9999 FEW035 BKN120 24/17 A2996 RMK RN DST E ESE CB DST SE BECMG=
200707182300 METAR MROC 182300Z 10011KT CAVOK 23/16 A2999 RMK TRACE ST SC SCT100 BKN160 RN DST E BECMG=
200707190000 METAR MROC 190000Z 10011KT 9999 -RA OVC100 21/16 A2999 RMK TRACE SC BECMG=
200707190100 METAR MROC 190100Z 10012KT 9999 -DZ OVC100 21/16 A3001 RERA BECMG=
200707190200 METAR MROC 190200Z 10011KT CAVOK 21/16 A3001 RMK OVC100 REDZ BECMG=
200707190300 METAR MROC 190300Z 11009KT CAVOK 21/16 A3002 RMK BKN100 BECMG=
200707190400 METAR MROC 190400Z 10003KT CAVOK 22/18 A3003 RMK BKN110 BECMG=
200707190500 METAR MROC 190500Z 09007KT CAVOK 21/16 A3004 RMK BKN110 BECMG=
200707190600 METAR MROC 190600Z 07008KT CAVOK 20/16 A3004 RMK BKN110 BECMG=
200707190700 METAR MROC 190700Z 04007KT CAVOK 19/16 A2999 RMK BKN110 BECMG=
200707190800 METAR MROC 190800Z 05006KT CAVOK 19/16 A2998 RMK BKN110 BECMG=
200707190900 METAR MROC 190900Z 03005KT CAVOK 19/16 A2997 RMK BKN110 BECMG=
200707191000 METAR MROC 191000Z 03006KT CAVOK 19/16 A2996 RMK BKN110 BECMG=
200707191100 METAR MROC 191100Z 02004KT CAVOK 19/16 A2998 RMK BKN110 BECMG=
200707191200 METAR MROC 191200Z 34004KT 9999 FEW030 SCT080 19/17 A3000 BECMG=
200707191300 METAR MROC 191300Z VRB02KT 9999 FEW030 SCT120 21/16 A3001 RMK LGT HZ ARND BECMG=
200707191400 METAR MROC 191400Z 24003KT 9999 FEW025 SCT120 23/17 A3001 RMK FEW300 HZY BECMG=
200707191500 METAR MROC 191500Z VRB03KT 9999 FEW025 SCT300 26/17 A3001 RMK HZY BECMG=
200707191600 METAR MROC 191600Z 23010KT 9999 FEW025 SCT300 25/19 A3002 RMK FEW AC HZY BECMG=
200707191700 METAR MROC 191700Z 23010KT 9999 FEW030 SCT300 24/19 A3002 RMK FEW120 TCU DST S HZY BECMG=
200707191800 METAR MROC 191800Z 24010KT 9999 FEW020TCU SCT030 25/20 A3001 RMK FEW AC CI HZY BECMG=
200707191900 METAR MROC 191900Z 23011KT 9999 SCT020TCU SCT030 25/20 A3000 RMK RN DST N E BECMG 6000 VCSH HZY=
200707192000 METAR MROC 192000Z 23010KT 9999 -TS VCSH FEW012CB SCT025 BKN120 23/20 A2998 RMK VIS E 7KMS BECMG 3000 TSRA=
200707192100 METAR MROC 192100Z 26008KT 9999 3000N VCSH FEW012TC SCT025 BKN100 23/19 A2997=
200707192200 METAR MROC 192200Z 22006KT 9999 SCT025 BKN100 23/19 A2997 BECMG=
200707192300 METAR MROC 192300Z 17003KT 4000 RA VCSH SCT024 BKN100 22/19 A2998 RMK VIS N UNL BECMG=
200707200000 METAR MROC 200000Z 12002KT 9999 SCT025 OVC100 21/19 A3000 RERA BECMG=
200707200100 METAR MROC 200100Z 00000KT 9999 FEW035 BKN100 21/19 A3000 BECMG=
200707200159 METAR MROC 200159Z 27004KT 9999 -RA FEW008 BKN100 21/20 A3003 RMK VIS SW 8KM DUE LOW ST BECMG 5000 -RA BR=
200707200200 METAR MROC 200200Z 27004KT 9999 -RA FEW008 BKN100 21/20 A3003 RMK VIS SW 8KM DUE LOW ST BECMG 5000 -RA BR=
200707200300 METAR MROC 200300Z 10002KT 9999 FEW008 BKN100 20/19 A3004 RMK VIS 8000SW DUE LOW ST LTNG S BECMG=
200707200400 METAR MROC 200400Z 07007KT 9999 FEW035 BKN120 21/18 A3004 BECMG=
200707200500 METAR MROC 200500Z 06009KT 9999 FEW025 SCT120 21/17 A3003 BECMG=
200707200600 METAR MROC 200600Z 09006KT 9999 FEW025 SCT120 21/17 A3001 BECMG=
200707200700 METAR MROC 200700Z 09011KT CAVOK 21/16 A2997 RMK TRACE SC SCT120=
200707200800 METAR MROC 200800Z 07008KT CAVOK 22/16 A2996 RMK SCT120=
200707200900 METAR MROC 200900Z 29004KT 9999 FEW025 SCT120 19/18 A2996 RMK TRACE ST SCT250 LTNG SSW=
200707201000 METAR MROC 201000Z 09010KT CAVOK 19/17 A2996 RMK TRACE SC ST FEW120 SCT250 LTNG DST SSW=
200707201100 METAR MROC 201100Z 11014KT 9999 FEW020 SCT120 BKN250 21/16 A2995=
200707201200 METAR MROC 201200Z 09009KT 9999 FEW025 BKN250 21/16 A2997 RMK TRACE ST AC CB DST SSW=
200707201300 METAR MROC 201300Z 09006KT 9999 FEW035 BKN250 23/17 A3000 BECMG=
200707201400 METAR MROC 201400Z 09011KT 9999 FEW035 BKN250 25/16 A3000 BECMG=
200707201500 METAR MROC 201500Z 10007KT 9999 FEW035 BN250 26/15 A3001 BECMG=
200707201600 METAR MROC 201600Z 04007KT 9999 FEW035 BKN250 28/17 A3002 BECMG=
200707201700 METAR MROC 201700Z 22005KT 9999 SCT035 BKN250 26/19 A3000 BECMG=
200707201800 METAR MROC 201800Z 24008KT 9999 SCT035 BKN250 25/21 A2999 BECMG=
200707201900 METAR MROC 201900Z 22008KT 9999 SCT025 BKN250 26/21 A2996 BECMG=
200707202000 METAR MROC 202000Z 24009KT 9999 SCT025 BKN250 25/21 A2994 BECMG=
200707202100 METAR MROC 202100Z 23010KT 9999 SCT15 BKN250 25/21 A2994 BECMG=
200707202200 METAR MROC 202200Z 23008KT 9999 FEW012 SCT025 BKN250 24/21 A2993 BECMG=
200707202300 METAR MROC 202300Z 22007KT 9999 FEW008 SCT035 BKN250 23/20 A2995 VSBY N 6KM DUE LOW ST BECMG=
200707210000 METAR MROC 210000Z 22008KT 9999 -RA BR SCT006 SCT025 21/20 A2997 VSBY NW N NE 5KM DUE LOW ST BECMG=
200707210100 METAR MROC 210100Z 27006KT 9999 4000NW BR FEW002 SCT006 BKN120 21/19 A3001 BECMG=
200707210200 METAR MROC 210200Z 00000KT 9999 FEW003 SCT020 BKN100 21/20 A3004 RMK VIS=
200707210300 METAR MROC 210300Z 00000KT 9999 VCFG FEW005 SCT010 BKN250 21/19 A3002 RMK VIS 7KMS TO WSW=
200707210400 METAR MROC 210400Z 00000KT 9999 VCFG FEW005 SCT010 BKN250 21/19 A3004 RMK VIS W WNW 8KMS=
200707210500 METAR MROC 210500Z 00000KT 9999 FEW010 BKN250 21/19 A3004=
200707210600 METAR MROC 210600Z 00000KT 9999 VCFG FEW0120 BKN250 20/18 A3003 VIS SW WSW 5KMS=
200707210700 METAR MROC 210700Z 00000KT 0500 FG VV/// 19/19 A3002 RMK VIS N 1500=
200707210800 METAR MROC 210800Z 02005KT 5000 BR FEW001 SCT006 BKN025 19/18 A3001 VIS E ESE UNLTD=
200707210900 METAR MROC 210900Z 03003KT 9999 VCFG FEW005 SCT025 BKN120 19/18 A2999 VIS SW WSW 7KMS=
200707211000 METAR MROC 211000Z 04004KT 9999 FEW025 SCT120 BKN250 19/16 A3000 RMK LGT HZ ARND=
200707211100 METAR MROC 211100Z 06007KT CAVOK 18/16 A3000 RMK TRACE SC SCT120 SCT250=
200707211200 METAR MROC 211200Z 02005KT CAVOK 19/16 A3002 RMK TRACE SC FEW120 BKN250 HZY=
200707211300 METAR MROC 211300Z 08005KT CAVOK 22/17 A3003 TRAZAS SCT BKN270 CB DST S BECMG=
200707211400 METAR MROC 211400Z 09005KT CAVOK 25/17 A3005 TRAZAS SCT SCT270 CB DST S BECMG=
200707211500 METAR MROC 211500Z VRB03KT CAVOK 27/18 A3005 SCT270 TRAZAS SCT BECMG=
200707211600 METAR MROC 211600Z 25005KT 9999 SCT020 SCT250 26/20 A3004 BECMG=
200707211700 METAR MROC 211700Z 22010KT 9999 SCT025 SCT270 25/20 A3004 BECMG=
200707211800 METAR MROC 211800Z 23008KT 9999 SCT025 SCT270 26/20 A3002 BECMG=
200707211900 METAR MROC 211900Z 22008KT 7000 TSRA FEW012CB BKN025 25/20 A3000 VSBY S SW W UNL VSBY E 4KM DUE RASH BECMG=
200707212000 METAR MROC 212000Z 32007KT 9999 -RA FEW012CB SCT025 BKN120 20/19 A3000 VSBY W 6KM DUE RN/TS BECMG=
200707212100 METAR MROC 212100Z 06003KT 9999 VCSH SCT020TCU BKN120 22/19 A2999 RMK RSHT TS DST W E BECMG=
200707212200 METAR MROC 212200Z 15003KT 9999 SCT020 BKN120 23/19 A2998 BECMG=
200707212300 METAR MROC 212300Z 25005KT 8000 VCFG FEW003 SCT020 BKN100 22/19 A3000 RMK BECMG=
200707220000 METAR MROC 220000Z 00000KT 7000 VCFG FEW003 SCT020 BKN120 21/20 A3001 BECMG=
200707220100 METAR MROC 220100Z 00000KT 7000 VCFG FEW003 SCT020 BKN120 21/20 A3003 BECMG=
200707220200 METAR MROC 220200Z 00000KT 9999 FEW003 SCT020 BKN100 21/20 A3004 RMK VIS=
200707220300 METAR MROC 220300Z 05003KT 9999 FEW030 SCT120 20/18 A3004 BECMG=
200707220400 METAR MROC 220400Z 15002KT 9999 FEW030 SCT120 20/19 A3006 RMK VIS SW/W 4KMS DUE ST BAJOS=
200707220500 METAR MROC 220500Z 23003KT 9999 2000SW BR FEW002 SCT008 BKN120 20/19 A3006 BECMG=
200707220600 METAR MROC 220600Z 00000KT 9999 3000SW BR FEW002 SCT008 BKN120 20/19 A3004 BECMG=
200707220700 METAR MROC 220700Z 05003KT 9999 FEW008 BKN120 20/19 A3001 BECMG CAVOK=
200707220800 METAR MROC 220800Z 33003KT CAVOK 19/18 A3000 RMK SCT120=
200707220900 METAR MROC 220900Z 11002KT CAVOK 18/17 A2999 RMK SCT129=
200707221000 METAR MROC 221000Z 02004KT CAVOK 18/17 A2999 RMK SCT120=
200707221100 METAR MROC 221100Z 03004KT CAVOK 18/16 A3001 RMK FEW120 SCT250=
200707221200 METAR MROC 221200Z 03004KT CAVOK 19/16 A3002 RMK FEW120 SCT250=
200707221300 METAR MROC 221300Z 08002KT CAVOK 20/17 A3004 RMK BKN120 TRACE SC=
200707221400 METAR MROC 221400Z 09003KT CAVOK 23/18 A3004 RMK KBN120 BECMG=
200707221500 METAR MROC 221500Z 00000KT 9999 FEW030 BKN140 27/12 A3003 BECMG=
200707221600 METAR MROC 221600Z 23010KT 9999 SCT030 BKN140 25/20 A3003 BECMG=
200707221700 METAR MROC 221700Z 24009KT 9999 SCT030 BKN150 26/19 A3003 BECMG=
200707221800 METAR MROC 221800Z 27007KT 9999 SCT020TCU BKN140 27/19 A3002 RMK TCU RN N NE=
200707221900 METAR MROC 221900Z 23008KT 9999 VCSH SCT020TCU BKN140 25/19 A2999 RMK TCU RN N NE E BECMG 8000 VCSH=
200707222000 METAR MROC 222000Z 23008KT 9999 VCSH FEW010CB SCT020 BKN100 24/20 A2998 RMK RN N NE E BECMG 6000 TS RA=
200707222100 METAR MROC 222100Z 09007KT 3000 -TSRA SCT008CB BKN020 20/18 A2998 RMK 7000N BECMG=
200707222200 METAR MROC 222200Z 27004KT 7000 3000SW -RA BR FEW003 SCT020 BKN090 20/19 A2999 BECMG=
200707222300 METAR MROC 222300Z 28002KT 5000 2000SW -RA BR FEW002 SCT012 BKN080 20/18 A3003 BECMG=
200707230000 METAR MROC 230000Z 00000KT 6000 RA FEW003 SCT010 BKN080 19/18 A3003 RMK 4000SW RA BR BECMG=
200707230100 METAR MROC 230100Z 06006KT 9999 -RA FEW030 OVC100 19/18 A3003 BECMG=
200707230200 METAR MROC 230200Z 00000KT 9999 -DZ FEW002 SCT030 19/18 A3005 BECMG0=
200707230300 METAR MROC 230300Z 00000KT CAVOK 19/18 A3005 TRAZAS SCT BKN120 BECMG=
200707230400 METAR MROC 230400Z 05003KT CAVOK 19/18 A3004 BKN120 TRAZAS SCT BECMG=
200707230500 METAR MROC 230500Z 08004KT CAVOK 19/18 A3001 BKN120 BECMG=
200707230600 METAR MROC 230600Z 06005KT CAVOK 19/17 A3001 TRAZAS SCT BKN120 BECMG=
200707230700 METAR MROC 230700Z 05004KT 9999 19/17 A3001 BKN120 BECMG=
200707230800 METAR MROC 230800Z 06003KT CAVOK 19/17 A2999 TRAZAS SC SCT120 BECMG=
200707230900 METAR MROC 230900Z 05004KT CAVOK 19/17 A2998 SCT250 BECMG=
200707231000 METAR MROC 231000Z 07006KT CAVOK 18/16 A2998 SCT250 BECMG=
200707231100 METAR MROC 231100Z 03008KT CAVOK 18/16 A2999 TRAZAS SCT SCT270 BECMG=
200707231200 METAR MROC 231200Z 06004KT CAVOK 18/16 A3001 BKN270 TRAZAS SCT CB DST S BECMG=
200707231300 METAR MROC 231300Z 08003KT CAVOK 20/17 A3003 RMK SCT120 SCT270 CB DST S BECMG=
200707231400 METAR MROC 231400Z 09003KT CAVOK 23/17 A3003 RMK SCT270 CB DST S BECMG=
200707231500 METAR MROC 231500Z 29005KT 9999 FEW030 BKN260 24/18 A3003 CB DST S=
200707231600 METAR MROC 231600Z 26005KT 9999 FEW025 BKN250 25/18 A3003 CB DST SW FEW AC=
200707231700 METAR MROC 231700Z 28008KT 9999 SCT025 BKN250 26/19 A3003 RMK FEW120 BECMG=
200707231800 METAR MROC 231800Z 24008KT 9999 SCT025 SCT250 27/20 A3001 RMK FEW120 BECMG=
200707231900 METAR MROC 231900Z 23009KT 9999 -TS VCSH SCT015CB SCT025 25/18 A2999 RMK FEW250 7000SE BECMG 6000 -TSRA=
200707232000 METAR MROC 232000Z 23009KT 9999 FEW015CB SCT030 SCT120 23/21 A2997 RETS RMK TCU SCTD ARND BECMG=
200707232100 METAR MROC 232100Z 22012KT 7000 VCSH SCT005 FEW015CB BKN025 23/20 A2995 RMK BECMG 3000 TSRA=
200707232200 METAR MROC 232200Z 19003KT 8000 3000N -TSRA FEW015CB SCT025 BKN100 21/20 A2995 RMK TRACE ST VIS S UNLTD BECMG 5000 -RA BR=
200707232300 METAR MROC 232300Z 23004KT 5000 BR FEW002 SCT030 BKN100 21/20 A2996 RMK VIS E S UNLTD BECMG 2000=
200707240000 METAR MROC 240000Z 24004KT 9999 VCFG BKN025 SCT100 21/19 A2998 VIS 8KMS TO N BECMG=
200707240100 METAR MROC 240100Z 23004KT 9999 -RA SCT030 BKN100 20/19 A3000 RMK TRACE ST BECMG=
200707240200 METAR MROC 240200Z 31002KT 8000 3000SW -RA BR FEW002 SCT030 BKN100 29/19 A3001 BECMG=
200707240300 METAR MROC 240300Z 11006KT 4000 TSRA FEW010CB SCT020 OVC100 19/18 A3006 BECMG=
200707240400 METAR MROC 240400Z 03007KT 9000 -RA FEW030 BKN10 19/17 A3006 BECMG=
200707240500 METAR MROC 240500Z 09006KT 9999 FEW030 BKN110 19/17 A3001 BECMG=
200707240600 METAR MROC 240600Z 06005KT 9999 FEW030 BKN110 18/16 A2996 BECMG=
200707240700 METAR MROC 240700Z 07005KT CAVOK 18/16 A2996 RMK SCT120 BECMG=
200707240800 METAR MROC NIL=
200707240900 METAR MROC 240900Z 34003KT CAVOK 18/16 A2998 RMK SCT120 BECMG=
200707241000 METAR MROC 241000Z 09004KT CAVOK 17/16 A2997 RMK SCT 120 BECMG=
200707241100 METAR MROC 241100Z 08005KT CAVOK 17/15 A2997 BKN250 A2997 BECMG=
200707241200 METAR MROC 241200Z 08005KT CAVOK 18/16 A2998 RMK CB DST SW BKN250=
200707241300 METAR MROC 241300Z 08006KT CAVOK 21/16 A3000 RMK TRACE SC BKN300 CB DST S BECMG=
200707241400 METAR MROC 241400Z 06006KT CAVOK 24/17 A3000 RMK SCT300 TRACE SC CB DST S BECMG=
200707241500 METAR MROC 241500Z 08006KT CAVOK 27/17 A3000 RMK TRACE SC SCT140 CB DST S BECMG=
200707241600 METAR MROC 241600Z 22006KT CAVOK 25/19 A3000 RMK TRACE SC FEW140 BECMG=
200707241700 METAR MROC 241700Z 25006KT 9999 FEW040 26/18 A2998 RMK FEW300 BECMG=
200707241800 METAR MROC 241800Z 21006KT 9999 FEW035 SCT300 26/19 A2996 RMK CB DST SE BECMG=
200707241900 METAR MROC 241900Z 23008KT 9999 SCT025 SCT300 27/20 A2996 RMK BECMG=
200707242000 METAR MROC 242000Z 25004KT 9999 -TS FEW015CB BKN025 24/20 A2994 RMK RASH DST E NE N NW BECMG 2000 TSRA=
200707242100 METAR MROC 242100Z 25010KT 9999 3000 N RA FEW015CB BKN025 21/20 A2992 RMK VIS E 3000 VCSH BECMG=
200707242200 METAR MROC 242200Z 24011KT 7000 2000SW -TSRA FEW005 SCT015CB BKN025 20/19 A2992 RMK VIS N NE 3000MTS BECMG=
200707242300 METAR MROC 242300Z 22003KT 9999 SCT025 SCT100 21/19 A2992 RERA RMK RASH DST SW VIS N 3000MTS BECMG=
200707250000 METAR MROC 250000Z 31002KT 9999 FEW010 SCT030 BKN100 20/19 A2996 BECMG=
200707250100 METAR MROC 250100Z 28002KT 9999 FEW030 BKN100 21/19 A2998 BECMG=
200707250200 METAR MROC 250200Z 27002KT 9999 FEW030 SCT110 BKN250 21/19 A2999 BECMG 09005KT=
200707250300 METAR MROC 250300Z 00000KT 9999 SCT025 BKN100 20/19 A3002 BECMG=
200707250400 METAR MROC 250400Z 10002KT 9999 FEW030 BKN110 20/19 A3004 BECMG=
200707250500 METAR MROC 250500Z 05002KT 9999 -DZ FEW030 BKN100 20/19 A3003 BECMG=
200707250600 METAR MROC 250600Z 06005KT CAVOK 19/18 A3000 RMK TRACE SC FEW120 SCT250 BECMG=
200707250700 METAR MROC 250700Z 07005KT CAVOK 19/18 A2999 RMK BKN250 BECMG=
200707250800 METAR MROC 250800Z 05008KT CAVOK 18/16 A2997 RMK SCT250 BECMG=
200707250900 METAR MROC 250900Z 17004KT 9999 FEW006 SCT250 18/17 A2996 RMK ST S BECMG 6000 VCFG FEW004=
200707251000 METAR MROC 251000Z 33003KT 9999 FEW006 SCT250 18/17 A2996 RMK SCT SSE BECMG=
200707251100 METAR MROC 251100Z 04003KT 9999 FEW015 SCT120 18/16 A2996 RMK FEW250 BECMG=
200707251200 METAR MROC 251200Z 10002KT CAVOK 17/16 A2996 RMKTRACE SCT AC SCT250 TCU DST SSW SW BECMG=
200707251300 METAR MROC 251300Z 05005KT CAVOK 21/17 A3000 RMK TRACE SC AC SCT250 TCU DST SSW SW BECMG=
200707251400 METAR MROC 251400Z 07005KT CAVOK 24/18 A3001 RMK TRACE SC BKN250 TCU DST SW BECMG=
200707251500 METAR MROC 251500Z 00000KT 9999 FEW045 BKN250 25/18 A3002 BECMG=
200707251600 METAR MROC 251600Z 24005KT 9999 FEW045 SCT110 BKN250 26/18 A3003 BECMG=
200707251700 METAR MROC 251700Z 30003KT 9999 FEW045 SCT110 BKN250 25/19 A3002 BECMG=
200707251800 METAR MROC 251800Z 00000KT 9999 FEW045 SCT110 BKN250 28/18 A2997 BECMG=
200707251900 METAR MROC 251900Z 00000KT 9999 FEW045 SCT110 BKN250 28/18 A2997 BECMG=
200707252000 METAR MROC 252000Z 24011KT 9999 FEW030 SCT110 BKN250 24/21 A2995 BECMG 7000 VCSH=
200707252100 METAR MROC 252100Z 01009KT 9999 SCT008 BKN035 23/19 A2998 VSBY W 5KM DUE RN BECMG 6000 RA=
200707252200 METAR MROC 252200Z 28008KT 9999 FEW010 BKN120 21/19 A2998 BECMG=
200707252300 METAR MROC 252300Z 18002KT 9999 FEW020 BKN120 21/19 A2997 BECMG=
200707260000 METAR MROC 260000Z 00000KT 9999 FEW015 SCT120 21/19 A2998 BECMG=
200707260100 METAR MROC 260100Z 10002KT CAVOK 20/19 A2998 TRAZAS SCT SCT130 BECMG=
200707260200 METAR MROC 260200Z 01004KT CAVOK 21/19 A3002 BKN130 TRAZAS SCT BECMG=
200707260300 METAR MROC 260300Z 09006KT CAVOK 20/17 A3003 RMK TRACE SC SCT130 FEW250 BECMG=
200707260400 METAR MROC 260400Z 07005KT CAVOK 20/16 A3003 RMK TRACE SC SCT140 BECMG=
200707260500 METAR MROC 260500Z 02004KT CAVOK 19/16 A3002 RMK TRACE SC SCT140 BECMG=
200707260600 METAR MROC 260600Z 10004KT CAVOK 19/15 A3001 RMK TRACE SC SCT140 BECMG=
200707260700 METAR MROC 260700Z 04006KT CAVOK 19/15 A2998 RMK SCT140 BECMG=
200707260800 METAR MROC 260800Z 06009KT CAVOK 19/14 A2997 RMK TRACE SC SCT140 BECMG=
200707260900 METAR MROC 260900Z 05006KT CAVOK 19/14 A2996 RMK TRACE SC SCT140 BECMG=
200707261000 METAR MROC 261000Z 36005KT CAVOK 18/14 A2997 RMK TRACE SC SCT140 FEW250=
200707261100 METAR MROC 261100Z 06004KT CAVOK 18/14 A2998 RMK TRACE AC SCT250 BECMG=
200707261200 METAR MROC 261200Z 02004KT CAVOK 17/14 A3000 RMK TRACE AC SCT250 CB DST SSE S SW BECMG=
200707261300 METAR MROC 261300Z 03004KT CAVOK 21/15 A3001 TRAZAS SCT SCT280 CB DST S BECMG=
200707261400 METAR MROC 261400Z 00000KT CAVOK 24/16 A3002 BKN280 CB DST S BECMG=
200707261500 METAR MROC 261500Z 29003KT CAVOK 24/15 A3004 BKN280 BECMG CB DST S=
200707261600 METAR MROC 261600Z 29003KT CAVOK 24/15 A3004 TRAZAS SCT BKN280 CB DST SW BECMG=
200707261700 METAR MROC 261700Z 23006KT 9999 FEW025 BKN280 26/18 A3003 BECMG=
200707261800 METAR MROC 261800Z 24004KT 9999 FEW030 BKN280 17/19 A3000 BECMG=
200707261900 METAR MROC 261900Z 22005KT 9999 SCT025 BKN280 27/20 A2997 BECMG=
200707262000 METAR MROC 262000Z 23009KT 9999 FEW020TCU OVC250 26/20 A2994 TCU S BECMG=
200707262100 METAR MROC 262100Z 24011KT 9999 SCT020TCU OVC250 24/21 A2994 BECMG=
200707262200 METAR MROC 262200Z 23008KT 8000 VCFG FEW010 SCT020 OVC250 23/21 A2995 RMK BECMG 5000 VCFG=
200707262300 METAR MROC 262300Z 23006KT 5000 BR FEW006 SCT020 OVC250 22/20 A2995 RMK BECMG 3000 BR=
200707270000 METAR MROC 270000Z 22005KT 3000 BR FEW002 BKN015 OVC250 21/20 A2997 RMK BECMG 1500 BR=
200707270100 METAR MROC 270100Z 00000KT 6000 VCFG FEW003 SCT020 BKN250 21/20 A3000 BECMG=
200707270200 METAR MROC 270200Z 30002KT 8000 VCFG FEW005 SCT025 BKN250 21/20 A3001 BECMG 05003KT 9999=
200707270300 METAR MROC NIL=
200707270400 METAR MROC 270400Z 25003KT 9999 FEW035 BKN250 21/20 A3001 BECMG=
200707270500 METAR MROC 270500Z 04006KT CAVOK 21/17 A3001 BECMG=
200707270600 METAR MROC 270600Z 30003KT CAVOK 20/19 A2998 RMK BKN250 BECMG=
200707270700 METAR MROC 270700Z 32004KT CAVOK 20/19 A2997 BECMG=
200707270800 METAR MROC 270800Z 01002KT CAVOK 20/18 A2998 RMK BKN250 BECMG=
200707270900 METAR MROC 270900Z 05016KT CAVOK 19/18 A2996 RMK SCT250 LTNG DST SW BECMG=
200707271000 METAR MROC 271000Z 11010KT CAVOK 20/17 A2996 RMK TRACE SC SCT250 LTNG DST SW=
200707271100 METAR MROC 271100Z 09009KT CAVOK 21/16 A2995 RMK TRACE SC FEW120 SCT250 BECMG=
200707271200 METAR MROC 271200Z 05009KT CAVOK 20/16 A2997 TRACE SCT AC BKN250 CB DST SW BECMG=
200707271300 METAR MROC 271300Z 23003KT CAVOK 23/17 A3001 RMK TRACE AC BKN250=
200707271400 METAR MROC 271400Z 30003KT CAVOK 25/17 A3001 RMK TRACE SC BKN250=
200707271500 METAR MROC 271500Z 22006KT CAVOK 26/19 A3000 RMK TRACE SC BKN250 BECMG=
200707271600 METAR MROC 271600Z 26008KT 9999 FEW035 BKN250 26/20 A3001 BECMG=
200707271700 METAR MROC 271700Z 23009KT 9999 SCT030 BKN250 26/19 A3000 BECMG=
200707271800 METAR MROC 271800Z 21008KT 9999 SCT025 BKN250 26/20 A2998 RMK CB RN N DVLPNG TCU ARND BECMG=
200707271900 METAR MROC 271900Z 24008KT 9999 5000NE TS VCSH BKN015CB 25/20 A2996 RMK CB RASH NE BECMG 3000 TSRA=
200707272000 METAR MROC 272000Z 34005KT 9999 -TSRA SCT015CB BKN100 21/18 A2996 BECMG=
200707272100 METAR MROC 272100Z 29004KT 9999 -RA VCSH SCT025 BKN100 21/18 A2995 RMK 7000SW BECMG=
200707272200 METAR MROC 272200Z 22003KT 9999 FEW008 SCT025 BKN090 20/18 A2995 RMK RN DST E NE BECMG=
200707272300 METAR MROC 272300Z 03005KT 9999 FEW025 BKN120 21/18 A2996 BECMG=
200707280000 METAR MROC 280000Z 10004KT CAVOK 20/19 A2996 RMK TRACE SC AC BKN250 BECMG=
200707280100 METAR MROC 280100Z 00000KT CAVOK 21/19 A2999 RMK SCT100 BKN250 BECMG=
200707280200 METAR MROC 280200Z 00000KT CAVOK 21/19 A3000 RMK SCT120 BKN250 BECMG=
200707280300 METAR MROC 280300Z 34005KT CAVOK 21/18 A3000 BKN250 BECMG=
200707280400 METAR MROC NIL=
200707280500 METAR MROC 280500Z 05007KT CAVOK 20/17 A2998 BECMG=
200707280600 METAR MROC 280600Z 06006KT CAVOK 20/17 A2996 BECMG=
200707280700 METAR MROC 280700Z 04003KT CAVOK 21/19 A2994 BKN250 BECMG=
200707280800 METAR MROC 280800Z 06004KT CAVOK 20/19 A2993 BKN250 BECMG=
200707280900 METAR MROC 280900Z 05005KT CAVOK 19/16 A2992 FEW120 SCT250 BECMG=
200707281000 METAR MROC 281000Z 04008KT CAVOK 20/17 A2991 SCT280 BECMG=
200707281100 METAR MROC 281100Z 06010KT CAVOK 20/16 A2991 SCT280 CB DST S BECMG=
200707281200 METAR MROC 281200Z 06007KT CAVOK 20/16 A2993 TRAZAS SCT SCT280 CB DST S BECMG=
200707281300 METAR MROC 281300Z 05007KT CAVOK 23/17 A2996 RMK CB DST SW SCT250 BECMG=
200707281400 METAR MROC 281400Z 09010KT 9999 FEW030 SCT250 25/18 A2996 BECMG=
200707281500 METAR MROC 281500Z 10014KT 9999 FEW035 26/17 A2995 RMK TRACE CI CB DST SSW SW=
200707281600 METAR MROC 281600Z 11009KT 9999 FEW030 27/18 A2995 BECMG=
200707281700 METAR MROC 281700Z 14004KT 9999 SCT030 29/19 A2995 BECMG 24006KT=
200707281800 METAR MROC 281800Z 26012KT 9999 FEW020TCU SCT030 26/20 A2993 RMK TCU NE DZ DST NNE=
200707281900 METAR MROC 281900Z 23009KT 9999 FEW015TCU SCT025 28/21 A2990 RMK FEW250 RN DST SW SSW NNE BECMG 7000 VCSH=
200707282000 METAR MROC 282000Z 23010KT 9999 -TSRA SCT015CB SCT025 26/21 A2988 RMK 7000NE BECMG=
200707282100 METAR MROC 282100Z 29014KT 9999 2000SW +TSRA SCT012CB SCT025TCU 21/20 A2987 HVY TS OVER APCH RNWY 07 BECMG 7000=
200707282200 METAR MROC 282200Z 00000KT 9999 TS VCSH FEW015CB SCT025 BKN100 20/19 A2990 RMK RERA VIS 7KMS W BECMG=
200707282300 METAR MROC 282300Z 34002KT 9999 FEW025 OVC100 21/20 A2992 RETSRA BECMG=
200707290000 METAR MROC 290000Z 05009KT CAVOK 22/19 A2992 RMK TACE SC SCT080 BKN120 BECMG=
200707290100 METAR MROC 290100Z 12005KT CAVOK 22/19 A2992 RMK SCT100 BKN120 TRACE SC BECMG=
200707290200 METAR MROC 290200Z 28004KT CAVOK 21/19 A2993 RMK TRACE ST SC BKN120 BECMG 7000 VCFG=
200707290300 METAR MROC 290300Z 33003KT CAVOK 21/19 A2996 RMK SCT080 BKN120 BECMG=
200707290400 METAR MROC 290400Z 03005KT CAVOK 20/17 A2995 RMK SCT090 SCT120 BECMG=
200707290500 METAR MROC 290500Z 08003KT CAVOK 19/17 A2995 RMK SCT080 SCT130 BECMG=
200707290600 METAR MROC 290600Z 02006KT 9999 FEW045 20/17 A2995 BECMG=
200707290700 METAR MROC 290700Z 08003KT 9999 FEW045 19/17 A2994 BECMG=
200707290800 METAR MROC 290800Z 04005KT 9999 FEW045 19/17 A2992 BECMG=
200707290900 METAR MROC 290900Z 02007KT CAVOK 19/17 A2991 RMK TSTM DST S BKN250 BECMG=
200707291000 METAR MROC 291000Z 06004KT CAVOK 19/17 A2990 BECMG=
200707291100 METAR MROC 291100Z 31003KT CAVOK 18/16 A2992 TRACE SCT BKN250 BECMG=
200707291200 METAR MROC 291200Z 05005KT CAVOK 19/16 A2992 RMK TRACE SC BKN250 BECMG=
200707291300 METAR MROC 291300Z 07002KT CAVOK 23/17 A2995 RMK FEW140 BKN250 CB DST WSW BECMG=
200707291400 METAR MROC 291400Z 08007KT CAVOK 26/18 A2994 RMK CB FEW140 BKN250 DST SW BECMG=
200707291500 METAR MROC 291500Z 10010KT CAVOK 26/17 A2992 RMK TRACE CU AC BKN250 BECMG 24007KT=
200707291600 METAR MROC 291600Z 10013KT 9999 FEW025 BKN250 27/17 A2993 RMK TRACE AC BECMG 24007KT=
200707291700 METAR MROC 291700Z 13007KT 9999 FEW025 BKN250 28/17 A2993 RMK BECMG 24007KT=
200707291800 METAR MROC 291800Z 22008KT 9999 SCT025 BKN250 25/21 A2994 BECMG=
200707291900 METAR MROC 291900Z 27009KT 9999 FEW015TCU SCT025 BKN250 25/20 A2993 RMK PCPN DST NNW BECMG=
200707292000 METAR MROC 292000Z 23007KT 9999 VCSH FEW015CB SCT025 BKN250 26/20 A2991 VIS ENE 7KMS BECMG 3000 TSRA=
200707292100 METAR MROC 292100Z 18004KT 9999 TSRA FEW015CB SCT025 BKN250 26/20 A2990 RK BECMG 8000MTS RA=
200707292200 METAR MROC 292200Z 07004KT 9999 -RA FEW025 BKN100 22/20 A2988 BECMG=
200707292300 METAR MROC 292300Z 07005KT 9999 FEW030 BKN100 22/18 A2989 BECMG=
200707300000 METAR MROC 300000Z 00000KT 9999 FEW030 BKN100 23/18 A2990 BECMG=
200707300100 METAR MROC 300100Z 09006KT CAVOK 22/18 A2991 RMK SCT100 BKN250 BECMG=
200707300200 METAR MROC 300200Z 26003KT CAVOK 21/18 A2993 RMK SCT120 BKN250 TRACE SC=
200707300300 METAR MROC 300300Z 00000KT 7000 1500NE BR FEW002 SCT005 SCT250 21/20 A2996 BECMG 3000 BR=
200707300400 METAR MROC 300400Z 08002KT 9999 FEW008 SCT090 BKN250 19/18 A2997 BECMG=
200707300500 METAR MROC 300500Z 04005KT 9999 FEW025 SCT250 20/18 A2996 BECMG=
200707300600 METAR MROC 300600Z 05007KT CAVOK 20/17 A2994 RMK TRACE SC SCT250 CB DST S SW LTNG S BECMG=
200707300700 METAR MROC 300700Z 05008KT CAVOK 20/17 A2993 RMK SCT250 LINE CB LTNG DST S SW BECMG=
200707300800 METAR MROC 300800Z 03008KT CAVOK 20/17 A2993 RMK SCT250 LINE CB LTNG DST S SW BECMG=
200707300900 METAR MROC 300900Z 06009KT CAVOK 20/16 A2991 RMK FEW250 CB LTNG DST SSE S BECMG=
200707301000 METAR MROC 301000Z 03005KT CAVOK 20/16 A2991 RMK SCT250 CB LTNG DST S BECMG=
200707301100 METAR MROC 301100Z 06007KT CAVOK 19/16 A2991 RMK SCT250 CB LTNG DST S BECMG=
200707301200 METAR MROC 301200Z 13004KT CAVOK 19/16 A2993 RMK TRACE SC FEW120 BKN250 CB DST S SW=
200707301300 METAR MROC 301300Z 01004KT CAVOK 20/16 A2995 RMK FE120 BKN250 TRACE SC=
200707301400 METAR MROC 301400Z 09002KT CAVOK 25/17 A2997 RMK TRACE CU BKN250 BECMG=
200707301500 METAR MROC 301500Z 26005KT 9999 FEW040 BKN250 25/19 A2998 BECMG=
200707301600 METAR MROC 301600Z 22004KT 9999 FEW040 BKN250 26/19 A2997 BECMG=
200707301700 METAR MROC 301700Z 24006KT 9999 FEW035 BKN250 26/20 A2997 BECMG=
200707301800 METAR MROC 301800Z 23008KT 9999 FEW015CB SCT035 BKN250 26/20 A2995 BECMG=
200707301900 METAR MROC 301900Z 24006KT 9999 -RA FEW015CB SCT030 BKN110 24/21 A2994 BECMG RA=
200707302000 METAR MROC 302000Z 00000KT 9999 SCT030 BKN250 27/21 A2991 BECMG=
200707302100 METAR MROC 302100Z 25009KT 9999 FEW015 BKN250 27/21 A2988 FEW130 CB DST S BECMG=
200707302200 METAR MROC 302200Z 23010KT 9999 FEW008 SCT020 BKN250 25/20 A2987 CB S BECMG=
200707302300 METAR MROC 302300Z 23010KT 2000 RA BR SCT005 SCT020 BKN120 23/21 A2991 BECMG=
200707310000 METAR MROC 310000Z 25009KT 3000 TSRA BR SCT004CB SCT006 BKN015 22/21 A2994 TS N S BECMG=
200707310100 METAR MROC 310100Z 27004KT 6000 -RA BR SCT003 BKN008 21/20 A2996 TS DST SE BECMG=
200707310200 METAR MROC 310200Z 24004KT 9999 TS FEW008 OVC120 20/18 A2998 LTNG DST SE BECMG=
200707310300 METAR MROC 310300Z 00000KT 9999 -RA OVC120 20/19 A3000 RMK LTNG DST NNE BECMG=
200707310400 METAR MROC 310400Z 00000KT 9999 FEW010 OVC120 20/19 A3000 BECMG=
200707310500 METAR MROC 310500Z 07003KT CAVOK 20/19 A2997 TRACE ST OVC120 BECMG=
200707310600 METAR MROC 310600Z 04006KT CAVOK 20/19 A2995 RMK TRACE SC OVC120 BECMG=
200707310700 METAR MROC 310700Z 01006KT CAVOK 20/18 A2992 RMK TRACE SC SCT120 BKN250=
200707310800 METAR MROC 310800Z 07004KT CAVOK 21/17 A2990 RMK TRACE SC FEW120 BKN250=
200707310900 METAR MROC 310900Z 10013KT 9999 SCT030 BKN250 22/17 A2990 RMK LTNG DST S BECMG=
200707311000 METAR MROC 311000Z 04008KT 9999 FEW030 BKN250 21/17 A2991 BECMG=
200707311100 METAR MROC 311100Z 12006KT 9999 FEW030 BKN250 21/17 A2990 RMK BECMG TS DIST S/SW=
200707311200 METAR MROC 311200Z 11007KT CAVOK 21/17 A2991 RMK TRACE SC BKN250 BECMG=
200707311300 METAR MROC 311300Z 10007KT CAVOK 22/17 A2993 TRAZAS SCT BKN240 BECMG=
200707311400 METAR MROC 311400Z 11007KT CAVOK 25/18 A2993 TRAZAS SCT BKN240 BECMG=
200707311500 METAR MROC 311500Z 08008KT CAVOK 26/17 A2994 TRAZAS SCT BKN240 BECMG=
200707311600 METAR MROC 311600Z 08008KT CAVOK 28/18 A2993 TRAZAS SCT BKN250 BECMG=
200707311700 METAR MROC 311700Z 07008KT 9999 SCT040 BKN250 28/18 A2993 BECMG=
200707311800 METAR MROC 311800Z 21008KT 9999 FEW025 SCT040 BKN250 25/21 A2991 BECMG=
200707311900 METAR MROC 311900Z 25010KT 9999 VCSH FEW018CB BKN030 24/21 A2990 VSBY N 6KM DUE RASH BECMG=
200707312000 METAR MROC 312000Z 27006KT 9999 FEW015CB BKN025 24/21 A2990 RN DST NW SW BECMG=
200707312100 METAR MROC 312100Z 26008KT 9999 SCT010CB BKN025 24/20 A2989 RMK RN DST N NE BECMG=
200707312200 METAR MROC 312200Z 24008KT 9999 VCFG SCT010 BKN025 23/20 A2989 RMK VIS N NE 7000 DUE FG=
200707312300 METAR MROC 312300Z 22005KT 9999 SCT010 BKN025 22/19 A2990 BECMG=
200708010000 METAR MROC 010000Z 24006KT 9999 FEW010 BKN025 22/19 A2993 BECMG=
200708010100 METAR MROC 010100Z 23004KT 9999 SCT030 21/19 A2995 BECMG=
200708010200 METAR MROC 010200Z 03003KT 9999 FEW030 SCT130 21/19 A2996 BECMG=
200708010300 METAR MROC 010300Z 06005KT 9999 FEW030 SCT130 21/19 A2996 BECMG=
200708010400 METAR MROC 010400Z 05008KT 9999 FEW030 SCT130 BKN250 21/19 A2995 BECMG=
200708010500 METAR MROC 010500Z 10004KT 9999 FEW030 SCT130 BKN250 21/18 A2995 BECMG CAVOK=
200708010600 METAR MROC 010600Z 26008KT CAVOK 20/19 A2995 RMK TRACE SC FEW130 BKN250 BECMG=
200708010700 METAR MROC 010700Z 32002KT CAVOK 20/18 A2993 RMK TRACE SC AC BKN250 BECMG=
200708010800 METAR MROC 010800Z 32004KT 9999 FEW030 BKN250 19/17 A2991 BECMG=
200708010900 METAR MROC 010900Z 25002KT 9999 FEW030 BKN250 19/18 A2991 BECMG=
200708011000 METAR MROC 011000Z 02005KT 9999 FEW030 BKN250 19/17 A2990 BECMG=
200708011100 METAR MROC 011100Z 02005KT 9999 FEW030 SCT120 BKN250 19/16 A2991 BECMG=
200708011200 METAR MROC 011200Z 33003KT 9999 FEW035 SCT120 BKN250 21/17 A2991 BECMG=
200708011300 METAR MROC 011300Z 01004KT 9999 FEW035 BKN250 25/17 A2992 BECMG=
200708011400 METAR MROC 011400Z 11007KT 9999 FEW030 BKN250 25/18 A2993 BECMG=
200708011500 METAR MROC 011500Z 10013KT 9999 FEW035 SCT250 26/17 A2993 BECMG=
200708011600 METAR MROC 011600Z 11011KT 9999 FEW035 SCT250 27/17 A2992 BECMG=
200708011700 METAR MROC 011700Z 10008KT 9999 FEW035 SCT250 29/18 A2991 BECMG=
200708011800 METAR MROC 011800Z 09004KT 9999 SCT035 SCT250 29/18 A2990 BECMG=
200708011900 METAR MROC 011900Z 24008KT 9999 SCT030TCU SCT250 27/22 A2990 BECMG=
200708012000 METAR MROC 012000Z 23010KT 9999 SCT025TCU 26/22 A2986 BECMG=
200708012100 METAR MROC 012100Z 23012KT 9999 -TSRA VCFG FEW005 SCT020CB BKN100 24/21 A2986 RMK 7000 SW BECMG=
200708012200 METAR MROC 012200Z 27005KT 7000 3000N -RA FEW008 SCT025 SCT090 22/20 A2989 RMK 9999 E BECMG=
200708012300 METAR MROC 012300Z 30004KT 9999 FEW015 SCT025 SCT120 22/20 A2990 RMK TRACE ST FEW250 BECMG=
200708020000 METAR MROC 020000Z 00000KT 9999 FEW015 SCT120 BKN250 22/20 A2990 BECMG=
200708020100 METAR MROC 020100Z 00000KT 9999 FEW030 BKN250 21/20 A2992 BECMG=
200708020200 METAR MROC 020200Z 10002KT 9999 FEW035 BKN250 21/20 A2994 RMK LTNG S BECMG=
200708020300 METAR MROC 020300Z 00000KT CAVOK 21/19 A2995 BKN270 BECMG=
200708020400 METAR MROC 020400Z 10003KT CAVOK 20/19 A2996 BKN270 LTNG DST S BECMG=
200708020500 METAR MROC 020500Z 02002KT CAVOK 20/18 A2996 BKN270 BECMG=
200708020600 METAR MROC 020600Z 04004KT CAVOK 20/17 A2995 BECMG=
200708020700 METAR MROC 020700Z 05004KT CAVOK 20/17 A2993 BKN270 BECMG=
200708020800 METAR MROC 020800Z 03005KT CAVOK 19/17 A2990 BKN270 BECMG=
200708020900 METAR MROC 020900Z 03004KT CAVOK 19/17 A2990 BKN270 BECMG=
200708021000 METAR MROC 021000Z 05004KT CAVOK 20/17 A2993 BKN270 BECMG=
200708021100 METAR MROC 021100Z 03008KT CAVOK 19/16 A2990 TRAZAS SCT SCT280 BECMG=
200708021200 METAR MROC 021200Z 10009KT CAVOK 21/17 A2991 TRAZAS SCT BKN270 BECMG=
200708021300 METAR MROC 021300Z 10012KT 9999 FEW035 BKN300 23/17 A2992 BECMG=
200708021400 METAR MROC 021400Z 08010KT 9999 FEW030 BKN300 25/17 A2995 BECMG=
200708021500 METAR MROC 021500Z 08016KT 9999 FEW030 BKN300 26/17 A2995 BECMG=
200708021600 METAR MROC 021600Z 08013KT 9999 SCT030 BKN250 27/17 A2995 BECMG=
200708021700 METAR MROC 021700Z 10015KT 9999 FEW030 BKN250 26/17 A2995 RMK GUST 21KT BECMG=
200708021800 METAR MROC 021800Z 10010G20KT 9999 FEW030 BKN250 27/16 A2993 BECMG=
200708021900 METAR MROC 021900Z 09013KT 9999 SCT030 BKN250 27/17 A2992 BECMG=
200708022000 METAR MROC 022000Z 10012KT 9999 FEW045 SCT120 BKN250 27/16 A2990 BECMG=
200708022100 METAR MROC 022100Z 12010KT 9999 FEW035 SCT120 BKN250 27/16 A2989 RMK CB DST S SSW BECMG=
200708022200 METAR MROC 022200Z 10007KT 9999 FEW035 SCT120 BKN250 26/16 A2988 RMK CB DST SSW BECMG=
200708022300 METAR MROC 022300Z 11005KT 9999 FEW035 SCT100 BKN250 25/15 A2989 RMK PCPN DST ENE CB DST S BECMG=
200708030000 METAR MROC 030000Z 27002KT 9999 -DZ VCSH FEW005 SCT035 BKN120 22/21 A2994 RMK LOW ST NEAR APCH RNWY07 VIS SW WSW 8KMS BECMG=
200708030100 METAR MROC 030100Z 110005KT 9999 SCT035 SCT120 21/16 A2995 RMK OCNL=
200708030200 METAR MROC 030200Z 09007KT 9999 FEW035 BKN250 21/15 A2996 BECMG=
200708030300 METAR MROC 030300Z 05008KT 9999 FEW035 SCT250 20/15 A2997 RMK TS DST W BECMG=
200708030400 METAR MROC 030400Z 09006KT 9999 FEW035 SCT250 21/15 A2999 RMK SB DST W BECMG=
200708030500 METAR MROC 030500Z 06008KT 9999 FEW035 SCT250 20/15 A2999 BECMG=
200708030600 METAR MROC 030600Z 09007KT 9999 FEW035 SCT250 21/15 A2998 BECMG=
200708030700 METAR MROC 030700Z 09008KT CAVOK 21/15 A2996 TRACE SCT SCT250 BECMG=
200708030800 METAR MROC 030800Z 05009KT CAVOK 20/15 A2993 TRACE SCT BKN250 BECMG=
200708030900 METAR MROC 030900Z 09005KT CAVOK 21/16 A2994 RMK TRACE SC BKN250=
200708031000 METAR MROC 031000Z 10008KT CAVOK 21/16 A2993 TRACE SCT SCT230 TS DIST S BECMG=
200708031100 METAR MROC 031100Z 11012KT CAVOK 21/16 A2993 LTNG DIST S TRACE SCT BKN250 BECMG=
200708031200 METAR MROC 031200Z 11008KT CAVOK 21/16 A2994 RMK TRACE SC SCT100 BKN250 BECMG=
200708031300 METAR MROC 031300Z 08004KT CAVOK 22/17 A2996 RMK BKN100 FEW250 BECMG=
200708031400 METAR MROC 031400Z 05007KT CAVOK 23/17 A2996 RMK TRACE SC BKN100 BECMG=
200708031500 METAR MROC 031500Z 23004KT CAVOK 25/18 A2998 RMK TRACE SC BKN100 BECMG=
200708031600 METAR MROC 031600Z 11005KT CAVOK 26/18 A2997 RMK TRACE SC CU FEW070 BKN100 BECMG 24006KT=
200708031700 METAR MROC 031700Z 14002KT 9999 FEW040 SCT120 BKN250 28/18 A2997 BECMG 24007KT=
200708031800 METAR MROC 031800Z 09011KT 9999 FEW040 SCT120 BKN250 27/18 A2995 BECMG=
200708031900 METAR MROC 031900Z 10006KT 9999 FEW025TCU SCT035 BKN250 27/17 A2993 RMK RN DST NNW CB DST SSE S BECMG 24007KT=
200708032000 METAR MROC 032000Z 20007KT 9999 FEW025TCU BKN035 26/19 A2992 RERA RMK BECMG 5000 VCSH=
200708032100 METAR MROC 032100Z 00000KT 9999 FEW020 SCT035 BKN250 26/18 A2991 BECMG=
200708032200 METAR MROC 032200Z 23014KT 9999 FEW015 SVCT030 BKN250 22/20 A2993 RMK RN ARND BECMG 8000 -DZ VCFG SCT005=
200708032300 METAR MROC 032300Z 23005KT 9999 2000SW -RA FEW002 SCT010 BKN030 21/20 A2995 RMK BECMG=
200708040000 METAR MROC 040000Z 29004KT 9999 2000SW VCFG FEW002 SCT010 BKN030 21/19 A2998 BECMG=
200708040100 METAR MROC 040100Z 35003KT 9999 FEW010 SCT030 BKN100 21/19 A3001 BECMG=
200708040200 METAR MROC 040200Z 16002KT 9999 FEW030 BKN100 20/17 A3002 BECMG=
200708040300 METAR MROC 040300Z 00000KT 9999 FEW030 BKN100 20/19 A3003 BECMG=
200708040400 METAR MROC 040400Z 24003KT 9999 FEW003 SCT100 BKN250 20/19 A3003 BECMG 5000 BR=
200708040500 METAR MROC 040500Z 05005KT CAVOK 20/19 A3000 RMK BKN250 BECMG=
200708040600 METAR MROC 040600Z 06007KT CAVOK 20/18 A2998 RMK SCT120 BKN250 BECMG=
200708040700 METAR MROC 040700Z 05009KT CAVOK 21/17 A2995 RMK SCT120 BKN250 BECMG=
200708040800 METAR MROC 040800Z 05007KT CAVOK 21/17 A2994 RMK SCT120 BKN250 BECMG=
200708040900 METAR MROC 040900Z 09009KT CAVOK 21/17 A2993 RMK BKN120 FEW250 BECMG=
200708041000 METAR MROC 041000Z 06008KT CAVOK 21/17 A2993 RMK BKN120 FEW250 BECMG=
200708041100 METAR MROC 041100Z 09004KT CAVOK 21/17 A2994 RMK FEW090 BKN120 BECMG=
200708041200 METAR MROC 041200Z 04005KT CAVOK 20/16 A2996 RMK SCT100 SCT120 BECMG=
200708041300 METAR MROC 041300Z 02004KT CAVOK 23/17 A2998 RMK SCT120 FEW250=
200708041400 METAR MROC 041400Z 26003KT CAVOK 23/18 A2998 RMK FEW120 BKN250=
200708041500 METAR MROC 041500Z 25004KT 9999 FEW045 SCT120 BKN250 25/19 A2999 BECMG=
200708041600 METAR MROC 041600Z 24008KT 9999 FEW045 BKN250 25/20 A2999 BECMG=
200708041700 METAR MROC 041700Z 23010KT 9999 SCT035 BKN250 27/21 A2998 RMK RN DST E BECMG=
200708041800 METAR MROC 041800Z 23009KT 9999 SCT035 BKN250 26/20 A2996 RMK RN NE E=
200708041900 METAR MROC 041900Z 20005KT 9999 SCT030 BKN250 26/21 A2995 RMK RN N NE E SE S=
200708042000 METAR MROC 042000Z 20007KT 9999 RA FEW015TCU BKN030 23/20 A2995 BECMG 7000 VCSH=
200708042100 METAR MROC 042100Z 25008KT 9999 FEW012 SCT035 BKN120 22/19 A2993 RN N BECMG=
200708042300 METAR MROC NIL=
200708050000 METAR MROC 050000Z 29003KT 5000 -RA BR FEW005 SCT015 OVC100 21/20 A3001 BECMG=
200708050100 METAR MROC 050100Z 00000KT 9999 -RA BR FEW006 SCT018 OVC120 21/20 A3001 BECMG=
200708050200 METAR MROC 050200Z 00000KT 9999 -RA FEW015 OVC120 21/20 A3000 BECMG=
200708050300 METAR MROC 050300Z 09003KT 9999 DZ FEW025 OVC120 21/20 A2999 BECMG=
200708050400 METAR MROC 050400Z 09005KT 9999 -DZ OVC120 21/19 A2999 TRACE ST BECMG CAVOK=
200708050500 METAR MROC 050500Z 08004KT CAVOK 21/19 A2998 RMK TRACE ST SC OVC120 BECMG=
200708050600 METAR MROC 050600Z 05004KT CAVOK 21/18 A2997 RMK TRACE SC BKN120 BECMG=
200708050700 METAR MROC 050700Z 11004KT CAVOK 20/18 A2997 RMK TRACE SC BKN120 BECMG=
200708050800 METAR MROC 050800Z VRB03KT 9999 FEW010 SCT030 BKN250 20/19 A2998 RMK=
200708050900 METAR MROC 050900Z 29003KT 9999 FEW002 SCT030 BKN250 20/19 A2998 BECMG 6000 VCFG=
200708051000 METAR MROC 051000Z 00000KT 9999 FEW030 BKN250 20/19 A2997 BECMG CAVOK=
200708051100 METAR MROC 051100Z 01006KT 9999 FEW002 SCT030 BKN250 20/19 A2998 BECMG=
200708051200 METAR MROC 051200Z 06003KT 9999 FEW010 BKN250 19/18 A2999 RMK CBS LINE DST S SW W CB DST NE=
200708051300 METAR MROC 051300Z 00000KT 9999 FEW010 BKN250 20/18 A3000 RMK CB LINE DST S/SW/W=
200708051400 METAR MROC 051400Z 32002KT CAVOK 23/19 A3001 FEW120 BKN250 LOW ST S CB DST SW BECMG=
200708051500 METAR MROC 051500Z 23005KT 9999 FEW015 BKN120 23/19 A3003 BECMG=
200708051600 METAR MROC 051600Z 23008KT 9999 FEW015 SCT120 BKN250 25/20 A3002 BECMG=
200708051700 METAR MROC 051700Z 25007KT 9999 FEW020 SCT120 BKN250 25/20 A3001 BECMG=
200708051800 METAR MROC 051800Z 25006KT 9999 BKN025 SCT250 26/19 A2997 RN DST NW NE BECMG=
200708051900 METAR MROC 051900Z 27007KT 9999 VCSH FEW015CB SCT020 BKN250 27/20 A2996 VSBY SW 5KM DUE RN/ RN DST NW NE BECMG=
200708052000 METAR MROC 052000Z 23007KT 9999 -RA VCSH SCT015TCU BKN025 21/19 A2996 VSBY SW 6KM DUE RN BECMG=
200708052100 METAR MROC 052100Z 26011KT 7000 3000SW -TSRA SCT006CB BKN015 20/19 A2998 RMK BECMG 1500 TSRA=
200708052200 METAR MROC 052200Z 30006KT 8000 4000SW -RA BR SCT005CB BKN015 19/18 A2998 RMK BR W NSIG=
200708052300 METAR MROC 052300Z 01005KT 9999 4000E RA BR SCT007 SCT015 OVC100 19/18 A3000 RMK 4000 E BR RA BECMG=
200708060000 METAR MROC 060000Z 00000KT 9999 FEW008 SCT015 OVC100 19/18 A3004 RMK BECMG=
200708060100 METAR MROC 060100Z 36006KT 9999 FEW010 SCT020 OVC100 20/18 A3004 BECMG=
200708060200 METAR MROC 060200Z 11004KT 9999 FEW025 BKN100 19/18 A3004 BECMG=
200708060300 METAR MROC 060300Z 08006KT 9999 FEW035 BKN100 20/18 A3004 BECMG=
200708060400 METAR MROC 060400Z 09008KT 9999 -RA FEW035 BKN100 20/18 A3004 BECMG=
200708060500 METAR MROC 060500Z 06009KT 9999 -RA BKN100 20/18 A3003 RMK TRACE SC BECMG=
200708060600 METAR MROC 060600Z 10004KT CAVOK 20/18 A3002 RMK BKN100 TRACE SC BECMG=
200708060700 METAR MROC 060700Z 07004KT CAVOK 20/17 A3000 RMK BKN100 TRACE SC BECMG=
200708060800 METAR MROC 060800Z 07011KT CAVOK 20/16 A2997 RMK BKN100 TRACE SC BECMG=
200708060819 METAR MROC 060819Z 23009KT 9999 FEW020TCU SCT090 BKN250 26/21 A2997 BECMG 5000 VCSH=
200708060900 METAR MROC 060900Z 06006KT CAVOK 19/16 A2996 RMK BKN100 TRACE SC MOSIG=
200708061000 METAR MROC 061000Z 05005KT CAVOK 19/16 A2997 RMK BKN100 TRACE SC BECMG=
200708061100 METAR MROC 061100Z 01006KT CAVOK 19/16 A2998 RMK BKN100 TRACE SC BECMG=
200708061200 METAR MROC 061200Z 00000KT CAVOK 18/16 A3000 RMK TRACE SC ST SCT100 BKN250 BECMG=
200708061300 METAR MROC 061300Z 15003KT CAVOK 20/17 A3000 RMK TRACE SC FEW120 BKN250 BECMG=
200708061400 METAR MROC 061400Z 28004KT CAVOK 23/17 A3000 TRACE SCT OVC260 CB DIST SW BECMG=
200708061500 METAR MROC 061500Z 09011KT CAVOK 25/18 A2999 BECMG=
200708061600 METAR MROC 061600Z 11006KT 9999 FEW025 BKN250 27/17 A2999 DU OVER APCH 09=
200708061700 METAR MROC 061700Z 200008KT 9999 SCT025 SCT100 BKN250 25/20 A3001=
200708061800 METAR MROC 061800Z 25011KT 9999 FEW025TCU SCT100 BKN250 26/20 A2999 BECMG=
200708061900 METAR MROC 061900Z 23009KT 9999 FEW020TCU SCT090 BKN250 26/21 A2997 BECMG 5000 VCSH=
200708062000 METAR MROC 062000Z 11006KT 2000 9999SW RA SCT020 OVC100 24/21 A2995 BECMG=
200708062100 METAR MROC 062100Z 27007KT 9999 3000SW -RA BR FEW003 SCT008 BKN100 23/21 A2996 BECMG=
200708062200 METAR MROC 062200Z 00000KT 9999 4000SW BR FEW003 BKN015 21/18 A2997 BECMG=
200708062300 METAR MROC 062300Z 29005KT 9999 4500SW BR FEW003 SCT015 BKN010 21/19 A3000 BECMG=
200708070000 METAR MROC 070000Z 01002KT 9999 VCFG FEW006 SCT015 BKN100 21/19 A3001 RMK VIS 7000 SSW BECMG=
200708070100 METAR MROC 070100Z VRB02KT 9999 SCT010 SCT025 21/20 A3003 BECMG=
200708070200 METAR MROC 070200Z 32005KT 9999 FEW006 SCT025 21/20 A3004 BECMG=
200708070300 METAR MROC 070300Z 33004KT CAVOK 21/19 A3003 TRAZAS SCT BKN100 HZY BECMG=
200708070400 METAR MROC 070400Z 10003KT CAVOK 20/19 A3001 BKN120 BECMG=
200708070500 METAR MROC 070500Z 04005KT CAVOK 20/18 A2999 BECMG=
200708070600 METAR MROC 070600Z 06006KT CAVOK 20/17 A2996 RMK TRAZAS SC BKN120 BECMG=
200708070700 METAR MROC NIL=
200708070800 METAR MROC 070800Z 28005KT 9999 SCT010 SCT120 19/17 A2998 BECMG=
200708070900 METAR MROC 070900Z 32002KT 9999 VCFG FEW002 BKN012 19/17 A2997 VSBY S SW 6KM DUE LOW ST BECMG=
200708071000 METAR MROC 071000Z 00000KT 9999 FEW012 BKN020 18/17 A2997 BECMG=
200708071100 METAR MROC 071100Z 09002KT CAVOK 17/16 A2998 FEW270 CB DST S BECMG=
200708071200 METAR MROC 071200Z 03002KT CAVOK 18/16 A2998 TRAZAS SCT FEW100 SCT250 CB N S BECMG=
200708071300 METAR MROC 071300Z 08002KT CAVOK 21/17 A3000 RMK SCT250 CB DST SSW BECMG=
200708071400 METAR MROC 071400Z 09003KT CAVOK 25/17 A2999 RMK FEW120 FEW250 BECMG=
200708071500 METAR MROC 071500Z 11010KT CAVOK 26/17 A3000 RMK FEW120 FEW250 BECMG=
200708071600 METAR MROC 071600Z 24008KT 9999 SCT030 SCT250 25/18 A3002 BECMG=
200708071700 METAR MROC 071700Z 20003KT 9999 SCT030 BKN120 27/19 A2999 RMK RN DST NE E FEW250 BECMG=
200708071800 METAR MROC 071800Z 24008KT 9999 FEW015 SCT035 SCT120 25/19 A2998 RMK RA DST NE FEW250 BECMG=
200708071900 METAR MROC 071900Z 23006KT 9999 FEW015 SCT035 BKN120 26/20 A2996 RMK RN DST QUAD N E BECMG=
200708072000 METAR MROC 072000Z 29007KT 9999 SCT015CB SCT025 22/19 A2994 RMK SHRA DST N NE BECMG -TSRA=
200708072100 METAR MROC 072100Z 25005KT 9999 4000SW TS VCSH SCT012CB BKN030 23/20 A2994 BECMG 4000 TSRA=
200708072200 METAR MROC 072200Z 18004KT 6000 1200E TSRA SCT010CB BKN022TCU 22/20 A2995 BECMG 0800 +TSRA=
200708072300 METAR MROC 072300Z 10003KT 3000 -TSRA FEW015CB SCT030 BKN100 19/18 A2998 BECMG 7000=
200708080000 METAR MROC 080000Z 08004KT 8000 -RA FEW010 OVC100 19/19 A2999 RMK RETS FEW030 BECMG=
200708080100 METAR MROC 080100Z 06008KT 9999 -RA FEW030 OVC100 19/18 A3001 BECMG 24004 7000 VCFG=
200708080200 METAR MROC 080200Z 08005KT 9999 -RA OVC100 19/18 A3001 RMK TRACE SC BECMG=
200708080300 METAR MROC 080300Z 06006KT CAVOK 20/18 A3000 RERA OVC100 BECMG=
200708080400 METAR MROC 080400Z 04003KT CAVOK 19/18 A3000 TRACE ST BKN110 BECMG=
200708080500 METAR MROC 080500Z 09003KT CAVOK 19/18 A2999 TRACE ST SCT120 BECMG=
200708080600 METAR MROC 080600Z 02006KT CAVOK 19/17 A2997 TRACE SC BKN140 BECMG=
200708080700 METAR MROC 080700Z 10004KT CAVOK 18/17 A2997 TRACE SCT BKN150 BECMG=
200708080800 METAR MROC 080800Z 06004KT CAVOK 20/17 A2996 TRACE SCT AC SCT250 BECMG=
200708080900 METAR MROC 080900Z 09008KT 9999 FEW040 SCT250 20/17 A2993 TRACE AC BECMG=
200708081000 METAR MROC NIL=
200708081100 METAR MROC 091100Z 10012KT CAVOK 20/17 A2991 TRACE SC FEW250 BECMG=
200708081200 METAR MROC 081200Z 06004KT CAVOK 20/16 A2993 TRACE SCT CI FEW120 BECMG=
200708081300 METAR MROC 081300Z 01004KT CAVOK 22/17 A2996 RMK FEW100 SCT300 TCU DST S SSW BECMG=
200708081400 METAR MROC 081400Z VRB03KT CAVOK 24/18 A2997 RMK TRACE SC FEW100 SCT300 BECMG 24005KT=
200708081500 METAR MROC 081500Z 27004KT CAVOK 25/19 A2997 RMK TRACE SC FEW100 BKN270 BECMG=
200708081600 METAR MROC 081600Z 24008KT 9999 FEW040 BKN250 25/20 A2997 BECMG=
200708081700 METAR MROC 081700Z 26007KT 9999 FEW040 SCT250 27/20 A2996 BECMG=
200708081800 METAR MROC 081800Z 23008KT 9999 SCT035 SCT250 27/20 A2995 BECMG 7000=
200708081900 METAR MROC 081900Z 23009KT FEW025TCU SCT035 SCT250 27/21 A2992 BECMG 7000 VCSH=
200708082000 METAR MROC 082000Z 24012KT 9999 SCT017TCU SCT030 26/21 A2990 RMK PCPN DST NNW BECMG 5000 TS VCSH=
200708082100 METAR MROC 082100Z 23014KT 9999 4000N VCSH FEW015TCU BKN030 25/21 A2988 RMK RN S SW BECMG 6000 -SHRA=
200708082200 METAR MROC 082200Z 24005KT 3000 TSRA FEW010CB BKN025 22/20 A2992 BECMG=
200708082300 METAR MROC 082300Z 30005KT 7000 3000N VCFG FEW002 SCT025 BKN100 20/20 A2995 RERA RMK BECMG=
200708090000 METAR MROC 090000Z 32006KT 7000 VCFG FEW002 SCT025 BKN100 20/19 A2997 BECMG=
200708090100 METAR MROC 090100Z 00000KT 9999 SCT030 BKN100 20/19 A2998 BECMG=
200708090200 METAR MROC 090200Z 00000KT 9999 SCT030 BKN100 20/19 A3000 BECMG=
200708090300 METAR MROC 090300Z 14002KT 9999 FEW020 BKN120 20/19 A3001 RMK LTNG SW=
200708090400 METAR MROC 090400Z 00000KT 9999 FEW020 SCT120 BKN250 20/19 A3003 BECMG=
200708090500 METAR MROC 090500Z 05006KT CAVOK 20/18 A3002 RMK BKN250 BECMG=
200708090600 METAR MROC 090600Z 07007KT CAVOK 20/18 A2999 RMK SCT250 BECMG=
200708090700 METAR MROC 090700Z 02004KT 9999 FEW030 SCT120 19/17 A2997 RMK SCT250 ST S BECMG=
200708090800 METAR MROC 090800Z 00000KT 9999 FEW003 SCT120 19/17 A2995 RMK SCT250 ST SE/SSE BECMG=
200708090900 METAR MROC 090900Z 12003KT 9999 3000SW BR FEW001 SCT250 18/17 A2995 RMK ST SSE S BECMG=
200708091000 METAR MROC 091000Z 01006KT CAVOK 18/17 A2995 RMK SCT250 BECMG=
200708091100 METAR MROC 091100Z 07003KT CAVOK 17/16 A2994 RMK FEW120 SCT250 BECMG=
200708091200 METAR MROC 091200Z 02005KT CAVOK 18/16 A2995 RMK SCT120 SCT250 BECMG=
200708091300 METAR MROC 091300Z 00000KT CAVOK 22/18 A2998 BECMG RMK TRACE SC SCT120 BKN250=
200708091400 METAR MROC 091400Z 23005KT CAVOK 23/19 A2999 BECMG RMK TRACE SC FEW120 BKN250=
200708091500 METAR MROC 091500Z 27004KT 9999 FEW040 BKN250 25/19 A2999 BECMG RMK TRACE AC=
200708091600 METAR MROC 091600Z 22007KT 9999 FEW040 BKN250 27/20 A2998 BECMG RMK HZ W TRACE AC=
200708091700 METAR MROC 091700Z 24009KT 9999 FEW035 BKN250 26/21 A2997 BECMG TRACE AC=
200708091800 METAR MROC 091800Z 23009KT 9999 SCT035 SCT250 27/21 A2995 BECMG 8000=
200708091900 METAR MROC 091900Z 22009KT 9999 SCT030 SCT250 27/22 A2991 BECMG 8000=
200708092000 METAR MROC 092000Z 24013KT 9999 FEW015TCU SCT030 SCT250 26/22 A2989 BECMG 6000 VCSH RMK TRACE AC=
200708092100 METAR MROC 092100Z 24006KT 6000 -RA FEW012CB SCT020 SCT120 20/19 A2990 VSBY SW W 4KM VSBY NE E UNL BECMG=
200708092200 METAR MROC 092200Z 32003KT 9999 VCSH FEW005 BKN015 21/19 A2991 VSBY W NW 6KM DUE RN BECMG=
200708092300 METAR MROC 092300Z 00000KT 9999 FEW015 SCT020 BKN250 22/20 A2992 RN NW SW BECMG=
200708100000 METAR MROC 100000Z 00000KT 9999 SCT012 BKN020 21/20 A2994 LOW ST SW BECMG=
200708100100 METAR MROC 100100Z 28003KT 9999 FEW010 SCT020 BKN120 21/20 A2996 BECMG=
200708100200 METAR MROC 100200Z 29004KT 9999 VCFG FEW005 SCT012 BKN120 21/20 A2999 VSBY SW 6KM BECMG=
200708100300 METAR MROC 100300Z 26003KT 9999 FEW006 SCT020 BKN120 21/19 A3000 RMK LOW ST TO WSW BECMG 7000 VCFG=
200708100400 METAR MROC 100400Z 00000KT 9999 FEW006 SCT020 BKN100 21/20 A3002 RMK LOW ST TO SW WSW BECMG=
200708100500 METAR MROC 100500Z 00000KT 9999 -DZ VCFG FEW006 SCT020 BKN100 21/20 A3000 RMK VIS 7KMS S SW BECMG 4000 BR=
200708100600 METAR MROC 100600Z 00000KT 9999 FEW004 SCT020 BKN120 21/19 A2999 BECMG=
200708100700 METAR MROC 100700Z 00000KT 9999 4000SW BR SCT004 SCT020 BKN120 21/20 A2998 LOW ST S SW BECMG 2000=
200708100800 METAR MROC 100800Z 00000KT 8000 VCFG SCT005 BKN015 21/19 A2996 VIS S SW 4KMS DUE BR BECMG 2000=
200708100900 METAR MROC 100900Z 00000KT 0500 FG VV/// 20/20 A2995 RMK VIS NE E 3KMS VIS SSE 2KMS BECMG=
200708101000 METAR MROC 101000Z 01003KT 8000 3000SW VCFG FEW001 SCT015 20/19 A2995 RMK VIS NE E UNLTD BECMG 05005KT 9999=
200708101100 METAR MROC 101100Z 00000KT 9999 4000SW BR SCT015 SCT120 20/19 A2995 BECMG=
200708101200 METAR MROC 101200Z 01006KT 9999 4000SW BR FEW004 BKN120 19/18 A2996 FG BANK TO S SW WSW BECMG=
200708101300 METAR MROC 101300Z 04004KT CAVOK 22/18 A2996 BKN100=
200708101400 METAR MROC 101400Z 09004KT CAVOK 24/18 A2997 SCT100 TRAZAS CU=
200708101500 METAR MROC 101500Z 08003KT CAVOK 27/17 A2996 TRAZAS CU BKN100 BECMG=
200708101600 METAR MROC 101600Z 10009KT CAVOK 28/18 A2995 TRAZAS CU BKN100 BECMG=
200708101700 METAR MROC 101700Z 09009KT 9999 FEW020 BKN100 29/17 A2995 BECMG=
200708101800 METAR MROC 101800Z 22009KT 9999 SCT020 SCT100 25/22 A2993 RN NE BECMG=
200708101900 METAR MROC 101900Z 24010KT 9999 SCT025 SCT120 25/21 A2990 RN NE BECMG=
200708102000 METAR MROC 102000Z 23011KT 9999 VCSH FEW012CB SCT020 SCT280 25/21 A2988 VSBY VSBY NW N SW 6KM DUE RN BECMG=
200708102100 METAR MROC 102100Z 26012KT 9999 4000N -TSRA FEW004 SCT012CB OVC110 22/21 A2988 RMK BECMG 2000 +TSRA=
200708102200 METAR MROC 102200Z 34002KT 6000 -RABR FEW007 SCT015 OVC100 22/19 A2987 RMK BECMG=
200708102300 METAR MROC 102300Z 20002KT 7000 VCFG FEW005 SCT010 OVC100 21/19 A2990 BECMG=
200708110000 METAR MROC 110000Z 29003KT 8000 -RA VCFG FEW005 SCT010 BKN120 21/20 A2993 RMK BECMG=
200708110100 METAR MROC 110100Z 28004KT 8000 VCFG FEW005 SCT015 BKN120 21/20 A2995 BECMG=
200708110200 METAR MROC 110200Z 32004KT 9999 FEW012 SCT020 BKN120 21/20 A2997 BECMG=
200708110300 METAR MROC 110300Z 24003KT 9999 FEW010 SCT020 BKN100 21/20 A2999 BECMG=
200708110400 METAR MROC 110400Z 00000KT 9999 FEW010 SCT020 BKN100 21/20 A2999 BECMG=
200708110500 METAR MROC 110500Z VRB03KT 9999 FEW008 SCT020 BKN100 21/19 A2999 BECMG=
200708110600 METAR MROC 110600Z 26002KT 9999 FEW008 SCT020 BKN100 21/20 A2998 BECMG=
200708110700 METAR MROC 110700Z 00000KT 9999 FEW003 SCT020 BKN100 20/19 A2996 BECMG=
200708110800 METAR MROC 110800Z 10002KT 9999 2000SW BR FEW001 SCT005 BKN100 20/19 A2995 BECMG=
200708110900 METAR MROC 110900Z 00000KT 9999 SCT005 SCT100 20/19 A2994 BECMG=
200708111000 METAR MROC 111000Z 33003KT 9999 SCT005 SCT100 19/18 A2994 BECMG=
200708111100 METAR MROC 111100Z 03004KT 9999 SCT005 SCT100 19/17 A2996 BECMG=
200708111200 METAR MROC 111200Z 35002KT 9999 FEW005 SCT025 20/18 A2997 BECMG RMK TRACE AS CI=
200708111300 METAR MROC 111300Z 34002KT 9999 FEW007 SCT025 21/17 A3000 BECMG=
200708111400 METAR MROC 111400Z 32002KT 9999 SCT025 BKN250 24/19 A3000 BECMG=
200708111500 METAR MROC 111500Z 27002KT 9999 FEW020 BKN250 25/19 A3000 BECMG=
200708111600 METAR MROC 111600Z 28005KT 9999 FEW020 SCT130 BKN250 26/18 A3000 BECMG=
200708111700 METAR MROC 111700Z 23009KT 9999 SCT015TCU SCT120 BKN250 25/19 A3000 BECMG=
200708111800 METAR MROC 111800Z 24008KT 9999 VCSH SCT012TCU BKN100 25/17 A2998 RMK BECMG 5000 VCSH=
200708111900 METAR MROC 111900Z 23008KT 9999 FEW009 SCT013TCU BKN100 26/20 A2995 RMK BECMG=
200708112000 METAR MROC 112000Z 24013KT 8000 VCFG FEW006 SCT010TCU BKN025 23/20 A2995 RMK BECMG 6000 VCFG RA=
200708112100 METAR MROC 112100Z 25009KT 7000 3000SW VCSH BR FEW004 SCT015CB BKN025 21/19 A2995 BECMG -TSRA=
200708112200 METAR MROC 112200Z 29006KT 9999 VCFG FEW003 SCT012 BKN100 21/19 A2996 RMK VIS 5000SW BECMG=
200708112300 METAR MROC 112300Z 30005KT 9999 3000SW BR SCT004 BKN090 21/19 A2997 BECMG=
200708120000 METAR MROC 120000Z 30003KT 9999 4000SW -RA BR FEW003 SCT012 BKN090 21/19 A3000 BECMG=
200708120100 METAR MROC 120100Z 00000KT 9999 SCT012 SCT120 21/19 A3001 BECMG=
200708120200 METAR MROC 120200Z 00000KT 9999 FEW008 SCT120 20/19 A3002 BECMG=
200708120300 METAR MROC 120300Z 00000KT 2000 0800 FG SCT001 BKN100 20/19 A3003 VSBY N NE UNL BECMG=
200708120400 METAR MROC 120400Z 00000KT 5000 BR FEW002 SCT008 BKN100 20/19 A3003 VSBY N UNL BECMG=
200708120500 METAR MROC 120500Z 10003KT 9999 FEW020 BKN100 20/19 A3004 BECMG=
200708120600 METAR MROC 120600Z 02007KT 9999 FEW035 SCT120 20/18 A3002 BECMG=
200708120700 METAR MROC NIL=
200708120800 METAR MROC 120800Z 07004KT CAVOK 19/17 A2998 SCT120 BECMG=
200708120900 METAR MROC 120900Z 07005KT CAVOK 19/17 A2997 TRAZAS SCT BKN120 BECMG=
200708121000 METAR MROC 121000Z 04007KT CAVOK 19/17 A2998 SCT120 BKN250 BECMG=
200708121100 METAR MROC 121100Z 02005KT 9999 19/16 A3000 BKN250 BECMG=
200708121200 METAR MROC 121200Z 08003KT CAVOK 19/17 A2999 FEW120 BKN250 CB DST S BECMG=
200708121300 METAR MROC 121300Z 28002KT CAVOK 20/18 A3002 RMK SCT120 BKN250 CB DST SW BECMG=
200708121400 METAR MROC 121400Z 13003KT CAVOK 22/19 A3003 RMK BKN250 BECMG=
200708121500 METAR MROC 121500Z 25005KT 9999 FEW025 BKN250 23/18 A3004 BECMG=
200708121600 METAR MROC 121600Z 24005KT 9999 SCT025 SCT250 24/20 A3004 BECMG=
200708121700 METAR MROC 121700Z 26006KT 9999 SCT030 SCT250 26/19 A3003 BECMG=
200708121800 METAR MROC 121800Z 23008KT 9999 FEW020CB SCT025TCU SCT250 26/20 A3001 RMK RN DST NNE E BECMG -TS VCSH=
200708121900 METAR MROC 121900Z 23006KT 7000 3000NE RA BR FEW012CB SCT020 BKN090 24/21 A3000 VIS 3000 NW BECMG=
200708122000 METAR MROC 122000Z 22008KT 0200 -RA FG VV/// 21/20 A2999 BECMG=
200708122100 METAR MROC 122100Z 20006KT 4000 -RA BR FEW003 SCT015 BKN100 19/18 A3000 RMK VIS=
200708122200 METAR MROC 122200Z 12005KT 9999 -RA VCFG FEW010 OVC100 19/18 A2998 RMK VIS N NNE 7KMS LOW ST TO N QUAD BECMG=
200708122300 METAR MROC 122300Z 06006KT 9999 -RA OVC100 20/18 A2998 RMK TRACE LOW ST TO WNW NW RASH DST E BECMG=
200708130000 METAR MROC 130000Z 06007KT CAVOK 19/17 A2999 RMK RERA TRACE ST BKN070 SCT120 BECMG=
200708130100 METAR MROC NIL=
200708130200 METAR MROC 130200Z 00000KT 9999 2000SW BR BKN070 SCT120 19/18 A3004 RMK FG BANK OVER APCH RNY07 BECMG 0500 FG=
200708130300 METAR MROC 130300Z 24005KT 1800 -DZ BR FEW001 SCT004 OVC100 19/18 A3000 RMK BECMG 3000 BR=
200708130400 METAR MROC 130400Z 31004KT 9999 FEW005 SCT025 BKN100 19/18 A3011 BECMG=
200708130500 METAR MROC 130500Z 33003KT 9999 BKN015 19/18 A3010 BECMG=
200708130600 METAR MROC 130600Z 31002KT 8000 VCFG SCT010 BKN025 19/18 A3007 BECMG=
200708130700 METAR MROC 130700Z 26005KT 3000 BR FEW001 SCT006 BKN025 19/18 A3005 RMK BECMG 2000 BR=
200708130800 METAR MROC 130800Z 34004KT 8000 VCFG FEW010 BKN025 18/18 A3003 RMK FG DST N E=
200708130900 METAR MROC 130900Z 24003KT 9999 FEW025 SCT100 18/17 A3001 BECMG=
200708131000 METAR MROC 131000Z 07005KT 9999 FEW030 SCT120 18/16 A2998 BECMG=
200708131100 METAR MROC 131100Z 07008KT CAVOK 19/17 A2997 TRACE SCT SCT120 BECMG=
200708131200 METAR MROC 131200Z 06008KT CAVOK 19/16 A2997 RMK SCT280 BECMG=
200708131300 METAR MROC 131300Z 07005KT CAVOK 22/17 A2999 RMK TRACE SC AC BKN300 BECMG=
200708131400 METAR MROC 131400Z 22006KT 9999 FEW010 SCT300 22/19 A2999 RMK LGT HZ S SW BECMG=
200708131500 METAR MROC 131500Z 24008KT 9999 FEW015 SCT300 22/18 A3003 BECMG=
200708131600 METAR MROC 131600Z 24007KT 9999 FEW0035 SCT300 24/18 A3003 BECMG=
200708131700 METAR MROC 131700Z 22004KT 9999 FEW035 SCT300 25/19 A3001 BECMG=
200708131800 METAR MROC 131800Z 23004KT 9999 FEW030 BKN300 26/19 A2999 RMK TRACE AC TCU DST E SSE S BECMG=
200708131900 METAR MROC 131900Z 25010KT 9999 FEW025TCU FEW035 BKN300 26/20 A2996 BECMG=
200708132000 METAR MROC 132000Z 24008KT 9999 FEW020TCU FEW035 BKN250 26/20 A2993 RMK RASH DST N ENE ESE BECMG 7000 TSRA=
200708132100 METAR MROC 132100Z 22010KT 9999 FEW020TCU BKN035 25/20 A2993 RMK RN ARND BECMG 7000 VCSH=
200708132118 METAR MROC 132118Z 13002KT 6000 TSRA FEW010CB BKN030 24/21 A2998 BECMG 1500=
200708132200 METAR MROC 132200Z 02007KT 9999 1500SW TSRA FEW010CB BKN030 20/18 A2993 BECMG=
200708132300 METAR MROC 132300Z 19003KT 9999 FEW002 SCT030 BKN100 19/18 A2995 RERA BECMG=
200708140000 METAR MROC 140000Z 31003KT 9999 FEW002 SCT030 BKN100 20/18 A2997 BECMG=
200708140100 METAR MROC 140100Z 17002KT 9999 FEW030 BKN100 19/18 A2999 BECMG=
200708140200 METAR MROC 140200Z 04004KT 9999 FEW030 BKN100 20/19 A3001 BECMG=
200708140300 METAR MROC 140300Z 13003KT 9999 SCT030 BKN100 20/19 A3003 RMK DUE ST SW LTNG NE BECMG=
200708140400 METAR MROC 140400Z 26004KT 9999 VCFG FEW004 SCT020 BKN090 20/19 A3005 RMK VIS 7000 SW BECMG=
200708140500 METAR MROC 140500Z 00000KT 7000 RA SCT020 BKN090 20/19 A3002 BECMG=
200708140600 METAR MROC 140600Z 08002KT 9999 -DZ SCT020 BKN100 20/19 A3000 RMK DUE ST SW BECMG=
200708140700 METAR MROC 140700Z 07003KT 9999 FEW020 OVC100 19/18 A2998 RMK ST S BECMG=
200708140800 METAR MROC 140800Z 05004KT 9999 FEW030 OVC100 19/17 A2997 RMK ST S BECMG=
200708140900 METAR MROC 140900Z 08003KT CAVOK 18/17 A2996 RMK BKN120 BECMG=
200708141000 METAR MROC 141000Z 00000KT CAVOK 18/17 A2997 RMK SCT120 FEW250 CB/LTNG DST S BECMG=
200708141100 METAR MROC 141100Z VRB03KT CAVOK 18/16 A2998 RMK SCT120 SCT250 BECMG=
200708141200 METAR MROC 141200Z 09003KT 9999 FEW010 BKN250 17/16 A2999 BECMG=
200708141300 METAR MROC 141300Z 02005KT 9999 FEW010 BKN250 17/18 A3001=
200708141400 METAR MROC NIL=
200708141500 METAR MROC 141500Z 19004KT CAVOK 23/20 A3002 BECMG TRACE CU AC BKN250=
200708141600 METAR MROC 141600Z 23003KT 9999 FEW040 BKN250 26/19 A3001 BECMG RMK TRACE AC HZ LEVE SW=
200708141700 METAR MROC 141700Z 24008KT 9999 FEW040 SCT130 BKN250 26/20 A2999 BECMG RMK HZ LEVE SW=
200708141800 METAR MROC 141800Z 23008KT 9999 FEW035 SCT250 27/21 A2997 BECMG RMK HZ LEVE SW=
200708141900 METAR MROC 141900Z 24006KT 9999 RA SCT030 SCT250 26/20 A2994 BECMG 7000 VCSH=
200708142000 METAR MROC 142000Z 19004KT 9999 3000E -TSRA FEW010CB BKN030 24/21 A2993 RMK VIS N NE 4000MT BECMG 7000 VCSH=
200708142100 METAR MROC 142100Z 18002KT 7000 VCSH FEW010CB SCT025 BKN120 23/22 A2992 VSBY NE E SE UNL BECMG=
200708142200 METAR MROC 242200Z 21008KT 7000 -RA FEW010 SCT025 BKN120 21/19 A2994 VSBY S UNL BECMG=
200708142300 METAR MROC 142300Z 35003KT 5000 RA FEW012 SCT025 BKN100 21/19 A2997 VSBY S UNL BECMG=
200708150000 METAR MROC 150000Z 07003KT 9999 -RA FEW015 OVC100 20/19 A2995 VSBY NW W 6KM BECMG=
200708150100 METAR MROC 150100Z 22003KT 3000 0800SW -RA FG SCT001 SCT015 OVC100 20/19 A2999 VSBY N UNL=
200708150200 METAR MROC 150200Z 00000KT 0800 FG SCT001 SCT012 BKN100 20/19 A3000 VSBY NE 5KM BECMG 3000 BR=
200708150300 METAR MROC 150300Z 32002KT 2000 BR SCT001 SCT005 BKN120 20/19 A3002 RMK VIS E ENE 4KMS BECMG 4000=
200708150400 METAR MROC 150400Z 32004KT 9999 VCFG FEW004 SCT015 BKN120 20/19 A3004 VIS SW 6KMS BECMG=
200708150500 METAR MROC 150500Z 00000KT 9999 FEW010 SCT020 BKN120 21/19 A3004 BECMG=
200708150600 METAR MROC 150600Z 08003KT 9999 SCT030 BKN120 20/19 A3002 BECMG=
200708150700 METAR MROC 150700Z 05007KT 9999 FEW030 BKN120 20/19 A3000 BECMG=
200708150800 METAR MROC 150800Z 04005KT CAVOK 20/18 A2997 RMK TRACE SC BKN120 DVLPNG FOG TO S SSW BECMG=
200708150900 METAR MROC 150900Z 05004KT CAVOK 20/18 A2996 RMK TRACE SC BKN120 BECMG=
200708151000 METAR MROC NIL=
200708151100 METAR MROC 151100Z 09002KT CAVOK 19/18 A2995 BECMG=
200708151200 METAR MROC 151200Z 07005KT CAVOK 20/17 A2995 RMK TRACE SC SCT120 BKN250 BECMG=
200708151300 METAR MROC 151300Z 06006KT CAVOK 22/17 A2998 TRAZAS SCT SCT120 BKN250 BECMG=
200708151400 METAR MROC 151400Z 10011KT CAVOK 23/17 A2999 SCT120 BKN250 TRAZAS SCT BECMG=
200708151500 METAR MROC 151500Z 06007KT CAVOK 25/17 A3000 SCT120 BKN250 BECMG=
200708151600 METAR MROC 151600Z 08005KT CAVOK 27/18 A2999 TRAZAS CU BKN250 BECMG=
200708151700 METAR MROC 151700Z 24009KT CAVOK 26/20 A2999 TRAZAS CU BKN250 BECMG=
200708151800 METAR MROC 151800Z 23009KT 9999 FEW030 BKN250 26/20 A2997 RN ENE BECMG=
200708151900 METAR MROC 151900Z 23011KT 9999 FEW015CB SCT030 BKN250 25/21 A2993 RN DST N NE E BECMG=
200708152000 METAR MROC 152000Z 21008KT 9999 4000E TSRA FEW012CB SCT025 BKN250 23/20 A2995 VSBY ENE NW 4KM DUE RASH BECMG=
200708152100 METAR MROC 152100Z 28005KT 9999 FEW007 SCT015 BKN110 22/21 A2994 BECMG=
200708152200 METAR MROC 152200Z 24002KT 9999 VCSH FEW007 SCT015 BKN110 23/20 A2994 BECMG=
200708152300 METAR MROC 152300Z 25004KT 7000 -RA VCFG SCT007 BKN015 22/21 A2995 RMK BECMG 5000 -RA BR=
200708160000 METAR MROC 160000Z 22006KT 7000 VCFG FEW004 SCT010 BKN100 21/20 A2997 BECMG=
200708160100 METAR MROC 160100Z 27006KT 9999 SCT015 BKN100 20/19 A3001 BECMG=
200708160200 METAR MROC 160200Z 30003KT 9999 SCT010 BKN110 21/19 A3002 BECMG=
200708160300 METAR MROC NIL=
200708160400 METAR MROC NIL=
200708160500 METAR MROC 160500Z 09002KT CAVOK 20/19 A3001 TRACE SC SCT110=
200708160600 METAR MROC NIL=
200708160700 METAR MROC NIL=
200708160800 METAR MROC NIL=
200708160900 METAR MROC NIL=
200708161000 METAR MROC 161000Z 35005KT CAVOK 18/17 A2997 BECMG TRACE ST SCT SCT120=
200708161100 METAR MROC 161100Z 07003KT CAVOK 18/16 A2998 BECMG TRACE SCT FEW120=
200708161200 METAR MROC 161200Z 04005KT CAVOK 18/16 A2999 IG RMK TRACE SC AC CB DST SW SCT250=
200708161300 METAR MROC NIL=
200708161400 METAR MROC NIL=
200708161500 METAR MROC NIL=
200708161600 METAR MROC NIL=
200708161700 METAR MROC 161700Z 23007KT 9999 SCT25 BKN250 26/20 A2999 BECMG=
200708161800 METAR MROC 161800Z 20006KT 9999 SCT020 BKN250 27/20 A2997 BECMG=
200708161900 METAR MROC 161900Z 23011KT 9999 SCT015TCU BKN250 26/21 A2994 BECMG=
200708162000 METAR MROC 162000Z 23009KT 9999 TS SCT015CB BKN250 27/22 A2991 RMK BECMG 3000 TSRA=
200708162100 METAR MROC 162100Z 27008KT 9999 FEW010 SCT015CB SCT250 24/20 A2992 RMK RN DST SW BECMG=
200708162200 METAR MROC 162200Z 26005KT 9999 BKN020 SCT250 22/19 A2995 RN W NE=
200708162300 METAR MROC 162300Z 16002KT 9999 VCFG FEW006 120 BKN250 23/20 A2995 RMK VIS 7000SW FEW030=
200708170000 METAR MROC NIL=
200708170100 METAR MROC 170100Z 27005KT 9999 FEW008 SCT120 BKN250 22/20 A2997 RMK FEW030 BECMG=
200708170200 METAR MROC 170200Z 28002KT 9999 FEW006 SCT250 21/20 A2999 RMK FEW120 BECMG=
200708170300 METAR MROC 170300Z 05008KT CAVOK 21/17 A3000 SCT120 BECMG=
200708170400 METAR MROC 170400Z 00000KT 9999 20/17 A3001 SCT30 BECMG=
200708170500 MROC 170500Z 31003KT CAVOK 20/17 A3001 SCT130 BECMG=
200708170600 MROC 170600Z 00000KT CAVOK 20/17 A2999 SCT130 BECMG=
200708170700 MROC 170700Z 03004KT CAVOK 19/17 A2998 SCT130 SCT280 BECMG=
200708170800 MROC 170800Z 01006KT CAVOK 19/16 A2997 SCT130 SCT280 BECMG=
200708170900 MROC 170900Z 03006KT CAVOK 18/16 A2997 SCT130 SCT280 BECMG=
200708171000 METAR MROC 171000Z 02006KT CAVOK 18/16 A2996 SCT130 SCT250 BECMG=
200708171100 METAR MROC 171100Z 08002KT CAVOK 18/16 A2997 FEW100 SCT280 BECMG=
200708171200 METAR MROC NIL=
200708171300 METAR MROC 171300Z 05004KT CAVOK 22/18 A2998 RMK FEW120 SCT250=
200708171400 METAR MROC 171400Z 07005KT CAVOK 25/17 A2999 RMK TRACE SC FEW120 SCT280 BECMG=
200708171500 METAR MROC NIL=
200708171600 METAR MROC 171600Z 10013KT 9999 FEW035 SCT250 28/16 A2997 RMK FEW120 BECMG=
200708171700 METAR MROC 171700Z 09014KT 9999 SCT035 SCT250 29/17 A2996 BECMG=
200708171800 METAR MROC 171800Z 10012KT 9999 SCT030 28/16 A2994 RMK FEW250 BECMG=
200708171900 METAR MROC 171900Z 09008KT 9999 FEW020TCU SCT030 30/16 A2994 BECMG=
200708172000 METAR MROC 172000Z 25009KT 9999 FEW020CB SCT025 27/22 A2990 BECMG -TS=
200708172100 METAR MROC NIL=
200708172200 METAR MROC 172200Z 25009KT 9999 4000SW VCSH BR FEW004 FEW015CB SCT025 22/21 A2993 RMK BECMG 6000 -TSRA=
200708172300 METAR MROC 172300Z 27003KT 5000 -RA BR FEW004 SCT020 BKN100 22/20 A2996 RMK VIS SE S UNLTD BECMG=
200708180000 METAR MROC 180000Z 00000KT 9999 VCFG SCT015 SCT120 BKN250 22/20 A2997 VIS NNE NE 7KMS TRACE LOW ST S W NW BECMG=
200708180100 METAR MROC 180100Z 00000KT 9999 VCFG SCT015 SCT120 BKN250 21/20 A2998 RMK VIS N NE 7KMS TRACE LOW ST TO S SW W LTNG DST SW BECMG=
200708180200 METAR MROC 180200Z 28002KT 6000 VCFG FEW002 SCT006 BKN250 21/20 A3000 RMK VIS SE UNLTD LTNG DST S BECMG=
200708180300 METAR MROC 180300Z 30002KT 8000 BR FEW05 BKN250 21/20 A3001 RMK UNL E BECMG=
200708180400 METAR MROC 180400Z 01003KT 9999 SCT015 SCT250 21/19 A3002 BECMG=
200708180500 METAR MROC 180500Z 00000KT 9999 SCT025 SCT250 20/19 A3002 BECMG=
200708180600 METAR MROC 180600Z 00000KT 9999 SCT025 BKN250 20/18 A3001 BECMG=
200708180700 METAR MROC 180700Z 36004KT 9999 SCT030 BKN250 20/18 A2998 BECMG=
200708180800 METAR MROC 180800Z 00000KT 9999 FEW030 BKN250 19/17 A2996 BECMG=
200708180900 METAR MROC 180900Z 31002KT 9999 FEW004 SCT030 BKN250 19/18 A2996 BECMG=
200708181000 METAR MROC 181000Z 01004KT 9999 FEW030 BKN250 19/18 A2996 BECMG=
200708181100 METAR MROC 181100Z 06006KT 9999 SCT030 BKN250 19/17 A2996 BECMG=
200708181200 METAR MROC 181200Z 10006KT 9999 FEW030 SCT110 BKN250 20/18 A2997 BECMG=
200708181300 METAR MROC 181300Z 06005KT CAVOK 23/17 A2997 RMK TRACE SC SCT120 BKN250 BECMG=
200708181400 METAR MROC 181400Z 10011KT 9999 FEW020 BKN250 25/17 A2998 RMK FEW140 BECMG=
200708181500 METAR MROC 181500Z 06011KT 9999 FEW020 BKN140 28/16 A2997 RMK CB DST SSW BECMG=
200708181600 METAR MROC 181600Z 09009KT 9999 FEW030 SCT140 28/16 A2995 RMK CB DST S SSW BECMG=
200708181700 METAR MROC 181700Z 11006KT 9999 FEW025TCU SCT035 BKN250 28/17 A2996 RMK CB DST SSW SW RN DST E BECMG 24010KT 7000 VCSH=
200708181800 METAR MROC 181800Z 17006KT 9999 FEW025TCU SCT035 BKN250 27/20 A2995 RMK PCPN DST NW NE ESE BECMG 24010KT=
200708181900 METAR MROC 181900Z 22005KT 9999 -RA FEW025TCU SCT050 BKN230 26/21 A2992 RMK CB RASH DST W WNW NE E BECMG 5000 RA=
200708182000 METAR MROC 182000Z 26005KT 7000 RA FEW020TCU BKN040 22/20 A2993 BECMG 3000=
200708182100 METAR MROC 182100Z 12002KT 7000 200SW RA FEW015 SCT025 BKN100 20/19 A2994 BECMG RMK VIS N NE 3000MTS VIS S UNL=
200708182200 METAR MROC 182200Z 20002KT 9999 FEW002 SCT025 BKN100 21/20 A2993 RERA BECMG RMK RN SE S=
200708182300 METAR MROC 182300Z 23005KT 7000 2000SW BR FEW002 SCT025 BKN100 21/20 A2995 BECMG=
200708190000 METAR MROC 190000Z 29003KT 7000 2000SW BR FEW002 SCT015 BKN100 21/20 A2997 BECMG=
200708190100 METAR MROC 190100Z 18002KT 7000 200SW RA BR FEW002 SCT015 BKN100 20/19 A2999 BECMG=
200708190200 METAR MROC 190200Z 00000KT 9999 200SW -RA BR FEW002 SCT015 BKN100 20/19 A3001 BECMG=
200708190300 METAR MROC 190300Z 00000KT 9999 FEW025 BKN120 20/19 A3001 BECMG=
200708190400 METAR MROC 190400Z 05004KT 9999 FEW025 BKN120 20/19 A3001 BECMG=
200708190500 METAR MROC 190500Z 06004KT CAVOK 20/18 A2998 RMK BKN120 BECMG=
200708190600 METAR MROC 190600Z 06006KT CAVOK 21/17 A2996 RMK BKN120 SCT250 BECMG=
200708190700 METAR MROC 190700Z 04003KT 9999 FEW025 BKN110 20/17 A2994 BECMG=
200708190800 METAR MROC 190800Z 04005KT 9999 FEW025 SCT090 21/17 A2994 RMK SCT110 BECMG=
200708190900 METAR MROC 190900Z 08003KT 9999 FEW025 SCT090 21/17 A2995 RMK SCT110 BECMG=
200708191000 METAR MROC 191000Z 08007KT 9999 FEW025 BKN110 20/17 A2994 BECMG=
200708191100 METAR MROC 191100Z 25002KT 9999 FEW030 BKN110 19/18 A2994 BECMG=
200708191200 METAR MROC 191200Z 07003KT 9999 FEW020 SCT120 20/17 A2996 RMK DZ DST NE E=
200708191300 METAR MROC 191300Z 10004KT 9999 FEW020 SCT120 23/18 A2997 BECMG=
200708191400 METAR MROC 191400Z 23006KT 9999 FEW020 SCT120 23/19 A2999 BECMG=
200708191500 METAR MROC 191500Z 24006KT 9999 FEW020 SCT120 24/19 A2999 BECMG=
200708191600 METAR MROC 191600Z 26006KT 9999 SCT025 25/19 A2998 BECMG=
200708191700 METAR MROC 191700Z 22009KT 9999 BKN025 25/20 A2998 BECMG=
200708191800 METAR MROC 191800Z 24012KT 9999 BKN025 25/20 A2997 BECMG=
200708191900 METAR MROC 191900Z 22008KT 9999 FEW015 BKN025 25/20 A2995 BECMG=
200708192000 METAR MROC 192000Z 23012KT 9999 FEW015TCU BKN025 25/20 A2993 BECMG RMK RN SE S=
200708192100 METAR MROC 192100Z 24012KT 9999 SCT006 SCT012 24/20 A2991 RN DST E SW NW BECMG=
200708192200 METAR MROC 192200Z 24010KT 9999 FEW008 BKN015 24/20 A2991 RN E S NW BECMG=
200708192300 METAR MROC 192300Z 23009KT 9999 FEW007 BKN012 22/20 A2993 VSBY NW N 6KM DUE RN RN DST E S BECMG=
200708200000 METAR MROC 200000Z 23009KT 6000 VCFG FEW005 BKN010 21/20 A2995 RN ARND VSBY S SW W UNL BECMG=
200708200100 METAR MROC 200100Z 18004KT 9999 VCFG FEW006 SCT010 BKN120 21/19 A2997 VSBY NW N NE 6KM LOW ST BECMG=
200708200200 METAR MROC 200200Z 10004KT 9999 -RA VCFG FEW010 BKN020 21/18 A2998 VSBY NW N 6KM LOS ST BECMG=
200708200300 METAR MROC 200300Z 09008KT 9999 BKN035 21/17 A2997 BECMG=
200708200400 METAR MROC 200400Z 06007KT 9999 BKN035 21/17 A2997 BECMG=
200708200500 METAR MROC NIL=
200708200600 METAR MROC 200600Z 12002KT CAVOK 20/18 A2997 RMK TRACE SC SCT070 BECMG=
200708200700 METAR MROC 200700Z 00000KT CAVOK 20/18 A2995 RMK TRACE SC SCT070 BECMG 24004KT 7000 VCFG SCT004=
200708200800 METAR MROC 200800Z 34004KT CAVOK 19/17 A2993 RMK TRACE ST SC FEW070 BKN250 BECMG=
200708200900 METAR MROC 200900Z 13002KT CAVOK 18/17 A2992 RMK TRACE ST SC BKN250 BECMG=
200708201000 METAR MROC 201000Z 04002KT CAVOK 19/18 A2993 RMK TRACE ST SC BKN250 BECMG=
200708201100 METAR MROC 201100Z 06002KT CAVOK 18/17 A2993 RMK TRAZAS SC BKN250 BECMG=
200708201200 METAR MROC 201200Z 04003KT CAVOK 18/16 A2994 TRACE SCT SCT120 BECMG=
200708201300 METAR MROC 201300Z 03005KT CAVOK 21/17 A2996 RMK SCT120 TRAZAS SC CB DST S/SW=
200708201400 METAR MROC 201400Z 00000KT CAVOK 24/18 A2997 TRAZAS SCT FEW280 CB DST S BECMG=
200708201500 METAR MROC 201500Z 00000KT CAVOK 25/18 A2996 FEW280 TRAZAS SC/AC BECMG=
200708201600 METAR MROC 201600Z 25005KT CAVOK 26/19 A2995 TRAZAS CU FEW280 BECMG=
200708201700 METAR MROC 201700Z 23009KT 9999 FEW030 SCT280 26/19 A2996 BECMG=
200708201800 METAR MROC 201800Z 23009KT 9999 SCT025 SCT280 26/20 A2994 BECMG=
200708201900 METAR MROC 201900Z 25009KT 9999 BKN025 SCT280 27/21 A2992 RN NW BECMG=
200708202000 METAR MROC 202000Z 23012KT 9999 SCT010TCU SCT025 25/21 A2990 RN NW E S BECMG=
200708202100 METAR MROC 202100Z 21006KT 9999 4000W -RA BR SCT010 SCT020 BKN100 22/20 A2992 RMK BECMG 3000 -RA BR=
200708202200 METAR MROC 202200Z 25007KT 6000 -RA BR SCT008 SCT020 BKN100 22/20 A2991 RMK 3000N DUE RASH BECMG 3000=
200708202300 METAR MROC 202300Z 24008KT 8000 4000NW -RA BR FEW003 SCT020 BKN100 21/20 A2993 RMK BECMG 3000=
200708210000 METAR MROC 210000Z 28004KT 8000 VCFG FEW004 SCT025 BKN100 21/20 A2994 BECMG=
200708210100 METAR MROC 210100Z 28005KT 9999 FEW004 SCT025 BKN100 21/20 A2996 BECMG=
200708210200 METAR MROC 210200Z 29004KT 9999 VCFG FEW005 SCT025 BKN110 21/20 A2998 BECMG=
200708210300 METAR MROC 210300Z 28002KT 9999 FEW025 BKN110 21/19 A3000 BECMG=
200708210400 METAR MROC 210400Z 00000KT 9999 FEW025 BKN110 21/20 A3001 BECMG=
200708210500 METAR MROC 210500Z 00000KT 9999 3000SW BR FEW002 SCT030 BKN110 21/20 A3001 BECMG=
200708210600 METAR MROC 210600Z 30003KT 9999 FEW002 BKN110 21/20 A2999 BECMG=
200708210700 METAR MROC 210700Z 00000KT 9999 3000SW BR FEW001 SCT005 BKN110 20/19 A2998 BECMG=
200708210800 METAR MROC 210800Z 29004KT 9999 3000SW BR FEW001 SCT005 BKN110 20/19 A2996 BECMG=
200708210900 METAR MROC 210900Z 00000KT 9999 3000SW BR FEW001 SCT110 20/19 A2996 BECMG=
200708211000 METAR MROC 211000Z 19002KT 9999 1000SW BR FEW001 SCT003 20/19 A2996 BECMG RMK SCT110=
200708211100 METAR MROC 211100Z 33003KT 9999 200SW BR FEW001 SCT005 20/19 A2996 BECMG RMK SCT110=
200708211200 METAR MROC 211200Z 00000KT 9999 2000SW BR FEW001 SCT110 BKN250 20/19 A2996 BECMG=
200708211300 METAR MROC 211300Z 28003KT 6000 VCFG FEW002 SCT010 BKN250 21/19 A3000 RMK UNL E BECMG 7000 VCFG=
200708211400 METAR MROC 211400Z 00000KT 9999 VCFG FEW004 SCT120 BKN250 25/19 A3001 BECMG=
200708211500 METAR MROC 211500Z 24006KT 9999 SCT012 BKN140 24/19 A3003 BECMG=
200708211600 METAR MROC 211600Z 24006KT 9999 SCT010 BKN120 24/19 A3001 BECMG=
200708211700 METAR MROC 211700Z 26004KT 9999 SCT020 BKN120 26/19 A3000 BECMG=
200708211800 METAR MROC 211800Z 25005KT 9999 SCT020 BKN120 26/19 A2998 BECMG=
200708211900 METAR MROC 211900Z 23009KT 9999 SCT020 BKN120 24/21 A2994 BECMG=
200708212000 METAR MROC 212000Z 24009KT 9999 FEW010TCU SCT020 BKN110 25/21 A2992 BECMG=
200708212100 METAR MROC 212100Z 26010KT 7000 2000S -TSRA BR FEW002 SCT008CB BKN012 23/20 A2992 BECMG 2000 TSSHRA=
200708212200 METAR MROC 212200Z 23012KT 5000 2000SW RA BR SCT002 BKN005 21/20 A2994 BECMG=
200708212300 METAR MROC 212300Z 23005KT 2000 RA BR SCT002 BKN005 20/20 A2997 BECMG=
200708220000 METAR MROC 220000Z 32003KT 7000 3000SW RA BR SCT005 BKN020 20/19 A2998 BECMG=
200708220100 METAR MROC 220100Z 11002KT 9999 RA VCFG FEW003 SCT020 BKN090 20/19 A2999 RMK VIS 5000SW BECMG=
200708220200 METAR MROC 220200Z 21004KT 9999 4000SW DZ BR SCT004 BKN090 19/19M A3001 BECMG 1500 BR=
200708220300 METAR MROC 220300Z 22002KT 6000 VCFG SCT007 SCT015 BKN100 19/18 A3004 VSBY S SE UNL BECMG=
200708220400 METAR MROC 220400Z 00000KT 6000 RA VCFG SCT003 BKN010 19/18 A3004 VSBY SE UNL BECMG=
200708220500 METAR MROC 220500Z 00000KT 4000 -RAVCFG SCT002 BKN010 19/18 A3004 VSBY SE UNL BECMG=
200708220600 METAR MROC 220600Z 16002KT 6000 -RAVCFG SCT002 BKN012 19/18 A3005 VSBY SE UNL BECMG=
200708220700 METAR MROC 220700Z 00000KT 6000 -RA VCFG SCT002 BKN015 19/18 A3003 VIS SE UNL BECMG=
200708220800 METAR MROC 220800Z 02005KT 9999 FEW005 SCT025 BKN120 19/19 A3000 BECMG=
200708220900 METAR MROC 220900Z 14003KT 9999 FEW005 BKN100 19/18 A2997 BECMG=
200708221000 METAR MROC 221000Z 07003KT CAVOK 19/18 A2995 SCT120 BECMG=
200708221100 METAR MROC 221100Z 00000KT CAVOK 19/18 A2997 TRAZAS SCT SCT100 SCT250 BECMG=
200708221200 METAR MROC 221200Z 00000KT 0800 FG SCT001 BKN100 19/18 A2999 VSBY NE 3KM BECMG=
200708221300 METAR MROC 221300Z 24003KT 2000 BR SCT001 BKN008 19/18 A3002 RMK VIS 7000E 5000N BECMG=
200708221400 METAR MROC 221400Z 16003KT 7000 VCFG SCT004 BKN250 21/19 A3002 BECMG 9999=
200708221500 METAR MROC 221500Z 26002KT 9999 SCT015 BKN120 24/19 A3003 RMK LEVE HZY BECMG=
200708221600 METAR MROC 221600Z 23006KT 9999 SCT025 BKN130 24/20 A3002 BECMG=
200708221700 METAR MROC 221700Z 23005KT 9999 FEW015 SCT025 SCT130 24/19 A3002 BECMG=
200708221800 METAR MROC 221800Z VRB03KT 9999 FEW025 SCT120 BKN250 27/19 A2999 BECMG=
200708221900 METAR MROC 221900Z VRB03KT 9999 SCT020 BKN140 29/18 A2995 RMK FEW250 BECMG=
200708222000 METAR MROC 222000Z 25005KT 9999 FEW015 BKN025 28/19 A2992 RMK FEW120 RN DST SW BECMG=
200708222050 METAR MROC 222050Z 23007KT 9999 -RA FEW015TCU BKN025 24/22 A2991=
200708222100 METAR MROC 222100Z 21006KT 9999 -RA FEW015TCU BKN025 24/22 A2992 BECMG 7000 TSRA=
200708222200 METAR MROC 222200Z 09007KT 2000 TSRA FEW012CB SCT025 BKN100 19/19 A2995 RMK VIS S UNLTD BECMG 5000=
200708222300 METAR MROC 222300Z 01004KT 9999 -DZ FEW020 SCT035 BKN100 19/19 A2996 RMK RETS DVLPNG LOW ST TO S SW RN DST SE BECMG 7000 VCFG=
200708230000 METAR MROC 230000Z 00000KT 9999 FEW010 SCT035 BKN120 20/19 A2997 REDZ BECMG=
200708230100 METAR MROC 230100Z 27003KT 9999 FEW010 SCT030 BKN120 20/19 A3000 BECMG=
200708230200 METAR MROC 230200Z 00000KT 8000 -RA DZ SCT010 SCT030 BKN100 20/19 A3002 RMK VIS SSW SW 5KMS BECMG 3000 -RA BR=
200708230300 METAR MROC 230300Z 00000KT 7000 VCFG FEW007 SCT030 BKN100 20/19 A3003 BECMG=
200708230400 METAR MROC 230400Z 06002KT 9999 FEW007 SCT030 BKN100 20/19 A3002 BECMG=
200708230500 METAR MROC NIL=
200708230600 METAR MROC 230600Z 24002KT 9999 3000W BR FEW001 SCT030 BKN100 20/19 A3000 RMK BECMG 2000W BR=
200708230700 METAR MROC 230700Z 00000KT 9999 1000W BR SCT001 SCT030 BKN100 20/19 A2999 BECMG=
200708230800 METAR MROC 230800Z 00000KT 4000 1200SW BR SCT001 SCT030 BKN100 20/19 A2998 BECMG=
200708230900 METAR MROC 230900Z 07002KT 9999 4000SW FEW002 SCT030 BKN100 20/19 A2998 RMK BECMG UNL=
200708231000 METAR MROC 231000Z 04004KT 9999 SCT030 BKN100 20/19 A2997 BECMG=
200708231100 METAR MROC 231100Z 00000KT 9999 SCT030 BKN100 20/19 A2998 BECMG=
200708231200 METAR MROC 231200Z 06004KT 9999 FEW030 SCT120 19/18 A3000 BECMG=
200708231300 METAR MROC 231300Z 09006KT CAVOK 22/18 A3000 RMK FEW120 SCT300 CB DST S SSW BECMG=
200708231400 METAR MROC 231400Z 00000KT CAVOK 26/19 A3002 RMK TRACE SC SCT120 FEW300 CB DST S SSW BECMG 24006KT=
200708231500 METAR MROC 231500Z 00000KT 9999 FEW025 SCT120 26/19 A3002 BECMG=
200708231600 METAR MROC 231600Z 23006KT 9999 FEW025 SCT140 26/20 A3002 RMK HZY BECMG=
200708231700 METAR MROC 231700Z 23008KT 9999 FEW025 SCT140 25/20 A3001 TCU DST E S HZY BECMG=
200708231800 METAR MROC 231800Z 22008KT 9999 FEW020TCU SCT030 26/20 A2999 RMK HZY BECMG 7000 VCSH=
200708231900 METAR MROC 231900Z 24009KT 9999 -TS VCSH FEW015CB BKN030 25/20 A2998 RMK VIS E 8KMS BECMG 5000 TSRA=
200708232000 METAR MROC 232000Z 06009KT 9999 2500SW -SHRA FEW015CB SCT025 BKN100 20/18 A2997 BECMG=
200708232100 METAR MROC 232100Z 11002KT 9999 FEW015CB SCT030 BKN100 22/19 A2996 BECMG RMK RN N NE=
200708232200 METAR MROC 232200Z 29004KT 9999 FEW005 SCT030 BKN100 24/19 A2995 BECMG=
200708232300 METAR MROC 232300Z 00000KT 9999 FEW005 SCT030 BKN100 23/20 A2995 BECMG=
200708240000 METAR MROC 240000Z 24006KT 8000 VCFG FEW003 SCT020 BKN120 21/20 A2999 BECMG=
200708240100 METAR MROC 240100Z 28004KT 8000 VCFG FEW003 SCT010 BKN120 21/20 A3002 BECMG=
200708240200 METAR MROC 240200Z 24006KT 9999 3000SW -RA FEW008 SCT020 BKN100 21/20 A3003 BECMG=
200708240300 METAR MROC 240300Z 34004KT 9999 FEW015 SCT250 20/19 A3003 BECMG=
200708240400 METAR MROC 240400Z 12002KT 9999 FEW010 BKN250 20/19 A3003 BECMG=
200708240500 METAR MROC 240500Z 31004KT 9999 FEW010 SCT120 20/19 A3005 BECMG=
200708240600 METAR MROC 240600Z 00000KT 9999 FEW015 SCT025 BKN120 20/19 A3003 RMK=
200708240700 METAR MROC 240700Z 10002KT 9999 SCT025 BKN120 20/19 A3002 RMK ST S BECMG=
200708240800 METAR MROC 240800Z 09004KT 9999 SCT030 BKN120 20/19 A2999 RMK ST S BECMG=
200708240900 METAR MROC 240900Z 01003KT 9999 FEW005 SCT120 19/18 A2998 RMK FEW250 CB/LTNG DST SSW ST S/SW BECMG=
200708241000 METAR MROC 241000Z 08006KT 9999 VCSH FEW003 SCT250 19/17 A2997 RMK CB/LTNG DST SW VIS 6KM SW DUE ST BECMG=
200708241100 METAR MROC 241100Z 10002KT 9999 VCFG FEW001 SCT250 18/16 A2998 RMK VIS S/SW 7KM DUE ST BECMG=
200708241200 METAR MROC 241200Z 06003KT CAVOK 19/17 A2999 RMK SCT250 LEVE HZ SW=
200708241300 METAR MROC 241300Z 09006KT CAVOK 22/18 A3000 BECMG RMK TRACE SC CU SCT270=
200708241400 METAR MROC 241400Z 07006KT 9999 FEW040 SCT270 25/18 A3001 BECMG RMK HZ W=
200708241500 METAR MROC 241500Z 10006KT 9999 FEW040 SCT250 26/18 A3000 BECMG=
200708241600 METAR MROC 241600Z 10008KT 9999 FEW040 BKN250 28/17 A3000 BECMG=
200708241700 METAR MROC 241700Z 08012KT 9999 SCT040 BKN250 29/17 A2999 BECMG=
200708241800 METAR MROC 241800Z 07007KT 9999 SCT040 BKN250 29/16 A2997 BECMG=
200708241900 METAR MROC 241900Z 22010KT 9999 FEW015TCU SCT025 BKN250 27/22 A2996 BECMG=
200708242000 METAR MROC 242000Z 22008KT 9999 FEW015TCU SCT035 BKN250 26/22 A2994 BECMG=
200708242012 METAR MROC 242012Z 28008KT 9999 3000 SW RA FEW025CB SCT030 27/25 A2981 RMK SCT120=
200708242100 METAR MROC 242100Z 25011KT 7000 VCFG SCT007 SCT015 BKN270 25/21 A2993 VSBY E NE UNL=
200708242200 METAR MROC 242200Z 23008KT 9999 SCT008 BKN015 23/21 A2993 BECMG=
200708242300 METAR MROC 242300Z 23007KT 7000 VCSH SCT008 FEW015TCU BKN280 23/21 A2993 RN N/S/NE VSBY SE UNL BECMG=
200708250000 METAR MROC 250000Z 27003KT 5000 BR SCT003 FEW015 BKN280 22/21 A2995 BECMG=
200708250100 METAR MROC 250100Z 00000KT 9999 BKN007 BKN250 22/21 A2996 VSBY SW 5KM LOW ST LTNG DST SW BECMG=
200708250200 METAR MROC 250200Z 24002KT 9999 FEW010 BKN250 21/20 A2998 LTNG DST S BECMG=
200708250300 METAR MROC 250300Z 00000KT 9999 FEW010 OVC220 22/19 A2998 RMK LTNG DST S BECMG=
200708250400 METAR MROC 250400Z 05007KT 9999 VCFG SCT140 BKN220 21/19 A3001 VIS SSW SW 8KMS LTNG DST S BECMG=
200708250500 METAR MROC 250500Z 06008KT CAVOK 21/18 A2999 RMK TRACE SC SCT120 SCT250=
200708250600 METAR MROC 250600Z 01008KT CAVOK 22/16 A2997 RMK TRACE SC FEW120 BKN250=
200708250700 METAR MROC 250700Z 10004KT CAVOK 21/16 A2996 RMK TRACE SC BKN250 LTNG DST S SW BECMG=
200708250800 METAR MROC 250800Z 36003KT CAVOK 20/18 A2996 RMK TRACE SC BKN250 BECMG=
200708250900 METAR MROC 250900Z 08004KT 9999 -RA OVC100 19/18 A2996 BECMG=
200708251000 METAR MROC 251000Z 04005KT 9999 -RA OVC100 19/17 A2995 BECMG=
200708251100 METAR MROC 251100Z 02006KT 9999 FEW030 BKN100 19/17 A2995 BECMG CAVOK=
200708251200 METAR MROC 251200Z 00000KT 9999 FEW030 SCT100 BKN250 19/18 A2997 RMK TRACE ST S SW RERA BECMG=
200708251300 METAR MROC 251300Z 09002KT CAVOK 20/18 A2999 TRAZAS SCT FEW130 BKN260 TCU SW BECMG=
200708251400 METAR MROC 251400Z 17002KT 9999 FEW030 BKN130 23/18 A3000 BECMG=
200708251500 METAR MROC 251500Z 23004KT 9999 FEW025 BKN120 24/19 A3001 BECMG=
200708251600 METAR MROC 251600Z 24008KT 9999 FEW025 BKN120 23/19 A3001 BECMG=
200708251700 METAR MROC 251700Z 25008KT 9999 FEW015 BKN120 24/20 A3001 BECMG=
200708251800 METAR MROC 251800Z 23006KT 9999 -RA SCT015 BKN025 23/19 A2999 BECMG=
200708251900 METAR MROC 251900Z 26007KT 9999 SCT012 SCT025 24/20 A2995 RN ARND BECMG=
200708252000 METAR MROC 252000Z 23009KT 9999 -RA SCT010 SCT030 BKN120 22/19 A2993 BECMG=
200708252100 METAR MROC 252100Z 36005KT 8000 4000NE RA FEW006 SCT015 OVC100 21/19 A2993 BECMG=
200708252200 METAR MROC 252200Z 05007KT 4000 RA BR FEW003 SCT010 OVC100 20/18 A2994 BECMG=
200708252300 METAR MROC 252300Z 04008KT 8000 4000NE RA BR FEW003 SCT010 OVC100 19/17 A2995 BECMG=
200708260000 METAR MROC 260000Z 07008KT 6000 RABR FEW004 SCT015 OVC100 18/17 A2997 BECMG=
200708260100 METAR MROC 260100Z 00000KT 9999 FEW030 BKN110 18/17 A2996 BECMG=
200708260200 METAR MROC 260200Z 06004KT 9999 FEW030 BKN110 18/17 A2998 BECMG=
200708260300 METAR MROC 260300Z 06004KT CAVOK 18/17 A2999 BECMG RMK SCT110 BKN250=
200708260400 METAR MROC 260400Z 11004KT CAVOK 18/17 A2999 BECMG RMK SCT110 BKN250=
200708260500 METAR MROC 260500Z 33004KT CAVOK 19/17 A3001 BECMG RMK SCT110 BKN250=
200708260600 METAR MROC 260600Z 12003KT CAVOK 18/17 A2999 BECMG RMK SCT120 BKN250=
200708260700 METAR MROC 260700Z 08003KT CAVOK 18/17 A2996 BECMG RMK SCT120 BKN250=
200708260800 METAR MROC 260800Z 06007KT CAVOK 18/17 A2995 BECMG RMK SCT120 BKN250=
200708260900 METAR MROC 260900Z 11004KT CAVOK 18/17 A2993 BECMG SCT120 BKN250=
200708261000 METAR MROC 261000Z 04007KT CAVOK 18/17 A2994 BECMG RMK SCT120 BKN250=
200708261100 METAR MROC NIL=
200708261200 METAR MROC 261200Z 06005KT CAVOK 18/16 A2994 BECMG RMK BKN120=
200708261300 METAR MROC 261300Z 35003KT CAVOK 19/16 A2998 BECMG=
200708261400 METAR MROC 261400Z 35003KT CAVOK 20/17 A3000 RMK TRACE SC BKN120 BECMG=
200708261600 METAR MROC NIL=
200708261700 METAR MROC 261700Z 21006KT CAVOK 24/19 A2998 RMK TRACE SC BKN120=
200708261800 METAR MROC 261800Z 24010KT 9999 FEW030 BKN120 24/19 A2998 BECMG=
200708261900 METAR MROC 261900Z 25008KT 9999 SCT025 BKN120 24/20 A2995 BECMG=
200708262000 METAR MROC 262000Z 27006KT 9999 SCT025 SCT120 24/19 A2992 BECMG=
200708262100 METAR MROC 262100Z 23008KT 9999 BKN025 SCT250 25/20 A2990 RMK FEW120 BECMG=
200708262200 METAR MROC 262200Z 22007KT 9999 VCSH FEW015 SCT025 SCT100 23/20 A2990 RMK 6000SW RN DST SSW S NE BECMG -RA=
200708262300 METAR MROC 262300Z 23008KT 7000 3000SW -DZ BR FEW001 SCT010 BKN100 21/19 A2991 RMK BECMG 3000 BR=
200708270000 METAR MROC 270000Z 26004KT 9999 4000SW DZ BR FEW002 SCT010 BKN100 20/19 A2994 BECMG=
200708270100 METAR MROC 270100Z 29002KT 9999 -RA SCT006 BKN100 21/19 A2996 BECMG=
200708270200 METAR MROC 270200Z 34004KT 9999 -RA SCT015 BKN100 20/19 A2998 BECMG=
200708270300 METAR MROC 270300Z 29005KT 7000 -RA VCFG SCT003 SCT012 BKN100 20/20 A3000 VSBY N NE E UNL BECMG=
200708270400 METAR MROC 270400Z 22005KT 5000 BR FEW002 SCT005 BKN010 20/19 A3003 BECMG=
200708270500 METAR MROC 270500Z 36002KT 9999 FEW002 SCT025 BKN100 20/19 A3003 BECMG=
200708270600 METAR MROC 270600Z 03004KT 9999 -RA FEW005 SCT025 BKN100 20/19 A3001 BECMG=
200708270700 METAR MROC NIL=
200708270800 METAR MROC NIL=
200708270900 METAR MROC 270900Z 26005KT 2000 BR FEW001 SCT005 BKN120 19/18 A2993 VSBY S UNL BECMG=
200708271000 METAR MROC 271000Z 29004KT 3000 BR FEW001 SCT005 BKN120 19/18 A2994 BECMG=
200708271100 METAR MROC 271100Z 30002KT 9999 FEW008 SCT120 BKN250 20/18 A2994 BECMG=
200708271200 METAR MROC NIL=
200708271300 METAR MROC 271300Z 09005KT 9999 FEW015 BKN250 21/18 A2998 BECMG=
200708271400 METAR MROC 271400Z 09004KT CAVOK 24/19 A2999 RMK BKN280 TCU DST SSW SW W BECMG=
200708271500 METAR MROC 271500Z 09002KT 9999 FEW030 BKN250 26/18 A3000 BECMG=
200708271600 METAR MROC 271600Z 23004KT 9999 FEW030 BKN250 27/19 A3000 BECMG=
200708271700 METAR MROC NIL=
200708271800 METAR MROC 271800Z 24009KT 9999 SCT025 BKN250 27/20 A2995 BECMG=
200708271900 METAR MROC 271900Z 25012KT 9999 VCSH FEW015CB BKN025 25/21 A2993 RMK VIS 7000N TS DST NW=
200708272000 METAR MROC 272000Z 30004KT 9999 -TSRA FEW004 SCT012CB BKN025 22/19 A2993 RMK VIS 5000SE BECMG=
200708272100 METAR MROC 272100Z 14002KT 7000 3000SW TS VCSH SCT010CB BKN025TCU 21/19 A2994 RMK TS MVNG OVER S QUAD BECMG 2000 TSRA=
200708272200 METAR MROC 272200Z 28002KT 2500 RA VCSH FEW015CB SCT035 BKN100 19/18 A2995 RMK VIS E ESE 6KMS ACUMULACION DE AGUA EN PISTA BECMG 5000=
200708272300 METAR MROC NIL=
200708280000 METAR MROC NIL=
200708280100 METAR MROC NIL=
200708280200 METAR MROC NIL=
200708280300 METAR MROC 280300Z 07004KT CAVOK 19/17 A3000 RMK TRACE SC BKN140 BECMG=
200708280400 METAR MROC 280400Z 04006KT CAVOK 19/16 A3001 BECMG=
200708280500 METAR MROC 280500Z 10002KT CAVOK 18/17 A3001 RMK TRACE SC BKN120 BECMG=
200708280600 METAR MROC 280600Z 03005KT CAVOK 18/16 A3000 RMK BKN120 BECMG=
200708280700 METAR MROC 280700Z 07002KT CAVOK 18/16 A2999 RMK BKN120 BECMG=
200708280800 METAR MROC 280800Z 07004KT CAVOK 17/16 A2996 RMK BKN120 BECMG=
200708280900 METAR MROC 280900Z 08005KT CAVOK 17/16 A2995 RMK BKN120 BECMG=
200708281000 METAR MROC 281000Z 06006KT CAVOK 17/15 A2994 RMK SCT130 BECMG=
200708281100 METAR MROC 281100Z 04007KT CAVOK 17/15 A2994 TRACE SC SCT250 CB DIST SW BECMG=
200708281200 METAR MROC 281200Z 07004KT CAVOK 17/18 A2995 RMK CB DST S TRACE SC SCT250=
200708281300 METAR MROC 281300Z 11005KT CAVOK 20/16 A2996 RMK BKN250 CB DST S BECMG=
200708281400 METAR MROC 281400Z 23003KT CAVOK 22/18 A2997 RMK TRACE CU AC BKN250 CB DST S SSW BECMG=
200708281500 METAR MROC 281500Z 23009KT CAVOK 23/18 A2998 RMK TRACE CU AC BKN250 CB DST S SW BECMG=
200708281600 METAR MROC 281600Z 23006KT 9999 FEW025 BKN250 24/19 A2999 RMK CB DST S WSW BECMG=
200708281700 METAR MROC 281700Z 25006KT 9999 SCT025 SCT250 25/19 A2998 BECMG=
200708281800 METAR MROC 281800Z 22008KT 9999 FEW017TCU SCT030 25/20 A2997 RMK RASH DST SSE BECMG 7000 RA=
200708281900 METAR MROC 281900Z 24006KT 9999 FEW015TCU BKN035 26/19 A2994 RMK CB RASH DST ENE E BECMG 5000 RA=
200708282000 METAR MROC 282000Z 22008KT 9999 FEW015CB SCT030 BKN100 24/20 A2994 RMK TS RASH DST ENE E ESE RN S SW BECMG 5000 TSRA=
200708282100 METAR MROC 282100Z 24007KT 9999 -RA FEW015CB SCT030 BKN100 22/20 A2993 BECMG=
200708282200 METAR MROC 282200Z 24006KT 9999 3000SW BR FEW001 SCT020 BKN100 22/20 A2993 BECMG=
200708282300 METAR MROC 282300Z 27005KT 8000 3000SW BR FEW001 SCT020 BKN100 21/20 A2995 BECMG=
200708290000 METAR MROC 290000Z 25003KT 9999 3000SW -RA BR FEW001 SCT020 BKN100 21/19 A2996 BECMG=
200708290100 METAR MROC 290100Z 00000KT 9999 3000SW -RA BR FEW001 SCT005 OVC100 20/20 A3000 BECMG=
200708290200 METAR MROC 290200Z 00000KT 9999 3000SW RA BR FEW001 OVC100 20/19 A3001 BECMG=
200708290300 METAR MROC 290300Z 25003KT 9999 4000SW RA BR SCT003 BKN090 20/20 A3005 BECMG=
200708290400 METAR MROC 290400Z 03004KT 9999 SCT008 SCT120 20/19 A3004 BECMG=
200708290500 METAR MROC 290500Z 09003KT CAVOK 20/19 A3001 RMK BKN120 BECMG=
200708290600 METAR MROC 290600Z 04005KT CAVOK 20/18 A2998 RMK BKN120 BECMG=
200708290700 METAR MROC 290700Z 03005KT 9999 FEW003 SCT120 20/18 A2998 RMK DUE ST SW=
200708290800 METAR MROC 290800Z 20002KT 9999 3000SW BR FEW001 SCT120 19/18 A2997=
200708290900 METAR MROC 290900Z 20002KT 7000 3000SW BR FEW001 SCT003 19/18 A2997=
200708291000 METAR MROC 291000Z 29003KT 7000 3000SW BR FEW002 SCT005 19/19 A2999=
200708291100 METAR MROC 291100Z 00000KT 9999 3000SW BR FEW001 SCT005 19/19 A2999=
200708291200 METAR MROC 291200Z 07003KT 9999 FEW015 BKN250 18/17 A3001=
200708291300 METAR MROC 291300Z 09003KT 9999 FEW015 BKN250 20/18 A3001 BECMG RMK TRACE CU=
200708291400 METAR MROC 291400Z 06005KT CAVOK 23/18 A3002 BECMG TRACE SCT CU AC BKN250=
200708291500 METAR MROC 291500Z 22005KT CAVOK 25/20 A3003 BECMG TRACE SCT CU AC BKN250=
200708291600 METAR MROC 291600Z 24009KT 9999 FEW040 BKN250 24/19 A3004 BECMG=
200708291700 METAR MROC 291700Z 23009KT 9999 FEW040 BKN250 26/20 A3004 BECMG=
200708291800 METAR MROC 291800Z 24007KT 9999 SCT035 BKN250 26/21 A3002 RMK BECMG=
200708291900 METAR MROC 291900Z 22008KT 9999 SCT035 BKN250 25/21 A2999 RMK BECMG 7000 VCSH=
200708292000 METAR MROC 292000Z 24010KT 9999 FEW015TCU SCT030 BKN250 25/21 A2995 RMK BECMG 7000 VCSH=
200708292100 METAR MROC 292100Z 23009KT 9999 SCT008 FEW015CB BKN250 24/21 A2994 CB DST S BECMG=
200708292200 METAR MROC 292200Z 22007KT 7000 TS VCSH SCT006 FEW010CB BKN015 23/21 A2995 CB/RN/TS S BECMG=
200708292300 METAR MROC 292300Z 24008KT 4000 RA BR SCT005 BKN010 22/20 A2998 VSBY N NE 3KM BECMG=
200708300000 METAR MROC 300000Z 17004KT 6000 TSRA BR FEW002 FEW015CB BKN025 21/20 A3001 RMK VSBY SE UNL TS W SW S BECMG 2000 -RA BR=
200708300100 METAR MROC 300100Z 33008KT 9999 FEW010 BKN270 21/19 A3001 BECMG=
200708300200 METAR MROC 300200Z 19004KT 9999 FEW010 BKN270 20/19 A3002 LTNG DST SE BECMG=
200708300300 METAR MROC 300300Z 06004KT 9999 FEW007 BKN020 20/19 A3004 RMK HZ W=
200708300400 METAR MROC 300400Z 07005KT 9999 FEW025 SCT130 BKN250 21/19 A3003 BECMG=
200708300500 METAR MROC 300500Z 31005KT 9999 VCFG SCT030 BKN120 21/18 A3002 VIS S 6MKS BECMG 5000 BR=
200708300600 METAR MROC 300600Z 00000KT 7000 2000SW VCFG FEW001 SCT010 19/18 A3002 RMK VIS E UNLTD BECMG=
200708300700 METAR MROC 300700Z 00000KT 8000 VCFG FEW002 SCT030 BKN120 20/19 A3001 RMK LTNG DST S BECMG=
200708300800 METAR MROC 300800Z 34003KT 9999 VCFG FEW030 SCT120 20/18 A2997 RMK TRACE OF LOW ST TO S SSW VIS 7 KMS TO SSW BECMG=
200708300900 METAR MROC 300900Z 08003KT 9999 FEW035 SCT120 19/18 A2996 BECMG=
200708301000 METAR MROC 301000Z 35004KT CAVOK 19/18 A2996 RMK TRACE ST SC FEW120 SCT250 LTNG DST S=
200708301100 METAR MROC 301100Z 02004KT CAVOK 20/18 A2998 RMK TRACE SC SCT120 BKN250=
200708301200 METAR MROC 301200Z 06006KT 9999 FEW025 BKN250 20/18 A3000 RMK CB LINE W WNW=
200708301300 METAR MROC 301300Z 06005KT 9999 FEW040 SCT130 BKN260 21/18 A3002 CB DST S W BECMG=
200708301400 METAR MROC 301400Z 10007KT CAVOK 25/19 A3002 FEW120 BKN260 TRAZAS CU CB DST S BECMG=
200708301500 METAR MROC 301500Z 20004KT 9999 FEW025 BKN260 25/20 A3003 BECMG=
200708301600 METAR MROC 301600Z 23009KT 9999 FEW010 SCT020 BKN260 24/20 A3003 HZ W NW N BECMG=
200708301700 METAR MROC 301700Z 23008KT 9999 FEW010 SCT020 BKN260 24/20 A3002 HZ N NE BECMG=
200708301800 METAR MROC 301800Z 25006KT 9999 FEW015TCU BKN020 25/20 A2999 VSBY ENE/NW 7KM DUE RASH BECMG 7000 -RA=
200708301900 METAR MROC NIL=
200708302000 METAR MROC 302000Z 24009KT 9999 SCT012 SCT025 24/21 A2993 RN NE BECMG=
200708302100 METAR MROC 302100Z 24011KT 3000 TSRA SCT005 SCT015 OVC100 23/21 A2992 UNL W BECMG 6000 -RA=
200708302200 METAR MROC 302200Z 18004KT 4000 -TSRA SCT008CB SCT015 OVC100 20/19 A2995 RMK TS 8000 W BECMG=
200708302300 METAR MROC 302300Z 31006KT 8000 VCFG FEW005 BKN100 20/19 A2996 BECMG=
200708310000 METAR MROC 310000Z 00000KT 8000 VCFG FEW005 SCT020 OVC120 20/19 A2998 BECMG=
200708310100 METAR MROC 310100Z 17002KT 9999 VCFG FEW002 SCT020 OVC120 20/19 A3001 RMK 6000 W DUE FG LTNG DST S BECMG=
200708310200 METAR MROC 310200Z 23008KT 8000 VCFG FEW003 SCT015 OVC120 19/18 A3004 BECMG=
200708310300 METAR MROC 310300Z 25008KT 8000 VCFG FEW003 SCT008 BKN120 19/18 A3006 BECMG=
200708310354 METAR MROC 310354Z 28004KT 8000 3000SW RA BR FEW001 SCT008 OVC100 19/18 A3008 BECMG=
200708310400 METAR MROC 310400Z 28004KT 8000 3000SW RA BR FEW001 SCT008 OVC100 19/18 A3008 BECMG=
200708310500 METAR MROC 310500Z 34003KT 9999 3000SW -RA BR FEW001 SCT008 OVC100 19/18 A3008 BECMG=
200708310600 METAR MROC 310600Z 12003KT 9999 FEW008 SCT030 BKN100 19/18 A3003 RMK BECMG CAVOK=
200708310700 METAR MROC NIL=
200708310800 METAR MROC NIL=
200708310900 METAR MROC NIL=
200708311000 METAR MROC 311000Z 05008KT CAVOK 19/16 A2995 RMK SCT110 BKN250=
200708311100 METAR MROC 311100Z 07007KT CAVOK 19/17 A2997 RMK SCT120 BKN250=
200708311200 METAR MROC 311200Z 05009KT CAVOK 19/17 A2997 RMK SCT120 BKN250=
200708311300 METAR MROC 311300Z 07007KT CAVOK 23/17 A2999 RMK TRACE SC BKN250=
200708311400 METAR MROC 311400Z 13004KT CAVOK 26/17 A2999 RMK TRACE SC SCT250 BECMG 24007KT=
200708311500 METAR MROC 311500Z 23010KT 9999 FEW030 SCT250 24/19 A2999 BECMG=
200708311600 METAR MROC 311600Z 24009KT 9999 FEW030 SCT250 24/19 A3000 BECMG=
200708311700 METAR MROC 311700Z 24009KT 9999 SCT025 25/19 A3000 BECMG=
200708311800 METAR MROC 311800Z 22007KT 9999 SCT025 26/19 A2999 BECMG=
200708311900 METAR MROC 311900Z 24010KT 9999 VCSH SCT020CB SCT030 25/20 A2998 RMK CB RN NE 8000 BECMG 7000 VCSH=
200708312000 METAR MROC 312000Z 23009KT 9999 VCSH SCT015CB SCT020 BKN100 24/20 A2995 RMK CB RASH NE 6000 BECMG 4000 TSRA=
200708312100 METAR MROC 312100Z 25008KT 8000 -RA FEW015CB SCT025 BKN100 22/20 A2996 RMK VIS N 6KMS=
200708312200 METAR MROC 312200Z 22008KT 9999 4000W BR FEW002 SCT005 BKN020 21/20 A2996 RMK TS DTS E/SE BECMG 4000 VCFG=
200708312300 METAR MROC 312300Z 27003KT 3000 1500W TSRA FEW001 SCT004 BKN010CB 20/20 A2999 BECMG 5000 -RA=
200709010000 METAR MROC 010000Z 06004KT 9999 -RA SCT025 BKN100 19/18 A3001 BECMG=
200709010100 METAR MROC 010100Z 01005KT 9999 RA SCT020 OVC110 19/17 A3002 BECMG=
200709010200 METAR MROC 010200Z 02005KT 9999 -RA SCT020 OVC110 19/17 A3005 BECMG=
200709010300 METAR MROC 010300Z 03004KT 9999 RA FEW040 OVC100 19/17 A3007 BECMG=
200709010400 METAR MROC 010400Z 06005KT 9999 RA OVC10019/17 A3007 BECMG=
200709010500 METAR MROC 010500Z 07005KT 9999 -RA OVC100 19/18 A3005 BECMG=
200709010600 METAR MROC 010600Z 05004KT 9999 -RA OVC100 19/17 A3005 BECMG=
200709010700 METAR MROC 010700Z 06005KT CAVOK 19/16 A3002 OVC100 BECMG=
200709010800 METAR MROC 010800Z 03007KT CAVOK 19/16 A2997 OVC100=
200709010900 METAR MROC 010900Z 07003KT CAVOK 18/16 A2997 SCT100 SCT250=
200709011000 METAR MROC 011000Z 050004KT CAVOK 18/16 A2997 BKN100 BECMG=
200709011100 METAR MROC 011100Z 08004KT CAVOK 18/16 A2998 BKN100 BECMG=
200709011200 METAR MROC 011200Z 06005KT CAVOK 19/15 A2999 BKN100 BECMG=
200709011300 METAR MROC 011300Z 33003KT CAVOK 20/17 A3002 RMK BKN120 CB DST S/SW=
200709011400 METAR MROC 011400Z 00000KT CAVOK 23/16 A3004 RMK SCT120 CB DST S/SW BECMG=
200709011500 METAR MROC 011500Z 23006KT CAVOK 24/18 A3004 RMK CB DST SW TRAZAS SC BECMG=
200709011600 METAR MROC 011600Z 26008KT 9999 FEW035 SCT250 25/18 A3005=
200709011700 METAR MROC 011700Z 22010KT 9999 SCT035 25/19 A3004 TRAZAS DE AC/CI BECMG=
200709011800 METAR MROC 011800Z 24010KT 9999 FEW025TCU SCT035 25/19 A3002 RMK TRAZAS AC BECMG=
200709011900 METAR MROC 011900Z 23008KT 9999 SCT012CB BKN030 27/19 A3000 RMK TS DST E/SE VIS 8KMS BECMG 7000 VCSH=
200709012000 METAR MROC 012000Z 24005KT 9999 FEW025TCU SCT030 BKN120 25/19 A2996 RMK CB DST N RN DST SW=
200709012100 METAR MROC 012100Z 18006KT 9999 4000S -RA VCSH SCT010CB BKN025TCU 22/20 A2995 RMK TS DST ESE BECMG 2000 TSRA=
200709012200 METAR MROC 012200Z 28004KT 2000 TSRA SCT015CB BKN030 21/19 A2996 RMK VIS S SSW UNLTD BECMG 6000=
200709012300 METAR MROC 012300Z 36007KT 7000 -TSRA FEW015CB BKN030 20/19 A3000 RMK VIS E SE UNLTD BECMG=
200709020000 METAR MROC 020000Z 30003KT 9999 -TSRA FEW015CB SCT035 BKN100 19/18 A3003 RMK TS RASH VIS 7KMS WSW W WNW BECMG=
200709020100 METAR MROC 020100Z 34002KT 9999 FEW030 BKN100 20/18 A3003 BECMG=
200709020200 METAR MROC 020200Z 13003KT 9999 FEW030 BKN100 19/18 A3004 BECMG=
200709020300 METAR MROC 020300Z 08004KT CAVOK 19/18 A3005 RMK FEW100 SCT250 BECMG=
200709020400 METAR MROC 020400Z 02005KT CAVOK 19/18 A3005 BECMG=
200709020500 METAR MROC 020500Z 02005KT CAVOK 19/17 A3002 BECMG=
200709020600 METAR MROC NIL=
200709020700 METAR MROC 020700Z 05002KT CAVOK 18/16 A3001 RMK SCT120 BECMG=
200709020800 METAR MROC NIL=
200709020900 METAR MROC NIL=
200709021000 METAR MROC 021000Z 03005KT CAVOK 17/16 A3000 RMK SCT250 BECMG=
200709021100 METAR MROC 021100Z 07004KT CAVOK 17/15 A3000 RMK SCT120 BECMG=
200709021200 METAR MROC 021200Z 08003KT CAVOK 17/15 A3001 RMK SCT120 BECMG=
200709021300 METAR MROC 021300Z VRB02KT CAVOK 21/16 A3004 RMK TRACE SC AC SCT250 BECMG=
200709021400 METAR MROC 021400Z 11003KT CAVOK 23/17 A3004 RMK TRACE CU SCT270 BECMG 23005KT=
200709021500 METAR MROC 021500Z 28004KT CAVOK 24/18 A3004 RMK TRACE CU SCT270 BECMG=
200709021600 METAR MROC 021600Z 24007KT 9999 FEW040 SCT270 25/19 A3005 RMK VERY DST CB TO W BECMG=
200709021700 METAR MROC 021700Z 23007KT 9999 FEW025TCU SCT035 26/20 A3004 RN DST E BECMG=
200709021800 METAR MROC 021800Z 24012KT 9999 FEW025TCU SCT035 25/20 A3002 RMK PCPN DST N SE BECMG=
200709021900 METAR MROC 021900Z 23009KT 9999 3000E -TSRA FEW012CB BKN025 23/21 A3000 BECMG 6000 SHAR=
200709022000 METAR MROC 022000Z 01009KT 9999 -RA FEW017CB SCT035 BKN100 21/19 A3000 RMK RASH DST SW W NW BECMG=
200709022100 METAR MROC 022100Z 27003KT 9999 SCT030 BKN100 23/20 A2999 RMK BECMG 6000=
200709022200 METAR MROC 022200Z 26003KT 9999 FEW010 SCT030 BKN100 23/19 A2998 BECMG=
200709022300 METAR MROC 022300Z 22004KT 9999 FEW010 SCT030 BKN100 21/20 A2999 BECMG=
200709030000 METAR MROC 030000Z 26002KT 9999 3000SW BR FEW003 SCT030 BKN100 21/20 A3001 BECMG 6000 VCFG=
200709030100 METAR MROC 030100Z 13002KT 9999 1500SW BR FEW001 SCT010 BKN100 21/20 A3002 BECMG 6000 VCFG=
200709030200 METAR MROC 030200Z VRB02KT 7000 1500SW BR FEW001 SCT010 BKN100 20/20 A3002 BECMG 1000 BR=
200709030300 METAR MROC 030300Z 08003KT CAVOK 21/18 A3003 BECMG RMK TRAZAS SC/AC=
200709030400 METAR MROC 030400Z 07005KT CAVOK 21/18 A3004 BECMG=
200709030500 METAR MROC 030500Z 01005KT CAVOK 21/16 A3004 BECMG=
200709030600 METAR MROC 030600Z 09004KT CAVOK 29/16 A3002 BECMG=
200709030700 METAR MROC 030700Z 07005KT CAVOK 20/16 A3002 BECMG=
200709030800 METAR MROC 030800Z 03004KT CAVOK 19/16 A2999 BECMG=
200709030900 METAR MROC 030900Z 00000KT CAVOK 18/16 A2998 BECMG=
200709031000 METAR MROC 031000Z 08004KT CAVOK 19/16 A3000 BECMG=
200709031100 METAR MROC 031100Z 03005KT CAVOK 18/15 A3000 BECMG=
200709031200 METAR MROC 031200Z 05006KT CAVOK 18/15 A3000 RMK CB DST SW TRAZAS AC BECMG=
200709031300 METAR MROC 031300Z 05006KT CAVOK 22/17 A3002 RMK TRACE AC CB DST SW BECMG=
200709031400 METAR MROC 031400Z 10006KT CAVOK 25/18 A3003 RMK TRACE CI CB DST SW BECMG=
200709031500 METAR MROC 031500Z 08004KT CAVOK 27/17 A3003 RMK TRACE SC CU=
200709031600 METAR MROC 031600Z 22008KT 9999 FEW040 26/20 A3003 RMK BECMG=
200709031700 METAR MROC 031700Z 25012KT 9999 SCT040 26/20 A3003 BECMG=
200709031800 METAR MROC 031800Z 24010KT 9999 FEW015TCU SCT035 26/21 A2999 RMK RN N NE BECMG 5000 VCSH=
200709031900 METAR MROC 031900Z 22011KT 9999 FEW015TCU BKN035 25/21 A2996 RN N NE SE BECMG 5000 VCSH=
200709032000 METAR MROC 032000Z 22009KT 9999 3000SW VCSH FEW015TCU BKN030 22/20 A2995 RERA RMK RN N NE SW BECMG 3000 TS RA=
200709032100 METAR MROC 032100Z 25012KT 2500 -TSRA FEW010CB SCT012 BKN020 20/19 A2996 BECMG=
200709032200 METAR MROC 032200Z 01003KT 2500 -TSRA SCT006 FEW010CB BKN020 20/19 A2999 BECMG=
200709032300 METAR MROC 032300Z 01003KT 3000 -RA SCT005 BKN020 20/19 A3000 VSBY N NE 6KM BECMG=
200709040000 METAR MROC 040000Z 000000KT 9999 -RA FEW006 BKN012 20/19 A3002 VSBY NW N 6KM LOW ST BECMG=
200709040100 METAR MROC 040100Z 08002KT 9999 RA SCT025 OVC100 20/19 A3003 BECMG=
200709040200 METAR MROC 040200Z 09005KT 9999 RA SCT025 OVC100 19/18 A3003 BECMG=
200709040300 METAR MROC 040300Z 11002KT 9999 SCT045 BKN100 19/18 A3006 RERA BECMG=
200709040400 METAR MROC 040400Z 01004KT 9999 FEW045 BKN100 19/17 A3005 BECMG=
200709040500 METAR MROC 040500Z 10003KT CAVOK 18/17 A3003 RMK TRACE SC OVC100 BECMG=
200709040600 METAR MROC 040600Z 05004KT CAVOK 18/17 A3001 RMK TRACE SC OVC120 BECMG=
200709040700 METAR MROC 040700Z 05004KT CAVOK 18/17 A2998 RMK OVC120 BECMG=
200709040800 METAR MROC 040800Z 06004KT CAVOK 18/16 A2996 RMK BKN120=
200709040900 METAR MROC 040900Z 09003KT CAVOK 18/16 A2995 RMK FEW120 SCT250=
200709041000 METAR MROC 041000Z 00000KT CAVOK 18/16 A2996 RMK TRACE AC FEW250=
200709041100 METAR MROC 041100Z 02003KT CAVOK 16/16 A2997 RMK TRACE SC SCT100=
200709041200 METAR MROC 041200Z 09003KT 9999 SCT025 SCT100 18/16 A2998 BECMG=
200709041300 METAR MROC 041300Z 05003KT 9999 FEW012 SCT020 BKN280 20/17 A3000 BECMG=
200709041400 METAR MROC 041400Z 00000KT 9999 FEW025 SCT100 BKN250 23/18 A3001 CB DST S BECMG=
200709041500 METAR MROC 041500Z 27003KT 9999 FEW020 SCT100 BKN250 24/18 A3002 BECMG=
200709041600 METAR MROC 041600Z 27005KT 9999 SCT025 SCT100 24/18 A3002 BECMG=
200709041700 METAR MROC 041700Z 28006KT 9999 BKN025 SCT100 25/18 A3001 BECMG=
200709041800 METAR MROC 041800Z 24009KT 9999 BKN025 SCT100 24/20 A3000 RN NW BECMG=
200709041900 METAR MROC 041900Z 27008KT 9999 FEW007 SCT025 BKN100 23/19 A2998 RN S CB DST SE BECMG=
200709042000 METAR MROC 042000Z 29006KT 9999 -RA SCT010 BKN100 22/20 A2996 VSBY W 6KM BECMG=
200709042100 METAR MROC NIL=
200709042200 METAR MROC 042200Z 24007KT 9999 SCT008CB BKN100 22/20 A2995 BECMG=
200709042300 METAR MROC 042300Z 22007KT 9999 VCFG SCT0078 BKN100 22/20 A2996 RMK 4000NW DUE FG BECMG=
200709050000 METAR MROC 050000Z 08003KT 8000 VCFG SCT008 BKN120 21/20 A2996 RMK BECMG 6000 VCFG=
200709050100 METAR MROC 050100Z 27003KT 9999 SCT015 BKN120 21/20 A2997 BECMG=
200709050200 METAR MROC 050200Z 25004KT 9999 SCT015 BKN120 21/19 A2999 BECMG=
200709050300 METAR MROC 050300Z 30003KT 9999 FEW008 SCT030 BKN120 21/19 A3000 BECMG=
200709050400 METAR MROC 050400Z 29002KT 9999 FEW008 SCT030 BKN120 21/19 A3002 BECMG=
200709050500 METAR MROC 050500Z 27002KT 9999 FEW010 SCT030 BKN120 21/19 A3002 BECMG=
200709050600 METAR MROC 050600Z 00000KT 9999 FEW010 BKN120 20/19 A3001 BECMG=
200709050700 METAR MROC 050700Z 01004KT CAVOK 20/19 A2999 RMK BKN120 BECMG=
200709050800 METAR MROC 050800Z 00000KT 9999 FEW030 BKN120 19/18 A2998=
200709050900 METAR MROC 050900Z 29002KT 9999 FEW030 SCT120 20/18 A2997=
200709051000 METAR MROC 051000Z 07004KT 9999 FEW035 SCT120 19/17 A2996=
200709051100 METAR MROC 051100Z 07006KT CAVOK 19/17 A2999 RMK TRACE SC SCT120=
200709051200 METAR MROC 051200Z 07005KT CAVOK 19/17 A2999 RMK TRACE SC BKN120=
200709051300 METAR MROC 051300Z 07006KT CAVOK 21/17 A3000 RMK TRACE SC SCT120 BKN250 BECMG=
200709051400 METAR MROC 051400Z 08004KT CAVOK 24/18 A3001 RMK TRACE SC SCT120 BKN250 BECMG=
200709051500 METAR MROC 051500Z 09005KT CAVOK 26/18 A3002 TRACE SCT SCT139 BKN250 BECMG=
200709051600 METAR MROC 051600Z 09006KT CAVOK 28/17 A3001 RMK TRACE SC BKN250 BECMG 24006KT=
200709051700 METAR MROC 051700Z 23008KT 9999 FEW025 BKN250 28/20 A3000 BECMG=
200709051800 METAR MROC 051800Z 23011KT 9999 SCT025TCU SCT120 BKN250 26/21 A2999 BECMG=
200709051900 METAR MROC 051900Z 24011KT 9999 FEW010CB BKN025 25/21 A2996 RMK BECMG 5000 -TSRA=
200709052000 METAR MROC 052000Z 23010KT 9999 3000E -TSRA SCT010CB BKN020 23/21 A2995 BECMG=
200709052100 METAR MROC 052100Z 10006KT 9999 -RA SCT020 BKN100 20/18 A2995 RKM VIS N/NE 6KMS BECMG=
200709052200 METAR MROC 052200Z 10004KT 9999 SCT025 BKN100 20/18 A2997 RMK RN DST N=
200709052300 METAR MROC 052300Z 14002KT 9999 SCT025 BKN100 21/19 A2999 RMK VIS E/SE 6KMS DUE TS RASH BECMG 3000 TSRA=
200709052335 METAR MROC 052335Z 07006KT 6000 -TSRA SCT010CB BKN100 19/18 A3003 RMK VIS SW/W UNL=
200709060000 METAR MROC 060000Z 08006KT 8000 -RA SCT025 BKN100 19/18 A3003 RMK TS DAT S/SW=
200709060100 METAR MROC 060100Z 08005KT 9999 -RA SCT020 OVC100 20/18 A3005 LTNG=
200709060200 METAR MROC 060200Z 16002KT 9999 -RA FEW020 OVC110 20/19 A3007 BECMG=
200709060300 METAR MROC 060300Z 24003KT 9999 4000SW VCFG FEW001 OVC100 20/19 A3008 BECMG 5000 BR=
200709060400 METAR MROC 060400Z 00000KT 9999 FEW002 OVC100 19/19 A3009 VSBY SE 6KM BECMG=
200709060500 METAR MROC 060500Z 07004KT CAVOK 19/18 A3007 OVC100 BECMG=
200709060600 METAR MROC 060600Z 08006KT CAVOK 19/18 A3003 OVC100 BECMG=
200709060700 METAR MROC 060700Z 07006KT CAVOK 19/17 A2999 BKN120 BECMG=
200709060800 MROC 060800Z 06005KT CAVOK 19/18 A3000 OVC100 BECMG=
200709060900 METAR MROC NIL=
200709061000 METAR MROC 061000Z 07008KT CAVOK 21/14 A2994 SCT120 SCT250 NOSSIG=
200709061100 METAR MROC 061100Z 08005KT CAVOK 20/15 A2997 BKN120 BECMG=
200709061200 METAR MROC 061200Z 23009KT CAVOK 20/16 A3001 SCT120 BKN250 TRAZAS CU BECMG=
200709061300 METAR MROC 061300Z 30006KT 9999 FEW025 BKN250 20/17 A3004 RMK CB DST S/SW=
200709061400 METAR MROC 061400Z 23003KT 9999 SCT025 BKN250 22/18 A3007 RMK CB DST S/SW=
200709061500 METAR MROC 061500Z 22002KT 9999 SCT030 BKN250 25/19 A3009 RMK CB DST S/SW=
200709061600 METAR MROC 061600Z 00000KT 9999 SCT030 BKN250 26/19 A3008 RMK TRAZAS AC=
200709061700 METAR MROC 061700Z 27008KT 9999 SCT030 BKN250 25/19 A3006 RMK RN DST E=
200709061800 METAR MROC 061800Z 24008KT 9999 SCT030TCU BKN250 26/20 A3003 RKM CB DST E=
200709061900 METAR MROC 061900Z 22005KT 9999 FEW025TCU SCT030 BKN250 27/20 A2999 BECMG 7000 VCSH=
200709062000 METAR MROC 062000Z 22003KT 9999 FEW015CB SCT025 BKN120 28/20 A2996 RMK TS/RASH DST SW RN DST E BECMG 5000 -TSRA=
200709062100 METAR MROC 062100Z 25012KT 9999 4000SW TS VCSH FEW015CB SCT030 BKN120 20/18 A2998 TS MVNG TO W BECMG=
200709062200 METAR MROC 062200Z 00000KT 5000 BR SCT004 BKN010 21/19 A2999 RMK VIS E UNLTD BECMG 3000=
200709062300 METAR MROC 062300Z 00000KT 5000 BR SCT003 BKN010 21/20 A3000 RMK VIS E UNLTD BECMG 3000=
200709070000 METAR MROC 070000Z 07003KT 9999 -DZ FEW010 OVC100 20/20 A3000 RMK TRACE ST TO S SSW BECMG=
200709070100 METAR MROC 070100Z 08007KT 9999 FEW015 OVC110 21/19 A3000 REDZ BECMG=
200709070200 METAR MROC 070200Z 08005KT 9999 -DZ FEW020 OVC120 21/18 A3001 BECMG=
200709070300 METAR MROC 070300Z 07007KT 9999 FEW025 BKN120 22/18 A3003 BECMG=
200709070400 METAR MROC 070400Z 07005KT 9999 FEW025 BKN120 21/17 A3004 BECMG=
200709070500 METAR MROC 070500Z 02003KT 9999 FEW030 SCT120 21/17 A3003 BECMG=
200709070600 METAR MROC 070600Z 04003KT CAVOK 20/16 A3002 RMK SCT120 TRACE SC BECMG=
200709070700 METAR MROC 070700Z 07007KT CAVOK 19/16 A3000 RMK SCT120 BECMG=
200709070800 METAR MROC 070800Z 04005KT CAVOK 19/16 A2999 RMK SCT120 BECMG=
200709070900 METAR MROC 070900Z 04010KT CAVOK 20/16 A2998 RMK SCT120 BECMG=
200709071000 METAR MROC NIL=
200709071100 METAR MROC 071100Z 04007KT CAVOK 20/16 A2999 RMK TRACE SC=
200709071200 METAR MROC 071200Z 07007KT CAVOK 20/16 A3000 RMK TRACE SC SCT300=
200709071300 METAR MROC 071300Z 10008KT CAVOK 23/17 A3001 RMK TRACE CU SC SCT300 BECMG=
200709071400 METAR MROC 071400Z 10012KT CAVOK 25/17 A3002 RMK TCU DST S SSW BECMG SCT300=
200709071500 METAR MROC 071500Z 10014KT CAVOK 26/17 A3002 RMK TRACE CU SCT300 CB DST SSW BECMG=
200709071600 METAR MROC 071600Z 11011KT CAVOK 28/17 A3002 RMK TRACE CU SCT300 BECMG=
200709071700 METAR MROC 071700Z 11006KT 9999 FEW035 SCT300 29/16 A3000 BECMG 24008KT=
200709071800 METAR MROC 071800Z 23014KT 9999 SCT035 SCT270 27/22 A2997 BECMG=
200709071900 METAR MROC 071900Z 24012KT 9999 SCT030 SCT250 27/21 A2995 RMK CB DST SE TCU DST N BECMG=
200709072000 METAR MROC 072000Z 24012KT 9999 FEW015TCU BKN025 26/21 A2994 RMK PCPN DST NNW BECMG 7000 VCSH=
200709072100 METAR MROC 072100Z 23004KT 9999 FEW015CB BKN025 25/21 A2993 RMK RN TS NW N NE BECMG 5000 -TS RA=
200709072200 METAR MROC 072200Z 25006KT 3000 -TSRA FEW010CB SCT925 BKN100 21/19 A2995 BECMG 5000=
200709072300 METAR MROC 072300Z 05004KT 9999 -RA FEW003 SCT030 OVC100 20/19 A2996 BECMG=
200709080000 METAR MROC 080000Z 35004KT 9999 3000SW RA FEW003 SCT030 OVC100 21/19 A2996 BECMG=
200709080100 METAR MROC 080100Z 00000KT 9999 FEW030 BKN100 20/19 A2999 BECMG=
200709080200 METAR MROC 080200Z 07003KT 9999 FEW030 BKN100 20/19 A3000 BECMG=
200709080300 METAR MROC 080300Z 06005KT CAVOK 20/19 A3000 BECMG=
200709080400 METAR MROC 080400Z 03005KT CAVOK 21/19 A3000 BECMG LTNG DST S=
200709080500 METAR MROC 080500Z 00000KT 0500 FG SCT001 BKN003 20/19 A2999 RMK VIS N/NE/E 6KMS=
200709080600 METAR MROC 080600Z 33003KT 9999 FEW010 SCT025 BKN100 20/19 A2999 RMK LTNG DST S=
200709080700 METAR MROC 080700Z 03002KT 9999 FEW010 SCT025 BKN100 20/19 A2999 RMK=
200709080800 METAR MROC 080800Z 07005KT CAVOK 19/18 A2994 BECMG=
200709080900 METAR MROC 080900Z 23004KT CAVOK 19/17 A2996 BECMG=
200709081000 METAR MROC 081000Z 11005KT CAVOK 19/17 A2994 RMK TRAZAS SC SCT250=
200709081100 METAR MROC 081100Z 04003KT CAVOK 19/17 A2995 RMK TRAZAS SC SCT250 BECMG=
200709081200 METAR MROC 081200Z 05004KT 9999 FEW030 BKN100 20/17 A2996 BECMG=
200709081300 METAR MROC 081300Z 03005KT CAVOK 20/17 A2998 RMK TRACE SC BKN100 BECMG=
200709081400 METAR MROC 081400Z 06007KT CAVOK 22/18 A2999 RMK TRACE SC BKN270=
200709081500 METAR MROC 081500Z 07004KT CAVOK 24/18 A2997 RMK TRACE SC SCT120 BKN270 BECMG=
200709081600 METAR MROC 081600Z 11009KT CAVOK 26/17 A2997 RMK TRACE SC CU SCT120 BKN250=
200709081700 METAR MROC 081700Z 09004KT 9999 FEW040 SCT120 BKN250 28/16 A2997 RMK BECMG=
200709081800 METAR MROC 081800Z 10012KT 9999 FEW010 SCT120 BKN250 27/16 A2994 BECMG=
200709081900 METAR MROC 081900Z 23009KT 9999 3000SW VCSH SCT030 BKN120 24/21 A2994 RMK BECMG 7000 VCSH=
200709082000 METAR MROC 082000Z 23010KT 9999 2000SW BR FEW001 SCT010 BKN120 23/21 A2992 BECMG 4000 SHRA=
200709082100 METAR MROC 082100Z 00000KT 9999 FEW010 BKN120 25/21 A2991 BECMG=
200709082200 METAR MROC 082200Z 00000KT 9999 FEW015 BKN120 24/20 A2990 BECMG=
200709082300 METAR MROC 082300Z 24005KT 9999 FEW020 BKN120 23/21 A2992 BECMG=
200709090000 METAR MROC 090000Z 26004KT 9999 -RA SCT020 BKN120 22/21 A2993 VSBY N NW 6KM BECMG=
200709090100 METAR MROC 090100Z 26007KT 9999 FEW030 BKN120 22/21 A2994 BECMG=
200709090200 METAR MROC 090200Z 24006KT 9999 FEW030 BKN120 21/20 A2997 BECMG=
200709090300 METAR MROC 090300Z 27005KT 9999 -RA FEW005 SCT020 BKN100 21/19 A3001 BECMG 7000 VCFG=
200709090400 METAR MROC 090400Z 00000KT 9999 VCFG SCT005 BKN020 21/20 A3001 RMK VIS SW WSW 7KMS RERA BECMG 5000=
200709090500 METAR MROC 090500Z 02003KT 9999 FEW005 SCT025 BKN100 21/19 A3000 BECMG=
200709090600 METAR MROC 090600Z 12002KT 9999 FEW010 SCT025 BKN100 20/19 A2998 BECMG=
200709090700 METAR MROC 090700Z 36003KT 9999 SCT030 BKN120 21/19 A2997 BECMG=
200709090800 METAR MROC 090800Z 08002KT 9999 SCT035 BKN120 20/19 A2996 RMK TRACE ST=
200709090900 METAR MROC 090900Z 00000KT 9999 FEW035 SCT120 BKN250 20/19 A2994=
200709091000 METAR MROC 091000Z 00000KT CAVOK 19/18 A2993 RMK TRAZAS ST SC FEW120 BKN250=
200709091100 METAR MROC 091100Z 03003KT CAVOK 18/17 A2995 RMK TRACE SC AC SCT250=
200709091200 METAR MROC 091200Z 06004KT CAVOK 18/17 A2996 RMK TRAZAS SC FEW120 BKN250=
200709091300 METAR MROC 091300Z 10004KT CAVOK 22/18 A2997 TRACE SCT FEW110 BKN270 CB DIST SW BECMG=
200709091400 METAR MROC 091400Z 33004KT CAVOK 24/18 A2999 SCT280 BECMG=
200709091500 METAR MROC 091500Z 27004KT 9999 FEW025 BKN280 25/19 A2998 BECMG=
200709091600 METAR MROC 091600Z 23005KT 9999 FEW025 SCT300 27/18 A2997 BECMG=
200709091700 METAR MROC 091700Z 22008KT 9999 SCT025 SCT300 26/20 A2996 BECMG=
200709091800 METAR MROC 091800Z 23011KT 9999 SCT020TCU SCT300 27/21 A2994 RN/TCU S/NW/ENE BECMG 5000 VCSH=
200709091900 METAR MROC 091900Z 22012KT 9999 TS VCSH FEW015CB BKN025 25/21 A2991 VSBY NW NE 5KM DUE RASH/TS BECMG 3000 TSRA=
200709092000 METAR MROC 092000Z 33006KT 3000 TSRA SCT008CB BKN025 20/19 A2992 VSBY N 6KM BECMG=
200709092100 METAR MROC 092100Z 00000KT 2000 -TSRA BR FEW004 FEW010CB OVC100 20/19 A2992 BECMG=
200709092200 METAR MROC 092200Z 00000KT 1500 -RA BR FEW001 SCT020 OVC100 20/19 A2992 BECMG=
200709092300 METAR MROC 092300Z 31002KT 2500 -RA BR FEW002 SCT015 OVC100 20/19 A2994 BECMG=
200709100000 METAR MROC 100000Z 35002KT 6000 -RA FEW010 OVC100 20/19 A2996 BECMG=
200709100100 METAR MROC 100100Z 04004KT 6000 RA FEW015 OVC100 19/18 A2997 BECMG=
200709100200 METAR MROC 100200Z 11002KT 6000 RA FEW025 OVC100 19/19 A2999 BECMG=
200709100300 METAR MROC 100300Z 08003KT 9999 -RA FEW030 OVC100 19/18 A3001 BECMG=
200709100400 METAR MROC 100400Z 05007KT 9999 -RA FEW030 OVC100 19/18 A3000 BECMG=
200709100500 METAR MROC 100500Z 00000KT CAVOK 19/18 A2998 RMK BKN100 BECMG=
200709100600 METAR MROC 100600Z 00000KT CAVOK 19/18 A2996 RMK TRACE ST BKN100 BECMG=
200709100700 METAR MROC 100700Z 05008KT CAVOK 18/17 A2993 RMK BKN100 BECMG=
200709100800 METAR MROC 100800Z 06002KT CAVOK 18/17 A2991 RMK BKN100=
200709100900 METAR MROC 100900Z 07002KT CAVOK 18/17 A2991 RMK BKN110=
200709101000 METAR MROC 101000Z 07002KT CAVOK 18/16 A2992 RMK BKN100=
200709101100 METAR MROC 101100Z 06002KT CAVOK 18/16 A2994 RMK SCT120 TRACE SC=
200709101200 METAR MROC 101200Z 06008KT CAVOK 18/16 A2996 RMK TRACE SC BKN120 CB DST SW=
200709101300 METAR MROC 101300Z 02006KT CAVOK 20/17 A2998 RMK TRACE SC BKN120=
200709101400 METAR MROC 101400Z 16004KT CAVOK 22/19 A3000 RMK TRACE SC BKN120=
200709101500 METAR MROC 101500Z 25005KT CAVOK 24/18 A3000 RMK TRACE SC BKN120 BECMG=
200709101600 METAR MROC 101600Z 27003KT CAVOK 25/19 A2999 RMK TRACE SC BKN120 BECMG=
200709101700 METAR MROC 101700Z 22006KT 9999 FEW025 BKN250 26/19 A2997 BECMG=
200709101800 METAR MROC 101800Z 25006KT 9999 SCT020TCU SCT250 25/19 A2996 BECMG=
200709101900 METAR MROC 101900Z 23008KT 9999 SCT015CB SCT100 27/20 A2992 RMK TSRA DST SE BECMG 5000 VCSH=
200709102000 METAR MROC 102000Z 24009KT 9999 -RA FEW012CB SCT025 BKN100 25/21 A2990 RMK 8000 SW DUE RASH BECMG 3000 SHRA=
200709102100 METAR MROC 102100Z 22009KT 9999 DZ FEW006 SCT025 BKN100 22/20 A2989 RMK VIS SW/W 6KMS DUE RN TRAZAS CI=
200709102200 METAR MROC 102200Z 20005KT 8000 FEW004 SCT010CB BKN100 23/20 A2990 TS/RASH DST N/NE/E/S BECMG=
200709102300 METAR MROC 102300Z 15003KT 4000 2000E FEW005 SCT010 BKN025 21/20 A2991 RMK TS DST S=
200709110000 METAR MROC 110000Z 00000KT 6000 RA FEW002 SCT015 BKN015 20/19 A2994 RMK VIS E 2KMS DUE RN/ST BAJOS=
200709110100 METAR MROC 110100Z 10002KT 6000 RA FEW002 SCT006 BKN020 20/19 A2996 RMK VIS SW/W 4KMS DUE RN/ST BAJOS=
200709110200 METAR MROC 110200Z 12003KT 9999 -RA FEW025 BKN100 20/19 A2996 BECMG=
200709110300 METAR MROC 110300Z 10005KT CAVOK 20/19 A2996 OVC100 RERA BECMG=
200709110400 METAR MROC 110400Z 05007KT CAVOK 21/18 A2996 TRAZAS SCT OVC100 BECMG=
200709110500 METAR MROC 110500Z 05005KT CAVOK 21/18 A2995 TRAZAS SCT OVC100 BECMG=
200709110600 METAR MROC 110600Z 04006KT CAVOK 21/17 A2995 TRAZAS SCT OVC100 BECMG=
200709110700 METAR MROC NIL=
200709110800 METAR MROC 110800Z 06005KT CAVOK 20/17 A2993 BKN120 BECMG=
200709110900 METAR MROC NIL=
200709111000 METAR MROC 111000Z 04003KT CAVOK 19/16 A2990 SCT300 BECMG=
200709111100 METAR MROC 111100Z 01004KT CAVOK 19/16 A2992 FEW100 BECMG=
200709111200 METAR MROC 111200Z VRB03KT CAVOK 19/16 A2993 FEW100 CB DST S BECMG=
200709111300 METAR MROC 111300Z 02006KT CAVOK 22/16 A2994 RMK CB DST SW TRAZAS SC FEW120 SCT300=
200709111400 METAR MROC 111400Z 00000KT CAVOK 25/17 A2996 RMK CB FST SW TRAZAS SC FEWAC SCT300=
200709111500 METAR MROC 111500Z 34003KT 9999 FEW035 BKN300 26/17 A2996 RMK CB DST SW TRAZAS AC=
200709111600 METAR MROC 111600Z 09010KT 9999 SCT035 BKN300 28/17 A2996 RMK TRAZAS AC=
200709111700 METAR MROC 111700Z 11010KT 9999 SCT035 BKN300 28/17 A2996 RMK TRAZAS AC BECMG 24006KT=
200709111800 METAR MROC 111800Z 10009KT 9999 SCT030 BKN300 28/17 A2993 RMK TRAZAS AC=
200709111900 METAR MROC 111900Z 09009KT 9999 SCT030TCU BKN300 30/17 A2990 BECMG=
200709112000 METAR MROC NIL=
200709112100 METAR MROC NIL=
200709112200 METAR MROC NIL=
200709112300 METAR MROC NIL=
200709120000 METAR MROC 120000Z 25006KT 9999 VCFG FEW004 BKN250 22/20 A2991 RMK VIS SW W WNW 6KMS BECMG 3000 BR SCT002 BKN010=
200709120020 METAR MROC 120020Z 27006KT 7000 2500SW VCFG BR SCT002 BKN010 21/20 A2993 BECMG 2000=
200709120100 METAR MROC 120100Z 00000KT 8000 VCFG FEW004 SCT010 BKN250 21/19 A2995 RMK VIS ESE SE UNLTD BECMG 9999=
200709120200 METAR MROC 120200Z 06002KT CAVOK 20/19 A2996 BECMG RMK TRACE SC CI=
200709120300 METAR MROC 120300Z 03004KT CAVOK 21/19 A2997 RMK TRACE SC CI BECMG=
200709120400 METAR MROC 120400Z 03004KT CAVOK 21/18 A2996 RMK TRACE SC BECMG=
200709120500 METAR MROC 120500Z 03005KT CAVOK 21/17 A2992 RMK TRACE CI BECMG=
200709120600 METAR MROC 120600Z 06004KT CAVOK 19/17 A2995 RMK TRACE SC FEW300 BECMG=
200709120700 METAR MROC 120700Z 04007KT CAVOK 21/17 A2992 RMK TRACE SC FEW300 BECMG=
200709120800 METAR MROC 120800Z 36003KT CAVOK 20/17 A2990 BECMG=
200709120900 METAR MROC 120900Z 04005KT CAVOK 20/17 A2989 BECMG=
200709121000 METAR MROC 121000Z 08005KT CAVOK 22/17 A2988 RMK FEW129 BECMG=
200709121100 METAR MROC 121100Z 10012KT 9999 SCT035 BKN250 21/16 A2989 RMK LTNG DST S BECMG=
200709121200 METAR MROC 121200Z 06006KT 9999 FEW025 BKN250 21/17 A2991 RMK TS DST S BECMG=
200709121300 METAR MROC 121300Z 06005KT 9999 FEW030 SCT250 22/17 A2992 RMK CB DST NNE S BECMG=
200709121400 METAR MROC 121400Z 33004KT 9999 FEW035 SCT250 25/17 A2993 TCU DST SSW BECMG=
200709121500 METAR MROC 121500Z 10012KT 9999 FEW035 SCT250 26/17 A2993 BECMG=
200709121600 METAR MROC 121600Z 09013KT 9999 FEW030 BKN250 28/17 A2994 BECMG=
200709121700 METAR MROC 121700Z 08012KT 9999 SCT030 BKN250 28/17 A2995 BECMG 24006=
200709121800 METAR MROC 121800Z 09012KT 9999 SCT030 BKN250 29/17 A2990 BECMG=
200709121900 METAR MROC 121900Z 10009KT 9999 FEW025TCU SCT045 BKN250 29/17 A2988 RMK RN DST E N BECMG 24006KT=
200709122000 METAR MROC 122000Z 08005KT 9999 FEW020TCU SCT040 BKN220 28/17 A2985 CB RASH DST S BECMG 24008KT=
200709122100 METAR MROC 122100Z 12008KT 9999 FEW012TCU SCT040 BKN220 26/17 A2985 BECMG=
200709122200 METAR MROC 122200Z 13008KT 9999 SCT030 BKN120 24/17 A2985 RMK FEW270 BECMG=
200709122300 METAR MROC 122300Z 09006KT 9999 SCT030 BKN120 24/17 A2989 RMK CB RN SW W BECMG=
200709130000 METAR MROC 130000Z 00000KT 9999 FEW030 BKN120 23/19 A2991 BECMG=
200709130100 METAR MROC 130100Z 11007KT 9999 FEW030 SCT140 23/17 A2993 BECMG RMK=
200709130200 METAR MROC 130200Z 12005KT 9999 FEW040 SCT140 22/17 A2995 BECMG RMK=
200709130300 METAR MROC 130300Z 30005KT CAVOK 21/19 A2998 RMK BKN120 BECMG=
200709130400 METAR MROC 130400Z 32006KT 9999 FEW035 BKN120 21/19 A2999 BECMG=
200709130500 METAR MROC 130500Z 32003KT CAVOK 22/19 A2998 RMK BKN120 BECMG=
200709130600 METAR MROC 130600Z 06003KT CAVOK 21/19 A2996 RKM BKN120 BECMG=
200709130700 METAR MROC 130700Z 06006KT CAVOK 20/19 A2994 RMK FEWAC BKN250 BECMG=
200709130800 METAR MROC 130800Z 08006KT CAVOK 21/18 A2991 RKM FEWAC BKN250 BECMG=
200709130900 METAR MROC 130900Z 06006KT CAVOK 21/17 A2990 RKM FEWAC SCT250 BECMG=
200709131000 METAR MROC 131000Z 02003KT CAVOK 21/16 A2992 RMK SCT250 BECMG=
200709131100 METAR MROC 131100Z 34003KT CAVOK 21/16 A2993 RMK LTNG DST S SCT250=
200709131200 METAR MROC 131200Z 33002KT CAVOK 21/17 A2994 RMK CB DST S BKN100 BECMG=
200709131300 METAR MROC 131300Z 33002KT CAVOK 22/17 A2995 RMK TRACE SC BKN110 CB DST SW BECMG=
200709131400 METAR MROC 131400Z 27003KT CAVOK 23/18 A2996 RMK TRACE SC CU CI BKN110 BECMG=
200709131500 METAR MROC 131500Z 23005KT 9999 FEW035 BKN120 23/19 A2998 RMK BECMG=
200709131600 METAR MROC 131600Z 24006KT 9999 FEW035 BKN120 24/19 A2999 RMK FEW250 BECMG=
200709131700 METAR MROC 131700Z 21004KT 9999 FEW035 BKN120 25/19 A2997 RNK FEW250 BECMG=
200709131800 METAR MROC 131800Z 27009KT 9999 SCT035 BKN120 25/20 A2994 RMK FEW250 BECMG=
200709131900 METAR MROC 131900Z 22008KT 9999 SCT030 BKN120 25/19 A2990 RMK BECMG=
200709132000 METAR MROC 132000Z 22011KT 9999 SCT030 BKN120 25/20 A2988 RMK BECMG=
200709132100 METAR MROC 132100Z 24011KT 9999 SCT015 BKN120 24/20 A2987 BECMG=
200709132200 METAR MROC 132200Z 24010KT 9999 SCT012 BKN120 23/20 A2988 VSBY N 7KM BECMG=
200709132300 METAR MROC 132300Z 27007KT 9999 SCT015 BKN120 23/20 A2989 VSBY N 7KM BECMG=
200709140000 METAR MROC 140000Z 28003KT 9999 -RA BKN012 SCT020 22/20 A2992 VSBY N/NW 6KM BECMG=
200709140100 METAR MROC 140100Z 20002KT 6000 -RA VCFG FEW002 SCT015 OVC100 21/20 A2993 BECMG=
200709140200 METAR MROC 140200Z 25004KT 7000 -RA SCT035 BKN120 21/20 A2995 BECMG=
200709140300 METAR MROC 140300Z 00000KT 7000 3000SW BR FEW002 SCT007 BKN025 21/20 A2998 RMK VIS E SE UNLTD BECMG 3000=
200709140400 METAR MROC 140400Z 28003KT 6000 2500SW VCFG BR FEW002 SCT005 BKN020 21/20 A2998 BECMG=
200709140500 METAR MROC 140500Z 00000KT 6000 2000SW VCFG BR FEW001 SCT004 BKN120 20/19 A2996 VIS ESE 9KMS BECMG 0500 FG=
200709140600 METAR MROC 140600Z 30003KT CAVOK 21/20 A2995 RMK TRACE SC OVC120 HZY BECMG=
200709140700 METAR MROC 140700Z 24002KT 9999 VCFG FEW004 BKN020 20/19 A2993 RMK VIS S SSW 7KMS BECMG 3000 BR=
200709140800 METAR MROC 140800Z 00000KT 8000 0300SW VCFG SCT001 BKN020 20/19 A2991 RMK FG BANK OVER APCH RNY 07 SLOW MVNG TO E=
200709140900 METAR MROC 140900Z 00000KT 3000 BR SCT002 BKN006 20/19 A2991=
200709141000 METAR MROC 141000Z 07003KT 9999 FEW010 SCT120 BKN250 19/19 A2992=
200709141100 METAR MROC 141100Z 03005KT 9999 FEW030 SCT120 BKN250 19/18 A2992=
200709141200 METAR MROC 141200Z 04005KT 9999 VCFG FEW120 BKN250 19/18 A2993 RMK VIS SSW SW 4KMS CB DST S TRACE SC=
200709141300 METAR MROC 141300Z 00000KT 9999 21/18 A2996 TRAZAS SCT BKN270 BECMG=
200709141400 METAR MROC 141400Z 11002KT CAVOK 23/19 A2997 TRAZAS CU FEW100 BKN270 BECMG=
200709141500 METAR MROC 141500Z 09004KT CAVOK 23/19 A2997 TRAZAS CU BKN270 BECMG=
200709141600 METAR MROC 141600Z 09008KT CAVOK 25/18 A2997 TRAZAS SCT BKN250 BECMG=
200709141700 METAR MROC 141700Z 10007KT 9999 SCT025 BKN250 25/18 A2997 DZ NE E BECMG=
200709141800 METAR MROC 141800Z 09010KT 9999 -RA FEW025 BKN120 22/17 A2996 BECMG=
200709141900 METAR MROC 141900Z 10008KT 9999 FEW025 SCT080 BKN120 23/18 A2992 RERA RN N NE BECMG=
200709142000 METAR MROC 142000Z 11011KT 9999 FEW030 SCT080 BKN130 24/17 A2990 BECMG=
200709142100 METAR MROC 142100Z 09004KT CAVOK 25/17 A2988 RMK TRACE SC SCT110 OVC250 BECMG=
200709142200 METAR MROC 142200Z 18002KT 9999 FEW040 SCT110 OVC250 25/17 A2989 BECMG=
200709142300 METAR MROC 142300Z 24008KT 2000 BR SCT002 SCT020 BKN110 21/20 A2991 BECMG=
200709150000 METAR MROC 150000Z 24002KT 5000 2000W BR SCT003 SCT015 BKN110 21/20 A2993 RMK BECMG 6000 VCFG=
200709150100 METAR MROC 150100Z 35002KT 7000 DZ VCFG FEW002 SCT020 BKN110 21/20 A2994 BECMG=
200709150200 METAR MROC 150200Z 10004KT 9999 FEW030 BKN110 21/18 A2995 BECMG=
200709150300 METAR MROC NIL=
200709150400 METAR MROC 150400Z 30004KT 9999 -DZ FEW030 BKN110 21/19 A3000 BECMG=
200709150500 METAR MROC 150500Z 04004KT 9999 FEW030 BKN110 21/19 A2999 REDZ RMK BECMG=
200709150600 METAR MROC 150600Z 03003KT CAVOK 21/17 A2997 RMK TRACE SC BKN110 BECMG=
200709150700 METAR MROC 150700Z 03005KT CAVOK 21/17 A2995 RMK TRACE SC BKN110 BECMG=
200709150800 METAR MROC 150800Z 11004KT CAVOK 20/17 A2994 RMK TRACE SC BKN110=
200709150900 METAR MROC NIL=
200709151000 METAR MROC 151000Z 28004KT CAVOK 19/18 A2993 RMK TRACE SC SCT110=
200709151100 METAR MROC 151100Z 00000KT 9999 2000SW BR FEW001 BKN110 19/18 A2995 RMK TRACE SC=
200709151200 METAR MROC 151200Z 32002KT 9999 2000SW BR FEW001 BKN100 19/18 A2998=
200709151300 METAR MROC 151300Z 29002KT 9999 4000SW BR FEW002 BKN100 20/18 A2999 RMK BECMG UNL=
200709151400 METAR MROC 151400Z 00000KT 9999 VCFG FEW003 BKN100 22/19 A3001 RMK 8000 SW BECMG=
200709151500 METAR MROC 151500Z 00000KT 9999 FEW005 BKN120 22/18 A3002 BECMG=
200709151600 METAR MROC 151600Z 05006KT 9999 FEW015 BKN120 24/18 A3000 BECMG=
200709151700 METAR MROC 151700Z 11007KT 9999 FEW020 SCT120 BKN250 26/17 A2999 BECMG=
200709151800 METAR MROC 151800Z 09006KT 9999 SCT020TCU SCT120 BKN250 28/18 A2997 RMK RN DST SW BECMG=
200709151900 METAR MROC 151900Z 23007KT 9999 VCSH SCT012TCU SCT120 BKN250 25/20 A2994 RMK VIS W 7000 DUE RN=
200709152000 METAR MROC 152000Z 23010KT 3000 -RA BR SCT004 SCT010 BKN100 22/20 A2993 BECMG=
200709152100 METAR MROC 152100Z 26007KT 6000 VCFG FEW003 SCT010 BKN025 22/20 A2994 RMK VIS NE/E 4KMS DUE ST BAJOS=
200709152200 METAR MROC NIL=
200709152225 METAR MROC 152225Z 09004KT 6000 RA FEW005 SCT025 BKN100 20/19 A2995 VIS SW/W 4KMS BECMG=
200709152300 METAR MROC 152300Z 06003KT 8000 -RA FEW025 OVC100 20/19 A2995 RMK VIS=
200709160000 METAR MROC 160000Z 06004KT 8000 -RA FEW025 OVC100 19/18 A2997 RMK VIS E 4KMS DUE RN/ST BECMG=
200709160100 METAR MROC 160100Z 00000KT 9999 -RA FEW030 OVC100 20/19 A2998 BECMG=
200709160200 METAR MROC 160200Z 00000KT 9999 -DZ FEW030 BKN100 20/19 A3001=
200709160300 METAR MROC 160300Z 00000KT 9999 2500SW -RA BR FEW001 SCT030 BKN100 20/19 A3003 BECMG=
200709160400 METAR MROC 160400Z 00000KT 0500 FG SCT001 SCT030 OVC100 20/19 A3003 VSBY NE UNL BECMG=
200709160500 METAR MROC 160500Z 30003KT 9999 FEW003 OVC100 20/19 A3003 BECMG=
200709160600 METAR MROC 160600Z 00000KT 9999 FEW025 OVC120 19/18 A3001 BECMG=
200709160700 METAR MROC 160700Z 00000KT 9999 FEW004 OVC120 19/18 A2999 VSBU SW W 5KM DUE LOW ST BECMG=
200709160800 METAR MROC NIL=
200709160900 METAR MROC NIL=
200709161000 METAR MROC 161000Z 10003KT CAVOK 19/18 A2997 TRAZAS SC/ST OVC120 BECMG=
200709161100 METAR MROC 161100Z 05005KT CAVOK 19/18 A2997 TRAZAS SCT FEW080 BKN120=
200709161200 METAR MROC 161200Z 07004KT CAVOK 19/17 A2999 TRAZAS SCT FEW080 BKN120=
200709161300 METAR MROC 161300Z 06004KT 9999 FEW035 BKN100 21/18 A3000 BECMG=
200709161400 METAR MROC 161400Z 05004KT 9999 FEW035 BKN100 22/18 A3001 BECMG=
200709161500 METAR MROC 161500Z 06003KT 9999 SCT035 BKN120 26/18 A3001 RMK TRAZAS CI BECMG=
200709161600 METAR MROC 161600Z 21006KT 9999 SCT030 BKN120 25/19 A3001 BECMG=
200709161700 METAR MROC 161700Z 23008KT 9999 SCT030 BKN100 25/19 A3000 TCU DST WNW TRAZAS CI=
200709161800 METAR MROC 161800Z 23010KT 9999 SCT030 BKN120 26/20 A2997 RMK CB/RN DST SW TCU DST N/NE BECMG=
200709161900 METAR MROC 161900Z 25009KT 9999 SCT025TCU BKN100 25/20 A2995 BECMG=
200709162000 METAR MROC 162000Z 26010KT 9999 FEW015TCU SCT025 BKN100 25/20 A2993 RMK CB/RN DST E/SE/S/SW VIS 6KMS BECMG 3000 SHRA=
200709162100 METAR MROC 162100Z 22005KT 5000 -RA BR FEW004 SCT015 BKN035 21/20 A2993 RMK VIS 3KMS S SW BECMG 2000 RA=
200709162200 METAR MROC 162200Z 30003KT 7000 2500N RA BR FEW005 SCT010 BKN030 20/19 A2994 BECMG=
200709162300 METAR MROC NIL=
200709170000 METAR MROC 170000Z 09003KT 9999 -RA VCFG SCT040 BKN100 20/19 A2996 RMK TRACE LOW ST TO W QUAD VIS WNW NW 8KMS BECMG=
200709170100 METAR MROC 170100Z 00000KT 9999 -RA FEW045 OVC100 20/19 A2998 BECMG=
200709170200 METAR MROC 170200Z 00000KT 9999 VCFG FEW004 SCT020 BKN100 20/19 A3001 RMK VIS S SSW 6KMS LOW ST S QUAD BECMG=
200709170300 METAR MROC 170300Z 34004KT 8000 RA VCFG FEW020 OVC100 20/19 A3003 RMK BECMG 4000 RA BR=
200709170400 METAR MROC 170400Z 17003KT 9999 FEW025 OVC100 19/18 A3002 RMK REMPO 4000 RA BR=
200709170500 METAR MROC 170500Z 05005KT 9999 FEW035 OVC110 19/18 A3000 RMK BECMG 07005KT CAVOK=
200709170600 METAR MROC 170600Z 10005KT CAVOK 19/18 A2997 RMK BKN100 TRACE SC BECMG=
200709170700 METAR MROC 170700Z 26005KT 9999 4000SW BR FEW002 OVC100 19/18 A2995 RMK BECMG 3000SW BR=
200709170800 METAR MROC 170800Z 30004KT 5000 2500SW BR FEW002 SCT006 19/18 A2994 BECMG=
200709170900 METAR MROC 170900Z 31003KT 7000 VCFG FEW004 SCT010 BKN100 19/19 A2996 BECMG=
200709171000 METAR MROC NIL=
200709171100 METAR MROC 171100Z 09003KT 9999 FEW020 SCT110 19/18 A2997 BECMG=
200709171200 METAR MROC 171200Z 08003KT CAVOK 20/17 A2997 RMK TRACE SC SCT110 BECMG=
200709171300 METAR MROC 171300Z 05006KT 9999 FEW030 22/18 A3001 RMK CB DTS SW WSW BECMG=
200709171400 METAR MROC 171400Z 09004KT CAVOK 24/18 A3001 RMK TRACE SC SCT120 CB DST SW BECMG=
200709171500 METAR MROC 171500Z 00000KT CAVOK 26/17 A3001 RMK TRACE SC CU CI SCT120 CB DST SW BECMG 24006KT=
200709171600 METAR MROC 171600Z 24008KT 9999 FEW035 25/20 A3001 RMK FEW CI BECMG=
200709171700 METAR MROC 171700Z 24008KT 9999 SCT030 26/20 A2998 RMK FEW270 BECMG=
200709171800 METAR MROC 171800Z 24010KT 9999 FEW025TCU SCT035 26/21 A2996 BECMG 7000 SHRA=
200709171900 METAR MROC 171900Z 25012KT 9999 FEW020TCU SCT035 27/21 A2993 PCPN DST E BECMG 7000 SHRA=
200709172000 METAR MROC 172000Z 24010KT 9999 VCSH FEW015CB SCT025TCU 26/20 A2992 VIS S 6KMS RASH DST E SE=
200709172100 METAR MROC 172100Z 12005KT 8000 RA FEW003 SCT015CB BKN030 21/20 A2992=
200709172200 METAR MROC 172200Z 00000KT 9999 FEW015 SCT030 BKN100 21/19 A2992 RMK BECMG=
200709172300 METAR MROC 172300Z 23004KT 9999 FEW015 SCT030 BKN100 21/20 A2994 BECMG=
200709180000 METAR MROC 180000Z 24003KT 9999 FEW008 SCT025 BKN110 21/19 A2995 BECMG=
200709180100 METAR MROC 180100Z 29002KT 9999 FEW010 BKN110 21/20 A2996 BECMG=
200709180200 METAR MROC 180200Z 22002KT 9999 FEW015 BKN120 21/20 A2997 BECMG=
200709180300 METAR MROC 180300Z 00000KT 9999 FEW015 SCT025 BKN120 21/20 A3001 BECMG=
200709180400 METAR MROC 180400Z 00000KT 9999 FEW003 SCT010 BKN025 21/19 A3001 BECMG=
200709180500 METAR MROC 180500Z 00000KT 9999 FEW005 SCT120 21/19 A3000 BECMG=
200709180600 METAR MROC 180600Z 09003KT 9999 FEW005 SCT250 20/19 A2998 BECMG=
200709180700 METAR MROC 180700Z 06003KT CAVOK 19/18 A2996 BECMG=
200709180800 METAR MROC 180800Z 07003KT CAVOK 19/17 A2994 BECMG=
200709180900 METAR MROC 180900Z 31006KT CAVOK 18/17 A2994 BECMG=
200709181000 METAR MROC 181000Z 05002KT 0200 FG BKN001 BKN003 19/18 A2993 BECMG 3000 BR=
200709181100 METAR MROC 181100Z 00000KT 0500 FG SCT001 BKN004 18/18 A2996 BECMG=
200709181200 METAR MROC 181200Z 07003KT 9999 FEW001 SCT010 BKN250 18/17 A2996 RMK VIS S/SW/ W 4KMS DUE ST BAJOS=
200709181300 METAR MROC 181300Z 06003KT 9999 FEW030 BKN120 22/18 A2998 RMK BECMG=
200709181400 METAR MROC 181400Z 07004KT CAVOK 24/18 A2998 RMK TRACE ST SC CB DST S SCT120 SCT250 BECMG 24006KT=
200709181500 METAR MROC 181500Z 22005KT CAVOK 25/20 A2999 RMK TRACE ST SC CB DST S HZ W SCT120 SCT250 BECMG=
200709181600 METAR MROC 181600Z 24011KT 9999 FEW010TCU SCT120 BKN250 24/20 A3001 RMK BECMG=
200709181700 METAR MROC 181700Z 29002KT 9999 SCT030 BKN250 26/19 A2999 RMK FEW120 BECMG=
200709181800 METAR MROC 181800Z 26004KT 9999 SCT030 BKN120 27/20 A2995 RMK SCT250 BECMG=
200709181900 METAR MROC 181900Z 22004KT 9999 FEW015 SCT030 BKN120 27/21 A2992 RMK BECMG=
200709182000 METAR MROC 182000Z 23012KT 9999 VCSH FEW015CB SCT030 BKN110 25/21 A2991 RMK RN DST NE E BECMG 7000 VCSH=
200709182100 METAR MROC 182100Z 25011KT 9999 3000N -RA VCSH BKN012 FEW015CB 23/21 A2991 VSBY NW N NE 3KM DUE RASH BECMG 3000 TSRA=
200709182200 METAR MROC 182200Z 23008KT 5000 TS VCSH BKN008 FEW012CB 22/20 A2992 VSBY N 3KM BECMG=
200709182300 METAR MROC 182300Z 22006KT 3000 -TSRA BR SCT003 FEW012CB KKN020 21/20 A2993 BECMG=
200709190000 METAR MROC 190000Z 29007KT 6000 -TSRA SCT003 FEW012CB BKN025 20/20 A2997 TS S NW BECMG=
200709190100 METAR MROC 190100Z 32004KT 5000 RA FEW005 SCT015 OVC100 20/19 A2999 BECMG=
200709190200 METAR MROC NIL=
200709190300 METAR MROC 190300Z 01005KT 9999 RA OVC080 20/19 A3001 BECMG=
200709190400 METAR MROC 190400Z 00000KT 2000 -RA BR SCT001 OVC100 20/19 A3001 VIS N NE UNLTD BECMG 4000=
200709190500 METAR MROC 190500Z 04005KT 9999 -RA OVC100 20/19 A2998 TRACE ST BECMG=
200709190600 METAR MROC 190600Z 05005KT 9999 -RA OVC100 20/19 A2995 BECMG=
200709190700 METAR MROC 190700Z 23010KT 9999 1500SW BR SCT001 BKN120 20/19 A2992 BECMG 0500 FG=
200709190800 METAR MROC 190800Z VRB03KT 6000 VCFG SCT007 SCT120 BKN250 19/18 A2993 RMK VIS E AND S QUADS UNLTD=
200709190900 METAR MROC 190900Z 21004KT 5000 BR FEW002 SCT010 BKN250 20/18 A2994 RMK VIS N E SE UNLTD=
200709191000 METAR MROC 191000Z 00000KT 3000 BR FEW002 SCT005 BKN250 19/18 A2995 RMK VIS ESE UNLTD=
200709191100 METAR MROC 191100Z 10003KT CAVOK 19/18 A2995 RMK TRACE SC FEW070 SCT250 CB DST SSW SW=
200709191200 METAR MROC 191200Z 04006KT CAVOK 19/17 A2996 RMK TRACE ST AC BKN250 CB LINE DST S SW W WNW=
200709191300 METAR MROC 191300Z 03006KT CAVOK 22/18 A2997 TRAZAS CU BKN270 CB DST S SW=
200709191400 METAR MROC 191400Z 03005KT CAVOK 25/18 A2998 TRAZAS SCT BKN250 CB DST S SW BECMG=
200709191500 METAR MROC 191500Z 12004KT 9999 26/21 A2997 TRAZAS SCT BKN270 BECMG=
200709191600 METAR MROC 191600Z 23011KT 9999 FEW025 BKN270 25/21 A2996 BECMG=
200709191700 METAR MROC 191700Z 24009KT 9999 FEW025 BKN270 25/20 A2996 FEW120 BECMG=
200709191800 METAR MROC NIL=
200709191900 METAR MROC 191900Z 24014KT 9999 FEW008 SCT020 BKN270 25/21 A2991 RN DST S BECMG=
200709192000 METAR MROC 192000Z 23009KT 5000 BR FEW003 BKN010 23/20 A2990 VSBY SE S UNL BECMG=
200709192100 METAR MROC 192100Z 23009KT 5000 BR SCT007 BKN015 23/20 A2990 RMK BECMG 4000 -RA BR=
200709192200 METAR MROC 192200Z 23008KT 0300 FG VV/// 21/20 A2990 BECMG=
200709192300 METAR MROC 192300Z 22006KT 0700 -RA FG SCT001 BKN010 20/20 A2991 RMK BECMG 4000 -RA BR=
200709200000 METAR MROC 200000Z 24009KT 3000 -TSRA BR SCT002 BKN012CB 20/19 A2994 RMK TS SW BECMG 6000 -RA=
200709200100 METAR MROC 200100Z 23006KT 3000 -RABR FEW002 SCT012 OVC100 19/18 A2996 RMK BECMG 7000 -RA VCFG=
200709200200 METAR MROC 200200Z 02003KT 5000 -TSRA BR FEW002 SCT010CB OVC100 20/19 A2999 RMK BECMG 7000 -RA=
200709200300 METAR MROC 200300Z 00000KT 8000 RA FEW030 OVC100 20/19 A3001 BECMG CAVOK=
200709200400 METAR MROC 200400Z 00000KT 9999 RA FEW030 OVC100 19/19 A3001 RMK BECMG CAVOK=
200709200500 METAR MROC 200500Z 30004KT 9999 -RA FEW008 OVC100 20/19 A3000 RMK BECMG CAVOK=
200709200600 METAR MROC 200600Z 26002KT 7000 VCFG FEW001 SCT008 OVC100 19/19 A2998 BECMG 1000 BR=
200709200700 METAR MROC 200700Z 08003KT 9999 3000SW -RA BR FEW001 OVC100 19/19 A2995 RMK BECMG CAVOK=
200709200800 METAR MROC 200800Z 00000KT 9999 3000SW -RA BR FEW001 OVC100 19/19 A2990=
200709200900 METAR MROC 200900Z 24007KT 9999 1500SW BR FEW001 SCT008 OVC100 20/19 A2991 RMK BECMG 3000 BR=
200709201000 METAR MROC 201000Z 220003KT 9999 1500SW BR FEW001 SCT005 OVC100 20/19 A2993=
200709201100 METAR MROC 201100Z 34004KT 9999 1500SW -RA BR FEW001 OVC100 20/19 A2997=
200709201200 METAR MROC 201200Z 00000KT 9999 FEW003 SCT010 BKN100 20/19 A2997 RMK TRACE CI=
200709201300 METAR MROC 201300Z 05005KT CAVOK 21/19 A2995 RMK TRACE SC BKN250 BECMG=
200709201400 METAR MROC 201400Z 05005KT CAVOK 24/19 A2996 RMK TRACE CU BKN250 CB DST S BECMG=
200709201500 METAR MROC 201500Z 12004KT 9999 FEW030 BKN250 27/19 A2996 RMK CB DST SW BECMG 23005KT=
200709201600 METAR MROC 201600Z 24008KT 9999 SCT030 BKN250 25/20 A2997 RMK CB DST S SW BECMG=
200709201700 METAR MROC 201700Z 25008KT 9999 SCT030 BKN250 26/20 A2995 BECMG=
200709201800 METAR MROC 201800Z 05008KT 9999 SCT020TCU BKN250 25/21 A2993 BECMG=
200709201900 METAR MROC 201900Z 23010KT 9999 FEW010 SCT020TCU BKN250 25/21 A2990 RMK CB RN NE BECMG=
200709202000 METAR MROC 202000Z 26013KT 9999 SCT007 BKN015TCU 23/21 A2990 RMK BECMG 7000 VCSH=
200709202100 METAR MROC 202100Z 23011KT 7000 VCFG FEW002 SCT010 BKN025 23/21 A2989 RMK RN DST SE/S VIS SW/W 4KMS BECMG 4000=
200709202200 METAR MROC 202200Z 18003KT 7000 VCFG FEW002 SCT015 BKN100 23/20 A2990 RMK RN DST E 5KMS=
200709202300 METAR MROC 202300Z 15002KT 6000 VCFG FEW003 SCT015 BKN100 22/20 A2991 RMK VIS=
200709210000 METAR MROC 210000Z 23009KT 2000 -RA BR FEW001 SCT003 BKN010 21/20 A2993 RMK VIS NE/E 0500 BECMG=
200709210100 METAR MROC 210100Z 26005KT 7000 VCFG FEW003 SCT010 BKN025 21/20 A2994 BECMG=
200709210200 METAR MROC 210200Z 24004KT 5000 DZ BR FEW001 SCT010 BKN100 20/20 A2997 BECMG=
200709210300 METAR MROC 210300Z 30004KT 9999 VCFG FEW001 SCT005 BKN012 21/20 A2998 VSBY N/E 6KM DUE LOW ST BECMG=
200709210400 METAR MROC 210400Z 01002KT 9999 FEW010 SCT018 21/19 A2996 BECMG CAVOK=
200709210500 METAR MROC 210500Z 00000KT 9999 FEW005 BKN025 21/20 A2996 BECMG=
200709210600 METAR MROC 210600Z 22002KT 9999 3000SW BR FEW001 SCT005 BKN025 21/20 A2995 BECMG 4000 BR=
200709210700 METAR MROC 210700Z 30002KT 9999 FEW001 SCT005 BKN025 20/19 A2994 VSBY S SW 5KM DUE FG BECMG=
200709210800 METAR MROC 210800Z 04004KT 9999 FEW010 SCT120 20/19 A2991=
200709210900 METAR MROC NIL=
200709211000 METAR MROC NIL=
200709211100 METAR MROC 211100Z 05007KT CAVOK 20/19 A2992 TRAZA SCT FEW280=
200709211200 METAR MROC 211200Z 00000KT 9999 VCFG FEW001 19/18 A2993 VSBY S 5KM DUE FG=
200709211220 METAR MROC 211220Z 00000KT 0500 FG FEW001 SCT003 BKN250 20/18 A2994 VIS NW/ N/NE UNL=
200709211300 METAR MROC 211300Z 00000KT 1500 BR FEW001 SCT003 BKN300 21/19 A2997 RMK VIS N UNL=
200709211400 METAR MROC 211400Z 12002KT 9999 FEW005 BKN300 23/20 A2998 RMK VIS SW/W 6KMS DUE ST BAJOS CB DST S/NW TRAZAS CU/SC=
200709211500 METAR MROC 211500Z 08002KT 9999 FEW035 BKN300 27/19 A2997 RMK CB DST S HZ LGT ARND=
200709211600 METAR MROC 211600Z 24009KT 9999 SCT030 BKN300 24/21 A2998 RMK HZ ARND=
200709211700 METAR MROC 211700Z 22008KT 9999 SCT030 BKN250 26/21 A2997 RMK TCU/RN DST N/NE=
200709211800 METAR MROC 211800Z 25011KT 9999 SCT025TCU BKN100 24/20 A2996 RMK VIS N/NE 6KMS DUE CB/RN CB DST W BECMG 5000=
200709211900 METAR MROC 211900Z 26007KT 9999 FEW005 SCT025 BKN100 23/21 A2995 RMK CB/RN DST E VIS N/NE 6KMS=
200709212000 METAR MROC 212000Z 21002KT 6000 3000NE -RA BR FEW010CB SCT025 BKN100 22/21 A2993 RMK VIS E/SE UNL BECMG=
200709212100 METAR MROC 212100Z 26009KT 2000 RA BR SCT002 FEW015CB BKN020 22/21 A2993 BECMG=
200709212200 METAR MROC 212200Z 23007KT 1200 BR SCT001 BKN005 21/20 A2993 RMK FG BANK VIS 0700 S SSE BECMG=
200709212300 METAR MROC 212300Z 23005KT 2500 DZ BR SCT002 BKN005 21/20 A2993 RMK FG BANK PARALLEL TO RNY VIS 1200 TO S SE BECMG=
200709220000 METAR MROC 220000Z 26005KT 2500 BR FEW001 SCT004 BKN010 21/20 A2994 BECMG=
200709220100 METAR MROC 220100Z 22006KT 2000 -RA BR SCT001 BKN004 21/20 A2997 RMK VIS NW N 1200MTS BECMG 5000 RA BR=
200709220200 METAR MROC NIL=
200709220300 METAR MROC NIL=
200709220400 METAR MROC NIL=
200709220500 METAR MROC 220500Z 07005KT CAVOK 20/19 A3001 BECMG=
200709220600 METAR MROC 220600Z 11007KT CAVOK 19/18 A2999 RMK BKN120 BECMG=
200709220700 METAR MROC 220700Z 28002KT 9999 4000W BR FEW002 BKN100 19/18 A2997 RMK BECMG 3000 BR=
200709220800 METAR MROC 220800Z 08003KT 9999 2000W BR FEW002 BKN100 19/18 A2995 BECMG=
200709220900 METAR MROC 220900Z 08002KT 9999 FEW004 BKN100 19/18 A2994 BECMG=
200709221000 METAR MROC 221000Z 34003KT 8000 VCFG FEW003 BKN100 18/17 A2994 BECMG=
200709221100 METAR MROC 221100Z 06004KT CAVOK 17/16 A2994 RMK BKN100 BECMG=
200709221200 METAR MROC 221200Z 07004KT 9999 FEW004 BKN250 17/16 A2995 BECMG=
200709221300 METAR MROC 221300Z 07005KT CAVOK 21/17 A2997 RMK TRACE ST BKN250 BECMG=
200709221400 METAR MROC 221400Z 07006KT CAVOK 24/19 A2998 TRACE ST BKN250 BECMG=
200709221500 METAR MROC 221500Z 12007KT CAVOK 26/18 A2999 RMK TRACE SC BKN250 BECMG 24007KT=
200709221600 METAR MROC 221600Z 24008KT 9999 FEW045 BKN250 25/20 A2998=
200709221700 METAR MROC 221700Z 23008KT 9999 FEW040 BKN250 26/20 A2997 BECMG=
200709221800 METAR MROC 221800Z 25008KT 9999 FEW025TCU BKN250 26/21 A2994 RMK HZ LGT ARND BECMG=
200709221900 METAR MROC 221900Z 23008KT 9999 FEW020TCU SCT035 BKN250 25/21 A2992 RMK LGT HZ ARND BECMG 7000 VCSH=
200709222000 METAR MROC 222000Z 23011KT 9999 VCSH FEW015CB SCT025TCU BKN250 25/22 A2991 RMK VIS NE 6KMS BECMG 4000 TSRA=
200709222100 METAR MROC 222100Z 35005KT 9999 2000SW TSRA FEW010CB BKN025 23/18 A2991 RMK VIS N NE 3000MTS BECMG=
200709222200 METAR MROC 222200Z 06005KT 9999 1500SW BR FEW001 SCT010 BKN100 21/19 A2994 RERA RMK RN S SW BECMG=
200709222300 METAR MROC 222300Z VRB03KT 8000 3000SW BR FEW001 SCT010 BKN100 21/20 A2996 BECMG=
200709230000 METAR MROC 230000Z 35003KT 9999 -RA SCT008 OVC100 20/18 A2998 BECMG=
200709230100 METAR MROC 230100Z 00000KT 9999 -RA SCT010 OVC100 20/19 A3001 RMK BECMG=
200709230200 METAR MROC 230200Z 00000KT 9999 FEW010 OVC110 20/19 A3002 RERA BECMG=
200709230300 METAR MROC 230300Z 00000KT 9999 SCT025 BKN120 21/20 A3003 BECMG=
200709230400 METAR MROC 230400Z 00000KT 9999 FEW025 BKN120 20/19 A3004 BECMG=
200709230500 METAR MROC 230500Z 30003KT 9999 FEW005 SCT025 BKN120 20/19 A3002 BECMG=
200709230600 METAR MROC 230600Z 00000KT 9999 FEW005 SCT025 BKN120 20/19 A3001 BECMG=
200709230700 METAR MROC 230700Z 32003KT 9999 FEW002 SCT015 BKN120 21/19 A3001 BECMG=
200709230800 METAR MROC 230800Z 00000KT 9999 FEW005 SCT025 BKN120 20/19 A2999 BECMG0=
200709230900 METAR MROC 230900Z 00000KT 9999 FEW025 BKN120 20/19 A3000 BECMG=
200709231000 METAR MROC 231000Z 04005KT CAVOK 19/18 A2997 BECMG=
200709231100 METAR MROC 231100Z 06006KT CAVOK 18/17 A2998 TRAZAS SCT BKN250 BECMG=
200709231200 METAR MROC 231200Z 09002KT CAVOK 19/17 A2998 RMK TRAZAS SC BKN250 BECMG=
200709231300 METAR MROC 231300Z 07002KT CAVOK 22/17 A3001 RMK TRACE SC BKN250 BECMG 24006KT=
200709231400 METAR MROC 231400Z 07004KT CAVOK 25/19 A3002 RMK TRACE SC AC BKN250 BECMG=
200709231500 METAR MROC 231500Z 10008KT 9999 FEW040 BKN250 26/19 A3003 RMK BECMG=
200709231600 METAR MROC 231600Z 11005KT 9999 FEW040 BKN250 27/17 A3002 RMK BECMG 24008KT=
200709231700 METAR MROC 231700Z 10010KT 9999 SCT035 BKN250 28/17 A3000 BECMG=
200709231800 METAR MROC 231800Z 23012KT 9999 SCT035 BKN250 26/21 A2998 RMK BECMG 7000 RA=
200709231900 METAR MROC 231900Z 22008KT 9999 FEW015TCU SCT030 BKN250 26/22 A2995 RMK BECMG=
200709232000 METAR MROC NIL=
200709232100 METAR MROC 232100Z 24013KT 5000 VCSH BR BKN005 SCT020 22/21 A2993 VSBY NE 7KM BECMG=
200709232200 METAR MROC 232200Z 25006KT 5000 -RA BR SCT003 SCT010 FEW012CB 22/21 A2994 VSBY NE W UNL VSBY NW 3KM DUE RASH BECMG=
200709232300 METAR MROC 232300Z 21005KT 0800 FG SCT001 SCT005 21/20 A2995 BECMG=
200709240000 METAR MROC 240000Z 23006KT 5000 -RA BR SCT003 SCT010 BKN100 20/20 A2998 BECMG=
200709240100 METAR MROC 240100Z 24005KT 5000 -RA BR SCT002 BKN010 20/19 A3000 BECMG=
200709240200 METAR MROC 240200Z 19003KT 9999 SCT015 OVC120 20/19 A3002 RERA BECMG=
200709240300 METAR MROC 240300Z 34003KT 9999 FEW020 OVC120 20/19 A3002 BECMG=
200709240400 METAR MROC 240400Z 04003KT 9999 FEW035 SCT120 BKN250 20/18 A3002 BECMG=
200709240500 METAR MROC 240500Z 10002KT 9999 FEW035 SCT120 BKN250 19/18 A3002 BECMG=
200709240600 METAR MROC 240600Z 06002KT CAVOK 20/19 A3001 RMK SCT120 BKN250 BECMG=
200709240700 METAR MROC 240700Z 01004KT CAVOK 19/18 A3000 RMK TRACE SC SCT120 BKN250 BECMG=
200709240800 METAR MROC 240800Z 06003KT CAVOK 19/17 A2998 RMK TRACE SC SCT120 SCT250=
200709240900 METAR MROC 240900Z 02006KT CAVOK 18/17 A2997 RMK FEW120 BKN250=
200709241000 METAR MROC 241000Z 04007KT CAVOK 19/17 A2997 RMK BKN250=
200709241100 METAR MROC 241100Z 03006KT CAVOK 19/17 A2998 RMK FEW120 SCT250=
200709241200 METAR MROC 241200Z 06006KT CAVOK 20/17 A3000 RMK TRACE SC FEW120 BKN250 TCU DST S=
200709241300 METAR MROC 241300Z 02006KT CAVOK 22/18 A3001 TRAZAS SCT FEW120 BKN270 BECMG 24006=
200709241400 METAR MROC 241400Z 09004KT CAVOK 25/19 A3002 TRAZAS SCT BKN270 BECMG=
200709241500 METAR MROC 241500Z 11006KT 9999 FEW025 BKN270 27/18 A3001 BECMG=
200709241600 METAR MROC 241600Z 14003KT 9999 FEW025 BKN270 29/18 A3001=
200709241700 METAR MROC 241700Z 23008KT 9999 FEW025 SCT080 BKN270 25/19 A2999 BECMG=
200709241800 METAR MROC 241800Z 20005KT 9999 SCT030 BKN270 25/21 A2997 BECMG=
200709241900 METAR MROC 241900Z 26007KT 9999 SCT020 BKN270 25/21 A2994 BECMG=
200709242000 METAR MROC 242000Z 25009KT 9999 SCT015TCU BKN270 25/21 A2991 TCU RN E/SE BECMG 7000 RA=
200709242100 METAR MROC 242100Z 21004KT 9999 VCSH FEW015CB SCT025 SCT270 24/22 A2990 RERA RMK VIS S/SW 6KM DUE RN CB SCTD ARND BECMG=
200709242200 METAR MROC 242200Z 17004KT 8000 VCSH SCT012CB SCT025 SCT100 23/22 A2991 RMK VIS S/SW 5KM DUE CB/RN BECMG 6000 -RA=
200709242300 METAR MROC 242300Z 08006KT 8000 -TSRA FEW010CB SCT090 BKN100 21/19 A2994 RMK VIS S/SW 5KM BECMG=
200709250000 METAR MROC 250000Z 06006KT 9999 -RA FEW025 BKN090 21/18 A2998 RETS RMK VIS 7KM SW BECMG=
200709250100 METAR MROC 250100Z 07004KT 9999 -DZRA OVC090 20/19 A2999 RMK LTNG DST SW BECMG=
200709250200 METAR MROC 250200Z 06006KT 9999 FEW030 BKN110 20/19 A3000 RERA BECMG=
200709250300 METAR MROC 250300Z 00000KT CAVOK 20/18 A3001 RMK BKN110 BECMG=
200709250400 METAR MROC 250400Z 32002KT CAVOK 20/19 A3001 RMK TRACE ST BKN110 BECMG=
200709250500 METAR MROC 250500Z 01005KT CAVOK 19/18 A3001 RMK BKN110=
200709250600 METAR MROC 250600Z 09003KT 9999 FEW040 SCT110 19/18 A3000 RMK BECMG=
200709250700 METAR MROC 250700Z 07004KT CAVOK 18/16 A2998 RMK SCT110 BECMG=
200709250800 METAR MROC 250800Z 03008KT CAVOK 17/16 A2995 RMK SCT110=
200709250900 METAR MROC 250900Z 03007KT CAVOK 19/15 A2994 RMK SCT110=
200709251000 METAR MROC 251000Z 03006KT CAVOK 19/15 A2995 RMK SCT110=
200709251100 METAR MROC 251100Z 08003KT CAVOK 18/14 A2997 RMK TRACE AC CI=
200709251200 METAR MROC 251200Z 06002KT CAVOK 17/15 A2999 RMK TRACE CI TCU DST S SW=
200709251300 METAR MROC 251300Z 05005KT CAVOK 22/17 A3000 RMK CB DST S BECMG=
200709251400 METAR MROC 251400Z 23002KT CAVOKT CAVOK 24/14 A3004 RMK TRAZAS CU SCT300 CB DST S=
200709251500 METAR MROC 251500Z 23006KT CAVOK 24/17 A3004 RMK FEW280 CB DST S BECMG=
200709251600 METAR MROC 251600Z 24005KT 9999 FEW035 SCT280 26/19 A3003 RMK CB DST S BECMG=
200709251700 METAR MROC 251700Z 24007KT 9999 FEW035 SCT280 26/19 A3002 RMK CB DST S BECMG=
200709251800 METAR MROC 251800Z 24009KT 9999 FEW035 BKN280 27/19 A3000 RMK TCU DST S/W/E BECMG=
200709251900 METAR MROC 251900Z 23009KT 9999 FEW025TCU SCT035 SCT280 26/20 A2997 RMK TCU SCTD ARND BECMG=
200709252000 METAR MROC 252000Z 24010KT 9999 SCT030TCU SCT035 26/21 A2994 RMK FEW280 TCU SCT N/E BECMG=
200709252100 METAR MROC 252100Z 23010KT 8000 -TS VCSH FEW010CB SCT020 BKN100 25/21 A2994 RMK VIS NE/E 3KMS=
200709252200 METAR MROC 252200Z 22003KT 3000 +TSRA FEW010CB SCT020 BKN100 19/19 A2998 RMK VIS W/NW 1KMS=
200709252300 METAR MROC 252300Z 35003KT 9999 -DZ FEW005 SCT025 OVC100 19/18 A3000 RMK VIS W NW 5KMS=
200709260000 METAR MROC 260000Z 10003KT 9999 -RA SCT025 OVC100 19/18 A3000 RMK VIS W/NW 6KMS DUE RN/ST BAJOS BECMG=
200709260100 METAR MROC 260100Z 00000KT 9999 FEW035 BKN100 19/18 A3000 BECMG=
200709260200 METAR MROC 260200Z 00000KT 9999 FEW035 BKN100 19/18 A3002 BECMG CAVOK=
200709260300 METAR MROC 260300Z 02004KT CAVOK 19/18 A3003 FEW120 BECMG=
200709260400 METAR MROC 260400Z 08003KT 9999 18/17 A3004 FEW120 LOW ST S BECMG=
200709260500 METAR MROC 260500Z 08003KT CAVOK 17/16 A3003 FEW120 BECMG=
200709260600 METAR MROC NIL=
200709260700 METAR MROC 260700Z 00000KT 9999 FEW030 BKN100 19/18 A2998 RMK TRACE ST BECMG CAVOK=
200709260800 METAR MROC 260800Z 07002KT CAVOK 16/16 A3000 FEW300=
200709260900 METAR MROC 260900Z 07003KT CAVOK 16/15 A2999 FEW300=
200709261000 METAR MROC 261000Z 06003KT CAVOK 16/15 A3000 FEW300=
200709261100 METAR MROC 261100Z 07003KT CAVOK 16/15 A3000 FEW300=
200709261200 METAR MROC 261200Z 02008KT CAVOK 18/16 A3002 FEW280 TRAZAS SCT CB DST S=
200709261300 METAR MROC 261300Z 07007KT CAVOK 20/16 A3000 RMK CB DST S TRAZAS SC BECMG=
200709261400 METAR MROC 261400Z 02005KT CAVOK 24/17 A3004 RMK CB DST S/SW TRAZAS SC/CI=
200709261500 METAR MROC 261500Z 11005KT 9999 FEW040 SCT300 26/17 A3003 RMK CB DST SW BECMG=
200709261600 METAR MROC 261600Z 23006KT 9999 SCT035 27/19 A3003 BECMG TRAZAS CI=
200709261700 METAR MROC 261700Z 23010KT 9999 SCT035 BKN300 26/20 A3001 RMK TCU DST N/NE=
200709261800 METAR MROC 261800Z 23008KT 9999 SCT030 BKN300 26/20 A2999 RMK TCU DST N/NE=
200709261900 METAR MROC 261900Z 26010KT 9999 FEW020TCU BKN030 26/20 A2997 RMK CB/RN DST N/NE TRAZAS CI BECMG=
200709262000 METAR MROC 262000Z 24012KT 9999 SCT020TCU BKN030 26/21 A2994 RMK CB/RN DST N/NE TRAZAS CI=
200709262100 METAR MROC 262100Z 24007KT 8000 2000N TSRA SCT015CB BKN025 21/19 A2995 RKM VIS E SE S UNLTD BECMG 9999=
200709262200 METAR MROC 262200Z 26004KT 9999 FEW010 SCT030 BKN250 21/20 A2995 RETS RMK RN VIS 9KMS TO S SSW BECMG 5000 BR=
200709262300 METAR MROC 262300Z 23003KT 8000 VCFG FEW007 BKN015 21/20 A2998 BECMG 5000 BR=
200709270000 METAR MROC 270000Z 22004KT 4000 -RA BR FEW001 SCT005 BKN015 21/21 A2998 RMK VIS SW 2500MTS BECMG 6000=
200709270100 METAR MROC 270100Z 26004KT 3000 BR SCT003 BKN007 21/20 A3000 BECMG 1000=
200709270200 METAR MROC 270200Z 30002KT 5000 BR SCT003 BKN015 21/20 A3002 RMK BECMG 7000=
200709270300 METAR MROC 270300Z 31003KT 9999 3000SW BR FEW001 SCT005 BKN260 21/20 A3004 RMK ST THIN OVER STND BECMG 6000 VCFG=
200709270400 METAR MROC 270400Z 00000KT 2000 BR FEW001 BKN260 20/19 A3003 RMK FEW005=
200709270500 METAR MROC 270500Z 33002KT 5000 BR FEW002 BKN015 20/19 A3004 RMK LTNG SW BECMG=
200709270600 METAR MROC 270600Z 07002KT 7000 VCFG FEW003 SCT260 19/18 A3003 RMK=
200709270700 METAR MROC 270700Z 08004KT 9999 FEW005 SCT260 18/17 A3000 RMK LTNG DST S ST SW=
200709270800 METAR MROC 270800Z 05009KT 9999 FEW005 19/16 A2997 RMK FEW260 CB/LTNG DST SW ST S/SW=
200709270900 METAR MROC 270900Z 03005KT CAVOK 19/16 A2996 RMK FEW260 LINE CB/LTNG DST S/SW=
200709271000 METAR MROC 271000Z 03006KT CAVOK 19/16 A2997 RMK FEW260 CB/LTNG DST S/SW=
200709271100 METAR MROC 271100Z 02005KT CAVOK 19/16 A2998 RMK FEW260 LINE CB/LTNG DST S/SW=
200709271200 METAR MROC 271200Z 06006KT CAVOK 18/15 A2999 RMK FEW260 CB DST S=
200709271300 METAR MROC 271300Z 05004KT CAVOK 22/17 A3001 RMK TRACE SC SCT250 CB DST S BECMG=
200709271400 METAR MROC 271400Z VRB03KT CAVOK 25/17 A3001 RMK TRACE CU SC SCT250 BECMG 24006KT=
200709271500 METAR MROC 271500Z 09007KT CAVOK 27/16 A2999 RMK TRACE CU SC SCT250 BECMG=
200709271600 METAR MROC 271600Z 12011KT 9999 FEW035 SCT250 28/17 A2998 BECMG=
200709271700 METAR MROC 271700Z 23012KT 9999 FEW025 26/20 A2998 RMK FEW045 FEW250 BECMG=
200709271800 METAR MROC 271800Z 23010KT 9999 FEW020TCU SCT035 27/20 A2996 RMK PCPN DST N NNE BECMG 7000 VCSH=
200709271900 METAR MROC 271900Z 24012KT 9999 FEW017CB SCT025TCU BKN040 25/20 A2992 RMK RASH DST NW N NE BECMG 5000 SHRA=
200709272000 METAR MROC 272000Z 24009KT 9999 -TSRA VCSH FEW015CB SCT035 BKN050 24/21 A2991 RMK VIS N SE 7KMS BECMG 2000=
200709272100 METAR MROC 272100Z 27005KT 9999 FEW010CB SCT030 BKN100 23/21 A2990 RMK RN NW BECMG=
200709272200 METAR MROC 272200Z 24004KT 9999 3000SW -RA BR FEW002 SCT010 BKN100 22/20 A2991 RMK BECMG=
200709272300 METAR MROC 272300Z 24006KT 0500 VV/// 21/20 A2992 BECMG 1500 -RA BR=
200709280000 METAR MROC 280000Z 26005KT 1000 BR VV/// 21/20 A2993 RMK BECMG 1500 -RA BR=
200709280100 METAR MROC 280100Z 26004KT 3000 BR FEW001 BKN003 21/20 A2995 RMK BECMG 5000 BR=
200709280200 METAR MROC 280200Z 00000KT 5000 BR FEW001 BKN005 21/20 A2996 BECMG=
200709280300 METAR MROC 280300Z 29005KT 5000 BR FEW001 SCT003 BKN012 21/20 A2998 BECMG=
200709280400 METAR MROC 280400Z 34004KT 5000 BR FEW003 SCT010 BKN020 21/20 A2998 BECMG=
200709280500 METAR MROC 280500Z 00000KT 9999 FEW003 SCT010 BKN100 21/19 A2997 BECMG=
200709280600 METAR MROC 280600Z 36003KT 9999 FEW030 SCT100 20/19 A2995 BECMG=
200709280700 METAR MROC 280700Z 05006KT CAVOK 20/17 A2993 RMK FEW300 BECMG=
200709280800 METAR MROC 280800Z 00000KT CAVOK 19/17 A2992 RMK FEW300 BECMG=
200709280900 METAR MROC 280900Z 00000KT CAVOK 19/17 A2992 RKM FEW300 BECMG=
200709281000 METAR MROC 281000Z 01006KT CAVOK 19/17 A2992 RKM FEW300 BECMG=
200709281100 METAR MROC 281100Z 04008KT CAVOK 19/17 A2992 RMK SCT300 BECMG=
200709281200 METAR MROC 281200Z 00000KT 9999 FEW030 BKN300 19/17 A2995 RMK CB DST S BECMG=
200709281300 METAR MROC 281300Z 03003KT 9999 FEW030 BKN300 22/18 A2998 RMK CB DST SW BECMG=
200709281400 METAR MROC 281400Z 01002KT CAVOK 25/18 A2999 RMK FEW130 BKN300 BECMG=
200709281500 METAR MROC 281500Z 23007KT 9999 FEW040 SCT120 BKN300 24/19 A3000 RMK BECMG=
200709281600 METAR MROC 281600Z 27003KT 9999 FEW040 SCT120 BKN300 26/19 A2999 RMK BECMG=
200709281700 METAR MROC 281700Z 05002KT 9999 FEW040 BKN300 29/19 A2995 RMK BECMG=
200709281800 METAR MROC 281800Z 23007KT 9999 FEW010TCU SCT030 BKN250 27/21 A2992 RMK BECMG 5000 VCSH=
200709281900 METAR MROC 281900Z 24010KT 9999 FEW010TCU SCT030 BKN250 24/22 A2990 RMK BECMG 5000 VCSH=
200709282000 METAR MROC 282000Z 23012KT 9999 FEW010TCU BKN025 24/21 A2988 RMK BECMG 5000 VCSH BR=
200709282030 METAR MROC 282030Z 21009KT 5000 RA BKN008 SCT020CB 22/20 A2989 BKMG VSBY SE UNL BECMG 3000 SHRA=
200709282100 METAR MROC 282100Z 25003KT 6000 TSRA SCT005 SCT012 FEW015CB 20/18 A2991 VSBY E SE UNL VSBY N 3KM BECMG 4000=
200709282200 METAR MROC 282200Z 323003KT 6000 -RA VCFG FEW003 SCT012 BKN030 21/20 A2991 VSBY NE E UNL BECMG 4000=
200709282300 METAR MROC 282300Z 05004KT 9999 -RA FEW020 BKN100 21/19 A2992 BECMG 6000=
200709290000 METAR MROC 290000Z 10003KT 9999 -RA FEW025 BKN100 21/19 A2991 BECMG=
200709290100 METAR MROC 290100Z 02005KT CAVOK 21/19 A2992 FEW080 BKN120 BECMG=
200709290200 METAR MROC 290200Z 30002KT 9999 -RA OVC100 20/19 A2994 RMK LOW ST S BECMG 6000SW=
200709290300 METAR MROC 290300Z 00000KT 9999 VCFG BKN120 20/19 A2996 RMK TRACE LOW ST VIS 6KMS SSE S SSW BECMG=
200709290400 METAR MROC 290400Z 09002KT 9999 VCFG BKN120 SCT250 20/19 A2997 VIS S 8KMS BECMG=
200709290500 METAR MROC 290500Z 35002KT 9999 VCFG BKN120 SCT250 19/18 A2996 VIS S SW 8KMS BECMG=
200709290600 METAR MROC 290600Z 07002KT CAVOK 19/18 A2995 RMK TRACE SC SC SCT140 BKN250 BECMG=
200709290700 METAR MROC 290700Z 02005KT CAVOK 21/18 A2992 RMK TRACE SC SCT140 BKN250 BECMG=
200709290800 METAR MROC 290800Z 08005KT CAVOK 20/18 A2989 RKM TRACE SCT BKN130=
200709290900 METAR MROC 290900Z 06006KT CAVOK 21/18 A2988 RMK TRACE SC BKN140=
200709291000 METAR MROC 291000Z 10006KT CAVOK 21/17 A2989 RMK TRACE SC BKN150=
200709291100 METAR MROC 291100Z 03004KT CAVOK 20/17 A2991 RMK TRACE SC FEW160 SCT250=
200709291200 METAR MROC 291200Z 07006KT CAVOK 21/17 A2992 RMK TRACE SC BKN160 SCT300=
200709291300 METAR MROC 291300Z 28003KT CAVOK 23/18 A2995 RMK SCT100 BKN250=
200709291400 METAR MROC 291400Z 25006KT CAVOK 23/19 A2997 RMK TRAZAS CU SCT250 CB DST S BECMG=
200709291500 METAR MROC 291500Z 24007KT 9999 FEW025 24/20 A2998 CB DST S BECMG=
200709291600 METAR MROC 291600Z 24007KT 9999 FEW025 26/20 A2998 BECMG=
200709291700 METAR MROC 291700Z 24008KT 9999 FEW025 26/21 A2996 BECMG=
200709291800 METAR MROC 291800Z 23008KT 9999 FEW015TCU SCT020 27/21 A2993 RMK RN NE BECMG 6000 RA=
200709291900 METAR MROC 291900Z 24011KT 9999 VCSH SCT012CB SCT020 26/21 A2991 RMK VSBY E 6KM DUE RASH VECMG 4000 TSRA=
200709292000 METAR MROC 292000Z 23004KT 3000 TSRA SCT010CB BKN025 23/21 A2991 RMK VSBY W UNL BECMG=
200709292100 METAR MROC 292100Z VRB03KT 9999 3000W -DZRA FEW010CB SCT035 BKN100 21/20 A2992 RETS RMK CB W BECMG=
200709292200 METAR MROC 292200Z 00000KT 9999 -TSRA FEW010CB SCT035 BKN100 21/20 A2993 RMK VIS W 6KM DUE CB/TS ST S BECMG=
200709292300 METAR MROC 292300Z 27002KT 9999 -RA VFFG FEW035 BKN100 21/20 A2993 RMK VIS 7KM S DUE ST CB/LTNG DST S/W BECMG=
200709300000 METAR MROC 300000Z 09005KT 9999 FEW035 BKN110 21/19 A2994 RMK ST S BECMG=
200709300100 METAR MROC 300100Z 11002KT 9999 FEW035 BKN120 21/19 A2997 RMK ST S BECMG=
200709300200 METAR MROC 300200Z 05007KT CAVOK 21/18 A2999 RMK BKN120 BECMG=
200709300300 METAR MROC 300300Z 27505KT CAVOK 20/19 A3000 RMK BKN120 BECMG=
200709300400 METAR MROC 300400Z 25002KT CAVOK 20/19 A2999 RMK SCT120 BKN250 TRACE ST BECMG=
200709300500 METAR MROC 300500Z 06002KT 9999 FEW017 SCT150 BKN250 20/18 A2999 RMK BECMG CAVOK=
200709300600 METAR MROC 300600Z 07004KT 9999 FEW025 SCT120 BKN250 19/18 A2997 RMK BECMG CAVOK=
200709300700 METAR MROC 300700Z 06004KT 9999 FEW025 SCT120 BKN250 20/19 A2995 RMK=
200709300800 METAR MROC 300800Z 05009KT 9999 FEW030 SCT250 20/17 A2993=
200709300900 METAR MROC 300900Z 08005KT CAVOK 20/18 A2992 RMK FEW120 SCT250=
200709301000 METAR MROC 301000Z 06007KT CAVOK 19/17 A2993 RMK FEW120 BKN250 LTNG DST S SW=
200709301100 METAR MROC 301100Z 00000KT 9999 FEW040 SCT120 19/17 A2997 RMK SCT250=
200709301200 METAR MROC 301200Z 00000KT 9999 FEW045 BKN120 20/18 A2998=
200709301300 METAR MROC 301300Z 02003KT 9999 FEW045 SCT080 BKN110 20/18 A3001 RMK ST SE/SSE HZ LGT ARND BECMG=
200709301400 METAR MROC 301400Z 12003KT CAVOK 22/19 A3003 RMK SCT080 BKN110 HZ LGT ARND BECMG 24008=
200709301500 METAR MROC 301500Z 21003KT 9999 FEW035 SCT120 24/20 A3004 RMK SCT260 BECMG=
200709301600 METAR MROC 301600Z 11002KT 9999 FEW040 SCT110 25/19 A3003 RMK SCT260 CB DST SE BECMG=
200709301700 METAR MROC 301700Z 00000KT 9999 FEW040 SCT120 26/19 A3000 RMK SCT260 BECMG 25008KT 9999 FEW030=
200709301800 METAR MROC NIL=
200709301900 METAR MROC 301900Z 23010KT 9999 TS VSFG FEW012CB SCT030 SCT120 24/21 A2997 RMK CB/TS S VIS 8KM S/W DUE ST BECMG 6000 VCFG FEW005 SCT015=
200709302000 METAR MROC 302000Z 19004KT 9999 FEW035 SCT110 23/20 A2995 RMK SCT260 ST SW BECMG=
200709302100 METAR MROC 302100Z 00000KT 9999 FEW035 BKN120 24/19 A2993 RMK RN DST NE=
200709302200 METAR MROC 302200Z 10003KT CAVOK 24/20 A2993 RMK TRAZAS SC SCT120 BKN250=
200709302300 METAR MROC 302300Z 00000KT CAVOK 24/20 A2994 RMK TRAZAS SC SCT120 BKN250 BECMG=
200710010000 METAR MROC 010000Z 00000KT CAVOK 23/19 A2996 RMK TRAZAS SC OVC120=
200710010100 METAR MROC 010100Z 15003KT CAVOK 22/19 A3000 RMK TRAZAS DE SC SCT120 BECMG=
200710010200 METAR MROC 010200Z 25005KT 9999 3000SW BR SCT003 BKN100 21/21 A3002 BECMG 2000 BR BKN002=
200710010300 METAR MROC 010300Z 25003KT 6000 -RA VCFG SCT003 BKN012 22/21 A3003=
200710010400 METAR MROC 010400Z 31003KT 6000 VCFG FEW002 SCT005 BKN120 22/21 A3003 VSBY SE UNL BECMG=
200710010500 METAR MROC 010500Z 00000KT 0200 FG VV/// 21/20 A3002 RMK VSBY N NE UNL=
200710010600 METAR MROC 010600Z 00000KT 9999 VCFG FEW005 SCT012 OVC120 21/20 A3001 RKM VSBY SW 6KM BECMG=
200710010700 METAR MROC 010700Z 25003KT 0100 FG VV// 20/20 A2999=
200710010800 METAR MROC 010800Z 29002KT 2500 BR SCT002 SCT010 20/20 A2992=
200710010900 METAR MROC 010900Z 13002KT 9999 FEW003 SCT030 BKN120 20/19 A2998=
200710011000 METAR MROC 011000Z 00000KT 7000 VCFG FEW003 BKN012 20/19 A2999 VSBY N NE E UNL=
200710011100 METAR MROC 011100Z 02003KT 9999 VCFG FEW004 SCT012 BKN120 20/19 A2999 VSBY SW 6KM=
200710011200 METAR MROC 011200Z 00000KT 9999 VCFG FEW005 SCT015 BKN120 20/19 A3000 VSBY SW W NW 6KM=
200710011225 METAR MROC 011225Z 14003KT 9999 4000SW -DZ BR FEW001 SCT005 BKN100 20/19 A3001=
200710011300 METAR MROC 011300Z 10002KT 8000 -DZ FEW003 SCT025 BKN100 21/20 A3001 RMK VIS E 2KMS=
200710011400 METAR MROC 011400Z 08002KT 9999 FEW025 BKN100 23/20 A3002 RMK TRAZAS ST BECMG=
200710011500 METAR MROC 011500Z 06004KT 9999 SCT030 BKN120 26/21 A3002 RMK HZ LGT ARND BECMG=
200710011600 METAR MROC 011600Z 26006KT 9999 SCT030 BKN120 25/21 A3001 BECMG=
200710011700 METAR MROC 011700Z 25008KT 9999 SCT030 BKN250 27/20 A2999 RMK TRAZAS AC BECMG=
200710011800 METAR MROC 011800Z 22010KT 9999 SCT030 BKN250 27/21 A2997 RMK TCU7RN DST S=
200710011900 METAR MROC 011900Z 20007KT 9999 FEW020TCU SCT030 BKN250 25/20 A2995 RMK CB/RN DST N/NE BECMG=
200710012000 METAR MROC 012000Z 33008KT 3000 -TSRA FEW010CB SCT020 BKN100 21/19 A2995 RMK VIS E/SE/S UNL BECMG 6000 -RA=
200710012100 METAR MROC 012100Z 34008KT 7000 -RA VCSH FEW007 FEW015CB BKN100 20/19 A2994 VIS WSW W 5KMS BECMG=
200710012200 METAR MROC 012200Z 33004KT 7000 -RA FEW004 SCT040 BKN100 20/19 A2995 RMK VIS E ENE UNLTD BECMG 4000 -RA BR=
200710012300 METAR MROC 012300Z 03004KT 9999 -RA FEW015 SCT025 BKN100 20/19 A2995 BECMG=
200710020000 METAR MROC 020000Z 17003KT CAVOK 20/19 A2997 RMKL TRACE ST SCT BKN130 BECMG 22004KT 7000 VCFG=
200710020100 METAR MROC 020100Z 03005KT 9999 FEW030 BKN130 20/19 A3000 BECMG 7000=
200710020200 METAR MROC 020200Z 09003KT 9999 FEW030 BKN130 20/19 A2999 BECMG=
200710020300 METAR MROC 020300Z 29002KT 9999 FEW030 BKN130 20/18 A3000 RMK ST SSE/S BECMG=
200710020400 METAR MROC 020400Z 00000KT 7000 3000SW FEW002 BKN120 19/18 A3002 RMK ST THIN IN THE STND BECMG 8000=
200710020500 METAR MROC 020500Z 00000KT 7000 1500SW BR FEW001 BKN015 20/19 A3001 RMK VIS N/NE UNL BECMG=
200710020600 METAR MROC 020600Z 04004KT 9999 VCFG FEW003 SCT020 19/18 A2999 RMK SCT120 VIS SSE 6KM DUE ST BECMG=
200710020700 METAR MROC 020700Z 05003KT 9999 VCFG FEW003 SCT015 19/18 A2998 RMK SCT025 VIS S 7KM DUE ST BECMG=
200710020800 METAR MROC 020800Z 00000KT 9999 VCFG SCT003 BKN015 19/18 A2998 RMK VIS S/SW 7KM DUE ST=
200710020900 METAR MROC 020900Z 02005KT 9999 FEW015 BKN025 20/18 A2997 RMK FEW110 ST S=
200710021000 METAR MROC 021000Z 10002KT 9999 FEW025 BKN120 19/18 A2996=
200710021100 METAR MROC 021100Z 03007KT CAVOK 19/17 A2997 RMK ST120 ST260=
200710021200 METAR MROC 021200Z 02006KT 9999 FEW004 SCT110 19/17 A3000 RMK SCT260 ST S=
200710021300 METAR MROC 021300Z 11003KT CAVOK 22/19 A3001 RMK TRACE ST SC BKN250=
200710021400 METAR MROC 021400Z 18003KT CAVOK 24/19 A3001 RMK TRACE CU SCT270 BECMG 23006KT=
200710021500 METAR MROC 021500Z 23006KT 9999 SCT020 24/19 A3001 RMK LGT HZ ARND BECMG=
200710021600 METAR MROC 021600Z 23011KT 9999 FEW017 SCT030 24/20 A3003 BECMG=
200710021700 METAR MROC 021700Z 24008KT 9999 SCT020 SCT030 24/19 A3003 RMK FEW250 BECMG=
200710021800 METAR MROC 021800Z 25009KT 9999 SCT020 SCT030 25/20 A3001 RMK FEW CC BECMG=
200710021900 METAR MROC 021900Z 26008KT 9999 FEW020 BKN030 26/20 A2997 RMK FEW230 BECMG=
200710022000 METAR MROC 022000Z 22009KT 9999 FEW015TCU SCT025 BKN140 24/20 A2995 CB RASH DST NW RN S BECMG 7000 VCSH=
200710022100 METAR MROC 022100Z 24009KT 9999 5000N BR FEW008 SCT018TCU BKN140 22/21 A2995 BECMG 6000 TSRA=
200710022200 METAR MROC 022200Z 24005KT 8000 3000SW -RA BR FEW004 SCT015 BKN120 21/20 A2995 BECMG 2000 -RA BR=
200710022300 METAR MROC 022300Z 24004KT 8000 3000SW BR FEW002 SCT010 BKN030 21/19 A2997 RMK VIS N NE 3000MTS VIS S UNL BECMG 6000 VCFG=
200710030000 METAR MROC 030000Z 27005KT 9999 FEW010 SCT030 BKN100 21/19 A2998 BECMG=
200710030100 METAR MROC 030100Z 28003KT 9999 FEW035 BKN100 21/20 A3000 RMK BECMG 6000 VCFG=
200710030200 METAR MROC 030200Z 00000KT 9999 FEW030 BKN100 20/19 A3002 BECMG=
200710030300 METAR MROC 030300Z 13002KT 9999 FEW030 SCT120 20/19 A3002 TRAZAS ST BAJOS BECMG=
200710030400 METAR MROC 030400Z 35005KT CAVOK 20/19 A3002 RMK FEWSC BKN250 BECMG=
200710030500 METAR MROC 030500Z 23004KT 9999 FEW003 SCT010 BKN025 20/19 A3003 BECMG=
200710030600 METAR MROC 030600Z 28002KT 9999 -DZ VCFG FEW003 SCT010 BKN020 20/19 A3003 RMK VIS SW 3KMS DUE ST BAJOS=
200710030700 METAR MROC 030700Z 00000KT 9999 FEW003 SCT025 BKN100 20/19 A3001 BECMG=
200710030800 METAR MROC 030800Z 07003KT CAVOK 19/18 A2997 FEWSC SCT250 BECMG=
200710030900 METAR MROC 030900Z 07003KT CAVOK 19/18 A2995 FEWSC SCT250 BECMG=
200710031000 METAR MROC 011000Z 00000KT CAVOK 19/18 A2998 RMK FEWSC SCT120 BKN250=
200710031100 METAR MROC 031100Z 07004KT CAVOK 19/17 A2998 RMK FEW120 SCT250 BECMG=
200710031200 METAR MROC 031200Z 08003KT CAVOK 19/17 A2999 RMK SCT120 BKN250 CB DST S/SW=
200710031300 METAR MROC 031300Z 09003KT CAVOK 22/19 A2997 RMK FEW140 BKN250 BECMG=
200710031400 METAR MROC 031400Z 25007KT 9999 CAVOK 22/19 A3002 RMK SCT120 SCT250 BECMG=
200710031500 METAR MROC 031500Z 24005KT 9999 FEW040 SCT250 25/19 A3004 RMK BECMG=
200710031600 METAR MROC 031600Z 27004KT 9999 FEW040 BKN260 26/19 A3002 RMK TRACE AC BECMG=
200710031700 METAR MROC 031700Z 26004KT 9999 SCT030 BKN260 26/20 A3001 RMK BECMG=
200710031800 METAR MROC 031800Z 25010KT 9999 FEW015TCU SCT030 BKN250 26/21 A2998 RMK TRACE AC BECMG=
200710031900 METAR MROC 031900Z 21006KT 9999 RA FEW015TCU SCT030 SCT250 24/21 A2996 RMK BECMG 5000=
200710032000 METAR MROC 032000Z 24013KT 9999 FEW015TCU BKN030 23/21 A2994 RMK RN S SW TRACE CI BECMG 5000 VCSH=
200710032018 METAR MROC 032018Z 20005KT 9999 3000E RA FEW015TCU BKN030 21/20 A2996=
200710032100 METAR MROC 032100Z 25007KT 9999 VCSH SCT015 BKN140 22/20 A2994 RMK VSBY NE E 6KM DUE RASH BECMG=
200710032200 METAR MROC 032200Z 25007KT 9999 FEW005 BKN020 22/19 A2995 BECMG=
200710032300 METAR MROC 032300Z 18003KT 9999 -RA FEW020 BKN120 21/20 A2996 BECMG=
200710040000 METAR MROC 040000Z 00000KT 9999 FEW010 BKN120 20/19 A2998 RMK VSBY N 7KM DUE LW ST=
200710040100 METAR MROC 040100Z 25003KT 9999 FEW030 BKN120 21/19 A3001 BECMG=
200710040200 METAR MROC 040200Z 07002KT 9999 FEW025 BKN120 20/19 A3002 BECMG=
200710040300 METAR MROC 040300Z 00000KT 9999 FEW025 BKN120 21/19 A3004 BECMG=
200710040400 METAR MROC 040400Z 00000KT CAVOK 20/19 A3002 RMK TRACE SC BKN140 BECMG=
200710040500 METAR MROC 040500Z 00000KT CAVOK 20/19 A3001 RMK TRACE ST SC OVC140 BECMG=
200710040600 METAR MROC 040600Z 08003KT CAVOK 20/19 A2999 RMK RERA OVC140 BECMG=
200710040700 METAR MROC 040700Z 03003KT CAVOK 21/19 A2996 RMK OCV140 BECMG=
200710040800 METAR MROC 040800Z 23002KT CAVOK 20/19 A2995 RMK TRACE ST TO SW OVC150=
200710040900 METAR MROC 040900Z 00000KT 9999 4000SW BR FEW003 SCT010 BKN150 20/19 A2995 RMK LOW ST TO SW=
200710041000 METAR MROC 041000Z 00000KT 6000 2500SW VCFG BR FEW002 SCT004 BKN150 20/19 A2996 RMK FG IN APCH RNY 07=
200710041100 METAR MROC 041100Z 08003KT 9999 VCFG BKN150 20/19 A2996 RMK TRACE ST FG VIS 8KMS TO SW W=
200710041200 METAR MROC 041200Z 01004KT CAVOK 20/18 A2996 RMK BKN140 SCT220 CB DST S HZY=
200710041300 METAR MROC 041300Z 01003KT CAVOK 22/18 A2998 TRAZAS SCT FEW100 BKN260 BECMG 24008=
200710041400 METAR MROC 041400Z 21002KT 9999 VCFG FEW002 BKN260 23/19 A2999 RMK VSBY S/SW 6KM BECMG=
200710041500 METAR MROC 041500Z 24005KT 9999 FEW020 BKN260 24/19 A3000 BECMG=
200710041600 METAR MROC 041600Z 25008KT 9999 FEW025 BKN260 25/19 A3000 BECMG=
200710041700 METAR MROC 041700Z 24008KT 9999 FEW025TCU BKN260 27/20 A2996 TCU NE S BECMG=
200710041800 METAR MROC 041800Z 24008KT 9999 FEW025TCU BKN260 27/20 A2996 TCU NE S BECMG=
200710041900 METAR MROC 041900Z 24010KT 9999 SCT020TCU SCT030 BKN260 26/20 A2991 RN DST NW BECMG=
200710042000 METAR MROC 042000Z 23010KT 9999 SCT015TCU SCT030 25/21 A2989 RMK RN E S NW BECMG 3000 TSRA=
200710042100 METAR MROC 042100Z 24010KT 6000 2000E -TSRA SCT010 SCT020 22/20 A2992 RMK SCT100 BECMG 3000 TSRA=
200710042200 METAR MROC 042200Z 06010KT 0800 +TSRA FEW008CB BKN015 19/18 A2994 RMK ACUMULACION DE AGUA SOBRE LA PISTA BECMG 2000 RA=
200710042300 METAR MROC 042300Z 09003KT 8000 -RA FEW007 SCT030 19/18 A2995 RMK SCT090 VIS E/N/W UNL LTNG DST SSE BECMG=
200710050000 METAR MROC 050000Z 10003KT 9999 -DZRA FEW007 SCT020 BKN030 19/18 A2998 RMK VIS S/SW 8KM DUE ST BECMG=
200710050100 METAR MROC 050100Z 01003KT 9999 FEW007 BKN030 20/18 A3000 RMK FEW025 ST S/SW BECMG=
200710050200 METAR MROC 050200Z 06002KT 9999 FEW030 BKN110 20/18 A3000 RMK ST S/SW BECMG=
200710050300 METAR MROC NIL=
200710050400 METAR MROC 050400Z 04003KT CAVOK 20/18 A3002 RMK BKN110 BECMG=
200710050500 METAR MROC 050500Z 04004KT CAVOK 19/18 A3002 RMK BKN110 BECMG=
200710050600 METAR MROC 050600Z 05003KT CAVOK 18/17 A3000 RMK BKN120 BECMG=
200710050700 METAR MROC NIL=
200710050800 METAR MROC NIL=
200710050900 METAR MROC NIL=
200710051000 METAR MROC NIL=
200710051100 METAR MROC NIL=
200710051200 METAR MROC 051200Z 06005KT CAVOK 20/16 A2995 RMK BKN120=
200710051300 METAR MROC 051300Z 14003KT CAVOK 22/17 A2998 RMK SCT120 FEW270 BECMG 24006 9999 FEW035=
200710051400 METAR MROC 051400Z 20004KT CAVOK 24/19 A3001 RMK FEW120 FEW270 HZ LGT W=
200710051500 METAR MROC 051500Z 24007KT CAVOK 24/19 A3000 RMK FEW270 CB DST E/S HZ LGT SW/W BECMG=
200710051600 METAR MROC 051600Z 24008KT 9999 FEW040 SCT270 25/20 A3000 BECMG=
200710051700 METAR MROC 051700Z 23008KT 9999 SCT035 BKN270 26/19 A2998 BECMG=
200710051800 METAR MROC 051800Z 23008KT 9999 FEW025TCU SCT035 SCT110 25/20 A2996 RMK TCU/RN DST NE/ESE BECMG=
200710051900 METAR MROC 051900Z 23008KT 9999 -DZRA FEW020TCU SCT035 SCT110 25/20 A2993 RMK VIS E 6KM VIS SSE 7KM DUE RN BECMG 5000 -RA=
200710052000 METAR MROC 052000Z 21006KT 7000 RA FEW015TCU SCT030 SCT100 24/20 A2991 RMK VIS E/ESE UNL BECMG=
200710052100 METAR MROC 052100Z 26007KT 1000 +RA FEW001 SCT015 BKN025 20/19 A2990 BECMG=
200710052200 METAR MROC 052200Z 24007KT 3000 RA FEW005 SCT025 BKN100 20/20 A2991 RMK TS DST SW BECMG=
200710052300 METAR MROC 052300Z 00000KT 9999 -DZ FEW004 SCT010 BKN025 21/20 A2992 RMK VIS SW/ W/NW 4KMS DUE ST/RASH=
200710060000 METAR MROC 060000Z 30006KT 9999 -RA FEW003 SCT015 BKN100 20/19 A2994 RMK VIS SW/W 5KMS=
200710060100 METAR MROC 060100Z 29003KT 9999 SCT008 BKN080 20/19 A2997 RERA BECMG=
200710060200 METAR MROC 060200Z 28003KT 9999 SCT015 BKN090 21/19 A2998 BECMG=
200710060300 METAR MROC 060300Z 27002KT 9999 FEW012 SCT025 21/19 A2999 BECMG=
200710060400 METAR MROC 060400Z 10002KT CAVOK 20/19 A2998 TRAZAS SCT BECMG=
200710060500 METAR MROC 060500Z 00000KT CAVOK 19/19 A2996 TRAZAS SCT BECMG=
200710060600 METAR MROC 060600Z 00000KT 9999 FEW030 19/18 A2995 BECMG=
200710060700 METAR MROC 060700Z 09002KT 9999 FEW010 SCT030 19/18 A2993 BECMG=
200710060800 METAR MROC 060800Z 03006KT CAVOK 19/18 A2991 TRAZAS SCT=
200710060900 METAR MROC NIL=
200710061000 METAR MROC 061000Z 050003KT CAVOK 17/16 A2991=
200710061100 METAR MROC 061100Z 04005KT CAVOK 18/16 A2991 FEW120=
200710061200 METAR MROC 061200Z 08003KT 9999 BKN042 18/16 A2994 CB DST SW=
200710061300 METAR MROC 061300Z 09002KT 9999 SCT035 BKN100 20/17 A2996 RMK CB DST S/SW=
200710061400 METAR MROC 061400Z 00000KT 9999 FEW025 BKN100 23/18 A2998 BECMG=
200710061500 METAR MROC 061500Z 00000KT 9999 SCT025 BKN100 25/19 A2999 BECMG 24008KT=
200710061600 METAR MROC 061600Z 24003KT 9999 SCT030 BKN300 26/20 A2997 RMK TCU DST=
200710061700 METAR MROC 061700Z 26005KT 9999 SCT030 BKN300 26/19 A2993 RMK TCU DST NW/N BECMG=
200710061800 METAR MROC 061800Z 23008KT 9999 SCT030 BKN250 27/20 A2990 RMK TCU DST N BECMG=
200710061900 METAR MROC 061900Z 23010KT 9999 SCT030TCU BKN250 27/21 A2986 RMK RN DST NW HZ LGT ARND=
200710062000 METAR MROC 062000Z 24015KT 9999 SCT025TCU BKN100 25/21 A2983 RMK CB/RN DST NW/N NE FEW250 BECMG 6000 TSRA=
200710062100 METAR MROC 062100Z 31005KT 4000 -RA VCFG FEW008 SCT015 BKN100 21/20 A2984 RMK VIS E UNLTD BECMG 6000=
200710062200 METAR MROC 062200Z 23008KT 7000 VCSH FEW006 SCT015CB BKN025 21/20 A2985 RMK VIS S UNLTD BECMG=
200710062300 METAR MROC 062300Z 23010KT 2000 VCSH BR FEW002 SCT005 BKN020 20/19 A2987 BECMG 1000 SHRA=
200710070000 METAR MROC 070000Z 22005KT 4000 -RA BR FEW002 SCT015 BKN025 20/19 A2990 BECMG=
200710070100 METAR MROC 070100Z 04002KT 9999 -RA FEW030 OVC100 20/19 A2992 BECMG=
200710070200 METAR MROC 070200Z 04005KT 9999 -RA FEW030 OVC110 20/19 A2993 BECMG=
200710070300 METAR MROC 070300Z 24003KT 9999 FEW035 OVC120 20/19 A2993 BECMG=
200710070400 METAR MROC 070400Z 28002KT 9999 FEW030 OVC120 20/19 A2994 RERA RMK ST S/SW BECMG=
200710070500 METAR MROC 070500Z 00000KT 9999 2000W BR FEW001 SCT020 20/19 A2993 RMK SCT120 ST SSW/W BECMG 9999=
200710070600 METAR MROC 070600Z 29004KT 8000 VCFG BR FEW001 BKN030 20/19 A2992 RMK FEW020 VIS SSE/W 4KM DUE ST BECMG=
200710070700 METAR MROC 070700Z 27002KT 8000 VCFG BR FEW001 SCT015 20/19 A2990 RMK SCT030 VIS SW 5KM DUE ST BECMG 5000 BR SCT001 BKN015=
200710070800 METAR MROC 070800Z 36002KT 9999 VCFG FEW001 SCT020 20/19 A2988 RMK VIS SW 7KM DUE ST=
200710070900 METAR MROC 070900Z 11002KT 9999 FEW006 SCT120 20/19 A2985 RMK FEW030 ST SSE/S/SW=
200710071000 METAR MROC 071000Z 00000KT CAVOK 19/18 A2985 RMK SCT120 FEW260=
200710071100 METAR MROC 071100Z 24004KT 9999 VCFG FEW003 BKN025 19/16 A2988 RMK FEW015 VIS S/SW 7KM DUE ST=
200710071200 METAR MROC 071200Z 33002KT 8000 VCFG FEW002 BKN025 20/18 A2991 RMK FEW015 VIS S/SW 3KM DUE ST VIS N UNL=
200710071300 METAR MROC 071300Z 00000KT 9999 VCFG FEW004 SCT025 BKN120 21/19 A2992 VIS 7KMS TO S SSW LOW ST SW W BECMG=
200710071400 METAR MROC 071400Z 07004KT CAVOK 23/19 A2992 RMK TRACE CU BKN120 CB DST SSW SW BECMG 24005KT=
200710071500 METAR MROC 071500Z 00000KT 9999 FEW020 BKN120 26/17 A2992 RMK CB DST SW BECMG 24005KT=
200710071600 METAR MROC 071600Z 24007KT 9999 FEW020 BKN120 25/20 A2991 BECMG=
200710071700 METAR MROC 071700Z 23010KT 9999 FEW017TCU SCT030 BKN120 25/19 A2990 RMK RASH DST SSW BECMG=
200710071800 METAR MROC 071800Z 23009KT 9999 -DZ FEW007 FEW015TCU SCT025 BKN120 24/21 A2988 RMK CB RASH DST WNW NW BECMG=
200710071900 METAR MROC 071900Z 24011KT 9999 4000SW VCSH FEW005 FEW015TCU SCT025 BKN120 23/20 A2986 RMK LOW ST OVER APCH RNY 07 BECMG 5000 RA=
200710072000 METAR MROC 072000Z 26007KT 9999 4000SW VCSH BR SCT007 BKN015 22/19 A2985 BECMG 7000 -RA VCFG=
200710072100 METAR MROC 072100Z 20006KT 9999 4000SW BR FEW001 SCT008 BKN020 21/19 A2984 RMK TRACE AC CI BECMG=
200710072200 METAR MROC 072200Z 27007KT 9999 FEW008 SCT020 BKN120 22/18 A2985 RMK TRACE CI BECMG=
200710072300 METAR MROC 072300Z 30006KT 9999 FEW010 SCT020 BKN120 22/18 A2987 RMK BECMG=
200710080000 METAR MROC 080000Z 29004KT 9999 FEW008 SCT030 BKN120 21/18 A2990 RMK BECMG 7000 VCFG=
200710080100 METAR MROC 080100Z 26003KT 9999 FEW030 SCT120 21/19 A2992 BECMG=
200710080200 METAR MROC 080200Z 22004KT 9999 VCFG FEW002 SCT030 BKN120 20/18 A2992 RMK BECMG 6000 VCFG=
200710080300 METAR MROC 080300Z 20002KT 9999 VCFG FEW002 SCT010 BKN120 20/19 A2994 RMK VIS S 3KMS=
200710080400 METAR MROC 080400Z 00000KT 9999 VCFG FEW005 SCT015 BKN120 20/19 A2994 BECMG=
200710080500 METAR MROC 080500Z 00000KT 9999 FEW006 BKN120 20/19 A2994 BECMG=
200710080600 METAR MROC 080600Z 00000KT 9999 FEW035 BKN120 20/20 A2993 RMK TRAZAS ST BECMG=
200710080700 METAR MROC 080700Z 30002KT 9999 FEW035 SCT120 20/19 A2992 TRAZAS ST BECMG=
200710080800 METAR MROC 080800Z 00000KT 9999 FEW035 SCT120 20/18 A2989 BECMG=
200710080900 METAR MROC 080900Z 00000KT 9999 FEW035 SCT120 19/18 A2987 BECMG=
200710081000 METAR MROC 081000Z 03003KT 9999 FEW035 SCT120 20/18 A2987 BECMG=
200710081100 METAR MROC 081100Z 00000KT 9999 FEW035 SCT120 19/17 A2989 BECMG=
200710081200 METAR MROC 081200Z 28003KT CAVOK 24/22 A2987 RMK SCT130 SCT280 CB DST N NE HZ LGT ARND=
200710081300 METAR MROC 081300Z 09002KT 9999 FEW030 SCT100 BKN250 22/18 A2992 RMK BECMG=
200710081400 METAR MROC 081400Z 23005KT 9999 -DZ FEW030 BKN100 21/19 A2994 RMK BECMG=
200710081500 METAR MROC 081500Z 26005KT 3000 -DZ BR FEW001 SCT010 OVC100 20/19 A2997 BECMG=
200710081523 METAR MROC 081523Z 30004KT 5000 -DZ FEW002 SCT010 OVC100 20/19 A2997 BECMG=
200710081600 METAR MROC 081600Z 23002KT 4000 RA BR FEW001 SCT010 OVC100 20/19 A2997 BECMG=
200710081700 METAR MROC 081700Z 25004KT 7000 VCFG FEW005 SCT020 BKN100 22/19 A2995 BECMG=
200710081800 METAR MROC 081800Z 17003KT 9999 SCT025 BKN110 24/19 A2992 BECMG=
200710081900 METAR MROC 081900Z 27004KT 9999 3000SW -RA BR FEW001 SCT005 BKN110 21/19 A2990 RMK BECMG=
200710082000 METAR MROC 082000Z 27007KT 6000 VCFG FEW001 SCT005 BKN110 21/20 A2987 BECMG 3000 -RA BR=
200710082100 METAR MROC 082100Z 27008KT 9999 VCFG BKN008 SCT120 22/20 A2987 RMK VSBY NW N NE 7KM RN NE/E/W BECMG 6000 -RA=
200710082200 METAR MROC 082200Z 25006KT 9999 FEW012 BKN120 21/19 A2988 FEW025 RN W E BECMG=
200710082300 METAR MROC 082300Z 26006KT 9999 FEW012 BKN026 21/19 A2989 RN E BECMG=
200710090000 METAR MROC 090000Z 27005KT 9999 FEW015 BKN030 20/19 A2991 RN N BECMG=
200710090100 METAR MROC 090100Z 28005KT 9999 VCFG FEW002 SCT015 BKN030 20/19 A2993 RMK BECMG 5000 -RA BR=
200710090200 METAR MROC 090200Z 26007KT 6000 DZ VCFG FEW002 SCT015 BKN030 20/19 A2996 RMK BECMG 3000 -RA BR SCT001 SCT010=
200710090300 METAR MROC 090300Z 31004KT 6000 -DZ VCFG FEW003 SCT007 BKN030 20/19 A2998 VIS E ESE 9KMS BECMG=
200710090400 METAR MROC 090400Z 32003KT 9999 -DZ FEW005 SCT030 BKN100 20/18 A2998 BECMG 7000 -RA VCFG=
200710090500 METAR MROC 090500Z 25002KT 9999 -DZ VCFG FEW007 SCT030 BKN100 20/19 A2997 VIS S SSW SW 7KMS BECMG 4000 DZ BR=
200710090600 METAR MROC 090600Z 29004KT 9999 FEW010 SCT025 BKN100 20/19 A2996 BECMG 4000 DZ BR=
200710090700 METAR MROC 090700Z 30004KT 9999 DZ VCFG FEW010 SCT025 BKN100 20/18 A2994 RMK VIS S SW 6KMS BECMG 4000 DZ BR=
200710090800 METAR MROC 090800Z 32004KT 8000 3000SW DZ BR FEW003 SCT015 OVC100 19/19 A2992=
200710090900 METAR MROC 090900Z 00000KT 9999 -RA VCFG FEW007 SCT020 OVC100 20/19 A2992 RMK VIS S SW 7KMS=
200710091000 METAR MROC 091000Z 00000KT 9999 DZ SCT035 BKN100 20/19 A2992=
200710091100 METAR MROC 091100Z 00000KT 9999 -DZ VCFG FEW003 SCT035 OVC120 20/19 A2993 RMK VIS S SW 6KMS=
200710091200 METAR MROC 091200Z 26003KT 2500 DZ BR SCT003 SCT010 OVC100 20/19 A2995=
200710091300 METAR MROC 091300Z 31002KT 5000 -DZ BR SCT003 BKN010 20/19 A2998 BECMG 6000=
200710091400 METAR MROC 091400Z 29005KT 4000 RA BR SCT003 BKN010 20/19 A3000 BECMG 2000=
200710091500 METAR MROC 091500Z 29005KT 4000 DZ BR SCT003 BKN010 21/19 A3002 VSBY NE 6KM BECMG=
200710091600 METAR MROC 091600Z 26005KT 4000 RA BR SCT006 BKN012 21/20 A3002 RMK VSBY NE 6KM BECMG=
200710091700 METAR MROC 091700Z 26006KT 3000 RA BR SCT004 BKN010 20/20 A3000 BECMG=
200710091800 METAR MROC 091800Z 26003KT 3000 RA BR SCT003 BKN010 20/19 A2999 BECMG=
200710091900 METAR MROC 091900Z 29005KT 7000 RA VCFG FEW004 BKN100 20/19 A2996 RMK FEW012 VSBY S SW UNL VSBY N 5KM BECMG=
200710092000 METAR MROC 092000Z 25006KT 5000 RA BR SCT003 BKN010 21/20 A2994 RMK VSBY N NE 3KM BECMG=
200710092100 METAR MROC 092100Z 26004KT 6000 -DZ VCFG SCT006 SCT015 20/19 A2992 RMK SCT090 VIS SW 4KM DUE ST BECMG=
200710092200 METAR MROC 092200Z 23006KT 9999 VCFG FEW006 SCT020 21/20 A2993 REDZ RMK SCT100 VIS SW 7KM DUE ST BECMG=
200710092300 METAR MROC 092300Z 23004KT 8000 1000SW -DZBR FEW002 SCT006 20/19 A2994 RMK SCT015 BECMG=
200710100000 METAR MROC 100000Z 22005KT 9999 VCFG FEW006 SCT020 20/19 A2996 RMK SCT100 VIS SW/W 5KM DUE ST/RN BECMG=
200710100100 METAR MROC 100100Z 26004KT 9999 VCFG FEW004 SCT020 20/19 A2999 RMK SCT110 VIS SW/W 7KM DUE ST BECMG=
200710100200 METAR MROC 100200Z 28005KT 9999 VCFG FEW006 SCT025 20/19 A3000 RMK SCT110 VIS SW 8KM DUE ST BECMG=
200710100300 METAR MROC 100300Z 30004KT 9999 -RA VCFG FEW006 SCT025 OVC100 20/19 A3001 BECMG=
200710100400 METAR MROC 100400Z 30003KT 9999 3000SW -RA BR FEW002 SCT015 OVC100 20/19 A3001 BECMG=
200710100500 METAR MROC 100500Z 29004KT 9999 3000SW -RA BR FEW002 SCT015 OVC100 20/19 A3000 RMK BECMG=
200710100600 METAR MROC 100600Z 34003KT 9999 FEW005 SCT020 OVC100 20/19 A2998 BECMG=
200710100700 METAR MROC 100700Z 29003KT 9999 -RA FEW005 SCT020 OVC100 20/19 A2997 RMK BECMG=
200710100800 METAR MROC 100800Z 28004KT 9999 3000SW -DZ BR FEW001 SCT008 OVC100 19/19 A2995=
200710100900 METAR MROC NIL=
200710101000 METAR MROC 101000Z 28002KT 9999 3000SW -DZ BR FEW001 SCT008 BKN100 20/19 A2994=
200710101021 METAR MROC 101021Z 25010KT 9999 -DZ VCFG FEW005 SCT010 BKN025 22/20 A2992 RMK VIS E&SE 3KMS=
200710101100 METAR MROC 101100Z 31003KT 9999 VCFG FEW002 SCT010 OVC100 20/19 A2995=
200710101200 METAR MROC 101200Z 27002KT 2500 RA BR FEW001 SCT005 OVC100 20/19 A2998=
200710101300 METAR MROC 101300Z 31002KT 6000 -DZRA FEW003 SCT10 20/19 A3000 RMK SCT100 VIS 4KM DUE ST BECMG 7000=
200710101400 METAR MROC 101400Z 28004KT 8000 -DZRA BR FEW005 SCT015 20/19 A3002 RMK SCT100 VIS S 5KM DUE ST BECMG=
200710101500 METAR MROC 101500Z 28006KT 9999 -DZ VCFG FEW005 SCT025 21/20 A3004 RMK SCT100 VIS SW 7KM DUE ST BECMG=
200710101600 METAR MROC 101600Z 29004KT 9999 -DZRA VCFG FEW006 SCT025 22/20 A3003 RMK VIS SW 8KM DUE ST SCT100 BECMG=
200710101700 METAR MROC 101700Z 23006KT 9999 -DZ VCFG FEW012 SCT025 23/20 A3001 RMK SCT100 VIS SW8KM DUE ST BECMG=
200710101800 METAR MROC 101800Z 24007KT 2000 DZRA FEW007 BKN090 21/20 A2999 RMK SCT020 VIS SSE/SE 5KM BECMG 6000=
200710101900 METAR MROC 101900Z 26009KT 9999 -DZ VCFG SCT007 SCT020 21/20 A2996 RMK SCT100 VIS SW 6KM DUE ST BECMG=
200710102000 METAR MROC 102000Z 25009KT 9999 VCSH FEW008 BKN025 24/21 A2994 REDZ RMK VIS SSE/SW 7KM DUE RN FEW110 BECMG=
200710102100 METAR MROC 102100Z 25010KT 9999 -DZ VCFG FEW005 SCT010 BKN025 22/20 A2992 RMK VIS E/SE 3KMS=
200710102200 METAR MROC 102200Z 26006KT 3000 -RA BR FEW003 SCT010 BKN020 21/20 A2992 VIS NE/E UNL BECMG=
200710102300 METAR MROC 102300Z 22003KT 1500 RA BR FEW002 SCT006 BKN010 20/20 A2994 VIS N/NE/ E 0800 BECMG=
200710110000 METAR MROC 110000Z 25006KT 2000 RA BR SCT002 BKN010 20/20 A2994 BECMG=
200710110100 METAR MROC 110100Z 25007KT 2000 RA BR SCT002 BKN010 20/19 A2997 BECMG=
200710110200 METAR MROC 110200Z 29007KT 8000 RA VCFG FEW003 SCT010 BKN020 20/19 A3002 BECMG=
200710110300 METAR MROC 110300Z 33003KT 6000 RA FEW003 SCT008 BKN040 20/19 A3003 BECMG=
200710110400 METAR MROC 110400Z 01004KT 7000 RA SCT020 BKN040 20/19 A3004 BECMG=
200710110500 METAR MROC 110500Z 05004KT 9999 RA FEW030 BKN050 20/19 A3002 BECMG=
200710110600 METAR MROC 110600Z 00000KT 9999 RA FEW030 BKN050 19/18 A3001 BECMG=
200710110700 METAR MROC 110700Z 00000KT 9999 -RA FEW008 SCT040 BKN100 19/18 A2996=
200710110800 METAR MROC NIL=
200710110900 METAR MROC NIL=
200710111000 METAR MROC 111000Z 00000KT 9999 SCT035 SCT120 19/18 A2996=
200710111100 METAR MROC 111100Z VRB02KT 9999 FEW001 SCT020 BKN050 19/18 A2998 VSBY S SW 6KM=
200710111200 METAR MROC 111200Z VRB02KT 6000 DZ VCFG FEW001 BKN050 19/18 A2998 RMK VSBY NE E UNL VSBY S SW 4KM=
200710111300 METAR MROC 111300Z 00000KT 6000 -RA VCFG FEW005 SCT015 BKN100 19/19 A2999 RMK VIS SW/W/NW 3KMS BECMG 4000=
200710111400 METAR MROC 111400Z 28003KT 6000 -RA VCFG FEW004 SCT010 BKN025 20/19 A3001 RMK VIS SW/W 4KMS BECMG=
200710111500 METAR MROC 111500Z 33003KT 9999 -DZ VCFG FEW004 SCT010 BKN100 21/19 A3003 RMK VIS NW N 6KMS BECMG=
200710111600 METAR MROC 111600Z 27002KT 9999 -RA VCFG FEW006 SCT020 BKN100 22/20 A3003 RMK VIS SW/W 7KMS BECMG=
200710111700 METAR MROC 111700Z 29005KT 9999 FEW010 SCT025 BKN100 23/20 A3001 RERA BECMG=
200710111800 METAR MROC 111800Z 24009KT 9999 -RA FEW025 BKN100 22/20 A2999 RMK VIS=
200710111900 METAR MROC 111900Z 22008KT 9999 -RA FEW025 OVC100 21/19 A2998 RMK VIS SW/W/NW/N 4KMS DUE RASH BECMG 4000 -RA BR=
200710112000 METAR MROC 112000Z 31004KT 9999 -DZ FEW005 SCT025 BKN100 21/19 A2996 RMK VIS W/NW 7KMS DUE ST/RN BECMG=
200710112100 METAR MROC 112100Z 27004KT 9999 FEW004 SCT020 BKN070 22/19 A2994 RMK RN DST W BECMG=
200710112200 METAR MROC 112200Z 29005KT 9999 FEW004 SCT025 BKN070 23/19 A2993 RMK RASH DST W WNW RN NE BECMG -RA 8000 VCFG=
200710112300 METAR MROC 112300Z 27005KT 9999 VCSH FEW010 SCT030 BKN080 21/19 A2994 RMK VIS SW W NW 6KMS BECMG 7000 -RA=
200710120000 METAR MROC 120000Z 29005KT 9999 -RADZ FEW010 SCT025 BKN080 20/19 A2995 RMK VIS SW WSW 8KMS BECMG=
200710120100 METAR MROC 120100Z 30003KT 9999 DZ VCFG FEW004 SCT025 BKN100 20/19 A2997 RMK VIS 6KMS SW W BECMG=
200710120200 METAR MROC NIL=
200710120300 METAR MROC 120300Z 24004KT 7000 VCFG SCT004 SCT015 20/19 A3000 RMK SCT030 VIS SW 4KM DUE ST VIS E UNL BECMG 4000 BR=
200710120400 METAR MROC 120400Z 26004KT 4000 1000SW -DZ BR FEW002 BKN015 20/19 A3001 BECMG=
200710120500 METAR MROC 120500Z 32003KT 5000 2000SW DZBR FEW002 BKN015 20/19 A3000 BECMG=
200710120600 METAR MROC 120600Z 34002KT 9999 VCFG FEW003 SCT015 BKN030 20/19 A2999 REDZ RMK VIS SW/SSE 6KM DUE ST BECMG=
200710120700 METAR MROC 120700Z 28003KT 9999 -DZ VCFG FEW003 SCT015 BKN025 20/19 A2997 BECMG=
200710120800 METAR MROC 120800Z 28002KT 9999 1500SW DZ VCFG SCT002 BKN015 20/19 A2996 RMK VIS SSE/S 6KM DUE ST=
200710120900 METAR MROC 120900Z 29003KT 2000 0800SW DZ BR SCT002 BKN010 20/19 A2996 RMK VIS W 800MTRS DUE ST DZ=
200710121000 METAR MROC 121000Z 25003KT 0600 -DZFG VV/// 20/19 A2996=
200710121100 METAR MROC 121100Z 03003KT 8000 VCFG FEW003 BKN025 20/19 A2995 RMK VIS SW/W 6KM DUE ST FEW015=
200710121200 METAR MROC 121200Z 06003KT 9999 -DZBR FEW006 SCT025 20/19 A2996 RMK FEW250 VIS E/ESE 4KM DUE ST/RN=
200710121300 METAR MROC 121300Z 00000KT 8000 3000SW DZ BR FEW003 SCT015 BKN035 20/19 A2997 BECMG 4000 DZ BR=
200710121400 METAR MROC 121400Z VRB03KT 8000 -DZ VCFG FEW003 SCT010 BKN100 21/20 A3000 VIS SW W 4KMS DUE BR BECMG=
200710121500 METAR MROC 121500Z 00000KT 9999 -DZ VCFG FEW007 BKN015 22/20 A3001 RMK VIS WSW W 7KMS BECMG=
200710121600 METAR MROC 121600Z 25005KT 9999 FEW015 SCT025 BKN100 24/20 A3000 RMK PCPN DST NW CB DST N BECMG=
200710121700 METAR MROC 121700Z 25011KT 9999 FEW010 BKN025 23/21 A2997 RMK PCN DST S W BECMG=
200710121800 METAR MROC 121800Z 22007KT 9999 FEW017TCU SCT035 25/21 A2995 RMK PCPN DST SW SSE S DVLNG TCU ARND BECMG=
200710121900 METAR MROC 121900Z 23013KT 4000 1500SW RADZ BR FEW002 SCT015 BKN030 21/20 A2993 BECMG 2000 -RA BR=
200710122000 METAR MROC 122000Z 24010KT 2000 -RA BR SCT003 BKN010 21/20 A2993 BECMG=
200710122100 METAR MROC 122100Z 23010KT 3000 -RA BR FEW001 SCT005 BKN020 20/19 A2993 RMK BECMG 4000=
200710122200 METAR MROC 122200Z 24010KT 0500 -RA FG VV/// 20/19 A2994 RMK BECMG=
200710122300 METAR MROC 122300Z 23004KT 3000 -RA BR FEW001 SCT008 BKN015 20/19 A2995 BECMG=
200710130000 METAR MROC 130000Z 19002KT 5000 -DZ BR FEW001 SCT008 BKN020 19/19 A2996 BECMG=
200710130100 METAR MROC 130100Z 00000KT 5000 RA BR FEW001 SCT008 BKN020 20/19 A2999 BECMG=
200710130200 METAR MROC 130200Z 13003KT 8000 -RA SCT010 OVC100 20/19 A3002 BECMG RMK VIS E UNL=
200710130300 METAR MROC 130300Z 17003KT 2000 RA BR FEW002 SCT005 BKN015 19/19 A3003 BECMG=
200710130305 METAR MROC 130305Z 10003KT 4000 RA BR FEW004 SCT010 BKN020 19/19 A3003 BECMG=
200710130400 METAR MROC 130400Z 09002KT 9999 -RA FEW015 BKN100 19/19 A3003 BECMG=
200710130500 METAR MROC 130500Z 09004KT 9999 FEW035 SCT120 19/18 A3001 RERA BECMG=
200710130600 METAR MROC 130600Z 00000KT CAVOK 19/18 A2999 FEW120 BKN250 BECMG=
200710130700 METAR MROC 130700Z 03003KT CAVOK 18/18 A2997 FEW120 BKN250 BECMG=
200710130800 METAR MROC 130800Z 12003KT CAVOK 18/17 A2996 FEW120 SCT250 BECMG=
200710130900 METAR MROC 130900Z 04004KT CAVOK 18/17 A2995 FEW120 BKN250 BECMG=
200710131000 METAR MROC 131000Z 00000KT CAVOK 18/17 A2995 FEW120 SCT250 BECMG=
200710131100 METAR MROC 131100Z 00000KT CAVOK 18/17 A2995 FEW120 SCT250 BECMG=
200710131200 METAR MROC 131200Z 02003KT 9999 FEW030 BKN100 18/17 A2996 TRAZAS ST BAJOS BECMG=
200710131300 METAR MROC 131300Z VRB03KT 9999 FEW030 BKN100 20/18 A2998 RMK TRACE ST BECMG=
200710131400 METAR MROC 131400Z 11003KT 9999 FEW030 BKN100 23/18 A2999 BECMG=
200710131500 METAR MROC 131500Z 25002KT 9999 SCT030 SCT100 25/19 A3000 RMK BECMG 23006KT=
200710131600 METAR MROC 131600Z 24007KT 9999 SCT030 SCT110 25/19 A2999 RMK BECMG=
200710131700 METAR MROC 131700Z 24007KT 9999 BKN030 25/20 A2997 BECMG=
200710131800 METAR MROC 131800Z 24009KT 9999 BKN030 25/20 A2993 RMK BECMG=
200710131900 METAR MROC 131900Z 25013KT 9999 FEW015TCU BKN030 24/21 A2991 RMK RN NE E BECMG=
200710132000 METAR MROC 132000Z 06010KT 9999 4000SW -DZ BR FEW001 SCT008 BKN030 23/20 A2989 RMK BECMG 7000 RA=
200710132100 METAR MROC 132100Z 29003KT 5000 RA BR FEW006 SCT030 BKN100 20/19 A2988 BECMG=
200710132200 METAR MROC 132200Z 22009KT 2000 RA BR SCT002 BKN008 20/19 A2989 RMK VSBY N 1KM BECMG=
200710132300 METAR MROC 132300Z 27007KT 2000 RA BR FEW001 BKN003 20/19 A2991 BECMG 0500 FG=
200710140000 METAR MROC 140000Z 22004KT 4000 RA BR SCT001 BKN005 20/19 A2992 BECMG=
200710140100 METAR MROC 140100Z 20004KT 2000 -RA BR SCT001 BKN005 20/19 A2994 RMK BECMG 0500 VV///=
200710140200 METAR MROC 140200Z 10004KT 5000 -RA BR SCT005 BKN020 19/19 A2997 RMK BECMG 7000 RA=
200710140300 METAR MROC 140300Z 06003KT 6000 RA VCFG FEW003 SCT007 BKN020 19/19 A2999 RMK VIS SE S UNLTD BECMG 8000=
200710140400 METAR MROC 140400Z 07003KT 9999 DZ VCFG SCT025 BKN100 19/19 A2999 RMK VIS SSW SW 7KMS TRACE LOW ST BECMG=
200710140500 METAR MROC 140500Z 00000KT 9999 VCFG SCT030 BKN100 19/18 A2998 RMK VIS SSW SW 8KMS BECMG=
200710140600 METAR MROC 140600Z 00000KT 9999 VCFG FEW025 BKN120 19/19 A2995 RMK TRACE LOW ST S SW VIS 8KMS TO SSW BECMG=
200710140700 METAR MROC 140700Z 00000KT 9999 1500SW BR FEW001 SCT150 19/18 A2992 RMK FG BANK OVER APCH RNY 07 VIS SSE 3KM BECMG 0500 FG=
200710140800 METAR MROC 140800Z 00000KT 0200 FG VV/// 19/18 A2991=
200710140900 METAR MROC 140900Z 07002KT 3000 BR FEW030 SCT150 BKN250 18/18 A2991 RMK VIS N UNLTD SCT FG BANKS SE S SW=
200710141000 METAR MROC 141000Z 03004KT 9999 FEW012 SCT030 BKN250 18/18 A2991 RMK TRACE ST AC=
200710141100 METAR MROC 141100Z 13002KT 9999 FEW010 SCT120 BKN250 18/18 A2992 RMK HZY=
200710141200 METAR MROC 141200Z 04003KT 9999 FEW030 SCT120 BKN250 18/17 A2994 RMK TRACE ST TO S QUAD HZY=
200710141300 METAR MROC 141300Z 10003KT 9999 FEW012 BKN250 19/18 A2996 BECMG=
200710141400 METAR MROC 141400Z 10004KT CAVOK 21/19 A2997 TRAZAS SCT BKN250 CB DST S BECMG=
200710141500 METAR MROC 141500Z 24003KT 9999 FEW025 SCT250 24/18 A2996 BECMG=
200710141600 METAR MROC 141600Z 29003KT 9999 FEW025 SCT250 26/19 A2995 BECMG=
200710141700 METAR MROC 141700Z 24010KT 9999 SCT025 SCT250 25/20 A2993 BECMG=
200710141800 METAR MROC 141800Z 24010KT 9999 VCSH SCT012TCU SCT025 25/21 A2991 VSBY NE 6KM DUE RASH BECMG=
200710141900 METAR MROC 141900Z 22007KT 9999 4000NE TSRA SCT012CB SCT025 24/21 A2989 RMK VSBY NW N 6KM TSTM NW NE BECMG 5000 TSRA=
200710142000 METAR MROC 142000Z 30004KT 6000 VCSH SCT008 SCT025 21/20 A2987 RERA VSBY NE UNL RASN E BECMG=
200710142100 METAR MROC 142100Z 23008KT 3000 BR SCT003 BKN008 22/20 A2986 BECMG=
200710142200 METAR MROC 142200Z 24008KT 3000 BR SCT002 BKN010 22/21 A2987 BECMG=
200710142300 METAR MROC 142300Z 29004KT 0200 FG VV/// 20/20 A2988 BECMG 2000 BR=
200710150000 METAR MROC 150000Z 19003KT 1000 RA BR SCT002 BKN015 20/20 A2989 BECMG 3000 BR=
200710150100 METAR MROC 150100Z 20004KT 0500 FG OVC002 20/19 A2991 BECMG 2000 BR=
200710150200 METAR MROC 150200Z 19003KT 2000 RA BR SCT002 BKN020 20/20 A2995 BECMG 6000 RA=
200710150300 METAR MROC 150300Z 00000KT 2000 BR FEW001 SCT003 BKN020 20/20 A2995 RMK BECMG 4000=
200710150600 METAR MROC 150600Z 24002KT 9999 FEW008 SCT025 BKN100 20/19 A2993 RMK TRACE ST BECMG=
200710150700 METAR MROC 150700Z 30003KT 9999 FEW008 SCT025 BKN100 20/19 A2990 RMK TRACE ST BECMG=
200710150800 METAR MROC 150800Z 03002KT 9999 FEW010 SCT030 BKN100 20/19 A2989=
200710150900 METAR MROC 150900Z 10002KT 9999 SCT030 SCT100 19/18 A2988=
200710151000 METAR MROC 151000Z 08003KT 9999 SCT030 SCT100 19/18 A2988=
200710151100 METAR MROC 151100Z 04006KT 9999 FEW030 SCT110 18/17 A2988=
200710151200 METAR MROC 151200Z 05005KT 9999 FEW010 BKN110 18/17 A2990 RMK FEW250=
200710151300 METAR MROC 151300Z 00000KT 9999 FEW006 BKN100 20/18 A2993 RMK 8000SW=
200710151400 METAR MROC 151400Z 00000KT 9999 FEW010 SCT120 BKN250 23/19 A2994 BECMG=
200710151500 METAR MROC 151500Z 22003KT 9999 FEW015 BKN250 22/19 A2996 RMK 8000SW DUE ST BECMG 7000 VCFG=
200710151600 METAR MROC 151600Z 28005KT 9999 VCFG FEW008 SCT100 BKN220 23/20 A2995 RMK 7000 SW NE BECMG=
200710151700 METAR MROC 151700Z 27002KT 9999 SCT025 BKN250 26/20 A2991 BECMG=
200710151800 METAR MROC 151800Z 23010KT 9999 SCT025 BKN250 25/21 A2989 BECMG=
200710151900 METAR MROC 151900Z 21005KT 9999 VCFG FEW010 SCT025 SCT250 23/21 A2987 RMK 7000SW NNE BECMG 7000 DZ VCFG=
200710152000 METAR MROC 152000Z 22010KT 8000 3000N VCSH BR SCT006 BKN020 22/20 A2986 BECMG -RA BR=
200710152100 METAR MROC 152100Z 22009KT 8000 -RA VCFG FEW005 SCT015 BKN025 22/20 A2985 RMK VIS NW/N 2KMS BECMG=
200710152200 METAR MROC 152200Z 22007KT 1600 -RA BR FEW001 SCT004 BKN010 21/20 A2985 BECMG=
200710152300 METAR MROC 152300Z 19003KT 6000 VCFG FEW003 SCT010 BKN025 20/19 A2987 RMK VIS NW/N/NE 2KMS BECMG 3000 RA=
200710160000 METAR MROC 160000Z 21003KT 0800 -RA FG SCT001 BKN003 20/20 A2989 BECMG=
200710160100 METAR MROC 160100Z 00000KT 4000 -RA BR FEW001 SCT003 BKN010 21/20 A2991 RMK VIS SW/W 2KMS BECMG 6000 RA VCFG=
200710160200 METAR MROC 160200Z 00000KT 9999 -RA FEW010 SCT025 BKN100 21/20 A2995 RMK VIS SW/W 8KMS=
200710160300 METAR MROC 160300Z 24003KT 3000 1000SW RA BR SCT001 SCT005 21/20 A2997 BECMG=
200710160330 METAR MROC 160330Z 29002KT 4000 BR FEW001 SCT005 BKN020 20/20 A2996 BECMG=
200710160400 METAR MROC 160400Z 30003KT 5000 BR FEW002 SCT025 BKN120 20/20 A2995 RMK VSBY E UNL BECMG 7000 VCFG=
200710160500 METAR MROC 160500Z 00000KT 0500 FG VV/// 20/20 A2994 BECMG 1500 BR=
200710160600 METAR MROC 160600Z 22002KT 1500 BR SCT002 SCT005 20/19 A2994 BECMG=
200710160700 METAR MROC 160700Z 25005KT 0100 FG VV/// 20/19 A2993=
200710160800 METAR MROC 160800Z 27002KT 2000N FG BR SCT001 BKN008 19/19 A2997 BECMG 2000 BR=
200710160900 METAR MROC 160900Z 00000KT 4000 BR SCT002 SCT008 20/18 A2990=
200710161000 METAR MROC NIL=
200710161100 METAR MROC 161100Z 03004KT 9999 FEW020 SCT250 19/18 A2991=
200710161200 METAR MROC 161200Z 20002KT 9999 2000S BR FEW001 SCT100 BKN260 19/18 A2993 VSBY SW W 4KM=
200710161300 METAR MROC 161300Z 27002KT 0800 2000N FG BR SCT001 BKN008 19/19 A2997 BECMG 2000 BR=
200710161400 METAR MROC 161400Z 34002KT 6000 VCFG FEW003 SCT015 BKN100 20/19 A2998 RMK VIS SW/W/NW 4KMS BECMG=
200710161500 METAR MROC 161500Z 18003KT 9999 FEW025 BKN100 23/20 A2998 RMK VIS SW/W/NW 8KMS HZ LGT ARND BECMG=
200710161600 METAR MROC 161600Z 00000KT 9999 FEW030 SCT120 BKN250 25/19 A2997 RMK VIS E 4KMS DUE HZ BECMG 23006KT=
200710161700 METAR MROC 161700Z 28002KT 9999 FEW030 OVC250 25/18 A2995 VIS E 8KMS HZ ARND BECMG=
200710161800 METAR MROC 161800Z 22008KT 9999 SCT030 BKN250 24/20 A2993 TCU/RN NW/N VIS 6KMS HZ ARND BECMG0=
200710161900 METAR MROC 161900Z 24008KT 9999 FEW010 SCT025 BKN250 24/20 A2991 RMK HZ LGT ARND BECMG 6000 VCSH=
200710162000 METAR MROC 162000Z 23011KT 9999 FEW006 SCT025 BKN250 22/20 A2989 RMK RN DST S/SW BECMG=
200710162100 METAR MROC 162100Z 24009KT 3000 -RA BR SCT002 BKN005 20/20 A2989 VIS SW 2KMS BECMG 1500 BR=
200710162200 METAR MROC 162200Z 24008KT 2000 -RA BR SCT002 BKN004 20/19 A2989 RMK FG OVER APCH RNY 07 BECMG 1000 -RA BR=
200710162300 METAR MROC 162300Z 26006KT 2000 DZ BR SCT003 BKN006 20/19 A2991 RMK CONDICIONES VRBLS BECMG 0800 FG=
200710170000 METAR MROC 170000Z 26004KT 8000 3000SW -RA BR FEW003 SCT007 BKN025 20/19 A2993 RMK LOW ST NEAR APCH RNY 07 CONDCNS VRBLS BECMG=
200710170100 METAR MROC 170100Z 23006KT 2500 -RADZ BR SCT003 BKN007 20/19 A2995 RMK VIS NNE NE 4KMS VRB CONDTNS BECMG=
200710170200 METAR MROC 170200Z 25007KT 2500 -RADZ BR SCT003 BKN007 19/19 A2997 BECMG=
200710170300 METAR MROC 170300Z 31003KT 4000 DZ BR SCT005 BKN012 20/19 A2999 RERA BECMG=
200710170400 METAR MROC 170400Z 26004KT 7000 VCFG SCT008 BKN015 20/19 A2999 BECMG=
200710170500 METAR MROC 170500Z 27003KT 9999 VCFG FEW005 BKN015 20/19 A2999 RMK 6000SW BECMG=
200710170600 METAR MROC 170600Z 29002KT 9999 4000SW DZ BR SCT004 BKN010 20/19 A2998 BECMG 5000 -RA BR=
200710170700 METAR MROC 170700Z 31003KT 9999 FEW008 BKN025 20/19 A2996 BECMG 5000 BR=
200710170800 METAR MROC 170800Z 16002KT 9999 2500SW BR FEW002 SCT008 BKN025 19/19 A2994=
200710170900 METAR MROC 170900Z 00000KT 5000 2000SW BR FEW003 SCT006 BKN020 19/19 A2995=
200710171000 METAR MROC 171000Z 02002KT 8000 3000SW RA BR SCT005 BKN020 19/19 A2995=
200710171100 METAR MROC 171100Z 01002KT 9999 -RA FEW005 BKN020 19/18 A2996 RMK VIS 5000SW BR=
200710171200 METAR MROC 171200Z 05002KT 9999 FEW005 BKN025 20/19 A2996 RMK VIS 8000 NE SE VCSH=
200710171300 METAR MROC 171300Z 00000KT 9999 FEW020 SCT040 BKN100 20/19 A3001 BECMG=
200710171400 METAR MROC 171400Z 00000KT 9999 FEW010 SCT025 BKN110 22/19 A3002 RMK LOW ST TO S SW BECMG 7000 -RA=
200710171500 METAR MROC 171500Z 20002KT 9999 FEW015 SCT025 BKN120 23/19 A3004 RMK HZ LGT ARND BECMG=
200710171600 METAR MROC 171600Z 28005KT 9999 FEW015 BKN025 24/19 A3002 BECMG=
200710171700 METAR MROC 171700Z 21003KT 9999 FEW015 SCT025 BKN120 24/19 A3000 RMK HZ LGT ARND BECMG=
200710171800 METAR MROC 171800Z 21003KT 9999 DZ FEW015 SCT025 BKN120 24/19 A2999 BECMG=
200710171900 METAR MROC 171900Z 24008KT 9999 FEW015TCU SCT025 BKN120 24/20 A2995 PCPN DST N SSW BECMG 7000 VCSH=
200710172000 METAR MROC 172000Z 24009KT 9999 -RA VCSH FEW015TCU BKN030 22/20 A2993 RMK VIS SSW SW 4KMS BECMG 4000 SHRA=
200710172100 METAR MROC 172100Z 25008KT 7000 VCFG FEW001 SCT015TCU BKN030 21/20 A2991 BECMG -RA=
200710172200 METAR MROC 172200Z 23006KT 5000 -DZ BR FEW001 FEW015TCU BKN030 21/20 A2993 RMK BECMG -RA=
200710172300 METAR MROC 172300Z 23004KT 7000 3000N BR FEW001 SCT005 BKN020 21/20 A2985 RMK BECMG 4000 -DZRA BR=
200710180000 METAR MROC 180000Z 26004KT 7000 2000SW BR FEW001 SCT008 BKN020 21/20 A2996 BECMG -RA=
200710180100 METAR MROC 180100Z 23005KT 5000 2000SW -RA BR FEW001 SCT008 BKN020 20/19 A2998 BECMG=
200710180200 METAR MROC 180200Z 23005KT 5000 2000SW -DZ BR FEW001 SCT005 BKN015 20/19 A3001 BECMG=
200710180300 METAR MROC 180300Z 24006KT 9999 3000NE BR FEW001 SCT003 BKN015 20/19 A3003 BECMG=
200710180400 METAR MROC 180400Z 31003KT 9999 FEW003 SCT010 BKN120 20/19 A3003 BECMG=
200710180500 METAR MROC 180500Z 28003KT 9999 FEW003 SCT015 BKN100 20/19 A3003 BECMG=
200710180600 METAR MROC 180600Z 00000KT 9999 FEW005 SCT025 BKN100 20/19 A3000 BECMG=
200710180700 METAR MROC 180700Z 00000KT 9999 SCT025 BKN250 19/19 A2996 RMK TRAZAS ST BAJOS BECMG=
200710180800 METAR MROC 180800Z 07002KT CAVOK 18/18 A2994 RMK SCT250 BECMG=
200710180900 METAR MROC 180900Z 00000KT CAVOK 19/18 A2994 BECMG SCT250=
200710181000 METAR MROC 181000Z 00000KT CAVOK 18/18 A2994 BECMG SCT250=
200710181100 METAR MROC 181100Z 00000KT CAVOK 19/18 A2996 BECMG BKN120=
200710181200 METAR MROC 181200Z 04006KT CAVOK 19/18 A2997 RMK TRASAS ST BKN100 BECMG=
200710181300 METAR MROC 181300Z 20002KT CAVOK 20/19 A3000 RMK TRACE ST SC BKN120 BECMG 24006KT=
200710181400 METAR MROC 181400Z 00000KT 9999 FEW020 BKN120 21/19 A3002 RMK TCU DST SW BECMG 24006KT=
200710181500 METAR MROC 181500Z 15002KT 9999 FEW020 SCT120 BKN250 24/19 A3004 RMK BECMG=
200710181600 METAR MROC 181600Z 23004KT 9999 SCT020 BKN120 25/19 A3002 RMK FEW250 BECMG=
200710181700 METAR MROC 181700Z 24008KT 9999 FEW015 SCT030 BKN100 23/20 A3000 RMK BECMG 7000 VCSH=
200710181800 METAR MROC 181800Z 24010KT 9999 FEW015 SCT030 BKN100 22/21 A2999 RMK BECMG 7000 VCSH=
200710181900 METAR MROC 181900Z 24011KT 3000 1000SW RA BR SCT001 BKN008 21/20 A2997 BECMG 2000 -RA BR=
200710182000 METAR MROC 182000Z 26008KT 6000 -DZ VCFG FEW001 SCT008 BKN020 21/20 A2994 BECMG=
200710182100 METAR MROC 182100Z 23005KT 6000 -RA VCFG SCT005 SCT010 21/20 A2993 BECMG=
200710182200 METAR MROC 182200Z 28004KT 9999 VCFG FEW005 BKN100 21/19 A2994 RMK VSBY W N 6KM BECMG=
200710182300 METAR MROC 182300Z 00000KT 9999 FEW006 SCT080 BKN240 21/20 A2994 BECMG=
200710190000 METAR MROC 190000Z 00000KT 9999 VCFG FEW006 SCT080 BKN080 BKN240 21/19 A2996 VSBY N 6KM BECMG=
200710190100 METAR MROC 190100Z 24002KT 9999 FEW010 BKN240 21/19 A2999 BECMG=
200710190200 METAR MROC 190200Z 00000KT 6000 VCFG FEW004 BKN015 21/19 A3001 VSBY SE E UNL BECMG=
200710190300 METAR MROC 190300Z 24004KT 2000 BR FEW001 SCT003 BKN015 20/19 A3002 BECMG 3000 -RA BR=
200710190400 METAR MROC 190400Z 24002KT 0800 -RA FG SCT001 BKN003 20/19 A3003 BECMG 2000=
200710190500 METAR MROC 190500Z 25003KT 2000 BR FEW001 SCT003 BKN010 20/19 A3002 RERA BECMG 4000=
200710190600 METAR MROC 190600Z 02004KT 9999 VCFG FEW003 SCT010 BKN150 20/19 A2997 VIS S SSW SW 7KMS BECMG=
200710190700 METAR MROC 190700Z 24004KT 1500 DZ BR SCT002 BKN007 20/19 A2996 RMK COND VRBLS BECMG=
200710190800 METAR MROC 190800Z 25003KT 0500 FG BKN001 20/19 A2994=
200710190900 METAR MROC 190900Z 27002KT 0700 FG VV/// 20/19 A2994=
200710191000 METAR MROC 191000Z 00000KT 4000 BR SCT003 BKN010 20/19 A2996 RMK VIS SE SSE 8KMS=
200710191100 METAR MROC 191100Z 00000KT 9999 VCFG FEW005 SCT017 BKN100 20/19 A2997 RMK VIS S SSW 8KMS=
200710191200 METAR MROC 191200Z 00000KT 7000 VCFG FEW004 SCT020 BKN100 20/19 A2999 RMK VIS NE ENE SE UNLTD=
200710191300 METAR MROC 191300Z 26002KT 5000 BR BKN005 SCT030 20/19 A3002 RMK VSBY NW 4KM NE 7KM BECMG=
200710191400 METAR MROC 191400Z 23002KT 7000 VCFG SCT008 BKN100 22/20 A3003 BECMG=
200710191500 METAR MROC 191500Z 24006KT 9999 SCT015 BKN100 22/20 A3003 BECMG=
200710191600 METAR MROC 191600Z 22003KT 9999 BKN015 SCT100 23/20 A3003 BECMG=
200710191700 METAR MROC 191700Z 25005KT 9999 BKN015 SCT100 24/19 A3001 BECMG=
200710191800 METAR MROC 191800Z 24009KT 9999 SCT020 BKN100 24/19 A2997 BECMG=
200710191900 METAR MROC 191900Z 24009KT 9999 FEW012 SCT020 BKN250 25/21 A2995 BECMG=
200710192000 METAR MROC 192000Z 23011KT 9999 FEW012 SCT030 BKN250 23/20 A2992 RN N BECMG=
200710192100 METAR MROC 192100Z 23012KT 9999 VCSH SCT008 BKN025 21/20 A2992 RMK 7000 NE SW BECMG 6000 -RA BR=
200710192200 METAR MROC 192200Z 26010KT 4000 -RA BR FEW002 SCT010 BKN020 20/19 A2993 BECMG 2000 -RA BR=
200710192300 METAR MROC 192300Z 22011KT 2000 -RA BR SCT002 BKN010 20/19 A2995 BECMG=
200710200000 METAR MROC 200000Z 22008KT 5000 RA BR FEW004 SCT012 BKN020 19/18 A2998 BECMG 7000 -RA VCFG=
200710200100 METAR MROC 200100Z 00000KT 5000 RA SCT020 BKN030 19/18 A3000 BECMG=
200710200200 METAR MROC 200200Z 11003KT 7000 -RA VCFG FEW002 SCT020 BKN030 19/18 A3003 RMK BECMG 9999=
200710200300 METAR MROC 200300Z 08003KT 9999 DZ SCT020 BKN100 19/18 A3003 RMK BECMG 7000=
200710200400 METAR MROC 200400Z 07002KT 9999 -RA SCT020 BKN100 19/18 A3005 RMK BECMG=
200710200500 METAR MROC 200500Z 07003KT 9999 -RA FEW030 BKN100 19/18 A3003 RMK BECMG=
200710200600 METAR MROC 200600Z 06003KT 9999 -DZ FEW030 BKN100 18/18 A3001 RMK BECMG=
200710200700 METAR MROC NIL=
200710200800 METAR MROC 200800Z 26003KT 6000 1000SW -RA BR FEW001 SCT005 BKN100 19/18 A2998=
200710200900 METAR MROC 200900Z 22002KT 3000 RA BR FEW001 SCT003 BKN110 19/18 A2998=
200710201000 METAR MROC 201000Z 26002KT 5000 -RA BR FEW001 SCT008 BKN100 18/18 A2999=
200710201100 METAR MROC 201100Z VRB03KT 9999 FEW030 BKN100 19/18 A2999=
200710201200 METAR MROC 201200Z 02004KT 9999 FEW030 BKN100 19/18 A3001 RMK FEW250=
200710201300 METAR MROC 201300Z 09002KT 9999 FEW020 SCT120 SCT250 20/19 A3002=
200710201400 METAR MROC 201400Z 00000KT 9999 SCT025 SCT120 23/19 A3003 BECMG 23006KT=
200710201500 METAR MROC 201500Z 25006KT 9999 SCT020 BKN100 23/19 A3004 BECMG=
200710201600 METAR MROC 201600Z 26006KT 9999 FEW020TCU SCT025 BKN120 24/19 A3003 RMK TCU DST NNE BECMG=
200710201700 METAR MROC 201700Z 25007KT 9999 FEW015TCU SCT025 SCT120 25/19 A3000 BECMG=
200710201800 METAR MROC 201800Z 23009KT 9999 SCT025 BKN120 25/18 A2997 BECMG=
200710201900 METAR MROC 201900Z 24011KT 9999 SCT025 BKN120 25/20 A2994 BECMG=
200710202000 METAR MROC 202000Z 24014KT 9999 FEW015CB SCT025 BKN120 24/20 A2992 BECMG 7000 TS VCSH=
200710202100 METAR MROC 202100Z 24012KT 9999 FEW025 SCT030 BKN100 22/19 A2992 RMK RN DST E/SE BECMG 5000 -RA=
200710202200 METAR MROC 202200Z 24008KT 9999 -RA VCFG FEW005 SCT010 BKN025 20/19 A2994 RMK VIS NW/N/NE 4KMS BECMG 4000 -RA BR=
200710202300 METAR MROC 202300Z 22004KT 2000 -RA BR FEW001 SCT005 BKN015 20/19 A2996 RMK VIS SW/W 1KMS BECMG O500 FG BKN001=
200710210000 METAR MROC 210000Z 13005KT 9999 SCT035 BKN100 24/17 A2984 RMK RN DST NE E=
200710210100 METAR MROC 210100Z 35003KT 7000 -RA VCFG FEW005 SCT020 BKN035 19/19 A3001 RMK BECMG 9999=
200710210200 METAR MROC 210200Z 03004KT 9999 -RA FEW030 BKN120 19/18 A3002 BECMG=
200710210300 METAR MROC 210300Z 10002KT 9999 RA OVC100 19/18 A3003 BECMG=
200710210400 METAR MROC 210400Z 00000KT 9999 RA OVC100 19/18 A3003 BECMG=
200710210500 METAR MROC 210500Z 35002KT 9999 4000S RA BR FEW001 OVC100 19/18 A3003 BECMG=
200710210600 METAR MROC 210600Z 06002KT 9999 RA OVC100 19/18 A3002 LW ST S BECMG=
200710210700 METAR MROC 210700Z 08002KT 9999 -RA OVC100 19/18 A2999 LW ST S BECMG=
200710210800 METAR MROC 210800Z 00000KT 9999 -RA OVC100 19/18 A3000 LW ST S=
200710210900 METAR MROC 210900Z 30002KT 9999 -RA FEW030 OVC100 19/18 A2999 ST S=
200710211000 METAR MROC 211000Z 00000KT 3000 BR SCT001 OVC100 18/18 A2998=
200710211100 METAR MROC 211100Z 00000KT 0200 FG VV/// 19/18 A2998=
200710211200 METAR MROC 211200Z 00000KT 0100 FG VV/// 19/18 A3000 BECMG 2000 BR=
200710211300 METAR MROC 211300Z 06003KT 9999 FEW003 SCT100 BKN250 19/18 A3002 BECMG=
200710211400 METAR MROC 211400Z 00000KT CAVOK 22/19 A3003 RMK BKN120 TRAZAS ST BAJOS=
200710211500 METAR MROC 211500Z 00000KT CAVOK 25/19 A3005 RMK TRAZAS SC BKN120 BECMG=
200710211600 METAR MROC 211600Z 23006KT 9999 FEW035 SCT120 BKN250 25/20 A3004 BECMG=
200710211700 METAR MROC 211700Z 24011KT 9999 SCT030 BKN120 24/19 A3001 RMK TCU DST N/NE=
200710211800 METAR MROC 211800Z 25010KT 9999 SCT025 BKN100 25/20 A2998 RMK TCU DST N/NE BECMG=
200710211900 METAR MROC 211900Z 25008KT 9999 SCT025TCU BKN100 24/19 A2995 RMK RN DST N/NE/E BECMG 6000 VCSH=
200710212000 METAR MROC 212000Z 26007KT 8000 -TSRA FEW010CB SCT025 BKN100 22/20 A2996 RKM VIS NW/N 5KMS=
200710212100 METAR MROC 212100Z 22005KT 5000 -RA BR SCT004 BKN010 21/20 A2995 RETS BECMG=
200710212200 METAR MROC 212200Z 22006KT 1200 -RA BR SCT001 BKN004 20/19 A2996 BECMG 1000=
200710212300 METAR MROC 212300Z 24005KT 3000 -RADZ BR SCT003 BKN007 20/19 A2998 RMK VIS SSE 7KMS BECMG 1000 -RA BR=
200710220000 METAR MROC 220000Z 00000KT 4000 BR SCT004 SCT020 BKN100 19/19 A2999 RMK VIS SE UNL BECMG 2000 BR=
200710220100 METAR MROC 220100Z 00000KT 7000 VCFG FEW003 SCT020 BKN120 20/19 A3001 RMK VIS SW WNW 4KMS VIS E SE UNLTD BECMG=
200710220200 METAR MROC 220200Z 28003KT 8000 VCFG SCT004 SCT020 BKN120 20/19 A3003 RMK VIS SW W NW 4KMS VIS E SE UNLTD BECMG=
200710220300 METAR MROC 220300Z 14002KT 5000 1200SW BR FEW002 BKN005 19/19 A3004 BECMG 1000 BR=
200710220400 METAR MROC 220400Z 02003KT 9999 VCFG FEW006 SCT120 19/18 A3004 RMK VIS 7000SW BECMG=
200710220500 METAR MROC 220500Z 01004KT CAVOK 19/18 A3001 RMK SCT250 BECMG=
200710220600 METAR MROC 220600Z 05007KT CAVOK 18/17 A2998 RMK SCT250 BECMG=
200710220700 METAR MROC 220700Z 09008KT CAVOK 18/16 A2995 RMK SCT250=
200710220800 METAR MROC 220800Z 04008KT CAVOK 19/16 A2993 RMK SCT250=
200710220900 METAR MROC NIL=
200710221000 METAR MROC 221000Z 05006KT CAVOK 19/16 A2993 RMK TRACE SC SCT250=
200710221100 METAR MROC 221100Z 07010KT CAVOK 20/16 A2995 RMK SCT250=
200710221200 METAR MROC 221200Z 04009KT CAVOK 20/16 A2996 RMK SCT250 TRACE SC AC=
200710221300 METAR MROC 221300Z 07004KT CAVOK 22/17 A2999 RMK TRACE SC AC SCT250 BECMG=
200710221400 METAR MROC 221400Z 09005KT CAVOK 24/17 A3000 TRACE SCT AC SCT250 BECMG=
200710221500 METAR MROC 221500Z 24010KT 9999 FEW040 SCT250 23/18 A3001 BECMG=
200710221600 METAR MROC 221600Z 24007KT 9999 SCT035 SCT250 24/19 A3002 BECMG=
200710221700 METAR MROC 221700Z 24008KT 9999 SCT035 SCT250 23/20 A2999 BECMG=
200710221800 METAR MROC 221800Z 24007KT 9999 FEW017TCU SCT030 25/20 A2997 RMK PCPN DST ESE BECMG=
200710221900 METAR MROC 221900Z 21006KT 9999 FEW015TCU BKN025 25/20 A2998 PCPN E NE DST BECMG 7000 -RA VCSH=
200710222000 METAR MROC 222000Z 10015KT 9999 VCSH FEW015CB SCT045 BKN250 22/16 A2991 RERA RMK RFGS 22KT CB RASH VIS 5KMS TO W WNW BECMG=
200710222100 METAR MROC 222100Z 30004KT 9999 FEW010TCU SCT100 BKN250 23/16 A2991 RMK BECMG=
200710222200 METAR MROC 222200Z 22005KT 9999 FEW010 SCT100 BKN250 21/20 A2991 RMK BECMG=
200710222300 METAR MROC 222300Z 22005KT 9999 FEW010 SCT120 BKN250 21/18 A2992 RMK BECMG=
200710230000 METAR MROC 230000Z 11002KT 9999 FEW020 SCT120 19/18 A2995 BECMG=
200710230100 METAR MROC 230100Z 08003KT CAVOK 20/18 A2997 RMK SCT120=
200710230200 METAR MROC 230200Z 36004KT CAVOK 20/17 A2998 RMK TRACE AC SCT250=
200710230300 METAR MROC 230300Z 08004KT CAVOK 20/16 A2998 TRAZAS AC SCT250 BECMG0=
200710230400 METAR MROC 230400Z 07005KT CAVOK 19/16 A2999 RMK TRAZAS SC/SC SCT250=
200710230500 METAR MROC 230500Z 00000KT CAVOK 18/15 A2999 TRAZAS SCT SCT250 BECMG=
200710230600 METAR MROC 230600Z 07003KT CAVOK 17/15 A2997 RMK TRAZAS SC/AC SCT250 BECMG=
200710230700 METAR MROC 230700Z 09003KT CAVOK 17/15 A2996 TRAZAS SCT SCT250 BECMG=
200710230800 METAR MROC 230800Z 06009KT CAVOK 16/14 A2995 RKM TRAZAS SCT SCT250 BECMG=
200710230900 METAR MROC 230900Z 10004KT CAVOK 16/14 A2995 RMK TRAZAS SC SCT250 BECMG=
200710231000 METAR MROC 231000Z 05007KT CAVOK 17/14 A2995 TRAZAS SC SCT250 BECMG=
200710231100 METAR MROC 231100Z 05010KT CAVOK 17/14 A2996 RMK TRAZAS SC SCT250 BECMG=
200710231200 METAR MROC 231200Z 09004KT CAVOK 17/14 A2996 RMK TRAZAS SC/AC SCT250 CB DST S/SW BECMG=
200710231300 METAR MROC 231300Z 13003KT CAVOK 21/16 A2998 RMK TRACE CI FEW140 BECMG 24006=
200710231400 METAR MROC 231400Z 15003KT CAVOK 24/16 A3000 RMK TRACE CI BECMG=
200710231500 METAR MROC 231500Z 24004KT CAVOK 24/16 A3000 RMK TRACE SC CU CI BECMG=
200710231600 METAR MROC 231600Z 25007KT 9999 FEW040 25/17 A3000 RMK BECMG=
200710231700 METAR MROC 231700Z 22006KT 9999 FEW040 26/18 A2998 RMK BECMG=
200710231800 METAR MROC 231800Z 22009KT 9999 SCT035 26/19 A2994 RMK BECMG=
200710231900 METAR MROC 231900Z 25012KT 9999 SCT035 26/19 A2991 RMK BECMG=
200710232000 METAR MROC 232000Z 22010KT 9999 FEW015TCU SCT035 26/20 A2988 RMK BECMG 7000 VCSH=
200710232100 METAR MROC 232100Z 23009KT 9999 FEW012TCU BKN020 25/20 A2987 RMK TCU/RN DST SW BECMG=
200710232200 METAR MROC 232200Z 21006KT 9999 FEW010TCU SCT020 23/19 A2988 TCU RN SW BECMG=
200710232300 METAR MROC 232300Z 23007KT 9999 FEW004 SCT020 21/20 A2990 VSBY NW 5KM LW ST TCU NE S SW BECMG=
200710240000 METAR MROC 240000Z 28004KT 9999 SCT012 BKN080 21/19 A2993 BECMG=
200710240100 METAR MROC 240100Z 29003KT 9999 FEW006 BKN020 21/19 A2996 BECMG=
200710240200 METAR MROC 240200Z 31002KT 9999 SCT020 SCT100 21/19 A3000 BECMG=
200710240300 METAR MROC 240300Z 00000KT 9999 FEW012 SCT030 BKN120 21/19 A3001 BECMG=
200710240400 METAR MROC 240400Z 00000KT 9999 FEW014 SCT035 BKN120 21/19 A3002 BECMG=
200710240500 METAR MROC 240500Z 00000KT 9999 FEW040 BKN070 20/19 A3000 BECMG=
200710240600 METAR MROC 240600Z 00000KT 9999 FEW010 SCT100 BKN220 20/19 A2997 BECMG 6000 VCFG=
200710240700 METAR MROC 240700Z 00000KT 9999 FEW030 BKN100 20/19 A2994 BECMG=
200710240800 METAR MROC 240800Z 00000KT 9999 FEW030 BKN100 19/18 A2993=
200710240900 METAR MROC 240900Z 00000KT 9999 FEW010 BKN025 19/17 A2994 RMK HZY=
200710241000 METAR MROC 241000Z 00000KT 9999 FEW010 BKN025 20/18 A2994=
200710241100 METAR MROC 241100Z 00000KT 9999 FEW035 BKN100 19/17 A2995=
200710241200 METAR MROC 241200Z 04004KT 9999 FEW025 SCT120 BKN250 19/17 A2996 RMK HZY=
200710241300 METAR MROC 241300Z 03004KT CAVOK 21/17 A2999 TRAZAS SCT FEW100 HZY BECMG=
200710241400 METAR MROC 241400Z 12002KT 9999 FEW020 24/18 A2999 HZY BECMG=
200710241500 METAR MROC 241500Z 26003KT 9999 FEW020 25/18 A2999 BECMG=
200710241600 METAR MROC 241600Z 27004KT 9999 SCT020 26/19 A2998 BECMG=
200710241700 METAR MROC 241700Z 22008KT 9999 FEW020 26/17 A2996 BECMG=
200710241800 METAR MROC 241800Z 24009KT 9999 SCT025 26/18 A2994 BECMG=
200710241900 METAR MROC 241900Z 22009KT 9999 BKN025 SCT250 25/20 A2991 RMK TCU E BECMG 7000 VCSH=
200710242000 METAR MROC 242000Z 25011KT 9999 SCT020 BKN250 24/20 A2989 BECMG=
200710242100 METAR MROC 242100Z 25010KT 9999 -DZ VCSH SCT012CB SCT020 22/21 A2987 RMK VIS 5000NE 7000SW FEW250 BECMG -TSRA=
200710242200 METAR MROC 242200Z 26009KT 9999 4000SW -DZ BR FEW002 SCT012 BKN020 22/19 A2990 BECMG 2000 -RA BR=
200710242300 METAR MROC 242300Z 24008KT 7000 VCFG SCT004 SCT012 SCT090 20/19 A2993 BECMG=
200710250000 METAR MROC 250000Z 23003KT 9999 VCFG FEW004 SCT012 20/19 A2994 RMK VIS 7000SW FEW250 BECMG=
200710250100 METAR MROC 250100Z 32002KT 9999 -DZ FEW008 SCT020 20/19 A2997 RMK FEW250 BECMG=
200710250200 METAR MROC 250200Z 30003KT 9999 -DZ SCT012 SCT020 21/19 A2999 BECMG=
200710250300 METAR MROC 250300Z 00000KT 9999 FEW020 SCT120 BKN250 20/19 RMK A2999 BECMG=
200710250400 METAR MROC 250400Z 00000KT 9999 FEW020 SCT120 BKN250 20/19 A2999 BECMG=
200710250500 METAR MROC 250500Z 24002KT 9999 SCT020 SCT120 20/19 A2998 BECMG=
200710250600 METAR MROC 250600Z 00000KT 9999 SCT020 SCT120 20/19 A2996 BECMG=
200710250700 METAR MROC 250700Z 00000KT 7000 VCFG FEW001 SCT020 SCT120 20/19 A2993 BECMG=
200710250800 METAR MROC 250800Z 00000KT 7000 VCFG FEW001 SCT020 SCT120 19/19 A2992=
200710250900 METAR MROC 250900Z 00000KT 9999 FEW003 SCT120 18/17 A2992=
200710251000 METAR MROC 251000Z 08003KT 9999 FEW003 SCT120 18/17 A2992=
200710251100 METAR MROC 251100Z 07002KT 9999 FEW010 SCT120 18/16 A2992=
200710251200 METAR MROC 251200Z 00000KT 8000 3000SW BR FEW001 SCT008 BKN120 18/17 A2996 RMK VIS NW N NE UNL=
200710251300 METAR MROC 251300Z 00000KT 9999 4000SW BR FEW003 SCT012 BKN120 21/17 A2998 BECMG=
200710251400 METAR MROC 251400Z 22002KT 9999 4000SE BR FEW002 SCT020 BKN120 21/18 A3000 RMK VIS 7000 E BECMG=
200710251500 METAR MROC 251500Z 23003KT 9999 SCT025 BKN120 22/19 A3001 BECMG=
200710251600 METAR MROC 251600Z 21005KT 9999 SCT025 BKN250 23/19 A3000 RMK FEW120=
200710251700 METAR MROC 251700Z 25003KT 9999 SCT015TCU SCT025 26/19 A2997 RMK FEW250 BECMG=
200710251800 METAR MROC 251800Z 23007KT 9999 SCT025 BKN120 24/19 A2994 BECMG=
200710251900 METAR MROC 251900Z 21009KT 9999 SCT025 SCT120 25/20 A2991 RMK FEW250 BECMG=
200710252000 METAR MROC 252000Z 23011KT 9999 SCT025 24/20 A2988 RMK FEW250 BECMG=
200710252100 METAR MROC 252100Z 25011KT 9999 FEW015CB SCT025 BKN100 24/19 A2988 RMK VIS S 6KMS DUE RN BECMG 6000 -TSRA=
200710252200 METAR MROC 252200Z 25007KT 9999 -RA FEW002 SCT015 BKN100 23/20 A2988 RMK VIS S 6KMS BECMG=
200710252300 METAR MROC 252300Z 21002KT 4000 RA BR FEW002 SCT010 BKN020 21/20 A2990 RMK VIS NE/E/SE 2KMS BECMG 6000 -RA=
200710260000 METAR MROC 260000Z 23005KT 8000 -RA VCFG FEW003 SCT010 BKN020 20/20 A2993 BECMG=
200710260100 METAR MROC 260100Z 24003KT 8000 VCFG FEW002 SCT006 BKN015 20/19 A2996 RMK VIS NE/E 2KMS=
200710260200 METAR MROC 260200Z 00000KT 3000 1200SW BR SCT002 BKN010 20/19 A2998 BECMG=
200710260300 METAR MROC 260300Z 00000KT 5000 -DZ BR FEW002 SCT005 BKN015 20/19 A2997 RMK VSBY NE 3KM BECMG=
200710260400 METAR MROC 260400Z 00000KT 7000 VCFG FEW003 SCT015 BKN120 20/19 A2996 RMK VSBY SE S SW UNL=
200710260500 METAR MROC 260500Z 07004KT 9999 FEW025 SCT250 19/18 A2996 BECMG=
200710260600 METAR MROC NIL=
200710260700 METAR MROC 260700Z 07005KT CAVOK 20/16 A2993 TRAZAS SCT BKN120=
200710260800 METAR MROC 260800Z 04006KT CAVOK 20/16 A2990 TRAZAS SCT BKN100=
200710260900 METAR MROC 260900Z 08004KT CAVOK 20/17 A2990 TRAZAS SC BKN120 LOW ST S=
200710261000 METAR MROC 261000Z 26004KT 0100 FG VV/// 19/18 A2991=
200710261100 METAR MROC 261100Z 00000KT 2000 BR SCT001 SCT120 19/18 A2994=
200710261200 METAR MROC 261200Z 36006KT 9999 FEW001 19/18 A2995 VSBY SW 5KM LOW ST BECMG=
200710261300 METAR MROC 261300Z 06002KT 9999 SCT003 22/17 A2997 CB/TCU DST S/SW TRAZAS SCT=
200710261400 METAR MROC 261400Z 16002KT CAVOK 24/18 A2998 CB DST S/SW TRAZAS SC/CI BECMG=
200710261500 METAR MROC 261500Z 10007KT 9999 SCT030 BKN250 25/18 A2998 BECMG=
200710261600 METAR MROC 261600Z 24008KT 9999 SCT035 BKN100 24/19 A2998 RMK TRAZAS CI BECMG=
200710261700 METAR MROC 261700Z 24008KT 9999 SCT030 BKN100 25/20 A2996 RMK TCU DST=
200710261800 METAR MROC 261800Z 26008KT 9999 SCT030 BKN100 25/20 A2994 RMK CB/RN DST S TCU DST NW/N BECMG=
200710261900 METAR MROC 261900Z 13003KT 9999 SCT030 BKN100 24/17 A2992 RMK CB/RASH DST W/NW TRAZAS CI BECMG=
200710262000 METAR MROC 262000Z 08008KT 9999 FEW035 SCT120 BKN250 25/16 A2989 BECMG=
200710262100 METAR MROC 262100Z 10008KT 9999 FEW030 SCT050 BKN120 24/17 A2988 BECMG=
200710262200 METAR MROC 262200Z 10009KT 9999 FEW030 SCT060 BKN100 23/16 A2990 BECMG=
200710262300 METAR MROC 262300Z 10012KT 9999 FEW030 BKN060 22/16 A2991 BECMG=
200710270000 METAR MROC 270000Z 10012KT 9999 FEW030 SCT060 BKN120 22/15 A2993 BECMG=
200710270100 METAR MROC 270100Z 11008KT CAVOK 21/15 A2995 BECMG=
200710270200 METAR MROC 270200Z 10011KT CAVOK 21/15 A2996 BECMG=
200710270300 METAR MROC 270300Z 10009KT CAVOK 21/15 A2997 RMK TRACE SC SCT250 TS DST SSW=
200710270400 METAR MROC 270400Z 09005KT CAVOK 21/15 A2998 RMK TRACE SC BKN250 TS DST SSW BECMG=
200710270500 METAR MROC 270500Z 03006KT CAVOK 21/15 A2996 RMK TRACE SC BKN250 BECMG=
200710270600 METAR MROC 270600Z 06008KT CAVOK 20/15 A2995 RMK SCT250 TRACE SC BECMG=
200710270700 METAR MROC 270700Z 08007KT CAVOK 20/15 A2992 RMK BKN250=
200710270800 METAR MROC 270800Z 04006KT CAVOK 19/15 A2991 RMK BKN250=
200710270900 METAR MROC 270900Z 04006KT CAVOK 18/14 A2992 RMK CB DST SW BKN250=
200710271000 METAR MROC NIL=
200710271100 METAR MROC 271100Z 05007KT CAVOK 18/14 A2993 RMK TRACE SC SCT120 BKN250=
200710271200 METAR MROC 271200Z 03005KT CAVOK 19/15 A2993 RMK TRACE SC BKN250=
200710271300 METAR MROC 271300Z 08004KT CAVOK 23/16 A2994 RMK TRACE SC BKN250 CB DST W=
200710271400 METAR MROC 271400Z 11007KT 9999 FEW030 BKN250 25/17 A2996 BECMG=
200710271500 METAR MROC 271500Z 10009KT 9999 FEW030 BKN250 25/17 A2997 BECMG=
200710271600 METAR MROC 271600Z VRB03KT 9999 FEW030 SCT050 BKN250 27/16 A2996 BECMG 24007KT=
200710271700 METAR MROC 271700Z 09008KT 9999 FEW030 SCT050 BKN250 27/16 A2993 BECMG 23007KT=
200710271800 METAR MROC 271800Z 06005KT 9999 FEW045 SCT060 27/16 A2992 RMK FEW250 BECMG=
200710271900 METAR MROC 271900Z 23010KT 9999 FEW040 SCT050 24/20 A2990 RMK TCU DST S SSW NE BECMG=
200710272000 METAR MROC 272000Z 24008KT 9999 FEW025 BKN070 24/21 A2988 RMK TCU DST ARND BECMG=
200710272100 METAR MROC 272100Z 20005KT 9999 FEW025 BKN070 24/20 A2987 BECMG=
200710272200 METAR MROC 272200Z 24007KT 9999 FEW015TCU SCT030 BKN100 24/20 A2988 BECMG RMK RN SE=
200710272300 METAR MROC 272300Z 08008KT 6000 RA FEW002 SCT015 BKN100 20/18 A2990 BECMG=
200710280000 METAR MROC 280000Z 00000KT 9999 FEW040 BKN100 20/18 A2991 RERA BECMG CB LTNG DST SW W=
200710280100 METAR MROC 280100Z 06002KT 9999 FEW040 BKN100 21/17 A2994 BECMG=
200710280200 METAR MROC 280200Z 00000KT 9999 -DZ FEW040 OVC100 20/18 A2996 BECMG=
200710280300 METAR MROC 280300Z 00000KT 9999 -DZ FEW035 BKN120 20/18 A2997 RMK LTNG DST S BECMG=
200710280400 METAR MROC 280400Z 01002KT 9999 FEW040 BKN100 20/19 A2997 RMK REDZ BECMG=
200710280500 METAR MROC 280500Z 00000KT 9999 FEW040 BKN100 20/18 A2996 BECMG=
200710280600 METAR MROC 280600Z 00000KT 9999 FEW040 BKN100 20/18 A2995 BECMG=
200710280700 METAR MROC 280700Z 08003KT CAVOK 20/17 A2992 RMK TRAZAS SC BKN100 BECMG=
200710280800 METAR MROC 280800Z 00000KT CAVOK 20/17 A2991 TRAZAS SCT BKN100 BECMG=
200710280900 METAR MROC 280900Z 33003KT CAVOK 20/18 A2991 RMK TRAZAS SC BKN100 BECMG=
200710281000 METAR MROC 281000Z 06002KT CAVOK 20/19 A2990 TRAZAS SC BKN100 BECMG=
200710281100 METAR MROC 281100Z 06005KT 9999 SCT035 BKN100 20/17 A2991 BECMG=
200710281200 METAR MROC 281200Z 15002KT 9999 SCT035 BKN250 20/16 A2993 RMK TRASAS AC BECMG0=
200710281300 METAR MROC 281300Z 10003KT 9999 FEW035 BKN120 23/18 A2994 BECMG=
200710281400 METAR MROC 281400Z 11013KT 9999 FEW035 SCT120 23/17 A2996 BECMG=
200710281500 METAR MROC 281500Z 09009KT 9999 SCT035 26/18 A2997 BECMG=
200710281600 METAR MROC 281600Z 12013KT 9999 SCT035 25/17 A2996 BECMG=
200710281700 METAR MROC 281700Z 10014KT 9999 SCT035 26/18 A2993 BECMG 23007=
200710281800 METAR MROC 281800Z 10010KT 9999 FEW015TCU SCT030 27/17 A2990 BECMG 23007KT TRACE CI AC=
200710282213 METAR MROC 282213Z 23006KT 7000 3000N -RA BR SCT008 FEW012TCU BKN030 22/20 A2988 VSBY SE S UNL BECMG=
200710282300 METAR MROC 282300Z 09004KT 9999 -RA SCT012TCU SCT030 21/18 A2989 RMK VSBY E NW N 6KM BECMG=
200710290000 METAR MROC 290000Z 07003KT 9999 RA FEW020 BKN040 19/19 A2991 BECMG=
200710290100 METAR MROC 290100Z 00000KT 9999 SCT020 SCT035 20/19 A2992 BECMG=
200710290200 METAR MROC 290200Z 01002KT 9999 FEW040 SCT300 20/19 A2995 BECMG=
200710290300 METAR MROC 290300Z 00000KT 9999 FEW030 BKN070 19/18 A2996 RMK LTNG DST S SSW BECMG=
200710290400 METAR MROC 290400Z 06005KT CAVOK 19/18 A2997 RMK TRACE SC FEW070 SCT250=
200710290700 METAR MROC 290700Z 00000KT CAVOK 17/16 A2992 RMK TRACE SC SCT270 BECMG=
200710290800 METAR MROC 290800Z 01006KT CAVOK 18/17 A2991 RMK TRACE SC SCT270=
200710290900 METAR MROC 290900Z 10003KT CAVOK 17/16 A2990 RMK TRACE ST SC SCT300=
200710291000 METAR MROC 291000Z 03005KT CAVOK 17/16 A2990 RMK TRACE SC SCT300=
200710291100 METAR MROC 291100Z 02006KT CAVOK 18/16 A2992 RMK TRACE SC AC SCT300=
200710291200 METAR MROC 291200Z 06005KT 9999 FEW030 BKN250 17/16 A2995 RMK TRACE AC=
200710291300 METAR MROC 291300Z 10003KT 9999 FEW040 SCT280 21/17 A2997 BECMG=
200710291400 METAR MROC 291400Z 00000KT 9999 FEW030 BKN080 23/17 A2999 BECMG BECMG 24005KT=
200710291500 METAR MROC 291500Z 29006KT 9999 SCT030 BKN080 23/18 A3000 BECMG=
200710291600 METAR MROC 291600Z 30004KT 9999 FEW030 BKN080 24/18 A2998 BECMG=
200710291700 METAR MROC 291700Z 29006KT 9999 FEW020 BKN080 24/18 A2997 RN N/NE CB W BECMG -RA=
200710291800 METAR MROC 291800Z 27005KT 9999 SCT035 SCT100 BKN250 24/19 A2994 RN N BECMG=
200710291900 METAR MROC 291900Z 22006KT 9999 SCT030 SCT120 25/20 A2991 BECMG=
200710292000 METAR MROC 292000Z 24008KT 9999 SCT030 BKN120 24/19 A2988 BECMG=
200710292100 METAR MROC 292100Z 23008KT 9999 SCT025 BKN120 24/20 A2987 BECMG=
200710292200 METAR MROC 292200Z 24009KT 9999 SCT030 BKN120 22/20 A2989 RMK HZ SW BECMG=
200710292300 METAR MROC 292300Z 24006KT 5000 BR SCT005 BKN015 21/20 A2991 RMK BECMG 3000 BR=
200710300000 METAR MROC 300000Z 26005KT 9999 VCFG SCT007 BKN015 21/19 A2992 RMK VIS 7000SW BECMG DZ BR=
200710300100 METAR MROC 300100Z 24004KT 7000 2000SW BR SCT002 BKN008 21/20 A2994 BECMG 1500 BR=
200710300200 METAR MROC 300200Z 24003KT 4000 1500SW -RA BR SCT002 BKN006 21/20 A2996 BECMG 3000 BR=
200710300300 METAR MROC 300300Z 26003KT 4000 0800SW BRFG SCT002 BKN010 20/20 A2997 BECMG=
200710300400 METAR MROC 300400Z 00000KT 4000 1000SW BR SCT002 BKN010 20/20 A2997 BECMG=
200710300500 METAR MROC 300500Z 00000KT 4000 1000SW BR SCT002 BKN010 20/19 A2996 BECMG 5000=
200710300600 METAR MROC 300600Z 00000KT 3000 BR FEW001 BKN010 20/19 A2994 BECMG 5000=
200710300700 METAR MROC 300700Z 06002KT 5000 1000SW BR FEW001 BKN010 19/19 A2993=
200710300800 METAR MROC NIL=
200710300900 METAR MROC 300900Z 04003KT 8000 1000SW BR FEW001 SCT005 BKN250 19/18 A2991=
200710301000 METAR MROC 301000Z 10003KT 8000 1000SW BR FEW001 SCT005 BKN250 19/18 A2992=
200710301100 METAR MROC 301100Z 05003KT 9999 FEW035 SCT250 18/17 A2993=
200710301200 METAR MROC 301200Z 06002KT 9999 VCFG FEW005 SCT250 18/16 A2995=
200710301300 METAR MROC 301300Z 05002KT 9999 VCFG FEW003 BKN250 22/17 A2997 RMK 7000SW BECMG 24006KT=
200710301400 METAR MROC 301400Z 27004KT 9999 BKN250 24/19 A2998 RMK VIS 7000SW HZ TRACE SC BECMG=
200710301500 METAR MROC 301500Z 22006KT 9999 4800SW HZ FEW030 BKN250 23/19 A3000 BECMG=
200710301600 METAR MROC 301600Z 24008KT 9999 FEW030 BKN250 23/19 A2999 RMK HZ ARND VIS 8000 SW BECMG=
200710301700 METAR MROC 301700Z 23009KT 9999 SCT030 BKN250 25/20 A2996 RMK HZ ARND BECMG=
200710301800 METAR MROC 301800Z 23010KT 9999 SCT025 BKN250 24/20 A2994 RMK HZ ARND BECMG=
200710301900 METAR MROC 301900Z 22008KT 9999 SCT025 BKN250 25/20 A2991 RMK HZ LEVE ARND=
200710302000 METAR MROC 302000Z 25010KT 9999 SCT022TCU BKN140 24/20 A2989 HZ ARND RN DIST NE TRACE CI BECMG 5000 VCSH=
200710302100 METAR MROC 302100Z 23011KT 9999 FEW015 SCT025 BKN100 23/20 A2989 RMK VIS NW/N/NE 5KMS DUE RN BECMG 8000 -RA=
200710302200 METAR MROC 302200Z 24005KT 6000 -TSRA FEW007 SCT015CB BKN025 21/19 A2991 RMK VIS=
200710302300 METAR MROC 302300Z 23002KT 5000 RA BR FEW003 SCT006 BKN020 21/20 A2992 RMK VIS NW/N 3KMS BECMG=
200710310000 METAR MROC 310000Z 10003KT 8000 -DZ FEW005 SCT010 BKN100 21/20 A2992 BECMG=
200710310100 METAR MROC 310100Z 21002KT 8000 -RA FEW005 SCT015 BKN100 20/20 A2996 RMK VIS SW/W 3KMS BECMG=
200710310200 METAR MROC 310200Z 24002KT 6000 VCFG FEW002 SCT006 BKN010 21/20 A2998 RMK VIS SW/W 3KMS BECMG=
200710310300 METAR MROC 310300Z 24004KT 4000 BR SCT002 SCT008 20/20 A2998 BECMG=
200710310400 METAR MROC 210400Z 25005KT 4000 -DZ BR SCT003 SCT008 20/19 A2998 BECMG=
200710310500 METAR MROC 310500Z 23004KT 3000 0800SW BR FG SCT001 BKN006 20/19 A2998 RMK VIS N 6KM BECMG 1000 BR BKN002=
200710310600 METAR MROC 310600Z 21002KT 3000 0800SW BR FG SCT001 BKN004 20/19 A2996 RMK VIS N 6KM BECMG 1000 BR BKN001=
200710310700 METAR MROC 310700Z 23003KT 2400 BR BKN003 20/19 A2995=
200710310800 METAR MROC NIL=
200710310900 METAR MROC 310900Z 25002KT 2000 BR SCT003 BKN008 20/19 A2993=
200710311000 METAR MROC 311000Z 25003KT 2800 BR SCT003 BKN008 20/19 A2993=
200710311100 METAR MROC 311100Z 26002KT 5000 DZ BR FEW003 SCT010 BKN120 19/19 A2995=
200710311200 METAR MROC 311200Z 30002KT 4000 -DZ BR FEW005 SCT010 BKN120 19/18 A2996=
200710311300 METAR MROC 311300Z 00000KT 6000 VCFG FEW005 SCT010 BKN025 20/19 A2997 RMK VIS SW/ W 5KMS BECMG=
200710311400 METAR MROC 311400Z 00000KT 6000 VCFG FEW005 SCT010 BKN025 21/19 A2999 RMK VIS SW/ W 5KMS BECMG 9999=
200710311500 METAR MROC 311500Z 24004KT 8000 VCFG FEW015 SCT025 BKN250 22/19 A3001 RMK VIS SW/W 6KMS=
200710311600 METAR MROC 311600Z 24008KT 9999 SCT030 BKN250 23/19 A3000 RMK TCU DST=
200710311700 METAR MROC 311700Z 25008KT 9999 SCT030 BKN250 24/19 A2997 RMK TCU DST=
200710311800 METAR MROC 311800Z 25009KT 9999 SCT030 BKN250 25/20 A2993 RMK TCU DST N/NE RN DST E HZY BECMG=
200710311900 METAR MROC 311900Z 24014KT 9999 SCT025 BKN250 25/20 A2990 RMK TCU DST N/NE RN DST E BECMG=
200710312000 METAR MROC 312000Z 26008KT 2000 RA BR FEW005 SCT010 BKN020 21/20 A2989 BECMG=
200710312100 METAR MROC 312100Z 20005KT 2000 RA BR SCT003 SCT010 BKN020 20/19 A2988 BECMG 5000=
200710312200 METAR MROC 312200Z 22008KT 1200 -RA BR SCT002 BKN010 20/19 A2989 RMK FOG OVER APCH RNY07 BECMG 0500 -RA FG=
200710312300 METAR MROC 312300Z 21006KT 0400 -RA FG BKN002 SCT010 20/19 A2992 BECMG=
200711010000 METAR MROC 010000Z 22005KT 2500 -RA BR FEW001 SCT006 BKN100 20/19 A2993 BECMG 5000 -RA BR=
200711010100 METAR MROC 010100Z 21005KT 2500 DZ BR FEW001 SCT005 BKN020 19/19 A2995 BECMG 0800 FG BKN001=
200711010200 METAR MROC 010200Z 22003KT 1200 BR SCT002 BKN005 19/19 A2998 RMK BECMG 4000 -RA BR=
200711010300 METAR MROC 010300Z 20002KT 2000 0800SW DZ FG SCT002 BKN005 19/19 A2999 BECMG 3000 RA BR=
200711010400 METAR MROC 010400Z 00000KT 2000 -DZ BR SCT003 BKN007 20/19 A2999=
200711010500 METAR MROC 010500Z 24003KT 9999 4000SW BR FEW003 BKN015 20/19 A2998=
200711010600 METAR MROC 010600Z 28003KT 7000 3000SW DZ BR SCT003 BKN008 20/19 A2996=
200711010700 METAR MROC 010700Z 24003KT 5000 2000SW DZ BR SCT002 BKN006 20/19 A2993=
200711010800 METAR MROC 010800Z 24004KT 2000 DZ BR SCT002 BKN005 19/19 A2992=
200711010900 METAR MROC 010900Z 23005KT 2000 RA BR SCT002 BKN005 19/19 A2991=
200711011000 METAR MROC 011000Z 24006KT 0100 VV/// 19/19 A2992=
200711011100 METAR MROC 011100Z 26004KT 2000 DZ BR SCT002 BKN005 19/19 A2993=
200711011200 METAR MROC 011200Z 25005KT 1500 BR SCT001 BKN004 19/19 A2995=
200711011300 METAR MROC 011300Z 00000KT 5000 BR FEW005 SCT017 BKN100 20/19 A2997 BECMG 7000=
200711011400 METAR MROC 011400Z 00000KT 9999 FEW010 BKN070 21/19 A2998 RMK LGT HZ ARND BECMG=
200711011500 METAR MROC 011500Z 00000KT 9999 FEW015TCU SCT025 BKN070 23/20 A2999 RMK LGT HZ ARND BECMG=
200711011600 METAR MROC 011600Z 25006KT 9999 FEW017TCU SCT025 BKN100 24/20 A2999 RMK LGT HZ ARND BECMG=
200711011700 METAR MROC 011700Z 22007KT 9999 FEW017TCU SCT025 BKN100 25/20 A2996 LGT HZ ARND=
200711011800 METAR MROC 011800Z 23009KT 9999 FEW018TCU SCT025 BKN120 25/19 A2993 RMK RASH DST E BECMG=
200711011900 METAR MROC 011900Z 24010KT 9999 FEW015TCU SCT025 BKN120 24/19 A2991 RMK RN DST N NE E BECMG 7000 VCSH=
200711012000 METAR MROC 012000Z 32006KT 9999 -RA FEW015TCU SCT025 BKN120 24/20 A2989 BECMG 5000 VCSH=
200711012100 METAR MROC 012100Z 04004KT 5000 RA FEW015TCU SCT025 BKN120 20/19 A2989 BECMG 7000 -RA VCFG=
200711012200 METAR MROC 012200Z 20004KT 8000 2000SW -RA BR FEW001 SCT025 BKN100 20/19 A2990 BECMG 4000 -RA BR=
200711012300 METAR MROC 012300Z 00000KT 8000 2000SW BR FEW001 SCT008 BKN100 20/19 A2992 BECMG RMK VIS N 4000MTS=
200711020000 METAR MROC 020000Z 23003KT 3000 1000SW -RA BR FEW001 SCT005 BKN100 20/19 A2993 BECMG 0500=
200711020100 METAR MROC 020100Z 32002KT 8000 2000SW RA BR FEW001 SCT008 OVC100 20/19 A2996 BECMG=
200711020200 METAR MROC 020200Z 26002KT 6000 DZ VCFG FEW002 SCT010 BKN030 20/19 A2997 RMK BECMG 2000 BR SCT001 BKN010=
200711020300 METAR MROC 020300Z 27003KT 6000 VCFG FEW003 SCT005 BKN010 20/19 A2999 RNK VIS NE UNL BECMG=
200711020400 METAR MROC 020400Z 28002KT 4000 BR FEW003 SCT010 BKN020 20/19 A2999 BECMG=
200711020500 METAR MROC 020500Z 22002KT 3000 -DZ BR FEW001 SCT003 BKN010 20/19 A2999 RMK CONDICIONES VARIABLES BECMG=
200711020600 METAR MROC 020600Z 00000KT 4000 -DZ BR FEW001 SCT003 BKN010 20/19 A2998 RMK CONDICIONES VARIABLES BECMG=
200711020700 METAR MROC 020700Z 22003KT 8000 VCFG FEW003 SCT015 BKN100 20/19 A2995 RMK VIS SW/W 4KMS REDZ BECMG=
200711020800 METAR MROC 020800Z 00000KT 8000 VCFG FEW002 SCT005 BKN010 20/19 A2994 RMK VIS SW/W 5KMS=
200711020900 METAR MROC 020900Z 22002KT 8000 VCFG FEW003 SCT010 BKN020 20/19 A2993 RMK VIS SW/ W 4KMS BECMG=
200711021000 METAR MROC 021000Z 28002KT 9999 FEW003 SCT010 BKN020 19/19 A2994 RMK VIS SW/W 4KMS BECMG0=
200711021100 METAR MROC 021100Z 00000KT 9999 FEW003 SCT015 BKN025 19/19 A2995 RMK VIS SW/W 3KMS BECMG=
200711021200 METAR MROC 021200Z 00000KT 2000 BR FEW001 SCT003 BKN010 19/19 A2998 RMK VIS NE/E 8KMS=
200711021300 METAR MROC 021300Z 00000KT 5000 BR FEW002 SCT008 BKN020 19/19 A3000 BECMG 3000=
200711021400 METAR MROC 021400Z 24002KT 8000 VCFG FEW003 SCT020 21/18 A3001 BECMG 9999=
200711021500 METAR MROC 021500Z 00000KT 9999 FEW015TCU SCT025 24/20 A3002 BECMG VRB03KT=
200711021600 METAR MROC 021600Z 23006KT 9999 SCT025 25/19 A3000 BECMG=
200711021700 METAR MROC 021700Z 23004KT 9999 SCT025 26/19 A2998 BECMG=
200711021800 METAR MROC 021800Z 24010KT 9999 SCT025 25/20 A2994 BECMG=
200711021900 METAR MROC 021900Z 25010KT 9999 SCT020 26/21 A2991 BECMG=
200711022000 METAR MROC 022000Z 25012KT 9999 FEW020 SCT035 26/20 A2989 BECMG 7000=
200711022100 METAR MROC 022100Z 23009KT 9999 SCT015CB BKN025TCU 23/20 A2989 BECMG 7000 SHRA=
200711022200 METAR MROC 022200Z 23006KT 7000 VCFG FEW002 SCT006 BKN020 22/20 A2991 BECMG 5000 RA=
200711022300 METAR MROC 022300Z 23006KT 8000 -DZ VCFG FEW001 SCT015 BKN025 21/19 A2993 BECMG=
200711022357 METAR MROC 030000Z 25005KT 1500 RA BR SCT002 BKN006 20/19 A2996 BECMG 3000=
200711030000 METAR MROC 030000Z 25005KT 1500 RA BR SCT002 BKN006 20/19 A2996 BECMG 3000=
200711030100 METAR MROC 030100Z 24004KT 5000 -RA SCT001 SCT004 BKN015 20/19 A2999 RMK VIS SW 3KM  BECMG 2500 BR=
200711030200 METAR MROC 030200Z 22002KT 4000 -RA BR SCT001 SCT003 BKN020 20/19 A3001 RMK=
200711030300 METAR MROC 030300Z 00000KT 4000 -DZ BR FEW001 SCT003 BKN020 20/19 A3002 RMK VIS SSW SW 2500MTS BECMG=
200711030400 METAR MROC 030400Z 26002KT 6000 VCFG FEW001 SCT005 BKN020 20/19 A3002 VIS SW 4KMS DUE BR BECMG=
200711030500 METAR MROC 030500Z 25002KT 3000 BR SCT002 BKN020 20/19 A3002 RMK VIS 2KMS SW BECMG 5000 -RA=
200711030600 METAR MROC 030600Z 30002KT 1500 BR FEW002 SCT004 BKN020 20/19 A3000 BECMG 3000 -RA BR=
200711030700 METAR MROC 030700Z 04003KT 5000 BR FEW004 SCT010 BKN025 20/19 A2996 RMK VIS SE UNLTD BECMG 8000=
200711030800 METAR MROC 030800Z 20003KT 0300 FG VV/// 20/19 A2995 RMK CONDICIONES VARIABLES=
200711030900 METAR MROC 030900Z 00000KT 2500 BR SCT004 BKN010 20/19 A2995=
200711031000 METAR MROC 031000Z 28003KT 2000 BR SCT002 BKN008 20/19 A2995 RMK VIS SE SSE 1KM=
200711031100 METAR MROC 031100Z 25003KT 2700 BR SCT002 SCT008 BKN035 20/19 A2997=
200711031200 METAR MROC 031200Z 29005KT 2500 BR SCT004 SCT008 BKN250 20/19 A2998 RMK TRACE SC AC=
200711031300 METAR MROC 031300Z 16002KT 2000 0800E BR SCT001 BKN250 20/19 A2999 BECMG 4000=
200711031400 METAR MROC 031400Z 24003KT 4000 BR FEW002 BKN250 22/20 A3000 VSBY N SE 6KM BECMG=
200711031500 METAR MROC 031500Z 26007KT 5000 BR FEW003 SCT012 BKN250 22/20 A3002 BECMG=
200711031600 METAR MROC 031600Z 24006KT 5000 BR FEW003 SCT012 BKN250 23/20 A3001=
200711031700 METAR MROC 031700Z 20003KT 7000 VCFG FEW008 SCT015 BKN120 24/19 A2999 RMK VSBY E SE S SW UN BECMG=
200711031800 METAR MROC 031800Z 25007KT 9999 SCT020 BKN120 25/20 A2995 BECMG=
200711031900 METAR MROC 031900Z 22006KT 9999 FEW015TCU SCT025 BKN120 25/20 A2991 BECMG=
200711032000 METAR MROC 032000Z 21005KT 9999 VCSH SCT015 SCT025 25/21 A2990 VSBY N NE 6KM DUE RASH BECMG 7000 VCSH=
200711032100 METAR MROC 032100Z 17003KT 9999 VCSH SCT012 BKN025 23/19 A2990 RMK VIS 7000 N NE BECMG=
200711032200 METAR MROC 032200Z 19004KT 9999 FEW010 SCT020 BKN090 23/21 A2991 RMK RN DST NE NW BECMG=
200711032300 METAR MROC 032300Z 27006KT 5000 1000N RA BR SCT004 BKN012 22/19 A2993 BECMG VIS 2500 +RA=
200711040000 METAR MROC 040000Z 11003KT 9999 -RA SCT020 BKN100 20/19 A2994 BECMG=
200711040100 METAR MROC 040100Z 10007KT 9999 SCT030 BKN120 20/18 A2996 BECMG=
200711040200 METAR MROC 040200Z 12007KT 9999 FEW030 SCT120 20/17 A2997 BECMG=
200711040300 METAR MROC 040300Z 03003KT 9999 FEW030 SCT120 20/18 A2999 BECMG=
200711040400 METAR MROC 040400Z 12005KT 9999 FEW030 BKN120 20/18 A3000 BECMG=
200711040500 METAR MROC 040500Z 11004KT 9999 FEW030 BKN120 20/17 A2997 BECMG=
200711040600 METAR MROC 040600Z 07004KT 9999 FEW030 SCT120 19/17 A2995 BECMG=
200711040700 METAR MROC 040700Z 07003KT 9999 FEW035 19/17 A2992 BECMG CAVOK=
200711040800 METAR MROC 040800Z 10005KT CAVOK 20/17 A2992 RMK TRACE SC SCT250=
200711040900 METAR MROC 040900Z 04005KT CAVOK 19/17 A2991 RMK TRACE SC SCT250=
200711041000 METAR MROC 041000Z 06002KT CAVOK 19/17 A2990 RMK TRACE SC SCT250=
200711041100 METAR MROC 041100Z 05003KT 9999 FEW040 SCT100 19/17 A2991 RMK TRACE CI=
200711041200 METAR MROC 041200Z 08006KT 9999 FEW040 SCT100 21/17 A2993 RMK TRACE CI CB DST SW=
200711041300 METAR MROC 041300Z 09007KT 9999 SCT035 23/17 A2994 BECMG=
200711041400 METAR MROC 041400Z 11006KT 9999 SCT035 24/18 A2996 BECMG 24006KT=
200711041500 METAR MROC 041500Z 24003KT 9999 SCT030 SCT120 25/17 A2996 BECMG=
200711041600 METAR MROC 041600Z 18007KT 9999 SCT030 BKN250 26/17 A2995 BECMG=
200711041700 METAR MROC 041700Z 14004KT 9999 SCT035 BKN250 26/18 A2993 BECMG=
200711041800 METAR MROC 041800Z 11008KT 9999 FEW030 BKN250 27/18 A2988 BECMG 24006KT=
200711041900 METAR MROC 041900Z 14003KT 9999 SCT030 SCT100 27/17 A2985 BECMG=
200711042000 METAR MROC 042000Z 22006KT 9999 SCT025 BKN070 25/19 A2984 BECMG 7000=
200711042100 METAR MROC 042100Z 24011KT 9999 SCT030 BKN100 24/20 A2983 RMK RN DST S BECMG=
200711042200 METAR MROC 042200Z 22008KT 9999 SCT020 BKN100 23/20 A2983 RMK TCU DST N/NE RN DST SE/S BECMG=
200711042300 METAR MROC 042300Z 20003KT 9999 FEW025 SCT035 BKN100 22/20 A2986 RMK RN DST S TCU/ N/NE VIS 6KMS BECMG 8000 -RA=
200711050000 METAR MROC 050000Z 17004KT 9999 SCT030 BKN100 21/20 A2988 BECMG=
200711050100 METAR MROC 050100Z 00000KT 9999 SCT030 BKN100 21/19 A2990 BECMG=
200711050200 METAR MROC 050200Z 07002KT 9999 FEW035 BKN100 21/20 A2992 BECMG=
200711050300 METAR MROC 050300Z 00000KT 9999 SCT040 21/19 A2993 BECMG=
200711050400 METAR MROC 050400Z 00000KT CAVOK 20/18 A2991 TRAZAS SCT BECMG=
200711050500 METAR MROC 050500Z 00000KT 9999 FEW025 SCT120 20/18 A2991 RMK ST S BECMG=
200711050600 METAR MROC 050600Z 10003KT 9999 BKN025 19/18 A2990 RMK FEW120 ST S BECMG=
200711050700 METAR MROC 050700Z 06003KT 9999 BKN035 20/18 A2987 BECMG=
200711050800 METAR MROC NIL=
200711050900 METAR MROC 050900Z 00000KT CAVOK 18/17 A2985 TRAZAS SC BECMG=
200711051000 METAR MROC 051000Z 06002KT CAVOK 18/16 A2985 TRAZAS SCT BECMG=
200711051100 METAR MROC 051100Z 04007KT CAVOK 18/16 A2987 TRAZAS SCT SCT300=
200711051200 METAR MROC 051200Z 03005KT CAVOK 19/16 A2988 TRAZAS SCT SCT300=
200711051300 METAR MROC 051300Z 10002KT CAVOK 21/17 A2990 RMK TRAZAS SC BKN250 CB DST S=
200711051400 METAR MROC 051400Z 28002KT CAVOK 24/17 A2992 RMK TRAZAS SC BKN250 CB DST S=
200711051500 METAR MROC 051500Z 25006KT 9999 FEW040 SCT300 24/19 A2993 BECMG=
200711051600 METAR MROC 051600Z 24006KT 9999 SCT035 BKN100 25/19 A2993 RMK CB DST NE BECMG=
200711051700 METAR MROC 051700Z 22005KT 9999 SCT035 BKN100 26/19 A2990 RMK CB DST N/NE RN DST NE TRAZAS CI BECMG=
200711051800 METAR MROC 051800Z 23003KT 9999 SCT030 BKN100 26/20 A2987 RMK TCU DST N/NE RN DST E TRAZAS CI BECMG=
200711051900 METAR MROC 051900Z 23009KT 9999 SCT030 BKN100 25/20 A2983 RMK RN DST E TRAZAS CI BECMG=
200711052000 METAR MROC 052000Z 19005KT 9999 -RA SCT030 BKN100 25/21 A2980 RMK TCU DST N BECMG 6000 VCSH=
200711052100 METAR MROC 052100Z 21006KT 9999 -RA VCSH FEW015CB SCT025 BKN035 23/20 A2979 VIS SW WSW 7KMS BECMG 5000 SHRA=
200711052140 METAR MROC 052140Z 24011KT 3000 TSRA SCT003 SCT015CB BKN025 21/20 A2982 BECMG=
200711052200 METAR MROC 052200Z 24010KT 2000 TSRA SCT003 SCT015CB BKN025 21/20 A2983 BECMG=
200711052300 METAR MROC 052300Z VRB03KT 5000 -RA BR FEW003 SCT008 BKN020 21/20 A2986 BECMG=
200711060000 METAR MROC 060000Z 14002KT 7000 -RA VCSH FEW015CB SCT030 BKN070 19/19 A2987 RMK TS DST SW W VIS E SE S UNLTD BECMG 9999=
200711060100 METAR MROC 060100Z 31007KT 9999 FEW025 SCT040 BKN100 20/19 A2991 RERA BECMG 7000 VCFG=
200711060200 METAR MROC 060200Z 00000KT 9999 FEW004 SCT040 BKN100 20/19 A2993 BECMG=
200711060300 METAR MROC 060300Z 22004KT 9999 -DZ FEW005 BKN090 20/19 A2995 BECMG=
200711060400 METAR MROC 060400Z 00000KT 7000 RA VCFG SCT003 BKN090 20/19 A2995 BECMG 5000 RA BR=
200711060500 METAR MROC 060500Z 35002KT 9999 SCT012 20/19 A2994 RMK DUE ST SW BECMG=
200711060600 METAR MROC 060600Z 08004KT CAVOK 19/18 A2990 RMK SCT250 TRACE SC DUE ST SW BECMG=
200711060700 METAR MROC 060700Z 05003KT CAVOK 19/18 A2988 RMK SCT250 TRACE SC DUE ST SW BECMG=
200711060800 METAR MROC 060800Z 05004KT CAVOK 19/18 A2986 RMK SCT250 TRACE SC=
200711060900 METAR MROC 060900Z 04004KT CAVOK 18/17 A2985 RMK TRACE SC ST=
200711061000 METAR MROC 061000Z 13003KT CAVOK 18/17 A2986 RMK TRACE SC=
200711061100 METAR MROC 061100Z 04003KT CAVOK 18/17 A2987 RMK TRACE SC=
200711061200 METAR MROC 061200Z 04006KT CAVOK 18/17 A2990 RMK BKN250 TRACE SC=
200711061300 METAR MROC 061300Z 06005KT CAVOK 22/18 A2991 BECMG=
200711061400 METAR MROC 061400Z 09005KT CAVOK 25/17 A2993 BECMG RMK TRACE SC TCU DST NE SW BKN260=
200711061500 METAR MROC 061500Z 09004KT 9999 FEW030 BKN260 26/17 A2994 RMK CB DST SW=
200711061600 METAR MROC 061600Z 24007KT 9999 SCT030 BKN270 25/20 A2993 BECMG=
200711061700 METAR MROC 061700Z 23008KT 9999 SCT030 BKN250 25/20 A2990 BECMG=
200711061800 METAR MROC 061800Z 23009KT 9000 VCSH FEW010CB SCT025 BKN100 25/21 A2988 RMK RASH E BECMG 5000 VCSH=
200711061900 METAR MROC 061900Z 28007KT 4000 1200W -RA FEW005 SCT020 OVC100 21/21 A2986 RMK BECMG 5000 -RA=
200711062000 METAR MROC 062000Z 25007KT 6000 VCFG FEW004 SCT015 BKN100 22/21 A2985 BECMG 3000 BR=
200711062100 METAR MROC 062100Z 30005KT 8000 VCFG FEW004 SCT015 BKN100 22/20 A2985 BECMG 5000 BR=
200711062200 METAR MROC 062200Z 31004KT 9999 2000SW RA BR FEW001 SCT008 BKN100 22/20 A2986 BECMG=
200711062300 METAR MROC 062300Z 27002KT 8000 2000SW BR FEW001 SCT008 BKN100 21/20 A2988 BECMG=
200711070000 METAR MROC 070000Z 25003KT 4000 RA BR FEW001 SCT005 OVC100 20/20 A2990 BECMG 7000=
200711070100 METAR MROC 070100Z 23003KT 9999 2000SW -DZ BR FEW001 SCT020 OVC100 20/19 A2993 BECMG 5000 -RA BR=
200711070200 METAR MROC 070200Z 00000KT 5000 DZ BR FEW001 SCT010 BKN030 20/20 A2995 RMK BECMG 2000 -RA BR=
200711070300 METAR MROC 070300Z 00000KT 2000 -DZ BR FEW001 SCT003 BKN010 20/19 A2996 BECMG=
200711070400 METAR MROC 070400Z 00000KT 6000 RA FEW005 SCT030 BKN100 20/19 A2997 RMK VIS SW/W 4KMS BECMG=
200711070500 METAR MROC 070500Z 09004KT 6000 RA FEW004 SCT030 BKN100 19/19 A2997 RMK VIS SW/W 4KMS BECMG=
200711070600 METAR MROC 070600Z 04003KT 9999 FEW035 OVC100 19/19 A2995 BECMG=
200711070700 METAR MROC NIL=
200711070800 METAR MROC 070800Z 08007KT 9999 RA FEW035 OVC100 19/18 A2990 BECMG=
200711070900 METAR MROC 070900Z 09005KT 9999 FEW035 BKN120 20/17 A2988 BECMG=
200711071000 METAR MROC 071000Z 09007KT CAVOK 20/17 A2988 RMK TRAZAS SC BKN120 BECMG=
200711071100 METAR MROC 071100Z 10003KT 9999 SCT030 BKN120 20/17 A2990 RMK LTNG DST E BECMG=
200711071200 METAR MROC 071200Z 00000KT 9999 SCT030 BKN120 20/17 A2993 RMK RN DST E BECMG=
200711071300 METAR MROC 071300Z 08006KT 9999 SCT030 BKN120 21/17 A2995 BECMG=
200711071400 METAR MROC 071400Z 06005KT 9999 FEW030 SCT100 BKN250 22/18 A2996 BECMG=
200711071500 METAR MROC 071500Z 07010KT 9999 FEW030 SCT120 BKN250 23/17 A2996 BECMG=
200711071600 METAR MROC 071600Z 08011KT 9999 FEW035 SCT120 BKN250 23/17 A2995 BECMG=
200711071700 METAR MROC 071700Z 10013KT 9999 FEW035 SCT120 BKN250 23/18 A2991 BECMG=
200711071800 METAR MROC 071800Z 09017KT 9999 FEW035 SCT120 BKN250 22/17 A2989 BECMG=
200711071900 METAR MROC 071900Z 10016KT 9999 FEW035 SCT120 BKN250 22/17 A2986 BECMG=
200711072000 METAR MROC 072000Z 08005KT 9999 FEW030 SCT110 BKN250 23/17 A2986 BECMG=
200711072100 METAR MROC 072100Z 05006KT 9999 SCT040 OVC250 24/17 A2985 DZ N NE BECMG=
200711072200 METAR MROC 072200Z 10007KT 9999 FEW020 SCT040 BKN250 23/17 A2985 DZ NW N NE E BECMG=
200711072300 METAR MROC 072300Z 06006KT 9999 FEW040 BKN250 22/17 A2986 DZ N NE E BECMG=
200711080000 METAR MROC 080000Z 10006KT 9999 SCT040 BKN130 21/17 A2987 DZ N NE E BECMG=
200711080100 METAR MROC 080100Z 10010KT 9999 FEW040 BKN100 21/17 A2989 BECMG=
200711080200 METAR MROC 080200Z 06006KT CAVOK 21/17 A2991 BECMG=
200711080300 METAR MROC 080300Z 08004KT CAVOK 21/17 A2993 BECMG=
200711080400 METAR MROC 080400Z 10006KT CAVOK 21/18 A2993 RMK BKN100 BECMG=
200711080500 METAR MROC 080500Z 12007KT 9999 FEW030 SCT100 21/17 A2992 BECMG=
200711080600 METAR MROC 080600Z 11004KT 9999 FEW025 SCT100 21/17 A2991 BECMG=
200711080700 METAR MROC 080700Z 10005KT 9999 FEW020 SCT100 21/17 A2989 BECMG=
200711080800 METAR MROC 080800Z 09003KT 9999 FEW020 SCT100 20/17 A2987 BECMG=
200711080900 METAR MROC 080900Z 11006KT 9999 FEW020 SCT100 20/17 A2986 BECMG=
200711081000 METAR MROC 081000Z 13003KT 9999 FEW020 SCT100 20/17 A2986 BECMG=
200711081100 METAR MROC 081100Z 09002KT 9999 FEW020 SCT100 19/17 A2989 BECMG=
200711081200 METAR MROC 081200Z 11007KT 9999 SCT025 BKN100 20/16 A2990 BECMG=
200711081300 METAR MROC 081300Z 09007KT 9999 FEW025 SCT040 BKN080 21/17 A2992 RMK RN DST NW N NE E BECMG=
200711081400 METAR MROC 081400Z 09009KT 9999 FEW035 BKN100 21/17 A2994 RN DST NW N NE E BECMG=
200711081500 METAR MROC 081500Z 10011KT 9999 SCT035 BKN100 22/17 A2995 RN NW N NE E BECMG=
200711081600 METAR MROC 081600Z 10011KT 9999 SCT040 BKN100 24/17 A2994 DZ NW N NE E BECMG=
200711081700 METAR MROC 081700Z 09008KT 9999 FEW025 SCT040 BKN080 23/17 A2992 RMK RN DST NW N NE E BECMG=
200711081800 METAR MROC 081800Z 11008KT 9999 SCT040 BKN080 24/17 A2990 RKM RN DST NW N NE E BECMG=
200711081900 METAR MROC 081900Z 10010KT 9999 SCT040 BKN080 25/18 A2989 RMK DZ NW N NE E BECMG=
200711082000 METAR MROC 082000Z 11005KT 9999 SCT040 BKN100 25/18 A2987 DZ NW N NE BECMG=
200711082100 METAR MROC NIL=
200711082200 METAR MROC 082200Z 16005KT 9999 SCT035 BKN100 24/17 A2985 RMK RN DST NE E SE BECMG=
200711082300 METAR MROC 082300Z 10012KT 9999 SCT035 BKN100 22/17 A2987 RMK RN DST NE E=
200711090000 METAR MROC 090000Z 11010KT 9999 SCT035 BKN100 22/17 A2988 RMK RN DST NE E BECMG=
200711090100 METAR MROC 090100Z 11006KT 9999 FEW030 BKN120 22/17 A2992 RN N NE OVR RDGS BECMG=
200711090200 METAR MROC 090200Z 08004KT 9999 FEW035 SCT120 22/17 A2995 RN DIST N NE BECMG=
200711090300 METAR MROC 090300Z 10008KT 9999 FEW035 SCT120 21/17 A2995 BECMG=
200711090400 METAR MROC 090400Z 12007KT 9999 FEW035 SCT100 21/17 A2996 BECMG=
200711090500 METAR MROC 090500Z 12005KT 9999 FEW035 SCT100 21/16 A2994 BECMG=
200711090600 METAR MROC 090600Z 11007KT 9999 FEW035 SCT120 21/16 A2992 BECMG=
200711090700 METAR MROC 090700Z 09011KT 9999 FEW035 SCT120 21/16 A2991 BECMG=
200711090800 METAR MROC 090800Z 06005KT 9999 FEW035 BKN120 21/16 A2989=
200711090900 METAR MROC 090900Z 11002KT 9999 FEW035 BKN120 20/16 A2999=
200711091000 METAR MROC 091000Z 11006KT 9999 FEW035 BKN120 20/16 A2990=
200711091100 METAR MROC 091100Z 09002KT 9999 FEW035 SCT120 19/16 A2991=
200711091200 METAR MROC 091200Z 03002KT 9999 FEW035 BKN120 19/15 A2994=
200711091300 METAR MROC 091300Z 11004KT 9999 FEW035 BKN120 20/16 A2997 RMK RN DST NE E BECMG=
200711091400 METAR MROC 091400Z 11005KT 9999 SCT035 BKN120 21/16 A2999 RMK RN DST NE E BECMG=
200711091500 METAR MROC 091500Z 08005KT 9999 FEW035 SCT120 SCT250 23/16 A2999 RMK RN DST NE E BECMG=
200711091600 METAR MROC 091600Z 11009KT 9999 FEW040 SCT120 BKN250 24/16 A2999 RMK RN DST NE E BECMG=
200711091700 METAR MROC 091700Z 11008KT 9999 FEW035 SCT120 BKN250 25/17 A2996 RMK RN DST NE E BECMG=
200711091800 METAR MROC 091800Z 10010KT 9999 FEW040 SCT120 BKN250 25/16 A2994 RMK RN DST NE E BECMG=
200711091900 METAR MROC 091900Z 11006KT 9999 FEW035 SCT120 BKN250 25/16 A2991 RMK RN DST NE E=
200711092000 METAR MROC 092000Z 08006KT 9999 FEW035 SCT120 BKN250 25/16 A2990 RMK RN DST NE E BECMG=
200711092100 METAR MROC 092100Z 29003KT 9999 SCT030 BKN120 24/15 A2991 RMK RN DST=
200711092200 METAR MROC 092200Z 11008KT 9999 SCT030 BKN120 22/16 A2991 RMK RN DST=
200711092300 METAR MROC 092300Z 09009KT 9999 SCT030 BKN120 21/16 A2991 RMK RN DST N/NE/E BECMG=
200711100000 METAR MROC 100000Z 09008KT 9999 FEW030 BKN120 21/16 A2993 RMK RN DST N/NE/E BECMG=
200711100100 METAR MROC 100100Z 11008KT 9999 FEW030 BKN100 19/16 A2996 RN N NE E BECMG=
200711100200 METAR MROC 100200Z 10012KT 9999 SCT030 BKN110 19/14 A2999 RN N NE E BECMG=
200711100300 METAR MROC 100300Z 08008KT 9999 FEW025 SCT045 19/11 A3000 BECMG=
200711100400 METAR MROC 100400Z 09009KT CAVOK 19/11 A3000 TRAZAS SCT SCT080 BECMG=
200711100500 METAR MROC 100500Z 09009KT CAVOK 19/10 A2999 TRAZAS SCT BKN080 BECMG=
200711100600 METAR MROC 100600Z 10006KT CAVOK 18/10 A2999 TRAZAS SCT SCT080 BECMG=
200711100700 METAR MROC 100700Z 09009KT 9999 FEW040 SCT080 29/09 A2996=
200711100800 METAR MROC NIL=
200711100900 METAR MROC 100900Z 06008KT 9999 FEW040 SCT080 19/09 A2992=
200711101000 METAR MROC 101000Z 10008KT CAVOK 19/09 A2994 TRAZAS SC BKN120=
200711101100 METAR MROC 101100Z 09007KT CAVOK 19/09 A2994 TRAZAS SCT BKN110 RN E=
200711101200 METAR MROC 101200Z 10007KT CAVOK 19/10 A2995 TRAZAS SCT SCT080 BKN100=
200711101300 METAR MROC 101300Z 11004KT CAVOK 20/11 A2996 RMK TRAZAS SC SCT100 BKN250 BECMG=
200711101400 METAR MROC 101400Z 12004KT CAVOK 19/13 A2998 RMK TRAZAS SC BKN100 BECMG=
200711101500 METAR MROC 101500Z 10010KT CAVOK 20/13 A3000 RMK TRAZAS SC OVC120 BECMG=
200711101600 METAR MROC 101600Z 10007KT CAVOK 22/14 A3000 RMK TRAZAS SC OVC120 BECMG=
200711101700 METAR MROC 101700Z 11013KT CAVOK 21/13 A2998 RMK TRAZAS SC OVC120 BECMG=
200711101800 METAR MROC 101800Z 11010KT 9999 FEW045 BKN120 21/13 A2997 RMK RN DST N/NE BECMG=
200711101900 METAR MROC 101900Z 09009KT 9999 FEW040 BKN120 20/12 A2995 RMK RN DST N/NE BECMG=
200711102000 METAR MROC 102000Z 10010KT 9999 FEW035 BKN120 20/12 A2993 RMK RN DST N/NE/E BECMG=
200711102100 METAR MROC 102100Z 07007KT 9999 -RA FEW030 OVC120 18/13 A2994 BECMG=
200711102200 METAR MROC 102200Z 10006KT 9999 -RA FEW030 OVC120 17/14 A2993 BECMG=
200711102300 METAR MROC 102300Z 10004KT 9999 -RA FEW025 OVC120 17/15 A2994 BECMG=
200711110000 METAR MROC 110000Z 08004KT 9999 -RA FEW020 BKN120 17/16 A2994 BECMG=
200711110100 METAR MROC 110100Z 10007KT 9999 -DZ FEW020 BKN120 18/16 A2995 BECMG=
200711110200 METAR MROC 110200Z 06005KT 9999 -RA FEW030 SCT120 18/15 A2996 BECMG=
200711110300 METAR MROC 110300Z 10010KT 9999 FEW030 SCT250 19/14 A2996 RMK FEW120 RN DST N NE E=
200711110400 METAR MROC 110400Z 09008KT 9999 FEW030 SCT250 19/15 A2996 RMK FEW120 RN DST NE E=
200711110500 METAR MROC 110500Z 09008KT 9999 FEW035 SCT250 19/15 A2996 RMK RN DST NE E BECMG=
200711110600 METAR MROC 110600Z 10004KT 9999 FEW035 SCT120 19/15 A2996 RMK RN DST NE E BECMG=
200711110700 METAR MROC 110700Z 11006KT 9999 -DZ FEW035 BKN090 18/14 A2995 RMK RN DST E BECMG=
200711110800 METAR MROC 110800Z 10005KT 9999 -DZ FEW030 BKN090 17/14 A2993 RMK RN DST E SE=
200711110900 METAR MROC 110900Z 06009KT 9999 FEW035 SCT100 SCT250 17/14 A2992 RMK RN DST NE E=
200711111000 METAR MROC 111000Z 06010KT 9999 -RA FEW035 BKN100 16/14 A2991 RMK RN DST NE E=
200711111100 METAR MROC 111100Z 05008KT 9999 +DZ FEW030 BKN100 18/13 A2991 RMK RN DST NE E=
200711111200 METAR MROC 111200Z 35004KT CAVOK 18/14 A2992 RMK BKN100 TRACE SC RN DST NE E=
200711111300 METAR MROC 111300Z 09008KT 9999 -RA FEW030 OVC100 17/14 A2995 BECMG=
200711111400 METAR MROC 111400Z 06008KT 9999 FEW025 BKN100 18/14 A2997 BECMG=
200711111500 METAR MROC 111500Z 10005KT 9999 -RA FEW025 BKN110 19/14 A2998 BECMG=
200711111600 METAR MROC 111600Z 10006KT 9999 FEW025 BKN110 21/15 A2997 BECMG=
200711111700 METAR MROC 111700Z 13005KT 9999 -RA FEW025 OVC120 19/16 A2996 BECMG=
200711111800 METAR MROC 111800Z 12004KT 9999 -RA FEW020 OVC100 22/16 A2994 BECMG=
200711111900 METAR MROC 111900Z 10007KT 9999 -RA FEW020 OVC120 20/16 A2992 BECMG=
200711112000 METAR MROC 112000Z 13002KT 9999 -RA FEW020 OVC120 20/16 A2991 BECMG=
200711112100 METAR MROC 112100Z 06002KT 9999 FEW030 OVC120 20/18 A2989 BECMG=
200711112200 METAR MROC 112200Z 00000KT 9999 -DZ OVC120 20/18 A2988 BECMG=
200711112300 METAR MROC 112300Z 26003KT -DZ OVC120 20/17 A2989 BECMG=
200711120000 METAR MROC 120000Z 00000KT 9999 -RA OVC100 19/18 A2991 BECMG=
200711120100 METAR MROC 120100Z 12003KT 9999 -DZ OVC100 19/18 A2993 BECMG RMK TRACE SC=
200711120200 METAR MROC 120200Z 07004KT 9999 -DZ FEW030 OVC100 18/16 A2996 BECMG=
200711120300 METAR MROC 120300Z 10003KT 9999 FEW040 BKN120 18/16 A2997 BECMG=
200711120400 METAR MROC 120400Z 05005KT 9999 FEW040 BKN120 18/16 A2998 BECMG=
200711120500 METAR MROC 120500Z 09003KT 9999 FEW040 BKN120 18/16 A2997 BECMG=
200711120600 METAR MROC 120600Z 02004KT CAVOK 18/17 A2995 RMK TRAZAS SC SCT120 BECMG=
200711120700 METAR MROC 120700Z 05005KT CAVOK 19/16 A2994 RMK TRAZAS SC BKN120 BECMG=
200711120800 METAR MROC 120800Z 06004KT CAVOK 17/16 A2992 TRAZAS SCT BKN120 BECMG=
200711120900 METAR MROC 120900Z 01003KT CAVOK 18/16 A2992 RMK TRAZAS SC BKN120 BECMG=
200711121000 METAR MROC 121000Z 07002KT CAVOK 19/16 A2992 RMK TRAZAS SC BKN120 BECMG=
200711121100 METAR MROC 121100Z 09003KT CAVOK 17/16 A2993 RMK TRAZAS SC/AC SCT250 BECMG=
200711121200 METAR MROC 121200Z 09002KT CAVOK 17/16 A2995 RMK TRAZAS SC/AC BKN250 BECMG=
200711121300 METAR MROC 121300Z 09002KT CAVOK 20/16 A2997 BECMG 24006KT RMK TRACE SC AC BKN250=
200711121400 METAR MROC 121400Z 29004KT 9999 FEW030 SCT120 BKN260 22/17 A2999 BECMG=
200711121500 METAR MROC 121500Z 25003KT 9999 FEW030 SVCT120 BKN260 23/17 A2999 BECMG=
200711121600 METAR MROC 121600Z 25004KT 9999 SCT030 BKN260 25/18 A2997 BECMG=
200711121700 METAR MROC 121700Z 19006KT 9999 SCT030 BKN260 26/18 A2995 BECMG=
200711121800 METAR MROC 121800Z 24007KT 9999 FEW015 SCT025 BKN260 25/18 A2993 BECMG=
200711121900 METAR MROC 121900Z 22005KT 9999 FEW015 SCT025 BKN100 25/19 A2991 BECMG RMK FEW250=
200711122000 METAR MROC 122000Z 22007KT 9999 SCT025 BKN100 23/20 A2989 BECMG 6000=
200711122100 METAR MROC 122100Z 23008KT 9999 VCSH SCT008 SCT035 23/20 A2989 VSBY S/E 6KM DUE RASH BECMG=
200711122200 METAR MROC 122200Z 23008KT 5000 -RA BR BKN005 SCT010 21/20 A2989 BECMG=
200711122300 METAR MROC 122300Z 22006KT 3000 -RA BR SCT002 SCT008 BKN120 20/20 A2991 TS DST NE BECMG=
200711130000 METAR MROC 130000Z 20002KT 5000 -TSRA BR SCT003 SCT006 FEW012CB 20/19 A2994 TS NE E BECMG=
200711130100 METAR MROC 130100Z 19002KT 5000 TSRA FEW003 BKN008 FEW010 20/19 A2996 TS N S BECMG=
200711130200 METAR MROC 130200Z 00000KT 7000 -RA FEW005 SCT027 OVC100 19/19 A2998 BECMG=
200711130300 METAR MROC 130300Z 09002KT 9999 SCT030 BKN100 20/19 A2997 BECMG=
200711130400 METAR MROC 130400Z 07003KT 9999 FEW035 SCT120 19/18 A2996 BECMG=
200711130500 METAR MROC 130500Z 08003KT 9999 FEW035 SCT120 19/18 A2996=
200711130600 METAR MROC 130600Z 19002KT 1000 FG SCT001 FEW035 SCT120 19/18 A2995=
200711130700 METAR MROC 130700Z 05003KT 0500 FG SCT001 SCT120 19/18 A2993=
200711130800 METAR MROC 130800Z 00000KT 0500 FG BKN001 19/18 A2993=
200711130900 METAR MROC 130900Z 02003KT 0500 FG SCT001 18/18 A2992 RMK 3000 N=
200711131000 METAR MROC 131000Z 01004KT 6000 VCFG SCT007 18/17 A2993=
200711131100 METAR MROC 131100Z 05003KT 9999 FEW025 17/16 A2994=
200711131200 METAR MROC 131200Z 00000KT 9999 FEW020 SCT270 17/16 A2995=
200711131300 METAR MROC 131300Z 10002KT CAVOK 20/17 A2996 TRAZAS ST/SC FEW300 BECMG=
200711131400 METAR MROC 131400Z 24005KT 9999 FEW006 22/19 A2998 BECMG=
200711131500 METAR MROC 131500Z 21003KT 9999 FEW015 23/19 A2998 FEW300 BECMG=
200711131600 METAR MROC 131600Z 24006KT 9999 FEW025 24/19 A2997 FEW280 BECMG=
200711131700 METAR MROC 131700Z 23007KT 9999 SCT020 25/20 A2996 FEW280 BECMG=
200711131800 METAR MROC 131800Z 23008KT 9999 SCT020 SCT030 25/20 A2994 BECMG 6000=
200711131900 METAR MROC 131900Z 23008KT 9999 FEW015 SCT025 24/20 A2991 RN NW N BECMG=
200711132000 METAR MROC 132000Z 24008KT 9999 SCT015 SCT280 25/20 A2989 RN DST NW BECMG 5000 VCSH=
200711132100 METAR MROC 132100Z 23009KT 9999 SCT020 SCT250 24/20 A2987 RMK HZ ARND RN DST NNE BECMG=
200711132200 METAR MROC 132200Z 23007KT 4000 -TSRA FEW005 FEW012CB SCT020 23/20 A2988 RMK SCT250 7000SW VCFG BECMG 2000 -TSRA=
200711132300 METAR MROC 132300Z 05002KT 9999 DZ FEW005 SCT030 BKN250 21/20 A2989 BECMG=
200711140000 METAR MROC 140000Z 36003KT 9999 +DZ FEW015 BKN090 21/20 A2992 BECMG VIS 7000 VCFG=
200711140100 METAR MROC 140100Z 06004KT 9999 -RA FEW030 BKN120 20/18 A2992 BECMG=
200711140200 METAR MROC 140200Z 08002KT 9999 FEW030 BKN100 20/19 A2993 BECMG=
200711140300 METAR MROC 140300Z VRB03KT 9999 FEW030 BKN100 20/19 A2995 BECMG=
200711140400 METAR MROC 140400Z 09006KT 9999 FEW030 BKN100 20/17 A2995 BECMG=
200711140500 METAR MROC 140500Z 32004KT 9999 FEW030 BKN110 20/19 A2994 BECMG=
200711140600 METAR MROC 140600Z 03005KT 9999 -DZ FEW030 BKN110 20/18 A2993 BECMG=
200711140700 METAR MROC 140700Z 00000KT 9999 FEW030 BKN110 19/18 A2989 BECMG RMK TRACE ST=
200711140800 METAR MROC 140800Z 02002KT 9999 FEW035 SCT250 20/18 A2987=
200711140900 METAR MROC 140900Z 06007KT 9999 -RA FEW035 BKN120 20/18 A2987=
200711141000 METAR MROC 141000Z 05005KT 9999 -RA FEW035 BKN100 20/18 A2986=
200711141100 METAR MROC 141100Z 09007KT 9999 FEW035 BKN100 20/18 A2986 RERA=
200711141200 METAR MROC 141200Z 10008KT 9999 FEW030 SCT100 BKN250 20/18 A2988=
200711141300 METAR MROC 141300Z 10011KT 9999 -RA FEW040 SCT090 BKN250 21/18 A2989 BECMG=
200711141400 METAR MROC 141400Z 10011KT 9999 FEW035 SCT080 BKN250 22/17 A2989 RMK RN DST NE QUAD E BECMG -RA=
200711141500 METAR MROC 141500Z 09013KT 9999 SCT030 SCT100 23/18 A2990 RMK FEW250 RN DST NE E BECMG=
200711141600 METAR MROC 141600Z 09011KT 9999 SCT030 BKN250 24/18 A2990 RMK RN DST NE E FEW100 BECMG=
200711141700 METAR MROC 141700Z 10014KT 9999 SCT030 SCT120 24/17 A2989 RMK FEW250 RN DST NE BECMG=
200711141800 METAR MROC 141800Z 10009KT 9999 FEW035 SCT120 26/17 A2986 RMK SCT250 RN DST NE BECMG=
200711141900 METAR MROC 141900Z 06011KT 9999 FEW035 BKN250 27/17 A2983 BECMG=
200711142000 METAR MROC 142000Z 07006KT 9999 -DZRA FEW035 SCT100 25/18 A2982 RMK SCT250 RN DST N/NE/E BECMG -RA=
200711142100 METAR MROC 142100Z 07011KT 9999 SCT030 BKN100 25/16 A2982 RMK RN DST N/NE BECMG=
200711142200 METAR MROC 142200Z 08009KT 9999 SCT030 BKN100 24/15 A2982 RMK RN DST N/NE BECMG=
200711142300 METAR MROC 142300Z 11008KT 9999 FEW040 BKN100 22/16 A2984 BECMG=
200711150000 METAR MROC NIL=
200711150100 METAR MROC 150100Z 10014KT CAVOK 21/14 A2989 TRACE SCT BKN110 BECMG=
200711150200 METAR MROC 150200Z 10012KT CAVOK 21/13 A2990 TRACE SCT BKN140 BECMG=
200711150300 METAR MROC 150300Z 10013KT CAVOK 21/14 A2991 TRAZAS SCT SCT120 BECMG=
200711150400 METAR MROC 150400Z 10013KT CAVOK 21/15 A2990 TRAZAS SCT SCT140 BECMG=
200711150500 METAR MROC 150500Z 11013KT CAVOK 21/15 A2988 TRAZAS SC BKN150 BECMG=
200711150600 METAR MROC NIL=
200711150700 METAR MROC 150700Z 10012KT CAVOK 20/15 A2987 TRAZAS SC SCT140=
200711150800 METAR MROC 150800Z 10012KT CAVOK 20/14 A2984 TRAZAS SC FEW140=
200711150900 METAR MROC 150900Z 10010KT CAVOK 20/15 A2983 FEW080 TRAZAS SCT=
200711151000 METAR MROC 151000Z 10011KT CAVOK 20/15 A2984 SCT080 TRAZAS SCT=
200711151100 METAR MROC 151100Z 10011KT 9999 SCT045 SCT080 20/15 A2996=
200711151200 METAR MROC 151200Z 10010KT 9999 SCT030 SCT080 21/15 A2989 DZ NW N NE=
200711151300 METAR MROC 151300Z 10012KT 9999 SCT030 BKN100 22/16 A2990 RMK RN DST N/NE TRAZAS CI BECMG=
200711151400 METAR MROC 151400Z 09012KT 9999 SCT030 BKN250 24/17 A2992 RMK RN DST N/NE TRAZAS AC BECMG=
200711151500 METAR MROC 151500Z 09015KT 9999 SCT030 BKN100 26/16 A2992 RMK DZ DST N/NE TRAZAS CI BECMG=
200711151600 METAR MROC 151600Z 07011KT 9999 SCT030 BKN100 25/14 A2994 RMK DZ DST N/NE TRAZAS CI RAFAGAS 20 NUDOS BECMG=
200711151700 METAR MROC 151700Z 08010KT 9999 SCT030 BKN100 25/15 A2993 RMK DZ DST N/NE BECMG=
200711151800 METAR MROC 151800Z 08009KT 9999 SCT030 BKN100 26/14 A2991 RMK DZ DST N TRAZAS CI=
200711151900 METAR MROC 151900Z 07016KT 9999 FEW030 SCT100 BKN250 27/13 A2987 RMK DZ DST N RAFAGAS 20 NUDOS BECMG=
200711152000 METAR MROC 152000Z 10012KT 9999 FEW035 BKN100 25/14 A2985 RMK DZ DST N RAFAGAS 18NUDOS BECMG=
200711152100 METAR MROC 152100Z 07011KT 9999 FEW035 BKN100 25/13 A2985 BECMG=
200711152200 METAR MROC 152200Z 07012KT 9999 FEW030 SCT110 BKN250 24/14 A2984 BECMG=
200711152300 METAR MROC 152300Z 08012KT 9999 FEW025 SCT110 BKN250 23/15 A2985 BECMG=
200711160000 METAR MROC 160000Z 09011KT 9999 FEW025 SCT110 22/14 A2987 BECMG=
200711160100 METAR MROC 160100Z 10012KT CAVOK 22/16 A2989 TRACE SCT SCT140 BECMG=
200711160200 METAR MROC NIL=
200711160300 METAR MROC NIL=
200711160400 METAR MROC NIL=
200711160500 METAR MROC NIL=
200711160600 METAR MROC NIL=
200711160700 METAR MROC 160700Z 05003KT 9999 FEW035 21/17 A2990 BECMG=
200711160800 METAR MROC 160800Z 10006KT 9999 FEW040 20/16 A2988=
200711160900 METAR MROC 160900Z 04007KT 9999 FEW035 SCT120 20/17 A2988=
200711161000 METAR MROC 161000Z 32008KT 9999 SCT035 20/14 A2990 RMK FEW120=
200711161100 METAR MROC 161100Z 14003KT 9999 FEW030 SCT120 20/16 A2990=
200711161200 METAR MROC 161200Z 10007KT 9999 SCT030 BKN090 20/16 A2991 RMK RN DST NE E=
200711161300 METAR MROC 161300Z 06005KT 9999 SCT030 SCT100 21/17 A2993 RMK RN DST NE N=
200711161400 METAR MROC 161400Z 10006KT 9999 SCT030 BKN100 23/17 A2995 RMK RN DST N NE=
200711161500 METAR MROC 161500Z 08012KT 9999 FEW030 BKN130 25/17 A2994 RMK RN DST N NE BECMG=
200711161600 METAR MROC 161600Z 08012KT 9999 SCT030 SCT130 27/17 A2992 RMK RN DST N NE BECMG=
200711161700 METAR MROC 161700Z 11013KT 9999 SCT020 BKN120 26/17 A2989 RMK RN DST N NE BECMG=
200711161800 METAR MROC 161800Z VRB02KT 9999 BKN030 25/16 A2989 RMK RN DST N NE BECMG=
200711161900 METAR MROC 161900Z 11011KT 9999 BKN030 25/17 A2987 RMK RN DST N NE E BECMG=
200711162000 METAR MROC 162000Z 11006KT 9999 SCT030 BKN130 25/18 A2984 RMK RN DST N NE E BECMG=
200711162100 METAR MROC 162100Z 09009KT 9999 SCT030 BKN130 24/17 A2983 BECMG RMK RN N NE E=
200711162200 METAR MROC 162200Z 09003KT 9999 SCT030 BKN100 24/17 A2984 BECMG=
200711162300 METAR MROC 162300Z 10005KT 9999 SCT030 BKN100 23/18 A2986 BECMG RMK RN N NE E SW=
200711170000 METAR MROC 170000Z 07013KT 9999 FEW035 SCT100 23/16 A2986 BECMG RMK RN N NE E=
200711170100 METAR MROC 170100Z 09010KT CAVOK 21/16 A2989 BECMG RMK TRACE SC SCT100=
200711170200 METAR MROC 170200Z 10010KT CAVOK 21/17 A2992 BECMG RMK TRACE SC SCT100=
200711170300 METAR MROC 170300Z 05006KT CAVOK 21/17 A2993 RMK TRAZAS SC SCT100 BECMG0=
200711170400 METAR MROC 170400Z 10005KT CAVOK 21/17 A2993 RMK TRAZAS SC SCT100 BECMG=
200711170500 METAR MROC 170500Z 09008KT 9999 FEW040 SCT100 21/17 A2993 BECMG=
200711170600 METAR MROC 170600Z 09007KT 9999 FEW040 BKN100 21/17 A2992 BECMG=
200711170700 METAR MROC 170700Z 10006KT 9999 FEW040 SCT100 21/17 A2989 BECMG=
200711170800 METAR MROC 170800Z 05010KT 9999 FEW040 SCT100 21/16 A2988 BECMG=
200711170900 METAR MROC 170900Z 06005KT 9999 FEW040 SCT100 21/16 A2987 BECMG=
200711171000 METAR MROC 171000Z 19005KT CAVOK 21/17 A2988 RMK TRAZAS SC/ SCT100 BECMG=
200711171100 METAR MROC 171100Z 11004KT CAVOK 21/16 A2987 RMK TRAZAS SC SCT100 BECMG=
200711171200 METAR MROC 171200Z 06006KT 9999 FEW030 BKN100 21/17 A2991 RN DST N/NE/E BECMG=
200711171300 METAR MROC 171300Z 08004KT 9999 FEW030 BKN100 21/18 A2994 BECMG RMK RN N NE E=
200711171400 METAR MROC 171400Z 11005KT 9999 FEW030 SCT100 24/18 A2995 BECMG RMK RN N NE E=
200711171500 METAR MROC 171500Z VRB02KT 9999 FEW030 SCT100 25/18 A2995 BECMG RMK RN N NE=
200711171600 METAR MROC 171600Z 08009KT 9999 FEW030 SCT100 26/17 A2994 BECMG RMK RN N NE E=
200711171700 METAR MROC 171700Z 07011KT 9999 FEW030 SCT100 28/18 A2990 BECMG RMK DZ N NE=
200711171800 METAR MROC 171800Z 09010KT 9999 FEW030 SCT100 26/17 A2988 BECMG RMK DZ N NE=
200711171900 METAR MROC 171900Z 08007KT 9999 FEW030 SCT100 26/18 A2986 BECMG RMK DZ N NE=
200711172000 METAR MROC 172000Z 11008KT 9999 SCT030 BKN100 26/18 A2984 BECMG RMK RN N NE=
200711172100 METAR MROC 172100Z 11006KT 9999 SCT035 BKN080 25/18 A2984 DZ NW N NE E BECMG=
200711172200 METAR MROC 172200Z 08011KT 9999 SCT035 BKN080 25/17 A2985 DZ NW N NE BECMG=
200711172300 METAR MROC 172300Z 09008KT 9999 SCT035 BKN100 24/16 A2987 DZ NW N NE BECMG=
200711180000 METAR MROC 180000Z 09010KT 9999 FEW030 BKN100 23/17 A2989 BECMG=
200711180100 METAR MROC 180100Z 08011KT 9999 FEW040 BKN120 23/17 A2990 BECMG=
200711180200 METAR MROC 180200Z 10008KT CAVOK 22/17 A2992 RMK BKN120 BECMG=
200711180300 METAR MROC 180300Z 09008KT CAVOK 22/17 A2994 RMK TRACE SC BKN120 BECMG=
200711180400 METAR MROC 180400Z 09007KT CAVOK 22/17 A2994 RMK TRACE SC BKN120=
200711180500 METAR MROC 180500Z 06004KT CAVOK 22/17 A2995 RMK TRACE SC BKN120 BECMG=
200711180600 METAR MROC 180600Z 33002KT CAVOK 22/17 A2994 RMK BECMG 6000 VCFG FRACE SC BKN120=
200711180700 METAR MROC 180700Z 00000KT CAVOK 21/17 A2989 RMK TRACE SC SCT120 BECMG=
200711180800 METAR MROC 180800Z 08004KT CAVOK 20/17 A2985 RMK TRACE SC SCT120 BECMG=
200711180900 METAR MROC 180900Z 12009KT CAVOK 21/16 A2985 RMK TRACE SC SCT120 BECMG=
200711181000 METAR MROC 181000Z 09007KT CAVOK 21/16 A2987 RMK TRACE SC SCT120 BECMG=
200711181100 METAR MROC 181100Z 09006KT 9999 FEW035 21/16 A2988 BECMG=
200711181200 METAR MROC 181200Z VRB03KT 9999 FEW030 SCT130 20/16 A2990 RMK DZ N NE E BECMG=
200711181300 METAR MROC 181300Z 04008KT CAVOK 21/17 A2993 TRACE SCT SCT140 BECMG=
200711181400 METAR MROC 181400Z 10008KT 9999 SCT030 23/18 A2995 FEW100 DZ NE E BECMG=
200711181500 METAR MROC 181500Z 11009KT 9999 FEW030 BKN100 24/17 A2995 DZ NE E BECMG=
200711181600 METAR MROC 181600Z 07012KT 9999 FEW030 BKN100 26/16 A2994 BECMG=
200711181700 METAR MROC 181700Z 08010KT 9999 FEW030 BKN100 27/16 A2990 BECMG=
200711181800 METAR MROC 181800Z 10009KT 9999 FEW030 BKN100 27/16 A2989 BECMG=
200711181900 METAR MROC 181900Z 09012KT 9999 FEW030 BKN100 27/17 A2985 BECMG=
200711182000 METAR MROC 182000Z 09012KT 9999 FEW030 BKN100 27/15 A2984 BECMG=
200711182100 METAR MROC 182100Z 07006KT 9999 FEW030 BKN100 27/16 A2984 BECMG=
200711182200 METAR MROC 182200Z 10009KT 9999 FEW035 BKN100 26/17 A2984 BECMG=
200711182300 METAR MROC 182300Z 09006KT 9999 FEW035 SCT250 25/17 A2986 RMK TRACE AC BECMG=
200711190000 METAR MROC 190000Z 09010KT 9999 FEW035 SCT120 24/17 A2998 RMK TRACE CI=
200711190100 METAR MROC 190100Z 08006KT 9999 FEW035 SCT120 23/17 A2990 RMK BECMG CAVOK=
200711190200 METAR MROC 190200Z 10008KT 9999 FEW035 SCT120 23/17 A2992 BECMG=
200711190300 METAR MROC 190300Z 34008KT 9999 FEW035 SCT120 22/19 A2993 BECMG=
200711190400 METAR MROC 190400Z 20003KT 9999 FEW035 SCT120 22/18 A2993 BECMG=
200711190500 METAR MROC 190500Z 08002KT 9999 FEW035 SCT120 21/18 A2992 BECMG=
200711190600 METAR MROC 190600Z 09004KT 9999 FEW040 SCT120 21/18 A2989 BECMG=
200711190700 METAR MROC 190700Z 11006KT CAVOK 21/17 A2987 BECMG RMK TRACE SC SCT120=
200711190800 METAR MROC 190800Z 36005KT CAVOK 20/17 A2986 RMK TRACE SC SCT120=
200711190900 METAR MROC 190900Z 34003KT CAVOK 21/17 A2987 RNK TRACE SCT SCT120=
200711191000 METAR MROC 191000Z 30004KT CAVOK 20/17 A2987 RMK TRACE SC SCT120=
200711191400 METAR MROC 191400Z 10012KT 9999 FEW035 25/18 A2990 BECMG=
200711191500 METAR MROC 191500Z 07012KT 9999 FEW035 27/17 A2990 RMK GUST 18KT=
200711191600 METAR MROC 191600Z 10016KT 9999 FEW035 28/17 A2988 RMK GUST 21KT=
200711191700 METAR MROC 191700Z 08011KT 9999 SCT030 29/18 A2987 BECMG=
200711191800 METAR MROC 191800Z 09011KT 9999 SCT040 29/18 A2985 BECMG=
200711191900 METAR MROC 191900Z 10011KT 9999 SCT035 SCT120 28/17 A2982 BECMG=
200711192000 METAR MROC 192000Z 24007KT 9999 -DZ SCT030 BKN090 24/21 A2982 BECMG=
200711192100 METAR MROC 192100Z 27010KT 9999 SCT035 BKN100 24/21 A2980=
200711192200 METAR MROC 192200Z 23006KT 9999 SCT035 SCT100 24/21 A2980 BECMG=
200711192300 METAR MROC 192300Z 23004KT 9999 FEW040 SCT100 22/21 A2981 BECMG=
200711200000 METAR MROC 200000Z 24005KT 5000 BR FEW002 SCT006 BKN015 22/20 A2983 RMK VIS SE/E 6KMS BECMG=
200711200100 METAR MROC 200100Z 27005KT 9999 FEW005 SCT015 BKN100 21/20 A2987 RMK VIS SW/W 6KMS BECMG=
200711200200 METAR MROC 200200Z 27003KT 5000 BR FEW002 SCT006 BKN020 21/20 A2990 RMK BECMG 9999=
200711200300 METAR MROC 200300Z 31004KT 9999 4000SW BR FEW002 21/20 A2990 FEW040 BECMG=
200711200400 METAR MROC 200400Z 30003KT 6000 BR SCT003 21/20 A2990 VSBY E UNL VSBY S SW W 4KM LOW ST BECMG=
200711200500 METAR MROC 200500Z 290002KT 5000 BR SCT003 SCT010 21/20 A2989=
200711200600 METAR MROC 200600Z 00000KT 5000 SCT003 SCT012 20/19 A2988 NOPSIG=
200711200700 METAR MROC 200700Z 04007KT 9999 FEW025 20/18 A2985=
200711200800 METAR MROC NIL=
200711200900 METAR MROC 200900Z 07006KT CAVOK 20/18 A2988 TRAZAS SC FEW100=
200711201000 METAR MROC 201000Z 03008KT CAVOK 20/17 A2986 FEW300 TRAZAS SCT=
200711201100 METAR MROC 201100Z 08005KT CAVOK 20/17 A2988 TRAZAS SCT SCT080 SCT280=
200711201200 METAR MROC 201200Z 09009KT CAVOK 21/17 A2990 TRAZAS SCT FEW100 SCT300 DZ N BECMG=
200711201300 METAR MROC 201300Z 07008KT CAVOK 23/17 A2991 RMK TRAZAS SC SCT300 BECMG=
200711201400 METAR MROC 201400Z 10010KT 9999 FEW040 SCT300 25/18 A2992 RMK RN DST N/NE BECMG=
200711201500 METAR MROC 201500Z 11010KT 9999 FEW030 SCT100 BKN250 26/18 A2993 RMK RN DST N/NE=
200711201600 METAR MROC 201600Z 07003KT 9999 -DZ SCT025 BKN100 25/18 A2993 RMK RN DST ARND BECMG=
200711201700 METAR MROC 201700Z 07007KT 9999 -RA SCT030 BKN100 24/19 A2991 RMK VIS=
200711201800 METAR MROC 201800Z 09012KT 9999 FEW035 SCT100 BKN250 25/18 A2988 RMK RN DST N/NE RERA=
200711201900 METAR MROC 201900Z 10006KT 9999 RA FEW035 BKN100 22/19 A2988 RMK VIS=
200711202000 METAR MROC 202000Z 10014KT 9999 -RA FEW035 BKN100 21/18 A2985 RMK VIS NW/N 6KMS BECMG=
200711202100 METAR MROC 202100Z 09014KT 9999 -RA FEW035 BKN100 21/17 A2982 RMK VIS NW N 6000 DUE RA=
200711202200 METAR MROC 202200Z 09017KT 9999 -RA FEW030 BKN100 21/17 A2983 BECMG=
200711202300 METAR MROC 202300Z 10018KT 9999 -RA FEW020 BKN100 22/17 A2983 BECMG=
200711210000 METAR MROC 210000Z 11015KT 9999 FEW020 BKN100 21/16 A2986 BECMG=
200711210100 METAR MROC 210100Z 10014KT 9999 FEW020 OVC110 21/16 A2989 BECMG=
200711210200 METAR MROC 210200Z 10010KT 9999 FEW030 OVC120 21/16 A2992 LTNG DIST S BECMG=
200711210300 METAR MROC 210300Z 06004KT CAVOK 21/16 A2995 RMK LTNG DST SSW SW BECMG=
200711210400 METAR MROC 210400Z 13006KT CAVOK 21/16 A2996 RMK BKN120 LTNG DST SW BECMG=
200711210500 METAR MROC 210500Z 10009KT CAVOK 22/16 A2994 RMK TRACE SC SCT120 SCT250 BECMG=
200711210600 METAR MROC 21060000Z 09010KT CAVOK 21/17 A2993 RMK TRACE SC SCT120 SCT250 BECMG=
200711210700 METAR MROC 210700Z 09012KT 9999 -RA OVC100 22/17 A2988=
200711210800 METAR MROC 210800Z 12009KT 9999 -DZ BKN120 22/17 A2990 RMK LTNG DST SW=
200711210900 METAR MROC 210900Z 03007KT 9999 FEW035 SCT100 BKN250 20/17 A2990 RMK=
200711211000 METAR MROC 211000Z 04006KT CAVOK 20/17 A2990 RMK TRACE SC SCT120 BKN250=
200711211100 METAR MROC 211100Z 11004KT CAVOK 21/17 A2994 RMK TRACE SC SCT120 SCT250=
200711211200 METAR MROC 211200Z 03009KT CAVOK 21/17 A2995 RMK TRACE SC BKN100 FEW250=
200711211300 METAR MROC 211300Z 10013KT 9999 FEW010 SCT080 BKN250 22/16 A2996 BECMG=
200711211400 METAR MROC 211400Z 11016KT 9999 FEW020 SCT090 BKN250 23/17 A2997 RMK RN NE BECMG=
200711211500 METAR MROC 211500Z 09008KT 9999 SCT025 SCT090 BKN250 24/17 A3000 RMK DZ DST NE E BECMG=
200711211600 METAR MROC 211600Z 10008KT 9999 SCT025 BKN250 24/18 A3001 RMK DZ DST N NE BECMG=
200711211700 METAR MROC 211700Z 10010KT 9999 SCT025 BKN250 26/17 A2998 RMK DZ NE BECMG=
200711211800 METAR MROC 211800Z 07008KT 9999 SCT025 BKN250 26/17 A2995 BECMG=
200711211900 METAR MROC 211900Z 11010KT 9999 SCT020 BKN250 25/17 A2992 RMK RN NE BECMG=
200711212000 METAR MROC 212000Z 09011KT 9999 SCT020 BKN250 25/17 A2990 RMK RN NE BECMG=
200711212100 METAR MROC 212100Z 11006KT 9999 FEW030 SCT100 BKN250 24/16 A2991 BECMG=
200711212200 METAR MROC 212200Z 30006KT 9999 FEW003 SCT030 BKN250 22/20 A2992 BECMG=
200711212300 METAR MROC 212300Z 22002KT 9999 FEW002 SCT030 BKN250 21/20 A2994 BECMG=
200711220000 METAR MROC 220000Z 07004KT 9999 SCT030 BKN250 21/19 A2998 BECMG=
200711220100 METAR MROC 220100Z 08006KT CAVOK 21/16 A2999 TRACE SCT SCT150 BECMG=
200711220200 METAR MROC 220200Z 10012KT CAVOK 21/16 A2999 TRACE SCT BKN150 BECMG=
200711220300 METAR MROC 220300Z 08006KT CAVOK 21/15 A3001 RMK TRAZAS SC SCT120 BECMG=
200711220400 METAR MROC 220400Z 10009KT CAVOK 21/14 A3001 RMK TRAZAS SC SCT120 BECMG=
200711220500 METAR MROC 220500Z 04008KT CAVOK 20/15 A2999 RMK TRAZAS SC SCT120 BECMG=
200711220600 METAR MROC 220600Z 02006KT CAVOK 19/14 A2999 RMK TRAZAS SC/AC BKN250 BECMG=
200711220700 METAR MROC 220700Z 02006KT CAVOK 18/14 A2998 RMK TRAZAS SC/AC BKN250 BECMG=
200711220800 METAR MROC 220800Z 04007KT CAVOK 17/13 A2996 RMK TRAZAS SC AC BKN250 BECMG=
200711220900 METAR MROC 220900Z 04006KT CAVOK 16/12 A2995 RMK TRAZAS SC/AC BKN250 BECMG=
200711221000 METAR MROC 221000Z 004006KT CAVOK 16/12 A2996 RMK TRAZAS SC/AC BKN250 BECMG=
200711221100 METAR MROC 221100Z 04010KT CAVOK 17/12 A2997 RMK TRAZAS SC/AC/CI BECMG=
200711221200 METAR MROC 221200Z 06008KT CAVOK 17/13 A2998 RMK TRAZAS SC/AC BKN250 CB DST S BECMG=
200711221300 METAR MROC 221300Z 07005KT CAVOK 21/14 A3000 BECMG RMK TRACE SC AC BKN300=
200711221400 METAR MROC 221400Z 11012KT CAVOK 24/15 A3001 BECMG RMK TRACE SC AC CB DST SW SCT300=
200711221500 METAR MROC 221500Z 10014KT CAVOK 25/15 A3000 BECMG RMK CB DST S SW TRACE SC FEW120 SCT300=
200711221600 METAR MROC 221600Z 10016KT 9999 FEW035 SCT100 BKN250 24/17 A3002 BECMG=
200711221700 METAR MROC 221700Z 11013KT CAVOK 25/17 A2999 BECMG TRACE SCT SCT100 BKN250=
200711221800 METAR MROC 221800Z 10010KT 9999 FEW040 SCT120 BKN250 27/17 A2995 BECMG=
200711221900 METAR MROC 221900Z 20006KT 9999 SCT040 SCT120 23/19 A2996 BECMG 6000=
200711222000 METAR MROC 222000Z 24004KT 9999 SCT035 BKN100 23/20 A2995 BECMG=
200711222100 METAR MROC 222100Z 22004KT 9999 -RA FEW015 BKN045 22/20 A2995 VSBY N 6KM BECMG=
200711222200 METAR MROC 222200Z 25004KT 9999 BKN045A SCT100 22/20 A2995 VSBY N 6KM BECMG=
200711222300 METAR MROC 222300Z 23003KT 9999 3000N BR FEW010 BKN045 22/20 A2996 BECMG=
200711230000 METAR MROC 230000Z 32002KT 9999 FEW015 SCT100 BKN260 21/20 A2999 BECMG=
200711230100 METAR MROC 230100Z 30003KT CAVOK 21/18 A3000 FEW100 BKN260 BECMG=
200711230200 METAR MROC 230200Z 00000KT CAVOK 21/18 A3002 BECMG=
200711230300 METAR MROC 230300Z 04006KT CAVOK 21/17 A3002 RMK TRACE SC BKN120 BECMG=
200711230400 METAR MROC 230400Z 05007KT CAVOK 21/17 A3002 RMK TRACE SC BKN120 BECMG=
200711230500 METAR MROC 230500Z 09015KT CAVOK 22/16 A3000 RMK TRACE SC BKN120 BECMG=
200711230600 METAR MROC 230600Z 01004KT CAVOK 21/16 A2999 RMK TRACE SC BKN120 BECMG=
200711230700 METAR MROC 230700Z 01008KT CAVOK 21/16 A2997 RMK TRACE SC BKN120 BECMG=
200711230800 METAR MROC 230800Z 33003KT CAVOK 20/16 A2996 RMK TRACE SC SCT120=
200711230900 METAR MROC 230900Z 01010KT CAVOK 19/15 A2995 RMK TRACE SC=
200711231000 METAR MROC 231000Z 10010KT CAVOK 20/16 A2993 RMK TRACE SC=
200711231100 METAR MROC 231100Z 10013KT CAVOK 20/15 A2995 RMK TRACE SC SCT120=
200711231200 METAR MROC 231200Z 10007KT CAVOK 20/15 A2995 RMK SCT250=
200711231300 METAR MROC 231300Z 11010KT CAVOK 22/15 A2996 TRAZAS SCT SCT250 BECMG=
200711231400 METAR MROC 231400Z 10011KT CAVOK 25/16 A2999 FEW130 SCT250 BECMG=
200711231500 METAR MROC 231500Z 09013KT CAVOK 26/15 A2999 SCT280 BECMG=
200711231600 METAR MROC 231600Z 11008KT CAVOK 28/15 A2997 TRAZAS CU FEW120 BECMG 24008KT=
200711231700 METAR MROC 231700Z 21007KT 9999 FEW045 30/15 A2995 BECMG=
200711231800 METAR MROC 231800Z 25005KT 9999 FEW030 27/19 A2994 FEW070 BECMG=
200711231900 METAR MROC 231900Z 10007KT 9999 FEW030 29/14 A2990 BECMG 24006=
200711232000 METAR MROC 232000Z 13002KT 9999 FEW030 30/13 A2986 BECMG=
200711232100 METAR MROC 232100Z 10010KT 9999 FEW035 28/14 A2985 BECMG=
200711232200 METAR MROC 232200Z 08006KT 9999 FEW035 28/15 A2985 BECMG=
200711232300 METAR MROC 232300Z 24011KT 9999 FEW010 SCT025 23/21 A2988 BECMG=
200711240000 METAR MROC 240000Z 24006KT 9999 FEW005 SCT030 22/20 A2991 RMK FEW120 BECMG=
200711240100 METAR MROC 240100Z 28003KT 9999 VCFG FEW004 SCT120 22/20 A2995 RMK FEW025 VIS 6000 N NE W=
200711240200 METAR MROC 240200Z 00000KT 9999 VCFG FEW004 SCT030 21/20 A2997 RMK FEW120 VIS 6000 W DUE ST=
200711240300 METAR MROC 240300Z 05002KT 9999 FEW030 SCT100 BKN250 22/17 A2998 BECMG=
200711240400 METAR MROC 240400Z 10008KT 9999 FEW030 SCT250 21/17 A2998 BECMG=
200711240500 METAR MROC 240500Z 07006KT 9999 FEW030 21/16 A2997 BECMG=
200711240600 METAR MROC 240600Z 10013KT CAVOK 21/16 A2995 BECMG RMK TRACE SC FEW120=
200711240700 METAR MROC 240700Z 10011KT CAVOK 21/16 A2992 BECMG RMK TRACE SC FEW120=
200711240800 METAR MROC 240800Z 07007KT CAVOK 21/15 A2991 RMK TRACE SC FEW120=
200711240900 METAR MROC 240900Z 11011KT CAVOK 21/15 A2988 RMK TRACE SC FEW120=
200711241000 METAR MROC 241000Z 10013KT CAVOK 22/13 A2989 RMK TRACE SC FEW120=
200711241100 METAR MROC 241100Z 10008KT CAVOK 21/14 A2991 RMK TRACE SC AC FEW250=
200711241200 METAR MROC 241200Z 10010KT CAVOK 20/14 A2992 RMK TRACE SC AC FEW250=
200711241300 METAR MROC 241300Z 10011KT CAVOK 24/15 A2995 RMK TRACE SC FEW280 BECMG=
200711241400 METAR MROC 241400Z 10015G25KT CAVOK 25/15 A2995 RMK TRACE SC FEW280 BECMG=
200711241500 METAR MROC 241500Z 10013KT CAVOK 26/15 A2997 RMK TRACE SC FEW250 BECMG=
200711241600 METAR MROC 241600Z 09015KT 9999 FEW035 27/15 A2996 RMK FEWCI GUST 20KT BECMG=
200711241700 METAR MROC 241700Z 07013G23KT 9999 SCT035 28/16 A2994 BECMG=
200711241800 METAR MROC 241800Z 07012KT 9999 SCT035 29/16 A2991 BECMG=
200711241900 METAR MROC 241900Z 10011KT 9999 SCT030 28/17 A2989 RMK FEW120 GUST 18KT=
200711242000 METAR MROC 242000Z 07010KT 9999 SCT030 SCT120 28/16 A2988 RMK GUST 16KT=
200711242100 METAR MROC 242100Z 08008KT 9999 SCT035 BKN100 26/16 A2986 RMK CB/TCU DST N/S=
200711242200 METAR MROC 242200Z 24008KT 9999 FEW030 SCT100 BKN250 23/20 A2988 BECMG=
200711242300 METAR MROC 242300Z 27006KT 9999 FEW030 BKN100 22/20 A2990 BECMG=
200711250000 METAR MROC 250000Z 24005KT 9999 SCT030 BKN100 21/19 A2991 BECMG=
200711250100 METAR MROC 250100Z 34005KT 9999 FEW030 SCT100 21/19 A2993 RMK BECMG CAVOK=
200711250200 METAR MROC 250200Z 14004KT 9999 FEW030 SCT100 21/18 A2994 BECMG=
200711250300 METAR MROC 250300Z 00000KT 9999 FEW025 SCT130 21/19 A2995 BECMG=
200711250400 METAR MROC 250400Z 00000KT CAVOK 21/18 A2995 TRAZAS SCT BECMG=
200711250500 METAR MROC NIL=
200711250600 METAR MROC 250600Z 35003KT CAVOK 20/18 A2994 BECMG=
200711250700 METAR MROC NIL=
200711250800 METAR MROC 250800Z 02005KT 9999 20/16 A2989 TRAZAS SCT BECMG=
200711250900 METAR MROC 250900Z 05005KT 9999 19/16 A2989 TRAZAS SC=
200711251000 METAR MROC 251000Z 03005KT CAVOK 20/16 A2989 TRAZAS SCT=
200711251100 METAR MROC 251100Z 05005KT CAVOK 21/16 A2990 TRAZAS SCT=
200711251200 METAR MROC 251200Z 10011KT CAVOK 21/16 A2991 TRAZAS SCT0=
200711251300 METAR MROC 251300Z 10013KT CAVOK 22/16 A2993 RMK TRAZAS SC/CI RAFAGAS 18 NUDOS BECMG=
200711251400 METAR MROC 251400Z 10015KT CAVOK 24/16 A2995 RMK TRAZAS SC/CI RAFAGAS 22 NUDOS BECMG=
200711251500 METAR MROC 251500Z 09011KT CAVOK 26/16 A2995 RMK TRAZAS SC/CI CB DST S BECMG=
200711251600 METAR MROC 251600Z 08013KT 9999 FEW040 28/16 A2995 RMK RAGAGAS 18 NUDOS=
200711251700 METAR MROC 251700Z 07009KT 9999 FEW035 28/17 A2993 RMK TRAZAS CI RAFAGAS 21 NUDOS BECMG=
200711251800 METAR MROC 251800Z 09011KT 9999 SCT030 28/16 A2990 RMK TRAZAS CI BECMG=
200711251900 METAR MROC 251900Z 09014KT 9999 SCT035 29/16 A2986 TRAZAS CI BECMG=
200711252000 METAR MROC 252000Z 08013KT 9999 SCT030 29/15 A2983 TRAZAS BECMG=
200711252100 METAR MROC 252100Z 22012KT 9999 SCT025 BKN040 25/21 A2984 BECMG=
200711252200 METAR MROC 252200Z 23009KT 9999 SCT025 SCT040 24/21 A2985 BECMG=
200711252300 METAR MROC 252300Z 26007KT 6000 -RA BR SCT005 SCT030 BKN100 22/21 A2987 BECMG 7000 -RA FG=
200711260000 METAR MROC 260000Z 22006KT 6000 VCFG FEW005 BKN030 21/21 A2989 BECMG=
200711260100 METAR MROC 260100Z 34002KT 7000 VCFG FEW002 BKN030 21/20 A2992 BECMG=
200711260200 METAR MROC 260200Z 09004KT CAVOK 20/19 A2993 BECMG=
200711260300 METAR MROC 260300Z 10007KT CAVOK 21/17 A2994 RMK TRACE ST SC FEW250 BECMG=
200711260400 METAR MROC 260400Z 34002KT CAVOK 20/17 A2994 RMK TRACE ST SC BECMG=
200711260500 METAR MROC 260500Z 32005KT 9999 VCFG FEW003 20/19 A2993 RMK 6000SW BECMG=
200711260600 METAR MROC 260600Z 34002KT CAVOK 19/18 A2991 RMK TRACE SC ST BECMG=
200711260700 METAR MROC 260700Z 04003KT CAVOK 18/17 A2990 RMK TRACE ST SC BECMG=
200711260800 METAR MROC 260800Z 32004KT 9999 FEW012 18/17 A2988=
200711260900 METAR MROC 260900Z 12002KT 9999 VCFG SCT008 17/16 A2988 RMK VIS 7000SSW=
200711261000 METAR MROC 261000Z 03005KT 9999 FEW015 18/17 A2991 RMK LTNG S SSW=
200711261100 METAR MROC 261100Z 02005KT 9999 FEW015 SCT100 18/16 A2992=
200711261200 METAR MROC 261200Z 06005KT CAVOK 18/16 A2994 RMK SCT120 TRACE SC=
200711261300 METAR MROC 261300Z 05005KT CAVOK 21/17 A2996 RMK TRACE SC SCT110 BECMG=
200711261400 METAR MROC 261400Z 11002KT CAVOK 24/18 A2998 RMK TRACE SC BKN100 BECMG VRB03KT=
200711261500 METAR MROC 261500Z 31003KT 9999 SCT020 BKN110 26/18 A2998 RMK RN DST NE BECMG=
200711261600 METAR MROC 261600Z 12005KT 9999 FEW025 SCT110 BKN250 27/18 A2995 BECMG=
200711261700 METAR MROC 261700Z 11010KT 9999 FEW025 SCT110 BKN250 28/18 A2992 BECMG=
200711261800 METAR MROC 261800Z 11008KT 9999 FEW025 SCT110 BKN250 29/18 A2989 BECMG=
200711261900 METAR MROC 261900Z 24010KT 9999 SCT030 SCT250 26/20 A2987 BECMG=
200711262000 METAR MROC 262000Z VRB03KT 9999 SCT025TCU SCT250 26/21 A2987 RMK RN DST NW BECMG=
200711262100 METAR MROC 262100Z 23008KT 9999 SCT020TCU SCT035 25/21 A2987 BECMG 5000 VCSH=
200711262200 METAR MROC 262200Z 11005KT 9999 FEW010TCU BKN035 24/16 A2990 BECMG RMK RN S=
200711262300 METAR MROC 262300Z 11012KT 9999 FEW030 BKN100 23/16 A2990 BECMG=
200711270000 METAR MROC 270000Z 02002KT 9999 FEW030 BKN100 22/17 A2993 BECMG RMK CB DST W=
200711270100 METAR MROC 270100Z 09006KT 9999 FEW030 SCT120 22/17 A2996 BECMG=
200711270200 METAR MROC 270200Z 04007KT 9999 FEW035 SCT120 21/17 A2997 BECMG=
200711270300 METAR MROC 270300Z 07005KT 9999 FEW040 SCT120 21/17 A2998 BECMG=
200711270400 METAR MROC 270400Z 10008KT 9999 FEW040 SCT120 21/17 A2998 BECMG=
200711270500 METAR MROC 270500Z 10014KT 9999 FEW035 SCT120 21/17 A2995 BECMG=
200711270600 METAR MROC 270600Z 10016KT 9999 FEW030 SCT120 22/17 A2995 BECMG=
200711270700 METAR MROC 270700Z 09014KT 9999 FEW030 SCT120 22/17 A2994 BECMG=
200711270800 METAR MROC 270800Z 06004KT CAVOK 22/17 A2993 RMK TRAZAS SC/AC SCT250 BECMG=
200711270900 METAR MROC 270900Z 09006KT CAVOK 21/17 A2993 RMK TRAZAS SC/AC SCT250 BECMG=
200711271000 METAR MROC 271000Z 09012KT CAVOK 22/17 A2993 RMK TRAZAS SC/AC SCT250 BECMG=
200711271100 METAR MROC 271100Z 09011KT 9999 FEW030 SCT250 22/17 A2996 BECMG=
200711271200 METAR MROC 271200Z 09012KT 9999 FEW030 SCT100 BKN250 22/17 A2996 RMK RN DST N/NE BECMG=
200711271300 METAR MROC 271300Z 09014KT 9999 FEW030 SCT100 BKN250 22/16 A2998 RMK RN DST N NE=
200711271400 METAR MROC 271400Z 09017KT 9999 FEW030 SCT100 BKN250 23/16 A3001 BECMG RMK RN N NE RAFAGAS 24KT=
200711271500 METAR MROC 271500Z 06019G30KT 9999 FEW030 SCT100 BKN250 24/15 A3001 BECMG RMK RN N NE=
200711271600 METAR MROC 271600Z 12011KT 9999 -RA FEW035 SCT100 BKN250 24/15 A2999 BECMG=
200711271700 METAR MROC 271700Z 09010KT 9999 FEW035 BKN110 25/15 A3000 RERA BECMG=
200711271800 METAR MROC 271800Z 07009KT 9999 SCT035 BKN110 25/15 A2999 BECMG=
200711271900 METAR MROC 271900Z 08012KT 9999 SCT035 BKN110 25/17 A2996 BECMG=
200711272000 METAR MROC 272000Z 08011KT 9999 FEW035 SCT110 BKN250 24/17 A2993 BECMG=
200711272100 METAR MROC 272100Z 10010KT 9999 FEW035 BKN100 25/17 A2991 DZ NE BECMG=
200711272200 METAR MROC 272200Z 08011KT 9999 FEW030 BKN100 24/16 A2992 DZ N BECMG=
200711272300 METAR MROC 272300Z 08009KT 9999 -RA FEW939 BKN100 23/16 A2995 BECMG=
200711280000 METAR MROC 280000Z 09008KT 9999 FEW030 BKN100 22/16 A2995 BECMG=
200711280100 METAR MROC 280100Z 10012KT 9999 FEW035 SCT110 22/17 A2998 BECMG=
200711280200 METAR MROC 280200Z 10011KT 9999 FEW035 BKN120 22/17 A2998 LTNG DIST S BECMG=
200711280300 METAR MROC 280300Z 09011KT 9999 FEW025 BKN120 22/17 A3000 BECMG=
200711280400 METAR MROC 280400Z 11007KT 9999 FEW035 SCT120 21/17 A3000 BECMG=
200711280500 METAR MROC 280500Z 11011KT 9999 FEW035 SCT120 22/17 A2999 BECMG=
200711280600 METAR MROC 280600Z 11009KT 9999 FEW035 21/16 A2998=
200711280700 METAR MROC 280700Z 11008KT 9999 FEW035 21/16 A2997=
200711280800 METAR MROC NIL=
200711280900 METAR MROC 280900Z 09005KT 9999 FEW035 SCT120 21/16 A2994=
200711281000 METAR MROC 281000Z 09007KT 9999 FEW035 SCT120 21/16 A2995=
200711281100 METAR MROC 281100Z 08007KT 9999 FEW035 SCT120 21/15 A2996=
200711281200 METAR MROC 281200Z 08007KT 9999 FEW030 BKN270 22/17 A2996=
200711281300 METAR MROC 281300Z 07011KT 9999 FEW025 BKN270 23/15 A2997 BECMG=
200711281400 METAR MROC 281400Z 08014KT 9999 FEW025 BKN270 24/15 A2999 DZ N NE BECMG=
200711281500 METAR MROC 281500Z 07015KT CAVOK 25/14 A2999 TRAZAS SCT FEW130 SCT270 BECMG=
200711281600 METAR MROC 281600Z 06017KT CAVOK 26/14 A2999 TRAZAS SCT FEW100 SCT270 BECMG=
200711281700 METAR MROC 281700Z 07014KT CAVOK 26/13 A2998 TRAZAS SCT SCT100 SCT270 BECMG=
200711281800 METAR MROC 281800Z 06016KT CAVOK 26/13 A2996 SCT100 SCT270 TRAZAS SCT BECMG=
200711281900 METAR MROC 281900Z 06014KT CAVOK 26/13 A2993 SCT100 BKN270 TRAZAS SCT=
200711282000 METAR MROC 282000Z 08011KT 9999 FEW040 BKN100 26/15 A2990 BECMG=
200711282100 METAR MROC 282100Z 09009KT 9999 BKN045 SCT100 25/16 A2990 DZ N NE BECMG=
200711282200 METAR MROC 282200Z 09010KT 9999 SCT035 BKN120 24/16 A2991 RMK DZ DST NNE NE BECMG=
200711282300 METAR MROC 282300Z 10009KT 9999 SCT035 BKN250 23/16 A2992 RMK DZ DST NE FEW140 BECMG=
200711290000 METAR MROC 290000Z 07010KT 9999 FEW030 SCT120 22/15 A2993 BECMG=
200711290100 METAR MROC 290100Z 10008KT 9999 FEW030 22/16 A2996 RMK FEW120 BECMG=
200711290200 METAR MROC 290200Z 10011KT 9999 FEW030 22/16 A2997 BECMG=
200711290300 METAR MROC 200300Z 10010KT 9999 FEW030 22/16 A2998 BECMG=
200711290400 METAR MROC 290400Z 09010KT 9999 FEW030 22/16 A2999 BECMG=
200711290500 METAR MROC 290500Z 10009KT 9999 FEW030 SCT100 22/16 A2999 BECMG=
200711290600 METAR MROC 290600Z 09007KT 9999 FEW030 SCT120 22/15 A2999 BECMG=
200711290700 METAR MROC NIL=
200711290800 METAR MROC 290800Z 09007KT 9999 FEW030 SCT120 21/14 A2996=
200711290900 METAR MROC 290900Z 09008KT CAVOK 20/14 A2995 RMK TRACE SC SCT120=
200711291000 METAR MROC 291000Z 09007KT CAVOK 20/15 A2995 RMK TRACE SC SCT120=
200711291100 METAR MROC 291100Z 10015KT CAVOK 21/14 A2993 RMK TRACE SC SCT120=
200711291200 METAR MROC 291200Z 10011KT 9999 FEW030 SCT100 BKN250 20/15 A2995=
200711291300 METAR MROC 291300Z 10014KT CAVOK 22/15 A2998 RMK TRACE SC FEW120 BKN250=
200711291400 METAR MROC 291400Z 10012KT CAVOK 24/15 A3000 RMK TRACE SC BKN250 GUST 18KT BECMG=
200711291500 METAR MROC 291500Z 10013KT 9999 FEW035 BKN250 25/15 A3000 RMK GUST 19KT=
200711291600 METAR MROC 291600Z 10013KT 9999 FEW040 BKN250 26/15 A2999 RMK GUST 20KT=
200711291700 METAR MROC 291700Z 10017KT 9999 FEW040 BKN250 27/13 A2997 RMK GUST 23KT=
200711291800 METAR MROC 291800Z 09014KT 9999 FEW040 BKN250 27/14 A2995 RMK GUST 21KT BECMG=
200711291900 METAR MROC 291900Z 08011G21KT 9999 FEW035 BKN250 27/15 A2993 BECMG=
200711292000 METAR MROC 292000Z 06016KT 9999 FEW035 BKN250 26/16 A2992 BECMG=
200711292100 METAR MROC 292100Z 05012KT 9999 FEW030 BKN070 26/15 A2991 RMK LGT HZ TO SW BECMG=
200711292200 METAR MROC 292200Z 07010KT 9999 DZ SCT030 BKN070 21/18 A2994 RERA BECMG=
200711292300 METAR MROC 292300Z 08007KT 9999 FEW030 SCT080 22/16 A2995 REDZ BECMG=
200711300000 METAR MROC 300000Z 08008KT 9999 FEW035 SCT090 21/15 A2996 BECMG=
200711300100 METAR MROC 300100Z 07011KT 9999 FEW035 SCT100 22/14 A2998 BECMG=
200711300200 METAR MROC 300200Z 08018KT 9999 FEW035 SCT120 21/14 A2999 BECMG=
200711300300 METAR MROC 300300Z 08014KT CAVOK 21/13 A3001 SCT280 BECMG=
200711300400 METAR MROC 300400Z 09010G25KT CAVOK 21/13 A3000 TRAZAS SCT SCT280 BECMG=
200711300500 METAR MROC 300500Z 08015KT CAVOK 21/13 A2998 RMK RAFAGAS DE 22KT SCT280 BECMG=
200711300600 METAR MROC 300600Z 09012KT CAVOK 21/12 A2998 RMK RAFAGAS 21KT FEW110 SCT280 BECMG=
200711300700 METAR MROC 300700Z 10014KT CAVOK 20/14 A2997 SCT280 BECMG=
200711300800 METAR MROC 300800Z 100014KT CAVOK 20/15 A2995 SCT280=
200711300900 METAR MROC NIL=
200711301000 METAR MROC 301000Z 19915KT CAVOK 20/12 A2997 SCT280=
200711301100 METAR MROC 301100Z 09015KT CAVOK 20/13 A2998 FEW100 SCT280=
200711301200 METAR MROC 301200Z 09014KT CAVOK 20/11 A3000 TRAZAS SCT FEW100 SCT280 CB DST S DZ NE BECMG=
200711301300 METAR MROC 301300Z 09008KT CAVOK 21/11 A3002 RMK BKN250 BECMG=
200711301400 METAR MROC 301400Z 10012KT CAVOK 21/12 A3002 RMK BKN250 BECMG=
200711301500 METAR MROC 301500Z 11013G24KT CAVOK 22/13 A3004 RMK TRACE SC BKN250 BECMG=
200711301600 METAR MROC 301600Z 10010G20KT CAVOK 25/07 A3004 RMK TRACE SC BKN250 BECMG=
200711301700 METAR MROC 301700Z 09010G20KT CAVOK 27/11 A3001 RMK TRACE SC BKN250 BECMG=
200711301800 METAR MROC 301800Z 07012KT 9999 FEW035 SCT250 27/14 A2999 BECMG=
200711301900 METAR MROC 301900Z 07013G25KT 9999 FEW035 SCT250 26/16 A2998 BECMG=
200711302000 METAR MROC 302000Z 08014KT 9999 FEW035 BKN070 24/16 A2996 FEW CI BECMG=
200711302100 METAR MROC 302100Z 08013KT 9999 SCT025 SCT100 25/13 A2996 BECMG=
200711302200 METAR MROC 302200Z 07013KT 9999 SCT030 BKN250 23/12 A2998 BECMG=
200711302300 METAR MROC 302300Z 10013KT 9999 SCT030 BKN250 22/13 A2998 BECMG=
200712010000 METAR MROC 010000Z 11014KT 9999 FEW030 BKN250 21/14 A2999 RMK GUST 23KT BECMG=
200712010100 METAR MROC 010100Z 08015KT 9999 FEW030 BKN250 21/14 A3001 BECMG=
200712010200 METAR MROC 010200Z 10014KT CAVOK 20/14 A3002 BECMG=
200712010300 METAR MROC 010300Z 10011KT CAVOK 20/14 A3004 RMK SCT250 BECMG=
200712010400 METAR MROC 010400Z 10013KT CAVOK 20/14 A3004 RMK SCT250 BECMG=
200712010500 METAR MROC 010500Z 10012KT CAVOK 20/14 A3003 RMK TRACE SC SCT250 BECMG=
200712010600 METAR MROC 010600Z 10013KT CAVOK 19/14 A3001 RMK SCT250 BECMG=
200712010700 METAR MROC 010700Z 11012KT CAVOK 19/14 A2999 RMK TRACE CI=
200712010800 METAR MROC 010800Z 10015KT CAVOK 20/14 A2997 RMK TRACE SC=
200712010900 METAR MROC 010900Z 10014KT CAVOK 20/13 A2997 RMK TRACE SC=
200712011000 METAR MROC 011000Z 10011KT CAVOK 20/13 A2998 RMK TRACE SC=
200712011100 METAR MROC 011100Z 10013KT CAVOK 19/14 A2999=
200712011200 METAR MROC 011200Z 11015KT CAVOK 19/14 A3001 RMK TRACE SC SCT250=
200712011300 METAR MROC 011300Z 11012KT CAVOK 22/14 A3003 RMK TRACE SC SCT250 BECMG=
200712011400 METAR MROC 011400Z 11013KT CAVOK 25/14 A3004 RMK TRACE SC SCT250 BECMG=
200712011500 METAR MROC 011500Z 08014KT CAVOK 26/14 A3004 RMK TRACE SC SCT250 BECMG=
200712011600 METAR MROC 011600Z 09018KT 9999 FEW035 SCT250 25/15 A3002 BECMG=
200712011700 METAR MROC 011700Z 07014KT 9999 FEW030 SCT250 26/15 A3002 BECMG=
200712011800 METAR MROC 011800Z 09010KT 9999 FEW025 SCT250 28/15 A2999 BECMG=
200712011900 METAR MROC 011900Z 09013KT 9999 SCT025 SCT050 27/15 A2997 RMK DZ NE BECMG=
200712012000 METAR MROC 012000Z 07012KT 9999 SCT025 BKN080 26/16 A2996 BECMG=
200712012100 METAR MROC 012100Z 07007KT 9999 SCT025 BKN080 25/15 A2996 BECMG=
200712012200 METAR MROC 012200Z 10012KT 9999 SCT030 BKN080 25/15 A2995 BECMG=
200712012300 METAR MROC 012300Z 08010KT 9999 SCT035 BKN100 23/15 A2997 BECMG=
200712020000 METAR MROC 020000Z 10006KT 9999 FEW035 SCT100 21/13 A3000 BECMG=
200712020100 METAR MROC 020100Z 12004KT CAVOK 20/14 A3003 BECMG RMK TRAZAS SC=
200712020200 METAR MROC 020200Z 06008KT CAVOK 20/14 A3004 BECMG=
200712020300 METAR MROC 020300Z 09012KT CAVOK 20/14 A3005 RMK TRACE SC FEW120 BECMG=
200712020400 METAR MROC 020400Z 09010G20KT CAVOK 20/13 A3006 TRACE SCT FEW120 BECMG=
200712020500 METAR MROC 020500Z 08012G22KT CAVOK 20/13 A3005 RMK TRACE SC=
200712020600 METAR MROC 020600Z 10009KT CAVOK 19/13 A3002 RMK TRACE SC BECMG=
200712020700 METAR MROC 020700Z 10010KT CAVOK 19/13 A3000 RMK TRACE SC BECMG=
200712020800 METAR MROC 020800Z 10008KT CAVOK 19/14 A3000 RMK TRACE SC=
200712020900 METAR MROC 020900Z 07006KT CAVOK 19/13 A3000 RMK TRACE SC=
200712021000 METAR MROC 021000Z 05008KT CAVOK 18/13 A3000 RMK TRACE SC=
200712021100 METAR MROC 021100Z 10010G20KT CAVOK 19/13 A3002 RMK TRACE SC AC=
200712021200 METAR MROC 021200Z 02003KT CAVOK 18/13 A3003 RMK TRACE SC AC=
200712021300 METAR MROC 021300Z 10012KT CAVOK 20/14 A3003 RMK TRACE SC=
200712021400 METAR MROC 021400Z 09014KT CAVOK 24/12 A3005 RMK TRACE SC CI=
200712021500 METAR MROC 021500Z 10019KT CAVOK 25/12 A3005 RMK TRACE SC CU CI=
200712021600 METAR MROC 021600Z 09012KT 9999 FEW040 27/10 A3005 BECMG=
200712021700 METAR MROC 021700Z 09011KT 9999 FEW040 27/12 A3004 BECMG=
200712021800 METAR MROC 021800Z 10011KT 9999 SCT035 28/13 A3002 BECMG=
200712021900 METAR MROC 021900Z 10005KT 9999 SCT035 28/12 A2999 BECMG=
200712022000 METAR MROC 022000Z 12006KT 9999 SCT035 28/12 A2997 BECMG=
200712022100 METAR MROC 022100Z 21005KT 9999 SCT030 25/19 A2996 BECMG=
200712022200 METAR MROC 022200Z 24010KT 9999 SCT030 24/19 A2997 BECMG=
200712022300 METAR MROC 022300Z 24008KT 9999 FEW012 SCT035 22/19 A2999 BECMG=
200712030000 METAR MROC 030000Z 02003KT 9999 FEW040 21/18 A3002 BECMG=
200712030100 METAR MROC 030100Z 08007KT 9999 FEW040 20/15 A3004 BECMG=
200712030200 METAR MROC 030200Z 05008KT CAVOK 20/13 A3008 TRACE SCT BECMG=
200712030300 METAR MROC 030300Z 03007KT CAVOK 20/13 A3009 RMK TRACE SC BECMG=
200712030400 METAR MROC 030400Z 10008KT CAVOK 20/14 A3008 RMK TRACE SC BECMG=
200712030500 METAR MROC 030500Z 09007KT CAVOK 20/14 A3007 RMK TRACE SC BECMG=
200712030600 METAR MROC 030600Z 06007KT CAVOK 20/14 A3006 RMK TRACE SC BECMG=
200712030700 METAR MROC 030700Z 08007KT CAVOK 19/14 A3004 RMK TRACE SC BECMG=
200712030800 METAR MROC 030800Z 03006KT CAVOK 19/13 A3002 RMK TRACE SC BECMG=
200712030900 METAR MROC 030900Z 06006KT CAVOK 20/12 A3002 RMK TRACE SC BECMG=
200712031000 METAR MROC 031000Z 05012KT CAVOK 19/12 A3003 RMK TRACE SC BECMG=
200712031100 METAR MROC 031100Z 02005KT CAVOK 19/12 A3003 RMK TRACE SC BECMG=
200712031200 METAR MROC 031200Z 03010KT CAVOK 19/12 A3005 RMK TRACE SC SCT250 BECMG=
200712031300 METAR MROC 031300Z 03007KT CAVOK 21/12 A3007 TRAZAS SCT BKN280 BECMG=
200712031400 METAR MROC 031400Z 09012KT CAVOK 24/11 A3007 TRAZAS SC/AC/CI BECMG=
200712031500 METAR MROC 031500Z 10013KT CAVOK 25/12 A3008 TRAZAS SCT AC BECMG=
200712031600 METAR MROC 031600Z 10012KT CAVOK 26/13 A3008 TRAZAS SCT FEW130 BECMG=
200712031700 METAR MROC 031700Z 10011KT 9999 FEW035 27/13 A3005 FEW130 BECMG=
200712031800 METAR MROC 031800Z 10010KT 9999 FEW030 27/13 A3003 BECMG=
200712031900 METAR MROC 031900Z 11007KT 9999 FEW025 29/14 A3000 BECMG=
200712032000 METAR MROC 032000Z 17006KT 9999 SCT045 SCT080 27/16 A2998 BECMG 22006KT=
200712032100 METAR MROC 032100Z 08006KT 9999 SCT030 SCT110 28/15 A2997 RMK FEW250 BECMG=
200712032200 METAR MROC 032200Z 10012KT 9999 SCT045 24/10 A2997 RMK FEW120 GUST 18KT=
200712032300 METAR MROC 032300Z 09010KT 9999 FEW015 SCT250 23/13 A2999 RMK FEW120 BECMG=
200712040000 METAR MROC 040000Z 10007KT 9999 FEW030 BKN250 22/13 A3002 BECMG=
200712040100 METAR MROC 040100Z 07007KT CAVOK 21/15 A3004 TRACE SCT FEW120 BECMG=
200712040200 METAR MROC 040200Z 10010KT CAVOK 21/15 A3006 TRACE SCT BECMG=
200712040300 METAR MROC 040300Z 10008KT CAVOK 20/15 A3007 BECMG RMK TRACE SC FEW120=
200712040400 METAR MROC 040400Z 07007KT CAVOK 20/15 A3008 BECMG RMK TRACE SC FEW120=
200712040500 METAR MROC 040500Z 07005KT CAVOK 19/14 A3007 BECMG RMK TRACE SC LTNG DST SW FEW120=
200712040600 METAR MROC 040600Z 10005KT CAVOK 19/15 A3006 BECMG RMK TRACE SC FEW120=
200712040700 METAR MROC 040700Z 09005KT CAVOK 18/14 A3004 BECMG RMK TRACE SC FEW120 SCT250 LTNG DST S=
200712040800 METAR MROC 040800Z 07008KT CAVOK 19/14 A3003 RMKTRACE SCT FEW120 SCT250=
200712040900 METAR MROC 040900Z 06003KT CAVOK 17/13 A3002 RMK TRACE SC FEW120 SCT250=
200712041000 METAR MROC 041000Z 09006KT CAVOK 18/14 A3001 RMK TRACE SC FEW120 SCT250=
200712041100 METAR MROC 041100Z 05009KT CAVOK 18/14 A3002 RMK TRACE SC FEW120 SCT250=
200712041200 METAR MROC 041200Z 07008KT CAVOK 19/14 A3003 RMK TRACE SC FEW120 SCT250=
200712041300 METAR MROC 041300Z 08007KT CAVOK 20/14 A3006 RMK BKN250 BECMG=
200712041400 METAR MROC 041400Z 09011KT CAVOK 22/14 A3006 RMK BKN250 BECMG=
200712041500 METAR MROC 041500Z 08013KT CAVOK 24/13 A3006 RMK BKN250 BECMG=
200712041600 METAR MROC 041600Z 09007KT CAVOK 26/15 A3005 RMK BKN250 BECMG=
200712041700 METAR MROC 041700Z 10012KT CAVOK 27/15 A3002 RMK TRACE CU BKN250=
200712041800 METAR MROC 041800Z 08008KT 9999 FEW040 SCT250 28/11 A2999 BECMG=
200712041900 METAR MROC 041900Z 24009KT 9999 SCT040 27/17 A2998 RMK FEW250 BECMG=
200712042000 METAR MROC 042000Z 24011KT 9999 SCT020TCU SCT030 26/17 A2995 RMK RN DST SW=
200712042100 METAR MROC NIL=
200712042200 METAR MROC 042200Z 01005KT 9999 -TSRA FEW020CB SCT035 BKN100 21/18 A2998 RMK TS NW BECMG=
200712042300 METAR MROC 042300Z 00000KT 9999 FEW020 SCT035 BKN140 20/18 A2999 RETS BECMG=
200712050000 METAR MROC 050000Z 00000KT 9999 FEW035 BKN140 20/17 A3001 BECMG=
200712050100 METAR MROC 050100Z 07003KT 9999 FEW015 SCT045 BKN150 20/17 A3003 RMK LGT HZ ARND BECMG=
200712050200 METAR MROC 050200Z 00000KT 9999 FEW020 SCT050 BKN150 20/18 A3005 BECMG=
200712050300 METAR MROC 050300Z 01004KT 9999 FEW045 SCT080 BKN270 20/17 A3006 BECMG=
200712050400 METAR MROC 050400Z 12003KT 9999 SCT045 SCT080 20/17 A3006 BECMG=
200712050500 METAR MROC 050500Z 05003KT CAVOK 19/17 A3006 FEW080 BECMG=
200712050600 METAR MROC 050600Z 06004KT CAVOK 18/16 A3004 RMK SCT080 BECMG=
200712050700 METAR MROC 050700Z 05004KT CAVOK 17/16 A3001 RMK SCT080 BECMG=
200712050800 METAR MROC 050800Z 04004KT CAVOK 17/15 A3000 TRAZAS SC FEW080=
200712050900 METAR MROC NIL=
200712051000 METAR MROC 051000Z 05005KT CAVOK 17/15 A2999 TRAZAS SC=
200712051100 METAR MROC 051100Z 05008KT 9999 SKC 17/14 A3000=
200712051200 METAR MROC 051200Z 04005KT CAVOK 17/15 A3001 TRAZAS SC/CI=
200712051300 METAR MROC 051300Z 06005KT CAVOK 20/16 A3004 RMK TRACE SC BECMG=
200712051400 METAR MROC 051400Z 05005KT CAVOK 22/16 A3005 RMK TRACE SC CI BECMG=
200712051500 METAR MROC 051500Z 09006KT CAVOK 24/16 A3006 RMK TRACE CU CI=
200712051600 METAR MROC 051600Z 22005KT 9999 FEW035 24/17 A3005 RMK FEW250 BECMG=
200712051700 METAR MROC 051700Z 23006KT 9999 SCT035 26/17 A3003 BECMG=
200712051800 METAR MROC 051800Z 23009KT 9999 BKN035 25/18 A3001 BECMG=
200712051900 METAR MROC 051900Z 24009KT 9999 FEW025TCU SCT035 26/18 A2997 BECMG=
200712052000 METAR MROC 052000Z 23010KT 9999 FEW025TCU SCT035 25/18 A2995 BECMG=
200712052100 METAR MROC 052100Z 23011KT 9999 SCT025TCU SCT040 25/19 A2995 RMK RN DST NE E SE BECMG=
200712052200 METAR MROC 052200Z 23008KT 9999 FEW015 SCT025 BKN100 22/19 A2997 RMK RN N NE BECMG=
200712052300 METAR MROC 052300Z 21007KT 8000 VCFG FEW010 SCT020 BKN100 21/19 A2999 BECMG 6000 VCFG FEW005=
200712060000 METAR MROC 060000Z 23005KT 8000 -RA FEW008 SCT020 OVC100 20/19 A3001 BECMG 6000 VCFG FEW005=
200712060100 METAR MROC 060100Z 17002KT 4000 BR FEW002 SCT020 OVC100 20/19 A3005 BECMG=
200712060200 METAR MROC 060200Z 00000KT 9999 FEW010 SCT025 BKN100 20/19 A3006 BECMG=
200712060300 METAR MROC 060300Z 00000KT 9999 SCT015 SCT100 19/18 A3008 RMK DUE ST SW=
200712060400 METAR MROC 060400Z 27002KT 9999 FEW015 19/18 A3008 RMK FEW100 DUE ST SW=
200712060500 METAR MROC 060500Z 28002KT 9999 FEW025 19/18 A3006 RMK TRACE ST AC BECMG=
200712060600 METAR MROC 060600Z 07002KT 9999 4000W BR SCT004 SCT015 18/17 A3005 BECMG=
200712060700 METAR MROC 060700Z 03003KT 9999 FEW015 18/17 A3001 BECMG=
200712060800 METAR MROC 060800Z 02005KT CAVOK 18/16 A2999 RMK TRACE SC=
200712060900 METAR MROC 060900Z 11003KT CAVOK 17/16 A3000 TRACE SCT=
200712061000 METAR MROC 061000Z 06005KT CAVOK 19/16 A3001 RMK TRCE SC=
200712061100 METAR MROC 061100Z 01005KT 9999 FEW035 18/15 A3002=
200712061200 METAR MROC 061200Z 02005KT 9999 FEW030 SCT250 18/15 A3004 RMK RN DST NE E=
200712061300 METAR MROC 061300Z 36007KT 9999 FEW030 SCT250 21/16 A3006 BECMG=
200712061400 METAR MROC 061400Z 10010KT 9999 FEW030 SCT250 23/17 A3008 BECMG=
200712061500 METAR MROC 061500Z 11014KT 9999 FEW030 SCT250 25/17 A3008 BECMG=
200712061600 METAR MROC 061600Z 11011KT 9999 FEW030 BKN250 27/17 A3008 BECMG=
200712061700 METAR MROC 061700Z 07010KT 9999 SCT025 BKN250 28/16 A3007=
200712061800 METAR MROC 061800Z 12008KT 9999 SCT035 BKN110 25/16 A3005 BECMG 24006KT=
200712061900 METAR MROC 061900Z 04017KT 9999 SCT030 BKN120 26/15 A3001 BECMG=
200712062000 METAR MROC 062000Z 09016KT 9999 FEW025 SCT100 BKN250 26/15 A2999 BECMG=
200712062100 METAR MROC 062100Z 09009G20KT FEW035 SCT100 BKN250 25/15 A2999 BECMG=
200712062200 METAR MROC 062200Z 11006KT 9999 FEW035 SCT100 BKN250 24/16 A3001 BECMG=
200712062300 METAR MROC 062300Z 03008KT 9999 FEW035 SCT100 BKN250 23/17 A3004 BECMG=
200712070000 METAR MROC 070000Z 09006KT 9999 FEW035 BKN150 22/15 A3003 BECMG=
200712070100 METAR MROC 070100Z 03007KT 9999 FEW035 SCT150 22/15 A3008 BECMG=
200712070200 METAR MROC 070200Z 09006KT 9999 FEW035 SCT150 22/15 A3011 BECMG=
200712070300 METAR MROC 070300Z 10011KT 9999 FEW035 SCT160 21/15 A3011 BECMG=
200712070400 METAR MROC 070400Z 11008KT 9999 FEW035 SCT150 21/15 A3011 BECMG=
200712070500 METAR MROC 070500Z 11009KT CAVOK 21/15 A3009 RMK TRACE SC SCT150=
200712070600 METAR MROC 070600Z 11009KT CAVOK 21/14 A3008 RMK TRACE SC SCT150 BECMG=
200712070700 METAR MROC 070700Z 09004KT CAVOK 20/14 A3006 RMK TRACE SC SCT150 BECMG=
200712070800 METAR MROC 070800Z 10003KT CAVOK 19/14 A3005 RMK TRACE SC SCT170=
200712070900 METAR MROC 070900Z 05006KT CAVOK 20/14 A3004 RMK TRACE SC FEW160=
200712071000 METAR MROC 071000Z 10004KT CAVOK 19/14 A3004 RMK TRACE SC FEW180=
200712071200 METAR MROC 071200Z 11010KT CAVOK 19/14 A3007 RMK TRACE SC SCT140 FEW250 CB DIST S SSE=
200712071300 METAR MROC 071300Z 10011KT CAVOK 20/14 A3010 BECMG RMK CB DST S SCT140 FEW250=
200712071400 METAR MROC 071400Z 11009KT CAVOK 21/15 A3012 BECMG RMK CB DST S SCT120 SCT250=
200712071500 METAR MROC 071500Z 08012KT 9999 FEW035 SCT120 BKN250 25/14 A3012 BECMG=
200712071600 METAR MROC 071600Z 06013KT 9999 FEW035 SCT120 BKN250 26/14 A3011 BECMG=
200712071700 METAR MROC 071700Z 09010KT 9999 FEW035 BKN120 25/16 A3010 BECMG RMK DZ NE=
200712071800 METAR MROC 071800Z 06009KT 9999 FEW035 BKN120 24/15 A3008 BECMG=
200712071900 METAR MROC 071900Z 08008KT 9999 FEW035 BKN120 26/15 A3005 BECMG=
200712072000 METAR MROC 072000Z 09006KT 9999 FEW030 BKN120 26/16 A3003 BECMG=
200712072100 METAR MROC 072100Z 07009KT 9999 FEW030 SCT045 26/15 A3001 DZ N NE BECMG=
200712072200 METAR MROC 072200Z 07011KT 9999 FEW030 SCT045 25/15 A3001 SCT250 BECMG=
200712072300 METAR MROC 072300Z 07010KT 9999 FEW035 SCT270 23/14 A3002 BECMG=
200712080000 METAR MROC 080000Z 08007KT 9999 FEWW040 SCT270 22/14 A3004 BECMG=
200712080100 METAR MROC 080100Z 12007KT 9999 FEW035 SCT270 21/15 A3006 BECMG=
200712080200 METAR MROC 080200Z 10007KT 9999 FEW035 SCT270 20/14 A3008 BECMG=
200712080300 METAR MROC 080300Z 13007KT CAVOK 19/14 A3009 BECMG=
200712080400 METAR MROC 080400Z 11009KT CAVOK 19/14 A3009 BECMG=
200712080500 METAR MROC 080500Z 10005KT CAVOK 19/14 A3007=
200712080600 METAR MROC 080600Z 11005KT CAVOK 18/13 A3006 RMK TRACE SC=
200712080700 METAR MROC 080700Z 10005KT CAVOK 18/13 A3003 RMK TRACE SC=
200712080800 METAR MROC 080800Z 10009KT CAVOK 18/13 A3000 RMK TRACE SC=
200712080900 METAR MROC 080900Z 08010KT CAVOK 19/13 A2998 RMK TRACE SC=
200712081000 METAR MROC 081000Z 09010KT CAVOK 20/13 A2998 RMK TRACE SC=
200712081100 METAR MROC 081100Z 10014KT CAVOK 20/13 A2999 RMK TRACE SC=
200712081200 METAR MROC 081200Z 09011KT 9999 FEW025 SCT080 BKN250 19/13 A3000 BECMG=
200712081300 METAR MROC 081300Z 09012KT 9999 FEW025 BKN280 19/14 A3002 BECMG=
200712081400 METAR MROC 081400Z 09013KT 9999 FEW025 SCT280 23/15 A3004 BECMG=
200712081500 METAR MROC 081500Z 07013KT CAVOK 25/14 A3004 TRAZAS SCT SCT280 BECMG=
200712081600 METAR MROC 081600Z 08014KT 9999 SCT035 BKN280 26/14 A3004 DZ N NE BECMG=
200712081700 METAR MROC 081700Z 08009KT 9999 FEW020 SCT045 BKN280 27/16 A3003 DZ N NE BECMG=
200712081800 METAR MROC 081800Z 09011KT 9999 FEW045 SCT080 BKN280 26/16 A3000 DZ N NE BECMG=
200712081900 METAR MROC 081900Z 11013KT 9999 FEW030 SCT070 BKN280 25/17 A2998 DZ N NE BECMG=
200712082000 METAR MROC 082000Z 10010KT 9999 FEW045 SCT080 24/16 A2996 DZ N NE E BECMG=
200712082100 METAR MROC 082100Z 10012KT 9999 FEW035 SCT250 26/16 A2993 BECMG=
200712082200 METAR MROC 082200Z 11010KT 9999 SCT035 23/17 A2993 RMK FEW120 FEW250 RN DST NE=
200712082300 METAR MROC 082300Z 10010KT 9999 SCT035 SCT100 23/17 A2994 RMK RN DST NE=
200712090000 METAR MROC 090000Z 10011KT 9999 SCT035 SCT120 22/17 A2995 RMK RN DST NE BECMG=
200712090100 METAR MROC 090100Z 10006KT 9999 FEW030 SCT120 22/17 A2997=
200712090200 METAR MROC 090200Z 09006KT 9999 FEW030 BKN130 22/16 A2999 BECMG=
200712090300 METAR MROC 090300Z 10006KT 9999 FEW030 SCT100 22/17 A2999 BECMG=
200712090400 METAR MROC 090400Z 00000KT 9999 FEW030 BKN100 22/17 A2999 BECMG=
200712090500 METAR MROC 090500Z 09008KT 9999 FEW030 BKN100 22/17 A2998 BECMG=
200712090600 METAR MROC 090600Z 36003KT 9999 FEW030 BKN100 22/17 A2997 BECMG=
200712090700 METAR MROC 090700Z 13005KT 9999 FEW030 BKN100 21/17 A2995 BECMG=
200712090800 METAR MROC 090800Z 11007KT 9999 FEW030 BKN100 21/17 A2993=
200712090900 METAR MROC 090900Z 10010KT 9999 FEW035 BKN100 22/17 A2991=
200712091000 METAR MROC NIL=
200712091100 METAR MROC 091100Z 10004KT 9999 FEW035 BKN080 21/17 A2991=
200712091200 METAR MROC 091200Z 09009KT 9999 FEW035 BKN080 21/16 A2992 RMK TRACE ST=
200712091300 METAR MROC 091300Z 11003KT 7000 3000SW -RA BR SCT003 BKN070 21/18 A2996 VIS 3000S SSW=
200712091400 METAR MROC 091400Z 10006KT 9999 FEW035 BKN100 21/18 A2998 RMK RN DST NE BECMG=
200712091500 METAR MROC 091500Z 06014KT 9999 FEW045 SCT120 25/17 A2998 RMK RN DST NE TRACE CI BECMG=
200712091600 METAR MROC 091600Z 07012G22KT 9999 FEW045 SCT250 26/16 A2997 RMK RN DST NE FEW120 BECMG=
200712091700 METAR MROC 091700Z 06012KT 9999 FEW040 SCT120 25/16 A2996 RMK GUST 22KT RN DST NE BECMG=
200712091800 METAR MROC 091800Z 07013G23KT 9999 SCT035 25/14 A2995 RMK FEW120 RN DST NE E BECMG=
200712091900 METAR MROC 091900Z 08010KT 9999 SCT035 25/15 A2992 RMK GUST 17KT FEW120 FEW250 RN DST NE E BECMG=
200712092000 METAR MROC 092000Z 08012KT 9999 FEW040 SCT250 25/16 A2990 RMK RN DST NE BECMG=
200712092100 METAR MROC 092100Z 09008KT 9999 -RA SCT040 SCT070 24/16 A2988 BECMG=
200712092200 METAR MROC 092200Z 11010KT 9999 FEW040 BKN070 23/17 A2988 RMK RN DST N NE BECMG=
200712092300 METAR MROC 092300Z 10008KT 9999 FEW040 SCT070 BKN250 23/17 A2989 BECMG=
200712100000 METAR MROC 100000Z 100004KT 9999 FEW035 BKN070 22/17 A2991 BECMG=
200712100100 METAR MROC 100100Z 07002KT 9999 FEW035 BKN070 22/17 A2994 BECMG=
200712100200 METAR MROC 100200Z 06004KT 9999 FEW040 SCT080 21/16 A2996 BECMG=
200712100300 METAR MROC 100300Z 05004KT 9999 FEW040 SCT070 21/17 A2997 BECMG=
200712100400 METAR MROC 100400Z 09004KT 9999 FEW040 SCT080 21/16 A2997 BECMG=
200712100500 METAR MROC 100500Z 09007KT CAVOK 21/16 A2997 TRAZAS SCT BECMG=
200712100600 METAR MROC 100600Z 09006KT CAVOK 21/15 A2996 TRAZAS SCT BECMG=
200712100700 METAR MROC NIL=
200712100800 METAR MROC 100800Z 09010KT 9999 FEW045 SCT080 21/16 A2992=
200712100900 METAR MROC 100900Z 08008KT CAVOK 21/16 A2992 TRAZAS SC=
200712101000 METAR MROC 101000Z 19998KT CAVOK 20/14 A2991 TRAZAS SC=
200712101100 METAR MROC 101100Z 09007KT CAVOK 20/15 A2992 TRAZAS SCT=
200712101200 METAR MROC 101200Z 12004KT CAVOK 20/15 A2994 TRAZAS SCT FEW250=
200712101300 METAR MROC 101300Z 10009KT 9999 FEW030 22/15 A2995 RMK FEW CI BECMG=
200712101400 METAR MROC 101400Z 10009KT 9999 FEW035 25/15 A2997 BECMG=
200712101500 METAR MROC 101500Z 10014KT 9999 FEW040 26/13 A2997 BECMG=
200712101600 METAR MROC 101600Z 07011KT 9999 FEW045 27/14 A2997 BECMG=
200712101700 METAR MROC 101700Z 08012KT 9999 FEW045 SCT300 28/14 A2995 BECMG=
200712101800 METAR MROC 101800Z 06010G20KT 9999 FEW040 SCT300 28/15 A2992 BECMG=
200712101900 METAR MROC 101900Z 05014KT 9999 FEW040 SCT300 28/15 A2991 BECMG=
200712102000 METAR MROC 102000Z 08011KT 9999 FEW040 SCT300 28/15 A2989 RMK RFGS 18KT BECMG=
200712102100 METAR MROC 102100Z 08007KT 9999 SCT030 BKN090 26/15 A2987 RMK RN N NE BECMG=
200712102200 METAR MROC 102200Z 10007KT 9999 SCT020 SCT080 25/17 A2989 BECMG=
200712102300 METAR MROC 102300Z 08006KT 9999 SCT020 SCT050 23/17 A2989 RMK RN DST N NE E BECMG=
200712110000 METAR MROC 110000Z 09008KT 9999 SCT020 SCT080 22/17 A2992 BECMG=
200712110100 METAR MROC 110100Z 11008KT 9999 FEW020 SCT080 22/17 A2994 BECMG=
200712110200 METAR MROC 110200Z 10007KT 9999 FEW020 SCT080 22/16 A2996 BECMG=
200712110300 METAR MROC 110300Z 11008KT CAVOK 22/16 A2998 RMK TRACE SC SCT100 DZ DST NE BECMG=
200712110400 METAR MROC 110400Z 10010KT 9999 FEW035 SCT100 21/16 A2998 BECMG=
200712110500 METAR MROC 110500Z 08010KT CAVOK 22/16 A2997 RMK TRACE SC SCT100 BECMG=
200712110600 METAR MROC 110600Z 11010KT CAVOK 22/16 A2997 RMK TRACE SC SCT100 BECMG=
200712110700 METAR MROC 110700Z 10009KT 9999 FEW035 22/15 A2995 RMK FEW120 BECMG=
200712110800 METAR MROC 110800Z 08009KT 9999 FEW035 SCT100 21/15 A2994=
200712110900 METAR MROC 110900Z 08011KT 9999 FEW030 SCT100 21/15 A2994=
200712111000 METAR MROC 111000Z 11008KT CAVOK 20/15 A2994 RMK TRACE SC FEW100=
200712111100 METAR MROC 111100Z 08006KT 9999 FEW030 20/15 A2995 RMK FEW250=
200712111200 METAR MROC 111200Z 09010KT 9999 FEW030 BKN250 21/15 A2996 RMK DZ DST NE=
200712111300 METAR MROC 111300Z 10013KT 9999 FEW030 BKN250 22/15 A2996 RMK DZ N NE BECMG=
200712111400 METAR MROC 111400Z 10012KT 9999 FEW025 SCT080 BKN250 22/15 A2999 RMK DZ N NE BECMG=
200712111500 METAR MROC 111500Z 10010KT 9999 FEW025 SCT080 BKN250 24/16 A3001 RMK DZ N NE BECMG=
200712111600 METAR MROC 111600Z 10014KT 9999 SCT025 SCT090 BKN250 26/16 A3001 RMK DZ N NE BECMG=
200712111700 METAR MROC 111700Z 11015KT 9999 SCT030 BKN250 25/15 A2999 RMK DZ N NE BECMG=
200712111800 METAR MROC 111800Z 11012KT 9999 FEW030 BKN080 23/16 A2998 RMK DZ N NE BECMG=
200712111900 METAR MROC 111900Z 08011KT 9999 FEW025 BKN080 25/16 A2994 RMK DZ N NE BECMG=
200712112000 METAR MROC 112000Z 07008KT 9999 SCT020 BKN090 26/14 A2992 RMK DZ N NE BECMG=
200712112100 METAR MROC 112100Z 08010KT 9999 SCT020 BKN100 25/14 A2991 BECMG RMK DZ N NE=
200712112200 METAR MROC 112200Z 08010KT 9999 FEW020 SCT100 25/24 A2991 BECMG TRACE CI=
200712112300 METAR MROC 112300Z 04008KT 9999 FEW020 BKN140 23/14 A2992 BECMG RMK DZ N NE=
200712120000 METAR MROC 120000Z 11008KT 9999 FEW020 BKN140 22/15 A2994 BECMG=
200712120100 METAR MROC 120100Z 07007KT 9999 FEW030 SCT140 22/15 A2997 BECMG=
200712120200 METAR MROC 120200Z 08009KT 9999 FEW030 SCT120 22/14 A2998 BECMG=
200712120300 METAR MROC 120300Z 09009KT 9999 FEW030 BKN250 21/15 A2999 BECMG=
200712120400 METAR MROC 120400Z 08008KT CAVOK 22/14 A2999 RMK TRACE SC BKN250 BECMG=
200712120500 METAR MROC 120500Z 09008KT CAVOK 20/15 A2998 RMK TRACE SC SCT250 BECMG=
200712120600 METAR MROC 120600Z 10011KT CAVOK 20/15 A2996 RMK TRACE SC SCT250 BECMG=
200712120700 METAR MROC 120700Z 09014KT CAVOK 20/14 A2993 RMK TRACE SC SCT250 BECMG=
200712120800 METAR MROC 120800Z 11010KT CAVOK 19/14 A2992 RMK TRACE SC SCT270=
200712120900 METAR MROC 120900Z 00000KT CAVOK 19/14 A2993 RMK TRACE SC BKN270=
200712121000 METAR MROC 121000Z 03007KT CAVOK 18/13 A2993 RMK TRACE SC BKN270=
200712121100 METAR MROC 121100Z 02007KT CAVOK 18/14 A2995 RMK TRACE SC SCT300=
200712121200 METAR MROC 121200Z 04006KT CAVOK 18/14 A2996 RMK TRACE SC AC FEW300=
200712121300 METAR MROC 121300Z 04006KT CAVOK 21/14 A2998 BECMG TRACE SCT SCT250=
200712121400 METAR MROC 121400Z 07004KT 9999 FEW020 SCT300 24/15 A3000 BECMG=
200712121500 METAR MROC 121500Z 08006KT 9999 FEW020 SCT130 BKN250 25/16 A3000 BECMG RMK TCU DST SW=
200712121600 METAR MROC 121600Z 10010KT 9999 FEW030 BKN100 25/16 A2999 BECMG=
200712121700 METAR MROC 121700Z 10008KT 9999 SCT030 BKN100 25/16 A2998 BECMG=
200712121800 METAR MROC 121800Z 11011KT 9999 SCT030 BKN100 25/16 A2996 BECMG=
200712121900 METAR MROC 121900Z 11016KT 9999 SCT030 BKN110 25/15 A2993 BECMG TRACE CI=
200712122000 METAR MROC 122000Z 10013KT 9999 SCT030 SCT110 25/14 A2991 BECMG=
200712122100 METAR MROC 122100Z 10012KT 9999 FEW045 24/13 A2991 TRAZAS AC/CI BECMG=
200712122200 METAR MROC 122200Z 09011KT 9999 FEW045 26/14 A2990 TRAZAS AC CI BECMG=
200712122300 METAR MROC 122300Z 10013KT 9999 SCT040 23/13 A2991 BECMG=
200712130000 METAR MROC 130000Z 10009KT 9999 FEW040 21/14 A2993 BECMG=
200712130100 METAR MROC 130100Z 11011KT 9999 FEW040 21/14 A2994 RMK BECMG CAVOK=
200712130200 METAR MROC 130200Z 10013KT CAVOK 21/14 A2997 BECMG=
200712130300 METAR MROC 130300Z 10011KT CAVOK 20/14 A2999 RMK TRACE SC BECMG=
200712130400 METAR MROC 130400Z 09004KT CAVOK 20/14 A3000 RMK TRACE SC BECMG=
200712130500 METAR MROC 130500Z 06009KT CAVOK 19/15 A3000 RMK TRACE SC BECMG=
200712130600 METAR MROC 130600Z 07006KT CAVOK 19/14 A2998 RMK TRACE SC BECMG=
200712130700 METAR MROC 130700Z 07004KT CAVOK 19/14 A2997=
200712130800 METAR MROC 130800Z 02007KT CAVOK 19/14 A2994 RMK TRACE SC BECMG=
200712130900 METAR MROC 130900Z 02003KT CAVOK 19/14 A2995 RMK TRACE SC BECMG=
200712131000 METAR MROC 131000Z 06008KT CAVOK 18/14 A2995 RMK TRACE SC BECMG=
200712131100 METAR MROC 131100Z 06004KT CAVOK 17/14 A2996 RMK TRACE SC BECMG=
200712131200 METAR MROC 131200Z 06004KT CAVOK 18/17 A2997 RMK TRACW SC CI BECMG=
200712131300 METAR MROC 131300Z 09003KT CAVOK 21/14 A3001 TRAZAS SCT BECMG=
200712131400 METAR MROC 131400Z 09010KT CAVOK 23/15 A3001 TRAZAS SCT BECMG=
200712131500 METAR MROC 131500Z 09011KT CAVOK 24/14 A3001 TRAZAS SCT BECMG=
200712131600 METAR MROC 131600Z 10012KT CAVOK 25/14 A3001 TRAZAS SCT BECMG=
200712131700 METAR MROC 131700Z 11009KT 9999 FEW040 27/14 A2998 BECMG=
200712131800 METAR MROC 131800Z 11006KT 9999 SCT040 28/15 A2995 BECMG=
200712131900 METAR MROC 131900Z 22006KT 9999 FEW035 SCT045 26/16 A2993 BECMG 7000 VCSH=
200712132000 METAR MROC 132000Z 22005KT 9999 FEW035 SCT046 26/18 A2991 BECMG=
200712132100 METAR MROC 132100Z 27010KT 9999 SCT030 SCT050 25/18 A2990 RMK BECMG 7000 VCSH=
200712132200 METAR MROC 132200Z 23007KT 9999 FEW030 SCT040 23/19 A2991 BECMG=
200712132300 METAR MROC 132300Z 24007KT 9999 SCT030 SCT250 22/19 A2993 BECMG=
200712140000 METAR MROC 140000Z 22003KT 9999 FEW030 SCT250 21/18 A2994 BECMG=
200712140100 METAR MROC 140100Z 23003KT 9999 SCT030 20/19 A2997 RMK BECMG 04007KT CAVOK=
200712140200 METAR MROC 140200Z 07003KT 9999 FEW030 20/16 A2999 BECMG=
200712140300 METAR MROC 140300Z 08008KT 9999 FEW030 21/16 A3001 BECMG=
200712140400 METAR MROC 140400Z 04007KT 9999 FEW030 20/16 A3001 BECMG=
200712140500 METAR MROC 140500Z 05004KT 9999 FEW035 19/15 A3001 BECMG=
200712140600 METAR MROC 140600Z 05007KT CAVOK 19/15 A3000 BECMG TRACE SCT=
200712140700 METAR MROC 140700Z 07007KT CAVOK 19/14 A2998 BECMG TRACE SCT AC=
200712140800 METAR MROC 140800Z 06008KT CAVOK 18/14 A2997 RMK TRACE SC FEW120=
200712140900 METAR MROC 140900Z 05012KT CAVOK 18/14 A2995 RMK TRACE SC FEW120=
200712141000 METAR MROC 141000Z 04009KT CAVOK 18/13 A2996 RMK TRACE SC FEW120=
200712141100 METAR MROC 141100Z 36007KT CAVOK 16/11 A2997 RMK TRACE SC FEW120=
200712141200 METAR MROC 141200Z 07007KT CAVOK 14/09 A2998 RMK TRACE SC FEW120=
200712141300 METAR MROC 141300Z 05007KT CAVOK 20/12 A3000 RMK SCT250=
200712141400 METAR MROC 141400Z 08008KT CAVOK 23/12 A3001 RMK SCT250 TCU DST SSW BECMG=
200712141500 METAR MROC 141500Z 10010KT CAVOK 26/12 A3000 RMK FEW300 BECMG=
200712141600 METAR MROC 141600Z 10012KT CAVOK 26/11 A2999 RMK TRACE CI BECMG=
200712141700 METAR MROC 141700Z 10011KT CAVOK 27/11 A2997 RMK TRACE SC CI=
200712141800 METAR MROC 141800Z 11009KT CAVOK 28/12 A2995 RMK TRACE CU CI=
200712141900 METAR MROC 141900Z 09010KT 9999 FEW040 28/12 A2992 BECMG=
200712142000 METAR MROC 142000Z 24009KT 9999 SCT035 26/17 A2991 BECMG=
200712142100 METAR MROC 142100Z 23009KT 9999 SCT035 26/19 A2990 BECMG=
200712142200 METAR MROC 142200Z 22009KT 9999 SCT035 24/19 A2989 BECMG=
200712142300 METAR MROC 142300Z 21005KT 9999 SCT025 22/20 A2992 HZ LGTA ARND BECMG=
200712150000 METAR MROC 150000Z 23005KT 9999 SCT005 BKN030 21/19 A2994 RMK VIS SSW SW 8KMS DUE HZ=
200712150100 METAR MROC 150100Z 00000KT 9999 VCFG SCT007 BKN035 21/19 A2997 VIS SW 8KM DUE HZ BECMG 07005KT=
200712150200 METAR MROC 150200Z 11003KT 9999 SCT035 20/18 A2999 BECMG=
200712150300 METAR MROC 150300Z 08003KT CAVOK 19/18 A3001 TRAZAS SCT BECMG=
200712150400 METAR MROC 150400Z 09005KT CAVOK 19/15 A3002 TRAZAS SCT BECMG=
200712150500 METAR MROC 150500Z 09005KT CAVOK 18/14 A3001 TRAZAS SCT BECMG=
200712150600 METAR MROC 150600Z 06007KT CAVOK 18/14 A2999 TRAZAS SCT BECMG=
200712150700 METAR MROC NIL=
200712150800 METAR MROC NIL=
200712150900 METAR MROC 150900Z 06011KT CAVOK 18/12 A2994 TRAZAS SC=
200712151000 METAR MROC 151000Z 05011KT CAVOK 17/12 A2995 TRAZAS SCT=
200712151100 METAR MROC 151100Z 04007KT CAVOK 16/12 A2997 TRAZAS SCT=
200712151200 METAR MROC 151200Z 05010KT CAVOK 15/11 A2998 TRAZAS SCT=
200712151300 METAR MROC 151300Z 06008KT CAVOK 20/12 A2999 RMK TRACE SC CI BECMG=
200712151400 METAR MROC 151400Z 06005KT CAVOK 23/12 A3000 RMK TRACE SC AC BECMG=
200712151500 METAR MROC 151500Z 22007KT CAVOK 24/15 A3001 RMK TRACE CU FEW080 BECMG=
200712151600 METAR MROC 151600Z 25007KT 9999 FEW045 SCT130 25/17 A3001 BECMG=
200712151700 METAR MROC 151700Z 25009KT 9999 FEW040 BKN080 26/16 A2999 BECMG=
200712151800 METAR MROC 151800Z 24008KT 9999 FEW030 BKN070 26/17 A2996 BECMG=
200712151900 METAR MROC 151900Z 28009KT 9999 FEW017TCU SCT030 BKN070 26/16 A2994 RMK PCPN DST NE BECMG=
200712152000 METAR MROC 152000Z 22007KT 9999 FEW017TCU SCT030 BKN070 24/19 A2991 BECMG=
200712152100 METAR MROC 152100Z 23010KT 9999 SCT010TCU SCT030 BKN250 23/20 A2990 RMK RN N BECMG 5000 VCSH=
200712152200 METAR MROC 152200Z 24008KT 9999 SCT020 BKN250 23/20 A2990 BECMG=
200712152300 METAR MROC 152300Z 23006KT 8000 VCFG FEW010 SCT020 BKN250 21/19 A2992 BECMG=
200712160000 METAR MROC 160000Z 23004KT 8000 VCFG FEW008 SCT015 BKN250 20/19 A2994 BECMG=
200712160100 METAR MROC 160100Z 22003KT 8000 VCFG FEW005 SCT015 BKN250 20/19 A2996 BECMG=
200712160200 METAR MROC 160200Z 00000KT 9999 SCT030 SCT250 20/18 A2999 BECMG 06005KT=
200712160300 METAR MROC 160300Z 09003KT 9999 FEW020 SCT250 20/18 A2999 BECMG=
200712160400 METAR MROC 160400Z 10003KT 9999 FEW030 19/18 A2999 RMK DUE ST SW W BECMG=
200712160500 METAR MROC 160500Z 29002KT 9999 FEW005 19/18 A2999 RMK FEW030 DUE ST SW W BECMG=
200712160600 METAR MROC 160600Z 00000KT 9999 3000SW BR SCT004 18/17 A2998=
200712160700 METAR MROC 160700Z 01003KT 7000 3000SW BR FEW003 BKN005 18/17 A2997=
200712160800 METAR MROC 160800Z 04004KT 9999 VCFG SCT005 17/16 A2995 RMK VIS 7000 SW=
200712160900 METAR MROC 160900Z 04005KT 9999 FEW015 16/15 A2994 RMK FEW250 DUE ST SW=
200712161000 METAR MROC 161000Z 04006KT CAVOK 17/14 A2994 RMK FEW250=
200712161100 METAR MROC 161100Z 06007KT CAVOK 17/14 A2994 RMK FEW250=
200712161200 METAR MROC 161200Z 03005KT CAVOK 17/14 A2996 RMK TRACE CI=
200712161300 METAR MROC 161300Z 05006KT CAVOK 20/15 A2999 RMK TRACE SC=
200712161400 METAR MROC 161400Z 01003KT CAVOK 23/15 A3000 RMK TRACE SC CI BECMG 24006KT=
200712161500 METAR MROC 161500Z 27004KT 9999 FEW030 SCT250 25/16 A3000 BECMG=
200712161600 METAR MROC 161600Z 24004KT 9999 FEW030 SCT250 26/17 A2999 BECMG=
200712161700 METAR MROC 161700Z 21007KT 9999 SCT030 SCT250 26/18 A2998 BECMG=
200712161800 METAR MROC 161800Z 24010KT 9999 SCT030 SCT250 27/18 A2996 RMK RN DST N BECMG=
200712161900 METAR MROC 161900Z 26009KT 9999 SCT025TCU SCT250 27/19 A2993 RMK RN N BECMG=
200712162000 METAR MROC 162000Z 24008KT 9999 -RA SCT020TCU BKN090 25/20 A2990 RMK BECMG 7000 VCSH RASH NE E=
200712162100 METAR MROC 162100Z 09008KT 9999 -DZ FEW030 BKN100 25/18 A2989 BECMG=
200712162200 METAR MROC 162200Z 23007KT 9999 FEW030 SCT100 BKN250 25/19 A2990 BECMG=
200712162300 METAR MROC 162300Z 23006KT 9999 FEW030 SCT100 BKN250 22/20 A2992 BECMG=
200712170000 METAR MROC 170000Z 24006KT 9999 FEW030 SCT100 21/19 A2995 BECMG=
200712170100 METAR MROC 170100Z 29004KT 9999 FEW025 SCT120 21/19 A2998 BECMG=
200712170200 METAR MROC 170200Z 28003KT 9999 3000SW BR FEW004 SCT025 BKN100 21/19 A3000 BECMG=
200712170300 METAR MROC 170300Z 08005KT 9999 FEW030 SCT110 21/18 A3000 RMK LTNG DST S BECMG=
200712170400 METAR MROC 170400Z 32003KT 9999 FEW030 SCT120 21/18 A3001 BECMG=
200712170500 METAR MROC 170500Z 08004KT 9999 FEW030 SCT060 21/17 A3000 BECMG=
200712170600 METAR MROC 170600Z 09005KT CAVOK 21/17 A2998 RMK TRACE SC SCT080 BECMG=
200712170700 METAR MROC 170700Z 36003KT CAVOK 20/17 A2996 RMK TRACE SC SCT100 BECMG=
200712170800 METAR MROC 170800Z 00000KT CAVOK 20/17 A2995 RMK TRACE SC FEW120=
200712170900 METAR MROC 170900Z 31004KT CAVOK 20/17 A2995 RMK TRACE ST FEW080=
200712171000 METAR MROC 171000Z 05005KT CAVOK 20/16 A2995 RMK TRACE SC FEW120=
200712171100 METAR MROC 171100Z 08005KT CAVOK 21/19 A2997 RMK TRACE SC SCT070=
200712171200 METAR MROC 171200Z 10006KT 9999 -RA VCSH FEW030 BKN090 21/17 A2998 VIS 6KMS NE ENE=
200712171300 METAR MROC 171300Z 03003KT 9999 FEW030 BKN090 21/18 A3000 BECMG RMK DZ N NE=
200712171400 METAR MROC 171400Z 02004KT 9999 SCT030 BKN100 24/18 A3002 BECMG RMK DZ N NE=
200712171500 METAR MROC 171500Z 10010KT 9999 SCT030 BKN100 24/17 A3002 BECMG RMK DZ N NE=
200712171600 METAR MROC 171600Z 08006KT 9999 SCT025 BKN100 25/17 A3001 BECMG RMK DZ N NE S=
200712171700 METAR MROC 171700Z 06013KT 9999 SCT025 BKN110 27/16 A3000 BECMG RMK RN NE SE S=
200712171800 METAR MROC 171800Z 07011KT 9999 SCT025 BKN110 27/15 A2998 BECMG=
200712171900 METAR MROC 171900Z 07014KT 9999 FEW035 SCT110 26/15 A2995 RMK GUST 24KT=
200712172000 METAR MROC 172000Z 13007KT 9999 FEW035 SCT110 26/16 A2993 BECMG=
200712172100 METAR MROC 172100Z 07012KT 9999 FEW045 25/14 A2992 DZ NE BECMG=
200712172200 METAR MROC NIL=
200712172300 METAR MROC 172300Z 07005KT 9999 FEW045 23/14 A2995 BECMG=
200712180000 METAR MROC 180000Z 07007KT 9999 FEW045 22/15 A2998 BECMG=
200712180100 METAR MROC 180100Z 06005KT CAVOK 21/15 A3000 TRAZAS SCT FEW090 BECMG=
200712180200 METAR MROC 180200Z 10008KT CAVOK 22/15 A3002 TRAZAS SCT FEW080 BKN120 BECMG=
200712180300 METAR MROC 180300Z 10008KT CAVOK 22/15 A3004 RMK TRACE SC FEW080 SCT120=
200712180400 METAR MROC 180400Z 10008KT CAVOK 21/16 A3005 RMK TRACE SC SCT120 BECMG=
200712180500 METAR MROC 180500Z 11008KT CAVOK 21/15 A3004 BECMG=
200712180600 METAR MROC 180600Z 10004KT CAVOK 20/15 A3002 BECMG=
200712180700 METAR MROC 180700Z 02004KT CAVOK 20/16 A3001 BECMG=
200712180800 METAR MROC 180800Z 36003KT CAVOK 20/16 A2999 RMK TRACE SC=
200712180900 METAR MROC 180900Z 03002KT CAVOK 20/16 A2998 RMK SCT080=
200712181000 METAR MROC 181000Z 09003KT CAVOK 20/16 A2999 RMK SCT080=
200712181100 METAR MROC 181100Z 11007KT CAVOK 21/16 A3000 RMK SCT080=
200712181200 METAR MROC 181200Z 10009KT 9999 FEW030 20/15 A3001 BECMG=
200712181300 METAR MROC 181300Z 09010KT 9999 FEW035 22/15 A3004 BECMG=
200712181400 METAR MROC 181400Z 08011KT CAVOK 24/13 A3006 TRAZAS SCT BECMG=
200712181500 METAR MROC 181500Z 08010KT CAVOK 26/13 A3005 TRAZAS SCT BECMG=
200712181600 METAR MROC 181600Z 09011KT CAVOK 27/14 A3004 TRAZAS SCT BECMG=
200712181700 METAR MROC 181700Z 08012KT 9999 FEW035 27/15 A3002 BECMG=
200712181800 METAR MROC 181800Z 07012KT 9999 SCT035 27/15 A3001 DZ NE BECMG=
200712181900 METAR MROC 181900Z 07012KT 9999 FEW035 28/14 A2998 BECMG=
200712182000 METAR MROC 182000Z 10009KT 9999 FEW035 SCT080 28/14 A2995 BECMG=
200712182100 METAR MROC 182100Z 06012KT 9999 FEW035 BKN100 26/15 A2995 BECMG=
200712182200 METAR MROC 182200Z 08004KT 9999 FEW035 26/15 A2995 RMK FEW100 BECMG=
200712182300 METAR MROC 182300Z 22008KT 9999 FEW030 22/20 A2998 RMK DUE ST SW BECMG 7000 VCFG=
200712190000 METAR MROC 190000Z 26006KT 9999 VCFG FEW004 BKN012 21/20 A3001 RMK VIS 6000SW BECMG=
200712190100 METAR MROC 190100Z 21003KT 9999 VCFG FEW004 SCT030 20/19 A3003 RMK VIS 7000SW=
200712190200 METAR MROC 190200Z 11002KT 9999 VCFG FEW030 19/18 A3007 RMK BECMG CAVOK=
200712190300 METAR MROC 190300Z 09004KT 9999 FEW035 19/14 A3008 BECMG=
200712190400 METAR MROC 190400Z 08005KT CAVOK 10/15 A3008 BECMG RMK TRACE SC AC=
200712190500 METAR MROC 190500Z 08009KT CAVOK 20/14 A3006 BECMG TRACE SCT AC=
200712190600 METAR MROC 190600Z 08009KT CAVOK 19/14 A3005 BECMG RMK TRACE SC AC=
200712190700 METAR MROC 190700Z 08008KT CAVOK 19/14 A3003 BECMG RMK TRACE SC AC=
200712190800 METAR MROC 190800Z 09007KT CAVOK 19/14 A3001 RMK TRAVE SC AC=
200712190900 METAR MROC 190900Z 08007KT CAVOK 18/14 A3000 RMK TRACE SC AC=
200712191000 METAR MROC 191000Z 09008KT 9999 20/14 A2999 TRACE SCT SCT=
200712191100 METAR MROC 191100Z 09008KT CAVOK 20/14 A3001 RMK TRACE SC FEW120=
200712191200 METAR MROC 191200Z 10009KT 9999 FEW040 SCT080 19/15 A3001=
200712191300 METAR MROC 191300Z 10009KT CAVOK 21/14 A3004 RMK TRACE SC BECMG=
200712191400 METAR MROC 191400Z 09010KT CAVOK 23/14 A3004 RMK TRACE SC BECMG=
200712191500 METAR MROC 191500Z 09012KT 9999 FEW040 26/14 A3005 BECMG=
200712191600 METAR MROC 191600Z 10014KT 9999 FEW040 26/14 A3005 BECMG=
200712191700 METAR MROC 191700Z 07016KT 9999 FEW035 27/15 A3003 RMK GUST 23KT=
200712191800 METAR MROC 191800Z 05020KT 9999 FEW035 27/14 A3001 BECMG=
200712191900 METAR MROC 191900Z 06014KT 9999 FEW035 28/13 A2998 BECMG=
200712192000 METAR MROC 192000Z 06021KT 9999 FEW035 27/10 A2996 BECMG=
200712192100 METAR MROC 192100Z 06017KT 9999 FEW040 27/09 A2994 RMK RFGS 24KT BECMG=
200712192200 METAR MROC 192200Z 05016KT 9999 FEW040 25/09 A2995 BECMG=
200712192300 METAR MROC 192300Z 050017KT 9999 FEW040 FEW040 24/10 A2996 BECMG=
200712200000 METAR MROC 200000Z 07008KT 9999 FEW035 22/12 A2998 BECMG=
200712200100 METAR MROC 200100Z 11005KT CAVOK 20/14 A3000 RMK TRACE SC=
200712200200 METAR MROC 200200Z 12005KT CAVOK 21/15 A3002 BECMG=
200712200300 METAR MROC 200300Z 09007KT 9999 SCT045 21/15 A3004 BECMG=
200712200400 METAR MROC 200400Z 09008KT CAVOK 20/15 A3004 FEW060 BECMG=
200712200500 METAR MROC 200500Z 10007KT 9999 FEW045 SCT080 20/15 A3002 BECMG=
200712200600 METAR MROC 200600Z 09008KT 9999 SCT045 21/14 A3000 BECMG=
200712200700 METAR MROC NIL=
200712200800 METAR MROC NIL=
200712200900 METAR MROC 200900Z 11011KT 9999 FEW045 SCT100 20/15 A2994=
200712201000 METAR MROC 201000Z 10010KT 9999 FEW045 BKN100 20/15 A2994=
200712201100 METAR MROC 201100Z 09006KT CAVOK 19/15 A2995 TRAZAS SCT=
200712201200 METAR MROC 201200Z 08006KT CAVOK 19/15 A2997 TRAZAS SC/AC=
200712201300 METAR MROC 201300Z 11007KT 9999 FEW045 SCT100 20/15 A2999 RMK DZ DST N NE BECMG=
200712201400 METAR MROC 201400Z 11008KT 9999 FEW045 BKN100 22/16 A3000 RMK PCPN DST N NE BECMG=
200712201500 METAR MROC 201500Z 05005KT CAVOK 26/15 A3000 RMK TRACE SC SCT120 BECMG=
200712201600 METAR MROC 201600Z 12006KT CAVOK 28/14 A2999 RMK FEW050 SCT100 BECMG=
200712201700 METAR MROC 201700Z 10008KT CAVOK 29/16 A2998 RMK SCT050 FEW100 BECMG=
200712201800 METAR MROC 201800Z 23012KT 9999 SCT045 26/18 A2995 BECMG=
200712201900 METAR MROC 201900Z 24009KT 9999 FEW035 SCT045 26/19 A2993 BECMG=
200712202000 METAR MROC 202000Z 23010KT 9999 FEW025TCU SCT040 26/19 A2990 BECMG=
200712202100 METAR MROC 202100Z 21008KT 9999 FEW015TCU SCT025 25/19 A2988 RMK BECMG 5000 VCSH=
200712202200 METAR MROC 202200Z 24009KT 9999 SCT010TCU SCT025 25/20 A2990 RMK RN DST NE BECMG=
200712202300 METAR MROC 202300Z 22008KT 9999 4000NE RA SCT010TCU SCT025 21/20 A2991 RMK BECMG RERA=
200712210000 METAR MROC 210000Z 25006KT 9999 SCT005 0VC090 20/19 A2993 RERA RMK VIS NE 7KM DUE RN BECMG=
200712210100 METAR MROC 210100Z 00000KT 8000 -DZ SCT004 BKN090 20/19 A2996 BECMG=
200712210200 METAR MROC 210200Z 00000KT 6000 VCFG SCT004 BKN090 20/19 A2997 VIS NE UNL=
200712210300 METAR MROC 210300Z 28003KT 9999 VCFG SCT003 SCT090 20/19 A2998 RMK VIS 6000SW W BECMG 06004KT=
200712210400 METAR MROC 210400Z 00000KT 9999 FEW007 SCT100 20/19 A2999 RMK DUE ST SW HZ SW W TRACE SC=
200712210500 METAR MROC 210500Z 03002KT 9999 FEW008 SCT100 19/18 A2997 RMK DUE ST SW HZ SW W VIS 8000SW=
200712210600 METAR MROC 210600Z 02004KT CAVOK 18/17 A2996 RMK TRACE SC SCT120=
200712210700 METAR MROC 210700Z 32003KT CAVOK 19/17 A2994 RMK FEW120=
200712210800 METAR MROC 210800Z 01007KT CAVOK 18/16 A2993 RMK TRACE SC FEW250=
200712210900 METAR MROC 210900Z 34005KT CAVOK 17/16 A2992 RNK TRACE AC=
200712211000 METAR MROC 211000Z 01005KT CAVOK 18/15 A2993 RMK SCT250 TRACE SC=
200712211100 METAR MROC 211100Z 09003KT CAVOK 18/15 A2994=
200712211200 METAR MROC 211200Z 09003KT CAVOK 19/15 A2995=
200712211300 METAR MROC 211300Z 05003KT CAVOK 20/15 A2998 RMK TRACE SC BECMG=
200712211400 METAR MROC 211400Z 31004KT CAVOK 22/16 A2999 RMK TRACE SC BECMG=
200712211500 METAR MROC 211500Z 26005KT 9999 FEW030 24/17 A3000 BECMG=
200712211600 METAR MROC 211600Z 08008KT 9999 SCT030 27/15 A2999 BECMG=
200712211700 METAR MROC 211700Z 10010KT 9999 FEW030 28/15 A2997 BECMG=
200712211800 METAR MROC 211800Z 12005KT 9999 SCT030 26/18 A2995 BECMG=
200712211900 METAR MROC 211900Z 24005KT 9999 SCT025 26/18 A2992 BECMG=
200712212000 METAR MROC 212000Z 23009KT 9999 SCT025 26/19 A2989 RMK RN N BECMG=
200712212100 METAR MROC 212100Z 24010KT 9999 SCT020 BKN100 24/19 A2988 BECMG=
200712212200 METAR MROC 212200Z 23005KT 9999 -RA FEW010 SCT020 BKN100 23/20 A2988 BECMG=
200712212300 METAR MROC 212300Z 00000KT 7000 2000SW BR FEW001 SCT020 BKN100 21/20 A2990 BECMG RMK VIS E UNL=
200712220000 METAR MROC 220000Z 24004KT 9999 3000SW VCFG FEW002 SCT020 BKN100 21/20 A2992 BECMG=
200712220100 METAR MROC 220100Z 08003KT 9999 FEW015 OVC080 21/19 A2994 BECMG=
200712220200 METAR MROC 220200Z 31002KT 9999 FEW015 BKN090 21/19 A2995 LTNG DIST W BECMG=
200712220300 METAR MROC 220300Z 00000KT 9999 FEW020 BKN080 21/19 A2997 BECMG=
200712220400 METAR MROC 220400Z 30003KT 9999 FEW025 BKN070 21/18 A2997 BECMG=
200712220500 METAR MROC 220500Z 31004KT 9999 FEW025 BKN070 21/18 A2997 BECMG=
200712220600 METAR MROC 220600Z 32003KT 9999 SCT030 BKN060 20/18 A2996 BECMG=
200712220700 METAR MROC 220700Z 00000KT 9999 SCT035 BKN060 20/18 A2994 BECMG=
200712220800 METAR MROC 220800Z 00000KT 9999 SCT035 BKN060 20/18 A2992=
200712220900 METAR MROC 220900Z 00000KT 9999 SCT035 BKN070 20/18 A2991=
200712221000 METAR MROC 221000Z 06005KT 9999 FEW035 SCT070 20/17 A2991=
200712221100 METAR MROC 221100Z 10009KT 9999 FEW035 SCT090 20/16 A2991=
200712221200 METAR MROC 221200Z 11013KT 9999 FEW035 SCT070 21/16 A2994 RMK PCPN=
200712221300 METAR MROC 221300Z 10011KT 9999 FEW035 BKN100 21/15 A2997 BECMG=
200712221400 METAR MROC 221400Z 08017KT 9999 FEW030 SCT100 23/15 A2997 BECMG=
200712221500 METAR MROC 221500Z 09013KT 9999 FEW030 SCT100 23/16 A2998 BECMG=
200712221600 METAR MROC 221600Z 10016KT 9999 FEW030 SCT100 23/15 A2997 BECMG RMK DZ N NE=
200712221700 METAR MROC 221700Z 10015KT 9999 FEW030 BKN100 23/16 A2997 BECMG RMK DZ N NE S=
200712221800 METAR MROC 221800Z 10011KT 9999 SCT030 BKN100 24/16 A2995 BECMG RMK DZ N NE=
200712221900 METAR MROC 221900Z 09013KT 9999 SCT030 BKN100 24/16 A2992 BECMG RMK DZ N NE S=
200712222000 METAR MROC 222000Z 10015KT 9999 SCT030 BKN100 22/17 A2990 BECMG RMK RN N NE E SE S=
200712222100 METAR MROC 222100Z 11009KT 9999 FEW045 BKN080 22/16 A2989 DZ NW N NE E SE BECMG=
200712222200 METAR MROC 222200Z 10009KT 9999 FEW045 BKN080 23/17 A2988 DZ NW N NE E BECMG=
200712222300 METAR MROC 222300Z 10007KT 9999 SCT045 BKN080 22/16 A2990 DZ NW N NE BECMG=
200712230000 METAR MROC 230000Z 05006KT 9999 SCT045 SCT100 22/17 A2991 DZ N NE BECMG=
200712230100 METAR MROC 230100Z 06006KT 9999 FEW045 SCT100 21/17 A2994 BECMG=
200712230200 METAR MROC 230200Z 12003KT 9999 FEW045 BKN100 21/17 A2995 BECMG=
200712230300 METAR MROC 230300Z 12010KT 9999 BKN030 22/14 A2997 BECMG=
200712230400 METAR MROC 230400Z 07005KT 9999 SCT030 21/15 A2998 BECMG=
200712230500 METAR MROC 230500Z 34003KT 9999 SCT030 20/16 A2997 BECMG=
200712230600 METAR MROC 230600Z 06005KT 9999 SCT030 20/16 A2996 BECMG=
200712230700 METAR MROC 230700Z 09009KT 9999 SCT030 21/15 A2993 BECMG=
200712230800 METAR MROC 230800Z 08008KT 9999 FEW030 20/15 A2993=
200712230900 METAR MROC 230900Z 07003KT 9999 FEW030 20/15 A2993=
200712231000 METAR MROC 231000Z 07007KT 9999 FEW030 20/15 A2994=
200712231100 METAR MROC 231100Z 09008KT 9999 FEW030 20/15 A2995=
200712231200 METAR MROC 231200Z 01003KT 9999 FEW030 BKN070 20/16 A2997 RMK DZ N NR BECMG=
200712231300 METAR MROC 231300Z 10015KT 9999 FEW025 BKN100 21/16 A2998 DZ NW N NE E BECMG=
200712231400 METAR MROC 231400Z 10015KT 9999 FEW025 BKN100 21/16 A3000 DZ N/NE/E=
200712231500 METAR MROC 231500Z 08011KT 9999 FEW025 BKN100 23/16 A3001 RMK DZ NW N NE BECMG=
200712231600 METAR MROC 231600Z 10017KT 9999 FEW030 BKN100 23/16 A2998 RAFAGAS 24KT DZ NW N NE BECMG=
200712231700 METAR MROC 231700Z 100018KT 9999 FEW030 SCT100 25/16 A2998 RMK DZ NW N NE RAFAGAS 26KT BECMG=
200712231800 METAR MROC 231800Z 10019KT 9999 FEW030 BKN100 24/16 A2997 DZ N NE NW BECMG=
200712231900 METAR MROC 231900Z 08015KT 9999 FEW030 BKN100 24/15 A2995 RMK DZ NW N NE BECMG=
200712232000 METAR MROC 232000Z 08015KT 9999 FEW030 BKN100 24/15 A2993 RMK DZ NW N NE BECMG=
200712232100 METAR MROC 232100Z 09018G28KT 9999 FEW030 SCT120 24/14 A2992 RMK DZ DST NE N=
200712232200 METAR MROC 232200Z 10017G27KT 9999 FEW030 SCT120 22/14 A2991 RMK DZ DST N NE=
200712232300 METAR MROC 232300Z 08010KT 9999 FEW030 BKN100 21/13 A2994 RMK DZ DST N NE E GUST 15KT BECMG=
200712240000 METAR MROC 240000Z 09013KT 9999 FEW030 BKN100 20/13 A2995 RMK GUST 20KT=
200712240100 METAR MROC 240100Z 09015KT CAVOK 20/13 A2996 RMK TRACE SC SCT100 GUST 22KT=
200712240200 METAR MROC 240200Z 10015G25KT 9999 SCT030 SCT100 20/14 A2997 RMK DZ DST N/NE/E BECMG=
200712240300 METAR MROC 240300Z 10017KT 9999 SCT030 SCT100 20/14 A2998 BECMG RMK RAFAGAS 23KT=
200712240400 METAR MROC 240400Z 10019KT 9999 FEW030 BKN100 20/14 A2997 BECMG=
200712240500 METAR MROC 240500Z 10016KT 9999 FEW030 BKN100 20/14 A2997 BECMG=
200712240600 METAR MROC 240600Z 09013KT 9999 FEW030 BKN120 21/15 A2996 BECMG=
200712240700 METAR MROC 240700Z 11013KT 9999 FEW030 SCT120 20/16 A2992 BECMG=
200712240800 METAR MROC 240800Z 11014KT 9999 FEW035 SCT120 20/15 A2990=
200712240900 METAR MROC 240900Z 07005KT 9999 FEW035 SCT120 20/15 A2990=
200712241000 METAR MROC 241000Z 10017KT 9999 FEW035 SCT120 19/15 A2991=
200712241100 METAR MROC 241100Z 09014KT 9999 FEW035 SCT120 20/15 A2990=
200712241200 METAR MROC 241200Z 08018G28KT 9999 FEW035 SCT120 20/14 A2992 RMK DZ N NE=
200712241300 METAR MROC 241300Z 10015G25KT 9999 FEW025 SCT100 20/13 A2995 RMK DZ DST NE E BECMG=
200712241400 METAR MROC 241400Z 10022G32KT 9999 FEW035 SCT120 21/14 A2996 RMK DZ DST NE E=
200712241500 METAR MROC 241500Z 09020G30KT 9999 FEW035 SCT120 23/14 A2998 RMK DZ DST NE E=
200712241600 METAR MROC 241600Z 09016G26KT 9999 FEW030 SCT120 23/14 A3000 RMK DZ DST NE E=
200712241700 METAR MROC 241700Z 09014KT 9999 FEW035 SCT120 24/15 A2998 RMK DZ DST NE E=
200712241800 METAR MROC 241800Z 08012KT 9999 FEW035 27/16 A2995 RMK FEW120 DZ DST NE E GUST 19KT=
200712241900 METAR MROC 241900Z 11015KT 9999 FEW035 BKN120 23/16 A2992 RMK GUST 21KT RN DST NE E=
200712242000 METAR MROC 242000Z 10011KT 9999 FEW035 BKN100 24/16 A2990 RMK GUST 16KT RN DST N NE E=
200712242100 METAR MROC 242100Z 10008KT 9999 FEW030 BKN050 24/16 A2988 RMK RFGS 14KT PCPN DST NW N NE BECMG=
200712242200 METAR MROC 242200Z 10011KT 9999 FEW030 BKN070 24/16 A2987 RMK RFGS 17KT RMK PCPN DST NW N NE BECMG=
200712242300 METAR MROC 242300Z 09012KT 9999 FEW030 BKN070 22/15 A2989 RMK PCPN DST NW N NE RFGS 17KT=
200712250000 METAR MROC 250000Z 10011KT 9999 FEW030 BKN070 21/15 A2990 RMK PCPN DST NW N NE BECMG=
200712250100 METAR MROC 250100Z 09012KT 9999 FEW030 BKN090 21/16 A2991 BECMG=
200712250200 METAR MROC 250200Z 09008KT 9999 FEW030 SCT090 21/16 A2993 BECMG=
200712250300 METAR MROC 250300Z 09012KT 9999 SCT030 BKN090 21/16 A2993 BECMG=
200712250400 METAR MROC 250400Z 08012KT 9999 SCT025 BKN080 22/16 A2992 BECMG=
200712250500 METAR MROC 250500Z 09017KT 9999 SCT025 BKN080 21/16 A2990 BECMG=
200712250600 METAR MROC 250600Z 10014KT 9999 FEW030 BKN080 22/17 A2989 BECMG=
200712250700 METAR MROC NIL=
200712250800 METAR MROC NIL=
200712250900 METAR MROC NIL=
200712251000 METAR MROC 251000Z 07008KT 9999 FEW045 SCT100 21/17 A2985=
200712251100 METAR MROC 251100Z 04005KT 9999 FEW040 SCT080 22/17 A2986=
200712251200 METAR MROC 251200Z 09009KT 9999 FEW040 SCT080 22/18 A2988 DZ N NE=
200712251300 METAR MROC 251300Z 11004KT 9999 FEW035 BKN070 23/18 A2991 RMK PCPN DST N NE E BECMG=
200712251400 METAR MROC 251400Z 10003KT 9999 SCT030 BKN070 23/17 A2994 RMK RN DST N NE E BECMG=
200712251500 METAR MROC 251500Z 05005KT 9999 DZ FEW030 BKN070 23/18 A2996 RMK RFGS 11KT BECMG=
200712251600 METAR MROC 251600Z 07009KT 9999 -RA SCT025 BKN060 21/19 A2996 RMK VIS NE 8KMS BECMG=
200712251700 METAR MROC 251700Z 09008KT 9999 DZ SCT030 BKN090 21/19 A2994 RMK VIS ENE 8KMS BECMG=
200712251800 METAR MROC 251800Z 09009KT 9999 FEW030 SCT045 BKN080 22/18 A2992 RMK RN DST ENE E SE REDZ BECMG=
200712251900 METAR MROC 251900Z 07012KT 9999 FEW030 BKN100 21/16 A2991 RMK PCPN DST E RFGS 17KT BECMG=
200712252000 METAR MROC 252000Z 09015KT 9999 SCT035 BKN100 22/16 A2986 RMK PCPN DST ENE E RFGST 22KT BECMG=
200712252100 METAR MROC 252100Z 10013KT 9999 SCT030 BKN100 22/16 A2985 RMK DZ DST N NE E BECMG=
200712252200 METAR MROC 252200Z 10015KT 9999 SCT030 BKN100 22/16 A2985 RMK DZ N NE E BECMG=
200712252300 METAR MROC 252300Z 10011KT 9999 FEW030 SCT100 BKN250 22/16 A2986 RMK DS N NE E BECMG=
200712260000 METAR MROC 260000Z 09019KT 9999 FEW030 SCT100 BKN250 21/16 A2985 RMK DZ N NE BECMG=
200712260100 METAR MROC 260100Z 08011KT 9999 FEW030 SCT120 21/14 A2990 BECMG=
200712260200 METAR MROC 260200Z 09016KT 9999 FEW030 SCT120 20/14 A2991 BECMG=
200712260300 METAR MROC 260300Z 10015KT 9999 FEW035 20/15 A2992 RMK GUST 22KT DZ DST NE E TRACE AC=
200712260400 METAR MROC 260400Z 09019KT 9999 FEW035 SCT120 20/15 A2991 RMK GUST 24KT DZ DST NE E BECMG=
200712260500 METAR MROC 260500Z 10018G28KT 9999 FEW035 SCT120 20/16 A2991 RMK DZ DST NE E BECMG=
200712260600 METAR MROC 260600Z 10015KT 9999 FEW035 SCT120 20/16 A2990 RMK GUST 23KT DZ DST NE E BECMG=
200712260700 METAR MROC 260700Z 09016KT 9999 FEW035 20/15 A2987 RMK GUST 22KT=
200712260800 METAR MROC 260800Z 10019KT 9999 FEW035 SCT120 20/14 A2986 RMK GUST 24KT=
200712260900 METAR MROC 260900Z 10016KT 9999 FEW035 SCT120 20/15 A2986 RMK GUST 23KT=
200712261000 METAR MROC 261000Z 10015G25KT 9999 FEW035 SCT120 20/14 A2986 RMK DZ DST NE=
200712261100 METAR MROC 261100Z 10013KT CAVOK 20/13 A2986 RMK TRACE SC SCT120=
200712261200 METAR MROC 261200Z 10018KT CAVOK 20/14 A2987 RMK TRACE SC FEW120 FEW250=
200712261300 METAR MROC 261300Z 09015KT 9999 FEW030 SCT120 21/14 A2989 RMK DZ N NE RFGS 20KT=
200712261400 METAR MROC 261400Z 08015KT 9999 FEW025 23/14 A2991 RMK DZ N NE BECMG=
200712261500 METAR MROC 261500Z 10013KT 9999 FEW025 25/15 A2991 RMK DZ N NE BECMG=
200712261600 METAR MROC 261600Z 10021KT 9999 FEW025 25/14 A2991 RMK DZ N NE BECMG=
200712261700 METAR MROC 261700Z 10017KT 9999 FEW025 26/23 A2990 RMK DZ N NE BECMG=
200712261800 METAR MROC 261800Z 07013KT 9999 FEW025 27/13 A2989 RMK DZ N NE BECMG=
200712261900 METAR MROC 261900Z 07012KT 9999 SCT025 26/15 A2988 RMK DZ N NE BECMG=
200712262000 METAR MROC 262000Z 09014KT 9999 SCT025 27/15 A2985 RMK DZ N NE BECMG=
200712262100 METAR MROC 262100Z 10008KT 9999 SCT025 FEW070 28/14 A2985 BECMG RMK DZ N NE=
200712262200 METAR MROC 262200Z 09011KT 9999 SCT025 SCT070 27/14 A2985 BECMG RMK TRACE CI=
200712262300 METAR MROC 262300Z 11008KT 9999 SCT025 SCT070 24/15 A2987 BECMG=
200712270000 METAR MROC 270000Z 06006KT 9999 FEW035 BKN070 23/16 A2989 BECMG=
200712270100 METAR MROC 270100Z 11005KT 9999 FEW035 SCT080 22/17 A2991 BECMG=
200712270200 METAR MROC 270200Z 07010KT CAVOK 22/15 A2993 SCT080 TRAZAS SCT BECMG=
200712270300 METAR MROC 270300Z 10008KT CAVOK 20/15 A2995 FEW090 TRAZAS SCT BECMG=
200712270400 METAR MROC 270400Z 05008KT CAVOK 20/15 A2994 RMK TRACE SC FEW100 SCT300 BECMG=
200712270500 METAR MROC 270500Z 09012KT CAVOK 20/14 A2993 RMK TRACE SC BKN300 BECMG=
200712270600 METAR MROC 270600Z 10012KT CAVOK 20/14 A2992 RMK TRACE SC BKN300 BECMG=
200712270700 METAR MROC 270700Z 09007KT CAVOK 19/13 A2990 RMK TRACE SC SCT300=
200712270800 METAR MROC 270800Z 05007KT CAVOK 18/13 A2989 RMK TRACE SC SCT300=
200712270900 METAR MROC 270900Z 07006KT CAVOK 18/13 A2989 RMK TRACE SC SCT300=
200712271000 METAR MROC 271000Z 05006KT CAVOK 17/12 A2990 RMK TRACE SC SCT300=
200712271100 METAR MROC 271100Z 08008KT CAVOK 19/14 A2991 RMK TRACE SC BKN270=
200712271200 METAR MROC 271200Z 05007KT CAVOK 18/13 A2993 RMK TRACE SC FEW060 BKN270 CB DST W=
200712271300 METAR MROC 271300Z 04006KT CAVOK 19/14 A2994 BECMG RMK BKN100=
200712271400 METAR MROC 271400Z 10008KT CAVOK 22/13 A2997 BECMG RMK BKN100=
200712271500 METAR MROC 271500Z 09013KT CAVOK 24/12 A2997 BECMG RMK SCT100 SCT250=
200712271600 METAR MROC 271600Z 09009KT CAVOK 24/12 A2997 BECMG RMK SCT100 SCT250=
200712271700 METAR MROC 271700Z 09012KT CAVOK 25/11 A2996 BECMG RMK TRACE SC SCT060 SCT250=
200712271800 METAR MROC 271800Z 10013KT CAVOK 26/12 A2993 BECMG RMK TRACE SC FEW060 BKN250=
200712271900 METAR MROC 271900Z 09010KT 9999 FEW040 BKN250 26/12 A2990 BECMG=
200712272000 METAR MROC 272000Z 12008KT 9999 FEW040 BKN250 26/13 A2987 BECMG=
200712272100 METAR MROC 272100Z 23011KT CAVOK 23/18 A2987 TRAZAS SCT FEW120 BKN250 BECMG=
200712272200 METAR MROC 272200Z 25006KT CAVOK 22/18 A2989 TRAZAS SCT SCT100 BKN250 BECMG=
200712272300 METAR MROC 272300Z 26004KT 9999 FEW030 SCT100 BKN250 22/19 A2991 BECMG=
200712280000 METAR MROC 280000Z 21002KT CAVOK 20/18 A2991 TRAZAS SCT FEW100 BKN250 BECMG=
200712280100 METAR MROC 280100Z 10003KT CAVOK 20/17 A2992 TRAZAS SCT BKN250 BECMG=
200712280200 METAR MROC 280200Z 12004KT CAVOK 19/17 A2996 TRAZAS SCT SCT080 BECMG=
200712280300 METAR MROC 280300Z 10008KT CAVOK 20/16 A2997 RMK TRACE SC SCT250=
200712280400 METAR MROC 280400Z 10009KT CAVOK 20/15 A2997 RMK TRACE SC=
200712280500 METAR MROC 280500Z 09008KT CAVOK 20/14 A2996 RMK TRACE SC=
200712280600 METAR MROC 280600Z 06006KT CAVOK 19/14 A2996 RMK TRACE SC=
200712280700 METAR MROC 280700Z 01006KT CAVOK 19/14 A2995 RMK TRACE SC=
200712280800 METAR MROC NIL=
200712280900 METAR MROC 280900Z 07005KT CAVOK 20/14 A2993 RMK TRACE SC=
200712281000 METAR MROC 281000Z 04006KT CAVOK 19/14 A2993 RMK TRACE SC=
200712281100 METAR MROC 281100Z 05004KT CAVOK 19/15 A2994 RMK TRACE SC=
200712281200 METAR MROC 281200Z 05005KT 9999 FEW025 BKN100 20/15 A2996 RMK RN N NE RASH W=
200712281300 METAR MROC 281300Z 05005KT 9999 FEW025 BKN080 21/16 A2996 RMK DZ NW N NE BECMG=
200712281400 METAR MROC 281400Z 10008KT 9999 FEW025 SCT080 24/17 A2998 DZ N NE BECMG=
200712281500 METAR MROC 281500Z 11012KT 9999 FEW020 25/17 A2997 FEW080 DZ NE BECMG=
200712281600 METAR MROC 281600Z 11015KT 9999 FEW025 BKN080 25/17 A2996 RMK DZ N NE BECMG=
200712281700 METAR MROC 281700Z 11012KT 9999 FEW030 SCT080 25/17 A2994 DZ N NE BECMG=
200712281800 METAR MROC 281800Z 12013KT 9999 FEW025 SCT045 27/18 A2992 RMK RAFAGAS 20KT DZ NW N NE BECMG=
200712281900 METAR MROC 281900Z 12008KT 9999 FEW012 BKN050 24/17 A2990 DZ NW N NE BECMG=
200712282000 METAR MROC 282000Z 11003KT 9999 SCT030 BKN060 26/18 A2989 DZ S SE N NE BECMG=
200712282100 METAR MROC 282100Z 00000KT 9999 SCT030 BKN080 24/18 A2988 RMK DZ DST NE E SE S BECMG 24006KT=
200712282200 METAR MROC 282200Z 00000KT 9999 SCT030 BKN080 22/19 A2989 RMK DZ DST SW SE NE E=
200712282300 METAR MROC 282300Z 33005KT 9999 SCT030 SCT250 21/19 A2991 RMK DZ DST SW NE E=
200712290000 METAR MROC 290000Z 10007KT 9999 FEW030 SCT100 21/16 A2991 RMK DZ DST NE E=
200712290100 METAR MROC 290100Z 10010KT 9999 FEW035 SCT100 22/16 A2992 RMK DZ DST NE=
200712290200 METAR MROC 290200Z 09008KT 9999 SCT035 SCT110 22/16 A2994 RMK DZ DST NE BECMG=
200712290300 METAR MROC 290300Z 09009KT 9999 SCT035 SCT110 22/16 A2994 BECMG=
200712290400 METAR MROC 290400Z 09006KT 9999 FEW035 SCT110 22/17 A2995 BECMG=
200712290500 METAR MROC 290500Z 10012KT 9999 FEW035 SCT120 22/16 A2992 BECMG=
200712290600 METAR MROC 290600Z 08007KT 9999 FEW030 SCT100 21/16 A2992 BECMG=
200712290700 METAR MROC 290700Z 09011KT 9999 FEW035 SCT100 21/16 A2991 BECMG=
200712290800 METAR MROC 290800Z 09012KT 9999 FEW035 SCT120 21/16 A2989=
200712290900 METAR MROC 290900Z 11012KT 9999 FEW035 SCT12 22/17 A2986=
200712291000 METAR MROC 291000Z 10013KT 9999 FEW035 SCT120 22/17 A2987=
200712291100 METAR MROC 291100Z 10011KT 9999 FEW035 SCT120 22/16 A2990=
200712291200 METAR MROC 291200Z 10009KT 9999 FEW030 SCT120 21/16 A2990 RMK DZ N NE CB DST SW=
200712291300 METAR MROC 291300Z 10013KT 9999 FEW030 BKN120 22/16 A2993 RMK GUST 19KT DZ DST N NE E=
200712291400 METAR MROC 291400Z 09011KT 9999 FEW030 25/15 A2995 RMK GUST 17KT FEW120=
200712291500 METAR MROC 291500Z 06018KT 9999 FEW035 24/12 A2996 RMK FEW120 GUST 25KT DZ DST NNE NE E=
200712291600 METAR MROC 291600Z 07016KT 9999 FEW040 26/14 A2996 RMK GUST 24KT=
200712291700 METAR MROC 291700Z 08014G24KT 9999 FEW035 26/15 A2994 RMK FEW120 DZ DST NE=
200712291800 METAR MROC 291800Z 08014KT 9999 FEW030 BKN100 25/16 A2993 RMK GUST 20KT RN DST NE E=
200712291900 METAR MROC 291900Z 10011KT 9999 FEW030 BKN100 25/17 A2989 RMK GUST 17KT DZ DST N NE E=
200712292000 METAR MROC 292000Z 09011G21KT 9999 SCT030 SCT100 25/16 A2987 RMK DZ DST NE E=
200712292100 METAR MROC 292100Z 08012KT 9999 FEW030 BKN080 26/14 A2985 RMK DZ DST NW N NE RFGS 19KT BECMG=
200712292200 METAR MROC 292200Z 09015KT 9999 FEW030 SCT080 24/15 A2985 RMK DZ DST N NE RFGS 22KT BECMG=
200712292300 METAR MROC 292300Z 09012KT 9999 FEW030 SCT070 22/14 A2987 RMK DZ DST N NE RFGS 19KT BECMG=
200712300000 METAR MROC 300000Z 10013KT 9999 FEW035 SCT070 22/14 A2987 BECMG=
200712300100 METAR MROC 300100Z 10015KT CAVOK 21/15 A2990 RMK TRACE SC SCT130 BECMG=
200712300200 METAR MROC 300200Z 10016KT CAVOK 22/13 A2991 RMK SCT130 RAFAGAS 21KT BECMG=
200712300300 METAR MROC 300300Z 10016KT CAVOK 21/14 A2993 RMK TRAZAS SC FEW130 RAFAGAS 23KT BECMG=
200712300400 METAR MROC 300400Z 10012KT CAVOK 21/14 A2994 TRAZAS SCT FEW130 BECMG=
200712300500 METAR MROC 300500Z 10013KT CAVOK 22/14 A2994 TRAZAS SCT SCT120 BECMG=
200712300600 METAR MROC 300600Z 10010KT 9999 FEW030 21/15 A2993 RMK DZ DST E BECMG=
200712300700 METAR MROC 300700Z 10010KT 9999 FEW030 SCT120 21/15 A2991 BECMG=
200712300800 METAR MROC 300800Z 10014KT CAVOK 20/16 A2990 BECMG=
200712300900 METAR MROC NIL=
200712301000 METAR MROC 301000Z 10008KT CAVOK 20/15 A2992 FEW250=
200712301100 METAR MROC 301100Z 09009KT CAVOK 20/15 A2993 FEW280=
200712301200 METAR MROC 301200Z 10012KT CAVOK 20/15 A2994 TRAZAS SCT FEW120=
200712301300 METAR MROC 301300Z 100008KT CAVOK 21/15 A2996 RMK TRACE SC AC BECMG=
200712301400 METAR MROC 301400Z 10015KT CAVOK 23/16 A2997 RMK TRACE SC CI BECMG=
200712301500 METAR MROC 301500Z 10013KT 9999 FEW035 24/16 A2998 BECMG=
200712301600 METAR MROC 301600Z 11014KT 9999 FEW035 26/14 A2995 RMK RFGS 20KT BECMG=
200712301700 METAR MROC 301700Z 11014KT 9999 FEW035 SCT300 27/14 A2995 RMK RFGS 20KT BECMG=
200712301800 METAR MROC 301800Z 08012KT 9999 FEW035 28/14 A2993 RMK FEW 300 BECMG=
200712301900 METAR MROC 301900Z 09011KT 9999 FEW035 28/14 A2990 RMK RFGS 17KT=
200712302000 METAR MROC 302000Z 11012KT 9999 FEW040 28/14 A2988 BECMG=
200712302100 METAR MROC 302100Z 10011KT 9999 FEW040 29/14 A2987 BECMG=
200712302200 METAR MROC 302200Z 08013KT 9999 FEW035 26/16 A2987 BECMG=
200712302300 METAR MROC 302300Z 10011KT 9999 FEW030 25/15 A2987 RMK DZ N=
200712310000 METAR MROC 310000Z 08008KT 9999 FEW030 23/16 A2989 BECMG=
200712310100 METAR MROC 310100Z 09007KT 9999 FEW030 22/16 A2991 BECMG=
200712310200 METAR MROC 310200Z 07012KT 9999 FEW030 22/15 A2994 BECMG=
200712310300 METAR MROC 310300Z 09007KT CAVOK 22/14 A2995 RMK TRACE SC GUST 13KT=
200712310400 METAR MROC 310400Z 08013KT CAVOK 22/15 A2996 RMK TRACE SC GUST 17KT=
200712310500 METAR MROC 310500Z 08014KT CAVOK 22/14 A2995 RMK TRCE SC GUST 20KT=
200712310600 METAR MROC 310600Z 10012KT CAVOK 21/15 A2995 RMK TRACE SC=
200712310700 METAR MROC 310700Z 10012G22KT CAVOK 21/15 A2993 RMK TRACE SC SCT250=
200712310800 METAR MROC 310800Z 10012KT CAVOK 21/15 A2992 RMK TRACE SC SCT250 GUST 19KT RELAMPAGOS SSW=
200712310900 METAR MROC 310900Z 10012KT CAVOK 21/15 A2992 RMK TRACE SC SCT250 GUST 18KT RELAMPAGOS SW=
200712311000 METAR MROC 311000Z 11011KT CAVOK 20/15 A2991 RMK TRACE SC SCT250=
200712311100 METAR MROC 311100Z 10014KT CAVOK 21/14 A2993 RMK TRACE SC SCT250 GUST 20KT=
200712311200 METAR MROC 311200Z 10011KT CAVOK 21/15 A2993 RMK TRACE SC SCT12 SCT250 CB DST SW=
200712311300 METAR MROC 311300Z 11012KT CAVOK 23/14 A2997 RMK TRACE SC BKN250 CB DST SW RFGS 17KT=
200712311400 METAR MROC 311400Z 09010KT CAVOK 25/14 A2999 RMK CB DST SW BECMG=
200712311500 METAR MROC 311500Z 09012KT 9999 FEW040 BKN250 24/14 A2999 BECMG=
200712311600 METAR MROC 311600Z 09016KT 9999 FEW040 BKN250 26/13 A2998 RMK RFGS 23KT BECMG=
200712311700 METAR MROC 311700Z 08013KT 9999 FEW040 SCT230 27/14 A2997 BECMG=
200712311800 METAR MROC 311800Z 10011KT 9999 FEW040 SCT120 BKN250 26/14 A2997 BECMG=
200712311900 METAR MROC 311900Z 10011KT 9999 FEW040 SCT130 BKN250 26/14 A2994 BECMG=
200712312000 METAR MROC 312000Z 10011KT 9999 FEW040 SCT130 BKN250 27/15 A2991 BECMG=
200712312100 METAR MROC 312100Z 11011KT 9999 FEW040 SCT130 BKN250 27/18 A2990 BECMG=
200712312200 METAR MROC 312200Z 11010KT 9999 FEW040 SCT110 BKN250 24/16 A2990 BECMG=
200712312300 METAR MROC 312300Z 09008KT 9999 FEW040 SCT110 BKN250 23/15 A2991 BECMG=
