200801010000 METAR MROC 010000Z 10005KT 9999 FEW040 BKN110 22/14 A2992 BECMG=
200801010100 METAR MROC 010100Z 09013KT 9999 FEW040 BKN110 22/14 A2994 BECMG=
200801010200 METAR MROC 010200Z 10012KT 9999 FEW040 SCT110 21/15 A2997 BECMG=
200801010300 METAR MROC 010300Z 10010KT 9999 FEW035 SCT120 21/15 A2999 BECMG=
200801010400 METAR MROC 010400Z 10010KT 9999 FEW035 SCT120 21/16 A2999 BECMG=
200801010500 METAR MROC 010500Z 11009KT CAVOK 20/15 A2999 RMK TRACE SC AC SCT250 BECMG=
200801010600 METAR MROC 010600Z 10008KT CAVOK 20/15 A2998 RMK TRACE SC AC BKN250 BECMG=
200801010700 METAR MROC 010700Z 10013KT CAVOK 20/15 A2995 RMK TRACE SC FEW120 BKN250=
200801010800 METAR MROC 010800Z 10011KT CAVOK 20/14 A2993 RMK TRACE SC AC BKN250=
200801010900 METAR MROC 010900Z 10012KT CAVOK 20/14 A2992 RMK TRACE SC BKN250 RFGS 19KT=
200801011000 METAR MROC 011000Z 10013KT CAVOK 20/14 A2993 RMK TRACE SC BKN250=
200801011100 METAR MROC 011100Z 10011KT CAVOK 20/13 A2994 RMK TRACE SC SCT300=
200801011200 METAR MROC 011200Z 10009KT CAVOK 19/13 A2995 RMK TRACE SC FEW300=
200801011300 METAR MROC 011300Z 10015KT CAVOK 22/13 A2997 BECMG RMK TRACE SC FEW300=
200801011400 METAR MROC 011400Z 10014KT CAVOK 24/14 A2999 BECMG RMK TRACE SC=
200801011500 METAR MROC 011500Z 09015KT 9999 FEW040 25/14 A3001 BECMG=
200801011600 METAR MROC 011600Z 06017KT 9999 FEW040 28/12 A3001 BECMG=
200801011700 METAR MROC 011700Z 07014KT 9999 FEW040 29/13 A2999 BECMG RMK RAFAGAS 25KT=
200801011800 METAR MROC 011800Z 08013KT 9999 FEW040 29/14 A2997 BECMG=
200801011900 METAR MROC 011900Z 06018KT 9999 SCT040 27/15 A2994 BECMG=
200801012000 METAR MROC 012000Z 08013KT 9999 SCT035 FEW060 28/16 A2992 BECMG=
200801012100 METAR MROC 012100Z 06014KT 9999 SCT045 27/15 A2992 BECMG=
200801012200 METAR MROC 012200Z 09015G26KT 9999 SCT045 24/15 A2992 DZ N BECMG=
200801012300 METAR MROC 012300Z 06015G25KT 9999 FEW045 23/15 A2992 BECMG=
200801020000 METAR MROC 020000Z 05017G30KT 9999 FEW040 23/14 A2993 BECMG=
200801020100 METAR MROC 020100Z 06015G25KT 9999 FEW040 22/14 A2996 BECMG=
200801020200 METAR MROC 020200Z 07016G26KT CAVOK 22/13 A2998 TRACE SCT BECMG=
200801020300 METAR MROC 020300Z 07016KT CAVOK 22/17 A2999 RMK RFGS 23KT TRACE SC=
200801020400 METAR MROC 020400Z 07015KT CAVOK 21/12 A3000 RMK RFGS 23KT TRACE SC BECMG=
200801020500 METAR MROC 020500Z 08015KT CAVOK 20/13 A2998 BECMG=
200801020600 METAR MROC 020600Z 08014KT CAVOK 20/12 A2997 RMK TRACE SC RFGS 22KT=
200801020700 METAR MROC NIL=
200801020800 METAR MROC 020800Z 09015KT CAVOK 20/11 A2993 RMK TRACE SC RFGS 23KT=
200801020900 METAR MROC 020900Z 08017KT CAVOK 19/11 A2992 RMK TRACE SC BECMG=
200801021000 METAR MROC 021000Z 06018KT CAVOK 20/17 A2992 RMK TRACE SC BECMG=
200801021100 METAR MROC 021100Z 08011KT CAVOK 20/11 A2995 RMK TRACE SC BECMG=
200801021200 METAR MROC 021200Z 07012KT CAVOK 20/11 A2996 RMK TRACE SC=
200801021300 METAR MROC NIL=
200801021400 METAR MROC 021400Z 08015G25KT CAVOK 23/11 A3000 TRAZAS SCT BECMG=
200801021500 METAR MROC 021500Z 08017KT CAVOK 24/13 A3001 TRAZAS SCT BECMG=
200801021600 METAR MROC 021600Z 08016KT CAVOK 25/13 A3000 TRAZAS SCT BECMG=
200801021700 METAR MROC 021700Z 09018G28KT 9999 FEW030 25/15 A2998 DZ N NE BECMG=
200801021800 METAR MROC 021800Z 08014G24KT 9999 FEW020 SCT060 26/16 A2996 RMK DZ NW N NE BECMG=
200801021900 METAR MROC 021900Z 08018G28KT 9999 FEW020 SCT070 24/15 A2993 RMK DZ NW N NE BECMG=
200801022000 METAR MROC 022000Z 05018KT 9999 FEW020 SCT070 26/15 A2991 DZ N NE BECMG=
200801022100 METAR MROC 022100Z 05027G37KT 9999 FEW040 24/11 A2992 RMK TRACE AC CI=
200801022200 METAR MROC 022200Z 06024G34KT 9999 FEW035 23/12 A2993=
200801022300 METAR MROC 022300Z 07018G28KT 9999 FEW025 22/12 A2995=
200801030000 METAR MROC 030000Z 06017G30KT CAVOK 21/11 A2997 RMK TRACE SC AC=
200801030100 METAR MROC 030100Z 08015G25KT CAVOK 21/12 A2999 TRACE SCT BECMG=
200801030200 METAR MROC 030200Z 09014KT CAVOK 20/13 A3002 RAF 19KTS TRACE SCT BECMG=
200801030300 METAR MROC 030300Z 09017KT 9999 -DZ FEW040 SCT090 20/14 A3004 BECMG=
200801030400 METAR MROC 030400Z 09014G25KT 9999 -DZ FEW040 SCT090 19/15 A3003 BECMG=
200801030500 METAR MROC 030500Z 08013KT 9999 -DZ FEW040 SCT090 20/15 A3002 BECMG=
200801030600 METAR MROC 030600Z 08015G25KT 9999 FEW040 SCT090 20/15 A3000 BECMG=
200801030700 METAR MROC 030700Z 07014G30KT 9999 FEW040 21/15 A2998 BECMG=
200801030800 METAR MROC 030800Z 06022G32KT FEW040 21/14 A2996 RMK TRACE AC=
200801030900 METAR MROC 030900Z 08015G28KT 9999 FEW040 20/15 A2995=
200801031000 METAR MROC NIL=
200801031100 METAR MROC 031100Z 09015G28KT 9999 FEW035 21/15 A2996=
200801031200 METAR MROC 031200Z 08017KT 9999 FEW035 21/15 A2999 RMK TRACE AC=
200801031300 METAR MROC 031300Z 07018G28KT 9999 FEW035 22/14 A3001 RMK DZ DST N NE E=
200801031400 METAR MROC 031400Z 07022G32KT 9999 FEW035 23/14 A3003 RMK DZ DST N NE E=
200801031500 METAR MROC 031500Z 08015G25KT 9999 FEW035 24/13 A3004 RMK DZ DST QUAD N E=
200801031600 METAR MROC 031600Z 08019G29KT 9999 FEW030 24/15 A3004 DZ DST N NE=
200801031700 METAR MROC 031700Z 06021G32KT 9999 FEW030 24/13 A3003 RMK FEW250 DZ DST N NE=
200801031800 METAR MROC 031800Z 07021G31KT 9999 FEW030 24/13 A3002 RMK FEW250 DZ DST N NE=
200801031900 METAR MROC 031900Z 08020G30KT 9999 FEW030 24/14 A2998 RMK FEW250 DZ DST N NE E=
200801032000 METAR MROC NIL=
200801032100 METAR MROC NIL=
200801032200 METAR MROC NIL=
200801032300 METAR MROC NIL=
200801040000 METAR MROC 040000Z 07020G30KT 9999 FEW030 21/15 A2995 BECMG=
200801040100 METAR MROC 040100Z 08020G30KT 9999 FEW030 21/14 A2997 BECMG=
200801040200 METAR MROC 040200Z 08016G26KT 9999 FEW030 21/15 A2999 BECMG=
200801040300 METAR MROC 040300Z 08018G28KT 9999 SCT035 21/14 A3001 BECMG=
200801040400 METAR MROC 040400Z 07018G28KT 9999 FEW025 21/15 A3002 BECMG=
200801040500 METAR MROC 040500Z 07017G30KT 9999 BKN030 22/14 A3001 RMK DZ DST NE/E BECMG=
200801040600 METAR MROC 040600Z 07020G30KT 9999 SCT030 21/13 A2998 RMK DZ DST NE/E BECMG=
200801040700 METAR MROC 040700Z 07023G35KT 9999 SCT030 22/13 A2996 RMK DZ DST NE/E BECMG=
200801040800 METAR MROC 040800Z 07018G30KT 9999 SCT035 21/13 A2995 DZ N NE=
200801041000 METAR MROC 041000Z 08020G30KT 9999 FEW030 20/11 A2994=
200801041100 METAR MROC 041100Z 06029G32KT 9999 FEW030 21/10 A2996 DZ N NE=
200801041200 METAR MROC NIL=
200801041300 METAR MROC 041300Z 06020G30KT CAVOK 21/04 A2999 RMK TRACE SC=
200801041400 METAR MROC 041400Z 07021G31KT CAVOK 23/07 A3002 RMK TRACE SC BECMG=
200801041500 METAR MROC 041500Z 07020G30KT CAVOK 24/08 A3004 RMK TRACE SC BECMG=
200801041600 METAR MROC NIL=
200801041700 METAR MROC 041700Z 08020KT 9999 FEW045 24/12 A3001 RMK DZ DST NE RFGS 26KT BECMG=
200801041800 METAR MROC 041800Z 06023KT 9999 FEW045 25/13 A3000 RMK RFGS 31KT BECMG=
200801041900 METAR MROC 041900Z 06020G30KT 9999 FEW045 25/14 A2996 BECMG=
200801042000 METAR MROC 042000Z 05022G32KT 9999 FEW040 25/14 A2993 RMK DZ DST NE ENE BECMG=
200801042100 METAR MROC 042100Z 07023KT 9999 FEW035 23/14 A2991 RMK DZ DST N NE RFGS 29KT=
200801042200 METAR MROC 042200Z 08022KT 9999 FEW035 23/13 A2992 RMK DZ DST N NE RFGS 28KT=
200801042300 METAR MROC 042300Z 06024KT 9999 FEW035 22/13 A2992 RMK RFGS 31KT=
200801050000 METAR MROC 050000Z 07016KT 9999 FEW035 21/12 A2994 BECMG=
200801050100 METAR MROC 050100Z 07015KT 9999 FEW035 21/13 A2996 BECMG=
200801050200 METAR MROC 050200Z 07015KT 9999 FEW035 21/12 A2998 BECMG=
200801050300 METAR MROC 050300Z 08013KT CAVOK 21/13 A3001 RMK TRACE SC GUST 19KT=
200801050400 METAR MROC 050400Z 09015KT CAVOK 20/14 A3001 RMK TRACE SC GUST 21KT=
200801050500 METAR MROC 050500Z 08013G23KT CAVOK 21/13 A2999 RMK TRACE SC=
200801050600 METAR MROC 050600Z 09016KT CAVOK 20/14 A2999 RMK TRACE SC GUST 23KT=
200801050700 METAR MROC 050700Z 09014KT CAVOK 20/13 A2998 RMK TRACE SC=
200801050800 METAR MROC 050800Z 10012KT CAVOK 20/13 A2995 RMK TRACE SC=
200801050900 METAR MROC 050900Z 09010KT 9999 FEW035 19/13 A2994=
200801051000 METAR MROC 051000Z 10014KT 9999 FEW035 20/13 A2993=
200801051100 METAR MROC 051100Z 10013KT CAVOK 20/13 A2994 RMK TRACE SC GUST 18KT=
200801051200 METAR MROC 051200Z 10013KT CAVOK 20/13 A2994 RMK TRACE SC GUST 21KT=
200801051300 METAR MROC 051300Z 10013KT CAVOK 22/14 A2996 RMK TRACE SC BECMG=
200801051400 METAR MROC 051400Z 09014KT CAVOK 24/13 A3000 RMK TRACE SC BECMG=
200801051500 METAR MROC NIL=
200801051600 METAR MROC 051600Z 10016KT 9999 FEW035 25/14 A3001 BECMG=
200801051700 METAR MROC 051700Z 06019KT 9999 FEW040 26/14 A2999 RMK RFGS 26KT=
200801051800 METAR MROC 051800Z 06017KT 9999 FEW035 27/14 A2996 BECMG=
200801051900 METAR MROC 051900Z 06020KT 9999 FEW035 27/13 A2993 BECMG=
200801052000 METAR MROC 052000Z 06016KT 9999 FEW040 27/14 A2991 BECMG=
200801052100 METAR MROC 052100Z 07017KT 9999 FEW040 26/14 A2989 BECMG=
200801052200 METAR MROC 052200Z 07014KT 9999 FEW040 26/15 A2989 BECMG=
200801052300 METAR MROC 052300Z 08011KT 9999 FEW040 24/14 A2992 BECMG=
200801060000 METAR MROC 060000Z 10014KT 9999 FEW040 22/14 A2994 BECMG=
200801060100 METAR MROC 060100Z 09012KT 9999 FEW040 21/15 A2996 BECMG=
200801060200 METAR MROC 060200Z 10012KT 9999 FEW040 21/16 A2998 BECMG=
200801060300 METAR MROC 060300Z 10018KT 9999 FEW035 21/16 A2999 BECMG=
200801060400 METAR MROC 060400Z 10015KT 9999 FEW35 21/16 A2999 RMK RFGS 21KT BECMG=
200801060500 METAR MROC 060500Z 10012KT 9999 FEW035 21/16 A3000 RMK RFGS 18KT BECMG=
200801060600 METAR MROC 060600Z 09010KT 9999 FEW035 21/15 A2999 BECMG=
200801060700 METAR MROC 060700Z 10015KT 9999 FEW035 20/15 A2996 BECMG=
200801060800 METAR MROC 060800Z 09017G27KT CAVOK 20/14 A2993 RMK TRACE SC SCT300=
200801060900 METAR MROC 060900Z 10014KT CAVOK 20/15 A2992 RMK TRACE SC SCT300=
200801061000 METAR MROC 061000Z 10015KT CAVOK 20/15 A2992 RMK TRACE SC SCT300=
200801061100 METAR MROC 061100Z 10016KT CAVOK 21/15 A2993 RMK TRACE SC AC SCT300=
200801061200 METAR MROC 061200Z 10015KT CAVOK 21/15 A2995 RMK TRACE SC SCT140=
200801061300 METAR MROC 061300Z 10016KT 9999 FEW035 22/15 A2997 BECMG RMK FEW130=
200801061400 METAR MROC 061400Z 11013KT 9999 FEW035 24/15 A2998 BECMG TRACE AC=
200801061500 METAR MROC 061500Z 09014KT 9999 FEW035 26/15 A3000 BECMG RMK TRACE AC=
200801061600 METAR MROC 061600Z 09012KT 9999 FEW035 28/14 A2999 BECMG RMK TRACE AC=
200801061700 METAR MROC 061700Z 06018KT 9999 SCT035 26/15 A2999 BECMG RMK TRACE AC=
200801061800 METAR MROC 061800Z 07019KT 9999 SCT035 SCT130 27/16 A2996 BECMG=
200801061900 METAR MROC 061900Z 06017KT 9999 FEW035 27/16 A2993 BECMG RMK FEW130=
200801062000 METAR MROC 062000Z 08014KT 9999 FEW035 28/15 A2990 BECMG RMK FEW130=
200801062100 METAR MROC 062100Z 09013KT 9999 FEW030 27/16 A2989 DZ NE BECMG=
200801062200 METAR MROC 062200Z 09015G25KT 9999 FEW030 25/16 A2990 BECMG=
200801062300 METAR MROC 062300Z 09012KT 9999 FEW030 24/14 A2992 RAFAGAS 19KT BECMG=
200801070000 METAR MROC 070000Z 09012KT 9999 FEW030 22/15 A2994 BECMG=
200801070100 METAR MROC 070100Z 10016KT CAVOK 22/15 A2995 FEW250 TRAZAS SCT BECMG=
200801070200 METAR MROC 070200Z 10018KT CAVOK 22/15 A2996 TRAZAS SCT BECMG=
200801070300 METAR MROC 070300Z 09018KT CAVOK 22/15 A2998 BECMG=
200801070400 METAR MROC 070400Z 10018KT CAVOK 21/16 A2999 BECMG=
200801070500 METAR MROC 070500Z 08009KT 9999 CAVOK 22/16 A2999 BECMG=
200801070600 METAR MROC 070600Z 07010KT 9999 CAVOK 22/17 A2999 BECMG=
200801070700 METAR MROC NIL=
200801070800 METAR MROC NIL=
200801070900 METAR MROC NIL=
200801071000 METAR MROC NIL=
200801071100 METAR MROC 071100Z 08006KT 9999 FEW035 BKN070 21/16 A2997=
200801071200 METAR MROC 071200Z 09004KT 9999 FEW030 BKN080 21/17 A2997 RMK RN N NE E=
200801071300 METAR MROC 071300Z 11003KT 8000 -DZ BKN030 SCT080 21/17 A3000 BECMG=
200801071400 METAR MROC 071400Z 10012KT 9999 FEW045 BKN100 21/17 A3000 DZ NE BECMG=
200801071500 METAR MROC 071500Z 07015KT 9999 FEW040 SCT100 26/15 A3002 RAFAGAS 22KT BECMG=
200801071600 METAR MROC 071600Z 07012KT 9999 FEW020 SCT045 27/16 A3003 FEW100 DZ N NE BECMG=
200801071700 METAR MROC 071700Z 07011KT 9999 FEW040 SCT070 26/16 A3002 DZ N NE BECMG=
200801071800 METAR MROC 071800Z 08013KT 9999 FEW030 SCT100 BKN280 27/14 A2999 BECMG=
200801071900 METAR MROC 071900Z 09012KT 9999 FEW030 SCT100 BKN280 28/14 A2996 BECMG=
200801072000 METAR MROC 072000Z 09016KT 9999 FEW030 BKN280 27/14 A2993 FEW120 BECMG=
200801072100 METAR MROC 072100Z 08015KT 9999 FEW030 SCT250 27/14 A2991 RMK FEW120=
200801072200 METAR MROC 072200Z 07013KT 9999 FEW035 SCT250 25/15 A2994 RMK GUST 20KT BECMG=
200801072300 METAR MROC 072300Z 09011KT 9999 FEW035 24/15 A2994 RMK TRACE AC BECMG=
200801080000 METAR MROC 080000Z 10013KT 9999 FEW030 22/15 A2997 RMK GUST 19KT TRACE AC BECMG=
200801080100 METAR MROC 080100Z 10013KT CAVOK 21/15 A2999 TRACE SCT BECMG=
200801080200 METAR MROC 080200Z 10014KT CAVOK 21/15 A3001 TRACE SC/CI BECMG=
200801080300 METAR MROC 080300Z 10013KT CAVOK 20/15 A3003 BECMG TRACE SCT CI=
200801080400 METAR MROC 080400Z 10014KT CAVOK 21/14 A3003 BECMG TRACE SCT CI=
200801080500 METAR MROC 080500Z 09015KT 9999 21/14 A3002 BECMG RMK TRACE SC CI=
200801080600 METAR MROC 080600Z 10014KT CAVOK 20/14 A3000 BECMG RMK TRACE AC FEW250=
200801080700 METAR MROC 080700Z 09017KT CAVOK 20/14 A2997 BECMG TRACE SCT AC FEW250=
200801080800 METAR MROC 080800Z 10019KT CAVOK 20/15 A2995 RMK FEW120 SCT250=
200801080900 METAR MROC 080900Z 09015KT CAVOK 20/14 A2993 RMK FEW129 SCT250=
200801081000 METAR MROC 081000Z 11011KT CAVOK 20/14 A2994 RMK FEW120 SCT250=
200801081100 METAR MROC 081100Z 10012KT CAVOK 20/14 A2995 RMK FEW120 SCT250=
200801081200 METAR MROC 081200Z 09011KT CAVOK 20/14 A2996 RMK SCT100 SCT250=
200801081300 METAR MROC 081300Z 10014G24KT 9999 FEW030 SCT100 SCT250 20/14 A2999 BECMG=
200801081400 METAR MROC 081400Z 10013G23KT 9999 FEW025 SCT100 BKN250 21/14 A3001 BECMG=
200801081500 METAR MROC 081500Z 10015G25KT 9999 FEW025 SCT120 BKN250 21/14 A3002 BECMG=
200801081600 METAR MROC 081600Z 10017KT 9999 FEW035 SCT120 BKN250 23/13 A3004 RMK=
200801081700 METAR MROC 081700Z 09014G24KT 9999 FEW035 BKN250 24/13 A3003 RMK FEW120 BECMG=
200801081800 METAR MROC 081800Z 08011KT 9999 FEW035 SCT120 BKN250 27/14 A3001 BECMG=
200801081900 METAR MROC 081900Z 08013KT 9999 FEW035 BKN250 26/14 A2998 RMK FEW120 BECMG=
200801082000 METAR MROC 082000Z 09012KT 9999 FEW035 BKN250 27/14 A2995 BECMG=
200801082100 METAR MROC 082100Z 11010KT 9999 FEW035 BKN250 25/14 A2994 BECMG=
200801082200 METAR MROC 082200Z 11011KT 9999 FEW035 BKN250 26/14 A2993 BECMG=
200801082300 METAR MROC 082300Z 09010KT 9999 FEW035 BKN250 25/12 A2994 BECMG=
200801090000 METAR MROC 090000Z 09007KT 9999 FEW035 BKN250 22/12 A2996 BECMG=
200801090100 METAR MROC 090100Z 10006KT 9999 FEW030 BKN250 21/13 A2999 BECMG=
200801090200 METAR MROC 090200Z 08008KT CAVOK 21/13 A3000 TRACE SCT FEW250 BECMG=
200801090300 METAR MROC 090300Z 09008KT CAVOK 21/13 A3001 FEW300 BECMG=
200801090400 METAR MROC 090400Z 10009KT CAVOK 20/13 A3002 FEW250 BECMG=
200801090500 METAR MROC 090500Z 11009KT CAVOK 19/13 A3001 FEW300 BECMG=
200801090600 METAR MROC NIL=
200801090700 METAR MROC NIL=
200801090800 METAR MROC 090800Z 09011KT CAVOK 18/13 A2994 TRAZAS SCT=
200801090900 METAR MROC 090900Z 10015KT CAVOK 18/13 A2993 TRAZAS SCT BECMG=
200801091000 METAR MROC 091000Z 09008KT CAVOK 18/12 A2994 FEW300=
200801091100 METAR MROC 091100Z 08007KT CAVOK 18/12 A2995 TRAZAS SC=
200801091200 METAR MROC 091200Z 09009KT CAVOK 19/11 A2997 SCT280=
200801091300 METAR MROC 091300Z 09015KT CAVOK 20/11 A2998 RMK TRACE SC SCT300 BECMG=
200801091400 METAR MROC 091400Z 10014KT CAVOK 23/11 A2999 RMK TRACE SC BKN270 BECMG=
200801091500 METAR MROC 091500Z 11013KT CAVOK 25/12 A2999 RMK TRACE SC BKN270 BECMG=
200801091600 METAR MROC 091600Z 09013KT CAVOK 27/11 A2999 RMK TRACE SCT300 BECMG=
200801091700 METAR MROC 091700Z 08013KT CAVOK 27/11 A2997 RMK TRACE SC SCT300 BECMG=
200801091800 METAR MROC 091800Z 11012KT CAVOK 28/11 A2995 RMK TRACE CU BKN300 BECMG=
200801091900 METAR MROC 091900Z 09012KT CAVOK 28/11 A2992 RMK TRACE CU BKN300 BECMG=
200801092000 METAR MROC 092000Z 09012KT 9999 FEW040 BKN300 28/13 A2990 RMK RFGS 17KT BECMG=
200801092100 METAR MROC 092100Z 08011KT 9999 FEW030 BKN250 27/12 A2990 BECMG=
200801092200 METAR MROC 092200Z 07011KT 9999 FEW025 BKN250 26/11 A2989 BECMG=
200801092300 METAR MROC 092300Z 08007KT 9999 FEW025 BKN250 24/11 A2991 BECMG=
200801100000 METAR MROC 100000Z 08007KT 9999 FEW030 BKN250 22/12 A2992 BECMG=
200801100100 METAR MROC 100100Z 09005KT 9999 FEW030 BKN250 21/14 A2996 BECMG=
200801100200 METAR MROC 100200Z 08004KT CAVOK 20/14 A2998 BECMG=
200801100300 METAR MROC 100300Z 08005KT CAVOK 20/13 A3000 RMK TRACE SC BECMG=
200801100400 METAR MROC 100400Z 05007KT CAVOK 20/15 A3000 RMK TRACE SC BECMG=
200801100500 METAR MROC 100500Z 09008KT CAVOK 20/14 A3000 RMK TRACE SC BECMG=
200801100600 METAR MROC 100600Z 04006KT 9999 FEW035 19/14 A2999 BECMG=
200801100700 METAR MROC 100700Z 08006KT 9999 FEW035 19/14 A2997 BECMG=
200801100800 METAR MROC 100800Z 08007KT CAVOK 19/14 A2994 RMK TRACE SC=
200801100900 METAR MROC 100900Z 04006KT CAVOK 18/14 A2993 RMK TRACE SC=
200801101000 METAR MROC 101000Z 04008KT CAVOK 18/14 A2993 RMK TRACE SC=
200801101100 METAR MROC 101100Z 04009KT CAVOK 18/13 A2995 RMK TRACE SC=
200801101200 METAR MROC 101200Z 06005KT CAVOK 17/13 A2996 RMK TRACE SC AC FEW250=
200801101300 METAR MROC 101300Z 03007KT CAVOK 19/13 A2998 RMK TRACE AC BKN250=
200801101400 METAR MROC 101400Z 10007KT CAVOK 23/13 A3001 RMK BKN250 BECMG=
200801101500 METAR MROC 101500Z 10007KT CAVOK 25/11 A3000 RMK BKN250 BECMG=
200801101600 METAR MROC 101600Z 11013KT CAVOK 27/11 A2999 RMK BKN250 BECMG=
200801101700 METAR MROC 101700Z 11013KT CAVOK 29/09 A2997 RMK BKN250 BECMG=
200801101800 METAR MROC 101800Z 22007KT 9999 FEW040 BKN250 27/13 A2994 BECMG=
200801101900 METAR MROC 101900Z 22008KT 9999 SCT040 SCT250 27/16 A2991 BECMG=
200801102000 METAR MROC 102000Z 22009KT 9999 SCT035 SCT250 27/16 A2990 BECMG=
200801102100 METAR MROC 102100Z 23011KT 9999 SCT035 SCT100 25/17 A2990 BECMG RMK FEW250=
200801102200 METAR MROC 102200Z 25012KT 9999 SCT030 SCT250 24/18 A2999 BECMG RMK FEW100=
200801102300 METAR MROC 102300Z 22006KT 9999 SCT030 SCT100 22/18 A2992 BECMG RMK FEW250 RN NE E=
200801110000 METAR MROC 110000Z 20004KT 9999 SCT030 BKN100 21/18 A2993 BECMG RMK RN NE E=
200801110100 METAR MROC 110100Z 00000KT 9999 SCT030 SCT100 21/18 A2996 BECMG=
200801110200 METAR MROC 110200Z 00000KT 9999 FEW030 SCT100 20/18 A2997 BECMG=
200801110300 METAR MROC 110300Z 26003KT 9999 FEW030 SCT060 20/18 A2999 RMK TRACE LOW ST BECMG=
200801110400 METAR MROC 110400Z 00000KT 9999 FEW030 SCT100 20/18 A3000 RMK TRACE LOW ST TO W BECMG=
200801110500 METAR MROC 110500Z 00000KT 9999 FEW030 SCT050 20/18 A3000 RMK TRACE LOW ST W NW BECMG=
200801110600 METAR MROC 110600Z 27003KT 9999 FEW035 SCT050 19/18 A2997 RMK TRACE LOW ST S SSW BECMG=
200801110700 METAR MROC 110700Z 05006KT 9999 FEW035 SCT250 18/16 A2995 BECMG=
200801110800 METAR MROC 110800Z 05004KT 9999 FEW035 SCT250 17/15 A2993=
200801110900 METAR MROC 110900Z 00000KT CAVOK 17/14 A2992 RMK TRACE ST SC BKN250=
200801111000 METAR MROC 111000Z 09002KT CAVOK 16/14 A2993 RMK TRACE SC SCT250=
200801111100 METAR MROC 111100Z 06004KT CAVOK 15/13 A2992 RMK TRACE SC SCT250=
200801111200 METAR MROC 111200Z 08004KT CAVOK 15/13 A2995 RMK TRACE SC SCT250 TCU DST S=
200801111300 METAR MROC 111300Z 06006KT CAVOK 19/14 A2996 BECMG RMK TRACE SC SCT250=
200801111400 METAR MROC 111400Z 10005KT CAVOK 22/14 A2998 BECMG RMK TRACE SC SCT250=
200801111500 METAR MROC 111500Z VRB03KT CAVOK 24/15 A2999 BECMG 24008KT RMK BKN250 TRACE CU=
200801111600 METAR MROC 111600Z 25002KT 9999 FEW040 BKN250 26/15 A2998 BECMG=
200801111700 METAR MROC 111700Z 24008KT 9999 FEW040 BKN250 26/16 A2996 BECMG=
200801111800 METAR MROC 111800Z 23010KT 9999 SCT040 BKN250 25/17 A2994 BECMG=
200801111900 METAR MROC 111900Z 26006KT 9999 SCT025TCU BKN080 25/17 A2991 BECMG=
200801112000 METAR MROC 112000Z 24011KT 9999 SCT020TCU BKN080 26/17 A2989 RN DIST E NE BECMG 5000 VCSH=
200801112100 METAR MROC 112100Z 27009KT 9999 SCT025 SCT040 25/17 A2987 BECMG=
200801112200 METAR MROC 112200Z 23008KT 9999 FEW015 BKN040 23/19 A2987 BECMG=
200801112300 METAR MROC 112300Z 22006KT 6000 VCFG FEW003 BKN005 21/19 A2989 VSBY SE UNL BECMG 4000 BR=
200801120000 METAR MROC 120000Z 23006KT 5000 -RA BR FEW002 BKN004 20/19 A2991 BECMG 4000=
200801120100 METAR MROC 120100Z 18003KT 6000 -RA VCFG FEW003 BKN008 20/19 A2992 VSBY SE S UNL BECMG 4000=
200801120200 METAR MROC 120200Z 26003KT 6000 VCFG FEW004 SCT008 BKN040 20/19 A2994 VSBY S SE E UNL BECMG=
200801120300 METAR MROC 120300Z 00000KT 9999 FEW020 SCT120 20/19 A2995 BECMG=
200801120400 METAR MROC 120400Z 28003KT 7000 VCFG FEW004 SCT030 20/18 A2996 RMK UNL S BECMG 5000 BR=
200801120500 METAR MROC 120500Z 00000KT 8000 VCFG FEW004 SCT040 20/17 A2995 BECMG=
200801120600 METAR MROC 120600Z 08003KT 9999 SCT040 20/18 A2994 BECMG=
200801120700 METAR MROC 120700Z 00000KT CAVOK 19/16 A2992 RMK TRACE SC BECMG=
200801120800 METAR MROC NIL=
200801120900 METAR MROC 120900Z 03007KT CAVOK 18/15 A2989 RMK TRACE SC BECMG=
200801121000 METAR MROC 121000Z 08006KT CAVOK 19/15 A2989 RMK TRCE SC BECMG=
200801121100 METAR MROC 121100Z 06005KT CAVOK 19/15 A2990 RMK TRACE SC BECMG=
200801121200 METAR MROC 121200Z 11007KT 9999 FEW035 SCT100 20/14 A2991 BECMG=
200801121300 METAR MROC 121300Z 10011KT CAVOK 21/15 A2995 TRAZAS SCT BECMG=
200801121400 METAR MROC 121400Z 09009KT CAVOK 23/14 A2997 TRAZAS SCT=
200801121500 METAR MROC 121500Z 07012KT CAVOK 25/14 A2997 TRAZAS SCT BECMG=
200801121600 METAR MROC 121600Z 08013KT CAVOK 26/13 A2995 TRAZAS SCT BECMG=
200801121700 METAR MROC 121700Z 06015KT 9999 FEW040 27/12 A2994 BECMG=
200801121800 METAR MROC 121800Z 07011KT 9999 FEW040 28/12 A2992 BECMG=
200801121900 METAR MROC 121900Z 06014KT 9999 FEW045 28/10 A2988 BECMG=
200801122000 METAR MROC NIL=
200801122100 METAR MROC 122100Z 11010KT 9999 FEW035 28/10 A2984 BECMG=
200801122200 METAR MROC 122200Z 08008KT 9999 FEW035 27/10 A2985 RMK GUST 17KT BECMG=
200801122300 METAR MROC 122300Z 06010KT 9999 FEW035 25/08 A2986 RMK GUST 17KT BECMG=
200801130000 METAR MROC 130000Z 10006KT 9999 FEW035 22/12 A2988 BECMG=
200801130100 METAR MROC 130100Z 10007KT CAVOK 21/14 A2991 RMK TRACE SC BECMG=
200801130200 METAR MROC 130200Z 10011KT CAVOK 20/14 A2994 RMK TRACE SC=
200801130300 METAR MROC 130300Z 08008KT CAVOK 19/13 A2995 RMK TRACE SC BECMG=
200801130400 METAR MROC 130400Z 09011KT CAVOK 19/13 A2996 RMK TRACE SC BECMG=
200801130500 METAR MROC 130500Z 10014KT CAVOK 19/12 A2994 RMK TRACE SC BECMG=
200801130600 METAR MROC 130600Z 09011KT CAVOK 19/11 A2992 RMK FEW100 BECMG=
200801130700 METAR MROC 130700Z 08010KT CAVOK 20/09 A2991 RMK FEW100 BECMG=
200801130800 METAR MROC 130800Z 09010KT CAVOK 20/10 A2990 RMK FEW100 BECMG=
200801130900 METAR MROC 130900Z 10013KT CAVOK 20/10 A2989 RMK FEW100 BECMG=
200801131000 METAR MROC 131000Z 07010KT CAVOK 19/10 A2990 RMK FEW100 BECMG=
200801131100 METAR MROC 131100Z 07007KT CAVOK 19/10 A2991 RMK FEW100 BECMG=
200801131200 METAR MROC 131200Z 07011KT CAVOK 19/11 A2993 RMK SCT060 BECMG=
200801131300 METAR MROC 131300Z 08011KT CAVOK 20/11 A2994 RMK TRACE SC GUST 17KT=
200801131400 METAR MROC 131400Z 10013KT CAVOK 22/11 A2997 RMK TRACE SC AC GUST 20KT BECMG=
200801131500 METAR MROC 131500Z 10013KT 9999 SKC 24/09 A2998 RMK TRACE SC AC GUST 19KT BECMG=
200801131600 METAR MROC 131600Z 10020KT CAVOK 26/02 A2996 RMK TRACE SC GUST 26KT BECMG=
200801131700 METAR MROC 131700Z 10014G24KT CAVOK 27/06 A2994 RMK TRACE SC BECMG=
200801131800 METAR MROC 131800Z 10013KT CAVOK 27/08 A2992 RMK TRACE SC GUST 19KT BECMG=
200801131900 METAR MROC 131900Z 10012G22KT 9999 FEW040 28/08 A2989 BECMG=
200801132000 METAR MROC 132000Z 08012G22KT 9999 FEW035 27/10 A2986 BECMG=
200801132100 METAR MROC 132100Z 08013KT 9999 FEW040 27/09 A2986 BECMG=
200801132200 METAR MROC 132200Z 07009KT 9999 FEW040 27/10 A2987 BECMG=
200801132300 METAR MROC 1432300Z 07010KT 9999 FEW035 25/10 A2990 BECMG=
200801140000 METAR MROC 140000Z 08007KT CAVOK 22/11 A2992 RMK TRACE SC RFGS 15KT BECMG=
200801140100 METAR MROC 140100Z 09012KT CAVOK 21/13 A2994 TRACE SCT RAGS 16KTS BECMG=
200801140200 METAR MROC 140200Z 10012KT CAVOK 20/13 A2997 TRACE SCT BECMG=
200801140300 METAR MROC 140300Z 10012KT 9999 SKC 21/12 A2998 BECMG=
200801140400 METAR MROC 140400Z 09013KT 9999 SKC 20/12 A2998 BECMG=
200801140500 METAR MROC 140500Z 10013KT 9999 SKC 19/12 A2998 BECMG=
200801140600 METAR MROC 140600Z 10010KT 9999 SKC 19/12 A2997=
200801140700 METAR MROC 140700Z 10011KT 9999 SKC 19/10 A2997=
200801140800 METAR MROC 140800Z 09010KT 9999 SKC 18/11 A2995=
200801140900 METAR MROC 140900Z 08008KT 9999 SKC 18/12 A2994=
200801141000 METAR MROC 141000Z 10012KT 9999 SKC 18/11 A2994=
200801141100 METAR MROC 141100Z 10012KT CAVOK 18/12 A2996 TRAZAS SCT=
200801141200 METAR MROC 141200Z 10012KT CAVOK 18/12 A2996 TRAZAS SC=
200801141300 METAR MROC 141300Z 09008KT CAVOK 19/12 A2999 RMK TRACE SC RFGS 15KT=
200801141400 METAR MROC 141400Z 10014KT CAVOK 22/11 A3000 RMK TRACE SC RFGS 22KT BECMG=
200801141500 METAR MROC 141500Z 10016KT CAVOK 24/09 A3000 RMK TRACE SC RFGS 22KT BECMG=
200801141600 METAR MROC 141600Z 09015KT CAVOK 25/09 A2999 RMK TRACE SC BECMG=
200801141700 METAR MROC 141700Z 07014KT CAVOK 27/10 A2997 RMK TRACE SC BECMG=
200801141800 METAR MROC 141800Z 07010KT CAVOK 27/12 A2994 RMK TRACE SC RFGS 18KT BECMG=
200801141900 METAR MROC 141900Z 06014KT 9999 FEW045 28/12 A2992 RMK RFGS 19KT BECMG=
200801142000 METAR MROC 142000Z 10010KT 9999 FEW045 27/11 A2990 BECMG=
200801142100 METAR MROC 142100Z 10006KT 9999 FEW030 28/10 A2989 BECMG=
200801142200 METAR MROC 142200Z 06011KT 9999 FEW030 27/19 A2989 BECMG=
200801142300 METAR MROC 142300Z 06011KT 9999 FEW030 24/10 A2990 BECMG=
200801150000 METAR MROC 150000Z 08010KT 9999 FEW030 22/11 A2991 BECMG=
200801150100 METAR MROC 150100Z 04008KT CAVOK 21/11 A2995 TRAZAS SCT BECMG=
200801150200 METAR MROC 150200Z 09010KT 9999 FEW040 20/14 A2998 BECMG=
200801150300 METAR MROC 150300Z 10012KT 9999 FEW035 20/14 A2999 RMK GUST 17KT BECMG=
200801150400 METAR MROC 150400Z 09011KT CAVOK 20/14 A2998 RMK TRACE SC BECMG=
200801150500 METAR MROC 150500Z 04009KT CAVOK 19/14 A2998 RMK TRACE SC BECMG=
200801150600 METAR MROC 150600Z 09010KT CAVOK 20/15 A2996 RNK TRCE SCT GUST 18KT BECMG=
200801150700 METAR MROC 150700Z 07006KT CAVOK 19/14 A2994 RMK TRACE SC BECMG=
200801150800 METAR MROC 150800Z 09010KT CAVOK 20/14 A2992 RMK TRACE SC=
200801150900 METAR MROC 150900Z 04006KT CAVOK 19/14 A2991 RMK TRACE SC=
200801151000 METAR MROC 151000Z 05007KT CAVOK 18/14 A2992 RMK TRACE SC=
200801151100 METAR MROC 151100Z 07009KT CAVOK 19/14 A2993 RMK TRACE SC=
200801151200 METAR MROC 151200Z 06010KT CAVOK 18/14 A2994 RMK FEW090=
200801151300 METAR MROC 151300Z 06009KT CAVOK 20/14 A2996 RMK BKN090 TRACE SC BECMG=
200801151400 METAR MROC 151400Z 09012KT 9999 FEW020 BKN090 23/14 A2999 BECMG=
200801151500 METAR MROC 151500Z 09015KT 9999 FEW030 BKN090 24/14 A3000 RMK RFGS 19KT BECMG=
200801151600 METAR MROC 151600Z 09015KT CAVOK 25/13 A2998 RMK TRACE SC BECMG=
200801151700 METAR MROC 151700Z 10012KT CAVOK 27/13 A2995 RMK TRACE SC BECMG=
200801151800 METAR MROC 151800Z 10013KT 9999 FEW030 28/13 A2994 BECMG=
200801151900 METAR MROC 151900Z 10010KT 9999 SCT030 28/13 A2991 BECMG=
200801152000 METAR MROC 152000Z 12008KT 9999 SCT030 27/14 A2989 BECMG=
200801152100 METAR MROC 152100Z 11010KT 9999 SCT030 27/14 A2987 BECMG=
200801152200 METAR MROC 152200Z 08010KT 9999 FEW030 SCT130 27/15 A2987 BECMG=
200801152300 METAR MROC 152300Z 13004KT 9999 FEW030 BKN130 24/15 A2989 BECMG=
200801160000 METAR MROC 160000Z 08008KT 9999 BKN030 23/15 A2990 BECMG=
200801160200 METAR MROC NIL=
200801160300 METAR MROC 160300Z 08004KT 9999 FEW035 BKN130 22/15 A2996 BECMG=
200801160400 METAR MROC 160400Z 00000KT 9999 FEW035 BKN130 21/17 A2997 BECMG=
200801160500 METAR MROC 160500Z 06004KT 9999 FEW035 BKN130 22/15 A2995 BECMG=
200801160600 METAR MROC 160600Z 10007KT CAVOK 21/15 A2994 RMK TRACE SC BKN130 BECMG=
200801160700 METAR MROC 160700Z 29005KT CAVOK 20/17 A2993 RMK TRACE SC BKN130 BECMG=
200801160800 METAR MROC 160800Z 24002KT CAVOK 19/17 A2992 RMK TRACE SC BKN140=
200801160900 METAR MROC 160900Z 00000KT CAVOK 19/16 A2991 RMK TRACE SC BKN130=
200801161000 METAR MROC 161000Z 04006KT CAVOK 20/16 A2991 RMK TRACE SC BKN130=
200801161100 METAR MROC 161100Z 04006KT CAVOK 20/15 A2992 TRACE SCT BKN130=
200801161200 METAR MROC 161200Z 04007KT CAVOK 20/15 A2993 RMK TRACE SC BKN120=
200801161300 METAR MROC 161300Z 08008KT 9999 FEW035 BKN130 21/15 A2994 BECMG=
200801161400 METAR MROC 161400Z 09011KT 9999 FEW035 SCT100 24/16 A2996 BECMG=
200801161500 METAR MROC 161500Z 11015KT 9999 FEW035 25/16 A2996 BECMG0=
200801161600 METAR MROC 161600Z 10018KT 9999 SCT035 27/15 A2996 BECMG=
200801161700 METAR MROC 161700Z 10013KT 9999 SCT035 28/15 A2994 BECMG=
200801161800 METAR MROC 161800Z 06016KT 9999 SCT035 28/15 A2991 BECMG=
200801161900 METAR MROC 161900Z 10013KT 9999 SCT035 29/14 A2988 RMK TRAZAS CI BECMG=
200801162000 METAR MROC 162000Z 09010KT 9999 SCT035 29/14 A2985 BECMG=
200801162100 METAR MROC 162100Z 09012KT 9999 SCT035 28/15 A2985 RMK FEW120 BECMG=
200801162200 METAR MROC 162200Z 09011KT 9999 BKN045 26/15 A2985 BECMG=
200801162300 METAR MROC 162300Z 09010KT 9999 FEW020 SCT045 24/15 A2988 RERA RN DST S SW DZ NE BECMG=
200801170000 METAR MROC 170000Z 09009KT 9999 FEW045 23/16 A2989 BECMG=
200801170100 METAR MROC 170100Z 10009KT 9999 FEW045 SCT100 22/16 A2992 BECMG=
200801170200 METAR MROC 170200Z 10006KT 9999 FEW045 BKN100 22/15 A2995 BECMG=
200801170300 METAR MROC 170300Z 11007KT 9999 FEW035 SCT120 22/15 A2997 BECMG=
200801170400 METAR MROC 170400Z 03003KT 9999 FEW035 SCT120 22/15 A2998 BECMG=
200801170500 METAR MROC 170500Z 08005KT 9999 FEW035 SCT120 21/15 A2997 BECMG=
200801170600 METAR MROC 170600Z 05003KT 9999 FEW040 SCT120 19/16 A2996 BECMG=
200801170700 METAR MROC NIL=
200801170800 METAR MROC 170800Z 06005KT CAVOK 18/15 A2993 RMK SCT120 BECMG=
200801170900 METAR MROC 170900Z 05008KT CAVOK 19/14 A2991 RMK SCT120 BECMG=
200801171000 METAR MROC 171000Z 08008KT CAVOK 19/14 A2992 RMK SCT120=
200801171100 METAR MROC NIL=
200801171200 METAR MROC 171200Z 01003KT CAVOK 19/17 A2993 RMK TRACE SC=
200801171300 METAR MROC 171300Z 07005KT CAVOK 21/14 A2995 TRAZAS SCT=
200801171400 METAR MROC 171400Z 06009KT CAVOK 24/14 A2997 TRAZAS SCT BECMG=
200801171500 METAR MROC 171500Z 10015KT CAVOK 25/13 A2995 TRAZAS SCT BECMG=
200801171600 METAR MROC 171600Z 10017G27KT CAVOK 26/13 A2995 TRAZAS SCT BECMG=
200801171700 METAR MROC 171700Z 08013G23KT CAVOK 29/09 A2994 TRAZAS SCT BECMG=
200801171800 METAR MROC 171800Z 07016KT CAVOK 28/11 A2992 TRAZAS SC BECMG=
200801171900 METAR MROC 171900Z 08014G24KT 9999 FEW035 28/11 A2990 BECMG=
200801172000 METAR MROC 172000Z 07014KT 9999 FEW035 28/11 A2988 BECMG=
200801172100 METAR MROC 172100Z 09015KT 9999 FEW035 28/11 A2986 BECMG=
200801172200 METAR MROC 172200Z 08012KT 9999 FEW035 27/12 A2986 BECMG=
200801172300 METAR MROC 172300Z 07011KT 9999 FEW035 25/13 A2987 BECMG=
200801180000 METAR MROC 180000Z 10012KT CAVOK 22/15 A2990 RMK TRACE SC BECMG=
200801180100 METAR MROC 180100Z 09010G20KT CAVOK 22/15 A2992 RMK TRACE SC BECMG=
200801180200 METAR MROC 180200Z 09011KT CAVOK 21/15 A2995 RMK TRACE SC GUST 17KT BECMG=
200801180300 METAR MROC 180300Z 10013KT CAVOK 21/14 A2996 RMK TRAZAS SC BECMG=
200801180400 METAR MROC 180400Z 09019KT CAVOK 21/15 A2997 RMK TRAZAS SC BECMG=
200801180500 METAR MROC 180500Z 10016KT CAVOK 21/15 A2995 TRAZAS SCT BECMG=
200801180600 METAR MROC 180600Z 10015KT CAVOK 20/15 A2995 RMK TRAZAS SC BECMG=
200801180700 METAR MROC 180700Z 10012KT CAVOK 20/14 A2993 RMK TRAZAS SC BECMG=
200801180800 METAR MROC 180800Z 10015KT CAVOK 20/13 A2990 RMK TRAZAS SC BECMG=
200801180900 METAR MROC 180900Z 09013KT CAVOK 20/13 A2991 RMK TRAZAS SC BECMG=
200801181000 METAR MROC 181000Z 10011KT CAVOK 20/13 A2991 RMK TRAZAS SC BECMG=
200801181100 METAR MROC 181100Z 08008KT CAVOK 20/12 A2991 RMK TRAZAS SC BECMG=
200801181200 METAR MROC 181200Z 10015KT CAVOK 20/13 A2992 RMK TRAZAS SC BECMG=
200801181300 METAR MROC 181300Z 10013KT CAVOK 21/13 A2994 RMK TRACE SC GUST 20KT BECMG=
200801181400 METAR MROC 181400Z 10013G23KT CAVOK 24/13 A2996 RMK TRACE SC BECMG=
200801181500 METAR MROC 181500Z 10012G22KT CAVOK 25/14 A2997 BECMG=
200801181600 METAR MROC 181600Z 12012KT CAVOK 27/13 A2999 RMK TRACE SC VIENTO MAXIMO 20KT BECMG=
200801181700 METAR MROC 181700Z 11009KT CAVOK 28/13 A2998 RMK TRACE SC VIENTO MAXIMO 18KT BECMG=
200801181800 METAR MROC 181800Z 11009KT 9999 FEW040 28/14 A2996 RMK VIENTO MAXIMO 15KT BECMG=
200801181900 METAR MROC 181900Z 13010KT 9999 FEW035 29/14 A2993 RMK VIENTO MAXIMO 18KT BECMG=
200801182000 METAR MROC 182000Z 13010KT 9999 SCT035 28/15 A2991 RMK VIENTO MAXIMO 17KT BECMG=
200801182100 METAR MROC 182100Z 12009KT 9999 SCT035 27/14 A2989 BECMG=
200801182200 METAR MROC 182200Z 12012KT 9999 SCT035 26/16 A2989 BECMG=
200801182300 METAR MROC 182300Z 11012G23KT 9999 SCT035 23/15 A2991 BECMG=
200801190000 METAR MROC 190000Z 10007KT 9999 FEW035 BKN050 22/15 A2993 RMK PCPN DST NE VEL MX VTO 14KT BECMG=
200801190100 METAR MROC 190100Z 12012KT 9999 FEW035 BKN060 21/15 A2996 BECMG=
200801190200 METAR MROC 190200Z 11010KT 9999 FEW035 21/14 A2997 RMK FEW050 BECMG=
200801190300 METAR MROC 190300Z 11010KT 9999 FEW030 21/13 A2999 BECMG=
200801190400 METAR MROC 190400Z 12011KT 9999 FEW045 21/13 A2999 BECMG=
200801190500 METAR MROC 190500Z 11011KT CAVOK 20/14 A2998 TRAZAS SCT BECMG=
200801190600 METAR MROC 190600Z 11009KT CAVOK 20/14 A2997 TRAZAS SCT BECMG=
200801190700 METAR MROC 190700Z 11011KT CAVOK 20/14 A2994 TRAZAS SC=
200801190800 METAR MROC 190800Z 10009KT CAVOK 20/14 A2995 TRAZAS SC=
200801190900 METAR MROC 190900Z 10010KT CAVOK 20/14 A2995 TRAZAS SC=
200801191000 METAR MROC 191000Z 10007KT CAVOK 20/14 A2994 TRAZAS SC/AC=
200801191100 METAR MROC 191100Z 04006KT CAVOK 19/14 A2994 TRAZAS SCT BKN100=
200801191200 METAR MROC 191200Z 05003KT CAVOK 19/14 A2995 TRAZAS SCT SCT080 SCT270=
200801191300 METAR MROC 191300Z 11005KT CAVOK 20/14 A2998 RMK TRACE SC BKN080 BECMG=
200801191400 METAR MROC 191400Z 11006KT CAVOK 22/14 A3001 RMK TRACE SC BKN090 BECMG=
200801191500 METAR MROC 191500Z 11010KT CAVOK 26/13 A3001 RMK TRACE SC SCT100 BECMG=
200801191600 METAR MROC 191600Z 11011KT CAVOK 26/14 A3000 RMK TRACE SC AC BECMG=
200801191700 METAR MROC 191700Z 11008KT CAVOK 28/14 A2998 RMK TRACE SC=
200801191800 METAR MROC 191800Z 10006KT 9999 FEW045 29/13 A2996 BECMG=
200801191900 METAR MROC 191900Z 13006KT 9999 SCT040 29/15 A2994 BECMG 24005KT=
200801192000 METAR MROC 192000Z 23010KT 9999 FEW040 BKN050 29/18 A2992 BECMG=
200801192100 METAR MROC 192100Z 22012KT 9999 BKN030 28/19 A2991 BECMG=
200801192200 METAR MROC 192200Z 22006KT 9999 SCT025 26/19 A2991 RMK RN N NE BECMG=
200801192300 METAR MROC 192300Z 22007KT 9999 FEW013 SCT025 24/19 A2993 RMK RN N NE BECMG=
200801200000 METAR MROC 200000Z 00000KT 9999 -RA FEW015 SCT025 23/18 A2994 BECMG=
200801200100 METAR MROC 200100Z 10006KT 9999 FEW020 SCT080 22/17 A2996 BECMG=
200801200200 METAR MROC 200200Z 10006KT 9999 FEW030 SCT100 22/16 A2999 BECMG=
200801200300 METAR MROC 200300Z 07008KT 9999 FEW025 SCT120 21/16 A3001 BECMG=
200801200400 METAR MROC 200400Z 11008KT 9999 FEW025 21/15 A3001 RMK VIENTO MAXIMO 14KT BECMG=
200801200500 METAR MROC 200500Z 07011KT 9999 FEW040 21/15 A3001 RMK VIENTO MAXIMO 18KT BECMG=
200801200600 METAR MROC 200600Z 09007KT CAVOK 21/14 A3000 RMK TRACE SC VIENTO MAXIMO 15KT BECMG=
200801200700 METAR MROC 200700Z 09009KT CAVOK 21/14 A2999 RMK TRACE SC VIENTO MAXIMO 20KT BECMG=
200801200800 METAR MROC 200800Z 10008KT CAVOK 21/14 A2996 RMK TRACE SC VIENTO MAXIMO 16KT=
200801200900 METAR MROC 200900Z 08008KT CAVOK 21/13 A2995 RMK TRACE SC AC=
200801201000 METAR MROC 201000Z 07007KT CAVOK 20/13 A2996 RMK TRACE SC=
200801201100 METAR MROC 201100Z 05008KT CAVOK 20/13 A2996 RMK TRACE SC=
200801201200 METAR MROC 201200Z 05005KT CAVOK 19/13 A2998 RMK TRACE SC SCT250=
200801201300 METAR MROC 201300Z 10007KT CAVOK 21/14 A3001 RMK TRACE SC SCT250 BECMG=
200801201400 METAR MROC 201400Z 10013KT CAVOK 23/14 A3003 RMK TRACE SC BECMG=
200801201500 METAR MROC 201500Z 09014KT CAVOK 25/14 A3003 RMK TRACE SC BECMG=
200801201600 METAR MROC 201600Z 11016KT CAVOK 26/13 A3001 RMK TRACE SC BECMG=
200801201700 METAR MROC 201700Z 10015KT 9999 FEW040 28/14 A3000 BECMG=
200801201800 METAR MROC 201800Z 11014KT 9999 FEW035 28/14 A2998 BECMG=
200801201900 METAR MROC 201900Z 10013KT 9999 FEW035 29/15 A2996 BECMG=
200801202000 METAR MROC 202000Z 11010KT 9999 FEW030 29/15 A2994 BECMG=
200801202100 METAR MROC 202100Z 08015KT 9999 SCT035 29/15 A2992 BECMG=
200801202200 METAR MROC 202200Z 07012KT 9999 SCT035 28/16 A2993 RMK VISNTO MAXIMO 18NUDOS=
200801202300 METAR MROC 202300Z 08011KT 9999 SCT035 26/17 A2995 RMK VIENTO MAXIMO 15NUDOS=
200801210000 METAR MROC 210000Z 08014KT 9999 SCT035 23/17 A2998 BECMG=
200801210100 METAR MROC 210100Z 07008KT 9999 FEW030 SCT050 23/16 A3001 VIENTO MAX 16KTS BECMG=
200801210200 METAR MROC 210200Z 08008KT 9999 FEW040 SCT080 23/16 A3003 VIENTO MAX 13KTS BECMG=
200801210300 METAR MROC 210300Z 10005KT 9999 FEW030 BKN048 20/18 A3005 BECMG=
200801210400 METAR MROC 210400Z 10008KT 9999 FEW030 SCT050 21/17 A3006 BECMG=
200801210500 METAR MROC 210500Z 10007KT 9999 FEW030 SCT050 21/16 A3005 BECMG=
200801210600 METAR MROC 210600Z 09011KT 9999 FEW035 21/16 A3003 RMK TRACE AC VEL MX VTO 17KT BECMG=
200801210700 METAR MROC 210700Z 10010KT 9999 FEW035 21/16 A3002 RMK TRACE AC VEL MX VTO 17KT BECMG=
200801210800 METAR MROC 210800Z 08015KT 9999 FEW040 21/15 A2999=
200801210900 METAR MROC 210900Z 11009KT 9999 FEW040 20/14 A2998=
200801211000 METAR MROC 211000Z 10010KT 9999 FEW040 20/14 A2998=
200801211100 METAR MROC 211100Z 11010KT 9999 FEW035 21/14 A2998=
200801211200 METAR MROC 211200Z 10010KT 9999 FEW035 SCT300 21/14 A3000=
200801211300 METAR MROC 211300Z 10013KT 9999 FEW035 21/14 A3002 RMK TRAZAS CI BECMG=
200801211400 METAR MROC 211400Z 10012KT 9999 FEW035 24/14 A3004 RMK TRAZAS CI VIENTO MAXIMO 19NUDOS=
200801211500 METAR MROC 211500Z 10015KT 9999 FEW035 24/15 A3006 RMK TRAZAS AC/CI VIENTO MAXIMO 24NUDOS=
200801211600 METAR MROC 211600Z 10014KT 9999 FEW035 26/14 A3006 RMK VIENTO MAXIMO 22NUDOS TRAZAS CI=
200801211700 METAR MROC 211700Z 08015KT 9999 FEW035 26/16 A3003 RMK TRAZAS CI VIENTO MAXIMO 24NUDOS BECMG=
200801211800 METAR MROC 211800Z 08018KT 9999 FEW035 27/15 A3002 RMK TRAZAS CI VIENTO MAXIMO 23 NUDOS BECMG=
200801211900 METAR MROC 211900Z 08020KT 9999 FEW035 27/15 A2998 RMK TRAZAS CI BECMG=
200801212000 METAR MROC 212000Z 08021KT 9999 FEW035 27/15 A2995 BECMG=
200801212100 METAR MROC 212100Z 10013G24KT 9999 SCT040 25/14 A2995 BECMG=
200801212200 METAR MROC 212200Z 09011KT 9999 FEW040 SCT060 24/13 A2995 DZ NE BECMG=
200801212300 METAR MROC 212300Z 10011KT 9999 FEW035 SCT060 23/13 A2996 DZ NE BECMG=
200801220000 METAR MROC 220000Z 10012KT CAVOK 22/13 A2998 TRAZAS SC/CI BECMG=
200801220100 METAR MROC 220100Z 11012KT CAVOK 21/14 A3000 TRAZAS SCT BECMG=
200801220200 METAR MROC 220200Z 10012KT CAVOK 20/14 A3001 TRAZAS SC BECMG=
200801220300 METAR MROC 220300Z 12006KT CAVOK 20/13 A3003 RMK TRACE SC BECMG=
200801220400 METAR MROC 220400Z 12010KT CAVOK 20/13 A3003 RMK TRACE SC BECMG=
200801220500 METAR MROC 220500Z 12012KT CAVOK 20/14 A3002 RMK TRACE SC BECMG=
200801220600 METAR MROC 220600Z 12011KT CAVOK 20/14 A3002 RMK TRACE SC BECMG=
200801220700 METAR MROC 220700Z 09010KT CAVOK 20/14 A3000 RMK TRACE SC=
200801220800 METAR MROC NIL=
200801220900 METAR MROC 220900Z 11013KT CAVOK 20/13 A2997 RMK TRACE SC BECMG=
200801221000 METAR MROC 221000Z 09012KT CAVOK 20/13 A2996 RMK TRACE SC=
200801221100 METAR MROC 221100Z 09015KT CAVOK 20/13 A2996 RMK TRACE SC=
200801221200 METAR MROC 221200Z 12008KT 9999 FEW035 20/14 A2999 BECMG=
200801221300 METAR MROC 221300Z 10013KT 9999 FEW030 21/14 A2997 BECMG=
200801221400 METAR MROC 221400Z 11014G24KT CAVOK 22/14 A3002 TRAZAS SCT BECMG=
200801221500 METAR MROC 221500Z 10017G30KT CAVOK 23/13 A3004 TRAZAS SCT BECMG=
200801221600 METAR MROC 221600Z 10016G26KT CAVOK 25/13 A3004 TRAZAS SCT BECMG=
200801221700 METAR MROC 221700Z 10014G26KT CAVOK 26/13 A3003 TRAZAS SCT BECMG=
200801221800 METAR MROC NIL=
200801221900 METAR MROC 221900Z 08017G27KT CAVOK 27/14 A2998 TRAZAS CU BECMG=
200801222000 METAR MROC 222000Z 07019G30KT 9999 FEW040 27/13 A2996 BECMG=
200801222100 METAR MROC 222100Z 09014KT 9999 FEW040 26/13 A2993 RMK VIENTO MAXIMO 19KT BECMG=
200801222200 METAR MROC 222200Z 08014KT CAVOK 25/13 A2993 RMK TRACE SC VIENTO MAXIMO 21KT BECMG=
200801222300 METAR MROC 222300Z 09014KT 9999 FEW040 24/14 A2993 RMK VIENTO MAXIMO 23KT BECMG=
200801230000 METAR MROC 230000Z 09014KT 9999 FEW040 22/14 A2995 RMK VIENTO MAXIMO 21KT BECMG=
200801230100 METAR MROC 230100Z 09013KT CAVOK 21/13 A2997 RMK VELOCIDAD MAXIMA 19KT BECMG=
200801230200 METAR MROC 230200Z 10012KT CAVOK 20/13 A2998 RMK TRACE SC VIENTO MAXIMO 20KT BECMG=
200801230300 METAR MROC 230300Z 10012KT CAVOK 22/12 A2999 RMK TRAZAS SC VIENTO MAXIMO 20NUDOS BECMG=
200801230400 METAR MROC 230400Z 10014KT CAVOK 21/14 A3000 RMK TRAZAS SC VIENTO MAXIMO 19 NUDOS BECMG=
200801230500 METAR MROC 230500Z 10018KT CAVOK 20/15 A2998 RMK TRAZAS SC BECMG=
200801230600 METAR MROC 230600Z 09007KT CAVOK 20/14 A2997 RMK TRAZAS SC VIENTO MAXIMO 16 NUDOS BECMG=
200801230700 METAR MROC 230700Z 10013KT CAVOK 20/14 A2995 RMK TRAZAS SC VIENTO MAXIMO 20NUDOS BECMG=
200801230800 METAR MROC 230800Z 10009KT CAVOK 20/15 A2993 RMK TRAZAS SC VIENTO MAXIMO 20NUDOS BECMG=
200801230900 METAR MROC 230900Z 11012KT CAVOK 20/15 A2993 RMK TRAZAS SC VIENTO MAXIMO 21NUDOS BECMG=
200801231000 METAR MROC 231000Z 12012KT CAVOK 20/14 A2989 RMK TRAZAS SC VIENTO MAXIMO 22NUDOS BECMG=
200801231100 METAR MROC 231100Z 09020KT CAVOK 19/14 A2994 RMK TRAZAS SC VIENTO MAXIMO 30NUDOS BECMG=
200801231200 METAR MROC 231200Z 12016KT CAVOK 20/13 A2995 RMK TRAZAS SC VIENTO MAXIMO 23NUDOS BECMG=
200801231300 METAR MROC 231300Z 11012KT CAVOK 21/13 A2999 RMK TRACE SC VIENTO MAXIMO 21KT BECMG=
200801231400 METAR MROC 231400Z 10014KT CAVOK 23/12 A2999 RMK TRACE SC SCT250 VIENTO MAXIMO 32KT BECMG=
200801231500 METAR MROC 231500Z 10013KT CAVOK 24/14 A3001 RMK TRACE SC SCT250 VIENTO MAXIMO 23KT BECMG=
200801231600 METAR MROC 231600Z 09014KT CAVOK 26/13 A3001 RMK TRACE SC SCT250 VIENTO MAXIMI 23KT BECMG=
200801231700 METAR MROC 231700Z 10015KT CAVOK 27/13 A2999 RMK TRACE SC SCT250 VIENTO MAXIMO 24KT BECMG=
200801231800 METAR MROC 231800Z 09016KT CAVOK 27/13 A2997 RMK TRACE SC SCT250 VIENTO MAXIMI 26KT BECMG=
200801231900 METAR MROC 231900Z 09014KT 9999 FEW040 28/13 A2995 RMK VIENTO MAXIMO 21KT BECMG=
200801232000 METAR MROC 232000Z 09016KT 9999 FEW045 28/12 A2992 RMK VIENTO MAXIMO 21KT BECMG=
200801232100 METAR MROC 232100Z 09013KT 9999 FEW040 SCT300 28/12 A2991 BECMG=
200801232200 METAR MROC 232200Z 09011KT 9999 FEW040 SCT300 27/12 A2991 BECMG=
200801232300 METAR MROC 232300Z 08014KT 9999 FEW035 25/13 A2992 RMK FEW CI BECMG=
200801240000 METAR MROC 240000Z 08007KT CAVOK 24/14 A2994 RMK TRACE SC AC BECMG=
200801240100 METAR MROC 240100Z 10009KT CAVOK 22/16 A2996 RMK TRACE SC SCT070 BECMG=
200801240200 METAR MROC NIL=
200801240300 METAR MROC 240300Z 09009KT CAVOK 21/15 A2999 TRAZAS SCT BECMG=
200801240400 METAR MROC 240400Z 08014G24KT CAVOK 22/14 A2999 TRAZAS SCT BECMG=
200801240500 METAR MROC 240500Z 08011KT 9999 SKC 21/15 A2997 TRAZAS SCT BECMG=
200801240600 METAR MROC 240600Z 08011KT CAVOK 21/15 A2996 TRAZAS SCT BECMG=
200801240700 METAR MROC NIL=
200801240800 METAR MROC 240800Z 09009KT CAVOK 21/14 A2992 TRAZAS SCT BECMG=
200801240900 METAR MROC 240900Z 10014KT CAVOK 21/15 A2992 TRAZAS SC=
200801241000 METAR MROC 241000Z 10013KT CAVOK 21/15 A2991 TRAZAS SCT=
200801241100 METAR MROC 241100Z 09015KT CAVOK 21/15 A2992 TRAZAS SCT=
200801241200 METAR MROC 241200Z 10012KT CAVOK 21/16 A2994 TRAZAS SCT=
200801241300 METAR MROC 241300Z 10008KT 9999 FEW035 21/16 A2997 BECMG=
200801241400 METAR MROC 241400Z 08014KT 9999 FEW035 23/15 A3000 BECMG=
200801241500 METAR MROC 241500Z 09015KT 9999 FEW035 25/15 A3001 RMK VEL MX VTO 21KT BECMG=
200801241600 METAR MROC 241600Z 08015KT 9999 FEW037 26/15 A3000 BECMG=
200801241700 METAR MROC 241700Z 11015KT 9999 FEW040 26/16 A2999 RMK TRACE AC DZ DST NE VEL MX VTO 23KT BECMG=
200801241800 METAR MROC 241800Z 11016G28KT 9999 FEW040 SCT060 27/17 A2998 RMK DZ DST NE BECMG=
200801241900 METAR MROC 241900Z 10015KT 9999 FEW030 BKN070 26/15 A2996 RMK DZ DST NE E VEL MX VTO 23KT BECMG=
200801242000 METAR MROC 242000Z 10014G26KTKT 9999 FEW030 BKN065 26/16 A2994 RMK DZ DST NE E BECMG=
200801242100 METAR MROC 242100Z 12015KT 9999 SCT030 25/16 A2993 RMK DZ DST N NE VEL MX VTO 23KT=
200801242200 METAR MROC 242200Z 11014KT 9999 SCT025 26/16 A2994 RMK DZ DST N NE VEL MX VTO 20KT=
200801242300 METAR MROC 242300Z 10013KT 9999 SCT030 24/14 A2995 RMK DZ NE BECMG=
200801250000 METAR MROC 250000Z 13009KT 9999 SCT025 22/15 A2997 BECMG=
200801250100 METAR MROC 250100Z 10012KT 9999 SCT025 21/16 A2998 BECMG=
200801250200 METAR MROC 250200Z 11011KT 9999 FEW030 21/15 A3001 BECMG=
200801250300 METAR MROC 250300Z 11013KT CAVOK 21/16 A3003 RMK TRACE SC VIENTO MAXIMO 19KT BECMG=
200801250400 METAR MROC 250400Z 11011KT 9999 FEW035 21/16 A3003 RMK VIENTO MAXIMO 20KT BECMG=
200801250500 METAR MROC 250500Z 11010KT 9999 FEW035 20/16 A3002 RMK VIENTO MAXIMO 21KT BECMG=
200801250600 METAR MROC 250600Z 10011KT 9999 FEW035 20/16 A3000 BECMG=
200801250700 METAR MROC 250700Z 10009KT 9999 FEW035 20/15 A2996=
200801250800 METAR MROC 250800Z 03008KT 9999 FEW035 21/14 A2997=
200801250900 METAR MROC 250900Z 07006KT 9999 FEW035 20/14 A2998=
200801251000 METAR MROC 251000Z 09009KT 9999 FEW035 19/14 A2999=
200801251100 METAR MROC 251100Z 12010KT 9999 FEW035 19/14 A3001=
200801251200 METAR MROC 251200Z 12011KT 9999 FEW035 19/13 A3002 RMK TRACE CI DZ DST NE=
200801251300 METAR MROC 251300Z 12011KT 9999 FEW030 20/13 A3005 BECMG=
200801251400 METAR MROC 251400Z 08011KT 9999 FEW035 23/13 A3006 BECMG=
200801251500 METAR MROC 251500Z 08017KT 9999 FEW035 25/11 A3006 BECMG=
200801251600 METAR MROC 251600Z 09014KT 9999 FEW030 25/14 A3006 BECMG=
200801251700 METAR MROC 251700Z 08013KT 9999 FEW030 25/14 A3004 RMK RN N NE BECMG=
200801251800 METAR MROC 251800Z 09023KT 9999 SCT025 26/14 A3002 RMK RN N NE VL MX VTO 28KT BECMG=
200801251900 METAR MROC 251900Z 09020KT 9999 SCT025 26/12 A3000 RMK VL MX VTO 26KT=
200801252000 METAR MROC 252000Z 09015G25KT 9999 SCT025 26/11 A2998 BECMG=
200801252100 METAR MROC 252100Z 07020KT 9999 SCT035 26/13 A2997 RMK VIENTO MAXIMO 30NUDOS=
200801252200 METAR MROC 252200Z 08018KT 9999 SCT035 25/13 A2996 RMK VIENTO MAXIMO 23NUDOS=
200801252300 METAR MROC 252300Z 09020KT 9999 SCT035 24/13 A2998 RMK VIENTO MAXIMO 30NUDOS=
200801260000 METAR MROC 260000Z 08016KT 9999 SCT035 22/14 A2999 RMK VIENTO MAXIMO 25NUDOS BECMG=
200801260100 METAR MROC 260100Z 06019KT 9999 FEW035 22/13 A2997 RMK VIENTO MAXIMO 25 NUDOS BECMG=
200801260200 METAR MROC 260200Z 07015G25KT 9999 FEW035 22/12 A3000 BECMG=
200801260300 METAR MROC 260300Z 07015KT CAVOK 21/13 A3002 BECMG=
200801260400 METAR MROC 260400Z 07013KT CAVOK 21/12 A3002 RMK TRACE SC BECMG=
200801260500 METAR MROC 260500Z 07014KT CAVOK 21/11 A3001 RMK TRACE SC BECMG=
200801260600 METAR MROC 260600Z 08011KT CAVOK 21/11 A2999 RMK TRACE SC BECMG=
200801260700 METAR MROC 260700Z 07016KT CAVOK 21/09 A2998 RMK TRACE SC MX VEL VTO 23KT BECMG=
200801260800 METAR MROC 260800Z 07014KT CAVOK 21/09 A2996 RMK TRACE SC MX VEL VTO 22KT=
200801260900 METAR MROC 260900Z 09012KT CAVOK 19/09 A2996 RMK TRACE SC=
200801261000 METAR MROC 261000Z 09014KT CAVOK 20/08 A2996 RMK TRACE SC=
200801261100 METAR MROC 261100Z 10015KT CAVOK 20/08 A2997 RMK TRACE SC=
200801261200 METAR MROC 261200Z 09013KT CAVOK 20/10 A2998 RMK TRACE SC CI MX VEL VTO 17KT=
200801261300 METAR MROC 261300Z 08015KT CAVOK 21/11 A3000 RMK TRAZAS SC BECMG=
200801261400 METAR MROC 261400Z 09018KT CAVOK 23/12 A3005 RMK VIENTO MAXIMO 26NUDOS TRAZAS SC BECMG=
200801261500 METAR MROC 261500Z 09012G24KT CAVOK 23/13 A3007 RMK TRAZAS SC BECMG=
200801261600 METAR MROC 261600Z 09016KT CAVOK 25/11 A3007 RMK VIENTO MAXIMO 23NUDOS TRAZAS SC BECMG=
200801261700 METAR MROC 261700Z 09020KT 9999 FEW035 26/10 A3005 RMK VIENTO MAXIMO 24NUDOS BECMG=
200801261800 METAR MROC 261800Z 10018KT 9999 FEW035 26/11 A3002 RMK VIENTO MAXIMO 24NUDOS BECMG=
200801261900 METAR MROC 261900Z 09020KT 9999 FEW035 26/09 A3000 RMK VIENTO MAXIMO 25NUDOS BECMG=
200801262000 METAR MROC 262000Z 09020KT 9999 FEW035 26/05 A2999 RMK VIENTO MAXIMO 30NUDOS BECMG=
200801262100 METAR MROC 262100Z 08015KT 9999 FEW035 27/05 A2998 RMK VIENTO MAXIMO 21NUDOS BECMG=
200801262200 METAR MROC 262200Z 07012KT 9999 FEW035 26/07 A2998 BECMG=
200801262300 METAR MROC 262300Z 07011KT 9999 FEW035 24/10 A3000 BECMG=
200801270000 METAR MROC 270000Z 07015KT 9999 FEW035 22/10 A3001 RMK VIENTO MAXIMO 21 NUDOS=
200801270100 METAR MROC 270100Z 11006KT CAVOK 21/12 A3003 RMK TRAZAS SC BECMG=
200801270200 METAR MROC 270200Z 09007KT CAVOK 21/13 A3004 RMK TRAZAS SC BECMG=
200801270300 METAR MROC 270300Z 10009KT CAVOK 20/14 A3005 RMK TRACE SC BECMG=
200801270400 METAR MROC 270400Z 09012KT CAVOK 20/15 A3006 RMK TRACE SC BECMG=
200801270500 METAR MROC 270500Z 09012KT CAVOK 20/15 A3005 RMK TRACE SC BECMG=
200801270600 METAR MROC 270600Z 09012KT CAVOK 19/14 A3003 RMK TRACE SC BECMG=
200801270700 METAR MROC 270700Z 10011KT CAVOK 19/14 A3002 RMK TRACE SC=
200801270800 METAR MROC NIL=
200801270900 METAR MROC 270900Z 10010KT CAVOK 29/14 A3001 RMK TRACE SC=
200801271000 METAR MROC 271000Z 12012KT CAVOK 20/15 A3001 RMK TRACE SC=
200801271100 METAR MROC 271100Z 09011KT CAVOK 20/15 A3002 RMK TRACE SC=
200801271200 METAR MROC 271200Z 10006KT 9999 FEW025 20/14 A3003 BECMG=
200801271300 METAR MROC 271300Z 10012G22KT 9999 SCT030 20/13 A3004 RMK DZ DST N/NE BECMG=
200801271400 METAR MROC 271400Z 07020G30KT 9999 SCT030 22/13 A3008 RMK DZ DST N/NE BECMG=
200801271500 METAR MROC 271500Z 08020G30KT 9999 SCT030 23/13 A3009 RMK RN DST N/NE BECMG=
200801271600 METAR MROC 271600Z 10016G26KT 9999 SCT030 23/13 A3009 RMK BECMG=
200801271700 METAR MROC 271700Z 08020G30KT 9999 SCT030 BKN300 24/13 A3007 BECMG=
200801271800 METAR MROC 271800Z 08020G30KT 9999 SCT030 BKN300 25/13 A3004 RMK BECMG=
200801271900 METAR MROC 271900Z 06020G30KT 9999 FEW035 26/12 A3001 BECMG=
200801272000 METAR MROC 272000Z 07025KT 9999 FEW035 SCT300 27/13 A2999 BECMG=
200801272100 METAR MROC 272100Z 08018G29KT 9999 FEW035 24/13 A2997 BECMG=
200801272200 METAR MROC 272200Z 08016G26KT 9999 FEW035 24/15 A2998 BECMG=
200801272300 METAR MROC 272300Z 07018KT 9999 FEW035 22/15 A2999 RMK VIENTO MAXIMO 24KT BECMG=
200801280000 METAR MROC 280000Z 07012G22KT 9999 SCT030 21/14 A3000 RMK RN DST NE E BECMG=
200801280100 METAR MROC 280100Z 09012KT 9999 FEW035 21/14 A3002 BECMG=
200801280200 METAR MROC 280200Z 07016G28KT 9999 FEW035 21/13 A3003 RMK RN DST E BECMG=
200801280300 METAR MROC 280300Z 09010KT CAVOK 20/14 A3005 RMK TRAZAS SC VIENTO MAXIMO 16NUDOS BECMG=
200801280400 METAR MROC 280400Z 07012KT CAVOK 20/11 A3006 RMK TRAZAS SC VIENTO MAXIMO 18NUDOS BECMG=
200801280500 METAR MROC 280500Z 09012KT CAVOK 20/13 A3005 RMK TRAZAS SC VIENTO MAXIMO 22NUDOS BECMG=
200801280600 METAR MROC 280600Z 09016KT CAVOK 20/13 A3002 RMK TRAZAS SC VIENTO MAXIMO 23NUDOS BECMG=
200801280700 METAR MROC 280700Z 08010G20KT CAVOK 19/13 A3000 RMK TRAZAS SC BECMG=
200801280800 METAR MROC 280800Z 07010G20KT CAVOK 19/12 A3000 RMK TRAZAS SC BECMG=
200801280900 METAR MROC 280900Z 09010G20KT CAVOK 19/13 A3000 RMK TRAZAS SC BECMG=
200801281000 METAR MROC 281000Z 08010G20KT CAVOK 18/12 A2999 RMK TRAZAS SC BECMG0=
200801281100 METAR MROC 281100Z 08010G20KT CAVOK 18/12 A2998 RMK TRAZAS SC BECMG=
200801281200 METAR MROC 281200Z 10014KT CAVOK 18/12 A3003 RMK TRAZAS SC/CI BECMG=
200801281300 METAR MROC 281300Z 09013KT CAVOK 19/13 A3005 RMK TRACE SC BECMG=
200801281400 METAR MROC 281400Z 10011KT CAVOK 22/12 A3008 RMK TRACE SC GUST 20KT BECMG=
200801281500 METAR MROC 281500Z 07016KT CAVOK 24/08 A3008 RMK TRACE SC GUST 22KT BECMG=
200801281600 METAR MROC 281600Z 08016KT CAVOK 25/09 A3008 RMK TRACE SC GUST 23KT BECMG=
200801281700 METAR MROC 281700Z 07017G27KT CAVOK 26/08 A3006 RMK TRACE SC BECMG=
200801281800 METAR MROC 281800Z 07020KT CAVOK 27/06 A3004 RMK TRACE SC GUST 27KT BECMG=
200801281900 METAR MROC 281900Z 08014KT CAVOK 27/06 A3001 RMK TRACE SC GUST 23 BECMG=
200801282000 METAR MROC 282000Z 06018KT CAVOK 28/05 A2998 RMK TRACE SC GUST 25KT BECMG=
200801282100 METAR MROC 282100Z 07018KT CAVOK 27/04 A2997 RMK TRACE SC BECMG=
200801282200 METAR MROC 282200Z 07016KT CAVOK 26/04 A2997 RMK TRACE SC BECMG=
200801282300 METAR MROC 282300Z 08011KT CAVOK 24/10 A2999 RMK TRACE BECMG=
200801290000 METAR MROC 290000Z 08010KT CAVOK 22/11 A3000 RMK TRACE SC BECMG=
200801290100 METAR MROC 290100Z 08012KT CAVOK 22/13 A3002 RMK TRACE SC BECMG=
200801290200 METAR MROC 290200Z 10014KT 9999 SCT035 21/14 A3003 BECMG=
200801290300 METAR MROC 290300Z 11008KT 9999 FEW045 20/15 A3004 BECMG=
200801290400 METAR MROC 290400Z 10008G18KT 9999 FEW040 20/15 A3004 BECMG=
200801290500 METAR MROC 290500Z 10008G18KT 9999 FEW040 21/14 A3003 BECMG=
200801290600 METAR MROC 290600Z 09012KT CAVOK 21/12 A3003 BECMG=
200801290700 METAR MROC 290700Z 10009KT CAVOK 20/12 A3001 TRAZAS SCT=
200801290800 METAR MROC NIL=
200801290900 METAR MROC 290900Z 10006KT 9999 FEW045 SCT080 20/13 A2998=
200801291000 METAR MROC 291000Z 10009KT CAVOK 19/14 A3000 TRAZAS SC SCT080=
200801291100 METAR MROC 291100Z 09009KT CAVOK 19/14 A3000 TRAZAS SCT=
200801291200 METAR MROC 291200Z 11005KT CAVOK 18/14 A3001 TRAZAS SCT=
200801291300 METAR MROC 291300Z 13005KT CAVOK 19/13 A3004 RMK TRACE SC BECMG=
200801291400 METAR MROC 291400Z 11007KT CAVOK 22/13 A3006 RMK TRACE SC=
200801291500 METAR MROC 291500Z 10010KT CAVOK 24/12 A3007 RMK TRACE SC=
200801291600 METAR MROC 291600Z 11008KT 9999 FEW045 26/13 A3007 BECMG=
200801291700 METAR MROC 291700Z 12010KT 9999 FEW045 26/13 A3005 BECMG=
200801291800 METAR MROC 291800Z 12007KT 9999 FEW045 28/11 A3002 BECMG=
200801291900 METAR MROC 291900Z 15006KT 9999 FEW040 28/11 A2999 BECMG=
200801292000 METAR MROC 292000Z 12007KT 9999 FEW045 28/11 A2996 BECMG 24006KT=
200801292100 METAR MROC 292100Z 22011KT 9999 SCT040 26/17 A2996 BECMG=
200801292200 METAR MROC 292200Z 22010KT 9999 SCT040 26/18 A2996 BECMG=
200801292300 METAR MROC 292300Z 22009KT 9999 FEW040 24/17 A2998 BECMG=
200801300000 METAR MROC 300000Z 24006KT 9999 FEW040 22/17 A3000 BECMG=
200801300014 METAR MROC 300014Z 24005KT 9999 FEW040 22/17 A3001 BECMG=
200801300100 METAR MROC 300100Z 00000KT 9999 FEW040 21/17 A3003 BECMG=
200801300200 METAR MROC 300200Z 09004KT 9999 FEW045 20/15 A3006 BECMG=
200801300300 METAR MROC 300300Z 12006KT CAVOK 20/14 A3007 RMK TRACE SC BECMG=
200801300400 METAR MROC 300400Z 10008KT CAVOK 20/13 A3007 RMK TRACE SC BECMG=
200801300500 METAR MROC 300500Z 10009KT CAVOK 20/12 A3005 RMK TRACE SC BECMG=
200801300600 METAR MROC 300600Z 08007KT CAVOK 18/13 A3004 RMK TRACE SC BECMG=
200801300700 METAR MROC 300700Z 05005KT CAVOK 18/12 A3002 RMK TRACE SC=
200801300800 METAR MROC 300800Z 08005KT CAVOK 18/12 A3001 RMK TRACE SC=
200801300900 METAR MROC 300900Z 07005KT CAVOK 18/11 A3001 RMK TRA CE SC=
200801301000 METAR MROC 301000Z 06007KT CAVOK 17/11 A3001 RMK TRACE SC=
200801301100 METAR MROC 301100Z 05009KT CAVOK 16/10 A3002 RMK TRACE SC=
200801301200 METAR MROC 301200Z 09011KT CAVOK 18/09 A3004 RMK TRACE SC=
200801301300 METAR MROC 301300Z 06010KT 9999 SKC 18/09 A3007 BECMG=
200801301400 METAR MROC 301400Z 08006KT 9999 SKC 22/09 A3009=
200801301500 METAR MROC 301500Z 12009KT 9999 SKC 23/08 A3009 BECMG=
200801301600 METAR MROC 301600Z 12011KT CAVOK 26/08 A3008 BECMG RMK TRACE CU=
200801301700 METAR MROC 301700Z 11009KT CAVOK 27/07 A3006 BECMG TRACE CU=
200801301800 METAR MROC 301800Z 14008KT CAVOK 29/08 A3003 BECMG 24008KT RMK TRACE CU=
200801301900 METAR MROC 301900Z 11006KT CAVOK 29/08 A3000 BECMG TRACE CU=
200801302000 METAR MROC 302000Z 11010KT 9999 FEW040 29/10 A2997 BECMG 24008KT=
200801302100 METAR MROC 302100Z 13007KT 9999 FEW035 29/11 A2995 BECMG=
200801302200 METAR MROC 302200Z 10008KT 9999 FEW035 26/12 A2995 BECMG=
200801302300 METAR MROC 302300Z 11007KT 9999 FEW035 25/13 A2996 BECMG=
200801310000 METAR MROC 310000Z 10006KT 9999 FEW035 22/14 A2998 BECMG=
200801310100 METAR MROC 310100Z 08006KT 9999 FEW035 21/14 A3001 BECMG=
200801310200 METAR MROC 310200Z 10003KT 9999 FEW035 20/13 A3003 BECMG=
200801310300 METAR MROC 310300Z 11007KT CAVOK 20/13 A3005 RMK TRACE SC BECMG=
200801310400 METAR MROC 310400Z 10009KT CAVOK 19/11 A3005 RMK TRACE SC BECMG=
200801310500 METAR MROC 310500Z 10009KT CAVOK 19/12 A3005 RMK TRACE SC BECMG=
200801310600 METAR MROC 310600Z 10008KT CAVOK 19/10 A3004 RMK TRACE SC BECMG=
200801310700 METAR MROC 310700Z 08006KT CAVOK 18/11 A3002 RMK TRACE SC BECMG=
200801310800 METAR MROC 310800Z 08005KT CAVOK 18/12 A3001 RMK TRACE SC=
200801310900 METAR MROC 310900Z 11009KT CAVOK 18/12 A3001 RMK TRACE SC=
200801311000 METAR MROC 311000Z 11008KT CAVOK 18/12 A3001 RMK TRACE SC=
200801311100 METAR MROC 311100Z 05005KT CAVOK 16/12 A3003 RMK TRACE SC=
200801311200 METAR MROC 311200Z 08004KT CAVOK 17/12 A3005 RMK TRACE SC CI=
200801311300 METAR MROC 311300Z 08005KT CAVOK 18/12 A3006 RMK TRAZAS SC SCT250 BECMG=
200801311400 METAR MROC 311400Z 11010KT CAVOK 22/17 A3008 RMK TRAZAS SC/CI BECMG=
200801311500 METAR MROC 311500Z 11010KT CAVOK 24/12 A3010 RMK TRAZAS SC/CI BECMG0=
200801311600 METAR MROC 311600Z 12010KT CAVOK 25/12 A3009 RMK TRAZAS CU/CI BECMG=
200801311700 METAR MROC 311700Z 09010KT CAVOK 27/11 A3007 RMK TRAZAS CU/CI BECMG=
200801311800 METAR MROC 311800Z 12010KT 9999 FEW035 28/10 A3004 BECMG=
200801311900 METAR MROC 311900Z 09011KT 9999 FEW035 28/08 A3001 BECMG0=
200801312000 METAR MROC 312000Z 12005KT 9999 FEW035 28/09 A2999 RMK BECMG 23007KT=
200801312100 METAR MROC 312100Z 23011KT 9999 FEW030 26/16 A2997 BECMG=
200801312200 METAR MROC 312200Z 23012KT 9999 FEW030 26/17 A2998 BECMG=
200801312300 METAR MROC 312300Z 22008KT 9999 FEW035 24/17 A3000 BECMG=
200801312352 METAR MROC 010000Z 18006KT 9999 FEW030 22/17 A3002 BECMG 05006KT=
200802010000 METAR MROC 010000Z 18006KT 9999 FEW030 22/17 A3002 BECMG 05006KT=
200802010100 METAR MROC 010100Z 13010KT CAVOK 21/14 A3005 RMK TRACE SC BECMG=
200802010200 METAR MROC 010200Z 11004KT CAVOK 20/14 A3008 RMK TRACE SC BECMG=
200802010300 METAR MROC 010300Z 11004KT CAVOK 19/13 A3010 BECMG TRACE SCT=
200802010400 METAR MROC 010400Z 10007KT CAVOK 19/13 A3010 BECMG TRACE SCT=
200802010500 METAR MROC 010500Z 09008KT CAVOK 18/13 A3009 BECMG TRACE SCT=
200802010600 METAR MROC 010600Z 07008KT CAVOK 17/12 A3007 BECMG TRACE SCT=
200802010700 METAR MROC 010700Z 03004KT CAVOK 17/12 A3006 BECMG RMK TRACE SC=
200802010800 METAR MROC 010800Z 00000KT CAVOK 16/12 A3005 RMK TRACE SC=
200802010900 METAR MROC 010900Z 08005KT CAVOK 17/12 A3005 RMK TRACE SC=
200802011000 METAR MROC 011000Z 09005KT CAVOK 17/12 A3005 RMK TRACE SC=
200802011100 METAR MROC 011100Z 05006KT CAVOK 17/12 A3006 RMK TRACE SC=
200802011200 METAR MROC 011200Z 09004KT 9999 FEW035 18/13 A3008 RMK TRACE AC=
200802011300 METAR MROC 011300Z 03009KT 9999 FEW035 SCT250 18/13 A3009 BECMG=
200802011400 METAR MROC 011400Z 10012KT 9999 FEW035 SCT250 22/15 A3010 BECMG=
200802011500 METAR MROC 011500Z 10017KT 9999 FEW035 SCT260 23/14 A3012 BECMG=
200802011600 METAR MROC 011600Z 11015KT 9999 FEW035 SCT260 24/16 A3012 BECMG=
200802011700 METAR MROC 011700Z 11012KT 9999 SCT030 24/15 A3010 BECMG=
200802011800 METAR MROC 011800Z 11017KT 9999 SCT030 26/14 A3008 BECMG=
200802011900 METAR MROC 011900Z 12019KT 9999 FEW030 26/14 A3005 BECMG=
200802012000 METAR MROC 012000Z 12012KT 9999 FEW030 25/13 A3003 BECMG=
200802012100 METAR MROC 012100Z 12014KT 9999 FEW030 25/14 A3002 BECMG=
200802012200 METAR MROC 012200Z 11017KT 9999 FEW030 23/13 A3002 RMK VIENTO MAXIMO 24KT=
200802012300 METAR MROC 012300Z 09016KT 9999 FEW035 22/13 A3004 BECMG=
200802020000 METAR MROC 020000Z 11014KT 9999 FEW035 20/13 A3005 BECMG=
200802020100 METAR MROC 020100Z 11013KT CAVOK 20/13 A3007 RMK TRAZAS SC BECMG=
200802020200 METAR MROC 020200Z 10011KT CAVOK 19/14 A3010 RMK TRACE SC BECMG=
200802020300 METAR MROC 020300Z 11018KT CAVOK 18/12 A3011 RMK TRAZAS SC BECMG=
200802020400 METAR MROC 020400Z 10013KT CAVOK 19/12 A3012 RMK TRAZAS SC BECMG0=
200802020500 METAR MROC 020500Z 07017KT CAVOK 19/12 A3012 RMK TRAZAS SC BECMG=
200802020600 METAR MROC 020600Z 09012KT CAVOK 18/12 A3010 RMK TRAZAS SC BECMG=
200802020700 METAR MROC 020700Z 11014KT CAVOK 18/12 A3009 RMK TRAZAS SC BECMG=
200802020800 METAR MROC 020800Z 10007KT CAVOK 18/12 A3007 RMK TRAZAS SC BECMG=
200802020900 METAR MROC 020900Z 10008KT CAVOK 17/12 A3006 RMK TRAZAS SC BECMG=
200802021000 METAR MROC 021000Z 11011KT CAVOK 17/12 A3005 RMK TRAZAS SC BECMG0=
200802021100 METAR MROC 021100Z 11011KT CAVOK 17/12 A3006 RMK TRAZAS SC BECMG=
200802021200 METAR MROC 021200Z 10011KT CAVOK 17/12 A3008 RMK TRAZAS SC BECMG=
200802021300 METAR MROC 021300Z 10014KT CAVOK 19/10 A3010 RMK TRACE SC=
200802021400 METAR MROC 021400Z 11013KT CAVOK 21/10 A3011 RMK TRACE SC BECMG=
200802021500 METAR MROC 021500Z 11015KT CAVOK 22/10 A3013 RMK TRACE SC BECMG=
200802021600 METAR MROC 021600Z 10015G25KT CAVOK 24/10 A3012 RMK TRACE SC BECMG=
200802021700 METAR MROC 021700Z 09011KT CAVOK 25/11 A3011 RMK TRACE SC BECMG=
200802021800 METAR MROC 021800Z 11012KT CAVOK 25/11 A3009 RMK TRACE SC BECMG=
200802021900 METAR MROC 021900Z 11012KT CAVOK 26/12 A3006 RMK TRACE SC BECMG=
200802022000 METAR MROC 022000Z 10012KT 9999 FEW035 26/12 A3003 BECMG=
200802022100 METAR MROC 022100Z 10012KT 9999 FEW035 26/12 A3001 BECMG=
200802022200 METAR MROC 022200Z 10010KT 9999 FEW035 25/12 A3001 BECMG=
200802022300 METAR MROC 022300Z 11011KT 9999 FEW035 23/12 A3002 BECMG=
200802030000 METAR MROC 030000Z 11009KT 9999 FEW035 21/13 A3004 BECMG=
200802030100 METAR MROC 030100Z 10008KT 9999 FEW035 20/13 A3006 BECMG=
200802030200 METAR MROC 030200Z 07006KT 9999 FEW035 19/13 A3008 BECMG=
200802030300 METAR MROC 030300Z 09007KT 9999 FEW035 19/14 A3010 BECMG=
200802030400 METAR MROC 030400Z 10009KT CAVOK 19/13 A3011 BECMG=
200802030500 METAR MROC 030500Z 10009KT CAVOK 18/13 A3009 BECMG=
200802030600 METAR MROC 030600Z 11012KT CAVOK 18/11 A3008 BECMG=
200802030700 METAR MROC 030700Z 08008KT CAVOK 17/11 A3004 BECMG=
200802030800 METAR MROC 030800Z 08008KT CAVOK 17/11 A3004 BECMG=
200802030900 METAR MROC 030900Z 07010KT CAVOK 17/10 A3004 BECMG=
200802031000 METAR MROC 031000Z 10008KT CAVOK 17/11 A3005 BECMG=
200802031100 METAR MROC 031100Z 11008KT CAVOK 17/11 A3006 BECMG=
200802031200 METAR MROC 031200Z 12011KT CAVOK 17/10 A3007 BECMG=
200802031300 METAR MROC 031300Z 11012KT CAVOK 18/10 A3009 RMK TRACE SC SCT300 BECMG=
200802031400 METAR MROC 031400Z 11013KT CAVOK 21/10 A3011 RMK TRACE SC SCT300 BECMG=
200802031500 METAR MROC 031500Z 11013KT CAVOK 23/10 A3012 RMK TRACE SC SCT300 BECMG=
200802031600 METAR MROC 031600Z NIL=
200802031700 METAR MROC 031700Z NIL=
200802031800 METAR MROC 031800Z NIL=
200802031900 METAR MROC 031900Z 11010KT 9999 FEW045 28/11 A3002 RMK BECMG=
200802032000 METAR MROC 032000Z 11011KT 9999 FEW040 27/13 A3000 BECMG=
200802032100 METAR MROC 032100Z 13010KT 9999 FEW040 27/13 A2999 BECMG=
200802032200 METAR MROC 032200Z 12012KT 9999 FEW040 26/13 A2998 BECMG=
200802032300 METAR MROC 032300Z 11012KT 9999 SCT030 23/14 A2999 BECMG=
200802040000 METAR MROC 040000Z 11006KT 9999 SCT025 21/13 A3002 BECMG=
200802040100 METAR MROC 040100Z 12010KT 9999 SCT025 20/12 A3004 BECMG=
200802040200 METAR MROC 040200Z 11010KT 9999 FEW030 20/12 A3006 BECMG=
200802040300 METAR MROC 040300Z 11011KT CAVOK 19/12 A3009 RMK TRACE SC BECMG=
200802040400 METAR MROC 040400Z 13010KT CAVOK 19/13 A3009 RMK TRACE SC BECMG=
200802040500 METAR MROC 040500Z 11008KT CAVOK 18/13 A3009 RMK TRACE SC BECMG=
200802040600 METAR MROC 040600Z 08013KT CAVOK 19/12 A3006 RMK TRACE SC BECMG=
200802040700 METAR MROC 040700Z 09014KT CAVOK 18/12 A3004 RMK TRACE SC BECMG=
200802040800 METAR MROC 040800Z 09009KT CAVOK 18/12 A3003 RMK TRACE SC=
200802040900 METAR MROC 040900Z 12009KT CAVOK 17/12 A3001 RMK TRACE SC=
200802041000 METAR MROC 041000Z 12007KT CAVOK 17/12 A3002 RMK TRACE SC=
200802041100 METAR MROC 041100Z 13007KT CAVOK 17/12 A3003 RMK TRACE SC=
200802041200 METAR MROC 041200Z 10006KT CAVOK 17/12 A3004 RMK TRACE SC=
200802041300 METAR MROC 041300Z 11008KT CAVOK 19/12 A3006 RMK TRACE SC BECMG=
200802041400 METAR MROC 041400Z 10008KT CAVOK 22/11 A3007 RMK TRACE SC CI BECMG=
200802041500 METAR MROC 041500Z 09015KT CAVOK 25/11 A3007 RMK TRACE SC BECMG=
200802041600 METAR MROC 041600Z 07012KT CAVOK 26/10 A3006 RMK TRACE SC BECMG=
200802041700 METAR MROC 041700Z 07012KT CAVOK 27/11 A3004 RMK TRACE SC BECMG 24006KT=
200802041800 METAR MROC 041800Z 07012KT 9999 FEW040 28/11 A3002 BECMG=
200802041900 METAR MROC 041900Z 12011KT 9999 SCT035 28/11 A2999 BECMG=
200802042000 METAR MROC 042000Z 11008KT 9999 SCT035 28/10 A2996 BECMG 24006KT=
200802042100 METAR MROC 042100Z 12009KT 9999 SCT035 28/11 A2994 RMK BECMG 24006KT=
200802042200 METAR MROC 042200Z 17007KT 9999 SCT035 27/13 A2995 BECMG=
200802042300 METAR MROC 042300Z 23010KT 9999 SCT035 23/19 A2997 BECMG=
200802050000 METAR MROC 050000Z 23005KT 9999 SCT035 21/18 A2994 BECMG=
200802050100 METAR MROC 050100Z 00000KT 9999 FEW035 21/18 A3002 BECMG 10006=
200802050200 METAR MROC 050200Z 00000KT 9999 FEW035 20/16 A3004 BECMG=
200802050300 METAR MROC 050300Z 09005KT 9999 FEW035 20/15 A3006 BECMG=
200802050400 METAR MROC 050400Z 12007KT 9999 FEW035 20/14 A3006 BECMG=
200802050500 METAR MROC 050500Z 12009KT 9999 FEW035 20/17 A3007 BECMG=
200802050600 METAR MROC 050600Z 12007KT 9999 FEW035 19/13 A3006 BECMG=
200802050700 METAR MROC 050700Z 10007KT CAVOK 19/13 A3004 RMK TRACE SC BECMG=
200802050800 METAR MROC 050800Z 11009KT CAVOK 19/13 A3003 RMK TRACE SC=
200802050900 METAR MROC 050900Z 10005KT CAVOK 18/12 A3003 RMK TRACE SC=
200802051000 METAR MROC 051000Z 07007KT CAVOK 18/12 A3004 RMK TRACE SC AC=
200802051100 METAR MROC 051100Z 08007KT CAVOK 18/12 A3004 RMK TRACE SC CI FEW100=
200802051200 METAR MROC 051200Z 10005KT CAVOK 18/12 A3005 RMK TRACE AC CI=
200802051300 METAR MROC 051300Z 10005KT CAVOK 20/12 A3006 RMK TRAZAS SC/CI BECMG=
200802051400 METAR MROC 051400Z 11010KT CAVOK 22/10 A3007 RMK TRAZAS SC=
200802051500 METAR MROC 051500Z 11010KT CAVOK 24/10 A3008 RMK TRAZAS SC BECMG=
200802051600 METAR MROC 051600Z 11011KT CAVOK 27/10 A3007 RMK TRAZAS SC/CI BECMG 24006KT=
200802051700 METAR MROC 051700Z 14009KT CAVOK 28/10 A3006 RMK TRAZAS SC BECMG=
200802051800 METAR MROC 051800Z 22007KT 9999 FEW035 29/11 A3004 BECMG=
200802051900 METAR MROC 051900Z 21009KT 9999 FEW035 29/13 A3000 BECMG=
200802052000 METAR MROC 052000Z 22012KT 9999 SCT035 29/16 A2997 BECMG=
200802052100 METAR MROC 052100Z 23012KT 9999 FEW040 27/18 A2996 BECMG=
200802052200 METAR MROC 052200Z 21012KT 9999 FEW030 26/18 A2997 BECMG=
200802052300 METAR MROC 052300Z 22008KT 9999 SCT045 SCT110 25/17 A2998 BECMG=
200802060000 METAR MROC 060000Z 22006KT 9999 SCT045 SCT110 23/17 A3001 BECMG=
200802060100 METAR MROC 060100Z 00000KT 9999 FEW045 SCT110 21/16 A3003 BECMG=
200802060200 METAR MROC 060200Z 00000KT 9999 FEW040 20/16 A3005 BECMG=
200802060300 METAR MROC 060300Z 00000KT 9999 FEW040 20/16 A3006 BECMG=
200802060400 METAR MROC 060400Z 07009KT 9999 FEW040 20/15 A3007 BECMG=
200802060500 METAR MROC 060500Z 00000KT 9999 FEW040 19/15 A3007 BECMG=
200802060600 METAR MROC 060600Z 00000KT CAVOK 19/15 A3006 RMK TRACE SC BECMG=
200802060700 METAR MROC NIL=
200802060800 METAR MROC 060800Z 00000KT CAVOK 17/14 A3003 RMK TRACE SC BECMG=
200802060900 METAR MROC 060900Z 06006KT CAVOK 18/14 A3000 RMK TRACE SC BECMG=
200802061000 METAR MROC 061000Z 07009KT CAVOK 18/14 A3000 RMK TRACE SC BECMG=
200802061100 METAR MROC 061100Z 07007KT CAVOK 17/13 A3001 RMK TRACE SC BECMG=
200802061200 METAR MROC 061200Z 07005KT CAVOK 17/13 A3003 RMK TRACE SC BECMG=
200802061300 METAR MROC 061300Z 07004KT 9999 SKC 19/13 A3006 BECMG=
200802061400 METAR MROC 061400Z 06005KT 9999 SKC 22/14 A3007 BECMG=
200802061500 METAR MROC 061500Z 08004KT CAVOK 24/13 A3008 TRAZAS SCT BECMG=
200802061600 METAR MROC 061600Z 14006KT CAVOK 28/11 A3007 TRAZAS SCT BECMG 23008KT=
200802061700 METAR MROC 061700Z 23007KT 9999 FEW035 28/13 A3005 BECMG=
200802061800 METAR MROC 061800Z 24009KT 9999 FEW040 29/16 A3003 BECMG=
200802061900 METAR MROC 061900Z 23010KT 9999 SCT040 29/16 A3000 BECMG=
200802062000 METAR MROC 062000Z 22010KT 9999 FEW025TCU SCT040 28/18 A2998 RN DST E BECMG=
200802062100 METAR MROC 062100Z 17010KT 9999 4000S -RA SCT020 SCT035 22/19 A2998 BECMG=
200802062200 METAR MROC 062200Z 14003KT 7000 -RA BKN025 20/18 A2999 RMK 9999 NW BECMG=
200802062300 METAR MROC 062300Z 04002KT 9999 FEW020TCU BKN035 22/19 A3000 BECMG=
200802070000 METAR MROC 070000Z 00000KT CAVOK 21/19 A3001 RMK FEW120 SCT220 BECMG=
200802070100 METAR MROC 070100Z 00000KT CAVOK 21/18 A3002 RMK BECMG CAVOK FEW120 SCT220=
200802070200 METAR MROC 070200Z 10005KT CAVOK 20/17 A3005 BECMG=
200802070300 METAR MROC 070300Z 12006KT CAVOK 20/15 A3006 BECMG0=
200802070400 METAR MROC 070400Z 07006KT CAVOK 20/15 A3006 BECMG=
200802070500 METAR MROC 070500Z 06006KT CAVOK 20/15 A3006 RMK TRAZAS SC BECMG=
200802070600 METAR MROC 070600Z 07006KT CAVOK 20/14 A3004 RMK TRAZAS SC BECMG=
200802070700 METAR MROC 070700Z 08007KT CAVOK 20/14 A3002 RMK TRAZAS SC BECMG=
200802070800 METAR MROC 070800Z 04005KT CAVOK 19/15 A3000 RMK TRAZAS SC BECMG=
200802070900 METAR MROC 070900Z 06012KT CAVOK 20/14 A2999 RMK TRAZAS SC BECMG=
200802071000 METAR MROC 071000Z 07007KT CAVOK 20/14 A2999 RMK TRAZAS SC BECMG=
200802071100 METAR MROC 071100Z 08006KT CAVOK 19/14 A3000 RMK TRAZAS SC BECMG=
200802071200 METAR MROC 071200Z 11004KT CAVOK 18/13 A3001 RMK TRAZAS SC/CI BECMG=
200802071300 METAR MROC 071300Z 10007KT CAVOK 21/14 A3004 RMK TRACE SC SC BECMG=
200802071400 METAR MROC 071400Z 12009KT CAVOK 23/15 A3005 RMK TRACE SC AC BECMG=
200802071500 METAR MROC 071500Z 10010KT CAVOK 25/15 A3006 RMK TRACE AC BECMG=
200802071600 METAR MROC 071600Z 11010KT CAVOK 26/15 A3005 RMK TRACE SC AC BECMG=
200802071700 METAR MROC 071700Z 11009KT CAVOK 27/15 A3003 RMK TRACE SC BKN100 BECMG=
200802071800 METAR MROC 071800Z 12008KT 9999 FEW040 SCT120 29/14 A3000 BECMG=
200802071900 METAR MROC 071900Z 11009KT 9999 SCT035 SCT120 28/14 A2997 BECMG=
200802072000 METAR MROC 072000Z 11008KT 9999 FEW020 SCT035 28/14 A2995 BECMG=
200802072100 METAR MROC 072100Z 11009KT 9999 FEW030 28/14 A2994 RMK FEW120 HZY BECMG 24006KT=
200802072200 METAR MROC 072200Z 11009KT 9999 FEW030 27/15 A2994 RMK FEW120 LGT HZ ARND PCPN DST ENE BECMG 24006KT=
200802072300 METAR MROC 072300Z 12012KT 9999 FEW030 SCT060 25/16 A2996 RMK RN DST E HZY BECMG=
200802080000 METAR MROC 080000Z 11009KT 9999 FEW035 SCT070 23/16 A2997 RMK LGT HZ ARND BECMG=
200802080100 METAR MROC 080100Z 07006KT CAVOK 22/16 A2999 RMK TRACE SC AC BECMG=
200802080200 METAR MROC 080200Z 08008KT CAVOK 22/16 A3002 RMK TRACE SC AC BECMG=
200802080300 METAR MROC 080300Z 08003KT CAVOK 21/15 A3004 TRAZAS SCT BKN120 BECMG=
200802080400 METAR MROC 080400Z 08007KT CAVOK 21/15 A3005 SCT100 BECMG=
200802080500 METAR MROC 080500Z 11010KT CAVOK 21/15 A3001 BKN120=
200802080600 METAR MROC 080600Z 11013KT CAVOK 21/14 A3000 BKN120 BECMG=
200802080700 METAR MROC 080700Z 11012KT CAVOK 21/15 A2997 BKN120=
200802080800 METAR MROC NIL=
200802080900 METAR MROC 080900Z 10012KT CAVOK 21/15 A2996 BKN120=
200802081000 METAR MROC 081000Z 11013KT CAVOK 21/15 A2995 BKN120=
200802081100 METAR MROC 081100Z 11013KT CAVOK 21/15 A2996 BKN120=
200802081200 METAR MROC 081200Z 11013G24KT CAVOK 21/15 A2997 BKN120 BECMG=
200802081300 METAR MROC 081300Z 11011KT CAVOK 21/15 A3000 RMK TRACE SC BKN130 BECMG=
200802081400 METAR MROC 081400Z 11015KT 9999 FEW035 SCT130 23/15 A3001 BECMG=
200802081500 METAR MROC 081500Z 11015KT 9999 FEW035 SCT120 24/15 A3002 BECMG=
200802081600 METAR MROC 081600Z 11012KT 9999 FEW035 SCT120 27/13 A3002 BECMG=
200802081700 METAR MROC 081700Z 10011KT 9999 FEW035 28/13 A3001 RMK VEL MX VTO 17KT FEW120 BECMG=
200802081800 METAR MROC 081800Z 10011KT 9999 FEW035 28/13 A2998 RMK FEW120 VEL MX VTO 17KT BECMG=
200802081900 METAR MROC 081900Z 09011KT 9999 FEW030 28/12 A2996 RMK TCU DST S BECMG=
200802082000 METAR MROC 082000Z 08011KT 9999 FEW030 29/12 A2993 RMK TCU DST S BECMG=
200802082100 METAR MROC 082100Z 10004KT 9999 FEW030 29/13 A2991 BECMG=
200802082200 METAR MROC 082200Z 09013KT 9999 SCT030 27/14 A2992 BECMG=
200802082300 METAR MROC 082300Z 08015KT 9999 FEW025 26/14 A2993 RMK FEW110 BECMG=
200802090000 METAR MROC 090000Z 09012KT 9999 FEW025 24/13 A2994 BECMG=
200802090100 METAR MROC 090100Z 10012KT 9999 FEW025 22/13 A2996 BECMG=
200802090200 METAR MROC 090200Z 11006KT 9999 FEW025 22/13 A2998 BECMG=
200802090300 METAR MROC 090300Z 09010KT CAVOK 22/15 A2999 RMK TRACE SC BECMG=
200802090400 METAR MROC 090400Z 11012KT CAVOK 22/14 A2998 RMK TRACE SC BECMG=
200802090500 METAR MROC 090500Z 11013KT CAVOK 21/13 A2998 RMK TRACE SC BECMG=
200802090600 METAR MROC 090600Z 12012KT CAVOK 21/13 A2997 RMK TRCE SC BECMG=
200802090700 METAR MROC 090700Z 110009KT CAVOK 20/13 A2996 RMK TRACE SC BECMG=
200802090800 METAR MROC 090800Z 12011KT CAVOK 20/14 A2994 RMK TRACE SC=
200802090900 METAR MROC 090900Z 13013KT CAVOK 20/14 A2994 RMK TRACE SC=
200802091000 METAR MROC 091000Z 12013KT CAVOK 20/14 A2994 RMK TRACE SC=
200802091100 METAR MROC 091100Z 12014KT CAVOK 20/14 A2996 RMK TRACE SC=
200802091200 METAR MROC 091200Z 12014KT CAVOK 20/14 A2997 RMK TRACE SC SCT250=
200802091300 METAR MROC 091300Z 10008KT CAVOK 21/14 A2998 RMK TRACE SC BECMG=
200802091400 METAR MROC 091400Z 11010KT CAVOK 23/14 A3000 RMK TRACE SC BECMG=
200802091500 METAR MROC 091500Z 11013KT CAVOK 25/13 A3001 RMK TRACE SC BECMG=
200802091600 METAR MROC 091600Z 11015KT CAVOK 26/13 A3000 RMK TRACE SC BECMG=
200802091700 METAR MROC 091700Z 11010KT CAVOK 27/14 A2998 RMK TRACE SC BECMG=
200802091800 METAR MROC 091800Z 12014KT CAVOK 28/12 A2997 RMK TRACE SC BECMG=
200802091900 METAR MROC 091900Z 11017KT 9999 FEW040 28/13 A2996 BECMG=
200802092000 METAR MROC 092000Z 11013KT 9999 FEW040 28/11 A2993 BECMG=
200802092100 METAR MROC 092100Z 10014KT 9999 FEW035 28/13 A2991 BECMG=
200802092200 METAR MROC 092200Z 08013KT 9999 SCT035 27/12 A2991 BECMG=
200802092300 METAR MROC 092300Z 08015KT 9999 SCT035 26/12 A2992 BECMG=
200802100000 METAR MROC 100000Z 09010KT 9999 SCT035 24/14 A2995 BECMG=
200802100100 METAR MROC 100100Z 09013KT 9999 FEW035 23/13 A2996 BECMG=
200802100200 METAR MROC 100200Z 08014KT 9999 FEW035 22/13 A2999 BECMG=
200802100300 METAR MROC 100300Z 08015KT 9999 FEW035 22/13 A3001 BECMG=
200802100400 METAR MROC 100400Z 10013KT CAVOK 21/13 A3001 RMK TRACE SC BECMG=
200802100500 METAR MROC 100500Z 10013KT CAVOK 21/14 A3000 RMK TRACE SC BECMG=
200802100600 METAR MROC 100600Z 10014KT CAVOK 21/13 A2999 RMK TRACE SC BECMG=
200802100700 METAR MROC 100700Z 11014KT CAVOK 21/12 A2997 RMK TRACE SC BECMG=
200802100800 METAR MROC 100800Z 11012KT CAVOK 21/12 A2996 RMK TRACE SC BECMG=
200802100900 METAR MROC 100900Z 09012KT CAVOK 21/12 A2995 RMK TRACE SC BECMG=
200802101000 METAR MROC 101000Z 10010KT CAVOK 21/13 A2995 RMK TRACE SC=
200802101100 METAR MROC 101100Z 09012KT CAVOK 21/13 A2997 RMK TRACE SC=
200802101200 METAR MROC 101200Z 09012KT CAVOK 20/15 A2998 RMK TRACE SC CI=
200802101300 METAR MROC 101300Z 10009KT CAVOK 22/15 A2999 RMK TRAZAS SC BECMG=
200802101400 METAR MROC 101400Z 11012KT CAVOK 23/15 A3001 RMK TRAZAS SC BECMG=
200802101500 METAR MROC 101500Z 09014KT CAVOK 26/15 A3002 RMK TRAZAS SC VIENTO MAXIMO 23NUDOS BECMG=
200802101600 METAR MROC 101600Z 10013KT 9999 FEW035 27/15 A3003 RMK VIENTO MAXIMO 24NUDOS BECMG=
200802101700 METAR MROC 101700Z 09015G25KT 9999 FEW035 27/15 A3002 BECMG=
200802101800 METAR MROC 101800Z 08018KT 9999 FEW035 27/15 A3000 BECMG=
200802101900 METAR MROC 101900Z 09018KT 9999 SCT035 28/16 A2997 BECMG=
200802102000 METAR MROC 102000Z 08015KT 9999 SCT035 28/15 A2994 RMK FEWCI BECMG=
200802102100 METAR MROC 102100Z 09013KT 9999 FEW035 SCT120 28/14 A2993 BECMG=
200802102200 METAR MROC 102200Z 10013KT 9999 FEW035 SCT120 27/15 A2992 BECMG=
200802102300 METAR MROC 102300Z 08018G28KT 9999 FEW035 BKN100 25/13 A2993 BECMG=
200802110000 METAR MROC 110000Z 09013G27KT 9999 FEW035 BKN100 23/15 A2996 BECMG=
200802110100 METAR MROC 110100Z 10014G24KT 9999 FEW035 BKN120 23/15 A2996 BECMG=
200802110200 METAR MROC 110200Z 10012KT 9999 FEW035 BKN120 22/15 A3000 BECMG=
200802110300 METAR MROC 110300Z 10008KT 9999 FEW035 BKN120 22/15 A3002 BECMG=
200802110400 METAR MROC 110400Z 11010KT 9999 FEW035 BKN120 21/16 A3002 BECMG=
200802110500 METAR MROC 110500Z 10012KT 9999 FEW035 SCT120 21/15 A3001 BECMG=
200802110600 METAR MROC 110600ZM 09009KT CAVOK 21/15 A3000 RMK TRACE SC BECMG=
200802110700 METAR MROC 110700Z 110009KT CAVOK 21/15 A2997 RMK TRACE SC=
200802110800 METAR MROC NIL=
200802110900 METAR MROC 110900Z 10008KT CAVOK 20/16 A2993 RMK TRCE SC=
200802111000 METAR MROC 111000Z 10015KT CAVOK 21/15 A2994 RMK TRACE SC=
200802111100 METAR MROC 111100Z 12013KT CAVOK 21/16 A2995 RMK TRACE SC=
200802111200 METAR MROC 111200Z 11012KT 9999 FEW025 SCT250 21/16 A2997 BECMG=
200802111300 METAR MROC 111300Z 11014KT 9999 FEW030 SCT250 22/16 A2997 DZ NE BECMG=
200802111400 METAR MROC 111400Z 09016G26KT 9999 FEW030 SCT250 23/15 A2998 BECMG=
200802111500 METAR MROC 111500Z 10016G26KT 9999 FEW030 24/15 A3001 FEW080 FEW250 24/14 A3001 DZ N NE BECMG=
200802111600 METAR MROC 111600Z 10016G26KT 9999 FEW030 SCT100 25/15 A3001 DZ NE BECMG=
200802111700 METAR MROC 111700Z 10016G26KT 9999 FEW030 26/14 A2999 BECMG=
200802111800 METAR MROC 111800Z 10016G27KT 9999 FEW030 27/15 A2997 FEW100 DZ NE BECMG=
200802111900 METAR MROC 111900Z 09015G25KT 9999 FEW030 SCT100 27/13 A2995 DZ NE BECMG=
200802112000 METAR MROC 112000Z 09017G27KT 9999 FEW030 SCT100 26/15 A2992 DZ NE BECMG=
200802112100 METAR MROC 112100Z 10015KT 9999 FEW035 SCT250 26/15 A2991 RMK FEW100 BECMG=
200802112200 METAR MROC 112200Z 09016G28KT 9999 FEW035 SCT100 25/13 A2991 BECMG=
200802112300 METAR MROC 112300Z 09011KT 9999 FEW035 SCT120 24/13 A2992 BECMG=
200802120000 METAR MROC 120000Z 11011KT 9999 FEW030 SCT120 22/16 A2994 RMK DZ DST NE BECMG=
200802120100 METAR MROC 120100Z 12012KT 9999 FEW030 21/15 A2994 BECMG=
200802120200 METAR MROC 120200Z 11013KT CAVOK 20/15 A2997 RMK TRACE SC BECMG=
200802120300 METAR MROC 120300Z 11013KT CAVOK 21/15 A2998 RMK TRAZAS SC BECMG=
200802120400 METAR MROC 120400Z 10013KT CAVOK 21/15 A2999 RMK TRAZAS SC BECMG=
200802120500 METAR MROC 120500Z 09008KT CAVOK 20/14 A2999 RMK TRAZAS SC BECMG=
200802120600 METAR MROC 120600Z 11010KT CAVOK 20/14 A2998 RMK TRAZAS SC BECMG=
200802120700 METAR MROC 120700Z 11006KT CAVOK 20/13 A2996 RMK TRAZAS SC BECMG=
200802120710 METAR MROC 120710Z 10008KT CAVOK 21/13 A2996=
200802120720 METAR MROC 120720Z 11007KT CAVOK 21/13 A2995=
200802120730 METAR MROC 120730Z 10009KT CAVOK 21/13 A2995=
200802120740 METAR MROC 120740Z 10009KT CAVOK 20/13 A2994=
200802120750 METAR MROC 120750Z 10011KT CAVOK 21/13 A2994=
200802120800 METAR MROC 120800Z 11010KT CAVOK 20/13 A2994 RMK TRAZAS SC BECMG=
200802120900 METAR MROC 120900Z 08007KT CAVOK 20/14 A2995 RMK TRAZAS SC BECMG=
200802120910 METAR MROC 120910Z 08007KT CAVOK 20/14 A2995=
200802120920 METAR MROC 120920Z 09007KT CAVOK 20/14 A2995=
200802120930 METAR MROC 120930Z 09008KT CAVOK 20/14 A2995=
200802120940 METAR MROC 120940Z 08007KT CAVOK 20/14 A2994=
200802120950 METAR MROC 120950Z 08007KT CAVOK 20/14 A2994=
200802121000 METAR MROC 121000Z 06005KT CAVOK 20/14 A2994 RMK TRAZAS SC BECMG0=
200802121100 METAR MROC 121100Z 09008KT CAVOK 20/14 A2995 RMK TRAZAS SC BECMG=
200802121200 METAR MROC 121200Z 07006KT CAVOK 19/14 A2997 RMK TRAZAS SC/AC/CI BECMG=
200802121300 METAR MROC 121300Z 11007KT CAVOK 20/14 A2997 RMK TRACE SCAC BECMG=
200802121400 METAR MROC 121400Z 11014KT CAVOK 23/15 A2999 RMK TRACE SC BECMG=
200802121500 METAR MROC 121500Z 11010G25KT CAVOK 25/15 A3000 RMK TRACE SC BECMG=
200802121600 METAR MROC 121600Z 11012KT CAVOK 27/15 A2999 RMK TRACE SC BECMG=
200802121700 METAR MROC 121700Z 12014KT 9999 FEW035 27/15 A2997 BECMG=
200802121800 METAR MROC 121800Z 09016KT 9999 FEW030 28/15 A2992 RMK TRACE AC CI BECMG=
200802121900 METAR MROC 121900Z 10012KT 9999 FEW020TCU SCT030 27/15 A2991 BECMG=
200802122000 METAR MROC 122000Z 10013KT 9999 FEW035 28/15 A2987 RMK TCU/RN DST S BECMG=
200802122100 METAR MROC 122100Z 10012KT 9999 BKN035 27/15 A2985 RMK VEL MX VTO 18KT BECMG=
200802122200 METAR MROC 252200Z 09013KT 9999 FEW035 SCT060 25/15 A2985 RMK VEL MX VTO 18KT PCPN DST ENE BECMG=
200802122300 METAR MROC 122300Z 10012KT 9999 FEW035 BKN120 24/15 A2987 BECMG=
200802130000 METAR MROC 130000Z 10015KT 9999 FEW035 BKN120 22/15 A2988 RMK VEL MX VTO 21KT PCPN DST ENE BECMG=
200802130100 METAR MROC 130100Z 09010KT 9999 FEW035 SCT120 22/15 A2991 BECMG=
200802130200 METAR MROC 130200Z 10012KT 9999 FEW035 21/16 A2993 RMK BECMG 9999 NSC=
200802130300 METAR MROC 130300Z 10013KT 9999 FEW035 21/16 A2994 BECMG=
200802130400 METAR MROC 130400Z 10014KT 9999 NCS 21/16 A2993 TRAZAS SCT BECMG=
200802130500 METAR MROC 130500Z 09013KT CAVOK 21/15 A2993 TRAZAS SCT BECMG=
200802130600 METAR MROC NIL=
200802130700 METAR MROC 130700Z 07008KT CAVOK 20/15 A2992 TRAZAS SCT BECMG=
200802130800 METAR MROC 130800Z 10007KT CAVOK 19/14 A2990 TRAZAS SC=
200802130900 METAR MROC 130900Z 08007KT CAVOK 19/15 A2989 TRAZAS SCT=
200802131000 METAR MROC 131000Z 07008KT CAVOK 19/15 A2989 TRAZAS SCT=
200802131100 METAR MROC 131100Z 09010KT CAVOK 20/15 A2991 TRAZAS SCT=
200802131200 METAR MROC 131200Z 07009KT CAVOK 20/15 A2992 TRAZAS SC/AC=
200802131300 METAR MROC 131300Z 09010KT CAVOK 21/15 A2995 RMK TRACE SC SCT250 BECMG=
200802131400 METAR MROC 131400Z 10015G25KT CAVOK 22/15 A2995 RMK TRACE SC BKN250 BECMG=
200802131500 METAR MROC 131500Z 10014KT CAVOK 24/15 A2997 RMK TRACE SC BKN250 BECMG=
200802131600 METAR MROC 131600Z 09014KT CAVOK 26/15 A2995 RMK TRACE SC SCT250 BECMG=
200802131700 METAR MROC 131700Z 10014KT CAVOK 28/15 A2995 RMK TRACE SC SCT250 BECMG=
200802131800 METAR MROC 131800Z 09012KT CAVOK 28/15 A2992 RMK TRACE CU SCT220 BECMG=
200802131900 METAR MROC 131900Z 10014KT 9999 FEW040 SCT250 29/15 A2989 BECMG=
200802132000 METAR MROC 132000Z 09014KT 9999 FEW040 28/14 A2987 RMK TRACE CC CI BECMG=
200802132100 METAR MROC 132100Z 08013KT 9999 FEW030TCU 29/13 A2987 BECMG=
200802132200 METAR MROC 132200Z 09012KT 9999 FEW025 28/13 A2987 RMK FEW250 RN NE BECMG=
200802132300 METAR MROC 132300Z 09012KT 9999 FEW025 SCT250 27/14 A2988 RMK RN NE BECMG=
200802140000 METAR MROC 140000Z 10011KT 9999 FEW025 SCT250 24/15 A2990 BECMG=
200802140100 METAR MROC 140100Z 08010KT 9999 FEW035 24/14 A2993 RMK BECMG CAVOK=
200802140200 METAR MROC 140200Z 12009KT 9999 FEW035 22/16 A2994 BECMG=
200802140300 METAR MROC 140300Z 10010KT 9999 FEW035 22/16 A2996 BECMG=
200802140400 METAR MROC 140400Z 03008KT 9999 FEW035 21/16 A2998 BECMG=
200802140500 METAR MROC 140500Z 02008KT 9999 FEW035 22/16 A2998 BECMG=
200802140600 METAR MROC 140600Z 08009KT 9999 FEW035 21/16 A2997 BECMG=
200802140700 METAR MROC 140700Z 09010KT CAVOK 21/16 A2996 RMK TRACE SC BECMG=
200802140800 METAR MROC NIL=
200802140900 METAR MROC 140900Z 09012KT CAVOK 21/15 A2993 RMK TRACE SC=
200802141000 METAR MROC 141000Z 09012KT CAVOK 21/15 A2994 RMK TRACE SC=
200802141100 METAR MROC 141100Z 10012KT CAVOK 21/15 A2997 RMK TRACE SC=
200802141200 METAR MROC 141200Z 10010KT 9999 FEW030 BKN220 21/14 A2999 RMK RN DST NE GUST 17KT=
200802141300 METAR MROC 141300Z 10013KT 9999 FEW030 BKN230 22/14 A2999 RMK RN NE RFGS 18KT BECMG=
200802141400 METAR MROC 141400Z 10015KT 9999 FEW030 BKN250 24/13 A3001 RMK RFGS 23KT BECMG=
200802141500 METAR MROC 141500Z 10014KT 9999 FEW030 BKN250 25/14 A3002 BECMG=
200802141600 METAR MROC 141600Z 09019KT 9999 FEW030 BKN250 26/15 A3001 RMK DZ NE BECMG=
200802141700 METAR MROC 141700Z 09020KT 9999 SCT030 BKN250 26/15 A3001 RMK DZ NE RFGS 25KT BECMG=
200802141800 METAR MROC 141800Z 09015KT 9999 SCT030 BKN250 28/13 A3000 RMK DZ N NE BECMG=
200802141900 METAR MROC 141900Z 08016KT 9999 SCT025 SCT100 26/15 A2997 RMK DZ N NE BECMG=
200802142000 METAR MROC 142000Z 10014KT 9999 SCT025 SCT100 26/16 A2993 RMK DZ N NE RFGS 21KT BECMG=
200802142100 METAR MROC 142100Z 10011KT 9999 SCT025 OVC100 25/14 A2994 BECMG RMK DZ N NE E=
200802142200 METAR MROC 142200Z 08010KT 9999 SCT025 BKN100 25/15 A2994 BECMG RMK DZ N NE E=
200802142300 METAR MROC 142300Z 09010KT 9999 SCT025 BKN100 24/16 A2995 BECMG RMK DZ N NE E=
200802150000 METAR MROC 150000Z 10012KT 9999 SCT025 BKN100 23/16 A2998 BECMG RMK DZ N NE E=
200802150100 METAR MROC 150100Z 09012KT 9999 SCT030 BKN100 21/15 A2998 BECMG=
200802150200 METAR MROC 150200Z 09012KT 9999 FEW035 BKN120 22/15 A3002 RMK VIENTO MAXIMO 22NUDOS BECMG=
200802150300 METAR MROC 150300Z 09012KT 9999 FEW025 BKN080 22/14 A3004 BECMG=
200802150400 METAR MROC 150400Z 10012G22KT 9999 FEW025 BKN080 22//// A3004 BECMG=
200802150430 METAR MROC 150430Z 10012KT 9999 FEW030 SCT080 22//// A3003=
200802150500 METAR MROC 150500Z 07014KT 9999 FEW025 SCT080 21/14 A3006 BECMG=
200802150600 METAR MROC NIL=
200802150700 METAR MROC NIL=
200802150800 METAR MROC NIL=
200802150900 METAR MROC NIL=
200802151000 METAR MROC NIL=
200802151100 METAR MROC NIL=
200802151200 METAR MROC 151200Z 10018KT CAVOK 20/14 A2997 RMK TRACE SC AC SCT250=
200802151300 METAR MROC 151300Z 10019KT 9999 FEW040 SCT250 21/13 A2998 BECMG RMK TRACE AC=
200802151400 METAR MROC NIL=
200802151500 METAR MROC 151500Z 09019KT 9999 FEW040 BKN270 24/12 A3002 BECMG=
200802151600 METAR MROC 151600Z 08016KT 9999 FEW040 BKN270 25/13 A3003 BECMG RMK DZ N NE TRACE CU=
200802151700 METAR MROC 151700Z 07017KT 9999 FEW040 BKN250 26/12 A3001 BECMG RMK TRACE CU DZ N NE=
200802151800 METAR MROC 151800Z 06020G31KT 9999 FEW040 BKN250 27/10 A2999 BECMG=
200802151900 METAR MROC 151900Z 06020KT 9999 FEW035 BKN250 27/11 A2997 RMK RAFAGAS 28KT BECMG=
200802152000 METAR MROC 152000Z 06014KT 9999 FEW035 BKN250 28/08 A2994 RMK RAFAGAS 21KT BECMG=
200802152100 METAR MROC 152100Z 07015KT 9999 FEW035 BKN280 28/08 A2992 BECMG=
200802152200 METAR MROC 152200Z 08013KT 9999 FEW035 BKN280 26/11 A2992 RMK RAFAGAS DE 20KT BECMG=
200802152300 METAR MROC 152300Z 06013KT 9999 FEW035 BKN280 25/12 A2994 RMK RAFAGAS DE 20KT BECMG=
200802160000 METAR MROC 160000Z 06013KT 9999 FEW030 BKN250 23/12 A2996 BECMG=
200802160100 METAR MROC 160100Z 07012KT CAVOK 22/12 A2996 RMK BKN250 BECMG=
200802160200 METAR MROC 160200Z 09013KT CAVOK 22/11 A2997 RMK BKN250 BECMG=
200802160300 METAR MROC 160300Z 09012KT CAVOK 21/12 A3000 RMK BKN250 BECMG=
200802160400 METAR MROC 160400Z 08014KT CAVOK 21/12 A3000 RMK BKN250 BECMG=
200802160500 METAR MROC 260500Z 09015KT CAVOK 21/11 A2999 RMK RFGS 20KT BKN250 BECMG=
200802160600 METAR MROC 160600Z 10012KT CAVOK 20/12 A2996 RMK BKN250=
200802160700 METAR MROC 160700Z 10015KT CAVOK 20/12 A2995 RMK BKN250=
200802160800 METAR MROC 160800Z 10010KT CAVOK 20/13 A2994 RMK BKN250=
200802160900 METAR MROC 160900Z 10016KT CAVOK 19/13 A2993 RMK SCT250=
200802161000 METAR MROC 161000Z 110016KT CAVOK 19/13 A2993 RMK SCT250=
200802161100 METAR MROC 161100Z 11015KT CAVOK 20/13 A2994 RMK SCT250=
200802161200 METAR MROC 161200Z 11015KT CAVOK 19/12 A2994 RMK RFGS 20KT BKN250 BECMG=
200802161300 METAR MROC 161300Z 10014KT CAVOK 21/11 A2996 RMK BKN250 RAFAGAS DE 20KT BECMG=
200802161400 METAR MROC 161400Z 10017KT CAVOK 23/10 A2996 RMK BKN250 RAFGAS DE 22KT BECMG=
200802161500 METAR MROC 161500Z 10016KT CAVOK 25/11 A2996 RMK SCT250 RAFAGAS DE 21KT BECMG=
200802161600 METAR MROC 161600Z 10015KT CAVOK 26/12 A2997 RMK SCT250 GUTS 21KT BECMG=
200802161700 METAR MROC 161700Z 08013KT CAVOK 27/12 A2995 RMK SCT250 GUST 22KT BECMG=
200802161800 METAR MROC 161800Z 09015KT 9999 FEW035 BKN250 28/12 A2992 RMK GUST 21KT BECMG=
200802161900 METAR MROC 161900Z 09013KT 9999 FEW040 BKN250 27/12 A2990 RMK GUST 20KT BECMG=
200802162000 METAR MROC 162000Z 10013KT 9999 FEW040 BKN250 26/13 A2988 RMK TCU DST S BECMG=
200802162100 METAR MROC 162100Z 10009KT 9999 FEW025TCU FEW040 BKN250 27/14 A2986 BECMG=
200802162200 METAR MROC 162200Z 10010KT 9999 FEW030 SCT120 BKN250 25/14 A2986 BECMG=
200802162300 METAR MROC 162300Z 10010KT 9999 SCT035 BKN250 24/15 A2988 BECMG=
200802170000 METAR MROC 170000Z 13009KT 9999 FEW025 BKN120 22/15 A2991 RMK FEW250 RN DST NE E BECMG=
200802170100 METAR MROC 170100Z 08007KT 9999 FEW035 SCT120 22/15 A2994 BECMG=
200802170200 METAR MROC 170200Z 07006KT 9999 FEW025 SCT100 22/15 A2996 BECMG=
200802170300 METAR MROC 170300Z 09003KT 9999 FEW025 BKN100 21/16 A2998 BECMG=
200802170400 METAR MROC 170400Z 10006KT 9999 FEW030 SCT100 BKN250 21/15 A2999 BECMG=
200802170500 METAR MROC 170500Z 08008KT CAVOK 21/15 A2998 BECMG TRACE SCT AC SCT250=
200802170600 METAR MROC 170600Z 09003KT CAVOK 20/15 A2997 BECMG TRACE SCT SCT250=
200802170700 METAR MROC 170700Z 09007KT CAVOK 20/15 A2995 BECMG RMK TRACE SC SCT250=
200802170800 METAR MROC 170800Z 08004KT CAVOK 19/15 A2992 RMK TRACE SC SCT250=
200802170900 METAR MROC 170900Z 06005KT CAVOK 19/15 A2992 RMK TRACE SC SCT250=
200802171000 METAR MROC 171000Z 06008KT CAVOK 18/15 A2992 RMK TRACE SC SCT250=
200802171100 METAR MROC 171100Z 06005KT CAVOK 19/15 A2993 RMK TRACE SC SCT250=
200802171200 METAR MROC 171200Z 07008KT 9999 FEW040 SCT250 20/15 A2994 RMK TRACE AC=
200802171300 METAR MROC 171300Z 07007KT CAVOK 20/15 A2996 RMK TRACE SC AC SCT250 BECMG=
200802171400 METAR MROC 171400Z 10009KT CAVOK 23/15 A2997 RMK TRACE SC AC SCT250=
200802171500 METAR MROC 171500Z 10012KT 9999 FEW035 SCT250 25/15 A2998 RMK GUST 18KT BECMG=
200802171600 METAR MROC 171600Z 11014KT 9999 FEW035 BKN250 24/14 A2999 RMK GUST 20KT BECMG=
200802171700 METAR MROC 171700Z 12008KT 9999 SCT035 SCT250 26/14 A2997 BECMG 24006KT=
200802171800 METAR MROC 171800Z 21004KT 9999 BKN030 26/15 A2996 RMK SCT250 FEW100 BECMG=
200802171900 METAR MROC 171900Z 22006KT 9999 BKN030 SCT120 25/17 A2994 RMK RN DST SW=
200802172000 METAR MROC 172000Z 28006KT 9999 SCT030 BKN120 26/16 A2991 BECMG=
200802172100 METAR MROC 172100Z 20006KT 9999 FEW025 SCT035 BKN120 25/17 A2989 BECMG 7000 VCSH=
200802172200 METAR MROC 172200Z 22004KT 9999 SCT035 BKN100 24/18 A2990 RMK PCPN DST SW BECMG 7000 VCSH=
200802172300 METAR MROC 172300Z 26006KT 9999 -RA BKN030 SCT080 23/18 A2991 BECMG=
200802180000 METAR MROC 180000Z 19003KT 9999 SCT030 BKN100 22/19 A2994 RMK PCPN DST NE=
200802180100 METAR MROC 180100Z 26004KT 9999 SCT030 BKN100 21/19 A2997 BECMG=
200802180200 METAR MROC 180200Z 32004KT 9999 FEW030 BKN100 21/19 A2998 BECMG=
200802180300 METAR MROC 180300Z 29004KT 9999 FEW025 BKN120 20/18 A3000 RMK ST SSE/S BECMG=
200802180400 METAR MROC 180400Z 00000KT 9999 FEW025 BKN120 20/18 A3001 RMK ST THIN SSE/S BECMG=
200802180500 METAR MROC 180500Z 34002KT 9999 FEW030 BKN120 20/18 A3002 BECMG=
200802180600 METAR MROC 180600Z 08004KT 9999 FEW030 SCT100 19/17 A2999 RMK SCT250 BECMG=
200802180700 METAR MROC 180700Z 05006KT 9999 FEW030 BKN100 20/16 A2998 BECMG=
200802180800 METAR MROC 180800Z 06007KT 9999 FEW030 SCT080 20/16 A2997 RMK SCT110 BECMG=
200802180900 METAR MROC 180900Z 07004KT CAVOK 19/16 A2995 RMK SCT110 SCT250=
200802181000 METAR MROC 181000Z 02005KT CAVOK 19/16 A2995 RMK FEW110 SCT250=
200802181100 METAR MROC 181100Z 10004KT 9999 FEW030 SCT080 18/15 A2997 RMK FEW250=
200802181200 METAR MROC 181200Z 08003KT CAVOK 19/16 A2998 RMK FEW080 BKN110 CB DST S=
200802181300 METAR MROC 181300Z 08004KT CAVOK 19/15 A3001 RMK TRACE SC FEW100 SCT140 BECMG=
200802181400 METAR MROC 181400Z 07008KT CAVOK 22/16 A3003 RMK TRACE SC BKN100 BECMG=
200802181500 METAR MROC 181500Z 07006KT CAVOK 24/16 A3004 RMK TRACE SC CU SCT100 BKN250 BECMG=
200802181600 METAR MROC 181600Z 07004KT 9999 FEW040 BKN250 27/16 A3003 RMK BECMG 25007KT=
200802181700 METAR MROC 181700Z 23005KT 9999 SCT030 BKN250 27/16 A3001 BECMG=
200802181800 METAR MROC 181800Z 22007KT 9999 SCT030 BKN250 27/17 A2999 LGT HZ ARND BECMG=
200802181900 METAR MROC 181900Z 22008KT 9999 FEW025 SCT035 BKN250 26/18 A2996 PCPN DST N NE BECMG=
200802182000 METAR MROC 182000Z 22009KT 9999 -RA FEW025TCU BKN035 24/18 A2994 BECMG 7000 -SHRA=
200802182100 METAR MROC 182100Z 24010KT 8000 SCT010 BKN030 22/20 A2995 RMK PCPN DST NW N NE BECMG 5000 VCSH=
200802182200 METAR MROC 182200Z 27006KT 6000 TS SCT008CB BKN015 20/19 A2997 RMK TS RN NE BECMG 5000 -TSRA=
200802182300 METAR MROC 182300Z 26007KT 5000 RA SCT007 SCT025 OVC100 20/18 A2999 BECMG=
200802190000 METAR MROC 190000Z 29003KT 2500 RA BR FEW007 SCT020 OVC100 19/18 A3001 BECMG=
200802190100 METAR MROC 190100Z 32002KT 5000 RA FEW007 SCT025 OVC100 19/18 A3004 BECMG=
200802190200 METAR MROC 190200Z 11002KT 8000 -RA FEW025 OVC100 19/18 A3007 BECMG=
200802190300 METAR MROC 190300Z 32003KT 9999 FEW030 BKN100 19/18 A3009 BECMG=
200802190400 METAR MROC 190400Z 25002KT 9999 +DZ FEW025 BKN090 19/17 A3011 RMK VIS 8000SW BECMG=
200802190500 METAR MROC 190500Z 09005KT 9999 FEW035 BKN120 19/18 A3009 BECMG=
200802190600 METAR MROC 190600Z 06006KT 9999 FEW035 BKN120 20/16 A3008 BECMG=
200802190700 METAR MROC 190700Z 04007KT 9999 FEW035 SCT120 20/16 A3006 BECMG=
200802190800 METAR MROC 190800Z 09009KT CAVOK 20/16 A3003 RMK TRACE SC SCT120=
200802190900 METAR MROC NIL=
200802191000 METAR MROC 191000Z 02007KT CAVOK 20/16 A3003 RMK TRACE SC SCT120=
200802191100 METAR MROC 191100Z 03006KT CAVOK 20/16 A3005 RMK TRACE SC SCT120 SCT250=
200802191200 METAR MROC 191200Z 03006KT CAVOK 20/16 A3006 RMK TRACE SC SCT100 BKN220=
200802191300 METAR MROC 191300Z 01005KT CAVOK 20/15 A3008 RMK TRACE SC BKN100 BECMG=
200802191400 METAR MROC 191400Z 07004KT CAVOK 22/16 A3010 RMK TRACE SC SCT100 BKN250 BECMG=
200802191500 METAR MROC 191500Z 10016KT 9999 FEW030 SCT100 BKN250 22/16 A3011 BECMG=
200802191600 METAR MROC 191600Z 09012KT 9999 SCT030 BKN250 24/16 A3011 RMK PSPN NE BECMG=
200802191700 METAR MROC 191700Z 10010KT 9999 SCT025 BKN250 26/15 A3009 RMK PSPN NE BECMG=
200802191800 METAR MROC 191800Z 08013KT 9999 SCT030 BKN250 26/15 A3007 RMK RN DST NW NE BECMG=
200802191900 METAR MROC 191900Z 09011KT 9999 SCT030 BKN250 25/15 A3004 RMK RN NE BECMG=
200802192000 METAR MROC 192000Z 10011KT 9999 SCT025 SCT100 BKN250 25/15 A3001 RMK RN NE BECMG=
200802192100 METAR MROC 192100Z 12011KT 9999 SCT025 SCT100 BKN250 23/16 A3000 BECMG RMK RN NE SE=
200802192200 METAR MROC 192200Z 09011KT 9999 SCT025 SCT100 BKN250 23/14 A3000 BECMG RMK RN NE=
200802192300 METAR MROC 192300Z 11009KT 9999 SCT030 BKN250 22/15 A3002 BECMG RMK RN NE FEW100=
200802200000 METAR MROC 200000Z 08009KT 9999 SCT030 BKN250 22/15 A3004 BECMG RMK RN NE FEW100=
200802200100 METAR MROC 200100Z 08006KT 9999 FEW030 SCT120 21/15 A3006 BECMG RMK FEW250=
200802200200 METAR MROC 200200Z 07008KT 9999 FEW030 SCT270 20/15 A3007 RMK BECMG CAVOK=
200802200300 METAR MROC 200300Z 10013KT 9999 FEW030 SCT250 21/14 A3008 BECMG=
200802200400 METAR MROC 200400Z 06010KT 9999 FEW035 SCT250 20/14 A3010 BECMG=
200802200500 METAR MROC 200500Z 06007KT 9999 FEW035 SCT120 20/14 A3010 BECMG=
200802200600 METAR MROC 200600Z 10007KT CAVOK 20/14 A3008 RMK TRACE SC BKN120 BECMG=
200802200700 METAR MROC 200700Z 03004KT CAVOK 20/14 A3005 RMK TRACE SC SCT120 BECMG=
200802200800 METAR MROC 200800Z 05006KT CAVOK 20/14 A3004 RMK TRACE SC SCT120=
200802200900 METAR MROC 200900Z 05008KT CAVOK 19/13 A3002 RMK TRACE SC SCT120=
200802201000 METAR MROC 201000Z 04004KT CAVOK 18/13 A3002 RMK TRACE SC SCT120 FEW250=
200802201100 METAR MROC 201100Z 04006KT CAVOK 17/13 A3004 RMK TRACE SC SCT120=
200802201200 METAR MROC 201200Z 09006KT 9999 FEW045 SCT120 18/14 A3005=
200802201300 METAR MROC 201300Z 09006KT 9999 FEW045 SCT120 19/14 A3007 BECMG=
200802201400 METAR MROC 201400Z 10013KT 9999 FEW045 SCT120 22/15 A3008 BECMG=
200802201500 METAR MROC 201500Z 12013KT 9999 SCT040 24/15 A3008 BECMG RMK TRACE AC CI DZ NE=
200802201600 METAR MROC 201600Z 11013KT 9999 SCT040 25/14 A3008 BECMG RMK TRACE CU AC CI DZ NE=
200802201700 METAR MROC 201700Z 10012KT 9999 SCT035 26/14 A3005 BECMG TRACE AC CI DZ NE=
200802201800 METAR MROC 201800Z 10016KT 9999 SCT035 26/15 A3003 BECMG RMK DZ NE=
200802201900 METAR MROC 201900Z 11019KT 9999 SCT030 26/15 A3000 BECMG RMK DZ NE=
200802202000 METAR MROC 202000Z 10013KT 9999 SCT030 25/15 A2997 BECMG RMK DZ NE S=
200802202100 METAR MROC 202100Z 11012KT 9999 SCT035 26/14 A2996 RMK FEW090 TUC DST S/W BECMG 23008KT=
200802202200 METAR MROC 202200Z 10012KT 9999 SCT035 23/14 A2996 RMK FEW090 CB/TCU DST S GUST 19KT BECMG=
200802202300 METAR MROC 202300Z 10012KT 9999 SCT035 22/14 A2998 RMK FEW090 CB/TCU DST S GUST 19KT BECMG=
200802210000 METAR MROC 210000Z 10014KT 9999 BKN030 21/12 A3000 RMK FEW090 TCU DST S DZ DST N/NE BECMG=
200802210100 METAR MROC 210100Z 09008KT 9999 BKN030 20/10 A3004 RMK FEW090 DZ DST N/NE BECMG=
200802210200 METAR MROC 210200Z 10012KT 9999 FEW030 SCT250 20/12 A3005 RMK DZ DST N/NE/E BECMG=
200802210300 METAR MROC 210300Z 10011KT 9999 FEW030 SCT250 19/12 A3006 BECMG=
200802210400 METAR MROC 210400Z 08009KT 9999 FEW030 19/11 A3007 BECMG=
200802210500 METAR MROC 210500Z 07007KT 9999 FEW030 19/12 A3008 BECMG=
200802210600 METAR MROC 210600Z 05007KT 9999 FEW030 19/11 A3005 BECMG=
200802210700 METAR MROC 210700Z 05007KT 9999 FEW035 18/11 A3003 BECMG=
200802210800 METAR MROC 210800Z 07007KT CAVOK 18/11 A3001 RMK FEW080=
200802210900 METAR MROC 210900Z 06008KT CAVOK 18/12 A3000 RMK TRA AC=
200802211000 METAR MROC 211000Z 10011KT CAVOK 20/11 A3000 RMK TRACE AC=
200802211100 METAR MROC 211100Z 08008KT CAVOK 20/12 A3001 RMK TRACE SC BECMG=
200802211200 METAR MROC 211200Z 08008KT CAVOK 20/12 A3002 RMK TRAC SC BKN100 BECMG=
200802211300 METAR MROC 211300Z 10011G21KT CAVOK 20/11 A3004 RMK OVC100 BECMG=
200802211400 METAR MROC 211400Z 10014KT CAVOK 21/12 A3004 RMK BKN090 SCT110 GUST 23KT BECMG=
200802211500 METAR MROC 211500Z 10016KT CAVOK 22/12 A3006 RMK SCT090 BKN110 GUST 22KT BECMG=
200802211600 METAR MROC 211600Z 10013KT CAVOK 23/12 A3006 RMK OVC110 GUST 19KT BECMG=
200802211700 METAR MROC 211700Z 10014KT CAVOK 24/11 A3005 RMK OVC110 GUST 20KT BECMG=
200802211800 METAR MROC 211800Z 10012KT CAVOK 24/12 A3002 RMK OVC110 TCU BECMG=
200802211900 METAR MROC 211900Z 09010KT CAVOK 25/13 A3000 RMK FEW080 BKN110 BECMG=
200802212000 METAR MROC 212000Z 10009KT CAVOK 24/13 A2998 RMK FEW080 BKN110 BECMG=
200802212100 METAR MROC 212100Z 10008KT CAVOK 24/14 A2996 RMK TRACE SC FEW080 BKN120 BECMG=
200802212200 METAR MROC 212200Z 10009KT 9999 FEW040 OVC100 24/14 A2996 BECMG=
200802212300 METAR MROC 212300Z 10012KT 9999 FEW040 BKN120 22/14 A2996 VIENTO MAX 18KTS BECMG=
200802220000 METAR MROC 220000Z 10012KT 9999 FEW040 BKN120 22/13 A2998 RN DIST SSE BECMG=
200802220100 METAR MROC 220100Z 11008KT 9999 FEW040 BKN120 21/14 A3000 BECMG=
200802220200 METAR MROC 220200Z 10009KT 9999 FEW040 BKN120 20/14 A3002 BECMG=
200802220300 METAR MROC 220300Z 10006KT 9999 FEW010 BKN120 20/15 A3003 BECMG=
200802220400 METAR MROC 220400Z 10006KT CAVOK 20/15 A3004 BECMG TRACE SCT BKN120=
200802220500 METAR MROC 220500Z 00000KT CAVOK 20/15 A3004 BECMG RMK TRACE SC BKN120=
200802220600 METAR MROC 220600Z 11002KT CAVOK 19/15 A3002 BECMG RMK TRACE SC SCT120=
200802220700 METAR MROC 220700Z 06003KT CAVOK 17/14 A3001 BECMG RMK TRACE SC SCT120=
200802220800 METAR MROC 220800Z 05008KT CAVOK 17/14 A2999 RMK TRACE SC SCT120=
200802220900 METAR MROC 220900Z 05008KT CAVOK 17/14 A2998 RMK TRACE SC SCT120=
200802221000 METAR MROC 221000Z 06007KT CAVOK 17/14 A2999 RMK TRACE SC SCT120=
200802221100 METAR MROC 221100Z 07007KT CAVOK 17/14 A2999 RMK TRACE SC SCT120=
200802221200 METAR MROC 221200Z 08006KT CAVOK 17/14 A3000 RMK FEW120=
200802221300 METAR MROC 221300Z 07010KT CAVOK 20/13 A3001 TRACE SCT CI BECMG=
200802221400 METAR MROC 221400Z 10010KT CAVOK 23/13 A3003 TRACE CU SCT BECMG=
200802221500 METAR MROC 221500Z 14006KT CAVOK 25/13 A3005 TRACE CU SCT BECMG=
200802221600 METAR MROC 221600Z 21008KT 9999 FEW040 26/14 A3005 BECMG=
200802221700 METAR MROC 221700Z 25005KT 9999 SCT040 27/14 A3003 BECMG=
200802221800 METAR MROC 221800Z 22006KT 9999 BKN040 27/19 A3000 BECMG=
200802221900 METAR MROC 221900Z 25010KT 9999 FEW030 SCT045 27/16 A2997 BECMG=
200802222000 METAR MROC 222000Z 21008KT 9999 FEW025 SCT040TCU 27/16 A2994 BECMG=
200802222100 METAR MROC 222100Z 12003KT 9999 FEW025TCU BKN040 26/16 A2993 RMK LGT HZ ARND BECMG -RA=
200802222200 METAR MROC 222200Z 22009KT 9999 DZ FEW025TCU BKN035 24/19 A2993 RERA RMK HZ TO S SW BECMG -RA=
200802222300 METAR MROC 222300Z 21007KT 9999 FEW010 SCT020 BKN035 23/20 A2995 REDZ RMK PCPN DST ENE BECMG -RA=
200802230000 METAR MROC 230000Z 20004KT 9999 FEW010 BKN030 22/19 A2997 RMK PCPN DST N NE BECMG -RA=
200802230100 METAR MROC 230100Z 19002KT 9999 FEW007 BKN025 21/19 A3000 RMK LOW ST TO SW W BECMG 10006KT=
200802230200 METAR MROC 230200Z 22004KT 9999 VCFG FEW005 SCT010 20/19 A3002 RMK SCT025 VIS SW W 8KMS BECMG=
200802230300 METAR MROC 230300Z 24004KT 9999 VCFG FEW003 SCT015 20/19 A3003 RMK SCT025 VIS SW/W 8KM BECMG=
200802230400 METAR MROC 230400Z 00000KT 9999 VCFG FEW003 SCT025 20/18 A3003 RMK SCT120 VIS SW/W 8KM BECMG=
200802230500 METAR MROC 230500Z 31003KT 9999 SCT030 20/18 A3003 RMK FEW120 ST THIN S/SW BECMG=
200802230600 METAR MROC 230600Z 11002KT 9999 SCT030 SCT120 20/16 A3002 RMK ST THIN S BECMG=
200802230700 METAR MROC 230700Z 05005KT 9999 FEW030 SCT080 21/15 A3001 RMK SCT110=
200802230800 METAR MROC 230800Z 09008KT 9999 FEW030 BKN100 20/14 A3000=
200802230900 METAR MROC 230900Z 09009KT 9999 FEW030 BKN100 20/14 A2999=
200802231000 METAR MROC 231000Z 10008KT CAVOK 20/14 A3000 RMK FEW080 BKN110=
200802231100 METAR MROC 231100Z 10010KT CAVOK 20/13 A3000 RMK BKN110=
200802231200 METAR MROC 231200Z 10009KT CAVOK 20/12 A3002 RMK SCT110 SCT260=
200802231300 METAR MROC 231300Z 08009KT CAVOK 21/12 A3003 RMK FEW120 BECMG=
200802231400 METAR MROC 231400Z 10013KT CAVOK 24/11 A3003 RMK TRAZAS SC CI=
200802231500 METAR MROC 231500Z 11016KT CAVOK 25/12 A3004 RMK TRACE SC CI BECMG=
200802231600 METAR MROC 231600Z 10013KT CAVOK 27/12 A3003 RMK TRACE SC CI BECMG=
200802231700 METAR MROC 231700Z 09012KT CAVOK 28/12 A3002 RMK TRACE SC CI BECMG=
200802231800 METAR MROC 231800Z 13006KT 9999 SCT035 29/13 A3000 RMK BECMG 24006KT=
200802231900 METAR MROC 231900Z 20006KT 9999 BKN035 25/17 A2999 BECMG=
200802232000 METAR MROC 232000Z 23012KT 9999 FEW015 BKN035 26/18 A2996 BECMG=
200802232100 METAR MROC 232100Z 20006KT 9999 FEW017TCU SCT035 26/18 A2996 RMK FEW120 HZY BECMG=
200802232200 METAR MROC 232200Z 11008KT 9999 FEW020 SCT035 25/16 A2996 RMK LGT HZ ARND BECMG=
200802232300 METAR MROC 232300Z 11012KT 9999 FEW025 SCT035 24/15 A2996 RMK FEW100 LGT HZ ARND VEL MX VTO 17KT BECMG=
200802240000 METAR MROC 240000Z 10011KT 9999 SCT035 SCT100 23/15 A2999 RMK LGT HZ ARND BECMG=
200802240100 METAR MROC 240100Z 10008KT 9999 FEW035 SCT100 22/16 A3002 BECMG=
200802240200 METAR MROC 240200Z 08007KT 9999 FEW035 BKN080 21/16 A3004 BECMG=
200802240300 METAR MROC 240300Z 07007KT 9999 FEW035 SCT100 21/16 A3006 BECMG=
200802240400 METAR MROC 240400Z 09005KT 9999 FEW040 20/15 A3006 TRACE AC BECMG=
200802240500 METAR MROC 240500Z 09006KT 9999 FEW045 20/14 A3006 TRACE CI BECMG=
200802240600 METAR MROC 240600Z 10008KT 9999 FEW040 SCT100 20/14 A3006 BECMG=
200802240700 METAR MROC 240700Z 10010KT 9999 FEW030 20/14 A3006 TRACE AC BECMG=
200802240800 METAR MROC 240800Z 10008KT 9999 FEW040 20/14 A3006 TRACE AC BECMG=
200802240900 METAR MROC 240900Z 09010KT CAVOK 20/13 A3001 FEW120 TRACE SCT BECMG=
200802241000 METAR MROC 241000Z 08007KT CAVOK 19/12 A3002 TRACE SCT AC BECMG=
200802241100 METAR MROC 241100Z 07006KT 9999 FEW040 18/12 A3003 TRACE AC BECMG=
200802241200 METAR MROC 241200Z 07008KT 9999 FEW040 19/12 A3004 BECMG=
200802241300 METAR MROC 241300Z 33006KT 9999 FEW040 20/13 A3005 BECMG=
200802241400 METAR MROC 241400Z 11014KT 9999 FEW025 23/15 A3006 RMK RN DST NE BECMG=
200802241500 METAR MROC 241500Z 11023KT 9999 FEW025 23/15 A3007 RMK RN DST NE BECMG=
200802241515 METAR MROC 241515Z 10017KT 9999 FEW025 24/14 A3007 BECMG=
200802241600 METAR MROC 241600Z 10020KT 9999 FEW025 24/16 A3007 RMK RN DST NE BECMG=
200802241700 METAR MROC 241700Z 11017KT 9999 FEW025 26/15 A3006 RMK RN DST NE BECMG=
200802241800 METAR MROC 241800Z 10015KT 9999 BKN030 25/15 A3004 RMK RN DST NE BECMG=
200802241900 METAR MROC 241900Z 10016KT 9999 BKN030 25/15 A3000 RMK RN DST NE BECMG=
200802242000 METAR MROC 242000Z 10016KT 9999 SCT030 BKN090 26/15 A2998 RMK RN DST NE BECMG=
200802242100 METAR MROC 242100Z 09011KT 9999 FEW030 SCT100 BKN250 27/15 A2998 BECMG RMK RN NE=
200802242200 METAR MROC 242200Z 11014KT 9999 FEW030 SCT100 BKN250 25/15 A2997 BECMG RMK DZ NE=
200802242300 METAR MROC 242300Z 11013KT 9999 SCT030 BKN250 23/15 A2998 BECMG RMK DZ NE=
200802250000 METAR MROC 250000Z 12004KT 9999 BKN035 22/14 A3002 BECMG RMK DZ NE=
200802250100 METAR MROC 250100Z 10011KT 9999 BKN035 22/14 A3003 BECMG=
200802250200 METAR MROC 250200Z 10011KT 9999 FEW035 SCT120 21/13 A3005 BECMG=
200802250300 METAR MROC 250300Z 10013KT 9999 FEW035 SCT120 21/13 A3006 BECMG=
200802250400 METAR MROC 250400Z 09011KT CAVOK 21/13 A3007 RMK TRACE SC FEW100 BECMG=
200802250500 METAR MROC 250500Z 09011KT CAVOK 21/13 A3007 RMK TRACE SC SCT100 BECMG=
200802250600 METAR MROC 250600Z 09011KT CAVOK 20/13 A3005 RMK TRACE SC SCT120 BECMG=
200802250700 METAR MROC 250700Z 09010KT CAVOK 20/14 A3003 RMK TRACE SC SCT120 BECMG=
200802250800 METAR MROC 250800Z 10013KT CAVOK 20/14 A3001 RMK TRACE SC FEW120=
200802250900 METAR MROC 250900Z 100014KT 9999 FEW035 20/15 A3000 RMK TRACE AC=
200802251000 METAR MROC 251000Z 10015KT 9999 FEW035 20/14 A2999 RMK TRACE AC=
200802251100 METAR MROC 251100Z 10017KT 9999 FEW035 20/15 A2999 RMK VEL MX VTO 25KT=
200802251200 METAR MROC 251200Z 10017KT 9999 FEW030 SCT300 20/15 A3001 RMK VEL MX VTO 24KT=
200802251300 METAR MROC 251300Z 11018KT 9999 FEW030 SCT300 20/15 A3003 BECMG RMK RAFAGAS 22KT=
200802251400 METAR MROC 251400Z 10016KT 9999 FEW030 SCT300 23/14 A3005 BECMG=
200802251500 METAR MROC 251500Z 10016KT 9999 FEW030 SCT300 24/13 A3005 BECMG=
200802251600 METAR MROC 251600Z 08014KT 9999 FEW030 SCT300 26/14 A3006 BECMG RMK DZ NE=
200802251700 METAR MROC 251700Z 09014KT 9999 FEW030 27/14 A3004 BECMG RMK DZ NE=
200802251800 METAR MROC 251800Z 10015KT 9999 SCT030 26/15 A3002 BECMG RMK DZ NE=
200802251900 METAR MROC 251900Z 09012KT 9999 SCT030 27/15 A2999 BECMG RMK DZ NE=
200802252000 METAR MROC 252000Z 12010KT 9999 SCT030 27/14 A2996 BECMG RMK DZ NE=
200802252100 METAR MROC 252100Z 10015KT 9999 SCT035 26/14 A2994 RMK FEW120 LINE TCU S GUST 22KT=
200802252200 METAR MROC 252200Z 09014KT 9999 SCT035 SCT120 24/15 A2995 RMK TCU/CB DST S/SW GUST 20KT BECMG 7000 VCSH=
200802252300 METAR MROC 252300Z 10015KT 9999 FEW035 SCT250 22/14 A2996 RMK FEW120 CB/TCU DST S GUST 21KT BECMG=
200802260000 METAR MROC 260000Z 10014KT 9999 FEW030 BKN250 21/13 A2998 RMK FEW120 TCU DST S GUST 20KT BECMG=
200802260100 METAR MROC 260100Z 10013KT 9999 FEW030 BKN250 21/14 A2999 RMK GUST 20KT BECMG=
200802260200 METAR MROC 260200Z 10013KT 9999 FEW030 BKN250 21/14 A3001 BECMG=
200802260300 METAR MROC 260300Z 10010KT 9999 FEW030 SCT250 20/13 A3003 BECMG=
200802260400 METAR MROC 260400Z 10012KT 9999 FEW030 20/13 A3004 BECMG=
200802260500 METAR MROC 260500Z 06010KT 9999 FEW030 20/13 A3002 BECMG=
200802260600 METAR MROC 260600Z 03010KT 9999 FEW030 19/13 A3001 BECMG=
200802260700 METAR MROC 260700Z 06006KT 9999 FEW030 18/13 A3000=
200802260800 METAR MROC 260800Z 07006KT 9999 FEW030 18/13 A2998=
200802260900 METAR MROC 260900Z 06010KT CAVOK 18/13 A2992=
200802261000 METAR MROC 261000Z 07008KT CAVOK 18/13 A2992 RMK TRCE SC BECMG=
200802261100 METAR MROC 261100Z 08007KT CAVOK 19/13 A2998 RMK TRACE SC=
200802261200 METAR MROC 261200Z 09009KT CAVOK 19/13 A2999 RMK FEW080 SCT250 BECMG=
200802261300 METAR MROC 261300Z 07009KT CAVOK 19/13 A3001 RMK BKN250 BECMG=
200802261400 METAR MROC 261400Z 07007KT CAVOK 21/13 A3002 RMK BKN250 BECMG=
200802261500 METAR MROC 261500Z 10015KT CAVOK 23/14 A3002 RMK BKN250 GUST 23KT BECMG=
200802261600 METAR MROC 261600Z 10014KT CAVOK 24/14 A3003 RMK BKN250 GUST 20KT BECMG=
200802261700 METAR MROC 261700Z 10013KT CAVOK 26/13 A3001 RMK BKN280 GUST 20KT BECMG=
200802261800 METAR MROC 261800Z 11010KT 9999 FEW040 SCT280 28/13 A2998 RMK GUST 19KT BECMG=
200802261900 METAR MROC 261900Z 09009KT 9999 FEW040 SCT280 30/12 A2995 BECMG=
200802262000 METAR MROC 262000Z 12007KT 9999 SCT040 27/12 A2992 RMK FEW280 BECMG=
200802262100 METAR MROC 262100Z 22006KT 9999 SCT040 27/15 A2991 FEW280 BECMG=
200802262200 METAR MROC 262200Z 22007KT 9999 FEW040 BKN250 26/16 A2990 RMK VTO MAX 12KTS BECMG=
200802262300 METAR MROC 262300Z 19006KT 9999 FEW040 BKN250 26/16 A2992 RMK TRACE AC BECMG=
200802270000 METAR MROC 270000Z 22008KT 9999 FEW045 OVC230 23/16 A2993 BECMG=
200802270100 METAR MROC 270100Z 14002KT 9999 FEW040 BKN250 22/18 A2995 BECMG=
200802270200 METAR MROC 270200Z 11005KT 9999 FEW040 21/15 A2997 BECMG=
200802270300 METAR MROC 270300Z 11003KT 9999 FEW040 SCT250 20/15 A2996 BECMG=
200802270400 METAR MROC 270400Z 11003KT CAVOK 19/15 A2998 BECMG RMK SCT250=
200802270500 METAR MROC 270500Z 10004KT CAVOK 19/15 A2999 BECMG RMK SCT250=
200802270600 METAR MROC 270600Z 08002KT CAVOK 18/14 A2998 BECMG RMK SCT250=
200802270700 METAR MROC 270700Z 06006KT CAVOK 17/14 A2996 BECMG RMK SCT250=
200802270800 METAR MROC 270800Z 09003KT CAVOK 16/14 A2995 BECMG RMK SCT250=
200802270900 METAR MROC 270900Z 09004KT CAVOK 16/13 A2995 RMK FEW250=
200802271000 METAR MROC 271000Z 07004KT CAVOK 15/13 A2996 RMK FEW240=
200802271100 METAR MROC 271100Z 09003KT CAVOK 15/12 A2998 RMK FEW250=
200802271200 METAR MROC 271200Z 07006KT 9999 FEW035 SCT250 16/13 A3001=
200802271300 METAR MROC 271300Z 07008KT CAVOK 18/13 A3002 RMK TRACE SC SCT240 HZ W BECMG=
200802271400 METAR MROC 271400Z 09008KT CAVOK 22/14 A3004 RMK TRACE SC SCT250 HZ W BECMG=
200802271500 METAR MROC 271500Z 06008KT CAVOK 25/15 A3004 RMK TRACE CU SCT250 HZ W BECMG=
200802271600 METAR MROC 271600Z 27003KT CAVOK 26/12 A3003 TRACE CU SCT250 HZ W BECMG=
200802271700 METAR MROC 271700Z 24007KT CAVOK 27/14 A3001 RMK TRACE CU SCT270 HZ W BECMG=
200802271800 METAR MROC 271800Z 27008KT 9999 FEW040 SCT270 30/11 A2997 BECMG=
200802271900 METAR MROC 271900Z 28010KT 9999 FEW030 SCT045 28/13 A2995 TRACE CI BECMG=
200802272000 METAR MROC 272000Z 24010KT 9999 FEW030 SCT040 27/16 A2994 RMK TRACE CI TCU DIST S BECMG=
200802272100 METAR MROC 272100Z 12007KT 9999 FEW030 SCT040 29/14 A2991 BECMG=
200802272200 METAR MROC 272200Z 11010KT 9999 FEW035 27/11 A2992 RMK LGT HZ ARND BECMG=
200802272300 METAR MROC 272300Z 10011KT 9999 FEW040 SCT250 25/15 A2994 BECMG=
200802280000 METAR MROC 280000Z 10010KT 9999 FEW040 23/15 A2996 RMK TRACE AC CI BECMG=
200802280100 METAR MROC 280100Z 10010KT 9999 FEW040 22/13 A2998 RMK FEW AC/CI BECMG=
200802280200 METAR MROC 280200Z 09015KT 9999 FEW040 22/14 A3001 RMK FEWAC/CI BECMG=
200802280300 METAR MROC 280300Z 10013KT CAVOK 22/12 A3003 RMK FEW260 BECMG=
200802280400 METAR MROC 280400Z 10016KT CAVOK 22/10 A3003 RMK FEW260 BECMG=
200802280500 METAR MROC 280500Z 09013KT CAVOK 22/09 A3005 RMK FEW260=
200802280600 METAR MROC 280600Z 10013KT CAVOK 21/10 A3004 RMK FEW260 GUST 20KT BECMG=
200802280700 METAR MROC 280700Z 10013KT CAVOK 21/10 A3002 BECMG=
200802280800 METAR MROC 280800Z 10014KT CAVOK 21/10 A3000 RMK GUST 21KT=
200802280900 METAR MROC 280900Z 10014KT CAVOK 21/10 A2999=
200802281000 METAR MROC 281000Z 10014KT CAVOK 21/10 A3000 RMK GUST 21KT=
200802281100 METAR MROC 281100Z 10016KT CAVOK 21/10 A3001 RMK GUST 24KT=
200802281200 METAR MROC 281200Z 10017KT CAVOK 21/09 A3002 RMK FEW260 GUST 25KT=
200802281300 METAR MROC 281300Z 10017G27KT CAVOK 22/09 A3004 FEW270 BECMG=
200802281400 METAR MROC 281400Z 10018KT CAVOK 23/09 A3006 RMK TRACE SCT CI VEL MX VTO 24KT BECMG=
200802281500 METAR MROC 281500Z 09019G30KT CAVOK 25/08 A3006 RMK TRACE SC CI BECMG=
200802281600 METAR MROC 281600Z 10019KT CAVOK 25/08 A3005 RMK TRACE SC BECMG=
200802281700 METAR MROC 281700Z 08018KT CAVOK 27/06 A3003 RMK TRACE SC VEL MX VTO 25KT BECMG=
200802281800 METAR MROC 281800Z 08015KT CAVOK 28/04 A3001 RMK VEL MX VTO 22KT TRACE SC BECMG=
200802281900 METAR MROC 281900Z 08014KT CAVOK 27/07 A2999 RMK TRACE SC VEL MX VTO 23KT BECMG=
200802282000 METAR MROC 282000Z 07014G24KT CAVOK 28/08 A2997 RMK TRACE CU BECMG=
200802282100 METAR MROC 282100Z 07013KT 9999 FEW035 27/09 A2995=
200802282200 METAR MROC 282200Z 07012KT 9999 FEW035 26/10 A2996 BECMG=
200802282300 METAR MROC 282300Z 07016KT 9999 FEW035 24/11 A2997 BECMG=
200802290000 METAR MROC 290000Z 07016KT 9999 FEW035 22/12 A2998 BECMG=
200802290100 METAR MROC 290100Z 06019KT CAVOK 21/11 A2999 RMK TRACE SC BECMG=
200802290200 METAR MROC 290200Z 09016KT CAVOK 21/12 A3001 RMK TRACE SC BECMG=
200802290300 METAR MROC 290300Z 09016KT CAVOK 21/14 A3002 VEL MX VTO 24KTS BECMG=
200802290400 METAR MROC 290400Z 10018KT CAVOK 20/14 A3001 VEL MAX VTO 26KTS BECMG=
200802290500 METAR MROC 290500Z 08015KT CAVOK 20/14 A3001 VT MX VTO 23KTS BECMG=
200802290600 METAR MROC 290600Z 09016KT CAVOK 20/14 A3000 VEL MX VTO 23KTS BECMG=
200802290700 METAR MROC NIL=
200802290800 METAR MROC 290800Z 08013KT CAVOK 20/13 A2998 TRACE VEL MX VTO 21KTS BECMG=
200802290900 METAR MROC 290900Z 10013KT CAVOK 20/12 A2996 TRACE SCT VEL MX VTO 17KTS BECMG=
200802291000 METAR MROC 291000Z 08015KT CAVOK 20/11 A2997 BECMG=
200802291100 METAR MROC 291100Z 09014KT CAVOK 19/11 A2997 TRACE SCT VEL MAX VTO 20KTS BECMG=
200802291200 METAR MROC 291200Z 08014KT CAVOK 20/12 A2999 TRACE SCT VEL MAX VTO 21KTS BECMG=
200802291300 METAR MROC 291300Z 09015KT CAVOK 21/12 A3001 RMK TRACE SC BECMG=
200802291400 METAR MROC 291400Z 08014KT 9999 FEW035 23/12 A3003 BECMG=
200802291500 METAR MROC 291500Z 10018KT 9999 FEW035 24/12 A3004 RMK RFGS 24KT BECMG=
200802291600 METAR MROC 291600Z 07018KT 9999 FEW030 25/11 A3005 BECMG=
200802291700 METAR MROC 291700Z 07015KT 9999 FEW030 26/09 A3003 BECMG=
200802291800 METAR MROC 291800Z 09015KT 9999 FEW035 27/08 A3001 BECMG=
200802291900 METAR MROC 291900Z 09014KT 9999 FEW030 27/09 A2997 RMK RFGS 20KT BECMG=
200802292000 METAR MROC 292000Z 06017KT 9999 FEW030 27/10 A2994 RMK RFGS 24KT BECMG=
200802292100 METAR MROC 292100Z 06014KT 9999 FEW030 27/10 A2993 BECMG=
200802292200 METAR MROC 292200Z 06016KT 9999 SCT030 25/10 A2993 BECMG=
200802292300 METAR MROC 292300Z 07014KT 9999 SCT030 24/11 A2995 BECMG RMK RAFAGAS 19KT=
200803010000 METAR MROC 010000Z 08011KT 9999 FEW035 22/12 A2996 BECMG RMK RAFAGAS 16KT=
200803010100 METAR MROC 010100Z 08013KT 9999 FEW035 21/12 A2998 BECMG RMK RAFAGAS 17KT=
200803010200 METAR MROC 010200Z 09012KT 9999 FEW035 21/13 A3000 BECMG RMK RAFAGAS 26KT=
200803010300 METAR MROC 010300Z 09014KT 9999 FEW030 21/12 A3002 BECMG=
200803010400 METAR MROC 010400Z 10015KT 9999 FEW030 20/13 A3001 RMK VEL MX VTO 23KT BECMG=
200803010500 METAR MROC 010500Z 10016KT 9999 FEW030 20/13 A3000 RMK VEL MX VTO 24KT BECMG=
200803010600 METAR MROC 010600Z 10014KT CAVOK 19/13 A2999 RMK TRACE SC BECMG=
200803010700 METAR MROC 010700Z 10017KT CAVOK 19/12 A2995 RMK TRACE SC BECMG=
200803010800 METAR MROC 010800Z 10015KT CAVOK 20/12 A2994 RMK TRACE SC=
200803010900 METAR MROC 010900Z 10013KT CAVOK 20/14 A2994 RMK TRACE SC VEL MX VTO 19KT=
200803011000 METAR MROC 011000Z 10014KT CAVOK 20/13 A2994 RMK TRACE SC VEL MX VTO 22KT=
200803011100 METAR MROC 011100Z 10015KT CAVOK 20/13 A2996 RMK TRACE SC=
200803011200 METAR MROC 011200Z 10015KT CAVOK 20/13 A2997 RMK TRACE SC FEW250 VEL MX VTO 21KT=
200803011300 METAR MROC 011300Z 10014KT CAVOK 21/13 A2999 BECMG RMK TRACE SC FEW250 RAFAGAS 18KT=
200803011400 METAR MROC 011400Z 10017KT 9999 FEW035 SCT250 23/14 A3001=
200803011500 METAR MROC 011500Z 11016KT 9999 FEW035 SCT250 25/14 A3002 BECMG=
200803011600 METAR MROC 011600Z 08014KT 9999 FEW035 BKN250 27/12 A3002 BECMG=
200803011700 METAR MROC 011700Z 08020KT 9999 FEW035 BKN250 27/12 A2999 BECMG=
200803011800 METAR MROC 011800Z 08019KT 9999 FEW035 BKN250 26/13 A2999 BECMG=
200803011900 METAR MROC 011900Z 07012KT 9999 FEW035 BKN250 29/13 A2994 BECMG RMK RAFAGAS 18KT=
200803012000 METAR MROC 012000Z 06018KT 9999 FEW030 BKN250 27/15 A2992 BECMG RMK RAFAGAS 23KT=
200803012100 METAR MROC 012100Z 07014KT 9999 FEW030 BKN280 27/14 A2990 RMK GUST 22KT BECMG=
200803012200 METAR MROC 012200Z 08015KT 9999 FEW030 BKN280 26/12 A2991 RMK GUST 24KT BECMG=
200803012300 METAR MROC 012300Z 06016KT 9999 FEW030 SCT280 25/10 A2991 RMK GUST 26KT BECMG=
200803020000 METAR MROC 020000Z 08010KT 9999 FEW030 22/10 A2993 RMK FEW280 BECMG=
200803020100 METAR MROC 020100Z 08012KT 9999 FEW030 22/11 A2995 BECMG=
200803020200 METAR MROC 020200Z 08015KT 9999 FEW030 21/11 A2997 RMK GUST 22KT BECMG=
200803020300 METAR MROC 020300Z 09015KT CAVOK 20/12 A2997 RMK TRACE SC RFGS 20KT=
200803020400 METAR MROC 020400Z 10018KT CAVOK 20/11 A2997 RMK TRACE SC RFGS 23KT=
200803020500 METAR MROC 020500Z 10020KT CAVOK 20/12 A2996 RMK TRACE SC RFGS 25KT BECMG=
200803020600 METAR MROC 020600Z 10016KT CAVOK 20/10 A2996 RMK TRACE SC BECMG=
200803020700 METAR MROC 020700Z 11016KT CAVOK 20/10 A2994 RMK TRACE SC=
200803020800 METAR MROC 020800Z 19916KT CAVOK 29/10 A2992 RMK TRACE SC=
200803020900 METAR MROC 020900Z 11013KT CAVOK 19/11 A2993 RMK TRACE SC=
200803021000 METAR MROC 021000Z 11014KT CAVOK 19/11 A2993 RMK TRACE SC=
200803021100 METAR MROC 021100Z 10011KT CAVOK 18/10 A2994 RMK TRACE SC BECMG=
200803021200 METAR MROC 021200Z 10011KT 9999 SKC 18/10 A2996 BECMG=
200803021300 METAR MROC 021300Z 10013KT CAVOK 20/11 A2998 RMK GUST 20 KT BECMG=
200803021400 METAR MROC 021400Z 11014KT CAVOK 22/13 A2999 RMK GUST 20 KT BECMG=
200803021500 METAR MROC 021500Z 10014KT CAVOK 25/12 A3000 RMK GUST 22KT BECMG=
200803021600 METAR MROC 021600Z 09016KT CAVOK 26/12 A3000 RMK GUST 22KT BECMG=
200803021700 METAR MROC 021700Z 09015KT 9999 FEW040 17/12 A2998 RMK GUTS 23KT BECMG=
200803021800 METAR MROC 021800Z 09012KT 9999 FEW040 28/10 A2996 BECMG=
200803021900 METAR MROC 021900Z 10012KT 9999 FEW040 28/11 A2993 BECMG=
200803022000 METAR MROC 022000Z 09010KT 9999 FEW040 28/11 A2991 BECMG=
200803022100 METAR MROC 022100Z 07012KT 9999 FEW040 29/11 A2989 RMK GUST 16KT BECMG=
200803022200 METAR MROC 022200Z 08010KT 9999 FEW040 28/10/ A2989 BECMG=
200803022300 METAR MROC 022300Z 08009KT 9999 FEW040 27/10 A2990 RMK GUST 15KTS BECMG=
200803030000 METAR MROC 030000Z 07010KT CAVOK 23/10 A2991 TRACE SCT GUST 17KTS BECMG=
200803030100 METAR MROC 030100Z 09009KT CAVOK 22/12 A2993 RMK TRACE SC BECMG=
200803030200 METAR MROC 030200Z 09013KT CAVOK 20/12 A2994 RMK TRACE SC BECMG=
200803030300 METAR MROC 030300Z 10015KT CAVOK 20/10 A2997 RMK TRACE SC BECMG=
200803030400 METAR MROC 030400Z 09014KT CAVOK 20/10 A2998 BECMG RMK TRACE SC CI=
200803030500 METAR MROC 030500Z 11012KT CAVOK 20/11 A2996 RMK TRACE SC CI BECMG=
200803030600 METAR MROC 030600Z 10010KT CAVOK 19/11 A2997 RMK TRACE SC CI BECMG=
200803030700 METAR MROC 030700Z 04005KT CAVOK 18/11 A2996 RMK TRACEW SC CI BECMG=
200803030800 METAR MROC 030800Z 06008KT CAVOK 19/09 A2995 RMK TRACE SC CI=
200803030900 METAR MROC 030900Z 36005KT CAVOK 17/08 A2994 RMK TRACE SC CI=
200803031000 METAR MROC 031000Z 04009KT CAVOK 17/08 A2995 RMK TRACE SC CI=
200803031100 METAR MROC 031100Z 04007KT CAVOK 17/08 A2997 RMK TRACE SC CI=
200803031200 METAR MROC 031200Z 04006KT CAVOK 17/08 A2998 RMK TRACE SC=
200803031300 METAR MROC 031300Z 06010KT CAVOK 20/11 A3001 RMK TRACE SC CI BECMG=
200803031400 METAR MROC 031400Z 10014KT CAVOK 22/13 A3001 VT0 MAX 22KTS TRACE SCT BECMG=
200803031500 METAR MROC 031500Z 10015KT CAVOK 24/13 A3001 VTO MAX 21KTS TRACE SCT BECMG=
200803031600 METAR MROC 031600Z 10013KT CAVOK 26/12 A3001 VEL MAX VTO 22KTS TRACE SCT=
200803031700 METAR MROC 031700Z 10014KT 9999 FEW040 27/12 A3000 VEL MAX VTO 18KTS=
200803031800 METAR MROC 031800Z 11013KT 9999 FEW040 28/12 A2997 VEL MAX 19KTS BECMG=
200803031900 METAR MROC 031900Z 12010KT 9999 FEW040 29/11 A2994 VTO MAX 14KTS BECMG=
200803032000 METAR MROC 032000Z 06006KT 9999 SCT040 28/12 A2992 BECMG=
200803032100 METAR MROC 032100Z 24008KT 9999 FEW030TCU SCT040 27/15 A2991 BECMG=
200803032200 METAR MROC 032200Z 25007KT 9999 SCT030 27/17 A2991 BECMG=
200803032300 METAR MROC 032300Z 19005KT 9999 SCT030 25/17 A2992 BECMG=
200803040000 METAR MROC NIL=
200803040100 METAR MROC 040100Z 09010KT 9999 FEW035 22/15 A2995 BECMG=
200803040200 METAR MROC 040200Z 11004KT 9999 FEW040 21/15 A2998 BECMG=
200803040300 METAR MROC 040300Z 09005KT 9999 FEW035 20/15 A3000 BECMG=
200803040400 METAR MROC NIL=
200803040500 METAR MROC NIL=
200803040600 METAR MROC NIL=
200803040700 METAR MROC 040700Z 09008KT CAVOK 19/14 A2998 BECMG=
200803040800 METAR MROC 040800Z 12004KT CAVOK 19/13 A2998 BECMG=
200803040900 METAR MROC 040900Z 06007KT CAVOK 17/13 A2998 BECMG=
200803041000 METAR MROC 041000Z 05006KT CAVOK 16/11 A2998 BECMG=
200803041100 METAR MROC 041100Z 05007KT CAVOK 16/10 A2999 BECMG=
200803041200 METAR MROC 041200Z 05006KT CAVOK 16/11 A3001 BECMG=
200803041300 METAR MROC 041300Z 08005KT CAVOK 20/13 A3004 RMK TRACE SC BECMG=
200803041400 METAR MROC 041400Z 01003KT CAVOK 23/11 A3005 RMK TRACE SC HZY BECMG=
200803041500 METAR MROC 041500Z 07003KT CAVOK 26/11 A3004 RMK TRACE SC CI LGT HZ ARND BECMG=
200803041600 METAR MROC 041600Z 25007KT 9999 FEW035 27/12 A3003 RMK LGT HZ ARND BECMG=
200803041700 METAR MROC 041700Z 23008KT 9999 FEW035 27/13 A3000 RMK LGT HZ ARND BECMG=
200803041800 METAR MROC 041800Z 24010KT 9999 SCT040 29/13 A2999 RMK LGT HZ ARND BECMG=
200803041900 METAR MROC 041900Z 22009KT 9999 SCT040 29/14 A2996 RMK LGT HZ ARND BECMG=
200803042000 METAR MROC 042000Z 21007KT 9999 FEW030 SCT040 28/16 A2993 RMK LGT HZ ARND BECMG=
200803042100 METAR MROC 042100Z 22014KT 9999 FEW030 27/17 A2992 RMK HZ LGT ARND=
200803042200 METAR MROC 042200Z 21009KT 9999 SCT030 26/18 A2992 RMK HZ ARND BECMG=
200803042300 METAR MROC 042300Z 21007KT 9999 FEW030 SCT040 24/19 A2993 RMK HZ ARND BECMG=
200803050000 METAR MROC 050000Z 22006KT 9999 FEW030 SCT080 22/18 A2997 BECMG=
200803050100 METAR MROC 050100Z 20005KT 9999 SCT035 21/19 A2998 BECMG=
200803050200 METAR MROC 050200Z 24004KT 9999 SCT035 20/19 A3000 BECMG=
200803050300 METAR MROC 050300Z 28002KT 9999 FEW015 SCT040 21/19 A3002 BECMG=
200803050400 METAR MROC 050400Z 10004KT 9999 SCT045 21/16 A3003 BECMG=
200803050500 METAR MROC 050500Z 08008KT 9999 FEW045 20/15 A3003 BECMG=
200803050600 METAR MROC 050600Z 09010KT CAVOK 21/15 A3003 TRACE SCT BECMG=
200803050700 METAR MROC NIL=
200803050800 METAR MROC NIL=
200803050900 METAR MROC NIL=
200803051000 METAR MROC NIL=
200803051100 METAR MROC NIL=
200803051200 METAR MROC NIL=
200803051300 METAR MROC NIL=
200803051400 METAR MROC NIL=
200803051500 METAR MROC NIL=
200803051600 METAR MROC NIL=
200803051700 METAR MROC 051700Z 24007KT 9999 SCT035 28/23 A3004 BECMG=
200803051800 METAR MROC 051800Z 25009KT 9999 SCT035 28/15 A3001 RMK HZ ARND BECMG=
200803051900 METAR MROC 051900Z 25010KT 9999 SCT035 28/16 A2999 RMK HZ LGT ARND BECMG=
200803052000 METAR MROC 052000Z 26010KT 9999 SCT025TCU 27/16 A2996 RMK HZ LGT ARND BECMG 7000 VCSH=
200803052100 METAR MROC 052100Z 21010KT 9999 FEW015TCU SCT030 26/19 A2994 RMK HZ ARND BECMG=
200803052200 METAR MROC NIL=
200803052300 METAR MROC 052300Z 21005KT 9999 FEW015 BKN030 23/19 A2996 RMK HZ ARND BECMG=
200803060000 METAR MROC 060000Z 23009KT 9999 FEW010 BKN030 22/19 A2999 RMK HZ ARND BECMG=
200803060100 METAR MROC NIL=
200803060200 METAR MROC 060200Z 26004KT 9999 BKN030 21/19 A3004 RMK BECMG=
200803060300 METAR MROC 060300Z 26002KT 9999 -DZ VCFG FEW005 SCT010 BKN025 21/19 A3005 RMK VIS SW W 8KMS BECMG 1004=
200803060335 SPECI MROC 060335Z 10004KT 9999 FEW010 BKN025 21/19 A3006 BECMG=
200803060400 METAR MROC NIL=
200803060500 METAR MROC 060500Z 08004KT 9999 FEW030 BKN045 21/15 A3006 BECMG=
200803060600 METAR MROC 060600Z 09007KT CAVOK 21/15 A3005 RMK TRACE SC FEW100 SCT250 BECMG=
200803060700 METAR MROC 060700Z 06006KT CAVOK 20/14 A3004 RMK TRACE SC BKN080 BECMG=
200803060800 METAR MROC 060800Z 060800Z06007KT CAVOK 20/14 A3002 RMK TRACE SC BKN080=
200803060900 METAR MROC 060900Z 06007KT CAVOK 20/14 A3001 RMK TRACE SC SCT080=
200803061000 METAR MROC 061000Z 08004KT CAVOK 19/14 A3000 RMK TRACE SC FEW100=
200803061100 METAR MROC 061100Z 06009KT CAVOK 18/14 A3000 RMK TRACE SC SCT120=
200803061200 METAR MROC 061200Z 05005KT CAVOK 18/14 A3002 RMK TRACE SC AC FEW300=
200803061300 METAR MROC 061300Z 07002KT CAVOK 20/14 A3004 RMK TRACE SC FEW300 BECMG 24008KT=
200803061400 METAR MROC 061400Z 09006KT CAVOK 23/14 A3005 RMK TRACE SC SCT250=
200803061500 METAR MROC 061500Z 07005KT CAVOK 26/14 A3005 RMK TRACE SC SCT250 BECMG=
200803061600 METAR MROC 061600Z 11003KT CAVOK 28/13 A3004 RMK TRACE SC SCT250 BECMG=
200803061700 METAR MROC 061700Z 25008KT 9999 FEW040 SCT250 27/14 A3002 RMK BECMG=
200803061800 METAR MROC 061800Z 24010KT 9999 SCT040 28/16 A2999 RMK BECMG HZ W=
200803061900 METAR MROC 061900Z 17006KT 9999 SCT040 SCT250 29/15 A2997 RMK HZ ARND BECMG=
200803062000 METAR MROC 062000Z 23013KT 9999 SCT035 SCT250 28/17 A2993 BECMG=
200803062100 METAR MROC 062100Z 24014KT 9999 SCT025TCU SCT035 28/18 A2991 RMK SCT20 TCU SCT ARMD BECMG=
200803062200 METAR MROC NIL=
200803062300 METAR MROC NIL=
200803070000 METAR MROC 070000Z 03007KT 9999 FEW020 BKN030 22/19 A2995 RMK VIS 8KM E/SE DUE HZ/RN BECMG 7000 -RA=
200803070100 METAR MROC NIL=
200803070200 METAR MROC 070200Z 22005KT 8000 VCFG FEW005 BKN025 21/19 A3000 RMK VIS N/NE/E UNL BECMG 10004KT 9999=
200803070300 METAR MROC 070300Z 23003KT 3500 BR FEW002 SCT005 21/19 A3002 BECMG 10004KT 5000 BR=
200803070400 METAR MROC 070400Z 00000KT 5000 BR FEW004 20/18 A3003 BECMG 10004KT 7000 VCFG=
200803070500 METAR MROC 070500Z 00000KT 6000 VCFG FEW004 20/18 A3003 BECMG 10005KT=
200803070600 METAR MROC 070600Z 00000KT 4000 2000W BR SCT003 20/19 A3003 BECMG 6000=
200803070604 METAR MROC 070604Z 00000KT 4000 2000W BR SCT003 20/19 A3003 BECMG 6000 VCFG=
200803070700 METAR MROC NIL=
200803070800 METAR MROC NIL=
200803070900 METAR MROC 070900Z 05005KT 9999 FEW005 18/16 A2998=
200803071000 METAR MROC 071000Z 08003KT 9999 FEW005 17/14 A2998=
200803071100 METAR MROC 071100Z 07004KT 9999 FEW005 16/14 A2999=
200803071200 METAR MROC 071200Z 09004KT CAVOK 16/14 A3000 RMK HZ LGT ARND SCT300 BECMG=
200803071300 METAR MROC NIL=
200803071400 METAR MROC 071400Z 09005KT CAVOK 23/15 A3003 RMK HZ LGT ARND BECMG=
200803071500 METAR MROC NIL=
200803071600 METAR MROC NIL=
200803071700 METAR MROC NIL=
200803071800 METAR MROC NIL=
200803071900 METAR MROC 071900Z 24008KT 9999 FEW040 29/14 A2996 BECMG=
200803072000 METAR MROC NIL=
200803072100 METAR MROC 072100Z 23013KT 9999 SCT040TCU 28/17 A2992 BECMG=
200803072200 METAR MROC 072200Z 21014KT 9999 FEW015 SCT030 25/17 A2993 RN DIST ESE BECMG=
200803072300 METAR MROC 072300Z 19008KT 9999 SCT030 BKN120 24/18 A2994 RN DIST E TRACE CI BECMG=
200803080000 METAR MROC NIL=
200803080100 METAR MROC 080100Z 24003KT 9999 FEW035 22/17 A2997 RMK BECMG 9999 NSC=
200803080200 METAR MROC NIL=
200803080300 METAR MROC NIL=
200803080400 METAR MROC 080400Z 24004KT 9999 SCT035 20/18 A3003 BECMG=
200803080500 METAR MROC 080500Z 26004KT 9999 FEW010 SCT035 20/19 A3003 BECMG=
200803080600 METAR MROC 080600Z 26003KT 9999 FEW010 SCT035 20/18 A3002 RMK HZ ARND BECMG=
200803080700 METAR MROC NIL=
200803080800 METAR MROC NIL=
200803080900 METAR MROC 080900Z 00000KT 9999 SCT030 20/18 A3000 RMK BECMG HZ ARND=
200803081000 METAR MROC 081000Z 06003KT 9999 SCT030 20/18 A3000 RMK HZ ARND=
200803081100 METAR MROC 081100Z 06006KT 9999 SCT030 19/16 A3000=
200803081200 METAR MROC 081200Z 01004KT 9999 SCT035 19/16 A3002 RMK HZ W=
200803081300 METAR MROC 081300Z 10004KT 9999 FEW030 22/16 A3004 TRACE AC HZ DENSA W BECMG=
200803081400 METAR MROC NIL=
200803081500 METAR MROC NIL=
200803081600 METAR MROC 081600Z 09012KT 9999 FEW040 28/13 A3004 TRACE CI VTO MAX 18KTS BECMG=
200803081700 METAR MROC 081700Z 09013KT 9999 SCT040 29/11 A3002 VTO MAX 20KTS BECMG=
200803081800 METAR MROC NIL=
200803081900 METAR MROC NIL=
200803082000 METAR MROC 082000Z 09012KT 9999 SCT020TCU SCT045 26/13 A2997 RN DIST NE VTO MAX 18KTS BECMG=
200803082100 METAR MROC NIL=
200803082200 METAR MROC 082200Z 09015KT 9999 SCT035 27/11 A2995 TRACE CI BECMG=
200803082300 METAR MROC 082300Z 08012KT 9999 FEW035 SCT250 24/13 A2995 RMK VEL MX VTO 20KT=
200803090000 METAR MROC 090000Z 09014KT CAVOK 23/13 A2997 RMK TRACE SC SCT250 BECMG=
200803090100 METAR MROC NIL=
200803090200 METAR MROC NIL=
200803090300 METAR MROC 090300Z 07015KT CAVOK 21/12 A3002 BECMG=
200803090400 METAR MROC 090400Z 08015KT CAVOK 21/12 A3002 RMK GUST 22KT BECMG X=
200803090500 METAR MROC NIL=
200803090600 METAR MROC NIL=
200803090700 METAR MROC NIL=
200803090800 METAR MROC NIL=
200803090900 METAR MROC 090900Z 10016KT CAVOK 20/13 A2997 RMK GUST 21KT=
200803091000 METAR MROC 091000Z 10014KT CAVOK 19/13 A2998=
200803091100 METAR MROC NIL=
200803091200 METAR MROC 091200Z 10013KT CAVOK 19/13 A3002 RMK CB DST SW=
200803091300 METAR MROC 091300Z 11012KT CAVOK 20/13 A3003 RMK TRACE SC SCT300 BECMG=
200803091400 METAR MROC 091400Z 11012KT CAVOK 23/13 A3004 RMK TRACE SC SCT300 BECMG=
200803091500 METAR MROC NIL=
200803091600 METAR MROC NIL=
200803091700 METAR MROC NIL=
200803091800 METAR MROC NIL=
200803091900 METAR MROC 091900Z 07014KT 9999 FEW040 29/11 A3000 BECMG=
200803092000 METAR MROC 092000Z 06014KT 9999 FEW045 29/11 A2997 RMK FEW300 BECMG=
200803092100 METAR MROC 092100Z 06013KT 9999 FEW030 SCT250 29/11 A2995 BECMG=
200803092200 METAR MROC NIL=
200803092300 METAR MROC 092300Z 10010KT 9999 FEW025 SCT250 25/12 A2997 BECMG=
200803100000 METAR MROC 100000Z 10008KT 9999 SCT025 SCT250 23/13 A2999 BECMG=
200803100100 METAR MROC 100100Z 09008KT 9999 SCT030 SCT250 21/14 A3001=
200803100200 METAR MROC 100200Z 07004KT 9999 FEW035 21/15 A3005 BECMG=
200803100300 METAR MROC 100300Z 10009KT 9999 FEW035 20/15 A3007 BECMG=
200803100400 METAR MROC 100400Z 050008KT CAVOK 20/12 A3008 BECMG=
200803100500 METAR MROC 100500Z 07008KT CAVOK 20/12 A3009 BECMG=
200803100600 METAR MROC 100600Z 07005KT CAVOK 19/13 A3008 BECMG=
200803100700 METAR MROC 100700Z 07006KT CAVOK 19/13 A3006 BECMG=
200803100800 METAR MROC 100800Z 10011KT CAVOK 19/13 A3003 BECMG=
200803100900 METAR MROC 100900Z 09009KT CAVOK 19/13 A3003 BECMG=
200803101000 METAR MROC 101000Z 10013KT CAVOK 19/12 A3003 BECMG=
200803101100 METAR MROC 101100Z 10014KT CAVOK 19/12 A3003 TRACE CI SCT BECMG=
200803101200 METAR MROC 101200Z 10014KT CAVOK 19/12 A3003 TRACE SCT CI BECMG=
200803101300 METAR MROC 101300Z 10015KT CAVOK 21/11 A3005 RMK TRACE SC BKN250 RFGS 21KT BECMG=
200803101400 METAR MROC 101400Z 10016KT CAVOK 23/12 A3007 RMK TRACE SC BKN250 BECMG=
200803101500 METAR MROC 101500Z 11019KT CAVOK 25/12 A3008 RMK TRACE SC BKN250 BECMG=
200803101600 METAR MROC 101600Z 10017KT 9999 FEW035 BKN250 26/11 A3008 BECMG=
200803101700 METAR MROC 101700Z 10016KT 9999 FEW035 SCT250 27/11 A3007 BECMG=
200803101800 METAR MROC 101800Z 09014KT 9999 FEW035 SCT250 27/11 A3006 BECMG=
200803101900 METAR MROC 101900Z 08017KT 9999 SCT035 SCT250 28/12 A3002 BECMG=
200803102000 METAR MROC 102000Z 06019KT 9999 SCT035 SCT250 27/12 A3000 BECMG=
200803102100 METAR MROC 102100Z 08015KT 9999 SCT035 SCT250 27/12 A2998 BECMG=
200803102200 METAR MROC 102200Z 07014KT 9999 FEW035 SCT300 26/11 A2997 RMK BECMG=
200803102300 METAR MROC 102300Z 07008KT 9999 FEW035 SCT300 25/11 A2998 RMK BECMG=
200803110000 METAR MROC 110000Z 08010KT 9999 FEW040 SCT300 22/10 A2999 BECMG=
200803110100 METAR MROC 110100Z 09013KT CAVOK 21/13 A3000 RMK TRACE SC FEW300 BECMG=
200803110200 METAR MROC 110200Z 10009KT CAVOK 20/12 A3003 RMK TRAZAS SC/CI BECMG=
200803110300 METAR MROC 110300Z 10013KT CAVOK 20/13 A3005 RMK TRACE SC CI VEL MX VTO 19KT BECMG=
200803110400 METAR MROC 110400Z 09012KT CAVOK 19/12 A3006 RMK TRACE SC VEL MX VTO 19KT BECMG=
200803110500 METAR MROC 110500Z 11013KT CAVOK 19/11 A3005 RMK TRACE SC BECMG=
200803110600 METAR MROC 110600Z 04007KT CAVOK 18/10 A3005 RMK TRACE SC BECMG=
200803110700 METAR MROC 110700Z 09010KT CAVOK 19/10 A3001 RMK TRACE SC VEL MX VTO 19KT BECMG=
200803110800 METAR MROC 110800Z 10011KT CAVOK 19/11 A2999 RMK TRACE SC=
200803110900 METAR MROC 110900Z 09009KT CAVOK 18/11 A2999 RMK TRACE SC=
200803111000 METAR MROC 111000Z 09010KT CAVOK 18/11 A2998 RMK TRACE SC VEL MX VTO 17KT=
200803111100 METAR MROC 111100Z 10010KT CAVOK 18/11 A2999 RMK TRACE SC=
200803111200 METAR MROC 111200Z 09011KT CAVOK 18/11 A3000 RMK TRACE SC CI=
200803111300 METAR MROC 111300Z 11017KT CAVOK 20/12 A3002 RMK TRACE SC CI RAFAGAS 22KT BECMG=
200803111400 METAR MROC 111400Z 10012KT CAVOK 22/12 A3003 RMK TRACE SC BECMG=
200803111500 METAR MROC 111500Z 10014KT 9999 FEW040 24/10 A3006 RMK RAFAGAS 18KT BECMG=
200803111600 METAR MROC 111600Z 09014KT 9999 FEW040 26/07 A3005 RMK RAFAGAS 18KT=
200803111700 METAR MROC 111700Z 08014KT 9999 FEW040 26/08 A3003 RMK RAFAGAS 17KT BECMG=
200803111800 METAR MROC 111800Z 10013KT 9999 FEW040 27/09 A3000 RMK RAFAGAS 17KT BECMG=
200803111900 METAR MROC NIL=
200803112000 METAR MROC NIL=
200803112100 METAR MROC 112100Z 09012KT 9999 FEW040 27/10 A2990 RMK GUST 21KT BECMG=
200803112200 METAR MROC 112200Z 08011KT 9999 FEW040 27/10 A2990 BECMG=
200803112300 METAR MROC 112300Z 08010KT 9999 FEW040 26/11 A2991 BECMG=
200803120000 METAR MROC 120000Z 10011KT 9999 FEW035 22/13 A2992 RMK HZ LGT ARND BECMG=
200803120100 METAR MROC 120100Z 10015KT 9999 FEW035 20/14 A2995 RMK GUST 23KT BECMG=
200803120200 METAR MROC 120200Z 08011KT 9999 FEW030 20/13 A2997 RMK DZ DST E BECMG=
200803120300 METAR MROC 120300Z 11007KT 9999 FEW035 19/13 A3000 BECMG=
200803120400 METAR MROC 120400Z 09010KT 9999 FEW035 19/13 A3001 BECMG=
200803120500 METAR MROC 120500Z 09014KT 9999 FEW035 19/13 A3001 BECMG=
200803120600 METAR MROC 120600Z 10011KT 9999 FEW035 19/13 A3001 BECMG=
200803120700 METAR MROC 120700Z 10012KT 9999 FEW035 19/13 A2999 BECMG=
200803120800 METAR MROC 120800Z 10014KT 9999 FEW035 19/12 A2996 BECMG=
200803120900 METAR MROC 120900Z 10012KT 9999 FEW040 19/12 A2995 BECMG=
200803121000 METAR MROC 121000Z 11013KT 9999 FEW040 19/13 A2996 BECMG=
200803121100 METAR MROC 121100Z 09008KT 9999 FEW035 SCT130 19/14 A2999 BECMG=
200803121200 METAR MROC 121200Z 10011KT 9999 FEW030 BKN100 19/14 A3001 BECMG=
200803121300 METAR MROC 121300Z 10011KT CAVOK 20/13 A3002 RMK FEW080 SCT100 DZ DST E BECMG=
200803121400 METAR MROC 121400Z 11013KT CAVOK 20/14 A3004 RMK BKN100 DZ DST E BECMG=
200803121500 METAR MROC 121500Z 10012KT 9999 FEW030 BKN110 22/14 A3004 RMK DZ DST E BECMG=
200803121600 METAR MROC 121600Z 10014KT 9999 FEW035 25/12 A3004 RMK FEW120 GUST 20KT DZ DST E BECMG=
200803121700 METAR MROC 121700Z 10014KT 9999 FEW040 26/13 A3003 RMK GUST 20KT DZ DST E BECMG=
200803121800 METAR MROC 121800Z 10012KT 9999 FEW040 26/13 A3000 RMK GUST21KT DZ DST E BECMG=
200803121900 METAR MROC 121900Z 09014KT 9999 FEW040 26/13 A2997 RMK GUST 21KT DZ DST E BECMG=
200803122000 METAR MROC 122000Z 09015KT 9999 FEW040 27/13 A2994 RMK TCU DST S DZ DST E BECMG=
200803122100 METAR MROC 122100Z 09012KT 9999 FEW030 SCT045 25/13 A2992 TCU DIST S VEL MAX 17KTS BECMG 24008KT=
200803122200 METAR MROC 122200Z 09010KT 9999 FEW030 BKN090 23/14 A2994 RMK RN DIST S DZ NE DIST VEL MAX VTO 16KTS BECMG=
200803122300 METAR MROC 122300Z 10011KT 9999 FEW035 BKN080 22/14 A2995 DZ DIST NE VEL MAX VTO 17KTS BECMG=
200803130000 METAR MROC 130000Z 09011KT 9999 FEW030 SCT090 21/13 A2998 VEL MAX VT0 20KTS DZ NE DIST BECMG=
200803130100 METAR MROC 130100Z 10013KT 9999 FEW030 20/13 A2999 TRACE AC VEL MAX VTO 24KTS BECMG=
200803130200 METAR MROC 130200Z 09011KT 9999 FEW030 20/12 A3002 VEL MAX VTO 16KTS BECMG=
200803130300 METAR MROC 130300Z 09011KT 9999 FEW030 20/12 A3003 RMK BECMG=
200803130400 METAR MROC 130400Z 10013KT 9999 FEW030 19/12 A3004 RMK RAFAGAS 17KT BECMG=
200803130500 METAR MROC 130500Z 10011KT CAVOK 19/13 A3006 RMK TRACE SC RAFAGAS 15KT=
200803130600 METAR MROC 130600Z 09012KT CAVOK 19/13 A3004 RMK TRACE SC RAFAGAS 16KT BECMG=
200803130700 METAR MROC 130700Z 10011KT CAVOK 19/12 A3002 RMK TRACE SC RAFAGAS 14KT BECMG=
200803130800 METAR MROC 130800Z 10010KT CAVOK 20/11 A3000 RMKTRACE SCT=
200803130900 METAR MROC 130900Z 09008KT CAVOK 18/19 A2999 RMK TRACE SC=
200803131000 METAR MROC 131000Z 05010KT CAVOK 17/10 A2999 RMK TRACE SC=
200803131100 METAR MROC 131100Z 06008KT CAVOK 19/09 A2999 RMK TRACE SC=
200803131200 METAR MROC 131200Z 04009KT CAVOK 18/09 A3002 RMK TRACE SC FEW120=
200803131300 METAR MROC 131300Z 04007KT CAVOK 21/10 A3004 RMK TRACE SC CB DIST SW FEW100 BECMG=
200803131400 METAR MROC 131400Z 10009KT CAVOK 24/11 A3005 RMK CB DIST SW TRACE SC FEW120 VEL MAX VTO 15KTS BECMG=
200803131500 METAR MROC 131500Z 10013KT CAVOK 25/11 A3006 TRACE SCT FEW120 BECMG=
200803131600 METAR MROC 131600Z 09009KT 9999 FEW040 27/12 A3005 TRACE CI BECMG=
200803131700 METAR MROC 131700Z 10007KT 9999 FEW040 SCT250 28/12 A3004 BECMG=
200803131800 METAR MROC 131800Z 27005KT 9999 SCT040 BKN250 27/13 A3001 BECMG=
200803131900 METAR MROC NIL=
200803132000 METAR MROC 132000Z 19010KT 9999 SCT030 BKN130 22/17 A2998 RMK RN DIST S SW BECMG=
200803132100 METAR MROC 132100Z 20005KT 9999 FEW030 BKN070 23/17 A2997 RMK PCPN DST NE ENE BECMG 7000 VCSH=
200803132200 METAR MROC 132200Z 19004KT 9999 FEW030 BKN100 23/17 A2997 BECMG=
200803132300 METAR MROC 132300Z 21004KT 9999 SCT030 BKN100 22/18 A2999 BECMG=
200803140000 METAR MROC 140000Z 23003KT 9999 SCT030 BKN120 21/18 A3001 RMK PCPN DST N NE BECMG=
200803140100 METAR MROC 140100Z 00000KT 9999 SCT030 BKN120 22/17 A3002 RMK BECMG CAVOK=
200803140200 METAR MROC 140200Z 14002KT 9999 FEW030 SCT120 21/17 A3004 RMK BECMG 9999 NSC=
200803140300 METAR MROC 140300Z 12003KT 9999 FEW030 21/16 A3006 RMK BECMG 9999 NSC=
200803140400 METAR MROC 140400Z 10007KT 9999 BKN030 21/16 A3008 RMK FEW110 BECMG=
200803140500 METAR MROC 140500Z 14002KT 9999 SCT030 SCT110 20/16 A3007 BECMG=
200803140600 METAR MROC 140600Z 09002KT 9999 FEW030 SCT110 19/15 A3005 BECMG=
200803140700 METAR MROC 140700Z 06005KT CAVOK 19/15 A3003 RMK SCT120 SCT250 BECMG=
200803140800 METAR MROC 140800Z 06005KT CAVOK 18/15 A3002 RMK BKN250=
200803140900 METAR MROC 140900Z 05007KT CAVOK 18/14 A3001 RMK SCT250=
200803141000 METAR MROC 141000Z 08004KT CAVOK 17/14 A3001 RMK SCT250=
200803141100 METAR MROC 141100Z 06007KT 9999 FEW030 SCT080 18/14 A3001=
200803141200 METAR MROC 141200Z 07004KT CAVOK 20/14 A3003 RMK BKN090=
200803141300 METAR MROC 141300Z 07006KT CAVOK 21/15 A3009 RMK TRACE SC BKN090 BECMG=
200803141400 METAR MROC 141400Z 00000KT CAVOK 23/15 A3010 RMK TRACE SC SCT120 BECMG=
200803141500 METAR MROC 141500Z 21004KT 9999 FEW035 25/16 A3010 RMK TRACE AC BECMG=
200803141600 METAR MROC NIL=
200803141700 METAR MROC 141700Z 24010KT 9999 FEW040 28/15 A3006 RMK LGT HZ ARND BECMG=
200803141800 METAR MROC 141800Z 22009KT 9999 FEW025TCU SCT040 29/16 A3001 BECMG=
200803141900 METAR MROC 141900Z 25012KT 9999 FEW025TCU SCT040 28/17 A3000 LGT HZ ARND BECMG=
200803142000 METAR MROC 142000Z 23012KT 9999 -RA VCSH FEW015CB BKN035 24/20 A2999 RMK VIS SW WSW 3KMS BECMG 2000 SHRA=
200803142100 METAR MROC 142100Z 20004KT 9999 DZ FEW015CB BKN035 22/20 A2998 RMK BECMG 6000 VCSH=
200803142200 METAR MROC 142200Z 00000KT 9999 SCT020 BKN100 22/20 A2998 RMK RN DST E BECMG 6000 VCSH=
200803142300 METAR MROC 142300Z 00000KT 9999 SCT020 BKN100 21/19 A3000 RMK RN DST E BECMG=
200803150000 METAR MROC 150000Z 00000KT 9999 -RA SCT020 BKN100 21/19 A3001 RMK BECMG 5000 -RA=
200803150100 METAR MROC 150100Z 00000KT 9999 SCT025 BKN100 20/18 A3002 BECMG=
200803150200 METAR MROC 150200Z 00000KT CAVOK 20/18 A3004 RMK BECMG CAVOK SCT120=
200803150300 METAR MROC 150300Z 00000KT CAVOK 20/18 A3006 TRACE SCT SCT120 BECMG=
200803150400 METAR MROC 150400Z 00000KT 9999 FEW040 SCT150 19/18 A3007 BECMG=
200803150500 METAR MROC 150500Z 00000KT 9999 SCT035 19/17 A3007 BECMG=
200803150600 METAR MROC 150600Z 00000KT 9999 FEW020 SCT040 19/17 A3005 BECMG=
200803150700 METAR MROC 150700Z 00000KT 9999 SCT015 BKN150 18/16 A3004 BECMG=
200803150800 METAR MROC NIL=
200803150900 METAR MROC 150900Z 08006KT 9999 FEW015 18/16 A3001 BECMG=
200803151000 METAR MROC 151000Z 07006KT CAVOK 17/15 A3001 TRACE SC BECMG=
200803151100 METAR MROC 151100Z 04003KT CAVOK 17/15 A3003 TRACE SCT CI BECMG=
200803151200 METAR MROC 151200Z 07007KT 9999 FEW045 17/15 A3004 RMK CB DIST SW HZ W TRACE AC CI BECMG=
200803151300 METAR MROC 151300Z 07006KT CAVOK 20/16 A3005 RMK FEW100 BECMG=
200803151400 METAR MROC 151400Z 11006KT CAVOK 23/16 A3006 RMK FEW100 BECMG=
200803151500 METAR MROC 151500Z 15007KT CAVOK 27/13 A3007 RMK TRACE SC BECMG 24005KT=
200803151600 METAR MROC 151600Z 10005KT CAVOK 28/14 A3006 RMK TRACE SC BECMG=
200803151700 METAR MROC 151700Z 22007KT 9999 FEW035 29/15 A3003 BECMG=
200803151800 METAR MROC 151800Z 26008KT 9999 FEW030 30/17 A3000 BECMG=
200803151900 METAR MROC 151900Z 22012KT 9999 FEW015 SCT030 29/18 A2997 RMK RN N NW DST BECMG=
200803152000 METAR MROC 152000Z 22010KT 9999 FEW010CB SCT025 BKN100 27/19 A2995 RMK VIS NE 7000 VCSH BECMG 6000 -SHRA=
200803152100 METAR MROC 152100Z 27007KT 5000 -RA FEW015 SCT025 BKN100 20/19 A2998 RMK VIS E UNL BECMG 8000=
200803152200 METAR MROC 152200Z 00000KT 9999 SCT025 BKN100 20/19 A2998 RMK RN DST W BECMG=
200803152300 METAR MROC 152300Z 00000KT 9999 FEW030 SCT090 BKN250 21/20 A2998 BECMG=
200803160000 METAR MROC 160000Z 00000KT 9999 FEW030 SCT090 BKN250 21/19 A2999 RMK HZ ARND BECMG=
200803160100 METAR MROC 160100Z 00000KT 9999 FEW030 BKN120 21/20 A3000 BECMG=
200803160200 METAR MROC 160200Z 34003KT 9999 FEW030 BKN120 21/20 A3002 BECMG=
200803160300 METAR MROC 160300Z 10003KT 9999 FEW030 BKN250 20/19 A3003 BECMG=
200803160400 METAR MROC 160400Z 09004KT 9999 FEW040 SCT100 20/12 A3003 BECMG=
200803160500 METAR MROC 160500Z 07005KT CAVOK 20/14 A3002 RMK TRACE SC SCT120 BECMG=
200803160600 METAR MROC 160600Z 06006KT CAVOK 20/13 A3000 RMK TRACE SC SCT120 BECMG=
200803160700 METAR MROC 160700Z 08011KT CAVOK 21/11 A2997 RMK TRACE SC SCT120 BECMG=
200803160800 METAR MROC 160800Z 07009KT CAVOK 19/12 A2996 RMK TRACE SC SCT120=
200803160900 METAR MROC 160900Z 07007KT CAVOK 19/12 A2995 RMK TRACE SC AC SCT250=
200803161000 METAR MROC 161000Z 07006KT CAVOK 18/13 A2997 RMK TRACE SC SCT250=
200803161100 METAR MROC 161100Z 09004KT CAVOK 19/12 A2998 TRACE SCT FEW280=
200803161200 METAR MROC 161200Z 08007KT CAVOK 18/13 A3000 RMK TRACE AC BKN250=
200803161300 METAR MROC 161300Z 08005KT CAVOK 21/13 A3002 RMK SCT270 BECMG=
200803161400 METAR MROC 161400Z 10012KT CAVOK 24/12 A3004 RMK TRACE CU SCT270=
200803161500 METAR MROC 161500Z 10009KT CAVOK 25/13 A3004 RMK TRACE CU SCT270 BECMG=
200803161600 METAR MROC 161600Z 11009KT CAVOK 27/14 A3004 RMK TRACE CU SCT270 BECMG=
200803161700 METAR MROC 161700Z 11009KT 9999 FEW045 28/14 A3003 TRACE CI BECMG=
200803161800 METAR MROC 161800Z 11008KT 9999 FEW045 29/15 A3001 RMK TRACE CI BECMG=
200803161900 METAR MROC 161900Z 10010KT 9999 FEW045 29/15 A2998 RMK TRACE CI BECMG=
200803162000 METAR MROC 162000Z 09009KT 9999 FEW045 29/15 A2996 RMK TRACE CI BECMG=
200803162100 METAR MROC 162100Z 09011KT 9999 FEW030TCU FEW045 28/15 A2995 RMK TCU S/SW/W BECMG=
200803162200 METAR MROC 162200Z 09007KT 9999 FEW025TCU SCT040 27/15 A2995 RMK TCU DST S BECMG=
200803162300 METAR MROC 162300Z 12007KT 9999 FEW040 SCT120 26/17 A2996 BECMG=
200803170000 METAR MROC 170000Z 10008KT 9999 FEW035 23/16 A2998 RMK HZ LGT ARND BECMG=
200803170100 METAR MROC 170100Z 10010KT 9999 FEW035 22/16 A3000 BECMG=
200803170200 METAR MROC 170200Z 10008KT 9999 FEW035 21/15 A3002 BECMG=
200803170300 METAR MROC 170300Z 09004KT 9999 FEW035 21/14 A3004 BECMG=
200803170400 METAR MROC 170400Z 11005KT 9999 FEW035 21/14 A3005 BECMG=
200803170500 METAR MROC 170500Z 11007KT 9999 FEW035 21/15 A3005 BECMG=
200803170600 METAR MROC 170600Z 08009KT 9999 FEW040 21/15 A3004 BECMG=
200803170700 METAR MROC 170700Z 08010KT 9999 FEW040 21/14 A3001 BECMG=
200803170800 METAR MROC 170800Z 08006KT 9999 FEW040 21/15 A3000 BECMG=
200803170900 METAR MROC 170900Z 11014KT 9999 FEW040 20/15 A2998 BECMG=
200803171000 METAR MROC 171000Z 09008KT 9999 FEW040 20/15 A2998 BECMG=
200803171100 METAR MROC 171100Z 11010KT 9999 FEW040 20/15 A3000 BECMG=
200803171200 METAR MROC 171200Z 11011KT CAVOK 20/15 A3001 RMK TRACE SC SCT250=
200803171300 METAR MROC 171300Z 10007KT CAVOK 22/15 A3003 RMK TCU DST S BECMG=
200803171400 METAR MROC 171400Z 09012KT CAVOK 24/15 A3004 RMK HZ LGT SW BECMG=
200803171500 METAR MROC 171500Z 08015KT 9999 FEW040 25/16 A3006 RMK GUST 21KT BECMG=
200803171600 METAR MROC 171600Z 07015G25KT 9999 FEW045 26/16 A3006 BECMG=
200803171700 METAR MROC 171700Z 07014G24KT 9999 FEW045 27/17 A3004 RMK DZ DST N/NE/E BECMG=
200803171800 METAR MROC 171800Z 08010G20KT 9999 FEW040 27/17 A3001 RMK DZ DST NE/E BECMG=
200803171900 METAR MROC 171900Z 07013KT 9999 SCT040 29/15 A2999 RMK DZ DST E TCU DST NE/S BECMG=
200803172000 METAR MROC 172000Z 07014KT 9999 FEW040 29/15 A2996 RMK TCU DST S/NE BECMG=
200803172100 METAR MROC 172100Z 08013KT 9999 FEW040 29/16 A2994 CB DIST SW DZ NE BECMG=
200803172200 METAR MROC 172200Z 07017KT 9999 SCT040 27/14 A2994 DZ NE CB DIST W BECMG=
200803172300 METAR MROC 172300Z 07010G20KT 9999 SCT040 26/15 A2995 TRACE AC CI BECMG=
200803172356 METAR MROC 180000Z 07014G24KT 9999 FEW030 SCT250 24/15 A2998 TRACE AC RN DIST N CB DIST S BECMG=
200803180000 METAR MROC 180000Z 07014G24KT 9999 FEW030 SCT250 24/15 A2998 TRACE AC RN DIST N CB DIST S BECMG=
200803180100 METAR MROC 180100Z 09012KT CAVOK 23/15 A3000 SCT120 TRACE SCT BECMG=
200803180200 METAR MROC 180200Z 08013KT CAVOK 23/15 A3001 TRACE SCT FEW140 BECMG=
200803180300 METAR MROC 180300Z 09011KT CAVOK 22/15 A3003 RMK TRACE SC SCT140 BECMG=
200803180400 METAR MROC 180400Z 09013KT CAVOK 22/16 A3004 RMK TRACE SC BKN130 BECMG=
200803180500 METAR MROC 180500Z 08010KT CAVOK 22/15 A3004 RMK TRACE SC SCT130 BECMG=
200803180600 METAR MROC NIL=
200803180700 METAR MROC 180700Z 08006KT CAVOK 20/15 A3001 RMK TRACE SC FEW120=
200803180800 METAR MROC NIL=
200803180900 METAR MROC 180900Z 11007KT CAVOK 22/15 A2997 TMK TRACE SCT FEW120=
200803181000 METAR MROC 181000Z 10009KT CAVOK 20/14 A2997 RMK TRACE SC FEW120=
200803181100 METAR MROC 181100Z 09009KT CAVOK 21/17 A2997 RMK TRACE SC FEW120=
200803181200 METAR MROC 181200Z 10010KT CAVOK 21/14 A2999 RMK TRACE SC FEW120=
200803181300 METAR MROC 181300Z 10012KT CAVOK 23/14 A3000 TRACE SCT AC SCT250 BECMG=
200803181400 METAR MROC 181400Z 10010KT CAVOK 25/14 A3002 TRACE SC AC CI VEL MAX VIENTO 16KTS BECMG=
200803181500 METAR MROC 181500Z 08014KT 9999 FEW040 25/14 A3003 TRACE CI VEL MAX VIENTO 18KTS BECMG=
200803181600 METAR MROC NIL=
200803181700 METAR MROC NIL=
200803181800 METAR MROC 181800Z 07016KT 9999 FEW045 BKN280 27/14 A2999 VEL MAX VIENTO 22 KTS BECMG=
200803181900 METAR MROC 181900Z 10010KT 9999 SCT035TCU SCT25029/12 A2996 BECMG=
200803182000 METAR MROC 182000Z 08012KT 9999 FEW030 SCT140 28/14 A2994 TRACE CI BECMG=
200803182100 METAR MROC 182100Z 10008KT 9999 FEW025 BKN110 27/14 A2992 VEL MX VTO 14KT PCPN DST NE TCU W SW BECMG=
200803182200 METAR MROC 182200Z 07011KT 9999 SCT040 BKN070 25/15 A2993 RMK TCU DST S SW LGT HZ ARND BECMG=
200803182300 METAR MROC 182300Z 09006KT 9999 SCT045 BKN070 24/16 A2995 BECMG=
200803190000 METAR MROC 190000Z 10010KT CAVOK 23/15 A2996 RMK TRACE SC BKN110 SCT250 BECMG=
200803190100 METAR MROC NIL=
200803190200 METAR MROC NIL=
200803190400 METAR MROC NIL=
200803190500 METAR MROC 190500Z 08005KT CAVOK 20/15 A3001 RMK BKN250 BECMG=
200803190600 METAR MROC 190600Z 07005KT CAVOK 20/14 A2999 RMK BKN250 BECMG=
200803190700 METAR MROC 190700Z 07007KT CAVOK 19/14 A2997 RMK FEW120 BKN250 BECMG=
200803190800 METAR MROC 190800Z 07007KT CAVOK 18/14 A2995 RMK FEW120 BKN250=
200803190900 METAR MROC 190900Z 07007KT CAVOK 19/14 A2995 RMK FEW120 BKN250=
200803191000 METAR MROC 191000Z 06005KT CAVOK 17/13 A2996 RMK FEW120 BKN250=
200803191100 METAR MROC 191100Z 07007KT CAVOK 18/13 A2997 RMK BKN250=
200803191200 METAR MROC 191200Z 06007KT CAVOK 18/12 A2999 RMK FEW110 BKN250=
200803191300 METAR MROC 191300Z 06010KT CAVOK 21/12 A3001 RMK BKN250 BECMG=
200803191400 METAR MROC 191400Z 08005KT CAVOK 23/12 A3002 RMK TRACE CU BKN250 BECMG 24006KT=
200803191500 METAR MROC 191500Z 12010KT CAVOK 26/12 A3003 RMK TRACE CU BKN250 HUMO EN CDTE OESTE BECMG=
200803191600 METAR MROC 191600Z 11010KT CAVOK 28/12 A3003 RMK TRACE CU BKN250 LGT HZ ARND BECMG 24006KT=
200803191700 METAR MROC 191700Z 11008KT CAVOK 29/12 A3002 RMK TRACE CU BKN250 LGT HZ ARND BECMG=
200803191800 METAR MROC 191800Z 12007KT 9999 FEW040 BKN250 30/10 A3000 RMK LGT HZ ARND BECMG 24006KT=
200803191900 METAR MROC 191900Z 21008KT 9999 FEW040 BKN250 30/15 A2997 RMK TCU DST SSW BECMG=
200803192000 METAR MROC 192000Z 23013KT 9999 FEW040 BKN250 29/18 A2995 LGT HZ ARND BECMG=
200803192100 METAR MROC 192100Z 20010KT 9999 SCT025 BKN250 26/19 A2995 RMK RN DST NW HZ ARND BECMG 7000 VCSH=
200803192200 METAR MROC 192200Z 18005KT 9999 FEW020 SCT110 BKN270 25/19 A2994 RMK RN DST N NW BECMG=
200803192300 METAR MROC 192300Z 21006KT 9999 4000NE VCSH SCT010TCU SCT100 BKN250 25/19 A2994 BECMG=
200803200000 METAR MROC 200000Z 00000KT 9999 SCT015 BKN100 23/20 A2997 RMK RN DST NW BECMG=
200803200100 METAR MROC 200100Z 00000KT 9999 FEW035 SCT270 22/19 A2999 RMK BECMG CAVOK=
200803200200 METAR MROC 200200Z 00000KT 9999 FEW035 SCT250 21/19 A3000 BECMG=
200803200300 METAR MROC 200300Z 00000KT CAVOK 22/18 A3001 SCT250 BECMG=
200803200400 METAR MROC 200400Z 08004KT 9999 FEW045 21/18 A3002 BECMG=
200803200500 METAR MROC 200500Z 07007KT 9999 FEW040 21/17 A3002 BECMG=
200803200600 METAR MROC 200600Z 08007KT CAVOK 21/17 A3000 TRACE SCT BECMG=
200803200700 METAR MROC 200700Z 06006KT CAVOK 20/17 A2998 TRACE SCT BECMG=
200803200800 METAR MROC 200800Z 07008KT CAVOK 20/16 A2995 TRACE SCT BECMG=
200803200900 METAR MROC 200900Z 06007KT CAVOK 20/15 A2996 TRACE SCT BECMG=
200803201000 METAR MROC 201000Z 07006KT CAVOK 20/17 A2997 TRACE SC BECMG=
200803201100 METAR MROC 201100Z 06008KT 9999 FEW030 SCT070 21/16 A2999 BECMG=
200803201200 METAR MROC 201200Z 07006KT 9999 FEW030 BKN080 20/16 A3000 RMK RN DIST NE E XB DIST SW BECMG=
200803201300 METAR MROC 201300Z 10005KT 9999 SCT030 BKN250 21/16 A3003 RMK RN DST NE BECMG=
200803201400 METAR MROC 201400Z 09006KT 9999 SCT025 SCT100 BKN250 22/17 A3004 RMK RN DST NE E BECMG 8000 -RA=
200803201500 METAR MROC 201500Z 12008KT 9999 BKN030 BKN250 23/18 A3006 RMK RN N BECMG=
200803201600 METAR MROC 201600Z 06007KT 9999 BKN030 BKN250 24/18 A3007 RMK RN E BECMG=
200803201700 METAR MROC 201700Z 10013KT 9999 SCT025 SCT120 26/17 A3003 RMK RN N NE BECMG=
200803201800 METAR MROC 201800Z 10009KT 9999 SCT025 SCT250 27/17 A2999 RMK RN N E FEW120 BECMG=
200803201900 METAR MROC 201900Z 13017KT 9999 FEW015 SCT025 SCT250 27/17 A2998 RMK RN N NE BECMG=
200803202000 METAR MROC 202000Z 11015KT 9999 SCT025 SCT250 26/17 A2996 RMK RN N NE BECMG=
200803202100 METAR MROC 202100Z 09009KT 9999 SCT025 SCT250 28/17 A2993 RMK BECMG=
200803202200 METAR MROC 202200Z 11014KT 9999 SCT025 BKN250 25/16 A2994 RMK RN N NE BECMG=
200803202300 METAR MROC 202300Z 09012KT 9999 SCT025 SCT250 25/15 A2994 RMK RN NE BECMG=
200803210000 METAR MROC 210000Z 13011KT 9999 FEW030 SCT250 22/16 A2998 RMK RN NE BECMG=
200803210100 METAR MROC 210100Z 10008KT CAVOK 22/15 A2999 RMK TRACE SC SCT250 BECMG=
200803210200 METAR MROC 210200Z 10012KT CAVOK 21/16 A3000 BECMG=
200803210300 METAR MROC 210300Z 10014KT CAVOK 21/16 A3003 RMK TRACE SC SCT250 BECMG=
200803210400 METAR MROC 210400Z 10013KT CAVOK 21/15 A3002 TRACE SCT SCT250 BECMG=
200803210500 METAR MROC 210500Z 10013KT CAVOK 21/15 A3001 RMK TRACE SC SCT250 BECMG=
200803210600 METAR MROC 210600Z 10012KT CAVOK 21/15 A3000 RMK TRACE SC SCT250 BECMG=
200803210700 METAR MROC 210700Z 12012KT CAVOK 20/15 A2997 RMK TRACE SC SCT250 BECMG=
200803210800 METAR MROC 210800Z 11013KT CAVOK 20/15 A2995 RMK TRACE SC SCT270=
200803210900 METAR MROC 210900Z 09012KT CAVOK 20/14 A2995 RMK TRACE SC SCT270=
200803211000 METAR MROC 211000Z 10011KT CAVOK 20/14 A2996 SCT270=
200803211100 METAR MROC 211100Z 09014KT CAVOK 20/15 A2997 RMK TRACE AC SCT270=
200803211200 METAR MROC 211200Z 09015KT CAVOK 20/14 A2998 RMK TRACE SC FEW060 SCT300=
200803211300 METAR MROC 211300Z 09014G24KT 9999 FEW040 22/15 A2999 RMK BECMG=
200803211400 METAR MROC 211400Z 09013G23KT 9999 FEW040 23/16 A3002 RMK RN NE BECMG=
200803211500 METAR MROC 211500Z 10013KT 9999 FEW040 24/16 A3004 RMK RN NE BECMG=
200803211600 METAR MROC 211600Z 08016G27KT 9999 FEW040 25/15 A3003 RMK RN NE BECMG=
200803211700 METAR MROC 211700Z 07017KT 9999 FEW035 26/14 A3002 RMK RN NE BECMG=
200803211800 METAR MROC 211800Z 09014KT 9999 SCT035 26/15 A2999 RMK RN NE BECMG=
200803211900 METAR MROC 211900Z 08018KT 9999 SCT035 27/16 A2996 RMK RN NE BECMG=
200803212000 METAR MROC 212000Z 10013G24KT 9999 BKN030 25/16 A2994 RMK RN N NE=
200803212100 METAR MROC 212100Z 10013KT 9999 BKN035 25/15 A2991 RMK FEW090 DZ DST=
200803212200 METAR MROC 212200Z 10015KT 9999 SCT040 25/14 A2990 RMK FEW090 DZ DST=
200803212300 METAR MROC 212300Z 10015KT 9999 FEW040 23/14 A2993 RMK FEW280 DZ DST=
200803220000 METAR MROC NIL=
200803220100 METAR MROC NIL=
200803220200 METAR MROC NIL=
200803220300 METAR MROC NIL=
200803220400 METAR MROC NIL=
200803220500 METAR MROC NIL=
200803220600 METAR MROC NIL=
200803220800 METAR MROC NIL=
200803220900 METAR MROC NIL=
200803221000 METAR MROC 221000Z 11019KT CAVOK 19/13 A2997 RMK TRACE SC BECMG=
200803221100 METAR MROC 221100Z 11016KT CAVOK 19/13 A2998 RMK TRACE SC BECMG=
200803221200 METAR MROC 221200Z 11012KT 9999 FEW035 SCT120 BKN250 19/13 A2999 BECMG=
200803221300 METAR MROC 221300Z 11010KT CAVOK 19/13 A3000 RMK FEW110 BKN280 BECMG=
200803221400 METAR MROC 221400Z 12016KT CAVOK 22/13 A3001 RMK BKN280 BECMG=
200803221500 METAR MROC 221500Z 11015KT CAVOK 24/12 A3002 RMK SCT280 BECMG=
200803221600 METAR MROC NIL=
200803221700 METAR MROC NIL=
200803221800 METAR MROC 221800Z 09011KT 9999 FEW045 28/14 A2997 RMK FEW280 BECMG=
200803221900 METAR MROC 221900Z 12012KT 9999 FEW045 29/14 A2995 RMK FEW280 BECMG=
200803222000 METAR MROC 222000Z 11010KT 9999 FEW045 SCT280 28/14 A2992 RMK CB DST S BECMG=
200803222100 METAR MROC 222100Z 11008KT 9999 FEW045 SCT280 26/15 A2990 CB DIST S BECMG=
200803222200 METAR MROC 222200Z 10008KT 9999 SCT040 SCT270 26/15 A2991 BECMG=
200803222300 METAR MROC 222300Z 10010KT 9999 FEW035 SCT120 BKN250 23/15 A2992 TCU S SW BECMG=
200803230000 METAR MROC 230000Z 11008KT 9999 SCT040 BKN090 23/15 A2994 RN DIST S BECMG=
200803230100 METAR MROC 230100Z 07006KT 9999 SCT040 BKN100 22/16 A2996 BECMG=
200803230200 METAR MROC 230200Z 09009KT 9999 FEW040 SCT120 22/15 A2998 BECMG=
200803230300 METAR MROC 230300Z 09005KT 9999 FEW040 SCT120 21/13 A3000 BECMG=
200803230400 METAR MROC 230400Z 08010KT CAVOK 20/14 A3002 RMK TRACE SC SCT120 BECMG=
200803230500 METAR MROC 230500Z 10011KT CAVOK 20/14 A3004 RMK TRACE SC SCT120 BECMG=
200803230600 METAR MROC 230600Z 10008KT CAVOK 20/14 A2999 RMK TRACE SC SCT120 BECMG=
200803230700 METAR MROC 230700Z 09010KT CAVOK 19/14 A2996 RMK TRACE SC SCT120=
200803230800 METAR MROC 230800Z 09006KT CAVOK 19/13 A2993 RMK TRACE SC SCT120=
200803230900 METAR MROC 230900Z 08008KT CAVOK 19/13 A2993 RMK TRACE SC SCT120=
200803231000 METAR MROC NIL=
200803231100 METAR MROC 231100Z 06008KT CAVOK 19/13 A2996 RMK TRACE SC SCT120=
200803231200 METAR MROC 231200Z 06009KT CAVOK 19/13 A2998 RMK TRACE CU CI FEW120=
200803231300 METAR MROC 231300Z 08006KT CAVOK 21/13 A3000 TRACE CU SCT250 BECMG=
200803231400 METAR MROC 231400Z 09010KT CAVOK 24/13 A3002 TRACE CU BKN250 VEL MAX VIENTO 14KTS BECMG=
200803231500 METAR MROC 231500Z 10010KT CAVOK 26/14 A3003 TRACE CU SCT250 VEL MAX VTO 15KTS BECMG=
200803231600 METAR MROC 231600Z 11008KT CAVOK 27/13 A3002 TRACE CU CI VEL MAX VTO 13KTS BECMG=
200803231700 METAR MROC 231700Z 120008KT 9999 FEW045 SCT270 28/13 A3000 BECMG=
200803231800 METAR MROC 231800Z 06004KT 9999 SCT040 30/12 A2998 TRACE CI BECMG 24006KT=
200803231900 METAR MROC 231900Z 22008KT 9999 SCT030TCU 28/15 A2995 TRACE CI BECMG=
200803232000 METAR MROC 232000Z 20008KT 9999 FEW030 BKN050 27/16 A2993 BECMG=
200803232100 METAR MROC 232100Z 19007KT 9999 FEW035 BKN050 27/17 A2992 RMK PCPN DST SE BECMG 7000 VCSH=
200803232200 METAR MROC 232200Z 18006KT 9999 -RA SCT035 BKN040 21/18 A2993 BECMG=
200803232300 METAR MROC 232300Z 12004KT 9999 FEW035 BKN060 22/17 A2993 RERA BECMG=
200803240000 METAR MROC 240000Z 09005KT 9999 FEW030 SCT120 BKN250 22/16 A2995 BECMG=
200803240100 METAR MROC 240100Z 10009KT CAVOK 21/16 A2998 RMK TRACE SC BKN060 BECMG=
200803240200 METAR MROC 240200Z 10008KT CAVOK 20/16 A3000 RMK FEW060 BKN250 BECMG=
200803240300 METAR MROC 240300Z 09006KT CAVOK 20/15 A3001 RMK FEW100 BKN250 BECMG=
200803240400 METAR MROC 240400Z 10008KT CAVOK 20/15 A3002 RMK BKN250 BECMG=
200803240500 METAR MROC 240500Z 09009KT CAVOK 20/15 A3002 RMK FEW100 BKN250 BECMG=
200803240600 METAR MROC 240600Z 11011KT CAVOK 20/14 A3001 RMK SCT110 SCT250 BECMG=
200803240700 METAR MROC 240700Z 06007KT CAVOK 20/15 A2998 RMK SCT110 SCT250 BECMG=
200803240800 METAR MROC 240800Z 05006KT CAVOK 20/14 A2997 RMK SCT110 SCT250=
200803240900 METAR MROC 240900Z 09008KT CAVOK 20/14 A2998 RMK SCT110 SCT250=
200803241000 METAR MROC 241000Z 06008KT CAVOK 19/14 A2999 RMK FEW110 SCT250=
200803241100 METAR MROC 241100Z 09011KT CAVOK 20/14 A3000 RMK SCT110 SCT250=
200803241200 METAR MROC 241200Z 06007KT CAVOK 19/14 A3002 RMK SCT120 SCT250=
200803241300 METAR MROC 241300Z 07008KT CAVOK 21/14 A3004 RMK TRACE SC BKN220 BECMG=
200803241400 METAR MROC 241400Z 09009KT CAVOK 23/15 A3006 RMK TRACE BKN220 BECMG=
200803241500 METAR MROC 241500Z 10012KT CAVOK 25/15 A3007 RMK TRACE SC BKN220 BECMG=
200803241600 METAR MROC NIL=
200803241700 METAR MROC NIL=
200803241800 METAR MROC NIL=
200803241900 METAR MROC NIL=
200803242300 METAR MROC 242300Z 12013KT 9999 SCT040 25/17 A2996=
200803250000 METAR MROC 250000Z 09007KT 9999 SCT035 23/17 A2999 BECMG=
200803250100 METAR MROC 250100Z 12003KT 9999 SCT035 23/16 A3002 BECMG=
200803250200 METAR MROC 250200Z 11011KT 9999 FEW035 22/16 A3004 BECMG=
200803250300 METAR MROC 250300Z 09008KT 9999 FEW035 21/15 A3006 BECMG=
200803250400 METAR MROC 250400Z 09010KT 9999 FEW035 21/14 A3007 VEL MAX VIENTO 14KTS BECMG=
200803250500 METAR MROC 250500Z 10015KT 9999 FEW030 20/15 A3008 BECMG=
200803250600 METAR MROC 250600Z 10010G22KT CAVOK 21/14 A3006 TRACE SCT BECMG=
200803250700 METAR MROC 250700Z 11012G22KT CAVOK 21/14 A3004 TRACE SCT BECMG=
200803250800 METAR MROC 250800Z 11014KT CAVOK 20/14 A3003 TRACE SCT BECMG=
200803250900 METAR MROC 250900Z 10012KT CAVOK 20/14 A3004 TRACE SCT VIENTO MAX 18KTS BECMG=
200803251000 METAR MROC 251000Z 10014G24KT CAVOK 20/14 A3004 TRACE SCT BECMG=
200803251100 METAR MROC 251100Z 10015G25KT CAVOK 20/14 A3005 TRACE SCT BECMG=
200803251200 METAR MROC 251200Z 10012G22KT CAVOK 20/14 A3006 TRACE SCT BECMG=
200803251300 METAR MROC 251300Z 10014KT 9999 FEW025 22/15 A3008 BECMG=
200803251400 METAR MROC 251400Z 12016G26KT 9999 FEW025 23/14 A3010 BECMG=
200803251500 METAR MROC 251500Z 08013G25KT 9999 FEW025 25/12 A3010 BECMG=
200803251600 METAR MROC 251600Z 09014G26KT 9999 FEW025 26/13 A3010 BECMG=
200803251700 METAR MROC 251700Z 10012G27KT 9999 FEW025 27/12 A3008 BECMG=
200803251800 METAR MROC 251800Z 09016KT 9999 FEW025 28/13 A3005 BECMG=
200803251900 METAR MROC 251900Z 11014G26KT 9999 FEW030 27/15 A3002 BECMG=
200803252000 METAR MROC 252000Z 10020KT 9999 FEW030 26/16 A3000 BECMG=
200803252100 METAR MROC 252100Z 08017G29KT 9999 FEW030 26/14 A2999 RMK BECMG=
200803252200 METAR MROC 252200Z 08014G25KT 9999 FEW030 26/14 A2999 RMK TRACE CI CB DST S BECMG=
200803252300 METAR MROC 252300Z 09012G24KT 9999 FEW035 SCT250 24/14 A3001 RMK BECMG=
200803260000 METAR MROC 260000Z 10010KT 9999 FEW035 SCT250 23/14 A3002 RMK BECMG=
200803260100 METAR MROC 260100Z 10014KT CAVOK 21/15 A3005 RMK TRACE SC FEW250 BECMG=
200803260200 METAR MROC 260200Z 10012KT CAVOK 21/15 A3005 BECMG=
200803260300 METAR MROC 260300Z 09010KT CAVOK 21/13 A3006 RMK TRACE SC CI VEL MX VTO 16KT BECMG=
200803260400 METAR MROC 260400Z 09015KT CAVOK 21/13 A3006 RMK TRACE SC CI VEL MX VTO 20KT BECMG=
200803260500 METAR MROC 260500Z 10014KT CAVOK 20/14 A3006 RMK TRACE SC CI BECMG=
200803260600 METAR MROC 260600Z 09017G27KT CAVOK 20/13 A3003 RMK TRACE SC BECMG=
200803260700 METAR MROC 260700Z 10015KT CAVOK 19/14 A3003 RMK TRACE SC VEL MX VTO 20KT BECMG=
200803260800 METAR MROC 260800Z 11014KT CAVOK 19/14 A3002 RMK TRACE SC=
200803260900 METAR MROC 260900Z 10013KT CAVOK 19/14 A3001 RMK TRACE SC VEL MX VTO 19KT=
200803261000 METAR MROC 261000Z 11012KT CAVOK 19/14 A3001 RMK TRACE SC VEL MX VTO 19KT=
200803261100 METAR MROC 261100Z 11015KT CAVOK 20/14 A3002 RMK TRACE SC=
200803261200 METAR MROC 261200Z 10014KT CAVOK 19/14 A3004 RMK TRACE SC CI=
200803261300 METAR MROC 261300Z 10011KT CAVOK 21/14 A3006 RMK TRACE CI SC BECMG=
200803261400 METAR MROC 261400Z 09008KT CAVOK 24/14 A3006 RMK TRACE SC CI BECMG=
200803261500 METAR MROC 261500Z 09014KT CAVOK 25/14 A3007 RMK TRACE SC CI BECMG=
200803261600 METAR MROC 261600Z 09012KT 9999 FEW040 26/15 A3007 RMK TRACE CI BECMG=
200803261700 METAR MROC 261700Z 08014KT 9999 FEW040 27/16 A3004 RMK BECMG=
200803261800 METAR MROC 261800Z 09017KT 9999 FEW040 28/15 A3002 RMK BECMG=
200803261900 METAR MROC 261900Z 11014KT 9999 SCT040 28/15 A2998 RMK RN NE BECMG=
200803262000 METAR MROC 262000Z 11014KT 9999 SCT040 28/16 A2997 RMK RN NE RAFAGAS 22KT BECMG=
200803262100 METAR MROC 262100Z 11012KT 9999 SCT035 27/16 A2995 RMK RAFAGAS 17KT BECMG=
200803262200 METAR MROC 262200Z 11012KT 9999 SCT035 26/16 A2995 BECMG=
200803262300 METAR MROC 262300Z 10014KT 9999 SCT035 24/16 A2996 RMK DZ DST NE/E BECMG=
200803270000 METAR MROC 270000Z 09018KT 9999 FEW035 23/16 A2997 RMK DZ DST NE/E BECMG=
200803270100 METAR MROC 270100Z 11013KT 9999 FEW035 21/16 A2999 RMK DZ DST NE/E BECMG=
200803270200 METAR MROC 270200Z 11014KT 9999 FEW035 21/16 A3000 RMK DZ DST NE/E BECMG=
200803270300 METAR MROC 270300Z 10011KT 9999 FEW035 21/15 A3002 BECMG=
200803270400 METAR MROC 270400Z 11012KT 9999 FEW035 21/15 A3002 BECMG=
200803270500 METAR MROC 270500Z 11008KT 9999 FEW035 21/15 A3001 BECMG=
200803270600 METAR MROC 270600Z 10011KT 9999 FEW035 21/12 A2999 BECMG=
200803270700 METAR MROC 270700Z 11013KT CAVOK 21/12 A2998 RMK TRACE SC BECMG=
200803270800 METAR MROC 270800Z 11008KT CAVOK 20/12 A2996 RMK TRACE SC BECMG=
200803270900 METAR MROC 270900Z 11010KT CAVOK 20/12 A2995 RMK TRACE SC BECMG=
200803271000 METAR MROC 271000Z 11015KT CAVOK 20/11 A2994 RMK TRACE SC BECMG=
200803271100 METAR MROC 271100Z 11012KT CAVOK 20/12 A2996 RMK TRACE SC BECMG=
200803271200 METAR MROC 271200Z 13012KT CAVOK 20/12 A2997 RMK TRACE SC SCT250 BECMG=
200803271300 METAR MROC 271300Z 10012KT CAVOK 22/13 A2998 RMK SCT280 BECMG=
200803271400 METAR MROC 271400Z 10010G20KT CAVOK 23/13 A2999 RMK SCT280 BECMG=
200803271500 METAR MROC 271500Z 11010G20KT CAVOK 26/13 A3000 RMK BKN280 BECMG=
200803271600 METAR MROC 271600Z 09012G22KT CAVOK 27/14 A2999 RMK SCT280 BECMG=
200803271700 METAR MROC 271700Z 08016KT 9999 FEW045 SCT280 27/15 A2999 BECMG=
200803271800 METAR MROC 271800Z 09012KT 9999 FEW045 29/15 A2997 RMK FEW280 BECMG=
200803271900 METAR MROC 271900Z 08011KT 9999 FEW045 30/15 A2994 RMK FEW280 TCU DST S BECMG=
200803272000 METAR MROC 272000Z 09012KT 9999 FEW045 29/15 A2991 RMK FEW280 TCU DST S BECMG=
200803272100 METAR MROC 272100Z 12010KT 9999 FEW040 BKN250 29/16 A2989 CB DIST S BECMG=
200803272200 METAR MROC 272200Z 10011KT 9999 SCT030 BKN250 28/17 A2989 CB DIST SW RMN DIST NE BECMG=
200803272300 METAR MROC 272300Z 09010KT 9999 FEW040 BKN250 25/16 A2990 TCU DIST SW RN DIST N BECMG=
200803272354 METAR MROC 280000Z 11012KT 9999 FEW030 SCT250 23/16 A2992 RN DIST NE BECMG=
200803280000 METAR MROC 280000Z 11012KT 9999 FEW030 SCT250 23/16 A2992 RN DIST NE BECMG=
200803280100 METAR MROC 280100Z 09007KT 9999 FEW035 SCT250 22/16 A2994 BECMG0=
200803280200 METAR MROC 280200Z 10006KT 9999 FEW035 22/16 A2996 BECMG=
200803280300 METAR MROC 280300Z 09008KT 9999 FEW035 SCT250 21/15 A2997 RMK BECMG=
200803280400 METAR MROC 280400Z 10008KT 9999 FEW035 SCT250 20/15 A2997 RMK BECMG=
200803280500 METAR MROC 280500Z 09009KT 9999 FEW035 SCT250 21/15 A2997 RMK BECMG=
200803280600 METAR MROC 280600Z 10007KT CAVOK 21/14 A2995 RMK TRACE SC SCT250 BECMG=
200803280700 METAR MROC 280700Z 08006KT CAVOK 21/14 A2994 RMK TRACE SC SCT250 BECMG=
200803280800 METAR MROC 280800Z 07005KT CAVOK 20/14 A2994 RMK TRACE SC SCT250=
200803280900 METAR MROC 280900Z 10005KT CAVOK 20/14 A2994 RMK TRACE SC SCT250=
200803281000 METAR MROC 281000Z 090065KT CAVOK 20/14 A2994 RMK TRACE SC SCT250=
200803281100 METAR MROC NIL=
200803281200 METAR MROC NIL=
200803281300 METAR MROC NIL=
200803281400 METAR MROC 281400Z 09012KT CAVOK 23/15 A3001 TRACE SCT SCT250 VIENTO MAX 16KTS BECMG=
200803281500 METAR MROC 281500Z 10012KT CAVOK 25/14 A3002 TRACE SCT FEW250 BECMG=
200803281600 METAR MROC NIL=
200803281700 METAR MROC NIL=
200803281800 METAR MROC NIL=
200803281900 METAR MROC NIL=
200803282000 METAR MROC NIL=
200803282100 METAR MROC NIL=
200803282200 METAR MROC NIL=
200803282300 METAR MROC NIL=
200803290000 METAR MROC NIL=
200803290100 METAR MROC NIL=
200803290200 METAR MROC NIL=
200803290300 METAR MROC NIL=
200803290400 METAR MROC 290400Z 00000KT 9999 BKN030 22/15 A3001 BECMG=
200803290500 METAR MROC 290500Z 00000KT 9999 BKN030 20/14 A3001 RMK FEW120 BECMG=
200803290600 METAR MROC 290600Z 08006KT 9999 FEW030 20/15 A3000 RMK FEW250 BECMG=
200803290700 METAR MROC 290700Z 07006KT CAVOK 19/14 A2998 RMK FEW250 BECMG=
200803290900 METAR MROC NIL=
200803291000 METAR MROC 291000Z 07010KT CAVOK 18/13 A2997=
200803291100 METAR MROC NIL=
200803291200 METAR MROC NIL=
200803291300 METAR MROC NIL=
200803291400 METAR MROC NIL=
200803291500 METAR MROC NIL=
200803291600 METAR MROC NIL=
200803291700 METAR MROC NIL=
200803291800 METAR MROC NIL=
200803291900 METAR MROC NIL=
200803292000 METAR MROC NIL=
200803292100 METAR MROC 292100Z 07010KT 9999 FEW040 BN250 29/12 A2993=
200803292200 METAR MROC 292200Z 10010KT 9999 FEW040 BKN250 28/13 A2992=
200803292300 METAR MROC 292300Z 10010KT 9999 FEW030 BKN250 26/12 A2994=
200803300000 METAR MROC 300000Z 08014KT 9999 FEW030 BKN250 23/14 A2996=
200803300100 METAR MROC 300100Z 10012KT 9999 FEW035 SCT250 21/15 A2999=
200803300200 METAR MROC 300200Z 12009KT 9999 FEW035 21/14 A3001=
200803300300 METAR MROC NIL=
200803300400 METAR MROC NIL=
200803300500 METAR MROC NIL=
200803300600 METAR MROC NIL=
200803300700 METAR MROC NIL=
200803300900 METAR MROC NIL=
200803301000 METAR MROC NIL=
200803301100 METAR MROC NIL=
200803301200 METAR MROC NIL=
200803301300 METAR MROC NIL=
200803301400 METAR MROC NIL=
200803301500 METAR MROC 301500Z 12014KT CAVOK 26/12 A3003=
200803301600 METAR MROC NIL=
200803301700 METAR MROC NIL=
200803301800 METAR MROC NIL=
200803301900 METAR MROC 301900Z 21005KT 9999 SCT030 SCT250 29/16 A2997=
200803302000 METAR MROC 302000Z 23011KT 9999 SCT030 SCT250 29/18 A2996=
200803302100 METAR MROC 302100Z 20009KT 9999 SCT030 SCT250 27/18 A2995 RMK BECMG=
200803302200 METAR MROC NIL=
200803302300 METAR MROC 302300Z 22009KT 9999 SCT030 SCT250 25/18 A2995 RMK RN N NE BECMG=
200803310000 METAR MROC 310000Z 21006KT 9999 RA FEW015 BKN030 24/18 A2998 RMK BECMG 5000 +RA=
200803310100 METAR MROC 310100Z 03008KT 9999 -DZ SCT040 BKN070 21/19 A3001 BECMG=
200803310200 METAR MROC 310200Z 00000KT 9999 FEW040 SCT070 21/19 A3003 BECMG=
200803310300 METAR MROC 310300Z 11006KT 9999 SCT045 20/16 A3004 BECMG=
200803310400 METAR MROC 310400Z 10006KT 9999 FEW025 SCT050 20/16 A3005 BECMG=
200803310500 METAR MROC 310500Z 10010KT 9999 FEW040 20/16 A3004 BECMG=
200803310600 METAR MROC 310600Z 08006KT CAVOK 20/15 A3003 RMK TRACE AC SCT250 BECMG=
200803310700 METAR MROC 310700Z 11006KT CAVOK 20/15 A3000 RMK TRACE SC SCT250 BECMG=
200803310800 METAR MROC 310800Z 08004KT CAVOK 19/15 A2998 RMK TRACE SC SCT250=
200803310900 METAR MROC 310900Z 07009KT CAVOK 20/15 A2998 RMK TRACE SC SCT250=
200803311000 METAR MROC 311000Z 08009KT CAVOK 19/14 A2999 RMK TRACE SC SCT270=
200803311100 METAR MROC 311100Z 08008KT CAVOK 19/14 A2999 RMK TRACE SC SCT300=
200803311200 METAR MROC 311200Z 10009KT CAVOK 20/14 A3000 RMK TRACE SC SCT300 CB DST S=
200803311300 METAR MROC 311300Z 10012KT CAVOK 22/15 A3003 RMK TRACE SC SCT300 BECMG=
200803311400 METAR MROC 311400Z 10011KT CAVOK 24/15 A3004 RMK TRACE SC CU SCT300 CB DST S BECMG=
200803311500 METAR MROC 311500Z 11013KT 9999 FEW035 SCT250 25/14 A3004 RMK CB DST S BECMG=
200803311600 METAR MROC 311600Z 11012KT 9999 FEW035 SCT250 28/13 A3003 RMK CB DST S BECMG=
200803311700 METAR MROC 311700Z 12012KT 9999 FEW035 SCT250 29/11 A3002 RMK CB DST S BECMG=
200803311800 METAR MROC 311800Z 12011KT 9999 FEW030 SCT250 29/13 A3000 BECMG=
200803311900 METAR MROC 311900Z 11009KT 9999 SCT030 SCT250 29/13 A2997 BECMG=
200803312000 METAR MROC 312000Z 14010KT 9999 SCT030 SCT250 30/14 A2995 BECMG=
200803312100 METAR MROC 312100Z 19008KT 9999 FEW025TCU SCT030 SCT250 27/20 A2994 RMK CB/TCU DST S/SW HZ LGT ARND BECMG 7000 VCSH=
200803312200 METAR MROC 312200Z 23011KT 9999 FEW030 SCT250 23/19 A2993 RMK FEW120 HZ LGT ARND BECMG=
200803312300 METAR MROC 312300Z 23012KT 9999 FEW030 SCT120 23/19 A2995 RMK FEW250 HZ LGT ARND RN DST E BECMG=
200804010000 METAR MROC 010000Z 00000KT 9999 BKN030 23/18 A2998 RMK FEW250 HZ ARND BECMG=
200804010100 METAR MROC 010100Z 00000KT 9999 BKN030 22/19 A3000 RMK FEW250 HZ ARND BECMG 04005KT=
200804010200 METAR MROC 010200Z 00000KT 9999 FEW020 BKN030 22/17 A3002 RMK HZ LGT ARND BECMG 04005KT=
200804010300 METAR MROC 010300Z 11005KT 9999 SCT030 21/16 A3004 RMK HZ LGT ARND BECMG=
200804010400 METAR MROC 010400Z 09010KT 9999 FEW035 21/16 A3005 RMK HZ LGT ARND BECMG=
200804010500 METAR MROC 010500Z 08006KT 9999 FEW035 20/15 A3004 BECMG=
200804010600 METAR MROC 010600Z 09005KT 9999 FEW035 20/15 A3002 BECMG=
200804010700 METAR MROC 010700Z 09006KT 9999 FEW035 20/15 A3001 BECMG=
200804010800 METAR MROC 010800Z 09004KT 9999 FEW035 20/15 A2999 BECMG=
200804010900 METAR MROC 010900Z 08006KT 9999 FEW035 18/14 A2998 BECMG=
200804011000 METAR MROC 011000Z 05006KT 9999 FEW040 SCT130 18/14 A3000 BECMG=
200804011100 METAR MROC 011100Z 07005KT 9999 FEW040 SCT130 18/13 A3002 BECMG=
200804011200 METAR MROC 011200Z 07004KT CAVOK 18/13 A3003 RMK TRACE SC BKN250 BECMG=
200804011300 METAR MROC 011300Z 07007KT CAVOK 21/14 A3005 RMK BKN280 BECMG=
200804011400 METAR MROC 011400Z 10014KT CAVOK 24/14 A3006 RMK BKN280 BECMG=
200804011500 METAR MROC 011500Z 10012KT CAVOK 25/14 A3007 RMK BKN280 BECMG=
200804011600 METAR MROC 011600Z 12014KT 9999 FEW040 BKN280 25/14 A3007 BECMG=
200804011700 METAR MROC 011700Z 10013KT 9999 FEW040 BKN280 28/13 A3004 BECMG=
200804011800 METAR MROC 011800Z 08013KT 9999 FEW040 SCT280 30/14 A3001 BECMG 24010KT=
200804011900 METAR MROC 011900Z 13007KT 9999 FEW040 29/12 A2998 RMK FEW280 BECMG 24010KT=
200804012000 METAR MROC 012000Z 19009KT 9999 SCT040 30/17 A2995 RMK FEW280 BECMG=
200804012100 METAR MROC 012100Z 20010KT 9999 FEW035 SCT045 27/18 A2994 RMK FEW280 BECMG=
200804012200 METAR MROC 012200Z 24010KT 9999 FEW030 SCT040TCU 25/19 A2995 RN DIST SW BECMG=
200804012300 METAR MROC 012300Z 21008KT 9999 FEW045 BKN060 24/19 A2996 RN DIST W NE BECMG=
200804012359 METAR MROC 020000Z VRB02KT 9999 FEW030 SCT050 23/19 A2999 BECMG=
200804020000 METAR MROC 020000Z VRB02KT 9999 FEW030 SCT050 23/19 A2999 BECMG=
200804020100 METAR MROC 020100Z 00000KT 9999 FEW035 23/17 A3001 RMK BECMG CAVOK=
200804020200 METAR MROC 020200Z 00000KT 9999 FEW035 22/16 A3003 BECMG=
200804020300 METAR MROC 020300Z 09006KT 9999 FEW035 21/15 A3006 BECMG=
200804020400 METAR MROC 020400Z 11007KT 9999 FEW035 21/15 A3006 BECMG=
200804020500 METAR MROC 020500Z 11007KT 9999 FEW040 21/14 A3005 BECMG=
200804020600 METAR MROC 020600Z 11009KT 9999 FEW040 21/13 A3003 BECMG=
200804020700 METAR MROC 020700Z 11007KT 9999 FEW040 21/14 A3001 BECMG=
200804020800 METAR MROC 020800Z 12011KT CAVOK 20/14 A2999 RMK TRACE SC CI=
200804020900 METAR MROC 020900Z 11009KT CAVOK 20/14 A2998 RMK RACE SC CI=
200804021000 METAR MROC 021000Z 11009KT CAVOK 20/14 A2998 RMK TRACE SC CI=
200804021100 METAR MROC 021100Z 11009KT CAVOK 20/14 A3000 RMK TRACE SC CI=
200804021200 METAR MROC 021200Z 11011KT CAVOK 20/14 A3002 RMK TRACE SC CU=
200804021300 METAR MROC 021300Z 12012KT CAVOK 21/14 A3003 TRACE CU VEL MAX VIENTO 17KTS BECMG=
200804021400 METAR MROC 021400Z 11012KT CAVOK 23/14 A3004 TRACE CU HZ LGT W VEL MAX VIENTO 19KTS=
200804021500 METAR MROC 021500Z 10015KT 9999 FEW040 25/14 A3006 HZ LGT W BECMG=
200804021600 METAR MROC 021600Z 09012KT 9999 FEW040 27/13 A3005 VEL MAX VIENTO 18KTS BECMG=
200804021700 METAR MROC 021700Z 08013KT 9999 FEW040 28/13 A3003 VEL MAX VIENTO 18KTS BECMG=
200804021800 METAR MROC 021800Z 08013KT 9999 FEW042 29/12 A3001 VEL MAX VIENTO 17KT BECMG=
200804021900 METAR MROC 021900Z 07012KT 9999 FEW040 29/13 A2998 BECMG=
200804022000 METAR MROC 022000Z 08012KT 9999 SCT040 30/12 A2995 TCU DIST SW VEL MAX 18KTS BECMG=
200804022100 METAR MROC 022100Z 09010KT 9999 SCT040 30/13 A2993 RMK TCU DST SW BECMG=
200804022200 METAR MROC 022200Z 10009KT 9999 SCT035 29/13 A2992 BECMG=
200804022300 METAR MROC 022300Z 10006KT 9999 FEW035 26/14 A2994 RMK VEL MAX VTO 11KT BECMG=
200804030000 METAR MROC 030000Z 10006KT 9999 SCT030 24/16 A2997 BECMG=
200804030100 METAR MROC 030100Z 10005KT 9999 FEW030 23/16 A3000 BECMG=
200804030200 METAR MROC 030200Z 10005KT 9999 FEW030 22/15 A3003 BECMG=
200804030300 METAR MROC 030300Z 08009KT CAVOK 21/15 A3005 RMK FEW260 CB/LTNG DST SW BECMG=
200804030400 METAR MROC 030400Z 10011KT CAVOK 21/15 A3006 RMK FEW260 CB/LTNG DST S/SW BECMG=
200804030500 METAR MROC 030500Z 11011KT CAVOK 21/15 A3006 RMK FEW260 LINE CB/LTNG DST S/SW BECMG=
200804030600 METAR MROC 030600Z 12012KT CAVOK 20/14 A3004 RMK LTNG DST SSE/S BECMG=
200804030700 METAR MROC 030700Z 08011KT CAVOK 20/14 A3003 BECMG=
200804030800 METAR MROC 030800Z 09008KT CAVOK 20/14 A3002=
200804030900 METAR MROC 030900Z 05003KT CAVOK 19/14 A3000=
200804031000 METAR MROC 031000Z 05009KT CAVOK 19/14 A3000=
200804031100 METAR MROC 031100Z 07009KT CAVOK 18/14 A3001=
200804031200 METAR MROC 031200Z 11007KT CAVOK 19/14 A3001=
200804031300 METAR MROC 031300Z 09006KT CAVOK 23/15 A3004 RMK FEW120=
200804031400 METAR MROC 031400Z 11008KT CAVOK 24/15 A3005 RMK TRACE SC AC BECMG=
200804031500 METAR MROC 031500Z 11010KT CAVOK 26/14 A3005 RMK TRACE SC TCU DST SSW BECMG=
200804031600 METAR MROC 031600Z 12008KT 9999 FEW040 28/13 A3004 RMK VEL MAX VTO 15KT BECMG=
200804031700 METAR MROC 031700Z 15007KT 9999 SCT040 30/12 A3001 RMK VEL  MAX  VTO 13KT BECMG=
200804031800 METAR MROC 031800Z 10008KT 9999 SCT035 29/13 A2999 BECMG=
200804031900 METAR MROC 031900Z 12005KT 9999 SCT035 31/12 A2996 RMK CU DESARROLLO SW BECMG=
200804032000 METAR MROC 032000Z 19009KT 9999 FEW030TCU SCT035 28/17 A2993 BECMG 24008=
200804032100 METAR MROC 032100Z 20007KT 9999 SCT030TCU 25/19 A2992 BECMG=
200804032200 METAR MROC 032200Z 20010KT 9999 SCT030TCU 26/20 A2992 RMK TCU RN DST NW BECMG=
200804032300 METAR MROC 032300Z 20010KT 9999 BKN025 25/19 A2993 RMK RN DST N NE E BECMG=
200804040000 METAR MROC 040000Z 03004KT 9999 -RA BKN025 SCT250 24/20 A2996 BECMG=
200804040100 METAR MROC 040100Z 10003KT 9999 SCT035 22/17 A2998 RMK TRAZAS CI BECMG=
200804040200 METAR MROC 040200Z 07002KT 9999 FEW035 20/18 A3000 BECMG=
200804040300 METAR MROC 040300Z 08004KT 9999 FEW040 21/17 A3002 BECMG=
200804040400 METAR MROC 040400Z 10003KT 9999 FEW045 21/17 A3003 BECMG=
200804040500 METAR MROC 040500Z 07005KT 9999 FEW045 20/16 A3003 BECMG=
200804040600 METAR MROC 040600Z 07006KT CAVOK 19/16 A3002 TRACE SCT FEW 080 BECMG=
200804040700 METAR MROC 040700Z 08005KT CAVOK 19/15 A3001 TRACE SCT BECMG=
200804040800 METAR MROC NIL=
200804040900 METAR MROC 040900Z 08007KT CAVOK 18/15 A2999 TRACE SCT BECMG=
200804041000 METAR MROC 041000Z 05006KT CAVOK 17/14 A2999 TRACE SCT BECMG=
200804041100 METAR MROC 041100Z 07004KT CAVOK 18/14 A3001 TRACE SCT BECMG=
200804041200 METAR MROC 041200Z 07006KT CAVOK 18/14 A3002 TRACE CU SCT BECMG=
200804041300 METAR MROC 041300Z 03005KT CAVOK 20/14 A3004 RMK TRACE SC BECMG=
200804041400 METAR MROC 041400Z 35003KT CAVOK 23/15 A3005 RMK TRACE CU BECMG 24006KT=
200804041500 METAR MROC 041500Z 00000KT 9999 FEW030 26/15 A3006 BECMG=
200804041600 METAR MROC 041600Z 26006KT 9999 FEW030 27/15 A3004 BECMG=
200804041700 METAR MROC 041700Z 22012KT 9999 SCT030 28/16 A3003 BECMG=
200804041800 METAR MROC 041800Z 22011KT 9999 SCT030 28/18 A3000 BECMG=
200804041900 METAR MROC 041900Z 20010KT 9999 SCT025TCU 28/18 A2996 RMK HZ LGT ARND BECMG=
200804042000 METAR MROC 042000Z 21012KT 9999 SCT025TCU 25/18 A2995 RMK RN DST W BECMG 6000 VCSH=
200804042100 METAR MROC 042100Z 27008KT 9999 -RA FEW015TCU BKN030 22/19 A2994 RMK VIS N 4000MTS DUE RASH BECMG=
200804042200 METAR MROC 042200Z 13005KT 9999 3000SW -RA FEW010CB BKN030 20/19 A2995 BECMG=
200804042300 METAR MROC 042300Z 00000KT 9999 -RA FEW010 BKN035 20/19 A2997 BECMG 10005KT=
200804050000 METAR MROC 050000Z 00000KT 9999 FEW010 BKN035 21/19 A2999 RMK RN S SW BECMG 10005KT=
200804050100 METAR MROC 050100Z 00000KT 9999 FEW015 SCT035 BKN100 20/19 A3000 BECMG=
200804050200 METAR MROC 050200Z 00000KT 9999 SCT030 BKN100 21/19 A3002 BECMG=
200804050300 METAR MROC 050300Z 00000KT 9999 +DZ SCT025 BKN090 20/19 A3005 RMK VIS 8000SW BECMG=
200804050400 METAR MROC 050400Z 00000KT 9999 FEW025 SCT120 20/18 A3005 BECMG 08006KT=
200804050500 METAR MROC 050500Z 10003KT CAVOK 19/18 A3005 RMK TRACE SC SCT120 BECMG=
200804050600 METAR MROC 050600Z 00000KT CAVOK 19/18 A3004 RMK TRACE SC AC BECMG=
200804050700 METAR MROC 050700Z 07003KT CAVOK 18/17 A3001 RMK TRACE SC AC=
200804050800 METAR MROC 050800Z 00000KT CAVOK 18/16 A2999 RMK TRACE AC SC=
200804050900 METAR MROC 050900Z 09002KT CAVOK 17/15 A2999 RMK TRACE SC=
200804051000 METAR MROC 051000Z 06002KT CAVOK 17/15 A3000 RMK TRACE SC=
200804051100 METAR MROC 051100Z 08003KT CAVOK 17/15 A3001 RMK TRACE SC=
200804051200 METAR MROC 051200Z 09005KT CAVOK 17/15 A3002 RMK TRACE SC=
200804051300 METAR MROC 051300Z 10004KT CAVOK 21/17 A3005 RMK TRACE SC CU=
200804051400 METAR MROC 051400Z 10002KT CAVOK 25/17 A3006 RMK TRACE SC CU BECMG 24008KT=
200804051500 METAR MROC 051500Z 00000KT 9999 FEW040 26/17 A3006 RMK HZ W BECMG=
200804051600 METAR MROC 051600Z 21006KT 9999 FEW040 27/17 A3006 RM HZ W BECMG=
200804051700 METAR MROC 051700Z 25011KT 9999 FEW040 28/16 A3005 BECMG=
200804051800 METAR MROC 051800Z 22010KT 9999 SCT040 29/18 A3002 BECMG=
200804051900 METAR MROC 051900Z 24009KT 9999 FEW020 SCT040 29/18 A2998 BECMG=
200804052000 METAR MROC 052000Z 22010KT 9999 FEW020TCU SCT035 28/18 A2996 RMK RN S BECMG 5000 TSRA=
200804052100 METAR MROC 052100Z 20008KT 9999 FEW020TCU SCT030 23/17 A2995 RMK RN NW E SE  BECMG 8000 SHRA=
200804052200 METAR MROC 052200Z 19008KT 9999 SCT025 SCT120 26/19 A2995 RN N NE BECMG=
200804052300 METAR MROC 052300Z 21008KT 9999 SCT025 SCT120 24/18 A2997 RN DST N NE E BECMG=
200804052345 METAR MROC 052345Z 26005KT 9999 FEW010 SXCT015TCU BKN040 23/17 A2996 RASH N NE E SE=
200804060000 METAR MROC 060000Z 20006KT 9999 FEW015 SCT040 23/19 A2999 RN N NE BECMG=
200804060100 METAR MROC 060100Z 34003KT 9999 BKN040 23/18 A3001 BECMG=
200804060200 METAR MROC 060200Z 27004KT 9999 SCT040 22/18 A3003 BECMG=
200804060300 METAR MROC 060300Z 00000KT 9999 SCT040 22/19 A3005 BECMG=
200804060400 METAR MROC 060400Z 00000KT 9999 SCT045 21/19 A3005 BECMG=
200804060500 METAR MROC 060500Z 00000KT 9999 SCT045 20/18 A3004 BECMG=
200804060600 METAR MROC 060600Z 00000KT 9999 SCT045 20/18 A3004 BECMG=
200804060700 METAR MROC 060700Z 08003KT 9999 FEW045 20/17 A3002 BECMG=
200804060800 METAR MROC 060800Z 00000KT 9999 FEW045 19/16 A3000 BECMG=
200804060900 METAR MROC 060900Z 00000KT 9999 FEW045 18/19 A3001 BECMG=
200804061000 METAR MROC 061000Z 00000KT 9999 FEW045 18/16 A3001 BECMG=
200804061100 METAR MROC 061100Z 00000KT 9999 FEW045 SCT100 18/16 A3002 BECMG=
200804061200 METAR MROC 061200Z 35003KT 9999 FEW030 SCT050 19/16 A3004 BECMG=
200804061300 METAR MROC 061300Z 08004KT CAVOK 21/17 A3005 FEW280 TRAZAS SCT BECMG=
200804061400 METAR MROC 061400Z 02004KT CAVOK 24/17 A3005 FEW280 TRAZAS SCT BECMG=
200804061500 METAR MROC 061500Z 02003KT CAVOK 27/17 A3005 FEW120 BECMG 24010KT=
200804061600 METAR MROC 061600Z 24004KT 9999 FEW040 28/18 A3004 BECMG=
200804061700 METAR MROC 061700Z 22008KT 9999 SCT040 29/18 A3002 BECMG=
200804061800 METAR MROC 061800Z 22009KT 9999 SCT035 30/18 A2999 HZ W NW N BECMG=
200804061900 METAR MROC 061900Z 24013KT 9999 SCT025TCU 29/19 A2995 TCU RN SW/E BECMG=
200804062000 METAR MROC 062000Z 14006KT 3000 TSRA FEW010CB BKN020 18/17 A2998 BECMG=
200804062100 METAR MROC 062100Z 00000KT 9999 4000SW RA FEW015CB SCT030 OVC100 19/18 A2998 RETS TS DIST SW BECMG 5000=
200804062200 METAR MROC 062200Z 00000KT 9999 -RA FEW020 OVC120 20/19 A2998 BECMG=
200804062300 METAR MROC NIL=
200804062355 METAR MROC 070000Z 00000KT 9999 -RA OVC110 20/19 A2999 TRACE SC CB DIST SW BECMG=
200804070000 METAR MROC 070000Z 00000KT 9999 -RA OVC110 20/19 A2999 TRACE SCT CB=
200804070100 METAR MROC 070100Z 10004KT 9999 FEW035 BKN100 20/19 A3001 BECMG=
200804070200 METAR MROC 070200Z 00000KT 9999 FEW035 BKN100 20/19 A3002 RMK TS DST SW BECMG=
200804070300 METAR MROC 070300Z 06005KT 9999 FEW035 BKN100 20/15 A3001 BECMG=
200804070400 METAR MROC 070400Z 00000KT CAVOK 20/18 A3002 RMK TARCE SC BKN100=
200804070500 METAR MROC 070500Z 00000KT CAVOK 19/17 A3003 RMK TRACE SC BKN100 BECMG=
200804070600 METAR MROC 070600Z 06006KT CAVOK 20/17 A//// RMK TRACE SC SCT110=
200804070700 METAR MROC 070700Z 09007KT CAVOK 21/17 A//// RMK TRACE SC SCT110=
200804070800 METAR MROC 070800Z 00000KT CAVOK 19/16 A2998 RMK TRACE SC CI SCT120=
200804070900 METAR MROC 070900Z 00000KT CAVOK 19/16 A2998 RMK TRACE SC CI SCT120=
200804071000 METAR MROC 071000Z 07006KT CAVOK 17/15 A2998 RMK TRACESC CI FEW120=
200804071100 METAR MROC 071100Z 07002KT CAVOK 18/15 A2999 RMK RACE SC CI FEW120=
200804071200 METAR MROC 071200Z 05005KT CAVOK 19/15 A2999 RMK FEW120 SCT250=
200804071300 METAR MROC 071300Z 06007KT CAVOK 21/16 A3001 TRACE SCT BKN250 TCU DIST SW BECMG=
200804071400 METAR MROC 071400Z 09004KT CAVOK 24/17 A3002 TRACE SCT BKN250 HZ W BECMG=
200804071500 METAR MROC 071500Z VRB02KT CAVOK 26/16 A3002 TRACE SC HZ W BECMG 24010KT=
200804071600 METAR MROC 071600Z 00000KT CAVOK 27/17 A3001 TRACE CU SCT HZ W BECMG 24008KT=
200804071700 METAR MROC 071700Z 14005KT 9999 FEW040 BKN270 29/16 A2999 HZ W BECMG 24006KT=
200804071800 METAR MROC 071800Z 22010KT 9999 SCT045TCU BKN270 28/18 A2998 RMK HZ W BECMG=
200804071900 METAR MROC 071900Z 23012KT 9999 FEW030 SCT040TCU BKN270 28/20 A2995 RMK HZ W QUAD BECMG=
200804072000 METAR MROC 072000Z 02009KT 9999 4000NE VCSH FEW015CB BKN030 24/18 A2995 BECMG 3000 -TSRA=
200804072100 METAR MROC 072100Z 12004KT 9999 4000SW -RA BR SCT003 FEW015CB SCT030 19/17 A2992 BECMG 7000 -RA VCFG=
200804072200 METAR MROC 072200Z 00000KT 9999 FEW015 BKN090 20/18 A2994 BECMG=
200804072300 METAR MROC 072300Z 00000KT 9999 FEW010 BKN100 20/19 A2996 BECMG=
200804080000 METAR MROC 080000Z 00000KT 9999 -RA FEW015 BKN100 20/18 A2996 BECMG=
200804080100 METAR MROC 080100Z VRB02KT 9999 FEW035 SCT100 20/18 A2998 RMK BECMG CAVOK=
200804080200 METAR MROC 080200Z 06002KT 9999 FEW035 20/18 A2998 BECMG=
200804080300 METAR MROC 080300Z 04004KT CAVOK 20/17 A2999 FEW250 HZY BECMG=
200804080400 METAR MROC 080400Z 05004KT CAVOK 19/17 A2999 FEW250 HZY BECMG=
200804080500 METAR MROC 080500Z 08005KT CAVOK 19/16 A2999 FEW250 HZY BECMG=
200804080600 METAR MROC NIL=
200804080700 METAR MROC 080700Z 04004KT CAVOK 18/16 A2997 FEW280 BECMG=
200804080800 METAR MROC NIL=
200804080900 METAR MROC 080900Z 06004KT CAVOK 18/15 A2994 FEW280=
200804081000 METAR MROC 081000Z 07005KT CAVOK 18/15 A2994 FEW280=
200804081100 METAR MROC 081100Z 06005KT CAVOK 18/15 A2996 FEW280=
200804081200 METAR MROC 081200Z 06005KT CAVOK 18/15 A2998 BKN280 BECMG=
200804081300 METAR MROC 081300Z 05007KT CAVOK 22/17 A2999 BKN300 W DST W=
200804081400 METAR MROC 081400Z 04003KT CAVOK 25/16 A3000 BKN300 HZ W BECMG=
200804081500 METAR MROC 081500Z 27006KT CAVOK 25/18 A3000 BKN300 TRAZAS SCT HZ W BECMG=
200804081600 METAR MROC 081600Z 18005KT 9999 FEW030 BKN300 27/16 A3000 HZ W BECMG=
200804081700 METAR MROC 081700Z 14008KT 9999 FEW030 BKN250 29/16 A2998 BECMG=
200804081800 METAR MROC 081800Z 14005KT 9999 FEW030 BKN250 29/14 A2996 BECMG=
200804081900 METAR MROC 081900Z 23009KT 9999 FEW025TCU SCT030 BKN250 29/19 A2993 BECMG=
200804082000 METAR MROC 082000Z 24008KT 6000 -TSRA SCT015CB BKN250 26/19 A2989=
200804082007 METAR MROC 082007Z 24008KT 6000 -TSRA SCT015CB BKN250 26/19 A2989=
200804082100 METAR MROC 082100Z 10008KT 7000 RA FEW015 BKN025 24/21 A2990 RMK VIS NE 4000 BECMG 5000 RA=
200804082200 METAR MROC 082200Z 13004KT 7000 -RA FEW015 SCT030 BKN250 21/20 A2993 RMK TS RASH SW BECMG=
200804082300 METAR MROC 082300Z 00000KT 9999 FEW025 SCT100 BKN250 22/20 A2993 RMK HZ E BECMG=
200804090000 METAR MROC 090000Z 00000KT 9999 -RA SCT025 SCT100 BKN250 22/20 A2996 RMK HZ ARND BECMG=
200804090100 METAR MROC 090100Z 06003KT 9999 SCT030 BKN120 22/19 A2997 BECMG=
200804090200 METAR MROC 090200Z 07005KT 9999 FEW030 SCT250 21/18 A2997 BECMG=
200804090300 METAR MROC 090300Z 00000KT CAVOK 21/18 A2999 TRACE SCT SCT250 BECMG=
200804090400 METAR MROC 090400Z 09004KT 9999 SCT030 21/18 A3001 BECMG=
200804090500 METAR MROC 090500Z 00000KT 9999 SCT030 20/18 A3001 BECMG=
200804090800 METAR MROC 090800Z 12005KT CAVOK 20/16 A2992 TRACE SC CI BECMG=
200804090900 METAR MROC 090900Z 10003KT CAVOK 20/16 A2994 TRACE SCT SCT250 LTNG=
200804091000 METAR MROC 091000Z 08006KT CAVOK 20/16 A2996 TRACE SCT BKN250 LTNG=
200804091100 METAR MROC 091100Z 08009KT CAVOK 20/15 A2998 RMK TRACE SC AC BKN250=
200804091200 METAR MROC 091200Z 05006KT CAVOK 20/16 A2998 RMK CB LTNG AND RASH=
200804091300 METAR MROC 091300Z 01003KT CAVOK 21/16 A3000 RMK CB RASH DST S TRACE SC FEW120 BKN250 BECMG=
200804091400 METAR MROC 091400Z 07005KT CAVOK 22/16 A3003 RMK TRACE SC SCT120 BKN250 BECMG=
200804091500 METAR MROC 091500Z 07003KT CAVOK 23/16 A3003 RMK TRACE SC SCT120 BKN250 BECMG=
200804091600 METAR MROC 091600Z 04005KT CAVOK 24/16 A3002 RMK TRACE SC SCT120 BKN250 BECMG=
200804091700 METAR MROC 091700Z 08005KT 9999 FEW025 SCT120 BKN250 26/15 A3000 BECMG=
200804091800 METAR MROC 091800Z 04013KT 9999 FEW030 SCT120 BKN250 27/16 A2997 BECMG=
200804091900 METAR MROC 091900Z 09007KT 9999 SCT030 BKN250 27/16 A2995 RMK RN DST E BECMG=
200804092000 METAR MROC 092000Z 15008KT 9999 SCT030 BKN250 26/17 A2992 RMK BECMG 24008KT 7000 VCSH=
200804092100 METAR MROC 092100Z 22008KT 9999 FEW020 SCT070 BKN250 24/20 A2993 BECMG=
200804092200 METAR MROC 092200Z 25005KT 9999 FEW020 SCT070 BKN250 24/20 A2992 RMK RN DST E BECMG=
200804092300 METAR MROC 092300Z 00000KT 9999 -RA FEW020 BKN070 23/20 A2994 BECMG=
200804100000 METAR MROC 100000Z 28007KT 8000 2500SW TSRA FEW010CB BKN030 20/19 A2997 BECMG=
200804100100 METAR MROC 100100Z 00000KT 9999 SCT035 BKN070 20/19 A3000 RERA BECMG=
200804100200 METAR MROC 100200Z 07003KT 9999 SCT030 BKN120 20/19 A3001 BECMG=
200804100300 METAR MROC 100300Z 09007KT 9999 FEW025 SCT120 21/17 A3002 BECMG=
200804100400 METAR MROC 100400Z 10004KT CAVOK 20/18 A3002 RMK TRACE SC SCT250 BECMG=
200804100500 METAR MROC 100500Z 11007KT CAVOK 20/17 A3001 RMK TRACE SC SCT250 BECMG=
200804100600 METAR MROC 100600Z 08009KT CAVOK 21/16 A3000 RMK TRACE SC SCT250 BECMG=
200804100700 METAR MROC 100700Z 08005KT CAVOK 20/16 A2999 RMK TRACE SC SCT250=
200804100800 METAR MROC 100800Z 10004KT CAVOK 20/16 A2997 RMK TRACE SC SCT250=
200804100900 METAR MROC 100900Z 09002KT CAVOK 19/16 A2995 RMK TRACE SC SCT250=
200804101000 METAR MROC 101000Z 08006KT CAVOK 19/16 A2996 RMK TRACE SC SCT250=
200804101100 METAR MROC 101100Z 07007KT CAVOK 18/15 A2997 RMK TRACE SC SCT250=
200804101200 METAR MROC 101200Z 04007KT CAVOK 19/15 A2997 RMK TRACE SC BKN250=
200804101300 METAR MROC 101300Z 12007KT CAVOK 21/16 A2999 RMK TRACE SC BKN250=
200804101400 METAR MROC 101400Z 11008KT CAVOK 24/16 A3001 RMK TRACE SC CU BKN250=
200804101500 METAR MROC 101500Z 10008KT 9999 FEW040 BKN250 24/16 A3000 BECMG 24008KT=
200804101600 METAR MROC 101600Z 10009G22KT 9999 FEW040 BKN250 26/16 A3000 BECMG=
200804101700 METAR MROC 101700Z 09010KT 9999 FEW035 BKN260 27/16 A2998 BECMG=
200804101800 METAR MROC 101800Z 15008KT 9999 SCT035 BKN260 28/16 A2997 BECMG 24008KT=
200804101900 METAR MROC 101900Z 17007KT 9999 SCT035 SCT120 BKN260 29/16 A2995 BECMG 24008KT=
200804102000 METAR MROC 102000Z 22009KT 9999 SCT030 SCT100 BKN260 24/19 A2994 BECMG 7000 VCSH=
200804102100 METAR MROC 102100Z 22009KT 9999 FEW020 SCT035 BKN240 23/18 A2993 RN N BECMG=
200804102200 METAR MROC 102200Z 22007KT 9999 FEW015 BKN040 22/18 A2993 RN N NE E BECMG 7000 VCSH=
200804102300 METAR MROC 102300Z 33002KT 9999 SCT020 BKN040 22/18 A2994 RN N NE E SW BECMG -RA=
200804110000 METAR MROC 110000Z 02004KT 9999 -RA SCT020 BKN040 21/19 A2995 BECMG=
200804110100 METAR MROC 110100Z 03005KT 9999 FEW035 BKN140 21/19 A2996 BECMG=
200804110200 METAR MROC 110200Z 10004KT 9999 FEW035 BKN280 21/18 A2998 BECMG=
200804110300 METAR MROC 110300Z 00000KT 9999 FEW035 SCT280 20/18 A3000 BECMG=
200804110400 METAR MROC 110400Z 10003KT 9999 FEW035 20/18 A3001 RMK FEW280 BECMG=
200804110500 METAR MROC 110500Z 10005KT 9999 FEW035 20/17 A3000 BECMG=
200804110600 METAR MROC 110600Z 09007KT 9999 FEW035 20/16 A2999 BECMG=
200804110700 METAR MROC 110700Z 11011KT 9999 FEW035 20/16 A2997 BECMG=
200804110800 METAR MROC 110800Z 10006KT 9999 FEW035 20/16 A2995 BECMG=
200804110900 METAR MROC 110900Z 11010KT 9999 FEW035 20/10 A2994 BECMG=
200804111000 METAR MROC 111000Z 10003KT 9999 FEW035 SCT120 20/16 A2994 BECMG=
200804111100 METAR MROC 111100Z 08006KT CAVOK 20/16 A2995 RMK BKN120 BECMG=
200804111200 METAR MROC 111200Z 09006KT CAVOK 20/16 A2997 RMK SCT120 BKN250 BECMG=
200804111300 METAR MROC 111300Z 07005KT CAVOK 22/14 A2998 FEW120 BKN250 BECMG=
200804111400 METAR MROC 111400Z 10006KT CAVOK 24/17 A2999 SCT120 BKN250 24/17 A2999 BECMG 24006=
200804111500 METAR MROC 111500Z 23003KT CAVOK 26/18 A2999 TRAZAS SCT SCT130 BKN250 BECMG=
200804111600 METAR MROC 111600Z 10004KT 9999 FEW040 BKN130 28/17 A2998=
200804111700 METAR MROC 111700Z 23005KT 9999 FEW040 SCT130 BKN250 27/19 A2997 BECMG=
200804111800 METAR MROC 111800Z 22008KT 9999 SCT035 SCT130 28/20 A2994 BECMG 7000=
200804111900 METAR MROC 111900Z 25012KT 9999 4000NW -SHRA SCT020TCU BKN035 24/19 A2991 VSBY NW N 4KM DUE RN BECMG 4000 TSRA=
200804112000 METAR MROC 112000Z 16003KT 9999 -RA FEW015TCU SCT030 BKN120 20/18 A2990 RETS VSBY S 5KM DUE RN BECMG=
200804112100 METAR MROC 112100Z 00000KT 9999 VCSH FEW012 SCT090 SCT250 20/19 A2991 RMK VIS 6000 N NW BECMG=
200804112200 METAR MROC 112200Z 02002KT 9999 VCSH FEW015 BKN080 20/19 A2991 RMK VIS 6000 NW N BECMG=
200804112300 METAR MROC 112300Z 13002KT 9999 SCT020 BKN090 21/19 A2991 RMK VIS 8000 SE VCSH BECMG=
200804120000 METAR MROC 120000Z 00000KT 9999 RA FEW015 BKN090 20/18 A2993 RMK VIS 8000SW BECMG=
200804120100 METAR MROC 120100Z 07003KT 9999 -RA BKN100 20/19 A2994 RMK TRACE SC BECMG=
200804120200 METAR MROC 120200Z 00000KT 9999 FEW025 SCT120 20/17 A2996 BECMG=
200804120300 METAR MROC 120300Z 05005KT 9999 FEW040 BKN120 20/17 A2998 BECMG=
200804120400 METAR MROC 120400Z 09004KT 9999 FEW040 BKN120 20/17 A2999 BECMG=
200804120500 METAR MROC 120500Z 07007KT 9999 FEW040 BKN120 20/16 A2998 BECMG=
200804120600 METAR MROC 120600Z 08007KT CAVOK 20/16 A//// RMK TRACE SC SCT100 BECMG=
200804120700 METAR MROC 120700Z 09005KT CAVOK 20/16 A2995 RMK TRACE SC SCT100 BECMG=
200804120800 METAR MROC 120800Z 05005KT CAVOK 18/12 A2994 RMK TRACE SC FEW120=
200804120900 METAR MROC 120900Z 08007KT CAVOK 19/16 A2993 RMK TRACE SC FEW120=
200804121000 METAR MROC 121000Z 10006KT CAVOK 18/16 A2993 RMK TRACE SC FEW120=
200804121100 METAR MROC 121100Z 10003KT CAVOK 19/16 A2994 RMK TARCE SC FEW120=
200804121200 METAR MROC 121200Z 08010KT CAVOK 19/16 A2995 RMK TRACE SC AC FEW260 TCU DST SW=
200804121300 METAR MROC 121300Z 11004KT CAVOK 21/16 A2997 TRACE SCT AC TCU DIST SW SCT250 BECMG=
200804121400 METAR MROC 121400Z 11008KT CAVOK 23/16 A2999 TRACE SCT CI CB DIST SW BECMG=
200804121500 METAR MROC 121500Z 12008KT CAVOK 25/17 A3000 TRACE SCT AC SCT250 CB=
200804121600 METAR MROC 121600Z 13010KT 9999 FEW040 SCT250 26/17 A3001 BECMG=
200804121700 METAR MROC 121700Z 14006KT 9999 SCT040TCU SCT250 27/16 A2999 BECMG 24007KT=
200804121800 METAR MROC 121800Z 24010KT 9999 FEW030 SCT040TCU 27/19 A2997 SCT250 BECMG=
200804121900 METAR MROC 121900Z 23011KT 9999 FEW030 SCT040TCU 27/19 A2994 TRACE CI BECMG=
200804122000 METAR MROC 122000Z 24011KT 9999 VCSH BKN035TCU 27/21 A2991 VIS SSW 8KM DUE RASH RN N QUAD BECMG 5000 RA=
200804122100 METAR MROC 122100Z 32014KT 1500 TSRA FEW012CB SCT015 OVC090 20/17 A2993 VIS SSW UNL BECMG 4000 -RA=
200804122118 METAR MROC 122118Z 29008KT 9999 -RA SCT020 OVC090 19/17 A2994 VIS SW 6KM BECMG=
200804122200 METAR MROC 122200Z 08004KT 9999 FEW020 SCT090 BKN230 19/18 A2993 RERA VIS W 6KM DUE TSTM RN DIST S BECMG=
200804122300 METAR MROC 122300Z 00000KT 9999 FEW030 BKN230 19/18 A2995 BECMG=
200804122355 METAR MROC 130000Z 00000KT 9999 FEW030 SCT270 20/19 A2995 RN DIST SE BECMG=
200804130000 METAR MROC 130000Z 00000KT 9999 FEW030 SCT270 20/19 A2995 RN DIST SE BECMG=
200804130100 METAR MROC 130100Z 00000KT 9999 FEW030 20/18 A2997 BECMG CAVOK=
200804130200 METAR MROC 130200Z 01002KT 9999 FEW030 20/18 A2998 BECMG=
200804130300 METAR MROC 130300Z 11003KT CAVOK 20/18 A2995 BKN280 BECMG=
200804130400 METAR MROC 130400Z 11003KT CAVOK 20/18 A2995 BKN280 BECMG=
200804130500 METAR MROC 130500Z 08006KT CAVOK 19/15 A3001 BKN280 BECMG=
200804130600 METAR MROC NIL=
200804130700 METAR MROC 130700Z 07006KT CAVOK 19/15 A2997 SCT280 BECMG=
200804130800 METAR MROC NIL=
200804130900 METAR MROC 130900Z 06004KT CAVOK 19/15 A2996 BKN280 BECMG=
200804131000 METAR MROC 131000Z 05007KT CAVOK 17/14 A2996 TRAZAS SCT BKN280 BECMG=
200804131100 METAR MROC 131100Z 07007KT CAVOK 18/14 A2997 TRAZAS SCT FEW130 BKN280 CB DST S BECMG=
200804131200 METAR MROC 131200Z 06006KT CAVOK 19/15 A2998 TRAZAS SC/AC BKN280 BECMG=
200804131300 METAR MROC 131300Z 05007KT CAVOK 20/15 A3001 RMK TRACE SC AC BKN250 BECMG=
200804131400 METAR MROC 131400Z 10008KT CAVOK 24/14 A3002 RMK TRACE SC BKN250 BECMG=
200804131500 METAR MROC 131500Z 10008KT CAVOK 25/15 A3003 RMK TRACE SC BKN250 BECMG=
200804131600 METAR MROC 131600Z 11008KT CAVOK 27/15 A3002 RMK TRACE SC BKN250 BECMG=
200804131700 METAR MROC 131700Z 10009KT CAVOK 27/16 A3001 RMK TRACE SC BKN250 BECMG=
200804131800 METAR MROC 131800Z 12008KT 9999 FEW035 BKN250 28/16 A2999 BECMG 24010KT=
200804131900 METAR MROC 131900Z 09009KT 9999 FEW030 BKN250 29/15 A2997 BECMG=
200804132000 METAR MROC 132000Z 14004KT 9999 SCT030 BKN250 29/15 A2993 BECMG=
200804132100 METAR MROC 132100Z 13006KT 9999 SCT030 BKN250 28/14 A2992 BECMG 24006KT=
200804132200 METAR MROC 132200Z 26008KT 9999 SCT025 BKN250 27/19 A2990 RMK TCU SW W BECMG=
200804132300 METAR MROC 132300Z 23009KT 9999 3000NE VCSH SCT020 BKN250 25/20 A2992 BECMG 5000 VCSH=
200804140000 METAR MROC 140000Z 00000KT 9999 VCTS SCT018CB SCT100 BKN250 21/17 A2995 RMK 8000NW DUE TSRA BECMG=
200804140100 METAR MROC 140100Z 07004KT 9999 FEW035 BKN100 21/17 A2997 BECMG CAVOK=
200804140200 METAR MROC 140200Z 05008KT 9999 FEW035 BKN250 21/18 A3001 BECMG=
200804140300 METAR MROC 140300Z 00000KT 9999 FEW040 SCT080 21/17 A3004 BECMG=
200804140400 METAR MROC 140400Z 00000KT 9999 FEW045 20/17 A3005 TACE AC BECMG=
200804140500 METAR MROC 140500Z 00000KT CAVOK 20/18 A3005 TRACE SCT FEW080 BECMG=
200804140600 METAR MROC 140600Z 09005KT CAVOK 20/17 A3003 TRACE AC SCT BECMG=
200804140700 METAR MROC NIL=
200804140800 METAR MROC 140800Z 07008KT CAVOK 20/17 A2998 SCT070 BECMG=
200804140900 METAR MROC 140900Z 07008KT CAVOK 20/16 A2998 FEW080 BECMG=
200804141000 METAR MROC 141000Z 00000KT 9999 FEW030 BKN130 20/16 A2998 LTNG DIST S BECMG=
200804141100 METAR MROC 141100Z 06003KT 9999 FEW030 BKN130 20/15 A3000 LTNG DIST S BECMG=
200804141200 METAR MROC 141200Z 03003KT 9999 FEW030 BKN140 20/15 A3001 RMK LINE CB DIST S SW BECMG=
200804141300 METAR MROC 141300Z 09004KT 9999 FEW025 SCT110 BKN250 21/14 A3002 RMK CB DST SW BECMG=
200804141400 METAR MROC 141400Z 12010KT 9999 FEW020 SCT100 BKN250 22/15 A3004 BECMG=
200804141500 METAR MROC 141500Z 11012KT 9999 FEW020 BKN100 24/15 A3005 BECMG=
200804141600 METAR MROC 141600Z 11010KT 9999 FEW020 SCT100 BKN250 26/16 A3005 RMK CB DST SW BECMG=
200804141700 METAR MROC 141700Z 10015KT 9999 SCT025 BKN250 26/16 A3004 RMK CB DST SW RN DST NE BECMG=
200804141800 METAR MROC 141800Z 09008KT 9999 FEW020 SCT250 27/14 A3002 RMK RN DST NE BECMG=
200804141900 METAR MROC 141900Z 11007KT 9999 FEW025 SCT250 28/16 A2999 RMK CB DST S RN DST NE=
200804142000 METAR MROC 142000Z 09008KT 9999 SCT025TCU SCT250 28/14 A2995 RMK CB DST S RN DST NE BECMG=
200804142100 METAR MROC 142100Z 11008KT 9999 SCT025TCU SCT080 26/15 A2994 RMK FEW250 RN DST S SW=
200804142200 METAR MROC NIL=
200804142300 METAR MROC 142300Z 03008KT 9999 FEW030 SCT100 BKN250 23/16 A2998=
200804150000 METAR MROC 150000Z 11008KT 9999 FEW030 SCT100 BKN250 22/16 A3000 BECMG=
200804150100 METAR MROC 150100Z 10006KT 9999 FEW040 SCT100 21/15 A3002 BECMG=
200804150200 METAR MROC 150200Z 12012KT 9999 FEW040 20/15 A3003 BECMG=
200804150300 METAR MROC 150300Z 12011KT CAVOK 20/15 A3004 RMK TRACE SC BECMG=
200804150400 METAR MROC 150400Z 10008KT CAVOK 20/15 A3005 RMK TRACE SC BECMG=
200804150500 METAR MROC 150500Z 11012KT CAVOK 20/15 A3003 RMK TRACE SC BECMG=
200804150600 METAR MROC 150600Z 11013KT CAVOK 20/15 A3001 RMK TRACE SC BECMG=
200804150700 METAR MROC 150700Z 11012KT CAVOK 20/15 A2999 RMK TRACE SC BECMG=
200804150800 METAR MROC 150800Z 12015G25KT CAVOK 20/15 A2997 RMK TRACE AC=
200804150900 METAR MROC 150900Z 12012KT CAVOK 20/14 A2996 RMK TRACE AC VEL  MAX  VTO 18KT=
200804151000 METAR MROC 151000Z 12012G23KT CAVOK 19/14 A2998 RMK TRACE AC=
200804151100 METAR MROC 151100Z 11014KT CAVOK 20/13 A3000 RMK TRACE SC VEL  MAX  VTO 20KT=
200804151200 METAR MROC 151200Z 12012KT CAVOK 19/14 A3002 RMK TRACE SC CI VEL  MAX  VTO 17KT=
200804151300 METAR MROC 151300Z 12016KT CAVOK 21/14 A3005 RMK TRACE SC CI AC=
200804151400 METAR MROC 151400Z 11012G26KT CAVOK 23/14 A3006 RMK TRACE SC CI=
200804151500 METAR MROC NIL=
200804151600 METAR MROC 151600Z 11015KT 9999 FEW040 SCT260 25/12 A3004 BECMG=
200804151700 METAR MROC 151700Z 11013KT 9999 SCT040 26/13 A3003 RMK TRACE CI=
200804151800 METAR MROC 151800Z 10013KT 9999 SCT040 26/16 A3001 BECMG=
200804151900 METAR MROC 151900Z 10012KT 9999 SCT040 26/13 A2997 BECMG=
200804152000 METAR MROC 152000Z 12011KT 9999 SCT035 27/10 A2995 BECMG=
200804152100 METAR MROC 152100Z 09011KT 9999 FEW045 27/09 A2992 RAFAGAS 18KT BECMG=
200804152200 METAR MROC 152200Z 08011KT 9999 FEW045 25/12 A2992 BECMG=
200804152300 METAR MROC 152300Z 11012KT 9999 FEW045 23/13 A2993 BECMG=
200804160000 METAR MROC 160000Z 10011KT 9999 FEW045 22/12 A2996 BECMG=
200804160100 METAR MROC 160100Z 11014KT 9999 FEW045 21/12 A2998 BECMG=
200804160200 METAR MROC 160200Z 12012KT CAVOK 20/15 A2999 BECMG=
200804160300 METAR MROC 160300Z 13012KT CAVOK 20/15 A3000 BECMG=
200804160400 METAR MROC 160400Z 11011KT CAVOK 20/13 A3001 RMK TRACE SC CI BECMG=
200804160500 METAR MROC 160500Z 12012KT CAVOK 19/12 A3000 RMK TRACE SC CI BECMG=
200804160600 METAR MROC 160600Z 10018KT CAVOK 19/13 A2998 RMK TRACE SC BECMG=
200804160700 METAR MROC 160700Z 10016KT CAVOK 19/12 A2996 RMK TRACE SC BECMG=
200804160800 METAR MROC NIL=
200804160900 METAR MROC 160900Z 11013KT CAVOK 19/13 A2993 RMK TRCE SC=
200804161000 METAR MROC 161000Z 11013KT CAVOK 20/12 A2994 RMK TRACE SC=
200804161100 METAR MROC 161100Z 13012KT CAVOK 19/12 A2995 RMK TRACE SC=
200804161200 METAR MROC 161200Z 11016KT CAVOK 20/13 A2996 RMK TRACE SC BKN250 BECMG=
200804161300 METAR MROC 161300Z 10013G23KT CAVOK 22/14 A2998 TRAZAS SCT BKN300 BECMG=
200804161400 METAR MROC 161400Z 10014G24KT CAVOK 23/14 A2999 TRAZAS SCT BKN300 BECMG=
200804161500 METAR MROC 161500Z 09014G24KT CAVOK 24/15 A2999 BKN300 BECMG TRAZAS SCT=
200804161600 METAR MROC 161600Z 10016G32KT CAVOK 25/14 A2995 SCT300 TRAZAS SCT BECMG=
200804161700 METAR MROC 161700Z 08016KT CAVOK 26/16 A2997 TRAZAS SCT SCT300 BECMG=
200804161800 METAR MROC 161800Z 08017G27KT CAVOK 26/15 A2995 TRAZAS SC SCT300 BECMG=
200804161900 METAR MROC 161900Z 09016G26KT 9999 FEW040 SCT300 27/15 A2992 BECMG=
200804162000 METAR MROC 162000Z 09020KT 9999 FEW040 BKN300 27/16 A2991 BECMG=
200804162100 METAR MROC 162100Z 09017KT 9999 FEW040 BKN300 25/17 A2990 BECMG=
200804162200 METAR MROC 162200Z 10014G26KT 9999 FEW040 BKN280 25/17 A2988 BECMG=
200804162300 METAR MROC NIL=
200804170000 METAR MROC 170000Z 11011KT 9999 FEW030 BKN270 22/17 A2991 VEL MAX VTO 16KTS=
200804170100 METAR MROC 170100Z 12014G26KT CAVOK 22/17 A2992 TRACE SCT SCT250 BECMG=
200804170200 METAR MROC 170200Z 10013KT CAVOK 21/17 A2994 TRACE SCT SCT250 VEL MAX VIENTO 20KTS BECMG=
200804170300 METAR MROC NIL=
200804170500 METAR MROC 170500Z 06003KT CAVOK 21/17 A2997 RMK TRACE SC SCT250=
200804170600 METAR MROC 170600Z 13007KT CAVOK 21/17 A2994 RMK TRACE SC FEW080 SCT250 BECMG=
200804170700 METAR MROC 170700Z 11009KT CAVOK 22/17 A2992 RMK TARCE SC FEW080 SCT250 BECMG=
200804170800 METAR MROC 170800Z 07007KT CAVOK 21/17 A2990 RMK TRACE SC SCT100 SCT250=
200804170900 METAR MROC 170900Z 07008KT CAVOK 22/18 A2989 RMK TRACE SC SCT100 FEW250=
200804171000 METAR MROC 171000Z 10007KT CAVOK 22/18 A2990 RMK TRACE SC SCT100 FEW250=
200804171100 METAR MROC 171100Z 12011KT CAVOK 22/17 A2989 RMK TRACE SC SCT100 FEW250=
200804171200 METAR MROC 171200Z 11010KT 060V120 9999 FEW030 SCT120 SCT250 22/17 A2992 RN DST N NE=
200804171300 METAR MROC 171300Z 09007KT 9999 FEW030 SCT120 BKN250 23/18 A2994 VIS N NE 8KM DUE RN BECMG=
200804171400 METAR MROC 171400Z 12012G22KT 9999 SCT030 BKN250 24/18 A2996 VIS N NE 8KM DUE RN BECMG=
200804171500 METAR MROC 171500Z 12010KT 9999 4000NE -RA SCT020 BKN140 23/19 A2997 BECMG=
200804171600 METAR MROC 171600Z 12011KT 9999 -RA SCT020 BKN120 22/19 A2997 VIS NNE 8KM DUE RN AND DZ BECMG=
200804171700 METAR MROC 171700Z 12011KT 9999 -DZ FEW020 BKN120 23/18 A2996 RERA VEL MAX VIENTO 16KTS BECMG=
200804171800 METAR MROC 171800Z 11012KT 9999 FEW025 BKN120 24/16 A2994 REDZ VEL MAX VIENTO 17TS BECMG=
200804171900 METAR MROC 171900Z 13014KT 9999 FEW025 BKN140 26/15 A2991 BECMG=
200804172000 METAR MROC 172000Z 10013G26KT 9999 FEW030 BKN140 26/16 A2991 BECMG=
200804172100 METAR MROC 172100Z 12013G23KT 9999 FEW030 SCT120 BKN250 29/16 A2990 BECMG=
200804172200 METAR MROC 172200Z 12013KT 9999 FEW030 BKN250 25/17 A2990 RMK TRACE AC VEL MAX VTO 18KT BECMG=
200804172300 METAR MROC 172300Z 13011KT 9999 FEW035 SCT250 24/17 A2991 BECMG=
200804180000 METAR MROC 180000Z 11013G24KT CAVOK 23/17 A2992 RMK TRACE SC AC BKN280 BECMG=
200804180100 METAR MROC 180100Z 10009KT CAVOK 22/17 A2994 RMK TRACE SC AC BKN250=
200804180200 METAR MROC 180200Z 10011G21KT 9999 FEW035 SCT120 22/17 A2995 BECMG=
200804180300 METAR MROC 180300Z 10009KT CAVOK 22/17 A2996 TRAZAS SCT BKN100 BECMG=
200804180400 METAR MROC 180400Z 10009G19KT CAVOK 22/17 A2995 TRAZAS SCT BKN120 BECMG=
200804180500 METAR MROC 180500Z 08008KT CAVOK 22/17 A2995 TRAZAS SCT SCT120 BECMG=
200804180600 METAR MROC 180600Z 07006KT CAVOK 22/17 A2995 TRAZAS SCT FEW120 BECMG=
200804180700 METAR MROC 180700Z 10008KT CAVOK 22/17 A2994 FEW120 BECMG=
200804180800 METAR MROC NIL=
200804180900 METAR MROC 180900Z 09007KT CAVOK 21/17 A2990 TRAZAS SCT SCT100=
200804181000 METAR MROC 181000Z 09011KT CAVOK 22/17 A2990 FEW120 TRAZAS SC=
200804181100 METAR MROC 181100Z 09011KT CAVOK 22/17 A2990 FEW100 SCT120 BECMG=
200804181200 METAR MROC 181200Z 06006KT 9999 FEW045 22/17 A2991 FEW120 BECMG=
200804181300 METAR MROC 181300Z 06009KT 9999 SCT040 24/18 A2995 RMK DZ DST NE BECMG=
200804181400 METAR MROC 181400Z 10010KT 9999 FEW040 24/18 A2996 RMK TRACE AC CI=
200804181500 METAR MROC 181500Z 11011KT 9999 SCT035 25/18 A2997 RMK FEW100 DZ DST NE BECMG=
200804181600 METAR MROC 181600Z 12011KT 9999 FEW030 SCT090 26/18 A2996 RMK DZ DST NE VEL  MAX VTO 18KT BECMG=
200804181700 METAR MROC 181700Z 12011KT 9999 SCT030 SCT090 28/19 A2996 RMK DZ DST NE E VEL MAX VTO 16KT BECMG=
200804181800 METAR MROC 181800Z 10008KT 9999 -RA SCT0025 BKN090 24/21 A2996 BECMG=
200804181900 METAR MROC 181900Z 12009KT 9999 -RA FEW025 BKN090 23/19 A2993 BECMG=
200804182000 METAR MROC 182000Z 11011KT 9999 FEW025 BKN120 24/18 A2993 RMK DZ DST NE BECMG=
200804182100 METAR MROC 182100Z 13011KT 9999 -RA SCT022 BKN120 23/18 A2992 BECMG=
200804182200 METAR MROC 182200Z 13011KT 9999 SCT020 SCT120 23/18 A2991 BECMG=
200804182300 METAR MROC 182300Z 10005KT 9999 SCT020 SCT120 24/18 A2992 RMK RN DST NE BECMG=
200804190000 METAR MROC 190000Z 12009KT 9999 FEW025 SCT110 22/18 A2993 RMK RN NE BECMG=
200804190100 METAR MROC 190100Z 10012KT 9999 FEW035 23/17 A2993 RMK BECMG CAVOK=
200804190200 METAR MROC 190200Z 14005KT 9999 FEW035 23/17 A2995 BECMG=
200804190300 METAR MROC 190300Z 12010KT CAVOK 22/17 A2998 TRACE SCT BECMG=
200804190400 METAR MROC 190400Z 10007KT CAVOK 22/18 A3000 TRACE SCT BECMG=
200804190500 METAR MROC 190500Z 08006KT CAVOK 21/18 A3000 TRACE SCT BECMG=
200804190600 METAR MROC 190600Z 11012KT CAVOK 22/18 A2996 TRACE SCT BECMG=
200804190700 METAR MROC NIL=
200804190800 METAR MROC 190800Z 13010KT CAVOK 22/18 A2992 TRACE SCT BECMG=
200804190900 METAR MROC 190900Z 09010KT CAVOK 21/17 A2992 TRACE SC BECMG=
200804191000 METAR MROC 191000Z 08010KT CAVOK 21/17 A2992 TRACE SC BECMG=
200804191100 METAR MROC 191100Z 08008KT CAVOK 20/17 A2994 TRACE SCT BECMG=
200804191200 METAR MROC 191200Z 06008KT 9999 FEW040 SCT250 21/17 A2995 BECMG=
200804191300 METAR MROC 191300Z 11014KT 9999 FEW025 SCT250 23/18 A2997 RMK RN N NE BECMG=
200804191400 METAR MROC 191400Z 11011KT 9999 FEW025 SCT250 25/18 A2998 RMK RN N NE BECMG=
200804191500 METAR MROC 191500Z 13014KT 9999 SCT025 26/19 A3000 RMK RN N NE BECMG=
200804191600 METAR MROC 191600Z 13012KT 9999 FEW020 SCT030 25/18 A3001 RMK RN N NE BECMG=
200804191700 METAR MROC 191700Z 07012G22KT 9999 FEW020 SCT030 25/18 A3000 RMK RN N NE BECMG=
200804191800 METAR MROC 191800Z 10012KT 9999 FEW020 SCT030 28/18 A2997 RMK RN N NE BECMG=
200804191900 METAR MROC 191900Z 14012KT 9999 FEW020 SCT030 27/18 A2995 RMK RN N NE BECMG=
200804192000 METAR MROC 192000Z 11010KT 9999 FEW020 SCT030 28/18 A2992 RMK RN N NE BECMG=
200804192100 METAR MROC 192100Z 13012KT 9999 SCVT030 SCT100 28/18 A2990 RMK RN N NE SW BECMG=
200804192200 METAR MROC 192200Z 12011KT 9999 SCT030 SCT100 26/17 A2991 RK RN NE BECMG=
200804192300 METAR MROC 192300Z 12011KT 9999 SCT030 BKN100 24/17 A2993 BECMG=
200804200000 METAR MROC 200000Z 12008KT 9999 FEW030 BKN100 23/17 A2995 BECMG=
200804200100 METAR MROC 200100Z 12012KT 9999 FEW030 SCT100 BKN250 22/17 A2996 BECMG=
200804200200 METAR MROC 200200Z 11012KT 9999 FEW030 22/17 A2997 RMK BECMG CAVOK=
200804200300 METAR MROC 200300Z 11012KT CAVOK 22/17 A2998 RMK TRACE SC BKN250 BECMG=
200804200400 METAR MROC 200400Z 12010G20KT CAVOK 22/17 A2999 RMK TRACE SC BKN250 BECMG=
200804200500 METAR MROC 200500Z 12010KT CAVOK 22/17 A2998 RMK TRACE SC BKN250 BECMG=
200804200600 METAR MROC 200600Z 10010G20KT CAVOK 22/16 A2997 RMK TRACE SC BKN250 BECMG=
200804200700 METAR MROC 200700Z 09007KT CAVOK 22/16 A2995 RMK TRACE SC BKN250 BECMG=
200804200800 METAR MROC 200800Z 11009KT CAVOK 22/17 A2992 RMK TRACE SC SCT250=
200804200900 METAR MROC 200900Z 11006KT CAVOK 21/16 A2993 RMK TRACE SC AC SCT250=
200804201000 METAR MROC 201000Z 10006KT CAVOK 21/17 A2993 RMK TRACE SC AC SCT250=
200804201100 METAR MROC 201100Z 08008KT CAVOK 21/17 A2994 RMK TRACE AC SC SCT250=
200804201200 METAR MROC 201200Z 07006KT CAVOK 21/17 A2995 RMK TRACE SC AC BKN250=
200804201300 METAR MROC 201300Z 12008KT 080V160 9999 FEW040 BKN250 23/17 A2997 BECMG=
200804201400 METAR MROC 201400Z 11014KT 9999 FEW040 BKN250 24/18 A2998 BECMG=
200804201500 METAR MROC 201500Z 13007KT 9999 FEW035 BKN250 27/18 A2999 BECMG=
200804201600 METAR MROC 201600Z 12011KT 9999 SCT035 SCT100 26/18 A2999 RMK FEW250 BECMG=
200804201700 METAR MROC 201700Z 11011KT 9999 SCT035 SCT100 28/18 A2998 RMK FEW250 BECMG=
200804201800 METAR MROC 201800Z 10011KT 9999 SCT035 BKN250 29/18 A2996 RNK TRACE AC BECMG=
200804201900 METAR MROC 201900Z 12011KT 9999 SCT030 BKN250 29/18 A2993 BECMG=
200804202000 METAR MROC 202000Z 13011KT 9999 SCT030 BKN250 29/19 A2991 BECMG=
200804202100 METAR MROC 202100Z 13014KT 9999 SCT045 SCT090 27/19 A2989 BECMG=
200804202200 METAR MROC 202200Z 12011KT 9999 FEW035 OVC250 25/18 A2990 BECMG=
200804202300 METAR MROC 202300Z 13009KT 9999 FEW030 OVC250 25/18 A2992 CB DST SW RN N BECMG=
200804210000 METAR MROC 210000Z 13009KT 9999 FEW030 OVC250 24/18 A2993 BECMG=
200804210100 METAR MROC 210100Z 13009KT 9999 FEW035 SCT250 23/18 A2997 BECMG=
200804210200 METAR MROC 210200Z 10007KT 9999 FEW035 23/18 A2997 BECMG=
200804210300 METAR MROC 210300Z 07007KT 9999 FEW025 23/18 A2998 BECMG=
200804210400 METAR MROC 210400Z 07010KT 9999 FEW035 22/18 A2999 BECMG=
200804210500 METAR MROC 210500Z 07008KT 9999 FEW035 22/17 A2998 BECMG=
200804210600 METAR MROC NIL=
200804210700 METAR MROC 210700Z 06012KT 9999 FEW035 21/18 A2996 BECMG=
200804210800 METAR MROC NIL=
200804210900 METAR MROC 210900Z 09004KT 9999 FEW004 19/17 A2994 BECMG=
200804211000 METAR MROC 211000Z 00000KT 9999 FEW035 19/17 A2995 BECMG=
200804211100 METAR MROC 211100Z 10005KT 9999 FEW035 SCT250 20/12 A2996 RMKM CB DST E BECMG=
200804211200 METAR MROC 211200Z 11011KT 9999 FEW035 SCT250 21/17 A2997 RMK CB RN DST E BECMG=
200804211300 METAR MROC 211300Z 09005KT 9999 FEW035 BKN250 23/17 A2999 BECMG=
200804211400 METAR MROC 211400Z 11009KT CAVOK 25/18 A3000 TRACE SCT FEW140 BKN250 BECMG=
200804211500 METAR MROC 211500Z 11011KT CAVOK 26/18 A2999 TRACE AC SCT BKN250 BECMG=
200804211534 METAR MROC 211534Z 07012KT 9999 FEW015 SCT025 BKN250 26/18 A2998=
200804211600 METAR MROC 211600Z 12010KT CAVOK 28/18 A2999 TRACE SCT BKN250 BECMG=
200804211654 METAR MROC 211654Z 13012KT 9999 FEW020 SCT040 27/18 A2998 SCT250 BECMG=
200804211700 METAR MROC 211700Z 13012KT 9999 FEW020 SCT040 27/18 A2998 SCT250 BECMG=
200804211800 METAR MROC 211800Z 13012KT 9999 FEW030 SCT050 27/18 A2996 SCT250 BECMG=
200804211900 METAR MROC 211900Z 12010KT 9999 FEW035 BKN250 29/18 A2993 BECMG=
200804212000 METAR MROC 212000Z 13012KT 9999 FEW040TCU BKN250 29/18 A2992 BECMG=
200804212100 METAR MROC 212100Z 13010KT 9999 FEW025 BKN250 28/18 A2991 CB RN DST S BECMG=
200804212200 METAR MROC 212200Z 14012KT 9999 FEW035 SCT080 BKN250 24/18 A2993 BECMG=
200804212300 METAR MROC 212300Z 13008KT 9999 SCT030 OVC250 24/18 A2993 BECMG=
200804220000 METAR MROC 220000Z 12007KT 9999 FEW030 OVC250 24/18 A2995 BECMG=
200804220100 METAR MROC 220100Z 09003KT 9999 FEW035 BKN120 23/18 A2998 RKN LTNG DST SE BECMG=
200804220200 METAR MROC 220200Z 15006KT 9999 FEW035 BKN250 23/18 A2999 BECMG=
200804220300 METAR MROC 220300Z 09005KT CAVOK 22/18 A3000 RK TRACE SCT BKN250 LTNG DST SW BECMG=
200804220400 METAR MROC 220400Z 08006KT CAVOK 22/18 A3000 RMK TRACE SC BKN250 LTNG DST SW BECMG=
200804220500 METAR MROC NIL=
200804220600 METAR MROC 220600Z 00000KT CAVOK 21/17 A2996 RMK TRACE SC SCT250 BECMG=
200804220700 METAR MROC 220700Z 00000KT CAVOK 21/17 A2995 RMK TRACE SC SCT250 BECMG=
200804220800 METAR MROC 220800Z 09005KT CAVOK 19/17 A2994 RMK TRACE SC SCT250=
200804220900 METAR MROC 220900Z 04005KT CAVOK 18/16 A2994 RMK TRACE SC SCT250=
200804221000 METAR MROC 221000Z 07007KT CAVOK 20/17 A2993 RMK TRACE SC SCT250=
200804221100 METAR MROC 221100Z 09005KT CAVOK 20/16 A2994 RMK TRACE SC SCT250=
200804221200 METAR MROC 221200Z 05006KT CAVOK 19/16 A2996 RMK TRACE SC CU TCU DST SW BKN250=
200804221300 METAR MROC 221300Z 09008KT CAVOK 23/16 A2997 TRACE SCT BKN250 BECMG=
200804221353 METAR MROC 221353Z 10010KT CAVOK 25/16 A2999 TRACE SCT BKN250 BECMG=
200804221400 METAR MROC 221400Z 10010KT CAVOK 25/16 A2999 TRACE SCT BKN250 BECMG=
200804221500 METAR MROC 221500Z 13007KT CAVOK 27/16 A2999 TRACE SCT SCT250 BECMG 24008KT=
200804221600 METAR MROC 221600Z 14006KT 9999 FEW040 BKN250 28/17 A2999 BECMG 24006KT=
200804221700 METAR MROC 221700Z 24008KT 9999 SCT030TCU BKN250 27/18 A2998 BECMG=
200804221800 METAR MROC 221800Z 26008KT 9999 SCT030TCU BKN250 29/18 A2997 BECMG=
200804221900 METAR MROC 221900Z 24009KT 9999 SCT030TCU SCT250 29/18 A2994 BECMG=
200804222000 METAR MROC 222000Z 25013KT 9999 SCT020CB SCT030 28/21 A2991 RMK RN DST N SW BECMG=
200804222100 METAR MROC 222100Z 23008KT 8000 3000SW VCSH SCT020CB BKN030 23/20 A2992 RMK VIS 5000 SE BECMG 6000 RA=
200804222200 METAR MROC 222200Z 00000KT 9999 -RA SCT020 BKN090 22/20 A2993 BECMG=
200804222300 METAR MROC 222300Z 00000KT 9999 SCT030 BKN120 23/20 A2994 BECMG=
200804230000 METAR MROC 230000Z 00000KT CAVOK 23/20 A2994 RMK TRACE SC SCT120 SCT250 BECMG=
200804230100 METAR MROC 230100Z 09002KT CAVOK 22/18 A2996 RMK TRACE SC FEW120 SCT250 BECMG=
200804230200 METAR MROC 230200Z 09010KT CAVOK 23/18 A2997 RMK TRACE SC FEW120 BECMG=
200804230300 METAR MROC 230300Z 08006KT 9999 SCT045 SCT120 22/18 A2999 BECMG=
200804230400 METAR MROC 230400Z 10005KT 9999 FEW035 22/18 A3000 FEW250 BECMG=
200804230500 METAR MROC 230500Z 08010KT CAVOK 22/18 A3000 TRAZAS SCT SCT120 BECMG=
200804230600 METAR MROC 230600Z 08006KT CAVOK 21/17 A2998 SCT280 TRAZAS SCT BECMG=
200804230700 METAR MROC 230700Z 11006KT CAVOK 21/17 A2997 SCT280 BECMG=
200804231100 METAR MROC NIL=
200804231200 METAR MROC NIL=
200804231300 METAR MROC NIL=
200804231400 METAR MROC NIL=
200804231500 METAR MROC NIL=
200804231600 METAR MROC NIL=
200804231700 METAR MROC 231700Z 11009KT 9999 FEW035 SCT080 28/15 A3002 BECMG 24008KT=
200804231800 METAR MROC 231800Z 14007KT 9999 FEW035 29/15 A2998 RMK TRACE CI BECMG=
200804231900 METAR MROC 231900Z 14007KT 9999 FEW035 30/14 A2995 RMK FEW250 BECMG=
200804232000 METAR MROC 232000Z 10005KT 9999 SCT035 SCT250 30/15 A2992 BECMG 24008KT=
200804232100 METAR MROC 232100Z 23009KT 9999 SCT025TCU SCT250 27/20 A2991 RMK TCU RN DST SW BECMG=
200804232200 METAR MROC 232200Z 24008KT 9999 SCT025TCU BKN250 26/21 A2992 RMK TCU RN DST SW BECMG=
200804232300 METAR MROC 232300Z 21007KT 9999 SCT020TCU SCT030 25/19 A2994 RMK TCU RN N NE BECMG=
200804240000 METAR MROC 240000Z 13005KT 9999 SCT020TCU SCT200 24/18 A2995 RMK CB DST S TCU SW BECMG=
200804240100 METAR MROC 240100Z 13006KT 9999 SCT020 SCT200 23/17 A2998 BECMG=
200804240200 METAR MROC 240200Z 13004KT 9999 SCT025 22/18 A3000 RMK FEW250 BECMG=
200804240300 METAR MROC 240300Z 11007KT 9999 FEW024 22/17 A3001 TRACE AC BECMG=
200804240400 METAR MROC 240400Z 09006KT 9999 FEW035 21/17 A3003 TRACE AC CI BECMG=
200804240500 METAR MROC 240500Z 10006KT CAVOK 22/16 A3002 TRACE SCT SCT250 BECMG=
200804240558 METAR MROC 250600Z 09004KT CAVOK 21/16 A3002 TRACE SC CI BECMG=
200804240600 METAR MROC NIL=
200804240700 METAR MROC 240700Z 07008KT CAVOK 20/16 A3000 TRACE SC CI BECMG=
200804240800 METAR MROC NIL=
200804240900 METAR MROC 240900Z 09006KT CAVOK 20/16 A2996 TRACE SCT BECMG=
200804241000 METAR MROC 241000Z 07008KT CAVOK 19/16 A2998 TRACE AC SCT BECMG=
200804241100 METAR MROC 241100Z 07008KT CAVOK 19/15 A2999 TRACE SCT AC CI BECMG=
200804241200 METAR MROC 241200Z 07007KT CAVOK 18/14 A3001 TRACE SCT AC SCT250 BECMG=
200804241300 METAR MROC 241300Z 06009KT CAVOK 22/15 A3003 RMK TRACE SC SCT250 BECMG=
200804241400 METAR MROC 241400Z 09008KT CAVOK 25/15 A3003 RMK TRACE SC BKN270 BECMG=
200804241500 METAR MROC 241500Z 10009KT CAVOK 26/15 A3004 TRACE SCT BKN270 BECMG=
200804241600 METAR MROC 241600Z 10008KT 9999 FEW040 SCT300 28/14 A3003 BECMG=
200804241700 METAR MROC 241700Z 10007KT 9999 FEW040 SCT300 29/13 A3002 BECMG=
200804241800 METAR MROC 241800Z 16003KT 9999 FEW040 30/13 A3000 BECMG 24010KT=
200804241900 METAR MROC 241900Z 22008KT 9999 FEW040 29/16 A2997 BECMG=
200804242000 METAR MROC 242000Z 25010KT 9999 SCT040 29/18 A2995 BECMG=
200804242100 METAR MROC NIL=
200804242200 METAR MROC NIL=
200804242300 METAR MROC NIL=
200804250000 METAR MROC NIL=
200804250100 METAR MROC 250100Z 14007KT 9999 SCT030 BKN100 23/17 A2998 BECMG=
200804250200 METAR MROC 250200Z 10006KT 9999 FEW030 BKN100 23/17 A3000 BECMG=
200804250300 METAR MROC 250300Z 10004KT 9999 FEW030 SCT120 SCT250 22/17 A3002 RMK CB LNTG DST S BECMG=
200804250400 METAR MROC 250400Z 10004KT 9999 FEW030 SCT120 22/17 A3002 BECMG=
200804250500 METAR MROC 250500Z 08004KT CAVOK 22/17 A3001 RMK TRACE SC SCT120 BECMG=
200804250600 METAR MROC 250600Z 08007KT CAVOK 20/15 A3001 RMK TRACE SC SCT120 BECMG=
200804250700 METAR MROC 250700Z 07007KT CAVOK 20/14 A2999 RMK TRACE SC SCT120 BECMG=
200804250800 METAR MROC 250800Z 11009KT CAVOK 20/15 A2997 RMK TRACE SC SCT250=
200804250900 METAR MROC 250900Z 10007KT CAVOK 20/15 A2996 RNK TRACE SCT FEW120=
200804251000 METAR MROC 251000Z 07006KT CAVOK 20/15 A2997 RMK TRACE SC FEW1200=
200804251100 METAR MROC 251100Z 11008KT CAVOK 20/14 A2998 RMK TRACE SC AC CB DST S=
200804251200 METAR MROC 251200Z 07006KT CAVOK 20/14 A2999 RMK TRACE SC CI=
200804251300 METAR MROC 251300Z 08005KT CAVOK 22/14 A3000 RMK TRACE SC CU FEW250=
200804251400 METAR MROC 251400Z 12011KT CAVOK 24/15 A3000 RMK TRACE SC FEW250=
200804251500 METAR MROC 251500Z 13010KT CAVOK 27/13 A3000 RMK FEW250 BECMG=
200804251600 METAR MROC 251600Z 11007KT CAVOK 28/12 A2999 RMK TRACE SC CU CI BECMG=
200804251700 METAR MROC 251700Z 12005KT CAVOK 29/12 A2997 RMK TRACE SC BECMG=
200804251800 METAR MROC 251800Z 26007KT 9999 FEW040 30/12 A2995 BECMG=
200804251900 METAR MROC 251900Z 22009KT 9999 FEW040 29/18 A2993 BECMG=
200804252000 METAR MROC 252000Z 23008KT 9999 SCT035 29/19 A2991 BECMG=
200804252100 METAR MROC 252100Z 24011KT 9999 SCT030 27/18 A2989 BECMG 7000 VCSH=
200804252200 METAR MROC 252200Z 20009KT 9999 FEW020TCU SCT030 26/20 A2990 TCU RN S BECMG=
200804252300 METAR MROC 252300Z 20006KT 9999 FEW020 SCT030 24/20 A2992 RN N S BECMG=
200804260000 METAR MROC 260000Z 23007KT 9999 SCT040 SCT080 23/20 A2994 RN DST SE BECMG=
200804260100 METAR MROC 260100Z 16006KT 9999 FEW035 SCT080 22/19 A2996 RMK BECMG CAVOK=
200804260200 METAR MROC 260200Z 15003KT 9999 FEW035 23/17 A2998 BECMG=
200804260300 METAR MROC 260300Z 00000KT 9999 FEW035 21/18 A3001 BECMG=
200804260400 METAR MROC 260400Z 12006KT 9999 FEW035 21/17 A3001 BECMG=
200804260500 METAR MROC 260500Z 10007KT 9999 FEW035 SCT100 21/16 A3000 BECMG=
200804260600 METAR MROC 260600Z 08005KT 9999 FEW035 SCT100 21/15 A2998 BECMG=
200804260700 METAR MROC 260700Z 08005KT 9999 FEW035 SCT100 19/15 A2996 BECMG=
200804260800 METAR MROC 260800Z 08007KT 9999 FEW035 SCT100 20/13 A2995 BECMG=
200804260900 METAR MROC 260900Z 07005KT 9999 FEW035 SCT100 20/14 A2994 BECMG=
200804261000 METAR MROC 261000Z 10005KT 9999 FEW035 SCT100 20/15 A2995 BECMG=
200804261100 METAR MROC 261100Z 09007KT 9999 FEW035 SCT100 20/15 A2996 BECMG=
200804261200 METAR MROC 261200Z 09008KT CAVOK 20/14 A2998 RMK SCT100 BECMG=
200804261300 METAR MROC 261300Z 08005KT CAVOK 22/15 A2999 FEW100 BKN260 BECMG=
200804261400 METAR MROC 261400Z 10009KT CAVOK 25/15 A3000 FEW100 SCT260 BECMG=
200804261500 METAR MROC 261500Z 10009KT CAVOK 26/15 A3000 BKN260 BECMG=
200804261600 METAR MROC 261600Z 11007KT 9999 FEW030 BKN260 27/16 A3000 BECMG=
200804261700 METAR MROC 261700Z 25010KT 9999 FEW040 BKN260 28/18 A3000 FEW080 BECMG=
200804261800 METAR MROC 261800Z 21008KT 9999 FEW040 BKN260 28/17 A2998 BECMG=
200804261900 METAR MROC 261900Z 23009KT 9999 FEW040 BKN260 28/18 A2994 BECMG=
200804262000 METAR MROC 262000Z 23012KT 9999 FEW040 BKN260 28/19 A2992 BECMG=
200804262100 METAR MROC 262100Z 25010KT 9999 SCT040TCU BKN250 28/20 A2991 BECMG=
200804262200 METAR MROC 262200Z 25010KT 9999 FEW035TCU BKN250 27/20 A2991 BECMG=
200804262300 METAR MROC 262300Z 22007KT 9999 SCT030TCU SCT250 24/20 A2992 RN DIST NE TRACE AC BECMG=
200804262353 METAR MROC 270000Z 21006KT 9999 BKN037 SCT250 23/20 A2994 TCU DIST W BECMG=
200804270000 METAR MROC 270000Z 21006KT 9999 BKN037 SCT250 23/20 A2994 TCU DIST W BECMG=
200804270100 METAR MROC 270100Z 13003KT 9999 SCT035 BKN100 24/18 A2996 BECMG=
200804270200 METAR MROC 270200Z 13004KT 9999 FEW035 SCT120 23/17 A2997 BECMG=
200804270300 METAR MROC 270300Z 00000KT 9999 FEW030 SCT120 22/17 A2999 BECMG=
200804270400 METAR MROC 270400Z 09006KT 9999 FEW030 SCT120 21/17 A3000 BECMG=
200804270500 METAR MROC 270500Z 08007KT CAVOK 20/16 A2999 RMK TRACE SC AC FEW250 BECMG=
200804270600 METAR MROC 270600Z 07006KT CAVOK 20/16 A2998 RMK TRACE SC FEW250=
200804270700 METAR MROC 270700Z 08006KT CAVOK 20/16 A2996 RMK TRACE SC FEW250 BECMG=
200804270800 METAR MROC 270800Z 09006KT CAVOK 20/16 A2994 RMK TRACE SC FEW250=
200804270900 METAR MROC 270900Z 08007KT CAVOK 20/16 A2994 RMK TRACE SC FEW250=
200804271000 METAR MROC 271000Z 10007KT CAVOK 20/16 A2995 RMK TRACE SC FEW250=
200804271100 METAR MROC 271100Z 10005KT CAVOK 19/15 A2996 RMK FEW250 TRACE SC=
200804271200 METAR MROC 271200Z 07005KT CAVOK 19/15 A2998 RMK TRACE SC BKN260=
200804271300 METAR MROC 271300Z 10007KT CAVOK 21/16 A2999 TRACE SCT BKN270 BECMG=
200804271400 METAR MROC 271400Z 11008KT CAVOK 24/16 A3001 TRACE SCT BKN270 BECMG=
200804271500 METAR MROC 271500Z 11012KT CAVOK 25/16 A3000 TRACE SCT BKN270 BECMG=
200804271600 METAR MROC 271600Z 12010KT CAVOK 27/16 A2999 TRACE CU BKN270 BECMG=
200804271700 METAR MROC 271700Z 10009KT 9999 FEW040 SCT270 28/16 A2998 BECMG=
200804271800 METAR MROC 271800Z 09008KT 9999 SCT038 SCT270 29/16 A2996 BECMG=
200804271900 METAR MROC 271900Z 24006KT 9999 SCT035TCU BKN250 28/18 A2993 BECMG=
200804272000 METAR MROC 272000Z 23007KT 9999 SCT035 SCT250 27/18 A2991 BECMG=
200804272100 METAR MROC 272100Z 26008KT 9999 BKN035 SCT250 27/18 A2991 RMK RN DST SSW BECMG=
200804272200 METAR MROC 272200Z 22006KT 9999 FEW035 BKN120 22/20 A2992 RMK RN DST SW BECMG=
200804272300 METAR MROC 272300Z 26004KT 9999 FEW035 SCT120 SCT250 23/18 A2994 BECMG=
200804280000 METAR MROC 280000Z 00000KT CAVOK 23/17 A2995 RMK FEW120 BKN250 BECMG=
200804280100 METAR MROC 280100Z 17003KT CAVOK 22/16 A2998 RMK SCT120 BECMG=
200804280200 METAR MROC 280200Z 00000KT CAVOK 21/16 A3001 RMK FEW120 BECMG=
200804280300 METAR MROC 280300Z 09006KT 9999 FEW035 SCT080 21/15 A3003 BECMG=
200804280400 METAR MROC 280400Z 12004KT 9999 FEW045 SCT080 21/15 A3003 BECMG=
200804280500 METAR MROC 280500Z 09007KT 9999 FEW045 SCT080 21/13 A3002 BECMG=
200804280600 METAR MROC 280600Z 07006KT CAVOK 21/11 A3001 SCT080 TRAZAS SCT BECMG=
200804280700 METAR MROC NIL=
200804280800 METAR MROC NIL=
200804280900 METAR MROC NIL=
200804281000 METAR MROC 281000Z 00000KT CAVOK 19/13 A2998 SCT280=
200804281100 METAR MROC 281100Z 07007KT CAVOK 18/12 A3000 FEW100 BKN260=
200804281200 METAR MROC 281200Z 07007KT CAVOK 19/12 A3001 FEW120 BKN260 BECMG=
200804281300 METAR MROC 281300Z 08007KT CAVOK 22/14 A3003 RMK BKN250 BECMG=
200804281400 METAR MROC 281400Z 10008KT CAVOK 25/13 A3004 RMK BKN250 BECMG=
200804281500 METAR MROC 281500Z 12007KT CAVOK 27/13 A3003 RMK BKN250 BECMG=
200804281600 METAR MROC 281600Z 11009KT CAVOK 28/13 A3002 RMK BKN250 BECMG 24008KT=
200804281700 METAR MROC 281700Z 12010KT CAVOK 28/12 A3001 RMK TRACE SC BKN250 BECMG=
200804281800 METAR MROC 281800Z 12008KT 9999 FEW040 BKN250 28/14 A2998 BECMG=
200804281900 METAR MROC 281900Z 12007KT 9999 FEW040 BKN250 28/14 A2996 BECMG 24006KT=
200804282000 METAR MROC 282000Z 12007KT 9999 FEW035 BKN250 28/14 A2994 BECMG=
200804282100 METAR MROC 282100Z 11008KT 9999 FEW035 BKN220 26/15 A2993 BECMG=
200804282200 METAR MROC 282200Z 12006KT 9999 FEW035 BKN220 26/15 A2993 BECMG=
200804282300 METAR MROC 282300Z 14005KT CAVOK 25/15 A2994 RMK TRACE SC AC BKN250 BECMG=
200804290000 METAR MROC 290000Z 11005KT CAVOK 24/16 A2995 RMK TRACE SC AC BKN250 BECMG=
200804290100 METAR MROC 290100Z 10006KT CAVOK 22/16 A2998 RMK TRACE SC BKN250 BECMG=
200804290200 METAR MROC 290200Z 09007KT CAVOK 22/16 A2999 RMK TRACE SC SCT250 BECMG=
200804290300 METAR MROC 290300Z 11009KT CAVOK 22/16 A3001 TRACE SCT CI BECMG=
200804290400 METAR MROC 290400Z 11008KT CAVOK 21/16 A3003 TRACE SCT CI BECMG=
200804290500 METAR MROC 290500Z 11009KT CAVOK 21/16 A3003 TRACE SCT VEL MAX VIENTO 13KTS BECMG=
200804290600 METAR MROC 290600Z 12010KT CAVOK 21/15 A3000 TRACE SCT BECMG=
200804290700 METAR MROC 290700Z 12006KT CAVOK 20/15 A2999 TRACE SCT BECMG=
200804290800 METAR MROC 290800Z 07006KT CAVOK 20/14 A2998 TRACE SCT BECMG=
200804290900 METAR MROC 290900Z 06006KT CAVOK 18/14 A2998 TRACE SCT BECMG=
200804291000 METAR MROC 291000Z 07008KT CAVOK 19/14 A2998 TRACE SCT BECMG=
200804291100 METAR MROC 291100Z 06008KT CAVOK 18/13 A3000 TRACE SCT BECMG=
200804291200 METAR MROC 291200Z 06007KT CAVOK 19/12 A3002 TRACE SCT SCT260 BECMG=
200804291300 METAR MROC 291300Z 06006KT CAVOK 22/13 A3004 RMK TRACE SC BKN270 BECMG=
200804291400 METAR MROC 291400Z 10009KT CAVOK 25/14 A3004 RMK TRACE SC BKN270 BECMG=
200804291500 METAR MROC 291500Z 11014KT CAVOK 26/14 A3005 RMK TRACE SC AC BKN270 BECMG=
200804291600 METAR MROC 291600Z 09014KT CAVOK 27/15 A3004 RMK TRACE CU AC BKN270 BECMG=
200804291700 METAR MROC 291700Z 09011KT 9999 FEW045 BKN280 27/15 A3003 BECMG=
200804291800 METAR MROC 291800Z 10009KT 9999 FEW045 BKN300 29/16 A3000 RMK FEW120 BECMG=
200804291900 METAR MROC 291900Z 09007KT 9999 FEW045 SCT070 28/16 A2997 BECMG 24008KT=
200804292000 METAR MROC 292000Z 14005KT 9999 FEW040 SCT070 28/16 A2995 BECMG 24008KT=
200804292100 METAR MROC 292100Z 24009KT 9999 FEW030TCU SCT040 SCT070 25/20 A2996 RMK RN DST E/SW BECMG -RA=
200804292200 METAR MROC 292200Z 27008KT 9999 VCSH FEW025TCU SCT035 SCT100 25/20 A2996 REDZ RMK VIS SW 6KM VIS E 7KM BECMG -RA=
200804292300 METAR MROC 292300Z 00000KT 9999 VCSH FEW020 SCT035 21/19 A3000 RERA RMK SCT100 VIS SE/W 8KM BECMG=
200804300000 METAR MROC 300000Z 10006KT 9999 -DZ FEW030 SCT100 21/18 A3001 RMK SCT260 RN SE BECMG=
200804300100 METAR MROC 300100Z 08007KT 9999 SCT030 SCT100 21/17 A3002 REDZ RMK CB/LTNG DST SW BECMG=
200804300200 METAR MROC 300200Z 10004KT 9999 FEW030 SCT100 21/17 A3005 BECMG=
200804300300 METAR MROC 300300Z 08005KT CAVOK 21/17 A3006 RMK TRACE SC SCT100 BECMG=
200804300400 METAR MROC 300400Z 35003KT 9999 FEW030 SCT120 21/18 A3007 BECMG=
200804300500 METAR MROC 300500Z 08006KT CAVOK 21/17 A3005 RMK TRACE SC FEW120 BECMG=
200804300600 METAR MROC 300600Z 08005KT CAVOK 21/17 A3003 RMK TRACE SC SCT120 BECMG=
200804300700 METAR MROC 300700Z 08008KT CAVOK 21/17 A3001 RMK TRACE SC SCT250=
200804300800 METAR MROC 300800Z 08007KT CAVOK 21/17 A2998 RMK TRACE SC SCT129=
200804300900 METAR MROC 300900Z 08006KT CAVOK 21/17 A2998 RMK TRACE AC SCT120=
200804301000 METAR MROC 301000Z 08005KT CAVOK 20/17 A2998 RMK TRACE SC SCT120 SCT250=
200804301100 METAR MROC 301100Z 09011KT CAVOK 21/16 A2999 RMK TRACE SC SCT120 SCT250=
200804301200 METAR MROC 301200Z 11009KT CAVOK 21/16 A2999 RMK TRACE SC SCT120 BKN250=
200804301300 METAR MROC 301300Z 11014KT CAVOK 22/16 A3000 RMK SCT120 BKN270 RAFAGAS DE 20KT BECMG=
200804301400 METAR MROC 301400Z 09012G22KT CAVOK 23/16 A3002 RMK FEW120 BKN270 BECMG=
200804301500 METAR MROC 301500Z 09014KT 9999 FEW040 BKN270 24/17 A3002 RMK RAFAGAS DE 20KT BECMG=
200804301600 METAR MROC 301600Z 11012KT 9999 FEW040 BKN270 27/16 A3002 RMK FEW120 RAFAGAS DE 20KT BECMG=
200804301700 METAR MROC 301700Z 11012KT 9999 FEW040 BKN270 27/16 A3002 RMK FEW120 BECMG=
200804301800 METAR MROC 301800Z 13012KT 9999 FEW040 BKN270 27/17 A2999 RMK FEW120 TCU DST E BECMG=
200804301900 METAR MROC 301900Z 12012KT 9999 FEW040 BKN270 28/16 A2997 RMK FEW120 TCU DST S BECMG=
200804302000 METAR MROC 302000Z 13009KT 9999 SCT040 SCT090 27/16 A2994 RMK FEW270 BECMG=
200804302100 METAR MROC 302100Z 13008KT 9999 BKN045 SCT100 25/17 A2994 RN DST NE E S SW BECMG=
200804302200 METAR MROC 302200Z 12007KT 9999 FEW025 BKN050 24/17 A2997 RN DST ARND BECMG 7000 VCSH=
200804302300 METAR MROC 302300Z 00000KT 7000 -RA FEW020 BKN050 21/19 A3001 VSBY SE S SW UNL BECMG=
200805010000 METAR MROC 010000Z 10003KT 9999 -RA FEW040 BKN080 20/18 A2999 BECMG=
200805010100 METAR MROC 010100Z 08003KT 9999 FEW035 BKN100 20/18 A3002 BECMG=
200805010200 METAR MROC 010200Z 08005KT 9999 FEW035 BKN100 20/17 A3005 RMK BECMG CAVOK=
200805010300 METAR MROC 010300Z 03009KT 9999 FEW035 BKN100 21/17 A3007 BECMG=
200805010400 METAR MROC 010400Z 06010KT CAVOK 21/17 A3006 RMK TRACE SC BKN130 BECMG=
200805010500 METAR MROC 010500Z 00000KT CAVOK 20/17 A3005 RMK TRACE SC BKN130=
200805010600 METAR MROC 010600Z 06004KT CAVOK 19/17 A3003 RMK TRACE SC FEW130 SCT230 BECMG=
200805010700 METAR MROC 010700Z 09005KT CAVOK 19/17 A3000 RMK TRACE SC BKN230 BECMG=
200805010800 METAR MROC 010800Z 09002KT CAVOK 20/16 A2999 RMK TRACE SC BKN200=
200805010900 METAR MROC 010900Z 09003KT CAVOK 20/16 A2998 RMK TRACE SC FEW180=
200805011000 METAR MROC 011000Z 09003KT CAVOK 19/16 A2998 RMK TRACE SC FEW250=
200805011100 METAR MROC 011100Z 09003KT CAVOK 19/16 A3000 RMK TRACE SC SCT270=
200805011200 METAR MROC 011200Z 08006KT CAVOK 19/16 A3000 RMK TRACE SC SCT270 DIST CB TO S=
200805011225 METAR MROC 011225Z 12009KT CAVOK 21/15 A2998 SCT250=
200805011300 METAR MROC 011300Z 08006KT CAVOK 22/16 A3002 RMK SCT250 BECMG=
200805011400 METAR MROC 011400Z 11008KT CAVOK 24/15 A3003 RMK SCT250 BECMG=
200805011500 METAR MROC 011500Z 11008KT CAVOK 26/16 A3002 RMK SCT250 BECMG=
200805011600 METAR MROC 011600Z 12008KT CAVOK 27/16 A3002 RMK TRACE SC BKN250 BECMG=
200805011700 METAR MROC NIL=
200805011800 METAR MROC NIL=
200805011900 METAR MROC 011900Z 24010KT 9999 SCT030 BKN250 27/19 A2996 BECMG=
200805012000 METAR MROC 012000Z 25010KT 9999 FEW020TCU SCT030 SCT250 27/20 A2994 RMK VIS 8000NE VCSH RN DST N BECMG=
200805012100 METAR MROC 012100Z 08008G18KT 3000 -TSRA FEW008CB BKN025 21/18 A2995 RMK VIS SW W UNL BECMG=
200805012200 METAR MROC 012200Z 16003KT 9999 SCT020 OVC110 21/18 A2994 RERA RASH=
200805012300 METAR MROC 012300Z 00000KT 9999 FEW040 OVC110 22/18 A2996 BECMG=
200805012354 METAR MROC 012354Z 00000KT CAVOK 21/19 A2997 TRACE SCT OVC150 BECMG=
200805020000 METAR MROC 020000Z 00000KT CAVOK 21/19 A2997 TRACE SCT OVC150 BECMG=
200805020100 METAR MROC 020100Z 00000KT 9999 FEW035 BKN100 21/19 A2999 RMK BECMG CAVOK=
200805020200 METAR MROC 020200Z 06003KT 9999 FEW035 SCT100 21/18 A3000 BECMG=
200805020300 METAR MROC 020300Z 08004KT 9999 FEW035 SCT120 20/18 A3002 BECMG=
200805020400 METAR MROC 020400Z 06005KT CAVOK 19/18 A3002 RMK FEW120 FEW250 BECMG=
200805020500 METAR MROC 020500Z 04005KT CAVOK 19/17 A3001 RMK FEW250 BECMG=
200805020600 METAR MROC 020600Z 00000KT CAVOK 18/17 A3000 RMK FEW250 BECMG=
200805020700 METAR MROC 020700Z 07004KT CAVOK 18/16 A2998 RMK FEW250 BECMG=
200805020800 METAR MROC 020800Z 00000KT CAVOK 18/15 A2996 RMK FEW250=
200805020900 METAR MROC 020900Z 00000KT CAVOK 17/15 A2995 RMK SCT250 CB/LTNG DST S=
200805021000 METAR MROC 021000Z 00000KT CAVOK 17/15 A2996 RMK SCT250 LTNG DST S=
200805021100 METAR MROC 021100Z 06006KT CAVOK 17/14 A2997 RMK SCT250=
200805021200 METAR MROC 021200Z 09006KT CAVOK 17/15 A2999 RMK SCT250 HZ LGT ARND CB DST S=
200805021300 METAR MROC 021300Z 10004KT CAVOK 20/16 A3002 CB DIST S HZ ARND SCT250 BECMG=
200805021400 METAR MROC 021400Z 07005KT CAVOK 23/16 A3003 TRACE SCT BKN250 HZ LGT ARND BECMG=
200805021500 METAR MROC 021500Z 14004KT CAVOK 26/16 A3002 TRACE CU BKN250 HZ LGT ARND BECMG=
200805021600 METAR MROC 021600Z 26006KT 9999 FEW040 SCT250 26/19 A3002 HZ W BECMG=
200805021700 METAR MROC 021700Z 23008KT 9999 FEW035 SCT250 27/18 A3000 HZ W BECMG=
200805021800 METAR MROC 021800Z 22008KT 9999 SCT030TCU SCT250 27/19 A2998 BECMG=
200805021900 METAR MROC 021900Z 24010KT 9999 SCT030TCU 28/20 A2995 TRACE CI BECMG=
200805022000 METAR MROC 022000Z 24014KT 9999 FEW022TCU SCT030 BKN250 27/21 A2993 RMK RN DIST E BECMG 8000 VCSH=
200805022100 METAR MROC 022100Z 20003KT 9999 3000NE -TS VCSH SCT020CB BKN030 25/19 A2994 RMK VIS 5000 E SE BECMG 6000 -TSRA=
200805022200 METAR MROC 022200Z 12003KT 9999 SCT030 BKN250 23/17 A2993 RMK FEW120 BECMG=
200805022300 METAR MROC 022300Z 07002KT 9999 FEW015 SCT100 BKN250 24/19 A2994 BECMG=
200805030000 METAR MROC 030000Z 21007KT 7000 3000SW RA FEW005 SCT015 BKN090 21/21 A2997 BECMG=
200805030100 METAR MROC 030100Z 22006KT 9999 -DZ SCT030 BKN100 21/20 A3000 BECMG=
200805030200 METAR MROC 030200Z 00000KT 9999 FEW035 BKN120 21/19 A3002 BECMG=
200805030300 METAR MROC 030300Z 32003KT 9999 SCT040 21/20 A3003 BECMG=
200805030400 METAR MROC 030400Z 00000KT 9999 9999 SCT040 20/19 A3003=
200805030500 METAR MROC 030500Z 00000KT 9999 SCT045 20/19 A3003 BECMG=
200805030600 METAR MROC 030600Z 00000KT 9999 FEW040 20/19 A3000 BECMG=
200805030700 METAR MROC 030700Z 10003KT 9999 FEW030 20/19 A2997 BECMG=
200805030800 METAR MROC NIL=
200805030900 METAR MROC NIL=
200805031000 METAR MROC 031000Z 07003KT CAVOK 19/17 A2995 SCT280=
200805031100 METAR MROC 031100Z 00000KT CAVOK 18/16 A2997 SCT280=
200805031200 METAR MROC 031200Z 00000KT CAVOK 18/17 A2999 TRAZAS SCT FEW080 SCT260 HZY BECMG=
200805031300 METAR MROC 031300Z 00000KT CAVOK 22/18 A3001 RMK BKN250 HZ ARND BECMG=
200805031400 METAR MROC 031400Z 00000KT CAVOK 24/18 A3002 RMK TRACE SC SCT250 HZ=
200805031500 METAR MROC 031500Z 27003KT CAVOK 26/19 A3002 RMK TRACE SC SCT250 HZ=
200805031600 METAR MROC 031600Z 24008KT 9999 FEW035 SCT270 26/20 A3001 RMK TCU DST SSW HZ LEVE ARND BECMG=
200805031700 METAR MROC 031700Z 25009KT 9999 FEW025TCU SCT035 27/21 A3001 RMK FEW250 HZ LEVE ARND LINEA TCU NE BECMG=
200805031800 METAR MROC 031800Z 24010KT 9999 FEW020TCU SCT030 SCT250 27/21 A2998 RMK HZ LEVE ARND DZ DST NE BECMG=
200805031900 METAR MROC 031900Z 23010KT 9999 SCT020TCU SCT030 27/20 A2995 RMK RN DST N NE SSE BECMG 8000 VCSH=
200805032000 METAR MROC 032000Z 10006KT 9999 3000E SCT015CB BKN030 25/28 A2994 BECMG 3000 -TSRA=
200805032100 METAR MROC 032100Z 00000KT 6000 -RA SCT020 BKN100 20/20 A2993 RMK VIS W/NW 2KMS DUE RASH=
200805032200 METAR MROC 032200Z 25003KT 8000 -TSRA FEW017CB SCT025 BKN100 20/20 A2994 RMK OCNLT TS TO SW VIS E QUAD UNLTD BECMG=
200805032300 METAR MROC 032300Z 00000KT 9999 -DZ FEW005 SCT035 BKN100 21/20 A2996 RETS RMK RN DST W BECMG=
200805040000 METAR MROC 040000Z 00000KT 9999 FEW008 SCT035 BKN070 21/20 A2998 BECMG=
200805040100 METAR MROC 040100Z 00000KT 9999 -RA FEW005 SCT015 BKN070 21/20 A3000 BECMG=
200805040200 METAR MROC 040200Z 34003KT 9999 FEW010 SCT025 BKN100 21/20 A3002 BECMG=
200805040300 METAR MROC 040300Z 09002KT 9999 FEW025 SCT120 21/20 A3003 BECMG=
200805040400 METAR MROC 040400Z 00000KT CAVOK 20/20 A3003 TRACE SCT BKN250 BECMG=
200805040500 METAR MROC 040500Z 00000KT CAVOK 20/19 A3003 TRACE SCT SCT250 BECMG=
200805040600 METAR MROC 040600Z 11005KT 9999 FEW008 SCT250 19/18 A3002 RMK VIS SW 8KM DUE LOW ST BECMG=
200805040700 METAR MROC 040700Z 09004KT CAVOK 18/17 A2999 TRACE SCT SCT250 BECMG=
200805040800 METAR MROC 040800Z 10005KT CAVOK 17/16 A2998 TRACE SC SCT250 BECMG=
200805040900 METAR MROC 040900Z 11006KT CAVOK 16/14 A2997 TRACE SCT CI BECMG=
200805041000 METAR MROC 041000Z 10006KT CAVOK 16/14 A2997 TRACE SC BECMG=
200805041100 METAR MROC 041100Z 09003KT CAVOK 16/14 A2998 TRACE SCT AC SCT270 BECMG=
200805041200 METAR MROC 041200Z 08006KT CAVOK 16/14 A3000 TRACE SCT CB DIST SW HZ LGT ARND BKN250=
200805041300 METAR MROC 041300Z 08006KT CAVOK 20/17 A3002 RMK TRACE SC BKN250 LGT HZ ARND BECMG=
200805041400 METAR MROC 041400Z 11006KT CAVOK 23/16 A3004 RMK TRACE SC BKN250 LGT HZ ARND BECMG=
200805041500 METAR MROC 041500Z 11004KT CAVOK 25/16 A3004 RMK TRACE SC BKN250 LGT HZ ARND BECMG=
200805041600 METAR MROC 041600Z 22007KT 9999 FEW040 BKN250 25/18 A3003 BECMG=
200805041700 METAR MROC 041700Z 24007KT 9999 FEW040 BKN250 27/19 A3001 BECMG=
200805041800 METAR MROC 041800Z 23009KT 9999 FEW040 BKN250 27/19 A2999 BECMG=
200805041900 METAR MROC 041900Z 24008KT 9999 SCT040 BKN250 28/19 A2997 BECMG=
200805042000 METAR MROC 042000Z 24011KT 9999 SCT035 BKN250 26/21 A2996 DVLPN TCU N S BECMG=
200805042100 METAR MROC 042100Z 23009KT 9999 FEW025TCU FEW035 BKN250 26/21 A2995 RMK TCU E HZ LGT W/N BECMG=
200805042200 METAR MROC 042200Z 23010KT 9999 FEW025TCU FEW035 BKN250 24/21 A2995 RMK TCU/RN DST NE/E TCU DST S BECMG=
200805042300 METAR MROC 042300Z 23010KT 9999 FEW015 SCT025 23/21 A2996 RMK SCT250 TCU DST NE/S BECMG 7000 VCSH=
200805050000 METAR MROC 050000Z 24006KT 9999 -DZRA FEW010 SCT025 22/21 A2998 RMK FEW100 TCU DST E VIS W/NW 6KM DUE ST BECMG 6000 VCFG=
200805050100 METAR MROC 050100Z 00000KT 9999 VCFG FEW015 BKN030 21/20 A3001 REDZ RMK FEW020 VIS W 7KM ST THIN SSE/S BECMG=
200805050200 METAR MROC 050200Z 00000KT 9999 FEW015 SCT030 21/20 A3003 RMK FEW110 ST THIN SSE/S BECMIG 09004KT=
200805050300 METAR MROC 050300Z 00000KT 9999 FEW025 SCT250 21/20 A3004 BECMG 09004KT=
200805050400 METAR MROC 050400Z 00000KT 9999 FEW020 SCT250 20/19 A3005 BECMG=
200805050500 METAR MROC 050500Z 00000KT 9999 FEW020 SCT100 19/18 A3004 RMK DUE ST SW BECMG=
200805050600 METAR MROC 050600Z 08006KT CAVOK 18/15 A3003 RMK TRACE SC AC FEW250 BECMG=
200805050700 METAR MROC 050700Z 08002KT CAVOK 18/16 A3001 RMK TRACE SC AC FEW250 BECMG=
200805050800 METAR MROC 050800Z 05003KT CAVOK 17/14 A3000 RMK TRACE SC AC SCT250=
200805050900 METAR MROC 050900Z 06004KT CAVOK 16/13 A2999 RMK TRACE SC AC SCT250=
200805051000 METAR MROC 051000Z 05008KT CAVOK 17/13 A2998 RMK TRACE SC SCT250=
200805051100 METAR MROC 051100Z 04006KT CAVOK 17/14 A2999 RMK TRACE SC FEW120 FEW250=
200805051200 METAR MROC 051200Z 05007KT CAVOK 18/13 A3000 RMK TRACE SC FEW120 BKN250=
200805051300 METAR MROC 051300Z 10002KT CAVOK 21/14 A3002 RMK BKN250 TCU DST S BECMG=
200805051400 METAR MROC 051400Z 29002KT CAVOK 24/14 A3003 RMK BKN270 BECMG 24006KT=
200805051500 METAR MROC 051500Z 11006KT CAVOK 26/15 A3003 RMK BKN270 BECMG 24006KT=
200805051600 METAR MROC 051600Z 10011KT CAVOK 27/13 A3003 RMK BKN270 BECMG=
200805051700 METAR MROC 051700Z 12011KT 9999 FEW045 BKN270 28/15 A3001 BECMG=
200805051800 METAR MROC 051800Z 10011KT 9999 FEW045 BKN270 29/14 A2999 BECMG=
200805051900 METAR MROC 051900Z 18005KT 9999 FEW045 SCT270 29/15 A2997 RMK 24007KT=
200805052000 METAR MROC 052000Z 19008KT 9999 SCT045 SCT270 28/18 A2995 BECMG=
200805052100 METAR MROC 052100Z 25009KT 9999 SCT045 28/20 A2994 BECMG=
200805052200 METAR MROC 052200Z 26008KT 9999 SCT045 26/20 A2993 CB DST SE BECMG=
200805052300 METAR MROC 052300Z 23007KT 9999 SCT045 25/20 A2995 BECMG=
200805060000 METAR MROC 060000Z 27007KT 9999 SCT040 SCT260 23/20 A2997 BECMG=
200805060100 METAR MROC 060100Z 00000KT 9999 FEW045 22/20 A3000 BECMG=
200805060200 METAR MROC 060200Z 00000KT CAVOK 21/18 A3001 SCT280 BECMG=
200805060300 METAR MROC 060300Z 09007KT CAVOK 21/15 A3002 RMK TRACE SC SCT270 BECMG=
200805060400 METAR MROC 060400Z 12008KT CAVOK 21/16 A3002 RMK TRACE SC SCT300 BECMG=
200805060500 METAR MROC NIL=
200805060600 METAR MROC NIL=
200805060700 METAR MROC NIL=
200805060800 METAR MROC 060800Z 06004KT CAVOK 18/14 A2996 RMK TRACE SC SCT270=
200805060900 METAR MROC 060900Z 09006KT CAVOK 20/14 A2994 RMK TRACE SC SCT270=
200805061000 METAR MROC 061000Z 12006KT CAVOK 20/14 A2994 RMK TRACE SC SCT270=
200805061100 METAR MROC 061100Z 10006KT CAVOK 20/13 A2995 RMK TRACE SC SCT270=
200805061200 METAR MROC 061200Z 10006KT CAVOK 20/13 A2998 RMK TRACE SC BKN270=
200805061300 METAR MROC 061300Z 07005KT CAVOK 21/14 A3000 BKN270 BECMG=
200805061400 METAR MROC 061400Z 11012KT CAVOK 25/15 A3000 BKN250 BECMG=
200805061500 METAR MROC 061500Z 11013KT CAVOK 26/14 A2999 BKN270 BECMG=
200805061600 METAR MROC 061600Z 11010KT CAVOK 28/15 A2999 TRAZAS CU BKN270 BECMG=
200805061700 METAR MROC 061700Z 10010KT CAVOK 27/13 A2998 BKN270 BECMG=
200805061800 METAR MROC 061800Z 12008KT CAVOK 28/14 A2996 BKN270 TRACE CU BECMG=
200805061900 METAR MROC 061900Z 13008KT CAVOK 28/15 A2993 TRACE CU BKN270 BECMG=
200805062000 METAR MROC 062000Z 13008KT 9999 FEW040 BKN270 30/15 A2991 BECMG 25010KT=
200805062100 METAR MROC 062100Z 13007KT 9999 FEW035 SCT270 29/15 A2989 TCU SW BECMG=
200805062200 METAR MROC 062200Z 12005KT 9999 SCT030 28/16 A2988 TRACE AC CI BECMG=
200805062300 METAR MROC 062300Z 26008KT 9999 SCT030 SCT080 26/20 A2989 TRACE AC CI BECMG=
200805062355 METAR MROC 062355Z 10005KT 9999 FEW040 SCT080 25/17 A2992 TRACE AC=
200805070000 METAR MROC 070000Z 10005KT 9999 FEW040 SCT080 25/17 A2992 TRACE AC=
200805070100 METAR MROC 070100Z 00000KT 9999 FEW040 23/19 A2995 RMK BECMG CAVOK=
200805070200 METAR MROC 070200Z 09004KT 9999 FEW035 22/17 A2997 BECMG=
200805070300 METAR MROC 070300Z 09006KT 9999 FEW035 22/16 A2999 BECMG=
200805070400 METAR MROC 070400Z 07009KT 9999 FEW035 22/16 A2999 BECMG=
200805070500 METAR MROC 070500Z 00000KT 9999 FEW035 21/16 A2998 BECMG=
200805070600 METAR MROC 070600Z 08006KT 9999 FEW030 21/16 A2996 BECMG=
200805070700 METAR MROC 070700Z 10008KT 9999 FEW030 21/16 A2995 BECMG=
200805070800 METAR MROC 070800Z 11010KT CAVOK 21/16 A2992=
200805070900 METAR MROC 070900Z 11012KT CAVOK 21/15 A2991=
200805071000 METAR MROC 071000Z 10011KT CAVOK 20/15 A2992=
200805071100 METAR MROC 071100Z 10010KT CAVOK 20/15 A2992 RMK SCT270 CB DST S=
200805071200 METAR MROC 071200Z 12011KT CAVOK 21/15 A2992 RMK SCT270 CB DST S=
200805071300 METAR MROC 071300Z 11010KT CAVOK 23/15 A2994 RMK SCT270 BECMG=
200805071400 METAR MROC 071400Z 12010KT CAVOK 25/14 A2995 RMK TRACE SC SCT270=
200805071500 METAR MROC 071500Z 10013KT CAVOK 27/13 A2995 RMK TRACE SC BKN270 BECMG=
200805071600 METAR MROC 071600Z 10012KT CAVOK 28/15 A2996 RMK TRACE SC BKN250 BECMG=
200805071700 METAR MROC 071700Z 12012KT 9999 FEW040 SCT260 28/15 A2995 BECMG=
200805071800 METAR MROC 071800Z 10013KT 9999 FEW040 BKN250 28/16 A2993 BECMG=
200805071900 METAR MROC 071900Z 12014KT 9999 FEW038 SCT250 28/15 A2990 BECMG=
200805072000 METAR MROC 072000Z 11009KT 9999 FEW035 SCT250 28/17 A2988 BECMG=
200805072100 METAR MROC 072100Z 11010KT 9999 FEW035 SCT250 28/16 A2986 BECMG=
200805072200 METAR MROC 072200Z 10006KT 9999 FEW035 SCT250 28/16 A2986 RMK FEW120 BECMG 24006=
200805072300 METAR MROC 072300Z 13007KT 9999 FEW030 26/16 A2987 RMK FEW120 CB RN DST W BECMG=
200805080000 METAR MROC 080000Z 10006KT CAVOK 24/16 A2990 RMK TRACE SC SCT250 BECMG=
200805080100 METAR MROC 080100Z 11012KT CAVOK 23/17 A2992 RMK TRACE SC=
200805080200 METAR MROC 080200Z 11009KT CAVOK 22/17 A2993 RMK TRACE SC=
200805080300 METAR MROC 080300Z 12010KT 9999 SKC 22/15 A2994 BECMG=
200805080400 METAR MROC 080400Z 12011KT 9999 SKC 22/14 A2994 BECMG=
200805080500 METAR MROC 080500Z 12008KT CAVOK 22/13 A2994 TRACE SCT BECMG=
200805080600 METAR MROC 080600Z 04005KT CAVOK 21/13 A2993 TRACE SCT BECMG=
200805080700 METAR MROC 080700Z 05004KT CAVOK 20/13 A2992 TRACE SCT=
200805080800 METAR MROC 080800Z 07007KT CAVOK 20/14 A2992 TRACE SCT=
200805080900 METAR MROC NIL=
200805081000 METAR MROC 081000Z 10007KT CAVOK 20/15 A2992 TRACE SC=
200805081100 METAR MROC 081100Z 08006KT CAVOK 20/15 A2992 TRACE SCT=
200805081200 METAR MROC 081200Z 05007KT CAVOK 21/16 A2993 TRACE SCT CB DST S BECMG=
200805081300 METAR MROC 081300Z 10007KT CAVOK 24/17 A2994 RMK TRACE AC FEW250 BECMG=
200805081400 METAR MROC 081400Z 12009KT CAVOK 26/18 A2995 RMK TRACE SC AC SCT200 BECMG=
200805081500 METAR MROC 081500Z 12009KT CAVOK 27/18 A2994 RMK TRACE SC SCT250=
200805081600 METAR MROC 081600Z 12009KT CAVOK 27/18 A2994 RMK TRACE SC BKN250 BECMG=
200805081700 METAR MROC 081700Z 12010KT 9999 FEW035 SCT250 30/18 A2993 BECMG=
200805081800 METAR MROC 081800Z 13010KT 9999 FEW020TCU SCT035 29/18 A2992 BECMG=
200805081900 METAR MROC 081900Z 13009KT 9999 FEW020CB SCT030 SCT250 29/19 A2989 BECMG=
200805081940 METAR MROC 081940Z 10010KT 9999 -RA SCT020 BKN030 27/18 A2988 BECMG=
200805082000 METAR MROC 082000Z 12010KT 9999 RA SCT020 BKN030 24/20 A2988 RMK VIS 7000 S BECMG 8000 RA=
200805082100 METAR MROC 082100Z 12006KT 9999 FEW025 SCT045 BKN130 24/19 A2990 RERA BECMG=
200805082200 METAR MROC 082200Z 12007KT 9999 FEW025 BKN140 24/18 A2989 BECMG=
200805082300 METAR MROC 082300Z 09005KT CAVOK 24/18 A2990 RMK TRACE SC AC BKN140 BECMG=
200805090000 METAR MROC 090000Z 13007KT CAVOK 24/18 A2990 RMK TRAC SC AC OVC250 BECMG=
200805090100 METAR MROC 090100Z 11006KT CAVOK 24/17 A2994 RMK TRACE SC OVC250 BECMG=
200805090200 METAR MROC 090200Z 13008KT CAVOK 24/17 A2996 RMK LTNG DST S SCT250 BECMG=
200805090300 METAR MROC 090300Z 10006KT CAVOK 23/18 A2998 RMK TRACE SC BKN250 BECMG=
200805090400 METAR MROC 090400Z 09004KT CAVOK 23/18 A2998 RMK TRACE SC BKN250 BECMG=
200805090500 METAR MROC 090500Z 12006KT CAVOK 22/18 A2997 RMK TRACE SC SCT250 BECMG=
200805090600 METAR MROC 090600Z 12004KT CAVOK 22/18 A2996 RMK TRACE SC SCT250 BECMG=
200805090700 METAR MROC 090700Z 05003KT CAVOK 22/18 A2997 RMK TRACE SC CI BECMG=
200805090800 METAR MROC 090800Z 00000KT CAVOK 21/17 A2994 RMK TRACE SC CI BECMG=
200805090900 METAR MROC NIL=
200805091000 METAR MROC 091000Z 06006KT CAVOK 21/17 A2994 RMK LTNG DIST S TRACE SC SCT120 BECMG=
200805091100 METAR MROC 091100Z 09005KT CAVOK 21/18 A2994 RMK TRACE SC AC BKN250=
200805091200 METAR MROC 091200Z 10004KT CAVOK 22/18 A2993 RMK SC AC OVC250 CB DIST SW BECMG=
200805091300 METAR MROC 091300Z 10004KT CAVOK 23/18 A2994 RMK TRACE SC OVC250 BECMG=
200805091400 METAR MROC 091400Z 09007KT CAVOK 26/18 A2997 RMK TRACE SC BKN250 BECMG=
200805091500 METAR MROC 091500Z 12010KT CAVOK 26/18 A2997 RMK TRACE BKN250 BECMG=
200805091600 METAR MROC 091600Z 14010KT 9999 FEW035 BKN250 27/18 A2996 BECMG=
200805091700 METAR MROC 091700Z 13008KT 9999 FEW035 SCT050 BKN250 28/18 A2995 BECMG=
200805091800 METAR MROC 091800Z 13007KT 9999 FEW040 SCT120 BKN250 28/19 A2994 BECMG=
200805091900 METAR MROC 091900Z 21009KT 9999 FEW025TCU SCT050 BKN250 28/21 A2993 RMK RN DST N NE BECMG 9000 RA=
200805092000 METAR MROC 092000Z 30008KT 9999 -RA FEW020TCU SCT040 BKN250 24/22 A2992 CB RASH DST WNW NW BECMG 6000 SHRA=
200805092100 METAR MROC 092100Z 28008KT 9999 VCFG FEW012 FEW015TCU BKN025 24/22 A2991 RMK VIS SW 7KM DEUST HZ LGT ARND BECMG 6000 VCFG=
200805092200 METAR MROC 092200Z 23006KT 9999 VCSH FEW015TCU SCT030 SCT100 23/21 A2994 RMK VIS SE 8KM DUE TCU/RN BECMG 6000 -RA=
200805092300 METAR MROC 092300Z 00000KT 7000 -RA FEW004 SCT020 21/20 A2996 RMK SCT090 VIS NE/E UNL BECMG 4000 BR SCT003 SCT015=
200805100000 METAR MROC 100000Z 00000KT 9999 VCFG FEW006 SCT020 21/21 A2998 RMK SCT090 VIS SW/W/N 7KM DUE ST BECMG=
200805100100 METAR MROC 100100Z 00000KT 9999 FEW015 BKN030 21/21 A3000 RMK FEW100=
200805100200 METAR MROC 100200Z 00000KT 9999 FEW008 BKN030 21/21 A3002 RMK ST THIN SSE/S BECMG=
200805100300 METAR MROC 100300Z 34002KT 9999 FEW020 SCT030 BKN120 21/20 A3001 BECMG=
200805100400 METAR MROC 100400Z 07003KT 9999 FEW030 SCT120 BKN250 21/20 A2999 RMK DUE ST SW BECMG=
200805100500 METAR MROC 100500Z 13004KT CAVOK 21/18 A2998 RMK TRACE SC SCT120 BKN250 DUE ST SW BECMG=
200805100600 METAR MROC 100600Z 08005KT CAVOK 21/18 A2997 RMK TRACE SC SCT250 BECMG=
200805100700 METAR MROC 100700Z 04004KT CAVOK 20/18 A2995 RMK TRACE SC CI BECMG=
200805100800 METAR MROC 100800Z 94995KT CAVOK 20/18 A2994 RMK TRACE SC CI=
200805100900 METAR MROC 100900Z 07009KT CAVOK 21/18 A2993 RMK TRACE SC AC=
200805101000 METAR MROC 101000Z 07004KT CAVOK 21/18 A2993 RMK TRACE SC AC=
200805101100 METAR MROC 101100Z 03003KT CAVOK 20/17 A2995 RMK TRACE SC AC DUE ST SW=
200805101200 METAR MROC 101200Z 00000KT CAVOK 20/17 A2996 RMK BKN270=
200805101300 METAR MROC 101300Z 00000KT CAVOK 23/18 A2999 RMK BKN270 BECMG 24006KT=
200805101400 METAR MROC 101400Z 30002KT CAVOK 25/19 A3000 RMK BKN270 HZ W BECMG=
200805101500 METAR MROC 101500Z 26008KT 9999 FEW045 BKN270 25/19 A3002 BECMG=
200805101600 METAR MROC 101600Z 24011KT 9999 FEW045 BKN270 26/19 A3001 BECMG=
200805101700 METAR MROC 101700Z 22008KT 9999 FEW030 SCT040 26/20 A3000 RMK FEW270 RN DST NW/E BECMG 7000 VCSH=
200805101800 METAR MROC 101800Z 23007KT 9999 -DZRA VCSH FEW020TCU SCT030 25/20 A2998 RMK FEW100 VIS NW/E 7KM BECMG=
200805101900 METAR MROC 101900Z 22008KT 9999 -RA FEW020TCU SCT030 SCT100 25/20 A2997 RMK VIS 3 7KM DUE RN BECMG 5000 RA=
200805102000 METAR MROC 102000Z 29009KT 9999 -DZ VCSH FEW015CB SCT030 SCT100 24/21 A2996 RMK VIS W/N 6KM BECMG=
200805102100 METAR MROC 102100Z 03005KT 9999 3000N -TSRA FEW013 BKN020 23/19 A2995 BECMG 7000 RA=
200805102200 METAR MROC 102200Z 00000KT 9999 SCT020 BKN120 22/20 A2995 RETS BECMG=
200805102300 METAR MROC 102300Z 00000KT 9999 FEW008 BKN015 22/10 A2995 BECMG=
200805110000 METAR MROC 110000Z 12004KT 9999 -TSRA FEW015CB BKN020 21/20 A2999 VSBY N 6KM TS NE BECMG=
200805110100 METAR MROC 110100Z 07002KT 9999 -RA FEW030 BKN100 21/20 A3000 BECMG=
200805110200 METAR MROC 110200Z 24002KT 6000 VCFG SCT010 SCT020 21/20 A3002 BECMG=
200805110300 METAR MROC 110300Z 00000KT 8000 VCFG SCT015 SCT030 21/20 A3006 BECMG=
200805110400 METAR MROC 110400Z 00000KT 9999 FEW015 BKN025 21/20 A3007 BECMG=
200805110500 METAR MROC 110500Z 00000KT 9999 SCT015 SCT020 21/20 A3007 RMK HZY BECMG=
200805110600 METAR MROC 110600Z 00000KT 9999 FEW005 SCT020 20/20 A3003 RMK VIS SSW SW 6KMS DUE FG BECMG=
200805110700 METAR MROC 110700Z 07003KT 9999 SCT030 BKN250 20/19 A3001 BECMG=
200805110800 METAR MROC 110800Z 00000KT 9999 FEW030 BKN250 19/18 A2999=
200805110900 METAR MROC 110900Z 08005KT CAVOK 19/18 A2998 RMK TRACE SC BKN250=
200805111000 METAR MROC 111000Z 09005KT CAVOK 20/18 A2998 RMK TRACE SC BKN250=
200805111100 METAR MROC 111100Z 09003KT CAVOK 20/18 A2999 RMK TRACE SC FEW120 BKN250=
200805111200 METAR MROC 111200Z 00000KT 9999 FEW040 BKN090 24/23 A2980 RMK RN DST W NW N NE FEW230 HZ ARND=
200805111300 METAR MROC 111300Z 10002KT CAVOK 21/18 A3002 TRACE SCT FEW120 BKN260 BECMG 24006KT=
200805111400 METAR MROC 111400Z 03005KT CAVOK 23/18 A3004 TRACE SCT BKN120 SCT250 BECMG=
200805111500 METAR MROC 111500Z 20003KT CAVOK 23/19 A3006 TRACE SCT BKN120 SCT250 BECMG=
200805111600 METAR MROC 111600Z 28003KT CAVOK 23/19 A3005 TRACE SCT SCT120 OVC250 23/19 A3005 HZY BECMG=
200805111700 METAR MROC 111700Z 25005KT 9999 -RA FEW010 OVC140 23/19 A3005 VSBY N E 6KM HZ BECMG 7000 -RA VCFG=
200805111800 METAR MROC 111800Z 00000KT 9999 FEW010 OVC140 24/20 A3003 HZY BECMG=
200805111900 METAR MROC 111900Z 19002KT CAVOK 27/19 A3000 TRACE CU OVC250 HZY BECMG=
200805112000 METAR MROC 112000Z 11005KT CAVOK 27/18 A2997 RMK TRACE CU OVC250 BECMG=
200805112100 METAR MROC 112100Z 00000KT CAVOK 27/18 A2995 RMK TRACE CU OVC250 BECMG 24006KT=
200805112200 METAR MROC 112200Z 23007KT 9999 FEW040 BKN250 26/20 A2993 RMK BECMG=
200805112300 METAR MROC 112300Z 25007KT 9999 VCSH SCT035 BKN250 25/22 A2995 RMK VIS NE 6KM DUE RN TRACE AC BECMG=
200805112355 METAR MROC 120000Z 27005KT 7000 VCFG FEW005 SCT015 23/22 A2999 RKM VIS S UNL SCT250 BECMG 5000 BR=
200805120000 METAR MROC 120000Z 27005KT 7000 VCFG FEW005 SCT015 23/22 A2999 RKM VIS S UNL SCT250 BECMG 5000 BR=
200805120100 METAR MROC 120100Z 25005KT 5000 -DZ SCT003 BKN012 22/22 A3001 BECMG=
200805120200 METAR MROC 120200Z 27004KT 7000 2000SW BR SCT003 SCT020 22/22 A3002 VIS S UNL CNDS VRBL BECMG=
200805120300 METAR MROC 120300Z 00000KT 6000 1500SW BR SCT002 BKN015 22/22 A3003 BECMG=
200805120400 METAR MROC 120400Z 00000KT 7000 3000SW BR SCT002 21/21 A3003 RMK FEW250 BECMG=
200805120500 METAR MROC 120500Z 00000KT 9999 VCFG FEW002 SCT015 21/20 A3002 RMK FEW120 VIS SW/W 6KM BECMG=
200805120600 METAR MROC 120600Z 00000KT 9999 VCFG FEW003 20/19 A3001 RMK FEW250 VIS SW/W 8KM DUE ST BECMG=
200805120700 METAR MROC 120700Z 00000KT CAVOK 20/18 A2999 RMK FEW250 ST THIN S BECMG=
200805120800 METAR MROC 120800Z 00000KT CAVOK 19/17 A2998 RMK FEW250 LTNG/ST S=
200805120900 METAR MROC 120900Z 00000KT 9999 VCFG FEW004 19/17 A2999 RMK FEW250 VIS SSE/S 8KM DUR ST=
200805121000 METAR MROC 121000Z 00000KT 9999 VCFG FEW004 SCT015 19/17 A3001 RMK FEW250 VIS S/SW 8KM DUE ST=
200805121100 METAR MROC 121100Z 08005KT 9999 SCT025 SCT270 18/17 A3002 RMK ST S/SW/W CB DST SW=
200805121200 METAR MROC 121200Z 00000KT CAVOK 19/17 A3003 RMK FEW080 BKN270 CB DST SW=
200805121300 METAR MROC 121300Z 00000KT CAVOK 22/18 A3005 RMK TRACE SC AC CB=
200805121357 METAR MROC 131400Z 12004KT CAVOK 25/17 A3005 RMK TRACE CU AC SCT250 HZ AND CB DIST W BECMG 24006KT=
200805121400 METAR MROC 121400Z 12004KT CAVOK 25/17 A3005 RMK TRACE CU AC SCT250 HZ AND CB DIST W BECMG 24006KT=
200805121500 METAR MROC 121500Z 10003KT CAVOK 26/17 A3006 RMK TRACE CU SCT250 BECMG 24008KT=
200805121600 METAR MROC 121600Z 26006KT 9999 FEW040 SCT250 27/19 A3006 RMK CB DIST W BECMG=
200805121700 METAR MROC 121700Z 25009KT 9999 SCT035TCU BKN250 27/20 A3005 RMK CB=
200805121800 METAR MROC 121800Z 26009KT 9999 SCT030TCU SCT250 28/19 A3003 RMK CB=
200805121855 METAR MROC 121855Z 25009KT 9999 VCSH FEW015CB SCT030 28/20 A2999 RMK VIS ENE 8KM DUE RASH TRACE CI BECMG=
200805121900 METAR MROC 121900Z 25009KT 9999 VCSH FEW015CB SCT030 28/20 A2999 RMK VIS ENE 8KM DUE RASH TRACE CI BECMG=
200805122000 METAR MROC 122000Z 26008KT 9999 VCSH FEW020 SCT030TCU 26/21 A2998 RN=
200805122100 METAR MROC 122100Z 01004KT 9999 TS VCSH SCT012CB FEW020 24/18 A2997 RMK VIS 7000 RA SW W BECMG -TSRA=
200805122200 METAR MROC 122200Z 22004KT 9999 FEW015 SCT030 BKN100 20/19 A3000 RMK RN DST SW W NE BECMG=
200805122300 METAR MROC 122300Z 00000KT 9999 FEW010 BKN090 21/20 A3000 RMK FEW020 RN DST N BECMG=
200805130000 METAR MROC 130000Z 00000KT 9999 FEW030 SCT250 21/20 A3001 RMK TRACE AC BECMG=
200805130100 METAR MROC 130100Z 02005KT 9999 FEW035 SCT100 21/19 A3002 RMK BECMG CAVOK=
200805130200 METAR MROC 130200Z 03003KT 9999 VCFG FEW002 SCT030 21/19 A3003 BECMG=
200805130300 METAR MROC 130300Z 08003KT 9999 4000SW BR FEW001 20/19 A3004 BECMG=
200805130400 METAR MROC 130400Z 03005KT CAVOK 20/17 A3003 TRACE ST BECMG=
200805130500 METAR MROC 130500Z 10005KT CAVOK 22/18 A3002 TRACE ST LTNG DST S BECMG=
200805130600 METAR MROC 130600Z 07003KT 9999 SKC 20/17 A3000 BECMG=
200805130700 METAR MROC 130700Z 00000KT 9999 SKC 20/18 A3000=
200805130800 METAR MROC 130800Z 00000KT 9999 VCFG SCT003 SCT010 19/17 A3000 VSBY SW W 6KM LOW ST=
200805130900 METAR MROC NIL=
200805131000 METAR MROC 131000Z 07004KT CAVOK 18/17 A3000 TRACE ST S LTNG DST S=
200805131100 METAR MROC 131100Z 08003KT CAVOK 18/17 A3000 FEW250 CB DST S=
200805131200 METAR MROC 131200Z 00000KT CAVOK 21/17 A3005 RMK TRACE SC FEW250 CB DST S SW BECMG=
200805131300 METAR MROC 131300Z 00000KT CAVOK 21/17 A3005 RMK TRACE SC FEW250 CB DST S SW BECMG=
200805131400 METAR MROC 131400Z 00000KT CAVOK 24/18 A3007 TRACE SCT FEW250 CB DST SW BECMG 24008KT=
200805131500 METAR MROC 131500Z 26005KT 9999 FEW035 26/18 A3007 RMK FEW250 BECMG=
200805131600 METAR MROC 131600Z 27005KT 9999 SCT040 28/19 A3006 BECMG=
200805131700 METAR MROC 131700Z 23006KT 9999 FEW020 SCT030 28/20 A3004 BECMG=
200805131800 METAR MROC 131800Z 24008KT 9999 FEW020TCU SCT030 28/20 A3003 BECMG=
200805131900 METAR MROC 131900Z 25006KT 9999 FEW015CB SCT030 29/20 A3000 BECMG=
200805132000 METAR MROC 132000Z 23010KT 9999 FEW015CB SCT030 29/22 A2997 BECMG=
200805132100 METAR MROC 132100Z 24006KT 9999 SCT025TCU 27/22 A2995 RMK LGT HZ ARND BECMG=
200805132200 METAR MROC 132200Z 24010KT 9999 SCT025TCU 27/21 A2995 RMK LGT HZ ARND BECMG=
200805132300 METAR MROC 132300Z 24006KT 9999 FEW015 SCT025TCU 24/21 A2997 RMK RN DST W WNW LGT HZ ARND BECMG 7000 -RA VCSH=
200805140000 METAR MROC 140000Z 25005KT 9999 VCFG FEW005 SCT025TCU 23/21 A3000 RMK VIS WNW NW N 7KMS BECMG=
200805140100 METAR MROC 140100Z 25007KT 7000 VCFG SCT005 BKN015 22/22 A3003 BECMG 5000 -RA BR=
200805140200 METAR MROC 140200Z 21003KT 7000 VCFG FEW002 SCT015 23/21 A3004 RMK BECMG 5000 -RA BR SCT001 SCT005=
200805140300 METAR MROC 140300Z 09004KT 9999 FEW015 22/21 A3004 BECMG=
200805140400 METAR MROC 140400Z 09006KT 9999 FEW040 21/18 A3003 BECMG=
200805140500 METAR MROC 140500Z 10007KT 9999 FEW053 21/17 A3001 BECMG=
200805140600 METAR MROC 140600Z 09008KT CAVOK 22/17 A3000 TRACE SC BECMG=
200805140700 METAR MROC 140700Z 10008KT CAVOK 22/17 A2998 TRACE SCT BECMG=
200805140800 METAR MROC 140800Z 12011KT CAVOK 22/17 A2997 TRACE SCT CI BECMG=
200805140900 METAR MROC 140900Z 11010KT CAVOK 22/17 A2997 TRACE SC BECMG=
200805141000 METAR MROC 141000Z 12010KT CAVOK 22/17 A2997 TRACE SCT BECMG=
200805141100 METAR MROC 141100Z 10010KT CAVOK 21/16 A2997 TRACE SCT BECMG=
200805141200 METAR MROC 141200Z 12007KT CAVOK 21/17 A2998 RMK TRACE SC SCT270 BECMG=
200805141300 METAR MROC 141300Z 10006KT CAVOK 24/17 A3001 RMK TRACE SC SCT300 BECMG=
200805141400 METAR MROC 141400Z 09011KT CAVOK 26/17 A3001 RMK TRACE SC SCT300 BECMG=
200805141500 METAR MROC 141500Z 11010KT CAVOK 27/16 A3001 RMK TRACE SC BKN300 BECMG=
200805141600 METAR MROC 141600Z 08011KT 9999 FEW040 BKN300 28/17 A3002 BECMG=
200805141700 METAR MROC 141700Z 08013KT 9999 FEW040 BKN300 29/15 A3001 RMK VEL MX VTO 18KT BECMG=
200805141800 METAR MROC 141800Z 08010KT 9999 FEW040 SCT300 30/16 A2999 RMK VEL MX VTO 16KT BECMG=
200805141900 METAR MROC 141900Z 09009KT 9999 FEW040 SCT300 30/15 A2997 RMK VEL MX VTO 17KT BECMG=
200805142000 METAR MROC 142000Z 09008KT 9999 SCT040 BKN300 30/15 A2995 BECMG=
200805142100 METAR MROC 142100Z 22006KT 9999 SCT040 BKN300 28/20 A2994 BECMG=
200805142200 METAR MROC 142200Z 22011KT 9999 SCT035 BKN300 26/22 A2995 BECMG=
200805142300 METAR MROC 142300Z 27009KT 9999 FEW035 BKN300 24/22 A2997 RMK CB DST S RN N BECMG=
200805150000 METAR MROC 150000Z 25002KT 9999 FEW035 BKN300 23/21 A3001 RMK CB DS T S BECMG=
200805150100 METAR MROC 150100Z 00000KT 9999 FEW035 BKN300 23/21 A3003 BECMG=
200805150200 METAR MROC 150200Z 24003KT 9999 SCT030 BKN300 23/21 A3004 BECMG=
200805150300 METAR MROC 150300Z 00000KT 9999 FEW020 SCT030 23/20 A3005 RMK DUE ST SW BECMG=
200805150400 METAR MROC 150400Z 10004KT 9999 FEW030 SCT250 22/18 A3005 RMK LTNG CB DST SW DUE ST SW BECMG=
200805150500 METAR MROC 150500Z 00000KT CAVOK 22/17 A3005 RMK TRACE SC SCT250 LTNG S SW BECMG=
200805150600 METAR MROC 150600Z 10002KT CAVOK 21/18 A3003 RMK TRACE SC SCT250 BECMG=
200805150700 METAR MROC 150700Z 00000KT 9999 FEW025 SCT110 20/18 A3001 RMK FEW250 BECMG=
200805150800 METAR MROC 150800Z 08008KT CAVOK 20/17 A2999 RMK FEW110 SCT250 BECMG=
200805150900 METAR MROC 150900Z 05006KT CAVOK 20/16 A2998 RMK SCT250 BECMG=
200805151000 METAR MROC 151000Z 04007KT CAVOK 19/15 A3000 RMK SCT250 BECMG=
200805151100 METAR MROC NIL=
200805151200 METAR MROC NIL=
200805151300 METAR MROC 151300Z 11007KT 9999 FEW040 SCT300 23/16 A3003 RMK CB DST SW BECMG=
200805151400 METAR MROC 151400Z 11012KT 9999 FEW040 SCT300 25/16 A3004 RMK TCU SW BECMG=
200805151500 METAR MROC 151500Z 11008KT CAVOK 27/16 A3006 RMK TRACE SC CU BKN270 BECMG=
200805151600 METAR MROC 151600Z 11008KT 9999 FEW040 BKN270 28/15 A3005 BECMG=
200805151700 METAR MROC 151700Z 14006KT 9999 SCT040 BKN270 30/17 A3003 BECMG=
200805151800 METAR MROC 151800Z 09005KT 060V130 9999 SCT040 BKN300 30/15 A3002 BECMG=
200805151900 METAR MROC 151900Z 24005KT 9999 SCT040 BKN300 30/15 A3000 BECMG=
200805152000 METAR MROC 152000Z 23013KT 9999 SCT035 BKN300 29/20 A2996 RMK HZ W BECMG=
200805152100 METAR MROC 152100Z 22013KT 9999 VCSH FEW015CB SCT025 25/20 A2995 VSBY SW 6KM DUE CB/RN RN NE BECMG 5000 -RA VCTS=
200805152200 METAR MROC 152200Z 25010KT 9999 VCSH FEW015TCU SCT040 BKN250 23/20 A2996 RN NE S VSBY N NE 6KM BECMG=
200805152300 METAR MROC 152300Z 22003KT 9999 5000 VCSH SCT020 BKN120 24/20 A2998 RN E/NW N VSBY N 5KM BECMG=
200805160000 METAR MROC 160000Z 29003KT 9999 VSFG FEW012 BKN025 23/19 A3000 VSBY N 6KM DUE LW ST BECMG=
200805160100 METAR MROC 160100Z 00000KT 9999 FEW010 SCT035 BKN250 23/20 A3001 LTNG DST S BECMG=
200805160200 METAR MROC 160200Z 00000KT 9999 FEW025 SCT250 22/20 A3003 BECMG=
200805160300 METAR MROC 160300Z 25002KT 9999 VCFG SCT025 BKN050 21/21 A3007 RMK VIS S SSW 7KMS TRACE LOW ST TO S W QUAD BECMG=
200805160400 METAR MROC 160400Z 35003KT 8000 VCFG FEW030 BKN250 21/21 A3008 RMK TRACE LOW ST TO S SW NW VIS SE UNLTD BECMG=
200805160500 METAR MROC 160500Z 00000KT 9999 FEW035 BKN250 21/20 A3007 RMK HZY BECMG=
200805160600 METAR MROC 160600Z 00000KT CAVOK 20/19 A3004 RMK TRACE SC SCT250 BECMG 03004KT=
200805160700 METAR MROC 160700Z 00000KT 9999 FEW035 SCT050 20/18 A3004 BECMG=
200805160800 METAR MROC 160800Z 03003KT 9999 FEW035 SCT050 20/18 A3001 RMK LTNG DST S SSW BECMG=
200805160900 METAR MROC 160900Z 07005KT 9999 FEW035 SCT250 19/17 A3000 RMK LTNG DST S SSW BECMG=
200805161000 METAR MROC 161000Z 00000KT 9999 FEW035 SCT250 20/17 A3002 RMK LTNG DST S BECMG=
200805161100 METAR MROC 161100Z 00000KT 9999 FEW045 SCT250 20/17 A3002 RMK CB LTNG DST S BECMG=
200805161200 METAR MROC 161200Z 02003KT 9999 FEW035 SCT050 BKN250 21/17 A3005 BECMG=
200805161300 METAR MROC 161300Z 07004KT CAVOK 22/18 A3004 TRACE SCT BKN260 BECMG=
200805161400 METAR MROC 161400Z 04006KT CAVOK 26/18 A3005 TRACE SCT BKN260 BECMG=
200805161500 METAR MROC 161500Z 10010KT CAVOK 27/17 A3005 TRACE SCT BKN260 BECMG=
200805161600 METAR MROC 161600Z 12009KT CAVOK 27/18 A3004 TRACE SCT BKN260 BECMG=
200805161700 METAR MROC 161700Z 11008KT 9999 FEW035 BKN260 28/18 A3003 BECMG=
200805161800 METAR MROC 161800Z 11008KT 9999 FEW035 BKN260 28/18 A3002 BECMG 24008KT=
200805161900 METAR MROC 161900Z 10008KT 9999 FEW025 BKN260 28/18 A2999 BECMG=
200805162000 METAR MROC 162000Z 21005KT 9999 FEW020 SCT045 BKN260 28/20 A2998 RN S BECMG=
200805162100 METAR MROC 162100Z 22010KT 9999 FEW020 SCT040 BKN250 26/21 A2996 BECMG=
200805162200 METAR MROC 162200Z 22008KT 9999 FEW020 SCT030 BKN250 25/20 A2996 BECMG=
200805162300 METAR MROC 162300Z 23007KT 9999 FEW020 SCT030 BKN220 24/20 A2997 BECMG=
200805162352 METAR MROC 170000Z 24008KT 9999 FEW015 SCT025 BKN040 23/21 A3000 BECMG=
200805170000 METAR MROC 170000Z 24008KT 9999 FEW015 SCT025 BKN040 23/21 A3000 BECMG=
200805170100 METAR MROC 170100Z 27006KT 8000 VCFG SCT025 BKN040 22/19 A3002 BECMG=
200805170200 METAR MROC 170200Z 25005KT 9999 FEW030 SCT040 22/19 A3004 BECMG=
200805170300 METAR MROC 170300Z 00000KT 9999 SCT030 22/19 A3008 BECMG=
200805170400 METAR MROC 170400Z 00000KT 9999 SCT030 FEW250 22/19 A3007 BECMG=
200805170500 METAR MROC 170500Z 00000KT 9999 SCT030 FEW250 22/20 A3008 BECMG=
200805170600 METAR MROC 170600Z 00000KT 9999 FEW040 SCT250 21/19 A3004 BECMG=
200805170700 METAR MROC 170700Z 05003KT CAVOK 20/18 A3002 RMK TRACE SC SCT250 BECMG=
200805170800 METAR MROC 170800Z 05003KT CAVOK 20/18 A3000 RMK TRACE SC SCT250 BECMG=
200805170900 METAR MROC 170900Z 07002KT CAVOK 20/17 A2998 RMK TRACE SC SCT250=
200805171000 METAR MROC 171000Z 07005KT CAVOK 21/17 A2999 RMK TRACE SC SCT250 BECMG=
200805171100 METAR MROC 171100Z 06005KT CAVOK 19/15 A3001 RMK TRACE SC SCT20 BECMG=
200805171200 METAR MROC 171200Z 06005KT CAVOK 19/15 A3002 RMKTRACE SCT AC TCU DST SW SCT250 BECMG=
200805171300 METAR MROC 171300Z 11010KT CAVOK 23/17 A3003 RMK TRACE SC AC SCT250=
200805171400 METAR MROC 171400Z 10012KT CAVOK 24/16 A3004 RMK SCT250=
200805171500 METAR MROC 171500Z 08015KT CAVOK 26/15 A3004 RMK TRACE SC SCT250=
200805171600 METAR MROC 171600Z 11008KT CAVOK 22/16 A3003 RMK BKN250=
200805171700 METAR MROC 171700Z 12007KT CAVOK 28/16 A3001 RMK TRACE CU BKN250=
200805171800 METAR MROC 171800Z 13010KT 9999 FEW030 BKN250 30/16 A2999 BECMG 24006KT=
200805171900 METAR MROC 171900Z 12004KT 9999 FEW030 BKN260 30/16 A2997 BECMG 24006KT=
200805172000 METAR MROC 172000Z 22010KT 9999 SCT030 SCT250 29/20 A2994 BECMG=
200805172100 METAR MROC 172100Z 23012KT 9999 FEW020TCU SCT030 28/21 A2994 RMK FEW250 RN DST S SW BECMG 7000 VCSH=
200805172200 METAR MROC 172200Z 20009KT 9999 FEW020 BKN030 24/21 A2996 RMK FEW250 CB DST S SW BECMG=
200805172300 METAR MROC 172300Z 22007KT 9999 4000NE VCSH SCT015 BKN030 24/21 A2998 BECMG=
200805180000 METAR MROC 180000Z 22003KT 9999 FEW020 BKN030 23/21 A3001 BECMG=
200805180100 METAR MROC 180100Z 00000KT 9999 BKN030 23/20 A3003 BECMG=
200805180200 METAR MROC 180200Z 00000KT 9999 DZ SCT025 SCT100 22/20 A3005 BECMG=
200805180300 METAR MROC 180300Z 23002KT 9999 FEW012 SCT030 BKN120 22/20 A3006 BECMG=
200805180400 METAR MROC 180400Z 00000KT 9999 FEW015 SCT120 22/18 A3007 BECMG=
200805180500 METAR MROC 180500Z 10003KT 9999 FEW020 21/18 A3006 RMK TRACE AC BECMG=
200805180600 METAR MROC 180600Z 06003KT 9999 FEW020 20/17 A3004 RMK TRACE AC BECMG=
200805180700 METAR MROC 180700Z 07005KT CAVOK 19/17 A3002 RMK TRACE SC AC BECMG=
200805180800 METAR MROC 180800Z 06005KT CAVOK 19/16 A3001 SCT130 BECMG=
200805180900 METAR MROC 180900Z 06004KT CAVOK 18/15 A3000 SCT120 BECMG=
200805181000 METAR MROC 181000Z 06004KT CAVOK 17/15 A2999 SCT120 HZY BECMG=
200805181100 METAR MROC 181100Z 06005KT CAVOK 17/14 A3000 SCT280 BECMG=
200805181200 METAR MROC 181200Z 10004KT CAVOK 17/15 A3002 BKN280 BECMG=
200805181300 METAR MROC 181300Z 08003KT CAVOK 20/16 A3004 RMK SCT250 HZ NE SW BECMG=
200805181400 METAR MROC 181400Z 00000KT CAVOK 24/17 A3005 RMK TRACE SC SCT250 HZ SW BECMG=
200805181500 METAR MROC 181500Z 23006KT CAVOK 25/17 A3007 RMK TRACE SC SCT250 LINEA TCU DST SW BECMG=
200805181600 METAR MROC 181600Z 23007KT 9999 FEW035 SCT250 26/18 A3006 BECMG=
200805181700 METAR MROC 181700Z 23007KT 9999 SCT035 27/18 A3004 BECMG=
200805181800 METAR MROC 181800Z 22008KT 9999 FEW025TCU BKN035 27/18 A3001 BECMG=
200805181900 METAR MROC 181900Z 24009KT 9999 SCT020CB SCT030TCU 28/19 A2998 BECMG 7000 VCSH=
200805182000 METAR MROC 182000Z 22012KT 9999 -RA SCT015CB BKN030 25/21 A2996 RMK VIS 6000SSW VCSH RN DST QUAD N BECMG 6000 RA=
200805182050 METAR MROC 182050Z 22008KT 2000 -RA BR FEW002 SCT010 BKN025 20/20 A2999 BECMG 1000 -RA BR=
200805182100 METAR MROC 182100Z 34002KT 3000 -TSRA SCT012CB BKN025TCU 21/20 A2997 VIS ESE SSE UNLTD BECMG 2000=
200805182200 METAR MROC 182200Z 22008KT 4000 -RA VCSH FEW004 FEW015CB BKN025 21/20 A2998 BECMG 7000=
200805182300 METAR MROC 182300Z 22008KT 1500 -RA BR SCT002 BKN008 20/20 A2999 BECMG 1000 -RA BR=
200805190000 METAR MROC 190000Z 24003KT 3000 -RA BR FEW003 SCT020 BKN080 20/19 A3003 BECMG 5000=
200805190100 METAR MROC 190100Z 00000KT 3000 -RA FEW003 SCT025 BKN080 19/18 A3005 RMK VIS ESE SE 8KMS BECMG 6000=
200805190140 METAR MROC 190140Z 09002KT 5000 RA BR FEW003 SCT030 BKN100 19/19 A3009 RMK VIS SW W 3500 MTS BECMG 7000=
200805190200 METAR MROC 190200Z 00000KT 7000 -RA FEW003 SCT035 BKN100 19/18 A3009 RMK VIS SE UNLTD BECMG 03004KT 9999=
200805190300 METAR MROC 190300Z 07004KT 7000 -RA FEW003 SCT035 BKN100 19/18 A3010 BECMG=
200805190400 METAR MROC 190400Z 09003KT 9999 VCFG FEW001 SCT030 BKN100 19/18 A3010 BECMG=
200805190500 METAR MROC 190500Z 07006KT 9999 FEW030 BKN100 18/16 A3009 RMK BECMG CAVOK=
200805190600 METAR MROC 190600Z 07007KT CAVOK 19/17 A3005 RMK TRACE SC BKN120=
200805190700 METAR MROC NIL=
200805190800 METAR MROC 100900Z 06006KT CAVOK 19/16 A2999 RMK TRACE SC BKN120 BECMG=
200805190900 METAR MROC 190900Z 06005KT CAVOK 19/15 A2998 RMK TRACE SC BKN120 BECMG=
200805191000 METAR MROC 191000Z 08006KT CAVOK 20/14 A2998 RMK TRACE SC BKN120 BECMG=
200805191100 METAR MROC 191100Z 06007KT CAVOK 20/14 A2999 RMK BKN120=
200805191200 METAR MROC 191200Z 07008KT CAVOK 20/14 A2999 RMK TRACE SCT BKN120 FEW250=
200805191300 METAR MROC 191300Z 07012KT CAVOK 22/14 A3001 RMK BKN120 TRACE CI BECMG=
200805191400 METAR MROC 191400Z 08007KT CAVOK 24/14 A3004 BKN120 TRACE CI=
200805191500 METAR MROC 191500Z 19007KT CAVOK 25/16 A3006 RMK BKN120 BECMG 24010KT=
200805191600 METAR MROC 191600Z 22007KT CAVOK 24/18 A3006 RMK TRACE SC BKN120 BECMG=
200805191700 METAR MROC 191700Z 25008KT 9999 FEW030 OVC120 23/18 A3007 BECMG=
200805191800 METAR MROC 191800Z 25005KT 9999 FEW030 OVC120 24/18 A3005 BECMG=
200805191900 METAR MROC 191900Z 23006KT 9999 -DZ FEW030 BKN120 24/18 A3003 BECMG=
200805192000 METAR MROC 192000Z 24006KT 9999 SCT025 BKN120 25/19 A3000 REDZ RMK RASH DST E BECMG=
200805192100 METAR MROC 192100Z 23006KT 9999 FEW015 SCT025 BKN120 24/19 A2999 RMK RN NE BECMG=
200805192200 METAR MROC 192200Z 24005KT 9999 FEW015 SCT025 BKN120 23/19 A2998 RMK RN N NE TRACE CI BECMG=
200805192300 METAR MROC 192300Z 25006KT 9999 SCT030 BKN120 23/19 A3001 RMK TRACE CI RN N NE BECMG=
200805192345 METAR MROC 192345Z 28006KT 9999 FEW004 SCT025 BKN120 21/18 A2999 RMK RN DST N NE E=
200805200000 METAR MROC 200000Z 24006KT 9999 SCT030 BKN120 22/19 A3003 RMK RN DST N NE E BECMG=
200805200100 METAR MROC 200100Z 25004KT 9999 SCT030 BKN120 22/20 A3005 BECMG=
200805200200 METAR MROC 200200Z 23003KT 9999 FEW008 SVCT030 BKN120 22/20 A3006 BECMG=
200805200300 METAR MROC 200300Z 00000KT 9999 FEW010 SCT025 BKN100 21/20 A3008 BECMG=
200805200400 METAR MROC 200400Z 25004KT 9999 FEW010 BKN025 21/19 A3009 RMK SCT100 BECMG=
200805200450 METAR MROC 240500Z 00000KT 2000 BR SCT001 SCT015 BKN030 20/19 A3005 BECMG=
200805200500 METAR MROC 200500Z 25004KT 9999 SCT020 BKN120 21/19 A3009 BECMG=
200805200600 METAR MROC 200600Z 29002KT 9999 FEW025 BKN120 20/19 A3007 BECMG=
200805200700 METAR MROC 200700Z 00000KT 9999 -DZRA FEW020 OVC100 20/19 A3005 BECMG 7000 -RA=
200805200800 METAR MROC 200800Z 00000KT 9999 -DZ FEW020 OVC100 20/19 A3005 BECMG 7000 -DZRA VCFG FEW003 OVC100=
200805200900 METAR MROC 200900Z 11003KT 9999 FEW030 SCT090 BKN110 20/19 A3000 REDZ BECMG CAVOK=
200805201000 METAR MROC 201000Z 08005KT CAVOK 20/18 A3000 RMK SCT090 BKN110 BECMG=
200805201100 METAR MROC 201100Z 08005KT CAVOK 21/18 A3001 RMK SCT090 SCT110 BECMG=
200805201200 METAR MROC NIL=
200805201300 METAR MROC 201300Z 00000KT CAVOK 22/19 A3004 RKM BKN100 BECMG=
200805201400 METAR MROC 201400Z 21002KT 9999 FEW040 SCT100 BKN260 24/19 A3006 RMK HZ W BECMG=
200805201500 METAR MROC 201500Z 24007KT 9999 FEW040 SCT130 BKN260 25/19 A3007 RMK HZ W BECMG=
200805201600 METAR MROC 201600Z 23008KT 9999 FEW035 SCT130 BKN260 26/19 A3005 RMK TCU HZ W BECMG=
200805201700 METAR MROC 201700Z 23008KT 9999 SCT035 BKN260 26/19 A3004 RMK HZ W TRACE AC BECMG=
200805201800 METAR MROC 201800Z 22010KT 9999 SCT035 BKN260 26/20 A3002 RMK TRACE AC HZ W=
200805201900 METAR MROC 201900Z 27008KT 9999 SCT030 BKN260 25/20 A3000 RMK RN NE E BECMG=
200805202000 METAR MROC 202000Z 22007KT 9999 SCT030 BKN260 24/20 A2991 RMK RN N NE E S BECMG=
200805202100 METAR MROC 202100Z 23006KT 9999 FEW010 SCT040 BKN250 23/20 A2995 RN E/W VSBY N 6KM DUE LOW ST BECMG=
200805202200 METAR MROC 202200Z 22006KT 4000 -RA SCT010 BKN020 21/20 A2997 VSBY NE E UNL BECMG 2000=
200805202300 METAR MROC 202300Z 00000KT 5000 RA BR SCT020 OVC100 20/19 A2998 VSBY S UNL VSBY N 3KM BECMG=
200805210000 METAR MROC 210000Z 35003KT 5000 RA SCT012 SCT035 20/19 A3001 BECMG=
200805210100 METAR MROC 210100Z 29002KT 8000 RA VCFG SCT006 BKN015 20/19 A3002 VSBY NE E UNL BECMG=
200805210200 METAR MROC 210200Z 30002KT 9999 RA VCFG SCT004 BKN018 20/19 A3005 BECMG=
200805210300 METAR MROC 210300Z 04002KT 9999 -RA VCFG FEW004 SCT015 BKN025 20/19 A3006 BECMG=
200805210400 METAR MROC 210400Z 00000KT 9999 -RA FEW030 OVC100 20/19 A3004 BECMG=
200805210500 METAR MROC 210500Z 00000KT CAVOK 20/19 A3003 RMK TRACE ST SC FEW090 BKN130 BECMG=
200805210600 METAR MROC 210600Z 00000KT CAVOK 20/19 A3001 RMK TRACE SC BKN120 BECMG=
200805210700 METAR MROC 210700Z 02003KT CAVOK 19/19 A2998 RMK TRACE SC SCT140 SCT250 BECMG=
200805210800 METAR MROC 210800Z 11003KT CAVOK 19/18 A2997 RMK TRACE SC BKN140 BECMG=
200805210900 METAR MROC 210900Z 08003KT CAVOK 19/18 A2996 RMK TRACE SC SCT140 SCT250 BECMG=
200805211000 METAR MROC 211000Z 00000KT CAVOK 19/18 A2997 RMK TRACE SC SCT140 SCT250 BECMG=
200805211100 METAR MROC 211100Z 00000KT CAVOK 19/17 A2998 RMK TRACE SC SCT240 BECMG=
200805211200 METAR MROC 211200Z 00000KT 9999 FEW025 SCT130 BKN250 19/17 A3001 RMK CB DST S BECMG=
200805211300 METAR MROC 211300Z 05004KT 9999 FEW025 BKN100 21/18 A3002 RMK CB DIST S W TRACE CI BECMG=
200805211400 METAR MROC 211400Z VRB02KT 9999 FEW035 BKN100 22/19 A3004 BECMG 24006=
200805211500 METAR MROC 211500Z 28002KT 9999 FEW040 BKN120 24/19 A3005 BECMG=
200805211600 METAR MROC 211600Z 28004KT 9999 FEW015 BKN100 24/19 A2995 FEW080 BECMG=
200805211700 METAR MROC 211700Z 24005KT 9999 FEW020 BKN100 25/20 A3003 BECMG=
200805211800 METAR MROC 211800Z 25006KT 9999 FEW025 SCT100 BKN260 25/20 A2999 BECMG=
200805211900 METAR MROC 211900Z 25006KT 9999 FEW025 BKN120 25/20 A2997 CB DST E BECMG=
200805212000 METAR MROC 212000Z 25012KT 9999 SCT015TCU BKN120 24/20 A2995 TCU/RN S E=
200805212100 METAR MROC 212100Z 22010KT 8000 VCFG FEW005 SCT015 BKN110 23/21 A2995 BECMG 5000 -RA BR=
200805212200 METAR MROC NIL=
200805212300 METAR MROC 212300Z 26008KT 2000 -DZ BR SCT001 BKN025 20/20 A2996 BECMG 0500 FG=
200805212355 METAR MROC 220000Z 00000KT 2000 RA BR SCT001 SCT010 OVC030 20/19 A2998 BECMG 0800 FG=
200805220000 METAR MROC 220000Z 00000KT 2000 RA BR SCT001 SCT010 OVC030 20/19 A2998 BECMG 0800 FG=
200805220100 METAR MROC 220100Z 00000KT 5000 -RA BR FEW001 BKN015 19/19 A3000 BECMG=
200805220200 METAR MROC 220200Z 29003KT 7000 -RA VCFG FEW001 SCT010 BKN030 20/19 A3003 BECMG=
200805220300 METAR MROC NIL=
200805220400 METAR MROC 220400Z 00000KT 8000 RA SCT025 OVC100 19/19 A3006 BECMG=
200805220500 METAR MROC 220500Z 00000KT 9999 RA SCT025 OVC100 20/19 A3006 BECMG=
200805220600 METAR MROC 220600Z 08002KT 9999 RA SCT030 OVC100 20/19 A3004 BECMG=
200805220700 METAR MROC 220700Z 00000KT 9999 -RA FEW030 OVC100 19/19 A3001 BECMG=
200805220800 METAR MROC 220800Z 00000KT 9999 -DZ FEW030 OVC100 19/19 A2998 BECMG=
200805220900 METAR MROC 220900Z 00000KT 9999 FEW030 OVC100 19/19 A2997 REDZ BECMG=
200805221000 METAR MROC 221000Z 07002KT 9999 -DZ FEW030 OVC100 19/18 A2996 BECMG=
200805221100 METAR MROC 221100Z 00000KT 9999 -DZ OVC100 19/18 A2996 BECMG=
200805221200 METAR MROC 221200Z 00000KT CAVOK 19/18 A2997 RMK OVC100 TRACE SC BECMG=
200805221300 METAR MROC 221300Z 00000KT CAVOK 21/18 A2998 BECMG 24006 RMK OVC120 TRACE SC=
200805221400 METAR MROC 221400Z 00000KT CAVOK 22/18 A3002 RMK SCT120 BKN250 BECMG=
200805221500 METAR MROC 221500Z 00000KT CAVOK 23/17 A3003 RMK SCT120 BKN250 BECMG=
200805221600 METAR MROC NIL=
200805221700 METAR MROC 221700Z 23006KT 9999 FEW030 BKN270 26/17 A3002 BECMG=
200805221800 METAR MROC 221800Z 22005KT 9999 FEW025 SCT100 BKN250 27/19 A3000 RMK TCU DST S BECMG=
200805221900 METAR MROC 221900Z 24010KT 9999 FEW025 SCT100 BKN250 26/19 A2997 BECMG=
200805222000 METAR MROC 222000Z 23010KT 9999 FEW020TCU SCT100 BKN250 26/20 A2996 RMK RN DST E SE BECMG 7000=
200805222100 METAR MROC 222100Z 21011KT 9999 VCSH SCT015TCU SCT025 25/20 A2994 RMK VIS 7000 W SSE BECMG=
200805222200 METAR MROC 222200Z 22009KT 9999 4000E VCSH SCT015CB BKN025 23/19 A2996 RMK RN DST N NE BECMG 5000 -RATS=
200805222300 METAR MROC 222300Z 21007KT 9999 -RA FEW012CB SCT015 BKN025 22/19 A2998 RMK VIS 6000 NE RN DIST ARND BECMG 6000 RA=
200805230000 METAR MROC 230000Z 29004KT 9999 -DZ FEW008 SCT025 BKN080 20/20 A3000 RMK RN DST ARND BECMG 7000 RA=
200805230100 METAR MROC 230100Z 00000KT 9999 FEW020 BKN110 21/19 A3002 BECMG=
200805230200 METAR MROC 230200Z 00000KT 9999 DZ SCT020 BKN100 21/18 A3005 BECMG 7000 RA=
200805230300 METAR MROC 230300Z 10003KT 9999 FEW025 SCT130 BKN250 20/19 A3004 BECMG=
200805230400 METAR MROC NIL=
200805230500 METAR MROC 230500Z 00000KT 9999 FEW020 BKN130 20/19 A3006 BECMG=
200805230600 METAR MROC 230600Z 00000KT 9999 FEW015 SCT140 20/19 A3005 BECMG=
200805230700 METAR MROC 230700Z 00000KT 9999 SCT025 BKN150 20/19 A3003 BECMG=
200805230800 METAR MROC 230800Z 00000KT 9999 SCT012 SCT025 BKN100 20/19 A2999 BECMG=
200805230900 METAR MROC 230900Z 00000KT 9999 SCT025 BKN130 20/18 A2998 BECMG=
200805231000 METAR MROC 231000Z 05004KT 9999 FEW040 SCT120 20/18 A2998 BECMG=
200805231100 METAR MROC 231100Z 05003KT CAVOK 20/18 A2999 TRAZAS SCT BKN090 BECMG=
200805231200 METAR MROC 231200Z 03003KT CAVOK 20/18 A3000 TRACE SCT SCT090 BKN280 BECMG=
200805231300 METAR MROC 231300Z 00000KT 9999 FEW030 BKN090 21/19 A3003 BECMG=
200805231400 METAR MROC 231400Z 00000KT 9999 FEW030 BKN100 22/20 A3005 RMK HZ W NW BECMG 24006KT=
200805231500 METAR MROC 231500Z 00000KT 9999 FEW030 SCT120 25/19 A3005 RMK FEW250 BECMG 24005KT=
200805231600 METAR MROC 231600Z 27002KT 9999 FEW030 SCT120 BKN250 26/19 A3004 BECMG=
200805231700 METAR MROC 231700Z 26005KT 9999 FEW020TCU SCT030 26/20 A3002 RMK FEW250 BECMG=
200805231800 METAR MROC 231800Z 25011KT 9999 FEW020TCU SCT030 BKN250 27/21 A3000 RMK RN DST NE BECMG 7000 VCSH=
200805231900 METAR MROC 231900Z 24008KT 9999 4000SE VCSH SCT015CB BKN030 25/20 A2999 RMK TS DST E NE BECMG 5000 -TSRA=
200805232000 METAR MROC 232000Z 11005KT 5000 -TSRA SCT012CB BKN080 21/21 A2998 RMK VIS 9999 S NW BECMG=
200805232100 METAR MROC 232100Z 26005KT 7000 -RA VCSH BR FEW015CB SCT030 BKN070 21/19 A2998 RETS RMK VIS SE UNLTD BECMG=
200805232200 METAR MROC 232200Z 20002KT 1000 0400SE -RA BR BKN002 SCT008 20/19 A2998 RMK FG BANK SE S SW APCH RNY 07 CLOSED BECMG 3000=
200805232300 METAR MROC 232300Z 00000KT 7000 -RA VCFG BR FEW005 SCT020 BKN040 20/19 A3000 RMK VIS SW W 4KMS VIS N NE 5KMS BECMG=
200805240000 METAR MROC NIL=
200805240100 METAR MROC NIL=
200805240200 METAR MROC NIL=
200805240300 METAR MROC 240300Z 00000KT 9999 VCFG FEW003 SCT015 OVC080 20/19 A3005 RMK VIS SW WSW 6 KMS BECMG 5000 -RA BR=
200805240400 METAR MROC 240400Z 00000KT 2000 -DZ BR SCT001 SCT015 BKN030 20/19 A3006 BECMG 6000=
200805240500 METAR MROC 240500Z 00000KT 2000 BR SCT001 SCT015 BKN030 20/19 A3005 BECMG=
200805240600 METAR MROC 240600Z 00000KT 6000 VCFG FEW003 SCT020 BKN100 20/19 A3003 BECMG=
200805240650 METAR MROC 200700Z 00000KT 3000 BR FEW001 SCT020 19/19 A3000 BECMG=
200805240700 METAR MROC 240700Z 00000KT 3000 BR FEW001 SCT020 19/19 A3000 BECMG=
200805240800 METAR MROC NIL=
200805240900 METAR MROC 240900Z 00000KT 9999 FEW020 SCT120 20/19 A2998 BECMG=
200805241000 METAR MROC 241000Z 10003KT 9999 FEW030 SCT120 19/18 A2997 RMK BECMG CAVOK=
200805241100 METAR MROC 241100Z 00000KT CAVOK 18/17 A2997 RMK TRACE SC BKN270=
200805241200 METAR MROC 241200Z 12004KT CAVOK 18/17 A2998 RMK TRACE SC BKN270 BECMG=
200805241300 METAR MROC 241300Z 05005KT CAVOK 21/18 A2999 TRACE SCT BKN250 BECMG=
200805241400 METAR MROC 241400Z 09002KT CAVOK 24/18 A3001 RMK TRACE SC SCT250 BECMG=
200805241500 METAR MROC 241500Z 23005KT 9999 FEW035 25/20 A3002 RMK FEW250 LGT HZ ARND BECMG=
200805241600 METAR MROC 241600Z 25009KT 9999 SCT030 25/20 A3002 BECMG=
200805241700 METAR MROC 241700Z 23009KT 9999 SCT030 SCT070 25/19 A3001 RMK PRECIPITACION=
200805241800 METAR MROC 241800Z 25010KT 9999 FEW020TCU SCT030 BKN060 24/20 A3000 RMK RN DIST E SE BECMG 6000 VCSH=
200805241900 METAR MROC 241900Z 26011KT 9999 SCT015TCU SCT030 23/20 A2998 RMK RASH=
200805242000 METAR MROC 242000Z 26010KT 8000 3000SW -RA VCSH FEW007 SCT015TCU BKN030 21/20 A2997 RMK VIS N NE UNLTD BECMG 3000 SHRA=
200805242100 METAR MROC 242100Z 26008KT 3000 -RA BR SCT002 SCT015TCU 20/20 A2996 BECMG=
200805242200 METAR MROC 242200Z 28004KT 4000 RA BR FEW002 SCT010 OVC100 20/20 A2997 BECMG=
200805242300 METAR MROC 242300Z 31004KT 2500 RA BR FEW001 SCT010 OVC100 19/19 A2998 BECMG=
200805250000 METAR MROC 250000Z 00000KT 6000 2000SW RA BR FEW001 SCT015 OVC100 19/19 A3000 BECMG=
200805250100 METAR MROC 250100Z 00000KT 6000 2000SW +RA BR FEW001 SCT015 OVC100 20/19 A3002 BECMG=
200805250200 METAR MROC 250200Z 00000KT 6000 2000SW RA BR FEW001 SCT010 BKN090 19/19 A3004 BECMG 4000 -RA BR=
200805250300 METAR MROC NIL=
200805250400 METAR MROC 250400Z 00000KT 9999 -RA VCFG FEW005 SCT015 BKN100 19/19 A3005 RMK VIS 6000SW BECMG=
200805250500 METAR MROC 250500Z 00000KT 8000 0800S -RA FG FEW001 SCT008 BKN100 19/19 A3004 RMK VIS 5000SW BR BECMG 2000 -RA BR=
200805250600 METAR MROC 250600Z 00000KT 8000 -RA VCFG FEW004 SCT012 BKN100 19/19 A3003 BECMG 2000 -RA BR=
200805250700 METAR MROC 250700Z 00000KT 7000 VCFG SCT003 BKN012 19/19 A3001 RERA RMK VIS SW 5KM DUE ST BECMG 3000 BR SCT002 BKN012=
200805250800 METAR MROC 250800Z 00000KT 8000 3000SW VCFG BR FEW002 SCT015 SCT100 19/19 A2999 BECMG 3000 BR SCT002 BKN015=
200805250900 METAR MROC 250900Z 00000KT 9999 -DZ VCFG FEW002 SCT025 19/18 A2998 RMK SCT100 VIS SW 6KM DUE ST BECMG=
200805251000 METAR MROC 251000Z 00000KT 9999 -DZ SCT025 BKN100 19/18 A2999 RMK ST SSE/S BECMG=
200805251100 METAR MROC 251100Z 00000KT 9999 -RA FEW025 OVC090 19/18 A3000 RMK ST SSE S BECMG 7000 VCFG FEW003 FEW025 BKN090=
200805251200 METAR MROC 251200Z 09002KT 9999 FEW025 BKN090 19/19 A3000 RMK DZ DST NE DUE ST S SW LINEA TCU DST SW BECMG=
200805251300 METAR MROC 251300Z 00000KT CAVOK 20/19 A3001 RMK TRACE SC BKN100 BECMG=
200805251400 METAR MROC 251400Z 08002KT 9999 FEW020 BKN100 23/20 A3002 BECMG=
200805251500 METAR MROC 251500Z 17003KT 9999 FEW030 BKN100 25/19 A3001 BECMG=
200805251600 METAR MROC NIL=
200805251700 METAR MROC 251700Z 24009KT 9999 SCT030 SCT100 24/21 A3001 RMK TRACE CI BECMG=
200805251800 METAR MROC 251800Z 23010KT 9999 SCT030 SCT250 26/20 A2999 RMK FEW100 BECMG=
200805251900 METAR MROC 251900Z 24010KT 9999 SCT030 SCT250 25/20 A2996 RMK TRACE AC RN DST N NE BECMG=
200805252000 METAR MROC 252000Z 24011KT 9999 FEW015TCU SCT030 BKN250 24/20 A2995 RMK RN NE E S BECMG=
200805252100 METAR MROC 252100Z 22009KT 9999 4000SE VCSH 23/20 A2992 RMK DIST RASH SW W BECMG 3000 -RA=
200805252200 METAR MROC 252200Z 24008KT 4000 RA BR SCT010 BKN020 21/20 A2992 BECMG=
200805252300 METAR MROC 252300Z 14003KT 4000 -RA BR FEW008 SCT030 BKN100 19/18 A2994 BECMG=
200805260000 METAR MROC 260000Z 17003KT 4000 -RA BR FEW008 SCT030 OVC100 19/18 A2997 BECMG=
200805260100 METAR MROC 260100Z 16003KT 4000 RA BR SCT003 OVC030 18/18 A2999 BECMG=
200805260200 METAR MROC 260200Z 00000KT 5000 RA BR SCT003 BKN030 18/17 A3001 BECMG=
200805260300 METAR MROC 260300Z 00000KT 4000 RA BR SCT004 BKN030 18/18 A3004 BECMG=
200805260400 METAR MROC 260400Z 00000KT 2500 -RA BR SCT002 BKN035 18/18 A3004 BECMG=
200805260500 METAR MROC 260500Z 13002KT -DZ SCT060 BKN090 18/18 A3002 RMK TRACE ST SC BECMG CAVOK=
200805260600 METAR MROC 260600Z 07002KT CAVOK 19/18 A3000 TRACE SCT SCT050 BKN080 BECMG=
200805260700 METAR MROC 260700Z 00000KT CAVOK 19/18 A2998 RMK FEW060 BKN100 BECMG=
200805260800 METAR MROC 260800Z 08002KT CAVOK 19/18 A2996 RMK TRACE SC SCT050 BKN100 BECMG=
200805260900 METAR MROC 260900Z 11002KT CAVOK 19/18 A2994 RMK TRACE SC SCT080 BKN150 BECMG=
200805261000 METAR MROC 261000Z 00000KT CAVOK 19/18 A2995 RMK TRACE SC SCT070 BKN100 BECMG=
200805261100 METAR MROC 261100Z 00000KT 5000 -RA BR SCT002 SCT015 BKN100 18/18 A2996 BECMG=
200805261200 METAR MROC 261200Z 00000KT 9999 4000E -RA BR FEW001 SCT100 BKN140 19/18 A2998 BECMG 04004KT 9999 FEW030 SCT120=
200805261300 METAR MROC 261300Z 10003KT 7000 VCFG FEW004 SCT012 BKN100 20/19 A2999 VSBY S SE E UNL BECMG=
200805261400 METAR MROC 261400Z 00000KT 9999 SCT012 BKN120 21/19 A2999 BECMG=
200805261500 METAR MROC 261500Z 29005KT 9999 DZ FEW004 SCT015 BKN100 21/18 A3000 VSBY SW N 6KM DUE LOW ST BECMG=
200805261600 METAR MROC 261600Z 30005KT 9999 SCT010 BKN120 22/19 A2999 BECMG=
200805261700 METAR MROC 261700Z 20002KT 9999 SCT015 BKN260 24/19 A2996 RMK RN DST E BECMG=
200805261800 METAR MROC 261800Z 26004KT 9999 FEW020 SCT120 BKN260 24/19 A2993 BECMG=
200805261900 METAR MROC 261900Z 24003KT 9999 FEW025 BKN130 26/19 A2990 BECMG=
200805262000 METAR MROC 262000Z 23006KT 9999 FEW025 BKN130 26/19 A2987 BECMG=
200805262100 METAR MROC 262100Z 24008KT 9999 FEW020 SCT120 BKN250 25/20 A2987 BECMG=
200805262200 METAR MROC 262200Z 25009KT 9999 SCT020CB BKN035 23/20 A2988 RMK BKN250 BECMG 5000 -TSRA=
200805262300 METAR MROC 262300Z 26005KT 9999 FEW015 SCT030 SCT100 22/18 A2990 RMK BKN250 BECMG=
200805262354 METAR MROC 270000Z 25005KT 9999 FEW015 SCT025 BKN250 21/20 A2991 BECMG=
200805270000 METAR MROC 270000Z 25005KT 9999 FEW015 SCT025 BKN250 21/20 A2991 BECMG=
200805270100 METAR MROC 270100Z 25003KT 9999 FEW020 BKN250 21/19 A2994 BECMG=
200805270200 METAR MROC 270200Z 29003KT CAVOK 20/19 A//// TRACE SCT AS BECMG=
200805270300 METAR MROC 270300Z 32004KT 9999 FEW008 SCT030 BKN120 20/19 A2996 BECMG=
200805270400 METAR MROC 270400Z 00000KT 9999 FEW008 SCT030 BKN120 20/19 A2998 BECMG=
200805270500 METAR MROC 270500Z 33003KT 9999 FEW008 SCT030 BKN120 20/19 A2997 BECMG=
200805270600 METAR MROC 270600Z 00000KT 9999 FEW010 BKN120 20/19 A2999 RMK TRACE SC CI BECMG=
200805270700 METAR MROC 270700Z 00000KT 9999 FEW010 SCT120 19/19 A2992 RMK TRACE SC CI BECMG=
200805270800 METAR MROC 270800Z 00000KT CAVOK 19/18 A2990 RMK TRACE SC CI SCT120=
200805270900 METAR MROC 270900Z 00000KT CAVOK 19/19 A2988 RMK TRACE SC CI SCT120 BECMG=
200805271000 METAR MROC 271000Z 09003KT CAVOK 19/18 A2988 RMK TRACE SC CI SCT120 BECMG=
200805271100 METAR MROC 271100Z 00000KT CAVOK 19/18 A2990 RMK TRACE SC BKN120 BECMG=
200805271200 METAR MROC 271200Z 00000KT 9999 FEW020 BKN120 19/18 A2992 RMK CB DST SW BECMG=
200805271300 METAR MROC 271300Z 00000KT CAVOK 21/18 A2993 RMK TRACE SC OVC120 RN DST SW BECMG 7000 VCSH=
200805271400 METAR MROC 271400Z 00000KT 9999 FEW025 BKN100 22/18 A2995 RMK RN DST SW BECMG=
200805271500 METAR MROC 271500Z 00000KT 9999 -RA FEW015 OVC090 22/19 A2996 BECMG=
200805271600 METAR MROC 271600Z 00000KT 9999 SCT020 OVC120 23/19 A2996 RERA RMK RN DST E NE BECMG=
200805271700 METAR MROC 271700Z 27004KT 9999 SCT025 BKN120 24/19 A2994 RMK DST S SW BECMG=
200805271800 METAR MROC 271800Z 28007KT 9999 SCT020 BKN100 23/18 A2993 RMK RN DST S SW BECMG 6000 VCSH=
200805271900 METAR MROC 271900Z 26007KT 9999 -RA FEW003 SCT010 BKN020 21/20 A2991 RMK VIS SW 7 KMS DUE ST=
200805272000 METAR MROC 272000Z 26006KT 7000 -RA FEW003 SCT010 BKN025 21/20 A2989 BECMG 3000 RA BR=
200805272100 METAR MROC 272100Z 28006KT 9999 -RA VCFG SCT004 FEW012TCU BKN020 21/20 A2987 RMK VIS 7000SW BECMG 5000 RA BR=
200805272200 METAR MROC 272200Z 27005KT 9999 4000SW -RA BR SCT004 BKN015 20/20 A2987 RMK VIS 7000S BECMG 5000 +RA BR=
200805272300 METAR MROC 272300Z 30004KT 1500 -RA BR SCT002 BKN010 20/20 A2988 RMK VIS 5000E BECMG 1000 RA BR=
200805280000 METAR MROC 280000Z 28005KT 1500 -RA BR BKN003 BKN012 20/20 A2990 BECMG 0500 -RA FG=
200805280100 METAR MROC 280100Z 30003KT 1000 RA BR SCT002 BKN015 19/19 A2992 BECMG 2000 RA BR=
200805280200 METAR MROC 280200Z 32003KT 5000 DZ BR FEW002 SCT007 BKN012 19/19 A2994 BECMG=
200805280300 METAR MROC 280300Z 31003KT 4000 DZ BR SCT002 BKN007 19/19 A2993 TREND BECMG=
200805280400 METAR MROC 280400Z 30004KT 5000 DZ BR SCT003 BKN010 19/18 A2994 TREND BECMG=
200805280500 METAR MROC 280500Z 31003KT 9000 4000W -DZ FEW005 BKN020 19/19 A2995 VIS SE E UNL CNDS VRBL TREND 9999=
200805280600 METAR MROC 280600Z 00000KT 9999 SCT015 BKN040 19/19 A2993 REDZ TREND BECMG=
200805280700 METAR MROC 280700Z 00000KT 9999 -DZ SCT020 BKN100 19/19 A2991 TREND BECMG=
200805280800 METAR MROC 280800Z 12002KT 9999 -RA FEW005 BKN100 19/18 A2988 TEND BECMG=
200805280900 METAR MROC 280900Z 08002KT 9999 -RA FEW040 OVC100 19/18 A2987 TREND BECMG=
200805281000 METAR MROC 281000Z 00000KT 9999 -RA FEW040 BKN100 19/17 A2988 TREND BECMG=
200805281100 METAR MROC 281100Z 00000KT 8000 RA SCT040 OVC100 19/18 A2990 TREND BECMG=
200805281200 METAR MROC 281200Z 00000KT 4000 RA BR FEW003 BKN030 19/18 A2991 TREND BECMG=
200805281300 METAR MROC 281300Z 00000KT 0800 RA FG SCT002 BKN008 19/19 A2996 BECMG 2000 RA BR=
200805281400 METAR MROC 281400Z 00000KT 3000 -RA BR FEW0012 BKN012 19/19 A2997 BECMG 5000 -RA BR=
200805281500 METAR MROC 281500Z 02003KT 9999 VCFG SCT008 BKN220 21/19 A2996 RMK FEW120 VIS 7000SW BECMG=
200805281600 METAR MROC 281600Z 00000KT 9999 -DZ FEW015 SCT090 BKN220 23/20 A2995 BECMG=
200805281700 METAR MROC 281700Z 24007KT 9999 -DZ FEW008 SCT020 BKN090 23/20 A2994 BECMG 7000 -RA=
200805281800 METAR MROC 281800Z 23007KT 7000 3000SW RA BR FEW003 SCT015 BKN090 20/20 A2995 BECMG=
200805281900 METAR MROC 281900Z 30005KT 7000 3000SW -RA BR FEW005 SCT015 BKN090 20/19 A2994 BECMG=
200805282000 METAR MROC 282000Z 27005KT 7000 RA VCFG FEW005 SCT015 BKN090 20/18 A2992 BECMG=
200805282100 METAR MROC 282100Z 33003KT 9999 -RA FEW012 SCT025 BKN080 20/18 A2990 BECMG 5000 -RA BR=
200805282200 METAR MROC 282200Z 02003KT 8000 -RA FEW008 SCT020 BKN080 19/18 A2990 BECMG 5000 -RA BR=
200805282300 METAR MROC 282300Z 00000KT 8000 -RA VCFG FEW004 SCT025 BKN080 19/18 A2991 VIS 5KMS SW BECMG 4000 -RA BR=
200805290000 METAR MROC 290000Z 00000KT 9999 -RA FEW070 OVC100 20/18 A2992 BECMG=
200805290100 METAR MROC 290100Z 31003KT 6000 RA FEW005 SCT050 BKN090 19/18 A2996 BECMG 4000 -RA BR=
200805290200 METAR MROC 290200Z 05005KT 9999 FEW012 SCT030 BKN100 19/18 A2995 BECMG 6000 -RA VCFG=
200805290300 METAR MROC 290300Z 00000KT 9999 RA FEW010 SCT025 OVC100 18/18 A2998 BECMG=
200805290400 METAR MROC 290400Z 00000KT 9999 RA FEW015 SCT025 OVC100 19/18 A2999 BECMG=
200805290500 METAR MROC 290500Z 35003KT 5000 RA BR FEW005 SCT020 OVC100 18/18 A2999 BECMG=
200805290600 METAR MROC 290600Z 02003KT 5000 RA BR FEW005 SCT020 OVC100 18/18 A2999 BECMG=
200805290700 METAR MROC 290700Z 00000KT 9999 BR FEW020 OVC100 18/18 A2999 BECMG=
200805290800 METAR MROC 290800Z 26004KT 9999 FEW020 OVC120 18/18 A2993 BECMG=
200805290900 METAR MROC 290900Z 35005KT 9999 -RA FEW030 BKN120 18/18 A2989 RMK BECMG 6000 -RA VCFG=
200805291000 METAR MROC 291000Z 30007KT 3000 -SHRA SCT010 BKN020 19/18 A2991 RMK BECMG 0500=
200805291100 METAR MROC 291100Z 31004KT 2000 BR SCT002 BKN010 19/18 A2989 RMK BECMG 0500 BKN001=
200805291200 METAR MROC 291200Z 04003KT 4000 RA BR FEW005 SCT015 OVC100 18/18 A2992 BECMG 2000 -RA BR=
200805291300 METAR MROC 291300Z 29002KT 5000 2000SE -RA BR FEW008 SCT020 OVC100 19/18 A2994 BECMG=
200805291400 METAR MROC 291400Z 31004KT 2000 -RA BR FEW001 SCT003 BKN008 19/18 A2997 BECMG 4000=
200805291500 METAR MROC 291500Z 27004KT 2000 RA BR FEW001 SCT003 BKN007 19/18 A3000 BECMG=
200805291600 METAR MROC 291600Z 32003KT 2000 -RADZ SCT003 BKN008 OVC100 19/18 A3001 BECMG=
200805291700 METAR MROC 291700Z 26006KT 3000 -RADZ SCT003 BKN010 19/19 A3000 BECMG=
200805291800 METAR MROC 291800Z 31004KT 2000 RA DZ SCT003 BKN007 19/19 A2999 BECMG=
200805291900 METAR MROC 291900Z 26002KT 7000 -RA VCFG FEW003 SCT010 BKN100 19/19 A3001 BECMG 4000 -RA BR=
200805292000 METAR MROC 292000Z 27005KT 2000 RA BR SCT002 BKN005 19/18 A3001 RMK VRBLS CONDTNS BECMG 4000=
200805292100 METAR MROC 292100Z 31004KT 3000 RA BR FEW002 SCT020 BKN030 18/18 A2997 BECMG=
200805292200 METAR MROC 292200Z 33004KT 3000 RA BR FEW002 SCT020 BKN030 18/18 A3000 BECMG=
200805292300 METAR MROC 292300Z 00000KT 5000 RA BR FEW002 SCT025 BKN035 18/18 A2998 BECMG 2000 RA=
200805300000 METAR MROC 300000Z 00000KT 9999 -RA VCFG FEW008 SCT030 OVC100 19/18 A3000 BECMG 5000 RA=
200805300100 METAR MROC 300100Z 00000KT 9999 -RA SCT030 OVC100 19/18 A3003 RMK TRACE ST BECMG 5000 RA=
200805300200 METAR MROC 300200Z 10003KT 9999 -DZ FEW030 OVC100 18/18 A3003 RMK TRACE ST BECMG=
200805300300 METAR MROC 300300Z 00000KT CAVOK SCT070 BKN120 18/18 A3005 RMK TRACE SC DUE ST SW BECMG=
200805300400 METAR MROC 300400Z 00000KT CAVOK 18/18 A3007 RMK TRACE SC SCT070 BKN120 DUE ST S SW BECMG=
200805300500 METAR MROC 300500Z 00000KT 9999 -DZ OVC100 18/18 A3006 RMK TRACE SC DUE ST SW BECMG=
200805300600 METAR MROC 300600Z 00000KT 9999 FEW040 BKN100 18/18 A3004 RMK DUE ST BECMG=
200805300700 METAR MROC 300700Z 00000KT 9999 FEW040 BKN100 18/17 A3003 RMK ST S BECMG=
200805300800 METAR MROC 300800Z 00000KT 9999 SCT035 SCT100 18/17 A3002 RMK SCT S BECMG 07006KT=
200805300900 METAR MROC 300900Z 00000KT 9999 FEW035 BKN110 18/17 A3002 RMK ST S BECMG=
200805301000 METAR MROC 301000Z 08003KT 9999 FEW035 SCT110 18/17 A3003 RMK SCT250 BECMG=
200805301100 METAR MROC 301100Z 00000KT CAVOK 18/17 A3003 RMK BKN110 TCU DST S BECMG 03005KT=
200805301200 METAR MROC 301200Z 00000KT CAVOK 19/17 A3003 RMK TRACE SC SCT120 TCU DST S SW BECMG=
200805301300 METAR MROC 301300Z 10004KT CAVOK 21/18 A3004 RMK FEW120 BECMG=
200805301400 METAR MROC 301400Z 00000KT CAVOK 24/18 A3005 RMK BECMG 25006KT TRACE AC=
200805301500 METAR MROC 301500Z 23003KT 9999 FEW030 25/19 A3006 BECMG=
200805301600 METAR MROC 301600Z 29005KT 9999 SCT030 25/19 A3005 BECMG=
200805301700 METAR MROC 301700Z 24008KT 9999 SCT025 26/19 A3005 BECMG=
200805301800 METAR MROC 301800Z 23006KT 9999 FEW020TCU BKN025 24/20 A3004 BECMG 7000 VCSH=
200805301900 METAR MROC 301900Z 24012KT 9999 FEW015TCU SCT025 26/20 A3001 BECMG=
200805302000 METAR MROC 302000Z 28010KT 9999 FEW010TCU SCT025 25/21 A2999 RERA BECMG=
200805302100 METAR MROC 302100Z 26010KT 9999 BKN015 25/21 A2995 RN DST W BECMG=
200805302200 METAR MROC 302200Z 27007KT 9999 FEW010 FEW020TCU SCT130 24/20 A2996 BECMG=
200805302300 METAR MROC 302300Z 26008KT 9999 SCT008 FEW015TCU BKN270 23/20 A2997 RN E BECMG=
200805310000 METAR MROC 310000Z 26006KT 9999 SCT008 SCT025 22/20 A3000 VSBY N 6KM DUE LOW ST BECMG 7000=
200805310100 METAR MROC 310100Z 25004KT 9999 BKN008 SCT030 BKN120 21/20 A3002=
200805310200 METAR MROC 310200Z 26003KT 9999 SCT012 BKN260 21/20 A3004 BECMG=
200805310300 METAR MROC 310300Z 00000KT 7000 VCFG FEW003 SCT010 BKN030 21/20 A3005 RMK VIS E SE UNLTD BECMG=
200805310400 METAR MROC 310400Z 00000KT 7000 VCFG FEW002 SCT018 BKN030 21/20 A3000 RMK VIS E SE UNL BECMG=
200805310500 METAR MROC 310500Z 00000KT 9999 2000SW BR FEW015 BKN270 20/19 A3000 FG BANK OVER APCH 07 BECMG 1500 BR=
200805310600 METAR MROC 310600Z 05004KT CAVOK 19/19 A3003 RMK TRACE ST SC BKN250 BECMG=
200805310700 METAR MROC 310700Z 09003KT CAVOK 20/17 A3001 RMK TRACE LOW ST TO S SSW SCT250 BECMG=
200805310800 METAR MROC 310800Z 00000KT 9999 4000SW BR SCT270 ///// A//// RMK TRACE SC FG BANK S SSW SW BECMG 5000=
200805310900 METAR MROC 310900Z 00000KT 9999 4000SW BR SCT270 18/17 A2999 RMK FG BANK S SW TRACE SC BECMG=
200805311000 METAR MROC 311000Z 04004KT CAVOK 19/16 A3000 RMK TRACE SC SCT250 BECMG=
200805311100 METAR MROC 311100Z 00000KT CAVOK 18/16 A3000 RMK TRACE SC BKN250 BECMG=
200805311200 METAR MROC 311200Z 08004KT CAVOK 19/16 A3003 RMK TRACE SC BKN250 BECMG=
200805311300 METAR MROC 311300Z 08003KT CAVOK 22/17 A3003 TRAZAS CU SCT280 BECMG=
200805311400 METAR MROC 311400Z 00000KT CAVOK 25/17 A3004 TRAZAS CU SCT280 TREND BECMG=
200805311500 METAR MROC 311500Z 25004KT CAVOK 25/18 A3005 TRAZAS CU SCT280 TREND BECMG=
200805311600 METAR MROC 311600Z 26006KT 9999 FEW020 SCT280 26/20 A3005 TREND BECMG=
200805311700 METAR MROC 311700Z 24008KT 9999 SCT020 26/20 A3005 FEW280 TREND BECMG=
200805311800 METAR MROC 311800Z 26009KT 9999 FEW015TCU SCT020 26/20 A3003 RN DST E FEW280 TREND BECMG=
200805311900 METAR MROC 311900Z 21007KT 9999 SCT020 BKN250 26/21 A3000 CB/RASH E BECMG 5000 VCSH=
200805312000 METAR MROC 312000Z 23009KT 9999 SCT020 BKN250 24/21 A2999 RN SW TREND 7000 VCSH=
200805312100 METAR MROC 312100Z 27007KT 9999 FEW020 SCT120 BKN230 24/21 A2997 RMK RN DST N NE BECMG 7000 VCSH=
200805312200 METAR MROC 312200Z 25005KT 9999 FEW010 SCT020TCU BKMN250 24/21 A2997 RMK RN DST NW N NE BECMG=
200805312258 METAR MROC 312258Z 26006KT 9999 FEW008 SCT020 BKN220 23/21 A2998 RMK RN DST N NE BECMG 7000 VCFG=
200805312300 METAR MROC 312300Z 26006KT 9999 FEW008 SCT020 BKN220 23/21 A2998 RMK RN DST N NE BECMG 7000 VCFG=
200805312350 METAR MROC 010000Z 26006KT 7000 VCFG FEW003 SCT013 BKN220 22/21 A2999 RN DST N NE BECMG 4000 BR=
200805312358 METAR MROC 010000Z 26006KT 7000 VCFG FEW003 SCT013 BKN220 22/21 A2999 RN DST N NE BECMG 4000 BR=
200806010000 METAR MROC 010000Z 26006KT 7000 VCFG FEW003 SCT013 BKN220 22/21 A2999 RN DST N NE BECMG 4000 BR=
200806010100 METAR MROC 010100Z 25004KT 7000 VCFG FEW005 SCT020 BKN120 21/21 A3000 BECMG=
200806010200 METAR MROC 010200Z 23003KT 7000 2000SW BR FEW001 SCT008 BKN020 21/20 A3002 RMK BECMG 1000 BR SCT001 SCT010=
200806010300 METAR MROC 010300Z 00000KT 9999 3000SW BR FEW001 SCT025 BKN120 21/20 A3004 BECMG=
200806010400 METAR MROC 010400Z 00000KT 9999 3000SW FEW001 SCT010 BKN120 20/20 A3004 BECMG=
200806010500 METAR MROC 010500Z 00000KT 9999 2000SW BR FEW001 SCT008 BKN120 20/20 A3004 BECMG=
200806010600 METAR MROC 010600Z 00000KT 0500 FG VV/// 20/20 A3004 BECMG=
200806010700 METAR MROC 010700Z 00000KT 1000 BR VV/// 20/20 A3002 BECMG=
200806010800 METAR MROC 010800Z 00000KT 7000 1500SW BR FEW001 SCT005 20/20 A3001 BECMG=
200806010900 METAR MROC 010900Z 03003KT 9999 3000SW BR FEW001 SCT030 20/20 A2999 RMK LTNG DST S BECMG=
200806011000 METAR MROC 011000Z 05002KT 9999 2000W BR FEW001 SCT030 20/20 A2998 BECMG=
200806011100 METAR MROC 011100Z 00000KT CAVOK 19/18 A2999 RMK TRACE SC BKN100 BECMG=
200806011200 METAR MROC 011200Z VRB03KT 9999 3000SW BR FEW002 SCT100 BKN250 19/19 A3002 BECMG=
200806011300 METAR MROC 011300Z 04003KT 9999 3000SW BR FEW002 SCT020 BKN250 22/19 A3002 RMK BECMG CAVOK=
200806011400 METAR MROC 011400Z 00000KT 9999 FEW025 BKN250 23/19 A3005 BECMG=
200806011500 METAR MROC 011500Z 00000KT 9999 FEW030 BKN260 26/18 A3005 BECMG 24006KT=
200806011600 METAR MROC 011600Z 26008KT 9999 FEW030 BKN260 26/21 A3005 RMK HZ ARND BECMG=
200806011700 METAR MROC 011700Z 25006KT 9999 FEW030TCU BKN260 26/21 A3003 RMK HZ AROUND BECMG=
200806011800 METAR MROC 011800Z 25012KT 9999 SCT020TCU BKN250 26/21 A3001 BECMG=
200806011900 METAR MROC 011900Z 24008KT 7000 VCSH FEW010CB SCT025 BKN120 24/21 A3000 RN AROUND=
200806012000 METAR MROC 012000Z 23004KT 2000 RA BR FEW003 SCT010 BKN020 22/21 A2999 BECMG 0800 FG=
200806012100 METAR MROC 012100Z 24002KT 9999 4000SW -RA FEW003 SCT010CB BKN025 21/20 A2998 RETS BECMG=
200806012200 METAR MROC 012200Z 00000KT 7000 3000SW VCSH VCFG FEW002 SCT007 BKN020 21/20 A3000 BECMG 5000 -RA BR=
200806012300 METAR MROC 012300Z 36003KT 5000 2000SW -TSRA SCT010CB BKN020 20/20 A3001 BECMG 3000 -RA BR=
200806020000 METAR MROC 020000Z 24002KT 7000 3000SW RA BR FEW003 BKN080 19/19 A3003 BECMG=
200806020100 METAR MROC 020100Z 17003KT 0800 -RA FG SCT001 BKN003 19/19 A3005 BECMG 2000 -RA BR=
200806020200 METAR MROC 020200Z 00000KT 9999 -DZ FEW007 BKN100 19/19 A3005 BECMG=
200806020300 METAR MROC 020300Z 32003KT 0500 FG VV/// 19/18 A3006 BECMG=
200806020400 METAR MROC 020400Z 10004KT 9999 FEW008 BKN150 19/18 A3005 RMK VIS S 8KM DUE THIM FOG BECMG=
200806020500 METAR MROC 020500Z 09004KT CAVOK 19/18 A3005 RMK TRACE SC OVC150 TREND BECMG=
200806020600 METAR MROC 020600Z 10003KT CAVOK 19/18 A3004 TRACE SCT SCT150 BKN250 BECMG=
200806020655 METAR MROC 020655Z 08005KT CAVOK 19/18 A3002 TRACE SCT FEW150 SCT250 TREND BECMG=
200806020700 METAR MROC 020700Z 08005KT CAVOK 19/18 A3002 TRACE SC FEW150 SCT250 TREND BECMG=
200806020800 METAR MROC NIL=
200806020900 METAR MROC 020900Z 07005KT CAVOK 19/16 A2998 TRAZAS SCT FEW140 BECMG=
200806021000 METAR MROC 021000Z 06005KT CAVOK 19/16 A2996 FEW250 BECMG=
200806021100 METAR MROC 021100Z 00000KT CAVOK 18/16 A2996 SCT250 BECMG=
200806021200 METAR MROC 021200Z 00000KT CAVOK 18/16 A2998 BKN250 TREND BECMG=
200806021300 METAR MROC 021300Z 00000KT CAVOK 21/17 A3001 RMK TRACE AC SCT250 BECMG=
200806021400 METAR MROC 021400Z 00000KT CAVOK 23/17 A3003 RMK TRACE SC SCT250 BECMG=
200806021500 METAR MROC 021500Z VRB03KT CAVOK 25/18 A3004 RMK TRACE SC AC BKN250 BECMG 28006KT=
200806021600 METAR MROC 021600Z 23006KT 9999 FEW040 SCT250 26/20 A3004 BECMG=
200806021700 METAR MROC 021700Z 24006KT 9999 FEW040 SCT250 26/19 A3003 BECMG=
200806021800 METAR MROC 021800Z 25009KT 9999 FEW040TCU BKN250 26/21 A3002 RMK FEW120 BECMG=
200806021900 METAR MROC 021900Z 27010KT 9999 FEW020TCU SCT030 BKN250 26/21 A3000 RMK RN DST NW E BECMG=
200806022000 METAR MROC 022000Z 26009KT 9999 SCT020 SCT030 25/20 A2999 RMK RN DST NE E SCT250 BECMG 7000 -TS VCSH=
200806022100 METAR MROC 022100Z 24006KT 9999 FEW017CB SCT030 BKN110 23/20 A2998 RMK TS RASH DST SE NE BECMG 7000 -TSRA=
200806022200 METAR MROC 022200Z 23005KT 9999 DZ FEW017CB BKN025 24/19 A2998 RMK RASH DST NE BECMG 7000=
200806022300 METAR MROC 022300Z 00000KT 9999 SCT015TCU BKN025 23/20 A2999 REDZ BECMG=
200806030000 METAR MROC 030000Z 00000KT 9999 SCT025 BKN130 22/20 A3002 RMK RN DST NW N E BECMG=
200806030100 METAR MROC 030100Z 00000KT 9999 FEW030 BKN140 22/20 A3003 BECMG=
200806030200 METAR MROC 030200Z 36003KT 9999 FEW035 SCT150 22/19 A3004 BECMG=
200806030300 METAR MROC 030300Z 00000KT 9999 FEW030 SCT150 21/20 A3004 BECMG=
200806030400 METAR MROC 030400Z 00000KT 9999 3000SW BR FEW003 SCT020 20/20 A3005 BECMG 1200 BR=
200806030500 METAR MROC NIL=
200806030600 METAR MROC 030600Z 11004KT 9999 FEW030 BKN250 21/19 A3004 BECMG=
200806030700 METAR MROC 030700Z 10005KT CAVOK 20/19 A3000 RMK TRACE SC AC BECMG=
200806030800 METAR MROC 030800Z 10010KT CAVOK 22/17 A2995 BECMG=
200806030900 METAR MROC 030900Z 06008KT CAVOK 21/17 A2994 BECMG=
200806031000 METAR MROC 031000Z 10004KT CAVOK 21/17 A2995 BECMG=
200806031100 METAR MROC 031100Z 09007KT CAVOK 21/17 A2997 RMK BKN250 CB DST S BECMG=
200806031200 METAR MROC 031200Z 13004KT CAVOK 20/16 A2999 RMK TRACE CU CB DST S BKN250 BECMG=
200806031300 METAR MROC 231300Z 00000KT CAVOK 22/17 A3002 RMK TRACE SC BKN270 BECMG=
200806031400 METAR MROC 031400Z 00000KT CAVOK 25/18 A3004 RMK TRACE CU SC SCT70 BECMG 24007KT=
200806031500 METAR MROC 031500Z 25006KT 9999 FEW040 SCT270 25/18 A3004 BECMG=
200806031600 METAR MROC 031600Z 26006KT 9999 FEW040 SCT270 26/19 A3004 BECMG=
200806031700 METAR MROC 031700Z 26008KT 9999 SCT035 SCT280 26/20 A3003 BECMG=
200806031800 METAR MROC 031800Z 25009KT 9999 FEW020TCU SCT035 26/20 A3001 RMK CB RASH DIST E BECMG 7000 -TS VCSH SCT015CB=
200806031900 METAR MROC 031900Z 20004KT 9999 2000NE TSRA SCT012CB BKN025TCU 25/19 A2997 BECMG 2000=
200806032000 METAR MROC 032000Z 15003KT 9999 -RA FEW020TCU SCT040 BKN100 21/19 A2998 RETS RMK CB TS RASH DST S SW BECMG=
200806032100 METAR MROC 032100Z 00000KT 9999 -RA FEW002 SCT020 BKN100 21/19 A2997 BECMG=
200806032200 METAR MROC 032200Z 27006KT 9999 3000SW BR FEW001 SCT020 BKN100 21/21 A2997 BECMG=
200806032300 METAR MROC 032300Z 34004KT 9999 3000SW BR FEW001 SCT010 BKN100 21/20 A2998 BECMG=
200806040000 METAR MROC 040000Z 29004KT 9999 -RA SCT010 OVC100 21/20 A3000 BECMG=
200806040100 METAR MROC 040100Z 29004KT 9999 -RA SCT010 OVC100 20/20 A3002 BECMG=
200806040200 METAR MROC 040200Z 00000KT 9999 -RA SCT008 OVC100 20/20 A3003 BECMG=
200806040300 METAR MROC 040300Z 02002KT 9999 FEW015 SCT035 BKN110 21/20 A3003 BECMG=
200806040400 METAR MROC 040400Z 00000KT CAVOK 20/20 A3003 RMK TRACE ST SC BKN110 BECMG=
200806040500 METAR MROC 040500Z 09005KT CAVOK 20/19 A3002 RMK TRACE SC BKN110 BECMG=
200806040600 METAR MROC 040600Z 11004KT CAVOK 21/19 A3000 RMK TRACE SC BKN110 DUE ST SW BECMG=
200806040700 METAR MROC 040700Z 07007KT 9999 VCFG FEW002 BKN110 21/18 A2999 RMK FEW030 VIS S 6KM DUE ST BECMG=
200806040800 METAR MROC 040800Z 13002KT 9999 FEW030 BKN110 21/18 A2997 RMK ST S/SW BECMG=
200806040900 METAR MROC 040900Z 00000KT 9999 FEW030 BKN100 19/18 A2997 RMK ST SSE/S BECMG 5000 BR FEW001 SCT015=
200806041000 METAR MROC 041000Z 10003KT 9999 VCFG FEW002 SCT110 19/18 A2996 RMK FEW250 VIS S 6KM DUE ST BECMG=
200806041100 METAR MROC 041100Z 10003KT CAVOK 19/17 A2996 RMK SCT110 SCT250 ST SSE BECMG=
200806041200 METAR MROC 041200Z 12003KT CAVOK 19/17 A2997 RMK TRACE SC FEW110 BKN250 TCU DST S SW DUE ST S SW BECMG=
200806041300 METAR MROC 041300Z 00000KT CAVOK 21/18 A3000 RMK TRACE CU AC OVC260 HZ LEVE ARND=
200806041400 METAR MROC 041400Z 00000KT 9999 FEW040 BKN260 23/19 A3002 RMK HZ LEVE ARND BECMG=
200806041500 METAR MROC 041500Z 28006KT 230V310 9999 FEW040 SCT260 24/20 A3002 BECMG=
200806041600 METAR MROC 041600Z 23006KT 9999 SCT035 SCT260 25/20 A3001 BECMG=
200806041700 METAR MROC 041700Z 27006KT 9999 SCT035 26/21 A3000 RMK HZ LEVE ARND BECMG=
200806041800 METAR MROC 041800Z 24008KT 9999 TS VCSH FEW010CB SCT030 BKN100 25/21 A2997 BECMG 6000 VCSH=
200806041900 METAR MROC 041900Z 24008KT 9999 TS VCSH FEW010CB SCT030 BKN100 25/21 A2997 BECMG 6000 VCSH=
200806042000 METAR MROC 042000Z 36005KT 9999 3000N -TSRA FEW010CB SCT030 BKN100 22/21 A2996 BECMG 5000 RA=
200806042100 METAR MROC 042100Z 00000KT 9999 VCSH SCT015 SCT100 BKN250 23/20 A2993 RN DST E NW VSBY SW 7KM DUE RASH RETS BECMG=
200806042200 METAR MROC 042200Z 25007KT 6000 VCFG FEW005 SCT025 BKN120 21/20 A2992 VSBY NW UNL VECMG 3000 BR=
200806042300 METAR MROC 042300Z 20004KT 3000 TSRA BKN004 SCT010CB 21/20 A2995 VECMG 2000 +TSRA=
200806050000 METAR MROC 050000Z 00000KT 4000 TSRA SCT003CB SCT034 BKN100 20/20 A2996 BECMG=
200806050100 METAR MROC 050100Z 09003KT 9999 FEW045 BKN120 20/20 A2998 RETS VSBY SW 6KM DUE LW ST LTNG DST SW BECMG=
200806050200 METAR MROC 050200Z 35002KT 9999 FEW045 BKN120 21/20 A3000 BECMG=
200806050300 METAR MROC 050300Z 00000KT 9999 FEW045 SCT120 BKN150 21/19 A3003 BECMG=
200806050400 METAR MROC 050400Z 00000KT 0500 FG VV/// 20/20 A3003 BECMG 5000 BR=
200806050500 METAR MROC 050500Z 00000KT CAVOK 20/19 A3002 RMK TRACE BKN150 BECMG=
200806050600 METAR MROC 050600Z 08006KT CAVOK 20/18 A3000 RMK TRACE ST SC BKN140 BECMG=
200806050700 METAR MROC 050700Z 00000KT 9999 3000SW BR FEW140 BKN250 19/18 A2997 FG BANK TO S SW WSW BECMG=
200806050800 METAR MROC 050800Z 00000KT 0300 FG VV/// 19/19 A2996 BECMG 4000 BR=
200806050900 METAR MROC 050900Z 00000KT 0200 FG VV/// 19/19 A2996 BECMG=
200806051000 METAR MROC 051000Z 00000KT 9999 4000SW BR FEW001 BKN250 18/17 A2996 BECMG=
200806051100 METAR MROC 051100Z 08004KT CAVOK 18/17 A2996 RMK TRACE SC AC BKN250 CB DST S=
200806051200 METAR MROC 051200Z 05007KT CAVOK 20/17 A2998 RMK TRACE SC BKN250 CB DST S BECMG=
200806051300 METAR MROC 051300Z 07006KT CAVOK 22/17 A2998 TRAZAS CU SCT120 BKN280 CB DST S BECMG=
200806051400 METAR MROC 051400Z 09006KT CAVOK 24/18 A3000 BKN130 SCT280 TRAZAS SC CB DST S BECMG=
200806051500 METAR MROC 051500Z 11007KT CAVOK 26/18 A3000 TRAZAS SCT FEW130 SCT280 BECMG=
200806051600 METAR MROC 051600Z 14005KT 9999 FEW035 27/19 A3001 FEW130 BECMG 24008KT=
200806051625 METAR MROC 051625Z 24008KT 9999 FEW040 SCT280 26/20 A3000 BECMG=
200806051700 METAR MROC 051700Z 28007KT 9999 SCT035 26/19 A2999 BECMG=
200806051800 METAR MROC 051800Z 27006KT 9999 FEW025 SCT280 28/21 A2997 RN NE BECMG=
200806051900 METAR MROC 051900Z 24007KT 9999 SCT030 BKN250 27/21 A2995 RN NW BECMG=
200806052000 METAR MROC 052000Z 26007KT 9999 FEW025TCU BKN250 25/20 A2994 FEW140 RN/CB DST NW BECMG=
200806052100 METAR MROC 052100Z 23007KT 9999 FEW010 SCT020TCU BKN120 26/22 A2994 RMK RN DST N NW N NE=
200806052200 METAR MROC 052200Z 25009KT 9999 FEW010 SCT018TCU BKN110 24/21 A2993 RMK RN DST W NW N HZ ARND=
200806052300 METAR MROC 052300Z 26010KT 7000 VCFG FEW005 SCT010 BKN020 22/21 A2995 RMK RN DST W NW N BECMG 3000 BR=
200806052353 METAR MROC 060000Z 26005KT 4000 BR SCT001 BKN010 22/21 A2997 RMK RN W NW BECMG=
200806052358 METAR MROC 060000Z 26005KT 4000 BR SCT001 BKN010 22/21 A2997 RMK RN W NW BECMG=
200806060000 METAR MROC 060000Z 26005KT 4000 BR SCT001 BKN010 22/21 A2997 RMK RN W NW BECMG=
200806060100 METAR MROC 060100Z 00000KT 6000 -DZ VCFG FEW001 SCT020 BKN120 21/20 A3000 BECMG=
200806060200 METAR MROC 060200Z 23002KT 7000 VCFG FEW005 SCT020 BKN130 21/20 A3001 BECMG=
200806060300 METAR MROC 060300Z 00000KT 9999 2000SW BR FEW001 SCT005 BKN130 21/21 A3003 BECMG=
200806060400 METAR MROC 060400Z 00000KT 9999 2000SW BR FEW001 SCT010 BKN130 21/21 A3003 BECMG=
200806060500 METAR MROC 060500Z 00000KT 9999 1500SW BR FEW001 SCT010 SCT120 20/20 A3003 RMK TRACE CI BECMG=
200806060600 METAR MROC 060600Z 03003KT 9999 FEW020 SCT250 20/20 A3002 RMK TRACE AC BECMG=
200806060700 METAR MROC 060700Z 09003KT CAVOK 20/19 A3000 RMK TRACE SC SCT250 BECMG=
200806060800 METAR MROC 060800Z 06004KT CAVOK 20/19 A2998 RMK TRACE SC AC SCT250 BECMG=
200806060900 METAR MROC 060900Z 06004KT CAVOK 19/18 A2998 RMK TRACE SC AC SCT250 BECMG=
200806061000 METAR MROC 061000Z 08006KT CAVOK 19/18 A2997 RMK TRACE SC AC SCT250 BECMG=
200806061100 METAR MROC 061100Z 09005KT CAVOK 19/17 A2996 RMK TRACE SC AC SCT250 BECMG=
200806061200 METAR MROC 061200Z 08008KT CAVOK 20/17 A2999 RMK TRACE SC AC BKN250 BECMG=
200806061300 METAR MROC 061300Z 07003KT CAVOK 22/17 A3001 RMK TRACE SC AC BKN250 BECMG=
200806061400 METAR MROC 061400Z 30003KT CAVOK 23/19 A3003 RMK TRACE CU AC BKN250 BECMG=
200806061500 METAR MROC 061500Z 30004KT CAVOK 24/19 A3004 RMK TRACE CU BKN250 BECMG=
200806061550 METAR MROC 061550Z 29008KT 9999 FEW030 BKN250 26/20 A3004 RMK HZ ARND TRACE AC BECMG=
200806061600 METAR MROC 061600Z 29008KT 9999 FEW030 BKN250 26/20 A3004 RMK HZ ARND TRACE AC BECMG=
200806061700 METAR MROC 061700Z 26007KT 9999 FEW030 SCT120 BKN250 27/20 A3002 RMK HZ ARND BECMG=
200806061800 METAR MROC 061800Z 25009KT 9999 FEW025 SCT100 BKN250 27/20 A3000 RMK HZ ARND=
200806061850 METAR MROC 061850Z 24008KT 9999 FEW020TCU SCT100 BKN250 26/21 A2998 RMK HZ ARND BECMG 7000 VCSH=
200806061900 METAR MROC 061900Z 24008KT 9999 FEW020TCU SCT100 BKN250 26/21 A2998 RMK HZ ARND BECMG 7000 VCSH=
200806062000 METAR MROC 062000Z 24009KT 9999 SCT020TCU BKN120 24/21 A2996 RMK RN N NW BECMG 6000 -RA VCFG HZ ARND=
200806062100 METAR MROC 062100Z 24009KT 5000 2000SW -TS VCSH BR SCT002 BKN012CB 22/21 A2996 BECMG 1200 TSRA=
200806062200 METAR MROC 062200Z 24006KT 0500 FG -RA VV/// 21/21 A2996 BECMG=
200806062300 METAR MROC 062300Z 24004KT 2000 RA BR BKN002 SCT005 21/21 A2998 BECMG 4000 -RA BR=
200806070000 METAR MROC 070000Z 34002KT 4000 TSRA BR SCT002 SCT008CB SCT015 19/19 A3000 BECMG 5000 -TSRA BR=
200806070100 METAR MROC 070100Z 00000KT 6000 RA VCFG FEW003 SCT015 BKN080 20/20 A3003 BECMG=
200806070200 METAR MROC 070200Z 00000KT 7000 RA VCFG FEW005 SCT015 BKN080 20/20 A3006 BECMG=
200806070300 METAR MROC 070300Z 07004KT 9999 RA SCT040 BKN090 20/19 A3006 BECMG=
200806070400 METAR MROC 070400Z 07006KT 9999 RA SCT040 BKN080 20/19 A3006 BECMG=
200806070500 METAR MROC 070500Z 09005KT 9999 -RA FEW040 OVC080 20/19 A3005 TREND BECMG=
200806070600 METAR MROC 070600Z 00000KT 9999 FEW040 BKN090 20/19 A3001 RERA TREND BECMG=
200806070700 METAR MROC 070700Z 12004KT 9999 FEW040 BKN140 20/18 A2999 TREND BECMG=
200806070800 METAR MROC 070800Z 06004KT 9999 FEW045 SCT140 BKN250 19/18 A2997 BECMG=
200806070900 METAR MROC 070900Z 08004KT CAVOK 20/18 A2996 FEW40 BKN250 BECMG=
200806071000 METAR MROC 071000Z 09005KT CAVOK 21/17 A2995 FEW140 BKN250 BECMG=
200806071100 METAR MROC 071100Z 10007KT CAVOK 20/17 A2995 FEW140 SCT250 BECMG=
200806071200 METAR MROC 071200Z 07006KT CAVOK 20/17 A2996 SCT100 BKN140 BECMG=
200806071300 METAR MROC 071300Z 12007KT CAVOK 22/18 A3000 RMK TRACE SC FEW100 BKN220 BECMG=
200806071400 METAR MROC 071400Z 13011KT CAVOK 24/18 A3001 RMK TRACE SC SCT120 BKN250 BECMG=
200806071500 METAR MROC 071500Z 13011KT CAVOK 25/18 A3002 RMK TRACE SC SCT120 BKN250 BECMG=
200806071600 METAR MROC 071600Z 13010KT 9999 FEW040 SCT120 BKN250 26/18 A3002 BECMG=
200806071700 METAR MROC 071700Z 13007KT 9999 FEW040 BKN120 26/19 A3002 RMK SCT250 BECMG=
200806071800 METAR MROC 071800Z 14008KT 9999 FEW030TCU SCT120 26/19 A2999 RMK SCT250 BECMG 24006KT=
200806071900 METAR MROC 071900Z 18006KT 150V210 9999 FEW020TCU SCT030 BKN120 27/18 A2998 RMK DZ DST NE E BECMG=
200806072000 METAR MROC 072000Z 22006KT 9999 FEW020TCU SCT030 BKN120 26/20 A2995 RMK RN DST N NE BECMG=
200806072100 METAR MROC 072100Z 31005KT 2000 SHRA FEW015CB BKN030 23/20 A2996 RMK VIS E SSE UNLTD WET RNY BECMG TSRA=
200806072200 METAR MROC 072200Z 28003KT 8000 -RA FEW007 SCT030 BKN080 21/20 A2998 BECMG=
200806072300 METAR MROC 072300Z 00000KT 9999 -RA FEW020 OVC100 21/20 A2997 RMK TRACE ST BECMG=
200806080000 METAR MROC 080000Z 09003KT 9999 -RA FEW035 SCT050 BKN120 21/20 A2999 BECMG=
200806080100 METAR MROC 080100Z 13005KT 9999 FEW035 SCT100 BKN140 21/20 A3000 RERA BECMG=
200806080200 METAR MROC 080200Z 08004KT CAVOK 22/18 A3001 RMK TRACE SC SCT100 BKN140 BECMG=
200806080300 METAR MROC 080300Z 00000KT CAVOK 21/18 A3003 BECMG=
200806080400 METAR MROC 080400Z 00000KT CAVOK 21/18 A3004 BECMG=
200806080500 METAR MROC 080500Z 00000KT CAVOK 20/18 A3003 BECMG=
200806080600 METAR MROC 080600Z 07005KT CAVOK 19/18 A3001 BECMG=
200806080700 METAR MROC 080700Z 08008KT CAVOK 20/16 A2998 BECMG=
200806080800 METAR MROC 080800Z 12010KT CAVOK 21/17 A2996 BECMG=
200806080900 METAR MROC 080900Z 11005KT CAVOK 21/17 A2994 RMK BKN250 BECMG=
200806081000 METAR MROC 081000Z 11008KT CAVOK 21/17 A2994 RMK TRCE SC BECMG=
200806081100 METAR MROC 081100Z 08004KT CAVOK 21/17 A2995 RMK TRACE SC AC BECMG=
200806081200 METAR MROC 081200Z 00000KT CAVOK 20/17 A2999 RMK FEW120 BKN250 CB DST S TRACE CU BECMG=
200806081300 METAR MROC 081300Z 00000KT CAVOK 21/17 A3001 RMK TRACE SC SCT130 BKN250 CB DIST S SSW BECMG=
200806081400 METAR MROC 081400Z 26007KT CAVOK 23/18 A3002 RMK TRACE SC SCT130 BKN250 CB DST S SW BECMG=
200806081500 METAR MROC 081500Z 25005KT 9999 FEW020 SCT140 BKN250 23/19 A3004 BECMG=
200806081600 METAR MROC 081600Z 27006KT 9999 SCT020 BKN250 24/19 A3004 RMK TRACE AC BECMG=
200806081700 METAR MROC 081700Z 26006KT 9999 BKN025 SCT250 24/19 A3003 BECMG 7000=
200806081800 METAR MROC 081800Z 26005KT 9999 FEW020 SCT045 BKN250 25/19 A3001 RMK PCPN DST E BECMG 7000 VCSH=
200806081900 METAR MROC 081900Z 25005KT 9999 FEW020TCU SCT030 BKN250 26/20 A2998 RMK BECMG 7000 VCSH=
200806082000 METAR MROC 082000Z 25008KT 9999 FEW017TCU BKN025 25/19 A2997 RMK RN DST N ESE BECMG 4000 SHRA=
200806082100 METAR MROC 082100Z 23008KT 9999 FEW015TCU SCT025 BKN100 23/20 A2995 RMK RN SE S=
200806082200 METAR MROC 082200Z 25008KT 5000 RA FEW002 SCT010 OVC100 21/21 A2996 RMK VIS S UNL BECMG=
200806082300 METAR MROC 082300Z 23008KT 0500 -TS +RA SCT001 SCT010CB OVC025 20/20 A2998 BECMG=
200806090000 METAR MROC 090000Z 23005KT 3000 -TSRA FEW001 SCT010 OVC025 19/19 A3002 BECMG=
200806090100 METAR MROC 090100Z 33002KT 5000 RA FEW001 SCT010 OVC025 19/19 A3005 BECMG=
200806090200 METAR MROC 090200Z 05006KT 8000 3000SW RA BR FEW001 SCT025 OVC100 19/19 A3005 BECMG=
200806090300 METAR MROC 090300Z 08008KT 9999 -RA SCT030 BKN090 19/18 A3004 RMK DUE ST S SW BECMG=
200806090400 METAR MROC 090400Z 05002KT 9999 -RAFEW030 OVC090 20/18 A3004 BECMG=
200806090500 METAR MROC 090500Z 10005KT 9999 -DZ BKN110 19/18 A3001 RMK DUE ST S SW BECMG=
200806090600 METAR MROC 090600Z 10005KT 9999 -DZ FEW020 BKN120 19/18 A3000 BECMG=
200806090700 METAR MROC 090700Z 04003KT 9999 -DZ FEW030 BKN100 20/17 A3001 BECMG=
200806090800 METAR MROC 090800Z 09003KT CAVOK 19/17 A2999 RMK OVC100 BECMG=
200806090900 METAR MROC 090900Z 07006KT CAVOK 20/17 A2998 RMK OVC100 BECMG=
200806091000 METAR MROC 091000Z 00000KT CAVOK 18/17 A2998 RMK BKN120 FEW250 BECMG=
200806091100 METAR MROC 091100Z 00000KT CAVOK 18/17 A2998 RMK BKN120 FEW250 TCU DST S BECMG=
200806091200 METAR MROC 091200Z 00000KT CAVOK 19/17 A3000 RMK BKN120 FEW250 TCU DST S BECMG=
200806091300 METAR MROC 091300Z 07003KT CAVOK 20/18 A3003 RMK BKN120 BECMG=
200806091400 METAR MROC 091400Z 12003KT CAVOK 21/18 A3005 RMK BKN120 BECMG EMANACION DE GASES DEL VOLCAN TURRIALBA MOVIENDOSE HACIA EL NW=
200806091500 METAR MROC 091500Z 07004KT CAVOK R07/1500 23/18 A3005 RMK BKN120 BECMG EMANACION DE GASES DEL VOLCAN TURRIALBA MOVIENDOSE NW=
200806091600 METAR MROC 091600Z 02004KT 9999 FEW040 SCT120 BKN260 26/16 A3005 BECMG=
200806091700 METAR MROC 091700Z 24009KT 9999 FEW040 BKN110 25/20 A3004 RMK TRACE CI BECMG=
200806091800 METAR MROC 091800Z 23009KT 9999 SCT035 BKN110 26/19 A3003 BECMG=
200806091900 METAR MROC 091900Z 22006KT 9999 SCT035 SCT100 26/20 A3001 BECMG=
200806092000 METAR MROC 092000Z 25008KT 9999 SCT030 SCT100 26/21 A2999 RMK RN N NE E BECMG 7000 VCSH=
200806092100 METAR MROC 092100Z 25010KT 9999 SCT015TCU SCT025 25/20 A2996 RMK RN DST S SE ENE W BECMG 5000 VCSH=
200806092200 METAR MROC 092200Z 21010KT 6000 2000SW RA FEW005 SCT012TCU SCT030 21/20 A2998 VSBY W NW UNL BECMG 4000=
200806092300 METAR MROC 092300Z 00000KT 7000 -RA FEW010 BKN030 20/19 A3001 VSBY SE S UNL BECMG 9999=
200806100000 METAR MROC 100000Z 06004KT 9999 -RA FEW020 BKN100 20/20 A3001 BECMG=
200806100100 METAR MROC 100100Z 07004KT 9999 -RA FEW040 OVC100 19/19 A3003 BECMG=
200806100200 METAR MROC 100200Z 05007KT CAVOK 20/18 A3004 TRAZAS SCT SCT120 SCT250 BECMG=
200806100300 METAR MROC 100300Z 10005KT CAVOK 20/18 A3005 RMK TRACE SC SCT150 BKN220 BECMG=
200806100400 METAR MROC 100400Z 06006KT CAVOK 20/18 A3005 RMK TRACE SC FEW150 SCT230 BECMG=
200806100500 METAR MROC 100500Z 08004KT CAVOK 20/17 A3005 RMK TRACE SC FEW150 SCT250 BECMG=
200806100600 METAR MROC 100600Z 10003KT CAVOK 19/17 A3003 RMK TRACE SC FEW150 SCT250 BECMG=
200806100700 METAR MROC 100700Z 08005KT CAVOK 18/17 A3002 RMK TRACE SC AC SCT250 BECMG=
200806100800 METAR MROC 100800Z 10005KT CAVOK 18/17 A3000 RMK TRACE SC SCT250 BECMG=
200806100900 METAR MROC 100900Z 11004KT CAVOK 17/16 A3000 RMK TRACE SC SCT250 BECMG=
200806101000 METAR MROC 101000Z 09004KT CAVOK 17/16 A3002 RMK TRACE SC SCT250 BECMG=
200806101100 METAR MROC 101100Z 11005KT CAVOK 17/16 A3004 RMK TRACE SC SCT250 BECMG=
200806101200 METAR MROC 101200Z 11005KT 9999 SCT025 17/16 A3005 RMK TRACE AC FEW250 BECMG=
200806101300 METAR MROC 101300Z 10004KT 9999 FEW025 SCT250 21/18 A3005 TRACE AC CB DIST S BECMG=
200806101400 METAR MROC 101400Z 12002KT 9999 FEW025 BKN270 24/19 A3005 BECMG=
200806101500 METAR MROC 101500Z 11004KT 9999 FEW025 BKN270 26/18 A3005 BECMG 24008=
200806101600 METAR MROC 101600Z 11002KT 9999 FEW025 SCT270 28/18 A3005 BECMG=
200806101700 METAR MROC 101700Z 26008KT 9999 SCT035 27/20 A3004 BECMG=
200806101800 METAR MROC 101800Z 24008KT 9999 FEW030TCU 27/20 A3002 BECMG=
200806101900 METAR MROC 101900Z 25011KT 9999 SCT025TCU 27/21 A2999 RN/TCU ENE BECMG 5000 VCSH=
200806102000 METAR MROC 102000Z 23009KT 9999 VCSH SCT020TCU 26/21 A2997 RASH N NE E VSBY N 7KM BECMG 3000 TSRA=
200806102100 METAR MROC 102100Z 23011KT 8000 VCSH SCT010CB BKN025 26/21 A2995 RMK RASH N NE RN S BECMG 5000 TS RA=
200806102200 METAR MROC 102200Z 07006KT 1000 TSRA FEW005 BKN010CB OVC100 21/19 A3000 BECMG 0500 VV///=
200806102300 METAR MROC 102300Z 09003KT 9999 4000E -TSRA FEW005 SCT015CB BKN100 20/19 A3001 BECMG=
200806110000 METAR MROC 110000Z 06003KT 9999 -RA SCT025 BKN100 20/18 A3002 BECMG=
200806110100 METAR MROC 110100Z 05006KT 9999 RA FEW030 BKN100 20/19 A3002 BECMG=
200806110200 METAR MROC 110200Z 00000KT 9999 FEW030 BKN100 20/19 A3005 BECMG=
200806110300 METAR MROC 110300Z 00000KT CAVOK 20/20 A3007 RMK BKN100 BECMG=
200806110400 METAR MROC 110400Z 08004KT CAVOK 20/19 A3007 RMK BKN100 BECMG=
200806110500 METAR MROC 110500Z 06005KT CAVOK 20/19 A3006 RMK BKN100 BECMG=
200806110600 METAR MROC 110600Z 08008KT CAVOK 21/18 A3002 RMK BKN110 BECMG=
200806110700 METAR MROC 110700Z 08008KT CAVOK 21/18 A2999 RMK BKN110 BECMG=
200806110800 METAR MROC 110800Z 07008KT CAVOK 21/18 A2996 RMK SCT110 SCT250 BECMG=
200806110900 METAR MROC 110900Z 23007KT 2000 BR FEW001 SCT005 19/19 A2998 BECMG=
200806111000 METAR MROC 111000Z 24004KT 6000 VCSH FEW001 SCT008 SCT100 19/19 A3000 BECMG 9999=
200806111100 METAR MROC 111100Z 10005KT 9999 FEW005 SCT025 SCT100 19/19 A3000 BECMG=
200806111200 METAR MROC 111200Z 09004KT 9999 FEW025 SCT100 BKN250 20/19 A3001 RMK CB DST S TCU SW BECMG=
200806111300 METAR MROC 111300Z 05007KT 9999 FEW030 BKN250 23/18 A3002 BECMG=
200806111400 METAR MROC 111400Z 13007KT 9999 FEW030 BKN250 25/18 A3002 RMK CB DST SW BECMG 24006KT=
200806111500 METAR MROC 111500Z 12004KT 9999 FEW030 BKN250 26/19 A3001 BECMG=
200806111600 METAR MROC 111600Z 11002KT 9999 FEW035 BKN250 28/18 A3001 BECMG 24008KT=
200806111700 METAR MROC 111700Z 24008KT 9999 SCT035 SCT250 27/21 A3000 BECMG=
200806111800 METAR MROC 111800Z 23007KT 9999 SCT030TCU SCT250 26/21 A2998 BECMG=
200806111900 METAR MROC 111900Z 26009KT 9999 VCTS FEW015CB SCT030 26/21 A2994 RMK CB RN NE BECMG 6000 TSRA=
200806112000 METAR MROC 112000Z 29006KT 9999 4000NE TS VCSH SCT010CB SCT025 24/18 A2994 BECMG 4000 TSRA=
200806112100 METAR MROC 112100Z 16004KT 9999 VCSH SCT020CB BKN080 23/22 A2994 RMK 7000SW BECMG 6000 -RA VCTS=
200806112200 METAR MROC 112200Z 22004KT 9999 VCFG FEW005 SCT015 BKN080 22/21 A2993 RMK VIS 7000SW BECMG 5000 BR=
200806112300 METAR MROC 112300Z 26002KT 7000 3000NE VCSH VCFG FEW005 BKN020 22/21 A2994 RMK SCT090 BECMG 6000 -RA VCFG=
200806120000 METAR MROC 120000Z 00000KT 7000 3000N DZ BR FEW005 BKN020 22/21 A2996 RMK SCT090 BECMG=
200806120100 METAR MROC 120100Z 00000KT 7000 +DZ VCFG SCT005 BKN090 22/21 A2999 RMK FEW025 LTNG S SW BECMG 5000 -RA BR=
200806120200 METAR MROC 120200Z 30002KT 9999 -DZ FEW006 SCT015 BKN120 21/21 A3001 BECMG 5000 BR=
200806120300 METAR MROC 120300Z 22004KT 3000 BR SCT002 SCT005 21/20 A3001 BECMG=
200806120400 METAR MROC 120400Z 32002KT 7000 2500SW BR FEW002 OVC130 21/20 A3002 RMK VSBY N NE E UNL BECMG 3000 BR=
200806120500 METAR MROC 120500Z 27003KT 3000 1000SW BR BKN003 20/20 A3003 CNDS VRY=
200806120600 METAR MROC 120600Z 00000KT 4000 1500SW VCFG SCT002 SCT010 20/20 A3002 CNDS VRY VRBL BECMG 2000 BR=
200806120700 METAR MROC 120700Z 00000KT 8000 2000SW VCFG FEW002 SCT015 20/20 A3000 CNDS VRY VRBL BECMG 05003KT 9999=
200806120800 METAR MROC 120800Z 07003KT 9999 FEW002 20/19 A2997 FG BANK SW BECMG=
200806120900 METAR MROC 120900Z 05003KT CAVOK 20/18 A2995 TRAZAS SC FEW250 BECMG=
200806121000 METAR MROC 121000Z 06006KT CAVOK 20/17 A2995 TRAZAS SCT FEW250 BECMG=
200806121100 METAR MROC 121100Z 03005KT CAVOK 20/17 A2994 TRAZAS SCT FEW090 SCT250 BECMG=
200806121200 METAR MROC 121200Z 10007KT CAVOK 21/17 A2995 TRAZAS SC FEW080 SCT250 CB DST NE BECMG=
200806121300 METAR MROC 121300Z 08005KT CAVOK 23/19 A2999 RMK TRACE SC AC SCT250 BECMG=
200806121400 METAR MROC 121400Z 22005KT 9999 SCT035 SCT250 23/19 A3003 RMK TRACE AC BECMG=
200806121500 METAR MROC 121500Z 36002KT 9999 SCT035 SCT100 24/19 A3004 RMK FEW250 DZ DST N NE E BECMG=
200806121600 METAR MROC 121600Z 36005KT 9999 FEW030 BKN100 24/18 A3002 RMK RN DST N NE E SE BECMG -DZ RA=
200806121700 METAR MROC 121700Z 29002KT 9999 RA BKN100 22/20 A3002 RMK TRACE SC VIS 7000 NE E RA BECMG=
200806121800 METAR MROC 121800Z 36004KT 9999 -RA FEW035 OVC100 23/21 A3003 BECMG=
200806121900 METAR MROC 121900Z 11005KT 9999 FEW035 BKN120 23/20 A3001 RMK DZ DST NE E BECMG=
200806122000 METAR MROC 122000Z 10006KT CAVOK 23/18 A2997 RMK OVC120 DZ DST SE BECMG -DZ RA=
200806122100 METAR MROC 122100Z 07006KT 9999 -RA SCT090 BKN130 23/18 A2992 BECMG=
200806122200 METAR MROC 122200Z 13005KT 9999 FEW030 SCT090 BKN130 23/19 A2991 RERA BECMG=
200806122300 METAR MROC 122300Z 14006KT 9999 FEW030 SCT080 BKN130 23/16 A2992 BECMG=
200806130000 METAR MROC 130000Z 10008KT 9999 FEW030 BKN130 22/17 A2993 BECMG=
200806130100 METAR MROC 130100Z 12008KT 9999 FEW035 BKN130 22/17 A2996 BECMG=
200806130200 METAR MROC 130200Z 09005KT 9999 FEW035 BKN120 22/17 A2998 BECMG=
200806130300 METAR MROC 130300Z 11005KT 9999 FEW030 SCT120 22/17 A2997 BECMG=
200806130400 METAR MROC 130400Z 33003KT 9999 FEW030 SCT120 21/18 A2999 BECMG=
200806130500 METAR MROC 130500Z 35002KT 9999 FEW030 SCT129 21/18 A2999 BECMG=
200806130600 METAR MROC 130600Z 11005KT 9999 FEW030 SCT120 22/17 A2997 BECMG=
200806130700 METAR MROC 130700Z 07002KT 9999 FEW030 SCT120 20/17 A2996 BECMG=
200806130800 METAR MROC 130800Z 08003KT 9999 FEW030 BKN120 20/18 A2995 BECMG=
200806130900 METAR MROC 130900Z 02004KT 9999 FEW030 19/17 A2994 RMK BECMG CAVOK=
200806131000 METAR MROC 131000Z 00000KT CAVOK 19/17 A2994 RMK SCT100 BECMG=
200806131100 METAR MROC 131100Z 07004KT CAVOK 20/16 A2995 RMK BKN100 BECMG=
200806131200 METAR MROC 131200Z 09008KT 9999 FEW030 SCT120 BKN250 21/17 A2997 RMK RN NE BECMG=
200806131300 METAR MROC 131300Z 11004KT 9999 FEW030 BKN070 22/17 A2999 RMK PCPN DST NE BECMG=
200806131400 METAR MROC 131400Z 13010KT 9999 FEW035 SCT140 BKN250 24/18 A3000 BECMG 24008KT=
200806131500 METAR MROC NIL=
200806131600 METAR MROC 131600Z 10010KT 9999 FEW040 SCT090 26/17 A3001 RMK TRACE CI PCPN DST NE BECMG=
200806131700 METAR MROC 131700Z 11009KT 9999 FEW040 SCT090 26/17 A3000 RMK FEW250 BECMG=
200806131800 METAR MROC 131800Z 13009KT 9999 FEW040 BKN120 26/17 A2999 BECMG=
200806131900 METAR MROC 131900Z 11009KT 9999 FEW040 BKN120 27/16 A2997 BECMG=
200806132000 METAR MROC 132000Z 09011KT 9999 FEW040 BKN120 27/16 A2995 BECMG=
200806132100 METAR MROC 132100Z 14007KT 9999 FEW040 BKN120 25/18 A2999 RMK CB DST S TCU SW BECMG=
200806132200 METAR MROC 132200Z 11005KT 9999 FEW040 BKN120 25/18 A2994 RMK TCU W BECMG=
200806132300 METAR MROC 132300Z 35004KT 9999 FEW040 SCT120 BKN250 24/22 A2995 BECMG 26005KT=
200806140000 METAR MROC 140000Z 11005KT 9999 FEW040 BKN250 23/18 A2996 BECMG=
200806140100 METAR MROC 140100Z 00000KT 9999 FEW040 SCT140 BKN250 22/18 A2997 BECMG=
200806140200 METAR MROC 140200Z 10004KT CAVOK 22/17 A2998 RMK TRACE SC AC BKN250 BECMG=
200806140300 METAR MROC 140300Z 13006KT CAVOK 22/18 A3000 RMK TRACE SC AC BKN250 BECMG=
200806140400 METAR MROC 140400Z 19003KT 9999 -DZ BKN080 SCT250 21/19 A3002 RMK TRACE SC DUE ST SW BECMG 7000 -RA VCFG=
200806140500 METAR MROC 140500Z 06005KT 9999 VCFG FEW003 SCT030 21/18 A2999 RMK TRACE AC SCT250 VIS 7000SW LTNG SE S SW W BECMG=
200806140600 METAR MROC 140600Z 16002KT 9999 VCFG FEW003 BKN100 21/19 A3000 RMK VIS 7000 SW LTNG SW NE BECMG=
200806140700 METAR MROC 140700Z 00000KT 9999 SCT025 BKN100 21/19 A2997 RMK ST S DZ SE BECMG=
200806140800 METAR MROC 140800Z 00000KT 9999 DZ VCFG FEW002 SCT020 BKN100 21/19 A2997 RMK VIS SW 6KM DUE ST BECMG=
200806140900 METAR MROC 140900Z 00000KT 9999 -DZ VCFG FEW002 SCT020 BKN100 21/19 A2997 RMK VIS SW 8KM DUE ST BECMG=
200806141000 METAR MROC 141000Z 09003KT 9999 DZRA SCT020 BKN090 20/19 A2997 RMK VIS SW 7KM BECMG=
200806141100 METAR MROC 141100Z 16002KT 9999 -DZ SCT025 BKN090 20/19 A2999 BECMG DZRA=
200806141200 METAR MROC 141200Z 13005KT 9999 -DZ SCT020 BKN090 19/17 A3000 RMK RN DST N NE E SE S BECMG=
200806141300 METAR MROC 141300Z 09004KT 9999 SCT030 BKN110 21/17 A3000 REDZ BECMG=
200806141400 METAR MROC 141400Z 11009KT 9999 FEW030 SCT110 BKN250 23/17 A3000 BECMG=
200806141500 METAR MROC 141500Z 12013G23KT 9999 FEW030 SCT120 BKN250 24/17 A2999 BECMG=
200806141600 METAR MROC 141600Z 13015G25KT 9999 FEW030 SCT120 BKN250 24/17 A2998 BECMG=
200806141700 METAR MROC 141700Z 11015KT 9999 FEW035 SCT120 BKN250 27/18 A2997 BECMG=
200806141800 METAR MROC 141800Z 12013KT 9999 FEW035 SCT120 BKN250 27/17 A2995 BECMG=
200806141900 METAR MROC 141900Z 11009KT 9999 FEW035 SCT120 BKN250 27/18 A2999 BECMG=
200806142000 METAR MROC 142000Z 12008KT 9999 SCT030 BKN250 27/18 A2993 RMK TRACE AC BECMG=
200806142100 METAR MROC 142100Z 15006KT 9999 FEW025 BKN045 27/18 A2990 RN/CB DST S BECMG=
200806142200 METAR MROC 142200Z 16006KT 9999 FEW030 SCT045 BKN250 24/18 A2993 BECMG=
200806142300 METAR MROC 142300Z 24006KT 9999 FEW010 SCT045 OVC240 23/21 A2994 RMK RN DST NE BECMG=
200806150000 METAR MROC 150000Z 25004KT 9999 4000N BR FEW006 SCT040 OVC240 22/21 A2996 BECMG=
200806150100 METAR MROC 150100Z 26004KT 9999 FEW010 SCT040 BKN130 22/20 A2998 VSBY N 6KM DUE LW ST BECMG=
200806150200 METAR MROC 150200Z 00000KT 9999 -RA FEW010 SCT040 BKN130 22/20 A3001 BECMG=
200806150300 METAR MROC 150300Z 29004KT 9999 FEW004 BKN250 21/20 A3000 RMK FEW040 LGT HZ ARND BECMG=
200806150400 METAR MROC 150400Z 35003KT 9999 SCT010 BKN250 21/19 A3001 BECMG=
200806150500 METAR MROC 150500Z 00000KT 9999 FEW040 SCT150 BKN250 20/19 A3001 BECMG=
200806150600 METAR MROC 150600Z 00000KT 9999 SCT020 SCT150 21/20 A2999 RMK LGT HZ ARND BECMG=
200806150700 METAR MROC 150700Z 00000KT 9999 FEW025 BKN150 21/19 A2997 RMK LGT HZ ARND OCNL LTNG DST SSW BECMG=
200806150800 METAR MROC 150800Z 00000KT 9999 -DZ FEW030 BKN120 20/19 A2996 BECMG=
200806150900 METAR MROC 150900Z 10005KT 9999 -RA SCT035 BKN100 21/18 A2995 BECMG=
200806151000 METAR MROC 151000Z 07005KT 9999 FEW035 BKN130 20/19 A2995 RERA BECMG=
200806151100 METAR MROC 151100Z 00000KT 9999 FEW035 SCT130 20/18 A2995 RMK FEW250 CB DST S SSW BECMG=
200806151200 METAR MROC 151200Z 07004KT 9999 FEW040 BKN250 20/19 A2997 RMK CB DST S BECMG=
200806151300 METAR MROC 151300Z 06004KT 9999 FEW025 BKN280 21/18 A2998 BECMG=
200806151400 METAR MROC 151400Z 07003KT 9999 FEW040 BKN250 23/19 A2998 CB DST S BECMG=
200806151500 METAR MROC 151500Z 06002KT 9999 FEW040 BKN090 25/18 A2998 BECMG=
200806151600 METAR MROC 151600Z 12004KT 9999 FEW040 SCT080 BKN250 28/19 A2998 BECMG=
200806151700 METAR MROC 151700Z 14003KT 9999 FEW035 BKN250 29/19 A2996 BECMG=
200806151800 METAR MROC 151800Z 25009KT 9999 SCT040 SCT280 27/22 A2995 BECMG=
200806151900 METAR MROC 151900Z 23012KT 9999 SCT025TCU SCT250 27/22 A2993 RN E BECMG=
200806152000 METAR MROC 152000Z 24013KT 6000 -TSRA SCT012CB SCT020 25/23 A2993 VSBY SW W UNL VSBY SE 4KM DUE RASH BECMG 3000 TSRA=
200806152100 METAR MROC 152100Z 29008KT 6000 -RA VCFG FEW002 SCT010 BKN100 20/19 A2992 RMK VIS E UNL BECMG 4000 -RA BR=
200806152200 METAR MROC NIL=
200806152300 METAR MROC 152300Z 31004KT 9999 FEW030 BKN100 21/20 A2995 BECMG=
200806160024 METAR MROC 160024Z 32003KT 9999 FEW030 BKN100 21/20 A2995 RMK BECMG CAVOK=
200806160100 METAR MROC 160100Z 00000KT 9999 FEW030 BKN100 21/20 A2998 BECMG=
200806160200 METAR MROC 160200Z 03003KT 9999 FEW030 21/19 A3000 BECMG=
200806160300 METAR MROC 160300Z 08003KT 9999 SVCT040 BKN250 21/20 A3002 BECMG=
200806160400 METAR MROC 160400Z 00000KT 9999 SCT040 BKN250 21/20 A3005 BECMG=
200806160500 METAR MROC 160500Z 00000KT 9999 SCT040 BKN250 21/20 A3005 BECMG=
200806160600 METAR MROC 160600Z 00000KT 9999 FEW040 BKN250 20/20 A3003 BECMG=
200806160700 METAR MROC 160700Z 08003KT CAVOK 20/19 A2999 RMK TRACE SC BKN250 BECMG=
200806160800 METAR MROC NIL=
200806160900 METAR MROC 160900Z 00000KT CAVOK 19/18 A2997 RMK TRACE SC BKN250 BECMG=
200806161000 METAR MROC 161000Z 10005KT CAVOK 20/18 A2997 RMK TRACE SC BKN250 BECMG=
200806161100 METAR MROC 161100Z 08004KT CAVOK 19/18 A2998 RMK TRACE SC SCT120 BKN250 BECMG=
200806161200 METAR MROC 161200Z 08004KT CAVOK 20/18 A3000 RMK TRACE SC SCT120 BKN250 BECMG=
200806161300 METAR MROC 161300Z 06006KT 9999 FEW030 SCT120 BKN250 21/17 A3000 BECMG=
200806161400 METAR MROC 161400Z 13004KT 9999 FEW030 BKN250 24/19 A3002 RMK BECMG 24006KT=
200806161500 METAR MROC 161500Z 10006KT 9999 FEW030 BKN250 25/18 A3002 BECMG=
200806161600 METAR MROC 161600Z 12007KT 9999 FEW030 BKN250 27/18 A3001 RMK BECMG 24006K=
200806161700 METAR MROC 161700Z 12007KT 9999 FEW030 BKN250 28/18 A3000 RMK TCU DST SW BECMG=
200806161800 METAR MROC 161800Z 26012KT 9999 SCT030 SCT250 26/21 A3000 BECMG=
200806161900 METAR MROC 161900Z 25011KT 9999 SCT030 BKN250 26/21 A2998 BECMG=
200806162000 METAR MROC 162000Z 25009KT 9999 SCT025TCU BKN250 26/22 A2997 RMK CB RN DST N NE BECMG 7000 VCSH=
200806162100 METAR MROC 162100Z 23008KT 9999 SCT020CB SCT030 26/21 A2995 RMK RN DST N NE BECMG=
200806162200 METAR MROC 162200Z 24008KT 9999 2000N -TSRA SCT012CB BKN025 25/22 A2996 RMK 3000 SSE BECMG 5000=
200806162300 METAR MROC 162300Z 22007KT 3000 -TS VCSH BR FEW003 SCT008 SCT010CB 22/22 A2998 BECMG -TSRA HVH047 162300Z FF KZMEZQZX 162300Z MGGTZPZX /FPL-TAI588-IS -A320/M-SDGHILW/S -MGGT0230 -N0467F330 AUR RAB UA770 MESNA/N0464F340 KEHLI A770 LEV J35 SQS/N0459F350 J35 MEM J71 ENL PNT V227 PLANO -KORD0341 KMKE -EET/MMID0029 KZHU0120 REG/N498TA/=
200806170000 METAR MROC 170000Z 23003KT 5000 2000SW -DZ BR SCT003 BKN010 22/22 A3000 BECMG=
200806170100 METAR MROC 170100Z 22006KT 0500 FG VV/// 21/21 A3002 BECMG 1200 -RA BR=
200806170200 METAR MROC 170200Z 23003KT 0800 FG VV/// 21/21 A3004 RMK VIS 1200E BECMG 1500 BR=
200806170300 METAR MROC 170300Z 23002KT 0100 FG VV/// 21/21 A3005 BECMG=
200806170400 METAR MROC 170400Z 22002KT 0100 DZ FG VV/// 21/21 A3005 BECMG=
200806170500 METAR MROC 170500Z 00000KT 0300 FG VV/// 21/21 A3004 BECMG=
200806170600 METAR MROC 170600Z 04004KT 7000 2000SW VCFG SCT005 SCT020 21/21 A3002 RMK VIS E UNL BECMG 9999=
200806170700 METAR MROC 170700Z 08004KT 9999 FEW015 SCT080 19/19 A3002 BECMG=
200806170800 METAR MROC 170800Z 06004KT CAVOK 19/18 A3001 TRACE SCT SCT090 RMK BECMG=
200806170900 METAR MROC 170900Z 00000KT 9999 FEW025 19/18 A3000 TRAZAS AC BECMG=
200806171000 METAR MROC 171000Z 06003KT CAVOK 21/20 A3001 TRAZAS SC FEW080 BKN280 BECMG=
200806171100 METAR MROC 171100Z 05003KT CAVOK 20/18 A3001 TRAZAS SCT FEW090 BKN280 CB DST E/S BECMG=
200806171200 METAR MROC 171200Z 12006KT CAVOK 21/17 A3002 TRAZAS SCT FEW090 BKN280 CB DST E S BECMG=
200806171300 METAR MROC 171300Z 08007KT CAVOK 22/18 A3003 RMK TRACE SC SCT090 SCT250 RN DST NE BECMG=
200806171400 METAR MROC 171400Z 11005KT CAVOK 23/19 A3005 RMK TRACE SC FEW100 SCT250 BECMG=
200806171500 METAR MROC 171500Z 13005KT 9999 FEW030 BKN100 25/19 A3007 RMK FEW250 DZ DST N NE BECMG=
200806171600 METAR MROC 171600Z 35003KT 9999 SCT030 BKN100 25/20 A3007 RMK FEW250 DZ DST N NE BECMG=
200806171700 METAR MROC 171700Z VRB03KT 9999 FEW015TCU SCT025 28/19 A3006 RMK SCT100 BECMG 27008KT=
200806171800 METAR MROC 171800Z 11006KT 9999 SCT025 BKN100 27/18 A3004 RMK DZ DST NE BECMG=
200806171900 METAR MROC 171900Z 14005KT 9999 FEW030 SCT100 BKN250 28/18 A3001 RMK TCU DST S BECMG 27007KT=
200806172000 METAR MROC 172000Z 24012KT 9999 SCT025TCU BKN120 25/22 A3000 RMK CB RN DST SW N NE BECMG 7000 VCSH=
200806172100 METAR MROC 172100Z 24013KT 9999 4000NE VCSH FEW015CB SCT025 BKN100 23/21 A3000 BECMG 2000 TSRA=
200806172200 METAR MROC 172200Z 25005KT 7000 TS VCSH FEW015CB SCT025 BKN050 19/19 A3003 RMK VIS E SE UNLTD TS RASH SW W MOVNG TO W BECMG 9999=
200806172300 METAR MROC 172300Z 00000KT 9999 -RA FEW030 SCT050 BKN120 22/21 A3004 RETS=
200806180000 METAR MROC 180000Z 00000KT 9999 FEW035 SCT080 BKN250 20/20 A3004 RERA RMK CBS DST E S WSW BECMG=
200806180100 METAR MROC 180100Z 08005KT CAVOK 20/19 A3003 RMK TRACE SC SCT120 BKN250 BECMG=
200806180200 METAR MROC 180200Z 08006KT CAVOK 21/19 A2999 RMK TRACE SC SCT120 BKN250=
200806180300 METAR MROC 180300Z 09008KT CAVOK 21/18 A2999 BECMG=
200806180400 METAR MROC 180400Z 09008KT CAVOK 22/18 A2999 RMK SCT250 BECMG=
200806180500 METAR MROC 180500Z 10004KT CAVOK 22/18 A3002 RMK TRACE AC SCT250 BECMG=
200806180600 METAR MROC 180600Z 14003KT CAVOK 22/18 A3000 RMK FEW120 BECMG=
200806181000 METAR MROC NIL=
200806181100 METAR MROC NIL=
200806181200 METAR MROC NIL=
200806181300 METAR MROC NIL=
200806181400 METAR MROC NIL=
200806181500 METAR MROC NIL=
200806181600 METAR MROC 181600Z 24008KT 9999 FEW045 27/18 A3004 BECMG=
200806181700 METAR MROC 181700Z 24007KT 9999 SCT040 27/20 A3003 BECMG=
200806181800 METAR MROC 181800Z 25007KT 9999 -RA FEW025TCU BKN035 25/21 A3003 BECMG 7000 SHRA=
200806181900 METAR MROC 181900Z 25011KT 9999 FEW025TCU SCT035 BKN250 27/21 A3001 RMK SCT CB DST ARND RASH DSTE WNW BECMG=
200806182000 METAR MROC 182000Z 29007KT 9999 3000E -TSRA SCT015CB BKN025 24/20 A2999 BECMG 2000 TSRA=
200806182100 METAR MROC 182100Z 16004KT 9999 2000SW BR FEW015CB SCT030 SCT100 24/22 A2997 BECMG=
200806182200 METAR MROC 182200Z 25006KT 9999 2000SW BR FEW002 SCT020 SCT100 24/22 A2996 RMK TRACI CI BECMG=
200806182300 METAR MROC 182300Z 28003KT 9999 FEW020 SCT100 BKN250 23/21 A2996 BECMG=
200806190000 METAR MROC NIL=
200806190100 METAR MROC 190100Z 14003KT 9999 FEW040 BKN250 22/17 A2999 BECMG=
200806190200 METAR MROC 190200Z 13005KT 9999 FEW040 BKN250 22/18 A3001 BECMG=
200806190300 METAR MROC 190300Z 08002KT 9999 FEW040 SCT120 21/18 A3001 RMK SCT250 BECMG=
200806190400 METAR MROC 190400Z 07004KT 9999 FEW040 BKN120 20/18 A3003 RMK FEW250 BECMG=
200806190500 METAR MROC 190500Z 03002KT CAVOK 19/18 A3002 RMK SCT120 BKN250 BECMG=
200806190600 METAR MROC 190600Z 07005KT CAVOK 19/17 A3001 RMK BKN250 BECMG=
200806190700 METAR MROC 190700Z 10003KT CAVOK 18/16 A3000 RMK FEW120 BKN250 BECMG=
200806190800 METAR MROC 190800Z 08003KT CAVOK 18/16 A2999 RMK FEW120 BKN250 BECMG=
200806190900 METAR MROC 190900Z 09005KT CAVOK 18/16 A2998 RMK FEW120 SCT250 BECMG=
200806191000 METAR MROC 191000Z 09006KT CAVOK 17/15 A2998 RMK FEW120 FEW250 BECMG=
200806191100 METAR MROC 191100Z 06005KT CAVOK 17/15 A2998 RMK SCT120 FEW250 BECMG=
200806191200 METAR MROC 191200Z 08004KT CAVOK 18/15 A2999 RMK TRACE CI SCT120 TCU DST S SW BECMG=
200806191300 METAR MROC 191300Z 09006KT CAVOK 20/16 A3000 RMK TRACE SC CI TCU DST S SW BKN120=
200806191400 METAR MROC 191400Z 10008KT 080V140 CAVOK 24/18 A3001 RMK TRACE SC CI BKN120=
200806191500 METAR MROC 191500Z 10007KT 9999 FEW045 SCT120 26/17 A3001 RMK TRACE CI=
200806191600 METAR MROC 191600Z 11007KT 9999 FEW045 27/17 A3003 RMK TRACE CI AC BECMG=
200806191700 METAR MROC 191700Z 24009KT 9999 SCT035 27/20 A3002 BECMG=
200806191800 METAR MROC 191800Z 23007KT 9999 SCT035 27/21 A3000 BECMG=
200806191900 METAR MROC 191900Z 27009KT 9999 FEW015 SCT030 26/21 A2998 BECMG=
200806192000 METAR MROC 192000Z 23011KT 9999 FEW015TCU SCT030 27/21 A2995 BECMG=
200806192100 METAR MROC 192100Z 25012KT 9999 VCSH SCT015TCU SCT025 23/21 A2996 VSBY W N NE 6KM DUE RASH BECMG 5000=
200806192200 METAR MROC 192200Z 23007KT 5000 -RA FEW010 SCT030 BKN120 21/20 A2996 VSBY E SE UNL RASH SW BECMG=
200806192300 METAR MROC 192300Z 32006KT 9999 FEW006 SCT035 BKN250 21/21 A2998 VSBY NW N 6KM LOW ST CB NW S BECMG=
200806200000 METAR MROC 200000Z 29005KT 9999 FEW006 SCT010 BKN025 21/20 A3000 RN DST NW N NE E BECMG=
200806200100 METAR MROC 200100Z 32004KT 9999 SCT010 SCT250 21/20 A3001 LTNG DST S BECMG=
200806200200 METAR MROC 200200Z 00000KT 9999 FEW008 SCT130 BKN250 21/19 A3000 BECMG=
200806200300 METAR MROC 200300Z 10004KT CAVOK 20/19 A3000 RMK TRACE ST SC SCT150 BKN250 BECMG=
200806200400 METAR MROC 200400Z 07007KT CAVOK 21/19 A3000 RMK TRACE SC FEW150 SCT250 BECMG=
200806200500 METAR MROC 200500Z 07006KT CAVOK 21/18 A3000 RMK TRACE SC AC SCT250 BECMG=
200806200600 METAR MROC 200600Z 12006KT CAVOK 21/18 A3000 RMK TRACE SC SCT270 BECMG=
200806200700 METAR MROC 200700Z 09003KT CAVOK 20/17 A2999 RMK TRACE SC SCT270 BECMG=
200806200800 METAR MROC 200800Z 09004KT CAVOK 19/17 A2999 RMK TRACE SC SCT270 BECMG=
200806200900 METAR MROC 200900Z 06003KT CAVOK 19/18 A2998 RMK TRACE SC AC SCT270 BECMG=
200806201000 METAR MROC 201000Z 08003KT CAVOK 18/16 A2998 RMK TRACE SC SCT270 BECMG=
200806201100 METAR MROC 201100Z 07006KT CAVOK 18/16 A2998 RMK TRACE SC SCT270 BECMG=
200806201200 METAR MROC 201200Z 07003KT CAVOK 21/17 A3000 RMK TRACE SC SCT300 CB TCU DST WSW BECMG=
200806201300 METAR MROC 201300Z 08004KT 9999 FEW040 SCT270 22/18 A3002 RMK CB DIST SW BECMG=
200806201400 METAR MROC 201400Z 32003KT 9999 FEW030 25/18 A3003 CB DST S BECMG=
200806201500 METAR MROC 201500Z 11007KT 9999 FEW020 26/18 A3003 BECMG=
200806201600 METAR MROC 201600Z 10008KT 9999 FEW025 SCT045 26/18 A3003 BECMG=
200806201700 METAR MROC 201700Z 15006KT 9999 FEW020 SCT080 28/19 A3002 BECMG 22005KT=
200806201800 METAR MROC 201800Z 25010KT 9999 FEW020 SCT045 26/21 A3001 BECMG=
200806201900 METAR MROC 201900Z 25009KT 9999 SCT025 SCT280 26/22 A3000 TCU NW BECMG=
200806202000 METAR MROC 202000Z 25009KT 9999 BKN025 SCT280 25/21 A2999 TCU N E BECMG=
200806202100 METAR MROC 202100Z 25008KT 9999 FEW015 SCT025 BKN250 22/22 A2997 BECMG 7000 VCSH=
200806202200 METAR MROC 202200Z 25007KT 9999 FEW010 SCT025 BKN250 24/21 A2995 RMK RN DST N NE BECMG=
200806202300 METAR MROC 202300Z 24007KT 6000 VCFG SCT006 BKN015 23/21 A2995 BECMG=
200806210000 METAR MROC 210000Z 25004KT 4000 BR SCT005 BKN012 21/20 A2999 RMK BECMG 2000 BR=
200806210100 METAR MROC 210100Z 23005KT 7000 -RA VCFG SCT005 BKN015 21/20 A3001 BECMG=
200806210200 METAR MROC 210200Z 28003KT 9999 FEW010 SCT025 21/19 A3003 BECMG=
200806210300 METAR MROC 210300Z 03004KT 9999 FEW010 SCT025 BKN100 21/20 A3003 BECMG=
200806210400 METAR MROC 210400Z 07005KT 9999 FEW030 SCT100 BKN250 21/19 A3003 BECMG=
200806210500 METAR MROC 210500Z 09002KT 9999 FEW030 SCT120 21/19 A3004 BECMG=
200806210600 METAR MROC 210600Z 11004KT 9999 FEW040 22/18 A3002 BECMG=
200806210700 METAR MROC 210700Z 32002KT 9999 FEW040 21/18 A3001 RMK TRACE AC BECMG=
200806210800 METAR MROC 210800Z 11008G22KT 9999 FEW040 22/18 A2998 RMK TRACE AC CI LTNG DST S BECMG=
200806210900 METAR MROC 210900Z 12010KT 9999 FEW040 22/18 A2997 RMK TRACE AC CI=
200806211000 METAR MROC 211000Z 11008KT 9999 FEW040 SCT250 22/18 A2999 BECMG=
200806211100 METAR MROC 211100Z 10008KT 9999 FEW040 SCT250 22/17 A2998 BECMG=
200806211200 METAR MROC 211200Z 09010KT 9999 FEW040 BKN250 22/17 A2999 RMK CB DST S BECMG=
200806211300 METAR MROC 211300Z 09008KT 9999 FEW035 BKN250 24/17 A2999 BECMG=
200806211400 METAR MROC 211400Z 08012KT 9999 FEW035 BKN250 25/17 A3000 BECMG=
200806211500 METAR MROC 211500Z 07014G26KT 9999 FEW035 BKN250 26/16 A3001 BECMG=
200806211600 METAR MROC 211600Z 07009KT 9999 SCT030 BKN260 26/17 A3001 BECMG=
200806211700 METAR MROC 211700Z 07015KT 9999 SCT030 SCT270 27/16 A2999 BECMG=
200806211800 METAR MROC 211800Z 07013KT 9999 SCT030 SCT270 28/15 A3000 BECMG=
200806211900 METAR MROC 211900Z 06017KT 9999 SCT030 SCT270 29/15 A2997 BECMG=
200806212000 METAR MROC 212000Z 06015KT 9999 SCT030 SCT270 29/15 A2994 BECMG=
200806212100 METAR MROC 212100Z 11010KT 9999 SCT030 BKN250 27/17 A2995 BECMG=
200806212200 METAR MROC 212200Z 14008KT 9999 FEW035 SCT250 26/18 A2996 RMK DZ DST NE BECMG=
200806212300 METAR MROC 212300Z 12006KT 9999 SCT035 BKN250 25/17 A2996 BECMG=
200806220000 METAR MROC 220000Z 13009KT 9999 FEW035 SCT270 23/17 A2998 BECMG=
200806220100 METAR MROC 220100Z 11008KT CAVOK 23/17 A2999 RMK TRACE SC SCT250 LTNG S BECMG=
200806220200 METAR MROC 220200Z 11010KT 9999 FEW030 23/17 A3000 RMK TRACE AC SCT250=
200806220300 METAR MROC 220300Z 11007KT 9999 FEW030 SCT250 22/17 A3001 RMK TRACE AC LTNG S DIST BECMG=
200806220400 METAR MROC 220400Z 07005KT CAVOK 21/17 A3004 TRAZAS SCT SCT120 BKN260 BECMG=
200806220500 METAR MROC 220500Z 08006KT CAVOK 21/17 A3002 TRACE SC FEW080 BECMG=
200806220600 METAR MROC 220600Z 10005KT CAVOK 21/17 A2999 TRACE SCT SCT270 BECMG=
200806220700 METAR MROC 220700Z 06008KT CAVOK 21/17 A2998 TRACE SCT FEW090 BECMG=
200806220800 METAR MROC 220800Z 10006KT 9999 FEW030 SCT120 BKN270 21/17 A2996 LTNG DST S BECMG=
200806220900 METAR MROC 220900Z 10006KT CAVOK 20/16 A2997 SCT120 BKN260 BECMG=
200806221000 METAR MROC 221000Z 12004KT 9999 FEW030 SCT120 BKN280 21/17 A2997 BECMG=
200806221100 METAR MROC 221100Z 12005KT 9999 FEW040 SCT120 BKN270 20/17 A2997 BECMG=
200806221200 METAR MROC 221200Z 11008KT 9999 FEW040 SCT140 BKN270 21/16 A2996 BECMG=
200806221300 METAR MROC 221300Z 13008KT CAVOK 23/17 A2997 RMK TRACE SC SCT120 BKN250 BECMG=
200806221400 METAR MROC 221400Z 13009KT CAVOK 24/18 A2999 RMK TRACE SC SCT120 BKN250 BECMG=
200806221500 METAR MROC 221500Z 12008KT CAVOK 25/18 A3000 RMK FEW120 BKN250 BECMG=
200806221600 METAR MROC 221600Z 10008KT 9999 FEW045 BKN250 27/17 A2999 BECMG=
200806221700 METAR MROC 221700Z 09008KT 9999 FEW035 SCT120 BKN250 28/18 A2999 BECMG=
200806221800 METAR MROC 221800Z 09008KT 9999 FEW035 BKN250 28/17 A2997 RMK TRACE AC TCU DST SW BECMG=
200806221900 METAR MROC 221900Z 11004KT 9999 SCT035 BKN250 29/18 A2995 BECMG=
200806222000 METAR MROC 222000Z 26004KT 170V240 9999 SCT030 BKN250 28/22 A2993 BECMG=
200806222100 METAR MROC 222100Z 24009KT 9999 SCT025 BKN250 26/22 A2991 BECMG=
200806222200 METAR MROC 222200Z 23009KT 9999 FEW015TCU SCT025 BKN250 24/20 A2992 RMK PCPN DST N NE BECMG 7000 VCSH=
200806222300 METAR MROC 222300Z 28005KT 9999 VCFG FEW010 SCT030 BKN250 22/21 A2996 RMK TRACE AC AS CB RASH DST WNW VIS N 6KMS BECMG=
200806230000 METAR MROC 230000Z 33002KT 9999 FEW020 SCT035 BKN250 22/21 A2997 RMK TRACE ST CB DST W BECMG=
200806230100 METAR MROC 230100Z 00000KT 9999 -RA FEW007 SCT040 BKN150 22/20 A2999 RMK LTNG DST S BECMG=
200806230200 METAR MROC 230200Z 00000KT 9999 -DZ FEW010 SCT020 BKN045 22/20 A3001 RERA RMK LTNG DST S BECMG=
200806230300 METAR MROC 230300Z 00000KT 9999 SCT030 21/20 A3001 BECMG=
200806230400 METAR MROC 230400Z 00000KT 9999 SCT030 21/20 A3001 BECMG=
200806230500 METAR MROC 230500Z 06002KT 9999 SCT030 20/19 A3001 RMK LTNG DST NW FEW250 BECMG=
200806230600 METAR MROC 230600Z 24002KT 9999 SCT025 20/19 A3001 BECMG=
200806230700 METAR MROC 230700Z 06003KT 9999 SCT025 SCT250 19/18 A3000 BECMG=
200806230800 METAR MROC 230800Z 00000KT 9999 SCT025 SCT250 20/19 A2997 BECMG=
200806230900 METAR MROC 230900Z 34002KT 9999 5000W BR FEW005 BKN020 20/19 A2994 BECMG=
200806231000 METAR MROC 231000Z 07002KT 9999 SCT020 SCT100 20/19 A2996 BECMG=
200806231100 METAR MROC 231100Z 00000KT 9999 SCT025 SCT100 19/18 A2997 RMK CB DST SE TCU DST W BECMG=
200806231200 METAR MROC 231200Z 05006KT 9999 SCT025 BKN100 20/17 A2997 RMK RN DST NE TCU DST W BECMG=
200806231300 METAR MROC 231300Z 33003KT 9999 -RA FEW030 BKN120 20/19 A3000 RMK CB DST SW/W BECMG=
200806231400 METAR MROC 231400Z 00000KT 9999 DZ SCT035 BKN100 21/19 A3001 RMK CB DST SW BECMG=
200806231500 METAR MROC 231500Z 04005KT 9999 -DZ FEW035 BKN100 22/19 A3002 RMK RN DST ENE NE HZ W QUAD BECMG=
200806231600 METAR MROC 231600Z 15003KT 9999 FEW035 SCT120 BKN250 24/19 A3000 REDZ RMK HZ W BECMG=
200806231700 METAR MROC 231700Z 14005KT 9999 FEW030 BKN140 25/18 A2999 RMK SCT250 BECMG=
200806231800 METAR MROC 231800Z 12003KT 9999 FEW025 SCT100 BKN140 24/18 A2999 RMK RN DST E LGT HZ TO W BECMG -RA=
200806231900 METAR MROC 231900Z 00000KT 9999 -RA FEW020 BKN120 22/19 A2999 BECMG=
200806232000 METAR MROC 232000Z 00000KT 9999 4000SW R07/1500 -RA BR FEW015 BKN120 21/19 A2997 BECMG=
200806232100 METAR MROC 232100Z 00000KT 9999 3000SW -RA BR FEW002 BKN120 21/19 A2997 BECMG=
200806232200 METAR MROC 232200Z 00000KT 9999 4000SW BR FEW001 SCT010 BKN120 22/20 A2997 BECMG=
200806232300 METAR MROC 232300Z 26003KT 8000 3000SW BR FEW001 SCT005 BKN120 21/19 A2999 BECMG 3000 BR=
200806240000 METAR MROC 240000Z 25005KT 6000 2000SW BR FEW001 SCT005 BKN120 20/20 A3002 BECMG 1500 BR SCT001 BKN003=
200806240100 METAR MROC 240100Z 28003KT 9999 3000SW BR FEW001 SCT010 BKN120 20/19 A3004 BECMG 6000 SW=
200806240200 METAR MROC 240200Z 32003KT 9999 FEW025 BKN120 20/19 A3006 BECMG=
200806240300 METAR MROC 240300Z 00000KT 9999 -DZ SCT012 BKN100 20/19 A3007 BECMG -RA=
200806240400 METAR MROC 240400Z 34003KT 9999 DZ FEW008 SCT020 BKN100 20/19 A3006 RMK RN DST NE E BECMG -RA=
200806240500 METAR MROC 240500Z 00000KT 9999 FEW015 BKN100 19/19 A3005 RMK DUE ST SW BECMG 6000 -RA VCFG FEW005=
200806240600 METAR MROC 240600Z 09002KT 9999 DZ OVC090 20/19 A3004 RMK DUE ST SW BECMG -RA=
200806240700 METAR MROC 240700Z 05005KT 9999 DZ BKN090 20/18 A3002 RMK ST S BECMG=
200806240800 METAR MROC 240800Z 08606KT 9999 -DZRA BKN090 20/17 A3001 BECMG=
200806240900 METAR MROC 240900Z 00000KT 9999 FEW030 BKN090 20/18 A3001 RMK ST S BECMG=
200806241000 METAR MROC 241000Z 33002KT 9999 FEW030 BKN090 19/18 A3002 RMK DZ DST SE BECMG -DZRA=
200806241100 METAR MROC 241100Z 00000KT CAVOK 19/17 A3003 RMK BKN090 BECMG=
200806241200 METAR MROC 241200Z 13003KT CAVOK 19/18 A3004 RMK TRACE SC BKN100 DZ DST NE BECMG=
200806241300 METAR MROC 241300Z 11003KT 9999 FEW035 BKN120 21/18 A3006 BECMG=
200806241400 METAR MROC 241400Z 08003KT 9999 R07/1500 FEW035 BKN120 22/19 A3007 BECMG=
200806241500 METAR MROC 241500Z 07003KT 9999 FEW035 BKN120 23/19 A3007 BECMG=
200806241600 METAR MROC 241600Z 24004KT 9999 FEW030 BKN120 24/20 A3008 RMK TRACE CI BECMG=
200806241700 METAR MROC 241700Z 24002KT 9999 SCT030 BKN120 25/20 A3006 RMK TRACE CI BECMG=
200806241800 METAR MROC 241800Z 24007KT 9999 SCT030 BKN120 27/20 A3004 RMK TRACE CI BECMG=
200806241900 METAR MROC 241900Z 26009KT 9999 FEW015TCU SCT030 BKN120 26/21 A3003 BECMG=
200806242000 METAR MROC 242000Z 24005KT 9999 FEW015TCU SCT030 BKN120 25/20 A3001 RMK RN N NE BECMG=
200806242100 METAR MROC 242100Z 24005KT 9999 FEW015TCU SCT045 BKN140 24/21 A3000 RN N NE BECMG=
200806242200 METAR MROC 242200Z 21004KT 9999 SCT030 SCT130 BKN230 23/21 A3002 BECMG=
200806242300 METAR MROC 242300Z 06003KT 9999 FEW030 BKN230 24/19 A3002 BECMG=
200806250000 METAR MROC 250000Z 09005KT 9999 FEW030 BKN230 22/18 A3003 BECMG=
200806250100 METAR MROC 250100Z 10004KT CAVOK 22/17 A3003 TRAZAS SCT BKN230 BECMG=
200806250200 METAR MROC 250200Z 11007KT CAVOK 22/17 A3004 TRAZAS SCT BKN230 BECMG=
200806250300 METAR MROC 250300Z 06003KT CAVOK 21/17 A3005 RMK TRAZAS SC BKN250 BECMG=
200806250400 METAR MROC 250400Z 12009KT CAVOK 22/16 A3003 RMK TRACE SC BKN250 BECMG=
200806250500 METAR MROC 250500Z 13012KT CAVOK 22/16 A3003 RMK TRACE SC BKN250 BECMG=
200806250600 METAR MROC 250600Z 12012KT CAVOK 22/16 A3002 RMK TRACE SC BKN250 BECMG=
200806250700 METAR MROC 250700Z 12010KT CAVOK 21/16 A3000 RMK TRACE SC AC BKN250 BECMG=
200806250800 METAR MROC 250800Z 12010KT CAVOK 21/16 A3001 RMK TRACE SC BKN250 BECMG=
200806250900 METAR MROC 250900Z 08004KT CAVOK 21/16 A3001 RMK TRACE SC BKN250 BECMG=
200806251000 METAR MROC 251000Z 07007KT CAVOK 20/16 A3002 RMK TRACE SC BKN250 BECMG=
200806251100 METAR MROC 251100Z 06006KT CAVOK 19/16 A3002 RMK TRACE SC FEW250 BECMG=
200806251200 METAR MROC 251200Z 04008KT CAVOK 18/15 A3002 RMK TRACE SC FEW120 CB DST SW BECMG=
200806251300 METAR MROC 251300Z 11006KT CAVOK 22/16 A3005 TRACE SCT SCT120 SCT250 CB DIST SW BECMG=
200806251400 METAR MROC 251400Z 13010KT CAVOK 23/16 A3006 TRAZAS SC/CC SCT120 BKN250 CB DST SW BECMG=
200806251500 METAR MROC 251500Z 12011KT 9999 FEW045 BKN250 24/17 A3007 FEW120 DZ N NE BECMG=
200806251600 METAR MROC 251600Z 11010KT 9999 R07/1500 FEW040 BKN080 23/17 A3008 DZ NE CB DST S SW BECMG=
200806251700 METAR MROC 251700Z 10010KT CAVOK R07/1500 27/17 A3004 CB DIST SW TRACE CU BKN250 BECMG=
200806251800 METAR MROC 251800Z 13009KT CAVOK 28/17 A3002 TRAZAS CU FEW120 BKN250 BECMG=
200806251900 METAR MROC 251900Z 18006KT 9999 FEW030 SCT120 BKN250 28/15 A3000 BECMG 24006KT=
200806252000 METAR MROC 252000Z 24009KT 9999 FEW030 BKN130 25/21 A3001 BECMG=
200806252100 METAR MROC 252100Z 27008KT 9999 SCT025 BKN250 24/21 A2999 BECMG=
200806252200 METAR MROC 252200Z 24006KT 9999 SCT025 BKN250 26/21 A2998 BECMG=
200806252300 METAR MROC 252300Z 20006KT 9999 FEW025 SCT120 BKN250 23/21 A2998 BECMG=
200806260000 METAR MROC 260000Z 25005KT 9999 FEW006 SCT020 22/20 A2998 RMK LINE ST W EMPO 5000 BR=
200806260100 METAR MROC 260100Z 26004KT 5000 BR FEW003 SCT015 BKN250 21/21 A2999 RMK BECMG 2000 BR SCT001 SCT010=
200806260200 METAR MROC 260200Z 20002KT 4000 1300W BR SCT002 BKN008 21/20 A2998 BECMG=
200806260300 METAR MROC 260300Z 12005KT 9999 FEW010 BKN120 21/19 A3000 RMK TRACE SC BECMG=
200806260400 METAR MROC 260400Z 06005KT 9999 FEW030 SCT120 BKN250 22/18 A3001 BECMG=
200806260500 METAR MROC 260500Z 12015KT CAVOK 22/17 A2999 RMK TRACE SC SCT120 SCT250 BECMG=
200806260600 METAR MROC 260600Z 11008KT 080V140 CAVOK 22/17 A2998 RMK TRACE SC SCT120 SCT250 BECMG=
200806260700 METAR MROC 260700Z 11008KT CAVOK 21/17 A2996 RMK TRACE SC SCT120 SCT250 BECMG=
200806260800 METAR MROC 260800Z 13005KT CAVOK 22/17 A2996 RMK TRACE SC SCT120 SCT250 BECMG=
200806260900 METAR MROC 260900Z 10004KT CAVOK 19/17 A2996 RMK TRACE CI SCT120 SCT250 BECMG=
200806261000 METAR MROC 261000Z 08005KT CAVOK 19/17 A2996 RMK TRACE CI SCT120 SCT250 BECMG=
200806261100 METAR MROC 261100Z 04003KT CAVOK 19/17 A2997 RMK CB LTNG DST S SCT250 BECMG=
200806261200 METAR MROC 261200Z 07006KT CAVOK 20/17 A2999 RMK TRACE SC CB TCU DST S SCT250 BECMG=
200806261300 METAR MROC 261300Z 08003KT CAVOK 20/16 A2999 RMK TRACE SC TCU DST S FEW120 BKN250=
200806261400 METAR MROC 261400Z 00000KT CAVOK 22/16 A3000 RMK TRACE SC SCT100 BKN140 CB DST S SW BECMG 24006KT=
200806261500 METAR MROC 261500Z 24003KT CAVOK 22/18 A3002 RMK TRACE SC SCT100 BKN140 CB DST S SW BECMG=
200806261700 METAR MROC 261700Z 29002KT 9999 FEW035 BKN140 24/19 A3001=
200806261720 METAR MROC 261720Z 20010G20KT 160V220 6000 2000N +RA DZ BR FEW002 FEW010TCU SCT025 BKN100 20/18 A2990 RETSRA=
200806261800 METAR MROC 261800Z 25008KT 9999 SCT035 BKN140 25/19 A3000 RMK HZ AND BECMG=
200806261819 METAR MROC 261819Z 20010G20KT 160V220 6000 2000N R07/1500 +RA DZ BR FEW002 FEW010TCU SCT025 BKN100 20/18 A2990 RETSRA BECMG 24008KT 5000 BR SCT008 BKN015=
200806261900 METAR MROC 261900Z 22006KT 9999 R07/1500 SCT030 BKN120 25/20 A2997=
200806262000 METAR MROC 262000Z 26010KT 9999 SCT025 BKN120 25/21 A2994 BECMG=
200806262100 METAR MROC 262100Z 24006KT 9999 SCT025 BKN120 24/21 A2993 BECMG=
200806262200 METAR MROC 262200Z 24004KT 9999 FEW015CB SCT025 BKN120 24/21 A2993 BECMG=
200806262300 METAR MROC 262300Z 21005KT 9999 FEW015CB BKN025 23/21 A2993 RMK SCT120 BECMG 6000 -RA=
200806270000 METAR MROC 270000Z 26003KT 9999 SCT025 BKN120 22/21 A2995 BECMG=
200806270100 METAR MROC 270100Z 24003KT 9999 FEW035 BKN120 21/21 A2997 BECMG=
200806270200 METAR MROC 270200Z 00000KT CAVOK 21/20 A2998 RMK SCT120 BKN250 BECMG=
200806270300 METAR MROC 270300Z 00000KT CAVOK 21/21 A2999 TRACE SCT SCT100 BKN250 BECMG=
200806270400 METAR MROC 270400Z 00000KT 9999 FEW030 20/20 A2999 TRACE AC CI VIS SW 6KM BECMG=
200806270500 METAR MROC 270500Z 00000KT 9999 FEW040 20/18 A3000 TRACE AC CI BECMG=
200806270600 METAR MROC 270600Z 12002KT CAVOK 21/18 A2998 TRAZAS SCT FEW100 BKN250=
200806270700 METAR MROC 270700Z 25003KT 9999 FEW002 SCT080 BKN250 20/19 A2997 LTNG DST S SW BECMG 5000 BR=
200806270800 METAR MROC 270800Z 02002KT 9999 FFW003 SCT100 BKN250 19/19 A2995 VSBY SW W 5KM LOW ST LTNG DST S BECMG=
200806270900 METAR MROC 270900Z 10004KT CAVOK 19/18 A2993 TRAZAS SCT SCT100 BKN250 BECMG=
200806271000 METAR MROC 271000Z 20005KT CAVOK 19/19 A2995 FEW100 SCT250 BECMG=
200806271100 METAR MROC 271100Z 02003KT CAVOK 19/18 A2996 TRAZAS SCT FEW100 SCT250 BECMG=
200806271200 METAR MROC 271200Z 08006KT CAVOK 19/17 A2998 TRAZAS SCT FEW100 BKN250 BECMG=
200806271300 METAR MROC 271300Z 10003KT CAVOK 22/18 A2998 RMK BKN250 CB DST SW BECMG=
200806271400 METAR MROC 271400Z 03003KT CAVOK 24/18 A2999 RMK TRACE SC AC BKN250 BECMG=
200806271500 METAR MROC 271500Z 27003KT 9999 FEW025 BKN250 26/18 A3000 BECMG=
200806271600 METAR MROC 271600Z 24010KT 9999 FEW020 SCT030 26/19 A2999 RMK FEW250 BECMG=
200806271700 METAR MROC 271700Z 24009KT 9999 SCT020TCU SCT030 25/21 A2998 BECMG 7000 VCSH=
200806271800 METAR MROC 271800Z 24010KT 9999 FEW020TCU SCT030 25/21 A2998 RMK SCT250 DZ DST NE BECMG 6000 VCSH=
200806271900 METAR MROC 271900Z 22009KT 9999 VCSH FEW015TCU SCT030 26/21 A2996 RMK VIS 7000 NE SCT250 BECMG=
200806272000 METAR MROC 272000Z 23007KT 4000 VCSH SCT015CB BKN025 24/21 A2995 RMK VIS 9999 S BECMG 3000 -TS SHRA=
200806272100 METAR MROC 272100Z 04014KT 4000 -RA FEW015 SCT025 BKN090 22/19 A2996 RMK VIS S/SW 7KMS BECMG -TS SCT015CB=
200806272200 METAR MROC 272200Z 10003KT 5000 -RA FEW017CB SCT030 BKN100 20/19 A2998 RMK VIS S UNL BECMG 7000=
200806272300 METAR MROC 272300Z 07002KT 9999 -RA FEW035 SCT080 BKN120 20/19 A2997 BECMG=
200806280000 METAR MROC 280000Z 08004KT 9999 FEW030 BKN100 21/19 A2999 RERA BECMG=
200806280100 METAR MROC 280100Z 05006KT 9999 FEW035 BKN100 21/19 A2998 BECMG=
200806280200 METAR MROC 280200Z 08006KT CAVOK 21/18 A2997 RMK TRACE SC BKN120 BECMG=
200806280300 METAR MROC 280300Z 11002KT CAVOK 21/18 A2998 BECMG=
200806280400 METAR MROC 280400Z 13003KT CAVOK 21/18 A2999 RMK TRACE SC BKN120 BECMG=
200806280500 METAR MROC 280500Z 10004KT CAVOK 20/18 A3002 RMK TRACE SC BKN120 BECMG=
200806280600 METAR MROC 280600Z 05006KT CAVOK 20/18 A2998 RMK SCT120 BECMG=
200806280700 METAR MROC 280700Z 10004KT CAVOK 20/17 A2997 RMK SCT129 BECMG=
200806280800 METAR MROC 280800Z 05006KT CAVOK 20/17 A2995 RMK TRACE SC FEW140 BECMG=
200806280900 METAR MROC 280900Z 11006KT CAVOK 21/17 A2994 RMK TRACE SC SCT140 BECMG=
200806281000 METAR MROC 281000Z 07008KT CAVOK 19/17 A2996 RMK TRACE SC SCT140 BECMG=
200806281100 METAR MROC 281100Z 08005KT CAVOK 20/17 A2994 RMK TRACE SC AC BKN140 BECMG=
200806281200 METAR MROC 281200Z 06009KT CAVOK 20/17 A2994 RMK TRACE SC SCT100 BKN150 CB DST S SW BECMG=
200806281300 METAR MROC 281300Z 07005KT 9999 FEW030 SCT080 BKN250 22/18 A2997 RMK CB DST S SW PCPN DST E NE BECMG=
200806281400 METAR MROC 281400Z 06007KT 9999 SCT035 SCT070 22/18 A3001 RMK PCPN DST N NE E BECMG=
200806281500 METAR MROC 281500Z 10005KT 9999 BKN040 SCT070 23/19 A3003 PCPN DST N E S BECMG -RA=
200806281600 METAR MROC 281600Z 14006KT 9999 FEW035 SCT080 BKN250 25/18 A3001 BECMG=
200806281700 METAR MROC 281700Z 24006KT 9999 FEW030 SCT100 BKN250 26/20 A3000 BECMG=
200806281800 METAR MROC 281800Z 23006KT 9999 SCT030 SCT100 26/20 A2999 RMK TCU DST S SW W BECMG=
200806281900 METAR MROC 281900Z 25009KT 9999 FEW025TCU SCT035 27/21 A2998 RMK PCPN DST NW S BECMG 7000 VCSH=
200806282000 METAR MROC 282000Z 22010KT 9999 4000NW FEW015CB SCT025 BKN080 23/19 A2997 BEMG 3000 SHRA=
200806282100 METAR MROC NIL=
200806282200 METAR MROC 282200Z 12004KT 9999 RA FEW020 OVC100 20/20 A2999 BECMG=
200806282300 METAR MROC 282300Z 09005KT 9999 -DZ OVC100 20/19 A2998 RMK TRACE SC BECMG=
200806290000 METAR MROC 290000Z 06004KT CAVOK 21/20 A2998 RMK TRACE SC ST OVC100 BECMG=
200806290100 METAR MROC 290100Z 00000KT 0500 FG VV/// 20/20 A2999 RMK VIS N UNL BECMG 1500 BR=
200806290200 METAR MROC 290200Z 17003KT 9999 FEW001 SCT120 20/19 A3002 BECMG 5000 BR=
200806290300 METAR MROC 290300Z 35003KT CAVOK 19/18 A3004 RMK FEW120 SCT250 TRACE SC DUE ST S SW BECMG=
200806290400 METAR MROC 290400Z 03005KT 9999 FEW030 SCT250 19/18 A3005 RMK TRACE AC BECMG=
200806290500 METAR MROC 290500Z 09004KT CAVOK 18/18 A3003 RMKM TRACE SCT AC DUE ST SW BECMG=
200806290600 METAR MROC 290600Z 04005KT CAVOK 19/17 A3001 RMK TRACE SC AC SCT250 BECMG=
200806290700 METAR MROC 290700Z 08006KT CAVOK 20/17 A2999 RMK SCT250 BECMG=
200806290800 METAR MROC 290800Z 08005KT CAVOK 20/17 A2997 RMK SCT250 BECMG=
200806290900 METAR MROC 290900Z 07007KT CAVOK 19/17 A2997 RMK SCT250 BECMG=
200806291000 METAR MROC 291000Z 07005KT CAVOK 19/17 A2998 RMK FEW250 CB LTNG DST S BECMG=
200806291100 METAR MROC 291100Z 05005KT CAVOK 18/16 A2999 RMK FEW080 SCT250 CB DST S LTNG DST NE BECMG=
200806291200 METAR MROC 291200Z 08003KT CAVOK 19/17 A3002 RMK TRACE SC FEW100 SCT250 TCU DST S SW BECMG=
200806291300 METAR MROC 291300Z 00000KT CAVOK 21/18 A3003 RMK TRACE SC SCT250 TCU DST SW=
200806291400 METAR MROC 291400Z 27003KT CAVOK 24/19 A3004 RMK TRACE SC BKN250=
200806291500 METAR MROC 291500Z 26008KT 9999 FEW040 BKN250 25/20 A3005 BECMG=
200806291600 METAR MROC 291600Z 24007KT 9999 SCT035 BKN250 26/21 A3006 BECMG=
200806291700 METAR MROC 291700Z 28006KT 9999 SCT035 SCT250 26/20 A3004 BECMG=
200806291800 METAR MROC 291800Z 26007KT 210V280 9999 FEW015TCU SCT030 27/21 A3002 RMK SCT250 BECMG=
200806291900 METAR MROC 291900Z 26011KT 9999 FEW015TCU BKN030 26/21 A3000 RMK RN NE BECMG 8000MTS VCSH=
200806292000 METAR MROC 292000Z 25006KT 9999 -DZ FEW010CB BKN030 24/22 A2999 RERA RMK RN NE SE BECMG 8000 VCSH=
200806292100 METAR MROC 292100Z 25011KT 9999 BKN007 SCT012 22/21 A2997 VSBY N 6KM LOW ST RN DST NE E BECMG 5000 RA BR=
200806292200 METAR MROC 292200Z 25010KT 3000 RA SCT012 BKN020 20/19 A2998 BECMG=
200806292300 METAR MROC 292300Z 00000KT 2500 RA BR SCT005 BKN015 20/20 A3002 VSBY N 1KM BECMG=
200806300000 METAR MROC 300000Z 03004KT 6000 RA FEW008 SCT030 BKN100 19/18 A3004 BECMG=
200806300100 METAR MROC 300100Z 09003KT 9999 RA SCT030 OVC100 20/19 A3006 BECMG=
200806300200 METAR MROC 300200Z 11003KT 9999 FEW040 BKN100 19/19 A3005 RERA BECMG=
200806300300 METAR MROC 300300Z 04004KT 9999 FEW035 BKN100 20/19 A3009 BECMG=
200806300400 METAR MROC 300400Z 00000KT 9999 FEW035 BKN100 20/19 A3008 BECMG=
200806300500 METAR MROC 300500Z 14003KT 0300 FG VV/// 19/19 A3006 BECMG 2000=
200806300600 METAR MROC 300600Z 08006KT CAVOK 19/18 A3004 RMK TRACE SC AC BKN250 BECMG=
200806300700 METAR MROC 300700Z 09005KT CAVOK 19/17 A3000 RMK TRACE SC BKN250 BECMG=
200806300800 METAR MROC 300800Z 10005KT CAVOK 19/17 A2998 RMK TRACE SC SCT250 BECMG=
200806300900 METAR MROC 300900Z 00000KT CAVOK 19/17 A3000 RMK TRACE SC BKN250 BECMG=
200806301000 METAR MROC 301000Z 00000KT CAVOK 18/17 A3000 RMK TRACE SC BKN250 BECMG=
200806301100 METAR MROC 301100Z 12004KT CAVOK 18/18 A3001 RMK TRACE SC BKN100 BECMG=
200806301200 METAR MROC 301200Z 06005KT CAVOK 19/18 A3002 RMK TRACE SC OVC100 BECMG=
200806301300 METAR MROC 301300Z 08008KT CAVOK 22/18 A3002 TRACE SCT OVC130 RN DIST NE BECMG=
200806301400 METAR MROC 301400Z 07005KT CAVOK 22/19 A3003 FEW100 OVC150 TRAZAS SCT BECMG=
200806301500 METAR MROC 301500Z 07008KT 9999 23/19 A3003 TRAZAS SCT FEW120 BKN250 BECMG=
200806301600 METAR MROC 301600Z 11012KT CAVOK 25/19 A3002 TRAZAS SCT FEW130 BKN250 BECMG=
200806301700 METAR MROC 301700Z 11011KT CAVOK 25/19 A3001 TRAZAS SCT FEW130 BKN250 BECMG=
200806301800 METAR MROC 301800Z 12009KT CAVOK 25/19 A2999 TRAZAS CU BKN250 BECMG=
200806301900 METAR MROC 301900Z 11006KT CAVOK 27/19 A2997 TRAZAS CU BKN250 BECMG=
200806302000 METAR MROC 302000Z 11006KT 9999 FEW035 BKN250 28/19 A2996 BECMG 24006=
200806302100 METAR MROC 302100Z 11009KT 9999 SCT030TCU BKN250 27/17 A2995 RMK CB DST E BECMG=
200806302200 METAR MROC 302200Z 29008KT 9999 SCT030 BKN250 26/21 A2994 RMK TCU DST NW SW CB DST E BECMG=
200806302300 METAR MROC 302300Z 23007KT 9999 SCT025 SCT110 BKN250 23/22 A2996 RMK TCU DST S BECMG 7000 VCSH=
200807010000 METAR MROC 010000Z 28005KT 9000 VCFG FEW003 SCT120 BKN250 22/20 A2996 RMK VIS NW N NE 6000 BECMG 6000 VCFG=
200807010100 METAR MROC 010100Z 30003KT 7000 VCFG FEW002 SCT010 BKN030 22/21 A3000 RMK BECMG 2000 BR SCT001 SCT010=
200807010200 METAR MROC 010200Z 24004KT 7000 VCFG FEW002 SCT010 BKN020 22/21 A3002 BECMG=
200807010300 METAR MROC 010300Z 27003KT 9999 FEW005 SCT250 22/21 A3003 BECMG=
200807010400 METAR MROC 010400Z 00000KT 9999 SCT005 SCT250 22/21 A3005 RMK TRACE AC BECMG=
200807010500 METAR MROC 010500Z 23002KT 9999 SCT005 SCT250 21/20 A3004 RMK TRACE SC BECMG=
200807010600 METAR MROC 010600Z 30003KT 9999 SCT005 SCT120 21/21 A3003 RMK SCT250 BECMG=
200807010700 METAR MROC 010700Z 00000KT 9999 SCT005 SCT120 21/21 A3001 RMK FEW250 BECMG=
200807010800 METAR MROC 010800Z 09004KT 9999 FEW010 SCT120 21/20 A2999 RMK TRACE CI BECMG=
200807010900 METAR MROC 010900Z 08006KT CAVOK 20/19 A2997 RMK TRACE SC CI SCT120=
200807011000 METAR MROC 011000Z 00000KT CAVOK 20/18 A2999 RMK TRACE SC CI SCT120 BECMG=
200807011100 METAR MROC 011100Z 08006KT CAVOK 20/18 A2999 RMK TRACE SC CI SCT120 BECMG=
200807011200 METAR MROC 011200Z 08007KT CAVOK 21/18 A2999 RMK TRACE SC CI BKN120 CB DST S=
200807011300 METAR MROC 011300Z 05006KT CAVOK 22/17 A2998 RMK TRACE BKN120 BECMG=
200807011400 METAR MROC 011400Z 22005KT CAVOK 23/18 A2999 RMK TRACE SC BKN180 BECMG=
200807011500 METAR MROC 011500Z 26005KT CAVOK 23/18 A3002 RMK TRACE SC FEW120 BKN200 BECMG=
200807011600 METAR MROC 011600Z 28003KT 9999 FEW040 BKN250 26/19 A3003 RMK FEW120 BECMG=
200807011700 METAR MROC 011700Z 22003KT 9999 SCT035 SCT250 26/19 A3002 BECMG=
200807011800 METAR MROC 011800Z 25007KT 9999 SCT035 SCT250 27/20 A3000 RMK TCU DST S SW BECMG=
200807011900 METAR MROC 011900Z 26008KT 9999 SCT030TCU SCT250 27/20 A2996 BECMG=
200807012000 METAR MROC 012000Z 22008KT 9999 SCT020TCU BKN250 27/21 A2994 RMK RN N BECMG 7000 VCSH=
200807012100 METAR MROC 012100Z 25010KT 7000 VCSH FEW010CB SCT020TCU BKN100 22/19 A2995 RMK RN SW W NW N NE BECMG 6000 -TSRA=
200807012200 METAR MROC 012200Z 30003KT 5000 -RA VCSH FEW010CB BKN020 20/19 A2999 BECMG 2500 -TSRA=
200807012300 METAR MROC 012300Z 00000KT 3000 RA BR FEW001 SCT006 BKN015 20/19 A3002 BECMG=
200807012350 METAR MROC 020000Z 03003KT 9999 -RA FEW003 OVC100 20/19 A3001 RMK VIS NW 7 KMS DUE RN=
200807012355 METAR MROC 020000Z 03003KT 9999 -RA FEW003 OVC100 20/19 A3001 RMK VIS NW 7 KMS DUE RN=
200807020000 METAR MROC 020000Z 03003KT 9999 -RA FEW003 OVC100 20/19 A3001 RMK VIS NW 7 KMS DUE RN=
200807020100 METAR MROC 020100Z 11004KT CAVOK 20/18 A2999 RMK BKN120 TCU DST S BECMG=
200807020200 METAR MROC 020200Z 29002KT CAVOK 20/19 A3002 BECMG=
200807020300 METAR MROC 020300Z 00000KT CAVOK 20/19 A3004 TRAZAS SCT BKN140 BECMG=
200807020400 METAR MROC 020400Z 30003KT 9999 SCT030 BKN130 20/19 A3007 BECMG 7000 VCFG=
200807020500 METAR MROC 020500Z 31003KT 9999 FEW012 BKN120 20/20 A3006 BECMG 5000=
200807020600 METAR MROC 020600Z 00000KT 9999 SCT015 BKN080 20/20 A3004 BECMG=
200807020700 METAR MROC 020700Z 10004KT 9999 SCT030 20/20 A3001 BECMG=
200807020800 METAR MROC 020800Z 12003KT CAVOK 20/19 A2999 TRAZAS SC FEW100 SCT140 BECMG=
200807020900 METAR MROC 020900Z 10003KT CAVOK 19/18 A2999 TRAZAS SC SCT130 BECMG=
200807021000 METAR MROC 021000Z 11003KT CAVOK 19/18 A2998 TRAZAS SCT SCT120 BECMG=
200807021100 METAR MROC 021100Z 07003KT CAVOK 19/17 A2998 FEW120 SCT250 BECMG=
200807021200 METAR MROC 021200Z 08004KT CAVOK 19/17 A3000 TRAZAS SCT FEW130 BKN280 CB DST S BECMG=
200807021300 METAR MROC 021300Z 07003KT CAVOK 22/18 A3001 RMK BKN270 BECMG=
200807021400 METAR MROC 021400Z 10004KT CAVOK 24/18 A3002 RMK TRACE CU BKN250 BECMG=
200807021500 METAR MROC 021500Z 00000KT CAVOK 27/17 A3004 RMK TRACE CU SC BECMG 24006KT 9999 FEW030=
200807021600 METAR MROC 021600Z 24009KT 9999 FEW035 BKN250 25/21 A3004 BECMG=
200807021700 METAR MROC 021700Z 24008KT 9999 FEW030TCU BKN250 26/20 A3003 BECMG=
200807021800 METAR MROC 021800Z 26009KT 9999 -DZ FEW020TCU SCT030 BKN250 25/20 A3001 BECMG 7000 VCSH=
200807021900 METAR MROC NIL=
200807021940 METAR MROC 021940Z 24008KT 7000 -RA SCT015CB BKN030 23/20 A2999 BECMG 5000 -TSRA=
200807022000 METAR MROC 022000Z 23008KT 6000 -RA FEW010CB SCT020 BKN100 22/20 A2998 BECMG 5000 -TSRA=
200807022100 METAR MROC 022100Z 22007KT 5000 BR VCSH SCT004 BKN010 21/21 A2998 RMK VIS SSE 8KMS BECMG 2000 -RA BR=
200807022102 METAR MROC 022102Z 22007KT 5000 BR VCSH SCT004 BKN010 21/21 A2998 RERA RMK VIS SSE 8KMS BECMG 2000 -RA BR=
200807022200 METAR MROC 022200Z 25007KT 2000 TSRA FEW003 SCT012CB BKN020 20/19 A2998 BECMG 1000 +TSRA=
200807022300 METAR MROC 022300Z 00000KT 2500 -TSRA BR SCT003 FEW015CB BKN025 20/19 A3001 BECMG 4000=
200807030000 METAR MROC 030000Z 11002KT 7000 -RA FEW004 SCT010 BKN100 19/19 A3002 BECMG 4000 -RA BR=
200807030100 METAR MROC 030100Z 06002KT 9999 -RA FEW040 OVC120 20/19 A3004 RMK TRACE OF LOW ST TO S SSW NE BECMG=
200807030200 METAR MROC 030200Z 00000KT 9999 -RA SCT070 BKN120 19/19 A3006 RMK TRACE OF LOW ST TO S SW BECMG=
200807030300 METAR MROC 030300Z 30002KT 1300 0500S -RA BR BKN001 20/19 A3008 BECMG 2000 BR=
200807030400 METAR MROC 030400Z 00000KT 0600 -RA FG BKN001 19/19 A3008 BECMG=
200807030500 METAR MROC 030500Z 00000KT 7000 DZ VCFG FEW002 SCT010 BKN100 19/19 A3009 BECMG UNL=
200807030600 METAR MROC 030600Z 30005KT 9999 SCT008 BKN100 19/19 A3008 BECMG=
200807030700 METAR MROC 030700Z 32003KT 9999 FEW015 BKN100 19/19 A3005 BECMG=
200807030800 METAR MROC 030800Z 00000KT 9999 FEW015 BKN090 20/19 A3004 BECMG=
200807030900 METAR MROC 030900Z 07003KT 9999 FEW015 BKN090 19/18 A3002 BECMG=
200807031000 METAR MROC 031000Z 09003KT 9999 FEW030 BKN090 19/19 A3000 BECMG=
200807031100 METAR MROC 031100Z 06004KT 9999 FEW030 BKN120 19/18 A3000 RMK FEW100 BECMG=
200807031200 METAR MROC 031200Z 06004KT CAVOK 19/18 A3002 RMK TRACE SC SCT120 SCT250 BECMG=
200807031300 METAR MROC 031300Z 07004KT CAVOK 21/18 A3004 RMK TRACE SC BKN120 THING FG S SW BECMG=
200807031400 METAR MROC 031400Z 11003KT CAVOK 23/19 A3007 RMK TRACE ST SC BKN120 BECMG=
200807031500 METAR MROC 031500Z 10004KT CAVOK 25/19 A3007 RMK TRACE SC BKN120 BECMG 24008KT=
200807031600 METAR MROC 031600Z 08005KT CAVOK 26/18 A3007 RMK TRACE SC BKN120 BECMG 24008KT=
200807031700 METAR MROC NIL=
200807031800 METAR MROC 031800Z 25007KT 9999 FEW035 SCT140 BKN250 26/20 A3005 BECMG=
200807031900 METAR MROC 031900Z 24008KT 9999 SCT030 SCT120 26/21 A3003 BECMG 7000=
200807032000 METAR MROC 032000Z 24006KT 9999 FEW025TCU SCT045 BKN120 26/20 A3002 RMK PCPN DST N BECMG 7000 VCSH=
200807032100 METAR MROC 032100Z 25009KT 9999 FEW015TCU SCT030 BKN120 23/22 A3000 RMK RN S BECMG=
200807032200 METAR MROC 032200Z 26008KT 9999 FEW006 SCT030 BKN120 23/21 A3000 RMK RN NE BECMG=
200807032300 METAR MROC 032300Z 26007KT 9999 RA FEW006 SCT025 BKN100 22/21 A3003 BECMG=
200807040000 METAR MROC 040000Z 27004KT 8000 VCFG FEW002 SCT025 OVC100 21/21 A3004 BECMG 5000 -RA BR=
200807040100 METAR MROC 040100Z 00000KT 9999 SCT025 OVC100 21/21 A3006 RMK TRACE ST BECMG=
200807040200 METAR MROC 040200Z 25004KT 9999 FEW005 SCT025 OVC100 21/20 A3008 BECMG=
200807040300 METAR MROC 040300Z 30003KT 9999 FEW005 BKN020 20/20 A3010 BECMG 6000=
200807040400 METAR MROC 040400Z 00000KT 9999 4000SW BR FEW001 SCT010 BKN020 21/20 A3012 BECMG 3000=
200807040500 METAR MROC 040500Z 00000KT 7000 3000SW -DZ BR FEW001 SCT010 BKN020 20/19 A3010 BECMG 1500=
200807040600 METAR MROC 040600Z 30002KT 7000 VCFG FEW003 SCT015 BKN030 20/20 A3009 BECMG=
200807040700 METAR MROC 040700Z 00000KT 9999 FEW003 SCT025 BKN250 20/19 A3006 BECMG=
200807040800 METAR MROC 040800Z 00000KT 9999 VCFG FEW008 BKN025 20/19 A3003 RMK VIS ESE/S 7KM DUE ST BECMG=
200807040900 METAR MROC 040900Z 00000KT 9999 FEW008 SCT015 20/19 A3003 RMK SCT025 ST ESE/S BECMG=
200807041000 METAR MROC 041000Z 00000KT 9999 FEW015 BKN025 20/19 A3002 RMK ST THIN SSE/S BECMG=
200807041100 METAR MROC 041100Z 00000KT 9999 SCT030 BKN110 20/19 A3002 RMK ST S BECMG=
200807041200 METAR MROC 041200Z 09002KT CAVOK 20/19 A3004 RMK TRACE ST BKN120 BECMG=
200807041300 METAR MROC 041300Z 00000KT CAVOK 21/19 A3000 RMK TRACE ST BKN120 BECMG=
200807041400 METAR MROC 041400Z 23005KT 9999 FEW005 SCT120 BKN250 23/21 A3008 BECMG=
200807041500 METAR MROC NIL=
200807041600 METAR MROC 041600Z 23006KT 9999 FEW040 SCT120 BKN250 25/20 A3007 BECMG=
200807041700 METAR MROC 041700Z 25007KT 9999 SCT035 BKN120 26/22 A3007 RMK SCT250 BECMG=
200807041800 METAR MROC 041800Z 25010KT 9999 SCT035 BKN120 25/21 A3006 RMK RN NE BECMG=
200807041900 METAR MROC 041900Z 25006KT 9999 -TSRA FEW010CB SCT025 BKN120 24/21 A3004 RMK TARCE CI BECMG 5000 VCSH=
200807042000 METAR MROC 042000Z 28006KT 9999 FEW010TCU SCT025 BKN100 23/22 A3002 RETS RMK RN S BECMG 7000 VCSH=
200807042100 METAR MROC 042100Z 25006KT 9999 VCSH BKN012 SCT020 24/21 A3001 VSBY N 6KM DUE RASH RN DST ARND BECMG 6000 RA=
200807042200 METAR MROC 042200Z 21007KT 1000 TSRA VV/// 20/20 A3002 VSBY SE 2KM BECMG 2000=
200807042300 METAR MROC 042300Z 25004KT 5000 SCT004 BKN025 20/20 A3003 RN ARND RETS BECMG=
200807042345 METAR MROC 042345Z 23005KT 9999 FEW004 BKN033 20/20 A3003 BECMG=
200807050000 METAR MROC 050000Z 23004KT 9999 FEW004 BKN035 20/19 A3003 BECMG=
200807050100 METAR MROC 050100Z 00000KT 9999 FEW006 BKN040 21/20 A3006 BECMG=
200807050200 METAR MROC 050200Z 26003KT 9999 FEW006 BKN040 20/19 A3008 BECMG=
200807050300 METAR MROC 050300Z 00000KT 9999 -RA FEW004 SCT030 BKN100 20/19 A3009 OCNL LTNG DST SSW BECMG=
200807050400 METAR MROC 050400Z 00000KT 9999 SCT035 BKN080 20/19 A3010 RERA RMK TRACE ST BECMG=
200807050500 METAR MROC 050500Z 00000KT 9999 SCT035 BKN100 20/19 A3009 RMK TRACE ST SSW BECMG 24004KT 6000 VCFG=
200807050600 METAR MROC 050600Z 00000KT 9999 FEW035 BKN080 20/19 A3008 RMK THING FG AND LOW ST TO SE S SW BECMG 6000 VCFG=
200807050700 METAR MROC 050700Z 00000KT 9999 FEW010 BKN020 20/19 A3006 RMK TRACE OF LOW ST TO SE S SSW BECMG=
200807050800 METAR MROC 050800Z 00000KT 9999 VCFG FEW015 SCT025 BKN080 20/20 A3004 RMK VIS 8KMS TO S SSW BECMG=
200807050900 METAR MROC 050900Z 00000KT 9999 -RA VCFG SCT025 BKN080 19/19 A3004 RMK VIS S SSW 7KMS BECMG=
200807051000 METAR MROC 051000Z 00000KT 9999 -RA VCFG SCT025 BKN070 19/19 A3002 RMK VIS S SSW 7KMS BECMG=
200807051100 METAR MROC 051100Z 10003KT 9999 FEW030 SCT100 BKN150 19/19 A3001 RERA BECMG=
200807051200 METAR MROC 051200Z 04002KT CAVOK 19/19 A3001 RMK TRACE SC OVC150 BECMG=
200807051300 METAR MROC 051300Z 08003KT CAVOK 21/18 A3001 TRAZAS SCT FEW120 OVC150 BECMG=
200807051400 METAR MROC 051400Z 07004KT CAVOK 22/20 A3004 TRAZAS SCT FEW120 BKN250 LW ST S BECMG=
200807051500 METAR MROC 051500Z 10005KT CAVOK 24/19 A3005 TRAZAS SCT SCT130 BKN250 BECMG=
200807051600 METAR MROC 051600Z 35002KT 9999 FEW025 SCT100 BKN250 25/20 A3006 BECMG 24006=
200807051700 METAR MROC 051700Z 03004KT 9999 FEW030 SCT120 BKN250 26/20 A3004 BECMG=
200807051725 METAR MROC 051725Z 25003KT 9999 SCT025 BKN100 26/19 A3003 BECMG=
200807051800 METAR MROC 051800Z 22004KT 9999 FEW020 SCT045 BKN140 26/21 A3001 RN DST E BECMG=
200807051900 METAR MROC 051900Z 27004KT 9999 FEW020TCU SCT040 BKN140 26/22 A2998 TCU RN ENE BECMG 5000 VCSH=
200807052000 METAR MROC 052000Z 24008KT 9999 FEW015TCU SCT040 BKN120 25/22 A2996 RN DS N NE E CB/RASH W BECMG=
200807052100 METAR MROC 052100Z 26007KT 9999 FEW010 SCT015CB BKN130 23/21 A2996 RMK RASH DST SW N NE BECMG 5000 VCSH=
200807052200 METAR MROC 052200Z 26005KT 2000 TSRA SCT005 BKN010CB 20/19 A2998 BECMG 1000 TS RA=
200807052300 METAR MROC 052300Z 00000KT 4000 RA BR FEW006 SCT015 OVC100 20/20 A3000 BECMG=
200807060000 METAR MROC 060000Z 00000KT 6000 RA VCFG FEW006 SCT015 OVC100 20/19 A3001 RMK TRACE ST BECMG=
200807060100 METAR MROC 060100Z 00000KT 9999 SCT020 OVC100 20/19 A3002 RMK TRACE ST BECMG=
200807060200 METAR MROC 060200Z 24004KT 1000 FG SCT001 SCT020 OVC100 20/19 A3005 BECMG=
200807060300 METAR MROC 060300Z 00000KT 8000 -RA VCFG FEW005 SCT020 OVC100 20/20 A3005 BECMG=
200807060400 METAR MROC 060400Z 28005KT 4000 BR FEW001 SCT020 OVC100 20/20 A3007 BECMG=
200807060500 METAR MROC 060500Z 00000KT 8000 VCFG FEW003 SCT025 OVC100 20/20 A3006 BECMG 5000 -RA BR=
200807060600 METAR MROC 060600Z 00000KT 8000 VCFG FEW003 SCT015 BKN100 20/20 A3004 BECMG 5000 -RA BR=
200807060700 METAR MROC 060700Z 00000KT 3000 BR FEW001 SCT015 BKN100 19/19 A3002 BECMG 5000 -DZ BR=
200807060800 METAR MROC 060800Z 00000KT 9999 FEW005 SCT015 BKN100 19/19 A3000 BECMG 5000 -DZ BR=
200807060900 METAR MROC 060900Z 00000KT CAVOK 19/19 A2999 RMK TRACE SC OVC100 BECMG=
200807061000 METAR MROC 061000Z 00000KT CAVOK 19/19 A3001 RMK TRACE SC OVC100 BECMG=
200807061100 METAR MROC NIL=
200807061200 METAR MROC 061200Z 08003KT CAVOK 19/19 A3003 RMK TRACE SC ST OVC100 BECMG=
200807061300 METAR MROC 061300Z 08003KT CAVOK 20/18 A3003 RMK TRACE SC SCT120 BKN250 BECMG=
200807061400 METAR MROC 061400Z 09002KT CAVOK 22/18 A3003 RMK TRACE SC SCT120 BKN250 BECMG 24006KT=
200807061500 METAR MROC 061500Z 00000KT 9999 FEW035 SCT120 BKN250 24/18 A3005 BECMG=
200807061600 METAR MROC 061600Z 27008KT 9999 FEW030 BKN250 25/20 A3006 BECMG=
200807061700 METAR MROC 061700Z 23004KT 9999 SCT030 BKN250 26/20 A3004 BECMG=
200807061800 METAR MROC 061800Z 25004KT 9999 SCT030 BKN250 25/20 A3003 BECMG=
200807061900 METAR MROC 061900Z 24006KT 9999 SCT025 BKN250 26/20 A3000 BECMG=
200807062000 METAR MROC 062000Z 25009KT 9999 SCT030 BKN130 26/21 A2998 BECMG 7000=
200807062100 METAR MROC 062100Z 25009KT 9999 FEW005 SCT025 BKN250 24/21 A2997 RMK RN DST N NE TCU DST SW BECMG 7000 VCSH=
200807062200 METAR MROC 062200Z 27008KT 9999 VCFG FEW004 SCT020 BKN250 22/20 A2998 RMK VIS S SW 5 KMS=
200807062300 METAR MROC 062300Z 28007KT 9999 4000SW BR FEW002 SCT015 BKN025 21/20 A3000 RMK BECMG 4000 BR SCT002 SCT012=
200807062351 METAR MROC 070000Z 30005KT 9999 VCFG FEW004 SCT020 BKN035 21/20 A3003 RMK VIS SW 6000 VCFG BECMG 5000 BR=
200807062355 METAR MROC 070000Z 30005KT 9999 VCFG FEW004 SCT020 BKN035 21/20 A3003 RMK VIS SW 6000 VCFG BECMG 5000 BR=
200807070000 METAR MROC 070000Z 30005KT 9999 VCFG FEW004 SCT020 BKN035 21/20 A3003 RMK=
200807070100 METAR MROC 070100Z 32003KT 9999 FEW005 SCT025 BKN250 21/19 A3004 BECMG=
200807070200 METAR MROC 070200Z 32002KT 9999 FEW020 BKN250 21/19 A3004 BECMG=
200807070300 METAR MROC 070300Z 00000KT 9999 FEW025 SCT040 20/20 A3006 BECMG=
200807070400 METAR MROC 070400Z 00000KT 9999 FEW030 SCT045 21/20 A3006 BECMG=
200807070500 METAR MROC 070500Z 00000KT 9999 FEW030 SCT140 20/20 A3006 BECMG=
200807070600 METAR MROC 070600Z 08004KT 9999 FEW040 19/19 A3004 BECMG=
200807070700 METAR MROC 070700Z 05005KT 9999 FEW034 SCT120 19/18 A3002 BECMG=
200807070800 METAR MROC 070800Z 00000KT CAVOK 18/17 A3000 TRAZAS SCT SCT120 BECMG=
200807070900 METAR MROC 070900Z 00000KT CAVOK 18/16 A3000 FEW250 BECMG=
200807071000 METAR MROC 071000Z 00000KT CAVOK 18/17 A3000 FEW250 TRAZAS SCT BECMG=
200807071100 METAR MROC 071100Z 09003KT CAVOK 19/17 A3002 SCT100 SCT280 BECMG=
200807071200 METAR MROC 071200Z 06004KT CAVOK 19/17 A3001 TRAZAS SCT BKN100 CB DST S BECMG=
200807071300 METAR MROC 071300Z 09002KT CAVOK 22/18 A3002 RMK TRACE SC BKN120 BECMG=
200807071400 METAR MROC 071400Z 15006KT CAVOK 25/18 A3002 RMK TRACE SC AC BKN250 BECMG=
200807071500 METAR MROC 071500Z 11010KT CAVOK 26/17 A3002 RMK TRACE SC AC BKN250 BECMG=
200807071600 METAR MROC 071600Z 13009KT 9999 FEW035 BKN260 27/17 A3002 BECMG 25007KT=
200807071700 METAR MROC 071700Z 12007KT 9999 FEW030 SCT250 28/18 A3002 RMK TRACE AS CI BECMG 25008KT 9999 SCT030=
200807071800 METAR MROC 071800Z 22009KT 9999 SCT025TCU BKN250 27/21 A3001 RMK RN DST N BECMG=
200807071900 METAR MROC 071900Z 27011KT 9999 4000N VCTSSH SCT018CB BKN030 24/20 A3000 BECMG 5000 -TSRA=
200807072000 METAR MROC 072000Z 00000KT 9999 4000SW VCSH FEW010CB SCT025 BKN100 20/19 A2999 BECMG 25005KT 7000 VCFG FEW007=
200807072100 METAR MROC 072100Z 23004KT 9999 VCFG FEW003 SCT030 BKN100 22/20 A2998 LOW ST VIS 7KMS TO S SW BECMG 6000=
200807072200 METAR MROC 072200Z 27005KT 9999 SCT025 BKN100 22/21 A2999 RMK TRACE ST BECMG=
200807072300 METAR MROC 072300Z 00000KT 9999 FEW010 SCT035 BKN100 22/20 A2999 BECMG=
200807080000 METAR MROC 080000Z 00000KT 9999 FEW010 SCT140 BKN250 21/20 A2999 RMK TCU DST ENE LGT HZ ARND BECMG=
200807080100 METAR MROC 080100Z 00000KT 9999 FEW020 SCT140 BKN250 21/20 A3001 RMK LGT HZ ARND BECMG=
200807080200 METAR MROC 080200Z 24003KT 9999 FEW030 SCT140 BKN250 21/20 A3002 LGT HZ ARND BECMG=
200807080300 METAR MROC 080300Z 00000KT 9999 FEW030 SCT130 BKN250 21/19 A3003 RMK HZ LGT ARND BECMG 7000 VCFG=
200807080400 METAR MROC 080400Z 11005KT CAVOK 20/19 A3004 RMK TRACE SC SCT120 BECMG=
200807080500 METAR MROC 080500Z 07006KT CAVOK 20/17 A3004 RMK TRACE SC SCT120 BECMG=
200807080600 METAR MROC 080600Z 05003KT CAVOK 20/28 A3003 RMK TRACE SC SCT120 BECMG=
200807080700 METAR MROC 080700Z 08005KT CAVOK 19/16 A2999 RMK TRACE SC SCT120 BECMG=
200807080800 METAR MROC 080800Z 07006KT CAVOK 18/15 A2998 RMK TRACE SC AC SC120 BECMG=
200807080900 METAR MROC 080900Z 08006KT CAVOK 19/15 A2997 RMK TRACE SC SCT120 BECMG=
200807081000 METAR MROC 081000Z 11007KT CAVOK 18/14 A2997 RMK TRACE SC AC SCT120 BECMG=
200807081100 METAR MROC 081100Z 06005KT CAVOK 16/14 A2998 RMK TRACE SC CB DST S BKN270 BECMG=
200807081200 METAR MROC 081200Z 08005KT CAVOK 19/15 A2998 RMK CB DST S BKN250 BECMG=
200807081300 METAR MROC 081300Z 10008KT CAVOK 21/16 A3001 RMK TRACE SC BKN250 CB=
200807081400 METAR MROC 081400Z 10005KT CAVOK 21/16 A3001 RMK TRACE SC BKN250 CB=
200807081500 METAR MROC 081500Z 14007KT CAVOK 25/16 A3001 RMK TRACE SC BKN250 CB DST S SSW BECMG=
200807081600 METAR MROC 081600Z 16004KT CAVOK 26/17 A3000 RMK TRACE SC CU AC BKN250 BECMG=
200807081700 METAR MROC 081700Z 26005KT 9999 FEW030 BKN250 27/18 A2998 BECMG=
200807081800 METAR MROC 081800Z 26007KT 9999 FEW030 BKN250 27/19 A2998 RMK DVLPNG CU ARND BECMG 7000 VCSH=
200807081900 METAR MROC 081900Z 23011KT 9999 SCT025TCU BKN250 26/21 A2996 RMK LGT HZ ARND BECMG 7000 VCSH FEW015CB BKN025=
200807082000 METAR MROC 082000Z 25011KT 9999 FEW015TCU SCT030 BKN250 24/20 A2995 RMK PCPN DST N BECMG 7000 -RA VCSH FEW015CB BKN025=
200807082100 METAR MROC 082100Z 24007KT 9999 FEW015TCU SCT030 BKN250 22/20 A2995 RMK RN DST N NE BECMG=
200807082200 METAR MROC 082200Z 25003KT 9999 3000SW VCSH FEW010CB SCT025 BKN250 21/20 A2995 RMK RN N NE BECMG=
200807082300 METAR MROC 082300Z 31005KT 9999 2000SW BR FEW002 SCT005 BKN100 21/20 A2998 RMK TRACE SCT250 BECMG 5000 -DZ BR=
200807090000 METAR MROC 090000Z 00000KT 4000 RA BR FEW001 SCT005 OVC100 20/20 A2999 RMK VIS E UNL BECMG 2500 RA BR=
200807090020 METAR MROC 090020Z 17004KT 9999 1500SW -RA BR FEW001 SCT010 OVC100 20/20 A3000 BECMG 5000 -RA BR=
200807090100 METAR MROC 090100Z 06007KT 9999 -RA FEW020 OVC100 19/18 A3001 BECMG=
200807090200 METAR MROC 090200Z 07004KT 9999 FEW030 OVC100 20/18 A3001 BECMG=
200807090300 METAR MROC 090300Z 05006KT CAVOK 20/18 A3003 RMK TRACE SC SCT120 BECMG=
200807090400 METAR MROC 090400Z 09004KT CAVOK 19/17 A3005 BECMG=
200807090500 METAR MROC 090500Z 32004KT CAVOK 19/18 A3004 BECMG=
200807090600 METAR MROC 090600Z 01002KT 9999 FEW010 SCT120 19/18 A3002 BECMG 7000=
200807090700 METAR MROC 090700Z 00000KT 9999 FEW020 SCT120 19/18 A2999 BECMG=
200807090800 METAR MROC 090800Z 08003KT 9999 FEW030 SCT120 18/17 A2999 RMK FEW250 BECMG=
200807090900 METAR MROC 090900Z 09004KT CAVOK 18/17 A2997 RMK SCT120 SCT250 BECMG=
200807091000 METAR MROC 091000Z 10004KT CAVOK 18/16 A2996 RMK FEW080 BKN120 BECMG=
200807091100 METAR MROC 091100Z 07007KT CAVOK 19/16 A2997 RMK BKN120 FEW250 BECMG=
200807091200 METAR MROC 091200Z 06005KT CAVOK 19/16 A2999 BECMG=
200807091300 METAR MROC 091300Z 09006KT CAVOK 21/16 A3000 RMK SCT120 BKN250 BECMG=
200807091400 METAR MROC 091400Z 09005KT CAVOK 23/17 A3001 RMK SCT120 BKN250 BECMG=
200807091500 METAR MROC 091500Z 22003KT CAVOK 24/19 A3002 RMK TRACE SC SCT120 BKN250 BECMG=
200807091600 METAR MROC 091600Z 24005KT CAVOK 22/19 A3003 RMK TRACE SC SCT120 BKN250 BECMG=
200807091700 METAR MROC 091700Z 25004KT 9999 FEW045 SCT120 BKN250 24/18 A3002 BECMG=
200807091800 METAR MROC 091800Z 26007KT 9999 FEW040 SCT120 BKN250 24/20 A3002 BECMG=
200807091900 METAR MROC 091900Z 25010KT 9999 FEW035 SCT120 BKN250 25/21 A3000 RMK RN DST NE BECMG 5000 VCSH=
200807092000 METAR MROC 092000Z 24007KT 9999 FEW015TCU SCT030 BKN120 24/20 A2997 RMK RN NE S BECMG 5000 RA=
200807092100 METAR MROC 092100Z 20003KT 9999 -RA FEW012TCU SCT020 BKN100 21/20 A2997 VSBY NW N NE 6KM DUE RN BECMG=
200807092200 METAR MROC 092200Z 00000KT 9999 -RA FEW015 SCT050 BKN100 22/19 A2997 VSBY N NE 6KM BECMG=
200807092300 METAR MROC 092300Z 25006KT 9999 SCT008 SCT020 20/19 A2998 RN DST ARND BECMG=
200807100000 METAR MROC 100000Z 22006KT 2000 TSRA SCT003 FEW008CB BKN015 20/19 A3001 BECMG 4000 RA=
200807100100 METAR MROC 100100Z 00000KT 4000 RA BR SCT002 SCT008 19/19 A3003 BECMG=
200807100200 METAR MROC 100200Z 09005KT 9999 RA SCT040 BKN100 19/18 A3004 BECMG=
200807100300 METAR MROC 100300Z 11003KT CAVOK 18/18 A3004 RERA RMK TRACE SC OVC100 BECMG=
200807100400 METAR MROC 100400Z 21004KT CAVOK 20/17 A3004 RMK TRACE SC OVC100 BECMG 6000 VCFG=
200807100500 METAR MROC 100500Z 08003KT 9999 -RA OVC100 19/18 A3003 RMKTRACE SCT BECMG=
200807100600 METAR MROC 100600Z 00000KT 9999 -RA OVC100 19/18 A3002 RMK TRACE ST SC BECMG=
200807100700 METAR MROC 100700Z 00000KT CAVOK 19/18 A3000 RERA RMK TRACE SC OVC140 BECMG=
200807100800 METAR MROC 100800Z 03002KT CAVOK 19/18 A2999 RMK TRACE SC BKN150 BECMG=
200807100900 METAR MROC 100900Z 08004KT CAVOK 18/18 A2998 RMK TRACE SC SCT140 BKN250 BECMG=
200807101000 METAR MROC 101000Z 08004KT CAVOK 19/17 A2998 RMK TRACE SC SCT140 SCT250 BECMG=
200807101100 METAR MROC 101100Z 07006KT CAVOK 19/17 A2999 RMK TRACE SC BKN140 BECMG=
200807101200 METAR MROC 101200Z 08005KT CAVOK 20/17 A3001 RMK TRACE SC BKN140 BECMG=
200807101300 METAR MROC 101300Z 07003KT CAVOK 21/18 A3003 TRACE SCT BKN120 BECMG=
200807101400 METAR MROC 101400Z 09005KT CAVOK 23/17 A3005 TRAZAS SCT BKN120 BECMG=
200807101500 METAR MROC 101500Z 23005KT CAVOK 24/18 A3006 TRAZAS SCT BKN120 BECMG=
200807101600 METAR MROC 101600Z 24005KT 9999 FEW025 BKN120 25/19 A3006 BECMG=
200807101700 METAR MROC 101700Z 25006KT 9999 FEW030 BKN120 26/18 A3005 BECMG=
200807101800 METAR MROC 101800Z 24009KT 9999 SCT020 BKN120 26/19 A3004 TCU RN DST ESE TCU S BECMG=
200807101900 METAR MROC 101900Z 25010KT 9999 FEW012CB SCT025 SCT120 24/22 A3003 VSBY SW 6KM DUE RASH RN DST NW N E=
200807102000 METAR MROC 102000Z 25007KT 9999 FEW010CB SCT030 BKN120 21/19 A3003 TCU RN ARND EMPO 5000 SHRA=
200807102100 METAR MROC 102100Z 27003KT 9999 4000N VCSH FEW006TCU SCT015 BKN100 21/19 A3000 RMK RASH N BECMG 4000 -RA BR=
200807102200 METAR MROC 102200Z 29003KT 9999 VCFG FEW006 SCT020 BKN100 21/18 A3003 RMK VIS 7000 N NE DUE VCFG BECMG=
200807102300 METAR MROC 102300Z 00000KT 9999 VCFG FEW008 SCT020 BKN080 21/19 A3004 RMK VIS N NE 7000 VCFG BECMG=
200807110000 METAR MROC 110000Z 08003KT 9999 -RA SCT020 OVC090 20/19 A3006 BECMG=
200807110100 METAR MROC 110100Z 08004KT 9999 RA SCT025 OVC100 19/18 A3009 BECMG=
200807110200 METAR MROC 110200Z 10006KT 9999 -RA SCT025 OVC100 20/18 A3009 BECMG=
200807110300 METAR MROC 110300Z 08006KT CAVOK 20/18 A3010 RMK TRACE SC BKN110 BECMG=
200807110400 METAR MROC 110400Z 06007KT CAVOK 21/18 A3010 RMK TRACE SC BKN110 BECMG=
200807110500 METAR MROC 110500Z 00000KT CAVOK 20/18 A3010 RMK TRACE SC BKN110 BECMG=
200807110600 METAR MROC 110600Z 00000KT CAVOK 19/19 A3010 RMK TRACE SC BKN110 BECMG=
200807110700 METAR MROC 110700Z 12003KT CAVOK 19/18 A3008 RMK TRACE SC BKN120 BECMG=
200807110800 METAR MROC 110800Z 10004KT CAVOK 18/18 A3006 RMK TRACE SC BKN120 BECMG=
200807110900 METAR MROC 110900Z 07008KT CAVOK 18/17 A3004 RMK TRACE SC SCT120 BECMG=
200807111000 METAR MROC 111000Z 09007KT CAVOK 19/17 A3004 RMK TRACE SC SCT120 BECMG=
200807111100 METAR MROC 111100Z 06005KT CAVOK 18/17 A3005 RMK TRACE SC SCT120 BECMG=
200807111200 METAR MROC 111200Z 03006KT CAVOK 19/17 A3006 RMK TRACE SC SCT120 BKN250 BECMG=
200807111300 METAR MROC 111300Z 11007KT CAVOK 21/17 A3007 RMK TRACE SC AC BKN250 BECMG=
200807111400 METAR MROC 111400Z 11007KT CAVOK 23/18 A3009 RMK TRACE SC AC BKN250 BECMG 24006KT=
200807111500 METAR MROC 111500Z 14007KT CAVOK 23/17 A3010 RMK TRACE SC SCT120 BKN250 BECMG=
200807111600 METAR MROC 111600Z 11005KT CAVOK 25/17 A3010 RMK TRACE SC BKN120 BECMG 24006KT=
200807111700 METAR MROC 111700Z 14003KT 9999 FEW040 BKN250 27/18 A3010 BECMG=
200807111800 METAR MROC 111800Z 09012KT 9999 FEW035 BKN250 28/18 A3009 BECMG=
200807111900 METAR MROC 111900Z 18005KT 9999 SCT035 BKN250 27/18 A3006 BECMG 24006KT=
200807112000 METAR MROC 112000Z 25011KT 9999 BKN020TCU SCT250 25/21 A3005 RMK RASH DS E BECMG=
200807112100 METAR MROC 112100Z 23009KT 9999 FEW015TCU SCT025 BKN250 24/20 A3004 RMK RN DST S SW W BECMG=
200807112200 METAR MROC 112200Z 25010KT 7000 VCFG FEW003 SCT015 BKN025 21/20 A3005 RMK RN DST S SW BECMG 5000 -DZ BR=
200807112300 METAR MROC 112300Z 28006KT 4000 BR SCT001 BKN012 20/20 A3006 RERA BECMG=
200807112352 METAR MROC 120000Z 25003KT 3000 BR SCT001 BKN010 20/20 A3009 RMK VIS E ILIMITADA BECMG -RA=
200807112357 METAR MROC 120000Z 25003KT 3000 BR SCT001 BKN010 20/20 A3009 RMK VIS E ILIMITADA BECMG -RA=
200807120000 METAR MROC 120000Z 25003KT 3000 BR SCT001 BKN010 20/20 A3009 RMK VIS E ILIMITADA BECMG -RA=
200807120100 METAR MROC 120100Z 24003KT 3000 DZ BR SCT001 BKN015 20/19 A3011 BECMG 1500=
200807120200 METAR MROC 120200Z 07004KT 4000 BR SCT001 BKN025 20/20 A3011 BECMG -RA=
200807120300 METAR MROC 120300Z 00000KT 9999 FEW025 BKN130 20/20 A3010 BECMG=
200807120400 METAR MROC 120400Z 10007KT 9999 FEW025 SCT130 21/18 A3011 BECMG=
200807120500 METAR MROC 120500Z 08004KT 9999 FEW030 BKN120 21/19 A3010 BECMG=
200807120600 METAR MROC 120600Z 07006KT CAVOK 21/19 A3007 RMK TRACE SC SCT120 BECMG=
200807120700 METAR MROC 120700Z 06005KT CAVOK 21/18 A3004 TRACE SCT SCT140 BECMG=
200807120800 METAR MROC 120800Z 07006KT CAVOK 21/17 A3003 TRAZAS SC SCT130 BECMG=
200807120900 METAR MROC 120900Z 08006KT CAVOK 21/17 A3003 TRAZAS SC SCT130 BECMG=
200807121000 METAR MROC 121000Z 09007KT CAVOK 21/17 A3004 TRAZAS SCT SCT130 SCT250 BECMG=
200807121100 METAR MROC 121100Z 10007G17KT CAVOK 21/18 A3004 SCT100 SCT150 TRAZAS SCT BECMG=
200807121200 METAR MROC 121200Z 04003KT CAVOK 21/18 A3005 TRAZAS SCT BKN120 CB DST S BECMG=
200807121300 METAR MROC 121300Z 08007KT CAVOK 22/18 A3006 RMK TRAZAS SC BKN120 BECMG=
200807121400 METAR MROC 121400Z 13011KT 9999 FEW025 SCT120 BKN250 23/17 A3005 RMK RN DST E BECMG=
200807121500 METAR MROC 121500Z 13010KT 9999 FEW025 SCT130 BKN260 24/18 A3007 BECMG=
200807121600 METAR MROC 121600Z 13011KT 9999 FEW030 BKN250 25/18 A3008 RMK TRACE AC BECMG=
200807121700 METAR MROC 121700Z 13008KT 9999 SCT030 BKN250 26/18 A3006 RMK TRACE AC AS BECMG=
200807121800 METAR MROC 121800Z 14006KT 9999 BKN030 SCT250 25/18 A3006 BECMG 7000=
200807121900 METAR MROC 121900Z 11007KT 9999 BKN030 SCT250 25/17 A3003 BECMG=
200807122000 METAR MROC 122000Z 13005KT 9999 BKN025 25/18 A3001 RMK RN DST ENE BECMG 7000 VCSH=
200807122100 METAR MROC 122100Z 15006KT 9999 FEW010 BKN030 24/18 A3001 PCPN DST E NW BECMG 24008KT 6000 VCSH=
200807122200 METAR MROC 122200Z 25010KT 9999 FEW007 SCT025 BKN120 22/21 A3000 RMK BECMG 6000 VCFG=
200807122300 METAR MROC 122300Z 27006KT 9999 FEW010 SCT120 22/20 A3001 BECMG 6000=
200807130000 METAR MROC 130000Z 29004KT 9999 VCFG SCT005 SCT120 BKN250 21/20 A3003 RMK VIS SW 6KMS BECMG 5000 BR=
200807130100 METAR MROC 130100Z 29003KT 9999 VCFG FEW004 SCT020 BKN120 21/20 A3004 RMK VIS S SSW 6KMS BECMG 5000 BR=
200807130200 METAR MROC 130200Z 23005KT 9999 FEW006 BKN020 21/20 A3006 BECMG=
200807130300 METAR MROC 130300Z 29002KT 9999 VCFG FEW005 SCT020 BKN120 20/19 A3008 BECMG 7000 VCFG=
200807130400 METAR MROC 130400Z 31002KT 9999 FEW005 SCT020 BKN120 20/19 A3009 BECMG=
200807130500 METAR MROC 130500Z 30003KT 9999 BKN013 20/19 A3008 BECMG=
200807130600 METAR MROC 130600Z 25005KT 9999 FEW005 BKN015 20/19 A3008 BECMG 7000=
200807130700 METAR MROC 130700Z 28005KT 7000 +DZ VCFG FEW004 BKN010 19/18 A3006 BECMG 5000 BR=
200807130800 METAR MROC 130800Z 30004KT 8000 VCFG FEW995 BKN015 19/18 A3003 BECMG=
200807130900 METAR MROC 130900Z 00000KT 9999 FEW007 BKN015 19/18 A3001 BECMG=
200807131000 METAR MROC 131000Z 00000KT 9999 FEW007 SCT015 19/18 A2999 BECMG=
200807131100 METAR MROC 131100Z 09003KT 9999 SCT020 19/18 A3002 BECMG=
200807131200 METAR MROC 131200Z 10003KT CAVOK 19/18 A3002 RMK TRACE SC SCT090 OVC250 BECMG=
200807131300 METAR MROC 131300Z 10004KT CAVOK 20/18 A3004 RMK TRACE SC OVC110 BECMG=
200807131400 METAR MROC 131400Z 05004KT CAVOK 22/19 A3005 RMK TRACE SC SCT120 BKN250 BECMG=
200807131500 METAR MROC NIL=
200807131600 METAR MROC 131600Z 26008KT 9999 FEW030 SCT120 BKN250 24/20 A3006 BECMG=
200807131700 METAR MROC 131700Z 28005KT 9999 SCT030 BKN120 25/19 A3005 RMK PCPN DST E BECMG=
200807131800 METAR MROC 131800Z 23007KT 9999 SCT030 BKN100 24/19 A3004 BECMG 7000=
200807131900 METAR MROC 131900Z 25008KT 9999 FEW015TCU SCT030 BKN130 24/20 A3000 RMK RN DST NE E BECMG 7000 VCSH=
200807132000 METAR MROC 132000Z 25008KT 9999 FEW015CB SCT025 BKN120 24/20 A2999 RMK RASH DST NNW N BECMG 5000 SHRA=
200807132100 METAR MROC 132100Z 26009KT 9999 FEW015CB SCT025 BKN120 23/21 A2998 RMK RN SE BECMG=
200807132200 METAR MROC 132200Z 23007KT 9999 FEW010CB SCT020 BKN100 22/20 A2997 RMK RN NE BECMG=
200807132300 METAR MROC 132300Z 23005KT 9999 -DZ VCFG FEW006 SCT020 OVC100 20/20 A2998 RMK RN NE SE BECMG 8000 -RA VCFG FEW003 SCT010=
200807140000 METAR MROC 140000Z 24002KT 8000 VCFG FEW002 SCT010 OVC100 20/20 A3001 REDZ BECMG 5000 -RA BR FEW003 SCT010=
200807140100 METAR MROC 140100Z 00000KT 9999 FEW002 SCT005 OVC100 20/20 A3003 RMK ST ARND BECMG -DZ=
200807140200 METAR MROC 140200Z 00000KT 9999 2000SW -DZ BR FEW001 SCT005 OVC100 20/20 A3005 BECMG=
200807140300 METAR MROC 140300Z 00000KT 9999 -DZ FEW025 BKN120 19/18 A3005 BECMG=
200807140400 METAR MROC 140400Z 00000KT CAVOK 20/18 A3005 RMK OVC110 BECMG=
200807140500 METAR MROC 140500Z 30002KT CAVOK 19/18 A3004 RMK TRACE SC BKN140 BECMG=
200807140600 METAR MROC 140600Z 00000KT CAVOK 19/18 A3002 TRACE SCT BKN130 BECMG=
200807140700 METAR MROC 140700Z 12002KT CAVOK 19/18 A3001 TRACE SCT BKN130 BECMG=
200807140800 METAR MROC 140800Z 09003KT 9999 FEW030 SCT130 18/17 A3001 RMK SCT260 BECMG=
200807140900 METAR MROC 140900Z 10003KT CAVOK 18/17 A3000 RMK BKN120 BECMG=
200807141000 METAR MROC 141000Z 06005KT CAVOK 17/16 A2999 RMK SCT120 FEW260 BECMG=
200807141100 METAR MROC 141100Z 08007KT CAVOK 18/16 A2999 RMK SCT120 FEW260 BECMG=
200807141200 METAR MROC 141200Z 08006KT CAVOK 18/16 A2999 RMK TCU DST S SW TRACE CU BKN270 BECMG=
200807141300 METAR MROC 141300Z 13006KT 9999 FEW040 BKN120 22/17 A3002 RMK TCU CB DST SW BECMG=
200807141400 METAR MROC 141400Z 12007KT 9999 FEW040 BKN120 23/17 A3003 RK TCU CB DST SW BECMG=
200807141500 METAR MROC 141500Z 13008KT 9999 SCT035 BKN120 24/18 A3004 RMK CB DST SW BECMG=
200807141600 METAR MROC 141600Z 14005KT 9999 SCT035 SCT120 25/18 A3004 RMK TRACE CI BECMG=
200807141700 METAR MROC 141700Z 26008KT 9999 SCT030 SCT120 26/20 A3003 RMK FEW260 BECMG=
200807141800 METAR MROC 141800Z 25005KT 9999 SCT030 BKN120 25/20 A3002 RMK TRACE CI BECMG=
200807141900 METAR MROC 141900Z 19005KT 9999 SCT030 BKN120 25/20 A2999 RMK RN N SE BECMG 8000 VCSH=
200807142000 METAR MROC 142000Z 27008KT 9999 FEW015TCU SCT030 BKN120 23/21 A2997 RMK RN E ST SW BECMG 8000 VCSH=
200807142100 METAR MROC 142100Z 28005KT 9999 FEW010 FEW020TCU BKN120 23/19 A2996 RN DST NW BECMG=
200807142200 METAR MROC 142200Z 24007KT 6000 VCFG SCT005 SCT020 21/20 A2997 RN NW BECMG 3000 -RA BR=
200807142300 METAR MROC 142300Z 23006KT 0500 FG VV/// 20/19 A2998 BECMG=
200807150000 METAR MROC 150000Z 27003KT 5000 2000NE BR FEW003 SCT010 BKN040 20/19 A3000 VSBY S SW UNL BECMG=
200807150100 METAR MROC 150100Z 00000KT 9999 -RA FEW010 BKN030 20/19 A3003 VSBY N 6KM DUE LW ST BECMG=
200807150200 METAR MROC 150200Z 00000KT 9999 FEW012 BKN020 20/19 A3005 BECMG=
200807150300 METAR MROC 150300Z 36002KT 9999 BKN020 20/18 A3005 RMK TRACE LOW ST TO SE S NW BECMG=
200807150400 METAR MROC 150400Z 05004KT 9999 BKN025 SCT035 21/18 A3008 BECMG=
200807150500 METAR MROC NIL=
200807150600 METAR MROC 150600Z 00000KT 9999 SCT025 BKN050 19/18 A3006 RMK TRACE OF ST TO S SSW BECMG=
200807150700 METAR MROC 150700Z 04003KT 9999 FEW025 SCT140 BKN250 19/18 A3003 BECMG=
200807150800 METAR MROC 150800Z 00000KT 9999 FEW025 SCT150 BKN250 19/18 A3001 BECMG=
200807150900 METAR MROC 150900Z 00000KT CAVOK 18/17 A3001 RMK TRACE ST SC SCT150 SCT250 BECMG=
200807151000 METAR MROC 151000Z 09003KT CAVOK 18/17 A3001 RMK TRACE SC FEW150 SCT250=
200807151100 METAR MROC 151100Z 06003KT CAVOK 19/17 A3002 RMK TRACE SC SCT120 BECMG=
200807151200 METAR MROC 151200Z 04004KT 9999 FEW035 BKN120 19/17 A3004 BECMG=
200807151300 METAR MROC 151300Z 04007KT 9999 R07/1500 -RA FEW030 BKN080 21/18 A3006=
200807151400 METAR MROC 151400Z 11002KT 9999 FEW025 SCT080 BKN140 23/18 A3007 DZ N NE=
200807151500 METAR MROC 151500Z 11006KT 9999 R07/1500 FEW025 BKN140 23/18 A3007 DZ NE BECMG=
200807151600 METAR MROC 151600Z 11008KT 9999 FEW030 R07/1500 SCT140 BKN280 25/18 A3006 BECMG=
200807151700 METAR MROC 151700Z 11010KT 9999 R07/1500 FEW030 BKN250 26/18 A3005 FEW120 BECMG=
200807151800 METAR MROC 151800Z 10008KT 9999 FEW030 BKN250 26/17 A3001 FEW130 BECMG=
200807151900 METAR MROC 151900Z 12011KT 9999 R07/1500 SCT030 BKN250 26/18 A3000 DZ NE BECMG=
200807152000 METAR MROC 152000Z 12010KT 9999 R07/1500 FEW030 BKN250 25/17 A3000 DZ N NE BECMG=
200807152100 METAR MROC 152100Z 11004KT 9999 R07/1500 SCT030 BKN250 25/17 A2999 RMK DZ N NE BECMG=
200807152200 METAR MROC 152200Z 12008KT 9999 R07/1500 SCT030 BKN250 24/17 A2999 RMK DZ N NE BECMG=
200807152300 METAR MROC 152300Z 11007KT 9999 R07/1500 SCT030 BKN250 23/18 A3001 BECMG=
200807160000 METAR MROC 160000Z 14004KT 9999 R07/1500 FEW030 BKN250 22/17 A3003 BECMG=
200807160100 METAR MROC 160100Z 09004KT 9999 FEW030 BKN250 22/17 A3005 RMK FEW130 BECMG=
200807160200 METAR MROC 160200Z 14003KT CAVOK 21/17 A3007 BECMG=
200807160300 METAR MROC 160300Z 11004KT CAVOK R07/1500 21/17 A3010 RMK SCT120 BKN250 BECMG=
200807160400 METAR MROC 160400Z 09003KT CAVOK 20/17 A3010 RMK TRACE SC SCT120 SCT250 BECMG=
200807160500 METAR MROC 160500Z 06003KT CAVOK R07/1500 20/17 A3008 RMK TRACE SC SCT120 SCT250 BECMG=
200807160600 METAR MROC 160600Z 12003KT CAVOK R07/1500 20/17 A3008 RMK TRACE SC SCT120 SCT250 BECMG=
200807160700 METAR MROC NIL=
200807160800 METAR MROC 160800Z 00000KT CAVOK R07/1500 20/17 A3005 RMK TRACE SC SCT120 SCT250 BECMG=
200807160900 METAR MROC 160900Z 04007KT CAVOK R07/1500 20/17 A3006 RMK TRACE SC SCT120 SCT250 BECMG=
200807161000 METAR MROC 161000Z 02003KT CAVOK 20/17 A3005 RMK TRACE SC SC120 SCT250 BECMG=
200807161100 METAR MROC 161100Z 00000KT CAVOK R07/1500 19/17 A3005 RMK TRACE SC SCT120 SCT250 BECMG=
200807161200 METAR MROC 161200Z 13004KT CAVOK R07/1500 18/17 A3006 RMK TRACE SC SCT120 BKN250 BECMG=
200807161300 METAR MROC 161300Z 05003KT CAVOK R07/1500 22/17 A3007 RMK TRACE SC SCT129 BKN250 BECMG=
200807161400 METAR MROC 161400Z 04003KT CAVOK R07/1500 24/17 A3008 RMK TRACE SC SCT120 BKN250 BECMG 24006KT=
200807161500 METAR MROC 161500Z 02004KT 9999 R07/1500 FEW035 BKN250 26/17 A3006 BECMG=
200807161600 METAR MROC 161600Z 25005KT 9999 R07/1500+ SCT030 BKN250 26/17 A3006 BECMG=
200807161700 METAR MROC 161700Z 08006KT 9999 R07/1500 FEW030 BKN250 27/17 A3003 BECMG=
200807161800 METAR MROC 161800Z 05005KT 9999 R07/1500 SCT030 BKN250 29/17 A3001 BECMG 24006KT=
200807161900 METAR MROC 161900Z 12007KT 9999 R07/1500 SCT030 BKN250 30/16 A2999 BECMG=
200807162000 METAR MROC 162000Z 23008KT 9999 R07/1500 FEW030 BKN120 27/21 A2998 RMK BECMG 6000 VCSH=
200807162100 METAR MROC NIL=
200807162200 METAR MROC NIL=
200807162300 METAR MROC 162300Z 28005KT 7000 -DZ VCFG R07/1500 FEW005 SCT025 OVC090 19/19 A3001 BECMG 5000 BR FEW003=
200807162356 METAR MROC 170000Z 33004KT 9999 VCFG FEW005 SCT025 BKN120 20/19 A3003 RMK VIS S SW 7KMS BECMG=
200807162359 METAR MROC 170000Z 33004KT 9999 VCFG R07/1500+ FEW005 SCT025 BKN120 20/19 A3003 RMK VIS S SW 7KMS BECMG=
200807170000 METAR MROC 170000Z 33004KT 9999 VCFG FEW005 SCT025 BKN120 20/19 A3003 RMK VIS S SW 7KMS BECMG=
200807170100 METAR MROC 170100Z 29002KT 5000 RA BR R07/1500 FEW003 SCT020 OVC100 20/19 A3005 BECMG 3000 BR SCT002 SCT015=
200807170200 METAR MROC 170200Z 31002KT 5000 -RA BR R07/1500 FEW001 SCT015 OVC090 20/19 A3006 BECMG=
200807170300 METAR MROC 170300Z 29004KT 7000 RA SCT004 BKN020 20/20 A3008 VSBY E SE UNL BECMG=
200807170400 METAR MROC 170400Z 31002KT 6000 -RA SCT004 SCT020 19/19 A3009 VSBY E SE UNL BECMG=
200807170500 METAR MROC 170500Z 27003KT 6000 -DZ BR SCT003 BKN015 20/20 A3008 CNDS=
200807170600 METAR MROC 170600Z 32003KT 9999 SCT003 BKN090 20/20 A3006 REDZ BECMG=
200807170700 METAR MROC 170700Z 00000KT 9999 BKN012 19/19 A3002 BECMG=
200807170800 METAR MROC 170800Z 01002KT 9999 FEW030 SCT130 BKN250 19/19 A3001 LW ST S BECMG=
200807170900 METAR MROC 170900Z 00000KT 9999 FEW030 SCT140 19/19 A3000 BECMG=
200807171000 METAR MROC 171000Z 00000KT 1500 BR SCT001 SCT005 19/19 A2999 BECMG=
200807171100 METAR MROC 171100Z 00000KT 2000 0300SW BR FEW001 SCT120 BKN250 19/19 A2999 RMK VSBY NW N NE UNL BECMG 0800 FG OVC001=
200807171200 METAR MROC 171200Z 00000KT 9999 0500SW R07/0150 FG FEW001 OVC150 19/18 A2999 VSBY S SW 0500 DUE FG BECMG=
200807171300 METAR MROC 171300Z 10003KT 9999 R07/1500 VCFG FEW003 OVC110 18/18 A3000 RMK VIS SW 7 KMS BECMG=
200807171400 METAR MROC 171400Z 00000KT CAVOK R07/1500 21/20 A3000 RMK OVC120 BECMG=
200807171500 METAR MROC 171500Z 28003KT 9999 R07/1500 FEW020 SCT120 BKN250 24/19 A3000 BECMG=
200807171600 METAR MROC 171600Z 23007KT 9999 R07/1500 FEW020 SCT250 24/19 A3002 RMK TRACE AC BECMG=
200807171700 METAR MROC 171700Z 22009KT 9999 R07/1500 SCT025 BKN250 24/20 A3002 RMK TRACE AC HZ ARND BECMG 7000 VCSH FEW020TCU=
200807171800 METAR MROC 171800Z 22010KT 9999 R07/1500 SCT025TCU BKN250 26/19 A3000 RMK TRACE AC BECMG 7000 VCSH=
200807171900 METAR MROC 171900Z 25008KT 9999 R07/1500 SCT025TCU BKN250 25/19 A2998 RMK CB RN DST SW BECMG 7000 VCTS=
200807172000 METAR MROC 172000Z 24012KT 9999 2500SW R07/1500 RA BR FEW010CB BKN015 22/20 A2997 BECMG 1500 -RA BR=
200807172005 METAR MROC 172005Z 24009KT 2000 R07/550 RA BR SCT001 BKN010 21/20 A2997 BECMG 1000=
200807172100 METAR MROC 172100Z 24008KT 9999 4000W R07/1500 DZ BR SCT025 BKN100 20/19 A2996 BECMG=
200807172200 METAR MROC 172200Z 30007KT 8000 R07/1500 VCFG SCT004 BKN015 20/20 A2997 RMK VIS SW UNLTD BECMG 4000 -RA BR=
200807172300 METAR MROC 172300Z 31004KT 9999 R07/1500 -DZ VCFG FEW0W17 SCT030 BKN100 19/19 A2998 RMK VIS E QUAD 6KMS BECMG=
200807180000 METAR MROC 180000Z 33005KT 9999 R07/1500 BKN030 SCT050 20/19 A2998 RMK RASH DST E ESE BECMG 8000 -RA=
200807180001 METAR MROC 180001Z 33005KT 9999 R07/1500 BKN030 SCT050 20/19 A2998 REDZ RMK RASH DST E ESE BECMG 8000 -RA=
200807180100 METAR MROC 180100Z 33005KT 9999 R07/1500 -RA SCT030 BKN060 20/18 A3000 BECMG=
200807180200 METAR MROC 180200Z 12002KT 9999 R07/1500 SCT035 BKN080 20/18 A3000 RERA BECMG=
200807180300 METAR MROC 180300Z 00000KT 9999 R07/1500 SCT035 BKN090 19/18 A3001 BECMG 7000 VCSH=
200807180400 METAR MROC 180400Z 00000KT CAVOK R07/1500 19/18 A3002 RMK TRACE SC BKN090 BECMG=
200807180500 METAR MROC 180500Z 05003KT CAVOK R07/1500 20/18 A3002 RMK TRACE SC BKN090 BECMG=
200807180600 METAR MROC 180600Z 00000KT CAVOK R07/1500 19/18 A3001 RMK TRACE SC BKN100 BECMG=
200807180700 METAR MROC 180700Z 00000KT CAVOK R07/1500 19/18 A2999 RMK TRACE SC BKN100 BECMG=
200807180800 METAR MROC 180800Z 00000KT CAVOK R07/1500 19/18 A2997 RMK TRACE SC BKN100 BECMG=
200807180900 METAR MROC 180900Z 00000KT CAVOK R07/1500 19/18 A2995 RMK TRACE SC FEW075 BKN100 BECMG=
200807181000 METAR MROC 181000Z 00000KT CAVOK R07/1500 19/18 A2995 RMK TRACE SC SCT070 BKN120 BECMG=
200807181100 METAR MROC 181100Z 05003KT CAVOK R07/1500 18/17 A2995 RMK TRACE SC SCT070 BKN120 BECMG=
200807181200 METAR MROC 181200Z 05005KT CAVOK R07/1500 19/17 A2996 RMK TRACE SC BKN100 BECMG=
200807181300 METAR MROC 181300Z 00000KT CAVOK R07/1500 19/18 A2998 RMK TRACE SC SCT070 SCT120 BECMG=
200807181400 METAR MROC 181400Z 00000KT CAVOK R07/1500 21/19 A2998 RMK TRACE SC BKN120 BECMG=
200807181500 METAR MROC 181500Z 24003KT 9999 R07/1500 FEW025 BKN120 24/18 A3000 BECMG=
200807181600 METAR MROC 181600Z 26005KT 9999 R07/1500 SCT035 SCT120 24/19 A3000 RMK PCPN DST E BECMG=
200807181700 METAR MROC 181700Z 26006KT 9999 R07/1500 SCT030 BKN120 23/19 A3000 RMK LGT HZ ARND BECMG=
200807181800 METAR MROC 181800Z 26007KT 9999 R07/1500 FEW015 SCT035 BKN120 23/19 A2998 RMK LGT HZ ARND BECMG=
200807181900 METAR MROC 181900Z 26007KT 9999 R07/1500 FEW015 BKN025 23/20 A2996 RERA RMK RN DST SW BECMG 7000 VCSH=
200807182000 METAR MROC 182000Z 24008KT 9999 4000NW R07/1500 -RADZ FEW017CB BKN025 22/21 A2995 BECMG 4000 -TSRA=
200807182100 METAR MROC 182100Z 25007KT 9999 R07/1500 FEW015 SCT025 BKN120 23/20 A2992 BECMG=
200807182200 METAR MROC 1822000Z 23005KT 9999 R07/1500 FEW015 SCT025 BKN120 23/20 A2992 RMK RN S SW BECMG 8000 -RA=
200807182300 METAR MROC 182300Z 25006KT 9999 R07/1500 FEW015 SCT020 BKN100 21/20 A2993 BECMG 8000 -RA=
200807190000 METAR MROC 190000Z 24007KT 9999 RO7/1500 FEW008 BKN030 21/20 A2996 BECMG 8000 -RA=
200807190100 METAR MROC 190100Z 29004KT 9999 R07/1500 FEW008 BKN030 20/19 A2997 BECMG 8000 -RA=
200807190200 METAR MROC 190200Z 31003KT 9999 -RA R07/1500 FEW010 BKN030 20/19 A2999 BECMG 8000 -RA 190200Z 00000KT 9999 -RA SCT025 OVC100 24/23 A2982=
200807190300 METAR MROC 190300Z 31003KT 9999 RO7/1500 BKN030 SCT100 21/19 A3001 BECMG=
200807190400 METAR MROC 190400Z 00000KT 9999 R07/1500 FEW020 SCT090 20/19 A3001 BECMG=
200807190500 METAR MROC 190500Z 00000KT 9999 R07/1500 FEW030 SCT250 20/19 A3001 BECMG=
200807190600 METAR MROC 190600Z 08002KT 9999 R07/1500 SCT025 SCT100 19/18 A3001 BECMG=
200807190700 METAR MROC 190700Z 04003KT 9999 R07/1500 FEW025 SCT100 19/18 A3000 RMK SCT260 BECMG=
200807190800 METAR MROC 190800Z 04003KT 9999 R07/1500 FEW025 BKN100 19/17 A2998 RM FEW260 ST SSE/S BECMG=
200807190900 METAR MROC 190900Z 00000KT 9999 R07/1500 FEW025 SCT100 19/18 A2997 RMK SCT260 ST SSE/S BECMG=
200807191000 METAR MROC 191000Z 00000KT 9999 R07/1500 FEW025 BKN260 18/17 A2996 RMK FEW110 ST SSE/S BECMG=
200807191100 METAR MROC 191100Z 09003KT CAVOK R07/1500 18/17 A2995 RMK FEW110 BKN260 ST S BECMG=
200807191200 METAR MROC 191200Z 05004KT CAVOK R07/1500 18/17 A2996 RMK TRACE SC SCT120 BKN250 BECMG=
200807191300 METAR MROC 191300Z 07002KT CAVOK R07/1500 21/18 A2996 RMK TRACE SC SCT120 SCT250 BECMG=
200807191400 METAR MROC 191400Z 00000KT 9999 R07/1500 FEW030 SCT250 22/18 A2998 RMK HZ ARND FEW130=
200807191500 METAR MROC 191500Z 00000KT 9999 R07/1500 FEW015 SCT030 23/19 A3000 RMK SCT250 BECMG=
200807191600 METAR MROC 191600Z 27005KT 9999 R07/1500 FEW015 SCT030 25/19 A3000 RMK SCT250 BECMG=
200807191700 METAR MROC 191700Z 25005KT 9999 R07/1500 FEW015 BKN035 25/20 A3000 BECMG=
200807191800 METAR MROC 191800Z 24005KT 9999 R07/1500 SCT025 SCT250 25/21 A2997 BECMG=
200807191900 METAR MROC 191900Z 23004KT 9999 R07/1500 FEW015 SCT025 BKN230 25/22 A2995 BECMG=
200807192000 METAR MROC 192000Z 24008KT 9999 -RA R07/1500 FEW015CB BKN030 23/22 A2994 BECMG 8000 VCSH=
200807192100 METAR MROC NIL=
200807192200 METAR MROC NIL=
200807192300 METAR MROC 192300Z 27003KT 6000 R07/1500 -RA SCT005 SCT012 20/20 A2996 VSBY S SW UNL BOSIG=
200807200000 METAR MROC NIL=
200807200100 METAR MROC 200100Z 00000KT 9999 -RA FEW006 SCT025 BKN120 21/20 A3000 BECMG=
200807200200 METAR MROC NIL=
200807200300 METAR MROC 200300Z 00000KT CAVOK R07/1500 20/19 A3001 RERA RMK TRACE SC 0VC140 BECMG=
200807200400 METAR MROC 200400Z 00000KT 9999 R07/1500 -RA OVC110 21/20 A3002 BECMG=
200807200500 METAR MROC 200500Z 00000KT 9999 R07/1500 DZ OVC100 20/19 A3001 RERA BECMG=
200807200600 METAR MROC 200600Z 00000KT CAVOK R07/1500 20/19 A2998 REDZ RMK TRACE ST SC BKN130 BECMG=
200807200700 METAR MROC 200700Z 00000KT CAVOK R07/1500 20/19 A2998 RMK TRACE ST SC BKN120 BECMG=
200807200800 METAR MROC 200800Z 10003KT CAVOK R07/1500 19/18 A2998 RMK TRACE SC SCT140 BECMG=
200807200900 METAR MROC 200900Z 05002KT CAVOK R07/1500 19/17 A2997 RMK TRACE SC FEW140 SCT250 BECMG=
200807201000 METAR MROC 201000Z 06004KT CAVOK R07/1500 18/16 A2996 RMK TRACE SC SCT250 BECMG=
200807201100 METAR MROC 201100Z 10003KT CAVOK R07/1500 18/16 A2996 RMK TRACE SC SCT250 BECMG=
200807201200 METAR MROC 201200Z 08005KT CAVOK R07/1500 19/16 A2998 RMK TRACE SC AC BKN250 CB LINE DST TO S SW WSW BECMG=
200807201201 METAR MROC 201201Z 08005KT CAVOK R07/1500 19/16 A2998 RMK TRACE SC AC BKN250 CB LINE DST TO S SW WSW BECMG=
200807201300 METAR MROC 201300Z 09003KT CAVOK 22/18 A3000 TRAZAS SCT BKN280 CB DST S BECMG=
200807201400 METAR MROC 201400Z 00000KT CAVOK R07/1500 23/19 A3003 TRAZAS SCT BKN280 CB S SW BECMG=
200807201500 METAR MROC 201500Z 26003KT CAVOK R07/1500 CAVOK 25/19 A3004 TRAZAS SCT BKN280 CB S SW BECMG=
200807201600 METAR MROC 201600Z 25007KT 9999 R07/1500 FEW025 SCT280 25/21 A3005 BECMG=
200807201700 METAR MROC NIL=
200807201800 METAR MROC 201800Z 26005KT 9999 R07/1500 FEW015CB FEW025 SCT250 27/20 A3001 CB RN ENE BECMG=
200807201900 METAR MROC 201900Z 24008KT 9999 R07/1500 SCT020TCU SCT250 25/21 A3000 CB N NE S RN N BECMG 5000 VCSH=
200807202000 METAR MROC NIL=
200807202100 METAR MROC 202100Z 29008KT 9999 FEW005 BKN015TCU R07/1500 23/21 A2997 RMK BECMG 5000 -SHRA=
200807202200 METAR MROC 202200Z 26010KT 9999 R07/1500 FEW005 BKN015TCU 23/21 A2997 RMK TCU RASH NW N NE BECMG=
200807202300 METAR MROC 202300Z 23003KT 7000 -DZ VCFG R07/1500 SCT005 BKN015 22/20 A2997 RMK BECMG 3000 -RA BR=
200807210000 METAR MROC 210000Z 26003KT 7000 VCFG R07/1500+ SCT005 BKN010 21/20 A2999 BECMG=
200807210100 METAR MROC 210100Z 14002KT 9999 R07/1500 FEW007 SCT020 BKN100 21/20 A3001 RMK TS RASH DST N BECMG=
200807210200 METAR MROC 210200Z 00000KT 9999 R07/1500 FEW020 SCT080 21/20 A3002 RMK TS DST N TRACE ST BECMG=
200807210300 METAR MROC 210300Z 29006KT 9999 R07/1500 FEW003 SCT030 BKN100 21/20 A3003 BECMG=
200807210400 METAR MROC 210400Z 19004KT 9999 R07/1500 FEW003 SCT030 21/21 A3001 BECMG=
200807210500 METAR MROC 210500Z 00000KT 9999 R07/1500 FEW003 SCT030 20/20 A3001 RMK SCT120 BECMG=
200807210600 METAR MROC 210600Z 9999 R07/1500 FEW030 SCT100 BKN250 20/20 A2999 RMK TRACE ST BECMG=
200807210700 METAR MROC 210700Z 34002KT 9999 R07/1500 FEW030 SCT100 BKN250 20/19 A2998 RMK TRACE ST BECMG=
200807210800 METAR MROC 210800Z 00000KT 9999 -RA R07/1500 FEW030 BKN100 20/19 A2997 RMK TRACE ST BECMG=
200807210900 METAR MROC 210900Z 00000KT 9999 R07/1500 FEW030 SCT100 BKN250 20/19 A2996 RERA RMK LTNG ST S=
200807211000 METAR MROC 211000Z 07006KT CAVOK R07/1500 21/19 A2997 RMK TRACE SC BKN100 SCT250 BECMG=
200807211100 METAR MROC NIL=
200807211200 METAR MROC 211200Z 13002KT CAVOK R07/1500 21/19 A3000 RMK TRACE SC BKN100 SCT250 BECMG=
200807211300 METAR MROC 211300Z 24006KT 9999 R07/1500 FEW030 BKN110 23/19 A3001 BECMG=
200807211400 METAR MROC 211400Z 26005KT 9999 R07/1500 FEW030 BKN120 23/20 A3003 BECMG=
200807211500 METAR MROC 211500Z 9999 R07/1500 SCT035 BKN120 25/20 A3003 BECMG=
200807211600 METAR MROC 211600Z 12005KT 9999 R07/1500 SCT035 BKN130 26/18 A3003 BECMG 24006KT=
200807211700 METAR MROC 211700Z 11004KT 9999 R07/1500 SCT035 BKN130 26/18 A3003 BECMG=
200807211800 METAR MROC 211800Z 24010KT 9999 R07/1500 FEW030 SCT120 BKN250 26/21 A3001 BECMG=
200807211900 METAR MROC 211900Z 25006KT 9999 R07/1500 FEW030 SCT120 BKN250 25/20 A2999 RMK RN S BECMG 7000 VCSH=
200807212000 METAR MROC 212000Z 29007KT 9999 R07/1500 FEW030 SCT120 BKN250 26/21 A2995 BECMG=
200807212100 METAR MROC 212100Z 25009KT 9999 R07/1500 FEW020TCU SCT120 BKN250 26/22 A2993 BECMG=
200807212200 METAR MROC 212200Z 26008KT 9999 R07/1500 FEW015CB SCT025TCU 24/22 A2995 RMK FEW120 BECMG 5000 -TSRA=
200807212300 METAR MROC 212300Z 26009KT 7000 R07/1500 -TS VCSH FEW007 SCT015CB BKN025 22/22 A2996 BECMG 5000 -TSRA BR=
200807220000 METAR MROC 220000Z 35007KT 3000 R07/700 TSRA BR SCT003 BKN012CB 20/19 A2999 BECMG 1000 TSRA BR=
200807220100 METAR MROC 220100Z 05004KT 9999 R07/1500 DZ SCT025 BKN120 20/19 A3001 BECMG=
200807220200 METAR MROC 220200Z 05003KT CAVOK R07/1500 20/19 A3001 RMK BKN100 BECMG=
200807220300 METAR MROC NIL=
200807220400 METAR MROC 220400Z 06003KT CAVOK R07/1500 ///// A//// TRAZAS SCT SCT140 BECMG=
200807220500 METAR MROC 220500Z 00000KT CAVOK R07/1500 20/19 A3004 TRACE SCT SCT140 BECMG=
200807220600 METAR MROC 220600Z 05003KT CAVOK R07/1500 20/18 A3002 RMK TRACE SC CI BECMG=
200807220700 METAR MROC 220700Z 05004KT CAVOK R07/1500 19/18 A3000 TRACE SCT CI BECMG=
200807220800 METAR MROC 220800Z 06004KT CAVOK R07/1500 20/18 A2998 TRAZAS SCT FEW280 BECMG=
200807220900 METAR MROC 220900Z 06006KT CAVOK R07/1500 20/17 A2998 FEW280 BECMG=
200807221000 METAR MROC 221000Z 05008KT CAVOK R07/1500 20/17 A2998 FEW280 BECMG=
200807221100 METAR MROC 221100Z 08006KT CAVOK R07/1500 20/17 A2998 TRAZAS SCT BKN250 BECMG=
200807221200 METAR MROC 221200Z 05004KT CAVOK R07/1500 20/17 A2999 TRAZAS SCT BKN250 CB DST NE BECMG=
200807221300 METAR MROC 221300Z 05008KT 9999 R07/1500 FEW030 BKN250 22/18 A3001 RMK TCU DST SW BECMG=
200807221400 METAR MROC 221400Z 11009KT 9999 R07/1500 FEW030 BKN250 24/18 A3001 RMK CB DST SW BECMG=
200807221500 METAR MROC 221500Z 13009KT 9999 R07/1500 FEW030 BKN250 24/19 A3002 RMK TCU DST S CB DST SW BECMG 24006KT=
200807221600 METAR MROC 221600Z 10008KT 9999 R07/1500 FEW035 BKN250 25/18 A3002 RMK CB DST SSW BECMG=
200807221700 METAR MROC 221700Z 12006KT CAVOK R07/1500 26/18 A3002 RMK TRACE SC BKN250 BECMG=
200807221800 METAR MROC 221800Z 12005KT CAVOK R07/1500 26/18 A3000 RMK TRACE SC BKN250 BECMG=
200807221900 METAR MROC 221900Z 11003KT 9999 R07/1500 FEW035 BKN250 27/18 A2997 BECMG 25007KT=
200807222000 METAR MROC 222000Z 23010KT 9999 R07/1500 SCT030 BKN250 26/22 A2995 BECMG=
200807222100 METAR MROC 222100Z 22010KT 9999 R07/1500 FEW015CB SCT030 BKN250 25/21 A2995 RMK PCPN DST E BECMG 7000 VCSH=
200807222200 METAR MROC 222200Z 17006KT 7000 3000E R07/1500 TS VCSH SCT015CB BKN025 22/19 A2996 BECMG 2000=
200807222300 METAR MROC 222300Z 22004KT 9999 R07/1500 TS VCSH FEW015CB SCT035 BKN100 21/19 A2999 RMK VIS WNW NW 5KMS BECMG=
200807230000 METAR MROC 230000Z 29005KT 9999 R07/1500 -RA FEW035 OVC100 19/19 A3001 BECMG=
200807230100 METAR MROC 230100Z 00000KT 9999 R07/1500 FEW015 OVC120 19/19 A3001 RERA BECMG=
200807230200 METAR MROC 230200Z 00000KT CAVOK R07/1500 19/18 A3001 RMK TRACE SC BKN140 BECMG=
200807230300 METAR MROC 230300Z CAVOK R07/1500 19/18 A3001 RMK TRACE SC BKN130 BECMG=
200807230400 METAR MROC 230400Z 00000KT CAVOK R07/1500 19/18 A3002 RMK TRACE SC SCT130 BECMG=
200807230500 METAR MROC 230500Z 01003KT CAVOK R07/1500 19/18 A3004 RMK TRACE SC SCT130 BECMG=
200807230600 METAR MROC 230600Z 00000KT CAVOK R07/1500 19/17 A3002 RMK TRACE SC SCT130 BECMG=
200807230700 METAR MROC 230700Z 09005KT CAVOK R07/1500 128/17 A2997 RMK TRACE SC AC BECMG=
200807230800 METAR MROC 230800Z 08004KT CAVOK R07/1500 18/17 A2998 RMK TRACE SC AC BECMG=
200807230900 METAR MROC 230900Z 06006KT CAVOK R07/1500 18/16 A2999 RMK TRACE SC AC BECMG=
200807231000 METAR MROC 231000Z 07005KT CAVOK R07/1500 18/16 A2997 RMK TRACE SC AC BECMG=
200807231100 METAR MROC 231100Z 07008KT CAVOK R07/1500 19/16 A3000 RMK TRACE SC AC BECMG=
200807231200 METAR MROC 231200Z 07005KT CAVOK R07/1500 19/16 A3001 RMK TRACE SC BKN130 BECMG=
200807231300 METAR MROC 231300Z 05006KT CAVOK R07/1500 20/17 A2999 RMK TRACE CU BKN130 CB DST S BECMG=
200807231400 METAR MROC 231400Z 08005KT CAVOK R07/1500 22/18 A3002 RMK TRACE SC AC BKN140 SCT250 BECMG=
200807231500 METAR MROC 231500Z 19006KT CAVOK R07/1500 24/19 A3002 RMK TRACE CU SCT120 BKN250 BECMG 24007KT=
200807231600 METAR MROC 231600Z 22007KT 9999 R07/1500 FEW035 BKN250 24/19 A3002 BECMG=
200807231700 METAR MROC 231700Z 24007KT 9999 R07/1500 FEW030 BKN250 25/20 A3001 RMK TRACE AC LGT HZ ARND BECMG=
200807231800 METAR MROC 231800Z 23009KT 9999 R07/1500 FEW020TCU SCT030 26/20 A2999 RMK RASH DST E BECMG 6000 VCSH=
200807231900 METAR MROC 231900Z 00000KT 9999 3000N R07/1500 -RA VCSH FEW015CB SCT025 BKN120 23/21 A2998 RETS BECMG=
200807232000 METAR MROC 232000Z 01004KT 9999 R07/1500 FEW020TCU SCT035 BKN120 22/18 A2996 RERA RMK SCT CBS DST ARND RASH DST E ESE BECMG=
200807232100 METAR MROC 232100Z 08004KT 9999 -TSRA R07/1500 FEW010TCU SCT020 BKN120 22/20 A2996 BECMG=
200807232200 METAR MROC 232200Z 19006KT 7000 2000SW -TSRA R07/1500 FEW010CB SCT020 BKN120 20/20 A2996 BECMG 4000 RA=
200807232300 METAR MROC NIL=
200807240000 METAR MROC 240000Z 08005KT 9999 R07/1500 FEW035 OVC100 19/18 A2999 RERA BECMG=
200807240100 METAR MROC 240100Z 09007KT 9999 R07/1500 -DZ OVC100 20/17 A3000 RMK TRACE SC=
200807240200 METAR MROC 240200Z 00000KT 9999 -DZ R07/1500 OVC100 21/17 A3002 RMK TRACE SC BECMG=
200807240300 METAR MROC 240300Z 12002KT CAVOK R07/1500 20/17 A3001 RMK BKN120 BECMG=
200807240400 METAR MROC 240400Z 08008KT CAVOK R07/1500 20/17 A3000 RMK BKN120 BECMG=
200807240500 METAR MROC 240500Z 06006KT CAVOK R07/1500 19/16 A2998 RMK SCT120 BECMG=
200807240600 METAR MROC 240600Z 09007KT CAVOK R07/1500 21/15 A2995 RMK SCT120 BECMG=
200807240700 METAR MROC 240700Z 11008KT CAVOK R07/1500 21/15 A2996 RMK SCT120 BECMG=
200807240800 METAR MROC 240800Z 13010G20KT CAVOK R07/1500 21/16 A2996 RMK BKN120 BECMG=
200807240900 METAR MROC 240900Z 10009KT CAVOK R07/1500 21/16 A2996 RMK BKN120 BECMG=
200807241000 METAR MROC 241000Z 07004KT CAVOK R07/1500 20/17 A2998 RMK BKN110 BECMG=
200807241100 METAR MROC 241100Z 13010KT CAVOK R07/1500 21/17 A2998 RMK BKN120 FEW260 BECMG=
200807241200 METAR MROC 241200Z 13009KT CAVOK R07/1500 21/17 A2999 RMK TRACE SC SCT120 SCT250 BECMG=
200807241300 METAR MROC 241300Z 13010KT CAVOK R07/1500 22/17 A3001 RMK TRACE SC SCT120 SCT250 TCU DST SW BECMG=
200807241400 METAR MROC 241400Z 14008KT CAVOK R07/1500 24/18 A3003 RMK TRACE SC AC CB DST SW SCT250 BECMG=
200807241500 METAR MROC 241500Z 17005KT 140V200 CAVOK R07/1500 26/19 A3002 RMK TRACE SC AC SCT250 BECMG=
200807241600 METAR MROC 241600Z 24008KT 9999 R07/1500 FEW045 27/21 A3001 RMK FEW130 FEW250 BECMG=
200807241700 METAR MROC 241700Z 24009KT 9999 R07/1500 FEW045 BKN120 25/20 A3001 BECMG=
200807241800 METAR MROC 241800Z 26008KT 9999 R07/1500 SCT035 BKN120 25/21 A3002 BECMG=
200807241900 METAR MROC 241900Z 26011KT 9999 R07/1500 SCT035 BKN120 25/22 A3000 BECMG 5000 VCSH=
200807242000 METAR MROC 242000Z 25006KT 9999 R07/1500 FEW010TCU BKN030 22/20 A2999 BECMG 4000 SHRA=
200807242100 METAR MROC 242100Z 33002KT 9999 R07/1500 VCSH FEW012TCU SCT025 SCT250 22/19 A2999 VSBY NW N NE 5KM DUE RN RN DS E BECMG=
200807242200 METAR MROC 242200Z 16005KT 9999 R07/1500 -TSRA FEW012CB SCT080 SCT250 22/20 A2998 VSBY S SW 5KM DUE RASH BECMG 10006=
200807242300 METAR MROC 242300Z 13004KT 9999 R07/1500 FEW030 SCT130 22/19 A3000 CB RN W DZ NE BECMG=
200807250000 METAR MROC 250000Z 00000KT 9999 R07/1500 FEW040 SCT130 21/19 A2999 BECMG=
200807250100 METAR MROC 250100Z 13006KT 9999 R07/1500 FEW040 SCT130 21/18 A2999 BECMG=
200807250200 METAR MROC 250200Z 12009KT R07/1500 CAVOK 21/18 A3002 TRAZAS SCT SCT120 BECMG=
200807250300 METAR MROC 250300Z 11014KT 9999 R07/1500 SCT040 SCT140 22/18 A3004 BECMG=
200807250400 METAR MROC 250400Z 09011KT 9999 R07/1500 FEW035 SCT120 22/16 A3003 BECMG=
200807250500 METAR MROC 250500Z 12012KT CAVOK R07/1500 22/16 A3001 RMK TRACE SC BKN120 BECMG=
200807250600 METAR MROC 250600Z 12013KT CAVOK R07/1500 22/16 A2999 RMK TRACE SC BKN120 BECMG=
200807250700 METAR MROC 250700Z 13009KT CAVOK R07/1500 21/17 A2999 RMK TRACE SC SCT130 LTNG DST S BECMG=
200807250800 METAR MROC 250800Z 12012KT CAVOK R07/1500 22/17 A3000 RMK TRACE SC SCT120 LTNG DST S BECMG=
200807250900 METAR MROC 250900Z 11010KT CAVOK R07/1500 22/17 A2999 RMK TRACE SC SCT120 LTNG DST S BECMG=
200807251000 METAR MROC 251000Z 11010KT CAVOK R07/1500 22/18 A3000 RMK TRACE SC SCT120 BECMG=
200807251100 METAR MROC 251100Z 12010KT CAVOK R07/1500 22/17 A3000 RMK TRACE SC SCT130 BECMG=
200807251200 METAR MROC 251200Z 14011KT CAVOK R07/1500 22/17 A3001 RMK TRACE SC SCT100 BKN150 BECMG=
200807251300 METAR MROC 251300Z 14005KT 9999 R07/1500 FEW030 BKN100 22/18 A3004=
200807251400 METAR MROC 251400Z 10005KT 9999 R07/1500 FEW040 SCT100 BKN230 24/18 A3002 DZ SW BECMG=
200807251500 METAR MROC 251500Z 10014G24KT R07/1500 FEW040 BKN120 25/17 A3004 BECMG=
200807251600 METAR MROC 251600Z 08017G27KT 9999 R07/1500 FEW040 BKN120 26/18 A3002 BECMG=
200807251700 METAR MROC 251700Z 11011KT 9999 R07/1500 FEW040 BKN120 26/16 A2999 BECMG=
200807251800 METAR MROC 251800Z 12016G27KT 9999 R07/1500 FEW040 SCT100 BKN250 26/18 A3000 DZ NE BECMG=
200807251900 METAR MROC NIL=
200807252000 METAR MROC 252000Z 12015KT 9999 R07/1500 FEW040 BKN250 26/18 A2997 RMK DZ N NE BECMG=
200807252100 METAR MROC 252100Z 11006KT 9999 R07/1500 BKN025 25/18 A2998 RMK DZ NW N NE BECMG=
200807252200 METAR MROC 252200Z 11006KT 9999 R07/1500 SCT025 BKN250 25/16 A3000 RMK DZ N NW BECMG=
200807252300 METAR MROC 252300Z 11012KT 9999 R07/1500 FEW025 BKN250 24/16 A3002 BECMG=
200807260000 METAR MROC 260000Z 09005KT 9999 R07/1500 FEW025 BKN250 23/16 A3002 BECMG=
200807260100 METAR MROC 260100Z 09005KT 9999 R07/1500 FEW025 BKN250 22/16 A3003 BECMG=
200807260200 METAR MROC 260200Z 11004KT 9999 R07/1500 FEW030 BKN250 22/17 A3004 BECMG=
200807260300 METAR MROC 260300Z 12006KT 9999 R07/1500 FEW030 BKN250 22/17 A3005 BECMG=
200807260400 METAR MROC 260400Z 00000KT 9999 R07/1500 FEW035 BKN250 21/18 A3006 BECMG=
200807260500 METAR MROC 260500Z 07008KT 9999 -DZ R07/1500 FEW035 SCT100 BKN250 21/19 A3004 BECMG RA=
200807260600 METAR MROC 260600Z 06005KT 9999 R07/1500 FEW035 SCT120 BKN250 21/18 A3002 REDZ BECMG=
200807260700 METAR MROC 260700Z 00000KT 9999 R07/1500 FEW035 SCT120 BKN250 20/18 A2999 BECMG=
200807260800 METAR MROC 260800Z 13006KT 9999 R07/1500 FEW035 BKN120 21/18 A2996 RMK SCT250 BECMG=
200807260900 METAR MROC 260900Z 12011KT 9999 R07/1500 FEW035 BKN120 21/18 A2996 BECMG=
200807261000 METAR MROC 261000Z 13008KT 9999 R07/1500 FEW035 BKN120 21/18 A2997 BECMG=
200807261100 METAR MROC 261100Z 12006KT 9999 R07/1500 FEW030 SCT120 21/18 A2996 BECMG=
200807261200 METAR MROC 261200Z 11007KT 080V140 9999 R07/1500 FEW030 BKN100 22/18 A2999 RMK RN NE E CB DST S BECMG=
200807261300 METAR MROC 261300Z 12005KT 9999 R07/1500 SCT030 BKN100 22/18 A2999 RMK RN DZ N/NE/E BECMG=
200807261400 METAR MROC 261400Z 11006KT 9999 -RA R07/1500 SCT030 BKN100 23/18 A3002 RMK RN DST N NE BECMG=
200807261500 METAR MROC 261500Z 12005KT 9999 R07/1500 -RA SCT015 BKN100 21/19 A3004 BECMG=
200807261600 METAR MROC 261600Z 12006KT 9999 R07/1500 -RA SCT020 BKN100 21/18 A3003 BECMG=
200807261700 METAR MROC 261700Z 08016KT 9999 R07/1500 SCT030 BKN120 25/18 A3001 BECMG=
200807261800 METAR MROC 261800Z 10011KT 9999 R07/1500 SCT020 BKN110 26/17 A3000 BECMG=
200807261900 METAR MROC 261900Z 10008KT 9999 R07/1500 SCT025 BKN100 25/17 A3000 BECMG=
200807262000 METAR MROC 262000Z 14007KT 9999 R07/1500 SCT025 BKN100 25/17 A2999 BECMG=
200807262100 METAR MROC 262100Z 09009KT 9999 R07/1500 SCT025 BKN100 25/17 A2997 RMK RN DST NE BECMG=
200807262200 METAR MROC 262200Z 14007KT 9999 R07/1500 -RA FEW035 BKN090 23/18 A2997 BECMG=
200807262300 METAR MROC 262300Z 10006KT 9999 R07/1500 FEW045 BKN120 23/16 A2998 RMK FEW250 RN DST NE BECMG=
200807270000 METAR MROC 270000Z 10007KT 9999 R07/1500 FEW035 SCT120 BKN250 22/17 A2998 RMK DZ DST NE BECMG=
200807270100 METAR MROC 270100Z 09006KT CAVOK R07/1500 21/16 A3001 RMK TRACE SC SCT120 BECMG=
200807270200 METAR MROC 270200Z 11008KT CAVOK R07/1500 21/16 A3001 RMK TRACE SC SCT120 BECMG=
200807270300 METAR MROC 270300Z 12008KT CAVOK R07/1500 21/17 A3002 SCT280 BECMG=
200807270400 METAR MROC 270400Z 12012KT CAVOK R07/1500 21/17 A3002 SC280 BECMG=
200807270500 METAR MROC 270500Z 13011KT CAVOK R07/1500 21/17 A3002 TRACE SCT CI BECMG=
200807270600 METAR MROC 270600Z 13012KT CAVOK R07/1500 21/17 A3001 TRACE SCT BECMG=
200807270700 METAR MROC NIL=
200807270800 METAR MROC 270800Z 12008KT CAVOK R07/1500 ///// A//// BKN100 BECMG=
200807270900 METAR MROC 270900Z 11007KT CAVOK R07/1500 21/18 A2999 BKN100 BECMG=
200807271000 METAR MROC 271000Z 10007KT 9999 R07/1500 FEW040 BKN100 20/18 A2999 BECMG=
200807271100 METAR MROC 271100Z 10005KT 9999 R07/1500 FEW045 BKN100 21/17 A2999 BECMG=
200807271200 METAR MROC 271200Z 08007KT 9999 R07/1500 FEW035 BKN100 21/17 A3000 RMK DZ NE CB DST S BECMG=
200807271300 METAR MROC 271300Z 12007KT 9999 R07/1500 FEW035 BKN100 21/17 A3003 RMK DZ DST NE BECMG=
200807271400 METAR MROC 271400Z 06004KT CAVOK R07/1500 23/17 A3006 RMK TRACE SC BKN120 DZ DST NE BECMG=
200807271500 METAR MROC NIL=
200807271600 METAR MROC 271600Z 12009KT CAVOK R07/1500 26/17 A3003 RMK TRACE SC FEW120 SCT250 DZ DST NE BECMG=
200807271700 METAR MROC 271700Z 12011KT 9999 R07/1500 FEW040 SCT120 28/17 A3002 RMK SCT260 DZ DST NE E BECMG=
200807271800 METAR MROC 271800Z 12011KT 9999 R07/1500 FEW035 SCT120 26/18 A3001 RMK SCT250 DZ DST NE E BECMG=
200807271900 METAR MROC 271900Z 11009KT 9999 R07/1500 FEW030 SCT120 BKN250 28/18 A2999 BECMG=
200807272000 METAR MROC 272000Z 12008KT 9999 R07/1500 SCT030 BKN250 27/18 A2996 RMK FEW120 BECMG=
200807272100 METAR MROC 272100Z 12010KT 9999 R07/1500 SCT035 BKN250 26/18 A2996 BECMG=
200807272200 METAR MROC 272200Z 14007KT 9999 R07/1500 FEW035 SCT150 BKN250 25/18 A2994 BECMG=
200807272300 METAR MROC 272300Z 02007KT 9999 R07/1500 FEW035 BKN150 25/18 A2996 BECMG=
200807280000 METAR MROC 280000Z 09005KT 9999 R07/1500 FEW035 SCT150 BKN250 24/17 A2997 RMK DZ DST NE ENE BECMG=
200807280100 METAR MROC 280100Z 07005KT 9999 R07/1500 DZ FEW035 SCT140 23/18 A2999 BECMG -RA=
200807280200 METAR MROC 280200Z 13006KT 9999 R07/1500 DZ FEW035 BKN140 23/17 A3000 BECMG=
200807280300 METAR MROC 280300Z 10008KT 9999 R07/1500 SCT030 BKN080 22/18 A3003 BECMG=
200807280400 METAR MROC 280400Z 07002KT 9999 R07/1500 SCT030 BKN080 22/18 A3005 RMK DZ DST NE BECMG=
200807280500 METAR MROC 280500Z 13005KT CAVOK R07/1500 21/17 A3004 RMK TRACE SC AC BECMG=
200807280600 METAR MROC 280600Z 06006KT CAVOK R07/1500 20/16 A3003 RMK TRACE SC AC LTNG N BECMG=
200807280700 METAR MROC 280700Z 10005KT CAVOK R07/1500 20/16 A3001 RMK TACE SC AC=
200807280800 METAR MROC 280800Z 09002KT CAVOK RO7/1500 20/17 A2998 RMK TRACE SC BECMG=
200807280900 METAR MROC 280900Z 06010KT CAVOK R07/1500 20/17 A2997 RMK TRASC BECMG=
200807281000 METAR MROC 281000Z 11005KT CAVOK R07/1500 21/17 A2999 RMK TRACE SC BECMG=
200807281100 METAR MROC 281100Z 05003KT 9999 R07/1500 FEW030 20/16 A3000 BECMG=
200807281200 METAR MROC 281200Z 06006KT 9999 R07/1500 FEW025 SCT250 20/16 A3000 BECMG=
200807281300 METAR MROC 281300Z 11009KT CAVOK R07/1500 22/16 A3001 RMK TRACE SC SCT120 BKN250 BECMG=
200807281400 METAR MROC 281400Z 11009KT CAVOK R07/1500 23/16 A3003 RMK TRACE SC BKN120 SCT250 BECMG=
200807281500 METAR MROC 281500Z 12012KT CAVOK R07/1500 25/15 A3004 RMK TRACE SC SCT120 SCT250 BECMG=
200807281600 METAR MROC 281600Z 11011KT CAVOK R07/1500 26/15 A3003 RMK TRACE SC CI SCT140 VEL MX VTO 17KTS BECMG=
200807281700 METAR MROC 281700Z 09010KT CAVOK R07/1500 27/17 A3004 RMK TRACE SC SCT120 BECMG=
200807281800 METAR MROC 281800Z 14007KT 9999 R07/1500 FEW030 SCT120 28/17 A3003 RMK SCT250 BECMG 24008KT=
200807281801 METAR MROC 281801Z COR 14007KT 9999 R07/1500 FEW030 SCT120 28/17 A3003 RMK FEW SCT250 BECMG 24008KT=
200807281900 METAR MROC 281900Z 14005KT 9999 R07/1500 SCT030 SCT120 28/16 A3001 RMK CB DST S TCU SW WSW BECMG 24008KT=
200807282000 METAR MROC 282000Z 21006KT 9999 R07/1500 FEW030 BKN120 28/21 A2999 BECMG=
200807282100 METAR MROC 282100Z 25014KT 9999 R07/1500 FEW030 BKN120 26/20 A2998 BECMG=
200807282200 METAR MROC 282200Z 25010KT 9999 R07/1500 SCT030 BKN120 23/21 A3000 BECMG=
200807282300 METAR MROC NIL=
200807290000 METAR MROC 290000Z 25005KT 9999 R07/1500 FEW015 SCT030 BKN100 22/21 A3006 BECMG=
200807290100 METAR MROC 290100Z 30003KT 9999 R07/1500 FEW035 BKN100 21/21 A3007 BECMG=
200807290200 METAR MROC 290200Z 26005KT 9999 R07/1500 FEW003 BKN100 21/20 A3003 RMK ST S SW BECMG=
200807290300 METAR MROC 290300Z 31002KT 9999 R07/1500 FEW005 SCT010 BKN120 21/20 A3009 BECMG 7000 VCFG=
200807290400 METAR MROC 290400Z 00000KT 9999 R07/1500 FEW010 SCT025 BKN120 21/19 A3010 RMK DUE ST S SW BECMG=
200807290500 METAR MROC 290500Z 00000KT 9999 R07/1500 FEW010 SCT120 20/19 A3009 RMK DUE ST S SW BECMG=
200807290600 METAR MROC 290600Z 00000KT CAVOK R07/1500 20/19 A3007 RMK TRACE SC SCT120 BKN250 BECMG=
200807290700 METAR MROC 290700Z 05006KT CAVOK R07/1500 21/18 A3004 RMK SCT120 SCT250 BECMG=
200807290800 METAR MROC 290800Z 04005KT CAVOK R07/1500 20/17 A3002 RMK SCT120 SCT250 BECMG=
200807290900 METAR MROC 290900Z 09006KT CAVOK R07/1500 20/17 A3001 RMK SCT120 SCT250 BECMG=
200807291000 METAR MROC 291000Z 07006KT CAVOK R07/1500 20/16 A3002 RMK FEW120 SCT250=
200807291100 METAR MROC 291100Z 03006KT CAVOK R07/1500 19/16 A3002 RMK SCT260 BECMG=
200807291200 METAR MROC 291200Z 09006KT CAVOK R07/1500 20/16 A3003 RMK TRACE SC AC BKN250 CB DST NE S BECMG=
200807291300 METAR MROC 291300Z 09006KT CAVOK R07/1500 21/17 A3006 RMK TRACE SC AC SCT120 BKN250 CB DST NE S BECMG=
200807291400 METAR MROC 291400Z 10007KT CAVOK R07/1500 22/17 A3006 22/17 A3006 RMK TRACE SC SCT120 BKN250=
200807291500 METAR MROC 291500Z 10004KT CAVOK R07/1500 24/18 A3006 RMK TRACE SC CU SCT120 BKN260 BECMG=
200807291600 METAR MROC 291600Z 13007KT 9999 R07/1500 FEW040 SCT120 BKN260 25/19 A3007 BECMG=
200807291700 METAR MROC 291700Z 12005KT 9999 R07/1500 FEW040 SCT120 BKN260 26/18 A3006 BECMG=
200807291800 METAR MROC 291800Z 27006KT 9999 R07/1500 SCT035 BKN120 24/20 A3006 RMK RN E FEW250 BECMG 8000 RA=
200807291900 METAR MROC 291900Z 25008KT 9999 FEW010CB SCT030 BKN120 24/20 A3005 RMK RN N NE E BECMG 8000 RA=
200807292000 METAR MROC 292000Z 02006KT 9999 3000N RA VCSH FEW010CB SCT030 BKN100 20/20 A3004 BECMG 6000 RA=
200807292100 METAR MROC 292100Z 23005KT 9999 R07/1500 -RA FEW020 SCT080 BKN120 22/19 A3002 RN NW W E BECMG=
200807292200 METAR MROC 292200Z 10003KT 9999 R07/1500 -RA FEW925 BKN120 23/20 A3001 BECMG=
200807292300 METAR MROC 292300Z 13007KT 9999 R07/1500 -RA OVC120 21/18 A3000 TRAZAS SCT=
200807292358 METAR MROC 300000Z 11009KT 9999 07/1500 -RA OVC120 20/18 A3003 TRAZAS SC BECMG=
200807300000 METAR MROC 300000Z 11009KT 9999 07/1500 -RA OVC120 20/18 A3003 TRAZAS SCT BECMG=
200807300100 METAR MROC 300100Z 12008KT 9999 R07/1500 -RA FEW045 BKN120 20/18 A3005 BECMG=
200807300200 METAR MROC 300200Z 12008KT 9999 R07/1500 -RA SCT045 BKN120 20/17 A3008 BECMG=
200807300300 METAR MROC 300300Z 08003KT CAVOK R07/1500 20/17 A3008 RERA RMK TRACE SC BKN120 BECMG=
200807300400 METAR MROC 300400Z 05008KT CAVOK R07/1500 20/17 A3007 RMK TRACE SC BKN120 BECMG=
200807300500 METAR MROC 300500Z 00000KT CAVOK R07/1500 19/17 A3006 RMK TRACE SC BKN120 BECMG=
200807300600 METAR MROC 300600Z 00000KT CAVOK R07/1500 19/17 A3004 RMK TRACE SC BKN120 BECMG=
200807300700 METAR MROC 300700Z 00000KT CAVOK R07/1500 19/17 A3004 RMK TRACE SC BKN120 BECMG=
200807300800 METAR MROC 300800Z 00000KT CAVOK R07/1500 19/17 A3003 TRACE SCT BKN120 BECMG=
200807300900 METAR MROC 300900Z 09002KT CAVOK R07/1500 18/17 A3002 RMK TRACE SC SCT120 SCT250 BECMG=
200807301000 METAR MROC 301000Z 09005KT CAVOK R07/1500 18/16 A3002 RMK FEW120 SC250 BECMG=
200807301100 METAR MROC 301100Z 07004KT CAVOK R07/1500 18/16 A3001 RMK TRACE SC SCT140 BKN250 BECMG=
200807301200 METAR MROC 301200Z 07004KT CAVOK R07/1500 18/16 A3003 RMK TRACE SC BKN140 CBS DST SE S SW BECMG=
200807301300 METAR MROC 301300Z 09002KT CAVOK R07/1500 20/17 A3005 SCT120 CB S SW BECMG=
200807301400 METAR MROC 301400Z 12003KT 9999 R07/1500 22/18 A3007 FEW120 CB DST S BECMG=
200807301500 METAR MROC 301500Z 00000KT 9999 R07/1500 FEW025 25/19 A3008 FEW120 CB DST S BECMG=
200807301600 METAR MROC 301600Z VRB03KT 9999 R07/1500 FEW030 26/17 A3006 FEW120 BECMG 24008KT=
200807301700 METAR MROC 301700Z 29005KT 9999 R07/1500 FEW030 27/17 A3003 BECMG=
200807301800 METAR MROC 301800Z 25008KT 9999 R07/1500 SCT030 27/19 A3001 FEW120 BECMG=
200807301900 METAR MROC 301900Z 25012KT 9999 R07/1500 VCSH FEW020CB SCT025 SCT250 27/22 A2999 VSBY NE 6KM DUE RASH RN S BECMG 4000 -TSRA=
200807302000 METAR MROC 302000Z 23009KT 9999 R07/1500 -RA FEW012CB SCT025 BKN120 23/21 A2999 VSBY SE N 6KM BECMG=
200807302100 METAR MROC 302100Z 23006KT 9999 R07/1500 BKN020 22/20 A3000 RMK BECMG 4000 TSRA CB DS S=
200807302200 METAR MROC 302200Z 00000KT 9999 R07/1500 SCT020 BKN100 21/19 A2999 BECMG=
200807302300 METAR MROC 302300Z 00000KT 9999 R07/1500 -RA FEW025 BKN100 20/19 A2997 BECMG=
200807310000 METAR MROC 310000Z 07003KT 9999 R07/1500 FEW025 BKN250 21/19 A3000 BECMG=
200807310100 METAR MROC 310100Z 00000KT 9999 R07/1500 -RA FEW025 BKN120 21/19 A3002 RMK BECMG CAVOK=
200807310200 METAR MROC 310200Z 30002KT 9999 R07/1500 FEW030 BKN110 20/19 A3005 BECMG=
200807310300 METAR MROC 310300Z 00000KT 9999 -DZ R07/1500 FEW030 BKN110 20/20 A3007 BECMG=
200807310400 METAR MROC 310400Z 00000KT 9999 R07/1500 FEW030 SCT110 BKN250 20/19 A3006=
200807310500 METAR MROC 310500Z 08004KT CAVOK R07/1500 20/20 A3004 RMK TRACE SC SCT120 BKN250 BECMG=
200807310600 METAR MROC 310600Z 08003KT CAVOK R07/1500 20/19 A3002 RMK TRACE SC CI SCT120 BECMG=
200807310700 METAR MROC 310700Z 16004KT CAVOK R07/1500 19/19 A3000 RMK TRACE ST SC SCT120 SCT250 BECMG=
200807310800 METAR MROC 310800Z 00000KT 9999 1000SW BR R07/100 FEW001 SCT120 18/18 A2999 RMK SCT250 BECMG=
200807310900 METAR MROC 310900Z 00000KT CAVOK R07/1500 18/17 A2999 RMK TRACE ST SC SCT120 FEW250=
200807311000 METAR MROC 311000Z 11003KT CAVOK R07/1500 18/17 A2998 RMK TRACE SC SCT120 FEW250 BECMG=
200807311100 METAR MROC 311100Z 07004KT CAVOK R07/1500 18/17 A3000 RMK TRACE SC SCT120 BECMG=
200807311200 METAR MROC 311200Z 08006KT CAVOK R07/1500 18/16 A3002 RMK TRACE SC ST AC BKN250 CB DST SW BECMG=
200807311300 METAR MROC 311300Z 00000KT CAVOK R07/1500 22/17 A3003 RMK TRACE SC AC CI BECMG=
200807311400 METAR MROC 311400Z 00000KT CAVOK R07/1500 24/17 A3003 RMK TRACE CU SCT250 CB DST SW BECMG 24006KT=
200807311500 METAR MROC 311500Z 00000KT 9999 R07/1500 FEW030 SCT300 26/18 A3003 BECMG=
200807311600 METAR MROC 311600Z 26007KT 9999 R07/1500 SCT030 26/20 A3003 BECMG=
200807311700 METAR MROC 311700Z 27007KT 9999 VCSH R07/1500 FEW020TCU SCT030 26/20 A3003 RMK RN DST N NE BECMG 7000 VCSH=
200807311800 METAR MROC 311800Z 20006KT 9999 VCSH R07/1500 FEW020TCU SCT030 27/20 A3000 RMK SH DST N NE BECMG=
200807311900 METAR MROC 311900Z 24008KT 9999 -RA R07/1500 FEW015CB BKN030 22/20 A2997 RMK VIS W 8000 BECMG=
200807312000 METAR MROC 312000Z 32008KT 9999 4000NW R07/1500 -RA BR FEW015CB BKN030 22/19 A2995 RMK FEW090 TRCE ST BECMG 3000 -TSRA=
200807312100 METAR MROC 312100Z 22006KT 4000 R07/1500 -TSRA FEW008CB BKN030 20/19 A2998 RMK SCT090 BECMG 5000 RA BR=
200807312200 METAR MROC 312200Z 02003KT 6000 R07/1500 -DZ VCFG FEW003 SCY015 BKN090 19/18 A2997 RMK TS DST S SE 9999SW BECMG 5000 -DZ BR=
200807312300 METAR MROC 312300Z 03002KT 9999 4500SW R07/1500 -RA BR FEW003 OVC090 20/19 A2998 BECMG=
200807312330 METAR MROC 312330Z 25004KT 0200 R07/550 -RA FG VV/// 19/19 A2999 BECMG=
200808010000 METAR MROC 010000Z 00000KT 0800 R07/4200 -RA FG BKN002 SCT080 19/19 A3000 BECMG=
200808010100 METAR MROC 010100Z 00000KT 9999 R07/1500 DZ FEW030 BKN100 19/19 A3000 RMK TRACE ST BECMG=
200808010200 METAR MROC 010200Z 11005KT CAVOK R07/1500 20/18 A3000 RMK BKN120 BECMG=
200808010300 METAR MROC 010300Z 08004KT CAVOK R07/1500 20/18 A3001 RMK TRACE SC SCT120 BECMG=
200808010400 METAR MROC 010400Z 02003KT CAVOK R07/1500 20/18 A3004 TRACE SCT FEW130 BECMG=
200808010500 METAR MROC 010500Z 00000KT CAVOK R07/1500 20/18 A3004 TRACE SCT SCT140 BECMG=
200808010600 METAR MROC 010600Z 12003KT CAVOK R07/1500 19/18 A3001 TRACE SCT SCT150 BECMG=
200808010700 METAR MROC 010700Z 07004KT CAVOK R07/1500 19/17 A2998 TRACE SCT BKN280 BECMG=
200808010800 METAR MROC 010800Z 10005KT CAVOK R07/1500 20/17 A2997 BKN280 BECMG=
200808010900 METAR MROC 010900Z 08005KT R07/1500 CAVOK 20/17 A2995 BKN280 BECMG=
200808011000 METAR MROC 011000Z 05004KT CAVOK R07/1500 18/16 A2995 FEW280 BECMG=
200808011100 METAR MROC 011100Z 11006KT CAVOK R07/1500 20/16 A2995 TRAZAS FEW280 BECMG=
200808011200 METAR MROC 011200Z 06004KT CAVOK R07/1500 19/16 A2997 TRAZAS SCT SCT280 BECMG=
200808011300 METAR MROC 011300Z 13007KT CAVOK R07/1500 23/18 A3000 RMK TRACE SC AC BKN250 DZ DST NE BECMG=
200808011400 METAR MROC 011400Z 12006KT 9999 R07/1500 FEW035 SCT120 BKN250 23/18 A3002 BECMG=
200808011500 METAR MROC 011500Z 13007KT 9999 R07/1500 FEW035 SCT120 BKN250 24/18 A3002 RMK DZ DST NE BECMG=
200808011600 METAR MROC 011600Z 15007KT 9999 R07/1500 SCT040 BKN250 26/18 A3003 RMK FEW120 DZ DST NE BECMG 24006KT=
200808011700 METAR MROC 011700Z 15007KT 9999 R07/150 SCT035 BKN250 26/18 A3003 RMK FEW120 BECMG 24006KT=
200808011800 METAR MROC 011800Z 20006KT 9999 R07/1500 SCT030 BKN250 27/21 A3002 BECMG=
200808011900 METAR MROC 011900Z 24009KT 9999 R07/1500 FEW020TCU SCT030 BKN250 26/22 A3001 RMK RN DST NE BECMG=
200808012000 METAR MROC 012000Z 23009KT 9999 R07/1500 FEW015TCU SCT030 BKN250 26/21 A2998 RMK RN DST NE BECMG=
200808012100 METAR MROC 012100Z 25011KT 9999 R07/1500 FEW015TCU SCT025 BKN250 24/21 A2995 RMK PCPN DST NW BECMG 7000 VCSH=
200808012200 METAR MROC 012200Z 26009KT 9999 R07/1500 FEW015TCU SCT025 BKN250 23/20 A2997 RMK PCPN DST N NW BECMG 7000 -RA VCSH=
200808012300 METAR MROC 012300Z 25007KT 9999 R07/1500 FEW015CB BKN025 22/19 A2998 RMK RASH DST N NW BECMG 7000 -RA VCSH=
200808020000 METAR MROC 020000Z 25003KT 9999 R07/1500 FEW015TCU SCT030 BKN250 21/19 A3000 RMK PCPN DST NW N BECMG=
200808020100 METAR MROC 020100Z 32003KT 9999 R07/1500 FEW007 BKN025 21/19 A3001 BECMG=
200808020200 METAR MROC 020200Z 00000KT 9999 R07/1500 FEW010 SCT025 BKN080 21/19 A3003 RMK TRACE LOW ST S SSW BECMG=
200808020201 METAR MROC 020201Z 00000KT 9999 R07/1500 FEW010 SCT025 BKN080 21/19 A3003 RMK TRACE LOW ST S SSW BECMG=
200808020300 METAR MROC 020300Z 00000KT 9999 R07/1500 FEW007 SCT015 SCT090 21/20 A3004 BECMG=
200808020400 METAR MROC 020400Z 00000KT 9999 R07/1500 FEW007 SCT015 SCT090 21/20 A3006 BECMG=
200808020500 METAR MROC 020500Z 00000KT 9999 VCFG R07/1500 FEW007 SCT015 SCT090 20/19 A3006 RMK BECMG 7000 VCFG=
200808020600 METAR MROC 020600Z 00000KT 9999 VCFG R07/1500 FEW006 SCT020 SCT100 21/19 A3004 BECMG=
200808020700 METAR MROC 020700Z 00000KT 9999 VCFG R07/1500 FEW005 20/19 A3001 RMK TRACE SC BECMG=
200808020800 METAR MROC 020800Z 00000KT 9999 2000W BR R07/1500 SCT003 19/19 A2999 BECMG=
200808020900 METAR MROC 020900Z 10005KT 9999 VCFG R07/1500 FEW006 19/17 A2997 BECMG=
200808021000 METAR MROC 021000Z CAVOK R07/1500 20/17 A2996 RMK TRASC BECMG=
200808021100 METAR MROC 021100Z 04007KT CAVOK R07/1500 19/16 A2997 RMK TRACE SC BECMG=
200808021200 METAR MROC 021200Z 09006KT 9999 R07/1500 SCT030 SCT250 19/17 A2999 BECMG=
200808021300 METAR MROC 021300Z 08004KT 9999 R07/1500 FEW040 BKN250 22/17 A2999 RMK CB DST S QUAD=
200808021400 METAR MROC 021400Z 06004KT 9999 R07/1500 FEW040 BKN250 24/18 A2999=
200808021500 METAR MROC 021500Z 11009KT 9999 R07/1500 FEW040 BKN250 26/18 A2999 RMK CB DST S BECMG=
200808021600 METAR MROC 021600Z 12010KT 9999 R07/1500 FEW035 SCT250 27/18 A3000 BECMG 24007KT=
200808021700 METAR MROC 021700Z 16008KT 9999 R07/1500 FEW025 SCT045 27/18 A2999 BECMG=
200808021800 METAR MROC 021800Z 26005KT 9999 R07/1500 FEW020TCU BKN035 25/20 A2998 RMK PCPN DST E BECMG 7000 -RA VCSH=
200808021900 METAR MROC 021900Z 25008KT 9999 3500N R07/1500 -TSRA SCT015CB BKN025 24/20 A2996 BECMG 2500=
200808022000 METAR MROC 022000Z 24005KT 9999 3000SW R07/1500 -TSRA VCSH FEW012CB SCT035 BKN100 21/20 A2995 BECMG 7000=
200808022015 METAR MROC 022015Z 24005KT 9999 R07/1500 -TSRA VCSH FEW012CB SCT035 BKN100 22/21 A2995 RMK RASH VIS 7KMS TO W WNW BECMG=
200808022100 METAR MROC 022100Z 00000KT 9999 VCSH R07/1500 FEW015CB SCT035 BKN100 21/21 A2995 BECMG=
200808022200 METAR MROC 022200Z 25004KT 9999 BR R07/1500 FEW001 SCT005 BKN030 20/20 A2996 BECMG 4000 +RA=
200808022300 METAR MROC NIL=
200808030000 METAR MROC 030000Z 08003KT 9999 R07/1500 SCT030 BKN100 21/20 A2996 RMK TRACE CI BECMG=
200808030100 METAR MROC 030100Z 00000KT 9999 R07/1500 SCT030 BKN100 20/20 A3000 BECMG=
200808030200 METAR MROC 030200Z 30002KT 9999 R07/1500 SCT030 BKN100 21/20 A3002 BECMG=
200808030300 METAR MROC 030300Z 26002KT 9999 R07/1500 FEW030 BKN100 21/19 A3004 RMK DUE ST S SSW BECMG=
200808030400 METAR MROC 030400Z 25002KT 9999 R07/150 BKN025 20/20 A3005 RMK SCT100 DUE ST S BECMG=
200808030500 METAR MROC 030500Z 34002KT 9999 R07/1500 FEW025 BKN120 20/19 A3003 RMK DUE ST S SSW BECMG=
200808030600 METAR MROC 030600Z 09004KT CAVOK R07/1500 19/19 A3000 RMK TRACE SC BKN120 DUE ST S SSW BECMG=
200808030700 METAR MROC 030700Z 08003KT CAVOK R07/1500 19/19 A2999 RMK BKN120 FEW260 BECMG=
200808030800 METAR MROC 030800Z 05005KT CAVOK R07/1500 20/18 A2997 RMK SCT120 SCT260 BECMG=
200808030900 METAR MROC 030900Z 10006KT CAVOK R07/1500 20/18 A2996 RMK BKN120 SCT260 BECMG=
200808031000 METAR MROC 031000Z 04007KT CAVOK R07/1500 20/17 A2995 RMK BKN120 SCT260 BECMG=
200808031100 METAR MROC 031100Z 07003KT CAVOK R07/1500 20/17 A2995 RMK BKN120 SCT260 BECMG=
200808031200 METAR MROC 031200Z 06005KT CAVOK R07/1500 20/17 A2996 RMK BKN120 FEW260 CB DST SW W BECMG=
200808031300 METAR MROC 031300Z 00000KT 9999 R07/1500 FEW040 SCT120 BKN250 21/19 A2999 BECMG=
200808031400 METAR MROC 031400Z 08002KT 9999 R07/1500 FEW040 SCT120 BKN250 22/18 A3001 BECMG=
200808031500 METAR MROC 031500Z 06004KT 9999 R07/1500 FEW040 SCT120 BKN250 25/18 A3001 BECMG=
200808031600 METAR MROC 031600Z 09010KT 9999 R07/1500 SCT040 BKN250 26/18 A3000 BECMG=
200808031700 METAR MROC 031700Z 08004KT 9999 R07/1500 SCT035 FEW120 BKN250 27/18 A2997 BECMG=
200808031800 METAR MROC 031800Z 12004KT 9999 R07/1500 SCT035 FEW120 BKN250 28/20 A2995 BECMG=
200808031900 METAR MROC 031900Z 10009KT 9999 R07/1500 SCT035 BKN250 29/17 A2992 BECMG 24008KT=
200808032000 METAR MROC 032000Z 11006KT 9999 R07/1500 FEW015CB SCT030 BKN250 20/18 A2990 RMK TSTM DST S RN E BECMG 24008KT 8000 VCSH=
200808032100 METAR MROC NIL=
200808032200 METAR MROC 032200Z 26008KT 9999 3000N R07/1500 -RA VCSH SCT012CB BKN040 21/19 A2995 VSBY SW S SE E UNL BECMG 2000 +RA=
200808032300 METAR MROC 032300Z 34006KT 5000 R07/1500 RA FEW012 SCT035 BKN100 19/18 A2995 VSBY SE UNL BECMG=
200808040000 METAR MROC 040000Z 13002KT 9999 R07/1500 -RA FEW015 SCT040 BKN120 19/18 A2996 VSBY SW W 5KM DUE RN BECMG=
200808040100 METAR MROC 040100Z 36002KT 9999 R07/1500 -RA FEW040 BKN100 20/19 A2998 BECMG=
200808040200 METAR MROC 040200Z 00000KT 9999 R07/1500 FEW040 OVC120 20/19 A2996 BECMG=
200808040300 METAR MROC 040300Z 12002KT CAVOK R07/1500 20/19 A2998 RERA RMK OVC130 TRACE ST BECMG=
200808040400 METAR MROC 040400Z 23004KT 9999 R07/1500 -RA OVC130 19/18 A3001 BECMG=
200808040500 METAR MROC 040500Z 32003KT 9999 R07/1500 -DZ FEW010 BKN120 20/18 A3003 RERA BECMG=
200808040600 METAR MROC 040600Z 00000KT 9999 R07/1500 -RA SCT010 BKN130 21/19 A3001 BECMG=
200808040700 METAR MROC 040700Z 09004KT CAVOK R07/1500 19/19 A2998 RERA RMK TRACE ST SC OVC120 BECMG=
200808040800 METAR MROC 040800Z 09004KT CAVOK R07/1500 20/18 A2995 RMK OVC100 BECMG=
200808040900 METAR MROC 040900Z 04006KT CAVOK R07/1500 20/18 A2994 RMK TRACE SC BKN100 BECMG=
200808041000 METAR MROC 041000Z 07006KT CAVOK R07/1500 21/18 A2994 RMK TRACE SC BKN100 BECMG=
200808041100 METAR MROC 041100Z 07004KT CAVOK R07/1500 20/17 A2995 RMK TRACE SC SCT120 SCT250 BECMG=
200808041200 METAR MROC 041200Z 00000KT CAVOK R07/1500 20/17 A2997 RMK TRACE SC SCT120 TRACE CI BECMG=
200808041300 METAR MROC 041300Z 05004KT CAVOK R07/1500 22/18 A2998 RMK BKN120 SCT250 BECMG=
200808041400 METAR MROC 041400Z 01003KT CAVOK R07/1500 23/18 A2999 TRAZAS SCT SCT100 BECMG=
200808041500 METAR MROC 041500Z 28002KT CAVOK R07/1500 25/19 A2998 TRACE SCT FEW120 BECMG=
200808041600 METAR MROC 041600Z 23005KT CAVOK R07/1500 25/19 A2998 RMK TRAZAS SC AC CI=
200808041700 METAR MROC 041700Z 24008KT 9999 R07/1500 FEW030 26/19 A2998 BECMG=
200808041800 METAR MROC 041800Z 25010KT 9999 R07/1500 FEW020TCU 26/20 A2997 TCU/RN NE BECMG=
200808041900 METAR MROC 041900Z 26010KT 9999 R07/1500 FEW012CB SCT020 SCT140 24/20 A2995 RASH NE E BECMG 5000 -TSRA=
200808042000 METAR MROC 042000Z 22008KT 9999 R07/1500 FEW015TCU SCT025 BKN130 23/20 A2996 RN ARND BECMG=
200808042100 METAR MROC 042100Z 30010KT 9999 -TSRA R07/1500 SCT005CB BKN015TCU 22/18 A2997 RMK RASH N NE E BECMG TSRA=
200808042200 METAR MROC 042200Z 08005KT 5000 -TSRA R07/1500 SCT010CB BKN090 19/18 A2999 BECMG=
200808042300 METAR MROC 042300Z 04005KT 9999 -RA R07/1500 FEW015 OVC100 19/19 A2996 BECMG=
200808050000 METAR MROC 050000Z 11003KT 9999 -RA R07/1500 BKN090 19/19 A2994 BECMG=
200808050100 METAR MROC 050100Z 35002KT 9999 R07/1500 FEW004 BKN100 20/19 A2997 BECMG=
200808050200 METAR MROC 050200Z 12002KT 9999 1500W BR R07/1500 FEW001 BKN100 19/19 A2999 RMK BECMG 5000 BR=
200808050300 METAR MROC 050300Z 08006KT CAVOK R07/1500 20/18 A3000 RK TRACE SCT BKN120 BECMG=
200808050400 METAR MROC 050400Z 05004KT CAVOK R07/1500 20/18 A3000 RMK TRACE SC SCT120 SCT250 BECMG=
200808050500 METAR MROC 050500Z 06004KT CAVOK R07/1500 19/18 A3000 RMK TRACE SC SCT120 SCT250 BECMG=
200808050600 METAR MROC 050600Z 04005KT CAVOK R07/1500 20/18 A2998 RMK TRACE SC BKN120 FEW250 BECMG=
200808050700 METAR MROC 050700Z 03006KT CAVOK R07/1500 20/17 A2996 RMK TRACE SC BKN120 BECMG=
200808050800 METAR MROC 050800Z 03005KT CAVOK R07/1500 20/18 A2995 RMK TRACE SC BKN120 BECMG=
200808050900 METAR MROC 050900Z 07005KT CAVOK R07/1500 21/18 A2995 RMK TRACE SC BKN120 BECMG=
200808051000 METAR MROC 051000Z 04004KT CAVOK R07/1500 20/18 A2995 RMK TRACE SC BKN120 BECMG=
200808051100 METAR MROC 051100Z 10005KT CAVOK R07/1500 21/18 A2994 RMK TRACE SC BKN120 BECMG=
200808051200 METAR MROC 051200Z 29002KT 9999 R07/1500 FEW040 BKN120 21/17 A2997 RMK TRACE CI TCU CB DST S SW BECMG=
200808051300 METAR MROC 051300Z 06003KT 9999 R07/1500 FEW030 BKN120 22/18 A2998 RMK TRACE CI CB TCU DST S/SW=
200808051400 METAR MROC 051400Z 07003KT 9999 R07/1500 FEW030 BKN120 22/19 A3000 BECMG=
200808051500 METAR MROC 051500Z 11005KT 9999 R07/1500 FEW025 SCT120 BKN200 23/18 A3000 BECMG=
200808051600 METAR MROC 051600Z 07003KT 9999 R07/1500 FEW025 SCT120 BKN200 24/18 A2999 BECMG 24006KT=
200808051700 METAR MROC 051700Z 09006KT 9999 R07/1500 FEW025 SCT120 BKN250 25/18 A2998 BECMG=
200808051800 METAR MROC 051800Z 13005KT 9999 R07/1500 VCSH SCT030 BKN120 28/19 A2996 RMK RASH DST E BECMG 7000 VCSH=
200808051900 METAR MROC 051900Z 13006KT 9999 R07/1500 SCT025 SCT120 BKN250 25/17 A2996 BECMG=
200808052000 METAR MROC 052000Z 11006KT 9999 R07/1500 SCT025 SCT120 BKN250 26/18 A2995 BECMG 24006KT=
200808052100 METAR MROC 052100Z 10004KT 9999 R07/1500 SCT025 BKN120 24/18 A2995 RMK SCT250 BECMG -DZ RA=
200808052200 METAR MROC 052200Z 21005KT 9999 3000N R07/1500 VCSH FEW020 SCT120 BKN250 23/19 A2995 RMK TRACE ST TE3MPO 5000 -RA BR=
200808052300 METAR MROC 052300Z 10002KT 9999 3000SW R07/1500 -RA BR FEW003 SCT020 BKN120 22/18 A2997 RMK VIS 3000N RA BECMG 5000 RA BR=
200808060000 METAR MROC 060000Z 09005KT 9999 4000SW R07/1500 -RA BR FEW003 OVC100 20/18 A2996 RMK FEW025 BECMG=
200808060100 METAR MROC 060100Z 08004KT CAVOK R07/1500 21/18 A2996 RMK TRACE SC BKN120 BECMG=
200808060200 METAR MROC 060200Z 04005KT CAVOK R07/1500 21/18 A2997 RMK TRACE SC BKN120 BECMG=
200808060300 METAR MROC 060300Z 08005KT CAVOK R07/1500 21/17 A2998 TRACE SCT SCT150 BKN250 BECMG=
200808060400 METAR MROC 060400Z 10009KT CAVOK R07/1500 22/17 A3000 TRACE SC OVC150 BECMG=
200808060500 METAR MROC 060500Z 12007KT CAVOK R07/1500 22/17 A2998 BECMG=
200808060600 METAR MROC 060600Z 04005KT CAVOK R07/1500 21/17 A2998 TRACE SCT OVC150 BECMG=
200808060700 METAR MROC 060700Z 07005KT CAVOK R07/1500 21/17 A2996 FEWSC AC BKN240 BECMG=
200808060800 METAR MROC 060800Z 11006KT CAVOK R07/1500 21/16 A2996 BKN240 BECMG=
200808060900 METAR MROC 060900Z 10005KT CAVOK R07/1500 21/17 A2997 BKN250 BECMG=
200808061000 METAR MROC 061000Z 10005KT CAVOK R07/1500 21/17 A2997 BKN250 BECMG=
200808061100 METAR MROC 061100Z 09004KT 9999 R07/1500 FEW045 SCT100 20/18 A2997 BECMG=
200808061200 METAR MROC 061200Z 10004KT 9999 R07/1500 FEW045 BKN250 21/17 A2998 FEW120 DZ N NE BECMG=
200808061300 METAR MROC 061300Z 03005KT CAVOK R07/1500 22/18 A2999 RMK FEW120 SCT250 DZ DST NE BECMG=
200808061400 METAR MROC 061400Z 11008KT 9999 R07/1500 FEW020 SCT250 24/19 A3000 RMK TRACE SC DZ DST NE E BECMG=
200808061500 METAR MROC 061500Z 13009KT 9999 R07/1500 FEW020 SCT250 25/19 A3000 RMK FEW120 DZ DST NE E BECMG=
200808061600 METAR MROC 061600Z 08011KT 9999 R07/1500 SCT025 SCT120 25/18 A2998 RMK FEW250 DZ DST N NE E BECMG=
200808061700 METAR MROC 061700Z 10010KT 9999 R07/1500 BKN025 26/17 A2998 RMK DZ DST N NE VE  MAX  VTO  16KT=
200808061800 METAR MROC 061800Z 07010KT 9999 R07/1500 SCT025 SCT100 26/17 A2997 RMK DZ DST NE BECMG=
200808061900 METAR MROC 061900Z 07013KT 9999 R07/1500 SCT025 27/17 A2996 RMK FEW120 DZ DST NE BECMG=
200808062000 METAR MROC 062000Z 08007KT 9999 R07/1500 SCT030 SCT120 28/17 A2993 RMK DZ DST NE BECMG=
200808062100 METAR MROC 062100Z 09007KT 9999 R07/1500 SCT035 SCT070 28/19 A2990 RMK PCPN DST E BECMG=
200808062200 METAR MROC 062200Z 04011KT 9999 R07/1500 -RA BKN035 SCT080 23/19 A2993 RMK CB DST W NW BECMG=
200808062300 METAR MROC 062300Z 08004KT 9999 -RA R07/1500 FEW015 SCT035 BKN120 21/19 A2992 RETS BECMG=
200808070000 METAR MROC 070000Z 08002KT 9999 R07/1500 SCT035 BKN120 22/19 A2993 RERA RMK PCPN DST NE E SE BECMG 8000 -RA=
200808070100 METAR MROC 070100Z 08004KT 9999 R07/1500 FEW015 SCT030 BKN120 22/20 A2997 BECMG=
200808070200 METAR MROC 070200Z 21002KT 9999 R07/1500 VCFG FEW005 SCT025 BKN050 22/20 A3000 RMK VIS S SSW 7KMS BECMG 5000 BR=
200808070300 METAR MROC 070300Z 03005KT 9999 R07/1500 FEW025 BKN050 21/20 A2999 RMK TS DST S BECMG=
200808070400 METAR MROC 070400Z 10005KT CAVOK R07/1500 22/18 A3001 RMK SCT050 BECMG=
200808070500 METAR MROC 070500Z 12006KT CAVOK R07/1500 22/18 A3000 FEW050 BECMG=
200808070600 METAR MROC 070600Z 15005KT CAVOK R07/1500 21/17 A2998 RMK TRACE SC BKN120 BECMG=
200808070700 METAR MROC 070700Z 06005KT CAVOK R07/1500 20/17 A2997 RMK TRACE SC BKN250 BECMG=
200808070800 METAR MROC 070800Z 08006KT CAVOK R07/1500 21/17 A2995 RMK TRACE SC SCT250 BECMG=
200808070900 METAR MROC 070900Z 07005KT CAVOK R07/1500 20/17 A2992 RMK TRACE SC SCT250 BECMG=
200808071000 METAR MROC 071000Z 11007KT CAVOK R07/1500 21/17 A2990 TRACE SCT SCT250 BECMG=
200808071100 METAR MROC 071100Z 07005KT 9999 R07/1500 -RA FEW035 BKN120 21/17 A2992 BECMG=
200808071200 METAR MROC 071200Z 07006KT 9999 R07/1500 -RA FEW035 BKN120 19/18 A2994 BECMG=
200808071300 METAR MROC 071300Z 10008KT 9999 R07/1500 -RA FEW035 BKN100 20/17 A2995 RMK TS DIST TO NE E ESE VEL MX VTO 13KTS BECMG=
200808071400 METAR MROC 071400Z 07007KT 9999 R07/1500 -RA OVC100 19/17 A2998 BECMG=
200808071500 METAR MROC 071500Z 12004KT 9999 R07/1500 -RA OVC100 20/17 A2998 RMK TRACE SC BECMG=
200808071600 METAR MROC 071600Z 10004KT 9999 R07/1500 FEW025 BKN100 23/19 A2997 BECMG=
200808071700 METAR MROC 071700Z 10008KT 9999 R07/1500 FEW030 SCT130 BKN250 26/19 A2993 BECMG=
200808071800 METAR MROC 071800Z 09008KT 9999 R07/1500 FEW030 SCT140 BKN250 26/19 A2993 BECMG=
200808071900 METAR MROC 071900Z 07011KT 9999 R07/1500 FEW030 SCT070 BKN250 27/19 A2991 BECMG=
200808072000 METAR MROC 072000Z 08008KT 9999 R07/1500 SCT025 SCT120 BKN250 28/19 A2989 RMK TCU RN DST ESE SE DZ N NE BECMG 7000 VCSH=
200808072100 METAR MROC 072100Z 10007KT 9999 R07/1500 RA SCT025 BKN120 25/18 A2991 BECMG RA=
200808072200 METAR MROC 072200Z 13006KT 9999 R07/1500 SCT030 BKN100 23/20 A2991 RERA RMK RN SW BECMG RA=
200808072300 METAR MROC 072300Z 13004KT 9999 R07/1500 SCT030 BKN100 23/19 A2991 RMK RN SW BECMG RA=
200808080000 METAR MROC 080000Z 00000KT 9999 3000 R07/1500 BR FEW001 SCT035 OVC100 22/19 A2992 BECMG RA=
200808080100 METAR MROC 080100Z 26004KT 9999 3000SW R07/1500 BR FEW001 SCT003 OVC100 21/21 A2997 BECMG RA=
200808080200 METAR MROC 080200Z 29002KT 9999 R07/1500 FEW035 OVC100 21/20 A2996 RMK TRACE ST BECMG RA=
200808080300 METAR MROC 080300Z 00000KT 9999 R07/1500 FEW008 SCT025 BKN100 21/20 A3000 BECMG=
200808080400 METAR MROC 080400Z 00000KT 9999 R07/1500 -DZ FEW015 OVC090 20/20 A3000 RMK DUE ST SSW BECMG=
200808080500 METAR MROC 080500Z 36002KT 9999 R07/1500 FEW035 OVC100 21/19 A3000 RMK DUE ST SW BECMG=
200808080600 METAR MROC 080600Z 23002KT 9999 R07/1500 FEW035 OVC100 20/19 A2998 RMK DUE ST SSW SW BECMG -DZ=
200808080700 METAR MROC 080700Z 14002KT 9999 R07/1500 -DZRA FEW030 OVC090 20/19 A2996 BECMG=
200808080800 METAR MROC 080800Z 00000KT 9999 R07/1500 -RA OVC090 19/18 A2995 BECMG=
200808080900 METAR MROC 080900Z 26002KT 9999 R07/1500 FEW030 BKN100 19/18 A2992 RERA RMK ST SSE/S BECMG 7000 VCFG FEW003=
200808081000 METAR MROC 081000Z 08005KT 9999 R07/1500 FEW030 BKN100 19/18 A2993 BECMG=
200808081100 METAR MROC 081100Z 07005KT 9999 R07/1500 FEW030 BKN110 19/17 A2994 BECMG=
200808081200 METAR MROC 081200Z 03006KT 9999 R07/1500 FEW045 BKN100 19/17 A2995 RMK DZ DST E BECMG=
200808081300 METAR MROC 081300Z 06007KT CAVOK R07/1500 21/18 A2987 RMK TRACE SC BKN120 BECMG=
200808081400 METAR MROC 081400Z 23002KT CAVOK R07/1500 22/19 A3000 RMK TRACE SC BKN120 SCT260 BECMG=
200808081500 METAR MROC 081500Z 25004KT 9999 R07/1500 FEW035 BKN120 23/19 A3002 RMK TRACE ST SCT250 BECMG=
200808081600 METAR MROC 081600Z 25004KT 9999 R07/1500 FEW035 SCT120 BKN260 25/19 A3000 BECMG=
200808081700 METAR MROC 081700Z 26007KT 9999 R07/1500 SCT035 SCT120 BKN260 26/21 A2999 BECMG=
200808081800 METAR MROC 081800Z 22007KT 9999 R07/1500 SCT030 BKN120 26/24 A2998 RMK SCT250 BECMG=
200808081900 METAR MROC 081900Z 26012KT 9999 R07/1500 FEW015TCU SCT030 BKN120 26/22 A2995 BECMG=
200808082000 METAR MROC 082000Z 24011KT 9999 R07/1500 FEW005 FEW015TCU SCT030 BKN120 24/21 A2992 RMK RN N NE E BECMG=
200808082100 METAR MROC 082100Z 27005KT 9999 R07/1500 -RA SCT015 BKN025 23/21 A2991 VSBY N NE 6KM DUE RASH BECMG=
200808082200 METAR MROC 082200Z 22005KT 9999 R07/1500 SCT025 SCT040 23/21 A2991 HVH915 082200Z GG EGZZMCAR EGZZMSAM KWBCYMYX KWB CHECK TEXT NEW ENDING ADDED KATLYTAA=
200808082300 METAR MROC 082300Z 20005KT 6000 R07/1500 FEW008 SCT015 BKN120 22/21 A2992 VSBY N NE 4KM DUE LOW ST VSBY SW W UNL BECMG=
200808090000 METAR MROC 090000Z 25006KT 9999 R07/1500 -RA FEW006 BKN012 21/20 A2997 VSBY NW N NE 6KM LOW ST BECMG=
200808090100 METAR MROC 090100Z 30004KT 9999 R07/1500 SCT010 SCT030 21/20 A2997=
200808090200 METAR MROC 090200Z 05003KT 9999 R07/1500 FEW015 SCT045 BKN120 21/20 A2999 BECMG=
200808090300 METAR MROC 090300Z 00000KT 9999 R07/1500 BKN030 SCT050 21/19 A2999 BECMG=
200808090400 METAR MROC 090400Z 23003KT 9999 R07/1500 FEW003 SCT030 BKN050 21/20 A3002 BECMG0 5000 BR=
200808090500 METAR MROC 090500Z 35003KT 7000 R07/1500 -RADZ VCFG SCT012 21/20 A3002 RMK VIS SE 8KMS BECMG=
200808090600 METAR MROC 090600Z 12002KT 9999 R07/1500 SCT035 BKN120 20/20 A3000 RERADZ RMK LGT HZ ARND BECMG=
200808090700 METAR MROC 090700Z 00000KT 9999 R07/1500 VCFG FEW002 SCT030 BKKN080 20/20 A2999 RMK VIS S SSW 8KMS BECMG=
200808090800 METAR MROC 090800Z 00000KT 9999 4000SW R07/1500 BR FEW003 SCT020 BKN045 21/20 A2999 BECMG=
200808090900 METAR MROC 090900Z VRB03KT 2500 R07/1500 BR SCT005 SCT070 BKN130 20/19 A2998 RMK VIS N QUAD UNLTD BECMG 7000=
200808091000 METAR MROC 091000Z 06004KT CAVOK R07/1500 20/19 A2996 RMK BKN130 TRACE SC CI BECMG=
200808091100 METAR MROC 091100Z 04007KT CAVOK R07/1500 21/18 A2997 RMK TRACE SC BKN130 BECMG=
200808091200 METAR MROC 091200Z 02004KT CAVOK R07/1500 20/18 A2998 RMK TRACE SC FEW100 BKN150 BECMG=
200808091300 METAR MROC 091300Z 03005KT CAVOK 21/18 A2998 SCT150 BKN240 TRAZAS SCT BECMG=
200808091400 METAR MROC 091400Z 08006KT R07/1500 CAVOK 23/19 A3001 TRAZAS SCT BKN240 CB DST SW BECMG=
200808091500 METAR MROC 091500Z 01002KT 9999 R07/1500 FEW045 BKN120 25/19 A3002 BECMG 24006=
200808091600 METAR MROC 091600Z 28004KT 9999 R07/1500 SCT040 BKN250 26/20 A3002 BECMG=
200808091700 METAR MROC 091700Z 21004KT 9999 FEW025 BKN250 27/19 A3000 FEW040 BECMG=
200808091800 METAR MROC 091800Z 9999 R07/1500 BKN030 SCT250 26/21 A3000 BECMG=
200808091900 METAR MROC 091900Z 22007KT 9999 FEW020CB SCT030 BKN250 26/22 A2998 CB RN NW ENE BECMG=
200808092000 METAR MROC 092000Z 092000Z 25008KT 9999 -TSRA FEW012CBBKN020 22/20 A2998 VSBY N NE E 7KM DUE RASH TS W BECMG 5000=
200808092100 METAR MROC 092100Z 27007KT 9999 SCT020 BKN100 23/21 A2980 BECMG=
200808092200 METAR MROC 092200Z 27002KT 9999 -RA SCT020 BKN100 24/19 A2999 BECMG=
200808092300 METAR MROC 092300Z 14002KT 9999 -RA SCT015 OVC100 22/20 A3000 BECMG=
200808100000 METAR MROC 100000Z 06006KT 9999 VCFG FEW004 OVC100 20/18 A2996 BECMG=
200808100100 METAR MROC 100100Z 09005KT CAVOK 21/18 A2998 RMK TRACE SC BECMG=
200808100200 METAR MROC 100200Z 25006KT 9999 SCT035 20/19 A3004 BECMG 8000 VCFG=
200808100300 METAR MROC 100300Z 36002KT 9999 FEW035 SCT120 20/19 A3005 RMK CB TS=
200808100400 METAR MROC 100400Z 04003KT 9999 FEW035 SCT120 21/19 A3004 RMK TS LNGT CB DST SW BECMG=
200808100500 METAR MROC 100500Z 05002KT 9999 FEW035 SCT120 20/19 A3005 RMK CB TS=
200808100600 METAR MROC 100600Z 23002KT 9999 VCFG FEW002 SCT035 20/18 A3003 RMK TS DST S BECMG 7000 VCFG=
200808100700 METAR MROC 100700Z 20003KT 9999 VCFG FEW002 SCT035 20/19 A3002 RMK TS DST S BECMG=
200808100800 METAR MROC 100800Z 05002KT 9999 VCFG FEW002 SCT035 19/18 A3000 BECMG=
200808100900 METAR MROC 100900Z 02002KT 9999 -RA VCFG FEW002 SCT035 SCT120 19/17 A3002 RMK TS DST S BECMG=
200808101000 METAR MROC 101000Z 34004KT 9999 R07/1500 FEW030 SCT120 19/18 A3002 RERA BECMG=
200808101100 METAR MROC 101100Z 00000KT 9999 R07/1500 FEW040 SCT140 19/18 A3003 BECMG=
200808101200 METAR MROC 101200Z 00000KT 9999 SCT035 SCT120 19/18 A3003 BECMG=
200808101300 METAR MROC 101300Z 07002KT 9999 SCT030 BKN250 23/18 A3004 RMK RN DST N NE BECMG=
200808101400 METAR MROC 101400Z 11004KT 9999 SCT030 BKN250 24/18 A3005 RMK RN DST N NE BECMG 24006KT=
200808101500 METAR MROC 101500Z 12011KT 9999 SCT030 SCT250 25/18 A3005 BECMG=
200808101600 METAR MROC 101600Z 11008KT 9999 SCT030 BKN250 25/15 A3004 BECMG=
200808101700 METAR MROC 101700Z 08008KT 9999 FEW030 BKN250 27/15 A3002 BECMG=
200808101800 METAR MROC 101800Z 08008KT 9999 FEW030 BKN250 28/16 A3002 BECMG=
200808101900 METAR MROC 101900Z 09007KT 9999 FEW030 BKN250 27/15 A3000 BECMG=
200808102000 METAR MROC 102000Z 08007KT 9999 FEW030 BKN250 28/15 A2998 BECMG=
200808102100 METAR MROC 102100Z 09008KT CAVOK 28/16 A2997 RMK TRACE SC BKN250 VEL  MAX  VTO 15KT BECMG=
200808102200 METAR MROC 102200Z 09006KT CAVOK 28/17 A2996 RMK TRACE SC BKN250 BECMG=
200808102300 METAR MROC 102300Z 09004KT CAVOK 26/16 A2998 RMK TRACE CU BKN250 BECMG=
200808110000 METAR MROC 110000Z 20004KT 9999 FEW030 SCT120 SCT250 24/21 A3000 BECMG=
200808110100 METAR MROC 110100Z 22004KT 9999 FEW035 SCT120 BKN250 23/21 A3002 BECMG=
200808110200 METAR MROC 110200Z 13004KT 9999 FEW020 BKN250 22/18 A3006 BECMG=
200808110300 METAR MROC 110300Z 09004KT CAVOK R07/1500 22/18 A3008 TRACE SCT BKN250 BECMG=
200808110400 METAR MROC 110400Z 09003KT CAVOK R07/1500 20/18 A3008 TRACE SCT BKN250=
200808110500 METAR MROC 110500Z 09005KT 9999 R07/1500 FEW015 SCT240 21/18 A3007 BECMG=
200808110600 METAR MROC 110600Z 08003KT 9999 R07/1500 SCT040 19/16 A3006 BECMG=
200808110700 METAR MROC 110700Z 08004KT 9999 R07/1500 FEW040 SCT280 19/17 A3005 BECMG=
200808110800 METAR MROC 110800Z 09004KT 9999 R07/1500 FEW040 19/17 A3004 BECMG=
200808110900 METAR MROC 110900Z 10004KT 9999 R07/1500 FEW040 19/16 A3002 BECMG=
200808111000 METAR MROC 111000Z 10004KT 9999 R07/1500 FEW040 SCT100 19/16 A3003 BECMG=
200808111100 METAR MROC 111100Z 10004KT 9999 R07/1500 FEW045 BKN100 18/17 A3003 BECMG=
200808111200 METAR MROC 111200Z 08004KT 9999 R07/1500 FEW015 SCT100 19/17 A3005 BECMG=
200808111300 METAR MROC 111300Z 09003KT 9999 FEW020 SCT120 22/18 A3006 RMK TRACE CI DUE ST SW BECMG=
200808111400 METAR MROC 111400Z 21003KT 9999 FEW020 SCT250 24/19 A3006 BECMG 25006KT=
200808111500 METAR MROC 111500Z 25005KT 9999 FEW025 25/19 A3006 RMK FEW250 BECMG=
200808111600 METAR MROC 111600Z 25006KT 9999 SCT030 SCT250 25/19 A3006 BECMG=
200808111700 METAR MROC 111700Z 27007KT 9999 FEW020TCU SCT030 BKN250 26/19 A3005 BECMG=
200808111800 METAR MROC 111800Z 24008KT 9999 FEW015CB BKN025 25/19 A3003 RMK RN DST N NE E BECMG 6000 VCTS=
200808111900 METAR MROC 111900Z 22008KT 9999 FEW015CB SCT025 BKN100 25/20 A3001 RMK RN DST N NE BECMG 6000 VCTS=
200808112000 METAR MROC 112000Z 28011KT 2000 R07/0800 RA BR SCT003 BKN020 20/19 A3001 BECMG 1000 SHRA=
200808112100 METAR MROC 112100Z 01006KT 9999 4000NW R07/1500 -RA VCSH FEW015TCU BKN100 19/18 A3001 BECMG=
200808112200 METAR MROC 112200Z 05003KT 9999 R07/1500 -RA VCSH FEW015CB BKN100 21/19 A3000 VIS W WNW 8KMS=
200808112300 METAR MROC 112300Z 12002KT 9999 R07/1500 -RA OVC100 20/19 A3001 RMK TRACE SC BECMG=
200808120000 METAR MROC 120000Z 04005KT CAVOK R07/1500 21/19 A3002 RERA RMK TRACE ST SC OVC100 BECMG 9000 -RA=
200808120100 METAR MROC 120100Z 08003KT CAVOK R07/1500 20/17 A3004 RMK TRACE OF LOW ST TO S SSW BECMG 7000 -RA VCFG=
200808120200 METAR MROC 120200Z 07004KT CAVOK R07/1500 20/17 A3009 RMK TRACE SC OVC100 BECMG=
200808120300 METAR MROC 120300Z 00000KT CAVOK R07/1500 19/18 A3006 RMK TRACE SC BKN120=
200808120400 METAR MROC 120400Z 120400A 00000KT CAVOK R07/1500 20/18 A3007 RMK TRACE SC CI BKN120 BECMG=
200808120500 METAR MROC 120500Z 04002KT CAVOK R07/1500 19/18 A3008 RMK TRACE SC CI BKN120=
200808120600 METAR MROC 120600Z 00000KT CAVOK R07/1500 19/18 A3006 RMK TRACE SC CI BKN120 BECMG=
200808120700 METAR MROC 120700Z 04002KT 9999 R07/1500 FEW025 BKN120 19/18 A3004 BECMG=
200808120800 METAR MROC 120800Z 09003KT 9999 R07/1500 FEW025 BKN120 19/19 A3003 BECMG=
200808120900 METAR MROC 120900Z 11003KT 9999 R07/1500 -RA FEW025 BKN120 19/18 A3002 BECMG=
200808121000 METAR MROC 121000Z 00000KT 9999 R07/1500 FEW025 BKN120 19/17 A3002 BECMG=
200808121100 METAR MROC 121100Z 05003KT 9999 R07/1500 FEW025 BKN120 19/17 A3002 RMK BECMG CAVOK=
200808121200 METAR MROC 121200Z 07004KT CAVOK R07/1500 19/18 A3001 RMK TRACE ST SC BKN120 BECMG=
200808121300 METAR MROC 121300Z 08002KT CAVOK R07/1500 22/18 A3003 RMK TRACE ST SC SCT130 SCT250 BECMG=
200808121400 METAR MROC 121400Z 05002KT CAVOK R07/1500 25/18 A3004 RMK TRACE SC FEW110 SCT250 BECMG=
200808121500 METAR MROC 121500Z 21005KT 9999 R07/1500 SCT035 24/19 A3005 RMK HZ W QUAD BECMG=
200808121600 METAR MROC 121600Z 23007KT 9999 R07/1500 SCT030 25/20 A3004 RMK FEW250 LGT HZ ARND BECMG=
200808121700 METAR MROC 121700Z 24009KT 9999 R07/1500 FEW030 25/20 A3002 RMK FEW300 TCU DST SE S SW LGT HZ ARND BECMG=
200808121800 METAR MROC 121800Z 24010KT 9999 R07/1500 FEW025TCU SCT035 25/21 A3002 RMK PCPN DST SE LGT HZ ARND BECMG 7000 VCSH=
200808121900 METAR MROC 121900Z 23007KT 9999 R07/1500 SCT020TCU SCT030 24/20 A3000 RMK RASH DST E BECMG 7000 VCSH=
200808122000 METAR MROC 122000Z 25009KT 9999 R07/1500 FEW015CB SCT025 25/21 A2996 RMK FEW250 RASH DST E ESE BECMG 7000 VCSH=
200808122100 METAR MROC 122100Z 23009KT 3000 R07/0900 +RA FEW006 FEW015CB BKN025 20/20 A2996 BECMG TSRA=
200808122200 METAR MROC 122200Z 25006KT 7000 R07/1500 -RA FEW006 SCT020 BKN035 20/20 A2997 RMK VIS S SW UNL BECMG RA=
200808122300 METAR MROC 122300Z 27006KT 9999 R07/1500 FEW010 SCT030 BKN100 20/20 A2998 RERA BECMG -RA=
200808130000 METAR MROC 130000Z 00000KT 9999 3000SW R07/1500 RA BR FEW001 SCT008 BKN100 20/20 A3000 BECMG -RA=
200808130100 METAR MROC 130100Z 00000KT 7000 RA FEW001 SCT005 OVC100 20/20 A3003 BECMG -RA=
200808130200 METAR MROC 130200Z 00000KT 9999 3000SW R07/1500 RA BR FEW001 SCT020 OVC100 20/20 A3005 BECMG -RA=
200808130300 METAR MROC 130300Z 09003KT 9999 RA BR FEW003 OVC090 19/19 A3007 RMK VIS 5000 SW BECMG 4000 RA BR=
200808130400 METAR MROC 130400Z 07006KT 9999 RA FEW030 OVC090 19/19 A3008 BECMG=
200808130500 METAR MROC 130500Z 08004KT 9999 -RA OVC090 19/18 A3004 BECMG=
200808130600 METAR MROC 130600Z 07006KT 9999 +DZ OVC090 20/18 A3002 BECMG=
200808130700 METAR MROC 130700Z 07006KT 9999 FEW035 BKN100 20/18 A3000 REDZ BECMG=
200808130800 METAR MROC 130800Z 07004KT 9999 FEW035 BKN100 20/17 A2998 BECMG=
200808130900 METAR MROC 130900Z 08004KT CAVOK 19/17 A2997 RMK OVC110 BECMG=
200808131000 METAR MROC 131000Z 06003KT CAVOK 19/17 A2998 RMK BKN110 BECMG=
200808131100 METAR MROC 131100Z 10002KT CAVOK 18/17 A2999 RMK BKN110 BECMG=
200808131200 METAR MROC 131200Z 06003KT CAVOK 19/17 A3000 RMK TRACE SC SCT120 BECMG=
200808131300 METAR MROC 131300Z 10004KT CAVOK R07/1500 21/18 A3002 RMK TRACE SC SCT120 BECMG=
200808131400 METAR MROC 131400Z 00000KT CAVOK 22/18 A3003 RMK TRACE SC BKN120 BECMG=
200808131500 METAR MROC 131500Z 23006KT CAVOK 23/19 A3004 RMK TRACE CU SCT120 BECMG=
200808131600 METAR MROC 131600Z 21006KT 9999 FEW040 SCT120 24/20 A3004 RMK FU E BECMG=
200808131700 METAR MROC 131700Z 24006KT 9999 FEW040 SCT120 26/21 A3003 BECMG=
200808131800 METAR MROC 131800Z 23009KT 9999 SCT035 SCT120 26/21 A3002 BECMG=
200808131900 METAR MROC 131900Z 26010KT 9999 SCT035 SCT100 26/22 A2999 RMK RN NE BECMG 8000 VCSH=
200808132000 METAR MROC 132000Z 26009KT 9999 TS FEW010CB SCT030 BKN100 24/21 A2998 RMK RASH N NE SE E S BECMG 5000 VCSH=
200808132100 METAR MROC 132100Z 09004KT 4000 RA FEW008 SCT030 BKN100 20/20 A3000 VSBY E BECMG 6000=
200808132200 METAR MROC NIL=
200808132300 METAR MROC 132300Z 08002KT 9999 -RA FEW010 SCT045 BKN120 20/20 A3001 BECMG=
200808140000 METAR MROC 140000Z 09003KT CAVOK 20/20 A3000 TRAZAS SCT SCT120 BKN260 BECMG=
200808140100 METAR MROC 140100Z 23004KT CAVOK 20/20 A3001 TRAZAS SCT SCT260 LW ST S SW BECMG 5000 BR=
200808140200 METAR MROC NIL=
200808140300 METAR MROC 140300Z 10003KT 9999 VCFG FEW008 SCT030 19/19 A3003 RMK VIS SSW 8KMS BECMG=
200808140400 METAR MROC 140400Z 04003KT 9999 BKN030 20/20 A3005 RMK TRACE ST HZ LGT ARND BECMG=
200808140500 METAR MROC 140500Z 09006KT 9999 SCT030 19/18 A3003 BECMG=
200808140600 METAR MROC 140600Z 08004KT CAVOK 19/18 A3002 RMK TRACE SC SCT140 BKN250 BECMG=
200808140700 METAR MROC 140700Z 06002KT CAVOK 18/17 A3001 RMK TRACE SC SCT140 BKN250 BECMG=
200808140800 METAR MROC 140800Z 06004KT CAVOK 19/17 A3000 RMK TRACE SC AC BKN250 BECMG=
200808140900 METAR MROC 140900Z 05003KT CAVOK 18/17 A2999 RMK TRACE SC AC SCT250=
200808141000 METAR MROC 141000Z 02002KT CAVOK 18/16 A2999 RMK TRACE SC AC SCT250=
200808141100 METAR MROC 141100Z 06004KT CAVOK 17/16 A3001 RMK TRACE SC SCT250 CB=
200808141200 METAR MROC 141200Z 06007KT CAVOK 18/16 A3002 RMK TRACE SC FEW250 CB DST SSW BECMG=
200808141300 METAR MROC 141300Z 05008KT CAVOK 20/17 A3002 TRACE SCT280 CB DIST SSW BECMG=
200808141400 METAR MROC 141400Z 05005KT CAVOK 23/17 A3006 TRAZAS SCT SCT280 CB DST S BECMG=
200808141500 METAR MROC 141500Z 05005KT CAVOK 26/18 A3007 TRAZAS SCT FEW280 CB DST S BECMG=
200808141600 METAR MROC 141600Z 22005KT 9999 FEW030 26/19 A3006 BECMG=
200808141700 METAR MROC 141700Z 25008KT 9999 FEW030 SCT045 25/20 A3007 BECMG=
200808141800 METAR MROC 141800Z 26008KT 9999 SCT025 25/20 A3007 FEW280 BECMG=
200808141900 METAR MROC 141900Z 24009KT 9999 BKN020 26/22 A3002 FEW280 BECMG=
200808142000 METAR MROC 142000Z 24009KT 9999 BKN015 26/22 A3000 RN DST NW BECMG=
200808142100 METAR MROC 142100Z 27006KT 9999 BKN015TCU 29/20 A3002 BECMG=
200808142200 METAR MROC 142200Z 27007KT 9999 TS VCSH SCT008CB BKN015 25/20 A2998 RMK TS RA S E BECMG 5000 -TSRA=
200808142300 METAR MROC 142300Z 24008KT 9999 4000W RA SCT005 BKN013 22/22 A2998 RMK BECMG 2000 BR=
200808150000 METAR MROC 150000Z 00000KT 9999 VCFG FEW002 SCT006 BKN012 21/20 A2999 RMK VIS W 7000 DUE FG BECMG 5000 BR=
200808150100 METAR MROC 150100Z 27002KT 9999 VCFG FEW002 SCT006 SCT015 22/21 A2999 RMK VIS W 7000 DUE FG BECMG=
200808150200 METAR MROC 150200Z 26003KT 9999 4000W BR FEW002 SCT006 SCT012 22/21 A3002 BECMG 2000 BR=
200808150300 METAR MROC 150300Z 34002KT 6000 2000SW BR FEW002 SCT010 21/21 A3008 BECMG=
200808150400 METAR MROC 150400Z 23002KT 6000 2000SW BR FEW002 BKN010 21/21 A3009 BECMG=
200808150500 METAR MROC 150500Z 00000KT 7000 2000SW BR FEW001 SCT008 BKN015 21/21 A3009 BECMG=
200808150600 METAR MROC 150600Z 00000KT 9999 FEW001 SCT010 BKN025 20/20 A3008 BECMG=
200808150700 METAR MROC 150700Z 10002KT 9999 SCT020 SCT100 20/20 A3006 RMK TRACE CI BECMG=
200808150800 METAR MROC 150800Z VRB03KT 9999 FEW030 SCT100 20/19 A3005 RMK TRACE CI BECMG=
200808150900 METAR MROC 150900Z 03007KT CAVOK 19/17 A3004 RMK TRACE SC SCT120 BECMG=
200808151000 METAR MROC 151000Z 02008KT CAVOK 18/16 A3004 RMK TRACE SC SCT120 BECMG=
200808151100 METAR MROC 151100Z 06006KT CAVOK 19/17 A3005 RMK TRACE SC SCT120 BECMG=
200808151200 METAR MROC 151200Z 06006KT CAVOK 19/17 A3006 RMK TRACE SC AC BKN250 TCU DST S BECMG=
200808151220 METAR MROC 151220Z 19003KT 0200 FG SCT001 25/24 A2988=
200808151300 METAR MROC 151300Z 08006KT CAVOK 22/17 A3007 RMK TRACE SC AC BKN270=
200808151400 METAR MROC 151400Z 07004KT CAVOK 24/18 A3004 RMK TRACE SC BKN270 BECMG 24006KT=
200808151500 METAR MROC 151500Z 11010KT 9999 FEW035 BKN250 25/17 A3004 BECMG=
200808151600 METAR MROC 151600Z 12007KT 9999 FEW035 SCT270 27/16 A3003 BECMG=
200808151700 METAR MROC 151700Z 14004KT 9999 SCT035 29/17 A3003 BECMG 24006KT=
200808151800 METAR MROC 151800Z 23011KT 9999 SCT035 28/20 A3001 BECMG=
200808151900 METAR MROC 151900Z 22008KT 9999 SCT030TCU 27/19 A2998 BECMG=
200808152000 METAR MROC 152000Z 24013KT 9999 -TS VCSH FEW010CB SCT025TCU 26/20 A2995 RMK TS RN DST NW N NE BECMG 6000 RA=
200808152100 METAR MROC 152100Z 33003KT 7000 3000S -TSRA FEW008CB BKN030 21/19 A2998 BECMG 7000 -RA=
200808152200 METAR MROC 152200Z 16010KT 0300 R07/0150 -TSSHRA VV/// 20/20 A3004 BECMG 1500 -TSRA=
200808152300 METAR MROC 152300Z 21004KT 9999 4000 N DZ SCT020 BKN080 19/18 A3003 BECMG=
200808160000 METAR MROC 160000Z 33005KT 9999 FEW015 SCT120 BKN220 20/19 A3006 RMK RN DST NW BECMG=
200808160100 METAR MROC 160100Z 11002KT 9999 FEW025 BKN100 20/19 A3008 BECMG=
200808160200 METAR MROC 160200Z 04005KT CAVOK 20/19 A3010 RMK TRACE ST SW BKN120 SCT250 LGTN DST SW BECMG=
200808160300 METAR MROC 160300Z 25003KT 9999 -RA OVC100 20/19 A3012 TRAZAS SCT BECMG=
200808160400 METAR MROC 160400Z 00000KT CAVOK 20/19 A3011 TRAZAS SCT SCT120 SCT280 BECMG=
200808160500 METAR MROC 160500Z 07006KT CAVOK 19/18 A3011 TRACE AS SCT240 BECMG=
200808160600 METAR MROC 160600Z 04005KT CAVOK 19/18 A3006 TRACE SC AC SCT270 BECMG=
200808160700 METAR MROC 160700Z 04003KT CAVOK 19/17 A3007 TRACE SCT SCT240 BECMG=
200808160800 METAR MROC 160800Z 03003KT CAVOK 18/17 A3004 TRAZAS SCT AC SCT240 LTNG DST S BECMG=
200808160900 METAR MROC 160900Z 08002KT CAVOK 18/17 A3005 SCT240 BECMG=
200808161000 METAR MROC 161000Z 05003KT CAVOK 17/16 A3005 SCT250 BECMG=
200808161100 METAR MROC 161100Z 09003KT CAVOK 17/16 A3006 FEW120 BECMG=
200808161200 METAR MROC 161200Z 08003KT CAVOK 17/16 A3007 BKN120 TRAZAS SCT BECMG=
200808161300 METAR MROC 161300Z 10004KT CAVOK 19/17 A3007 RMK TRACE SC BKN120 BECMG=
200808161400 METAR MROC 161400Z 10005KT CAVOK 22/18 A3008 RMK TRACE SC SCT120 SCT250 BECMG=
200808161500 METAR MROC 161500Z 11003KT CAVOK 25/18 A3007 RMK TRACE CU SCT300 BECMG 25008KT=
200808161600 METAR MROC 161600Z 25003KT 9999 FEW035 27/18 A3006 RMK FEW300 BECMG=
200808161700 METAR MROC 161700Z 21004KT 9999 FEW030 27/19 A3005 RMK FEW300 BECMG=
200808161800 METAR MROC 161800Z 25007KT 9999 FEW020TCU SCT030 27/19 A3003 RMK FEW250 BECMG=
200808161900 METAR MROC 161900Z 23007KT 9999 FEW015CB SCT030 27/17 A3000 RMK FEW250 BECMG 7000 -TS VCSH=
200808162000 METAR MROC 162000Z 24011KT 4000 -TSRA FEW012CB BKN025 25/20 A2998 BECMG 3000 TSRA=
200808162100 METAR MROC 162100Z 24010KT 1500 R07/0300 TSRA SCT015CB BKN030 20/20 A2998 BECMG 5000=
200808162200 METAR MROC 162200Z 23003KT 8000 VCSH FEW010 FEW017CB BKN035 20/19 A2998 VIS SE S UNLTD RASH W WNW NW BECMG=
200808162201 METAR MROC 162201Z COR 23003KT 8000 VCSH FEW010 FEW017CB BKN035 20/19 A2998 RETS VIS SE S UNLTD RASH W WNW NW BECMG=
200808162300 METAR MROC 162300Z 31002KT 9999 RA SCT015 BKN025 20/19 A3000 RMK VIS E QUAD 8KMS BECMG=
200808170000 METAR MROC 170000Z 02004KT 7000 -RA VCSH SCT020 BKN080 20/19 A3001 VIS NW N 5KMS TS LTNG DST NW BECMG=
200808170100 METAR MROC 170100Z 00000KT 9999 4000SW -RA BR FEW004 SCT010 BKN020 20/19 A3003 BECMG 5000 BR=
200808170200 METAR MROC 170200Z 21002KT 9999 FEW005 SCT020 BKN030 20/19 A3004 BECMG=
200808170300 METAR MROC 170300Z 00000KT 9999 VCFG FEW002 SCT020 BKN030 20/19 A3004 RMK BECMG 5000 BR=
200808170400 METAR MROC 170400Z 00000KT 1500 BR SCT001 SCT005 BKN030 20/19 A3005 BECMG 0500 FG=
200808170500 METAR MROC 170500Z 27003KT 4000 BR SCT001 SCT005 SCT020 20/19 A3004 BECMG=
200808170600 METAR MROC 170600Z 30003KT 5000 BR FEW002 SCT010 BKN100 20/19 A3003 BECMG=
200808170700 METAR MROC 170700Z 26004KT 5000 BR FEW002 SCT010 BKN100 20/19 A3002 RMK BECMG 2000 BR SCT001 SCT010=
200808170800 METAR MROC 170800Z 27003KT 2000 BR FEW002 SCT005 BKN030 19/18 A3001 RMK BECMG 0500 FG=
200808170900 METAR MROC 170900Z 28002KT 6000 VCFG FEW002 SCT010 BKN100 19/18 A2998 BECMG=
200808171000 METAR MROC 171000Z 32004KT 6000 VCFG FEW002 SCT010 BKN030 19/18 A2998 BECMG=
200808171100 METAR MROC 171100Z 08003KT 9999 FEW035 SCT120 19/18 A2999 RMK HZ LGT ARND BECMG CAVOK=
200808171200 METAR MROC 171200Z 02004KT CAVOK 18/17 A2999 RMK TRACE SC SCT120 BKN250 TCU DST SW BECMG=
200808171300 METAR MROC 171300Z 00000KT CAVOK 20/17 A3003 RMK TRACE SC BKN300 RMK CB DST SSW BECMG=
200808171400 METAR MROC 171400Z 24005KT 9999 VCFG SCT007 SCT300 21/19 A3002 VIS S SE 8KMS LOW CLOUDS OVER APCH RNY 07 BECMG=
200808171500 METAR MROC 171500Z 25004KT 9999 SCT015 SCT300 23/19 A3005 BECMG=
200808171600 METAR MROC 171600Z 23007KT 9999 SCT020 24/19 A3005 RMK TRACE CI BECMG=
200808171700 METAR MROC 171700Z 23006KT 9999 SCT025 25/18 A3003 BECMG=
200808171800 METAR MROC 171800Z 24006KT 9999 FEW020TCU BKN030 25/19 A3000 RMK PCPN DST N E SE BECMG 7000 VCSH=
200808171900 METAR MROC 171900Z 23009KT 9999 4000S -RA VCSH FEW015CB SCT030 BKN045 23/20 A2998 RMK SCT RASH DST ARND BECMG 3000 TSRA=
200808172000 METAR MROC 172000Z 24002KT 4000 RA FEW005 FEW015CB BKN030 21/20 A2997 RMK VIS N NW 2500MTS VIS SE 8KMS BECMG=
200808172100 METAR MROC 172100Z 25008KT 4000 BR FEW001 SCT005 BKN025 21/21 A2996 RERA BECMG 3000 RABR=
200808172200 METAR MROC 172200Z 23008KT 4000 -DZ BR FEW001 SCT005 BKN025 20/20 A2996 BECMG 3000 RA BR=
200808172300 METAR MROC 172300Z 25008KT 3000 RA BR FEW001 SCT003 OVC020 19/19 A2998 BECMG 1500 RA BR=
200808180000 METAR MROC 180000Z 26004KT 4000 RA BR FEW001 SCT005 OVC020 19/19 A2999 BECMG 1500 RA BR=
200808180100 METAR MROC 180100Z 00000KT 7000 2000SW RA BR FEW001 SCT010 OVC030 19/19 A3001 BECMG 1500 RA BR=
200808180200 METAR MROC 180200Z 00000KT 7000 2000SW RA BR FEW001 SCT010 OVC030 19/19 A3003 BECMG 1500 RA BR=
200808180300 METAR MROC 180300Z 06004KT 9999 DZ VCFG FEW005 BKN030 19/18 A3005 RMK VIS 7000SW SCT070 BECMG=
200808180400 METAR MROC 180400Z 00000KT 9999 FEW003 SCT030 BKN080 19/18 A3004 BECMG 4000BR=
200808180500 METAR MROC NIL=
200808180600 METAR MROC 180600Z 00000KT 0200 R07/0150 FG BKN001 SCT120 19/19 A3002 BECMG=
200808180700 METAR MROC 180700Z 33006KT 5000 2000W R07/1500 BR SCT001 BKN012 19/18 A3002 BECMG=
200808180800 METAR MROC 180800Z 28004KT 9999 FEW003 SCT025 19/18 A3000 RMK SCT120 ST SSE BECMG=
200808180900 METAR MROC 180900Z 13002KT 9999 FEW030 SCT120 18/18 A3000 BECMG=
200808181000 METAR MROC 181000Z 08002KT 9999 FEW030 SCT120 18/17 A2999 BECMG CAVOK=
200808181100 METAR MROC 181100Z 03006KT CAVOK 18/17 A2998 RMK SCT120 FEW260 BECMG=
200808181200 METAR MROC 181200Z 07003KT CAVOK 18/16 A2999 RMK SCT120 FEW260 BECMG=
200808181300 METAR MROC 181300Z 06006KT CAVOK 21/18 A3002 RMK TRACE AC CU BKN250 BECMG=
200808181400 METAR MROC 181400Z 00000KT CAVOK 22/18 A3003 RMK TRACE CU SCT120 SCT250 BECMG=
200808181500 METAR MROC 181500Z 27004KT 9999 FEW040 SCT120 24/20 A3003 RMK TRACE CI BECMG=
200808181600 METAR MROC 181600Z 24009KT 9999 SCT040 24/21 A3004 BECMG=
200808181700 METAR MROC 181700Z 23009KT 9999 FEW020 SCT035 24/21 A3003 BECMG=
200808181800 METAR MROC 181800Z 23007KT 9999 FEW020 BKN035 24/21 A3001 BECMG=
200808181900 METAR MROC 181900Z 22011KT 9999 FEW002 FEW010CB BKN030 24/21 A2999 RMK RN N NE E SE BECMG=
200808182000 METAR MROC 182000Z 21006KT 3000 RA BR FEW002 FEW010TCU OVC030 21/21 A2998 BECMG 2500 TSRA=
200808182100 METAR MROC 182100Z 24009KT 5000 -RA BR BKN006 SCT012 22/21 A2993 BECMG 3000=
200808182200 METAR MROC 182200Z 23007KT 1500 +RA BR BKN003 SCT008 20/20 A2997 BECMG 1000=
200808182225 METAR MROC 182225Z 20007KT 0200 R07/0650 RA FG VV/// 20/20 A2997 BECMG=
200808182250 METAR MROC 182250Z 18005KT 1000 R07/0700 +TSRA VV/// 20/20 A2998 BECMG=
200808182300 METAR MROC 182300Z 18005KT 1000 R07/0800 +TSRA VV/// 20/20 A2999 BECMG=
200808182316 METAR MROC 182316Z 14002KT 2000 TSRA SCT003 FEW005CB BKN008 20/20 A2999 BECMG 5000=
200808190000 METAR MROC 190000Z 00000KT 5000 RA BR FEW005 SCT08 BKN100 20/20 A2999 DST TS S BECMG=
200808190100 METAR MROC 190100Z 03005KT 9999 RA OVC030 20/20 A3003 BECMG=
200808190200 METAR MROC 190200Z 09005KT 9999 RA OVC035 19/19 A3004 BECMG=
200808190300 METAR MROC 190300Z 06006KT 9999 -RA OVC130 19/18 A3004 BECMG=
200808190400 METAR MROC 190400Z 03006KT CAVOK 20/18 A3003 RMK TRACE SC BKN120 THING FG BANK TO S SSW BECMG=
200808190500 METAR MROC 190500Z 12003KT CAVOK 18/18 A3003 RMK TRACE ST FEW130 BKN250 THING FG BANK TO S SSW BECMG=
200808190600 METAR MROC 190600Z 00000KT CAVOK 18/18 A3003 RMK TRACE SC AC BKN250 BECMG 7000 VCFG=
200808190700 METAR MROC 190700Z 03005KT CAVOK 18/17 A3002 RMK TRACE SC BKN250 BECMG=
200808190800 METAR MROC 190800Z 10004KT CAVOK 17/16 A3001 RMK TRACE SC BKN250 BECMG=
200808190900 METAR MROC 190900Z 09003KT CAVOK 18/16 A3000 RMK TRACE SC BKN250 OCNL=
200808191000 METAR MROC 191000Z 06006KT CAVOK 18/16 A3000 RMK TRACE SC BKN250 OCNL=
200808191100 METAR MROC 191100Z 06004KT CAVOK 17/16 A3001 RMK TRACE SC AC BKN250 BECMG=
200808191200 METAR MROC 191200Z 07004KT CAVOK 17/16 A3001 RMK TRACE SC SCT120 BKN250 BECMG=
200808191300 METAR MROC 191300Z 09003KT CAVOK 20/18 A3002 FEW140 BKN280 TRAZAS SCT BECMG=
200808191400 METAR MROC 191400Z 10004KT CAVOK 22/18 A3003 TRAZAS SCT FEW120 BKN250 BECMG=
200808191500 METAR MROC 191500Z 09006KT CAVOK 24/18 A2999 FEW120 BKN250 TRAZAS SCT BECMG 24008KT=
200808191600 METAR MROC 191600Z 17003KT 9999 FEW030 BKN250 24/21 A3003 BECMG=
200808191700 METAR MROC 191700Z 23011KT 9999 FEW030 BKN250 24/19 A3002 BECMG=
200808191800 METAR MROC 191800Z 24010KT 9999 SCT020 BKN250 25/21 A3001 RN ENE N BECMG=
200808191900 METAR MROC 191900Z 24010KT 9999 FEW015 SCT020 BKN250 24/20 A3000 RN N NE E S BECMG=
200808192000 METAR MROC 192000Z 25008KT 9999 FEW015CB BKN025 26/20 A2997 RMK RN DST NE E BECMG 7000 VCTS VCSH=
200808192100 METAR MROC 192100Z 24008KT 7000 VCSH FEW005 SC010CB BKN100 22/20 A2993 RMK TS RA N NE BECMG 5000 -RA BR=
200808192200 METAR MROC 192200Z 26006KT 1500 +TSRA FEW003 SCT005CB BKN010 21/20 A2995 RMK TS RASH ARND BECMG=
200808192300 METAR MROC 192300Z 25005KT 8000 4000W -RA BR SCT004 BKN007 20/19 A2996 BECMG=
200808200000 METAR MROC 200000Z 30006KT 7000 VCFG SCT004 SCT008 OVC100 20/19 A2992 BECMG=
200808200100 METAR MROC 200100Z 25004KT 9999 FEW005 SCT012 OVC100 20/19 A2999 BECMG 7000 VCFG=
200808200200 METAR MROC 200200Z 09002KT 9999 VCFG FEW005 SCT010 BKN100 20/19 A3001 BECMG 2000 BR=
200808200300 METAR MROC 200300Z 00000KT 9999 FEW008 SCT025 BKN100 20/20 A3005 BECMG=
200808200400 METAR MROC 200400Z 00000KT 9999 FEW025 BKN100 20/20 A3005 BECMG=
200808200500 METAR MROC 200500Z 00000KT 9999 SCT025 SCT120 20/20 A3005 BECMG=
200808200600 METAR MROC 200600Z 00000KT 9999 FEW025 SCT120 19/19 A3003 BECMG CAVOK=
200808200700 METAR MROC 200700Z 06005KT CAVOK 19/19 A3002 RMK TRACE SC CI SCT120 BECMG=
200808200800 METAR MROC 200800Z 06005KT CAVOK 19/18 A3002 RMK TRACE SC CI SCT120 BECMG=
200808200900 METAR MROC 200900Z 08002KT CAVOK 18/18 A3000 RMK TRACE SC CI BKN120 BECMG=
200808201000 METAR MROC 201000Z 06003KT CAVOK 18/18 A2999 RMK TRACE SC BKN120 BECMG=
200808201100 METAR MROC 201100Z 05008KT CAVOK 19/18 A3000 RMK TRACE SC SCT120 SCT250 BECMG=
200808201200 METAR MROC 201200Z 02003KT CAVOK 18/17 A3001 RMK TRACE SC AC BKN250 BECMG=
200808201300 METAR MROC 201300Z 08004KT CAVOK 22/18 A3000 RMK TRACE SC AC BKN250 BECMG=
200808201400 METAR MROC 201400Z 11007KT 9999 FEW030 BKN250 24/18 A3000 RMK CB N NW E BECMG=
200808201500 METAR MROC 201500Z 09007KT 9999 FEW030 BKN250 26/18 A3001 RMK CB N E BECMG=
200808201600 METAR MROC 201600Z 10011KT 9999 FEW030 BKN250 27/17 A3001 RMK CB N BECMG=
200808201700 METAR MROC 201700Z 09008KT 9999 FEW035 BKN250 28/17 A3000 BECMG 24006KT=
200808201800 METAR MROC 201800Z 11007KT 9999 SCT035 BKN250 28/17 A2998 RMK TRACE AC BECMG=
200808201900 METAR MROC 201900Z 23007KT 9999 BKN020TCU 25/21 A2996 RMK CB RN N BECMG 6000 -TSRA=
200808202000 METAR MROC 202000Z 23011KT 9999 VCTS SCT008CB BKN015 24/21 A2993 RMK CB RN N BECMG 5000 TSRA=
200808202100 METAR MROC 202100Z 23008KT 9999 VCSH SCT010CB SCT025 23/20 A2996 RMK VIS 7000 N VCSH BECMG 4000 TSRA=
200808202200 METAR MROC 202200Z 22008KT 9999 5000 VCSH BR BKN015 SCT090 22/20 A2997 RMK VIS 9999 S SSW BECMG -RA=
200808202300 METAR MROC 202300Z 24007KT 3000 +RA BR SCT003 BKN015TCU 21/21 A3000 RMK VIS 7000 S BECMG 1500 +RABR=
200808210000 METAR MROC 210000Z 27004KT 9999 4000SW -TSRA BR FEW003 FEW008 SCT012 BKN080 19/18 A3002 BECMG=
200808210100 METAR MROC 210100Z 10004KT 9999 FEW008 BKN100 19/18 A3003 BECMG=
200808210200 METAR MROC 210200Z 02002KT 9999 VCFG SCT004 SCT015 20/19 A3006 RMK VIS 7000SW BECMG 5000BR=
200808210300 METAR MROC 210300Z 00000KT 9999 SCT003 SCT020 20/20 A3007 BECMG 07005KT=
200808210400 METAR MROC 210400Z 28002KT 9999 SCT005 SCT020 BKN100 20/20 A3007 BECMG 07005KT=
200808210500 METAR MROC 210500Z 03002KT 9999 SCT005 BKN100 20/20 A3006 BECMG 07005KT=
200808210600 METAR MROC 210600Z 09004KT CAVOK 20/20 A3005 BKN280 TRAZAS SCT BECMG=
200808210700 METAR MROC 210700Z 03005KT CAVOK 20/19 A3000 TRACE SCT BKN280 BECMG=
200808210800 METAR MROC 210800Z 14002KT 0800 FG SCT001 BKN280 19/19 A3002 BECMG=
200808210900 METAR MROC 210900Z 00000KT 0200 R07/0050 FG VV/// 18/18 A3000=
200808211000 METAR MROC 211000Z 07003KT 9999 1000SW R07/0075 BR FEW001 BKN280 18/18 A3001 BECMG=
200808211100 METAR MROC 211100Z 07003KT CAVOK 18/18 A3002 TRAZAS SCT BKN280 FG SW BECMG=
200808211200 METAR MROC 211200Z 14002KT CAVOK 18/17 A3002 FEW130 TRAZAS SC/CI CB DST S SW FG BANK SE S BECMG=
200808211300 METAR MROC 211300Z 00000KT 9999 FEW003 SCT250 20/18 A3003 RMK FEW120 BECMG=
200808211400 METAR MROC 211400Z 28002KT CAVOK 23/19 A3005 RMK FEW250 TRACE SC HZ SW BECMG=
200808211500 METAR MROC 211500Z 23004KT 9999 FEW030 24/20 A3006 RMK FEW250 HZ SW BECMG=
200808211600 METAR MROC 211600Z 24007KT 9999 FEW035 25/21 A3006 RMK TRACE CI BECMG=
200808211700 METAR MROC 211700Z 24003KT 9999 FEW020 SCT030 26/21 A3005 BECMG=
200808211800 METAR MROC 211800Z 23007KT 9999 FEW020TCU SCT030 25/22 A3002 BECMG=
200808211900 METAR MROC 211900Z 25010KT 9999 FEW020TCU SCT030 26/22 A3001 BECMG=
200808212000 METAR MROC 212000Z 23011KT 9999 FEW015CB SCT030TCU 27/23 A2998 BECMG 5000 TS VCSH=
200808212100 METAR MROC NIL=
200808212200 METAR MROC 212200Z 24010KT 3000 -TSRA SCT005 FEW012CB BKN020 21/21 A2995 RMK VIS S 8KMS BECMG 1500 +TSRA=
200808212300 METAR MROC 212300Z 26005KT 9999 FEW010 SCT030 BKN060 20/19 A3000 RETSRA RMK VIS W NW N 8KMS TS DST W BECMG=
200808220000 METAR MROC 220000Z 04004KT 9999 FEW020 SCT040 BKN100 20/20 A3000 RMK RN DIST ESE LTNG DIST WSW BECMG=
200808220100 METAR MROC 220100Z 06002KT 9999 FEW035 SCT100 BKN250 20/19 A3003 RMK OCNL LTNG DST WSW BECMG=
200808220200 METAR MROC 220200Z 07003KT CAVOK 20/20 A3004 RMK TRACE SC FEW100 BKN250 OCNL LTNG DST S BECMG=
200808220300 METAR MROC 220300Z 33005KT CAVOK 20/19 A3005 RMK LNTG DST S TRACE ST SC BECMG=
200808220400 METAR MROC 220400Z 08005KT CAVOK 20/18 A3006 RMK TRACE ST SC LTNG DST S BECMG=
200808220500 METAR MROC 220500Z 03007KT CAVOK 20/18 A3006 RMK TRACE SC SCT250 LTNG DST S BECMG=
200808220600 METAR MROC 220600Z 35002KT CAVOK 19/18 A3006 RMK TRACE SC SCT250 BECMG=
200808220700 METAR MROC 220700Z 03004KT CAVOK 19/18 A3003 RMK TRACE SC SCT250 TS=
200808220800 METAR MROC 220800Z 07005KT CAVOK 19/17 A3002 RMK TRACE SC BKN250=
200808220900 METAR MROC 220900Z 09004KT CAVOK 22/18 A3002 RMK TRACE SC BKN250=
200808221000 METAR MROC 221000Z 07006KT CAVOK 19/17 A3002 RMK TRACE SC BKN250 BECMG=
200808221100 METAR MROC 221100Z 03007KT 9999 -RA FEW035 BKN120 19/18 A3003 BECMG=
200808221200 METAR MROC 221200Z 05005KT CAVOK 20/18 A3002 RMK TRACE SC BKN120 BECMG=
200808221300 METAR MROC 221300Z 03008KT CAVOK 22/17 A3002 RMK SCT120 SCT250 BECMG=
200808221400 METAR MROC 221400Z 10009KT CAVOK 25/16 A3002 RMK TRACE SC SCT120 SCT250 VEL MX VTO 16KTS BECMG=
200808221500 METAR MROC 221500Z 11010KT CAVOK 26/18 A3002 RMK TRACE SC FEW120 BKN250 VEL MX VTO 16KTS BECMG=
200808221600 METAR MROC 221600Z 12009KT CAVOK 26/17 A3002 RMK TRACE SC FEW120 BKN250 VEL MX VTO 14KTS BECMG=
200808221700 METAR MROC 221700Z 10010KT CAVOK 25/17 A3003 TRACE SCT SCT120 BKN250 VEL MAX VTO 16KTS BECMG=
200808221701 METAR MROC 221701Z 10011KT CAVOK 25/17 A3003 TRACE SCT SCT120 BKN250 VEL MAX VTO 16KTS BECMG=
200808221800 METAR MROC 221800Z 08008KT 9999 FEW035 SCT120 BKN120 26/17 A3001 BECMG=
200808221801 METAR MROC 221801Z 08008KT 9999 FEW035 SCT120 BKN250 26/17 A3001 BECMG=
200808221900 METAR MROC 221900Z 07008KT 9999 FEW035 BKN120 26/16 A2999 BECMG=
200808222000 METAR MROC 222000Z 08007KT 9999 FEW035 SCT120 BKN250 27/18 A2996 BECMG=
200808222100 METAR MROC 222100Z 07010KT 9999 FEW035 SCT120 BKN250 27/16 A2996 BECMG=
200808222200 METAR MROC 222200Z 10008KT 9999 FEW035 SCT120 BKN250 26/16 A2995 BECMG=
200808222300 METAR MROC 222300Z 13006KT 9999 -RA FEW030 SCT120 BKN250 23/18 A2997 BECMG=
200808230000 METAR MROC 230000Z 08015KT 9999 RA FEW020 SCT030 BKN100 21/19 A2999 BECMG=
200808230100 METAR MROC 230100Z 06005KT 9999 RA FEW030 BKN100 21/19 A3001 BECMG=
200808230200 METAR MROC 230200Z 07002KT 9999 FEW030 BKN100 20/18 A3002 RERA BECMG=
200808230300 METAR MROC 230300Z 04006KT CAVOK 20/18 A3004 RMK SCT120 SCT250 BECMG=
200808230400 METAR MROC 230400Z 08002KT CAVOK 20/18 A3005 RMK TRACE SC ST SCT120 BKN250 LTNG DST SW BECMG=
200808230500 METAR MROC 230500Z 33002KT CAVOK 20/18 A3006 RMK TRACE SC ST BKN120 BECMG LTNG DST SW W BECMG=
200808230600 METAR MROC 230600Z 09002KT CAVOK 19/18 A3006 RMK TRACE SC ST SCT120 SCT250 BECMG=
200808230700 METAR MROC 230700Z 03006KT 9999 FEW030 BKN120 20/18 A3003 RMK ST S BECMG=
200808230800 METAR MROC 230800Z 09003KT 9999 FEW030 BKN110 19/18 A3001 BECMG=
200808230900 METAR MROC 230900Z 02004KT 9999 -DZ FEW030 BKN100 19/18 A3000 BECMG -RA=
200808231000 METAR MROC 231000Z 07002KT CAVOK 19/18 A3000 REDZ RMK BKN110 BECMG=
200808231100 METAR MROC 231100Z 10004KT CAVOK 18/18 A3000 RMK SCT120 BECMG=
200808231200 METAR MROC 231200Z 04006KT CAVOK 18/17 A3000 RMK TRACE SC SCT120 BECMG=
200808231300 METAR MROC 231300Z 08007KT CAVOK 21/18 A3003 RMK TRACE SC BKN120 BECMG=
200808231400 METAR MROC 231400Z 09005KT CAVOK 24/18 A3003 RMK TRACE SC SCT120 TCU DST S BECMG=
200808231500 METAR MROC 231500Z 12010KT 9999 FEW040 SCT120 25/18 A3003 BECMG=
200808231600 METAR MROC 231600Z 10009KT 9999 SCT040 26/18 A3004 RMK TCU S BECMG=
200808231700 METAR MROC 231700Z 15005KT 9999 SCT035 SCT130 27/18 A3001 BECMG=
200808231800 METAR MROC 231800Z 22008KT 9999 SCT035 SCT130 26/20 A2998 RMK RN DST E BECMG=
200808231900 METAR MROC 231900Z 23012KT 9999 -DZ FEW020TCU SCT030 SCT110 23/22 A2997 BECMG=
200808232000 METAR MROC 232000Z 02014KT 9999 1000SW R07/0300 -TSSH FEW010CB SCT030 BKN100 21/16 A2998 BECMG 8000 RA=
200808232100 METAR MROC 232100Z 23002KT 9999 -RA FEW010 SCT040 BKN120 20/19 A2999 BECMG=
200808232200 METAR MROC 232200Z 32004KT 9999 -RA FEW010 SCT045 OVC100 20/20 A2998 BECMG=
200808232300 METAR MROC 232300Z 05002KT 9999 SCT045 BKN120 20/19 A2998 RN DST W E BECMG=
200808240000 METAR MROC 240000Z 07003KT 9999 FEW045 BKN120 20/19 A2997 BECMG=
200808240100 METAR MROC 240100Z 07003KT CAVOK 20/19 A2997 TRAZAS SCT BKN120 20/18 A3000 BECMG=
200808240200 METAR MROC 240200Z 08003KT CAVOK 20/18 A3002 TRAZAS SCT BKN120 BECMG=
200808240300 METAR MROC 240300Z 04005KT CAVOK 20/18 A3002 RMK TRACE SC BKN130 BECMG=
200808240400 METAR MROC 240400Z 02004KT CAVOK 19/18 A3003 RMK SCT130 SCT250 BECMG=
200808240500 METAR MROC 240500Z 09004KT CAVOK 19/18 A3002 RMK TRACE SC FEW140 SCT250 BECMG=
200808240600 METAR MROC 240600Z 07004KT CAVOK 18/17 A3001 RMK TRACE SC FEW130 BKN250 BECMG=
200808240700 METAR MROC 240700Z 06004KT CAVOK 18/17 A2999 RMK TRACE SC SCT120 SCT250 BECMG=
200808240800 METAR MROC 240800Z 05004KT CAVOK 19/17 A2998 RMK TRACE SC AC BKN250 BECMG=
200808240900 METAR MROC 240900Z 06005KT CAVOK 18/16 A2998 RMK TRACE SC SCT250 BECMG=
200808241000 METAR MROC 241000Z 04007KT CAVOK 18/16 A2997 RMK TRACE SC SCT250 BECMG=
200808241100 METAR MROC 241100Z 04006KT CAVOK 18/16 A2998 RMK TRACE SC AC FEW250 BECMG=
200808241200 METAR MROC 241200Z 05007KT CAVOK 19/16 A2999 RMK TRACE SC AC CI BECMG=
200808241300 METAR MROC 241300Z 06006KT CAVOK 21/17 A3000 TRAZAS SCT FEW280 BECMG=
200808241400 METAR MROC 241400Z 10004KT CAVOK 24/17 A3001 TRAZAS SCT FEW280 BECMG=
200808241500 METAR MROC 241500Z 10003KT CAVOK 25/17 A3000 TRAZAS SCT FEW280 BECMG=
200808241600 METAR MROC 241600Z 22006KT 9999 FEW035 26/19 A3000 FEW280 BECMG=
200808241700 METAR MROC 241700Z 24009KT 9999 FEW040 SC300 26/18 A3000 BECMG=
200808241800 METAR MROC 241800Z 26011KT 9999 SCT040 26/20 A2998 BECMG=
200808241900 METAR MROC 241900Z 23010KT 9999 SCT040 26/21 A2996 FEW280 RN DST ENE BECMG=
200808242000 METAR MROC 242000Z 26011KT 9999 FEW014TCU SCT025 SCT280 25/21 A2994 RN E BECMG 5000 VCSH=
200808242100 METAR MROC 242100Z 25012KT 9999 VCSH BKN018TCU SCT280 23/21 A2993 RMK RASH DST E BECMG 7000 VCSH=
200808242200 METAR MROC 242200Z 24010KT 9999 VCSH BKN012 SCT280 22/20 A2994 BECMG=
200808242300 METAR MROC 242300Z 25008KT 9999 VCSH SCT008CB BKN012 22/20 A2996 BECMG 4000 TSRA=
200808250000 METAR MROC 250000Z 21003KT 8000 RA SCT007 BKN010CB 21/21 A2997 BECMG=
200808250100 METAR MROC 250100Z 23002KT 9999 VCFG BKN020 21/21 A2999 RMK TRACE ST BECMG 7000 VCFG=
200808250200 METAR MROC 250200Z 27003KT 9999 -RA VCFG SCT025 BKN100 20/20 A3002 RMK TRACE ST BECMG 4000 BR=
200808250300 METAR MROC 250300Z 25004KT 9999 VCFG FEW008 SCT025 BKN100 20/20 A3003 BECMG -RA=
200808250400 METAR MROC 250400Z 25003KT 9999 3000SW BR -RA FEW005 SCT025 BKN100 20/20 A3004 BECMG -RA=
200808250500 METAR MROC 250500Z 15002KT 9999 2000SW BR FEW001 SCT030 OVC100 20/20 A3003 BECMG -RA=
200808250600 METAR MROC 250600Z 00000KT 9999 FEW030 OVC100 20/20 A3002 RMK TRACE ST BECMG -RA=
200808250700 METAR MROC 250700Z 02004KT 9999 FEW030 OVC100 20/20 A2998 RMK TRACE SC BECMG -RA=
200808250800 METAR MROC 250800Z 20004KT 9999 VCFG FEW005 SCT030 BKN100 20/20 A2998 BECMG -RA=
200808250900 METAR MROC 250900Z 27003KT 9999 FEW010 SCT030 BKN100 20/20 A2999 BECMG -RA=
200808251000 METAR MROC 251000Z 00000KT 9999 FEW010 SCT025 BKN100 20/20 A2999 BECMG -RA=
200808251100 METAR MROC 251100Z 00000KT 9999 FEW010 SCT025 BKN100 20/19 A2999 BECMG -RA=
200808251200 METAR MROC 251200Z 10004KT 9999 FEW025 BKN100 19/19 A2998 RMK TRACE ST BECMG=
200808251300 METAR MROC 251300Z 09003KT CAVOK 21/20 A2999 RMK BKN130 BECMG=
200808251400 METAR MROC 251400Z 00000KT CAVOK 23/20 A3002 RMK TRACE ST SC SCT120 BKN250 BECMG 24006KT=
200808251500 METAR MROC 251500Z 27005KT 9999 FEW020 BKN250 24/21 A3002 BECMG=
200808251600 METAR MROC 251600Z 25008KT 9999 SCT020 SCT250 25/21 A3002 RMK TRACE AC BECMG=
200808251700 METAR MROC 251700Z 25008KT 9999 SCT020 SCT250 26/20 A3001 BECMG=
200808251800 METAR MROC NIL=
200808251900 METAR MROC 251900Z 22007KT 9999 SCT025 SCT120 25/21 A2997 BECMG=
200808252000 METAR MROC 252000Z 21008KT 9999 FEW010CB SCT025 BKN100 25/21 A2995 BECMG=
200808252100 METAR MROC 252100Z 24011KT 9999 VCSH SCT015TCU BKN025 24/21 A2994 RMK VIS 5000 SSW RN DST SE S SW BECMG 3000 RA=
200808252200 METAR MROC 252200Z 21007KT 3000 RA BR FEW005 BKN015 20/20 A2995 RMK SCT080 BECMG=
200808252300 METAR MROC 252300Z 24010KT 9999 -RA VCFG FEW005 SCT025 BKN080 20/19 A2998 RMK VIS 6000 SW NE BECMG=
200808260000 METAR MROC 260000Z 23006KT 9999 DZ FEW009 SCT025 BKN090 19/19 A3002 BECMG 7000 RA=
200808260100 METAR MROC 260100Z 29006KT 9999 -RA SCT025 BKN090 19/19 A3003 BECMG=
200808260200 METAR MROC 260200Z 31004KT 9999 RA VCFG FEW005 SCT025 BKN080 19/19 A3006 RMK VIS 6000 SW BECMG=
200808260300 METAR MROC 260300Z 33003KT 9999 -RA FEW035 OVC100 19/19 A3007 BECMG=
200808260400 METAR MROC 260400Z 00000KT 9999 -RA OVC120 19/19 A3008 BECMG=
200808260500 METAR MROC 260500Z 13002KT 9999 -RA SCT030 OVC120 19/19 A3007 BECMG=
200808260600 METAR MROC 260600Z 12002KT 9999 FEW040 OVC120 19/19 A3005 RERA BECMG=
200808260700 METAR MROC 260700Z 09002KT 9999 -DZ FEW045 OVC110 19/19 A3004 BECMG=
200808260800 METAR MROC 260800Z 09003KT 9999 SCT040 BKN120 19/19 A3001 BECMG=
200808260900 METAR MROC 260900Z 10003KT CAVOK 19/18 A3000 BKN120 BECMG=
200808261000 METAR MROC 261000Z 08003KT 9999 BKN040 19/18 A3001 BECMG=
200808261100 METAR MROC 261100Z 01002KT 9999 BKN035 19/19 A3002 BECMG=
200808261200 METAR MROC 261200Z 00000KT 9999 SCT015 SCT040 19/19 A3003 VSBY N NW 7KM DUE RN RN DST S SW BECMG 5000 RA=
200808261300 METAR MROC 261300Z 35002KT 9999 FEW025 BKN100 20/19 A3004 RMK TRACE ST SW BECMG=
200808261400 METAR MROC 261400Z 12002KT 9999 FEW025 SCT120 22/20 A3005 BECMG 24006KT=
200808261500 METAR MROC 261500Z 23002KT 9999 FEW025 SCT120 25/20 A3006 RMK FEW250 BECMG=
200808261600 METAR MROC 261600Z 24005KT 9999 FEW025 BKN100 24/20 A3006 BECMG=
200808261700 METAR MROC 261700Z 28005KT 9999 FEW025 BKN100 26/19 A3005 BECMG=
200808261800 METAR MROC 261800Z 25006KT 9999 FEW015TCU SCT025 BKN100 26/20 A3002 BECMG=
200808261900 METAR MROC 261900Z 23008KT 9999 RA FEW015CB SCT025 BKN100 24/21 A3000 BECMG 7000 -TSRA=
200808262000 METAR MROC 262000Z 24010KT 9999 SCT020 BKN100 26/22 A2998 RMK RN DST SW NE BECMG=
200808262100 METAR MROC 262100Z 24010KT 9999 4000SW DZ VCSH FEW003 SCT012TCU BKN070 21/21 A2999 BECMG 5000 -TSRA=
200808262200 METAR MROC 262200Z 27006KT 9999 VCFG SCT008 BKN020 22/20 A2999 RMK VIS S SSW 7KMS BECMG 5000 -RA=
200808262201 METAR MROC 262201Z COR 27006KT 9999 VCFG SCT008 BKN020 22/20 A2999 REDZ RMK VIS S SSW 7KMS BECMG 5000 -RA=
200808262300 METAR MROC 262300Z 25006KT 9999 FEW008 SCT020TCU BKN030 21/19 A3000 RMK SCT RN DST ARND BECMG 5000 -RA BR=
200808270000 METAR MROC 270000Z 25004KT 9999 FEW012 SCT025 BKN035 20/19 A3003 RMK TRACE LOW ST NEAR APCH RNY 07 BECMG 5000 -RA BR=
200808270100 METAR MROC 270100Z 27003KT 5000 -RA BR SCT003 SCT020 BKN030 20/20 A3006 RMK VIS SE 8KMS BECMG 3000=
200808270200 METAR MROC 270200Z 00000KT 9999 FEW002 SCT030 BKN100 20/20 A3006 RERA BECMG 5000 BR=
200808270300 METAR MROC 270300Z 16002KT 9999 FEW015 SCT120 20/20 A3007 BECMG=
200808270400 METAR MROC 270400Z 26002KT 9999 FEW015 SCT120 20/20 A3010 BECMG 04005KT=
200808270500 METAR MROC 270500Z 00000KT 4000 -RA BR SCT005 BKN100 20/20 A3009 BECMG 2000 -RA BR=
200808270600 METAR MROC 270600Z 00000KT 9999 VCFG FEW003 SCT120 20/20 A3006 BECMG=
200808270700 METAR MROC 270700Z 11003KT CAVOK 20/20 A3003 RMK SCT120 BECMG=
200808270800 METAR MROC 270800Z 11003KT CAVOK 20/19 A3001 RMK SCT120 BECMG=
200808270900 METAR MROC 270900Z 07003KT CAVOK 20/18 A2999 RMK BKN120 BECMG=
200808271000 METAR MROC 271000Z 00000KT CAVOK 19/19 A2999 RMK TRACE ST BKN120 BECMG=
200808271100 METAR MROC 271100Z 00000KT 9999 VCFG FEW001 BKN120 19/19 A3001 BECMG=
200808271200 METAR MROC 271200Z 11002KT 9999 3000SW BR FEW001 BKN110 18/18 A3002 BECMG UNL=
200808271300 METAR MROC 271300Z 06002KT CAVOK 20/19 A3003 RMK TRACE ST BKN120 LGT HZ ARND BECMG=
200808271400 METAR MROC 271400Z 16002KT CAVOK 21/20 A3006 RMK BKN100 LGT HZ ARND TCU DST SSW BECMG 24006KT=
200808271500 METAR MROC 271500Z 22002KT CAVOK 23/19 A3006 RMK TRACE CU BKN100 TCU DST SSW BECMG=
200808271600 METAR MROC 271600Z 25005KT 9999 FEW035 SCT220 25/19 A3004 RMK TRACE AC BECMG=
200808271700 METAR MROC 271700Z 24007KT 9999 FEW030 SCT230 25/19 A3003 BECMG=
200808271800 METAR MROC 271800Z 24009KT 9999 FEW025 SCT250 26/21 A3003 RMK CB DST E N TCU SE S BECMG=
200808271900 METAR MROC 271900Z 24009KT 9999 SCT030 SCT250 27/22 A2999 RMK SCT TCU DST ARND BECMG=
200808272000 METAR MROC 272000Z 24008KT 9999 FEW020TCU SCT030 BKN250 26/22 A2996 RMK CB RASH DST S BECMG=
200808272100 METAR MROC 272100Z 24014KT 9999 FEW020TCU SCT030 BKN250 24/22 A2994 BECMG=
200808272200 METAR MROC 272200Z 24006KT 9999 FEW015TCU SCT030 BKN100 23/21 A2995 RMK CB RN N NE TRACE CI BECMG 8000 -RA=
200808272300 METAR MROC 272300Z 24007KT 9999 RA FEW005 SCT030 BKN100 22/21 A2996 BECMG 8000 -RA=
200808280000 METAR MROC 280000Z 26008KT 9999 FEW005 SCT030 BKN100 21/21 A2998 BECMG 8000 -RA=
200808280100 METAR MROC 280100Z 27005KT 6000 1000SW BR FEW001 SCT008 BKN020 21/21 A2999 BECMG 3000 -RA=
200808280200 METAR MROC 280200Z 27004KT 8000 1000SW BR FEW001 SCT008 BKN020 21/21 A3002 BECMG 2500 BR -RA=
200808280300 METAR MROC 280300Z 34002KT 9999 VCFG FEW003 BKN010 21/20 A3003 RMK VIS 6000SW BECMG=
200808280400 METAR MROC 280400Z 32004KT 8000 3000SW -RA BR SCT003 BKN010 20/20 A3005 BECMG 2000 -DZ BR=
200808280500 METAR MROC 280500Z 25004KT 8000 3000SW BR SCT003 BKN100 20/20 A3005 BECMG 3000 BR=
200808280600 METAR MROC 280600Z 32003KT 8000 3000SW BR FEW002 BKN007 20/20 A3002 BECMG 2000 -RA BR=
200808280700 METAR MROC 280700Z 23003KT 8000 BR SCT003 BKN010 20/10 A3000 RMK VIS SW 4KM BECMG 3000 -RA BR SCT002 BKN010=
200808280800 METAR MROC 280800Z 27005KT 5000 2000SW +DZ BR BKN003 BKN008 20/20 A2998 BECMG 1500 BR BKN001=
200808280900 METAR MROC 280900Z 22002KT 5000 1500SW BR SCT002 SCT012 20/20 A2996 BECMG 1000BR BKN001=
200808281000 METAR MROC 281000Z 11002KT 9999 FEW003 SCT025 20/20 A2995 RMK ST SSE/S/SW BECMG=
200808281100 METAR MROC 281100Z 06002KT 9999 VCFG FEW003 SCT025 20/20 A2997 RMK FEW120 VIS 7KM S DUE ST BECMG=
200808281200 METAR MROC 281200Z 00000KT 9999 BR FEW003 SCT030 20/20 A2997 RMK VIS 5000SSW SCT120 BECMG=
200808281300 METAR MROC 281300Z 00000KT 3000 BR FEW001 SCT030 20/20 A2998 RMK VIS NW N UNL BECMG 9999=
200808281400 METAR MROC 281400Z 00000KT 8000 VCFG SCT010 SCT030 21/20 A3001 BECMG 9999=
200808281500 METAR MROC 281500Z 00000KT 9999 FEW015 SCT030 BKN120 24/19 A3002 RMK TRACE CI BECMG=
200808281600 METAR MROC 281600Z 25005KT 9999 FEW015 BKN030 25/20 A3001 RMK TRACE CI AC BECMG=
200808281700 METAR MROC 281700Z 24009KT 9999 FEW015TCU BKN030 24/20 A3001 RMK TRACE CI AC BECMG=
200808281800 METAR MROC 281800Z 21006KT 9999 FEW015TCU BKN030 25/20 A2998 RMK TRACE CI AC RN NE BECMG=
200808281900 METAR MROC 281900Z 26011KT 9999 FEW015TCU SCT030 SCT100 26/22 A2994 RMK RN TRACE CI BECMG=
200808282000 METAR MROC 282000Z 24011KT 9999 -RA FEW010CB BKN025 22/20 A2992 BECMG 7000 RA=
200808282100 METAR MROC 282100Z 23012KT 2500 -RA BR FEW001 SCT005 BKN012 20/20 A2992=
200808282200 METAR MROC 282200Z 25007KT 6000 -RA VCFG SCT005 SCT012 20/20 A2994 BECMG=
200808282300 METAR MROC 282300Z 24003KT 2500 RA BR SCT004 BKN010 20/20 A2994 BECMG=
200808290000 METAR MROC 290000Z 29003KT 6000 -RA BR SCT005 BKN035 20/20 A2995 BECMG=
200808290100 METAR MROC 290100Z 34004KT 9999 -RA FEW006 BKN030 20/20 A2998 BECMG=
200808290200 METAR MROC 290200Z 26004KT 9999 RA FEW012 BKN030 20/20 A3000 BECMG=
200808290300 METAR MROC 290300Z 22003KT 5000 -RA BR FEW003 SCT008 BKN015 19/19 A3002 RMK VIS NW N 3KMS BECMG=
200808290400 METAR MROC 290400Z 24005KT 5000 BR SCT003 BKN006 19/19 A3002 RERA BECMG 2000=
200808290500 METAR MROC NIL=
200808290600 METAR MROC NIL=
200808290700 METAR MROC NIL=
200808290800 METAR MROC NIL=
200808290900 METAR MROC NIL=
200808291000 METAR MROC NIL=
200808291100 METAR MROC NIL=
200808291200 METAR MROC NIL=
200808291300 METAR MROC NIL=
200808291400 METAR MROC 291400Z 00000KT 9999 FEW035 BKN090 22/19 A2997 BECMG=
200808291500 METAR MROC 291500Z 26003KT 9999 FEW030 BKN100 24/19 A2997 BECMG=
200808291600 METAR MROC 291600Z 25005KT 9999 FEW020 BKN100 25/19 A2997 BECMG=
200808291700 METAR MROC 291700Z 23007KT 9999 SCT020 SCT030 24/20 A2997 RN DST S BECMG=
200808291714 METAR MROC 291714Z 19004KT 9999 3000SW -RA FEW010 BKN025 27/24 A2981=
200808291800 METAR MROC 291800Z 21008KT 9999 SCT020 SCT280 24/20 A2994 FEW120 RN SW/ESE BECMG=
200808291900 METAR MROC 291900Z 23011KT 9999 FEW012 SCT020 24/20 A2992 RN DST ARND FEW280 BECMG=
200808292000 METAR MROC 292000Z 25007KT 9999 FEW015 SCT120 BKN250 25/21 A2989 RN ESE BECMG=
200808292100 METAR MROC 292100Z 25008KT 9999 SCT015TCU SCT120 BKN250 24/21 A2986 RMK RN DST HVH727 292100Z GG KATLYTYX 292100Z MHTGYGYX SVC LR VHH375 EXP VHH376 DUPE=
200808292200 METAR MROC 292200Z 24010KT 9999 VCSH FEW006 SCT020 BKN120 22/20 A2985 RMK RN DST ESE S BECMG 5000 -RA BR=
200808292300 METAR MROC 292300Z 25006KT 8000 VCFG SCT004 BKN010 21/21 A2986 BECMG 2000 BR=
200808300000 METAR MROC 300000Z 23006KT 5000 BR SCT003 BKN008 20/20 A2989 BECMG=
200808300100 METAR MROC 300100Z 26003KT 4000 -RA BR SCT003 BKN010 20/20 A2992 BECMG=
200808300200 METAR MROC 300200Z 23006KT 0600 -RA FG BKN002 20/20 A2994 BECMG=
200808300300 METAR MROC 300300Z 00000KT 3000 -RA BR FEW001 SCT010 OVC100 19/19 A2997 BECMG=
200808300400 METAR MROC 300400Z 00000KT 7000 3000SW RA BR FEW001 SCT020 OVC100 20/20 A2998 BECMG 4000 -RA BR=
200808300500 METAR MROC 300500Z 00000KT 9999 -DZ FEW005 SCT020 OVC100 20/20 A2997 BECMG 6000 VCFG=
200808300600 METAR MROC 300600Z 00000KT 9999 FEW003 SCT030 OVC100 20/20 A2995 BECMG 6000 VCFG=
200808300700 METAR MROC 300700Z 24003KT 9999 2000SW BR FEW001 SCT020 OVC100 20/20 A2993 BECMG0 6000 VCFG=
200808300800 METAR MROC 300800Z 26004KT 5000 BR FEW001 SCT010 OVC100 20/20 A2989 BECMG0 1000 BR=
200808300900 METAR MROC 300900Z 00000KT 5000 -RA BR FEW01 SCT010 OVC100 19/19 A2989 BECMG 1000 BR=
200808301000 METAR MROC 301000Z 00000KT 5000 BR FEW001 SCT010 OVC100 19/19 A2989 RERA BECMG 1000 BR=
200808301100 METAR MROC 301100Z 00000KT 6000 2000SW BR FEW001 SCT008 OVC100 19/19 A2990 BECMG 2000BR=
200808301200 METAR MROC 301200Z 00000KT 6000 2000SW BR FEW001 SCT008 OVC100 19/19 A2991 BECMG=
200808301300 METAR MROC 301300Z 00000KT 7000 VCFG SCT008 BKN100 20/20 A2993 RMK BECMG 9999=
200808301400 METAR MROC 301400Z 20002KT 8000 VCFG SCT010 BKN100 22/20 A2996 BECMG 6000 -RA VCFG=
200808301500 METAR MROC 301500Z 25005KT 9999 VCFG SCT010 BKN100 23/20 A2996 BECMG=
200808301600 METAR MROC 301600Z 25005KT 9999 VCFG SCT010 BKN100 23/20 A2996 BECMG=
200808301700 METAR MROC 301700Z 23006KT 9999 FEW005 SCT010 BKN100 23/20 A2995 RMK DZ DST E S SW BECMG=
200808301800 METAR MROC 301800Z 27006KT 8000 RA VCFG FEW005 SCT010 BKN100 23/21 A2993 BECMG 4000 BR=
200808301900 METAR MROC 301900Z 27004KT 8000 RA VCFG FEW006 SCT010 BKN100 22/21 A2991 RMK VIS E 5000 BECMG 4000 -RA BR=
200808302000 METAR MROC 302000Z 30004KT 9999 SCT010 BKN100 23/21 A2987 BECMG=
200808302100 METAR MROC 302100Z 34004KT 9999 VCSH SCT015 BKN100 23/21 A2986 RMK VIS 7000SW TRACE ST BECMG 5000 -RA BR=
200808302200 METAR MROC 302200Z 26008KT 8000 FEW002 SCT008 BKN100 21/21 A2987 RMK VIS 4000 SW NW VCSH BR BECMG 3000 -RA BR=
200808302300 METAR MROC 302300Z 28006KT 4000 -RA BR SCT004 BKN012 21/21 A2989 BECMG 1500 -RA BR=
200808310000 METAR MROC 310000Z 27006KT 3000 RA BR FEW002 SCT005 BKN012 20/20 A2991 BECMG=
200808310100 METAR MROC 310100Z 30003KT 8000 RA FEW003 SCT010 BKN080 20/20 A2994 RMK VIS 5000 SW BR BECMG=
200808310200 METAR MROC 310200Z 33003KT 8000 -RA FEW005 SCT010 BKN080 20/20 A2997 RMK 5000 SW BR BECMG=
200808310300 METAR MROC 310300Z 00000KT 9999 FEW015 SCT100 20/20 A2998 RMK RERA BECMG=
200808310400 METAR MROC NIL=
200808310500 METAR MROC 310500Z 12003KT 9999 FEW025 SCT100 19/19 A2997 BECMG=
200808310600 METAR MROC 310600Z 08004KT 9999 FEW030 BKN120 19/19 A2994 BECMG=
200808310700 METAR MROC 310700Z 07005KT CAVOK 20/19 A2992 RMK BKN120 BECMG=
200808310800 METAR MROC 310800Z 06005KT CAVOK 20/19 A2990 RMK SCT120 BECMG=
200808310900 METAR MROC 310900Z 07003KT CAVOK 19/19 A2989 RMK BKN120 BECMG=
200808311000 METAR MROC 311000Z 08003KT CAVOK 19/19 A2990 RMK SCT120 BECMG=
200808311100 METAR MROC 311100Z 03003KT CAVOK 18/18 A2992 TRACE SCT FEW120 BECMG=
200808311200 METAR MROC 311200Z 07004KT CAVOK 18/17 A2993 TRACE SCT AC OVC250 BECMG=
200808311300 METAR MROC 311300Z 11003KT CAVOK 19/18 A2995 RMK SCT120 BKN250 BECMG=
200808311400 METAR MROC 311400Z 00000KT CAVOK 23/18 A2998 RMK TRACE CU SCT140 BKN250 BECMG=
200808311500 METAR MROC 311500Z 21003KT 9999 FEW030 SCT140 BKN250 24/19 A2998 BECMG=
200808311600 METAR MROC 311600Z 24006KT 9999 FEW030 BKN250 25/20 A2999 BECMG=
200808311700 METAR MROC 311700Z 24007KT 9999 FEW030 SCT120 BKN250 25/21 A2995 BECMG=
200808311800 METAR MROC 311800Z 25006KT 9999 SCT020 SCT120 25/20 A2996 RMK FEW250 BECMG 7000 VCSH=
200808311900 METAR MROC 311900Z 24008KT 9999 SCT020 BKN120 26/20 A2993 RMK FEW250 BECMG=
200808312000 METAR MROC 312000Z 25008KT 9999 FEW015 SCT020 BKN120 25/22 A2990 BECMG=
200808312100 METAR MROC 312100Z 24009KT 9999 FEW015TCU SCT025 24/21 A2989 BECMG=
200808312200 METAR MROC 312200Z 25007KT 9999 SCT010 BKN035 23/21 A2988 RMK PCPN DST HVH370 312200Z GG KATLYTYX 312200Z MHTGYGYX SVC LR VHH782 EXP VHH783 DUPE=
200808312300 METAR MROC 312300Z 25007KT 9999 SCT007 BKN015 22/21 A2990 RMK RN DST S SW RASH DST ESE BECMG 7000 -RA VCSH=
200808312335 METAR MROC 312335Z 25007KT 7000 RA FEW004 SCT015 BKN025 21/21 A2993 BECMG 4000=
200809010000 METAR MROC 010000Z 26007KT 7000 -RA VCSH SCT003 SCT010 BKN020 21/21 A2993 SCT RASH ARND BECMG 5000 -RA BR=
200809010100 METAR MROC 010100Z 24007KT 5000 BR SCT003 BKN007 21/21 A2994 RMK VIS SW 3KMS BECMG 2000=
200809010110 METAR MROC 010110Z 25008KT 3200 R07/1500 -RADZ BR BKN002 SCT006 20/20 A2995 BECMG 2000=
200809010200 METAR MROC 010200Z 26007KT 0800 R07/0350 DZ FG VV/// 20/20 A2997 BECMG=
200809010300 METAR MROC 010300Z 26004KT 1200 BR BKN003 20/20 A2999 BECMG=
200809010400 METAR MROC 010400Z 29005KT 2000 BR SCT003 BKN012 20/20 A3001 BECMG=
200809010500 METAR MROC 010500Z 00000KT 4000 BR SCT004 BKN010 20/20 A3000 BECMG=
200809010600 METAR MROC NIL=
200809010700 METAR MROC NIL=
200809010800 METAR MROC 010800Z 13002KT 9999 FEW030 BKN120 20/20 A2995 BECMG=
200809010900 METAR MROC 010900Z 00000KT 9999 FEW030 BKN120 20/20 A2995 RMK TRACE ST=
200809011000 METAR MROC 011000Z 14002KT 9999 FEW004 SCT025 20/20 A2996 BECMG=
200809011100 METAR MROC 011100Z 00000KT 9999 FEW002 SCT025 BKN120 19/19 A2996 BECMG=
200809011200 METAR MROC 011200Z 09003KT 9999 VCFG FEW003 BKN250 19/19 A2996 RMK LOW ST SW 6000 BECMG=
200809011300 METAR MROC 011300Z 34003KT 9999 4000SW BR OVC250 20/20 A2998 RMK TRACE SC AC FG BANK NEAR APCH RNY 07 BECMG CAVOK=
200809011400 METAR MROC 011400Z 29002KT 9999 VCFG FEW003 BKN250 23/19 A3000 RMK TRACE CU VIS S SW 7KMS BECMG=
200809011500 METAR MROC 011500Z 21003KT 8000 FEW020 BKN250 23/21 A3001 RMK HZY BECMG=
200809011600 METAR MROC 011600Z 27004KT 9999 FEW025 BKN250 25/21 A3002 RMK LGT HZ ARND BECMG=
200809011700 METAR MROC 011700Z 25007KT 9999 SCT025 BKN250 25/21 A3000 RMK DVLPNG TCU ARND BECMG=
200809011800 METAR MROC 011800Z 24011KT 9999 SCT025 BKN250 26/19 A2997 RMK TCU RASH DST E ESE=
200809011900 METAR MROC 011900Z 24009KT 9999 VCTS FEW015CB BKN035 25/21 A2995 RMK VIS N NW 8KMS DUE RASH BECMG 5000 -TSRA=
200809012000 METAR MROC 012000Z 24009KT 7000 RA FEW015CB SCT025 BKN140 23/21 A2993 RMK VIS SE S UNLTD BECMG 4000 -TSRA=
200809012100 METAR MROC 012100Z 28003KT 3000 RA BR FEW001 FEW015CB SCT025 OVC120 20/20 A2994 BECMG=
200809012200 METAR MROC 012200Z 36005KT 6000 3000N RA BR FEW001 SCT020 OVC120 20/20 A2995 BECMG 4000 RA=
200809012300 METAR MROC 012300Z 08004KT 9999 3000SW -RA BR FEW001 SCT020 OVC120 20/19 A2996 BECMG 6000 -RA=
200809020000 METAR MROC 020000Z 10002KT 9999 3000SW -RA BR FWE001 SCT030 OVC100 20/20 A2998 BECMG 6000 RA=
200809020100 METAR MROC 020100Z 26003KT 3000 RA BR FEW001 SCT015 OVC100 19/19 A3003 BECMG 1500 -RA BR=
200809020200 METAR MROC 020200Z 32002KT 3000 RA BR FEW001 SCT008 OVC100 19/19 A3004 BECMG 1000 BR=
200809020300 METAR MROC 020300Z 08003KT 9999 FEW015 BKN100 19/19 A3005 RMK TRACE ST BECMG=
200809020400 METAR MROC 020400Z 09004KT CAVOK 19/19 A3004 RMK BKN120 BECMG=
200809020500 METAR MROC 020500Z 08004KT CAVOK 20/19 A3003 RMK BKN120 TRACE ST SSW BECMG=
200809020600 METAR MROC 020600Z 30004KT 9999 4500SW BR SCT003 BKN120 19/19 A3004 BECMG 1000 BR=
200809020700 METAR MROC 020700Z 33002KT 6000 1500S VCFG BR SCT002 SCT015 19/19 A3002 BECMG 0500 VV///=
200809020800 METAR MROC 020800Z 10002KT 8000 2000SW VCFG BR FEW002 SCT025 BKN100 19/19 A2999 BECMG 6000 -RA VCFG SCT003 BKN100=
200809020900 METAR MROC 020900Z 06003KT 9999 FEW005 SCT025 19/19 A2998 RMK SCT100 ST SSE/S BECMG -DZRA=
200809021000 METAR MROC 021000Z 09003KT 9999 SCT025 SCT100 19/19 A2997 RMK ST S BECMG=
200809021100 METAR MROC 021100Z 07004KT 9999 SCT030 BKN100 19/19 A2998 RMK ST S BECMG CAVOK=
200809021200 METAR MROC 021200Z 07004KT 9999 SCT030 BKN100 20/19 A2998 RMK ST S BECMG=
200809021300 METAR MROC 021300Z 08003KT 9999 SCT030 BKN100 21/19 A2998 RMK TRACE ST BECMG=
200809021400 METAR MROC 021400Z 12002KT 9999 FEW030 SCT120 23/19 A3000 BECMG=
200809021500 METAR MROC 021500Z 00000KT 9999 FEW030 SCT250 24/18 A3000 BECMG=
200809021600 METAR MROC 021600Z 25005KT 9999 BKN030 25/19 A3001 BECMG=
200809021700 METAR MROC 021700Z 22008KT 9999 SCT030 FEW300 26/21 A3001 BECMG=
200809021800 METAR MROC 021800Z 26010KT 9999 FEW015 SCT030 25/22 A2998 BECMG=
200809021900 METAR MROC 021900Z 26009KT 9999 FEW015 BKN030 25/20 A2997 BECMG=
200809022000 METAR MROC 022000Z 26012KT 9999 FWE008 SCT015 BKN030 23/21 A2995 BECMG 8000 VCSH=
200809022100 METAR MROC 022100Z 26008KT 9999 BKN012 SCT025 22/21 A2995 VSBY N 6KM LOW ST BECMG=
200809022200 METAR MROC 022200Z 26006KT 9999 -RA FEW008 SCT020 BKN120 22/21 A2996 VSBY N NE 6KM LOW ST BECMG=
200809022300 METAR MROC 022300Z 29004KT 9999 -RA SCT006 BKN012 21/21 A2996 VSBY N NE 6KM LOW ST BECMG 5000 RA=
200809030000 METAR MROC 030000Z 27003KT 9999 -RA SCT006 BKN010 21/21 A2999 VSBY N 6KM LOW ST BECMG=
200809030100 METAR MROC 030100Z 26007KT 7000 RA FEW003 BKN008 20/20 A3001 BECMG=
200809030200 METAR MROC 030200Z 34003KT 9999 RA FEW008 SCT045 BKN080 20/19 A3002 BECMG=
200809030300 METAR MROC 030300Z 16002KT 9999 -DZ OVC100 20/20 A3002 RERA RMK TRACE ST SC LTNG DIST SSW BECMG=
200809030400 METAR MROC 030400Z 27002KT 7000 VCFG SCT004 BKN008 20/20 A3002 RMK VIS SW W 4KMS DUE BR VIS E SE UNLTD BECMG 3000 BR=
200809030500 METAR MROC 030500Z 07003KT 7000 VCFG SCT006 BKN100 20/20 A3003 RMK VIS E SE UNLTD BECMG=
200809030600 METAR MROC 030600Z 00000KT 2500 R07/1400 -RADZ BR BKN008 SCT100 20/20 A3001 BECMG 5000=
200809030700 METAR MROC 030700Z 00000KT 3000 R07/1100 -RADZ BR SCT002 BKN006 20/20 A3006 BECMG=
200809030800 METAR MROC 030800Z 00000KT 9999 VCFG SCT025 BKN100 20/20 A2998 RERADZ RMK VIS 6KMS S SSW BECMG=
200809030900 METAR MROC 030900Z 00000KT 9999 VCFG BKN025 SCT100 20/20 A2997 RMK VIS S SSW 7KMS BECMG=
200809031000 METAR MROC 031000Z 00000KT 8000 VCFG FEW003 SCT006 BKN020 20/20 A2998 RMK VIS WSW W 4KMS BECMG 2000=
200809031100 METAR MROC 031100Z 00000KT 4000 DZ BR SCT003 BKN020 20/20 A2999 BECMG 2000=
200809031200 METAR MROC 031200Z 00000KT 2500 BR FEW001 SCT010 BKN020 20/20 A3000 BECMG=
200809031300 METAR MROC 031300Z 00000KT 5000 -DZ BR FEW001 SCT008 BKN035 20/20 A3001 VSBY N NE 3KM VSBY S SE UNL VECMG 7000 VCFG=
200809031400 METAR MROC 031400Z 34002KT 9999 SCT012 SCT120 BKN280 22/20 A3003 VSBY N NE 5KM LOW ST BECMG=
200809031500 METAR MROC 031500Z 25005KT 5000 -RA BR SCT010 BKN280 21/21 A3003 VSBY ESE SE S SW UNL VSBY N NE 3KM LOW ST CONDICIONES VARABLES BECMG=
200809031600 METAR MROC 031600Z 25006KT 9999 BKN015 SCT280 23/21 A3002 RN E SE S SW W BECMG=
200809031700 METAR MROC 031700Z 25009KT 7000 -DZ SCT012 SCT025 22/21 A3001 VSBY S SE UNL VSBY N 4KM BECMG=
200809031800 METAR MROC 031800Z 23005KT 9999 BKN015 SCT120 23/21 A2999 RN DST W N BECMG=
200809031900 METAR MROC 031900Z 24010KT 9999 SCT015 BKN250 25/22 A2995 VSBY N 7KM LOW ST RN E/W BECMG=
200809032000 METAR MROC 032000Z 25010KT 9999 BKN015 SCT035 23/21 A2993 VSBY SW 6KM DUE RN/ RN DST E BECMG=
200809032100 METAR MROC 032100Z 23008KT 1200 -RA BR SCT003 BKN008 20/20 A2993 BECMG=
200809032200 METAR MROC 032200Z 20006KT 2000 -RA BR SCT004 BKN010 20/20 A2993 BECMG=
200809032300 METAR MROC 032300Z 20006KT 9000 4000NE BR SCT004 BKN010 20/20 A2992 BECMG=
200809040000 METAR MROC 040000Z 21003KT 9000 VCFG FEW003 BKN010 20/20 A2993 BECMG=
200809040100 METAR MROC 040100Z 25002KT 8000 VCFG FEW002 BKN010 20/20 A2995 BECMG 4000 BR=
200809040200 METAR MROC 040200Z 21006KT 1200 RA BR SCT001 BKN007 20/20 A2998 BECMG=
200809040300 METAR MROC 040300Z 24004KT 9999 FEW015 SCT025 OVC100 20/20 A2999 BECMG 5000 -RA BR=
200809040400 METAR MROC 040400Z 30002KT 9999 FEW015 SCT025 OVC100 20/20 A3001 BECMG 5000 -RA BR=
200809040500 METAR MROC 040500Z 30002KT 9999 FEW010 SCT025 BKN100 20/20 A3000 BECMG 5000 -RA BR=
200809040600 METAR MROC 040600Z 00000KT 9999 FEW010 SCT025 BKN100 20/20 A2999 BECMG 5000 -RA BR=
200809040700 METAR MROC 040700Z 29004KT 7000 VCFG FEW002 SCT025 BKN100 20/20 A2998 BECMG 3000 -RA BR=
200809040800 METAR MROC 040800Z 32003KT 7000 -RA FEW002 SCT025 BKN100 19/19 A2995 BECMG 3000 BR=
200809040900 METAR MROC 040900Z 13002KT 8000 FEW002 SCT025 BKN100 19/19 A2999 BECMG 3000 BR=
200809041000 METAR MROC 041000Z 12002KT 9999 FEW010 SCT030 BKN100 19/19 A2995 BECMG 5000 -RA BR=
200809041100 METAR MROC 041100Z 09002KT 9999 FEW010 SCT030 BKN100 19/19 A2995 BECMG 5000 -RA BR=
200809041200 METAR MROC 041200Z 00000KT 9999 3000SW BR FEW001 SCT030 OVC100 20/20 A2996 RMK VIS N NE 4000 DUE ST LOW BECMG -RA=
200809041300 METAR MROC 041300Z 30002KT 7000 VCFG FEW002 SCT020 OVC100 20/20 A2997 BECMG UNL=
200809041400 METAR MROC 041400Z 23002KT 8000 VCFG FEW003 SCT015 OVC100 21/20 A3000 BECMG=
200809041500 METAR MROC 041500Z 28004KT 8000 VCFG FEW004 SCT015 OVC100 22/20 A3000 BECMG 6000 -RA FG=
200809041600 METAR MROC 041600Z 23008KT 7000 -DZ VCFG SCT003 BKN015 21/20 A2999 BECMG 3000 -RA BR=
200809041700 METAR MROC 041700Z 23005KT 5000 BR SCT002 BKN015 21/19 A2999 RMK RERA BECMG=
200809041800 METAR MROC 041800Z 25007KT 9999 -DZ FEW003 SCT015 BKN025 22/20 A2997 RMK TRAZAS ST BECMG 5000 -RA BR=
200809041900 METAR MROC 041900Z 23016KT 0800 R07/0325 +RA SCT001 OVC010 19/19 A2994 BECMG=
200809042000 METAR MROC 042000Z 24006KT 8000 VCFG FEW003 SCT020 OVC100 20/20 A2993 BECMG=
200809042100 METAR MROC 042100Z 24004KT 7000 -DZ VCFG SCT012 BKN020 21/21 A2992 BECMG 4000 RA BR=
200809042200 METAR MROC 042200Z 23007KT 5000 2000SW DZ BR FEW003 SCT010 BKN020 21/20 A2992 BECMG 2000 +RA BR=
200809042300 METAR MROC 042300Z 23006KT 9999 FEW012 SCT020 BKN080 20/20 A2992 BECMG=
200809050000 METAR MROC 050000Z 28006KT 9999 SCT025 BKN090 20/20 A2994 BECMG=
200809050100 METAR MROC 050100Z 28005KT 7000 DZ VCFG FEW003 SCT012 BKN025 20/20 A2995 RMK VIS 9999 E BECMG RA=
200809050200 METAR MROC 050200Z 24006KT 5000 DZ BR SCT005 BKN020 20/20 A2996 BECMG 3000 -RA BR=
200809050300 METAR MROC 050300Z 25005KT 0500 R07/0450 -DZ FG VV/// 19/19 A3000 BECMG=
200809050400 METAR MROC 050400Z 27004KT 5000 R07/0400 BR FEW002 SCT004 BKN010 19/19 A3001 VSBY SW 3KM BECMG=
200809050500 METAR MROC 050500Z 30004KT 9999 FEW005 OVC080 19/19 A3000 VIS SW 6KM BECMG=
200809050600 METAR MROC 050600Z 30005KT 9999 SCT008 OVC080 19/19 A2999 VIS SW 8KM BECMG=
200809050700 METAR MROC 050700Z 28005KT 5000 R07/0900 - RABR SCT003 OVC020 19/19 A2998 CNDS VRBL BECMG=
200809050800 METAR MROC 050800Z 01003KT 9999 FEW008 BKN025 19/19 A2996 BECMG=
200809050900 METAR MROC 050900Z 34002KT 9999 BKN032 19/19 A2995 BECMG=
200809051000 METAR MROC 051000Z 14002KT 9999 DZ SCT035 BKN100 19/19 A2996 BECMG=
200809051100 METAR MROC 051100Z 08002KT 9999 -RA FEW045 BKN090 19/19 A2997 BECMG=
200809051200 METAR MROC 051200Z 10002KT 9999 FEW045 BKN120 19/19 A2998 BECMG=
200809051300 METAR MROC 051300Z 09003KT 9999 FEW045 BKN120 20/20 A2998 BECMG=
200809051400 METAR MROC 051400Z 00000KT CAVOK 21/20 A3001 RMK SCT090 BKN120 BECMG=
200809051500 METAR MROC 051500Z 10002KT CAVOK 23/20 A3001 RMK SCT120 BKN250 TRACE SC BECMG=
200809051600 METAR MROC 051600Z 31003KT 9999 FEW030 SCT120 BKN250 25/19 A3001 BECMG=
200809051700 METAR MROC 051700Z 25007KT 9999 FEW030 BKN120 26/20 A3001 BECMG=
200809051800 METAR MROC 051800Z 27006KT 9999 SCT025 BKN100 26/20 A2999 BECMG=
200809051900 METAR MROC 051900Z 26005KT 9999 SCT025 BKN100 26/21 A2997 RMK RN DST NW BECMG 7000 VCSH=
200809052000 METAR MROC 052000Z 23007KT 9999 FEW015CB SCT025 SCT100 26/21 A2995 RMK VIS 7000 N NE DUE RN BECMG=
200809052100 METAR MROC 052100Z 21008KT 9999 4000E VCSH SCT012CB BKN025 23/19 A2994 BECMG 2000 SHRA=
200809052200 METAR MROC 052200Z 14002KT 7000 3000N -DZ VCSH FEW010 BKN035 21/20 A2996 RERASH VIS S SE UNLTD BECMG=
200809052300 METAR MROC 052300Z 03006KT 5000 2000N -RA VCSH SCT010 BKN020 20/20 A2997 RMK VIS ESE SSE UNLTD BECMG=
200809060000 METAR MROC 060000Z 01004KT 7000 -RA FEW017 SCT035 BKN100 20/20 A3000 RMK VIS E SE UNLTD BECMG=
200809060100 METAR MROC 060100Z 00000KT 9999 -RA FEW020 SCT030 BKN100 20/20 A3001 RMK TRACE LOW ST BECMG=
200809060200 METAR MROC 060200Z 00000KT 9999 -RA SCT020 BKN100 20/19 A3003 BECMG=
200809060300 METAR MROC 060300Z 11002KT 8000 VCFG FEW003 SCT020 SCT100 20/20 A3005 BECMG=
200809060400 METAR MROC NIL=
200809060500 METAR MROC 060500Z 00000KT 9999 4000SW BR FEW002 SCT025 BKN100 19/19 A3005 BECMG 2000 BR=
200809060600 METAR MROC 060600Z 06003KT 9999 3000SW BR FEW002 SCT100 19/19 A3003 BECMG UNL=
200809060700 METAR MROC NIL=
200809060800 METAR MROC NIL=
200809060900 METAR MROC 060900Z 08002KT 9999 4000SW BR FEW002 SCT100 19/19 A2999 BECMG=
200809061000 METAR MROC 061000Z 02005KT CAVOK 20/18 A2998 RMK TRACE ST BKN120 BECMG=
200809061100 METAR MROC 061100Z 06007KT CAVOK 19/18 A2999 RMK SCT120 SCT150 BECMG=
200809061200 METAR MROC 061200Z 03005KT CAVOK 20/19 A2999 RMK TRACE ST BKN110 BECMG=
200809061300 METAR MROC NIL=
200809061400 METAR MROC 061400Z 07004KT CAVOK 23/19 A3003 RMK TRACE SC BKN120 BECMG=
200809061500 METAR MROC 061500Z 04003KT CAVOK 25/20 A3003 RMK TRACE SC BKN120 BECMG=
200809061600 METAR MROC 061600Z 31004KT CAVOK 27/19 A3001 RMK TRACE SC CU BKN120 BECMG=
200809061700 METAR MROC 061700Z 23007KT 9999 FEW040 BKN120 27/22 A3001 RMK LGT HZ ARND BECMG=
200809061800 METAR MROC 061800Z 25011KT 9999 FEW035 SCT140 BKN250 26/21 A2999 RMK CB RASH DST E TUC S N NE BECMG=
200809061900 METAR MROC 061900Z 24011KT 2500 +TSRA SCT015CB BKN025 22/22 A3000 RMK VIS SW W UNLTD BECMG 5000=
200809062000 METAR MROC 062000Z 27011KT 2000 RA FEW015CB SCT030 BKN100 20/19 A3000 RETS RMK VIS E 6KMS BECMG 5000=
200809062100 METAR MROC 062100Z 14002KT 9999 FEW030 SCT100 BKN250 21/20 A2998 BECMG=
200809062200 METAR MROC 062200Z 23002KT 9999 FEW030 SCT120 BKN250 23/20 A2997 BECMG=
200809062300 METAR MROC 062300Z 17002KT 9999 FEW030 SCT120 BKN250 23/20 A2998 RMK RN E SE BECMG=
200809070000 METAR MROC 070000Z 24002KT 9999 -RA SCT030 BKN120 21/21 A3001 BECMG=
200809070100 METAR MROC 070100Z 29002KT 9999 SCT030 BKN120 21/21 A3002 RERA RMK TRACE ST FU S BECMG 5000 -RA=
200809070200 METAR MROC 070200Z 04005KT CAVOK 21/21 A3000 RMK TRACE SC SCT120 BECMG=
200809070300 METAR MROC 070300Z 07003KT CAVOK 21/20 A3003 RMK FEW120 SCT250 BECMG=
200809070400 METAR MROC 070400Z 00000KT CAVOK 20/20 A3004 RMK SCT120 SCT250 ST S SW BECMG=
200809070500 METAR MROC 070500Z 08004KT CAVOK 20/20 A3004 RMK SCT250 ST SW BECMG=
200809070600 METAR MROC 070600Z 03005KT CAVOK 19/19 A3003 RMK SCT250 BECMG=
200809070700 METAR MROC 070700Z 04006KT CAVOK 18/18 A3001 RMK SCT250 BECMG=
200809070800 METAR MROC 070800Z 04005KT CAVOK 20/18 A2998 RMK FEW250 BECMG=
200809070900 METAR MROC 070900Z 06004KT CAVOK 18/18 A2998 RMK FEW250 BECMG=
200809071000 METAR MROC 071000Z 04006KT CAVOK 18/18 A2998 RMK SC250 BECMG=
200809071100 METAR MROC 071100Z 05006KT CAVOK 19/17 A2994 RMK SCT260 BECMG=
200809071200 METAR MROC 071200Z 07007KT CAVOK 20/18 A3000 RMK TRACE SC CI BECMG=
200809071300 METAR MROC 071300Z 08005KT CAVOK 23/18 A3001 RMK TRACE SC CI BECMG=
200809071400 METAR MROC 071400Z 09009KT CAVOK 24/18 A3001 RMK TRACE SC CI BECMG=
200809071500 METAR MROC 071500Z 10010KT 9999 FEW035 26/18 A3002 RMK TRACE CI=
200809071600 METAR MROC 071600Z 10009KT 9999 FEW035 27/18 A3000 RMK TRACE CI BECMG=
200809071700 METAR MROC 071700Z 11008KT 9999 SCT035 28/18 A2998 RMK TRACE CI BECMG=
200809071800 METAR MROC 071800Z 13006KT 9999 SCT035 FEW250 29/19 A2996 BECMG=
200809071900 METAR MROC 071900Z 22008KT 9999 SCT030 SCT250 28/23 A2993 BECMG VCSH=
200809072000 METAR MROC 072000Z 25009KT 9999 SCT030 SCT250 28/23 A2992 BECMG 8000=
200809072100 METAR MROC 072100Z 24010KT 9999 TS FEW015CB SCT025 SCT250 27/23 A2990 CB/TS/RN NW BECMG 5000 VSCH=
200809072200 METAR MROC 072200Z 23011KT 9999 -TSRA FEW015CB SCT025 SCT250 25/23 A2990 RASH/TS ENE BECMG=
200809072300 METAR MROC 072300Z 20005KT 6000 -RA SCT012 SCT025 23/23 A2992 VSBY NE UNL BECMG 3000=
200809080000 METAR MROC 080000Z 11003KT 9999 FEW015 SCT025 BKN250 21/21 A2996 CB RN LTNG DST SW CB W BECMG=
200809080100 METAR MROC 080100Z 02003KT 9999 FEW025 BKN120 22/22 A2997 BECMG=
200809080200 METAR MROC 080200Z 03004KT 9999 SCT015 OVC080 22/22 A2999 BECMG=
200809080300 METAR MROC 080300Z 07003KT CAVOK 21/21 A3000 RMK TRACE ST SC SCT100 SCT250 BECMG=
200809080400 METAR MROC 080400Z 04002KT CAVOK 21/21 A3001 RMK TRACE SC AC BKN250 BECMG=
200809080500 METAR MROC 080500Z 08004KT CAVOK 20/19 A3001 RMK TRACE SC BKN250 BECMG=
200809080600 METAR MROC 080600Z 07005KT CAVOK 20/18 A2998 RMK TRACE SC BKN250 BECMG=
200809080700 METAR MROC 080700Z 06004KT CAVOK 20/18 A2997 RMK TRACE SC SCT250 BECMG=
200809080800 METAR MROC 080800Z 06003KT CAVOK 19/18 A2996 RMK TRACE SC SCT250 BECMG=
200809080900 METAR MROC 080900Z 04004KT CAVOK 18/17 A2996 RMK TRACE SC SCT250 BECMG=
200809081000 METAR MROC 081000Z 07004KT CAVOK 20/18 A2997 RMK TRACE SC SCT130 BECMG=
200809081100 METAR MROC 081100Z 07006KT CAVOK 20/17 A2996 RMK TRACE SC FEW140 BKN250 BECMG=
200809081200 METAR MROC 081200Z 04006KT CAVOK 20/17 A2997 RMK TRACE SC FEW120 BKN250=
200809081300 METAR MROC 081300Z 11002KT CAVOK 21/18 A3000 TRACE SCT FEW120 BKN250 CB DST S BECMG=
200809081400 METAR MROC 081400Z 05005KT CAVOK 24/19 A3001 BKN250 TRACE SCT BECMG=
200809081500 METAR MROC 081500Z 24003KT CAVOK 27/18 A3000 TRACE CU SCT250 BECMG=
200809081600 METAR MROC 081600Z 14005KT CAVOK 28/18 A2999 TRACE CU SCT250 BECMG=
200809081700 METAR MROC 081700Z 23008KT 9999 FEW045 SCT250 27/20 A2998 BECMG=
200809081800 METAR MROC 081800Z 26011KT 9999 FEW040 SCT250 28/23 A2996 BECMG=
200809081900 METAR MROC 081900Z 24013KT 9999 FEW025CB BKN030 27/23 A2992 CB RN NNW BECMG=
200809082000 METAR MROC NIL=
200809082100 METAR MROC 082100Z 09002KT 9999 -RA SCT015 BKN100 19/17 A2995 RETS BECMG=
200809082200 METAR MROC 082200Z 09003KT 9999 SCT020 BKN100 20/18 A2996 BECMG 6000=
200809082300 METAR MROC 082300Z 07002KT 9999 SCT020 OVC100 21/19 A2996 BECMG=
200809090000 METAR MROC NIL=
200809090100 METAR MROC 090100Z 13002KT 9999 SCT020 BKN100 21/20 A2999 RMK HZ ARND BECMG=
200809090200 METAR MROC 090200Z 03003KT 9999 SCT020 BKN110 21/21 A3000 RMK HZ ARND BECMGH=
200809090300 METAR MROC 090300Z 16002KT 9999 FEW020 BKN110 21/20 A3001 BECMG=
200809090400 METAR MROC 090400Z 00000KT 9999 FEW030 SCT120 21/20 A3003 BECMG=
200809090500 METAR MROC 090500Z 02003KT 9999 FEW030 SCT120 21/21 A3003 BECMG=
200809090600 METAR MROC 090600Z 04004KT 9999 FEW030 BKN120 21/20 A3002 BECMG=
200809090700 METAR MROC 090700Z 10004KT 9999 FEW030 BKN120 20/20 A2999 BECMG=
200809090800 METAR MROC 090800Z 09004KT 9999 FEW030 BKN120 21/20 A2997 BECMG=
200809090900 METAR MROC 090900Z 00000KT CAVOK 20/20 A2996 RMK TRACE SC SCT120=
200809091000 METAR MROC 091000Z 05003KT CAVOK 20/19 A2996 RMK TRACE SC SCT120 BECMG=
200809091100 METAR MROC 091100Z 08004KT CAVOK 19/18 A2999 RMK TRACE SC SCT120 BECMG=
200809091200 METAR MROC 091200Z 08004KT CAVOK 18/18 A3001 RMK TRACE SC FEW120 BKN250 BECMG=
200809091300 METAR MROC 091300Z 10003KT CAVOK 21/19 A3004 RMK TRACE SC FEW120 BKN250 BECMG=
200809091400 METAR MROC 091400Z 10003KT CAVOK 23/19 A3003 RMK TRACE SC BKN250 BECMG=
200809091500 METAR MROC 091500Z 23007KT 9999 FEW025 SCT250 25/21 A3004 BECMG=
200809091600 METAR MROC 091600Z 25006KT 9999 FEW025 SCT250 26/20 A3003 BECMG=
200809091700 METAR MROC NIL=
200809091800 METAR MROC NIL=
200809091900 METAR MROC 091900Z 26010KT 9999 SCT015TCU BKN100 24/22 A2999 RMK RASH DST E BECMG 7000 VCSH=
200809092000 METAR MROC 092000Z 16004KT 8000 VCSH FEW010CB BKN020 23/18 A2998 RMK RASH DST E BECMG 7000 -TSRA=
200809092100 METAR MROC 092100Z 08003KT 0800 R07/0300 TSRA BR SCT002 SCT008CB BKN015 19/19 A3001 BECMG 2000 TSRA BR=
200809092200 METAR MROC 092200Z 14003KT 5000 -RA BR FEW003 SCT010 BKN080 19/19 A3000 BECMG=
200809092300 METAR MROC 092300Z 02004KT 9999 4000SW -RA BR FEW002 OVC080 20/20 A3002 BECMG=
200809100000 METAR MROC 100000Z 15002KT 9999 -RA FEW004 OVC090 20/20 A3002 BECMG=
200809100100 METAR MROC 100100Z 07004KT 9999 FEW008 OVC100 20/20 A3003 BECMG=
200809100200 METAR MROC 100200Z 11002KT 9999 -DZ FEW004 OVC100 20/20 A3002 BECMG=
200809100300 METAR MROC 100300Z 25004KT 0500 FG VV/// 20/20 A3004 BECMG=
200809100400 METAR MROC 100400Z 03004KT CAVOK 20/20 A3006 TRACE SCT SCT100 BKN150 BECMG=
200809100500 METAR MROC 100500Z 10003KT 9999 FEW015 SCT150 19/19 A3005 BECMG=
200809100600 METAR MROC 100600Z 03005KT CAVOK 20/19 A3005 TRACE SCT OVC150 BECMG=
200809100700 METAR MROC 100700Z 07004KT CAVOK 19/18 A3003 TRACE SCT SCT150 BECMG=
200809100800 METAR MROC NIL=
200809100900 METAR MROC 100900Z 09002KT CAVOK 18/18 A3000 SCT150 TRACE SC BECMG=
200809101000 METAR MROC 101000Z 06003KT CAVOK 18/17 A2999 SCT250 TRACE SCT BECMG=
200809101100 METAR MROC 101100Z 07004KT CAVOK 18/16 A3001 TRACE SCT SCT250 CB DST E BECMG=
200809101200 METAR MROC NIL=
200809101300 METAR MROC 101300Z 09004KT CAVOK 20/17 A3005 RMK BKN250 TCU DST S SW BECMG=
200809101400 METAR MROC 101400Z 00000KT CAVOK 23/18 A3008 RMK SCT250 TCU DST S SW BECMG=
200809101500 METAR MROC 101500Z 21004KT CAVOK 25/18 A3007 RMK TRACE SC SCT250 TCU DST SW HZ LGT E BECMG=
200809101600 METAR MROC 101600Z 23005KT 9999 FEW035 SCT270 26/20 A3007 BECMG=
200809101700 METAR MROC 101700Z 23006KT 9999 FEW035 BKN270 26/20 A3007 BECMG=
200809101800 METAR MROC 101800Z 24008KT 9999 FEW030 BKN270 27/21 A3003 BECMG=
200809101900 METAR MROC 101900Z 24008KT 9999 FEW020CB SCT030 SCT270 27/22 A3000 BECMG 7000 VCTS VCSH=
200809102000 METAR MROC 102000Z 25008KT 9999 FEW015CB BKN025 26/20 A2997 RMK RN DST NE E BECMG 7000 VCTS VCSH=
200809102100 METAR MROC 102100Z 26010KT 9999 FEW018TCU BKN025 25/22 A2995 RMK PCPN DST E N BECMG 7000 VCSH=
200809102200 METAR MROC 102200Z 25006KT 9999 FEW015CB BKN025 24/22 A2996 RMK TS DST ESE SE BECMG 7000 TS VCSH=
200809102300 METAR MROC 102300Z 23006KT 9999 VCTS FEW015CB SCT025 BKN100 23/22 A2998 VIS 8KMS E SE DUE RASH TS ESE BECMG 5000 TS VCSH=
200809110000 METAR MROC 110000Z 21007KT 4000 -TSRA SCT003 FEW015CB BKN025 21/21 A3002 BECMG 2000=
200809110100 METAR MROC 110100Z 00000KT 6000 -TSRA FEW004 FEW017CB SCT035 BKN100 21/21 A3005 RMK VIS E SE S UNLTD BECMG 8000=
200809110200 METAR MROC 110200Z 07005KT 9999 FEW010 SCT040 BKN100 21/20 A3007 RETSRA BECMG=
200809110300 METAR MROC 110300Z 07005KT CAVOK 20/19 A3006 RMK BKN100 BECMG=
200809110400 METAR MROC 110400Z 10004KT 8000 VCFG FEW003 BKN100 20/19 A3005 BECMG 6000 VCFG=
200809110500 METAR MROC 110500Z 34003KT 7000 3000SW VCFG BR FEW003 SCT020 BKN250 20/20 A3004 RMK BECMG 4000 BR=
200809110600 METAR MROC 110600Z 14003KT 9999 FEW035 SCT270 19/19 A3003 RMK TRACE ST BECMG=
200809110700 METAR MROC 110700Z 03003KT CAVOK 19/19 A3003 RMK TRACE SCT270 BECMG=
200809110800 METAR MROC NIL=
200809110900 METAR MROC 110900Z 09004KT CAVOK 18/18 A3002 RMK TRACE ST BKN120=
200809111000 METAR MROC 111000Z 05004KT CAVOK 18/18 A3002 RMK TRACE ST SCT120 BECMG=
200809111100 METAR MROC 111100Z 03003KT CAVOK 17/16 A3004 RMK TRACE SC CI BECMG=
200809111200 METAR MROC 111200Z 07004KT CAVOK 18/17 A3004 BECMG=
200809111300 METAR MROC 111300Z 09004KT CAVOK 21/18 A3003 RMK TRACE SC SCT300 HZ W BECMG=
200809111400 METAR MROC 111400Z 09004KT CAVOK 25/19 A3003 RMK TRACE SC CU SCT300=
200809111500 METAR MROC 111500Z 13004KT CAVOK 27/19 A3004 RMK TRACE SC CU SCT300 BECMG=
200809111600 METAR MROC 111600Z 21007KT 9999 FEW035 SCT300 27/20 A3006 BECMG=
200809111700 METAR MROC 111700Z 24010KT 9999 SCT035 SCT300 27/21 A3006 BECMG=
200809111800 METAR MROC 111800Z 23011KT 9999 FEW020TCU SCT030 27/20 A3005 RMK PCPN DST SE BECMG 7000 VCSH=
200809111900 METAR MROC 111900Z 25010KT 9999 FEW015TCU SCT025 26/21 A3001 RMK PCPN DST E BECMG 7000 VCSH=
200809112000 METAR MROC 112000Z 25007KT 9999 FEW015TCU SCT025 BKN050 26/22 A2998 CB RASH DST ESE NE BECMG 7000 VCSH=
200809112100 METAR MROC 112100Z 00000KT 9999 FEW015TCU SCT025 BKN250 25/21 A2997 RMK RN NE E BECMG 6000 SHRA=
200809112200 METAR MROC 112200Z 10004KT 9999 -RA SCT025 SCT120 22/19 A2997 RMK FEW250 BECMG 7000 RA=
200809112300 METAR MROC 112300Z 10004KT 9999 SCT025 SCT120 22/19 A2998 RMK FEW250 BECMG RA=
200809120000 METAR MROC 120000Z 08002KT 9999 FEW010 SCT030 22/19 A3001 RMK FEW120 TRACE CI BECMG -RA=
200809120100 METAR MROC 120100Z 00000KT 9999 FEW003 SCT030 21/21 A3004 BECMG -RA=
200809120200 METAR MROC 120200Z 00000KT 9999 3000SW BR FEW001 SCT005 SCT250 21/21 A3005 BECMG=
200809120300 METAR MROC 120300Z 08005KT CAVOK 20/19 A3004 RMK SCT250 ST SW BECMG=
200809120400 METAR MROC 120400Z 06005KT CAVOK 20/18 A3003 RMK SCT250 ST SW BECMG=
200809120500 METAR MROC 120500Z 07003KT CAVOK 21/18 A3003 RMK SCT250 BECMG=
200809120600 METAR MROC 120600Z 06003KT CAVOK 20/18 A3002 RMK SCT250 BECMG=
200809120700 METAR MROC 120700Z 06004KT CAVOK 20/18 A3001 RMK FEW250 CB/LTNG DST SSE BECMG=
200809120800 METAR MROC 120800Z 07004KT CAVOK 19/17 A2998 RMK FEW250 LINE CB/LTNG DST SSE/S ST S BECMG 31003KT 7000 VCFG FEW005=
200809120900 METAR MROC 120900Z 06004KT 9999 VCFG FEW003 19/17 A2997 RMK FEW250 VIS S 6KM DUE ST CB/LTNG DST S/W BECMG=
200809121000 METAR MROC 121000Z 08003KT 9999 VCFG FEW003 18/17 A2998 RMK FEW250 VIS S KM DUE ST LINE CB DST S/SW ST SSE BECMG CAVOK=
200809121100 METAR MROC 121100Z 07004KT CAVOK 18/16 A2998 RMK FEW250 ST S CB DST S BECMG=
200809121200 METAR MROC 121200Z 05004KT CAVOK 18/16 A3000 RMK FEW250 ST W CB DST SW BECMG=
200809121300 METAR MROC 121300Z 10003KT CAVOK 21/18 A3002 RMK CB DST SW SCT250 BECMG=
200809121400 METAR MROC 121400Z VRB03KT CAVOK 24/18 A3002 RMK BKN250 TRACE CU BECMG=
200809121500 METAR MROC 121500Z 11005KT CAVOK 26/18 A3002 RMK TRACE SC CU BKN250 BECMG=
200809121600 METAR MROC 121600Z 12005KT CAVOK 28/18 A3002 RMK TRACE SC CU BKN250 BECMG=
200809121700 METAR MROC 121700Z 22011KT 9999 FEW035 BKN250 27/22 A3000 BECMG=
200809121800 METAR MROC 121800Z 23011KT 9999 SCT035 BKN250 27/22 A2999 BECMG=
200809121900 METAR MROC 121900Z 23009KT 9999 SCT030 BKN250 26/22 A2997 RMK FEW120 BECMG=
200809122000 METAR MROC 122000Z 27009KT 9999 SCT030 SCT120 26/23 A2995 RMK FEW250 BECMG=
200809122100 METAR MROC 122100Z 24009KT 9999 BKN020 SCT250 26/22 A2992 RN NW BECMG=
200809122200 METAR MROC 122200Z 25010KT 9999 FEW012 SCT020 BKN250 25/22 A2992 BECMG=
200809122300 METAR MROC 122300Z 23009KT 9999 FEW010 BKN020 23/21 A2994 VSBY NW N NE 6KM LOW ST BECMG=
200809130000 METAR MROC 130000Z 25006KT 5000 BR FEW005 FEW012TCU BKN025 22/22 A2995 CB/RN W VSBY ESE SE UNL BECMG 4000=
200809130100 METAR MROC 130100Z 26005KT 9999 -RA SCT005 SCT012 22/22 A2999 VSBY S N 7KM BECMG=
200809130200 METAR MROC 130200Z 00000KT 9999 SCT005 SCT020 21/21 A3001 VSBY SW N 6KM LOW ST BECMG=
200809130300 METAR MROC 130300Z 07003KT 9999 FEW010 BKN250 22/21 A3002 LGT HZ ARND BECMG=
200809130400 METAR MROC 130400Z 08003KT CAVOK 21/21 A3002 RMK TRACE SC AC BKN250 LGT HZ ARND BECMG=
200809130500 METAR MROC 130500Z 06005KT CAVOK 21/20 A3000 RMK TRACE SC AC SCT250 BECMG=
200809130600 METAR MROC 130600Z 15003KT 9999 4000S BR SCT250 20/20 A2998 RMK FG BANK SSE S SSW LTNG DST S BECMG 3000=
200809130700 METAR MROC 130700Z 16002KT 9999 4000SW BR BKN250 20/20 A2996 RMK TRACE ST SC BKN250 LTNG DST S BECMG=
200809130800 METAR MROC 130800Z 23003KT 9999 VCFG BKN250 19/19 A2994 RMK TRACE SC VIS S SSW 7KMS LTNG DST S BECMG 4000 BR=
200809130900 METAR MROC 130900Z 04003KT 9999 VCFG BKN250 18/18 A2993 RMK TRACE SC AC VIS S SSW 8KMS LTNG DST S BECMG=
200809131000 METAR MROC 131000Z 07005KT CAVOK 19/18 A2992 RMK TRACE SC SCT250 BECMG=
200809131100 METAR MROC 131100Z 05004KT CAVOK 19/17 A2993 RMK TRACE SC SC250 BECMG=
200809131200 METAR MROC 131200Z 07006KT CAVOK 20/17 A2994 RMK TRACE SC AC BKN250 BECMG=
200809131300 METAR MROC 131300Z 07007KT CAVOK 23/18 A2995 TRAZAS SCT FEW120 BKN250 BECMG=
200809131400 METAR MROC 131400Z 11008KT CAVOK 25/18 A2995 TRAZAS SC/AC BKN250 BECMG=
200809131500 METAR MROC 131500Z 15008KT 9999 FEW045 BKN250 26/18 A2999 BECMG=
200809131600 METAR MROC 131600Z 09004KT 9999 FEW045 BKN250 28/18 A2997 BECMG=
200809131700 METAR MROC 131700Z 13004KT 9999 FEW045 BKN280 28/18 A2996 VECMG 24006=
200809131800 METAR MROC 131800Z 23009KT 9999 FEW020 SCT045 BKN250 27/22 A2995 BECMG=
200809131900 METAR MROC 131900Z 24009KT 9999 FEW020 SCT045 BKN250 26/23 A2993 BECMG=
200809132000 METAR MROC 132000Z 26010KT 9999 SCT015 SCT035 26/23 A2990 RN DST NW BECMG=
200809132100 METAR MROC 132100Z 36004KT 9999 -RA FEW010 SCT015 BKN100 24/21 A2989 RMK BECMG 6000 -RA VCFG=
200809132200 METAR MROC 132200Z 19004KT 9999 FEW010 SCT020 OVC100 21/20 A2991 BECMG=
200809132300 METAR MROC 132300Z 35004KT 9999 FEW004 SCT020 BKN100 21/20 A2993 RMK LOW ST SW BECMG=
200809140000 METAR MROC 140000Z 05004KT 9999 FEW005 SCT025 BKN100 21/20 A2994 BECMG=
200809140100 METAR MROC 140100Z 13002KT 9999 SCT025 BKN100 20/20 A2996 BECMG=
200809140200 METAR MROC 140200Z 08003KT 9999 SCT025 BKN100 21/20 A2997 RMK TS DST S BECMG=
200809140300 METAR MROC NIL=
200809140400 METAR MROC 140400Z 00000KT CAVOK 21/20 A2999 RMK TRACE SC TS DST S BKN120=
200809140500 METAR MROC 140500Z 20002KT CAVOK 20/20 A3002 RMK TRACE SC TS DST S BKN120 BECMG=
200809140600 METAR MROC 140600Z 00000KT CAVOK 21/19 A2999 RMK TRACE SC TS DST S BKN120 BECMG=
200809140700 METAR MROC 140700Z 00000KT 9999 -RA FEW030 BKN120 20/19 A2996 BECMG=
200809140800 METAR MROC 140800Z VRB03KT 9999 -RA FEW030 BKN120 20/19 A2994 BECMG=
200809140900 METAR MROC 140900Z 02004KT 9999 RA FEW030 OVC100 20/20 A2996 BECMG=
200809141000 METAR MROC 141000Z 00000KT 9999 RA FEW030 OVC100 20/20 A2996 BECMG=
200809141100 METAR MROC 141100Z 07005KT CAVOK 19/19 A2995 RERA RMK TRACE SC BKN120 BECMG=
200809141200 METAR MROC 141200Z 06005KT CAVOK 20/18 A2995 RMK TRACE SC BKN120 BECMG=
200809141300 METAR MROC 141300Z 06004KT CAVOK 21/18 A2997 RMK BKN250 BECMG=
200809141400 METAR MROC 141400Z 27006KT 9999 FEW030 BKN250 23/20 A2999 BECMG=
200809141500 METAR MROC 141500Z 31003KT 9999 FEW030 BKN250 24/20 A3001 BECMG=
200809141600 METAR MROC 141600Z 27005KT 9999 SCT030 BKN250 26/21 A3000 BECMG=
200809141700 METAR MROC 141700Z 26010KT 9999 SCT030 SCT250 27/21 A2999 BECMG=
200809141800 METAR MROC 141800Z 22009KT 9999 SCT025 SCT250 27/21 A2998 BECMG=
200809141900 METAR MROC 141900Z 23010KT 9999 SCT010CB SCT025 25/22 A2996 RMK CB RN N NE E BECMG 6000 VCSH=
200809142000 METAR MROC 142000Z 24011KT 9999 SCT010CB SCT025 26/22 A2994 RMK CB RASH DST NE E SW BECMG=
200809142100 METAR MROC 142100Z 28007KT 9999 4000NE SCT015TCU BKN025 22/20 A2994 RMK RN DST NNE NE BECMG -RA=
200809142200 METAR MROC 142200Z 24005KT 5000 BR FEW003 SCT006 BKN015 21/21 A2995 RMK VIS 8000E BECMG 3000 -RA BR=
200809142300 METAR MROC 142300Z 23004KT 7000 3000N VCFG BR FEW005 SCT012 BKN030 21/21 A2997 BECMG=
200809150000 METAR MROC 150000Z 30002KT 9999 DZ FEW012 SCT030 SCT090 21/20 A2999 BECMG=
200809150100 METAR MROC 150100Z 31002KT 9999 FEW020 BKN120 21/20 A3001 BECMG=
200809150200 METAR MROC 150200Z 10002KT 9999 SCT015 SCT120 20/20 A3003 BECMG=
200809150300 METAR MROC 150300Z 01003KT CAVOK 21/20 A3004 TRACE SCT FEW100 BKN280 BECMG=
200809150400 METAR MROC 150400Z 08006KT CAVOK 20/20 A3002 TRACE SCT AC BKN250 BECMG=
200809150500 METAR MROC 150500Z 03004KT CAVOK 20/19 A3000 TRACE SCT SCT250 BECMG=
200809150600 METAR MROC 150600Z 13004KT 9999 FEW015 BKN250 19/19 A3001 BECMG=
200809150700 METAR MROC 150700Z 03003KT 9999 FEW030 OVC250 20/19 A2998 BECMG=
200809150800 METAR MROC 150800Z 100003KT CAVOK 20/19 A2995 SCT280 BECMG=
200809150900 METAR MROC 150900Z 06005KT CAVOK 20/19 A2995 BKN280 BECMG=
200809151000 METAR MROC NIL=
200809151100 METAR MROC 151100Z 06005KT CAVOK 20/18 A2996 FEW280 BECMG=
200809151200 METAR MROC 151200Z 06004KT CAVOK 20/18 A2996 TRACE SCT SCT280 BECMG=
200809151300 METAR MROC 151300Z 04006KT CAVOK 22/19 A3002 RMK SCT250 CB DST S BECMG=
200809151400 METAR MROC 151400Z VRB03KT CAVOK 24/20 A3003 RMK SCT250 BECMG 23006KT=
200809151500 METAR MROC 151500Z 28004KT CAVOK 25/20 A3004 RMK TRACE SC BKN250 BECMG=
200809151600 METAR MROC 151600Z 24005KT 9999 FEW035 BKN250 26/20 A3005 BECMG=
200809151700 METAR MROC 151700Z 25007KT 9999 SCT035 BKN250 26/22 A3003 BECMG=
200809151800 METAR MROC 151800Z 25008KT 9999 FEW015 SCT025 BKN250 26/22 A3000 RMK RN DST NE BECMG 7000 VCSH=
200809151900 METAR MROC 151900Z 30004KT 9999 FEW015TCU SCT025 BKN250 27/22 A2998 RMK RN DST S BECMG=
200809152000 METAR MROC 152000Z 21009KT 9999 FEW012TCU SCT020 BKN250 25/22 A2995 RMK RN DST SE E BECMG=
200809152100 METAR MROC 152100Z 13002KT 3000 -TSRA FEW015CB SCT025 BKN100 23/22 A2995 RMK VIS E SE S UNLTD BECMG 8000=
200809152200 METAR MROC 152200Z 25005KT 9999 VCFG SCT006 BKN015 23/23 A2995 RETSRA RMK VIS SW W WNW 6KMS BECMG 4000 -RA BR=
200809152230 METAR MROC 152230Z 25007KT 2500 BR SCT003 BKN008 22/22 A2997 BECMG 0800 FG=
200809152300 METAR MROC 152300Z 24007KT 2000 -RA BR SCT002 BKN008 22/22 A2997 BECMG 3000=
200809160000 METAR MROC 160000Z 29004KT 9999 VCFG FEW003 SCT020 BKN100 21/21 A3000 RERA VIS SW W 8KMS BECMG=
200809160100 METAR MROC 160100Z 23003KT 2000 BR SCT001 BKN010 21/21 A3002 BECMG=
200809160200 METAR MROC 160200Z 00000KT 5000 -RADZ BR FEW004 SCT010 BKN100 21/21 A3005 RMK VIS SE S UNLTD BECMG=
200809160300 METAR MROC 160300Z 32003KT 7000 VCFG FEW003 SCT015 BKN110 21/21 A3007 RMK LOW ST SW BECMG 4000 BR=
200809160400 METAR MROC 160400Z 12003KT 8000 VCFG FEW003 SCT015 BKN110 21/21 A3008 BECMG=
200809160500 METAR MROC 160500Z 00000KT 8000 1200SW BR FEW001 SCT015 BKN110 21/21 A3007 BECMG=
200809160600 METAR MROC 160600Z 00000KT 9999 1500SW BR FEW001 SCT015 BKN110 20/20 A3005 BECMG=
200809160700 METAR MROC 160700Z 03004KT 9999 FEW020 BKN130 20/20 A3003 RMK TRACE ST BECMG=
200809160800 METAR MROC 160800Z 11002KT 9999 FEW025 BKN120 20/20 A3001 RMK TRACE ST BECMG=
200809160900 METAR MROC 160900Z 06004KT 9999 FEW030 BKN130 19/19 A3000 RMK TRACE ST BECMG=
200809161000 METAR MROC 161000Z 07003KT CAVOK 19/19 A3001 RMK TRACE ST BKN130 BECMG=
200809161100 METAR MROC 161100Z 07004KT CAVOK 19/18 A3002 RMK BKN130 BECMG=
200809161200 METAR MROC 161200Z 06003KT CAVOK 19/18 A3002 RMK TRACE ST SCT120 BKN250 BECMG=
200809161300 METAR MROC 161300Z 09003KT 9999 FEW017 BKN250 20/19 A3005 RMK FEW120 TCU DST WSW HZY BECMG=
200809161400 METAR MROC 161400Z 12002KT 9999 FEW020 BKN250 23/20 A3007 RMK HZY BECMG 24005KT=
200809161500 METAR MROC 161500Z 00000KT 9999 FEW025 BKN250 24/20 A3007 RMK HZY BECMG 24005KT=
200809161600 METAR MROC 161600Z VRB03KT 9999 FEW025 BKN250 26/21 A3006 RMK HZY BECMG 24005KT=
200809161700 METAR MROC 161700Z 22006KT 9999 FEW040 BKN250 27/22 A3004 HZY=
200809161800 METAR MROC 161800Z 24007KT 9999 FEW025TCU SCT040 BKN250 27/21 A3001 RMK PCPN DST N QUAD HZY BECMG 7000 -RA VCSH=
200809161900 METAR MROC 161900Z 22009KT 9999 4000SW VCTS FEW015CB SCT025 BKN120 23/21 A2997 RASH SW W NW BECMG=
200809162000 METAR MROC 162000Z 24007KT 9999 SCT012 SCT140 BKN250 25/24 A2996 RMK HZY BECMG 5000 -RA VCSH=
200809162100 METAR MROC 162100Z 25011KT 9999 4000N VCSH FEW015TCU SCT025 BKN250 23/22 A2994 BECMG 9000 RA=
200809162200 METAR MROC 162200Z 28006KT 3000 TS +RA FEW015CB BKN025 21/21 A2996 RMK VIS S UNL BECMG 2000 RA BR=
200809162300 METAR MROC 162300Z 03003KT 9999 FEW010 SCT025 BKN100 21/21 A2998 BECMG RA=
200809170000 METAR MROC 170000Z 04003KT 9999 SCT030 OVC100 21/21 A3000 RERA BECMG -RA=
200809170100 METAR MROC 170100Z 04005KT 9999 SCT030 OVC100 21/20 A3001 BECMG -RA=
200809170200 METAR MROC 170200Z 15002KT 9999 SCT030 OVC100 21/20 A3003 BECMG=
200809170300 METAR MROC 170300Z 28003KT 9999 -DZ FEW006 BKN090 21/20 A3005 BECMG=
200809170400 METAR MROC 170400Z 00000KT CAVOK 20/20 A3004 RMK SCT120 BKN250 ST S SW BECMG=
200809170500 METAR MROC 170500Z 00000KT 9999 FEW012 SCT120 BKN250 20/20 A3004 LTNG DST S BECMG 7000 VCFG=
200809170600 METAR MROC 170600Z 34003KT 9999 VCFG SCT005 BKN120 20/20 A3004 RMK FEW250 VIS 7000S LTNG DST SSW BECMG 5000 BR=
200809170700 METAR MROC 170700Z 35002KT 9999 VCFG FEW005 BKN025 21/21 A3001 RMK VIS S 7KM DUE ST BECMG=
200809170800 METAR MROC 170800Z 00000KT 9999 VCFG FEW005 SCT020 BKN030 20/20 A3000 RMK VIS 7KM W DUE ST BECMG 6000 -DZ VCFG SCT004 BKN025=
200809170900 METAR MROC 170900Z 06004KT 9999 SCT030 SCT110 20/19 A2998 BECMG=
200809171000 METAR MROC 171000Z 06003KT 9999 FEW030 19/18 A2999 RMK FEW120 ST SW BECMG CAVOK=
200809171100 METAR MROC 171100Z 09003KT 9999 FEW030 BKN120 18/17 A2998 RMK ST SW BECMG CAVOK=
200809171200 METAR MROC 171200Z 08004KT CAVOK 18/17 A2998 RMK BKN250 ST SSW TCU DST SW BECMG=
200809171300 METAR MROC 171300Z 10002KT CAVOK 20/18 A3000 RMK TCU ST SW BKN250 BECMG=
200809171400 METAR MROC 171400Z 00000KT CAVOK 24/19 A3002 RMK TRACE CU CB DST SW BKN250 BECMG 23005KT=
200809171500 METAR MROC 171500Z 21003KT CAVOK 26/20 A3002 RMK TRACE CU SCT120 SCT250 BECMG=
200809171600 METAR MROC NIL=
200809171700 METAR MROC 171700Z 26010KT 9999 SCT035 BKN250 25/21 A3002 RMK FEW120 BECMG=
200809171800 METAR MROC 171800Z 24009KT 9999 SCT030 BKN250 24/22 A3000 RMK FEW120 BECMG=
200809171900 METAR MROC 171900Z 23010KT 9999 3000SW VCSH FEW010TCU SCT030 SCT120 24/21 A2997 RMK TRACE CI BECMG 7000 VCSH=
200809172000 METAR MROC 172000Z 23007KT 9999 3000SW BR FEW002 FEW010TCU BKN030 22/21 A2997 RERA=
200809172100 METAR MROC 172100Z 22007KT 5000 RA BR SCT005 SCT012 20/20 A2997 BECMG=
200809172200 METAR MROC 172200Z 29004KT 5000 -RA BR SCT005 BKN012 20/20 A2997 BECMG=
200809172300 METAR MROC 172300Z 32004KT 6000 -RA VCFG SCT005 OVC100 20/20 A2999 BECMG=
200809172345 METAR MROC 172345Z 24001KT 2500 +RA BR SCT005 BKN012 20/10 A3001 VECMG 4000=
200809180000 METAR MROC 180000Z 29006KT 3000 +RA BR SCT004 BKN010 20/20 A3001 BECMG 40000=
200809180100 METAR MROC 180100Z 00000KT 6000 RA VCFG FEW005 BKN010 20/10 A3004 BECMG=
200809180200 METAR MROC 180200Z 32003KT 9999 -RA VCFG FEW006 BKN012 20/20 A3005 VSBY SW W 6KM BECMG=
200809180300 METAR MROC 180300Z 32002KT 5000 -RADZ BR SCT004 BKN010 20/20 A3001 RMK VIS ESE SE 8KMS BECMG=
200809180400 METAR MROC 180400Z 34003KT 9999 -RA SCT006 BKN050 20/20 A3008 BECMG=
200809180500 METAR MROC 180500Z 34002KT 9999 SCT010 BKN070 20/20 A3007 RERA BECMG=
200809180600 METAR MROC 180600Z 00000KT 9999 -RA SCT015 SCT050 BKN120 20/20 A3004 BECMG=
200809180700 METAR MROC 180700Z 00000KT 9999 VCFG FEW003 SCT070 BKN120 20/20 A3003 RMK VIS S SSW 6KMS BECMG=
200809180800 METAR MROC 180800Z 00000KT 9999 3000SW -RA BR FEW003 SCT010 BKN030 20/20 A3001 BECMG 2000=
200809180900 METAR MROC 180900Z 02003KT 9999 DZ SCT010 BKN120 19/19 A2998 RERA BECMG=
200809181000 METAR MROC 181000Z 00000KT 9999 FEW005 BKN120 19/19 A2997 REDZ RMK LOW ST S SSW ENE BECMG=
200809181100 METAR MROC 181100Z 00000KT CAVOK 19/19 A2999 RMK TRACE ST SC BKN140 BECMG=
200809181200 METAR MROC 181200Z 00000KT 2000 0500SE BR BKN140 19/19 A3003 RMK FG BANK SE ESE VIS N QUAD UNLTD BECMG 5000=
200809181300 METAR MROC 181300Z 08002KT 9999 FEW005 BKN012 20/20 A3005 BECMG=
200809181400 METAR MROC 181400Z 12003KT 9999 FEW015 BKN120 21/20 A3006 BECMG=
200809181500 METAR MROC 181500Z 00000KT 9999 SCT015 BKN120 23/21 A3007 BECMG 24006=
200809181600 METAR MROC 181600Z 25006KT 9999 SCT015 SCT250 25/20 A3006 BECMG=
200809181700 METAR MROC 181700Z 26007KT 9999 SCT020 SCT250 26/21 A3004 BECMG=
200809181800 METAR MROC 181800Z 25007KT 9999 SCT025 BKN250 26/20 A3001 BECMG=
200809181900 METAR MROC 181900Z 26008KT 9999 SCT020 BKN250 26/21 A2999 BECMG=
200809182000 METAR MROC 182000Z 26008KT 9999 SCT020 BKN250 25/21 A2998 RN DST E SW BECMG 5000 VCSH=
200809182100 METAR MROC 182100Z 23008KT 9999 FEW006 SCT020 BKN250 25/22 A2996 RMK RN DST SE BECMG 6000 VCSH=
200809182200 METAR MROC 182200Z 24007KT 9999 FEW006 SCT015 BKN100 23/22 A2997 BECMG 4000 TSRA=
200809182300 METAR MROC 182300Z 25006KT 9999 FEW005 SCT010 BKN100 22/22 A2998 BECMG=
200809190000 METAR MROC 190000Z 26005KT 9999 SCT004 BKN010 21/21 A3001 RMK TRACE ST BECMG 2000 BR=
200809190100 METAR MROC 190100Z 28004KT 6000 VCFG SCT004 BKN010 21/21 A3003 RMK TRACE ST BECMG=
200809190200 METAR MROC 190200Z 27003KT 9000 4000W BR SCT004 BKN010 21/21 A3005 RMK TRACE ST BECMG=
200809190300 METAR MROC 190300Z 26004KT 3000 BR FEW001 BKN005 20/20 A3006 BECMG 1000 BR=
200809190400 METAR MROC 190400Z 26004KT 3000 1000SW R07/0200 BR FEW001 BKN003 20/20 A3006 BECMG 1000 BR=
200809190500 METAR MROC 190500Z 25003KT 5000 BR FEW001 BKN005 20/20 A3007 BECMG 1000 BR=
200809190530 METAR MROC 190530Z 28002KT 3000 -DZ BR FEW001 BKN003 20/20 A3005 BECMG 1000 BR=
200809190600 METAR MROC 190600Z 00000KT 3000 -RA BR FEW001 BKN005 20/20 A3004 BECMG 1000 BR=
200809190700 METAR MROC 190700Z 27003KT 5000 RA FEW001 SCT003 BKN015 20/20 A3002 BECMG 1000 -RA BR=
200809190800 METAR MROC 190800Z 24003KT 1000 R07/0200 RA BR FEW001 BKN003 20/20 A3001 BECMG=
200809190900 METAR MROC 190900Z 24003KT 1000 R07/0800 BR FEW001 BKN003 20/20 A3000 RERA BECMG=
200809191000 METAR MROC 191000Z 26003KT 7000 2000SW BR FEW001 SCT003 BKN020 20/20 A3001 BECMG 1000 -RA BR=
200809191100 METAR MROC 191100Z 04002KT 9999 2000SW BR FEW001 SCT015 BKN100 20/20 A3001 BECMG=
200809191200 METAR MROC 191200Z 00000KT 9999 FEW015 SCT025 OVC100 20/20 A3002 BECMG=
200809191300 METAR MROC 191300Z 00000KT 9999 FEW010 SCT020 BKN100 21/21 A3004 RMK TRACE ST BECMG=
200809191400 METAR MROC 191400Z 14002KT 9999 FEW008 SCT020 BKN100 22/21 A3006 RMK TRACE ST BECMG 24006K=
200809191500 METAR MROC 191500Z 26002KT 9999 FEW008 SCT020 BKN100 25/20 A3006 BECMG=
200809191600 METAR MROC 191600Z 26007KT 9999 FEW010 SCT020 BKN100 25/21 A3005 BECMG=
200809191700 METAR MROC 191700Z 25010KT 9999 -RA FEW010TCU SCT020 BKN100 22/21 A3007 BECMG=
200809191800 METAR MROC 191800Z 22011KT 5000 RA BR SCT004 BKN010 21/21 A3005 BECMG 2000 -RA BR=
200809191900 METAR MROC 191900Z 22008KT 5000 2000W -RA BR FEW002 SCT004 BKN010 21/21 A3003 BECMG=
200809192000 METAR MROC 192000Z 20003KT 8000 -RA VCFG SCT010 BKN100 21/21 A3000 BECMG=
200809192100 METAR MROC 192100Z 10003KT 9999 SCT025 BKN120 23/20 A2998 RMK DZ DST NE BECMG=
200809192200 METAR MROC 192200Z 16002KT 9999 FEW020 SCT120 BKN250 23/21 A2997 BECMG=
200809192300 METAR MROC 192300Z 00000KT CAVOK 23/19 A2997 RMK SCT120 BKN250 BECMG=
200809200000 METAR MROC 200000Z 24002KT CAVOK 22/21 A3000 RMK SCT070 BKN120 RN DST NE E BECMG -RA=
200809200100 METAR MROC 200100Z 22002KT CAVOK 21/21 A3001 RMK BKN120 SCT250 ST S SW BECMG 7000 VCFG=
200809200200 METAR MROC 200200Z 25006KT 9999 4000SW BR FEW002 SCT006 BKN120 21/21 A3005 BECMG 3000 BR=
200809200300 METAR MROC 200300Z 24007KT 5000 -RA BR SCT002 SCT005 20/20 A3007 VSBY NW N 3KM BECMG 1500 -RA BR=
200809200400 METAR MROC 200400Z 25004KT 7000 VCFG SCT003 SCT006 20/20 A3007 VSBY E UNL BECMG 3000 BR=
200809200500 METAR MROC 200500Z 00000KT 8000 VCFG SCR006 BKN015 20/20 A3006 BECMG 3000 -RA BR=
200809200600 METAR MROC 200600Z 00000KT 9999 SCT020 SCT100 20/20 A3005 BECMG=
200809200700 METAR MROC 200700Z 08003KT 9999 FEW025 BKN120 20/20 A3003 BECMG=
200809200800 METAR MROC 200800Z 06004KT CAVOK 20/19 A3000 BKN120 BECMG=
200809200900 METAR MROC 200900Z 08003KT CAVOK 20/19 A2999 SCT120=
200809201000 METAR MROC 201000Z 15003KT 9999 FEW030 BKN120 19/19 A3000 BECMG=
200809201100 METAR MROC 201100Z 11003KT 9999 FEW045 SCT100 BKN280 19/19 A3001 BECMG=
200809201200 METAR MROC 201200Z 09003KT CAVOK 19/18 A3002 TRAZAS SCT FEW100 BKN280 BECMG=
200809201300 METAR MROC 201300Z 10004KT CAVOK 20/19 A3004 RMK SCT120 BKN250 BECMG=
200809201400 METAR MROC 201400Z 09004KT CAVOK 21/19 A3006 RMK TRACE SC SCT120 BKN250 TCU DST SW W BECMG=
200809201500 METAR MROC 201500Z 14002KT CAVOK 23/18 A3007 RMK TRACE SC SCT120 BKN250 BECMG 24006KT=
200809201600 METAR MROC 201600Z 24004KT 9999 FEW030 SCT120 BKN150 23/19 A3007 BECMG=
200809201700 METAR MROC 201700Z 10002KT CAVOK 23/20 A3005 RMK TRACE SC SCT120 BKN250 BECMG 25006KT=
200809201800 METAR MROC 201800Z 00000KT CAVOK 24/20 A3002 RMK SCT120 BKN250 BECMG=
200809201900 METAR MROC 201900Z 27004KT CAVOK 25/20 A2999 RMK TRACE SC SCT120 BKN250 BECMG=
200809202000 METAR MROC 202000Z 25004KT CAVOK 25/21 A2996 RMK TRACE SC BKN120 SCT250 BECMG=
200809202100 METAR MROC 202100Z 25004KT CAVOK 25/21 A2995 RMK TRACE CU AC BKN250 BECMG=
200809202200 METAR MROC 202200Z 24005KT 9999 FEW020TCU BKN130 25/22 A2995 RMK LGT HZ ARND BECMG 7000 VCSH=
200809202300 METAR MROC 202300Z 25005KT 9999 FEW005 BKN100 22/22 A2995 VIS SW 7KMS DUE HZ LOW CLOWDS OVER APCH07 BECMG=
200809210000 METAR MROC 210000Z 27008KT 7000 3000SW -RA VCFG BR SCT004 BKN010 21/21 A2997 RMK VIS SE E UNLTD BECMG 4000=
200809210100 METAR MROC 210100Z 34003KT 9999 VCFG SCT003 BKN010 21/21 A3000 RERA RMK VIS S SW 7KMS BECMG=
200809210200 METAR MROC 210200Z 31002KT 9999 VCFG SCT005 BKN012 21/21 A3003 VIS 7KMS S SSW BECMG=
200809210300 METAR MROC 210300Z 26004KT 6000 VCFG SCT003 BKN012 21/21 A3004 RMK BECMG 2000 BR=
200809210400 METAR MROC 210400Z 27005KT 6000 VCFG FEW002 SCT008 BKN015 20/20 A3005 BECMG=
200809210500 METAR MROC 210500Z 29005KT 4000 +RA FEW002 SCT010 BKN020 20/20 A3005 BECMG=
200809210600 METAR MROC 210600Z 00000KT 6000 -RA VCFG FEW002 SCT010 BKN020 19/19 A3004 RMK BECMG 2000 -RA BR=
200809210700 METAR MROC 210700Z 07004KT 9999 FEW030 BKN100 19/19 A3000 RMK TRACE ST RERA BECMG CAVOK=
200809210800 METAR MROC 210800Z 06004KT CAVOK 19/19 A2998 RMK FEW120 BKN180 BECMG=
200809210900 METAR MROC 210900Z 16003KT CAVOK 19/19 A2998 RMK TRACE ST BKN120 BECMG=
200809211000 METAR MROC 211000Z 00000KT CAVOK 19/19 A2999 RMK TRACE ST BKN120 BECMG=
200809211100 METAR MROC 211100Z 11003KT 9999 VCFG FEW002 SCT020 BKN120 19/19 A3000 BECMG=
200809211200 METAR MROC 211200Z 10003KT CAVOK 19/19 A3001 RMK BKN120 BECMG=
200809211300 METAR MROC 211300Z 09002KT 9999 OVC030 20/20 A3003 RMK LGT HZ ARND BECMG=
200809211400 METAR MROC 211400Z 00000KT 9999 SCT027 BKN035 22/20 A3005 RMK LGT HZ ARND BECMG=
200809211500 METAR MROC 211500Z 28002KT 9999 FEW035 SCT060 24/20 A3006 RMK TRACE CI BECMG=
200809211600 METAR MROC 211600Z 24006KT 9999 BKN025 24/21 A3005 BECMG=
200809211700 METAR MROC 211700Z 24009KT 9999 FEW020TCU SCT030 25/21 A3002 BECMG 7000 VCSH=
200809211800 METAR MROC 211800Z 25011KT 9999 FEW015TCU SCT025 24/22 A3000 PCPN DST ENE BECMG 7000 VCSH=
200809211900 METAR MROC 211900Z 26011KT 8000 VCSH FEW015CB BKN025 23/21 A2998 RMK RASH ARND BECMG 5000 RA=
200809212000 METAR MROC 212000Z 24010KT 4000 -RA VCSH FEW004 SCT015CB BKN025 20/20 A2998 RETS RMK VIS W UNLTD BECMG 2000=
200809212100 METAR MROC 212100Z 20005KT 4000 RA BR FEW001 SCT005 OVC100 19/19 A2998 BECMG=
200809212200 METAR MROC 212200Z 20003KT 7000 4000N -RA BR FEW001 SCT005 OVC100 20/20 A2998 BECMG 3000 RA BR=
200809212300 METAR MROC 212300Z 00000KT 7000 3000N -RA BR FEW001 SCT005 OVC100 20/20 A2999 BECMG 3000 RA BR=
200809220000 METAR MROC 220000Z 09002KT 8000 4000N RA BR FEW001 SCT010 OVC100 20/20 A3001 BECMG 3000 RA BR=
200809220100 METAR MROC 220100Z 06002KT 9999 FEW030 BKN100 20/20 A3002 RERA BECMG 6000 -RA VCFG=
200809220200 METAR MROC 220200Z 00000KT 9999 FEW030 BKN100 20/20 A3004 RMK TRACE ST BECMG 6000 -RA VCFG=
200809220300 METAR MROC 220300Z 23002KT 0200 R07/0100 FG VV/// 20/20 A3005 BECMG=
200809220400 METAR MROC 220400Z 22002KT 5000 -DZ BR FEW002 BKN005 20/20 A3005 BECMG=
200809220500 METAR MROC 220500Z 00000KT 8000 3000SW VCFG BR FEW003 BKN006 20/20 A3006 BECMG=
200809220600 METAR MROC 220600Z 00000KT 7000 VCFG SCT004 BKN008 20/20 A3004 RMK VIS 5000SW BR BECMG=
200809220700 METAR MROC 220700Z 04002KT 9999 -DZRA VCFG FEW003 BKN020 19/19 A3001 RMK FEW100 VIS SW 7KM DUE ST BECMG=
200809220800 METAR MROC 220800Z 07003KT 9999 VCFG FEW003 SCT025 20/20 A2999 RERA RMK SCT100 VIS SW 7KM DUE ST BECMG -RA=
200809220900 METAR MROC 220900Z 08002KT 9999 FEW030 SCT110 19/19 A2998 RMK ST SW BECMG CAVOK=
200809221000 METAR MROC 221000Z 06005KT 9999 SCT030 SCT110 19/18 A2998 RMK ST S BECMG=
200809221100 METAR MROC 221100Z 07004KT CAVOK 18/18 A2998 RMK SCT120 FEW250 ST S BECMG=
200809221200 METAR MROC 221200Z 08004KT CAVOK 18/18 A3001 RMK SCT120 SCT250 TCU DST SW TRACE SC BECMG=
200809221300 METAR MROC 221300Z 00000KT CAVOK 21/19 A3005 RMK TCU DST SW SCT120 SCT250 BECMG=
200809221400 METAR MROC 221400Z 25005KT 9999 FEW035 BKN250 22/19 A3006 RMK TRACE AC BECMG=
200809221500 METAR MROC 221500Z 25006KT 9999 SCT035 SCT250 23/21 A3007 BECMG=
200809221600 METAR MROC 221600Z 29006KT 9999 SCT035 SCT250 24/21 A3007 BECMG=
200809221700 METAR MROC 221700Z 28007KT 9999 SCT030 SCT250 25/21 A3006 RMK TRACE AC BECMG=
200809221800 METAR MROC 221800Z 25005KT 9999 FEW010TCU SCT030 25/20 A3003 RMK FEW250 BECMG=
200809221900 METAR MROC 221900Z 26010KT 9999 FEW010TCU BKN030 25/21 A3000 BECMG 7000 VCSH=
200809222000 METAR MROC 222000Z 25011KT 9999 FEW005 SCT015 BKN030 24/22 A2998 BECMG 7000 VCSH=
200809222100 METAR MROC 222100Z 25007KT 9999 BKN012 FEW020TCU 23/21 A2997 RASH E BECMG 6000 VCSH=
200809222200 METAR MROC 222200Z 24006KT 9999 SCT010 BKN025 21/21 A2998 RERA BECMG=
200809222300 METAR MROC 222300Z 23005KT 9999 FEW010 BKN035 22/20 A3000 BECMG=
200809230000 METAR MROC 230000Z 24004KT 9999 SCT015 BKN035 21/20 A3002 BECMG=
200809230100 METAR MROC 230100Z 24004KT 9999 SCT008 BKN020 20/20 A3003 BECMG=
200809230200 METAR MROC 230200Z 23004KT 9999 BKN034 20/20 A3005 BECMG=
200809230300 METAR MROC 230300Z 29005KT 9999 SCT020 BKN030 20/20 A3007 RMK TRACE ST BECMG=
200809230400 METAR MROC 230400Z 30004KT 9999 FEW010 BKN020 20/20 A3007 BECMG=
200809230500 METAR MROC 230500Z 28004KT 9999 FEW015 BKN030 20/20 A3007 BECMG=
200809230600 METAR MROC 230600Z 28004KT 9999 SCT012 BKN030 20/20 A3006 BECMG=
200809230700 METAR MROC 230700Z 31003KT 9999 SCT015 BKN030 20/20 A3003 BECMG=
200809230800 METAR MROC 230800Z 29003KT 9999 SCT015 BKN030 20/20 A3002 BECMG=
200809230900 METAR MROC 230900Z 35003KT 9999 SCT015 BKN030 20/20 A3001 BECMG=
200809231000 METAR MROC 231000Z 00000KT 9999 SCT015 BKN030 20/20 A3002 BECMG=
200809231100 METAR MROC 231100Z 00000KT 9999 SCT020 SCT035 20/20 A3003 RMK TRACE ST AC BECMG=
200809231200 METAR MROC 231200Z 03002KT 9999 SCT016 SCT035 21/19 A3004 RMK TRACE ST FEW120 PCPN DST ESE BECMG=
200809231300 METAR MROC 231300Z 00000KT 9999 SCT015 SCT250 22/19 A3006 VECMG 24006=
200809231400 METAR MROC 231400Z 12002KT 9999 SCT020 BKN250 23/19 A3008 BECMG=
200809231500 METAR MROC 231500Z 21003KT 9999 SCT015 BKN250 24/20 A3008 FEW120 BECMG=
200809231600 METAR MROC 231600Z 26006KT 9999 SCT030 BKN250 25/21 A3007 BECMG=
200809231800 METAR MROC 231800Z 25008KT 9999 SCT020 BKN250 26/21 A3002 RN DST E BECMG=
200809231900 METAR MROC 231900Z 26007KT 9999 SCT020 BKN250 26/21 A2999 CB/RASH E RN S BECMG 5000 VCSH=
200809232000 METAR MROC 232000Z 23007KT 9999 SCT010 BKN250 23/22 A2997 RN E/S BECMG 5000 -RA=
200809232100 METAR MROC 232100Z 28007KT 8000 -RA VCFG FEW004 SCT015 BKN120 21/21 A2997 BECMG=
200809232200 METAR MROC 232200Z 25005KT 7000 -RA VCFG SCT003 BKN010 21/21 A2997 BECMG 5000 BR=
200809232300 METAR MROC 232300Z 29006KT 6000 VCFG SCT003 BKN010 21/21 A2999 BECMG 2000 -RA BR=
200809240000 METAR MROC 240000Z 25004KT 2000 DZ BR SCT003 BKN010 21/21 A3001 BECMG=
200809240100 METAR MROC 240100Z 04003KT 4000 -RA BR FEW004 SCT010 OVC100 20/20 A3003 BECMG=
200809240200 METAR MROC 240200Z 00000KT 6000 -RA VCFG FEW004 SCT010 OVC100 21/21 A3006 BECMG=
200809240300 METAR MROC 240300Z 29003KT 8000 RA VCFG FEW001 SCT005 OVC100 20/20 A3007 BECMG 4000 -RA BR=
200809240400 METAR MROC 240400Z 00000KT 8000 VCFG FEW001 SCT005 OVC100 20/20 A3006 BECMG 4000 -RA BR=
200809240500 METAR MROC 240500Z 05004KT 9999 -DZ FEW030 OVC100 20/20 A3004 BECMG 6000 -RA VCFG=
200809240600 METAR MROC NIL=
200809240700 METAR MROC NIL=
200809240800 METAR MROC NIL=
200809240900 METAR MROC NIL=
200809241000 METAR MROC NIL=
200809241100 METAR MROC NIL=
200809241200 METAR MROC 241200Z 00000KT 9999 FEW003 SCT120 18/18 A3000 RMK TRACE CI BECMG=
200809241300 METAR MROC 241300Z 08003KT CAVOK 21/18 A3001 RMK TRACE ST FEW130=
200809241400 METAR MROC NIL=
200809241500 METAR MROC 241500Z 24004KT 9999 FEW035 SCT250 25/20 A3003 BECMG=
200809241600 METAR MROC 241600Z 29005KT 9999 FEW035 SCT250 26/21 A3003 BECMG=
200809241700 METAR MROC 241700Z 25006KT 9999 SCT025TCU SCT250 27/21 A3001 BECMG=
200809241800 METAR MROC 241800Z 29005KT 9999 TS FEW012CB SCT025 BKN250 27/20 A2998 RMK TS RASH DST N NE BECMG 5000 -TSRA=
200809241900 METAR MROC 241900Z 26007KT 9999 SCT020TCU BKN100 25/21 A2995 BECMG=
200809242000 METAR MROC 242000Z 23006KT 9999 SCT018 BKN100 25/22 A2992 BECMG=
200809242100 METAR MROC 242100Z 25010KT 9999 SCT020 BKN100 24/21 A2991 RMK RN DST N NE BECMG 5000 VCSH=
200809242200 METAR MROC 242200Z 24010KT 9999 FEW008 BKN025 23/21 A2993 RMK RN DST NE BECMG BECMG 7000 VCSH=
200809242300 METAR MROC 242300Z 25007KT 8000 -DZ VCFG FEW003 SCT015 BKN100 22/21 A2993 BECMG 6000=
200809242351 METAR MROC 250000Z 28006KT 6000 VCFG FEW003 SCT012 BKN030 22/21 A2995 BECMG 4000 -RA BR=
200809242359 METAR MROC 250000Z 28006KT 6000 VCFG FEW003 SCT012 BKN030 22/21 A2995 BECMG 4000 -RA BR=
200809250000 METAR MROC 250000Z 28006KT 6000 VCFG FEW003 SCT012 BKN030 22/21 A2995 BECMG 4000 -RA BR=
200809250100 METAR MROC 250100Z 26004KT 5000 BR FEW002 SCT012 BKN025 21/21 A2997 BECMG 3000 BR=
200809250200 METAR MROC 250200Z 32006KT 9999 4000SW BR FEW001 SCT008 BKN025 21/20 A2998 BECMG 3000 BR=
200809250300 METAR MROC 250300Z 25004KT 9999 SCT005 BKN020 21/21 A3002 LTNG DST S BECMG=
200809250400 METAR MROC 250400Z 27004KT 9999 SCT005 BKN030 21/21 A3002 RMK LTNG DIST S BECMG=
200809250500 METAR MROC 250500Z 27003KT 9999 FEW008 BKN035 21/21 A3002 BECMG=
200809250600 METAR MROC 250600Z 04003KT 9999 FEW010 SCT035 21/21 A2997 BECMG=
200809250700 METAR MROC 250700Z 10002KT CAVOK 20/20 A2994 FEW280 BECMG=
200809250800 METAR MROC 250800Z 35003KT 9999 20/20 A2993 FEW280 TRACE ST S BECMG=
200809250900 METAR MROC 250900Z 00000KT 9999 FEW008 SCT020 20/20 A2994=
200809251000 METAR MROC 251000Z 06002KT 9999 FEW004 BKN015 19/19 A2995 VSBY S 6KM LOW ST BECMG=
200809251100 METAR MROC 251100Z 00000KT 9999 SCT030 SCT100 20/20 A2997 LTNG DST S BECMG=
200809251200 METAR MROC 251200Z 03004KT 9999 BKN035 20/19 A2998 BECMG=
200809251300 METAR MROC 251300Z 11005KT 9999 FEW030 22/19 A3000 BECMG=
200809251400 METAR MROC 251400Z 04007KT CAVOK 25/18 A3000 RMK TRACE CU CI TCU DST SW BECMG 24006KT=
200809251500 METAR MROC 251500Z 23008KT 9999 FEW030 25/20 A3000 RMK TCU DST SW HZ LGT N NW BECMG=
200809251600 METAR MROC 251600Z 24014KT 9999 FEW030 25/21 A3000 RMK HZ N NW BECMG=
200809251700 METAR MROC 251700Z 26011KT 9999 SCT030 25/21 A2998 RMK HZ N NE BECMG=
200809251800 METAR MROC 251800Z 25012KT 9999 SCT025 25/21 A2996 RMK TCU DST NE BECMG 7000 VCSH=
200809251900 METAR MROC 251900Z 24012KT 9999 FEW015CB BKN025 26/22 A2992 RMK RN N NE BECMG 7000 RA=
200809252000 METAR MROC 252000Z 30015KT 9999 -TSRA SCT010CB BKN020 22/19 A2991 BECMG 5000 TSRA=
200809252100 METAR MROC 252100Z 33002KT 9999 -RA SCT015 BKN030 22/21 A2993 RETS BECMG=
200809252200 METAR MROC 252200Z 20003KT 8000 VCFG SCT005 BKN010 22/22 A2994 RERA RMK VIS S SSW UNLTD BECMG 4000 -RA BR=
200809252300 METAR MROC 252300Z 01004KT 9999 -RA FEW020 SCT035 BKN120 22/21 A2995 BECMG=
200809260000 METAR MROC 260000Z 14002KT 9999 -RA FEW040 BKN120 21/21 A2994 BECMG=
200809260100 METAR MROC 260100Z 30004KT 9999 VCFG SCT120 SCT250 21/21 A2997 RERA RMK TRACE SC VIS SW 6KMS BECMG 5000 BR=
200809260200 METAR MROC 260200Z 20002KT 2000 BR SCT002 BKN004 21/21 A2999 RMK VIS E N UNL BECMG 0500 FG=
200809260300 METAR MROC 260300Z 26003KT 5000 BR SCT004 BKN010 21/21 A3001 BECMG 2000 BR=
200809260400 METAR MROC 260400Z 17004KT 4000 BR SCT005 BKN010 21/21 A3001 BECMG=
200809260500 METAR MROC 260500Z 04003KT 9999 FEW007 BKN015 21/21 A3001 BECMG=
200809260600 METAR MROC 260600Z 08003KT 9999 SCT025 20/20 A2999 BECMG=
200809260700 METAR MROC 260700Z 05003KT 9999 FEW030 19/19 A2997 BECMG=
200809260800 METAR MROC 260800Z 07003KT CAVOK 19/18 A2995 RMK TRACE SC BECMG=
200809260900 METAR MROC 260900Z 10003KT CAVOK 18/18 A2995 RMK TRACE ST SC SCT120 BECMG=
200809261000 METAR MROC 261000Z 07004KT CAVOK 18/17 A2996 RMK TRACE ST SC SCT120 BECMG=
200809261100 METAR MROC 261100Z 09004KT CAVOK 18/17 A2997 RMK SCT250 BECMG=
200809261200 METAR MROC 261200Z 09004KT CAVOK 18/17 A2999 RMK TRACE SC CI TCU DST W BECMG=
200809261300 METAR MROC 261300Z 07002KT CAVOK 21/18 A3003 RMK TRACE SC FEW250 TCU=
200809261400 METAR MROC 261400Z 28002KT CAVOK 24/19 A3005 RMK TRACE CU CI FEW140 HZY BECMG=
200809261500 METAR MROC 261500Z 22003KT 9999 FEW040 SCT250 26/20 A3005 RMK TRACE AC HZY BECMG=
200809261600 METAR MROC 261600Z 00000KT 9999 FEW040 SCT250 26/21 A3002 LGT HZ ARND BECMG=
200809261700 METAR MROC 261700Z 25004KT 9999 FEW040 SCT300 28/21 A2999 HZY BECMG=
200809261800 METAR MROC 261800Z 24010KT 9999 FEW035 27/23 A2997 RMK FEW300 TCU DST E SE S SSW HZY BECMG=
200809261900 METAR MROC NIL=
200809262000 METAR MROC 262000Z 24009KT 9999 FEW015CB SCT030 BKN120 24/22 A2993 RMK PCPN DST N NE E BECMG 7000 RA VCSH=
200809262100 METAR MROC 262100Z 25010KT 9999 FEW010 SCT025 BKN120 23/23 A2993 BECMG 7000 RA VCSH/ RMK RN DIS N/NE/E=
200809262200 METAR MROC 262200Z 29008KT 6000 RA VCFG FEW001 SCT008 BKN030 21/21 A2995 RMK VIS S UNL BECMG 4000 +RA BR=
200809262300 METAR MROC 262300Z 29003KT 6000 -TSRA VCFG FEW001 FEW010CB SCT015 BKN030 21/21 A2999 BECMG 4000 +RA BR=
200809270000 METAR MROC 270000Z 08006KT 9999 3000SW RA BR FEW001 SCT005 BKN030 21/21 A3000 RETS BECMG 4000 +RA BR=
200809270100 METAR MROC 270100Z 10004KT 9999 3000SW RA BR FEW001 SCT025 OVC100 20/20 A3000 BECMG 4000 RA BR=
200809270200 METAR MROC 270200Z 07004KT 9999 -DZ FEW030 OVC100 20/20 A2999 BECMG=
200809270300 METAR MROC 270300Z 07007KT 9999 FEW025 SCT120 20/18 A3001 BECMG=
200809270400 METAR MROC 270400Z 18005KT 9999 4000SW BR FEW003 SCT120 20/19 A3001 RMK FEW020 BECMG 2000 BR=
200809270500 METAR MROC 270500Z 05004KT 9999 2500SW BR FEW002 SCT025 19/19 A3001 BECMG 5000 BR=
200809270600 METAR MROC 270600Z 06005KT CAVOK 19/17 A3000 RMK TRACE CU SC BECMG=
200809270700 METAR MROC 270700Z 06006KT CAVOK 18/17 A2998 BECMG=
200809270800 METAR MROC 270800Z 05004KT CAVOK 18/16 A2997 RMK SCT120 BECMG=
200809270900 METAR MROC 270900Z 07004KT CAVOK 18/16 A2996 RMK FEW120 FEW250 BECMG=
200809271000 METAR MROC 271000Z 05002KT CAVOK 17/16 A2998 RMK FEW250 ST SSE/S BECMG=
200809271100 METAR MROC 271100Z 09005KT CAVOK 18/16 A2999 RMK FEW120 FEW250 CB/LTNG DST S ST SSE/S BECMG=
200809271200 METAR MROC 271200Z 06004KT CAVOK 18/16 A2999 RMK SCT250 TRACE AC BECMG=
200809271300 METAR MROC 271300Z 07005KT CAVOK 22/18 A3001 RMK TRACE SC SCT250 BECMG=
200809271400 METAR MROC 271400Z 34002KT CAVOK 25/19 A3004 RMK TRACE AC BKN250 BECMG=
200809271500 METAR MROC 271500Z 23006KT 9999 FEW040 BKN250 25/21 A3004 BECMG=
200809271600 METAR MROC 271600Z 28006KT 9999 FEW040 BKN250 26/21 A3003 BECMG=
200809271700 METAR MROC 271700Z 26008KT 9999 FEW040 SCT130 BKN250 26/21 A3001 BECMG=
200809271800 METAR MROC 271800Z 22010KT 9999 SCT035 SCT130 25/22 A2999 RMK FEW250 BECMG=
200809271900 METAR MROC 271900Z 23006KT 9999 -TS FEW010CB SCT035 BKN110 25/22 A2997 RMK RASH DST N NE E S BECMG 6000 VCSH=
200809272000 METAR MROC 272000Z VRB03KT 9999 3000SW -RA SCT030 OVC100 21/20 A2995 RETS BECMG=
200809272100 METAR MROC 272100Z 30005KT 9999 VCSH FEW005 SCT020CB BKN045 20/20 A2996 VSBY SW W NW 6KM DUE RASH BECMG=
200809272200 METAR MROC 272200Z 20002KT 9999 FEW015 SCT040 BKN100 21/21 A2997 BECMG=
200809272300 METAR MROC 272300Z 18003KT 9999 FEW015 BKN040 21/20 A2999 RN E VSBY N 6KM DUE LOW ST BECMG=
200809280000 METAR MROC 280000Z 08002KT 9999 -RA SCT035 BKN100 21/21 A3001 BECMG=
200809280100 METAR MROC 280100Z 05004KT 9999 -DZ FEW035 BKN100 21/21 A3002 RERA RMK TRACE ST BECMG=
200809280200 METAR MROC 280200Z 10003KT CAVOK 20/19 A3002 REDZ RMK TRACE SC BKN120 BECMG=
200809280300 METAR MROC 280300Z 07003KT CAVOK 19/19 A3002 RMK TRACE SC BKN120 BECMG=
200809280400 METAR MROC 280400Z 36003KT CAVOK 19/19 A3004 RMK TRACE SC SCT140 SCT250 BECMG=
200809280500 METAR MROC 280500Z 00000KT CAVOK 19/19 A3005 RMK TRACE SC SCT120 SCT250 BECMG=
200809280600 METAR MROC 280600Z 36002KT CAVOK 20/19 A3003 RMK TRACE SC BKN120 BECMG=
200809280700 METAR MROC 280700Z 11004KT CAVOK 19/19 A3001 RMK TRACE SC BKN120 BECMG=
200809280800 METAR MROC 280800Z 09005KT CAVOK 19/18 A3000 RMK TRACE SC SCT120 SCT250 OCNL LTNG DST S=
200809280801 METAR MROC 280801Z 09005KT CAVOK 19/18 A3000 RMK TRACE SC SCT120 SCT250 OCNL LTNG DST S BECMG=
200809280900 METAR MROC 280900Z 04006KT CAVOK 19/18 A2998 RMK TRACE SC FEW120 SCT250 BECMG=
200809281000 METAR MROC NIL=
200809281100 METAR MROC 281100Z 07005KT CAVOK 18/17 A2999 RMK TRACE SC SCT130 SCT250 BECMG=
200809281200 METAR MROC 281200Z 16003KT CAVOK 18/18 A3000 RMK TRACE SC BKN120 CBS DIST S SSW SW BECMG=
200809281300 METAR MROC 281300Z 00000KT CAVOK 22/18 A3002 TRAZAS SC BKN120 BECMG=
200809281400 METAR MROC 281400Z 24006KT CAVOK 23/20 A3004 TRAZAS SC BKN120 BECMG=
200809281500 METAR MROC 281500Z 29004KT 9999 FEW025 SCT120 BKN280 23/20 A3005 BECMG=
200809281600 METAR MROC 281600Z 23004KT 9999 FEW025 SCT120 BKN280 25/20 A3005 BECMG=
200809281700 METAR MROC 281700Z 26007KT 9999 FEW015TCU BKN280 26/22 A3001 RN NW/ENE BECMG 5000 VCSH=
200809281800 METAR MROC 281800Z 26008KT 9999 -RA SCT015TCU SCT120 BKN280 25/22 A2999 BECMG=
200809281900 METAR MROC 281900Z 23006KT 9999 -RA VCSH SCT015TCU SCT040 24/21 A2996 VSBY N NE 6KM DUE RASH BECMG=
200809282000 METAR MROC 282000Z 22004KT 9999 -RA VCSH FEW015 SCT040 BKN120 22/20 A2995 VSBY NW N 6KM DUE RASH BECMG=
200809282100 METAR MROC 282100Z 29003KT 9999 FEW005 BKN012 23/22 A2993 RERA RMK RN DST E BECMG 6000 VCSH=
200809282200 METAR MROC 282200Z 26003KT 5000 RA BR FEW005 BKN010 21/21 A2994 BECMG 2000 -RA BR=
200809282300 METAR MROC 282300Z 22006KT 1200 RA BR SCT001 BKN008 20/20 A2997 BECMG=
200809290000 METAR MROC 290000Z 30002KT 6000 VCFG FEW003 BKN025 19/19 A2998 BECMG 2000 BR=
200809290100 METAR MROC 290100Z 36003KT 6000 RA VCFG FEW003 BKN025 20/20 A3001 BECMG 3000 -RA BR=
200809290200 METAR MROC 290200Z 09002KT 7000 -RA VCFG FEW004 SCT025 OVC100 19/19 A3003 BECMG=
200809290300 METAR MROC 290300Z VRB02KT 9999 -RA SCT030 OVC100 19/19 A3004 BECMG=
200809290400 METAR MROC 290400Z VRB02KT 9999 FEW030 OVC100 20/20 A3003 RERA BECMG=
200809290500 METAR MROC 290500Z 00000KT 9999 FEW030 OVC100 20/20 A3003 RMK TRACE ST BECMG=
200809290600 METAR MROC 290600Z 12002KT 0500 R07/075 FG VV/// 19/19 A3002 BECMG 1000 BR=
200809290700 METAR MROC 290700Z 07004KT 9999 3000SW BR FEW001 BKN120 18/18 A2998 BECMG 08004KT CAVOK=
200809290800 METAR MROC 290800Z 06004KT CAVOK 18/18 A2994 RMK TRACE SC BKN120 BECMG=
200809290900 METAR MROC 290900Z 07005KT CAVOK 19/18 A2993 RMK TRACE SC BKN120 BECMG=
200809291000 METAR MROC 291000Z 10004KT CAVOK 19/18 A2995 RMK TRACE SC BKN120 BECMG=
200809291100 METAR MROC 291100Z VRB03KT CAVOK 19/18 A2997 RMK TRACE SC BKN120 BECMG=
200809291200 METAR MROC 291200Z 35003KT 9999 FEW030 SCT120 BKN250 18/18 A3000 BECMG=
200809291300 METAR MROC 291300Z 00000KT 9999 VCFG FEW005 SCT015 BKN250 20/18 A3002 BECMG=
200809291400 METAR MROC 291400Z 34002KT 9999 VCFG FEW006 SCT015 BKN250 21/19 A3004 BECMG 24006KT=
200809291500 METAR MROC 291500Z 10002KT 9999 SCT015 BKN250 23/19 A3005 BECMG=
200809291600 METAR MROC 291600Z 24005KT 9999 FEW025 SCT110 BKN250 25/20 A3004 BECMG=
200809291700 METAR MROC 291700Z 25010KT 9999 SCT015 SCT110 BKN250 25/21 A3003 BECMG=
200809291800 METAR MROC 291800Z 28005KT 9999 SCT010 SCT015 BKN110 24/21 A3001 BECMG 5000 RA=
200809291900 METAR MROC 291900Z 25012KT 0500 -RA FG RVR07/300 VV/// 21/21 A2999 BECMG=
200809292000 METAR MROC 292000Z 23010KT 2500 BR SCT002 BKN008 20/20 A2997 BECMG 6000 VCFG=
200809292100 METAR MROC 292100Z 24011KT 5000 2000SW -DZ BR SCT001 BKN008 20/20 A2998 BECMG 3000 -RA BR=
200809292200 METAR MROC 292200Z 26008KT 3000 -RA BR SCT002 BKN008 20/20 A2999 BECMG=
200809292300 METAR MROC 292300Z 36004KT 5000 -RA BR FEW003 SCT008 BKN020 19/19 A3002 BECMG=
200809300000 METAR MROC 300000Z 36004KT 5000 RA BR FEW005 BKN020 19/19 A3005 BECMG 3000 -RA BR=
200809300100 METAR MROC 300100Z 18004KT 4000 RA BR FEW001 SCT003 BKN008 19/19 A3009 RMK VIS 2000SW BECMG 1200 DZ BR=
200809300200 METAR MROC 300200Z 06003KT 7000 RA SCT020 BKN080 19/19 A3009 BECMG=
200809300300 METAR MROC 300300Z 08003KT 9999 FEW020 BKN120 19/19 A3009 RERA BECMG=
200809300400 METAR MROC 300400Z 10002KT 9999 FEW030 OVC120 19/19 A3009 BECMG=
200809300500 METAR MROC 300500Z 04003KT CAVOK 19/19 A3007 RMK TRACE SC BKN130 BECMG=
200809300600 METAR MROC 300600Z 10008KT CAVOK 19/19 A3006 TRACE SCT SCT120 BECMG=
200809300700 METAR MROC 300700Z 01002KT CAVOK 19/19 A3002 TRACE SCT SCT130 BECMG=
200809300800 METAR MROC 300800Z 11002KT CAVOK 18/18 A3002 BKN100 TRACE SCT=
200809300900 METAR MROC 300900Z 08003KT 9999 FEW040 SCT100 18/18 A3003 BECMG=
200809301000 METAR MROC 301000Z 09004KT CAVOK 19/18 A3003 TRACE SCT SCT140 BECMG=
200809301100 METAR MROC 301100Z 09004KT CAVOK 18/18 A3004 TRACE SCT BKN100 BECMG=
200809301200 METAR MROC 301200Z 07004KT CAVOK 18/18 A3004 SCT100 SCT250 BECMG=
200809301300 METAR MROC 301300Z 08004KT CAVOK 20/18 A3007 RMK TRACE SC BKN120 SCT250 BECMG=
200809301400 METAR MROC 301400Z 08003KT CAVOK 23/19 A3008 RMK TRACE SC SCT120 SCT250 BECMG=
200809301500 METAR MROC 301500Z 10002KT CAVOK 24/17 A3008 RMK TRACE SC SCT120 SCT250 BECMG 24004KT=
200809301600 METAR MROC 301600Z 25008KT 9999 FEW035 BKN120 25/21 A3009 BECMG=
200809301700 METAR MROC 301700Z 23007KT 9999 FEW030 BKN120 25/20 A3007 BECMG=
200809301800 METAR MROC 301800Z 23007KT 9999 FEW030 BKN120 25/21 A3006 RMK FEW250 BECMG=
200809301900 METAR MROC 301900Z 25009KT 9999 FEW020TCU SCT030 SCT120 25/22 A3004 BECMG=
200809302000 METAR MROC 302000Z 26009KT 9999 FEW015CB SCT025 25/22 A3001 RMK FEW120 BECMG=
200809302100 METAR MROC 302100Z 26012KT 9999 TS VCSH FEW015CB SCT025 25/22 A3000 RMK VIS SE 8KMS RASH DST NW WNW BECMG 5000 TSRA=
200809302200 METAR MROC 302200Z 26009KT 9999 4000N VCSH SCT015CB BKN025 23/21 A3002 BECMG 3000 SHRA=
200809302300 METAR MROC 302300Z 24005KT 9999 VCSH FEW015CB BKN025 22/21 A3003 RMK VIS N NW 7KMS BECMG 5000 RA=
200810010000 METAR MROC 010000Z 24006KT 9999 FEW004 SCT010 BKN020 21/21 A3005 BECMG 5000 -RA BR=
200810010100 METAR MROC 010100Z 23003KT 9999 -RA VCFG FEW004 SCT008 BKN020 21/21 A3007 BECMG 5000=
200810010200 METAR MROC 010200Z 00000KT 9999 FEW004 SCT015 BKN150 20/20 A3008 BECMG 5000 BR=
200810010300 METAR MROC 010300Z 08004KT 9999 FEW015 SCT120 20/20 A3008 BECMG=
200810010400 METAR MROC 010400Z 06004KT CAVOK 20/20 A3009 RMK SCT120 BECMG=
200810010500 METAR MROC NIL=
200810010600 METAR MROC 010600Z 00000KT 9999 FEW035 BKN250 29/29 A3003 RMK BECMG 6000 VCFG=
200810010700 METAR MROC 010700Z 00000KT 9999 6000SW VCFG FEW001 SCT020 BKN120 ///// A3002 RMK BECMG 2000 BR=
200810010800 METAR MROC 010800Z 16002KT 7000 VCFG FEW003 SCT020 BKN100 19/19 A3000 BECMG=
200810010900 METAR MROC NIL=
200810011000 METAR MROC 011000Z 00000KT 7000 VCFG FEW003 SCT020 BKN100 19/19 A3000 BECMG=
200810011100 METAR MROC 011100Z 00000KT 7000 VCFG FEW003 SCT010 BKN100 19/19 A3003 RMK BECMG 9999=
200810011200 METAR MROC 011200Z 10002KT 9999 FEW003 SCT010 BKN100 19/19 A3004 BECMG=
200810011300 METAR MROC 011300Z 07003KT 9999 VCFG BKN012 20/19 A3008 RMK VIS W NW N 8KMS BECMG=
200810011400 METAR MROC 011400Z 00000KT 9999 FEW020 SCT300 22/20 A3008 RMK LGT HZ ARND BECMG=
200810011500 METAR MROC 011500Z 33002KT CAVOK 24/19 A3007 TRACE CU AC SCT300 LGT HZ ARND BECMG=
200810011600 METAR MROC 011600Z 27005KT 9999 FEW025 SCT300 26/20 A3006 RMK LGT HZ ARND BECMG=
200810011700 METAR MROC 011700Z 26007KT 9999 FEW030 SCT070 26/21 A3005 RMK LGT HZ ARND BECMG=
200810011800 METAR MROC 011800Z 25009KT 9999 SCT030 SCT100 26/22 A3001 RMK LGT HZ ARND BECMG 7000 VCSH SCT020TCU=
200810011900 METAR MROC 011900Z 24011KT 9999 SCT020TCU SCT030 25/22 A2999 RMK HZY CB DST SE SSE RASH DIST ESE BECMG 3000 TSRA=
200810012000 METAR MROC 012000Z COR 26014KT 9999 VCSH BKN015 FEW018CB 23/22 A2997 RMK RASH VIS 7KMS TO SSW BECMG 3000 TSRA=
200810012100 METAR MROC 012100Z 26011KT 9999 SCT010 BKN020 22/21 A2997 BECMG 6000 SHRA=
200810012200 METAR MROC 012200Z 26007KT 8000 4000N BR FEW002 SCT010 BKN020 21/21 A2999 BECMG 5000 SHRA=
200810012300 METAR MROC 012300Z 26004KT 6000 RA VCFG FEW002 SCT010 BKN020 20/20 A3000 BECMG 3000 +RA=
200810020000 METAR MROC 020000Z VRB03KT 9999 3000SW RA BR FEW002 SCT020 BKN100 20/20 A3002 BECMG 2500 -RA BR=
200810020100 METAR MROC 020100Z 03002KT 9999 3000SW FEW002 SCT020 BKN100 20/20 A3004 BECMG 2500 +RA BR=
200810020200 METAR MROC 020200Z 00000KT 9999 4000SW RA BR FEW005 SCT020 OVC100 20/20 A3007 BECMG 2500 +RA BR=
200810020300 METAR MROC 020300Z 00000KT 9999 RA FEW005 BKN090 20/20 A3008 RMK VIS 6000SW VCFG BECMG=
200810020400 METAR MROC 020400Z 16002KT 7000 3000W -RA BR FEW003 SCT005 BKN100 20/20 A3008 BECMG 1000 -DZ BR=
200810020500 METAR MROC 020500Z 25002KT 5000 BR FEW002 SCT005 BKN100 20/20 A3006 BECMG 1000 BR=
200810020600 METAR MROC 020600Z 10002KT 9999 VCFG FEW003 SCT090 20/20 A3004 RMK FEW015 VIS 7000SW BECMG=
200810020700 METAR MROC 020700Z 08004KT 9999 FEW003 BKN100 19/19 A3001 RMK FEW030 ST SSE/S BECMG=
200810020800 METAR MROC 020800Z 08004KT 9999 VCFG FEW003 SCT110 19/19 A3000 RMK FEW260 VIS 8KM W DUE ST BECMG CAVOK=
200810020900 METAR MROC 020900Z 08003KT 9999 FEW030 SCT110 19/19 A3001 RMK SCT260 ST S BECMG=
200810021000 METAR MROC 021000Z 00000KT 9999 FEW030 BKN110 19/19 A3000 BECMG=
200810021100 METAR MROC 021100Z 11003KT 9999 VCFG FEW003 BKN110 18/18 A2999 RMK FEW030 VIS SW 7KM DUE ST ST S BECMG=
200810021200 METAR MROC 021200Z 09004KT 9999 FEW035 BKN110 19/19 A3001 RMK ST SSW SW BECMG=
200810021300 METAR MROC 021300Z 09003KT CAVOK 20/19 A3003 RMK TRACE SC BKN120 BECMG=
200810021400 METAR MROC 021400Z 00000KT CAVOK 23/20 A3004 RMK TRACE SC SCT120 BKN250 BECMG 24005KT=
200810021500 METAR MROC 021500Z 23006KT 9999 FEW040 SCT120 BKN250 23/21 A3006 BECMG=
200810021600 METAR MROC 021600Z 25008KT 9999 FEW010 SCT120 BKN250 25/21 A3005=
200810021700 METAR MROC 021700Z 26005KT 9999 SCT035 BKN120 25/20 A3003 RMK FEW250 BECMG=
200810021800 METAR MROC 021800Z 26008KT 9999 FEW015TCU SCT035 BKN120 25/21 A3000 RMK FEW250 BECMG=
200810021900 METAR MROC 021900Z 25010KT 9999 FEW015TCU SCT030 BKN120 25/22 A2997 RMK FEW250 BECMG=
200810022000 METAR MROC 022000Z 26010KT 9999 FEW010 SCT030 BKN100 23/21 A2994 BECMG=
200810022100 METAR MROC 022100Z 25010KT 9999 BKN015 SCT120 23/21 A2994 RN DST ESE BECMG=
200810022200 METAR MROC 022200Z 24008KT 9999 BKN015 FEW020TCU 22/21 A2994 RN DST ESE BECMG 7000 VCFG=
200810022300 METAR MROC 022300Z 27007KT 9999 VCFG SCT006 BKN012 21/21 A2995 RN DST E VSBY N 6KM LOW ST BECMG 5000 -RA BR=
200810030000 METAR MROC 030000Z 26005KT 9999 SCT006 SCT015 21/21 A2997 BECMG=
200810030100 METAR MROC 030100Z 26006KT 6000 VCFG SCT004 BKN010 21/21 A3000 VSBY E SE UNL BECMG=
200810030200 METAR MROC 030200Z 26007KT 9999 VCFG SCT005 BKN015 20/20 A3002 VSBY N 6KM LOW ST BECMG=
200810030300 METAR MROC 030300Z 26004KT 5000 -RA BR SCT003 BKN010 20/20 A3003 RMK VIS W WNW 3KMS BECMG 3000 BR=
200810030400 METAR MROC 030400Z 00000KT 4000 -RA BR SCT002 BKN010 20/20 A3004 RMK VIS ESE 7KMS BECMG=
200810030500 METAR MROC 030500Z 00000KT 9999 -RA VCFG FEW003 SCT020 BKN080 20/20 A3004 RMK VIS SW W 6KMS BECMG=
200810030600 METAR MROC 030600Z 11003KT 9999 -RA FEW025 BKN040 20/20 A3001 BECMG=
200810030700 METAR MROC 030700Z 00000KT 9999 FEW040 BKN100 20/20 A2998 RERA RMK TRACE ST BECMG=
200810030800 METAR MROC 030800Z 24002KT 3000 BR SCT003 SCT025 BKN100 20/20 A2996 RMK VIS E UNLTD BECMG=
200810030900 METAR MROC 030900Z 00000KT 4000 BR FEW003 SCT020 BKN100 20/20 A2997 RMK VIS E SE UNLTD BECMG=
200810031000 METAR MROC 031000Z 00000KT 8000 VCFG FEW020 SCT100 BKN250 19/19 A2997 RMK VIS S SW 4KMS VIS SE UNLTD BECMG=
200810031100 METAR MROC 031100Z 05004KT CAVOK 19/19 A2998 RMK TRACE SC SCT120 BKN250 BECMG=
200810031200 METAR MROC 031200Z 10003KT CAVOK 18/18 A2999 RMK TRACE SC SCT140 BKN250 HZY BECMG=
200810031300 METAR MROC 031300Z 10002KT CAVOK 21/20 A3001 TRACE SCT BKN250 BECMG=
200810031400 METAR MROC 031400Z 10002KT 9999 BKN018 SCT120 23/20 A3003 BECMG 24008KT=
200810031500 METAR MROC 031500Z 24005KT 9999 SCT020 SCT035 23/20 A3005 RN DST S BECMG=
200810031600 METAR MROC 031600Z 21005KT 9999 DZ SCT015 SCT035 22/21 A3004 BECMG=
200810031700 METAR MROC 031700Z 03004KT 9999 FEW015 SCT030 24/21 A3001 RN ENE BECMG=
200810031800 METAR MROC 031800Z 34004KT 9999 -RA VCSH SCT020 SCT035 22/22 A2999 VSBY NW N NE 5KM DUE RASH BECMG 6000 RA=
200810031900 METAR MROC 031900Z 23010KT 9999 SCT020 SCT120 25/21 A2996 RN NW N NE E BECMG=
200810032000 METAR MROC 032000Z 24005KT 9999 VSCH SCT020 SCT030 25/20 A2995 VSBY SE 6KM DUE RASH BECMG=
200810032100 METAR MROC 032100Z 20007KT 9999 SCT015 BKN025 23/21 A2992 RERA BECMG 5000 RA=
200810032200 METAR MROC 032200Z 21009KT 6000 -RA FEW003 SCT010 BKN020 22/20 A2993 BECMG 3000 -RA BR=
200810032300 METAR MROC 032300Z 22006KT 2000 -RA BR FEW002 SCT008 BKN015 21/21 A2995 BECMG 0500 FG=
200810040000 METAR MROC 040000Z 26004KT 1500 RA BR FEW002 SCT006 BKN015 20/20 A2998 BECMG=
200810040100 METAR MROC 040100Z 33003KT 3000 FEW003 SCT010 OVC100 20/20 A3000 BECMG=
200810040200 METAR MROC 040200Z 32002KT 4000 RA BR FEW004 SCT010 OVC100 20/20 A3002 BECMG=
200810040300 METAR MROC 040300Z 27003KT 9999 -RA FEW004 SCT010 OVC100 20/20 A3003 BECMG=
200810040400 METAR MROC NIL=
200810040500 METAR MROC 040500Z 30002KT 9999 -DZ FEW008 SCT020 OVC100 20/20 A3003 BECMG=
200810040600 METAR MROC 040600Z 31002KT 9999 FEW008 SCT020 OVC100 20/20 A3002 REDZ BECMG=
200810040700 METAR MROC 040700Z 35002KT 9999 FEW008 SCT020 OVC100 20/20 A3001 BECMG=
200810040800 METAR MROC 040800Z 33002KT 9999 FEW008 SCT020 OVC100 20/20 A2999 BECMG=
200810040900 METAR MROC 040900Z 32002KT 9999 FEW010 SCT015 OVC100 20/20 A2998 BECMG=
200810041000 METAR MROC 041000Z 28003KT 7000 VCFG FEW002 SCT015 OVC100 20/20 A2999 BECMG=
200810041100 METAR MROC 041100Z VRB02KT 9999 FEW010 SCT015 BKN100 20/20 A3000 BECMG=
200810041200 METAR MROC 041200Z 00000KT 7000 2000SW BR FEW001 SCT008 BKN020 20/20 A3002 BECMG 4000 BR=
200810041300 METAR MROC 041300Z 26002KT 6000 VCFG FEW002 SCT008 BKN020 20/20 A3004 BECMG UNL=
200810041400 METAR MROC 041400Z 32002KT 7000 VCFG FEW003 SCT008 BKN020 21/20 A3005 BECMG=
200810041500 METAR MROC 041500Z 26003KT 8000 VCFG FEW004 SCT010 BKN020 22/20 A3007 BECMG=
200810041600 METAR MROC 041600Z 27003KT 9999 SCT010 BKN020 24/20 A3006 BECMG=
200810041700 METAR MROC 041700Z 21007KT 9999 SCT010 BKN020 24/21 A3005 BECMG=
200810041800 METAR MROC NIL=
200810041900 METAR MROC 041900Z 28003KT 9999 SCT020 BKN120 25/20 A2999 BECMG=
200810042000 METAR MROC 042000Z 25004KT 9999 SCT020 BKN120 25/19 A2996 BECMG=
200810042100 METAR MROC 042100Z 27005KT 9999 FEW020TCU SCT025 BKN120 26/19 A2994 BECMG=
200810042200 METAR MROC 042200Z 23005KT 9999 SCT015 BKN110 25/21 A2994 RMK DZ DST NE E=
200810042300 METAR MROC 042300Z 25008KT 0800 FG SCT001 BKN003 21/21 A2996 BECMG=
200810050000 METAR MROC 050000Z 27005KT 7000 -DZ VCFG SCT003 BKN008 20/20 A2999 RMK VIS 4000 SW BR BECMG 5000 BR=
200810050100 METAR MROC 050100Z 26005KT 8000 -DZ VCFG FEW005 SCT010 BKN090 20/20 A3003 BECMG 5000 BR=
200810050200 METAR MROC NIL=
200810050300 METAR MROC 050300Z 00000KT 9999 FEW010 BKN120 20/20 A3006 BECMG=
200810050400 METAR MROC NIL=
200810050500 METAR MROC NIL=
200810050600 METAR MROC 050600Z 27003KT 9999 SCT010 BKN030 20/20 A3003 BECMG=
200810050700 METAR MROC 050700Z 28003KT 9999 FEW012 BKN110 20/20 A3000 BECMG=
200810050800 METAR MROC 050800Z 00000KT 9999 FEW005 BKN015 20/20 A3000 BECMG=
200810050900 METAR MROC 050900Z 00000KT 9999 -RA FEW015 BKN120 20/20 A3000 BECMG=
200810051000 METAR MROC NIL=
200810051100 METAR MROC NIL=
200810051200 METAR MROC NIL=
200810051300 METAR MROC 051300Z 06005KT CAVOK 21/20 A3002 RMK BKN120 SCT250 ST SSW BECMG=
200810051400 METAR MROC 051400Z 21005KT CAVOK 21/20 A3004 RMK BKN120 SCT250 BECMG=
200810051500 METAR MROC 051500Z 23004KT CAVOK 22/20 A3006 RMK BKN110 BECMG=
200810051600 METAR MROC 051600Z 22003KT CAVOK 23/20 A3006 RMK BKN120 BECMG=
200810051700 METAR MROC 051700Z 25007KT 9999 FEW025 BKN120 23/20 A3005 BECMG=
200810051800 METAR MROC 051800Z 27005KT 9999 SCT025 BKN250 24/21 A3002 BECMG=
200810051900 METAR MROC 051900Z 24007KT 9999 SCT025 BKN250 25/21 A2998 BECMG=
200810052000 METAR MROC 052000Z 25008KT FEW020TCU SCT025 BKN250 25/20 A2996 BECMG=
200810052100 METAR MROC 052100Z 25012KT 9999 VCSH FEW015CB SCT025TCU 23/21 A2995 RMK VIS SW 8KMS BECMG 4000 RA=
200810052200 METAR MROC NIL=
200810052300 METAR MROC 052300Z 30003KT 9999 -RA FEW030 BKN100 20/20 A2998 BECMG=
200810060000 METAR MROC 060000Z 30003KT 9999 DZ FEW008 SCT025 BKN100 20/20 A3002 TRACE OW ST S/SW=
200810060100 METAR MROC 060100Z 31003KT 9999 -DZ FEW012 BKN025 20/20 A3004 BECMG=
200810060200 METAR MROC 060200Z 00000KT 9999 -RA FEW030 BKN100 20/20 A3006 RMK THING FG BANK TO S BECMG=
200810060300 METAR MROC 060300Z 10002KT 9999 -RA FEW025 BKN100 20/20 A3006 RMK THING FG BANK TO S BECMG=
200810060400 METAR MROC 060400Z 06004KT 9999 -RA SCT025 BKN100 20/20 A3000 BECMG=
200810060500 METAR MROC 060500Z 00000KT 9999 FEW025 BKN120 20/20 A3005 RMK BECMG 6000 VCFG=
200810060600 METAR MROC 060600Z 07002KT 9999 FEW025 BKN120 20/29 A3005 RMK TRACE ST BECMG=
200810060700 METAR MROC NIL=
200810060800 METAR MROC NIL=
200810060900 METAR MROC 060900Z 00000KT 9999 FEW030 BKN120 19/19 A2999 RMK TRACE ST BECMG=
200810061000 METAR MROC 061000Z 10002KT 9999 FEW030 BKN120 19/19 A2998 RMK TRACE ST BECMG 7000 VCFG=
200810061100 METAR MROC 061100Z 04002KT 9999 FEW030 BKN120 18/18 A2998 RMK TRACE ST BECMG=
200810061200 METAR MROC 061200Z 06004KT CAVOK 18/18 A3000 RMK SCT139 BECMG=
200810061300 METAR MROC 061300Z 09002KT CAVOK 20/19 A3002 RMK TRACE SC BKN120 BECMG=
200810061400 METAR MROC 061400Z 21003KT CAVOK 22/20 A3005 RMK TRACE SC BKN120 TCU=
200810061500 METAR MROC 061500Z 24005KT 9999 FEW010 BKN120 22/21 A3006 RMK FEW020 LGT HZ ARND BECMG=
200810061600 METAR MROC 061600Z 26005KT 9999 FEW020 BKN140 24/19 A3005 BECMG=
200810061700 METAR MROC 061700Z 25005KT 9999 FEW025 BKN140 25/19 A3002 RMK TCU DST SE S SW BECMG=
200810061800 METAR MROC 061800Z 23009KT 9999 FEW020TCU SCT250 26/20 A3000 RMK FEW030 TRACE AC BECMG=
200810061900 METAR MROC 061900Z 25009KT 9999 FEW020TCU SCT030 26/21 A2997 RMK CB RASH DST S BECMG 7000 VCSH=
200810062000 METAR MROC 062000Z 25015KT 9999 VCSH FEW015CB BKN030 24/21 A2996 RMK VIS ESE 8KMS RASH DIST W NW N BECMG 3000 TSRA=
200810062100 METAR MROC 062100Z 29006KT 9999 FEW015CB BKN030 22/21 A2997 RMK RN N NE BECMG 7000 VCSH=
200810062200 METAR MROC 062200Z 24003KT 9999 -DZ FEW015TCU SCT030 BKN120 22/20 A2996 RMK RN N NE BECMG 7000 VCSH=
200810062300 METAR MROC 062300Z 00000KT 9999 SCT030 BKN120 22/20 A2999 REDZ RMK RN N NE E BECMG 7000 VCSH=
200810070000 METAR MROC 070000Z 00000KT 9999 -DZ FEW030 BKN100 21/21 A3000 BECMG 7000 VCSH=
200810070100 METAR MROC 070100Z 00000KT 9999 -DZ FEW035 BKN100 21/21 A3003 BECMG 7000 VCSH=
200810070200 METAR MROC 070200Z 00000KT 9999 FEW035 BKN120 20/20 A3004 REDZ BECMG -RA=
200810070300 METAR MROC 070300Z 08003KT CAVOK 19/19 A3004 RMK BKN120 SCT250 ST S BECMG=
200810070400 METAR MROC 070400Z 07002KT CAVOK 19/18 A3004 RMK SCT120 ST S SW BECMG=
200810070500 METAR MROC 070500Z 32002KT 9999 4000S BR FEW005 SCT120 19/18 A3004 BECMG 5000 BR=
200810070600 METAR MROC 070600Z 00000KT 9999 VCFG SCT008 SCT120 19/18 A3003 RMK VIS 7000 S BECMG 5000 BR=
200810070700 METAR MROC 070700Z 03002KT 9999 VCFG FEW004 SCT025 19/18 A3001 RMK SCT110 VIS S 7KM DUE ST BECMG=
200810070800 METAR MROC 070800Z 06003KT 9999 SCT030 SCT110 19/18 A2999 RMK ST S/SW BECMG=
200810070900 METAR MROC 070900Z 07003KT 9999 VCFG FEW003 SCT030 19/18 A2998 RMK SCT110 VIS SW 8KM DUE ST BECMG=
200810071000 METAR MROC 071000Z 04004KT 9999 FEW030 BKN110 19/18 A2998 BECMG CAVOK=
200810071100 METAR MROC 071100Z 09003KT CAVOK 19/18 A2999 RMK BKN120 ST S BECMG=
200810071200 METAR MROC 071200Z 07002KT CAVOK 19/18 A3001 RMK BKN120 FEW250 BECMG=
200810071300 METAR MROC 071300Z 00000KT CAVOK 21/19 A3003 RMK BKN120 FEW250 BECMG 27005KT=
200810071400 METAR MROC 071400Z 28003KT 9999 FEW040 BKN120 23/19 A3004 BECMG=
200810071500 METAR MROC 071500Z 26005KT 9999 SCT040 24/20 A3006 RMK TRACE CI BECMG=
200810071600 METAR MROC 071600Z 25007KT 9999 FEW015 BKN035 24/20 A3005 BECMG=
200810071700 METAR MROC 071700Z 25006KT 9999 FEW015 BKN035 25/20 A3007 BECMG=
200810071800 METAR MROC 071800Z 22007KT 9999 FEW015 BKN035 26/21 A2999 RMK RN E BECMG=
200810071900 METAR MROC 071900Z 24008KT 9999 FEW015TCU BKN030 24/22 A2996 RMK RN SE S BECMG -RA=
200810072000 METAR MROC 072000Z 25011KT 9999 FEW005 SCT015 BKN030 21/21 A2996 RMK VIS SW N NE 4000MTS DUE ST LOW BECMG -RA=
200810072100 METAR MROC 072100Z 26007KT 6000 VCFG SCT005 BKN010 21/21 A2995 VSBY E W UNL RN N NE E BECMG 3000 SHRA=
200810072200 METAR MROC 072200Z 28004KT 9999 SCT010 BKN015 21/21 A2995 VSBY N 6KM BECMG=
200810072300 METAR MROC 072300Z 27005KT 5000 RA BR SCT005 BKN015 21/21 A2996 VSBY NE 7KM BECMG=
200810080000 METAR MROC 080000Z 25002KT 5000 RA BR SCT005 BKN015 20/20 A2999 BECMG=
200810080100 METAR MROC 080100Z 34005KT 9999 RA SCT008 BKN020 20/20 A3002 BECMG=
200810080200 METAR MROC 080200Z 30002KT 7000 RA SCT005 BKN012 20/20 A3003 BECMG=
200810080300 METAR MROC 080300Z 02004KT 3000 RA BR SCT003 SCT012 BKN070 20/20 A3005=
200810080301 METAR MROC 080301Z 02004KT 3000 RA BR SCT003 SCT012 BKN070 20/20 A3006 RMK VIS E SE UNLTD BECMG 8000=
200810080400 METAR MROC 080400Z 30003KT 9999 DZ FEW012 SCT030 BKN070 20/20 A3006 RMK TRACE LOW ST TO S SSW BECMG=
200810080500 METAR MROC 080500Z 00000KT 3000 DZ BR SCT004 BKN008 19/19 A3005 RMK VIS E ESE 6KMS BECMG=
200810080600 METAR MROC 080600Z 33002KT 5000 -DZ BR SCT003 BKN010 20/20 A3004 RMK VIS E SE UNLTD BECMG=
200810080700 METAR MROC 080700Z 31003KT 9999 -DZ VCFG SCT006 BKN015 20/20 A3001 RMK VIS SSW SW 7KMS BECMG=
200810080800 METAR MROC 080800Z 33002KT 9999 -DZ VCFG SCT006 SCT020 BKN070 20/20 A2999 RMK VIS SSW SW 7KMS BECMG=
200810080900 METAR MROC 080900Z 30002KT 9999 FEW008 BKN020 20/20 A2999 REDZ BECMG=
200810081000 METAR MROC 081000Z 00000KT 9999 SCT010 BKN020 20/20 A3000 BECMG=
200810081100 METAR MROC 081100Z 32003KT 9999 FEW015 SCT025 BKN100 19/19 A3002 BECMG=
200810081200 METAR MROC 081200Z 06002KT 9999 SCT020 SCT120 BKN250 19/19 A3003 RMK TRACE OF LOW ST TO S SW BECMG=
200810081300 METAR MROC 081300Z 09002KT CAVOK 21/20 A3004 TRACE SCT FEW100 SCT250 BECMG=
200810081400 METAR MROC 081400Z VRB02KT 9999 FEW015 SCT250 23/20 A3005 VECMG 24006=
200810081500 METAR MROC 081500Z 20002KT 9999 FEW020 25/21 A3005 FEW250 BECMG=
200810081600 METAR MROC 081600Z 24008KT 9999 FEW020 25/21 A3006 FEW250 BECMG=
200810081700 METAR MROC 081700Z 25010KT 9999 SCT015 SCT250 25/21 A3004 BECMG=
200810081800 METAR MROC 081800Z 23010KT 9999 SCT015 SCT250 25/22 A3001 RN DST E/S BECMG=
200810081900 METAR MROC 081900Z 23009KT 9999 -RA SCT012 SCT120 23/21 A3000 BECMG 7000=
200810082000 METAR MROC 082000Z 24007KT 9999 -RA FEW010 BKN120 22/22 A2997 VSBY S 6KM BECMG=
200810082100 METAR MROC 082100Z 22007KT 4000 -RA BR SCT005 BKN010 21/21 A2996 BECMG 2000 -RA BR=
200810082200 METAR MROC 082200Z 24008KT 4000 -RA BR SCT005 BKN010 21/21 A2997 BECMG=
200810082300 METAR MROC 082300Z 23005KT 4000 -RA BR SCT003 BKN010 20/20 A3000 BECMG=
200810090000 METAR MROC 090000Z 18002KT 5000 -RA BR SCT003 BKN010 20/20 A3003 BECMG=
200810090100 METAR MROC 090100Z 09003KT 7000 RA FEW005 SCT010 OVC100 19/19 A3005 BECMG=
200810090200 METAR MROC 090200Z 35002KT 8000 RA FEW005 SCT015 OVC100 20/20 A3007 BECMG=
200810090300 METAR MROC 090300Z 09004KT 8000 RA FEW005 SCT020 OVC100 20/20 A3007 BECMG=
200810090400 METAR MROC 090400Z 09002KT 9999 RA FEW020 OVC100 19/19 A3006 BECMG=
200810090500 METAR MROC 090500Z 31002KT CAVOK 20/20 A3004 RMK TRACE ST BKN100 BECMG=
200810090600 METAR MROC 090600Z VRB03KT 9999 2000SW BR FEW001 BKN110 19/19 A3003 BECMG 5000 BR=
200810090700 METAR MROC 090700Z 00000KT 4000 BR SCT002 BKN110 19/19 A3001 RMK VIS N UNL BECMG 6000 BR=
200810090800 METAR MROC 090800Z 00000KT 4000 BR SCT002 BKN110 19/19 A2999 RMK VIS N UNL BECMG 6000 BR=
200810090900 METAR MROC 090900Z 00000KT 8000 2000SW BR SCT002 BKN110 19/19 A3000 BECMG 3000 BR=
200810091000 METAR MROC 091000Z 04002KT 9999 3000SW BR FEW001 BKN120 19/19 A3000 BECMG 6000 BR=
200810091100 METAR MROC 091100Z 29002KT 2000 R07/150 BR SCT001 BKN120 19/19 A3001 BECMG 5000 BR=
200810091200 METAR MROC 091200Z 10003KT 9999 2000SW BR FEW001 BKN120 19/19 A3003 BECMG=
200810091300 METAR MROC 091300Z 06003KT CAVOK 19/19 A3005 RMK TRACE ST BKN120 BECMG=
200810091400 METAR MROC 091400Z 35004KT CAVOK 21/20 A3007 RMK TRACE ST BKN120 BECMG=
200810091500 METAR MROC 091500Z 00000KT 9999 FEW003 BKN120 24/20 A3007 RMK BECMG 24006KT=
200810091600 METAR MROC 091600Z 24005KT 9999 FEW005 BKN120 23/21 A3008 BECMG=
200810091700 METAR MROC 091700Z 24005KT 9999 FEW015 BKN120 23/21 A3006 RMK HZ ARND BECMG=
200810091800 METAR MROC 091800Z 25003KT 9999 -RA FEW005 BKN120 23/21 A3004 BECMG 6000 VCSH=
200810091900 METAR MROC 091900Z 22002KT 9999 FEW015 BKN120 24/21 A3001 BECMG=
200810092000 METAR MROC 092000Z 25004KT 9999 SCT015 BKN120 24/21 A2999 BECMG=
200810092100 METAR MROC 092100Z 24006KT 9999 SCT015 BKN120 23/23 A2997 RMK VIS 7000SW HZ BECMG=
200810092200 METAR MROC 092200Z 21004KT 9999 FEW008 FEW012TCU SCT120 BKN250 22/22 A2998 RMK VIS 7000SW HZ RN DST NW N NE E BECMG 5000 DZ BR=
200810092300 METAR MROC 092300Z 24004KT 5000 BR FEW002 SCT008 BKN120 22/22 A3000 BECMG 3000 DZ BR=
200810100000 METAR MROC 100000Z 00000KT 7000 3000SW RA BR FEW003 BKN010 21/21 A3001 BECMG 2000 RA BR=
200810100100 METAR MROC 100100Z 07002KT 9999 -RA VCFG FEW005 SCT012 BKN090 21/21 A3002 VIS 7000SW BECMG=
200810100200 METAR MROC 100200Z 08003KT 9999 FEW020 BKN110 20/20 A3004 RMK ST SSW BECMG=
200810100300 METAR MROC 100300Z 00000KT 9999 VCFG FEW003 BKN140 21/21 A3006 VSBY S SW 5KM DUE FG BECMG 5000 BR=
200810100400 METAR MROC 100400Z 34003KT 9999 BKN005 21/21 A3007 BECMG=
200810100500 METAR MROC 100500Z 29003KT 9999 5000SW BR SCT003 BKN110 21/21 A3006 BECMG=
200810100600 METAR MROC 100600Z 26003KT 9999 4000SW BR SCT003 BKN090 21/21 A3004 CNDS VRBL BECMG=
200810100700 METAR MROC 100700Z 09003KT 9999 FEW008 SCT015 BKN110 20/20 A3002 VIS SW 8KM DUE LOW ST BECMG=
200810100800 METAR MROC 100800Z 08004KT CAVOK 20/19 A2999 TRACE ST/SC BKN30 BECMG=
200810100900 METAR MROC 100900Z 06004KT CAVOK 20/19 A2997 TRACE SC BKN130 BECMG=
200810101000 METAR MROC 101000Z 00000KT CAVOK 19/19 A2999 TRACE SCT BKN130 BECMG=
200810101100 METAR MROC 101100Z 16002KT 9999 VCFG FEW002 BKN100 19/19 A2999 VSBY S SW 5KM DUE FG BECMG=
200810101200 METAR MROC 101200Z 12003KT 1000 BR FEW001 BKN120 19/19 A3000 BECMG 7000 VCFG=
200810101300 METAR MROC 101300Z 36003KT 9999 BR FEW003 BKN120 20/20 A3002 RMK VIS 5000SW DUE ST BECMG 9999=
200810101400 METAR MROC 101400Z 06002KT CAVOK 23/19 A3002 RMK FEW120 BKN250 ST SSW BECMG=
200810101500 METAR MROC 101500Z 08004KT CAVOK 26/18 A3002 RMK FEW120 SCT250 BECMG=
200810101600 METAR MROC 101600Z 26008KT 9999 FEW040 SCT250 26/22 A3001 RMK LGT HZ SW BECMG=
200810101700 METAR MROC 101700Z 24007KT 9999 FEW020TCU SCT035 26/23 A3000 BECMG 7000 VCSH=
200810101800 METAR MROC 101800Z 23011KT 9999 4000NE VCSH SCT015CB BKN030 25/22 A2998 BECMG 3000 VCTS=
200810101900 METAR MROC 101900Z 25008KT 4000 -TSRA SCT012CB BKN025 23/22 A2996 BECMG=
200810102000 METAR MROC 102000Z 12004KT 9999 1000SW R07/0300 RA SCT003 FEW008CB BKN015 21/21 A2995 BECMG 3000 TSRA=
200810102100 METAR MROC 102100Z 25005KT 2000 DZ BR SCT002 BKN005 21/21 A2994 RMK FG BANK OVER APCH RNY 07 VIS E 6KMS BECMG 1000=
200810102200 METAR MROC 102200Z 24006KT 4000 DZ BR SCT004 SCT015 BKN070 21/21 A2994 RMK LOW ST OVER APCH RNY 07 VIS S 8KMS BECMG=
200810102300 METAR MROC NIL=
200810110000 METAR MROC 110000Z 02004KT 9999 -DZ FEW040 BKN070 20/20 A2998 RERA RMK TRACE ST BECMG=
200810110100 METAR MROC 110100Z 09003KT 9999 FEW035 SCT045 BKN100 20/20 A3000 REDZ BECMG=
200810110200 METAR MROC 110200Z 28002KT 9999 -RA FEW045 BKN100 20/20 A3002 BECMG=
200810110300 METAR MROC 110300Z 22002KT 6000 -RA VCFG FEW002 SCT020 BKN100 20/20 A3003 RMK BECMG 2000 -RA BR=
200810110400 METAR MROC 110400Z 00000KT 4000 BR FEW002 BKN010 20/20 A3004 RMK BECMG 0500=
200810110500 METAR MROC 110500Z 13002KT 3000 BR FEW002 BKN010 19/19 A3003 BECMG=
200810110600 METAR MROC 110600Z 04002KT 6000 VCFG FEW002 SCT010 BKN030 19/19 A3002 BECMG=
200810110700 METAR MROC 110700Z 12003KT 6000 2000SW VCFG BR FEW002 SCT005 BKN020 19/19 A2998 BECMG=
200810110800 METAR MROC 110800Z 09005KT 9999 3000SW BR FEW002 SCT015 BKN120 19/19 A2996 BECMG=
200810110900 METAR MROC 110900Z 06006KT 9999 FEW002 SCT030 BKN120 18/18 A2993 RMK BECMG CAVOK=
200810111000 METAR MROC 111000Z 20003KT 9999 FEW030 BKN120 18/18 A2994 BECMG=
200810111100 METAR MROC 111100Z 26002KT 9999 3000SW BR FEW002 SCT020 BKN120 17/17 A2995 BECMG=
200810111200 METAR MROC 111200Z 04002KT 9999 4000SW BR FEW003 BKN250 18/18 A2998 RMK TRACE SC BECMG=
200810111300 METAR MROC 111300Z 07004KT 9999 VCFG FEW015 BKN250 20/20 A3000 RMK VIS SW 7KMS LGT HZ ARND BECMG=
200810111400 METAR MROC 111400Z 00000KT 9999 FEW025 BKN250 22/19 A3000 RMK HZY BECMG 24005KT=
200810111500 METAR MROC 111500Z 04004KT 9999 FEW025 BKN250 25/20 A2999 RMK HZ W BECMG 24005KT=
200810111600 METAR MROC 111600Z 29003KT 9999 SCT030 BKN250 27/20 A2997 RMK HZ ARND BECMG=
200810111700 METAR MROC 111700Z 16005KT 9999 FEW025 SCT045 26/18 A2996 BECMG=
200810111800 METAR MROC 111800Z 25009KT 9999 -RA FEW015TCU BKN040 24/23 A2994 BECMG 7000 VCSH=
200810111900 METAR MROC 111900Z 25010KT 9999 FEW006 SCT020TCU BKN250 26/24 A2992 PCPN DST S HZY BECMG 5000 TSRA=
200810112000 METAR MROC 112000Z 24010KT 4000 -RA VCSH FEW015CB SCT025 22/22 A2989 RMK FEW120 VIS SE S UNLTD BECMG 2000=
200810112100 METAR MROC 112100Z 25005KT 6000 2000SW BR FEW001 SCT008 BKN030 22/22 A2989 RERA RMK VIS S UNL BECMG 3000 RA BR=
200810112200 METAR MROC 112200Z 23006KT 8000 2000SW RA BR FEW001 SCT008 BKN030 21/21 A2989 BECMG 3000 RA BR=
200810112300 METAR MROC 112300Z 26003KT 8000 2000SW BR FEW001 SCT005 BKN020 21/21 A2991 RERA RMK VIS N NE 3000MTS BECMG 3000 RA BR=
200810120000 METAR MROC 120000Z 21004KT 5000 BR FEW001 SCT005 BKN020 21/21 A2992 BECMG 3000 RA BR=
200810120100 METAR MROC 120100Z VRB03KT 5000 1000SW BR FEW001 SCT003 BKN020 20/20 A2997 RMK VIS S N UNL BECMG 3000 RA BR=
200810120200 METAR MROC 120200Z VRB03KT 9999 2000SW RA BR FEW001 SCT025 BKN100 20/20 A2999 BECMG=
200810120300 METAR MROC 120300Z 28003KT 9999 VCFG FEW003 SCT100 20/20 A2999 RMK VIS 7000SW DUE ST BECMG=
200810120400 METAR MROC 120400Z 29002KT 9999 -DZ VCFG FEW003 BKN100 20/20 A3001 RMK VIS 7000S DUE ST BECMG 3000 -DZ BR=
200810120500 METAR MROC 120500Z 06003KT 9999 -DZ SCT015 BKN100 20/20 A3000 RMK ST S SSW BECMG=
200810120600 METAR MROC 120600Z VRB03KT 9999 FEW015 BKN120 20/20 A2996 BECMG=
200810120700 METAR MROC 120700Z 00000KT 9999 1500W -DZ BR FEW001 SCT020 BKN100 20/20 A2993 RMK ST SSE/S BECMG -RA=
200810120800 METAR MROC 120800Z 02004KT 9999 SCT025 SCT110 20/20 A2992 REDZ RMK ST SSE/S BECMG=
200810120900 METAR MROC 120900Z 03003KT 9999 FEW030 SCT110 19/19 A2991 RMK SCT250 ST S BECMG=
200810121000 METAR MROC 121000Z 08003KT CAVOK 19/19 A2993 RMK FEW110 SCT250 ST S BECMG=
200810121100 METAR MROC 121100Z 06003KT CAVOK 18/18 A2993 RMK SCT120 SCT250 BECMG=
200810121200 METAR MROC 121200Z 07005KT CAVOK 19/18 A2994 RMK BKN250 TCU DST SSW W BECMG=
200810121300 METAR MROC 121300Z 05005KT CAVOK 20/19 A2996 RMK TRACE SC CB DST SW BKN250 BECMG=
200810121400 METAR MROC 121400Z 00000KT 9999 FEW040 BKN250 23/20 A2997 BECMG 26005KT=
200810121500 METAR MROC 121500Z 25004KT 9999 FEW040 BKN250 25/20 A2998 BECMG=
200810121600 METAR MROC 121600Z 23004KT 9999 FEW035 BKN250 24/21 A2998 BECMG=
200810121700 METAR MROC 121700Z 24006KT 9999 SCT035 BKN250 25/21 A2995 RMK RN NE E BECMG=
200810121800 METAR MROC 121800Z 26007KT 9999 FEW015TCU SCT030 SCT100 25/22 A2992 RMK FEW250 BECMG=
200810121900 METAR MROC 121900Z 23007KT 9999 FEW015TCU SCT030 SCT100 25/22 A2989 RMK RN S BECMG 8000 VCSH=
200810122000 METAR MROC 122000Z 21007KT 9999 SCT030 SCT120 25/21 A2986 RMK RN NE E BECMG 8000 VCSH=
200810122100 METAR MROC 122100Z 22010KT 9999 FEW015 SCT040 23/20 A2986 SCT120 RN DST ARND BECMG=
200810122200 METAR MROC 122200Z 27007KT 9999 BKN012 SCT025 22/21 A2988 RN NE S BECMG 7000 -RA=
200810122300 METAR MROC 122300Z 30005KT 9999 -RA FEW005 BKN012 22/21 A2989 VSBY N 6KM BECMG=
200810130000 METAR MROC 130000Z 21005KT 3000 RA BR SCT004 BKN012 21/21 A2993 BECMG 5000 -RA=
200810130100 METAR MROC 130100Z 00000KT 5000 RA BR FEW005 BKN025 20/20 A2997 BECMG=
200810130200 METAR MROC 130200Z 05007KT 7000 RA SCT020 OVC100 18/18 A2998 BECMG=
200810130300 METAR MROC 130300Z 16004KT 8000 -RA FEW025 OVC100 18/18 A3001 RMK ACUMULACION DE AGUA EN LA PISTA=
200810130400 METAR MROC 130400Z 03003KT 9999 -RA OVC100 19/19 A3000 RMK TRACE SC BECMG=
200810130500 METAR MROC 130500Z 00000KT 2000 R07/0900 +RA BR SCT003 BKN030 18/18 A3001 RMK VIS SE S 5KMS BECMG 6000=
200810130600 METAR MROC 130600Z 35004KT 7000 -RA FEW030 SCT040 BKN080 19/19 A2998 BECMG 9999=
200810130700 METAR MROC 130700Z 07002KT 7000 -RA FEW030 SCT050 BKN080 18/18 A2996 BECMG=
200810130800 METAR MROC 130800Z 10004KT 9999 -RA SCT040 BKN080 18/18 A2994 BECMG=
200810130900 METAR MROC 130900Z 28002KT 3000 R07/1000 -RA BR SCT002 SCT010 BKN080 18/18 A2994 BECMG 1500=
200810131000 METAR MROC 131000Z 24004KT 1500 R07/500 -RA BR SCT002 BKN008 18/18 A2994 BECMG 5000=
200810131001 METAR MROC 131001Z COR 24004KT 1500 R07/0500 -RA BR SCT002 BKN008 18/18 A2994 BECMG 5000=
200810131100 METAR MROC 131100Z 30003KT 5000 -RA BR FEW002 SCT010 BKN100 18/18 A2987 BECMG=
200810131200 METAR MROC 131200Z 34004KT 2500 DZ BR SCT003 BKN012 18/18 A2997 RMK VIS ESE SE 6KMS BECMG 6000=
200810131201 METAR MROC 131201Z 34004KT 2500 DZ BR SCT003 BKN012 18/18 A2997 RERA RMK VIS ESE SE 6KMS BECMG 6000=
200810131300 METAR MROC 131300Z 32004KT 9999 FEW012 SCT045 19/19 A2998 SCT130 RN N BECMG=
200810131400 METAR MROC 131400Z 26005KT 9999 FEW012 SCT050 BKN120 21/20 A3000 RN ENE SW BECMG=
200810131500 METAR MROC 131500Z 26006KT 6000 RA FEW9006 BKN015 20/20 A2998 VSBY SW 4KM E UNL BECMG=
200810131600 METAR MROC 131600Z 28004KT 3000 RA BR SCT004 BKN010 20/20 A3002 BECMG 5000 -RA=
200810131700 METAR MROC 131700Z 27006KT 6000 -RA VCFG SCT006 BKN012 21/21 A3000 BECMG=
200810131800 METAR MROC 131800Z 27004KT 5000 -RA VCFG SCT006 BKN120 21/21 A2997 VSBY E SE UNL BECMG 7000=
200810131900 METAR MROC 131900Z 23006KT 9999 SCT015 SCT120 23/21 A2993 RN DST ARND BECMG=
200810132000 METAR MROC 132000Z 22009KT 6000 DZ VCFG SCT010 BKN020 21/21 A2992 VSBY E SE UNL VSBY W NW 4KM BECMG=
200810132100 METAR MROC 132100Z 24007KT 9000 SCT008 BKN020 22/21 A2990 RMK RN DST S SW BECMG 6000 VCSH=
200810132200 METAR MROC 132200Z 25005KT 9999 FEW008 SCT020 BKN110 21/21 A2990 BECMG=
200810132300 METAR MROC 132300Z 24007KT 9999 FEW007 SCT020 BKN110 20/20 A2992 BECMG=
200810140000 METAR MROC 140000Z 27007KT 9999 -RA FEW006 SCT020 BKN110 20/20 A2993 BECMG=
200810140100 METAR MROC 140100Z 29005KT 9999 -RA FEW006 SCT020 BKN100 20/20 A2996 BECMG=
200810140200 METAR MROC 140200Z 29003KT 9999 FEW006 SCT020 BKN100 20/20 A2998 BECMG=
200810140300 METAR MROC 140300Z 28002KT 9999 -DZ FEW005 SCT020 BKN100 20/20 A3000 BECMG=
200810140400 METAR MROC 140400Z 27003KT 9999 3000SW BR FEW005 SCT020 BKN100 20/20 A2999 REDZ BECMG=
200810140500 METAR MROC 140500Z 26002KT 7000 3000SW DZ BR FEW005 SCT015 BKN100 20/20 A2998 BECMG=
200810140600 METAR MROC NIL=
200810140700 METAR MROC 140700Z 27004KT 7000 2000SW -RA BR FEW001 SCT010 OVC100 19/19 A2994 BECMG=
200810140800 METAR MROC 140800Z 28005KT 7000 2000SW -RA BR FEW001 SCT010 OVC100 19/19 A2992 BECMG=
200810140900 METAR MROC 140900Z 27004KT 9999 2000SW BR FEW001 SCT020 OVC100 19/19 A2992 RERA BECMG=
200810141000 METAR MROC 141000Z 30004KT 9999 2000SW DZ BR FEW001 SCT020 OVC100 19/19 A2993 BECMG=
200810141100 METAR MROC 141100Z 30002KT 9999 3000SW BR FEW001 SCT025 OVC100 19/19 A2995 REDZ BECMG=
200810141200 METAR MROC 141200Z 31003KT 6000 VCFG FEW005 SCT025 OVC100 19/19 A2997 BECMG=
200810141300 METAR MROC 141300Z 30005KT 3000 -RA BR FEW005 SCT015 OVC100 20/20 A2998 BECMG 2000 -RA BR=
200810141400 METAR MROC 141400Z 32004KT 9999 4000N BR FEW005 SCT015 BKN100 20/20 A3000 BECMG=
200810141500 METAR MROC 141500Z 33005KT 6000 -RA VCFG FEW005 SCT015 BKN100 21/21 A3003 RMK UNL E BECMG 4000 -RA BR=
200810141600 METAR MROC 141600Z 32004KT 6000 RA VCFG FEW005 BKN020 21/21 A3003 BECMG=
200810141700 METAR MROC 141700Z 31003KT 8000 -RA VCFG FEW005 SCT015 OVC100 21/20 A3001 BECMG=
200810141800 METAR MROC 141800Z 29005KT 9000 FEW005 SCT015 BKN100 23/21 A2999 RERA BECMG=
200810141900 METAR MROC 141900Z 29007KT 9999 FEW005 SCT015 BKN100 23/21 A2996 BECMG=
200810142000 METAR MROC 142000Z 28006KT 9999 FEW005 SCT015TCU BKN100 23/22 A2998 BECMG=
200810142100 METAR MROC 142100Z 23008KT 9999 VCSH SCT014CB SCT025 22/21 A2992 RMK VIS 7000 SW W RN DST N NE BECMG 5000 -RA=
200810142200 METAR MROC 142200Z 27004KT 7000 3000SW RA BR SCT008CB BKN100 21/21 A2992 RMK ST SSW SW W BECMG=
200810142300 METAR MROC 142300Z 27004KT 8000 3500SW -DZ VCFG BR FEW003 SCT012 BKN100 21/21 A2995 BECMG -RA=
200810150000 METAR MROC 150000Z 32002KT 9999 -DZ SCT015 SCT100 21/21 A2996 RMK ST SSW BECMG 7000 VCFG=
200810150100 METAR MROC 150100Z 29002KT 9999 -DZ VCFG FEW005 SCT010 SCT100 20/20 A2998 RMK VIS 7000 SW BECMG 5000 BR=
200810150200 METAR MROC 150200Z 31003KT 9999 -DZ VCFG FEW010 SCT020 SCT120 20/20 A3000 RMK VIS 7000SW ST SW BECMG 5000 BR=
200810150300 METAR MROC 150300Z 35003KT 9999 FEW020 SCT080 BKN120 20/20 A3001 TRACE ST SE BECMG=
200810150400 METAR MROC 150400Z 20003KT 9999 FEW012 BKN025 20/20 A3003 BECMG=
200810150500 METAR MROC 150500Z 33002KT 9999 FEW015 OVC090 20/20 A3001 BECMG=
200810150600 METAR MROC 150600Z 29003KT 9999 FEW030 OVC090 20/20 A2997 BECMG=
200810150700 METAR MROC 150700Z 32003KT 9999 VCFG FEW003 SCT015 OVC100 20/20 A2996 VIS SW 7KM DUE FOG BANK BECMG=
200810150800 METAR MROC 150800Z 34003KT 9999 DZ VCFG FEW005 BKN015 19/19 A2994 VSBY SW W NW 6KM DUE FG BECMG=
200810150900 METAR MROC 150900Z 30002KT 6000 -RN VCFG SCT006 BKN015 19/19 A2994 VSBY E SE UNL BECMG=
200810151000 METAR MROC 151000Z 30003KT 6000 RA VCFG SCT005 BKN015 19/18 A2994 VSBY E UNL BECMG=
200810151100 METAR MROC 151100Z 28006KT 5000 RA BR SCT004 BKN015 19/19 A2997 VSBY SW 3KM BECMG=
200810151200 METAR MROC 151200Z 31003KT 3000 RA BR SCT002 BKN012 19/19 A2999 BECMG 5000=
200810151300 METAR MROC 151300Z 29002KT 4000 RA BR SCT002 BKN012 20/20 A3002 BECMG=
200810151400 METAR MROC 151400Z 31003KT 4000 -RA BR SCT002 BKN015 20/20 A3003 BECMG=
200810151500 METAR MROC 151500Z 25006KT 3000 1000S RA BR SCT002 BKN012 20/20 A3005 BECMG=
200810151600 METAR MROC 151600Z 28004KT 5000 -RA BR SCT003 BKN020 20/20 A3005 BECMG=
200810151700 METAR MROC 151700Z 27005KT 7000 -RA VCFG SCT006 BKN020 20/20 A3003 BECMG=
200810151800 METAR MROC 151800Z 23007KT 2000 0800S R07/1000 RA BR FG SCT001 BKN006 20/20 A3003 BECMG=
200810151900 METAR MROC 151900Z 25003KT 9999 -RA VCFG FEW003 SCT020 BKN080 21/21 A3000 RMK VIS 7000SW BECMG=
200810152000 METAR MROC 152000Z 28004KT 9999 -RA VCFG FEW003 SCT030 BKN090 21/21 A2997 RMK VIS 7000SW BECMG=
200810152100 METAR MROC 152100Z 26006KT 8000 -RA VCFG FEW004 SCT006 BKN020 21/21 A2996 RMK VIS E SE S UNLTD BECMG=
200810152200 METAR MROC 152200Z 31005KT 8000 -RADZ VCFG FEW006 SCT012 BKN020 20/20 A2996 RMK VIS S SW 4KMS BECMG 3000=
200810152300 METAR MROC 152300Z 24011KT 2400 -RA BR SCT002 BKN005 19/19 A2998 BECMG=
200810160000 METAR MROC 160000Z 300005KT 9999 -RA FEW030 BKN120 19/19 A3000 BECMG=
200810160100 METAR MROC 160100Z 30004KT 9999 SCT030 BKN100 19/19 A3002 RERA BECMG=
200810160200 METAR MROC 160200Z 28004KT 9999 DZ SCT030 BKN100 19/19 A3005 BECMG=
200810160300 METAR MROC 160300Z 33003KT 9999 SCT030 BKN100 19/19 A3004 BECMG=
200810160400 METAR MROC 160400Z 28005KT 9999 SCT030 BKN110 19/19 A3005 BECMG=
200810160500 METAR MROC 160500Z 27005KT 3000 RA BR SCT003 BKN010 19/19 A3007 BECMG 1000 -RA BR=
200810160600 METAR MROC 160600Z 02004KT 9999 FEW004 SCT025 BKN100 19/19 A3002 BECMG=
200810160700 METAR MROC 160700Z 00000KT 9999 -RA SCT025 OVC100 19/19 A3000 BECMG=
200810160800 METAR MROC 160800Z 09002KT 9999 -RA SCT025 BKN100 19/19 A2999 BECMG=
200810160900 METAR MROC 160900Z 14002KT 9999 -RA SCT025 BKN100 19/19 A2997 BECMG=
200810161000 METAR MROC 161000Z 03002KT 9999 FEW030 BKN100 19/19 A2996 BECMG=
200810161100 METAR MROC 161100Z 22003KT 9999 -RA FEW030 BKN100 19/19 A2999 BECMG=
200810161200 METAR MROC 161200Z 05003KT 5000 -RA BR FEW004 SCT025 OVC100 19/19 A3001 BECMG=
200810161300 METAR MROC 161300Z 12003KT 9999 -RA FEW040 OVC100 19/19 A3003 RMK VIS WSW W WNW 8KMS BECMG=
200810161400 METAR MROC 161400Z 22003KT 3000 -RADZ BR FEW002 SCT005 BKN100 19/19 A3007 CONDICIONES VRBLS BECMG 7000=
200810161500 METAR MROC 161500Z 05002KT 3000 -RA BR SCT002 BKN030 19/19 A3010 BECMG 7000=
200810161600 METAR MROC 161600Z 08003KT 4000 -RA BR FEW003 SCT035 BKN100 19/19 A3008 BECMG=
200810161700 METAR MROC 161700Z 00000KT 5000 -RA BR FEW003 SCT035 BKN100 19/19 A3007 RMK VIS N NW 3KMS BECMG 7000=
200810161800 METAR MROC 161800Z 00000KT 9999 -RA FEW040 OVC100 20/20 A3002 RMK TRACE OF LOW ST TO S SW BECMG 5000=
200810161900 METAR MROC 161900Z 00000KT 9999 -RA VCFG FEW005 SCT025 BKN100 21/20 A3000 RMK VIS S SW 7KMS BECMG 5000=
200810162000 METAR MROC 162000Z 25006KT 2500 -RA BR SCT002 BKN007 20/20 A3000 BECMG=
200810162100 METAR MROC 162100Z VRB03KT 5000 1000SW -RA BR FEW001 SCT005 BKN100 20/20 A2998 BECMG 3000 RA=
200810162200 METAR MROC 162200Z 19003KT 8000 1000SW -DZ BR FEW001 SCT005 OVC100 20/20 A2998 RERA BECMG 3000 RA=
200810162300 METAR MROC 162300Z 27004KT 3000 RA BR SCT001 SCT005 OVC100 19/19 A3001 BECMG 1500 RA BR=
200810170000 METAR MROC 170000Z 29002KT 5000 RA BR FEW001 SCT005 OVC100 19/19 A3003 BECMG 3000 -RA BR=
200810170100 METAR MROC 170100Z 29003KT 5000 RA BR FEW001 SCT005 OVC100 19/19 A3005 BECMG 3000 -RA BR=
200810170200 METAR MROC 170200Z 34002KT 5000 -RA BR FEW001 SCT008 OVC100 19/19 A3008 BECMG 3000 -RA BR=
200810170300 METAR MROC 170300Z 00000KT 5000 -RA BR FEW002 SCT010 BKN100 19/19 A3010 BECMG=
200810170400 METAR MROC 170400Z 00000KT 9999 SCT020 BKN120 19/19 A3009 RERA RMK ST S SW BECMG 6000 VCFG=
200810170500 METAR MROC 170500Z 00000KT 9999 SCT015 BKN120 19/19 A3008 RMK ST S SW BECMG 5000 -DZ BR=
200810170600 METAR MROC 170600Z 00000KT 9999 -DZ VCFG FEW004 SCT010 BKN100 19/19 A3007 BECMG 5000 DZ BR=
200810170700 METAR MROC 170700Z 08002KT 9999 VCFG FEW004 SCT025 19/19 A3005 REDZ RMK SCT110 VIS SW 8KM DUE ST BECMG -DZRA=
200810170800 METAR MROC 170800Z 09002KT 9999 FEW030 SCT120 18/18 A3004 RMK FEW250 ST SSE/W BECMG=
200810170900 METAR MROC 170900Z 06002KT 9999 SCT025 BKN110 18/18 A3003 RMK ST SSE/S BECMG=
200810171000 METAR MROC 171000Z 06003KT 9999 SCT025 SCT110 19/19 A3004 RMK ST SSE/S BECMG=
200810171100 METAR MROC 171100Z 01003KT 9999 FEW030 BKN120 18/18 A3005 RM ST S BECMG=
200810171200 METAR MROC 171200Z 04002KT CAVOK 19/19 A3007 RMK TRACE SC SCT120 BKN250 BECMG=
200810171300 METAR MROC 171300Z 00000KT CAVOK 20/20 A3009 RMK TRACE ST BKN100 BECMG 26006KT=
200810171400 METAR MROC 171400Z 00000KT 9999 FEW030 SCT120 22/19 A3011 RMK SCT250 BECMG 260006KT=
200810171500 METAR MROC 171500Z 30004KT 9999 SCT030 24/21 A3011 BECMG 26006KT=
200810171600 METAR MROC 171600Z 27006KT 9999 SCT030 24/20 A3010 BECMG=
200810171700 METAR MROC 171700Z 26002KT 9999 SCT030 SCT250 25/21 A3008 BECMG=
200810171800 METAR MROC 171800Z 24010KT 9999 SCT030 SCT250 25/22 A3005 BECMG=
200810171900 METAR MROC 171900Z 25010KT 9999 SCT030 SCT250 25/22 A3001 BECMG 7000=
200810172000 METAR MROC 172000Z 25010KT 9999 SCT030 SCT250 25/22 A3001 BECMG 7000=
200810172100 METAR MROC 172100Z 25010KT 9999 SCT012 SCT250 24/22 A3000 BECMG=
200810172200 METAR MROC 172200Z 24009KT 9999 FEW008 BKN012 23/22 A3001 BECMG 5000 BR=
200810172300 METAR MROC 172300Z 25008KT 6000 VCFG SCT006 BKN012 21/21 A3002 VSBY E UNL VSBY N 4KM BECMG 3000 BR=
200810180000 METAR MROC 180000Z 25005KT 1500 BR SCT001 BKN005 20/20 A3004 BECMG=
200810180100 METAR MROC 180100Z 24003KT 2000 BR SCT002 BKN006 20/20 A3006 BECMG=
200810180200 METAR MROC 180200Z 01002KT 7000 3000SW VCFG BR FEW002 SCT250 19/19 A3001 RMK VIS E SE UNLTD BECMG=
200810180300 METAR MROC 180300Z 00000KT 1800 -DZ BR OVC001 20/20 A3009 BECMG 3000=
200810180345 METAR MROC 180345Z 00000KT 3000 BR FEW002 BKN006 20/20 A3008 RMK VIS NE NE ENE 6KMS BECMG 7000=
200810180400 METAR MROC 180400Z 00000KT 4000 BR FEW002 BKN008 20/20 A3008 RMK VIS N NE ENE 8KMS BECMG 7000=
200810180500 METAR MROC 180500Z 30002KT 8000 VCFG FEW008 SCT020 BKN150 20/20 A3007 RMK VIS E UNLTD BECMG=
200810180600 METAR MROC 180600Z 00000KT 0300 R07/0100 FG VV/// 20/20 A3005 BECMG=
200810180700 METAR MROC 180700Z 00000KT 0800 FG VV/// 19/19 A3003 BECMG 3000 BR=
200810180800 METAR MROC 180800Z 01002KT 7000 3000SW VCFG BR FEW002 SCT250 19/19 A3001 RMK VIS E SE UNLTD BECMG=
200810180900 METAR MROC 180900Z 23003KT 0200 R07/0125 FG VV/// 19/19 A3001 BECMG 3000 BR=
200810181000 METAR MROC 181000Z 00000KT 0700 R07/0200 FG VV/// 19/19 A3001 BECMG 3000 BR=
200810181100 METAR MROC 181100Z 00000KT 5000 BR FEW003 BKN250 19/19 A3003 RMK TRACE SC AC VIS SE 8KMS BECMG=
200810181200 METAR MROC 181200Z 01004KT 5000 BR FEW002 SCT020 BKN250 18/18 A3005 RMK TRACE SC AC BECMG=
200810181300 METAR MROC 181300Z 04005KT 9999 VCFG 19/19 A3006 BKN250 VSBY S SW 5KM DUE FG BECMG=
200810181400 METAR MROC 181400Z 03005KT CAVOK 22/19 A3007 TRACE SCT BKN250 LW ST S BECMG=
200810181500 METAR MROC 181500Z 23004KT CAVOK 23/21 A3008 TRACE SCT BKN250 LW ST S BECMG=
200810181600 METAR MROC 181600Z 22004KT CAVOK 26/21 A3007 TRACE SCT BKN250 BECMG=
200810181700 METAR MROC 181700Z 25007KT 9999 FEW030 BKN250 25/21 A3005 BECMG=
200810181800 METAR MROC 181800Z 25008KT 9999 FEW015 BKN250 26/22 A3003 BECMG=
200810181900 METAR MROC 181900Z 25010KT 9999 SCT015 BKN250 25/22 A3001 RN ENE BECMG=
200810182000 METAR MROC 182000Z 25009KT 9999 BKN012 SCT250 25/23 A2999 RN ENE BECMG=
200810182100 METAR MROC 182100Z 24009KT 9000 FEW008 BKN015 23/22 A2998 BECMG 6000=
200810182200 METAR MROC 182200Z 26009KT 8000 VCFG SCT007 BKN015 22/22 A2998 BECMG=
200810182300 METAR MROC 182300Z 24006KT 5000 SCT004 BKN013 22/22 A3000 BECMG 2000 -RA BR=
200810190000 METAR MROC 190000Z 25005KT 5000 BR SCT004 BKN010 21/21 A3002 BECMG=
200810190100 METAR MROC 190100Z 00000KT 5000 BR SCT004 BKN010 21/21 A3004 BECMG 2000 BR=
200810190200 METAR MROC 190200Z 28003KT 9999 4000SW BR FEW004 SCT015 BKN120 21/21 A3005 BECMG=
200810190300 METAR MROC 190300Z VRB02KT 9999 4000SW BR FEW004 SCT010 BKN120 21/21 A3006 BECMG=
200810190400 METAR MROC 190400Z 25002KT 9999 4000SW BR FEW002 SCT010 BKN120 21/21 A3006 BECMG=
200810190500 METAR MROC 190500Z 29003KT 6000 2000SW BR FWE001 SCT005 BKN100 21/21 A3005 BECMG 3000 BR=
200810190600 METAR MROC 190600Z VRB02KT 8000 2000SW BR FWE001 SCT008 BKN100 21/21 A3004 BECMG 3000 BR=
200810190700 METAR MROC 190700Z 07003KT 9999 FEW020 BKN100 20/20 A3000 RMK TRACE ST BECMG 6000 VCFG=
200810190800 METAR MROC 190800Z 32004KT 9999 FEW020 BKN100 19/19 A2999 RMK TRACE ST LTNG DST S BECMG 6000 VCFG=
200810190900 METAR MROC 190900Z 13004KT CAVOK 19/19 A2999 RMK SCT120 TRACE ST CI=
200810191000 METAR MROC 191000Z 06002KT CAVOK 19/19 A2999 RMK SCT120 TRACE ST CI BECMG 6000 VCFG=
200810191100 METAR MROC 191100Z 08003KT CAVOK 18/18 A3001 RMK TRACE CI SCT120 BECMG 6000 VCFG=
200810191200 METAR MROC 191200Z 05003KT 9999 FEW005 SCT120 SCT250 19/18 A3002 BECMG=
200810191300 METAR MROC 191300Z 00000KT 9999 FEW006 BKN250 22/19 A3003 BECMG 24006KT=
200810191400 METAR MROC 191400Z 10008KT CAVOK 25/19 A3003 RMK TRACE SC BKN250 BECMG=
200810191500 METAR MROC 191500Z 13003KT 9999 FEW030 BKN250 26/19 A3004 BECMG=
200810191600 METAR MROC 191600Z 25006KT 9999 FEW030 BKN250 26/21 A3004 BECMG=
200810191700 METAR MROC 191700Z 23007KT 9999 SCT030 SCT250 26/22 A3002 BECMG=
200810191800 METAR MROC 191800Z 26009KT 9999 SCT030 SCT250 27/22 A3000 BECMG=
200810191900 METAR MROC 191900Z 28008KT 8000 VCSH SCT010TCU BKN020 25/22 A2997 BECMG 5000 TSRA=
200810192000 METAR MROC 192000Z 24004KT 9999 -RA FEW010 SCT020 BKN100 23/23 A2996 BECMG=
200810192100 METAR MROC 192100Z 22004KT 9999 -DZ FEW008 SCT020 BKN080 23/23 A2994 BECMG 7000 RA BR=
200810192200 METAR MROC 192200Z 22007KT 3000 RA BR FEW001 SCT008CB BKN012 22/22 A2996 BECMG 1500 RA BR=
200810192300 METAR MROC 192300Z 20003KT 9999 -RA VCFG FEW003 SCT025 BKN090 21/21 A2999 VIS 7000 SW BECMG=
200810200000 METAR MROC 200000Z 00000KT 9999 -DZ FEW008 BKN100 20/20 A3000 RMK LTNG SWW SW W BECMG=
200810200100 METAR MROC 200100Z 00000KT CAVOK 20/20 A3002 RMK BKN120 TRACE ST LTNG S SW W BECMG=
200810200200 METAR MROC 200200Z 24004KT 9999 4000SW R07/0400 BR FEW002 SCT008 20/20 A3006 RMK SCT120 BECMG 1500 BR=
200810200300 METAR MROC 200300Z 27002KT 4000 BR FEW001 SCT006 BKN025 20/20 A3007 VSBY NE UNL VSBY S SE 2KM DUE FG BECMG=
200810200400 METAR MROC 200400Z 07002KT 9999 FEW018 BKN140 20/20 A3007 BECMG=
200810200500 METAR MROC 200500Z 03003KT CAVOK 19/19 A3006 TRACE SCT SCT280 BECMG=
200810200600 METAR MROC 200600Z 06004KT CAVOK 19/19 A3004 TRACE SC SCT250 BECMG 6000=
200810200700 METAR MROC 200700Z 05004KT CAVOK 19/18 A3001 TRAC SCT SCT250 TMPO 6000=
200810200800 METAR MROC NIL=
200810200900 METAR MROC 200900Z 06004KT CAVOK 18/18 A2998 TRACE SC SCT250 BECMG 6000=
200810201000 METAR MROC 201000Z 05004KT CAVOK 18/18 A2998 SCT250 BECMG=
200810201100 METAR MROC 201100Z 01003KT CAVOK 18/18 A3000 TRACE SCT SCT090 BECMG=
200810201200 METAR MROC 201200Z 02006KT CAVOK 19/18 A3002 TRACE CU BKN100 BECMG=
200810201300 METAR MROC 201300Z 06004KT CAVOK 23/20 A3003 RMK TRACE SC SCT120 FEW250 TCU DST SW BECMG=
200810201400 METAR MROC 201400Z 20003KT CAVOK 25/21 A3004 RMK TRACE SC SCT120 TCU DST SW BECMG=
200810201500 METAR MROC 201500Z 15005KT 9999 FEW035 SCT120 27/20 A3004 BECMG=
200810201600 METAR MROC 201600Z 13005KT 9999 FEW035 SCT250 28/19 A3004 RMK TRACE AC BECMG=
200810201700 METAR MROC 201700Z 25009KT 9999 SCT035 SCT250 26/22 A3002 BECMG=
200810201800 METAR MROC 201800Z 23009KT 9999 FEW025TCU BKN035 26/23 A2999 BECMG=
200810201900 METAR MROC 201900Z 25009KT 9999 VCSH FEW020CB SCT030 27/25 A2996 RMK VIS 8000 N NW BECMG 6000 VCTS=
200810202000 METAR MROC 202000Z 27007KT 9999 -RA FEW007 SCT020CB BKN090 23/23 A2995 RMK VIS 6000SW BECMG 5000 -TSRA=
200810202100 METAR MROC 202100Z 23008KT 8000 VCSH FEW010 SCT015CB BKN025 22/21 A2995 RERA RMK VIS ENE S UNLTD BECMG 4000 TSRA=
200810202200 METAR MROC 202200Z 24004KT 7000 -RA VCSH FEW002 FEW015CB BKN037 21/21 A2997 RETS RMK VIS ENE SE UNLTD BECMG=
200810202300 METAR MROC 202300Z 33004KT 9999 VCFG SCT007 SCT030 BKN150 21/21 A2999 RMK VIS SW 6KMS BECMG 5000 BR=
200810210000 METAR MROC 210000Z 30004KT 9999 FEW003 SCT010 BKN150 21/21 A3000 BECMG=
200810210100 METAR MROC 210100Z 28002KT 9999 SCT012 BKN030 21/21 A3003 BECMG=
200810210200 METAR MROC 210200Z 28006KT 9999 FEW012 SCT025 BKN035 21/21 A3004 BECMG=
200810210300 METAR MROC 210300Z 00000KT 9999 FEW020 BKN100 21/21 A3002 BECMG=
200810210400 METAR MROC 210400Z 07002KT 9999 FEW025 BKN100 21/21 A3005 BECMG=
200810210500 METAR MROC 210500Z 02007KT CAVOK 20/20 A3004 RMK TRACE ST SCT110 BECMG=
200810210600 METAR MROC 210600Z 30002KT CAVOK 20/20 A3002 RMK TRACE ST SCT110 BECMG=
200810210700 METAR MROC 210700Z 00000KT CAVOK 20/20 A3000 RMK TRACE SC SCT120 BECMG=
200810210800 METAR MROC 210800Z 03002KT CAVOK 19/19 A2998 RMK TRACE SC SCT120 BECMG=
200810210900 METAR MROC 210900Z 03004KT CAVOK 19/19 A2999 RMK TRACE ST SCT120 BECMG=
200810211000 METAR MROC 211000Z 08004KT CAVOK 19/19 A2998 RMK TRACE ST BKN120 BECMG=
200810211100 METAR MROC 211100Z 09004KT CAVOK 19/19 A2999 RMK BKN120 BECMG=
200810211200 METAR MROC 211200Z 03004KT CAVOK 18/18 A3001 RMK BKN120 BECMG=
200810211300 METAR MROC 211300Z 09004KT CAVOK 20/18 A3003 RMK TRACE SC SCT120 SCT250 CB DST S SW BECMG=
200810211400 METAR MROC 211400Z 06002KT CAVOK 22/19 A3004 RMK TRACE CU FEW140 SCT300 BECMG=
200810211500 METAR MROC 211500Z 00000KT CAVOK 25/19 A3004 RMK TRACE CU SCT300 BECMG 24005KT=
200810211600 METAR MROC 211600Z 23006KT 9999 FEW035 SCT300 26/20 A3003 BECMG=
200810211700 METAR MROC 211700Z 26007KT 9999 SCT035 27/22 A3001 RMK TRACE CI LGT HZ ARND BECMG=
200810211800 METAR MROC 211800Z 24008KT 9999 SCT030 26/22 A2998 RMK LGT HZ ARND BECMG 7000 VCSH=
200810211900 METAR MROC 211900Z 25011KT 9999 TS VCSH FEW015CB BKN025 25/22 A2995 RMK VIS ENE NE 8KMS TS ENE BECMG 4000 TSRA=
200810212000 METAR MROC 212000Z 23008KT 9999 3000N -TSRA SCT012CB BKN025TCU 23/23 A2994 BECMG 2000=
200810212100 METAR MROC 212100Z 22005KT 9999 4000N BR FEW010TCU BKN025 22/22 A2992 RETS BECMG RA=
200810212200 METAR MROC 212200Z 23007KT 9999 FEW010TCU SCT025 BKN100 22/22 A2993 RMK RN N NE BECMG -RA=
200810212300 METAR MROC 212300Z 25006KT 9999 SCT025 BKN100 22/22 A2995 RMK RN S BECMG -RA=
200810220000 METAR MROC 220000Z 27004KT 9999 3000SW RA FEW008 SCT020 BKN100 21/21 A2998 BECMG 5000=
200810220100 METAR MROC 220100Z VRB03KT 9999 RA FEW015 SCT025 BKN100 21/21 A3000 BECMG 6000 BR -RA=
200810220200 METAR MROC 220200Z 00000KT 9999 RA FEW015 SCT025 BKN100 21/21 A3004 BECMG 6000 -RA BR=
200810220300 METAR MROC 220300Z 09002KT 9999 FEW008 SCT025 SCT100 21/21 A3003 RERA BECMG=
200810220400 METAR MROC 220400Z 10002KT 9999 SCT025 21/21 A3001 RMK TRACE ST FEW120 BECMG=
200810220500 METAR MROC 220500Z 08002KT CAVOK 20/20 A3001 RMK SCT120 ST S SW BECMG=
200810220600 METAR MROC 220600Z 01004KT CAVOK 20/20 A2999 RMK SCT120 ST S BECMG=
200810220700 METAR MROC 220700Z 11003KT 9999 FEW030 SCT120 19/19 A2998 RMK ST SSE/S BECMG=
200810220800 METAR MROC 220800Z 07003KT CAVOK 19/19 A2996 RMK SCT120 FEW260 BECMG=
200810220900 METAR MROC 220900Z 06003KT CAVOK 18/18 A2996 RMK SCT120 FEW260 BECMG=
200810221000 METAR MROC 221000Z 06003KT CAVOK 18/18 A2997 RMK SCT120 FEW260 ST S BECMG=
200810221100 METAR MROC 221100Z 08004KT CAVOK 18/18 A2998 RMK FEW120 FEW260 ST S CB DST NE/E BECMG=
200810221200 METAR MROC 221200Z 04004KT CAVOK 18/18 A2999 RMK BKN250 BECMG=
200810221300 METAR MROC 221300Z 11009KT CAVOK 19/19 A3001 RMK BKN250 BECMG 26007KT=
200810221400 METAR MROC 221400Z 00000KT CAVOK 23/20 A3002 RMK TRACE CU SCT250 BECMG 26007=
200810221500 METAR MROC 221500Z 23003KT 9999 FEW040 SCT250 25/21 A3002 BECMG=
200810221600 METAR MROC 221600Z 24006KT 9999 FEW040 BKN300 27/22 A3001 BECMG=
200810221700 METAR MROC 221700Z 27010KT 9999 SCT035 SCT300 27/22 A2999 BECMG=
200810221800 METAR MROC 221800Z 26009KT 9999 FEW015TCU BKN035 26/23 A2997 BECMG=
200810221900 METAR MROC 221900Z 22010KT 9999 FEW015TCU BKN035 27/23 A2994 RMK TRACE ST RN S NE E BECMG 7000 VCSH=
200810222000 METAR MROC 222000Z 24007KT 9999 FEW005 FEW015TCU BKN035 24/23 A2991 RMK RN NE E=
200810222100 METAR MROC 222100Z 24006KT 6000 -RA SCT015TCU SCT025 22/22 A2992 VSBY SE S UNL VSBY N NE 4KM DUE RASH BECMG=
200810222200 METAR MROC 222200Z 24008KT 6000 VCSH FEW008 BKN035 21/21 A2993 VSBY ESE SE S UNL RASH W NW BECMG=
200810222300 METAR MROC NIL=
200810230000 METAR MROC 230000Z 31006KT 9999 -RA SCT010 SCT030 21/21 A2998 TS N E BECMG=
200810230100 METAR MROC 230100Z 31003KT 9999 SCT015 BKN035 21/21 A3000 BECMG=
200810230200 METAR MROC 230200Z 00000KT 9999 SCT015 SCT025 21/21 A3002 BECMG=
200810230300 METAR MROC 230300Z 00000KT 9999 3000S BR FEW002 SCT025 BKN100 21/21 A3004 BECMG 22004KT 0500 FG VV///=
200810230400 METAR MROC 230400Z 09003KT 9999 FEW030 BKN100 20/20 A3003 BECMG=
200810230500 METAR MROC 230500Z 00000KT 9999 FEW030 BKN120 20/20 A3003 BECMG=
200810230600 METAR MROC 230600Z 00000KT 9999 FEW040 BKN120 21/21 A3002 BECMG=
200810230700 METAR MROC 230700Z 33002KT 9999 4000 SW BR FEW002 BKN120 20/20 A2999 RMK TRACE SC BECMG 3000=
200810230800 METAR MROC 230800Z 07005KT CAVOK 19/19 A2996 RMK TRACE ST SC FEW120 BKN270 BECMG=
200810230900 METAR MROC 230900Z 07003KT CAVOK 19/19 A2996 RMK TRACE SC AC SCT270 BECMG=
200810231000 METAR MROC 231000Z 10004KT CAVOK 19/19 A2996 RMK TRACE SC SCT270 BECMG=
200810231100 METAR MROC 231100Z 06004KT CAVOK 19/19 A2997 RMK TRACE SC AC SCT270 BECMG=
200810231200 METAR MROC 231200Z 08005KT CAVOK 18/18 A2999 RMK TRACE SC AC BKN250 CB DST SSW SW BECMG=
200810231300 METAR MROC 231300Z 07003KT CAVOK 22/20 A3001 TRACE SCT BKN250 BECMG=
200810231400 METAR MROC 231400Z 08007KT CAVOK 25/20 A3002 TRACE SCT FEW140 SCT250 BECMG=
200810231500 METAR MROC 231500Z 11003KT 9999 FEW025 SCT130 BKN280 26/20 A3004 BECMG=
200810231600 METAR MROC 231600Z 13008KT 9999 FEW035 SCT120 BKN250 27/20 A3003 BECMG=
200810231700 METAR MROC 231700Z 25008KT 9999 SCT040 SCT120 26/22 A3000 BECMG=
200810231800 METAR MROC 231800Z 16005KT 9999 SCT030 SCT120 27/20 A2999 RN DST E BECMG=
200810231900 METAR MROC 231900Z 19004KT 9999 FEW025 BKN280 26/20 A2996 RN ESE BECMG=
200810232000 METAR MROC 232000Z 23009KT 9999 FEW020TCU SCT045 BKN280 25/23 A2994 RN E W NW BECMG=
200810232100 METAR MROC 232100Z 25008KT 9999 4000E BR SCT006 BKN015 23/23 A2994 BECMG 3000 BR=
200810232200 METAR MROC 232200Z 05003KT 5000 -RA BR FEW004 SCT015CB OVC100 22/22 A2996 BECMG=
200810232300 METAR MROC 232300Z 20002KT 6000 VCFG FEW004 SCT010 OVC100 21/21 A2997 BECMG=
200810240000 METAR MROC 240000Z 01004KT 9999 FEW004 SCT020 BKN100 21/21 A2997 BECMG=
200810240100 METAR MROC 240100Z 00000KT 9999 SCT030 SCT110 21/21 A3003 RMK TRCE ST BECMG=
200810240200 METAR MROC 240200Z 23002KT 9999 SCT020 SCT110 20/20 A3006 RMK TRACE ST BECMG=
200810240300 METAR MROC 240300Z 00000KT 9999 2000SW BR FEW001 SCT020 SCT100 20/20 A3006 BECMG=
200810240400 METAR MROC 240400Z VRB02KT 9999 FEW020 SCT100 21/21 A3006 BECMG=
200810240500 METAR MROC 250500Z 00000KT 9999 FEW020 BKN100 20/20 A3006 BECMG=
200810240600 METAR MROC 240600Z 07003KT 9999 FEW030 SCT120 20/20 A3004 BECMG=
200810240700 METAR MROC 240700Z 11003KT CAVOK 19/19 A3001 RMK TRACE SC SCT120 BECMG=
200810240800 METAR MROC 240800Z 00000KT CAVOK 19/19 A3000 RMK TRACE SC SCT120 BECMG=
200810240900 METAR MROC 240900Z 07002KT CAVOK 19/19 A3000 RMK TRACE SC CI SCT120 BECMG=
200810241000 METAR MROC 241000Z 090004KT CAVOK 18/18 A3000 RMK TRACE SC CI SCT120 BECMG=
200810241100 METAR MROC 241100Z 090004KT CAVOK 18/18 A3000 RMK TRACE SC CI SCT120 BECMG=
200810241200 METAR MROC 241200Z 07002KT CAVOK 18/18 A3003 RMK SCT120 BKN250 BECMG=
200810241300 METAR MROC 241300Z 06005KT CAVOK 19/19 A3004 RMK BKN130 BECMG=
200810241400 METAR MROC 241400Z 05005KT CAVOK 21/18 A3005 RMK BKN130 BECMG=
200810241500 METAR MROC 241500Z 07003KT CAVOK 22/20 A3006 RMK BKN130 BECMG 24006KT=
200810241600 METAR MROC 241600Z 07006KT CAVOK 23/20 A3005 RMK TRACE SC BKN120 BECMG 6000 VCSH=
200810241700 METAR MROC 241700Z 10009KT 9999 FEW030 BKN120 25/20 A3001 RERA BECMG=
200810241800 METAR MROC 241800Z 11004KT CAVOK 25/20 A2998 RMK TRACE SC BKN120 BECMG=
200810241900 METAR MROC 241900Z 11005KT 9999 FEW030 SCT120 BKN250 25/20 A2998 BECMG=
200810242000 METAR MROC 242000Z 25007KT 9999 FEW030 SCT120 BKN250 26/22 A2996 BECMG=
200810242100 METAR MROC 242100Z 26008KT 9999 FEW025 SCT120 BKN250 24/23 A2994 RMK HZ ARND VIS 7000 SW HZ BECMG=
200810242200 METAR MROC 242200Z 26007KT 9999 SCT015 SCT120 23/22 A2994 RMK VIS 7000 N NE RA SCT250 BECMG=
200810242300 METAR MROC 242300Z 26005KT 9999 SCT015 BKN250 23/22 A2997 RMK HZ LGT ARND BECMG=
200810250000 METAR MROC 250000Z 27004KT 9999 VCFG FEW005 SCT015 21/21 A2999 RMK FEW120 VIS 7000 SW W BECMG 5000 BR=
200810250100 METAR MROC 250100Z 25002KT 9999 BR SCT005 SCT012 21/21 A3002 RMK VIS 5000 SW BECMG 3000 BR=
200810250200 METAR MROC 250200Z 23002KT 7000 3000SW R07/1200 VCFG BR FEW003 SCT010 21/21 A3004 BECMG=
200810250300 METAR MROC 250300Z 33002KT 5000 BR SCT005 21/21 A3007 BECMG=
200810250400 METAR MROC 250400Z 20002KT 9999 3000S BR FEW003 SCT010 20/20 A3007 BECMG=
200810250500 METAR MROC 250500Z 05002KT 9999 BR FEW003 SCT150 20/20 A3004 VIS SW 5KM BECMG=
200810250559 METAR MROC 250559Z 07004KT CAVOK 19/19 A3002 TRACE SCT CI BECMG=
200810250700 METAR MROC 250700Z 09004KT CAVOK 18/18 A2998 TRACE SCT FEW150 BECMG=
200810250800 METAR MROC 250800Z 08003KT CAVOK 18/17 A2996 TRACE SCT AC BECMG=
200810250900 METAR MROC 250900Z 06005KT 9999 SKC 18/17 A2995 BECMG=
200810251000 METAR MROC 251000Z 28002KT 9999 SKC 18/17 A2998 BECMG=
200810251100 METAR MROC 251100Z 33004KT CAVOK 18/18 A3000 FEW100 SCT250 BECMG=
200810251200 METAR MROC 251200Z 34002KT 9999 FEW020 BKN270 18/18 A3003 CB DST SW BECMG=
200810251300 METAR MROC 251300Z 07004KT CAVOK 21/19 A3005 RMK BKN250 TCU DST SSW BECMG=
200810251400 METAR MROC 251400Z 00000KT CAVOK 23/19 A3006 RMK BKN250 CB DST SW SSW BECMG 24006KT=
200810251500 METAR MROC 251500Z 26002KT 9999 FEW025 BKN250 25/20 A3006 RMK CB DST SW BECMG=
200810251600 METAR MROC 251600Z 24008KT 9999 FEW030 SCT250 26/21 A3006 BECMG=
200810251700 METAR MROC 251700Z 24009KT 9999 SCT030 SCT250 26/22 A3003 BECMG=
200810251800 METAR MROC 251800Z 24008KT 9999 SCT025 BKN250 26/22 A3001 RMK FEW120 BECMG=
200810251900 METAR MROC 251900Z 24007KT 9999 FEW020 SCT030 BKN250 26/22 A2998 BECMG=
200810252000 METAR MROC 252000Z 25006KT 9999 -RA FEW015TCU BKN025 26/22 A2995 RMK SCT250 BECMG=
200810252100 METAR MROC 252100Z 25009KT 9999 FEW017TCU SCT025 BKN040 26/23 A2993 RERA RMK PCPN DST N NE LGT HZ ARND BECMG 6000 VCSH=
200810252200 METAR MROC 252200Z 22006KT 9999 4000E RA VCSH SCT015TCU BKN025 23/23 A2994 BECMG 3000 RA BR=
200810252300 METAR MROC 252300Z 00000KT 9999 VCSH FEW015CB SCT025 BKN100 21/21 A2996 RMK VIS SW WSW 8KMS RASH DIST E ESE BECMG 3000 SHRA=
200810252301 METAR MROC 252301Z 00000KT 9999 VCSH FEW015CB SCT025 BKN100 21/21 A2996 RERA RMK VIS SW WSW 8KMS RASH DIST E ESE BECMG 3000 SHRA=
200810260000 METAR MROC 260000Z 00000KT 9999 VCFG FEW005 BKN012 22/22 A2999 RMK VIS SW 7KMS BECMG=
200810260100 METAR MROC 260100Z 20005KT 8000 VCFG FEW003 SCT010 BKN025 22/22 A3003 RMK VIS ESE S UNLTD BECMG=
200810260200 METAR MROC 260200Z 27003KT 9999 FEW025 BKN045 21/21 A3005 RMK TRACE ST BECMG=
200810260300 METAR MROC 260300Z 25003KT 9999 FEW006 SCT035 21/21 A3006 BECMG=
200810260400 METAR MROC 260400Z 15003KT 9999 FEW035 20/20 A3005 RMK TRACE ST BECMG=
200810260500 METAR MROC 260500Z 00000KT 1000 BR BKN001 20/20 A3005 BECMG 3000 BR=
200810260600 METAR MROC 260600Z 120044KT 9999 2000W BR SCT002 20/20 A3003 BECMG=
200810260700 METAR MROC 260700Z 23003KT 9999 FEW004 19/19 A3000 BECMG CAVOK=
200810260800 METAR MROC 260800Z 07004KT CAVOK 19/19 A2998 RMK TRACE ST BECMG=
200810260900 METAR MROC 260900Z 08005KT CAVOK 20/18 A2999 RMK TRACE ST AC SC=
200810261000 METAR MROC 261000Z 03004KT CAVOK 19/18 A2999 RMK TRACE ST AC SC=
200810261100 METAR MROC 261100Z 07004KT CAVOK 18/18 A3000 RMK FEW050 SCT120 BECMG=
200810261200 METAR MROC 261200Z 04005KT 9999 FEW035 SCT250 19/18 A3001 RMK CB DST NE BECMG=
200810261300 METAR MROC 261300Z 06004KT 9999 FEW035 BKN250 22/19 A3005 RMK TRACE AS CB DST S BECMG=
200810261400 METAR MROC 261400Z 04004KT 9999 FEW035 SCT160 BKN250 22/19 A3006 RMK DZ DST ENE TCU DST S SW BECMG=
200810261500 METAR MROC 261500Z 10007KT 9999 FEW035 BKN250 26/20 A3007 RMK VEL MX VTO 13KTS TRACE AC RN DST E MUY DIST CB AL SW BECMG=
200810261600 METAR MROC 261600Z 10007KT 9999 FEW030 SCT050 27/20 A3005 RMK DZ DST ENE VEL MX VTO 13KT BECMG=
200810261700 METAR MROC 261700Z 12007KT 9999 FEW030 SCT047 28/20 A3002 RMK TRACE CI VEL MX VTO 13KT TCU DST SW BECMG=
200810261800 METAR MROC 261800Z 11008KT 9999 FEW040 SCT080 29/20 A2999 RMK VEL MX VTO 13KTS TCU DST SSW BECMG=
200810261900 METAR MROC 261900Z 21006KT 9999 FEW025 SCT045 26/23 A2996 RMK TCU DST SSW W BECMG=
200810262000 METAR MROC 262000Z 25010KT 9999 FEW010 SCT025 25/23 A2994 RMK TCU DST N SE SW BECMG 7000 VCSH=
200810262100 METAR MROC 262100Z 23008KT 9999 FEW008 BKN025 24/23 A2993 BECNG 7000=
200810262200 METAR MROC 262200Z 24007KT 9999 4000SW BR FEW002 SCT008 BKN025 23/23 A2995 BECMG 5000 RA BR=
200810262300 METAR MROC 262300Z 25006KT 8000 2000SW BR FEW001 SCT005 BKN020 22/22 A2996 BECMG 4000 RA BR=
200810270000 METAR MROC 270000Z 26005KT 4000 -RA BR FEW001 SCT005 BKN010 21/21 A2999 BECMG 1200 RA BR=
200810270100 METAR MROC 270100Z 27002KT 0500 FG VV/// 21/21 A3003 RMK VIS N 3000MTS BECMG 1500 BR=
200810270200 METAR MROC 270200Z 25003KT 6000 1000SW R07/0400 BR FEW001 SCT008 BKN015 21/21 A3001 BECMG 2000 BR=
200810270300 METAR MROC 270300Z 29004KT 5000 2000SW BR FEW003 BKN006 21/21 A3006 BECMG 6000 VCFG=
200810270400 METAR MROC 270400Z 28003KT 7000 3000SW VCFG BR FEW003 SCT006 21/21 A3007 BECMG=
200810270500 METAR MROC 270500Z 04004KT 9999 VCFG FEW015 21/21 A3004 RMK VIS 7000 SW DUE ST SSW SW BECMG=
200810270600 METAR MROC 270600Z 06004KT 9999 FEW025 21/20 A3001 BECMG=
200810270700 METAR MROC 270700Z 03004KT 9999 FEW025 21/19 A3000 BECMG=
200810270800 METAR MROC 270800Z 10007KT CAVOK 21/19 A2997 RMK FEW260 BECMG=
200810270900 METAR MROC 270900Z 07004KT 9999 FEW030 21/18 A2998 RMK FEW260 BECMG=
200810271000 METAR MROC 271000Z 08003KT 9999 FEW030 21/19 A3000 RMK FEW260 CB/LTNG DST S BECMG=
200810271100 METAR MROC 271100Z 01004KT 9999 -DZ SCT030 SCT100 21/19 A3003 RMK FEW260 CB DST S BECMG=
200810271200 METAR MROC 271200Z 09003KT 9999 FEW030 SCT100 22/19 A3005 RMK REDZ DZ DST NE E CB DST SSW SW BECMG=
200810271300 METAR MROC 271300Z 08005KT 9999 FEW030 SCT100 24/20 A3005 RMK TRACE CI BECMG=
200810271400 METAR MROC 271400Z 11011KT 9999 FEW030 SCT250 25/20 A3006 RMKCB DST SW BECMG=
200810271500 METAR MROC 271500Z 08006KT 9999 FEW030 SCT270 27/19 A3007 RMK CB DST SW BECMG=
200810271600 METAR MROC 271600Z 10010KT 9999 FEW030 SCT270 28/19 A3006 RMK TRACE AC BECMG=
200810271700 METAR MROC 271700Z 07018KT 9999 SCT030 FEW120 28/18 A3003 RMK TRACE CI BECMG=
200810271800 METAR MROC 271800Z 08008KT 9999 SCT030 FEW120 28/19 A3001 RMK DZ NE BECMG=
200810271900 METAR MROC 271900Z 07007KT 9999 SCT030 SCT100 27/19 A2998 RMK FEW250 DZ NE BECMG 12008KT=
200810272000 METAR MROC 272000Z 08012KT 9999 FEW015TCU SCT030 SCT100 26/19 A2997 RMK DZ NE S BECMG 12008KT=
200810272100 METAR MROC 272100Z 08008KT 9999 FEW025 BKN270 26/18 A2995 CB DST SW DZ NE=
200810272200 METAR MROC 272200Z 07012KT 9999 FEW045 BKN270 26/18 A2996 BECMG=
200810272300 METAR MROC 272300Z 10008KT 9999 FEW030 BKN280 24/17 A2997 BECMG=
200810280000 METAR MROC 280000Z 10006KT 9999 FEW045 SCT280 22/18 A3001 BECMG=
200810280100 METAR MROC 280100Z 10007KT 9999 SKC 22/18 A3005 TRACE SCT BECMG=
200810280200 METAR MROC 280200Z 09008KT CAVOK 22/17 A3006 TRACE SCT BECMG=
200810280300 METAR MROC 280300Z 13004KT CAVOK 21/18 A3006 RMK TRACE SC AC SCT270 BECMG=
200810280400 METAR MROC 280400Z 10006KT CAVOK 21/18 A3006 RMK TRACE SC AC SCT270 BECMG=
200810280500 METAR MROC 280500Z 08008KT CAVOK 21/18 A3005 RMK TRACE SC SCT270 BECMG=
200810280600 METAR MROC 280600Z 10006KT CAVOK 21/17 A3003 RMK TRACE SC FEW120 SCT270 BECMG=
200810280700 METAR MROC 280700Z 09008KT CAVOK 22/17 A3001 RMK TRACE SC AC SCT270=
200810280800 METAR MROC 280800Z 11007KT CAVOK 21/17 A3000 RMK TRACE SC AC SCT270 OCNL LTNG DST S BECMG=
200810280900 METAR MROC 280900Z 11005KT CAVOK 21/17 A3000 RMK TRACE SC AC SCT270 BECMG=
200810281000 METAR MROC 281000Z 11008KT CAVOK 20/17 A3001 RMK TRACE SC AC SCT270 BECMG=
200810281100 METAR MROC 281100Z 11006KT CAVOK 20/16 A3001 RMK TRACE SC SCT070 TRACE CI LTNG DST S BECMG=
200810281200 METAR MROC 281200Z 09007KT 9999 FEW030 BKN070 21/17 A3004 RMK FEW270 PCPN DST N NE BECMG=
200810281300 METAR MROC 281300Z 09009KT CAVOK 23/17 A3006 TRACE SCT/AC SCT250 DZ N BECMG=
200810281400 METAR MROC 281400Z 10009KT CAVOK 24/17 A3008 FEW140 SCT250 TRACE SCT BECMG=
200810281500 METAR MROC 281500Z 10008KT CAVOK 25/16 A3009 SCT120 TRACE SCT BECMG=
200810281600 METAR MROC 281600Z 08009KT 9999 SCT045 SCT120 26/16 A3010 BECMG=
200810281645 METAR MROC 281645Z 09005KT 9999 -RA SCT045 BKN090 22/19 A3008 BECMG=
200810281700 METAR MROC 281700Z 07008KT 9999 -RA SCT045 BKN080 22/19 A3008 VSBY N NE 6KM DUE RN BECMG=
200810281800 METAR MROC 281800Z 03009KT 9999 -RA SCT040 BKN100 22/21 A3006 VSBY N 6KM BECMG=
200810281900 METAR MROC 281900Z 11005KT 9999 FEW030 SCT045 24/19 A3002 RN N NE BECMG=
200810282000 METAR MROC 282000Z 09009KT 9999 FEW030 SCT045 26/18 A3000 DZ N NE BECMG=
200810282100 METAR MROC 282100Z 10008KT 9999 SCT025 SCT050 24/18 A2999 RMK RN DST N NE BECMG=
200810282200 METAR MROC 282200Z 12007KT 9999 SCT025 SCT040 23/18 A2999 RMK RN DST N NE BECMG=
200810282300 METAR MROC 282300Z 08004KT 9999 SCT020 SCT070 22/18 A3002 RMK RN DST N NE BECMG=
200810290000 METAR MROC 290000Z 10007KT 9999 FEW020 SCT080 22/18 A3003 BECMG=
200810290100 METAR MROC 290100Z 11003KT 9999 FEW025 21/18 A3006 BECMG=
200810290200 METAR MROC 290200Z 11004KT 9999 FEW025 21/18 A3008 BECMG=
200810290300 METAR MROC 290300Z 11005KT 9999 FEW030 SCT120 21/19 A3008 BECMG=
200810290400 METAR MROC 290400Z 10004KT 9999 FEW030 SCT120 21/18 A3008 BECMG=
200810290500 METAR MROC 290500Z 12003KT 9999 FEW030 SCT120 21/18 A3006 BECMG=
200810290600 METAR MROC 290600Z 08003KT 9999 FEW030 BKN120 21/18 A3005 BECMG=
200810290700 METAR MROC 290700Z 09007KT 9999 FEW035 BKN120 21/17 A3003 BECMG=
200810290800 METAR MROC 290800Z 10006KT CAVOK 20/17 A3001 RMK TRACE SC SCT120 BECMG=
200810290900 METAR MROC 290900Z 11007KT CAVOK 20/17 A3001 RMK TRACE SC SCT120 BECMG=
200810291000 METAR MROC 291000Z 12008KT CAVOK 20/16 A2999 RMK TRACE SC SCT120 BECMG=
200810291100 METAR MROC 291100Z 09008KT CAVOK 20/16 A3000 RMK TRACE SC SCT120 BECMG=
200810291200 METAR MROC 291200Z 12006KT CAVOK 20/16 A3002 RMK TRACE SC SCT120 BECMG=
200810291300 METAR MROC NIL=
200810291400 METAR MROC 291400Z 08010KT 9999 FEW020 BKN100 24/16 A3005 RMK RN DST NE BECMG=
200810291500 METAR MROC 291500Z 08012G23KT 9999 FEW025 BKN100 26/15 A3005 RMK RN DST NE BECMG=
200810291600 METAR MROC 291600Z 09011G21KT 9999 FEW025 BKN100 25/16 A3005 RMK RN DST NE BECMG=
200810291700 METAR MROC 291700Z 09011G22KT 9999 FEW025 SCT100 BKN250 25/17 A3002 RMK RN DST NE BECMG=
200810291800 METAR MROC 291800Z 07014G25KT 9999 SCT025 BKN100 26/16 A3001 RMK RN DST NE BECMG=
200810291900 METAR MROC 291900Z 08013G24KT 9999 FEW025 SCT100 BKN250 23/18 A2999 RMK RN DST N NE BECMG=
200810292000 METAR MROC 292000Z 09010G20KT 9999 -RA SCT025 BKN250 23/18 A2997 BECMG=
200810292100 METAR MROC 292100Z 09011KT 9999 SCT035 BKN120 23/17 A2997 RMK RN DST NE BECMG=
200810292200 METAR MROC 292200Z 09008KT 9999 FEW035 SCT120 23/17 A2996 RMK SCT250 RN DST NE BECMG=
200810292300 METAR MROC 292300Z 12007KT 9999 FEW035 SCT120 22/17 A2997 RMK SCT250 BECMG=
200810300000 METAR MROC 300000Z 10006KT CAVOK 22/16 A3000 RMK SCT100 SCT250 BECMG=
200810300100 METAR MROC 300100Z 11006KT CAVOK 21/17 A3002 RMK FEW100 SCT250 BECMG=
200810300200 METAR MROC 300200Z 05009KT 9999 FEW035 SCT120 23/16 A3006 BECMG=
200810300300 METAR MROC 300300Z 10006KT 9999 SCT040 SCT080 22/17 A3007 BECMG=
200810300400 METAR MROC NIL=
200810300500 METAR MROC 300500Z 07012KT CAVOK 22/17 A3001 TRACE SCT BKN120 BECMG=
200810300600 METAR MROC 300600Z 07012KT CAVOK 22/16 A3001 TRACE SCT SCT150 BECMG=
200810300700 METAR MROC 300700Z 07008KT CAVOK 21/16 A3000 TRACE SCT BKN150 BECMG=
200810300800 METAR MROC 300800Z 10006KT 9999 FEW040 20/15 A2999 BECMG=
200810300900 METAR MROC 300900Z 08006KT 9999 FEW040 SCT100 20/15 A3000 BECMG=
200810301000 METAR MROC 301000Z 10008KT 9999 FEW040 SCT100 20/16 A2999 LTNG DST S BECMG=
200810301100 METAR MROC 301100Z 12008KT 9999 FEW045 SCT080 20/17 A3001 LTNG DST S BECMG=
200810301200 METAR MROC 301200Z 11010KT 9999 FEW045 SCT080 21/17 A3000 CB DST S BECMG=
200810301300 METAR MROC 301300Z 11010KT 9999 FEW030 SCT100 BKN250 22/18 A3005 RMK RN DST NE VEL  MAX  VTO 16KT BECMG=
200810301400 METAR MROC 301400Z 11008KT 9999 FEW035 SCT100 23/18 A3007 RMK SCT250 DZ DST NE BECMG=
200810301500 METAR MROC 301500Z 10007KT 9999 FEW035 SCT120 BKN250 25/18 A3008 RMK DZ DST NE BECMG=
200810301600 METAR MROC 301600Z 08010KT 9999 FEW035 BKN120 26/17 A3007 RMK DZ DST NE BECMG=
200810301700 METAR MROC 301700Z 09011KT 9999 FEW030 BKN120 25/17 A3004 RMK DZ DST NE VEL  MAX  VTO 17KT BECMG=
200810301800 METAR MROC 301800Z 11010KT 9999 4000NE RA FEW030 BKN090 21/20 A3004 BECMG=
200810301900 METAR MROC 301900Z 08010KT 9999 -RA FEW030 BKN090 21/18 A3003 BECMG=
200810302000 METAR MROC 302000Z 10008KT 9999 -RA FEW030 BKN090 21/19 A3002 BECMG=
200810302100 METAR MROC 302100Z 07008KT 9999 -DZ FEW030 BKMN100 22/17 A3001 RERA RN DST W NW N NE BECMG=
200810302200 METAR MROC 302200Z 10004KT 9999 -RA SCT100 BKN130 22/17 A2998 RMK TRACE SC BECMG=
200810302300 METAR MROC 302300Z 11005KT 9999 SCT100 BKN130 21/16 A2998 RMK DZ DST N NNW=
200810302301 METAR MROC 302301Z COR 11005KT 9999 SCT100 BKN130 21/16 A2998 RERA RMK DZ DST N NNW BECMG=
200810302305 METAR MROC 302305Z COR 11005KT 9999 FEW035 SCT100 BKN130 21/16 A2998 RERA RMK DZ DST N NNW BECMG=
200810310000 METAR MROC 310000Z 10008KT 9999 FEW035 SCT100 BKN140 22/16 A3001 RMK DZ DST N NE VEL MX VTO 15KT BECMG=
200810310100 METAR MROC 310100Z 10007KT 9999 FEW035 SCT100 BKN140 21/17 A3004 BECMG=
200810310200 METAR MROC 310200Z 08009KT CAVOK 21/17 A3005 RMK TRACE SC FEW100 BKN140 BECMG=
200810310300 METAR MROC 310300Z 10007KT CAVOK 21/17 A3007 RMK TRACE SC SCT100 BECMG=
200810310400 METAR MROC 310400Z 09007KT CAVOK 21/17 A3008 RMK TRACE SC SCT100 BECMG=
200810310500 METAR MROC 310500Z 09007KT CAVOK 21/18 A3007 RMK TRACE SC SCT100 BECMG=
200810310600 METAR MROC 310600Z 11008KT CAVOK 21/21 A3006 RMK TRACE SC SCT100 BECMG=
200810310700 METAR MROC 310700Z 11008KT CAVOK 21/17 A3004 RMK TRACE SC SCT199 BECMG=
200810310800 METAR MROC 310800Z 12005KT CAVOK 21/17 A3003 RMK TRACE SC SCT100 BECMG=
200810310900 METAR MROC 310900Z 11008KT CAVOK 21/17 A3003 RMK SCT050 SCT120 BECMG=
200810311000 METAR MROC 311000Z 11006KT CAVOK 21/18 A3001 RMK TRACE SC BKN120 BECMG=
200810311100 METAR MROC 311100Z 13009KT 9999 -RA FEW030 BKN120 20/18 A3003 BECMG=
200810311200 METAR MROC 311200Z 07008KT 9999 -RA OVC120 19/17 A3005 RMK TRACE SC BECMG=
200810311300 METAR MROC 311300Z 08008KT CAVOK 20/16 A3007 RERA RMK TRACE SC SCT100 BKN140 BECMG=
200810311400 METAR MROC 311400Z 08007KT CAVOK 21/16 A3007 RMK TRACE SC SCT100 BKN140 CB DST S BECMG=
200810311500 METAR MROC 311500Z 10010KT CAVOK 23/16 A3006 RMK TRACE SC SCT100 BKN140 VEL MX VTO 18KT BECMG=
200810311600 METAR MROC 311600Z 10012KT CAVOK 26/16 A3005 RMK TRACE SC CU BKN140 VEL MX VTO 17KT BECMG=
200810311700 METAR MROC 311700Z 11010KT 9999 FEW035 BKN120 26/16 A3004 RMK SCT250 VEL MX VTO 17KT BECMG=
200810311800 METAR MROC 311800Z 10010KT 9999 FEW035 SCT140 BKN250 27/18 A3003 BECMG=
200810311900 METAR MROC 311900Z 09011KT 9999 FEW040 SCT140 BKN250 27/18 A3001 RMK VEL MX VTO 16KT=
200810312000 METAR MROC 312000Z 10009KT 9999 SCT035 BKN250 25/18 A2999 RMK TRACE AC BECMG=
200810312100 METAR MROC 312100Z 11007KT 9999 SCT035 SCT120 26/18 A2999 RMK FEW250 BECMG=
200810312200 METAR MROC 312200Z 12007KT 9999 FEW035 SCT120 SCT250 24/18 A2999 BECMG=
200810312300 METAR MROC 312300Z 11008KT 9999 FEW035 SCT120 SCT250 23/18 A3001 BECMG=
200811010000 METAR MROC 010000Z 13006KT 9999 FEW035 SCT120 BKN250 23/18 A3002 RMK=
200811010100 METAR MROC 010100Z 10006KT 9999 FEW035 SCT120 BKN250 22/18 A3004 RMK=
200811010200 METAR MROC 010200Z 11004KT 9999 FEW035 BKN120 22/18 A3006 BECMG=
200811010300 METAR MROC 010300Z 13004KT CAVOK 21/17 A3007 RMK SCT120 LTNG DST S SW BECMG=
200811010400 METAR MROC 010400Z 12005KT CAVOK 21/17 A3007 RMK BKN120 LTNG DST S SW BECMG=
200811010500 METAR MROC 010500Z 04005KT CAVOK 20/17 A3006 RMK SCT120 BECMG=
200811010600 METAR MROC 010600Z 01002KT CAVOK 20/18 A3006 RMK BKN120 BECMG=
200811010700 METAR MROC 010700Z 01002KT 9999 FEW030 OVC110 20/18 A3004 RMK LTNG DST S BECMG -DZ=
200811010800 METAR MROC 010800Z 08003KT CAVOK 19/18 A3003 RMK OVC110 BECMG=
200811010900 METAR MROC 010900Z 04004KT CAVOK 19/17 A3003 RMK BKN110 FEW260 BECMG=
200811011000 METAR MROC 011000Z 08004KT CAVOK 18/17 A3002 RMK SCT120 SCT260 BECMG=
200811011100 METAR MROC 011100Z 08004KT CAVOK 19/17 A3003 RMK BKN110 FEW260 BECMG=
200811011200 METAR MROC 011200Z 03007KT 9999 FEW030 SCT120 BKN260 20/17 A3004 RMK DZ DST NE BECMG=
200811011300 METAR MROC 011300Z 08005KT 9999 FEW035 SCT120 BKN250 21/18 A3006 RMK DZ N NE E BECMG=
200811011400 METAR MROC 011400Z 07005KT 9999 FEW030 BKN120 22/18 A3008 REDZ RMK DZ N NE E BECMG=
200811011500 METAR MROC 011500Z 10008KT CAVOK 23/19 A3008 RMK TRACE SC DZ N NE BKN120 BECMG=
200811011600 METAR MROC 011600Z 10005KT 9999 FEW040 BKN120 24/19 A3008 BECMG=
200811011700 METAR MROC 011700Z 11004KT 9999 FEW040 BKN120 26/18 A3004 BECMG=
200811011800 METAR MROC 011800Z 01003KT 9999 FEW040 SCT120 BKN250 27/18 A3000 BECMG=
200811011900 METAR MROC 011900Z 09005KT 9999 FEW040 SCT120 BKN250 27/18 A2999 BECMG=
200811012000 METAR MROC 012000Z 11007KT 9999 FEW035 SCT120 BKN250 27/17 A2997 BECMG=
200811012100 METAR MROC 012100Z 06005KT 9999 FEW040 SCT120 BKN250 26/17 A2996 CB DST S SW W BECMG=
200811012130 METAR MROC 012130Z 22006KT 9999 FEW005 BKN120 23/22 A2997 FEW040 BECMG=
200811012200 METAR MROC 012200Z 23008KT 9999 SCT006 BKN250 22/22 A2998 VSBY W N 7KM DUE LW ST FEW040 BECMG 4000 BR=
200811012300 METAR MROC 012300Z 27007KT 5000 BR SCT005 SCT010 21/21 A3000 BECMG=
200811020000 METAR MROC 020000Z 25004KT 5000 RA BR SCT005 BKN012 21/21 A3003 BECMG=
200811020100 METAR MROC 020100Z 22004KT 5000 BR FEW003 SCT015 21/21 A3005 RERA SCT120=
200811020200 METAR MROC 020200Z 00000KT 9999 VCFG FEW030 BKN120 21/20 A3007 LTNG DST W FG BANK S VSBY 6KM BECMG=
200811020300 METAR MROC 020300Z 12006KT 9999 -RA VCFG SCT030 BKN047 20/19 A3009 RMK VIS S SSW 7KMS BECMG=
200811020400 METAR MROC 020400Z 10005KT 8000 -RA SCT030 BKN045 19/19 A3010 RMK VIS ESE SE UNLTD BECMG=
200811020500 METAR MROC 020500Z 09005KT 9999 -RA FEW030 SCT045 BKN100 19/19 A3009 BECMG=
200811020600 METAR MROC 020600Z 07004KT 9999 -RA FEW035 BKN100 19/19 A3006 BECMG=
200811020700 METAR MROC 020700Z 07005KT CAVOK 20/18 A3003 RERA RMK TRACE SC OVC120 BECMG=
200811020800 METAR MROC 020800Z 08006KT 9999 -DZ FEW040 BKN100 20/18 A3001 BECMG=
200811020900 METAR MROC 020900Z 07005KT CAVOK 19/18 A2999 REDZ RMK TRACE SC SCT100 BKN250 BECMG=
200811021000 METAR MROC 021000Z 08005KT CAVOK 20/17 A2999 RMK TRACE SC SCT140 BKN250 BECMG=
200811021100 METAR MROC 021100Z 10005KT CAVOK 20/17 A2999 RMK TRACE SC BKN120 BECMG=
200811021200 METAR MROC 021200Z 06004KT CAVOK 20/18 A3002 RMK TRACE SC BKN120 DZ DST NW N CB DST S SSW BECMG=
200811021300 METAR MROC 021300Z 03005KT CAVOK 21/18 A3004 TRACE SCT BKN120 CB DIST S RN DIST N BECMG=
200811021400 METAR MROC 021400Z 03002KT 9999 FEW025 BKN120 23/19 A3005 DZ N NW BECMG=
200811021500 METAR MROC 021500Z 09003KT 9999 FEW025 BKN120 23/19 A3006 DZ NW N NE E BECMG=
200811021600 METAR MROC 021600Z 12006KT 9999 FEW025 BKN120 24/19 A3005 DZ N NE BECMG=
200811021700 METAR MROC 021700Z 12006KT 9999 BKN025 SCT120 25/19 A3003 DZ SW NW N NE E BECMG=
200811021800 METAR MROC 021800Z 11006KT 9999 -RA SCT025 SCT080 22/20 A3002 VSBY S 5KM DUE RN BECMG=
200811021900 METAR MROC 021900Z 25005KT 9999 FEW025 BKN040 23/20 A2999 RN NW N E SE SW BECMG=
200811022000 METAR MROC 022000Z 19005KT 9999 BKN030 SCT100 23/20 A2997 RN N NE E BECMG=
200811022050 METAR MROC 022050Z 24011KT 7000 -RA SCT025 BKN100 23/22 A2994 VIS E 3KMS DUE RN=
200811022100 METAR MROC 022100Z 12003KT 9999 -RA BKN025 23/21 A2996 RMK 8000 NE BECMG=
200811022200 METAR MROC 022200Z 12005KT 9999 -RA BKN020 21/20 A2997 RMK 8000 NE=
200811022300 METAR MROC 022300Z 11005KT 9999 -RA BKN020 20/19 A2999 BECMG=
200811030000 METAR MROC 030000Z 10005KT 9999 SCT030 SCT100 20/18 A2999 BECMG=
200811030100 METAR MROC 030100Z 10005KT 9999 FEW030 SCT100 20/18 A3002 BECMG=
200811030200 METAR MROC 030200Z 06003KT 9999 FEW030 SCT110 20/18 A3004 BECMG=
200811030300 METAR MROC 030300Z 11003KT 9999 FEW030 SCT110 20/18 A3004 BECMG=
200811030400 METAR MROC 030400Z 07002KT 9999 FEW035 SCT110 19/18 A3005 BECMG=
200811030500 METAR MROC 030500Z 05004KT CAVOK 19/18 A3004 RMK TRACE SC AC SCT250 BECMG=
200811030600 METAR MROC 030600Z 08003KT CAVOK 19/18 A3003 RMK TRACE SC AC SCT250 BECMG=
200811030700 METAR MROC 030700Z 01005KT CAVOK 19/18 A3001 RMK TRACE SC SCT250=
200811030800 METAR MROC NIL=
200811030900 METAR MROC 030900Z 06002KT CAVOK 19/18 A2999 RMK TRACE SC SCT250 BECMG=
200811031000 METAR MROC 031000Z 04004KT CAVOK 18/17 A2999 RMK TRACE SC SCT250 BECMG=
200811031100 METAR MROC 031100Z 02007KT CAVOK 17/17 A3000 RMK TRACE SC SCT250 BECMG=
200811031200 METAR MROC 031200Z 07005KT CAVOK 18/17 A3002 RMK TRACE SC SCT300 BECMG=
200811031300 METAR MROC 031300Z 12002KT CAVOK 22/18 A3003 RMK TRACE SC SCT300 BECMG=
200811031400 METAR MROC 031400Z 08004KT 9999 FEW025 SCT300 23/18 A3006 BECMG=
200811031500 METAR MROC 031500Z 15003KT 9999 FEW025 SCT300 25/18 A3005 BECMG 24006KT=
200811031600 METAR MROC 031600Z 03003KT 9999 SCT025 SCT300 25/17 A3004 BECMG=
200811031700 METAR MROC 031700Z 24007KT 9999 SCT025 SCT300 26/20 A3002 BECMG=
200811031800 METAR MROC 031800Z 25009KT 9999 SCT020TCU 27/20 A3000 BECMG=
200811031900 METAR MROC 031900Z 24012KT 9999 FEW015TCU SCT020 26/23 A2998 RMK RN DST N BECMG=
200811032000 METAR MROC 032000Z 23010KT 9999 SCT010CB BKN030 23/22 A2996 RMK RN N NE BECMG 5000 -TS RA=
200811032100 METAR MROC 032100Z 23007KT 9999 4500 SW VCSH SCT012TCU BKN030 23/22 A2995 RMK RN DST ARND BECMG 4000 -RA=
200811032200 METAR MROC 032200Z 22004KT 2000 RA BR FEW003 BKN012 20/20 A2997 RMK SCT070 BECMG=
200811032300 METAR MROC 032300Z 22004KT 4000 -RA BR FEW005 BKN015 20/20 A2999 RMK SCT080 BECMG 2000 -RA BR=
200811040000 METAR MROC 040000Z 23002KT 4000 RA BR FEW005 SCT015 BKN080 20/20 A3001 BECMG=
200811040100 METAR MROC 040100Z 35002KT 7000 RA BR FEW005 SCT020 BKN090 20/20 A3003 RMK VIS 5000SW BECMG=
200811040200 METAR MROC 040200Z 00000KT 9999 -RA FEW012 SCT020 BKN090 20/20 A3005 BECMG=
200811040300 METAR MROC 040300Z 00000KT 9999 -RA FEW005 SCT015 BKN100 20/20 A3006 BECMG=
200811040400 METAR MROC 040400Z 00000KT 9999 FEW010 BKN020 20/20 A3006 VSBY NW N 6KM LOW ST BECMG=
200811040500 METAR MROC 040500Z 32003KT 9999 FEW020 SCT080 20/20 A3005 BECMG=
200811040600 METAR MROC 040600Z 12004KT 9999 FEW035 BKN080 19/17 A3004 BECMG=
200811040700 METAR MROC 040700Z 09007KT 9999 FEW030 BKN090 18/16 A3002 BECMG=
200811040800 METAR MROC 040800Z 10005KT 9999 FEW045 SCT090 18/15 A3002 BECMG=
200811040900 METAR MROC 040900Z 08004KT CAVOK 18/16 A3000 TRACE SC SCT100 BECMG=
200811041000 METAR MROC 041000Z 05006KT CAVOK 18/16 A2999 TRACE SCT FEW250 BECMG=
200811041100 METAR MROC 041100Z 05004KT CAVOK 18/17 A2999 TRACE SCT FEW120 BECMG=
200811041200 METAR MROC 041200Z 05004KT CAVOK 18/16 A3001 TRACE SCT FEW120 SCT250 CB DST S BECMG=
200811041300 METAR MROC 041300Z 03004KT CAVOK 21/17 A3003 RMK TRACE SC FEW120 SCT250 BECMG=
200811041400 METAR MROC 041400Z 11003KT CAVOK 23/18 A3005 RMK TRACE SC FEW090 SCT250 BECMG=
200811041500 METAR MROC 041500Z 22009KT CAVOK 23/19 A3007 RMK SCT100 BKN250 TRACE SC BECMG=
200811041600 METAR MROC 041600Z 24008KT 9999 FEW035 BKN250 23/20 A3006 RMK FEW100 BECMG=
200811041700 METAR MROC 041700Z 24006KT 9999 FEW030 BKN250 23/20 A3003 RMK FEW100 BECMG=
200811041800 METAR MROC 041800Z 24006KT 9999 FEW020 SCT030 BKN250 23/22 A3001 RMK DZ DST NE BECMG=
200811041900 METAR MROC 041900Z 24008KT 9999 SCT020TCU SCT030 23/21 A2999 RMK FEW250 RN DST NE BECMG 7000 VCTS VCSH=
200811042000 METAR MROC 042000Z 25007KT 9999 SCT015CB SCT025 23/21 A2998 RMK VIS 7000SW RA BECMG VCTS=
200811042100 METAR MROC 042100Z 24008KT 9999 VCSH FEW010 SCT015TCU BKN035 21/21 A2997 VIS SW 7KMS RN DST ESE SE N BECMG 5000 TSRA SCT012CB BKN025=
200811042200 METAR MROC 042200Z 24006KT 9999 VCFG FEW003 SCT008 BKN030 21/21 A2998 RMK VIS SW WNW 6KMS PCPN DST E SE S BECMG 5000 -RA BR=
200811042300 METAR MROC 042300Z 26005KT 9999 FEW007 SCT015TCU BKN030 20/20 A3000 RMK SCT RN DST ARND BECMG 5000 -RA BR=
200811050000 METAR MROC 050000Z 31004KT 9999 FEW010 SCT015 BKN025 20/20 A3001 BECMG 5000 -RA BR=
200811050100 METAR MROC 050100Z 29002KT 9999 FEW007 SCT015 BKN070 20/20 A3004 RERA BECMG=
200811050200 METAR MROC 050200Z 31004KT 4000 -RA BR SCT003 SCT015 BKN030 20/20 A3006 BECMG 7000=
200811050300 METAR MROC 050300Z 25003KT 4000 -RA BR FEW003 SCT015 BKN030 19/19 A3006 RMK BECMG 2000 -RA BR=
200811050400 METAR MROC 050400Z 00000KT 6000 DZ VCFG FEW004 SCT020 BKN100 20/20 A3006 BECMG=
200811050500 METAR MROC 050500Z 00000KT 9999 FEW005 SCT020 BKN100 19/19 A3005 BECMG=
200811050600 METAR MROC 050600Z 08002KT 9999 SCT020 BKN100 19/19 A3004 BECMG=
200811050700 METAR MROC 050700Z 00000KT 9999 SCT020 BKN100 20/20 A3002 BECMG=
200811050800 METAR MROC 050800Z 10002KT 9999 FEW020 BKN100 20/20 A3000 BECMG=
200811050900 METAR MROC 050900Z 14002KT 9999 FEW020 BKN100 19/19 A2998 BECMG=
200811051000 METAR MROC 051000Z 00000KT 9999 FEW015 SCT030 BKN100 19/19 A3000 RMK TRACE ST BECMG 6000 VCFG=
200811051100 METAR MROC 051100Z 08002KT 9999 FEW030 BKN100 19/19 A3001 RMK TRACE ST BECMG=
200811051200 METAR MROC 051200Z 06002KT 9999 FEW020 BKN100 20/20 A3003 RMK TRACE ST BECMG=
200811051300 METAR MROC 051300Z 00000KT 9999 FEW030 BKN070 20/19 A3004 RMK TRACE ST TO N NE E LGT HZ ARND BECMG=
200811051400 METAR MROC 051400Z 09002KT CAVOK 21/19 A3007 RMK TRACE ST SC BKN070 LGT HZ ARND BECMG=
200811051500 METAR MROC 051500Z 22004KT 9999 FEW025 BKN070 23/20 A3008 BECMG=
200811051600 METAR MROC 051600Z 26005KT 9999 FEW025 SCT100 BKN200 24/19 A3007 BECMG=
200811051700 METAR MROC 051700Z 25006KT 9999 FEW025 SCT120 BKN230 25/20 A3005 BECMG=
200811051800 METAR MROC 051800Z 21009KT 9999 FEW020TCU SCT030 BKN100 23/21 A3003 RMK RN DST ESE SE S CB DST SSE BECMG 5000 -RA VCSH=
200811051900 METAR MROC 051900Z 20007KT 9999 SCT020 BKN120 23/21 A3000 RMK RN DST ESE SE SW BECMG 7000 VCSH=
200811052000 METAR MROC 052000Z 23008KT 9999 FEW020 SCT045 BKN120 23/20 A2998 RMK PCPN DST ESE SE N BECMG 7000 VCSH=
200811052100 METAR MROC 052100Z 22005KT 9999 FEW020 SCT045 BKN120 23/20 A2997 BECMG=
200811052200 METAR MROC 052200Z 22006KT 9999 FEW020 SCT045 BKN120 23/20 A2999 BECMG=
200811052300 METAR MROC 052300Z 25004KT 9999 FEW010 SCT035 BKN120 21/20 A3000 BECMG=
200811060000 METAR MROC 060000Z 27005KT 9999 FEW010 SCT035 BKN120 21/21 A3002 BECMG 8000 -RA VCFG=
200811060100 METAR MROC 060100Z 28006KT 9999 FEW008 SCT035 BKN100 20/20 A3004 BECMG 8000 -RA VCFG=
200811060200 METAR MROC 060200Z 28005KT 9999 FEW008 SCT030 BKN100 20/20 A3006 BECMG=
200811060300 METAR MROC 060300Z 33002KT 9999 SCT012 SCT020 20/20 A3007 BECMG=
200811060400 METAR MROC 060400Z 30002KT 9999 FEW025 BKN120 20/20 A3006 BECMG=
200811060500 METAR MROC 060500Z 00000KT CAVOK 19/19 A3006 RMK TRACE ST SC SCT100 BECMG=
200811060600 METAR MROC 060600Z 00000KT 9999 FEW012 SCT100 19/19 A3004 BECMG=
200811060700 METAR MROC 060700Z 05003KT 9999 FEW030 BKN110 19/19 A3002 RMK ST S BECMG=
200811060800 METAR MROC 060800Z 04004KT CAVOK 19/18 A2999 RMK SCT110 FEW250 BECMG=
200811060900 METAR MROC 060900Z 07002KT CAVOK 19/18 A2999 RMK FEW120 FEW250 BECMG=
200811061000 METAR MROC 061000Z 08002KT CAVOK 18/18 A3000 RMK FEW250 ST SSE/S BECMG=
200811061100 METAR MROC 061100Z 06004KT CAVOK 17/17 A3002 RMK TRACE SC FEW260 ST S BECMG=
200811061200 METAR MROC 061200Z 08003KT CAVOK 17/17 A3003 RMK TRACE AC FEW260 CB DST W BECMG=
200811061234 METAR MROC 061234Z 09003KT CAVOK 19/16 A3001 RMK TRACE SC AC FEW300 CB SW=
200811061300 METAR MROC 061300Z 10004KT CAVOK 20/18 A3005 RMK TRACE CU AC BECMG=
200811061400 METAR MROC 061400Z 00000KT CAVOK 22/18 A3007 RMK TRACE CU AC CB DST SW BECMG 24005KT=
200811061500 METAR MROC 061500Z 27003KT 9999 FEW040 25/19 A3007 RMK TRACE AC TCU SW=
200811061600 METAR MROC 061600Z 27007KT 9999 FEW040 26/19 A3005 BECMG=
200811061700 METAR MROC 061700Z 27007KT 9999 SCT040 25/20 A3004 RMK TRACE CI BECMG=
200811061800 METAR MROC 061800Z 23009KT 9999 SCT030 26/21 A3001 BECMG=
200811061900 METAR MROC 061900Z 24009KT 9999 FEW015TCU SCT030 25/21 A2999 BECMG=
200811062000 METAR MROC 062000Z 24009KT 9999 FEW015TCU BKN030 22/22 A2998 RERA BECMG=
200811062100 METAR MROC 062100Z 270007KT 9999 FEW008 SCT015TCU BKN035 22/22 A2999 VIS SE 8KM DUE RN BECMG 5000 VCSH=
200811062200 METAR MROC 062200Z 27005KT 9999 SCT012 BKN250 22/21 A2996 RN E CB S BECMG=
200811062300 METAR MROC 062300Z 26005KT 9999 FEW006 SCT015 BKN250 21/21 A2998 RN DST E BECMG=
200811070000 METAR MROC 070000Z 16005KT 2000 RA BR SCT003 SCT010 20/20 A3001 BECMG=
200811070100 METAR MROC 070100Z 32003KT 9999 -RA FEW006 BKN035 20/20 A3004 VSBY W NW N 7KM RETS BECMG=
200811070200 METAR MROC 070200Z 00000KT 9999 -RA SCT030 SCT080 20/20 A3006 BECMG=
200811070300 METAR MROC 070300Z 00000KT 9999 -RA FEW008 SCT030 BKN100 19/19 A3007 BECMG=
200811070400 METAR MROC 070400Z 06005KT 9999 FEW025 BKN120 19/19 A3005 RERA BECMG=
200811070500 METAR MROC 070500Z 00000KT 9999 FEW035 BKN100 19/19 A3005 RMK LGT FG TO SE S SW BECMG 4000SW BR=
200811070600 METAR MROC 070600Z 00000KT 9999 FEW020 OVC120 20/20 A3004 RMK LGT HZ ARND BECMG 7000 VCFG=
200811070700 METAR MROC 070700Z 11003KT 9999 FEW035 BKN100 19/19 A3000 BECMG=
200811070800 METAR MROC 070800Z 07003KT 9999 FEW035 BKN100 19/19 A2999 BECMG=
200811070900 METAR MROC 070900Z 08004KT 9999 FEW040 BKN120 19/19 A2998 BECMG=
200811071000 METAR MROC 071000Z 11003KT 9999 SCT045 SCT120 19/18 A2998 BECMG=
200811071100 METAR MROC 071100Z 02002KT 9999 FEW045 SCT100 18/18 A3000 BECMG=
200811071200 METAR MROC 071200Z 07003KT 9999 FEW045 BKN070 19/19 A3001 RMK TRACE ST CB DST S BECMG=
200811071300 METAR MROC 071300Z 02002KT CAVOK 21/20 A3003 TRACE SCT FEW100 CB DST S BECMG=
200811071400 METAR MROC 071400Z 23006KT 9999 FEW015 SCT100 23/20 A3006 BECMG=
200811071500 METAR MROC 071500Z 26007KT 9999 SCT015 SCT100 23/21 A3007 BECMG=
200811071600 METAR MROC 071600Z 25006KT 9999 SCT015 SCT030 25/21 A3006 BECMG=
200811071700 METAR MROC 071700Z 25007KT 9999 BKN020 SCT100 25/21 A3004 BECMG=
200811071800 METAR MROC 071800Z 25008KT 9999 BKN020 SCT100 26/22 A3001 RN E SE BECMG=
200811071900 METAR MROC 071900Z 22006KT 9999 FEW020CB SCT030 BKN100 25/21 A2998 RN E SE CB E BECMG=
200811072000 METAR MROC 072000Z 24006KT 9999 -RA FEW020 BKN120 23/22 A2996 BECMG=
200811072100 METAR MROC 072100Z 27004KT 9999 SCT025 BKN120 24/22 A2994 RERA RMK BECMG 7000 -RA VCFG TCU DST E=
200811072200 METAR MROC 072200Z 25006KT 9999 -RA VCFG FEW010 TCU SCT020 BKN110 22/22 A2995 RMK VIS N 6000 BECMG=
200811072300 METAR MROC 072300Z 26004KT 8000 -RA VCFG FEW005 SCT015 BKN120 21/21 A2996 RMK VIS N 5000 BECMG=
200811080000 METAR MROC 080000Z 29003KT 8000 -RA VCFG FEW005 SCT015 BKN120 21/21 A2998 BECMG=
200811080100 METAR MROC 080100Z 28003KT 8000 -RA VCFG FEW004 SCT015 BKN120 21/21 A3002 BECMG=
200811080200 METAR MROC 080200Z 25002KT 8000 VCFG FEW004 SCT015 BKN120 21/21 A3005 BECMG=
200811080300 METAR MROC 080300Z 10004KT 9999 3000SW BR FEW001 SCT008 BKN120 21/21 A3005 BECMG=
200811080400 METAR MROC 080400Z 06005KT CAVOK 21/21 A3003 RMK TRACE SC BKN120 BECMG=
200811080500 METAR MROC 080500Z 08004KT CAVOK 20/20 A3002 RMK TRACE SC BKN120 BECMG=
200811080600 METAR MROC 080600Z 04002KT 0500 FG VV/// 20/20 A3001 RMK VIS N UNL BECMG CAVOK=
200811080700 METAR MROC 080700Z 08002KT 2000 R07/0900 BR FEW001 BKN010 20/20 A2999 BECMG CAVOK=
200811080800 METAR MROC 080800Z 09003KT 9999 3000 BR FEW001 SCT020 BKN120 19/19 A2998 BECMG CAVOK=
200811080900 METAR MROC 080900Z 08002KT 9999 FEW020 BKN120 19/19 A2998 BECMG CAVOK=
200811081000 METAR MROC 081000Z 09003KT CAVOK 19/19 A2998 RMK TRACE SC SCT120 BECMG=
200811081100 METAR MROC 081100Z 07004KT CAVOK 18/18 A3000 RMK TRACE SC SCT120 BECMG=
200811081200 METAR MROC 081200Z 06003KT CAVOK 19/18 A3001 RMK TRACE ST SC AC SCT250 CB DST SW BECMG=
200811081300 METAR MROC 081300Z 11004KT CAVOK 21/18 A3003 RMK TRACE SC SCT250 CB DST SW BECMG=
200811081400 METAR MROC 081400Z 00000KT CAVOK 21/18 A3005 RMK TRACE SC SCT250 CB DST SW BECMG 24006KT=
200811081500 METAR MROC 081500Z 23006KT 9999 FEW030 SCT250 26/21 A3005 BECMG=
200811081600 METAR MROC 081600Z 25005KT 9999 SCT025 SCT250 26/21 A3005 BECMG=
200811081700 METAR MROC 081700Z 23002KT 9999 SCT020TCU SCT250 26/22 A3002 RMK HZ ARND BECMG=
200811081800 METAR MROC 081800Z 26010KT 9999 SCT010TCU SCT025 25/22 A2999 RMK RN DST N NE BECMG 7000 VCSH=
200811081900 METAR MROC 081900Z 26007KT 9999 3000E TSRA SCT010CB BKN020 22/20 A2998 BECMG=
200811082000 METAR MROC 082000Z 30003KT 9999 -TSRA SCT015CB BKN100 21/21 A2996 RMK=
200811082100 METAR MROC 082100Z 35002KT 9999 FEW010 SCT025 BKN100 22/21 A2996 RETS BECMG=
200811082200 METAR MROC 082200Z 29004KT 9999 FEW020 SCT100 22/21 A2996 RMK FEW250 RN DST E BECMG=
200811082300 METAR MROC 082300Z 00000KT 9999 FEW015 BKN100 21/21 A2999 RMK FEW250 ST SW BECMG=
200811090000 METAR MROC 090000Z 00000KT 9999 FEW025 SCT120 BKN250 21/21 A3000 BECMG=
200811090100 METAR MROC 090100Z 00000KT 9999 SCT025 BKN120 21/21 A3002 RMK LTNG DST S BECMG 6000 VCFG=
200811090200 METAR MROC 090200Z 08003KT 9999 FEW035 BKN120 21/20 A3003 RMK LTNG DST NE BECMG=
200811090300 METAR MROC 090300Z 14002KT CAVOK 21/19 A3004 TRACE SCT OVC250 BECMG=
200811090400 METAR MROC 090400Z 01003KT CAVOK 20/19 A3003 TRACE SCT BKN240 BECMG=
200811090500 METAR MROC 090500Z 00000KT CAVOK 20/19 A3002 TRACE SCT SCT240 BECMG=
200811090600 METAR MROC 090600Z 00000KT 9999 FEW003 SCT025 OVC150 19/19 A3000 VIS SW 8KM DUE LOW ST BECMG 5000 VCFG=
200811090800 METAR MROC 090800Z 07004KT 9999 FEW006 SCT020 19/19 A2999 BECMG=
200811090900 METAR MROC 090900Z 07003KT CAVOK 18/18 A2997 FEW250 TRACE SCT/AC BECMG=
200811091000 METAR MROC 091000Z 05005KT CAVOK 19/18 A2997 FEW300 BECMG=
200811091100 METAR MROC 091100Z 07005KT CAVOK 19/18 A2998 FEW300 BECMG=
200811091200 METAR MROC 091200Z 08007KT CAVOK 20/18 A2999 TRACE SCT FEW250 BECMG=
200811091300 METAR MROC 091300Z 07006KT CAVOK 22/18 A3000 RMK FEW270 BECMG=
200811091400 METAR MROC 091400Z 13005KT CAVOK 24/18 A3001 RMK TRACE SC FEW250 BECMG=
200811091500 METAR MROC 091500Z 10010KT 9999 FEW035 25/19 A3003 BECMG=
200811091600 METAR MROC 091600Z 11006KT 9999 SCT035 26/19 A3003 BECMG=
200811091700 METAR MROC 091700Z 24006KT 9999 FEW020 SCT030 25/21 A3002 BECMG=
200811091800 METAR MROC 091800Z 24008KT 9999 FEW015TCU BKN025 27/23 A2998 RMK RN DST N NE SE BECMG 7000 VCTS VCSH=
200811091900 METAR MROC 091900Z 22004KT 9999 SCT015CB SCT025 25/22 A2995 RMK RN DST NW N NE BECMG 7000 VCTS VCSH=
200811092000 METAR MROC 092000Z 24007KT 9999 4000NW VCSH FEW015CB BKN025 24/22 A2994 BECMG TSRA=
200811092050 METAR MROC 092050Z 24011KT 7000 -RA SCT025 BKN100 23/22 A2994 VIS E 3KMS DUE RN BECMG=
200811092100 METAR MROC 092100Z 29005KT 9999 -RA FEW015CB SCT025 BKN045 23/21 A2994 BECMG=
200811092200 METAR MROC 092200Z 08003KT 9999 -RA VCFG FEW030 OVC120 22/20 A2994 RMK VIS SW 7KMS BECMG 5000 -RA BR=
200811092300 METAR MROC 092300Z 09006KT 9999 FEW030 BKN120 22/19 A2994 RERA RMK LOW CLDS NEAR APCH RNY 07 SCT250 BECMG=
200811100000 METAR MROC 100000Z 08004KT 9999 FEW030 BKN140 21/18 A2996 BECMG=
200811100100 METAR MROC 100100Z 07003KT 9999 FEW035 BKN140 20/20 A3000 RMK TRACE ST BECMG=
200811100200 METAR MROC 100200Z 00000KT 9999 FEW020 BKN140 20/20 A3003 BECMGF=
200811100300 METAR MROC 100300Z 13004KT 9999 FEW025 BKN140 20/16 A3004 BECMG 7000=
200811100400 METAR MROC 100400Z 11005KT 9999 FEW025 20/15 A3004 BECMG=
200811100500 METAR MROC 100500Z 10006KT 9999 FEW030 20/16 A3003 BECMG=
200811100600 METAR MROC 100600Z 05010KT 9999 FEW030 19/15 A3001 BECMG=
200811100700 METAR MROC 100700Z 09005KT 9999 FEW030 19/15 A2999 BECMG=
200811100800 METAR MROC NIL=
200811100900 METAR MROC 100900Z 06006KT 9999 FEW030 18/15 A2997 BECMG=
200811101000 METAR MROC 101000Z 04008KT CAVOK 18/16 A2998 RMK BKN120 BECMG=
200811101100 METAR MROC 101100Z 06006KT CAVOK 19/16 A2999 RMK SCT050 SCT120 BECMG=
200811101200 METAR MROC 101200Z 08006KT 9999 FEW015 BKN230 19/16 A3002 RMK RN DST NE BECMG=
200811101300 METAR MROC 101300Z 11014KT 9999 FEW030 BKN250 21/16 A3002 RMK CB DST S RN N/NE BECMG=
200811101400 METAR MROC 101400Z 12011KT CAVOK 23/17 A3004 RMK TRACE SC FEW100 SCT250 BECMG=
200811101500 METAR MROC 101500Z 11010KT CAVOK 25/18 A3005 RMK TRACE SC FEW060 SCT250 DZ DST NW N VEL MX VTO 18KT BECMG=
200811101600 METAR MROC 101600Z 12009KT 9999 FEW035 BKN070 24/18 A3005 RMK PCPN DST N NE BECMG=
200811101700 METAR MROC 101700Z 10009KT 9999 FEW035 SCT060 26/18 A3003 RMK PCPN DST N NE SCT250 BECMG=
200811101800 METAR MROC 101800Z 11010KT 9999 FEW035 SCT060 25/19 A3000 RMK TRACE CI PCPN DST N NE VEL MX VTO 15KT BECMG=
200811101900 METAR MROC 101900Z 12010KT 9999 FEW035 SCT050 25/19 A2997 RMK VEL MX VTO 18KT PCPN DST N NE BECMG=
200811102000 METAR MROC 102000Z 12010KT 9999 FEW035 SCT060 25/17 A2995 RMK VEL MX VTO 18KT PCPN DST N NE BECMG=
200811102100 METAR MROC 102100Z 12006KT 9999 FEW035 SCT060 BKN250 25/17 A2993 RMK RN DST NE BECMG=
200811102200 METAR MROC 102200Z 10009KT 9999 SCT030 BKN060 24/17 A2994 RMK RN NE E BECMG=
200811102300 METAR MROC 102300Z 16005KT 9999 SCT030 BKN080 22/18 A2995 RMK RN N NE E=
200811110000 METAR MROC 110000Z 11008KT 9999 SCT030 SCT080 21/17 A2997 BECMG=
200811110100 METAR MROC 110100Z 10005KT 9999 FEW035 21/17 A3000 RMK FEW080 BECMG=
200811110200 METAR MROC 110200Z 05006KT CAVOK 20/17 A3000 RMK TRACE SC SCT120 BECMG=
200811110300 METAR MROC 110300Z 10004KT 9999 FEW020 20/17 A3003 BECMG=
200811110400 METAR MROC 110400Z 09007KT 9999 FEW025 20/17 A3003 BECMG=
200811110500 METAR MROC 110500Z 07006KT CAVOK 20/16 A3002 RMK TRACE SC BECMG=
200811110600 METAR MROC 110600Z 11008KT CAVOK 20/16 A3001 RMK TRACE SC AC BECMG=
200811110700 METAR MROC 110700Z 04008KT 9999 FEW030 20/16 A2999 BECMG=
200811110800 METAR MROC 110800Z 05004KT 9999 FEW035 19/17 A2999 BECMG=
200811110900 METAR MROC 110900Z 07007KT 9999 FEW035 20/17 A2998 BECMG=
200811111000 METAR MROC 111000Z 10008KT 9999 FEW035 19/16 A2998 RMK DZ DST E BECMG=
200811111100 METAR MROC 111100Z 04003KT 9999 FEW030 20/16 A3001 RMK DZ DST NE/E BECMG=
200811111200 METAR MROC 111200Z 05006KT 9999 FEW030 19/17 A3002 RMK FEW250 DZ DST E BECMG=
200811111300 METAR MROC 111300Z 05006KT CAVOK 21/17 A3004 TRACE SCT FEW100 BECMG=
200811111400 METAR MROC 111400Z 10009KT CAVOK 23/18 A3005 TRACE SCT SCT100 BECMG=
200811111500 METAR MROC 111500Z 09008KT CAVOK 25/18 A3005 TRACE SCT/AC/CI BECMG=
200811111600 METAR MROC 111600Z 13010KT 9999 FEW030 27/19 A3002 FEW100 DZ NE BECMG=
200811111700 METAR MROC NIL=
200811111900 METAR MROC 111900Z 12005KT 9999 SCT030 SCT045 26/19 A2995 DZ N BECMG=
200811112000 METAR MROC 112000Z 13004KT 9999 FEW030 BKN080 26/18 A2993 BECMG=
200811112100 METAR MROC 112100Z 13003KT 9999 FEW030 BKN080 26/19 A2991 BECMG=
200811112200 METAR MROC 112200Z 12009KT 9999 SCT030 SCT100 25/18 A2992 RMK DZ N NE BECMG=
200811112300 METAR MROC 112300Z 10005KT 9999 FEW030 SCT100 23/18 A2993 BECMG=
200811120000 METAR MROC 120000Z 11008KT 9999 FEW035 SCT100 22/18 A2996 BECMG=
200811120100 METAR MROC 120100Z 10003KT 9999 FEW035 SCT100 21/18 A2998 BECMG=
200811120200 METAR MROC 120200Z 10004KT 9999 FEW035 SCT100 21/18 A3001 BECMG=
200811120300 METAR MROC 120300Z 09004KT 9999 FEW025 BKN100 21/18 A3001 BECMG=
200811120400 METAR MROC 120400Z 09006KT 9999 FEW030 SCT100 21/18 A3001 BECMG=
200811120500 METAR MROC 120500Z 07007KT 9999 FEW030 BKN120 21/18 A2999 BECMG=
200811120600 METAR MROC 120600Z 10004KT 9999 FEW035 BKN110 21/17 A2998 RERA BECMG=
200811120700 METAR MROC 120700Z 09006KT CAVOK 21/18 A2995 RMK TRACE SC BKN120 BECMG=
200811120800 METAR MROC 120800Z 09004KT CAVOK 20/17 A2993 TRACE SCT SCT120 BECMG=
200811120900 METAR MROC 120900Z 00000KT CAVOK 19/18 A2993 RMK TRACE SC SCT120 BECMG=
200811121000 METAR MROC 121000Z 00000KT CAVOK 19/18 A2993 RMK TRACE SC SCT120 BECMG=
200811121100 METAR MROC 121100Z 35002KT 9999 FEW035 SCT120 18/18 A2995 BECMG=
200811121200 METAR MROC 121200Z 05006KT 9999 FEW035 BKN120 20/18 A2996 BECMG=
200811121300 METAR MROC 121300Z 02003KT 9999 FEW035 SCT120 23/19 A2997 BECMG=
200811121400 METAR MROC 121400Z 08004KT 9999 FEW030 SCT120 25/19 A2999 RMK RN NE BECMG=
200811121500 METAR MROC 121500Z 13004KT 9999 FEW030 BKN110 25/19 A2999 RMK RN N NE BECMG=
200811121600 METAR MROC 121600Z 12005KT 9999 -RA FEW030 BKN100 24/20 A3000 BECMG=
200811121700 METAR MROC 121700Z 14005KT 9999 FEW025 BKN100 24/20 A2998 RERA RMK RN N NE BECMG=
200811121800 METAR MROC 121800Z 11006KT 9999 FEW025 BKN100 26/20 A2995 RMK RN N BECMG=
200811121900 METAR MROC 121900Z 10005KT 9999 FEW025 BKN100 26/20 A2992 RMK RN DST E BECMG=
200811122000 METAR MROC 122000Z 25005KT 9999 FEW025 BKN100 25/21 A2990 RMK RN DST E BECMG=
200811122100 METAR MROC 122100Z 21004KT 9999 FEW015 SCT030 BKN100 24/22 A2989 BECMG=
200811122200 METAR MROC 122200Z 24008KT 9999 VCSH FEW008 SCT020TCU 23/22 A2990 SCT100 VSBY W NW 6KM DUE RN BECMG 5000 -RA BR=
200811122300 METAR MROC 122300Z 25008KT 9999 FEW012 BKN025 22/20 A2992 RN NW BECMG=
200811130000 METAR MROC 130000Z 30007KT 9999 -RA FEW010 BKN020 21/20 A2994 BECMG=
200811130100 METAR MROC 130100Z 35004KT 9999 SCT025 SCT100 20/20 A2997 BECMG=
200811130200 METAR MROC 130200Z 32002KT 9999 FEW010 BKN020 21/20 A3000 BECMG=
200811130300 METAR MROC 130300Z 00000KT 9999 FEW010 BKN020 21/20 A3001 BECMG=
200811130400 METAR MROC 130400Z 08003KT 9999 SCT020 SCT045 20/20 A3001 BECMG=
200811130500 METAR MROC 130500Z 10002KT 9999 -DZ FEW040 SCT080 20/20 A3000 BECMG=
200811131300 METAR MROC 131300Z 06008KT CAVOK 21/13 A2997 RMK TRACE CU CI=
200811131400 METAR MROC 131400Z 09009KT CAVOK 24/13 A2998 RMK TRACE SC CI BECMG=
200811131500 METAR MROC 131500Z 10010KT CAVOK 26/11 A2999 RMK TRACE CU FEW230 BECMG=
200811131600 METAR MROC 131600Z 11010KT CAVOK 27/10 A2999 RMK TRACE CU FEW230 BECMG=
200811131700 METAR MROC 131700Z 10007KT CAVOK 28/12 A2998 RMK TRACE CU FEW250 BECMG=
200811131800 METAR MROC 131800Z 10005KT 9999 FEW030 29/13 A2995 RMK TRACE CI BECMG 24006KT=
200811131900 METAR MROC 131900Z 23011KT 9999 FEW030 27/22 A2992 RMK TRACE CI BECMG=
200811132000 METAR MROC 132000Z 25010KT 9999 SCT030 26/21 A2991 RMK TRACE CI BECMG=
200811132100 METAR MROC 132100Z 24009KT 9999 SCT030 26/21 A2990 BECMG=
200811132200 METAR MROC 132200Z 24009KT 9999 FEW020 SCT030 25/22 A2991 RMK DZ DST NE BECMG=
200811132300 METAR MROC 132300Z 23007KT 9999 FEW015 SCT025 22/21 A2993 BECMG=
200811140000 METAR MROC 140000Z 22006KT 9999 SCT008 SCT020 22/21 A2995 BECMG 7000=
200811140100 METAR MROC 140100Z 25004KT 9999 VCFG FEW005 SCT012 20/20 A2998 RMK VIS 7000 SW ST S BECMG 5000 BR=
200811140200 METAR MROC 140200Z 23002KT 9999 FEW020 20/20 A3000 RMK ST S BECMG=
200811140300 METAR MROC 140300Z 04005KT CAVOK 20/20 A3000 TRACE SCT FEW120 BECMG=
200811140400 METAR MROC 140400Z 06007KT CAVOK 20/17 A2999 TRACE SCT FEW140 BECMG=
200811140500 METAR MROC 140500Z 00000KT CAVOK 18/16 A3000 TRACE AC CI BECMG=
200811140600 METAR MROC 140600Z 05004KT CAVOK 19/16 A2999 TRACE AC BECMG=
200811140700 METAR MROC 140700Z 04003KT CAVOK 18/17 A2997 TRACE SCT SCT120 BECMG=
200811140800 METAR MROC 140800Z 06004KT 9999 FEW015 BKN250 19/17 A2995 BECMG=
200811140900 METAR MROC 140900Z 08005KT CAVOK 18/16 A2995 TRACE SC FEW300 BECMG=
200811141000 METAR MROC 141000Z 07005KT CAVOK 18/16 A2995 TRACE SCT BKN100 BECMG=
200811141100 METAR MROC 141100Z 06003KT CAVOK 17/15 A2997 TRACE SCT FEW120 BKN280 BECMG=
200811141200 METAR MROC 141200Z 07003KT CAVOK 17/14 A2998 TRACE SCT SCT140 BKN250 CB DST S BECMG=
200811141300 METAR MROC 141300Z 10005KT CAVOK 18/15 A2998 RMK SCT090 BKN250 BECMG=
200811141400 METAR MROC 141400Z 08003KT CAVOK 21/16 A2999 RMK FEW100 BKN250 BECMG=
200811141500 METAR MROC 141500Z 04004KT CAVOK 23/17 A2999 RMK BKN250 BECMG=
200811141600 METAR MROC 141600Z 07003KT CAVOK 26/18 A2999 RMK TRACE CU BKN250 BECMG=
200811141700 METAR MROC 141700Z 11006KT CAVOK 27/17 A2997 RMK TRACE SC BKN250=
200811141800 METAR MROC 141800Z 21005KT 9999 FEW035 BKN250 27/19 A2995 BECMG=
200811141900 METAR MROC 141900Z 25008KT 9999 SCT030 SCT250 26/20 A2993 BECMG=
200811142000 METAR MROC 142000Z 24006KT 9999 FEW020 SCT030 27/20 A2990 RMK FEW250 BECMG=
200811142100 METAR MROC 142100Z 25008KT 9999 FEW020TCU SCT030 BKN250 26/21 A2989 RMK HZY BECMG=
200811142200 METAR MROC 142200Z 24009KT 9999 FEW020TCU SCT030 BKN250 23/21 A2990 RMK PCPN DST NE HZY BECMG=
200811142300 METAR MROC 142300Z 25007KT 9999 VCSH FEW005 FEW015TCU SCT030 22/22 A2992 RMK VIS N NW 6KMS HZY BECMG 5000 -RA BR=
200811150000 METAR MROC 150000Z 26006KT 5000 2000SW SHRA BKN003 SCT010 22/22 A2994 BECMG 3000 RA BR=
200811150100 METAR MROC 150100Z 29002KT 9999 VCFG FEW003 SCT025 BKN100 21/21 A2996 RMK VIS SW 6KMS BECMG 5000 BR=
200811150120 METAR MROC 150120Z 28002KT 9999 VCFG FEW005 SCT010 BKN020 21/21 A2997 RMK VIS SW WSW 6KMS BECMG=
200811150200 METAR MROC 150200Z 29003KT 7000 VCFG BR SCT005 BKN025 21/21 A2998 RMK VIS SW 4KMS VIS E SE UNLTD BECMG=
200811150300 METAR MROC 150300Z 26002KT 9999 VCFG FEW005 SCT020 SCT100 21/21 A2999 RMK=
200811150400 METAR MROC 150400Z 02002KT 9999 VCFG FEW005 SCT020 20/20 A2999 RMK=
200811150500 METAR MROC 150500Z 06002KT 9999 VCFG FEW004 SCT020 20/20 A2999 RMK VIS SW 6000 TRACE AC BECMG=
200811150600 METAR MROC 150600Z 03002KT 9999 VCFG FEW004 SCT120 19/19 A2998 RMK=
200811150700 METAR MROC 150700Z 09004KT CAVOK 19/18 A2996 RMK TRACE ST SCT120 BECMG=
200811150800 METAR MROC 150800Z 08003KT CAVOK 19/17 A2994 RMK SCT130 BECMG=
200811150900 METAR MROC 150900Z 05006KT CAVOK 19/17 A2994 RMK SCT130 BECMG=
200811151000 METAR MROC 151000Z 07007KT CAVOK 18/17 A2994 RMK TRACE SC CI BECMG=
200811151100 METAR MROC 151100Z 06005KT CAVOK 18/16 A2995 RMK TRACE SC CI SCT130 BECMG=
200811151200 METAR MROC 151200Z 06006KT CAVOK 19/17 A2996 RMK TRACE SC FEW130 SCT250 BECMG=
200811151300 METAR MROC 151300Z 03009KT CAVOK 21/17 A2999 RMK TRACE ST CU FEW250 BECMG=
200811151400 METAR MROC 151400Z 03006KT CAVOK 24/18 A3000 RMK TRACE SC FEW250 BECMG=
200811151500 METAR MROC 151500Z 11008KT CAVOK 24/18 A3000 RMK TRACE CU SC FEW250 BECMG=
200811151600 METAR MROC 151600Z 11007KT 9999 FEW040 SCT250 27/17 A2998 RMK VEL MX VTO 12KT BECMG=
200811151700 METAR MROC 151700Z 11005KT 9999 FEW040 BKN250 28/18 A2997 BECMG 24006KT=
200811151800 METAR MROC 151800Z 24009KT 9999 FEW030 SCT040 25/21 A2996 RMK FEW250 TCU DST S BECMG=
200811151900 METAR MROC 151900Z 23007KT 9999 FEW025TCU SCT040 BKN250 27/22 A2994 RMK LGT HZ ARND BECMG=
200811152000 METAR MROC 152000Z 26008KT 9999 FEW025 SCT035 BKN250 26/22 A2991 RMK LGT HZ ARND BECMG=
200811152100 METAR MROC 152100Z 25009KT 9999 FEW015TCU SCT030 BKN250 25/22 A2990 BECMG=
200811152200 METAR MROC 152200Z 21008KT 9999 FEW015TCU SCT030 BKN250 23/22 A2991=
200811152300 METAR MROC 152300Z 23007KT 9999 3000N BR FEW003 SCT010 BKN030 22/22 A2994 BECMG -RA=
200811152305 METAR MROC 152305Z 25008KT 5000 2000SW -RA BR FEW001 SCT010 BKN030 22/22 A2993 BECMG 3000 -RA BR=
200811160000 METAR MROC 160000Z 24009KT 5000 200SW -RA BR FEW001 SCT005 BKN020 21/21 A2996 BECMG 3000 -RA BR=
200811160100 METAR MROC 160100Z 29006KT 6000 2000SW -RA BR FEW001 SCT008 BKN020 20/20 A3000 BECMG 8000 -RA=
200811160200 METAR MROC 160200Z VRB02KT 9999 3000SW -DZ BR FEW001 SCT025 BKN100 20/20 A3002 RERA BECMG=
200811160300 METAR MROC 160300Z 31003KT 9999 FEW020 20/20 A3004 REDZ RMK RN DST NE E BECMG=
200811160400 METAR MROC 160400Z 35004KT 9999 FEW025 SCT120 20/20 A3004 BECMG=
200811160500 METAR MROC 160500Z 08004KT CAVOK 20/18 A3002 RMK SCT120 SCT250 BECMG=
200811160600 METAR MROC 160600Z 11007KT CAVOK 20/17 A3001 RMK FEW120 SCT250 BECMG=
200811160700 METAR MROC 160700Z 03004KT CAVOK 19/19 A3000 RMK FEW120 SCT250 BECMG=
200811160800 METAR MROC 160800Z 07004KT CAVOK 18/18 A2998 RMK SCT120 SCT250 BECMG=
200811160900 METAR MROC 160900Z 04007KT CAVOK 18/18 A2998 RMK SCT120 FEW250 BECMG=
200811161000 METAR MROC 161000Z 06005KT CAVOK 20/17 A2998 RMK BKN120 BECMG=
200811161100 METAR MROC 161100Z 09005KT CAVOK 20/17 A2999 RMK SCT120 FEW250 BECMG=
200811161200 METAR MROC 161200Z 08005KT CAVOK 20/16 A3001 RMK TRACE SC FEW120 FEW250 CB DST SSW BECMG=
200811161300 METAR MROC 161300Z 09004KT 9999 FEW040 SCT250 22/17 A3004 BECMG=
200811161400 METAR MROC 161400Z 04004KT 9999 FEW040 SCT250 24/18 A3005 BECMG=
200811161500 METAR MROC 161500Z 14003KT 9999 FEW035 SCT250 26/17 A3006 BECMG=
200811161600 METAR MROC 161600Z 34007KT 9999 FEW035 SCT060 BKN250 25/18 A3006 RMK RN N NE BECMG=
200811161700 METAR MROC 161700Z 32005KT 9999 SCT030 BKN060 21/21 A3005 RERA RMK RN ARND=
200811161800 METAR MROC 161800Z 11007KT 9999 SCT030 BKN100 24/20 A3001 RMK RN N NE BECMG -RA=
200811161900 METAR MROC 161900Z 11005KT 9999 SCT030 BKN100 25/20 A2999 RMK RN NE BECMG -RA=
200811162000 METAR MROC 162000Z VRB03KT 9999 SCT030 BKN100 26/19 A2997 RMK RN N NE E BECMG -RA=
200811162100 METAR MROC 162100Z 22008KT 9999 -RA SCT020 SCT120 22/22 A2996 BECMG=
200811162200 METAR MROC 162200Z 23005KT 9999 FEW010 SCT040 BKN120 22/21 A2997 RN ENE ESE BECMG=
200811162300 METAR MROC 162300Z 24002KT 9999 FEW040 SCT080 BKN120 21/21 A2998 RN E BECMG 05004KT=
200811170000 METAR MROC 170000Z 30003KT 9999 FEW040 SCT120 BKN280 20/20 A2999 BECMG=
200811170100 METAR MROC 170100Z 34002KT CAVOK 20/20 A3002 TRACE SCT FEW300 BECMG=
200811170200 METAR MROC 170200Z 08002KT CAVOK 20/18 A3004 TRACE SC FEW300 BECMG=
200811170300 METAR MROC 170300Z 07005KT 9999 BKN030 20/18 A3006 BECMG=
200811170400 METAR MROC 170400Z 09002KT 9999 FEW030 19/18 A3006 RMK TRACE AC BECMG=
200811170500 METAR MROC 170500Z 07006KT CAVOK 20/18 A3005 RMK TRACE SC CI FEW120 BECMG=
200811170600 METAR MROC 170600Z 06002KT CAVOK 19/17 A3003 RMK TRACE SC FEW120 BECMG=
200811170700 METAR MROC 170700Z 05004KT CAVOK 18/17 A3001 RMK TRACE SC AC BECMG=
200811170800 METAR MROC 170800Z 03005KT CAVOK 19/17 A3001 RMK TRACE SC AC BECMG=
200811170900 METAR MROC 170900Z 06006KT CAVOK 18/17 A3000 RMK TRACE SC AC BECMG=
200811171000 METAR MROC 171000Z 04006KT CAVOK 18/17 A3000 RMK TRACE SC AC BECMG=
200811171100 METAR MROC 171100Z 06004KT CAVOK 17/16 A3002 RMK TRACE SC AC BECMG=
200811171200 METAR MROC 171200Z 03006KT CAVOK 18/16 A3004 RMK TRACE SC FEW120 TCU DST S SSW BECMG=
200811171300 METAR MROC 171300Z 08004KT CAVOK 22/18 A3005 TRAZAS SCT/AC CB DST S BECMG=
200811171400 METAR MROC 171400Z 08007KT CAVOK 24/18 A3006 TRACE SCT FEW080 BECMG=
200811171500 METAR MROC 171500Z 11007KT 9999 FEW045 SCT080 25/18 A3006 DZ NW N NE BECMG=
200811171600 METAR MROC 171600Z 09006KT 9999 SCT040 SCT080 26/18 A3005 DZ NW N NE BECMG=
200811171700 METAR MROC 171700Z 007007KT 9999 SCT045 SCT080 26/18 A3004 DZ NW N NE BECMG=
200811171800 METAR MROC 171800Z 24006KT 9999 FEW025 SCT045 BKN100 26/21 A3000 DZ NE N BECMG=
200811171900 METAR MROC 171900Z 25006KT 9999 SCT025 BKN040 25/22 A2998 RN NW N NE E BECMG 8000 RA=
200811172000 METAR MROC 172000Z 29004KT 9999 -RA FEW010 SCT025 BKN100 22/20 A2998 RMK BECMG 6000 RA=
200811172100 METAR MROC 172100Z 11007KT 9999 SCT020 BKN100 24/19 A2995 RMK RN DST N NE BECMG=
200811172200 METAR MROC 172200Z 07007KT 9999 SCT020 BKN100 24/18 A2995 BECMG=
200811172300 METAR MROC 172300Z 23003KT 9999 VCFG FEW005 SCT020 BKN100 22/21 A2997 RMK=
200811180000 METAR MROC 180000Z 29003KT 9999 SCT020 BKN100 21/20 A2998 RMK TRACE ST BECMG=
200811180100 METAR MROC 180100Z 01003KT 9999 -DZ SCT020 SCT100 21/20 A3000 BECMG=
200811180200 METAR MROC 180200Z 02004KT 9999 SCT020 SCT100 21/18 A3003 REDZ BECMG=
200811180300 METAR MROC 180300Z 11005KT 9999 FEW025 SCT100 21/18 A3004 BECMG=
200811180400 METAR MROC 180400Z 08003KT 9999 FEW035 SCT100 21/18 A3003 BECMG=
200811180500 METAR MROC 180500Z 07006KT 9999 FEW035 SCT100 20/18 A3001 BECMG=
200811180600 METAR MROC 180600Z 07004KT 9999 FEW035 SCT100 21/18 A2999 BECMG=
200811180700 METAR MROC NIL=
200811180800 METAR MROC 180800Z 08006KT 9999 FEW035 BKN120 21/18 A2997 BECMG=
200811180900 METAR MROC 180900Z 06006KT 9999 FEW035 BKN120 20/18 A2995 BECMG=
200811181000 METAR MROC 181000Z 09006KT CAVOK 21/18 A2996 RMK TRACE SC BKN120 BECMG=
200811181100 METAR MROC 181100Z 06006KT CAVOK 21/18 A2998 RMK TRACE SC BKN120 BECMG=
200811181200 METAR MROC 181200Z 10005KT 9999 FEW035 BKN100 21/18 A2999 RMK RN N NE BECMG=
200811181300 METAR MROC 181300Z 08003KT 9999 FEW030 BKN100 21/19 A3001 RMK RN N NE E BECMG=
200811181400 METAR MROC 181400Z 13004KT 9999 FEW025 BKN100 23/19 A3002 RMK RN N NE E BECMG=
200811181500 METAR MROC 181500Z 11007KT 9999 VCSH SCT025 BKN100 23/19 A3004 RMK RN N NE E VIS N 6000 BECMG=
200811181600 METAR MROC 181600Z 13006KT 9999 VCSH SCT025 BKN100 25/19 A3002 RMK RN N NE E VIS N 6000 BECMG=
200811181700 METAR MROC 181700Z 11003KT 9999 SCT025 BKN100 26/19 A3001 RMK RN N NE E BECMG=
200811181800 METAR MROC 181800Z 34006KT 9999 SCT020 BKN100 25/19 A2999 RMK RN N CHECK TEXT NEW ENDING ADDED KATLYTAA=
200811181900 METAR MROC 181900Z 11006KT 9999 SCT025 BKN100 25/19 A2996 RMK RN N NE E BECMG=
200811182000 METAR MROC 182000Z VRB02KT 9999 SCT020 BKN100 25/17 A2995 RMK RN N NE E BECMG=
200811182100 METAR MROC 182100Z 12003KT 9999 SCT020 BKN100 23/17 A2996 RMK RN DST N NE E BECMG=
200811182200 METAR MROC 182200Z 09003KT 9999 SCT030 BKN120 23/17 A2996 RMK RN DST N NE E BECMG=
200811182300 METAR MROC 182300Z 10011KT 9999 SCT030 BKN120 22/17 A2996 RMK RN DZ DST N NE E BECMG=
200811190000 METAR MROC 190000Z 08004KT 9999 -RA SCT020 BKN090 20/17 A3000 BECMG=
200811190100 METAR MROC 190100Z 09010KT 9999 -RA FEW030 BKN090 19/17 A3000 BECMG=
200811190200 METAR MROC 190200Z 07009KT 9999 FEW025 SCT120 20/17 A3002 RERA RMK RN DZ DST N NE E SE BECMG=
200811190300 METAR MROC 190300Z 12007KT 9999 -RA FEW040 BKN080 20/17 A3003 BECMG=
200811190400 METAR MROC 190400Z 11007KT 9999 -RA FEW040 BKN100 20/17 A3004 BECMG=
200811190500 METAR MROC 190500Z 11008KT 9999 -RA FEW040 BKN110 20/17 A3002 BECMG=
200811190600 METAR MROC 190600Z 11008KT 9999 -RA FEW045 OVC100 19/17 A3002 VEL MAX VIENTO 15KTS BECMG=
200811190700 METAR MROC 190700Z 12007KT CAVOK 20/17 A3000 RERA VEL MAX 13KT BKN130 FUERTE SISMO SENTIDO A LAS 190700Z BECMG=
200811190800 METAR MROC 190800Z 10006KT 9999 FEW030 SCT045 20/16 A2999 BECMG=
200811190900 METAR MROC 190900Z 12008KT 9999 SCT045 SCT090 20/16 A2998 BECMG=
200811191000 METAR MROC 191000Z 09005KT 9999 -DZ FEW040 BKN090 20/16 A2998 BECMG=
200811191100 METAR MROC 191100Z 08006KT 9999 FEW045 BKN090 20/16 A2998 DZ NW N NE BECMG=
200811191200 METAR MROC 191200Z 09009KT 9999 FEW045 BKN100 20/16 A3000 DZ NW N NE BECMG=
200811191300 METAR MROC 191300Z 11009KT 9999 FEW030 SCT120 BKN250 20/14 A3001 RMK RN DZ DST N NE E BECMG=
200811191400 METAR MROC 191400Z 11010G20KT 9999 FEW030 BKN250 21/15 A3004 RMK DZ DST N NE E SE BECMG=
200811191500 METAR MROC 191500Z 10010KT 9999 FEW035 BKN250 21/14 A3005 RMK DZ DST N NE E BECMG=
200811191600 METAR MROC 191600Z 10010G20KT 9999 FEW035 SCT250 23/16 A3004 RMK DZ DST N NE E BECMG=
200811191700 METAR MROC 191700Z 10011G21KT 9999 FEW035 BKN250 22/15 A3003 RMK FEW120 DZ DST N NE E BECMG=
200811191800 METAR MROC 191800Z 10011G21KT 9999 FEW030 BKN120 23/16 A2999 RMK DZ DST N NE E BECMG=
200811191900 METAR MROC 191900Z 11009KT 9999 FEW030 BKN120 24/17 A2995 RMK DZ DST N NE E BECMG=
200811192000 METAR MROC 192000Z 10010G20KT 9999 SCT030 BKN120 23/17 A2995 RMK DZ DST N NE E BECMG=
200811192100 METAR MROC 192100Z 09011KT 9999 SCT035 BKN100 21/16 A2993 RMK PCN DST NE N NW OVER RDGS VEL MX VTO 18KT BECMG=
200811192200 METAR MROC 192200Z 09010KT 9999 SCT035 BKN100 21/16 A2994 RMK PCPN DST E NE N NE OVER RDGS VEL MX VTO 17KTS BECMG=
200811192300 METAR MROC 192300Z 09008KT 9999 -RA SCT025 BKN100 20/16 A2998 RMK VEL MX VTO 17KTS BECMG=
200811200000 METAR MROC 200000Z 09007KT 9999 DZ FEW040 BKN100 20/16 A2998 RERA RMK VEL MX VTO 12KT BECMG=
200811200100 METAR MROC 200100Z 10010KT 9999 -RA FEW040 BKN100 19/16 A3001 RMK VEL MX VTO 16KT BECMG=
200811200200 METAR MROC 200200Z 09010KT 9999 FEW040 BKN100 20/16 A3003 RERA RMK VEL MX VTO 16KT BECMG=
200811200300 METAR MROC 200300Z 10010KT 9999 FEW035 SCT100 20/16 A3003 BECMG=
200811200400 METAR MROC 200400Z 09010KT 9999 FEW035 SCT100 19/15 A3002 BECMG=
200811200500 METAR MROC 200500Z 09010KT 9999 FEW035 SCT100 19/15 A3001 RMK GUST 18KT BECMG=
200811200600 METAR MROC 200600Z VRB02KT 9999 FEW035 SCT100 19/14 A3001 BECMG=
200811200700 METAR MROC 200700Z 06009KT 9999 FEW035 SCT110 17/12 A2999 BECMG=
200811200800 METAR MROC 200800Z 07011KT 9999 FEW030 SCT110 17/12 A2999 RMK GUST 18KT BECMG=
200811200900 METAR MROC 200900Z 07012KT 9999 FEW030 SCT110 16/12 A2998 BECMG=
200811201000 METAR MROC 201000Z 06010KT CAVOK 16/11 A2998 RMK TRACE C SCT220 RAFAGAS MAX 18KT=
200811201100 METAR MROC 201100Z 07014KT CAVOK 17/12 A3000 RMK TRACE C FEW100 SCT130=
200811201200 METAR MROC 201200Z 08010KT 9999 FEW030 BKN100 18/12 A3000 RMK DZ N NE GUST 17KT BECMG=
200811201300 METAR MROC 201300Z 08010KT 9999 FEW030 BKN100 19/13 A3001 RMK PCPN DST E NE N VEL MX VTO 19KT BECMG=
200811201400 METAR MROC 201400Z 07010G20KT 9999 FEW030 BKN100 20/15 A3003 RMK PCPN DST E NE N NW BECMG=
200811201500 METAR MROC 201500Z 10012KT 9999 FEW030 SCT100 22/16 A3002 RMK PCPN DST N NE E VEL MX VTO 17KT BECMG=
200811201600 METAR MROC 201600Z 10011KT 9999 FEW030 SCT100 23/16 A3002 RMK PCPN DST E NE N FEW250 VEL MX VTO 17KT BECMG=
200811201700 METAR MROC 201700Z 08009G19KT 9999 FEW030 SCT100 24/16 A3000 RMK FEW250 PCPN DST N QUAD BECMG=
200811201800 METAR MROC 201800Z 09011G21KT 9999 FEW030 SCT120 24/16 A2997 RMK SCT250 PCPN DST N QUAD BECMG=
200811201900 METAR MROC 201900Z 09009KT 9999 FEW030 SCT120 24/16 A2994 RMK FEW250 PCPN DST N QUAD VEL MX VTO 14KT BECMG=
200811202000 METAR MROC 202000Z 09012KT 9999 FEW030 SCT120 24/16 A2993 RMK TRACE CI PCPN DST N QUAD VEL MX VTO 17KT BECMG=
200811202100 METAR MROC 202100Z 08009KT 9999 FEW030 BKN120 23/15 A2993 RMK RN N NE BECMG=
200811202200 METAR MROC 202200Z 09007KT 9999 FEW030 BKN120 21/14 A2995 RMK RN N NE BECMG=
200811202300 METAR MROC 202300Z 06007KT 9999 FEW030 BKN100 19/13 A2997 RMK TRACE CI BECMG=
200811210000 METAR MROC 210000Z 09011KT 9999 FEW030 SCT100 18/13 A2999 BECMG=
200811210100 METAR MROC 210100Z 01009KT CAVOK 19/14 A3001 RMK TRACE SC SCT100 BECMG=
200811210200 METAR MROC 210200Z 02008KT CAVOK 19/13 A3004 RMK TRACE SC SCT100 BECMG=
200811210300 METAR MROC 210300Z 04006KT 9999 FEW025 BKN120 20/13 A3004 BECMG=
200811210400 METAR MROC 210400Z 36008KT 9999 FEW025 SCT120 20/13 A3004 BECMG=
200811210500 METAR MROC 210500Z 06009KT 9999 FEW025 SCT120 19/13 A3002 BECMG=
200811210600 METAR MROC 210600Z 06007KT CAVOK 18/13 A3000 RMK TRACE SC SCT120 BECMG=
200811210700 METAR MROC 210700Z 03004KT 9999 FEW035 BKN100 19/13 A2996 RMK DZ E BECMG -DZ=
200811210800 METAR MROC 210800Z 10006KT 9999 FEW035 BKN110 19/15 A2995 RMK DZT E BECMG=
200811210900 METAR MROC 210900Z 14005KT 9999 FEW030 SCT110 18/14 A2995 BECMG=
200811211000 METAR MROC 211000Z 10007KT 9999 FEW030 SCT110 18/15 A2996 BECMG=
200811211100 METAR MROC 211100Z 09008KT 9999 SCT030 SCT110 18/15 A2999 RMK DZ E BECMG=
200811211200 METAR MROC 211200Z 12006KT 9999 FEW030 SCT110 19/15 A3002 RMK FEW250 RN DZ DST N NE E SE BECMG=
200811211300 METAR MROC 211300Z 13007KT 9999 FEW030 BKN110 19/15 A3003 RMK RN N NE E BECMG=
200811211400 METAR MROC 211400Z 09006KT 9999 FEW030 BKN110 21/16 A3006 RMK RN N NE E=
200811211500 METAR MROC 211500Z 12008KT 9999 FEW030 SCT110 BKN250 23/16 A3006 RMK RN N NE E BECMG=
200811211600 METAR MROC 211600Z 11009KT 9999 FEW030 SCT110 BKN250 23/16 A3005 RMK RN N NE E BECMG=
200811211700 METAR MROC 211700Z 11010KT 9999 FEW030 SCT110 BKN250 25/17 A3004 RMK RN N NE BECMG=
200811211800 METAR MROC 211800Z 10008KT 9999 SCT030 BKN250 23/17 A3002 RMK RN N NE E FEW110=
200811211900 METAR MROC 211900Z 14003KT 9999 SCT030 BKN250 23/16 A3000 RMK RN N NE E FEW100=
200811212000 METAR MROC 212000Z 16006KT 9999 SCT030 SCT100 23/15 A2999 RMK RN N NE E FEW250 BECMG=
200811212100 METAR MROC 212100Z 12005KT 9999 SCT045 BKN100 21/14 A2999 DZ NW N NE BECMG=
200811212200 METAR MROC 212200Z 13007KT 9999 FEW045 BKN080 20/15 A3001 DZ NW N NE=
200811212300 METAR MROC 212300Z 15004KT 9999 FEW045 SCT080 20/15 A3002 DZ NW N NE E BECMG=
200811220000 METAR MROC 220000Z 10004KT 9999 FEW045 BKN080 19/15 A3002 DZ NW N NE E BECMG=
200811220100 METAR MROC 220100Z 09008KT 9999 -RA FEW045 BKN080 19/16 A3003 BECMG=
200811220200 METAR MROC 220200Z 09010KT 9999 FEW040 SCT080 19/15 A3005 BECMG=
200811220300 METAR MROC 220300Z 08011G21KT 9999 FEW045 SCT060 19/15 A3006 BECMG=
200811220400 METAR MROC 220400Z 07013KT 9999 FEW035 BKN060 19/15 A3006 RMK MX VEL VTO 18KT BECMG=
200811220500 METAR MROC 220500Z 09008KT 9999 SCT035 19/16 A3005 BECMG=
200811220600 METAR MROC 220600Z 14005KT 9999 FEW035 SCT080 20/16 A3002 BECMG=
200811220700 METAR MROC 220700Z 10009KT 9999 FEW035 SCT120 19/16 A3001 BECMG=
200811220800 METAR MROC 220800Z 09004KT 9999 FEW040 SCT130 20/16 A3000 BECMG=
200811220900 METAR MROC 220900Z 11005KT 9999 FEW040 SCT130 20/15 A2997 BECMG=
200811221000 METAR MROC 221000Z 10003KT 9999 FEW040 SCT130 20/17 A2999 BECMG=
200811221100 METAR MROC 221100Z 10007KT 9999 SCT040 SCT070 20/17 A2999 BECMG=
200811221200 METAR MROC 221200Z 14003KT 9999 SCT035 SCT060 20/16 A3000 RMK DZ DST N E QUADS BECMG=
200811221300 METAR MROC 221300Z 12006KT 9999 SCT025 SCT090 23/17 A3002 VIS N NE 8KM DUE RN BECMG=
200811221400 METAR MROC 221400Z 09008KT 9999 -DZ FEW040 BKN080 22/18 A3004 BECMG=
200811221500 METAR MROC 221500Z 17005KT 9999 FEW035 SCT080 24/18 A3003 DZ NW N NE E REDZ BECMG=
200811221600 METAR MROC 221600Z 06011G23KT 9999 SCT035 SCT080 27/17 A3002 DZ NW N NE E BECMG=
200811221700 METAR MROC 221700Z 07008KT 9999 SCT045 SCT080 26/17 A3000 DZ NW N NE E BECMG=
200811221800 METAR MROC 221800Z 07008KT 9999 FEW045 SCT090 20/17 A2998 DZ NW N NE E BECMG=
200811221900 METAR MROC 221900Z 08007G17KT 9999 FEW045 SCT090 25/16 A2995 DZ NW N NE E BECMG=
200811222000 METAR MROC 222000Z 09007KT 9999 FEW045 SCT100 BKN250 24/18 A2993 DZ NW N NE E BECMG=
200811222100 METAR MROC 222100Z 11012KT 9999 SCT025 SCT100 BKN220 22/18 A2991 RMK RN N NE E BECMG=
200811222200 METAR MROC 222200Z 07014G24KT 9999 SCT025 SCT100 BKN220 24/16 A2991 RMK RN N NE E BECMG=
200811222300 METAR MROC 222300Z 09012G25KT 9999 SCT025 BKN100 24/16 A2991 RMK RN N NE E BECMG=
200811230000 METAR MROC 230000Z 10011G21KT 9999 DZ SCT025 BKN100 22/17 A2992 BECMG=
200811230100 METAR MROC 230100Z 08015G25KT 9999 -RA SCT025 BKN100 21/18 A2997 BECMG=
200811230200 METAR MROC 230200Z 08017G29KT 9999 SCT025 BKN100 22/18 A2997 RMK DZ N NE E BECMG=
200811230300 METAR MROC 230300Z 07017KT 9999 SCT030 BKN100 22/17 A2998 BECMG=
200811230400 METAR MROC 230400Z 08013KT 9999 SCT030 BKN100 22/16 A2998 BECMG=
200811230500 METAR MROC 230500Z 07010KT 9999 FEW030 BKN100 22/16 A2996 BECMG=
200811230600 METAR MROC 230600Z 08008KT CAVOK 23/16 A2996 RMK TRACE SC BKN100 BECMG=
200811230700 METAR MROC 230700Z 09005KT CAVOK 22/16 A2995 RMK TRACE SC BKN100 BECMG=
200811230800 METAR MROC 230800Z 11008KT CAVOK 21/17 A2995 RMK TRACE SC BKN100 BECMG=
200811230900 METAR MROC 230900Z 10008KT CAVOK 21/17 A2992 RMK TRACE SC BKN100 BECMG=
200811231000 METAR MROC 231000Z 09007KT CAVOK 22/18 A2993 RMK TRACE SC BKN100 BECMG=
200811231100 METAR MROC 231100Z 05007KT CAVOK 22/18 A2995 RMK TRACE SC BKN100 BECMG=
200811231200 METAR MROC 231200Z 12004KT 9999 FEW040 OVC100 21/18 A2998 RMK RN N NE E SW BECMG=
200811231300 METAR MROC 231300Z 09006KT 9999 -RA FEW030 OVC100 21/19 A3000 BECMG=
200811231400 METAR MROC 231400Z 11004KT 9999 VCSH FEW025 BKN100 22/18 A3002 RMK VIS N NE 7000 BECMG=
200811231500 METAR MROC 231500Z 11007KT 9999 SCT025 BKN100 23/18 A3002 RMK RN N NE E BECMG=
200811231600 METAR MROC 231600Z 08011KT 9999 SCT025 BKN100 25/18 A3000 RMK RN N NE E GUST 18KT BECMG=
200811231700 METAR MROC 231700Z 11011KT 9999 FEW025 BN100 24/19 A2997 RMK RN N NE E BECMG=
200811231800 METAR MROC 231800Z 11012KT 9999 FEW025 SCT100 BKN250 26/19 A2994 RMK RN N NE E GUST 20KT BECMG=
200811231900 METAR MROC 231900Z 36010KT 9999 SCT020 BKN100 25/18 A2992 RMK RN N NE E BECMG=
200811232000 METAR MROC 232000Z 10010KT 9999 SCT020 BKN100 24/19 A2991 RMK RN N NE E BECMG=
200811232100 METAR MROC 232100Z 21006KT 9999 BKN025 SCT100 25/18 A2990 RMK RN DZ DST NE E BECMG -RA=
200811232200 METAR MROC 232200Z 14006KT 9999 FEW015 SCT025 BKN100 23/19 A2990 RMK RN DZ DST ARND BECMG -RA=
200811232300 METAR MROC 232300Z 20005KT 9999 SCT030 BKN100 23/18 A2992 RMK RN DZ DST N NE E SE BECMG=
200811240000 METAR MROC 240000Z 14003KT 9999 SCT025 SCT100 22/18 A2993 RMK DZ DST N NE E BECMG=
200811240100 METAR MROC 240100Z 16003KT 9999 SCT030 SCT100 22/18 A2996 RMK DZ DST NE E BECMG=
200811240200 METAR MROC 240200Z 21003KT 9999 FEW025 SCT100 22/18 A2996 RMK DZ DST NE SE BECMG=
200811240300 METAR MROC 240300Z 11002KT 9999 FEW045 SCT080 22/18 A2997 DZ N NE BECMG=
200811240400 METAR MROC 240400Z 12006KT 9999 FEW043 SCT080 22/18 A2996 BECMG=
200811240500 METAR MROC 240500Z 16006KT 9999 FEW040 SCT090 22/18 A2995 BECMG=
200811240600 METAR MROC 240600Z 12010KT 9999 FEW040 BKN090 22/19 A2994 BECMG=
200811240700 METAR MROC 240700Z 11006KT 9999 FEW045 SCT080 22/19 A2991 BECMG=
200811240800 METAR MROC 240800Z 19004KT 9999 FEW045 SCT080 22/19 A2991 BECMG=
200811240900 METAR MROC 240900Z 12004KT 9999 FEW040 SCT080 21/18 A2990 BECMG=
200811241000 METAR MROC 241000Z 06003KT 9999 FEW040 SCT100 BKN250 22/18 A2990 BECMG=
200811241100 METAR MROC 241100Z 18003KT 9999 FEW040 SCT090 BKN250 21/18 A2992 DZ N NE E BECMG=
200811241200 METAR MROC 241200Z 11003KT 9999 FEW025 BKN045 22/19 A2993 DZ NW N NE E BECMG=
200811241300 METAR MROC 241300Z 14003KT 9999 SCT030 BKN090 22/18 A2995 RMK DZ DST N NE E BECMG=
200811241400 METAR MROC 241400Z 10003KT 9999 SCT035 BKN100 24/19 A2998 RMK RN DZ DST N NE E SE BECMG=
200811241500 METAR MROC 241500Z 12003KT 9999 FEW030 SCT120 BKN250 25/19 A2998 RMK DZ DST N NE E BECMG=
200811241600 METAR MROC 241600Z 20004KT 9999 FEW030 BKN120 26/19 A2997 RMK FEW250 DZ DS N NE E BECMG=
200811241700 METAR MROC 241700Z 13004KT 9999 SCT030 BKN120 27/20 A2996 RMK DZ DST N NE E BECMG=
200811241800 METAR MROC 241800Z 04003KT 9999 SCT030 SCT120 26/20 A2993 RMK DZ DST N NE E BECMG=
200811241900 METAR MROC 241900Z 22005KT 9999 SCT025 SCT090 27/19 A2990 RMK RN DZ DST N NE E SE BECMG=
200811242000 METAR MROC 242000Z 04004KT 9999 FEW025 BKN090 27/20 A2989 RMK RN DZ DST N NE E SW BECMG=
200811242100 METAR MROC 242100Z 16007KT 9999 FEW025 BKN100 25/20 A2989 RMK RN DST N/NE/E BECMG=
200811242200 METAR MROC 242200Z 29008KT 5000 DZ BR FEW005 SCT025 OVC080 22/21 A2990 BECMG 3000 -RA BR=
200811242300 METAR MROC 242300Z 06004KT 9999 -DZ FEW020 SCT100 BKN250 21/20 A2992 BECMG=
200811242351 METAR MROC 250000Z 09006KT 9999 DZ FEW025 BKN110 21/20 A2993 BECMG=
200811242355 METAR MROC 250000Z 09006KT 9999 DZ FEW025 BKN110 21/20 A2993 BECMG=
200811250000 METAR MROC 250000Z 09006KT 9999 DZ FEW025 BKN110 21/20 A2993 BECMG=
200811250100 METAR MROC 250100Z 04008KT 9999 FEW030 BKN120 21/20 A2996 BECMG=
200811250200 METAR MROC 250200Z 09004KT CAVOK 21/19 A2997 RMK TRACE C SCT120 BECMG=
200811250300 METAR MROC NIL=
200811250400 METAR MROC 250400Z 09005KT CAVOK 22/19 A3002 RMK SCT120 BECMG=
200811250500 METAR MROC 250500Z 08005KT CAVOK 21/19 A2999 RMK SCT120 BECMG=
200811250600 METAR MROC 250600Z 09007KT 9999 SCT020 SCT100 21/19 A2999 RMK DZ N NE N NOZIG=
200811250700 METAR MROC NIL=
200811250800 METAR MROC 250800Z 0005KT CAVOK 21/17 A2996 RMK TRACE SC BKN100 BECMG=
200811250900 METAR MROC NIL=
200811251000 METAR MROC NIL=
200811251100 METAR MROC 251100Z 05004KT 9999 FEW030 SCT100 20/18 A2994 BECMG=
200811251200 METAR MROC 251200Z 31003KT 9999 FEW035 SCT100 BKN250 20/18 A2995 BECMG=
200811251300 METAR MROC 251300Z 33004KT 9999 FEW035 SCT100 BKN250 21/19 A2998 BECMG=
200811251400 METAR MROC 251400Z 22003KT 9999 FEW030 BKN120 22/20 A3000 RMK RN DST NE E BECMG 12008KT=
200811251500 METAR MROC 251500Z 10007KT 9999 FEW030 SCT120 BKN250 25/19 A3000 RMK RN DST E BECMG=
200811251600 METAR MROC 251600Z 11006KT 9999 FEW025 SCT110 BKN250 25/19 A3000 RMK RN DST E BECMG=
200811251700 METAR MROC 251700Z 10010KT 9999 SCT025 BKN110 26/19 A2999 RMK RN N NE E S BECMG=
200811251800 METAR MROC 251800Z 12004KT 9999 SCT025 BKN090 25/19 A2997 RMK RN DST E NE BECMG -RA=
200811251900 METAR MROC 251900Z 11012KT 9999 FEW030 BKN110 26/19 A2993 RMK BECMG -RA=
200811252000 METAR MROC 252000Z 10010KT 9999 FEW030 BKN100 27/19 A2992 RMK RN N NE E BECMG -RA=
200811252100 METAR MROC 252100Z 12007KT 9999 FEW030 BKN100 24/19 A2991 BECMG=
200811252200 METAR MROC 252200Z 07007KT 9999 FEW030 BKN100 23/18 A2991 RMK DZ NE=
200811252300 METAR MROC 252300Z 10012KT 9999 FEW035 BKN110 22/17 A2992 BECMG=
200811260000 METAR MROC 260000Z 10012KT 9999 FEW035 BKN110 23/18 A2994 BECMG=
200811260100 METAR MROC 260100Z 12011KT 9999 FEW035 BKN110 22/18 A2997 BECMG=
200811260200 METAR MROC 260200Z 10011KT 9999 FEW035 BKN110 22/18 A3000 BECMG=
200811260300 METAR MROC 260300Z 10009KT 9999 -RA SCT025 BKN090 21/18 A3003 BECMG=
200811260400 METAR MROC 260400Z 09008KT 9999 FEW025 BKN100 21/18 A3004 RERA BECMG=
200811260500 METAR MROC 260500Z 09006KT CAVOK 21/17 A3002 RMK TRACE SC SCT100 BECMG=
200811260600 METAR MROC 260600Z 11006KT CAVOK 21/17 A3001 RMK SCT110 BECMG=
200811260700 METAR MROC 260700Z 10009KT 9999 FEW045 SCT110 21/17 A2999 BECMG=
200811260800 METAR MROC 260800Z 19004KT 9999 FEW040 SCT100 21/17 A2998 BECMG=
200811260900 METAR MROC 260900Z 11003KT 9999 FEW030 SCT100 19/18 A2997 BECMG=
200811261000 METAR MROC 261000Z 14002KT 9999 FEW030 SCT100 20/18 A2998 BECMG=
200811261100 METAR MROC 261100Z 22004KT 9999 FEW030 SCT100 20/18 A2999 BECMG=
200811261200 METAR MROC 261200Z 11004KT 9999 SCT030 BKN100 21/17 A3002 RMK RN DZ DST NW N NE E BECMG=
200811261300 METAR MROC 261300Z 11006KT 9999 SCT030 BKN100 21/18 A3004 RMK RN ARND BECMG=
200811261400 METAR MROC 261400Z 10008KT 9999 SCT030 BKN100 22/16 A3006 RMK RN E SE BECMG=
200811261500 METAR MROC 261500Z 11010KT 9999 SCT030 BKN100 23/19 A3007 RMK RN E BECMG=
200811261600 METAR MROC 261600Z 10003KT 9999 SCT030 BKN100 25/19 A3007 RMK RN E BECMG=
200811261700 METAR MROC 261700Z 11006KT 9999 -DZ SCT030 OVC100 22/19 A3006 BECMG=
200811261800 METAR MROC 261800Z 12008KT 9999 SCT030 BKN100 25/19 A3004 RDZ RMK RN N NE FEW250 BECMG=
200811261900 METAR MROC 261900Z 33005KT 9999 SCT030 BKN100 25/20 A3000 RMK RN N NE FEW250 BECMG=
200811262000 METAR MROC 262000Z VRB02KT 9999 SCT030 BKN100 25/19 A2999 RMK RN N NE FEW250 BECMG=
200811262100 METAR MROC 262100Z 24004KT 9999 FEW030 BKN035 24/18 A2999 DZ NW N NE E SE BECMG -DZ=
200811262200 METAR MROC 262200Z 13005KT 9999 SCT045 SCT080 22/18 A3000 CZ NW N NE E BECMG=
200811262300 METAR MROC 262300Z 10004KT 9999 FEW025 SCT045 BKN250 22/17 A3001 DZ NW N NE E BECMG=
200811270000 METAR MROC 270000Z 11003KT 9999 FEW030 SCT045 BKN250 21/17 A3003 DZ NW N NE E BECMG=
200811270100 METAR MROC 270100Z 10005KT 9999 SCT040 SCT250 20/16 A3006 BECMG=
200811270200 METAR MROC 270200Z 11007KT 9999 FEW040 SCT250 20/16 A3008 BECMG=
200811270300 METAR MROC 270300Z 13006KT CAVOK 20/15 A3010 BECMG=
200811270400 METAR MROC 270400Z 10004KT CAVOK 19/15 A3010 BECMG=
200811270500 METAR MROC 270500Z 10006KT CAVOK 19/15 A3008 BECMG=
200811270600 METAR MROC 270600Z 10007KT CAVOK 19/15 A3007 BECMG=
200811270700 METAR MROC 270700Z 06010KT CAVOK 19/15 A3005 BECMG=
200811270800 METAR MROC 270800Z 10008KT CAVOK 18/15 A3003=
200811270900 METAR MROC 270900Z 09010KT CAVOK 19/15 A3002=
200811271000 METAR MROC 271000Z 09008KT CAVOK 18/16 A3005=
200811271100 METAR MROC 271100Z 10007KT CAVOK 19/16 A3006=
200811271200 METAR MROC 271200Z 08010KT CAVOK 19/16 A3007 RMK TRAZAS SC SCT280 RN DST NE=
200811271300 METAR MROC 271300Z 09008KT 9999 FEW035 BKN250 21/17 A3009 FEW120 DZ N BECMG=
200811271400 METAR MROC 271400Z 11009KT 9999 FEW035 BKN280 22/17 A3011 FEW120 DZ NW N NE BECMG=
200811271500 METAR MROC 271500Z 07007KT 9999 FEW020 BKN250 23/18 A3012 FEW045 DZ NW N NE BECMG=
200811271600 METAR MROC 271600Z 12006KT 9999 FEW025 SCT045 BKN280 26/18 A3010 DZ NW N NE E BECMG=
200811271700 METAR MROC 271700Z 12004KT 9999 FEW020 SCT080 25/18 A3008 SCT250 DZ N NE BECMG=
200811271800 METAR MROC 271800Z 13011KT 9999 SCT040 SCT080 25/18 A3007 DZ NW N NE E SE BECMG=
200811271900 METAR MROC 271900Z 13008KT 9999 FEW030 SCT080 26/18 A3003 DZ NW N NE E=
200811272000 METAR MROC 272000Z 14010KT 9999 SCT040 BKN080 24/18 A3002 DZ NW N NE E BECMG=
200811272100 METAR MROC 272100Z 12010KT 9999 SCT040 BKN100 25/18 A3001 RMK DZ NE E BECMG=
200811272200 METAR MROC 272200Z 12009KT 9999 SCT025 BKN100 23/17 A3001 RMK RN DST E BECMG=
200811272300 METAR MROC 272300Z 11010KT 9999 FEW020 SCT100 BKN250 22/17 A3002 RMK RN DZ N NE BECMG=
200811280000 METAR MROC 280000Z 13007KT 9999 FEW020 SCT100 21/17 A3003 BECMG=
200811280100 METAR MROC 280100Z 11006KT 9999 FEW020 SCT100 21/17 A3006 BECMG=
200811280200 METAR MROC 280200Z 11005KT 9999 FEW020 BKN100 21/17 A3007 BECMG=
200811280300 METAR MROC 280300Z 10007KT 9999 FEW020 SCT100 21/17 A3009 BECMG=
200811280400 METAR MROC 280400Z 10004KT 9999 FEW030 SCT120 20/17 A3009 BECMG=
200811280500 METAR MROC 280500Z 10005KT CAVOK 20/16 A3006 RMK TRACE SC SCT120 BECMG=
200811280600 METAR MROC 280600Z 08003KT CAVOK 19/16 A3005 RMK TRACE SC SCT120 BECMG=
200811280700 METAR MROC 280700Z 08004KT CAVOK 20/17 A3002 RMK TRACE SC SCT120 BECMG=
200811280800 METAR MROC 280800Z 12004KT CAVOK 20/17 A3001 RMK TRACE SC SCT120 BECMG=
200811280900 METAR MROC 280900Z 06006KT CAVOK 20/16 A2999 RMK TRACE SC SCT120 BECMG=
200811281000 METAR MROC 281000Z 06008KT CAVOK 20/17 A2999 RMK TRACE SC SCT120 BECMG=
200811281100 METAR MROC 281100Z 05010KT CAVOK 20/17 A3000 RMK TRACE SC SCT120 BECMG=
200811281200 METAR MROC 281200Z 03009KT 9999 FEW035 SCT120 BKN250 20/17 A3002 RMK RN NE=
200811281300 METAR MROC 281300Z 06008KT 9999 FEW030 BKN110 21/17 A3004 RMK DZ NE BECMG=
200811281400 METAR MROC 281400Z 09008KT 9999 FEW030 BKN110 23/17 A3006 RMK DZ NE BECMG=
200811281500 METAR MROC 281500Z 10010KT 9999 FEW025 SCT110 SCT250 24/18 A3006 RMK DZ N NE BECMG=
200811281600 METAR MROC 281600Z 11011KT 9999 SCT025 BKN110 25/18 A3005 RMK PCPN N NE BECMG=
200811281700 METAR MROC 281700Z 10007KT 9999 SCT025 BKN100 24/18 A3004 RMK PCPN N NE BECMG=
200811281800 METAR MROC 281800Z 12008KT 9999 FEW025 BKN110 25/18 A3001 RMK PCPN N NE BECMG=
200811281900 METAR MROC 281900Z 11011KT 9999 SCT025 BKN110 26/18 A2998 RMK PCPN NE BECMG=
200811282000 METAR MROC 282000Z 10011KT 9999 SCT025 BKN120 27/18 A2995 RMK PCPN NE BECMG=
200811282100 METAR MROC 282100Z 13008KT 9999 FEW025 BKN120 26/18 A2993 RMK RN DST NE E BECMG=
200811282200 METAR MROC 282200Z 13006KT 9999 SCT020 BKN100 23/18 A2994 RMK DZ DST NE E BECMG=
200811282300 METAR MROC 282300Z 13007KT 9999 SCT020 SCT100 23/18 A2996 RMK FEW250 DZ DST NE E BECMG=
200811290000 METAR MROC 290000Z 15002KT 9999 FEW030 SCT120 22/18 A2998 BECMG=
200811290100 METAR MROC 290100Z 14002KT 9999 FEW020 SCT120 22/18 A3000 BECMG=
200811290200 METAR MROC 290200Z 10004KT 9999 FEW025 SCT120 22/18 A3003 BECMG=
200811290300 METAR MROC 290300Z 08004KT 9999 SCT045 21/18 A3005 BECMG=
200811290400 METAR MROC 290400Z 08003KT CAVOK 21/18 A3002 TRACE SCT BKN100 BECMG=
200811290500 METAR MROC 290500Z 07004KT CAVOK 21/18 A3001 TRACE SCT BKN100 BECMG=
200811290600 METAR MROC 290600Z 10004KT CAVOK 21/18 A3000 TRACE SCT FEW100=
200811290700 METAR MROC 290700Z 09003KT CAVOK 20/18 A2998 TRACE SC SCT110 BECMG=
200811290800 METAR MROC 290800Z 04005KT CAVOK 20/18 A2997 TRACE SC SCT110 BECMG=
200811290900 METAR MROC 290900Z 08004KT CAVOK 20/17 A2997 FEW100 BECMG=
200811291000 METAR MROC 291000Z 11003KT CAVOK 20/17 A2996 FEW120 BECMG=
200811291100 METAR MROC 291100Z 09003KT CAVOK 19/17 A2998 TRAZAS SCT SCT120 BKN250 BECMG=
200811291200 METAR MROC 291200Z 04005KT CAVOK 19/17 A2999 TRAZAS SCT FEW100 SCT250 BECMG=
200811291300 METAR MROC 291300Z 03004KT CAVOK 21/18 A3001 RMK FEW120 BKN250 BECMG=
200811291400 METAR MROC 291400Z 15004KT CAVOK 24/18 A3003 RMK TRACE SC BKN250 BECMG=
200811291500 METAR MROC 291500Z 24006KT 9999 FEW040 BKN250 25/19 A3003 BECMG=
200811291600 METAR MROC 291600Z 25008KT 9999 SCT035 BKN250 25/20 A3003 BECMG=
200811291700 METAR MROC 291700Z 24008KT 9999 SCT030 SCT250 26/19 A3001 BECMG=
200811291800 METAR MROC 291800Z 24007KT 9999 FEW025 SCT035 27/20 A2998 RMK FEW250 BECMG=
200811291900 METAR MROC 291900Z 27009KT 9999 SCT025TCU SCT035 27/21 A2995 BECMG=
200811292000 METAR MROC 292000Z 19009KT 9999 SCT025 SCT100 25/20 A2993 RMK SCT250 RN DST NE SSW BECMG=
200811292100 METAR MROC 292100Z 22012KT 9999 FEW025 SCT100 BKN250 24/20 A2991 RMK RN DST N NE BECMG=
200811292200 METAR MROC 292200Z 25012KT 9999 FEW020 BKN100 23/20 A2993 RMK RN DST N NE BECMG=
200811292300 METAR MROC 292300Z 26009KT 9999 FEW015 SCT025 BKN090 22/20 A2995 BECMG=
200811292349 METAR MROC 300000Z 22006KT 9999 FEW005 SCT020 BKN110 22/20 A2997 BECMG=
200811300000 METAR MROC 300000Z 22006KT 9999 FEW005 SCT020 BKN110 22/20 A2997 BECMG=
200811300100 METAR MROC 300100Z 21004KT 9999 FEW020 SCT120 21/20 A3000 BECMG=
200811300200 METAR MROC 300200Z 24005KT 9999 FEW030 SCT130 21/21 A3003 BECMG=
200811300300 METAR MROC 300300Z 27005KT 9999 FEW006 BKN130 21/21 A3004 BECMG 7000=
200811300400 METAR MROC 300400Z 29004KT 7000 3000W -DZ BR FEW003 SCT010 BKN130 21/21 A3004 BECMG 3000 DZ BR=
200811300500 METAR MROC 300500Z 00000KT 7000 VCFG FEW005 SCT010 BKN130 21/21 A3001 RMK UNL W BECMG 03006KT 9999=
200811300600 METAR MROC 300600Z 30002KT 9999 VCFG FEW005 SCT020 BKN130 20/20 A3000 RMK=
200811300700 METAR MROC 300700Z 24002KT 6000 -DZ VCFG SCT004 BKN015 20/20 A2999 BECMG=
200811300800 METAR MROC 300800Z 34003KT 9999 FEW025 BKN130 20/20 A2997 RMK TRACE ST BECMG=
200811300900 METAR MROC 300900Z 33002KT 9999 FEW020 BKN130 20/20 A2995 BECMG=
200811301000 METAR MROC 301000Z 12003KT 9999 FEW025 BKN130 20/20 A2996 RMK TRACE ST BECMG=
200811301100 METAR MROC 301100Z 07002KT CAVOK 19/19 A2997 RMK TRACE ST BKN120 BECMG=
200811301200 METAR MROC 301200Z 04004KT CAVOK 19/19 A2998 RMK SCT070 BKN120 BECMG=
200811301300 METAR MROC 301300Z 07004KT CAVOK 20/18 A3001 RMK TRACE SC ST BKN100 BECMG=
200811301400 METAR MROC 301400Z VRB03KT 9999 -DZ FEW035 BKN100 20/20 A3005 BECMG -RA=
200811301500 METAR MROC 301500Z 27005KT 9999 FEW010 OVC100 20/20 A3007 BECMG -RA=
200811301600 METAR MROC 301600Z 33005KT 5000 -RA BR FEW005 SCT015 OVC100 20/20 A3008 BECMG=
200811301700 METAR MROC 301700Z 32003KT 2000 RA BR FEW003 SCT010 OVC080 20/20 A3008 BECMG=
200811301800 METAR MROC 301800Z 02004KT 4000 RA BR SCT003 BKN015 20/20 A3005 BECMG 5000=
200811301900 METAR MROC 301900Z 35006KT 8000 -RA VCFG FEW005 SCT020 OVC100 20/20 A3001 BECMG=
200811302000 METAR MROC 302000Z 25006KT 6000 DZ VCFG FEW003 SCT015 OVC100 20/20 A2997 BECMG 5000=
200811302100 METAR MROC 302100Z 28003KT 9999 FEW003 SCT015 OVC100 20/20 A2998 REDZ BECMG=
200811302200 METAR MROC 302200Z 27005KT 7000 VCFG FEW003 SCT015 OVC100 20/20 A2999 BECMG=
200811302300 METAR MROC 302300Z 25002KT 7000 VCFG FEW003 SCT010 OVC100 20/20 A3001 BECMG 3000 BR=
200812010000 METAR MROC 010000Z 00000KT 9999 FEW003 SCT025 BKN100 20/20 A3002 BECMG=
200812010100 METAR MROC 010100Z 00000KT 9999 FEW025 BKN100 19/19 A3004 RMK TRACE ST BECMG 10004KT=
200812010200 METAR MROC 010200Z 06003KT CAVOK 19/19 A3005 TRACE SCT SCT150 BECMG=
200812010300 METAR MROC 010300Z 06002KT 9999 FEW006 BKN120 19/19 A3007 BECMG=
200812010400 METAR MROC 010400Z 00000KT 7000 0300SW RO7/050 VCFG FG BKN002 19/19 A3008 BECMG 1000 BR=
200812010500 METAR MROC 010500Z 22003KT 0300 FG VV/// 19/19 A3009 BECMG=
200812010600 METAR MROC 010600Z 04005KT 3000 BR SCT002 BKN100 18/18 A3008 RMK VIS 7000 N BECMG 5000 BR=
200812010700 METAR MROC 010700Z 11004KT 9999 FEW003 SCT025 BKN100 18/18 A3006 RMK VIS 5000SW BR BECMG=
200812010800 METAR MROC 010800Z 06003KT 9999 SCT025 SCT120 18/18 A3006 RMK VIS 8000SW DUE ST=
200812010900 METAR MROC 010900Z 07004KT CAVOK 18/18 A3003 RMK SCT120=
200812011000 METAR MROC 011000Z 05006KT CAVOK 17/17 A3004 RMK SCT120 ST SSW=
200812011100 METAR MROC 011100Z 06004KT 9999 FEW030 BKN120 17/17 A3006 RMK ST SSW=
200812011200 METAR MROC 011200Z 10004KT CAVOK 17/17 A3008 RMK TRACE SC CI SCT120=
200812011300 METAR MROC 011300Z 10003KT CAVOK 20/18 A3011 RMK TRACE CU AC CI=
200812011400 METAR MROC 011400Z 00000KT CAVOK 22/19 A3014 RMK TRACE CU CI BECMG 23005KT=
200812011500 METAR MROC 011500Z 25003KT 9999 FEW040 24/19 A3014 RMK TRACE CI BECMG=
200812011600 METAR MROC 011600Z 24004KT 9999 SCT040 25/19 A3014 RMK TRACE CI BECMG=
200812011700 METAR MROC 011700Z 22006KT 9999 SCT040 26/20 A3012 RMK TRACE AC CI=
200812011800 METAR MROC 011800Z 22009KT 9999 SCT035 SCT120 26/20 A3009 RMK CB DST N BECMG=
200812011900 METAR MROC 011900Z 24008KT 9999 FEW015TCU SCT035 BKN120 25/21 A3007 RMK RN E BECMG=
200812012000 METAR MROC 012000Z 24010KT 9999 FEW015TCU SCT035 SCT100 26/21 A3005 RMK RN N NE E TRACE CI BECMG 5000 RA BR=
200812012100 METAR MROC 012100Z 23010KT 9999 VCSH FEW015CB BKN040 24/21 A3005 VSBY NW N NE 5KM DUE RASH RN DST E BECMG 6000 -RA=
200812012200 METAR MROC 012200Z 25006KT 3000 RA BR FEW006 SCT025 BKN045 21/21 A3006 VSBY E SE UNL BECMG=
200812012300 METAR MROC 012300Z 23004KT 2500 BR SCT002 BKN010 21/21 A3008 RERA RN ARND FU SE BECMG=
200812020000 METAR MROC 020000Z 23004KT 2500 BR SCT002 BKN006 20/20 A3009 VSBY N 1KM BECMG=
200812020100 METAR MROC 020100Z 19003KT 0200 FG VV/// 20/20 A3011 BECMG=
200812020200 METAR MROC 020200Z 00000KT 4000 BR SCT003 SCT008 20/20 A3013 VSBY E 2KM BECMG=
200812020300 METAR MROC 020300Z 16003KT 2000 BR FEW001 SCT008 20/20 A3013 BECMG 4000=
200812020400 METAR MROC 020400Z 27002KT 9999 2000SW BR SCT001 20/20 A3014 BECMG 7000 VCFG=
200812020500 METAR MROC 020500Z 32002KT 1500 BR SCT001 BKN008 20/20 A3014 BECMG 6000 VCFG=
200812020600 METAR MROC 020600Z 02003KT 4000 BR SCT001 BKN012 20/20 A3013 BECMG 8000 VCFG=
200812020700 METAR MROC 020700Z 02004KT 7000 VCFG FEW002 SCT020 20/20 A3011 BECMG=
200812020800 METAR MROC 020800Z 10005KT 9999 FEW003 20/20 A3009=
200812020900 METAR MROC 020900Z 02004KT CAVOK 21/19 A3008=
200812021000 METAR MROC 021000Z 05006KT CAVOK 21/19 A3009=
200812021100 METAR MROC 021100Z 09007KT CAVOK 21/19 A3011=
200812021150 METAR MROC 021150Z 08008KT 9999 FEW035 SCT100 21/18 A3011 RMK RN DST E=
200812021200 METAR MROC 021200Z 08008KT 9999 FEW035 SCT100 21/18 A3011 RMK RN DST E=
200812021300 METAR MROC 021300Z 09006KT 9999 FEW025 SCT090 22/19 A3014 VSBY N NE E 6KM DUE RN BECMG -RA=
200812021400 METAR MROC 021400Z 10005KT 9999 FEW030 BKN080 22/19 A3015 RN DST S NW N NE E SE BECMG RERA=
200812021500 METAR MROC 021500Z 14005KT 9999 FEW025 SCT050 22/19 A3015 DZ N NE E BECMG=
200812021600 METAR MROC 021600Z 13005KT 9999 SCT040 SCT080 23/19 A3014 DZ NW N NE E BECMG=
200812021700 METAR MROC 021700Z 01017KT 9999 FEW025 BKN050 25/18 A3011 DZ NW N NE E BECMG=
200812021710 METAR MROC 021710Z 10012G22KT 8000 3000NE -RA VCSH SCT012 BKN025 22/18 A3008=
200812021800 METAR MROC 021800Z 11006KT 9999 FEW025 SCT045 BKN080 24/20 A3008 VSBY ENE 6KM DUE RN RN NW N SE BECMG=
200812021900 METAR MROC 021900Z 13006KT 9999 FEW025 BKN045 26/20 A3004 DZ NW N NE E BECMG=
200812022000 METAR MROC 022000Z 31004KT 9999 FEW025 BKN045 24/18 A3003 DZ NW N NE E BECMG=
200812022100 METAR MROC 022100Z 16003KT 9999 FEW020 BKN045 24/19 A3002 RMK PCPN N NE E BECMG=
200812022200 METAR MROC 022200Z 12008KT 9999 FEW020 BKN040 23/18 A3002 RMK PCPN N NE E BECMG=
200812022300 METAR MROC 022300Z 13004KT 9999 FEW020 BKN040 22/19 A3003 RMK PCPN N NE E BECMG=
200812030000 METAR MROC 030000Z 11008KT 9999 FEW020 BKN060 22/18 A3003 RMK PCPN N NE E BECMG=
200812030100 METAR MROC 030100Z 10011G23KT 9999 FEW020 SCT100 22/16 A3006 BECMG=
200812030200 METAR MROC 030200Z 09011KT 9999 FEW020 SCT100 21/17 A3007 BECMG=
200812030300 METAR MROC 030300Z 11006KT 9999 -DZ FEW030 BKN100 21/18 A3009 BECMG=
200812030400 METAR MROC 030400Z 09010KT 9999 FEW030 BKN100 21/17 A3009 REDZ BECMG=
200812030500 METAR MROC 030500Z 10010KT 9999 FEW030 BKN100 20/17 A3006 BECMG=
200812030600 METAR MROC 030600Z 11008KT 9999 FEW030 BKN100 20/17 A3005 BECMG=
200812030700 METAR MROC 030700Z 11007KT 9999 FEW030 BKN100 20/17 A3004 BECMG=
200812030800 METAR MROC 030800Z 12010KT 9999 FEW030 BKN100 20/16 A3002=
200812030900 METAR MROC 030900Z 10009KT 9999 FEW030 BKN100 20/16 A3001=
200812031000 METAR MROC 031000Z 08004KT 9999 FEW030 BKN100 20/16 A3002=
200812031100 METAR MROC 031100Z 00000KT 9999 FEW030 BKN100 20/17 A3002=
200812031200 METAR MROC 031200Z 10006KT 9999 SCT030 BKN100 20/17 A3003 RMK RN N NE E=
200812031300 METAR MROC 031300Z 11005KT 9999 -RA SCT025 BKN100 21/18 A3005 RMK PCPN N NE E BECMG=
200812031400 METAR MROC 031400Z 11005KT 9999 SCT025 BKN100 23/18 A3006 RMK PCPN N NE E BECMG=
200812031500 METAR MROC 031500Z 11005KT 9999 SCT020 BKN100 23/18 A3007 RMK PCPN N NE E BECMG=
200812031600 METAR MROC 031600Z 16003KT 9999 SCT020 BKN100 25/19 A3005 RMK PCPN N NE E BECMG=
200812031700 METAR MROC 031700Z 10006KT 9999 SCT020 BKN110 24/19 A3005 RMK PCPN N NE E BECMG=
200812031800 METAR MROC 031800Z 22003KT 9999 SCT015 BKN110 25/19 A3002 RMK PCPN N NE E BECMG=
200812031900 METAR MROC 031900Z 13006KT 9999 SCT015 BKN110 26/20 A2999 RMK PCPN N NE E BECMG=
200812032000 METAR MROC 032000Z 17006KT 9999 -RA SCT015 BKN110 23/20 A2998 BECMG=
200812032100 METAR MROC 032100Z 14003KT 3000 DZ BR FEW003 SCT010 BKN090 21/20 A2998 RMK VIS 9999 E BECMG 2500 RA=
200812032200 METAR MROC 032200Z 09003KT 9999 -DZ VCFG FEW005 BKN030 21/19 A2998 RMK SCT090 VIS 7000 SW RN DST ARND BECMG -RA=
200812032300 METAR MROC 032300Z 09002KT 9999 -RA VCFG FEW003 BKN030 20/19 A3000 RMK SCT090 VIS 7000SW BECMG +RA=
200812040000 METAR MROC 040000Z 09003KT 9999 SCT030 BKN120 20/19 A3001 RERA RMK DZ DST NE BECMG -RA=
200812040100 METAR MROC 040100Z 03004KT 9999 FEW030 BKN120 20/18 A3002 BECMG -RA=
200812040200 METAR MROC 040200Z 13003KT 9999 FEW030 BKN100 20/18 A3006 BECMG RA=
200812040300 METAR MROC 040300Z 06004KT 9999 SCT045 SCT100 20/19 A3008 BECMG=
200812040400 METAR MROC 040400Z 00000KT 9999 SCT040 SCT100 20/19 A3007 BECMG=
200812040500 METAR MROC 040500Z 09003KT 9999 SCT040 SCT250 20/18 A3007 BECMG=
200812040600 METAR MROC 040600Z 05004KT CAVOK 20/17 A3004 TRAZAS SCT FEW300 BECMG=
200812040700 METAR MROC NIL=
200812040800 METAR MROC 040800Z 10002KT 9999 NCS 19/16 A3002 TRACE SC=
200812040900 METAR MROC 040900Z 08004KT CAVOK 19/16 A3000 TRACE SC=
200812041000 METAR MROC 041000Z 09004KT CAVOK 18/16 A2999 TRACE SC FEW120=
200812041100 METAR MROC 041100Z 09003KT CAVOK 18/16 A3000 TRACE SCT FEW120 SCT250=
200812041200 METAR MROC 041200Z 09004KT CAVOK 19/16 A3001 TRACE SCT FEW120 BKN280 BECMG=
200812041300 METAR MROC 041300Z 06003KT CAVOK 20/16 A3002 RMK SCT250 BECMG=
200812041400 METAR MROC 041400Z 11009KT CAVOK 23/17 A3005 RMK SCT250 BECMG=
200812041500 METAR MROC 041500Z 11009KT CAVOK 25/17 A3005 RMK BKN270 TRACE SC BECMG=
200812041600 METAR MROC 041600Z 09010KT CAVOK 27/16 A3003 RMK BKN250 TRACE SC BECMG=
200812041700 METAR MROC 041700Z 10010KT 9999 FEW035 SCT120 BKN250 27/18 A3002 RMK DZ DST N RN DST NE E BECMG=
200812041800 METAR MROC 041800Z 10010KT 9999 SCT030 BKN100 24/18 A3001 RMK VIS 5000 N DUE RA BECMG +RA=
200812041900 METAR MROC 041900Z 09012KT 9999 SCT030 BKN100 25/17 A2999 RMK DZ DST N NE BECMG -RA=
200812042000 METAR MROC 042000Z 09008KT 9999 SCT025 BKN100 25/17 A2997 RMK DZ DST N NE E BECMG -RA=
200812042100 METAR MROC 042100Z 10014KT 9999 SCT030 BKN100 23/17 A2997 RMK RN DST N NE E BECMG=
200812042200 METAR MROC 042200Z 10009KT 9999 SCT030 BKN120 23/17 A2998 BECMG=
200812042300 METAR MROC 042300Z 09011KT 9999 -DZ SCT025 BKN120 22/17 A3002 RMK RN DST N NE E BECMG -RA=
200812042352 METAR MROC 050000Z 09016KT 9999 -RA FEW025 OVC100 21/16 A3003 BECMG -RA=
200812042355 METAR MROC 050000Z 09016KT 9999 -RA FEW025 OVC100 21/16 A3003 BECMG -RA=
200812050000 METAR MROC 050000Z 09016KT 9999 -RA FEW025 OVC100 21/16 A3003 BECMG -RA=
200812050100 METAR MROC 050100Z 09014KT 9999 -RA FEW020 OVC090 20/17 A3004 BECMG -RA=
200812050200 METAR MROC 050200Z 10008KT 9999 FEW025 BKN100 21/15 A3005 RERA RMK GUST 15KT BECMG -DZ=
200812050300 METAR MROC 050300Z 11010KT 9999 FEW035 BKN100 21/16 A3007 BECMG=
200812050400 METAR MROC 050400Z 05005KT 9999 FEW035 BKN100 21/15 A3006 BECMG -DZ=
200812050500 METAR MROC 050500Z 06002KT 9999 FEW040 BKN090 20/15 A3004 BECMG -DZ=
200812050600 METAR MROC 050600Z 10007KT CAVOK 21/14 A3003 RMK TRACE SC BKN100 BECMG -DZ=
200812050700 METAR MROC 050700Z 08010KT CAVOK 21/15 A3001 RMK TRACE SC BKN100 BECMG -DZ=
200812050800 METAR MROC 050800Z 09009KT CAVOK 20/16 A2999 RMK TRACE SC BKN100 BECMG=
200812050900 METAR MROC 050900Z 09012KT CAVOK 20/15 A2998 RMK TRACE SC BKN100 BECMG=
200812051000 METAR MROC 051000Z 11010KT CAVOK 20/15 A2997 RMK TRACE SC BKN100 BECMG=
200812051100 METAR MROC 051100Z 10009KT CAVOK 21/16 A2999 RMK TRACE SC BKN100 BECMG=
200812051200 METAR MROC 051200Z 11011KT 9999 FEW035 BKN080 20/16 A3001 BECMG=
200812051300 METAR MROC 051300Z 11018KT 9999 FEW030 BKN100 21/17 A3004 BECMG=
200812051400 METAR MROC 051400Z 10014KT 9999 FEW030 SCT100 BKN250 22/16 A3007 RMK CB DST SW BECMG=
200812051500 METAR MROC 051500Z 11013KT 9999 FEW030 SCT120 23/17 A3007 RMK CB DST SW BECMG=
200812051600 METAR MROC 051600Z 10015KT 9999 SCT030 SCT110 23/18 A3007 RMK RN DST NE E BECMG -DZRA=
200812051700 METAR MROC 051700Z 09012KT 9999 SCT030 SCT110 24/18 A3006 RMK RN DST NE E BECMG=
200812051800 METAR MROC 051800Z 07015KT 9999 BKN035 SCT120 23/15 A3005 RMK RN DST NE E BECMG=
200812051900 METAR MROC 051900Z 07015KT 9999 SCT035 SCT120 25/154 A3000 BECMG 7000=
200812052000 METAR MROC 052000Z 07016KT 9999 FEW035 SCT130 25/15 A2997 BECMG=
200812052100 METAR MROC 052100Z 08009KT 9999 FEW035 SCT130 BKN250 25/14 A2996 BECMG=
200812052200 METAR MROC 052200Z 08011KT 9999 FEW035 BKN250 24/14 A2997 RMK TRACE AC BECMG=
200812052300 METAR MROC 052300Z 10008KT 9999 FEW015TCU SCT030 BKN250 23/14 A2999 RMK RN E BECMG=
200812060000 METAR MROC 060000Z 10006KT 9999 SCT030 SCT100 21/17 A3001 RMK FEW250 RN E BECMG=
200812060100 METAR MROC 060100Z 09011KT 9999 SCT030 BKN250 21/16 A3002 BECMG=
200812060200 METAR MROC 060200Z 09012KT 9999 FEW030 21/16 A3003 BECMG=
200812060300 METAR MROC 060300Z 10010KT 9999 FEW035 20/16 A3005 BECMG=
200812060400 METAR MROC 060400Z 10011KT CAVOK 20/16 A3003 RMK TRACE SC FEW120 BECMG=
200812060500 METAR MROC 060500Z 09011KT CAVOK 20/16 A3002 RMK TRACE SC SCT250 BECMG=
200812060600 METAR MROC 060600Z 10007KT CAVOK 20/16 A3001 RMK TRACE SC SCT250 BECMG=
200812060700 METAR MROC 060700Z 05005KT CAVOK 19/16 A3000 RMK TRACE SC SCT250 BECMG=
200812060800 METAR MROC 060800Z 04006KT CAVOK 19/16 A2998 RMK TRACE SC SCT250 LTMG DST SSW=
200812060900 METAR MROC 060900Z 07006KT CAVOK 20/17 A2997 RMK TRACE SC SCT250=
200812061000 METAR MROC 061000Z 04004KT CAVOK 18/15 A3000 RMK TRACE SC SCT250=
200812061100 METAR MROC 061100Z 08005KT CAVOK 19/16 A3001 RMK TRACE SC SCT250=
200812061200 METAR MROC 061200Z 04005KT CAVOK 20/16 A3003 RMK TRACE SC FEW250=
200812061300 METAR MROC 061300Z 12007KT 9999 FEW035 SCT250 22/17 A3005 RMK CB DST SW=
200812061400 METAR MROC 061400Z 12009KT 9999 FEW035 SCT250 24/16 A3006 RMK CB DST SW BECMG=
200812061500 METAR MROC 061500Z 11009KT 9999 FEW035 SCT250 26/16 A3006 RMK TRACE AC BECMG=
200812061600 METAR MROC NIL=
200812061700 METAR MROC NIL=
200812061800 METAR MROC NIL=
200812061900 METAR MROC 061900Z 08011KT 9999 SCT035 28/16 A2999 RMK FEW250 BECMG=
200812062000 METAR MROC 062000Z 11005KT 9999 FEW015TCU BKN080 27/17 A2998 RMK RN DST NE=
200812062100 METAR MROC 062100Z 08009KT 9999 SCT030 SCT080 26/16 A2997 BECMG=
200812062200 METAR MROC 062200Z 23005KT 9999 SCT030 24/21 A2999 BECMG=
200812062300 METAR MROC 062300Z 26005KT 9999 SCT030 23/20 A2999 BECMG=
200812070000 METAR MROC 070000Z 23003KT 9999 FEW025 21/20 A3002 BECMG=
200812070100 METAR MROC 070100Z 12005KT CAVOK 21/17 A3004 TRACE SCT CI BECMG=
200812070200 METAR MROC 070200Z 08010KT CAVOK 20/17 A3006 TRACE SC BECMG=
200812070300 METAR MROC 070300Z 09010KT CAVOK 20/17 A3007 BECMG=
200812070400 METAR MROC 070400Z 09011KT CAVOK 21/17 A3006 BECMG=
200812070500 METAR MROC 070500Z 09014KT CAVOK 21/17 A3004 BECMG=
200812070600 METAR MROC 070600Z 10012KT CAVOK 20/17 A3003 RMK TRACE SC BECMG=
200812070700 METAR MROC 070700Z 09012KT CAVOK 20/17 A3002 TRAZAS SC BECMG=
200812070800 METAR MROC 070800Z 10018KT CAVOK 21/17 A2999 BECMG=
200812070900 METAR MROC 070900Z 10018KT CAVOK 21/16 A3000 BECMG=
200812071000 METAR MROC 071000Z 09013KT CAVOK 21/16 A3001 BECMG=
200812071100 METAR MROC 071100Z 09013KT CAVOK 21/16 A3003 BECMG=
200812071200 METAR MROC 071200Z 10015KT 9999 FEW030 21/16 A3004 BECMG=
200812071300 METAR MROC 071300Z 09003KT 9999 FEW025 22/17 A3007 BECMG=
200812071400 METAR MROC 071400Z 11012KT 9999 FEW030 23/17 A3007 BECMG=
200812071500 METAR MROC 071500Z 10011KT 9999 FEW025 25/17 A3008 BECMG=
200812071600 METAR MROC 071600Z 11011KT 9999 FEW025 26/18 A3006 DZ NE BECMG=
200812071700 METAR MROC 071700Z 10012KT 9999 FEW025 26/18 A3005 DZ N NE BECMG=
200812071800 METAR MROC 071800Z 12014KT 9999 FEW025 26/18 A3003 DZ NE BECMG=
200812071900 METAR MROC 071900Z 11011KT 9999 FEW025 27/18 A3001 DZ NE BECMG=
200812072000 METAR MROC 072000Z 09010KT 9999 FEW025 SCT045 25/18 A2999 DZ N NE BECMG=
200812072100 METAR MROC 072100Z 12010KT 9999 FEW025 SCT040 25/18 A2998 RMK GUST 17KT BECMG=
200812072200 METAR MROC 072200Z 09008KT 9999 FEW025 SCT140 24/17 A2998 RMK DZ N BECMG=
200812072300 METAR MROC 072300Z 11010KT 9999 BKN025 23/17 A2999 RMK DZ N NE BECMG=
200812080000 METAR MROC 080000Z 05004KT 9999 SCT025 22/18 A3001 BECMG=
200812080100 METAR MROC 080100Z 09009KT 9999 FEW025 21/18 A3001 BECMG=
200812080200 METAR MROC 080200Z 09009KT 9999 FEW025 21/19 A3003 BECMG=
200812080300 METAR MROC 080300Z 11011KT 9999 FEW030 21/16 A3003 BECMG=
200812080400 METAR MROC 080400Z 10009KT CAVOK 21/17 A3003 RMK TRACE SC SCT100 BECMG=
200812080500 METAR MROC 080500Z 06009KT CAVOK 22/16 A3004 TRACE SCT FEW100 BECMG=
200812080600 METAR MROC 080600Z 04006KT CAVOK 21/17 A3003 RMK TRACE SC FEW100 BECMG=
200812080700 METAR MROC 080700Z 11008KT CAVOK 20/17 A3001 RMK TRACE SC FEW100=
200812080800 METAR MROC 080800Z 09004KT CAVOK 20/17 A2999 RMK TRACE SC FEW100=
200812080900 METAR MROC 080900Z 09004KT CAVOK 20/17 A2999 RMK TRACE SC AC=
200812081000 METAR MROC 081000Z 10010KT CAVOK 20/16 A2999 RMK TRACE SC FEW100=
200812081100 METAR MROC 081100Z 10007KT CAVOK 20/16 A3000 RMK TRACE SC FEW100=
200812081200 METAR MROC 081200Z 10006KT 9999 FEW030 20/15 A3002 RMK DZ N=
200812081300 METAR MROC 081300Z 11007KT 9999 FEW030 22/16 A3004 BECMG=
200812081400 METAR MROC 081400Z 10010KT 9999 FEW035 SCT250 24/15 A3006 RMK GUST 15KT BECMG=
200812081500 METAR MROC 081500Z 10012KT 9999 FEW035 25/15 A3005 RMK TRACE CI BECMG=
200812081600 METAR MROC 081600Z 11010KT 9999 FEW035 SCT250 26/15 A3005 RMK GUST 16KT BECMG=
200812081700 METAR MROC 081700Z 10010KT 9999 FEW035 BKN250 27/15 A3003 RMK GUST 15KT BECMG=
200812081800 METAR MROC 081800Z 07011KT 9999 FEW035 BKN250 27/14 A3001 RMK GUST 17KT BECMG=
200812081900 METAR MROC 081900Z 07013KT 9999 FEW035 28/15 A2998 RMK GUST 18KT TRACE CI BECMG=
200812082000 METAR MROC 082000Z 07014KT 9999 FEW035 SCT250 27/16 A2996 RMK GUST 21KT BECMG=
200812082100 METAR MROC 082100Z 07014KT 9999 FEW035 SCT250 26/16 A2995 BECMG=
200812082200 METAR MROC 082200Z 08011KT 9999 FEW030 BKN250 26/16 A2995 BECMG=
200812082300 METAR MROC 082300Z 08011KT 9999 FEW030 SCT250 24/15 A2997 BECMG=
200812090000 METAR MROC 090000Z 10010G20KT 9999 FEW030 23/16 A2997 RMK FEW250 BECMG=
200812090100 METAR MROC 090100Z 09010G20KT 9999 FEW030 22/15 A2998 RMK FEW120 BECMG=
200812090200 METAR MROC 090200Z 10014KT 9999 FEW030 22/16 A3000 RMK FEW120 BECMG=
200812090300 METAR MROC 090300Z 11012KT 9999 FEW030 21/17 A3001 BECMG=
200812090400 METAR MROC 090400Z 10012KT 9999 FEW030 SCT110 21/17 A3001 BECMG=
200812090500 METAR MROC 090500Z 10012KT 9999 SCT030 21/17 A3000 RMK FEW110 BECMG=
200812090600 METAR MROC 090600Z 11012KT 9999 FEW030 SCT110 21/17 A2994 RMK FEW260 BECMG=
200812090700 METAR MROC 090700Z 10010KT CAVOK 21/17 A2997 TRAZAS SC SCT110 BECMG=
200812090800 METAR MROC 090800Z 06003KT CAVOK 20/16 A2995 FEW120 TRACE SC BECMG=
200812090900 METAR MROC 090900Z 06004KT CAVOK 20/16 A2997 FEW120 BECMG=
200812091000 METAR MROC 091000Z 03003KT CAVOK 20/16 A2997 TRACE SCT FEW120 BECMG=
200812091100 METAR MROC 091100Z 04005KT CAVOK 20/16 A2997 TRACE SCT FEW120 SCT250 BECMG=
200812091200 METAR MROC 091200Z 35003KT 9999 FEW030 19/16 A2998 TRAZAS AC BECMG=
200812091300 METAR MROC 091300Z 12008KT CAVOK 22/17 A2999 RMK TRACE SC BECMG=
200812091400 METAR MROC 091400Z 13008KT CAVOK 25/18 A3000 RMK TRACE SC BECMG=
200812091500 METAR MROC 091500Z 10008KT 9999 FEW040 27/18 A3001 BECMG=
200812091600 METAR MROC 091600Z 12009KT 9999 FEW040 26/18 A3001 BECMG=
200812091700 METAR MROC 091700Z 14006KT 9999 FEW030 BKN045 26/19 A2999 BECMG=
200812091800 METAR MROC 091800Z 10005KT 9999 FEW030 SCT045 27/19 A2997 BECMG=
200812091900 METAR MROC 091900Z 11005KT 9999 FEW035 BKN080 27/22 A2994 BECMG 23004KT=
200812092000 METAR MROC 092000Z 25008KT 9999 FEW025 SCT040 BKN110 25/22 A2992 BECMG=
200812092100 METAR MROC 092100Z 23008KT 9999 FEW020 SCT035 BKN100 24/22 A2991 RMK RN DST NW N HZ LGT AROUND BECMG=
200812092200 METAR MROC 092200Z 23007KT 5000 BR FEW005 SCT015 BKN030 22/22 A2992 RMK BECMG 3000=
200812092300 METAR MROC 092300Z 24004KT 1200 BR SCT001 BKN010 21/21 A2994 BECMG 0800 FG=
200812092357 METAR MROC 100000Z 24004KT 1200 BR SCT001 BKN008 21/21 A2995 BECMG 1200 BR=
200812100000 METAR MROC 100000Z 24004KT 1200 BR SCT001 BKN008 21/21 A2995 BECMG 1200 BR=
200812100100 METAR MROC 100100Z 23002KT 2000 BR SCT001 BKN015 20/20 A2997 BECMG -DZ=
200812100200 METAR MROC 100200Z 24005KT 2000 BR SCT001 SCT020 20/20 A2999 BECMG 0800 FG=
200812100300 METAR MROC 100300Z 26003KT 0600 FG SCT001 SCT100 20/20 A3000 RMK 2000 N BECMG=
200812100400 METAR MROC 100400Z 00000KT 1200 BR SCT001 SCT100 20/20 A3000 RMK 2500 N BECMG 09004 5000 BR=
200812100500 METAR MROC 100500Z 30002KT 9999 4000SW BR FEW002 SCT030 SCT090 20/20 A2999 BECMG 6000SW VCFG=
200812100600 METAR MROC 100600Z 32002KT 9999 4000 FEW002 SCT030 SCT090 20/20 A2997 BECMG=
200812100700 METAR MROC 100700Z 35003KT 9999 FEW030 SCT090 20/20 A2996 RMK TRACE ST BECMG=
200812100800 METAR MROC 100800Z 19003KT 9999 0500SW BR SCT001 SCT090 19/19 A2994 BECMG 1000 BR=
200812100900 METAR MROC 100900Z 00000KT 0300 FG BKN001 19/19 A2993 BECMG=
200812101000 METAR MROC 101000Z 00000KT 0300 FG BKN001 19/19 A2993 BECMG 10003KT 4000 BR=
200812101100 METAR MROC 101100Z 05003KT 9999 1200SW BR SCT001 18/18 A2994 RMK TRACE SC BECMG=
200812101200 METAR MROC 101200Z 07002KT 9999 FEW030 18/18 A2996 RMK TRACE ST CI BECMG=
200812101300 METAR MROC 101300Z 31004KT 9999 FEW030 SCT090 18/18 A2997 BECMG=
200812101400 METAR MROC 101400Z 08004KT 9999 FEW030 23/19 A3000 BECMG=
200812101500 METAR MROC 101500Z 11010KT 9999 FEW030 26/20 A2999 RMK FEW250 BECMG=
200812101600 METAR MROC 101600Z 10010KT 9999 SCT030 27/19 A2999 RMK FEW AC BECMG=
200812101700 METAR MROC 101700Z 11010KT 9999 FEW030 SCT100 BKN250 27/20 A2999 BECMG=
200812101800 METAR MROC 101800Z 14006KT 9999 SCT030 BKN250 28/20 A2996 BECMG=
200812101900 METAR MROC 101900Z 23010KT 9999 SCT025TCU BKN250 27/20 A2993 HZ NW N NE BECMG=
200812102000 METAR MROC 102000Z 25009KT 9999 FEW020TCU SCT035 27/22 A2991 BECMG=
200812102100 METAR MROC 102100Z 22002KT 9999 3000SW BR FEW002 SCT015 BKN035 22/22 A2991 RERA BECMG 3000 -DZ=
200812102200 METAR MROC 102200Z 22002KT 9999 3000SW BR FEW002 SCT015 BKN035 22/22 A2991 RERA BECMG 3000 -DZ=
200812102300 METAR MROC 102300Z 22005KT 2000 R07/0150 -RA BR FEW001 SCT005 BKN030 22/22 A2992 BECMG 1000 -DZ BR=
200812110000 METAR MROC 110000Z 16002KT 3000 +RA FEW001 SCT003 BKN030 21/21 A2995 BECMG 5000 -RA BR=
200812110100 METAR MROC 110100Z 22003KT 5000 BR FEW001 SCT005 BKN030 21/21 A2997 BECMG 1000 BR=
200812110200 METAR MROC 110200Z 32002KT 9999 3000SW FEW001 SCT030 21/21 A3000 BECMG 3000 BR=
200812110300 METAR MROC 110300Z 04002KT 9999 VCFG FEW003 SCT030 21/21 A3002 RMK VIS 7000SW BECMG -DZ=
200812110400 METAR MROC 110400Z 01003KT CAVOK 20/20 A3001 RMK SCT250 TRACE SC ST S SW BECMG=
200812110500 METAR MROC 110500Z 09003KT CAVOK 20/19 A3001 RMK SCT250 BECMG=
200812110600 METAR MROC 110600Z 07006KT CAVOK 20/19 A3000 RMK SCT250 BECMG=
200812110700 METAR MROC 110700Z 03003KT 9999 FEW015 SCT250 19/19 A2997 BECMG=
200812110800 METAR MROC 110800Z 06003KT 9999 FEW030 SCT250 20/18 A2995=
200812110900 METAR MROC 110900Z 04004KT 9999 FEW030 SCT120 19/18 A2995 RMK FEW120=
200812111000 METAR MROC 111000Z 09006KT CAVOK 20/18 A2994 RMK TRACE SC FEW120 SCT250=
200812111100 METAR MROC 111100Z 06006KT CAVOK 20/18 A2996 RMK TRACE SC FEW120 SCT250=
200812111200 METAR MROC 111200Z 07006KT CAVOK 20/17 A2997 RMK TRACE SC FEW120 BKN250 DZ DST N NE CB DST S SW W=
200812111300 METAR MROC 111300Z 07005KT CAVOK 20/18 A2999 RMK TRACE SC FEW120 BKN250 DZ DST NE E CB DST S SW BECMG=
200812111400 METAR MROC 111400Z 09006KT 9999 FEW040 SCT080 BKN250 22/18 A3003 RMK DZ N NE BECMG=
200812111500 METAR MROC 111500Z 12006KT 9999 FEW040 BKN100 22/18 A3003 RMK FEW250 BECMG=
200812111600 METAR MROC 111600Z 08006KT 9999 FEW035 SCT120 BKN250 25/19 A3002 RMK DZ NE BECMG=
200812111700 METAR MROC 111700Z 09008KT 9999 SCT035 SCT120 BKN250 27/18 A2999 RMK RN S BECMG=
200812111800 METAR MROC 111800Z 09009KT 9999 SCT035 SCT120 BKN250 26/16 A2996=
200812111900 METAR MROC 111900Z 11011KT 9999 SCT035 BKN120 26/17 A2994 RMK FEW250 BECMG=
200812112000 METAR MROC 112000Z 10007KT 9999 SCT035 SCT120 BKN260 25/16 A2993 BECMG=
200812112100 METAR MROC 112100Z 10009KT 9999 FEW025 SCT120 BKN280 26/16 A2992 BECMG=
200812112200 METAR MROC NIL=
200812112300 METAR MROC NIL=
200812120000 METAR MROC 120000Z 09007KT CAVOK 21/17 A2997 TRACE SCT FEW280 BECMG=
200812120100 METAR MROC 120100Z 06010KT CAVOK 21/15 A2999 TRACE SCT CI BECMG=
200812120200 METAR MROC 120200Z 07012KT CAVOK 20/14 A3003 TRACE SCT AC BECMG=
200812120300 METAR MROC 120300Z 09011KT CAVOK 20/14 A3003 TRACE SCT SCT250 BECMG=
200812120400 METAR MROC 120400Z 10016KT CAVOK 20/13 A3003 RMK SCT250 BECMG=
200812120500 METAR MROC 120500Z 10015KT CAVOK 20/13 A3000 RMK SCT250 BECMG=
200812120600 METAR MROC 120600Z 10016KT CAVOK 21/13 A3000 BECMG=
200812120700 METAR MROC 120700Z 10016KT CAVOK 21/13 A2998 BECMG=
200812120800 METAR MROC 120800Z 09012KT CAVOK 21/13 A2997 BECMG=
200812120900 METAR MROC 120900Z 10015KT CAVOK 20/13 A2996 BECMG=
200812121000 METAR MROC 121000Z 11018KT CAVOK 20/13 A2997 BECMG=
200812121100 METAR MROC 121100Z 10014KT CAVOK 20/14 A2999 BECMG=
200812121200 METAR MROC 121200Z 09015KT CAVOK 20/14 A2999 RMK BKN250 CB DST SW BECMG=
200812121300 METAR MROC 121300Z 10011KT CAVOK 22/16 A3001 TRAZAS SCT BKN250 DZ NE BECMG=
200812121400 METAR MROC 121400Z 09011KT CAVOK 25/15 A3002 TRAZAS SC BKN250 BECMG=
200812121500 METAR MROC 121500Z 09011KT CAVOK 26/15 A3003 TRAZAS SCT BKN250 BECMG=
200812121600 METAR MROC 121600Z 10011KT CAVOK 26/16 A3003 TRAZAS SCT BKN250 BECMG=
200812121700 METAR MROC 121700Z 10010G20KT CAVOK 26/16 A3001 TRAZAS SCT BKN250 BECMG=
200812121800 METAR MROC 121800Z 09012G22KT 9999 FEW045 BKN250 26/16 A3000 FEW120 DZ NE BECMG=
200812121900 METAR MROC 121900Z 08013G23KT 9999 FEW045 BKN250 25/16 A2997 DZ NE N BECMG=
200812122000 METAR MROC 122000Z 07014G24KT 9999 FEW030 SCT045 BKN250 26/16 A2993 DZ N NE BECMG=
200812122100 METAR MROC 122100Z 08013KT 9999 FEW030 SCT045 BKN100 24/16 A2993 BECMG=
200812122200 METAR MROC 122200Z 10010KT 9999 FEW020 BKN040 23/18 A2995 RMK GUST 15KT BECMG=
200812122300 METAR MROC 122300Z 08010KT 9999 SCT025 BKN250 22/17 A2996 RMK PCPN N NE BECMG=
200812130000 METAR MROC 130000Z 07014KT 9999 FEW025 BKN250 22/16 A2996 BECMG=
200812130100 METAR MROC 130100Z 08014KT CAVOK 22/16 A2997 TRACE SCT SCT080 BECMG=
200812130200 METAR MROC 130200Z 08012KT CAVOK 22/17 A2999 TRACE SCT SCT080 BECMG=
200812130300 METAR MROC 130300Z 11010KT CAVOK 21/17 A3001 RMK TRACE SC SCT080 BECMG=
200812130400 METAR MROC 130400Z 09005KT CAVOK 21/17 A3001 RMK TRACE SC SCT080 BECMG=
200812130500 METAR MROC 130500Z 07009KT CAVOK 22/16 A3001 RMK TRACE SC SCT080 BECMG=
200812130600 METAR MROC 130600Z 05009KT CAVOK 21/16 A3001 RMK TRACE SC BKN100 BECMG=
200812130700 METAR MROC 130700Z 09003KT CAVOK 20/16 A2998 RMK TRACE SC BKN100 BECMG=
200812130800 METAR MROC 130800Z 06011KT CAVOK 20/15 A2996 RMK TRACE SC SCT100=
200812130900 METAR MROC 130900Z 09010KT CAVOK 20/14 A2994 RMK TRACE SC SCT100=
200812131000 METAR MROC 131000Z 09009KT CAVOK 19/14 A2994 RMK TRACE SC SCT100=
200812131100 METAR MROC 131100Z 06009KT CAVOK 19/14 A2998 RMK TRACE SC SCT100=
200812131200 METAR MROC 131200Z 07009KT 9999 FEW030 SCT080 18/14 A3000 RMK DZ N NE=
200812131300 METAR MROC 131300Z 07008KT 9999 SCT025 SCT090 19/14 A3002 RMK PCPN N NE BECMG=
200812131400 METAR MROC 131400Z 09011KT 9999 SCT025 BKN250 22/15 A3004 RMK PCPN N NE=
200812131500 METAR MROC 131500Z 09011KT 9999 SCT025 BKN250 22/15 A3005 RMK PCPN N NE BECMG=
200812131600 METAR MROC 131600Z 08011KT 9999 SCT025 SCT250 23/16 A3004 RMK PCPN N NE BECMG=
200812131700 METAR MROC 131700Z 09007KT 9999 SCT025 SCT250 24/16 A3002 RMK PCPN N NE BECMG=
200812131800 METAR MROC 131800Z 08010KT 9999 BKN020 24/17 A3001 RMK PCPN N NE BECMG=
200812131900 METAR MROC 131900Z 06009KT 9999 SCT020 SCT110 23/17 A2998 RMK PCPN N NE E BECMG=
200812132000 METAR MROC 132000Z 05004KT 9999 SCT020 BKN100 22/18 A2997 RERA RMK PCPN N NE E BECMG -RA=
200812132100 METAR MROC 132100Z 08004KT 9999 FEW025 SCT100 23/17 A2996 RMK SCT250 DZ DST NE E BECMG=
200812132200 METAR MROC 132200Z 10009KT 9999 SCT025 SCT100 22/17 A2996 RMK FEW250 DZ DST NE E SE BECMG=
200812132300 METAR MROC 132300Z 10006KT 9999 SCT025 SCT100 21/16 A2997 RMK RN DST N NE E SE BECMG=
200812140000 METAR MROC 140000Z 09008KT 9999 FEW015 SCT035 SCT100 20/17 A2999 RMK RN DST N NE E SE BECMG -DZ=
200812140100 METAR MROC 140100Z 10006KT 9999 FEW030 SCT100 20/17 A3000 RMK DZ DST NE SE BECMG=
200812140200 METAR MROC 140200Z 09008KT 9999 -DZ FEW030 BKN100 21/17 A3002 RMK RN DST NE E SE BECMG=
200812140300 METAR MROC 140300Z 10004KT 9999 FEW045 BKN120 20/17 A3005 BECMG=
200812140400 METAR MROC 140400Z 10006KT 9999 -RA FEW045 BKN100 20/18 A3004 BECMG=
200812140500 METAR MROC 140500Z 11006KT 9999 -DZRA FEW040 BKN100 20/18 A3003=
200812140600 METAR MROC 140600Z 11009KT 9999 FEW040 BKN110 21/18 A3000 RERA BECMG=
200812140700 METAR MROC 140700Z 10006KT CAVOK 21/18 A2998 TRZAS SCT BKN110 BECMG=
200812140800 METAR MROC 140800Z 07006KT 9999 FEW040 BKN110 21/17 A2999 BECMG=
200812140900 METAR MROC 140900Z 10006KT 9999 FEW040 BKN110 21/17 A3000 BECMG=
200812141000 METAR MROC 141000Z 10007KT 9999 FEW030 BKN110 20/17 A2999 BECMG=
200812141100 METAR MROC 141100Z 10009KT 9999 FEW030 BKN110 21/17 A2999 BECMG=
200812141200 METAR MROC 141200Z 11009KT 9999 FEW030 SCT100 21/17 A3001 SCT130 DZ NE BECMG=
200812141300 METAR MROC 141300Z 12007KT 9999 FEW030 BKN100 22/17 A3004 RMK DZ DST NE BECMG=
200812141400 METAR MROC 141400Z 10011KT 9999 FEW030 SCT100 24/17 A3006 RMK SCT250 DZ DST NE E BECMG=
200812141500 METAR MROC 141500Z 11006KT 9999 FEW035 SCT120 25/18 A3007 RMK FEW250 DZ DST NE BECMG=
200812141600 METAR MROC 141600Z 08011KT 9999 FEW035 SCT120 26/18 A3006 RMK FEW250 DZ DST NE BECMG=
200812141700 METAR MROC 141700Z 09012KT 9999 FEW030 SCT100 26/17 A3004 RMK FEW250 DZ DST N NE E BECMG=
200812141800 METAR MROC 141800Z 11008KT 9999 SCT030 SCT100 26/18 A3002 RMK DZ DST NE E BECMG=
200812141900 METAR MROC 141900Z 07015KT 9999 FEW035 SCT250 27/18 A2999 BECMG=
200812142000 METAR MROC 142000Z 06017KT 9999 FEW035 SCT250 27/17 A2997 RMK VEL MAX VTO 23KT DZ DST N NE E BECMG=
200812142100 METAR MROC 142100Z 06015KT 9999 FEW035 SCT250 27/18 A2996 BECMG=
200812142200 METAR MROC 142200Z 06014KT 9999 FEW035 26/17 A2996 BECMG=
200812142300 METAR MROC 142300Z 06017KT 9999 FEW035 24/17 A2999 BECMG=
200812142357 METAR MROC 150000Z 07015KT 9999 FEW035 23/17 A3000 BECMG=
200812150000 METAR MROC 150000Z 07015KT 9999 FEW035 23/17 A3000 BECMG=
200812150100 METAR MROC 150100Z 06016KT 9999 FEW035 22/16 A3003 BECMG=
200812150200 METAR MROC 150200Z 10010KT CAVOK 21/17 A3005 RMK TRACE SC BECMG=
200812150300 METAR MROC 150300Z 10010KT 9999 SCT035 21/17 A3008 RMK FEW250 BECMG=
200812150400 METAR MROC 150400Z 07004KT 9999 FEW035 FEW250 20/17 A3007 BECMG=
200812150500 METAR MROC 150500Z 05002KT 9999 FEW035 FEW250 19/16 A3006 BECMG=
200812150600 METAR MROC 150600Z 05005KT 9999 FEW035 19/17 A3005 BECMG=
200812150700 METAR MROC 150700Z 07003KT 9999 FEW035 18/17 A3004 BECMG=
200812150800 METAR MROC 150800Z 07006KT 9999 FEW035 18/16 A3002 BECMG=
200812150900 METAR MROC 150900Z 07006KT 9999 FEW035 18/15 A3001 BECMG=
200812151000 METAR MROC 151000Z 08008KT CAVOK 19/15 A3001 RMK TRACE SC BECMG=
200812151100 METAR MROC 151100Z 19919KT CAVOK 19/15 A3002 RMK TRACE SC BECMG=
200812151200 METAR MROC 151200Z 09010KT 9999 FEW030 SCT130 19/15 A3004 BECMG=
200812151300 METAR MROC 151300Z 10013KT CAVOK 20/15 A3006 RMK TRAZAS SC SCT280 BECMG=
200812151400 METAR MROC 151400Z 11016KT CAVOK 23/15 A3007 RMK TRAZAS CU SCT280 BECMG=
200812151500 METAR MROC 151500Z 10015KT CAVOK 24/16 A3008 RMK TRACE SC SCT250 BECMG=
200812151600 METAR MROC 151600Z 08014KT CAVOK 25/15 A3002 RMK TRAZAS SC SCT250 BECMG=
200812151700 METAR MROC 151700Z 10014KT 9999 FEW035 26/13 A3007 RMK TRAZAS CI BECMG=
200812151800 METAR MROC 151800Z 07012KT 9999 FEW035 27/11 A3005 BECMG=
200812151900 METAR MROC 151900Z 06012KT 9999 FEW035 27/14 A3003 BECMG=
200812152000 METAR MROC 152000Z 05013KT 9999 FEW035 28/14 A3000 RMK TRAZAS CI CS BECMG=
200812152100 METAR MROC 152100Z 06014KT 9999 FEW035 27/13 A2999 RMK TRACE CI BECMG=
200812152200 METAR MROC 152200Z 07011KT 9999 FEW040 26/14 A2999 RMK TRACE CI VEL MX VTO 17KT BECMG=
200812152300 METAR MROC 152300Z 07010KT 9999 FEW040 24/14 A3000 RMK FEW250 BECMG=
200812160000 METAR MROC 160000Z 06008KT 9999 FEW040 SCT250 22/13 A3002 VEL MX VTO 14KT BECMG=
200812160100 METAR MROC 160100Z 09005KT 9999 FEW035 SCT250 21/15 A3004 BECMG=
200812160200 METAR MROC 160200Z 08008KT 9999 FEW035 20/15 A3006 BECMG=
200812160300 METAR MROC 160300Z 10005KT CAVOK 20/14 A3007 RMK TRACE SC=
200812160400 METAR MROC 160400Z 11006KT CAVOK 19/14 A3008 RMK TRACE SC BECMG=
200812160500 METAR MROC 160500Z 09007KT CAVOK 19/14 A3006 RMK TRACE SC BECMG=
200812160600 METAR MROC 160600Z 08009KT CAVOK 19/14 A3004 RMK TRACE SC BECMG=
200812160700 METAR MROC 160700Z 14004KT CAVOK 18/14 A3003 RMK SCT250 BECMG=
200812160800 METAR MROC 160800Z 09006KT CAVOK 18/14 A3002 RMK SCT250=
200812160900 METAR MROC 160900Z 07005KT CAVOK 18/14 A3001 RMK SCT250 LGTN DST SW=
200812161000 METAR MROC 161000Z 07004KT CAVOK CAVOK 19/13 A3002 RMK SCT250=
200812161100 METAR MROC 161100Z 11007KT CAVOK 19/14 A3002 RMK SCT120 FEW250=
200812161200 METAR MROC 161200Z 12008KT CAVOK 19/14 A3004 RMK TRACE SC SCT100 FEW250=
200812161300 METAR MROC 161300Z 07006KT CAVOK 21/14 A3005 RMK TRACE SC CI FEW100 DZ DST N BECMG=
200812161400 METAR MROC 161400Z 11009KT CAVOK 23/15 A3006 TRACE SCT FEW100 SCT250 BECMG=
200812161500 METAR MROC 161500Z 07011KT 9999 FEW045 SCT250 26/16 A3007 RMK TRACE AC PCPN DIST N NE BECMG=
200812161600 METAR MROC 161600Z 10011KT 9999 FEW045 SCT250 25/16 A3005 RMK PCPN DST N NE BECMG=
200812161700 METAR MROC 161700Z 11011KT 9999 FEW045 BKN250 26/17 A3004 RMK VEL MX VTO 18KT BECMG=
200812161800 METAR MROC 161800Z 07008KT 9999 SCT045 SCT070 26/17 A3002 RMK PCPN DST N NE SE BECMG=
200812161900 METAR MROC 161900Z 10007KT 9999 FEW045 SCT070 26/17 A2999 RMK PCPN DST N NE BECMG=
200812162000 METAR MROC 162000Z 08009KT 9999 FEW040 SCT250 27/17 A2995 RMK DZ DST NE BECMG=
200812162100 METAR MROC 162100Z 07011KT 9999 SCT040 SCT080 25/16 A2995 DZ NE BECMG=
200812162200 METAR MROC 162200Z 10007KT 9999 SCT040 SCT080 25/16 A2995 BECMG=
200812162300 METAR MROC 162300Z 09007KT 9999 FEW035 SCT230 23/16 A2993 DZ NE BECMG=
200812170000 METAR MROC 170000Z 09006KT 9999 FEW035 SCT230 22/15 A2998 BECMG=
200812170100 METAR MROC 170100Z 08007KT CAVOK 22/14 A3000 TRZAS SCT SCT250 BECMG=
200812170200 METAR MROC 170200Z 08011KT CAVOK 21/14 A3003 TRAZAS SCT FEW250 BECMG=
200812170300 METAR MROC 170300Z 08009KT CAVOK 21/15 A3003 BECMG=
200812170400 METAR MROC 170400Z 08012KT CAVOK 21/15 A3004 BECMG=
200812170500 METAR MROC 170500Z 10010KT CAVOK 21/15 A3003 BECMG=
200812170600 METAR MROC 170600Z 10009KT CAVOK 20/15 A3002 BECMG=
200812170700 METAR MROC 170700Z 07012KT CAVOK 21/15 A3000 BECMG=
200812170800 METAR MROC 170800Z 06014KT CAVOK 21/14 A2998 BECMG=
200812170900 METAR MROC 170900Z 08008KT CAVOK 20/15 A2997 BECMG=
200812171000 METAR MROC 171000Z 10011KT CAVOK 20/14 A3000 BECMG=
200812171100 METAR MROC 171100Z 08010KT CAVOK 19/14 A3000 BECMG=
200812171200 METAR MROC 171200Z 08008KT CAVOK 18/14 A3000 RMK TRACE SC BECMG=
200812171300 METAR MROC 171300Z 07011KT CAVOK 21/13 A3001 RMK FEW280 BECMG=
200812171400 METAR MROC 171400Z 08013KT 9999 FEW030 22/15 A3003 BECMG=
200812171500 METAR MROC 171500Z 08014KT 9999 FEW030 24/13 A3005 BECMG=
200812171600 METAR MROC 171600Z 07014KT 9999 FEW030 25/13 A3004 BECMG=
200812171700 METAR MROC 171700Z 07012KT 9999 FEW030 26/13 A3003 BECMG=
200812171800 METAR MROC 171800Z 07014KT 9999 FEW030 SCT045 25/13 A3000 DZ NE BECMG=
200812171900 METAR MROC 171900Z 07013KT 9999 BKN040 24/12 A2998 DZ NE BECMG=
200812172000 METAR MROC 172000Z 09007KT 9999 FEW030 SCT050 24/17 A2996 DZ NW N NE BECMG=
200812172100 METAR MROC 172100Z 10006KT 9999 BKN025 24/17 A2995 RMK PCPN N NE BECMG=
200812172200 METAR MROC 172200Z 09009KT 9999 FEW012 BKN025 22/16 A2996 RMK PCPN N NE BECMG=
200812172300 METAR MROC 172300Z 08008KT 9999 FEW012 BKN025 21/15 A2997 RMK PCPN N NE BECMG=
200812180000 METAR MROC 180000Z 12007KT 9999 SCT025 20/15 A2998 BECMG=
200812180100 METAR MROC 180100Z 09007KT 9999 SCT025 20/15 A3001 BECMG=
200812180200 METAR MROC 180200Z 10007KT 9999 SCT025 20/15 A3003 BECMG=
200812180300 METAR MROC 180300Z 10008KT 9999 FEW030 20/15 A3005 BECMG=
200812180400 METAR MROC 180400Z 10006KT 9999 FEW030 20/14 A3005 BECMG=
200812180500 METAR MROC 180500Z 11007KT CAVOK 20/14 A3004 RMK TRACE SC AC=
200812180600 METAR MROC 180600Z 11006KT CAVOK 19/14 A3003 RMK TRACE SC BECMG=
200812180700 METAR MROC 180700Z 11007KT CAVOK 19/13 A3002 RMK TRACE SC BECMG=
200812180800 METAR MROC 180800Z 12006KT CAVOK 19/13 A3000 RMK TRACE SC=
200812180900 METAR MROC 180900Z 11006KT CAVOK 19/13 A2999 RMK TRACE SC CI=
200812181000 METAR MROC 181000Z 10007KT CAVOK 19/13 A2999 RMK TRACE SC AC=
200812181100 METAR MROC 181100Z 09006KT CAVOK 19/13 A3000 RMK TRACE SC FEW100=
200812181200 METAR MROC 181200Z 06002KT 9999 FEW035 SCT100 19/13 A3002 RMK PCPN DST NW N NE E=
200812181300 METAR MROC 181300Z 09008KT 9999 FEW030 SCT100 20/15 A3005 RMK PCPN N NE GUST 13KT BECMG=
200812181400 METAR MROC 181400Z 12009KT 9999 FEW025 SCT100 23/15 A3008 RMK PCPN NE E GUST 15KT BECMG=
200812181500 METAR MROC 181500Z 10010KT 9999 FEW025 SCT035 23/16 A3009 RMK PCPN N NE E GUST 15KT BECMG=
200812181600 METAR MROC 181600Z 11010KT 9999 SCT035 SCT100 23/16 A3009 RMK PCPN N NE E GUST 15KT BECMG=
200812181700 METAR MROC 181700Z 10011KT 9999 SCT035 BKN090 23/14 A3008 RMK PCPN N NE E GUST 16KT BECMG=
200812181800 METAR MROC 181800Z 09012KT 9999 FEW030 SCT090 24/15 A3005 RMK PCPN N NE E GUST 17KT BECMG=
200812181900 METAR MROC 181900Z 07016KT 9999 SCT025 25/13 A3001 RMK PCPN NE E BECMG=
200812182000 METAR MROC 182000Z 06016KT 9999 SCT030 25/12 A2998 BECMG=
200812182100 METAR MROC 182100Z 07015KT 9999 FEW035 25/11 A2997 BECMG=
200812182200 METAR MROC 182200Z 10012G22KT 9999 FEW035 24/12 A2997 BECMG=
200812182300 METAR MROC 182300Z 09013G23KT 9999 FEW035 23/11 A2998 BECMG=
200812190000 METAR MROC 190000Z 07011KT 9999 FEW035 21/12 A3002 BECMG=
200812190100 METAR MROC 190100Z 08010KT 9999 FEW040 SCT080 20/14 A3004 VEL/ MAX VIENTO 14KTS BECMG=
200812190200 METAR MROC 190200Z 08008KT 9999 FEW040 20/14 A3007 TRACE AC BECMG=
200812190300 METAR MROC 190300Z 08003KT CAVOK 19/14 A3008 TRAZAS SCT FEW300 BECMG=
200812190400 METAR MROC 190400Z 11009KT CAVOK 19/15 A3007 TRAZAS SCT BECMG=
200812190500 METAR MROC 190500Z 11008KT CAVOK 19/14 A3008 TRAZAS SCT FEW080 BECMG=
200812190600 METAR MROC 190600Z 10004KTG 9999 FEW040 19/14 A3006 NOPSIG=
200812190700 METAR MROC 190700Z 11008KT 9999 SCT040 19/14 A3005 BECMG=
200812190800 METAR MROC 190800Z 11006KT 9999 FEW040 19/14 A3004=
200812190900 METAR MROC 190900Z 10008KT 9999 FEEW040 19/14 A3004=
200812191000 METAR MROC 191000Z 11007KT 9999 FEW035 19/15 A3004=
200812191100 METAR MROC 191100Z 11008KT 9999 FEW035 SCT080 19/15 A3005=
200812191200 METAR MROC 191200Z 11008KT 9999 FEW035 SCT090 19/15 A3006 DZ N NE=
200812191300 METAR MROC 191300Z 10009KT 9999 FEW030 SCT090 20/15 A3007 BECMG=
200812191400 METAR MROC 191400Z 08016KT 9999 FEW035 22/16 A3008 BECMG=
200812191500 METAR MROC 191500Z 08010KT 9999 FEW040 24/15 A3009 RMK VEL MAX VTO 17KT BECMG=
200812191600 METAR MROC 191600Z 07016KT 9999 FEW035 25/13 A3008 RMK VEL  MAX  VTO 22KT BECMG=
200812191700 METAR MROC 191700Z 07013G23KT 9999 FEW040 26/14 A3005 BECMG=
200812191800 METAR MROC 191800Z 06013KT 9999 SCT035 26/15 A3005 RMK VEL  MAX  VTO 19KT BECMG=
200812191900 METAR MROC 191900Z 08012KT 9999 SCT030 25/14 A3002 BECMG=
200812192000 METAR MROC 192000Z 06013KT 9999 SCT030 26/13 A2999 BECMG=
200812192100 METAR MROC 192100Z 06015KT 9999 SCT030 27/15 A2998 BECMG=
200812192200 METAR MROC 192200Z 07011KT 9999 SCT030 23/16 A2998 BECMG=
200812192300 METAR MROC 192300Z 10008KT 9999 FEW025 23/16 A2999 BECMG=
200812192355 METAR MROC 200000Z 10008KT 9999 FEW025 22/16 A3002 BECMG=
200812192358 METAR MROC 200000Z 10008KT 9999 FEW025 22/16 A3002 BECMG=
200812200000 METAR MROC 200000Z 10008KT 9999 FEW025 22/16 A3002 BECMG=
200812200100 METAR MROC 200100Z 11006KT -DZ FEW025 SCT100 21/17 A3004 BECMG=
200812200200 METAR MROC 200200Z 10007KT CAVOK 21/16 A3006 RMK TRACE SC FEW090 REDZ BECMG=
200812200300 METAR MROC 200300Z 08006KT 9999 SCT035 BKN100 21/17 A3006 BECMG=
200812200400 METAR MROC 200400Z 07006KT 9999 FEW035 SCT100 20/16 A3005 BECMG=
200812200500 METAR MROC 200500Z 10005KT 9999 FEW030 SCT120 20/16 A3005 BECMG=
200812200600 METAR MROC 200600Z 08005KT 9999 FEW030 SCT120 20/17 A3003 BECMG=
200812200700 METAR MROC 200700Z 08005KT 9999 FEW030 SCT120 20/16 A3004 BECMG=
200812200800 METAR MROC 200800Z 09004KT 9999 FEW030 SCT100 19/17 A3000 BECMG=
200812200900 METAR MROC 200900Z 04005KT 9999 FEW030 SCT100 19/17 A2999 BECMG=
200812201000 METAR MROC 201000Z 13005KT 9999 FEW030 SCT100 19/16 A3000 BECMG=
200812201100 METAR MROC 201100Z 09010KT 9999 FEW030 SCT100 20/15 A3000 RMK GUST 15KT BECMG=
200812201200 METAR MROC 201200Z 09010KT 9999 SCT025 19/15 A3002 RMK TRACE AC BECMG=
200812201300 METAR MROC 201300Z 10015KT 9999 FEW030 20/15 A3004 BECMG=
200812201400 METAR MROC 201400Z 08017KT 9999 FEW030 22/14 A3006 BECMG=
200812201500 METAR MROC 201500Z 08013KT CAVOK 24/15 A3007 RMK TRAZAS SC BECMG=
200812201600 METAR MROC 201600Z 07014KT CAVOK 25/15 A3005 RMK TRAZAS SC BECMG=
200812201700 METAR MROC 201700Z 07014KT CAVOK 25/15 A3002 RMK TRACE SC BECMG=
200812201800 METAR MROC 201800Z 10013KT CAVOK 26/14 A3000 TRAZAS SCT BECMG=
200812201900 METAR MROC 201900Z 10013KT CAVOK 26/15 A2998 RMK TRACE SC BECMG=
200812202000 METAR MROC 202000Z 09013KT 9999 FEW030 25/15 A2995 BECMG=
200812202100 METAR MROC 202100Z 08011KT 9999 FEW035 25/14 A2994 RMK TRACE AC VEL MX VTO 17KT BECMG=
200812202200 METAR MROC 202200Z 08010KT 9999 FEW035 25/14 A2994 RMK TRACE AC PCPN DST N BECMG=
200812202300 METAR MROC 202300Z 07010KT 9999 FEW035 23/14 A2996 RMK PCPN DST N BECMG=
200812210000 METAR MROC 210000Z 12008KT 9999 FEW035 20/15 A2998 BECMG=
200812210100 METAR MROC 210100Z 10007KT 9999 FEW035 19/15 A3001 BECMG=
200812210200 METAR MROC 210200Z 08009KT 9999 FEW035 19/14 A3003 BECMG=
200812210300 METAR MROC 210300Z 06014KT 9999 FEW035 19/14 A3004 BECMG=
200812210400 METAR MROC 210400Z 10008KT CAVOK 19/14 A3004 RMK TRACE SC BECMG=
200812210500 METAR MROC 210500Z 12006KT CAVOK 19/13 A3002 RMK TRACE SC BECMG=
200812210600 METAR MROC 210600Z 11008KT CAVOK 18/13 A3001 RMK TRACE SC BECMG=
200812210700 METAR MROC 210700Z 09008KT CAVOK 18/13 A2998 RMK TRACE SC BECMG=
200812210800 METAR MROC 210800Z 07004KT CAVOK 17/13 A2997 RMK TRACE SC BECMG=
200812210900 METAR MROC 210900Z 05005KT CAVOK 17/13 A2997 RMK TRACE SC BECMG=
200812211000 METAR MROC 211000Z 03006KT CAVOK 16/13 A2998 RMK TRACE SC BECMG=
200812211100 METAR MROC 211100Z 07005KT CAVOK 16/13 A2999 RMK TRACE SC=
200812211200 METAR MROC 211200Z 06008KT CAVOK 18/13 A3000 RMK TRACE SC=
200812211300 METAR MROC 211300Z 03004KT CAVOK 19/13 A3002 RMK TRACE SC BECMG=
200812211400 METAR MROC 211400Z 10006KT CAVOK 22/14 A3002 RMK TRACE SC=
200812211500 METAR MROC 211500Z 12011KT CAVOK 23/13 A3002 TRACE SCT BECMG=
200812211600 METAR MROC 211600Z 12011KT CAVOK 25/14 A3000 TRACE SCT FEW100 VEL MX VTO 18KT BECMG=
200812211700 METAR MROC 211700Z 11011KT CAVOK 27/15 A2999 RMK TRACE SC FEW120 MX VEL VTO 18KT BECMG=
200812211800 METAR MROC 211800Z 11009KT 9999 FEW040 27/15 A2997 RMK FEW120=
200812211900 METAR MROC 211900Z 12008KT 9999 SCT040 27/15 A2995 RMK FEW070 BECMG=
200812212000 METAR MROC 212000Z 14006KT 9999 FEW040 27/16 A2993 RMK FEW070 BECMG=
200812212100 METAR MROC 212100Z 23008KT 9999 FEW040 26/19 A2993 BECMG=
200812212200 METAR MROC 212200Z 23007KT 9999 SCT035 25/18 A2994 BECMG=
200812212300 METAR MROC 212300Z 12004KT 9999 FEW020 SCT035 23/16 A2995 BECMG=
200812220000 METAR MROC 220000Z 06003KT 9999 FEW025 SCT040 22/17 A2997 BECMG=
200812220100 METAR MROC 220100Z 10005KT 9999 FEW030 SCT040 21/17 A2999 BECMG=
200812220200 METAR MROC 220200Z 09007KT 9999 FEW030 SCT080 21/16 A3001 BECMG=
200812220300 METAR MROC 220300Z 10007KT CAVOK 20/16 A3005 RMK TRACE SC AC BECMG=
200812220400 METAR MROC 220400Z 05009KT CAVOK 20/15 A3003 RMK TRAZAS SC BECMG=
200812220500 METAR MROC 220500Z 04004KT CAVOK 19/15 A3002 BECMG=
200812220600 METAR MROC 220600Z 09002KT CAVOK 18/15 A3001 BECMG=
200812220700 METAR MROC 220700Z 09003KT CAVOK 18/15 A2999 BECMG=
200812220800 METAR MROC 220800Z 06008KT CAVOK 18/15 A2997 BECMG=
200812220900 METAR MROC 220900Z 05006KT CAVOK 18/15 A2998 BECMG=
200812221000 METAR MROC 221000Z 08008KT CAVOK 18/15 A3000 BECMG=
200812221100 METAR MROC 221100Z 05004KT CAVOK 16/14 A3002 BECMG=
200812221200 METAR MROC 221200Z 06008KT CAVOK 19/15 A3003 RMK TRAZAS SC CI BECMG=
200812221300 METAR MROC 221300Z 07003KT CAVOK 21/15 A3005 TRAZAS SCT FEW090 BECMG=
200812221400 METAR MROC 221400Z 11010KT CAVOK 23/15 A3006 TRAZAS SCT FEW100 BECMG=
200812221500 METAR MROC 221500Z 10011KT CAVOK 24/15 A3007 TRAZAS SCT FEW250 BECMG=
200812221600 METAR MROC 221600Z 09011KT 9999 FEW035 25/15 A3006 BECMG=
200812221700 METAR MROC 221700Z 09010KT 9999 FEW030 26/15 A3005 BECMG=
200812221800 METAR MROC 221800Z 10008KT 9999 FEW030 SCT250 27/15 A3002 BECMG=
200812221900 METAR MROC 221900Z 10011KT 9999 FEW030 SCT130 27/14 A3000 BECMG=
200812222000 METAR MROC 222000Z 11009KT 9999 FEW030 SCT130 27/15 A2998 BECMG=
200812222100 METAR MROC 222100Z 11010KT 9999 FEW030 BKN130 25/15 A2997 RMK PCPN NE BECMG=
200812222200 METAR MROC 222200Z 12009KT 9999 SCT025 BKN120 24/15 A2997 RMK PCPN NE BECMG=
200812222300 METAR MROC 222300Z 13005KT 9999 SCT025 BKN120 23/16 A2999 RMK PCPN NE BECMG=
200812230000 METAR MROC 230000Z 09007KT 9999 SCT025 BKN120 21/10 A3002 BECMG=
200812230100 METAR MROC 230100Z 11008KT 9999 SCT025 BKN120 21/16 A3005 RMK GUST 16KT BECMG=
200812230200 METAR MROC 230200Z 10008KT 9999 FEW025 SCT110 20/15 A3006 RMK GUST 15KT BECMG=
200812230300 METAR MROC 230300Z 11008KT 9999 FEW030 SCT130 20/16 A3007 BECMG=
200812230400 METAR MROC 230400Z 11008KT 9999 FEW035 SCT130 20/15 A3008 BECMG=
200812230500 METAR MROC 230500Z 10010KT 9999 FEW035 SCT130 20/15 A3006 BECMG=
200812230600 METAR MROC 230600Z 10010G20KT CAVOK 20/15 A3004 RMK TRACE SCT SCT130 BECMG=
200812230700 METAR MROC 230700Z 08009KT CAVOK 19/15 A3003 RMK TRACE SC SCT130 VEL MX VTO 17KT BECMG=
200812230800 METAR MROC 230800Z 06005KT CAVOK 19/15 A3002 RMK TRACE SC FEW130=
200812230900 METAR MROC 230900Z 06006KT CAVOK 19/15 A3001 RMK TRACE SC AC SCT250=
200812231000 METAR MROC 231000Z 05005KT CAVOK 18/15 A3001 RMK TRACE SC SCT250=
200812231100 METAR MROC 231100Z 05004KT CAVOK 18/14 A3002 RMK TRACE SC CI FEW120=
200812231200 METAR MROC 231200Z 07005KT CAVOK 19/14 A3003 RMK TRACE SC SCT120=
200812231300 METAR MROC 231300Z 07005KT CAVOK 20/14 A3005 RMK TRACE SC SCT120 BECMG=
200812231400 METAR MROC 231400Z 12010KT CAVOK 23/14 A3006 RMK TRACE SC BECMG=
200812231500 METAR MROC 231500Z 11010KT CAVOK 25/14 A3007 RMK TRACE SC BECMG=
200812231600 METAR MROC 231600Z 10010KT 9999 FEW040 26/14 A3007 BECMG=
200812231700 METAR MROC 231700Z 09009KT 9999 SCT035 26/15 A3006 BECMG=
200812231800 METAR MROC 231800Z 08010KT 9999 SCT035 27/14 A3004 BECMG=
200812231900 METAR MROC 231900Z 07011KT 9999 FEW030 27/15 A3001 BECMG=
200812232000 METAR MROC 232000Z 07009KT 9999 SCT030 27/14 A2998 BECMG=
200812232100 METAR MROC 232100Z 09009KT 9999 SCT030 27/14 A2996 BECMG=
200812232200 METAR MROC 232200Z 09010KT 9999 SCT030 25/14 A2997 BECMG=
200812232300 METAR MROC 232300Z 11007KT 9999 FEW030 23/15 A2998 BECMG=
200812240000 METAR MROC 240000Z 10005KT 9999 FEW035 21/15 A3001 BECMG=
200812240100 METAR MROC 240100Z 11008KT CAVOK 20/13 A3003 TRACE SCT BECMG=
200812240200 METAR MROC 240200Z 10010KT CAVOK 20/12 A3006 TRACE SCT BECMG=
200812240300 METAR MROC 240300Z 11008KT CAVOK 20/14 A3006 TRAZAS SCT/AC BECMG=
200812240400 METAR MROC 240400Z 08008KT CAVOK 20/13 A3006 TRAZAS SCT FEW100 BECMG=
200812240500 METAR MROC 240500Z 09010KT CAVOK 20/14 A3005 TRAZAS SCT BECMG=
200812240600 METAR MROC 240600Z 09008KT CAVOK 20/15 A3005 TRAZAS SCT BECMG=
200812240700 METAR MROC 240700Z 109007KT CAVOK 20/14 A3003 TRAZAS SC=
200812240800 METAR MROC 240800Z 11008KT CAVOK 20/15 A3002 TRAZAS SC FEW100=
200812240900 METAR MROC NIL=
200812241000 METAR MROC 241000Z 241000A 11008KT CAVOK 20/15 A3001 TRAZAS SCT SCT120=
200812241100 METAR MROC 241100Z 12008KT CAVOK 20/15 A3002 TRAZAS SCT FEW100=
200812241200 METAR MROC 241200Z 11007KT CAVOK 21/16 A3003 TRAZAS SCT FEW100=
200812241300 METAR MROC 241300Z 12007KT 9999 FEW040 22/16 A3005 RMK FEW100 BECMG=
200812241400 METAR MROC 241400Z 10008KT 9999 FEW035 24/15 A3008 RMK FEW120 BECMG=
200812241500 METAR MROC 241500Z 10011KT 9999 FEW035 25/15 A3008 BECMG=
200812241600 METAR MROC 241600Z 09009KT 9999 FEW045 26/16 A3007 RMK VEL MAX  VTO 18KT BECMG=
200812241700 METAR MROC 241700Z 09010KT 9999 SCT030 SCT100 27/16 A3006 RMK VEL MAX VTO  16KT BECMG=
200812241800 METAR MROC 241800Z 07010G20KT 9999 FEW030 SCT100 27/15 A3004 BECMG=
200812241900 METAR MROC 241900Z 06010G20KT 9999 SCT030 SCT100 26/16 A3001 BECMG=
200812242000 METAR MROC 242000Z 06013G23KT 9999 SCT030 27/16 A2999 RMK FEW100 BECMG=
200812242100 METAR MROC 242100Z 07011KT 9999 SCT030 26/16 A2997 RMK FEW100 BECMG=
200812242200 METAR MROC 242200Z 06016KT 9999 FEW030 25/16 A2998 BECMG=
200812242300 METAR MROC 242300Z 08012KT 9999 FEW025 24/15 A2999 BECMG=
200812242350 METAR MROC 250000Z 08010KT 9999 FEW025 23/14 A3000 BECMG=
200812250000 METAR MROC 250000Z 08010KT 9999 FEW025 23/14 A3000 BECMG=
200812250100 METAR MROC 250100Z 08010KT CAVOK 22/15 A3002 TRACE SCT BECMG=
200812250200 METAR MROC 250200Z 10010KT CAVOK 21/15 A3004 TRACE SCT BECMG=
200812250300 METAR MROC 250300Z 10008KT CAVOK 21/14 A3004 RMK TRACE SC BECMG=
200812250400 METAR MROC 250400Z 09009KT CAVOK 21/15 A3004 RMK TRACE SC BECMG=
200812250500 METAR MROC 250500Z 10009KT CAVOK 21/15 A3004 RMK TRACE SC BECMG=
200812250600 METAR MROC 250600Z 08010KT CAVOK 21/15 A3001 RMK TRACE SC BECMG=
200812250700 METAR MROC NIL=
200812250800 METAR MROC NIL=
200812250900 METAR MROC 250900Z 10008KT 9999 SCT030 20/16 A3000 BECMG=
200812251000 METAR MROC 251000Z 09006KT SCT035 20/15 A2997 BECMG=
200812251100 METAR MROC 251100Z 09008KT 9999 FEW030 20/15 A2999 BECMG=
200812251200 METAR MROC 251200Z 09010KT 9999 SCT030 21/16 A3002 BECMG=
200812251300 METAR MROC 251300Z 10008KT 9999 SCT030 22/16 A3004 BECMG=
200812251400 METAR MROC 251400Z 10011KT 9999 FEW030 24/16 A3006 RMK FEW AC CI BECMG=
200812251500 METAR MROC 251500Z 07010KT 9999 FEW030 26/15 A3007 RMK TRAZAS CI BECMG=
200812251600 METAR MROC 251600Z 06016KT 9999 FEW030 27/14 A3006 RMK TRACES CI VEL MAX WIND 22 KTS BECMG=
200812251700 METAR MROC 251700Z 09015KT 9999 FEW035 SCT250 27/17 A3004 BECMG=
200812251800 METAR MROC 251800Z 08011KT 9999 FEW035 26/16 A3001 RMK TRACE CI BECMG=
200812251900 METAR MROC 251900Z 09011KT 9999 FEW035 28/15 A2998 RMK TRACE CI BECMG=
200812252000 METAR MROC 252000Z 09012KT CAVOK 28/15 A2997 RMK SCT250 TRACES CU BECMG=
200812252100 METAR MROC 252100Z 06018KT 9999 FEW015CB SCT120 28/16 A2995 RMK RN NE BECMG=
200812252200 METAR MROC 252200Z 08010KT 9999 SCT030 BKN100 26/17 A2996 BECMG=
200812252300 METAR MROC 252300Z 09009KT 9999 SCT030 BKN100 23/18 A2997 RMK DZ N BECMG=
200812260000 METAR MROC 260000Z 10004KT 9999 FEW030 BKN100 23/17 A2999 BECMG=
200812260100 METAR MROC 260100Z 10006KT 9999 FEW030 BKN070 22/18 A3001 BECMG=
200812260200 METAR MROC 260200Z 00000KT 9999 FEW030 BKN070 22/18 A3004 BECMG=
200812260300 METAR MROC 260300Z 07004KT 9999 FEW030 21/19 A3006 BECMG=
200812260400 METAR MROC 260400Z 10006KT CAVOK 20/17 A3005 RMK TRACE SC BECMG=
200812260500 METAR MROC 260500Z 06002KT CAVOK 21/17 A3005 RMK TRACE SC FEW100 BECMG=
200812260600 METAR MROC 260600Z 10004KT 9999 FEW035 21/17 A3004 BECMG=
200812260700 METAR MROC 260700Z 07003KT 9999 FEW025 SCT090 20/18 A3002 BECMG=
200812260800 METAR MROC 260800Z 36002KT 9999 -DZ SCT030 SCT090 20/18 A3000=
200812260900 METAR MROC 260900Z 24005KT 9999 1000SW BR RO7/0200 FEW001 SCT030 SCT090 19/19 A2999=
200812261000 METAR MROC 261000Z 30003KT 9999 VCFG FEW005 SCT020 19/19 A3000 RMK VIS 7000SW FEW090=
200812261100 METAR MROC 261100Z 00000KT 9999 4000SW DZ BR FEW005 SCT020 19/19 A3001 RMK FEW090=
200812261200 METAR MROC 261200Z 01002KT 6000 -RA FEW008 SCT020 SCT080 19/19 A3002 RMK VIS 4000 NE E RA=
200812261300 METAR MROC 261300Z 04002KT 9999 FEW010 BKN035 20/19 A3003 RERA RMK RN N NE=
200812261400 METAR MROC 261400Z VRB03KT 9999 FEW010 BKN035 22/20 A3005 RMK RN N NE BECMG=
200812261500 METAR MROC 261500Z 26005KT 9999 FEW010 BKN035 22/20 A3006 RMK RN N NE BECMG=
200812261600 METAR MROC 261600Z 29007KT 9999 FEW015 BKN030 22/20 A3006 RMK RN N NE E BECMG=
200812261700 METAR MROC 261700Z 08009KT 9999 FEW015 SCT030 BKN070 24/17 A3004 RMK RN N NE BECMG=
200812261800 METAR MROC 261800Z 07014KT 9999 SCT030 BKN070 26/16 A3002 RMK RN NE BECMG=
200812261900 METAR MROC 261900Z 09009KT 9999 SCT030 SCT070 25/16 A2999 RMK RN N NE BECMG=
200812262000 METAR MROC 262000Z 09009KT 9999 FEW040 SCT070 26/16 A2997 RMK R2 SCT030 24/16 A2995 RMK RN N NE=
200812262100 METAR MROC 262100Z 08011KT 9999 BKN045 23/14 A2998 DZ NW N NE E BECMG=
200812262200 METAR MROC 262200Z 07012KT 9999 BKN045 24/13 A2997 DZ NW N NE BECMG=
200812262300 METAR MROC 262300Z 07009KT 9999 BKN045 22/14 A2998 DZ NW N NE BECMG=
200812270000 METAR MROC 270000Z 10008KT 9999 SCT040 SCT250 21/14 A3000 DZ NW N NE BECMG=
200812270100 METAR MROC 270100Z 09010KT 9999 SCT040 SCT080 21/15 A3003 BECMG=
200812270200 METAR MROC 270200Z 10010KT 9999 FEW040 SCT080 21/16 A3004 BECMG=
200812270300 METAR MROC 270300Z 10011KT CAVOK 20/14 A3005 RMK FEW080 BECMG=
200812270400 METAR MROC 270400Z 10014KT CAVOK 20/16 A3004 RMK TRACES CU SC BECMG=
200812270500 METAR MROC 270500Z 10016KT CAVOK 20/15 A3003 RMK TRACES SC CI BECMG=
200812270600 METAR MROC 270600Z 10015KT CAVOK 20/15 A3002 RMK TRAZAS CI BECMG=
200812270700 METAR MROC 270700Z 08007KT CAVOK 20/15 A3000 RMK TRACE CI BECMG=
200812270800 METAR MROC 270800Z 05006KT CAVOK 19/15 A2998 RMK TRACES CI BECMG=
200812270900 METAR MROC 270900Z 03003KT CAVOK 17/14 A2996 RMK TRACE CU SC BECMG=
200812271000 METAR MROC 271000Z 35004KT CAVOK 17/13 A2997 RMK TRACE CU SC BECMG=
200812271100 METAR MROC 271100Z 36004KT CAVOK 17/14 A2998 RMK TRACE CU SC BECMG=
200812271200 METAR MROC 271200Z 09009KT CAVOK 20/14 A2998 RMK TRACE CU SC RN DST N NE BECMG=
200812271300 METAR MROC 271300Z 07013KT CAVOK 22/14 A2999 TRAZAS SCT BECMG=
200812271400 METAR MROC 271400Z 09015KT 9999 FEW030 23/15 A3001 BECMG=
200812271500 METAR MROC 271500Z 08019KT CAVOK 24/14 A3002 TRAZAS SCT BECMG=
200812271600 METAR MROC 271600Z 09016G26KT CAVOK 25/11 A3002 TRAZAS SC BECMG=
200812271700 METAR MROC 271700Z 09015KT CAVOK 27/11 A3000 TRACE SCT/CI BECMG=
200812271800 METAR MROC 271800Z 08016G26KT CAVOK 27/13 A2998 TRAZAS SCT FEW280 BECMG=
200812271900 METAR MROC 271900Z 10019KT CAVOK 26/14 A2996 TRACE SCT BKN280 BECMG=
200812272000 METAR MROC 272000Z 09017KT 9999 FEW030 BKN280 26/14 A2994 BECMG=
200812272100 METAR MROC 272100Z 09016KT 9999 FEW030 BKN250 25/14 A2992 BECMG=
200812272200 METAR MROC 272200Z 07013KT 9999 FEW030 BKN250 24/12 A2993 BECMG=
200812272300 METAR MROC 272300Z 09015KT 9999 FEW025 BKN250 23/12 A2993 BECMG=
200812280000 METAR MROC 280000Z 10011KT 9999 FEW025 BKN250 22/12 A2995 BECMG=
200812280100 METAR MROC 280100Z 09012KT 9999 FEW025 SCT250 21/12 A2998 BECMG=
200812280200 METAR MROC 280200Z 11014KT 9999 FEW025 21/15 A3000 BECMG=
200812280300 METAR MROC 280300Z 10011KT CAVOK 21/15 A3001 RMK TRACE SC BECMG=
200812280400 METAR MROC 280400Z 09014KT CAVOK 21/14 A3000 RMK TRACE SC BECMG=
200812280500 METAR MROC 280500Z 10018KT CAVOK 21/15 A3000 RMK TRACE SC BECMG=
200812280600 METAR MROC 280600Z 10016KT CAVOK 20/16 A3000 RMK TRACE SC BECMG=
200812280700 METAR MROC 280700Z 09010KT CAVOK 20/15 A2998 RMK TRACE SC BECMG=
200812280800 METAR MROC 280800Z 10008KT CAVOK 20/16 A2996 RMK TRACE SC BECMG=
200812280900 METAR MROC 280900Z 09007KT CAVOK 19/15 A2995 RMK TRACE SC=
200812281000 METAR MROC 281000Z 10010KT CAVOK 19/15 A2997 RMK TRACE SC=
200812281100 METAR MROC 281100Z 00000KT 9999 FEW040 18/15 A2998=
200812281200 METAR MROC 281200Z 10010KT CAVOK 19/14 A2998 RMK TRACE SC SCT300=
200812281300 METAR MROC 281300Z 04003KT CAVOK 21/14 A3001 RMK TRACE SC BKN280 BECMG=
200812281400 METAR MROC 281400Z 06002KT CAVOK 24/14 A3003 RMK TRACE SC SCT280 BECMG=
200812281500 METAR MROC 281500Z 09011KT CAVOK 26/14 A3002 RMK TRACE SC SCT280 BECMG=
200812281600 METAR MROC 281600Z 09011KT CAVOK 28/14 A3002 RMK TRACE SC BECMG=
200812281700 METAR MROC 281700Z 10013KT CAVOK 28/14 A3000 RMK TRACE SC BECMG=
200812281800 METAR MROC 281800Z 08012KT 9999 FEW030 SCT250 28/15 A2998 BECMG=
200812281900 METAR MROC 281900Z 08013KT 9999 FEW030 SCT250 28/15 A2995 BECMG=
200812282000 METAR MROC 282000Z 08010KT 9999 FEW030 28/15 A2993 BECMG=
200812282100 METAR MROC 282100Z 08010G20KT 9999 SCT025 27/15 A2993 BECMG=
200812282200 METAR MROC 282200Z 08011KT 9999 SCT030 26/15 A2999 RMK FEW100 BECMG=
200812282300 METAR MROC 282300Z 07010G20KT 9999 FEW030 24/15 A2996 BECMG=
200812290000 METAR MROC 290000Z 09009KT 9999 FEW030 22/16 A2997 BECMG=
200812290100 METAR MROC 290100Z 09007KT 9999 FEW030 21/15 A3000 BECMG=
200812290200 METAR MROC 290200Z 10006KT CAVOK 20/15 A3001 RMK TRACE SC FEW120 BECMG=
200812290300 METAR MROC 290300Z 09008KT 9999 SCT045 21/16 A3003 BECMG=
200812290400 METAR MROC 290400Z 06008KT 9999 FEW045 20/16 A3003 BECMG=
200812290500 METAR MROC 290500Z 08006KT 9999 FEW045 19/16 A3001 BECMG=
200812290600 METAR MROC 290600Z 04006KT 9999 FEW040 19/16 A3001 BECMG=
200812290700 METAR MROC 290700Z 08003KT 9999 FEW045 18/16 A3001=
200812290800 METAR MROC NIL=
200812290900 METAR MROC NIL=
200812291000 METAR MROC 291000Z 10014KT 9999 FEW045 20/16 A2998=
200812291100 METAR MROC 291100Z 10016KT 9999 FEW040 20/15 A2999=
200812291200 METAR MROC 291200Z 10016KT CAVOK 20/14 A2999 TRAZAS SCT/CI MAX WIND 20KT=
200812291300 METAR MROC 291300Z 09011G21KT CAVOK 22/14 A3001 RMK TRACE SC BECMG=
200812291400 METAR MROC 291400Z 09016KT CAVOK 23/14 A3003 RMK TRACE SC VEL  MAX =
200812291500 METAR MROC 291500Z 09018KT 9999 FEW035 25/15 A3005 RMK VEL MAX  VTO 23KT BECMG=
200812291600 METAR MROC 291600Z 10016G26KT 9999 FEW040 25/16 A3005 BECMG=
200812291700 METAR MROC 291700Z 08014KT 9999 FEW040 26/14 A3003 RMK VEL MAX VTO 20KT=
200812291800 METAR MROC 291800Z 08015KT CAVOK 27/10 A3001 RMK TRACE SC VEL MAX VTO 21KT BECMG=
200812291900 METAR MROC 291900Z 08015KT CAVOK 27/09 A2999 RMK TRACE SC VEL MAX VTO  21KT BECMG=
200812292000 METAR MROC 292000Z 08015KT 9999 FEW040 27/10 A2997 RMK VEL MAX  VTO  22KT BECMG=
200812292100 METAR MROC 292100Z 07013KT 9999 FEW035 27/10 A2996 BECMG=
200812292200 METAR MROC 292200Z 08015KT CAVOK 25/11 A2996 RMK TRACES CU BECMG=
200812292300 METAR MROC 292300Z 08013KT CAVOK 24/09 A2997 RMK TRACE CU BECMG=
200812292350 METAR MROC 300000Z 08011KT CAVOK 22/10 A2999 RMK TRACE CU BECMG=
200812292352 METAR MROC 300000Z 08011KT CAVOK 22/10 A2999 RMK TRACE CU BECMG=
200812300000 METAR MROC 300000Z 08011KT CAVOK 22/10 A2999 RMK TRACE CU BECMG=
200812300100 METAR MROC 300100Z 10010KT CAVOK 20/06 A3001 TRACE SCT BECMG=
200812300200 METAR MROC 300200Z 09010KT CAVOK 20/08 A3002 TRACE SCT BECMG=
200812300300 METAR MROC 300300Z 08011KT CAVOK 20/07 A3003 TRACE SCT BECMG=
200812300400 METAR MROC 300400Z 09012KT CAVOK 20/08 A3004 TRACE SCT BECMG=
200812300500 METAR MROC 300500Z 08010KT CAVOK 20/11 A3003 TRACE SCT BECMG=
200812300600 METAR MROC 300600Z 10010KT CAVOK 19/12 A3002 TRACE SCT BECMG=
200812300700 METAR MROC 300700Z 11012KT CAVOK 19/12 A3000 TRACE SCT BECMG=
200812300800 METAR MROC 300800Z 12010KT CAVOK 18/12 A2999 TRACE SCT FEW120=
200812300900 METAR MROC NIL=
200812301000 METAR MROC 301000Z 09006KT 9999 SCT030 19/12 A2997 BECMG=
200812301100 METAR MROC 301100Z 01006KT 9999 FEW035 17/12 A2999 BECMG=
200812301200 METAR MROC 301200Z 02003KT 9999 FEW040 17/13 A3001 TRACE AC BECMG=
200812301300 METAR MROC 301300Z 02007KT CAVOK 20/14 A3003 RMK TRACES CU BECMG=
200812301400 METAR MROC 301400Z 08007KT CAVOK 24/14 A3005 RMK TRACE CU BECMG=
200812301500 METAR MROC 301500Z 09010KT CAVOK 26/14 A3004 RMK TRACES CU BECMG=
200812301600 METAR MROC 301600Z 07013KT CAVOK 26/15 A3004 RMK TRACE CU BECMG=
200812301700 METAR MROC 301700Z 08011KT CAVOK 28/15 A3001 RMK TRACE CU BECMG=
200812301800 METAR MROC 301800Z 07014KT 9999 FEW035 28/15 A2999 BECMG=
200812301900 METAR MROC 301900Z 07014KT 9999 FEW035 27/16 A2997 BECMG=
200812302000 METAR MROC 302000Z 05014KT 9999 SCT035 27/16 A2996 RMK FEW CI BECMG=
200812302100 METAR MROC 302100Z 06015KT 9999 FEW020 SCT035 27/15 A2994 BECMG=
200812302200 METAR MROC 302200Z 11006KT 9999 -DZ SCT020 BKN070 24/17 A2995 BECMG=
200812302300 METAR MROC 302300Z 27005KT 9999 SCT020 BKN070 21/19 A2997 REDZ BECMG=
200812310000 METAR MROC 310000Z 23005KT 9999 SCT020 BKN070 20/20 A2999 RMK RN SW=
200812310100 METAR MROC 310100Z 14003KT 9999 FEW020 BKN080 20/19 A3001 BECMG=
200812310200 METAR MROC 310200Z 08011KT 9999 FEW040 BKN080 21/17 A3003 BECMG=
200812310300 METAR MROC 310300Z 09006KT 9999 FEW035 20/16 A3004 BECMG=
200812310400 METAR MROC 310400Z 09008KT 9999 FEW040 20/16 A3004 BECMG=
200812310500 METAR MROC 310500Z 08011KT 9999 FEW035 20/15 A3002 RMK VEL/ MAX  VTO 17KT=
200812310600 METAR MROC 310600Z 08007KT CAVOK 20/16 A3001 RMK TRACE SC=
200812310700 METAR MROC 310700Z 02002KT CAVOK 19/16 A3001 RMK TRACE SC AC=
200812310800 METAR MROC 310800Z 04005KT CAVOK 19/16 A3000 RMK TRACE SC=
200812310900 METAR MROC 310900Z 05004KT 9999 FEW035 20/16 A2999=
200812311000 METAR MROC 311000Z 09003KT 9999 FEW035 19/16 A3000=
200812311100 METAR MROC 311100Z 10007KT 9999 SCT035 19/15 A3000=
200812311200 METAR MROC 311200Z 10010KT 9999 FEW035 SCT250 19/14 A3001=
200812311300 METAR MROC 311300Z 08008KT 9999 SCT030 20/14 A3003 BECMG=
200812311400 METAR MROC 311400Z 12010KT 9999 SCT030 22/15 A3005 BECMG=
200812311500 METAR MROC 311500Z 10015KT 9999 FEW035 24/13 A3004 RMK TRACE AC BECMG=
200812311600 METAR MROC 311600Z 10014KT 9999 FEW035 25/11 A3003 BECMG=
200812311700 METAR MROC 311700Z 11012KT CAVOK 26/14 A3001 RMK TRACE SC CU=
200812311800 METAR MROC 311800Z 10008KT CAVOK 27/13 A2999 RMK TRACE SC CU=
200812311900 METAR MROC 311900Z 07012KT 9999 FEW040 27/14 A2996 BECMG=
200812312000 METAR MROC 312000Z 07010KT 9999 FEW040 27/13 A2995 BECMG=
200812312100 METAR MROC 312100Z 07012G22KT 9999 FEW040 27/13 A2993 BECMG=
200812312200 METAR MROC 312200Z 09012KT 9999 FEW040 25/15 A2993 BECMG=
200812312300 METAR MROC 312300Z 07012KT 9999 FEW035 23/14 A2995 BECMG=
