200901010000 METAR MROC 010000Z 09009KT CAVOK 22/15 A2996 NOSIG=
200901010100 METAR MROC 010100Z 09011KT CAVOK 20/15 A2998 RMK TRAZAS SCT NOSIG=
200901010200 METAR MROC 010200Z 11010KT CAVOK 20/15 A3000 RMK TRAZAS SC NOSIG=
200901010300 METAR MROC 010300Z 08008KT 9999 FEW035 20/15 A3001 NOSIG=
200901010400 METAR MROC 010400Z 07008KT CAVOK 19/15 A3001 NOSIG=
200901010500 METAR MROC 010500Z 09012KT CAVOK 20/13 A2999 NOSIG=
200901010600 METAR MROC 010600Z 09012KT CAVOK 20/14 A2998 NOSIG=
200901010700 METAR MROC 010700Z 07007KT CAVOK 19/15 A2997 NOSIG=
200901010800 METAR MROC 010800Z 01004KT CAVOK 18/15 A2997 NOSIG=
200901010900 METAR MROC NIL=
200901011000 METAR MROC 011000Z 06009KT CAVOK 19/16 A2996 NOSIG=
200901011100 METAR MROC 011100Z 09016KT CAVOK 19/16 A2995 NOSIG=
200901011200 METAR MROC 011200Z 10016KT CAVOK 19/16 A2996 RMK TRACES CU SCT300 NOSIG=
200901011300 METAR MROC 011300Z 10013KT CAVOK 20/16 A2999 RMK TRAZAS SCT DZ N NE NOSIG=
200901011400 METAR MROC 011400Z 10013G23KT CAVOK 22/16 A3001 RMK TRAZAS SCT NOSIG=
200901011500 METAR MROC 011500Z 10015G26KT CAVOK 23/16 A3001 RMK TRAZAS SC NOSIG=
200901011600 METAR MROC 011600Z 10011G21KT 9999 FEW025 25/16 A3001 RMK DZ N NE NOSIG=
200901011700 METAR MROC 011700Z 10015KT 9999 FEW030 26/16 A3000 RMK FEW080 DZ NE NOSIG=
200901011800 METAR MROC 011800Z 10013KT 9999 FEW025 26/16 A2997 RMK FEW080 DZ NE NOSIG=
200901011900 METAR MROC 011900Z 10015G26KT 9999 FEW030 SCT120 27/16 A2994 RMK DZ NE NOSIG=
200901012000 METAR MROC 012000Z 09013KT 9999 FEW030 SCT120 26/16 A2991 RMK DZ N NE NOSIG=
200901012100 METAR MROC 012100Z 11014KT 9999 SCT030 SCT100 25/16 A2990 NOSIG=
200901012200 METAR MROC 012200Z 10014KT 9999 SCT030 BKN100 23/16 A2991 NOSIG=
200901012300 METAR MROC 012300Z 10013KT 9999 SCT030 BKN100 21/15 A2993 NOSIG=
200901020000 METAR MROC 020000Z 09012G22KT 9999 FEW030 BKN100 21/15 A2994 NOSIG=
200901020100 METAR MROC 020100Z 12016KT 9999 FEW035 BKN100 21/13 A2995 NOSIG=
200901020200 METAR MROC 020200Z 11006G13KT CAVOK 21/13 A2997 RMK FEW120 NOSIG=
200901020300 METAR MROC 020300Z 10013KT CAVOK 21/14 A2998 RMK SCT120 NOSIG=
200901020400 METAR MROC 020400Z 09011KT CAVOK 21/13 A2998 RMK SCT120 NOSIG=
200901020500 METAR MROC 020500Z 07010KT CAVOK 20/15 A2997 RMK FEW120 NOSIG=
200901020600 METAR MROC 020600Z 09011KT CAVOK 21/14 A2997 RMK TRACE SC NOSIG=
200901020700 METAR MROC 020700Z 10011KT CAVOK 20/14 A2994 RMK TRACE SC NOSIG=
200901020800 METAR MROC 020800Z 11008KT CAVOK 19/15 A2994 RMK TRACE SC=
200901020900 METAR MROC 020900Z 10011KT CAVOK 19/15 A2994 RMK TRACE SC=
200901021000 METAR MROC 021000Z 10012KT CAVOK 19/16 A2994 RMK TRACE SC=
200901021100 METAR MROC 021100Z 11011KT CAVOK 19/15 A2995 RMK TRACE SC=
200901021200 METAR MROC 021200Z 11011KT CAVOK 20/15 A2996 RMK TRACE SC=
200901021300 METAR MROC 021300Z 10010G20KT CAVOK 20/15 A2998 RMK TRAZAS SCT NOSIG=
200901021400 METAR MROC 021400Z 12016KT 9999 FEW030 22/15 A3000 NOSIG=
200901021500 METAR MROC 021500Z 10012G22KT 9999 FEW030 24/14 A3000 NOSIG=
200901021600 METAR MROC 021600Z 09014G24KT 9999 FEW030 25/15 A3000 NOSIG=
200901021700 METAR MROC 021700Z 09017KT 9999 SCT030 27/15 A2999 NOSIG=
200901021800 METAR MROC 021800Z 07018KT 9999 SCT030 28/15 A2996 NOSIG=
200901021900 METAR MROC 021900Z 09010G20KT 9999 SCT030 28/16 A2994 RMK TRAZAS AC NOSIG=
200901022000 METAR MROC 022000Z 11010G20KT 9999 SCT035 28/15 A2992 NOSIG=
200901022100 METAR MROC 022100Z 10010KT 9999 FEW035 28/16 A2990 NOSIG=
200901022200 METAR MROC 022200Z 12010KT 9999 FEW035 26/17 A2992 RMK FEW120 VEL  MAX VTO 17KT NOSIG=
200901022300 METAR MROC 022300Z 11011KT 9999 FEW035 23/16 A2993 RMK VEL MAX VTO 15KT NOSIG=
200901030000 METAR MROC 030000Z 11011KT 9999 FEW035 22/16 A2995 RMK VEL MAX VTO  18KT NOSIG=
200901030100 METAR MROC 030100Z 08010KT CAVOK 22/15 A2997 RMK TRACE SC NOSIG=
200901030200 METAR MROC 030200Z 10008KT CAVOK 21/16 A3000 RMK TRACE SC=
200901030300 METAR MROC 030300Z 10009KT CAVOK 20/15 A3000 RMK TRAZAS SCT NOSIG=
200901030400 METAR MROC 030400Z 10009KT CAVOK 20/14 A3000 RMK TRAZAS SCT NOSIG=
200901030500 METAR MROC 030500Z 11010KT CAVOK 20/13 A3000 RMK TRAZAS SCT NOSIG=
200901030600 METAR MROC 030600Z 10010KT CAVOK 20/13 A2997 RMK TRAZAS SCT NOSIG=
200901030700 METAR MROC 030700Z 07005KT CAVOK 20/13 A2995 RMK TRAZAS SCT NOSIG=
200901030800 METAR MROC 030800Z 12008KT CAVOK 20/14 A2992 RMK TRAZAS SC=
200901030900 METAR MROC 030900Z 11010KT CAVOK 20/14 A2992 RMK TRAZAS SC=
200901031000 METAR MROC 031000Z 10010KT CAVOK 19/13 A2993=
200901031100 METAR MROC 031100Z 11009KT CAVOK 19/12 A2995 RMK TRAZAS SCT=
200901031200 METAR MROC 031200Z 11010KT CAVOK 19/11 A2996=
200901031300 METAR MROC 031300Z 11009KT CAVOK 21/11 A2998 NOSIG=
200901031400 METAR MROC 031400Z 12010KT CAVOK 24/12 A3000 NOSIG=
200901031500 METAR MROC 031500Z 10010KT CAVOK 26/13 A3000 RMK VEL MAX VTO 17KT NOSIG=
200901031600 METAR MROC 031600Z 10011KT CAVOK 27/14 A2999 RMK VEL MAX VTO 18KT NOSIG=
200901031700 METAR MROC 031700Z 09012KT CAVOK 27/15 A2998 RMK TRACE SC VEL MAX VTO 18KT=
200901031800 METAR MROC 031800Z 09011KT CAVOK 28/15 A2996 RMK TRACE SC VEL MAX VTO 16KT NOSIG=
200901031900 METAR MROC 031900Z 08010G20KT 9999 FEW035 28/16 A2993 NOSIG=
200901032000 METAR MROC 032000Z 09011KT 9999 FEW035 28/16 A2991 RMK VEL MAX  VTO  17KT NOSIG=
200901032100 METAR MROC 032100Z 09014KT 9999 FEW035 27/15 A2991 NOSIG=
200901032200 METAR MROC 032200Z 08014KT 9999 FEW030 26/15 A2992 NOSIG=
200901032300 METAR MROC 032300Z 07010KT 9999 FEW030 24/14 A2993 NOSIG=
200901032356 METAR MROC 040000Z 07013KT 9999 FEW025 23/15 A2996 NOSIG=
200901032359 METAR MROC 040000Z 07013KT 9999 FEW025 23/15 A2996 NOSIG=
200901040000 METAR MROC 040000Z 07013KT 9999 FEW025 23/15 A2996 NOSIG=
200901040100 METAR MROC 040100Z 08010KT 9999 FEW025 23/16 A2997 NOSIG=
200901040200 METAR MROC 040200Z 08013KT 9999 FEW025 22/17 A2999 NOSIG=
200901040300 METAR MROC 040300Z 09012KT 9999 FEW025 22/17 A3000 NOSIG=
200901040400 METAR MROC 040400Z 10010KT 9999 FEW025 22/16 A3000 NOSIG=
200901040500 METAR MROC 040500Z 08008KT 9999 FEW025 21/16 A2999 NOSIG=
200901040600 METAR MROC 040600Z 09008KT 9999 FEW025 21/16 A2998 NOSIG=
200901040700 METAR MROC 040700Z 10010KT 9999 FEW025 21/16 A2996 NOSIG=
200901040800 METAR MROC 040800Z 10010KT 9999 FEW025 20/16 A2993 NOSIG=
200901040900 METAR MROC 040900Z 08014KT 9999 FEW025 21/15 A2992 NOSIG=
200901041000 METAR MROC 041000Z 09010KT 9999 FEW025 21/15 A2993 NOSIG=
200901041100 METAR MROC 041100Z 10015KT 9999 FEW025 21/15 A2995 NOSIG=
200901041200 METAR MROC 041200Z 10012KT 9999 FEW025 21/17 A2998 NOSIG=
200901041300 METAR MROC 041300Z 10014KT 9999 FEW025 22/17 A3001 NOSIG=
200901041400 METAR MROC 041400Z 10015KT 9999 FEW025 23/17 A3004 NOSIG=
200901041500 METAR MROC 041500Z 10016KT 9999 FEW025 25/15 A3004 RMK VEL MAX WIND 23 KTS NOSIG=
200901041600 METAR MROC 041600Z 10015KT 9999 FEW025 26/15 A3003 RMK VEL MAX WIND 20 KTS NOSIG=
200901041700 METAR MROC 041700Z 08013KT CAVOK 27/14 A3001 RMK TRACE CU=
200901041800 METAR MROC 041800Z 09013KT CAVOK 28/15 A3000 RMK TRACE CU NOSIG=
200901041900 METAR MROC 041900Z 09014KT CAVOK 29/15 A2998 RMK TRACE CU NOSIG=
200901042000 METAR MROC 042000Z 07012KT CAVOK 29/14 A2995 RMK TRACE CU NOSIG=
200901042100 METAR MROC 042100Z 08011KT 9999 FEW040 28/14 A2994 NOSIG=
200901042200 METAR MROC 042200Z 08011KT 9999 FEW040 27/15 A2995 NOSIG=
200901042300 METAR MROC 042300Z 09012KT 9999 FEW035 22/15 A2997 NOSIG=
200901050000 METAR MROC 050000Z 09009KT CAVOK 23/16 A2998 RMK TRACE SC=
200901050100 METAR MROC 050100Z 10009KT CAVOK 23/16 A3001 RMK TRACE SCT VIENTO MAX 14KTS NOSIG=
200901050200 METAR MROC 050200Z 08012KT CAVOK 23/16 A3002 RMK TRACE SCT VEL MAX 16KTS NOSIG=
200901050300 METAR MROC 050300Z 10010KT CAVOK 22/16 A3003 RMK TRACE SC VEL MAX VTO 16KT NOSIG=
200901050400 METAR MROC 050400Z 10012KT CAVOK 22/16 A3003 RMK TRACE SC VEL MAX VTO  18KT NOSIG=
200901050500 METAR MROC 050500Z 09013KT CAVOK 22/16 A3002 RMK TRACE SC NOSIG=
200901050600 METAR MROC 050600Z 09011KT CAVOK 22/16 A3001 RMK TRACE SC VEL MAX VTO 18KT NOSIG=
200901050700 METAR MROC 050700Z 10011KT CAVOK 21/16 A3000 RMK TRACE SC VEL MAX VTO 17KT NOSIG=
200901050800 METAR MROC 050800Z 09011KT CAVOK 22/17 A2998 RMK TRACE SC VEL MAX VTO 18KT=
200901050900 METAR MROC 050900Z 08010KT CAVOK 21/17 A2998 RMK TRACE SC=
200901051000 METAR MROC 051000Z 03006KT 9999 FEW035 21/17 A3000 NOSIG=
200901051100 METAR MROC 051100Z 07007KT 9999 -RA FEW030 BKN090 20/18 A3002 NOSIG=
200901051200 METAR MROC 051200Z 08009KT 7000 3000SW RA BR FEW002 SCT030 BKN080 19/18 A3004=
200901051300 METAR MROC 051300Z 09008KT 9999 SCT030 BKN090 20/18 A3006 RERA NOSIG=
200901051400 METAR MROC 051400Z 13011KT 9999 SCT030 BKN100 23/18 A3006 NOSIG=
200901051500 METAR MROC 051500Z 11007KT 9999 FEW030 SCT100 26/18 A3006 NOSIG=
200901051600 METAR MROC 051600Z 08009KT 9999 FEW030 SCT100 27/17 A3004 RMK DZ N NE NOSIG=
200901051700 METAR MROC 051700Z 08011KT 9999 SCT030 SCT100 27/16 A3001 RMK DZ N NOSIG=
200901051800 METAR MROC 051800Z 08006KT 9999 SCT030 BKN100 27/17 A2999 RMK DZ N NE NOSIG=
200901051900 METAR MROC 051900Z 08016KT 9999 SCT030 BKN100 25/17 A2998 RMK DZ N NE NOSIG=
200901052000 METAR MROC 052000Z 10008KT 9999 SCT030 BKN100 25/17 A2996 RMK DZ N NE NOSIG=
200901052100 METAR MROC 052100Z 09009KT 9999 SCT030 SCT080 25/18 A2994 RMK DZ N NE NOSIG=
200901052200 METAR MROC 052200Z 08006KT 9999 FEW045 BKN080 25/17 A2994 RMK DZ N NE NOSIG=
200901052300 METAR MROC 052300Z 08007KT 9999 FEW045 BKN080 24/17 A2996 RMK DZ N NE NOSIG=
200901060000 METAR MROC 060000Z 11004KT 9999 FEW035 SCT080 23/16 A2997 RMK DZ NE NOSIG=
200901060100 METAR MROC 060100Z 09005KT 9999 FEW035 BKN110 22/16 A2998 RMK DZ NE DIST NOSIG=
200901060200 METAR MROC 060200Z 10007KT 9999 FEW040 SCT100 22/16 A3000 NOSIG=
200901060300 METAR MROC 060300Z 10009KT 9999 FEW030 21/17 A3001 RMK TRACE AS NOSIG=
200901060400 METAR MROC 060400Z 11010KT 9999 FEW030 22/17 A3001 NOSIG=
200901060500 METAR MROC 060500Z 02005KT CAVOK 21/16 A3001 RMK SCT110=
200901060600 METAR MROC 060600Z 32002KT CAVOK 21/17 A3001 RMK SCT120=
200901060700 METAR MROC 060700Z 00000KT CAVOK 21/16 A3000 RMK FEW120 TRACE SC NOSIG=
200901060800 METAR MROC 060800Z 01004KT CAVOK 19/16 A2998 RMK FEW100 TRACE CU SC NOSIG=
200901060900 METAR MROC 060900Z 01003KT CAVOK 19/16 A2997 RMK TRACES CU SC NOSIG=
200901061000 METAR MROC 061000Z 05005KT CAVOK 18/16 A2998 RMK FEW100 TRACE CU SC NOSIG=
200901061100 METAR MROC 061100Z 02005KT CAVOK 18/16 A2999 RMK TRACE CU SC NOSIG=
200901061200 METAR MROC 061200Z 07006KT 9999 FEW020 SCT120 20/17 A3000 NOSIG=
200901061300 METAR MROC 061300Z 01005KT 9999 FEW030 SCT120 20/17 A3002 RMK SCT280 NOSIG=
200901061400 METAR MROC 061400Z 11007KT 9999 FEW030 BKN100 23/17 A3003 RMK DZ NE NOSIG=
200901061500 METAR MROC 061500Z 11009KT 9999 FEW030 SCT100 26/17 A3003 NOSIG=
200901061600 METAR MROC 061600Z 09009KT 9999 FEW030 27/16 A3002 RMK FEW100 NOSIG=
200901061700 METAR MROC 061700Z 07010KT 9999 FEW030 28/16 A3000 NOSIG=
200901061800 METAR MROC 061800Z 07010KT 9999 FEW030 30/15 A2996 NOSIG=
200901061900 METAR MROC 061900Z 09009KT 9999 FEW030 SCT280 27/17 A2994 NOSIG=
200901062000 METAR MROC 062000Z 09007KT 9999 FEW030 SCT280 29/17 A2991 NOSIG=
200901062100 METAR MROC 062100Z 07008KT 9999 SCT030 BKN250 28/17 A2990 RMK DZ N=
200901062200 METAR MROC 062200Z 06009KT 9999 SCT025 BKN250 27/17 A2992 NOSIG=
200901062300 METAR MROC 062300Z 23007KT 9999 FEW010 SCT020 BKN250 23/22 A2994 NOSIG=
200901070000 METAR MROC 070000Z 20006KT 9999 SCT020 SCT250 22/19 A2996 NOSIG=
200901070100 METAR MROC 070100Z 20003KT 9999 SCT020 SCT250 21/19 A2999 NOSIG=
200901070200 METAR MROC 070200Z 26003KT 9999 SCT025 20/20 A3002 NOSIG=
200901070300 METAR MROC 070300Z 35004KT 9999 SCT025 21/20 A3003 NOSIG=
200901070400 METAR MROC 070400Z 07004KT 9999 FEW025 SCT250 20/18 A3002 NOSIG=
200901070500 METAR MROC 070500Z 06008KT 9999 FEW025 SCT250 21/18 A3001 NOSIG=
200901070600 METAR MROC 070600Z 07005KT 9999 FEW030 SCT250 20/17 A2998 NOSIG=
200901070700 METAR MROC NIL=
200901070800 METAR MROC 070800Z 08006KT CAVOK 21/16 A2995 RMK TRACE SC SCT250=
200901070900 METAR MROC 070900Z 06003KT CAVOK 20/16 A2995 RMK TRACE SC SCT250=
200901071000 METAR MROC 071000Z 04008KT CAVOK 19/16 A2996 RMK TRACE SC SCT250=
200901071100 METAR MROC 071100Z 02005KT CAVOK 18/16 A2996 RMK TRACE SC SCT250=
200901071200 METAR MROC 071200Z 05007KT CAVOK 19/16 A3000 RMK TRACE SC CB DST SW SCT250=
200901071300 METAR MROC 071300Z 06005KT CAVOK 21/16 A3002 RMK TRACE SC CB DST SW SCT300 NOSIG=
200901071400 METAR MROC 071400Z 09008KT 9999 FEW025 SCT250 23/16 A3004 RMK PCPN NE TCU DST W NOSIG=
200901071500 METAR MROC 071500Z 11010KT 9999 FEW025 SCT250 26/16 A3005 RMK PCPN NE NOSIG=
200901071600 METAR MROC 071600Z 11008KT 9999 FEW025 SCT250 27/16 A3003 RMK PCPN NE NOSIG=
200901071700 METAR MROC 071700Z 12010KT 9999 FEW025 SCT250 28/16 A3001 RMK PCPN NE NOSIG=
200901071800 METAR MROC 071800Z 15005KT 9999 SCT030 SCT250 28/16 A3000 RMK PCPN NE NOSIG=
200901071900 METAR MROC 071900Z 26010KT 9999 SCT025 BKN250 28/19 A2995 RMK PCPN NE NOSIG=
200901072000 METAR MROC 072000Z 21008KT 9999 BKN025 25/20 A2993 RMK PCPN N NE HZ ARND NOSIG=
200901072100 METAR MROC 072100Z 19006KT 9999 BKN025 SCT100 24/18 A2992 RMK VIS 7000NE RA RN DST ARND BECMG -RA=
200901072200 METAR MROC 072200Z 14004KT 9999 SCT030 BKN100 20/20 A2994 RERA NOSIG=
200901072300 METAR MROC 072300Z 11004KT 9999 SCT025 BKN080 21/18 A2997 NOSIG=
200901080000 METAR MROC 080000Z 09003KT 9999 FEW025 BKN110 21/18 A2997 RMK RN DST NE NOSIG=
200901080100 METAR MROC 080100Z 08008KT 9999 FEW030 SCT120 BKN220 21/18 A2997 NOSIG=
200901080200 METAR MROC 080200Z 10008KT 9999 FEW035 SCT120 21/17 A2999 NOSIG=
200901080300 METAR MROC 080300Z 10006KT CAVOK 21/17 A3001 RMK TRAZAS SCT BKN120 NOSIG=
200901080400 METAR MROC 080400Z 09003KT CAVOK 21/17 A3001 RMK TRAZAS SCT BKN120 NOSIG=
200901080500 METAR MROC 080500Z 08005KT CAVOK 20/17 A3000 RMK BKN120 NOSIG=
200901080600 METAR MROC 080600Z 01004KT CAVOK 19/17 A3000 RMK BKN120 NOSIG=
200901080700 METAR MROC 080700Z 07005KT CAVOK 19/16 A2999 RMK SCT120 NOSIG=
200901080800 METAR MROC 080800Z 05003KT CAVOK 18/16 A2998 RMK TRAZAS SC BKN120=
200901080900 METAR MROC NIL=
200901081000 METAR MROC 081000Z 07005KT CAVOK 19/14 A2996 RMK TRAZAS SC BKN120=
200901081100 METAR MROC 081100Z 06007KT CAVOK 19/15 A2996 RMK TRAZAS SCT BKN120=
200901081200 METAR MROC 081200Z 09006KT CAVOK 20/15 A2996 RMK TRAZAS SC BKN120=
200901081300 METAR MROC 081300Z 11007KT CAVOK 21/15 A2999 RMK SCT120 FEW250 NOSIG=
200901081400 METAR MROC 081400Z 11008KT CAVOK 23/16 A3001 RMK TRACE SC FEW120 NOSIG=
200901081500 METAR MROC 081500Z 10011KT CAVOK 25/16 A3001 RMK TRACE SC FEW120 VEL MAX VTO 16KT NOSIG=
200901081600 METAR MROC 081600Z 11010KT 9999 FEW035 27/16 A3000 NOSIG=
200901081700 METAR MROC 081700Z 12009KT 9999 FEW035 28/17 A2998 NOSIG=
200901081800 METAR MROC 081800Z 11010KT 9999 FEW015TCU SCT030 27/17 A2997 RMK VEL MAX VTO 16KT BECMG 24008KT=
200901081900 METAR MROC NIL=
200901082000 METAR MROC NIL=
200901082100 METAR MROC NIL=
200901082200 METAR MROC NIL=
200901082300 METAR MROC NIL=
200901090000 METAR MROC 090000Z 23007KT 9999 FEW025 21/20 A2996 RMK TRACE CI NOSIG=
200901090100 METAR MROC 090100Z 31005KT 9999 FEW025 20/20 A2999 NOSIG=
200901090200 METAR MROC 090200Z 10002KT CAVOK 20/19 A3001 RMK FEW260 NOSIG=
200901090300 METAR MROC 090300Z 08004KT 9999 FEW030 20/16 A3002 RMK TRACE CI NOSIG=
200901090400 METAR MROC 090400Z 11007KT 9999 FEW030 22/16 A3002 RMK TRACE CI NOSIG=
200901090500 METAR MROC 090500Z 08005KT 9999 FEW030 21/16 A3001 NOSIG=
200901090600 METAR MROC 090600Z 10010KT 9999 FEW030 21/16 A3000 NOSIG=
200901090700 METAR MROC 090700Z 10010KT 9999 FEW030 21/16 A2998 NOSIG=
200901090800 METAR MROC 090800Z 08009KT 9999 FEW030 SCT130 22/16 A2997 NOSIG=
200901090900 METAR MROC 090900Z 12010KT 9999 FEW030 SCT130 21/16 A2996 NOSIG=
200901091000 METAR MROC 091000Z 12008KT 9999 FEW030 SCT130 21/16 A2997 NOSIG=
200901091100 METAR MROC 091100Z 08007KT 9999 FEW030 SCT130 22/16 A2997 NOSIG=
200901091200 METAR MROC 091200Z 06003KT 9999 SCT020 SCT250 21/16 A3000 RMK PCPN NE NOSIG=
200901091300 METAR MROC 091300Z 09012KT 9999 FEW025 SCT250 22/15 A3002 NOSIG=
200901091400 METAR MROC 091400Z 08012KT 9999 FEW030 23/10 A3004 RMK TRACE CI NOSIG=
200901091500 METAR MROC 091500Z 09013KT 9999 FEW030 25/13 A3004 RMK RN DST NE NOSIG=
200901091600 METAR MROC 091600Z 09016KT 9999 FEW025 26/13 A3004 RMK TRACE CI VEL MAX VIENTO 23 KTS NOSIG=
200901091700 METAR MROC 091700Z 08018KT 9999 FEW025 26/13 A3003 RMK VEL MAX VIENTO 22KTS=
200901091800 METAR MROC 091800Z 08016KT 9999 FEW025 27/10 A3000 RMK VEL MAX VIENTO 23 KTS NOSIG=
200901091900 METAR MROC 091900Z 06020KT 9999 FEW025 27/11 A2997 NOSIG=
200901092000 METAR MROC 092000Z 07015G25KT 9999 FEW025 27/11 A2995 NOSIG=
200901092100 METAR MROC 092100Z 08015KT 9999 FEW025 27/12 A2994 RMK TRACE AC FU E VIENTO MAXIMO 20KTS NOSIG=
200901092200 METAR MROC 092200Z 07016KT 9999 FEW025 26/13 A2994 RMK TRACE AC FU E=
200901092300 METAR MROC 092300Z 07014KT 9999 FEW025 24/12 A2996 RMK TRACE AC NOSIG=
200901100000 METAR MROC 100000Z 08011KT 9999 FEW030 23/13 A2997 RMK TRACE AC=
200901100100 METAR MROC 100100Z 07012KT 9999 FEW030 22/14 A3000 RMK TRACE SC NOSIG=
200901100200 METAR MROC 100200Z 08010KT 9999 FEW030 22/14 A3002 RMK TRACE SC CI=
200901100300 METAR MROC 100300Z 09011G21KT CAVOK 22/14 A3003 RMK SCT250 NOSIG=
200901100400 METAR MROC 100400Z 09013G23KT CAVOK 21/14 A3005 RMK FEW250 NOSIG=
200901100500 METAR MROC 100500Z 07012G22KT CAVOK 22/10 A3004 RMK TRACE CI NOSIG=
200901100600 METAR MROC 100600Z 10010KT CAVOK 21/12 A3003 RMK TRACE SC CI NOSIG=
200901100700 METAR MROC 100700Z 09011G21KT 9999 FEW030 21/11 A3000 NOSIG=
200901100800 METAR MROC 100800Z 08012KT 9999 SCT030 21/10 A2999 RMK VEL MAX VT0 18KT=
200901100900 METAR MROC 100900Z 10011KT 9999 SCT030 21/10 A2999 RMK FEW120 VEL MAX VTO 17KT=
200901101000 METAR MROC 101000Z 10012KT 9999 SCT030 SCT120 21/10 A3000=
200901101100 METAR MROC 101100Z 09010G20KT CAVOK 21/09 A3000 RMK BKN120 TRACE SC=
200901101200 METAR MROC 101200Z 10011KT CAVOK 21/10 A3002 RMK TRACE SC BKN120 VEL MAX VTO 17KT=
200901101300 METAR MROC 101300Z 08010KT CAVOK 22/10 A3003 RMK TRACE SC BKN120 NOSIG=
200901101400 METAR MROC 101400Z 09013KT CAVOK 23/10 A3006 RMK TRACE SC AC SCT250 RAFAGAS 17KT NOSIG=
200901101500 METAR MROC 101500Z 10015KT CAVOK 24/07 A3006 RMK TRACE SC SCT250 RAFAGAS 20KT NOSIG=
200901101600 METAR MROC 101600Z 08013KT CAVOK 26/06 A3005 RMK TRACE SC FEW140 SCT250 NOSIG=
200901101700 METAR MROC 101700Z 08013KT CAVOK 27/10 A3002 RMK TRACE SC CI FEW140 NOSIG=
200901101800 METAR MROC 101800Z 08010KT CAVOK 27/11 A3000 RMK TRACE SC CU AC FEW300 RAFA GAS 16KT NOSIG=
200901101900 METAR MROC 101900Z 10011KT CAVOK 27/11 A2998 RMK TRACE SC CU AC FEW300 RAFA GAS 16KT NOSIG=
200901102000 METAR MROC 102000Z 09013KT 9999 FEW040 SCT300 27/12 A2996 RMK TRACE AC RAFA GAS 17KT NOSIG=
200901102100 METAR MROC 102100Z 09010KT 9999 FEW030 27/13 A2995 RMK FEW300 NOSIG=
200901102200 METAR MROC 102200Z 09008KT 9999 FEW030 26/14 A2995 RMK FEW300 NOSIG=
200901102300 METAR MROC 102300Z 09008KT 9999 SCT030 26/14 A2995 NOSIG=
200901110000 METAR MROC 110000Z 10010KT 9999 FEW030 21/15 A2999 NOSIG=
200901110100 METAR MROC 110100Z 11011KT CAVOK 21/14 A3001 RMK TRACE SCT FEW140 VIENTO MAX 17KTS NOSIG=
200901110200 METAR MROC 110200Z 10010KT CAVOK 21/14 A3003 RMK TRACE SCT FEW140 VEL MAX VIENTO 15KTS/ NOSIG=
200901110300 METAR MROC 110300Z 09008KT CAVOK 20/15 A3005 RMK TRACE SC FEW140=
200901110400 METAR MROC 110400Z 09012KT CAVOK 20/14 A3004 RMK TRACE SC NOSIG=
200901110500 METAR MROC 110500Z 10013KT CAVOK 20/15 A3003 NOSIG=
200901110600 METAR MROC 110600Z 10010KT CAVOK 20/15 A3003 NOSIG=
200901110700 METAR MROC 110700Z 08009KT CAVOK 19/14 A3001 NOSIG=
200901110800 METAR MROC 110800Z 05010KT CAVOK 19/14 A2999 NOSIG=
200901110900 METAR MROC NIL=
200901111000 METAR MROC 111000Z 09010KT CAVOK 19/15 A2998 NOSIG=
200901111100 METAR MROC 111100Z 10012KT CAVOK 20/15 A2998 RMK TRACE SC NOSIG=
200901111200 METAR MROC 111200Z 10014KT CAVOK 20/15 A3000 RMK TRACE SC SCT250 NOSIG=
200901111300 METAR MROC 111300Z 10009KT CAVOK 20/15 A3002 RMK FEW280 NOSIG=
200901111400 METAR MROC 111400Z 11013KT CAVOK 22/14 A3004 RMK TRAZAS SCT/AC SCT280 NOSIG=
200901111500 METAR MROC 111500Z 11011G21KT CAVOK 24/14 A3004 RMK TRAZAS SCT/AC BKN280 NOSIG=
200901111600 METAR MROC 111600Z 10011KT CAVOK 25/14 A3003 RMK TRAZAS SCT BKN280 NOSIG=
200901111700 METAR MROC 111700Z 09011KT CAVOK 27/15 A3002 RMK TRAZAS SCT SCT280 NOSIG=
200901111800 METAR MROC 111800Z 10009KT 9999 FEW030 BKN280 27/15 A3000 NOSIG=
200901111900 METAR MROC 111900Z 10008KT 9999 FEW030 BKN280 27/14 A2997=
200901112000 METAR MROC 112000Z 10011KT 9999 FEW030 BKN280 27/14 A2994 NOSIG=
200901112100 METAR MROC 112100Z 08010KT 9999 FEW030 BKN250 27/14 A2993 NOSIG=
200901112200 METAR MROC 112200Z 07011KT 9999 FEW030 BKN250 26/15 A2993 NOSIG=
200901112300 METAR MROC 112300Z 08011KT 9999 SCT030 BKN250 24/16 A2994 NOSIG=
200901120000 METAR MROC 120000Z 11008KT 9999 SCT030 SCT250 22/17 A2995 NOSIG=
200901120100 METAR MROC 120100Z 12010KT 9999 FEW040 21/15 A2997 RMK VIENTO MAX 17TS NOSIG=
200901120200 METAR MROC 120200Z 08008KT 9999 SCT045 21/16 A3000 NOSIG=
200901120300 METAR MROC 120300Z 09007KT 9999 FEW045 SCT070 21/16 A3002 NOSIG=
200901120400 METAR MROC 120400Z 09010KT 9999 FEW045 SCT070 21/15 A3002 RMK RAFAGAS 15KT NOSIG=
200901120500 METAR MROC 120500Z 08005KT 9999 FEW040 SCT070 21/15 A3000 NOSIG=
200901120600 METAR MROC 120600Z 09007KT CAVOK 20/15 A3001 RMK TRACE SC SCT120 SCT250 NOSIG=
200901120700 METAR MROC 120700Z 08005KT CAVOK 20/15 A3000 RMK TRACE SC SCT120 SCT250 NOSIG=
200901120800 METAR MROC 120800Z 10008KT CAVOK 20/14 A2996 RMK TRACE SC SCT120 SCT250=
200901120900 METAR MROC 120900Z 09008KT CAVOK 20/14 A2995 RMK TRACE SC SCT120 SCT250=
200901121000 METAR MROC 121000Z 10009KT CAVOK 21/14 A2994 RMK TRACE SC SCT120 SCT250 RAF AGAS 15KT=
200901121100 METAR MROC 121100Z 10010KT CAVOK 21/14 A2994 RMK TRACE SC SCT120 SCT250=
200901121200 METAR MROC 121200Z 07008KT CAVOK 20/14 A2996 RMK TRACE SC SCT120 SCT250=
200901121300 METAR MROC 121300Z 10008KT CAVOK 21/14 A2999 RMK TRACE SC SCT120 BKN250 NOSIG=
200901121400 METAR MROC 121400Z 10009KT 9999 FEW030 SCT120 BKN250 22/15 A3000 NOSIG=
200901121500 METAR MROC 121500Z 10010KT 9999 FEW030 SCT120 SCT250 23/16 A3001 RMK PCPN N NOSIG=
200901121600 METAR MROC 121600Z 11012KT 9999 FEW030 BKN120 25/17 A3002 RMK DZ N NOSIG=
200901121700 METAR MROC 121700Z 10017KT 9999 FEW030 BKN250 25/16 A3000 NOSIG=
200901121800 METAR MROC 121800Z 07017KT 9999 FEW030 BKN250 26/14 A2998 NOSIG=
200901121900 METAR MROC 121900Z 08012KT 9999 FEW030 BKN250 28/13 A2995 NOSIG=
200901122000 METAR MROC 122000Z 07010KT 9999 SCT030 BKN250 27/13 A2994 NOSIG=
200901122100 METAR MROC 122100Z 09004KT 9999 SCT030 BKN250 26/12 A2992 NOSIG=
200901122110 METAR MROC 122110Z 08011KT 9999 SCT030 BKN250 26/13 A2992 RMK VEL MAX VTO 16KT NOSIG=
200901122200 METAR MROC 122200Z 08008KT 9999 FEW035 BKN250 25/13 A2992 NOSIG=
200901122300 METAR MROC 122300Z 09008KT CAVOK 24/14 A2993 RMK TRACE SC BKN250 VEL MAX VTO 13KT NOSIG=
200901130000 METAR MROC 130000Z 11006KT CAVOK 22/15 A2995 RMK TRACE SC FEW120 FEW250 NOSIG=
200901130100 METAR MROC 130100Z 10003KT CAVOK 21/14 A2997 RMK SCT250 NOSIG=
200901130200 METAR MROC 130200Z 14006KT CAVOK 21/15 A2999 RMK BKN250 TRACE SC NOSIG=
200901130300 METAR MROC 130300Z 10005KT CAVOK 21/14 A3002 RMK TRAZAS SCT BKN130 NOSIG=
200901130400 METAR MROC 130400Z 11003KT CAVOK 20/14 A3003 RMK TRAZAS SCT FEW090 BKN130 NOSIG=
200901130500 METAR MROC 130500Z 07004KT CAVOK 20/14 A3002 RMK BKN110 NOSIG=
200901130600 METAR MROC 130600Z 06005KT CAVOK 19/14 A3002 RMK BKN110 NOSIG=
200901130700 METAR MROC 130700Z 13006KT CAVOK 20/14 A3001 RMK SCT120 NOSIG=
200901130800 METAR MROC 130800Z 10006KT CAVOK 17/13 A3001 RMK FEW110=
200901130900 METAR MROC NIL=
200901131000 METAR MROC NIL=
200901131100 METAR MROC 131100Z 04008KT CAVOK 18/13 A3000 RMK FEW250=
200901131200 METAR MROC 131200Z 08003KT CAVOK 17/13 A3002 RMK FEW120=
200901131300 METAR MROC 131300Z 08006KT CAVOK 20/14 A3004 RMK TRACE SC SCT250 NOSIG=
200901131400 METAR MROC 131400Z 06007KT CAVOK 24/15 A3006 RMK TRACE SC FEW100 SCT250 NOSIG=
200901131500 METAR MROC 131500Z 10010KT CAVOK 25/16 A3006 RMK TRACE SC FEW120 BKN250 VEL MAX VTO 18KT NOSIG=
200901131600 METAR MROC 131600Z 10011KT CAVOK 25/15 A3006 RMK TRACE SC BKN250 NOSIG=
200901131700 METAR MROC 131700Z 12009KT 9999 SCT035 SCT110 26/16 A3005 RMK FEW250 VEL MAX VTO 17KT NOSIG=
200901131800 METAR MROC 131800Z 10010KT 9999 SCT030 SCT250 27/16 A3002 NOSIG=
200901131900 METAR MROC 131900Z 12009KT 9999 SCT030 SCT110 26/16 A2999 RMK FEW250 NOSIG=
200901132000 METAR MROC 132000Z 10009KT 9999 SCT030 BKN250 27/16 A2997 RMK FEW110 NOSIG=
200901132100 METAR MROC 132100Z 10013KT 9999 SCT025 BKN250 26/16 A2994 NOSIG=
200901132200 METAR MROC 132200Z 08008KT 9999 FEW025 BKN250 25/15 A2996 RMK FEW120 NOSIG=
200901132300 METAR MROC 132300Z 09007KT CAVOK 24/14 A2996 RMK BKN250 NOSIG=
200901132352 METAR MROC 140000Z 10013KT CAVOK 22/15 A2998 RMK TRACE CU BKN250 NOSIG=
200901140000 METAR MROC 140000Z 10013KT CAVOK 22/15 A2998 RMK TRACE CU BKN250 NOSIG=
200901140100 METAR MROC 140100Z 10016KT CAVOK 21/15 A3000 RMK FEW250 TRACE SC NOSIG=
200901140200 METAR MROC 140200Z 10013KT CAVOK 21/15 A3003 RMK FEW250 TRACE CU=
200901140300 METAR MROC 140300Z 11013KT CAVOK 21/15 A3004 RMK TRACE SC BKN250 NOSIG=
200901140400 METAR MROC 140400Z 10013KT CAVOK 21/15 A3005 RMK TRACE SC BKN250 NOSIG=
200901140500 METAR MROC 140500Z 11010KT CAVOK 21/15 A3005 RMK TRACE SC BKN250 NOSIG=
200901140600 METAR MROC 140600Z 10010KT CAVOK 20/15 A3005 RMK TRACE SC SCT120 NOSIG=
200901140700 METAR MROC 140700Z 05006KT CAVOK 20/15 A3002 RMK TRACE SC SCT120 NOSIG=
200901140800 METAR MROC 140800Z 09008KT CAVOK 20/15 A3001 RMK TRACE SC SCT120 NOSIG=
200901140900 METAR MROC 140900Z 11010KT CAVOK 20/15 A3000 RMK TRACE SC SCT120 NOSIG=
200901141000 METAR MROC 141000Z 07005KT CAVOK 20/15 A3001 RMK TRACE SC SCT120 NOSIG=
200901141100 METAR MROC 141100Z 04005KT CAVOK 19/14 A3002 RMK TRACE SC SCT120 NOSIG=
200901141200 METAR MROC 141200Z 02006KT CAVOK 19/13 A3002 RMK TRACE SC SCT250 NOSIG=
200901141300 METAR MROC 141300Z 07007KT CAVOK 21/13 A3003 RMK TRACE SC SCT250=
200901141400 METAR MROC 141400Z 10017KT CAVOK 23/14 A3004 RMK TRACE CU FEW250 NOSIG=
200901141500 METAR MROC 141500Z 10018KT CAVOK 25/14 A3004 RMK FEW250 TRACE CU NOSIG=
200901141600 METAR MROC 141600Z 10014KT CAVOK 26/14 A3004 RMK SCT250 TRACE CU SC NOSIG=
200901141700 METAR MROC 141700Z 10014KT CAVOK 27/14 A3004 RMK TRACE CU SC SCT250 NOSIG=
200901141800 METAR MROC 141800Z 10015KT CAVOK 27/15 A3002 RMK VEL MAX VIENTO 22 KTS TRACE CU SC BKN250=
200901141900 METAR MROC 141900Z 10012KT 9999 FEW030 BKN250 26/15 A3000 NOSIG=
200901142000 METAR MROC 142000Z 10013KT 9999 FEW030 BKN250 27/13 A2998 NOSIG=
200901142100 METAR MROC 142100Z 11011KT 9999 SCT030 BKN250 27/14 A2998 NOSIG=
200901142200 METAR MROC 142200Z 09012KT 9999 SCT030 SCT250 26/13 A2998 NOSIG=
200901142300 METAR MROC 142300Z 07009KT 9999 SCT030 SCT070 25/15 A3001 RMK RN N NE NOSIG=
200901150000 METAR MROC 150000Z 10006KT 9999 FEW030 22/14 A3002 RMK TRACE AC CI=
200901150100 METAR MROC 150100Z 09010KT CAVOK 21/16 A3004 RMK TRACE SC=
200901150200 METAR MROC 150200Z 09005KT CAVOK 21/15 A3007 RMK TRACE SC NOSIG=
200901150300 METAR MROC 150300Z 04004KT CAVOK 20/15 A3011 RMK TRACE SC NOSIG=
200901150400 METAR MROC 150400Z 08008KT CAVOK 20/15 A3010 RMK TRACE SC NOSIG=
200901150500 METAR MROC 150500Z 07008KT CAVOK 19/14 A3008 RMK TRACE SC NOSIG=
200901150600 METAR MROC 150600Z 10006KT CAVOK 20/14 A3007 RMK TRACE SC NOSIG=
200901150700 METAR MROC 150700Z 04004KT CAVOK 19/13 A3005 RMK TRACE SC NOSIG=
200901150800 METAR MROC 150800Z 06005KT CAVOK 19/14 A3003 RMK TRACE SC=
200901150900 METAR MROC 150900Z 08005KT CAVOK 20/14 A3001 RMK TRACE SC=
200901151000 METAR MROC 151000Z 06006KT CAVOK 19/14 A3001 RMK TRACE SC=
200901151100 METAR MROC 151100Z 05005KT CAVOK 19/14 A3002 RMK TRACE SC=
200901151200 METAR MROC 151200Z 02005KT CAVOK 19/14 A3004 RMK TRACE SC SCT250=
200901151300 METAR MROC 151300Z 05007KT 9999 FEW035 BKN250 21/16 A3004 RMK DZ N NE NOSIG=
200901151400 METAR MROC 151400Z 09011KT 9999 FEW035 BKN250 23/16 A3005 RMK DZ N NE NOSIG=
200901151500 METAR MROC 151500Z 10015KT 9999 FEW035 BKN250 24/16 A3006 RMK DZ NE RAFAGAS 22KT NOSIG=
200901151600 METAR MROC 151600Z 11012KT 9999 FEW035 BKN250 25/16 A3005 RMK DZ N NE RAFAG AS 17KT NOSIG=
200901151700 METAR MROC 151700Z 13014KT 9999 SCT030 BKN250 25/17 A3004 RMK DZ N NE NOSIG=
200901151800 METAR MROC 151800Z 12010KT 9999 SCT030 SCT070 25/16 A3003 RMK DZ N NE SCT250 NOSIG=
200901151900 METAR MROC 151900Z 10014KT 9999 SCT030 BKN070 25/16 A3002 RMK DZ N NE NOSIG=
200901152000 METAR MROC 152000Z 12013KT 9999 SCT030 BKN070 24/16 A2999 RMK DZ N NE NOSIG=
200901152100 METAR MROC 152100Z 10009KT 9999 BKN040 SCT250 24/15 A2998 RMK DZ N NE NOSIG=
200901152200 METAR MROC 152200Z 10014KT 9999 FEW040 BKN250 24/13 A2998 RMK DZ N NE NOSIG=
200901152300 METAR MROC 152300Z 09009KT 9999 FEW035 SCT120 BKN250 23/11 A3000 RMK DZ NE NOSIG=
200901160000 METAR MROC 160000Z 10009KT CAVOK 21/12 A3002 RMK TRAZAS SCT FEW120 BKN250 DZ NE NOSIG=
200901160100 METAR MROC 160100Z 11011KT CAVOK 20/14 A3004 RMK TRAZAS SC SCT280 NOSIG=
200901160200 METAR MROC 160200Z 10013KT CAVOK 20/14 A3005 RMK TRAZAS SCT FEW280 NOSIG=
200901160300 METAR MROC 160300Z 10017KT CAVOK 20/14 A3007 RMK TRACE CU FEW280 NOSIG=
200901160355 METAR MROC 160355Z 10017KT CAVOK 21/14 A3009 RMK TRACE CU FEW250 NOSIG=
200901160400 METAR MROC 160400Z 10017KT CAVOK 21/14 A3009 RMK TRACE CU FEW250 NOSIG=
200901160500 METAR MROC 160500Z 10017KT CAVOK 21/12 A3008 RMK TRACE CU FEW250 NOSIG=
200901160600 METAR MROC 160600Z 10014KT CAVOK 20/12 A3008 RMK TRACE CU SCT250 NOSIG=
200901160700 METAR MROC 160700Z 08009KT CAVOK 20/12 A3006 RMK TRACE CU SCT250 NOSIG=
200901160800 METAR MROC 160800Z 08010KT CAVOK 20/10 A3004 RMK TRACE CU SCT250 NOSIG=
200901160900 METAR MROC NIL=
200901161000 METAR MROC 161000Z 09013KT CAVOK 20/12 A3003 RMK TRACE CU SC SCT250 NOSIG=
200901161100 METAR MROC 161100Z 11013KT CAVOK 19/13 A3003 RMK TRACE CU SC SCT250 NOSIG=
200901161200 METAR MROC 161200Z 08006KT 9999 FEW020 BKN250 19/15 A3006 NOSIG=
200901161300 METAR MROC 161300Z 10013KT 9999 FEW020 SCT120 BKN280 20/15 A3006 RMK DZ NW N NE E NOSIG=
200901161400 METAR MROC 161400Z 10010KT 9999 FEW025 BKN280 22/15 A3008 RMK FEW120 DZ N NE NOSIG=
200901161500 METAR MROC 161500Z 10012G22KT 9999 FEW020 SCT280 23/15 A3008 RMK DZ N NE NOSIG=
200901161600 METAR MROC 161600Z 10012G22KT 9999 FEW025 SCT250 25/15 A3009 RMK DZ N NE NOSIG=
200901161700 METAR MROC 161700Z 11014KT 9999 FEW025 BKN280 25/14 A3009 RMK FEW120 DZ N NE NOSIG=
200901161800 METAR MROC 161800Z 08014KT 9999 SCT030 BKN280 25/15 A3008 RMK DZ N NE NOSIG=
200901161900 METAR MROC 161900Z 09014KT 9999 FEW030 BKN250 24/15 A3005 RMK DZ N NE NOSIG=
200901162000 METAR MROC 162000Z 10012G22KT 9999 FEW030 BKN250 23/15 A3003 RMK DZ N NE NOSIG=
200901162100 METAR MROC 162100Z 08011KT 9999 SCT030 BKN220 22/14 A3003 RMK DZ N NE NOSIG=
200901162200 METAR MROC 162200Z 10010KT 9999 SCT030 BKN200 23/13 A3003 RMK DZ NE NOSIG=
200901162300 METAR MROC NIL=
200901170000 METAR MROC 170000Z 09010KT 9999 FEW030 BKN230 21/12 A3005 NOSIG=
200901170100 METAR MROC 170100Z 11010KT 9999 FEW030 BKN230 20/13 A3007 NOSIG=
200901170200 METAR MROC 170200Z 11013KT 9999 FEW030 BKN250 20/13 A3010 NOSIG=
200901170300 METAR MROC 170300Z 10011KT 9999 FEW030 BKN250 20/14 A3011 NOSIG=
200901170400 METAR MROC 170400Z 11012KT 9999 FEW030 BKN250 21/12 A3011 NOSIG=
200901170500 METAR MROC 170500Z 10010KT CAVOK 20/13 A3011 RMK TRACE SC BKN250 NOSIG=
200901170600 METAR MROC 170600Z 09009KT CAVOK 20/13 A3011 RMK TRACE SC BKN250 NOSIG=
200901170700 METAR MROC 170700Z 10008KT CAVOK 19/13 A3010 RMK TRACE SC AC BKN250 NOSIG=
200901170800 METAR MROC 170800Z 11011KT CAVOK 19/14 A3008 RMK TRACE SC AC BKN250 NOSIG=
200901170900 METAR MROC 170900Z 10012KT CAVOK 19/14 A3007 RMK TRACE SC AC BKN250=
200901171000 METAR MROC 171000Z 10010KT CAVOK 19/14 A3007 RMK TRACE SC AC BKN250=
200901171100 METAR MROC 171100Z 10013KT CAVOK 19/14 A3007 RMK TRACE SC AC BKN250=
200901171200 METAR MROC 171200Z 10012KT 9999 FEW030 SCT130 BKN250 19/14 A3007=
200901171300 METAR MROC 171300Z 11016KT 9999 FEW030 BKN130 20/14 A3009 NOSIG=
200901171400 METAR MROC 171400Z 10014KT 9999 FEW030 BKN130 22/14 A3011 NOSIG=
200901171500 METAR MROC 171500Z 10014KT 9999 FEW030 SCT130 SCT250 23/14 A3013 NOSIG=
200901171600 METAR MROC 171600Z 08015KT 9999 FEW030 SCT130 BKN250 24/14 A3013 NOSIG=
200901171700 METAR MROC 171700Z 08015KT 9999 FEW035 SCT120 BKN250 24/13 A3012 RMK VL MX VIENTO 22KT NOSIG=
200901171800 METAR MROC 171800Z 07014KT 9999 FEW035 SCT120 BKN250 24/11 A3009 RMK VL MX VVIENTO 21KT NOSIG=
200901171900 METAR MROC 171900Z 08016G26KT 9999 FEW035 SCT120 BKN250 25/14 A3007 NOSIG=
200901172000 METAR MROC 172000Z 08015KT 9999 FEW035 SCT120 BKN250 25/14 A3004 RMK VL MX VIENTO 21KT NOSIG=
200901172100 METAR MROC 172100Z 08017KT 9999 FEW030 SCT1320 BKN250 25/14 A3003 RMK RN DST E NOSIG=
200901172200 METAR MROC 172200Z 09012G22KT 9999 FEW040 SCT120 BKN250 23/14 A3004 NOSIG=
200901172300 METAR MROC 172300Z 09017KT 9999 FEW040 SCT120 BKN250 22/14 A3005 NOSIG=
200901180000 METAR MROC 180000Z 09018KT 9999 FEW035 SCT120 BKN250 22/13 A3006 NOSIG=
200901180100 METAR MROC 180100Z 09011KT 9999 FEW035 SCT120 BKN250 21/14 A3008 NOSIG=
200901180200 METAR MROC 180200Z 08013KT CAVOK 21/12 A3009 RMK TRACE SC SCT250 NOSIG=
200901180300 METAR MROC 180300Z 09012KT CAVOK 21/12 A3012 NOSIG=
200901180400 METAR MROC 180400Z 09009KT CAVOK 20/12 A3011 NOSIG=
200901180500 METAR MROC 180500Z 09010KT CAVOK 20/12 A3011 NOSIG=
200901180600 METAR MROC 180600Z 10010G20KT CAVOK 20/11 A3010 NOSIG=
200901180700 METAR MROC 180700Z 10009KT CAVOK 19/11 A3009 NOSIG=
200901180800 METAR MROC NIL=
200901180900 METAR MROC 180900Z 10010KT CAVOK 19/11 A3005=
200901181000 METAR MROC 181000Z 10009KT CAVOK 19/10 A3005=
200901181100 METAR MROC 181100Z 10009KT CAVOK 19/11 A3006=
200901181200 METAR MROC 181200Z 10010KT CAVOK 19/11 A3009=
200901181300 METAR MROC 181300Z 11010KT CAVOK 20/11 A3010 RMK TRAZAS SCT NOSIG=
200901181400 METAR MROC 181400Z 11016KT CAVOK 22/12 A3013 RMK TRAZAS SCT NOSIG=
200901181500 METAR MROC 181500Z 12018KT CAVOK 23/12 A3014 RMK TRAZAS SCT NOSIG=
200901181600 METAR MROC 181600Z 11019KT CAVOK 24/14 A3014 RMK TRAZAS SCT/CI NOSIG=
200901181700 METAR MROC 181700Z 11019KT 9999 FEW035 26/14 A//// NOSIG=
200901181800 METAR MROC 181800Z 09016KT 9999 FEW040 26/15 A3008 NOSIG=
200901181900 METAR MROC 181900Z 09018KT 9999 SCT035 26/15 A3006 NOSIG=
200901182000 METAR MROC 182000Z 10016KT 9999 SCT035 BKN090 25/15 A3004 NOSIG=
200901182100 METAR MROC 182100Z 11014KT 9999 SCT030 BKN120 24/15 A3002 NOSIG=
200901182200 METAR MROC 182200Z 10008KT 9999 FEW030 SCT260 24/14 A3003 RMK TRACE AC NOSIG=
200901182300 METAR MROC 182300Z 09009KT 9999 FEW030 23/13 A3005 RMK TRACE CI NOSIG=
200901182354 METAR MROC 190000Z 10010KT 9999 FEW025 21/13 A3007 NOSIG=
200901182358 METAR MROC 190000Z 10010KT 9999 FEW025 21/13 A3007 NOSIG=
200901190000 METAR MROC 190000Z 10010KT 9999 FEW025 21/13 A3007 NOSIG=
200901190100 METAR MROC 190100Z 10014KT 9999 FEW025 20/15 A3008 NOSIG=
200901190200 METAR MROC 190200Z 11016KT 9999 FEW025 20/14 A3011 NOSIG=
200901190300 METAR MROC 190300Z 12011KT 9999 FEW025 20/14 A3013 NOSIG=
200901190400 METAR MROC 190400Z 10010KT 9999 FEW025 20/14 A3012 NOSIG=
200901190500 METAR MROC 190500Z 11010KT 9999 FEW025 20/13 A3010 NOSIG=
200901190600 METAR MROC 190600Z 11010KT CAVOK 20/13 A3009 NOSIG=
200901190700 METAR MROC 190700Z 11010KT CAVOK 20/13 A3006 NOSIG=
200901190800 METAR MROC 190800Z 10007KT CAVOK 19/14 A3005 NOSIG=
200901190900 METAR MROC 190900Z 12008KT CAVOK 19/14 A3004 NOSIG=
200901191000 METAR MROC 191000Z 12010KT CAVOK 19/15 A3005 NOSIG=
200901191100 METAR MROC 191100Z 12008KT CAVOK 19/14 A3007 NOSIG=
200901191200 METAR MROC 191200Z 10007KT 9999 FEW035 SCT100 19/14 A3008 NOSIG=
200901191300 METAR MROC 191300Z 11008KT 9999 FEW035 SCT080 20/14 A3010 RMK VEL MX VTO 14KT NOSIG=
200901191400 METAR MROC 191400Z 10008KT 9999 FEW035 BKN080 21/15 A3013 RMK PCPN DST NE VEL MX VTO 14KT NOSIG=
200901191500 METAR MROC 191500Z 11010KT 9999 FEW035 SCT080 22/16 A3014 RMK VEL MX VTO 16KT PCPN DST NE NOSIG=
200901191600 METAR MROC 191600Z 12009KT 9999 FEW035 SCT100 25/15 A3013 RMK VEL MX VTO 14KT NOSIG=
200901191700 METAR MROC 191700Z 11010KT 9999 FEW035 SCT070 26/15 A3011 RMK VEL MX VTO 16KT=
200901191800 METAR MROC 191800Z 11008KT 9999 FEW035 BKN060 27/16 A3006 NOSIG=
200901191900 METAR MROC 191900Z 24004KT 9999 FEW035 BKN060 25/17 A3006 RMK PCPN DST NE NOSIG=
200901192000 METAR MROC 192000Z 08006KT 9999 FEW035 BKN050 25/16 A3004 RMK PCPN DST N NE NOSIG=
200901192100 METAR MROC 192100Z 10009KT 9999 SCT030 BKN250 25/16 A3002 RMK DZ NE NOSIG=
200901192200 METAR MROC 192200Z 09010KT 9999 FEW030 SCT110 BKN250 24/16 A3002 NOSIG=
200901192300 METAR MROC 192300Z 10009KT 9999 FEW030 BKN250 23/16 A3003 RMK TRACE AC NOSIG=
200901200000 METAR MROC 200000Z 09006KT 9999 FEW030 BKN250 22/15 A3006 RMK TRACE AC NOSIG=
200901200100 METAR MROC 200100Z 10008KT CAVOK 21/16 A3006 RMK TRACE SC SCT100 SCT250 NOSIG=
200901200200 METAR MROC 200200Z 10009KT CAVOK 21/14 A3009 RMK TRACE SC AC SCT250 NOSIG=
200901200300 METAR MROC 200300Z 10014KT 9999 FEW035 SCT250 20/14 A3011 NOSIG=
200901200400 METAR MROC 200400Z 10015KT 9999 FEW035 SCT250 20/15 A3010 NOSIG=
200901200500 METAR MROC 200500Z 09015KT 9999 FEW035 SCT250 20/15 A3009 NOSIG=
200901200600 METAR MROC 200600Z 06009KT 9999 FEW035 SCT250 19/16 A3009 NOSIG=
200901200700 METAR MROC 200700Z 05007KT 9999 FEW035 SCT250 18/16 A3007 NOSIG=
200901200800 METAR MROC 200800Z 05006KT 9999 FEW035 SCT250 18/15 A3006 NOSIG=
200901200900 METAR MROC 200900Z 08009KT 9999 FEW035 SCT250 18/15 A3004 NOSIG=
200901201000 METAR MROC 201000Z 04006KT CAVOK 17/15 A3004 RMK TRAZAS SC/CI NOSIG=
200901201100 METAR MROC 201100Z 07010KT CAVOK 18/15 A3005 RMK TRAZAS SC/CI NOSIG=
200901201200 METAR MROC 201200Z 07011KT 9999 FEW035 BKN250 18/15 A3006 NOSIG=
200901201300 METAR MROC 201300Z 09005KT 9999 FEW035 BKN250 20/15 A3009 NOSIG=
200901201400 METAR MROC 201400Z 06005KT 9999 FEW035 BKN250 22/15 A3011 RMK DZ N NE NOSIG=
200901201500 METAR MROC 201500Z 08006KT 9999 FEW035 BKN250 24/16 A3012 RMK DZ N NE NOSIG=
200901201600 METAR MROC 201600Z 08006KT 9999 FEW035 BKN250 26/16 A3011 RMK DZ NE NOSIG=
200901201700 METAR MROC 201700Z 14005KT 9999 SCT035 BKN250 27/15 A3009 RMK DZ N NE NOSIG=
200901201800 METAR MROC 201800Z 25006KT 9999 SCT030 BKN250 26/17 A3007 RMK DZ N NE NOSIG=
200901201900 METAR MROC 201900Z 22005KT 9999 SCT030 BKN250 27/17 A3004 RMK DZ N NE=
200901202000 METAR MROC 202000Z 27007KT 9999 BKN030 26/18 A3002 RMK DZ N NE NOSIG=
200901202100 METAR MROC 202100Z 27005KT 9999 FEW020 BKN040 24/18 A3001 RMK RN N NE BECMG DZ=
200901202200 METAR MROC 202200Z 31003KT 9999 SCT030 SCT080 23/18 A3001 RMK RN E BECMG 06006K T=
200901202300 METAR MROC 202300Z 11004KT 9999 FEW025 BKN040 23/17 A3002 RMK RN NE NOSIG=
200901210000 METAR MROC 210000Z 11007KT 9999 SCT030 SCT045 22/16 A3003 RMK DZ N NE NOSIG=
200901210100 METAR MROC 210100Z 10006KT 9999 SCT035 BKN100 21/16 A3006 NOSIG=
200901210200 METAR MROC 210200Z 10006KT 9999 SCT045 BKN100 21/16 A3008 NOSIG=
200901210300 METAR MROC 210300Z 12005KT 9999 SCT040 BKN080 21/16 A3009 NOSIG=
200901210400 METAR MROC 210400Z 10006KT 9999 SCT040 BKN080 21/16 A3010 NOSIG=
200901210500 METAR MROC 210500Z 10003KT 9999 SCT040 BKN080 21/15 A3010 NOSIG=
200901210600 METAR MROC 210600Z 10003KT 9999 FEW040 BKN080 20/16 A3009 NOSIG=
200901210700 METAR MROC 210700Z 24004KT 9999 FEW040 BKN090 20/14 A3008 NOSIG=
200901210800 METAR MROC 210800Z 15006KT 9999 FEW040 BKN090 18/12 A3007=
200901210900 METAR MROC 210900Z 14007KT 9999 FEW040 BKN090 18/12 A3006=
200901211000 METAR MROC 211000Z 12007KT 9999 FEW045 BKN100 18/11 A3007=
200901211100 METAR MROC 211100Z 07004KT 9999 FEW045 BKN100 19/10 A3009=
200901211200 METAR MROC 211200Z 05006KT 9999 FEW035 BKN080 19/12 A3011 RMK PCPN DST E ENE VEL MX VTO 12KT=
200901211300 METAR MROC 211300Z 06010KT 9999 FEW025 BKN080 19/12 A3011 NOSIG=
200901211400 METAR MROC 211400Z 09009KT 9999 FEW025 BKN080 21/13 A3015 NOSIG=
200901211500 METAR MROC 211500Z 10013KT 9999 FEW030 BKN100 22/14 A3015 NOSIG=
200901211600 METAR MROC 211600Z 08013KT 9999 FEW030 BKN100 23/13 A3014 NOSIG=
200901211700 METAR MROC 211700Z 08012KT 9999 FEW030 BKN100 24/14 A3012 RMK DZ NW N NE NOSIG=
200901211800 METAR MROC 211800Z 08012KT 9999 FEW030 BKN100 24/14 A3008 RMK DZ N NE NOSIG=
200901211900 METAR MROC NIL=
200901212000 METAR MROC 212000Z 08012KT 9999 FEW030 BKN100 23/14 A3004 RMK DZ N NE NOSIG=
200901212100 METAR MROC 212100Z 10010KT 9999 FEW025 BKN100 23/14 A3003 RMK DZ N NE NOSIG=
200901212200 METAR MROC 212200Z 10012KT 9999 FEW025 BKN100 22/14 A3003 RMK DZ N NE VL MX VIENTO 21KT NOSIG=
200901212300 METAR MROC 212300Z 08012KT 9999 FEW030 BKN100 21/15 A3005 RMK DZ N NE VL MX VIENTO 18KT=
200901220000 METAR MROC 220000Z 10012KT 9999 FEW020 BKN100 20/14 A3006 RMK VL MX VIENTO 19KT=
200901220100 METAR MROC 220100Z 09013KT 9999 FEW020 BKN100 20/13 A3007 RMK VL MX VIENTO 20KT NOSIG=
200901220200 METAR MROC 220200Z 09008KT 9999 FEW020 SCT100 19/13 A3010 RMK VL MX VIENTO 16KT NOSIG=
200901220300 METAR MROC 220300Z 10012KT CAVOK 18/14 A3010 RMK VL MX VIENTO 18KT NOSIG=
200901220400 METAR MROC 220400Z 10006KT CAVOK 18/13 A3010 RMK TRACE SC SCT100 NOSIG=
200901220500 METAR MROC 220500Z 10011KT CAVOK 18/14 A3009 RMK TRACE SC BKN120 RAFAGAS 16KT NOSIG=
200901220600 METAR MROC 220600Z 10009KT CAVOK 18/14 A3008 RMK TRACE SC BKN120 RAFAGAS 15KT=
200901220700 METAR MROC 220700Z 06004KT CAVOK 18/14 A3007 RMK TRACE SC BKN120 NOSIG=
200901220800 METAR MROC 220800Z 10010KT CAVOK 18/15 A3005 RMK TRACE SC SCT120=
200901220900 METAR MROC 220900Z 10011KT CAVOK 19/15 A3005 RMK TRACE SC SCT120=
200901221000 METAR MROC 221000Z 10012KT CAVOK 19/15 A3005 RMK TRACE SC CI SCT120=
200901221100 METAR MROC 221100Z 08010KT CAVOK 18/15 A3005 RMK TRACE SC CI SCT120 RAFAGAS 18KT=
200901221200 METAR MROC 221200Z 11012KT 9999 FEW035 SCT120 19/15 A3007=
200901221300 METAR MROC 221300Z 11013KT 9999 FEW025 20/15 A3008 RMK DZ NE NOSIG=
200901221400 METAR MROC 221400Z 11015KT 9999 FEW025 21/15 A3009 RMK VL MX VIENTO 22KT NOSIG=
200901221500 METAR MROC 221500Z 11014KT 9999 FEW025 23/15 A3011 NOSIG=
200901221600 METAR MROC 221600Z 10015KT 9999 FEW025 24/15 A3010 RMK VL MX VIENTO 23KT NOSIG=
200901221700 METAR MROC 221700Z 11016KT 9999 FEW025 25/15 A3008 RMK VL MX VIENTO 25KT NOSIG=
200901221800 METAR MROC 221800Z 11015KT 9999 SCT025 25/15 A3006 RMK VL MX VIENTO 21KT NOSIG=
200901221900 METAR MROC 221900Z 11013KT 9999 FEW025 25/15 A3004 NOSIG=
200901222000 METAR MROC 222000Z 10019KT 9999 FEW025 26/15 A3003 NOSIG=
200901222100 METAR MROC 222100Z 12019KT 9999 SCT030 25/15 A3003 RMK TRAZAS AC/CI NOSIG=
200901222200 METAR MROC 222200Z 12012G22KT 9999 FEW030 SCT090 24/15 A3004 NOSIG=
200901222300 METAR MROC 222300Z 11017KT 9999 FEW030 22/15 A3006 RMK TRAZAS AC NOSIG=
200901230000 METAR MROC 230000Z 10015KT 9999 FEW030 BKN250 20/15 A3007 NOSIG=
200901230100 METAR MROC 230100Z 10013KT 9999 FEW030 BKN250 20/16 A3007 NOSIG=
200901230200 METAR MROC 230200Z 10011KT CAVOK 20/16 A3008 RMK TRAZAS SC SCT250 NOSIG=
200901230300 METAR MROC 230300Z 10012KT CAVOK 20/16 A3009 RMK TRAZAS SCT NOSIG=
200901230400 METAR MROC 230400Z 10012KT CAVOK 20/16 A3009 RMK TRAZAS SCT NOSIG=
200901230500 METAR MROC 230500Z 11009KT CAVOK 20/16 A3007 RMK TRAZAS SCT NOSIG=
200901230600 METAR MROC 230600Z 11011KT CAVOK 20/16 A3007 RMK TRAZAS SCT NOSIG=
200901230700 METAR MROC NIL=
200901230800 METAR MROC NIL=
200901230900 METAR MROC 230900Z 10008KT CAVOK 20/16 A3003 RMK TRAZAS SC=
200901231000 METAR MROC 231000Z 11012KT CAVOK 21/16 A3003 RMK TRAZAS SCT=
200901231100 METAR MROC 231100Z 10013KT CAVOK 20/16 A3005=
200901231200 METAR MROC 231200Z 10011KT CAVOK 20/16 A3006 RMK TRAZAS SCT SCT300=
200901231300 METAR MROC 231300Z 10017KT 9999 FEW035 SCT250 21/16 A3008 RMK DZ DST N/NE NOSIG=
200901231400 METAR MROC 231400Z 10012G22KT 9999 SCT030 SCT250 23/17 A3009 RMK DZ DST N/N E NOSIG=
200901231500 METAR MROC 231500Z 10012G22KT 9999 FEW030 SCT250 25/17 A3010 RMK DZ DST N/NE NOSIG=
200901231600 METAR MROC 231600Z 11010G20KT 9999 FEW030 SCT250 25/17 A3010 RMK DZ DST N NOSIG=
200901231700 METAR MROC 231700Z 11012G22KT 9999 FEW030 SCT250 26/16 A3008 RMK DZ DST NE NOSIG=
200901231800 METAR MROC 231800Z 11012G22KT 9999 FEW030 SCT250 27/17 A3006 RMK DZ DST NE NOSIG=
200901231900 METAR MROC 231900Z 10012G22KT 9999 SCT030 SCT250 27/16 A3004 NOSIG=
200901232000 METAR MROC 232000Z 10017KT 9999 FEW030 27/15 A3002 RMK DZ DST NE=
200901232100 METAR MROC 232100Z 09012KT 9999 FEW035 26/14 A3001 RMK TRACE CI VEL MX VTO 17KT DZ DST NNE NOSIG=
200901232200 METAR MROC 232200Z 08012KT 9999 FEW035 26/14 A3002 RMK VEL MX VTO 18KT NOSIG=
200901232300 METAR MROC 232300Z 08012KT 9999 FEW035 24/13 A3003 NOSIG=
200901240000 METAR MROC 240000Z 08009KT 9999 FEW035 22/13 A3004 NOSIG=
200901240100 METAR MROC 240100Z 08012KT 9999 FEW035 21/14 A3004 RMK VEL MX VTO 20KT NOSIG=
200901240200 METAR MROC 240200Z 09009KT CAVOK 21/13 A3006 RMK TRACE SC NOSIG=
200901240300 METAR MROC 240300Z 10011KT CAVOK 20/14 A3007 RMK TRAZAS SCT NOSIG=
200901240400 METAR MROC 240400Z 09013KT CAVOK 21/14 A3007 RMK TRACE SC NOSIG=
200901240500 METAR MROC 240500Z 09013KT CAVOK 20/14 A3005 RMK TRACE SC NOSIG=
200901240600 METAR MROC 240600Z 10011KT CAVOK 21/13 A3004 RMK TRACE SC NOSIG=
200901240700 METAR MROC 240700Z 09013KT CAVOK 20/13 A3003 RMK TRACE SC NOSIG=
200901240800 METAR MROC NIL=
200901240900 METAR MROC 240900Z 10011KT CAVOK 19/14 A3001 RMK TRACE SC NOSIG=
200901241000 METAR MROC 241000Z 10008KT CAVOK 19/14 A3002 RMK TRACE SC NOSIG=
200901241100 METAR MROC 241100Z 11010KT CAVOK 19/14 A3002 RMK VL MX VIENTO 19KT TRACE SC NOSIG=
200901241200 METAR MROC 241200Z 11010KT CAVOK 19/14 A3003 RMK VL MX VIENTO 17KT TRACE SC CI NOSIG=
200901241300 METAR MROC 241300Z 08005KT CAVOK 20/14 A3005 RMK TRACE SC CI NOSIG=
200901241400 METAR MROC 241400Z 10012KT CAVOK 23/15 A3006 RMK TRACE SC CI VEL MX VTO 18KT NOSIG=
200901241500 METAR MROC 241500Z 10012KT CAVOK 24/15 A3006 RMK TRACE SC CI VEL MX VTO 19KT NOSIG=
200901241600 METAR MROC 241600Z 10013KT 9999 FEW030 26/15 A3007 RMK DZ DST ENE VEL MX VTO 19KT NOSIG=
200901241700 METAR MROC 241700Z 10013KT 9999 FEW030 26/15 A3004 RMK VEL MX VTO 20KT NOSIG=
200901241800 METAR MROC 241800Z 09011KT 9999 FEW030 27/16 A3003 RMK VEL MX VTO 17KT NOSIG=
200901241900 METAR MROC 241900Z 10010KT 9999 FEW030 28/15 A3000 NOSIG=
200901242000 METAR MROC 242000Z 08013KT 9999 FEW035 28/15 A2998 RMK VEL MX VTO 19KT=
200901242100 METAR MROC 242100Z 06013KT 9999 SCT035 28/15 A2997 NOSIG=
200901242200 METAR MROC 242200Z 09011KT 9999 SCT035 27/16 A2997 NOSIG=
200901242300 METAR MROC 242300Z 09010KT 9999 SCT030 SCT070 25/16 A2998 NOSIG=
200901250000 METAR MROC 250000Z 08010KT 9999 SCT030 SCT070 23/16 A2999 NOSIG=
200901250100 METAR MROC 250100Z 11005KT 9999 FEW030 22/16 A3001 RMK TRACE AS NOSIG=
200901250200 METAR MROC 250200Z 08006KT 9999 FEW035 21/16 A3003 NOSIG=
200901250300 METAR MROC 250300Z 08009KT 9999 FEW040 SCT090 21/16 A3004 NOSIG=
200901250400 METAR MROC 250400Z 10005KT CAVOK 21/16 A3004 RMK TRAZAS SC NOSIG=
200901250500 METAR MROC 250500Z 07009KT CAVOK 20/16 A3003 RMK TRAZAS SC NOSIG=
200901250600 METAR MROC 250600Z 07008KT 9999 -RA FEW035 BKN100 21/16 A3002 NOSIG=
200901250700 METAR MROC 250700Z 04012KT 9999 FEW035 BKN100 19/17 A3000 RMK RERA NOSIG=
200901250800 METAR MROC 250800Z 08011KT 9999 FEW035 SCT100 20/17 A2998 NOSIG=
200901250900 METAR MROC 250900Z 05009KT 9999 FEW035 SCT100 20/17 A2997 NOSIG=
200901251000 METAR MROC 251000Z 07010KT 9999 FEW035 SCT120 20/17 A2997 NOSIG=
200901251100 METAR MROC 251100Z 11011KT 9999 FEW035 SCT120 20/16 A2997 NOSIG=
200901251200 METAR MROC 251200Z 11011KT 9999 SCT030 BKN100 20/16 A2999 RMK RN DST N/NE NOSIG=
200901251300 METAR MROC 251300Z 13009KT 9999 SCT030 BKN100 21/17 A3001 RMK RN N NE NOSIG=
200901251400 METAR MROC 251400Z 12008KT 9999 SCT030 BKN100 22/17 A3004 RMK RN N NE NOSIG=
200901251500 METAR MROC 251500Z 12009KT 9999 SCT030 SCT100 24/16 A3003 RMK RN N NE NOSIG=
200901251600 METAR MROC 251600Z 12011KT 9999 SCT030 SCT100 23/16 A3004 RMK RN N NE S NOSIG=
200901251700 METAR MROC 251700Z 12011KT 9999 SCT030 BKN100 23/17 A3002 RMK RN ARND NOSIG=
200901251800 METAR MROC 251800Z 12008KT 9999 SCT030 BKN100 22/17 A3001 RMK RN N NE S NOSIG=
200901251900 METAR MROC 251900Z 11012KT 9999 -RA SCT030 BKN100 22/18 A2998 NOSIG=
200901252000 METAR MROC 252000Z 11009KT 9999 SCT030 BKN100 23/17 A2995 RERA RMK RN N E S NOSIG=
200901252100 METAR MROC 252100Z 11011KT 9999 FEW025 SCT100 26/17 A2995 RMK DZ N NE NOSIG=
200901252200 METAR MROC 252200Z 10009KT 9999 SCT030 SCT100 24/16 A2996 RMK DZ NW NE NOSIG=
200901252300 METAR MROC 252300Z 11011KT 9999 SCT030 SCT100 22/16 A2996 RMK DZ N NE NW NOSIG=
200901260000 METAR MROC 260000Z 11010KT 9999 SCT030 21/16 A2998 RMK FEW100 DZ N NE NOSIG=
200901260100 METAR MROC 260100Z 10012KT 9999 SCT030 21/16 A3000 NOSIG=
200901260200 METAR MROC 260200Z 11010KT 9999 FEW035 21/16 A3002 RMK FEW100 NOSIG=
200901260300 METAR MROC 260300Z 10005KT 9999 FEW035 SCT070 20/16 A3003 NOSIG=
200901260400 METAR MROC 260400Z 10011KT 9999 FEW035 SCT080 20/15 A3003 RMK MX VEL VTO 19KT NOSIG=
200901260500 METAR MROC 260500Z 10010G20KT 9999 FEW035 SCT080 20/15 A3003 NOSIG=
200901260600 METAR MROC 260600Z 11012KT 9999 FEW035 SCT080 20/15 A3002 NOSIG=
200901260700 METAR MROC 260700Z 10012KT 9999 FEW030 SCT090 20/15 A3000 RMK VEL MX VTO 16KT NOSIG=
200901260800 METAR MROC 260800Z 10013KT 9999 FEW030 SCT090 20/15 A2998 RMK VEL MX VTO 20KT NOSIG=
200901260900 METAR MROC 260900Z 09012KT 9999 FEW030 20/16 A2996 RMK VEL MX VTO 18KT=
200901261000 METAR MROC 261000Z 11012KT 9999 FEW030 20/15 A2996=
200901261100 METAR MROC 261100Z 09009KT 9999 FEW030 20/16 A2998 RMK VEL MX VTO 16KT=
200901261200 METAR MROC 261200Z 10012KT 9999 FEW030 SCT300 20/15 A2998 RMK VEL MX VTO 16KT=
200901261300 METAR MROC 261300Z 09014KT 9999 FEW020 21/16 A3001 RMK DZ N NE NOSIG=
200901261400 METAR MROC 261400Z 08016KT 9999 FEW020 23/14 A3003 RMK DZ N NE NOSIG=
200901261500 METAR MROC 261500Z 09014KT 9999 FEW020 24/15 A3004 RMK DZ N NE NOSIG=
200901261600 METAR MROC 261600Z 08014KT 9999 SCT030 25/15 A3004 RMK DZ N NE NOSIG=
200901261700 METAR MROC 261700Z 08017KT 9999 SCT040 24/14 A3002 RMK FEW080 DZ N NE NOSIG=
200901261800 METAR MROC 261800Z 09012G22KT 9999 SCT040 26/15 A2999 RMK DZ N NE NOSIG=
200901261900 METAR MROC 261900Z 07017G27KT 9999 SCT030 27/14 A2997 RMK DZ N NE NOSIG=
200901262000 METAR MROC 262000Z 07016KT 9999 FEW035 26/13 A2995 RMK DZ N NE NOSIG=
200901262100 METAR MROC 262100Z 07018G28KT 9999 FEW030 26/14 A2994 RMK DZ N NR NOSIG=
200901262200 METAR MROC 262200Z 06022KT 9999 FEW025 25/23 A2994 RMK DZ NE VL MX VIENTO 30KT NOSIG=
200901262300 METAR MROC 262300Z 07018KT 9999 FEW025 24/21 A2996 RMK DZ N NE VL MX VIENTO 27KT NOSIG=
200901270000 METAR MROC 270000Z 07012KT CAVOK 22/11 A2998 RMK VL MX VIENTO 19KT NOSIG=
200901270100 METAR MROC 270100Z 09013KT CAVOK 21/12 A2999=
200901270200 METAR MROC 270200Z 09011KT CAVOK 20/13 A3001 RMK TRACE SC NOSIG=
200901270300 METAR MROC 270300Z 09011KT CAVOK 20/14 A3001 RMK TRACE SC NOSIG=
200901270400 METAR MROC 270400Z 10010KT CAVOK 20/14 A3003 RMK TRACE SC NOSIG=
200901270500 METAR MROC 270500Z 10012KT CAVOK 20/14 A3002 RMK TRACE SC NOSIG=
200901270600 METAR MROC 270600Z 10010KT CAVOK 19/14 A3001 RMK TRACE SC NOSIG=
200901270700 METAR MROC 270700Z 10012KT CAVOK 19/14 A3000 RMK TRACE SC NOSIG=
200901270800 METAR MROC 270800Z 10011KT CAVOK 20/14 A2999 RMK TRACE SC=
200901270900 METAR MROC 270900Z 09010KT CAVOK 20/13 A2998 RMK TRACE SC=
200901271000 METAR MROC 271000Z 10008KT CAVOK 19/14 A2999 RMK TRACE SC=
200901271100 METAR MROC 271100Z 10010KT CAVOK 19/13 A3001 RMK TRACE SC=
200901271200 METAR MROC 271200Z 12010KT CAVOK 19/13 A3002 RMK TRACE SC=
200901271300 METAR MROC 271300Z 10009KT CAVOK 21/13 A3004 RMK TRACE SC NOSIG=
200901271400 METAR MROC 271400Z 09011KT CAVOK 23/14 A3005 RMK TRACE SC=
200901271500 METAR MROC 271500Z 09014KT 9999 FEW025 25/13 A3005 RMK PCPN NE NOSIG=
200901271600 METAR MROC 271600Z 08014KT 9999 FEW025 27/12 A3004 RMK PCPN NE NOSIG=
200901271700 METAR MROC 271700Z 08012KT 9999 FEW025 27/12 A3002 NOSIG=
200901271800 METAR MROC 271800Z 08014KT 9999 FEW025 28/14 A2999 NOSIG=
200901271900 METAR MROC 271900Z 08014KT 9999 FEW025 28/14 A2997 RMK PCPN NE NOSIG=
200901272000 METAR MROC 272000Z 06012KT 9999 FEW025 29/14 A2995 RMK PCPN NE NOSIG=
200901272100 METAR MROC 272100Z 07012G22KT 9999 FEW035 27/14 A2995 NOSIG=
200901272200 METAR MROC 272200Z 07018KT 9999 FEW035 27/15 A2994 NOSIG=
200901272300 METAR MROC 272300Z 06013G23KT 9999 FEW035 25/15 A2996 NOSIG=
200901280000 METAR MROC 280000Z 08011KT 9999 SCT035 23/16 A2997 NOSIG=
200901280100 METAR MROC 280100Z 09011KT 9999 FEW035 22/16 A2998 NOSIG=
200901280200 METAR MROC 280200Z 10013KT 9999 FEW035 22/17 A2998 NOSIG=
200901280300 METAR MROC NIL=
200901280400 METAR MROC 280400Z 10011KT CAVOK 21/16 A2999 RMK TRAZAS SC NOSIG=
200901280500 METAR MROC 280500Z 10008KT CAVOK 21/16 A2999 RMK TRAZAS SCT NOSIG=
200901280600 METAR MROC 280600Z 10011KT CAVOK 21/16 A2998 RMK TRAZAS SCT NOSIG=
200901280700 METAR MROC NIL=
200901280800 METAR MROC NIL=
200901280900 METAR MROC 280900Z 10008KT CAVOK 20/15 A2997 RMK TRAZAS SC FEW080=
200901281000 METAR MROC 281000Z 10010KT CAVOK 20/15 A2998 RMK TRAZAS SC=
200901281100 METAR MROC 281100Z 11010KT CAVOK 20/16 A2999 RMK TRAZAS SCT=
200901281200 METAR MROC 281200Z 10011KT CAVOK 20/15 A3001 RMK TRAZAS SCT=
200901281300 METAR MROC 281300Z 10014KT 9999 FEW035 21/15 A3003 NOSIG=
200901281400 METAR MROC 281400Z 10012KT 9999 FEW035 23/15 A3004 RMK VELOCIDAD MAX VIENTO 18N UDOS NOSIG=
200901281500 METAR MROC 281500Z 10013KT 9999 FEW035 24/16 A3004 RMK VELOCIDAD MAX VIENTO 18N UDOS NOSIG=
200901281600 METAR MROC 281600Z 10010G20KT 9999 FEW035 25/16 A3003 NOSIG=
200901281700 METAR MROC 281700Z 10013G23KT 9999 SCT035 26/16 A3003 RMK TRAZAS AC/CI NOSIG=
200901281800 METAR MROC 281800Z 12010G20KT 9999 SCT035 27/16 A3000 NOSIG=
200901281900 METAR MROC 281900Z 11016KT 9999 FEW035 SCT250 27/16 A2998 NOSIG=
200901282000 METAR MROC 282000Z 11017KT 9999 FEW030 SCT250 26/15 A2997 NOSIG=
200901282100 METAR MROC 282100Z 10012KT 9999 FEW030 SCT100 27/14 A2997 NOSIG=
200901282200 METAR MROC 282200Z 12010KT 9999 FEW0430 SCT120 25/16 A2997 RMK VEL MX VTO 17KT NOSIG=
200901282300 METAR MROC 282300Z 11010KT 9999 FEW035 24/15 A2998 RMK FEW300 VEL MX VTO 19KT NOSIG=
200901290000 METAR MROC 290000Z 11010KT 9999 FEW035 23/15 A2999 RMK TRACE AC CI NOSIG=
200901290100 METAR MROC 290100Z 10010KT 9999 FEW035 22/16 A3000 RMK VEL MX VTO 16KT NOSIG=
200901290200 METAR MROC 290200Z 10011KT 9999 FEW035 22/17 A3001 RMK VEL MX VTO 18KT NOSIG=
200901290300 METAR MROC 290300Z 10010KT 9999 FEW035 21/16 A3002 NOSIG=
200901290400 METAR MROC 290400Z 05007KT 9999 FEW030 21/17 A3002 NOSIG=
200901290500 METAR MROC 290500Z 10010KT 9999 FEW030 21/17 A3001 NOSIG=
200901290600 METAR MROC 290600Z 08010KT 9999 FEW035 21/16 A2999 NOSIG=
200901290700 METAR MROC 290700Z 10007KT 9999 SCT030 21/16 A2998 NOSIG=
200901290800 METAR MROC NIL=
200901290900 METAR MROC 290900Z 10011KT 9999 FEW030 20/10 A3002 NOSIG=
200901291000 METAR MROC 291000Z 11012KT 9999 FEW030 21/12 A2998 NOSIG=
200901291100 METAR MROC 291100Z 10013KT 9999 FEW030 20/15 A2999 NOSIG=
200901291200 METAR MROC 291200Z 10014KT 9999 FEW025 20/15 A3000 NOSIG=
200901291300 METAR MROC 291300Z 11012KT 9999 FEW030 22/15 A3002 RMK MX VEL VTO 18KT NOSIG=
200901291400 METAR MROC 291400Z 11011KT 9999 FEW030 23/16 A3004 RMK VEL MAX VTO 19KT NOSIG=
200901291500 METAR MROC 291500Z 09010G20KT 9999 FEW030 25/16 A3005 NOSIG=
200901291600 METAR MROC 291600Z 09011KT 9999 FEW030 27/15 A3003 NOSIG=
200901291700 METAR MROC 291700Z 12010KT 9999 FEW030 28/17 A3002 RMK VEL MAX VTO 16KT NOSIG=
200901291800 METAR MROC 291800Z 12011KT 9999 FEW030 SCT045 28/17 A2999 RMK VEL MAX VTO 16KT NOSIG=
200901291900 METAR MROC 291900Z 11010KT 9999 FEW030 SCT060 29/16 A2997 RMK VEL MAX VTO 16KT NOSIG=
200901292000 METAR MROC 292000Z 12010KT 9999 FEW035 SCT060 28/16 A2995 NOSIG=
200901292100 METAR MROC 292100Z 13008KT 9999 FEW035 SCT060 29/16 A2994 NOSIG=
200901292200 METAR MROC 292200Z 09009KT 9999 FEW035 SCT060 29/16 A2994 NOSIG=
200901292300 METAR MROC 292300Z 11008KT 9999 FEW035 SCT070 25/17 A2999 NOSIG=
200901300000 METAR MROC 300000Z 14006KT 9999 FEW030 BKN070 23/18 A3002 NOSIG=
200901300100 METAR MROC 300100Z 10006KT 9999 FEW030 SCT070 22/17 A3005 NOSIG=
200901300200 METAR MROC 300200Z 08003KT CAVOK 21/17 A3007 RMK TRACE SC SCT070=
200901300300 METAR MROC 300300Z 01004KT 9999 FEW035 BKN100 21/18 A3007 NOSIG=
200901300400 METAR MROC 300400Z 34004KT 9999 FEW035 BKN100 21/19 A3007 NOSIG=
200901300500 METAR MROC 300500Z 00000KT 9999 FEW030 BKN100 21/19 A3006 NOSIG=
200901300600 METAR MROC 300600Z 00000KT 9999 FEW030 BKN100 21/19 A3006 NOSIG=
200901300700 METAR MROC 300700Z 02004KT 9999 FEW035 SCT100 20/18 A3003 NOSIG=
200901300800 METAR MROC 300800Z 09009KT 9999 FEW035 SCT120 20/16 A3002 NOSIG=
200901300900 METAR MROC 300900Z 08012KT 9999 FEW035 SCT120 20/16 A3002 NOSIG=
200901301000 METAR MROC 301000Z 09016KT 9999 FEW035 20/15 A3002 RMK TRAZAS CI NOSIG=
200901301100 METAR MROC 301100Z 09015KT 9999 FEW035 20/15 A3003 NOSIG=
200901301200 METAR MROC 301200Z 11012KT 9999 FEW035 20/15 A3004 NOSIG=
200901301300 METAR MROC 301300Z 11010KT 9999 FEW030 21/15 A3006 NOSIG=
200901301400 METAR MROC 301400Z 11012KT 9999 FEW030 23/15 A3007 NOSIG=
200901301500 METAR MROC 301500Z 11014KT CAVOK 24/14 A3008 RMK TRACE SC NOSIG=
200901301600 METAR MROC 301600Z 12015KT CAVOK 26/13 A3007 RMK TRACE SC RAFAGAS 22KT=
200901301700 METAR MROC 301700Z 09013KT 9999 FEW035 27/14 A3005 NOSIG=
200901301800 METAR MROC 301800Z 07009KT 9999 FEW035 28/13 A3003 NOSIG=
200901301900 METAR MROC 301900Z 12009KT 9999 FEW035 29/14 A3001 NOSIG=
200901302000 METAR MROC 302000Z 11012KT 9999 FEW035 29/15 A2999 NOSIG=
200901302100 METAR MROC 302100Z 09009KT 9999 SCT030 28/15 A2998 NOSIG=
200901302200 METAR MROC 302200Z 10008KT 9999 FEW030 28/14 A2999 NOSIG=
200901302300 METAR MROC 302300Z 11009KT 9999 FEW030 25/15 A3002 NOSIG=
200901310000 METAR MROC 310000Z 11007KT 9999 FEW030 24/16 A3004 NOSIG=
200901310100 METAR MROC 310100Z 07006KT 9999 FEW030 22/16 A3006 NOSIG=
200901310200 METAR MROC 310200Z 10010KT 9999 FEW030 22/16 A3008 NOSIG=
200901310300 METAR MROC 310300Z 08006KT 9999 FEW030 21/16 A3009 NOSIG=
200901310400 METAR MROC 310400Z 07005KT 9999 FEW030 20/16 A3009 NOSIG=
200901310500 METAR MROC 310500Z 06004KT 9999 FEW030 20/15 A3008 NOSIG=
200901310600 METAR MROC 310600Z 06004KT CAVOK 20/14 A3006 RMK TRACE SC NOSIG=
200901310700 METAR MROC 310700Z 05007KT CAVOK 20/14 A3005 RMK TRACE SC NOSIG=
200901310800 METAR MROC 310800Z 02005KT CAVOK 18/13 A3004 RMK TRACE SCT=
200901310900 METAR MROC 310900Z 09009KT CAVOK 20/15 A3003 RMK TRACE SC=
200901311000 METAR MROC 311000Z 08008KT CAVOK 20/15 A3004 RMK TRACE SC=
200901311100 METAR MROC 311100Z 10011KT CAVOK 20/15 A3004 RMK TRACE SC VEL MAX VTO 18KT=
200901311200 METAR MROC 311200Z 11011KT CAVOK 20/15 A3006 RMK TRACE SC FEW300 VEL MAX VTO 16KT=
200901311300 METAR MROC 311300Z 10009KT CAVOK 21/15 A3007 RMK TRAZAS SCT NOSIG=
200901311400 METAR MROC 311400Z 10011KT CAVOK 23/15 A3008 RMK TRAZAS SCT FEW300 NOSIG=
200901311500 METAR MROC 311500Z 10015G25KT CAVOK 24/14 A3008 RMK TRAZAS SCT FEW300 NOSIG=
200901311600 METAR MROC 311600Z 10013KT CAVOK 26/15 A3006 RMK TRAZAS CU FEW300 NOSIG=
200901311700 METAR MROC 311700Z 09013KT 9999 SCT030 27/15 A3004 RMK DZ N NE NOSIG=
200901311800 METAR MROC 311800Z 09009KT 9999 FEW030 SCT050 26/16 A3002 RMK DZ NE NOSIG=
200901311900 METAR MROC 311900Z 09012KT 9999 FEW030 28/16 A2999 RMK DZ NE NOSIG=
200901312000 METAR MROC 312000Z 11010G20KT 9999 SCT030 27/16 A2997 RMK DZ NE NOSIG=
200901312100 METAR MROC 312100Z 12010KT 9999 BKN030 25/17 A2997 RMK DZ NE VL MX VIENTO 17KT NOSIG=
200901312200 METAR MROC 312200Z 09012KT 9999 BKN030 24/16 A2996 RMK DZ NE NOSIG=
200901312300 METAR MROC 312300Z 09013KT 9999 SCT025 SCT130 23/15 A2998 RMK DZ NE TRACE CI NOSIG=
200902010000 METAR MROC 010000Z 09008KT 9999 SCT025 SCT250 20/16 A3000 RMK DZ NE NOSIG=
200902010100 METAR MROC NIL=
200902010200 METAR MROC 010200Z 10009KT 9999 FEW030 20/15 A3004 NOSIG=
200902010300 METAR MROC 010300Z 11011KT CAVOK 20/16 A3005 RMK TRACE SC NOSIG=
200902010400 METAR MROC 010400Z 09011KT CAVOK 20/15 A3004 RMK TRACE SC=
200902010500 METAR MROC 010500Z 09015KT CAVOK 21/13 A3004 RMK TRACE SC FEW250 NOSIG=
200902010600 METAR MROC 010600Z 10014KT CAVOK 21/12 A3002 RMK TRACE SC FEW250 NOSIG=
200902010700 METAR MROC 010700Z 11014KT CAVOK 20/12 A2999 RMK TRACE SC FEW250 NOSIG=
200902010800 METAR MROC 010800Z 10015KT CAVOK 20/12 A2998 RMK TRACE SC SCT250 NOSIG=
200902010900 METAR MROC 010900Z 11013KT CAVOK 20/13 A2997 RMK TRACE SC SCT250 NOSIG=
200902011000 METAR MROC 011000Z 11016KT CAVOK 20/13 A2998 RMK TRACE SC SCT250=
200902011100 METAR MROC 011100Z 11011KT CAVOK 21/12 A2999 RMK TRACE SC SCT250=
200902011200 METAR MROC 011200Z 09011KT CAVOK 20/13 A3001 RMK TRACE SC BKN250=
200902011300 METAR MROC 011300Z 11012G22KT CAVOK 20/13 A3002 RMK TRACE SC BKN250 NOSIG=
200902011400 METAR MROC 011400Z 10012KT CAVOK 23/13 A3004 RMK TRACE SC BKN250 NOSIG=
200902011500 METAR MROC 011500Z 11014KT CAVOK 24/13 A3004 RMK TRACE SC BKN250 NOSIG=
200902011600 METAR MROC 011600Z 10013KT CAVOK 26/12 A3004 RMK TRACE SC SCT250 NOSIG=
200902011700 METAR MROC 011700Z 09015KT 9999 FEW025 SCT250 26/11 A3002 NOSIG=
200902011800 METAR MROC 011800Z 08014KT 9999 FEW025 SCT250 27/21 A3000 NOSIG=
200902011900 METAR MROC 011900Z 07014KT 9999 FEW025 SCT250 27/12 A2997 NOSIG=
200902012000 METAR MROC 012000Z 10013KT 9999 FEW025 SCT250 27/13 A2995 NOSIG=
200902012100 METAR MROC 012100Z 10014KT 9999 SCT035 27/14 A2993 RMK TRAZAS CI NOSIG=
200902012200 METAR MROC 012200Z 09016KT 9999 SCT035 26/13 A2993 RMK TRAZAS CI NOSIG=
200902012300 METAR MROC 012300Z 08014KT 9999 SCT035 25/13 A2994 RMK TRAZAS CI NOSIG=
200902020000 METAR MROC 020000Z 07016KT 9999 SCT035 23/13 A2995 RMK TRAZAS CI NOSIG=
200902020100 METAR MROC 020100Z 12011KT 9999 SCT035 20/12 A2997 NOSIG=
200902020200 METAR MROC 020200Z 10014KT 9999 FEW035 20/11 A2999 NOSIG=
200902020300 METAR MROC 020300Z 08006KT CAVOK 19/12 A3001 RMK TRAZAS SCT NOSIG=
200902020400 METAR MROC 020400Z 06006KT CAVOK 19/11 A3001 RMK TRAZAS SCT NOSIG=
200902020500 METAR MROC NIL=
200902020600 METAR MROC 020600Z 06006KT CAVOK 18/13 A3001 RMK TRAZAS SCT NOSIG=
200902020700 METAR MROC NIL=
200902020800 METAR MROC NIL=
200902020900 METAR MROC NIL=
200902021000 METAR MROC 021000Z 08006KT CAVOK 18/12 A2998 RMK TRAZAS SC=
200902021100 METAR MROC 021100Z 06007KT CAVOK 16/11 A2999 RMK TRAZAS SCT=
200902021200 METAR MROC 021200Z 06007KT CAVOK 16/11 A2999=
200902021300 METAR MROC 021300Z 05014KT CAVOK 18/11 A3001 NOSIG=
200902021400 METAR MROC 021400Z 06012KT CAVOK 22/11 A3002 NOSIG=
200902021500 METAR MROC 021500Z 09015KT CAVOK 26/10 A3003 RMK TRAZAS SCT NOSIG=
200902021600 METAR MROC 021600Z 09015KT CAVOK 27/11 A3002 RMK TRAZAS SCT NOSIG=
200902021700 METAR MROC 021700Z 10017KT CAVOK 28/12 A3000 RMK TRAZAS SCT NOSIG=
200902021800 METAR MROC 021800Z 11015KT CAVOK 29/13 A2996 RMK TRAZAS SCT NOSIG=
200902021900 METAR MROC 021900Z 10019KT 9999 FEW035 28/14 A2993 RMK TRAZAS AC NOSIG=
200902022000 METAR MROC 022000Z 10010G20KT 9999 FEW035 28/15 A2992 RMK TRAZAS AC NOSIG=
200902022100 METAR MROC 022100Z 11012KT 9999 FEW035 27/15 A2991 RMK VEL MAX VTO 19KT NOSIG=
200902022200 METAR MROC 022200Z 09012KT 9999 FEW035 26/15 A2992 RMK VEL MAX VTO 19KT NOSIG=
200902022300 METAR MROC 022300Z 10010KT 9999 FEW035 25/16 A2993 RMK FEW150 VEL MAX VTO 16KT NOSIG=
200902030000 METAR MROC 030000Z 11010KT 9999 FEW035 23/16 A2996 RMK TRACE AC CI NOSIG=
200902030100 METAR MROC 030100Z 11007KT 9999 FEW035 22/16 A2998 NOSIG=
200902030200 METAR MROC 030200Z 10007KT 9999 FEW035 SCT130 22/17 A3000 NOSIG=
200902030300 METAR MROC 030300Z 06005KT 9999 FEW035 SCT120 21/16 A3001 NOSIG=
200902030400 METAR MROC 030400Z 06003KT 9999 FEW030 SCT120 21/17 A3001 NOSIG=
200902030500 METAR MROC 030500Z 11005KT 9999 FEW030 SCT120 21/16 A3001 NOSIG=
200902030600 METAR MROC 030600Z 10009KT 9999 FEW030 21/16 A2999 NOSIG=
200902030700 METAR MROC 030700Z 10012KT 9999 FEW030 21/16 A2996 NOSIG=
200902030800 METAR MROC 030800Z 09006KT 9999 FEW030 20/16 A2996 NOSIG=
200902030900 METAR MROC 030900Z 06007KT 9999 FEW030 20/16 A2996 NOSIG=
200902031000 METAR MROC 031000Z 02005KT 9999 FEW030 19/16 A2996 NOSIG=
200902031100 METAR MROC 031100Z 01005KT 9999 FEW030 20/16 A2997 NOSIG=
200902031200 METAR MROC 031200Z 06006KT 9999 SCT025 SCT250 20/16 A2999 RMK PCPN N NE TRACE AC NOSIG=
200902031300 METAR MROC 031300Z 08005KT 9999 FEW025 SCT130 22/17 A3000 RMK PCPN DST NW N NE=
200902031301 METAR MROC 031301Z 08005KT 9999 FEW025 SCT130 22/17 A3000 RMK PCPN DST NW N NE=
200902031400 METAR MROC 031400Z 11011KT 9999 FEW025 SCT120 23/17 A3002 RMK VEL MAX VTO 18KT DZ DST N NE NOSIG=
200902031500 METAR MROC 031500Z 10010KT 9999 FEW030 SCT120 25/17 A3003 NOSIG=
200902031600 METAR MROC 031600Z 08012KT 9999 FEW030 SCT120 28/16 A3002 RMK PCPN DST NE ENE NOSIG=
200902031700 METAR MROC 031700Z 05007KT 9999 FEW030 BKN090 25/17 A3001 RERADZ RMK DZ DST NW N NE VEL MAX VTO 14KT NOSIG=
200902031800 METAR MROC 031800Z 06013KT 9999 FEW030 BKN070 27/17 A3000 RMK PCPN DST N NE VEL MAX VTO 21KT NOSIG=
200902031900 METAR MROC 031900Z 09014KT 9999 FEW030 SCT100 26/15 A2997 RMK PCPN DST N NE NOSIG=
200902032000 METAR MROC 032000Z 09016KT 9999 FEW030 SCT120 26/15 A2993 RMK VEL MAX VTO 23KT NOSIG=
200902032100 METAR MROC 032100Z 09016KT 9999 SCT030 SCT120 25/15 A2993 NOSIG=
200902032200 METAR MROC 032200Z 09017KT 9999 SCT030 SCT120 25/15 A2993 RMK DZ NE NOSIG=
200902032300 METAR MROC 032300Z 10012KT 9999 SCT030 SCT120 23/16 A2994 RMK DZ N NE NOSIG=
200902040000 METAR MROC 040000Z 10013KT 9999 SCT030 SCT120 23/17 A2996 RMK DZ N NE NOSIG=
200902040100 METAR MROC 040100Z 10010KT 9999 FEW030 SCT100 22/17 A2999 REDZ NOSIG=
200902040200 METAR MROC 040200Z 10009KT 9999 FEW030 SCT120 22/17 A3002 NOSIG=
200902040300 METAR MROC 040300Z 10014G24KT 9999 FEW030 SCT120 21/16 A3003 NOSIG=
200902040400 METAR MROC 040400Z 11016G26KT 9999 FEW030 SCT120 22/16 A3002 NOSIG=
200902040500 METAR MROC 040500Z 11010G20KT 9999 FEW030 BKN120 21/16 A3001 NOSIG=
200902040600 METAR MROC 040600Z 10010G20KT 9999 FEW030 BKN120 22/15 A3002 NOSIG=
200902040700 METAR MROC 040700Z 10014KT 9999 FEW030 BKN120 21/15 A3000 RMK VELOCIDAD MAX VIE NTO 21NUDOS NOSIG=
200902040800 METAR MROC 040800Z 10011KT 9999 FEW030 BKN120 20/14 A2999 RMK VELOCIDAD MAX VIE NTO 15NUDOS NOSIG=
200902040900 METAR MROC 040900Z 10012G22KT 9999 FEW030 SCT120 20/14 A2998 NOSIG=
200902041000 METAR MROC 041000Z 10010G20KT 9999 FEW030 SCT120 19/15 A3000 NOSIG=
200902041100 METAR MROC 041100Z 10011G22KT 9999 SCT030 19/14 A3001 RMK RN DST N/NE NOSIG=
200902041200 METAR MROC 041200Z 10012G22KT 9999 SCT030 20/15 A3003 RMK TRAZAS AC/CI RN DST N /NE NOSIG=
200902041300 METAR MROC 041300Z 11010KT 9999 SCT030 21/16 A3005 RMK TRACE AC RN DST N NE BECMG RAFAGAS 16KT=
200902041400 METAR MROC 041400Z 10009KT 9999 SCT030 23/15 A3007 RMK DZ N NE E RAFAGAS 15KT NOSIG=
200902041500 METAR MROC 041500Z 12009KT 9999 SCT030 25/16 A3008 RMK DZ NW N NE E NOSIG=
200902041600 METAR MROC 041600Z 10011KT 9999 SCT030 27/15 A3007 RMK DZ NW N NE E NOSIG=
200902041700 METAR MROC 041700Z 08015KT 9999 BKN030 26/15 A3007 RMK DZ NW N NE E SE NOSIG=
200902041800 METAR MROC 041800Z 09014KT 9999 BKN030 27/15 A3004 RMK DZ N NE E NOSIG=
200902041900 METAR MROC 041900Z 08012KT 9999 BKN030 25/15 A3003 RMK DZ NW N NE E BECMG RAFAGAS 17KT=
200902042000 METAR MROC 042000Z 08013KT 9999 SCT030 BKN100 23/15 A3003 RMK DZ N NE E BECMG RAFAGAS 19KT=
200902042100 METAR MROC 042100Z 08016G26KT 9999 SCT030 SCT045 23/14 A3002 RMK DZ NW N NE NOSIG=
200902042200 METAR MROC 042200Z 08017G27KT 9999 -DZ SCT030 SCT050 22/15 A3002 RMK RN NW N NE NOSIG=
200902042300 METAR MROC 042300Z 07023G33KT 9999 FEW030 SCT080 21/13 A3002 RMK DZ NW N NE NOSIG=
200902050000 METAR MROC 050000Z 07025G35KT 9999 FEW025 SCT050 21/13 A3005 RMK DZ NW N NE E NOSIG=
200902050100 METAR MROC 050100Z 08020G31KT 9999 FEW025 SCT080 21/14 A3004 NOSIG=
200902050200 METAR MROC 050200Z 08020KT 9999 FEW035 SCT120 21/14 A3009 RMK VELX MAX 26KT NOSIG=
200902050300 METAR MROC 050300Z 10015G25KT 9999 SCT040 SCT120 20/14 A3011 REDZ=
200902050400 METAR MROC 050400Z 09017G27KT 9999 -DZ FEW040 BKN120 20/14 A3012 NOSIG=
200902050500 METAR MROC 050500Z 09019G30KT 9999 DZ SCT040 BKN150 20/14 A3010 NOSIG=
200902050600 METAR MROC 050600Z 09016G26KT 9999 FEW040 SCT070 20/14 A3009 NOSIG=
200902050700 METAR MROC 050700Z 09016G26KT 9999 FEW035 BKN100 19/14 A3006 NOSIG=
200902050800 METAR MROC 050800Z 10015G27KT 9999 DZ FEW040 BKN100 20/13 A3005=
200902050900 METAR MROC 050900Z 10015KT 9999 FEW035 BKN060 19/15 A3004 REDZ RMK VEL MAX VTO 22KT=
200902051000 METAR MROC 051000Z 09015KT 9999 FEW035 SCT070 20/15 A3003 RMK VEL MAX VTO 22KTS=
200902051100 METAR MROC 051100Z 08016KT 9999 FEW035 SCT070 20/15 A3001 RMK VEL MAX VTO 22KTS=
200902051200 METAR MROC 051200Z 09013KT 9999 FEW030 BKN150 20/15 A3002 RMK PCPN DST N AND E QUADS=
200902051300 METAR MROC 051300Z 06025G37KT 9999 FEW020 SCT120 23/14 A3004 RMK DZ NW N NE NOSIG=
200902051400 METAR MROC 051400Z 10014KT 9999 SCT025 23/15 A3005 RMK DZ NW N NE E MAX=
200902051500 METAR MROC 051500Z 08016G26KT 9999 FEW025 25/14 A3008 RMK DZ NW N NE E NOSIG=
200902051600 METAR MROC 051600Z 07022G34KT 9999 FEW025 25/14 A3008 RMK DZ NW N NE E NOSIG=
200902051700 METAR MROC 051700Z 08019KT 9999 FEW025 26/13 A3006 RMK DZ NW N NE E MAX/=
200902051800 METAR MROC 051800Z 07020G30KT 9999 FEW025 26/15 A3004 RMK DZ NW N NE NOSIG=
200902051900 METAR MROC 051900Z 08017G27KT 9999 FEW025 27/15 A3002 RMK DZ N NE NOSIG=
200902052000 METAR MROC 052000Z 10019G29KT 9999 FEW025 26/15 A3000 RMK DZ NW N NE NOSIG=
200902052100 METAR MROC 052100Z 08018G28KT 9999 SCT025 26/14 A2999 RMK DZ N NE NW NOSIG=
200902052200 METAR MROC 052200Z 06020G34KT 9999 SCT020 25/12 A2998 RMK DZ N NE NW TRACE CC NOSIG=
200902052300 METAR MROC 052300Z 09017G27KT 9999 SCT020 23/14 A2999 RMK DZ N NE E NOSIG=
200902060000 METAR MROC 060000Z 10017KT 9999 SCT020 20/15 A3003 RMK DZ N NE E VL MX VIENTO 25KT NOSIG=
200902060100 METAR MROC 060100Z 10020KT 9999 FEW025 20/15 A3005 NOSIG=
200902060200 METAR MROC 060200Z 10020KT 9999 FEW025 20/14 A3006 NOSIG=
200902060300 METAR MROC 060300Z 11012KT 9999 FEW030 20/14 A3007 RMK TRACE AC RAFAGAS 20KT NOSIG=
200902060400 METAR MROC 060400Z 11018KT 9999 FEW030 20/14 A3007 RMK TRACE AC NOSIG=
200902060500 METAR MROC 060500Z 10016KT 9999 FEW030 19/15 A3007 RMK TRACE AC NOSIG=
200902060600 METAR MROC 060600Z 10017KT 9999 FEW030 19/15 A3006 RMK TRACE AC RAFAGAS 25K T NOSIG=
200902060700 METAR MROC 060700Z 10015KT 9999 FEW030 19/15 A3004 RMK TRACE AC RAFAGAS 21K T NOSIG=
200902060800 METAR MROC 060800Z 09011KT 9999 FEW030 20/15 A3002 RMK TRACE AC RAFAGAS 17K T=
200902060900 METAR MROC 060900Z 10013KT 9999 FEW030 19/14 A3002 RMK TRACE AC RAFAGAS 17K T=
200902061000 METAR MROC 061000Z 10014KT 9999 FEW030 19/14 A3003 RMK TRACE AC RAFAGAS 22K T=
200902061100 METAR MROC 061100Z 08014KT 9999 FEW030 20/13 A3004 RMK TRACE AC FEW250=
200902061200 METAR MROC 061200Z 10015KT 9999 FEW030 SCT250 18/13 A3004 RMK FEW120 DZ NW N NE E=
200902061300 METAR MROC 061300Z 11015G25KT 9999 FEW030 SCT130 19/13 A3004 RMK DZ NW N NE E TRACE CI NOSIG=
200902061400 METAR MROC 061400Z 11018G28KT 9999 FEW025 SCT130 20/13 A3007 RMK DZ N NE E NOSIG=
200902061500 METAR MROC 061500Z 09018G28KT 9999 FEW025 SCT130 22/14 A3007 RMK DZ N NE E NOSIG=
200902061600 METAR MROC 061600Z 07019G29KT 9999 FEW025 25/13 A3007 RMK DZ N NE E NOSIG=
200902061700 METAR MROC 061700Z 08018G28KT 9999 FEW025 25/13 A3006 RMK DZ N NE E NOSIG=
200902061759 METAR MROC 061759Z 07018G28KT 9999 FEW025 25/14 A3004 RMK DZ N NE E NOSIG=
200902061800 METAR MROC NIL=
200902061900 METAR MROC 061900Z 10019G29KT 9999 FEW025 24/15 A3001 RMK DZ N NE E NOSIG=
200902062000 METAR MROC 062000Z 10017G27KT 9999 FEW025 24/14 A2998 RMK DZ N NE E NOSIG=
200902062100 METAR MROC 062100Z 09020G26KT 9999 FEW030 SCT250 24/14 A2999 RMK DZ DST N/NE NOSIG=
200902062200 METAR MROC 062200Z 09017KT 9999 SCT030 23/15 A2997 RMK TRAZAS CI DZ DST N/NE VIENTO MAX 24NUDOS=
200902062300 METAR MROC 062300Z 11021KT 9999 SCT030 21/15 A2999 RMK DZ DST N/NE NOSIG=
200902070000 METAR MROC 070000Z 10014G22KT 9999 SCT030 20/15 A3001 RMK RN DST N/NE NOSIG=
200902070100 METAR MROC 070100Z 09025KT 9999 FEW030 20/15 A3002 NOSIG=
200902070200 METAR MROC 070200Z 10021KT 9999 FEW030 20/15 A3003 NOSIG=
200902070300 METAR MROC 070300Z 10014G24KT CAVOK 20/15 A3005 RMK TRZAS SCT=
200902070400 METAR MROC 070400Z 10016KT CAVOK 20/15 A3005 RMK TRAZAS SCT MAX/ WIND 22KT NOSIG=
200902070500 METAR MROC NIL=
200902070600 METAR MROC 070600Z 11015KT CAVOK 20/15 A3003 RMK TRAZAS SCT MAX/WIND 23KT NOSIG=
200902070700 METAR MROC 070700Z 11015KT CAVOK 20/15 A3002 RMK TRAZAS SCT MAX WIND 23KT=
200902070800 METAR MROC 070800Z 10012G22KT CAVOK 20/15 A2999 RMK TRAZAS SC=
200902070900 METAR MROC 070900Z 10013G23KT CAVOK 20/15 A3000 RMK TRAZAS SC=
200902071000 METAR MROC 071000Z 09014KT CAVOK 20/14 A3001 RMK TRAZAS SCT=
200902071100 METAR MROC 071100Z 08013G23KT CAVOK 19/14 A3003 RMK TRAZAS SC NOSIG=
200902071200 METAR MROC 071200Z 08012KT 9999 FEW025 19/14 A3003 RMK DZ NW N NE MAX/=
200902071300 METAR MROC 071300Z 11013G23KT 9999 SCT030 20/14 A3004 RMK DZ DST NW/N/NE NOSIG=
200902071400 METAR MROC 071400Z 02009KT 9999 SCT030 21/14 A3007 RMK RN DST NW/N/NE MAX WIND 16NUDOS=
200902071500 METAR MROC 071500Z 10010G20KT 9999 SCT030 22/14 A3008 RMK RN DST N/NE NOSIG=
200902071600 METAR MROC 071600Z 09010G20KT 9999 SCT030 25/15 A3008 RMK RN DST N/NE NOSIG=
200902071700 METAR MROC 071700Z 12009KT 9999 SCT030 25/15 A3006 RMK RN DST N/NE MAX=
200902071800 METAR MROC 071800Z 10025KT 9999 SCT030 25/15 A3003 RMK RN DST N/NE NOSIG=
200902071900 METAR MROC 071900Z 08012G22KT 9999 SCT030 27/15 A3002 RMK RN DST N TRAZAS AC=
200902072000 METAR MROC 072000Z 09016KT 9999 SCT030 26/15 A2999 RMK RN DST N TRAZAS AC NOSIG=
200902072100 METAR MROC 072100Z 08017KT 9999 SCT030 26/15 A2997 RMK PCPN DST N AND E QUADS VEL MAX VTO 23KT NOSIG=
200902072200 METAR MROC 072200Z 07020KT 9999 FEW030 25/15 A2996 RMK PCPN DST NW N NE VEL MAX VTO 28KTS NOSIG=
200902072201 METAR MROC 072201Z 07020KT 9999 FEW030 25/15 A2996 RMK PCPN DST NW N NE VEL MAX VTO 28KTS NOSIG=
200902072300 METAR MROC 072300Z 06023G35KT 9999 FEW030 24/14 A2998 RMK PCPN DST NW N NE NOSIG=
200902080000 METAR MROC 080000Z 08013G23KT 9999 FEW030 22/13 A3001 RMK PCPN DST N NE NOSIG=
200902080100 METAR MROC 080100Z 08011KT 9999 FEW030 21/13 A3001 A3001 RMK VEL MAX VTO 16KTS NOSIG=
200902080200 METAR MROC 080200Z 09014KT 9999 FEW030 22/12 A3001 RMK VEL MAX VTO 21KTS NOSIG=
200902080300 METAR MROC 080300Z 09013KT CAVOK 22/12 A3004 RMK TRACE SC NOSIG=
200902080400 METAR MROC 080400Z 10014KT CAVOK 20/13 A3004 RMK TRACE SC NOSIG=
200902080500 METAR MROC 080500Z 09015G25KT CAVOK 20/13 A3004 RMK TRACE SC NOSIG=
200902080600 METAR MROC 080600Z 07015KT CAVOK 21/13 A3003 RMK TRACE SC NOSIG=
200902080700 METAR MROC 080700Z 09013KT CAVOK 20/14 A3001 RMK TRACE SC NOSIG=
200902080800 METAR MROC 080800Z 09011KT CAVOK 20/15 A2998 RMK TRACE SC NOSIG=
200902080900 METAR MROC 080900Z 09013KT CAVOK 20/15 A2998 RMK TRACE SC NOSIG=
200902081000 METAR MROC NIL=
200902081100 METAR MROC 081100Z 10014KT 9999 FEW030 20/15 A2999 NOSIG=
200902081200 METAR MROC 081200Z 09012KT 9999 FEW030 21/14 A3000 NOSIG=
200902081300 METAR MROC 081300Z 10014KT 9999 FEW030 21/15 A3003 RMK VEL MAX VTO 20KT NOSIG=
200902081400 METAR MROC 081400Z 10013KT 9999 FEW035 23/15 A3004 RMK VEL MAX VTO 21KT NOSIG=
200902081500 METAR MROC 081500Z 09013G23KT 9999 FEW035 24/16 A3005 RMK PCPN DST N NE NOSIG=
200902081600 METAR MROC 081600Z 09016G26KT 9999 FEW035 26/15 A3005 RMK PCPN DST N NE NOSIG=
200902081700 METAR MROC 081700Z 08015KT 9999 FEW035 27/16 A3003 RMK PCPN DST N NE NOSIG=
200902081800 METAR MROC 081800Z 07013G29KT 9999 FEW040 29/14 A3002 RMK PCPN DST N NE NOSIG=
200902081900 METAR MROC 081900Z 07016G26KT 9999 FEW035 27/15 A3002 RMK PCPN DST N NE NOSIG=
200902082000 METAR MROC 082000Z 07018KT 9999 FEW035 27/16 A2996 RMK PCPN DST N NOSIG=
200902082100 METAR MROC 082100Z 07015KT 9999 FEW035 27/16 A2995 RMK RN N NE NOSIG=
200902082200 METAR MROC 082200Z 09014KT 9999 FEW035 26/15 A2995 RMK RN N NE E RAFAGAS 19KT=
200902082300 METAR MROC 082300Z 09013KT 9999 SCT030 25/15 A2997 RMK RN N NE E RAFAGAS 18KT NOSIG=
200902090000 METAR MROC 090000Z 12012KT 9999 SCT030 22/15 A2998 RMK DZ N NE RAFAGAS 17KT=
200902090100 METAR MROC 090100Z 10010KT 9999 SCT030 FEW070 22/15 A3000 RMK RAFAGAS 15KT=
200902090200 METAR MROC 090200Z 09014KT 9999 SCT030 22/14 A3001 NOSIG=
200902090300 METAR MROC 090300Z 10012G22KT 9999 SCT030 22/15 A3002 NOSIG=
200902090400 METAR MROC 090400Z 09019KT 9999 FEW035 21/15 A3002 NOSIG=
200902090500 METAR MROC 090500Z 10021KT 9999 FEW035 SCT250 21/15 A3001 NOSIG=
200902090600 METAR MROC 090600Z 08018KT 9999 FEW035 SCT250 21/14 A3002 NOSIG=
200902090700 METAR MROC 090700Z 09021KT 9999 FEW035 SCT250 21/15 A2999 NOSIG=
200902090800 METAR MROC 090800Z 10010G20KT 9999 FEW035 SCT250 20/14 A2997 NOSIG=
200902090900 METAR MROC 090900Z 09010G20KT 9999 FEW035 BKN250 20/14 A2997 NOSIG=
200902091000 METAR MROC 091000Z 08022KT 9999 FEW040 BKN250 21/12 A2998 NOSIG=
200902091100 METAR MROC 091100Z 09011G21KT 9999 FEW040 BKN250 20/14 A3000 NOSIG=
200902091200 METAR MROC 091200Z 08010G20KT 9999 FEW040 BKN250 20/13 A3001 NOSIG=
200902091300 METAR MROC 091300Z 10016KT 9999 FEW040 BKN250 22/13 A3002 NOSIG=
200902091400 METAR MROC 091400Z 09014KT CAVOK 23/12 A3004 RMK TRACE SC BKN250 NOSIG=
200902091500 METAR MROC 091500Z 08017KT CAVOK 25/12 A3005 RMK TRACE CU SC BKN250 NOSIG=
200902091600 METAR MROC 091600Z 08019KT 9999 FEW040 BKN250 24/13 A3005 RMK RAFAGAS 23KT NOSIG=
200902091700 METAR MROC 091700Z 07016KT 9999 FEW040 BKN250 26/13 A3003 NOSIG=
200902091800 METAR MROC 091800Z 09014KT 9999 FEW040 BKN250 27/14 A3000 NOSIG=
200902091900 METAR MROC 091900Z 09017KT 9999 SCT040 BKN250 27/14 A2998 NOSIG=
200902092000 METAR MROC 092000Z 07013KT 9999 SCT040 BKN250 27/14 A2996 NOSIG=
200902092100 METAR MROC 092100Z 07015KT 9999 FEW035 SCT280 26/15 A2995 NOSIG=
200902092200 METAR MROC 092200Z 07019KT 9999 FEW030 BKN280 25/12 A2996 RMK MAX/ WIND 24KT NOSIG=
200902092300 METAR MROC 092300Z 07015KT 9999 FEW030 SCT280 23/12 A2997 RMK MAX WIND 22KT NOSIG=
200902100000 METAR MROC 100000Z 07014KT CAVOK 22/11 A2997 RMK TRAZAS SCT FEW280 MAX/=
200902100100 METAR MROC 100100Z 08012KT CAVOK 22/12 A2999 RMK TRAZAS SC FEW280 MAX=
200902100200 METAR MROC 100200Z 10009KT CAVOK 21/12 A3002 RMK TRAZAS SC CI NOSIG=
200902100300 METAR MROC 100300Z 10010KT CAVOK 21/13 A3003 RMK TRACE SC CI NOSIG=
200902100301 METAR MROC 100301Z 10012KT CAVOK 21/13 A3003 RMK TRACE SC CI NOSIG=
200902100400 METAR MROC 100400Z 10012KT CAVOK 20/13 A3004 RMK TRACE SC VEL MAX VTO 20KT NOSIG=
200902100500 METAR MROC 100500Z 10014KT CAVOK 20/13 A3002 RMK TRACE SC VEL MAX VTO 20KT NOSIG=
200902100600 METAR MROC 100600Z 10012KT CAVOK 20/14 A3001 RMK TRACE SC VEL MAX VTO 18KT NOSIG=
200902100700 METAR MROC 100700Z 10014KT CAVOK 20/13 A2999 RMK TRACE SC VEL MAX VTO 21KT NOSIG=
200902100800 METAR MROC 100800Z 10013KT CAVOK 19/14 A2998 RMK TRACE SC=
200902100900 METAR MROC 100900Z 10011KT CAVOK 19/13 A2997 RMK TRACE SC VEL MAX VTO 18KT=
200902101000 METAR MROC 101000Z 10011KT CAVOK 19/14 A2997 RMK TRACE SC=
200902101100 METAR MROC 101100Z 10011KT CAVOK 19/13 A2997 RMK TRACE SC VEL MAX VTO 18KT=
200902101200 METAR MROC 101200Z 11009KT CAVOK 19/13 A3001 RMK TRACE SC VEL MAX VTO 17KT=
200902101300 METAR MROC 101300Z 11011KT CAVOK 20/13 A3003 RMK TRAZAS SCT FEW280 MAX/=
200902101400 METAR MROC 101400Z 10010KT CAVOK 23/13 A3004 RMK TRZAS SCT NOSIG=
200902101500 METAR MROC 101500Z 10012G22KT CAVOK 24/13 A3005 RMK TRAZAS SCT NOSIG=
200902101600 METAR MROC 101600Z 08015KT CAVOK 25/13 A3004 RMK TRAZAS SCT MAX/ WIND 19KT NOSIG=
200902101700 METAR MROC 101700Z 10011KT 9999 FEW030 26/13 A3003 RMK MAX WIND 18KT NOSIG=
200902101800 METAR MROC 101800Z 10011KT 9999 FEW030 27/13 A3003 RMK MAX/ WIND 16KT NOSIG=
200902101900 METAR MROC 101900Z 10014KT 9999 FEW030 27/13 A2999 NOSIG=
200902102000 METAR MROC 102000Z 10014KT 9999 FEW030 27/13 A2996 NOSIG=
200902102100 METAR MROC 102100Z 10010G20KT 9999 FEW030 26/13 A2995 NOSIG=
200902102200 METAR MROC 102200Z 11010KT 9999 SCT030 24/13 A2995 NOSIG=
200902102300 METAR MROC 102300Z 10013KT 9999 FEW035 23/12 A2996 NOSIG=
200902110000 METAR MROC 110000Z 10012KT 9999 FEW035 21/14 A2998 NOSIG=
200902110100 METAR MROC 110100Z 10013KT CAVOK 21/13 A2999 RMK TRACE SC NOSIG=
200902110200 METAR MROC 110200Z 11012KT CAVOK 21/13 A3000 RMK TRACE SC NOSIG=
200902110300 METAR MROC 110300Z 10009KT CAVOK 21/11 A3001 RMK TRACE SC NOSIG=
200902110400 METAR MROC 110400Z 10007KT CAVOK 20/11 A3000 RMK TRACE SC CI NOSIG=
200902110500 METAR MROC 110500Z 09007KT CAVOK 20/12 A2999 RMK TRACE SC CI NOSIG=
200902110600 METAR MROC 110600Z 08009KT CAVOK 19/12 A2999 RMK TRACE SC CI RAFAGAS 13K T NOSIG=
200902110700 METAR MROC 110700Z 09007KT CAVOK 19/12 A2998 RMK TRACE SC CI NOSIG=
200902110800 METAR MROC 110800Z 06006KT CAVOK 19/12 A2998 RMK TRACE SC CI=
200902110900 METAR MROC 110900Z 08009KT CAVOK 19/12 A2997 RMK TRACE SC CI=
200902111000 METAR MROC 111000Z 09009KT CAVOK 19/12 A2997 RMK TRACE SC CI=
200902111100 METAR MROC 111100Z 09009KT CAVOK 19/12 A2998 RMK TRACE SC CI=
200902111200 METAR MROC 111200Z 06006KT CAVOK 18/11 A3000=
200902111300 METAR MROC 111300Z 10009KT CAVOK 21/12 A3001 NOSIG=
200902111400 METAR MROC 111400Z 11010KT CAVOK 24/12 A3003 RMK TRACE SC NOSIG=
200902111500 METAR MROC 111500Z 11012KT CAVOK 26/11 A3004 RMK TRACE SC NOSIG=
200902111600 METAR MROC 111600Z 11010G20KT CAVOK 27/13 A3003 RMK TRACE SC NOSIG=
200902111700 METAR MROC 111700Z 11012KT CAVOK 28/13 A3002 RMK TRACE SC VL MX VIENTO 19KT NOSIG=
200902111800 METAR MROC 111800Z 10012KT CAVOK 29/14 A3000 RMK TRACE SC NOSIG=
200902111900 METAR MROC 111900Z 10013KT 9999 FEW035 29/14 A2998 NOSIG=
200902112000 METAR MROC 112000Z 10012KT 9999 FEW035 29/15 A2996 NOSIG=
200902112100 METAR MROC 112100Z 09010KT 9999 FEW035 28/15 A2995 RMK TCU DST SE VIENTO MAX 15NUDOS NOSIG=
200902112200 METAR MROC 112200Z 10008KT 9999 FEW035 28/16 A2995 RMK TRAZAS CI VEL/MAX=
200902112300 METAR MROC 112300Z 11012KT 9999 FEW035 SCT090 26/17 A2997 RMK TCU DST SE VEL/MA X WIND 17NUDOS NOSIG=
200902120000 METAR MROC 120000Z 10010KT 9999 SCT035 23/17 A2999 RMK VEL MAX WIND 15NUDOS NOSIG=
200902120100 METAR MROC 120100Z 10011KT 9999 FEW030 22/16 A3001 NOSIG=
200902120200 METAR MROC 120200Z 10008KT 9999 FEW030 22/16 A3003 NOSIG=
200902120300 METAR MROC 120300Z 11010KT CAVOK 21/16 A3004 RMK TRAZAS SCT NOSIG=
200902120400 METAR MROC 120400Z 10014KT CAVOK 21/16 A3004 RMK TRAZAS SCT NOSIG=
200902120500 METAR MROC 120500Z 10010G20KT CAVOK 21/16 A3004 RMK TRAZAS SCT NOSIG=
200902120600 METAR MROC 120600Z 10012KT CAVOK 21/15 A3003 RMK TRAZAS SC MAX  WIND 17KT NOSIG=
200902120700 METAR MROC 120700Z 09014KT CAVOK 22/16 A3001 RMK TRAZAS SC=
200902120800 METAR MROC 120800Z 10010G20KT CAVOK 22/16 A3000 RMK TRAZAS SC=
200902120900 METAR MROC 120900Z 09013KT CAVOK 22/16 A2999 RMK TRAZAS SCT MAX WIND 20KT=
200902121000 METAR MROC 121000Z 10012KT CAVOK 21/15 A2999 RMK TRAZAS SC=
200902121100 METAR MROC 121100Z 09010G20KT CAVOK 22/15 A2998 RMK TRAZAS SCT=
200902121200 METAR MROC 121200Z 09011KT CAVOK 22/15 A3000 RMK TRAZAS SCT/CI MAX/=
200902121300 METAR MROC 121300Z 09012KT CAVOK 22/16 A3001 RMK TRAZAS SC/CI VEL MAX WIND 17NUDOS NOSIG=
200902121400 METAR MROC 121400Z 10010G20KT 9999 FEW035 BKN250 23/16 A3002 NOSIG=
200902121500 METAR MROC 121500Z 10015KT 9999 FEW035 BKN250 25/16 A3003 RMK VEL MAX=
200902121600 METAR MROC 121600Z 10014KT 9999 FEW035 BKN250 26/16 A3003 RMK VEL MAX=
200902121700 METAR MROC 121700Z 08016G26KT 9999 FEW035 BKN250 28/15 A3003 NOSIG=
200902121800 METAR MROC 121800Z 08014KT 9999 FEW035 BKN250 28/15 A//// RMK VEL MAX WIND 20NUDO S NOSIG=
200902121900 METAR MROC 121900Z 09014KT 9999 SCT035 BKN250 28/16 A3000 RMK VEL MAX=
200902122000 METAR MROC 122000Z 09015KT 9999 SCT030 BKN250 27/15 A2998 RMK TRAZAS AC VEL/MAX WIND 21NUDOS=
200902122100 METAR MROC 122100Z 10011KT 9999 FEW030 BKN250 26/16 A2997 RMK VEL MAX VTO 18KT NOSIG=
200902122200 METAR MROC 122200Z 08014KT 9999 FEW030 BKN120 25/15 A2997 NOSIG=
200902122300 METAR MROC 122300Z 09012G23KT FEW030 BKN120 24/16 A2997 RMK PCPN DST NE NOSIG=
200902130000 METAR MROC 130000Z 09010KT 9999 FEW030 BKN130 23/16 A2997 RMK VEL MAX VTO 17KTS NOSIG=
200902130100 METAR MROC 130100Z 11012KT 9999 FEW030 SCT130 22/16 A2999 RMK VEL MAX VTO 17KTS NOSIG=
200902130200 METAR MROC 130200Z 11014KT 9999 FEW030 SCT140 21/17 A3000 NOSIG=
200902130300 METAR MROC 130300Z 10020KT 9999 FEW030 SCT120 22/16 A3001 NOSIG=
200902130400 METAR MROC 130400Z 10014KT 9999 FEW030 21/16 A3001 NOSIG=
200902130500 METAR MROC 130500Z 09014KT 9999 FEW030 22/16 A3000 NOSIG=
200902130600 METAR MROC 130600Z 10012KT 9999 FEW030 21/16 A2998 NOSIG=
200902130700 METAR MROC 130700Z 08013KT 9999 FEW030 20/15 A2998 NOSIG=
200902130800 METAR MROC 130800Z 10014KT 9999 FEW030 20/15 A2997 RMK VL MX VIENTO 22KT NOSIG=
200902130900 METAR MROC 130900Z 09013KT 9999 FEW030 20/14 A2997 RMK VL MX VIENTO 20KT NOSIG=
200902131000 METAR MROC 131000Z 09011KT 9999 FEW030 21/14 A2998 NOSIG=
200902131100 METAR MROC 131100Z 10012KT 9999 FEW030 20/15 A2999 NOSIG=
200902131200 METAR MROC 131200Z 10011KT 9999 FEW025 20/15 A3002 RMK TRACE CI VL MX VIENTO 19KT NOSIG=
200902131300 METAR MROC 131300Z 10010KT CAVOK 21/14 A3003 RMK TRACE SC FEW250 DZ DST NE VEL MAX VTO 17KT NOSIG=
200902131400 METAR MROC 131400Z 10011KT CAVOK 24/14 A3005 RMK TRACE SC AC VEL MAX VTO 20KT NOSIG=
200902131500 METAR MROC 131500Z 10013KT CAVOK 25/14 A3006 RMK TRACE SC AC CI VEL MAX VTO 20KT NOSIG=
200902131600 METAR MROC 131600Z 08012KT CAVOK 27/13 A3006 RMK TRACE SC FEW130 VEL MAX VTO 18KT NOSIG=
200902131700 METAR MROC 131700Z 08013KT 9999 FEW040 28/14 A3004 RMK VEL MAX VTO 19KT NOSIG=
200902131800 METAR MROC 131800Z 08012KT 9999 FEW040 28/14 A3002 RMK VEL MAX VTO 18KT NOSIG=
200902131900 METAR MROC 131900Z 09013KT 9999 FEW040 28/14 A3000 RMK VEL MAX VTO 19KT NOSIG=
200902132000 METAR MROC 132000Z 08010KT 9999 FEW040 29/13 A2996 RMK VEL MAX VTO 16KT NOSIG=
200902132100 METAR MROC 132100Z 10014KT 9999 FEW040 29/14 A2994 NOSIG=
200902132200 METAR MROC 132200Z 09012KT 9999 FEW040 27/14 A2994 RMK RFAGAS 17KT NOSIG=
200902132300 METAR MROC 132300Z 09009KT 9999 FEW040 26/14 A2994 NOSIG=
200902140000 METAR MROC 140000Z 08012KT 9999 FEW040 24/14 A2996 NOSIG=
200902140100 METAR MROC 140100Z 09009KT 9999 FEW040 23/15 A2998 NOSIG=
200902140200 METAR MROC 140200Z 09007KT 9999 FEW040 22/15 A3000 NOSIG=
200902140300 METAR MROC 140300Z 08013KT CAVOK 22/16 A3001 RMK TRAZAS SC NOSIG=
200902140400 METAR MROC 140400Z 12014KT CAVOK 22/15 A3001 RMK TRAZAS SCT NOSIG=
200902140500 METAR MROC 140500Z 10010KT CAVOK 22/15 A3001 RMK TRAZAS SC VEL MAX WIND 17NUDOS NOSIG=
200902140600 METAR MROC 140600Z 10008KT CAVOK 21/14 A3001 RMK TRAZAS SC VEL MAX WIND 15NUDOS NOSIG=
200902140700 METAR MROC 140700Z 11008KT CAVOK 20/14 A2998 RMK TRAZAS SC VEL MAX WIND 14NUDOS NOSIG=
200902140800 METAR MROC 140800Z 10009KT CAVOK 20/14 A2996 RMK TRAZAS SC VEL MAX WIND 14NUDOS NOSIG=
200902140900 METAR MROC 140900Z 08010KT CAVOK 20/14 A2995 RMK TRAZAS SC NOSIG=
200902141000 METAR MROC 141000Z 02006KT CAVOK 19/14 A2997 RMK TRAZAS SCT NOSIG=
200902141100 METAR MROC 141100Z 06011KT CAVOK 19/14 A2997 RMK TRAZAS SC NOSIG=
200902141200 METAR MROC 141200Z 06007KT CAVOK 19/14 A2998 RMK TRAZAS SC BKN250 NOSIG=
200902141300 METAR MROC 141300Z 07005KT CAVOK 21/14 A3001 RMK TRACE SC BKN250 NOSIG=
200902141400 METAR MROC 141400Z 00000KT CAVOK 24/15 A3002 RMK BECMG 24006KT TRACE SC BKN 250=
200902141500 METAR MROC 141500Z 20005KT CAVOK 25/15 A3003 RMK TRACE SC BKN250 NOSIG=
200902141600 METAR MROC 141600Z 13008KT 9999 FEW040 SCT250 28/15 A3002 BECMG 24006KT=
200902141700 METAR MROC 141700Z 12006KT 9999 FEW040 SCT250 28/15 A3000 RMK DZ NE BECMG 24006KT=
200902141800 METAR MROC 141800Z 12006KT 9999 SCT040 FEW250 29/16 A2997 RMK DZ NE NOSIG=
200902141900 METAR MROC 141900Z 12006KT 9999 SCT030 FEW070 28/16 A2994 RMK DZ NE FU S TRACE CI NOSIG=
200902142000 METAR MROC 142000Z 13006KT 9999 SCT030 SCT070 27/16 A2992 RMK DZ NE TRACE CI BECMG 24006KT=
200902142100 METAR MROC 142100Z 14008KT 9999 SCT040 SCT080 26/16 A2992 RMK TRACE CI DZ NE NOSIG=
200902142200 METAR MROC 142200Z 14009KT 9999 SCT040 SCT080 25/16 A2992 RMK DZ NE VEL/ MAX VIENTO 15KTS NOSIG=
200902142300 METAR MROC 142300Z 21010KT 9999 FEW030 SCT040 23/17 A2994 RMK VEL MAX WIND 14KTS NOSIG=
200902150000 METAR MROC 150000Z 27008KT 9999 BKN048 22/18 A2995 RMK TRACE AC RN NE NOSIG=
200902150100 METAR MROC 150100Z 25003KT 9999 FEW028 SCT060 21/17 A2998 NOSIG=
200902150200 METAR MROC 150200Z 10006KT 9999 FEW040 21/16 A2999 NOSIG=
200902150300 METAR MROC 150300Z 09009KT 9999 FEW040 21/17 A3000 NOSIG=
200902150400 METAR MROC 150400Z 07006KT 9999 FEW040 21/16 A3001 NOSIG=
200902150500 METAR MROC 150500Z 10007KT CAVOK 21/16 A3000 RMK TRACE SC NOSIG=
200902150600 METAR MROC 150600Z 06004KT CAVOK 20/16 A3000 RMK TRACE SCT NOSIG=
200902150700 METAR MROC 150700Z 08006KT CAVOK 20/15 A2998 RMK TRACE SCT NOSIG=
200902150800 METAR MROC 150800Z 08005KT CAVOK 19/15 A2996 RMK TRACE SC=
200902150900 METAR MROC 150900Z 09005KT CAVOK 19/14 A2996 RMK TRACE SC=
200902151000 METAR MROC 151000Z 09006KT CAVOK 19/14 A2996 RMK TRACE SC=
200902151100 METAR MROC 151100Z 07007KT CAVOK 19/14 A2998 RMK TRACE SC=
200902151200 METAR MROC 151200Z 11006KT CAVOK 19/14 A3001 RMK TRACE SC=
200902151300 METAR MROC 151300Z 12010KT CAVOK 21/14 A3004 RMK VIENTO MAX 15KT TRACE SC NOSIG=
200902151400 METAR MROC 151400Z 12010KT CAVOK 22/14 A3006 RMK TRACE SCT NOSIG=
200902151500 METAR MROC 151500Z 10008KT CAVOK 24/14 A3006 RMK TRACE SCT VIENTO MAX 13KTS NOSIG=
200902151600 METAR MROC 151600Z 11008KT 9999 FEW040 26/13 A3006 NOSIG=
200902151700 METAR MROC 151700Z 05006KT 9999 FEW040 28/12 A3003 NOSIG=
200902151800 METAR MROC 151800Z 10010KT 9999 FEW042 30/13 A3000 RMK TRACE CI NOSIG=
200902151900 METAR MROC 151900Z 10010KT 9999 FEW040 30/13 A2997 NOSIG=
200902152000 METAR MROC 152000Z 24010KT 9999 FEW035 29/13 A2995 NOSIG=
200902152100 METAR MROC 152100Z 25011KT 9999 SCT035 28/17 A2995 NOSIG=
200902152200 METAR MROC 152200Z 18003KT 9999 -RA SCT030 24/20 A2996 NOSIG=
200902152300 METAR MROC 152300Z 16003KT 9999 SCT030 SCT130 22/20 A2997 RERA RMK DZ N NE NOSIG=
200902160000 METAR MROC 160000Z 14004KT 9999 SCT030 21/18 A2998 NOSIG=
200902160100 METAR MROC 160100Z 11006KT 9999 SCT030 21/17 A3000 NOSIG=
200902160200 METAR MROC 160200Z 09006KT 9999 SCT030 20/16 A3002 NOSIG=
200902160300 METAR MROC 160300Z 10007KT 9999 SCT030 20/16 A3004 NOSIG=
200902160400 METAR MROC 160400Z 12008KT 9999 SCT030 20/16 A3005 NOSIG=
200902160500 METAR MROC 160500Z 07006KT 9999 SCT030 19/16 A3005 NOSIG=
200902160600 METAR MROC 160600Z 08004KT 9999 SCT030 19/16 A3003 NOSIG=
200902160700 METAR MROC 160700Z 07011KT 9999 SCT030 19/16 A3002 NOSIG=
200902160800 METAR MROC 160800Z 08008KT 9999 FEW030 18/15 A3000=
200902160900 METAR MROC 160900Z 09010KT 9999 FEW030 17/14 A2999=
200902161000 METAR MROC 161000Z 07007KT 9999 FEW030 18/14 A3000=
200902161100 METAR MROC 161100Z 08009KT 9999 FEW030 19/14 A3001=
200902161200 METAR MROC 161200Z 10008KT CAVOK 20/13 A3004 RMK TRACE SC NOSIG=
200902161300 METAR MROC 161300Z 10008KT CAVOK 20/13 A3004 RMK TRACE SC NOSIG=
200902161400 METAR MROC 161400Z 12011KT CAVOK 22/13 A3006 RMK TRACE SC NOSIG=
200902161500 METAR MROC 161500Z 11011KT CAVOK 24/13 A3003 RMK TRACE SC NOSIG=
200902161600 METAR MROC 161600Z 08011KT CAVOK 27/07 A3007 RMK TRACE SC NOSIG=
200902161700 METAR MROC 161700Z 08014G24KT CAVOK 27/06 A3005 RMK TRACE SC NOSIG=
200902161800 METAR MROC 161800Z 10016KT 9999 FEW035 27/16 A3003 RMK VL MX VIENTO 24KT NOSIG=
200902161900 METAR MROC 161900Z 09014KT 9999 FEW036 28/10 A3001 RMK VL MX VIENTO 20KT NOSIG=
200902162000 METAR MROC 162000Z 08012KT 9999 FEW035 28/10 A2998 RMK VL MX VIENTO 19KT NOSIG=
200902162100 METAR MROC 162100Z 07016KT 9999 FEW035 28/10 A2998 RMK VEL MAX WIND 21NUDOS NOSIG=
200902162200 METAR MROC 162200Z 06018KT 9999 FEW040 27/09 A2998 RMK VEL/MAX/WIND 23NUDOS NOSIG=
200902162300 METAR MROC 162300Z 06015G25KT 9999 FEW040 25/07 A2999 NOSIG=
200902170000 METAR MROC 170000Z 07010KT 9999 FEW040 22/10 A3001 RMK VEL MAX WIND 15NUDOS=
200902170100 METAR MROC 170100Z 00000KT CAVOK 21/10 A3004 RMK TRACE SCT CI NOSIG=
200902170200 METAR MROC 170200Z 09006KT CAVOK 20/13 A3006 RMK TRACE SCT CI NOSIG=
200902170300 METAR MROC 170300Z 08011KT CAVOK 20/10 A3007 RMK TRACE SCT VEL MAX DE VIENTO 18KTS NOSIG=
200902170400 METAR MROC 170400Z 09008KT CAVOK 19/12 A//// RMK VEL MAX VIENTO 14KTS TRACE SCT NOSIG=
200902170500 METAR MROC 170500Z 10012KT CAVOK 19/12 A3005 RMK TRACE SCT VEL MAX VIENTO 18KTS NOSIG=
200902170600 METAR MROC 170600Z 10011KT CAVOK 18/11 A3004 RMK TRACE SCT NOSIG=
200902170700 METAR MROC NIL=
200902170800 METAR MROC 170800Z 10012KT CAVOK 18/12 A3002 RMK TRACE SCT VIENTO MAX 18KTS=
200902170900 METAR MROC 170900Z 09008KT CAVOK 18/11 A3001 RMK TRACE SCT VIENTO MAX 14KTS=
200902171000 METAR MROC 171000Z 10010KT CAVOK 18/12 A3001 RMK TRACE SCT VIENTO MAX 16KTS=
200902171100 METAR MROC 171100Z 09010KT 9999 FEW045 19/11 A3001=
200902171200 METAR MROC 171200Z 08012KT 9999 FEW045 19/12 A3002 RMK DZ NE TRACE AC CI VEL MAX VIENTO 18KTS=
200902171300 METAR MROC 171300Z 08009KT 9999 SCT030 19/13 A3004 RMK DZ DST NW/N/NE VEL/MAX=
200902171400 METAR MROC 171400Z 09011KT 9999 SCT030 21/13 A3006 RMK DZ DST N/NE VEL/MAX/WIND 17NUDOS TRAZAS AC NOSIG=
200902171500 METAR MROC 171500Z 08014KT 9999 SCT030 24/13 A3007 RMK TRAZAS AC DZ DST N/NE VEL/MAX/WIND 21NUDOS NOSIG=
200902171600 METAR MROC 171600Z 06020KT 9999 SCT030 25/12 A3007 RMK VEL MAX WIND 24NUDOS=
200902171700 METAR MROC 171700Z 06020KT 9999 SCT035 27/11 A3005 RMK VEL/MAX/WIND 28NUDOS=
200902171800 METAR MROC 171800Z 06015KT 9999 SCT035 28/11 A3002 RMK VEL MAX WIND 23NUDOS NOSIG=
200902171900 METAR MROC 171900Z 06020KT 9999 SCT035 27/10 A2999 RMK VEL/MAX WIND 26NUDOS NOSIG=
200902172000 METAR MROC 172000Z 05022KT 9999 FEW035 27/10 A2996 RMK VEL MAX WIND 29NUDOS NOSIG=
200902172100 METAR MROC 172100Z 05024KT 9999 FEW045 27/10 A2995 RMK VEL MAX VTO 32KTS NOSIG=
200902172200 METAR MROC 172200Z 06023KT CAVOK 25/09 A2996 RMK VEL MAX VTO 23KTS NOSIG=
200902172300 METAR MROC 172300Z 05021KT CAVOK 23/10 A2996 RMK TRACE SC VEL MAX VTO 27KT NOSIG=
200902180000 METAR MROC 180000Z 06017KT CAVOK 21/08 A2998 RMK TRACE SC VEL MAX VTO 25KT NOSIG=
200902180100 METAR MROC 180100Z 07009KT CAVOK 20/09 A3000 RMK TRACE SC VEL MAX VTO 16KT NOSIG=
200902180200 METAR MROC 180200Z 09007KT CAVOK 19/11 A3002 RMK TRACE SC VEL MAX VTO 12KT NOSIG=
200902180300 METAR MROC 180300Z 09010KT CAVOK 20/06 A3003 RMK TRACE SC NOSIG=
200902180400 METAR MROC 180400Z 09010KT CAVOK 19/07 A3003 RMK TRACE SC NOSIG=
200902180500 METAR MROC 180500Z 08008KT CAVOK 19/07 A3003 RMK TRACE SC NOSIG=
200902180600 METAR MROC 180600Z 09011KT CAVOK 19/07 A3002 RMK TRACE SC NOSIG=
200902180700 METAR MROC 180700Z 10010KT CAVOK 19/06 A3001 RMK TRACE SC NOSIG=
200902180800 METAR MROC 180800Z 10010KT CAVOK 18/07 A3001 RMK TRACE SC NOSIG=
200902180900 METAR MROC 180900Z 08009KT CAVOK 18/08 A2999 RMK TRACE SC NOSIG=
200902181000 METAR MROC 181000Z 09011KT CAVOK 18/08 A2999 RMK FEW100 NOSIG=
200902181100 METAR MROC 181100Z 08011KT CAVOK 19/10 A3000 RMK TRACE SC NOSIG=
200902181200 METAR MROC 181200Z 07009KT CAVOK 20/10 A3001 RMK TRACE SC NOSIG=
200902181300 METAR MROC 181300Z 08009KT CAVOK 21/10 A3002 RMK TRACE SC NOSIG=
200902181400 METAR MROC 181400Z 08011KT CAVOK 22/10 A3003 RMK TRACE SC VEL MAX VTO 17KT NOSIG=
200902181500 METAR MROC 181500Z 09012KT CAVOK 24/11 A3004 RMK TRACE SC VEL MAX VTO 20KT NOSIG=
200902181600 METAR MROC 181600Z 07017KT CAVOK 26/09 A3003 RMK TRACE SC NOSIG=
200902181700 METAR MROC 181700Z 06017KT CAVOK 27/08 A3001 RMK TRACE SC VEL MAX VTO 22KT NOSIG=
200902181800 METAR MROC 181800Z 08012KT CAVOK 27/10 A2998 RMK TRACE SC NOSIG=
200902181900 METAR MROC 181900Z 06015KT CAVOK 28/08 A2995 RMK TRACE SC VEL MAX VTO 22KT NOSIG=
200902182000 METAR MROC 182000Z 07011KT 9999 FEW040 28/10 A2993 RMK VEL MAX VTO 17KT NOSIG=
200902182100 METAR MROC 182100Z 07012KT 9999 FEW040 27/11 A2992 RMK RAFAGAS 17KT NOSIG=
200902182200 METAR MROC 182200Z 06014KT 9999 FEW040 26/10 A2992 NOSIG=
200902182300 METAR MROC 182300Z 07013KT 9999 FEW040 24/10 A2994 NOSIG=
200902190000 METAR MROC 190000Z 08009KT CAVOK 22/10 A2996 RMK TRACE SC NOSIG=
200902190100 METAR MROC 190100Z 10009KT CAVOK 20/11 A2997 NOSIG=
200902190200 METAR MROC 190200Z 10013KT CAVOK 20/12 A2999 NOSIG=
200902190300 METAR MROC 190300Z 11013KT CAVOK 19/12 A2999 RMK TRAZAS SCT NOSIG=
200902190400 METAR MROC 190400Z 11014KT CAVOK 19/13 A2999 RMK TRAZAS SC NOSIG=
200902190500 METAR MROC 190500Z 11015KT CAVOK 19/13 A2998 RMK TRAZAS SCT NOSIG=
200902190600 METAR MROC 190600Z 10014KT CAVOK 19/14 A2997 RMK TRAZAS SCT NOSIG=
200902190700 METAR MROC 190700Z 11011KT CAVOK 19/14 A2996 RMK TRAZAS SC NOSIG=
200902190800 METAR MROC 190800Z 12010KT CAVOK 18/14 A2995 RMK TRAZAS SC NOSIG=
200902190900 METAR MROC 190900Z 09008KT CAVOK 18/14 A2994 RMK TRAZAS SC NOSIG=
200902191000 METAR MROC 191000Z 09011KT CAVOK 19/14 A2995 RMK TRAZAS SC NOSIG=
200902191100 METAR MROC 191100Z 10012KT CAVOK 19/14 A2996 RMK TRAZAS SC NOSIG=
200902191200 METAR MROC 191200Z 11011KT CAVOK 19/14 A2996 RMK TRAZAS SC NOSIG=
200902191300 METAR MROC 191300Z 12010KT CAVOK 21/14 A2998 RMK TRACE SC NOSIG=
200902191400 METAR MROC 191400Z 11009KT 9999 FEW040 22/15 A3000 RMK TRACE AC NOSIG=
200902191500 METAR MROC 191500Z 13004KT 9999 FEW040 25/16 A3001 RMK TRACE AC DZ N NE NOSIG=
200902191600 METAR MROC 191600Z 08011KT 9999 FEW040 28/15 A3000 RMK DZ NE NOSIG=
200902191700 METAR MROC 191700Z 08010KT 9999 SCT035 29/15 A3000 RMK DZ NE=
200902191800 METAR MROC 191800Z 09012KT 9999 SCT035 29/15 A2998 RMK DZ NE=
200902191900 METAR MROC 191900Z 06012KT 9999 SCT030 29/15 A2995 RMK DZ NE NOSIG=
200902192000 METAR MROC 192000Z 10012KT 9999 SCT030 SCT080 28/16 A2993 RMK DZ NE NOSIG=
200902192052 METAR MROC 102100Z 10010G20KT 9999 SCT030 SCT090 27/16 A2991 RMK DZ NE NOSIG=
200902192100 METAR MROC 192100Z 10010G20KT 9999 SCT030 SCT090 27/16 A2991 RMK DZ NE NOSIG=
200902192200 METAR MROC 192200Z 12010KT 9999 FEW040 BKN080 25/16 A2992 RMK DZ NE N NOSIG=
200902192300 METAR MROC 192300Z 10009KT 9999 FEW030 SCT080 24/16 A2992 RMK DZ NE NOSIG=
200902192352 METAR MROC 200000Z 11010KT 9999 FEW020 SCT045 23/17 A2993 RMK DZ NE NOSIG=
200902200000 METAR MROC 200000Z 11010KT 9999 FEW020 SCT045 23/17 A2993 RMK DZ NE NOSIG=
200902200100 METAR MROC 200100Z 12012KT 9999 SCT030 22/17 A2995 RMK VEL MAX VIENTO 17KTS NOSIG=
200902200200 METAR MROC 200200Z 12012KT 9999 FEW035 22/17 A2996 RMK TRACE AC VEL MAX VIENTO 18KTS NOSIG=
200902200300 METAR MROC 200300Z 11010KT CAVOK 22/17 A2997 RMK TRACE SC NOSIG=
200902200400 METAR MROC 200400Z 11012KT CAVOK 22/17 A2998 RMK TRACE SC VEL MAX VTO 18KT NOSIG=
200902200500 METAR MROC 200500Z 11010KT CAVOK 21/17 A2997 RMK TRACE SC NOSIG=
200902200600 METAR MROC 200600Z 08012KT 9999 FEW030 22/16 A2996 RMK VEL MAX VTO 18KT NOSIG=
200902200700 METAR MROC 200700Z 10011KT 9999 FEW030 SCT080 22/16 A2993 RMK VEL MAX VTO 18KT NOSIG=
200902200800 METAR MROC 200800Z 09010KT 9999 FEW030 SCT080 21/16 A2993 RMK VEL MAX VTO 18KT NOSIG=
200902200900 METAR MROC 200900Z 10009KT 9999 FEW030 SCT110 21/16 A2991 RMK VEL MX VTO 15KT=
200902201000 METAR MROC 201000Z 09007KT 9999 FEW030 BKN110 22/16 A2993 RMK VEL MAX VTO 13KT=
200902201100 METAR MROC 201100Z 11013KT 9999 FEW030 BKN120 21/16 A2993 RMK VEL MAX VTO 19KT=
200902201200 METAR MROC 201200Z 10012KT 9999 FEW030 BKN120 21/16 A2994 RMK DZ DST NE VEL MAX VTO 18KT=
200902201300 METAR MROC 201300Z 12011KT 9999 FEW040 BKN140 22/16 A2996 RMK RN N NE VEL MAX VIENTO 18KTS NOSIG=
200902201400 METAR MROC 201400Z 11011KT 9999 FEW040 SCT100 23/16 A2998 RMK DZ NE N VEL MAX VIENTO 15KTS NOSIG=
200902201500 METAR MROC 201500Z 11010KT 9999 FEW040 SCT120 26/16 A2999 RMK DZ N VEL MAX VIENTO 16KTS NOSIG=
200902201600 METAR MROC 201600Z 09010KT 9999 FEW040 SCT090 26/17 A2999 RMK RN N NE VEL MAX VIENTO 18KTS NOSIG=
200902201700 METAR MROC 201700Z 09012KT 9999 FEW040 BKN110 26/18 A2998 RMK RN N TRACE CI VEL MAX VIENTO 17KTS NOSIG=
200902201800 METAR MROC 201800Z 10010KT 9999 FEW040 OVC110 25/18 A2996 RMK RN N RERA NOSIG=
200902201900 METAR MROC 201900Z 08012KT 9999 FEW040 BKN120 26/16 A2992 RMK RN N NE VEL MAX VIENTO 18KTS NOSIG=
200902202000 METAR MROC 202000Z 08014KT 9999 FEW040 BKN130 26/16 A2991 RMK RN DIST N NOSIG=
200902202100 METAR MROC 202100Z 08014KT 9999 FEW030 BKN120 25/17 A2990 RMK RN N NE NOSIG=
200902202200 METAR MROC 202200Z 09014KT 9999 SCT025 BKN110 23/15 A2989 RERA RMK RN N NE VL MX VTO 20KT NOSIG=
200902202300 METAR MROC 202300Z 10012KT 9999 SCT020 BKN100 23/16 A2990 RMK RN N NE NOSIG=
200902210000 METAR MROC 210000Z 07011KT 9999 -RA SCT025 BKN100 22/15 A2992 NOSIG=
200902210100 METAR MROC 210100Z 07014KT 9999 FEW020 SCT100 23/14 A2994 RERA RMK VL MX VTO 22KT NOSIG=
200902210200 METAR MROC 210200Z 09013KT 9999 FEW020 SCT100 22/14 A2993 NOSIG=
200902210300 METAR MROC 210300Z 10012KT 9999 FEW020 SCT100 22/15 A2996 NOSIG=
200902210400 METAR MROC 210400Z 09010KT 9999 FEW020 SCT100 22/14 A2997 NOSIG=
200902210500 METAR MROC 210500Z 07021KT 9999 FEW030 SCT100 22/14 A2997 RMK RAFAGAS 26KT NOSIG=
200902210600 METAR MROC 210600Z 08018KT CAVOK 22/13 A2995 RMK TRACE SC SCT1000 RAFAGAS 27KT NOSIG=
200902210700 METAR MROC 210700Z 08012KT CAVOK 22/13 A2994 RMK TRACE SC BKN120 NOSIG=
200902210800 METAR MROC 210800Z 10011KT CAVOK 21/15 A2994 RMK TRACE SC BKN120=
200902210900 METAR MROC 210900Z 08009KT CAVOK 20/13 A2993 RMK TRACE SC SCT120=
200902211000 METAR MROC 211000Z 08014KT CAVOK 21/13 A2992 RMK TRACE SC SCT120=
200902211100 METAR MROC 211100Z 08014KT CAVOK 21/13 A2992 RMK TRACE SC SCT120=
200902211200 METAR MROC 211200Z 09011KT 9999 FEW030 SCT120 20/14 A2993=
200902211300 METAR MROC 211300Z 09011KT 9999 FEW030 21/14 A2996 NOSIG=
200902211400 METAR MROC 211400Z 21006KT CAVOK 26/21 A2991 RMK SCT080 FEW100 TRACE SC CU TCU DST NW N HZ LGT ARND=
200902211500 METAR MROC 211500Z 11015KT 9999 FEW030 23/14 A2999 RMK VL MX VTO 22KT NOSIG=
200902211600 METAR MROC 211600Z 09013G23KT 9999 FEW030 25/12 A2999 NOSIG=
200902211700 METAR MROC 211700Z 08015KT 9999 SCT030 25/13 A2998 RMK VL MX VTO 23KT NOSIG=
200902211800 METAR MROC 211800Z 07018KT 9999 SCT030 26/13 A2996 RMK VL MX VTO 25KT NOSIG=
200902211900 METAR MROC 211900Z 08018KT 9999 FEW030 26/13 A2994 NOSIG=
200902212000 METAR MROC 212000Z 07017KT 9999 FEW030 26/14 A2991 NOSIG=
200902212100 METAR MROC 212100Z 09010G20KT 9999 SCT030 25/15 A2990 RMK DZ DST N/NE NOSIG=
200902212200 METAR MROC 212200Z 09015KT 9999 SCT030 24/15 A2989 RMK DZ DST N VEL/MAX/WIND 20NUDOS=
200902212300 METAR MROC 212300Z 08010KT 9999 SCT030 23/15 A2991 RMK DZ DST N/NE VEL/MAX  WIND 17NUDOS NOSIG=
200902220000 METAR MROC 220000Z 10012KT 9999 SCT030 21/15 A2993 RMK DZ DST N/NE VEL MAX  WIND 17NUDOS=
200902220100 METAR MROC 220100Z 11013KT CAVOK 21/14 A2995 RMK TRAZAS SC NOSIG=
200902220200 METAR MROC 220200Z 11011KT CAVOK 20/14 A2997 RMK TRACE SC NOSIG=
200902220300 METAR MROC 220300Z 10012KT CAVOK 20/14 A2999 RMK TRACE SCT VEL MAX VIENTO 18K TS NOSIG=
200902220400 METAR MROC 220400Z 11012KT CAVOK 20/13 A3001 RMK TRACE SCT NOSIG=
200902220500 METAR MROC 220500Z 11012G22KT CAVOK 20/14 A3001 RMK TRACE SCT NOSIG=
200902220600 METAR MROC 220600Z 10010G22KT CAVOK 19/14 A2998 RMK TRACE SCT NOSIG=
200902220700 METAR MROC 220700Z 04008KT CAVOK 19/15 A2999 RMK TRACE SCT NOSIG=
200902220800 METAR MROC 220800Z 08008KT CAVOK 20/16 A2995 RMK TRACE SCT VEL MAX VIENTO 16KTS NOSIG=
200902220900 METAR MROC 220900Z 08005G11KT CAVOK 20/15 A2995 RMK TRACE SCT NOSIG=
200902221000 METAR MROC 221000Z 10014KT CAVOK 21/15 A2995 RMK TRACE SCT VEL MAX VIENTO 19KTS=
200902221100 METAR MROC 221100Z 10013KT CAVOK 21/15 A2996 RMK TRACE SCT VEL MAX VIENTO 19KTS NOSIG=
200902221200 METAR MROC 221200Z 10014KT CAVOK 21/15 A2997 RMK TRACE SCT AC BKN250 VEL MAX VIENTO 22KTS NOSIG=
200902221300 METAR MROC 221300Z 11014KT 9999 FEW035 BKN250 22/17 A2998 RMK DZ DST N/NE VEL MAX VIENTO 21KTS=
200902221400 METAR MROC 221400Z 10015KT 9999 FEW030 BKN250 23/16 A3001 RMK DZ DST N VEL  MAX VIENTO 21KTS NOSIG=
200902221500 METAR MROC 221500Z 07020KT 9999 FEW035 BKN250 28/13 A2994 RMK VEL MAX VTO 28KT NOSIG=
200902221600 METAR MROC 221600Z 10013KT 9999 FEW030 BKN250 26/16 A3004 RMK VEL MAX VIENTO 18KTS NOSIG=
200902221700 METAR MROC 221700Z 09013KT 9999 SCT030 BKN250 27/15 A3002 RMK VEL MAX VIENTO 19KTS NOSIG=
200902221800 METAR MROC 221800Z 08014KT 9999 SCT030 BKN250 28/13 A3001 RMK VEL MAX VIENTO 20KTS NOSIG=
200902221900 METAR MROC 221900Z 07018KT 9999 FEW030 SCT250 28/14 A2998 NOSIG=
200902222000 METAR MROC 222000Z 08013KT 9999 FEW030 SCT250 28/14 A2996 RMK VEL MAX=
200902222100 METAR MROC 222100Z 07020KT 9999 FEW035 BKN250 28/13 A2994 RMK VEL MAX VTO 28KT NOSIG=
200902222200 METAR MROC 222200Z 06022KT 9999 FEW035 BKN250 27/13 A2994 RMK VEL MAX VTO 28KT NOSIG=
200902222300 METAR MROC 222300Z 06019KT 9999 FEW035 BKN250 25/13 A2995 RMK VEL MAX VTO 26KT NOSIG=
200902230000 METAR MROC 230000Z 08015KT 9999 FEW035 BKN250 23/14 A2997 RMK VEL MAX VTO 22KT NOSIG=
200902230100 METAR MROC 230100Z 08013KT 9999 FEW035 BKN250 22/14 A2999 RMK VEL MAX VTO 21KT NOSIG=
200902230200 METAR MROC 230200Z 08014KT CAVOK 22/15 A3001 RMK TRACE SC BKN250 NOSIG=
200902230300 METAR MROC 230300Z 07017KT CAVOK 22/14 A3001 RMK TRACE SC BKN240 NOSIG=
200902230400 METAR MROC 230400Z 09015KT 9999 FEW030 21/15 A3003 NOSIG=
200902230500 METAR MROC 230500Z 08014KT 9999 FEW030 21/15 A3003 NOSIG=
200902230600 METAR MROC 230600Z 09015KT 9999 FEW035 21/15 A3000 NOSIG=
200902230700 METAR MROC 230700Z 10014KT 9999 FEW035 21/15 A3000 NOSIG=
200902230800 METAR MROC 230800Z 09013KT 9999 FEW035 21/14 A2997 NOSIG=
200902230900 METAR MROC 260900Z 09015KT 9999 FEW035 21/14 A2997 NOSIG=
200902231000 METAR MROC 231000Z 10015KT 9999 FEW035 20/15 A2997 NOSIG=
200902231100 METAR MROC 231100Z 09011KT 9999 FEW035 21/15 A2999 NOSIG=
200902231200 METAR MROC 231200Z 10014KT 9999 SCT030 20/15 A3002 RMK DZ N NE NOSIG=
200902231300 METAR MROC 231300Z 10012KT 9999 SCT030 SCT070 21/15 A3003 RMK PCPN DST N NE VEL MAX VTO 18KT NOSIG=
200902231400 METAR MROC 231400Z 09013KT 9999 FEW030 23/15 A3005 RMK FEW090 PCPN DST N NE VEL MAX VTO 20KT NOSIG=
200902231500 METAR MROC 231500Z 08016KT 9999 SCT035 25/16 A3006 RMK TRACE AC PCPN DST N NE VEL MAX VTO 24KT NOSIG=
200902231600 METAR MROC 231600Z 08017KT 9999 FEW035 25/15 A3007 RMK PCPN DST N NE VEL MAX VTO 25KT NOSIG=
200902231700 METAR MROC 231700Z 09018G29KT 9999 FEW035 26/15 A3005 RMK DZ DST NE NOSIG=
200902231800 METAR MROC 231800Z 09020KT 9999 FEW035 26/14 A3002 RMK DZ DST NE VEL MAX VTO 28KT NOSIG=
200902231900 METAR MROC 231900Z 07023KT 9999 FEW035 26/13 A3000 RMK DZ DST NE VEL MAX VTO 29KT NOSIG=
200902232000 METAR MROC 232000Z 08019G29KT 9999 FEW040 26/13 A2997 NOSIG=
200902232100 METAR MROC 232100Z 08020KT 9999 FEW040 26/11 A2996 NOSIG=
200902232200 METAR MROC 232200Z 06020KT 9999 FEW040 25/13 A2997 RMK RAFAGAS 25KT NOSIG=
200902232300 METAR MROC 232300Z 09017KT 9999 FEW040 23/14 A2997 RMK RAFAGAS 21KT NOSIG=
200902240000 METAR MROC 240000Z 07018KT CAVOK 22/13 A2999 RMK TRACE SC RAFAGAS 23KT NOSIG=
200902240100 METAR MROC 240100Z 06018KT CAVOK 22/13 A3001 RMK TRAZAS SC NOSIG=
200902240200 METAR MROC 240200Z 06017KT CAVOK 22/12 A3003 RMK TRAZAS SC NOSIG=
200902240300 METAR MROC 240300Z 07014KT CAVOK 21/13 A3005 RMK TRAZAS SC VEL MAX VIENT O 20KTS NOSIG=
200902240400 METAR MROC 240400Z 07018KT CAVOK 21/13 A3003 RMK TRAZAS SC VEL MAX WIND 23KTS NOSIG=
200902240500 METAR MROC 240500Z 08017KT CAVOK 21/14 A3003 RMK TRAZAS SC VEL MAX VIENT O 22KTS NOSIG=
200902240600 METAR MROC 240600Z 08011KT CAVOK 21/14 A3003 RMK TRAZAS SC VEL MAX VIENT O 19KTS NOSIG=
200902240700 METAR MROC 240700Z 07014KT CAVOK 21/14 A3001 RMK TRAZAS SC VEL MAX VIENTO 21KTS NOSIG=
200902240800 METAR MROC 240800Z 08012KT CAVOK 21/13 A2998 RMK TRAZAS SC VEL MAX VIENT O 19KTS NOSIG=
200902240900 METAR MROC 240900Z 09009KT CAVOK 20/14 A2998 RMK TRAZAS SC VEL MAX VIENTO 15KTS NOSIG=
200902241000 METAR MROC 241000Z 09011KT CAVOK 20/13 A2998 RMK TRAZAS SC VEL MAX VIENT O 20KTS NOSIG=
200902241100 METAR MROC 241100Z 10010KT CAVOK 19/13 A2998 RMK TRAZAS SC VEL MAX VIENT O 17KTS NOSIG=
200902241200 METAR MROC 241200Z 09011KT CAVOK 19/12 A2999 RMK TRAZAS SC VEL MAX VIENT O 19KTS NOSIG=
200902241300 METAR MROC 241300Z 10013KT CAVOK 20/13 A3001 RMK TRACE SC DZ NE=
200902241400 METAR MROC 241400Z 08012KT 9999 FEW040 23/13 A3003 RMK DZ NE RAFAGAS 17KT NOSIG=
200902241500 METAR MROC 241500Z 08019KT 9999 FEW040 25/12 A3004 RMK RAFAGAS 26KT DZ NE NOSIG=
200902241600 METAR MROC 241600Z 09012KT 9999 FEW040 27/13 A3004 RMK DZ NE RAFAGAS 16KT NOSIG=
200902241700 METAR MROC 241700Z 09019KT 9999 FEW040 27/12 A3003 RMK DZ NE RAFAGAS 25KT NOSIG=
200902241800 METAR MROC 241800Z 07018KT 9999 FEW040 27/10 A3001 RMK DZ NE RAFAGAS 20KT NOSIG=
200902241900 METAR MROC 241900Z 08017KT 9999 FEW030 28/12 A2999 RMK DZ NE RAFAGAS 21KT NOSIG=
200902242000 METAR MROC 242000Z 08018KT 9999 FEW040 27/13 A2996 RMK DZ NE RAFAGAS 23KT NOSIG=
200902242100 METAR MROC 242100Z 07017KT 9999 FEW035 27/14 A2994 RMK VEL MAX VIENTO 24KTS NOSIG=
200902242200 METAR MROC 242200Z 07015KT 9999 FEW030 26/14 A2992 RMK VEL MAX VIENTO 24KTS NOSIG=
200902242300 METAR MROC 242300Z 08014KT 9999 FEW030 24/14 A2993 RMK VEL MAX VIENTO 22KTS NOSIG=
200902242353 METAR MROC 250000Z 07017KT 9999 FEW030 23/15 A2994 RMK RN NE OVR RDGS VEL MAX VIENTO 21KTS NOSIG=
200902250000 METAR MROC 250000Z 07017KT 9999 FEW030 23/15 A2994 RMK RN NE OVR RDGS VEL MAX VIENTO 21KTS NOSIG=
200902250100 METAR MROC 250100Z 08014KT 9999 FEW030 22/15 A2997 NOSIG=
200902250200 METAR MROC 250200Z 10013KT 9999 FEW030 20/15 A2999 NOSIG=
200902250300 METAR MROC 250300Z 10014KT 9999 FEW030 20/14 A3001 RMK VEL MAX VTO 22KT NOSIG=
200902250400 METAR MROC 250400Z 10014KT 9999 FEW030 20/14 A3002 NOSIG=
200902250500 METAR MROC 250500Z 10011KT CAVOK 20/12 A3001 RMK TRACE SC NOSIG=
200902250600 METAR MROC 250600Z 09012KT CAVOK 20/13 A3001 RMK TRACE SC NOSIG=
200902250700 METAR MROC 250700Z 09010KT CAVOK 20/12 A2999 RMK VEL MAX VTO 16KT NOSIG=
200902250800 METAR MROC 250800Z 10011KT CAVOK 19/13 A2997 RMK TRACE SC VEL MAX VTO 19KT=
200902250900 METAR MROC 250900Z 10012KT CAVOK 19/13 A2996 RMK TRACE SC VEL MAX VTO 18KT=
200902251000 METAR MROC 251000Z 08008KT CAVOK 19/14 A2997 RMK TRACE SC=
200902251100 METAR MROC 251100Z 10012KT CAVOK 19/13 A2996 RMK TRACE SC VEL MAX VTO 17KT=
200902251200 METAR MROC 251200Z 10012KT CAVOK 19/14 A2999 RMK TRACE SC FEW300 VEL MAX VTO 18KT=
200902251300 METAR MROC 251300Z 10012KT CAVOK 20/13 A3001 RMK TRACE SC FEW290 VEL MAX 18KTS NOSIG=
200902251400 METAR MROC 251400Z 10014KT CAVOK 23/12 A3003 RMK TRACE SC VEL MAX VIENTO 21KTS=
200902251500 METAR MROC 251500Z 11014KT CAVOK 24/12 A3004 RMK TRACE SC VEL MAX VIENTO 21KTS=
200902251600 METAR MROC 251600Z 10013KT CAVOK 26/09 A3005 RMK TRACE SC VEL MAX VIENTO 20KTS=
200902251700 METAR MROC 251700Z 08013KT CAVOK 27/13 A3003 RMK TRACE SC VEL MAX VIENTO 19KTS=
200902251800 METAR MROC 251800Z 07014KT 9999 FEW040 27/14 A3001 RMK VEL MAX VIENTO 20KTS NOSIG=
200902251900 METAR MROC 251900Z 08017KT 9999 FEW040 27/15 A2999 RMK VEL MAX VIENTO 26KTS NOSIG=
200902252000 METAR MROC 252000Z 07016KT 9999 FEW040 27/14 A2996 RMK RN NE VEL MAX VIENTO 24KTS NOSIG=
200902252100 METAR MROC 252100Z 09015KT 9999 FEW035 26/15 A2994 RMK VL MX 22KT RN NE NOSIG=
200902252200 METAR MROC 252200Z 09017KT 9999 FEW030 24/15 A2994 RMK VL MX VTO 24KT RN NE NOSIG=
200902252300 METAR MROC 252300Z 09012KT 9999 FEW025 23/15 A2994 RMK RN NE NOSIG=
200902260000 METAR MROC 260000Z 11016KT 9999 FEW025 21/15 A2995 RMK VL MX VTO 22KT RN N NE NOSIG=
200902260100 METAR MROC 260100Z 11014KT 9999 FEW025 20/16 A2997 RMK VL MX VTO 22KT NOSIG=
200902260200 METAR MROC 260200Z 11014KT 9999 FEW025 20/15 A3000 NOSIG=
200902260300 METAR MROC 260300Z 11013KT 9999 FEW035 20/16 A3001 RMK RAFAGAS 16KT NOSIG=
200902260400 METAR MROC 260400Z 11014KT CAVOK 20/16 A3002 RMK TRACE SC RAFAGAS 22KT NOSIG=
200902260500 METAR MROC 260500Z 11012KT CAVOK 20/15 A3003 RMK TRACE SC RAFAGAS 16KT NOSIG=
200902260600 METAR MROC 260600Z 10012KT CAVOK 20/15 A3002 RMK TRACE SC RAFAGAS 15KT NOSIG=
200902260700 METAR MROC 260700Z 11012KT CAVOK 20/15 A3000 RMK TRACE SC RAFAGAS 17KT NOSIG=
200902260800 METAR MROC 260800Z 10015KT CAVOK 20/15 A2998 RMK TRACE SC RAFAGAS 20KT=
200902260900 METAR MROC 260900Z 10014KT CAVOK 20/15 A2997 RMK TRACE SC=
200902261000 METAR MROC 261000Z 10014KT CAVOK 20/15 A2997 RMK TRACE SC RAFAGAS 19KT=
200902261100 METAR MROC 261100Z 10014KT CAVOK 20/15 A2997 RMK TRACE SC RAFAGAS 20KT=
200902261200 METAR MROC 261200Z 10023KT 9999 FEW030 20/15 A2999 RMK TRACE CI RAFAGAS 20K T=
200902261300 METAR MROC 261300Z 10012G22KT 9999 FEW030 22/15 A3001 RMK DZ N NE NOSIG=
200902261400 METAR MROC 261400Z 10015G25KT 9999 FEW030 23/15 A3002 RMK DZ N NE NOSIG=
200902261500 METAR MROC 261500Z 09015KT 9999 FEW030 25/15 A3004 RMK DZ N NE VL MX VTO 20KT NOSIG=
200902261600 METAR MROC 261600Z 10015KT 9999 SCT025 25/16 A3004 RMK DZ N NE VL MX VTO 22KT NOSIG=
200902261700 METAR MROC 261700Z 10010G20KT 9999 SCT025 26/16 A3003 RMK DZ N NE NOSIG=
200902261800 METAR MROC 261800Z 10016KT 9999 SCT025 26/15 A3001 RMK DZ N NE VL MX VTO 23KT NOSIG=
200902261900 METAR MROC 261900Z 09013KT 9999 SCT025 SCT300 28/15 A2998 RMK DZ N NE NOSIG=
200902262000 METAR MROC 262000Z 13010G20KT 9999 SCT025 SCT250 27/15 A2995 RMK DZ N NE NOSIG=
200902262100 METAR MROC 262100Z 10013KT 9999 SCT030 SCT250 25/16 A2994 RMK DZ DST N/NE VEL MAX VIENTO 24KTS NOSIG=
200902262200 METAR MROC 262200Z 10014KT 9999 SCT030 SCT250 24/15 A2994 RMK DZ DST N/NE VEL MAX VIENTO 19KTS NOSIG=
200902262300 METAR MROC 262300Z 11015KT 9999 SCT030 SCT250 23/14 A2994 RMK DZ DST N/NE VEL MAX VIENTO 23KTS NOSIG=
200902270000 METAR MROC 270000Z 11014KT 9999 SCT030 SCT250 21/13 A2995 RMK DZ DST N/NE VEL  MAX VIENTO 22KTS NOSIG=
200902270100 METAR MROC 270100Z 11010KT 9999 SCT030 21/13 A2997 RMK VEL MAX VIENTO 16KTS NOSIG=
200902270200 METAR MROC 270200Z 11012KT 9999 FEW030 21/14 A2998 RMK VEL/ MAX/VIENTO 21KTS NOSIG=
200902270300 METAR MROC 270300Z 11014KT 9999 FEW030 20/14 A3000 RMK VEL MAX VIENTO 22KTS NOSIG=
200902270400 METAR MROC NIL=
200902270500 METAR MROC 270500Z 10012KT CAVOK 20/15 A2999 RMK TRACE SC VEL MAX VIENTO 18KTS NOSIG=
200902270600 METAR MROC 270600Z 10013KT CAVOK 20/15 A2998 RMK TRACE SC VEL MAX VIENTO 18KTS NOSIG=
200902270700 METAR MROC 270700Z 10013KT CAVOK 20/15 A2995 RMK TRACE SC VEL MAX VIENTO 20KTS=
200902270800 METAR MROC 270800Z 10014KT CAVOK 20/15 A2994 RMK TRACE SC VEL MAX VIENTO 21KTS=
200902270900 METAR MROC 270900Z 10013G23KT CAVOK 20/15 A2993 RMK TRACE SC NOSIG=
200902271000 METAR MROC 271000Z 10009KT 9999 FEW012 20/15 A2994 RMK VEL MAX VIENTO 17KTS=
200902271100 METAR MROC 271100Z 10011KT CAVOK 20/15 A2995 RMK VEL MAX VIENTO 18KTS NOSIG=
200902271200 METAR MROC 271200Z 11012KT 9999 FEW030 SCT250 20/15 A2995 NOSIG=
200902271300 METAR MROC 271300Z 10010G20KT 9999 FEW035 BKN250 21/15 A2997 NOSIG=
200902271400 METAR MROC 271400Z 11014KT 9999 FEW030 BKN250 22/16 A2998 RMK DZ DST N/NE VEL MAX  VIENTO 20KTS NOSIG=
200902271500 METAR MROC 271500Z 10015KT 9999 FEW030 BKN250 24/16 A2999 RMK DZ DST N/NE VEL/MAX/VIENTO 21KTS NOSIG=
200902271600 METAR MROC 271600Z 11013KT 9999 FEW030 BKN250 26/17 A2999 RMK DZ DST N/NE VEL MAX VIENTO 23KTS NOSIG=
200902271700 METAR MROC 271700Z 11015KT 9999 SCT030 BKN250 28/16 A2998 RMK DZ DST N/NE VEL  MAX VIENTO 21KTS=
200902271800 METAR MROC 271800Z 11015KT 9999 SCT030 BKN250 28/16 A2998 RMK VEL MAX VIENT O 19KTS DZ DST N/NE TRAZAS CI NOSIG=
200902271900 METAR MROC 271900Z 10018KT 9999 FEW030 BKN250 28/16 A2994 RMK VEL MAX=
200902272000 METAR MROC 272000Z 10018KT 9999 FEW030 SCT250 27/15 A2992 RMK VEL MAX=
200902272100 METAR MROC 272100Z 11015KT 9999 FEW030 SCT060 26/15 A2990 RMK DZ DST NE ENE VEL MAX VTO 23KT NOSIG=
200902272200 METAR MROC 272200Z 11015KT 9999 FEW030 SCT060 25/16 A2990 RMK DZ DST NNE VEL MAX VTO 22KT NOSIG=
200902272300 METAR MROC 272300Z 11014KT 9999 FEW030 SCT040 23/16 A2991 RMK DZ DST NE VEL AX VTO 22KT NOSIG=
200902280000 METAR MROC 280000Z 11013KT 9999 FEW030 21/15 A2992 RMK VEL MAX VTO 20KT NOSIG=
200902280100 METAR MROC 280100Z 11012KT 9999 FEW030 21/14 A2994 RMK VEL MAX VTO 19KT NOSIG=
200902280200 METAR MROC 280200Z 10012KT CAVOK 21/14 A2996 RMK TRACE SC VEL MAX VTO 19KT NOSIG=
200902280300 METAR MROC 280300Z 11012KT CAVOK 21/14 A2997 RMK TRACE SC NOSIG=
200902280400 METAR MROC 280400Z 11010KT CAVOK 21/14 A2998 RMK TRACE SC NOSIG=
200902280500 METAR MROC 280500Z 10010KT CAVOK 20/14 A2998 RMK TRACE SC NOSIG=
200902280600 METAR MROC 280600Z 07008KT CAVOK 20/14 A2997 RMK TRACE SC NOSIG=
200902280700 METAR MROC 280700Z 06007KT CAVOK 19/14 A2994 RMK TRACE SC NOSIG=
200902280800 METAR MROC 280800Z 10008KT CAVOK 19/14 A2992 RMK TRACE SC NOSIG=
200902280900 METAR MROC 280900Z 08007KT CAVOK 19/14 A2991 RMK TRACE SC VL MX VTO 15KT NOSIG=
200902281000 METAR MROC 281000Z 07008KT CAVOK 19/14 A2992 RMK TRACE SC NOSIG=
200902281100 METAR MROC 281100Z 07007KT CAVOK 19/14 A2994 RMK TRACE SC NOSIG=
200902281200 METAR MROC 281200Z 11012KT CAVOK 19/14 A2994 RMK TRACE SC NOSIG=
200902281300 METAR MROC 281300Z 11012KT CAVOK 21/15 A2996 RMK TRACE SC VEL MAX VTO 17KT NOSIG=
200902281400 METAR MROC 281400Z 10012KT CAVOK 23/15 A2998 RMK TRACE SCT VEL MAX VTO 17KT NOSIG=
200902281500 METAR MROC 281500Z 10011KT 9999 FEW035 25/15 A2999 RMK DZ DST NE VEL MAX VTO 17KT NOSIG=
200902281600 METAR MROC 281600Z 11014KT 9999 FEW035 27/15 A2998 RMK DZ DST NE VEL MAX VTO 20KT NOSIG=
200902281700 METAR MROC 281700Z 11011KT 9999 FEW035 28/15 A2997 RMK DZ DST NE VEL MAX VTO 17KT NOSIG=
200902281800 METAR MROC 281800Z 11011KT 9999 FEW035 28/16 A2995 RMK VEL MAX VTO 16KT NOSIG=
200902281900 METAR MROC 281900Z 09011KT 9999 FEW035 28/16 A2993 RMK VEL MAX VTO 18KT NOSIG=
200902282000 METAR MROC 282000Z 11012KT 9999 FEW035 28/16 A2990 RMK VEL MAX VTO 19KT NOSIG=
200902282100 METAR MROC 282100Z 11011KT 9999 FEW030 27/16 A2989 RMK VEL MAX VTO 17KT NOSIG=
200902282200 METAR MROC 282200Z 11010G20KT 9999 FEW030 25/15 A2990 NOSIG=
200902282300 METAR MROC 282300Z 10010G20KT 9999 FEW030 25/15 A2991 NOSIG=
200903010000 METAR MROC 010000Z 10012KT 9999 FEW030 22/15 A2992 RMK VEL MAX VTO 18KT NOSIG=
200903010100 METAR MROC 010100Z 10013KT CAVOK 21/15 A2995 RMK TRACE SCT VEL MAX VTO 18KT NOSIG=
200903010200 METAR MROC 010200Z 10010KT CAVOK 20/15 A2997 RMK TRACE SC NOSIG=
200903010300 METAR MROC 010300Z 10012KT CAVOK 20/14 A2998 RMK TRAZAS SC VEL MAX VIENT O 16KTS NOSIG=
200903010400 METAR MROC 010400Z 10012KT CAVOK 20/13 A2999 RMK TRAZAS SC VEL MAX VIENTO 19KTS NOSIG=
200903010500 METAR MROC 010500Z 10011KT CAVOK 20/12 A2999 RMK TRAZAS SC VEL MAX VIENT O 17KTS NOSIG=
200903010600 METAR MROC 010600Z 10011KT CAVOK 20/12 A2998 RMK TRAZAS SC VEL MAX VIENT O 17KTS NOSIG=
200903010700 METAR MROC 010700Z 10011KT CAVOK 20/13 A2996 RMK TRAZAS SC VEL MAX VIENT O 18KTS NOSIG=
200903010800 METAR MROC 010800Z 11011KT CAVOK 20/13 A2994 RMK TRAZAS SC VEL MAX VIENT O 16KTS NOSIG=
200903010900 METAR MROC 010900Z 10010G20KT CAVOK 20/14 A2994 RMK TRAZAS SC NOSIG=
200903011000 METAR MROC 011000Z 10010KT CAVOK 19/14 A2995 RMK TRAZAS SC VEL MAX VIENTO 15KTS NOSIG=
200903011100 METAR MROC 011100Z 10008KT CAVOK 19/15 A2996 RMK TRAZAS SC VEL MAX VIENT O 14KTS NOSIG=
200903011200 METAR MROC 011200Z 10010KT CAVOK 19/14 A2998 RMK TRAZAS SC VEL MAX VIENT O 17KTS NOSIG=
200903011300 METAR MROC 011300Z 10011KT CAVOK 21/13 A3000 RMK TRACE SC VEL MAX VTO 16KT NOSIG=
200903011400 METAR MROC 011400Z 10012KT CAVOK 23/13 A3002 RMK TRACE SC VEL  MAX  VTO 18KT NOSIG=
200903011500 METAR MROC 011500Z 10011KT CAVOK 25/13 A3003 RMK TRACE SC VEL MAX VTO 18KT NOSIG=
200903011600 METAR MROC 011600Z 09012KT CAVOK 26/13 A3003 RMK TRACE SC VEL MAX VTO 18KT NOSIG=
200903011700 METAR MROC 011700Z 07011KT CAVOK 28/12 A3001 RMK TRACE SC VEL MAX VTO 17KT NOSIG=
200903011800 METAR MROC 011800Z 10010KT 9999 FEW035 28/13 A3000 RMK VEL MAX VTO 18KT NOSIG=
200903011900 METAR MROC 011900Z 10010KT 9999 FEW035 29/14 A2997 NOSIG=
200903012000 METAR MROC 012000Z 10010KT 9999 FEW035 28/15 A2993 RMK VEL MAX VIENTO 16KTS TRACE SC NOSIG=
200903012100 METAR MROC 012100Z 11010KT 9999 FEW040 28/14 A//// RMK VEL MAX VIENTO 17KTS NOSIG=
200903012200 METAR MROC 012200Z 11009KT 9999 FEW040 27/15 A2992 RMK VEL MAX VIENTO 13KTS NOSIG=
200903012300 METAR MROC 012300Z 12013KT 9999 SCT040 23/15 A2995 RMK VEL MAX VIENTO 18KTS NOSIG=
200903020000 METAR MROC 020000Z 11012KT 9999 FEW042 21/14 A2997 RMK VEL MAX VIENTO 18KTS NOSIG=
200903020100 METAR MROC 020100Z 10015KT CAVOK 20/14 A2999 RMK VEL MAX WIND 23 KTS TRAZAS SC NOSIG=
200903020200 METAR MROC 020200Z 10015KT CAVOK 20/14 A3002 RMK VEL MAX WIND 19 KTS TRAZAS SC NOSIG=
200903020300 METAR MROC 020300Z 10011KT CAVOK 20/15 A3003 RMK TRACE SC VEL MAX VTO 16KT NOSIG=
200903020400 METAR MROC 020400Z 08011G21KT CAVOK 19/14 A3004 RMK TRACE SC NOSIG=
200903020500 METAR MROC 020500Z 10012KT CAVOK 19/13 A3005 RMK TRACE SC VEL MAX VTO 19KT NOSIG=
200903020600 METAR MROC 020600Z 10011KT CAVOK 19/12 A3003 RMK TRACE SC VEL MAX VTO 20KT NOSIG=
200903020700 METAR MROC 020700Z 11013KT CAVOK 19/13 A2999 RMK TRACE SC VEL MAX VTO 20KT NOSIG=
200903020800 METAR MROC 020800Z 11013G24KT CAVOK 20/13 A3000 RMK TRACE SC=
200903020900 METAR MROC 020900Z 10014KT CAVOK 19/13 A3000 RMK TRACE SC FEW150=
200903021000 METAR MROC 021000Z 10014KT CAVOK 19/13 A3000 RMK TRACE SC SCT150 VEL MAX VTO 22KT=
200903021100 METAR MROC 021100Z 11014KT CAVOK 19/13 A3002 RMK TRACE SC FEW150 VEL MAX VTO 20KT=
200903021200 METAR MROC 021200Z 10014KT 9999 FEW030 19/13 A3002 RMK TRACE AC DZ DST N NE VEL MAX VTO 22KT=
200903021300 METAR MROC 021300Z 10016KT 9999 FEW030 20/13 A3005 RMK VEL MAX VIENTO 24KTS RN DIST NE NOSIG=
200903021400 METAR MROC 021400Z 10015KT 9999 FEW030 22/13 A3007 RMK RN DIST NE VEL MAX VIENTO 22KTS NOSIG=
200903021500 METAR MROC 021500Z 09014KT 9999 FEW030 24/21 A3007 RMK VEL MAX VIENTO 21 KTS DZ NE NOSIG=
200903021600 METAR MROC 021600Z 09015KT 9999 FEW030 25/14 A3007 RMK RN DIST NE VEL MAX VIENTO 23KTS NOSIG=
200903021700 METAR MROC 021700Z 10015KT 9999 FEW030 25/14 A3005 RMK RN DIST NE VEL MAX VIENTO 24KTS NOSIG=
200903021800 METAR MROC 021800Z 09015G25KT 9999 FEW030 25/14 A3003 RMK RN NE NOSIG=
200903021900 METAR MROC 021900Z COR 09020KT 9999 0300SW FU FEW030 SCT250 28/16 A3003 RMK VEL MAX VIENTO 27KTS NOSIG=
200903022000 METAR MROC 022000Z 10014KT 9999 FEW030 SCT260 26/14 A3000 RMK RN NE VEL MAX VIENTO 21KTS NOSIG=
200903022100 METAR MROC 022100Z 08015G25KT 9999 FEW030 25/15 A2998 RMK RN DST NE NOSIG=
200903022200 METAR MROC 022200Z 11013G26KT 9999 FEW030 24/15 A2997 RMK OCON DST NE NOSIG=
200903022300 METAR MROC 022300Z 11016KT 9999 FEW030 21/15 A2998 RMK PCPN NE TRACE CC VL MX VTO 24KT NOSIG=
200903030000 METAR MROC 030000Z 11014G24KT 9999 FEW025 20/15 A3000 RMK PCPN NE NOSIG=
200903030100 METAR MROC 030100Z 11012KT 9999 FEW025 19/15 A3004 RMK VL MX VTO 20KT NOSIG=
200903030200 METAR MROC 030200Z 10015G25KT 9999 FEW025 20/15 A3005 NOSIG=
200903030300 METAR MROC 030300Z 10013G23KT CAVOK 20/13 A3007 NOSIG=
200903030400 METAR MROC 030400Z 09015G25KT CAVOK 19/13 A3006 RMK TRACE SC NOSIG=
200903030500 METAR MROC 030500Z 10014G24KT CAVOK 19/13 A3005 RMK TRACE SC NOSIG=
200903030600 METAR MROC 030600Z 10015KT CAVOK 19/13 A3004 RMK TRACE SC VEL MAX VTO 22KT NOSIG=
200903030700 METAR MROC 030700Z 10016G26KT CAVOK 19/14 A3001 RMK TRACE SC NOSIG=
200903030800 METAR MROC 030800Z 09013G23KT CAVOK 20/14 A3000 RMK TRACE SC=
200903030900 METAR MROC 030900Z 10012G22KT CAVOK 20/14 A3000 RMK TRACE SC=
200903031000 METAR MROC 031000Z 11017KT CAVOK 19/14 A2999 RMK TRACE SC VEL MAX VTO 23KT=
200903031100 METAR MROC 031100Z 10014G28KT 9999 FEW035 20/14 A3001=
200903031200 METAR MROC 031200Z 10015KT 9999 FEW030 20/14 A3002 RMK VEL MAX VTO 20KT DZ DST NE E=
200903031300 METAR MROC 031300Z 11014G24KT 9999 FEW025 20/14 A3005 RMK PCPN N NE E NOSIG=
200903031400 METAR MROC 031400Z 11017KT 9999 FEW025 22/15 A3006 RMK PCPN N NE E VL MX VTO 23KT NOSIG=
200903031500 METAR MROC 031500Z 10015KT 9999 FEW025 24/14 A3006 RMK PCPN N NE E VL MX VTO 23KT NOSIG=
200903031600 METAR MROC 031600Z 11014G24KT 9999 FEW025 24/14 A3006 RMK PCPN N NE E NOSIG=
200903031700 METAR MROC 031700Z 10016G26KT 9999 FEW025 25/14 A3004 RMK PCPN N NE E NOSIG=
200903031800 METAR MROC 031800Z 10015G25KT 9999 FEW025 26/15 A3002 RMK PCPN N NE E NOSIG=
200903031900 METAR MROC 031900Z 10017KT 9999 FEW025 26/14 A3001 RMK PCPN N NE E VL MX VTO 24KT NOSIG=
200903032000 METAR MROC 032000Z 11018KT 9999 FEW025 25/14 A3000 RMK PCPN N NE E VL MX VTO 24KT NOSIG=
200903032100 METAR MROC 032100Z 11016KT 9999 FEW030 25/14 A2998 RMK VEL MAX VIENTO 24KTS DZ DST N/NE NOSIG=
200903032200 METAR MROC 032200Z 09017KT 9999 FEW030 24/14 A3000 RMK VEL/MAX/VIENTO 23KTS DZ DST N NOSIG=
200903032300 METAR MROC 032300Z 10015KT 9999 FEW030 22/14 A3001 RMK VEL/MAX VIENTO 22KTS DZ DST N/NE NOSIG=
200903040000 METAR MROC 040000Z 10013KT 9999 SCT030 21/14 A3002 RMK VEL/MAX VIENTO 19KTS DZ DST N/NE NOSIG=
200903040100 METAR MROC 040100Z 10015KT 9999 SCT030 20/14 A3005 RMK VEL MAX VIENTO 23KTS NOSIG=
200903040200 METAR MROC 040200Z 12014KT 9999 FEW030 19/14 A3007 RMK VEL MAX VIENTO 22KTS NOSIG=
200903040300 METAR MROC 040300Z 10012KT CAVOK 19/14 A3007 RMK TRACE SC NOSIG=
200903040400 METAR MROC 040400Z 11010KT CAVOK 19/14 A3008 RMK TRACE SC NOSIG=
200903040500 METAR MROC 040500Z 09014KT CAVOK 19/14 A3007 RMK TRACE SC NOSIG=
200903040600 METAR MROC 040600Z 10010G20KT CAVOK 19/14 A3006 RMK TRACE SC NOSIG=
200903040700 METAR MROC 040700Z 11014KT CAVOK 18/13 A3005 RMK TRACE SC NOSIG=
200903040800 METAR MROC 040800Z 11012KT CAVOK 17/13 A3003 RMK TRACE SC VEL MAX VIENTO 16KTS NOSIG=
200903040900 METAR MROC 040900Z 10014KT CAVOK 18/13 A3002 RMK TRACE SC VEL MAX VIENTO 22KTS NOSIG=
200903041000 METAR MROC 041000Z 11012KT CAVOK 18/14 A3002 RMK VEL MX VIENTO 19KTS TRACE SC NOSIG=
200903041100 METAR MROC 041100Z 10015KT CAVOK 18/14 A3003 RMK TRACE SC VEL MX VIENTO 22KTS NOSIG=
200903041200 METAR MROC 041200Z 10016KT 9999 FEW040 BKN250 18/14 A3005 RMK VEL MAX VIENTO 21KTS RN DIST NE OVR RDGS NOSIG=
200903041300 METAR MROC 041300Z 10014G24KT 9999 FEW030 BKN250 19/14 A3006 RMK DZ DST N/N E=
200903041400 METAR MROC 041400Z 09014KT 9999 FEW030 BKN250 21/15 A3006 RMK DZ DST N/NE VEL MAX  VIENTO 21KTS NOSIG=
200903041500 METAR MROC 041500Z 09014G24KT 9999 FEW030 BKN250 23/15 A3007 RMK DZ DST N/N E NOSIG=
200903041600 METAR MROC 041600Z 10018KT 9999 FEW030 BKN250 23/15 A3006 RMK DZ DST N/NE VEL  MAX VIENTO 18KTS NOSIG=
200903041700 METAR MROC 041700Z 10018KT 9999 FEW030 BKN250 25/15 A3004 RMK DZ DST N/NE VEL MAX  VIENTO 25KTS NOSIG=
200903041800 METAR MROC 041800Z 09017KT 9999 FEW035 BKN250 26/15 A3003 RMK DZ DST N/NE VEL MAX VIENTO 24KTS NOSIG=
200903041900 METAR MROC 041900Z 09015KT 9999 FEW035 BKN250 26/15 A3001 RMK DZ DST N VEL  MAX  VIENTO 21KTS NOSIG=
200903042000 METAR MROC 042000Z 09015KT 9999 FEW030 BKN250 26/15 A2999 RMK DZ DST N/NE VEL MAX  23KTS NOSIG=
200903042100 METAR MROC 042100Z 11014KT 9999 FEW030 BKN250 25/14 A2997 RMK DZ DST N NE VEL MAX VTO 20KT NOSIG=
200903042200 METAR MROC 042200Z 10012KT 9999 SCT030 BKN250 24/15 A2997 RMK PCPN DST NNE NOSIG=
200903042300 METAR MROC 042300Z 11014KT 9999 SCT030 BKN250 22/15 A2999 RMK PCPN DST N NE NOSIG=
200903050000 METAR MROC 050000Z 10012KT 9999 FEW035 BKN250 21/15 A2999 RMK VEL MAX VTO 17KT NOSIG=
200903050100 METAR MROC 050100Z 11014KT 9999 FEW035 BKN250 20/15 A3002 RMK VEL MAX VTO 20KT NOSIG=
200903050200 METAR MROC 050200Z 10012G22KT 9999 FEW035 BKN250 20/15 A3003 NOSIG=
200903050300 METAR MROC 050300Z 10013KT 9999 FEW035 SCT250 20/15 A3004 NOSIG=
200903050400 METAR MROC 050400Z 10012KT 9999 FEW035 20/15 A3004 RMK VL MX VTO 21KT NOSIG=
200903050500 METAR MROC 050500Z 10011G21KT 9999 FEW030 20/15 A3005 NOSIG=
200903050600 METAR MROC 050600Z 11010KT 9999 FEW030 20/15 A3004 RMK VL MX VTO 16KT NOSIG=
200903050700 METAR MROC 050700Z 11012KT 9999 FEW030 20/14 A3002 NOSIG=
200903050800 METAR MROC 050800Z 12011KT 9999 FEW030 20/15 A2999 NOSIG=
200903050900 METAR MROC 050900Z 11010KT 9999 FEW030 20/16 A2998 NOSIG=
200903051000 METAR MROC 051000Z 10012KT 9999 FEW030 20/16 A2998 NOSIG=
200903051100 METAR MROC 051100Z 11011KT 9999 FEW030 20/15 A2998 NOSIG=
200903051200 METAR MROC 051200Z 10012KT 9999 FEW025 SCT250 21/16 A3000 RMK PCPN N NE E NOSIG=
200903051300 METAR MROC 051300Z 08014KT 9999 SCT025 SCT250 23/16 A3002 RMK PCPN DST N NE E VEL MAX VTO 19KT NOSIG=
200903051400 METAR MROC 051400Z 08017KT 9999 SCT030 24/16 A3003 RMK PCPN DST N NE E TRACE CI VEL MAX VTO 23KT NOSIG=
200903051500 METAR MROC 051500Z 08017G28KT 9999 FEW030 25/16 A3003 RMK PCPN DST NW N NE E=
200903051600 METAR MROC 051600Z 09017KT 9999 FEW030 27/16 A3003 RMK PCPN DST N NE E VEL MAX VTO 23KT NOSIG=
200903051701 METAR MROC 051701Z 08017G27KT 9999 FEW030 27/16 A3001 RMK DZ DST N NE NOSIG=
200903051800 METAR MROC 051800Z 09018KT 9999 FEW035 27/15 A2999 RMK VEL MAX VTO 25KT DZ DST N NE NOSIG=
200903051900 METAR MROC 051900Z 08021KT 9999 FEW035 27/15 A2997 RMK VEL MAX VTO 29KT DZ DST N NE NOSIG=
200903052000 METAR MROC 052000Z 08015KT 9999 FEW035 27/15 A2996 RMK VEL MAX VTO 21KT DZ DST N NE NOSIG=
200903052100 METAR MROC 052100Z 09012G22KT 9999 FEW035 27/15 A2994 NOSIG=
200903052200 METAR MROC 052200Z 09015G25KT 9999 FEW035 25/15 A2995 NOSIG=
200903052300 METAR MROC 052300Z 10011G21KT 9999 FEW035 23/16 A2997 NOSIG=
200903052330 METAR MROC 052330Z 07019KT 9999 SCT035 22/16 A2997 RMK DZ DST N VEL MAX VTO 26KT=
200903060000 METAR MROC 060000Z 09014KT 9999 FEW035 22/15 A2998 NOSIG=
200903060100 METAR MROC 060100Z 10013KT CAVOK 22/16 A3001 RMK TRACE SC VEL MAX VT0 20KTS NOSIG=
200903060200 METAR MROC 060200Z 09012KT CAVOK 21/16 A3002 RMK TRACE SC VEL MAX VTO 19KTS NOSIG=
200903060300 METAR MROC 060300Z 09013KT CAVOK 21/16 A3003 RMK TRAZAS SC VEL MAX VIENT O 20KTS NOSIG=
200903060400 METAR MROC 060400Z 09012G22KT CAVOK 22/16 A3003 RMK TRAZAS SC NOSIG=
200903060500 METAR MROC 060500Z 08013KT CAVOK 22/16 A3003 RMK TRAZAS SC VEL MAX VIENT O 19KTS NOSIG=
200903060600 METAR MROC 060600Z 09015KT CAVOK 22/16 A3002 RMK TRAZAS SC VEL MAX VIENT O 20KTS NOSIG=
200903060700 METAR MROC 060700Z 08011KT CAVOK 21/16 A2999 RMK TRAZAS SC VEL MAX VIENTO 18KTS NOSIG=
200903060800 METAR MROC 060800Z 09014KT CAVOK 21/15 A2998 RMK TRAZAS SC VEL MAX VIENT O 21KTS NOSIG=
200903060900 METAR MROC 060900Z 09012KT CAVOK 21/15 A2998 RMK TRAZAS SC VEL MAX  VIENTO 18KTS NOSIG=
200903061000 METAR MROC 061000Z 08014KT CAVOK 21/14 A2997 RMK TRAZAS SC VEL MAX VIENT O 20KTS NOSIG=
200903061100 METAR MROC 061100Z 10013KT CAVOK 21/15 A2999 RMK TRAZAS SC VEL MAX VIENT O 18KTS NOSIG=
200903061200 METAR MROC 061200Z 09015KT 9999 FEW035 BKN250 21/14 A3000 RMK VEL MAX VIENT O 22KTS NOSIG=
200903061300 METAR MROC 061300Z 09013KT CAVOK 23/14 A3002 RMK TRACE SC BKN250 VEL MAX VTO 20KT NOSIG=
200903061400 METAR MROC 061400Z 09013G23KT 9999 FEW030 BKN250 23/15 A3006 NOSIG=
200903061500 METAR MROC 061500Z 10013G23KT 9999 FEW030 25/15 A3007 NOSIG=
200903061600 METAR MROC 061600Z 08013G23KT 9999 FEW030 SCT250 26/15 A3006 NOSIG=
200903061700 METAR MROC 061700Z 07021KT 9999 FEW035 BKN250 26/15 A3004 NOSIG=
200903061800 METAR MROC 061800Z 09014G24KT 9999 FEW035 BKN250 26/15 A3003 NOSIG=
200903061900 METAR MROC 061900Z 07020KT 9999 FEW035 SCT250 27/14 A2999 RMK VEL MAX VIENTO 25 KTS NOSIG=
200903062000 METAR MROC 062000Z 09018G28KT 9999 FEW035 SCT250 27/16 A2997 NOSIG=
200903062100 METAR MROC 062100Z 07016G26KT 9999 FEW035 SCT250 26/14 A2996 RMK RN=
200903062200 METAR MROC 062200Z 07019KT 9999 FEW030 25/14 A2995 RMK TRACE CI DZ NE DIST VEL MAX VIENTO 26KTS NOSIG=
200903062300 METAR MROC 062300Z 09016G27KT 9999 FEW030 25/13 A2996 RMK DZ NE DIST TRACE CI NOSIG=
200903062358 METAR MROC 070000Z 09013KT 9999 FEW030 22/14 A2996 RMK DZ DIST NE NOSIG=
200903070000 METAR MROC 070000Z 09013KT 9999 FEW030 22/14 A2996 RMK DZ DIST NE NOSIG=
200903070100 METAR MROC 070100Z 08015KT CAVOK 22/15 A2999 RMK TRACE SC VEL MAX VTO 24KTS=
200903070200 METAR MROC 070200Z 09015KT CAVOK 22/14 A3000 RMK TRACE SC VEL MAX VTO 21KTS NOSIG=
200903070300 METAR MROC 070300Z 09015KT CAVOK 21/15 A3003 RMK TRACE SC VEL MAX VTO 22KT NOSIG=
200903070400 METAR MROC 070400Z 09013KT CAVOK 21/14 A3004 RMK TRACE SC VEL MAX VTO 22KT NOSIG=
200903070500 METAR MROC 070500Z 09014KT CAVOK 21/15 A3004 RMK TRACE SC VEL MAX VTO 21KT NOSIG=
200903070600 METAR MROC 070600Z 10013KT CAVOK 21/14 A3003 RMK TRACE SC VEL MAX VTO 19KT NOSIG=
200903070700 METAR MROC 070700Z 11014KT CAVOK 21/15 A3000 RMK TRACE SC VEL MAX VTO 22KT NOSIG=
200903070800 METAR MROC 070800Z 10014G24KT CAVOK 20/14 A2998 RMK TRACE SC=
200903070900 METAR MROC 070900Z 10012G22KT CAVOK 21/14 A2996 RMK TRACE SC=
200903071000 METAR MROC 071000Z 10015KT CAVOK 20/15 A2997 RMK TRACE SC NOSIG=
200903071100 METAR MROC 071100Z 10012KT 9999 FEW030 20/15 A2997 RMK VEL MAX VTO 17KT=
200903071200 METAR MROC 071200Z 10013KT 9999 FEW030 20/15 A3000 RMK VEL MAX VTO 20KT=
200903071300 METAR MROC 071300Z 11014KT 9999 FEW030 21/15 A3002 RMK DZ N NE VL MX VTO 20KT NOSIG=
200903071400 METAR MROC 071400Z 09013KT 9999 FEW030 23/15 A3004 RMK DZ N NE VL MX VTO 21KT NOSIG=
200903071500 METAR MROC 071500Z 10014KT 9999 FEW030 25/14 A3006 RMK DZ N NE VL MX VTO 21KT NOSIG=
200903071600 METAR MROC 071600Z 09014KT 9999 FEW030 26/15 A3007 NOSIG=
200903071700 METAR MROC 071700Z 11014KT 9999 FEW030 27/14 A3005 NOSIG=
200903071800 METAR MROC 071800Z 09014KT 9999 FEW030 28/14 A3002 NOSIG=
200903071900 METAR MROC 071900Z 08014KT 9999 FEW035 28/14 A2999 RMK VL MX VTO 20KT NOSIG=
200903072000 METAR MROC 072000Z 08015KT 9999 FEW030 28/14 A2996 NOSIG=
200903072100 METAR MROC 072100Z 09012KT 9999 FEW030 27/14 A2995 NOSIG=
200903072200 METAR MROC 072200Z 10012KT 9999 FEW030 26/15 A2995 NOSIG=
200903072300 METAR MROC 072300Z 08015KT 9999 FEW030 24/15 A2996 RMK VL MX VTO 20KT NOSIG=
200903072352 METAR MROC 080000Z 09016KT 9999 FEW030 23/15 A2996 RMK VEL MAX VIENTO 24 KTS=
200903072359 METAR MROC 080000Z 09016KT 9999 FEW030 23/15 A2996 RMK VEL MAX VIENTO 24 KTS NOSIG=
200903080000 METAR MROC 080000Z 09016KT 9999 FEW030 23/15 A2996 RMK VEL MAX VIENTO 24 KTS=
200903080100 METAR MROC 080100Z 09015KT 9999 FEW030 22/15 A2998 RMK VEL MAX VIENTO 21 KTS NOSIG=
200903080200 METAR MROC 080200Z 09014G24KT 9999 FEW030 21/15 A3000 NOSIG=
200903080300 METAR MROC 080300Z 08013KT CAVOK 21/15 A3002 RMK TRACE SC VEL MAX  VTO 20KT NOSIG=
200903080400 METAR MROC 080400Z 090014G24KT CAVOK 21/15 A3002 RMK TRACE SCT NOSIG=
200903080500 METAR MROC 080500Z 09013KT CAVOK 21/16 A3001 RMK TRACE SC VEL MAX  VTO 18KT NOSIG=
200903080600 METAR MROC 080600Z 09011G22KT 9999 FEW035 22/15 A3001 NOSIG=
200903080700 METAR MROC 080700Z 10012G22KT 9999 FEW035 21/16 A2996 NOSIG=
200903080800 METAR MROC 080800Z 10012G22KT 9999 FEW035 21/16 A2993=
200903080900 METAR MROC 080900Z 11011G22KT 9999 FEW035 21/16 A2991=
200903081000 METAR MROC 081000Z 10013KT 9999 FEW035 21/16 A2991 RMK VEL MAX VTO 20KT=
200903081100 METAR MROC 081100Z 10014KT CAVOK 21/16 A2994 RMK TRACE SC VEL MAX VTO 20KT=
200903081200 METAR MROC 081200Z 11014KT 9999 FEW030 21/16 A2996 RMK VEL MAX VTO 20KT DZ DST NE E=
200903081300 METAR MROC 081300Z 11014KT 9999 FEW025 22/16 A2999 RMK PCPN N NE VL MX VTO 20KT NOSIG=
200903081400 METAR MROC 081400Z 10013KT 9999 FEW025 24/15 A3000 RMK VL MX VTO 21KT NOSIG=
200903081500 METAR MROC 081500Z 11016KT 9999 FEW025 25/16 A3002 RMK PCPN N NE VL MX VTO 21KT NOSIG=
200903081600 METAR MROC 081600Z 09014KT 9999 SCT025 27/16 A3003 RMK PCPN N NE VL MX VTO 20KT NOSIG=
200903081700 METAR MROC 081700Z 09014KT 9999 SCT025 27/16 A3000 RMK PCPN N NE VL MX VTO 21KT NOSIG=
200903081800 METAR MROC 081800Z 09017KT 9999 SCT025 28/15 A2999 RMK PCPN N NE VL MX VTO 24KT NOSIG=
200903081900 METAR MROC 081900Z 08013KT 9999 SCT030 28/15 A2997 RMK DZ DST N/NE VEL MAX  VIENTO 20KTS NOSIG=
200903082000 METAR MROC 082000Z 10013KT 9999 SCT030 SCT250 27/15 A2995 RMK DZ DST N/NE VEL MAX VIENTO 18KTS NOSIG=
200903082100 METAR MROC 082100Z 10013KT 9999 SCT035 SCT120 26/16 A2993 RMK DZ DST N/NE VL  MAX  VTO  22KT NOSIG=
200903082200 METAR MROC 082200Z 10013KT 9999 SCT040 26/16 A2993 RMK FEW110 DZ DST N/NE VL MX VTO  18KT NOSIG=
200903082300 METAR MROC 082300Z 10011KT 9999 SCT040 SCT110 24/16 A2994 RMK DZ DST N/NE VL  MX VTO 18KT NOSIG=
200903090000 METAR MROC 090000Z 10013KT 9999 FEW035 22/16 A2995 RMK FEW110 DZ DST N/NE VL MX VTO 22KT NOSIG=
200903090100 METAR MROC 090100Z 11013KT 9999 SCT035 22/16 A2996 RMK FEW110 DZ DST N/NE VL MX VTO  20KTS NOSIG=
200903090200 METAR MROC 090200Z 10013KT 9999 SCT035 21/16 A2999 RMK FEW110 DZ DST N/NE VL MX VTO  19KT NOSIG=
200903090300 METAR MROC 090300Z 11015KT 9999 FEW030 SCT110 21/16 A3000 RMK VEL MAX VTO 23KTS NOSIG=
200903090400 METAR MROC 090400Z 11013G23KT CAVOK 20/15 A3002 RMK TRACE SC AC NOSIG=
200903090500 METAR MROC 090500Z 10013KT CAVOK 20/15 A3001 RMK TRACE SC FEW100 VEL MAX VTO 19KTS NOSIG=
200903090600 METAR MROC 090600Z 10013KT CAVOK 20/15 A3000 RMK TRACE SC AC VEL MAX VTO 20KTS NOSIG=
200903090700 METAR MROC 090700Z 11012KT CAVOK 20/15 A2999 RMK TRACE SC VEL MAX VIENTO 18KTS NOSIG=
200903090800 METAR MROC 090800Z 10011KT CAVOK 20/14 A2996 RMK TRACE SC VEL MAX VIENTO 19KTS=
200903090900 METAR MROC 090900Z 10013KT CAVOK 20/15 A2995 RMK TRACE SC VEL MAX VIENTO 18KTS NOSIG=
200903091000 METAR MROC 091000Z 10012KT CAVOK 20/15 A2995 RMK TRACE SC SCT120 VEL MAX VTO 19KTS NOSIG=
200903091100 METAR MROC 091100Z 11012KT CAVOK 20/15 A2996 RMK TRACE SC CI VEL MAX VIENTO 19KTS NOSIG=
200903091200 METAR MROC 091200Z 11014KT 9999 FEW035 21/16 A2997 RMK TRACE CI DZ NE VEL MAX VTO 21KTS NOSIG=
200903091300 METAR MROC 091300Z 11013KT 9999 FEW035 21/16 A3000 RMK DZ DST N/NE VL MX VTO  20KT NOSIG=
200903091400 METAR MROC 091400Z 11015KT 9999 FEW035 23/16 A3002 RMK DZ DST N/NE VL MX VTO 20KT NOSIG=
200903091500 METAR MROC 091500Z 11014KT 9999 FEW035 25/16 A3003 RMK DZ DST N/NE VL MX VTO 23KT NOSIG=
200903091600 METAR MROC NIL=
200903091700 METAR MROC 091700Z 10015KT 9999 FEW040 27/16 A3002 RMK DZ DST N/NE VL MX VTO  21KT NOSIG=
200903091800 METAR MROC 091800Z 11014KT 9999 SCT040 28/16 A2999 RMK DZ DST N/NE TCU DST S VL MX VTO 20KT NOSIG=
200903091900 METAR MROC 091900Z 12015KT 9999 SCT040 28/16 A2997 RMK DZ DST N/NE CB DST S VL MX VTO  24KT NOSIG=
200903092000 METAR MROC 092000Z 11013KT 9999 SCT035 28/16 A2995 RMK TCU DST N/S VL MX VTO  20KT NOSIG=
200903092100 METAR MROC 092100Z 11016KT 9999 SCT035 26/15 A2994 RMK VEL MAX VTO 23KT LGT HZ ARND NOSIG=
200903092200 METAR MROC 092200Z 11013KT 9999 FEW030 SCT050 25/16 A2995 RMK VEL MAX VTO 19KT NOSIG=
200903092300 METAR MROC 092300Z 11012G22KT 9999 FEW030 SCT060 24/16 A2996 NOSIG=
200903100000 METAR MROC 100000Z 11009KT 9999 FEW035 SCT060 22/16 A2999 RMK VEL MAX VTO 14KT=
200903100100 METAR MROC 100100Z 11011KT 9999 FEW035 21/16 A3001 RMK TRACE AC VEL MAX VTO 17KT NOSIG=
200903100200 METAR MROC 100200Z 10010KT 9999 FEW035 21/16 A3002 RMK VEL MAX VTO 15KT NOSIG=
200903100300 METAR MROC 100300Z 11012KT 9999 FEW035 21/16 A3002 RMK VEL/MAX/VIENTO 17KTS NOSIG=
200903100400 METAR MROC 100400Z 09011KT 9999 FEW035 20/16 A3003 RMK VL MX VTO 17KT NOSIG=
200903100500 METAR MROC 100500Z 11012KT 9999 FEW035 20/15 A3002 RMK VL MX VTO 21KT NOSIG=
200903100600 METAR MROC 100600Z 11014KT 9999 FEW035 20/15 A3000 RMK VL MX VTO 21KT NOSIG=
200903100700 METAR MROC 100700Z 11015KT 9999 FEW035 20/15 A2997 RMK VL MX VTO21KT NOSIG=
200903100800 METAR MROC 100800Z 11015KT 9999 FEW035 19/15 A2995 NOSIG=
200903100900 METAR MROC 100900Z 10015G25KT 9999 FEW035 19/15 A2994 NOSIG=
200903101000 METAR MROC 101000Z 10014KT 9999 FEW035 19/14 A2995 NOSIG=
200903101100 METAR MROC 101100Z 08013KT 9999 FEW035 20/14 A2996 NOSIG=
200903101200 METAR MROC 101200Z 08013KT 9999 FEW030 20/15 A2997 RMK VL MX VTO 21KT NOSIG=
200903101300 METAR MROC 101300Z 09014KT 9999 FEW030 21/14 A2999 RMK VEL MAX VTO 21KT DZ DST NE NOSIG=
200903101400 METAR MROC 101400Z 10015KT 9999 FEW030 22/14 A3000 RMK DZ DST NE VEL MAX VTO 21KT NOSIG=
200903101500 METAR MROC 101500Z 08017G27KT 9999 FEW030 24/14 A3001 RMK DZ DST NE NOSIG=
200903101600 METAR MROC 101600Z 08017G27KT 9999 FEW030 24/14 A3002 RMK DZ DST NE NOSIG=
200903101700 METAR MROC 101700Z 09015KT 9999 FEW030 25/15 A2999 RMK VEL MAX VTO 22KT NOSIG=
200903101800 METAR MROC 101800Z 08016KT 9999 FEW030 26/14 A2998 RMK DZ DST NE VEL MAX VTO 21KT NOSIG=
200903101900 METAR MROC 101900Z 08015KT 9999 FEW030 28/13 A2995 RMK DZ DST NE VEL MAX VTO 21KT=
200903102000 METAR MROC 102000Z 10013KT 9999 FEW030 28/14 A2993 RMK VEL MAX VTO 20KT DZ DST NE NOSIG=
200903102100 METAR MROC 102100Z 11014KT 9999 FEW030 26/15 A2992 RMK VEL  MAX  VTO 20KT NOSIG=
200903102200 METAR MROC 102200Z 10015KT 9999 FEW030 24/14 A2993 NOSIG=
200903102300 METAR MROC 102300Z 10014KT 9999 FEW030 23/14 A2994 NOSIG=
200903102330 METAR MROC 102330Z 09015G25KT 9999 SCT020 20/14 A2994 RMK RN DST NE=
200903110000 METAR MROC 110000Z 12013KT 9999 FEW030 20/14 A2996 NOSIG=
200903110100 METAR MROC 110100Z 11012KT 9999 FEW035 20/14 A2998 RMK VEL/MAX/VIENTO 18KTS NOSIG=
200903110200 METAR MROC 110200Z 10010KT 9999 FEW035 20/14 A3000 RMK VEL/MAX/VIENTO 18KTS NOSIG=
200903110300 METAR MROC 110300Z 10011KT 9999 FEW035 20/13 A3001 RMK VL MX VTO 17KT NOSIG=
200903110400 METAR MROC 110400Z 10013KT CAVOK 19/13 A3002 RMK TRAZAS SC VL MX VTO  20KT NOSIG=
200903110500 METAR MROC 110500Z 11013KT CAVOK 19/12 A3001 RMK TRAZAS SC VL MX VT  22KT NOSIG=
200903110600 METAR MROC 110600Z 10014KT CAVOK 19/12 A2998 RMK TRAZAS SC VL MX VTO 23KT NOSIG=
200903110700 METAR MROC 110700Z 11015KT CAVOK 19/12 A2996 RMK TRAZAS SC VL MX VTO  21KT NOSIG=
200903110800 METAR MROC 110800Z 11011KT CAVOK 19/13 A2996 RMK TRAZAS SC VL MX VTO  20KT=
200903110900 METAR MROC 110900Z 11012KT CAVOK 18/13 A2996 RMK TRAZAS SC VL MX VTO  18KT=
200903111000 METAR MROC 111000Z 11012KT CAVOK 18/13 A2996 RMK TRAZAS SC VL MX VTO  19KT=
200903111100 METAR MROC 111100Z 10012KT CAVOK 18/13 A2997 RMK TRAZAS SC VL MX VTO  19KT=
200903111200 METAR MROC 111200Z 12013KT CAVOK 18/12 A2998 RMK TRAZAS SC VL MX VTO  20KT=
200903111300 METAR MROC 111300Z 11013KT CAVOK 20/11 A3001 RMK TRACE SC VEL MAX VTO 20KT NOSIG=
200903111400 METAR MROC 111400Z 11012G22KT CAVOK 23/10 A3002 NOSIG=
200903111500 METAR MROC 111500Z 10011G22KT CAVOK 25/11 A3002 NOSIG=
200903111600 METAR MROC 111600Z 11012G22KT CAVOK 27/12 A3001 NOSIG=
200903111700 METAR MROC 111700Z 11011KT CAVOK 28/12 A3000 RMK TRACE SC VEL  MAX  VTO 18KT NOSIG=
200903111800 METAR MROC 111800Z 09014KT CAVOK 28/13 A2998 NOSIG=
200903111900 METAR MROC 111900Z 09014KT CAVOK 28/14 A2996 RMK TRACE SC VEL MAX VIENTO 19 KTS NOSIG=
200903112000 METAR MROC 112000Z 09015KT 9999 FEW030 28/15 A2993 NOSIG=
200903112100 METAR MROC 112100Z 10012KT 9999 SCT030 28/15 A2992 NOSIG=
200903112200 METAR MROC 112200Z 10013KT 9999 SCT030 26/15 A2992 RMK FEW090 VEL MAX VIENTO 19KTS NOSIG=
200903112300 METAR MROC 112300Z 10012KT 9999 FEW030 SCT080 22/14 A2994 RMK VEL MAX VIENTO 17KTS NOSIG=
200903112354 METAR MROC 120000Z 11012KT 9999 FEW040 20/14 A2996 RMK TRACE AC VEL MAX VIENTO 19KTS NOSIG=
200903120000 METAR MROC 120000Z 11012KT 9999 FEW040 20/14 A2996 RMK TRACE AC VEL MAX VIENTO 19KTS NOSIG=
200903120100 METAR MROC 120100Z 11012KT CAVOK 20/15 A2998 RMK TRACE SC AC VEL MAX VTO 18KTS=
200903120200 METAR MROC 120200Z 11013KT CAVOK 20/14 A3001 RMK TRACE SC AC NOSIG=
200903120300 METAR MROC 120300Z 10013KT CAVOK 19/13 A3003 RMK TRACE SC VEL MAX VTO 19KT NOSIG=
200903120400 METAR MROC 120400Z 11011KT CAVOK 19/13 A3003 RMK TRACE SC VEL MAX VTO 18KT NOSIG=
200903120500 METAR MROC 120500Z 11011KT CAVOK 19/13 A3003 RMK TRACE SC VEL MAX VTO 17KT NOSIG=
200903120600 METAR MROC 120600Z 11011KT CAVOK 19/13 A3001 RMK TRACE SC VEL MAX VTO 17KT NOSIG=
200903120700 METAR MROC 120700Z 11014KT CAVOK 19/13 A2999 RMK TRACE SC VEL MAX VTO 20KT NOSIG=
200903120800 METAR MROC 120800Z 10010KT CAVOK 18/13 A2997 RMK TRACE SC VEL MAX VTO 16KT=
200903120900 METAR MROC 120900Z 10011KT CAVOK 19/12 A2998 RMK TRACE SC VEL MAX VTO 17KT=
200903121000 METAR MROC 121000Z 10013KT CAVOK 19/13 A2999 RMK TRACE SC VEL MAX VTO 19KT=
200903121100 METAR MROC 121100Z 10010KT CAVOK 18/12 A3001 RMK TRACE SC VEL MAX VTO 19KT=
200903121200 METAR MROC 121200Z 10008KT CAVOK 18/12 A3002 RMK TRACE SC VEL MAX VTO 14KT=
200903121300 METAR MROC 121300Z 10011KT CAVOK 20/12 A3004 RMK VEL MAX VIENTO 16KTS TRACE SCT NOSIG=
200903121400 METAR MROC 121400Z 11013KT CAVOK 22/12 A3005 RMK VEL MAX VIENTO 17KTS TRACE SC NOSIG=
200903121500 METAR MROC 121500Z 11012KT CAVOK 25/11 A3004 RMK TRACE SCT VEL MAX VIENTO 18KTS NOSIG=
200903121600 METAR MROC 121600Z 10012KT CAVOK 26/11 A3004 RMK TRACE SC VEL MAX VIENTO 19KTS NOSIG=
200903121700 METAR MROC 121700Z 10011KT CAVOK 27/13 A3003 RMK VEL MAX VIENTO 16KTS TRACE SC NOSIG=
200903121800 METAR MROC 121800Z COR 10012KT 9999 FEW040 28/13 A3001 RMK VEL MAX VIENTO 20KTS NOSIG=
200903121900 METAR MROC 121900Z 10011KT 9999 FEW040 28/13 A2998 RMK VEL MAX VIENTO 18KTS NOSIG=
200903122000 METAR MROC 122000Z 09014KT 9999 FEW040 28/14 A2995 NOSIG=
200903122100 METAR MROC 122100Z 10013KT 9999 SCT035 26/14 A2994 RMK VL MX VTO 21KT NOSIG=
200903122200 METAR MROC 122200Z 10013KT 9999 SCT030 25/13 A2994 NOSIG=
200903122300 METAR MROC 122300Z 10013KT 9999 SCT030 22/13 A2995 RMK VL MX VTO 18KT NOSIG=
200903130000 METAR MROC 130000Z 10013KT 9999 SCT030 21/14 A2998 RMK VL MX VTO 18KT NOSIG=
200903130100 METAR MROC 130100Z 10011KT CAVOK 20/13 A3001 RMK TRACE SC VEL MAX VTO 16KTS NOSIG=
200903130200 METAR MROC 130200Z 11010KT CAVOK 20/13 A3005 RMK TRACE SC NOSIG=
200903130300 METAR MROC 130300Z 10015KT CAVOK 20/13 A3006 RMK TRACE SC NOSIG=
200903130400 METAR MROC 130400Z 10014KT CAVOK 20/13 A3006 RMK TRACE SC NOSIG=
200903130500 METAR MROC 130500Z 11015KT CAVOK 19/12 A3005 RMK TRACE SC NOSIG=
200903130600 METAR MROC 130600Z 10015KT CAVOK 19/12 A3003 RMK TRACE SC NOSIG=
200903130700 METAR MROC 130700Z 10014KT CAVOK 19/12 A3001 RMK TRACE SC NOSIG=
200903130800 METAR MROC 130800Z 12013KT CAVOK 18/12 A2999 RMK TRACE SC=
200903130900 METAR MROC 130900Z 10011KT CAVOK 18/12 A2999 RMK TRACE SC=
200903131000 METAR MROC 131000Z 10012KT CAVOK 18/12 A2999 RMK TRACE SC=
200903131100 METAR MROC 131100Z 12010KT CAVOK 18/12 A3000 RMK TRACE SC=
200903131200 METAR MROC 131200Z 11012KT CAVOK 18/12 A3001 RMK TRACE CU=
200903131300 METAR MROC 131300Z 11010KT CAVOK 21/13 A3003 RMK TRACE SCT NOSIG=
200903131400 METAR MROC 131400Z 11011KT CAVOK 23/13 A3004 RMK TRACE SC VEL MAX VIENTO 17KTS NOSIG=
200903131500 METAR MROC 131500Z 10012KT CAVOK 24/12 A3005 RMK TRACE CU VEL MAX VIENTO 20KTS NOSIG=
200903131600 METAR MROC 131600Z 10013KT CAVOK 26/13 A3006 RMK VEL MAX 19KTS TRACE CU NOSIG=
200903131700 METAR MROC 131700Z 10011KT 9999 FEW040 27/13 A3004 RMK VEL MAX 19KTS HZ LGT W NOSIG=
200903131800 METAR MROC 131800Z 12011KT 9999 FEW040 29/12 A3001 RMK HZ LGT W VEL MAX 18KTS NOSIG=
200903131900 METAR MROC 131900Z 09010KT 9999 FEW040 29/12 A2998 RMK CB DIST SW VEL MAX 15KTS NOSIG=
200903132000 METAR MROC 132000Z 11010KT 9999 FEW035TCU SCT250 29/13 A2996 RMK VEL MAX VIENTO 14KTS CD DIST S NOSIG=
200903132100 METAR MROC 132100Z 11010KT 9999 SCT035 28/14 A2994 RMK FEW250 TCU DST S VL MX VTO 16KT NOSIG=
200903132200 METAR MROC 132200Z 10010KT 9999 SCT035 27/14 A2994 RMK TCU/CB DST S VL MX VTO  15KT NOSIG=
200903132300 METAR MROC 132300Z 10009KT 9999 SCT035 27/14 A2994 NOSIG=
200903140000 METAR MROC 140000Z 11010KT 9999 FEW035 22/15 A2997 RMK VL MX VTO 15KT NOSIG=
200903140100 METAR MROC 140100Z 10009KT 9999 FEW035 21/15 A3000 NOSIG=
200903140200 METAR MROC 140200Z 10011KT 9999 FEW030 21/15 A3002 RMK VL MX VTO 18KT NOSIG=
200903140300 METAR MROC 140300Z 09011KT 9999 FEW030 21/16 A3004 NOSIG=
200903140400 METAR MROC 140400Z 12008KT CAVOK 21/15 A3004 RMK TRACE SC VEL AMX VTO 12KTS NOSIG=
200903140500 METAR MROC 140500Z 10012KT CAVOK 20/15 A3004 RMK TRACE SC NOSIG=
200903140600 METAR MROC 140600Z 09007KT CAVOK 20/15 A3002 RMK TRACE SC NOSIG=
200903140700 METAR MROC 140700Z 07006KT 9999 FEW040 20/15 A3001 NOSIG=
200903140800 METAR MROC NIL=
200903140900 METAR MROC 140900Z 06004KT CAVOK 18/14 A2999 RMK TRACE SC NOSIG=
200903141000 METAR MROC 141000Z 07005KT CAVOK 19/15 A2998 RMK TRACE SC NOSIG=
200903141100 METAR MROC 141100Z 09010KT CAVOK 18/15 A2999 RMK TRACE SC NOSIG=
200903141200 METAR MROC 141200Z 08009KT CAVOK 19/14 A3001 RMK TRACE SC VEL MAX VIENTO 13KTS NOSIG=
200903141300 METAR MROC 141300Z 10009KT CAVOK 21/14 A3003 RMK TRAZAS SC NOSIG=
200903141400 METAR MROC 141400Z 11011KT 9999 FEW030 23/13 A3006 RMK VL MX VT  17KT NOSIG=
200903141500 METAR MROC 141500Z 10010KT 9999 FEW035 25/14 A3007 RMK VL MX VTO 16KT NOSIG=
200903141600 METAR MROC 141600Z 11012KT 9999 FEW040 26/14 A3008 RMK VL MX VTO  17KT NOSIG=
200903141700 METAR MROC 141700Z 10011KT 9999 FEW045 26/14 A3005 RMK VL MX VTO  16KT NOSIG=
200903141800 METAR MROC 141800Z 11010KT 9999 FEW045 28/15 A3003 RMK TCU DST NE/E/S VL MX VTO  16KT NOSIG=
200903141900 METAR MROC 141900Z 09010KT 9999 FEW045 28/14 A3000 RMK FEW140 VL MX VTO 17KT NOSIG=
200903142000 METAR MROC 142000Z 10010KT 9999 FEW035TCU 26/14 A2998 BECMG 18008KT 8000 -DZRA=
200903142100 METAR MROC 142100Z 09011KT 9999 FEW030TCU SCT045 26/15 A2997 NOSIG=
200903142200 METAR MROC 142200Z 11012KT 9999 FEW030TCU SCT060 26/15 A2997 RMK VEL MAX VTO 17KT LGT HZ ARND NOSIG=
200903142300 METAR MROC 142300Z 11010KT 9999 FEW030 24/16 A2997 RMK FEW070 VEL MAX VTO 16KT NOSIG=
200903150000 METAR MROC 150000Z 09010KT 9999 FEW035 22/16 A2999 RMK TRACE AC VEL MAX VTO 16KT NOSIG=
200903150100 METAR MROC 150100Z 10009KT 9999 FEW040 21/16 A3001 RMK TRACE AC VEL MAX VTO 14KT NOSIG=
200903150200 METAR MROC 150200Z 09009KT 9999 FEW040 21/15 A3004 RMK VEL MAX VTO 15KT NOSIG=
200903150300 METAR MROC 150300Z 06008KT CAVOK 21/15 A3005 RMK TRACE SC NOSIG=
200903150400 METAR MROC 150400Z 09008KT CAVOK 20/15 A3006 RMK TRACE SC NOSIG=
200903150500 METAR MROC 150500Z 08010KT CAVOK 20/14 A3006 RMK TRACE SC NOSIG=
200903150600 METAR MROC 150600Z 09010KT CAVOK 20/14 A3005 RMK TRACE SC NOSIG=
200903150700 METAR MROC 150700Z 09012KT CAVOK 20/14 A3003 RMK TRACE SC NOSIG=
200903150800 METAR MROC 150800Z 07007KT CAVOK 19/13 A3002 RMK TRACE SC NOSIG=
200903150900 METAR MROC 150900Z 06007KT CAVOK 18/13 A3003 RMK TRACE SC NOSIG=
200903151000 METAR MROC 151000Z 10008KT CAVOK 19/14 A3003 RMK TRACE SC NOSIG=
200903151100 METAR MROC 151100Z 08006KT CAVOK 19/14 A3004 RMK TRACE SC NOSIG=
200903151200 METAR MROC 151200Z 08008KT CAVOK 19/14 A3005 RMK TRACE SC NOSIG=
200903151300 METAR MROC 151300Z 09012KT CAVOK 21/13 A3007 RMK TRACE SC NOSIG=
200903151400 METAR MROC 151400Z 10011KT CAVOK 24/13 A3007 RMK TRACE SC VEL MAX VTO 16KT NOSIG=
200903151500 METAR MROC 151500Z 10012KT CAVOK 26/13 A3007 RMK TRACE SC NOSIG=
200903151600 METAR MROC 151600Z 11013KT CAVOK 28/13 A3006 RMK TRACE SC NOSIG=
200903151700 METAR MROC 151700Z 09012KT CAVOK 29/14 A3004 RMK TRACE SC NOSIG=
200903151800 METAR MROC 151800Z 08010KT 9999 FEW035 29/13 A3002 NOSIG=
200903151900 METAR MROC 151900Z 12009KT 9999 FEW035 29/13 A3000 RMK BECMG 24006KT NOSIG=
200903152000 METAR MROC 152000Z 10009KT 9999 FEW035 28/13 A2997 RMK TCU DST S NOSIG=
200903152100 METAR MROC 152100Z 11009KT 9999 SCT035 29/14 A2995 RMK VEL MAX VTO 14KT RASH DST SSE NOSIG=
200903152101 METAR MROC 152101Z COR 11009KT 9999 SCT035 29/14 A2995 RMK VEL MAX VTO 14KT CB RASH DST SSE NOSIG=
200903152200 METAR MROC 152200Z 12006KT 9999 FEW035 SCT100 26/15 A2997 NOSIG=
200903152300 METAR MROC 152300Z 11008KT 9999 FEW035 BKN100 25/15 A2998 NOSIG=
200903160000 METAR MROC 160000Z 12011KT 9999 FEW035 SCT100 23/16 A3001 RMK VEL MAX VTO 16KT NOSIG=
200903160100 METAR MROC 160100Z 10009KT 9999 FEW035 22/16 A3003 RMK FEW100 VEL MAX VTO 14KT NOSIG=
200903160200 METAR MROC 160200Z 10007KT 9999 FEW035 21/16 A3006 RMK FEW100 NOSIG=
200903160300 METAR MROC 160300Z 09008KT 9999 FEW035 21/15 A3008 NOSIG=
200903160400 METAR MROC 160400Z 12007KT 9999 FEW035 20/15 A3008 NOSIG=
200903160500 METAR MROC 160500Z 11008KT 9999 FEW035 20/15 A3008 RMK FEW120 NOSIG=
200903160600 METAR MROC 160600Z 10007KT CAVOK 20/15 A3007 RMK FEW120 NOSIG=
200903160700 METAR MROC 160700Z 10008KT CAVOK 20/14 A3004 RMK TRAZAS SC NOSIG=
200903160800 METAR MROC 160800Z 10007KT CAVOK 19/14 A3003 RMK TRAZAS SC=
200903160900 METAR MROC 160900Z 06007KT CAVOK 17/13 A3004 RMK TRAZAS SC=
200903161000 METAR MROC 161000Z 06006KT CAVOK 18/13 A3004 RMK TRAZAS SC=
200903161100 METAR MROC 161100Z 08006KT CAVOK 18/12 A3004 RMK TRAZAS SC=
200903161200 METAR MROC 161200Z 08006KT CAVOK 19/13 A3006 RMK TRAZAS SC=
200903161300 METAR MROC 161300Z 12010KT CAVOK 21/13 A3008 RMK TRACE SC VEL MAX VTO 18KT NOSIG=
200903161400 METAR MROC 161400Z 11011KT CAVOK 23/14 A3010 RMK TRACE SC VEL  MAX  VTO 18 KT NOSIG=
200903161500 METAR MROC 161500Z 11014KT CAVOK 25/14 A3011 RMK TRACE SC VEL MAX VTO 20KT NOSIG=
200903161600 METAR MROC 161600Z 11012G22KT CAVOK 27/13 A3010 RMK TRACE SC NOSIG=
200903161700 METAR MROC 161700Z 08010G20KT 9999 FEW035 27/13 A3009 NOSIG=
200903161800 METAR MROC 161800Z 10010KT 9999 FEW035 29/13 A3007 RMK VEL MAX VTO 17KT NOSIG=
200903161900 METAR MROC 161900Z 11009KT 9999 SCT030 28/14 A3004 RMK VEL MAX VTO 16KT NOSIG=
200903162000 METAR MROC 162000Z 09010KT 9999 FEW020TCU SCT030 27/14 A3002 BECMG 24006KT=
200903162100 METAR MROC 162100Z 07011KT 9999 FEW025TCU SCT030 27/13 A3000 RMK VEL MAX VIENTO 17KTS NOSIG=
200903162200 METAR MROC 162200Z 07013KT 9999 SCT030 26/14 A2999 RMK VEL MAX VIENTO 19KTS NOSIG=
200903162300 METAR MROC 162300Z 08010KT 9999 FEW030 SCT090 25/13 A3001 NOSIG=
200903170000 METAR MROC 170000Z 08011KT 9999 FEW030 23/13 A3001 RMK FEW090 VEL MAX VIENT 0 18KTS NOSIG=
200903170100 METAR MROC 170100Z 08010KT 9999 FEW030 22/12 A3003 RMK VEL MAX VIENTO 15KTS NOSIG=
200903170200 METAR MROC 170200Z 08009KT 9999 FEW030 21/14 A3005 RMK VEL/MAX/VIENTO 15KTS NOSIG=
200903170300 METAR MROC 170300Z 09009KT 9999 FEW035 21/13 A3006 RMK VEL MAX VTO 16KT NOSIG=
200903170400 METAR MROC 170400Z 10012KT CAVOK 21/14 A3006 RMK TRACE SC VEL MAX VTO 19KT NOSIG=
200903170500 METAR MROC 170500Z 09012KT CAVOK 21/12 A3005 RMK TRACE SC VEL MAX VTO 18KT NOSIG=
200903170600 METAR MROC 170600Z 10012KT CAVOK 20/12 A3005 RMK TRACE SC VEL MAX VTO 16KT NOSIG=
200903170700 METAR MROC 170700Z 11014KT CAVOK 20/14 A3002 RMK TRACE SC VEL MAX VTO 21KT NOSIG=
200903170800 METAR MROC 170800Z 11011KT CAVOK 19/14 A3001 RMK TRACE SC VEL MAX VTO 18KT=
200903170900 METAR MROC 170900Z 11012KT CAVOK 19/14 A3001 RMK TRACE SC VEL MAX VTO 17KT=
200903171000 METAR MROC 171000Z 11010KT CAVOK 19/14 A3002 RMK TRACE SC=
200903171100 METAR MROC 171100Z 10010KT CAVOK 19/13 A3002 RMK TRACE SC=
200903171200 METAR MROC 171200Z 11012KT CAVOK 19/13 A3004 RMK TRACE SC VEL MAX VTO 19KT=
200903171300 METAR MROC 171300Z 11013KT CAVOK 21/14 A3005 RMK V MAX VT 21KTS TRACE SC NOSIG=
200903171400 METAR MROC 171400Z 10013KT CAVOK 23/13 A3007 RMK TRACE SC V MAX VT 19KTS NOSIG=
200903171500 METAR MROC 171500Z 10014KT CAVOK 24/14 A3008 RMK TRACE SC VL MX VT 22KTS NOSIG=
200903171600 METAR MROC 171600Z 08014KT CAVOK 26/12 A3007 RMK TRACE SCT VL MX VT 22KTS NOSIG=
200903171700 METAR MROC 171700Z 09014KT 9999 FEW045 27/12 A3005 RMK VL MX VT 21KTS NOSIG=
200903171730 METAR MROC 171730Z 09019KT 8888 SCT030 21/14 A2998 RMK VL MX VTO 26KT=
200903171800 METAR MROC 171800Z 10013KT 9999 FEW042 28/12 A3003 RMK HZ W QUAD VL MX VT 19KTS NOSIG=
200903171900 METAR MROC 171900Z 10012KT 9999 FEW040 28/12 A3000 RMK VL MX VT 19KTS HZ W QUAD NOSIG=
200903172000 METAR MROC 172000Z 08014KT 9999 FEW040 28/13 A2998 NOSIG=
200903172100 METAR MROC 172100Z 10014KT 9999 FEW030 27/15 A2996 RMK VEL MAX VTO 19KTS NOSIG=
200903172200 METAR MROC 221700Z 11014KT 9999 FEW025 29/25 A2997 NOSIG=
200903172300 METAR MROC 172300Z 10012KT 9999 FEW030 23/15 A2999 RMK DZ N NE NOSIG=
200903180000 METAR MROC 180000Z 11013KT 9999 FEW030 22/13 A3000 NOSIG=
200903180100 METAR MROC 180100Z 10012KT CAVOK 21/14 A3002 RMK TRACE SC VEL MAX VTO 21KTS NOSIG=
200903180200 METAR MROC 180200Z 11013KT CAVOK 20/14 A3003 RMK TRACE SC VEL MAX VTO 21KTS NOSIG=
200903180300 METAR MROC 180300Z 11012KT CAVOK 20/14 A3005 BECMG RMK TRACE AS VEL/MAX/VTO 18KT NOSIG=
200903180400 METAR MROC 180400Z 11010G20KT CAVOK 20/14 A3005 RMK TRACE SC NOSIG=
200903180500 METAR MROC 180500Z 11012KT CAVOK 20/14 A3004 RMK TRACE SCU NOSIG=
200903180600 METAR MROC 180600Z 11012KT CAVOK 20/12 A3002 RMK TRACE SC NOSIG=
200903180700 METAR MROC 180700Z 10010KT CAVOK 20/11 A3000 RMK TRACE SC VEL MAX VTO 18KT=
200903180800 METAR MROC 180800Z 11010KT CAVOK 19/11 A2998 RMK TRACE SC=
200903180900 METAR MROC 180900Z 11010KT CAVOK 19/10 A2998 RMK TRACE SC=
200903181000 METAR MROC 181000Z 10012G24KT CAVOK 27/10 A3002 RMK TRACE SC NOSIG=
200903181100 METAR MROC 181100Z 11009KT CAVOK 19/10 A2999 RMK TRACE SC=
200903181200 METAR MROC 181200Z 09012KT CAVOK 19/10 A3000=
200903181300 METAR MROC 181300Z 11010KT CAVOK 21/11 A3002 NOSIG=
200903181400 METAR MROC 181400Z 11012KT CAVOK 23/11 A3002 NOSIG=
200903181500 METAR MROC 181500Z 12015KT CAVOK 26/10 A3003 RMK TRACE SC NOSIG=
200903181600 METAR MROC 181600Z 10012G24KT CAVOK 27/10 A3002 RMK TRACE SC NOSIG=
200903181700 METAR MROC 181700Z 11013KT CAVOK 28/08 A3001 RMK TRACE SC NOSIG=
200903181800 METAR MROC 181800Z 10013KT CAVOK 29/19 A2998 RMK TRACE SC NOSIG=
200903181900 METAR MROC 181900Z 10011KT 9999 FEW035 29/12 A2996 NOSIG=
200903182000 METAR MROC 182000Z 07012KT 9999 FEW035 29/11 A2994 NOSIG=
200903182100 METAR MROC 182100Z 10009KT 9999 FEW040 28/12 A2992 RMK TCU DST S NOSIG=
200903182200 METAR MROC 182200Z 10009KT 9999 FEW040 27/12 A2993 RMK TCU DST S NOSIG=
200903182300 METAR MROC 182300Z 10010KT 9999 FEW040 26/14 A2992 NOSIG=
200903190000 METAR MROC 190000Z 11009KT 9999 FEW040 22/15 A2995 NOSIG=
200903190100 METAR MROC 190100Z 10007KT 9999 FEW035 21/14 A2997 NOSIG=
200903190200 METAR MROC 190200Z 11008KT 9999 FEW035 21/15 A2999 NOSIG=
200903190300 METAR MROC 190300Z 10011KT 9999 FEW035 21/14 A3000 RMK VL MAX VT 19KTS NOSIG=
200903190400 METAR MROC 190400Z 10012KT CAVOK 21/14 A3001 RMK TRACE SC NOSIG=
200903190500 METAR MROC 190500Z 11014KT CAVOK 20/13 A2999 RMK TRACE SC NOSIG=
200903190600 METAR MROC 190600Z 10010G20KT CAVOK 20/12 A2998 RMK TRACE SC NOSIG=
200903190700 METAR MROC 190700Z 10012KT CAVOK 19/12 A2997 RMK TRACE SC NOSIG=
200903190800 METAR MROC 190800Z 09010KT CAVOK 20/13 A2995 RMK TRACE SC NOSIG=
200903190900 METAR MROC 190900Z 10012KT CAVOK 19/13 A2996 RMK TRACE SC NOSIG=
200903191000 METAR MROC 191000Z 06008KT CAVOK 18/13 A2996 RMK TRACE SC NOSIG=
200903191100 METAR MROC 191100Z 08009KT CAVOK 19/13 A2997 RMK TRACE SC NOSIG=
200903191200 METAR MROC 191200Z 08008KT CAVOK 19/13 A2998 NOSIG=
200903191300 METAR MROC 191300Z 08008KT CAVOK 22/12 A2999 RMK TRAZAS SC NOSIG=
200903191400 METAR MROC 191400Z 10011KT CAVOK 24/11 A3001 RMK TRAZAS SC VL MX VTO  19KT NOSIG=
200903191500 METAR MROC 191500Z 11012KT CAVOK 26/10 A3002 RMK TRAZAS CU/SC VL MX VTO 16KT NOSIG=
200903191600 METAR MROC 191600Z 11009KT CAVOK 27/11 A3001 RMK TRAZAS CU NOSIG=
200903191700 METAR MROC 191700Z 11007KT 9999 FEW045 29/11 A2999 NOSIG=
200903191800 METAR MROC 191800Z 11008KT 9999 FEW045 29/12 A2996 NOSIG=
200903191900 METAR MROC 191900Z 12008KT 9999 FEW045 30/12 A2994 NOSIG=
200903192000 METAR MROC 192000Z 11008KT 9999 FEW045 29/13 A2991 NOSIG=
200903192100 METAR MROC 192100Z 11010KT 9999 FEW025TCU SCT045 28/14 A2989 RMK LGT HZ ARND NOSIG=
200903192200 METAR MROC 192200Z 10010KT 9999 FEW025TCU SCT045 26/15 A2990 RMK TRACE AC VEL MAX VTO 17KT NOSIG=
200903192300 METAR MROC 192300Z 10010KT 9999 FEW045 25/15 A2991 RMK TRACE AC TCU DST SSE VEL MAX VTO 16KT NOSIG=
200903200000 METAR MROC 200000Z 10012KT 9999 FEW040 22/15 A2993 NOSIG=
200903200100 METAR MROC 200100Z 10011KT 9999 FEW035 22/14 A2996 RMK VEL MAX VTO 17KT NOSIG=
200903200200 METAR MROC 200200Z 10010KT 9999 FEW035 21/15 A2997 NOSIG=
200903200300 METAR MROC 200300Z 10010KT CAVOK 21/15 A2998 RMK TRACE SCT NOSIG=
200903200400 METAR MROC 200400Z 10011KT CAVOK 21/15 A2999 RMK TRACE SC VMVT 17KTS NOSIG=
200903200500 METAR MROC 200500Z 10010KT CAVOK 20/13 A3000 RMK TRACE SC NOSIG=
200903200600 METAR MROC 200600Z 10012KT CAVOK 20/13 A2999 RMK TRACE SC NOSIG=
200903200700 METAR MROC 200700Z 11012KT CAVOK 20/13 A2997 RMK TRACE SC NOSIG=
200903200800 METAR MROC 200800Z 11012KT CAVOK 20/12 A2996 RMK TRACE SC NOSIG=
200903200900 METAR MROC 200900Z 10010KT CAVOK 19/12 A2995 RMK TRACE SC NOSIG=
200903201000 METAR MROC 201000Z 10008KT CAVOK 19/13 A2995 RMK TRACE SC V MX VT 1KTS NOSIG=
200903201100 METAR MROC 201100Z 10008KT CAVOK 19/12 A2996 RMK V MX VT 13KTS TRACE SC NOSIG=
200903201200 METAR MROC 201200Z 11010KT CAVOK 28/12 A3001 RMK TRACE SC VEL MAX VTO 17KT NOSIG=
200903201300 METAR MROC 201300Z 06006KT CAVOK 21/12 A3001 RMK TRACE SC NOSIG=
200903201400 METAR MROC 201400Z 11007KT CAVOK 24/11 A3001 RMK TRACE SC VEL MAX VTO 12KT NOSIG=
200903201500 METAR MROC 201500Z 10011KT CAVOK 25/11 A3002 RMK TRACE SC VEL MAX VTO 17KT NOSIG=
200903201600 METAR MROC 201600Z 11010KT CAVOK 28/12 A3001 RMK TRACE SC VEL MAX VTO 17KT NOSIG=
200903201700 METAR MROC 201700Z 10011KT CAVOK 28/12 A2999 RMK TRACE CU SC VEL MAX VTO 19KT NOSIG=
200903201800 METAR MROC 201800Z 10010KT 9999 FEW045 29/12 A2996 NOSIG=
200903201900 METAR MROC 201900Z 10009KT 9999 FEW045 29/13 A2994 NOSIG=
200903202000 METAR MROC 202000Z 08009KT 9999 SCT045 29/13 A2992 RMK TCU DST SE SSW VEL MAX VTO 15KT NOSIG=
200903202100 METAR MROC 202100Z 11010KT 9999 SCT035 29/14 A2990 NOSIG=
200903202200 METAR MROC 202200Z 11010KT 9999 SCT035 27/15 A2990 NOSIG=
200903202300 METAR MROC 202300Z 12009KT 9999 FEW035 25/15 A2992 NOSIG=
200903210000 METAR MROC 210000Z 09010KT 9999 FEW035 23/14 A2994 RMK VEL MAX VTO 18KT NOSIG=
200903210100 METAR MROC 210100Z 10012KT 9999 FEW035 22/15 A2996 NOSIG=
200903210200 METAR MROC 210200Z 10018KT CAVOK 22/16 A2998 RMK TRACE SC NOSIG=
200903210300 METAR MROC 210300Z 11010KT 9999 FEW035 21/15 A2999 RMK VL MX VTO 18KT NOSIG=
200903210400 METAR MROC 210400Z 10012KT 9999 FEW035 21/16 A3000 RMK VL MX VTO 20KT NOSIG=
200903210500 METAR MROC 210500Z 10013KT 9999 FEW035 21/15 A2999 RMK VL MX VTO  19KT NOSIG=
200903210600 METAR MROC 210600Z 10011KT 9999 FEW030 20/15 A2998 RMK VL MX VTO  16KT NOSIG=
200903210700 METAR MROC 210700Z 11011KT 9999 FEW030 20/15 A2996 RMK VL MX VTO  18KT NOSIG=
200903210800 METAR MROC 210800Z 10012KT 9999 FEW030 20/15 A2995 RMK VL MX VTO  16KT NOSIG=
200903210900 METAR MROC 210900Z 09008KT 9999 FEW030 20/15 A2995 RMK VL MX VTO  18KT=
200903211000 METAR MROC 211000Z 10012KT 9999 FEW030 20/15 A2995 RMK VL MX VTO  19KT=
200903211100 METAR MROC 211100Z 09010KT 9999 FEW030 20/14 A2997 RMK VL MX VTO  16KT=
200903211200 METAR MROC 211200Z 10010KT 9999 FEW030 20/15 A3000 RMK VL MX VTO  16KT RN DST NE/E=
200903211300 METAR MROC 211300Z 11011KT 9999 FEW035 21/14 A3002 RMK VEL MAX VTO 18KT NOSIG=
200903211400 METAR MROC 211400Z 11014KT 9999 FEW035 22/14 A3004 NOSIG=
200903211500 METAR MROC 211500Z 10011G21KT 9999 FEW035 25/13 A3006 NOSIG=
200903211600 METAR MROC 211600Z 11010G20KT 9999 FEW035 26/13 A3004 NOSIG=
200903211700 METAR MROC 211700Z 11012KT 9999 FEW035 26/15 A3003 RMK VEL  MAX  VTO  17KT DZ DST NE NOSIG=
200903211800 METAR MROC 211800Z 11014G24KT 9999 SCT035 26/15 A3000 RMK DZ DST NE NOSIG=
200903211900 METAR MROC 211900Z 10015KT 9999 FEW035 26/12 A2999 RMK DZ DST NE VEL MAX VTO 22KTS NOSIG=
200903212000 METAR MROC 212000Z 09014KT 9999 FEW035 26/11 A2997 RMK RN DST NE VEL MAX VTO 21KTS=
200903212100 METAR MROC 212100Z 11013G23KT 9999 SCT030 25/13 A2996 NOSIG=
200903212200 METAR MROC 212200Z 09014G24KT 9999 SCT030 25/13 A2996 RMK TRACE CI RN NE NOSIG=
200903212300 METAR MROC 212300Z 10012KT 9999 FEW030 22/14 A2997 RMK RN NE TRACE CI VEL MAX VT 19KTS NOSIG=
200903220000 METAR MROC 220000Z 10014KT 9999 FEW030 20/14 A2997 RMK VEL MAX VIENTO 21KTS NOSIG=
200903220100 METAR MROC 220100Z 10012G22KT 9999 FEW030 20/13 A3000 NOSIG=
200903220200 METAR MROC 220200Z 11011KT 9999 FEW030 20/12 A3003 RMK VEL/MAX/VIENTO 18KTS NOSIG=
200903220300 METAR MROC 220300Z 11012KT 9999 FEW030 20/12 A3004 RMK VEL MAX VTO 17KT NOSIG=
200903220400 METAR MROC 220400Z 11012KT 9999 FEW030 20/13 A3005 RMK VEL MAX VTO 20KT NOSIG=
200903220500 METAR MROC 220500Z 11013KT 9999 FEW030 20/13 A3005 RMK VEL MAX VTO 19KT NOSIG=
200903220600 METAR MROC 220600Z 10013KT 9999 FEW030 19/13 A3004 RMK VEL MAX VTO 21KT NOSIG=
200903220700 METAR MROC 220700Z 10012KT 9999 FEW030 20/13 A3001 RMK VEL MAX VTO 19KT NOSIG=
200903220800 METAR MROC 220800Z 10009KT 9999 FEW030 19/12 A2999 RMK VEL MAX VTO 14KT=
200903220900 METAR MROC 220900Z 10009KT CAVOK 19/13 A2998 RMK TRACE SC VEL MAX VTO 19KT=
200903220901 METAR MROC 220901Z COR 10009G19KT CAVOK 19/13 A2998 RMK TRACE SC=
200903221000 METAR MROC 221000Z 10012KT CAVOK 19/13 A2999 RMK TRACE SC VEL MAX VTO 17KT=
200903221100 METAR MROC 221100Z 10012G22KT CAVOK 19/12 A2999 RMK TRACE SC=
200903221200 METAR MROC 221200Z 09008KT CAVOK 20/12 A3001 RMK TRACE SC FEW100 VEL MAX VTO 14KT=
200903221300 METAR MROC 221300Z 10012KT CAVOK 20/14 A3002 RMK TRACE SC VEL MAX VTO 17KTS NOSIG=
200903221400 METAR MROC 221400Z 10013KT CAVOK 23/14 A3003 RMK TRACE SC VL MAX VIENTO 19KTS NOSIG=
200903221500 METAR MROC 221500Z 09011KT CAVOK 24/15 A3003 RMK TRACE SCT VEL MAX VTO 19KTS NOSIG=
200903221600 METAR MROC 221600Z 08012KT CAVOK 26/13 A3003 RMK TRACE SC VEL MAX VTO 19KTS NOSIG=
200903221700 METAR MROC 221700Z 09013KT 9999 FEW040 27/13 A3001 RMK RN NE OVR RDGS VEL MX VT 19KTS NOSIG=
200903221800 METAR MROC 221800Z 08014KT 9999 FEW040 26/14 A2998 RMK VL MX VTO 23KTS NOSIG=
200903221900 METAR MROC 221900Z 10013KT 9999 FEW035 27/14 A2995 RMK TCU S VEL MAX VTO 20KTS NOSIG=
200903222000 METAR MROC 222000Z 08013KT 9999 FEW035 27/14 A2993 RMK TCU S RN DST NE VEL MAX VTO 18 KTS NOSIG=
200903222100 METAR MROC 222100Z 09015KT 9999 SCT035 26/14 A2991 RMK PCPN NE NOSIG=
200903222200 METAR MROC 222200Z 10010KT 9999 FEW025 24/15 A2992 RMK FEW090 PCPN NE NOSIG=
200903222300 METAR MROC 222300Z 10015KT 9999 FEW025 22/15 A2994 RMK PCPN NE FEW250 NOSIG=
200903230000 METAR MROC 230000Z 10015KT 9999 FEW025 21/13 A2997 NOSIG=
200903230100 METAR MROC 230100Z 11014KT 9999 FEW025 20/13 A2999 NOSIG=
200903230200 METAR MROC 230200Z 10014KT 9999 FEW025 20/13 A3001 RMK NOSIG=
200903230300 METAR MROC 230300Z 10011KT 9999 FEW030 20/11 A3002 RMK VEL MAX VTO 17KT NOSIG=
200903230400 METAR MROC 230400Z 11012KT CAVOK 20/13 A3002 RMK TRACE SC NOSIG=
200903230500 METAR MROC 230500Z 10014KT CAVOK 19/12 A3001 RMK TRACE SC NOSIG=
200903230600 METAR MROC 230600Z 10012KT CAVOK 19/11 A2999 RMK TRACE SC NOSIG=
200903230700 METAR MROC 230700Z 09010KT CAVOK 19/11 A2998 RMK TRACE SC=
200903230800 METAR MROC 230800Z 09011KT CAVOK 19/13 A2997 RMK TRACE SC=
200903230900 METAR MROC 230900Z 08010KT CAVOK 18/12 A2997 RMK TRACE SC=
200903231000 METAR MROC 231000Z 06005KT CAVOK 18/11 A2997 RMK TRACE SC=
200903231100 METAR MROC 231100Z 05008KT CAVOK 17/12 A2998 RMK TRACE SC=
200903231200 METAR MROC 231200Z 06007KT CAVOK 19/12 A2999 RMK TRACE SC AC CI=
200903231300 METAR MROC 231300Z 06007KT CAVOK 21/12 A3000 RMK TRACE SC AC CI NOSIG=
200903231400 METAR MROC 231400Z 10014KT CAVOK 23/13 A3001 RMK SCT270 NOSIG=
200903231500 METAR MROC 231500Z 09016KT CAVOK 25/13 A3001 RMK SCT250 NOSIG=
200903231600 METAR MROC 231600Z 10015KT CAVOK 26/17 A3001 RMK TRACE CU SCT250 NOSIG=
200903231700 METAR MROC 231700Z 10014KT CAVOK 28/14 A3001 RMK TRACE CU SCT250 NOSIG=
200903231800 METAR MROC 231800Z 09015KT CAVOK 26/14 A2998 RMK TRACE CU SCT120 SCT250 NOSIG=
200903231900 METAR MROC 231900Z 10017KT 9999 FEW030 SCT120 BKN250 28/24 A2995 NOSIG=
200903232000 METAR MROC 232000Z 09011KT 9999 FEW030 BKN250 28/14 A2993=
200903232100 METAR MROC NIL=
200903232200 METAR MROC 232200Z 10009KT 9999 FEW040 27/15 A2990 RMK FEW250 NOSIG=
200903232300 METAR MROC 232300Z 09009KT 9999 FEW040 25/14 A2991 RMK TCU DST SSE/S NOSIG=
200903240000 METAR MROC 240000Z 10009KT 9999 FEW035 22/14 A2994 RMK TCU DST S NOSIG=
200903240100 METAR MROC 240100Z 10009KT 9999 FEW035 21/15 A2997 NOSIG=
200903240200 METAR MROC 240200Z 10010KT 9999 FEW035 20/15 A2999 NOSIG=
200903240300 METAR MROC NIL=
200903240400 METAR MROC 240400Z 11011KT 9999 FEW035 20/15 A3001 NOSIG=
200903240500 METAR MROC 240500Z 10011KT 9999 FEW035 20/14 A3001 NOSIG=
200903240600 METAR MROC NIL=
200903240700 METAR MROC NIL=
200903240800 METAR MROC NIL=
200903240900 METAR MROC NIL=
200903241000 METAR MROC 241000Z 06007KT CAVOK 19/13 A2996 RMK TRA SC NOSIG=
200903241100 METAR MROC 241100Z 06008KT CAVOK 18/12 A2997 RMK FEW250 NOSIG=
200903241200 METAR MROC 241200Z 08010KT CAVOK 19/12 A2999 RMK SCT250 NOSIG=
200903241300 METAR MROC 241300Z 10013KT CAVOK 21/12 A3001 RMK FEW140 NOSIG=
200903241400 METAR MROC 241400Z 11012KT CAVOK 23/12 A3002 RMK TRAZAS SC/AC VL MX VTO  20KT NOSIG=
200903241500 METAR MROC 241500Z 11012KT CAVOK 25/11 A3003 RMK TRAZAS CU/AC VL MX VTO  17KT NOSIG=
200903241600 METAR MROC 241600Z 11013KT CAVOK 27/10 A3003 RMK TRAZAS CU VL MX VTO  21KT NOSIG=
200903241700 METAR MROC 241700Z 10011KT CAVOK 29/12 A3001 RMK TRAZAS CU FEW280 VL MX VTO  18KT NOSIG=
200903241800 METAR MROC 241800Z 11009KT 9999 FEW045 30/13 A2999 RMK VL MX VTO  18KT NOSIG=
200903241900 METAR MROC 241900Z 09010KT 9999 FEW045 30/13 A2996 NOSIG=
200903242000 METAR MROC 242000Z 10009KT 9999 FEW045 30/12 A2994 RMK FU PISTA 27 NOSIG=
200903242100 METAR MROC 242100Z 11008KT 9999 FEW030TCU SCT040 29/13 A2992 RMK CB DST SE FU ARND NOSIG=
200903242200 METAR MROC 242200Z 12006KT 9999 FEW030TCU SCT040 27/14 A2992 RMK FEW080 FU ARND CB DST SSE BECMG 24006 -RA=
200903242300 METAR MROC 242300Z 10009KT 9999 FEW030TCU SCT045 25/15 A2994 RMK CB DST SE S PCPN DST SSE NOSIG=
200903250000 METAR MROC 250000Z 11009KT 9999 FEW035 SCT110 23/14 A2996 NOSIG=
200903250100 METAR MROC 250100Z 10010KT 9999 FEW035 SCT120 22/14 A2999 NOSIG=
200903250200 METAR MROC 250200Z 10010KT 9999 FEW035 SCT120 22/14 A3001 RMK VEL MAX VTO 16KT NOSIG=
200903250300 METAR MROC 250300Z 09008KT CAVOK 21/14 A3001 RMK TRACE SC NOSIG=
200903250400 METAR MROC 250400Z 11010KT CAVOK 21/14 A3001 RMK TRACE SC NOSIG=
200903250500 METAR MROC 250500Z 11013KT CAVOK 21/13 A3000 RMK TRACE SC NOSIG=
200903250600 METAR MROC 250600Z 07008KT CAVOK 20/14 A3001 RMK TRACE SC NOSIG=
200903250700 METAR MROC 250700Z 10007KT CAVOK 20/13 A3000 RMK TEACE SC NOSIG=
200903250800 METAR MROC NIL=
200903250900 METAR MROC 250900Z 09008KT CAVOK 20/13 A2997 RMK TRACE SC NOSIG=
200903251000 METAR MROC 251000Z 07007KT CAVOK 19/13 A2995 RMK TRACE SC NOSIG=
200903251100 METAR MROC 251100Z 09006KT CAVOK 19/13 A2998 RMK TRACE SC NOSIG=
200903251200 METAR MROC 251200Z 09007KT CAVOK 20/13 A2999 RMK TRACE AC NOSIG=
200903251300 METAR MROC 251300Z 10007KT CAVOK 22/13 A3002 RMK TRACE SC VEL MAX VTO 12KT NOSIG=
200903251400 METAR MROC 251400Z 11008KT CAVOK 24/13 A3003 RMK TRACE SC VEL MAX 16KT NOSIG=
200903251500 METAR MROC 251500Z 11010KT CAVOK 27/13 A3001 RMK TRACE SC VEL MAX VTO 16KT NOSIG=
200903251600 METAR MROC 251600Z 11010KT CAVOK 28/13 A3002 RMK TRACE SC VEL MAX VTO 16KT NOSIG=
200903251700 METAR MROC 251700Z 11009KT 9999 FEW045 30/14 A3000 RMK VEL MAX VTO 16KT NOSIG=
200903251800 METAR MROC 251800Z 11009KT 9999 FEW045 30/14 A2999 NOSIG=
200903251900 METAR MROC 251900Z 10009KT 9999 FEW045 30/14 A2996 RMK TCU DST S LGT HZ ARND NOSIG=
200903252000 METAR MROC 252000Z 23007KT 9999 SCT045 28/17 A2994 RMK LGT HZ ARND NOSIG=
200903252100 METAR MROC 252100Z 20011KT 9999 FEW020TCU BKN035 25/19 A2993 RMK RN DST SW BECMG -RA=
200903252200 METAR MROC 252200Z 20008KT 9999 FEW025TCU SCT035 26/18 A2992 RMK RN DST SSW NOSIG=
200903252300 METAR MROC 252300Z 10007KT 9999 FEW025TCU SCT035 24/17 A2995 NOSIG=
200903260000 METAR MROC 260000Z 10009KT 9999 BKN035 23/16 A2997 NOSIG=
200903260100 METAR MROC 260100Z 09011KT 9999 SCT035 22/16 A3000 NOSIG=
200903260200 METAR MROC 260200Z 10015KT 9999 FEW030 22/15 A3001 NOSIG=
200903260300 METAR MROC 260300Z 11010KT CAVOK 22/15 A3002 RMK TRAZAS SC NOSIG=
200903260400 METAR MROC 260400Z 10007KT CAVOK 21/15 A3003 RMK TRAZAS SC NOSIG=
200903260500 METAR MROC 260500Z 08007KT CAVOK 20/15 A3003 RMK TRAZAS SC NOSIG=
200903260600 METAR MROC 260600Z 06010KT CAVOK 20/15 A3001 RMK TRAZAS SC NOSIG=
200903260700 METAR MROC 260700Z 06005KT CAVOK 20/14 A2999 RMK TRAZAS SC NOSIG=
200903260800 METAR MROC 260800Z 08005KT CAVOK 20/14 A2997 RMK TRAZAS=
200903260900 METAR MROC 260900Z 06006KT CAVOK 20/14 A2996 RMK TRAZAS SC=
200903261000 METAR MROC 261000Z 09007KT CAVOK 20/14 A2996 RMK TRAZAS SC=
200903261100 METAR MROC 261100Z 09005KT CAVOK 20/14 A2996 RMK TRAZAS SC=
200903261200 METAR MROC 261200Z 10007KT CAVOK 20/13 A2997 RMK TRAZAS SC=
200903261300 METAR MROC 261300Z 10006KT CAVOK 22/13 A3000 RMK TRACE SC NOSIG=
200903261400 METAR MROC 261400Z 11013KT CAVOK 25/13 A3001 RMK TRACE SC NOSIG=
200903261500 METAR MROC 261500Z 11017KT CAVOK 27/13 A3001 RMK TRACE SC NOSIG=
200903261600 METAR MROC 261600Z 08009KT CAVOK 29/12 A3001 RMK TRACE SC NOSIG=
200903261700 METAR MROC 261700Z 08009KT CAVOK 29/12 A3001 RMK TRACE SC NOSIG=
200903261800 METAR MROC 261800Z 25006KT 9999 FEW040 30/12 A2996 NOSIG=
200903261900 METAR MROC 261900Z 25012KT 9999 FEW040 31/16 A2993 NOSIG=
200903262000 METAR MROC 262000Z 25014KT 9999 SCT035 30/19 A2991 NOSIG=
200903262100 METAR MROC 262100Z 24011KT 9999 FEW030 SCT040TCU 29/19 A2991 NOSIG=
200903262200 METAR MROC 262200Z 23014KT 9999 SCT030TCU 28/18 A2990 NOSIG=
200903262300 METAR MROC 262300Z 23012KT 9999 FEW030 SCT040 27/17 A2991 NOSIG=
200903270000 METAR MROC 270000Z 19009KT 9999 FEW035 SCT040 24/19 A2994 NOSIG=
200903270100 METAR MROC 270100Z 14004KT 9999 FEW035 23/17 A2996 NOSIG=
200903270200 METAR MROC 270200Z 13006KT 9999 FEW035 23/17 A2996 NOSIG=
200903270300 METAR MROC 270300Z 10004KT 9999 SCT035 21/17 A2998 NOSIG=
200903270400 METAR MROC 270400Z 08003KT 9999 FEW035 21/16 A2998 NOSIG=
200903270500 METAR MROC 270500Z 08004KT 9999 FEW035 20/16 A2997 NOSIG=
200903270600 METAR MROC 270600Z 04003KT CAVOK 18/14 A2997 RMK TRACE SC NOSIG=
200903270700 METAR MROC 270700Z 07006KT CAVOK 19/15 A2994 RMK TRACE SC NOSIG=
200903270800 METAR MROC 270800Z 05005KT CAVOK 18/14 A2994 RMK TRACE SC=
200903270900 METAR MROC 270900Z 07004KT CAVOK 17/13 A2994 RMK TRACE SC=
200903271000 METAR MROC 271000Z 05005KT CAVOK 17/14 A2994 RMK TRACE SC=
200903271100 METAR MROC 271100Z 06006KT CAVOK 17/13 A2996 RMK TRACE SC=
200903271200 METAR MROC 271200Z 07006KT 9999 FEW035 17/13 A2998 NOSIG=
200903271300 METAR MROC 271300Z 10007KT 9999 FEW035 19/13 A3000 RMK HZ LGT W NOSIG=
200903271400 METAR MROC 271400Z 12005KT 9999 FEW030 24/14 A3001 RMK HZ W BECMG 24006KT=
200903271500 METAR MROC 271500Z 28006KT 9999 FEW030 25/16 A3002 RMK HZ W NOSIG=
200903271600 METAR MROC 271600Z 24008KT 9999 SCT030 27/16 A3002 RMK HZ W NOSIG=
200903271700 METAR MROC 271700Z 26007KT 9999 SCT030 27/15 A3000 RMK HZ W NOSIG=
200903271800 METAR MROC 271800Z 26010KT 9999 SCT035 29/14 A2998 RMK HZ W NOSIG=
200903271900 METAR MROC 271900Z 27014KT 9999 SCT030TCU 30/15 A2995 RMK HZ W NOSIG=
200903272000 METAR MROC 272000Z 26008KT 9999 SCT030TCU 30/16 A2992 RMK HZ W NOSIG=
200903272100 METAR MROC 272100Z 22011KT 9999 SCT030TCU 29/16 A2992 RMK HZ LGT W=
200903272200 METAR MROC 272200Z 24013KT 9999 SCT030TCU 27/18 A2990 RMK HZ LGT W=
200903272300 METAR MROC 272300Z 25012KT 9999 SCT030TCU 25/18 A2992 NOSIG=
200903280000 METAR MROC 280000Z 23008KT 9999 SCT030 23/18 A2994 RMK FU S NOSIG=
200903280100 METAR MROC 280100Z 23006KT 9999 BKN030 22/18 A2997 NOSIG=
200903280200 METAR MROC 280200Z 27006KT 9999 SCT030 22/18 A2997 NOSIG=
200903280300 METAR MROC 280300Z 24007KT 9999 4000W BR FEW003 SCT015 21/20 A3001 NOSIG=
200903280400 METAR MROC 280400Z 26005KT 9999 VCFG FEW004 SCT015 20/20 A3002 RMK VIS 7000 SW W BECMG 10008KT 9999=
200903280500 METAR MROC 280500Z 27004KT 9999 FEW020 20/20 A3002 RMK TRACE ST NOSIG=
200903280600 METAR MROC 280600Z 31003KT 9999 FEW025 20/19 A3001 NOSIG=
200903280700 METAR MROC 280700Z 00000KT 9999 VCFG FEW003 SCT025 19/19 A2999 RMK VIS 6000 W SW=
200903280800 METAR MROC 280800Z 10003KT 9999 VCFG FEW005 SCT025 19/18 A2997 RMK VIS 7000 SW W=
200903280900 METAR MROC 280900Z 07003KT CAVOK 18/17 A2996 RMK TRACE SC=
200903281000 METAR MROC 281000Z 04004KT CAVOK 18/16 A2997 RMK TRACE SC=
200903281100 METAR MROC 281100Z 06004KT CAVOK 17/15 A2998 RMK TRACE SC=
200903281200 METAR MROC 281200Z 10006KT CAVOK 16/13 A3000=
200903281300 METAR MROC 281300Z 09005KT CAVOK 20/14 A3002 NOSIG=
200903281400 METAR MROC 281400Z 11003KT CAVOK 24/16 A3003 RMK HZ W NOSIG=
200903281500 METAR MROC 281500Z 21005KT CAVOK 26/14 A3005 RMK TRACE CU HZ W BECMG 27010KT=
200903281600 METAR MROC 281600Z 29005KT CAVOK 28/11 A3004 RMK TRACE CU HZ W NOSIG=
200903281700 METAR MROC 281700Z 29011KT 9999 FEW040 29/11 A3003 RMK HZ W NOSIG=
200903281800 METAR MROC 281800Z 25011KT 9999 FEW040 30/12 A3001 RMK HZ W RAFAGAS 16KT NOSIG=
200903281900 METAR MROC 281900Z 23010KT 9999 FEW035 30/10 A2999 RMK HZ W NOSIG=
200903282000 METAR MROC 282000Z 26012KT 9999 FEW035 30/12 A2997 RMK HZ W NOSIG=
200903282100 METAR MROC 282100Z 25012KT 9999 SCT035 30/15 A2995 NOSIG=
200903282200 METAR MROC 282200Z 25011KT 9999 FEW035 28/13 A2994 RMK TCU DST S NOSIG=
200903282300 METAR MROC 282300Z 23009KT 9999 SCT035 26/17 A2994 RMK TCU DST E/ESE NOSIG=
200903290000 METAR MROC 290000Z 25008KT 9999 BKN035 22/17 A2999 NOSIG=
200903290100 METAR MROC 290100Z 25008KT 9999 BKN035 22/17 A2999 NOSIG=
200903290200 METAR MROC 290200Z 26006KT 9999 BKN030 22/17 A3001 NOSIG=
200903290300 METAR MROC 290300Z 23004KT 9999 BKN030 21/17 A3004 NOSIG=
200903290400 METAR MROC 290400Z 12002KT 9999 SCT035 21/18 A3005 NOSIG=
200903290500 METAR MROC 290500Z 13003KT 9999 SCT040 21/18 A3004 NOSIG=
200903290600 METAR MROC 290600Z 07006KT 9999 FEW030 20/16 A3002 NOSIG=
200903290700 METAR MROC 290700Z 04005KT 9999 FEW035 19/15 A3000 NOSIG=
200903290800 METAR MROC 290800Z 07006KT 9999 FEW035 19/14 A3000 NOSIG=
200903290900 METAR MROC 290900Z 12003KT CAVOK 18/15 A3001 RMK TRACE SC NOSIG=
200903291000 METAR MROC 291000Z 07006KT CAVOK 18/16 A3001 RMK TRACE SC NOSIG=
200903291100 METAR MROC 291100Z 08005KT CAVOK 17/15 A3001 RMK TRACE SC NOSIG=
200903291156 METAR MROC 201200Z 08006KT CAVOK 17/14 A3001 RMK TRACE SC SCT250 HZ W NOSIG=
200903291200 METAR MROC 291200Z 08006KT CAVOK 17/14 A3001 RMK TRACE SC SCT250 HZ W NOSIG=
200903291300 METAR MROC 291300Z 00000KT CAVOK 20/15 A3003 RMK SCT250 HZ LGT ARND NOSIG=
200903291400 METAR MROC 291400Z 03004KT CAVOK 24/16 A3004 RMK SCT250 HZ LGT ARND BECMG 22007KT=
200903291500 METAR MROC 291500Z 10005KT CAVOK 27/13 A3004 RMK SCT250 HZ LGT ARND BECMG 22007=
200903291600 METAR MROC 291600Z 10004KT 9999 FEW045 SCT280 30/08 A3003 RMK HZ LGT ARND BECMG 22007KT=
200903291700 METAR MROC 291700Z 08004KT 9999 FEW045 31/11 A3001 RMK FEW280 HZ LGT ARND BECMG 22007KT=
200903291800 METAR MROC 291800Z 23011KT 9999 FEW045 31/15 A2999 RMK FEW280 HZ LGT ARND NOSIG=
200903291900 METAR MROC 291900Z 25013KT 9999 FEW045 31/16 A2997 RMK FEW280 VL MX VTO  21KT HZ LGT ARND NOSIG=
200903292000 METAR MROC 292000Z 26012KT 9999 FEW040 30/18 A2994 RMK FEW280 TCU DST S/E HZ LGT ARND VL MX VTO  17KT NOSIG=
200903292100 METAR MROC 292100Z 22012KT 9999 SCT040 29/18 A2993 RMK CB DST S TCU E LGT HZ ARND NOSIG=
200903292200 METAR MROC 292200Z 23011KT 9999 FEW030TCU SCT040 28/18 A2993 RMK PCPN DST E CB DST SE HZY NOSIG=
200903292300 METAR MROC 292300Z 20008KT 9999 FEW030 SCT060 26/19 A2994 RMK LGT HZ ARND CB DST ESE NOSIG=
200903300000 METAR MROC 300000Z 24005KT 9999 FEW025TCU BKN060 24/19 A2996 RMK CB DST NE E RN DST ESE NOSIG=
200903300100 METAR MROC 300100Z 24004KT 9999 FEW025 BKN050 23/19 A2999 RMK LGT HZ ARND NOSIG=
200903300200 METAR MROC 300200Z 26004KT 9999 SCT030 BKN040 22/19 A3002 RMK LGT HZ ARND BECMG -RA=
200903300300 METAR MROC NIL=
200903300400 METAR MROC 300400Z 08005KT 9999 FEW030 SCT050 22/17 A3004 NOSIG=
200903300500 METAR MROC 300500Z 06006KT 9999 FEW030 SCT070 22/16 A3004 NOSIG=
200903300600 METAR MROC 300600Z 07006KT CAVOK 21/15 A3003 RMK SCT070 NOSIG=
200903300700 METAR MROC 300700Z 07006KT CAVOK 22/14 A3001 RMK SCT070 NOSIG=
200903300800 METAR MROC 300800Z 09005KT CAVOK 21/15 A2999 RMK SCT070 NOSIG=
200903300900 METAR MROC 300900Z 10006KT CAVOK 21/14 A2998 RMK SCT070=
200903301000 METAR MROC 301000Z 10009KT CAVOK 21/13 A2999 RMK SCT070=
200903301100 METAR MROC 301100Z 10007KT CAVOK 21/13 A2999 RMK SCT070=
200903301200 METAR MROC 301200Z 10008KT CAVOK 21/13 A3000 RMK TRACE CU CI HZ=
200903301300 METAR MROC 301300Z 11008KT CAVOK 22/12 A3002 RMK TRACE CU CI LGT HZ ARND NOSIG=
200903301400 METAR MROC 301400Z 11011KT CAVOK 25/12 A3003 RMK TRACE CU CI LGT HZ ARND VEL MAX VTO 17KT NOSIG=
200903301500 METAR MROC 301500Z 11011KT CAVOK 28/12 A3003 RMK TRACE SC CI LGT HZ ARND VEL MAX VTO 19KT NOSIG=
200903301600 METAR MROC 301600Z 10013KT CAVOK 29/10 A3003 RMK TRACE SC CI LGT HZ ARND VEL MAX VTO 18KT NOSIG=
200903301700 METAR MROC 301700Z 10011KT CAVOK 30/11 A3001 RMK TRACE SC FEW300 VEL MAX VTO 19KT LGT HZ ARND NOSIG=
200903301800 METAR MROC 301800Z 10010KT 9999 FEW045 31/12 A2999 RMK FEW300 VEL MAX VTO 16KT LGT HZ ARND NOSIG=
200903301900 METAR MROC 301900Z 11008KT 9999 FEW025 SCT040 30/13 A2997 NOSIG=
200903302000 METAR MROC 302000Z 07007KT 9999 FEW025TCU SCT040 31/13 A2994 RMK RN DST SW HZ ARND=
200903302100 METAR MROC 302100Z 10007KT 9999 FEW025TCU SCT035 29/14 A2993 RMK VIS 7000SW HZ NOSIG=
200903302200 METAR MROC 302200Z 21011KT 9999 FEW020CB SCT035 26/19 A2994 RMK FEW240 VIS 7000SW HZ NOSIG=
200903302300 METAR MROC 302300Z 21007KT 9999 FEW025 SCT035 24/20 A2996 RMK VIS 7000SW HZ FEW120 FEW240 NOSIG=
200903302330 METAR MROC 302330Z 08012KT 9999 FEW030 BKN250 24/16 A2993 RMK VIS 8000 SW W DUE HZ HZY FEW100=
200903310000 METAR MROC 310000Z 23005KT 9999 SCT030 SCT100 24/20 A2997 RMK VIS 7000SW HZ NOSIG=
200903310100 METAR MROC 310100Z 23006KT 9999 FEW030 SCT100 23/19 A2999 RMK HZ ARND NOSIG=
200903310200 METAR MROC 310200Z 26003KT 9999 FEW030 SCT100 21/20 A3001 RMK HZ ARND NOSIG=
200903310300 METAR MROC 310300Z 31002KT 9999 FEW015 SCT030 22/20 A3004 NOSIG=
200903310400 METAR MROC 310400Z 09002KT 9999 FEW030 21/16 A3005 RMK FEW120 ST S NOSIG=
200903310500 METAR MROC 310500Z 05006KT 9999 FEW030 21/17 A3004 RMK HZ LGT ARND NOSIG=
200903310600 METAR MROC 310600Z 08004KT CAVOK 20/15 A3002 RMK TRAZAS SC NOSIG=
200903310700 METAR MROC 310700Z 00000KT CAVOK 19/14 A3001 RMK TRAZAS SC NOSIG=
200903310800 METAR MROC 310800Z 00000KT CAVOK 19/15 A3000 RMK TRAZAS SC=
200903310900 METAR MROC 310900Z 08003KT CAVOK 18/15 A3001 RMK FEW260=
200903311000 METAR MROC 311000Z 08004KT CAVOK 18/14 A3002 RMK FEW120 FEW260=
200903311100 METAR MROC 311100Z 05005KT CAVOK 18/14 A3002 RMK FEW120 FEW260=
200903311200 METAR MROC 311200Z 08003KT CAVOK 18/14 A3002 RMK FEW280 HZ LGT ARND=
200903311300 METAR MROC 311300Z 04009KT CAVOK 22/15 A3004 RMK TRAZAS SCT HZ LGT ARND NOSIG=
200903311400 METAR MROC 311400Z 10006KT CAVOK 24/16 A3004 RMK HZ LGT ARND TRAZAS SCT/CI VEL/MAX/ VIENTO 12NUDOS=
200903311500 METAR MROC 311500Z 08006KT CAVOK 27/16 A3004 RMK HZ LGT ARND TRAZAS CU=
200903311600 METAR MROC 311600Z 24007KT 9999 FEW040 28/16 A3003 RMK HZ LGT ARND=
200903311700 METAR MROC 311700Z 23009KT 9999 FEW035 29/17 A3002 RMK HZ SW W NOSIG=
200903311800 METAR MROC 311800Z 24012KT 9999 SCT035TCU 29/18 A3000 RMK HZ ARND NOSIG=
200903311900 METAR MROC 311900Z 22014KT 9999 SCT020TCU SCT030 29/18 A2999 RMK HZ ARND=
200903312000 METAR MROC 312000Z 24014KT 9999 VCSH SCT020CB BKN030 27/19 A2997 RMK HZ LEVE ARND 7000SSW BECMG 8000 VCSH=
200903312100 METAR MROC 312100Z 20012KT 6000 -TSRA FEW015CB SCT020 OVC100 23/21 A2999 NOSIG=
200903312126 METAR MROC 312126Z 21010KT 9999 4000NE VCSH FEW020 SCT040 BKN110 23/21 A2998 RETS NOSIG=
200903312200 METAR MROC 312200Z 21014KT 8000 3000NE VCSH SCT020 BKN100 24/20 A2999 RMK HZ LGT ARND NOSIG=
200903312300 METAR MROC 312300Z 22010KT 8000 -RA SCT020 BKN110 23/19 A3000 RMK HZ ARND NOSIG=
200903312352 METAR MROC 010000Z 27007KT 7000 VCFG SCT015 BKN100 21/20 A3001 RERA RMK RN DIST NE HZ ARND NOSIG=
200904010000 METAR MROC 010000Z 27007KT 7000 VCFG SCT015 BKN100 21/20 A3001 RERA RMK RN DIST NE HZ ARND NOSIG=
200904010100 METAR MROC 010100Z 25006KT 6000 VCFG SCT010 OVC030 21/20 A3003 RMK HZ ARND VIS E UNL NOSIG=
200904010200 METAR MROC 010200Z 20006KT 5000 -RA VCFG SCT015 BKN030 20/19 A3006 NOSIG=
200904010300 METAR MROC 010300Z 00000KT 6000 2500E -RA BR SCT015 BKN025 20/19 A3008 RMK VIS S UNLTD NOSIG=
200904010301 METAR MROC 010301Z COR 00000KT 6000 2500E -RA VCFG BR SCT015 BKN025 20/19 A3008 RMK VIS S UNLTD NOSIG=
200904010400 METAR MROC 010400Z 27004KT 4000 RA BR SCT015 BKN025 19/19 A3009 BECMG 7000=
200904010500 METAR MROC 010500Z 36003KT 8000 -DZ VCFG FEW010 BKN025 20/19 A3008 RERA NOSIG=
200904010600 METAR MROC 010600Z 35003KT 9999 FEW020 BKN030 20/19 A3006 REDZ NOSIG=
200904010700 METAR MROC 010700Z 35003KT 9999 FEW020 SCT030 20/19 A3004 NOSIG=
200904010800 METAR MROC 010800Z 00000KT 9999 SCT025 BKN080 20/19 A3002=
200904010900 METAR MROC 010900Z 10003KT 9999 FEW020 BKN030 20/19 A3000=
200904011000 METAR MROC 011000Z 09003KT 9999 SCT030 SCT250 19/19 A3000=
200904011100 METAR MROC 011100Z 03003KT 9999 VCFG FEW025 SCT100 19/19 A3002 RMK SCT250 VIS SW W 7KMS=
200904011200 METAR MROC 011200Z 08003KT 9999 FEW025 BKN250 19/18 A3004 RMK TRACE AC HZY=
200904011300 METAR MROC 011300Z 08005KT CAVOK 21/18 A3006 RMK TRACE SC BKN250 HZ ARND NOSIG=
200904011400 METAR MROC 011400Z 10006KT CAVOK 23/18 A3008 RMK TRACE CU BKN250 HZ ARND BECMG 24006KT=
200904011500 METAR MROC 011500Z VRB03KT 9999 FEW040 BKN250 25/18 A3008 RMK HZ ARND BECMG 24006KT=
200904011600 METAR MROC 011600Z 25007KT 9999 SCT035 BKN250 27/17 A3008 RMK HZ ARND NOSIG=
200904011700 METAR MROC 011700Z 25012KT 9999 SCT030 BKN250 32/19 A3007 RMK HZ ARND TCU SW NOSIG=
200904011800 METAR MROC 011800Z 22014KT 9999 FEW020TCU SCT030 28/18 A3004 RMK SCT250 HZ ARND NOSIG=
200904011900 METAR MROC 011900Z 23013KT 9999 SCT020TCU SCT040 28/18 A3001 RMK HZ ARND NOSIG=
200904012000 METAR MROC 012000Z 24013KT 9999 SCT035 29/19 A2998 RMK HZ ARND NOSIG=
200904012100 METAR MROC 012100Z 23012KT 9999 SCT035 28/19 A2996 RMK HZ LEVE ARND NOSIG=
200904012200 METAR MROC 012200Z 24011KT 9999 SCT030 BKN250 26/19 A2996 RMK HZ LEVE ARND NOSIG=
200904012300 METAR MROC 012300Z 24010KT 9999 SCT030 BKN250 24/19 A2997 RMK HZ LEVE ARND NOSIG=
200904020000 METAR MROC 020000Z 24006KT 9999 FEW015TCU BKN030 23/19 A3000 RMK HZ=
200904020100 METAR MROC 020100Z 24004KT 9999 SCT015 BKN030 22/20 A3002 RMK HZ ARND NOSIG=
200904020200 METAR MROC 020200Z 25007KT 9999 FEW007 SCT015 BKN030 21/20 A3003 NOSIG=
200904020300 METAR MROC 020300Z 26006KT 7000 VCFG SCT007 BKN015 21/20 A3005 NOSIG=
200904020400 METAR MROC 020400Z 25003KT 7000 VCFG SCT005 BKN012 21/20 A3005 RMK VIS 9999E NOSIG=
200904020500 METAR MROC 020500Z 24002KT 9999 SCT012 BKN035 21/20 A3004 NOSIG=
200904020600 METAR MROC 020600Z 25002KT 9999 VCFG FEW006 BKN025 20/20 A3004 RMK VIS 7000NW NOSIG=
200904020700 METAR MROC 020700Z 01002KT 9999 FEW015 SCT030 20/20 A3001=
200904020800 METAR MROC 020800Z 07003KT 9999 SCT030 19/16 A3000=
200904020900 METAR MROC 020900Z 08003KT CAVOK 19/16 A3000 RMK SCT060=
200904021000 METAR MROC 021000Z 09005KT CAVOK 18/16 A2999 RMK SCT080=
200904021100 METAR MROC 021100Z 07005KT CAVOK 18/15 A3001 RMK TRACE SC AC=
200904021200 METAR MROC 021200Z 07004KT CAVOK 18/15 A3002 RMK TRACE SC AC FEW250 HZ SW=
200904021300 METAR MROC 021300Z 04006KT 9999 FEW030 21/15 A3003 RMK HZ ARND BECMG 24006K T=
200904021400 METAR MROC 021400Z 08006KT 9999 FEW030 25/15 A3004 RMK HZ ARND BECMG 24006K T=
200904021500 METAR MROC 021500Z 11008KT 9999 FEW030 27/13 A3004 RMK HZ ARND BECMG 24006K T=
200904021600 METAR MROC 021600Z 09003KT 9999 FEW030 29/12 A3002 RMK HZ ARND BECMG 24006K T=
200904021700 METAR MROC 021700Z 33004KT 9999 FEW030 30/11 A3000 RMK HZ ARND BECMG 24006K T=
200904021800 METAR MROC 021800Z 28002KT 9999 SCT030 31/12 A2997 RMK HZ ARND NOSIG=
200904021900 METAR MROC 021900Z 26007KT 9999 SCT030 31/16 A2994 RMK HZ ARND NOSIG=
200904022000 METAR MROC 022000Z 23010KT 9999 SCT030 30/19 A2992 RMK HZ ARND NOSIG=
200904022100 METAR MROC 022100Z 23014KT 9999 FEW025TCU SCT030 28/19 A2991 RMK VL MX VTO 19KT HZ ARND NOSIG=
200904022200 METAR MROC 022200Z 24013KT 9999 SCT035 27/19 A2992 RMK VL MX VTO 16KT HZ ARND TCU SCTD ARND NOSIG=
200904022300 METAR MROC 022300Z 22009KT 9999 FEW025 SCT035 24/20 A2994 RMK FEW120 HZ ARND TCU SCTD ARND NOSIG=
200904030000 METAR MROC 030000Z 25007KT 9999 FEW035 SCT280 22/19 A2996 RMK HZ ARND RNDST W NOSIG=
200904030100 METAR MROC 030100Z 26006KT 9999 FEW020 BKN030 22/20 A2998 RMK HZ ARND NOSIG=
200904030200 METAR MROC 030200Z 29006KT 9999 FEW020 BKN030 22/20 A3000 RMK HZ AND NOSIG=
200904030300 METAR MROC 030300Z 24008KT 9999 FEW006 BKN032 21/20 A3002 RMK HZ ARND NOSIG=
200904030400 METAR MROC 030400Z 27006KT 9999 SCT008 OVC035 21/20 A3003 RMK VIS SW W 8KM DUE HVY HZ HZ LGT ARND NOSIG=
200904030500 METAR MROC 030500Z 26005KT 9999 OVC030 21/20 A3003 RMK HZ ARND NOSIG=
200904030600 METAR MROC 030600Z 26006KT 9999 SCT020 OVC040 21/19 A3001 RMK HZ LGT ARND NOSIG=
200904030700 METAR MROC 030700Z 27005KT 9999 FEW005 OVC035 21/20 A2999 RMK HZ ARND NOSIG=
200904030800 METAR MROC 030800Z COR 26007KT 6000 VCFG FEW004 SCT020 OVC035 20/20 A2998 NOSIG=
200904030900 METAR MROC 030900Z 25005KT 8000 SCT004 BKN030 20/20 A2998 RMK VIS SW 4KM DUE HZ AND LOW ST HZ ARND NOSIG=
200904031000 METAR MROC 031000Z 27005KT 6000 3000SW BR FEW005 OVC010 20/20 A2999 NOSIG=
200904031100 METAR MROC 031100Z 30004KT 9999 FEW015 BKN040 20/19 A3000 RMK VIS SW 6KM DUE LOW ST AND HZ NOSIG=
200904031200 METAR MROC 031200Z 27004KT 9999 -DZ SCT020 BKN090 20/19 A3001 RMK VIS W NW 7KM DUE RN AND HZ NOSIG=
200904031300 METAR MROC 031300Z 26002KT 9999 FEW015 BKN030 20/19 A3004 REDZ RMK VIS 8KM NW/N ESE DUE DZ/HZ/ST BECMG 7000 VCSH=
200904031400 METAR MROC 031400Z 00000KT 9999 -DZ VCFG FEW020 BKN030 21/18 A3006 RMK VIS 7KM W/NW DUE ST/HZ NOSIG=
200904031500 METAR MROC 031500Z 00000KT 9999 SCT030 SCT090 21/19 A3007 REDZ RMK HZ ARND NOSIG=
200904031600 METAR MROC 031600Z 34005KT 9999 SCT035 SCT100 24/18 A3006 RMK HZ ARND NOSIG=
200904031700 METAR MROC 031700Z 30005KT 9999 SCT035 SCT110 26/18 A3004 RMK HZ ARND TCU SCTD ARND TCU OVER STND NOSIG=
200904031800 METAR MROC 031800Z 26005KT 9999 SCT035 SCT110 27/17 A3002 RMK HZ ARND TCU SCTD ARND BECMG 8000 VCSH=
200904031900 METAR MROC 031900Z 24008KT 9999 FEW025TCU SCT035 28/17 A2998 RMK FEW110 HZ ARND TCU SCTD ARND BECMG 8000 VCSH=
200904032000 METAR MROC 032000Z 25009KT 9999 BKN035 28/18 A2995 RMK FEW110 TCU DST N/E HZ LGT ARND NOSIG=
200904032100 METAR MROC 032100Z 24009KT 9999 SCT035 20/18 A2994 RMK FEW120 TCU DST N NE E S HZY NOSIG=
200904032200 METAR MROC 032200Z 24008KT 9999 FEW020TCU SCT035 29/19 A2993 RMK PCPN DST E NE HZY BECMG 6000 VCSH=
200904032300 METAR MROC 032300Z 24010KT 9999 FEW020TCU BKN035 25/20 A2995 RMK HZY NOSIG=
200904040000 METAR MROC 040000Z 20006KT 9999 -DZ FEW020 SCT035 BKN070 22/20 A2997 RMK RN DST N NE E HZY BECMG 8000 -RA=
200904040100 METAR MROC 040100Z 24004KT 9999 FEW015 SCT025 BKN040 22/21 A2999 RMK HZY NOSIG=
200904040200 METAR MROC 040200Z 27003KT 9999 FEW008 SCT017 BKN025 22/21 A3001 RMK LGT HZ ARND NOSIG=
200904040300 METAR MROC 040300Z 31004KT 9999 FEW008 SCT015 BKN025 22/20 A3003 RMK HZ LEV E ARND NOSIG=
200904040400 METAR MROC 040400Z 25003KT 9999 FEW008 SCT015 BKN025 21/20 A3006 RMK HZ ARN D NOSIG=
200904040500 METAR MROC 040500Z 24002KT 9999 FEW008 SCT015 BKN030 21/20 A3005 RMK HZ ARN D NOSIG=
200904040600 METAR MROC 040600Z 00000KT 9999 FEW010 BKN030 21/20 A3004 RMK HZ ARND NOSIG=
200904040700 METAR MROC 040700Z 00000KT 9999 5000SW BR FEW005 BKN030 21/20 A3004 RMK HZ ARND NOSIG=
200904040800 METAR MROC 040800Z 00000KT 9999 FEW005 SCT030 19/18 A2999 RMK HZ LEVE ARND=
200904040900 METAR MROC 040900Z 16002KT 9999 FEW030 18/17 A2999 RMK HZ LEVE ARND=
200904041000 METAR MROC 041000Z 00000KT 9999 FEW030 18/17 A2999 RMK HZ LEVE ARND=
200904041100 METAR MROC 041100Z 06004KT 9999 FEW030 18/16 A3001 RMK HZ LEVE ARND=
200904041200 METAR MROC 041200Z 06003KT CAVOK 18/16 A3002 RMK HZ LEVE ARND TRACE SC CI=
200904041300 METAR MROC 041300Z 08003KT CAVOK 22/15 A3004 RMK TRACE CU SC HZY NOSIG=
200904041400 METAR MROC 041400Z 09007KT CAVOK 25/15 A3006 RMK TRACE SC HZY NOSIG=
200904041500 METAR MROC 041500Z 11006KT CAVOK 28/15 A3005 RMK TRACE SC CU HZY NOSIG=
200904041600 METAR MROC 041600Z 10009KT 9999 FEW045 29/14 A3003 RMK VEL MAX VTO 14KT HZY NOSIG=
200904041700 METAR MROC 041700Z 11006KT 9999 FEW045 30/14 A3002 RMK HZY NOSIG=
200904041800 METAR MROC 041800Z 21006KT 9999 SCT045 30/16 A3000 RMK HZY NOSIG=
200904041900 METAR MROC 041900Z 25005KT 9999 SCT045 SCT060 29/18 A2997 RMK HZY NOSIG=
200904042000 METAR MROC 042000Z 24008KT 9999 SCT040 SCT050 28/19 A2994 RMK HZY NOSIG=
200904042100 METAR MROC 042100Z 23012KT 9999 SCT025CB SCT040 30/20 A2992 RMK HZ ARND NOSIG=
200904042200 METAR MROC 042200Z 24013KT 9999 FEW025CB SCT035 28/20 A2992 RMK HZY BECMG 7000 VCSH=
200904042300 METAR MROC 042300Z 23010KT 9999 SCT035 26/20 A2993 RMK HZ LGT SW NOSIG=
200904050000 METAR MROC 050000Z 25007KT 9999 SCT030 24/20 A2994 RMK CB DST E HZ LGT ARND NOSIG=
200904050100 METAR MROC 050100Z 27005KT 9999 FEW030 23/20 A2996 NOSIG=
200904050200 METAR MROC 050200Z 09005KT 9999 FEW030 22/18 A2998 NOSIG=
200904050300 METAR MROC 050300Z 08006KT 9999 FEW030 21/17 A3000 NOSIG=
200904050400 METAR MROC 050400Z 10004KT 9999 FEW030 22/16 A3001 NOSIG=
200904050500 METAR MROC 050500Z 08004KT 9999 FEW030 20/15 A3001 NOSIG=
200904050600 METAR MROC 050600Z 07007KT CAVOK 19/15 A2998 RMK TRAZAS SC NOSIG=
200904050700 METAR MROC 050700Z 07009KT CAVOK 18/14 A2995 RMK TRAZAS SC NOSIG=
200904050800 METAR MROC 050800Z 07005KT CAVOK 18/14 A2994 RMK TRAZAS SC=
200904050900 METAR MROC 050900Z 10003KT CAVOK 18/14 A2994 RMK TRAZAS SC=
200904051000 METAR MROC 051000Z 07005KT CAVOK 18/13 A2995 RMK TRAZAS SC=
200904051100 METAR MROC 051100Z 06005KT CAVOK 18/14 A2997 RMK TRAZAS SC=
200904051200 METAR MROC 051200Z 06007KT CAVOK 17/13 A2998 RMK TRAZAS SC=
200904051300 METAR MROC 051300Z 07006KT CAVOK 21/13 A3000 RMK TRACE SCT NOSIG=
200904051400 METAR MROC 051400Z 10010KT CAVOK 23/14 A3002 RMK TRACE SC VEL MAX  VTO 15KT NOSIG=
200904051442 METAR MROC 051442Z 13006KT CAVOK 26/14 A3000 RMK TRACE CU VEL MAX VTO 12KT=
200904051500 METAR MROC 051500Z 10010KT CAVOK 26/13 A3002 RMK TRACE SC VEL MAX VTO 15KT NOSIG=
200904051600 METAR MROC 051600Z 10011KT CAVOK 27/13 A3002 RMK TRACE SC NOSIG=
200904051700 METAR MROC 051700Z 09010KT CAVOK 29/13 A3000 RMK TRACE SC CU NOSIG=
200904051800 METAR MROC 051800Z 10010KT 9999 FEW040 29/14 A2999 NOSIG=
200904051900 METAR MROC 051900Z 09010KT 9999 FEW040 29/14 A2996 NOSIG=
200904052000 METAR MROC 052000Z 08012KT 9999 FEW040 30/14 A2994 NOSIG=
200904052100 METAR MROC 052100Z 10010KT 9999 FEW040 30/13 A2992 NOSIG=
200904052200 METAR MROC 052200Z 11010KT 9999 FEW042 29/14 A2992 NOSIG=
200904052300 METAR MROC 052300Z 12008KT 9999 FEW042 SCT250 27/14 A2993 NOSIG=
200904060000 METAR MROC 060000Z 13009KT 9999 FEW040 25/15 A2995 NOSIG=
200904060100 METAR MROC 060100Z 12006KT CAVOK 23/14 A2996 RMK TRAZAS SC NOSIG=
200904060200 METAR MROC 060200Z 11005KT CAVOK 22/14 A2999 RMK TRAZAS SC NOSIG=
200904060300 METAR MROC 060300Z 10007KT CAVOK 22/16 A3001 RMK TRACE SC VEL MAX VTO 11KT NOSIG=
200904060400 METAR MROC 060400Z 11008KT CAVOK 21/15 A3002 RMK TRACE SC NOSIG=
200904060500 METAR MROC 060500Z 10005KT CAVOK 20/15 A3001 RMK TRACE SC NOSIG=
200904060600 METAR MROC 060600Z 09007KT CAVOK 20/15 A3000 RMK TRACE SC NOSIG=
200904060700 METAR MROC 060700Z 07006KT CAVOK 19/14 A2998 RMK TRACE SC NOSIG=
200904060800 METAR MROC 060800Z 08004KT CAVOK 19/14 A2997 RMK TRACE SC=
200904060900 METAR MROC 060900Z 06007KT CAVOK 18/14 A2996 RMK TRACE SC=
200904061000 METAR MROC 061000Z 07008KT CAVOK 17/13 A2997 RMK TRACE SC=
200904061100 METAR MROC 061100Z 07006KT CAVOK 18/14 A2998 RMK TRACE SC CI=
200904061200 METAR MROC 061200Z 07006KT CAVOK 18/13 A3001 RMK TRACE SC CI=
200904061300 METAR MROC 061300Z 08010KT CAVOK 21/13 A3002 RMK TRACE SC NOSIG=
200904061400 METAR MROC 061400Z 10012KT CAVOK 23/11 A3004 RMK TRACE SC HZ W NOSIG=
200904061500 METAR MROC 061500Z 11010KT CAVOK 26/12 A3005 RMK TRACE SC LGT HZ W NOSIG=
200904061600 METAR MROC 061600Z 10010KT CAVOK 28/11 A3003 RMK TRACE SC HZ LGT W NOSIG=
200904061700 METAR MROC 061700Z 10007KT CAVOK 29/11 A3001 RMK VEL MAX VT 12KTS TRACE CU HZ LGT W NOSIG=
200904061800 METAR MROC 061800Z 10008KT CAVOK 31/12 A2999 RMK TRACE CU HZ LGT W NOSIG=
200904061900 METAR MROC 061900Z 11008KT CAVOK 31/10 A2995 RMK TRACE CU VL MX VT 13KTS NOSIG=
200904062000 METAR MROC 062000Z 11007KT 9999 FEW045 32/11 A2994 RMK VEL MAX VT 11KTS NOSIG=
200904062100 METAR MROC 062100Z 18006KT 9999 FEW045 28/16 A2993 BECMG 22010KT=
200904062200 METAR MROC 062200Z 19007KT 9999 FEW045 28/16 A2992 BECMG 24006=
200904062300 METAR MROC 062300Z 14006KT 9999 FEW045 27/14 A2994 NOSIG=
200904070000 METAR MROC 070000Z 14006KT 9999 FEW045 25/15 A2996 NOSIG=
200904070100 METAR MROC 070100Z 08005KT 9999 FEW040 23/14 A3000 NOSIG=
200904070200 METAR MROC 070200Z 09005KT 9999 FEW035 22/14 A3002 NOSIG=
200904070300 METAR MROC 070300Z 11006KT CAVOK 21/15 A3004 RMK TRACE SC NOSIG=
200904070400 METAR MROC 070400Z 10005KT CAVOK 21/14 A3006 RMK TRACE SC NOSIG=
200904070500 METAR MROC 070500Z 08007KT CAVOK 20/14 A3007 RMK TRACE SC NOSIG=
200904070600 METAR MROC 070600Z 07006KT CAVOK 20/14 A3005 RMK TRACE SC NOSIG=
200904070700 METAR MROC 070700Z 06005KT CAVOK 20/13 A3004 RMK TRACE SC=
200904070800 METAR MROC 070800Z 05007KT CAVOK 18/13 A3003 RMK TRACE SC=
200904070900 METAR MROC 070900Z 07005KT CAVOK 18/12 A3002 RMK TRACE SC=
200904071000 METAR MROC 071000Z 08006KT CAVOK 19/12 A3002 RMK TRACE SC=
200904071100 METAR MROC 071100Z 04009KT CAVOK 19/12 A3004 RMK TRACE SC=
200904071200 METAR MROC 071200Z 04004KT CAVOK 18/12 A3006 RMK TRACE SC CI=
200904071300 METAR MROC 071300Z 04006KT CAVOK 22/12 A3009 RMK TRACE SCT/CI NOSIG=
200904071400 METAR MROC 071400Z 09008KT CAVOK 25/14 A3011 RMK FEW SC/CI NOSIG=
200904071500 METAR MROC 071500Z 11013KT CAVOK 26/14 A3012 RMK TRACE SCT/CI MAX/ WIND 19KT NOSIG=
200904071600 METAR MROC 071600Z 09013G23KT CAVOK 27/13 A3011 RMK TRACE SCT NOSIG=
200904071651 METAR MROC 071651Z 071707KT 9999 SCT040 30/22 A3000 RMK HZY=
200904071700 METAR MROC 071700Z 08013KT CAVOK 28/12 A3009 RMK TRAZAS SCT MAX/ WIND 18KT NOSIG=
200904071800 METAR MROC 071800Z 08013KT CAVOK 29/11 A3007 RMK TRAZAS SCT MAX/ WIND 20KT NOSIG=
200904071900 METAR MROC 071900Z 07015KT CAVOK 30/12 A3004 RMK TRAZAS SCT MAX/ WIND 22KT NOSIG=
200904072000 METAR MROC 072000Z 07016KT 9999 FEW040 29/13 A3001 RMK MAX/ WIND 22KT NOSIG=
200904072100 METAR MROC 072100Z 05020KT 9999 FEW045 29/12 A3000 RMK VL MX VTO 25KT NOSIG=
200904072200 METAR MROC 072200Z 06022KT 9999 FEW045 27/12 A3001 RMK VL MX VTO  27KT NOSIG=
200904072300 METAR MROC 072300Z 06020KT 9999 FEW040 25/12 A3002 RMK VL MX VTO  25KT NOSIG=
200904080000 METAR MROC 080000Z 07014KT 9999 FEW040 23/13 A3004 RMK VL/MX/VTO/ 21KT NOSIG=
200904080100 METAR MROC 080100Z 07010KT 9999 FEW035 21/11 A3007 RMK VL MX VTO  16KT NOSIG=
200904080200 METAR MROC 080200Z 10010KT 9999 FEW035 20/12 A3009 NOSIG=
200904080300 METAR MROC 080300Z 09010KT CAVOK 20/10 A3010 RMK VL MX VT 18KTS TRACE SCT NOSIG=
200904080400 METAR MROC 080400Z 10012G22KT CAVOK 20/10 A3011 RMK TRACE SCT NOSIG=
200904080500 METAR MROC 080500Z 10010G20KT CAVOK 20/09 A3010 RMK TRACE SC NOSIG=
200904080600 METAR MROC 080600Z 09012KT CAVOK 20/08 A3008 RMK TRACE SCT VL MX VT 20KTS NOSIG=
200904080700 METAR MROC 080700Z 11011G22KT CAVOK 20/09 A3006 RMK TRACE SC NOSIG=
200904080800 METAR MROC 080800Z 10012KT CAVOK 20/09 A3005 RMK VL MX VT 17KTS TRACE SCT NOSIG=
200904080900 METAR MROC 080900Z 10011KT CAVOK 19/09 A3004 RMK VL MX VT 18KTS TRACE SCT NOSIG=
200904081000 METAR MROC 081000Z 10013KT CAVOK 20/09 A3005 RMK TRACE SCT VL MX VT 18KTS NOSIG=
200904081100 METAR MROC 081100Z 09011KT CAVOK 19/09 A3005 RMK TRACE SCT VL MX VT 18KTS NOSIG=
200904081200 METAR MROC 081200Z 09011KT CAVOK 19/08 A3007 RMK TRACE SC CI VL MX VT 19KTS NOSIG=
200904081300 METAR MROC 081300Z 10013KT CAVOK 22/06 A3008 RMK TRAZAS CI VEL VTO MAX 23KT=
200904081400 METAR MROC 081400Z 11016KT CAVOK 23/05 A3009 RMK CI280 VL MX VTO  23KT NOSIG=
200904081500 METAR MROC 081500Z 10014KT CAVOK 26/07 A3011 RMK FEW280 VL MX VTO  19KT NOSIG=
200904081600 METAR MROC 081600Z 08014KT CAVOK 28/08 A3011 RMK FEW280 VL MX VTO  20KT NOSIG=
200904081700 METAR MROC 081700Z 08014KT CAVOK 28/10 A3009 RMK FEW280 VL MX VTO  20KT NOSIG=
200904081800 METAR MROC 081800Z 08013KT 9999 FEW045 29/13 A3008 RMK FEW280 VL MX VTO  19KT NOSIG=
200904081900 METAR MROC 081900Z 09014KT 9999 FEW045 27/13 A3006 RMK FEW280 VL MX VTO  22KT NOSIG=
200904082000 METAR MROC 082000Z 09015KT 9999 FEW045 SCT280 27/13 A3002 RMK VL MX VTO  21KT NOSIG=
200904082100 METAR MROC 082100Z 10013KT 9999 FEW035 SCT270 27/13 A3001 RMK VEL MAX VTO 19KT NOSIG=
200904082200 METAR MROC 082200Z 12013KT 9999 FEW035 SCT250 27/12 A3000 RMK VEL MAX VTO 21KT NOSIG=
200904082300 METAR MROC 082300Z 11013KT 9999 FEW035 BKN250 24/12 A3001 RMK VEL MAX VTO 20KT NOSIG=
200904090000 METAR MROC 090000Z 09011KT 9999 FEW035 BKN250 23/12 A3003 RMK VEL MAX 17KT NOSIG=
200904090100 METAR MROC 090100Z 10011KT 9999 FEW035 SCT250 22/14 A3006 RMK VEL MAX VTO 19KT NOSIG=
200904090200 METAR MROC 090200Z 12011KT 9999 FEW035 SCT250 21/14 A3007 NOSIG=
200904090300 METAR MROC 090300Z 10010KT CAVOK 21/14 A3009 RMK TRZAS SCT/CI NOSIG=
200904090400 METAR MROC 090400Z 10010KT CAVOK 20/14 A3009 RMK TRAZAS SC/CI NOSIG=
200904090500 METAR MROC 090500Z 10010KT CAVOK 20/14 A3009 RMK TRAZAS SC/CI NOSIG=
200904090600 METAR MROC 090600Z 10010KT CAVOK 20/14 A3007 RMK TRAZAS SCT/CI NOSIG=
200904090700 METAR MROC NIL=
200904090800 METAR MROC 090800Z 08005KT CAVOK 19/14 A3003 RMK TRAZAS SCT FEW280 NOSIG=
200904090900 METAR MROC 090900Z 09005KT CAVOK 19/13 A3004 RMK FEW300 NOSIG=
200904091000 METAR MROC 091000Z 10006KT CAVOK 19/14 A3001 RMK FEW300=
200904091100 METAR MROC 091100Z 09004KT CAVOK 19/14 A3003 RMK TRAZAS SCT BKN280 NOSIG=
200904091200 METAR MROC 091200Z 04003KT CAVOK 20/14 A3004 RMK TRAZAS SCT BKN280 NOSIG=
200904091300 METAR MROC 091300Z 11011KT CAVOK 21/15 A3005 RMK TRACE SC BKN250 VEL MAX VTO 16KT NOSIG=
200904091400 METAR MROC 091400Z 11011KT CAVOK 24/14 A3007 RMK TRACE SC BKN250 VEL MAX VTO 14KT NOSIG=
200904091500 METAR MROC 091500Z 11009KT CAVOK 26/13 A3008 RMK TRACE SC BKN250 VEL MAX VTO 16KT NOSIG=
200904091600 METAR MROC 091600Z 12009KT CAVOK 28/14 A3006 RMK TRACE SC BKN250 VEL MAX VTO 14KT NOSIG=
200904091700 METAR MROC 091700Z 12007KT 9999 FEW040 BKN250 29/14 A3006 RMK VEL MAX VTO 15KT NOSIG=
200904091800 METAR MROC 091800Z 08009KT 9999 FEW040 BKN250 30/14 A3003 NOSIG=
200904091900 METAR MROC 091900Z 09008KT 9999 SCT040 SCT250 29/15 A3001 RMK VEL MAX VTO 15KT NOSIG=
200904092000 METAR MROC 092000Z 09009KT 9999 FEW040 SCT300 30/15 A2997 RMK VEL MAX VTO 16KT NOSIG=
200904092100 METAR MROC 092100Z 09011KT 9999 FEW035 29/15 A2995 RMK FEW250 NOSIG=
200904092200 METAR MROC 092200Z 09012KT 9999 FEW035 27/16 A2996 RMK FEW250 NOSIG=
200904092300 METAR MROC 092300Z 09010KT 9999 SCT030 25/15 A2997 RMK FEW250 VEL MAX VTO 16KT NOSIG=
200904100000 METAR MROC 100000Z 11011KT 9999 FEW030 SCT250 23/16 A3000 RMK DZ DST NE NOSIG=
200904100100 METAR MROC 100100Z 10011KT 9999 FEW030 SCT250 22/15 A3001 NOSIG=
200904100200 METAR MROC 100200Z 10008KT 9999 FEW030 21/14 A3003 NOSIG=
200904100300 METAR MROC 100300Z 11008KT 9999 FEW030 21/14 A3004 NOSIG=
200904100400 METAR MROC 100400Z 09009KT 9999 FEW030 21/14 A3006 NOSIG=
200904100500 METAR MROC 100500Z 08009KT 9999 FEW030 21/15 A3006 NOSIG=
200904100600 METAR MROC 100600Z 10007KT CAVOK 20/15 A3005 RMK FEW120 NOSIG=
200904100700 METAR MROC 100700Z 11005KT CAVOK 20/15 A3003 RMK FEW120 NOSIG=
200904100800 METAR MROC 100800Z 09005KT CAVOK 20/15 A3001 RMK FEW120=
200904100900 METAR MROC 100900Z 07005KT CAVOK 19/14 A3001 RMK TRAZAS SC=
200904101000 METAR MROC 101000Z 08007KT CAVOK 19/14 A3001 RMK TRAZAS SC=
200904101100 METAR MROC 101100Z 06009KT CAVOK 18/14 A3003 RMK FEW120=
200904101200 METAR MROC 101200Z 04008KT CAVOK 18/14 A3005 RMK FEW120 FEW280=
200904101300 METAR MROC 101300Z 10014KT CAVOK 21/14 A3007 RMK BKN250 NOSIG=
200904101400 METAR MROC 101400Z 10013KT CAVOK 23/13 A3009 RMK BKN250 NOSIG=
200904101500 METAR MROC 101500Z 10013KT CAVOK 25/14 A3009 RMK BKN250 NOSIG=
200904101600 METAR MROC 101600Z 10008KT CAVOK 27/14 A3008 RMK TRACE CU SCT250 NOSIG=
200904101700 METAR MROC 101700Z 10011KT CAVOK 30/12 A3007 RMK TRACE CU SCT250 NOSIG=
200904101800 METAR MROC 101800Z 09009KT CAVOK 30/11 A3004 RMK TRACE CU SCT250 NOSIG=
200904101900 METAR MROC 101900Z 05008KT 9999 FEW035 31/12 A3001 NOSIG=
200904102000 METAR MROC 102000Z 26011KT 9999 FEW030 29/16 A2999 NOSIG=
200904102100 METAR MROC 102100Z 24010KT 9999 FEW020 SCT040 29/18 A2997 RMK TRACE CI NOSIG=
200904102200 METAR MROC 102200Z 20010KT 9999 FEW020 SCT030 26/20 A2998 RMK VIS SW 8KM DUE RASH VEL MAX VT 16KTS NOSIG=
200904102300 METAR MROC 102300Z 17006KT 9999 FEW030 SCT040 24/19 A2999 RMK FU NEAR RNWAY NOSIG=
200904102357 METAR MROC 110000Z 13005KT 9999 SCT040 24/16 A3001 RMK FEW080 NOSIG=
200904110000 METAR MROC 110000Z 13005KT 9999 SCT040 24/16 A3001 RMK FEW080 NOSIG=
200904110100 METAR MROC 110100Z 12007KT CAVOK 23/16 A3003 RMK SCT070 NOSIG=
200904110200 METAR MROC 110200Z 09007KT CAVOK 22/16 A3005 RMK TRAZAS CU SCT070 NOSIG=
200904110300 METAR MROC 110300Z 10006KT CAVOK 22/16 A3008 RMK TRACE SC SCT050 NOSIG=
200904110400 METAR MROC 110400Z 08006KT CAVOK 22/16 A3009 RMK TRACE SC AC NOSIG=
200904110500 METAR MROC 110500Z 09006KT CAVOK 21/16 A3008 RMK TRACE SC NOSIG=
200904110600 METAR MROC 110600Z 08007KT CAVOK 21/16 A3006 RMK TRACE SC NOSIG=
200904110700 METAR MROC 110700Z 08007KT CAVOK 21/16 A3004 RMK TRACE SC NOSIG=
200904110800 METAR MROC 110800Z 07007KT CAVOK 21/16 A3003 RMK TRACE SC=
200904110900 METAR MROC 110900Z 08006KT CAVOK 20/15 A3002 RMK TRACE SC NOSIG=
200904111000 METAR MROC 111000Z 08007KT CAVOK 20/15 A3003 RMK TRACE SC=
200904111100 METAR MROC 111100Z 07007KT CAVOK 19/14 A3005 RMK TRACE SC=
200904111200 METAR MROC 111200Z 06008KT CAVOK 20/14 A3006=
200904111300 METAR MROC 111300Z 10008KT CAVOK 23/14 A3008 RMK TRACE SCT NOSIG=
200904111400 METAR MROC 111400Z 10008KT CAVOK 26/13 A3010 RMK TRACE SC CI NOSIG=
200904111500 METAR MROC 111500Z 12010KT CAVOK 27/13 A3010 RMK TRACE SC CI VL MX VT0 16KTS NOSIG=
200904111600 METAR MROC 111600Z 12010KT CAVOK 29/13 A3009 RMK TRACE CI CU VL MX VTO 14KTS NOSIG=
200904111700 METAR MROC 111700Z 10011KT 9999 FEW040 30/14 A3008 RMK VL MX VT 15KTS NOSIG=
200904111754 METAR MROC 171800Z 11009KT 9999 FEW040 31/15 A3006 RMK VL MX VTO 14KTS NOSIG=
200904111800 METAR MROC 111800Z 11009KT 9999 FEW040 31/15 A3006 RMK VL MX VTO 14KTS NOSIG=
200904111900 METAR MROC 111900Z 09014KT 9999 FEW040 31/15 A3003 NOSIG=
200904112000 METAR MROC 112000Z 10013KT 9999 FEW040 31/15 A3001 RMK TCU RN DST SW NOSIG=
200904112100 METAR MROC 112100Z 10009KT 9999 FEW040 29/16 A2999 NOSIG=
200904112200 METAR MROC 112200Z 10008KT 9999 FEW040 28/16 A2998 RMK TCU SW NOSIG=
200904112300 METAR MROC 112300Z 10009KT 9999 FEW040 27/16 A2999 RMK FEW070 TCU SW NOSIG=
200904112330 METAR MROC 112330Z 10013KT 9999 FEW030 23/17 A2997 RMK MAX  WIND 18KT=
200904120000 METAR MROC 120000Z 10008KT 9999 FEW040 SCT280 24/17 A3000 NOSIG=
200904120100 METAR MROC 120100Z 11006KT CAVOK 23/17 A3002 RMK TRAZAS SC NOSIG=
200904120200 METAR MROC 120200Z 10007KT CAVOK 22/17 A3004 RMK TRAZAS SC NOSIG=
200904120300 METAR MROC 120300Z 10009KT CAVOK 22/17 A3006 RMK TRACE SC NOSIG=
200904120400 METAR MROC 120400Z 08004KT CAVOK 22/16 A3006 RMK TRACE SC NOSIG=
200904120500 METAR MROC 120500Z 07006KT CAVOK 21/16 A3005 RMK TRACE SC NOSIG=
200904120600 METAR MROC 120600Z 06007KT CAVOK 21/15 A3003 RMK TRACE SC NOSIG=
200904120700 METAR MROC 120700Z 06008KT CAVOK 21/16 A3001 RMK TRACE SC=
200904120800 METAR MROC 120800Z 07004KT CAVOK 21/16 A2999 RMK TRACE SC=
200904120900 METAR MROC 120900Z 01006KT CAVOK 20/16 A2998 RMK TRACE SC=
200904121000 METAR MROC 121000Z 09005KT CAVOK 21/16 A2999 RMK TRACE SC=
200904121100 METAR MROC 121100Z 04003KT CAVOK 20/16 A3001 RMK TRACE SC=
200904121200 METAR MROC 121200Z 06007KT 9999 FEW025 21/16 A3002 RMK DZ DST NE E=
200904121220 METAR MROC 121220Z 00000KT 9999 FEW030 23/20 A2985=
200904121300 METAR MROC 121300Z 10010G20KT 9999 FEW040 23/17 A3004 RMK CB/DZ N NOSIG=
200904121400 METAR MROC 121400Z 11009KT 9999 FEW035 24/17 A3007 RMK FEW070 NOSIG=
200904121500 METAR MROC 121500Z 11013KT 9999 SCT035 27/17 A3007 RMK DZ N MAX/ WIND 17KT NOSIG=
200904121600 METAR MROC 121600Z 09011KT 9999 BKN035 28/16 A3008 RMK DZ N NOSIG=
200904121700 METAR MROC 121700Z 10009KT 9999 BKN040 28/16 A3007 NOSIG=
200904121800 METAR MROC 121800Z 10011KT 9999 SCT035 29/16 A3004 NOSIG=
200904121900 METAR MROC 121900Z 12009KT 9999 SCT040 30/16 A3001 NOSIG=
200904122000 METAR MROC 122000Z 12010KT 9999 SCT030 SCT050 28/16 A2998 RMK DZ NW N NE TCU S NOSIG=
200904122100 METAR MROC 122100Z 06010KT 9999 SCT035 SCT090 28/14 A2997 RMK CB/LTNG/RN DST SW NOSIG=
200904122200 METAR MROC 122200Z 11006KT 9999 FEW035 SCT260 26/16 A2997 RMK FEW100 CB DST SW NOSIG=
200904122300 METAR MROC 122300Z 29006KT 9999 SCT035 SCT260 23/18 A2999 RMK FEW100 CB DST SW=
200904130000 METAR MROC 130000Z 30002KT 9999 SCT035 SCT260 23/18 A3000 NOSIG=
200904130100 METAR MROC 130100Z 05003KT 9999 SCT030 23/17 A3001 RMK FEW260 NOSIG=
200904130200 METAR MROC 130200Z 10007KT 9999 FEW030 23/16 A3002 RMK FEW260 NOSIG=
200904130300 METAR MROC 130300Z 12010KT 9999 FEW030 22/17 A3002 NOSIG=
200904130400 METAR MROC 130400Z 10010KT CAVOK 22/16 A3003 RMK TRACE SCT NOSIG=
200904130500 METAR MROC 130500Z 11012KT CAVOK 22/16 A3003 RMK TRACE SCT NOSIG=
200904130600 METAR MROC 130600Z 06008KT CAVOK 21/16 A3002 RMK TRACE SCT NOSIG=
200904130700 METAR MROC 130700Z 08006KT CAVOK 21/16 A3000 RMK TRACE SCT NOSIG=
200904130800 METAR MROC 130800Z 03006KT CAVOK 20/19 A3000 RMK TRACE SCT NOSIG=
200904130900 METAR MROC 130900Z 04008KT CAVOK 20/16 A3000 RMK TRACE SCT NOSIG=
200904131000 METAR MROC 131000Z 06007KT CAVOK 19/16 A2999 RMK TRACE SCT NOSIG=
200904131100 METAR MROC 131100Z 07006KT CAVOK 19/15 A3002 RMK TRACE SCT NOSIG=
200904131200 METAR MROC 131200Z 06006KT CAVOK 19/15 A3002 RMK TRACE SC SCT250 TCU=
200904131300 METAR MROC 131300Z 10005KT CAVOK 23/15 A3004 RMK FEW250 NOSIG=
200904131400 METAR MROC 131400Z 09007KT CAVOK 25/15 A3005 RMK FEW250 NOSIG=
200904131500 METAR MROC 131500Z 11006KT CAVOK 27/14 A3005 RMK FEW280 NOSIG=
200904131600 METAR MROC 131600Z 02502KT 9999 FEW040 30/12 A3003 RMK FEW280 BECMG 24005KT=
200904131700 METAR MROC 131700Z 23007KT 9999 FEW040 30/14 A3001 RMK FEW280 NOSIG=
200904131800 METAR MROC 131800Z 25007KT 9999 FEW040 SCT280 30/15 A2998 BECMG 8000=
200904131900 METAR MROC 131900Z 23011KT 9999 SCT040 SCT280 30/16 A2996 BECMG 7000=
200904132000 METAR MROC 132000Z 27012KT 9999 FEW030TCU SCT040 31/18 A2993 RMK SCT280 TCU IN THE STND BECMG 7000 VCSH=
200904132100 METAR MROC 132100Z 23013KT 9999 FEW025TCU SCT040 29/19 A2993 RMK LGT HZ ARND NOSIG=
200904132200 METAR MROC 132200Z 24012KT 9999 FEW025TCU SCT035 BKN250 25/20 A2994 RMK LGT HZ ARND NOSIG=
200904132300 METAR MROC 132300Z 22006KT 9999 -RA FEW020TCU BKN050 23/20 A2997 RMK HZY NOSIG=
200904140000 METAR MROC 140000Z 21007KT 9999 FEW020CB BKN030 23/21 A3000 RMK RASH=
200904140001 METAR MROC 140001Z COR 21007KT 9999 FEW020CB BKN030 23/21 A3000 RERA RMK RASH DIST E SE BECMG 6000 RA=
200904140100 METAR MROC 140100Z 20003KT 9999 -RA SCT020 BKN030 22/21 A3003 NOSIG=
200904140200 METAR MROC 140200Z 30003KT 9999 SCT015 BKN035 21/20 A3004 RERA RMK HZY NOSIG=
200904140300 METAR MROC 140300Z 34002KT 9999 SCT035 BKN250 21/20 A3006 NOSIG=
200904140400 METAR MROC 140400Z 08002KT 9999 FEW035 SCT100 BKN250 21/20 A3006 NOSIG=
200904140500 METAR MROC 140500Z 00000KT 9999 FEW045 SCT080 BKN250 21/20 A3006 NOSIG=
200904140600 METAR MROC 140600Z 00000KT 9999 BKN045 21/20 A3005 NOSIG=
200904140700 METAR MROC 140700Z 01002KT 9999 FEW030 SCT045 21/20 A3004 NOSIG=
200904140800 METAR MROC NIL=
200904140900 METAR MROC 140900Z 08003KT 9999 SCT035 SCT050 21/18 A2999 NOSIG=
200904141000 METAR MROC 141000Z 09004KT 9999 SCT040 SCT250 21/17 A3000 NOSIG=
200904141100 METAR MROC NIL=
200904141200 METAR MROC 141200Z 09003KT 9999 SCT040 SCT080 21/17 A3002 NOSIG=
200904141300 METAR MROC 141300Z 09006KT 9999 FEW035 SCT090 BKN250 22/17 A3003 RMK VEL MAX VTO 12KT NOSIG=
200904141400 METAR MROC 141400Z 09008KT CAVOK 24/17 A3004 RMK TRACE SC BKN250 VEL MAX VTO 14KT NOSIG=
200904141500 METAR MROC 141500Z 09006KT CAVOK 25/17 A3003 RMK TRACE SCT BKN250 VEL MAX VTO 16KT NOSIG=
200904141600 METAR MROC 141600Z 10009KT CAVOK 27/17 A3003 RMK TRACE CU SC BKN250 VEL MAX VTO 15KT NOSIG=
200904141700 METAR MROC 141700Z 10009KT 9999 FEW040 BKN250 28/17 A3003 RMK LGT HZ ARND NOSIG=
200904141800 METAR MROC 141800Z 09007KT 9999 FEW040 BKN250 29/17 A3002 BECMG 24006KT=
200904141900 METAR MROC 141900Z 25009KT 9999 SCT035 BKN250 28/19 A2999 RMK LGT HZ ARND NOSIG=
200904142000 METAR MROC 142000Z 25008KT 9999 FEW025TCU SCT035 BKN250 27/19 A2997 RMK LGT HZ ARND NOSIG=
200904142100 METAR MROC 142100Z 24008KT 9999 SCT025CB SCT035 27/19 A2996 RMK FEW250=
200904142200 METAR MROC 142200Z 25008KT 9999 FEW020CB BKN030 27/19 A2995 RMK RN DST NE SE NOSIG=
200904142300 METAR MROC 142300Z 25007KT 9999 FEW020CB SCT030 26/19 A2998 RMK SCT250 CHECK TEXT NEW ENDING ADDED KATLYTAA=
200904150000 METAR MROC 150000Z 26006KT 9999 FEW030 SCT250 23/19 A2999 NOSIG=
200904150100 METAR MROC 150100Z 24003KT 9999 FEW025 SCT250 23/18 A3001 NOSIG=
200904150200 METAR MROC 150200Z 09004KT 9999 FEW030 SCT250 23/18 A3002 NOSIG=
200904150300 METAR MROC 150300Z 10007KT 9999 FEW030 21/17 A3004 NOSIG=
200904150400 METAR MROC 150400Z 11008KT 9999 FEW030 22/15 A3004 RMK FEW250 NOSIG=
200904150500 METAR MROC 150500Z 09006KT CAVOK 21/14 A3003 RMK SCT280 NOSIG=
200904150600 METAR MROC 150600Z 07006KT CAVOK 20/13 A3002 RMK FEW120 SCT280 NOSIG=
200904150700 METAR MROC 150700Z 07006KT CAVOK 20/12 A3001 RMK FEW120 SCT280 NOSIG=
200904150800 METAR MROC 150800Z 06006KT CAVOK 18/11 A3001 RMK SCT280=
200904150900 METAR MROC 150900Z 08004KT CAVOK 17/12 A3000 RMK FEW280=
200904151000 METAR MROC 151000Z 05006KT CAVOK 17/11 A3001 RMK FEW280=
200904151100 METAR MROC 151100Z 08005KT CAVOK 18/11 A3002 RMK SCT280=
200904151200 METAR MROC 151200Z 06005KT CAVOK 18/11 A3003 RMK BKN280=
200904151300 METAR MROC 151300Z 09006KT CAVOK 22/13 A3005 RMK SCT250 NOSIG=
200904151400 METAR MROC 151400Z 10008KT CAVOK 24/14 A3007 RMK BKN250 NOSIG=
200904151500 METAR MROC 151500Z 12007KT CAVOK 26/14 A3007 RMK BKN250=
200904151600 METAR MROC 151600Z 09008KT CAVOK 28/13 A3006 RMK TRACE CU BKN250 NOSIG=
200904151700 METAR MROC 151700Z 11007KT 9999 FEW040 BKN250 29/12 A3004 NOSIG=
200904151800 METAR MROC 151800Z 13005KT 9999 SCT035 BKN250 31/12 A3001 BECMG 24006KT=
200904151900 METAR MROC 151900Z 23007KT 9999 FEW035 SCT070 BKN250 30/15 A2999 NOSIG=
200904152000 METAR MROC 152000Z 24010KT 9999 FEW020TCU SCT070 BKN250 30/18 A2998 NOSIG=
200904152100 METAR MROC 152100Z 22008KT 9999 SCT030TCU BKN250 27/20 A2997 NOSIG=
200904152200 METAR MROC 152200Z 21008KT 9999 SCT040 BKN250 27/18 A2996 NOSIG=
200904152300 METAR MROC 152300Z 10009KT 9999 FEW040 BKN250 26/16 A2997 NOSIG=
200904152354 METAR MROC 152354Z 10010KT 9999 FEW040 BKN250 24/17 A3000 RMK TCU DIST S MX VEL 13KTS NOSIG=
200904160000 METAR MROC 160000Z 10010KT 9999 FEW040 BKN250 24/17 A3000 RMK TCU DIST S MX VEL 13KTS NOSIG=
200904160100 METAR MROC 160100Z 11010KT 9999 FEW040 BKN250 22/17 A3002 NOSIG=
200904160200 METAR MROC 160200Z 07006KT 9999 FEW040 SCT250 22/15 A3005 NOSIG=
200904160300 METAR MROC 160300Z 09006KT 9999 FEW040 SCT250 21/16 A3007 NOSIG=
200904160400 METAR MROC 160400Z 10006KT 9999 FEW040 SCT250 21/16 A3008 NOSIG=
200904160500 METAR MROC 160500Z 07006KT 9999 FEW040 SCT250 21/15 A3007 NOSIG=
200904160600 METAR MROC 160600Z 08007KT CAVOK 21/15 A3005 RMK TRACE SC SCT250 NOSIG=
200904160700 METAR MROC 160700Z 07007KT CAVOK 20/15 A3002 RMK TRACE SC SCT250 NOSIG=
200904160800 METAR MROC 160800Z 08007KT CAVOK 20/15 A3001 RMK TRACE SC SCT250 LTNG DST S=
200904160900 METAR MROC 160900Z 09007KT CAVOK 20/14 A2999 RMK TRACE SC SCT250 LTNG DST S=
200904161000 METAR MROC 161000Z 06007KT CAVOK 19/14 A3000 RMK TRACE SC SCT250 LTNG DST S=
200904161100 METAR MROC 161100Z 07008KT CAVOK 20/15 A3002 RMK TRACE SC FEW250 CB=
200904161200 METAR MROC 161200Z 07006KT CAVOK 20/14 A3003 RMK TRACE SC FEW250 CB DST SE S=
200904161300 METAR MROC 161300Z 04006KT CAVOK 22/15 A3005 RMK CB DIST S TRACE SC FEW250 NOSIG=
200904161400 METAR MROC 161400Z 11010KT CAVOK 25/16 A3006 RMK TRACE SC FEW250 CB VRY DIST S VL MX 14KTS NOSIG=
200904161500 METAR MROC 161500Z 11012KT CAVOK 27/15 A3006 RMK TRACE SC SCT250 VL MX 19KTS NOSIG=
200904161600 METAR MROC 161600Z 11011KT CAVOK 29/15 A3005 RMK SCT250 TRACE SCT VL MX 17KTS NOSIG=
200904161700 METAR MROC 161700Z 09010KT 9999 FEW040 SCT250 29/15 A3004 RMK VL MX 17KTS NOSIG=
200904161800 METAR MROC 161800Z 10010KT 9999 FEW040 SCT250 30/15 A3003 RMK VL MX 16KTS NOSIG=
200904161900 METAR MROC 161900Z 10010KT 9999 FEW035 BKN250 30/14 A2999 RMK VL MX 16KTS NOSIG=
200904161955 METAR MROC 102000Z 06008KT 9999 SCT040 29/14 A2997 RMK TRACE CI NOSIG=
200904162000 METAR MROC 162000Z 06008KT 9999 SCT040 29/14 A2997 RMK TRACE CI NOSIG=
200904162100 METAR MROC 162100Z 21009KT 9999 SCT040 29/19 A2996 NOSIG=
200904162200 METAR MROC 162200Z 22010KT 9999 SCT035 SCT250 26/20 A2997 RMK CB DST S NOSIG=
200904162300 METAR MROC 162300Z 23007KT 9999 FEW040 SCT250 25/19 A2998 RMK HZY NOSIG=
200904170000 METAR MROC 170000Z 24008KT 9999 SCT030 SCT045 23/20 A3000 RMK HZY NOSIG=
200904170100 METAR MROC 170100Z 29005KT 9999 FEW035 23/19 A3001 NOSIG=
200904170200 METAR MROC 170200Z 11002KT 9999 SCT035 22/19 A3004 NOSIG=
200904170300 METAR MROC 170300Z 07009KT 9999 FEW035 21/16 A3005 NOSIG=
200904170400 METAR MROC 170400Z 10009KT CAVOK 21/15 A3005 RMK TRACE SC NOSIG=
200904170500 METAR MROC 170500Z 11008KT CAVOK 21/16 A3004 RMK TRACE SC NOSIG=
200904170600 METAR MROC 170600Z 10009KT CAVOK 21/15 A3002 RMK TRACE SC NOSIG=
200904170700 METAR MROC 170700Z 08008KT CAVOK 21/15 A3001 RMK TRACE SC=
200904170800 METAR MROC NIL=
200904170900 METAR MROC 170900Z 09008KT CAVOK 21/15 A2997 RMK TRACE SC=
200904171000 METAR MROC 171000Z 08007KT CAVOK 21/15 A2998 RMK TRACE SC=
200904171100 METAR MROC 171100Z 11008KT CAVOK 21/15 A2998 RMK TRACE SC=
200904171200 METAR MROC 171200Z 09007KT CAVOK 21/15 A3000 RMK SCT250=
200904171300 METAR MROC 171300Z 09006KT CAVOK 24/15 A3001 RMK TRAZAS SCT SCT280 NOSIG=
200904171400 METAR MROC 171400Z 09009KT CAVOK 25/15 A3002 RMK TRAZAS SCT SCT280=
200904171500 METAR MROC 171500Z 10010KT CAVOK 27/15 A3002 RMK TRAZAS SCT BKN280 NOSIG=
200904171600 METAR MROC 171600Z 10011KT CAVOK 28/15 A3002 RMK TRAZAS SCT SCT280 MAX/WIND 17KT NOSIG=
200904171700 METAR MROC 171700Z 08011KT 9999 FEW035 SCT280 29/15 A3001 NOSIG=
200904171800 METAR MROC 171800Z 09010KT 9999 FEW040 SCT280 30/15 A2999 NOSIG=
200904171900 METAR MROC 171900Z 10010KT 9999 FEW040 BKN280 31/16 A2997 NOSIG=
200904172000 METAR MROC 172000Z 11009KT 9999 FEW040 BKN280 30/15 A2995 NOSIG=
200904172100 METAR MROC 172100Z 11008KT 9999 FEW035 SCT280 29/15 A2993 NOSIG=
200904172200 METAR MROC 172200Z 12008KT 9999 SCT035 SCT280 28/15 A2992 RMK HZ LGT ARND NOSIG=
200904172300 METAR MROC 172300Z 13006KT 9999 SCT035 27/16 A2994 RMK FEW110 FEW280 TCU DST N/SSE/S HZ LGT ARND NOSIG=
200904180000 METAR MROC 180000Z 13005KT 9999 SCT035 SCT280 25/16 A2996 RMK TCU DST NE/SSE HZ LGT ARND NOSIG=
200904180100 METAR MROC 180100Z 09008KT 9999 SCT035 23/17 A2999 RMK FEW280 NOSIG=
200904180200 METAR MROC 180200Z 08004KT 9999 FEW035 22/16 A3001 RMK FEW280 NOSIG=
200904180300 METAR MROC 180300Z 09008KT 9999 FEW035 22/17 A3002 RMK TRACE CI NOSIG=
200904180400 METAR MROC 180400Z 10012KT CAVOK 22/17 A3002 RMK TRACE SC NOSIG=
200904180500 METAR MROC 180500Z 11008KT CAVOK 21/17 A3000 RMK TRACE SCT NOSIG=
200904180600 METAR MROC 180600Z 11010KT CAVOK 21/17 A2999 RMK TRACE SCT NOSIG=
200904180700 METAR MROC 180700Z 10012KT CAVOK 21/16 A2996 RMK TRACE SCT NOSIG=
200904180800 METAR MROC 180800Z 11012KT CAVOK 21/17 A2995 RMK TRACE SCT NOSIG=
200904180900 METAR MROC 180900Z 10010KT CAVOK 20/17 A2994 RMK TRACE SCT NOSIG=
200904181000 METAR MROC 181000Z 10010KT CAVOK 21/16 A2993 RMK TRACE SCT NOSIG=
200904181100 METAR MROC 181100Z 10012KT CAVOK 20/16 A2995 RMK TRACE SCT CI NOSIG=
200904181200 METAR MROC 181200Z 08008KT CAVOK 20/16 A2996 RMK TRACE SC BKN250 NOSIG=
200904181300 METAR MROC 181300Z 10010KT CAVOK 22/16 A2998 RMK BKN250 NOSIG=
200904181400 METAR MROC 181400Z 10011KT CAVOK 23/15 A3000 RMK BKN280 NOSIG=
200904181500 METAR MROC 181500Z 10012KT CAVOK 26/15 A3000 RMK SCT280 RMK VL MX VTO 18KT NOSIG=
200904181600 METAR MROC 181600Z 11012KT 9999 FEW045 BKN280 28/15 A3000 RMK VL MX VTO  17KT NOSIG=
200904181700 METAR MROC 181700Z 11010KT 9999 FEW045 BKN280 28/15 A2999 NOSIG=
200904181800 METAR MROC 181800Z 10009KT 9999 FEW045 SCT280 29/15 A2997 NOSIG=
200904181900 METAR MROC 181900Z 09012KT 9999 SCT045 30/14 A2994 RMK FEW280 TCU DST S NOSIG=
200904182000 METAR MROC 182000Z 09011KT 9999 FEW045 29/13 A2992 RMK TCU DST NE/S NOSIG=
200904182100 METAR MROC 182100Z 08009KT 9999 FEW040 30/13 A2982 RMK FEW090 HZY NOSIG=
200904182200 METAR MROC 182200Z 11010KT 9999 FEW040 28/15 A2989 RMK FEW080 HZY NOSIG=
200904182300 METAR MROC 182300Z 11008KT 9999 FEW035 SCT080 26/16 A2991 RMK VEL MAX VTO 14KT HZY NOSIG=
200904190000 METAR MROC 190000Z 12008KT 9999 FEW035 23/16 A2993 RMK FEW080 HZY VEL MAX VTO 12KT NOSIG=
200904190100 METAR MROC 190100Z 10009KT 9999 FEW035 22/16 A2995 RMK TRACE AC VEL MAX VTO 15KT NOSIG=
200904190200 METAR MROC 190200Z 10011KT 9999 FEW035 22/15 A2996 RMK VEL MAX VTO 17KT NOSIG=
200904190300 METAR MROC 190300Z 10012KT CAVOK 21/14 A2998 RMK TRAZAS SCT NOSIG=
200904190400 METAR MROC 190400Z 10009KT CAVOK 21/14 A2999 RMK TRAZAS SCT NOSIG=
200904190500 METAR MROC 190500Z 09009KT CAVOK 20/13 A2999 RMK TRAZAS SCT NOSIG=
200904190600 METAR MROC 190600Z 10011KT CAVOK 20/13 A2997 RMK TRAZAS SC NOSIG=
200904190700 METAR MROC 190700Z 09010KT CAVOK 20/13 A2994 RMK TRAZAS SCT NOSIG=
200904190800 METAR MROC 190800Z 10010KT CAVOK 20/14 A2993 RMK TRAZAS SCT NOSIG=
200904190900 METAR MROC 190900Z 09009KT CAVOK 20/13 A2992 RMK TRAZAS SCT NOSIG=
200904191000 METAR MROC 191000Z 10010KT CAVOK 20/13 A2993 RMK TRAZAS SCT NOSIG=
200904191100 METAR MROC 191100Z 09008KT CAVOK 20/12 A2996 RMK TRAZAS CU NOSIG=
200904191200 METAR MROC 191200Z 08008KT CAVOK 20/12 A2997 RMK TRAZAS CU NOSIG=
200904191300 METAR MROC 191300Z 09010KT CAVOK 22/11 A2999 RMK TRACE SCT FEW250 VEL MAX VTO 17KT NOSIG=
200904191400 METAR MROC 191400Z 10010KT CAVOK 25/11 A3001 RMK TRACE SC FEW250 VEL MAX VTO 15KT NOSIG=
200904191500 METAR MROC 191500Z 10011KT CAVOK 26/12 A3002 RMK TRACE SC SCT250 VEL MAX VTO 18KT NOSIG=
200904191600 METAR MROC 191600Z 11009KT CAVOK 27/13 A3001 RMK TRACE SC FEW120 SCT250 VEL MAX VTO 14KT NOSIG=
200904191700 METAR MROC 191700Z 10010KT 9999 FEW035 29/13 A2999 RMK TRACE AC CI VEL MAX VTO 16KT NOSIG=
200904191800 METAR MROC 191800Z 10009KT 9999 FEW045 30/13 A2997 RMK FEW140 VEL MAX VTO 14KT NOSIG=
200904191900 METAR MROC 191900Z 12006KT 9999 FEW045 30/13 A2993 RMK FEW140 NOSIG=
200904192000 METAR MROC 192000Z 11009KT 9999 FEW045 SCT060 30/14 A2990 RMK VEL MAX VTO 14KT NOSIG=
200904192100 METAR MROC 192100Z 10014KT 9999 SCT040 29/15 A2989 NOSIG=
200904192200 METAR MROC 192200Z 11010KT 9999 SCT040 29/15 A2989 RMK VEL MAX VTO 16KT NOSIG=
200904192300 METAR MROC 192300Z 09011KT 9999 FEW035 26/15 A2990 RMK FEW090 VEL MAX VTO 16KT NOSIG=
200904200000 METAR MROC 200000Z 10010KT 9999 FEW030 23/16 A2992 RMK FEW090 VEL MAX VTO 16KT NOSIG=
200904200100 METAR MROC 200100Z 10006KT 9999 FEW030 22/16 A2996 RMK FEW090 VEL MAX VIENTO 12 KTS NOSIG=
200904200200 METAR MROC 200200Z 08011KT 9999 FEW030 21/17 A2997 NOSIG=
200904200300 METAR MROC 200300Z 10008KT 9999 FEW030 21/17 A2998 NOSIG=
200904200400 METAR MROC 200400Z 09007KT 9999 FEW030 21/16 A2999 NOSIG=
200904200500 METAR MROC 200500Z 09008KT CAVOK 22/16 A2998 RMK TRAZAS SC NOSIG=
200904200600 METAR MROC 200600Z 09008KT CAVOK 21/15 A2996 RMK TRAZAS SC NOSIG=
200904200700 METAR MROC 200700Z 07009KT CAVOK 20/15 A2994 RMK TRAZAS SC NOSIG=
200904200800 METAR MROC 200800Z 08008KT CAVOK 21/16 A2993 RMK TRAZAS SC=
200904200900 METAR MROC 200900Z 07009KT CAVOK 21/15 A2993 RMK TRAZAS SC=
200904201000 METAR MROC 201000Z 07009KT CAVOK 20/15 A2994 RMK TRAZAS SC=
200904201100 METAR MROC 201100Z 07008KT CAVOK 20/15 A2995 RMK TRAZAS SC=
200904201200 METAR MROC 201200Z 08008KT CAVOK 20/15 A2997 RMK TRAZAS SC=
200904201300 METAR MROC 201300Z 11011KT CAVOK 23/15 A2999 RMK TRAZAS SC NOSIG=
200904201400 METAR MROC 201400Z 10011KT CAVOK 25/15 A3000 RMK TRAZAS SC VEL MAX VTO 17KTS NOSIG=
200904201500 METAR MROC 201500Z 11012KT CAVOK 26/15 A2999 RMK TRACE SC VEL MAX VTO  17KT NOSIG=
200904201600 METAR MROC 201600Z 10011KT CAVOK 28/16 A2999 RMK TRACE SC TCU DST SW VEL MAX VTO  18KT NOSIG=
200904201700 METAR MROC 201700Z 10012KT 9999 FEW035 29/16 A2999 NOSIG=
200904201800 METAR MROC 201800Z 09010KT 9999 SCT035 30/16 A2997 RMK VEL MAX VTO  17KT NOSIG=
200904201900 METAR MROC 201900Z 11013KT 9999 SCT035 30/16 A2994 NOSIG=
200904202000 METAR MROC 202000Z 09013KT 9999 SCT035 30/17 A2992 RMK CB DST SW NOSIG=
200904202100 METAR MROC 202100Z 10010KT 9999 FEW020 SCT080 28/16 A2991 RMK CB AND RASH DIST SW NOSIG=
200904202200 METAR MROC 202200Z 10012KT 9999 FEW020 SCT150 25/17 A2992 RMK RASH AND CB DIST SSW RN NE NOSIG=
200904202300 METAR MROC 202300Z 10010KT 9999 FEW030 SCT080 BKN250 24/17 A2995 RMK RN NE DIST NOSIG=
200904202358 METAR MROC 210000Z 10012KT 9999 FEW030 SCT090 23/16 A2997 RMK VL MX 18KTS NOSIG=
200904210000 METAR MROC 210000Z 10012KT 9999 FEW030 SCT090 23/16 A2997 RMK VL MX 18KTS NOSIG=
200904210100 METAR MROC 210100Z 10012KT 9999 FEW030 23/16 A2999 RMK VEL/MAX/WIND 19KTS NOSIG=
200904210200 METAR MROC 210200Z 10009KT 9999 FEW030 22/15 A3001 NOSIG=
200904210300 METAR MROC 210300Z 09008KT 9999 FEW035 21/17 A3002 RMK VEL MAX VTO 14KT NOSIG=
200904210400 METAR MROC 210400Z 07009KT 9999 FEW035 22/15 A3003 NOSIG=
200904210500 METAR MROC 210500Z 08011KT 9999 FEW035 22/14 A3004 NOSIG=
200904210600 METAR MROC 210600Z 10010KT CAVOK 22/14 A3002 RMK TRACE SC=
200904210700 METAR MROC 210700Z 11011KT CAVOK 21/15 A3000 RMK TRACE SC VEL MAX VTO 18KT NOSIG=
200904210800 METAR MROC 210800Z 08008KT CAVOK 21/14 A2998 RMK TRACE SC VEL MAX VTO 14KT=
200904210900 METAR MROC 210900Z 10010KT CAVOK 21/14 A2997 RMK TRACE SC VEL MAX VTO 18KT=
200904211000 METAR MROC 211000Z 10007KT CAVOK 21/15 A2999 RMK TRACE SC VEL MAX VTO 12KT=
200904211100 METAR MROC 211100Z 11011KT CAVOK 21/15 A3000 RMK TRACE SC VEL MAX VTO 17KT=
200904211200 METAR MROC 211200Z 11011KT CAVOK 22/15 A3001 RMK TRACE SC CI VEL MAX VTO 18KT=
200904211300 METAR MROC 211300Z 10010G20KT CAVOK 23/16 A3003 RMK TRACE SC CI NOSIG=
200904211400 METAR MROC 211400Z 11014G24KT CAVOK 24/16 A3004 RMK DZ ENE TRACE SC NOSIG=
200904211500 METAR MROC 211500Z 10016KT 9999 FEW040 26/16 A3006 RMK TRACE CI DZ ENE VL MX 24KTS NOSIG=
200904211600 METAR MROC 211600Z 10015G25KT 9999 FEW040 28/15 A3005 RMK TRACE AC DZ ENE NOSIG=
200904211700 METAR MROC 211700Z 11014KT 9999 FEW040 29/15 A3004 RMK FEW100 DZ NE=
200904211800 METAR MROC 211800Z 10013KT 9999 FEW040 SCT120 29/16 A3003 RMK VL MX 18KTS DZ NE NOSIG=
200904211900 METAR MROC 211900Z 09015KT 9999 FEW040 28/16 A3000 RMK VL MX 20KTS DZ ENE FEW120 NOSIG=
200904212000 METAR MROC 212000Z 10015KT 9999 FEW040 SCT260 29/15 A2997 RMK VL MX 22KTS DZ ENE TRACE AC CB DIST W NOSIG=
200904212100 METAR MROC 212100Z 08012KT 9999 FEW030 SCT120 BKN250 28/15 A2997 RMK CB DST S NOSIG=
200904212200 METAR MROC 212200Z 08013KT 9999 FEW030 SCT050 BKN250 27/16 A2998 RMK CB DST SE NOSIG=
200904212300 METAR MROC 212300Z 08010KT 9999 FEW045 BKN250 26/16 A2999 RMK CB SE NOSIG=
200904220000 METAR MROC 220000Z 08011KT 9999 FEW045 BKN250 25/16 A3001 RMK CB DST SE NOSIG=
200904220100 METAR MROC 220100Z 08010KT 9999 FEW035 SCT250 24/16 A3003 RMK LTNG DST S NOSIG=
200904220200 METAR MROC 220200Z 07011KT 9999 FEW035 24/16 A3006 NOSIG=
200904220300 METAR MROC 220300Z 10007KT CAVOK 23/18 A3007 RMK TRACE SC LTNG DST S NOSIG=
200904220400 METAR MROC 220400Z 10012KT CAVOK 23/17 A3007 RMK TRACE SC LTNG DST SSW NOSIG=
200904220500 METAR MROC 220500Z 07007KT CAVOK 23/18 A3007 RMK TRACE SC SCT100 NOSIG=
200904220600 METAR MROC 220600Z 10010KT 9999 FEW035 SCT100 23/19 A3005=
200904220700 METAR MROC 220700Z 12010G20KT 9999 FEW035 SCT110 25/17 A3002=
200904220800 METAR MROC 220800Z 10010KT 9999 FEW035 22/17 A3001=
200904220900 METAR MROC 220900Z 10012KT CAVOK 22/17 A2999 RMK TRACE SC AC VEL MAX VTO 19KT=
200904221000 METAR MROC 221000Z 11012KT CAVOK 23/16 A3001 RMK FEW120=
200904221100 METAR MROC 221100Z 10010KT 9999 FEW030 SCT090 22/17 A3002=
200904221200 METAR MROC 221200Z 10010KT 9999 FEW030 SCT090 BKN250 23/17 A3002 RMK VEL MAX VTO 18KT DZ DST NE E=
200904221300 METAR MROC 221300Z 10012G22KT 9999 FEW030 SCT120 BKN250 23/17 A3005=
200904221400 METAR MROC 221400Z 10012KT 9999 FEW030 SCT120 BKN250 25/17 A3007 RMK MAX/WIND 18KT NOSIG=
200904221500 METAR MROC 221500Z 09014KT 9999 FEW030 SCT120 BKN250 26/16 A3008=
200904221600 METAR MROC 221600Z 100112G22KT 9999 FEW030 SCT120 BKN250 28/15 A3008 NOSIG=
200904221700 METAR MROC 221700Z 08015KT 9999 FEW030 BKN120 29/15 A3009 RMK SCT250=
200904221800 METAR MROC 221800Z 08012G22KT 9999 FEW030 BKN120 29/14 A3007 NOSIG=
200904221900 METAR MROC 221900Z 08013KT 9999 FEW030 BKN120 28/15 A3003 RMK MAX/ WIND 20KT NOSIG=
200904222000 METAR MROC 222000Z 08016KT 9999 FEW030 BKN250 27/15 A3001 RMK FEW120 BECMG RMK MAX/ WIND 21KT=
200904222100 METAR MROC 222100Z 08014KT 9999 FEW035 BKN120 27/15 A2999 RMK VL MX VTO  22KT NOSIG=
200904222200 METAR MROC 222200Z 07017KT 9999 FEW035 SCT120 26/15 A2999 RMK FEW250 VL MX VTO  23KT NOSIG=
200904222300 METAR MROC 222300Z 06017KT 9999 FEW035 SCT120 25/15 A3000 RMK VL MX VTO  22KT DZ DST E/ESE TCU DST S NOSIG=
200904230000 METAR MROC 230000Z 10005KT 9999 FEW035 SCT120 24/16 A3004 RMK SCT250 NOSIG=
200904230100 METAR MROC 230100Z 11009KT 9999 FEW035 SCT100 23/16 A3005 RMK FEW250 CB/LTNG DST SSE/S/SW NOSIG=
200904230200 METAR MROC 230200Z 10011KT 9999 FEW035 SCT110 23/17 A3006 RMK FEW250 CB/LTNG DST SSE/S NOSIG=
200904230300 METAR MROC 230300Z 10010KT 9999 FEW035 BKN110 23/16 A3007 RMK DIST=
200904230400 METAR MROC 230400Z 10011KT 9999 FEW040 SCT100 23/17 A3009 RMK VL MX 16KTS NOSIG=
200904230500 METAR MROC 230500Z 10010KT CAVOK 23/17 A3007 RMK TRACE SC SCT130 VL MX 14KTS NOSIG=
200904230600 METAR MROC 230600Z 11010KT CAVOK 23/17 A3006 RMK TRACE SC SCT150 VL MX 18KTS NOSIG=
200904230700 METAR MROC 230700Z 10010KT CAVOK 23/17 A3002 RMK TRACE SCT SCT140 VL MX 14KTS NOSIG=
200904230800 METAR MROC 230800Z 11012KT CAVOK 22/17 A3000 RMK TRACE SCT SCT090 VL MX 17KTS NOSIG=
200904230900 METAR MROC 230900Z 10015KT CAVOK 22/17 A2998 RMK TRACE SCT SCT100 VL MX 20KTS NOSIG=
200904231000 METAR MROC 231000Z 10012KT 9999 FEW030 22/17 A2999 RMK TRACE AC VL MX 17KTS NOSIG=
200904231100 METAR MROC 231100Z 10010KT 9999 FEW030 SCT100 BKN250 22/17 A3001 RMK LTNG AND CB DIST S RN ENE OVR RDGS NOSIG=
200904231200 METAR MROC 231200Z 07008KT 9999 FEW030 SCT090 BKN250 22/17 A3002 RMK RN N NE ENE OVR RDGS LTNG AND CB DIST S SW VL MX 12KTS NOSIG=
200904231300 METAR MROC 231300Z 07006KT 9999 FEW030 SCT090 23/18 A3004 RMK SCT260 RN DST NE/E NOSIG=
200904231322 METAR MROC 231322Z 07006KT 9999 -DZ FEW030 SCT090 23/17 A3003 RMK SCT260 RN DST NE/E NOSIG=
200904231400 METAR MROC 231400Z 10011KT 9999 -DZ FEW035 SCT100 25/17 A3004 RMK SCT260 RN DZT NE/E VL MX VTO  17KT NOSIG=
200904231500 METAR MROC 231500Z 10010KT 9999 FEW035 BKN120 26/17 A3005 REDZ RMK FEW260 RN DST N/NE VL MX VTO  17KT NOSIG=
200904231600 METAR MROC 231600Z 10012KT 9999 FEW035 BKN120 27/17 A3005 RMK FEW260 RN DST N/NE VL MX VTO  19KT NOSIG=
200904231700 METAR MROC 231700Z 10013KT 9999 FEW035 BKN120 27/17 A3005 RMK FEW260 RN DST N/NE VL MX VTO  19KT NOSIG=
200904231800 METAR MROC 231800Z 09011KT 9999 SCT040 SCT120 28/15 A3005 RMK FEW080 DZ DST N/NE/E NOSIG=
200904231900 METAR MROC 231900Z 10011KT 9999 FEW040 SCT080 26/17 A3001 RMK SCT100 DZ DST N/NE RN W BECMG -DZ=
200904232000 METAR MROC 232000Z 12010KT 9999 -DZ FEW040 BKN100 25/17 A2999 RMK FEW080 CB DST S CB/LTNG/RASH DST SSW NOSIG=
200904232100 METAR MROC 232100Z 07007KT 9999 FEW040 BKN120 25/17 A2997 REDZ=
200904232101 METAR MROC 232101Z 07007KT 9999 FEW040 BKN120 25/17 A2997 REDZ NOSIG=
200904232200 METAR MROC 232200Z 12006KT 9999 FEW040 BKN120 25/17 A2996 NOSIG=
200904232300 METAR MROC 232300Z 13007KT 9999 FEW040 BKN120 24/15 A2996 NOSIG=
200904240000 METAR MROC 240000Z 11008KT CAVOK 23/16 A2999 RMK TRACE SC SCT120 BKN170 NOSIG=
200904240100 METAR MROC 240100Z 10006KT CAVOK 23/16 A3002 RMK TRACE SCT SCT120 BKN170 NOSIG=
200904240200 METAR MROC 240200Z 11006KT CAVOK 22/16 A3003 RMK TRACE SC SCT100 BKN140 NOSIG=
200904240300 METAR MROC 240300Z 06002KT 9999 FEW030 BKN120 22/17 A3006 NOSIG=
200904240400 METAR MROC 240400Z 06003KT 9999 SCT040 SCT120 22/16 A3006 NOSIG=
200904240500 METAR MROC NIL=
200904240600 METAR MROC 240600Z 10004KT CAVOK 21/17 A3000 RMK TRAZAS SC SCT120 NOSIG=
200904240700 METAR MROC 240700Z 11006KT CAVOK 22/17 A2999 RMK TRAZAS SC SCT120 NOSIG=
200904240800 METAR MROC 240800Z 10009KT CAVOK 22/17 A2996 RMK TRAZAS SC FEW140 SCT250 NOSIG=
200904240900 METAR MROC NIL=
200904241000 METAR MROC 241000Z 10010KT 9999 FEW040 SCT130 23/17 A2997 NOSIG=
200904241100 METAR MROC 241100Z 10010KT 9999 FEW045 BKN130 22/17 A2997 NOSIG=
200904241200 METAR MROC 241200Z 11010KT 9999 FEW040 BKN280 22/17 A2999 RMK FEW130 DZ NE NOSIG=
200904241300 METAR MROC 241300Z 12010KT 9999 FEW025 BKN070 23/17 A3002 RMK DZ DST N NE E VEL MAX VTO 15KT NOSIG=
200904241400 METAR MROC 241400Z 090008KT 9999 FEW035 SCT080 BKN120 26/15 A3005 RMK DZ DST NE NOSIG=
200904241401 METAR MROC 241401Z COR 09008KT 9999 FEW035 SCT080 BKN120 26/15 A3005 RMK DZ DST NE NOSIG=
200904241500 METAR MROC 241500Z 07011KT 9999 FEW030 SCT120 BKN250 27/15 A3004 RMK DZ DST N VEL MAX VTO 19KT NOSIG=
200904241600 METAR MROC 241600Z 07015KT 9999 FEW035 SCT100 BKN250 26/15 A3004 RMK DZ DST N NE VEL MAX VTO 21KT NOSIG=
200904241700 METAR MROC 241700Z 07020KT 9999 FEW035 SCT080 BKN250 26/15 A3002 RMK DZ DST N NE VEL MAX VTO 26KT NOSIG=
200904241800 METAR MROC 241800Z COR 06018KT 9999 FEW035 SCT100 BKN250 27/15 A3001 RMK PCPN DST N NE VEL MAX VTO 25KT NOSIG=
200904241801 METAR MROC 241801Z COR 06018KT 9999 FEW035 SCT100 BKN250 27/15 A3001 RMK PCPN DST N NE VEL MAX VTO 25KT NOSIG=
200904241900 METAR MROC 241900Z 07013KT 9999 FEW040 SCT100 BKN250 27/14 A2999 RMK VEL MAX VTO 19KT NOSIG=
200904242000 METAR MROC 242000Z 08014KT 9999 FEW040 SCT100 BKN250 28/12 A2997 NOSIG=
200904242100 METAR MROC 242100Z 07013G23KT 9999 FEW035 SCT090 BKN250 26/13 A2996 NOSIG=
200904242200 METAR MROC 242200Z 07015G25KT 9999 FEW040 SCT120 BKN250 25/13 A2996 NOSIG=
200904242300 METAR MROC 242300Z 07011G22KT CAVOK 25/13 A2997 RMK TRACE SC SCT120 BKN250 NOSIG=
200904250000 METAR MROC 250000Z 07013KT CAVOK 23/14 A2997 RMK TRACE SC SCT120 BKN250 NOSIG=
200904250100 METAR MROC 250100Z 10013KT CAVOK 23/14 A2999 RMK TRACE SC SCT120 BKN250 NOSIG=
200904250200 METAR MROC 250200Z 09011KT CAVOK 23/14 A2999 RMK TRACE SC SCT250 NOSIG=
200904250300 METAR MROC 250300Z 10009KT CAVOK 22/14 A3001 RMK SCT250 NOSIG=
200904250400 METAR MROC 250400Z 10010G22KT CAVOK 22/15 A3001 RMK FEW110 SCT250 NOSIG=
200904250500 METAR MROC 250500Z 09010G20KT CAVOK 22/14 A3001 RMK BKN110 SCT250 NOSIG=
200904250600 METAR MROC 250600Z 09011KT 9999 FEW035 BKN110 21/15 A3000 RMK FEW250 NOSIG=
200904250700 METAR MROC 250700Z 10013KT 9999 FEW035 BKN110 21/15 A2999 NOSIG=
200904250800 METAR MROC 250800Z 09013KT 9999 FEW035 BKN110 22/14 A2997=
200904250900 METAR MROC 250900Z 11013KT 9999 FEW030 SCT110 21/14 A2996=
200904251000 METAR MROC 251000Z 11010KT CAVOK 21/14 A2998 RMK FEW110 FEW260 VL MX VTO  18KT=
200904251100 METAR MROC 251100Z 11012KT CAVOK 21/15 A2998 RMK FEW120 SCT260 VL MX VTO 17KT=
200904251200 METAR MROC 251200Z 11011KT CAVOK 21/15 A2999 RMK BKN260 CB DST S=
200904251300 METAR MROC 251300Z 11011KT CAVOK 23/14 A3001 RMK SCT250 VEL MAX VTO 16KT CB DST SSW NOSIG=
200904251400 METAR MROC 251400Z 10010G20KT CAVOK 25/12 A3002 RMK TRACE SC BKN250 NOSIG=
200904251500 METAR MROC 251500Z 10011KT CAVOK 27/12 A3002 RMK TRACE SC SCT250 VEL MAX VTO 17KT NOSIG=
200904251600 METAR MROC 251600Z 08011KT CAVOK 29/12 A3003 RMK TRACE SC SCT250 VEL MAX VTO 17KT NOSIG=
200904251700 METAR MROC 251700Z 09011KT CAVOK 29/14 A3002 RMK TRACE SC CI VEL MAX VTO 17KT NOSIG=
200904251800 METAR MROC 251800Z 07014G24KT 9999 FEW040 30/14 A3001 NOSIG=
200904251900 METAR MROC 251900Z 08012G22KT 9999 FEW035 30/13 A2998 NOSIG=
200904252000 METAR MROC 252000Z 09012KT 9999 FEW035 30/13 A2996 RMK VEL MAX VTO 17KT NOSIG=
200904252100 METAR MROC 252100Z 09011KT 9999 FEW030 29/15 A2994 RMK TCU SW FEW250 NOSIG=
200904252200 METAR MROC 252200Z 07013KT 9999 FEW030 29/14 A2994 RMK TCU DIST SW VL MX 20KTS NOSIG=
200904252300 METAR MROC 252300Z 08011KT 9999 FEW030 BKN240 26/15 A2996 RMK VL MX 15KTS NOSIG=
200904252359 METAR MROC 260000Z 08011KT 9999 FEW020 OVC240 24/15 A2997 NOSIG=
200904260000 METAR MROC 260000Z 08011KT 9999 FEW020 OVC240 24/15 A2997 NOSIG=
200904260100 METAR MROC 260100Z 10012KT 9999 FEW025 SCT250 23/14 A3000 NOSIG=
200904260200 METAR MROC 260200Z 10013KT 9999 FEW030 23/14 A3001 RMK VEL MAX WIND 16 KTS NOSIG=
200904260300 METAR MROC 260300Z 10013KT 9999 FEW030 BKN250 22/15 A3001 RMK VEL MAX VTO 20KT NOSIG=
200904260400 METAR MROC 260400Z 10013KT 9999 FEW035 BKN250 22/15 A3002 RMK VEL MAX VTO 21KT NOSIG=
200904260500 METAR MROC 260500Z 09014KT CAVOK 22/14 A3000 RMK TRACE SC BKN250 VEL MAX VTO 21KT NOSIG=
200904260600 METAR MROC 260600Z 10014KT CAVOK 21/15 A2999 RMK TRACE SC BKN270 VEL MAX VTO 20KT NOSIG=
200904260700 METAR MROC 260700Z 10015G26KT CAVOK 21/15 A2997 RMK TRACE SC BKN250 NOSIG=
200904260800 METAR MROC 260800Z 10015KT CAVOK 22/15 A2996 RMK TRACE SC BKN270 VEL MAX VTO 21KT=
200904260900 METAR MROC 260900Z 10013KT CAVOK 21/15 A2995 RMK TRACE SC SCT270 VEL MAX VTO 21KT=
200904261000 METAR MROC 261000Z 11014KT CAVOK 21/15 A2996 RMK TRACE SC SCT280 VEL MAX VTO 22KT=
200904261100 METAR MROC 261100Z 10010KT CAVOK 21/15 A2996 RMK TRACE SC AC FEW280 VEL MAX VTO 18KT=
200904261200 METAR MROC 261200Z 12011KT CAVOK 21/14 A2998 RMK TRACE SC FEW250 TCU DST S=
200904261300 METAR MROC 261300Z 10010KT CAVOK 23/14 A3000 RMK TRACE SCT FEW250 VL MX 17KTS NOSIG=
200904261400 METAR MROC 261400Z 11011KT CAVOK 26/13 A3002 RMK TRACE CI SCT VL MX 18KTS NOSIG=
200904261500 METAR MROC 261500Z 11012KT CAVOK 27/15 A3002 RMK TRACE CU CI VL MX 19KTS NOSIG=
200904261600 METAR MROC 261600Z 08011KT CAVOK 28/13 A3002 RMK TRACE CU CI VL MX 17KTS NOSIG=
200904261700 METAR MROC 261700Z 09010KT 9999 FEW040 29/14 A3001 RMK VL MX 15KTS NOSIG=
200904261800 METAR MROC 261800Z 10009KT 9999 FEW040 30/14 A2999 RMK VL MX VT 17KTS NOSIG=
200904261900 METAR MROC 261900Z 11010KT 9999 FEW040 31/13 A2997 RMK CB SW RN NE NOSIG=
200904262000 METAR MROC 262000Z 10008KT 9999 SCT040 30/14 A2994 RMK VEL MAX 15KTS NOSIG=
200904262100 METAR MROC 262100Z 10009KT 9999 FEW040 30/14 A2992 RMK FEW280 CB S NOSIG=
200904262200 METAR MROC 262200Z 09008KT 9999 FEW040 29/14 A2992 RMK FEW280 CB SE NOSIG=
200904262300 METAR MROC 262300Z 11008KT 9999 FEW040 26/15 A2993 NOSIG=
200904270000 METAR MROC 270000Z 12008KT 9999 FEW030 24/16 A2996 NOSIG=
200904270100 METAR MROC 270100Z 11010KT 9999 FEW030 22/16 A2997 NOSIG=
200904270200 METAR MROC 270200Z 12011KT 9999 FEW030 22/16 A2999 NOSIG=
200904270300 METAR MROC 270300Z 11012KT 9999 FEW030 21/16 A3002 RMK VEL MAX VTO 18KT NOSIG=
200904270400 METAR MROC 270400Z 11010KT CAVOK 21/15 A3002 RMK TRACE SC VEL MAX =
200904270500 METAR MROC 270500Z 12010G20KT CAVOK 21/15 A3001 RMK TRACE SC NOSIG=
200904270600 METAR MROC 270600Z 10010G20KT CAVOK 21/15 A2999 RMK TRACE SC NOSIG=
200904270700 METAR MROC 270700Z 11012KT CAVOK 21/16 A2998 RMK TRACE SC VEL MAX VTO 17KT=
200904270800 METAR MROC 270800Z 10015KT CAVOK 20/15 A2998 RMK TRACE SC=
200904270900 METAR MROC 270900Z 11010G20KT CAVOK 20/16 A2996 RMK TRACE SC=
200904271000 METAR MROC 271000Z 11012KT CAVOK 21/15 A2997 RMK TRACE S VEL MAX VTO  18KT=
200904271100 METAR MROC 271100Z 11010KT CAVOK 21/15 A2998 RMK TRACE SC AC VEL MAX VTO  16KT TCU DST SSW=
200904271200 METAR MROC 271200Z 10013KT CAVOK 22/15 A2998 RMK TRACE SC FEW250=
200904271300 METAR MROC 271300Z 11011KT CAVOK 23/15 A3001 RMK TRAZAS SCT NOSIG=
200904271400 METAR MROC 271400Z 10012KT CAVOK 26/14 A3001 RMK TRAZAS SCT NOSIG=
200904271500 METAR MROC 271500Z 10012KT CAVOK 27/14 A3001 RMK TRAZAS SCT NOSIG=
200904271600 METAR MROC 271600Z 10012KT CAVOK 28/14 A3001 RMK TRAZAS CU NOSIG=
200904271700 METAR MROC 271700Z 10010KT 9999 FEW030 29/15 A3000 RMK MAX/ WIND 18KT NOSIG=
200904271800 METAR MROC 271800Z 09010G20KT 9999 FEW035 30/15 A2998 NOSIG=
200904271900 METAR MROC 271900Z 10010KT 9999 FEW035 30/15 A2995 RMK VEL MAX VTO 17KTS TCU S/SW NOSIG=
200904272000 METAR MROC 272000Z 11009KT 9999 SCT035 31/16 A2993 RMK VEL MAX VTO 16KTS TCU S/SW NOSIG=
200904272100 METAR MROC 272100Z 11009KT 9999 SCT040 29/17 A2992 RMK FEW110 TCU DST S VL MX VTO  19KT NOSIG=
200904272200 METAR MROC 272200Z 11013KT 9999 SCT040 27/17 A2993 RMK FEW110 TCU DST S/E VL MX VTO  19KT NOSIG=
200904272300 METAR MROC 272300Z 11011KT 9999 FEW040 26/18 A2993 RMK TCU DST NE/E/S NOSIG=
200904280000 METAR MROC 280000Z 10009KT 9999 FEW040 24/18 A2995 RMK FEW260 TCU/RN DST NE NOSIG=
200904280100 METAR MROC 280100Z 10008KT 9999 BKN035 24/18 A2998 NOSIG=
200904280200 METAR MROC 280200Z 09008KT 9999 FEW035 23/18 A2999 RMK FEW260 NOSIG=
200904280300 METAR MROC 280300Z 10012KT 9999 FEW035 22/17 A3000 RMK TRACE CI NOSIG=
200904280400 METAR MROC 280400Z 10010KT 9999 FEW040 22/17 A3002 RMK TRACE CI NOSIG=
200904280500 METAR MROC 280500Z 10012KT CAVOK 22/17 A3002 RMK TRACE SC CI NOSIG=
200904280600 METAR MROC 280600Z 10014KT CAVOK 22/17 A3000 RMK TRACE SCT AND AC NOSIG=
200904280700 METAR MROC 280700Z 11012KT CAVOK 22/17 A2999 RMK TRACE SCT VL MX 16KTS NOSIG=
200904280800 METAR MROC 280800Z 11012KT CAVOK 22/17 A2997 RMK TRACE SCT VL MX 18KTS NOSIG=
200904280900 METAR MROC 280900Z 11012KT CAVOK 22/16 A2995 RMK TRACE SCT VL MX 17KTS NOSIG=
200904281000 METAR MROC 281000Z 11014KT CAVOK 22/16 A2996 RMK TRACE SCT VL MX 19KTS NOSIG=
200904281100 METAR MROC 281100Z 11014KT 9999 FEW040 22/17 A2998 RMK TRACE CI VL MX 20KTS NOSIG=
200904281200 METAR MROC 281200Z 10011KT 9999 FEW040 22/16 A3000 RMK TRACE CI VL MX 18KTS NOSIG=
200904281300 METAR MROC 281300Z 10013KT 9999 FEW040 23/16 A3002 RMK DZ NE VL MX VTO  20KT NOSIG=
200904281400 METAR MROC 281400Z 10013KT 9999 FEW040 25/16 A3003 RMK DZ NE/E VL MX VTO 18KT NOSIG=
200904281500 METAR MROC 281500Z 10013KT 9999 FEW040 26/16 A3003 RMK VL MX VTO  20KT DZ NE/E NOSIG=
200904281600 METAR MROC 281600Z 11012KT 9999 FEW040 28/16 A3002 RMK FEW260 DZ NE/E VL MX VTO  19KT NOSIG=
200904281700 METAR MROC 281700Z 09013KT 9999 FEW040 29/16 A3001 RMK FEW260 DZ NE/E VL MX VTO  19KT NOSIG=
200904281800 METAR MROC 281800Z 09012KT 9999 FEW040 29/16 A3000 RMK FEW260 DZ NE/E VL MX VTO 18KT NOSIG=
200904281900 METAR MROC 281900Z 09013KT 9999 FEW040 SCT280 29/16 A2998 RMK DZ NE/E TCU/CB DST SSE/S VL MX VTO  22KT NOSIG=
200904282000 METAR MROC 282000Z 10013KT 9999 SCT035 SCT260 28/16 A2995 RMK FEW110 DZ NE/E CB SE/SSE/S VL MX VTO  22KT NOSIG=
200904282100 METAR MROC 282100Z 11012KT 9999 FEW035 BKN250 25/17 A2997 RMK FEW120 VEL MAX VTO 17KT CBS DST E SE S NOSIG=
200904282200 METAR MROC 282200Z 11013KT 9999 FEW035 SCT060 BKN250 25/16 A2996 RMK VEL MAX VTO 18KT NOSIG=
200904282300 METAR MROC 282300Z 10010KT 9999 FEW035 SCT060 BKN250 25/16 A2997 RMK VEL MAX VTO 16KT NOSIG=
200904290000 METAR MROC 290000Z 11011KT 9999 FEW035 BKN250 23/17 A2998 RMK VEL MAX VTO 19KT NOSIG=
200904290100 METAR MROC 290100Z 10011KT 9999 FEW035 SCT250 23/17 A3001 RMK VEL MAX VTO 18KT NOSIG=
200904290200 METAR MROC 290200Z 10012KT 9999 FEW035 SCT250 23/17 A3001 RMK VEL MAX VOT 17KT NOSIG=
200904290300 METAR MROC 290300Z 10011G21KT CAVOK 23/17 A3002 RMK TRAZAS SCT=
200904290400 METAR MROC 290400Z 10008KT CAVOK 22/17 A3002 RMK TRAZAS SCT NOSIG=
200904290500 METAR MROC 290500Z 10010G20KT CAVOK 22/17 A3002 RMK TRAZAS SCT BKN120 NOSIG=
200904290600 METAR MROC 290600Z 10013KT CAVOK 22/16 A2999 RMK TRAZAS SC SCT120 NOSIG=
200904290700 METAR MROC 290700Z 10011KT CAVOK 22/16 A2999 RMK TRAZAS SCT NOSIG=
200904290900 METAR MROC 290900Z 11010KT CAVOK 22/17 A2998 RMK TRAZAS SC NOSIG=
200904291000 METAR MROC 291000Z 11011KT CAVOK 22/17 A2999 RMK TRAZAS SCT/AC NOSIG=
200904291100 METAR MROC 291100Z 09009KT 9999 FEW030 BKN250 22/16 A2999 RMK CB N NE NOSIG=
200904291200 METAR MROC 291200Z 10012KT 9999 FEW020 22/16 A3000 RMK FEW250 TRAZAS AC CB E NOSIG=
200904291300 METAR MROC 291300Z 11012KT 9999 FEW030 SCT300 23/16 A3002 RMK TRACE AC VEL MAX VTO 17KT NOSIG=
200904291400 METAR MROC 291400Z 11012KT CAVOK 25/16 A3003 RMK TRACE SC AC SCT300 VEL MAX VTO 19KT NOSIG=
200904291500 METAR MROC 291500Z 11011KT CAVOK 27/16 A3003 RMK TRACE SC AC SCT300 VEL MAX VTO 17KT NOSIG=
200904291600 METAR MROC 291600Z 10013KT 9999 FEW040 SCT300 28/16 A3002 RMK TRACE AC VEL MAX VTO 19KT NOSIG=
200904291700 METAR MROC 291700Z 09013KT 9999 FEW040 BKN250 28/16 A3003 RMK TRACE AC VEL MAX VTO 17KT NOSIG=
200904291800 METAR MROC 291800Z 10011KT 9999 FEW040 SCT130 BKN220 28/16 A3001 RMK VEL MAX VTO 19KT NOSIG=
200904291900 METAR MROC 291900Z 11010KT 9999 SCT035 SCT060 26/16 A3001 RMK CB RASH DST SSW NOSIG=
200904292000 METAR MROC 292000Z 11010KT 9999 FEW030 SCT045 BKN140 25/17 A2999 RMK VEL MAX 16KT CB DST SW WSW NOSIG=
200904292100 METAR MROC 292100Z 10009KT 9999 FEW035 SCT040 BKN120 25/16 A2998 NOSIG=
200904292200 METAR MROC 292200Z 12010KT 9999 FEW025 SCT045 BKN120 24/16 A2997 NOSIG=
200904292300 METAR MROC 292300Z 10009KT 9999 SCT035 BKN100 24/16 A3001 NOSIG=
200904300000 METAR MROC 300000Z 10008KT 9999 FEW035 BKN100 23/16 A3001 NOSIG=
200904300100 METAR MROC 300100Z 09007KT 9999 FEW035 SCT100 23/16 A3003 NOSIG=
200904300200 METAR MROC 300200Z 10007KT 9999 FEW035 23/16 A3006 NOSIG=
200904300300 METAR MROC 300300Z 08007KT 9999 FEW030 BKN110 22/16 A3007 RMK FEW080 NOSIG=
200904300400 METAR MROC 300400Z 11010KT 9999 FEW030 SCT110 22/16 A3006 RMK FEW260 NOSIG=
200904300500 METAR MROC 300500Z 11011KT CAVOK 22/16 A3004 RMK BKN110 FEW260 NOSIG=
200904300600 METAR MROC 300600Z 10009KT CAVOK 22/16 A3003 RMK BKN110 FEW260 VL MX VTO  18KT NOSIG=
200904300700 METAR MROC 300700Z 10006KT CAVOK 22/16 A3003 RMK BKN110 FEW260 NOSIG=
200904300800 METAR MROC 300800Z 06005KT CAVOK 21/16 A3000 RMK BKN110 FEW260=
200904300900 METAR MROC 300900Z 11008KT 9999 SCT030 21/16 A3001 RMK FEW110 FEW260 LTNG DST S=
200904301000 METAR MROC 301000Z 11009KT 9999 SCT030 21/16 A3001 RMK FEW110=
200904301100 METAR MROC 301100Z 07004KT 9999 SCT030 SCT110 21/16 A3003=
200904301200 METAR MROC 301200Z 07007KT 9999 FEW030 BKN110 21/16 A3004 RMK FEW260 TCU DST S=
200904301300 METAR MROC 301300Z 09008KT 9999 FEW035 BKN110 22/16 A3007 NOSIG=
200904301400 METAR MROC 301400Z 07010KT 9999 FEW035 BKN250 23/17 A3008 NOSIG=
200904301500 METAR MROC 301500Z 12010G20KT 9999 FEW035 SCT120 25/15 A3008 RMK FEW250 NOSIG=
200904301600 METAR MROC 301600Z 10010KT 9999 FEW035 BKN120 27/16 A3008 RMK VEL  MAX  VTO  16KT NOSIG=
200904301700 METAR MROC 301700Z 10013KT 9999 FEW035 SCT120 BKN250 27/15 A3008 RMK VEL MAX VTO 17KT NOSIG=
200904301800 METAR MROC 301800Z 10010G20KT 9999 FEW035 SCT120 BKN250 29/15 A3005 NOSIG=
200904301900 METAR MROC 301900Z 11012KT 9999 FEW035 BKN250 29/16 A3003 RMK FEW120 VEL MAX VTO  18KT TCU DST SSW NOSIG=
200904302000 METAR MROC 302000Z 10015KT 9999 SCT030 BKN250 26/16 A3001 RMK FEW120 CB RN DST SSW SW NOSIG=
200904302100 METAR MROC 302100Z 10010KT 9999 SCT030 SCT120 25/17 A3000 RMK HZ ARND FEW250 NOSIG=
200904302200 METAR MROC 302200Z 10010KT 9999 FEW035 SCT120 BKN250 26/16 A2999 RMK HZ W NOSIG=
200904302300 METAR MROC 302300Z 09007KT 9999 FEW035 SCT120 BKN250 25/17 A3001 RMK HZ W NOSIG=
200905010000 METAR MROC 010000Z 11010KT 9999 FEW035 BKN120 23/17 A3004 NOSIG=
200905010100 METAR MROC 010100Z 08008KT 9999 FEW035 BKN120 23/17 A3006 NOSIG=
200905010200 METAR MROC 010200Z 09007KT 9999 FEW035 BKN120 22/16 A3007 NOSIG=
200905010300 METAR MROC 010300Z 10007KT 9999 FEW035 SCT130 22/16 A3008 NOSIG=
200905010400 METAR MROC 010400Z 07005KT 9999 FEW035 SCT130 22/16 A3009 NOSIG=
200905010500 METAR MROC 010500Z 04005KT CAVOK 21/16 A3008 RMK TRACE SC AC SCT250 NOSIG=
200905010600 METAR MROC 010600Z 08002KT CAVOK 21/16 A3006 RMK TRACE SC SCT250 NOSIG=
200905010700 METAR MROC 010700Z 06004KT CAVOK 21/15 A3004 RMK TRACE SC SCT250 NOSIG=
200905010800 METAR MROC 010800Z 10007KT CAVOK 21/16 A3002 RMK TRACE SC SCT250=
200905010900 METAR MROC 010900Z 08007KT CAVOK 21/15 A3003 RMK TRACE SC SCT250=
200905011000 METAR MROC 011000Z 07007KT CAVOK 21/15 A3002 RMK TRACE SC SCT250=
200905011100 METAR MROC 011100Z 10008KT CAVOK 21/15 A3002 RMK TRAC3 SC SCT250 VEL MAX VTO 14KT=
200905011200 METAR MROC 011200Z 10008KT CAVOK 22/15 A3005 RMK TRACE SC BKN250 CB=
200905011300 METAR MROC 011300Z 10009KT 9999 FEW030 BKN250 23/14 A3007 RMK CB DST S SW VL MX VIENTO 18KT NOSIG=
200905011400 METAR MROC 011400Z 10012G22KT 9999 FEW030 BKN250 25/15 A3008 RMK PCPN NR NOSIG=
200905011500 METAR MROC 011500Z 11013G26KT 9999 FEW030 BKN250 25/16 A3010 RMK PCPN NE NOSIG=
200905011600 METAR MROC 011600Z 08012G22KT 9999 FEW030 BKN250 25/16 A3010 RMK PCPN NE NOSIG=
200905011700 METAR MROC 011700Z 11010G20KT 9999 FEW030 BKN250 26/16 A3008 RMK PCPN NE NOSIG=
200905011800 METAR MROC 011800Z 13012G22KT 9999 FEW030 BKN250 26/16 A3008 RMK PCPN NE NOSIG=
200905011900 METAR MROC 011900Z 11010G20KT 9999 FEW030 BKN250 26/16 A3006 RMK PCPN NE NOSIG=
200905012000 METAR MROC 012000Z 11008KT 9999 FEW030 BKN250 27/18 A3002 RMK PCPN NE NOSIG=
200905012100 METAR MROC 012100Z 13010KT 9999 FEW030 BKN250 27/17 A3001 RMK RN NE NOSIG=
200905012200 METAR MROC 012200Z 08008KT 9999 FEW035 BKN250 26/17 A3001 RMK RN NE=
200905012300 METAR MROC 012300Z 10010KT 9999 FEW035 BKN250 25/17 A3003 RMK RN NE HZ W NOSIG=
200905020000 METAR MROC 020000Z 12005KT 9999 FEW035 BKN250 23/17 A3005 RMK RN NE HZ W=
200905020100 METAR MROC 020100Z 11006KT CAVOK 23/17 A3007 RMK FEW060 SCT250 NOSIG=
200905020200 METAR MROC 020200Z 13002KT CAVOK 22/17 A3009 RMK FEW060 SCT250 NOSIG=
200905020300 METAR MROC 020300Z 10004KT CAVOK 22/18 A3011 RMK TRACE SC FEW090 SCT250 NOSIG=
200905020400 METAR MROC 020400Z 08005KT CAVOK 21/16 A3011 RMK TRACE SC NOSIG=
200905020500 METAR MROC 020500Z 07007KT CAVOK 21/16 A3010 RMK TRACE SC NOSIG=
200905020600 METAR MROC 020600Z 07005KT CAVOK 21/16 A3009 RMK TRACE SC NOSIG=
200905020700 METAR MROC 020700Z 07006KT CAVOK 21/16 A3007 RMK TRACE SC NOSIG=
200905020800 METAR MROC 020800Z 08005KT CAVOK 21/16 A3004 RMK TRACE SC=
200905020900 METAR MROC 020900Z 08006KT CAVOK 20/16 A3003 RMK TRACE SC NOSIG=
200905021000 METAR MROC 021000Z 09007KT CAVOK 21/15 A3003 RMK TRACE SC NOSIG=
200905021100 METAR MROC 021100Z 02005KT CAVOK 19/15 A3004 RMK TRACE SC FEW070 SCT250 NOSIG=
200905021200 METAR MROC 021200Z 05007KT CAVOK 21/15 A3004 RMK TRACE SC AC BKN250 NOSIG=
200905021300 METAR MROC 021300Z 09009KT CAVOK 23/17 A3006 RMK RN NE TRACE SC BKN250=
200905021400 METAR MROC 021400Z 11013KT CAVOK 25/16 A3007 RMK TRACE SC BKN250 RN NE NOSIG=
200905021500 METAR MROC 021500Z 10009KT CAVOK 27/16 A3007 RMK TRACE SC BKN250 RN NE=
200905021600 METAR MROC 021600Z 10010KT CAVOK 28/16 A3007 RMK TRACE SC CU BKN250 RN NE=
200905021700 METAR MROC 021700Z 12010KT 9999 FEW030 BKN250 28/16 A3006 RMK RN NE HZ W NOSIG=
200905021800 METAR MROC 021800Z 10010KT 9999 FEW030 BKN250 28/16 A3004 RMK RN NE HZ W NOSIG=
200905021900 METAR MROC 021900Z 09007KT 9999 FEW030 OVC250 29/16 A3002 RMK RN NE HZ W NOSIG=
200905022000 METAR MROC 022000Z 21009KT 9999 SCT030 OVC250 28/18 A3000 RMK RN NE Z W NOSIG=
200905022100 METAR MROC 022100Z 22010KT 9999 FEW025 SCT035 26/20 A2999 RMK SCT120 BECMG 8000 VCSH=
200905022200 METAR MROC 022200Z 24008KT 9999 FEW025TCU SCT035 25/19 A2999 RMK HZ LGT ARND TCU SCTD ARND NOSIG=
200905022300 METAR MROC 022300Z 23009KT 9999 FEW020 BKN035 23/20 A3001 RMK FEW110 HZ LGT ARND NOSIG=
200905030000 METAR MROC 030000Z 23008KT 9999 SCT020 BKN030 22/19 A3004 RMK HZ LGT ARND RN SE/W BECMG 7000 VCSH VCFG FEW008=
200905030100 METAR MROC 030100Z 27006KT 9999 -DZRA SCT020 BKN030 21/20 A3006 RMK VIS SW/W 7KM DUE RN BECMG -RA=
200905030200 METAR MROC 030200Z 28003KT 9999 -DZ FEW020 BKN030 21/19 A3008 NOSIG=
200905030300 METAR MROC 030300Z 31004KT 9999 FEW020 SCT030 21/20 A3009 REDZ RMK HZ ARND NOSIG=
200905030400 METAR MROC 030400Z 07003KT 9999 FEW020 SCT030 21/19 A3009 RMK HZ ARND NOSIG=
200905030500 METAR MROC 030500Z 11003KT 9999 SCT025 21/19 A3009 RMK HZ ARND NOSIG=
200905030600 METAR MROC 030600Z 24003KT 9999 BKN025 21/19 A3008 RMK HZ ARND NOSIG=
200905030700 METAR MROC 030700Z 03003KT 9999 SCT025 21/19 A3005 RMK HZ ARND NOSIG=
200905030800 METAR MROC 030800Z 00000KT 9999 BKN025 21/13 A3005 RMK HZ ARND NOSIG=
200905030900 METAR MROC 030900Z 24003KT 9999 FEW025 20/19 A3005 RMK HZ ARND NOSIG=
200905031000 METAR MROC 031000Z 26002KT 7000 VCFG BKN025 20/20 A3006 RMK HZ ARND NOSIG=
200905031100 METAR MROC 031100Z 24002KT 9999 VCFG BKN025 20/20 A3002 RMK HZ ARND NOSIG=
200905031200 METAR MROC 031200Z 24002KT 4000 -RABR SCT015 OVC100 20/20 A3009 NOSIG=
200905031300 METAR MROC 031300Z 25002KT 1000 RA BR SCT003 BKN010 20/20 A3011 NOSIG=
200905031400 METAR MROC 031400Z 26003KT 6000 -DZ VCFG FEW005 SCT030 BKN100 20/20 A3013 RERA RMK VIS S UNL BECMG 9999=
200905031500 METAR MROC 031500Z 36003KT 9999 FEW007 SCT030 21/19 A3014 REDZ RMK SCT110 VIS SSE/NW/W 8KM DUE ST NOSIG=
200905031600 METAR MROC 031600Z 05002KT 9999 FEW008 BKN110 22/19 A3012 RMK FEW030 VIS NW/W 8KM DUE ST NOSIG=
200905031700 METAR MROC 031700Z 02002KT 9999 FEW035 BKN120 24/18 A3010 RMK FEW250 NOSIG=
200905031800 METAR MROC 031800Z 29002KT 9999 FEW035 BKN120 25/18 A3009 RMK FEW250 NOSIG=
200905031900 METAR MROC 031900Z 23005KT 9999 SCT035 SCT250 26/18 A3005 RMK FEW110 NOSIG=
200905032000 METAR MROC 032000Z 26009KT 9999 SCT035 SCT250 27/18 A3002 RMK TCU DST S RN W NOSIG=
200905032100 METAR MROC 032100Z 27005KT 9999 SCT030 SCT250 26/18 A3000 RMK TCU SW W NOSIG=
200905032200 METAR MROC 032200Z 25010KT 9999 FEW020TCU SCT035 BKN250 25/19 A3000 RMK PCPN DST NW BECMG -RA=
200905032300 METAR MROC 032300Z 24011KT 9999 SCT010 BKN020 22/20 A3002 RMK RN DST S QD BECMG 8000 -RA=
200905040000 METAR MROC 040000Z 24006KT 9999 FEW030 SCT040 BKN070 21/18 A3005 NOSIG=
200905040100 METAR MROC 040100Z 25002KT 9999 FEW035 SCT045 BKN090 21/20 A3007 NOSIG=
200905040200 METAR MROC 040200Z 01005KT 9999 -RA FEW035 SCT050 BKN100 20/19 A3008 NOSIG=
200905040300 METAR MROC 040300Z 14003KT 9999 FEW035 BKN100 20/19 A3010 NOSIG=
200905040400 METAR MROC 040400Z 05002KT CAVOK 20/19 A3010 RMK TRACE SC SCT100 NOSIG=
200905040500 METAR MROC NIL=
200905040600 METAR MROC 040600Z 08003KT CAVOK 20/18 A3007 RMK TRACE SCT SCT120 NOSIG=
200905040700 METAR MROC 040700Z 05004KT CAVOK 20/18 A3005 RMK TRACE SC SCT120 NOSIG=
200905040800 METAR MROC 040800Z 06004KT CAVOK 19/17 A3003 RMK TRACE SC SCT120 NOSIG=
200905040900 METAR MROC 040900Z 04005KT CAVOK 19/17 A3002 RMK TRACE SC AC FEW250 NOSIG=
200905041000 METAR MROC 041000Z 07006KT CAVOK 18/16 A3002 RMK TRACE SC AC FEW250 NOSIG=
200905041100 METAR MROC 041100Z 06005KT CAVOK 18/16 A3003 RMK TRACE SC CI=
200905041200 METAR MROC 041200Z 09004KT CAVOK 18/16 A3005 RMK TRACE SC CI NOSIG=
200905041300 METAR MROC 041300Z 09003KT CAVOK 21/17 A3008 RMK TRACE CI SC NOSIG=
200905041400 METAR MROC 041400Z 23002KT CAVOK 24/17 A3008 RMK TRACE SC CI NOSIG=
200905041500 METAR MROC 041500Z 25005KT 9999 FEW040 25/17 A3009 RMK TRACE CI NOSIG=
200905041600 METAR MROC 041600Z 23008KT 9999 SCT040 26/17 A3009 RMK TRACE CI NOSIG=
200905041700 METAR MROC 041700Z 24010KT 9999 SCT035TCU 28/18 A3007 RMK FEW250 LGT HZ ARND NOSIG=
200905041800 METAR MROC 041800Z 23010KT 9999 SCT030TCU 28/19 A3004 BECMG 5000 VCSH=
200905041900 METAR MROC 041900Z 24011KT 9999 FEW025TCU SCT035 28/20 A3002 RMK RN DST N E BECMG 5000 VCSH=
200905042000 METAR MROC 042000Z 20008KT 9999 3000E TS VCSH SCT015CB BKN025 25/19 A3001 BECMG 4000 -TSRA=
200905042100 METAR MROC 042100Z 02009KT 5000 2000SW -TSRA FEW010CB BKN020 20/19 A3002 NOSIG=
200905042200 METAR MROC 042200Z 07004KT 9999 DZ BR FEW002 SCT020 BKN090 19/18 A2999 RMK VIS 5000 SW NOSIG=
200905042300 METAR MROC 042300Z 06004KT 9999 SCT030 BKN250 21/19 A3000 NOSIG=
200905050000 METAR MROC 050000Z 00000KT 9999 SCT020 BKN250 21/20 A3003 RMK RN DST SW=
200905050100 METAR MROC 050100Z 00000KT 9999 SCT025 BKN250 21/20 A3005 RMK LTNG SSW SW NOSIG=
200905050200 METAR MROC 050200Z 11003KT 9999 FEW012 SCT100 BKN250 20/19 A3007 RMK=
200905050300 METAR MROC 050300Z 11004KT CAVOK 20/18 A3008 RMK SCT110 SCT250 NOSIG=
200905050400 METAR MROC 050400Z 35003KT CAVOK 20/18 A3009 RMK BKN110 FEW250 LTNG DST S NOSIG=
200905050500 METAR MROC 050500Z 13003KT CAVOK 19/19 A3008 RMK SCT110 SCT250 LTNG DST S NOSIG=
200905050600 METAR MROC 050600Z 35002KT CAVOK 19/18 A3006 RMK BKN110 SCT250 LTNG DST S BECMG 7000 VCSH=
200905050700 METAR MROC 050700Z 34003KT 9999 FEW007 BKN110 19/18 A3005 RMK FEW015 BECMG 4000 BR SCT003 BKN020=
200905050800 METAR MROC 050800Z 11004KT 9999 FEW007 SCT020 19/18 A3004 RMK SCT100 VIS SW 8KM DUE ST NOSIG=
200905050900 METAR MROC 050900Z 09004KT 9999 SCT030 SCT110 19/18 A3002 RMK LTNG DST S NOSIG=
200905051000 METAR MROC 051000Z 09004KT CAVOK 19/18 A3000 RMK FEW110 FEW250 NOSIG=
200905051100 METAR MROC 051100Z 08004KT CAVOK 19/17 A3002 RMK FEW250 NOSIG=
200905051200 METAR MROC 051200Z 03004KT 9999 FEW006 19/17 A3004 RMK FEW250 VIS SW 8KM DUE ST HZ LGT ARND NOSIG=
200905051300 METAR MROC 051300Z 00000KT CAVOK 21/18 A3007 RMK TRACE SC BKN250 HZ SSW SW W NOSIG=
200905051400 METAR MROC 051400Z 24004KT CAVOK 23/18 A3009 RMK TRACE SC BKN250 TCU DST SW HZ S SW W NOSIG=
200905051500 METAR MROC 051500Z 25002KT 9999 FEW030 SCT250 25/18 A3009 RMK HZ S SW W NOSIG=
200905051600 METAR MROC 051600Z 23004KT 9999 FEW030 SCT250 27/19 A3007 RMK HZ ARND=
200905051700 METAR MROC 051700Z 24006KT 9999 SCT030 SCT250 28/18 A3005 RMK HZ LGT ARND NOSIG=
200905051800 METAR MROC 051800Z 25011KT 9999 FEW020TCU SCT030 29/20 A3002 RMK FEW250 HZ LGT ARND BECMG 7000 VCSH=
200905051900 METAR MROC 051900Z 33006KT 9999 4000SE -TS VCSH SCT015CB BKN025 25/18 A3000 RMK BECMG 3000 -TSRA=
200905052000 METAR MROC 052000Z 13004KT 9999 3000S TSRA FEW010CB SCT020 BKN100 23/19 A2998 BECMG 6000SW VCSH=
200905052100 METAR MROC 052100Z 07004KT 9999 -TS SCT015CB OVC100 21/18 A2997 BECMG -DZ=
200905052200 METAR MROC 052200Z 09003KT 9999 -RA FEW030 OVC110 21/19 A2997 NOSIG=
200905052300 METAR MROC 052300Z 21002KT 9999 FEW030 BKN120 21/19 A2998 RMK HZ ARND NOSIG=
200905060000 METAR MROC 060000Z 04002KT CAVOK 21/19 A3000 RMK TRACE SC BKN120 NOSIG=
200905060100 METAR MROC 060100Z 11002KT CAVOK 21/19 A3002 RMK TRACE SC BKN120 NOSIG=
200905060200 METAR MROC 060200Z 07004KT CAVOK 22/19 A3005 RMK TRACE SC BKN120 NOSIG=
200905060300 METAR MROC 060300Z 07004KT CAVOK 21/18 A3006 RMK TRACE SC BKN120 NOSIG=
200905060400 METAR MROC 060400Z 07006KT CAVOK 21/18 A3006 RMK TRACE SC BKN250 NOSIG=
200905060500 METAR MROC 060500Z 05003KT CAVOK 20/18 A3006 RMK TRACE SC FEW140 BKN250 NOSIG=
200905060600 METAR MROC 060600Z 06004KT CAVOK 21/17 A3004 RMK TRACE SC BKN270 NOSIG=
200905060700 METAR MROC 060700Z 09004KT CAVOK 21/17 A3006 RMK TRACE SC BKN270 NOSIG=
200905060800 METAR MROC 060800Z 07007KT CAVOK 20/16 A2999 RMK TRACE SC BKN270 NOSIG=
200905060900 METAR MROC 060900Z 06006KT CAVOK 20/16 A2997 RMK TRACE SC BKN280 NOSIG=
200905061000 METAR MROC 061000Z 04005KT CAVOK 19/16 A2999 RMK TRACE SC SCT270 NOSIG=
200905061100 METAR MROC 061100Z 06004KT CAVOK 20/16 A3001 RMK TRACE SC BKN250 CB=
200905061200 METAR MROC 061200Z 04003KT CAVOK 19/16 A3003 RMK TRACE SC BKN250=
200905061300 METAR MROC 061300Z 09004KT CAVOK 22/17 A3005 RMK TRAZAS SCT BKN270 NOSIG=
200905061400 METAR MROC 061400Z 10008KT CAVOK 24/16 A3005 RMK TRAZAS SCT BKN270 NOSIG=
200905061500 METAR MROC 061500Z 09004KT CAVOK 26/16 A3006 RMK TRAZAS SCT BKN270 NOSIG=
200905061600 METAR MROC 061600Z 21007KT 9999 SCT040 BKN270 27/19 A3006 NOSIG=
200905061700 METAR MROC 061700Z 23008KT 9999 FEW040 BKN270 28/19 A3006 NOSIG=
200905061800 METAR MROC 061800Z 25008KT 9999 SCT035 BKN270 28/18 A3003 NOSIG=
200905061900 METAR MROC 061900Z 24009KT 9999 SCT030 BKN270 29/19 A3000 NOSIG=
200905062000 METAR MROC 062000Z 28010KT 9999 VCSH FEW020CB BKN030 26/20 A2998 RMK VSBY E 7KM DUE RASH RN ARND BECMG 5000 TSRA=
200905062100 METAR MROC 062100Z 14008KT 3000 TSRA SCT015CB SCT030 20/19 A3000 NOSIG=
200905062200 METAR MROC 062200Z 09002KT 3000 RA FEW002 SCT010 BKN030 20/19 A3000 NOSIG=
200905062300 METAR MROC 062300Z 08003KT 9999 SCT030 BKN100 20/19 A3000 REDZ NOSIG=
200905070000 METAR MROC 070000Z 11003KT 9999 SCT030 BKN100 20/19 A3001 NOSIG=
200905070100 METAR MROC 070100Z 04002KT 9999 SCT030 BKN100 20/20 A3002 NOSIG=
200905070200 METAR MROC 070200Z 06002KT 9999 FEW040 SCT100 BKN250 20/19 A3003 BECMG CAVOK=
200905070300 METAR MROC 070300Z 35002KT CAVOK 20/19 A3005 RMK TRACE SC SCT100 BKN250 NOSIG=
200905070400 METAR MROC 070400Z 07003KT CAVOK 20/19 A3004 RMK TRACE SC BKN120 SCT250 NOSIG=
200905070500 METAR MROC 070500Z 07003KT CAVOK 22/18 A3003 RMK TRACE SC SCT120 FEW250 NOSIG=
200905070600 METAR MROC 070600Z 10004KT CAVOK 20/18 A3002 NOSIG=
200905070700 METAR MROC 070700Z 07006KT CAVOK 20/18 A3000 NOSIG=
200905070800 METAR MROC 070800Z 09004KT CAVOK 21/18 A2997 NOSIG=
200905070900 METAR MROC 070900Z 09006KT CAVOK 21/18 A2996 NOSIG=
200905071000 METAR MROC 071000Z 08004KT CAVOK 20/18 A2997 NOSIG=
200905071100 METAR MROC 071100Z 06003KT CAVOK 19/18 A2999 RMK BKN250 NOSIG=
200905071200 METAR MROC 071200Z 06006KT CAVOK 19/18 A3001 RMK TRACE SC BKN250 TCU DST SW NOSIG=
200905071300 METAR MROC 071300Z 01004KT 9999 FEW040 SCT120 22/18 A3003 NOSIG=
200905071400 METAR MROC 071400Z 31003KT 9999 FEW040 SCT120 23/18 A3004 RMK RN N NE NOSIG=
200905071500 METAR MROC 071500Z 06005KT 9999 SCT040 SCT120 25/18 A3006 RMK FEW250 RN N NE NOSIG=
200905071600 METAR MROC 071600Z 09005KT 9999 SCT040 SCT100 25/18 A3005 RMK RN N NE FEW250 NOSIG=
200905071700 METAR MROC 071700Z 06005KT 9999 SCT030 SCT100 25/19 A3004 RMK RN N NE FEW250 BECMG 24008KT=
200905071800 METAR MROC 071800Z 20002KT 9999 SCT030 SCT070 26/18 A3001 RMK RN N NE FEW250 NOSIG=
200905071900 METAR MROC 071900Z 04004KT 9999 SCT030 SCT070 27/19 A2997 RMK RN N NE FEW250 BECMG 24008KT=
200905072000 METAR MROC 072000Z 12006KT 9999 SCT030 SCT070 26/17 A2996 RMK RN N NE S FEW 250 NOSIG=
200905072100 METAR MROC 072100Z 26009KT 9999 SCT030 BKN100 24/19 A2996 RMK RN S/NW/N/E BECMG 6000 VCSH=
200905072200 METAR MROC 072200Z 25006KT 9999 SCT035 SCT110 23/19 A2997 RMK FEW080 RN SW BECMG 6000 VCSH=
200905072300 METAR MROC 072300Z 26007KT 9999 FEW015 BKN030 22/20 A2997 RMK FEW080 NOSIG=
200905080000 METAR MROC 080000Z 31003KT 9999 FEW007 SCT030 BKN110 22/20 A2998 REDZ NOSIG=
200905080100 METAR MROC 080100Z 19002KT 9999 FEW010 SCT030 21/20 A3000 RMK SCT100 NOSIG=
200905080200 METAR MROC 080200Z 06002KT 9999 FEW007 BKN110 21/20 A3002 RMK FEW030 NOSIG=
200905080300 METAR MROC 080300Z 08004KT CAVOK 21/19 A3002 RMK TRAZAS SCT OVC140 NOSIG=
200905080400 METAR MROC 080400Z 06004KT CAVOK 21/18 A3002 RMK TRAZAS SCT BKN140 NOSIG=
200905080500 METAR MROC 080500Z 09003KT CAVOK 21/18 A3002 RMK TRAZAS SCT FEW140 SCT270 NOSIG=
200905080600 METAR MROC 080600Z 05003KT CAVOK 20/17 A3002 RMK TRAZAS SCT SCT140 SCT270 NOSIG=
200905080700 METAR MROC 080700Z 06004KT CAVOK 20/17 A2999 RMK TRAZAS SC FEW120 SCT270 NOSIG=
200905080800 METAR MROC 080800Z 07006KT CAVOK 20/17 A2997 RMK FEW120 SCT270 NOSIG=
200905080900 METAR MROC 080900Z 06007KT CAVOK 20/16 A2996 RMK FEW140 NOSIG=
200905081000 METAR MROC 081000Z 06004KT CAVOK 20/16 A2997 RMK SCT270 NOSIG=
200905081100 METAR MROC 081100Z 06005KT CAVOK 19/15 A2997 RMK TRAZAS SCT SCT270 NOSIG=
200905081200 METAR MROC 081200Z 07005KT CAVOK 21/17 A2998 RMK TRAZAS SCT SCT270 NOSIG=
200905081300 METAR MROC 081300Z 08007KT CAVOK 23/16 A2999 RMK BKN270 NOSIG=
200905081400 METAR MROC 081400Z 09008KT CAVOK 25/17 A3000 RMK BKN270 TCU DST S NOSIG=
200905081500 METAR MROC 081500Z 10010KT CAVOK 27/17 A3000 RMK BKN270 NOSIG=
200905081600 METAR MROC 081600Z 11006KT 9999 FEW045 SCT260 28/17 A3002 BECMG 24006KT=
200905081700 METAR MROC 081700Z 23010KT 9999 FEW035 SCT045 28/19 A3000 RMK FEW260 TCU DST E NOSIG=
200905081800 METAR MROC 081800Z 24009KT 9999 FEW035 SCT045 29/20 A2998 RMK TCU/RN DST E NOSIG=
200905081900 METAR MROC 081900Z 24011KT 9999 FEW025TCU SCT040 29/20 A2995 RMK CB DST S RN NW CB/RN NE BECMG 6000 -TSRA FEW015CB=
200905082000 METAR MROC 082000Z 23013KT 9999 TS VCSH FEW015CB SCT030 28/20 A2994 RMK VIS 7KM NE CB/TSTM VIS 8KM W TCU/RN BECMG 5000 TSRA=
200905082100 METAR MROC 082100Z 03006KT 9999 -RA FEW015CB SCT025 BKN040 21/19 A2994 RETS RMK VIS VIS N NE 7KMS NOSIG=
200905082200 METAR MROC 082200Z 21006KT 6000 -RA VCFG FEW005 BKN015 21/20 A2995 NOSIG=
200905082300 METAR MROC 082300Z 35002KT 9999 -RA VCFG FEW012 SCT020 BKN070 21/20 A2997 RMK VIS N NE E 7KMS NOSIG=
200905090000 METAR MROC 090000Z 06004KT 9999 -RA FEW020 SCT035 BKN120 21/21 A2999 NOSIG=
200905090100 METAR MROC 090100Z 10002KT 9999 -RA FEW035 OVC120 21/21 A3000 NOSIG=
200905090200 METAR MROC 090200Z 06004KT 9999 FEW035 OVC120 21/20 A3001 RERA RMK LGT HZ ARND NOSIG=
200905090300 METAR MROC 090300Z 34002KT 9999 FEW035 OVC120 21/20 A3000 NOSIG=
200905090400 METAR MROC 090400Z 07003KT 9999 FEW035 BKN120 21/20 A3001 NOSIG=
200905090500 METAR MROC 090500Z 05006KT 9999 FEW035 BKN120 21/19 A3001 NOSIG=
200905090600 METAR MROC 090600Z 07003KT 9999 FEW040 BKN120 22/18 A3000 NOSIG=
200905090700 METAR MROC 090700Z 06006KT CAVOK 21/18 A2998 RMK TRACE SC BKN120 NOSIG=
200905090800 METAR MROC 090800Z 06004KT CAVOK 20/18 A2996 RMK TRACE SC SCT120 NOSIG=
200905090900 METAR MROC 090900Z 11011KT CAVOK 21/18 A2995 RMK TRACE SC SCT120 NOSIG=
200905091000 METAR MROC 091000Z 10006KT CAVOK 21/17 A2996 RMK TRACE SC SCT120 NOSIG=
200905091100 METAR MROC 091100Z 10007KT CAVOK 21/17 A2998 RMK TRACE SC SCT120 NOSIG=
200905091200 METAR MROC 091200Z 11008KT CAVOK 22/17 A2998 RMK TRACE SC AC SCT250 NOSIG=
200905091300 METAR MROC 091300Z 11008KT CAVOK 23/18 A3000 RMK TRACE SC BKN250 CB DST S NOSIG=
200905091400 METAR MROC 091400Z 10005KT CAVOK 25/18 A3001 RMK TRACE SC BKN250 NOSIG=
200905091500 METAR MROC 091500Z 10005KT CAVOK 28/16 A3001 RMK TRACE SC BKN250 VEL MAX VTO 11KT NOSIG=
200905091600 METAR MROC 091600Z 11007KT 9999 FEW040 BKN250 28/17 A3001 RMK VEL MAX VTO 12KT NOSIG=
200905091700 METAR MROC 091700Z 11008KT 9999 SCT040 SCT270 29/17 A3000 RMK VEL MAX VTO 13KT NOSIG=
200905091800 METAR MROC 091800Z 11008KT 9999 SCT045 SCT270 29/17 A2999 RMK VEL MAX VTO 15KT NOSIG=
200905091900 METAR MROC 091900Z 09007KT 9999 FEW030 SCT060 29/16 A2996 RMK VEL MAX VTO 13KT NOSIG=
200905092000 METAR MROC 092000Z 16005KT 9999 FEW025TCU SCT035 BKN070 29/17 A2994 RMK PCPN DST S BECMG 24006KT=
200905092100 METAR MROC 092100Z 23009KT 9999 VCSH FEW020CB BKN035 26/20 A2992 RMK FEW080 VIS 6000SW BECMG -TSRA=
200905092200 METAR MROC 092200Z 25007KT 9999 FEW020 SCT035 BKN090 23/18 A2994 RMK RN DST ESE NE NOSIG=
200905092300 METAR MROC 092300Z 31006KT 9999 FEW025 BKN090 23/20 A2995 NOSIG=
200905100000 METAR MROC 100000Z 16003KT 9999 FEW030 SCT100 BKN250 22/20 A2996 RMK RN DST E BECMG VRB03=
200905100100 METAR MROC 100100Z 28002KT 9999 FEW030 SCT100 BKN250 22/20 A2997 NOSIG=
200905100200 METAR MROC 100200Z 01002KT 9999 SCT030 SCT100 23/21 A2999 NOSIG=
200905100300 METAR MROC 100300Z 00000KT 9999 SCT030 SCT120 22/20 A3000 NOSIG=
200905100400 METAR MROC 100400Z 32003KT 9999 BKN030 22/20 A3002 RMK VIS 8KM SW DUE ST LTNG DST S NOSIG=
200905100500 METAR MROC 100500Z 11005KT 9999 FEW030 SCT260 22/18 A3001 RMK FEW120 CB/LTNG DST S NOSIG=
200905100600 METAR MROC 100600Z 09007KT 9999 FEW030 SCT260 22/18 A2997 RMK LTNG DST NE/E/S NOSIG=
200905100700 METAR MROC 100700Z 11009KT 9999 FEW030 BKN260 22/18 A2996 RMK CB/LTNG DST NE LTNG DST S NOSIG=
200905100800 METAR MROC 100800Z 11008KT 9999 FEW030 BKN260 23/17 A2995 RMK FEW110=
200905100900 METAR MROC 100900Z 11009KT 9999 FEW030 SCT110 23/18 A2994 RMK SCT260=
200905101000 METAR MROC 101000Z 11010KT 9999 SCT030 SCT110 22/18 A2995 RMK FEW260=
200905101100 METAR MROC 101100Z 07006KT 9999 FEW030 SCT110 22/18 A2995 RMK SCT260=
200905101200 METAR MROC 101200Z 14008KT 9999 -DZ SCT030 BKN100 22/18 A2996 RMK CB DST S/E NOSIG=
200905101300 METAR MROC 101300Z 09005KT 9999 FEW030 BKN100 23/18 A2999 RMK DZ DST NE S=
200905101400 METAR MROC 101400Z 06006KT CAVOK 23/18 A3000 RMK BKN100 TRACE SC NOSIG=
200905101500 METAR MROC 101500Z 09006KT CAVOK 25/18 A3000 RMK TRACE SC SCT100 SCT250 NOSIG=
200905101600 METAR MROC 101600Z 10010KT CAVOK 27/18 A3000 RMK TRACE SC SCT100 BKN250 NOSIG=
200905101700 METAR MROC 101700Z 10008KT 9999 SCT030 BKN120 28/18 A2999 RMK FEW250 NOSIG=
200905101800 METAR MROC 101800Z 11008KT 9999 SCT030 SCT120 29/18 A2999 RMK FEW250 DZ DST NE NOSIG=
200905101900 METAR MROC 101900Z 09005KT 9999 SCT030 BKN120 28/17 A2996 RMK RN DST N NE NOSIG=
200905102000 METAR MROC 102000Z 06016KT 9999 SCT025 BKN040 26/18 A2994 RMK RN DST E NE N=
200905102100 METAR MROC 102100Z 08012KT CAVOK 25/17 A2992 RMK TRAZAS SCT OVC140 DZ NE NOSIG=
200905102200 METAR MROC 102200Z 09010KT CAVOK 25/18 A2990 RMK TRAZAS SCT OVC140 NOSIG=
200905102300 METAR MROC 102300Z 08012KT CAVOK 25/17 A2988 RMK TRAZAS SCT OVC140 MAX/ WIND 17KT NOSIG=
200905110000 METAR MROC 110000Z 08010KT CAVOK 24/17 A2990 RMK SCT140 SCT280 TRAZAS SCT NOSIG=
200905110100 METAR MROC 110100Z 08003KT 9999 FEW035 BKN140 24/18 A2994 NOSIG=
200905110200 METAR MROC 110200Z 10006KT 9999 FEW035 BKN120 23/18 A2999 RMK LTNG DST N VEL MAX VTO 11KT NOSIG=
200905110300 METAR MROC NIL=
200905110400 METAR MROC 110400Z 12007KT 9999 FEW035 BKN120 22/18 A2998 NOSIG=
200905110500 METAR MROC 110500Z 11006KT 9999 FEW030 BKN060 22/18 A2998 RMK LTNG DST N NE S NOSIG=
200905110600 METAR MROC 110600Z 07003KT 9999 FEW035 BKN250 22/18 A2997 RMK LTNG DST S N NE NOSIG=
200905110700 METAR MROC 110700Z 08006KT CAVOK 22/18 A2995 RMK TRACE SC BKN250 NOSIG=
200905110800 METAR MROC 110800Z 10006KT CAVOK 22/18 A2994 RMK TRACE SC BKN250 LTNG DST S NOSIG=
200905110900 METAR MROC 110900Z 08005KT CAVOK 22/18 A2993 RMK TRACE SC BKN250 LTNG DST S NOSIG=
200905111000 METAR MROC 111000Z 06004KT CAVOK 22/18 A2993 RMK TRACE SCT BKN250 NOSIG=
200905111100 METAR MROC 111100Z 09007KT 9999 FEW030 SCT160 BKN250 22/18 A2991 NOSIG=
200905111200 METAR MROC 111200Z 10012KT 9999 FEW030 SCT140 BKN250 23/18 A2992 RMK CB DST S VEL MAX VTO 17KT NOSIG=
200905111300 METAR MROC 111300Z 11014KT 9999 FEW025 BKN250 24/18 A2994 NOSIG=
200905111400 METAR MROC 111400Z 10012KT 9999 FEW025 BKN250 26/18 A2996 RMK DZ NE MAX=
200905111500 METAR MROC 111500Z 10012KT 9999 FEW025 BKN250 28/18 A2997 RMK DZ NE NOSIG=
200905111600 METAR MROC 111600Z 09013KT 9999 SCT045 BKN250 27/18 A2997 RMK DZ NE MAX/=
200905111700 METAR MROC 111700Z 08010KT 9999 FEW040 BKN250 28/18 A2997 RMK DZ N NE NOSIG=
200905111800 METAR MROC 111800Z 08012KT 9999 FEW035 BKN250 29/17 A2996 RMK DZ NE MAX/=
200905111900 METAR MROC 111900Z 13009KT 9999 FEW035 SCT140 BKN250 28/18 A2994 NOSIG=
200905112000 METAR MROC 112000Z 13006KT 9999 FEW040 BKN120 27/18 A2992 RMK RN N NOSIG=
200905112100 METAR MROC 112100Z 13007KT 9999 SCT040 BKN100 28/18 A2990 NOSIG=
200905112200 METAR MROC 112200Z 12007KT 9999 FEW040 SCT100 BKN250 27/18 A2990 NOSIG=
200905112300 METAR MROC 112300Z 12006KT 9999 FEW040 SCT100 BKN250 25/17 A2991 NOSIG=
200905120000 METAR MROC 120000Z 11007KT 9999 FEW040 SCT100 BKN250 24/18 A2993 RMK TCU DST SW NOSIG=
200905120100 METAR MROC 120100Z 10005KT CAVOK 23/17 A2995 RMK TRACE SC SCT120 BKN250 NOSIG=
200905120200 METAR MROC 120200Z 09004KT CAVOK 23/18 A2996 RMK TRACE SC SCT120 BKN250 NOSIG=
200905120300 METAR MROC 120300Z 09006KT CAVOK 23/18 A2998 RMK TRACE SC FEW120 BKN250=
200905120400 METAR MROC 120400Z 10005KT CAVOK 23/18 A2999 RMK TRACE SC FEW060 SCT120 FEW250 NOSIG=
200905120500 METAR MROC 120500Z 09008KT CAVOK 23/18 A2998 RMK TRACE SC BKN120 LTNG SE S=
200905120600 METAR MROC 120600Z 06008KT 9999 FEW035 BKN120 22/18 A2997 NOSIG=
200905120700 METAR MROC 120700Z 11003KT 9999 FEW035 BKN120 22/18 A2995 NOSIG=
200905120800 METAR MROC 120800Z 10006KT 9999 FEW040 SCT120 21/18 A2991 NOSIG=
200905120900 METAR MROC 120900Z 09006KT 9999 FEW040 SCT140 21/18 A2993 RMK LTNG S SE=
200905121000 METAR MROC 121000Z 05007KT CAVOK 20/18 A2992 RMK TRACE SC SCT140 NOSIG=
200905121100 METAR MROC 121100Z 08005KT CAVOK 20/18 A2992 RMK TRACE SC BKN120 CB DST E NOSIG=
200905121200 METAR MROC 121200Z 10005KT CAVOK 21/18 A2993 RMK TRACE SC SCT120 BKN250 DZ DST NE NOSIG=
200905121300 METAR MROC 121300Z 11007KT CAVOK 22/18 A2995 RMK TRACE SC BKN120 RN N NE=
200905121400 METAR MROC 121400Z 10010KT 9999 FEW035 BKN120 23/18 A2998 RMK DZ N NE NOSIG=
200905121500 METAR MROC 121500Z 07009KT 9999 FEW035 BKN120 23/18 A3000 RMK DZ N NE E NOSIG=
200905121600 METAR MROC 121600Z 11010KT 9999 SCT030 BKN120 23/18 A2998 RMK RN N NE E NOSIG=
200905121700 METAR MROC 121700Z 11009KT 9999 SCT030 BKN120 24/17 A3000 RMK RN N NE NOSIG=
200905121800 METAR MROC 121800Z 10012KT 9999 FEW030 BKN120 24/18 A3001 RMK DZ N NE E NOSIG=
200905121900 METAR MROC 121900Z 09010KT 9999 FEW030 SCT120 BKN250 25/17 A2997 RMK DZ N NE NOSIG=
200905122000 METAR MROC 122000Z 12009KT 9999 FEW030 SCT120 BKN250 25/17 A2995 RMK DZ N NE NOSIG=
200905122100 METAR MROC 122100Z 120007KT 9999 FEW030 SCT120 BKN250 26/18 A2993 RMK DZ DST NE NOSIG=
200905122200 METAR MROC 122200Z 12007KT 9999 FEW030 SCT120 25/17 A2992 RMK SCT250 DZ DST N/NE NOSIG=
200905122300 METAR MROC 122300Z 12006KT 9999 FEW035 BKN120 24/17 A2993 RMK FEW250 DZ DST NE/E NOSIG=
200905130000 METAR MROC 130000Z 11006KT 9999 FEW035 BKN120 23/17 A2996 RMK FEW250 DZ NE/E NOSIG=
200905130100 METAR MROC 130100Z 11004KT 9999 FEW030 BKN120 22/16 A2998 RMK FEW250 DZ DST NE/E LTNG DST S NOSIG=
200905130200 METAR MROC 130200Z 08006KT 9999 FEW030 SCT120 22/17 A2999 RMK SCT250 NOSIG=
200905130300 METAR MROC 130300Z 09006KT CAVOK 21/17 A3001 RMK TRAZAS SCT BKN250 NOSIG=
200905130400 METAR MROC 130400Z 10006KT CAVOK 21/16 A3001 RMK TRAZAS SCT BKN250 NOSIG=
200905130500 METAR MROC 130500Z 08007KT CAVOK 21/16 A3001 RMK SCT140 SCT250 NOSIG=
200905130600 METAR MROC 130600Z 08007KT CAVOK 21/17 A2998 RMK TRAZAS SCT BKN130 NOSIG=
200905130700 METAR MROC NIL=
200905130800 METAR MROC 130800Z 10006KT CAVOK 21/16 A2997 RMK SCT120 NOSIG=
200905130900 METAR MROC 130900Z 05003KT CAVOK 21/17 A2994 RMK SCT120 NOSIG=
200905131000 METAR MROC 131000Z 08006KT CAVOK 21/17 A2995 RMK TRAZAS SC FEW250 NOSIG=
200905131100 METAR MROC 131100Z 08008KT CAVOK 21/17 A2996 RMK TRAZAS SCT FEW250 NOSIG=
200905131200 METAR MROC 131200Z 11009KT CAVOK 21/16 A2996 RMK TRAZAS SCT BKN280 CB DST S NOSIG=
200905131300 METAR MROC 131300Z 11011KT 9999 FEW030 BKN250 22/17 A2998 RMK DZ NE NOSIG=
200905131400 METAR MROC 131400Z 10010KT 9999 FEW035 BKN250 24/16 A2999 RMK TCU DST S DZ DST NE/E VL MX VTO  18KT NOSIG=
200905131500 METAR MROC 131500Z 10012KT 9999 FEW040 BKN250 26/17 A3000 RMK FEW130 TCU DST S DZ DST NE/E VL MX VTO  19KT NOSIG=
200905131600 METAR MROC 131600Z 10010KT 9999 FEW040 SCT250 27/17 A3001 RMK FEW130 DZ DST NE/E NOSIG=
200905131700 METAR MROC 131700Z 11009KT 9999 FEW040 SCT250 28/17 A3000 RMK FEW120 TCU DST SSE/S DZ DST NE/E NOSIG=
200905131800 METAR MROC 131800Z 12009KT 9999 SCT040 SCT120 28/17 A2998 RMK FEW250 TCU DST NE/S DZ DST NE/E NOSIG=
200905131900 METAR MROC 131900Z 10011KT 9999 FEW030TCU SCT040 SCT110 27/17 A2995 RMK TCU OVR STND DZ DST NE/E/SE VL MX VTO  18KT BECMG 7000 -DZ=
200905132000 METAR MROC 132000Z 11009KT 9999 SCT035 SCT110 28/17 A2993 RMK FEW080 RN E DZ NE/SE BECMG 7000 -RA=
200905132100 METAR MROC 132100Z 21006KT 9999 SCT035 BKN050 23/20 A2994 RMK RASH DST W NW RN E SE BECMG 7000 -RA=
200905132200 METAR MROC 132200Z 16004KT 9999 SCT035 BKN045 23/19 A2996 RMK SCT RN DST ARND NOSIG=
200905132300 METAR MROC 132300Z 29005KT 9999 FEW015 SCT025 BKN120 21/20 A2997 RMK LGT HZ ARND NOSIG=
200905140000 METAR MROC 140000Z 00000KT 9999 -RA FEW030 SCT045 BKN220 22/20 A2999 RMK CB DST E NOSIG=
200905140100 METAR MROC 140100Z 00000KT 9999 FEW035 SCT070 BKN250 22/19 A3000 NOSIG=
200905140200 METAR MROC 140200Z 06003KT 9999 FEW035 SCT070 BKN250 21/18 A3002 NOSIG=
200905140300 METAR MROC 140300Z 06003KT 9999 FEW035 SCT070 BKN250 21/19 A3004 NOSIG=
200905140400 METAR MROC 140400Z 07005KT CAVOK 21/18 A3004 RMK TRACE SC SCT120 BKN250 NOSIG=
200905140500 METAR MROC 140500Z 04010KT CAVOK 22/17 A3002 RMK TRACE SC SCT120 BKN250 NOSIG=
200905140600 METAR MROC 140600Z 05006KT CAVOK 22/18 A3000 RMK TRACE SC SCT120 BKN250 NOSIG=
200905140700 METAR MROC 140700Z 09006KT CAVOK 21/18 A2997 RMK TRACE SC SCT120 BKN250 NOSIG=
200905140800 METAR MROC 140800Z 10007KT CAVOK 21/17 A2996 RMK TRACE SC SCT120 BKN250 NOSIG=
200905140900 METAR MROC 140900Z 06007KT CAVOK 21/17 A2995 RMK TRACE SC SCT120 BKN250 NOSIG=
200905141000 METAR MROC 141000Z 06006KT CAVOK 20/17 A2996 RMK TRACE SC SCT120 BKN250 NOSIG=
200905141100 METAR MROC 141100Z 07005KT CAVOK 21/17 A2997 RMK TRACE SC SCT120 BKN250 NOSIG=
200905141200 METAR MROC 141200Z 06007KT CAVOK 20/16 A2998 RMK TRACE SC AC BKN250 DZ NE NOSIG=
200905141300 METAR MROC 141300Z 11007KT CAVOK 23/17 A3001 RMK TRACE SC BKN270 NOSIG=
200905141400 METAR MROC 141400Z 08007KT CAVOK 25/17 A3002 RMK TRACE SC AC BKN270 NOSIG=
200905141500 METAR MROC 141500Z 09007KT CAVOK 27/15 A3002 RMK TRACE SC AC BKN300 VEL MAX VTO 12KT CB DST S NOSIG=
200905141600 METAR MROC 141600Z 10008KT 9999 FEW040 SCT300 29/17 A3001 RMK TRACE AC BECMG 24006KT=
200905141700 METAR MROC 141700Z 12007KT 9999 SCT040 SCT300 29/17 A2999 BECMG 24007KT=
200905141800 METAR MROC 141800Z 22006KT 9999 FEW025TCU SCT040 27/19 A2998 BECMG 5000 -TSRA=
200905141900 METAR MROC 141900Z 23012KT 9999 FEW025TCU BKN040 26/21 A2996 RMK RASH DST S SW RN E BECMG 5000 TSRA=
200905142000 METAR MROC 142000Z 25007KT 9999 -RA VCSH FEW015CB BKN040 23/21 A2996 RETS RMK VIS NW 7KMS TS DST WNW NOSIG=
200905142100 METAR MROC 142100Z 26006KT 9999 VCFG FEW006 SCT020 BKN080 23/22 A2995 RMK VIS 6000 SW W RN DST ARND NOSIG=
200905142200 METAR MROC 142200Z 25003KT 9999 FEW012 SCT030 23/21 A2995 RMK FEW090 FEW250 NOSIG=
200905142300 METAR MROC 142300Z 12003KT 9999 FEW030 BKN110 23/22 A2995 NOSIG=
200905150000 METAR MROC 150000Z 10004KT 9999 FEW035 SCT100 BKN250 23/18 A2996 RMK RN DST E NOSIG=
200905150100 METAR MROC 150100Z 08006KT 9999 FEW030 SCT120 22/17 A2999 NOSIG=
200905150200 METAR MROC 150200Z 07004KT 9999 FEW025 SCT100 21/17 A3001 NOSIG=
200905150300 METAR MROC 150300Z 11008KT 9999 FEW025 SCT100 22/17 A3002 NOSIG=
200905150400 METAR MROC 150400Z 09008KT 9999 FEW030 SCT100 22/17 A3003 NOSIG=
200905150500 METAR MROC 150500Z 11008KT 9999 FEW030 SCT100 22/16 A3002 NOSIG=
200905150600 METAR MROC 150600Z 06008KT 9999 FEW030 SCT100 21/17 A2999 NOSIG=
200905150700 METAR MROC 150700Z 09007KT 9999 FEW030 SCT100 22/16 A2996 NOSIG=
200905150800 METAR MROC 150800Z 09007KT 9999 FEW030 BKN110 23/16 A2994 NOSIG=
200905150900 METAR MROC 150900Z 06010KT CAVOK 22/16 A2994 RMK SCT120 FEW260 NOSIG=
200905151000 METAR MROC 151000Z 12004KT CAVOK 22/16 A2996 RMK SCT120 FEW260 NOSIG=
200905151100 METAR MROC 151100Z 10005KT CAVOK 21/16 A2997 RMK BKN120 CB/LTNG DST S NOSIG=
200905151200 METAR MROC 151200Z 08005KT CAVOK 22/16 A2999 RMK TRACE SC SCT120 NOSIG=
200905151300 METAR MROC 151300Z 09008KT CAVOK 24/16 A2999 RMK TRACE SC SCT120 FEW250 NOSIG=
200905151400 METAR MROC 151400Z 11009KT CAVOK 24/16 A3000 RMK TRACE SC BKN120 FEW250 TCU DST SSW SW NOSIG=
200905151500 METAR MROC 151500Z 11010KT CAVOK 26/17 A3001 RMK TRACE SC BKN120 VEL MAX VTO 16KT NOSIG=
200905151600 METAR MROC 151600Z 12010KT 9999 FEW030 SCT120 BKN250 26/17 A3000 NOSIG=
200905151700 METAR MROC 151700Z 11009KT 9999 FEW030 SCT250 28/17 A2998 RMK TCU NE/N=
200905151800 METAR MROC 151800Z 09006KT 9999 FEW030 SCT250 29/12 A2996 RMK TCU SE/E BECMG 24006KT NOSIG=
200905151900 METAR MROC 151900Z 09007KT 9999 FEW030TCU SCT130 BKN250 29/16 A2994 RMK CB RN DST N NE SW=
200905152000 METAR MROC 152000Z VRB03KT 9999 FEW025TCU SCT120 BKN250 28/16 A2994 RMK CB RN W SW N NE BECMG 22006KT 7000 RA=
200905152100 METAR MROC 152100Z 26011KT 9999 SCT040 SCT035 BKN280 27/20 A2990 RMK RN DST N NOSIG=
200905152200 METAR MROC NIL=
200905152300 METAR MROC 152300Z 25005KT 9999 VCFG FEW010 SCT025 BKN250 23/22 A2992 RMK VSBY NW N NE 6KM DUE LW ST RN E NOSIG=
200905160000 METAR MROC 160000Z 26003KT 6000 -RA FEW010 BKN025 23/21 A2995 NOSIG=
200905160100 METAR MROC 160100Z 22004KT 9999 FEW010 BKN020 22/21 A2997 NOSIG=
200905160200 METAR MROC 160200Z 27006KT 9999 VCFG SCT008 BKN020 21/21 A2998 RMK VSBY N NE 6KM DUE LW ST NOSIG=
200905160300 METAR MROC 160300Z 33004KT 9999 FEW030 SCT140 21/21 A2999 RMK FEW080 BECMG 04004KT=
200905160400 METAR MROC NIL=
200905160500 METAR MROC NIL=
200905160600 METAR MROC 160600Z 03004KT 9999 FEW035 SCT150 BKN250 21/21 A2998 RMK HZY NOSIG=
200905160700 METAR MROC 160700Z 04004KT 9999 FEW035 BKN170 21/20 A2995 RMK HZY NOSIG=
200905160800 METAR MROC 160800Z 00000KT 9999 FEW035 SCT170 20/19 A2993 NOSIG=
200905160900 METAR MROC 160900Z 00000KT 9999 FEW040 BKN250 20/19 A2994 NOSIG=
200905161000 METAR MROC 161000Z 01003KT 9999 SCT045 BKN250 20/19 A2994 NOSIG=
200905161100 METAR MROC 161100Z 10003KT 9999 FEW030 BKN045 20/18 A2996 NOSIG=
200905161200 METAR MROC 161200Z 02004KT 9999 FEW030 SCT045 BKN250 20/19 A2997 NOSIG=
200905161300 METAR MROC 161300Z 10003KT CAVOK 23/18 A3000 RMK FEW120 BKN250 TRAZAS SCT NOSIG=
200905161400 METAR MROC 161400Z 23003KT CAVOK 23/18 A3000 RMK TRAZAS SCT FEW120 BKN250 NOSIG=
200905161500 METAR MROC 161500Z 01002KT CAVOK 26/18 A3000 RMK TRAZAS SCT SCT120 BKN250 BECMG 24006=
200905161600 METAR MROC 161600Z 25007KT 9999 FEW035 BKN120 26/20 A3000 RMK SCT250 NOSIG=
200905161700 METAR MROC 161700Z 26008KT 9999 SCT025TCU SCT120 BKN250 27/20 A2999 RMK HZ W NOSIG=
200905161800 METAR MROC 161800Z 20011KT 6000 VCSH FEW020CB BKN030 23/20 A2999 RMK VSBY NE E UNL BECMG 5000 TSRA=
200905161900 METAR MROC 161900Z 03006KT 6000 VCSH FEW020 SCT045 OVC130 21/19 A2999 RMK VSBY S SE W UNL NOSIG=
200905162000 METAR MROC 162000Z 08003KT 9999 -RA FEW080 OVC120 21/20 A2997 RMK TRAZAS SCT BECMG 24006KT=
200905162100 METAR MROC 162100Z 09005KT 9999 -DZ BKN120 24/20 A2992 RERA RMK TRACE SC=
200905162200 METAR MROC 162200Z 11007KT 9999 FEW035 BKN120 25/19 A2991 REDZ NOSIG=
200905162300 METAR MROC 162300Z 09007KT 9999 FEW035 BKN120 24/18 A2992 NOSIG=
200905170000 METAR MROC 170000Z 12002KT 9999 FEW035 BKN120 23/18 A2994 NOSIG=
200905170100 METAR MROC 170100Z 08005KT 9999 FEW035 BKN120 23/17 A2996 NOSIG=
200905170200 METAR MROC 170200Z 09005KT 9999 FEW035 BKN120 22/17 A2996 NOSIG=
200905170300 METAR MROC 170300Z 06005KT CAVOK 21/17 A2997 RMK TRACE SC SCT120 NOSIG=
200905170400 METAR MROC 170400Z 08005KT CAVOK 21/17 A2997 RMK TRACE SC SCT120 NOSIG=
200905170500 METAR MROC 170500Z 09004KT CAVOK 21/16 A2997 RMK TRACE SC SCT120 NOSIG=
200905170600 METAR MROC 170600Z 07006KT CAVOK 21/16 A2996 RMK TRACE SC SCT120 NOSIG=
200905170700 METAR MROC 170700Z 05008KT CAVOK 20/16 A2994 NOSIG=
200905170800 METAR MROC 170800Z 06009KT CAVOK 20/16 A2992 RMK TRACE SC SCT120 NOSIG=
200905170900 METAR MROC 170900Z 04006KT CAVOK 19/16 A2992 NOSIG=
200905171000 METAR MROC 171000Z 07004KT CAVOK 19/15 A2994 NOSIG=
200905171100 METAR MROC 171100Z 06004KT CAVOK 18/16 A2994 RMK SCT250 NOSIG=
200905171200 METAR MROC 171200Z 08005KT CAVOK 18/16 A2995 RMK TCU DST SW BKN250 NOSIG=
200905171300 METAR MROC 171300Z 07007KT CAVOK 22/16 A2996 RMK TRACE SC BKN250 TCU DST SW NOSIG=
200905171400 METAR MROC 171400Z VRB03KT CAVOK 24/17 A2998 RMK TRACE SC SCT250 TCU DST SW NOSIG=
200905171500 METAR MROC 171500Z 27007KT 9999 FEW040 SCT250 25/18 A2999 RMK TCU DST SW NOSIG=
200905171600 METAR MROC 171600Z 26008KT 9999 SCT040 25/20 A2999 NOSIG=
200905171700 METAR MROC 171700Z 23006KT 9999 SCT035 28/20 A2997 NOSIG=
200905171800 METAR MROC 171800Z 26007KT 9999 SCT035 28/19 A2995 NOSIG=
200905171900 METAR MROC 171900Z 25005KT 9999 FEW015CB SCT030 28/19 A2992 RMK RN E NOSIG=
200905172000 METAR MROC 172000Z 19007KT 9999 FEW015CB SCT030 25/18 A2991 RMK RN E/S/N NOSIG=
200905172100 METAR MROC 172100Z 18003KT 7000 -TSRA FEW015CB SCT030 BKN100 21/19 A2991 NOSIG=
200905172200 METAR MROC 172200Z 13002KT 9999 -RA SCT025 OVC100 21/20 A2991 NOSIG=
200905172300 METAR MROC 172300Z 24006KT 6000 -RA FEW010 SCT020 OVC100 21/20 A2994 RMK UNL E BECMG 5000 -RA=
200905180000 METAR MROC 180000Z 32003KT 5000 -RA FEW010 SCT025 OVC100 20/20 A2995 NOSIG=
200905180100 METAR MROC 180100Z 21003KT 4000 BR FEW004 SCT020 OVC100 20/20 A2996 NOSIG=
200905180200 METAR MROC 180200Z 04008KT 9999 SCT025 SCT100 21/20 A2997 RMK HZ ARND NOSIG=
200905180300 METAR MROC 180300Z 07003KT 9999 FEW045 20/20 A2997 NOSIG=
200905180400 METAR MROC 180400Z 25003KT CAVOK 20/19 A3001 RMK FEW100 NOSIG=
200905180500 METAR MROC 180500Z 03004KT 9999 FEW035 20/19 A3001 NOSIG=
200905180600 METAR MROC 180600Z 03003KT 9999 FEW040 SCT130 20/19 A2998 NOSIG=
200905180700 METAR MROC 180700Z 10003KT CAVOK 20/19 A2996 RMK TRAZAS SC SCT120 NOSIG=
200905180800 METAR MROC 180800Z 12003KT CAVOK 18/18 A2995 RMK SCT120 TRAZAS SCT NOSIG=
200905180900 METAR MROC 180900Z 04004KT CAVOK 19/18 A2995 RMK BKN120 TRAZAS SCT NOSIG=
200905181000 METAR MROC 181000Z 08005KT CAVOK 18/17 A2995 RMK BKN120 TRZAS SCT NOSIG=
200905181100 METAR MROC 181100Z 07003KT CAVOK 18/17 A2996 RMK BKN120 TRAZAS SCT NOSIG=
200905181200 METAR MROC 181200Z 07006KT CAVOK 19/17 A2997 RMK TRAZAS SCT FEW250 CB DST S NOSIG=
200905181300 METAR MROC 181300Z 09003KT CAVOK 22/18 A2998 RMK TRACE SC CU SCT300 NOSIG=
200905181400 METAR MROC 181400Z 08002KT CAVOK 24/19 A2999 RMK TRACE SC BKN300 NOSIG=
200905181500 METAR MROC 181500Z 04002KT 9999 FEW030 BKN250 27/17 A2999 RMK HZ LGT ARND BECMG 24005=
200905181600 METAR MROC 181600Z 22006KT 9999 FEW025 BKN250 26/19 A2999 NOSIG=
200905181700 METAR MROC 181700Z 25006KT 9999 SCT025 BKN250 27/20 A2998 NOSIG=
200905181800 METAR MROC 181800Z 23008KT 9999 SCT025 BKN250 27/20 A2996 NOSIG=
200905181900 METAR MROC 181900Z 24009KT 9999 SCT025 SCT250 27/22 A2993 RMK TCU NE E NOSIG=
200905182000 METAR MROC 182000Z 24011KT 9999 SCT020TCU SCT110 27/22 A2992 RMK RN DST N NE E BECMG 7000 VCSH=
200905182100 METAR MROC 182100Z 24011KT 9999 FEW015 BKN035 26/22 A2991 RMK RASH DST N E QUAD RN DS S BECMG 5000 TSRA=
200905182101 METAR MROC 182101Z 24011KT 9999 FEW015CB BKN035 26/22 A2991 RMK RASH DST N E QUAD RN DS S BECMG 5000 TSRA=
200905182200 METAR MROC 182200Z 23011KT 7000 3000E TSRA SCT015CB BKN025 22/21 A2993 BECMG 1500 +TSRA=
200905182300 METAR MROC 182300Z 20004KT 9999 FEW010 SCT025 BKN030 21/20 A2994 RETSRA NOSIG=
200905190000 METAR MROC 190000Z 00000KT 9999 OVC030 22/20 A2995 RMK TRACE ST NOSIG=
200905190100 METAR MROC 190100Z 11002KT 9999 FEW025 BKN035 21/20 A2997 NOSIG=
200905190200 METAR MROC 190200Z 07003KT 9999 FEW030 SCT110 21/19 A2999 RMK LTNG DIST S NOSIG=
200905190300 METAR MROC 190300Z 09003KT 9999 FEW030 SCT110 22/18 A3000 NOSIG=
200905190400 METAR MROC 190400Z 06004KT 9999 FEW035 SCT110 21/19 A3000 NOSIG=
200905190500 METAR MROC 190500Z 07004KT 9999 FEW035 SCT110 21/19 A2998 NOSIG=
200905190600 METAR MROC 190600Z 02006KT CAVOK 20/18 A2997 RMK TRACE SC AC SCT250=
200905190700 METAR MROC 190700Z 06007KT CAVOK 20/18 A2996 RMK TRACE SC AC SCT250 NOSIG=
200905190800 METAR MROC 190800Z VRB03KT CAVOK 19/18 A2994 RMK TRACE SC AC SCT250 NOSIG=
200905190900 METAR MROC 190900Z 09002KT CAVOK 20/18 A2993 RMK TRACE SC AC SCT250 NOSIG=
200905191000 METAR MROC 191000Z 08003KT CAVOK 19/17 A2994 RMK TRACE SC AC SCT250 NOSIG=
200905191100 METAR MROC 191100Z 07006KT CAVOK 19/16 A2994 RMK TRACE SC SCT250 NOSIG=
200905191200 METAR MROC 191200Z 07004KT CAVOK 20/16 A2997 RMK TRACE SC SCT250 HZ=
200905191300 METAR MROC 191300Z 06004KT CAVOK 23/17 A2998 RMK TRACE SC BKN250 HZY NOSIG=
200905191400 METAR MROC 191400Z 06008KT CAVOK 26/17 A2998 RMK TRACE CU SCT HZY BKN250 BECMG 25006KT=
200905191500 METAR MROC 191500Z 21004KT CAVOK 28/16 A2998 RMK TRACE CU BKN250 HZY NOSIG=
200905191600 METAR MROC 191600Z 26008KT 9999 FEW040 BKN250 27/19 A2998 RMK HZY NOSIG=
200905191700 METAR MROC 191700Z 25009KT 9999 FEW040 BKN250 27/20 A2997 RMK HZY NOSIG=
200905191800 METAR MROC 191800Z 25008KT 9999 FEW030TCU BKN250 27/21 A2995 RMK HZY=
200905191900 METAR MROC 191900Z 24009KT 9999 SCT025 SCT250 28/21 A2992 RMK HZY=
200905192000 METAR MROC 192000Z 25010KT 9999 SCT025TCU SCT250 28/21 A2990 RMK PCPN DST S E BECMG 5000 VCSH=
200905192100 METAR MROC 192100Z 22008KT 2000 -TS SHRA SCT010CB BKN030 22/20 A2991 RMK 4000 -TSRA=
200905192200 METAR MROC 192200Z 10004KT 4000 -TSRA SCT004 FEW010CB BKN020 19/19 A2994 NOSIG=
200905192300 METAR MROC 192300Z 14002KT 4000 1500SW R07/0900 -TSRA SCT002 FEW008CB BKN020 20/19 A2997 RMK VIS 7000 NOSIG=
200905200000 METAR MROC 200000Z 04005KT 6000 RA SCT020 BKN080 20/20 A2999 RMK TS DST NW N NOSIG=
200905200100 METAR MROC NIL=
200905200200 METAR MROC NIL=
200905200300 METAR MROC NIL=
200905200400 METAR MROC NIL=
200905200500 METAR MROC 200500Z 03007KT CAVOK 20/18 A2999 RMK HZ LGT ARND SCT110 NOSIG=
200905200600 METAR MROC 200600Z 00000KT CAVOK 19/18 A2999 RMK SCT100 HZ LGT ARND BECMG 6000 FEW006=
200905200700 METAR MROC 200700Z 05005KT CAVOK 19/18 A2997 RMK SCT100 NOSIG=
200905200800 METAR MROC 200800Z 06003KT CAVOK 19/18 A2996 RMK BKN110 NOSIG=
200905200900 METAR MROC 200900Z 08003KT 9999 FEW030 SCT110 19/17 A2997 RMK FEW250 NOSIG=
200905201000 METAR MROC 201000Z 07003KT CAVOK 19/17 A2996 RMK BKN110 NOSIG=
200905201100 METAR MROC 201100Z 08004KT CAVOK 19/16 A2997 RMK BKN110 FEW260 CB DST S NOSIG=
200905201200 METAR MROC 201200Z 09004KT CAVOK 20/16 A2999 RMK TRACE SC AC BKN250 NOSIG=
200905201300 METAR MROC 201300Z 05006KT CAVOK 22/17 A3000 RMK TRACE SC BKN250=
200905201400 METAR MROC 201400Z 08005KT CAVOK 25/18 A3001 RMK TRACE SC AC BKN250 NOSIG=
200905201500 METAR MROC 201500Z 11005KT CAVOK 27/17 A3001 RMK TRACE SC BKN250 NOSIG=
200905201600 METAR MROC 201600Z 12006KT CAVOK 28/18 A2999 RMK TRACE CU BKN250 NOSIG=
200905201700 METAR MROC 201700Z 11005KT 9999 FEW040 BKN250 29/17 A2997 BECMG 22006KT=
200905201800 METAR MROC 201800Z 12005KT 9999 SCT035 BKN250 29/20 A2995 BECMG 22006KT=
200905201900 METAR MROC 201900Z 20006KT 9999 FEW020CB SCT030 BKN250 27/20 A2994 RMK TCU NE RN DST NE NW=
200905202000 METAR MROC 202000Z 23008KT 9999 VCTS FEW020CB SCT030 BKN250 27/22 A2993 RMK RN S SW N NE=
200905202100 METAR MROC 202100Z 20009KT 6000 VCSH FEW020TC SCT030 SCT250 26/20 A2992 RMK VSBY SE S SW W UNL BECMG 6000 TSRA=
200905202200 METAR MROC 202200Z 19005KT 9999 VCSH FEW020CB SCT030 BKN250 23/21 A2993 RMK RN ARND VSBY SW 6KM DUE RASH NOSIG=
200905202300 METAR MROC 202300Z 24008KT 6000 -RA VCFG FEW003 SCT030 BKN120 22/22 A2995 RMK VSBY NW 4KM VSBY NE E SE UNL BECMG 5000 -RA BR=
200905210000 METAR MROC 210000Z 29004KT 7000 -RA VCFG FEW004 BKN120 21/20 A2996 RMK FEW040 VSBY W UNL NOSIG=
200905210100 METAR MROC 210100Z 14003KT 9999 FEW040 BKN120 21/21 A2998 RMK HZY NOSIG=
200905210200 METAR MROC 210200Z 06002KT CAVOK 22/21 A2999 RMK FEW120 BKN280 RMK HZY NOSIG=
200905210300 METAR MROC 210300Z 18002KT CAVOK 21/19 A3000 RMK TRACE SC FEW120 BKN250 NOSIG=
200905210400 METAR MROC 210400Z 07002KT CAVOK 21/19 A3000 RMK TRACE SC FEW120 BKN250 NOSIG=
200905210500 METAR MROC NIL=
200905210600 METAR MROC 210600Z 06008KT CAVOK 22/18 A2997 RMK TRACE SC BKN250 NOSIG=
200905210700 METAR MROC 210700Z 09006KT CAVOK 22/18 A2995 RMK TRACE SC BKN250 NOSIG=
200905210800 METAR MROC 210800Z 06007KT CAVOK 22/17 A2994 RMK TRACE SC BKN250 NOSIG=
200905210900 METAR MROC 210900Z 06008KT CAVOK 20/17 A2994 RMK TRACE SC BKN250 NOSIG=
200905211000 METAR MROC 211000Z 08006KT CAVOK 20/17 A2995 RMK TRACE SCT BKN250 NOSIG=
200905211100 METAR MROC 211100Z 07006KT CAVOK 20/17 A2995 RMK TRACE SC BKN250 NOSIG=
200905211200 METAR MROC 211200Z 05004KT CAVOK 20/17 A2995 RMK TRACE SC BKN300 TCU DST S NOSIG=
200905211300 METAR MROC 211300Z 07008KT CAVOK 23/17 A2998 RMK TRACE SCT FEW300 NOSIG=
200905211400 METAR MROC 211400Z 10006KT CAVOK 25/17 A3000 RMK TRACE SCT FEW300 CB DST S BECMG 24006KT=
200905211500 METAR MROC 211500Z 12007KT CAVOK 27/17 A3000 RMK FEW300 TRAZAS CU CB DST S NOSIG=
200905211600 METAR MROC 211600Z 13007KT 9999 FEW030 29/17 A3000 NOSIG=
200905211700 METAR MROC 211700Z 10006KT 9999 SCT030 SCT300 29/18 A2999 BECMG 24008=
200905211800 METAR MROC 211800Z 22005KT 9999 SCT025TCU 28/21 A2997 RMK FEW280 RN N NOSIG=
200905211900 METAR MROC 211900Z 23007KT 9999 FEW015TCU SCT030 27/22 A2994 BECMG 5000 -TS RA=
200905212000 METAR MROC 212000Z 21008KT 9999 FEW015CB BKN025 27/21 A2993 RMK RN N NW S BECMG 5000 TSRA=
200905212035 METAR MROC 212035Z 21008KT 3000 R07/0600 -TSRA FEW010CB BKN030 22/21 A2994 NOSIG=
200905212041 METAR MROC 212041Z 29003KT 1000 R07/0600 TSRA FEW010CB BKN030 21/20 A2995 NOSIG=
200905212100 METAR MROC 212100Z 36010KT 3000 R07/0900 TSRA FEW002 FEW010CB BKN030 20/19 A2995 BECMG 6000=
200905212130 METAR MROC 212130Z 32006KT 5000 2000NW -RA VCTS SCT002 FEW008 BKN020 20/17 A2992 RMK VIS SE UNL=
200905212200 METAR MROC 212200Z 10005KT 9999 -RA SCT030 BKN100 20/19 A2995 RMK TRACE ST NOSIG=
200905212300 METAR MROC 212300Z 11002KT 9999 SCT030 BKN100 21/19 A2997 RERA RMK RN E NOSIG=
200905220000 METAR MROC 220000Z 35004KT 9999 -RA SCT035 BKN100 21/20 A2999 NOSIG=
200905220100 METAR MROC 220100Z 19003KT 9999 FEW035 BKN100 21/20 A3000 RERA NOSIG=
200905220200 METAR MROC 220200Z 00000KT 9999 FEW035 BKN120 21/20 A3001=
200905220300 METAR MROC 220300Z 12002KT CAVOK 20/20 A3000 RMK BKN120 NOSIG=
200905220400 METAR MROC 220400Z 06005KT CAVOK 20/19 A2999 RMK SCT120 SCT250 NOSIG=
200905220500 METAR MROC 220500Z 06005KT CAVOK 21/19 A2997 RMK FEW120 SCT250 NOSIG=
200905220600 METAR MROC NIL=
200905220700 METAR MROC 220700Z 07003KT CAVOK 20/18 A2994 RMK FEW120 SCT250 NOSIG=
200905220800 METAR MROC 220800Z 04003KT CAVOK 19/17 A2994 RMK TRACE SC SCT250 NOSIG=
200905220900 METAR MROC 220900Z 05004KT CAVOK 18/17 A2994 RMK SCT250=
200905221000 METAR MROC 221000Z 06007KT CAVOK 19/17 A2993 RMK TRACE SC FEW120 SCT250 NOSIG=
200905221100 METAR MROC 221100Z 09005KT CAVOK 19/17 A2994 RMK FEW120 SCT250 NOSIG=
200905221200 METAR MROC 221200Z 09006KT CAVOK 21/17 A2996 RMK TRACE SC SCT120 SCT250 NOSIG=
200905221300 METAR MROC 221300Z 12002KT CAVOK 23/18 A2999 RMK TRACE SC SCT120 SCT250 NOSIG=
200905221400 METAR MROC 221400Z 12005KT CAVOK 25/18 A2999 RMK TRACE SC SCT120 SCT250 NOSIG=
200905221500 METAR MROC 221500Z 13008KT CAVOK 27/18 A2998 RMK TRACE SC SCT120 SCT250 NOSIG=
200905221600 METAR MROC 221600Z 24004KT CAVOK 27/21 A2998 RMK CB DST SW SCT120 SCT250 TRACE SC CU NOSIG=
200905221700 METAR MROC 221700Z 24009KT 9999 FEW040 SCT250 28/20 A2997 NOSIG=
200905221800 METAR MROC 221800Z 21006KT 9999 SCT040 SCT250 28/20 A2995 NOSIG=
200905221900 METAR MROC 221900Z 25011KT 9999 BKN035 27/21 A2995 RMK RN N NE TRACE CI BECMG 6000 VCSH=
200905222000 METAR MROC 222000Z 24012KT 9999 BKN035 26/21 A2994 RMK RN N BECMG 6000=
200905222100 METAR MROC 222100Z 02005KT 0600 R07/0200 +TSRA SCT010CB BKN025 20/20 A2996 BECMG 1500 TSRA=
200905222200 METAR MROC 222200Z 14002KT 5000 -RA FEW010 SCT025 OVC100 20/20 A2998 NOSIG=
200905222300 METAR MROC 222300Z 03007KT 9999 -RA FEW010 SCT025 OVC100 21/19 A2998 NOSIG=
200905230000 METAR MROC 230000Z 12003KT 9999 SCT030 BKN110 20/20 A3000 NOSIG=
200905230100 METAR MROC 230100Z 07002KT 9999 SCT030 BKN110 21/20 A3002 NOSIG=
200905230200 METAR MROC 230200Z 10003KT 9999 SCT030 BKN110 21/20 A3003 NOSIG=
200905230300 METAR MROC 230300Z 07003KT 9999 SCT045 BKN120 21/20 A3006 NOSIG=
200905230400 METAR MROC 230400Z 18002KT 9999 FEW045 BKN120 21/20 A3008 NOSIG=
200905230500 METAR MROC 230500Z 03002KT 9999 SCT045 BKN120 21/20 A3008 NOSIG=
200905230600 METAR MROC 230600Z 03004KT CAVOK 20/19 A3006 RMK TRAZAS SCT FEW080 BKN120 NOSIG=
200905230700 METAR MROC 230700Z 19003KT 9999 FEW010 BKN120 20/20 A3002 NOSIG=
200905230800 METAR MROC 230800Z 03004KT 9999 FEW025 BKN120 20/19 A3000 NOSIG=
200905230900 METAR MROC 230900Z 10004KT CAVOK 20/19 A2997 RMK TRAZAS SC SCT120 NOSIG=
200905231000 METAR MROC 231000Z 07006KT CAVOK 20/19 A2997 RMK TRAZAS SCT SCT250 NOSIG=
200905231100 METAR MROC 231100Z 07004KT CAVOK 21/19 A2999 RMK FEW120 BKN250 NOSIG=
200905231200 METAR MROC 231200Z 00000KT CAVOK 20/19 A3002 RMK TRAZAS SCT/ST BKN100 SCT250 NOSIG=
200905231300 METAR MROC 231300Z 11002KT CAVOK 21/20 A3006 RMK TRACE SC BKN110 HZ ARND NOSIG=
200905231400 METAR MROC 231400Z 07002KT CAVOK 23/19 A3006 RMK TRACE SC BKN110 HZ ARND NOSIG=
200905231500 METAR MROC 231500Z 03002KT CAVOK 26/20 A3006 RMK TRACE SC BKN120 HZ ARND BECMG 23006KT=
200905231600 METAR MROC 231600Z 24006KT 9999 FEW030 BKN140 27/22 A3004 RMK HZ ARND NOSIG=
200905231700 METAR MROC 231700Z 24009KT 9999 SCT030 BKN140 27/21 A3003 RMK HZ ARND NOSIG=
200905231800 METAR MROC 231800Z 25011KT 9999 SCT025TCU BKN150 26/21 A3001 RMK HZ ARND NOSIG=
200905231900 METAR MROC 231900Z 20010KT 9999 SCT020TCU BKN100 27/21 A3000 RMK TS RN DST N NE E BECMG 7000 VCSH=
200905232000 METAR MROC 232000Z 31007KT 9999 4000N VCTS BKN015CB 23/19 A3001 RMK TS RN N NE E BECMG 5000 -TS RA=
200905232100 METAR MROC 232100Z VRB04KT 9999 -TSRA FEW015CB SCT025 BKN070 21/19 A3001 NOSIG=
200905232200 METAR MROC 232200Z 08003KT 9999 -RA FEW015 SCT025 BKN050 21/20 A3001 RETS NOSIG=
200905232300 METAR MROC 232300Z 07004KT 9999 FEW030 BKN100 21/20 A3001 NOSIG=
200905240000 METAR MROC 240000Z 16002KT 9999 -RA FEW030 BKN100 21/20 A3000 NOSIG=
200905240100 METAR MROC 240100Z 00000KT 9999 SCT030 SCT120 21/20 A3005 RERA RMK LGT HZ ARND NOSIG=
200905240200 METAR MROC 240200Z 14004KT 9999 SCT025 BKN120 21/21 A3007 RMK NOSIG=
200905240300 METAR MROC 240300Z 10003KT 9999 SCT025 BKN120 21/21 A3007 NOSIG=
200905240400 METAR MROC 240400Z 04002KT 9999 FEW035 BKN120 21/21 A3008 NOSIG=
200905240500 METAR MROC 240500Z 14002KT 9999 FEW035 BKN120 20/20 A3007 NOSIG=
200905240600 METAR MROC 240600Z 10003KT CAVOK 20/20 A3005 RMK TRACE SC BKN120 NOSIG=
200905240700 METAR MROC 240700Z 06003KT CAVOK 20/19 A3004 RMK TRACE SC BKN120 NOSIG=
200905240800 METAR MROC 240800Z 09003KT CAVOK 20/20 A3002 RMK TRACE SC BKN120 NOSIG=
200905240900 METAR MROC 240900Z 03004KT CAVOK 20/19 A3002 RMK TRACE SC CI SCT120 NOSIG=
200905241000 METAR MROC 241000Z 06005KT CAVOK 19/19 A3001 RMK TRACE SC CI SCT120 NOSIG=
200905241100 METAR MROC 241100Z 06004KT CAVOK 19/18 A3002 RMK TRACE SC CI SCT120 NOSIG=
200905241200 METAR MROC 241200Z 05005KT CAVOK 20/19 A3004 RMK TRACE SC SCT120 BKN250 NOSIG=
200905241300 METAR MROC 241300Z 08003KT CAVOK 23/19 A3006 RMK TRACE SCT FEW140 BKN250 RMK HZY NOSIG=
200905241400 METAR MROC 241400Z 06004KT CAVOK 25/19 A3007 RMK FEW140 BKN250 LGT HZ ARND NOSIG=
200905241500 METAR MROC 241500Z 18005KT CAVOK 25/20 A3007 RMK TRACE SC FEW140 BKN250 HZY=
200905241501 METAR MROC 241501Z 18005KT CAVOK 25/20 A3007 RMK TRACE SC FEW140 BKN250 HZY BECMG 24008KT=
200905241600 METAR MROC 241600Z 24007KT 9999 FEW035 BKN250 26/21 A3007 RMK TRACE AC TCU DST E HZY NOSIG=
200905241700 METAR MROC 241700Z 23008KT 9999 FEW030 BKN250 26/22 A3007 RMK HZY NOSIG=
200905241800 METAR MROC 241800Z 24011KT 9999 FEW017TCU SCT025 BKN250 27/22 A3005 RMK CB DST N RASH DSTE HZY BECMG 7000 VCSH=
200905241900 METAR MROC 241900Z 27006KT 9999 VCSH FEW015CB SCT025 BKN250 25/22 A3004 RMK VIS N NE 8KMS BECMG 5000 TSRA=
200905242000 METAR MROC 242000Z 07002KT 9999 SCT020TCU BKN090 25/21 A3000 RMK TS DST N RN DST N NE NOSIG=
200905242100 METAR MROC 242100Z 21007KT 9999 FEW020CB BKN030 SCT090 24/21 A2999 RMK RN DST ARND BECMG 7000 -TSRA=
200905242200 METAR MROC 242200Z 23005KT 9999 FEW012TCU SCT020 BKN100 24/20 A2999 RMK CB DST NW RN DST NE SW NOSIG=
200905242300 METAR MROC 242300Z 25004KT 9999 VCFG FEW003 SCT025TCU BKN220 23/22 A3000 RMK VIS 7000SW FEW100 BECMG 5000 BR=
200905250000 METAR MROC 250000Z 25005KT 9999 VCFG FEW005 BKN025 22/22 A3000 RMK VIS 6000SW FEW090 BECMG 4000 BR=
200905250100 METAR MROC 250100Z 24004KT 9999 4500SW -RA BR FEW005 BKN025 22/22 A3004 BECMG 7000 VCFG DZ=
200905250200 METAR MROC 250200Z 29003KT 8000 -TSDZ FEW015CB SCT025 BKN090 22/22 A3007 NOSIG=
200905250300 METAR MROC 250300Z 30003KT 2000 DZ BR FEW005 SCT020 BKN090 22/22 A3007 BECMG 0800 FG=
200905250400 METAR MROC 250400Z 23002KT 2000 -RA BR FEW005 SCT020 BKN090 21/21 A3008 NOSIG=
200905250500 METAR MROC 250500Z 12002KT 9999 VCFG FEW003 SCT030 BKN090 21/21 A3006 RMK VIS 6KM W/NW DUE ST NOSIG=
200905250600 METAR MROC 250600Z 01003KT 4000 BR FEW003 SCT025 BKN090 21/21 A3003 NOSIG=
200905250700 METAR MROC 250700Z 02002KT 6000 VCFG FEW003 BKN100 21/20 A3002 RMK TRACE SC HZ ARND NOSIG=
200905250800 METAR MROC 250800Z 00000KT 9999 VCFG FEW003 SCT030 20/20 A3001 RMK SCT100 VIS SE/S/SW 6KM DUE ST BECMG 7000=
200905250900 METAR MROC 250900Z 10002KT 9999 VCFG FEW003 SCT100 20/20 A3000 RMK FEW020 VIS S/SW 7KM DUE ST BECMG 6000 -DZ VCFG=
200905251000 METAR MROC 251000Z 07003KT 9999 FEW030 BKN110 20/20 A3000 RMK ST S NOSIG=
200905251100 METAR MROC 251100Z 04005KT 9999 FEW030 SCT110 20/19 A3001 RMK FEW260 SCT S BECMG CAVOK=
200905251200 METAR MROC 251200Z 10004KT 9999 FEW030 BKN120 21/19 A3002 NOSIG=
200905251300 METAR MROC 251300Z 08006KT CAVOK 22/19 A3003 RMK BKN120 SCT250 RMK TCU DST SW NOSIG=
200905251400 METAR MROC 251400Z 11006KT CAVOK 24/19 A3003 RMK SCT120 BKN250 NOSIG=
200905251500 METAR MROC 251500Z 14003KT CAVOK 27/19 A3005 RMK FEW120 BKN250 BECMG 24006K T=
200905251600 METAR MROC 251600Z 24007KT CAVOK 26/20 A3004 RMK TRACE SC FEW120 BKN250 NOSIG=
200905251700 METAR MROC 251700Z 25009KT 9999 FEW035 BKN250 27/22 A3003 NOSIG=
200905251800 METAR MROC 251800Z 25010KT 9999 FEW015CB FEW020TCU SCT030 BKN250 28/22 A3001 RMK RN DST N SE BECMG 7000 VCSH=
200905251900 METAR MROC 251900Z 24011KT 9999 4000NE VCSH FEW015CB SCT025TCU BKN035 27/22 A3000 RMK RN N NE E SE BECMG 5000 -TSRA=
200905252000 METAR MROC 252000Z 26005KT 5000 2000E -TSRA SCT010CB BKN020TCU 25/20 A2998 NOSIG=
200905252100 METAR MROC 252100Z 15004KT 9999 VCSH FEW012CB SCT045 BKN130 21/19 A2997 RMK VBY N NE 6KM DUE RN TS SW BECMG 7000 VCSH=
200905252200 METAR MROC 252200Z 26003KT 6000 VCSH SCT006 SCT015 21/21 A2998 RMK TS DST N VSBY E UNL BECMG 3000 -RA BR=
200905252300 METAR MROC 252300Z 26005KT 5000 TSRA BR SCT005 FEW012CB SCT020 21/21 A3000 NOSIG=
200905260000 METAR MROC 260000Z 32005KT 9999 RA FEW005 SCT010 BKN100 21/20 A3001 RMK VSBY SW 7KM NOSIG=
200905260100 METAR MROC 260100Z 00000KT 9999 RA SCT015 BKN120 20/20 A3001 RMK LTNG DST S NOSIG=
200905260200 METAR MROC 260200Z 03002KT 9999 -RA SCT025 BKN120 21/20 A3003 NOSIG=
200905260300 METAR MROC 260300Z 06002KT 9999 DZ FEW035 BKN100 20/20 A3004 NOSIG=
200905260400 METAR MROC 260400Z 09003KT 9999 FEW035 SCT140 BKN200 20/20 A3004 REDZ NOSIG=
200905260500 METAR MROC 260500Z 00000KT 9999 FEW035 SCT150 BKN220 20/20 A3003 NOSIG=
200905260501 METAR MROC 260501Z 00000KT 9999 FEW035 SCT150 BKN220 20/20 A3003 NOSIG=
200905260600 METAR MROC 260600Z 06003KT CAVOK 20/20 A3001 RMK TRACE SC SCT160 BKN250 HZY NOSIG=
200905260700 METAR MROC 260700Z 07004KT CAVOK 20/19 A2999 RMK TRACE SC SCT160 SCT250 NOSIG=
200905260800 METAR MROC 260800Z 09004KT CAVOK 19/19 A2998 RMK TRACE SC FEW160 SCT250 NOSIG=
200905260900 METAR MROC 260900Z 08004KT CAVOK 19/18 A2997 RMK TRACE SC AC SCT250 NOSIG=
200905261000 METAR MROC 261000Z 07006KT CAVOK 19/18 A2998 RMK TRACE SC SCT150 NOSIG=
200905261100 METAR MROC 261100Z 06005KT CAVOK 19/17 A2998 RMK TRACE SC BKN150 NOSIG=
200905261200 METAR MROC 261200Z 07004KT CAVOK 20/18 A3000 RMK TRACE SC SCT140 SCT250 NOSIG=
200905261300 METAR MROC 261300Z 19002KT CAVOK 21/19 A3002 RMK TRAZAS SCT BKN120 SCT250 CB DST S BECMG 24008=
200905261400 METAR MROC 261400Z 30003KT CAVOK 24/19 A3002 RMK TRAZAS SCT FEW120 BKN250 NOSIG=
200905261500 METAR MROC 261500Z 24003KT CAVOK 25/20 A3002 RMK TRAZAS CU BKN250 NOSIG=
200905261600 METAR MROC 261600Z 26005KT 9999 FEW030 BKN250 26/20 A3002 NOSIG=
200905261700 METAR MROC 261700Z 23006KT 9999 FEW030 BKN250 27/20 A3001 NOSIG=
200905261800 METAR MROC 261800Z 24008KT 9999 FEW025TCU SCT250 28/22 A2999 NOSIG=
200905261900 METAR MROC 261900Z 25009KT 9999 SCT020CB SCT250 28/22 A2996 RMK RASH N E BECMG 5000 TSRA=
200905262000 METAR MROC 262000Z 23009KT 9999 SCT015CB BKN030 28/22 A2994 RMK RASH N NE E TS E BECMG 5000 TSRA=
200905262100 METAR MROC 262100Z 07006KT 5000 -TSRA SCT010CB BKN030 22/20 A2996 BECMG 4000=
200905262200 METAR MROC 262200Z 02002KT 3000 -TSRA FEW002 SCT010CB BKN030 20/20 A2998 BECMG 6000=
200905262300 METAR MROC 262300Z 00000KT 5000 -TSRA FEW010CB SCT030 BKN100 21/21 A3000 RMK VIS S UNL BECMG 8000=
200905270000 METAR MROC 270000Z 06005KT 9999 -RA FEW035 OVC100 21/21 A2998 RETS RMK TCU DST W NOSIG=
200905270100 METAR MROC 270100Z 08004KT 9999 -RA FEW035 OVC100 21/20 A3000 NOSIG=
200905270200 METAR MROC 270200Z 34002KT 9999 -DZ FEW035 OVC110 21/21 A3001 NOSIG=
200905270300 METAR MROC 270300Z 23002KT 9999 DZ OVC090 21/21 A3002 RMK TRACE ST SC OVC090 NOSIG=
200905270400 METAR MROC 270400Z 07004KT CAVOK 20/19 A3003 RMK TRACE ST SC SCT120 SCT250 REDZ NOSIG=
200905270500 METAR MROC 270500Z 08004KT CAVOK 21/19 A3001 RMK TRACE SC BKN120 NOSIG=
200905270600 METAR MROC 270600Z 02005KT CAVOK 20/18 A3000 RMK TRACE SC SCT120 NOSIG=
200905270700 METAR MROC 270700Z 12004KT CAVOK 20/19 A2998 NOSIG=
200905270800 METAR MROC 270800Z 02006KT CAVOK 20/19 A2998 NOSIG=
200905270900 METAR MROC 270900Z 09004KT CAVOK 19/18 A2997 NOSIG=
200905271000 METAR MROC 271000Z 06006KT CAVOK 19/18 A2997 NOSIG=
200905271100 METAR MROC 271100Z 06008KT CAVOK 20/18 A2997 NOSIG=
200905271200 METAR MROC 271200Z 06008KT CAVOK 21/18 A2998 RMK TRACE CU SC SCT120 BKN260 TCU DST S SW W NOSIG=
200905271300 METAR MROC 271300Z 06004KT CAVOK 23/19 A2999 RMK TRACE CU SC CB TCU DST S SW W BKN120 NOSIG=
200905271400 METAR MROC 271400Z 22006KT CAVOK 25/20 A2999 RMK TRACE SC CU CB TCU DST SW SCT120 SCT250 NOSIG=
200905271500 METAR MROC 271500Z 24008KT CAVOK 26/20 A3001 RMK CB DST SW FEW120 SCT250 TRACE CU NOSIG=
200905271600 METAR MROC 271600Z 26008KT 9999 FEW040 SCT120 26/21 A3002 RMK CB DST SW FEW250 NOSIG=
200905271700 METAR MROC 271700Z 23008KT 9999 FEW015TCU SCT030 BKN250 27/21 A3001 RMK RN N=
200905271800 METAR MROC 271800Z 23007KT 9999 FEW015TCU BKN030 FEW250 26/21 A2999 RMK RN N NE E BECMG 6000 VCSH=
200905271900 METAR MROC 271900Z 25006KT 9999 FEW015TCU BKN030 FEW250 26/22 A2996 RMK RN N NE E BECMG 6000 VCSH=
200905272000 METAR MROC 272000Z 23008KT 9999 -RA FEW015CB BKN030 24/22 A2994 BECMG 6000 VCSH=
200905272100 METAR MROC NIL=
200905272200 METAR MROC 272200Z 24004KT 1500 RABR SCT002 BKN010CB 21/21 A2997 NOSIG=
200905272300 METAR MROC 272300Z 16004KT 2000 -TSRA SCT004 BKN010CB 19/19 A2999 RMK VIS E 5000 TS DST W NOSIG=
200905280000 METAR MROC 280000Z 02003KT 5000 RABR FEW005 SCT020 OVC100 19/19 A3001 BECMG 7000 -RA=
200905280100 METAR MROC 280100Z 02003KT 8000 -RA SCT025 OVC100 20/19 A3002 NOSIG=
200905280200 METAR MROC NIL=
200905280300 METAR MROC 280300Z 09002KT CAVOK 20/20 A3002 RMK TRAZAS SCT BKN120 RERA NOSIG=
200905280400 METAR MROC 280400Z 12002KT CAVOK 20/20 A3004 RMK TRAZAS SCT BKN120 NOSIG=
200905280500 METAR MROC 280500Z 00000KT FEW035 BKN120 20/20 A3004 NOSIG=
200905280600 METAR MROC 280600Z 09003KT CAVOK 19/19 A3002 RMK TRAZAS SCT OVC120 NOSIG=
200905280700 METAR MROC 280700Z 10003KT CAVOK 19/19 A3000 RMK BKN120 NOSIG=
200905280800 METAR MROC 280800Z 09002KT CAVOK 19/18 A2999 RMK BKN120 NOSIG=
200905280900 METAR MROC 280900Z 09003KT CAVOK 18/18 A2998 RMK TRAZAS SC BKN120 NOSIG=
200905281000 METAR MROC 281000Z 07004KT CAVOK 18/18 A2999 RMK FEW120 SCT280 NOSIG=
200905281100 METAR MROC 281100Z 08004KT CAVOK 18/18 A2999 RMK FEW120 BKN280 NOSIG=
200905281200 METAR MROC 281200Z 06004KT CAVOK 19/18 A3000 RMK TRAZAS SCT BKN280 NOSIG=
200905281300 METAR MROC 281300Z 08004KT CAVOK 21/19 A3002 RMK BKN280 NOSIG=
200905281400 METAR MROC 281400Z 07005KT CAVOK 25/19 A3004 RMK TRACE CU BKN250 NOSIG=
200905281500 METAR MROC 281500Z 24005KT CAVOK 25/21 A3004 RMK TRACE CU BKN250 NOSIG=
200905281600 METAR MROC 281600Z 25005KT 9999 FEW035 BKN250 26/21 A3004 NOSIG=
200905281700 METAR MROC 281700Z 22003KT 9999 FEW030TCU BKN270 27/19 A3004 NOSIG=
200905281800 METAR MROC 281800Z 25007KT 9999 SCT030TCU SCT270 28/21 A3002 NOSIG=
200905281900 METAR MROC 281900Z 22008KT 9999 SCT030 SCT110 29/21 A2999 RMK RN DST N NE E BECMG 7000 VCSH=
200905282000 METAR MROC 282000Z 23007KT 9999 VCSH SCT020VB BKN100 28/22 A2997 RMK RASH CB NE E NOSIG=
200905282100 METAR MROC 282100Z 03008KT 9999 VCSH FEW015CB SCT025TCU BKN250 25/19 A2995 RMK VIS NE N NW 7KMS TS DST N NW BECMG 3000 -TSRA=
200905282200 METAR MROC 282200Z 30005KT 9999 VCTS VCSH FEW015CB SCT030 BKN120 22/20 A2998 RMK VIS S SW 6KMS BECMG -RA=
200905282300 METAR MROC 282300Z 11003KT 9999 FEW035 SCT080 BKN120 22/21 A2999 RETS NOSIG=
200905290000 METAR MROC NIL=
200905290100 METAR MROC NIL=
200905290200 METAR MROC NIL=
200905290300 METAR MROC 290300Z 19003KT CAVOK 21/21 A3006 RMK TRACE SC LTNG DST SW FEW130 SCT240 NOSIG=
200905290400 METAR MROC 290400Z VRB02KT CAVOK 21/20 A3006 RMK TRACE SC LTNG DST SW FEW130 SCT240 NOSIG=
200905290500 METAR MROC 290500Z 08003KT CAVOK 20/20 A3006 RMK TRACE SC FEW130 SCT240 NOSIG=
200905290600 METAR MROC 290600Z 04003KT CAVOK 20/18 A3005 RMK TRACE SC SCT120 FEW250 NOSIG=
200905290700 METAR MROC 290700Z 03003KT CAVOK 21/18 A3005 RMK TRACE SC SCT120 FEW250 NOSIG=
200905290701 METAR MROC 290701Z 03003KT CAVOK 21/18 A3005 RMK TRACE SC SCT120 FEW250 NOSIG=
200905290800 METAR MROC 290800Z 06003KT CAVOK 20/20 A3004 RMK TRACE SC SCT120 FEW250 NOSIG=
200905290900 METAR MROC 290900Z 08002KT CAVOK 20/20 A3003 RMK TRACE SC SCT120 FEW250 NOSIG=
200905291000 METAR MROC 291000Z 07004KT CAVOK 19/18 A3003 RMK TRACE SC SCT120 FEW250 NOSIG=
200905291100 METAR MROC 291100Z 09004KT CAVOK 19/18 A3004 RMK TRACE SC SCT120 FEW250 NOSIG=
200905291200 METAR MROC 291200Z 08004KT CAVOK 20/18 A3006 RMK HZ W FEW120 BKN250 NOSIG=
200905291300 METAR MROC NIL=
200905291400 METAR MROC NIL=
200905291500 METAR MROC NIL=
200905291700 METAR MROC 291700Z 24008KT 9999 FEW030TCU BKN250 27/21 A3005 RMK DVLPNG TCU IN E AND S QUADS HZY NOSIG=
200905291800 METAR MROC 291800Z 25009KT 9999 FEW025 SCT035 BKN250 27/22 A3002 RMK HZY NOSIG=
200905291900 METAR MROC 291900Z 27009KT 9999 FEW020CB SCT030 BKN220 25/22 A3002 RMK RASH DST W NW N BECMG 5000 VCSH=
200905292000 METAR MROC 292000Z 32006KT 9999 FEW015CB SCT025 BKN200 24/20 A3000 RMK TS RASH DST E SE S BECMG 5000 -TSRA=
200905292100 METAR MROC 292100Z 19006KT 9999 4000SE VCSH FEW015CB BKN025 23/20 A3002 RMK VIS 7000E VCSH BECMG 5000 -TSRA=
200905292200 METAR MROC 292200Z 21004KT 9999 SCT025 BKN090 22/20 A3002 RMK TRACE ST DZ DST NE E NOSIG=
200905292300 METAR MROC 292300Z 32004KT 9999 SCT030 BKN100 22/20 A3004 RMK DZ DST NE E NOSIG=
200905300000 METAR MROC 300000Z 34004KT 9999 FEW012 SCT040 BKN120 22/19 A3004 RMK DZ DST NE NOSIG=
200905300100 METAR MROC 300100Z 29003KT 9999 FEW035 BKN120 21/19 A3006 NOSIG=
200905300200 METAR MROC 300200Z 20002KT 9999 FEW030 SCT120 21/20 A3007 RMK TRACE ST NOSIG=
200905300300 METAR MROC 300300Z 12002KT 9999 SCT030 SCT120 21/20 A3009 RMK HZ ARND NOSIG=
200905300400 METAR MROC 300400Z 00000KT 9999 FEW030 SCT120 21/20 A3009 RMK HZ ARND NOSIG=
200905300500 METAR MROC 300500Z 02003KT 9999 FEW030 SCT120 21/19 A3009 NOSIG=
200905300600 METAR MROC 300600Z 00000KT 9999 FEW030 20/19 A3008 NOSIG=
200905300700 METAR MROC 300700Z 14002KT 9999 FEW030 19/19 A3006 NOSIG=
200905300800 METAR MROC 300800Z 07004KT 9999 FEW030 SCT110 20/18 A3003 NOSIG=
200905300900 METAR MROC 300900Z 06005KT CAVOK 19/18 A3002 RMK SCT120 SCT260 NOSIG=
200905301000 METAR MROC 301000Z 06007KT CAVOK 19/17 A3002 RMK FEW120 SCT260 NOSIG=
200905301100 METAR MROC 301100Z 07006KT CAVOK 20/18 A3001 RMK SCT120 SCT260 OSIG=
200905301200 METAR MROC 301200Z 01006KT CAVOK 20/17 A3003 RMK TRACE SC BKN120 NOSIG=
200905301300 METAR MROC 301300Z 04006KT CAVOK 22/17 A3005 RMK TRACE SC SCT120 SCT250 TCU DST SSW NOSIG=
200905301400 METAR MROC 301400Z 04003KT CAVOK 25/18 A3005 RMK TRACE SC BKN250 CB TCU DST SSW NOSIG=
200905301500 METAR MROC 301500Z 02004KT 9999 FEW035 BKN250 27/18 A3005 RMK TCU CB DST SSW BECMG 24006KT=
200905301600 METAR MROC 301600Z 10008KT 9999 FEW035 BKN250 28/17 A3004 NOSIG=
200905301700 METAR MROC 301700Z 14004KT 9999 FEW035 BKN250 28/18 A3003 NOSIG=
200905301800 METAR MROC 301800Z 14006KT 9999 FEW030 BKN250 29/18 A3001 NOSIG=
200905301900 METAR MROC 301900Z 22007KT 9999 FEW025TCU SCT120 BKN250 27/22 A2999 RMK RN DST N NE BECMG 7000 -TSRA=
200905302000 METAR MROC 302000Z 25012KT 9999 FEW020CB SCT030TCU BKN120 27/22 A2997 RMK RN DST N NW NW BECMG 7000 -TSRA=
200905302100 METAR MROC 302100Z 24010KT 7000 TS VCSH SCT010CB BKN020 24/22 A2996 RMK VSBY ESE/SE UNL TS/RASH NE BECMG 4000 TSRA=
200905302200 METAR MROC 302200Z 23009KT 4000 TSRA FEW010CB BKN020 21/21 A2999 RMK VSBY S UNL NOSIG=
200905302300 METAR MROC 302300Z 33004KT 9999 -TSRA SCT012 OVC120 20/19 A3000 RMK CB/TS/RASH W VSBY 8KM/ BECMG 7000 -RA VCFG=
200905310000 METAR MROC 310000Z 15003KT 9999 -RA SCT010 BKN020 20/20 A3003 NOSIG=
200905310100 METAR MROC 310100Z 00000KT 4000 R07/1200 RA BR SCT004 BKN015 20/20 A3005 BECMG 1000 -RA BR=
200905310200 METAR MROC 310200Z 22002KT 5000 RA BR SCT003 BKN010 20/20 A3007 RMK VSBY E UNL NOSIG=
200905310300 METAR MROC 310300Z 06002KT 9999 -RADZ VCFG SCT012 BKN060 20/20 A3009 RMK VIS SW W 6KMS NOSIG=
200905310400 METAR MROC 310400Z 07005KT 9999 -RA FEW030 OVC100 20/20 A3008 NOSIG=
200905310500 METAR MROC 310500Z 06004KT CAVOK 21/19 A3004 RERA RMK TRACE SC FEW090 BKN130 NOSIG=
200905310600 METAR MROC 310600Z 16003KT CAVOK 20/20 A3004 RMK TRACE SC FEW070 BKN130 THING FG S SSW NOSIG=
200905310700 METAR MROC 310700Z 30002KT CAVOK 20/20 A3003 RMK TRACE ST SC FEW070 BKN120 NOSIG=
200905310800 METAR MROC NIL=
200905310900 METAR MROC 310900Z 10003KT CAVOK 19/19 A3001 RMK TRACE SC SCT150 NOSIG=
200905311000 METAR MROC 311000Z 04004KT CAVOK 19/19 A3002 RMK TRACE SC BKN150 LTNG=
200905311100 METAR MROC 311100Z 09004KT CAVOK 19/18 A3003 RMK TRACE SC SCT150 BKN250 CB AND LTNG DIST SW NOSIG=
200905311200 METAR MROC 311200Z 07005KT CAVOK 20/18 A3004 RMK TRACE SC FEW120 BKN250 CBS DST S SW W NOSIG=
200905311300 METAR MROC 311300Z 07006KT CAVOK 23/19 A3005 RMK FEW120 BKN250 NOSIG=
200905311400 METAR MROC 311400Z 09005KT CAVOK 25/19 A3005 RMK TRAZAS SCT FEW120 BKN250 BECMG 24006=
200905311500 METAR MROC 311500Z 11007KT CAVOK 27/18 A3005 RMK TRAZAS CU BKN120 SCT250 NOSIG=
200905311600 METAR MROC 311600Z 12007KT 9999 FEW030 BKN250 27/18 A3004 NOSIG=
200905311700 METAR MROC 311700Z 23008KT 9999 FEW035 BKN120 26/22 A3003 NOSIG=
200905311800 METAR MROC 311800Z 25010KT 9999 FEW025TCU SCT120 BKN250 26/22 A3000 NOSIG=
200905311900 METAR MROC 311900Z 24008KT 9999 TS VCSH SCT015CB BKN020 26/21 A2998 RMK VSBY E 6KM DUE RASH RN N S BECMG 5000 TSRA=
200905312000 METAR MROC 312000Z 05006KT 9999 4000N -RA SCT020 BKN120 22/20 A2997 NOSIG=
200905312100 METAR MROC 312100Z 03004KT 9999 4000W -RA BR FEW005 SCT025 OVC100 22/20 A2996 NOSIG=
200905312200 METAR MROC 312200Z 20002KT 9999 FEW025 OVC100 22/21 A2994 RERA NOSIG=
200905312300 METAR MROC 312300Z VRB03KT 9999 FEW025 OVC100 21/21 A2998 NOSIG=
200906010000 METAR MROC 010000Z 00000KT 9999 FEW030 OVC100 21/21 A2999 RMK ST LOW DST W NOSIG=
200906010100 METAR MROC 010100Z 07005KT 9999 -RA FEW030 OVC100 21/21 A2999 NOSIG=
200906010200 METAR MROC 010200Z 03004KT 9999 -RA FEW035 OVC090 20/19 A3000 RMK TRACE ST NOSIG=
200906010300 METAR MROC 010300Z 22002KT 9999 -DZ VCFG FEW005 BKN100 20/20 A3002 RMK VIS 7000S DUE ST NOSIG=
200906010400 METAR MROC 010400Z 34003KT 9999 -DZ FEW007 BKN110 20/20 A3003 NOSIG=
200906010500 METAR MROC 010500Z 04002KT 9999 FEW010 BKN120 20/20 A3003 NOSIG=
200906010600 METAR MROC 010600Z 10003KT 9999 FEW030 BKN120 20/20 A3001 NOSIG=
200906010700 METAR MROC 010700Z 06005KT 9999 FEW030 BKN120 20/20 A2998 NOSIG=
200906010800 METAR MROC 010800Z 06006KT CAVOK 20/19 A2994 RMK TRACE SC BKN120 NOSIG=
200906010900 METAR MROC 010900Z 07006KT CAVOK 21/18 A2994 RMK TRACE SC SCT120 SCT250 NOSIG=
200906011000 METAR MROC 011000Z 07004KT CAVOK 20/18 A2994 RMK TRACE SC FEW120 SCT250 NOSIG=
200906011100 METAR MROC 011100Z 10003KT CAVOK 20/18 A2996 RMK TRACE SC BKN120 FEW250 NOSIG=
200906011200 METAR MROC 011200Z 02002KT CAVOK 20/18 A2998 RMK TRACE SC BKN100 FEW250 NOSIG=
200906011300 METAR MROC 011300Z 08003KT CAVOK 22/18 A3002 RMK TRACE SC BKN100 FU E NOSIG=
200906011400 METAR MROC 011400Z 00000KT CAVOK 22/19 A3003 RMK TRACE SC BKN100 BECMG 24007KT=
200906011500 METAR MROC 011500Z 05005KT CAVOK 24/19 A3002 RMK TRACE SC/CU BKN100 CB DST S BECMG 24006KT=
200906011600 METAR MROC 011600Z 12008KT 9999 FEW035 BKN100 26/18 A3002=
200906011700 METAR MROC 011700Z 10006KT 9999 FEW035 BKN100 27/19 A3001 RMK CB DST SW NOSIG=
200906011800 METAR MROC 011800Z 11009KT 9999 FEW035 SCT120 BKN250 28/18 A2999 RMK CB DST SW NOSIG=
200906011900 METAR MROC 011900Z 11004KT 9999 SCT030 BKN250 28/18 A2996 RMK CB DST SW SE RN NE FEW120 NOSIG=
200906012000 METAR MROC 012000Z 15005KT 9999 SCT030 BKN250 28/18 A2994 RMK HZ LEVE ARND NOSIG=
200906012100 METAR MROC 012100Z 24009KT 9999 SCT020 BKN250 25/22 A2994 RMK HZ LGT ARND RN DST NE BECMG 7000 VCTS=
200906012200 METAR MROC 012200Z 29004KT 9999 -RA SCT020 BKN120 22/21 A2994 NOSIG=
200906012300 METAR MROC 012300Z 18004KT 9999 4000N -RA VCSH SCT015 BKN120 22/22 A2994 NOSIG=
200906020000 METAR MROC 020000Z 30003KT 9999 SCT015 BKN250 22/21 A2995 RMK TRACE ST NOSIG=
200906020100 METAR MROC 020100Z 08007KT 9999 FEW025 23/19 A2998 RMK TS CB DST S NOSIG=
200906020200 METAR MROC 020200Z 33002KT 9999 FEW025 22/19 A2998 RMK CB DST S NOSIG=
200906020300 METAR MROC 020300Z 06007KT CAVOK 22/19 A2997 RMK TRAZAS SCT/AC BKN250 NOSIG=
200906020400 METAR MROC 020400Z 05007KT CAVOK 22/19 A2998 RMK TRAZAS SC SCT250 NOSIG=
200906020500 METAR MROC 020500Z 07009KT CAVOK 22/19 A2998 RMK TRAZAS SCT SCT250 NOSIG=
200906020600 METAR MROC 020600Z 04008KT CAVOK 22/18 A2997 RMK TRAZAS SCT BKN250 NOSIG=
200906020700 METAR MROC 020700Z 08008KT CAVOK 22/18 A2995 RMK TRAZAS SC BKN250 NOSIG=
200906020800 METAR MROC 020800Z 06007KT CAVOK 22/18 A2993 RMK TRAZAS SC SCT250 NOSIG=
200906020900 METAR MROC 020900Z 09005KT CAVOK 22/18 A2992 RMK TRAZAS SC SCT250 NOSIG=
200906021000 METAR MROC 021000Z 06004KT CAVOK 21/18 A2993 RMK TRAZAS SC SCT250 NOSIG=
200906021100 METAR MROC 021100Z 07009KT 9999 FEW030 BKN300 22/19 A2995 NOSIG=
200906021200 METAR MROC 021200Z 05005KT 9999 FEW025 BKN300 21/18 A2996 RMK DZ N CB S NOSIG=
200906021300 METAR MROC 021300Z 10007KT 9999 SCT030 SCT120 23/19 A2997 RMK PCPN NE E TRACE CI NOSIG=
200906021400 METAR MROC 021400Z 11011KT 9999 FEW030 SCT250 25/19 A2997 RMK PCPN NE E NOSIG=
200906021500 METAR MROC 021500Z 10010KT 9999 SCT025 27/18 A2998 RMK PCPN NE E NOSIG=
200906021600 METAR MROC 021600Z 08010KT 9999 SCT025 28/19 A2997 RMK PCPN NE NOSIG=
200906021700 METAR MROC 021700Z 09010KT 9999 SCT025 SCT250 29/18 A2997 RMK PCPN NE NOSIG=
200906021800 METAR MROC 021800Z 09010KT 9999 SCT025 SCT250 29/18 A2995 RMK PCPN NE NOSIG=
200906021900 METAR MROC 021900Z 07008KT 9999 SCT025TCU 29/18 A2992 RMK PCPN NE BECMG 7000 VCSH=
200906022000 METAR MROC 022000Z 11006KT 9999 SCT020TCU 29/18 A2990 RMK PCPN NE NOSIG=
200906022100 METAR MROC 022100Z 26011KT 9999 4000S -SHRA SCT020TCU SCT045 25/23 A2990 BECMG 6000 -RA=
200906022200 METAR MROC 022200Z 25005KT 9999 -RA VCSH FEW010 SCT030 BKN045 24/23 A2992 RETS RMK VIS 8KMS TO W AND N QUADS NOSIG=
200906022300 METAR MROC 022300Z 00000KT 9999 SCT030 BKN060 23/22 A2993 RERA NOSIG=
200906030000 METAR MROC 030000Z 09007KT 9999 FEW030 SCT140 BKN250 23/18 A2993 RMK CB DST SW NOSIG=
200906030100 METAR MROC 030100Z 10007KT 9999 FEW030 BKN140 23/18 A2994 RMK VEL MAX VTO 12KT NOSIG=
200906030200 METAR MROC 030200Z 10005KT 9999 FEW030 BKN120 23/18 A2996 RMK VEL MAX 14KTS NOSIG=
200906030300 METAR MROC 030300Z 12008KT 9999 FEW030 BKN140 23/18 A2995 NOSIG=
200906030400 METAR MROC 030400Z 10011KT CAVOK 23/18 A2996 RMK TRACE SC SCT140 FEW250 NOSIG=
200906030500 METAR MROC 030500Z 09010KT CAVOK 22/18 A2996 RMK TRACE SC SCT140 FEW250 LTN G DST SW NOSIG=
200906030600 METAR MROC 030600Z 10009KT CAVOK 22/18 A2994 RMK TRACE SC FEW140 SCT250 LTN G DST SW NOSIG=
200906030700 METAR MROC 030700Z 11007KT CAVOK 22/17 A2992 RMK TRACE SC FEW140 SCT250 LTN G DST SW NOSIG=
200906030800 METAR MROC 030800Z 11011KT CAVOK 21/17 A2990 RMK TRACE SC FEW140 SCT250 NOSIG=
200906030900 METAR MROC 030900Z 11015KT CAVOK 21/17 A2989 RMK TRACE SC FEW140 SCT250 NOSIG=
200906031000 METAR MROC 031000Z 12011KT CAVOK 21/16 A2990 RMK TRACE SC AC SCT250 NOSIG=
200906031100 METAR MROC 031100Z 12009KT CAVOK 22/17 A2991 RMK TRACE SC FEW100 SCT250 NOSIG=
200906031200 METAR MROC 031200Z 06007KT CAVOK 22/17 A2994 RMK TRACE SC FEW100 SCT250 CB DST SW NOSIG=
200906031300 METAR MROC 031300Z 06006KT CAVOK 22/17 A2996 RMK TRACE SC SCT160 SCT250 NOSIG=
200906031400 METAR MROC 031400Z 09006KT CAVOK 23/18 A2997 RMK TRACE SC FEW160 BKN250 VEL MAX VTO 12KT NOSIG=
200906031500 METAR MROC 031500Z 10010KT CAVOK 25/19 A2997 RMK TRACE SC AC BKN250 VEL MAX VTO 15KT NOSIG=
200906031600 METAR MROC 031600Z 11010KT 9999 SCT040 BKN250 27/18 A2996 RMK VEL MAX VTO 15KT NOSIG=
200906031700 METAR MROC 031700Z 08009KT 9999 SCT040 BKN250 27/18 A2995 RMK VEL MAX VTO 14KT NOSIG=
200906031800 METAR MROC 031800Z 12008KT 9999 SCT040 BKN250 29/18 A2992 RMK VEL MAX VTO 14KT PCPN DST N NOSIG=
200906031900 METAR MROC 031900Z 07006KT 9999 BKN040 27/18 A2991 RMK PCPN DST N NE FEW250 NOSIG=
200906032000 METAR MROC 032000Z 08004KT 9999 FEW030 BKN045 27/19 A2998 RMK PCPN DST N NE TRACE CI NOSIG=
200906032001 METAR MROC 032001Z COR 08004KT 9999 FEW030 BKN045 27/19 A2989 RMK PCPN DST N NE TRACE CI NOSIG=
200906032100 METAR MROC 032100Z 28007KT 9999 SCT035 BKN050 26/22 A2988 RMK DZ DST NE E NOSIG=
200906032200 METAR MROC 032200Z 20004KT 9999 SCT020TCU BKN030 25/19 A2989 RMK DZ DST NE E NOSIG=
200906032300 METAR MROC 032300Z 10006KT 9999 SCT030 BKN250 25/18 A2991 RMK FEW100 DZ DST NE NOSIG=
200906040000 METAR MROC 040000Z 10006KT 9999 FEW030 SCT250 23/18 A2992 NOSIG=
200906040100 METAR MROC 040100Z 09006KT CAVOK 22/18 A2994 RMK FEW100 SCT250 NOSIG=
200906040200 METAR MROC 040200Z 10006KT CAVOK 22/18 A2996 RMK TRACE SC FEW120 SCT250 NOSIG=
200906040300 METAR MROC 040300Z 09005KT CAVOK 22/18 A2996 RMK TRACE SC NOSIG=
200906040400 METAR MROC 040400Z 10003KT CAVOK 22/18 A2997 RMK TRACE SC NOSIG=
200906040500 METAR MROC 040500Z 07005KT CAVOK 22/18 A2998 RMK TRACE SC NOSIG=
200906040600 METAR MROC 040600Z 09007KT CAVOK 22/18 A2996 RMK TRACE SC NOSIG=
200906040700 METAR MROC 040700Z 07007KT CAVOK 22/18 A2994 RMK TRACE SC NOSIG=
200906040800 METAR MROC 040800Z 08007KT CAVOK 21/18 A2993 RMK TRACE SC NOSIG=
200906040900 METAR MROC 040900Z 06005KT CAVOK 21/17 A2993 RMK FEW260 NOSIG=
200906041000 METAR MROC 041000Z 08008KT CAVOK 21/17 A2993 RMK FEW260 LTNG DST SSE NOSIG=
200906041100 METAR MROC 041100Z 09004KT CAVOK 20/17 A2995 RMK FEW120 SCT250 CB/LTNG DST SSE NOSIG=
200906041200 METAR MROC 041200Z 08004KT CAVOK 21/17 A2996 RMK TRACE SC BKN120 NOSIG=
200906041300 METAR MROC 041300Z 08004KT CAVOK 23/18 A2996 RMK TRACE SC CHECK TEXT NEW ENDING ADDED KATLYTAA=
200906041400 METAR MROC 041400Z 09008KT CAVOK 25/18 A2996 RMK TRACE CU SC AC BKN250 NOSIG=
200906041500 METAR MROC 041500Z 10010KT CAVOK 26/19 A2995 RMK TRACE CU BKN250 NOSIG=
200906041600 METAR MROC 041600Z 11008KT CAVOK 27/19 A2996 RMK TRACE CU BKN250 NOSIG=
200906041700 METAR MROC 041700Z 11009KT 9999 FEW040 BKN250 28/18 A2995 RMK VEL MAX VTO 15KT NOSIG=
200906041800 METAR MROC 041800Z 12008KT 9999 SCT035 SCT250 29/18 A2994 NOSIG=
200906041900 METAR MROC 041900Z 11009KT 9999 SCT030 BKN250 29/18 A2993 RMK VEL MAX VTO 13KT=
200906042000 METAR MROC 042000Z 12007KT 9999 SCT030TCU BKN250 30/20 A2990 RMK RN DST N NE BECMG 22006KT=
200906042100 METAR MROC 042100Z 24009KT 9999 FEW020 SCT030 BKN250 27/22 A2988 RMK CB DST S BECMG 5000 RA=
200906042200 METAR MROC 042200Z 25005KT 9999 -RA FEW015TCU SCT025 BKN250 26/21 A2990 NOSIG=
200906042300 METAR MROC 042300Z 22006KT 9999 FEW012 SCT030 BKN250 23/23 A2992 RMK RN SW RERA NOSIG=
200906050000 METAR MROC 050000Z 26003KT 9999 FEW020 SCT035 BKN250 22/21 A2995 NOSIG=
200906050100 METAR MROC NIL=
200906050200 METAR MROC NIL=
200906050300 METAR MROC NIL=
200906050400 METAR MROC 050400Z 27004KT 9999 FEW035 SCT160 BKN220 21/21 A3001 RMK=
200906050500 METAR MROC 050500Z 34003KT CAVOK 21/21 A2999 RMK TRACE ST SC OVC210 NOSIG=
200906050600 METAR MROC 050600Z 33003KT 9999 FEW025 SCT120 BKN220 21/21 A3001 RMK=
200906050700 METAR MROC 050700Z 11003KT 9999 FEW025 BKN220 21/21 A2998 NOSIG=
200906050800 METAR MROC 050800Z 08003KT 9999 FEW030 SCT150 BKN250 21/21 A2997 NOSIG=
200906050900 METAR MROC 050900Z 32002KT 9999 FEW030 SCT120 BKN250 21/20 A2997 NOSIG=
200906051000 METAR MROC 051000Z 03006KT 9999 FEW030 SCT250 21/20 A2997 NOSIG=
200906051100 METAR MROC 051100Z 10002KT 9999 FEW025 BKN120 20/20 A2999 RMK HZY NOSIG=
200906051200 METAR MROC 051200Z 00000KT 9999 FEW030 SCT120 BKN180 20/20 A3001 RMK LGT HZ ARND NOSIG=
200906051300 METAR MROC 051300Z 05003KT CAVOK 22/19 A3003 RMK SCT130 BKN250 NOSIG=
200906051400 METAR MROC 051400Z 08003KT CAVOK 25/19 A3002 RMK TRAZAS CU BKN250 BECMG 24006KT=
200906051500 METAR MROC 051500Z 26005KT 9999 FEW025 BKN250 26/21 A3003 NOSIG=
200906051600 METAR MROC 051600Z 25006KT 9999 FEW030 BKN250 27/21 A3004 NOSIG=
200906051700 METAR MROC 051700Z 26006KT 9999 FEW025 BKN250 28/21 A3003 RMK HZ E NW TCU E SE NOSIG=
200906051800 METAR MROC 051800Z 24008KT 9999 SCT020TCU SCT250 28/21 A3000 RMK TCU RN ESE NOSIG=
200906051900 METAR MROC 051900Z 24009KT 9999 VCSH FEW015TCU SCT025 28/23 A2997 RMK VSBY NE 6KM DUE RASH BECMG 5000 -TSRA=
200906052000 METAR MROC 052000Z 24007KT 4000 TSRA FEW012CB BKN025 22/21 A2998 RMK VSBY N NE 1KM NOSIG=
200906052100 METAR MROC 052100Z 00000KT 2500 -TSRA FEW002 FEW010CB BKN025 20/20 A2999 NOSIG=
200906052200 METAR MROC 052200Z 08003KT 4000 -RA FEW002 SCT010 BKN030 21/21 A2999 RETS RMK BECMG 6000=
200906052300 METAR MROC 052300Z 07004KT 8000 -RA SCT030 OVC100 20/20 A3001 BECMG 9999=
200906060000 METAR MROC 060000Z 07007KT 8000 -RA FEW003 SCT030 OVC100 20/20 A3001 BECMG 9999=
200906060100 METAR MROC 060100Z 07005KT 9999 -RA FEW030 OVC100 20/19 A3003 NOSIG=
200906060200 METAR MROC 060200Z 12005KT CAVOK 21/19 A3004 RMK TRACE SC ST OVC100 NOSIG=
200906060300 METAR MROC 060300Z 28003KT 9999 DZ VCFG FEW003 OVC090 20/20 A3005 RMK VIS 6000SW NOSIG=
200906060400 METAR MROC 060400Z 27003KT 8000 3000SW DZ BR FEW002 SCT007 BKN090 20/20 A3007 BECMG 1000 BR=
200906060500 METAR MROC 060500Z 28003KT 9999 SCT007 SCT090 20/20 A3007 REDZ RMK BANK FG S SW NOSIG=
200906060600 METAR MROC 060600Z 31003KT 9999 FEW003 SCT012 BKN100 20/20 A3008 RMK DZ DST SSW BANK FG S SSW NOSIG=
200906060700 METAR MROC 060700Z 00000KT 9999 FEW003 SCT015 BKN100 20/20 A3004 RMK DZ S SW BANK FG S SW=
200906060800 METAR MROC 060800Z 00000KT 9999 FEW010 SCT020 BKN110 20/20 A3003 RMK BANK FG S SW=
200906060852 METAR MROC 060852Z 00000KT 9999 FEW020 SCT030 BKN120 20/20 A3001 NOSIG=
200906060900 METAR MROC 060900Z 00000KT 9999 FEW020 SCT030 BKN120 20/20 A3001 NOSIG=
200906061000 METAR MROC 061000Z 06005KT 9999 FEW005 BKN120 19/19 A2999 NOSIG=
200906061100 METAR MROC 061100Z 05005KT CAVOK 19/19 A2998 RMK SCT100 BKN250 NOSIG=
200906061200 METAR MROC 061200Z 03005KT CAVOK 19/18 A2999 RMK SCT080 BKN250 NOSIG=
200906061300 METAR MROC 061300Z 05005KT CAVOK 22/19 A3000 RMK FEW120 SCT250 NOSIG=
200906061400 METAR MROC 061400Z 07005KT CAVOK 25/18 A3000 RMK FEW120 SCT250 NOSIG=
200906061500 METAR MROC 061500Z 09008KT CAVOK 27/17 A3000 RMK TRACE CU SCT250 NOSIG=
200906061600 METAR MROC 061600Z 09005KT CAVOK 28/18 A3002 RMK TRACE CU CI SCT120 NOSIG=
200906061700 METAR MROC 061700Z 25008KT 9999 FEW040 BKN120 26/20 A3002 NOSIG=
200906061800 METAR MROC 061800Z 22010KT 9999 SCT040 BKN120 26/22 A3001 NOSIG=
200906061900 METAR MROC 061900Z 21011KT 9999 SCT030 BKN120 25/20 A2999 RMK RN E BECMG 6000 VCSH=
200906062000 METAR MROC 062000Z 22010KT 9999 FEW010TCU SCT030 BKN100 24/19 A2999 RMK RN N NW BECMG 6000 VCSH=
200906062100 METAR MROC 062100Z 31008KT 9999 SCT025 BKN100 23/20 A2998 RMK RN N NE E NOSIG=
200906062200 METAR MROC 062200Z 31006KT 9999 SCT020 BKN100 22/19 A2998 RMK PCPN N NE NOSIG=
200906062300 METAR MROC 062300Z 32006KT 9999 BKN015 22/19 A2999 RMK PCPN N NE NOSIG=
200906070000 METAR MROC 070000Z 25003KT 9999 FEW005 BKN015 22/20 A3001 RMK PCPN N NE NOSIG=
200906070100 METAR MROC 070100Z 22003KT 9999 FEW015 BKN100 21/21 A3003 NOSIG=
200906070200 METAR MROC 070200Z 24002KT 9999 FEW015 BKN100 21/20 A3005 NOSIG=
200906070300 METAR MROC 070300Z 10003KT 9999 FEW010 BKN100 21/20 A3006 NOSIG=
200906070400 METAR MROC 070400Z 05003KT CAVOK 21/20 A3007 RMK BKN090 TRAZAS SCT NOSIG=
200906070500 METAR MROC 070500Z 09004KT CAVOK 21/19 A3004 RMK TRAZAS SCT BKN100 NOSIG=
200906070600 METAR MROC 070600Z 06003KT CAVOK 21/18 A3003 RMK TRAZAS SCT BKN100 NOSIG=
200906070700 METAR MROC 070700Z 07007KT CAVOK 21/18 A3002 RMK TRAZAS SC SCT100 NOSIG=
200906070800 METAR MROC 070800Z 06005KT CAVOK 21/18 A2999 RMK TRAZAS SC BKN100 NOSIG=
200906070900 METAR MROC 070900Z 06008KT CAVOK 21/18 A2999 RMK TRAZAS SC BKN100 NOSIG=
200906071000 METAR MROC 071000Z 07005KT CAVOK 21/17 A2998 RMK TRAZAS SC BKN120 NOSIG=
200906071100 METAR MROC 071100Z 05006KT CAVOK 21/18 A2999 RMK FEW080 BKN120 NOSIG=
200906071200 METAR MROC 071200Z 00000KT CAVOK 20/18 A3000 RMK TRAZAS SCT FEW080 SCT120 NOSIG=
200906071300 METAR MROC 071300Z 04003KT CAVOK 23/18 A3002 RMK TRACE SC SCT120 NOSIG=
200906071400 METAR MROC 071400Z 21002KT CAVOK 25/18 A3003 RMK TRACE SC SCT120 CB DST SW NOSIG=
200906071500 METAR MROC 071500Z 20002KT CAVOK 27/18 A3003 RMK TRACE SC SCT120 SCT250 NOSIG=
200906071600 METAR MROC 071600Z 22004KT 9999 FEW030 BKN120 27/20 A3001 RMK SCT250 NOSIG=
200906071700 METAR MROC 071700Z 27007KT 9999 FEW030 SCT250 27/20 A3000 NOSIG=
200906071800 METAR MROC 071800Z 24008KT 9999 SCT025 BKN140 28/22 A2998 NOSIG=
200906071900 METAR MROC 071900Z 25012KT 9999 FEW010CB SCT020 27/22 A2996 RMK BECMG 7000 VCSH=
200906072000 METAR MROC 072000Z 24011KT 9999 SCT010CB SCT020TCU 25/22 A2995 RMK RASH DST E NOSIG=
200906072100 METAR MROC 072100Z 25007KT 9999 FEW015CB SCT025TCU 24/22 A2994 RMK RASH DST E ENE NW BECMG 5000 VCSH=
200906072200 METAR MROC 072200Z 25008KT 9999 VCSH VCFG SCT005 BKN010 23/22 A2994 RMK VIS S SSW 7KMS VIS NW 9KMS BECMG 4000 BR=
200906072300 METAR MROC 072300Z 25006KT 9999 VCSH SCT006 BKN015 22/22 A2996 RMK VIS S SSW 7KMS BECMG 4000 BR=
200906080000 METAR MROC 080000Z 24005KT 7000 VCFG SCT003 BKN010 22/22 A2998 RMK VIS ESE SE UNLTD BECMG 3000 -RABR=
200906080100 METAR MROC 080100Z 24005KT 6000 -DZ VCFG SCT002 BKN010 21/21 A3001 RMK VIS SE UNLTD BECMG 4000 -RA BR=
200906080200 METAR MROC 080200Z 30006KT 9999 FEW020 SCT040 21/21 A3002 BECMG 03004KT=
200906080300 METAR MROC 080300Z 18002KT 9999 FEW020 SCT035 BKN100 21/21 A3004 NOSIG=
200906080400 METAR MROC 080400Z 14003KT 9999 FEW020 SCT035 BKN100 20/20 A3004 NOSIG=
200906080500 METAR MROC 080500Z 12002KT 9999 FEW035 SCT120 BKN250 20/20 A3003 NOSIG=
200906080600 METAR MROC 080600Z 10003KT CAVOK 20/20 A3000 RMK TRACE SC SCT120 BKN250 NOSIG=
200906080700 METAR MROC 080700Z 07003KT CAVOK 20/20 A2998 RMK TRACE SC FEW120 BKN250 NOSIG=
200906080800 METAR MROC 080800Z 03005KT CAVOK 20/19 A2997 RMK TRACE SC AC BKN250 NOSIG=
200906080900 METAR MROC 080900Z 05003KT CAVOK 20/19 A2996 RMK TRACE SC AC BKN250 NOSIG=
200906081000 METAR MROC 081000Z 08005KT CAVOK 19/18 A2995 RMK TRACE SC AC BKN250 NOSIG=
200906081100 METAR MROC 081100Z 05005KT CAVOK 20/18 A2996 RMK TRACE SC AC BKN250 NOSIG=
200906081200 METAR MROC 081200Z 05004KT CAVOK 20/18 A2997 RMK TRACE SC BKN120 SCT250 NOSIG=
200906081300 METAR MROC 081300Z 10007KT CAVOK 23/19 A2998 RMK TRACE SC BKN120 FEW250 NOSIG=
200906081400 METAR MROC 081400Z 09005KT CAVOK 26/19 A2998 RMK TRACE SC CU FEW140 SCT250 NOSIG=
200906081500 METAR MROC 081500Z 10009KT CAVOK 27/19 A2999 RMK TRACE CU SCT BKN250 TCU DST SSW NOSIG=
200906081600 METAR MROC 081600Z 10009KT 9999 FEW035 SCT250 28/19 A2998 NOSIG=
200906081700 METAR MROC 081700Z 16006KT 9999 SCT035 SCT250 28/22 A2997 BECMG 24008KT=
200906081800 METAR MROC 081800Z 25011KT 9999 FEW025TCU SCT035 27/22 A2997 NOSIG=
200906081900 METAR MROC 081900Z 24009KT 9999 FEW017TCU SCT025 26/22 A2996 BECMG 5000 VCSH=
200906082000 METAR MROC 082000Z 25011KT 9999 FEW010 SCT025 BKN250 25/23 A2994 RMK CB DST E SE SSW RN DST SE BECMG 5000 VCSH=
200906082023 METAR MROC 082023Z 25010KT 7000 -RA SCT006 BKN012 23/22 A2994=
200906082100 METAR MROC 082100Z 23010KT 3000 -RABR SCT004 BKN010 22/22 A2994=
200906082200 METAR MROC 082200Z 25008KT 3000 BR SCT002 BKN010 22/21 A2993=
200906082300 METAR MROC 082300Z 24004KT 5000 BR FEW004 BKN020 21/20 A2994=
200906090000 METAR MROC 090000Z 29004KT 7000 VCFG FEW002 SCT015 BKN250 22/21 A2995=
200906090100 METAR MROC 090100Z VRB02KT 9999 FEW004 SCT015 BKN250 22/21 A2997=
200906090200 METAR MROC 090200Z 00000KT 9999 FEW025 SCT120 BKN250 22/21 A2998 RMK TRACE ST NOSIG=
200906090300 METAR MROC 090300Z 00000KT 9999 FEW025 SCT120 22/21 A2999 NOSIG=
200906090400 METAR MROC 090400Z 00000KT 9999 FEW030 SCT120 22/22 A3001 NOSIG=
200906090500 METAR MROC 090500Z 00000KT 9999 VCFG FEW004 BKN025 22/21 A3002 RMK VIS S/SW/W 7KM DUE ST NOSIG=
200906090600 METAR MROC 090600Z 08002KT 9999 SCT025 22/22 A3000 NOSIG=
200906090700 METAR MROC 090700Z VRB03KT 9999 VCFG FEW003 SCT120 22/21 A2997 RMK FEW030 VIS S/SW/W 8KM DUE ST NOSIG=
200906090800 METAR MROC 090800Z 09003KT 9999 VCFG FEW002 SCT120 21/21 A2996 RMK FEW030 VIS S/SW/W 7KM DUE ST LTNG DST NE NOSIG=
200906090900 METAR MROC 090900Z VRB03KT 9999 VCFG FEW002 SCT120 21/21 A2996 RMK FEW260 VIS S/SW 7KM DUE ST LTNG DST NE NOSIG=
200906091000 METAR MROC 091000Z 01004KT 9999 VCFG FEW002 BKN120 20/20 A2996 RMK FEW260 VIS S/SW 7KM DUE ST NOSIG=
200906091100 METAR MROC 091100Z 03006KT CAVOK 21/19 A2997 RMK SCT120 SCT260 ST S NOSIG=
200906091200 METAR MROC 091200Z 02006KT CAVOK 21/19 A2998 RMK TRACE SC SCT 120 BKN250 NOSIG=
200906091300 METAR MROC 091300Z 05006KT CAVOK 23/19 A3000 RMK SCT140 BKN250=
200906091400 METAR MROC 091400Z 10005KT CAVOK 25/19 A3002 RMK SCT140 BKN280 HZ DST W CB DST SW=
200906091500 METAR MROC 091500Z 11002KT CAVOK 27/20 A3003 RMK TRACE CU/SC/AC BKN280 CB DST SW S=
200906091600 METAR MROC 091600Z 24006KT 9999 FEW030 BKN280 27/22 A3002=
200906091700 METAR MROC 091700Z 23008KT 9999 FEW020 SCT030 BKN280 26/21 A3003=
200906091800 METAR MROC 091800Z 24008KT 9999 FEW020 SCT030 BKN280 26/22 A3002=
200906091900 METAR MROC 091900Z 24004KT 9999 FEW020 SCT030 BKN280 27/22 A2997=
200906092000 METAR MROC 092000Z 22006KT 9999 FEW020 SCT030 BKN260 27/23 A2996 NOSIG=
200906092100 METAR MROC 092100Z 24006KT 9999 SCT025 BKN250 28/23 A2995 BECMG 6000=
200906092200 METAR MROC 092200Z 27007KT 9999 FEW015TCU BKN025 SCT250 27/23 A2994 RMK TCU RN NE BECMG 5000 -RA BR=
200906092300 METAR MROC 092300Z 24009KT 5000 BR VCSH FEW006 FEW015CB BKN030 24/23 A2995 RERA RMK VSBY S UNL VSBY N NE 3KM DUE RASH BECMG 2000 DZ BR=
200906100000 METAR MROC 100000Z 27006KT 6000 2500NW VCSH BKN012 SCT025 23/22 A2998 RMK VSBY NE E SE UNL BECMG 4000 RA BR=
200906100100 METAR MROC 100100Z 30004KT 4000 TSRA FEW004 SCT010CB BKN025 21/20 A3000 NOSIG=
200906100200 METAR MROC 200200Z 07003KT CAVOK 21/21 A3001 RMK TRAZAS SC SCT100 SCT250 RETSRA RMK LTNG DST E NOSIG=
200906100300 METAR MROC 100300Z 04002KT CAVOK 21/20 A3002 RMK TRACE SCT SCT120 SCT250 NOSIG=
200906100400 METAR MROC 100400Z 05004KT CAVOK 21/20 A3003 RMK TRACE SC SCT120 SCT250 NOSIG=
200906100500 METAR MROC 100500Z 07003KT CAVOK 21/20 A3001 RMK TRACE SC FEW120 BKN250 NOSIG=
200906100600 METAR MROC 100600Z 05005KT CAVOK 21/19 A3000 RMK TRACE SC AC SCT250 NOSIG=
200906100700 METAR MROC 100700Z 08002KT CAVOK 21/20 A2999 RMK TRACE SC FEW120 SCT250 NOSIG=
200906100800 METAR MROC 100800Z VRB03KT CAVOK 20/19 A2999 RMK TRACE SC FEW120 SCT250 NOSIG=
200906100900 METAR MROC 100900Z 05003KT CAVOK 19/19 A2998 RMK TRACE SCT FEW120 SCT250=
200906101000 METAR MROC 101000Z 04005KT CAVOK 20/18 A2998 RMK TRACE SC CI SCT130=
200906101100 METAR MROC 101100Z 02007KT 9999 FEW040 BKN130 20/18 A2998 RMK LTNG /CB=
200906101200 METAR MROC 101200Z 02005KT 9999 FEW040 BKN130 21/19 A3001 RMK CB DST SSW SW NOSIG=
200906101300 METAR MROC 101300Z 07005KT CAVOK 22/19 A3002 RMK TRAZAS SC BKN130 NOSIG=
200906101400 METAR MROC 101400Z 06005KT CAVOK 23/19 A3002 RMK TRAZAS SCT BKN130 BECMG 24006=
200906101500 METAR MROC 101500Z 14004KT CAVOK 23/19 A3003 RMK TRAZAS SCT BKN130 BECMG 24006=
200906101600 METAR MROC 101600Z 11003KT CAVOK 25/19 A3004 RMK TRAZAS SCT BKN130 BECMG 24006=
200906101700 METAR MROC 101700Z 02002KT CAVOK 27/18 A3003 RMK TRAZAS SCT BKN250 BECMG 24006=
200906101800 METAR MROC 101800Z VRB03KT 9999 FEW040 BKN250 27/22 A3001 BECMG 24006=
200906101900 METAR MROC 101900Z 24007KT 9999 SCT040 BKN250 26/23 A3000 NOSIG=
200906102000 METAR MROC 102000Z 25007KT 9999 SCT020 BKN250 26/22 A2999 NOSIG=
200906102100 METAR MROC 102100Z 24009KT 9999 FEW015TCU SCT025 BKN250 26/22 A2998 NOSIG=
200906102200 METAR MROC 102200Z 26010KT 9999 SCT025 BKN250 224/22 A2998 NOSIG=
200906102300 METAR MROC 102300Z 24004KT 9999 FEW015TCU SCT025 SCT100 BKN250 23/22 A3000 RMK TRACE ST RN E HZ LEVE ARND NOSIG=
200906110000 METAR MROC 110000Z VRB02KT 9999 FEW010 SCT025 BKN100 23/20 A3001 RMK SCT250 NOSIG=
200906110100 METAR MROC 110100Z 08002KT 9999 -DZ SCT025 BKN100 22/20 A3003 NOSIG=
200906110200 METAR MROC 110200Z 00000KT 9999 FEW025 BKN080 22/20 A3005 REDZ NOSIG=
200906110300 METAR MROC 110300Z 00000KT 9999 FEW025 SCT100 22/21 A3006 NOSIG=
200906110400 METAR MROC 110400Z 00000KT 9999 FEW025 SCT120 BKN250 22/21 A3006 NOSIG=
200906110500 METAR MROC 110500Z 01004KT 9999 FEW030 SCT120 BKN250 21/20 A3007 NOSIG=
200906110600 METAR MROC 110600Z 02005KT CAVOK 21/20 A3005 RMK TRACE SC SCT120 BKN260 NOSIG=
200906110700 METAR MROC 110700Z 06006KT CAVOK 20/19 A3002 RMK TRACE SC SCT120 BKN260 NOSIG=
200906110800 METAR MROC 110800Z 05006KT CAVOK 20/19 A3001 NOSIG=
200906110900 METAR MROC 110900Z 03005KT CAVOK 20/19 A3001 NOSIG=
200906111000 METAR MROC 111000Z 05004KT CAVOK 21/19 A3000 NOSIG=
200906111100 METAR MROC 111100Z 08004KT CAVOK 20/19 A3000 NOSIG=
200906111200 METAR MROC 111200Z 08004KT CAVOK 21/19 A3001 RMK TRACE SC SCT250 TCU DST S SW NOSIG=
200906111300 METAR MROC 111300Z 06004KT CAVOK 23/20 A3001 RMK TRACE SC BKN250 HZ ARND NOSIG=
200906111400 METAR MROC 111400Z VRB03KT CAVOK 25/19 A3002 RMK TRACE CU BKN250 HZ ARND BECMG 24008KT=
200906111500 METAR MROC 111500Z 00000KT 9999 FEW040 BKN250 26/20 A3003 RMK HZ ARND BECMG 24008KT=
200906111600 METAR MROC 111600Z 26003KT 9999 FEW040 BKN250 28/21 A3001 RMK HZ ARND NOSIG=
200906111700 METAR MROC 111700Z 23005KT 9999 SCT030 BKN250 28/21 A3001 RMK HZ ARND NOSIG=
200906111800 METAR MROC 111800Z 22010KT 9999 SCT030 BKN250 29/22 A2998 RMK HZ LEVE ARND=
200906111900 METAR MROC 111900Z 26009KT 9999 SCT030 BKN250 27/22 A2997 RMK RN N HZ W NOSIG=
200906112000 METAR MROC 112000Z 23009KT 9999 FEW010TCU SCT030 BKN250 29/22 A2994 RMK RN N NE E HZ W BECMG 6000 VCSH=
200906112100 METAR MROC 112100Z 13008KT 1000 +TSRA SCT009 OVC100 21/21 A2996 RMK BECMG 3000 -TS RA=
200906112200 METAR MROC 112200Z 08006KT 7000 VCRA SCT015 OVC100 20/10 A2996 NOSIG=
200906112300 METAR MROC 112300Z 34003KT 9999 SCT025 OVC100 22/21 A2997 RMK BECMG 7000 VCFG=
200906120000 METAR MROC 120000Z 32005KT 9999 FEW005 SCT030 OVC100 21/21 A3000 NOSIG=
200906120100 METAR MROC 120100Z 00000KT 9999 FEW035 BKN120 21/20 A3002 NOSIG=
200906120200 METAR MROC 120200Z 08004KT 9999 FEW035 BKN120 21/20 A3002 NOSIG=
200906120300 METAR MROC 120300Z 06004KT CAVOK 21/20 A3001 RMK SCT100 BKN140 TRAZAS SCT NOSIG=
200906120400 METAR MROC 120400Z 07003KT CAVOK 21/19 A3002 RMK TRAZAS SCT SCT140 SCT250 NOSIG=
200906120500 METAR MROC 120500Z 12003KT CAVOK 20/19 A3003 RMK TRAZAS SCT FEW120 BKN250 NOSIG=
200906120600 METAR MROC 120600Z 11003KT CAVOK 20/19 A3003 RMK TRAZAS SCT FEW140 BKN250 NOSIG=
200906120700 METAR MROC 120700Z 07004KT CAVOK 19/18 A3000 RMK TRAZAS SCT BKN250 NOSIG=
200906120800 METAR MROC 120800Z 07006KT CAVOK 20/18 A2998 RMK TRAZAS SC BKN250 NOSIG=
200906120900 METAR MROC 120900Z 10004KT CAVOK 20/118 A2998 RMK TRAZAS SC BKN250 NOSIG=
200906121000 METAR MROC 121000Z 06002KT CAVOK 20/17 A2998 RMK TRAZAS SCT BKN250 NOSIG=
200906121100 METAR MROC 121100Z 07003KT CAVOK 19/18 A2998 RMK FEW120 SCT250 NOSIG=
200906121200 METAR MROC 121200Z 08004KT CAVOK 19/18 A2999 RMK TRAZAS SCT BKN250 NOSIG=
200906121300 METAR MROC 121300Z 05002KT CAVOK 22/19 A3001 RMK TRACE SC FEW120 BKN250 CB DST W NOSIG=
200906121400 METAR MROC 121400Z 20004KT CAVOK 24/19 A3003 RMK TRACE SC BKN250 NOSIG=
200906121500 METAR MROC 121500Z 23007KT 9999 FEW030 BKN250 25/20 A3005 NOSIG=
200906121600 METAR MROC 121600Z 25008KT 9999 SCT020 BKN250 25/21 A3005 NOSIG=
200906121700 METAR MROC 121700Z 24009KT 9999 SCT020 BKN120 24/21 A3005 NOSIG=
200906121800 METAR MROC 121800Z 24009KT 9999 VCFG SCT015 BKN120 23/20 A3004 RMK 8000 NE NOSIG=
200906121900 METAR MROC 121900Z 31004KT 9999 -RA SCT010 BKN030 22/20 A3001 RMK BECMG 7000 -RA=
200906122000 METAR MROC 122000Z 36005KT 9999 SCT010 BKN030 22/21 A3001 NOSIG=
200906122100 METAR MROC 122100Z 32006KT 9999 -RA SCT010 OVC100 22/21 A3000 RMK VIS NW 8KM WET RNY NOSIG=
200906122200 METAR MROC 122200Z 26002KT 9999 -RA FEW010 OVC100 21/21 A3000 NOSIG=
200906122300 METAR MROC 122300Z 00000KT 9999 FEW008 OVC120 22/21 A3000 RERA RMK LGT HZ ARND NOSIG=
200906130000 METAR MROC 130000Z 00000KT CAVOK 22/21 A3000 RMK TRACE ST SC OVC140 NOSIG=
200906130100 METAR MROC 130100Z 04003KT CAVOK 21/20 A3002 RMK TRACE ST SC OVC140 NOSIG=
200906130200 METAR MROC 130200Z 20004KT 5000 BR FEW008 BKN120 20/20 A3004 RMK VIS E UNL BECMG 31004KT 9000=
200906130300 METAR MROC 130300Z 29002KT 8000 FEW005 BKN100 20/20 A3005 RMK HZ ARND=
200906130400 METAR MROC 130400Z VRB02KT 9999 3000SW BR FEW002 SCT008 BKN100 20/20 A3007 NOSIG=
200906130500 METAR MROC 130500Z VRB03KT 9999 FEW005 SCT010 BKN100 20/20 A3007 NOSIG=
200906130600 METAR MROC 130600Z 00000KT 9999 FEW005 SCT020 BKN100 20/20 A3007 NOSIG=
200906130700 METAR MROC 130700Z 05003KT 9999 SCT020 BKN100 19/19 A3005 NOSIG=
200906130800 METAR MROC 130800Z 06002KT 9999 FEW030 BKN100 19/19 A3002 NOSIG=
200906130900 METAR MROC 130900Z 09002KT 9999 FEW030 SCT120 19/18 A3000 NOSIG=
200906131000 METAR MROC 131000Z 07005KT 9999 FEW030 SCT120 18/18 A3001 NOSIG=
200906131100 METAR MROC 131100Z 07005KT CAVOK 19/18 A3002 RMK TRACE SC BKN120 NOSIG=
200906131200 METAR MROC 131200Z 04003KT CAVOK 19/18 A3004 RMK TRACE SC HZ W BKN120 NOSIG=
200906131300 METAR MROC 131300Z 13003KT CAVOK 21/19 A3003 RMK TRACE SC AC BKN250 HZY NOSIG=
200906131400 METAR MROC 131400Z 00000KT CAVOK 23/19 A3006 RMK TRACE CU AC BKN250 HZY BECMG FM 131400Z 24006KT=
200906131500 METAR MROC 131500Z 22006KT 9999 FEW030 BKN250 24/20 A3007 RMK HZY NOSIG=
200906131600 METAR MROC 131600Z 24008KT 9999 FEW025 BKN250 26/20 A3006 RMK HZY NOSIG=
200906131700 METAR MROC 131700Z 25008KT 9999 FEW020 SCT120 BKN250 25/20 A3006 RMK HZY NOSIG=
200906131800 METAR MROC NIL=
200906131900 METAR MROC NIL=
200906132000 METAR MROC NIL=
200906132100 METAR MROC NIL=
200906132200 METAR MROC NIL=
200906132300 METAR MROC NIL=
200906140000 METAR MROC NIL=
200906140100 METAR MROC 140100Z 07004KT 9999 -RA FEW030 OVC090 20/19 A3008 NOSIG=
200906140200 METAR MROC NIL=
200906140300 METAR MROC NIL=
200906140400 METAR MROC NIL=
200906140500 METAR MROC 140500Z 01002KT 9999 DZ FEW045 BKN100 19/19 A3011 NOSIG=
200906140600 METAR MROC 140600Z 36004KT 9999 -RA FEW045 BKN100 19/19 A3010 NOSIG=
200906140601 METAR MROC NIL=
200906140657 METAR MROC NIL=
200906140700 METAR MROC 140700Z 00000KT 9999 -RA FEW045 BKN100 19/19 A3008 NOSIG=
200906140800 METAR MROC 140800Z 00000KT 9999 -RA FEW035 BKN100 19/19 A3007 NOSIG=
200906140900 METAR MROC 140900Z 08003KT 9999 -RA FEW035 BKN100 19/19 A3004 NOSIG=
200906141000 METAR MROC 141000Z 07005KT 9999 -DZ FEW035 BKN100 19/18 A3002 NOSIG=
200906141100 METAR MROC 141100Z 06004KT 9999 FEW035 BKN110 19/18 A3000 REDZ RMK FEW250 BECMG CAVOK=
200906141200 METAR MROC 141200Z 11005KT 9999 -RA BKN110 19/18 A3001 NOSIG=
200906141300 METAR MROC 141300Z 29005KT CAVOK 20/19 A3006 RERA RMK TRACE ST BKN120 NOSIG=
200906141400 METAR MROC 141400Z 05002KT CAVOK 21/18 A3008 RMK SCT120 SCT250 NOSIG=
200906141500 METAR MROC 141500Z 00000KT CAVOK 24/19 A3008 RMK FEW120 SCT250 NOSIG=
200906141600 METAR MROC 141600Z 27004KT CAVOK 26/19 A3008 RMK TRACE CU FEW120 SCT250 NOSIG=
200906141700 METAR MROC 141700Z 25006KT 9999 SCT030 SCT250 26/19 A3008 NOSIG=
200906141800 METAR MROC 141800Z 25008KT 9999 FEW020TCU SCT030 26/19 A3005 NOSIG=
200906141900 METAR MROC 141900Z 26007KT 9999 VCSH FEW015TCU SCT030 SCT250 26/20 A3004 RMK VIS 7000W BECMG 5000 -RA=
200906142000 METAR MROC NIL=
200906142100 METAR MROC 142100Z 26007KT 9999 SCT010 FEW015TCU SCT120 23/22 A3002 RMK TCU /RN W BECMG 5000 -RA BR=
200906142200 METAR MROC 142200Z 26006KT 9999 -RA SCT006 SCT012 23/22 A3002 RMK VSBY W NW 6KM DUE HVY RN BECMG 2000 -RA BR=
200906142300 METAR MROC 142300Z 26005KT 9999 SCT006 FEW015 21/21 A3001 RMK FEW120 VSBY N NW W 6KM DUE RN/LOW ST BECMG 6000 VCFG=
200906150000 METAR MROC 150000Z 24004KT 9999 FEW005 SCT015 21/21 A3006 RMK SCT120 VSBY NW N 4KM DUE LW ST NOSIG=
200906150100 METAR MROC 150100Z 26003KT 9999 FEW008 SCT120 20/20 A3006 RMK LTNG DST NE NOSIG=
200906150200 METAR MROC 150200Z 32003KT 9999 FEW012 BKN120 20/20 A3008 NOSIG=
200906150300 METAR MROC 150300Z 00000KT 9999 FEW015 BKN140 20/20 A3008 NOSIG=
200906150400 METAR MROC 150400Z 11003KT CAVOK 20/20 A3008 RMK TRACE SC SCT150 SCT220 NOSIG=
200906150500 METAR MROC 150500Z 05003KT CAVOK 20/19 A3007 RMK TRACE SC AC BKN240 NOSIG=
200906150600 METAR MROC 150600Z 04003KT CAVOK 19/19 A3006 RMK TRACE SC FEW150 BKN240 NOSIG=
200906150700 METAR MROC 150700Z 08004KT CAVOK 19/18 A3005 RMK TRACE SC SCT150 SCT250 NOSIG=
200906150800 METAR MROC 150800Z 07003KT CAVOK 19/18 A3004 RMK TRACE SC SCT150 SCT250 NOSIG=
200906150900 METAR MROC 150900Z 07004KT CAVOK 18/17 A3003 RMK TRACE SC SCT150 SCT250 NOSIG=
200906151000 METAR MROC 151000Z 08004KT CAVOK 18/17 A3003 RMK TRACE SC CI SCT120 NOSIG=
200906151100 METAR MROC 151100Z 02004KT CAVOK 18/17 A3006 RMK TRACE SC CI SCT100 BECMG 25003KT 9999 SCT010=
200906151200 METAR MROC 151200Z 00000KT 9999 FEW015 SCT025 BKN070 19/18 A3009 RMK PCPN DST E S WNW NOSIG=
200906151300 METAR MROC 151300Z 13003KT 9999 FEW035 BKN070 20/19 A3009 RMK BECMG 24006KT NOSIG=
200906151400 METAR MROC 151400Z 09004KT 9999 -RA BKN090 21/20 A3009 RMK TRAZAS SCT NOSIG=
200906151500 METAR MROC 151500Z 08004KT CAVOK 23/19 A3005 RMK TRAZAS ST/SC BKN100 RERA BECMG 24006KT=
200906151600 METAR MROC 151600Z 23008KT 9999 FEW015 BKN250 24/21 A3009 RMK VSBY W/ N 7KM DUE HZ FEW100 NOSIG=
200906151700 METAR MROC 151700Z 26006KT 9999 FEW020 SCT250 26/19 A3006 RMK HZ W NOSIG=
200906151800 METAR MROC 151800Z 24008KT 9999 SCT025 BKN250 26/21 A3004 NOSIG=
200906151900 METAR MROC 151900Z 26009KT 9999 SCT015 SCT025 BKN250 25/21 A3003 RMK RN DST S BECMG 6000 -TSRA=
200906152000 METAR MROC 152000Z 23011KT 9999 SCT008 BKN020 23/22 A3001 RMK RN SW BECMG 5000 -RA BR=
200906152100 METAR MROC 152100Z 25009KT 9999 FEW003 SCT010 BKN100 22/21 A3000 BECMG 6000 VCFG=
200906152200 METAR MROC 152200Z 20005KT 1500 RA BR FEW001 SCT010 BKN100 20/20 A3001 BECMG 3000 -RA BR=
200906152220 METAR MROC 152220Z 26003KT 8000 -DZ FEW002 SCT025 BKN100 20/20 A3001 RMK ST LOW W NOSIG=
200906152300 METAR MROC 152300Z 29003KT 9999 FEW003 SCT025 OVC100 20/20 A3001 RERA NOSIG=
200906160000 METAR MROC 160000Z 30002KT 9999 4000W BR FEW001 SCT008 BKN100 21/21 A3004 NOSIG=
200906160100 METAR MROC 160100Z 30002KT 9999 SCT008 BKN030 21/21 A3005 NOSIG=
200906160200 METAR MROC 160200Z 00000KT 9999 SCT030 BKN100 21/21 A3006 RMK TRACE ST NOSIG=
200906160300 METAR MROC 160300Z 00000KT 9999 FEW005 SCT015 SCT100 21/21 A3007 NOSIG=
200906160400 METAR MROC 160400Z 00000KT 9999 FEW007 SCT020 21/21 A3008 NOSIG=
200906160500 METAR MROC 160500Z 00000KT 9999 VCFG FEW003 SCT020 20/20 A3007 RMK VIS 7000 S SW NOSIG=
200906160600 METAR MROC 160600Z 00000KT 4000 1000E BR SCT003 SCT020 20/20 A3005 RMK VIS 9999N BECMG 0800=
200906160700 METAR MROC 160700Z 07002KT 7000 VCFG FEW004 SCT020 SCT100 20/20 A3004 RMK BECMG 9999=
200906160800 METAR MROC 160800Z 03002KT 9999 FEW020 SCT100 20/19 A3003 RMK TRACE ST NOSIG=
200906160900 METAR MROC 160900Z 08002KT 9999 SCT020 SCT100 20/20 A3001 NOSIG=
200906161000 METAR MROC 161000Z 03002KT 9999 SCT020 SCT100 20/19 A3001 NOSIG=
200906161100 METAR MROC 161100Z 05004KT 9999 FEW040 SCT100 19/18 A3002 NOSIG=
200906161200 METAR MROC 161200Z 08004KT CAVOK 19/18 A3003 RMK TRACE SC AS SCT250 CB DST SSW NOSIG=
200906161300 METAR MROC 161300Z 04004KT CAVOK 22/19 A3004 RMK TRACE ST CU SCT250 NOSIG=
200906161400 METAR MROC 161400Z 00000KT CAVOK 24/20 A3005 RMK TRACE CU SCT270 HZ ARND BECMG 24005KT=
200906161500 METAR MROC 161500Z 21004KT 9999 FEW040 SCT250 25/20 A3005 RMK HZ LEVE ARND=
200906161600 METAR MROC 161600Z 26006KT 9999 FEW040 SCT250 26/21 A3005 RMK HZ LEVE ARND NOSIG=
200906161700 METAR MROC 161700Z 23008KT 9999 SCT030 SCT260 26/20 A3004 NOSIG=
200906161800 METAR MROC 161800Z 25010KT 9999 FEW015 SCT030 27/22 A3002 RMK FEW270 NOSIG=
200906161900 METAR MROC 161900Z 26010KT 9999 FEW015TCU BKN030 27/22 A3000 RMK RN DST E NOSIG=
200906162000 METAR MROC 162000Z 23008KT 9999 FEW015TCU BKN030 27/23 A2997 RMK RN SW BECMG 6000 VCSH=
200906162100 METAR MROC 162100Z 23005KT 9999 SCT012TCU BKN030 23/22 A2998 RMK RASH N NE E SE BECMG 6000 RA=
200906162200 METAR MROC 162200Z 25006KT 9999 SCT025 BKN100 22/22 A2997 NOSIG=
200906162300 METAR MROC 162300Z 29005KT 7000 VCFG FEW004 SCT020 BKN100 22/22 A2999 BECMG 6000 VCFG=
200906170000 METAR MROC NIL=
200906170100 METAR MROC NIL=
200906170200 METAR MROC 170200Z 28003KT 7000 VCFG FEW004 SCT015 BKN120 22/22 A3004 NOSIG=
200906170300 METAR MROC 170300Z 33002KT 9999 FEW006 BKN045 22/21 A3005 BECMG 6000=
200906170400 METAR MROC 170400Z 00000KT 9999 FEW025 SCT250 21/21 A3004 RMK LW ST SE NOSIG=
200906170500 METAR MROC 170500Z 10003KT CAVOK 21/21 A3002 RMK TRAZAS ST SCT280 NOSIG=
200906170600 METAR MROC 170600Z 35003KT CAVOK 20/20 A3000 RMK TRAZAS SC FEW280 NOSIG=
200906170700 METAR MROC NIL=
200906170800 METAR MROC 170800Z 09003KT 4000 BR SCT002 SCT250 20/20 A2999 RMK VSBY E UNL VSBY W 3KM BECMG 7000 VCFG=
200906170900 METAR MROC 170900Z 10003KT 9999 VCFG FEW002 SCT025 19/19 A2998 NOSIG=
200906171000 METAR MROC 171000Z 01004KT CAVOK 19/18 A2997 RMK TRAZAS SC/AC HZY NOSIG=
200906171100 METAR MROC 171100Z 04003KT CAVOK 19/18 A2998 RMK TRAZAS SCT FEW250 CB DST S NOSIG=
200906171200 METAR MROC 171200Z 09003KT CAVOK 19/18 A2999 RMK TRAZAS SCT SCT280 CB DST S NOSIG=
200906171300 METAR MROC 171300Z 05006KT 9999 FEW025 BKN250 23/19 A3001 RMK CB DST S NOSIG=
200906171400 METAR MROC 171400Z 11004KT 9999 FEW030 BKN250 25/19 A3002 NOSIG=
200906171500 METAR MROC 171500Z 09008KT 9999 FEW030 BKN250 27/19 A3001 NOSIG=
200906171600 METAR MROC 171600Z 14007KT 9999 FEW030 BKN250 28/19 A3000 RMK BECMG 24006KT=
200906171700 METAR MROC 171700Z 11008KT 9999 SCT030 BKN250 29/18 A3000 RMK TRACE AC NOSIG=
200906171800 METAR MROC 171800Z 13007KT 9999 SCT025TCU SCT110 28/19 A2999 RMK RN N NE E BECMG 7000 VCSH=
200906171900 METAR MROC 171900Z 25011KT 9999 SCT025 SCT110 27/23 A2996 RMK RN NW N NOSIG=
200906172000 METAR MROC 172000Z 23007KT 9999 SCT025TCU SCT110 24/23 A2996 RMK VIS N4000 DUE ST RN NOSIG=
200906172100 METAR MROC 172100Z 24009KT 5000 BR VCSH SCT005 SCT015CB 23/22 A2995 RMK VIS S UNLTD BECMG 3000=
200906172200 METAR MROC 172200Z 26007KT 7000 3000NW -RA VCTS VCSH FEW015CB SCT025 BKN100 22/21 A2995 RMK TS NW W VIS S UNL BECMG 5000 BR=
200906172300 METAR MROC 172300Z 33003KT 9999 FEW010 SCT025 BKN045 22/22 A2995 RERA RMK PCPN DST S NOSIG=
200906180000 METAR MROC 180000Z 00000KT 9999 FEW010 SCT030 BKN050 22/22 A2996 NOSIG=
200906180100 METAR MROC 180100Z 06002KT 9999 SCT030 BKN050 22/22 A2997 NOSIG=
200906180200 METAR MROC 180200Z 08002KT 9999 FEW015 SCT050 22/22 A2998 NOSIG=
200906180300 METAR MROC 180300Z 09003KT CAVOK 21/21 A2994 RMK TRACE SC AC BKN250 NOSIG=
200906180400 METAR MROC 180400Z 07005KT CAVOK 21/19 A2999 RMK TRACE SC AC BKN250 NOSIG=
200906180500 METAR MROC 180500Z 08003KT CAVOK 20/18 A2999 RMK TRACE SC SCT250 NOSIG=
200906180600 METAR MROC 180600Z 06005KT CAVOK 20/18 A2998 RMK TRACE SC SCT250 NOSIG=
200906180700 METAR MROC 180700Z 05005KT CAVOK 20/18 A2995 RMK TRACE SC SCT250 NOSIG=
200906180800 METAR MROC NIL=
200906180900 METAR MROC 180900Z 06005KT CAVOK 20/17 A2993 RMK TRACE SC SCT250 NOSIG=
200906181000 METAR MROC 181000Z 06004KT CAVOK 20/17 A2994 RMK TRACE SC SCT250 NOSIG=
200906181100 METAR MROC 181100Z 03007KT CAVOK 19/17 A2995 RMK TRACE SC SCT250 NOSIG=
200906181200 METAR MROC 181200Z 04008KT CAVOK 20/17 A2996 RMK TRACE SC AC BKN250 TCU S S W NOSIG=
200906181300 METAR MROC 181300Z 08005KT CAVOK 22/18 A2997 RMK TRACE SC AC BKN250 CB DST S SSW NOSIG=
200906181400 METAR MROC 181400Z 04006KT CAVOK 24/18 A2998 RMK TRACE SC AC BKN250 CB DST S SSW NOSIG=
200906181500 METAR MROC 181500Z 13003KT 9999 FEW040 BKN250 26/18 A3000 RMK TRACE AC CB DST SW NOSIG=
200906181600 METAR MROC 181600Z 13009KT 9999 FEW040 BKN250 27/18 A2999 RMK CB DST SW NOSIG=
200906181700 METAR MROC 181700Z 16004KT 9999 FEW035 BKN250 28/21 A2999 RMK TCU PCPN DST SSW LGT HZ ARND BECMG 24005KT=
200906181800 METAR MROC 181800Z 23009KT 9999 FEW025TCU SCT035 BKN250 27/21 A2996 RMK PCPN DST S N QDS HZY BECMG 5000 VCSH=
200906181900 METAR MROC 181900Z 24011KT 9999 VCSH FEW020TCU SCT035 BKN220 25/21 A2996 RMK VIS N NNW 8KMS CB DST N NW BECMG 3000 -TSRA=
200906182000 METAR MROC 182000Z 24008KT 9999 VCSH FEW015CB SCT030 BKN220 23/21 A2994 RMK VIS N NW 7KMS BECMG 3000 -TSRA=
200906182100 METAR MROC 182100Z 26009KT 9999 FEW010 FEW015CB BKN030 23/21 A2994 RMK RN DST SE S SW BECMG 7000 -RA VCFG=
200906182200 METAR MROC 182200Z 26007KT 9999 VCFG FEW005 SCT015 BKN030 22/21 A2995 RMK 7000SW BECMG 5000 -RA BR=
200906182300 METAR MROC 182300Z 27004KT 9999 VCFG FEW005 BKN030 SCT090 22/21 A2996 RMK RN DST N NW SW BECMG 5000 -RA BR=
200906190000 METAR MROC 190000Z 27002KT 9999 -RA VCFG FEW005 SCT020 BKN090 21/21 A2997 RMK VIS 6000SW NOSIG=
200906190100 METAR MROC 190100Z 00000KT 9999 DZ SCT012 BKN100 21/21 A3000 NOSIG=
200906190200 METAR MROC 190200Z 15002KT 9999 -DZ FEW020 BKN120 21/21 A3001 NOSIG=
200906190300 METAR MROC 190300Z 05005KT 9999 FEW020 BKN120 21/20 A3002 NOSIG=
200906190400 METAR MROC 190400Z 02002KT 9999 FEW020 BKN120 21/20 A3001 NOSIG=
200906190500 METAR MROC 190500Z 15003KT 9999 4000W BR FEW002 BKN120 20/20 A3000 RMK FEW020 BECMG 5000 BR=
200906190600 METAR MROC 190600Z 36002KT 9999 SCT020 BKN120 20/20 A2998 RMK HZ ARND NOSIG=
200906190700 METAR MROC 190700Z 07002KT 9999 SCT020 BKN120 19/19 A2995 RMK HZ ARND NOSIG=
200906190800 METAR MROC 190800Z 07004KT CAVOK 19/18 A2994 RMK TRACE AC NOSIG=
200906190900 METAR MROC 190900Z 08004KT 9999 VCFG FEW003 18/18 A2994 RMK FEW260 VIS S 6KM DUE ST NOSIG=
200906191000 METAR MROC 191000Z 04002KT 9999 VCFG FEW003 18/17 A2994 RMK FEW250 VIS S 6KM DUE ST LTNG DST S/SW BECMG CAVOK=
200906191100 METAR MROC 191100Z 08006KT CAVOK 20/17 A2994 RMK ST S CB/LTNG DST S NOSIG=
200906191200 METAR MROC 191200Z 04006KT CAVOK 18/17 A2995 RMK TRACE SC BKN250 CB DST S NOSIG=
200906191300 METAR MROC 191300Z 08005KT CAVOK 22/18 A2997 RMK TRACE SC ST BKN250 NOSIG=
200906191400 METAR MROC 191400Z 09006KT CAVOK 24/19 A2998 RMK TRACE CU BKN250 NOSIG=
200906191500 METAR MROC 191500Z 11008KT 9999 FEW035 BKN270 26/19 A2999 NOSIG=
200906191600 METAR MROC 191600Z 21009KT 9999 FEW030 SCT250 26/21 A2998 NOSIG=
200906191700 METAR MROC 191700Z 26009KT 9999 SCT030 SCT250 26/22 A2998 RMK RN DST NE N NOSIG=
200906191800 METAR MROC 191800Z 24007KT 9999 FEW020TCU SCT030 BKN250 26/21 A2997 RMK RN DST N NE BECMG 7000 VCSH=
200906191900 METAR MROC 191900Z 23008KT 9999 FEW015CB SCT025TCU 27/21 A2995 RMK RN S SE E BECMG 7000 VCSH=
200906192000 METAR MROC 192000Z 23008KT 9999 -DZ FEW015CB SCT025 26/22 A2993 RMK RN N NE E BECMG 5000 RA=
200906192100 METAR MROC 192100Z 27011KT 9999 VCSH SCT015CB SCT025 24/22 A2991 RMK VSBY NE S 5KM DUE RASH RASH DST E BECMG 4000 TSRA=
200906192114 SPECI MROC 192114Z 25009KT 4000 -TSRA SCT010CB BKN020 23/22 A2992 NOSIG=
200906192200 METAR MROC 192200Z 10007KT 6000 -TSRA VCFG FEW005 SCT015CB BKN070 20/19 A2994 NOSIG=
200906192300 METAR MROC 192300Z 02004KT 6000 -RA FEW025 OVC100 20/19 A2996 RMK VSBY DST TS SW SE S UNL BECMG 2000 -RA BR=
200906200000 METAR MROC 200000Z 07003KT 9999 RA FEW045 OVC100 20/20 A2998 RMK VSBY N 7KM DUE HVY RN NOSIG=
200906200100 METAR MROC 200100Z 08002KT 9999 RA FEW045 OVC100 20/20 A3000 NOSIG=
200906200200 METAR MROC 200200Z 07003KT 9999 RA OVC100 20/20 A3001 RMK TRAZAS SCT NOSIG=
200906200300 METAR MROC 200300Z 03006KT 9999 -RA FEW045 BKN100 20/19 A3002 RMK LTNG DST SE S SW NOSIG=
200906200400 METAR MROC 200400Z 08004KT 9999 -RA FEW045 BKN100 20/18 A3001 RMK LTNG DST SE S SW NOSIG=
200906200500 METAR MROC 200500Z 23003KT 9999 DZ OVC120 20/20 A3003 RMK LTNG DST S SW NOSIG=
200906200600 METAR MROC 200600Z 33003KT 9999 SCT020 BKN100 20/20 A3003 RMK LTNG DST SSW NOSIG=
200906200700 METAR MROC 200700Z 07004KT 9999 FEW010 SCT025 BKN100 20/20 A3000 NOSIG=
200906200800 METAR MROC 200800Z 12003KT 9999 FEW015 BKN100 20/19 A2997 NOSIG=
200906200900 METAR MROC 200900Z 04008KT CAVOK 20/19 A2997 RMK TRACE SCT BKN130 NOSIG=
200906201000 METAR MROC 201000Z 08007KT CAVOK 20/18 A2996 RMK TRACE SCT SCT100 BKN120 NOSIG=
200906201100 METAR MROC 201100Z 08010KT CAVOK 20/18 A2995 RMK TRACE SCT SCT100 BKN130 NOSIG=
200906201200 METAR MROC 201200Z 10004KT CAVOK 21/17 A2995 RMK TRACE SC BKN130 NOSIG=
200906201300 METAR MROC 201300Z 06005KT CAVOK 22/17 A2997 RMK TRACE SC BKN130 NOSIG=
200906201400 METAR MROC 201400Z 21006KT CAVOK 23/19 A2999 RMK SCT120 BKN280 TRAZAS SCT NOSIG=
200906201500 METAR MROC 201500Z 25006KT CAVOK 25/20 A3000 RMK TRAZAS SCT SCT100 BKN280 NOSIG=
200906201600 METAR MROC 201600Z 25007KT 9999 FEW030 SCT120 BKN280 26/20 A3001 NOSIG=
200906201700 METAR MROC 201700Z 26008KT 9999 FEW020 BKN280 25/20 A3001 RMK CB DST SW NOSIG=
200906201800 METAR MROC 201800Z 25008KT 9999 BKN025 SCT280 26/21 A3000 NOSIG=
200906201900 METAR MROC 201900Z 20009KT 9999 SCT020TCU SCT030 26/20 A2998 RMK RN NE E SE BECMG 5000 -TSRA=
200906202000 METAR MROC 202000Z 21006KT 5000 RA FEW010CB BKN025 22/22 A2997 RMK VSBY SE S UNL BECMG 2000 -TSRA=
200906202100 METAR MROC 202100Z 25007KT 9999 FEW008 SCT020 BKN100 23/22 A2995 RERA NOSIG=
200906202200 METAR MROC 202200Z 26005KT 9999 FEW005 SCT020 BKN100 21/21 A2996 RMK RN E BECMG 5000 BR=
200906202300 METAR MROC 202300Z 28004KT 9999 -DZ FEW005 SCT020 BKN100 21/21 A2997 BECMG 5000 RA BR=
200906210000 METAR MROC 210000Z 08004KT 9999 FEW005 SCT020 BKN100 21/21 A2998 REDZ RMK RN E NOSIG=
200906210100 METAR MROC 210100Z 09003KT 9999 FEW035 BKN100 21/21 A3000 NOSIG=
200906210200 METAR MROC 210200Z 02004KT CAVOK 21/20 A3001 RMK TRACE SC BKN100=
200906210300 METAR MROC 210300Z 21003KT 9999 1500SW R07/0600 BR SCT002 SCT120 20/20 A3002 RMK BECMG 0800 FG=
200906210400 METAR MROC 210400Z 00000KT 7000 VCFG SCT008 20/20 A3003 RMK VIS 9999N NOSIG=
200906210500 METAR MROC 210500Z 03004KT 9999 VCFG FEW003 SCT120 20/20 A3001 RMK FEW030 VIS 7000SW NOSIG=
200906210600 METAR MROC 210600Z 08004KT CAVOK 21/19 A3000 RMK TRACE SC ST SCT120 NOSIG=
200906210700 METAR MROC 210700Z 09004KT CAVOK 20/19 A2998 RMK TRACE SC ST SCT120 NOSIG=
200906210800 METAR MROC 210800Z 05007KT CAVOK 20/19 A2997 RMK TRACE SC ST SCT120 NOSIG=
200906210900 METAR MROC 210900Z VRB03KT CAVOK 20/19 A2996 RMK TRACE SCT ST NOSIG=
200906211000 METAR MROC 211000Z 09003KT CAVOK 18/18 A2997 RMK TRACE ST NOSIG=
200906211100 METAR MROC 211100Z 02006KT CAVOK 18/18 A2997 RMK TRACE CU NOSIG=
200906211200 METAR MROC 211200Z 03007KT CAVOK 19/18 A2999 RMK TRACE ST AC BKN260 TCU DST S SW W NOSIG=
200906211300 METAR MROC 211300Z 18002KT CAVOK 21/18 A3000 RMK TRACE ST SC AC BKN250 TCU DST S SW BECMG 24007KT=
200906211400 METAR MROC 211400Z 35006KT 9999 FEW040 BKN250 23/19 A3002 RMK TRACE ST AC BECMG 24007KT=
200906211500 METAR MROC 211500Z 07003KT 9999 FEW040 BKN250 26/19 A3001 RMK TRACE AC BECMG 24007KT=
200906211600 METAR MROC 211600Z 06008KT 9999 FEW040 BKN250 28/20 A3001 RMK TRACE AC BECMG 24007KT=
200906211700 METAR MROC 211700Z 03004KT 9999 SCT035 SCT250 28/20 A3000 RMK TRACE AC BECMG 24007KT=
200906211800 METAR MROC 211800Z 10006KT 9999 SCT035 SCT250 28/18 A2998 BECMG 24007KT=
200906211900 METAR MROC 211900Z 24009KT 9999 FEW015TCU SCT035 28/23 A2996 NOSIG=
200906212000 METAR MROC 212000Z 20012KT 2000 R07/0200 -TS RA FEW001 FEW010CB BKN035 22/20 A2996 NOSIG=
200906212035 METAR MROC 212035Z 07003KT 8000 3000SW -TSRA FEW001 FEW010CB BKN030 20/20 A2996 NOSIG=
200906212100 METAR MROC 212100Z 09003KT 9999 -TSRA SCT015CB BKN100 20/20 A2996 RMK BECMG 6000 -TSRA=
200906212200 METAR MROC 212200Z 07002KT 9999 SCT025 BKN100 21/20 A2995 RETSRA NOSIG=
200906212300 METAR MROC 212300Z 32002KT 9999 SCT030 BKN100 22/20 A2996 RMK RN DST E NOSIG=
200906220000 METAR MROC 220000Z 10004KT 9999 SCT030 BKN100 21/20 A2997 NOSIG=
200906220100 METAR MROC 220100Z 06002KT 9999 SCT030 BKN100 22/19 A3000 NOSIG=
200906220200 METAR MROC 220200Z 09005KT CAVOK 21/18 A3002 RMK BKN100 NOSIG=
200906220300 METAR MROC 220300Z 08005KT CAVOK 21/18 A3003 RMK BKN130 SCT280 TRAZAS SCT NOSIG=
200906220400 METAR MROC 220400Z 07007KT CAVOK 21/18 A3001 RMK TRAZAS SCT BKN130 SCT280 NOSIG=
200906220500 METAR MROC 220500Z 11003KT CAVOK 20/17 A3002 RMK TRAZAS SCT SCT130 SCT280 NOSIG=
200906220600 METAR MROC 220600Z 29003KT 3000 R07/1200 BR BKN002 19/19 A3003 RMK VSBY NE 6KM VSBY SW 2KM BECMG 6000 VCFG=
200906220700 METAR MROC 220700Z 07003KT 9999 VCFG FEW002 SCT015 19/18 A3001 RMK VSBY SW 5KM NOSIG=
200906220800 METAR MROC 220800Z 08004KT 9999 SCT030 19/18 A3000 RMK TRAZAS SC HZY=
200906220900 METAR MROC 220900Z 07005KT CAVOK 19/18 A2998 RMK TRAZAS SC SCT120 NOSIG=
200906221000 METAR MROC 221000Z 06008KT CAVOK 19/17 A2998 RMK TRAZAS SC SCT120 NOSIG=
200906221100 METAR MROC 221100Z 07005KT CAVOK 18/16 A2998 RMK TRAZAS SCT FEW250 NOSIG=
200906221200 METAR MROC 221200Z 07004KT CAVOK 18/16 A2999 RMK TRAZAS SCT SCT280 NOSIG=
200906221300 METAR MROC 221300Z 09004KT CAVOK 21/16 A3000 RMK TRACE SC SCT250 NOSIG=
200906221400 METAR MROC 221400Z 07004KT CAVOK 25/16 A3001 RMK TRACE SC SCT250 NOSIG=
200906221500 METAR MROC 221500Z 22004KT CAVOK 26/18 A3002 RMK TRACE SC SCT250 NOSIG=
200906221600 METAR MROC 221600Z 23006KT CAVOK 26/20 A3002 RMK TRACE SC SCT250 NOSIG=
200906221700 METAR MROC 221700Z 24007KT 9999 FEW035 BKN250 28/18 A3001 NOSIG=
200906221800 METAR MROC 221800Z 26008KT 9999 FEW030 BKN250 28/20 A2999 NOSIG=
200906221900 METAR MROC 221900Z 25010KT 9999 SCT030 BKN250 28/20 A2997 NOSIG=
200906222000 METAR MROC 222000Z 25010KT 9999 SCT030 BKN250 27/20 A2994 NOSIG=
200906222100 METAR MROC 222100Z 24008KT 9999 SCT025 BKN250 26/22 A2993 RMK TCU DST ARND LGT HZ ARND NOSIG=
200906222200 METAR MROC NIL=
200906222300 METAR MROC 222300Z 20008KT 9999 -RA FEW017CB SCT030 BKN100 22/20 A2996 RMK OCNL TS DST ENE BECMG 5000 -TSRA=
200906230000 METAR MROC 230000Z 26003KT 9999 -RA SCT025 BKN040 22/20 A2999 NOSIG=
200906230100 METAR MROC 230100Z 29003KT 9999 -RA BKN030 SCT100 22/20 A3001 NOSIG=
200906230200 METAR MROC 230200Z 12002KT 9999 FEW035 BKN090 22/20 A3003 RERA NOSIG=
200906230300 METAR MROC 230300Z 07003KT 9999 FEW035 BKN090 22/21 A3006 NOSIG=
200906230400 METAR MROC 230400Z 10004KT 9999 -RA FEW035 BKN090 21/21 A3006 NOSIG=
200906230500 METAR MROC 230500Z 07002KT 9999 SCT030 OVC090 21/20 A3006 RERA NOSIG=
200906230600 METAR MROC 230600Z 09004KT 9999 FEW035 OVC100 21/19 A3004 NOSIG=
200906230700 METAR MROC 230700Z 00000KT 9999 FEW035 OVC100 20/20 A3003 NOSIG=
200906230800 METAR MROC 230800Z 07004KT CAVOK 20/20 A3000 RMK TRACE SC BKN100 NOSIG=
200906230900 METAR MROC 230900Z 05004KT CAVOK 19/19 A2997 RMK TRACE SC SCT120 SCT250 NOSIG=
200906231000 METAR MROC 231000Z 08004KT CAVOK 19/18 A2997 RMK TRACE SC SCT120 SCT250 NOSIG=
200906231100 METAR MROC 231100Z 07006KT CAVOK 19/18 A2998 RMK TRACE SC SCT120 SCT250 NOSIG=
200906231200 METAR MROC 231200Z 06004KT CAVOK 19/18 A3000 RMK TRACE AC BKN250 NOSIG=
200906231300 METAR MROC 231300Z 07003KT CAVOK 21/18 A3000 RMK TRACE SC AC BKN250 HZY NOSIG=
200906231400 METAR MROC 231400Z 10003KT CAVOK 23/19 A3002 RMK TRACE SC BKN300 HZY NOSIG=
200906231500 METAR MROC 231500Z 26003KT CAVOK 26/19 A3002 RMK TRACE CU SCT300 LGT HZ ARND NOSIG=
200906231600 METAR MROC 231600Z 25007KT 9999 FEW030 SCT300 26/21 A3002 RMK HZY NOSIG=
200906231700 METAR MROC 231700Z 24009KT 9999 FEW025TCU SCT035 26/21 A3002 RMK HZY NOSIG=
200906231800 METAR MROC 231800Z 25009KT 9999 FEW020TCU BKN030 26/22 A3001 RMK HZY BECMG 5000 VCSH=
200906231900 METAR MROC 231900Z 22009KT 9999 FEW020TCU SCT030 27/22 A2998 RMK HZY BECMG 5000 VCSH=
200906232000 METAR MROC 232000Z 24009KT 9999 4000N -RA VCSH FEW015CB BKN030 24/22 A2997 BECMG 4000 -TSRA=
200906232100 METAR MROC 232100Z 25010KT 5000 -TSRA BR SCT005 FEW010CB BKN030 21/21 A2997 BECMG 3000 BR=
200906232200 METAR MROC 232200Z 27006KT 4000 BR SCT004 BKN025 21/21 A2998 RETSRA BECMG 2000 BR=
200906232300 METAR MROC 232300Z 16003KT 5000 BR SCT003 SCT020 BKN080 21/21 A2997 BECMG 2000 BR=
200906240000 METAR MROC 240000Z 21003KT 1500 -RA BR BKN002 SCT010 21/21 A3001 RMK VIS 8000 N BECMG 5000 RA BR=
200906240100 METAR MROC 240100Z 20003KT 7000 -RA VCFG SCT006 BKN080 20/20 A3005 NOSIG=
200906240200 METAR MROC 240200Z 10002KT 7000 RA VCFG FEW006 BKN090 21/21 A3006 NOSIG=
200906240300 METAR MROC 240300Z 08002KT 9999 -RA SCT025 BKN100 21/21 A3005 RMK TRACE ST NOSIG=
200906240400 METAR MROC 240400Z 00000KT 9999 SCT025 BKN100 21/21 A3004 NOSIG=
200906240500 METAR MROC 240500Z 23005KT 1000 BR SCT001 BKN100 21/21 A3005 BECMG 1500 BR=
200906240532 SPECI MROC 240532Z 24005KT 1500 BR SCT001 BKN100 20/20 A3006 BECMG 3000 BR=
200906240600 METAR MROC 240600Z 22005KT 2000 BR SCT001 BKN100 20/20 A3005 BECMG 4000 BR=
200906240700 METAR MROC 240700Z 28002KT 3000 DZBR SCT003 BKN100 20/20 A3002 BECMG 5000 BR=
200906240800 METAR MROC 240800Z 07002KT 9999 4000SW BR FEW003 SCT030 20/20 A3001 RMK SCT100 BECMG 5000 BR FEW003 SCT030=
200906240900 METAR MROC 240900Z 03004KT 9999 VCFG FEW003 SCT030 20/20 A3001 RMK SCT100 VIS 6KM SW/W DUE ST NOSIG=
200906241000 METAR MROC 241000Z 06002KT 9999 VCFG FEW003 SCT110 20/20 A2998 RMK FEW030 VIS S/SW 7KM DUE ST LTNG DST SW NOSIG=
200906241100 METAR MROC 241100Z 00000KT 9999 VCFG FEW003 BKN110 19/19 A3000 RMK VIS S/SW 7KM DUE ST BECMG 5000 BR SCT003 SCT020=
200906241200 METAR MROC 241200Z 00000KT 1200 BR SCT001 BKN110 19/19 A3002 RMK VIS N NW 7000 BECMG 5000 BR=
200906241300 METAR MROC 241300Z 00000KT 9999 3000SW BR FEW001 SCT120 SCT250 20/20 A3002 BECMG 7000 VCFG=
200906241400 METAR MROC 241400Z 24003KT 9999 FEW012 BKN250 23/19 A3005 RMK VIS 7000SW HZ NOSIG=
200906241500 METAR MROC 241500Z 24004KT 9999 FEW020 BKN250 24/20 A3005 RMK HZ SW NOSIG=
200906241600 METAR MROC 241600Z 25007KT 9999 SCT020 BKN250 25/21 A3005 RMK HZ SW NOSIG=
200906241700 METAR MROC 241700Z 24007KT 9999 FEW020CB SCT025 BKN250 25/21 A3003 RMK HZ SW NOSIG=
200906241800 METAR MROC 241800Z 24009KT 9999 FEW015CB BKN025 25/21 A3002 RMK FEW250 RN DST N NE E BECMG 7000 VCTS VCSH=
200906241900 METAR MROC 241900Z 24008KT 9999 FEW015CB BKN025 25/21 A3001 RMK RN DST SE N NE BECMG 7000 -TSRA=
200906242000 METAR MROC 242000Z 21006KT 9999 FEW010CB SCT020 BKN100 23/21 A2998 BECMG 7000 -TSRA=
200906242100 METAR MROC 242100Z 23007KT 9999 VCSH FEW012CB BKN025 24/20 A2998 RMK VSBY WSW/NE/ENE 7KM DUE RASH BECMG 5000 TSRA=
200906242200 METAR MROC 242200Z 24004KT 7000 VCSH SCT015CB BKN030 21/19 A2999 RMK VSBY S SE NE UNL BECMG 3000 TSRA BR=
200906242300 METAR MROC 242300Z 30006KT 4000 -DZ BR FEW010 BKN030 20/19 A3002 RMK VSBY NE S 2KM BECMG 1000 RA BR=
200906250000 METAR MROC 250000Z 10003KT 9999 RA FEW035 OVC100 19/19 A3003 RMK VSBY NW N W 7KM NOSIG=
200906250100 METAR MROC 250100Z 09003KT 9999 RA FEW045 OVC100 20/20 A3005 NOSIG=
200906250200 METAR MROC 250200Z 08005KT 9999 FEW045 BKN120 20/19 A3004 RERA NOSIG=
200906250300 METAR MROC 250300Z 08006KT CAVOK 20/19 A3003 RMK TRACE SC BKN150 SCT250 NOSIG=
200906250400 METAR MROC 250400Z 04008KT CAVOK 20/18 A3003 RMK TRACE SC SCT150 SCT250 NOSIG=
200906250500 METAR MROC 250500Z 10003KT CAVOK 20/18 A3002 RMK TRACE SC BKN160 NOSIG=
200906250600 METAR MROC 250600Z 00000KT CAVOK 20/18 A3002 RMK TRACE SCT BKN150 NOSIG=
200906250700 METAR MROC 250700Z 00000KT CAVOK 19/18 A3002 RMK TRACE SC SCT150 NOSIG=
200906250800 METAR MROC 250800Z 00000KT 9999 SCT015 19/19 A3001 NOSIG=
200906250900 METAR MROC 250900Z 11004KT CAVOK 18/18 A3000 RMK TRACE SCT SCT110 NOSIG=
200906251000 METAR MROC 251000Z 08006KT CAVOK 18/17 A3000 RMK TRACE SCT FEW140 NOSIG=
200906251100 METAR MROC 251100Z 10004KT 9999 FEW025 BKN250 18/17 A3000 RMK TRACE AC CB DIST S NOSIG=
200906251200 METAR MROC 251200Z 09005KT 9999 FEW025 BKN250 18/17 A3002 RMK TRACE AC AS NOSIG=
200906251300 METAR MROC 251300Z 09004KT CAVOK 22/18 A3003 RMK BKN120 SCT280 TRAZAS SCT BECMG 24006=
200906251400 METAR MROC 251400Z VRB02KT CAVOK 22/18 A3004 RMK TRAZAS SCT BKN100 NOSIG=
200906251500 METAR MROC 251500Z 27002KT 9999 FEW030 BKN120 24/19 A3005=
200906251600 METAR MROC 251600Z 25003KT 9999 FEW025 BKN120 26/20 A3005 NOSIG=
200906251700 METAR MROC 251700Z 24007KT 9999 SCT025 SCT120 26/20 A3003 NOSIG=
200906251800 METAR MROC 251800Z 27006KT 9999 FEW020TCU SCT030 26/20 A3003 RMK FEW120 RN NE NOSIG=
200906251900 METAR MROC 251900Z 26007KT 9999 BKN025 26/22 A2997 BECMG 5000 -TSRA=
200906252000 METAR MROC 252000Z 25009KT 9999 VCSH SCT012CB BKN025 24/22 A2998 RMK VSBY SW 6KM BECMG 4000 TSRA=
200906252100 METAR MROC 252100Z 24007KT 9999 2000SW BR FEW001 SCT005 BKN025 23/22 A2997 BECMG 3000 RA BR=
200906252200 METAR MROC 252200Z 23005KT 9999 SCT015 BKN030 23/22 A2997 RERA RMK RN DST E NOSIG=
200906252300 METAR MROC 252300Z 27005KT 9999 FEW015 SCT030 BKN100 23/22 A2998 NOSIG=
200906260000 METAR MROC 260000Z 25006KT 9999 FEW005 SCT015 BKN030 22/22 A3001 BECMG 5000 RA BR=
200906260100 METAR MROC 260100Z 26003KT 9999 FEW005 SCT030 BKN100 21/21 A3002 NOSIG=
200906260200 METAR MROC 260200Z 25002KT 9999 FEW005 SCT030 BKN100 22/22 A3002 NOSIG=
200906260300 METAR MROC 260300Z 28003KT 9999 SCT008 SCT025 21/21 A3004 NOSIG=
200906260400 METAR MROC 260400Z 28002KT 9999 FEW008 SCT025 21/21 A3004 NOSIG=
200906260500 METAR MROC 260500Z 33002KT 9999 FEW006 SCT020 SCT090 21/21 A3003 NOSIG=
200906260600 METAR MROC 260600Z 00000KT 9999 VCFG FEW005 SCT020 SCT090 21/21 A3002 RMK VIS 7000SW NOSIG=
200906260700 METAR MROC 260700Z 32002KT 9999 FEW007 SCT020 SCT110 21/21 A2999 NOSIG=
200906260800 METAR MROC 260800Z 12002KT 0800 R07/0100 FG SCT001 SCT007 20/20 A2998 RMK VIS 9999 N 7000E BECMG 6000 VCFG=
200906260900 METAR MROC 260900Z 09002KT 9999 SCT020 SCT040 20/20 A2998 RMK TRACE ST NOSIG=
200906261000 METAR MROC 261000Z 04003KT 9999 SCT020 20/19 A2997 RMK FEW120 LTNG DST S NOSIG=
200906261100 METAR MROC 261100Z 08003KT 9999 FEW020 SCT120 BKN250 20/19 A2999 RMK LGT DST S SSW NOSIG=
200906261200 METAR MROC 261200Z 01003KT 9999 FEW008 SCT120 SCT250 20/19 A3000 RMK TCU DST W CB DST SW NOSIG=
200906261300 METAR MROC 261300Z 00000KT CAVOK 21/20 A3002 RMK TRACE SC AC TCU DST S W BKN250 NOSIG=
200906261400 METAR MROC 261400Z 13004KT CAVOK 24/20 A3002 RMK TRACE CU CB DST SW BKN250 NOSIG=
200906261500 METAR MROC 261500Z 00000KT CAVOK 25/18 A3004 RMK TRACE SC CU BKN250 HZ LEVE ARND=
200906261600 METAR MROC 261600Z 29004KT 9999 FEW040 BKN250 26/20 A3002 RMK HZ LEVE ARND NOSIG=
200906261700 METAR MROC 261700Z 25008KT 9999 FEW040 BKN250 27/22 A3001 RMK TCU DST SW NOSIG=
200906261800 METAR MROC 261800Z 25010KT 9999 SCT040 BKN250 27/22 A3000 RMK HZ LEVE ARND NOSIG=
200906261900 METAR MROC 261900Z 25008KT 9999 FEW015 SCT030 BKN250 26/22 A2999 RMK RN NE BECMG 8000 VCSH=
200906262000 METAR MROC 262000Z 23009KT 9999 FEW015 SCT030 BKN250 25/23 A2997 BECMG 8000 VCSH=
200906262100 METAR MROC 262100Z 25008KT 9999 SCT016TCU BKN250 24/23 A2997 BECMG 7000 VCSH=
200906262200 METAR MROC 262200Z 25006KT 9999 SCT015TCU BKN250 24/22 A2997 NOSIG=
200906262300 METAR MROC 262300Z 25008KT 8000 VCFG FEW004 SCT010 BKN025 22/22 A2997 BECMG 6000 VCFG=
200906270000 METAR MROC 270000Z 23006KT 6000 VCFG FEW004 SCT008 BKN020 22/22 A2999 BECMG 5000 -RA BR=
200906270100 METAR MROC 270100Z 21004KT 6000 DZ VCFG FEW004 SCT008 BKN020 22/22 A3001 NOSIG=
200906270200 METAR MROC 270200Z 20004KT 6000 -DZ VCFG FEW003 SCT008 BKN020 21/21 A3004 NOSIG=
200906270235 METAR MROC 270235Z 20003KT 9999 VCFG SCT005 BKN010 21/21 A3005 RMK VSBY NW N NE 6KM NOSIG=
200906270300 METAR MROC 270300Z 05002KT 9999 FEW008 SCT130 21/21 A3004 BECMG 7000=
200906270400 METAR MROC 270400Z 30004KT CAVOK 21/21 A3002 RMK TRAZAS SCT SCT130 BKN280 NOSIG=
200906270500 METAR MROC 270500Z 25002KT 6000 VCFG SCT004 SCT010 21/21 A3002 BECMG 2000 BR BKN001=
200906270600 METAR MROC 270600Z 07003KT 9999 FEW010 SCT130 21/21 A3001 RMK LOW ST S NOSIG=
200906270700 METAR MROC 270700Z 01005KT CAVOK 21/20 A3000 RMK TRAZAS SC FEW130 NOSIG=
200906270800 METAR MROC 270800Z 09004KT CAVOK 21/19 A2999 RMK TRAZAS SC BKN110 NOSIG=
200906270900 METAR MROC 270900Z 11006KT CAVOK 21/19 A2998 RMK TRAZAS SC/C NOSIG=
200906271000 METAR MROC 271000Z 05004KT CAVOK 21/18 A2998 RMK TRAZAS SC/CI NOSIG=
200906271100 METAR MROC 271100Z 00000KT CAVOK 21/18 A2999 RMK TRAZAS SCT FEW120 SCT250 CB DST NE S NOSIG=
200906271200 METAR MROC 271200Z 03003KT CAVOK 20/18 A3000 RMK TRAZAS SCT FEW120 BKN280 CB DST NE S NOSIG=
200906271300 METAR MROC 271300Z 03005KT CAVOK 22/18 A3001 RMK TRACE SC BKN250 NOSIG=
200906271400 METAR MROC 271400Z 12002KT CAVOK 24/19 A3002 RMK TRACE SC BKN250 BECMG 24005KT=
200906271500 METAR MROC 271500Z 24006KT CAVOK 24/20 A3003 RMK TRACE SC AC BKN250 NOSIG=
200906271600 METAR MROC 271600Z 23006KT 9999 FEW030 BKN250 25/20 A3003 NOSIG=
200906271700 METAR MROC 271700Z 23007KT 9999 FEW030 BKN250 27/21 A3002 NOSIG=
200906271800 METAR MROC 271800Z 27006KT 9999 SCT030TCU BKN250 27/22 A3001 RMK RN DST E NOSIG=
200906271900 METAR MROC 271900Z 25007KT 9999 -TSRA FEW010CB SCT025 BKN100 25/22 A3000 RMK VIS NE 7000 BECMG VCTS=
200906272000 METAR MROC 272000Z 25007KT 9999 SCT020 BKN110 24/23 A2999 NOSIG=
200906272100 METAR MROC 272100Z 23006KT 9999 VCSH SCT020TCU BKN070 23/22 A2997 RMK VIS NW N NE 6KMS BECMG 5000 -RA BR=
200906272200 METAR MROC 272200Z 28006KT 5000 -RA BR FEW015CB SCT025 BKN070 22/22 A2998 RMK VIS S UNLTD NOSIG=
200906272240 METAR MROC 272240Z 14008KT 5000 2000SW TSRA FEW005 FEW010CB SCT010 24/24 A2980 RMK VIS E UNL=
200906272300 METAR MROC 272300Z 32005KT 9999 -DZ VCFG SCT030 BKN080 22/21 A2999 RERA RMK TRACE ST VIS SW W 7KMS NOSIG=
200906272301 METAR MROC 272301Z 32005KT 9999 -DZ VCFG SCT030 BKN080 22/21 A2999 RERA RMK TRACE ST VIS SW W 7KMS NOSIG=
200906280000 METAR MROC 280000Z 00000KT 9999 -DZ VCFG FEW008 SCT030 BKN060 22/21 A3001 RMK VIS SW W N 7KMS BECMG 5000 BR=
200906280100 METAR MROC 280100Z 00000KT 9999 -RA VCFG SCT008 SCT030 22/22 A3004 RMK VIS SW W 7KMS NOSIG=
200906280200 METAR MROC 280200Z 00000KT 9999 SCT030 SCT120 21/21 A3004 RERA NOSIG=
200906280300 METAR MROC 280300Z 01004KT 9999 FEW030 BKN120 21/21 A3005 NOSIG=
200906280400 METAR MROC 280400Z 17003KT CAVOK 20/20 A3006 RMK TRACE SC SCT120 BKN250=
200906280500 METAR MROC 280500Z 09004KT CAVOK 20/20 A3004 RMK TRACE SC FEW120 BKN250=
200906280600 METAR MROC 280600Z 10004KT CAVOK 19/19 A3003 RMK TRACE SC AC BKN250 NOSIG=
200906280700 METAR MROC 280700Z 08003KT CAVOK 19/18 A3002 RMK TRACE SC AC BKN250 NOSIG=
200906280800 METAR MROC 280800Z 34002KT CAVOK 18/18 A3003 RMK TRACE SC SCT250 NOSIG=
200906280900 METAR MROC NIL=
200906281000 METAR MROC 281000Z 07004KT CAVOK 19/18 A2998 RMK TRACE SC SCT250 NOSIG=
200906281100 METAR MROC 281100Z 05009KT CAVOK 18/17 A2998 RMK TRACE SC SCT250 NOSIG=
200906281200 METAR MROC 281200Z 07005KT CAVOK 19/17 A2999 RMK CU DST SW BKN250 NOSIG=
200906281300 METAR MROC 281300Z 07005KT CAVOK 22/19 A3000 RMK BKN300 CB DST SSE S NOSIG=
200906281400 METAR MROC 281400Z 08004KT CAVOK 25/19 A3002 RMK TRACE SC CU BKN300 NOSIG=
200906281500 METAR MROC 281500Z 08004KT 9999 FEW040 BKN300 25/20 A3004 RMK CB DST S NOSIG=
200906281600 METAR MROC 281600Z 28008KT 9999 FEW040 SCT300 26/21 A3004 NOSIG=
200906281700 METAR MROC 281700Z 23008KT 9999 SCT035 26/21 A3003 RMK FEW250 TCU DST NE NOSIG=
200906281800 METAR MROC 281800Z 23008KT 9999 FEW025 SCT035 27/21 A3002 NOSIG=
200906281900 METAR MROC 281900Z 26008KT 9999 FEW020TCU SCT035 BKN120 27/21 A3001 RMK CB TS RASH DST ESE BECMG 6000 VCTS VCSH=
200906282000 METAR MROC 282000Z 25007KT 9999 SCT020TCU BKN035 26/22 A3000 RMK RASH DST E SE BECMG 6000 VCSH=
200906282100 METAR MROC 282100Z 24007KT 5000 2000NE -TSRA SCT015CB BKN100 23/23 A2999 NOSIG=
200906282200 METAR MROC 282200Z 22003KT 8000 -RA SCT025 BKN100 22/22 A2999 NOSIG=
200906282300 METAR MROC 282300Z 09004KT 9999 -RA SCT045 BKN100 21/21 A3001 RMK TCU DST SW=
200906290000 METAR MROC 290000Z 05002KT 9999 RA FEW040 BKN090 21/21 A3004 NOSIG=
200906290100 METAR MROC 290100Z 06003KT 9999 RA OVC080 20/20 A3004 NOSIG=
200906290200 METAR MROC 290200Z 33004KT 9999 -RA FEW004 BKN100 20/20 A3004 BECMG 7000 VCFG=
200906290300 METAR MROC 290300Z 07002KT 9999 SCT006 BKN100 20/20 A3007 RERA RMK TRACE ST BECMG 6000 VCFG=
200906290400 METAR MROC 290400Z 00000KT 9999 FEW025 BKN120 20/19 A3004 NOSIG=
200906290500 METAR MROC 290500Z 06003KT 9999 FEW025 BKN120 19/19 A3007 NOSIG=
200906290600 METAR MROC 290600Z 08004KT CAVOK 19/19 A3005 RMK BKN120 NOSIG=
200906290700 METAR MROC 290700Z 06004KT CAVOK 20/19 A3002 RMK BKN120 NOSIG=
200906290800 METAR MROC 290800Z 07005KT CAVOK 20/19 A2998 RMK BKN120 NOSIG=
200906290900 METAR MROC 290900Z 08003KT CAVOK 20/19 A2998 RMK BKN120 NOSIG=
200906291000 METAR MROC 291000Z 03002KT CAVOK 19/18 A2996 RMK BKN120 ST SSE/S BECMG 31004KT 6000 VCFG FEW003 BKN120=
200906291100 METAR MROC 291100Z 18002KT 9999 3000SW BR FEW002 BKN120 19/19 A2997 BECMG 2000 BR SCT001 SCT015=
200906291200 METAR MROC 291200Z 00000KT CAVOK FEW002 BKN120 19/19 A2999 RMK TRACE ST BKN120 NOSIG=
200906291300 METAR MROC 291300Z 07002KT CAVOK 20/19 A3002 RMK BKN120 SCT250 NOSIG=
200906291400 METAR MROC 291400Z 03003KT CAVOK 22/18 A3002 RMK TRACE SC BKN120 SCT250 NOSIG=
200906291500 METAR MROC 291500Z 20002KT CAVOK 24/19 A3001 RMK TRACE SC SCT120 BKN250 NOSIG=
200906291600 METAR MROC 291600Z 22003KT CAVOK 26/18 A3000 RMK TRACE CU BKN250 NOSIG=
200906291700 METAR MROC 291700Z 22003KT 9999 FEW040 BKN250 27/18 A2998 NOSIG=
200906291800 METAR MROC 291800Z 27006KT 9999 FEW035 SCT250 28/21 A2997 NOSIG=
200906291900 METAR MROC 291900Z 23012KT 9999 FEW025TCU BKN250 27/21 A2996 NOSIG=
200906292000 METAR MROC 292000Z 23008KT 9999 FEW020CB SCT030 BKN250 26/20 A2994 RMK RN DST N NE E BECMG 5000 -TSRA=
200906292100 METAR MROC 292100Z 24007KT 9999 FEW015CB SCT020 BKN250 25/22 A2994 RMK RASH NW N E BECMG 7000 -RA=
200906292200 METAR MROC 292200Z 26006KT 9999 FEW015CB BKN035 25/21 A2993 RMK RN NW N E SE BECMG 5000 TSRA=
200906292300 METAR MROC 292300Z 00000KT 9999 TS VCSH SCT012CB BKN030 23/21 A2995 RMK VSBY E SW 5KM BECMG 5000 TSRA=
200906300000 METAR MROC 300000Z 06003KT 9999 -RA SCT030 BKN130 21/21 A2996 RMK VISY N NE E 6KM NOSIG=
200906300100 METAR MROC 300100Z VRB02KT 9999 -RA SCT025 BKN120 21/21 A3000=
200906300200 METAR MROC 300200Z 03002KT 9999 RA SCT045 BKN120 21/21 A3002 NOSIG=
200906300300 METAR MROC 300300Z 02002KT 9999 FEW045 BKN120 21/21 A3003 NOSIG=
200906300400 METAR MROC 300400Z 10008KT CAVOK 20/20 A3003 RMK TRACE SC OVC120 NOSIG=
200906300500 METAR MROC 300500Z 00000KT CAVOK 20/20 A3003 RMK TRACE SC OVC140 NOSIG=
200906300600 METAR MROC 300600Z 00000KT CAVOK 20/20 A3000 RMK TRACE SC OVC140 NOSIG=
200906300700 METAR MROC 300700Z 10003KT CAVOK 20/20 A2998 RMK TRACE SC OVC140 NOSIG=
200906300800 METAR MROC 300800Z 07003KT 9999 -DZ BKN130 20/19 A2995 RMK TRACE SC NOSIG=
200906300900 METAR MROC 300900Z 02004KT CAVOK 19/19 A2995 REDZ RMK TRACE SCT SCT120 NOSIG=
200906301000 METAR MROC 301000Z 13004KT CAVOK 18/18 A2995 RMK TRACE SCT SCT150 NOSIG=
200906301100 METAR MROC 301100Z 00000KT CAVOK 18/18 A2996 RMK TRACE SC BKN120 NOSIG=
200906301200 METAR MROC 301200Z 07002KT CAVOK 18/18 A2998 RMK TRACE SC BKN140 FEW250 CB DST SW NOSIG=
200906301300 METAR MROC 301300Z 05002KT CAVOK 21/19 A2999 RMK TRAZAS SCT SCT140 SCT300 CB DST S BECMG 24006=
200906301400 METAR MROC 301400Z 23002KT CAVOK 23/19 A3000 RMK TRAZAS SCT BKN280 NOSIG=
200906301500 METAR MROC 301500Z 23004KT CAVOK 24/20 A3000 RMK TRAZAS SCT BKN280 CB DST S NOSIG=
200906301600 METAR MROC 301600Z 24005KT CAVOK 24/21 A3001 RMK TRAZAS CU BKN280 NOSIG=
200906301700 METAR MROC 301700Z 25006KT 9999 FEW020 BKN250 24/21 A3001 NOSIG=
200906301800 METAR MROC 301800Z 27006KT 9999 SCT020 BKN250 25/21 A2999 RMK HZ W NW N NE E NOSIG=
200906301900 METAR MROC 301900Z 28004KT 9999 SCT020 BKN250 26/21 A2995 RMK HZ NW N NE NOSIG=
200906302000 METAR MROC 302000Z 25006KT 9999 SCT020TCU BKN250 27/21 A2993 RMK HZ N NOSIG=
200906302100 METAR MROC NIL=
200906302200 METAR MROC 302200Z 21009KT 9999 -TS FEW005 SCT015 BKN025 22/21 A2992 RMK RN DST S SW BECMG 6000 VCSH=
200906302300 METAR MROC 302300Z 27006KT 9999 RA SCT025 BKN070 21/20 A2994 NOSIG=
200907010000 METAR MROC NIL=
200907010100 METAR MROC NIL=
200907010200 METAR MROC NIL=
200907010300 METAR MROC NIL=
200907010400 METAR MROC NIL=
200907010500 METAR MROC NIL=
200907010600 METAR MROC NIL=
200907010700 METAR MROC NIL=
200907010800 METAR MROC NIL=
200907010900 METAR MROC NIL=
200907011000 METAR MROC NIL=
200907011200 METAR MROC NIL=
200907011300 METAR MROC NIL=
200907011400 METAR MROC 011400Z 26007KT CAVOK 23/20 A3003 RMK TRACE SC AC CC BKN250 NOSIG=
200907011500 METAR MROC 011500Z 25005KT CAVOK 24/20 A3002 RMK TRACE CU FEW140 BKN250 NOSIG=
200907011600 METAR MROC 011600Z 26004KT 9999 FEW040 SCT140 BKN250 25/22 A3003 NOSIG=
200907011700 METAR MROC 011700Z 21006KT 9999 SCT040 BKN250 27/21 A3002 RMK FEW140 NOSIG=
200907011800 METAR MROC 011800Z 22007KT 9999 SCT040 BKN250 26/21 A2998 NOSIG=
200907011900 METAR MROC 011900Z 24006KT 9999 FEW015TCU SCT035 BKN250 27/22 A2996 NOSIG=
200907012000 METAR MROC 012000Z 26011KT 9999 FEW015TCU SCT035 BKN250 27/22 A2993 BECMG 8000 VCSH=
200907012100 METAR MROC 012100Z 24008KT 9999 -TSRA FEW010CB SCT020 BKN100 24/22 A2992 BECMG 7000 -TSRA=
200907012200 METAR MROC 012200Z 18004KT 6000 -RA VCFG FEW004 SCT015 BKN100 24/22 A2992 BECMG 3000 -RABR SCT003 BKN020=
200907012300 METAR MROC 012300Z 24006KT 9999 4000W BR FEW004 SCT020 BKN100 22/22 A2993 NOSIG=
200907020000 METAR MROC 020000Z 07005KT 9999 -RA SCT020 BKN100 22/20 A2996 NOSIG=
200907020100 METAR MROC 020100Z 13006KT 9999 -DZ SCT025 BKN100 22/18 A2999 NOSIG=
200907020200 METAR MROC 020200Z 03005KT CAVOK 22/20 A3001 RMK TRCE SC BKN100 NOSIG=
200907020300 METAR MROC 020300Z 07003KT CAVOK 22/18 A3001 RMK TRACE SCT OVC120 LTNG DST N S SW NOSIG=
200907020400 METAR MROC 020400Z 23002KT 9999 VCFG FEW001 BKN120 21/21 A3003 RMK VSBY S 5KM DUE FG BECMG 5000 BR=
200907020500 METAR MROC 020500Z 13002KT 9999 FEW002 SCT140 BKN250 20/20 A3003 RMK LOW ST SW NOSIG=
200907020600 METAR MROC 020600Z 00000KT 9999 4000SW BR FEW002 SCT140 BKN250 20/20 A3002 BECMG 5000 BR=
200907020700 METAR MROC 020700Z 00000KT 6000 VCFG SCT005 SCT010 20/20 A2998 NOSIG=
200907020800 METAR MROC 020800Z 00000KT 6000 VCFG FEW002 SCT015 BKN140 20/20 A2998 NOSIG=
200907020900 METAR MROC 020900Z 05003KT CAVOK 20/20 A2997 RMK TRACE SC BKN130 HZY NOSIG=
200907021000 METAR MROC 021000Z 02003KT CAVOK 20/19 A2996 RMK TRACE SC BKN140 HZY NOSIG=
200907021100 METAR MROC 021100Z 05004KT CAVOK 20/18 A2997 RMK TRAZAS SCT BKN120 NOSIG=
200907021200 METAR MROC 021200Z 01003KT CAVOK 20/18 A2999 RMK TRACE SCT BKN120 NOSIG=
200907021300 METAR MROC 021300Z 09006KT 9999 FEW035 SCT130 23/19 A3000 NOSIG=
200907021400 METAR MROC 021400Z 12004KT 9999 FEW035 SCT140 24/19 A3003 NOSIG=
200907021500 METAR MROC 021500Z 12007KT 9999 FEW030 SCT130 26/19 A3002 NOSIG=
200907021600 METAR MROC 021600Z 12006KT 9999 FEW030 SCT250 28/19 A3002 RMK PCPN N NE NOSIG=
200907021700 METAR MROC 021700Z 08006KT 9999 SCT025TCU SCT250 28/18 A3002 RMK RN DST N NE TRACE AC NOSIG=
200907021800 METAR MROC 021800Z 22004KT 9999 SCT020 BKN120 25/22 A3002 RMK RN DST N NE W NOSIG=
200907021900 METAR MROC 021900Z 30006KT 9999 SCT020 SCT120 BKN250 25/21 A2999 RMK RN N NE NOSIG=
200907022000 METAR MROC 022000Z 26007KT 8000 VCSH SCT005 BKN012 22/22 A3000 RMK RN DST N NE W BECMG -RA=
200907022100 METAR MROC 022100Z 29003KT 9999 FEW015 SCT035 23/20 A2997 RMK LGT HZ ARND BECMG 8000 DZ VCSH=
200907022200 METAR MROC 022200Z 25006KT 8000 3500SW DZ BR VCSH SCT005 BKN015 22/22 A2999 RMK VIS NW N 6KMS VIS NE SE S UNL BECMG 2000 -RA BR=
200907022201 METAR MROC 022201Z COR 25006KT 8000 3500SW DZ VCFG VCSH BR SCT005 BKN015 22/22 A2999 RMK VIS NW N 6KMS VIS NE SE S UNL BECMG 2000 -RA BR=
200907022300 METAR MROC 022300Z 24004KT 6000 -RA VCFG BR SCT003 BKN020 21/21 A3000 RMK VIS SW W 4KMS BECMG 2000 -RA BR=
200907030000 METAR MROC 030000Z 00000KT 9999 -RA VCFG FEW010 SCT025 BKN140 21/21 A3000 RMK VIS N ENE 8KMS NOSIG=
200907030100 METAR MROC 030100Z 33002KT 9999 FEW040 SCT090 BKN150 21/21 A3003 RERA RMK TRACE ST LGT HZ ARND NOSIG=
200907030200 METAR MROC 030200Z 00000KT CAVOK 21/20 A3005 RMK TRACE ST SC OVC140 NOSIG=
200907030300 METAR MROC 030300Z 08002KT CAVOK 21/20 A3006 RMK OVC140 NOSIG=
200907030400 METAR MROC 030400Z 06003KT CAVOK 21/19 A3006 RMK TRACE SC SCT140 BKN250=
200907030500 METAR MROC 030500Z 00000KT CAVOK 21/19 A3005 RMK TRACE SC SCT140 BKN250=
200907030600 METAR MROC 030600Z 06003KT CAVOK 21/18 A3004 RMK TRACE SC SCT140 BKN250=
200907030700 METAR MROC 030700Z 04006KT CAVOK 20/19 A3001 RMK TRACE SC SCT140 BKN250=
200907030800 METAR MROC 030800Z 04003KT CAVOK 21/17 A2997 RMK TRACE SC SCT140 BKN250=
200907030900 METAR MROC 030900Z 07002KT CAVOK 21/17 A2997 RMK TRACE SC FEW140 BKN250=
200907031000 METAR MROC 031000Z 08004KT CAVOK 20/17 A2997 RMK TRACE SC FEW140 BKN250=
200907031100 METAR MROC 031100Z 11002KT CAVOK 20/17 A2998 RMK TRACE SC FEW140 BKN250=
200907031200 METAR MROC 031200Z 07003KT CAVOK 19/17 A3003 RMK TRACE SC FEW140 BKN250=
200907031300 METAR MROC 031300Z 11006KT CAVOK 23/18 A3003 RMK TRACE SC BKN070 NOSIG=
200907031400 METAR MROC 031400Z 11007KT CAVOK 24/18 A3003 RMK TRACE SC CU BKN080 VEL MAX VTO 11KT NOSIG=
200907031500 METAR MROC 031500Z 12008KT 9999 FEW040 BKN100 26/19 A3003 RMK VEL MAX VTO 12KT NOSIG=
200907031600 METAR MROC 031600Z 12005KT 9999 FEW035 BKN100 27/20 A3003 NOSIG=
200907031700 METAR MROC 031700Z 24005KT 9999 FEW035 SCT120 BKN250 28/21 A3002 NOSIG=
200907031800 METAR MROC 031800Z 27005KT 9999 FEW025 SCT035 BKN080 26/21 A3001 RMK PCPN NE ENE SSW BECMG -RA=
200907031900 METAR MROC 031900Z 28006KT 9999 FEW030 SCT070 BKN140 26/20 A3000 NOSIG=
200907032000 METAR MROC 032000Z 26004KT 9999 FEW025 SCT040 BKN140 25/22 A2999 RMK PCPN DST NE=
200907032100 METAR MROC 032100Z 22002KT 9999 SCT025 BKN120 25/19 A2999 RMK RN DST NE E NOSIG=
200907032200 METAR MROC 032200Z 12005KT 9999 FEW012 SCT040 BKN120 24/18 A2998 RMK DZ DST NE E NOSIG=
200907032300 METAR MROC 032300Z 09012KT 9999 SCT040 BKN140 24/18 A2997 RMK DZ DST N NE VEL MAX VTO 18KT NOSIG=
200907040000 METAR MROC 040000Z 07007KT 9999 SCT040 SCT220 22/18 A3000 RMK DZ DST N NE E NOSIG=
200907040100 METAR MROC 040100Z 10013KT 9999 DZ SCT035 BKN120 22/18 A3001 NOSIG=
200907040200 METAR MROC 040200Z 11010KT CAVOK 22/18 A3004 RMK SCT130 BKN240 NOSIG=
200907040300 METAR MROC 040300Z 12006KT CAVOK 21/19 A3002 RMK SCT130 SCT250 NOSIG=
200907040400 METAR MROC 040400Z 13011KT CAVOK 22/19 A3005 RMK SCT130 SCT250 NOSIG=
200907040500 METAR MROC 040500Z 13011KT CAVOK 22/18 A3006 RMK TRACE SC SCT130 NOSIG=
200907040600 METAR MROC 040600Z 10005KT 9999 -RA FEW030 SCT130 22/19 A3004 NOSIG=
200907040700 METAR MROC 040700Z 11005KT 9999 FEW030 SCT140 21/19 A3001 NOSIG=
200907040800 METAR MROC 040800Z 12005KT 9999 FEW030 SCT250 22/18 A3002 RMK LGNT DST W TRACE AS NOSIG=
200907040900 METAR MROC 040900Z 08006KT 9999 SCT030 SCT110 22/18 A2999 RMK CB/LTNG DST S/SW NOSIG=
200907041000 METAR MROC 041000Z 13005KT 9999 SCT030 SCT110 22/19 A3001 RMK DZ DST=
200907041100 METAR MROC 041100Z 05002KT 9999 -DZ SCT030 BKN100 20/19 A3003 RMK TCU N/NE NOSIG=
200907041200 METAR MROC 041200Z 32002KT 9999 FEW025 BKN100 20/19 A3001 RMK LOW ST SW NOSIG=
200907041300 METAR MROC 041300Z 09007KT 9999 FEW025 BKN090 22/18 A3002 RMK DZ DST N NE E NOSIG=
200907041400 METAR MROC 041400Z 07012KT 9999 FEW040 BKN120 23/17 A3004 RMK RN DST NE E VEL MAX VTO 17KT NOSIG=
200907041500 METAR MROC 041500Z 07011KT 9999 FEW045 BKN120 24/16 A3005 RMK DZ DST NE VEL MAX VTO 17KT NOSIG=
200907041600 METAR MROC 041600Z 07015KT CAVOK 24/16 A3006 RMK TRACE SC BKN120 SCT250 DZ DST NE VEL MAX VTO 21KT NOSIG=
200907041700 METAR MROC 041700Z 07012KT CAVOK 25/17 A3005 RMK TRACE SC BKN120 SCT250 RN DST NE E VEL MAX VTO 19KT NOSIG=
200907041800 METAR MROC 041800Z 07014G24KT 9999 FEW040 BKN120 25/17 A3002 RMK DZ DST NE E SCT250 NOSIG=
200907041900 METAR MROC 041900Z 08013KT 9999 FEW040 BKN120 25/17 A3001 RMK FEW250 DZ DST NE E NOSIG=
200907042000 METAR MROC 042000Z 08011KT 9999 FEW045 SCT120 SCT250 25/17 A2999 RMK DZ DST NE E VEL MAX VTO 18KT NOSIG=
200907042100 METAR MROC 042100Z 07013KT 9999 FEW040 BKN250 25/16 A2998 NOSIG=
200907042200 METAR MROC 042200Z 10009KT 9999 FEW040 BKN250 25/17 A2997 NOSIG=
200907042300 METAR MROC 042300Z 08003KT 9999 FEW040 BKN250 24/16 A2997 NOSIG=
200907050000 METAR MROC 050000Z 07009KT 9999 FEW040 SCT250 23/16 A2999 NOSIG=
200907050100 METAR MROC 050100Z 09005KT CAVOK 22/16 A3001 RMK TRAZAS SCT SCT280 NOSIG=
200907050200 METAR MROC 050200Z 10005KT 9999 FEW040 22/17 A3002 RMK FEW120 LTNG DST S NOSIG=
200907050300 METAR MROC 050300Z 12006KT CAVOK 22/18 A3003 RMK TRACE SC OVC120 VEL MAX VTO 10KT NOSIG=
200907050400 METAR MROC 050400Z 11006KT CAVOK 22/18 A3004 RMK TRACE SC BKN120 NOSIG=
200907050500 METAR MROC 050500Z 07004KT CAVOK 21/17 A3004 RMK TRACE SC BKN120 NOSIG=
200907050600 METAR MROC 050600Z 04004KT CAVOK 20/17 A3002 RMK TRACE SC BKN120 NOSIG=
200907050700 METAR MROC 050700Z 06005KT CAVOK 21/18 A3001 RMK TRACE SC BKN140 NOSIG=
200907050800 METAR MROC 050800Z 09009KT CAVOK 22/17 A2998 RMK TRACE SC BKN140 LTNG DST S NOSIG=
200907050900 METAR MROC 050900Z 09005KT CAVOK 21/17 A2997 RMK TRACE SC BKN120 21/17 A2997 RMK LTNG DST S NOSIG=
200907051000 METAR MROC 051000Z 07003KT CAVOK 21/18 A2997 RMK TRACE SC BKN120 NOSIG=
200907051100 METAR MROC 051100Z 06006KT CAVOK 21/17 A2997 RMK TRACE SC BKN120 NOSIG=
200907051200 METAR MROC 051200Z 02003KT CAVOK 21/18 A2998 RMK TRACE SCT BKN120 DZ DST N NNE NOSIG=
200907051300 METAR MROC 051300Z 04006KT CAVOK 21/18 A3000 RMK TRAZAS SC SCT120 BKN250 NOSIG=
200907051400 METAR MROC 051400Z 00000KT CAVOK 24/19 A3002 RMK TRAZAS SCT SCT100 BKN250 NOSIG=
200907051500 METAR MROC 051500Z 03005KT 9999 FEW045 BKN120 26/19 A3003 NOSIG=
200907051600 METAR MROC 051600Z 11006KT 9999 SCT045 SCT120 25/18 A3002 NOSIG=
200907051700 METAR MROC 051700Z 12006KT 9999 FEW040 BKN120 27/19 A3000 BECMG 24006=
200907051800 METAR MROC 051800Z 12006KT 9999 FEW040 BKN120 27/18 A2999 RMK RN ENE NOSIG=
200907051900 METAR MROC 051900Z 12007KT 9999 -RA VCSH SCT035 BKN120 25/17 A2998 RMK VSBY ENE 7KM DUE RASH RASH SW BECMG 5000 RA=
200907052000 METAR MROC 052000Z 12007KT 7000 -RA VCSH FEW010CB SCT030 BKN120 23/19 A2998 RMK VSBY NE SE S UNL TSTM DST W BECMG 5000 -TSRA=
200907052100 METAR MROC 052100Z 23004KT 7000 RA FEW005 SCT020 BKN100 21/20 A2999 RMK VIS NE S SE UNL NOSIG=
200907052200 METAR MROC 052200Z 36003KT 7000 -RA VCFG FEW002 SCT030 OVC100 21/20 A2999 NOSIG=
200907052300 METAR MROC 052300Z 04007KT 9999 -RA FEW035 OVC100 21/21 A2998 RMK TRACE ST NOSIG=
200907060000 METAR MROC 060000Z 11005KT 9999 -DZ FEW035 OVC100 21/19 A2994 RMK TRACE ST NOSIG=
200907060100 METAR MROC 060100Z 09008KT 9999 DZ FEW035 OVC100 21/18 A3000 NOSIG=
200907060200 METAR MROC 060200Z 09006KT CAVOK 22/18 A3001 RMK TRACE SC OVC100 NOSIG=
200907060300 METAR MROC 060300Z 12006KT 9999 FEW045 BKN100 22/17 A3002 NOSIG=
200907060400 METAR MROC 060400Z 07006KT CAVOK 21/18 A3004 RMK BKN120 SCT250 NOSIG=
200907060500 METAR MROC 060500Z 06003KT CAVOK 20/18 A3004 RMK SCT120 SCT250 NOSIG=
200907060600 METAR MROC 060600Z 06003KT CAVOK 20/18 A3003 RMK SCT120 FEW250 NOSIG=
200907060700 METAR MROC NIL=
200907060800 METAR MROC 060800Z 05007KT CAVOK 19/17 A2997 RMK FEW120 NOSIG=
200907060900 METAR MROC 060900Z 11006KT CAVOK 20/17 A2997 RMK TRACE SC SCT250 NOSIG=
200907061000 METAR MROC 061000Z 10006KT CAVOK 20/17 A2997 RMK TRACE SC SCT250 VEL MAX VTO 12KT NOSIG=
200907061100 METAR MROC 061100Z 06004KT CAVOK 19/18 A2998 RMK TRACE SC FEW250 NOSIG=
200907061200 METAR MROC 061200Z 05005KT CAVOK 19/17 A2997 RMK TRACE SC FEW250 TCU DST SW W NOSIG=
200907061300 METAR MROC 061300Z 00000KT CAVOK 22/18 A3002 RMK TRACE SC CU CI CC CB DST S NOSIG=
200907061400 METAR MROC 061400Z 22004KT CAVOK 24/18 A3002 RMK TRACE SC FEW130 FEW250 CB DST S SW NOSIG=
200907061500 METAR MROC 061500Z 23005KT 9999 FEW040 SCT250 25/18 A3003 RMK TRACE AC CB DST S SW NOSIG=
200907061600 METAR MROC 061600Z 27005KT 9999 FEW040 SCT250 25/19 A3003 RMK FEW130 CB DST S SW NOSIG=
200907061700 METAR MROC 061700Z 23009KT 9999 FEW015TCU SCT035 25/21 A3003 RMK FEW 250 TRACE AC BECMG 8000 VCSH=
200907061800 METAR MROC 061800Z 24008KT 9999 SCT035 SCT120 26/21 A3001 BECMG 8000=
200907061900 METAR MROC 061900Z 24011KT 9999 SCT030 SCT120 26/22 A2999 RMK RN DST E BECMG 8000 VCSH=
200907062000 METAR MROC 062000Z 24008KT 9999 FEW015 BKN030 25/21 A2998 RMK FEW100 BECMG 5000 VCSH=
200907062100 METAR MROC 062100Z 24007KT 9999 SCT020CB BKN100 23/22 A2994 RMK TCU N NOSIG=
200907062200 METAR MROC 062200Z 25007KT 9999 FEW012 SCT030 BKN250 24/19 A2995 NOSIG=
200907062300 METAR MROC 062300Z 28005KT 9999 SCT025 BKN100 23/20 A2996 NOSIG=
200907070000 METAR MROC 070000Z 24003KT 9999 FEW007 SCT025 BKN120 22/20 A2997 NOSIG=
200907070100 METAR MROC 070100Z 00000KT 9999 DZ SCT025 BKN110 21/20 A3000 NOSIG=
200907070200 METAR MROC 070200Z 03004KT 9999 SCT025 BKN110 22/20 A3002 REDZ NOSIG=
200907070300 METAR MROC 070300Z 05002KT 9999 FEW045 BKN120 21/20 A3002 RMK LTNG DST N BECMG 7000 VCFG=
200907070400 METAR MROC 070400Z 33003KT CAVOK 21/20 A3003 RMK TRAZAS SCT FEW120 BKN250 LOW ST S NOSIG=
200907070500 METAR MROC 070500Z 06003KT CAVOK 20/20 A3001 RMK TRAZAS SCT SCT120 NOSIG=
200907070600 METAR MROC 070600Z 09003KT CAVOK 21/19 A3000 RMK TRAZAS SCT FEW140 NOSIG=
200907070700 METAR MROC 070700Z 06004KT CAVOK 20/18 A2999 RMK TRAZAS SCT FEW140 NOSIG=
200907070800 METAR MROC 070800Z 04004KT CAVOK 19/18 A2997 RMK TRAZAS SC FEW140 NOSIG=
200907070900 METAR MROC 070900Z 03003KT CAVOK 19/18 A2996 RMK TRAZAS SC CI NOSIG=
200907071000 METAR MROC 071000Z 09004KT CAVOK 18/17 A2996 RMK TRAZAS SC CI NOSIG=
200907071100 METAR MROC 071100Z 06006KT CAVOK 18/17 A2996 RMK TRAZAS CI CB DST NE/S NOSIG=
200907071200 METAR MROC 071200Z 07005KT CAVOK 18/17 A2997 RMK TRAZAS CI CB DST NE/S NOSIG=
200907071300 METAR MROC 071300Z 06004KT CAVOK 22/18 A2998 RMK CB DST NE TCU DST SW NOSIG=
200907071400 METAR MROC 071400Z 07007KT CAVOK 25/18 A3000 RMK TRACE SC CB DST SE S SW SCT250 NOSIG=
200907071500 METAR MROC 071500Z 23003KT CAVOK 26/23 A3001 RMK TRACE SC CB DST NE S SW SCT250 NOSIG=
200907071600 METAR MROC 071600Z 24007KT CAVOK 27/20 A3001 RMK TRACE SC CB DST NE SW SCT250 NOSIG=
200907071700 METAR MROC 071700Z 25007KT 9999 FEW040 SCT250 27/20 A3001 RMK TCU DST N E NOSIG=
200907071800 METAR MROC 071800Z 26007KT 9999 FEW025TCU SCT035 27/20 A2999 NOSIG=
200907071900 METAR MROC 071900Z 24006KT 9999 SCT030 BKN250 27/22 A2996 RMK TCU DST NW S SW NOSIG=
200907072000 METAR MROC 072000Z 26011KT 9999 SCT030 BKN250 28/23 A2993 RMK TCU DST S SW NW NOSIG=
200907072100 METAR MROC 072100Z 23010KT 9999 FEW017TCU SCT040 26/23 A2991 RMK PCPN DST N BECMG 7000 -RA VCTS VCSH SCT015CB=
200907072200 METAR MROC 072200Z 23009KT 9999 VCTS VCSH FEW015CB BKN025 24/21 A2992 RMK VIS N NE 6KMS BECMG 7000 RA=
200907072300 METAR MROC 072300Z 23006KT 6000 DZ VCFG FEW015CB BKN110 22/22 A2994 RETSRA RMK VIS ENE UNL TS DST S SE BECMG 7000=
200907080000 METAR MROC 080000Z 22004KT 6000 VCFG FEW004 SCT012 BKN100 22/22 A2997 RMK VIS S SW UNLTD BECMG -RA=
200907080001 METAR MROC 080001Z COR 22004KT 6000 VCFG FEW004 SCT012 BKN100 22/22 A2997 REDZ RMK VIS S SW UNLTD BECMG -RA=
200907080100 METAR MROC 080100Z 31004KT 9999 FEW005 SCT020 BKN100 22/22 A2999 NOSIG=
200907080200 METAR MROC 080200Z 26004KT 9999 FEW010 BKN140 21/21 A3001 NOSIG=
200907080300 METAR MROC 080300Z 09003KT 9999 FEW010 BKN140 21/21 A3000 NOSIG=
200907080400 METAR MROC 080400Z 03005KT CAVOK 21/21 A2999 RMK TRACE SC SCT140 BKN250=
200907080500 METAR MROC 080500Z 08006KT CAVOK 21/20 A2996 RMK TRACE SC SCT140 BKN250=
200907080600 METAR MROC 080600Z 03004KT CAVOK 21/19 A2996 RMK TRACE SC FEW140 BKN250=
200907080700 METAR MROC 080700Z 18004KT CAVOK 20/19 A2995 RMK TRACE SC FEW140 BKN250=
200907080800 METAR MROC 080800Z 07002KT CAVOK 19/18 A2991 RMK TRACE SC FEW140 BKN250=
200907080900 METAR MROC 080900Z 03003KT CAVOK 19/19 A2994 RMK TRACE SC FEW140 BKN250=
200907081000 METAR MROC 081000Z 00000KT CAVOK 19/19 A2994 RMK TRACE SC FEW140 BKN250=
200907081100 METAR MROC 081100Z 09003KT CAVOK 18/18 A2995 RMK TRACE SC FEW140 BKN250=
200907081200 METAR MROC 081200Z 08006KT CAVOK 19/17 A2997 RMK BKN250 CB DST SW W NOSIG=
200907081300 METAR MROC 081300Z 08004KT CAVOK 20/18 A2997 RMK TRACE SC BKN250 CB DST SW NOSIG=
200907081400 METAR MROC 081400Z 01005KT CAVOK 23/18 A2998 RMK TRACE CU BKN250 BECMG 08007KT=
200907081500 METAR MROC 081500Z VRB03KT CAVOK 26/20 A2999 RMK TRACE CU BKN250 CB DST S SSW BECMG 24006KT=
200907081600 METAR MROC 081600Z 16003KT 9999 FEW040 BKN250 27/19 A3000 RMK CB DST SSW SW NOSIG=
200907081700 METAR MROC 081700Z 09006KT 9999 FEW040 BKN250 28/19 A3000 NOSIG=
200907081800 METAR MROC 081800Z 14007KT 9999 SCT040 BKN250 28/19 A2998 RMK TRACE AC TCU DST S SSW NOSIG=
200907081900 METAR MROC 081900Z 20005KT 9999 SCT040 BKN250 27/23 A2995 RMK TRACE AC TCU DST SSW LGT HZ ARND NOSIG=
200907082000 METAR MROC 082000Z 24010KT 9999 FEW025TCU SCT035 BKN250 26/23 A2993 RMK TRACE AC LGT HZ ARND NOSIG=
200907082100 METAR MROC 082100Z 23010KT 9999 FEW020TCU SCT030 SCT250 25/22 A2992 RMK RN DST NW N NE BECMG 7000 VCSH=
200907082200 METAR MROC 082200Z 25011KT 9999 FEW030 SCT120 BKN250 23/20 A2994 RMK RN DST N NW VEL MAX VTO 16KT=
200907082300 METAR MROC 082300Z 30006KT 9999 SCT030 BKN250 22/20 A2995 RMK FEW120 NOSIG=
200907090000 METAR MROC 090000Z 18003KT 9999 FEW030 BKN250 22/21 A2996 RMK FEW130 BECMG VRB03KT=
200907090100 METAR MROC 090100Z 12003KT CAVOK 21/20 A2997 RMK TRACE SC AC BKN250 NOSIG=
200907090200 METAR MROC 090200Z 10004KT CAVOK 22/19 A2997 RMK TRACE SC SCT120 BKN250 NOSIG=
200907090300 METAR MROC 090300Z 09004KT CAVOK 22/18 A2999 RMK TRACE SC SCT120 BKN250 NOSIG=
200907090400 METAR MROC 090400Z 10007KT CAVOK 22/18 A2998 RMK TRACE SC SCT120 BKN250 NOSIG=
200907090500 METAR MROC 090500Z 08005KT CAVOK 22/17 A3000 RMK TRACE SC SCT120 BKN250 NOSIG=
200907090600 METAR MROC 090600Z 17003KT CAVOK 21/17 A3000 RMK SCT250 NOSIG=
200907090700 METAR MROC 090700Z 30003KT CAVOK 20/19 A3001 RMK SCT250 NOSIG=
200907090800 METAR MROC 090800Z 02002KT CAVOK 19/19 A3000 RMK SCT250 NOSIG=
200907090900 METAR MROC 090900Z 10004KT CAVOK 18/18 A3000 RMK SCT250 ST S NOSIG=
200907091000 METAR MROC 091000Z 08004KT CAVOK 18/17 A2999 RMK FEW250 NOSIG=
200907091100 METAR MROC 091100Z 09004KT CAVOK 18/17 A2999 RMK FEW250 NOSIG=
200907091200 METAR MROC 091200Z 09004KT CAVOK 18/17 A2999 RMK BKN250 NOSIG=
200907091300 METAR MROC 091300Z 06005KT CAVOK 20/17 A3002 RMK BKN250 NOSIG=
200907091400 METAR MROC 091400Z 07004KT CAVOK 22/18 A3002 RMK TRACE AC BKN250 NOSIG=
200907091500 METAR MROC 091500Z 06003KT CAVOK 25/18 A3003 RMK FEW120 BKN250 NOSIG=
200907091600 METAR MROC 091600Z 18002KT 9999 FEW045 SCT120 BKN250 26/19 A3003 BECMG 24006KT=
200907091700 METAR MROC 091700Z 11009KT CAVOK 26/18 A3002 RMK TRACE SC FEW120 BKN250 NOSIG=
200907091800 METAR MROC 091800Z 12006KT 9999 FEW040 SCT120 BKN250 26/19 A3001 NOSIG=
200907091900 METAR MROC 091900Z 24010KT CAVOK 26/21 A3000 RMK TRACE SC SCT130 BKN250 NOSIG=
200907092000 METAR MROC 092000Z 23008KT CAVOK 26/22 A2998 RMK TRACE CU SC SCT130 BKN250 NOSIG=
200907092100 METAR MROC 092100Z 26006KT 9999 SCT020 BKN250 25/22 A2997 NOSIG=
200907092200 METAR MROC 092200Z 25005KT 9999 SCT020 SCT120 BKN250 25/22 A2996 NOSIG=
200907092300 METAR MROC 092300Z 24005KT 9999 FEW020CB SCT040 BKN250 24/22 A2997 RMK CB E SE RN DST E BECMG 7000 VCSH=
200907100000 METAR MROC 100000Z 20004KT 3000 +TSRA FEW007CB BKN015 22/21 A3000 NOSIG=
200907100100 METAR MROC 100100Z 29004KT 9999 FEW010 BKN045 21/21 A3002 RMK LTNG S SW BECMG 7000 VCFG=
200907100200 METAR MROC 100200Z 29005KT 5000 BR BKN004 20/20 A3005 BECMG 4000 BR=
200907100300 METAR MROC 100300Z 07006KT 9999 FEW006 SCT120 BKN250 20/20 A3004 RMK TRACE SC NOSIG=
200907100400 METAR MROC 100400Z 11004KT CAVOK 20/20 A3006 RMK TRACE ST SC SCT140 SCT250 NOSIG=
200907100500 METAR MROC 100500Z 35003KT 9999 4000SW BR BKN150 SCT250 20/20 A3008 RMK TRACE LOW ST SW W NOSIG=
200907100600 METAR MROC 100600Z 02003KT CAVOK 20/20 A3006 RMK TRACE ST BKN150 OCNL=
200907100700 METAR MROC 100700Z 06002KT CAVOK 19/19 A3004 RMK SCT150 SCT250 HZY NOSIG=
200907100800 METAR MROC 100800Z 08004KT CAVOK 19/18 A3002 RMK BKN140 NOSIG=
200907100900 METAR MROC 100900Z 07007KT CAVOK 20/18 A2999 RMK OVC140 NOSIG=
200907101000 METAR MROC 101000Z 05006KT CAVOK 20/18 A2999 RMK OVC140 NOSIG=
200907101100 METAR MROC 101100Z 06005KT CAVOK 21/17 A2999 RMK BKN130 NOSIG=
200907101200 METAR MROC 101200Z 09004KT CAVOK 22/17 A2999 RMK BKN130 NOSIG=
200907101300 METAR MROC 101300Z 08005KT CAVOK 23/17 A3000 RMK BKN130 NOSIG=
200907101400 METAR MROC 101400Z 09006KT CAVOK 24/17 A3001 RMK TRAZAS SCT FEW100 SCT140 BKN250 NOSIG=
200907101500 METAR MROC 101500Z 11005KT CAVOK 26/18 A3002 RMK TRAZAS SCT FEW130 BKN250 BECMG 24006KT=
200907101600 METAR MROC 101600Z 11008KT CAVOK 27/18 A3003 RMK TRAZAS SCT BKN130 SCT250 NOSIG=
200907101700 METAR MROC 101700Z 15006KT 9999 FEW040 SCT130 BKN250 27/19 A3004 BECMG 24006=
200907101800 METAR MROC 101800Z 15009KT 9999 FEW040 BKN130 27/19 A3002 NOSIG=
200907101900 METAR MROC 101900Z 23007KT 9999 SCT040 BKN130 26/22 A3000 NOSIG=
200907102000 METAR MROC 102000Z 23010KT 9999 FEW020TCU BKN035 25/22 A2999 RMK RN S E BECMG 5000 TSRA=
200907102100 METAR MROC 102100Z 26009KT 2000 +TSRA SCT005 BKN010 22/21 A2999 NOSIG=
200907102200 METAR MROC 102200Z 11002KT 8000 2000SW BR FEW002 SCT010 OVC100 19/19 A3001 RETSRA NOSIG=
200907102300 METAR MROC 102300Z 34003KT 8000 -RA FEW003 SCT015 OVC100 19/19 A3002 NOSIG=
200907110000 METAR MROC 110000Z 04005KT 9999 -RA FEW025 BKN110 20/20 A3001 RMK TRACE ST NOSIG=
200907110100 METAR MROC 110100Z 00000KT 9999 FEW025 BKN110 21/20 A3001 RERA RMK TRACE ST NOSIG=
200907110200 METAR MROC 110200Z 11005KT 9999 FEW025 BKN110 21/19 A3005 NOSIG=
200907110300 METAR MROC 110300Z 05005KT 9999 -RA FEW035 BKN100 21/19 A3008 NOSIG=
200907110400 METAR MROC 110400Z 09004KT 9999 -RA FEW030 BKN090 20/19 A3008 NOSIG=
200907110500 METAR MROC 110500Z 04005KT 9999 -DZ OVC100 20/19 A3008 NOSIG=
200907110600 METAR MROC 110600Z 02005KT 9999 -DZ BKN100 20/19 A3006 NOSIG=
200907110700 METAR MROC 110700Z 10004KT CAVOK 20/19 A3004 RMK OVC120 NOSIG=
200907110800 METAR MROC 110800Z 03006KT CAVOK 20/18 A3004 RMK BKN120 NOSIG=
200907110900 METAR MROC 110900Z 06004KT CAVOK 19/18 A3003 RMK BKN120 NOSIG=
200907111000 METAR MROC 111000Z 04003KT CAVOK 19/19 A3003 RMK BKN120 NOSIG=
200907111100 METAR MROC 111100Z 05003KT CAVOK 19/18 A3002 RMK BKN120 NOSIG=
200907111200 METAR MROC 111200Z 04004KT CAVOK 19/18 A3001 RMK SCT120 BKN260 NOSIG=
200907111300 METAR MROC 111300Z 09005KT CAVOK 21/19 A3002 RMK TRACE SC BKN130 NOSIG=
200907111400 METAR MROC 111400Z 09005KT CAVOK 22/18 A3003 RMK TRACE SC BKN130 NOSIG=
200907111500 METAR MROC 111500Z 09010KT CAVOK 23/17 A3003 RMK TRACE SC BKN130 NOSIG=
200907111600 METAR MROC 111600Z 09009KT 9999 FEW040 BKN130 24/18 A3004 NOSIG=
200907111700 METAR MROC 111700Z 09011KT 9999 FEW040 BKN130 26/18 A3003 NOSIG=
200907111800 METAR MROC 111800Z 07014KT 9999 FEW040 BKN130 26/17 A3001 NOSIG=
200907111900 METAR MROC 111900Z 09008KT 9999 FEW035 BKN130 27/19 A3000 NOSIG=
200907112000 METAR MROC 112000Z 11007KT 9999 FEW035 SCT130 BKN250 26/17 A2999 NOSIG=
200907112100 METAR MROC 112100Z 11008KT CAVOK 25/17 A2998 RMK TRACE SC BKN120 NOSIG=
200907112200 METAR MROC 112200Z 11006KT CAVOK 25/15 A2997 RMK TRECE SC BKN120 NOSIG=
200907112300 METAR MROC 112300Z 11005KT CAVOK 25/15 A2998 RMK TRACE CU AC BKN250 NOSIG=
200907120000 METAR MROC 120000Z 24005KT 9999 FEW010 SCT130 BKN250 23/22 A2998 NOSIG=
200907120100 METAR MROC 120100Z 23004KT 9999 VCFG SCT007 SCT120 21/21 A3001 BECMG 6000 VCFG=
200907120200 METAR MROC 120200Z 20003KT 9999 FEW020 SCT120 20/19 A3003 NOSIG=
200907120300 METAR MROC 120300Z 08004KT CAVOK 20/16 A3004 RMK TRACE SCT NOSIG=
200907120400 METAR MROC 120400Z 09004KT CAVOK 20/18 A3005 RMK TRACE SCT NOSIG=
200907120500 METAR MROC 120500Z 12003KT 9999 FEW030 20/17 A3004 RMK FEW100 NOSIG=
200907120600 METAR MROC 120600Z 02003KT CAVOK 19/17 A3003 RMK TRACE SCT SCT120 NOSIG=
200907120700 METAR MROC 120700Z 01002KT CAVOK 20/17 A3001 RMK TRACE SCT FEW120 NOSIG=
200907120800 METAR MROC 120800Z 10008KT CAVOK 21/17 A2999 RMK TRACE SC SCT250 NOSIG=
200907120900 METAR MROC 120900Z 10006KT CAVOK 20/17 A2998 RMK TRACE SC/CI NOSIG=
200907121000 METAR MROC 121000Z 12008KT CAVOK 21/16 A2997 RMK TRACE SC/CI NOSIG=
200907121100 METAR MROC 121100Z 05003KT CAVOK 20/16 A2998 RMK TRACE AC/CI NOSIG=
200907121200 METAR MROC 121200Z 03006KT CAVOK 20/15 A3000 RMK FEW300 NOSIG=
200907121300 METAR MROC 121300Z 04002KT CAVOK 23/16 A3002 RMK SCT300 NOSIG=
200907121400 METAR MROC 121400Z 11009KT CAVOK 25/17 A3003 RMK TRACE SC SCT300 NOSIG=
200907121500 METAR MROC 121500Z 11008KT CAVOK 27/18 A3002 RMK TRACE SC SCT300 NOSIG=
200907121600 METAR MROC 121600Z 09011KT 9999 FEW040 28/18 A3002 RMK FEW300 NOSIG=
200907121700 METAR MROC 121700Z 12010KT 9999 FEW040 SCT300 29/18 A3001 NOSIG=
200907121800 METAR MROC 121800Z 09007KT 9999 SCT035 SCT270 29/19 A3000 NOSIG=
200907121900 METAR MROC 121900Z 08008KT 9999 FEW035 SCT270 29/19 A2998 NOSIG=
200907122000 METAR MROC 122000Z 07011KT 9999 SCT030 SCT250 28/18 A2998 NOSIG=
200907122100 METAR MROC 122100Z 07014KT 9999 FEW030 SCT070 BKN250 28/18 A2996 RMK VEL MAX VTO 21KT NOSIG=
200907122200 METAR MROC 122200Z 07014KT 9999 FEW030 BKN250 28/18 A2996 RMK TRACE AC VEL MAX VTO 20KT NOSIG=
200907122300 METAR MROC 122300Z 08008KT 9999 FEW030 BKN250 26/17 A2997 RMK DZ DST ENE VEL MAX VTO 11KT NOSIG=
200907130000 METAR MROC 130000Z 10007KT 9999 FEW035 BKN250 25/18 A2998 NOSIG=
200907130100 METAR MROC 130100Z 08007KT 9999 FEW035 BKN250 23/18 A3000 NOSIG=
200907130200 METAR MROC 130200Z 10008KT CAVOK 23/18 A3000 RMK TRACE SC BKN250 NOSIG=
200907130300 METAR MROC 130300Z 06007KT CAVOK 23/18 A3001 RMK TRACE SC BKN250 NOSIG=
200907130400 METAR MROC 130400Z 00000KT CAVOK 22/19 A3000 RMK TRACE SC BKN250 NOSIG=
200907130500 METAR MROC 130500Z 10007KT CAVOK 23/18 A3001 RMK TRACE SC BKN250 NOSIG=
200907130600 METAR MROC 130600Z 05003KT CAVOK 21/18 A2999 RMK TRACE SC BKN250 NOSIG=
200907130700 METAR MROC 130700Z 07002KT CAVOK 21/19 A2998 RMK TRACE SC BKN250 NOSIG=
200907130800 METAR MROC 130800Z 34003KT CAVOK 21/18 A2997 RMK TRACE SC BKN250 NOSIG=
200907130900 METAR MROC 130900Z 32002KT CAVOK 19/18 A2998 RMK TRACE SC BKN250 NOSIG=
200907131000 METAR MROC 131000Z 02003KT CAVOK 19/18 A2999 RMK TRACE SC BKN250 NOSIG=
200907131100 METAR MROC 131100Z 06002KT CAVOK 18/18 A2999 RMK TRACE SC BKN250 NOSIG=
200907131200 METAR MROC 131200Z 08003KT 9999 FEW035 SCT120 BKN250 19/18 A3001 RMK CB TCU DST SW NOSIG=
200907131300 METAR MROC 131300Z 03002KT 9999 FEW035 SCT070 BKN120 21/19 A3001 RMK PCPN DST N NE CB DST SW BECMG 10012KT=
200907131400 METAR MROC 131400Z 04004KT 9999 FEW035 SCT070 BKN120 23/19 A3002 RMK PCPN DST N NE NOSIG=
200907131500 METAR MROC 131500Z 10012KT 9999 FEW040 SCT120 BKN250 25/17 A3000 RMK VEL MAX VTO 18KT PCPN DST N NE NOSIG=
200907131600 METAR MROC 131600Z 07010KT 9999 FEW035 SCT060 BKN250 26/18 A3001 RMK VEL MAX VTO 15KT PCPN DST N NE NOSIG=
200907131700 METAR MROC 131700Z 08011KT 9999 FEW035 BKN250 27/17 A2998 RMK VEL MAX VTO 17KT PCPN DST N NE TRACE AC NOSIG=
200907131800 METAR MROC 131800Z 10010KT 9999 FEW035 BKN250 27/17 A2998 RMK TRACE SC DZ DST NE VEL MAX VTO 19KT NOSIG=
200907131900 METAR MROC 131900Z 09009KT 9999 FEW035 BKN250 29/18 A2994 RMK VEL MAX VTO 15KT NOSIG=
200907132000 METAR MROC 132000Z 09010KT 9999 FEW035 SCT120 BKN250 28/18 A2993 RMK PCPN DST NE ENE CB DST NE VEL MAX VTO 14KT NOSIG=
200907132100 METAR MROC 132100Z 08009KT 9999 SCT035 BKN250 28/18 A2992 RMK FEW120 VEL MAX VTO 15KT NOSIG=
200907132200 METAR MROC 132200Z 08012KT 9999 SCT035 SCT120 26/17 A2994 RMK FEW250 DZ DST NE E NOSIG=
200907132300 METAR MROC 132300Z 08008KT 9999 BKN035 SCT100 25/17 A2995 RMK DZ DST NE E VEL MAX VTO 15KT BECMG -DZ=
200907140000 METAR MROC 140000Z 11006KT 9999 SCT030 BKN120 23/17 A2996 RMK DZ DST NE E NOSIG=
200907140100 METAR MROC 140100Z 10007KT 9999 FEW035 SCT120 SCT250 23/18 A2997 NOSIG=
200907140200 METAR MROC 140200Z 09010KT CAVOK 23/17 A2998 RMK TRACE SC AS AC SCT250 NOSIG=
200907140300 METAR MROC 140300Z 08009KT CAVOK 23/17 A3000 RMK SCT250 NOSIG=
200907140400 METAR MROC 140400Z 08010KT CAVOK 22/17 A3001 NOSIG=
200907140500 METAR MROC 140500Z 07010KT CAVOK 22/16 A3000 RMK TRECE SC SCT250 NOSIG=
200907140600 METAR MROC 140600Z 09008KT CAVOK 22/16 A2999 RMK SCT120 SCT250 NOSIG=
200907140700 METAR MROC 140700Z 10008KT CAVOK 22/16 A2998 RMK SCT120 SCT250 NOSIG=
200907140800 METAR MROC 140800Z 10010KT CAVOK 22/15 A2998 RMK SCT120 SCT250 NOSIG=
200907140900 METAR MROC 140900Z 08012KT CAVOK 22/15 A2997 RMK FEW120 BKN250 NOSIG=
200907141000 METAR MROC 141000Z 08012KT CAVOK 22/16 A2997 RMK SCT250 NOSIG=
200907141100 METAR MROC 141100Z 09010G20KT CAVOK 21/16 A2997 RMK FEW120 SCT250 NOSIG=
200907141200 METAR MROC 141200Z 09013KT CAVOK 22/15 A2999 RMK TRACE SC BKN250 CB DST S NOSIG=
200907141300 METAR MROC 141300Z 10011KT CAVOK 23/16 A3001 RMK TRACE SC AC BKN250 VEL MAX VTO 17KT NOSIG=
200907141400 METAR MROC 141400Z 10012KT CAVOK 24/15 A3002 RMK TRACE AC SCT250 VEL MAX VTO 17KT NOSIG=
200907141500 METAR MROC 141500Z 09014KT CAVOK 26/16 A3003 RMK TRACE AC SCT250 NOSIG=
200907141600 METAR MROC 141600Z 08012KT CAVOK 27/16 A3003 RMK TRACE SC AC TCU DST SSW SW SCT250 VEL MAX VTO 17KT NOSIG=
200907141700 METAR MROC 141700Z 09012KT CAVOK 28/14 A3002 RMK TRACE SC AC TCU DST SSW SCT270 VEL MAX WIND 16 KTS NOSIG=
200907141800 METAR MROC 141800Z 09016KT 9999 FEW040 BKN270 27/17 A3000 RMK TCU DST SSW VEL MAX WIND 20 KTS NOSIG=
200907141900 METAR MROC 141900Z 08014KT 9999 FEW035 BKN250 28/16 A2999 RMK TCU DST SW RN DST NE NOSIG=
200907142000 METAR MROC 142000Z 07010KT 9999 FEW035 BKN250 28/17 A2998 RMK VEL MAX=
200907142100 METAR MROC 142100Z 07012KT 9999 FEW040 BKN280 26/16 A2996 RMK FEW120 TCU SW NOSIG=
200907142200 METAR MROC 142200Z 08008KT 9999 FEW045 BKN280 27/16 A2995 RMK FEW120 NOSIG=
200907142300 METAR MROC 142300Z 07008KT 9999 FEW045 BKN280 26/17 A2996 RMK FEW130 NOSIG=
200907150000 METAR MROC 150000Z 10007KT CAVOK 24/18 A2997 RMK TRACE SCT SCT130 BKN280 NOSIG=
200907150100 METAR MROC 150100Z 08004KT CAVOK 23/17 A2999 RMK TRAZAS SCT SCT280 NOSIG=
200907150200 METAR MROC 150200Z 10004KT CAVOK 22/16 A3000 RMK TRAZAS SCT FEW280 NOSIG=
200907150300 METAR MROC 150300Z 07005KT CAVOK 22/16 A3001 RMK TRACE SC FEW250 NOSIG=
200907150400 METAR MROC 150400Z 08004KT CAVOK 22/15 A3003 RMK TRACE SC SCT250 NOSIG=
200907150500 METAR MROC 150500Z 07004KT CAVOK 21/15 A3004 RMK TRACE SC SCT250 LTNG DST S NOSIG=
200907150600 METAR MROC 150600Z 07006KT CAVOK 22/16 A3002 RMK TRACE SC SCT250 LTNG DST S NOSIG=
200907150700 METAR MROC 150700Z 10007KT CAVOK 21/15 A3002 RMK TRACE SC SCT250 NOSIG=
200907150800 METAR MROC 150800Z 13007KT CAVOK 21/14 A2998 RMK TRACE SC SCT250 NOSIG=
200907150900 METAR MROC 150900Z 05009KT CAVOK 20/14 A2998 RMK TRACE SC SCT250 LTNG DST S NOSIG=
200907151000 METAR MROC 151000Z 05006KT CAVOK 21/14 A2999 RMK TRACE SC SCT250 LTNG DST S NOSIG=
200907151100 METAR MROC 151100Z 12007KT CAVOK 21/14 A2997 RMK TRACE SC SCT250 NOSIG=
200907151200 METAR MROC 151200Z 13006KT CAVOK 20/13 A2999 RMK TRACE SC AC SCT300 CB DST SW NOSIG=
200907151300 METAR MROC 151300Z 04005KT 9999 FEW040 BKN280 23/15 A3003 RMK DZ N NE CB S NOSIG=
200907151400 METAR MROC 151400Z 13006KT 9999 FEW040 BKN300 25/18 A3004 RMK FEW120 CB DST S NOSIG=
200907151500 METAR MROC 151500Z 12008KT 9999 SCT040 SCT300 26/18 A3005 RMK CB S SW NE DZ N NE NOSIG=
200907151600 METAR MROC 151600Z 10008KT 9999 BKN045 SCT280 25/18 A3007 RMK DZ N NE E NOSIG=
200907151700 METAR MROC 151700Z 08008KT 9999 FEW040 BKN120 23/18 A3007 RMK DZ N NE RERA NOSIG=
200907151800 METAR MROC 151800Z 10008KT CAVOK 25/19 A3003 RMK TRACE SCT BKN120 NOSIG=
200907151900 METAR MROC 151900Z 10009KT 9999 FEW040 BKN120 25/18 A3002 NOSIG=
200907152000 METAR MROC 152000Z 13007KT 9999 FEW030 BKN120 25/18 A3003 NOSIG=
200907152100 METAR MROC 152100Z 09005KT 9999 FEW030 OVC120 26/18 A3001 NOSIG=
200907152200 METAR MROC 152200Z 09002KT CAVOK 25/19 A3000 RMK TRACE SC OVC120 NOSIG=
200907152300 METAR MROC 152300Z 26005KT 9999 FEW002 OVC120 24/22 A3001 RMK TRACE SC NOSIG=
200907160000 METAR MROC 160000Z 20004KT 5000 BR FEW001 SCT005 OVC120 22/22 A3000 BECMG 2000 BR=
200907160100 METAR MROC 160100Z 07004KT 9999 FEW020 OVC120 22/22 A3000 NOSIG=
200907160200 METAR MROC 160200Z 08011KT CAVOK 24/17 A3000 RMK TRACE SC BKN120 NOSIG=
200907160300 METAR MROC 160300Z 10010KT CAVOK 23/17 A3001 RMK FEW120 SCT250 NOSIG=
200907160400 METAR MROC 160400Z 09015KT CAVOK 23/16 A3000 RMK TRACE SC FEW120 SCT250 NOSIG=
200907160500 METAR MROC 160500Z 11012KT CAVOK 22/16 A3001 RMK TRACE SC FEW120 SCT250 NOSIG=
200907160600 METAR MROC 160600Z 11011KT CAVOK 22/16 A3000 RMK FEW120 SCT250 NOSIG=
200907160700 METAR MROC NIL=
200907160800 METAR MROC 160800Z 09007KT CAVOK 21/16 A2998 RMK TRACE SC SCT120 SCT250 NOSIG=
200907160900 METAR MROC 160900Z 11007KT CAVOK 21/17 A2996 RMK FEW120 SCT250 NOSIG=
200907161000 METAR MROC 161000Z 10007KT CAVOK 22/17 A2996 RMK TRACE SC AC SCT250 NOSIG=
200907161100 METAR MROC 161100Z 11008KT 9999 SCT035 SCT250 22/18 A2998 RMK FEW120 NOSIG=
200907161200 METAR MROC 161200Z 12014KT 9999 SCT040 SCT250 22/18 A3000 RMK TRACE AC DZ DST N NE E NOSIG=
200907161300 METAR MROC 161300Z 11009KT 9999 SCT040 SCT250 24/18 A3001 NOSIG=
200907161400 METAR MROC 161400Z 09008KT 9999 SCT040 FEW250 26/19 A3001 NOSIG=
200907161500 METAR MROC 161500Z 08010KT 9999 SCT040 FEW250 27/19 A3000 NOSIG=
200907161600 METAR MROC 161600Z 06014KT 9999 SCT035 28/18 A2999 RMK RAFAGAS 18KT NOSIG=
200907161700 METAR MROC 161700Z 06019KT 9999 SCT035 29/19 A2997 RMK RAFAGAS 23KT NOSIG=
200907161800 METAR MROC 161800Z 06019KT 9999 SCT035 28/18 A2998 RMK DZ NE NOSIG=
200907161900 METAR MROC 161900Z 07011KT 9999 SCT035 27/18 A2995 NOSIG=
200907162000 METAR MROC 162000Z 05017KT 9999 SCT035 29/16 A2993 RMK RAFAGAS 23KT NOSIG=
200907162100 METAR MROC 162100Z 08013KT 9999 SCT035 28/17 A2993 NOSIG=
200907162200 METAR MROC 162200Z 07012KT 9999 SCT030 27/17 A2993 NOSIG=
200907162300 METAR MROC 162300Z 07008KT 9999 SCT035 27/18 A2994 NOSIG=
200907170000 METAR MROC 170000Z 08008KT 9999 SCT035 FEW070 25/17 A2996 NOSIG=
200907170100 METAR MROC 170100Z 07011KT 9999 FEW040 24/17 A2997 RMK TRACE AC NOSIG=
200907170200 METAR MROC NIL=
200907170300 METAR MROC 170300Z 08007KT CAVOK 23/16 A2999 RMK TRACE SCT NOSIG=
200907170400 METAR MROC 170400Z 09004KT CAVOK 22/17 A2999 RMK TRACE SCT NOSIG=
200907170500 METAR MROC 170500Z 10007KT CAVOK 22/17 A2998 RMK TRACE SCT NOSIG=
200907170600 METAR MROC 170600Z 09010KT 9999 SCT045 23/17 A2997 NOSIG=
200907170700 METAR MROC 170700Z 10008KT 9999 SCT045 22/18 A2997 NOSIG=
200907170800 METAR MROC 170800Z 11006KT CAVOK 23/18 A2994 RMK TRACE SC SCT070 NOSIG=
200907170900 METAR MROC 170900Z 10010KT CAVOK 23/18 A2995 RMK TRACE SC SCT070 NOSIG=
200907171000 METAR MROC 171000Z 12006KT CAVOK 22/18 A2995 RMK TRACE SC/CI NOSIG=
200907171100 METAR MROC 171100Z 10006KT 9999 FEW030 22/18 A2996 RMK CB/LTNG DST S NOSIG=
200907171200 METAR MROC 171200Z 11006KT 9999 FEW030 22/18 A2996 RMK FEW250 CB DST S/NE NOSIG=
200907171300 METAR MROC 171300Z 13006KT 9999 FEW030 24/18 A2997 RMK CB CB DST NE NOSIG=
200907171400 METAR MROC 171400Z 10008KT 9999 SCT030 26/18 A2997 NOSIG=
200907171500 METAR MROC 171500Z 11008KT 9999 SCT030 27/18 A2998 NOSIG=
200907171600 METAR MROC 171600Z 11009KT 9999 SCT030 28/20 A2996 NOSIG=
200907171700 METAR MROC 171700Z 09008KT 9999 FEW020 BKN030 27/19 A2999 RMK DZ N NE NOSIG=
200907171800 METAR MROC 171800Z 11007KT 9999 -RA BKN030 25/21 A2998 NOSIG=
200907171900 METAR MROC 171900Z 08008KT 9999 SCT030 27/19 A2995 NOSIG=
200907172000 METAR MROC 172000Z 08009KT 9999 SCT030 BKN120 28/19 A2992 NOSIG=
200907172100 METAR MROC 172100Z 08008KT 9999 FEW035 SCT120 BKN250 28/18 A2992 RMK TCU DST SSW VEL MAX VTO 12KT NOSIG=
200907172200 METAR MROC 172200Z 06013KT 9999 FEW030 SCT060 27/18 A2993 RMK SCT250 VEL MAX VTO 20KT NOSIG=
200907172300 METAR MROC 172300Z 07008KT 9999 FEW030 SCT060 BKN140 26/18 A2995 RMK VEL MAX VTO 14KT PCPN DST NE NOSIG=
200907180000 METAR MROC 180000Z 09006KT 9999 FEW030 SCT140 BKN250 24/18 A2996 RMK PCPN DST NE ENE LGT HZ ARND NOSIG=
200907180100 METAR MROC 180100Z 07011KT 9999 FEW035 BKN120 24/18 A2997 RMK LTNG DST E SE VEL MAX VTO 15KT NOSIG=
200907180200 METAR MROC 180200Z 08010KT 9999 FEW035 BKN120 24/18 A2996 NOSIG=
200907180300 METAR MROC 180300Z 09006KT 9999 FEW035 BKN120 23/19 A2997 NOSIG=
200907180400 METAR MROC 180400Z 10007KT CAVOK 24/18 A2998 RMK TARCE SC BKN120 LTNG DST E NOSIG=
200907180500 METAR MROC 180500Z 09008KT CAVOK 23/19 A2997 RMK TRACE SC SCT120 SCT250 RAFA GAS 14KT NOSIG=
200907180600 METAR MROC 180600Z 10012KT CAVOK 23/19 A2995 RMK TRACE SC SCT120 SCT250=
200907180700 METAR MROC 180700Z 10004KT CAVOK 23/19 A2996 RMK TRACE SC SCT120 SCT250=
200907180800 METAR MROC 180800Z 09003KT 6000 -TS +RA FEW010CB BKN030 21/20 A2999 BECMG 9999 -RA=
200907180900 METAR MROC 180900Z 02005KT 9999 -RA SCT030 BKN100 21/20 A2996 RETS NOSIG=
200907181000 METAR MROC 181000Z 08004KT 9999 SCT035 BKN100 20/19 A2997 RERA NOSIG=
200907181100 METAR MROC 181100Z 11007KT 9999 -DZ FEW035 BKN100 21/19 A2998 NOSIG=
200907181200 METAR MROC 181200Z 02004KT 9999 FEW035 OVC100 21/20 A2999 REDZ RMK RN N NE NOSIG=
200907181300 METAR MROC 181300Z 12007KT 9999 FEW030 OVC100 22/19 A3001 RMK PCPN DST NE E NOSIG=
200907181400 METAR MROC 181400Z 11007KT 9999 FEW030 BKN100 23/19 A3002 NOSIG=
200907181500 METAR MROC 181500Z 08012KT 9999 FEW030 SCT100 BKN150 24/19 A3003 RMK VEL MAX VTO 18KTS PCPN DST NNE NOSIG=
200907181600 METAR MROC 181600Z 08010KT 9999 FEW030 SCT120 BKN160 25/20 A3002 RMK VEL MAX VTO 18KT NOSIG=
200907181700 METAR MROC 181700Z 09008KT 9999 FEW030 SCT120 BKN170 26/20 A3002 RMK VEL MAX VTO 15KT NOSIG=
200907181800 METAR MROC 181800Z 10008KT 9999 FEW030 SCT120 BKN180 28/20 A2999 RMK VEL MAX VTO 12KT NOSIG=
200907181900 METAR MROC 181900Z 11008KT 9999 SCT030 BKN150 25/20 A2998 RMK PCPN DST N NE E VEL MAX VTO 14KT NOSIG=
200907182000 METAR MROC 182000Z 10008KT 9999 FEW030 BKN170 26/20 A2996 RMK DZ DST NE VEL MAX VTO 13KT NOSIG=
200907182100 METAR MROC 182100Z 08006KT 9999 FEW035 BKN250 27/19 A2995 NOSIG=
200907182200 METAR MROC 182200Z 09004KT 9999 FEW030 SCT250 27/19 A2994 RMK CB DST E S SSW NOSIG=
200907182300 METAR MROC 182300Z 24005KT 9999 VCFG FEW006 SCT030 SCT060 23/23 A2997 RMK VIS 7000SW FEW250 DZ DST NW N NE E BECMG 09006KT=
200907190000 METAR MROC 190000Z 04006KT 7000 -RA SCT015TCU BKN030 22/20 A3001 RMK RN ARND NOSIG=
200907190100 METAR MROC 190100Z 09006KT 9999 FEW035 SCT100 22/19 A3003 RERA RMK DZ DST NE BECMG -RA=
200907190200 METAR MROC 190200Z 10012KT 9999 -RA FEW030 BKN090 22/19 A2999 BECMG -RA=
200907190300 METAR MROC 190300Z 10010KT 9999 FEW030 BKN100 23/19 A2998 NOSIG=
200907190400 METAR MROC 190400Z 10006KT 9999 FEW030 BKN100 23/18 A3003 NOSIG=
200907190500 METAR MROC 190500Z 11005KT 9999 FEW030 BKN100 22/19 A3005 NOSIG=
200907190600 METAR MROC 190600Z 00000KT 9999 -RA FEW030 BKN100 22/19 A3001 RMK LTNG DST S NOSIG=
200907190700 METAR MROC 190700Z 08005KT 9999 FEW030 BKN100 22/19 A3004 RERA RMK LTNGS NOSIG=
200907190800 METAR MROC 190800Z 11008KT 9999 SCT030 SCT100 22/19 A2998 RMK CB/LTNG DST SSE/S/SW NOSIG=
200907190900 METAR MROC 190900Z 11011KT 9999 SCT030 SCT100 22/18 A2998 RMK CB/LTNG DST SW NOSIG=
200907191000 METAR MROC 191000Z 11010KT 9999 FEW030 SCT080 22/17 A2998 RMK SCT100=
200907191100 METAR MROC 191100Z 11010KT 9999 FEW030 BKN100 22/17 A2998 RMK LTNG DST S/SW NOSIG=
200907191200 METAR MROC 191200Z 11010KT 9999 SCT030 BKN100 22/17 A3001 NOSIG=
200907191300 METAR MROC 191300Z 10012KT 9999 SCT030 BKN100 22/17 A3003 RMK DZ DST NE VEL MAX VTO 18KT NOSIG=
200907191400 METAR MROC 191400Z 10010KT 9999 SCT040 BKN110 23/17 A3004 RMK DZ DST NE E VEL MAX VTO 16KT NOSIG=
200907191500 METAR MROC 191500Z 11011KT CAVOK 24/18 A3004 RMK SCT120 BKN220 DZ DST NE E VEL MAX VTO 18KT NOSIG=
200907191600 METAR MROC 191600Z 10013KT CAVOK 24/18 A3005 RMK TRACE SC SCT120 BKN200 DZ DST NE E NOSIG=
200907191700 METAR MROC 191700Z 11011KT 9999 FEW045 SCT120 BKN220 25/17 A3004 RMK VEL MAX VTO 17KT NOSIG=
200907191800 METAR MROC 191800Z 11012KT CAVOK 25/18 A3002 RMK TRACE SC SCT120 BKN220 DZ DST NE VEL MAX VTO 19KT NOSIG=
200907191900 METAR MROC 191900Z 11012KT 9999 FEW035 BKN220 25/19 A3000 RMK FEW120 TCU DST SSW DZ DST NE NOSIG=
200907192000 METAR MROC 192000Z 11010KT 9999 FEW040 BKN250 27/18 A2997 RMK CB DIST SW TRACE AC NOSIG=
200907192100 METAR MROC 192100Z 11011KT 9999 FEW030 BKN250 26/18 A2999 RMK FEW120 CB S SW NOSIG=
200907192200 METAR MROC 192200Z 11007KT 9999 FEW030 SCT130 BKN250 25/17 A2998 NOSIG=
200907192300 METAR MROC 192300Z 12005KT 9999 FEW030 BKN130 24/17 A2998 NOSIG=
200907200000 METAR MROC 200000Z 09004KT 9999 FEW030 BKN130 23/17 A3000 NOSIG=
200907200100 METAR MROC 200100Z 09004KT CAVOK 23/16 A3001 RMK TRACE SC OVC130 NOSIG=
200907200200 METAR MROC 200200Z 09009KT CAVOK 22/17 A3000 RMK TRACE SCT BKN130 SCT250 NOSIG=
200907200300 METAR MROC 200300Z 11008KT CAVOK 22/17 A3002 RMK TRACE SC BKN130 VEL MAX 14KT NOSIG=
200907200400 METAR MROC 200400Z 08006KT CAVOK 22/16 A3002 RMK TRACE SC BKN130 NOSIG=
200907200500 METAR MROC 200500Z 04006KT CAVOK 22/16 A3003 RMK TRACE SC BKN130 SCT250=
200907200600 METAR MROC 200600Z 07004KT CAVOK 22/16 A2999 RMK TRACE SC SCT140 SCT250 NOSIG=
200907200700 METAR MROC 200700Z 07005KT CAVOK 21/16 A2998 RMK TRACE SC SCT140 SCT250 NOSIG=
200907200800 METAR MROC 200800Z 06005KT CAVOK 22/16 A2996 RMK TRACE SC SCT140 SCT250=
200907200900 METAR MROC 200900Z 08004KT CAVOK 21/17 A2997 RMK TRACE SC SCT140 SCT250=
200907201000 METAR MROC 201000Z 08007KT CAVOK 21/17 A2996 RMK TRACE SC FEW140 SCT250 NOSIG=
200907201100 METAR MROC 201100Z 05008KT CAVOK 20/16 A2996 RMK SCT250 CB LTNG DST S NOSIG=
200907201200 METAR MROC 201200Z 06007KT CAVOK 21/16 A2998 RMK TRACE SC AC BKN250 CB DST S NOSIG=
200907201300 METAR MROC 201300Z 06008KT CAVOK 23/17 A2998 RMK TRAZAS SCT/AC BKN250 CB NE S NOSIG=
200907201400 METAR MROC 201400Z 10004KT 9999 -RA FEW030 BKN250 22/17 A3000 RMK FEW120 NOSIG=
200907201500 METAR MROC 201500Z 11009KT 9999 FEW030 BKN280 26/17 A3000 RERA RMK FEW130 DZ N NE NOSIG=
200907201600 METAR MROC NIL=
200907201700 METAR MROC 201700Z 11010KT 9999 SCT030 BKN280 28/18 A2999 NOSIG=
200907201800 METAR MROC 201800Z 09009KT 9999 SCT040 BKN280 28/18 A2998 NOSIG=
200907201900 METAR MROC 201900Z 10011KT 9999 FEW030 BKN045 26/18 A2997 RMK DZ NE E NOSIG=
200907202000 METAR MROC 202000Z 13011KT 9999 FEW030 SCT045 BKN250 25/18 A2996 RMK DZ NE E NOSIG=
200907202100 METAR MROC 202100Z 10014KT 9999 FEW040 SCT120 BKN250 24/16 A2994 RMK DZ NE E CB DST SW RAFAGAS DE 20KT NOSIG=
200907202200 METAR MROC 202200Z 10013KT 9999 FEW040 SCT120 BKN250 23/17 A2994 RMK DZ N NE RAFAGAS 18KT NOSIG=
200907202300 METAR MROC 202300Z 10012KT 9999 FEW040 BKN120 22/17 A2996 RMK DZ NE RAFAGAS 16KT SCT250 NOSIG=
200907210000 METAR MROC 210000Z 11010KT CAVOK 22/16 A2997 RMK TRACE SC BKN120 NOSIG=
200907210100 METAR MROC 210100Z 10008KT CAVOK 23/15 A3000 RMK TRACE SC BKN120 NOSIG=
200907210200 METAR MROC 210200Z 11007KT CAVOK 23/15 A3000 RMK TRACE SC BKN120 NOSIG=
200907210300 METAR MROC 210300Z 11004KT CAVOK 23/15 A3002 RMK SCT120 BKN220 NOSIG=
200907210400 METAR MROC 210400Z 02004KT CAVOK 22/14 A3003 RMK FEW110 SCT230 NOSIG=
200907210500 METAR MROC 210500Z 00000KT 9999 FEW012 BKN120 20/19 A3004 NOSIG=
200907210600 METAR MROC 210600Z 18005KT CAVOK 20/19 A3004 RMK TRACE SC SCT140 NOSIG=
200907210700 METAR MROC 210700Z 05009KT CAVOK 20/18 A3000 RMK TRACE SC BKN150 NOSIG=
200907210800 METAR MROC 210800Z 06004KT CAVOK 20/17 A2998 RMK FEW100 BKN150 NOSIG=
200907210900 METAR MROC 210900Z VRB03KT CAVOK 19/17 A2998 RMK TRACE SC SCT100 SCT150 NOSIG=
200907211000 METAR MROC 211000Z 02003KT CAVOK 19/16 A2999 RMK FEW100 SCT220 NOSIG=
200907211100 METAR MROC 211100Z 08005KT CAVOK 18/16 A2998 RMK TRACE SC FEW100 FEW220 NOSIG=
200907211200 METAR MROC 211200Z 07005KT CAVOK 20/15 A2998 RMK FEW100 SCT250 TCU DST SSW NOSIG=
200907211300 METAR MROC 211300Z 07007KT CAVOK 23/16 A3000 RMK FEW120 BKN250 NOSIG=
200907211400 METAR MROC 211400Z 07005KT CAVOK 25/16 A3000 RMK TRACE SC BKN250 NOSIG=
200907211500 METAR MROC 211500Z 24006KT CAVOK 25/17 A3002 RMK TRACE SC BKN250 NOSIG=
200907211600 METAR MROC 211600Z 24005KT 9999 FEW040 BKN250 26/17 A3003 NOSIG=
200907211700 METAR MROC 211700Z 23003KT 9999 FEW040 BKN250 27/20 A3003 NOSIG=
200907211800 METAR MROC 211800Z 22008KT 9999 SCT030 BKN250 26/20 A3000 NOSIG=
200907211900 METAR MROC 211900Z 24011KT 9999 FEW015TCU SCT030 SCT250 27/20 A2999 RMK RN SW NE BECMG 8000 VCSH=
200907212000 METAR MROC 212000Z 24008KT 9999 SCT030 SCT250 25/21 A2998 RMK RN NE SW BECMG 8000 VCSH=
200907212100 METAR MROC 212100Z 24007KT 9999 SCT020TCU BKN120 24/21 A2998 RMK RN DST N NE BECMG 7000 VCSH=
200907212200 METAR MROC 212200Z 28004KT 9999 4000NE VCSH SCT015 OVC100 21/20 A2997 NOSIG=
200907212300 METAR MROC 212300Z 21003KT 9999 SCT020 OVC100 21/20 A2999 RERA NOSIG=
200907220000 METAR MROC 220000Z 23002KT 9999 SCT030 OVC120 21/20 A2999 NOSIG=
200907220100 METAR MROC 220100Z 21002KT 9999 SCT030 OVC120 21/20 A3001 NOSIG=
200907220200 METAR MROC 220200Z 25002KT 9999 SCT030 BKN120 21/19 A3003 NOSIG=
200907220300 METAR MROC 220300Z 00000KT 9999 BKN045 20/20 A3006 RMK LTNG DST N BECMG 8000 VCFG=
200907220400 METAR MROC 220400Z 00000KT 9999 -RA SCT020 SCT045 20/20 A3008 NOSIG=
200907220500 METAR MROC 220500Z 00000KT 9999 RA SCT020 BKN040 20/20 A3009 BECMG 6000 -RA VCFG=
200907220600 METAR MROC 220600Z 02003KT 9999 FEW020 BKN080 20/20 A3005 RERA NOSIG=
200907220700 METAR MROC 220700Z 09003KT 9999 FEW035 BKN080 20/20 A3004 NOSIG=
200907220800 METAR MROC 220800Z 08004KT 9999 +DZ FEW030 BKN100 20/19 A2997 NOSIG=
200907220900 METAR MROC 220900Z 08007KT CAVOK 20/19 A2997 RMK TRACE SC BKN120 NOSIG=
200907221000 METAR MROC 221000Z 35003KT CAVOK 20/19 A2997 RMK TRACE SC SCT130 BECMG 7000 VCFG=
200907221100 METAR MROC 221100Z 21004KT 9999 VCFG FEW002 SCT080 BKN250 19/19 A2999 RMK VSBY NW 6KM NOSIG=
200907221200 METAR MROC 221200Z 04004KT CAVOK 19/19 A3000 RMK TRACE SCT BKN120 CB DST S NOSIG=
200907221300 METAR MROC 221300Z 05007KT 9999 FEW030 BKN110 22/19 A3002 NOSIG=
200907221400 METAR MROC 221400Z 13004KT 9999 FEW030 BKN110 23/19 A3003 BECMG 24006KT=
200907221500 METAR MROC 221500Z 10006KT 9999 FEW030 BKN110 26/19 A3004 NOSIG=
200907221600 METAR MROC 221600Z 12006KT 9999 SCT030 BKN250 27/20 A3002 RMK TRACE AC NOSIG=
200907221700 METAR MROC 221700Z 13008KT 9999 SCT030 BKN250 23/20 A3003 NOSIG=
200907221800 METAR MROC 221800Z 24011KT 9999 SCT030 BKN250 26/22 A3002 NOSIG=
200907221900 METAR MROC 221900Z 24008KT 9999 SCT020TCU BKN250 25/22 A3000 RMK RN N NE E NOSIG=
200907222000 METAR MROC 222000Z 26010KT 9999 VCSH SCT012TCU BKN025 24/22 A3000 RMK RN DST N NE E HZ ARND BECMG SHRA=
200907222100 METAR MROC 222100Z 25007KT 9999 FEW010 SCT017TCU BKN250 24/22 A2998 RMK HZY BECMG -RA=
200907222200 METAR MROC 222200Z 25008KT 9999 FEW007 SCT015TCU BKN025 23/22 A2997 RMK HZY BECMG 7000 RA VCFG=
200907222300 METAR MROC 222300Z 24005KT 9999 FEW006 SCT012 BKN025 23/22 A2998 RMK HZY PCPN DST S BECMG 7000 RA VCFG=
200907230000 METAR MROC 230000Z 23005KT 4000 -DZ BR SCT002 BKN010 22/20 A3000 BECMG 6000 RA VCFG=
200907230100 METAR MROC 230100Z 24005KT 1500 R07/0400 BR SCT002 BKN004 21/21 A3001 BECMG 4000 RA=
200907230200 METAR MROC 230200Z 00000KT 4000 DZ BR FEW001 SCT004 BKN010 21/21 A3002 BECMG 5000 RA=
200907230201 METAR MROC 230201Z COR 00000KT 4000 DZ BR FEW001 SCT004 BKN010 21/21 A3002 RERA BECMG 5000 RA=
200907230300 METAR MROC 230300Z 00000KT 4000 BR FEW001 SCT004 BKN010 21/21 A3004 REDZ BECMG 6000 VCFG=
200907230400 METAR MROC 230400Z 23002KT 4000 BR FEW001 SCT004 BKN010 21/21 A3003 BECMG 6000 VCFG=
200907230500 METAR MROC 230500Z 00000KT 3000 R07/0300 BR FEW001 SCT004 SCT010 20/20 A3004 RMK VIS S UNL BECMG 6000 VCFG=
200907230600 METAR MROC 230600Z 00000KT 8000 2000SW BR FEW001 SCT008 SCT020 20/20 A3004 BECMG 9999=
200907230700 METAR MROC 230700Z 05004KT 9999 4000SW BR FEW001 SCT020 20/20 A3001 BECMG CAVOK=
200907230800 METAR MROC 230800Z 05003KT 9999 FEW035 SCT250 19/19 A2998 BECMG CAVOK=
200907230900 METAR MROC 230900Z 06002KT 9999 FEW035 SCT250 20/19 A2998 BECMG CAVOK=
200907231000 METAR MROC 231000Z 04007KT CAVOK 19/18 A2998 RMK TRACE SC SCT250 NOSIG=
200907231100 METAR MROC 231100Z 04007KT CAVOK 20/18 A2999 RMK TRACE SC SCT250 NOSIG=
200907231200 METAR MROC 231200Z 06006KT 9999 FEW035 SCT250 20/18 A2999 RMK TCU CB DST S SW NOSIG=
200907231300 METAR MROC 231300Z 11007KT 9999 FEW035 SCT120 22/18 A2999 RMK TRACE CI CB DST S SSW NOSIG=
200907231400 METAR MROC 231400Z 11006KT 9999 FEW035 BKN100 23/18 A3000 RMK CB TCU DST S SSW NOSIG=
200907231500 METAR MROC 231500Z 12007KT 9999 FEW035 BKN120 24/18 A3002 RMK CB DST SSW NOSIG=
200907231600 METAR MROC 231600Z 13006KT 9999 FEW035 BKN120 26/19 A3001 RMK CB DST SE S NOSIG=
200907231700 METAR MROC 231700Z 23009KT 9999 FEW020 SCT030 BKN070 24/21 A3003 RMK RN DST E BECMG -RA=
200907231800 METAR MROC 231800Z 13002KT 9999 FEW030 SCT100 BKN250 25/21 A3000 RERA RMK RN DST ESE CB DST S BECMG -RA=
200907231900 METAR MROC 231900Z 30005KT 9999 SCT030 BKN250 26/22 A2996 RMK LGT HZ ARND NOSIG=
200907232000 METAR MROC 232000Z 30004KT 9999 FEW030 SCT040 BKN250 28/21 A2994 RMK LGT HZ ARND NOSIG=
200907232100 METAR MROC 232100Z 10006KT 9999 SCT040 BKN250 27/19 A2992 NOSIG=
200907232200 METAR MROC 232200Z 08006KT 9999 SCT035 SCT250 27/18 A2992 RMK FEW120 NOSIG=
200907232300 METAR MROC 232300Z 12004KT 9999 BKN030 26/18 A2994 RMK RN DST S SE NOSIG=
200907240000 METAR MROC 240000Z 21006KT 9999 VCFG FEW003 SCT030 SCT250 23/22 A2996 RMK 6000 W NW N BECMG 5000 BR=
200907240100 METAR MROC 240100Z 28003KT 9999 VCFG FEW012 SCT025 22/22 A2998 RMK VIS 7000 NE SW NOSIG=
200907240200 METAR MROC 240200Z 35004KT 9999 VCFG SCT025 22/21 A2999 NOSIG=
200907240300 METAR MROC 240300Z 10005KT 9999 SCT025 22/19 A2999 NOSIG=
200907240400 METAR MROC 240400Z 09005KT 9999 FEW025 22/18 A3001 NOSIG=
200907240500 METAR MROC 240500Z 09005KT 9999 FEW025 22/18 A2999 NOSIG=
200907240600 METAR MROC 240600Z 10006KT 9999 FEW025 23/18 A2997 NOSIG=
200907240700 METAR MROC 240700Z 08010KT 9999 FEW025 23/18 A2995 NOSIG=
200907240800 METAR MROC 240800Z 10005KT 9999 FEW030 22/18 A2994 NOSIG=
200907240900 METAR MROC 240900Z 11007KT 9999 FEW030 SCT260 22/18 A2994 NOSIG=
200907241000 METAR MROC 241000Z 09009KT 9999 SCT030 SCT260 23/18 A2994 NOSIG=
200907241100 METAR MROC 241100Z 01002KT 9999 FEW030 SCT260 20/18 A2994 RMK CB DST NE CB/LTNG DST S NOSIG=
200907241200 METAR MROC 241200Z 05003KT 9999 SCT030 20/18 A2997 RMK TRACE CI CB DST S NOSIG=
200907241300 METAR MROC 241300Z 11006KT 9999 FEW035 SCT250 22/18 A2998 RMK TCU DST SW S DZ DST NE E NOSIG=
200907241400 METAR MROC 241400Z 07004KT 9999 FEW030 SCT250 23/18 A2998 RMK DZ DST NE CB DST NE TCU DST NW NOSIG=
200907241500 METAR MROC 241500Z 06002KT 9999 FEW025 SCT035 SCT250 26/19 A3000 RMK DZ DST NE BECMG 24006KT=
200907241600 METAR MROC 241600Z 10007KT 9999 SCT035 SCT250 26/18 A3000 RMK DZ DST NE E NOSIG=
200907241700 METAR MROC 241700Z 09006KT 9999 -RA FEW030 BKN090 24/19 A3000 RMK VEL MAX VTO 14KT RN NE E NOSIG=
200907241800 METAR MROC 241800Z 08006KT 9999 FEW030 SCT090 SCT250 27/18 A2997 RERA RMK DZ DST NE E NOSIG=
200907241900 METAR MROC 241900Z 10004KT 9999 FEW030 BKN100 26/18 A2995 RMK FEW250 NOSIG=
200907242000 METAR MROC 242000Z 09007KT 9999 FEW040 BKN250 28/18 A2992 RMK TRACE AC VEL/MAX/VTO 15KT NOSIG=
200907242100 METAR MROC 242100Z 13006KT 9999 FEW040 SCT120 BKN250 27/18 A2992 BECMG 24006=
200907242125 METAR MROC 242125Z 23007KT 9999 FEW012 SCT045 BKN120 26/22 A2993 RMK RN N NE NOSIG=
200907242200 METAR MROC 242200Z 26004KT 9999 -RA FEW012 BKN045 25/22 A2993 NOSIG=
200907242300 METAR MROC 242300Z 24006KT 9999 VCFG FEW010 BKN045 24/23 A2994 RERA RMK VSBY NW N 5KM CB DST NW SW BECMG 5000 -RA BR=
200907250000 METAR MROC 250000Z 26005KT 4000 -RA BR FEW005 BKN045 22/22 A2997 RMK VSBY E UNL VSBY N 2500MTS NOSIG=
200907250100 METAR MROC 250100Z 24003KT 5000 BR SCT004 SCT010 21/21 A2996 NOSIG=
200907250200 METAR MROC 250200Z 26004KT 5000 BR SCT003 SCT012 21/21 A2999 BECMG 2000 BR=
200907250300 METAR MROC 250300Z 30002KT 8000 VCFG BR FEW004 SCT010 BKN020 21/21 A3001 RMK VIS S SW 4KMS LTNG DST S NOSIG=
200907250400 METAR MROC 250400Z 00000KT 9999 VCFG FEW010 SCT020 BKN150 21/21 A3001 RMK VIS S SSW 7KMS LTNG DST SW NOSIG=
200907250500 METAR MROC 250500Z 02003KT 9999 -RA FEW025 SCT090 BKN150 21/21 A3002 RMK LTNG DST SW NOSIG=
200907250600 METAR MROC 250600Z 00000KT 9999 VCFG FEW030 SCT150 BKN250 20/20 A2999 RMK VIS S SW 8KMS LTNG DST SW NOSIG=
200907250700 METAR MROC 250700Z 28003KT 9999 FEW030 BKN250 20/20 A2997 RMK VIS S SW 8KMS LTNG DST SSW NOSIG=
200907250800 METAR MROC 250800Z 00000KT 9999 VCFG FEW008 SCT120 BKN250 20/20 A2997 RMK LOW ST NEAR APCH RNY 07 VIS S SW 8KMS LTNG DST SW NOSIG=
200907250900 METAR MROC 250900Z 34002KT 9999 VCFG FEW005 SCT010 BKN150 20/20 A2998 RMK VIS S SW 8KMS NOSIG=
200907251000 METAR MROC 251000Z 07003KT 9999 FEW020 SCT150 BKN250 20/19 A2997 RMK TRACE LOW ST S SW NOSIG=
200907251100 METAR MROC 251100Z 09004KT 9999 FEW020 SCT250 19/18 A2997 NOSIG=
200907251200 METAR MROC 251200Z 04005KT CAVOK 19/18 A2997 RMK TRACE SC FEW140 BKN250 TCU DST SW NOSIG=
200907251300 METAR MROC 251300Z 07003KT CAVOK 20/18 A2999 RMK TCU DST SW TRACE SC FEW140 BKN250=
200907251400 METAR MROC 251400Z 02003KT CAVOK 22/19 A3000 RMK TRACE SCT FEW140 BKN250 CB DST S BECMG 24006=
200907251500 METAR MROC 251500Z 13002KT CAVOK 22/20 A3001 RMK TRACE SCT FEW140 BKN250 CB SW NOSIG=
200907251510 METAR MROC 251510Z 27003KT CAVOK 22/19 A3000 RMK TRACE SCT FEW130 BKN250 CB SW NOSIG=
200907251600 METAR MROC 251600Z 10007KT CAVOK 23/19 A3000 RMK SCT140 BKN250 TRACE SCT NOSIG=
200907251700 METAR MROC 251700Z 10007KT CAVOK 25/19 A2997 RMK TRACE SCT SCT140 BKN250 NOSIG=
200907251800 METAR MROC 251800Z 14005KT CAVOK 26/20 A2996 RMK TRACE SCT SCT140 BKN250 BECMG 24006=
200907251900 METAR MROC 251900Z 24006KT 9999 FEW035 SCT130 BKN250 26/22 A2996 NOSIG=
200907252000 METAR MROC 252000Z 23008KT 9999 SCT035 BKN250 25/22 A2996 NOSIG=
200907252100 METAR MROC 252100Z 25009KT 9999 SCT035 BKN250 25/22 A2995 NOSIG=
200907252200 METAR MROC 252200Z 24007KT 9999 -RA FEW010 SCT030 SCT250 23/22 A2996 BECMG 7000 VCFG=
200907252300 METAR MROC 252300Z 26007KT 5000 BR FEW001 SCT010 BKN030 22/22 A2999 BECMG 2000 BR=
200907260000 METAR MROC 260000Z 29006KT 8000 VCFG FEW002 SCT010 BKN030 21/21 A3002 NOSIG=
200907260100 METAR MROC 260100Z 33002KT 9999 FEW010 SCT030 BKN100 21/21 A3003 NOSIG=
200907260200 METAR MROC 260200Z 02003KT 9999 FEW010 SCT030 BKN100 21/21 A3005 NOSIG=
200907260300 METAR MROC 260300Z 12002KT 9999 FEW030 SCT100 SCT250 20/20 A3005 RMK TRACE ST NOSIG=
200907260400 METAR MROC 260400Z 06004KT CAVOK 21/20 A3004 RMK TRACE SC SCT140 NOSIG=
200907260500 METAR MROC 260500Z 10007KT CAVOK 22/18 A3003 RMK TRACE SC SCT150 NOSIG=
200907260600 METAR MROC 260600Z 11008KT CAVOK 23/18 A3002 RMK TRACE SC FEW150 NOSIG=
200907260700 METAR MROC 260700Z 10009KT CAVOK 22/18 A3000 RMK TRACE SC FEW140 NOSIG=
200907260800 METAR MROC 260800Z 09008KT CAVOK 22/18 A2999 RMK TRACE SC SCT120 NOSIG=
200907260900 METAR MROC 260900Z 09004KT CAVOK 22/18 A2999 RMK TRACE SC SCT120 NOSIG=
200907261000 METAR MROC 261000Z 00000KT CAVOK 21/18 A3001 RMK TRACE SC SCT120 NOSIG=
200907261100 METAR MROC 261100Z 06006KT CAVOK 21/18 A3000 RMK TRACE SC FEW120 FEW250 NOSIG=
200907261200 METAR MROC 261200Z 07005KT CAVOK 21/17 A3001 RMK TRACE SC AC SCT250 NOSIG=
200907261300 METAR MROC 261300Z 08002KT CAVOK 24/18 A3002 RMK TRACE SC BKN250 NOSIG=
200907261400 METAR MROC 261400Z 12008KT CAVOK 26/18 A3003 RMK TRACE SC BKN250 NOSIG=
200907261500 METAR MROC 261500Z 09008KT 9999 FEW040 BKN250 27/18 A3003 NOSIG=
200907261600 METAR MROC 261600Z 07011KT 9999 FEW040 BKN250 28/18 A3004 NOSIG=
200907261700 METAR MROC 261700Z 07015KT 9999 SCT030 BKN250 28/18 A3001 NOSIG=
200907261800 METAR MROC 261800Z 06017KT 9999 SCT030 SCT250 29/18 A3000 NOSIG=
200907261900 METAR MROC 261900Z 08010KT 9999 SCT030 SCT250 30/19 A2998 RMK RAFAGAS 14KT NOSIG=
200907262000 METAR MROC 262000Z 07011KT 9999 SCT030 SCT070 27/19 A2997 RMK RN S TRACE CI NOSIG=
200907262100 METAR MROC 262100Z 09006KT 9999 SCT030 BKN120 26/18 A2996 RMK RN N NE NOSIG=
200907262200 METAR MROC 262200Z 07010KT 9999 SCT030 BKN250 25/19 A2995 RMK RN N NE TRACE AC NOSIG=
200907262300 METAR MROC 262300Z 09009KT 9999 SCT030 SCT140 25/18 A2996 RMK RN N NE TRACE CI NOSIG=
200907270000 METAR MROC 270000Z 11006KT 9999 SCT030 BKN150 24/19 A2997 RMK RN N NE NOSIG=
200907270100 METAR MROC 270100Z 11008KT 9999 SCT030 BKN150 23/20 A2999 NOSIG=
200907270200 METAR MROC 270200Z 07007KT 9999 SCT030 BKN150 23/19 A3001 NOSIG=
200907270300 METAR MROC 270300Z 07006KT 9999 -RA SCT040 SCT250 22/21 A3000 NOSIG=
200907270400 METAR MROC 270400Z 14004KT 9999 FEW025 SCT040 BKN250 22/20 A3001 RERA NOSIG=
200907270500 METAR MROC 270500Z 07004KT 9999 FEW030 BKN250 22/20 A3001 NOSIG=
200907270600 METAR MROC 270600Z 10006KT 9999 FEW025 SCT040 BKN250 23/19 A3000 NOSIG=
200907270700 METAR MROC 270700Z 10007KT 9999 SCT040 BKN250 22/19 A2999 NOSIG=
200907270800 METAR MROC 270800Z 09007KT CAVOK 23/18 A2998 RMK TRACE SC FEW075 FEW140=
200907270900 METAR MROC 270900Z 08010KT CAVOK 23/17 A2996 RMK TRACE SC/CI NOSIG=
200907271000 METAR MROC 271000Z 07017KT CAVOK 23/16 A2995 RMK TRACE SC/CI VEL MAX VTO 25KT NOSIG=
200907271100 METAR MROC 271100Z 07008KT CAVOK 22/17 A2998 RMK TRACE SCT CI CB DST S NOSIG=
200907271200 METAR MROC NIL=
200907271300 METAR MROC 271300Z 08012KT 9999 FEW030 24/16 A3000 RMK DZ N NE NOSIG=
200907271400 METAR MROC 271400Z 08012KT 9999 FEW030 25/17 A3002 RMK DZ N NE NOSIG=
200907271500 METAR MROC 271500Z 07015KT 9999 FEW030 26/16 A3003 RMK DZ N NE VL MX VTO 23KT NOSIG=
200907271600 METAR MROC 271600Z 07015KT 9999 FEW030 27/15 A3002 RMK VL MX VTO 22KT NOSIG=
200907271700 METAR MROC 271700Z 08014KT 9999 FEW030 27/14 A3000 NOSIG=
200907271800 METAR MROC 271800Z 07014KT 9999 FEW030 SCT300 28/16 A2999 NOSIG=
200907271900 METAR MROC 271900Z 07013KT 9999 FEW030 SCT270 28/16 A2996 NOSIG=
200907272000 METAR MROC 272000Z 06015G25KT 9999 FEW030 BKN270 28/16 A2995 NOSIG=
200907272100 METAR MROC 272100Z 07014KT 9999 FEW030 BKN250 28/16 A2993 RMK VEL MAX VTO 19KT NOSIG=
200907272200 METAR MROC 272200Z 08011KT 9999 SCT030 BKN250 27/18 A2993 RMK VEL MAX VTO 18KT DZ DST NE NOSIG=
200907272300 METAR MROC 272300Z 06014KT 9999 FEW030 BKN250 26/16 A2994 RMK VEL MAX VTO 22KT NOSIG=
200907280000 METAR MROC 280000Z 07010KT 9999 FEW030 BKN250 24/15 A2996 RMK VEL MAX VTO 16KT NOSIG=
200907280100 METAR MROC 280100Z 08006KT CAVOK 23/16 A2997 RMK TRACE SC BKN250 VEL MAX VTO 10KT NOSIG=
200907280200 METAR MROC 280200Z 08008KT CAVOK 23/17 A2999 RMK TRACE SC BKN250 VEL MX VTO 14KT NOSIG=
200907280300 METAR MROC 280300Z 07010KT CAVOK 23/16 A3000 RMK BKN250 NOSIG=
200907280400 METAR MROC NIL=
200907280500 METAR MROC 280500Z 10007KT CAVOK 21/16 A2999 RMK TRACE SC BKN250 NOSIG=
200907280600 METAR MROC 280600Z 10010KT CAVOK 22/16 A2998 RMK TRACE SC BKN250 NOSIG=
200907280700 METAR MROC 280700Z 09012KT CAVOK 22/16 A2994 NOSIG=
200907280800 METAR MROC 280800Z 09014KT CAVOK 22/16 A2992 NOSIG=
200907280900 METAR MROC 280900Z 09013KT CAVOK 23/14 A2992 NOSIG=
200907281000 METAR MROC 281000Z 10008KT CAVOK 21/15 A2993 NOSIG=
200907281100 METAR MROC 281100Z 05005KT CAVOK 20/15 A2994 NOSIG=
200907281200 METAR MROC 281200Z 06008KT CAVOK 21/16 A2995 RMK TRACE SC BKN250 TCU DST S NOSIG=
200907281300 METAR MROC 281300Z 11009KT CAVOK 22/17 A2996 RMK TRACE SC BKN250 VEL MAX VTO 14KT NOSIG=
200907281400 METAR MROC 281400Z 11010KT CAVOK 25/16 A2996 RMK TRACE SC BKN250 VEL MAX VTO 15KT CB DST SSW NOSIG=
200907281500 METAR MROC 281500Z 12011KT CAVOK 26/16 A2998 RMK TRACE SC BKN250 CB DST S VEL MAX VTO 19KT NOSIG=
200907281600 METAR MROC 281600Z 09010KT 9999 FEW035 BKN280 28/17 A2997 RMK VEL MAX VTO 15KT NOSIG=
200907281700 METAR MROC 281700Z 08010KT 9999 FEW035 BKN300 29/18 A2996 RMK VEL MAX VTO 15KT NOSIG=
200907281800 METAR MROC 281800Z 10009KT 9999 FEW035 SCT300 29/18 A2994 RMK VEL MAX VTO 15KT NOSIG=
200907281900 METAR MROC 281900Z 07012KT 9999 FEW035 SCT300 29/18 A2992 RMK VEL MAX VTO 18KT NOSIG=
200907282000 METAR MROC 282000Z 08008KT 9999 FEW035 BKN270 29/17 A2991 RMK VEL MAX VTO 16KT NOSIG=
200907282100 METAR MROC 282100Z 11006KT 9999 FEW035 BKN250 29/18 A2989 NOSIG=
200907282200 METAR MROC 282200Z 15006KT 9999 FEW030 BKN250 28/18 A2990 NOSIG=
200907282300 METAR MROC 282300Z 22008KT 9999 FEW030 SCT120 BKN250 25/22 A2992 NOSIG=
200907290000 METAR MROC 290000Z 26008KT 9999 FEW025 BKN250 23/23 A2993 RMK TRACE AC BECMG 5000 BR=
200907290100 METAR MROC 290100Z 26005KT 9999 FEW005 BKN015 22/22 A2996 BECMG 7000=
200907290200 METAR MROC 290200Z 32002KT 9999 FEW006 SCT012 22/22 A2998 BECMG 7000=
200907290300 METAR MROC 290300Z 01004KT 9999 SCT020 22/22 A2998 NOSIG=
200907290400 METAR MROC 290400Z 06002KT 9999 SCT020 22/19 A2995 NOSIG=
200907290500 METAR MROC 290500Z 10005KT 9999 FEW025 23/18 A2999 NOSIG=
200907290600 METAR MROC 290600Z 08005KT CAVOK 23/18 A2997 RMK TRACE SC TS DST S NOSIG=
200907290700 METAR MROC 290700Z 25002KT CAVOK 21/18 A2997 RMK TRACE SC TS DST W NOSIG=
200907290800 METAR MROC 290800Z 06004KT CAVOK 22/17 A2994 RMK SCT110 NOSIG=
200907290900 METAR MROC 290900Z 08006KT 9999 FEW030 SCT110 22/17 A2994 NOSIG=
200907291000 METAR MROC 291000Z 09005KT CAVOK 22/17 A2992 RMK FEW110 SCT260 CB/LTNG DST SW NOSIG=
200907291100 METAR MROC 291100Z 12007KT CAVOK 22/18 A2993 RMK SCT260 CB/LTNG DST SW NOSIG=
200907291200 METAR MROC 291200Z 36002KT 9999 SCT030 BKN250 21/18 A2997 RMK TCU DST SW NOSIG=
200907291300 METAR MROC 291300Z 03007KT 9999 SCT035 22/18 A2997 RMK FEW250 CB DST SW NOSIG=
200907291400 METAR MROC 291400Z 12005KT 9999 FEW035 SCT250 25/19 A2997 RMK CB DST SW NOSIG=
200907291500 METAR MROC 291500Z 11008KT 9999 FEW035 SCT250 27/19 A2996 RMK CB DST SW NOSIG=
200907291600 METAR MROC 291600Z 08008KT 9999 SCT035 29/18 A2997 RMK FEW250 NOSIG=
200907291700 METAR MROC 291700Z 10007KT 9999 SCT035 SCT250 29/18 A2995 RMK TCU DST SW NOSIG=
200907291800 METAR MROC 291800Z 12007KT 9999 SCT030 BKN120 29/18 A2995 RMK RN DST NE/E BECMG 6000 -RA=
200907291900 METAR MROC 291900Z 02009KT 9999 4000W SCT030 BKN100 24/22 A2993 RMK CB DST W/NW RERA BECMG 24008KT=
200907292000 METAR MROC 292000Z 28008KT 9999 SCT030 BKN110 27/20 A2991 RMK CB AND RASH SW W TCU DIST NE NOSIG=
200907292100 METAR MROC 292100Z 26010KT 6000 VCFG SCT005 SCT025 23/22 A2992 RMK VSBY ESE/SE UNL NOSIG=
200907292200 METAR MROC 292200Z 19002KT 9999 SCT025 BKN250 25/22 A2991 NOSIG=
200907292300 METAR MROC 292300Z 25006KT 9999 FEW030 SCT130 BKN250 24/22 A2993 NOSIG=
200907300000 METAR MROC 300000Z 26004KT 9999 SCT045 OVC250 23/21 A2995 RMK LW ST N NOSIG=
200907300100 METAR MROC 300100Z 01003KT 9999 SCT045 OVC250 22/21 A2996 RMK LTNG S NOSIG=
200907300200 METAR MROC 300200Z 02002KT CAVOK 23/21 A2998 RMK TRAZAS SCT BKN250 NOSIG=
200907300300 METAR MROC 300300Z 00000KT CAVOK 22/21 A2999 RMK TRACE SC OVC170 LGT HZ ARND NOSIG=
200907300400 METAR MROC 300400Z 29002KT CAVOK 22/19 A2999 RMK TRACE SC OVC170 LGT HZ ARND NOSIG=
200907300500 METAR MROC 300500Z 07006KT CAVOK 23/19 A2998 RMK TRACE SC OVC170 NOSIG=
200907300600 METAR MROC 300600Z 04003KT CAVOK 23/18 A2998 RMK TRACE BKN170 SCT250 NOSIG=
200907300700 METAR MROC 300700Z 03005KT CAVOK 22/19 A2996 RMK TRACE SC BKN170 SCT250=
200907300800 METAR MROC 300800Z 05004KT CAVOK 21/18 A2994 RMK TRACE SC BKN170 SCT250 OCNL LTNG DST S NOSIG=
200907300900 METAR MROC 300900Z 36002KT CAVOK 20/19 A2995 RMK TRACE SC SCT140 BKN250 NOSIG=
200907301000 METAR MROC 301000Z 02002KT CAVOK 20/18 A2994 RMK TRACE SC SCT140 BKN250=
200907301100 METAR MROC 301100Z 12003KT CAVOK 19/18 A2996 RMK TRACE SC SCT120 BKN250 NOSIG=
200907301200 METAR MROC 301200Z 02004KT CAVOK 20/18 A2998 RMK TRACE SC BKN120 SCT250 CB TCU DST S NOSIG=
200907301300 METAR MROC 301300Z 06007KT CAVOK 21/18 A2999 RMK TRAZAS SC SCT120 BKN250 NOSIG=
200907301400 METAR MROC 301400Z 17003KT CAVOK 25/19 A3000 RMK TRAZAS SCT FEW130 BKN250 CB/RN NW CB S BECMG 24006=
200907301500 METAR MROC 301500Z 10005KT 9999 FEW025 BKN300 27/19 A3001 RMK FEW130 NOSIG=
200907301600 METAR MROC 301600Z 24007KT 9999 FEW030 BKN045 24/20 A3004 RMK RN N NE BECMG 5000 RA=
200907301700 METAR MROC 301700Z 33002KT 5000 TSRA FEW020CB BKN040 22/21 A3005 RMK VSBY S UNL NOSIG=
200907301800 METAR MROC 301800Z 04004KT 9999 -RA FEW020 BKN120 21/21 A3001 RMK VSBY SW/W/E 6KM NOSIG=
200907301900 METAR MROC 301900Z 11003KT 9999 VCFG FEW004 BKN120 22/21 A3000 RMK VSBY W SW 6KM BECMG 6000 VCFG=
200907302000 METAR MROC 302000Z 25007KT 9999 VCFG FEW006 BKN120 23/22 A2998 RMK VSBY S 6KM RERA BECMG 4000 -RA BR=
200907302100 METAR MROC 302100Z 26005KT 9999 FEW010 BKN120 23/21 A2997 RMK VIS SW 5000MTS DUE ST LOW=
200907302200 METAR MROC 302200Z 23003KT 9999 FEW010 SCT120 SCT250 23/21 A2996 NOSIG=
200907302300 METAR MROC 302300Z 21003KT 9999 FEW010 BKN120 23/22 A2997 NOSIG=
200907310000 METAR MROC 310000Z 27003KT 9999 FEW005 BKN120 22/21 A3000 RMK RN NE E NOSIG=
200907310100 METAR MROC NIL=
200907310200 METAR MROC 310200Z 04002KT 9999 FEW015 BKN120 21/21 A3002 NOSIG=
200907310300 METAR MROC 310300Z 07003KT 9999 -DZ FEW015 BKN090 22/21 A3001 NOSIG=
200907310400 METAR MROC 310400Z 08006KT 9999 FEW020 BKN100 22/20 A3001 REDZ NOSIG=
200907310500 METAR MROC 310500Z 22005KT 9999 FEW015 BKN140 21/20 A3002 NOSIG=
200907310600 METAR MROC 310600Z 20003KT 9999 FEW010 SCT120 21/20 A3003 NOSIG=
200907310700 METAR MROC 310700Z 06004KT CAVOK 20/20 A3003 RMK TRACE SC SCT100 NOSIG=
200907310800 METAR MROC 310800Z 06005KT CAVOK 21/19 A3001 RMK TRACE SC SCT120 NOSIG=
200907310900 METAR MROC 310900Z 06007KT CAVOK 21/18 A2999 RMK TRACE SC SCT120 NOSIG=
200907311000 METAR MROC 311000Z 05006KT CAVOK 21/18 A3000 RMK TRACE SC SCT120 NOSIG=
200907311100 METAR MROC 311100Z 10006KT CAVOK 22/18 A3000 RMK TRACE SC SCT120 SCT250 VEL MAX VTO 12KT NOSIG=
200907311200 METAR MROC 311200Z 07004KT CAVOK 21/17 A3003 RMK FEW120 SCT250 NOSIG=
200907311225 METAR MROC 311225Z 21004KT 9999 FEW015 BKN140 23/22 A2989 RMK FEW280 TCU DST NW HZ LGT ARND=
200907311300 METAR MROC 311300Z 02006KT CAVOK 22/18 A3003 RMK BKN140 NOSIG=
200907311400 METAR MROC 311400Z 10008KT CAVOK 26/18 A3004 RMK TRAZAS AC SCT250 NOSIG=
200907311500 METAR MROC 311500Z 23010KT CAVOK 25/20 A3006 RMK TRAZAS SC/CU SCT250 NOSIG=
200907311600 METAR MROC 311600Z 23006KT CAVOK 26/21 A3005 RMK TRACE SC SCT250 NOSIG=
200907311656 METAR MROC 311656Z 23007KT 9999 FEW030 SCT250 27/20 A3004 NOSIG=
200907311700 METAR MROC 311700Z 23007KT 9999 FEW030 SCT250 27/20 A3004 NOSIG=
200907311800 METAR MROC 311800Z 25011KT 9999 SCT025TCU BKN250 27/21 A3003 NOSIG=
200907311900 METAR MROC 311900Z 24011KT 9999 FEW015CB SCT025 25/20 A3000 RMK TS DST NE BECMG 5000 -TSRA=
200907312000 METAR MROC 312000Z 05003KT 9999 -RA VCSH FEW025 SCT140 BKN250 20/18 A3000 RMK VIS W 8KM NOSIG=
200907312100 METAR MROC 312100Z 08003KT 9999 SCT030 BKN100 22/19 A3000 RMK RN DST W E NOSIG=
200907312200 METAR MROC 312200Z 26004KT 9999 SCT025 BKN100 22/21 A3002 RMK RN DST S NOSIG=
200907312300 METAR MROC 312300Z 01005KT 9999 SCT025 BKN120 22/21 A3002 NOSIG=
200908010000 METAR MROC 010000Z 11002KT 9999 FEW030 BKN130 21/21 A3000 NOSIG=
200908010100 METAR MROC 010100Z 03003KT 9999 FEW3030 BKN150 22/20 A3002 NOSIG=
200908010200 METAR MROC 010200Z 14002KT 9999 FEW030 BKN150 21/20 A3005 NOSIG=
200908010300 METAR MROC 010300Z 30003KT CAVOK 21/21 A3004 RMK TRAZAS SCT FEW120 BKN250 BECMG 6000 VCFG=
200908010400 METAR MROC 010400Z 06006KT CAVOK 22/19 A3004 RMK TRAZAS SCT FEW120 SCT280 NOSIG=
200908010500 METAR MROC 010500Z 09009KT CAVOK 22/18 A3003 RMK TRAZAS SCT SCT120 NOSIG=
200908010600 METAR MROC 010600Z 08008KT CAVOK 23/19 A3001 RMK TRAZAS SCT SCT120 NOSIG=
200908010700 METAR MROC 010700Z 10008KT CAVOK 22/18 A2999 RMK TRAZAS SC BKN130 NOSIG=
200908010800 METAR MROC 010800Z 11006KT CAVOK 22/18 A2998 RMK TRAZAS SC/CI NOSIG=
200908010900 METAR MROC 010900Z 12007KT CAVOK 22/18 A2998 RMK TRAZAS SC/CI NOSIG=
200908011000 METAR MROC 011000Z 11004KT CAVOK 22/18 A2997 RMK TRAZAS SC/CI NOSIG=
200908011100 METAR MROC 011100Z 12006KT CAVOK 21/18 A2998 RMK TRACE SCT SCT280 CB DST S NOSIG=
200908011200 METAR MROC 011200Z 12007KT CAVOK 22/18 A3000 RMK TRACE SCT BKN300 CB DST S NOSIG=
200908011300 METAR MROC 011300Z 11006KT 9999 FEW030 BKN250 23/19 A3002 RMK TRACE AC NOSIG=
200908011400 METAR MROC 011400Z 12006KT 9999 SCT030 BKN250 25/20 A3003 RMK TRACE AC NOSIG=
200908011500 METAR MROC 011500Z 09006KT 9999 FEW035 BKN250 26/18 A3003 RMK TRACE AC NOSIG=
200908011600 METAR MROC 011600Z 07008KT 9999 FEW035 BKN250 28/18 A3002 NOSIG=
200908011700 METAR MROC 011700Z 06003KT 9999 SCT035 BKN270 29/19 A3001 RMK DZ N NE NOSIG=
200908011800 METAR MROC 011800Z 06006KT 9999 SCT035 SCT270 28/19 A3000 RMK PCPN NE TCU S NOSIG=
200908011900 METAR MROC 011900Z 23005KT 9999 SCT030 SCT270 28/22 A2997 RMK CB DST N TCU S NOSIG=
200908012000 METAR MROC 012000Z 23010KT 9999 SCT030 BKN270 27/23 A2995 RMK CB RASH DST NW NOSIG=
200908012100 METAR MROC 012100Z 23010KT 9999 VCFG FEW004 SCT012 BKN250 24/23 A2995 RMK VIS SW 6KMS BECMG 4000 BR=
200908012200 METAR MROC 012200Z 24007KT 9999 VCFG SCT006 SCT012 23/22 A2994 RMK VIS NW N 7KMS BECMG 4000 BR=
200908012300 METAR MROC 012300Z 26004KT 9999 VCFG FEW006 SCT035 BKN250 23/22 A2995 RMK VIS N NE 8KMS BECMG 7000=
200908020000 METAR MROC 020000Z 28004KT 9999 VCFG FEW010 SCT035 BKN250 22/22 A2997 RMK VIS N NE 8KMS NOSIG=
200908020100 METAR MROC 020100Z 00000KT 9999 FEW035 SCT080 BKN250 22/21 A2998 NOSIG=
200908020200 METAR MROC 020200Z 18003KT 9999 FEW035 BKN070 22/20 A2998 BECMG 08006KT=
200908020300 METAR MROC 020300Z 08006KT 9999 FEW035 BKN070 23/19 A2997 BECMG CAVOK=
200908020400 METAR MROC 020400Z 10005KT CAVOK 23/19 A2999 RMK TRACE SC SCT070 SCT250=
200908020500 METAR MROC 020500Z 10007KT CAVOK 23/18 A2997 RMK TRACE SC SCT070 SCT250=
200908020600 METAR MROC 020600Z 09006KT CAVOK 23/19 A2996 RMK TRACE SC SCT070 SCT250=
200908020700 METAR MROC 020700Z 13006KT CAVOK 22/18 A2994 RMK TRACE SC SCT070 SCT250=
200908020800 METAR MROC 020800Z 11006KT CAVOK 23/19 A2994 RMK TRACE SC SCT070 SCT250=
200908020900 METAR MROC 020900Z 06003KT CAVOK 23/19 A2995 RMK TRACE SC SCT070 SCT250=
200908021000 METAR MROC 021000Z 00000KT CAVOK 21/20 A2996 RMK TRACE SC BKN080 FEW250=
200908021100 METAR MROC 021100Z 11008KT CAVOK 22/17 A2996 RMK TRACE SC BKN080 FEW250=
200908021200 METAR MROC 021200Z 08008KT CAVOK 23/16 A2996 RMK TRACE SC SCT120 SCT250=
200908021300 METAR MROC 021300Z 07010G20KT 9999 FEW035 SCT090 BKN220 24/16 A2996 RMK DZ DST NE CB DST SSW NOSIG=
200908021400 METAR MROC 021400Z 08015KT 9999 FEW035 SCT120 BKN250 25/16 A2997 RMK DZ DST NE VEL MAX VTO 18KT NOSIG=
200908021500 METAR MROC 021500Z 08014G24KT CAVOK 25/16 A2999 RMK TRACE SC SCT120 BKN250 NOSIG=
200908021600 METAR MROC 021600Z 07015KT 9999 FEW040 BKN250 27/16 A2999 RMK FEW120 VEL MAX VTO 20KT NOSIG=
200908021700 METAR MROC 021700Z 08013KT 9999 FEW040 BKN250 27/17 A2999 RMK FEW120 VEL MAX VTO 20KT NOSIG=
200908021800 METAR MROC 021800Z 09011KT 9999 FEW035 BKN250 27/18 A2997 RMK VEL MAX VTO 18KT NOSIG=
200908021900 METAR MROC 021900Z 07013G23KT 9999 SCT030 SCT120 27/16 A2996 RMK DZ DST NE E NOSIG=
200908022000 METAR MROC 022000Z 08010G20KT 9999 SCT035 SCT250 27/16 A2994 RMK DZ DST NE NOSIG=
200908022100 METAR MROC 022100Z 09013KT 9999 FEW035 SCT070 BKN250 26/16 A2992 RMK DZ DST N NE VEL MAX VTO 17KT NOSIG=
200908022200 METAR MROC 022200Z 08013KT 9999 FEW035 BKN250 26/16 A2990 RMK VEL MAX VTO 19KT TRACE AC NOSIG=
200908022300 METAR MROC 022300Z 10012KT 9999 FEW035 BKN250 24/16 A2990 RMK TRACE AC VEL MAX VTO 17KT NOSIG=
200908030000 METAR MROC 030000Z 11010KT 9999 FEW035 BKN250 23/18 A2993 RMK DZ DST NE TRACE AC VEL MAX VTO 16KT NOSIG=
200908030100 METAR MROC 030100Z 12010KT 9999 FEW035 BKN250 22/18 A2995 RMK VEL MAX VTO 18KT NOSIG=
200908030200 METAR MROC 030200Z 06002KT 9999 FEW035 BKN250 22/18 A2996 RMK TRACE AC NOSIG=
200908030300 METAR MROC 030300Z 03006KT 9999 FEW030 22/18 A2997 NOSIG=
200908030400 METAR MROC 030400Z 03006KT 9999 FEW030 22/19 A2998 NOSIG=
200908030500 METAR MROC 030500Z 05007KT 9999 FEW030 21/18 A2997 NOSIG=
200908030600 METAR MROC 030600Z 06007KT 9999 FEW030 22/18 A2997 NOSIG=
200908030700 METAR MROC NIL=
200908030800 METAR MROC 030800Z 08004KT 9999 FEW030 21/18 A2994 NOSIG=
200908030900 METAR MROC NIL=
200908031000 METAR MROC NIL=
200908031100 METAR MROC 031100Z 03005KT 9999 FEW030 SCT120 21/18 A2994 NOSIG=
200908031200 METAR MROC 031200Z 04008KT 9999 SCT030 21/18 A2994 NOSIG=
200908031300 METAR MROC 031300Z 11011KT 9999 FEW035 BKN120 23/18 A2997 RMK DZ DST NE NOSIG=
200908031400 METAR MROC 031400Z 08009KT 9999 FEW035 BKN120 24/18 A2999 RMK DZ DST NE E NOSIG=
200908031500 METAR MROC 031500Z 09010KT 9999 FEW035 BKN140 25/18 A2999 RMK DZ DST NE E NOSIG=
200908031600 METAR MROC 031600Z 08011KT 9999 FEW030 BKN140 26/19 A2999 RMK VEL MAX VTO 17KT DZ DST N NE E NOSIG=
200908031700 METAR MROC 031700Z 07014KT 9999 FEW040 BKN140 27/19 A2998 RMK DZ DST N NE NOSIG=
200908031800 METAR MROC 031800Z 07010KT 9999 FEW040 BKN140 28/18 A2996 RMK DZ DST N NE NOSIG=
200908031900 METAR MROC 031900Z 11007KT 9999 SCT030 BKN140 29/20 A2993 RMK DZ DST N NE NOSIG=
200908032000 METAR MROC 032000Z 09008KT 9999 SCT030 BKN140 28/20 A2992 RMK DZ DST NE NOSIG=
200908032100 METAR MROC 032100Z 25004KT 9999 FEW025 BKN250 27/22 A2989 RMK DZ DST N NE NOSIG=
200908032200 METAR MROC 032200Z 34004KT 9999 FEW025 SCT045 BKN250 26/20 A2990 RMK DZ N NE NOSIG=
200908032300 METAR MROC 032300Z 07011KT 9999 FEW025 SCT040 BKN250 26/19 A2989 RMK DZ N NE MAX/ WIND 16KT NOSIG=
200908040000 METAR MROC 040000Z 10007KT 9999 FEW025 SCT120 BKN250 24/19 A2990 RMK DZ N NE NOSIG=
200908040100 METAR MROC 040100Z 10009KT CAVOK 24/19 A2993 RMK TRAZAS SCT BKN250 NOSIG=
200908040200 METAR MROC 040200Z 09009KT 9999 FEW030 BKN250 24/19 A2996 RMK TRACE SCT BKN250 NOSIG=
200908040300 METAR MROC 040300Z 10007KT 9999 FEW030 BKN250 23/19 A2996 RMK VEL MAX VTO 12KT NOSIG=
200908040400 METAR MROC 040400Z 09009KT 9999 FEW030 SCT060 BKN250 23/19 A2998 NOSIG=
200908040500 METAR MROC 040500Z 11009KT 9999 FEW035 BKN250 23/19 A2997 NOSIG=
200908040600 METAR MROC 040600Z 08007KT CAVOK 22/18 A2997 RMK TRACE SC SCT140 SCT250 NOSIG=
200908040700 METAR MROC 040700Z 06005KT CAVOK 21/19 A2994 RMK TRACE SC FEW140 SCT250 NOSIG=
200908040800 METAR MROC 040800Z 04003KT CAVOK 22/18 A2993 RMK TRACE SC FEW070 SCT250 NOSIG=
200908040900 METAR MROC 040900Z 09004KT CAVOK 23/19 A2994 RMK TRACE SC FEW070 SCT100=
200908041000 METAR MROC 041000Z 08007KT 9999 -RA BKN100 SCT250 22/19 A2994 RMK TRACE SC LTNG DST E=
200908041001 METAR MROC 041001Z 08007KT 9999 -RA BKN100 SCT250 22/19 A2994 RMK TRACE SC LTNG DST E NOSIG=
200908041100 METAR MROC 041100Z 12005KT 9999 -DZ FEW030 SCT070 BKN150 22/19 A2995 RMK LTNG DST S SW NOSIG=
200908041200 METAR MROC 041200Z 10007KT 9999 FEW025 SCT150 BKN250 22/19 A2996 REDZ RMK PCPN DST N NE NOSIG=
200908041300 METAR MROC 041300Z 09003KT 9999 FEW025 SCT120 BKN250 23/20 A2997 RMK CB/DZ NW N NE NOSIG=
200908041400 METAR MROC 041400Z 10010KT 9999 FEW020 BKN250 25/20 A2995 RMK CB/DZ N NE NOSIG=
200908041500 METAR MROC 041500Z 11011KT 9999 FEW025 SCT130 BKN250 26/20 A2997 RMK DZ N NE CB NE NOSIG=
200908041600 METAR MROC 041600Z 10010KT 9999 FEW025 BKN250 26/18 A2995 RERA RMK DZ N NE NOSIG=
200908041700 METAR MROC 041700Z 07011KT 9999 FEW025 BKN250 29/19 A2994 RMK DZ N NE MAX/WIND 17KT NOSIG=
200908041800 METAR MROC 041800Z 09011KT 9999 SCT025 BKN250 28/18 A2995 RMK DZ N NE TCU S NOSIG=
200908041900 METAR MROC 041900Z 09008KT 9999 FEW025 SCT120 BKN250 26/19 A2994 RMK DZ N NE RERA NOSIG=
200908042000 METAR MROC 042000Z 07009KT 9999 FEW025 SCT120 BKN250 27/19 A2993 RMK DZ N NE NOSIG=
200908042100 METAR MROC 042100Z 13003KT 9999 -RA SCT025 BKN120 24/20 A2992 NOSIG=
200908042200 METAR MROC 042200Z 12007KT 9999 SCT025 BKN120 24/19 A2990 RERA RMK RN N NE NOSIG=
200908042300 METAR MROC 042300Z 09002KT 9999 FEW025 SCT120 BKN250 24/19 A2991 RMK RN N NE NOSIG=
200908050000 METAR MROC 050000Z 07002KT 9999 FEW025 SCT100 BKN250 23/19 A2995 RMK RN N NE LTNG DST SW NOSIG=
200908050100 METAR MROC 050100Z 07006KT 9999 FEW030 SCT100 BKN250 23/19 A2998 NOSIG=
200908050200 METAR MROC 050200Z 00000KT 9999 FEW030 BKN100 23/20 A2999 NOSIG=
200908050300 METAR MROC 050300Z 07003KT CAVOK 22/20 A2999 RMK TRACE SC BKN120 LTNG DST S TS DST SE NOSIG=
200908050400 METAR MROC 050400Z 06005KT CAVOK 23/19 A2999 RMK TRACE SC BKN100 LTNG=
200908050500 METAR MROC 050500Z 06006KT 9999 FEW040 SCT140 23/19 A3000 RMK LTNG=
200908050600 METAR MROC 050600Z 08007KT 9999 FEW035 SCT080 23/19 A2998 RMK NOSIG=
200908050700 METAR MROC 050700Z 08004KT CAVOK 22/19 A2996 RMK TRACE SC BKN080 NOSIG=
200908050800 METAR MROC 050800Z 04004KT 9999 FEW035 SCT080 22/20 A2997 NOSIG=
200908050900 METAR MROC 050900Z 04009KT 9999 FEW035 SCT120 22/19 A2992 NOSIG=
200908051000 METAR MROC 051000Z 08004KT CAVOK 22/19 A2991 RMK TRACE SC BKN120 LTNG DST S NOSIG=
200908051100 METAR MROC 051100Z 10005KT CAVOK 22/19 A2992 RMK TRACE SC BKN120 LTNG DST S DZ DST NE NOSIG=
200908051200 METAR MROC 051200Z 09008KT CAVOK 22/18 A2994 RMK TRACE SC BKN090 SCT120=
200908051300 METAR MROC 051300Z 08005KT 9999 -RA BKN100 23/19 A2996 RMK TRACE SC NOSIG=
200908051400 METAR MROC 051400Z 02003KT 9999 -DZ BKN100 23/20 A2997 RERA RMK TRACE SC NOSIG=
200908051500 METAR MROC 051500Z 11006KT 9999 -DZ BKN100 24/19 A2999 RMK TRACE SC NOSIG=
200908051600 METAR MROC 051600Z 05011KT CAVOK 24/20 A3001 REDZ RMK TRACE SC SCT100 SCT250 NOSIG=
200908051700 METAR MROC 051700Z 07005KT 9999 FEW040 SCT120 SCT250 25/19 A3000 NOSIG=
200908051800 METAR MROC 051800Z 14002KT 9999 FEW040 SCT120 SCT250 26/19 A2999 NOSIG=
200908051900 METAR MROC 051900Z 25007KT 9999 SCT030 SCT120 25/22 A2999 RMK RN N NE BECMG 7000 VCSH=
200908052000 METAR MROC 052000Z 25006KT 9999 FEW005 SCT025 BKN110 23/23 A2997 RERA NOSIG=
200908052100 METAR MROC 052100Z 21004KT 9999 FEW006 SCT025 BKN110 22/20 A2997 RMK RN DST NE NOSIG=
200908052200 METAR MROC 052200Z 28006KT 9999 SCT030 BKN110 22/19 A2996 RMK RN DST NE NOSIG=
200908052300 METAR MROC 052300Z 27006KT 9999 SCT030 BKN110 22/19 A2998 RMK RN DST NE NOSIG=
200908060000 METAR MROC 060000Z 30004KT 9999 SCT025 BKN110 22/20 A3001 NOSIG=
200908060100 METAR MROC 060100Z 22002KT 9999 SCT025 BKN110 21/20 A3002 NOSIG=
200908060200 METAR MROC 060200Z 15002KT 9999 SCT030 BKN110 21/21 A3004 NOSIG=
200908060300 METAR MROC 060300Z 08002KT CAVOK 20/20 A3005 RMK TRAZAS SCT FEW120 BKN250 NOSIG=
200908060400 METAR MROC NIL=
200908060500 METAR MROC 060500Z 07002KT CAVOK 20/19 A3005 RMK TRAZAS SCT BKN250 NOSIG=
200908060600 METAR MROC 060600Z 07005KT CAVOK 20/19 A3002 RMK TRAZAS SCT FEW120 BKN250 NOSIG=
200908060700 METAR MROC 060700Z 05003KT CAVOK 20/19 A2999 RMK TRAZAS SC FEW120 BKN250 NOSIG=
200908060800 METAR MROC 060800Z 10004KT CAVOK 19/18 A2994 RMK TRAZAS SC FEW120 BKN250 NOSIG=
200908060900 METAR MROC 060900Z 06005KT CAVOK 19/18 A2996 RMK TRAZAS SC FEW150 BKN220 NOSIG=
200908061000 METAR MROC 061000Z 09003KT CAVOK 20/18 A2995 RMK TRAZAS SC BKN250 NOSIG=
200908061100 METAR MROC 061100Z 10003KT CAVOK 21/18 A2995 RMK TRAZAS SCT FEW120 SCT250 NOSIG=
200908061200 METAR MROC 061200Z 09003KT CAVOK 21/18 A2996 RMK TRAZAS SCT FEW100 BKN250 CB DST S NOSIG=
200908061300 METAR MROC 061300Z 10007KT CAVOK 23/19 A2998 RMK TRACE SC CI BKN100 NOSIG=
200908061400 METAR MROC 061400Z 11008KT CAVOK 24/19 A3001 RMK TRACE SC BKN100 NOSIG=
200908061500 METAR MROC 061500Z 11007KT CAVOK 24/18 A3003 RMK TRACE SC BKN100 RN DST SW NOSIG=
200908061600 METAR MROC 061600Z 11006KT CAVOK 25/19 A3003 RMK TRACE SC BKN090 RN DST NE NOSIG=
200908061700 METAR MROC 061700Z 13005KT 9999 FEW040 BKN100 26/19 A3002 RMK RN DST NW NE NOSIG=
200908061800 METAR MROC 061800Z 24007KT 9999 VCSH SCT020TCU OVC100 21/19 A3001 RMK RASH NE E BECMG -RA=
200908061900 METAR MROC 061900Z 24007KT 9999 VCSH SCT020TCU OVC100 21/19 A3001 RERA RMK RASH NE E BECMG -RA=
200908062000 METAR MROC 062000Z 07002KT 9999 SCT030 OVC100 23/20 A2998 RMK RASH DST W NOSIG=
200908062100 METAR MROC 062100Z 28005KT 9999 SCT025 BKN120 22/20 A2998 RMK PCPN DST SE NOSIG=
200908062200 METAR MROC 062200Z 31004KT 9999 FEW030 BKN070 21/20 A2999 RMK PCPN DST SE NOSIG=
200908062300 METAR MROC 062300Z 00000KT 9999 FEW030 SCT080 BKN100 21/19 A2999 RMK PCPN DST SE S NOSIG=
200908070000 METAR MROC 070000Z 09003KT 9999 FEW030 SCT080 BKN100 21/19 A3002 RERA RMK PCPN DST SE S BECMG -RA=
200908070100 METAR MROC 070100Z 01003KT CAVOK 21/19 A3003 RMK TRACE SC SCT100 BKN130 NOSIG=
200908070200 METAR MROC 070200Z 00000KT CAVOK 20/19 A3004 RMK TRACE SC FEW100 BKN120 NOSIG=
200908070300 METAR MROC 070300Z 23002KT CAVOK 20/20 A3006 RMK TRACE SC BKN120 NOSIG=
200908070400 METAR MROC 070400Z 29003KT CAVOK 20/20 A3009 RMK TRACE SC BKN120 NOSIG=
200908070500 METAR MROC 070500Z 35004KT CAVOK 20/20 A3009 RMK TRACE SC BKN120 NOSIG=
200908070600 METAR MROC 070600Z 03004KT CAVOK 20/19 A3007 RMK TRACE SC BKN120 NOSIG=
200908070700 METAR MROC 070700Z 06006KT CAVOK 20/18 A3005 RMK TRACE SC BKN120 NOSIG=
200908070800 METAR MROC 070800Z 06008KT CAVOK 20/18 A3002 NOSIG=
200908070900 METAR MROC 070900Z 04006KT CAVOK 20/17 A3000 NOSIG=
200908071000 METAR MROC 071000Z 05007KT CAVOK 21/17 A3000 NOSIG=
200908071100 METAR MROC 071100Z 05008KT CAVOK 20/17 A3000 NOSIG=
200908071200 METAR MROC 071200Z 08006KT CAVOK 21/17 A2998 RMK TRACE SC AC SCT260 NOSIG=
200908071300 METAR MROC 071300Z 13004KT CAVOK 22/17 A3002 RMK TRACE SC SCT070 SCT100 CB DST SSW NOSIG=
200908071400 METAR MROC 071400Z 12006KT CAVOK 25/18 A3004 RMK TRACE SC SCT120 VEL MAX VTO 11KT NOSIG=
200908071500 METAR MROC 071500Z 11009KT 9999 FEW035 SCT120 26/18 A3005 RMK VEL MAX VTO 14KT NOSIG=
200908071600 METAR MROC 071600Z 11007KT 9999 SCT035 SCT120 27/18 A3006 RMK FEW250 PCPN DST ENE VEL MAX VTO 12KT NOSIG=
200908071700 METAR MROC 071700Z 13007KT 9999 FEW035 SCT050 BKN120 26/18 A3005 RMK PCPN DST N NE VEL MAX VTO 14KT NOSIG=
200908071800 METAR MROC 071800Z 11007KT 9999 SCT030 BKN050 26/18 A3003 RMK VEL MAX VTO 16KT PCPN DST ENE NOSIG=
200908071900 METAR MROC 071900Z 25007KT 9999 DZ SCT030 BKN045 24/21 A3002 RERA NOSIG=
200908072000 METAR MROC 072000Z 27007KT 9999 FEW025 SCT035 BKN060 24/22 A3001 REDZ RMK RN DST N NE E BECMG 6000 VCSH=
200908072100 METAR MROC 072100Z 23010KT 7000 DZ VCFG FEW005 SCT012 BKN030 22/22 A3001 BECMG 5000 -RA BR=
200908072200 METAR MROC 072200Z 24006KT 7000 VCFG FEW006 SCT012 BKN070 21/21 A3000 REDZ RMK VIS 5000 BR RN DST NE SW NOSIG=
200908072300 METAR MROC 072300Z 28005KT 8000 3500SW BR SCT004 BKN070 21/21 A3002 NOSIG=
200908080000 METAR MROC 080000Z 26004KT 5000 -DZ BR SCT003 BKN008 21/21 A3004 BECMG 7000 VCFG=
200908080100 METAR MROC 080100Z 27003KT 8000 -DZ VCFG SCT008 BKN070 20/20 A3005 RMK VIS 6000 NE NW NOSIG=
200908080200 METAR MROC 080200Z 29003KT 9999 SCT025 SCT110 20/20 A3006 REDZ RMK TRACE SC NOSIG=
200908080300 METAR MROC 080300Z 00000KT 9999 FEW007 SCT025 SCT110 20/20 A3008 NOSIG=
200908080400 METAR MROC 080400Z 07002KT 9999 FEW007 SCT025 SCT110 20/20 A3009 NOSIG=
200908080500 METAR MROC 080500Z 06003KT CAVOK 20/20 A3008 RMK TRACE SC BKN110 NOSIG=
200908080600 METAR MROC 080600Z 08002KT CAVOK 20/18 A3006 RMK TRACE ST BKN110 NOSIG=
200908080700 METAR MROC 080700Z 03004KT CAVOK 19/18 A3005 RMK TRACE SC BKN110 NOSIG=
200908080800 METAR MROC 080800Z 09005KT CAVOK 20/17 A3003 RMK BKN110 NOSIG=
200908080900 METAR MROC 080900Z 05005KT CAVOK 19/17 A3003 RMK BKN110 NOSIG=
200908081000 METAR MROC 081000Z 06005KT CAVOK 20/18 A3003 RMK BKN110 NOSIG=
200908081100 METAR MROC 081100Z 08002KT CAVOK 21/17 A3004 RMK BKN110 NOSIG=
200908081200 METAR MROC 081200Z 08004KT CAVOK 21/17 A3004 RMK TRACE SC BKN100 NOSIG=
200908081300 METAR MROC 081300Z 10005KT CAVOK 22/18 A3005 RMK TRACE SC BKN100 NOSIG=
200908081400 METAR MROC 081400Z 10008KT CAVOK 23/17 A3007 RMK TRACE SC SCT120 SCT250 NOSIG=
200908081500 METAR MROC 081500Z 10010KT CAVOK 25/18 A3008 RMK TRACE SC BKN120 NOSIG=
200908081600 METAR MROC 081600Z 12008KT 9999 FEW035 BKN120 26/18 A3008 NOSIG=
200908081700 METAR MROC 081700Z 10007KT 9999 FEW040 BKN120 26/17 A3007 NOSIG=
200908081800 METAR MROC 081800Z 10009KT 9999 SCT035 BKN120 27/18 A3005 NOSIG=
200908081900 METAR MROC 081900Z 09005KT 9999 SCT035 BKN120 28/19 A3003 RMK TCU DST SW NOSIG=
200908082000 METAR MROC 082000Z 22007KT 9999 FEW020TCU SCT030 SCT120 26/22 A3002 BECMG 7000 VCSH=
200908082100 METAR MROC 082100Z 26009KT 9999 FEW020TCU BKN040 25/22 A3001 BECMG 50000 -TSRA=
200908082200 METAR MROC 082200Z 27006KT 9999 SCT012 SCT040 24/22 A3001 RMK TCU N NOSIG=
200908090000 METAR MROC 090000Z 24003KT 5000 BR SCT005 SCT120 21/21 A3003 NOSIG=
200908090100 METAR MROC 090100Z 18002KT 6000 VCFG SCT004 SCT250 21/21 A3004 RMK VSBY N 4KM NOSIG=
200908090200 METAR MROC 090200Z 31003KT 6000 VCFG SCT004 SCT010 21/21 A3005 BECMG RMK VSBY SE UNL=
200908090400 METAR MROC 090400Z 02003KT 9999 VCFG FEW035 BKN210 21/21 A3006 RMK TRACE ST VIS SW WSW 7KMS BECMG CAVOK=
200908090500 METAR MROC 090500Z 09003KT CAVOK 20/20 A3007 RMK TRACE SC SCT100 BKN210 NOSIG=
200908090600 METAR MROC 090600Z 08002KT CAVOK 21/19 A3005 RMK TRACE SC BKN060 NOSIG=
200908090700 METAR MROC 090700Z 10003KT CAVOK 21/18 A3003 RMK TRACE SC FEW060 SCT140 NOSIG=
200908090800 METAR MROC 090800Z 11005KT CAVOK 22/18 A3001 RMK TRACE SC FEW060 SCT140 NOSIG=
200908090900 METAR MROC 090900Z 12005KT 9999 -RA SCT070 BKN120 21/19 A3001 RMK TRACE SC NOSIG=
200908091000 METAR MROC 091000Z 04005KT 7000 -RA SCT050 SCT070 20/19 A3004 RMK TRACE SC VIS E SE S UNL BECMG 9999=
200908091100 METAR MROC 091100Z 05007KT 9999 -RA SCT060 BKN120 20/19 A3005 RMK TS=
200908091200 METAR MROC 091200Z 08005KT CAVOK 20/19 A3004 RERA RMK TRACE SC BKN120 SCT170 SCT CB DST ARND NOSIG=
200908091300 METAR MROC 091300Z 11008KT CAVOK 21/19 A3004 RMK TRACE SC BKN120 SCT250=
200908091400 METAR MROC 091400Z 07007KT 9999 FEW030 SCT120 BKN250 22/18 A3005 NOSIG=
200908091500 METAR MROC 091500Z 10009KT CAVOK 24/19 A3007 RMK TRACE SCT/AC BKN250 DZ N NE NOSIG=
200908091600 METAR MROC 091600Z 08008KT CAVOK 26/19 A3006 RMK TRACE SCT SCT120 BKN250 CB DST S NOSIG=
200908091700 METAR MROC 091700Z 08009KT 9999 FEW020 BKN120 26/18 A3006 RMK DZ N NE CB S/N NOSIG=
200908091800 METAR MROC 091800Z 10003KT 9999 -RA FEW025 BKN120 21/20 A3003 BECMG 24006=
200908091900 METAR MROC 091900Z 07004KT 9999 RA FEW020 BKN100 22/20 A3004 NOSIG=
200908092000 METAR MROC 092000Z 10003KT 9999 -RA FEW025 BKN120 21/20 A3003 BECMG 24006=
200908092100 METAR MROC 092100Z 10005KT 9999 FEW025 BKN120 22/19 A3002 RERA NOSIG=
200908092200 METAR MROC 092200Z 06004KT 9999 FEW025 BKN120 23/20 A3001 NOSIG=
200908092300 METAR MROC 092300Z 30002KT 9999 FEW040 BKN120 22/20 A3002 NOSIG=
200908100000 METAR MROC 100000Z 00000KT CAVOK 22/21 A3003 RMK TRACE SC BKN120 NOSIG=
200908100100 METAR MROC 100100Z 00000KT CAVOK 21/20 A3005 RMK TRACE SC BKN120 NOSIG=
200908100200 METAR MROC 100200Z 07003KT CAVOK 21/19 A3006 RMK TRACE SC BKN120 NOSIG=
200908100300 METAR MROC 100300Z 03004KT CAVOK 21/18 A3007 RMK TRACE ST SCT100 SCT250 BECMG 21003KT 3000 BR=
200908100400 METAR MROC 100400Z 01003KT CAVOK 20/19 A3008 RMK TRACE SC BKN140 NOSIG=
200908100500 METAR MROC 100500Z 03004KT CAVOK 20/18 A3006 RMK TRACE ST BKN140 NOSIG=
200908100600 METAR MROC 100600Z 10007KT CAVOK 21/17 A3004 RMK TRACE SC SCT150 NOSIG=
200908100700 METAR MROC 100700Z 10010KT CAVOK 21/17 A3001 RMK TRACE SC SCT150 NOSIG=
200908100800 METAR MROC 100800Z 09013KT CAVOK 21/17 A3000 RMK TRACE SC SCT120 NOSIG=
200908100900 METAR MROC 100900Z 12003KT CAVOK 21/17 A3000 RMK TRACE SC BKN120 NOSIG=
200908101000 METAR MROC 101000Z 00000KT CAVOK 20/17 A3001 RMK TRACE SC BKN110 NOSIG=
200908101100 METAR MROC 101100Z 06007KT 9999 FEW035 BKN100 21/17 A3002 NOSIG=
200908101200 METAR MROC 101200Z 12007KT 9999 FEW030 BKN100 21/17 A3003 RMK DZ DST N NE VEL MAX VTO 14KT NOSIG=
200908101300 METAR MROC 101300Z 08008KT 9999 FEW030 SCT100 BKN250 23/18 A3005 NOSIG=
200908101400 METAR MROC 101400Z 09009KT 9999 FEW030 SCT100 BKN250 22/18 A3006 NOSIG=
200908101500 METAR MROC 101500Z 10009KT 9999 SCT030 BKN120 23/18 A3006 RMK DZ N NE FEW250 NOSIG=
200908101600 METAR MROC 101600Z 12008KT 9999 SCT030 BKN120 24/18 A3006 RMK DZ NE NOSIG=
200908101700 METAR MROC 101700Z 09009KT 9999 SCT030 BKN120 26/18 A3006 RMK DZ NE NOSIG=
200908101800 METAR MROC 101800Z 10009KT 9999 SCT030 BKN120 27/16 A3003 NOSIG=
200908101900 METAR MROC 101900Z 11009KT 9999 SCT030 BKN120 26/16 A3003 NOSIG=
200908102000 METAR MROC 102000Z 10010KT 9999 SCT030 BKN120 25/17 A3001 RMK FEW250 NOSIG=
200908102100 METAR MROC 102100Z 09012KT 9999 SCT025 BKN110 24/17 A2998 NOSIG=
200908102200 METAR MROC 102200Z 10008KT 9999 SCT025 BKN110 24/21 A2999 RMK DZ N NOSIG=
200908102300 METAR MROC 102300Z 10008KT 9999 SCT025 BKN110 24/16 A3000 NOSIG=
200908110000 METAR MROC 110000Z 09008KT 9999 SCT020 BKN100 23/16 A3001 NOSIG=
200908110100 METAR MROC 110100Z 07005KT 9999 SCT025 BKN100 22/17 A3001 NOSIG=
200908110200 METAR MROC 110200Z 08005KT 9999 SCT025 BKN100 22/17 A3001 NOSIG=
200908110300 METAR MROC 110300Z 11009KT CAVOK 22/17 A3001 RMK TRACE SC NOSIG=
200908110400 METAR MROC 110400Z 11009KT CAVOK 22/17 A3002 RMK TRACE SC NOSIG=
200908110500 METAR MROC 110500Z 11009KT CAVOK 22/17 A3002 RMK TRACE SCT BKN250 NOSIG=
200908110600 METAR MROC 110600Z 11008KT CAVOK 22/18 A3003 RMK TRACE SCT BKN250 NOSIG=
200908110700 METAR MROC 110700Z 11004KT CAVOK 21/18 A3001 RMK TRACE SCT SCT250 NOSIG=
200908110800 METAR MROC 110800Z 05003KT CAVOK 19/17 A3001 RMK TRACE SC SCT25O NOSIG=
200908110900 METAR MROC 110900Z 06003KT CAVOK 20/17 A3001 RMK TRACE SC/CI NOSIG=
200908111000 METAR MROC 111000Z 07003KT CAVOK 18/17 A3001 RMK TRACE SC/CI NOSIG=
200908111100 METAR MROC 111100Z 04004KT CAVOK 19/17 A3000 RMK TRACE SC/A/CI NOSIG=
200908111200 METAR MROC 111200Z 04005KT CAVOK 19/17 A3000 RMK TRACE SCT FEW250 NOSIG=
200908111300 METAR MROC 111300Z 06004KT CAVOK 23/18 A3002 RMK TRACE SC CI NOSIG=
200908111400 METAR MROC 111400Z 07004KT CAVOK 25/18 A3003 RMK TRACE SC CI NOSIG=
200908111500 METAR MROC 111500Z 12009KT CAVOK 26/18 A3002 RMK TRACE SC CI NOSIG=
200908111600 METAR MROC 111600Z 12009KT CAVOK 28/18 A3001 RMK TRACE SC FEW250 NOSIG=
200908111700 METAR MROC 111700Z 12010KT 9999 FEW040 SCT250 29/18 A3001 NOSIG=
200908111800 METAR MROC 111800Z 19005KT 9999 SCT030 SCT250 28/21 A3001 NOSIG=
200908111900 METAR MROC 111900Z 26007KT 9999 SCT030 28/21 A2998 RMK TRACE CI NOSIG=
200908112000 METAR MROC 112000Z 24007KT 9999 BKN030 27/22 A2997 NOSIG=
200908112100 METAR MROC 112100Z 24010KT 9999 FEW020TCU SCT030 26/23 A2995 RMK FEW250 PCPN DST E NW CB DST SE S BECMG 6000 VCSH=
200908112200 METAR MROC 112200Z 24010KT 9999 VCTS VCSH SCT015CB BKN025 23/23 A2997 RMK VIS SW N NE 7KMS BECMG 3000 TSRA=
200908112300 METAR MROC 112300Z VRB03KT 9999 -DZ VCSH VCTS FEW017CB SCT040 BKN120 21/20 A3000 RETSRA RMK VIS SW 8KMS NOSIG=
200908120000 METAR MROC 120000Z 35005KT 9999 FEW030 BKN100 23/19 A2999 REDZ NOSIG=
200908120100 METAR MROC 120100Z 10009KT CAVOK 23/18 A2998 RMK TRACE SC SCT140 BKN250 VEL MAX VTO 15KT NOSIG=
200908120200 METAR MROC 120200Z 12010KT CAVOK 22/18 A2999 RMK TRACE SC AC BKN250 VEL MAX VTO 15KT NOSIG=
200908120300 METAR MROC 120300Z 08006KT CAVOK 22/18 A3001 RMK TRACE SC AC BKN250 NOSIG=
200908120400 METAR MROC 120400Z 06008KT CAVOK 23/18 A3001 RMK TRACE SC AC BKN250 NOSIG=
200908120500 METAR MROC 120500Z 11010KT CAVOK 22/18 A2999 RMK TRACE SC AC BKN250 RAFAGAS 14KT=
200908120600 METAR MROC 120600Z 06006KT CAVOK 21/18 A3000 RMK TRACE SC BKN250 NOSIG=
200908120700 METAR MROC 120700Z 06006KT CAVOK 21/18 A2999 RMK TRACE SC BKN250 NOSIG=
200908120800 METAR MROC 120800Z 05002KT CAVOK 21/18 A2998 RMK TRACE SC BKN250 NOSIG=
200908120900 METAR MROC 120900Z 23003KT CAVOK 20/18 A2996 RMK TRACE SC BKN250 NOSIG=
200908121000 METAR MROC 121000Z 18002KT CAVOK 21/18 A2997 RMK TRACE SC BKN250 NOSIG=
200908121100 METAR MROC 121100Z 10006KT CAVOK 22/18 A2997 RMK TRACE SC FEW120 BKN250=
200908121200 METAR MROC NIL=
200908121300 METAR MROC 121300Z 09008KT CAVOK 23/19 A2999 RMK TRACE SC AC SCT250 VEL MAX VTO 15KT NOSIG=
200908121400 METAR MROC 121400Z 10007KT CAVOK 25/19 A3002 RMK TRACE SC VEL MAX VTO 14KT SCT140 TRACE CI NOSIG=
200908121500 METAR MROC 121500Z 09008KT 9999 FEW030 27/19 A3001 RMK TRACE AC VEL MAX VTO 14KT NOSIG=
200908121600 METAR MROC 121600Z 10009KT 9999 FEW030 28/20 A3001 RMK TRACE CI VEL MAX VTO 14KT NOSIG=
200908121700 METAR MROC 121700Z 07011KT 9999 SCT035 28/18 A3001 RMK TRACE CI VEL MAX VTO 16KT NOSIG=
200908121800 METAR MROC 121800Z 08011KT 9999 FEW035 SCT050 30/18 A2998 RMK VEL MAX VTO 16KT NOSIG=
200908121900 METAR MROC 121900Z 08011KT 9999 FEW035 SCT050 30/18 A2998 RMK VEL MAX VTO 16KT NOSIG=
200908122000 METAR MROC NIL=
200908122100 METAR MROC 122100Z 05016KT 9999 FEW035 SCT250 30/18 A2994 RMK VEL MAX VTO 23KT NOSIG=
200908122200 METAR MROC 122200Z 07012KT 9999 FEW035 BKN250 29/17 A2994 RMK VEL MAX VTO 17KT NOSIG=
200908122300 METAR MROC 122300Z 09006KT CAVOK 27/17 A2995 RMK TRACE SC BKN250 TCU DST SW NOSIG=
200908130000 METAR MROC 130000Z 25006KT CAVOK 23/22 A2998 RMK TRACE SC BKN250 NOSIG=
200908130006 METAR MROC 130006Z 08008KT 9999 CAVOK 22/18 A3002 RMK TRACE SC SCT250=
200908130100 METAR MROC 130100Z 30005KT 9999 FEW006 SCT012 23/22 A3001 NOSIG=
200908130200 METAR MROC 130200Z 00000KT CAVOK 22/22 A3002 RMK TRACE SC ST SCT250 NOSIG=
200908130300 METAR MROC 130300Z 04001KT CAVOK 22/21 A3003 RMK TRACE ST SC SCT250 NOSIG=
200908130400 METAR MROC 130400Z 09004KT CAVOK 23/18 A3000 NOSIG=
200908130500 METAR MROC 140500Z 22008KT CAVOK 22/17 A3002 RMK TRACE SC SCT250 BECMG NOSIG=
200908130600 METAR MROC NIL=
200908130700 METAR MROC 130700Z 22018KT 9999 CAVOK 22/18 A2999 NOSIG=
200908130800 METAR MROC NIL=
200908130900 METAR MROC NIL=
200908131000 METAR MROC 131000Z 11007KT CAVOK 22/17 A2997 RMK TRACE SC SCT250=
200908131100 METAR MROC 131100Z 11007KT CAVOK 22/18 A2997 RMK TRACE SC SCT250 NOSIG=
200908131200 METAR MROC 131200Z 11007KT CAVOK 22/17 A3000 NOSIG=
200908131300 METAR MROC 131300Z 09008KT CAVOK 24/18 A3001 RMK BKN250 NOSIG=
200908131400 METAR MROC 131400Z 11011KT CAVOK 25/17 A3002 RMK TRACE SC BKN250 NOSIG=
200908131500 METAR MROC 131500Z 10012KT CAVOK 27/17 A3003 RMK TRACE SC BKN250 TCU DST SW NOSIG=
200908131600 METAR MROC 131600Z 09008KT CAVOK 28/17 A3001 RMK TRACE SC BKN250 NOSIG=
200908131700 METAR MROC 131700Z 11010KT CAVOK 29/17 A3000 RMK TRACE SC BKN250 NOSIG=
200908131800 METAR MROC 131800Z 09010KT 9999 FEW045 BKN250 30/16 A2998 RMK VEL  MAX VTO 17KT NOSIG=
200908131900 METAR MROC 131900Z 07009KT 9999 FEW025TCU SCT035 SCT250 31/17 A2996 RMK VEL MAX VTO 15KT NOSIG=
200908132000 METAR MROC 132000Z 07009KT 9999 SCT035 BKN250 30/16 A2993 RMK TCU DST NE CB DST S SE NOSIG=
200908132100 METAR MROC 132100Z 05010KT 9999 FEW025 BKN280 30/18 A2993 RMK DZ NE CB DST S NOSIG=
200908132200 METAR MROC 132200Z 03009KT 9999 FEW015 SCT045 BKN280 26/18 A2994 RERA RMK RN DST NE ESE SW W NW BECMG 24008KT=
200908132300 METAR MROC 132300Z 26007KT 9999 -RA SCT045 BKN250 24/22 A2995 RMK VSBY N NW 6KM DUE LOW ST TCU E NOSIG=
200908140000 METAR MROC 140000Z 26003KT 6000 -RA VCFG SCT045 SCT120 23/23 A2999 RMK VSBY SE S SW UNL VSBY N NE 4KM BECMG 2000 -RA BR=
200908140100 METAR MROC 140100Z 30002KT 9999 -RA SCT040 SCT120 22/21 A3001 RMK TS DST NE LTNG DST S SE NOSIG=
200908140200 METAR MROC 140200Z 11006KT 9999 TSRA FEW015CB SCT040 BKN120 21/20 A3003 NOSIG=
200908140300 METAR MROC 140300Z 00000KT 9999 -RA FEW025 SCT045 BKN100 21/20 A3005 RETS RMK LTNG DST WSW W NOSIG=
200908140400 METAR MROC 140400Z 03003KT CAVOK 22/20 A3005 RERA RMK TRACE SC FEW100 BKN250 LTNG DST SW W=
200908140500 METAR MROC 140500Z 28003KT CAVOK 21/20 A3003 RMK TRACE ST SC BKN250=
200908140600 METAR MROC 140600Z 06004KT CAVOK 21/19 A3001 RMK TRACE SC BKN250 LTNG DST W NOSIG=
200908140700 METAR MROC 140700Z 04004KT CAVOK 20/19 A2999 RMK TRACE SC BKN250 NOSIG=
200908140800 METAR MROC 140800Z 06005KT CAVOK 21/18 A2996 RMK TRACE SC SCT250 OCNL=
200908140900 METAR MROC 140900Z 10006KT CAVOK 22/18 A2996 RMK TRACE SC SCT250 NOSIG=
200908141000 METAR MROC 141000Z 06005KT CAVOK 20/18 A2997 RMK TRACE SC SCT250 LTNG DST S NOSIG=
200908141100 METAR MROC 141100Z 05006KT CAVOK 21/18 A2997 RMK TRACE SC AC BKN250=
200908141200 METAR MROC 141200Z 06009KT CAVOK 21/18 A2998 RMK TRACE SC AC BKN250 CB DST N SSW NOSIG=
200908141300 METAR MROC 141300Z 09007KT CAVOK 23/19 A2998 RMK TRAZAS SCT BKN250 NOSIG=
200908141400 METAR MROC 141400Z 10008KT CAVOK 25/19 A2999 RMK TRACE SCT BKN250 NOSIG=
200908141500 METAR MROC 141500Z 10007KT 9999 FEW040 BKN250 27/19 A3001 BECMG 24006=
200908141600 METAR MROC 141600Z 09009KT 9999 FEW030 BKN250 27/19 A3002 RMK RN ENE NOSIG=
200908141700 METAR MROC 141700Z 10011KT 9999 FEW025 BKN250 26/19 A3002 RMK DZ NE NOSIG=
200908141800 METAR MROC 141800Z 07010KT 9999 FEW030 SCT080 BKN250 26/18 A3000 RMK DZ NW N NE E BECMG 6000 -RA=
200908141900 METAR MROC 141900Z 10010KT 9999 FEW030 BKN080 26/17 A2999 RMK DZ NE NOSIG=
200908142000 METAR MROC 142000Z 11009KT CAVOK 26/17 A2996 RMK TRACE SCT SCT130 BKN250 NOSIG=
200908142100 METAR MROC 142100Z 11007KT 9999 FEW035 SCT130 BKN250 26/16 A2995 NOSIG=
200908142200 METAR MROC 142200Z 11007KT 9999 FEW035 SCT130 BKN250 25/17 A2995 NOSIG=
200908142300 METAR MROC 142300Z 08004KT 9999 FEW035 SCT130 BKN250 25/18 A2997 NOSIG=
200908150000 METAR MROC 150000Z 12004KT 9999 FEW035 SCT130 BKN250 24/17 A2999 RMK CB DST SW NOSIG=
200908150100 METAR MROC 150100Z 05004KT CAVOK 23/17 A3002 RMK TRACE SC AC SCT250 NOSIG=
200908150200 METAR MROC 150200Z 05004KT CAVOK 22/21 A3004 RMK TRACE SC AC SCT250 NOSIG=
200908150300 METAR MROC 150300Z 09003KT CAVOK 21/20 A3005 RMK TRACE SC NOSIG=
200908150400 METAR MROC 150400Z 10006KT CAVOK 22/17 A3004 RMK TRACE SC NOSIG=
200908150500 METAR MROC 150500Z 04007KT CAVOK 21/17 A3002 RMK TRACE SC NOSIG=
200908150600 METAR MROC 150600Z 05006KT CAVOK 20/17 A2999 RMK TRACE SC NOSIG=
200908150700 METAR MROC 150700Z 04006KT CAVOK 20/16 A2996 RMK TRACE SC FEW140 SCT250 NOSIG=
200908150800 METAR MROC 150800Z 34004KT CAVOK 19/15 A2995 RMK TRACE SC FEW150 SCT250 NOSIG=
200908150900 METAR MROC 150900Z 08004KT CAVOK 17/14 A2995 RMK TRACE SC FEW150 SCT250 NOSIG=
200908151000 METAR MROC NIL=
200908151100 METAR MROC 151100Z 05005KT CAVOK 18/14 A2998 RMK TRACE SC AC SCT250 CB DST NE SSW LTNG DST NE NOSIG=
200908151200 METAR MROC 151200Z 05007KT CAVOK 18/15 A2998 RMK TRACE SC SCT250 CB DST SSW W NE LTNG DST W NOSIG=
200908151300 METAR MROC 151300Z 06003KT CAVOK 22/16 A2999 RMK TRACE SC BKN250 CB DST S SW NOSIG=
200908151400 METAR MROC 151400Z 12005KT CAVOK 25/17 A3001 RMK TRACE SC BKN250 CB DST S SW NOSIG=
200908151500 METAR MROC 151500Z 09004KT CAVOK 27/17 A3002 RMK TRACE SC CB DST SW BKN250 NOSIG=
200908151600 METAR MROC 151600Z 23007KT 9999 FEW040 BKN250 27/18 A3002 RMK CB DST SW NOSIG=
200908151700 METAR MROC 151700Z 24008KT 9999 SCT035 BKN250 28/18 A3001 RMK TCU DST SW NOSIG=
200908151800 METAR MROC 151800Z 23009KT 9999 SCT025TCU BKN250 28/20 A2998 RMK RN CB DST S BECMG 7000 VCSH=
200908151900 METAR MROC 151900Z 24010KT 9999 -DZ FEW010 SCT020TCU BKN250 25/22 A2997 RMK 7000 SW VCSH BECMG 5000 RA=
200908152000 METAR MROC 152000Z 26007KT 9999 FEW015 SCT025 SCT120 25/22 A2994 RMK RN DST E NE TCU DST S SE NOSIG=
200908152100 METAR MROC 152100Z 25010KT 9999 FEW007 SCT015CB BKN100 23/21 A2994 RMK RN DST NE BECMG 7000 SW -RA=
200908152200 METAR MROC 152200Z 25009KT 9999 FEW007 SCT015 BKN100 23/20 A2995 RMK RN DST NE BECMG 7000 SW -RA=
200908152300 METAR MROC 152300Z 25006KT 8000 VCFG FEW005 SCT015 BKN100 22/20 A2996 RMK PCPN NE BECMG 7000 -RA=
200908160000 METAR MROC 160000Z 24002KT 8000 -RA VCFG FEW005 SCT015 OVC100 21/21 A2998 BECMG 4000 BR RA=
200908160100 METAR MROC 160100Z 00000KT 9999 -RA SCT020 OVC100 21/21 A3001 BECMG 8000 RA=
200908160200 METAR MROC 160200Z 00000KT 9999 SCT020 OVC100 21/21 A3003 BECMG RA=
200908160300 METAR MROC 160300Z 10002KT 9999 FEW040 BKN130 21/20 A3004 NOSIG=
200908160400 METAR MROC 160400Z 04005KT CAVOK 21/20 A3004 RMK TRACE SCT BKN130 NOSIG=
200908160500 METAR MROC 160500Z 00000KT CAVOK 21/20 A3003 RMK TRACE SCT BKN130 NOSIG=
200908160600 METAR MROC 160600Z 00000KT CAVOK 20/20 A3002 RMK TRACE SCT BKN130 NOSIG=
200908160700 METAR MROC 160700Z 07002KT CAVOK 20/20 A3001 RMK TRACE SCT BKN130 NOSIG=
200908160800 METAR MROC 160800Z 00000KT CAVOK 20/20 A2998 RMK TRACE SC BKN130 NOSIG=
200908160900 METAR MROC 160900Z VRB02KT CAVOK 20/20 A2997 RMK TRACE SC BKN130 NOSIG=
200908161000 METAR MROC 161000Z 00000KT CAVOK 19/19 A2998 RMK TRACE SC BKN130 NOSIG=
200908161100 METAR MROC 161100Z 09003KT CAVOK 20/20 A2999 RMK TRACE SC BKN130 NOSIG=
200908161200 METAR MROC 161200Z 07003KT 9999 FEW020 SCT280 20/19 A3000 RMK CB S SW NE NOSIG=
200908161300 METAR MROC 161300Z 07004KT CAVOK 21/18 A3001 RMK TRACE SC SCT250 CB DST S NOSIG=
200908161400 METAR MROC 161400Z 07006KT CAVOK 24/19 A3002 RMK TRACE SC SCT250 CB DST S NOSIG=
200908161500 METAR MROC 161500Z 09006KT CAVOK 26/18 A3000 RMK TRACE SC SCT250 NOSIG=
200908161600 METAR MROC 161600Z 10011KT CAVOK 28/18 A3001 RMK TRACE SC BKN250 NOSIG=
200908161700 METAR MROC 161700Z 11007KT 9999 FEW035 BKN250 29/18 A3000 NOSIG=
200908161800 METAR MROC 161800Z 10008KT 9999 SCT035 BKN250 29/18 A3000 NOSIG=
200908161900 METAR MROC 161900Z 12008KT 9999 SCT025TCU BKN250 28/18 A2996 RMK TCU RASH S NOSIG=
200908162000 METAR MROC 162000Z 23007KT 9999 SCT030 BKN100 24/22 A2995 RMK CB RN DST S NOSIG=
200908162100 METAR MROC 162100Z 23006KT 9999 VCSH VCFG FEW015CB SCT025 BKN100 23/20 A2995 RMK CB RASH DST NWN VIS NW N NE 6KMS BECMG 6000 -TSRA SCT012CB=
200908162200 METAR MROC 162200Z 16003KT 9000 4000SW -RA VCSH VCFG FEW010CB SCT025 BKN100 22/21 A2995 RMK VIS SE S UNL BECMG 4000 -TSRA=
200908162300 METAR MROC 162300Z 03003KT 9999 -RA SCT030 BKN120 21/20 A2996 NOSIG=
200908170000 METAR MROC 170000Z 00000KT 9999 -DZ FEW035 SCT120 BKN170 21/21 A2998 RERA RMK TRACE ST NOSIG=
200908170100 METAR MROC 170100Z 27003KT 9999 SCT010 SCT045 BKN170 21/21 A3000 BECMG 7000 VCFG=
200908170200 METAR MROC 170200Z 00000KT 9999 FEW010 SCT020 BKN250 21/20 A3002 BECMG 7000 VCFG=
200908170300 METAR MROC 170300Z 00000KT 9999 FEW020 BKN250 21/21 A3004 NOSIG=
200908170400 METAR MROC 170400Z 00000KT 9999 FEW020 BKN250 21/21 A3004 RMK TRACE ST AC NOSIG=
200908170500 METAR MROC 170500Z 00000KT 9999 FEW020 BKN250 21/21 A3005 NOSIG=
200908170600 METAR MROC 170600Z 07003KT 9999 FEW030 BKN250 20/20 A3003 RMK TRACE AC NOSIG=
200908170700 METAR MROC 170700Z 08003KT 9999 FEW030 BKN250 20/20 A3000 RMK TRACE AC NOSIG=
200908170800 METAR MROC 170800Z 06003KT CAVOK 20/20 A2999 RMK TRACE SC BKN250 NOSIG=
200908170900 METAR MROC 170900Z 07004KT CAVOK 19/18 A2994 RMK TRACE SC BKN250 NOSIG=
200908171000 METAR MROC 171000Z 04003KT CAVOK 19/18 A2995 RMK TRACE SC BKN250 NOSIG=
200908171100 METAR MROC 171100Z 20003KT CAVOK 18/18 A2998 RMK TRACE SC SCT250 NOSIG=
200908171200 METAR MROC 171200Z 05005KT CAVOK 18/18 A3000 RMK TRACE SC SCT250 CB DST SW NOSIG=
200908171300 METAR MROC 171300Z 09004KT CAVOK 21/18 A3001 RMK TRACE SC SCT250 CB DST S SW NOSIG=
200908171400 METAR MROC 171400Z 06004KT CAVOK 25/18 A3002 RMK TRACE SC AC SCT250 CB DST S SW NOSIG=
200908171500 METAR MROC 171500Z 12005KT 9999 FEW045 SCT250 26/18 A3004 RMK TRACE AC CB DST S SSW WSW NOSIG=
200908171600 METAR MROC 171600Z 25007KT 9999 SCT045 SCT250 26/20 A3004 RMK TRACE AC NOSIG=
200908171700 METAR MROC 171700Z 23008KT 9999 FEW025TCU SCT040 28/21 A3002 RMK PCPN DST E NOSIG=
200908171800 METAR MROC 171800Z 25009KT 9999 FEW020TCU SCT030 27/22 A3000 RMK CB RN DST E LGT HZ ARND SCT250 BECMG 7000 VCSH=
200908171900 METAR MROC 171900Z 24006KT 9999 DZ VCTS VCSH FEW015CB SCT025 BKN100 25/23 A2997 RERA RMK VIS N NE 6KMS BECMG 5000 TSRA=
200908172000 METAR MROC 172000Z 15006KT 7000 3000SW -TSRA FEW015CB SCT025 BKN100 21/19 A2996 RMK VIS E SE S UNL NOSIG=
200908172100 METAR MROC 172100Z 00000KT 9999 FEW007 SCT025 BKN090 21/21 A2997 RMK RN DZ DST ARND NOSIG=
200908172200 METAR MROC 172200Z 21003KT 7000 2000N -DZ BR SCT004 BKN070 20/20 A2997 RMK RN DST NE SW BECMG 5000 BR=
200908172300 METAR MROC 172300Z 00000KT 5000 BR SCT003 BKN015 21/20 A2998 RMK VIS 3000 N NOSIG=
200908180000 METAR MROC 180000Z 11002KT 7000 VCFG SCT006 BKN025 20/20 A2998 RMK FEW090 BECMG 9999=
200908180100 METAR MROC 180100Z 06002KT 9999 FEW025 BKN100 21/21 A2999 RMK LTNG DST SE NOSIG=
200908180200 METAR MROC 180200Z 07003KT CAVOK 21/20 A3001 RMK OVC100 NOSIG=
200908180300 METAR MROC 180300Z 26003KT CAVOK 20/20 A3003 RMK OVC100 NOSIG=
200908180400 METAR MROC 180400Z 35002KT CAVOK 20/20 A3003 RMK TRACE SC NOSIG=
200908180500 METAR MROC 180500Z 04004KT CAVOK 20/19 A3002 RMK TRACE SC NOSIG=
200908180600 METAR MROC 180600Z 01003KT CAVOK 19/19 A3000 RMK TRACE SC NOSIG=
200908180700 METAR MROC 180700Z 04005KT CAVOK 19/18 A2998 RMK TRACE SC NOSIG=
200908180800 METAR MROC 180800Z 08006KT 9999 FEW030 21/18 A2997 NOSIG=
200908180900 METAR MROC 180900Z 04006KT 9999 FEW030 20/18 A2996 NOSIG=
200908181000 METAR MROC 181000Z 06003KT 9999 FEW030 20/17 A2996 NOSIG=
200908181100 METAR MROC 181100Z 06004KT CAVOK 19/17 A2996 RMK TRACE SC SCT250 NOSIG=
200908181200 METAR MROC 181200Z 04005KT 9999 FEW020 BKN250 19/18 A2997 RMK CB DST SW NOSIG=
200908181300 METAR MROC 181300Z 03004KT CAVOK 22/18 A2999 RMK TRACE SC BKN250 LINEA CB DST SW NOSIG=
200908181400 METAR MROC 181400Z 11004KT CAVOK 24/18 A3001 RMK TRACE SC AC BKN250 LINEA CB DST SW NOSIG=
200908181500 METAR MROC 181500Z 10006KT CAVOK 26/18 A3002 RMK TRACE SC AC BKN250 CB DST SW NOSIG=
200908181600 METAR MROC 181600Z 26006KT 9999 FEW035 SCT250 27/21 A3002 RMK TCU DST SW NOSIG=
200908181700 METAR MROC 181700Z 25008KT 9999 SCT035 SCT250 27/21 A3001 NOSIG=
200908181800 METAR MROC 181800Z 23008KT 9999 FEW025TCU SCT030 27/21 A2998 RMK FEW250 NOSIG=
200908181900 METAR MROC 181900Z 24008KT 9999 SCT020CB SCT030 27/22 A2996 RMK RN DST NE NOSIG=
200908182000 METAR MROC 182000Z 23010KT 9999 SCT015CB SCT030 25/22 A2994 RMK RN DST NE NOSIG=
200908182100 METAR MROC 182100Z 24011KT 9999 SCT015 SCT300 26/23 A2993 RMK RN NE BECMG 5000 TSRA=
200908182200 METAR MROC 182200Z 23010KT 9999 -RA VCSH FEW012 SCT035 24/22 A2992 RMK VSBY N NE 5KM RASH NW NE SW NOSIG=
200908182300 METAR MROC 182300Z 24007KT 9999 FEW012 BKN030 22/21 A2995 RMK VSBY N NE 6KM DUE LW ST TCU NE E NOSIG=
200908190000 METAR MROC 190000Z 29006KT 9999 FEW020 BKN035 22/19 A2996 NOSIG=
200908190100 METAR MROC 190100Z 30005KT 9999 BKN030 22/19 A2998 NOSIG=
200908190200 METAR MROC 190200Z 30003KT 9999 SCT030 BKN045 22/19 A3001 NOSIG=
200908190300 METAR MROC 190300Z 25009KT 9999 BKN035 21/19 A3002 NOSIG=
200908190400 METAR MROC 190400Z 00000KT 9999 -RA BKN030 21/20 A3003 NOSIG=
200908190500 METAR MROC 190500Z 02003KT 9999 FEW035 SCT050 BKN070 21/20 A3003 RERA NOSIG=
200908190600 METAR MROC 190600Z 09002KT 9999 FEW030 BKN060 20/20 A3001 NOSIG=
200908190700 METAR MROC 190700Z 04003KT 9999 FEW040 BKN120 20/20 A2998 NOSIG=
200908190800 METAR MROC 190800Z 36003KT CAVOK 19/19 A2997 RMK TRACE SC SCT130 NOSIG=
200908190900 METAR MROC 190900Z 00000KT CAVOK 19/18 A2994 RMK TRACE SC FEW130 SCT250=
200908191000 METAR MROC 191000Z 07005KT CAVOK 19/18 A2993 RMK TRACE SC AC SCT250 NOSIG=
200908191100 METAR MROC 191100Z 02005KT CAVOK 18/17 A2996 RMK TRACE SC AC SCT250 NOSIG=
200908191200 METAR MROC 191200Z 06005KT CAVOK 18/17 A2996 RMK TRACE SC AC BKN250 CB DST S SW NOSIG=
200908191300 METAR MROC 191300Z 03002KT CAVOK 22/19 A2999 RMK TRACE SCT FEW120 BKN250 CB S=
200908191400 METAR MROC 191400Z 06007KT CAVOK 24/18 A3000 RMK TRACE SCT SCT120 SCT250 CB DST S SW NOSIG=
200908191500 METAR MROC 191500Z 07005KT CAVOK 26/18 A3001 RMK TRACE SCT SCT120 SCT250 CB S SW BECMG 24006=
200908191600 METAR MROC 191600Z 11006KT 9999 FEW025 SCT300 28/18 A3000 RMK CB DST SW BECMG 24006=
200908191700 METAR MROC 191700Z 23007KT 9999 FEW020TCU SCT040 26/22 A2999 RMK RN ENE TCU SW NOSIG=
200908191800 METAR MROC 191800Z 24011KT 9999 FEW020TCU SCT040 26/21 A2995 RMK RN ENE NOSIG=
200908191900 METAR MROC 191900Z 22010KT 9999 -RA VCSH SCT020TCU SCT040 25/21 A2994 RMK VSBY N NE 5KM BECMG 4000 TSRA=
200908192000 METAR MROC 192000Z 29006KT 6000 -RA VCSH SCT015 SCT040 20/20 A2994 NOSIG=
200908192100 METAR MROC 192100Z 30003KT 8000 -RA BR FEW002 SCT010 OVC100 20/20 A2994=
200908192200 METAR MROC 192200Z 35002KT 9999 DZ FEW001 SCT020 OVC100 21/20 A2994 RERA NOSIG=
200908192300 METAR MROC 192300Z 09002KT 9999 -RA FEW001 SCT020 OVC100 21/21 A2992 REDZ NOSIG=
200908200000 METAR MROC 200000Z 25005KT 9999 SCT030 OVC100 20/20 A2996 RERA RMK TRACE ST NOSIG=
200908200100 METAR MROC 200100Z 29004KT 9999 -RA FEW005 SCT030 OVC100 20/20 A3000 NOSIG=
200908200200 METAR MROC 200200Z 04003KT 9999 SCT030 BKN100 21/20 A3001 RERA NOSIG=
200908200300 METAR MROC 200300Z 07003KT 9999 FEW040 BKN110 21/20 A3003 NOSIG=
200908200400 METAR MROC 200400Z 22004KT 5000 BR FEW010 SCT080 BKN120 20/20 A3005 RMK BECMG 3000 FEW005 SCT012 BKN120=
200908200500 METAR MROC 200500Z 27004KT 4000 -DZ FEW002 SCT012 BKN020 20/20 A3007 BECMG 5000=
200908200600 METAR MROC 200600Z 32002KT 9999 SCT012 SCT080 20/20 A3003 REDZ NOSIG=
200908200700 METAR MROC 200700Z 00000KT 9999 SCT015 SCT090 20/20 A3000 NOSIG=
200908200800 METAR MROC 200800Z 25003KT 9999 VCFG FEW006 SCT012 SCT090 20/20 A2998 RMK VIS 7000SW BECMG 5000 BR=
200908200900 METAR MROC 200900Z 34003KT 9999 SCT015 SCT090 20/20 A2996 RMK TRACE ST NOSIG=
200908201000 METAR MROC 201000Z 09004KT 9999 FEW010 BKN110 19/19 A2996 RMK TRACE ST NOSIG=
200908201100 METAR MROC 201100Z 07005KT CAVOK 19/19 A2996 RMK TRACE SC SCT110 BKN250 NOSIG=
200908201200 METAR MROC 201200Z 06004KT CAVOK 20/18 A2997 RMK TRACE ST SC FEW110 BKN250 CB DST W NOSIG=
200908201300 METAR MROC 201300Z 07007KT 9999 FEW030 SCT130 22/18 A3000 RMK SCT250 NOSIG=
200908201400 METAR MROC 201400Z 07008KT CAVOK 23/19 A3001 RMK TRACE SC CI BKN130 NOSIG=
200908201500 METAR MROC 201500Z 10006KT CAVOK 25/18 A3002 RMK TRACE SC CI BKN130 NOSIG=
200908201600 METAR MROC 201600Z 11009KT 9999 FEW040 BKN130 26/18 A3002 NOSIG=
200908201700 METAR MROC 201700Z 14006KT 9999 FEW040 BKN130 28/19 A3001 NOSIG=
200908201800 METAR MROC 201800Z 13006KT 9999 SCT035 BKN130 28/18 A2998 NOSIG=
200908201900 METAR MROC 201900Z 26011KT 9999 SCT035 BKN110 26/22 A2995 BECMG 7000=
200908202000 METAR MROC 202000Z 21010KT 9999 FEW010TCU SCT030 BKN110 23/21 A2994 RMK RASH E W BECMG 7000 VCSH=
200908202100 METAR MROC 202100Z 24008KT 4000 VCSH SCT004 BKN010 22/22 A2994 BECMG 2500 +SHRA=
200908202200 METAR MROC 202200Z 20007KT 1200 -RABR SCT003 BKN010 20/20 A2995 BECMG 2500 -RA=
200908202238 METAR MROC 202238Z 24004KT 2000 -RABR FEW004 SCT010 OVC100 20/20 A2998 BECMG 3000 -RA=
200908202300 METAR MROC 202300Z 25005KT 2500 -RA BR FEW003 SCT015 SCT015 OVC100 20/20 A2998 BECMG 3000 -RA=
200908210000 METAR MROC 210000Z 26004KT 2500 -RA BR FEW003 SCT015 OVC100 20/20 A3000 BECMG 3000=
200908210100 METAR MROC 210100Z 33003KT 6000 VCFG FEW005 SCT015 OVC100 20/20 A3001 BECMG 7000=
200908210200 METAR MROC 210200Z 08002KT 9999 SCT020 BKN100 20/20 A3003 RMK TRACE ST NOSIG=
200908210300 METAR MROC 210300Z 04002KT CAVOK 21/20 A3004 RMK FEW090 BKN120 TRACE SCT NOSIG=
200908210400 METAR MROC 210400Z 07004KT CAVOK 21/19 A3005 RMK TRACE SCT FEW080 BKN120 NOSIG=
200908210500 METAR MROC 210500Z 10006KT CAVOK 20/19 A3004 RMK TRACE SC FEW080 BKN120 NOSIG=
200908210600 METAR MROC 210600Z 02007KT CAVOK 21/19 A3002 RMK TRACE SCT BKN120 NOSIG=
200908210700 METAR MROC 210700Z 02004KT CAVOK 21/18 A2999 RMK TRAZAS SCT BKN120 NOSIG=
200908210800 METAR MROC 210800Z 09005KT CAVOK 21/18 A2996 RMK TRACE SC SCT120 NOSIG=
200908210900 METAR MROC 210900Z 08005KT CAVOK 21/18 A2995 RMK TRACE SC BKN120 NOSIG=
200908211000 METAR MROC 211000Z 09006KT CAVOK 21/18 A2996 RMK TRACE SC/CI NOSIG=
200908211100 METAR MROC 211100Z 04004KT CAVOK 20/18 A2997 RMK TRACE SC SCT120 BKN250=
200908211200 METAR MROC 211200Z 04005KT CAVOK 20/18 A2998 RMK TRACE SCT BKN120 CB DST S E NOSIG=
200908211300 METAR MROC 211300Z 03004KT CAVOK 23/18 A3001 RMK TRACE SC SCT120 SCT250 NOSIG=
200908211400 METAR MROC 211400Z 10009KT 9999 FEW035 BKN250 23/18 A3001 RMK FEW120 NOSIG=
200908211500 METAR MROC 211500Z 11009KT 9999 FEW035 SCT120 BKN250 25/18 A3002 NOSIG=
200908211600 METAR MROC 211600Z 11008KT 9999 FEW035 SCT250 27/17 A3001 RMK TRACE AC NOSIG=
200908211700 METAR MROC 211700Z 11008KT 9999 FEW035 SCT250 28/17 A2999 NOSIG=
200908211800 METAR MROC 211800Z 11008KT 9999 SCT030 SCT250 28/18 A2997 NOSIG=
200908211900 METAR MROC 211900Z 10005KT 9999 SCT035 SCT250 28/18 A2994 RMK CB DST S NOSIG=
200908212000 METAR MROC 212000Z 21008KT 9999 SCT030 SCT120 25/22 A2993 BECMG 7000=
200908212100 METAR MROC 212100Z 23010KT 9999 FEW020TCU SCT035 26/23 A2992 RMK FEW250 PCPN DST E ESE BECMG 7000 VCSH=
200908212200 METAR MROC 212200Z 26008KT 9999 VCTS VCSH FEW015CB SCT025 24/22 A2992 RMK VIS WNW NW 5KMS TS NW BECMG 7000 -RA=
200908212300 METAR MROC 212300Z 25007KT 9999 VCSH FEW015CB BKN025 23/21 A2994 RETS RMK FEW100 VIS ESE E 7KMS BECMG -RA=
200908220000 METAR MROC 220000Z 32005KT 9999 -RA FEW020 SCT030 BKN045 22/22 A2995 RMK TRACE ST BECMG 6000 VCFG=
200908220100 METAR MROC 220100Z 00000KT 9999 -DZ FEW020 BKN035 22/20 A2997 RERA RMK TRACE LOW ST SSW NOSIG=
200908220200 METAR MROC 220200Z 00000KT 9999 FEW035 SCT050 22/19 A2999 RMK TRACE ST FEW120 TRACE CI BECMG 09004KT=
200908220300 METAR MROC 220300Z 09004KT 9999 FEW035 SCT090 20/18 A3001 NOSIG=
200908220400 METAR MROC 220400Z 06005KT CAVOK 21/18 A3004 RMK TRACE SC SCT090 NOSIG=
200908220600 METAR MROC 220600Z 08003KT CAVOK 20/17 A3001 RMK TRACE SC CI NOSIG=
200908220700 METAR MROC 220700Z 09006KT CAVOK 20/17 A2999 RMK TRACE SC CI NOSIG=
200908220800 METAR MROC 220800Z 05004KT CAVOK 19/17 A2998 RMK FEW110 NOSIG=
200908220900 METAR MROC 220900Z 04004KT CAVOK 19/17 A2996 RMK SCT110 NOSIG=
200908221000 METAR MROC 221000Z 06002KT CAVOK 19/18 A2998 RMK BKN110 LTNG DST SW NOSIG=
200908221100 METAR MROC 221100Z 00000KT CAVOK 19/18 A2999 RMK BKN110 LTNG DST SW/W NOSIG=
200908221200 METAR MROC 221200Z 11002KT CAVOK 19/18 A3000 RMK TRACE SC BKN110 NOSIG=
200908221300 METAR MROC 221300Z 03003KT CAVOK 20/18 A3002 RMK TRACE ST SC BKN120 CB DST SW NOSIG=
200908221400 METAR MROC 221400Z 02005KT CAVOK 23/18 A3002 RMK TRACE SC BKN120 CB DST SW NOSIG=
200908221500 METAR MROC 221500Z 25004KT 9999 FEW030 SCT120 24/19 A3004 RMK CB DST SW NOSIG=
200908221600 METAR MROC 221600Z 06008KT 9999 SCT030 SCT120 27/18 A3003 BECMG 24006KT=
200908221700 METAR MROC 221700Z 12006KT 9999 FEW035 SCT120 28/18 A3001 RMK TCU DST ENE NOSIG=
200908221800 METAR MROC 221800Z 13005KT 9999 SCT040 28/19 A2998 RMK FEW130 TCU DST ENE NOSIG=
200908221900 METAR MROC 221900Z 25009KT 9999 FEW025 SCT040 27/21 A2995 RMK FEW130 TCU DST SE NE NOSIG=
200908222000 METAR MROC 222000Z 25009KT 9999 FEW025TCU BKN120 27/22 A2993 RMK CB DST NE BECMG 8000 VCSH=
200908222100 METAR MROC 222100Z 23009KT 9999 +TSRA BKN020CB SCT040 23/22 A2992 RMK VIS 7000 NE BECMG 4000 TSRA=
200908222130 METAR MROC 222130Z 02011KT 9999 3000SW TSRA FEW010CB SCT025 BKN090 20/19 A2992 RMK VIS 3000NE NOSIG=
200908222200 METAR MROC 222200Z 08003KT 9999 VCSH FEW008 SCT025 BKN250 21/20 A2993 RMK VIS 7000W CB DST SW W NOSIG=
200908222300 METAR MROC 222300Z 28004KT 9999 FEW007 BKN030 SCT090 23/21 A2995 NOSIG=
200908230000 METAR MROC 230000Z 01004KT 9999 FEW030 SCT100 BKN250 22/22 A2996 RMK DZ DST NE NOSIG=
200908230100 METAR MROC 230100Z 13002KT 9999 VCFG FEW003 BKN250 22/21 A2997 RMK VIS 8000SW TRACE SC NOSIG=
200908230200 METAR MROC 230200Z 09006KT 9999 FEW020 SCT250 22/19 A2998 NOSIG=
200908230300 METAR MROC 230300Z 00000KT 9999 FEW030 21/19 A3000 BECMG 07005KT=
200908230400 METAR MROC 230400Z 08004KT 9999 FEW030 20/18 A3000 NOSIG=
200908230500 METAR MROC 230500Z 09002KT 9999 FEW030 20/18 A3001 NOSIG=
200908230600 METAR MROC 230600Z 12006KT 9999 FEW030 19/19 A3000 NOSIG=
200908230700 METAR MROC 230700Z 11004KT CAVOK 19/17 A2998 RMK TRACE SC NOSIG=
200908230800 METAR MROC 230800Z 06004KT CAVOK 19/17 A2996 RMK TRACE SC NOSIG=
200908230900 METAR MROC 230900Z 08004KT CAVOK 20/17 A2994 RMK TRACE SC NOSIG=
200908231000 METAR MROC 231000Z 03004KT CAVOK 29/26 A2993 RMK TRACE SC NOSIG=
200908231100 METAR MROC 231100Z 07006KT CAVOK 20/16 A2995 RMK TRACE SCT NOSIG=
200908231200 METAR MROC 231200Z 06007KT 9999 FEW030 19/15 A2995 NOSIG=
200908231300 METAR MROC 231300Z 05007KT CAVOK 22/16 A2997 RMK TRACE SC AC BKN250 CB DST SW NOSIG=
200908231400 METAR MROC 231400Z 08006KT CAVOK 23/16 A2998 RMK TRACE AC BKN250 BECMG 24006KT=
200908231500 METAR MROC 231500Z 11007KT CAVOK 23/17 A2998 RMK TRACE SC AC BKN250 NOSIG=
200908231600 METAR MROC 231600Z 10010KT 9999 FEW030 BKN250 23/18 A2999 RMK FEW100 VEL MAX VTO 15KT NOSIG=
200908231700 METAR MROC 231700Z 12009KT 9999 -RA FEW030 BKN250 23/18 A2999 RMK RN DST NE E VEL MAX VTO 15KT BECMG 7000 VCSH=
200908231800 METAR MROC 231800Z 12008KT 9999 FEW030 SCT100 BKN250 23/18 A2996 RMK RN DST NE VEL MAX VTO 15KT NOSIG=
200908231900 METAR MROC 231900Z 12007KT 9999 FEW030 SCT100 BKN250 25/18 A2996 RMK DZ DST NE NOSIG=
200908232000 METAR MROC 232000Z 10008KT 9999 FEW035 SCT120 BKN250 26/18 A2994 RMK DZ DST NE BECMG 24006KT=
200908232100 METAR MROC 232100Z 08007KT 9999 FEW035 BKN130 26/18 A2991 NOSIG=
200908232200 METAR MROC 232200Z 07006KT CAVOK 28/18 A2990 RMK TRACE SCT BKN130 CB DST S NOSIG=
200908232300 METAR MROC 232300Z 08008KT 9999 FEW030 BKN130 25/18 A2992 RMK DZ NE NOSIG=
200908240000 METAR MROC 240000Z 09006KT 9999 SCT045 SCT250 24/17 A2994 NOSIG=
200908240100 METAR MROC 240100Z 00000KT 9999 FEW045 SCT250 22/21 A2997 NOSIG=
200908240200 METAR MROC 240200Z 01002KT CAVOK 21/21 A2998 RMK TRACE SCT/ST SCT250 NOSIG=
200908240300 METAR MROC 240300Z 05003KT CAVOK 21/20 A2999 RMK TRACE SC BKN250 NOSIG=
200908240400 METAR MROC 240400Z 00000KT CAVOK 21/20 A3001 RMK TRACE SC BKN250 NOSIG=
200908240500 METAR MROC 240500Z 07004KT CAVOK 21/18 A3000 RMK TRACE SC BKN250 NOSIG=
200908240600 METAR MROC 240600Z 08004KT CAVOK 21/18 A2999 RMK TRACE SC BKN250 NOSIG=
200908240700 METAR MROC 240700Z 11004KT CAVOK 21/18 A2997 RMK TRACE SC BKN250 LTNG DST S NOSIG=
200908240800 METAR MROC 240800Z 07005KT CAVOK 20/18 A2996 RMK TRACE SCT SCT250 NOSIG=
200908240900 METAR MROC 240900Z 04005KT CAVOK 19/18 A2995 RMK TRACE SC SCT250 NOSIG=
200908241000 METAR MROC 241000Z 06003KT CAVOK 19/17 A2995 RMK TRACE SC SCT250 NOSIG=
200908241100 METAR MROC 241100Z 03007KT CAVOK 19/17 A2995 RMK TRACE SC BKN250 NOSIG=
200908241200 METAR MROC 241200Z 05002KT CAVOK 20/17 A2995 RMK TRACE SC AC BKN250 NOSIG=
200908241300 METAR MROC 241300Z 08003KT CAVOK 23/18 A2994 RMK TRACE SCT BKN250 NOSIG=
200908241400 METAR MROC 241400Z 11008KT CAVOK 25/18 A2995 RMK TRACE SCT BKN250 NOSIG=
200908241500 METAR MROC 241500Z 11010KT 9999 FEW040 BKN250 26/17 A2997 NOSIG=
200908241600 METAR MROC 241600Z 07013KT 9999 FEW035 BKN250 27/17 A2997 NOSIG=
200908241700 METAR MROC 241700Z 09007KT 9999 FEW035 BKN250 27/17 A2996 NOSIG=
200908241800 METAR MROC 241800Z 08007KT 9999 FEW035 SCT250 29/16 A2994 NOSIG=
200908241900 METAR MROC 241900Z 07010KT 9999 FEW035 SCT250 28/17 A2993 NOSIG=
200908242000 METAR MROC 242000Z 07012KT 9999 SCT035 SCT250 29/17 A2990 RMK DZ NE NOSIG=
200908242100 METAR MROC 242100Z 10008KT 9999 SCT035 SCT250 27/18 A2990 RMK FEW070 RN E BECMG 24008KT=
200908242200 METAR MROC 242200Z 05002KT 9999 FEW030 SCT070 BKN250 23/20 A2991 RERA BECMG 24006 6000 VCSH=
200908242300 METAR MROC 242300Z 08005KT 9999 FEW030 SCT100 BKN250 23/17 A2992 RMK RN N NE NOSIG=
200908250000 METAR MROC 250000Z 10008KT 9999 FEW030 SCT100 BKN250 22/17 A2994 NOSIG=
200908250100 METAR MROC 250100Z 12003KT 9999 FEW035 SCT120 BKN250 22/18 A2996 NOSIG=
200908250200 METAR MROC 250200Z 06005KT CAVOK 22/18 A2997 RMK TRACE SC SCT120 SCT250=
200908250300 METAR MROC 250300Z 03006KT CAVOK 22/18 A2999 RMK TRACE SC BKN120 NOSIG=
200908250400 METAR MROC 250400Z 04002KT CAVOK 22/17 A2999 RMK TRACE SC BKN120 NOSIG=
200908250500 METAR MROC 250500Z 10003KT CAVOK 21/17 A2997 RMK TRACE SC BKN120 NOSIG=
200908250600 METAR MROC 250600Z 07005KT CAVOK 20/17 A2995 RMK BKN120 NOSIG=
200908250700 METAR MROC 250700Z 06006KT CAVOK 21/17 A2993 RMK BKN120 NOSIG=
200908250800 METAR MROC 250800Z 20002KT CAVOK 21/18 A2992 RMK TRACE SC SCT120 SCT250 NOSIG=
200908250900 METAR MROC 250900Z 08004KT CAVOK 21/18 A2992 RMK TRACE SC SCT120 SCT250 NOSIG=
200908251000 METAR MROC 251000Z 26004KT CAVOK 20/18 A2993 RMK TRACE SC BKN120 FEW250=
200908251100 METAR MROC 251100Z 00000KT CAVOK 20/18 A2993 RMK TRACE SC BKN100 FEW250=
200908251200 METAR MROC 251200Z 30002KT CAVOK 20/18 A2994 RMK TRACE SC BKN100 FEW250 DZ DST SW NOSIG=
200908251300 METAR MROC 251300Z 30002KT CAVOK 21/19 A2997 RMK TRACE SC SCT110 BKN250=
200908251400 METAR MROC 251400Z 35002KT 9999 FEW015 BKN250 23/20 A2998 RMK SCT250 NOSIG=
200908251500 METAR MROC 251500Z 27006KT 9999 -RA FEW020 BKN110 22/21 A2999 NOSIG=
200908251600 METAR MROC 251600Z 28004KT 9999 FEW005 SCT020 BKN110 22/21 A2999 NOSIG=
200908251700 METAR MROC 251700Z 24004KT 9999 -DZ FEW010 SCT020 BKN110 23/20 A2997 RMK HZ LEVE ARND NOSIG=
200908251800 METAR MROC 251800Z 09002KT 9999 -DZ SCT020 BKN110 23/20 A2995 RMK FEW250 NOSIG=
200908251900 METAR MROC 251900Z 25003KT 9999 -DZ FEW005 SCT025 BKN110 24/20 A2993 NOSIG=
200908252000 METAR MROC 252000Z 27004KT 9999 FEW025 SCT110 BKN250 24/21 A2992 REDZ NOSIG=
200908252100 METAR MROC 252100Z 30005KT 9999 FEW025 OVC110 24/20 A2990 RMK HZ LGT ARND NOSIG=
200908252200 METAR MROC 252200Z 25006KT 9999 SCT020 BKN110 23/20 A2991 NOSIG=
200908252300 METAR MROC 252300Z 25006KT 9999 SCT020 BKN110 22/21 A2992 NOSIG=
200908260000 METAR MROC 260000Z 24006KT 9999 SCT020 BKN110 22/21 A2994 RMK TRACE ST NOSIG=
200908260100 METAR MROC 260100Z 13002KT 9999 SCT020 BKN110 22/21 A2995 RMK TRCE ST NOSIG=
200908260200 METAR MROC 260200Z 00000KT 9999 SCT020 BKN110 21/21 A2995 NOSIG=
200908260300 METAR MROC 260300Z 02004KT CAVOK 21/20 A2997 RMK TRAZAS SCT BKN130 NOSIG=
200908260400 METAR MROC 260400Z VRB02KT CAVOK 20/20 A2999 RMK TRAZAS SCT FEW250 NOSIG=
200908260500 METAR MROC 260500Z 07003KT CAVOK 19/19 A2998 RMK FEW120 SCT250 NOSIG=
200908260600 METAR MROC 260600Z 06004KT CAVOK 19/18 A2997 RMK FEW120 SCT250 NOSIG=
200908260700 METAR MROC 260700Z 04009KT CAVOK 20/18 A2995 RMK SCT250 NOSIG=
200908260800 METAR MROC NIL=
200908260900 METAR MROC 260900Z 06007KT CAVOK 20/18 A2994 NOSIG=
200908261000 METAR MROC 261000Z 05005KT CAVOK 20/18 A2994 NOSIG=
200908261100 METAR MROC 261100Z 05006KT CAVOK 19/17 A2996 RMK TRACE SCT NOSIG=
200908261200 METAR MROC 261200Z 05004KT CAVOK 20/18 A2997 RMK TRACE SCT/CI NOSIG=
200908261300 METAR MROC 261300Z 04005KT 9999 FEW025 23/18 A2999 NOSIG=
200908261400 METAR MROC 261400Z 04002KT 9999 FEW025 25/20 A3000 RMK TRACE CI BECMG 24006KT=
200908261500 METAR MROC 261500Z 12005KT 9999 FEW030 27/19 A3000 NOSIG=
200908261600 METAR MROC 261600Z 13005KT 9999 FEW030 28/20 A3000 NOSIG=
200908261700 METAR MROC 261700Z 24009KT 9999 FEW015 BKN030 26/22 A3000 NOSIG=
200908261800 METAR MROC 261800Z 26007KT 9999 FEW015 SCT030 26/21 A2998 NOSIG=
200908261900 METAR MROC 261900Z 27008KT 9999 FEW015 SCT025 26/22 A2996 NOSIG=
200908262000 METAR MROC 262000Z 25010KT 9999 FEW013 SCT025 27/22 A2996 NOSIG=
200908262100 METAR MROC 262100Z 24010KT 9999 SCT015TCU BKN025 25/23 A2995 RMK CB TS RASH DST NW BECMG 6000 VCSH=
200908262200 METAR MROC 262200Z 24011KT 9999 VCSH SCT007 FEW015CB BKN025 24/22 A2995 RERA RMK VIS NNE NE 7KMS BECMG 5000 RA=
200908262300 METAR MROC 262300Z 24005KT 9999 -DZ VCSH FEW004 SCT010 BKN020 22/22 A2996 RETSRA RMK VIS SW W 5KMS BECMG 5000 BR=
200908270000 METAR MROC 270000Z 25004KT 9999 FEW005 SCT015 BKN040 22/22 A2999 REDZ RMK PCPN DST ENE E BECMG 7000 VCFG=
200908270100 METAR MROC 270100Z 00000KT 9999 FEW017 SCT025 BKN040 22/22 A3001 BECMG 7000 VCFG=
200908270200 METAR MROC 270200Z 00000KT 9999 FEW015 SCT025 BKN040 22/22 A3003 NOSIG=
200908270300 METAR MROC 270300Z 00000KT 9999 FEW008 SCT020 BKN035 22/22 A3004 NOSIG=
200908270400 METAR MROC NIL=
200908270500 METAR MROC 270500Z 09003KT 9999 SCT035 BKN250 21/21 A3002 NOSIG=
200908270600 METAR MROC NIL=
200908270700 METAR MROC NIL=
200908270800 METAR MROC NIL=
200908270900 METAR MROC 270900Z 00000KT CAVOK 20/18 A2995 RMK TRACE SC BKN250 NOSIG=
200908271000 METAR MROC 271000Z 04003KT CAVOK 20/18 A2996 RMK TRACE SC BKN250 NOSIG=
200908271100 METAR MROC 271100Z 06004KT CAVOK 21/18 A2997 RMK TRACE SC SCT250 NOSIG=
200908271200 METAR MROC 271200Z 10007KT CAVOK 22/18 A2997 RMK TRACE SC FEW170 SCT250 CB DST N E TCU SW NOSIG=
200908271300 METAR MROC 271300Z 13005KT CAVOK 24/18 A2998 RMK TRACE SC SCT250 CB DST S NOSIG=
200908271400 METAR MROC 271400Z 12005KT CAVOK 25/19 A2999 RMK TRACE SC BKN250 CB DST SSW NOSIG=
200908271500 METAR MROC 271500Z 11009KT CAVOK 25/18 A3000 RMK FEW170 BKN250 CB DST ENE VEL MAX VTO 15KT NOSIG=
200908271600 METAR MROC 271600Z 09006KT CAVOK 25/18 A3000 RMK BKN250 VEL MAX VTO 12KT NOSIG=
200908271700 METAR MROC 271700Z 06010KT 9999 FEW040 SCT170 BKN250 28/18 A3000 RMK VEL MAX VTO 14KT NOSIG=
200908271800 METAR MROC 271800Z 08006KT 9999 FEW035 SCT140 BKN220 27/19 A2998 BECMG 23007KT=
200908271900 METAR MROC 271900Z 08005KT 9999 FEW035 BKN140 25/19 A2994 BECMG 23007KT=
200908272000 METAR MROC 272000Z 14003KT 9999 FEW035 SCT140 BKN250 26/20 A2993 BECMG 23007KT=
200908272100 METAR MROC 272100Z 27005KT 9999 FEW012 SCT030 BKN250 25/23 A2993 NOSIG=
200908272200 METAR MROC 272200Z 22005KT 9999 SCT025 SCT250 24/23 A2992 RMK FEW100 NOSIG=
200908272300 METAR MROC 272300Z 26007KT 9999 FEW020 BKN250 24/22 A2992 RMK FEW110 NOSIG=
200908280000 METAR MROC 280000Z 27006KT 9999 FEW005 SCT020 SCT250 22/22 A2996 RMK HZ LGT ARND LTNG S NOSIG=
200908280100 METAR MROC 280100Z 25003KT 6000 VCFG FEW002 SCT015 SCT050 22/22 A2998 RMK BECMG 4000 BR=
200908280200 METAR MROC 280200Z 24003KT 9999 FEW030 BKN070 22/22 A3002 RMK HZ LGT ARND LTNG S/SW BECMG 6000 VCFG=
200908280300 METAR MROC 280300Z 33003KT 9999 FEW030 BKN080 22/22 A3004 RMK LTNG S NOSIG=
200908280400 METAR MROC NIL=
200908280500 METAR MROC 280500Z 01002KT 9999 FEW030 21/21 A3004 NOSIG=
200908280600 METAR MROC 280600Z 08003KT CAVOK 20/19 A3001 RMK TRACE SC NOSIG=
200908280700 METAR MROC 280700Z 04005KT CAVOK 20/18 A2997 RMK TRACE SC NOSIG=
200908280800 METAR MROC 280800Z 07008KT CAVOK 22/18 A2995 RMK TRACE SC NOSIG=
200908280900 METAR MROC 280900Z 13007KT CAVOK 22/18 A2994 RMK TRACE SC NOSIG=
200908281000 METAR MROC 281000Z 12008KT CAVOK 22/18 A2993 RMK TRACE SC NOSIG=
200908281100 METAR MROC 281100Z 13007KT 9999 FEW030 SCT120 22/18 A2994 RMK LTNG S NOSIG=
200908281200 METAR MROC 281200Z 08002KT 9999 FEW030 BKN120 22/18 A2997 RMK TCU DST S NOSIG=
200908281300 METAR MROC 281300Z 10004KT CAVOK 22/19 A2999 RMK TRACEB SC SCT120 BKN250 DZ DST NE E TCU DST SW W NOSIG=
200908281400 METAR MROC 281400Z 13005KT CAVOK 24/19 A2999 RMK TRACE SC SCT120 BKN250 CB DST NE TCU DST SW NOSIG=
200908281500 METAR MROC 281500Z 11004KT CAVOK 24/19 A3001 RMK TRACE SC SCT120 BKN250=
200908281600 METAR MROC 281600Z 13005KT 9999 FEW035 BKN120 25/19 A3002 RMK FEW250 CB DST SSW BECMG 24007KT=
200908281700 METAR MROC 281700Z 26006KT 9999 SCT030 BKN250 26/20 A3000 RMK FEW120 RN DST NNE NOSIG=
200908281800 METAR MROC 281800Z 29006KT 9999 FEW020CB SCT030 BKN250 26/21 A2998 RMK RN DST NE E BECMG 8000 -TS VCSH=
200908281900 METAR MROC 281900Z 01008KT 9999 4000W -TS VCSH FEW008CB BKN030 23/20 A2997 RMK VIS 7000 RN DST E NE N NW NOSIG=
200908282000 METAR MROC 282000Z 11007KT 9999 SCT030 BKN100 23/18 A2995 RETSRA RMK RN DST NE E SW W TS DST S NOSIG=
200908282100 METAR MROC 282100Z 14008KT 9999 -RA SCT080 BKN140 23/18 A2993 RMK TRACE SCT CB/TS DST SW NOSIG=
200908282200 METAR MROC 282200Z 24005KT 9999 FEW020 BKN100 22/20 A2997 RERA NOSIG=
200908282300 METAR MROC 282300Z 25003KT CAVOK 21/19 A2999 RMK TRACE SCT BKN140 NOSIG=
200908290000 METAR MROC 290000Z 05003KT CAVOK 21/19 A2999 RMK TRACE SCT BKN130 SCT280 NOSIG=
200908290100 METAR MROC 290100Z 06002KT CAVOK 21/19 A2999 RMK TRACE SCT BKN130 NOSIG=
200908290200 METAR MROC 290200Z 00000KT CAVOK 20/19 A3002 RMK TRACE SCT BKN130 FEW280 NOSIG=
200908290300 METAR MROC 290300Z 00000KT CAVOK 21/20 A3007 RMK TRACE SC SCT150 SCT270 NOSIG=
200908290400 METAR MROC 290400Z 09004KT CAVOK 20/20 A3007 RMK TRACE SC SCT130 SCT250 NOSIG=
200908290500 METAR MROC 290500Z 09004KT CAVOK 20/19 A3005 RMK TRACE SC SCT140 SCT250 NOSIG=
200908290600 METAR MROC 290600Z 05002KT CAVOK 20/18 A3001 RMK TRACE SC FEW140 SCT250 NOSIG=
200908290700 METAR MROC 290700Z 00000KT CAVOK 19/18 A3000 RMK TRACE SCT SCT150 SCT250 NOSIG=
200908290800 METAR MROC 290800Z 34003KT 9999 VCFG SCT003 BKN140 19/19 A3001 RMK VIS SW W 7KMS NOSIG=
200908290900 METAR MROC 290900Z 00000KT 9999 VCFG FEW003 SCT020 BKN120 19/19 A3001 RMK VIS S SW 6KMS BECMG -RA=
200908291000 METAR MROC 291000Z 08003KT 9999 FEW020 BKN120 19/19 A3001 RMK HZY NOSIG=
200908291100 METAR MROC 291100Z 08004KT 9999 FEW035 BKN120 19/19 A3001 RMK HZY NOSIG=
200908291200 METAR MROC 291200Z 03003KT CAVOK 20/19 A3002 RMK TRACE SC OVC120 HZY NOSIG=
200908291300 METAR MROC 291300Z 09003KT CAVOK 21/19 A3003 RMK TRACE SCT OVC130 HZY NOSIG=
200908291400 METAR MROC 291400Z 07006KT CAVOK 23/19 A3004 RMK TRACE SCT OVC130 NOSIG=
200908291500 METAR MROC 291500Z 09006KT CAVOK 24/19 A3005 RMK TRACE SCT BKN130 NOSIG=
200908291600 METAR MROC 291600Z 10009KT CAVOK 27/18 A3002 RMK TRACE SCT BKN130 NOSIG=
200908291700 METAR MROC 291700Z 07011KT CAVOK 27/16 A3002 RMK TRACE SCT FEW120 BKN250 NOSIG=
200908291800 METAR MROC 291800Z 11009KT CAVOK 25/17 A3000 RMK FEW120 BKN250 TRACE SCT NOSIG=
200908291900 METAR MROC 291900Z 08008KT CAVOK 26/17 A2998 RMK TRACE SCT FEW080 BKN130 NOSIG=
200908292000 METAR MROC 292000Z 08009KT 9999 FEW025 SCT080 BKN130 25/17 A2998 NOSIG=
200908292200 METAR MROC 292200Z 11008KT 9999 FEW030 SCT110 BKN250 23/17 A2996 RMK RN NE E NOSIG=
200908292300 METAR MROC 292300Z 11008KT 9999 FEW030 SCT100 BKN250 23/17 A2996 RMK RN NE E NOSIG=
200908300000 METAR MROC 300000Z 10006KT 9999 -DZ FEW035 BKN100 22/18 A3000 NOSIG=
200908300100 METAR MROC 300100Z 11008KT 9999 FEW035 BKN100 22/17 A3001 NOSIG=
200908300200 METAR MROC 300200Z 12005KT 9999 FEW035 BKN100 22/16 A3003 NOSIG=
200908300300 METAR MROC 300300Z 07004KT CAVOK 22/16 A3006 RMK TRACE SC SCT120 NOSIG=
200908300400 METAR MROC 300400Z 00000KT CAVOK 21/16 A3006 RMK SCT120 SCT250 NOSIG=
200908300500 METAR MROC 300500Z 30002KT CAVOK 20/18 A3005 RMK TRACE SC SCT120 SCT250 NOSIG=
200908300600 METAR MROC 300600Z 00000KT CAVOK 20/17 A3004 RMK BKN250 NOSIG=
200908300700 METAR MROC 300700Z 00000KT CAVOK 20/18 A3000 RMK BKN120=
200908300800 METAR MROC 300800Z 12003KT CAVOK 19/18 A2999 RMK TRACE SC BKN120=
200908300900 METAR MROC 300900Z 05004KT CAVOK 19/18 A2996 RMK TRACE SC BKN120=
200908301000 METAR MROC 301000Z 04006KT CAVOK 20/17 A2997 RMK TRACE SC SCT120 SCT250=
200908301100 METAR MROC 301100Z 08006KT CAVOK 20/15 A2997 RMK TRACE SC BKN120=
200908301200 METAR MROC 301200Z 10010KT CAVOK 22/16 A2998 RMK TRACE SC BKN120 VEL MAX VTO 16KT=
200908301300 METAR MROC 301300Z 13008KT CAVOK 22/16 A3001 RMK TRACE SC BKN120 RN NE NOSIG=
200908301400 METAR MROC 301400Z 10007KT 9999 FEW030 BKN120 23/16 A3004 RMK RN NE NOSIG=
200908301500 METAR MROC 301500Z 12009KT 9999 FEW030 BKN120 23/17 A3005 NOSIG=
200908301600 METAR MROC 301600Z 13008KT 9999 FEW030 BKN120 25/16 A3004 NOSIG=
200908301700 METAR MROC 301700Z 12006KT 9999 FEW030 BKN120 26/17 A3002 RMK CB DST SW RAFA GAS 13KT NOSIG=
200908301800 METAR MROC 301800Z 10007KT 9999 FEW030 BKN120 27/18 A3000 RMK CB DST SW NOSIG=
200908301900 METAR MROC 301900Z 17005KT 9999 SCT030 BKN120 25/17 A2999 NOSIG=
200908302000 METAR MROC 302000Z 23004KT 9999 SCT030 BKN120 25/20 A2996 BECMG -RA=
200908302100 METAR MROC 302100Z 25008KT 9999 FEW020 SCT030 BKN110 22/20 A2997 BECMG -RA=
200908302200 METAR MROC 302200Z 28008KT 9999 FEW010 SCT025 BKN110 21/21 A2998 BECMG -RA=
200908302300 METAR MROC 302300Z 24002KT 6000 VCFG SCT004 BKN020 21/20 A2999 RMK BECMG 4000 -RA BR 8000 E=
200908310000 METAR MROC 310000Z 27002KT 9999 VCFG FEW003 SCT025 BKN110 21/21 A3001 RMK 7000 W BECMG -RA=
200908310100 METAR MROC 310100Z 34004KT 8000 VCFG FEW003 SCT025 BKN110 21/21 A3001 RMK LOW ST W NOSIG=
200908310200 METAR MROC 310200Z 00000KT 9999 FEW007 SCT025 BKN110 20/20 A3003 NOSIG=
200908310300 METAR MROC 310300Z 15002KT 6000 VCFG FEW002 SCT035 BKN120 20/19 A3002 RMK VSBY SE UNL NOSIG=
200908310400 METAR MROC 310400Z 00000KT 9999 FEW010 BKN120 20/19 A3003 NOSIG=
200908310500 METAR MROC 310500Z 02003KT CAVOK 20/19 A3001 RMK TRACE SCT BKN120 NOSIG=
200908310600 METAR MROC 310600Z 03002KT CAVOK 20/19 A2999 RMK TRACE SCT BKN120 NOSIG=
200908310700 METAR MROC 310700Z 03003KT CAVOK 20/18 A2998 RMK TRACE SC BKN120 NOSIG=
200908310800 METAR MROC 210800Z 03004KT CAVOK 19/18 A2998 RMK TRACE SC BKN120 NOSIG=
200908310900 METAR MROC NIL=
200908311000 METAR MROC 311000Z 03004KT CAVOK 19/17 A2997 RMK TRACE SC BKN120 NOSIG=
200908311100 METAR MROC 311100Z 06005KT CAVOK 20/17 A3000 RMK TRACE SCT BKN120 NOSIG=
200908311200 METAR MROC 311200Z 13004KT CAVOK 19/18 A3001 RMK TRACE SCT SCT120 NOSIG=
200908311300 METAR MROC 311300Z 05007KT 9999 FEW035 SCT120 22/18 A3002 NOSIG=
200908311400 METAR MROC 311400Z 11006KT 9999 FEW040 25/19 A3004 RMK FEW120 NOSIG=
200908311500 METAR MROC 311500Z 11009KT 9999 FEW035 26/18 A3006 RMK FEW120 NOSIG=
200908311600 METAR MROC 311600Z 13007KT 9999 FEW035 SCT250 28/18 A3005 NOSIG=
200908311700 METAR MROC 311700Z 24010KT 9999 SCT035 28/20 A3004 NOSIG=
200908311800 METAR MROC 311800Z 23011KT 9999 FEW025TCU SCT030 27/20 A3002 RMK PCPN DST NE BECMG 8000 VCSH=
200908311900 METAR MROC 311900Z 22009KT 9999 -RA FEW015TCU SCT030 25/20 A2999 BECMG 4000 -DZ RA=
200908312000 METAR MROC 312000Z 23003KT 9999 VCSH FEW012CB SCT030 BKN100 24/22 A2998 RMK RN DST N NE SW NOSIG=
200908312100 METAR MROC 312100Z 13004KT 7000 3000SW RA VCSH FEW015CB BKN025 22/22 A2999 BECMG 5000=
200908312200 METAR MROC 312200Z 23004KT 2000 -RA BR SCT002 BKN006 21/21 A2998 RMK BECMG 1000=
200908312300 METAR MROC 312300Z VRB02KT 3000 1200N -DZ BR SCT001 SCT003 BKN010 20/20 A3000 RMK VIS SE S 8KMS BECMG 5000=
200909010000 METAR MROC 010000Z 00000KT 7000 -RA VCFG FEW004 SCT010 BKN060 21/21 A3002 NOSIG=
200909010100 METAR MROC 010100Z 03003KT 9999 -RA FEW030 SCT070 BKN100 21/21 A3002 NOSIG=
200909010200 METAR MROC 010200Z 08004KT 9999 -DZ SCT130 SCT250 21/20 A3001 RERA RMK TRACE SC NOSIG=
200909010300 METAR MROC 010300Z 06006KT CAVOK 22/20 A3003 RMK TRACE SC SCT120 SCT250=
200909010400 METAR MROC 010400Z 07004KT CAVOK 21/19 A3004 RMK TRACE SC SCT120 SCT250=
200909010500 METAR MROC 010500Z 04005KT CAVOK 22/19 A3005 RMK TRACE SC SCT120 SCT250=
200909010600 METAR MROC 010600Z 07004KT CAVOK 20/19 A3003 RMK TRACE SC SCT120 SCT250=
200909010700 METAR MROC 010700Z 04008KT CAVOK 20/18 A3000 RMK TRACE SC FEW120 SCT250=
200909010800 METAR MROC 010800Z 09005KT CAVOK 21/18 A2999 RMK TRACE SC FEW120 SCT250=
200909010900 METAR MROC 010900Z 11006KT CAVOK 21/18 A2998 RMK TRACE SC FEW120 SCT250=
200909011000 METAR MROC 011000Z 09005KT CAVOK 21/18 A2998 RMK TRACE SC FEW120 SCT250 NOSIG=
200909011100 METAR MROC 011100Z 10005KT CAVOK 21/18 A2999 RMK TRACE SC SCT250 NOSIG=
200909011200 METAR MROC 011200Z 06005KT CAVOK 21/18 A3000 RMK TRACE SC SCT250 NOSIG=
200909011300 METAR MROC 011300Z 09007KT CAVOK 23/18 A3002 RMK SCT250 NOSIG=
200909011400 METAR MROC 011400Z 11008KT 9999 FEW035 25/18 A3003 RMK FEW270 NOSIG=
200909011500 METAR MROC 011500Z 11009KT 9999 FEW035 27/18 A3004 RMK FEW300 VEL MAX VTO 14KT NOSIG=
200909011600 METAR MROC 011600Z 11008KT 9999 FEW035 SCT300 28/17 A3004 NOSIG=
200909011700 METAR MROC 011700Z 11007KT 9999 FEW040 SCT270 28/18 A3004 NOSIG=
200909011800 METAR MROC 011800Z 08006KT 9999 SCT040 SCT250 27/22 A3003 NOSIG=
200909011900 METAR MROC 011900Z 24009KT 9999 FEW025TCU SCT035 27/22 A3001 RMK PCPN DST ENE BECMG 8000 VCSH=
200909012000 METAR MROC 012000Z 24007KT 9999 -DZ VCSH FEW015CB SCT040 BKN250 25/23 A2999 RMK VIS S SSW 7KMS RASH DST ENE NW BECMG 6000 VCSH=
200909012100 METAR MROC 012100Z 28006KT 9999 4500SW BR VCSH FEW005 FEW012CB BKN030 23/23 A2999 NOSIG=
200909012200 METAR MROC 012200Z 23006KT 9999 FEW005 SCT015 SCT030 23/22 A2997 RMK HZ S SW W NOSIG=
200909012300 METAR MROC 012300Z 24006KT 9999 FEW010 SCT030 BKN250 23/22 A2999 RMK HZ S SW W NOSIG=
200909020000 METAR MROC 020000Z 23005KT 9999 VCFG FEW005 SCT012 BKN250 21/21 A3001 RMK VIS 6000SW NOSIG=
200909020100 METAR MROC 020100Z 24006KT 4000 BR VCSH FEW002 SCT010 BKN025 21/21 A3003 NOSIG=
200909020200 METAR MROC 020200Z 00000KT 9999 FEW035 SCT250 21/21 A3002 NOSIG=
200909020300 METAR MROC NIL=
200909020400 METAR MROC NIL=
200909020500 METAR MROC NIL=
200909020600 METAR MROC 020600Z 08010KT CAVOK 23/17 A3001 RMK TRACE SC NOSIG=
200909020700 METAR MROC 020700Z 11007KT CAVOK 22/17 A2998 RMK TRACE SC NOSIG=
200909020800 METAR MROC 020800Z 10010KT CAVOK 22/17 A2996 RMK TRACE SC NOSIG=
200909020900 METAR MROC 020900Z 10010KT CAVOK 21/17 A2996 RMK TRACE SC NOSIG=
200909021000 METAR MROC 021000Z 11010KT CAVOK 22/17 A2997 RMK TRACE SC NOSIG=
200909021100 METAR MROC 021100Z 10010KT CAVOK 21/17 A2998 RMK TRACE SC NOSIG=
200909021200 METAR MROC 021200Z 11007KT CAVOK 22/17 A3000 RMK TRACE SC SCT300 NOSIG=
200909021300 METAR MROC 021300Z 10008KT CAVOK 23/17 A3001 RMK TRACE SC SCT300 NOSIG=
200909021400 METAR MROC 021400Z 11007KT CAVOK 25/16 A3001 RMK TRACE SC SCT300 NOSIG=
200909021500 METAR MROC 021500Z 10008KT CAVOK 27/15 A3002 RMK TRACE SCT FEW300 NOSIG=
200909021600 METAR MROC 021600Z 10010KT CAVOK 28/16 A3002 RMK TRACE SC FEW300 NOSIG=
200909021700 METAR MROC 021700Z 08009KT 9999 FEW040 29/17 A3001 NOSIG=
200909021800 METAR MROC 021800Z 08008KT 9999 FEW040 29/18 A2998 NOSIG=
200909021900 METAR MROC 021900Z 11009KT 9999 FEW035 29/17 A2996 NOSIG=
200909022000 METAR MROC 022000Z 10011KT 9999 FEW030 29/19 A2994 NOSIG=
200909022100 METAR MROC 022100Z 10010KT 9999 FEW025 SCT045 28/18 A2993 NOSIG=
200909022200 METAR MROC 022200Z 12007KT 9999 SCT030 27/19 A2992 NOSIG=
200909022300 METAR MROC 022300Z 10008KT 9999 BKN030 26/19 A2995 RMK RN N NOSIG=
200909030000 METAR MROC 030000Z 33008KT 9999 -RA VCSH FEW025 BKN045 24/22 A2997 RMK VSBY NW N NE 6KM NOSIG=
200909030100 METAR MROC 030100Z 14003KT 9999 FEW020 BKN045 23/19 A2999 RERA NOSIG=
200909030200 METAR MROC 030200Z 06006KT 9999 SCT035 BKN280 23/18 A3000 NOSIG=
200909030300 METAR MROC 030300Z 07005KT 9999 SCT030 BKN120 22/19 A3002 NOSIG=
200909030400 METAR MROC 030400Z 06007KT 9999 -RA SCT030 BKN100 23/18 A3003 NOSIG=
200909030500 METAR MROC 030500Z 08007KT 9999 FEW030 BKN110 23/18 A3002 RERA RMK=
200909030600 METAR MROC 030600Z 11008KT 9999 FEW030 BKN120 23/18 A3001 RMK LTNG DST N S VEL MAX VTO 15KT NOSIG=
200909030700 METAR MROC 030700Z 11011KT 9999 FEW030 BKN140 22/18 A2998 RMK LTNG DST S VEL MAX VTO 18KT NOSIG=
200909030800 METAR MROC 030800Z 11012KT 9999 FEW035 SCT140 BKN250 22/17 A2994=
200909030900 METAR MROC 030900Z 10011KT CAVOK 22/17 A2995 RMK SCT140 BKN250 VEL MAX VTO 16KT LTNG DST E AND S=
200909031000 METAR MROC 031000Z 11010KT CAVOK 22/17 A2996 RMK BKN250 LTNG DST S=
200909031100 METAR MROC 031100Z 11008KT CAVOK 22/17 A2997 RMK BKN250 VEL MAX VTO 15KT LTNG DST S=
200909031200 METAR MROC 031200Z 10010KT CAVOK 22/17 A2996 RMK FEW170 BKN250 VEL MAX VTO 15KT=
200909031300 METAR MROC 031300Z 11010KT CAVOK 23/17 A2998 RMK SCT080 BKN250 TRACE SCT NOSIG=
200909031400 METAR MROC 031400Z 12008KT CAVOK 25/17 A3000 RMK TRACE SCT SCT080 BKN250 NOSIG=
200909031500 METAR MROC 031500Z 12009KT CAVOK 25/17 A3002 RMK TRAZAS SCT BKN100 SCT250 NOSIG=
200909031600 METAR MROC 031600Z 11007KT CAVOK 27/17 A3002 RMK SCT100 BKN250 NOSIG=
200909031700 METAR MROC 031700Z 10007KT CAVOK 28/17 A3001 RMK TRACE SCT BKN250 FEW120 NOSIG=
200909031800 METAR MROC 031800Z 13006KT 9999 FEW035 BKN250 30/18 A2999 NOSIG=
200909031900 METAR MROC 031900Z 12007KT 9999 FEW035 BKN250 30/16 A2997 NOSIG=
200909032000 METAR MROC 032000Z 21006KT 9999 SCT030 BKN250 28/21 A2995 NOSIG=
200909032100 METAR MROC 032100Z 24009KT 9999 SCT030 BKN250 28/21 A2994 NOSIG=
200909032200 METAR MROC 032200Z 24009KT 9999 SCT030 BKN250 25/22 A2995 RMK CB RASH DST N NOSIG=
200909032300 METAR MROC 032300Z 24008KT 9999 FEW015 SCT030 BKN250 23/22 A2996 RMK HZ LEVE W NOSIG=
200909040000 METAR MROC 040000Z 24006KT 9999 FEW008 SCT030 BKN250 23/22 A2997 RMK HZ W NOSIG=
200909040100 METAR MROC 040100Z 24010KT 3000 BR FEW001 SCT010 22/22 A3000 BECMG 1500 BR=
200909040200 METAR MROC 040200Z VRB02KT 9999 4000SW FEW001 SCT010 22/22 A3002 NOSIG=
200909040300 METAR MROC 040300Z VRB03KT 2000 BR FEW001 BKN010 22/22 A3003 BECMG 1500 BR=
200909040400 METAR MROC 040400Z 08007KT CAVOK 21/18 A3005 RMK TRACE ST SC BKN250=
200909040500 METAR MROC 040500Z 07005KT CAVOK 21/18 A3005 RMK TRACE SC BKN250 LTNG DST S SW W NOSIG=
200909040600 METAR MROC 040600Z 15002KT 9999 FEW007 SCT025 BKN250 21/20 A3004 RMK LTNG S SW W BECMG 7000 VCFG=
200909040700 METAR MROC 040700Z 02005KT 9999 FEW025 SCT120 BKN250 20/20 A3003 RMK TRACE ST LTNG DST SW W NOSIG=
200909040800 METAR MROC 040800Z 00000KT 9999 FEW030 SCT120 BKN250 20/19 A2999 RMK TRACE ST LTNG DST W NOSIG=
200909040900 METAR MROC 040900Z 01003KT 9999 FEW030 SCT120 SCT250 20/19 A2997 RMK TRACE SC=
200909041000 METAR MROC 041000Z 12003KT CAVOK 20/18 A2996 RMK SCT120 BKN250=
200909041100 METAR MROC 041100Z 08006KT CAVOK 20/18 A2996 RMK TRACE SC SCT120 BKN250 NOSIG=
200909041200 METAR MROC 041200Z 07004KT CAVOK 22/18 A2997 RMK TRACE SC AC BKN250 CB DST SW NOSIG=
200909041300 METAR MROC 041300Z 10011KT CAVOK 23/18 A2998 RMK TRACE SC SCT250 NOSIG=
200909041400 METAR MROC 041400Z 10010KT CAVOK 26/18 A3000 RMK FEW120 FEW260 NOSIG=
200909041500 METAR MROC 041500Z 20005KT CAVOK 26/20 A3002 RMK TRACE CU BKN120 NOSIG=
200909041600 METAR MROC 041600Z 24007KT 9999 FEW040 BKN120 26/21 A3002 RMK TCU DST E NOSIG=
200909041700 METAR MROC 041700Z 27004KT 9999 FEW040 SCT120 27/20 A2999 RMK RN DST N NE NOSIG=
200909041800 METAR MROC 041800Z 18005KT 9999 FEW030 SCT120 28/20 A2997 RMK RN E NOSIG=
200909041900 METAR MROC 041900Z 14003KT 9999 SCT030 SCT120 27/20 A2994 RMK RN NW E NE BECMG 8000 VCSH=
200909042000 METAR MROC 042000Z 18004KT 9999 -RA FEW010TCU SCT030 BKN120 24/22 A2995 BECMG 8000 VCSH=
200909042100 METAR MROC 042100Z 23007KT 5000 -RA BR FEW002 SCT015 OVC100 21/21 A2996 BECMG 3000 -RA BR=
200909042200 METAR MROC 042200Z 25005KT 4000 BR FEW002 SCT010 OVC100 21/21 A2996 NOSIG=
200909042300 METAR MROC 042300Z 08004KT 9999 FEW002 SCT020 BKN110 21/21 A2995 NOSIG=
200909050000 METAR MROC 050000Z 09004KT 9999 SCT025 BKN110 22/21 A2997 NOSIG=
200909050100 METAR MROC 050100Z 17002KT 9999 FEW030 BKN110 21/21 A2998 RMK TRACE ST NOSIG=
200909050200 METAR MROC 050200Z 31003KT 9999 FEW035 BKN120 22/21 A3001 NOSIG=
200909050300 METAR MROC 050300Z 06006KT CAVOK 22/19 A3002 RMK BKN120 NOSIG=
200909050400 METAR MROC 050400Z 26005KT CAVOK 21/20 A3003 RMK TRACE SCT BKN120 NOSIG=
200909050500 METAR MROC 050500Z 12003KT CAVOK 20/20 A3000 RMK BKN120 NOSIG=
200909050600 METAR MROC 050600Z 00000KT CAVOK 20/20 A2999 RMK BKN140 NOSIG=
200909050700 METAR MROC 050700Z 06003KT CAVOK 20/20 A2998 RMK BKN140 NOSIG=
200909050800 METAR MROC NIL=
200909050900 METAR MROC NIL=
200909051000 METAR MROC 051000Z 03003KT CAVOK 21/19 A2997 RMK BKN120 NOSIG=
200909051100 METAR MROC 051100Z 05004KT CAVOK 21/19 A2998 RMK TRACE SCT BKN120 NOSIG=
200909051200 METAR MROC 051200Z 05006KT CAVOK 21/19 A2998 RMK TRACE SCT BKN100 CB DST S SW NOSIG=
200909051300 METAR MROC 051300Z 05003KT 9999 FEW025 BKN100 22/19 A3000 RMK RN DST NE NOSIG=
200909051400 METAR MROC 051400Z 22006KT 9999 FEW025 BKN120 25/21 A3003 RMK RN DST NE NOSIG=
200909051500 METAR MROC 051500Z 22005KT 9999 FEW025 SCT120 26/21 A3004 RMK RN DST NE NOSIG=
200909051600 METAR MROC 051600Z 25010KT 9999 FEW025 SCT120 26/22 A3004 RMK RN DST NE NOSIG=
200909051700 METAR MROC 051700Z 26010KT 9999 SCT025 BKN140 27/21 A3003 NOSIG=
200909051800 METAR MROC 051800Z 24010KT 9999 SCT020 SCT130 27/21 A3001 NOSIG=
200909051900 METAR MROC 051900Z 24010KT 9999 FEW020TCU SCT035 BKN120 28/20 A2998 RMK RN DST NE NOSIG=
200909052000 METAR MROC 052000Z 27006KT 9999 4500NE VCTS SCT020CB BKN030 26/20 A2997 RMK RN N NE E TCU DST S SW BECMG 4000 TSRA=
200909052100 METAR MROC 052100Z 01004KT 9999 -RA VCSH FEW015CB SCT025 BKN100 23/19 A2996 RETS RMK VIS NE S 7KMS OCNL TS DST NW NOSIG=
200909052200 METAR MROC 052200Z VRB03KT 9999 -RA VCSH FEW015CB SCT035 BKN120 21/21 A2996 RMK VIS SW W 8KMS TS DST WNW NW NOSIG=
200909052300 METAR MROC 052300Z 16003KT 9999 FEW035 SCT120 BKN250 22/21 A2997 RERA RMK LOW ST NEAR APCH RNY 07 NOSIG=
200909060000 METAR MROC 060000Z 07003KT 9999 FEW035 SCT090 BKN250 22/21 A2999 RMK PCPN DST E LGT HZ ARND NOSIG=
200909060100 METAR MROC 060100Z 00000KT 9999 FEW035 SCT120 BKN250 22/21 A3002 RMK TRACE OF LOW ST TO S SSW NOSIG=
200909060200 METAR MROC 060200Z 07003KT CAVOK 22/21 A3003 RMK SCT140 BKN250 NOSIG=
200909060300 METAR MROC 060300Z 36003KT CAVOK 21/21 A3004 RMK TRACE SC SCT140 BKN250=
200909060400 METAR MROC 060400Z 03003KT CAVOK 22/20 A3005 RMK TRACE SC SCT140 BKN250=
200909060500 METAR MROC 060500Z 09004KT CAVOK 20/20 A3004 RMK TRACE SCT FEW140 SCT250 NOSIG=
200909060600 METAR MROC 060600Z 03002KT CAVOK 21/20 A3003 RMK TRACE SCT FEW120 SCT250 NOSIG=
200909060700 METAR MROC 060700Z 05004KT CAVOK 21/20 A3002 RMK TRACE SCT FEW120 SCT250 NOSIG=
200909060800 METAR MROC 060800Z 08003KT CAVOK 19/18 A3000 RMK TRACE SCT FEW120 SCT250 NOSIG=
200909060900 METAR MROC 060900Z 04006KT CAVOK 20/18 A2998 RMK TRACE SCT FEW120 SCT250 NOSIG=
200909061000 METAR MROC 061000Z 03004KT CAVOK 20/18 A3000 RMK TRACE SCT SCT250 NOSIG=
200909061100 METAR MROC 061100Z 03004KT CAVOK 20/18 A3000 RMK TRACE SCT AC SCT250 NOSIG=
200909061200 METAR MROC 061200Z 32002KT CAVOK 19/18 A3001 RMK TRACE SCT FEW150 SCT250 NOSIG=
200909061300 METAR MROC 061300Z 00000KT CAVOK 22/18 A3004 RMK TRACE SC AC SCT250 NOSIG=
200909061400 METAR MROC 061400Z 27006KT 9999 FEW035 SCT250 23/20 A3007 RMK TCU DST W NOSIG=
200909061500 METAR MROC 061500Z 00000KT 9999 FEW035 SCT250 25/21 A3007 RMK TCU DST W NOSIG=
200909061600 METAR MROC 061600Z 10006KT 9999 FEW035 SCT250 28/19 A3007 RMK VEL MAX VTO 13KT NOSIG=
200909061700 METAR MROC 061700Z 11006KT 9999 SCT030TCU 29/19 A3004 BECMG 24006KT=
200909061800 METAR MROC 061800Z 21005KT 9999 SCT020TCU SCT030 27/22 A3003 RMK RN DST NE NOSIG=
200909061900 METAR MROC 061900Z 23008KT 9999 SCT020TCU SCT030 27/23 A3000 RMK RN DST NE=
200909062000 METAR MROC 062000Z 23012KT 9999 FEW020CB BKN030 27/23 A2999 RMK RN DST NE BECMG 7000 VCSH=
200909062100 METAR MROC 062100Z 21006KT 9999 FEW015TCU SCT030 BKN250 26/23 A2998 RMK CB DST SE NOSIG=
200909062200 METAR MROC 062200Z 25008KT 9999 FEW015 SCT020 BKN250 25/22 A2996 RMK LGT HZ ARND NOSIG=
200909062300 METAR MROC 062300Z 24005KT 9999 FEW010 SCT020 BKN250 24/23 A2997 RMK LGT HZ ARND NOSIG=
200909070000 METAR MROC 070000Z 24005KT 8000 VCFG SCT005 SCT025 BKN250 23/23 A2999 RMK VIS N NE 6KMS VIS SE S UNLTD CB DST SSE BECMG 5000 BR=
200909070100 METAR MROC 070100Z 27002KT 9999 VCFG SCT004 SCT030 BKN250 23/23 A3002 RMK VIS SW W N 6KMS BECMG 5000 BR=
200909070200 METAR MROC 070200Z 06003KT 9999 FEW030 SCT120 BKN250 23/21 A3002 RMK=
200909070300 METAR MROC 070300Z 10005KT 9999 FEW030 SCT110 BKN250 23/19 A3002 RMK=
200909070400 METAR MROC 070400Z 08006KT 9999 FEW030 SCT110 SCT250 23/18 A3003 RMK=
200909070500 METAR MROC 070500Z 11009KT 9999 FEW030 SCT110 23/18 A3002 RMK FEW250 NOSIG=
200909070600 METAR MROC 070600Z 09008KT 9999 FEW030 SCT130 22/19 A3001 NOSIG=
200909070700 METAR MROC 070700Z 03005KT 9999 FEW030 SCT130 22/18 A3000 NOSIG=
200909070800 METAR MROC 070800Z 06006KT 9999 FEW030 SCT130 21/18 A2999 NOSIG=
200909070900 METAR MROC 070900Z 04006KT 9999 FEW030 SCT130 21/18 A2998 NOSIG=
200909071000 METAR MROC NIL=
200909071100 METAR MROC 071100Z 06005KT 9999 FEW030 SCT250 21/18 A2998 NOSIG=
200909071200 METAR MROC 071200Z 08005KT 9999 FEW030 SCT250 21/18 A2999 RMK CB DST S NOSIG=
200909071300 METAR MROC 071300Z 11009KT CAVOK 24/18 A3000 RMK TRACE SC FEW250 VEL MAX VTO 16KT NOSIG=
200909071400 METAR MROC 071400Z 10011KT CAVOK 25/19 A3001 RMK TRACE SC VEL MAX VTO 15KT NOSIG=
200909071500 METAR MROC 071500Z 09011KT CAVOK 28/18 A3001 RMK TRACE SC VEL  MAX VTO 17KT NOSIG=
200909071600 METAR MROC 071600Z 10009KT 9999 FEW035 29/17 A3000 NOSIG=
200909071700 METAR MROC 071700Z 09010KT 9999 FEW030 30/18 A3000 RMK BECMG 13007KT=
200909071800 METAR MROC 071800Z 08011KT 9999 SCT040 31/18 A2996 RMK VEL MAX VTO 16KT BECMG 26008KT=
200909071900 METAR MROC 071900Z 06011KT 9999 SCT035 31/18 A2993 RMK VEL MAX VTO 16KT BECMG 26008KT=
200909072000 METAR MROC 072000Z 07008KT 9999 SCT035 31/17 A2991 RMK VEL MAX VTO 12KTS BECMG 24007KT=
200909072100 METAR MROC 072100Z 24005KT 9999 SCT025 29/23 A2990 NOSIG=
200909072200 METAR MROC 072200Z 24013KT 9999 SCT025 27/24 A2990 NOSIG=
200909072300 METAR MROC 072300Z 24008KT 5000 BR SCT006 SCT025 24/23 A2992 RMK VSBY SE UNL BECMG 4000 BR=
200909080000 METAR MROC 080000Z 23004KT 7000 VCFG FEW006 SCT025 23/22 A2994 RMK VSBY N 5KM VSBY S UNL BECMG 9999=
200909080100 METAR MROC 080100Z 24003KT 6000 VCFG SCT006 SCT025 23/23 A2996 RMK VSBY ESE SE UNL NOSIG=
200909080200 METAR MROC 080200Z 23002KT 9999 VCFG FEW005 SCT280 22/22 A2998 RMK VSBY NW N 6KM NOSIG=
200909080230 METAR MROC 080230Z 28003KT 9999 4000W BR FEW001 SCT250 22/22 A2998 RMK LOW ST IN IN ALL W QUAD NEAR APCH RNY 07 LTNG DST S W NOSIG=
200909080300 METAR MROC 080300Z 28003KT 9999 VCFG FEW002 SCT250 22/22 A3000 RMK VIS W SW N 6KMS LTNG DST SE S NOSIG=
200909080400 METAR MROC 080400Z 10004KT CAVOK 22/19 A3002 RMK SCT250 LTNG DST SE S NOSIG=
200909080500 METAR MROC 080500Z 09004KT CAVOK 21/19 A3001 RMK BKN250 LTNG DST S NOSIG=
200909080600 METAR MROC 080600Z 00000KT CAVOK 21/19 A2999 RMK BKN250 LTNG DST S NOSIG=
200909080700 METAR MROC 080700Z 06006KT CAVOK 20/18 A2995 RMK BKN250 LTNG DST S NOSIG=
200909080800 METAR MROC 080800Z 04006KT CAVOK 21/18 A2993 RMK BKN250 LTNG DST S NOSIG=
200909080900 METAR MROC 080900Z 08006KT CAVOK 22/18 A2994 RMK BKN250 LTNG DST S NOSIG=
200909081000 METAR MROC 081000Z 11009KT CAVOK 23/17 A2993 RMK BKN250 LTNG DST S NOSIG=
200909081100 METAR MROC 081100Z 10007KT CAVOK 22/18 A2994 RMK BKN250 LTNG DST S NOSIG=
200909081200 METAR MROC 081200Z 05003KT CAVOK 22/18 A2995 RMK BKN250 CB DST NE S NOSIG=
200909081300 METAR MROC 081300Z 08005KT CAVOK 24/18 A2998 RMK SCT250 TRACE SCT CB DST S NOSIG=
200909081400 METAR MROC 081400Z 08010KT CAVOK 26/18 A2998 RMK TRACE SCT SCT250 CB DST S NOSIG=
200909081500 METAR MROC 081500Z 09011KT 9999 FEW045 27/18 A3000 RMK FEW080 CB DST NE/S NOSIG=
200909081600 METAR MROC 081600Z 10011KT 9999 FEW035 28/18 A2998 RMK FEW250 CB DST N S NOSIG=
200909081700 METAR MROC 081700Z 09010KT 9999 FEW035 SCT280 29/18 A2996 RMK CB DST S NOSIG=
200909081800 METAR MROC 081800Z 10011KT 9999 FEW030 BKN100 28/18 A2995 NOSIG=
200909081900 METAR MROC 081900Z 07009KT 9999 FEW025 BKN100 30/18 A2992 RMK CB RN DST SW NOSIG=
200909082000 METAR MROC 082000Z 09010KT 9999 SCT030 SCT100 19/19 A2991 RMK CB DST SW NOSIG=
200909082100 METAR MROC 082100Z 12006KT 9999 SCT030 SCT100 27/19 A2989 RMK CB DST SW NOSIG=
200909082200 METAR MROC 082200Z 24010KT 9999 FEW006 SCT030 BKN100 23/23 A2990 BECMG 5000 BR=
200909082300 METAR MROC 082300Z 28007KT 9999 FEW006 SCT030 BKN100 23/22 A2992 BECMG 5000 BR=
200909090000 METAR MROC 090000Z 26006KT 9999 FEW010 SCT035 BKN100 22/21 A2994 BECMG 5000 BR=
200909090100 METAR MROC 090100Z 00000KT 9999 FEW035 SCT100 22/21 A2997 BECMG CAVOK=
200909090200 METAR MROC 090200Z 34003KT 9999 FEW035 SCT100 22/21 A2999 BECMG CAVOK=
200909090300 METAR MROC 090300Z 08002KT CAVOK 22/21 A3000 RMK FEW120 FEW250 NOSIG=
200909090400 METAR MROC 090400Z 10003KT CAVOK 21/20 A3001 RMK FEW120 NOSIG=
200909090500 METAR MROC 090500Z 08002KT CAVOK 20/19 A3000 RMK FEW100 SCT250 LTNG DST S NOSIG=
200909090600 METAR MROC 090600Z 04010KT CAVOK 21/18 A2997 RMK FEW100 SCT250 LTNG DST S NOSIG=
200909090700 METAR MROC 090700Z 05008KT CAVOK 22/18 A2994 RMK SCT250 NOSIG=
200909090800 METAR MROC 090800Z 10011KT CAVOK 22/18 A2993 RMK FEW250 NOSIG=
200909090900 METAR MROC 090900Z 10008KT 9999 FEW030 22/18 A2992 RMK FEW250 BECMG CAVOK=
200909091000 METAR MROC 091000Z 09005KT CAVOK 21/18 A2993 RMK FEW250 NOSIG=
200909091100 METAR MROC 091100Z 06008KT CAVOK 21/18 A2994 RMK FEW250 NOSIG=
200909091200 METAR MROC 091200Z 02008KT CAVOK 21/18 A2997 RMK SCT300 NOSIG=
200909091300 METAR MROC 091300Z 06005KT CAVOK 24/18 A2998 RMK BKN250 TCU DST SW NOSIG=
200909091400 METAR MROC 091400Z 10013KT 9999 FEW030 SCT300 25/18 A3000 RMK CB DST SW RN N E NOSIG=
200909091500 METAR MROC 091500Z 11009KT 9999 SCT030 FEW300 27/17 A3000 NOSIG=
200909091600 METAR MROC 091600Z 09012KT 9999 SCT030 27/17 A3000 RMK RAFAGAS 17KT NOSIG=
200909091700 METAR MROC 091700Z 10009KT 9999 SCT030 28/17 A3000 NOSIG=
200909091800 METAR MROC 091800Z 09013KT 9999 SCT030 29/17 A2997 NOSIG=
200909091900 METAR MROC 091900Z 16007KT 9999 SCT030 30/17 A2995 BECMG 24008KT=
200909092000 METAR MROC 092000Z 08006KT 9999 SCT030 30/16 A2994 BECMG 24008KT=
200909092100 METAR MROC 092100Z 23012KT 9999 SCT025TCU SCT250 28/22 A2993 NOSIG=
200909092200 METAR MROC 092200Z 24013KT 9999 FEW020 SCT030 25/22 A2994 RMK PCPN N NE NOSIG=
200909092300 METAR MROC 092300Z 25010KT 6000 RA VCFG SCT004 SCT020 BKN100 23/22 A2996 BECMG -RA BR=
200909100000 METAR MROC 100000Z 25006KT 3000 RA BR FEW004 SCT020 OVC100 22/22 A2999 NOSIG=
200909100100 METAR MROC 100100Z 21002KT 6000 VCFG FEW003 SCT020 OVC100 22/22 A3001 NOSIG=
200909100200 METAR MROC 100200Z 00000KT 9999 FEW005 SCT020 SCT100 21/21 A3002 NOSIG=
200909100300 METAR MROC 100300Z 00000KT 9999 FEW005 SCT010 21/21 A3003 NOSIG=
200909100400 METAR MROC 100400Z 00000KT 6000 VCFG FEW006 SCT010 21/21 A3004 RMK VSBY SE S UNL NOSIG=
200909100500 METAR MROC 100500Z 00000KT 9999 FEW010 SCT250 21/21 A3003 NOSIG=
200909100600 METAR MROC 100600Z 06002KT 9999 SCT008 SCT250 20/20 A3002 NOSIG=
200909100700 METAR MROC 100700Z 03004KT 9999 FEW015 SCT250 19/19 A3000 NOSIG=
200909100800 METAR MROC 100800Z 10005KT CAVOK 18/18 A2999 RMK TRACE SC/CI NOSIG=
200909100900 METAR MROC 100900Z 06005KT CAVOK 18/17 A2998 NOSIG=
200909101000 METAR MROC 101000Z 05004KT CAVOK 18/17 A2999 NOSIG=
200909101100 METAR MROC 101100Z 06005KT CAVOK 18/16 A3001 RMK TRACE CI CB DST NE NOSIG=
200909101200 METAR MROC 101200Z 07005KT CAVOK 18/16 A3001 RMK CB DST S FEW250 NOSIG=
200909101300 METAR MROC 101300Z 03004KT CAVOK 21/18 A3004 RMK CB DST S TRACE SC CI NOSIG=
200909101400 METAR MROC 101400Z 08005KT CAVOK 25/17 A3005 RMK TRACE SC CI NOSIG=
200909101500 METAR MROC 101500Z 29003KT 9999 FEW0525 27/18 A3004 NOSIG=
200909101600 METAR MROC 101600Z 17005KT 9999 FEW025 28/17 A3002 NOSIG=
200909101700 METAR MROC 101700Z VRB02KT 9999 FEW025 29/19 A3000 NOSIG=
200909101800 METAR MROC 101800Z 24010KT 9999 SCT020TCU SCT110 ///// A3000 NOSIG=
200909101900 METAR MROC 101900Z 24006KT 9999 SCT020TCU BKN110 27/20 A2997 RMK RND DST SW BECMG 7000 VCSH=
200909102000 METAR MROC 102000Z 20004KT 9999 SCT020TCU BKN120 25/19 A2997 RMK VIS NW/N 6KMS DUE RASH BECMG 6000 VCSH=
200909102100 METAR MROC 102100Z 33008KT 1000 +TSRA BKN012CB SCT025TCU 21/20 A3001 RMK STRONG STORM OVER STN ACUMULACION DE AGUA EN PISTA BECMG 3000=
200909102200 METAR MROC 102200Z 27004KT 4000 -RA VCSH BR FEW005 SCT010 BKN025 20/20 A3001 RETS NOSIG=
200909102300 METAR MROC 102300Z 01005KT 9999 DZ FEW007 SCT030 BKN100 20/20 A3001 RERA NOSIG=
200909110000 METAR MROC 110000Z 08003KT 9999 FEW020 BKN100 20/20 A3003 REDZ RMK TRACE ST CB OCNL LTNG DST WSW NOSIG=
200909110100 METAR MROC 110100Z 00000KT 9999 -RA FEW040 SCT050 BKN130 20/20 A3006 NOSIG=
200909110200 METAR MROC 110200Z 09002KT 9999 -RA FEW040 BKN120 20/20 A3008 NOSIG=
200909110300 METAR MROC 110300Z 07002KT 9999 FEW040 BKN120 20/20 A3008 RERA NOSIG=
200909110400 METAR MROC 110400Z 01002KT CAVOK 20/20 A3007 RMK BKN120 NOSIG=
200909110500 METAR MROC 110500Z 22002KT 0500 FG VV/// 20/20 A3007 NOSIG=
200909110600 METAR MROC 110600Z 13003KT 0500 R07/0100 FG VV/// 19/19 A3006 BECMG 1500 BR=
200909110700 METAR MROC 110700Z 00000KT 9999 FEW030 SCT120 BKN250 19/19 A3005 NOSIG=
200909110800 METAR MROC 110800Z 09003KT CAVOK 19/19 A3003 RMK SCT120 BKN250 NOSIG=
200909110900 METAR MROC 110900Z 07003KT CAVOK 19/19 A3003 RMK SCT120 SCT250 NOSIG=
200909111000 METAR MROC 111000Z 04002KT CAVOK 19/19 A3004 RMK SCT120 SCT250 NOSIG=
200909111100 METAR MROC 111100Z 06003KT CAVOK 19/19 A3004 RMK SCT120 SCT250 NOSIG=
200909111200 METAR MROC 111200Z 03003KT CAVOK 19/19 A3006 RMK SCT120 SCT250 NOSIG=
200909111300 METAR MROC 111300Z 07003KT CAVOK 22/19 A3007 RMK FEW140 BKN250 NOSIG=
200909111400 METAR MROC 111400Z 06004KT CAVOK 23/19 A3008 RMK BKN120 SCT250 CB DST S TCU W HZ W BECMG 24006KT=
200909111500 METAR MROC 111500Z 06004KT CAVOK 26/19 A3007 RMK BKN120 SCT250 BECMG 24006KT=
200909111600 METAR MROC 111600Z 26009KT 9999 FEW030 SCT120 BKN250 26/22 A3007 RMK LGT HZ ARND TUC DST SW NOSIG=
200909111700 METAR MROC 111700Z 25010KT 9999 FEW025TCU SCT120 BKN250 25/22 A3007 RMK PCPN DST S SSW LGT HZ ARND BECMG 7000 VCSH=
200909111725 METAR MROC 111725Z 24009KT 9999 FEW015TCU BKN025 24/22 A3005 RMK PCPN DST S SSW BECMG 7000 -RA=
200909111800 METAR MROC 111800Z 25008KT 9999 -RA VCSH FEW010 BKN015 FEW020TCU 22/22 A3004 RMK VIS S SW 5KMS BECMG 5000 -RA=
200909111900 METAR MROC 111900Z 23009KT 9999 4000N VCSH FEW015CB SCT030 BKN100 23/21 A3002 BECMG 5000 -TSRA=
200909112000 METAR MROC 112000Z 26007KT 8000 -RA FEW010 SCT020 BKN100 21/21 A3003 RMK VIS W NW 6KMS NOSIG=
200909112100 METAR MROC 112100Z 27007KT 8000 3500NE -RA BR FEW005 BKN020 20/20 A3004 BECMG 5000 -RA BR=
200909112200 METAR MROC 112200Z 03005KT 8000 3000NE RA BR FEW008 BKN070 20/20 A3005 NOSIG=
200909112300 METAR MROC 112300Z 00000KT 8000 -RA FEW008 BKN070 20/20 A3006 RMK VIS 5000 NE BR NOSIG=
200909120000 METAR MROC 120000Z 12005KT 9999 -RA FEW030 BKN100 20/20 A3009 NOSIG=
200909120100 METAR MROC 120100Z 00000KT 9999 -DZ SCT030 BKN100 20/20 A3011 NOSIG=
200909120200 METAR MROC 120200Z 12003KT CAVOK 19/19 A3010 REDZ RMK BKN120 NOSIG=
200909120300 METAR MROC 120300Z 07003KT CAVOK 20/20 A3012 RMK BKN120 NOSIG=
200909120400 METAR MROC 120400Z 02003KT CAVOK 20/20 A3011 RMK BKN120 NOSIG=
200909120500 METAR MROC 120500Z 07003KT CAVOK 20/20 A3008 RMK BKN120 NOSIG=
200909120600 METAR MROC 120600Z 06004KT CAVOK 19/19 A3006 RMK BKN120 NOSIG=
200909120700 METAR MROC 120700Z 05007KT CAVOK 20/18 A3004 RMK BKN120 NOSIG=
200909120800 METAR MROC 120800Z 07003KT CAVOK 19/18 A3002 RMK BKN120 NOSIG=
200909120900 METAR MROC 120900Z 08003KT CAVOK 19/18 A3003 RMK BKN120 NOSIG=
200909121000 METAR MROC 121000Z 04004KT CAVOK 18/18 A3003 RMK SCT120 NOSIG=
200909121100 METAR MROC 121100Z 10005KT CAVOK 18/18 A3003 RMK BKN120 NOSIG=
200909121200 METAR MROC 121200Z 06003KT CAVOK 19/18 A3004 RMK BKN120 NOSIG=
200909121300 METAR MROC 121300Z 08003KT CAVOK 23/19 A3006 RMK SCT120 NOSIG=
200909121400 METAR MROC 121400Z 09006KT CAVOK 24/20 A3007 RMK FEW120 SCT250 NOSIG=
200909121500 METAR MROC 121500Z 07006KT CAVOK 26/19 A3006 RMK FEW120 SCT250 NOSIG=
200909121600 METAR MROC 121600Z 09006KT CAVOK 28/19 A3006 RMK FEW120 BKN250 NOSIG=
200909121700 METAR MROC 121700Z 13005KT 9999 FEW045 BKN250 28/18 A3004 BECMG 15006KT=
200909121800 METAR MROC 121800Z 22007KT 9999 SCT035 BKN250 27/22 A3002 NOSIG=
200909121900 METAR MROC 121900Z 25011KT 9999 FEW020TCU SCT035 BKN250 27/23 A2999 NOSIG=
200909122000 METAR MROC 122000Z 24010KT 9999 FEW020TCU SCT030 BKN250 26/22 A2998 NOSIG=
200909122100 METAR MROC 122100Z 26009KT 9999 FEW020TCU SCT030 BKN250 25/22 A2999 RMK RN DST SE/NE BECMG 7000 VCSH=
200909122200 METAR MROC 122200Z 26008KT 9999 VCSH BKN012 SCT025TCU 23/22 A2999 RMK VSBY NNW 6KM DUE RASH NOSIG=
200909122300 METAR MROC 122300Z 22005KT 6000 VCFG SCT006 BKN012 22/22 A3001 RMK VSBY SE UNL NOSIG=
200909130000 METAR MROC 130000Z 25006KT 5000 BR SCT005 SCT012 21/21 A3003 RMK TCU W NOSIG=
200909130100 METAR MROC 130100Z 28006KT 4000 BR SCT003 SCT007 21/21 A3005 NOSIG=
200909130200 METAR MROC 130200Z 25005KT 3000 BR SCT002 SCT006 21/21 A3008 NOSIG=
200909130300 METAR MROC 130300Z 00000KT 9999 FEW005 SCT015 BKN130 21/21 A3008 NOSIG=
200909130400 METAR MROC 130400Z 00000KT 9999 FEW020 BKN130 21/21 A3007 NOSIG=
200909130500 METAR MROC 130500Z 00000KT 9999 FEW025 SCT130 BKN250 20/20 A3006 NOSIG=
200909130600 METAR MROC 130600Z 00000KT CAVOK 20/20 A3006 RMK SCT120 BKN250 NOSIG=
200909130700 METAR MROC 130700Z 00000KT 9999 VCFG FEW007 SCT015 BKN250 20/20 A3004 RMK VIS SW W 7KMS BECMG 6000=
200909130800 METAR MROC 130800Z 09002KT 9999 FEW020 SCT140 BKN250 19/19 A3003 NOSIG=
200909130900 METAR MROC 130900Z 09003KT CAVOK 19/19 A3002 RMK SCT140 BKN250 NOSIG=
200909131000 METAR MROC 131000Z 07003KT CAVOK 19/18 A3003 RMK SCT140 BKN250 NOSIG=
200909131100 METAR MROC 131100Z 06005KT CAVOK 19/18 A3002 RMK SCT140 BKN250 NOSIG=
200909131200 METAR MROC 131200Z 07006KT CAVOK 19/18 A3003 RMK SCT140 BKN250 TCU DST SSW W NOSIG=
200909131300 METAR MROC 131300Z 02004KT CAVOK 21/18 A3004 RMK SCT140 BKN250 NOSIG=
200909131400 METAR MROC 131400Z 08004KT CAVOK 25/18 A3007 RMK SCT120 NOSIG=
200909131500 METAR MROC 131500Z 10005KT CAVOK 26/18 A3008 RMK FEW120 NOSIG=
200909131600 METAR MROC 131600Z 23007KT 9999 FEW030 27/20 A3008 RMK FEW120 CB DST SW NOSIG=
200909131700 METAR MROC 131700Z 26010KT 9999 FEW025 SCT140 27/20 A3007 NOSIG=
200909131800 METAR MROC 131800Z 21010KT 9999 FEW025 BKN140 26/20 A3005 RMK RN N BECMG 7000 VCSH=
200909131900 METAR MROC 131900Z 23007KT 9999 -RA FEW020CB SCT120 25/20 A3003 NOSIG=
200909132000 METAR MROC 132000Z 26004KT 9999 FEW020 BKN280 27/20 A3000 RMK FEW130 RERA NOSIG=
200909132100 METAR MROC 132100Z 23004KT 9999 FEW010TCU SCT020 BKN280 27/21 A2997 RMK RN N NE E NOSIG=
200909132200 METAR MROC 132200Z 25007KT 9999 TS FEW010CB SCT020 BKN280 26/22 A2996 RMK RN E SE S BECMG 8000 RA=
200909132300 METAR MROC 132300Z 20006KT 9999 3000SW -RA FEW003 SCT020 BKN035 23/23 A2998 RETS BECMG 8000 VCSH=
200909140000 METAR MROC 140000Z 28005KT 8000 3000SW BR FEW001 SCT015 BKN030 22/22 A2999 BECMG 3000 BR=
200909140100 METAR MROC 140100Z 24004KT 9999 3000SW BR FEW001 SCT008 BKN030 22/22 A3001 BECMG 3000 BR=
200909140200 METAR MROC 140200Z 29003KT 8000 2000SW -RA BR FEW001 SCT008 BKN030 22/22 A3003 BECMG 3000 RA=
200909140300 METAR MROC 140300Z 00000KT 6000 2000SW BR VCFG SCT002 SCT007 22/22 A3006 NOSIG=
200909140400 METAR MROC 140400Z 25004KT 4000 1500SW R07/0500 BR SCT002 SCT005 22/22 A3006 NOSIG=
200909140500 METAR MROC 140500Z 28003KT 7000 3000SW VCFG BR FEW003 SCT008 21/21 A3005 RMK SCT100 BECMG 6000 -DZ VCFG=
200909140600 METAR MROC 140600Z 17002KT 5000 2000SW R07/0600 BR SCT002 SCT008 21/21 A3003 NOSIG=
200909140700 METAR MROC 140700Z 34004KT 8000 3000SW BR FEW001 21/21 A3002 RMK FEW010 FEW030 LTNG DST SW BECMIG 9999 FEW030=
200909140800 METAR MROC 140800Z 11002KT 9999 2000SW R07/1000 BR FEW001 20/20 A3000 RMK FEW030 BECMG 9999 FEW030=
200909140900 METAR MROC 140900Z 31004KT 9999 3000SW R07/0450 BR FEW001 20/20 A3000 RMK FEW030 LTNG DST SW ST THIN OVER STND BECMG 9999 FEW030=
200909141000 METAR MROC 141000Z 09004KT 9999 VCFG FEW001 19/19 A3000 RMK FEW030 VIS 5KM SW DUE ST LTNG DST SSE NOSIG=
200909141100 METAR MROC 141100Z 03006KT 9999 VCFG FEW003 19/19 A3003 RMK FEW250 VIS SW 7KM DUE ST LTNG DST SSE/S/SW NOSIG=
200909141200 METAR MROC 141200Z 05008KT 9999 FEW020 BKN250 20/18 A3004 NOSIG=
200909141300 METAR MROC 141300Z 11015KT 9999 FEW025 BKN250 23/19 A3005 NOSIG=
200909141400 METAR MROC 141400Z 10009KT 9999 FEW030 BKN250 25/19 A3007 NOSIG=
200909141500 METAR MROC 141500Z 13009KT 9999 FEW030 BKN250 27/18 A3008 NOSIG=
200909141600 METAR MROC NIL=
200909141700 METAR MROC 141700Z 23006KT 9999 SCT015 SCT030 27/22 A3008 RMK BKN250 NOSIG=
200909141800 METAR MROC 141800Z 24008KT 9999 FEW015 SCT030 26/23 A3005 RMK FEW250 NOSIG=
200909141900 METAR MROC 141900Z 27008KT 9999 FEW015 SCT030 28/23 A3002 NOSIG=
200909142000 METAR MROC 142000Z 27005KT 9999 FEW015 SCT030 29/23 A2999 BECMG 8000=
200909142100 METAR MROC 142100Z 25010KT 9999 SCT030 SCT100 28/23 A2997 BECMG 7000=
200909142200 METAR MROC 142200Z 22007KT 9999 SCT030 SCT100 27/23 A2997 RMK HZ LEVE ARND BECMG 7000 VCSH=
200909142300 METAR MROC 142300Z 16004KT 9999 FEW035 SCT100 BKN250 26/20 A2997 RMK HZ SW W BECMG 10010KT=
200909150000 METAR MROC 150000Z 09006KT 9999 FEW035 SCT100 BKN250 25/22 A2999 RMK TCU DST SW NOSIG=
200909150100 METAR MROC 150100Z 31003KT 9999 FEW040 SCT100 BKN250 23/23 A3002 RMK ST LOW SW NOSIG=
200909150200 METAR MROC 150200Z 16002KT 9999 FEW035 23/22 A3004 RMK TRACE ST=
200909150300 METAR MROC 150300Z 26002KT 9999 VCFG SCT006 SCT120 22/22 A3006 RMK VSBY W NW N 6KM BECMG 7000 VCFG=
200909150400 METAR MROC 150400Z 13002KT 9999 FEW010 SCT280 22/22 A3007 RMK LOW ST W NW NOSIG=
200909150500 METAR MROC 150500Z 09003KT 9999 FEW030 21/18 A3007 NOSIG=
200909150600 METAR MROC 150600Z 07005KT CAVOK 21/18 A3005 RMK TRACE SCT NOSIG=
200909150700 METAR MROC 150700Z 05005KT CAVOK 20/17 A3003 NOSIG=
200909150800 METAR MROC 150800Z 05005KT CAVOK 20/16 A3002 NOSIG=
200909150900 METAR MROC 150900Z 07005KT CAVOK 19/16 A3002 NOSIG=
200909151000 METAR MROC 151000Z 03008KT CAVOK 20/16 A3002 NOSIG=
200909151100 METAR MROC 151100Z 07007KT CAVOK 18/15 A3003 RMK FEW250 CB/LTNG DST S=
200909151200 METAR MROC 151200Z 04007KT CAVOK 18/14 A3004 RMK FEW250 CB DST S SW NOSIG=
200909151300 METAR MROC 151300Z 07007KT CAVOK 22/21 A3005 RMK CB DST S SW FEW250 NOSIG=
200909151400 METAR MROC 151400Z 09003KT CAVOK 25/14 A3007 RMK CB DST S FEW 250 NOSIG=
200909151500 METAR MROC 151500Z 24005KT CAVOK 26/17 A3007 RMK TRACE SC CI CB DST SW NOSIG=
200909151600 METAR MROC 151600Z 24008KT 9999 FEW030 26/20 A3009 RMK TRACE CI NOSIG=
200909151700 METAR MROC 151700Z 23007KT 9999 SCT030 27/20 A3007 NOSIG=
200909151800 METAR MROC 151800Z 24008KT 9999 SCT030 28/21 A3004 NOSIG=
200909151900 METAR MROC 151900Z 26010KT 9999 SCT030 27/22 A3002 NOSIG=
200909152000 METAR MROC 152000Z 25009KT 9999 SCT030 37/22 A2999 NOSIG=
200909152100 METAR MROC 152100Z 24009KT 9999 FEW020TCU SCT030 27/22 A2998 NOSIG=
200909152200 METAR MROC 152200Z 23008KT 9999 FEW020TCU SCT030 26/22 A2998 RMK PCPN DST N NE NOSIG=
200909152300 METAR MROC 152300Z 22007KT 9999 4000E -RA VCSH FEW015CB BKN030 25/22 A3000 BECMG 5000 -RA VCSH=
200909160000 METAR MROC 160000Z 23006KT 9999 FEW017TCU SCT035 23/22 A3002 RERA RMK PCPN DST E NOSIG=
200909160100 METAR MROC 160100Z 25005KT 9999 VCFG FEW005 SCT035 22/22 A3005 RMK VIS SW W 7KMS BECMG 6000 VCFG=
200909160200 METAR MROC 160200Z 25002KT 7000 VCFG SCT003 BKN015 22/22 A3007 BECMG 5000 BR=
200909160300 METAR MROC 160300Z 25002KT 7000 3000SW BR SCT003 BKN015 21/21 A3009 NOSIG=
200909160400 METAR MROC 160400Z 25004KT 5000 2000SW BR SCT002 BKN010 22/22 A3010 NOSIG=
200909160500 METAR MROC 160500Z 00000KT 7000 2000SW BR SCT003 SCT025 21/21 A3008 RMK FEW100 NOSIG=
200909160600 METAR MROC 160600Z 00000KT 9999 3000SW BR FEW001 SCT025 BKN100 21/21 A3006 NOSIG=
200909160700 METAR MROC 160700Z 00000KT 9999 3000SW BR FEW001 SCT020 BKN100 21/21 A3003 NOSIG=
200909160800 METAR MROC 160800Z 36002KT 9999 FEW020 BKN100 20/19 A3002 NOSIG=
200909160900 METAR MROC 160900Z 10004KT CAVOK 19/19 A3000 RMK BKN100 NOSIG=
200909161000 METAR MROC 161000Z 08004KT CAVOK 19/18 A3000 RMK BKN100 NOSIG=
200909161100 METAR MROC 161100Z 09003KT CAVOK 18/18 A3001 RMK BKN100 NOSIG=
200909161200 METAR MROC 161200Z 05002KT CAVOK 19/17 A3003 RMK SCT100 SCT250 NOSIG=
200909161300 METAR MROC 161300Z 07002KT CAVOK 20/18 A3004 RMK FEW120 BKN250 BECMG 24007KT=
200909161400 METAR MROC 161400Z 36005KT CAVOK 24/19 A3004 RMK BKN250 LGT HZ ARND BECMG 24007KT=
200909161500 METAR MROC 161500Z 22007KT CAVOK 25/20 A3006 RMK BKN250 HZY NOSIG=
200909161600 METAR MROC 161600Z 26006KT 9999 FEW040 BKN250 27/19 A3006 RMK HZY NOSIG=
200909161700 METAR MROC 161700Z 24008KT 9999 FEW040 BKN250 27/21 A3004 RMK HZY NOSIG=
200909161800 METAR MROC 161800Z 24009KT 9999 SCT035 SCT250 27/22 A3001 RMK HZY NOSIG=
200909161900 METAR MROC 161900Z 24010KT 9999 FEW020TCU SCT030 BKN250 26/21 A2999 RMK PCPN N BECMG 7000 VCSH SCT015CB BKN025=
200909162000 METAR MROC 162000Z 25011KT 9999 SCT017TCU SCT030 26/22 A2996 RMK PCPN DST N QUAD BECMG 7000 VCSH=
200909162100 METAR MROC 162100Z 26010KT 9999 RA SCT015TCU BKN030 24/22 A2995 BECMG 7000 VCSH=
200909162200 METAR MROC 162200Z 27009KT 9999 VCSH SCT012TCU SCT025 24/21 A2997 RERA RMK VIS 7000SW FEW250 RN DST ARND BECMG 5000 -RA BR=
200909162300 METAR MROC 162300Z 25007KT 7000 3000SW VCFG BR SCT008 BKN015 22/21 A2998 BECMG 3000 -RA BR=
200909170000 METAR MROC 170000Z 26005KT 9999 -DZ FEW006 SCT020 BKN070 21/21 A3000 RMK RN DST NE E SE NOSIG=
200909170100 METAR MROC 170100Z 29004KT 9999 -DZ FEW008 SCT030 BKN090 21/21 A3003 RMK RN DST NE E NOSIG=
200909170200 METAR MROC 170200Z 28002KT 9999 -DZ FEW010 SCT025 BKN090 21/21 A3005 NOSIG=
200909170300 METAR MROC 170300Z 26004KT 9999 FEW010 SCT020 BKN100 21/21 A3006 NOSIG=
200909170400 METAR MROC 170400Z 29003KT 8000 VCFG FEW007 SCT015 BKN100 21/21 A3007 BECMG 5000 BR=
200909170500 METAR MROC 170500Z 26002KT 9999 FEW005 SCT015 BKN100 21/21 A3006 RMK TRACE SC NOSIG=
200909170600 METAR MROC 170600Z 00000KT 9999 FEW005 SCT110 21/20 A3004 NOSIG=
200909170700 METAR MROC 170700Z 00000KT 9999 FEW005 SCT110 20/20 A3002 NOSIG=
200909170800 METAR MROC 170800Z 00000KT CAVOK 20/20 A3000 RMK TRACE ST AC NOSIG=
200909170900 METAR MROC 170900Z 00000KT CAVOK 20/20 A2999 RMK TRACE ST AC NOSIG=
200909171000 METAR MROC 171000Z 06003KT CAVOK 19/19 A3000 RMK TRACE ST AC NOSIG=
200909171100 METAR MROC 171100Z 08003KT CAVOK 18/18 A3001 RMK TRACE ST AC NOSIG=
200909171200 METAR MROC 171200Z 01002KT CAVOK 18/18 A3002 RMK TRACE ST AC SCT260 NOSIG=
200909171300 METAR MROC 171300Z 01003KT CAVOK 21/19 A3004 RMK BKN250 HZ LEVE S SW W NOSIG=
200909171400 METAR MROC 171400Z 23004KT 9999 FEW025 BKN250 23/20 A3007 RMK HZ SW W NOSIG=
200909171500 METAR MROC 171500Z 25004KT 9999 FEW025 BKN250 24/19 A3007 RMK HZ ARND NOSIG=
200909171600 METAR MROC 171600Z 25006KT 9999 SCT025 25/20 A3006 RMK HZ ARND NOSIG=
200909171700 METAR MROC 171700Z 25005KT 9999 SCT025 SCT250 27/20 A3004 RMK HZ LEVE ARND NOSIG=
200909171800 METAR MROC 171800Z 24008KT 9999 FEW015TCU SCT025 SCT250 26/21 A3001 RMK HZ LEVE ARND NOSIG=
200909171900 METAR MROC 171900Z 25009KT 9999 FEW015TCU SCT025 SCT250 27/22 A2998 RMK HZ LEVE ARND RN DST NE E BECMG 7000 VCSH=
200909172000 METAR MROC 172000Z 23010KT 9999 VCSH SCT015CB SCT025 27/22 A2995 RMK VIS 7000NE RN DST N BECMG 5000 VCTS VCSH=
200909172100 METAR MROC 172100Z 21009KT 6000 VCSH SCT012TCU BKN040 23/21 A2994 BECMG 5000 -TSRA=
200909172200 METAR MROC 172200Z 25009KT 6000 VCFG FEW003 SCT015 BKN080 22/21 A2995 RMK VSBY E SE S RN E NOSIG=
200909172300 METAR MROC 172300Z 26008KT 5000 BR BKN005 SCT012 21/21 A2997 RMK VSBY SE 7KM BECMG 2000 -RA BR=
200909180000 METAR MROC 180000Z 31005KT 7000 VCFG BKN005 SCT012 21/21 A2999 RMK VSBY S SE E UNL NOSIG=
200909180100 METAR MROC 180100Z 32005KT 9999 BKN015 21/20 A3000 NOSIG=
200909180200 METAR MROC 180200Z 33005KT 9999 FEW020 SCT045 21/20 A3002 NOSIG=
200909180300 METAR MROC 180300Z 00000KT 9999 FEW030 BKN250 20/20 A3003 NOSIG=
200909180400 METAR MROC 180400Z 07003KT CAVOK 19/19 A3003 RMK BKN250 NOSIG=
200909180500 METAR MROC 180500Z 01005KT CAVOK 19/18 A3003 RMK BKN250 NOSIG=
200909180600 METAR MROC 180600Z 02002KT CAVOK 19/18 A3001 RMK BKN250 NOSIG=
200909180700 METAR MROC 180700Z VRB03KT 0500 FG VV/// 19/19 A2998 RMK VIS E N UNLTD BECMG 9999=
200909180800 METAR MROC 180800Z 00000KT 9999 3000SW BR SCT002 SCT040 19/19 A2998 RMK FG OVER APCH RNY 07 NOSIG=
200909180900 METAR MROC 180900Z 08002KT 9999 VCFG FEW004 SCT040 BKN250 18/18 A2997 RMK VIS S SW 8KMS NOSIG=
200909181000 METAR MROC 181000Z 00000KT 9999 FEW040 SCT250 18/18 A2997 NOSIG=
200909181100 METAR MROC 181100Z 02002KT CAVOK 18/17 A2999 RMK SCT250 NOSIG=
200909181200 METAR MROC 181200Z 09003KT CAVOK 18/17 A3000 RMK SCT300 CB DST S NOSIG=
200909181300 METAR MROC 181300Z 04006KT CAVOK 21/18 A3001 RMK SCT250 CB DIST S SW NOSIG=
200909181400 METAR MROC 181400Z 07004KT CAVOK 23/18 A3003 RMK FEW150 SCT290 HZ W CB DIST SW BECMG 24007KT=
200909181500 METAR MROC 181500Z 11004KT CAVOK 26/17 A3002 RMK FEW150 SCT290 HZ W CB=
200909181600 METAR MROC 181600Z 17008KT CAVOK 28/20 A3000 RMK SCT270 HZ W NOSIG=
200909181700 METAR MROC 181700Z 24010KT 9999 FEW040 BKN270 28/20 A2999 RMK HZ W NOSIG=
200909181800 METAR MROC 181800Z 25010KT 9999 FEW020 SCT030TCU 28/21 A2998 RMK SCT250 BECMG 7000 VCSH=
200909181900 METAR MROC 181900Z 22014KT 9999 FEW010 SCT020 BKN250 24/22 A2997 RMK VIS SW 7KM DUE RN BECMG 3000 -RA=
200909181956 METAR MROC 192000Z 25008KT 9999 FEW006 SCT020TCU BKN250 23/22 A2995 BECMG 5000 -RA BR=
200909182000 METAR MROC NIL=
200909182100 METAR MROC 182100Z 25007KT 9999 FEW006 SCT020 BKN250 23/22 A2994 BECMG 5000 -RA BR=
200909182200 METAR MROC 182200Z 26009KT 9999 FEW005 SCT015 BKN250 23/22 A2994 BECMG 5000 -RA BR=
200909182300 METAR MROC 182300Z 29006KT 9999 3000SW BR FEW001 SCT015 BKN250 23/22 A2996 BECMG 5000 -RA BR=
200909190000 METAR MROC 190000Z 24003KT 9999 FEW003 SCT015 BKN250 22/22 A2998 RMK FEW130 BECMG 5000 -RA BR=
200909190100 METAR MROC 190100Z 00000KT 9999 -RA SCT020 SCT100 22/22 A3000 RMK FEW250 BECMG 5000 -RA BR=
200909190200 METAR MROC 190200Z 25003KT 9999 -RA SCT020 SCT100 22/22 A3001 BECMG 5000 -RA BR=
200909190300 METAR MROC 190300Z 26003KT 6000 DZ VCFG FEW003 BKN008 21/21 A3003 NOSIG=
200909190400 METAR MROC 190400Z 23003KT 3000 DZ BR BKN004 21/21 A3005 BECMG 5000 RA BR=
200909190500 METAR MROC 190500Z 22002KT 4000 -DZ BR SCT004 BKN010 21/21 A3004 BECMG 5000 -RA BR=
200909190600 METAR MROC 190600Z 00000KT 5000 BR FEW004 BKN012 21/21 A3002 REDZ BECMG 7000 VCFG=
200909190700 METAR MROC 190700Z 25002KT 5000 BR SCT001 SCT012 20/20 A3000 RMK VIS SW 3KM BECMG 6000 VCFG=
200909190800 METAR MROC 190800Z 00000KT 7000 3000SW BR SCT002 SCT012 20/20 A2999 RMK VIS E UNL BECMG 03004KT 9999=
200909190900 METAR MROC 190900Z 08003KT 9999 VCFG FEW003 19/19 A2997 RMK FEW030 VIS SW 7KM DUE ST NOSIG=
200909191000 METAR MROC 191000Z 07004KT CAVOK 19/18 A2997 RMK FEW250 NOSIG=
200909191100 METAR MROC 191100Z 06005KT CAVOK 19/18 A2998 RMK FEW250 TCU DST S NOSIG=
200909191200 METAR MROC 191200Z 10004KT CAVOK 19/18 A2999 RMK SCT250 CB DST S NOSIG=
200909191300 METAR MROC 191300Z 07004KT CAVOK 22/19 A3001 RMK SCT250 TCU DST SW=
200909191400 METAR MROC 191400Z 35004KT CAVOK 24/19 A3001 RMK SCT250 CB DST S SW BECMG 24006KT=
200909191500 METAR MROC 191500Z 23003KT 9999 FEW040 SCT250 26/20 A3003 NOSIG=
200909191600 METAR MROC 191600Z 10008KT 9999 FEW040 SCT250 28/19 A3002 BECMG 24006KT=
200909191700 METAR MROC 191700Z 12010KT 9999 FEW040 SCT250 29/18 A3001 NOSIG=
200909191800 METAR MROC 191800Z 09008KT 9999 SCT040 SCT250 29/18 A2998 NOSIG=
200909191900 METAR MROC 191900Z 20002KT 9999 SCT040 SCT250 29/22 A2995 RMK FEW070 RN DST SW BECMG 24008KT=
200909192000 METAR MROC 192000Z 23012KT 9999 3000SW TS BR FEW003 SCT015 BKN035 24/22 A2995 BECMG 5000 RA=
200909192100 METAR MROC 192100Z 18009KT 4000 TSRA FEW008CB SCT015 OVC100 20/20 A3002 BECMG 3000 TSRA=
200909192200 METAR MROC 192200Z 14003KT 8000 -TSRA FEW013CB OVC100 19/19 A2999 BECMG 5000 RA=
200909192300 METAR MROC 192300Z 07009KT 9999 RA OVC100 20/20 A2994 NOSIG=
200909200000 METAR MROC 200000Z 17005KT CAVOK 21/19 A2994 RMK BKN100 NOSIG=
200909200100 METAR MROC 200100Z 30003KT 9999 FEW030 BKN100 21/20 A3000 RMK TRACE ST NOSIG=
200909200200 METAR MROC 200200Z 13004KT CAVOK 20/20 A3000 RMK TRACE ST BKN100 NOSIG=
200909200300 METAR MROC 200300Z 06008KT CAVOK 21/19 A3001 RMK SCT120 NOSIG=
200909200400 METAR MROC 200400Z 09004KT CAVOK 20/19 A2999 RMK TRACE SC/CI NOSIG=
200909200500 METAR MROC 200500Z 04008KT CAVOK 21/19 A2999 RMK TRACE SC/CI NOSIG=
200909200600 METAR MROC 200600Z 11006KT CAVOK 21/18 A2997 RMK TRACE SC/CI NOSIG=
200909200700 METAR MROC 200700Z 07004KT CAVOK 21/18 A2996 RMK TRACE SC/CI NOSIG=
200909200800 METAR MROC 200800Z 04008KT CAVOK 21/18 A2996 RMK TRACE NOSIG=
200909200900 METAR MROC 200900Z 05009KT CAVOK 20/18 A2995 RMK TRACE SCT NOSIG=
200909201000 METAR MROC 201000Z 06008KT CAVOK 20/18 A2995 RMK TRACE SCT NOSIG=
200909201100 METAR MROC 201100Z 02006KT 9999 FEW040 20/18 A2996 RMK TRACE CI LTNG AND CB DIST S SW NOSIG=
200909201200 METAR MROC 201200Z 08008KT 9999 FEW040 SCT250 21/18 A2998 RMK CB DIST S NOSIG=
200909201300 METAR MROC 201300Z 11008KT 9999 FEW035 BKN250 20/19 A3001 NOSIG=
200909201400 METAR MROC 201400Z 11007KT 9999 FEW035 BKN250 25/19 A3003 NOSIG=
200909201500 METAR MROC 201500Z 09007KT 9999 FEW035 BKN250 27/18 A3005 NOSIG=
200909201600 METAR MROC 201600Z 09004KT 9999 SCT035 BKN250 28/18 A3004 NOSIG=
200909201700 METAR MROC 201700Z 07009KT 9999 FEW030 BKN250 28/19 A3002 NOSIG=
200909201800 METAR MROC 201800Z 10004KT 9999 FEW035 BKN250 29/18 A2999 NOSIG=
200909201900 METAR MROC 201900Z 15003KT 9999 FEW035 BKN250 27/22 A2995 BECMG 23009KT=
200909202000 METAR MROC 202000Z 22008KT 9999 FEW030 BKN250 27/23 A2993 NOSIG=
200909202100 METAR MROC 202100Z 25003KT 9999 FEW035 BKN250 28/23 A2991 RMK TCU DST SSW W NW NOSIG=
200909202200 METAR MROC 202200Z 08005KT 9999 FEW035 BKN250 28/18 A2991 RMK CB DST S NOSIG=
200909202300 METAR MROC 202300Z 06002KT 9999 SCT040 BKN250 25/22 A2992 RMK LGT HZ W QD NOSIG=
200909210000 METAR MROC 210000Z 28002KT 9999 VCFG FEW001 BKN250 22/22 A2996 RMK VIS SW W 8KMS BECMG 5000 BR=
200909210100 METAR MROC NIL=
200909210200 METAR MROC 210200Z 09002KT CAVOK 22/19 A2998 RMK BKN250 NOSIG=
200909210300 METAR MROC 210300Z 08003KT CAVOK 21/19 A3000 RMK BKN250 NOSIG=
200909210400 METAR MROC 210400Z 00000KT CAVOK 21/20 A3001 RMK BKN250 NOSIG=
200909210500 METAR MROC 210500Z 34002KT CAVOK 22/18 A3000 RMK BKN250 NOSIG=
200909210600 METAR MROC 210600Z 12005KT CAVOK 22/18 A3000 RMK BKN250 RMK LTNG DST SW NOSIG=
200909210700 METAR MROC 210700Z 10007KT CAVOK 22/18 A2998 RMK BKN250 NOSIG=
200909210800 METAR MROC 210800Z 10005KT CAVOK 22/18 A2995 RMK BKN250 RMK LTNG DST SW NOSIG=
200909210900 METAR MROC 210900Z 05006KT CAVOK 20/18 A2995 RMK BKN250 RMK LTNG DST SW NOSIG=
200909211000 METAR MROC 211000Z 07005KT CAVOK 20/17 A2995 RMK BKN250 RMK LTNG DST SW NOSIG=
200909211100 METAR MROC 211100Z 06005KT CAVOK 20/17 A2999 RMK BKN250 RMK FEW130 LTNG DST SW NOSIG=
200909211200 METAR MROC 211200Z 05005KT CAVOK 20/18 A2998 RMK FEW130 RMK BKN250 NOSIG=
200909211300 METAR MROC 211300Z 36004KT CAVOK 23/18 A3000 RMK BKN250 RMK CB DST WSW NOSIG=
200909211400 METAR MROC 211400Z 10009KT CAVOK 25/19 A3000 RMK BKN250 RMK CB DST SW NOSIG=
200909211500 METAR MROC 211500Z 09009KT CAVOK 28/18 A3000 RMK BKN250 NOSIG=
200909211600 METAR MROC 211600Z 10008KT CAVOK 29/18 A2999 RMK BKN250 RMK CB DST SW VEL MAX VTO 14KT NOSIG=
200909211700 METAR MROC 211700Z 09008KT 9999 FEW040 BKN250 29/18 A2997 RMK VEL MX VTO 14KT NOSIG=
200909211800 METAR MROC 211800Z 08008KT 9999 FEW040 BKN250 30/17 A2994 NOSIG=
200909211900 METAR MROC 211900Z 09006KT 9999 FEW040 BKN250 29/18 A2992 NOSIG=
200909212000 METAR MROC 212000Z 10006KT 9999 FEW035 BKN250 29/18 A2990 RMK LGT HZ W QUAD NOSIG=
200909212100 METAR MROC 212100Z 25005KT 9999 SCT030 BKN110 27/23 A2990 RMK FEW250 NOSIG=
200909212200 METAR MROC 212200Z 26011KT 9999 FEW030 BKN250 26/23 A2991 RMK FEW110 HZ SW W N NOSIG=
200909212300 METAR MROC 212300Z 24005KT 9999 FEW030 BKN250 24/23 A2994 RMK FEW100 HZ SW W N NOSIG=
200909220000 METAR MROC 220000Z 26005KT 9999 SCT025 BKN250 23/23 A2994 RMK LINEA CB DST SSW SW LTNG DST SSW SW BECMG 7000 VCSH=
200909220100 METAR MROC 220100Z 26003KT 9999 VCFG FEW004 BKN250 22/22 A2996 RMK FEW035 VIS 7000 SW W LTNG SW NOSIG=
200909220200 METAR MROC 220200Z 27002KT 9999 VCFG FEW004 BKN250 22/22 A2997 RMK VIS 7000SW FEW035 NOSIG=
200909220300 METAR MROC 220300Z 18002KT 9999 FEW004 SCT025 SCT250 22/22 A2999 NOSIG=
200909220400 METAR MROC 220400Z 00000KT 8000 VCFG FEW004 SCT250 21/21 A3000 RMK TRACE SC BECMG 05006KT=
200909220500 METAR MROC 220500Z 08002KT 9999 FEW004 SCT250 20/19 A2999 RMK TRACE SC NOSIG=
200909220600 METAR MROC 220600Z 06005KT CAVOK 21/19 A2997 RMK SCT250 NOSIG=
200909220700 METAR MROC 220700Z 07008KT CAVOK 20/17 A2994 RMK SCT250 NOSIG=
200909220800 METAR MROC 220800Z 06005KT CAVOK 21/17 A2992 RMK LTNG DST S SCT250 NOSIG=
200909220900 METAR MROC 220900Z 09006KT CAVOK 21/17 A2991 RMK LTNG DST S SCT250 NOSIG=
200909221000 METAR MROC 221000Z 07006KT CAVOK 21/17 A2990=
200909221100 METAR MROC 221100Z 12007KT CAVOK 22/17 A2992 RMK LTNG DST S SW SCT250 NOSIG=
200909221200 METAR MROC 221200Z 06007KT CAVOK 20/17 A2993 RMK TRACE SC AC BKN250 NOSIG=
200909221300 METAR MROC 221300Z 05005KT CAVOK 22/18 A2996 RMK TRACE SC/AC OVC250 NOSIG=
200909221400 METAR MROC 221400Z 09003KT CAVOK 25/18 A2995 RMK OVC250 NOSIG=
200909221500 METAR MROC 221500Z 10008KT CAVOK 27/19 A2995 RMK OVC250 NOSIG=
200909221600 METAR MROC 221600Z 10011KT CAVOK 28/18 A2996 RMK OVC250 NOSIG=
200909221700 METAR MROC 221700Z 10009KT 9999 FEW040 BKN250 29/18 A2995 RMK VEL MAX VTO 16KT NOSIG=
200909221800 METAR MROC 221800Z 13005KT 9999 SCT035 BKN250 30/19 A2993 BECMG 25004KT=
200909221900 METAR MROC 221900Z 20006KT 9999 BKN035 SCT250 27/23 A2991 NOSIG=
200909222000 METAR MROC 222000Z 25010KT 9999 VCSH BKN030 SCT250 27/23 A2988 RMK VIS 7000NW RN DST N NE NOSIG=
200909222100 METAR MROC 222100Z 28008KT 9999 -RA VCSH FEW015TCU SCT140 BKN280 23/23 A2987 RMK VSBU NW N 5KM CB NW NOSIG=
200909222200 METAR MROC 222200Z 32004KT 9999 FEW015 BKN030 24/22 A2989 RMK RN ARND RERA NOSIG=
200909222300 METAR MROC 222300Z 24006KT 5000 -RA BR FEW004 BKN020 21/21 A2992 RMK VSBY N NE 3KM TS DST S NOSIG=
200909230000 METAR MROC 230000Z 29002KT 7000 -RA VCFG FEW005 BKN025 20/209 A2994 RMK VSBY SE SW UNL NOSIG=
200909230100 METAR MROC 230100Z 00000KT 9999 FEW015 BKN140 21/21 A2996 RERA NOSIG=
200909230200 METAR MROC 230200Z 29002KT 9999 FEW020 BKN140 21/21 A2997 NOSIG=
200909230300 METAR MROC NIL=
200909230400 METAR MROC 230400Z 00000KT 9999 FEW015 SCT140 BKN250 21/21 A2999 NOSIG=
200909230500 METAR MROC 230500Z 36003KT 9999 SCT025 SCT140 21/21 A2997 NOSIG=
200909230600 METAR MROC 230600Z 00000KT 9999 VCFG FEW010 SCT015 BKN030 21/21 A2997 RMK VIS S SW 6KMS NOSIG=
200909230700 METAR MROC 230700Z 05005KT 9999 FEW030 BKN250 20/20 A2993 BECMG CAVOK=
200909230800 METAR MROC 230800Z 10003KT CAVOK 20/20 A2992 RMK BKN250 NOSIG=
200909230900 METAR MROC 230900Z 00000KT CAVOK 20/20 A2991 RMK BKN250 NOSIG=
200909231000 METAR MROC 231000Z 06002KT CAVOK 19/18 A2991 RMK BKN250 NOSIG=
200909231100 METAR MROC 231100Z 11004KT CAVOK 19/18 A2992 RMK BKN250 NOSIG=
200909231200 METAR MROC 231200Z 06002KT CAVOK 19/18 A2992 RMK FEW160 BKN250 ERUPCION EN VOLCAN TURRIALBA NOSIG=
200909231300 METAR MROC 231300Z 03005KT CAVOK 21/18 A2994 RMK SCT140 BKN250 NOSIG=
200909231400 METAR MROC 231400Z 34003KT CAVOK 23/19 A2993 RMK BKN250 NOSIG=
200909231500 METAR MROC 231500Z 34002KT CAVOK 27/20 A2994 RMK BKN250 BECMG 24006=
200909231600 METAR MROC 231600Z 09006KT 9999 SCT030 BKN280 27/18 A2995 NOSIG=
200909231700 METAR MROC 231700Z 26009KT 9999 SCT040 BKN280 26/21 A2993 NOSIG=
200909231800 METAR MROC 231800Z 25009KT 9999 SCT025 BKN280 27/22 A2990 RMK RN NE NOSIG=
200909231900 METAR MROC 231900Z 24010KT 9999 SCT025 BKN280 27/23 A2987 RMK RN NE BECMG 5000 VCSH=
200909232000 METAR MROC 232000Z 27011KT 5000 1500N TSRA SCT012CB BKN025 23/21 A2988 RMK VSBY SE S SW UNL BECMG 1500 +TSRA=
200909232100 METAR MROC 232100Z 16003KT 4000 TSRA FEW015CB SCT025 OVC100 20/20 A2987 BECMG 6000 -TSRA=
200909232200 METAR MROC 232200Z 00000KT 9000 -RA FEW015 SCT025 OVC100 20/20 A2988 NOSIG=
200909232300 METAR MROC 232300Z 32002KT 9999 SCT020 OVC100 21/20 A2988 RERA NOSIG=
200909232345 METAR MROC 232345Z 00000KT 6000 -RA VCFG SCT010 OVC090 20/19 A2988 RMK=
200909240000 METAR MROC 240000Z 00000KT 9999 SCT020 OVC100 21/21 A2991 NOSIG=
200909240100 METAR MROC 240100Z 00000KT 9999 SCT025 OVC100 21/20 A2993 RMK TRACE ST NOSIG=
200909240200 METAR MROC 240200Z 15002KT 9999 SCT025 BKN100 20/20 A2995 NOSIG=
200909240300 METAR MROC 240300Z 09003KT CAVOK 20/20 A2995 RMK SCT120 SCT250 NOSIG=
200909240400 METAR MROC 240400Z 04005KT CAVOK 21/21 A2994 RMK FEW120 SCT250 NOSIG=
200909240500 METAR MROC 240500Z 06009KT CAVOK 21/19 A2992 RMK FEW120 SCT250 NOSIG=
200909240600 METAR MROC 240600Z 06007KT CAVOK 21/18 A2991 RMK FEW120 SCT250 NOSIG=
200909240700 METAR MROC 240700Z 09003KT CAVOK 21/19 A2990 RMK SCT120 SCT250 NOSIG=
200909240800 METAR MROC 240800Z VRB03KT CAVOK 20/20 A2989 RMK BKN110 NOSIG=
200909240900 METAR MROC 240900Z 00000KT 9999 FEW003 BKN110 20/20 A2989 RMK ST S=
200909241000 METAR MROC 241000Z 08003KT 9999 FEW035 BKN110 20/20 A2989 BECMG CAVOK=
200909241100 METAR MROC 241100Z 02003KT CAVOK 19/19 A2990 RMK BKN110 RMK LTNG DST S NOSIG=
200909241200 METAR MROC 241200Z 09003KT CAVOK 20/19 A2991 RMK BKN110 NOSIG=
200909241300 METAR MROC 241300Z 00000KT CAVOK 22/20 A2993 RMK BKN110 RMK SCT250 NOSIG=
200909241400 METAR MROC 241400Z 00000KT CAVOK 23/20 A2995 RMK BKN110 RMK SCT250 BECMG 24006KT=
200909241500 METAR MROC 241500Z 27004KT CAVOK 24/21 A2996 RMK SCT110 RMK BKN250 NOSIG=
200909241600 METAR MROC 241600Z 26007KT 9999 FEW040 SCT110 BKN250 26/21 A2995 NOSIG=
200909241700 METAR MROC 241700Z 22008KT 9999 FEW040 SCT110 BKN250 25/20 A2994 NOSIG=
200909241800 METAR MROC 241800Z 13003KT 8000 RA FEW015TCU SCT030 BKN100 22/22 A2990 BECMG 5000 -SHRA=
200909241900 METAR MROC 241900Z 13003KT 8000 RA FEW015TCU SCT030 BKN100 22/22 A2990 BECMG 5000 -SHRA=
200909242000 METAR MROC 242000Z VRB02KT 9999 FEW015 SCT030 BKN100 23/21 A2998 BECMG 5000 -SHRA=
200909242100 METAR MROC 242100Z 27003KT 9999 FEW005 SCT025 BKN100 24/21 A2987 BECMG 6000 VCSH=
200909242200 METAR MROC 242200Z 24007KT 4000 VCTS SCT005 BKN015 21/21 A2989 RMK VIS E 6000 BECMG 2000 -RA BR=
200909242300 METAR MROC 242300Z 21002KT 1500 -RABR FEW002 SCT005 BKN010 21/21 A2990 NOSIG=
200909250000 METAR MROC 250000Z 21002KT 6000 VCFG FEW002 SCT015 BKN100 20/20 A2993 RERA NOSIG=
200909250100 METAR MROC 250100Z 09002KT 9999 SCT015 OVC100 21/21 A2996 NOSIG=
200909250200 METAR MROC 250200Z 33004KT 9999 SCT020 OVC100 21/21 A2995 NOSIG=
200909250300 METAR MROC 250300Z 05007KT CAVOK 21/20 A2996 RMK FEW140 BKN280 NOSIG=
200909250400 METAR MROC 250400Z 10003KT CAVOK 20/20 A2997 RMK FEW150 SCT250 NOSIG=
200909250500 METAR MROC 250500Z 07005KT CAVOK 20/19 A2997 RMK FEW250 NOSIG=
200909250600 METAR MROC 250600Z 08005KT CAVOK 19/19 A2996 RMK SCT270 NOSIG=
200909250700 METAR MROC 250700Z 05005KT CAVOK 19/18 A2994 RMK FEW270 NOSIG=
200909250800 METAR MROC 250800Z 03007KT CAVOK 20/18 A2993 RMK FEW280 NOSIG=
200909250900 METAR MROC 250900Z 05005KT CAVOK 20/18 A2992 RMK FEW280 NOSIG=
200909251000 METAR MROC 251000Z 03008KT CAVOK 19/18 A2993 NOSIG=
200909251100 METAR MROC 251100Z 04007KT CAVOK 19/18 A2994 RMK FEW250 NOSIG=
200909251200 METAR MROC 251200Z 05003KT CAVOK 20/18 A2996 RMK BKN250 CB DST S NOSIG=
200909251300 METAR MROC 251300Z 00000KT CAVOK 22/18 A2997 RMK BKN250 NOSIG=
200909251400 METAR MROC 251400Z 07002KT CAVOK 26/20 A2997 RMK BKN250 NOSIG=
200909251500 METAR MROC 251500Z 11008KT 9999 FEW030 BKN250 27/19 A2997 NOSIG=
200909251600 METAR MROC 251600Z 10006KT 9999 FEW030 BKN250 28/19 A2999 NOSIG=
200909251700 METAR MROC 251700Z 13006KT 9999 SCT030 BKN250 28/19 A2999 RMK TRACE AC BECMG 24007KT=
200909251800 METAR MROC 251800Z 24011KT 9999 SCT030 SCT120 BKN250 26/23 A2996 NOSIG=
200909251900 METAR MROC 251900Z 24010KT 9999 SCT025 BKN110 26/23 A2993 RMK PCPN N NE NOSIG=
200909252000 METAR MROC 252000Z 24008KT 9999 FEW010 SCT025 BKN100 26/22 A2993 RMK PCPN N NE BECMG 8000 VCSH=
200909252100 METAR MROC 252100Z 25008KT 9999 FEW020 SCT120 BKN250 25/23 A2991 RMK HZY NOSIG=
200909252200 METAR MROC 252200Z 26005KT 9999 FEW010 SCT020 BKN250 24/23 A2991 RMK HZ ARND BECMG 7000 VCSH=
200909252300 METAR MROC 252300Z 24003KT 9999 VCSH FEW008 SCT017TCU BKN045 23/23 A2994 RMK VIS SW W 7KMS BECMG 6000 -RA VCFG=
200909252312 METAR MROC 252312Z 22004KT 8000 -RA VCSH FEW008 SCT015TCU BKN040 23/23 A2995 BECMG 5000 -RA BR=
200909260000 METAR MROC 260000Z 26004KT 8000 3000E VCFG BR SCT004 SCT010 BKN120 22/22 A2995 RERA RMK VIS SE S UNL NOSIG=
200909260100 METAR MROC 260100Z 27003KT 5000 BR SCT003 BKN010 22/22 A2998 RMK VIS SE UNLTD BECMG 3000=
200909260200 METAR MROC 260200Z 28002KT 2000 BR SCT002 SCT005 BKN250 22/22 A2999 RMK FG BANK NEAR APCH RNY 07 VIS N NE 6KMS NOSIG=
200909260300 METAR MROC 260300Z VRB02KT 3000 1000SW BR FEW001 SCT005 BKN250 22/22 A3001 NOSIG=
200909260400 METAR MROC 260400Z 00000KT 8000 2000SW BR FEW001 SCT015 BKN250 21/21 A3000 NOSIG=
200909260500 METAR MROC 260500Z 00000KT 9999 2000SW BR FEW001 SCT015 BKN250 21/21 A2999 NOSIG=
200909260600 METAR MROC 260600Z 07003KT 9999 FEW020 BKN250 21/20 A2998 RMK FEW120 NOSIG=
200909260700 METAR MROC 260700Z 07005KT CAVOK 20/20 A2996 RMK FEW120 BKN250 NOSIG=
200909260800 METAR MROC 260800Z 06004KT CAVOK 20/19 A2994 RMK FEW120 BKN250 NOSIG=
200909260900 METAR MROC 260900Z 06005KT CAVOK 20/19 A2994 RMK SCT250 NOSIG=
200909261000 METAR MROC 261000Z 07004KT CAVOK 20/18 A2993 RMK SCT250 NOSIG=
200909261100 METAR MROC 261100Z 00000KT CAVOK 19/18 A2995 RMK SCT250 NOSIG=
200909261200 METAR MROC 261200Z 05003KT 9999 FEW030 BKN250 19/18 A2999 RMK CB DST SW NOSIG=
200909261300 METAR MROC 261300Z 00000KT CAVOK 21/19 A2998 RMK BKN250 TCU DST S NOSIG=
200909261400 METAR MROC 261400Z 09005KT CAVOK 24/18 A3000 RMK BKN250 CB DST S NOSIG=
200909261500 METAR MROC 261500Z 11009KT 9999 FEW035 BKN250 26/19 A3001 RMK VEL MAX VTO 14KT NOSIG=
200909261600 METAR MROC 261600Z 12006KT 9999 SCT035 BKN250 27/20 A3001 RMK VEL MAX VTO 12KT NOSIG=
200909261700 METAR MROC 261700Z 12008KT 9999 FEW030 SCT040 BKN250 25/20 A3000 NOSIG=
200909261800 METAR MROC 261800Z 12004KT 9999 FEW035 BKN250 28/18 A2995 RMK TCU DST S SW BECMG 24007KT=
200909261900 METAR MROC 261900Z 09006KT 9999 FEW035 BKN250 30/15 A2992 RMK TCU DST S SW BECMG 24007KT=
200909262000 METAR MROC 262000Z 25010KT 9999 SCT035 BKN250 28/23 A2990 NOSIG=
200909262100 METAR MROC 262100Z 23009KT 9999 FEW020 SCT035 SCT250 26/22 A2991 BECMG 7000 -RA=
200909262200 METAR MROC 262200Z 25006KT 9999 FEW025 SCT120 BKN250 24/21 A2992 RMK RN DST NW NOSIG=
200909262300 METAR MROC 262300Z 23004KT 9999 VCFG FEW015CB SCT120 BKN250 23/23 A2994 RMK VIS 7000SW BECMG 7000 -RA VCFG=
200909270000 METAR MROC 270000Z VRB02KT CAVOK 23/19 A2995 RMK SCT120 SCT250 NOSIG=
200909270100 METAR MROC 270100Z 07004KT CAVOK 22/17 A2994 RMK FEW120 SCT250 NOSIG=
200909270200 METAR MROC 270200Z 21003KT 9999 5000SW R07/0700 BR FEW002 SCT250 21/21 A2997 NOSIG=
200909270300 METAR MROC 270300Z 34002KT CAVOK 21/21 A3000 RMK TRACE SC FEW250 NOSIG=
200909270400 METAR MROC 270400Z 00000KT CAVOK 21/21 A2999 RMK TRACE SC FEW250 NOSIG=
200909270500 METAR MROC 270500Z 08002KT 9999 FEW030 BKN100 20/19 A2995 NOSIG=
200909270600 METAR MROC 270600Z 06003KT CAVOK 20/19 A2997 RMK SCT100 NOSIG=
200909270700 METAR MROC 270700Z 09005KT CAVOK 22/18 A2997 RMK FEW100 FEW250 NOSIG=
200909270800 METAR MROC 270800Z 06009KT CAVOK 19/17 A2995 RMK TRACE SC/CI NOSIG=
200909270900 METAR MROC 270900Z 06007KT CAVOK 19/18 A2994 RMK TRACE SC/CI NOSIG=
200909271000 METAR MROC 271000Z 05008KT CAVOK 20/17 A2994 RMK TRACE SC/CI LTNG DST S/SW/W NOSIG=
200909271100 METAR MROC 271100Z 06004KT CAVOK 19/17 A2995 RMK BKN120 LTNG S/SW/W NOSIG=
200909271200 METAR MROC 271200Z 09004KT CAVOK 19/17 A2997 RMK FEW120 BKN250 NOSIG=
200909271300 METAR MROC 271300Z 07005KT CAVOK 22/17 A2998 RMK FEW120 BKN250 NOSIG=
200909271400 METAR MROC 271400Z 10010KT CAVOK 24/18 A3000 RMK BKN250 NOSIG=
200909271500 METAR MROC 271500Z 11007KT CAVOK 25/18 A3000 RMK BKN250 NOSIG=
200909271600 METAR MROC 271600Z 11005KT CAVOK 28/19 A3000 RMK BKN250 NOSIG=
200909271700 METAR MROC 271700Z 10005KT CAVOK 29/17 A2997 RMK BKN250 NOSIG=
200909271800 METAR MROC 271800Z 27007KT 9999 SCT030TCU SCT250 28/20 A2995 BECMG 7000 VCSH=
200909271900 METAR MROC 271900Z 24006KT 9999 FEW020TCU SCT030 SCT250 28/20 A2991 RMK RN DST E BECMG 7000 VCSH=
200909272000 METAR MROC 272000Z 21005KT 9999 4000SW TSRA SCT015CB SCT025 26/21 A2990 BECMG 5000 TSRA=
200909272100 METAR MROC 272100Z 04003KT 9999 -RA VCSH FEW015CB BKN140 21/20 A2990 RMK VSBY SW 7KM DUE RASH/TS NOSIG=
200909272200 METAR MROC 272200Z 07005KT 9999 -RA FEW025 SCT140 22/19 A2991 RMK CB/LTNG DST S NOSIG=
200909272300 METAR MROC 272300Z 08005KT 9999 -RA FEW025 BKN140 22/19 A2993 RMK LTNG DST S NOSIG=
200909280000 METAR MROC 280000Z 12006KT CAVOK 22/18 A2994 RMK SCT120 BKN140 NOSIG=
200909280100 METAR MROC 280100Z 30002KT CAVOK 22/19 A2998 RMK SCT120 BKN140 LTNG DST S NOSIG=
200909280200 METAR MROC 280200Z 20002KT CAVOK 20/20 A3000 RMK BKN140 NOSIG=
200909280300 METAR MROC 280300Z 00000KT CAVOK 20/19 A2999 RMK BKN120 NOSIG=
200909280400 METAR MROC 280400Z 24007KT 9999 4000SW BR SCT003 BKN120 20/20 A3004 BECMG 3000 BR=
200909280500 METAR MROC 280500Z 34004KT 9999 VCFG SCT012 BKN020 20/20 A3005 RMK VIS SW W 8KMS NOSIG=
200909280600 METAR MROC 280600Z 00000KT 9999 SCT012 BKN020 21/20 A3002 RMK TRACE LOW ST S SW W NOSIG=
200909280700 METAR MROC 280700Z 00000KT 9999 FEW020 SCT150 BKN250 20/20 A3000 BECMG 11005KT CAVOK=
200909280800 METAR MROC 280800Z 10003KT CAVOK 20/20 A2996 RMK FEW100 BKN130 NOSIG=
200909280900 METAR MROC 280900Z 09005KT CAVOK 21/19 A2995 RMK BKN140 NOSIG=
200909281000 METAR MROC 281000Z 03006KT CAVOK 21/18 A2996 RMK BKN130 NOSIG=
200909281100 METAR MROC 281100Z 31002KT CAVOK 21/18 A2998 RMK BKN130 NOSIG=
200909281200 METAR MROC 281200Z 06006KT CAVOK 21/17 A2999 RMK BKN120 CB DST SSW NOSIG=
200909281300 METAR MROC 281300Z 07004KT CAVOK 24/28 A2999 RMK FEW120 NOSIG=
200909281400 METAR MROC 281400Z 08007KT CAVOK 26/18 A3002 RMK FEW120 NOSIG=
200909281500 METAR MROC 281500Z 11011KT CAVOK 27/18 A3002 RMK TRAZAS CU/CI NOSIG=
200909281600 METAR MROC 281600Z 10008KT 9999 FEW025 28/18 A3001 NOSIG=
200909281700 METAR MROC 281700Z 12007KT 9999 FEW025 29/18 A2999 RMK FEW120 NOSIG=
200909281800 METAR MROC 281800Z 24011KT 9999 SCT030 27/22 A2996 RMK RN N NOSIG=
200909281900 METAR MROC 281900Z 25012KT 9999 3000N TS VCSH FEW015CB BKN030 26/22 A2994 BECMG 4000 TSRA=
200909282000 METAR MROC 282000Z 26008KT 3000 1000N RA SCT015TCU SCT030 23/22 A2994 RMK VSBY SE S UNL NOSIG=
200909282100 METAR MROC 282100Z 22003KT 8000 -RA FEW005 SCT015TCU BKN030 22/22 A2994=
200909282200 METAR MROC 282200Z 06003KT 5000 -RA BR FEW002 SCT030 BKN100 21/21 A2997 RMK VIS S UNL NOSIG=
200909282300 METAR MROC 282300Z 00000KT 5000 -RA BR FEW002 SCT030 BKN100 21/21 A2999=
200909290000 METAR MROC 290000Z 07007KT 8000 -RA FEW035 BKN100 21/20 A2999 BECMG 9999 -RA=
200909290100 METAR MROC 290100Z 07007KT 9999 -RA FEW035 BKN100 21/20 A3000 NOSIG=
200909290200 METAR MROC 290200Z 09006KT 9999 DZ FEW035 BKN100 21/20 A2997 NOSIG=
200909290300 METAR MROC 290300Z 25005KT 9999 VCFG FEW007 BKN120 20/20 A3000 REDZ RMK VIS 8000SW BECMG -DZ=
200909290400 METAR MROC 290400Z 00000KT 9999 DZ FEW006 BKN100 21/20 A3003 NOSIG=
200909290500 METAR MROC 290500Z VRB02KT 9999 4800SW -DZ BR FEW006 BKN090 20/20 A3002 RMK FEW010 NOSIG=
200909290600 METAR MROC 290600Z 00000KT 9999 -DZ VCFG FEW010 SCT100 SCT250 20/20 A3000 RMK VIS 7000SW NOSIG=
200909290700 METAR MROC 290700Z 00000KT 9999 -DZ FEW006 BKN100 20/20 A2995 RMK FEW030 ST S/SW NOSIG=
200909290800 METAR MROC 290800Z 04002KT CAVOK 19/19 A2996 REDZ RMK SCT120 SCT260 CB/LTNG DST S NOSIG=
200909290900 METAR MROC 290900Z 03006KT CAVOK 20/18 A2996 RMK SCT120 SCT260 NOSIG=
200909291000 METAR MROC 291000Z 06004KT CAVOK 20/18 A2997 RMK FEW120 SCT260 LTNG DST S NOSIG=
200909291100 METAR MROC 291100Z 02004KT CAVOK 20/18 A2999 RMK SCT120 SCT260 CB/LTNG DST S NOSIG=
200909291200 METAR MROC 291200Z 04003KT CAVOK 20/18 A3001 RMK FEW120 BKN250 DZ DST NE NOSIG=
200909291300 METAR MROC 291300Z 06005KT CAVOK 22/19 A3004 RMK FEW120 BKN250 CB DST S SW NOSIG=
200909291400 METAR MROC 291400Z 08006KT CAVOK 24/19 A3004 RMK SCT120 SCT250 CB DST SW NOSIG=
200909291500 METAR MROC 291500Z 13004KT CAVOK 26/19 A3003 RMK SCT120 SCT250 BECMG 24006KT=
200909291600 METAR MROC 291600Z 25006KT CAVOK 26/21 A3003 RMK SCT120 SCT250 NOSIG=
200909291700 METAR MROC 291700Z 22009KT 9999 FEW040 SCT120 26/21 A3001 RMK FEW250 NOSIG=
200909291800 METAR MROC 291800Z 23011KT 9999 FEW015TCU SCT030 26/22 A2999 RMK FEW120=
200909291900 METAR MROC 291900Z 26009KT 9999 FEW015TCU BKN030 25/22 A2996 RMK RN N NE=
200909292000 METAR MROC 292000Z 24004KT 9999 FEW015TCU BKN030 25/21 A2995 RMK RN N NE E S BECMG 8000 VCSH=
200909292100 METAR MROC 292100Z 31002KT 9999 SCT015 BKN025 25/21 A2994 RMK PCPN NE E BECMG 6000 VCSH=
200909292200 METAR MROC 292200Z 11002KT 9999 SCT020 BKN250 24/21 A2993 RMK TRACE AC NOSIG=
200909292300 METAR MROC 292300Z 00000KT 9999 SCT020 SCT120 24/22 A2994 NOSIG=
200909300000 METAR MROC 300000Z 24004KT 9999 VCFG FEW003 SCT020 22/22 A2996 RMK LOW ST S BECMG 6000 VCFG=
200909300100 METAR MROC 300100Z 00000KT 8000 VCFG FEW003 BKN020 22/22 A2998 NOSIG=
200909300200 METAR MROC 300200Z 03002KT 9000 VCFG FEW003 SCT020 22/22 A3000 NOSIG=
200909300300 METAR MROC 300300Z 07002KT CAVOK 21/21 A3000 RMK SCT280 NOSIG=
200909300400 METAR MROC 300400Z 08003KT CAVOK 21/20 A3001 RMK SCT270 NOSIG=
200909300500 METAR MROC 300500Z 04005KT CAVOK 22/19 A3000 RMK FEW120 SCT250 NOSIG=
200909300600 METAR MROC 300600Z 08004KT CAVOK 22/19 A2998 RMK FEW150 NOSIG=
200909300700 METAR MROC 300700Z 03003KT CAVOK 20/19 A2996 RMK SCT130 NOSIG=
200909300800 METAR MROC 300800Z 07005KT CAVOK 21/18 A2994 RMK TRACE SCT NOSIG=
200909300900 METAR MROC 300900Z 03005KT CAVOK 21/18 A2995 RMK TRACE SCT NOSIG=
200909301000 METAR MROC 301000Z 03005KT CAVOK 20/18 A2996 RMK FEW150 NOSIG=
200909301100 METAR MROC 301100Z 07006KT CAVOK 20/18 A2997 RMK FEW250 CB DST NE NOSIG=
200909301200 METAR MROC 301200Z 06007KT CAVOK 21/18 A2999 RMK FEW130 SCT250 CB NE S NOSIG=
200909301300 METAR MROC 301300Z 07006KT CAVOK 23/18 A3001 RMK TRACE SC AC BKN250 NOSIG=
200909301400 METAR MROC 301400Z 11008KT CAVOK 25/18 A3002 RMK TRACE SC BKN250 NOSIG=
200909301500 METAR MROC 301500Z 12007KT CAVOK 26/18 A3003 RMK BKN250 NOSIG=
200909301600 METAR MROC 301600Z 11008KT CAVOK 29/18 A3002 RMK BKN250 NOSIG=
200909301700 METAR MROC 301700Z 11006KT 9999 FEW030 BKN250 30/19 A2999 NOSIG=
200909301800 METAR MROC 301800Z 21005KT 9999 FEW030 BKN250 29/23 A2995 NOSIG=
200909301900 METAR MROC 301900Z 24009KT 9999 SCT025 BKN250 28/21 A2994 RMK TCU N NE NOSIG=
200909302000 METAR MROC 302000Z 23009KT 9999 SCT020 BKN250 28/23 A2991 RMK TCU N NE NOSIG=
200909302100 METAR MROC 302100Z 26009KT 9999 FEW015TCU SCT025 BKN250 27/23 A2990 BECMG 7000 VCSH=
200909302200 METAR MROC 302200Z 23007KT 9999 VCTS VCSH FEW015CB BKN025 26/23 A2991 RMK VIS N NE 6KMS BECMG 6000 -TSRA=
200909302300 METAR MROC 302300Z 24006KT 9999 -RA VCSH FEW012CB BKN020 25/24 A2993 RMK VIS W WNW 5KMS NOSIG=
200910010000 METAR MROC 010000Z 25003KT 2000 +SHRA SCT015CB BKN025 23/23 A2995 RMK ACUMULACION DE AGUA EN LA PISTA BECMG 5000=
200910010100 METAR MROC 010100Z 24002KT 5000 BR SCT003 BKN025 23/23 A2998 RESH RMK VIS E S QDS UNLTD NOSIG=
200910010200 METAR MROC 010200Z 00000KT 8000 VCFG FEW010 SCT020 BKN100 22/22 A3000 RMK LTNG DST S NOSIG=
200910010300 METAR MROC 010300Z 24003KT 3000 1000SW BR FEW001 SCT010 BKN030 22/22 A3002 NOSIG=
200910010400 METAR MROC 010400Z 00000KT 5000 BR FEW001 SCT010 BKN030 22/22 A3003 NOSIG=
200910010500 METAR MROC 010500Z 00000KT 8000 2000SW BR FEW001 SCT030 BKN070 22/22 A3003 NOSIG=
200910010600 METAR MROC 010600Z 13006KT 9999 FEW030 SCT100 BKN250 21/21 A3000 BECMG CAVOK=
200910010700 METAR MROC 010700Z 07003KT CAVOK 21/20 A2998 RMK SCT100 BKN250 NOSIG=
200910010800 METAR MROC 010800Z 07003KT CAVOK 21/20 A2997 RMK SCT100 BKN250 NOSIG=
200910010900 METAR MROC 010900Z 08004KT CAVOK 21/20 A2997 RMK SCT100 BKN250 NOSIG=
200910011000 METAR MROC 011000Z 09004KT CAVOK 20/19 A2995 RMK SCT100 BKN250 NOSIG=
200910011100 METAR MROC 011100Z 06005KT CAVOK 21/15 A2997 RMK SCT100 BKN250 NOSIG=
200910011200 METAR MROC 011200Z 08004KT CAVOK 22/18 A2998 RMK FEW100 BKN250 NOSIG=
200910011300 METAR MROC 011300Z 00000KT CAVOK 23/19 A3000 RMK BKN250 NOSIG=
200910011400 METAR MROC 011400Z 08004KT CAVOK 26/20 A3001 RMK BKN250 TCU DST S NOSIG=
200910011500 METAR MROC 011500Z 10005KT 9999 FEW030 BKN250 27/20 A3000 RMK CB DST S BECMG 24007KT=
200910011600 METAR MROC 011600Z 08008KT 9999 SCT035 BKN250 27/18 A3000 BECMG 24007KT=
200910011700 METAR MROC 011700Z 11007KT 9999 SCT040 BKN250 27/20 A2998 RMK VEL MAX VTO 14KT NOSIG=
200910011800 METAR MROC 011800Z 12008KT 9999 SCT040 BKN250 29/19 A2995 NOSIG=
200910011900 METAR MROC 011900Z 13007KT 9999 SCT040 BKN250 28/19 A2993 RMK TCU DST S N BECMG 24007KT=
200910012000 METAR MROC 012000Z 12006KT 9999 FEW030 SCT120 BKN250 28/19 A2991 RMK RN DST W NW N BECMG 22006KT 6000 RA=
200910012100 METAR MROC 012100Z 26010KT 9999 VCSH FEW020CB BKN030 25/23 A2991 RMK VIS 7000 N NE E BECMG -TSRA=
200910012200 METAR MROC 012200Z 25005KT 9999 FEW030 BKN120 25/23 A2990 RMK RN DST N SE NOSIG=
200910012300 METAR MROC 012300Z 10004KT 9999 FEW025 SCT120 BKN250 26/20 A2991 NOSIG=
200910020000 METAR MROC 020000Z 14005KT 9999 FEW025 BKN120 25/19 A2994 RMK FEW250 NOSIG=
200910020100 METAR MROC 020100Z 14003KT 9999 FEW006 SCT120 BKN250 23/19 A2997 RMK=
200910020200 METAR MROC 020200Z VRB02KT CAVOK 22/22 A2999 RMK BKN250 LTNG DST S SW W NOSIG=
200910020300 METAR MROC 020300Z 00000KT 9999 VCFG FEW002 BKN250 22/22 A3001 RMK BECMG 6000 VCFG LTNG DST S SW=
200910020400 METAR MROC 020400Z 03002KT 8000 VCFG FEW003 BKN250 22/22 A3001 RMK=
200910020500 METAR MROC 020500Z 00000KT 8000 VCFG FEW003 BKN250 22/21 A3002 RMK=
200910020600 METAR MROC 020600Z 00000KT 9999 FEW004 BKN250 21/20 A3000 NOSIG=
200910020700 METAR MROC 020700Z 14003KT 9999 FEW005 BKN250 20/20 A2998 NOSIG=
200910020800 METAR MROC 020800Z 00000KT CAVOK 21/20 A2996 RMK LTNG DST S SCT250 NOSIG=
200910020900 METAR MROC 020900Z 03004KT CAVOK 20/19 A2995 RMK LTNG DST S SCT250 NOSIG=
200910021000 METAR MROC 021000Z 11003KT CAVOK 20/19 A2994 RMK BKN250 NOSIG=
200910021100 METAR MROC 021100Z 08004KT CAVOK 20/19 A2996 RMK BKN250 NOSIG=
200910021200 METAR MROC 021200Z 09004KT 9999 FEW025 BKN250 20/18 A2998 NOSIG=
200910021300 METAR MROC 021300Z 03004KT CAVOK 22/19 A3000 RMK SCT120 BKN250 NOSIG=
200910021400 METAR MROC 021400Z 05002KT CAVOK 24/20 A3001 RMK SCT120 BKN250 BECMG 24005=
200910021500 METAR MROC 021500Z 27004KT CAVOK 24/21 A3001 RMK SCT120 BKN250 NOSIG=
200910021600 METAR MROC 021600Z 21005KT 9999 FEW030 SCT120 BKN250 26/21 A3001 NOSIG=
200910021700 METAR MROC 021700Z 25007KT 9999 FEW030 SCT120 BKN250 26/21 A2999 NOSIG=
200910021800 METAR MROC 021800Z 24007KT 9999 SCT030 BKN250 27/21 A2997 NOSIG=
200910021900 METAR MROC 021900Z 24011KT 9999 FEW020TCU SCT030 BKN250 26/22 A2994 RMK VEL  MAX VTO 17KT RN DST NE E BECMG 7000 VCTS VCSH=
200910022000 METAR MROC 022000Z 26010KT 9999 4000E VCSH FEW015CB BKN030 25/22 A2993 RMK VIS 8000N RA SCT250 BECMG -TSRA=
200910022100 METAR MROC 022100Z 28006KT 9999 FEW012 BKN025 24/22 A2991 RMK RN DST NW N NE E NOSIG=
200910022200 METAR MROC 022200Z 25006KT 9999 SCT012 BKN250 23/22 A2992 NOSIG=
200910022300 METAR MROC 022300Z 23005KT 5000 BR SCT006 SCT020 22/22 A2994 RMK VSBY SE S UNL BECMG 4000=
200910030000 METAR MROC 030000Z 26006KT 5000 BR BKN005 SCT020 22/22 A2995 RMK VSBY SE E UNL NOSIG=
200910030100 METAR MROC 030100Z 28003KT 6000 RA VCFG SCT005 BKN030 22/22 A2997 RMK VSBY SE UNL NOSIG=
200910030200 METAR MROC 030200Z 00000KT 6000 RA FEW005 BKN030 22/22 A2998 RMK VSBY S UNL NOSIG=
200910030300 METAR MROC 030300Z 05003KT 8000 RA SCT030 BKN045 21/21 A3001 RMK VIS E SE UNLTD NOSIG=
200910030400 METAR MROC 030400Z 05004KT 9999 FEW035 BKN060 22/22 A3000 RERA NOSIG=
200910030500 METAR MROC 030500Z 00000KT 9999 VCFG FEW035 BKN060 21/21 A3000 RMK VIS S SW 7KMS BECMG 5000 BR=
200910030600 METAR MROC 030600Z 00000KT 9999 VCFG FEW045 BKN080 21/21 A2998 BECMG 21004KT 4000 BR=
200910030601 METAR MROC 030601Z COR 00000KT 9999 VCFG FEW045 BKN080 21/21 A2998 RMK VIS S SSW 6KMS BECMG 21004KT 4000 BR=
200910030700 METAR MROC 030700Z 32003KT 9999 2000SW BR FEW002 OVC100 21/21 A2996 RMK FG BANK IN APCH RNY 07 BECMG 3000=
200910030800 METAR MROC 030800Z 06003KT 9999 FEW002 SCT100 BKN250 20/20 A2994 RMK THING FG TO S SSW BECMG 06005KT CAVOK=
200910030900 METAR MROC 030900Z 01003KT CAVOK 19/19 A2995 RMK FEW120 BKN250 THING FOG BANK TO S SSW NOSIG=
200910031000 METAR MROC 031000Z 03004KT CAVOK 19/19 A2993 RMK BKN250 THING FG S SSW NOSIG=
200910031100 METAR MROC 031100Z 00000KT 9999 1500SE BR FEW001 BKN250 19/19 A2995 RMK BANCO DE NIEBLA PARALELO A LA PISTA AL SUR NOSIG=
200910031200 METAR MROC 031200Z 03003KT 9999 4000SW BR FEW001 BKN250 19/19 A2997 RMK BANCOS DE NIEBLA AL SE S SW BECMG 10006KT CAVOK=
200910031300 METAR MROC 031300Z 00000KT 9999 FEW030 BKN250 22/21 A2999 NOSIG=
200910031400 METAR MROC 031400Z 27003KT 9999 FEW025 SCT250 25/20 A3000 NOSIG=
200910031500 METAR MROC 031500Z 23007KT 9999 SCT025 FEW250 27/23 A3001 NOSIG=
200910031600 METAR MROC 031600Z 26006KT 9999 SCT030 26/22 A3000 NOSIG=
200910031700 METAR MROC 031700Z 25007KT 9999 FEW015TCU SCT030 26/21 A2999 NOSIG=
200910031800 METAR MROC 031800Z 27006KT 9999 FEW015TCU BKN035 26/22 A2997 RMK RN N NE E BECMG 5000 VCSH=
200910031900 METAR MROC 031900Z 27007KT 9999 FEW015TCU BKN035 27/22 A2994 RMK RN N BECMG 5000 VCSH=
200910032000 METAR MROC 032000Z 24008KT 9999 FEW010TCU BKN035 26/23 A2991 RMK RN NW N NE E S BECMG 5000 VCSH=
200910032100 METAR MROC 032100Z 24008KT 9999 3000E VCSH FEW005 SCT010TCU BKN030 24/23 A2991 BECMG 5000 RA=
200910032200 METAR MROC 032200Z 20007KT 8000 3000SW BR FEW001 SCT008 BKN030 22/22 A2991 BECMG 5000 -RA BR=
200910032300 METAR MROC 032300Z 24007KT 9999 3000SW BR FEW001 SCT008 BKN035 22/22 A2992 NOSIG=
200910040000 METAR MROC 040000Z 25005KT 9999 RA FEW015 SCT035 BKN100 21/21 A2994 NOSIG=
200910040100 METAR MROC 040100Z 34003KT 9999 -RA SCT030 BKN100 21/21 A2997 NOSIG=
200910040200 METAR MROC 040200Z 00000KT 9999 2000SW -RA BR FEW001 SCT020 BKN035 21/21 A3000 NOSIG=
200910040300 METAR MROC 040300Z 00000KT 9999 FEW020 BKN120 21/21 A3001 RERA NOSIG=
200910040400 METAR MROC 040400Z 06002KT 9999 FEW030 SCT120 21/20 A3002 NOSIG=
200910040500 METAR MROC 040500Z 03005KT CAVOK 20/18 A2999 RMK SCT120 LTNG DST SW NOSIG=
200910040600 METAR MROC 040600Z 02004KT 9999 FEW007 SCT250 20/18 A2998 RMK LTNG DST SW NOSIG=
200910040700 METAR MROC 040700Z 34003KT 8000 2000SW R07/0800 VCFG BR FEW001 SCT008 BKN012 20/20 A2997 RMK BECMG 1200 BR SCT001 BKN010=
200910040800 METAR MROC 040800Z 02002KT 9999 VCFG FEW003 SCT015 19/19 A2997 RMK FEW250 VIS SW 6KM DUE ST NOSIG=
200910040900 METAR MROC 040900Z 05004KT 9999 FEW025 SCT110 19/19 A2994 RMK SCT250 ST S NOSIG=
200910041000 METAR MROC 041000Z 07005KT CAVOK 19/18 A2993 RMK BKN110 FEW250 NOSIG=
200910041100 METAR MROC 041100Z 12005KT CAVOK 18/18 A2993 RMK SCT120 FEW250 NOSIG=
200910041200 METAR MROC 041200Z 07003KT CAVOK 19/18 A2995 RMK FEW120 NOSIG=
200910041300 METAR MROC 041300Z 00000KT CAVOK 22/18 A2997 RMK FEW120 NOSIG=
200910041400 METAR MROC 041400Z 27003KT CAVOK 24/20 A2999 RMK FEW120 NOSIG=
200910041500 METAR MROC 041500Z 24005KT 9999 FEW040 25/20 A3000 NOSIG=
200910041600 METAR MROC 041600Z 21005KT 9999 FEW040 26/20 A3001 NOSIG=
200910041700 METAR MROC 041700Z 25006KT 9999 SCT030 SCT250 26/21 A2999 NOSIG=
200910041800 METAR MROC 041800Z 26007KT 9999 FEW015TCU SCT030 26/22 A2997 RMK SCT250=
200910041900 METAR MROC 041900Z 24007KT 9999 FEW015TCU SCT030 24/22 A2994 RMK SCT250 BECMG 8000 VCSH=
200910042000 METAR MROC 042000Z 23006KT 9999 FEW005 SCT015 BKN035 23/23 A2992 BECMG 8000 VCSH=
200910042100 METAR MROC 042100Z 26007KT 9999 FEW006 SCT015 BKN035 24/22 A2992 BECMG 6000 -RA VCFG=
200910042200 METAR MROC 042200Z 25008KT 9999 SCT006 BKN015 23/22 A2991 BECMG 4000 -RA BR=
200910042300 METAR MROC 042300Z 25008KT 8000 VCSH SCT005 BKN015 22/22 A2994 RMK RN DST N NE SW BECMG 2000 RA BR=
200910050000 METAR MROC 050000Z 25002KT 8000 -TS DZ SCT005 BKN010CB 21/21 A2992 BECMG 9999=
200910050100 METAR MROC 050100Z 21006KT 5000 -DZ BR SCT003 BKN015 20/20 A3000 BECMG 2000 -RA BR=
200910050200 METAR MROC 050200Z 03004KT 9999 -DZ SCT020 OVC100 20/20 A3002 NOSIG=
200910050300 METAR MROC 050300Z 02004KT 9999 FEW025 BKN100 21/21 A3002 REDZ NOSIG=
200910050400 METAR MROC 050400Z 06003KT 9999 FEW035 BKN100 21/21 A3002 NOSIG=
200910050500 METAR MROC 050500Z 00000KT CAVOK 21/21 A2999 RMK BKN120 NOSIG=
200910050600 METAR MROC 050600Z 00000KT CAVOK 20/20 A3000 RMK SCT120 SCT250 NOSIG=
200910050700 METAR MROC 050700Z 00000KT 9999 3000SW BR FEW001 SCT010 BKN120 20/20 A2998 NOSIG=
200910050800 METAR MROC 050800Z 00000KT 9999 FEW030 SCT120 20/20 A2998 NOSIG=
200910050900 METAR MROC 050900Z 12004KT 9999 FEW030 SCT120 19/19 A2996 NOSIG=
200910051000 METAR MROC 051000Z 07003KT 9999 FEW040 BKN120 20/20 A2996 NOSIG=
200910051100 METAR MROC 051100Z 10004KT CAVOK 20/19 A2995 RMK FEW070 SCT250 NOSIG=
200910051200 METAR MROC 051200Z 07003KT CAVOK 20/19 A2997 RMK FEW070 BKN250 NOSIG=
200910051300 METAR MROC 051300Z 00000KT CAVOK 22/19 A2999 RMK BKN250 NOSIG=
200910051400 METAR MROC 051400Z 00000KT CAVOK 25/19 A2999 RMK BKN250 NOSIG=
200910051500 METAR MROC 051500Z 23002KT CAVOK 27/20 A3000 RMK BKN250 NOSIG=
200910051600 METAR MROC 051600Z 25005KT 9999 FEW030 BKN130 27/20 A3001 NOSIG=
200910051700 METAR MROC 051700Z 22008KT 9999 SCT030 SCT130 28/20 A2999 NOSIG=
200910051800 METAR MROC 051800Z 24009KT 9999 SCT020TCU SCT250 27/23 A2996 NOSIG=
200910051900 METAR MROC 051900Z 26008KT 9999 SCT020TCU BKN250 27/23 A2993 RMK RN DST E BECMG 6000 RA=
200910052000 METAR MROC 052000Z 25010KT 9999 SCT015CB SCT025 BKN100 25/22 A2992 RMK RN DST E BECMG 6000 TSRA=
200910052100 METAR MROC 052100Z 22004KT 9999 4000NW -RA VCSH FEW015CB SCT045 BKN100 21/21 A2992 RETS NOSIG=
200910052200 METAR MROC 052200Z 31002KT 9999 -RA FEW015CB SCT030 BKN050 22/22 A2994 RMK RASH DST SE BECMG 7000 RA=
200910052300 METAR MROC 052300Z 30003KT 7000 3000SE -RA VCSH FEW012CB BKN020 21/21 A2996 RMK VIS S SW UNLTD BECMG 3000 TSRA=
200910060000 METAR MROC 060000Z 03005KT 7000 RA FEW020 SCT030 BKN100 20/20 A2999 RMK VIS E SE S UNLTD NOSIG=
200910060100 METAR MROC 060100Z 09004KT 9000 -RA SCT040 BKN090 20/20 A3002 RMK VIS E SE UNLTD NOSIG=
200910060200 METAR MROC 060200Z 07005KT 9999 DZ FEW045 SCT080 BKN120 20/20 A3001 NOSIG=
200910060300 METAR MROC 060300Z 00000KT CAVOK 20/20 A3002 RMK BKN120 REDZ NOSIG=
200910060400 METAR MROC 060400Z 00000KT CAVOK 20/20 A3003 RMK BKN120 NOSIG=
200910060500 METAR MROC 060500Z 00000KT CAVOK 20/20 A3003 RMK BKN120 NOSIG=
200910060600 METAR MROC 060600Z 07003KT CAVOK 20/20 A3001 RMK BKN130 NOSIG=
200910060700 METAR MROC 060700Z 10003KT CAVOK 19/19 A2999 RMK SCT130 SCT250 NOSIG=
200910060800 METAR MROC 060800Z 10004KT CAVOK 19/19 A2997 RMK SCT130 SCT250 NOSIG=
200910060900 METAR MROC 060900Z 08004KT CAVOK 19/18 A2996 RMK SCT130 SCT250 NOSIG=
200910061000 METAR MROC 061000Z 00000KT CAVOK 18/18 A2995 RMK SCT130 SCT250 NOSIG=
200910061100 METAR MROC 061100Z 00000KT CAVOK 18/17 A2996 RMK SCT130 SCT250 NOSIG=
200910061200 METAR MROC 061200Z 00000KT CAVOK 18/17 A2997 RMK SCT130 SCT250 NOSIG=
200910061300 METAR MROC 061300Z 09002KT CAVOK 21/18 A2999 RMK BKN120 NOSIG=
200910061400 METAR MROC 061400Z 07003KT CAVOK 23/19 A3001 RMK BKN120 TCU DST SW NOSIG=
200910061500 METAR MROC 061500Z VRB03KT CAVOK 25/20 A3003 RMK BKN120 CB DST WSW BECMG 24006KT=
200910061600 METAR MROC 061600Z 25007KT 9999 FEW040 SCT300 26/20 A3003 RMK TRACE AC NOSIG=
200910061700 METAR MROC 061700Z 25008KT 9999 SCT035 SCT250 26/22 A3002 RMK CB RN DST N NE TCU DST SE BECMG 7000 VCSH=
200910061800 METAR MROC 061800Z 23005KT 9999 -RA VCSH SCT015TCU SCT025 24/21 A3000 RMK VIS E SE 6KMS BECMG 4000 SHRA=
200910061900 METAR MROC 061900Z 00000KT 9999 VCSH FEW015CB BKN035 24/22 A2998 RMK VIS S 7KMS BECMG 4000 SHRA=
200910062000 METAR MROC 062000Z 22005KT 9999 DZ VCFG FEW020 SCT070 BKN120 22/// A2997 RMK VIS SW 7KMS LOW ST S W N QDS NOSIG=
200910062001 METAR MROC 062001Z 22005KT 9999 DZ VCFG FEW020 SCT070 BKN120 22/21 A2997 RMK VIS SW 7KMS LOW ST S W N QDS NOSIG=
200910062100 METAR MROC 062100Z 29005KT 7000 3000NE VCSH FEW015CB SCT025 BKN090 21/21 A2996 RMK 9999 S BECMG -TSRA=
200910062200 METAR MROC 062200Z 24002KT 7000 3000E -RA SCT015 BKN090 21/21 A2997 BECMG RA=
200910062300 METAR MROC 062300Z 14003KT 4000 RA BR FEW001 SCT015 BKN070 21/21 A2998 RMK VIS 2000SW NOSIG=
200910070000 METAR MROC 070000Z 02003KT 9999 -DZ SCT035 BKN090 21/21 A2999 RERA NOSIG=
200910070100 METAR MROC 070100Z 01003KT CAVOK 22/21 A3001 RMK 120 BKN250 NOSIG=
200910070200 METAR MROC 070200Z 14003KT 9999 3000SW R07/1000 BR FEW001 SCT120 BKN250 20/20 A3002 BECMG 6000 VCFG=
200910070300 METAR MROC 070300Z 02003KT CAVOK 20/20 A3003 RMK SCT120 NOSIG=
200910070400 METAR MROC 070400Z 09004KT CAVOK 20/19 A3003 RMK SCT120 NOSIG=
200910070500 METAR MROC 070500Z 07004KT CAVOK 21/18 A3001 RMK SCT120 NOSIG=
200910070600 METAR MROC 070600Z 09005KT CAVOK 21/18 A2999 RMK SCT120 NOSIG=
200910070700 METAR MROC 070700Z 32005KT CAVOK 20/19 A2999 RMK SCT120 NOSIG=
200910070800 METAR MROC 070800Z 05002KT CAVOK 20/19 A2997 RMK SCT120 NOSIG=
200910070900 METAR MROC 070900Z 19002KT CAVOK 20/18 A2997 RMK BKN120 NOSIG=
200910071000 METAR MROC 071000Z 00000KT CAVOK 19/18 A2997 RMK SCT250 NOSIG=
200910071100 METAR MROC 071100Z 03002KT 9999 FEW030 SCT250 19/18 A3000 NOSIG=
200910071200 METAR MROC 071200Z 06004KT 9999 FEW030 SCT120 19/18 A3001 NOSIG=
200910071300 METAR MROC 071300Z 10010KT 9999 FEW035 SCT120 23/18 A3002 NOSIG=
200910071400 METAR MROC 071400Z 12010KT 9999 FEW035 SCT120 25/19 A3004 NOSIG=
200910071500 METAR MROC 071500Z 11008KT 9999 FEW035 BKN250 27/19 A3004 NOSIG=
200910071600 METAR MROC 071600Z 10009KT 9999 FEW035 BKN120 28/19 A3005 NOSIG=
200910071700 METAR MROC 071700Z 08010KT 9999 FEW035 BKN120 28/18 A3003 NOSIG=
200910071800 METAR MROC 071800Z 08009KT 9999 SCT035 SCT120 29/18 A3001 NOSIG=
200910071900 METAR MROC 071900Z 07010G20KT 9999 SCT030 30/17 A2999 NOSIG=
200910072000 METAR MROC 072000Z 07009KT 9999 FEW020 SCT030 30/17 A2997 RMK VEL MAX VTO 16KT NOSIG=
200910072100 METAR MROC 072100Z 25010KT 9999 SCT030 BKN120 26/23 A2997 RMK TCU/RN DST N/NE NOSIG=
200910072200 METAR MROC 072200Z 25009KT 9999 SCT030 BKN250 26/23 A2997 RMK TCU DST NW FEW120 NOSIG=
200910072300 METAR MROC 072300Z 25005KT 9999 FEW015 SCT025 BKN120 23/23 A2999 RMK BECMG 5000 VCFG=
200910080000 METAR MROC 080000Z 00000KT 9999 FEW010 SCT025 BKN120 23/23 A3001 RMK VIS W NW N 7KMS DUE ST BAJOS=
200910080100 METAR MROC 080100Z 00000KT 9999 FEW006 SCT120 22/22 A3004 BECMG 05006KT RMK VIS W NW N 6KM DUE LOW ST=
200910080200 METAR MROC 080200Z 00000KT 9999 FEW020 SCT140 22/22 A3005 BECMG 03004KT RMK VIS W 5KM DUE LOW ST=
200910080300 METAR MROC 080300Z 00000KT CAVOK 22/19 A3005 RMK BKN250 BECMG 07005KT=
200910080400 METAR MROC 080400Z 11003KT CAVOK 22/18 A3005 RMK BKN250 NOSIG=
200910080500 METAR MROC 080500Z 09003KT CAVOK 22/19 A3004 RMK BKN250 NOSIG=
200910080600 METAR MROC 080600Z 10006KT CAVOK 22/19 A3002 RMK SCT050 BKN250 NOSIG=
200910080700 METAR MROC 080700Z 12007KT CAVOK 22/18 A3004 RMK SCT050 NOSIG=
200910080800 METAR MROC 080800Z 12007KT CAVOK 22/18 A2999 RMK SCT060 NOSIG=
200910080900 METAR MROC 080900Z 11006KT CAVOK 22/19 A2998 RMK SCT070 NOSIG=
200910081000 METAR MROC 081000Z 10006KT CAVOK 22/19 A2998 RMK FEW100 NOSIG=
200910081100 METAR MROC 081100Z 10008KT CAVOK 22/18 A2998 RMK SCT250 NOSIG=
200910081200 METAR MROC 081200Z 11007KT CAVOK 22/18 A2998 RMK BKN250 CB DST SE NOSIG=
200910081300 METAR MROC 081300Z 12009KT 9999 FEW035 BKN250 24/18 A2999 RMK CB DST S VEL/MAX VIENTO 17NUDOS NOSIG=
200910081400 METAR MROC 081400Z 12010KT 9999 FEW035 BKN250 26/18 A3000 RMK VEL/MAX VIENTO 15NUDOS CB DST S NOSIG=
200910081500 METAR MROC 081500Z 10008KT 9999 FEW035 BKN250 27/19 A3002 RMK VEL/MAX/VIENTO 14NUDOS NOSIG=
200910081600 METAR MROC 081600Z 10010KT 9999 FEW035 BKN250 28/18 A3002 RMK VEL/MAX/VIENTO 15NUDOS NOSIG=
200910081700 METAR MROC 081700Z 10008KT 9999 SCT035 BKN120 28/19 A3000 RMK VEL/MAX/VIENTO 12NUDOS NOSIG=
200910081800 METAR MROC 081800Z 13007KT 9999 SCT030 BKN100 28/19 A2998 BECMG 5000 VCSH=
200910081900 METAR MROC 081900Z 10008KT 9999 SCT030 BKN100 28/19 A2997 RMK RN DST E NOSIG=
200910082000 METAR MROC 082000Z 08007KT 9999 SCT030 BKN120 27/19 A2995 RMK RN DST NW N NOSIG=
200910082100 METAR MROC 082100Z 23004KT 9999 FEW010 SCT030 BKN120 24/23 A2996 RMK RN N NE E NOSIG=
200910082200 METAR MROC 082200Z 27004KT 9999 2000SW BR FEW001 SCT020 BKN100 22/22 A2997 BECMG 5000 BR=
200910082300 METAR MROC 082300Z 00000KT 9999 BR FEW001 SCT020 BKN100 23/23 A2997 BECMG 07006KT=
200910090000 METAR MROC 090000Z 00000KT 9999 FEW005 SCT030 BKN100 22/21 A2999 BECMG 07006KT=
200910090100 METAR MROC 090100Z 00000KT 9999 -DZ FEW010 SCT030 BKN100 22/22 A2999 BECMG 07006KT=
200910090200 METAR MROC 090200Z 00000KT 9999 SCT025 BKN100 22/22 A3003 BECMG 07006KT=
200910090300 METAR MROC 090300Z 00000KT 9999 SCT030 BKN110 22/22 A3004 NOSIG=
200910090400 METAR MROC 090400Z 23003KT 9999 2000NW BR FEW002 SCT008 SCT110 21/21 A3003 BECMG 3000 BR=
200910090500 METAR MROC 090500Z 00000KT 9999 FEW008 SCT110 BKN250 21/21 A2999 NOSIG=
200910090600 METAR MROC 090600Z 09003KT 9999 -DZ OVC100 21/21 A2997 NOSIG=
200910090700 METAR MROC 090700Z 11004KT 9999 FEW030 BKN110 21/20 A2997 REDZ RMK BECMG CAVOK=
200910090800 METAR MROC 090800Z 07006KT 9999 FEW030 BKN120 21/19 A2996 RMK LTNG DST S NOSIG=
200910090900 METAR MROC 090900Z 07006KT CAVOK 21/18 A2994 RMK BKN120 LTNG DST S/SW NOSIG=
200910091000 METAR MROC 091000Z 03004KT CAVOK 21/18 A2992 RMK BKN120 LTNG DST S/SW NOSIG=
200910091100 METAR MROC 091100Z 07007KT CAVOK 21/18 A2995 RMK BKN120 LTNG DST S NOSIG=
200910091200 METAR MROC 091200Z 00000KT CAVOK 21/18 A2996 RMK BKN120 NOSIG=
200910091300 METAR MROC 091300Z 00000KT CAVOK 22/19 A3000 RMK BKN120 NOSIG=
200910091400 METAR MROC 091400Z 00000KT CAVOK 23/20 A3002 RMK SCT120 BKN250 NOSIG=
200910091500 METAR MROC 091500Z 00000KT CAVOK 23/21 A3003 RMK SCT120 BKN250 NOSIG=
200910091600 METAR MROC 091600Z 00000KT 9999 FEW040 SCT120 BKN250 24/21 A3002 NOSIG=
200910091700 METAR MROC 091700Z 00000KT 9999 FEW040 SCT120 BKN250 25/20 A2999 NOSIG=
200910091800 METAR MROC 091800Z 23004KT 9999 FEW040 SCT120 BKN250 25/22 A2997 NOSIG=
200910091900 METAR MROC 091900Z 27007KT 9999 FEW030 SCT120 BKN250 25/22 A2995 RMK HZ LEVE ARND NOSIG=
200910092000 METAR MROC 092000Z 23005KT 9999 FEW030 SCT120 BKN250 25/21 A2992 RMK HZ LEVE ARND=
200910092100 METAR MROC 092100Z 26004KT 9999 SCT025 BKN120 24/22 A2992 RMK PCPN DST N NE NOSIG=
200910092200 METAR MROC 092200Z 26005KT 9999 SCT025 BKN120 24/22 A2993 RMK PCPN DST N NE BECMG 6000 VCSH=
200910092300 METAR MROC 092300Z 26006KT 9999 SCT015 BKN110 23/21 A2995 RMK PCPN DST N NE BECMG 5000 -RA BR=
200910100000 METAR MROC 100000Z 26004KT 9999 DZ SCT010 BKN100 22/22 A2997 BECMG 6000 -RA BR=
200910100100 METAR MROC 100100Z 00000KT 9999 -DZ SCT010 OVC100 22/22 A3000 RERA NOSIG=
200910100200 METAR MROC 100200Z 25005KT 9999 SCT008 OVC100 21/21 A3002 RMK TRACE ST BECMG 7000 -RA VCFG=
200910100300 METAR MROC 100300Z 26003KT 8000 VCFG FEW003 SCT010 BKN020 21/21 A3005 NOSIG=
200910100400 METAR MROC 100400Z 27004KT 9999 -RA FEW003 SCT010 BKN100 21/21 A3004 NOSIG=
200910100500 METAR MROC 100500Z 30002KT 9999 -DZ FEW005 SCT015 BKN100 21/21 A3004 NOSIG=
200910100600 METAR MROC 100600Z 26002KT 9999 FEW005 SCT015 BKN100 21/21 A3003 REDZ NOSIG=
200910100700 METAR MROC 100700Z 00000KT 9999 FEW005 SCT025 BKN100 20/20 A2999 NOSIG=
200910100800 METAR MROC 100800Z 00000KT 9999 FEW015 BKN100 20/20 A2997 NOSIG=
200910100900 METAR MROC 100900Z 00000KT CAVOK 20/20 A2997 RMK SCT140 NOSIG=
200910101000 METAR MROC 101000Z 07002KT CAVOK 21/20 A2997 RMK BKN150 NOSIG=
200910101100 METAR MROC 101100Z 00000KT CAVOK 21/20 A2999 RMK SCT140 SCT250 NOSIG=
200910101200 METAR MROC 101200Z 04005KT CAVOK 20/20 A3001 RMK BKN120 NOSIG=
200910101300 METAR MROC 101300Z 00000KT 9999 FEW030 BKN110 22/20 A3003 BECMG 24006KT=
200910101400 METAR MROC 101400Z 00000KT 9999 FEW030 BKN110 25/21 A3005 NOSIG=
200910101500 METAR MROC 101500Z 23002KT 9999 FEW030 BKN110 26/20 A3005 NOSIG=
200910101600 METAR MROC 101600Z 24008KT 9999 SCT030 SCT250 26/22 A3004 NOSIG=
200910101700 METAR MROC 101700Z 25009KT 9999 SCT020 SCT250 27/23 A3002 NOSIG=
200910101800 METAR MROC 101800Z 26009KT 9999 FEW015CB SCT020 26/22 A3000 RMK RN DST N NE BECMG 5000 -TSRA=
200910101900 METAR MROC 101900Z 22004KT 9999 FEW015CB SCT020 25/23 A2998 RETSRA RMK PCPN N NE SCT100 NOSIG=
200910102000 METAR MROC 102000Z 26006KT 9999 SCT010 BKN020 25/22 A2996 RMK RN DST N NE SW BECMG 5000 RA=
200910102100 METAR MROC 102100Z 20006KT 6000 DZ VCTS VCSH FEW004 SCT010CB BKN025 22/22 A2996 BECMG 2000 TSRA=
200910102200 METAR MROC 102200Z 00000KT 9999 -RA VCSH VCTS FEW015CB BKN035 21/21 A2997 RMK TS NW N BECMG 7000 -RA VCFG=
200910102201 METAR MROC 102201Z COR 00000KT 9999 -RA VCSH VCTS FEW015CB BKN035 21/21 A2997 RMK VIS WNW 8KMS TS NW N BECMG 7000 -RA VCFG=
200910102300 METAR MROC 102300Z 00000KT 9999 FEW015 SCT030 BKN040 22/21 A2998 RETSRA RMK CBS DST ARND RASH DST E WNW NW NOSIG=
200910110000 METAR MROC 110000Z 00000KT 7000 -RA VCFG FEW008 SCT020 BKN040 21/21 A3001 NOSIG=
200910110100 METAR MROC 110100Z 00000KT 4000 SHRA VCTS FEW015CB BKN025 21/21 A3005 RMK TS S SSW BECMG 7000 -RA VCFG=
200910110200 METAR MROC 110200Z 00000KT 9999 -RA VCFG FEW035 BKN060 20/20 A3007 RMK VIS SW W 7KMS NOSIG=
200910110300 METAR MROC 110300Z 00000KT 9999 -RA FEW035 BKN100 20/20 A3007 NOSIG=
200910110400 METAR MROC 110400Z 00000KT 9999 FEW035 BKN100 20/20 A3007 RERA NOSIG=
200910110500 METAR MROC 110500Z 05005KT CAVOK 21/21 A3005 RMK SCT100 SCT250 NOSIG=
200910110600 METAR MROC 110600Z 06005KT CAVOK 21/20 A3002 RMK SCT120 SCT250 NOSIG=
200910110800 METAR MROC 110800Z 08007KT CAVOK 22/19 A2999 RMK SCT120 SCT250 NOSIG=
200910110900 METAR MROC 110900Z 04005KT CAVOK 21/20 A2997 RMK SCT120 SCT250 NOSIG=
200910111000 METAR MROC 111000Z 00000KT CAVOK 22/19 A2999 RMK SCT120 SCT250 NOSIG=
200910111100 METAR MROC 111100Z 11005KT CAVOK 22/19 A3002 RMK SCT120 SCT250 NOSIG=
200910111200 METAR MROC 111200Z 00000KT CAVOK 20/19 A3001 RMK SCT120 SCT250 NOSIG=
200910111300 METAR MROC 111300Z 00000KT CAVOK 24/18 A3003 RMK FEW120 SCT250 NOSIG=
200910111400 METAR MROC 111400Z 08011KT 9999 FEW035 SCT250 26/19 A3003 NOSIG=
200910111500 METAR MROC 111500Z 09010KT 9999 FEW035 SCT250 27/18 A3004 NOSIG=
200910111600 METAR MROC 111600Z 07010KT 9999 FEW035 28/20 A3004 RMK FEW250 NOSIG=
200910111700 METAR MROC 111700Z 09010KT 9999 SCT030 28/19 A3002 RMK VEL MAX  VTO 16KT NOSIG=
200910111800 METAR MROC 111800Z 10012KT 9999 SCT030 29/18 A2999 NOSIG=
200910111900 METAR MROC 111900Z 07011KT 9999 FEW030 SCT280 30/17 A2996 NOSIG=
200910112000 METAR MROC 112000Z 09008KT 9999 FEW030 SCT270 30/18 A2995 NOSIG=
200910112100 METAR MROC 112100Z 09007KT 9999 FEW030 SCT070 BKN250 28/18 A2994 NOSIG=
200910112200 METAR MROC 112200Z 08003KT 9999 FEW030 SCT070 BKN250 27/18 A2996 RMK CB RASH DST ESE NOSIG=
200910112300 METAR MROC 112300Z 21003KT 9999 FEW015 SCT030 BKN250 25/20 A2998 RMK PCPN DST N NE CB DST S SSW NOSIG=
200910120000 METAR MROC 120000Z 08007KT 9999 SCT030 BKN250 24/18 A3001 RMK LTNG DST SSE S SSW NOSIG=
200910120100 METAR MROC 120100Z 00000KT 9999 FEW035 SCT120 22/18 A3003 NOSIG=
200910120200 METAR MROC 120200Z 00000KT CAVOK 22/17 A3002 RMK FEW120 BKN250 NOSIG=
200910120300 METAR MROC 120300Z 00000KT CAVOK 20/18 A3003 RMK FEW120 BKN250 NOSIG=
200910120400 METAR MROC 120400Z 13002KT CAVOK 21/16 A3004 RMK FEW120 BKN250 NOSIG=
200910120500 METAR MROC 120500Z 09010KT CAVOK 21/16 A3004 RMK FEW120 BKN250 NOSIG=
200910120600 METAR MROC 120600Z 06002KT CAVOK 21/17 A3002 RMK SCT120 SCT250 NOSIG=
200910120700 METAR MROC 120700Z 06002KT CAVOK 21/17 A3000 RMK SCT120 NOSIG=
200910120800 METAR MROC 120800Z 00000KT CAVOK 21/17 A2999 RMK SCT120 NOSIG=
200910120900 METAR MROC 120900Z 04007KT CAVOK 20/17 A2999 RMK SCT120 NOSIG=
200910121000 METAR MROC 121000Z 06004KT CAVOK 20/16 A2998 RMK SCT100 NOSIG=
200910121100 METAR MROC 121100Z 08005KT CAVOK 20/17 A2999 RMK BKN250 NOSIG=
200910121200 METAR MROC 121200Z 06009KT 9999 -RA FEW030 BKN100 21/17 A3001 BECMG 6000 RA=
200910121300 METAR MROC 121300Z 08004KT 7000 RA OVC080 19/18 A3006 NOSIG=
200910121400 METAR MROC 121400Z 01006KT 9999 -DZ OVC100 20/18 A3005 NOSIG=
200910121500 METAR MROC 121500Z 00000KT CAVOK 21/19 A3002 REDZ RMK BKN100 DZ DST NE NOSIG=
200910121600 METAR MROC 121600Z 06005KT CAVOK 23/20 A3002 RMK BKN120 DZ DST NE NOSIG=
200910121700 METAR MROC 121700Z 10010KT 9999 FEW035 SCT250 27/18 A3000 RMK FEW120 NOSIG=
200910121800 METAR MROC 121800Z 05010KT 9999 FEW030 BKN250 29/19 A2997 RMK VEL MAX VTO 16KT NOSIG=
200910121900 METAR MROC 121900Z 09011KT 9999 SCT030 28/18 A2996 RMK FEW250 NOSIG=
200910122000 METAR MROC 122000Z 09010KT 9999 FEW020 SCT030 28/18 A2994 RMK FEW120 VEL MAX VTO 15KT NOSIG=
200910122100 METAR MROC 122100Z 08009KT 9999 SCT040 BKN120 27/18 A2992 RMK VEL/MAX/VTO 14NUDO S NOSIG=
200910122200 METAR MROC 122200Z 08008KT 9999 SCT040 BKN120 25/18 A2994 RMK FEW250 NOSIG=
200910122300 METAR MROC 122300Z 10007KT 9999 FEW035 SCT120 BKN250 24/17 A2996 NOSIG=
200910130000 METAR MROC 130000Z 11005KT 9999 FEW035 SCT120 BKN250 23/17 A2997 RMK CB TS DST S NOSIG=
200910130100 METAR MROC 130100Z 13005KT 9999 FEW035 BKN150 22/17 A3001 RMK LTNG DIST W NOSIG=
200910130200 METAR MROC 130200Z 12005KT 9999 FEW030 SCT150 22/18 A3003 NOSIG=
200910130300 METAR MROC 130300Z 08005KT CAVOK 21/18 A3003 RMK SCT140 NOSIG=
200910130400 METAR MROC 130400Z 05003KT CAVOK 20/17 A3003 RMK SCT140 NOSIG=
200910130500 METAR MROC 130500Z 05004KT CAVOK 19/16 A3001 RMK SCT140 NOSIG=
200910130600 METAR MROC 130600Z 08004KT CAVOK 19/16 A3000 RMK SCT150 NOSIG=
200910130700 METAR MROC 130700Z 09004KT CAVOK 20/17 A2998 RMK SCT150 NOSIG=
200910130800 METAR MROC 130800Z 03004KT CAVOK 20/17 A2996 RMK SCT250 NOSIG=
200910130900 METAR MROC 130900Z 00000KT CAVOK 18/16 A2997 RMK SCT130 NOSIG=
200910131000 METAR MROC 131000Z 09003KT CAVOK 18/16 A2998 NOSIG=
200910131100 METAR MROC 131100Z 06004KT CAVOK 18/16 A2998 NOSIG=
200910131200 METAR MROC 131200Z 04004KT CAVOK 19/16 A3000 RMK FEW120 BKN250 LGT HZ ARND NOSIG=
200910131300 METAR MROC 131300Z 07002KT CAVOK 21/17 A3002 RMK FEW120 BKN250 CB DST W NOSIG=
200910131400 METAR MROC 131400Z 07003KT CAVOK 23/17 A3003 RMK SCT130 BKN250 NOSIG=
200910131500 METAR MROC 131500Z 09007KT 9999 FEW040 BKN250 26/16 A3003 RMK VEL/MAX/VTO 13NUDO S NOSIG=
200910131600 METAR MROC 131600Z 08010KT 9999 FEW040 BKN250 26/16 A3001 NOSIG=
200910131700 METAR MROC 131700Z 08010KT 9999 SCT035 BKN250 29/16 A2998 BECMG RMK VEL/MAX/VTO 16NUDOS=
200910131800 METAR MROC 131800Z 10007KT 9999 SCT035 BKN250 29/16 A2996 NOSIG=
200910131900 METAR MROC 131900Z 10004KT 9999 SCT035 BKN120 28/17 A2993 RMK CB DST NE TCU DST S BECMG 24007KT=
200910132000 METAR MROC 132000Z 24010KT 9999 SCT030TCU BKN120 25/22 A2992 RMK CB/RASH DST NW N TCU BECMG 8000 VCSH FEW015CB=
200910132100 METAR MROC 132100Z 25009KT 9999 -RA FEW010TCU SCT030 BKN100 23/21 A2992=
200910132200 METAR MROC 132200Z 28007KT 9999 4000N BR FEW005 SCT015 BKN030 22/21 A2995 BECMG 6000 -RA BR=
200910132300 METAR MROC 132300Z VRB03KT 9999 FEW010 SCT030 BKN100 21/21 A2998 BECMG 5000 -RA BR=
200910140000 METAR MROC 140000Z 00000KT 9999 FEW030 BKN100 21/20 A3000 NOSIG=
200910140100 METAR MROC 140100Z 00000KT CAVOK 21/20 A2999 RMK SCT120 SCT250 NOSIG=
200910140200 METAR MROC 140200Z 00000KT CAVOK 21/19 A3001 RMK SCT120 SCT250 NOSIG=
200910140300 METAR MROC 140300Z 00000KT 9999 FEW025 BKN120 20/19 A3003 NOSIG=
200910140400 METAR MROC 140400Z 00000KT 9999 FEW025 BKN120 21/18 A3003 BECMG -DZ=
200910140500 METAR MROC 140500Z 00000KT 9999 FEW015 BKN120 20/20 A3002 BECMG -DZ=
200910140600 METAR MROC 140600Z 00000KT CAVOK 20/18 A3001 RMK BKN120 NOSIG=
200910140700 METAR MROC 140700Z 00000KT 9999 -DZ FEW035 BKN100 20/19 A3000 RMK ST=
200910140800 METAR MROC 140800Z 00000KT 9999 FEW030 BKN110 19/19 A2998 REDZ RMK ST SSE BECMG 03005KT CAVOK=
200910140900 METAR MROC 140900Z 00000KT CAVOK 19/19 A2998 RMK FEW090 BKN110 NOSIG=
200910141000 METAR MROC 141000Z 00000KT CAVOK 19/19 A2999 RMK BKN110 NOSIG=
200910141100 METAR MROC 141100Z 00000KT CAVOK 18/18 A3000 RMK BKN120 NOSIG=
200910141200 METAR MROC 141200Z 06004KT 9999 FEW040 BKN120 19/18 A3003 NOSIG=
200910141300 METAR MROC 141300Z 00000KT 9999 FEW040 BKN120 20/18 A3005 NOSIG=
200910141400 METAR MROC 141400Z 00000KT 9999 FEW040 BKN120 23/19 A3006 NOSIG=
200910141500 METAR MROC 141500Z 27003KT 9999 SCT030 SCT120 23/21 A3007 NOSIG=
200910141600 METAR MROC 141600Z 00000KT 9999 SCT030 SCT120 25/18 A3006 NOSIG=
200910141700 METAR MROC 141700Z 25004KT 9999 SCT030 SCT120 26/20 A3003 NOSIG=
200910141800 METAR MROC 141800Z 25009KT 9999 5000N VCSH FEW010TCU BKN030 24/21 A3002 RMK RN NW N NE E NOSIG=
200910141900 METAR MROC 141900Z 00000KT 5000 RA FEW010TCU BKN030 21/21 A3001 BECMG 3000 RA BR=
200910142000 METAR MROC 142000Z 00000KT 9999 -RA SCT030 BKN100 22/21 A2999 NOSIG=
200910142100 METAR MROC 142100Z 00000KT 9999 -RA VCFG FEW015 OVC100 21/21 A2998 BECMG 4000 -RA BR=
200910142200 METAR MROC 142200Z 00000KT CAVOK 21/20 A2998 RERA RMK OVC100 BECMG 6000 VCFG=
200910142300 METAR MROC 142300Z 00000KT CAVOK 21/20 A2999 RMK OVC120 NOSIG=
200910150000 METAR MROC 150000Z 00000KT 9999 VCFG FEW003 OVC120 21/20 A3000 RMK BECMG 4000 BR=
200910150100 METAR MROC 150100Z 00000KT 9999 4000W BR FEW001 OVC120 20/20 A3000 BECMG 2000 BR=
200910150200 METAR MROC 150200Z 09004KT CAVOK 21/20 A3002 RMK BKN120 NOSIG=
200910150300 METAR MROC 150300Z 07006KT CAVOK 21/19 A3001 RMK BKN120 NOSIG=
200910150400 METAR MROC 150400Z 00000KT CAVOK 21/19 A3001 RMK SCT120 NOSIG=
200910150500 METAR MROC 150500Z 24008KT 0200 FG BKN001 BKN003 19/19 A3001 RMK BECMG 4000 BR FEW001 SCT003 BKN025=
200910150600 METAR MROC 150600Z 29002KT 4000 BR FEW001 SCT003 BKN015 19/19 A3000 BECMG 6000 VCFG=
200910150700 METAR MROC 150700Z 00000KT 8000 VCFG FEW003 SCT010 BKN025 20/20 A2998 NOSIG=
200910150800 METAR MROC 150800Z 00000KT 5000 BR SCT006 BKN150 19/19 A2996 NOSIG=
200910150900 METAR MROC 150900Z 00000KT 9999 3000SW BR SCT008 BKN150 19/19 A2996 NOSIG=
200910151000 METAR MROC 151000Z 07002KT 9999 FEW015 SCT150 18/18 A2996 RMK LTNG=
200910151100 METAR MROC 151100Z 03003KT 9999 FEW020 18/18 A2997 RMK LTNG DIST SW NOSIG=
200910151200 METAR MROC 151200Z 00000KT CAVOK 18/17 A2998 BECMG RMK SCT250 CB DST S=
200910151300 METAR MROC 151300Z 07004KT CAVOK 22/18 A2999 RMK SCT250 NOSIG=
200910151400 METAR MROC 151400Z 00000KT CAVOK 24/18 A3001 RMK SCT250 BECMG 24006KT=
200910151500 METAR MROC 151500Z 00000KT 9999 FEW030 SCT250 25/17 A3003 BECMG 24006KT=
200910151600 METAR MROC 151600Z 25005KT 9999 FEW035 SCT250 26/20 A3002 NOSIG=
200910151700 METAR MROC 151700Z 25006KT 9999 SCT035 SCT300 27/21 A2999 NOSIG=
200910151800 METAR MROC 151800Z 23005KT 9999 SCT030TCU 27/21 A2996 NOSIG=
200910151900 METAR MROC 151900Z 24008KT 9999 FEW015TCU SCT025 28/23 A2994 NOSIG=
200910152000 METAR MROC 152000Z 25010KT 9999 FEW015TCU SCT025 26/23 A2991 RMK PCPN S SW BECMG 6000 RA=
200910152100 METAR MROC 152100Z 24009KT 9999 -DZ VCSH FEW015TCU BKN025 25/22 A2991 RMK VIS N 7KMS HZY BECMG 5000 RA=
200910152200 METAR MROC 152200Z 24009KT 9999 VCSH FEW015TCU BKN025 24/22 A2991 RMK VIS N 5KMS BECMG 4000 RA=
200910152300 METAR MROC 152300Z 26006KT 9999 4000N BR SCT007 BKN025 22/22 A2994 BECMG 4000 -RA BR BKN010=
200910160000 METAR MROC 160000Z 26003KT 9999 VCFG FEW008 SCT015 22/22 A2995 RERA RMK VIS SW N 7KMS SCT100 LTNG DST SSE NOSIG=
200910160100 METAR MROC 160100Z 00000KT 9999 BR FEW005 SCT012 22/22 A2997 RMK VIS S SW 5KMS BECMG 5000=
200910160200 METAR MROC 160200Z 00000KT 9999 FEW008 SCT020 BKN035 22/22 A2999 RMK VIS SW W 7KMS NOSIG=
200910160300 METAR MROC 160300Z 00000KT 9999 3000SW BR FEW001 SCT010 BKN035 21/21 A2999 NOSIG=
200910160400 METAR MROC 160400Z 00000KT 9999 3000SW BR FEW001 SCT035 BKN250 20/20 A3000 NOSIG=
200910160500 METAR MROC 160500Z 00000KT 9999 4000SW BR FEW001 SCT035 BKN250 19/19 A2999 NOSIG=
200910160600 METAR MROC 160600Z 03005KT CAVOK 19/18 A2998 RMK BKN250 NOSIG=
200910160700 METAR MROC 160700Z 08004KT CAVOK 19/17 A2995 RMK BKN250 NOSIG=
200910160800 METAR MROC 160800Z 09006KT CAVOK 19/17 A2995 RMK BKN250 NOSIG=
200910160900 METAR MROC 160900Z 06003KT CAVOK 18/17 A2995 RMK BKN250 NOSIG=
200910161000 METAR MROC 161000Z 04004KT CAVOK 19/16 A2994 RMK BKN250 NOSIG=
200910161100 METAR MROC 161100Z 07003KT CAVOK 19/17 A2995 RMK BKN250 NOSIG=
200910161200 METAR MROC 161200Z 03004KT CAVOK 18/16 A2997 RMK BKN250 NOSIG=
200910161300 METAR MROC 161300Z 02005KT CAVOK 22/18 A2998 RMK BKN250 NOSIG=
200910161400 METAR MROC 161400Z 11004KT CAVOK 24/17 A2999 RMK BKN250 NOSIG=
200910161500 METAR MROC 161500Z 12005KT CAVOK 27/17 A3000 RMK SCT250 NOSIG=
200910161600 METAR MROC 161600Z 14006KT 9999 FEW045 28/16 A2999 RMK FEW250 NOSIG=
200910161647 METAR MROC 161647Z 25009KT 9999 SCT040 27/21 A2997 NOSIG=
200910161700 METAR MROC 161700Z 26008KT 9999 SCT040 27/21 A2997 NOSIG=
200910161800 METAR MROC 161800Z 24007KT 9999 FEW025TCU SCT040 26/20 A2995 NOSIG=
200910161900 METAR MROC 161900Z 23008KT 9999 FEW020TCU BKN035 27/21 A2993 RMK PCPN DST N BECMG 6000 VCSH=
200910162000 METAR MROC 162000Z 23008KT 9999 FEW020TCU BKN035 25/21 A2991 RMK RN DST W NW BECMG 7000 -RA=
200910162100 METAR MROC 162100Z 23011KT 3000 1000N -TSRA SCT012CB BKN015 22/22 A2991 NOSIG=
200910162200 METAR MROC 162200Z 00000KT 7000 3000NW VCSH BR FEW003 SCT015 SCT080 21/21 A2993 RETSRA RMK VIS 9999E BECMG 5000 -RA BR=
200910162300 METAR MROC 162300Z 00000KT 3000 BR FEW002 BKN008 20/20 A2993 BECMG 1500 DZ BR=
200910170000 METAR MROC 170000Z 00000KT 9999 VCFG FEW007 SCT015 BKN090 20/20 A2995 RMK VIS 7000 SE NOSIG=
200910170100 METAR MROC 170100Z 00000KT 9999 4500SW BR FEW007 BKN015 20/20 A2999 BECMG 5000 -RA BR=
200910170200 METAR MROC 170200Z 00000KT 9999 VCFG FEW007 SCT015 BKN100 20/20 A3000 RMK 6000SW NOSIG=
200910170300 METAR MROC 170300Z 00000KT 8000 VCFG FEW001 SCT120 20/20 A3001 RMK TRACE SC BECMG 4000 BR=
200910170400 METAR MROC 170400Z 00000KT 8000 VCFG FEW002 SCT120 20/20 A3002 NOSIG=
200910170500 METAR MROC 170500Z 00000KT 9000 4000W BR FEW002 SCT120 19/19 A3002 NOSIG=
200910170600 METAR MROC 170600Z 00000KT 9000 VCFG FEW001 SCT120 19/19 A3001 RMK TS DST S NOSIG=
200910170700 METAR MROC 170700Z 06007KT 9999 VCFG FEW002 SCT120 19/18 A2998 RMK TS DST S NOSIG=
200910170800 METAR MROC 170800Z 00000KT CAVOK 19/18 A2996 RMK SCT120 NOSIG=
200910170900 METAR MROC 170900Z 04003KT CAVOK 20/18 A2998 RMK SCT120 NOSIG=
200910171000 METAR MROC 171000Z 03004KT CAVOK 20/17 A2997 RMK SCT120 NOSIG=
200910171100 METAR MROC 171100Z 04003KT CAVOK 19/17 A2997 RMK BKN120 NOSIG=
200910171200 METAR MROC 171200Z 06002KT CAVOK 21/18 A2999 RMK BKN250 NOSIG=
200910171300 METAR MROC 171300Z 09008KT CAVOK 22/17 A3000 RMK BKN250 CB DST SSW NOSIG=
200910171400 METAR MROC 171400Z 12010KT CAVOK 24/17 A3002 RMK BKN250 VEL MAX VTO 16KT NOSIG=
200910171500 METAR MROC 171500Z 11010KT CAVOK 26/16 A3004 RMK BKN250 VEL MAX VTO 16KT NOSIG=
200910171600 METAR MROC 171600Z 10011KT 9999 FEW035 SCT250 27/15 A3004 RMK VEL MAX VTO 17KT NOSIG=
200910171700 METAR MROC 171700Z 11008KT 9999 FEW030 SCT250 27/17 A3002 NOSIG=
200910171800 METAR MROC 171800Z 12006KT 9999 SCT030 SCT250 28/17 A2999 RMK FEW120 VEL MAX VTO 13KT NOSIG=
200910171900 METAR MROC 171900Z 13010KT 9999 FEW020TCU SCT030 SCT250 27/16 A2996 BECMG 24007KT=
200910172000 METAR MROC 172000Z 16006KT 9999 FEW020TCU SCT030 SCT120 27/17 A2994 BECMG 24006KT=
200910172100 METAR MROC 172100Z 27009KT 9999 FEW020TCU SCT030 BKN100 23/22 A2996 BECMG 5000 SHRA=
200910172200 METAR MROC 172200Z 26005KT 9999 FEW020TCU SCT030 BKN100 22/21 A2995 RMK VIS W/NW /N 7KMS DUE ST BAJOS NOSIG=
200910172300 METAR MROC 172300Z 27003KT 9999 4000SW BR FEW005 SCT015 BKN100 22/22 A2998 RMK VIS NW N 6KMS DUE ST BAJOS BECMG 4000 BR=
200910180000 METAR MROC 180000Z 00000KT 9999 FEW005 SCT015 BKN100 21/21 A2999 RMK VIS NW N 6KMS DUE ST NOSIG=
200910180100 METAR MROC 180100Z 00000KT 9999 FEW015 SCT120 20/20 A2999 NOSIG=
200910180200 METAR MROC 180200Z 07003KT CAVOK 21/19 A3001 RMK SCT130 NOSIG=
200910180300 METAR MROC 180300Z 00000KT CAVOK 21/18 A3001 RMK SCT120 BKN250 NOSIG=
200910180400 METAR MROC 180400Z 06003KT CAVOK 21/18 A3000 RMK SCT130 BKN250 NOSIG=
200910180500 METAR MROC 180500Z 00000KT CAVOK 20/18 A3000 RMK SCT130 BKN250 NOSIG=
200910180600 METAR MROC 180600Z 00000KT CAVOK 21/18 A2997 RMK SCT150 BKN250 NOSIG=
200910180700 METAR MROC 180700Z 00000KT CAVOK 19/19 A2997 RMK BKN250 NOSIG=
200910180800 METAR MROC 180800Z 00000KT CAVOK 20/18 A2995 RMK BKN250 NOSIG=
200910180900 METAR MROC 180900Z 09003KT CAVOK 20/18 A2995 RMK BKN250 LTNG DST S NOSIG=
200910181000 METAR MROC 181000Z 06005KT CAVOK 20/18 A2997 RMK BKN250 LTNG DST S SW NOSIG=
200910181100 METAR MROC 181100Z 06004KT CAVOK 20/17 A2997 RMK SCT120 SCT250 CB LTNG DST S SW NOSIG=
200910181200 METAR MROC 181200Z 06006KT CAVOK 20/17 A3000 RMK FEW150 BKN250 NOSIG=
200910181300 METAR MROC 181300Z 05004KT CAVOK 21/18 A3003 RMK FEW150 BKN250 NOSIG=
200910181400 METAR MROC 181400Z 07002KT 9999 FEW035 BKN250 22/19 A3004 BECMG 24006KT=
200910181500 METAR MROC 181500Z 08004KT 9999 FEW035 BKN250 24/18 A3005 NOSIG=
200910181600 METAR MROC 181600Z 12003KT 9999 FEW035 BKN250 26/18 A3005 BECMG 24007KT=
200910181700 METAR MROC 181700Z 19004KT 9999 SCT035 BKN250 27/21 A3003 NOSIG=
200910181800 METAR MROC 181800Z 23009KT 9999 SCT030TCU BKN250 26/20 A3000 RMK RN DST NE NOSIG=
200910181900 METAR MROC 181900Z 24010KT 9999 SCT020TCU BKN250 27/21 A2998 RMK RN DST NE=
200910182000 METAR MROC 182000Z 21008KT 9999 SCT015CB BKN030 24/21 A2995 RMK RN DST=
200910182100 METAR MROC 182100Z 23007KT 9999 FEW015CB SCT030 BKN250 24/21 A2994 RMK RN N NE BECMG 5000 RA BR=
200910182200 METAR MROC 182200Z 27004KT 9999 3000E RA FEW015TCU BKN035 23/21 A2995 RMK VIS N 3000 DUE RASH BECMG 5000 RA BR=
200910182300 METAR MROC 182300Z 00000KT 9999 -RA FEW015 SCT035 BKN100 22/21 A2998 NOSIG=
200910190000 METAR MROC 190000Z VRB02KT 9999 -RA FEW030 BKN100 21/21 A3001 NOSIG=
200910190100 METAR MROC 190100Z 36003KT 9999 FEW030 BKN100 21/21 A3002 RERA NOSIG=
200910190200 METAR MROC 190200Z 00000KT 9999 FEW035 BKN100 21/21 A3003 NOSIG=
200910190300 METAR MROC 190300Z 00000KT 9999 FEW007 SCT030 BKN100 20/20 A3004 BECMG 7000 VCFG=
200910190400 METAR MROC 190400Z 00000KT 9999 FEW007 SCT030 BKN100 21/21 A3003 BECMG DZ=
200910190500 METAR MROC 190500Z 00000KT 9999 FEW025 BKN120 20/20 A3002 NOSIG=
200910190600 METAR MROC 190600Z 00000KT 9999 FEW030 BKN120 20/20 A3000 NOSIG=
200910190700 METAR MROC 190700Z 00000KT CAVOK 19/19 A2997 RMK SCT120 SCT260 NOSIG=
200910190800 METAR MROC 190800Z 00000KT 9999 VCFG FEW004 SCT260 19/19 A2996 RMK FEW120 VIS 5KM SE/SSE DUE ST NOSIG=
200910190900 METAR MROC 190900Z 00000KT 9999 2000SW R07/0225 BR FEW001 SCT260 18/18 A2995 RMK FEW120 BECMG 03004KT CAVOK=
200910191000 METAR MROC 191000Z 00000KT 9999 FEW030 SCT260 18/18 A2994 RMK CB/LTNG DST S NOSIG=
200910191100 METAR MROC 191100Z 00000KT 9999 FEW030 18/18 A2995 RMK FEW120 LTNG DST S NOSIG=
200910191200 METAR MROC 191200Z 06002KT 9999 SCT030 SCT250 18/18 A2996 RMK FEW120 NOSIG=
200910191300 METAR MROC 191300Z 00000KT 9999 FEW005 BKN250 20/19 A2997 RMK CB DST S SW NOSIG=
200910191400 METAR MROC 191400Z 00000KT CAVOK 21/19 A2998 RMK CB DST SW HZ W BECMG 24006K T=
200910191500 METAR MROC 191500Z 00000KT 9999 FEW040 BKN250 24/20 A2999 RMK HZ LEVE W BECMG 24006KT=
200910191600 METAR MROC 191600Z 00000KT 9999 FEW040 BKN250 25/20 A2999 BECMG 24006KT=
200910191700 METAR MROC 191700Z 22003KT 9999 FEW015 SCT030 BKN250 27/20 A2996 NOSIG=
200910191800 METAR MROC 191800Z 24007KT 9999 FEW015 SCT030 BKN250 27/21 A2992 BECMG 7000 VCSH=
200910191900 METAR MROC 191900Z 28003KT 9999 RA VCTS FEW010CB BKN030 25/20 A2992 BECMG 6000 +RA=
200910192000 METAR MROC 192000Z 00000KT 9999 3000SW TS VCSH FEW010CB SCT030 BKN100 20/20 A2992 RERA BECMG 6000 -RA VCFG=
200910192100 METAR MROC 192100Z 00000KT 9999 5000SW BR FEW001 SCT030 BKN100 20/20 A2991 BECMG 2000 -RA BR=
200910192200 METAR MROC 192200Z 00000KT 9999 FEW003 SCT030 BKN100 21/21 A2991 BECMG 2000 -RA BR=
200910192300 METAR MROC 192300Z 00000KT 9999 FEW003 SCT030 BKN100 21/21 A2992 BECMG 2000 -RA BR=
200910200000 METAR MROC 200000Z 00000KT 9999 SCT030 BKN100 20/20 A2995 NOSIG=
200910200100 METAR MROC 200100Z 00000KT 9999 -RA SCT030 BKN100 21/21 A2997 NOSIG=
200910200200 METAR MROC NIL=
200910200300 METAR MROC 200300Z 00000KT 9999 FEW005 SCT015 BKN100 20/20 A3000 REDZ NOSIG=
200910200400 METAR MROC 200400Z 00000KT 9999 FEW015 BKN120 20/20 A3000 NOSIG=
200910200500 METAR MROC 200500Z 00000KT 9999 FEW025 SCT120 20/20 A2997 NOSIG=
200910200600 METAR MROC 200600Z 00000KT 9999 FEW035 BKN120 20/20 A2996 NOSIG=
200910200700 METAR MROC NIL=
200910200800 METAR MROC 200800Z 00000KT CAVOK 20/20 A2994 RMK BKN120 NOSIG=
200910200900 METAR MROC 200900Z 00000KT CAVOK 19/19 A2992 RMK SCT140 NOSIG=
200910201000 METAR MROC 201000Z 00000KT CAVOK 19/19 A2992 RMK SCT130 NOSIG=
200910201100 METAR MROC 201100Z 00000KT CAVOK 19/19 A2993 RMK SCT130 NOSIG=
200910201200 METAR MROC 201200Z 00000KT 9999 SCT010 BKN120 19/19 A2993 NOSIG=
200910201300 METAR MROC 201300Z 00000KT 9999 FEW025 BKN250 22/20 A2995 BECMG 24006KT=
200910201400 METAR MROC 201400Z 30003KT 9999 SCT015 BKN250 24/20 A2997 NOSIG=
200910201500 METAR MROC 201500Z 27003KT 9999 SCT015 BKN250 24/20 A2998 NOSIG=
200910201600 METAR MROC 201600Z 29004KT 9999 SCT010 BKN025 24/21 A2997 BECMG 7000=
200910201700 METAR MROC 201700Z 24005KT 9999 SCT010 BKN025 24/21 A2995 NOSIG=
200910201800 METAR MROC 201800Z 26004KT 9999 FEW010 SCT025 BKN130 25/21 A2992 BECMG 6000 VCSH=
200910201900 METAR MROC 201900Z 23006KT 9999 -RA FEW010CB SCT025 BKN110 24/22 A2989 BECMG 4000 -TSRA=
200910202000 METAR MROC 202000Z 25007KT 9999 -RA FEW010CB SCT025 BKN110 22/22 A2987 BECMG 4000 -TSRA=
200910202100 METAR MROC 202100Z 27004KT 8000 -RA VCFG FEW008 SCT020 BKN100 22/22 A2987 RMK VIS SW W 6KMS BECMG 4000 -RA BR=
200910202200 METAR MROC 202200Z 24005KT 8000 -RA VCFG FEW006 SCT012 BKN020 21/21 A2988 RMK VIS SE S UNLTD BECMG 4000 -RA BR=
200910202300 METAR MROC 202300Z 00000KT 9999 DZ FEW006 BKN015 21/21 A2989 RERA NOSIG=
200910210000 METAR MROC 210000Z 00000KT 9999 -DZ SCT010 BKN015 21/21 A2991 RMK LOW CLOUDS OVER APCH RNY 07 NOSIG=
200910210100 METAR MROC 210100Z 30003KT 9999 SCT010 OVC100 21/21 A2993 BECMG -RA=
200910210200 METAR MROC 210200Z 00000KT 9999 FEW015 OVC100 20/20 A2995 NOSIG=
200910210300 METAR MROC 210300Z 00000KT 9999 FEW015 OVC100 20/20 A2997 NOSIG=
200910210400 METAR MROC 210400Z 00000KT 9999 FEW015 OVC100 20/20 A2997 NOSIG=
200910210500 METAR MROC 210500Z 00000KT 9999 FEW015 OVC100 20/20 A2997 NOSIG=
200910210600 METAR MROC 210600Z 00000KT 9999 FEW005 SCT015 BKN100 20/20 A2995 NOSIG=
200910210700 METAR MROC 210700Z 00000KT 9999 FEW005 SCT015 BKN100 20/20 A2995 NOSIG=
200910210800 METAR MROC 210800Z 00000KT 9999 FEW005 SCT015 BKN100 20/20 A2993 NOSIG=
200910210900 METAR MROC 210900Z 00000KT 9999 FEW010 SCT030 BKN100 20/20 A2993 NOSIG=
200910211000 METAR MROC 211000Z 00000KT 9999 FEW030 BKN100 20/20 A2991 NOSIG=
200910211100 METAR MROC 211100Z 00000KT 9999 FEW030 BKN100 20/20 A2993 NOSIG=
200910211200 METAR MROC 211200Z 00000KT 9999 FEW030 BKN100 20/20 A2995 RMK FG LEVE ARND NOSIG=
200910211300 METAR MROC 211300Z 00000KT 9000 4000SW -RADZ FEW020 SCT030 BKN100 21/21 A2997 BECMG 4000 -RA BR=
200910211400 METAR MROC 211400Z 00000KT 9999 FEW010 SCT020 BKN120 23/21 A2999 RMK LGT HZ ARND NOSIG=
200910211500 METAR MROC 211500Z 26003KT 9999 FEW015 SCT020 BKN120 24/21 A2999 RMK PCPN DST E NOSIG=
200910211600 METAR MROC 211600Z 24004KT 9999 DZ FEW010 SCT025 BKN120 23/21 A2999 RMK LGT HZ ARND NOSIG=
200910211700 METAR MROC 211700Z 24005KT 9999 -DZ FEW012 BKN025 23/22 A2997 BECMG 7000 -RA VCFG=
200910211800 METAR MROC 211800Z 24005KT 9999 FEW017 SCT025 BKN250 25/21 A2994 REDZ BECMG 7000 -RA VCFG=
200910211900 METAR MROC 211900Z 24007KT 9999 -RA VCFG FEW010 SCT020 BKN100 22/21 A2992 BECMG 5000 -RA BR=
200910212000 METAR MROC 212000Z 26005KT 8000 -RA VCFG SCT010 BKN020 21/21 A2990 BECMG 5000 -RA BR=
200910212100 METAR MROC 212100Z 27003KT 8000 -RA VCFG SCT004 BKN015 21/21 A2988 RMK VIS SW 5KM DUE ST BECMG 2000 -RA BR SCT001 BKN009=
200910212200 METAR MROC 212200Z 27002KT 8000 -RA VCFG SCT004 SCT015 20/20 A2999 RMK SCT090 VIS W 5KM DUE ST NOSIG=
200910212300 METAR MROC 212300Z 00000KT 9999 -DZ VCFG SCT005 BKN020 21/21 A2991 RMK VIS SSE/S 7KM DUE ST NOSIG=
200910220000 METAR MROC 220000Z 00000KT 9999 -DZ FEW006 BKN020 21/21 A2993 RMK ST SSE NOSIG=
200910220100 METAR MROC 220100Z 00000KT 9999 FEW005 SCT012 21/21 A2995 REDZ RMK SCT020 BECMG 6000 VCFG=
200910220200 METAR MROC 220200Z 00000KT 8000 -RA VCFG SCT004 BKN012 20/20 A2997 BECMG 4000 -RA BR=
200910220300 METAR MROC 220300Z 00000KT 7000 VCFG SCT003 BKN015 20/20 A2999 RERA BECMG 4000 -RA BR=
200910220400 METAR MROC 220400Z 00000KT 9999 DZ FEW006 SCT015 BKN100 20/20 A2999 NOSIG=
200910220500 METAR MROC 220500Z 00000KT 9999 -RA FEW006 SCT015 BKN100 20/20 A2997 NOSIG=
200910220600 METAR MROC 220600Z 00000KT 9999 FEW006 SCT015 BKN100 20/20 A2996 RERA NOSIG=
200910220700 METAR MROC 220700Z 00000KT 7000 VCFG FEW003 SCT015 BKN100 20/20 A2992 BECMG 5000 BR=
200910220800 METAR MROC 220800Z 00000KT 9999 FEW003 BKN100 20/20 A2991 NOSIG=
200910220900 METAR MROC 220900Z 00000KT 4000 BR SCT002 BKN100 20/20 A2992 BECMG 2000 BR=
200910221000 METAR MROC 221000Z 00000KT 4000 DZBR SCT002 BKN100 20/20 A2993 NOSIG=
200910221100 METAR MROC 221100Z 00000KT 8000 -RA VCFG FEW003 BKN100 20/20 A2993 NOSIG=
200910221200 METAR MROC 221200Z 00000KT 9999 VCFG FEW003 BKN100 20/20 A2996 RMK VIS N 5000 NOSIG=
200910221300 METAR MROC 221300Z 00000KT 9999 BR FEW003 BKN110 20/20 A2997 RMK VIS SW 5KM DUE ST NOSIG=
200910221400 METAR MROC 221400Z 00000KT 9999 VCFG FEW008 BKN110 22/21 A2999 RMK FEW030 VIS E/W 7KM DUE ST NOSIG=
200910221500 METAR MROC 221500Z 00000KT 9999 FEW025 SCT120 24/21 A3001 RMK FEW030 ST SW NOSIG=
200910221600 METAR MROC 221600Z 24006KT 9999 FEW025 SCT030 24/21 A2999 RMK ST SW SCT120 NOSIG=
200910221700 METAR MROC 221700Z 24005KT 9999 -RA FEW015 SCT025 22/21 A2998 RMK SCT110 BECMG 6000 VCFG=
200910221800 METAR MROC 221800Z 26006KT 9999 FEW015 BKN025 23/22 A2996 RERA RMK FEW110 NOSIG=
200910221900 METAR MROC 221900Z 28003KT 9999 FEW015 BKN025 22/21 A2993 RERA NOSIG=
200910222000 METAR MROC 222000Z 26002KT 9999 -DZRA FEW025 BKN110 22/21 A2990 NOSIG=
200910222100 METAR MROC 222100Z 24005KT 9999 FEW005 SCT015 BKN100 21/21 A2990 REDZ BECMG 8000 VCFG=
200910222200 METAR MROC 222200Z 33003KT 9999 SCT015 BKN100 22/20 A2990 NOSIG=
200910222300 METAR MROC 222300Z 00000KT 9999 -RA SCT015 BKN100 21/20 A2990 NOSIG=
200910222345 METAR MROC 222345Z 00000KT 9999 FEW004 OVC120 20/19 A2989=
200910230000 METAR MROC 230000Z 00000KT 9999 FEW030 BKN120 21/21 A2993 NOSIG=
200910230100 METAR MROC 230100Z 00000KT 9999 SCT020 SCT100 21/21 A2993 NOSIG=
200910230200 METAR MROC 230200Z 00000KT 9999 SCT015 BKN040 20/20 A2996 NOSIG=
200910230300 METAR MROC 230300Z 00000KT 9999 SCT040 BKN130 20/20 A2997 NOSIG=
200910230400 METAR MROC 230400Z 00000KT 9999 FEW015 SCT040 BKN120 20/20 A2998 NOSIG=
200910230500 METAR MROC 230500Z 00000KT 9999 FEW012 BKN020 20/20 A2996 NOSIG=
200910230600 METAR MROC 230600Z 00000KT 9999 SCT025 BKN050 20/20 A2994 NOSIG=
200910230700 METAR MROC 230700Z 00000KT 9999 FEW025 BKN050 20/20 A2992 NOSIG=
200910230800 METAR MROC 230800Z 00000KT 9999 FEW020 BKN045 20/20 A2990=
200910230900 METAR MROC 230900Z 00000KT 9999 FEW020 BKN050 20/20 A2990=
200910231000 METAR MROC 231000Z 03003KT 9999 FEW040 SCT050 BKN070 20/20 A2991=
200910231100 METAR MROC 231100Z 10002KT 9999 -RADZ FEW025 SCT050 BKN070 20/20 A2992=
200910231200 METAR MROC 231200Z 08003KT CAVOK 20/19 A2992 RMK BKN090 RMK HZY=
200910231300 METAR MROC 231300Z 05003KT CAVOK 21/20 A2994 RMK BKN100 BECMG 24006KT=
200910231400 METAR MROC 231400Z 00000KT CAVOK 22/20 A2997 RMK BKN100 RMK HZY NOSIG=
200910231500 METAR MROC 231500Z 00000KT 9999 FEW035 BKN100 23/21 A2998 NOSIG=
200910231600 METAR MROC 231600Z 28004KT 9999 SCT030 BKN120 24/21 A2998 BECMG RMK HZY=
200910231700 METAR MROC 231700Z 24003KT 9999 SCT025 BKN120 25/21 A2996 RMK VIS E 8KMS DUE HZ NOSIG=
200910231800 METAR MROC 231800Z 25005KT 9999 SCT030TCU BKN120 25/21 A2993 BECMG 8000 VCSH=
200910231900 METAR MROC 231900Z 24005KT 9999 -RA SCT020TCU BKN100 25/22 A2990 RMK CB DST N BECMG 6000 RA=
200910232000 METAR MROC 232000Z 24009KT 9999 -DZ FEW005 SCT015CB BKN030 24/22 A2988 BECMG 5000 -RA BR=
200910232100 METAR MROC 232100Z 25005KT 9999 FEW005 SCT015 BKN030 23/21 A2987 RMK RN N NE E BECMG 7000 -RA VCFG=
200910232200 METAR MROC 232200Z 23004KT 9999 3000N -RA BR FEW002 SCT015 BKN030 22/21 A2989 BECMG 7000 VCFG=
200910232300 METAR MROC 232300Z 00000KT 3000 -RA BR FEW001 SCT010TCU BKN030 21/21 A2992 BECMG 1000 RA BR=
200910240000 METAR MROC 240000Z 00000KT 9999 3000SW -TSRA FEW001 SCT010CB BKN030 20/20 A2995 BECMG 1000 RA BR=
200910240100 METAR MROC 240100Z 06003KT 5000 RA BR FEW001 SCT008 BKN025 20/20 A2997 BECMG 2000 -RA BR=
200910240200 METAR MROC 240200Z 00000KT 9999 -RA FEW003 SCT030 OVC100 20/20 A2998 RMK VIS SW 8 KMS DUE ST NOSIG=
200910240300 METAR MROC 240300Z 00000KT CAVOK 20/20 A2994 RERA NOSIG=
200910240400 METAR MROC 240400Z VRB03KT 9999 VCFG FEW003 BKN100 20/20 A2998 RMK FEW030 VIS 6KM W DUE ST ST SSE S BECMG 4000 BR=
200910240500 METAR MROC 240500Z 00000KT 8000 2000SW BR VCFG FEW001 SCT020 20/20 A2998 RMK SCT100 VIS N UNL ST THIN IN STND BECMG 1200 BR BKN001=
200910240600 METAR MROC 240600Z 04004KT 9999 FEW035 BKN110 20/20 A2996 NOSIG=
200910240700 METAR MROC 240700Z 00000KT CAVOK 20/20 A2995 RMK BKN110 LTNG DST S NOSIG=
200910240800 METAR MROC 240800Z 00000KT CAVOK 20/20 A2992 RMK BKN110=
200910240900 METAR MROC 240900Z 00000KT CAVOK 19/19 A2990 RMK BKN110=
200910241000 METAR MROC 241000Z 00000KT CAVOK 19/19 A2991 RMK BKN120 FEW260=
200910241100 METAR MROC 241100Z 00000KT CAVOK 19/19 A2994 RMK BKN110=
200910241200 METAR MROC 241200Z 00000KT CAVOK 20/20 A2997 RMK FEW080 BKN110=
200910241300 METAR MROC 241300Z 05004KT CAVOK 20/20 A2997 RMK BKN100 NOSIG=
200910241400 METAR MROC 241400Z 00000KT CAVOK 21/20 A2998 RMK BKN100 NOSIG=
200910241500 METAR MROC 241500Z 00000KT CAVOK 22/20 A3000 RMK SCT100 SCT250 NOSIG=
200910241600 METAR MROC 241600Z 27005KT 9999 FEW030 SCT100 BKN250 23/20 A3000 NOSIG=
200910241700 METAR MROC 241700Z 29002KT 9999 SCT030 BKN250 24/21 A2997 NOSIG=
200910241800 METAR MROC 241800Z 27004KT 9999 SCT030 BKN250 25/21 A2994 BECMG 5000=
200910241900 METAR MROC 241900Z 24009KT 9999 FEW015TCU SCT030 BKN250 25/21 A2991 BECMG 5000 RA BR=
200910242000 METAR MROC 242000Z 20007KT 9999 FEW015TCU SCT030 BKN250 23/21 A2989 BECMG 5000 VCSH=
200910242100 METAR MROC 242100Z 25006KT 9999 FEW010TCU BKN025 23/21 A2988 RMK PCPN NE E BECMG 5000 RA=
200910242200 METAR MROC 242200Z 23005KT 9999 FEW010 BKN025 23/21 A2990 BECMG 6000 -RA VCFG=
200910242300 METAR MROC 242300Z 24007KT 9999 SCT010 BKN025 21/21 A2992 RMK PCPN NE NOSIG=
200910250000 METAR MROC 250000Z 26004KT 9999 SCT010 BKN025 21/20 A2994 RMK BECMG 6000 VCFG=
200910250100 METAR MROC 250100Z 28002KT 9999 RA SCT010 BKN025 20/20 A2996 BECMG 6000 -RA VCFG=
200910250200 METAR MROC 250200Z 00000KT 9999 -RA FEW010 SCT020 OVC100 20/20 A2996 NOSIG=
200910250300 METAR MROC 250300Z 00000KT 9999 -RA FEW010 SCT020 BKN100 20/20 A2997 NOSIG=
200910250400 METAR MROC 250400Z 00000KT 9999 FEW005 SCT020 BKN120 20/20 A2997 RERA NOSIG=
200910250500 METAR MROC 250500Z 00000KT 9999 FEW006 SCT025 BKN120 20/20 A2997 NOSIG=
200910250600 METAR MROC 250600Z 00000KT 9999 SCT030 BKN120 20/20 A2996 NOSIG=
200910250700 METAR MROC 250700Z 00000KT 9999 FEW003 SCT030 BKN120 20/20 A2995 NOSIG=
200910250800 METAR MROC 250800Z 00000KT 8000 -RA VCFG FEW005 SCT012 BKN100 20/20 A2994 NOSIG=
200910250900 METAR MROC 250900Z 00000KT 9999 -DZ FEW015 SCT030 BKN100 20/20 A2993 NOSIG=
200910251000 METAR MROC 251000Z 00000KT 9999 FEW003 SCT015 BKN100 20/20 A2993 NOSIG=
200910251100 METAR MROC 251100Z 00000KT 9999 FEW025 BKN120 20/20 A2994 NOSIG=
200910251200 METAR MROC 251200Z 00000KT CAVOK 20/20 A2996 RMK BKN090 TCU DST S SW NOSIG=
200910251300 METAR MROC 251300Z 00000KT 9999 FEW030 BKN120 21/21 A2998 BECMG 22005KT=
200910251400 METAR MROC 251400Z 00000KT 9999 FEW025 BKN120 23/21 A3000 NOSIG=
200910251500 METAR MROC 251500Z 25003KT 9999 SCT020 SCT250 24/21 A3001 NOSIG=
200910251600 METAR MROC 251600Z 24006KT 9999 SCT020 SCT250 25/21 A3000 NOSIG=
200910251700 METAR MROC 251700Z 25007KT 9999 FEW015 SCT030 26/21 A2998 NOSIG=
200910251800 METAR MROC 251800Z 23007KT 9999 VCSH FEW015CB SCT030 26/21 A2999 RMK RN DST NE BECMG 7000 -TS VCSH=
200910251900 METAR MROC 251900Z 25007KT 9999 VCTS FEW010CB SCT020 BKN100 25/22 A2992 RMK RN DST NE BECMG 6000 VCTS VCSH=
200910252000 METAR MROC 252000Z 24006KT 9999 4000N VCSH SCT010CB SCT020 BKN100 25/21 A2991 RMK RASH N NE BECMG 4000 -TSRA=
200910252100 METAR MROC 252100Z 24005KT 9999 3000N -RA VCSH FEW017CB BKN025 24/21 A2990 BECMG 5000 -TSRA=
200910252200 METAR MROC 252200Z 33003KT 9999 RA VCSH FEW015 SCT045 BKN100 21/21 A2991 RMK VIS WNW 7KMS NOSIG=
200910252300 METAR MROC 252300Z 00000KT 9999 FEW010 SCT025 BKN080 21/21 A2992 RMK PCPN DST N E S CB DST W BECMG 7000 VCFG=
200910260000 METAR MROC 260000Z 00000KT 9999 FEW010 SCT030 BKN070 22/21 A2994 BECMG 7000 VCFG=
200910260100 METAR MROC 260100Z 00000KT 9999 FEW012 BKN080 22/21 A2996 NOSIG=
200910260200 METAR MROC 260200Z 00000KT 9999 FEW030 BKN070 21/21 A2996 NOSIG=
200910260300 METAR MROC 260300Z 00000KT CAVOK 21/21 A2996 RMK BKN070 NOSIG=
200910260400 METAR MROC 260400Z 00000KT 0500 FG VV/// 21/21 A2997 NOSIG=
200910260500 METAR MROC 260500Z 00000KT 9999 1000SW BR FEW001 SCT010 BKN100 20/20 A2997 NOSIG=
200910260600 METAR MROC 260600Z 00000KT 9999 2000SW BR FEW001 SCT015 BKN100 20/20 A2996 RERA NOSIG=
200910260700 METAR MROC 260700Z 00000KT 9999 1000SW BR FEW001 SCT015 BKN100 20/20 A2993 NOSIG=
200910260800 METAR MROC 260800Z 00000KT 9999 FEW010 SCT100 20/20 A2991 NOSIG=
200910260900 METAR MROC 260900Z 00000KT 9999 FEW010 SCT100 19/19 A2991 RMK FEW250 NOSIG=
200910261000 METAR MROC 261000Z 00000KT 0500 FG VV/// 20/20 A2993 BECMG 9999=
200910261100 METAR MROC 261100Z 00000KT 9999 2000SW BR FEW001 SCT010 19/19 A2995 NOSIG=
200910261200 METAR MROC 261200Z 00000KT 9999 FEW030 SCT100 19/19 A2996 RMK CB DST SW FG SW NOSIG=
200910261300 METAR MROC 261300Z 00000KT CAVOK 22/21 A2997 RMK SCT120 RMK HZY CB DST S SW W NOSIG=
200910261400 METAR MROC 261400Z 00000KT 9999 FEW020 23/21 A2998 RMK FEW250 CB DST S SW HZY BECMG 24006KT=
200910261500 METAR MROC 261500Z 24004KT 9999 FEW015 25/22 A3000 RMK HZY NOSIG=
200910261600 METAR MROC 261600Z 23004KT 9999 SCT017 26/22 A2999 RMK HZY NOSIG=
200910261700 METAR MROC 261700Z 24008KT 9999 SCT017 25/22 A2997 RMK HZY NOSIG=
200910261800 METAR MROC 261800Z 24007KT 9999 SCT025 25/22 A2995 RMK FEW120 SCTD TCU DST ARND HZY NOSIG=
200910261900 METAR MROC 261900Z 24007KT 9999 FEW015TCU SCT025 26/23 A2992 BECMG 6000 -RA VCSH RMK CB DST N E=
200910262000 METAR MROC 262000Z 25007KT 9999 FEW015TCU SCT025 BKN250 26/23 A2991 RMK CB TS RASH DST IN ALL E QUAD BECMG 4000 TSRA=
200910262100 METAR MROC 262100Z 25005KT 9999 -RA VCTS FEW012CB SCT025 SCT100 25/22 A2990 RMK VIS E 5KM DUE CB/RASHTS BECMG 3000 TSRA=
200910262200 METAR MROC 262200Z 00000KT 8000 VCSH FEW012CB BKN100 21/21 A2991 RETS RMK FEW025 VIS SW 6KM DUE CB/RASH VIS E UNL NOSIG=
200910262300 METAR MROC 262300Z 00000KT 9999 VCFG FEW004 SCT020 21/21 A2994 RMK SCT030 VIS SW 6KM DUE ST/RN/TCU BECMG 4000 DZBR=
200910270000 METAR MROC NIL=
200910270100 METAR MROC 270100Z 23003KT 0400 R07/0100 FG VV/// 21/21 A2998 NOSIG=
200910270200 METAR MROC 270200Z 00000KT 9999 -DZRA VCFG FEW003 SCT015 BKN025 21/21 A2999 NOSIG=
200910270300 METAR MROC 270300Z 01003KT 9999 4000SW BR FEW002 SCT020 BKN120 21/21 A2999 NOSIG=
200910270400 METAR MROC 270400Z 00000KT 9999 VCFG FEW003 SCT025 SCT100 20/20 A2998 BECMG 6000 VCFG=
200910270500 METAR MROC 270500Z 06006KT CAVOK 21/21 A2997 RMK SCT100 NOSIG=
200910270600 METAR MROC 270600Z 00000KT CAVOK 21/20 A2995 RMK SCT110 NOSIG=
200910270700 METAR MROC 270700Z 00000KT 0500 FG SCT001 SCT100 20/20 A2993 NOSIG=
200910270800 METAR MROC 270800Z 00000KT 3000 BR FEW001 SCT100 20/20 A2992 BECMG 6000 VCFG=
200910270900 METAR MROC 270900Z 00000KT 0500 FG SCT001 SCT100 19/19 A2993 NOSIG=
200910271000 METAR MROC 271000Z 00000KT CAVOK 18/18 A2994 RMK TRCE AS NOSIG=
200910271100 METAR MROC 271100Z 02002KT CAVOK 19/19 A2994 RMK TRAAS NOSIG=
200910271200 METAR MROC 271200Z 00000KT CAVOK 19/18 A2997 RMK SCT250 CB DST S SW NOSIG=
200910271300 METAR MROC 271300Z 00000KT CAVOK 21/19 A2999 RMK SCT250 CB DST SSE NOSIG=
200910271400 METAR MROC 271400Z 00000KT CAVOK 24/20 A2999 RMK SCT280 CB DST SSE/S NOSIG=
200910271500 METAR MROC 271500Z 00000KT CAVOK 26/19 A2998 RMK BKN280 CB DST S BECMG 24006KT=
200910271600 METAR MROC 271600Z 12006KT 9999 FEW040 BKN280 27/20 A2997 BECMG 24006KT=
200910271700 METAR MROC 271700Z 14003KT 9999 FEW040 SCT280 27/22 A2994 BECMG 24006KT=
200910271800 METAR MROC 271800Z 24007KT 9999 SCT035 SCT280 26/23 A2993 NOSIG=
200910271900 METAR MROC 271900Z 24008KT 9999 FEW025TCU BKN035 26/23 A2990 RMK RN E HZ LGT ARND BECMG 5000 VCSH=
200910272000 METAR MROC 272000Z 25006KT 8000 -RA VCFG FEW010 FEW015CB BKN030 23/23 A2988 RETS RMK VIS SW/W/NW 5KM DUE CB/RN/ST NOSIG=
200910272100 METAR MROC 272100Z 26005KT 8000 VCFG FEW008 SCT012CB BKN030 24/23 A2988 RMK VIS NW N NE 4KMS DUR CB/RN/ST BECMG 4000 -RA BR=
200910272200 METAR MROC 272200Z 25005KT 8000 VCFG FEW006 SCT012CB BKN030 23/23 A2989 RMK NW N NE 4KMS DUE RN CB ST NOSIG=
200910272300 METAR MROC 272300Z 21003KT 3000 +TSRA FEW004 SCT012CB BKN025 22/22 A2991 RMK VIS SW7W 7KMS NOSIG=
200910280000 METAR MROC 280000Z 00000KT 9999 -RA FEW002 SCT015 BKN030 21/21 A2993 RMK VIS SW W NW 4KMS DUE TS NOSIG=
200910280100 METAR MROC 280100Z 00000KT 9999 FEW015 SCT070 BKN100 22/22 A2996 RMK BECMG 6000 -RA VCFG=
200910280200 METAR MROC 280200Z 00000KT 6000 DZ VCFG FEW002 SCT010 BKN030 21/21 A2998 RERA BECMG 2000 -RA BR=
200910280300 METAR MROC 280300Z 00000KT 9999 FEW005 SCT020 BKN130 21/21 A2999 NOSIG=
200910280400 METAR MROC 280400Z 00000KT 9999 -RA FEW005 SCT040 BKN120 21/21 A3000 NOSIG=
200910280500 METAR MROC 280500Z 00000KT 2000 BR SCT002 BKN012 21/21 A2995 RERA BECMG 0500 FG=
200910280600 METAR MROC 280600Z 00000KT 5000 BR SCT005 SCT010 21/21 A2996 RMK VIS SE S UNLTD NOSIG=
200910280700 METAR MROC 280700Z 06004KT CAVOK 20/20 A2993 RMK BKN250 NOSIG=
200910280800 METAR MROC 280800Z 04003KT CAVOK 21/21 A2991 RMK SCT250=
200910280900 METAR MROC 280900Z 10003KT 9999 FEW045 SCT250 20/20 A2991=
200910281000 METAR MROC 281000Z 03005KT 9999 FEW045 SCT250 20/19 A2991=
200910281100 METAR MROC 281100Z 00000KT 9999 FEW045 SCT250 19/19 A2993=
200910281200 METAR MROC 281200Z 00000KT CAVOK 20/19 A2995 RMK BKN250 CBS DST E S W=
200910281300 METAR MROC 281300Z 09005KT CAVOK 23/20 A2997 RMK FEW120 BKN250 CB DST S SW NOSIG=
200910281400 METAR MROC 281400Z 07007KT CAVOK 23/21 A2997 RMK FEW100 BKN250 CB DST S/SW NOSIG=
200910281500 METAR MROC 281500Z 08004KT CAVOK 25/20 A2997 RMK FEW100 BKN250 CB DST S/SW NOSIG=
200910281600 METAR MROC 281600Z 23004KT 9999 FEW040 SCT120 BKN250 25/22 A2996 NOSIG=
200910281700 METAR MROC 281700Z 24005KT 9999 SCT035 BKN250 26/22 A2994 NOSIG=
200910281800 METAR MROC 281800Z 25008KT 9999 SCT035 BKN250 26/23 A2993 RMK CB DST N NE NOSIG=
200910281900 METAR MROC 281900Z 25005KT 9999 SCT030TCU BKN120 25/23 A2990 RMK CB DST N NE BECMG 8000 VCSH=
200910282000 METAR MROC 282000Z 16003KT 9999 RA VCSH SCT030TCU BKN100 23/22 A2988 RMK CB DST N NE VIS S S 7KM DUE RASH=
200910282100 METAR MROC 282100Z 00000KT 9999 SCT025 BKN100 24/23 A2987 RMK RN N NW NOSIG=
200910282200 METAR MROC 282200Z 00000KT 8000 VCFG FEW003 SCT025 BKN100 23/23 A2989 BECMG 5000 BR=
200910282300 METAR MROC 282300Z 26002KT 7000 3000NW -RA BR FEW003 SCT020 BKN100 22/22 A2990 NOSIG=
200910290000 METAR MROC 290000Z 00000KT 9999 FEW020 SCT100 BKN250 21/21 A2992 RMK TRACE ST NOSIG=
200910290100 METAR MROC 290100Z 00000KT 9999 VCFG FEW002 SCT020 BKN250 21/21 A2995 RMK TRACE AC 7000 SW NOSIG=
200910290200 METAR MROC 290200Z 00000KT 9999 FEW020 SCT250 21/21 A2998 NOSIG=
200910290300 METAR MROC 290300Z 00000KT 6000 0800SW FG VCFG BKN001 SCT120 20/20 A2998 RMK VIS N/NE UNL BECMG 3000 BR=
200910290400 METAR MROC 290400Z 00000KT 9999 FEW030 SCT120 20/20 A2999 RMK FEW260 ST THIN SSE/SW LTNG DST SW NOSIG=
200910290500 METAR MROC 290500Z 00000KT 9999 FEW030 SCT120 20/20 A2998 RMK SCT260 ST THIN SSE/SW CB/LTNG DST S NOSIG=
200910290600 METAR MROC 290600Z 00000KT 9999 1000SW BR SCT002 SCT120 20/20 A2998 RMK SCT260 CB/LTNG DST S BECMG 0600 VV///=
200910290700 METAR MROC 290700Z 00000KT 9999 FEW003 SCT020 20/20 A2995 RMK SCT110 ST SSE/W NOSIG=
200910290800 METAR MROC 290800Z 00000KT 9999 FEW007 BKN110 20/20 A2994 RMK ST SSE/S=
200910290900 METAR MROC 290900Z 00000KT 9999 BKN025 20/20 A2994 RMK FEW110 ST SSE/S=
200910291000 METAR MROC 291000Z 00000KT 9999 SCT025 BKN110 20/20 A2994 RMK ST SSE=
200910291100 METAR MROC 291100Z 00000KT 9999 BKN025 20/20 A2996 RMK FEW110 ST THIN SSE/S=
200910291200 METAR MROC 291200Z 00000KT 9999 FEW030 SCT110 20/20 A2997 RMK SCT260 ST S=
200910291300 METAR MROC 291300Z 00000KT 9999 FEW030 SCT110 BKN250 21/21 A3000 BECMG 24006KT=
200910291400 METAR MROC 291400Z 04006KT CAVOK 22/20 A3000 RMK SCT110 BKN250 HZ LEVE ARND NOSIG=
200910291500 METAR MROC 291500Z 00000KT 9999 FEW040 BKN250 25/20 A2999 RMK HZ LEVE ARND BECMG 24006KT=
200910291600 METAR MROC 291600Z 00000KT 9999 FEW040 BKN250 27/19 A2997 RMK HZ LEVE ARND BECMG 24006KT=
200910291700 METAR MROC 291700Z 23009KT 9999 SCT030 BKN250 27/23 A2995 RMK HZ LEVE ARND NOSIG=
200910291800 METAR MROC 291800Z 23011KT 9999 SCT030 BKN250 27/22 A2993 RMK RN N NE HZ LEVE ARND BECMG 7000 VCSH=
200910291900 METAR MROC 291900Z 24010KT 9999 FEW010TCU SCT030 BKN250 25/22 A2991 RMK HZ LEVE ARND BECMG 5000 -RA BR=
200910292000 METAR MROC 292000Z 00000KT 9999 -RA FEW010TCU BKN030 23/22 A2989 BECMG 3000 -TSRA=
200910292100 METAR MROC 292100Z 25003KT 9999 4000N -RABR FEW010 BKN030 23/21 A2990 NOSIG=
200910292200 METAR MROC 292200Z 27006KT 9999 4000N BR FEW005 SCT015 BKN030 22/21 A2992 NOSIG=
200910292300 METAR MROC 292300Z VRB02KT 8000 4000N -RA BR FEW003 SCT015 BKN030 20/20 A2994 BECMG 3000 -RA BR=
200910300000 METAR MROC 300000Z 00000KT 9999 -DZ FEW003 SCT010 BKN030 20/20 A2996 BECMG 3000 -RA BR=
200910300100 METAR MROC 300100Z 00000KT 2000 -RA BR SCT002 SCT010 BKN025 20/20 A2999 BECMG 1000 RA BR=
200910300102 METAR MROC 300100Z 00000KT 2000 -RA BR SCT002 SCT010 BKN025 20/20 A2999 BECMG 1000 RA BR=
200910300200 METAR MROC 300200Z 00000KT 3000 -RA BR FEW001 SCT010 OVC100 20/20 A3002 BECMG 1000 RA BR=
200910300300 METAR MROC 300300Z 00000KT 8000 -RA BR FEW010 SCT020 BKN100 20/20 A3002=
200910300400 METAR MROC 300400Z 00000KT CAVOK 20/20 A3001 RMK BKN120 NOSIG=
200910300500 METAR MROC 300500Z 00000KT 9999 SCT020 BKN120 19/19 A2999 NOSIG=
200910300600 METAR MROC 300600Z 00000KT 9999 SCT025 BKN120 20/20 A2997 NOSIG=
200910300700 METAR MROC 300700Z 00000KT 9999 SCT030 BKN120 19/19 A2994 NOSIG=
200910300800 METAR MROC 300800Z 000000KT CAVOK 19/19 A2991 RMK BKN120 NOSIG=
200910300900 METAR MROC 300900Z 00000KT CAVOK 19/19 A2990 RMK BKN120 NOSIG=
200910301000 METAR MROC 301000Z 00000KT CAVOK 18/18 A2993 RMK BKN120 NOSIG=
200910301100 METAR MROC 301100Z 00000KT 9999 FEW015 BKN120 19/19 A2993 NOSIG=
200910301200 METAR MROC 301200Z 00000KT 9999 FEW002 SCT010 BKN100 18/18 A2997 NOSIG=
200910301300 METAR MROC 301300Z 00000KT 5000 BR FEW002 SCT010 BKN100 19/19 A2999 BECMG 7000 VCFG=
200910301400 METAR MROC 301400Z 00000KT 9999 FEW010 22/20 A3000 RMK TRACE AC BECMG 24004KT=
200910301500 METAR MROC 301500Z 26002KT 9999 SCT010 23/21 A3001 NOSIG=
200910301600 METAR MROC 301600Z 26005KT 9999 SCT010 25/19 A3001 RMK HZ NE NOSIG=
200910301700 METAR MROC 301700Z 26007KT 9999 SCT015 25/21 A3000 RMK HZ NE NOSIG=
200910301800 METAR MROC 301800Z 23005KT 9999 FEW015TCU SCT025 26/21 A2997 RMK PCPN NE NOSIG=
200910301900 METAR MROC 301900Z 21005KT 9999 FEW015TCU SCT025 26/20 A2994 RMK PCPN NE NOSIG=
200910302000 METAR MROC 302000Z 25006KT 9999 FEW010 SCT015TCU 25/22 A2991 RMK PCPN NE SW BECMG 5000 TSRA=
200910302100 METAR MROC 302100Z 24007KT 9999 FEW020TCU SCT030 25/22 A2991 NOSIG=
200910302200 METAR MROC 302200Z 25007KT 9999 FEW015TCU SCT030 BKN140 23/22 A2992 BECMG 6000 VCFG=
200910302300 METAR MROC 302300Z 25008KT 8000 -RA VCFG BR FEW003 SCT010 BKN030 21/21 A2994 RMK VIS SW 4KMS BECMG 4000 -RA BR=
200910310000 METAR MROC 310000Z 24006KT 5000 BR SCT003 BKN006 20/20 A2998 RERA RMK VIS SE S UNLTD VIS SW W 3KMS BECMG 2000=
200910310100 METAR MROC 310100Z 26004KT 7000 VCFG SCT005 BKN010 20/20 A3000 NOSIG=
200910310200 METAR MROC NIL=
200910310300 METAR MROC 310300Z 00000KT 9999 FEW005 SCT140 20/20 A3002 BECMG 2000 BR=
200910310400 METAR MROC 310400Z 00000KT 9999 FEW005 SCT120 20/20 A3003 NOSIG=
200910310500 METAR MROC 310500Z 00000KT CAVOK 20/20 A3001 RMK SCT120 NOSIG=
200910310600 METAR MROC 310600Z 00000KT CAVOK 20/20 A2999 RMK BKN120 NOSIG=
200910310700 METAR MROC 310700Z 00000KT 9999 FEW030 BKN120 20/20 A2999 NOSIG=
200910310800 METAR MROC 310800Z 00000KT 9999 FEW030 BKN120 20/20 A2997 NOSIG=
200910310900 METAR MROC 310900Z 00000KT 9999 FEW020 BKN120 20/20 A2997 NOSIG=
200910311000 METAR MROC 311000Z 00000KT 9999 FEW020 BKN120 20/20 A2997 NOSIG=
200910311100 METAR MROC 311100Z 00000KT 9999 FEW015 BKN120 20/20 A2999 NOSIG=
200910311200 METAR MROC 311200Z 00000KT 9999 FEW015 BKN100 20/20 A3001 NOSIG=
200910311300 METAR MROC 311300Z 00000KT CAVOK 21/20 A3002 RMK BKN120 NOSIG=
200910311400 METAR MROC 311400Z 00000KT CAVOK 22/20 A3004 RMK BKN120 NOSIG=
200910311500 METAR MROC 311500Z 00000KT CAVOK 23/21 A3006 RMK BKN120 BECMG 24006KT=
200910311600 METAR MROC 311600Z 00000KT CAVOK 25/19 A3003 RMK BKN120 BECMG 24006KT=
200910311700 METAR MROC 311700Z 23006KT 9999 FEW030 BKN100 25/20 A3003 RMK TCU DST ARND NOSIG=
200910311800 METAR MROC 311800Z 26006KT 9999 FEW030 BKN100 26/20 RMK TCU SCT ARND A2999 NOSIG=
200910311900 METAR MROC 311900Z 24008KT 9999 FEW015 SCT025 BKN100 24/22 A2997 BECMG 7000 -RA=
200910312000 METAR MROC 312000Z 24011KT 9999 FEW012 SCT025 BKN100 25/22 A2993 RMK RN SW/N/NE BECMG -RA=
200910312100 METAR MROC 312100Z 24007KT 9999 FEW015TCU BKN030 25/22 A2991 RMK TCU E BECMG -RA=
200910312200 METAR MROC 312200Z 24005KT 9999 SCT035 24/22 A2992 RMK FEW260 CB DST N/NE NOSIG=
200910312300 METAR MROC 312300Z 25004KT 9999 FEW035 SCT260 23/21 A2995 RMK CB DST NE/E/W NOSIG=
200911010000 METAR MROC 010000Z 29002KT 9999 FEW030 SCT260 21/20 A2996 RMK CB DST N/E NOSIG=
200911010100 METAR MROC 010100Z 00000KT 9999 FEW007 BKN025 21/21 A3001 BECMG 6000=
200911010200 METAR MROC 010200Z 00000KT 9999 VCFG FEW006 SCT260 21/21 A3003 RMK VIS S 6KM DUE ST ST SSE/SW NOSIG=
200911010300 METAR MROC 010300Z 00000KT 9999 FEW020 SCT120 21/21 A3001 NOSIG=
200911010400 METAR MROC 010400Z 00000KT 8000 VCFG FEW002 SCT120 20/20 A3003 BECMG 5000 BR=
200911010500 METAR MROC 010500Z 00000KT 0100 BKN001 20/20 A3002 NOSIG=
200911010600 METAR MROC 010600Z 00000KT 1200 BR SCT002 20/20 A3001 BECMG 2000 BR=
200911010700 METAR MROC 010700Z 00000KT 9999 1500W BR SCT002 20/20 A2998 NOSIG=
200911010800 METAR MROC 010800Z 00000KT 9999 VCFG SCT005 19/19 A2996 NOSIG=
200911010900 METAR MROC 010900Z 00000KT 9999 SCT010 19/19 A2996 NOSIG=
200911011000 METAR MROC 011000Z 00000KT 9999 SCT010 19/19 A2995 NOSIG=
200911011100 METAR MROC 011100Z 00000KT 9999 SCT025 19/19 A2997 NOSIG=
200911011200 METAR MROC 011200Z 00000KT 9999 SCT020 SCT140 19/19 A3000 NOSIG=
200911011300 METAR MROC 011300Z 00000KT CAVOK 22/19 A3002 RMK BKN260 BECMG 24006KT=
200911011400 METAR MROC 011400Z 00000KT 9999 FEW035 SCT260 24/20 A3003 BECMG 24006KT=
200911011500 METAR MROC 011500Z 00000KT 9999 SCT035 SCT260 25/20 A3003 BECMG 24006KT=
200911011600 METAR MROC 011600Z 23004KT 9999 SCT035 SCT260 26/20 A3002 NOSIG=
200911011700 METAR MROC 011700Z 23006KT 9999 FEW035 SCT260 26/20 A3000 RMK TCU S/W/N NOSIG=
200911011800 METAR MROC 011800Z 26008KT 9999 BKN035 27/22 A2997 RMK FEW260 TCU W/N NOSIG=
200911011900 METAR MROC 011900Z 24009KT 9999 FEW025TCU BKN035 27/22 A2994 RMK FEW260 CB W NOSIG=
200911012000 METAR MROC 012000Z 25009KT 9999 FEW020TCU SCT035 SCT110 26/22 A2992 RMK TCU ARND RN W BECMG 5000 -TSRA FEW015CB BKN030=
200911012100 METAR MROC 012100Z 26009KT 9999 FEW010 SCT020TCU BKN100 23/21 A2991 BECMG 6000 -TSRA=
200911012200 METAR MROC 012200Z 24005KT 9999 FEW010 SCT020TCU BKN100 22/21 A2993 NOSIG=
200911012300 METAR MROC 012300Z 26006KT 9999 FEW010 SCT025 BKN100 22/21 A2995 RMK RN DST S VIS W NW 8KMS DUE ST BAJOS NOSIG=
200911012345 METAR MROC 012345Z 26004KT 8000 -RA FEW005 SCT015 BKN100 21/21 A2996 RMK VIS SW W 3KMS DUE RN ST NOSIG=
200911020000 METAR MROC 020000Z 26004KT 8000 4000SW +RA BR FEW004 SCT015 BKN100 21/21 A2997 BECMG 9999=
200911020100 METAR MROC 020100Z 26005KT 6000 1500SW -DZ BR FEW001 SCT015 OVC100 20/20 A3001 BECMG 1000 BR=
200911020200 METAR MROC 020200Z 26003KT 9999 2000SW DZ BR FEW001 SCT020 OVC100 21/21 A3002 NOSIG=
200911020300 METAR MROC 020300Z 23002KT 3000 -RA BR SCT003 BKN008 20/20 A3004 NOSIG=
200911020400 METAR MROC 020400Z 00000KT 2000 RA BR SCT002 BKN010 20/20 A3004 RESH BECMG 5000 -RA BR=
200911020500 METAR MROC 020500Z 32004KT 9999 FEW015 SCT030 BKN070 20/20 A3003 RERA NOSIG=
200911020600 METAR MROC 020600Z 00000KT 9999 FEW020 SCT035 BKN070 20/20 A3001 NOSIG=
200911020700 METAR MROC 020700Z 00000KT 9999 -RA VCFG FEW005 SCT025 BKN070 20/20 A2998 RMK VIS S SW 8KMS BECMG 5000 BR=
200911020800 METAR MROC 020800Z 00000KT CAVOK 19/19 A2991 RMK FEW140 BKN250=
200911020900 METAR MROC 020900Z 00000KT CAVOK 19/19 A2996 RMK FEW060 SCT250=
200911021000 METAR MROC 021000Z 03003KT CAVOK 19/19 A2996 RMK SCT070=
200911021100 METAR MROC 021100Z 05002KT CAVOK 19/19 A2998 RMK BKN080=
200911021200 METAR MROC 021200Z 08003KT CAVOK 18/18 A3001 RMK FEW050 SCT140 BKN250=
200911021300 METAR MROC 021300Z 09003KT CAVOK 20/20 A3002 RMK FEW050 BKN120 NOSIG=
200911021400 METAR MROC 021400Z 20003KT 9999 FEW040 BKN120 23/19 A3004 RMK TCU DST S SW NOSIG=
200911021500 METAR MROC 021500Z 28002KT 9999 FEW035 BKN120 24/20 A3004 RMK CB DST S NOSIG=
200911021600 METAR MROC 021600Z 24003KT 9999 SCT030 SCT250 25/19 A3003 RMK TCU DST N NOSIG=
200911021700 METAR MROC 021700Z 24008KT 9999 SCT035 BKN250 26/20 A3001 RMK CB TCU DST NW N NE RN DST NE=
200911021800 METAR MROC 021800Z 23014KT 9999 4000N RA SCT025TCU BKN120 25/21 A2999 BECMG 6000 RA=
200911021810 METAR MROC 021810Z 24008KT 9999 3000N -RA VCSH SCT015CB BKN030 23/22 A2999 NOSIG=
200911021900 METAR MROC 021900Z 23005KT 9999 -RA FEW015 SCT025TCU BKN100 23/22 A2996 BECMG 5000 -TSRA=
200911022000 METAR MROC 022000Z 23013KT 9999 +RA FEW006 SCT020TCU BKN030 22/22 A2994=
200911022100 METAR MROC 022100Z 23006KT 7000 1000SW BR FEW001 SCT005 BKN030 21/21 A2994 RERA BECMG 2000 BR=
200911022200 METAR MROC 022200Z 23008KT 2000 RA BR FEW001 SCT005 BKN030 20/20 A2996 BECMG 1000 BR=
200911022300 METAR MROC 022300Z 24006KT 3000 RA BR FEW001 SCT008 BKN030 20/20 A2998 BECMG 0500 RA FG=
200911030000 METAR MROC 030000Z 00000KT 6000 RA FEW002 SCT010 BKN030 20/20 A3000 NOSIG=
200911030100 METAR MROC 030100Z 00000KT 2000 -RA BR FEW001 SCT015 BKN030 20/20 A3002 NOSIG=
200911030200 METAR MROC 030200Z 00000KT 7000 VCFG FEW001 SCT030 BKN100 20/20 A3003 NOSIG=
200911030300 METAR MROC 030300Z 00000KT 9999 VCFG FEW003 OVC100 20/20 A3004 RMK VIS SSE/S 7KM DUE ST BECMG 6000 VCFG=
200911030400 METAR MROC 030400Z 00000KT 6000 VCFG SCT003 BKN015 20/20 A3004 RMK VIS NW/N UNL BECMG 3000 BR=
200911030500 METAR MROC 030500Z 00000KT 9999 FEW030 SCT120 19/19 A3002 RMK ST SSE/S/SW NOSIG=
200911030600 METAR MROC 030600Z 00000KT CAVOK 19/19 A3001 RMK SCT120 ST THIN S NOSIG=
200911030700 METAR MROC 030700Z 00000KT CAVOK 18/18 A2999 RMK FEW120 ST THIN S NOSIG=
200911030800 METAR MROC 030800Z 10002KT 9999 VCFG FEW003 18/18 A2997 RMK FEW120 VIS S 7KM DUE ST=
200911030900 METAR MROC 030900Z 00000KT CAVOK 17/17 A2996 RMK FEW120 ST S/SW=
200911031000 METAR MROC 031000Z 06002KT CAVOK 17/17 A2996 RMK SCT120 ST S/SW=
200911031100 METAR MROC 031100Z 05002KT CAVOK 17/17 A2998 RMK SCT120 FEW260 ST S=
200911031200 METAR MROC 031200Z 07003KT CAVOK 18/17 A2999 RMK FEW120 SCT260 TCU DST S=
200911031300 METAR MROC 031300Z 06003KT CAVOK 20/18 A3001 RMK BKN250 NOSIG=
200911031400 METAR MROC 031400Z 11006KT CAVOK 23/19 A3003 RMK BKN250 BECMG 24004KT=
200911031500 METAR MROC 031500Z 24002KT CAVOK 26/17 A3002 RMK BKN250 NOSIG=
200911031600 METAR MROC 031600Z 29005KT 9999 FEW040 BKN250 26/18 A3001 NOSIG=
200911031700 METAR MROC 031700Z 26009KT 9999 FEW040 BKN250 27/20 A2999 NOSIG=
200911031800 METAR MROC 031800Z 24013KT 9999 SCT030 BKN250 26/21 A2997 NOSIG=
200911031900 METAR MROC 031900Z 22012KT 9999 SCT030 BKN250 27/21 A2995 RMK RN N NE BECMG 5000 VCSH=
200911032000 METAR MROC 032000Z 26011KT 9999 2000N VCSH SCT030 SCT250 25/22 A2994 RERA BECMG 3000 RA BR=
200911032100 METAR MROC 032100Z 26005KT 9999 -RA SCT010CB BKN015 23/21 A2994 BECMG 5000 -TSRA=
200911032200 METAR MROC 032200Z 26007KT 9999 SCT010 BKN020 22/21 A2995 BECMG 5000 -RA BR=
200911032300 METAR MROC 032300Z 26003KT 8000 -RA VCFG SCT005 BKN015 21/21 A2997 BECMG 4000 -RA BR=
200911040000 METAR MROC 040000Z 26005KT 5000 DZ BR SCT003 BKN012 20/20 A2999 BECMG 1000 -RA BR=
200911040100 METAR MROC 040100Z 26008KT 4000 RA BR SCT004 BKN015 20/20 A3002 BECMG 1000 -RA BR=
200911040200 METAR MROC 040200Z 25006KT 3000 BR SCT003 BKN012 20/20 A3003 BECMG 0500 FG=
200911040300 METAR MROC 040300Z 25004KT 3000 -RA BR FEW003 SCT010 BKN020 20/20 A3005 BECMG 0500 FG=
200911040400 METAR MROC 040400Z 27004KT 4000 -RA BR FEW003 SCT010 BKN020 20/20 A3005 NOSIG=
200911040500 METAR MROC 040500Z 27004KT 3000 RA BR FEW004 SCT010 BKN100 20/20 A3005 NOSIG=
200911040600 METAR MROC 040600Z 00000KT 8000 -RA BR FEW005 SCT015 BKN100 20/20 A3004=
200911040700 METAR MROC 040700Z 12003KT 9999 FEW015 BKN120 19/19 A3001 RERA NOSIG=
200911040800 METAR MROC 040800Z 00000KT CAVOK 19/19 A2998 RMK BKN120 NOSIG=
200911040900 METAR MROC 040900Z 00000KT CAVOK 19/19 A2997 RMK BKN120 NOSIG=
200911041000 METAR MROC 041000Z 00000KT CAVOK 19/19 A3000 RMK BKN120 NOSIG=
200911041100 METAR MROC 041100Z 00000KT 9999 FEW015 SCT035 BKN120 19/19 A3000 NOSIG=
200911041200 METAR MROC 041200Z 00000KT 9999 3000SW BR FEW010 SCT030 BKN100 19/19 A3002 BECMG 9999=
200911041300 METAR MROC 041300Z 00000KT 9999 SCT015 BKN100 20/20 A3004 NOSIG=
200911041400 METAR MROC 041400Z 00000KT 9999 SCT012 OVC100 20/20 A3006 NOSIG=
200911041500 METAR MROC 041500Z 00000KT 9999 FEW020 BKN100 22/20 A3006 RMK=
200911041600 METAR MROC 041600Z 22003KT 9999 SCT020 BKN100 22/22 A3007 RMK RERA NOSIG=
200911041700 METAR MROC 041700Z 22004KT 9999 FEW010 SCT020 BKN100 23/21 A3005 NOSIG=
200911041800 METAR MROC 041800Z 23005KT 9999 FEW020 SCT120 BKN250 25/21 A3002 NOSIG=
200911041900 METAR MROC 041900Z 24009KT 9999 FEW015 SCT025 BKN250 24/22 A2999 NOSIG=
200911042000 METAR MROC 042000Z 28006KT 9999 1000S VCRA FEW010CB SCT020 BKN250 23/22 A2996 RMK BECMG 3000 -RA=
200911042100 METAR MROC 042100Z 25013KT 6000 -RA VCSH SCT012CB BKN025 21/21 A2997 RMK VIS SSW UNLTD BECMG 4000 TSRA=
200911042200 METAR MROC 042200Z 25008KT 9999 VCSH FEW006 FEW012CB BKN025 21/21 A2999 RERA RMK VIS W NW 6KMS BECMG 6000 VCFG=
200911042300 METAR MROC 042300Z 26006KT 6000 VCSH SCT008 BKN020 21/21 A3000 RMK VIS SE S UNLT BECMG 2000 RA BR=
200911050000 METAR MROC 050000Z 26004KT 2000 R07/1300 -RA BR FEW001 SCT003 BKN006 20/20 A3001 RMK FG OVER APCH RNY 07 NOSIG=
200911050100 METAR MROC 050100Z 30003KT 6000 -RA VCFG FEW006 SCT012 BKN100 20/20 A3004 NOSIG=
200911050200 METAR MROC 050200Z 00000KT 9999 -RA SCT025 BKN080 20/20 A3006 BECMG 6000 -RA VCFG=
200911050300 METAR MROC 050300Z 20002KT 8000 -RA VCFG FEW003 SCT020 BKN080 20/20 A3007 NOSIG=
200911050400 METAR MROC 050400Z 20005KT 8000 1000SW RA BR FEW001 SCT010 BKN030 20/20 A3009 BECMG 1000 RA BR=
200911050500 METAR MROC 050500Z 21005KT 9999 2000SW RA BR FEW001 SCT020 BKN100 19/19 A3008 BECMG 5000 RA BR=
200911050600 METAR MROC 050600Z 36004KT 9999 RA FEW020 BKN100 19/19 A3004 NOSIG=
200911050700 METAR MROC 050700Z 32004KT 9999 FEW010 BKN100 19/19 A3003 RERA BECMG 3000 BR=
200911050800 METAR MROC 050800Z VRB02KT 9999 FEW010 BKN100 19/19 A3003 BECMG 3000 BR=
200911050900 METAR MROC 050900Z VRB02KT 9999 1000SW -RA BR FEW001 SCT008 BKN100 19/19 A3002 BECMG 1000 -RA BR=
200911051000 METAR MROC 051000Z 00000KT 9999 1000SW -DZ BR FEW001 SCT008 BKN100 19/19 A3002 BECMG 1000 -RA BR=
200911051100 METAR MROC 051100Z 00000KT 9999 2000SW BR FEW001 SCT010 BKN100 19/19 A3003 NOSIG=
200911051200 METAR MROC 051200Z 00000KT 9999 3000SW BR FEW001 BKN100 19/19 A3005 NOSIG=
200911051300 METAR MROC 051300Z 00000KT 5000 BR FEW002 SCT008 BKN100 20/20 A3007 RMK VIS SW WSW 3KMS BECMG 3000 -RA BR=
200911051400 METAR MROC 051400Z 32003KT 8000 3000N VCFG BR FEW003 BKN015 20/20 A3008 RMK VIS SE UNLTD NOSIG=
200911051500 METAR MROC 051500Z 26002KT 8000 3000N VCFG BR FEW004 SCT020 BKN100 22/21 A3008 RMK VIS E SE UNLTD NOSIG=
200911051600 METAR MROC 051600Z 26005KT 9999 SCT015 BKN025 23/22 A3009 RMK PCPN DST NW BECMG 7000 -RA VCFG=
200911051700 METAR MROC 051700Z 24007KT 9999 SCT015 BKN025 24/22 A3007 NOSIG=
200911051800 METAR MROC 051800Z 27007KT 9999 SCT017TCU BKN030 24/22 A3004 BECMG 7000 VCSH=
200911051900 METAR MROC 051900Z 22007KT 9999 SCT015TCU SCT025 BKN250 24/21 A3001 BECMG 7000 VCSH=
200911052000 METAR MROC 052000Z 24007KT 9999 FEW012TCU BKN025 23/22 A3000 BECMG 7000 -RA VCFG=
200911052100 METAR MROC 052100Z 29006KT 9999 FEW006 FEW015TCU BKN025 24/22 A2999 RMK ST SSE BECMG -DZRA=
200911052200 METAR MROC 052200Z 23007KT 9999 FEW015CB SCT025 SCT100 23/21 A3000 RMK TCU/RN SCTD ARND BECMG -RA=
200911052300 METAR MROC 052300Z 23004KT 9999 FEW006 FEW012TCU SCT110 21/21 A3001 RMK FEW025 TCU SW/W/N/NE NOSIG=
200911060000 METAR MROC 060000Z 24004KT 9999 FEW005 SCT020 21/21 A3002 RMK SCT110 BECMG 7000 VCFG=
200911060100 METAR MROC 060100Z 29004KT 9999 VCFG FEW004 BKN015 21/21 A3004 RMK VIS SW/W/S 7KM DUE ST BECMG 5000 BR=
200911060200 METAR MROC 060200Z 27002KT 9999 -DZRA VCFG FEW003 BKN012 20/20 A3006 RMK VIS SW/W 6KM DUE ST BECMG 5000 -RA BR=
200911060300 METAR MROC 060300Z 25003KT 8000 VCFG FEW003 BKN010 20/20 A3008 BECMG 5000 BR=
200911060400 METAR MROC 060400Z 28002KT 7000 VCFG SCT003 BKN010 20/20 A3007 NOSIG=
200911060500 METAR MROC 060500Z 01003KT 9999 -RA FEW004 SCT012 20/20 A3007 NOSIG=
200911060600 METAR MROC 060600Z 00000KT 9999 FEW004 BKN015 20/20 A3005 NOSIG=
200911060700 METAR MROC 060700Z 00000KT 9999 FEW005 BKN020 20/20 A3003 NOSIG=
200911060800 METAR MROC 060800Z 29002KT 7000 VCFG SCT003 BKN018 20/20 A3001 BECMG 5000 BR=
200911060900 METAR MROC 060900Z 00000KT 9999 2500W BR SCT003 BKN018 19/19 A3000 BECMG 2000 BR=
200911061000 METAR MROC 061000Z 00000KT 3000 BR SCT002 BKN015 19/19 A3000 NOSIG=
200911061100 METAR MROC 061100Z 00000KT 3000 BR SCT003 BKN015 20/20 A3001 NOSIG=
200911061200 METAR MROC 061200Z 05006KT 9999 FEW004 BKN015 19/19 A3002 NOSIG=
200911061300 METAR MROC 061300Z 10004KT CAVOK 21/20 A3004 RMK FEW120 NOSIG=
200911061400 METAR MROC 061400Z 05002KT CAVOK 23/20 A3005 RMK FEW140 BECMG 24006KT=
200911061500 METAR MROC 061500Z 25007KT 9999 FEW035 25/21 A3006 NOSIG=
200911061600 METAR MROC 061600Z 26005KT 9999 FEW040 26/21 A3006 NOSIG=
200911061700 METAR MROC 061700Z 25007KT 9999 SCT040 26/21 A3004 NOSIG=
200911061800 METAR MROC 061800Z 22009KT 9999 SCT040 26/21 A3002 NOSIG=
200911061900 METAR MROC 061900Z 25009KT 9999 SCT040 26/21 A2998 RMK FEW120 TCU/RN SSE NOSIG=
200911062000 METAR MROC 062000Z 24012KT 9999 VCSH FEW012CB SCT030 25/22 A2997 RMK VIS 5KM SSE DUE CB/RASH BECMG -TSRA=
200911062100 METAR MROC 062100Z 24009KT 9999 VCSH FEW010 SCT025TCU BKN100 25/21 A2997 RMK VIS N/NE 5KMS DUE RASH NOSIG=
200911062110 METAR MROC 062110Z 29010KT 7000 VCFG SCT012 BKN100 22/20 A2993 RERA BECMG 9999=
200911062200 METAR MROC 062200Z 24008KT 9999 VCFG FEW010 SCT025 BKN250 22/21 A2998 RMK VIS N NE 6KMS DUE FG NOSIG=
200911062300 METAR MROC 062300Z 25006KT 9999 -DZ VCFG FEW005 SCT015 BKN100 21/21 A2999 RMK VIS N NE 4KMS DUE FG NOSIG=
200911070000 METAR MROC 070000Z 22002KT 9999 FEW005 SCT015 BKN100 21/21 A3001 NOSIG=
200911070100 METAR MROC 070100Z 00000KT 8000 VCFG FEW008 SCT020 BKN110 20/20 A3003 NOSIG=
200911070200 METAR MROC 070200Z 31002KT 8000 VCFG FEW010 SCT030 20/20 A3004 NOSIG=
200911070300 METAR MROC 070300Z 00000KT 9999 FEW010 SCT040 20/20 A3005 NOSIG=
200911070400 METAR MROC 070400Z 00000KT 5000 BR SCT003 BKN008 20/20 A3004 BECMG 3000=
200911070500 METAR MROC 070500Z 23005KT 5000 BR SCT004 BKN010 20/20 A3001 NOSIG=
200911070600 METAR MROC 070600Z 00000KT 9999 FEW002 SCT004 BKN012 20/20 A2999 RMK HZY BECMG 7000 VCFG=
200911070700 METAR MROC 070700Z 00000KT 9999 SCT012 BKN030 20/20 A2998 NOSIG=
200911070800 METAR MROC 070800Z 00000KT 9999 SCT020 BKN035 20/20 A2997=
200911070900 METAR MROC 070900Z 00000KT 9999 FEW035 SCT250 19/19 A2996=
200911071000 METAR MROC 071000Z 04004KT CAVOK 18/18 A2996 RMK BKN250=
200911071100 METAR MROC 071100Z 09003KT CAVOK 18/18 A2997 RMK FEW250=
200911071200 METAR MROC 071200Z 00000KT 0500 FG VV/// 18/18 A3000 RMK VIS N QUAD UNLTD=
200911071300 METAR MROC 071300Z 11003KT 9999 1500SW BR FEW001 SCT010 BKN250 19/19 A3001 BECMG 24006KT=
200911071400 METAR MROC 071400Z 14002KT CAVOK 21/20 A3001 RMK BKN250 CB DST S SW W NOSIG=
200911071500 METAR MROC 071500Z 20003KT 9999 FEW040 BKN250 24/20 A3002 RMK CB DST SW NOSIG=
200911071600 METAR MROC 071600Z 26004KT 9999 FEW035 BKN250 25/21 A3002 RMK CB DST S SW NOSIG=
200911071700 METAR MROC 071700Z 24009KT 9999 SCT035 BKN300 25/21 A3000 RMK TCU/RN DST NE CB DST SW NOSIG=
200911071800 METAR MROC 071800Z 24012KT 9999 SCT030TCU BKN300 26/22 A2997 RMK CB DST N NOSIG=
200911071900 METAR MROC 071900Z 22008KT 9999 SCT025TCU BKN250 27/22 A2994 RMK CB RASH DST NE E BECMG 6000 RA=
200911072000 METAR MROC 072000Z 24009KT 9999 SCT025TCU BKN100 25/22 A2993 RMK RN DST NE E S SW NOSIG=
200911072100 METAR MROC 072100Z 15005KT 2000 +RA BR FEW001 SCT015TCU BKN030 21/21 A2995 BECMG 1000 +RA BR=
200911072200 METAR MROC 072200Z 24005KT 7000 -RA VCFG FEW001 SCT010 BKN030 21/21 A2995 BECMG 2000 -RA BR=
200911072300 METAR MROC 072300Z 24005KT 7000 1000SW BR FEW001 SCT005 BKN030 21/21 A2996 RERA BECMG 2000 -RA BR=
200911080000 METAR MROC 080000Z 25006KT 9999 3000SW BR FEW001 SCT008 BKN030 20/20 A2998 BECMG 2000 -RA BR=
200911080100 METAR MROC 080100Z 25007KT 1000 BR SCT001 BKN015 20/20 A3000 BECMG 0500 FG VV///=
200911080200 METAR MROC 080200Z 23004KT 0600 FG VV/// 20/20 A3003 NOSIG=
200911080300 METAR MROC 080300Z 28005KT 3000 1000SW BR SCT001 BKN008 20/20 A3003 NOSIG=
200911080400 METAR MROC 080400Z 26002KT 0800 FG -DZ VV/// 20/20 A3002 NOSIG=
200911080500 METAR MROC 080500Z 00000KT 3000 BR -DZ FEW002 BKN012 20/20 A3002 RMK VIS SW 1500 SW VIS N 6KM NOSIG=
200911080600 METAR MROC 080600Z 00000KT 1000 BR SCT001 BKN012 20/20 A3000 RMK VIS N 6KM NOSIG=
200911080700 METAR MROC 080700Z 00000KT 7000 VCFG FEW003 SCT012 20/20 A2997 RMK SCT020 VIS N/E UNL NOSIG=
200911080800 METAR MROC 080800Z 00000KT 9999 VCFG FEW003 SCT015 20/20 A2995 RMK SCT025 VIS S/SW 7KM DUE ST=
200911080900 METAR MROC 080900Z 00000KT 9999 FEW025 SCT110 20/20 A2994 RMK ST S=
200911081000 METAR MROC 081000Z 05005KT CAVOK 19/19 A2993 RMK FEW110 FEW250 ST S=
200911081100 METAR MROC 081100Z 05006KT CAVOK 18/18 A2994 RMK FEW250 ST S=
200911081200 METAR MROC 081200Z 00000KT 9999 VCFG FEW002 19/18 A2997 RMK FEW250 VIS SSE/S 7KM DUE ST=
200911081300 METAR MROC 081300Z 00000KT 9999 2000SW BR FEW002 19/19 A3000 BECMG 24006KT=
200911081400 METAR MROC 081400Z 00000KT 9999 FEW005 21/20 A3002 BECMG 24006KT=
200911081500 METAR MROC 081500Z 27004KT 9999 FEW035 24/21 A3002 RMK HZ LEVE ARND NOSIG=
200911081600 METAR MROC 081600Z 25005KT 9999 SCT035 25/21 A3000 RMK HZ LEVE ARND NOSIG=
200911081700 METAR MROC 081700Z 22006KT 9999 SCT035 26/21 A2998 RMK HZ LEVE ARND NOSIG=
200911081800 METAR MROC 081800Z 22008KT 9999 FEW015TCU SCT030 27/22 A2995 RMK HZ=
200911081900 METAR MROC 081900Z 26008KT 9999 -TS FEW010CB BKN030 25/23 A2993 RMK RN NW N BECMG 5000 TSRA=
200911082000 METAR MROC 082000Z 30006KT 9999 FEW010CB BKN030 23/21 A2991 RETS RMK RN N NE S=
200911082100 METAR MROC 082100Z 22004KT 9999 FEW007 SCT020TCU BKN250 23/21 A2991 RMK PCPN DST N NE BECMG 7000 VCSH=
200911082200 METAR MROC 082200Z 26005KT 8000 VCFG FEW005 SCT020 BKN250 22/21 A2992 BECMG 5000 BR=
200911082300 METAR MROC 082300Z 25005KT 4000 -RA BR SCT004 BKN010 21/21 A2994 BECMG 1000 DZ BR=
200911090000 METAR MROC 090000Z 00000KT 4000 BR FEW003 SCT010 BKN100 21/21 A2995 RERA BECMG 1000 BR=
200911090100 METAR MROC 090100Z 28003KT 9999 3000SW BR FEW001 SCT015 BKN110 21/21 A2997 NOSIG=
200911090200 METAR MROC 090200Z 25003KT 3000 1400SW BR SCT001 BKN010 21/21 A3000 NOSIG=
200911090300 METAR MROC 090300Z 00000KT 9999 4000SW VCFG FEW005 SCT120 20/20 A3000=
200911090400 METAR MROC 090400Z 00000KT 9999 2000SW FEW001 SCT010 20/20 A3001 NOSIG=
200911090500 METAR MROC 090500Z 00000KT CAVOK 19/19 A2999 RMK SCT120 NOSIG=
200911090600 METAR MROC 090600Z 09005KT CAVOK 19/19 A2998 RMK SCT120 NOSIG=
200911090700 METAR MROC 090700Z 09004KT CAVOK 19/18 A2996 RMK SCT120 NOSIG=
200911090800 METAR MROC 090800Z 04003KT CAVOK 19/18 A2993 RMK BKN120 NOSIG=
200911090900 METAR MROC 090900Z 09007KT CAVOK 21/18 A2992 RMK BKN120 NOSIG=
200911091000 METAR MROC NIL=
200911091100 METAR MROC NIL=
200911091200 METAR MROC 091200Z 07004KT CAVOK 21/18 A2996 RMK BKN120 CB DST S NOSIG=
200911091300 METAR MROC 091300Z 04004KT CAVOK 22/18 A2998 RMK BKN120 NOSIG=
200911091400 METAR MROC 091400Z 13006KT CAVOK 25/19 A2998 RMK SCT120 NOSIG=
200911091500 METAR MROC 091500Z 23007KT CAVOK 25/21 A3000 RMK SCT120 NOSIG=
200911091600 METAR MROC 091600Z 26007KT 9999 FEW030 SCT120 24/21 A3000 NOSIG=
200911091700 METAR MROC 091700Z 26006KT 9999 SCT030 SCT110 26/22 A2997 NOSIG=
200911091800 METAR MROC 091800Z 23008KT 9999 FEW020 BKN030 25/22 A2995 RMK PCPN N NE BECMG 5000 VCSH=
200911091900 METAR MROC 091900Z 23006KT 9999 FEW020 SCT030 26/22 A2991 RMK PCPN NE BECMG 5000 -RA=
200911092000 METAR MROC 092000Z 28008KT 9999 SCT015 BKN030 26/22 A2989 RMK PCPN NE BECMG 5000 -RA=
200911092100 METAR MROC 092100Z 24010KT 9999 DZ FEW010 SCT020TCU BKN040 24/23 A2989 RMK PCPN DST SSW SW LOW CLDS NEAR APCH RNY 07 BECMG 4000 -RA BR=
200911092200 METAR MROC 092200Z 23007KT 8000 3000SW -DZ BR SCT004 BKN025 22/22 A2990 BECMG 1000 BR=
200911092300 METAR MROC 092300Z 25007KT 8000 3000SW VCFG BR SCT003 BKN020 21/21 A2992 REDZ RMK TS DST NW BECMG 4000 -RA BR=
200911100000 METAR MROC 100000Z 29002KT 9999 VCFG FEW003 SCT020 BKN120 22/22 A2992 RMK VIS SW WSW 7KMS LTNG DST NNE BECMG 6000 VCFG=
200911100100 METAR MROC 100100Z 00000KT 9999 VCFG FEW008 SCT020 BKN120 21/21 A2996 RMK VIS SW W 6KMS BECMG 6000 VCFG=
200911100200 METAR MROC 100200Z 00000KT 9999 FEW025 BKN120 21/21 A2997 BECMG 05006KT CAVOK=
200911100300 METAR MROC 100300Z VRB02KT 9999 3000SW BR FEW001 BKN120 21/21 A2996 NOSIG=
200911100400 METAR MROC 100400Z 00000KT 9999 3000SW BR FEW001 BKN120 21/21 A2997 NOSIG=
200911100500 METAR MROC 100500Z 00000KT CAVOK 21/21 A2996 RMK SCT120 NOSIG=
200911100600 METAR MROC 100600Z 05004KT CAVOK 20/20 A2995 RMK SCT120 SCT250 NOSIG=
200911100700 METAR MROC 100700Z 08005KT CAVOK 21/20 A2992 RMK SCT120 SCT250 NOSIG=
200911100800 METAR MROC 100800Z 07006KT CAVOK 21/19 A2993 RMK SCT120 SCT250 NOSIG=
200911100900 METAR MROC 100900Z 10004KT CAVOK 21/19 A2991 RMK SCT120 SCT250 NOSIG=
200911101000 METAR MROC 101000Z 13006KT 9999 DZ BKN120 21/19 A2993 NOSIG=
200911101100 METAR MROC 101100Z 11003KT 9999 FEW035 BKN120 20/20 A2993 REDZ NOSIG=
200911101200 METAR MROC 101200Z 09006KT 9999 FEW035 BKN120 21/19 A2993 RMK RN N NE E NOSIG=
200911101300 METAR MROC 101300Z 12009KT 9999 FEW035 BKN070 22/19 A2994 NOSIG=
200911101400 METAR MROC 101400Z 13010KT 9999 FEW030 BKN070 23/20 A2998 NOSIG=
200911101500 METAR MROC 101500Z 11008KT 9999 FEW025 SCT070 BKN120 26/20 A2999 RMK CB DST N S NOSIG=
200911101600 METAR MROC 101600Z 10010KT 9999 FEW030 SCT120 BKN250 27/20 A2998 RMK CBS DST NNE SSW NOSIG=
200911101700 METAR MROC 101700Z 11009KT 9999 FEW030 SCT120 BKN250 27/19 A2995 NOSIG=
200911101800 METAR MROC 101800Z 10009KT 9999 FEW030 SCT120 BKN250 25/19 A2992 NOSIG=
200911101900 METAR MROC 101900Z 15008KT 9999 FEW035 SCT160 BKN250 26/19 A2991 RMK CB DST SW TCU DST SE S NOSIG=
200911102000 METAR MROC 102000Z 10007KT 9999 FEW030 BKN250 27/18 A2988 RMK CB DST SW NOSIG=
200911102100 METAR MROC 102100Z 07007KT 9999 SCT030 SCT120 27/18 A2988 RMK DZ DST NE BECMG -RA=
200911102200 METAR MROC 102200Z 13003KT 9999 SCT035 SCT250 24/19 A2990 RMK FEW120 RN DST N/E ST W BECMG 24006KT=
200911102300 METAR MROC 102300Z 10004KT 9999 FEW035 BKN260 23/18 A2991 RMK FEW120 RN N/NE ST SW/W NOSIG=
200911110000 METAR MROC 110000Z 10009KT CAVOK 22/18 A2992 RMK FEW120 BKN260 NOSIG=
200911110100 METAR MROC 110100Z 07006KT CAVOK 22/18 A2996 RMK BKN260 LTNG DST SSE ST S NOSIG=
200911110200 METAR MROC 110200Z 14007KT CAVOK 21/17 A2997 RMK BKN260 LTNG DST SSE NOSIG=
200911110300 METAR MROC 110300Z 11007KT CAVOK 22/18 A2997 RMK LTNG DST SW BKN260=
200911110400 METAR MROC 110400Z 11008KT CAVOK 22/18 A2996 RMK LTNG DST S SCT260 NOSIG=
200911110500 METAR MROC 110500Z 10006KT CAVOK 21/18 A2995 RMK FEW250 NOSIG=
200911110600 METAR MROC 110600Z 13003KT CAVOK 21/18 A2994 RMK FEW250 NOSIG=
200911110700 METAR MROC NIL=
200911110800 METAR MROC 110800Z 04003KT CAVOK 21/18 A2990 RMK FEW250 NOSIG=
200911110900 METAR MROC 110900Z 02005KT CAVOK 20/18 A2988 RMK FEW250 NOSIG=
200911111000 METAR MROC 111000Z 05006KT CAVOK 19/17 A2990 RMK FEW250 NOSIG=
200911111100 METAR MROC 111100Z 06004KT CAVOK 20/18 A2994 RMK FEW250 NOSIG=
200911111200 METAR MROC 111200Z 08004KT CAVOK 19/17 A2995 RMK SCT130 BKN250 NOSIG=
200911111300 METAR MROC 111300Z 03004KT CAVOK 21/18 A2997 RMK FEW130 BKN250 CB DST SSE NOSIG=
200911111400 METAR MROC 111400Z 06003KT CAVOK 23/18 A2998 RMK FEW110 BKN250 NOSIG=
200911111500 METAR MROC 111500Z 32003KT 9999 FEW040 SCT110 26/19 A2999 RMK SCT280 NOSIG=
200911111600 METAR MROC 111600Z 07006KT 9999 FEW040 SCT110 27/19 A2995 NOSIG=
200911111700 METAR MROC 111700Z 10011KT 9999 FEW040 SCT120 28/19 A2993 RMK SCT280 TCU/RN DST NE NOSIG=
200911111800 METAR MROC 111800Z 10010KT 9999 SCT040 28/19 A2990 RMK FEW130 FEW280 TCU DST S NOSIG=
200911111900 METAR MROC 111900Z 24010KT 9999 FEW025TCU BKN035 24/22 A2988 RMK FEW100 TCU S BECMG -RA=
200911112000 METAR MROC 112000Z 22007KT 9999 -DZ FEW025TCU SCT035 24/23 A2988 RMK SCT100 VIS SE 8KM DUE RN BECMG -TSRA FEW010CB=
200911112100 METAR MROC 112100Z 17005KT 9999 FEW007 SCT035 23/20 A2988 RMK SCT120 DZ DST NE NOSIG=
200911112200 METAR MROC 112200Z VRB03KT 9999 FEW035 BKN300 23/22 A2988 NOSIG=
200911112300 METAR MROC 112300Z 29004KT 9999 FEW015 BKN250 22/22 A2989 NOSIG=
200911120000 METAR MROC 120000Z 00000KT CAVOK 22/22 A2991 RMK FEW120 SCT250 NOSIG=
200911120100 METAR MROC 120100Z 00000KT CAVOK 21/21 A2994 RMK FEW120 SCT250 NOSIG=
200911120200 METAR MROC 120200Z 08005KT 9999 FEW040 21/20 A2995 NOSIG=
200911120300 METAR MROC 120300Z 07006KT CAVOK 21/19 A2996 RMK SCT250 NOSIG=
200911120400 METAR MROC 120400Z 07005KT CAVOK 21/19 A2996 RMK SCT250 NOSIG=
200911120500 METAR MROC 120500Z 08005KT CAVOK 21/19 A2996 RMK SCT250=
200911120600 METAR MROC 120600Z 07004KT CAVOK 19/18 A2995 RMK SCT250 NOSIG=
200911120700 METAR MROC 120700Z 06006KT CAVOK 19/18 A2992 RMK SCT250 NOSIG=
200911120800 METAR MROC 120800Z 05005KT CAVOK 19/18 A2991 RMK SCT250=
200911120900 METAR MROC 120900Z 06004KT CAVOK 18/17 A2990 RMK SCT250=
200911121000 METAR MROC 121000Z 11005KT CAVOK 18/17 A2991 RMK SCT250=
200911121100 METAR MROC 121100Z 10005KT CAVOK 18/17 A2991 RMK FEW100 SCT250=
200911121200 METAR MROC 121200Z 09004KT 9999 FEW035 BKN250 19/18 A2994 RMK CB DST S=
200911121300 METAR MROC 121300Z 11005KT CAVOK 20/19 A2995 RMK FEW250 NOSIG=
200911121400 METAR MROC 121400Z 13004KT 9999 SCT035 SCT250 23/19 A2997 RMK DZ DST NE NOSIG=
200911121500 METAR MROC 121500Z 15004KT 9999 SCT030 SCT100 25/19 A2996 RMK FEW250 DZ DST NE E=
200911121600 METAR MROC 121600Z 12008KT 9999 FEW035 SCT120 25/19 A2994 RMK DZ DST NE NOSIG=
200911121700 METAR MROC 121700Z 12010KT 9999 FEW035 SCT090 27/19 A2991 RMK FEW250 DZ DST N NE E NOSIG=
200911121800 METAR MROC 121800Z 11006KT 9999 SCT035 BKN090 26/20 A2989 RMK DZ DST N NE E NOSIG=
200911121900 METAR MROC 121900Z 06006KT 9999 SCT030 BKN110 28/20 A2986 RMK RN DST N NE E NOSIG=
200911122000 METAR MROC 122000Z 33006KT 9999 SCT030 BKN100 26/19 A2985 RMK RN W DST NE N E BECMG 22004KT=
200911122100 METAR MROC 122100Z 19006KT 9999 SCT030 BKN100 26/20 A2985 RMK RN DST NE E NOSIG=
200911122200 METAR MROC 122200Z 00000KT 9999 SCT030 BKN100 24/20 A2986 RMK RN E SE S TCU W NOSIG=
200911122300 METAR MROC 122300Z 13006KT 9999 SCT030 BKN100 23/20 A2988 RMK RN E NE SE S BECMG 5000 VCSH=
200911130000 METAR MROC 130000Z 12003KT 9999 FEW035 BKN100 22/19 A2990 RMK LTNG SW NOSIG=
200911130100 METAR MROC 130100Z 11008KT 9999 FEW035 BKN100 22/20 A2993 RMK LTNG SW RN DST SE NOSIG=
200911130200 METAR MROC 130200Z 07003KT 9999 FEW035 BKN120 22/19 A2996 RMK LTNG NE=
200911130300 METAR MROC 130300Z 07005KT 9999 DZRA SCT025 BKN100 21/21 A2998 RMK=
200911130400 METAR MROC 130400Z 05005KT 9999 -RA VCTS SCT025 BKN090 20/20 A2999 RMK VIS 7KM W DUE RN HVY TS N/NE NOSIG=
200911130500 METAR MROC 130500Z 04007KT 9999 -RA FEW025 OVC090 20/20 A2998 RETS RMK VIS SW/W 6KM DUE RN NOSIG=
200911130600 METAR MROC 130600Z 09006KT 9999 SCT030 BKN100 20/19 A2993 RERA NOSIG=
200911130700 METAR MROC 130700Z 06007KT 9999 SCT030 BKN110 21/20 A2990 NOSIG=
200911130800 METAR MROC 130800Z 12004KT 9999 FEW030 SCT120 20/19 A2987 RMK DZ DST SE=
200911130900 METAR MROC 130900Z 00000KT 9999 FEW030 SCT120 20/18 A2988 RMK DZ DST SE=
200911131000 METAR MROC 131000Z 21006KT 9999 FEW030 SCT120 19/16 A2990=
200911131100 METAR MROC 131100Z 14002KT 9999 FEW030 SCT120 19/17 A2992 RMK FEW260=
200911131200 METAR MROC 131200Z 14004KT 9999 FEW030 SCT120 19/16 A2993 RMK LINE CB SSE/S DZ SSE=
200911131300 METAR MROC 131300Z 15005KT 9999 FEW030 SCT120 BKN250 21/17 A2997 RMK DZ N NE E SE NOSIG=
200911131400 METAR MROC 131400Z 11003KT 9999 FEW030 SCT120 BKN250 23/18 A2998 RMK RN DST E NOSIG=
200911131500 METAR MROC 131500Z 04004KT 9999 FEW030 SCT120 BKN250 22/16 A3000 RMK RN E NOSIG=
200911131600 METAR MROC 131600Z 34004KT 9999 SCT030 BKN120 23/16 A3001 RMK DST E SE NOSIG=
200911131700 METAR MROC 131700Z 19005KT 9999 FEW035 BKN120 23/16 A3001 RMK RN DST S DZ DST NE BECMG 07006KT=
200911131800 METAR MROC 131800Z 13006KT 9999 FEW035 SCT120 BKN250 24/17 A2996 RMK RN DST E SE NOSIG=
200911131900 METAR MROC 131900Z 12011KT 9999 FEW035 SCT120 BKN250 24/17 A2993 RMK RN NE E SE=
200911132000 METAR MROC 132000Z 13010KT 9999 FEW035 SCT120 BKN250 24/18 A2980 RMK RN DST SE NOSIG=
200911132100 METAR MROC 132100Z 11011KT 9999 FEW035 SCT120 BKN250 24/18 A2990 RMK RN E NOSIG=
200911132200 METAR MROC 132200Z 14005KT 9999 FEW035 BKN120 23/18 A2991 NOSIG=
200911132300 METAR MROC 132300Z 10007KT 9999 FEW035 BKN120 22/18 A2993 RMK DZ N/ E NOSIG=
200911140000 METAR MROC 140000Z 12008KT 9999 FEW035 BKN120 22/18 A2995 NOSIG=
200911140100 METAR MROC 140100Z 10006KT 9999 FEW025 SCT120 21/18 A2996 NOSIG=
200911140200 METAR MROC 140200Z 09006KT 9999 FEW030 SCT120 21/18 A2998 RMK DZ SE NOSIG=
200911140300 METAR MROC 140300Z 12004KT 9999 FEW025 SCT120 21/18 A3000 NOSIG=
200911140400 METAR MROC 140400Z 06005KT 9999 FEW030 SCT120 20/19 A2998 BECMG CAVOK=
200911140500 METAR MROC NIL=
200911140600 METAR MROC NIL=
200911140700 METAR MROC 140700Z 08009KT CAVOK 21/18 A2993 RMK BKN120 NOSIG=
200911140800 METAR MROC 140800Z 11005KT CAVOK 21/18 A2990 RMK SCT120 NOSIG=
200911140900 METAR MROC 140900Z 13005KT CAVOK 21/18 A2991 RMK BKN120=
200911141000 METAR MROC 141000Z 11004KT 9999 FEW035 BKN120 20/18 A2992=
200911141100 METAR MROC 141100Z 04004KT 9999 FEW035 BKN120 20/18 A2995 RMK DZ DST NE E=
200911141200 METAR MROC 141200Z 09004KT 9999 SCT035 BKN250 19/18 A2996 RMK FEW120 DZ DST NE E TCU DST SW=
200911141300 METAR MROC 141300Z 05006KT 9999 FEW035 BKN120 21/19 A2998 RMK DZ NE/E NOSIG=
200911141400 METAR MROC 141400Z VRB02KT 9999 FEW030 BKN100 23/19 A3000 RMK DZ DST S SE BECMG 07008KT=
200911141500 METAR MROC 141500Z 17003KT 9999 DZ SCT040 BKN100 23/20 A3002 RMK DZ DST S SE E NOSIG=
200911141600 METAR MROC 141600Z 10003KT 9999 -RA FEW030 BKN100 22/21 A3003 REDZ BECMG 8000 RA=
200911141700 METAR MROC 141700Z VRB02KT 9999 -RA FEW030 BKN100 22/21 A2999 RMK RN DST N NOSIG=
200911141800 METAR MROC 141800Z 07003KT 9999 -DZ FEW040 BKN120 23/21 A2997 RMK RERA RMK RN DST SE NOSIG=
200911141900 METAR MROC 141900Z 14004KT 9999 FEW035 BKN120 24/21 A2995 REDZ NOSIG=
200911142000 METAR MROC 142000Z 27003KT 9999 SCT035 BKN120 27/21 A2992 NOSIG=
200911142100 METAR MROC 142100Z 21006KT 9999 FEW030 SCT045 BKN120 24/21 A2993 RMK RASH DST E ESE NOSIG=
200911142200 METAR MROC 142200Z 21006KT 9999 FEW030 SCT045 BKN120 24/24 A2993 RMK RASH DST E ESE BECMG -RA=
200911142201 METAR MROC 142201Z 16006KT 9999 FEW025 BKN100 23/20 A2995 RMK RN DST ENE E SE BECMG -RA=
200911142300 METAR MROC 142300Z 13008KT 9999 -RA SCT035 BKN100 22/20 A2996 NOSIG=
200911150000 METAR MROC 150000Z 11006KT 9999 FEW035 BKN100 21/20 A2997 RERA NOSIG=
200911150100 METAR MROC 150100Z 09006KT 9999 FEW035 BKN100 21/19 A2997 NOSIG=
200911150200 METAR MROC 150200Z 10004KT 9999 FEW035 BKN100 22/19 A2999 NOSIG=
200911150300 METAR MROC 150300Z 00000KT 9999 FEW035 BKN100 22/19 A3000 NOSIG=
200911150400 METAR MROC 150400Z 09005KT CAVOK 22/19 A3000 RMK BKN100 NOSIG=
200911150500 METAR MROC 150500Z 10002KT CAVOK 21/19 A3000 RMK BKN100 NOSIG=
200911150600 METAR MROC 150600Z 04005KT CAVOK 21/20 A2996 RMK SCT120 SCT250 NOSIG=
200911150700 METAR MROC 150700Z 05003KT CAVOK 20/19 A2995 RMK FEW120 SCT250 NOSIG=
200911150800 METAR MROC 150800Z 00000KT CAVOK 20/19 A2994 RMK SCT250 NOSIG=
200911150900 METAR MROC 150900Z 00000KT CAVOK 18/18 A2994 RMK SCT250 NOSIG=
200911151000 METAR MROC 151000Z 00000KT CAVOK 20/18 A2993 RMK SCT250 NOSIG=
200911151100 METAR MROC 151100Z 06002KT CAVOK 19/18 A2997 RMK SCT250 NOSIG=
200911151200 METAR MROC 151200Z 08007KT CAVOK 21/19 A2998 RMK SCT120 SCT250 NOSIG=
200911151300 METAR MROC 151300Z 08006KT CAVOK 23/19 A3000 RMK BKN120 NOSIG=
200911151400 METAR MROC 151400Z 09005KT CAVOK 25/19 A3002 RMK BKN120 TCU DST S NOSIG=
200911151500 METAR MROC 151500Z 12004KT CAVOK 26/20 A3002 RMK BKN120 TCU DST SSW BECMG 24005KT=
200911151600 METAR MROC 151600Z VRB03KT 9999 FEW030 BKN120 25/21 A3001 BECMG 24005KT=
200911151700 METAR MROC 151700Z 23003KT 9999 -DZ SCT040 BKN120 23/22 A3001 RERA NOSIG=
200911151800 METAR MROC 151800Z 24004KT 9999 FEW010 SCT030 BKN120 24/22 A2997 REDZ NOSIG=
200911151900 METAR MROC 151900Z 00000KT 9999 FEW020 SCT030 BKN120 25/21 A2995 BECMG 14006KT=
200911152000 METAR MROC 152000Z 11005KT 9999 FEW030 SCT045 BKN090 25/20 A2993 NOSIG=
200911152100 METAR MROC 152100Z 10007KT 9999 FEW040 BKN090 25/20 A2992 RMK FEW250 DZ DST NE/E NOSIG=
200911152200 METAR MROC 152200Z 08004KT 9999 SCT040 SCT100 25/20 A2991 RMK FEW250 DZ DST NE/E TCU DST S NOSIG=
200911152300 METAR MROC 152300Z 11006KT 9999 SCT040 SCT250 23/20 A2993 RMK FEW090 DZ DST NE/E ST SW NOSIG=
200911160000 METAR MROC 160000Z 08007KT 9999 SCT035 SCT100 23/19 A2996 RMK FEW250 DZ DST NE/E NOSIG=
200911160100 METAR MROC 160100Z 06005KT 9999 SCT035 SCT110 22/19 A2998 RMK DZ DST NE NOSIG=
200911160200 METAR MROC 160200Z 00000KT 9999 FEW035 SCT110 22/19 A3000 RMK SCT250 ST S NOSIG=
200911160300 METAR MROC 160300Z 08003KT CAVOK 22/19 A3001 RMK SCT110 NOSIG=
200911160400 METAR MROC 160400Z 09004KT CAVOK 22/19 A3002 RMK SCT110 NOSIG=
200911160500 METAR MROC 160500Z 04006KT CAVOK 22/19 A3001 RMK SCT110 NOSIG=
200911160600 METAR MROC 160600Z 04005KT CAVOK 22/19 A2998 RMK SCT110 NOSIG=
200911160700 METAR MROC NIL=
200911160800 METAR MROC 160800Z 10004KT CAVOK 22/19 A2993 RMK REDZ BKN120 NOSIG=
200911160900 METAR MROC 160900Z 07004KT CAVOK 21/19 A2993 RMK SCT120 NOSIG=
200911161000 METAR MROC 161000Z 10007KT CAVOK 22/19 A2993 RMK SCT120 NOSIG=
200911161100 METAR MROC 161100Z 12007KT CAVOK 22/19 A2994 RMK SCT120 NOSIG=
200911161200 METAR MROC 161200Z 10006KT 9999 -RA FEW035 BKN120 22/19 A2996 NOSIG=
200911161300 METAR MROC 161300Z 06004KT 9999 -DZ SCT030 SCT110 22/20 A2997 RERA RMK RN DST N/NE/E NOSIG=
200911161400 METAR MROC 161400Z 10004KT 9999 SCT030 SCT250 25/20 A2999 RMK FEW110 RN W/N/NE/E NOSIG=
200911161500 METAR MROC 161500Z 00000KT 9999 SCT035 SCT250 25/21 A2999 RMK FEW110 RN DST N/NE/E NOSIG=
200911161600 METAR MROC 161600Z 13007KT 9999 FEW035 BKN250 27/20 A2998 RMK FEW110 RN DST N/NE NOSIG=
200911161700 METAR MROC 161700Z 07006KT 9999 BKN040 SCT250 27/20 A2996 RMK RN DST N/NE/E NOSIG=
200911161800 METAR MROC 161800Z 15005KT 9999 FEW030 BKN040 27/20 A2993 RMK FEW250 RN DST N/NE/E NOSIG=
200911161900 METAR MROC 161900Z 12007KT 9999 SCT035 26/20 A2991 RMK FEW110 FEW250 RN DST N/NE/E NOSIG=
200911162000 METAR MROC 162000Z 26009KT 9999 FEW035 SCT250 26/23 A2990 RMK RN DST NE TCU DST SW/W NOSIG=
200911162100 METAR MROC 162100Z 25011KT 9999 FEW015 SCT030 24/23 A2989 RMK RN DST NE E NOSIG=
200911162200 METAR MROC 162200Z 24007KT 4000 -DZ BR BKN003 SCT030 22/22 A2991 RERA RMK VIS 7000 E NOSIG=
200911162300 METAR MROC 162300Z 24004KT 6000 VCFG FEW003 SCT020 22/22 A2993 RERA RMK VIS 9999 E S RN DST NE E FEW090 FEW250 NOSIG=
200911170000 METAR MROC 170000Z 00000KT 5000 2000SW RA BR FEW003 SCT012 BKN070 22/22 A2996 BECMG 07007KT=
200911170100 METAR MROC 170100Z 00000KT 9999 3000W BR FEW003 SCT015 BKN100 22/22 A2997 NOSIG=
200911170200 METAR MROC 170200Z 00000KT 9999 FEW035 SCT120 21/21 A2999 NOSIG=
200911170300 METAR MROC 170300Z 00000KT 5000 0500SW BR FG SCT002 SCT005 BKN120 21/21 A3000 BECMG 0500 FG=
200911170400 METAR MROC 170400Z 00000KT 9999 FEW005 SCT120 BKN250 21/21 A2999 BECMG 04004KT CAVOK=
200911170500 METAR MROC 170500Z 04004KT CAVOK 21/21 A2997 RMK FEW120 BKN250 NOSIG=
200911170600 METAR MROC 170600Z 10004KT CAVOK 22/19 A2996 RMK FEW100 BKN250 NOSIG=
200911170700 METAR MROC 170700Z 06002KT CAVOK 21/19 A2993 RMK BKN250 NOSIG=
200911170800 METAR MROC 170800Z 05003KT CAVOK 21/18 A2992 RMK SCT250=
200911170900 METAR MROC 170900Z 12005KT 9999 FEW035 SCT250 20/18 A2992=
200911171000 METAR MROC 171000Z 00000KT 9999 FEW035 SCT250 20/18 A2994=
200911171100 METAR MROC 171100Z 09003KT 9999 FEW035 SCT120 20/18 A2994=
200911171200 METAR MROC 171200Z 08003KT 9999 FEW035 SCT120 21/18 A2997 RMK DZ DST N NE=
200911171300 METAR MROC 171300Z 00000KT 9999 FEW035 22/19 A2999 BECMG 06006KT=
200911171400 METAR MROC 171400Z 06006KT 9999 FEW035 23/19 A3000 RMK DZ DST NE E NOSIG=
200911171500 METAR MROC 171500Z 11009KT 9999 FEW030 SCT120 25/19 A3000 NOSIG=
200911171600 METAR MROC 171600Z 09009KT 9999 FEW040 BKN100 25/18 A3001 NOSIG=
200911171700 METAR MROC 171700Z 13009KT 9999 FEW040 SCT100 25/18 A3000 RMK DZ DST SE FU NR RWY NOSIG=
200911171800 METAR MROC 171800Z 15009KT 9999 FEW040 BKN120 24/16 A2998 RMK DZ DST SE NOSIG=
200911171900 METAR MROC 171900Z 13010KT 9999 FEW035 BKN100 24/19 A2995 RMK DZ DST NE CB DST S NOSIG=
200911172000 METAR MROC 172000Z 12009KT CAVOK 23/17 A2993 RMK DZ DST E NOSIG=
200911172100 METAR MROC 172100Z 11012KT 9999 FEW035 BKN100 22/17 A2993 RMK RN DST E NOSIG=
200911172200 METAR MROC 172200Z 10005KT 9999 FEW035 BKN100 22/17 A2993 RMK RN E NOSIG=
200911172300 METAR MROC 172300Z 09006KT 9999 FEW035 BKN100 21/17 A2994 NOSIG=
200911180000 METAR MROC 180000Z 11010KT 9999 FEW035 BKN110 21/17 A2995 NOSIG=
200911180100 METAR MROC 180100Z 14008KT 9999 FEW030 BKN110 20/16 A2998 NOSIG=
200911180200 METAR MROC 180200Z 11008KT CAVOK 20/17 A3000 RMK SCT140 NOSIG=
200911180300 METAR MROC 180300Z CAVOK 21/18 A3001 RMK SCT110 SCT250 NOSIG=
200911180400 METAR MROC 180400Z 09005KT 9999 FEW035 SCT110 21/18 A3000 RMK FEW250 NOSIG=
200911180500 METAR MROC 180500Z 09005KT 9999 FEW035 SCT110 21/18 A2999 NOSIG=
200911180600 METAR MROC 180600Z 10004KT 9999 FEW035 SCT110 20/18 A2997 RMK FEW080 NOSIG=
200911180700 METAR MROC 180700Z 10008KT 9999 FEW035 SCT110 21/18 A2996 RMK FEW080 NOSIG=
200911180800 METAR MROC 180800Z 11009KT 9999 FEW030 BKN100 20/17 A2993=
200911180900 METAR MROC 180900Z 10012KT 9999 SCT030 SCT100 20/16 A2993 RMK DZ DST E/SE=
200911181000 METAR MROC 181000Z 11008KT 9999 FEW030 SCT110 19/16 A2994 RMK LTNG DST SSE/S=
200911181100 METAR MROC 181100Z 11007KT 9999 FEW030 SCT110 19/17 A2995 RMK LTNG DST SSE/S=
200911181200 METAR MROC 181200Z 10009KT 9999 FEW035 19/16 A2998 RMK FEW110 RN DST N/NE/E CB DST S=
200911181300 METAR MROC 181300Z 08009KT 9999 FEW035 21/15 A3001 RMK TCU DST SW NOSIG=
200911181400 METAR MROC 181400Z 09009KT 9999 FEW035 22/16 A3003 RMK CB DST S=
200911181500 METAR MROC 181500Z 11011KT 9999 FEW035 24/17 A3002 RMK DZ DST E=
200911181600 METAR MROC 181600Z 11012KT 9999 FEW040 24/18 A3000 RMK GUST 17KT NOSIG=
200911181700 METAR MROC 181700Z 11010G23KT 9999 SCT040 FEW100 26/18 A2999 RMK DZ DST NE=
200911181800 METAR MROC 181800Z 12012KT 9999 SCT035 SCT250 26/18 A2996 RMK GUST 17KT NOSIG=
200911181900 METAR MROC 181900Z 13012KT 9999 SCT030 SCT120 25/19 A2994 RMK DZ DST E NOSIG=
200911182000 METAR MROC 182000Z 09010KT 9999 FEW035 SCT200 26/18 A2993 NOSIG=
200911182100 METAR MROC 182100Z 09009KT 9999 SCT035 SCT250 25/18 A2991 NOSIG=
200911182200 METAR MROC 182200Z 11009KT 9999 FEW035 SCT250 24/18 A2991 NOSIG=
200911182300 METAR MROC 182300Z 11010KT 9999 FEW035 22/18 A2993 RMK FEW250 NOSIG=
200911190000 METAR MROC 190000Z 10008KT 9999 SCT035 21/18 A2994 RMK DZ NE/E FEW250 NOSIG=
200911190100 METAR MROC 190100Z 08010KT 9999 SCT035 21/18 A2997 NOSIG=
200911190200 METAR MROC 190200Z 05008KT 9999 FEW040 21/18 A2998 NOSIG=
200911190300 METAR MROC 190300Z 02004KT CAVOK 20/19 A2999 RMK FEW100 NOSIG=
200911190400 METAR MROC 190400Z 06006KT CAVOK 21/18 A2998 RMK SCT100 NOSIG=
200911190500 METAR MROC 190500Z 18002KT 9999 FEW035 21/18 A2996 NOSIG=
200911190600 METAR MROC 190600Z 11006KT 9999 FEW035 20/18 A2994 NOSIG=
200911190700 METAR MROC NIL=
200911190800 METAR MROC 190800Z 03004KT 9999 FEW035 21/18 A2992=
200911190900 METAR MROC NIL=
200911191000 METAR MROC 191000Z 09010KT CAVOK 20/17 A2992 RMK SCT250=
200911191100 METAR MROC NIL=
200911191200 METAR MROC NIL=
200911191300 METAR MROC NIL=
200911191400 METAR MROC 191400Z 08010KT 9999 FEW030 24/19 A2997 RMK DZ DST N/NE/E NOSIG=
200911191500 METAR MROC 191500Z 12011KT 9999 SCT030 25/20 A2997 RMK DZ N/NE/NW/E NOSIG=
200911191600 METAR MROC 191600Z 13014KT 9999 SCT030 26/20 A2996 RMK DZ NE/E/NW/N NOSIG=
200911191700 METAR MROC 191700Z 12010KT 9999 BKN030 26/19 A2994 RMK DZ NE/E/N NOSIG=
200911191800 METAR MROC 191800Z 11009KT 9999 SCT030 27/19 A2992 RMK DZ DST N/NE VEL MAX VTO 14KTS NOSIG=
200911191900 METAR MROC 191900Z 11014KT 9999 SCT030 27/19 A2989 RMK DZ DST N/NE VEL MAX VTO 18KTS NOSIG=
200911192000 METAR MROC 192000Z 10011KT 9999 FEW025 SCT035 26/18 A2987 RMK DZ N/NE VEL MAX VTO 16KTS=
200911192100 METAR MROC 192100Z 12012KT 9999 FEW025 SCT045 23/18 A2986 RMK DZ DST E NOSIG=
200911192200 METAR MROC 192200Z 11012KT 9999 FEW025 23/17 A2987 RMK DZ DST NE FEW060 VEL MAX VTO 17KT NOSIG=
200911192300 METAR MROC NIL=
200911200000 METAR MROC 200000Z 11010KT 9999 FEW030 21/15 A2991 NOSIG=
200911200100 METAR MROC 200100Z 11011KT 9999 FEW030 20/15 A2992 NOSIG=
200911200200 METAR MROC 200200Z 12011KT CAVOK 20/16 A2994 NOSIG=
200911200300 METAR MROC 200300Z 12012G23KT CAVOK 20/16 A2995 RMK TRACE SC NOSIG=
200911200400 METAR MROC 200400Z 09009KT CAVOK 20/16 A2994 RMK TRACE SC GUST 14KT NOSIG=
200911200500 METAR MROC 200500Z 06008KT CAVOK 20/17 A2994 RMK TRACE SC NOSIG=
200911200600 METAR MROC 200600Z 00000KT CAVOK 20/17 A2992 RMK TRACE SC NOSIG=
200911200700 METAR MROC 200700Z 08005KT CAVOK 20/17 A2991 RMK TRACE SC NOSIG=
200911200800 METAR MROC 200800Z 06005KT CAVOK 20/17 A2990 RMK TRACE SC NOSIG=
200911200900 METAR MROC 200900Z 00000KT CAVOK 19/17 A2990 RMK TRACE SC AC NOSIG=
200911201000 METAR MROC 201000Z 04009KT CAVOK 19/17 A2991 RMK TRACE SC AC NOSIG=
200911201100 METAR MROC 201100Z 04011KT 9999 FEW040 20/17 A2992 NOSIG=
200911201200 METAR MROC 201200Z 10010KT 9999 FEW040 21/17 A2993 RMK DZ N NE SE NOSIG=
200911201300 METAR MROC 201300Z 11011KT 9999 FEW030 BKN100 22/18 A2995 RMK DZ DST N NE E VEL MAX VTO 17KT NOSIG=
200911201400 METAR MROC 201400Z 11012G24KT 9999 FEW030 24/18 A2985 RMK DZ DST N NE FEW100 NOSIG=
200911201401 METAR MROC 201401Z 11012G24KT 9999 FEW030 24/18 A2995 RMK DZ DST N NE FEW100 NOSIG=
200911201500 METAR MROC 201500Z 12014KT FEW035 SCT100 25/19 A2995 NOSIG=
200911201600 METAR MROC 201600Z 11014KT 9999 FEW040 BKN100 25/18 A2994 RMK GUST 19KT DZ DST N NE NOSIG=
200911201700 METAR MROC 201700Z 12011KT 9999 FEW035 BKN100 ///// A2992 RMK PCPN DST N NE E SE NOSIG=
200911201800 METAR MROC 201800Z 12012KT 9999 FEW035 BKN100 25/19 A2990 RMK PCPN DST N NE E NOSIG=
200911201900 METAR MROC 201900Z 13011KT 9999 SCT035 SCT080 25/19 A2989 RMK RN DST N NE E SE NOSIG=
200911202000 METAR MROC NIL=
200911202100 METAR MROC NIL=
200911202200 METAR MROC NIL=
200911202300 METAR MROC NIL=
200911210000 METAR MROC 210000Z 11009KT 9999 SCT035 SCT080 23/18 A2990 RMK DZ DST N/NE/E NOSIG=
200911210001 METAR MROC 210001Z 11009KT 9999 SCT035 SCT080 23/18 A2990 RMK DZ DST N/NE/E NOSIG=
200911210100 METAR MROC 210100Z 11009KT 9999 BKN035 22/18 A2993 RMK FEW080 DZ DST N/NE/E NOSIG=
200911210200 METAR MROC 210200Z 10008KT 9999 SCT035 22/18 A2995 RMK FEW080 DZ DST N/NE/E NOSIG=
200911210300 METAR MROC 210300Z 11008KT CAVOK 22/18 A2995 RMK SCT080 NOSIG=
200911210400 METAR MROC 210400Z 12010KT CAVOK 22/18 A2994 RMK TRACE SC/AC NOSIG=
200911210500 METAR MROC 210500Z 05003KT CAVOK 21/19 A2993 RMK TRACE SC/AC NOSIG=
200911210600 METAR MROC 210600Z 00000KT CAVOK 22/19 A2992 RMK TRACE SC /AC NOSIG=
200911210700 METAR MROC 210700Z 00000KT CAVOK 21/18 A2989 RMK TRACE SC/AC NOSIG=
200911210800 METAR MROC 210800Z 04006KT CAVOK 20/18 A2988 RMK TRACE SC/AC NOSIG=
200911210900 METAR MROC 210900Z 07008KT CAVOK 21/18 A2987 RMK TRACE SC/AC NOSIG=
200911211000 METAR MROC 211000Z 06009KT CAVOK 21/18 A2989 RMK TRACE SC/AC NOSIG=
200911211100 METAR MROC 211100Z 08005KT CAVOK 21/18 A2990 RMK TRACE SC NOSIG=
200911211200 METAR MROC 211200Z 04006KT 9999 FEW030 21/18 A2992 RMK DZ DST N/NE NOSIG=
200911211300 METAR MROC 211300Z 08008KT 9999 FEW035 23/19 A2993 RMK DZ DST NE/E NOSIG=
200911211400 METAR MROC 211400Z 10010KT 9999 FEW040 24/19 A2994 RMK DZ DST NE E NOSIG=
200911211500 METAR MROC 211500Z 11010KT 9999 FEW040 26/19 A2995 RMK DZ DST NE E NOSIG=
200911211600 METAR MROC 211600Z 12009KT 9999 SCT040 27/20 A2994 RMK DZ DST NE E NOSIG=
200911211700 METAR MROC 211700Z 11011KT 9999 BKN035 27/19 A2993 RMK RN DST NE E NOSIG=
200911211800 METAR MROC 211800Z 11012KT 9999 BKN035 26/19 A2992 RMK FEW080 RN DST NE E NOSIG=
200911211900 METAR MROC 211900Z 10010KT 9999 BKN035 28/20 A2990 RMK FEW080 RN DST=
200911212000 METAR MROC 212000Z 09012KT 9999 FEW030 BKN040 27/18 A2987 RMK VEL MAX VTO 17KT DZ DST NE E NOSIG=
200911212100 METAR MROC 212100Z 11010KT 9999 FEW030 SCT040 26/17 A2987 RMK DZ DST ESE NE NOSIG=
200911212200 METAR MROC 212200Z 10010KT 9999 FEW035 SCT100 26/17 A2987 RMK DZ DST NE NOSIG=
200911212300 METAR MROC 212300Z 11010G20KT 9999 FEW035 SCT100 23/17 A2990 RMK DZ DST NE E NOSIG=
200911212345 METAR MROC 212345Z 09010G20KT 9999 BKN020 21/16 A2990 RMK RN DST NE N=
200911220000 METAR MROC 220000Z 11006KT 9999 FEW035 SCT100 23/18 A2991 RMK DZ DST NE NOSIG=
200911220100 METAR MROC 220100Z 10012KT CAVOK 23/18 A2993 RMK BKN120 NOSIG=
200911220200 METAR MROC 220200Z 10009KT CAVOK 22/18 A2994 RMK BKN120 NOSIG=
200911220300 METAR MROC 220300Z 11009KT CAVOK 22/18 A2995 RMK SCT120 NOSIG=
200911220400 METAR MROC 220400Z 07006KT CAVOK 22/18 A2996 RMK SCT120 NOSIG=
200911220500 METAR MROC 220500Z 05005KT CAVOK 22/18 A2995 RMK SCT120 NOSIG=
200911220600 METAR MROC 220600Z 08007KT CAVOK 22/18 A2993 RMK SCT120 NOSIG=
200911220700 METAR MROC 220700Z 07005KT CAVOK 22/18 A2991 RMK SCT120 NOSIG=
200911220800 METAR MROC 220800Z 07010KT CAVOK 22/18 A2989 RMK SCT120=
200911220900 METAR MROC 220900Z 06003KT CAVOK 21/18 A2988 RMK SCT120=
200911221000 METAR MROC 221000Z 07009KT CAVOK 22/19 A2990 RMK SCT120=
200911221100 METAR MROC 221100Z 12011KT CAVOK 22/19 A2990 RMK SCT120=
200911221200 METAR MROC 221200Z 09009KT CAVOK 22/19 A2992 RMK SCT120 TCU DST SSE=
200911221300 METAR MROC 221300Z 10010KT 9999 FEW030 SCT120 24/18 A2995 RMK DZ DST NE NOSIG=
200911221400 METAR MROC 221400Z 10008KT 9999 FEW030 SCT120 25/20 A2997 RMK DZ DST NE E NOSIG=
200911221500 METAR MROC 221500Z 11008KT 9999 FEW030 SCT100 26/20 A2996 RMK DZ DST NE E NOSIG=
200911221600 METAR MROC 221600Z 09008KT 9999 FEW030 BKN100 26/20 A2996 RERA RMK DZ DST NE NOSIG=
200911221700 METAR MROC 221700Z 08010KT 9999 FEW025 BKN090 27/19 A2994 RMK DZ DST N NE E SE S BECMG -RA=
200911221800 METAR MROC 221800Z 12010KT 9999 -RA FEW030 OVC080 22/21 A2993 NOSIG=
200911221900 METAR MROC 221900Z 09008KT 9999 FEW030 BKN110 25/20 A2991 RERA RMK DZ DST NE TCU DST E NOSIG=
200911222000 METAR MROC 222000Z 03008KT 9999 FEW030 SCT130 28/19 A2998 RMK RN DIST N NE NOSIG=
200911222100 METAR MROC 222100Z 12010KT 9999 -RA SCT030 OVC120 25/20 A2987 BECMG 8000 -RA=
200911222200 METAR MROC 222200Z 12006KT 9999 -RA SCT030 BKN120 22/21 A2989 BECMG 8000 -RA=
200911222300 METAR MROC 222300Z 11011G21KT 9999 -RA FEW035 BKN120 21/20 A2991 NOSIG=
200911230000 METAR MROC 230000Z 12008KT 9999 -RA FEW035 BKN120 21/20 A2993 NOSIG=
200911230100 METAR MROC 230100Z 11006KT 9999 -RA FEW035 SCT120 22/19 A2995 NOSIG=
200911230200 METAR MROC 230200Z 11014KT 9999 -DZ FEW035 SCT120 22/20 A2995 NOSIG=
200911230300 METAR MROC 230300Z 12011KT 9999 FEW035 BKN110 22/19 A2997 REDZ NOSIG=
200911230400 METAR MROC 230400Z 12009KT CAVOK 22/18 A2996 RMK BKN110 NOSIG=
200911230500 METAR MROC 230500Z 11007KT CAVOK 23/18 A2996 RMK BKN110 NOSIG=
200911230600 METAR MROC 230600Z 09006KT 9999 FEW035 SCT110 23/18 A2996 NOSIG=
200911230700 METAR MROC 230700Z 04007KT 9999 FEW035 22/18 A2996 RMK FEW110 CB DST S=
200911230800 METAR MROC 230800Z 07006KT 9999 FEW035 21/19 A2993 RMK FEW110=
200911230900 METAR MROC 230900Z VRB03KT 9999 FEW035 20/18 A2994 RMK FEW120=
200911231000 METAR MROC 231000Z 04007KT 9999 FEW030 20/18 A2994=
200911231100 METAR MROC 231100Z 01004KT CAVOK 19/18 A2994 RMK FEW120=
200911231200 METAR MROC 231200Z 03004KT CAVOK 20/19 A2995 RMK SCT120=
200911231300 METAR MROC 231300Z 07005KT 9999 FEW040 SCT120 24/19 A2997 NOSIG=
200911231400 METAR MROC 231400Z 08008KT 9999 FEW040 26/20 A3000 NOSIG=
200911231500 METAR MROC 231500Z 05003KT 9999 SCT030 27/20 A2999 NOSIG=
200911231600 METAR MROC 231600Z 11005KT 9999 FEW015 BKN030 26/20 A2999 NOSIG=
200911231700 METAR MROC 231700Z 14011KT 9999 SCT030 28/20 A2996 NOSIG=
200911231800 METAR MROC 231800Z 12009KT 9999 BKN030 29/20 A2993 NOSIG=
200911231900 METAR MROC 231900Z 13007KT 9999 BKN030 29/19 A2990 NOSIG=
200911232000 METAR MROC 232000Z 11010KT 9999 SCT030 29/19 A2988 NOSIG=
200911232100 METAR MROC 232100Z 25010KT 9999 FEW030 BKN120 26/24 A2988 RMK RN DST N/NW/E BECMG 6000 VCSH=
200911232200 METAR MROC 232200Z 12006KT 9999 -RA FEW030 BKN120 25/20 A2989 NOSIG=
200911232300 METAR MROC 232300Z 10005KT 9999 -RA FEW030 BKN120 22/21 A2991 NOSIG=
200911240000 METAR MROC 240000Z 00000KT 9999 -RA FEW030 BKN120 22/21 A2993 NOSIG=
200911240100 METAR MROC 240100Z 07004KT 9999 -RA FEW030 OVC110 22/20 A2995 RMK NOSIG=
200911240200 METAR MROC 240200Z 05006KT 9999 FEW030 OVC120 22/20 A2997 RERA NOSIG=
200911240300 METAR MROC 240300Z 10006KT CAVOK 22/19 A2996 RMK OVC120 NOSIG=
200911240400 METAR MROC 240400Z 13009KT CAVOK 22/19 A2995 RMK BKN120 SCT250 NOSIG=
200911240500 METAR MROC 240500Z 11010KT CAVOK 23/19 A2994 RMK SCT120 SCT250 NOSIG=
200911240600 METAR MROC 240600Z 06004KT CAVOK 22/19 A2993 RMK SCT120 NOSIG=
200911240700 METAR MROC 240700Z 13010KT CAVOK 23/19 A2992 RMK BKN120 NOSIG=
200911240800 METAR MROC 240800Z 06003KT CAVOK 22/19 A2991 RMK BKN120 NOSIG=
200911240900 METAR MROC 240900Z 09005KT CAVOK 22/19 A2991 RMK BKN120 NOSIG=
200911241000 METAR MROC 241000Z 04002KT CAVOK 20/19 A2991 RMK SCT120 NOSIG=
200911241100 METAR MROC 241100Z 05005KT 9999 FEW025 SCT120 20/19 A2993=
200911241200 METAR MROC 241200Z 12005KT CAVOK 21/19 A2994 RMK FEW120 BKN250 CB DST SSW LINEA TCU DST SW=
200911241300 METAR MROC 241300Z 05005KT 9999 FEW030 SCT120 BKN250 22/19 A2997 RMK DZ DST TCU DST SW NOSIG=
200911241400 METAR MROC 241400Z 08007KT 9999 FEW030 BKN120 25/19 A2998 RMK DZ DST NE NOSIG=
200911241500 METAR MROC 241500Z 10006KT 9999 FEW035 BKN120 25/19 A2998 RMK DZ DST NE CB DST SW NOSIG=
200911241600 METAR MROC 241600Z 12006KT CAVOK 26/21 A2997 RMK BKN120 NOSIG=
200911241700 METAR MROC 241700Z 21007KT 9999 FEW040 BKN120 26/22 A2995 NOSIG=
200911241800 METAR MROC 241800Z 24009KT 9999 SCT030 BKN120 26/22 A2993 RMK DZ DST NE NOSIG=
200911241900 METAR MROC 241900Z 25009KT 9999 SCT025 BKN120 25/22 A2990 RMK RN DST SE BECMG 7000 VCSH=
200911242000 METAR MROC 242000Z 24008KT 9999 SCT030 BKN100 25/22 A2988 RMK RN DST NE E SE VIS 7000 N/NE BECMG 7000 -RA=
200911242100 METAR MROC 242100Z 23005KT 9999 4000N -RA VCSH FEW015CB SCT025 BKN120 24/22 A2988 RETS RMK BECMG 5000 -RA=
200911242200 METAR MROC 242200Z 24004KT 8000 3000E TS VCSH SCT012CB BKN025 22/22 A2989 RERA BECMG 1500 TSRA=
200911242300 METAR MROC 242300Z 21002KT 5000 -RA FEW015CB SCT040 BKN070 20/20 A2992 RETS RMK VIS E UNLTD NOSIG=
200911250000 METAR MROC 250000Z 00000KT 9999 -RA FEW030 BKN100 21/21 A2992 NOSIG=
200911250100 METAR MROC 250100Z 06004KT 9999 FEW030 BKN120 21/21 A2993 RERA BECMG CAVOK=
200911250200 METAR MROC 250200Z 12009KT CAVOK 21/20 A2994 RMK BKN110 NOSIG=
200911250300 METAR MROC 250300Z 12008KT 9999 -DZ BKN120 22/19 A2994 NOSIG=
200911250400 METAR MROC 250400Z 24007KT 9999 -DZ OVC100 20/20 A2997 RMK ST LOW SW NOSIG=
200911250500 METAR MROC 250500Z 29004KT 5000 1000SW BR SCT001 OVC100 21/21 A2997 BECMG 7000 VCFG=
200911250600 METAR MROC 250600Z 00000KT 9999 FEW003 OVC100 21/21 A2996 NOSIG=
200911250700 METAR MROC 250700Z 12003KT 9999 FEW030 OVC100 20/20 A2992 RMK LTNG DST SW NOSIG=
200911250800 METAR MROC 250800Z 07004KT 9999 FEW030 OVC100 20/20 A2992 NOSIG=
200911250900 METAR MROC 250900Z 07003KT CAVOK 20/20 A2990 RMK OVC100 NOSIG=
200911251000 METAR MROC 251000Z 19003KT 9999 1000SW BR FEW001 OVC100 20/20 A2990 BECMG 2000 BR=
200911251100 METAR MROC 251100Z 00000KT 9999 2000SW BR FEW001 OVC100 19/19 A2993 NOSIG=
200911251200 METAR MROC 251200Z 00000KT 9999 FEW015 BKN100 19/19 A2994 NOSIG=
200911251300 METAR MROC 251300Z 08002KT CAVOK 20/20 A2996 RMK SCT120 BKN160 HZY NOSIG=
200911251400 METAR MROC 251400Z 00000KT CAVOK 22/20 A2998 RMK SCT140 BKN250 HZ ARND NOSIG=
200911251500 METAR MROC 251500Z 00000KT 9999 FEW015 BKN250 24/20 A2999 RMK FEW140 HZ DST W BECMG 24008KT=
200911251600 METAR MROC 251600Z 25005KT 9999 FEW020 SCT160 BKN250 24/21 A2999 RMK LGT HZ ARND NOSIG=
200911251700 METAR MROC 251700Z 25006KT 9999 SCT015 BKN170 24/22 A2997 RMK LGT HZ ARND NOSIG=
200911251800 METAR MROC 251800Z 24006KT 9999 FEW015TCU SCT025 BKN170 24/22 A2995 RMK LGT HZ ARND BECMG 8000 VCSH=
200911251900 METAR MROC 251900Z 24006KT 9999 SCT025 BKN150 24/22 A2992 RMK HZ ARND NOSIG=
200911252000 METAR MROC NIL=
200911252100 METAR MROC 252100Z 24007KT 9999 FEW015 BKN120 23/22 A2988 NOSIG=
200911252200 METAR MROC 252200Z 23005KT 9999 FEW008 SCT015 22/22 A2988 RMK RN DST E SCT120 BECMG 6000 VCFG=
200911252300 METAR MROC 252300Z 00000KT 9999 FEW007 SCT250 22/22 A2990 RMK FEW120 NOSIG=
200911260000 METAR MROC 260000Z 00000KT 9999 FEW007 SCT025 22/21 A2993 RMK SCT120 ST SE/SSE NOSIG=
200911260100 METAR MROC 260100Z 00000KT 9999 FEW020 BKN030 21/21 A2995 RMK ST S/SSE=
200911260200 METAR MROC 260200Z 00000KT 9999 BKN030 SCT110 21/21 A2997 RMK SCT SSE/S NOSIG=
200911260300 METAR MROC 260300Z 31003KT 9999 VCFG FEW001 SCT030 BKN100 21/21 A2998 BECMG 7000 VCFG=
200911260400 METAR MROC 260400Z 00000KT 9999 VCFG FEW001 SCT100 21/21 A2996 NOSIG=
200911260500 METAR MROC 260500Z 00000KT CAVOK 20/20 A2994 RMK TRACE AC HZ LEVE ARND NOSIG=
200911260600 METAR MROC NIL=
200911260700 METAR MROC 260700Z 00000KT CAVOK 20/20 A2992 RMK TRACE AC ST SW HZ LEVE NOSIG=
200911260800 METAR MROC NIL=
200911260900 METAR MROC 260900Z 02003KT CAVOK 19/19 A2990 RMK TRACE AC HZ ARND NOSIG=
200911261000 METAR MROC 261000Z 12003KT CAVOK 20/19 A2990 RMK TRACE ST SW NOSIG=
200911261100 METAR MROC 261100Z 00000KT CAVOK 20/19 A2991 RMK SCT120 NOSIG=
200911261200 METAR MROC 261200Z 07006KT CAVOK 19/19 A2992 RMK SCT120 NOSIG=
200911261300 METAR MROC 261300Z 10004KT CAVOK 23/20 A2995 RMK BKN130 NOSIG=
200911261400 METAR MROC 261400Z 11005KT CAVOK 24/20 A2997 RMK BKN130 NOSIG=
200911261500 METAR MROC 261500Z 21005KT 9999 FEW040 SCT120 26/20 A2998 RMK FEW250 NOSIG=
200911261600 METAR MROC 261600Z 23006KT 9999 SCT040 27/22 A2997 RMK FEW120 FEW250 NOSIG=
200911261700 METAR MROC 261700Z 23008KT 9999 FEW040 SCT280 27/22 A2995 RMK CB DST N/E TCU SSE NOSIG=
200911261800 METAR MROC 261800Z 23009KT 9999 FEW030 SCT040 27/23 A2992 RMK TCU N/E NOSIG=
200911261900 METAR MROC 261900Z 25008KT 9999 FEW02TCU BKN040 27/22 A2989 RMK FEW100 TCU N/NE BECMG 6000 VCSH=
200911262000 METAR MROC 262000Z 24010KT 9999 -RA FEW020TCU SCT035 SCT100 27/23 A2986 RMK RN DST W/N VIS 6KM E/W DUE RN NOSIG=
200911262100 METAR MROC 262100Z 27008KT 6000 0800N -TS SHRA FEW008CB BKN020 23/23 A2986 BECMG 4000 +RA=
200911262200 METAR MROC 262200Z 00000KT 6000 VCFG SCT003 BKN020 22/22 A2987 BECMG 3000 BR=
200911262300 METAR MROC 262300Z 00000KT 9999 -TS VCSH VCFG FEW012CB SCT030 SCT100 22/22 A2990 RMK VIS 7KM SW/N/NE BECMG 5000 -RA=
200911270000 METAR MROC 270000Z 00000KT 9999 VCFG FEW007 SCT020 BKN100 22/22 A2992 RMK VIS 7000 SW NOSIG=
200911270100 METAR MROC 270100Z 00000KT 9999 VCFG FEW012 SCT040 BKN090 22/22 A2994 RMK VIS 6000SW NOSIG=
200911270200 METAR MROC 270200Z 05003KT CAVOK 22/21 A2996 RMK BKN100 NOSIG=
200911270300 METAR MROC 270300Z 09008KT 9999 FEW030 BKN080 22/20 A2997 NOSIG=
200911270400 METAR MROC 270400Z 08006KT CAVOK 21/19 A2997 RMK SCT100 NOSIG=
200911270500 METAR MROC NIL=
200911270600 METAR MROC 270600Z 08005KT CAVOK 21/19 A2995 RMK SCT120 NOSIG=
200911270700 METAR MROC 270700Z 07005KT CAVOK 21/19 A2993 RMK SCT120 NOSIG=
200911270800 METAR MROC 270800Z 10006KT CAVOK 21/19 A2990 RMK SCT120=
200911270900 METAR MROC 270900Z 09005KT CAVOK 21/19 A2990 RMK SCT120=
200911271000 METAR MROC 271000Z 09005KT CAVOK 21/19 A2991 RMK SCT120=
200911271100 METAR MROC 271100Z 07004KT CAVOK 21/18 A2991 RMK SCT120=
200911271200 METAR MROC 271200Z 05005KT CAVOK 21/18 A2995 RMK FEW120 BKN250 CB DST SSW=
200911271300 METAR MROC 271300Z 10005KT CAVOK 22/19 A2996 RMK BKN250 FEW120 CB DST SW RN DST NE BECMG 08010KT=
200911271400 METAR MROC 271400Z 11008KT CAVOK 23/19 A2999 RMK SCT120 BKN250 CB DST S SW RN DST N NE NOSIG=
200911271500 METAR MROC 271500Z 09011KT 9999 SCT045 BKN120 24/19 A3000 RMK RN DST NE E N NOSIG=
200911271600 METAR MROC 271600Z 09009KT 9999 FEW045 SCT120 SCT250 25/17 A2998 RMK RN DST N NE E NOSIG=
200911271700 METAR MROC 271700Z 11010KT 9999 -DZ FEW045 SCT100 BKN200 25/18 A2997 RMK RN DST N NE E NOSIG=
200911271800 METAR MROC 271800Z 10011KT 9999 -DZ FEW040 BKN090 24/19 A2995 RMK RN DST N NE E BECMG -RA=
200911271900 METAR MROC 271900Z 11008KT 9999 SCT035 BKN110 25/20 A2993 RMK RN DST N NE NOSIG=
200911272000 METAR MROC 272000Z 10009KT 9999 SCT035 BKN120 25/19 A2991 RMK RN DST NE E NOSIG=
200911272100 METAR MROC 272100Z 14007KT 9999 SCT040 BKN120 25/20 A2990 RMK CB TCU DST SW RN DST N NE NOSIG=
200911272200 METAR MROC 272200Z 12008KT 9999 SCT040 BKN120 23/18 A2990 REDZ RMK RN N NE=
200911272300 METAR MROC 272300Z 11009KT 9999 SCT040 BKN120 23/17 A2993 RMK RN N NE NOSIG=
200911280000 METAR MROC 280000Z 12008KT 9999 FEW040 BKN120 22/17 A2995 RMK RN N NE NOSIG=
200911280100 METAR MROC 280100Z 13010KT 9999 FEW040 BKN120 22/17 A2996 NOSIG=
200911280200 METAR MROC 280200Z 11010KT 9999 FEW040 BKN120 21/18 A2999 NOSIG=
200911280300 METAR MROC 280300Z 12006KT 9999 FEW040 BKN120 21/18 A2999 NOSIG=
200911280400 METAR MROC 280400Z 12009KT 9999 FEW040 SCT120 21/17 A2998 RMK FEW280 NOSIG=
200911280500 METAR MROC 280500Z 11008KT CAVOK 21/18 A2998 RMK SCT120 SCT280 NOSIG=
200911280600 METAR MROC 280600Z 13010G22KT CAVOK 21/17 A2996 RMK SCT120 SCT280 NOSIG=
200911280700 METAR MROC 280700Z 13010KT CAVOK 21/17 A2993 RMK SCT120 SCT280 NOSIG=
200911280800 METAR MROC 280800Z 11007KT 9999 FEW030 SCT280 21/17 A2992 RMK FEW120=
200911280900 METAR MROC 280900Z 12008KT 9999 FEW030 SCT120 21/17 A2990 RMK SCT280=
200911281000 METAR MROC 281000Z 10009KT 9999 FEW030 SCT120 21/17 A2992 RMK FEW280=
200911281100 METAR MROC 281100Z 09004KT 9999 SCT030 SCT120 20/17 A2994=
200911281200 METAR MROC 281200Z 11009KT 9999 FEW030 SCT110 21/17 A2996 RMK SCT280 CB DST S RN N/NE/E=
200911281300 METAR MROC 281300Z 12010KT 9999 FEW030 SCT110 21/18 A2998 RMK RN N NE NOSIG=
200911281400 METAR MROC 281400Z 10009KT 9999 FEW040 BKN250 22/18 A3001 RMK RN DST NE NOSIG=
200911281500 METAR MROC 281500Z 10010KT 9999 SCT035 SCT250 23/17 A3000 RMK DZ DST N NOSIG=
200911281600 METAR MROC 281600Z 10010KT 9999 SCT035 SCT250 25/18 A2999 RMK DZ DST NE NOSIG=
200911281700 METAR MROC 281700Z 10012KT 9999 FEW035 25/18 A2999 NOSIG=
200911281800 METAR MROC 281800Z 10011KT 9999 FEW040 SCT250 25/18 A2996 RMK DZ DST NE NOSIG=
200911281900 METAR MROC 281900Z 12010KT 090V150 9999 FEW040 BKN250 27/18 A2993 RMK TCU DST SW RN DST NOSIG=
200911282000 METAR MROC 282000Z 13012KT 9999 FEW040 BKN250 25/18 A2991 RMK TCU DST SW NOSIG=
200911282100 METAR MROC 282100Z 13013KT 9999 FEW035 BKN250 24/18 A2989 RMK DZ DST N/NE VEL MAX VT0 18KTS NOSIG=
200911282200 METAR MROC 282200Z 12009KT 9999 FEW035 SCT120 BKN250 23/17 A2990 RMK DZ DST N/NE NOSIG=
200911282300 METAR MROC 282300Z 13009KT 9999 FEW035 SCT120 BKN250 23/18 A2992 RMK DZ DST N/NE NOSIG=
200911290000 METAR MROC 290000Z 11010KT 9999 FEW035 BKN250 22/18 A2995 RMK DZ N/NE TCU SW NOSIG=
200911290100 METAR MROC 290100Z 10008KT 9999 FEW035 SCT120 21/18 A2998 NOSIG=
200911290200 METAR MROC 290200Z 11007KT 9999 FEW035 SCT250 21/18 A2999 NOSIG=
200911290300 METAR MROC 290300Z 12008KT 9999 FEW035 21/18 A3000 NOSIG=
200911290400 METAR MROC 290400Z 13010KT CAVOK 21/17 A3000 RMK SCT250 NOSIG=
200911290500 METAR MROC 290500Z 08009KT CAVOK 21/17 A3000 RMK SCT250 NOSIG=
200911290600 METAR MROC 290600Z 07007KT CAVOK 20/17 A2998 RMK SCT250 NOSIG=
200911290700 METAR MROC 290700Z 09011G22KT CAVOK 22/16 A2996 RMK SCT250=
200911290800 METAR MROC 290800Z 13008KT CAVOK 20/15 A2994 RMK SCT250=
200911290900 METAR MROC 290900Z 07006KT CAVOK 20/16 A2994 RMK SCT250=
200911291000 METAR MROC 291000Z 13009KT CAVOK 20/16 A2995 RMK FEW120 SCT250=
200911291100 METAR MROC 291100Z 12009KT CAVOK 20/15 A2996 RMK FEW120 SCT250=
200911291200 METAR MROC 291200Z 07005KT CAVOK 19/16 A2998 RMK FEW120 SCT250=
200911291300 METAR MROC 291300Z 11005KT CAVOK 20/16 A2999 RMK BKN250 BECMG 08014KT=
200911291400 METAR MROC 291400Z 12009KT CAVOK 22/15 A3002 RMK DZ DST NE BKN250 NOSIG=
200911291500 METAR MROC 291500Z 12011KT CAVOK 25/15 A3001 RMK DZ DST NE SCT250 NOSIG=
200911291600 METAR MROC 291600Z 10014KT CAVOK 26/17 A3000 RMK DZ DST NE SCT250 VEL MAX VTO 18KTS NOSIG=
200911291700 METAR MROC 291700Z 10010KT CAVOK 27/17 A2999 RMK DZ DST NE BKN250 NOSIG=
200911291800 METAR MROC 291800Z 12010KT CAVOK 28/17 A2997 RMK DZ DST NE BKN250 VEL MAX VTO 17KTS NOSIG=
200911291900 METAR MROC 291900Z 09014KT 9999 FEW030 BKN250 27/15 A2994 NOSIG=
200911292000 METAR MROC 292000Z 09011KT 9999 FEW030 BKN250 27/17 A2992 NOSIG=
200911292100 METAR MROC 292100Z 11010KT 9999 SCT030 BKN250 27/17 A2992 RMK TCU DIST S NOSIG=
200911292200 METAR MROC 292200Z 09009KT 9999 FEW030 BKN070 25/16 A2993 NOSIG=
200911292300 METAR MROC 292300Z 10007KT 9999 FEW030 SCT070 BKN250 23/16 A2994 NOSIG=
200911300000 METAR MROC 300000Z 11007KT CAVOK 22/17 A2996 RMK FEW120 SCT250 NOSIG=
200911300100 METAR MROC 300100Z 10007KT CAVOK 21/17 A2998 RMK SCT250 NOSIG=
200911300200 METAR MROC 300200Z 10008KT CAVOK 21/17 A3000 RMK SCT250 NOSIG=
200911300300 METAR MROC 300300Z 11006KT CAVOK 21/16 A3000 RMK SCT250 NOSIG=
200911300400 METAR MROC 300400Z 12008KT CAVOK 21/16 A3000 RMK SCT250 NOSIG=
200911300500 METAR MROC 300500Z 13009KT CAVOK 20/16 A2998 RMK SCT250 NOSIG=
200911300600 METAR MROC 300600Z 12007KT CAVOK 20/16 A2997 RMK SCT250 NOSIG=
200911300700 METAR MROC 300700Z 09006KT CAVOK 20/16 A2996 RMK SCT250 RAFAGAS 12KT NOSIG=
200911300800 METAR MROC 300800Z 13008KT CAVOK 20/15 A2994 RMK SCT250 RAFAGAS 13KT NOSIG=
200911300900 METAR MROC 300900Z 12009KT CAVOK 19/15 A2993 RMK SCT250 RAFAGAS 15KT NOSIG=
200911301000 METAR MROC 301000Z 11008KT CAVOK 20/15 A2994 RMK SCT250 NOSIG=
200911301100 METAR MROC 301100Z 12009KT CAVOK 19/15 A2994 RMK SCT250 NOSIG=
200911301200 METAR MROC 301200Z 11010KT CAVOK 19/15 A2994 RMK FEW250 NOSIG=
200911301300 METAR MROC 301300Z 12008KT CAVOK 21/16 A2998 RMK FEW300 NOSIG=
200911301400 METAR MROC 301400Z 12010KT CAVOK 23/16 A3000 RMK FEW300 NOSIG=
200911301500 METAR MROC 301500Z 13009KT CAVOK 26/14 A3000 RMK TRACE SC CI VERY=
200911301600 METAR MROC 301600Z 11010KT CAVOK 27/15 A3000 RMK TRACE SC CI VERY=
200911301700 METAR MROC 301700Z 09007KT 9999 FEW045 27/16 A2997 RMK TRACE CI NOSIG=
200911301800 METAR MROC 301800Z 12005KT 9999 FEW040 28/16 A2995 NOSIG=
200911301900 METAR MROC 301900Z 15007KT 9999 SCT040 29/16 A2992 NOSIG=
200911302000 METAR MROC 302000Z 22008KT 9999 SCT040 28/19 A2990 NOSIG=
200911302100 METAR MROC NIL=
200911302200 METAR MROC 302200Z 25010KT 9999 -DZRA FEW025TCU SCT040 24/22 A2990 RMK FEW110 RN SCTD ARND NOSIG=
200911302300 METAR MROC 302300Z 12005KT 9999 FEW025 SCT035 23/19 A2992 RMK FEW110 RN DST N/NE/E NOSIG=
200912010000 METAR MROC 010000Z 09007KT 9999 SCT035 SCT120 23/18 A2992 NOSIG=
200912010100 METAR MROC 010100Z 06002KT 9999 SCT035 22/18 A2994 NOSIG=
200912010200 METAR MROC 010200Z 08003KT 9999 SCT030 21/18 A2996 NOSIG=
200912010300 METAR MROC 010300Z 07006KT CAVOK 22/19 A2996 RMK TRACE SC-CI NOSIG=
200912010400 METAR MROC 010400Z 08005KT CAVOK 22/19 A2996 RMK TRACE SC-CI NOSIG=
200912010500 METAR MROC 010500Z 09008KT CAVOK 22/19 A2995 RMK SCT120 NOSIG=
200912010600 METAR MROC 010600Z 13009KT CAVOK 21/18 A2994 RMK TRACE SC/CI NOSIG=
200912010700 METAR MROC 010700Z 08005KT CAVOK 20/18 A2993 RMK TRACE SC/CI NOSIG=
200912010800 METAR MROC 010800Z 07006KT CAVOK 20/18 A2992 RMK TRACE SC NOSIG=
200912010900 METAR MROC 010900Z 03007KT CAVOK 19/18 A2991 RMK TRACE SC NOSIG=
200912011000 METAR MROC 011000Z 07006KT CAVOK 20/17 A2992 RMK TRACE SC NOSIG=
200912011100 METAR MROC 011100Z 11006KT CAVOK 20/17 A2992 RMK TRACE SC/CI LTNG DST S NOSIG=
200912011200 METAR MROC 011200Z 13010KT CAVOK 20/17 A2993 RMK SCT250 LTNG DST S NOSIG=
200912011300 METAR MROC 011300Z 12008KT CAVOK 22/18 A2996 RMK FEW250 NOSIG=
200912011400 METAR MROC 011400Z 11011KT 9999 FEW040 24/18 A2997 RMK FEW250 DZ DST N NE NOSIG=
200912011500 METAR MROC 011500Z 12011KT 9999 SCT045 26/18 A2998 RMK FEW100 RN DST NE E NOSIG=
200912011600 METAR MROC 011600Z 11009KT 080V150 9999 FEW040 SCT110 25/18 A2997 RMK FEW250 DZ DST E NOSIG=
200912011700 METAR MROC 011700Z 11012KT 9999 SCT040 27/19 A2995 RMK FEW120 NOSIG=
200912011800 METAR MROC 011800Z 11008KT 090V150 9999 SCT040 BKN090 26/18 A2993 RMK DZ DST E NW NOSIG=
200912011900 METAR MROC 011900Z 10008KT 9999 SCT040 BKN090 26/18 A2990 NOSIG=
200912012000 METAR MROC 012000Z 14006KT 9999 SCT045 SCT100 26/19 A2986 BECMG 24005KT=
200912012100 METAR MROC 012100Z 14008KT 9999 SCT035 27/18 A2984 RMK FEW100 DZ DST NE NOSIG=
200912012200 METAR MROC 012200Z 15007KT 9999 SCT035 SCT100 26/18 A2984 RMK DZ DST NE BECMG 22005KT=
200912012300 METAR MROC 012300Z 14006KT 9999 SCT035 25/19 A2985 RMK DZ DST N NE BECMG 22005KT=
200912012345 METAR MROC 012345Z 10008KT 9999 BKN020 23/18 A2984 NOSIG=
200912020000 METAR MROC 020000Z 09006KT 9999 SCT040 BKN090 23/20 A2987 RMK DZ DST NE NOSIG=
200912020100 METAR MROC 020100Z 00000KT CAVOK 22/22 A2990 RMK SCT100 BECMG 05005KT=
200912020200 METAR MROC 020200Z 06004KT CAVOK 22/19 A2992 RMK SCT100 NOSIG=
200912020300 METAR MROC 020300Z 11004KT CAVOK 21/19 A2992 RMK FEW100 NOSIG=
200912020400 METAR MROC 020400Z 10004KT 9999 FEW040 21/19 A2993 NOSIG=
200912020500 METAR MROC 020500Z 06004KT 9999 FEW040 21/19 A2991 NOSIG=
200912020600 METAR MROC 020600Z 08004KT 9999 FEW040 20/18 A2990 NOSIG=
200912020700 METAR MROC 020700Z 07003KT 9999 FEW040 19/18 A2990 NOSIG=
200912020800 METAR MROC 020800Z 07002KT 9999 FEW040 19/18 A2988=
200912020900 METAR MROC 020900Z 09005KT CAVOK 20/18 A2988 RMK TRACE SC AC=
200912021000 METAR MROC 021000Z 06004KT CAVOK 19/17 A2989 RMK TRACE SC AC=
200912021100 METAR MROC 021100Z 08004KT CAVOK 19/17 A2990 RMK TRACE SC=
200912021200 METAR MROC 021200Z 08005KT CAVOK 19/17 A2992 RMK TRACE SCT CI CB DST SW=
200912021300 METAR MROC 021300Z 07003KT CAVOK 22/18 A2995 RMK TRACE CI NOSIG=
200912021400 METAR MROC 021400Z 16002KT CAVOK 24/18 A2997 RMK TRACE SC CI NOSIG=
200912021500 METAR MROC 021500Z 23003KT CAVOK 26/18 A2997 RMK TRACE SC BECMG 08008KT=
200912021600 METAR MROC 021600Z 25006KT 9999 FEW040 27/20 A2996 NOSIG=
200912021700 METAR MROC 021700Z 25007KT 9999 SCT035 27/20 A2995 NOSIG=
200912021800 METAR MROC 021800Z 24009KT 9999 SCT025 SCT035 25/21 A2993 BECMG 8000=
200912021900 METAR MROC 021900Z 24009KT 9999 FEW025 SCT035 26/22 A2990 NOSIG=
200912022000 METAR MROC 022000Z 24007KT 9999 SCT030 BKN110 26/22 A2989 NOSIG=
200912022100 METAR MROC 022100Z 23008KT 9999 SCT020 BKN110 25/23 A2988 RMK DZ N NE NOSIG=
200912022200 METAR MROC 022200Z 24007KT 9999 FEW010 SCT030 BKN100 21/22 A2990 RMK DZ DST N NE NOSIG=
200912022300 METAR MROC 022300Z 23005KT 9999 FEW007 SCT040 BKN100 23/22 A2991 RMK TCU DST SW VIS 7000 NW RN DST NW N NOSIG=
200912030000 METAR MROC 030000Z 22002KT 9999 SCT008 BKN030 22/22 A2993 BECMG 05005KT=
200912030100 METAR MROC 030100Z 00000KT 9999 FEW010 BKN030 22/22 A2995 BECMG 06005KT=
200912030200 METAR MROC 030200Z 00000KT 9999 FEW030 SCT120 21/21 A2996 BECMG 05005KT=
200912030300 METAR MROC 030300Z 00000KT CAVOK 21/21 A2997 RMK SCT120 FEW250 NOSIG=
200912030400 METAR MROC 030400Z 00000KT 9999 FEW030 22/20 A2997 RMK FEW120 NOSIG=
200912030500 METAR MROC 030500Z 08004KT 9999 FEW030 21/20 A2995 NOSIG=
200912030600 METAR MROC 030600Z 11007KT 9999 FEW030 22/19 A2994 NOSIG=
200912030700 METAR MROC 030700Z 08005KT 9999 FEW030 21/19 A2992=
200912030800 METAR MROC 030800Z 05005KT 9999 FEW030 20/19 A2992=
200912030900 METAR MROC 030900Z 06004KT 9999 FEW030 21/18 A2992=
200912031000 METAR MROC 031000Z 06004KT CAVOK 19/18 A2992=
200912031100 METAR MROC 031100Z 09003KT CAVOK 20/18 A2994 RMK TCU DST S=
200912031200 METAR MROC 031200Z 10005KT CAVOK 21/18 A2995 RMK FEW280 TCU DST S=
200912031300 METAR MROC 031300Z 11004KT 9999 FEW040 22/18 A2997 NOSIG=
200912031400 METAR MROC 031400Z 11007KT 9999 FEW040 25/20 A2998 NOSIG=
200912031500 METAR MROC 031500Z 11008KT 080V150 9999 FEW045 27/19 A2998 NOSIG=
200912031600 METAR MROC NIL=
200912031700 METAR MROC 031700Z 11012KT 9999 FEW020 BKN080 25/19 A2997 NOSIG=
200912031800 METAR MROC 031800Z 10009KT 9999 FEW035 29/18 A2994 NOSIG=
200912031900 METAR MROC 031900Z 09009KT 9999 FEW040 29/18 A2991 NOSIG=
200912032000 METAR MROC 032000Z 08009KT 9999 FEW040 29/17 A2989 NOSIG=
200912032100 METAR MROC 032100Z 09008KT 9999 FEW035 29/17 A2989 NOSIG=
200912032200 METAR MROC 032200Z 09007KT 9999 FEW035 28/16 A2989 NOSIG=
200912032300 METAR MROC 032300Z 08006KT 9999 FEW035 27/16 A2991 NOSIG=
200912040000 METAR MROC 040000Z 27005KT 7000 VCFG FEW002 SCT020 BKN250 23/23 A2994 RMK BECMG 4000 BR=
200912040100 METAR MROC 040100Z 29002KT 9999 VCFG FEW003 SCT020 SCT250 22/22 A2997 RMK VIS SW 7KMS NOSIG=
200912040200 METAR MROC 040200Z 00000KT 9999 FEW035 SCT250 21/21 A2998 NOSIG=
200912040300 METAR MROC 040300Z 00000KT 9999 FEW015 SCT250 21/21 A2998 NOSIG=
200912040400 METAR MROC 040400Z 00000KT 9999 FEW030 SCT250 21/20 A2996 NOSIG=
200912040500 METAR MROC 040500Z 09003KT CAVOK 22/19 A2995 RMK SCT250 NOSIG=
200912040600 METAR MROC 040600Z 11004KT CAVOK 22/19 A2994 RMK SCT250=
200912040700 METAR MROC 040700Z 00000KT CAVOK 21/19 A2993 RMK SCT250=
200912040800 METAR MROC 040800Z 00000KT CAVOK 20/19 A2992 RMK TRACE SC CI=
200912040900 METAR MROC 040900Z 06002KT 9999 SCT030 21/19 A2992=
200912041000 METAR MROC 041000Z 05005KT 9999 FEW030 22/19 A2993=
200912041100 METAR MROC 041100Z 06005KT 9999 FEW030 20/18 A2994=
200912041200 METAR MROC 041200Z 04002KT 9999 SCT030 21/19 A2995=
200912041300 METAR MROC 041300Z 09006KT 9999 FEW030 23/19 A2996 RMK DZ DST N/NE NOSIG=
200912041400 METAR MROC 041400Z 13010KT 9999 FEW030 25/19 A2997 RMK DZ DST N/NE NOSIG=
200912041500 METAR MROC 041500Z 10014KT 9999 SCT030 27/19 A2998 RMK DZ DST N/NE NOSIG=
200912041600 METAR MROC 041600Z 08014KT 9999 SCT030 27/18 A2997 RMK DZ DST N/NE VEL MAX VTO 22KTS NOSIG=
200912041700 METAR MROC 041700Z 08014G25KT 9999 SCT030 27/18 A2997 RMK DZ DST N/NE NOSIG=
200912041800 METAR MROC 041800Z 10011KT 9999 FEW030 29/18 A2993 RMK DZ DST NE VEL MAX VTO 15KTS NOSIG=
200912041900 METAR MROC 041900Z 09012KT 9999 FEW030 29/18 A2991 RMK DZ DST NE FEW250 NOSIG=
200912042000 METAR MROC 042000Z 07011KT 9999 FEW030 29/17 A2989 NOSIG=
200912042100 METAR MROC 042100Z 10008KT 9999 FEW035 29/18 A2988 RMK TRACE AC NOSIG=
200912042200 METAR MROC 042200Z 09010KT 9999 SCT035 28/18 A2990 RMK TRACE AC LGT HZ WSW TCU DST S BECMG 24004KT=
200912042300 METAR MROC 042300Z 13006KT 9999 SCT035 25/18 A2991 RMK TRACE AC LGT HZ SW W TCU DST SSW NOSIG=
200912050000 METAR MROC 050000Z 11004KT 9999 FEW035 24/17 A2997 NOSIG=
200912050100 METAR MROC 050100Z VRB02KT CAVOK 22/22 A2996 RMK TRACE SC NOSIG=
200912050200 METAR MROC 050200Z 02003KT CAVOK 22/21 A2998 RMK TRACE SCT NOSIG=
200912050300 METAR MROC 050300Z 02002KT CAVOK 21/20 A3000 RMK TRACE SC NOSIG=
200912050400 METAR MROC 050400Z 07005KT CAVOK 20/18 A2999 RMK TRACE SC NOSIG=
200912050500 METAR MROC 050500Z 06003KT CAVOK 20/17 A2998 RMK TRACE SC NOSIG=
200912050600 METAR MROC 050600Z 09005KT CAVOK 21/17 A2997 RMK TRACE SC NOSIG=
200912050700 METAR MROC 050700Z 09006KT CAVOK 20/17 A2997 RMK TRACE SC NOSIG=
200912050800 METAR MROC 050800Z 07007KT CAVOK 20/17 A2995 RMK TRACE SC NOSIG=
200912050900 METAR MROC 050900Z 11007KT CAVOK 20/17 A2995 RMK TRACE SC NOSIG=
200912051000 METAR MROC 051000Z 08005KT CAVOK 20/17 A2996 NOSIG=
200912051100 METAR MROC 051100Z 12008KT CAVOK 20/16 A2998 NOSIG=
200912051200 METAR MROC 051200Z 11008KT CAVOK 20/17 A2999 RMK TRACE SC ST NOSIG=
200912051300 METAR MROC 051300Z 09007KT CAVOK 22/17 A3000 RMK TRACE SC NOSIG=
200912051400 METAR MROC 051400Z 11007KT CAVOK 24/17 A3002 RMK TRACE SC CI NOSIG=
200912051500 METAR MROC 051500Z 11010KT CAVOK 26/16 A3001 RMK TRACE SC CI NOSIG=
200912051600 METAR MROC 051600Z 12011KT CAVOK 28/15 A2999 RMK TRACE SC CI NOSIG=
200912051700 METAR MROC 051700Z 12011KT CAVOK 29/15 A2998 RMK TRACE SC CI NOSIG=
200912051800 METAR MROC 051800Z 12010KT 9999 FEW045 29/15 A2995 NOSIG=
200912051900 METAR MROC 051900Z 11010KT 9999 FEW045 29/17 A2993 NOSIG=
200912052000 METAR MROC 052000Z 12010KT 9999 FEW040 29/17 A2991 NOSIG=
200912052100 METAR MROC 052100Z 09011KT 9999 SCT040 27/18 A2991 RMK DZ DST NE/E NOSIG=
200912052200 METAR MROC 052200Z 11007KT 9999 SCT040 26/18 A2992 RMK FEW080 DZ DST=
200912052300 METAR MROC 052300Z 10007KT 9999 SCT040 24/17 A2995 RMK FEW080 RN NE/E NOSIG=
200912060000 METAR MROC 060000Z 12009KT 9999 BKN040 22/17 A2998 RMK FEW080 RN DST=
200912060100 METAR MROC 060100Z 11010G20KT 9999 SCT035 22/16 A3001 RMK DZ NE/E NOSIG=
200912060200 METAR MROC 060200Z 11010KT 9999 FEW035 21/16 A3003 NOSIG=
200912060300 METAR MROC 060300Z 08006KT CAVOK 21/16 A3004 RMK TRACE SC NOSIG=
200912060400 METAR MROC 060400Z 12010KT CAVOK 21/17 A3003 RMK TRACE SC NOSIG=
200912060500 METAR MROC 060500Z 10014KT CAVOK 21/17 A3003 RMK TRACE SC VEL MAX VTO 22KTS NOSIG=
200912060600 METAR MROC 060600Z 08008KT CAVOK 21/19 A3002 RMK TRACE SC NOSIG=
200912060700 METAR MROC 060700Z 12007KT CAVOK 20/17 A3001 RMK SCT100 NOSIG=
200912060800 METAR MROC 060800Z VRB02KT 9999 FEW030 20/16 A2999 NOSIG=
200912060900 METAR MROC 060900Z 07006KT CAVOK 20/16 A2997 RMK TRACE SC NOSIG=
200912061000 METAR MROC 061000Z 07008KT CAVOK 20/16 A2997 RMK TRACE SC NOSIG=
200912061100 METAR MROC 061100Z 12013KT CAVOK 21/17 A2998 RMK TRACE SC VEL MAX VTO 18KTS=
200912061200 METAR MROC 061200Z 11010KT 9999 FEW030 21/17 A3000 NOSIG=
200912061300 METAR MROC 061300Z 11010KT 9999 FEW035 23/17 A3001 RMK DZ NE/E NOSIG=
200912061400 METAR MROC 061400Z 13012KT 9999 FEW035 SCT260 23/18 A3003 RMK DZ NE/E VOL MAX VTO 18KT NOSIG=
200912061500 METAR MROC 061500Z 12012G24KT 9999 FEW035 25/18 A3003 RMK FEW260 RN N/NE/E NOSIG=
200912061600 METAR MROC 061600Z 11011KT FEW035 SCT260 27/18 A3002 RMK RN N/NE/EVLO/MAX VTO 19KT NOSIG=
200912061700 METAR MROC 061700Z 10013G23KT 9999 FEW040 27/18 A3000 RMK FEW130 RN N/NE/E NOSIG=
200912061800 METAR MROC 061800Z 11013KT 9999 SCT040 27/19 A2997 RMK FEW130 RN N/NE/E VOL MAX VTO 20KT NOSIG=
200912061900 METAR MROC 061900Z 10012G22KT 9999 SCT040 27/18 A2996 RMK FEW090 DZ=
200912062000 METAR MROC 062000Z 10011KT 9999 SCT040 27/17 A2994 RMK FEW090 DZ NE/E VLO MAX VTO  19KT NOSIG=
200912062100 METAR MROC 062100Z 10012KT 9999 SCT035 27/16 A2993 RMK FEW100 NOSIG=
200912062200 METAR MROC 062200Z 11009KT 9999 SCT035 26/17 A2994 RMK DZ DST NE FEW100=
200912062300 METAR MROC 062300Z 09012KT 9999 SCT035 SCT100 24/15 A2996 RMK DZ DST NE NOSIG=
200912070000 METAR MROC 070000Z 11012KT 9999 FEW035 23/16 A2996 RMK FEW100 DZ DST NE NOSIG=
200912070100 METAR MROC 070100Z 11010KT 9999 FEW040 22/17 A3000 RMK FEW120 NOSIG=
200912070200 METAR MROC 070200Z 10009KT 9999 FEW040 22/17 A3002 NOSIG=
200912070300 METAR MROC 070300Z 09011KT CAVOK 22/16 A3002 RMK FEW120 NOSIG=
200912070400 METAR MROC 070400Z 12008KT CAVOK 21/16 A3003 RMK TRACE SC NOSIG=
200912070500 METAR MROC 070500Z 12009KT CAVOK 21/16 A3001 RMK TRACE SC NOSIG=
200912070600 METAR MROC 070600Z 12008KT CAVOK 21/16 A3000 RMK TRACE SC NOSIG=
200912070700 METAR MROC 070700Z 12010KT CAVOK 21/16 A2998 RMK TRACE SC NOSIG=
200912070800 METAR MROC 070800Z 12011KT CAVOK 21/16 A2996 RMK TRACE SC=
200912070900 METAR MROC 070900Z 11009KT CAVOK 21/16 A2997 RMK TRACE SC=
200912071000 METAR MROC 071000Z 11002KT CAVOK 21/15 A2998 RMK TRACE SC=
200912071100 METAR MROC 071100Z 12009KT CAVOK 20/16 A2999 RMK TRACE SC=
200912071200 METAR MROC 071200Z 12010KT 9999 FEW030 SCT300 21/16 A3001 RMK CB DST S DZ NE=
200912071300 METAR MROC 071300Z 12010G20KT CAVOK 22/16 A3003 RMK TRACE SC NOSIG=
200912071400 METAR MROC 071400Z 12010KT CAVOK 24/16 A3006 RMK TRACE SC NOSIG=
200912071500 METAR MROC 071500Z 11016KT CAVOK 26/16 A3006 NOSIG=
200912071600 METAR MROC 071600Z 09016KT 9999 FEW035 26/16 A3005 NOSIG=
200912071700 METAR MROC 071700Z 09014KT 9999 FEW040 26/16 A3004 RMK DZ DST NE NOSIG=
200912071800 METAR MROC 071800Z 09012KT 9999 FEW040 27/15 A3002 RMK FEW100 NOSIG=
200912071900 METAR MROC 071900Z 10012KT 9999 FEW035 28/14 A2999 RMK FEW100 NOSIG=
200912072000 METAR MROC 072000Z 10011KT 9999 FEW040 28/14 A2997 NOSIG=
200912072100 METAR MROC 072100Z 11011KT 9999 FEW040 27/14 A2995 RMK TCU DST SW NOSIG=
200912072200 METAR MROC 072200Z 13010KT 9999 SCT045 26/15 A2996 NOSIG=
200912072205 METAR MROC 072205Z 13010KT 9999 SCT045 26/15 A2996 NOSIG=
200912072300 METAR MROC 072300Z 13012KT 9999 CAVOK 24/16 A2997 RMK SCT080 NOSIG=
200912080000 METAR MROC 080000Z 11009KT 9999 FEW045 23/15 A3000 RMK TCU DST SW NOSIG=
200912080100 METAR MROC 080100Z 11008KT CAVOK 22/16 A3003 RMK TRACE SC NOSIG=
200912080200 METAR MROC 080200Z 10005KT CAVOK 21/15 A3006 NOSIG=
200912080300 METAR MROC 080300Z 11007KT CAVOK 21/15 A3007 NOSIG=
200912080400 METAR MROC 080400Z 12006KT CAVOK 20/14 A3007 NOSIG=
200912080500 METAR MROC 080500Z 11005KT CAVOK 19/14 A3005=
200912080600 METAR MROC 080600Z 11006KT CAVOK 19/14 A3004=
200912080700 METAR MROC 080700Z 09006KT CAVOK 18/14 A3001=
200912080800 METAR MROC 080800Z 07005KT CAVOK 17/14 A3000=
200912080900 METAR MROC 080900Z 07005KT CAVOK 17/13 A3000 RMK FEW120=
200912081000 METAR MROC 081000Z 10006KT CAVOK 17/11 A3001 RMK FEW120=
200912081100 METAR MROC 081100Z 06005KT CAVOK 18/13 A3002 RMK BKN110=
200912081200 METAR MROC 081200Z 07004KT CAVOK 18/11 A3003 RMK BKN110=
200912081300 METAR MROC 081300Z 06003KT CAVOK 22/15 A3005 RMK SCT110 NOSIG=
200912081400 METAR MROC 081400Z 12008KT CAVOK 24/16 A3006 RMK FEW150 NOSIG=
200912081500 METAR MROC 081500Z 11008KT CAVOK 26/15 A3006 RMK SCT150 NOSIG=
200912081600 METAR MROC 081600Z 12008KT CAVOK 27/16 A3004 RMK FEW060 SCT120 NOSIG=
200912081700 METAR MROC 081700Z 13008KT CAVOK 27/16 A3001 RMK FEW050 SCT120 NOSIG=
200912081800 METAR MROC 081800Z 09008KT 9999 FEW040 BKN110 28/16 A2999 NOSIG=
200912081900 METAR MROC 081900Z 11007KT 9999 SCT035 SCT120 27/16 A2997 NOSIG=
200912082000 METAR MROC 082000Z 10009KT 9999 SCT035 BKN110 25/15 A2995 RMK RN DST E NE VIS 8000 NE NOSIG=
200912082100 METAR MROC 082100Z 10008KT 9999 FEW035 BKN120 25/15 A2995 RMK DZ DST E/NE NOSIG=
200912082200 METAR MROC 082200Z 12010KT 9999 FEW035 BKN120 24/16 A2995 RMK DZ DST=
200912082300 METAR MROC 082300Z 13008KT 9999 FEW035 BKN120 23/16 A2995 RMK DZ DST NE NOSIG=
200912090000 METAR MROC 090000Z 11011KT 9999 FEW035 BKN120 22/17 A2997 NOSIG=
200912090100 METAR MROC 090100Z 10012KT CAVOK 22/16 A2999 NOSIG=
200912090200 METAR MROC 090200Z 10014KT CAVOK 22/16 A3001 RMK FEW130 NOSIG=
200912090300 METAR MROC 090300Z 12010KT CAVOK 21/17 A3003 RMK SCT120 NOSIG=
200912090400 METAR MROC 090400Z 12012KT CAVOK 21/17 A3001 RMK SCT100 NOSIG=
200912090500 METAR MROC 090500Z 12012KT CAVOK 21/16 A2999 RMK SCT100 NOSIG=
200912090600 METAR MROC 090600Z 13010KT CAVOK 21/16 A2998 RMK SCT100 NOSIG=
200912090700 METAR MROC 090700Z 11008KT CAVOK 22/16 A2997 RMK SCT100 NOSIG=
200912090800 METAR MROC 090800Z 12008KT CAVOK 22/16 A2994 RMK SCT100=
200912090900 METAR MROC 090900Z 12009KT CAVOK 21/16 A2992 RMK SCT100=
200912091000 METAR MROC 091000Z 12006KT CAVOK 21/16 A2994 RMK FEW100=
200912091100 METAR MROC 091100Z 00000KT CAVOK 20/16 A2997 RMK TRACE SC AC CI=
200912091200 METAR MROC 091200Z 09005KT CAVOK 19/16 A2998 RMK TRACE SC AC CI=
200912091300 METAR MROC 091300Z 09005KT CAVOK 22/17 A3001 RMK TRACE SC AC NOSIG=
200912091400 METAR MROC 091400Z 10007KT CAVOK 24/17 A3002 RMK TRACE SC AC NOSIG=
200912091500 METAR MROC 091500Z 12009KT CAVOK 26/16 A3001 RMK TRACE SC AC NOSIG=
200912091600 METAR MROC 091600Z 10008KT CAVOK 27/16 A3001 RMK TRACE SC NOSIG=
200912091700 METAR MROC 091700Z 16006KT 9999 FEW035 28/17 A2999 RMK BECMG 24006KT=
200912091800 METAR MROC 091800Z 23011KT 9999 SCT035 27/20 A2997 NOSIG=
200912091900 METAR MROC 091900Z 24008KT 9999 FEW025 SCT035 25/19 A2994 NOSIG=
200912092000 METAR MROC 092000Z 27006KT 9999 FEW020 SCT040 26/20 A2991 RMK FEW250 NOSIG=
200912092100 METAR MROC 092100Z 23007KT 9999 FEW020TCU SCT035 26/21 A2990 NOSIG=
200912092200 METAR MROC 092200Z 23009KT 9999 FEW020TCU BKN030 23/21 A2991 RMK PCPN DST N NE HZY BECMG -RA=
200912092300 METAR MROC 092300Z 25006KT 9999 SCT012 BKN025 22/21 A2993 RMK PCPN DST N NNW CB DST SSW NOSIG=
200912100000 METAR MROC 100000Z 00000KT 9999 FEW006 BKN025 22/22 A2995 RMK HZY NOSIG=
200912100100 METAR MROC 100100Z 00000KT 9999 -DZ FEW010 BKN030 22/21 A2997 NOSIG=
200912100200 METAR MROC 100200Z 00000KT 9999 FEW030 BKN120 22/21 A2999 NOSIG=
200912100300 METAR MROC 100300Z 00000KT 9999 FEW030 22/20 A2999 NOSIG=
200912100400 METAR MROC 100400Z 00000KT 9999 SCT035 21/20 A3000 NOSIG=
200912100500 METAR MROC 100500Z 00000KT 9999 FEW035 SCT100 21/20 A2999 NOSIG=
200912100600 METAR MROC 100600Z 06003KT 9999 FEW030 SCT200 20/19 A2997 NOSIG=
200912100700 METAR MROC 100700Z 03004KT 9999 FEW035 19/19 A2996 NOSIG=
200912100800 METAR MROC 100800Z 09004KT 9999 FEW035 19/18 A2995 NOSIG=
200912100900 METAR MROC 100900Z 08005KT CAVOK 19/17 A2995 RMK TRACE SC NOSIG=
200912101000 METAR MROC 101000Z 09007KT CAVOK 20/17 A2995 RMK TRACE SC NOSIG=
200912101100 METAR MROC 101100Z 04007KT CAVOK 18/17 A2996 NOSIG=
200912101200 METAR MROC 101200Z 08005KT CAVOK 18/16 A2998 RMK CB DST S HZ DST=
200912101300 METAR MROC 101300Z 10004KT CAVOK 21/17 A3001 RMK FEW250 TCU DST S NOSIG=
200912101400 METAR MROC 101400Z 11005KT CAVOK 25/17 A3003 RMK SCT250 TCU DST S NOSIG=
200912101500 METAR MROC 101500Z 14008KT CAVOK 26/18 A3002 RMK BKN250 NOSIG=
200912101600 METAR MROC 101600Z 13007KT CAVOK 28/18 A3001 RMK BKN250 NOSIG=
200912101700 METAR MROC 101700Z 14006KT 9999 FEW040 SCT250 29/17 A2998 NOSIG=
200912101800 METAR MROC 101800Z 25007KT 9999 BKN040 27/20 A2996 NOSIG=
200912101900 METAR MROC 101900Z 23005KT 9999 BKN040 26/20 A2995 NOSIG=
200912102000 METAR MROC 102000Z 25008KT 9999 FEW030 SCT040 26/22 A2993 RMK TCU DST SW HZY=
200912102100 METAR MROC 102100Z 23007KT 9999 SCT035 SCT130 27/21 A2991 RMK FEW260 TCU N/NW/S NOSIG=
200912102200 METAR MROC 102200Z 24005KT 9999 VCSH FEW025TCU SCT035 25/22 A2991 RMK FEW130 VIS W 7KM DUE TCU/RN TCU SCTD ARND BECMG -RA=
200912102300 METAR MROC 102300Z 26006KT 8000 3000W -RA FEW025TCU SCT035 24/23 A2994 RMK FEW100 VIS NW/SW 5KM DUE RN NOSIG=
200912110000 METAR MROC 110000Z 26002KT 9999 FEW015 BKN035 22/22 A2996 RERA RMK FEW080 ST SW/W BECMG 6000 VCFG FEW008 BKN030=
200912110100 METAR MROC 110100Z 22002KT 9999 FEW020 BKN030 22/22 A2998 RMK ST W NOSIG=
200912110200 METAR MROC 110200Z 07002KT 9999 FEW030 SCT120 22/21 A3001 NOSIG=
200912110300 METAR MROC 110300Z 00000KT CAVOK 22/20 A3001 RMK SCT120 NOSIG=
200912110400 METAR MROC 110400Z 05004KT CAVOK 22/20 A3001 RMK FEW120 NOSIG=
200912110500 METAR MROC 110500Z 07004KT CAVOK 21/20 A2999 RMK FEW120 NOSIG=
200912110600 METAR MROC 110600Z 10008KT CAVOK 22/19 A2998 RMK FEW120 NOSIG=
200912110700 METAR MROC 110700Z 09007KT CAVOK 22/18 A2997 RMK FEW120 NOSIG=
200912110800 METAR MROC 110800Z 08005KT CAVOK 22/18 A2995 RMK TRACE SC AC=
200912110900 METAR MROC 110900Z 01006KT CAVOK 21/18 A2995 RMK TRACE SC=
200912111000 METAR MROC 111000Z 06006KT CAVOK 21/18 A2995 RMK TRACE SC=
200912111100 METAR MROC 111100Z 09013KT CAVOK 23/17 A2996 RMK FEW120 NOSIG=
200912111200 METAR MROC 111200Z 10015KT 9999 FEW030 SCT250 22/17 A2997 NOSIG=
200912111300 METAR MROC 111300Z 10011G21KT 9999 FEW030 SCT250 24/17 A2999 RMK FEW110 DZ NE/E NOSIG=
200912111400 METAR MROC 111400Z 11012KT 9999 FEW035 25/18 A3002 RMK FEW120 RN NE/E VOL MAX VTO  18KT NOSIG=
200912111500 METAR MROC 111500Z 10015G25KT 9999 FEW035 26/17 A3002 RMK FEW120 RN=
200912111600 METAR MROC 111600Z 09016KT 9999 FEW035 26/15 A3002 RMK RN NE/E VEL MAX VTO  20KT NOSIG=
200912111700 METAR MROC 111700Z 10016KT 9999 FEW040 27/15 A3000 RMK FEW130 VEL MAX VTO  22KT NOSIG=
200912111800 METAR MROC 111800Z 11010G20KT 9999 FEW040 28/15 A2997 RMK FEW130 NOSIG=
200912111900 METAR MROC 111900Z 09010G20KT 9999 FEW045 28/15 A2995 NOSIG=
200912112000 METAR MROC 112000Z 11013G24KT 9999 SCT045 28/17 A2993 RMK TCU DST S NOSIG=
200912112100 METAR MROC 112100Z 11012KT 9999 SCT040 27/16 A2994 NOSIG=
200912112200 METAR MROC 112200Z 12010KT 9999 SCT040 25/14 A2994 NOSIG=
200912112300 METAR MROC 112300Z 10010G20KT 9999 FEW040 24/16 A2996 NOSIG=
200912120000 METAR MROC 120000Z 11010KT 9999 FEW040 22/17 A2997 NOSIG=
200912120100 METAR MROC 120100Z 12012KT 9999 FEW040 22/17 A2999 NOSIG=
200912120200 METAR MROC 120200Z 11009KT CAVOK 22/17 A3002 RMK TRACE SC NOSIG=
200912120300 METAR MROC 120300Z 11011KT CAVOK 22/17 A3003 RMK TRACE SC NOSIG=
200912120400 METAR MROC 120400Z 12011KT CAVOK 22/17 A3002 RMK TRACE SC LTNG DST S NOSIG=
200912120500 METAR MROC 120500Z 11011KT CAVOK 21/16 A3002 RMK TRACE SC LTN G DST S NOSIG=
200912120600 METAR MROC 120600Z 10011KT CAVOK 22/15 A3001 RMK FEW250 OCNL LTNG DST S WSW NOSIG=
200912120700 METAR MROC 120700Z 11010KT CAVOK 21/16 A2999 RMK FEW250 NOSIG=
200912120800 METAR MROC 120800Z 12009KT CAVOK 20/16 A2998 RMK SCT250=
200912120900 METAR MROC 120900Z 12009KT CAVOK 20/15 A2997 RMK SCT250=
200912121000 METAR MROC 121000Z 12011KT CAVOK 20/15 A2998 RMK SCT270=
200912121100 METAR MROC 121100Z 11010KT CAVOK 20/15 A2999 RMK FEW300=
200912121200 METAR MROC 121200Z 12010KT CAVOK 20/15 A3000 RMK TRACE SC CI VERY=
200912121300 METAR MROC 121300Z 12012KT CAVOK 22/15 A3002 RMK TRACE SC CI CB DST SSW NOSIG=
200912121400 METAR MROC 121400Z 12011KT CAVOK 24/15 A3003 RMK TRACE SC CB DST SSW=
200912121500 METAR MROC 121500Z 10012KT CAVOK 26/15 A3003 RMK FEW250 NOSIG=
200912121600 METAR MROC 121600Z 10011KT CAVOK 26/15 A3002 RMK SCT250 NOSIG=
200912121700 METAR MROC 121700Z 09011KT CAVOK 27/16 A3001 RMK SCT250 NOSIG=
200912121800 METAR MROC 121800Z 09011KT 9999 FEW045 28/15 A2998 NOSIG=
200912121900 METAR MROC 121900Z 06016KT 9999 FEW040 28/15 A2996 NOSIG=
200912122000 METAR MROC 122000Z 07014KT 9999 FEW035 28/17 A2993 NOSIG=
200912122100 METAR MROC 122100Z 10011KT 9999 SCT040 27/16 A2993 NOSIG=
200912122200 METAR MROC 122200Z 08013G22KT 9999 SCT040 25/16 A2993 NOSIG=
200912122300 METAR MROC 122300Z 10009KT 9999 SCT035 24/17 A2995 RMK DZ DST E FEW200 NOSIG=
200912130000 METAR MROC 130000Z 09008KT 9999 FEW030 23/16 A2997 RMK FEW250 NOSIG=
200912130100 METAR MROC 130100Z 10006KT 9999 FEW030 22/16 A2999 RMK FEW250 NOSIG=
200912130200 METAR MROC 130200Z 11009KT 070V130 9999 SCT035 22/17 A3001 NOSIG=
200912130300 METAR MROC 130300Z 12008KT 9999 SCT035 22/17 A3001 NOSIG=
200912130400 METAR MROC 130400Z 12008KT 9999 FEW035 22/17 A3002 NOSIG=
200912130500 METAR MROC 130500Z 07004KT 9999 BKN035 22/17 A3001=
200912130600 METAR MROC 130600Z 09006KT 9999 SCT035 21/18 A2999=
200912130700 METAR MROC NIL=
200912130800 METAR MROC 130800Z 11010KT 9999 FEW035 22/17 A2994=
200912130900 METAR MROC 130900Z 11008KT 9999 FEW035 22/17 A2993=
200912131000 METAR MROC 131000Z 11008KT CAVOK 21/17 A2993=
200912131100 METAR MROC 131100Z 09011KT CAVOK 22/17 A2992=
200912131200 METAR MROC 131200Z 12008KT CAVOK 21/17 A2994 RMK FEW280=
200912131300 METAR MROC 131300Z 12008KT CAVOK 23/18 A2997 RMK FEW060 NOSIG=
200912131315 METAR MROC 131315Z 12011G21KT CAVOK 23/18 A2997 RMK FEW060 NOSIG=
200912131400 METAR MROC 131400Z 13013KT CAVOK 24/18 A2998 RMK SCT110 NOSIG=
200912131500 METAR MROC 131500Z 10013G24KT 9999 FEW045 26/18 A2998 RMK FEW120 NOSIG=
200912131600 METAR MROC 131600Z 10014KT 9999 FEW045 27/18 A2998 RMK FEW120 NOSIG=
200912131700 METAR MROC 131700Z 10011KT 9999 FEW045 27/18 A2997 RMK FEW130 NOSIG=
200912131800 METAR MROC 131800Z 10010KT 9999 FEW040 SCT120 27/18 A2994 NOSIG=
200912131900 METAR MROC 131900Z 09011KT CAVOK 28/17 A2991 RMK FEW055 NOSIG=
200912132000 METAR MROC 132000Z 10010KT 9999 SCT045 29/17 A2987 RMK TCU DST SW VIS 8000NE BECMG -RA=
200912132100 METAR MROC 132100Z 12008KT 9999 SCT030 BKN090 26/18 A2986 RMK TCU DST SW NOSIG=
200912132200 METAR MROC 132200Z 12003KT 9999 BKN030 27/18 A2987 RMK DZ N NE TCU DST SW NOSIG=
200912132300 METAR MROC 132300Z 13005KT 9999 BKN030 25/19 A2988 RMK DZ N NE BECMG 06008KT=
200912140000 METAR MROC 140000Z 06005KT 9999 BKN030 24/18 A2989 NOSIG=
200912140100 METAR MROC 140100Z 00000KT 9999 FEW020 SCT035 22/21 A2990 NOSIG=
200912140200 METAR MROC 140200Z 08003KT 9999 FEW030 22/19 A2991 NOSIG=
200912140300 METAR MROC 140300Z 12010KT 9999 FEW035 23/19 A2992 NOSIG=
200912140400 METAR MROC 140400Z 05004KT CAVOK 23/17 A2992 RMK TRACE SC NOSIG=
200912140500 METAR MROC 140500Z 10009KT CAVOK 22/18 A2992 RMK TRACE SC NOSIG=
200912140600 METAR MROC 140600Z 12008KT CAVOK 22/17 A2991 RMK TRACE SC NOSIG=
200912140700 METAR MROC 140700Z 12010KT CAVOK 21/17 A2987 RMK TRACE SC NOSIG=
200912140800 METAR MROC 140800Z 11011KT CAVOK 22/18 A2986 RMK TRACE SC=
200912140900 METAR MROC 140900Z 11013KT CAVOK 22/18 A2986 RMK TRACE SC VEL MAX VTO 17KT=
200912141000 METAR MROC 141000Z 11012G23KT CAVOK 22/18 A2986 RMK TRACE SC=
200912141100 METAR MROC 141100Z 12011KT 9999 FEW030 22/18 A2988 RMK DZ DST NE E=
200912141200 METAR MROC 141200Z 11010KT 9999 FEW030 SCT130 22/17 A2989 RMK DZ DST N NE E NOSIG=
200912141300 METAR MROC 141300Z 11017KT 9999 FEW030 SCT130 23/17 A2991 RMK DZ N NE NOSIG=
200912141400 METAR MROC 141400Z 08015G27KT 9999 FEW030 25/16 A2994 RMK DZ DST N NE NOSIG=
200912141500 METAR MROC 141500Z 10013G25KT 9999 SCT030 26/17 A2994 RMK DZ NE NOSIG=
200912141600 METAR MROC 141600Z 11024KT 9999 SCT030 26/17 A2994 RMK DZ NE NOSIG=
200912141700 METAR MROC 141700Z 10013G25KT 9999 FEW030 27/17 A2992 RMK DZ DST NE NOSIG=
200912141800 METAR MROC 141800Z 09015KT 9999 FEW030 28/16 A2989 RMK DZ DST NE VL MX VTO 23KT NOSIG=
200912141900 METAR MROC 141900Z 10018KT 9999 SCT030 28/16 A2986 NOSIG=
200912142000 METAR MROC 142000Z 09013G23KT 9999 SCT030 27/18 A2984 NOSIG=
200912142100 METAR MROC 142100Z 12010KT 9999 FEW030 27/18 A2983 RMK DZ N NE VEL MAX VTO 16KT NOSIG=
200912142200 METAR MROC 142200Z 12011KT 9999 FEW030 26/17 A2984 RMK PCPN DST NE VEL MAX VTO 16KT NOSIG=
200912142300 METAR MROC 142300Z 11011KT 9999 FEW030 24/18 A2985 RMK FEW120 DZ DST N NE VEL MAX VTO 18KT NOSIG=
200912150000 METAR MROC 150000Z 13014KT 9999 FEW030 22/18 A2986 RMK VEL MAX VTO 20KT NOSIG=
200912150100 METAR MROC 150100Z 10009KT 9999 FEW030 22/17 A2990 RMK VEL MAX VTO 18KT NOSIG=
200912150200 METAR MROC 150200Z 10014KT 9999 FEW030 22/18 A2991 NOSIG=
200912150300 METAR MROC 150300Z 11014KT 9999 FEW030 22/17 A2992 NOSIG=
200912150400 METAR MROC 150400Z 10008KT 9999 FEW030 22/17 A2993 NOSIG=
200912150500 METAR MROC 150500Z 11012KT 9999 FEW030 22/16 A2992 NOSIG=
200912150600 METAR MROC 150600Z 11011KT 070V130 9999 FEW030 21/17 A2991 NOSIG=
200912150700 METAR MROC 150700Z 12011KT CAVOK 22/16 A2989 NOSIG=
200912150800 METAR MROC 150800Z 09007KT CAVOK 21/16 A2987 RMK TRACE SC NOSIG=
200912150900 METAR MROC 150900Z 11008KT CAVOK 21/17 A2987 RMK TRACE SC NOSIG=
200912151000 METAR MROC 151000Z 11010KT 080V140 CAVOK 21/17 A2986 RMK TRACE SC NOSIG=
200912151100 METAR MROC 151100Z 11009KT 060V140 CAVOK 21/17 A2987 RMK TRACE SC NOSIG=
200912151200 METAR MROC 151200Z 12015KT CAVOK 21/17 A2988 RMK FEW200 CB DST S NOSIG=
200912151300 METAR MROC 151300Z 12013KT CAVOK 22/17 A2991 RMK FEW300 CB DST S VEL MAX VTO 20KT NOSIG=
200912151400 METAR MROC 151400Z 12011KT CAVOK 24/18 A2993 RMK SCT250 VEL MAX VTO 26KT NOSIG=
200912151500 METAR MROC 151500Z 11010G20KT 9999 FEW030 SCT250 25/18 A2994 RMK PCPN DST N NE NOSIG=
200912151600 METAR MROC 151600Z 12010KT 9999 FEW030 SCT250 27/18 A2994 RMK VEL MAX VTO 16KT DZ DST N NE NOSIG=
200912151700 METAR MROC 151700Z 12010KT 9999 FEW030 SCT250 27/18 A2993 RMK VEL MAX VTO 17KT PCPN DST N NE NOSIG=
200912151800 METAR MROC 151800Z 13009KT 9999 FEW030 SCT070 27/18 A2991 RMK FEW250 VEL MAX VTO 14KT NOSIG=
200912151900 METAR MROC 151900Z 11010KT 9999 FEW030 SCT070 28/18 A2988 RMK VEL MAX VTO 16KT NOSIG=
200912152000 METAR MROC 152000Z 11009KT 9999 FEW030 SCT080 27/18 A2986 RMK VEL MAX VTO 16KT NOSIG=
200912152100 METAR MROC 152100Z 12011KT 9999 SCT030 BKN270 27/18 A2986 NOSIG=
200912152200 METAR MROC 152200Z 12010KT 9999 FEW035 BKN270 26/18 A2986 RMK RN DST=
200912152300 METAR MROC 152300Z 12009KT 9999 FEW035 BKN270 24/19 A2987 RMK RN DST=
200912160000 METAR MROC 160000Z 11004KT 9999 FEW035 BKN270 22/18 A2990 RMK RN DST=
200912160100 METAR MROC 160100Z 11007KT 9999 FEW030 BKN270 22/18 A2993 NOSIG=
200912160200 METAR MROC 160200Z 12006KT 9999 FEW030 SCT270 22/18 A2995 NOSIG=
200912160300 METAR MROC 160300Z 10011KT 9999 FEW030 22/18 A2995 RMK FEW250 NOSIG=
200912160400 METAR MROC 160400Z 12011KT 9999 FEW030 22/18 A2995 NOSIG=
200912160500 METAR MROC 160500Z 09012KT 9999 FEW030 22/17 A2996 NOSIG=
200912160600 METAR MROC 160600Z 00000KT 9999 FEW030 21/17 A2996 RMK TS DST S NOSIG=
200912160700 METAR MROC 160700Z 00000KT 9999 FEW030 21/18 A2993 RMK TS DST S NOSIG=
200912160800 METAR MROC 160800Z 00000KT 9999 FEW030 20/18 A2991 RMK TS DST S NOSIG=
200912160900 METAR MROC 160900Z 00000KT 9999 FEW030 21/18 A2992 RMK TS DST S NOSIG=
200912161000 METAR MROC 161000Z 05002KT 9999 FEW030 21/18 A2992 NOSIG=
200912161100 METAR MROC 161100Z 00000KT 9999 FEW025 SCT120 21/18 A2993 NOSIG=
200912161200 METAR MROC 161200Z 12015KT 9999 FEW020 SCT110 22/18 A2994 RMK DZ N NE NOSIG=
200912161300 METAR MROC 161300Z 12009KT 9999 FEW030 BKN120 22/18 A2997 RMK FEW100 DZ/RN N/NE/E NOSIG=
200912161400 METAR MROC 161400Z 13010KT 9999 FEW035 SCT120 23/18 A2998 RMK SCT250 RN DST NE/E TCU DST S NOSIG=
200912161500 METAR MROC 161500Z 11009KT 9999 FEW035 BKN250 24/18 A2999 RMK FEW120 RN DST NE/E NOSIG=
200912161600 METAR MROC 161600Z 10012KT 9999 FEW035 BKN270 25/18 A2996 RMK RN DST=
200912161700 METAR MROC 161700Z 10011G21KT 9999 FEW035 BKN270 27/18 A2995 RMK FEW120 RN DST NE/E NOSIG=
200912161800 METAR MROC 161800Z 12012G25KT 9999 SCT040 SCT270 27/18 A2993 RMK RN DST NE/E NOSIG=
200912161900 METAR MROC 161900Z 11010G20KT 9999 SCT040 SCT270 27/18 A2991 RMK RN DST NE/E NOSIG=
200912162000 METAR MROC 162000Z 12010G20KT 9999 FEW040 SCT270 27/18 A2988 RMK RN DST NE/E TCU DST S NOSIG=
200912162100 METAR MROC 162100Z 10012KT 9999 SCT035 SCT250 27/18 A2988 RMK DZ DST NE NOSIG=
200912162200 METAR MROC 162200Z 12009KT 9999 FEW035 SCT250 26/18 A2988 RMK DZ DST NE NOSIG=
200912162300 METAR MROC 162300Z 12008KT 9999 FEW035 24/18 A2989 RMK FEW250 DZ DST NE E NOSIG=
200912170000 METAR MROC 170000Z 11006KT 9999 FEW035 22/18 A2991 RMK DZ DST NE E NOSIG=
200912170100 METAR MROC 170100Z 06011KT 9999 FEW035 23/18 A2994 RMK FEW100=
200912170200 METAR MROC 170200Z 11005KT 9999 FEW035 22/18 A2996 NOSIG=
200912170300 METAR MROC 170300Z 09004KT 9999 FEW035 22/18 A2996 NOSIG=
200912170400 METAR MROC 170400Z 08010KT 9999 FEW035 21/18 A2996 NOSIG=
200912170500 METAR MROC 170500Z 09004KT 9999 FEW035 21/18 A2996 NOSIG=
200912170600 METAR MROC 170600Z 00000KT 9999 FEW035 20/17 A2994 NOSIG=
200912170700 METAR MROC 170700Z 08006KT 9999 FEW035 20/17 A2992 NOSIG=
200912170800 METAR MROC 170800Z 11009KT 9999 FEW035 21/17 A2990=
200912170900 METAR MROC 170900Z 11008KT 9999 FEW035 21/16 A2991=
200912171000 METAR MROC 171000Z 11008KT 9999 FEW035 21/16 A2990=
200912171100 METAR MROC 171100Z 11008KT CAVOK 21/15 A2991 RMK TRACE SC AC VEL MAX VTO 14KT=
200912171200 METAR MROC 171200Z 10007KT CAVOK 20/16 A2993 RMK TRACE SC CI VERY DST CB TO S=
200912171300 METAR MROC 171300Z 10006KT CAVOK 22/15 A2995 RMK TRACE CI NOSIG=
200912171400 METAR MROC 171400Z 12008KT CAVOK 25/15 A2997 RMK TRACE CI NOSIG=
200912171500 METAR MROC 171500Z 11010KT CAVOK 26/16 A2997 RMK TRACE CI NOSIG=
200912171600 METAR MROC 171600Z 11013KT CAVOK 27/16 A2996 RMK TRACE CU CI NOSIG=
200912171700 METAR MROC 171700Z 12010KT 9999 FEW030 28/15 A2994 NOSIG=
200912171800 METAR MROC 171800Z 12006KT 9999 FEW030 29/19 A2993 RMK TCU DST S BECMG 24008KT=
200912171900 METAR MROC 171900Z 00000KT 9999 SCT030 SCT250 26/19 A2990 NOSIG=
200912172000 METAR MROC 172000Z 14005KT 9999 FEW035 27/17 A2987 NOSIG=
200912172100 METAR MROC 172100Z 14006KT 9999 SCT035 28/17 A2987 RMK TCU DST S SW NOSIG=
200912172200 METAR MROC 172200Z 24005KT 9999 FEW030TCU FEW200 25/20 A2988 RMK RN DST S NOSIG=
200912172300 METAR MROC 172300Z 00000KT 9999 FEW025TCU FEW040 SCT250 23/20 A2989 RMK RN DST S HZ DST SE/S NOSIG=
200912180000 METAR MROC 180000Z 16005KT 9999 FEW020TCU FEW040 SCT250 22/18 A2991 NOSIG=
200912180100 METAR MROC 180100Z 10006KT 9999 FEW030 SCT150 BKN250 22/15 A2993 NOSIG=
200912180200 METAR MROC 180200Z 12006KT 9999 SCT035 22/15 A2995 NOSIG=
200912180300 METAR MROC 180300Z 12007KT 9999 FEW030 21/14 A2996 NOSIG=
200912180400 METAR MROC 180400Z 11008KT CAVOK 21/14 A2996 NOSIG=
200912180500 METAR MROC 180500Z 09007KT CAVOK 21/14 A2995 NOSIG=
200912180600 METAR MROC 180600Z 09002KT CAVOK 20/14 A2994 NOSIG=
200912180700 METAR MROC 180700Z 09002KT CAVOK 18/15 A2992=
200912180800 METAR MROC 180800Z 07007KT CAVOK 19/14 A2990=
200912180900 METAR MROC 180900Z 09003KT CAVOK 18/15 A2989=
200912181000 METAR MROC 181000Z 08004KT CAVOK 18/14 A2990=
200912181100 METAR MROC 181100Z 09003KT CAVOK 18/14 A2991=
200912181200 METAR MROC 181200Z 07008KT CAVOK 18/14 A2992 RMK FEW260 LINE CB S/SW=
200912181300 METAR MROC 181300Z 07003KT CAVOK 20/15 A2993 RMK FEW250 NOSIG=
200912181400 METAR MROC 181400Z 09008KT CAVOK 24/15 A2995 RMK TCU DST S LGT HZ S/SW NOSIG=
200912181500 METAR MROC 181500Z 13006KT CAVOK 26/15 A2995 RMK FEW250 CB DST S NOSIG=
200912181600 METAR MROC 181600Z 23006KT CAVOK 28/16 A2995 RMK FEW300 NOSIG=
200912181700 METAR MROC 181700Z 25009KT CAVOK 28/17 A2994 RMK TRACE CU FEW300 NOSIG=
200912181800 METAR MROC 181800Z 25008KT 9999 SCT045 28/19 A2992 RMK FEW300 NOSIG=
200912181900 METAR MROC 181900Z 24008KT 9999 SCT045 SCT250 27/20 A2989 RMK VEL MAX VTO 13KT TCU DST S/SW NOSIG=
200912182000 METAR MROC 182000Z 26010KT 9999 SCT040 SCT200 26/20 A2989 RMK TCU DST S HZ S/SW/W BECMG BKN100=
200912182100 METAR MROC 182100Z 26007KT 9999 SCT030 BKN250 24/21 A2998 RMK HZ ARND NOSIG=
200912182200 METAR MROC 182200Z 25007KT 9999 SCT020 BKN250 24/22 A2989 RMK HZ ARND NOSIG=
200912182300 METAR MROC 182300Z 00000KT 9999 FEW010 SCT020 BKN120 23/22 A2992 RMK HZ ARND BECMG 5000 VCSH=
200912190000 METAR MROC 190000Z 00000KT 9999 FEW025 BKN120 22/22 A2994 RMK HZ ARND NOSIG=
200912190100 METAR MROC 190100Z 11003KT 9999 FEW030 SCT120 22/18 A2997 NOSIG=
200912190200 METAR MROC 190200Z 00000KT 9999 FEW030 SCT120 21/21 A3000 RMK HZ LGT ARND NOSIG=
200912190300 METAR MROC 190300Z 00000KT 9999 FEW030 SCT120 21/21 A3001 RMK ST LOW SW NOSIG=
200912190400 METAR MROC 190400Z 00000KT 9999 FEW030 SCT120 21/19 A3001 RMK ST LOW SW NOSIG=
200912190500 METAR MROC 190500Z 00000KT 9999 FEW030 BKN120 21/19 A3001 NOSIG=
200912190600 METAR MROC 190600Z 10006KT 9999 FEW040 BKN120 21/18 A2999 NOSIG=
200912190700 METAR MROC 190700Z 09006KT CAVOK 21/18 A2997 RMK BKN120 NOSIG=
200912190800 METAR MROC 190800Z 10005KT CAVOK 21/18 A2997 RMK BKN120 NOSIG=
200912190900 METAR MROC 190900Z 00000KT CAVOK 21/18 A2996 RMK BKN120 NOSIG=
200912191000 METAR MROC 191000Z 00000KT CAVOK 21/17 A2997 RMK BKN120 NOSIG=
200912191100 METAR MROC 191100Z 00000KT CAVOK 19/18 A2999 RMK SCT120 SCT250=
200912191200 METAR MROC 191200Z 00000KT CAVOK 19/17 A2999 RMK SCT120 SCT250 COLUNNA DE GAS SOBRE EL VOLCAN TURRIALBA NOSIG=
200912191300 METAR MROC 191300Z 08007KT CAVOK 21/17 A3001 RMK BKN120 NOSIG=
200912191400 METAR MROC 191400Z 11008KT CAVOK 23/17 A3003 RMK BKN120 NOSIG=
200912191500 METAR MROC 191500Z 13007KT CAVOK 25/17 A3002 RMK BKN250 NOSIG=
200912191600 METAR MROC 191600Z 13012KT 9999 FEW030 SCT130 26/16 A3001 NOSIG=
200912191700 METAR MROC 191700Z 11018KT 9999 FEW030 SCT130 27/17 A2999 RMK SCT250 NOSIG=
200912191800 METAR MROC 191800Z 13010KT 9999 FEW030 BKN250 28/17 A2996 RMK FEW130 NOSIG=
200912191900 METAR MROC 191900Z 13012KT 9999 FEW030 SCT130 29/17 A2994 RMK SCT250 NOSIG=
200912192000 METAR MROC 192000Z 10012KT 9999 SCT030 SCT130 28/18 A2993 RMK SCT250 NOSIG=
200912192100 METAR MROC 192100Z 13006KT 9999 FEW025 SCT045 27/18 A2994 RMK LGT HZ SW W TCU DST S BECMG 24007KT=
200912192200 METAR MROC 192200Z 24010KT 9999 FEW015 BKN040 24/21 A2996 NOSIG=
200912192300 METAR MROC 192300Z 24002KT 9999 FEW010 SCT035 BKN250 22/22 A2999 RMK PCPN DST S HZY NOSIG=
200912200000 METAR MROC 200000Z 00000KT 9999 FEW006 SCT025 BKN130 22/22 A3000 RMK VIS W WSW 8KMS DUE LOW ST AND HZ NOSIG=
200912200100 METAR MROC 200100Z 00000KT 9999 SCT006 SCT020 21/21 A3003 RMK VIS SW WSW 7KMS DUE LOW ST AND HZ NOSIG=
200912200200 METAR MROC 200200Z 00000KT 9999 FEW030 21/20 A3005 BECMG 06005KT CAVOK=
200912200300 METAR MROC 200300Z 09006KT 9999 FEW030 SCT120 21/16 A3006 NOSIG=
200912200400 METAR MROC 200400Z 10003KT 9999 FEW010 OVC120 21/16 A3007 NOSIG=
200912200500 METAR MROC 200500Z 09004KT 9999 FEW010 OVC150 21/16 A3006 NOSIG=
200912200600 METAR MROC 200600Z 11005KT 9999 FEW015 BKN170 21/17 A3003 NOSIG=
200912200700 METAR MROC 200700Z 07011KT 9999 FEW015 SCT150 BKN250 21/17 A3003 NOSIG=
200912200800 METAR MROC 200800Z 09007KT 9999 SCT030 BKN250 21/17 A3002 NOSIG=
200912200900 METAR MROC 200900Z 00000KT 9999 FEW010 SCT035 20/17 A3003 NOSIG=
200912201000 METAR MROC 201000Z 08004KT 9999 FEW035 20/17 A3002 NOSIG=
200912201100 METAR MROC 201100Z 09005KT 9999 FEW035 20/17 A3002 RMK FEW250 NOSIG=
200912201200 METAR MROC 201200Z 07004KT 9999 FEW045 BKN250 21/17 A3005 RMK VIS 7000NE DUE ST NOSIG=
200912201300 METAR MROC 201300Z 06006KT CAVOK 21/17 A3006 RMK OVC250 NOSIG=
200912201400 METAR MROC 201400Z 09009KT CAVOK 24/17 A3006 RMK BKN250 VEL MAX VTO 17KT NOSIG=
200912201500 METAR MROC 201500Z 03010KT CAVOK 26/17 A3008 RMK SCT120 BKN250 VEL MAX VTO 16KT NOSIG=
200912201600 METAR MROC 201600Z 11008KT 9999 SCT035 BKN250 27/18 A3006 NOSIG=
200912201700 METAR MROC 201700Z 13008KT 9999 FEW040 BKN250 27/17 A3004 RMK VEL MAX VTO 14KT NOSIG=
200912201800 METAR MROC 201800Z 15007KT 9999 FEW025 SCT035 BKN250 26/17 A3004 RMK FU SE NEAR APCH 25 DZ DST N NE NOSIG=
200912201900 METAR MROC 201900Z 25007KT 9999 FEW020 BKN035 25/20 A3002 NOSIG=
200912202000 METAR MROC 202000Z 20004KT 9999 FEW020 BKN035 25/19 A3000 NOSIG=
200912202100 METAR MROC 202100Z 23005KT 9999 SCT035 SCT250 25/20 A2999 RMK FEW110 NOSIG=
200912202200 METAR MROC 202200Z 22006KT 9999 SCT035 SCT250 24/19 A2999 RMK FEW110 CB DST S NOSIG=
200912202300 METAR MROC 202300Z 24005KT 9999 FEW025 SCT035 22/20 A3002 RMK SCT250 TCU DST SSE NOSIG=
200912210000 METAR MROC 210000Z 00000KT 9999 FEW008 BKN035 21/20 A3003 RMK FEW110 NOSIG=
200912210100 METAR MROC 210100Z 00000KT 9999 VCFG FEW006 SCT015 21/21 A3005 RMK SCT030 VIS 7KM SW/W DUE ST NOSIG=
200912210200 METAR MROC 210200Z 00000KT 9999 SCT030 SCT100 20/20 A3007 NOSIG=
200912210300 METAR MROC 210300Z 00000KT 9999 FEW030 SCT100 20/19 A3009 NOSIG=
200912210400 METAR MROC 210400Z 00000KT 9999 FEW004 SCT100 20/20 A3008 RMK LOW ST S NOSIG=
200912210500 METAR MROC 210500Z 00000KT 9999 FEW004 SCT100 19/19 A3009 RMK LOW ST S NOSIG=
200912210600 METAR MROC 210600Z 13003KT 9999 VCFG FEW002 SCT100 19/19 A3008 NOSIG=
200912210700 METAR MROC NIL=
200912210800 METAR MROC 210800Z 00000KT 9999 VCFG FEW002 SCT120 20/19 A3004 NOSIG=
200912210900 METAR MROC 210900Z 00000KT 9999 VCFG FEW992 SCT120 18/18 A3003 NOSIG=
200912211000 METAR MROC 211000Z 06003KT CAVOK 19/18 A3002 RMK SCT120 NOSIG=
200912211100 METAR MROC 211100Z 07003KT CAVOK 19/18 A3004 RMK SCT120 NOSIG=
200912211200 METAR MROC 211200Z 09006KT CAVOK 20/18 A3006 RMK BKN100 NOSIG=
200912211300 METAR MROC 211300Z 00000KT 9999 -DZ FEW030 SCT080 20/18 A3009 RMK SCT100 NOSIG=
200912211400 METAR MROC 211400Z 00000KT 9999 DZ FEW030 SCT080 20/19 A3012 RMK SCT110 NOSIG=
200912211500 METAR MROC 211500Z 00000KT 9999 -DZ FEW035 OVC110 21/18 A3013 NOSIG=
200912211600 METAR MROC 211600Z 00000KT 9999 FEW035 BKN120 22/19 A3012 REDZ RMK FEW250 NOSIG=
200912211700 METAR MROC 211700Z 00000KT 9999 FEW035 BKN120 24/19 A3010 RMK FEW250 NOSIG=
200912211800 METAR MROC 211800Z 22005KT 9999 SCT035 SCT120 24/19 A3007 RMK FEW250 NOSIG=
200912211900 METAR MROC 211900Z 15005KT 9999 SCT035 SCT120 25/19 A3003 RMK FEW250 NOSIG=
200912212000 METAR MROC 212000Z 16003KT 9999 -RA SCT035 BKN110 25/18 A3001 NOSIG=
200912212100 METAR MROC 212100Z 25005KT 9999 SCT030 BKN110 24/18 A3001 RMK RN N NE NOSIG=
200912212200 METAR MROC 212200Z 26006KT 9999 FEW030 SCT110 BKN250 22/18 A3002 RMK RN NE NOSIG=
200912212300 METAR MROC 212300Z 26007KT 9999 FEW030 SCT110 BKN250 21/18 A3003 RMK RN NE NOSIG=
200912220000 METAR MROC 220000Z 00000KT 9999 FEW030 SCT120 BKN250 21/17 A3005 NOSIG=
200912220100 METAR MROC 220100Z 11004KT 9999 DZ FEW035 BKN120 20/18 A3006 NOSIG=
200912220200 METAR MROC 220200Z 07006KT 9999 FEW035 BKN120 20/16 A3007 REDZ NOSIG=
200912220300 METAR MROC 220300Z 09004KT 9999 -RA FEW040 BKN120 19/16 A3007 NOSIG=
200912220400 METAR MROC 220400Z 07005KT 9999 DZ OVC120 20/15 A3009 RERA NOSIG=
200912220500 METAR MROC 220500Z 11004KT CAVOK 20/15 A3009 REDZ RMK OVC120 NOSIG=
200912220600 METAR MROC 220600Z 00000KT 9999 -RA OVC120 18/16 A3009 NOSIG=
200912220700 METAR MROC 220700Z 12002KT 9999 DZ OVC120 18/17 A3004 RERA NOSIG=
200912220800 METAR MROC 220800Z 02004KT CAVOK 18/17 A3002 REDZ RMK OVC120=
200912220900 METAR MROC 220900Z 00000KT CAVOK 18/18 A3002 RMK BKN120=
200912221000 METAR MROC 221000Z 00000KT CAVOK 17/17 A3004 RMK BKN120=
200912221100 METAR MROC 221100Z 10003KT CAVOK 17/17 A3003 RMK BKN120=
200912221200 METAR MROC 221200Z 10004KT CAVOK 17/16 A3003 RMK BKN120=
200912221300 METAR MROC 221300Z 09004KT CAVOK 20/17 A3005 RMK BKN120 NOSIG=
200912221400 METAR MROC 221400Z 10003KT CAVOK 23/18 A3008 RMK SCT120 NOSIG=
200912221500 METAR MROC 221500Z 13010KT CAVOK 24/17 A3008 RMK SCT120 NOSIG=
200912221600 METAR MROC 221600Z 14004KT CAVOK 27/16 A3007 RMK SCT130 NOSIG=
200912221700 METAR MROC 221700Z 18005KT 9999 FEW040 SCT130 26/18 A3005 NOSIG=
200912221800 METAR MROC 221800Z 25005KT 9999 FEW040 SCT130 27/18 A3002 NOSIG=
200912221900 METAR MROC 221900Z 24007KT 9999 SCT030 SCT120 29/18 A2998 NOSIG=
200912222000 METAR MROC 222000Z 24008KT 9999 BKN030 26/19 A2997 NOSIG=
200912222100 METAR MROC 222100Z 23008KT 9999 SCT035 SCT120 27/20 A2996 RMK CB DST S DZ DST SE/S/N NOSIG=
200912222200 METAR MROC 222200Z 24010KT 9999 SCT035 SCT120 25/20 A2997 RMK RN DST=
200912222300 METAR MROC 222300Z 24008KT 9999 SCT030 SCT110 22/19 A3000 RMK DZ DST NW HZ ARND NOSIG=
200912230000 METAR MROC 230000Z 26005KT 9999 BKN030 22/18 A3002 RMK VIS 7000NE DUE BR NOSIG=
200912230100 METAR MROC 230100Z 23004KT 9999 SCT010 OVC030 21/20 A3004 RMK VIS 7000 N/NE BY BR NOSIG=
200912230200 METAR MROC NIL=
200912230300 METAR MROC 230300Z 00000KT 9999 FEW010 BKN030 21/19 A3008 BECMG -RA=
200912230400 METAR MROC 230400Z 00000KT 9999 FEW015 BKN030 21/19 A3008 NOSIG=
200912230500 METAR MROC 230500Z 08002KT 9999 BKN030 21/18 A3007 NOSIG=
200912230600 METAR MROC 230600Z 10002KT 9999 SCT030 20/17 A3006 NOSIG=
200912230700 METAR MROC 230700Z 08007KT 9999 FEW030 20/16 A3003=
200912230800 METAR MROC 230800Z 00000KT 9999 FEW030 19/16 A3002=
200912230900 METAR MROC 230900Z 08005KT CAVOK 19/16 A3000=
200912231000 METAR MROC 231000Z 08006KT CAVOK 18/16 A3000=
200912231100 METAR MROC 231100Z 09005KT CAVOK 18/16 A3000=
200912231200 METAR MROC 231200Z 08006KT CAVOK 18/15 A3001=
200912231300 METAR MROC 231300Z 10003KT CAVOK 20/16 A3004 RMK HZ N/W/S NOSIG=
200912231400 METAR MROC 231400Z 04002KT CAVOK 23/16 A3005 RMK HZ SW/W/NW NOSIG=
200912231500 METAR MROC 231500Z 12005KT 110V180 CAVOK 25/16 A3006 RMK FEW070 HZ QUAD W=
200912231600 METAR MROC 231600Z 20005KT CAVOK 27/17 A3005 RMK FEW050 HZ DST W BECMG 24006KT=
200912231700 METAR MROC 231700Z 27006KT 9999 FEW045 28/18 A3002 RMK HZ W NOSIG=
200912231800 METAR MROC 231800Z 24007KT 210V280 9999 SCT045 28/19 A3000 RMK HZ DST W TCU DST S NOSIG=
200912231900 METAR MROC 231900Z 25008KT 9999 SCT045 28/18 A2997 RMK TCU S/N HZ DST W/NW NOSIG=
200912232000 METAR MROC 232000Z 25009KT 9999 FEW040TCU SCT045 28/20 A2994 RMK HZ DST W/NW NOSIG=
200912232100 METAR MROC 232100Z 24009KT 9999 FEW030 SCT040 27/21 A2993 RMK HZ ARND NOSIG=
200912232200 METAR MROC 232200Z 26010KT 9999 BKN030 25/19 A2994 RMK HZ ARND NOSIG=
200912232300 METAR MROC 232300Z 25008KT 9999 BKN030 23/19 A2996 REDZ RMK HZ W RN E NOSIG=
200912240000 METAR MROC 240000Z 23003KT 9999 FEW010 SCT030 22/21 A2998 RMK HZ W RN NE E NOSIG=
200912240100 METAR MROC 240100Z 13003KT 9999 FEW020 SCT040 21/20 A3000 RMK HZ SW W NOSIG=
200912240200 METAR MROC 240200Z 09003KT 9999 SCT030 21/20 A3001 NOSIG=
200912240300 METAR MROC 240300Z 00000KT 9999 FEW030 20/19 A3002 NOSIG=
200912240400 METAR MROC 240400Z 10003KT CAVOK 19/19 A3002 RMK TRACE SC NOSIG=
200912240500 METAR MROC 240500Z 00000KT CAVOK 19/18 A3001 RMK TRACE SC=
200912240600 METAR MROC 240600Z 00000KT CAVOK 18/18 A3001 RMK TRACE SC NOSIG=
200912240700 METAR MROC 240700Z 06004KT CAVOK 19/18 A3000 RMK TRACE SC NOSIG=
200912240800 METAR MROC NIL=
200912240900 METAR MROC 240900Z 07005KT CAVOK 18/17 A2997 RMK TRACE SC NOSIG=
200912241000 METAR MROC 241000Z 10004KT CAVOK 18/17 A2998 RMK TRACE SC NOSIG=
200912241100 METAR MROC 241100Z 11003KT CAVOK 17/17 A2999 RMK TRACE SC NOSIG=
200912241200 METAR MROC 241200Z 00000KT CAVOK 17/17 A3001 RMK TRACE SC NOSIG=
200912241300 METAR MROC 241300Z 11004KT CAVOK 20/17 A3004 RMK TRACE SC NOSIG=
200912241400 METAR MROC 241400Z 11004KT CAVOK 23/17 A3005 RMK TRACE SC NOSIG=
200912241500 METAR MROC 241500Z 24005KT 9999 FEW030 26/18 A3006 NOSIG=
200912241600 METAR MROC 241600Z 26006KT 9999 FEW030 26/19 A3005 NOSIG=
200912241700 METAR MROC 241700Z 25005KT 9999 SCT025 27/19 A3003 NOSIG=
200912241800 METAR MROC 241800Z 29005KT 9999 SCT025 27/20 A3001 NOSIG=
200912241900 METAR MROC 241900Z 26012KT 9999 SCT025TCU 28/21 A2998 NOSIG=
200912242000 METAR MROC 242000Z 23010KT 9999 SCT030TCU 28/21 A2996 NOSIG=
200912242100 METAR MROC 242100Z 24009KT 9999 SCT025TCU 27/21 A2995 RMK HZY NOSIG=
200912242200 METAR MROC 242200Z 25011KT 9999 FEW010 SCT020TCU 25/22 A2996 RMK HZY BECMG 7000 VCSH=
200912242300 METAR MROC 242300Z 26008KT 9999 SCT010 SCT020 23/22 A2998 RMK HZY BECMG 7000 -RA VCFG=
200912250000 METAR MROC 250000Z 24007KT 9999 SCT010 SCT020 22/22 A3000 BECMG 7000 -RA VCFG=
200912250100 METAR MROC 250100Z 25005KT 9999 FEW010 BKN025 21/21 A3002 NOSIG=
200912250200 METAR MROC 250200Z 24003KT 9999 FEW010 BKN030 21/21 A3004 NOSIG=
200912250300 METAR MROC 250300Z 00000KT 9999 SCT006 BKN030 21/21 A3005 RMK VIS 7000 N/NE/S DUE LOW ST NOSIG=
200912250400 METAR MROC 250400Z 00000KT 9999 FEW006 BKN030 21/21 A3005 RMK VIS 7000 N/NE/S DUE LOW ST NOSIG=
200912250500 METAR MROC 250500Z 00000KT 7000 VCFG FEW006 BKN025 21/21 A3004 RMK VIS W/E UNLD NOSIG=
200912250600 METAR MROC 250600Z 00000KT 7000 VCFG SCT025 21/21 A3002 RMK VIS E UNLD NOSIG=
200912250700 METAR MROC 250700Z 00000KT 7000 VCFG FEW006 SCT020 20/20 A3001 NOSIG=
200912250800 METAR MROC 250800Z 10004KT 7000 VCFG FEW006 19/19 A2998 NOSIG=
200912250900 METAR MROC 250900Z 09003KT 8000 VCFG NSC 19/18 A2999 NOSIG=
200912251000 METAR MROC 251000Z 06003KT CAVOK 19/18 A3000 RMK TRACE SC VIS 7KM W/N DUE FG NOSIG=
200912251100 METAR MROC 251100Z 08004KT CAVOK 18/17 A2999 RMK TRACE SC VIS 7000 DUE FG NOSIG=
200912251101 METAR MROC 251101Z 08004KT CAVOK 18/17 A2999 RMK TRACE SC VIS 7000 W/NW DUE FG NOSIG=
200912251200 METAR MROC 251200Z 10005KT 9999 VCFG NSC 18/17 A3000 RMK TRACE SI HZ ARND VIS 7000W NOSIG=
200912251300 METAR MROC 251300Z 11002KT CAVOK 20/17 A3002 RMK TRACE SC CI LGT HZ ARND NOSIG=
200912251400 METAR MROC 251400Z 00000KT CAVOK 24/17 A3003 RMK TRACE SC LGT HZ ARND NOSIG=
200912251500 METAR MROC 251500Z 24005KT CAVOK 26/18 A3004 RMK TRACE SC LGT HZ ARND=
200912251600 METAR MROC 251600Z 24005KT CAVOK 27/19 A3004 RMK TRACE CU HZY NOSIG=
200912251700 METAR MROC 251700Z 25005KT 9999 FEW040 28/19 A3002 RMK HZY NOSIG=
200912251800 METAR MROC 251800Z 24008KT 9999 FEW040 29/20 A3000 RMK HZY NOSIG=
200912251900 METAR MROC 251900Z 24009KT 9999 SCT040 28/21 A2997 RMK HZY NOSIG=
200912252000 METAR MROC 252000Z 25011KT 9999 SCT035 28/22 A2996 RMK HZY NOSIG=
200912252100 METAR MROC 252100Z 28008KT 9999 RA FEW015 BKN035 27/21 A2996 BECMG 7000=
200912252200 METAR MROC 252200Z 00000KT 9999 VCSH FEW020 SCT030 22/21 A2997 RETS RMK SCT100 VIS SW/W 6KM NOSIG=
200912252300 METAR MROC 252300Z 00000KT 9999 FEW030 SCT100 22/21 A2999 RMK FEW250 TCU DST S/SW/NE NOSIG=
200912260000 METAR MROC 260000Z 00000KT 9999 FEW035 22/21 A3000 RMK FEW120 FEW250 TCU DST S NOSIG=
200912260100 METAR MROC 260100Z 00000KT 9999 FEW015 BKN025 22/22 A3002 NOSIG=
200912260200 METAR MROC 260200Z 00000KT 9999 VCFG FEW010 SCT015 22/22 A3004 RMK VIS 6KM SW/W DUE ST NOSIG=
200912260300 METAR MROC 260300Z 00000KT 9999 VCFG FEW008 SCT020 21/21 A3005 RMK VIS SW W 6 KMS DUE LOW ST NOSIG=
200912260400 METAR MROC 260400Z 00000KT 9999 VCFG FEW010 SCT030 20/20 A3004 RMK VIS SW 8000 NOSIG=
200912260500 METAR MROC 260500Z 00000KT 9999 FEW030 20/20 A3003 RMK TRACE ST NOSIG=
200912260600 METAR MROC 260600Z 00000KT 9999 FEW030 20/18 A3001 NOSIG=
200912260700 METAR MROC 260700Z 11912KT 9999 FEW030 20/18 A3001 NOSIG=
200912260800 METAR MROC NIL=
200912260900 METAR MROC 260900Z 12011KT 9999 FEW030 21/18 A2996 NOSIG=
200912261000 METAR MROC 261000Z 12010KT 9999 FEW030 21/17 A2997 NOSIG=
200912261100 METAR MROC 261100Z 10008KT 9999 FEW030 21/17 A2998 NOSIG=
200912261200 METAR MROC 261200Z 11015KT 9999 FEW030 20/17 A2999 NOSIG=
200912261300 METAR MROC 261300Z 10010KT 9999 FEW030 22/16 A3001 NOSIG=
200912261400 METAR MROC 261400Z 10013G24KT 9999 FEW035 24/16 A3004 NOSIG=
200912261500 METAR MROC 261500Z 08013KT 9999 FEW035 26/16 A3005 NOSIG=
200912261600 METAR MROC 261600Z 11012KT CAVOK 27/16 A3004 NOSIG=
200912261700 METAR MROC 261700Z 10011G21KT CAVOK 27/16 A3003 NOSIG=
200912261800 METAR MROC 261800Z 11013KT 9999 FEW040 28/16 A3001 NOSIG=
200912261900 METAR MROC 261900Z 12009KT 9999 FEW045 29/16 A2998 NOSIG=
200912262000 METAR MROC 262000Z 12010KT 9999 FEW045 29/16 A2996 RMK TCU DST S NOSIG=
200912262100 METAR MROC 262100Z 12007KT 9999 FEW040 29/17 A2995 RMK TCU DST SSW NOSIG=
200912262200 METAR MROC 262200Z 16007KT 9999 FEW035 27/18 A2996 BECMG 22007KT=
200912262300 METAR MROC 262300Z 18004KT 9999 FEW035 24/22 A2998 NOSIG=
200912270000 METAR MROC 270000Z 16004KT 9999 FEW015TCU 23/18 A3000 NOSIG=
200912270100 METAR MROC 270100Z 13005KT 9999 FEW015 23/18 A3003 BECMG 06008KT CAVOK=
200912270200 METAR MROC 270200Z 09004KT 9999 FEW020 21/18 A3006 NOSIG=
200912270300 METAR MROC 270300Z 00000KT 9999 FEW030 20/18 A3008 NOSIG=
200912270400 METAR MROC 270400Z 03005KT CAVOK 20/17 A3008 RMK TRACE SC NOSIG=
200912270500 METAR MROC 270500Z 07003KT CAVOK 19/17 A3007 RMK TRACE SC NOSIG=
200912270600 METAR MROC 270600Z 11005KT 9999 FEW025 18/17 A3007 RMK OCNL LTNG DST S NOSIG=
200912270700 METAR MROC 270700Z 08006KT 9999 FEW025 18/16 A3007 NOSIG=
200912270800 METAR MROC 270800Z 08005KT 9999 FEW030 18/16 A3005=
200912270900 METAR MROC 270900Z 08007KT 9999 FEW030 18/16 A3003=
200912271000 METAR MROC 271000Z 09005KT 9999 FEW030 18/15 A3002=
200912271100 METAR MROC 271100Z 10005KT CAVOK 18/15 A3003 RMK SCT250=
200912271200 METAR MROC 271200Z 06007KT CAVOK 18/15 A3003 RMK SCT250=
200912271300 METAR MROC 271300Z 05005KT CAVOK 21/16 A3005 RMK FEW250 NOSIG=
200912271400 METAR MROC 271400Z 05002KT CAVOK 23/16 A3008 RMK FEW250 NOSIG=
200912271500 METAR MROC 271500Z 30003KT CAVOK 25/17 A3008 RMK FEW250 NOSIG=
200912271600 METAR MROC 271600Z 12008KT CAVOK 27/15 A3007 RMK SCT250 NOSIG=
200912271700 METAR MROC 271700Z 13007KT CAVOK 29/15 A3006 RMK BKN250 NOSIG=
200912271800 METAR MROC 271800Z 13006KT 9999 FEW045 BKN250 28/16 A3004 NOSIG=
200912271900 METAR MROC 271900Z 16005KT 9999 FEW040 BKN080 28/16 A3001 NOSIG=
200912272000 METAR MROC 272000Z 25008KT 9999 FEW040 SCT080 27/19 A2999 NOSIG=
200912272100 METAR MROC 272100Z 23007KT 9999 FEW045 SCT070 27/19 A2998 RMK FEW250 NOSIG=
200912272200 METAR MROC 272200Z 24010KT 9999 FEW045 SCT070 BKN250 26/21 A2998 RMK HZ QUAD W RN DST SE CB DST S NOSIG=
200912272300 METAR MROC 272300Z 26010KT 9999 FEW020 SCT040 BKN250 23/22 A3000 RMK RN QUAD N VIS 5000 N/W DUE LOW ST NOSIG=
200912280000 METAR MROC 280000Z 25005KT 6000 3000SW -RA VCFG SCT010 OVC020 22/21 A3002 NOSIG=
200912280100 METAR MROC 280100Z 23003KT 7000 3000SW VCFG FEW006 BKN020 22/21 A3005 RERA RMK VIS 5KM N BECMG 09005KT=
200912280200 METAR MROC 280200Z 00000KT 7000 3000SW VCFG FEW020 BKN100 21/21 A3007 RMK VIS E/SE UNLD BECMG 09005KT 9999=
200912280300 METAR MROC 280300Z 09003KT 9999 VCFG FEW002 SCT030 21/18 A3009 RMK SCT120 VIS SW/W 7KM DUE ST NOSIG=
200912280400 METAR MROC 280400Z 00000KT 9999 VCFG FEW002 BKN120 21/18 A3009 RMK FEW030 VIS 7KM S/SW DUE ST NOSIG=
200912280500 METAR MROC 280500Z 00000KT 9999 FEW030 SCT120 21/18 A3008 RMK SCT250 ST S/SW NOSIG=
200912280600 METAR MROC 280600Z 00000KT 9999 SCT035 BKN120 21/17 A3007 RMK ST SW/W NOSIG=
200912280700 METAR MROC 280700Z 12005KT 9999 FEW035 SCT120 20/16 A3004 RMK FEW250 NOSIG=
200912280800 METAR MROC 280800Z 12005KT CAVOK 20/16 A3003 RMK FEW120 FEW250=
200912280900 METAR MROC 280900Z 12006KT CAVOK 20/15 A3003 RMK FEW120=
200912281000 METAR MROC 281000Z 08007KT CAVOK 19/15 A3004 RMK FEW120=
200912281100 METAR MROC 281100Z 06006KT CAVOK 18/15 A3005=
200912281200 METAR MROC 281200Z 12009KT CAVOK 19/15 A3006=
200912281300 METAR MROC 281300Z 12010KT CAVOK 20/15 A3008 RMK TRACE SC NOSIG=
200912281400 METAR MROC 281400Z 13011G21KT CAVOK 23/13 A3010 RMK TRACE SC NOSIG=
200912281500 METAR MROC 281500Z 11012G23KT CAVOK 25/12 A3011 RMK TRACE SC NOSIG=
200912281600 METAR MROC 281600Z 09013KT CAVOK 26/11 A3011 RMK FEW070 VEL MAX VTO 18KT NOSIG=
200912281700 METAR MROC 281700Z 08015KT CAVOK 27/11 A3009 RMK FEW060 VEL MAX VTO 20KT NOSIG=
200912281800 METAR MROC 281800Z 08010G20KT 060V120 CAVOK 28/13 A3007 RMK FEW060 NOSIG=
200912281900 METAR MROC 281900Z 07012KT CAVOK 28/13 A3004 RMK FEW050 VEL MAX VTO 20KT NOSIG=
200912282000 METAR MROC 282000Z 08010G21KT CAVOK 28/12 A3001 RMK FEW050 TCU DST W NOSIG=
200912282100 METAR MROC 282100Z 05015KT 9999 FEW025 28/23 A2999 RMK TCU DST W NOSIG=
200912282200 METAR MROC 282200Z 13008KT 9999 SCT025 26/16 A2999 RMK TCU DST W NOSIG=
200912282300 METAR MROC 282300Z 10007KT 9999 SCT020 23/16 A3001 NOSIG=
200912290000 METAR MROC 290000Z 14004KT 9999 SCT018 22/17 A3003 NOSIG=
200912290100 METAR MROC 290100Z 08006KT 9999 SCT020 21/16 A3005 NOSIG=
200912290200 METAR MROC 290200Z 06008KT 9999 SCT020 21/15 A3007 NOSIG=
200912290300 METAR MROC 290300Z 08005KT CAVOK 20/16 A3009 RMK TRACE SC NOSIG=
200912290400 METAR MROC 290400Z 10011KT CAVOK 20/16 A3007 RMK TRACE SC NOSIG=
200912290500 METAR MROC 290500Z 11010G20KT CAVOK 21/15 A3005 RMK TRACE SC NOSIG=
200912290600 METAR MROC 290600Z 12012KT CAVOK 22/14 A3003 RMK TRACE SC NOSIG=
200912290700 METAR MROC 290700Z 12011G21KT CAVOK 21/13 A3002 RMK TRACE SC=
200912290800 METAR MROC NIL=
200912290900 METAR MROC NIL=
200912291000 METAR MROC NIL=
200912291100 METAR MROC NIL=
200912291200 METAR MROC 291200Z 11014G25KT 9999 FEW040 20/16 A3001 RMK DZ DST N NE E=
200912291300 METAR MROC 291300Z 13015KT 9999 SCT030 21/20 A3004 RMK PCPN DST N NE NOSIG=
200912291400 METAR MROC 291400Z 12011KT 9999 SCT030 23/17 A3006 RMK PCPN DST N NE NOSIG=
200912291500 METAR MROC 291500Z 08012KT 9999 SCT025 26/17 A3008 RMK PCPN N NE E NOSIG=
200912291600 METAR MROC 291600Z 12014KT 9999 BKN025 26/18 A3008 RMK PCPN DST NW N NE E NOSIG=
200912291700 METAR MROC 291700Z 09010KT 9999 BKN025 25/15 A3007 RMK PCPN NW N NE E NOSIG=
200912291800 METAR MROC 291800Z 08015G25KT 9999 FEW025 SCT250 27/14 A3003 RMK PCPN N NE NOSIG=
200912291900 METAR MROC 291900Z 07018G28KT 9999 FEW025 SCT250 28/14 A2999 RMK PCPN N NE NOSIG=
200912292000 METAR MROC 292000Z 07018G28KT 9999 FEW025 SCT250 27/14 A2997 RMK PCPN DST NE NOSIG=
200912292100 METAR MROC 292100Z 07019KT 9999 FEW030 BKN250 26/13 A2997 RMK VEL MAX VTO 24KT NOSIG=
200912292200 METAR MROC 292200Z 08016KT 9999 FEW030 BKN250 25/12 A2997 RMK PCPN DST N NE NOSIG=
200912292300 METAR MROC 292300Z 06013KT 9999 FEW030 BKN250 24/13 A2999 RMK VEL MAX VTO 21KT DZ N NE NOSIG=
200912300000 METAR MROC 300000Z 09009KT CAVOK 22/13 A3000 RMK SCT250 VEL MAX VTO 14KT NOSIG=
200912300100 METAR MROC 300100Z 11011KT CAVOK 22/14 A3002 RMK FEW250 NOSIG=
200912300200 METAR MROC 300200Z 12011KT CAVOK 21/15 A3004 RMK FEW250 NOSIG=
200912300300 METAR MROC 300300Z 11008KT CAVOK 21/14 A3005 RMK FEW110 NOSIG=
200912300400 METAR MROC 300400Z 12010KT CAVOK 21/12 A3007 RMK TRACE AC VEL MAX VTO 15KT NOSIG=
200912300500 METAR MROC 300500Z 10008KT CAVOK 20/13 A3006 NOSIG=
200912300600 METAR MROC 300600Z 12008KT CAVOK 20/13 A3004 RMK VEL MAX VTO 13KT NOSIG=
200912300700 METAR MROC 300700Z 11011KT CAVOK 20/12 A3002 RMK VEL MAX VTO 16KT NOSIG=
200912300800 METAR MROC 300800Z 11008KT CAVOK 19/14 A3001 NOSIG=
200912300900 METAR MROC 300900Z 10012KT CAVOK 20/12 A3000 NOSIG=
200912301000 METAR MROC 301000Z 10010KT CAVOK 20/12 A3001 RMK VEL MAX VTO 16KT NOSIG=
200912301100 METAR MROC 301100Z 11010KT CAVOK 19/14 A3002 NOSIG=
200912301200 METAR MROC 301200Z 10010KT CAVOK 19/14 A3004 RMK TRACE SC NOSIG=
200912301300 METAR MROC 301300Z 11010KT CAVOK 21/14 A3006 RMK TRACE SC=
200912301400 METAR MROC 301400Z 10014KT CAVOK 23/14 A3008 RMK TRACE SC VEL MAX VTO 21KT NOSIG=
200912301500 METAR MROC 301500Z 09015KT CAVOK 25/13 A3008 RMK TRACE SC VEL MAX VTO 21KT NOSIG=
200912301600 METAR MROC 301600Z 10014KT 9999 FEW045 27/11 A3007 NOSIG=
200912301700 METAR MROC 301700Z 09016KT 9999 FEW040 27/13 A3006 RMK VEL MAX VTO 22KT NOSIG=
200912301800 METAR MROC 301800Z 09014KT 9999 FEW045 27/14 A3004 RMK FEW070 VEL MAX VTO 21KT NOSIG=
200912301900 METAR MROC 301900Z 09014KT 9999 SCT045 26/15 A3002 RMK FEW080 VEL MAX VTO 19KT NOSIG=
200912302000 METAR MROC 302000Z 08016KT 9999 FEW045 27/12 A2998 RMK FEW080 VEL MAX VTO 20KT NOSIG=
200912302100 METAR MROC 302100Z 08015KT 9999 FEW045 25/11 A2997 RMK FEW120 VEL MAX VTO  21KT NOSIG=
200912302200 METAR MROC 302200Z 09013KT CAVOK 26/11 A2996 RMK FEW120 VEL/MAX VTO  19KT NOSIG=
200912302300 METAR MROC 302300Z 08015G25KT CAVOK 24/14 A2997 NOSIG=
200912310000 METAR MROC 310000Z 08015KT CAVOK 23/14 A2999 NOSIG=
200912310100 METAR MROC 310100Z 09010KT CAVOK 22/13 A3001 NOSIG=
200912310200 METAR MROC 310200Z 11010KT CAVOK 22/14 A3003 NOSIG=
200912310300 METAR MROC 310300Z 11012KT CAVOK 21/15 A3005 RMK TRACE SC NOSIG=
200912310400 METAR MROC 310400Z 11010KT CAVOK 21/15 A3006 RMK TRACE SC NOSIG=
200912310500 METAR MROC 310500Z 13013KT CAVOK 20/15 A3005 RMK TRACE SC NOSIG=
200912310600 METAR MROC 310600Z 13010KT CAVOK 21/15 A3003 RMK TRACE SC NOSIG=
200912310700 METAR MROC 310700Z 10010KT CAVOK 21/15 A3001 RMK TRACE SC NOSIG=
200912310800 METAR MROC 310800Z 10012KT CAVOK 21/15 A2999 RMK TRACE SC NOSIG=
200912310900 METAR MROC 310900Z 13006KT CAVOK 20/16 A3000 RMK TRACE SC NOSIG=
200912311000 METAR MROC 311000Z 09007KT CAVOK 20/16 A3000 RMK TRACE SC NOSIG=
200912311100 METAR MROC 311100Z 14009KT CAVOK 20/16 A3001 RMK TRACE SC NOSIG=
200912311200 METAR MROC 311200Z 13013KT CAVOK 20/16 A3002 RMK TRAC4E SC NOSIG=
200912311300 METAR MROC 311300Z 12012KT 9999 FEW045 21/16 A3004 NOSIG=
200912311400 METAR MROC 311400Z 09013KT 9999 FEW040 24/16 A3006 RMK RN DST E VEL MAX VTO  18KT NOSIG=
200912311500 METAR MROC 311500Z 09016G26KT 9999 FEW040 25/16 A3008 RMK RN DST E NOSIG=
200912311600 METAR MROC 311600Z 10014G25KT 9999 FEW040 26/16 A3006 NOSIG=
200912311700 METAR MROC 311700Z 10015G25KT 9999 FEW040 27/15 A3006 RMK RN DST E NOSIG=
200912311800 METAR MROC 311800Z 11013KT 9999 SCT040 27/15 A3004 RMK RN DST E VEL MAX VTO 19KT NOSIG=
200912311900 METAR MROC 311900Z 11013KT 9999 FEW040 28/14 A3001 RMK FEW130 RN DST E VEL MAX VTO  19KT NOSIG=
200912312000 METAR MROC 312000Z 12011KT 9999 FEW040 28/15 A2998 RMK FEW130 RN DST E VEL  MAX  VTO  18KT NOSIG=
200912312100 METAR MROC 312100Z 11012KT 9999 FEW040 28/15 A2998 NOSIG=
200912312200 METAR MROC 312200Z 11012KT 9999 FEW045 26/15 A2998 NOSIG=
200912312300 METAR MROC 312300Z 11008KT 9999 FEW045 25/15 A2999 NOSIG=
