201001010000 METAR MROC 010000Z 12012KT 9999 FEW045 23/17 A3001 BECMG=
201001010100 METAR MROC 010100Z 11012KT 9999 FEW045 22/17 A3002 BECMG=
201001010200 METAR MROC 010200Z 12015KT 9999 FEW045 22/17 A3004 BECMG=
201001010300 METAR MROC 010300Z 10016KT 9999 FEW045 22/17 A3004 BECMG=
201001010400 METAR MROC 010400Z 12010KT 9999 FEW045 22/17 A3005 BECMG=
201001010500 METAR MROC 010500Z 10013KT 9999 FEW045 22/15 A3004 BECMG=
201001010600 METAR MROC 010600Z 11007KT 9999 FEW045 21/16 A3003 BECMG=
201001010700 METAR MROC 010700Z 09003KT 9999 FEW045 21/16 A3000 BECMG=
201001010800 METAR MROC 010800Z 08005KT CAVOK 20/16 A2998 RMK TRACE SC=
201001010900 METAR MROC 010900Z 07006KT CAVOK 20/16 A2998 RMK TRACE SC=
201001011000 METAR MROC 011000Z 11004KT CAVOK 20/16 A2998 RMK TRACE SC=
201001011100 METAR MROC 011100Z 06005KT CAVOK 20/16 A2999 RMK TRACE SC=
201001011200 METAR MROC 011200Z 07003KT 9999 FEW030 20/16 A3001 BECMG=
201001011300 METAR MROC 011300Z 10007KT CAVOK 22/16 A3002 RMK TRACE SC AC DZ DST NE BECMG=
201001011400 METAR MROC 011400Z 12011KT CAVOK 24/17 A3004 RMK TRACE SC AC DZ DST NE E BECMG=
201001011500 METAR MROC 011500Z 09016KT 9999 FEW045 25/17 A3005 RMK DZ DST NE E BECMG=
201001011600 METAR MROC 011600Z 08014G24KT 9999 FEW040 26/16 A3004 BECMG=
201001011700 METAR MROC 011700Z 08014KT 9999 FEW035 27/16 A3003 BECMG=
201001011800 METAR MROC 011800Z 09015KT 9999 FEW040 27/14 A3000 BECMG=
201001011900 METAR MROC 011900Z 10013KT 9999 FEW040 28/12 A2997 BECMG=
201001012000 METAR MROC 012000Z 08014KT 9999 FEW045 29/10 A2995 BECMG=
201001012100 METAR MROC 012100Z 09012KT CAVOK 28/12 A2995 RMK FEW050 VEL MAX VTO 19KT BECMG=
201001012200 METAR MROC 012200Z 11011KT 9999 FEW045 26/13 A2995 RMK DZ DST NE VEL MAX VTO 18KT BECMG=
201001012300 METAR MROC 012300Z 10010KT 080V150 9999 FEW045 24/14 A2996 BECMG=
201001020000 METAR MROC 020000Z 16006KT CAVOK 21/14 A2997 RMK FEW050=
201001020100 METAR MROC 020100Z 09006KT CAVOK 21/15 A2999 BECMG=
201001020200 METAR MROC 020200Z 12010KT CAVOK 21/16 A3000 RMK TRACE SC BECMG=
201001020300 METAR MROC 020300Z 11012KT CAVOK 21/16 A3001 BECMG=
201001020400 METAR MROC 020400Z 11009G19KT 9999 FEW035 21/16 A3000 BECMG=
201001020500 METAR MROC 020500Z 11014KT 9999 FEW035 22/16 A2998=
201001020600 METAR MROC 020600Z 08011KT 9999 FEW035 20/16 A2998=
201001020700 METAR MROC 020700Z 09011KT 9999 FEW035 20/16 A2996=
201001020800 METAR MROC 020800Z 09010KT 9999 BKN035 21/17 A2993=
201001020900 METAR MROC 020900Z 10016KT 9999 BKN035 21/16 A2992=
201001021000 METAR MROC 021000Z 09012KT 9999 BKN035 21/16 A2993=
201001021100 METAR MROC 021100Z 10010KT 9999 FEW035 21/15 A2994=
201001021200 METAR MROC 021200Z 11011KT 9999 FEW035 20/14 A2995=
201001021300 METAR MROC 021300Z 11010KT CAVOK 22/14 A2998 RMK TRACE SC VEL MAX VTO 16KT HZ E BECMG=
201001021400 METAR MROC 021400Z 10012KT CAVOK 23/16 A2998 RMK FEW070 VEL MAX VTO 21KT BECMG=
201001021500 METAR MROC 021500Z 09016G29KT CAVOK 25/15 A3000 RMK FEW070 BECMG=
201001021600 METAR MROC 021600Z 08017KT CAVOK 26/15 A2999 RMK FEW070 VEL MAX VTO 22KT NO CHECK TEXT NEW ENDING ADDED KATLYTAA=
201001021700 METAR MROC 021700Z 09019G30KT 9999 FEW045 26/15 A2997 BECMG=
201001021800 METAR MROC 021800Z 09020G31KT CAVOK 26/15 A2994 RMK FEW050 BECMG=
201001021900 METAR MROC 021900Z 08023KT 9999 FEW045 26/15 A2990 RMK FU NR APCH 07 VEL MAX VTO 27KT BECMG=
201001022000 METAR MROC 022000Z 10017G29KT 9999 FEW045 26/15 A2988 RMK LGT FU NR RWY BECMG=
201001022100 METAR MROC 022100Z 09020KT 9999 SCT030 25/15 A2986 RMK PCPN DST NR BECMG=
201001022200 METAR MROC 022200Z 08014G28KT 9999 SCT030 25/14 A2986 RMK PCPN DST NE BECMG=
201001022300 METAR MROC 022300Z 11014G28KT 9999 FEW030 24/13 A2987 RMK PCPN DST NE BECMG=
201001030000 METAR MROC 030000Z 13012KT 9999 FEW030 22/14 A2989 RMK PCPN DST NE BECMG=
201001030100 METAR MROC 030100Z 09017KT 9999 FEW030 22/14 A2991 BECMG=
201001030200 METAR MROC 030200Z 11012KT 9999 FEW030 21/15 A2993 BECMG=
201001030300 METAR MROC 030300Z 13011KT 9999 FEW030 21/15 A2994 BECMG=
201001030400 METAR MROC 030400Z 09016KT CAVOK 21/15 A2994 BECMG=
201001030500 METAR MROC 030500Z 11013KT CAVOK 21/14 A2994 BECMG=
201001030600 METAR MROC 030600Z 12016KT CAVOK 20/15 A2992 BECMG=
201001030700 METAR MROC 030700Z 14007KT CAVOK 20/13 A2990 BECMG=
201001030800 METAR MROC 030800Z 11006KT CAVOK 20/13 A2989 BECMG=
201001030900 METAR MROC 030900Z 00000KT CAVOK 20/13 A2988 BECMG=
201001031000 METAR MROC 031000Z 12005KT CAVOK 19/14 A2988 BECMG=
201001031100 METAR MROC 031100Z 12010KT CAVOK 19/14 A2989 BECMG=
201001031200 METAR MROC 031200Z 13010KT CAVOK 19/15 A2991 RMK TRACE SC CU BECMG=
201001031300 METAR MROC 031300Z 12011KT CAVOK 20/15 A2992 RMK TRACE CU BECMG=
201001031400 METAR MROC 031400Z 12012G22KT CAVOK 22/15 A2994 RMK BKN270 BECMG=
201001031500 METAR MROC 031500Z 12012KT CAVOK 24/16 A2996 RMK BKN250 BECMG=
201001031600 METAR MROC 031600Z 10014KT CAVOK 26/15 A2996 RMK SCT250 BECMG=
201001031700 METAR MROC 031700Z 09014KT CAVOK 26/15 A2993 RMK SCT250 BECMG=
201001031800 METAR MROC 031800Z 10013KT 9999 FEW045 SCT250 27/16 A2992 BECMG=
201001031900 METAR MROC 031900Z 13012KT 9999 FEW040 SCT250 27/16 A2989 BECMG=
201001032000 METAR MROC 032000Z 12012KT 9999 FEW040 27/16 A2987 BECMG=
201001032100 METAR MROC 032100Z 12013KT 9999 FEW040 27/16 A2986 BECMG=
201001032200 METAR MROC 032200Z 10011KT 9999 FEW040 25/16 A2989 BECMG=
201001032300 METAR MROC 032300Z 12009KT 9999 FEW035 24/15 A2989 BECMG=
201001040000 METAR MROC 040000Z 10007KT CAVOK 22/14 A2991 RMK TRACE SC BECMG=
201001040001 METAR MROC 040001Z COR 11007KT CAVOK 22/14 A2991 RMK TRACE SC BECMG=
201001040100 METAR MROC 040100Z 10009KT CAVOK 22/14 A2992 RMK TRACE SC BECMG=
201001040200 METAR MROC 040200Z 11011KT CAVOK 21/14 A2993 RMK TRACE SC BECMG=
201001040300 METAR MROC 040300Z 11012KT CAVOK 21/14 A2994 RMK TRACE SC BECMG=
201001040400 METAR MROC 040400Z 12009KT CAVOK 21/11 A2994 RMK VEL MAX VTO 17KT TRACE SC BECMG=
201001040500 METAR MROC 040500Z 12006KT CAVOK 20/12 A2994 RMK TRACE SC/SI BECMG=
201001040600 METAR MROC 040600Z 07006KT CAVOK 19/13 A2994 RMK TRACE SC/SI BECMG=
201001040700 METAR MROC 040700Z 07003KT CAVOK 19/11 A2993 RMK TRACE SC/SI BECMG=
201001040800 METAR MROC 040800Z 07004KT CAVOK 19/13 A2991 RMK TRACE SC BECMG=
201001040900 METAR MROC 040900Z 10007KT 9999 SKC 19/12 A2990 BECMG=
201001041000 METAR MROC 041000Z 07006KT 9999 SKC 19/13 A2991 BECMG=
201001041100 METAR MROC 041100Z 11009G19KT 080V140 9999 SKC 19/12 A2991 BECMG=
201001041200 METAR MROC 041200Z 08007KT 050V110 CAVOK 19/11 A2993 RMK TRACE SC BECMG=
201001041300 METAR MROC 041300Z 11008KT CAVOK 21/10 A2995 RMK TRACE SC BECMG=
201001041400 METAR MROC 041400Z 12010KT CAVOK 24/12 A2997 RMK TRACE SC BECMG=
201001041500 METAR MROC 041500Z 12013KT CAVOK 26/14 A2998 RMK TRACE SC BECMG=
201001041600 METAR MROC 041600Z 11012KT CAVOK 28/15 A2998 RMK TRACE SC BECMG=
201001041700 METAR MROC 041700Z 11011KT CAVOK 28/14 A2997 RMK TRACE SC CU BECMG=
201001041800 METAR MROC 041800Z 10013KT CAVOK 29/14 A2995 RMK TRACE SC CU BECMG=
201001041900 METAR MROC 041900Z 11010KT CAVOK 30/15 A2992 RMK TRACE SC CU BECMG=
201001042000 METAR MROC 042000Z 12009KT 9999 FEW040 30/15 A2990 BECMG=
201001042100 METAR MROC 042100Z 11010KT 9999 FEW040 29/15 A2990 BECMG=
201001042200 METAR MROC 042200Z 09013KT 9999 FEW040 28/15 A2991 BECMG=
201001042300 METAR MROC 042300Z 10011KT 9999 FEW040 26/15 A2992 RMK VEL MAX VTO 18KT BECMG=
201001050000 METAR MROC 050000Z 11011KT 9999 FEW040 24/16 A2995 BECMG=
201001050100 METAR MROC 050100Z 11008KT 9999 FEW040 22/16 A2996 BECMG=
201001050200 METAR MROC 050200Z 09009KT CAVOK 22/15 A2999 BECMG=
201001050300 METAR MROC 050300Z 10005KT CAVOK 22/15 A3001 RMK TRACE SC BECMG=
201001050400 METAR MROC 050400Z 09008KT CAVOK 21/16 A3002 RMK TRACE SC BECMG=
201001050500 METAR MROC 050500Z 00000KT CAVOK 21/16 A3001 RMK TRACE SC BECMG=
201001050600 METAR MROC 050600Z 10005KT CAVOK 20/16 A3000 RMK TRACE SC BECMG=
201001050700 METAR MROC 050700Z 06010KT CAVOK 20/15 A2999 RMK TRACE SC BECMG=
201001050800 METAR MROC 050800Z 10005KT CAVOK 19/14 A2998 RMK TRACE SC BECMG=
201001050900 METAR MROC 050900Z 07012KT CAVOK 20/16 A2998 RMK TRACE SC BECMG=
201001051000 METAR MROC 051000Z 00000KT CAVOK 19/14 A2998 RMK TRACE SC BECMG=
201001051100 METAR MROC NIL=
201001051200 METAR MROC 051200Z 08007KT CAVOK 20/15 A3002 RMK TRACE SC BECMG=
201001051300 METAR MROC 051300Z 10003KT CAVOK 21/15 A3005 RMK TRACE CU=
201001051400 METAR MROC 051400Z 11002KT CAVOK 23/15 A3007 BECMG=
201001051500 METAR MROC 051500Z 12010KT CAVOK 26/14 A3006 BECMG=
201001051600 METAR MROC 051600Z 10010KT 9999 FEW045 27/15 A3005 BECMG=
201001051700 METAR MROC 051700Z 11012KT 9999 FEW045 27/16 A3003 BECMG=
201001051800 METAR MROC 051800Z 11012KT 9999 FEW045 28/16 A3001 BECMG=
201001051900 METAR MROC 051900Z 11011KT 9999 FEW045 29/15 A2998 BECMG=
201001052000 METAR MROC 052000Z 14011KT 9999 SCT035 27/16 A2996 RMK FEW045 BECMG=
201001052100 METAR MROC 052100Z 11008KT 9999 SCT035 26/17 A2996 BECMG=
201001052200 METAR MROC 052200Z 13010KT 9999 SCT040 27/17 A2995 BECMG=
201001052300 METAR MROC 052300Z 11009KT 9999 SCT035 SCT090 24/17 A2997 BECMG=
201001060000 METAR MROC 060000Z 13008KT 9999 FEW030 BKN080 23/17 A2999 RMK RN DST N NE E BECMG -DZ=
201001060100 METAR MROC 060100Z 13004KT 9999 -RA SCT030 BKN090 21/18 A3001 BECMG=
201001060200 METAR MROC 060200Z 00000KT 9999 FEW030 SCT100 21/18 A3003 RERA BECMG=
201001060300 METAR MROC 060300Z 08004KT 9999 FEW035 SCT100 22/17 A3004 BECMG=
201001060400 METAR MROC 060400Z 14002KT 9999 FEW035 21/16 A3000 RMK FEW100 BECMG=
201001060500 METAR MROC 060500Z 04009KT 9999 FEW035 SCT100 21/16 A3003 RMK VEL MAX VTO 15KT BECMG=
201001060600 METAR MROC 060600Z 05006KT 9999 FEW035 SCT100 21/16 A3002 BECMG=
201001060700 METAR MROC 060700Z 09007KT 9999 FEW035 SCT100 20/16 A3000 BECMG=
201001060800 METAR MROC 060800Z 11012KT 9999 FEW035 SCT100 20/16 A2997 BECMG=
201001060900 METAR MROC 060900Z 11013KT 9999 FEW035 20/16 A2997 RMK FEW100 VEL MAX VTO 18KT=
201001061000 METAR MROC 061000Z 10008KT 9999 FEW035 20/16 A2999=
201001061100 METAR MROC 061100Z VRB02KT 270V170 9999 FEW035 20/16 A3001=
201001061200 METAR MROC 061200Z VRB02KT 120V320 9999 FEW030 20/16 A3002 RMK PCPN DST N NE E=
201001061300 METAR MROC 061300Z 11008KT 9999 FEW035 21/16 A3005 RMK DZ DST N NE E BECMG=
201001061400 METAR MROC 061400Z 09011KT 9999 FEW035 24/17 A3007 RMK DZ DST N NE E BECMG=
201001061500 METAR MROC 061500Z 13007KT 9999 SCT030 SCT090 23/17 A3008 RMK DZ DST N NE E BECMG=
201001061600 METAR MROC 061600Z 16005KT 9999 090V210 SCT030 SCT080 25/17 A3006 RMK DZ DST N NE E BECMG=
201001061700 METAR MROC 061700Z 07008KT 9999 FEW030 SCT090 26/16 A3004 RMK VEL  MAX VTO 18KT DZ DST N NE E BECMG=
201001061800 METAR MROC 061800Z 09010KT 9999 FEW030 BKN090 26/16 A3002 RMK DZ DST N NE E BECMG=
201001061900 METAR MROC 061900Z 12007KT 9999 SCT030 BKN090 26/17 A2999 RMK DZ DST N NE E BECMG=
201001062000 METAR MROC 062000Z 12011KT 9999 FEW035 SCT100 25/16 A2997 RMK DZ DST N NE E BECMG=
201001062100 METAR MROC 062100Z 11012KT 9999 SCT040 24/17 A2995 RMK DZ DST N/NE/E FEW120 VEL MAX VTO 19KT BECMG=
201001062200 METAR MROC 062200Z 10013KT 9999 SCT040 23/16 A2994 RMK DZ DST N/NE/E FEW120 BECMG=
201001062300 METAR MROC 062300Z 10011KT 9999 FEW035 23/16 A2994 RMK DZ DST N/NW/S V TURRIALBA ERUPCION CENIZA BECMG=
201001070000 METAR MROC 070000Z 10012KT 9999 SCT035 22/16 A2994 RMK DZ DST N/NE VIS 7000NE DUE LOW ST V TURRIALBA ERUPCION CENIZA BECMG=
201001070100 METAR MROC 070100Z 09011KT 9999 SCT035 21/17 A2996 RMK DZ N V TURRIALBA ERUPCION CENIZA VEL MAX VTO 17KT BECMG=
201001070200 METAR MROC 070200Z 09010KT 9999 SCT035 21/17 A2998 RMK V TURRIALVA ERUPCION CENIZA VEL MAX VTO 15KT BECMG=
201001070300 METAR MROC 070300Z 11012KT 9999 SCT035 21/17 A2998 RMK VOLCAN TURRIALBA ERUPCION CENIZA BECMG=
201001070400 METAR MROC 070400Z 11012KT 9999 SCT035 21/17 A2999 RMK V TURRIALBA ERUPCION CENIZA BECMG=
201001070500 METAR MROC 070500Z 11008KT 9999 BKN035 21/18 A2998 RMK DZ DST E V TURRIALBA ERUPCION CENIZA=
201001070600 METAR MROC 070600Z 10009KT 9999 BKN035 21/17 A2998 RMK DZ DST E V TURRIALBA ERUPCION CENIZA=
201001070700 METAR MROC 070700Z 11010KT 9999 SCT035 21/17 A2996 RMK V TURRIALBA ERUPCION CENIZA=
201001070800 METAR MROC 070800Z 12007KT 9999 SCT035 20/17 A2995 RMK V TURRIALBA ERUPCION CENIZA=
201001070900 METAR MROC 070900Z 12013KT 9999 FEW030 21/16 A2993 RMK VEL MAX VTO  18KT V TURRIALBA ERUPCION CENIZA=
201001071000 METAR MROC 071000Z 12013G23KT 9999 SCT030 21/16 A2994 RMK V TURRIALBA ERUPCION CENIZA=
201001071100 METAR MROC 071100Z 12012KT 9999 SCT030 21/16 A2996 RMK V TURRIALBA ERUPCION CENIZA=
201001071200 METAR MROC 071200Z 12012KT 9999 SCT030 21/17 A2997 RMK RN DST NE/E V TURRIALBA ERUPCION CENIZA=
201001071300 METAR MROC 071300Z 12006KT 100V160 9999 FEW040 SCT080 22/16 A3001 RMK DZ DST N/NE V TURRIALBA ERUPCION CENIZA BECMG=
201001071400 METAR MROC 071400Z 12013KT CAVOK 23/16 A3002 RMK SCT080 V TURRIALBA ERUPCION CENIZA 15NM ESE FROM TIO VOR BECMG=
201001071500 METAR MROC 071500Z 10012KT CAVOK 25/15 A3002 RMK FEW060 V TURRIALBA ERUPCION /10 0N-83 8W/ CENIZA 15NM ESE FROM TIO VOR BECMG=
201001071600 METAR MROC 071600Z 10010KT CAVOK 26/15 A3002 RMK SCT070 VEL MAX VTO 15KT V TURRIALBA ERUPCION /10 0N-83 8W ELEV 3329M/ CENIZA 15NW ESE FRON TIO VOR BECMG=
201001071700 METAR MROC 071700Z 10011KT CAVOK 27/14 A3001 RMK SCT070 V TURRIALVA ERUPCION /10 0N-83 8W ELEV/3329M/ CENIZA 15NM ESE FROM TIO VOR BECMG=
201001071800 METAR MROC 071800Z 09009KT CAVOK 28/13 A2997 RMK FEW110 V TURRIALBA ERUPCION /10 0N-83 8W ELEV/3329M/ CENIZA 15NM ESE FROM TIO VOR BECMG=
201001071900 METAR MROC 071900Z 07018KT CAVOK 26/14 A2994 RMK BKN110 V TURRIALBA ERUPCION /10 0N-83 8W ELEV 3329M/ CENIZA 15NM ESE FROM TIO VOR BECMG=
201001072000 METAR MROC 072000Z 09013KT CAVOK 26/14 A2992 RMK SCT100 VEL MAX VTO 18KT BECMG=
201001072100 METAR MROC 072100Z 09011KT CAVOK 27/14 A2991 RMK SCT110 BECMG=
201001072200 METAR MROC 072200Z 09011KT CAVOK 26/24 A2992 RMK SCT130 BECMG=
201001072300 METAR MROC 072300Z 08014KT 9999 FEW035 SCT130 25/14 A2993 BECMG=
201001080000 METAR MROC 080000Z 08014KT CAVOK 23/14 A2994 RMK TRACE SC SCT130 BECMG=
201001080100 METAR MROC 080100Z 08007KT CAVOK 22/13 A2996 RMK TRACE SC SCT130 BECMG=
201001080200 METAR MROC 080200Z 08016KT CAVOK 22/13 A2998 RMK TRACE SC SCT130 BECMG=
201001080300 METAR MROC 080300Z 09010G24KT CAVOK 22/13 A2999 RMK TRACE SC BECMG=
201001080400 METAR MROC 080400Z 11012KT CAVOK 21/13 A2999 RMK TRACE SC BECMG=
201001080500 METAR MROC 080500Z 11014KT CAVOK 21/14 A2998 RMK TRACE SC BECMG=
201001080600 METAR MROC 080600Z 10013KT CAVOK 22/15 A2997 RMK TRACE SC BECMG=
201001080700 METAR MROC 080700Z 10010KT CAVOK 22/15 A2995 RMK TRACE SC BECMG=
201001080800 METAR MROC 080800Z 11010G20KT CAVOK 22/15 A2994 RMK TRACE SC BECMG=
201001080900 METAR MROC 080900Z 10013KT CAVOK 21/15 A2993 RMK TRACE SC BECMG=
201001081000 METAR MROC 081000Z 13017KT CAVOK 21/15 A2994 RMK TRACE SC BECMG=
201001081100 METAR MROC 081100Z 09010KT CAVOK 21/16 A2996 RMK TRACE SC BECMG=
201001081200 METAR MROC 081200Z 10015KT CAVOK 21/16 A2997 RMK TRACE SC SCT130 BECMG=
201001081300 METAR MROC 081300Z 11012KT CAVOK 29/16 A2998 RMK FEW110 BECMG=
201001081400 METAR MROC 081400Z 11014KT CAVOK 24/16 A3000 RMK FEW110 BECMG=
201001081500 METAR MROC 081500Z 12014KT CAVOK 25/16 A3001 RMK TRACE SC AC BECMG=
201001081600 METAR MROC 081600Z 10014G26KT 9999 FEW035 27/16 A3000 RMK FEW120 DZ DST NE BECMG=
201001081700 METAR MROC 081700Z 11015G25KT 9999 FEW035 BKN250 27/17 A2999 RMK DZ DST NE BECMG=
201001081800 METAR MROC 081800Z 10012KT 9999 FEW035 BKN250 28/17 A2997 RMK DZ DST NE BECMG=
201001081900 METAR MROC 081900Z 11014G24KT 9999 FEW040 SCT250 28/17 A2995 RMK DZ DST NE BECMG=
201001082000 METAR MROC 082000Z 10017G28KT 9999 FEW040 BKN250 26/16 A2994 RMK DZ DST NE BECMG=
201001082100 METAR MROC 082100Z 11016G26KT 9999 FEW035 SCT250 26/17 A2992 RMK DZ DST N NE BECMG=
201001082200 METAR MROC 082200Z 11016KT 9999 FEW035 24/16 A2993 RMK PCPN DST N NE VEL MAX VTO 21KT BECMG=
201001082300 METAR MROC 082300Z 11016KT 9999 FEW035 24/16 A2993 RMK PCPN DST N NE VEL MAX VTO 21KT BECMG=
201001082301 METAR MROC 082301Z 11016KT 9999 FEW035 24/16 A2993 RMK PCPN DST N NE VEL MAX VTO 21KT BECMG=
201001090000 METAR MROC 090000Z 10013KT 9999 FEW035 22/16 A2995 RMK VEL MAX VTO 21KT DZ DST N NE BECMG=
201001090100 METAR MROC 090100Z 11011KT 9999 FEW035 21/16 A2997 RMK VEL MAX VTO 16KT BECMG=
201001090200 METAR MROC 090200Z 10013KT 9999 FEW035 22/15 A2999 VEL MAX VT9 19KT BECMG=
201001090300 METAR MROC 090300Z 11013KT 9999 FEW030 21/16 A3001 RMK VEL MAX VTO 22KT BECMG=
201001090400 METAR MROC 090400Z 12014KT 9999 FEW030 21/14 A3001 RMK FEW200 VEL MAX VTO 20KT BECMG=
201001090500 METAR MROC 090500Z 12013KT CAVOK 21/14 A3000 RMK TRACE SC/CI VEL MAX VTO 20KT BECMG=
201001090600 METAR MROC 090600Z 10012KT 9999 FEW030 21/13 A2999 RMK FEW200 VEL MAX VTO 21KT BECMG=
201001090700 METAR MROC 090700Z 11013KT 9999 FEW200 20/14 A2997 RMK VEL MAX VTO 20KT BECMG=
201001090800 METAR MROC 090800Z 10013KT CAVOK 21/13 A2994 RMK TRACE CI VEL MAX VTO 19KT BECMG=
201001090900 METAR MROC 090900Z 10011KT CAVOK 21/13 A2993 RMK TRACE CI VEL MAX VTO 19KT BECMG=
201001091000 METAR MROC 091000Z 11013G23KT CAVOK 20/13 A2995 RMK TRACE CI BECMG=
201001091100 METAR MROC 091100Z 10012KT CAVOK 21/12 A2994 RMK TRACE SC VEL MAX VTO 23KT BECMG=
201001091200 METAR MROC 091200Z 10011KT 9999 FEW200 21/13 A2996 RMK VEL MAX VTO 19KT BECMG=
201001091300 METAR MROC 091300Z 11011KT CAVOK 21/14 A2999 RMK SCT250 BECMG=
201001091400 METAR MROC 091400Z 09014KT CAVOK 23/14 A3001 RMK SCT250 VEL MAX VTO 20KT BECMG=
201001091500 METAR MROC 091500Z 11011KT CAVOK 26/11 A3002 RMK SCT250 VEL MAX VTO 16KT BECMG=
201001091600 METAR MROC 091600Z 11014KT CAVOK 28/11 A3001 SCT300 BECMG=
201001091700 METAR MROC 091700Z 10011KT CAVOK 29/13 A3000 RMK FEW300 BECMG=
201001091800 METAR MROC 091800Z 11009KT CAVOK 29/15 A2998 RMK TRACE SC CI BECMG=
201001091900 METAR MROC 091900Z 13010KT CAVOK 30/14 A2995 RMK TRACE SC BECMG=
201001092000 METAR MROC 092000Z 09011KT 9999 FEW035 29/15 A2992 BECMG=
201001092100 METAR MROC 092100Z 12011KT 9999 FEW035 28/16 A2991 BECMG=
201001092200 METAR MROC 092200Z 14012KT 9999 SCT035 27/17 A2992 RMK DZ DST NE/E BECMG=
201001092300 METAR MROC 092300Z 12011KT 9999 SCT035 25/17 A2994 RMK DZ DST NE/E BECMG=
201001100000 METAR MROC 100000Z 12010G20KT 9999 SCT035 23/15 A2995 RMK FEW260 DZ DST NE/E BECMG=
201001100100 METAR MROC 100100Z 12010G20KT 9999 FEW035 22/15 A2997 RMK FEW120 BECMG=
201001100200 METAR MROC 100200Z 12013G24KT 9999 FEW035 SCT120 22/15 A2999 BECMG=
201001100300 METAR MROC 100300Z 11020G25KT CAVOK 22/15 A3002 RNK TRSCE SCT BECMG=
201001100400 METAR MROC 100400Z 11011KT CAVOK 21/16 A3003 RMK TRCE SC BECMG=
201001100500 METAR MROC 100500Z 11017KT CAVOK 21/16 A3002 RMK TRACE SC BECMG=
201001100600 METAR MROC 100600Z 11016KT CAVOK 21/16 A3001 RMK TRACE SC BECMG=
201001100700 METAR MROC 100700Z 11010KT CAVOK 22/16 A2999 RMK TRACE SC BECMG=
201001100800 METAR MROC 100800Z 11010G20KT CAVOK 21/16 A2997 RMK TRACE SC BECMG=
201001100900 METAR MROC 100900Z 11010KT 9999 FEW035 SCT130 21/16 A2997 BECMG=
201001101000 METAR MROC 101000Z 08010KT 9999 FEW035 SCT130 21/16 A2996 BECMG=
201001101100 METAR MROC 101100Z 09008KT 9999 FEW035 SCT130 21/17 A2997 BECMG=
201001101200 METAR MROC 101200Z 11008KT 9999 FEW030 BKN110 21/17 A2998 RMK PCPN DST NE BECMG=
201001101300 METAR MROC 101300Z 10010KT 9999 FEW030 BKN110 21/16 A3002 RMK RN DST N/NE/E BECMG=
201001101400 METAR MROC 101400Z 11013G24KT 9999 FEW035 BKN100 22/16 A3005 RMK RN DST N/NE/E BECMG=
201001101500 METAR MROC 101500Z 11014G25KT 9999 FEW035 BKN130 24/16 A3006 RMK FEW100 RN DST N/NE/E BECMG=
201001101600 METAR MROC 101600Z 11011G25KT 9999 FEW035 SCT280 24/16 A3006 RMK FEW130 RN DST N/NE/E BECMG=
201001101700 METAR MROC 101700Z 11010G22KT 9999 FEW035 BKN120 25/17 A3004 RMK FEW280 RN DST N/NE/E BECMG=
201001101800 METAR MROC 101800Z 01004KT 9999 FEW035 BKN120 27/15 A3002 RMK RN DST N/NE/E BECMG=
201001101900 METAR MROC 101900Z 11013G26KT 9999 SCT035 SCT120 26/16 A3000 RMK RN DST N/NE/E BECMG=
201001102000 METAR MROC 102000Z 12010G20KT 9999 SCT035 26/17 A2997 RMK FEW130 FEW28 HVH752 102000Z GG MPZZMAMX MUHAYMYX MYNNYMYX SAZZMAMX SBBRYZYX SCZZMAMX SEZZMAMX SKZZMAMX SPZZMAMX SVZZMAMX TAPAYMYX TJSJYMYX CHECK TEXT NEW ENDING ADDED KATLYTAA=
201001102100 METAR MROC 102100Z 11010G20KT 9999 SCT035 26/16 A2997 RMK DZ DST NE E FEW120 FEW250 BECMG=
201001102200 METAR MROC 102200Z 11014KT 9999 FEW035 SCT120 SCT250 24/16 A2997 RMK DZ DST NE E BECMG=
201001102300 METAR MROC 102300Z 11017G28KT 9999 FEW035 BKN250 21/16 A2997 RMK DZ DST N NE E SE FEW120 BECMG=
201001110000 METAR MROC 110000Z 12013KT 9999 FEW035 BKN250 21/16 A2998 RMK FEW120 DZ DST N NE E SE BECMG=
201001110100 METAR MROC 110100Z 13010G20KT 9999 FEW030 SCT250 21/16 A3001 BECMG=
201001110200 METAR MROC 110200Z 10014G24KT 9999 FEW040 21/16 A3003 BECMG=
201001110300 METAR MROC 110300Z 12014KT 9999 FEW040 21/17 A3003 VEL/ MAX VIENTO 23KT BECMG=
201001110400 METAR MROC 110400Z 12014KT 9999 FEW040 20/16 A3003 BECMG=
201001110500 METAR MROC 110500Z 12011KT 9999 FEW040 22/17 A3002 BECMG=
201001110600 METAR MROC 110600Z 10010KT 9999 SCT040 21/17 A3002 RMK VEL MAX VTO 16KT BECMG=
201001110700 METAR MROC NIL=
201001110800 METAR MROC NIL=
201001110900 METAR MROC NIL=
201001111000 METAR MROC 111000Z 13008KT 9999 FEW040 20/16 A2999=
201001111100 METAR MROC 111100Z 09008KT 9999 FEW040 20/15 A3000=
201001111200 METAR MROC 111200Z 14008KT 9999 SCT035 20/15 A3002 RMK PCPN DST N NE=
201001111300 METAR MROC 111300Z 07004KT 9999 FEW035 SCT250 22/15 A3004 RMK DZ DST QUAD N E BECMG 10015KT=
201001111400 METAR MROC 111400Z 12014KT 9999 FEW030 SCT250 22/15 A3006 RMK DZ DST QUAD N E BECMG=
201001111500 METAR MROC 111500Z 12012G23KT 9999 FEW030 SCT250 24/15 A3007 RMK DZ DST QUAD NE BECMG=
201001111600 METAR MROC 111600Z 11013G26KT 9999 FEW035 SCT250 25/15 A3006 RMK DZ DST QUAD N E BECMG=
201001111700 METAR MROC 111700Z 12019KT 9999 FEW035 SCT250 25/16 A3003 RMK DZ DST N NE E BECMG=
201001111800 METAR MROC 111800Z 10015G32KT 9999 FEW035 BKN250 25/14 A3002 RMK DZ DST N NE BECMG=
201001111900 METAR MROC 111900Z 10020G30KT 9999 FEW030 BKN240 24/16 A3000 RMK RN DST N NE E BECMG=
201001112000 METAR MROC 112000Z 10020G30KT 9999 FEW030 SCT240 25/15 A2998 RMK RN DST N NE E BECMG=
201001112100 METAR MROC 112100Z 12019G32KT 9999 FEW045 SCT250 23/15 A2996 RMK DZ DST N/NE BECMG=
201001112200 METAR MROC 112200Z 12016G29KT 080V140 9999 FEW045 SCT250 25/16 A2996 RMK DZ DST N/NE/E BECMG=
201001112300 METAR MROC 112300Z 11015G29KT 9999 FEW045 BKN250 21/15 A2998 RMK DZ DST N/NE/E VIS 8000NE DUE LOW ST BECMG=
201001120000 METAR MROC 120000Z 11014G24KT 9999 FEW035 BKN200 20/15 A3000 RMK FEW100 DZ DST N/NE VIS 7000NE DUE LOW ST BECMG=
201001120100 METAR MROC 120100Z 11013KT 9999 FEW025 BKN200 20/15 A3003 RMK VEL MAX VTO 19KT BECMG=
201001120200 METAR MROC 120200Z 11011G21KT 080V150 9999 FEW025 SCT200 20/14 A3005 BECMG=
201001120300 METAR MROC 120300Z 12015G25KT 9999 FEW030 19/15 A3005 RMK FEW200 BECMG=
201001120400 METAR MROC 120400Z 12013G25KT 9999 SCT030 19/14 A3006 RMK DZ E/ESE BECMG=
201001120500 METAR MROC 120500Z 12015G25KT 9999 FEW030 19/15 A3005 RMK DZ DST E BECMG=
201001120600 METAR MROC 120600Z 11011KT 9999 FEW030 SCT100 20/14 A3005 RMK DZ DST E BECMG=
201001120700 METAR MROC 120700Z 12014G24KT 9999 SCT030 SCT100 19/14 A3003 RMK DZ DST E=
201001120800 METAR MROC 120800Z 12012G24KT 9999 FEW030 BKN100 19/15 A3001 RMK DZ DST E=
201001120900 METAR MROC 120900Z 11010G20KT 9999 FEW030 BKN100 19/15 A3001 RMK DZ DST E=
201001121000 METAR MROC 121000Z 12014G24KT 9999 FEW030 BKN100 19/15 A3002 RMK DZ DST E=
201001121100 METAR MROC 121100Z 11002KT 9999 FEW030 SCT100 19/14 A3005 RMK FEW260 DZ DST E=
201001121200 METAR MROC 121200Z 02015KT 9999 FEW030 SCT120 19/14 A3006 RMK FEW260 DZ DST NE/E/ESE=
201001121300 METAR MROC 121300Z 12008KT 090V150 9999 FEW030 BKN120 19/14 A3008 RMK FEW250 DZ DST NE/E BECMG=
201001121400 METAR MROC 121400Z 12016G27KT 9999 FEW030 SCT250 20/14 A3009 RMK FEW120 DZ DST NE/E BECMG=
201001121500 METAR MROC 121500Z 11017G32KT 9999 FEW030 SCT250 22/13 A3010 RMK DZ DST N/NE/E TRACES AC BECMG=
201001121600 METAR MROC 121600Z 11018G29KT 9999 FEW035 SCT250 23/14 A3010 RMK DZ DST NE/E/SE BECMG=
201001121700 METAR MROC 121700Z 11015KT 9999 FEW035 BKN250 23/14 A3009 RMK VEL MAX VTO 24KT DZ DST NE/SE BECMG=
201001121800 METAR MROC 121800Z 12016G29KT 9999 FEW040 BKN250 23/14 A3007 RMK DZ DST NE/SE FEW120 BECMG=
201001121900 METAR MROC 121900Z 12016KT 9999 FEW040 SCT080 BKN250 22/14 A3004 RMK DZ DST NE VEL MAX VTO 23KT BECMG=
201001122000 METAR MROC 122000Z 12015G26KT 9999 FEW040 BKN250 23/14 A3001 RMK DZ DST N/NE BECMG=
201001122100 METAR MROC 122100Z 13016G26KT 9999 FEW025 BKN250 23/15 A2999 RMK DZ DST N NE E BECMG=
201001122200 METAR MROC 122200Z 12015KT 9999 FEW025 BKN250 22/15 A2999 RMK DZ DST N NE E BECMG=
201001122300 METAR MROC 122300Z 10014KT 9999 FEW025 BKN250 22/15 A2999 RMK DZ N NE E BECMG=
201001130000 METAR MROC 130000Z 10014G24KT 9999 FEW025 SCT250 21/15 A3000 RMK DZ DST N NE E BECMG=
201001130100 METAR MROC 130100Z 08017KT 9999 FEW025 SCT250 20/15 A3003 BECMG=
201001130200 METAR MROC 130200Z 10013G26KT 9999 FEW025 SCT250 20/15 A3005 BECMG=
201001130300 METAR MROC 130300Z 11021KT 9999 FEW025 SCT250 20/14 A3007 BECMG=
201001130400 METAR MROC 130400Z 11015KT 9999 FEW025 SCT250 19/15 A3008 BECMG=
201001130500 METAR MROC 130500Z 12013G30KT 9999 FEW025 19/15 A3007 RMK FEW250 BECMG=
201001130600 METAR MROC 130600Z 12012G26KT 9999 FEW025 19/15 A3006 RMK TRACE CI BECMG=
201001130700 METAR MROC 130700Z 13015G27KT 9999 FEW025 19/15 A3003 BECMG=
201001130800 METAR MROC 130800Z 12011G30KT 9999 FEW025 19/15 A3002 BECMG=
201001130900 METAR MROC 130900Z 11018KT 9999 FEW025 19/14 A3000 BECMG=
201001131000 METAR MROC 131000Z 10010KT 9999 FEW025 19/14 A3002 BECMG=
201001131100 METAR MROC 131100Z 11010KT 9999 FEW025 19/15 A3004 BECMG=
201001131200 METAR MROC 131200Z 11009G24KT 9999 FEW025 19/14 A3004 RMK TRACE CI DZ NE BECMG=
201001131300 METAR MROC 131300Z 11010KT 9999 FEW035 20/15 A3007 RMK DZ DST NE E=
201001131400 METAR MROC 131400Z 10014G24KT 9999 FEW035 22/15 A3009 RMK DZ DST N NE E BECMG=
201001131500 METAR MROC 131500Z 10013KT 9999 FEW035 24/15 A3009 RMK DZ DST N NE E BECMG=
201001131600 METAR MROC 131600Z 09017G27KT 9999 FEW035 25/15 A3008 RMK DZ DST N NE E BECMG=
201001131700 METAR MROC 131700Z 09018G28KT 9999 FEW035 25/15 A3005 RMK DZ DST N NE E BECMG=
201001131800 METAR MROC 131800Z 11016G28KT 9999 FEW035 26/15 A3002 RMK DZ DST NE E BECMG=
201001131900 METAR MROC 131900Z 10017G27KT 9999 FEW035 26/15 A2999 RMK DZ DST NE E BECMG=
201001132000 METAR MROC 132000Z 10018G28KT 9999 FEW035 26/16 A2995 RMK DZ DST NE E BECMG=
201001132100 METAR MROC 132100Z 11015G25KT 9999 FEW035 25/15 A2994 RMK DZ DST N NE E BECMG=
201001132200 METAR MROC 132200Z 11017G27KT 9999 FEW035 23/15 A2993 RMK DZ DST TO N AND E QUADS BECMG=
201001132300 METAR MROC 132300Z 11016G26KT 9999 FEW035 22/15 A2994 DZ DST N NE E BECMG=
201001140000 METAR MROC 140000Z 12015KT 9999 FEW035 20/15 A2996 RMK VEL MAX VTO 20KT DZ DST N NE E BECMG=
201001140100 METAR MROC 140100Z 10020KT 9999 FEW035 20/15 A2998 BECMG=
201001140200 METAR MROC 140200Z 09020KT 9999 FEW035 20/14 A3001 BECMG=
201001140300 METAR MROC 140300Z 11016G28KT 9999 FEW030 20/14 A3003 RMK TRACE CI BECMG=
201001140400 METAR MROC 140400Z 11014G24KT 9999 FEW030 20/14 A3004 BECMG=
201001140500 METAR MROC 140500Z 11015G27KT 9999 FEW200 20/15 A3002 RMK TRACE SC BECMG=
201001140600 METAR MROC 140600Z 12014KT CAVOK 20/15 A3001 RMK TRACE SC VEL MAX VTO 23KT BECMG=
201001140700 METAR MROC 140700Z 10013KT CAVOK 21/15 A2999 RMK TRACE SC VEL MAX VTO 20KT BECMG=
201001140800 METAR MROC 140800Z 12013KT CAVOK 20/15 A2998 RMK TRACE SC VEL MAX VTO 19KT BECMG=
201001140900 METAR MROC 140900Z 11012KT CAVOK 20/15 A2997 RMK TRACE SC VEL MAX VTO20KT BECMG=
201001141000 METAR MROC 141000Z 12012KT CAVOK 20/15 A2998 RMK TRACE SC VEL MAX VTO 20KT BECMG=
201001141100 METAR MROC 141100Z 11012KT CAVOK 19/15 A2998 RMK TRACE SC VEL MAX VTO 20KT BECMG=
201001141200 METAR MROC 141200Z 10012KT 9999 FEW030 20/15 A3000 RMK VEL MAX VTO 20KT BECMG=
201001141300 METAR MROC 141300Z 10011KT 9999 FEW030 20/16 A3001 RMK PCPN DST N NE E VEL MAX VTO 17KT BECMG=
201001141400 METAR MROC 141400Z 10009KT 9999 FEW030 23/16 A3004 RMK DZ DST N NE VEL MAX VTO 16KT BECMG=
201001141500 METAR MROC 141500Z 11013KT 9999 FEW030 24/16 A3005 RMK DZ DST N NE E VEL MAX VTO 18KT BECMG=
201001141600 METAR MROC 141600Z 12013KT 9999 FEW035 25/16 A3004 RMK DZ DST N NE VEL MAX VTO 18KT BECMG=
201001141700 METAR MROC 141700Z 11013KT 9999 FEW035 27/16 A3002 RMK DZ DST N NE VEL MAX VTO 18KT BECMG=
201001141800 METAR MROC 141800Z 11012KT 9999 FEW035 27/16 A3000 RMK VEL MAX VTO 19KT BECMG=
201001141900 METAR MROC 141900Z 10013KT 9999 FEW040 28/16 A2997 BECMG=
201001142000 METAR MROC 142000Z 12014KT 9999 FEW040 28/16 A2995 BECMG=
201001142100 METAR MROC 142100Z 14013KT 9999 FEW040 27/17 A2993 RMK DZ DST NE/E BECMG=
201001142200 METAR MROC 142200Z 13012KT 9999 FEW040 25/17 A2994 RMK DZ DST NE/E VLO MAX VTO  18KT BECMG=
201001142300 METAR MROC 142300Z 13010G22KT 9999 FEW035 24/16 A2996 RMK DZ DST NE/E BECMG=
201001150000 METAR MROC 150000Z 13010G20KT 9999 FEW035 22/16 A2999 RMK FEW260 DZ DST NE/E BECMG=
201001150100 METAR MROC 150100Z 11012KT 9999 FEW035 21/14 A3000 RMK FEW260 DZ DST=
201001150200 METAR MROC 150200Z 13011KT CAVOK 20/15 A3003 RMK FEW260 BECMG=
201001150300 METAR MROC 150300Z 13010KT CAVOK 20/14 A3004 RMK TRACE CI BECMG=
201001150400 METAR MROC 150400Z 14007KT CAVOK 20/14 A3005 RMK TRACE CI BECMG=
201001150500 METAR MROC 150500Z 12010KT CAVOK 20/14 A3004 RMK TRACE CI BECMG=
201001150600 METAR MROC 150600Z 14007KT CAVOK 19/14 A3002 RMK TRACE CI BECMG=
201001150700 METAR MROC 150700Z 04003KT CAVOK 20/14 A2999 RMK TRACE CI BECMG=
201001150800 METAR MROC 150800Z 09014KT CAVOK 20/14 A2997 RMK TRACE CI BECMG=
201001150900 METAR MROC 150900Z 11012KT CAVOK 20/14 A2996 RMK TRACE SC BECMG=
201001151000 METAR MROC 151000Z 13007KT CAVOK 20/13 A2996 RMK TRACE CI BECMG=
201001151100 METAR MROC 151100Z 10010KT CAVOK 20/14 A2997 RMK TRACECI BECMG=
201001151200 METAR MROC 151200Z 08006KT CAVOK 20/14 A2999 RMK TRACE SC BECMG=
201001151300 METAR MROC 151300Z 12009KT CAVOK 21/15 A3000 BECMG=
201001151400 METAR MROC 151400Z 13011KT CAVOK 24/15 A3002 BECMG=
201001151500 METAR MROC 151500Z 11010G22KT CAVOK 26/14 A3003 BECMG=
201001151600 METAR MROC 151600Z 12012G24KT CAVOK 27/14 A3002 BECMG=
201001151700 METAR MROC NIL=
201001151800 METAR MROC 151800Z 12012KT 9999 FEW045 30/16 A2998 BECMG=
201001151900 METAR MROC 151900Z 11010KT 9999 FEW045 29/16 A2996 BECMG=
201001152000 METAR MROC 152000Z 11009KT 9999 FEW045 29/15 A2994 RMK TCU DST S BECMG=
201001152100 METAR MROC 152100Z 12010KT 9999 FEW040 29/16 A2993 BECMG=
201001152200 METAR MROC 152200Z 23004KT 9999 FEW035 27/19 A2995 BECMG=
201001152300 METAR MROC 152300Z 23009KT 9999 FEW035 25/20 A2995 RMK HZ LEVE S SW BECMG=
201001160000 METAR MROC 160000Z 35002KT CAVOK 23/19 A2995 RMK FEW120 BECMG 04004KT=
201001160100 METAR MROC 160100Z 09004KT CAVOK 22/17 A2998 RMK FEW120 BECMG=
201001160200 METAR MROC 160200Z 09003KT CAVOK 22/17 A2999 RMK FEW120 BECMG=
201001160300 METAR MROC 160300Z 10003KT CAVOK 21/17 A3000 RMK SCT270 BECMG=
201001160400 METAR MROC 160400Z 09006KT CAVOK 21/17 A3000 RMK SCT270 BECMG=
201001160500 METAR MROC 160500Z 10005KT CAVOK 21/17 A2999 RMK FEW270 BECMG=
201001160600 METAR MROC 160600Z 10006KT CAVOK 22/16 A2998 RMK SCT270 BECMG=
201001160700 METAR MROC 160700Z 08008KT CAVOK 21/16 A2997 RMK SCT270 BECMG=
201001160800 METAR MROC 160800Z 04002KT CAVOK 20/16 A2997 RMK SCT270=
201001160900 METAR MROC 160900Z 09007KT CAVOK 20/16 A2996 RMK SCT270=
201001161000 METAR MROC 161000Z 08008KT CAVOK 20/16 A2996 RMK SCST270=
201001161100 METAR MROC 161100Z 08007KT CAVOK 19/16 A2997 RMK SCT270=
201001161200 METAR MROC 161200Z 08009KT CAVOK 20/16 A2998 RMK TRACE SC CI ERUPCION V TURRIALBA=
201001161300 METAR MROC 161300Z 08006KT CAVOK 21/16 A3000 RMK TRACE CI BECMG=
201001161400 METAR MROC 161400Z 11008KT CAVOK 24/16 A3002 RMKTRACE SCT BECMG=
201001161500 METAR MROC 161500Z 11007KT CAVOK 27/16 A3003 RMK TRACE SC SIGNIFICAN VOLCANO ACT TURRIALBA RDO 20MN COOR  10 1N 83 5W BECMG=
201001161600 METAR MROC 161600Z 12010KT CAVOK 28/16 A3002 RMK TRACE SC SIGNIFICANT VOLCANIC ACT TURRIALBA RDO 20NM CO0R 10 1N 83 5W  SFC 12000 FT BECMG=
201001161700 METAR MROC 161700Z 13007KT CAVOK 29/17 A3001 RMKN TRACE SCT SIFNIFICANT VOLCANIC ACTIVITY TURRIALBA RD0 20NM CENTERED COOR 10/1 N 83/5 W FRON SCR TO 12000 FT BECMG=
201001161800 METAR MROC 161800Z 12008KT 9999 FEW045 30/16 A2999 RMK SIFNIFICANT VOLCANIC ACTIVITY TURRIALBA RD0 20NM CENTERED COOR 10 1 N 83 5 W FRON SCR TO 12000 FT BECMG=
201001161900 METAR MROC 161900Z 23008KT 9999 FEW040 29/19 A2996 RMK SIFNIFICANT VOLCANIC ACTIVITY TURRIALBA RD0 20NM CENTERED COOR 10 1 N 83 5 W FRON SCR TO 12000 FT BECMG=
201001162000 METAR MROC 162000Z 23009KT 9999 SCT035 29/20 A2995 RMK FEW120 SIFNIFICANT VOLCANIC ACTIVITY TURRIALBA RD0 20NM CENTERED COOR 10 1 N 83 5 W FRON SCR TO 12000 FT BECMG=
201001162100 METAR MROC NIL=
201001162200 METAR MROC 162200Z 24008KT 9999 SCT040 27/20 A2994 RMK SIGNIFICANT VOLCANIC ACT TURRIALBA RDO 20NM CENTERED COOR 10 1N 83 5W FROM SCR TO 12000FT HZ ARND BECMG=
201001162300 METAR MROC 162300Z 24002KT FEW040 26/20 A2996 RMK SIGNIFICANT VOLCANIC ACT TURRIALBA RDO 20NM CENTERED COOR 10 1N 83 5W FROM SCR TO 12000FT VIS 6000W HZ BECMG=
201001170000 METAR MROC 170000Z 00000KT 9999 FEW040 23/19 A2997 RMK SIGNIFICANT VOLCANIC ACT TURRIALBA RDO 20NM CENTERED COOR 10 1N 83 5W FROM SCR TO 12000FT HZ ARND=
201001170100 METAR MROC 170100Z 11004KT 9999 FEW030 23/18 A2999 RMK SIGNIFICANT VOLCANIC ACT TURRIALBA RDO 20NM CENTERED COOR 10 1N 83 5W FROM SCR TO 12000FT HZ ARND BECMG=
201001170200 METAR MROC 170200Z 07007KT 9999 FEW035 22/18 A3001 RMK SIGNIFICANT VOLCANIC ACT TURRIALBA RDO 20NM CENTERED COOR 10 1N 83 5W FROM SCR TO 12000FT FEW200 BECMG=
201001170300 METAR MROC 170300Z 11006KT 9999 FEW035 22/17 A3003 RMK FEW250 SIGNIFICANT VOLCANIC ACT TURRIALBA RDO 20NM CENTERED COOR 10 1N 83 5W FROM SCR TO 1200FT BECMG=
201001170400 METAR MROC NIL=
201001170500 METAR MROC 170500Z 11008G20KT 9999 FEW035 22/17 A3003 RMK FEW250 SIGNIFICANT VOLCANIC ACT TURRIALBA RDO 20NM CENTERED COOR 10 1N 83 5W FROM SCR TO 1200FT BECMG=
201001170600 METAR MROC 170600Z 12012G22KT CAVOK 22/17 A3001 RMK FEW250 SIGNIFICANT VOLCANIC ACT TURRIALBA RDO 20NM CENTERED COOR 10 1N 83 5W FROM SCR TO 1200FT BECMG=
201001170700 METAR MROC 170700Z 10010KT CAVOK 21/17 A3000 RMK FEW250 SIGNIFICANT VOLCANIC ACT TURRIALBA RDO 20NM CENTERED COOR 10 1N 83 5W FROM SCR TO 1200FT=
201001170800 METAR MROC 170800Z 10010KT CAVOK 22/16 A2998 RMK SIGNIFICANT VOLCANIC ACT TURRIALBA RDO 20NM CENTERED COOR 10 1N 83 5W FROM SCR TO 1200FT=
201001170900 METAR MROC 170900Z 09008KT CAVOK 21/16 A2998 RMK SIGNIFICANT VOLCANIC ACT TURRIALBA RDO 20NM CENTERED COOR 10 1N 83 5W FROM SCR TO 1200FT=
201001171000 METAR MROC 171000Z 10012G22KT CAVOK 21/16 A2999 RMK SIGNIFICANT VOLCANIC ACT TURRIALBA RDO 20NM CENTERED COOR 10 1N 83 5W FROM SCR TO 1200FT=
201001171100 METAR MROC 171100Z 11012G22KT CAVOK 21/15 A3000 RMK SIGNIFICANT VOLCANIC ACT TURRIALBA RDO 20NM CENTERED COOR 10 1N 83 5W FROM SCR TO 1200FT=
201001171200 METAR MROC 171200Z 11010G20KT CAVOK 21/15 A3001 RMK SIGNIFICANT VOLCANIC ACT TURRIALBA RDO 20NM CENTERED COOR 10 1N 83 5W FROM SCR TO 1200FT=
201001171300 METAR MROC 171300Z 11013G23KT CAVOK 22/16 A3003 RMK SIGNIFICANT VOLCANIC ACT TURRIALBA RDO20NM CENTERED COOR 10 1 N 83 5W FROM SCR TO 12000FT TRACE SC BECMG=
201001171400 METAR MROC 171400Z 11012G22KT 090V160 CAVOK 23/16 A3004 RMK SIGNIFICANT VOLCANIC ACT TURRIALBA RDO 20NM CENTERED COOR 10 1N 83 5W FROM SCR TO 12000FT TRACE SC BECMG=
201001171500 METAR MROC 171500Z 10013KT CAVOK 25/16 A3007 RMK SIGNIFICANT VOLCANIC ACT TURRIALBA RDO 20NM CENTERED COOR 10 1N 83 5W FROM SFC TO 12000FT TRACE SC VEL MAX VTO 19KT BECMG=
201001171600 METAR MROC 171600Z 11016G27KT CAVOK 26/15 A3007 RMK SIGNIFICANT VOLCANIC ACT TURRIALBA RDO 20NM CENTERED COOR 10 1N 83 5W FROM SFC TO 12000FT FEW050 BECMG=
201001171700 METAR MROC 171700Z 10014KT 080V150 CAVOK 27/15 A3005 RMK SIGNIFICANT VOLCANIC ACT TURRIALBA RDO 20NM CENTERED COOR 10 1N 83 5W FROM SFC TO 12000FT FEW050 BECMG=
201001171800 METAR MROC 171800Z 11013G26KT 080V140 CAVOK 27/16 A3003 RMK SIGNIFICANT VOLCANIC ACT TURRIALBA RDO 20NM CENTERED COOR 10 1N 83 5W FROM SFC TO 12000FT TRACE SC BECMG=
201001171900 METAR MROC 171900Z 12012KT 080V140 CAVOK 28/15 A3001 RMK SIGNIFICANT VOLCANIC ACT TURRIALBA RDO 20NM CENTERED COOR 10 1N 83 5W FROM SFC TO 12000FT TRACE SC BECMG=
201001172000 METAR MROC 172000Z 09012KT CAVOK 28/15 A2998 RMK SIGNIFICANT VOLCANIC ACT TURRIALBA RDO 20NM CENTERED COOR 10 1N 83 5W FROM SFC TO 12000FT FEW050 BECMG=
201001172100 METAR MROC 172100Z 12016G26KT 9999 FEW035 28/15 A2996 RMK SIGNIFICANT VOLCANIC ACT TURRIALBA RDO 20NM CENTERED C00R 10 1N 83 5W FROM TO 12000FT BECMG=
201001172200 METAR MROC 172200Z 10016KT 9999 FEW030 27/14 A2997 RMK SIGNIFICANT VOLCANIC ACT TURRIALBA RDO 20NM CENTERED COOR 10 1N 83 5W FROM TO 12000FT BECMG=
201001172300 METAR MROC 172300Z 11010KT 9999 SCT030 26/15 A2998 RMK SIGNIFICANT VOLCANIC ACT TURRIALBA RDO 20NM CENTERED COOR 10 1N 83 5W FROM TO 12000FT BECMG=
201001180000 METAR MROC 180000Z 10008KT 9999 SCT030 23/16 A3000 RMK SIGNIFICANT VOLCANIC ACT TURRIALBA RDO 20NM CENTERED COOR 10 1N 83 5W FROM TO 12000FT BECMG=
201001180100 METAR MROC 180100Z 13005KT 9999 SCT030 22/16 A3002 RMK SIGNIFICANT VOLCANIC ACT TURRIALBA RDO 20NM CENTERED COOR 10 1N 83 5W FROM TO 12000FT BECMG=
201001180200 METAR MROC 180200Z 10005KT 9999 FEW030 22/15 A3004 RMK SIGNIFICANT VOLCANIC ACT TURRIALBA RDO 20NM CENTERED COOR 10 1N 83 5W FROM TO 12000FT BECMG=
201001180300 METAR MROC 180300Z 10012KT 9999 FEW030 22/15 A3005 RMK SIGNIFICANT VOLCANIC ACT TURRIALBA RDO 20NM CENTERED COOR 10 1N 83 5W FROM TO 12000FT BECMG=
201001180400 METAR MROC 180400Z 10010KT 9999 FEW030 22/14 A3005 RMK SIGNIFICANT VOLCANIC ACT TURRIALBA RDO 20NM CENTERED COOR 10 1N 83 5W FROM TO 12000FT BECMG=
201001180500 METAR MROC 180500Z 10016KT 9999 FEW030 22/15 A3004 RMK SIGNIFICANT VOLCANIC ACT TURRIALBA RDO 20NM CENTERED COOR 10 1N 83 5W FROM TO 12000FT BECMG=
201001180600 METAR MROC 180600Z 09010KT CAVOK 22/15 A3003 RMK SIGNIFICANT VOLCANIC ACT TURRIALBA RDO 20NM CENTERED COOR 10 1N 83 5W FROM TO 12000FT TRACE SC BECMG=
201001180700 METAR MROC 180700Z 12012KT CAVOK 22/15 A3002 RMK SIGNIFICANT VOLCANIC ACT TURRIALBA RDO 20NM CENTERED COOR 10 1N 83 5W FROM TO 12000FT TRACE SC BECMG=
201001180800 METAR MROC 180800Z 09008KT CAVOK 20/15 A3000 RMK SIGNIFICANT VOLCANIC ACT TURRIALBA RDO 20NM CENTERED COOR 10 1N 83 5W FROM TO 12000FT TRACE SC BECMG=
201001180900 METAR MROC 180900Z 10008KT CAVOK 20/15 A3000 RMK SIGNIFICANT VOLCANIC ACT TURRIALBA RDO 20NM CENTERED COOR 10 1N 83 5W FROM TO 12000FT TRACE SC BECMG=
201001181000 METAR MROC 181000Z 04005KT CAVOK 20/15 A3000 RMK SIGNIFICANT VOLCANIC ACT TURRIALBA RDO 20NM CENTERED COOR 10 1N 83 5W FROM TO 12000FT TRACE SC BECMG=
201001181100 METAR MROC 181100Z 07005KT CAVOK 20/15 A3000 RMK SIGNIFICANT VOLCANIC ACT TURRIALBA RDO 20NM CENTERED COOR 10 1N 83 5W FROM TO 12000FT TRACE SC BECMG=
201001181200 METAR MROC 181200Z 11008KT CAVOK 21/15 A3001 RMK SIGNIFICANT VOLCANIC ACT TURRIALBA RDO 20NM CENTERED COOR 10 1N 83 5W FROM TO 12000FT TRACE SC BECMG=
201001181300 METAR MROC NIL=
201001181400 METAR MROC 181400Z 12012KT CAVOK 24/16 A3005 RMK TRACE SC SIGNIFICANT VOLCANIC ACT TURRIALBA RDO 20NM CENTERED COOR 10 1N 83 5W FROM TO 12000FT BECMG=
201001181500 METAR MROC 181500Z 12015KT 9999 FEW045 25/16 A3006 RMK SIGNIFICANT VOLCANIC ACT TURRIALBA RDO 20NM CENTERED COOR 10 1N 83 5W FROM TO 12000FT BECMG=
201001181600 METAR MROC 181600Z 11013G24KT 9999 FEW045 27/16 A3006 RMK SIGNIFICANT VOLCANIC ACT TURRIALBA RDO 20NM CENTERED COOR 10 1N 83 5W FROM TO 12000FT BECMG=
201001181700 METAR MROC 181700Z 11012KT 9999 FEW040 28/15 A3005 RMK SIGNIFICANT VOLCANIC ACT TURRIALBA RDO 20NM CENTERED COOR 10 1N 83 5W FROM TO 12000FT BECMG=
201001181800 METAR MROC 181800Z 12011G21KT 9999 FEW045 28/15 A3004 RMK SIGNIFICANT VOLCANIC ACT TURRIALBA RDO 20NM CENTERED COOR 10 1N 83 5W FROM TO 12000FT BECMG=
201001181900 METAR MROC 181900Z 12011G21KT 9999 FEW040 28/15 A3001 RMK SIGNIFICANT VOLCANIC ACT TURRIALBA RDO 20NM CENTERED COOR 10 1N 83 5W FROM TO 12000FT BECMG=
201001182000 METAR MROC 182000Z 13012KT 9999 FEW040 29/15 A2998 RMK SIGNIFICANT VOLCANIC ACT TURRIALBA RDO 20NM CENTERED COOR 10 1N 83 5W FROM TO 12000FT BECMG=
201001182100 METAR MROC 182100Z 13010KT 9999 FEW040 29/14 A2996 RMK SIGNIFICANT VOLCANIC ACT TURRIALBA RDO 20NM CENTERED COOR 10 1N 83 5W FROM TO 12000FT BECMG=
201001182200 METAR MROC 182200Z 10009KT 9999 FEW040 28/15 A2996 RMK LGT HZ ARND SIGNIFICANT VOLCANIC ACT TURRIALBA RDO 20NM CENTERED COOR 10 1N 83 5W FROM TO 12000FT BECMG=
201001182300 METAR MROC 182300Z 08012KT 9999 FEW040 25/16 A2997 RMK HZY SIGNIFICANT VOLCA NIC ACT TURRIALBA RDO 20NM CENTERED COOR 10 1N 83 5W FROM TO 12000FT BECMG=
201001190000 METAR MROC 190000Z 12005KT 9999 FEW040 23/16 A2998 RMK SIGNIFICANT VOLCANIC ACT TURRIALBA RDO 20NM CENTERED COOR 10 1N 83 5W FROM TO 12000FT BECMG=
201001190100 METAR MROC 190100Z 10008KT 9999 FEW040 23/17 A3001 RMK SIGNIFICANT VOLCANIC ACT TURRIALBA RDO 20NM CENTERED COOR 10 1N 83 5W FROM TO 12000FT BECMG=
201001190200 METAR MROC 190200Z 11012KT 9999 FEW040 22/17 A3002 RMK SIGNIFICANT VOLCANIC ACT TURRIALBA RDO 20NM CENTERED COOR 10 1N 83 5W FROM TO 12000FT BECMG=
201001190300 METAR MROC 190300Z 10012G24KT 9999 FEW040 22/17 A3002 RMK FEW200 SIGNIFICANT ACT VOLCANIC RDO 20 NM CENTERED COOR 10 1 N 83 5 W FROM TO 12000 FT=
201001190400 METAR MROC 190400Z 11015G25KT 080V140 9999 FEW040 22/17 A3002 RMK SIGNIFICANT ACT VOLCANIC RDO 20 NM CENTERED COOR 10 1 N 83 5 W FROM TO 12000 FT BECMG=
201001190500 METAR MROC 190500Z 11014G24KT 9999 FEW040 22/17 A3001 RMK FEW200 SIGNIFICANT ACT VOLCANIC RDO 20 NM CENTERED COOR 10 1 N 83 5 W FROM TO 12000 FT BECMG=
201001190600 METAR MROC 190600Z 11014KT 9999 FEW040 21/17 A3002 RMK FEW200 SIGNIFICANT ACT VOLCANIC RDO 20 NM CENTERED COOR 10 1 N 83 5 W FROM TO 12000 FT VEL MAX VTO 19KT BECMG=
201001190700 METAR MROC 190700Z 11012G23KT 9999 FEW040 21/17 A3001 RMK SIGNIFICANT ACT VOLCANIC RDO 20 NM CENTERED COOR 10 1 N 83 5 W FROM TO 12000 FT BECMG=
201001190800 METAR MROC 190800Z 12009KT 9999 FEW035 20/16 A2999 RMK SIGNIFICANT ACT VOLCANIC RDO 20 NM CENTERED COOR 10 1 N 83 5 W FROM TO 12000 FT BECMG=
201001190900 METAR MROC 190900Z 11010KT 9999 FEW035 20/16 A2997 RMK FEW200 SIGNIFICANT ACT VOLCANIC RDO 20 NM CENTERED COOR 10 1 N 83 5 W FROM TO 12000 FT BECMG=
201001191000 METAR MROC 191000Z 11012G23KT 9999 FEW035 21/15 A2999 RMK SIGNIFICANT ACT VOLCANIC RDO 20 NM CENTERED COOR 10 1 N 83 5 W FROM TO 12000 FT BECMG=
201001191100 METAR MROC 191100Z 10008KT 9999 FEW035 20/15 A2999 RMK SIGNIFICANT ACT VOLCANIC RDO 20 NM CENTERED COOR 10 1 N 83 5 W FROM TO 12000 FT BECMG=
201001191200 METAR MROC 191200Z 11008KT 9999 FEW040 20/15 A3001 RMK FEW200 SIGNIFICANT ACT VOLCANIC RDO 20 NM CENTERED COOR 10 1 N 83 5 W FROM TO 12000 FT BECMG=
201001191300 METAR MROC 191300Z 11011KT CAVOK 21/15 A3002 RMK SCT250 SIGNIFICANT ACT VOLC ANIC RDO 20 NM CENTERED COOR 10 1 N 83 5 W FROM TO 12000 FT BECMG=
201001191400 METAR MROC 101400Z 12013KT CAVOK 23/15 A3004 RMK FEW250 SIGNIFICANT ACT VOLCANIC RDO 20 NM CENTERED COOR 10 1 N 83 5 W FROM TO 12000 FT BECMG=
201001191500 METAR MROC 191500Z 11013KT CAVOK 25/14 A3004 RMK TRACE SC CI BECMG=
201001191600 METAR MROC NIL=
201001191700 METAR MROC 191700Z 11013KT CAVOK 27/15 A3000 RMK TRACE SC BECMG=
201001191800 METAR MROC 191800Z 09015KT CAVOK 27/15 A2998 RMK TRACE SC BECMG=
201001191900 METAR MROC 191900Z 10013KT CAVOK 28/15 A2996 RMK TRACE CU BECMG=
201001192000 METAR MROC 192000Z 10011KT CAVOK 28/15 A2993 RMK TRACE CU VEL MAX VTO 17KT BECMG=
201001192100 METAR MROC 192100Z 10015KT CAVOK 27/16 A2991 BECMG=
201001192200 METAR MROC 192200Z 11010KT 9999 FEW045 26/16 A2991 BECMG=
201001192300 METAR MROC 192300Z 11012KT 9999 FEW045 25/16 A2994 RMK FEW070 FEW260 BECMG=
201001200000 METAR MROC 200000Z 10013KT 9999 FEW045 23/15 A2995 RMK FEW260 BECMG=
201001200100 METAR MROC 200100Z 09010KT CAVOK 22/15 A2995 RMK FEW260 BECMG=
201001200200 METAR MROC 200200Z 13009KT CAVOK 21/16 A2997 RMK FEW260 BECMG=
201001200300 METAR MROC 200300Z 13010KT CAVOK 21/15 A2998 RMK TRACE SC FEW260 BECMG=
201001200400 METAR MROC 200400Z 13012KT CAVOK 21/15 A2999 RMK TRACE SC BECMG=
201001200500 METAR MROC 200500Z 12013KT CAVOK 21/14 A2998 RMK TRACE SC BECMG=
201001200600 METAR MROC 200600Z 12009KT CAVOK 21/14 A2996 RMK TRACE SC BECMG=
201001200700 METAR MROC 200700Z 11015KT CAVOK 20/15 A2994 RMK TRACE SC BECMG=
201001200800 METAR MROC 200800Z 13010G21KT CAVOK 20/19 A2991 RMK TRACE SC BECMG=
201001200900 METAR MROC 200900Z 10010KT CAVOK 20/15 A2991 RMK TRACE SC BECMG=
201001201000 METAR MROC 201000Z 11014KT CAVOK 20/15 A2991 RMK TRACE SC BECMG=
201001201100 METAR MROC 201100Z 13013KT CAVOK 20/15 A2992 RMK TRACE SC BECMG=
201001201200 METAR MROC 201200Z 12013KT CAVOK 20/15 A2993 RMK TRACE SC BECMG=
201001201300 METAR MROC 201300Z 13010KT CAVOK 21/15 A2996 BECMG=
201001201400 METAR MROC 201400Z 13012G22KT CAVOK 23/15 A2999 BECMG=
201001201500 METAR MROC 201500Z 13012G22KT CAVOK 25/14 A3000 BECMG=
201001201600 METAR MROC 201600Z 13012G22KT CAVOK 27/14 A2998 BECMG=
201001201700 METAR MROC 201700Z 13014KT CAVOK 29/15 A2996 BECMG=
201001201800 METAR MROC 201800Z 13014KT 9999 FEW045 30/16 A2993 BECMG=
201001201900 METAR MROC 201900Z 14013KT 9999 FEW045 30/16 A2990 BECMG=
201001202000 METAR MROC 202000Z 12008G18KT 9999 FEW045 29/16 A2988=
201001202100 METAR MROC 202100Z 10009KT 080V140 9999 FEW045 29/15 A2987 BECMG=
201001202200 METAR MROC 202200Z 11012KT 9999 FEW045 28/15 A2987 BECMG=
201001202300 METAR MROC 202300Z 09007KT 9999 FEW040 27/15 A2988 BECMG=
201001210000 METAR MROC 210000Z 10008KT 9999 FEW040 25/16 A2989 BECMG=
201001210100 METAR MROC 210100Z 12006KT 9999 FEW040 23/17 A2991 BECMG=
201001210200 METAR MROC 210200Z 12008KT CAVOK 22/17 A2993 RMK TRACE SC=
201001210300 METAR MROC 210300Z 00000KT CAVOK 22/16 A2995 RMK TRACE SC BECMG=
201001210400 METAR MROC 210400Z 00000KT CAVOK 21/17 A2996 RMK TRACE SC BECMG=
201001210500 METAR MROC 210500Z 00000KT CAVOK 21/17 A2995 RMK TRACE SC BECMG=
201001210600 METAR MROC 210600Z 06006KT CAVOK 21/17 A2994 RMK TRACE SC BECMG=
201001210700 METAR MROC 210700Z 07002KT CAVOK 20/16 A2993 RMK TRACE SC BECMG=
201001210800 METAR MROC 210800Z 06005KT CAVOK 20/16 A2991 RMK TRACE SC BECMG=
201001210900 METAR MROC 210900Z 07007KT CAVOK 20/16 A2990 RMK TRACE SC=
201001211000 METAR MROC 211000Z 11007KT CAVOK 20/15 A2990 RMK TRACE SC=
201001211100 METAR MROC 211100Z 08007KT CAVOK 20/16 A2991 RMK TRACE SC=
201001211200 METAR MROC 211200Z 07009KT CAVOK 19/15 A2993 RMK TRACE SC=
201001211300 METAR MROC 211300Z 07005KT CAVOK 21/15 A2995 RMK TRACE SC BECMG=
201001211400 METAR MROC 211400Z 09007KT CAVOK 24/15 A2998 RMK TRACE SC BECMG=
201001211500 METAR MROC 211500Z 09010KT CAVOK 25/15 A2998 RMK TRACE SC BECMG=
201001211600 METAR MROC 211600Z 10007KT CAVOK 28/14 A2997 RMK TRACE SC BECMG=
201001211700 METAR MROC 211700Z 08006KT CAVOK 30/14 A2995 RMK TRACE SC BECMG=
201001211800 METAR MROC 211800Z 23008KT CAVOK 30/15 A2993 RMK TRACE SC BECMG=
201001211900 METAR MROC 211900Z 24009KT CAVOK 31/17 A2990 RMK TRACE SC BECMG=
201001212000 METAR MROC 212000Z 25010KT 9999 SCT045 28/18 A2989 RMK HZ QUAD W/S BECMG=
201001212100 METAR MROC 212100Z 26012KT 230V300 9999 FEW045 29/18 A2988 RMK HZ ARND BECMG=
201001212200 METAR MROC NIL=
201001212300 METAR MROC 212300Z 23008KT 9999 SCT045 26/20 A2991 RMK HZ ARND BECMG=
201001220000 METAR MROC 220000Z 23002KT CAVOK 24/20 A2994 RMK SCT050 TCU DST NE HZ ARND BECMG=
201001220100 METAR MROC 220100Z 00000KT 9999 FEW030 22/19 A2996 RMK HZ ARND BECMG=
201001220200 METAR MROC 220200Z 09003KT 9999 FEW020 SCT200 22/19 A2997 RMK HZ ARND BECMG=
201001220300 METAR MROC 220300Z 08005KT 9999 FEW030 22/18 A2999 RMK FEW250 BECMG=
201001220400 METAR MROC 220400Z 00000KT CAVOK 21/18 A3000 RMK FEW250 BECMG=
201001220500 METAR MROC 220500Z 00000KT CAVOK 20/17 A2999 RMK FEW250 BECMG=
201001220600 METAR MROC 220600Z 08006KT CAVOK 20/17 A2998 RMK FEW250 BECMG=
201001220700 METAR MROC 220700Z 08007KT CAVOK 19/17 A2996 BECMG=
201001220800 METAR MROC 220800Z 08007KT CAVOK 19/16 A2994=
201001220900 METAR MROC 220900Z 07002KT CAVOK 18/14 A2994=
201001221000 METAR MROC 221000Z 09005KT CAVOK 18/16 A2994=
201001221100 METAR MROC 221100Z 08008KT CAVOK 18/15 A2995=
201001221200 METAR MROC 221200Z 09007KT CAVOK 18/15 A2995=
201001221300 METAR MROC 221300Z 07002KT 9999 SKC 20/15 A2998 RMK HZ QUAD W BECMG=
201001221400 METAR MROC 221400Z 09005KT 9999 SKC 23/15 A2999 RMK HZ QUAD W BECMG=
201001221500 METAR MROC 221500Z 00000KT 9999 SKC 26/14 A3000 RMK HZ QUAD W BECMG=
201001221600 METAR MROC 221600Z 19003KT 9999 SKC 28/15 A3000 RMK HZ QUAD W BECMG 22008KT=
201001221700 METAR MROC 221700Z 23008KT 9999 SKC 29/15 A2999 RMK HZ ARND BECMG=
201001221800 METAR MROC 221800Z 24007KT CAVOK 30/16 A2996 RMK HZ ARND TRACE CU BECMG=
201001221900 METAR MROC 221900Z 26006KT CAVOK 30/16 A2994 RMK HZ ARND TRACE CU BECMG=
201001222000 METAR MROC 222000Z 24007KT CAVOK 30/18 A2992 RMK FEW050 HZ ARND BECMG=
201001222100 METAR MROC 222100Z 27009KT 9999 FEW035 30/18 A2992 RMK HZ ARND BECMG=
201001222200 METAR MROC 222200Z 23011KT 9999 FEW035 28/19 A2993 RMK HZ ARND BECMG=
201001222300 METAR MROC 222300Z 24006KT 9999 FEW035 26/19 A2995 HZ ARN BECMG=
201001230000 METAR MROC 230000Z 24005KT 9999 FEW035 23/20 A2997 RMK HZ ARND BECMG=
201001230100 METAR MROC 230100Z 00000KT 9999 FEW030 23/20 A2999 RMK HZ LEVE ARND BECMG 04005=
201001230200 METAR MROC 230200Z 00000KT 9999 FEW030 22/20 A3001 RMK HZ LEVE ARND BECMG 04005KT=
201001230300 METAR MROC 230300Z 00000KT 9999 FEW030 21/20 A3002 HZ LEVE ARND BECMG=
201001230400 METAR MROC 230400Z 00000KT 9999 FEW035 21/20 A3002 HZ LGT ARND BECMG=
201001230500 METAR MROC 230500Z 00000KT 9999 FEW035 20/19 A3002 RMK HZ ARND BECMG=
201001230600 METAR MROC 230600Z 00000KT 9999 FEW035 20/18 A3000 RMK HZ ARND BECMG=
201001230700 METAR MROC 230700Z 00000KT 9999 FEW035 21/18 A2998 RMK HZ ARND BECMG=
201001230800 METAR MROC 230800Z 00000KT 9999 SCT030 21/18 A2997 RMK HZ ARND BECMG=
201001230900 METAR MROC 230900Z 00000KT 9999 SCT030 20/18 A2997 RMK HZ ARND BECMG=
201001231000 METAR MROC 231000Z 00000KT 9999 SCT030 19/18 A2997 RMK HZ ARND BECMG=
201001231100 METAR MROC 231100Z 00000KT 9999 SCT030 20/17 A2997 RMK HZ ARND BECMG=
201001231200 METAR MROC 231200Z 00000KT CAVOK 18/16 A2998 RMK TRACE SC HZ ARND BECMG=
201001231300 METAR MROC 231300Z 08005KT 9999 SKC 20/16 A2999 RMK HZ ARND BECMG=
201001231400 METAR MROC 231400Z 08007KT 9999 SKC 23/17 A3001 RMK HZ ARND BECMG=
201001231500 METAR MROC 231500Z 00000KT 9999 SKC 26/17 A3001 RMK HZ ARND BECMG=
201001231600 METAR MROC 231600Z 24006KT 9999 SKC 27/17 A3000 RMK HZ ARND BECMG=
201001231700 METAR MROC 231700Z 23004KT 9999 SKC 28/17 A2999 RMK HZ ARND BECMG=
201001231800 METAR MROC 231800Z 25010KT 9999 SKC 29/17 A2996 RMK TRACE SC HZ ARND BECMG=
201001231900 METAR MROC 231900Z 24010KT 9999 FEW035 30/18 A2992 RMK HZ ARND BECMG=
201001232000 METAR MROC 232000Z 25010KT 9999 SCT035 29/19 A2989 RMK HZ ARND BECMG=
201001232100 METAR MROC 232100Z 26009KT 9999 SCT030 28/19 A2989 RMK HZY BECMG=
201001232200 METAR MROC 232200Z 25009KT 9999 FEW015 SCT025 26/19 A2990 RMK HZY BECMG=
201001232300 METAR MROC 232300Z 26006KT 9999 FEW015 BKN025 25/19 A2992 RMK RMK HZY=
201001240000 METAR MROC 240000Z 00000KT 9999 SCT015 BKN025 23/21 A2994 RMK HZY TCU PCPN DST E SE S BECMG=
201001240100 METAR MROC 240100Z 00000KT 9999 SCT015 SCT080 22/21 A2996 HZ ARND BECMG=
201001240200 METAR MROC 240200Z 00000KT 9999 SCT020 SCT090 22/22 A2999 HZ ARND BECMG=
201001240300 METAR MROC 240300Z 00000KT 7000 VCFG HZ BKN020 21/21 A3000 RMK VIS 4KM W/N BECMG=
201001240400 METAR MROC 240400Z 00000KT 7000 3000SW VCFG BR SCT010 BKN020 21/21 A3000 BECMG 05004KT=
201001240500 METAR MROC 240500Z 00000KT 7000 3000SW VCFG BR BKN020 21/21 A3000 BECMG 04004KT=
201001240600 METAR MROC 240600Z 00000KT 7000 2500SW VCFG BR SCT015 20/19 A2998 BECMG=
201001240700 METAR MROC 240700Z 00000KT 8000 3500SW VCFG BR FEW010 19/18 A2996 BECMG=
201001240800 METAR MROC 240800Z 00000KT 8000 3000SW BR FEW010 18/17 A2993 BECMG=
201001240900 METAR MROC 240900Z 00000KT 8000 3000SW BR BKN025 18/16 A2991 BECMG=
201001241000 METAR MROC 241000Z 00000KT 8000 3000SW BR BKN025 19/16 A2993 BECMG=
201001241100 METAR MROC 241100Z 00000KT 9999 4000SW BR BKN020 19/16 A2994 BECMG=
201001241200 METAR MROC 241200Z 09002KT 9999 VCFG FEW040 18/16 A2996 RMK HZY VIS 7KM NW/W BECMG=
201001241300 METAR MROC 241300Z 08003KT CAVOK 20/16 A2997 RMK TRACE SC HZY BECMG=
201001241400 METAR MROC 241400Z 00000KT CAVOK 24/17 A2999 RMK TRACE SC HZY BECMG=
201001241500 METAR MROC 241500Z 00000KT CAVOK 26/18 A2999 RMK FEW300 HZY BECMG 24006KT=
201001241600 METAR MROC 241600Z 25003KT 9999 FEW035 SCT300 28/17 A2999 RMK HZY BECMG=
201001241700 METAR MROC 241700Z 27005KT 9999 SCT035 SCT300 27/18 A2997 RMK HZY BECMG=
201001241800 METAR MROC 241800Z 23006KT 9999 SCT035 31/17 A2994 RMK FEW300 HZY BECMG=
201001241900 METAR MROC 241900Z 28011KT 9999 SCT035 29/19 A2991 RMK FEW300 HZY BECMG=
201001242000 METAR MROC 242000Z 27012KT 9999 VCSH FEW025TCU SCT035 28/19 A2989 VIS ENE 6KMS HZY BECMG RA=
201001242100 METAR MROC 242100Z 19007KT 4000 1500SW -RA FEW025 SCT030 SCT100 21/21 A2991 BECMG 6000=
201001242200 METAR MROC 242200Z 00000KT 7000 3000SW -DZ VCFG FEW002 SCT030 21/21 A2991 RMK FEW080 SCT210 VIS W/NW 5KM DUE ST/RN VIS SSE UNL BECMG 9999=
201001242300 METAR MROC 242300Z 00000KT 8000 FEW030 SCT100 22/20 A2991 RMK HZ ARNDD VIS SSE/S UNL BECMG=
201001250000 METAR MROC 250000Z 00000KT 8000 FEW030 BKN100 22/21 A2993 RMK VIS SSE/S UNL HZ ARND BECMG=
201001250100 METAR MROC 250100Z 00000KT 9999 FEW030 SCT100 22/20 A2995 RMK HZ LGT ARND BECMG=
201001250200 METAR MROC 250200Z 00000KT 9999 FEW030 BKN110 21/21 A2997 RMK HZ LGT ARND BECMG=
201001250300 METAR MROC 250300Z 00000KT 9999 FEW030 BKN110 21/20 A2998 RMK HZ LGT ARND BECMG=
201001250400 METAR MROC 250400Z 05004KT CAVOK 19/18 A2998 RMK FEW120 HZ LGT ARND BECMG=
201001250500 METAR MROC 250500Z 06006KT CAVOK 18/16 A2998 BECMG=
201001250600 METAR MROC 250600Z 00000KT CAVOK 18/15 A2997 RMK HZ ARND FEW120 BECMG=
201001250700 METAR MROC 250700Z 08007KT CAVOK 18/16 A2994 RMK HZ ARND BECMG=
201001250800 METAR MROC NIL=
201001250900 METAR MROC 250900Z 09006KT CAVOK 18/14 A2993 RMK HZ ARND BECMG=
201001251000 METAR MROC 251000Z 00000KT CAVOK 17/14 A2994 RMK TRACE SC HZ LGT ARND BECMG=
201001251100 METAR MROC 251100Z 08006KT CAVOK 16/15 A2994 RMK HZ LGT ARND FEW120 BECMG=
201001251200 METAR MROC 251200Z 09004KT CAVOK 17/14 A2996 RMK HZ LGT ARND FEW130 BECMG=
201001251300 METAR MROC 251300Z 10006KT CAVOK 18/14 A2998 RMK HZ LGT ARND BECMG=
201001251400 METAR MROC 251400Z 09002KT CAVOK 22/16 A3001 RMK HZ LGT ARND BECMG=
201001251500 METAR MROC 251500Z 09005KT CAVOK 26/11 A3002 RMK HZ LGT ARND BECMG=
201001251600 METAR MROC 251600Z 10007KT CAVOK 27/15 A3001 RMK HZ LGT ARND BECMG=
201001251700 METAR MROC 251700Z 12005KT 9999 FEW045 28/15 A3000 RMK HZ LGT ARND BECMG=
201001251800 METAR MROC 251800Z 11005KT 9999 FEW045 29/15 A2997 RMK HZ LGT ARND BECMG=
201001251900 METAR MROC 251900Z 22006KT 9999 FEW030TCU SCT045 29/18 A2995 RMK HZ LGT ARND TCU E/W/S BECMG=
201001252000 METAR MROC 252000Z 12005KT 9999 FEW030TCU FEW045 SCT120 27/16 A2992 RMK HZ LGT ARND TCU SW BECMG=
201001252100 METAR MROC 252100Z 15006KT 9999 FEW030 SCT045 28/16 A2991 RMK RN SW HZ ARND BECMG=
201001252200 METAR MROC 252200Z 22007KT 9999 SCT045 BKN070 25/20 A2992 RMK HZ ARND BECMG=
201001252300 METAR MROC 252300Z 20003KT 9999 SCT045 SCT070 23/20 A2993 RMK HZ ARND BECMG=
201001260000 METAR MROC 260000Z 00000KT 9999 SCT045 SCT070 23/20 A2996 RMK HZ LEVE ARND BECMG=
201001260100 METAR MROC 260100Z 10010KT 9999 FEW040 SCT100 23/16 A2997 RMK HZ LGT ARND BECMG=
201001260200 METAR MROC 260200Z 10010KT 9999 FEW035 SCT120 22/16 A3000 BECMG=
201001260300 METAR MROC 260300Z 10013KT 9999 FEW035 22/16 A3001 RMK TRACE AC BECMG=
201001260400 METAR MROC 260400Z 11012KT 9999 FEW035 22/16 A3001 BECMG=
201001260500 METAR MROC 260500Z 11011KT 9999 FEW035 22/15 A3001 BECMG=
201001260600 METAR MROC 260600Z 11010KT 9999 FEW035 22/13 A2999 BECMG=
201001260700 METAR MROC 260700Z 11008KT 9999 FEW035 22/12 A2997 BECMG=
201001260800 METAR MROC 260800Z 10009KT 9999 FEW035 21/12 A2994=
201001260900 METAR MROC 260900Z 11009KT 9999 FEW035 21/12 A2994=
201001261000 METAR MROC 261000Z 11010KT CAVOK 20/13 A2993 RMK FEW250=
201001261100 METAR MROC 261100Z 11012KT CAVOK 21/13 A2994 RMK SCT250=
201001261200 METAR MROC 261200Z 08010KT CAVOK 20/14 A2997 RMK TRACE SC CI VEL MAX VTO 15KT=
201001261300 METAR MROC 261300Z 12010KT CAVOK 21/14 A3000 RMK TRACE SC BECMG=
201001261400 METAR MROC 261400Z 11015KT CAVOK 23/15 A3001 RMK TRACE SC BECMG=
201001261500 METAR MROC 261500Z 10014KT CAVOK 25/12 A3002 RMK TRACE SC BECMG=
201001261600 METAR MROC 261600Z 10014G24KT CAVOK 26/10 A3002 RMK TRACE SC=
201001261700 METAR MROC 261700Z 09014KT CAVOK 27/12 A3001 RMK TRACE SC BECMG=
201001261800 METAR MROC 261800Z 09015G25KT CAVOK 27/10 A2999 RMK TRACE SC BECMG=
201001261900 METAR MROC 261900Z 07017KT CAVOK 28/10 A2995 TRACE SCT CI BECMG=
201001262000 METAR MROC 262000Z 09015KT CAVOK 28/12 A2994 TRACE SCT BECMG=
201001262100 METAR MROC 262100Z 09014KT CAVOK 27/13 A2993 RMK TRACE SC BECMG=
201001262200 METAR MROC 262200Z 09010KT CAVOK 26/13 A2993 RMK TRACE SC BECMG=
201001262300 METAR MROC 262300Z 10010KT 080V140 9999 FEW045 24/13 A2994 RMK VEL MAX VTO 15KT BECMG=
201001270000 METAR MROC 270000Z 10010KT 9999 FEW045 22/13 A2997 BECMG=
201001270100 METAR MROC 270100Z 12008KT 9999 FEW030 21/15 A2999 BECMG=
201001270200 METAR MROC 270200Z 09013KT 9999 FEW030 22/13 A2999 RMK FEW200 VEL MAX VTO 18KT BECMG=
201001270300 METAR MROC 270300Z 09012KT 9999 FEW030 21/12 A3001 BECMG=
201001270400 METAR MROC 270400Z 10010KT 9999 FEW030 21/13 A3002 BECMG=
201001270500 METAR MROC 270500Z 10008G18KT 9999 FEW030 20/13 A3001 BECMG=
201001270600 METAR MROC 270600Z 11012G22KT 9999 FEW030 20/14 A3000 RMK FEW250 BECMG=
201001270700 METAR MROC 270700Z 12010G22KT CAVOK 19/13 A2998 BECMG=
201001270800 METAR MROC 270800Z 10013G24KT CAVOK 19/13 A2997=
201001270900 METAR MROC 270900Z 12008G18KT CAVOK 18/13 A2996=
201001271000 METAR MROC 271000Z 12013G24KT CAVOK 19/13 A2995=
201001271100 METAR MROC 271100Z 13010G20KT CAVOK 19/12 A2996=
201001271200 METAR MROC 271200Z 12013G24KT CAVOK 19/12 A2998=
201001271300 METAR MROC 271300Z 12010KT 100V160 CAVOK 20/12 A2998 RMK VEL MAX VTO 15KT TRACE SI BECMG=
201001271400 METAR MROC 271400Z 12013G23KT CAVOK 22/13 A3000 RMK TRACE SC BECMG=
201001271500 METAR MROC 271500Z 11014KT CAVOK 24/13 A3002 RMK TRACE SC VEL MAX VTO 19KT BECMG=
201001271600 METAR MROC 271600Z 12016KT CAVOK 25/14 A3001 RMK VEL MAX VTO 21KT TRACE SC BECMG=
201001271700 METAR MROC 271700Z 11013KT CAVOK 26/15 A3000 RMK FEW050 FEW250 VEL MAX VTO 18KT BECMG=
201001271800 METAR MROC 271800Z 12015KT 9999 FEW045 26/15 A2997 RMK DZ DST NE TRACE CI BECMG=
201001271900 METAR MROC 271900Z 11015G25KT 9999 SCT045 24/14 A2996 BECMG=
201001272000 METAR MROC 272000Z 10015G25KT 9999 SCT045 26/09 A2993 RMK TRACE SI BECMG=
201001272100 METAR MROC 272100Z 12014G28KT 9999 SCT030 25/10 A2993 BECMG=
201001272200 METAR MROC 272200Z 09010KT 9999 FEW030 SCT250 24/08 A2994 BECMG=
201001272300 METAR MROC 272300Z 13013G24KT 9999 FEW030 SCT250 24/11 A2995 BECMG=
201001280000 METAR MROC 280000Z 11018KT 9999 FEW030 SCT250 21/11 A2996 BECMG=
201001280100 METAR MROC 280100Z 11012KT 9999 FEW030 21/10 A2997 RMK FEW250 BECMG=
201001280200 METAR MROC 280200Z 12018KT 9999 FEW030 21/10 A2998 RMK TRACE CI BECMG=
201001280300 METAR MROC 280300Z 12010KT 9999 FEW030 20/13 A3000 BECMG=
201001280400 METAR MROC 280400Z 11016KT 9999 FEW030 20/19 A2998 BECMG=
201001280500 METAR MROC 280500Z 12016KT 9999 FEW030 20/13 A2999 BECMG=
201001280600 METAR MROC 280600Z 13020KT 9999 FEW030 20/13 A2997 BECMG=
201001280700 METAR MROC 280700Z 12019KT 9999 FEW030 20/13 A2995 BECMG=
201001280800 METAR MROC NIL=
201001280900 METAR MROC 280900Z 13011KT 9999 FEW030 19/13 A2993 BECMG=
201001281000 METAR MROC 281000Z 11010G22KT 9999 FEW030 19/14 A2994 BECMG=
201001281100 METAR MROC 281100Z 12012G25KT 9999 FEW025 19/13 A2995 BECMG=
201001281200 METAR MROC 281200Z 12017KT 9999 FEW025 18/14 A2996 BECMG=
201001281300 METAR MROC 281300Z 13013G23KT 9999 FEW025 20/14 A2998 BECMG=
201001281400 METAR MROC 281400Z 12014KT CAVOK 22/12 A2999 RMK TRACE SC BECMG=
201001281500 METAR MROC 281500Z 12013KT CAVOK 24/12 A3000 RMK TRACE SC BECMG=
201001281600 METAR MROC 281600Z 10011KT CAVOK 26/12 A3001 RMK TRACE SC GUST 17KT BECMG=
201001281700 METAR MROC 281700Z 09013KT CAVOK 27/12 A2998 RMK TRACE SC BECMG=
201001281800 METAR MROC 281800Z 08014KT CAVOK 28/13 A2995 RMK TRACE SC BECMG=
201001281900 METAR MROC 281900Z 11012KT 9999 FEW035 28/13 A2992 BECMG=
201001282000 METAR MROC 282000Z 09012KT 9999 FEW035 28/13 A2990 BECMG=
201001282100 METAR MROC 282100Z 10009KT 9999 FEW040 28/12 A2989 RMK VEL MAX VTO 16KT BECMG=
201001282200 METAR MROC 282200Z 10009KT 9999 FEW040 27/12 A2988 RMK VEL MAX VTO 16KT BECMG=
201001282300 METAR MROC 282300Z 08014KT 9999 FEW040 25/12 A2990 RMK VEL MAX VTO 18KT BECMG=
201001290000 METAR MROC 290000Z 07016KT 9999 FEW040 23/11 A2992 RMK VEL MAX VTO 23KT BECMG=
201001290100 METAR MROC 290100Z 10010KT 9999 FEW040 21/13 A2995 BECMG=
201001290200 METAR MROC 290200Z 09010KT 9999 FEW040 21/13 A2997 BECMG=
201001290300 METAR MROC 290300Z 12008KT 9999 FEW040 SCT250 20/15 A2999 BECMG=
201001290400 METAR MROC 290400Z 11011KT CAVOK 20/16 A2997 RMK FEW060 FEW250 BECMG=
201001290500 METAR MROC 290500Z 12011KT CAVOK 21/15 A2997 RMK BKN070 BECMG=
201001290600 METAR MROC 290600Z 12009KT 9999 SCT045 21/16 A2997 BECMG=
201001290700 METAR MROC 290700Z 12011KT 9999 FEW045 21/15 A2994 BECMG=
201001290800 METAR MROC 290800Z 12011KT 9999 FEW045 21/16 A2993 BECMG=
201001290900 METAR MROC 290900Z 12011KT CAVOK 20/16 A2991 RMK TRACE SC BECMG=
201001291000 METAR MROC 291000Z 10010KT CAVOK 20/15 A2990 RMK TRACE SC BECMG=
201001291100 METAR MROC 291100Z 11010KT CAVOK 21/14 A2990 BECMG=
201001291200 METAR MROC 291200Z 12010KT CAVOK 20/15 A2992 RMK TRACE SC VEL MAX VTO 15KT BECMG=
201001291300 METAR MROC 291300Z 11011KT CAVOK 22/14 A2993 TRACE SCT BECMG=
201001291400 METAR MROC 291400Z 11012KT CAVOK 24/15 A2995 RMK TRACE SC VEL MAX VTO 16KT BECMG=
201001291500 METAR MROC 291500Z 11013KT CAVOK 26/14 A2996 RMK TRACE SC VEL MAX VTO 22KT BECMG=
201001291600 METAR MROC 291600Z 09013KT CAVOK 27/14 A2996 RMK TRACE SC BECMG=
201001291700 METAR MROC 291700Z 07010KT CAVOK 28/15 A2995 RMK TRACE SC VEL MAX VTO 15KT BECMG=
201001291800 METAR MROC 291800Z 08012KT 9999 FEW040 29/15 A2992 RMK VEL MAX VTO 17KT BECMG=
201001291900 METAR MROC 291900Z 10011KT 9999 FEW040 29/17 A2988 RMK VEL MAX VTO 16KT BECMG=
201001292000 METAR MROC 292000Z 11009KT 9999 SCT040 28/16 A2987 RMK VEL MAX VTO 14KT DZ NE BECMG=
201001292100 METAR MROC 292100Z 12012KT 9999 SCT040 26/16 A2985 RMK FEW080 TCU DST S DZ DST N/NE/E BECMG=
201001292200 METAR MROC 292200Z 10011KT 9999 SCT040 26/16 A2985 RMK FEW080 DZ DST N/NE/E BECMG=
201001292300 METAR MROC 292300Z 12010G20KT 9999 BKN040 24/16 A2987 RMK FEW080 DZ DST N/NE/E BECMG=
201001300000 METAR MROC 300000Z 09008KT 9999 BKN035 23/16 A2989 RMK FEW080 RN DST N/NE/E BECMG=
201001300100 METAR MROC 300100Z 12009KT 9999 SCT035 22/17 A2990 RMK RN DST N/NE/E BECMG=
201001300200 METAR MROC 300200Z 11009G19KT 9999 FEW035 22/17 A2991 RMK FEW260 RN DST N/NE/E BECMG=
201001300300 METAR MROC 300300Z 14010KT 9999 FEW035 21/17 A2993 BECMG=
201001300400 METAR MROC 300400Z 12010KT 9999 FEW035 21/17 A2993 BECMG=
201001300500 METAR MROC 300500Z 12008KT 9999 FEW035 21/13 A2993 BECMG=
201001300600 METAR MROC 300600Z 00000KT 9999 FEW035 21/17 A2991 BECMG=
201001300700 METAR MROC 300700Z 13008KT 9999 FEW035 21/16 A2990 BECMG=
201001300800 METAR MROC 300800Z 10005KT 9999 FEW035 20/16 A2988 BECMG=
201001300900 METAR MROC 300900Z 07008KT 9999 FEW035 20/16 A2986 BECMG=
201001301000 METAR MROC 301000Z 08008KT 9999 FEW035 20/17 A2986 BECMG=
201001301100 METAR MROC 301100Z 10010KT 9999 FEW035 21/16 A2987 BECMG=
201001301200 METAR MROC 301200Z 08008KT 9999 FEW025 21/16 A2989 BECMG=
201001301300 METAR MROC 301300Z 12009KT CAVOK 22/16 A2990 RMK DZ DST NE/E BECMG=
201001301400 METAR MROC 301400Z 12008KT CAVOK 24/16 A2992 RMK DZ DST N/NE BECMG=
201001301500 METAR MROC 301500Z 12010KT 9999 FEW035 25/16 A2994 RMK DZ DST NE/E BECMG=
201001301600 METAR MROC 301600Z 13012KT 9999 FEW040 27/16 A2994 RMK DZ DST NE/E BECMG=
201001301700 METAR MROC 301700Z 12011KT 9999 FEW045 28/16 A2992 RMK DZ DST NE/E BECMG=
201001301800 METAR MROC 301800Z 13008G18KT 9999 FEW045 28/16 A2990 RMK DZ DST NE/E BECMG=
201001301900 METAR MROC 301900Z 13008G18KT 9999 SCT045 28/17 A2988 RMK RN DST NE/E BECMG=
201001302000 METAR MROC 302000Z 12012KT 9999 FEW045 29/16 A2985 RMK DZ DST NE/E BECMG=
201001302100 METAR MROC 302100Z 11009KT 9999 FEW045 27/16 A2985 RMK CB DST SW RN DST S BECMG=
201001302200 METAR MROC 302200Z 11010KT 9999 FEW045 27/17 A2984 RMK FEW070 TCU DST S BECMG=
201001302300 METAR MROC 302300Z 11010KT 070V130 9999 FEW045 26/16 A2985 BECMG=
201001310000 METAR MROC 310000Z 14002KT 9999 FEW040 24/16 A2987 BECMG=
201001310100 METAR MROC 310100Z 11008KT CAVOK 22/16 A2989 BECMG=
201001310200 METAR MROC 310200Z 10009KT CAVOK 22/17 A2990 BECMG=
201001310300 METAR MROC 310300Z 09006KT CAVOK 22/17 A2992 BECMG=
201001310400 METAR MROC 310400Z 08008KT CAVOK 22/17 A2992 BECMG=
201001310500 METAR MROC 310500Z 08007KT CAVOK 21/16 A2991 BECMG=
201001310600 METAR MROC 310600Z 09008KT CAVOK 21/16 A2991 BECMG=
201001310700 METAR MROC 310700Z 06003KT CAVOK 21/16 A2990 BECMG=
201001310800 METAR MROC 310800Z 07007KT CAVOK 20/16 A2989=
201001310900 METAR MROC 310900Z 08005KT CAVOK 20/17 A2989=
201001311000 METAR MROC 311000Z 07004KT CAVOK 20/16 A2990=
201001311100 METAR MROC 311100Z 06007KT CAVOK 20/16 A2990=
201001311200 METAR MROC 311200Z 08006KT CAVOK 21/16 A2990=
201001311300 METAR MROC 311300Z 11010KT 070V140 CAVOK 22/16 A2991 RMK TRACE SC BECMG=
201001311400 METAR MROC 311400Z 11011KT CAVOK 24/17 A2992 RMK TRACE SC BECMG=
201001311500 METAR MROC 311500Z 11015KT CAVOK 26/17 A2994 RMK TRACE SC BECMG=
201001311600 METAR MROC 311600Z 13010KT 080V150 9999 FEW045 27/17 A2994 BECMG=
201001311700 METAR MROC 311700Z 13011KT 100V160 9999 FEW045 28/17 A2993 BECMG=
201001311800 METAR MROC 311800Z 11011KT 080V140 9999 SCT045 29/17 A2990 BECMG=
201001311900 METAR MROC 311900Z 13012KT 9999 SCT045 30/17 A2988 BECMG=
201001312000 METAR MROC 312000Z 12010KT 9999 SCT045 30/17 A2986 BECMG=
201001312100 METAR MROC 312100Z 12010KT 9999 FEW010TCU SCT040 29/17 A2985 BECMG=
201001312200 METAR MROC 312200Z 13011KT 9999 FEW010TCU SCT040 28/18 A2987 BECMG=
201001312300 METAR MROC 312300Z 11011KT 9999 SCT040 25/18 A2988 RMK FEW140 BECMG=
201002010000 METAR MROC 010000Z 11009KT 9999 FEW040 23/17 A2990 RMK FEW250 BECMG=
201002010100 METAR MROC 010100Z 11010KT 9999 FEW035 23/17 A2991 BECMG=
201002010200 METAR MROC 010200Z 10008KT 9999 FEW035 22/18 A2992 BECMG=
201002010300 METAR MROC 010300Z 12011KT 9999 FEW035 SCT120 22/17 A2992 BECMG=
201002010400 METAR MROC 010400Z 12014KT 9999 FEW035 SCT120 22/17 A2993 BECMG=
201002010500 METAR MROC 010500Z 12012KT 9999 FEW035 BKN120 22/17 A2993 BECMG=
201002010600 METAR MROC 010600Z 13012KT 9999 FEW035 SCT120 22/18 A2991 BECMG=
201002010700 METAR MROC 010700Z 12011KT 9999 FEW035 22/17 A2990=
201002010800 METAR MROC 010800Z 12014KT 9999 FEW035 22/17 A2989=
201002010900 METAR MROC 010900Z 10014KT 9999 FEW035 22/17 A2989=
201002011000 METAR MROC 011000Z 11012KT 9999 FEW035 22/17 A2989=
201002011100 METAR MROC 011100Z 11008G18KT 9999 FEW035 22/17 A2991=
201002011200 METAR MROC 011200Z 11013G24KT 9999 FEW035 22/17 A2993=
201002011300 METAR MROC 011300Z 12014KT 9999 FEW035 23/17 A2994 RMK VEL MAX VTO 20KT BECMG=
201002011400 METAR MROC 011400Z 12015G25KT 9999 FEW045 24/18 A2995 BECMG=
201002011500 METAR MROC 011500Z 12014KT 9999 FEW045 26/18 A2996 RMK RN DST NE VEL MAX VTO 19KT BECMG=
201002011600 METAR MROC 011600Z 10016KT 9999 FEW045 28/17 A2994 RMK VEL MAX VTO 22KT DZ DST NE BECMG=
201002011700 METAR MROC 011700Z 11015KT 9999 FEW045 28/18 A2993 RMK VEL MAX VTO 21KT BECMG=
201002011800 METAR MROC 011800Z 09016KT 9999 FEW045 28/18 A2991 RMK DZ DST NE VEL MAX VTO 21KT BECMG=
201002011900 METAR MROC 011900Z 08016KT 9999 FEW045 28/18 A2989 RMK DZ DST NE VEL MAX VTO 22KT BECMG=
201002012000 METAR MROC 012000Z 09014KT 9999 SCT045 29/17 A2987 RMK DZ DST NE VEL MAX VTO 20KT BECMG=
201002012100 METAR MROC 012100Z 08011KT 9999 SCT030 29/17 A2985 RMK DZ DST NE BECMG=
201002012200 METAR MROC 012200Z 08015KT 9999 FEW025 29/17 A2985 RMK DZ DST NE BECMG=
201002012300 METAR MROC 012300Z 08010KT 9999 FEW020 26/17 A2987 RMK DZ DST N NE BECMG=
201002020000 METAR MROC 020000Z 10010KT 9999 FEW020 24/18 A2988 BECMG=
201002020100 METAR MROC 020100Z 10005KT 9999 FEW020 23/17 A2988 BECMG=
201002020200 METAR MROC 020200Z 10010KT 9999 FEW020 23/18 A2988 BECMG=
201002020300 METAR MROC 020300Z 10007KT 9999 FEW020 23/18 A2990 BECMG=
201002020400 METAR MROC 020400Z 09012KT 9999 FEW020 23/18 A2990 BECMG=
201002020500 METAR MROC 020500Z 08007KT 9999 FEW020 23/18 A2989 BECMG=
201002020600 METAR MROC 020600Z 09012KT 9999 FEW030 23/17 A2988 BECMG=
201002020700 METAR MROC 020700Z 10014KT 9999 FEW020 23/17 A2987 BECMG=
201002020800 METAR MROC NIL=
201002020900 METAR MROC 020900Z 12010G24KT 9999 FEW020 22/17 A2984 BECMG=
201002021000 METAR MROC 021000Z 12016KT 9999 FEW030 22/13 A2986 BECMG=
201002021100 METAR MROC 021100Z 11010KT 9999 FEW020 22/17 A2987 BECMG=
201002021200 METAR MROC 021200Z 12014KT 9999 FEW020 22/17 A2989 BECMG=
201002021300 METAR MROC 021300Z 12011KT 9999 FEW020 23/17 A2991 RMK DZ NE BECMG=
201002021400 METAR MROC 021400Z 12014G25KT 9999 FEW030 24/18 A2992 RMK DZ NE BECMG=
201002021500 METAR MROC 021500Z 12014KT 9999 FEW030 26/18 A2992 RMK DZ BECMG=
201002021600 METAR MROC 021600Z 10012KT 9999 FEW030 28/17 A2993 RMK DZ NE BECMG=
201002021700 METAR MROC 021700Z 10017KT 9999 FEW030 27/18 A2992 RMK DZ NE BECMG=
201002021800 METAR MROC 021800Z 09016KT 9999 FEW030 28/17 A2989 RMK DZ NE BECMG=
201002021900 METAR MROC 021900Z 07019KT 9999 FEW030 29/16 A2987 DZ NE BECMG=
201002022000 METAR MROC 022000Z 08020G30KT 9999 FEW030 29/17 A2985 RMK DZ NE BECMG=
201002022100 METAR MROC 022100Z 08015KT 9999 FEW030 29/17 A2985 BECMG=
201002022200 METAR MROC 022200Z 09014KT 9999 FEW030 27/17 A2986 DZ NE BECMG=
201002022300 METAR MROC 022300Z 10012KT 9999 FEW030 26/17 A2988 DZ NE BECMG=
201002022356 METAR MROC 030000Z 10010KT 9999 FEW030 24/16 A2989 DZ NE BECMG=
201002030000 METAR MROC 030000Z 10010KT 9999 FEW030 24/16 A2989 DZ NE BECMG=
201002030100 METAR MROC 030100Z 10008KT 9999 FEW030 23/17 A2991 BECMG=
201002030200 METAR MROC 030200Z 09014KT 9999 FEW040 23/17 A2991 BECMG=
201002030300 METAR MROC 030300Z 10011KT 070V130 9999 FEW030 23/17 A2992 RMK FEW200 BECMG=
201002030400 METAR MROC 030400Z 10012KT 9999 FEW030 23/17 A2992 RMK FEW200 VEL MAX VTO 17KT BECMG=
201002030500 METAR MROC 030500Z 09015KT 9999 FEW030 22/17 A2992 BECMG=
201002030600 METAR MROC 030600Z 11013G24KT 9999 FEW030 22/17 A2991 BECMG=
201002030700 METAR MROC 030700Z 10014KT 9999 FEW030 22/16 A2990 RMK VEL MAX VTO 19KT BECMG=
201002030800 METAR MROC 030800Z 10013KT 9999 FEW025 22/17 A2988 RMK VEL MAX VTO 19KT BECMG=
201002030900 METAR MROC 030900Z 09016G26KT 9999 FEW030 22/16 A2987 BECMG=
201002031000 METAR MROC 031000Z 09018G30KT 9999 FEW030 22/15 A2989 BECMG=
201002031100 METAR MROC 031100Z 09016KT CAVOK 22/16 A2990 RMK VEL MAX VTO 22KT BECMG=
201002031200 METAR MROC 031200Z 10016KT CAVOK 22/16 A2990 RMK VEL MAX VTO 21KT BECMG=
201002031300 METAR MROC 031300Z 10016G26KT CAVOK 22/16 A2992 TRACE SCT BECMG=
201002031400 METAR MROC 031400Z 11014KT CAVOK 25/14 A2994 VEL MAX VTO 20KTS TRACE SCT BECMG=
201002031500 METAR MROC 031500Z 10017G27KT 9999 FEW030 25/17 A2996 BECMG=
201002031600 METAR MROC 031600Z 09016KT 9999 FEW040 27/16 A2995 VEL MX VTO 20KTS BECMG=
201002031700 METAR MROC 031700Z 10020G30KT 9999 FEW040 27/17 A2993 BECMG=
201002031800 METAR MROC 031800Z 08022G32KT 9999 FEW040 27/15 A2991 BECMG=
201002031900 METAR MROC 031900Z 07022G32KT 9999 FEW040 28/15 A2989 BECMG=
201002032000 METAR MROC 032000Z 08030KT 9999 FEW040 29/15 A2986 BECMG=
201002032100 METAR MROC 032100Z 07020G30KT 9999 FEW040 28/15 A2985 BECMG=
201002032200 METAR MROC 032200Z 07022G35KT 9999 FEW040 27/16 A2984 BECMG=
201002032300 METAR MROC 032300Z 09010G20KT 9999 FEW040 26/16 A2986 BECMG=
201002040000 METAR MROC 040000Z 09016G26KT 9999 FEW040 24/17 A2987 RMK FEW300 BECMG=
201002040100 METAR MROC 040100Z 09012G22KT 9999 FEW035 23/17 A2989 RMK FEW300 BECMG=
201002040200 METAR MROC 040200Z 09015G25KT 9999 FEW035 23/18 A2990 RMK FEW300 BECMG=
201002040300 METAR MROC 040300Z 12013KT 9999 FEW030 22/17 A2992 BECMG=
201002040400 METAR MROC 040400Z 12013KT 9999 FEW030 22/17 A2992 BECMG=
201002040500 METAR MROC 040500Z 12010KT 9999 FEW030 22/17 A2992 BECMG=
201002040600 METAR MROC NIL=
201002040700 METAR MROC 040700Z 08004KT 9999 FEW030 21/17 A2989 BECMG=
201002040800 METAR MROC 040800Z 08005KT 9999 FEW030 21/17 A2989 BECMG=
201002040900 METAR MROC 040900Z 00000KT 9999 FEW030 20/13 A2989 BECMG=
201002041000 METAR MROC 041000Z 12008KT 9999 FEW030 21/17 A2990 BECMG=
201002041100 METAR MROC 041100Z 12008KT 9999 FEW030 21/16 A2991 BECMG=
201002041200 METAR MROC 041200Z 10010KT CAVOK 21/16 A2996 RMK TRACE SC BECMG=
201002041300 METAR MROC 041300Z 13010KT CAVOK 22/16 A2995 RMK HZ LGT ARND VEL MAX VTO  17KT BECMG=
201002041400 METAR MROC 041400Z 13006G16KT CAVOK 24/16 A2997 RMK HZ LGT SW/W/SE BECMG=
201002041500 METAR MROC 041500Z 10010G20KT CAVOK 27/13 A2997 RMK HZ LGT SW/W/SE BECMG=
201002041600 METAR MROC 041600Z 09012G22KT CAVOK 29/12 A2997 RMK HZ LGT ARND BECMG=
201002041700 METAR MROC 041700Z 12012KT CAVOK 30/13 A2995 RMK HZ LGT SW/W/SE BECMG=
201002041800 METAR MROC 041800Z 13012KT CAVOK 30/13 A2993 RMK HZ LGT SW/W/SE BECMG=
201002041900 METAR MROC 041900Z 12010G20KT 9999 FEW045 30/14 A2990 RMK HZ LGT SW/W BECMG=
201002042000 METAR MROC 042000Z 12012KT 9999 FEW045 30/14 A2989 RMK HZ LGT W BECMG=
201002042100 METAR MROC 042100Z 13010KT 9999 FEW045 30/15 A2987 RMK HZ LEVE W=
201002042200 METAR MROC 042200Z 12007KT 9999 FEW040 28/15 A2988 RMK HZ LEVE W BECMG=
201002042300 METAR MROC 042300Z 12006KT 9999 FEW040 27/17 A2990 RMK HZ W BECMG=
201002050000 METAR MROC 050000Z 13005KT 9999 FEW040 24/17 A2992 RMK HZ W BECMG=
201002050100 METAR MROC 050100Z 11010KT 9999 FEW035 23/17 A2994 RMK HZ W BECMG=
201002050200 METAR MROC 050200Z 09008KT 9999 FEW035 22/17 A2998 RMK HZ W BECMG=
201002050300 METAR MROC 050300Z 10010KT CAVOK 22/17 A3000 TRACE SCT BECMG=
201002050400 METAR MROC 050400Z 11010KT CAVOK 22/17 A3000 TRACE SCT BECMG=
201002050500 METAR MROC 050500Z 09012KT CAVOK 22/17 A2999 TRACE SCT BECMG=
201002050600 METAR MROC 050600Z 08012KT CAVOK 21/16 A2999 TRACE SCT BECMG=
201002050700 METAR MROC NIL=
201002050800 METAR MROC 050800Z 07008KT CAVOK 19/14 A2995 TRACE SCT BECMG=
201002050900 METAR MROC 050900Z 09010KT CAVOK 20/15 A2997 TRACE SC BECMG=
201002051000 METAR MROC 051000Z 10009KT CAVOK 20/15 A2997 TRACE SCT BECMG=
201002051100 METAR MROC 051100Z 08012KT CAVOK 19/15 A2999 TRACE SC BECMG=
201002051200 METAR MROC 051200Z 08011KT CAVOK 19/15 A2999 SCT250 BECMG=
201002051300 METAR MROC 051300Z 08010KT CAVOK 21/14 A3001 RMK SCT250 FU SE BECMG=
201002051400 METAR MROC 051400Z 10008KT CAVOK 24/14 A3002 RMK SCT250 BECMG=
201002051500 METAR MROC 051500Z 09006KT CAVOK 27/13 A3003 RMK SCT250 BECMG=
201002051600 METAR MROC 051600Z 00000KT CAVOK 29/12 A3003 RMK SCT250 BECMG 24006KT=
201002051700 METAR MROC 051700Z 27006KT CAVOK 31/13 A3000 RMK SCT250 BECMG=
201002051800 METAR MROC 051800Z 24009KT CAVOK 32/12 A2998 RMK FEW250 TRACE CU BECMG=
201002051900 METAR MROC 051900Z 26008KT CAVOK 32/14 A2995 RMK FEW250 TRACE CU BECMG=
201002052000 METAR MROC 052000Z 27013KT 9999 FEW040 31/16 A2993 BECMG=
201002052100 METAR MROC 052100Z 24009KT 210V280 CAVOK 31/15 A2992 RMK FEW050 FEW300 BECMG=
201002052200 METAR MROC 052200Z 25008KT CAVOK 30/16 A2991 RMK FEW050 SCT300 BECMG=
201002052300 METAR MROC 052300Z 24008KT CAVOK 28/18 A2992 RMK BKN300 BECMG=
201002060000 METAR MROC 060000Z 27008KT CAVOK 25/18 A2995 RMK BKN250 HZ QUAD E BECMG=
201002060100 METAR MROC 060100Z 00000KT CAVOK 22/18 A2998 RMK FEW070 SCT250 HZ ARND BECMG=
201002060200 METAR MROC 060200Z 00000KT 9999 FEW045 SCT200 21/18 A3002 RMK FEW100 HZ ARND BECMG=
201002060300 METAR MROC 060300Z 00000KT 9999 SCT035 22/18 A3003 RMK FEW200 BECMG=
201002060400 METAR MROC 060400Z 00000KT 9999 FEW035 21/18 A3002 RMK FEW200 HZ LGT ARND BECMG=
201002060500 METAR MROC 060500Z 00000KT CAVOK 20/17 A3001 RMK FEW250 HZ LGT ARND=
201002060600 METAR MROC 060600Z 00000KT CAVOK 19/16 A2999 RMK FEW250 HZ LGT ARND BECMG=
201002060700 METAR MROC 060700Z 08002KT CAVOK 19/16 A2999 RMK HZ LGT ARND=
201002060800 METAR MROC 060800Z 09009KT CAVOK 20/16 A2996=
201002060900 METAR MROC 060900Z 07008KT 9999 SKC 18/15 A2996=
201002061000 METAR MROC 061000Z 07006KT 9999 SKC 16/11 A2996=
201002061100 METAR MROC 061100Z 08007KT 9999 SKC 17/10 A2996=
201002061200 METAR MROC 061200Z 10004KT CAVOK 18/15 A2998 RMK FEW300=
201002061300 METAR MROC 061300Z 10006KT CAVOK 21/13 A2999 RMK SCT300 BECMG=
201002061400 METAR MROC 061400Z 11008KT 060V140 CAVOK 24/12 A3001 RMK SCT300 BECMG=
201002061500 METAR MROC 061500Z 13009KT CAVOK 27/08 A3003 RMK SCT300 BECMG=
201002061600 METAR MROC 061600Z 09008KT CAVOK 30/00 A3002 RMK SCT300 BECMG=
201002061700 METAR MROC 061700Z 15010KT 110V170 CAVOK 31/05 A2999 RMK SCT300 BECMG=
201002061800 METAR MROC 061800Z 12010KT 090V150 CAVOK 32/01 A2996 RMK SCT300 BECMG=
201002061900 METAR MROC 061900Z 11010KT CAVOK 32/01 A2994 RMK BKN250 BECMG=
201002062000 METAR MROC 062000Z 13011KT CAVOK 32/02 A2991 RMK BKN250 BECMG=
201002062100 METAR MROC 062100Z 22011KT 9999 FEW035 BKN250 29/18 A2991 BECMG=
201002062200 METAR MROC 062200Z 25011KT 9999 FEW035 BKN250 28/18 A2991 BECMG=
201002062300 METAR MROC 062300Z 25011KT 9999 FEW035 BKN250 26/19 A2993 BECMG=
201002070000 METAR MROC 070000Z 26010KT 9999 FEW035 BKN250 23/19 A2995 BECMG=
201002070100 METAR MROC 070100Z 00000KT 9999 FEW035 BKN250 23/19 A2997 BECMG=
201002070200 METAR MROC 070200Z 00000KT 9999 FEW035 SCT250 21/18 A2999 BECMG=
201002070300 METAR MROC 070300Z 11005KT 9999 FEW035 21/15 A3001 RMK FEW250 BECMG=
201002070400 METAR MROC 070400Z 00000KT 9999 FEW035 21/14 A3002 BECMG=
201002070500 METAR MROC 070500Z 00000KT 9999 FEW035 21/14 A3002 BECMG=
201002070600 METAR MROC 070600Z 00000KT 9999 FEW035 20/15 A3000 BECMG=
201002070700 METAR MROC 070700Z 00000KT 9999 FEW035 19/15 A2999 BECMG=
201002070800 METAR MROC 070800Z 00000KT 9999 FEW035 20/16 A2996 BECMG=
201002070900 METAR MROC 070900Z 06006KT 9999 FEW035 18/14 A2994 BECMG=
201002071000 METAR MROC 071000Z 04006KT 9999 FEW035 18/14 A2999 BECMG=
201002071100 METAR MROC 071100Z 13010KT 9999 FEW035 20/16 A2996 BECMG=
201002071200 METAR MROC 071200Z 11010KT 9999 SCT030 20/15 A2997 BECMG=
201002071300 METAR MROC 071300Z 12008KT 9999 FEW030 22/16 A2999 BECMG=
201002071400 METAR MROC 071400Z 13014KT 9999 FEW030 23/16 A3000 BECMG=
201002071500 METAR MROC 071500Z 14009KT 9999 SCT030 23/16 A3002 BECMG=
201002071600 METAR MROC 071600Z 14008KT 9999 SCT030 26/15 A3002 BECMG=
201002071700 METAR MROC 071700Z 15009KT 9999 SCT030 26/15 A3001 BECMG=
201002071800 METAR MROC 071800Z 14008KT 9999 SCT030 28/15 A2998 BECMG=
201002071900 METAR MROC 071900Z 13011KT 9999 SCT030 28/15 A2995 BECMG=
201002072000 METAR MROC 072000Z 12011KT 9999 SCT030 28/15 A2992 BECMG=
201002072100 METAR MROC 072100Z 12010KT 9999 FEW020 SCT040 27/16 A2991 BECMG=
201002072200 METAR MROC 072200Z 11012KT 9999 FEW020 SCT030 26/16 A2991 BECMG=
201002072300 METAR MROC 072300Z 10011KT 9999 SCT030 SCT100 24/16 A2992 BECMG=
201002072354 METAR MROC 072354Z 10012KT 9999 FEW020 SCT040 23/16 A2993 BECMG=
201002080000 METAR MROC 080000Z 10012KT 9999 FEW020 SCT040 23/16 A2993 BECMG=
201002080100 METAR MROC 080100Z 11012KT 9999 SCT040 22/16 A2996 BECMG=
201002080200 METAR MROC 080200Z 11008KT 9999 SCT042 22/16 A2998 BECMG=
201002080300 METAR MROC 080300Z 10007KT 9999 FEW040 BKN090 22/16 A3000 BECMG=
201002080400 METAR MROC 080400Z 10007KT 9999 FEW035 OVC080 21/16 A3001 BECMG=
201002080500 METAR MROC 080500Z 12007KT 9999 FEW035 OVC080 21/15 A3001 BECMG=
201002080600 METAR MROC 080600Z 08006KT 9999 FEW035 BKN090 21/15 A2999 BECMG=
201002080700 METAR MROC 080700Z 10005KT 9999 FEW030 OVC090 21/14 A2997 BECMG=
201002080800 METAR MROC 080800Z 12007KT 9999 FEW030 OVC080 21/15 A2996 BECMG=
201002080900 METAR MROC 080900Z 11006KT 9999 FEW030 OVC080 21/15 A2995 BECMG=
201002081000 METAR MROC 081000Z 09008KT 9999 SCT030 BKN070 21/15 A2996 BECMG=
201002081100 METAR MROC 081100Z 10005KT 9999 -DZ OVC070 21/16 A2998 BECMG=
201002081200 METAR MROC 081200Z 11004KT 9999 OVC070 20/16 A3000 REDZ BECMG=
201002081300 METAR MROC 081300Z 00000KT 9999 FEW020 OVC090 20/16 A3002 REDZ VIS W 8KM DUE 8KM BECMG=
201002081400 METAR MROC 081400Z 00000KT 9999 -DZ BKN100 20/17 A3005 VIS W 8KM DUE HZ FEW250 BECMG 24006KT=
201002081500 METAR MROC 081500Z 06003KT CAVOK 22/18 A3006 REDZ VIS W 8KM DUE HZ OVC150 BECMG=
201002081600 METAR MROC 081600Z 12007KT CAVOK 24/17 A3005 OVC150 BECMG=
201002081700 METAR MROC 081700Z 11008KT 9999 FEW040 BKN140 25/17 A3003 HZ LGT W BECMG=
201002081800 METAR MROC 081800Z 11007KT 9999 FEW042 BKN140 27/17 A3000 HZ LGT W BECMG=
201002081900 METAR MROC 081900Z 14005KT 9999 DZ BKN100 25/18 A2999 RMK HZ LGT W BECMG=
201002082000 METAR MROC 082000Z 08006KT 9999 FEW030 BKN100 26/17 A2996 RMK REDZ RN DST E/NE/NW BECMG=
201002082100 METAR MROC 082100Z 14006KT 9999 FEW035 SCT080 26/16 A2995 RMK SCT100 RN DST E/SE/SSE BECMG=
201002082200 METAR MROC 082200Z 00000KT 9999 FEW035 BKN100 25/18 A2994 RMK FEW080 DZ DST E/SE/S BECMG=
201002082300 METAR MROC 082300Z 00000KT 9999 SCT035 SCT110 25/18 A2995 RMK DZ E/SE BECMG=
201002090000 METAR MROC 090000Z 00000KT 9999 FEW035 BKN100 23/20 A2996 RMK DZ DST E/SE BECMG=
201002090100 METAR MROC 090100Z 00000KT 9999 FEW025 BKN100 23/20 A2999 RMK FEW035 BECMG=
201002090200 METAR MROC 090200Z 00000KT 9999 FEW035 SCT110 22/18 A3000 BECMG=
201002090300 METAR MROC 090300Z 10003KT 9999 FEW035 SCT110 21/18 A3001 BECMG=
201002090400 METAR MROC NIL=
201002090500 METAR MROC 090500Z 00000KT 9999 FEW035 SCT110 20/18 A3003 BECMG=
201002090600 METAR MROC 090600Z 00000KT 9999 FEW030 SCT100 21/18 A3002 BECMG=
201002090700 METAR MROC 090700Z 00000KT 9999 FEW030 SCT100 20/17 A3000 BECMG=
201002090800 METAR MROC 090800Z 00000KT 9999 FEW030 SCT100 21/18 A2999 BECMG=
201002090900 METAR MROC 090900Z 00000KT 9999 FEW030 SCT100 21/17 A2998 BECMG=
201002091000 METAR MROC 091000Z 00000KT 9999 FEW030 SCT100 20/17 A2999 BECMG=
201002091100 METAR MROC 091100Z 00000KT 9999 FEW030 20/17 A2999 BECMG=
201002091200 METAR MROC 091200Z 00000KT 9999 FEW030 SCT100 19/17 A3001 BECMG=
201002091300 METAR MROC 091300Z 00000KT CAVOK 21/17 A3003 RMK SCT120 HZ LGT ARND BECMG=
201002091400 METAR MROC 091400Z 00000KT CAVOK 24/18 A3005 RMK FEW120 HZ LGT ARND BECMG=
201002091500 METAR MROC 091500Z 00000KT 9999 FEW045 26/18 A3005 RMK HZ SW/W BECMG 28003KT=
201002091600 METAR MROC 091600Z 33003KT 9999 FEW045 28/17 A3004 RMK HZ SW/W BECMG=
201002091700 METAR MROC 091700Z 23005KT 9999 FEW045 29/18 A3001 RMK HZ LGT ARND BECMG=
201002091800 METAR MROC 091800Z 24008KT 9999 FEW045 31/18 A2998 BECMG=
201002091900 METAR MROC 091900Z 24011KT 9999 SCT040 31/20 A2995 BECMG=
201002092000 METAR MROC 092000Z 26012KT 9999 FEW030TCU SCT040 30/20 A2993 RMK TCU S/N BECMG=
201002092100 METAR MROC 092100Z 25012KT 9999 FEW030TCU SCT040 29/20 A2991 HZ LEVE ARND BECMG=
201002092200 METAR MROC 092200Z 26007KT 9999 BKN035 28/19 A2992 RMK HZ LEVE ARND RN SE BECMG 8000 VCSH=
201002092300 METAR MROC 092300Z 00000KT 9999 BKN035 26/19 A2993 RMK HZ LEVE W BECMG=
201002100000 METAR MROC 100000Z 00000KT 9999 FEW020 BKN035 25/19 A2994 BECMG 8000 RA=
201002100100 METAR MROC 100100Z 14003KT 9999 FEW030 SCT100 24/19 A2996 BECMG=
201002100200 METAR MROC 100200Z 00000KT 9999 FEW030 SCT100 24/19 A2998 BECMG=
201002100300 METAR MROC 100300Z 12006KT 9999 FEW030 SCT120 23/19 A2999 BECMG=
201002100400 METAR MROC 100400Z 11005KT 9999 FEW030 22/18 A3000 FEW140 BECMG=
201002100500 METAR MROC 100500Z 09008KT 9999 FEW030 22/18 A3000 BECMG=
201002100600 METAR MROC 100600Z 10006KT 9999 FEW040 22/18 A2999 BECMG=
201002100700 METAR MROC 100700Z 14007KT 9999 FEW040 22/18 A2994=
201002100800 METAR MROC 100800Z 12008KT CAVOK 22/17 A2994 TRACE SCT BECMG=
201002100900 METAR MROC 100900Z 08008KT CAVOK 21/17 A2993 TRACE SCT BECMG=
201002101000 METAR MROC 101000Z 10004KT CAVOK 21/17 A2993 TRACE SC BECMG=
201002101100 METAR MROC 101100Z 09007KT CAVOK 21/17 A2994 TRACE SCT BECMG=
201002101200 METAR MROC 101200Z 11008KT CAVOK 21/17 A2995 SCT250 BECMG=
201002101300 METAR MROC 101300Z 10008G20KT 050V140 CAVOK 23/17 A2997 RK TRACE SCT CI BECMG=
201002101400 METAR MROC 101400Z 10009KT CAVOK 25/16 A2998 RMK TRACE SC CI BECMG=
201002101500 METAR MROC 101500Z 12013KT CAVOK 27/16 A2998 RMK TRACE SC BECMG=
201002101600 METAR MROC 101600Z 10014G26KT CAVOK 28/16 A2997 RMK TRACE SC BECMG=
201002101700 METAR MROC 101700Z 09015KT 9999 FEW040 27/16 A2996 RMK GUST 21KT BECMG=
201002101800 METAR MROC 101800Z 10018G28KT 9999 FEW040 29/15 A2994 BECMG=
201002101900 METAR MROC 101900Z 09013KT 9999 FEW040 30/15 A2991 BECMG=
201002102000 METAR MROC 102000Z 09016KT 9999 FEW040 30/14 A2988 RMK FEW CI BECMG=
201002102100 METAR MROC 102100Z 11013KT CAVOK 30/15 A2987 RMK FEW050 SCT250 BECMG=
201002102200 METAR MROC 102200Z 09013KT CAVOK 29/15 A2987 RMK FEW050 SCT250 TCU DST SW VEL MAX VTO 21KT BECMG=
201002102300 METAR MROC 102300Z 11012KT CAVOK 27/15 A2988 RMK SCT250 VEL MAX VTO 18KT BECMG=
201002110000 METAR MROC 110000Z 11013KT CAVOK 25/15 A2990 RMK FEW250 VEL MAX VTO 19KT BECMG=
201002110100 METAR MROC 110100Z 09014KT CAVOK 23/15 A2991 RMK FEW250 VEL MAX VTO 20KT BECMG=
201002110200 METAR MROC 110200Z 10009KT CAVOK 23/15 A2994 RMK TRACE SC/CI BECMG=
201002110300 METAR MROC 110300Z 09011KT CAVOK 23/15 A2997 BECMG=
201002110400 METAR MROC 110400Z 12008KT CAVOK 22/15 A2998 BECMG=
201002110500 METAR MROC 110500Z 12013KT CAVOK 22/15 A2996 BECMG=
201002110600 METAR MROC 110600Z 13016KT CAVOK 21/15 A2995=
201002110700 METAR MROC 110700Z 11011KT 9999 FEW035 21/16 A2994 RMKFEW260=
201002110800 METAR MROC 110800Z 11009KT 9999 FEW035 21/16 A2992 RMK FEW260=
201002110900 METAR MROC 110900Z 10013KT 9999 FEW035 21/16 A2991 RMK FEW260=
201002111000 METAR MROC 111000Z 11014KT CAVOK 21/15 A2991 RMK FEW260=
201002111100 METAR MROC 111100Z 10010KT CAVOK 21/15 A2993 RMK FEW260=
201002111200 METAR MROC 111200Z 12009KT 9999 FEW030 21/15 A2994 RMK DZ DST NE/E=
201002111300 METAR MROC 111300Z 10011KT 9999 FEW040 22/15 A2994 RMK VEL MAX VTO 16KT BECMG=
201002111400 METAR MROC 111400Z 09014KT 9999 FEW045 24/15 A2996 RMK VEL MAX VTO 19KT BECMG=
201002111500 METAR MROC 111500Z 08018G28KT 9999 FEW045 25/14 A2997 BECMG=
201002111600 METAR MROC 111600Z 09016KT 9999 FEW045 27/14 A2996 RMK VEL MAX VTO 21KT HZ QUAD W BECMG=
201002111700 METAR MROC 111700Z 09016G27KT 9999 FEW045 28/13 A2994 RMK HZ LGT W BECMG=
201002111800 METAR MROC 111800Z 11014KT CAVOK 28/15 A2992 RMK FEW050 VEL MAX VTO 21KT BECMG=
201002111900 METAR MROC 111900Z 09016G26KT 9999 FEW045 28/16 A2989 BECMG=
201002112000 METAR MROC 112000Z 11012KT 9999 FEW045 29/16 A2986 RMK VEL MAX VTO 17KT TCU DST SW BECMG=
201002112100 METAR MROC 112100Z 10009KT 9999 SCT030 27/15 A2986 RMK DZ DST NE BECMG=
201002112200 METAR MROC 112200Z 09012KT 9999 SCT030 25/15 A2987 RMK DZ DST NE BECMG=
201002112300 METAR MROC 112300Z 10012G22KT 9999 SCT030 24/15 A2988 RMK DZ DST NE BECMG=
201002120000 METAR MROC 120000Z 12016KT 9999 SCT030 22/16 A2988 RMK DZ DST NE BECMG=
201002120100 METAR MROC 120100Z 10013KT 9999 SCT030 22/15 A2990 BECMG=
201002120200 METAR MROC 120200Z 10010KT 9999 SCT030 22/15 A2991 BECMG=
201002120300 METAR MROC 120300Z 12013KT 9999 SCT030 22/15 A2991 BECMG=
201002120400 METAR MROC 120400Z 13010G22KT 9999 FEW030 21/14 A2992 BECMG=
201002120500 METAR MROC 120500Z 12010KT 9999 FEW030 21/14 A2992 BECMG=
201002120600 METAR MROC 120600Z 11007KT 9999 FEW030 21/14 A2991 BECMG=
201002120700 METAR MROC 120700Z 08006KT 9999 FEW030 21/14 A2989 BECMG=
201002120800 METAR MROC 120800Z 09010KT 9999 FEW030 21/14 A2986 BECMG=
201002120900 METAR MROC 120900Z 05010KT 9999 FEW030 20/14 A2987 BECMG=
201002121000 METAR MROC 121000Z 00000KT 9999 FEW030 19/14 A2988 BECMG=
201002121100 METAR MROC 121100Z 10006KT CAVOK 20/10 A2990 RMK SCT110 BECMG=
201002121200 METAR MROC 121200Z 00000KT CAVOK 19/10 A2992 RMK BKN110 BECMG=
201002121300 METAR MROC 121300Z 00000KT CAVOK 20/10 A2996 RMK BKN110 BECMG=
201002121400 METAR MROC 121400Z 08002KT CAVOK 22/11 A2997 RMK BKN110 BECMG=
201002121500 METAR MROC 121500Z VRB02KT CAVOK 25/16 A2999 RMK BKN110 BECMG 24006KT=
201002121600 METAR MROC 121600Z 25007KT 9999 FEW045 SCT110 26/18 A2998 BECMG=
201002121700 METAR MROC 121700Z 230006KT 9999 FEW045 SCT110 28/18 A2996 BECMG=
201002121800 METAR MROC 121800Z 22008KT 9999 FEW040 SCT120 29/19 A2994 BECMG=
201002121900 METAR MROC 121900Z 23007KT 9999 FEW040 BKN120 29/19 A2991 BECMG=
201002122000 METAR MROC 122000Z 25010KT 9999 SCT035 BKN120 26/20 A2990 RMK RN S BECMG=
201002122100 METAR MROC 122100Z 29008KT 9999 SCT030 BKN120 26/19 A2989 BECMG=
201002122200 METAR MROC 122200Z 23004KT 9999 SCT035 BKN130 25/20 A2989 BECMG=
201002122300 METAR MROC 122300Z 19003KT 9999 SCT030 BKN130 25/19 A2990 RN DIST N NE BECMG=
201002130000 METAR MROC 130000Z 00000KT 9999 FEW020 OVC130 24/19 A2990 RN N NE DIST BECMG=
201002130100 METAR MROC 130100Z 00000KT 9999 FEW035 OVC130 23/19 A2991 BECMG=
201002130200 METAR MROC 130200Z 00000KT 9999 FEW040 OVC130 23/20 A2993 BECMG=
201002130300 METAR MROC 130300Z 00000KT 9999 FEW045 OVC130 22/20 A2993 RMK HZ LGT ARND BECMG=
201002130400 METAR MROC 130400Z 27005KT 9999 FEW040 BKN120 21/20 A2997 RMK LGT HZ ARND BECMG=
201002130500 METAR MROC 130500Z 25004KT 9999 VCFG FEW035 OVC120 21/20 A2998 RMK VIS 7KM SW HZ ARND BECMG=
201002130600 METAR MROC 130600Z 00000KT 7000 3000W VCFG SCT010 OVC100 21/21 A2997 RMK HZ ARND BECMG 5000 BR=
201002130700 METAR MROC 130700Z 11002KT 7000 VCFG FEW006 SCT015 OVC110 21/21 A2994 RMK VIS 4KM SW BECMG=
201002130800 METAR MROC 130800Z 00000KT 7000 VCFG SCT015 OVC120 21/21 A2993 RMK VIS 4KM SW BECMG=
201002130900 METAR MROC 130900Z 00000KT 7000 VCFG FEW009 SCT020 21/20 A2993 RMK VIS 4KM SW BECMG=
201002131000 METAR MROC 131000Z 00000KT 7000 3000SW BR VCFG BKN020 21/19 A2994 BECMG=
201002131100 METAR MROC 131100Z 07003KT 8000 3000W BR BKN025 21/19 A2995 BECMG=
201002131200 METAR MROC 131200Z 08005KT 9999 VCFG FEW045 SCT120 21/18 A2995 RMK VIS 5KM SW BECMG=
201002131300 METAR MROC 131300Z 06007KT CAVOK 22/18 A2997 RMK BKN120 HZ ARND BECMG=
201002131400 METAR MROC 131400Z 10007KT CAVOK 26/18 A2998 VIS W 8KM DUE HZ SCT140 BECMG=
201002131500 METAR MROC 131500Z 10007KT 9999 FEW040 SCT140 26/18 A3000 VIS W 7KM DUE HZ BECMG 24006KT=
201002131600 METAR MROC 131600Z 12011KT 9999 FEW040 SCT250 29/15 A3000 HZ LGT W BECMG=
201002131700 METAR MROC 131700Z 12011KT 9999 FEW045 SCT270 30/13 A2997 HZ LGT ARND BECMG=
201002131800 METAR MROC 131800Z 10012KT 9999 FEW045 BKN270 30/15 A2995 HZ LGT ARND BECMG=
201002131900 METAR MROC 131900Z 12013KT 9999 FEW040 SCT270 30/16 A2992 HZ LGT ARND BECMG=
201002132000 METAR MROC 132000Z 12010KT 9999 FEW035 SCT250 29/17 A2991 HZ LGT ARND BECMG 24006KT=
201002132100 METAR MROC 132100Z 12012KT 9999 FEW035 SCT250 26/15 A2989 BECMG=
201002132200 METAR MROC 132200Z 12015G25KT 9999 FEW035 SCT110 24/16 A2989 RMK FEW250 RN DST E/SE/SW BECMG=
201002132300 METAR MROC 132300Z 13016G26KT 9999 SCT040 BKN110 22/15 A2991 RMK RN DST NE/E BECMG=
201002140000 METAR MROC 140000Z 13013G24KT 9999 BKN040 SCT100 22/15 A2994 RMK RN DST NE/E BECMG=
201002140100 METAR MROC 140100Z 12013G24KT 9999 SCT035 SCT110 22/15 A2996 RMK CB/LTNG DST S RN DST NE/E BECMG=
201002140200 METAR MROC 140200Z 13010G20KT 9999 SCT035 BKN110 21/14 A2998 RMK LTNG DST S DZ DST NE/E BECMG=
201002140300 METAR MROC 140300Z 13010KT 9999 SCT035 BKN110 22/15 A3001 RMK LTNG DST S BECMG=
201002140400 METAR MROC 140400Z 11010KT CAVOK 22/15 A3001 RMK BKN110 BECMG=
201002140500 METAR MROC 140500Z 12012KT CAVOK 21/14 A2999 RMK BKN110 BECMG=
201002140600 METAR MROC 140600Z 12008KT CAVOK 21/13 A2999 RMK SCT110 BECMG=
201002140700 METAR MROC 140700Z 13008KT CAVOK 21/14 A2997 RMK SCT110 BECMG=
201002140800 METAR MROC 140800Z 13005KT CAVOK 21/16 A2994 RMK SCT110 BECMG=
201002140900 METAR MROC 140900Z 11010KT CAVOK 20/16 A2994 RMK SCT110 BECMG=
201002141000 METAR MROC 141000Z 08010KT CAVOK 20/16 A2993 RMK SCT110 BECMG=
201002141100 METAR MROC 141100Z 07006KT 9999 FEW030 SCT110 21/16 A2994 BECMG=
201002141200 METAR MROC 141200Z 08010KT 9999 FEW025 BKN120 21/16 A2997 RMK PCPN DST E BECMG=
201002141300 METAR MROC 141300Z 06003KT 9999 FEW030 BKN120 21/16 A2997 RMK DZ DST E BECMG=
201002141400 METAR MROC 141400Z 10012KT 9999 FEW030 BKN120 23/16 A2997 RMK FEW250 DZ DST N/NE/E BECMG=
201002141500 METAR MROC 141500Z 12014G24KT 9999 FEW035 BKN250 24/17 A2998 RMK FEW120 DZ DST N/NE/E TCU DST S BECMG=
201002141600 METAR MROC 141600Z 13014G24KT 9999 FEW035 BKN260 26/16 A2998 RMK DZ DST N/NE/E BECMG=
201002141700 METAR MROC 141700Z 12015G28KT 9999 FEW040 BKN260 26/17 A2999 RMK DZ DST N/NE/E BECMG=
201002141800 METAR MROC 141800Z 12014G24KT 9999 FEW040 SCT260 27/17 A2995 RMK DZ DST N/NE/E BECMG=
201002141900 METAR MROC 141900Z 13017G28KT 9999 FEW040 SCT260 27/17 A2994 RMK DZ DST N/NE/E BECMG=
201002142000 METAR MROC 142000Z 13010G20KT 9999 SCT045 SCT260 26/17 A2993 RMK FEW080 RN DST N/NE/E BECMG=
201002142100 METAR MROC 142100Z 13011G21KT 9999 SCT045 BKN260 26/17 A2990 RMK RN N NE E BECMG=
201002142200 METAR MROC 142200Z 13013KT 9999 SCT040 BKN260 25/17 A2990 RMK RN DST NE BECMG=
201002142300 METAR MROC 142300Z 14007KT 120V200 9999 SCT040 BKN260 24/17 A2990 RMK RN DST NE BECMG=
201002150000 METAR MROC 150000Z 10005KT 070V130 9999 FEW040 SCT120 BKN260 23/17 A2993 RMK RN NE CB DST S BECMG=
201002150100 METAR MROC 150100Z 10006KT 9999 FEW010 SCT260 22/17 A2996 RMK LTNG DST S BECMG=
201002150200 METAR MROC 150200Z 10008KT CAVOK 22/16 A2997 RMK SCT120 SCT250 LTNG DST S FEWSC BECMG=
201002150300 METAR MROC 150300Z 10005KT CAVOK 22/16 A2999 SCT120 LTMG DIST S BECMG=
201002150400 METAR MROC 150400Z 05005KT CAVOK 22/16 A2999 SCT110 LTNG DIST S BECMG=
201002150500 METAR MROC 150500Z 06004KT CAVOK 21/16 A2998 SCT250 LTNG DIST S BECMG=
201002150600 METAR MROC 150600Z 07005KT CAVOK 21/16 A2999 SCT250 LTNG DIST S BECMG=
201002150700 METAR MROC 150700Z 00000KT CAVOK 20/16 A2996 BKN250 BECMG=
201002150800 METAR MROC 150800Z 09006KT CAVOK 21/16 A2994 SCT250 BECMG=
201002150900 METAR MROC 150900Z 00000KT CAVOK 20/16 A2994 FEW120 SCT250 BECMG=
201002151000 METAR MROC 151000Z 09006KT CAVOK 21/17 A2995 BECMG=
201002151100 METAR MROC 151100Z 04004KT CAVOK 20/16 A2996 BECMG=
201002151200 METAR MROC 151200Z 07008KT CAVOK 21/17 A2997 CB DIST E FEW140 BKN250 BECMG=
201002151300 METAR MROC 151300Z 09006KT CAVOK 21/16 A2999 RMK SCT140 SCT250 BECMG=
201002151400 METAR MROC 151400Z 13009KT CAVOK 24/17 A2999 RMK BKN140 FEW250 BECMG=
201002151500 METAR MROC 151500Z 12014KT 9999 FEW040 SCT140 26/17 A3000 BECMG=
201002151600 METAR MROC 151600Z 12012KT 9999 FEW040 28/17 A3000 BECMG=
201002151700 METAR MROC 151700Z 12010KT 9999 FEW040 29/17 A2998 BECMG=
201002151800 METAR MROC 151800Z 10011KT 090V150 9999 FEW040 29/17 A2995 BECMG=
201002151900 METAR MROC 151900Z 12011KT 9999 FEW035TCU 30/16 A2993 BECMG=
201002152000 METAR MROC 152000Z 12010KT 9999 FEW030TCU SCT040 BKN100 28/16 A2991=
201002152100 METAR MROC 152100Z 12006KT 9999 FEW030TCU BKN100 28/17 A2990 RMK FEW040 DZ DST NE RN DST SW BECMG 24006KT=
201002152200 METAR MROC 152200Z 16004KT 9999 SCT040 BKN100 27/17 A2991 RMK DZ DST NE TCU DST W BECMG 24005KT=
201002152300 METAR MROC 152300Z 24007KT 9999 FEW030 OVC100 24/20 A2993 RMK FEW040 PCPN DST NW/N/NE BECMG=
201002160000 METAR MROC 160000Z 27002KT 9999 FEW030 OVC100 23/21 A2994 RMK FEW040 RN DST QUAD N BECMG=
201002160100 METAR MROC 160100Z 00000KT 9999 FEW025 BKN100 23/21 A2996 RMK FEW040 BECMG=
201002160200 METAR MROC 160200Z 00000KT 9999 FEW030 BKN110 23/18 A2997 BECMG=
201002160300 METAR MROC 160300Z 00000KT 9999 FEW025 SCT035 23/18 A2999 RMK SCT110 BECMG=
201002160400 METAR MROC 160400Z 12005KT 9999 FEW035 22/18 A2999 RMK FEW110 BECMG=
201002160500 METAR MROC 160500Z 10006KT 9999 FEW030 22/17 A3001 BECMG=
201002160600 METAR MROC 160600Z 07005KT 9999 FEW030 SCT110 21/19 A2999 BECMG=
201002160700 METAR MROC 160700Z 09010KT 9999 FEW030 BKN110 22/17 A2996=
201002160800 METAR MROC 160800Z 10012KT CAVOK 22/17 A2994 RMK BKN110=
201002160900 METAR MROC 160900Z 10009KT CAVOK 22/17 A2993 RMK BKN100=
201002161000 METAR MROC 161000Z 11007KT CAVOK 22/17 A2993 RMK BKN100=
201002161100 METAR MROC 161100Z 08006KT CAVOK 22/17 A2995 RMK BKN110=
201002161200 METAR MROC 161200Z 09009KT CAVOK 22/17 A2996 RMK SCT110 FEW260=
201002161300 METAR MROC 161300Z 07010KT CAVOK 23/17 A2998 TRAZAS SCT/AC BECMG=
201002161400 METAR MROC 161400Z 10009KT 070V130 CAVOK 25/17 A3000 RMK TRACE CU/SC HZ LGT DST W BECMG=
201002161500 METAR MROC 161500Z 11012G22KT CAVOK 26/17 A3001 RMK FEW050 BECMG=
201002161600 METAR MROC 161600Z 10014G24KT 070V130 CAVOK 27/16 A3001 RMK TRACE SC BECMG=
201002161700 METAR MROC 161700Z 10013KT 070V130 CAVOK 29/16 A2999 RMK FEW050 VEL MAX VTO 18KT BECMG=
201002161800 METAR MROC 161800Z 09015KT 9999 FEW045 29/15 A2997 RMK VEL MAX VTO 20KT BECMG=
201002161900 METAR MROC 161900Z 09013KT 9999 FEW045 30/15 A2994 RMK VEL MAX VTO 18KT BECMG=
201002162000 METAR MROC 162000Z 08015G28KT 9999 FEW045 30/15 A2992 BECMG=
201002162100 METAR MROC 162100Z 10020KT 9999 FEW040 30/15 A2990 BECMG=
201002162200 METAR MROC 162200Z 09010KT 9999 FEW030 29/16 A2990 BECMG=
201002162300 METAR MROC 162300Z 10010KT 9999 SCT030 27/17 A2991 BECMG=
201002170000 METAR MROC 170000Z 10012KT 9999 SCT030 25/18 A2993 BECMG=
201002170100 METAR MROC 170100Z 13006KT 9999 SCT030 24/17 A2995 BECMG=
201002170200 METAR MROC 170200Z 11007KT 9999 FEW030 23/17 A2997 BECMG=
201002170300 METAR MROC 170300Z 14005KT 9999 FEW030 22/17 A2999 BECMG=
201002170400 METAR MROC 170400Z 12007KT 9999 FEW030 22/17 A3000 BECMG=
201002170500 METAR MROC 170500Z 11007KT 9999 FEW030 22/16 A2999 BECMG=
201002170600 METAR MROC 170600Z 12009KT 9999 FEW030 21/17 A2999 BECMG=
201002170700 METAR MROC 170700Z 12009KT 9999 FEW030 22/17 A2995 BECMG=
201002170800 METAR MROC 170800Z 12011KT 9999 FEW035 21/17 A2995 BECMG=
201002170900 METAR MROC 170900Z 12013KT 9999 FEW035 21/16 A2993 BECMG=
201002171000 METAR MROC 171000Z 12012KT 9999 FEW035 21/16 A2992 BECMG=
201002171100 METAR MROC 171100Z 12014KT 9999 FEW035 21/16 A2993 BECMG=
201002171200 METAR MROC 171200Z 11012G22KT 9999 FEW030 21/16 A2995 RMK DZ NE BECMG=
201002171300 METAR MROC 171300Z 12016G27KT 9999 FEW030 22/16 A2996 RMK DZ DST NE BECMG=
201002171400 METAR MROC 171400Z 11015KT CAVOK 24/16 A2997 RMK TRACE SC BECMG=
201002171500 METAR MROC 171500Z 11012KT 9999 FEW030 26/17 A2998 BECMG=
201002171600 METAR MROC 171600Z 10010KT 9999 SCT030 27/17 A2999 RMK DZ NE BECMG=
201002171700 METAR MROC 171700Z 10010KT 9999 SCT030 SCT120 29/17 A2997 RMK DZ NE BECMG=
201002171800 METAR MROC 171800Z 11010G22KT 9999 FEW030 SCT120 28/17 A2995 RMK DZ NE BECMG=
201002171900 METAR MROC 171900Z 09010KT 9999 SCT025 SCT120 29/17 A2994 RMK DZ NE BECMG=
201002172000 METAR MROC 172000Z 11006KT 9999 -RA FEW020 BKN110 26/18 A2993 BECMG=
201002172100 METAR MROC 172100Z 10009KT 9999 SCT030 BKN120 26/17 A2992 RN DST N NE E SW BECMG=
201002172200 METAR MROC 172200Z 11006KT 9999 SCT030 BKN120 25/17 A2991 RN DST N NE BECMG=
201002172300 METAR MROC 172300Z 09009KT 9999 -RA SCT030 BKN100 24/17 A2992 BECMG=
201002180000 METAR MROC 180000Z 09011KT 9999 SCT030 BKN120 23/16 A2993 RN DST N NE BECMG=
201002180100 METAR MROC 180100Z 11009KT 9999 FEW035 SCT120 22/16 A2994 BECMG=
201002180200 METAR MROC 180200Z 12012G22KT 9999 FEW035 22/16 A2995 BECMG=
201002180300 METAR MROC 180300Z 11018KT 9999 FEW045 22/16 A2996 RMK VEL MAX VTO 23KT BECMG=
201002180400 METAR MROC 180400Z 11014KT 9999 FEW045 22/16 A2998 RMK VEL MAX VTO 23KT BECMG=
201002180500 METAR MROC 180500Z 11014G25KT 080V140 CAVOK 22/17 A2996 RMK FEW070 BECMG=
201002180600 METAR MROC 180600Z 12016G27KT CAVOK 21/17 A2995 RMK FEW050 BECMG=
201002180700 METAR MROC 180700Z 12013KT 070V130 CAVOK 21/16 A2993 RMK FEW050 VEL MAX VTO 18KT BECMG=
201002180800 METAR MROC 180800Z 10013KT CAVOK 21/17 A2993 RMK FEW060 VEL MAX VTO 20KT BECMG=
201002180900 METAR MROC 180900Z 11010KT 070V130 CAVOK 21/17 A2992 RMK FEW050 VEL MAX VTO 16KT BECMG=
201002181000 METAR MROC 181000Z 10012KT CAVOK 22/16 A2992 RMK TRACE SC VEL MAX VTO 17KT BECMG=
201002181100 METAR MROC 181100Z 10009KT CAVOK 21/16 A2994 RMK SCT050 BECMG=
201002181200 METAR MROC 181200Z 10013KT 9999 FEW040 22/16 A2996 RMK FEW120 VEL MAX VTO 19KT DZ DST NE BECMG=
201002181300 METAR MROC 181300Z 12011KT 9999 FEW040 21/17 A2997 RMK RN DIST NE BECMG=
201002181400 METAR MROC 181400Z 10014KT 9999 FEW040 24/17 A2998 RMK RN DIST N NE VEL MAX 20KTS BECMG=
201002181500 METAR MROC 181500Z 11013KT 9999 FEW040 27/16 A2999 RN DIST NE FEW100 BECMG=
201002181600 METAR MROC 181600Z 10014KT 9999 FEW035 27/16 A2999 RMK VEL MAX VTO 19KTS RN DIST NE FEW120 BECMG=
201002181700 METAR MROC 181700Z 09016KT 9999 FEW035 SCT250 28/16 A2997 FEW120 RN=
201002181800 METAR MROC 181800Z 09018KT 9999 SCT030 SCT250 28/16 A2995 RN DIST N NE VEL MAX VTO 25KTS BECMG=
201002181900 METAR MROC 181900Z 10014G24KT 9999 FEW020 SCT120 29/16 A2992 RN DIST N NE BECMG=
201002182000 METAR MROC 182000Z 09012KT 9999 SCT020 SCT090 28/16 A2991 VEL MAX VTO 17KTS RN DIST N NE BECMG=
201002182100 METAR MROC 182100Z 08017G30KT 9999 -DZ VCSH FEW035 SCT110 27/16 A2990 RMK FEW250 VIS N/NE 5KM DUE RN BECMG DZ=
201002182200 METAR MROC 182200Z 09014KT 9999 FEW035 SCT110 26/16 A2989 REDZ RMK FEW250 VIS N/NE 7KM DUE RN BECMG=
201002182300 METAR MROC NIL=
201002190000 METAR MROC 190000Z 08010G20KT 9999 SCT035 SCT110 24/16 A2991 RMK RN NW/N/NE/E BECMG=
201002190100 METAR MROC 190100Z 10014KT 9999 SCT030 23/17 A2992 RMK FEW110 RN N/NE/E BECMG=
201002190200 METAR MROC 190200Z 10015KT 9999 FEW030 SCT110 22/17 A2993 RMK RN N/NE/E BECMG=
201002190300 METAR MROC 190300Z 09014KT 9999 FEW030 SCT110 22/17 A2995 BECMG=
201002190400 METAR MROC 190400Z 11010KT 9999 FEW030 SCT110 22/17 A2996 BECMG=
201002190500 METAR MROC 190500Z 09015KT 9999 FEW030 22/17 A2996 RMK FEW130 BECMG=
201002190600 METAR MROC 190600Z 11015KT 9999 FEW030 22/17 A2993 RMK TRACE AC BECMG=
201002190700 METAR MROC 190700Z 12021KT 9999 FEW030 22/17 A2992 BECMG=
201002190800 METAR MROC 190800Z 11016KT 9999 FEW030 22/17 A2990 BECMG=
201002190900 METAR MROC 190900Z 13013G26KT 9999 FEW030 22/17 A2990 BECMG=
201002191000 METAR MROC 191000Z 11018G28KT 9999 FEW030 22/16 A2991 BECMG=
201002191100 METAR MROC 191100Z 11012G24KT 9999 FEW030 22/16 A2993 BECMG=
201002191200 METAR MROC 191200Z 11013G25KT 9999 SCT030 21/17 A2995 RMK DZ N NE E BECMG=
201002191300 METAR MROC 191300Z 11016KT 9999 FEW030 23/16 A2997 RMK DZ DST E BECMG=
201002191400 METAR MROC 191400Z 12016G28KT 9999 FEW035 23/17 A2999 RMK RN N/NE/E BECMG=
201002191500 METAR MROC 191500Z 11016G28KT 9999 FEW035 25/17 A3000 RMK DZ DST N/NE/E BECMG=
201002191600 METAR MROC 191600Z 11017G27KT 9999 FEW035 26/17 A3000 RMK FEW280 DZ DST N/NE/E BECMG=
201002191700 METAR MROC 191700Z 11014G24KT 9999 FEW040 28/16 A2998 RMK FEW280 DZ DST N/NE/E BECMG=
201002191800 METAR MROC 191800Z 11015KT 9999 FEW040 29/16 A2997 RMK FEW280 DZ DST N/NE/E BECMG=
201002191900 METAR MROC 191900Z 12010G20KT 9999 FEW040 SCT280 28/18 A2994 RMK DZ DST N/NE/E BECMG=
201002192000 METAR MROC 192000Z 12010G20KT 9999 FEW040 SCT280 28/17 A2992 RMK DZ DST N/NE/E BECMG=
201002192100 METAR MROC 192100Z 12015KT 9999 SCT040 27/17 A2991 RMK RN NE E BECMG=
201002192200 METAR MROC 192200Z 12013G25KT 9999 SCT040 25/17 A2992 RMK RN NE BECMG=
201002192300 METAR MROC 192300Z 13012KT 070V150 9999 FEW020 SCT040 24/17 A2994 RMK RN NE BECMG=
201002200000 METAR MROC 200000Z 12008KT 9999 FEW020 SCT040 23/17 A2996 RMK RN NE BECMG=
201002200100 METAR MROC 200100Z 13012KT 9999 FEW040 22/17 A2998 BECMG=
201002200200 METAR MROC 200200Z 12014KT CAVOK 22/17 A2999 RMK TRACE SC BECMG=
201002200300 METAR MROC 200300Z 12014KT CAVOK 22/17 A3000 TRACE SCT BECMG=
201002200400 METAR MROC 200400Z 10012G26KT CAVOK 22/18 A3001 TRACE SCT BECMG=
201002200500 METAR MROC 200500Z 11014KT CAVOK 22/17 A3000 TRACE SCT BECMG=
201002200600 METAR MROC 200600Z 12015G26KT CAVOK 21/17 A2998 TRACE SCT BECMG=
201002200700 METAR MROC 200700Z 11012G23KT CAVOK 22/17 A2996 TRACE SCT BECMG=
201002200800 METAR MROC 200800Z 12013KT CAVOK 22/17 A2994 TRACE SC BECMG=
201002200900 METAR MROC 200900Z 11014KT CAVOK 22/17 A2994 TRACE SCT BECMG=
201002201000 METAR MROC 201000Z 13013G24KT CAVOK 21/17 A2995 SCT250 BECMG=
201002201100 METAR MROC 201100Z 11012KT CAVOK 22/17 A2997 BKN110 BECMG=
201002201200 METAR MROC 201200Z 12012KT CAVOK 22/17 A2997 BKN100 BECMG=
201002201300 METAR MROC 201300Z 11007KT CAVOK 23/17 A3000 RMK TRACE SC BKN100 BECMG=
201002201400 METAR MROC 201400Z 13007KT 110V170 CAVOK 24/17 A3002 RMK TRACE SC BKN100 BECMG=
201002201500 METAR MROC 201500Z 13013KT CAVOK 25/17 A3001 RMK TRACE SC BKN120 BECMG=
201002201600 METAR MROC 201600Z 12011KT CAVOK 27/17 A3002 RMK TRACE SC BKN120 BECMG=
201002201700 METAR MROC 201700Z 11014KT 9999 FEW040 SCT120 BKN250 29/18 A3001 BECMG=
201002201800 METAR MROC 201800Z 14010KT 9999 FEW040 SCT120 BKN250 30/17 A2997 BECMG0 24006KT=
201002201900 METAR MROC 201900Z 12011KT 9999 FEW040 SCT120 BKN250 30/18 A2995 BECMG 24006 KT=
201002202000 METAR MROC 202000Z 13011KT 9999 FEW040 SCT120 BKN250 29/18 A2993 BECMG=
201002202100 METAR MROC 202100Z 11012KT 080V140 9999 SCT040 BKN250 29/18 A2992 RMK FEW120 VEL MAX VTO 17KT BECMG=
201002202200 METAR MROC 202200Z 11011KT 090V150 9999 FEW040 BKN250 27/18 A2991 RMK VEL MAX VTO 17KT DZ DST NE BECMG=
201002202300 METAR MROC 202300Z 12007KT 9999 SCT040 BKN150 26/18 A2994 RMK FEW250 PCPN DST NE BECMG=
201002210000 METAR MROC 210000Z 12007KT 9999 FEW040 SCT080 BKN250 24/18 A2995 RMK PCPN DST NE BECMG=
201002210100 METAR MROC 210100Z 13013KT 9999 FEW030 BKN250 23/18 A2997 RMK FEW080 VEL MAX VTO 19KT BECMG=
201002210200 METAR MROC 210200Z 12010G20KT 9999 FEW030 SCT250 23/18 A3000 BECMG=
201002210300 METAR MROC 210300Z 11009KT 9999 FEW030 SCT120 23/18 A3000 RMK FEW250 BECMG=
201002210400 METAR MROC 210400Z 12009G19KT 9999 FEW030 SCT250 23/18 A3001 RMK FEW120 BECMG=
201002210500 METAR MROC 210500Z 12014KT 9999 FEW030 22/18 A3000 RMK FEW250 BECMG=
201002210600 METAR MROC 210600Z 11007G17KT 9999 FEW030 22/18 A2998 RMK FEW250 BECMG=
201002210700 METAR MROC 210700Z 11010G20KT 9999 FEW030 22/18 A2997 RMK FEW250 BECMG=
201002210800 METAR MROC 210800Z 10010KT 9999 FEW030 22/18 A2996 RMK LTNG DST E=
201002210900 METAR MROC 210900Z 09010KT 9999 FEW030 21/17 A2996=
201002211000 METAR MROC 211000Z 11011KT CAVOK 22/16 A2995 RMK FEW280=
201002211100 METAR MROC 211100Z 10011KT CAVOK 22/16 A2996 RMK FEW280=
201002211200 METAR MROC 211200Z 12010KT CAVOK 22/16 A2997=
201002211300 METAR MROC 211300Z 11010KT 070V130 9999 SKC 23/16 A3000 RMK VEL MAX VTO 17KT BECMG=
201002211400 METAR MROC 211400Z 11010G20KT CAVOK 25/17 A3001 RMK TRACE SC/CI PCPN DST NE BECMG=
201002211500 METAR MROC 211500Z 11012KT CAVOK 27/16 A3001 RMK TRACE SC VEL MAX VTO 17KT PCPN DST NE BECMG=
201002211600 METAR MROC 211600Z 11010KT 070V140 CAVOK 29/16 A3001 RMK TRACE SC/CI BECMG=
201002211700 METAR MROC 211700Z 13007KT CAVOK 30/17 A2999 RMK TRACE CU/CI BECMG=
201002211800 METAR MROC 211800Z 10008KT 9999 FEW040 31/17 A2996 RMK FEW250 BECMG=
201002211900 METAR MROC 211900Z 12003KT 9999 SCT040TCU FEW070 SCT250 30/17 A2993 BECMG 24008KT=
201002212000 METAR MROC 212000Z 28008KT 9999 FEW035TCU SCT045 BKN250 28/19 A2991 RMK FEW070 BECMG 7000 VCSH=
201002212100 METAR MROC 212100Z 27008KT 9999 SCT030TCU BKN120 27/19 A2991 RMK PCPN DST NE BECMG 7000 VCSH=
201002212200 METAR MROC 212200Z 00000KT 9999 SCT025 BKN120 26/19 A2992 RMK PCPN DST NE HZ LGT ARND BECMG=
201002212300 METAR MROC 212300Z 23006KT 9999 SCT030 BKN110 24/21 A2994 RMK PCPN DST NE SW HZ LGT ARND BECMG=
201002220000 METAR MROC 220000Z 00000KT 9999 SCT035 BKN110 23/21 A2996 RMK HZ ARND BECMG=
201002220100 METAR MROC 220100Z 00000KT 9999 FEW035 SCT110 23/20 A2997 BECMG=
201002220200 METAR MROC 220200Z 00000KT 9999 FEW035 SCT110 22/20 A2999 BECMG=
201002220300 METAR MROC 220300Z 00000KT 9999 FEW030 SCT110 23/21 A3001 BECMG=
201002220400 METAR MROC 220400Z 00000KT 9999 FEW035 SCT110 22/20 A3001 BECMG=
201002220500 METAR MROC 220500Z 00000KT 9999 FEW035 SCT110 23/20 A3000 BECMG=
201002220600 METAR MROC 220600Z 00000KT 9999 FEW035 SCT110 23/18 A3000 BECMG=
201002220700 METAR MROC 220700Z 00000KT 9999 FEW035 SCT130 22/17 A2998 BECMG=
201002220800 METAR MROC 220800Z 00000KT 9999 FEW035 SCT130 21/17 A2994 BECMG=
201002220900 METAR MROC 220900Z 00000KT 9999 FEW035 SCT110 20/18 A2993 BECMG=
201002221000 METAR MROC 221000Z 00000KT CAVOK 20/18 A2993 RMK TRACE AC HZ ARND BECMG=
201002221100 METAR MROC 221100Z 09004KT CAVOK 21/18 A2993 RMK TRACE AC HZ ARND BECMG=
201002221200 METAR MROC 221200Z 00000KT CAVOK 21/18 A2994 RMK FEW AC SCT250 BECMG=
201002221300 METAR MROC 221300Z 00000KT CAVOK 22/18 A2996 RMK BKN250 BECMG=
201002221400 METAR MROC 221400Z 15004KT CAVOK 25/18 A2997 RMK BKN250 BECMG 24006KT=
201002221500 METAR MROC 221500Z 00000KT CAVOK 28/18 A2998 RMK BKN250 HZ LEVE ARND BECMG=
201002221600 METAR MROC 221600Z 24007KT CAVOK 29/19 A2997 RMK BKN250 HZ LEVE ARND BECMG=
201002221700 METAR MROC 221700Z 25010KT 9999 FEW040 BKN250 30/19 A2995 BECMG=
201002221800 METAR MROC 221800Z 26010KT 9999 FEW040 BKN250 30/20 A2993 BECMG=
201002221900 METAR MROC 221900Z 25011KT 9999 SCT040 SCT250 30/21 A2992 RMK HZ LEVE ARND BECMG=
201002222000 METAR MROC 222000Z 24013KT 9999 SCT040 SCT250 29/21 A2990 RMK HZ ARND=
201002222100 METAR MROC 222100Z 25013KT 9999 SCT035 BKN250 27/22 A2990 HZ ARND TCU DST NNE BECMG 7000 VCSH=
201002222200 METAR MROC 222200Z 26010KT 9999 SCT035 BKN250 25/22 A2990 HZ ARND CB DST W TCU NNE BECMG=
201002222300 METAR MROC 222300Z 25007KT 9999 FEW020 SCT035 BKN250 25/21 A2991 HZ ARND TCU DST S SW BECMG=
201002230000 METAR MROC 230000Z 25006KT 9999 FEW005 SCT015 BKN100 23/22 A2993 HZ ARND BECMG=
201002230100 METAR MROC 230100Z 26007KT 7000 VCFG FEW005 BKN015 23/23 A2996 RMK BECMG 4000 BR=
201002230200 METAR MROC 230200Z 25003KT 9999 -RA FEW035 BKN120 22/22 A2998 RMK BECMG0 7000 -RA VCFG=
201002230300 METAR MROC 230300Z 26002KT 9999 VCFG FEW025 BKN100 22/22 A2999 RERA RMK VIS 7000W BECMG=
201002230400 METAR MROC 230400Z 00000KT 9999 VCFG FEW030 BKN120 22/21 A3000 RMK VIS 7000W BECMG=
201002230500 METAR MROC 230500Z 00000KT 9999 VCFG FEW030 22/22 A2999 RMK FEW100 VIS 7000W/SE BECMG=
201002230600 METAR MROC 230600Z 00000KT 7000 VCFG BR FEW020 SCT030 BKN090 22/22 A2998 RMK VIS UNLD NE/E BECMG=
201002230700 METAR MROC 230700Z 00000KT 7000 VCFG BR FEW020 SCT030 OVC200 22/22 A2995 RMK VIS UNLD QUAD E BECMG=
201002230800 METAR MROC 230800Z 00000KT 7000 VCFG BR SCT030 BKN200 22/21 A2993 RMK VIS UNLD QUAD E BECMG=
201002230900 METAR MROC 230900Z 00000KT 7000 3000SW VCFG BR SCT025 OVC200 20/20 A2992 RMK VIS UNDL QUAD E BECMG=
201002231000 METAR MROC 231000Z 00000KT 9999 4000W VCFG BR SCT030 OVC200 21/21 A2993=
201002231100 METAR MROC 231100Z 00000KT 8000 4000SW VCFG BR BKN030 OVC200 22/21 A2995 BECMG=
201002231200 METAR MROC 231200Z 00000KT 9999 4000W VCFG BR SCT035 OVC120 21/21 A2997=
201002231300 METAR MROC 231300Z 00000KT 9999 SCT030 OVC120 22/21 A2997 VIS W 7KM DUE HZ BECMG 24007KT=
201002231400 METAR MROC 231400Z 00000KT 9999 FEW030 SCT120 24/21 A2997 SCT250 VIS W 6KM DUE HZ BECMG 24006KT=
201002231500 METAR MROC 231500Z 00000KT 9999 FEW035 BKN250 27/19 A2998 VS W 8KM DUE HZ BECMG 24007KT=
201002231600 METAR MROC 231600Z 26005KT 9999 FEW040 BKN270 28/19 A2997 HZ ARND BECMG=
201002231700 METAR MROC 231700Z 23007KT 9999 FEW040 BKN250 29/18 A2998 HZ ARND BECMG=
201002231800 METAR MROC 231800Z 24008KT 9999 FEW030 BKN250 30/18 A2996 HZ ARND BECMG=
201002231900 METAR MROC 231900Z 25011KT 9999 SCT040 BKN250 30/19 A2993 HZ ARND BECMG=
201002232000 METAR MROC 232000Z 23010KT 9999 SCT042 BKN250 30/19 A2991 HZ ARND BECMG=
201002232100 METAR MROC 232100Z 25013KT 9999 SCT040 BKN250 30/18 A2989 RMK HZ ARND TCU DST S BECMG=
201002232200 METAR MROC 232200Z 25011KT 9999 FEW040 SCT250 28/19 A2990 RMK FEW110 TCU DST S HZ LGT ARND BECMG=
201002232300 METAR MROC 232300Z 22006KT 9999 FEW040 SCT110 26/21 A2991 RMK SCT250 HZ LGT ARND=
201002240000 METAR MROC 240000Z 25008KT 9999 SCT035 SCT250 24/21 A2993 RMK FEW110 HZ LGT ARND BECMG=
201002240100 METAR MROC 240100Z 00000KT 9999 VCFG FEW003 SCT025 BKN035 22/22 A2995 RMK VIS SW/W 7KM DUE ST BECMG=
201002240200 METAR MROC 240200Z 00000KT 9999 FEW006 SCT025 22/22 A2998 RMK SCT035 VIS SW/W 8KM DUE ST BECMG=
201002240300 METAR MROC 240300Z 00000KT 9999 FEW007 SCT025 22/21 A2999 BECMG=
201002240400 METAR MROC 240400Z 00000KT 9999 FEW006 SCT025 22/22 A3000 RMK HZ ARND BECMG=
201002240500 METAR MROC 240500Z 00000KT 9999 -RA FEW006 SCT025 BKN100 22/22 A2999 BECMG=
201002240600 METAR MROC 240600Z 00000KT 4000 BR FEW004 SCT020 BKN100 22/22 A2998 BECMG 2000 BR=
201002240700 METAR MROC 240700Z 00000KT 5000 BR FEW004 SCT020 BKN100 22/22 A2998 BECMG=
201002240800 METAR MROC 240800Z 00000KT 9999 FEW006 SCT100 22/21 A2996 BECMG=
201002240900 METAR MROC 240900Z 00000KT 9999 FEW007 SCT100 21/21 A2997 RMK HZ ARND BECMG=
201002241000 METAR MROC 241000Z 00000KT 8000 VCFG FEW002 SCT020 BKN100 21/21 A2998 BECMG=
201002241100 METAR MROC 241100Z 00000KT 8000 VCFG FEW007 SCT020 BKN100 21/21 A2998 BECMG=
201002241200 METAR MROC 241200Z 00000KT 7000 VCFG FEW006 BKN120 21/21 A2999 RMK HZ ARND BECMG=
201002241300 METAR MROC 241300Z 00000KT 9999 4000SW BR FEW006 SCT080 BKN100 21/21 A3004 RMK HZ ARND BECMG=
201002241400 METAR MROC 241400Z 00000KT 9999 VCFG FEW007 SCT100 22/22 A3006 RMK FEW260 VIS SE/SSE/SW/W 6KM DUE ST HZ LGT ARND BECMG 24005KT=
201002241500 METAR MROC 241500Z 29002KT 9999 FEW030 BKN260 26/20 A3006 RMK HZ LGT ARND BECMG 24005KT=
201002241600 METAR MROC 241600Z 23005KT 9999 FEW035 BKN260 28/19 A3005 RMK HZ LGT ARND=
201002241700 METAR MROC 241700Z 23005KT 9999 SCT040 SCT260 28/19 A3003 RMK FEW110 HZ LGT ARND BECMG=
201002241800 METAR MROC 241800Z 24010KT 9999 FEW030TCU BKN040 27/20 A3002 RMK FEW110 TCU NE HZ LGT ARND BECMG=
201002241900 METAR MROC 241900Z 23007KT 9999 FEW030TCU SCT040 28/20 A3000 RMK SCT260 TCU N/NE HZ LGT ARND BECMG=
201002242000 METAR MROC 242000Z 25009KT 9999 SCT040 SCT260 30/20 A2997 RMK FEW110 HZ LGT ARND BECMG=
201002242100 METAR MROC 242100Z 22011KT 9999 SCT040 SCT260 28/19 A2994 RMK HZ LEVE ARND BECMG=
201002242200 METAR MROC 242200Z 25006KT 9999 SCT040 SCT260 27/19 A2994 RMK HZ LEVE ARND BECMG=
201002242300 METAR MROC 242300Z 21006KT 9999 SCT040 BKN260 25/21 A2996 RMK HZ LEVE ARND BECMG=
201002250000 METAR MROC 250000Z 00000KT 9999 FEW040 SCT250 24/21 A2998 RMK HZ LEVE ARND FEW AC BECMG=
201002250100 METAR MROC 250100Z 24003KT 9999 FEW040 BKN250 24/20 A3001 BECMG=
201002250200 METAR MROC 250200Z 28005KT 9999 FEW040 BKN120 24/20 A3003 BECMG=
201002250300 METAR MROC 250300Z 00000KT 9999 FEW040 SCT120 22/20 A3004 BECMG=
201002250400 METAR MROC 250400Z 05003KT CAVOK 22/20 A3004 SCT120 BECMG=
201002250500 METAR MROC 250500Z 03002KT CAVOK 22/20 A3004 SCT120 BECMG=
201002250600 METAR MROC 250600Z 00000KT 9999 FEW010 SCT120 21/20 A3004 BECMG=
201002250700 METAR MROC 250700Z 00000KT 1500 BR SCT005 BKN010 21/21 A3002 BECMG=
201002250800 METAR MROC 250800Z 00000KT 8000 SCT010 BKN030 21/21 A3002 BR AND HZ ARND=
201002250900 METAR MROC 250900Z 00000KT 7000 3000W BR SCT012 BKN040 21/20 A3002 HZ ARND=
201002251000 METAR MROC 251000Z 02004KT 9999 FEW020 SCT120 20/18 A3002 HZ LGT ARND=
201002251100 METAR MROC 251100Z 03003KT 9999 FEW030 SCT140 20/18 A3001 HZ ARND=
201002251200 METAR MROC 251200Z 07008KT 9999 FEW030 SCT250 22/19 A3002 HZ LGT ARND BECMG=
201002251300 METAR MROC 251300Z 06003KT 9999 FWE030 SCT250 24/19 A3004 RMK HZ LEVE ARND BECMG=
201002251400 METAR MROC 251400Z 12011KT 9999 FEW030 26/19 A3005 RMK HZ LEVE ARND BECMG=
201002251500 METAR MROC 251500Z 13010G21KT 9999 FEW030 SCT120 25/18 A3008 RMK HZ=
201002251600 METAR MROC NIL=
201002251700 METAR MROC 251700Z 12011KT 9999 SCT030 SCT120 26/19 A3006 RMK RN NE E BECMG 8000 VCSH=
201002251800 METAR MROC 251800Z 09003KT 8000 -RA SCT030 BKN120 22/21 A3007 BECMG=
201002251900 METAR MROC 251900Z 09010KT 9999 -RA SCT030 BKN120 23/21 A3003 BECMG=
201002252000 METAR MROC 252000Z 11010KT 3000 RA SCT030 BKN100 22/21 A3002 BECMG=
201002252100 METAR MROC 252100Z 12011KT 3000 RA FEW010 SCT030 BKN100 21/20 A3000 BECMG=
201002252200 METAR MROC 252200Z 12007KT 9999 -RA SCT030 BKN090 21/20 A2998 RMK VIS 6000NE DUE LOW ST BECMG -RA=
201002252300 METAR MROC 252300Z 12009KT 9999 -DZ FEW030 OVC090 22/19 A2999 RERA RMK VEL MAX VTO 15KT VIS 7000NE DUE ST BECMG=
201002260000 METAR MROC 260000Z 10005KT 9999 FEW030 OVC100 22/19 A2999 REDZ RMK VIS 8000NE RN DST NE BECMG=
201002260100 METAR MROC 260100Z 06006KT 9999 FEW030 OVC100 22/19 A3001 BECMG=
201002260200 METAR MROC 260200Z 00000KT 9999 FEW030 OVC100 22/18 A3004 BECMG=
201002260300 METAR MROC 260300Z 08008KT 9999 FEW030 BKN100 22/18 A3004 BECMG=
201002260400 METAR MROC 260400Z 11007KT 9999 FEW030 OVC100 21/17 A3004 BECMG=
201002260500 METAR MROC 260500Z 07013KT 9999 FEW030 BKN110 21/17 A3002 BECMG=
201002260600 METAR MROC 260600Z 06005KT 9999 FEW030 BKN120 21/17 A3000 RMK FEW260 BECMG=
201002260700 METAR MROC 260700Z 11008KT 9999 FEW030 BKN120 21/17 A2998 RMK FEW260=
201002260800 METAR MROC 260800Z 08007KT 9999 FEW030 SCT120 21/17 A2997 RMK FEW260=
201002260900 METAR MROC 260900Z 06007KT 9999 FEW030 BKN120 21/17 A2997 RMK FEW260=
201002261000 METAR MROC 261000Z 09005KT 9999 FEW030 BKN120 21/17 A2997 RMK FEW260=
201002261100 METAR MROC 261100Z 12005KT 9999 FEW030 BKN110 20/17 A2998 RMK FEW260=
201002261200 METAR MROC 261200Z 07008KT 9999 FEW030 SCT110 20/17 A3000 RMK SCT260 RN DST NE/E=
201002261300 METAR MROC 261300Z 05003KT 9999 FEW035 BKN200 21/17 A3001 RMK FEW110 RN DST NE BECMG=
201002261400 METAR MROC 261400Z 13011KT 9999 FEW040 SCT250 24/18 A3003 RMK RN DST NE VEL MAX VTO 16KT BECMG=
201002261500 METAR MROC 261500Z 11010G20KT 9999 FEW040 BKN120 24/18 A3005 RMK FEW250 DZ DST NE BECMG=
201002261600 METAR MROC 261600Z 13013G24KT 9999 FEW040 BKN120 25/18 A3004 RMK DZ DST NE BECMG=
201002261700 METAR MROC 261700Z 14013G25KT 9999 FEW040 BKN120 27/18 A3001 RMK FEW250 DZ DST NE BECMG=
201002261800 METAR MROC 261800Z 14013KT 9999 FEW045 SCT250 29/18 A2998 RMK FEW150 VEL MAX VTO 19KT DZ DST NE BECMG=
201002261900 METAR MROC 261900Z 14013KT 9999 SCT045 SCT250 29/18 A2996 RMK FEW150 VEL MAX VTO 19KT DZ DST NE BECMG=
201002262000 METAR MROC 262000Z 15006KT 130V220 9999 SCT045 SCT120 29/18 A2995 RMK DZ DST NE BECMG 24005KT=
201002262100 METAR MROC 262100Z 23010KT 9999 SCT040 SCT120 26/21 A2995 RMK RNST NE=
201002262200 METAR MROC 262200Z 26011KT 9999 FEW020 SCT040 BKN120 25/21 A2996 RMK RN NE SW BECMG=
201002262300 METAR MROC 262300Z 25009KT 9999 FEW020 SCT040 BKN120 23/21 A2998 RMK RN NE BECMG=
201002270000 METAR MROC 270000Z 25003KT 9999 FEW010 SCT030 BKN100 22/20 A2999 RMK RN NE BECMG=
201002270100 METAR MROC 270100Z 00000KT 9999 -RA FEW010 SCT030 BKN100 22/21 A3002 BECMG=
201002270200 METAR MROC 270200Z 00000KT 9999 FEW010 SCT030 BKN100 22/21 A3004 RERA BECMG=
201002270300 METAR MROC 270300Z 00000KT 9999 -DZ SCT030 BKN100 22/21 A3005 BECMG=
201002270400 METAR MROC 270400Z 00000KT 9999 SCT030 BKN100 22/21 A3006 REDZ BECMG=
201002270500 METAR MROC 270500Z 00000KT 9999 FEW030 BKN100 21/20 A3007 BECMG CAVOK=
201002270600 METAR MROC 270600Z 00000KT 9999 FEW030 BKN100 21/20 A3005 BECMG=
201002270700 METAR MROC 270700Z 00000KT 9999 FEW030 BKN100 21/20 A3002 BECMG=
201002270800 METAR MROC 270800Z 00000KT 9999 FEW030 SCT100 20/20 A3001 BECMG=
201002270900 METAR MROC 270900Z 08005KT 9999 FEW030 SCT110 21/20 A2996 BECMG=
201002271000 METAR MROC 271000Z 00000KT 9999 FEW030 SCT110 21/19 A2998 BECMG=
201002271100 METAR MROC 271100Z 00000KT 9999 FEW035 BKN110 20/19 A2998 RMK HZ ARND BECMG=
201002271200 METAR MROC 271200Z 00000KT CAVOK 20/19 A3001 RMK HZ ARND BKN120 BECMG=
201002271300 METAR MROC 271300Z 00000KT CAVOK 21/20 A3002 RMK HZ ARND BKN120 BECMG=
201002271400 METAR MROC 271400Z 00000KT CAVOK 23/19 A3004 RMK HZ AARND BKN120 BECMG=
201002271500 METAR MROC 271500Z 00000KT CAVOK 26/18 A3006 RMK HZ ARND BKN120 BECMG=
201002271600 METAR MROC 271600Z 20007KT CAVOK 23/19 A3005 RMK HZ ARND BKN120 BECMG=
201002271700 METAR MROC 271700Z 23010KT 9999 FEW035 SCT120 BKN250 29/20 A3002 RMK HZ ARND BECMG=
201002271800 METAR MROC 271800Z 00000KT 9999 SCT030 BKN250 28/19 A3001 RMK HZ ARND BECMG=
201002271900 METAR MROC 271900Z 26007KT 9999 SCT030 BKN250 28/20 A2990 RMK HZ ARND BECMG=
201002272000 METAR MROC 272000Z 23007KT 9999 SCT020TCU SCT110 29/20 A2996 RMK HZ ARND BECMG=
201002272100 METAR MROC 272100Z 25007KT 9999 SCT020TCU BKN250 30/19 A2994 HZ ARND BECMG=
201002272200 METAR MROC 272200Z 21008KT 9999 SCT030TCU BKN250 27/19 A2994 HZ ARND BECMG 6000 VCSH=
201002272300 METAR MROC 272300Z 13005KT 9999 FEW040 BKN250 26/17 A2996 RASH DIST W CB DIST S FEW120 BECMG=
201002272355 METAR MROC 280000Z 06008KT 9999 FEW040 SCT250 26/18 A2999 RN DIST W/E FEW100 BECMG=
201002280000 METAR MROC 280000Z 06008KT 9999 FEW040 SCT250 26/18 A2999 RN DIST W/E FEW100 BECMG=
201002280100 METAR MROC 280100Z 06010KT 9999 FEW035 SCT250 25/17 A3000 BECMG=
201002280200 METAR MROC 280200Z 09006KT CAVOK 24/17 A3003 RMK FEW250 BECMG=
201002280300 METAR MROC 280300Z 11010KT CAVOK 23/18 A3003 RMK BKN100 HZ ARND VEL MAX VTO 16KT BECMG=
201002280400 METAR MROC 280400Z 11011G21KT CAVOK 24/17 A3001 RMK OVC100 LGT HZ ARND BECMG=
201002280500 METAR MROC 280500Z 10015KT CAVOK 23/17 A3002 RMK BKN110 VEL MAX VTO 21KT BECMG=
201002280600 METAR MROC 280600Z 11011KT CAVOK 23/18 A3001 RMK FEW110 VEL MAX VTO 17KT BECMG=
201002280700 METAR MROC 280700Z 11013KT CAVOK 23/17 A2998 RMK FEW250 TRACE SC VEL MAX VTO 18KT BECMG=
201002280800 METAR MROC 280800Z 10012G22KT 9999 FEW045 22/17 A2997 RMK TRACE SI BECMG=
201002280900 METAR MROC 280900Z 10012KT 9999 FEW045 22/17 A2996 RMK VEL MAX VTO 17KT BECMG=
201002281000 METAR MROC 281000Z 10009KT 9999 FEW045 22/17 A2997 RMK TRACE AS BECMG=
201002281100 METAR MROC 281100Z 10009KT 9999 FEW045 22/17 A2998 BECMG=
201002281200 METAR MROC 281200Z 11011KT 9999 FEW040 22/17 A2999 RMK VEL MAX VTO 16KT DZ DST N/NE BECMG=
201002281300 METAR MROC 281300Z 10010G20KT 9999 SCT040 22/18 A3001 FEW CI DZ NE E BECMG=
201002281400 METAR MROC 281400Z 10015KT 9999 FEW040 SCT250 24/17 A3003 VEL MAX 21KTS DZ NE E BECMG=
201002281500 METAR MROC 281500Z 10014G25KT 9999 FEW040 26/17 A3004 FEW100 DZ N NE BECMG=
201002281600 METAR MROC 281600Z 10015KT 9999 FEW040 26/17 A3003 FEW100 DZ N NE BECMG=
201002281700 METAR MROC 281700Z 09017KT 9999 SCT040 27/16 A3001 OCNL GST 29KTS DZ N NE FEW110 BECMG=
201002281800 METAR MROC 281800Z 10020G30KT 9999 SCT040 25/17 A3001 DZ N NE FEW250 BECMG=
201002281900 METAR MROC 281900Z 10015G25KT 9999 SCT040 28/17 A2997 DZ DST N NE FEW250 BECMG=
201002282000 METAR MROC 282000Z 10015G25KT 9999 SCT035 26/17 A2995 DZ DST N NE FEW250 BECMG=
201002282100 METAR MROC 282100Z 10015G28KT 9999 BKN035 27/16 A2993 RMK FEW080 DZ DST NE/E BECMG=
201002282200 METAR MROC 282200Z 10012G22KT 9999 BKN035 25/15 A2993 RMK FEW080 DZ DST NE/E BECMG=
201002282300 METAR MROC 282300Z 12012G22KT 9999 SCT035 23/16 A2994 RMK FEW240 DZ DST NE/E BECMG=
201003010000 METAR MROC 010000Z 12016G26KT 9999 FEW035 21/16 A2996 RMK FEW240 DZ DST NE/E BECMG=
201003010100 METAR MROC 010100Z 12016G26KT 9999 FEW035 21/16 A2997 RMK FEW240 DZ DST NE/E BECMG=
201003010200 METAR MROC 010200Z 11015G26KT 9999 FEW035 21/17 A2998 RMK DZ DST NE/E BECMG=
201003010300 METAR MROC 010300Z 12015G25KT 9999 FEW035 21/16 A3000 BECMG=
201003010400 METAR MROC 010400Z 12010G27KT 9999 FEW035 22/17 A3001 BECMG=
201003010500 METAR MROC 010500Z 12010G25KT 9999 FEW035 22/17 A3000 BECMG=
201003010600 METAR MROC 010600Z 12015G26KT 9999 FEW035 22/17 A2999 RMK LTNG DST S BECMG=
201003010700 METAR MROC 010700Z 11020KT 9999 FEW035 22/17 A2997 RMK LTNG DST S BECMG=
201003010800 METAR MROC 010800Z 10012KT 9999 FEW030 SCT120 21/17 A2998 BECMG=
201003010900 METAR MROC 010900Z 10010KT 9999 FEW030 SCT120 21/17 A2996 BECMG=
201003011000 METAR MROC 011000Z 13022KT 9999 FEW030 SCT120 21/17 A2995 BECMG=
201003011100 METAR MROC 011100Z 12010G20KT 9999 FEW030 SCT120 22/17 A2996 BECMG=
201003011200 METAR MROC 011200Z 13012KT 9999 FEW030 SCT120 22/17 A2998 BECMG=
201003011300 METAR MROC 011300Z 10007KT 9999 FEW030 SCT120 23/17 A3000 BECMG=
201003011400 METAR MROC 011400Z 11009KT 9999 FEW035 24/18 A3001 RMK FEW120 FEW250 BECMG=
201003011500 METAR MROC 011500Z 11013KT CAVOK 26/17 A3002 RMK FEW250 BECMG=
201003011600 METAR MROC 011600Z 12010KT 9999 FEW040 28/18 A3003 RMK FEW250 BECMG=
201003011700 METAR MROC 011700Z 12012KT 9999 FEW040 29/18 A3001 BECMG=
201003011800 METAR MROC 011800Z 11008KT 9999 FEW040 31/17 A2999 BECMG=
201003011900 METAR MROC 011900Z 09006KT 9999 FEW030TCU FEW040 30/18 A2996 RMK TCU NE TCU NEAR STND W BECMG=
201003012000 METAR MROC 012000Z 24002KT 9999 FEW025TCU SCT040 29/18 A2993 RMK TCU OVER STND BECMG=
201003012100 METAR MROC 012100Z 15009KT 5000 TS +RA FEW025CB SCT040 24/21 A2994 BECMG=
201003012200 METAR MROC 012200Z 05006KT 9999 -RA FEW020 SCT040 BKN100 21/21 A2995 RETS RMK VIS N 3000MTS BECMG=
201003012300 METAR MROC 012300Z 00000KT 9999 DZ SCT040 BKN100 22/21 A2997 RERA BECMG=
201003020000 METAR MROC 020000Z 00000KT 9999 SCT040 BKN100 22/21 A2998 REDZ BECMG=
201003020100 METAR MROC 020100Z 00000KT 9999 SCT035 BKN120 22/21 A3000 BECMG=
201003020200 METAR MROC 020200Z 00000KT 9999 SCT040 BKN120 22/21 A3001 BECMG=
201003020300 METAR MROC 020300Z 00000KT 9999 FEW040 SCT100 22/22 A3002 BECMG=
201003020400 METAR MROC 020400Z 00000KT 9999 FEW040 SCT110 22/21 A3002 BECMG=
201003020500 METAR MROC 020500Z 00000KT 9999 FEW030 BKN100 22/21 A3001 BECMG=
201003020600 METAR MROC 020600Z 00000KT 9999 FEW010 SCT030 BKN110 21/21 A2999 VIS W 8 KM DUE LOW ST BECMG=
201003020700 METAR MROC 020700Z 00000KT 9999 FEW015 SCT120 21/21 A2997 BECMG=
201003020800 METAR MROC 020800Z 00000KT 9999 FEW015 SCT120 21/21 A2997 BECMG=
201003020900 METAR MROC 020900Z 07005KT CAVOK 20/19 A2996 FEW100 SCT250 BECMG=
201003021000 METAR MROC 021000Z 10004KT CAVOK 19/18 A2996 FEW250 BECMG=
201003021100 METAR MROC 021100Z 08005KT CAVOK 19/18 A2995 SCT250 BECMG=
201003021200 METAR MROC 021200Z 09005KT CAVOK 19/18 A2996 SCT250 BECMG=
201003021300 METAR MROC 021300Z 00000KT CAVOK 21/18 A3000 RMK TRACE CI HZ LEVE ARND BECMG=
201003021400 METAR MROC 021400Z 00000KT 9999 SKC 24/19 A3001 RMK HZ LEVE ARND BECMG 24006 KT=
201003021500 METAR MROC 021500Z 00000KT 9999 SKC 27/17 A2999 RMK HZ LEVE ARND TRACE SC CI BECMG 24005KT=
201003021600 METAR MROC 021600Z 00000KT CAVOK 28/18 A3001 RMK TRACE SC CI HZ LEVE ARND BECMG 24006KT=
201003021700 METAR MROC 021700Z 27002KT 9999 FEW040 30/18 A3000 RMK HZ LEVE ARN BECMG=
201003021800 METAR MROC 021800Z 23009KT 9999 FEW040 30/18 A2997 HZ LEVE ARND BECMG=
201003021900 METAR MROC 021900Z 23010KT 9999 SCT040 30/19 A2995 RMK HZ LEVE ARND BECMG=
201003022000 METAR MROC 022000Z 24012KT 9999 SCT040 30/20 A2993 RMK HZ LEVE ARND BECMG=
201003022100 METAR MROC 022100Z 24013KT 9999 SCT040 29/20 A2991 RMK LGT HZ ARND RN DST NE/S BECMG=
201003022200 METAR MROC 022200Z 24013KT 9999 FEW030TCU SCT040 26/21 A2994 RMK VEL MAX VTO 18KT RN DST NE HZ ARND BECMG=
201003022300 METAR MROC 022300Z 21007KT 9999 FEW030 SCT040 BKN200 25/21 A2996 RMK RN DST N/NE HZ ARND BECMG=
201003030000 METAR MROC 030000Z 22005KT 9999 SCT020 SCT110 24/22 A2998 RMK HZ ARND BECMG=
201003030100 METAR MROC 030100Z 00000KT 9999 VCFG SCT006 SCT030 23/23 A2994 RMK VIS 5000SW HZ ARND BECMG=
201003030200 METAR MROC 030200Z 00000KT 9999 VCFG FEW006 SCT010 23/23 A3001 RMK VIZ 5000SW/W HZ ARND BECMG=
201003030300 METAR MROC 030300Z 00000KT 9999 4000W VCFG FEW005 BKN015 22/22 A3002 HZ ARND BECMG=
201003030400 METAR MROC 030400Z 12005KT 9999 FEW015 SCT250 22/22 A3001 BECMG=
201003030500 METAR MROC 030500Z 06004KT CAVOK 22/20 A3001 SCT 250 BECMG=
201003030600 METAR MROC 030600Z 06004KT CAVOK 22/20 A3000 TRACE SCT FEW250 BECMG=
201003030700 METAR MROC 030700Z 00000KT 9999 FEW010 SCT250 21/20 A3000=
201003030800 METAR MROC 030800Z 00000KT 9999 FEW010 SCT250 20/19 A2997 BECMG=
201003030900 METAR MROC 030900Z 00000KT CAVOK 20/18 A2997 TRACE SCT FEW250 BECMG=
201003031000 METAR MROC 031000Z 09002KT CAVOK 21/18 A2996 BECMG=
201003031100 METAR MROC 031100Z 08007KT 9999 FEW040 SCT260 22/18 A2997 BECMG=
201003031200 METAR MROC 031200Z 10005KT 9999 FEW040 SCT250 21/17 A2998 HZ LGT W BECMG=
201003031300 METAR MROC 031300Z 12009KT 9999 FEW040 SCT250 23/18 A3000 RMK HZ QUAD W BECMG=
201003031400 METAR MROC 031400Z 12009KT 9999 FEW040 25/18 A3002 RMK FEW250 HZ QUAD S/W BECMG=
201003031500 METAR MROC 031500Z 10011KT 9999 SCT045 25/17 A3004 RMK DZ DST NE LGT HZ QUAD W BECMG=
201003031600 METAR MROC 031600Z 10013KT 9999 SCT045 27/17 A3004 RMK DZ DST NE BECMG=
201003031700 METAR MROC 031700Z 10016KT CAVOK 28/16 A3002 RMK BKN050 DZ DST N BECMG=
201003031800 METAR MROC 031800Z 09013G24KT 9999 SCT045 29/17 A3000 RMK RN DST E BECMG=
201003031900 METAR MROC 031900Z 10015KT 9999 FEW045 28/17 A2998 RMK FU NR APCH 07 VEL MAX VTO 22KT DZ DST NE/E BECMG=
201003032000 METAR MROC 032000Z 10016KT 9999 FEW045 28/17 A2996 RMK TRACE CI VEL MAX VTO 21KT DZ DST NE BECMG=
201003032100 METAR MROC 032100Z 08013KT 9999 SCT030 28/17 A2995 RMK PCPN DST NE TCU DST S BECMG=
201003032200 METAR MROC 032200Z 11010KT 9999 SCT030 SCT250 27/17 A2996 RMK PCPN DST NE BECMG=
201003032300 METAR MROC 032300Z 12007KT 9999 SCT025 BKN100 25/18 A2997 RMK PCPN NE BECMG=
201003040000 METAR MROC 040000Z 10010KT 9999 BKN025 24/18 A2998 RMK PCPN N NE E BECMG=
201003040100 METAR MROC 040100Z 08005KT 9999 SCT030 23/18 A3000 BECMG=
201003040200 METAR MROC 040200Z 11005KT 9999 SCT030 23/18 A3001 BECMG=
201003040300 METAR MROC 040300Z 06005KT 9999 FEW035 23/18 A3002 BECMG=
201003040400 METAR MROC 040400Z 10010G20KT 9999 FEW035 23/18 A3001 BECMG=
201003040500 METAR MROC 040500Z 11010G20KT 9999 FEW035 23/18 A3000 BECMG=
201003040600 METAR MROC 040600Z 12010G21KT 9999 FEW035 22/18 A2998 BECMG=
201003040700 METAR MROC 040700Z 10008KT 9999 FEW035 22/18 A2998=
201003040800 METAR MROC 040800Z 10009KT 9999 FEW035 22/18 A2998=
201003040900 METAR MROC 040900Z 10011KT CAVOK 22/18 A2997 RMK FEW250=
201003041000 METAR MROC 041000Z 10008KT CAVOK 22/18 A2998 RMK FEW250=
201003041100 METAR MROC 041100Z 11009KT 9999 FEW030 22/18 A2998=
201003041200 METAR MROC 041200Z 12012G22KT 9999 FEW030 SCT250 22/17 A2999 RMK DZ DST NE E=
201003041300 METAR MROC 041300Z 10014KT 9999 FEW030 SCT250 23/18 A3001 RMK DZ DST NE E BECMG=
201003041400 METAR MROC 041400Z 12010KT 9999 FEW025 25/18 A3003 RMK DZ DST NE E FEW250 BECMG=
201003041500 METAR MROC 041500Z 11010G23KT 9999 FEW020 SCT250 26/17 A3004 RMK DZ DST N NE BECMG=
201003041600 METAR MROC 041600Z 12013KT 9999 SCT020 SCT250 27/18 A3004 RMK DZ DST NE E BECMG=
201003041700 METAR MROC 041700Z 13012KT 9999 SCT025 SCT250 28/18 A3002 RMK DZ DST N NE BECMG=
201003041800 METAR MROC 041800Z 13017KT 9999 SCT025 28/18 A3000 RMK DZ DST NE E VL MX VTO 25KT BECMG=
201003041900 METAR MROC 041900Z 13011G24KT 9999 SCT025 29/18 A2998 RMK DZ DST N NE BECMG=
201003042000 METAR MROC 042000Z 11015KT 9999 BKN030 28/18 A2995 RMK DZ DST NE E BECMG=
201003042100 METAR MROC 042100Z 13012KT 9999 FEW020 BKN030 28/18 A2994 RMK DZ NE E OVR RDGS BECMG=
201003042200 METAR MROC 042200Z 12016KT 9999 SCT020 BKN250 26/17 A2994 DZ N NE BECMG=
201003042300 METAR MROC 042300Z 12012G22KT 9999 SCT020 SCT250 25/17 A2995 DZ NE BECMG=
201003042358 METAR MROC 042358Z 10010G20KT 9999 FEW040 SCT250 23/17 A2997 DZ NE BECMG=
201003050000 METAR MROC 050000Z 10010G20KT 9999 FEW040 SCT250 23/17 A2997 DZ NE BECMG=
201003050100 METAR MROC 050100Z 10013KT 9999 FEW030 23/17 A2998 FEW100 VEL MX 19KTS BECMG=
201003050200 METAR MROC 050200Z 12014KT 9999 FEW030 22/17 A3000 VEL MX 20KTS BECMG=
201003050300 METAR MROC 050300Z 12014KT CAVOK 22/17 A3002 RMK VEL MAX VTO 22KT TRACE SC/CI BECMG=
201003050400 METAR MROC 050400Z 11010KT CAVOK 22/17 A3003 RMK TRACE SC/CI VEL MAX VTO 16KT BECMG=
201003050500 METAR MROC 050500Z 11010KT 9999 FEW030 22/17 A3003 RMK TRACE CI VEL MAX VTO 16KT BECMG=
201003050600 METAR MROC 050600Z 12010KT 080V150 9999 FEW030 21/17 A3000 RMK VEL MAX VTO 19KT BECMG=
201003050700 METAR MROC 050700Z 11013G26KT 9999 FEW110 21/17 A2998 RMK TRACE SC BECMG=
201003050800 METAR MROC 050800Z 10008KT 9999 FEW110 21/17 A2997 RMK TRACE SC BECMG=
201003050900 METAR MROC 050900Z 08007KT 9999 FEW030 21/17 A2997 RMK TRACE AC BECMG=
201003051000 METAR MROC 051000Z 11011KT 9999 FEW030 21/17 A2998 RMK VEL MAX VTO 20KT BECMG=
201003051100 METAR MROC 051100Z 09008KT 9999 FEW030 20/17 A2999 BECMG=
201003051200 METAR MROC 051200Z 10011G24KT 060V120 9999 FEW035 SCT250 21/17 A3000 RMK PCPN DST N/NE/E BECMG=
201003051300 METAR MROC 051300Z 12014G24KT FEW030 SCT250 22/17 A3001 RMK PCPN DIST N NE BECMG=
201003051400 METAR MROC 051400Z 12014G27KT 9999 FEW030 SCT250 24/17 A3001 RMK PCPN=
201003051500 METAR MROC 051500Z 13014G24KT 9999 FEW030 BKN250 25/17 A3003 PCPN N NE BECMG=
201003051600 METAR MROC 051600Z 12015KT 9999 FEW030 26/17 A3002 PCPN DIST N NE FEW250 BECMG=
201003051700 METAR MROC 051700Z 12014G24KT 9999 FEW030 27/17 A3001 PCPN DIST N NE BECMG=
201003051800 METAR MROC 051800Z 13013KT 9999 FEW030 SCT280 29/17 A2999 PCPN DIST NE VEL MX 20KTS BECMG=
201003051900 METAR MROC 051900Z 11009KT 9999 FEW030 SCT100 28/17 A2997 PCPN DST N NE=
201003052000 METAR MROC 052000Z 13016KT 9999 FEW030 SCT100 29/17 A2995 PCPN DST NE BECMG=
201003052100 METAR MROC 052100Z 12012G23KT 9999 FEW030 SCT250 27/17 A2992 BECMG=
201003052200 METAR MROC 052200Z 13015KT 9999 FEW030 SCT250 26/17 A2991 RMK DZ DST NE E BECMG=
201003052300 METAR MROC 052300Z 12014G24KT 9999 FEW030 SCT250 24/17 A2992 RMK DZ DST NE BECMG=
201003060000 METAR MROC 060000Z 11012KT 9999 FEW030 SCT250 22/17 A2993 RMK DZ DST NE BECMG=
201003060100 METAR MROC 060100Z 12011KT 9999 FEW030 22/17 A2995 BECMG=
201003060200 METAR MROC 060200Z 12011KT 9999 FEW030 22/17 A2997 BECMG=
201003060300 METAR MROC 060300Z 13012KT 9999 FEW030 21/17 A2999 BECMG=
201003060400 METAR MROC 060400Z 10012G23KT 9999 FEW030 21/17 A2999 BECMG=
201003060500 METAR MROC 060500Z 10011KT 9999 FEW030 21/16 A3000 BECMG=
201003060600 METAR MROC 060600Z 10008KT 9999 FEW030 20/15 A2998 BECMG=
201003060700 METAR MROC 060700Z 09005KT 9999 FEW030 20/15 A2997 BECMG=
201003060800 METAR MROC 060800Z 13010G20KT 9999 FEW030 19/15 A2996 BECMG=
201003060900 METAR MROC 060900Z 09010G20KT 9999 FEW030 19/15 A2996 BECMG=
201003061000 METAR MROC 061000Z 10008KT 9999 FEW030 20/15 A2996 BECMG=
201003061100 METAR MROC 061100Z 12010G20KT 9999 FEW030 20/15 A2997 BECMG=
201003061200 METAR MROC 061200Z 07010G22KT 9999 FEW030 BKN250 19/15 A2999 BECMG=
201003061300 METAR MROC 061300Z 09007KT 9999 FEW030 BKN250 20/15 A3001 BECMG=
201003061400 METAR MROC 061400Z 11008KT 9999 FEW030 BKN250 23/15 A3003 BECMG=
201003061500 METAR MROC 061500Z 11014KT 9999 FEW035 SCT250 25/16 A3003 BECMG=
201003061600 METAR MROC 061600Z 10010KT 9999 FEW035 BKN250 26/15 A3003 BECMG=
201003061700 METAR MROC 061700Z 10016G26KT CAVOK 26/16 A3000 RMK BKN250 BECMG=
201003061800 METAR MROC 061800Z 12013KT CAVOK 27/16 A2997 RMK BKN250 BECMG=
201003061900 METAR MROC 061900Z 11014KT CAVOK 27/16 A2996 RMK BKN250 BECMG=
201003062000 METAR MROC 062000Z 13021KT 9999 FEW040 BKN250 27/16 A2994 BECMG=
201003062100 METAR MROC 062100Z 12016KT 9999 SCT040 BKN250 26/16 A2993 BECMG=
201003062200 METAR MROC 062200Z 12013KT 9999 SCT030 BKN250 25/16 A2994 BECMG=
201003062300 METAR MROC 062300Z 11013G26KT 9999 SCT030 BKN250 22/16 A2996 BECMG=
201003070000 METAR MROC 070000Z 12015KT 9999 SCT030 BKN250 21/16 A2997 BECMG=
201003070100 METAR MROC 070100Z 11015G31KT 9999 FEW030 SCT250 21/16 A2998 BECMG=
201003070200 METAR MROC 070200Z 12013KT CAVOK 21/16 A2999 RMK SCT250 BECMG=
201003070300 METAR MROC 070300Z 12011G22KT 9999 CAVOK 20/15 A3001 RMK FEW250 BECMG=
201003070400 METAR MROC 070400Z 12012G22KT 9999 CAVOK 21/16 A3002 RMK FEW250 BECMG=
201003070500 METAR MROC 070500Z 11012G22KT CAVOK 20/16 A3001 RMK FEW250 BECMG=
201003070600 METAR MROC 070600Z 11012G22KT CAVOK 20/16 A3001 RMK FEW250 BECMG=
201003070700 METAR MROC 070700Z 10007KT 9999 FEW030 20/15 A3001=
201003070800 METAR MROC 070800Z 10002KT 9999 FEW030 19/15 A2999=
201003070900 METAR MROC 070900Z 05002KT 9999 FEW030 19/15 A2998=
201003071000 METAR MROC 071000Z 10009KT 9999 FEW030 19/15 A2998=
201003071100 METAR MROC 071100Z 10009KT 9999 FEW030 18/14 A2999=
201003071200 METAR MROC 071200Z 10010KT 9999 FEW030 SCT260 18/15 A3001=
201003071300 METAR MROC 071300Z 10010KT 9999 FEW030 SCT260 20/15 A3004 BECMG=
201003071400 METAR MROC 071400Z 13012G26KT 9999 FEW030 SCT260 22/15 A3006 BECMG=
201003071500 METAR MROC 071500Z 11013KT 9999 FEW030 SCT260 25/15 A3006 BECMG=
201003071600 METAR MROC 071600Z 12011KT 9999 FEW030 SCT260 26/15 A3004 BECMG=
201003071700 METAR MROC 071700Z 11014KT 9999 FEW030 SCT300 26/15 A3002 BECMG=
201003071800 METAR MROC 071800Z 11016KT 9999 FEW030 27/15 A3000 BECMG=
201003071900 METAR MROC 071900Z 11013G27KT 080V140 9999 FEW030 27/15 A2998 BECMG=
201003072000 METAR MROC 072000Z 11016KT 9999 FEW030 27/15 A2996 BECMG=
201003072100 METAR MROC 072100Z 12014KT 9999 FEW040 25/15 A2996 RMK VEL MAX VTO 20KT TCU DST S BECMG=
201003072200 METAR MROC 072200Z 12014KT 9999 FEW045 24/15 A2995 RMK VEL MAX VTO 20KT TCU DST S BECMG=
201003072300 METAR MROC 072300Z 12015G25KT 9999 FEW040 22/15 A2996 RMK DZ DST E BECMG=
201003072359 METAR MROC 080000Z 12013KT 9999 FEW040 21/15 A2997 RMK VEL MAX VTO 19KT DZ DST NE/E BECMG=
201003080000 METAR MROC 080000Z 12013KT 9999 FEW040 21/15 A2997 RMK VEL MAX VTO 19KT DZ DST NE/E BECMG=
201003080100 METAR MROC 080100Z 11014KT 9999 FEW035 20/15 A3000 RMK VEL MAX VTO 21KT BECMG=
201003080200 METAR MROC 080200Z 12015G26KT 9999 FEW030 20/15 A3002 BECMG=
201003080300 METAR MROC 080300Z 12014KT CAVOK 20/15 A3003 RMK SCT250 BECMG=
201003080400 METAR MROC 080400Z 12014G24KT CAVOK 20/15 A3003 RMK SCT250 BECMG=
201003080500 METAR MROC 080500Z 11011KT CAVOK 19/15 A3003 RMK SCT250 BECMG=
201003080600 METAR MROC 080600Z 11011KT CAVOK 19/15 A3002 RMK SCT250 BECMG=
201003080700 METAR MROC 080700Z 10010KT 9999 FEW035 19/15 A3000=
201003080800 METAR MROC 080800Z 10010G20KT 9999 FEW035 19/15 A2998=
201003080900 METAR MROC 080900Z 11013KT 9999 FEW035 19/15 A2998=
201003081000 METAR MROC 081000Z 12010G20KT CAVOK 19/15 A2998 RMK FEW250=
201003081100 METAR MROC 081100Z 11011KT CAVOK 20/16 A2999 RMK FEW250=
201003081200 METAR MROC 081200Z 09008KT CAVOK 20/16 A3001 RMK SCT250=
201003081300 METAR MROC 081300Z 10011KT CAVOK 21/16 A3003 RMK FEW250 TRACE SC BECMG=
201003081400 METAR MROC 081400Z 11012KT CAVOK 23/15 A3003 RMK SCT250 TRACE SC BECMG=
201003081500 METAR MROC 081500Z 11013KT CAVOK 25/15 A3003 RMK FEW050 SCT300 VEL MAX VTO 20KT BECMG=
201003081600 METAR MROC 081600Z 11011KT CAVOK 26/15 A3003 RMK SCT300 BECMG=
201003081700 METAR MROC 081700Z 11015KT CAVOK 26/15 A3000 RMK SCT300 BECMG=
201003081800 METAR MROC 081800Z 11015KT CAVOK 26/15 A2998 RMK SCT300 BECMG=
201003081900 METAR MROC 081900Z 12014KT CAVOK 27/16 A2994 RMK SCT300 VEL MAX VTO 19KT BECMG=
201003082000 METAR MROC 082000Z 12014KT 9999 FEW040 SCT300 27/16 A2992 BECMG=
201003082100 METAR MROC 082100Z 10010KT 9999 FEW035 SCT300 27/16 A2990 BECMG=
201003082200 METAR MROC 082200Z 11008KT 9999 FEW035 SCT300 25/16 A2991 BECMG=
201003082300 METAR MROC 082300Z 09007G21KT 9999 FEW030 SCT300 24/16 A2992 BECMG=
201003090000 METAR MROC 090000Z 10007G23KT CAVOK 22/13 A2993 RMK TRACE SC AC BKN300 BECMG=
201003090100 METAR MROC 090100Z 10010KT CAVOK 20/15 A2995 RMK TRACE SC FEW 300 BECMG=
201003090200 METAR MROC 090200Z 09007KT CAVOK 20/15 A2997 RMK TRACE SC FEW300 BECMG=
201003090300 METAR MROC 090300Z 08009KT CAVOK 20/15 A3000 RMK TRACE SC FEW300 BECMG=
201003090400 METAR MROC 090400Z 08011KT CAVOK 20/15 A3000 RMK TRACE SC FEW300 BECMG=
201003090500 METAR MROC 090500Z 06007KT CAVOK 19/15 A3002 RMK TRACE SC FEW300 BECMG=
201003090600 METAR MROC 090600Z 07010KT CAVOK 19/15 A3000 RMK TRACE SC BECMG=
201003090700 METAR MROC 090700Z 08009KT CAVOK 20/15 A2998 RMK TRACE SC N-OSIG=
201003090800 METAR MROC 090800Z 09009KT CAVOK 19/15 A2996 RMK TRACE SC BECMG=
201003090900 METAR MROC 090900Z 08011KT CAVOK 19/15 A2995 RMK TRACE SC BECMG=
201003091000 METAR MROC 091000Z 08011KT CAVOK 19/15 A2995 RMK TRACE SC BECMG=
201003091100 METAR MROC 091100Z 08009KT CAVOK 19/14 A2996 RMK TRACE SC BECMG=
201003091200 METAR MROC 091200Z 08012KT CAVOK 19/14 A2998 RMK FEW250 BECMG=
201003091300 METAR MROC 091300Z 09012KT CAVOK 21/14 A3000 RMK FEW250 BECMG=
201003091400 METAR MROC 091400Z 09005KT CAVOK 24/15 A3001 RMK FEW250 BECMG=
201003091500 METAR MROC 091500Z 00000KT CAVOK 27/15 A3001 RMK FEW250 BECMG 24006KT=
201003091600 METAR MROC 091600Z 24007KT CAVOK 29/16 A3000 RMK FEW250 BECMG=
201003091700 METAR MROC 091700Z 21008KT CAVOK 30/16 A2996 RMK FEW250 BECMG=
201003091800 METAR MROC 091800Z 24010KT CAVOK 30/17 A2994 RMK TRACE SC SCT250 BECMG=
201003091900 METAR MROC 091900Z 23010KT 9999 FEW030 SCT250 32/18 A2992 BECMG=
201003092000 METAR MROC 092000Z 24010KT 9999 SCT030 31/20 A2990 RMK FEW250 BECMG=
201003092100 METAR MROC 092100Z 24013KT 9999 FEW020 SCT030 30/21 A2989 FEW250 BECMG=
201003092200 METAR MROC 092200Z 24010KT 9999 SCT030 28/21 A2989 HZ LGT ARND BECMG=
201003092300 METAR MROC 092300Z 24012KT 9999 SCT030 BKN250 27/21 A2992 HZ LGT ARND BECMG=
201003100000 METAR MROC 100000Z 25010KT 9999 SCT030 BKN250 25/21 A2994 VIS E 8KM DUE HZ BECMG=
201003100100 METAR MROC 100100Z 22006KT 9999 SCT040 SCT250 24/21 A2997 BECMG=
201003100200 METAR MROC 100200Z 24003KT 9999 SCT030 23/21 A2999 HZ LGT ARND BECMG=
201003100300 METAR MROC 100300Z 00000KT 9999 FEW030 BKN040 23/21 A3001 RMK HZ ARND BECMG=
201003100400 METAR MROC 100400Z 26004KT 9999 FEW009 BKN035 22/21 A3002 RMK HZ ARND BECMG=
201003100500 METAR MROC 100500Z 00000KT 9999 VCFG FEW006 SCT030 22/21 A3001 RMK FEW250 HZ ARND VIS 8KM SW BECMG=
201003100600 METAR MROC 100600Z 00000KT 7000 3000W BR VCFG SCT002 BKN020 21/21 A2999 RMK HZ LGT ARND BECMG=
201003100700 METAR MROC 100700Z 00000KT 7000 3000W BR VCFG SCT006 BKN025 21/21 A2997 RMK LGT HZ ARND BECMG=
201003100800 METAR MROC 100800Z 00000KT 7000 3000SW BR VCFG FEW003 SCT006 21/21 A2995 BECMG=
201003100900 METAR MROC 100900Z 00000KT 8000 BR VCFG FEW006 20/20 A2995 RMK VIS 4KM SW/W FEW250 BECMG=
201003101000 METAR MROC 101000Z 00000KT 8000 BR VCFG FEW015 19/18 A2996 RMK VIS 5KM SW FEW250 BECMG=
201003101100 METAR MROC 101100Z 06003KT 9999 BR VCFG FEW015 BKN080 19/17 A2998 RMK VIS 7KM SW BECMG=
201003101200 METAR MROC 101200Z 00000KT 9999 VCFG SCT060 19/17 A2999 RMK VIS 7KM SW BECMG=
201003101300 METAR MROC 101300Z 00000KT 9999 VCFG SCT040 21/18 A3000 VIS SW 6KM DUE HZ BECMG=
201003101400 METAR MROC 101400Z 00000KT CAVOK 25/18 A3001 HZY VIS SW W 6KM DUE HZ TRACE SCT BECMG 24006KT=
201003101500 METAR MROC 101500Z 00000KT CAVOK 26/17 A3002 VIS SW W 6KM DUE HZ HZY BECMG 24007KT=
201003101600 METAR MROC 101600Z 27005KT 9999 FEW040 29/17 A3002 VIS SW W 6KM DUE HZ HZY BECMG=
201003101700 METAR MROC 101700Z 25006KT 9999 FEW040 29/17 A3000 HZ ARND BECMG=
201003101800 METAR MROC 101800Z 26007KT 9999 FEW040 30/17 A2997 HZ ARND BECMG=
201003101900 METAR MROC 101900Z 24010KT 9999 FEW040 31/18 A2994 HZ ARND BECMG=
201003102000 METAR MROC 102000Z 25012KT 9999 FEW040 30/18 A2991 RMK HZ ARND BECMG=
201003102100 METAR MROC 102100Z 25012KT 9999 SCT035 30/18 A2990 BECMG=
201003102200 METAR MROC 102200Z 25011KT 9999 SCT035 29/18 A2991 RMK HZ NE E SE BECMG=
201003102300 METAR MROC 102300Z 25010KT 9999 SCT035 28/18 A2992 RMK HZ LEVE NE E SE BECMG=
201003110000 METAR MROC 110000Z 24007KT 9999 FEW035 SCT100 26/18 A2994 RMK HZ E SE BECMG=
201003110100 METAR MROC 110100Z 25002KT 9999 FEW035 SCT100 25/19 A2997 BECMG=
201003110200 METAR MROC 110200Z 00000KT 9999 FEW035 SCT100 23/19 A2998 BECMG=
201003110300 METAR MROC 110300Z 00000KT 9999 FEW035 22/19 A3000 RMK FEW100 BECMG=
201003110400 METAR MROC 110400Z 00000KT 9999 FEW035 21/20 A3000 RMK FEW100 HZ ARND BECMG=
201003110500 METAR MROC 110500Z 00000KT 9999 FEW035 21/18 A2999 RMK HZ ARND BECMG=
201003110600 METAR MROC 110600Z 07005KT 9999 FEW035 21/18 A2996 RMK HZ ARND BECMG=
201003110700 METAR MROC 110700Z 08006KT CAVOK 20/17 A2993 RMK HZ ARND FEW120 BECMG=
201003110800 METAR MROC 110800Z 00000KT CAVOK 19/18 A2994 RMK HZ ARND FEW120 BECMG=
201003110900 METAR MROC 110900Z 00000KT CAVOK 19/17 A2996 RMK HZ ARND FEW120 BECMG=
201003111000 METAR MROC NIL=
201003111100 METAR MROC 111100Z 00000KT CAVOK 19/17 A2997 RMK HZ ARND FEW120 BECMG=
201003111200 METAR MROC 111200Z 00000KT 9999 FEW030 SCT100 20/16 A2999 RMK HZ ARND BECMG=
201003111300 METAR MROC 111300Z 00000KT CAVOK 21/18 A3001 RMK FEW120 FEW250 HZ LEVE ARND BECMG 24007KT=
201003111400 METAR MROC 111400Z 00000KT CAVOK 24/18 A3003 BECMG 24007KT=
201003111500 METAR MROC 111500Z 00000KT CAVOK 26/18 A3003 RMK HZ ARND BECMG 24007KT=
201003111600 METAR MROC 111600Z 22005KT 9999 FEW040 28/18 A3002 RMK HZ ARND BECMG=
201003111700 METAR MROC 111700Z 25008KT 9999 FEW040 30/18 A3001 RMK HZ ARND BECMG=
201003111800 METAR MROC 111800Z 25008KT 9999 SCT035 30/18 A2998 RMK HZ ARND BECMG=
201003111900 METAR MROC 111900Z 24011KT 9999 SCT035 31/18 A2995 RMK FEW100 HZ ARND BECMG=
201003112000 METAR MROC 112000Z 22008KT 9999 SCT035 30/20 A2991 HZ ARND BECMG=
201003112100 METAR MROC 112100Z 26011KT 9999 BKN035 29/19 A2989 RK HZ LEVE ARND BECMG 7000 -RA=
201003112200 METAR MROC 112200Z 26009KT 9999 BKN035 27/20 A2990 RMK HZ LEVE ARND=
201003112300 METAR MROC 112300Z 25009KT 9999 BKN035 26/20 A2991 RMK HZ LEVE ARND=
201003120000 METAR MROC 120000Z 25006KT 9999 BKN035 25/20 A2992 RMK HZ LEVE ARND BECMG=
201003120100 METAR MROC 120100Z 26005KT 9999 SCT035 23/21 A2994 RMK BECMG CAVOK=
201003120200 METAR MROC 120200Z 00000KT 9999 SCT035 23/20 A2996 BECMG=
201003120300 METAR MROC 120300Z 00000KT 9999 FEW020 SCT040 23/21 A2998 HZ LGT ARND BECMG=
201003120400 METAR MROC 120400Z 00000KT 9999 FEW035 SCT040 23/21 A3000 HZ LGT ARND BECMG=
201003120500 METAR MROC 120500Z 00000KT 9999 SCT030 22/21 A3000 LGT HZ ARND BECMG=
201003120600 METAR MROC 120600Z 00000KT 3000 BR BKN008 22/22 A2999 BECMG=
201003120700 METAR MROC 120700Z 00000KT 9999 FEW015 SCT020 22/22 A2997 LOW ST SW BECMG=
201003120800 METAR MROC 120800Z 00000KT 9999 SCT030 22/21 A2995 BECMG=
201003120900 METAR MROC 120900Z 00000KT 9999 FEW020 21/21 A2994 BECMG=
201003121000 METAR MROC 121000Z 00000KT 8000 VCFG FEW010 SCT070 21/21 A2995 BECMG=
201003121100 METAR MROC 121100Z 00000KT 9999 FEW015 SCT080 22/21 A2996 HZ LGT ARND BECMG=
201003121200 METAR MROC 121200Z 00000KT 9999 4000W VCFG FEW020 SCT050 22/21 A2998 HZY CB DIST S SCT250 BECMG=
201003121300 METAR MROC 121300Z 00000KT CAVOK 23/20 A3001 RMK HZ ARND BKN250 BECMG 24007K T=
201003121400 METAR MROC 121400Z 00000KT CAVOK 24/20 A3002 RMK BKN250 HZ ARND BECMG 121400Z KT=
201003121500 METAR MROC 121500Z 28003KT CAVOK 28/19 A3002 RMK HZ ARND BKN250 BECMG=
201003121600 METAR MROC 121600Z 25007KT 220V280 9999 FEW040 BKN250 30/18 A3001 RMK HZ ARND BECMG=
201003121700 METAR MROC 121700Z 23007KT 200V270 9999 FEW040 BKN250 30/18 A2999 RMK HZ LEVE ARND BECMG=
201003121800 METAR MROC 121800Z 25011KT 9999 FEW040 BKN250 32/19 A2996 BECMG=
201003121900 METAR MROC 121900Z 26012KT 9999 FEW040 BKN250 32/19 A2993 BECMG=
201003122000 METAR MROC 122000Z 24013KT 9999 FEW040 BKN250 31/20 A2990 BECMG=
201003122100 METAR MROC NIL=
201003122200 METAR MROC 122200Z 25012KT 9999 SCT040 SCT250 28/19 A2990 RMK HZ QUAD E BECMG=
201003122300 METAR MROC 122300Z 25010KT 9999 FEW035 BKN250 27/19 A2991 RMK HZ QUAD E BECMG=
201003130000 METAR MROC 130000Z 00000KT 9999 SCT045 BKN250 25/20 A2992 RMK LGT HZ ARND BECMG=
201003130100 METAR MROC 130100Z 26004KT 9999 SCT045 BKN250 24/21 A2995 RMK HZY BECMG=
201003130200 METAR MROC 130200Z 00000KT 9999 FEW040 BKN250 23/22 A2997 RMK HZY BECMG=
201003130300 METAR MROC 130300Z 00000KT 5000 BR FEW003 SCT007 22/22 A2998 RMK VIS 9999E 8000S BECMG 3000 BR=
201003130400 METAR MROC 130400Z 00000KT 3500 BR SCT003 SCT010 22/22 A2999 RMK VIS 9999N BECMG 5000 BR DZ=
201003130500 METAR MROC 130500Z 22004KT 9999 SCT007 SCT035 22/22 A3000 BECMG=
201003130600 METAR MROC 130600Z 22004KT 9999 FEW008 SCT035 22/21 A2998 RMK HZ ARND BECMG=
201003130700 METAR MROC 130700Z 00000KT 9999 FEW015 BKN035 22/21 A2997 BECMG=
201003130800 METAR MROC 130800Z 00000KT 9999 FEW015 BKN 035 22/21 A2996=
201003130900 METAR MROC 130900Z 26004KT 9999 3000SW BR SCT005 SCT035 22/21 A2995=
201003131000 METAR MROC 131000Z 28005KT 9999 4500SW BR SCT005 SCT025 21/21 A2997=
201003131100 METAR MROC 131100Z 00000KT 9999 SCT005 SCT025 22/20 A2998=
201003131200 METAR MROC 131200Z 00000KT 9999 BKN025 21/20 A3000 RMK DZ DST NE E=
201003131300 METAR MROC 131300Z VRB02KT 7000 3000N VCFG FEW020 BKN250 23/21 A3002 BECMG=
201003131400 METAR MROC 131400Z VRB02KT 8000 3000N VCFG SCT020 25/21 A3002 BECMG 9999=
201003131500 METAR MROC 131500Z 00000KT 9999 FEW040 27/21 A3002 RMK HZY BECMG=
201003131600 METAR MROC 131600Z 23003KT 9999 FEW045 29/19 A3001 RMK HZY BECMG=
201003131700 METAR MROC 131700Z 25007KT 240V300 9999 SCT045 30/19 A2999 RMK HZY BECMG=
201003131800 METAR MROC 131800Z 24011KT 9999 SCT040 30/20 A2996 RMK VEL MAX VTO 16KT HZ ARND=
201003131900 METAR MROC 131900Z 26013KT 9999 FEW030 SCT045TCU 29/18 A2994 RMK HZ ARND RN DST N/S BECMG=
201003132000 METAR MROC 132000Z 22010KT 9999 FEW030TCU BKN045 26/21 A2992 RMK HZ ARND BECMG=
201003132100 METAR MROC 132100Z 18006KT 9999 FEW030 BKN100 24/20 A2992 RMK HZ ARND BECMG=
201003132200 METAR MROC 132200Z 00000KT 9999 FEW025 BKN100 24/19 A2991 RMK HZ ARND BECMG=
201003132300 METAR MROC 132300Z 00000KT 9999 FEW020 BKN100 25/18 A2992 RMK HZ ARND RN DST E BECMG=
201003140000 METAR MROC 140000Z 11009KT 9999 FEW020 BKN100 24/17 A2993 RMK HZ ARND BECMG=
201003140100 METAR MROC 140100Z 10005KT 9999 FEW020 BKN100 24/18 A2994 RMK HZ ARND BECMG=
201003140200 METAR MROC 140200Z 10010KT 9999 FEW020 BKN100 24/18 A2996 RMK HZ ARND BECMG=
201003140300 METAR MROC 140300Z 09008KT 9999 FEW025 BKN100 24/18 A2997 RMK HZ ARND BECMG=
201003140400 METAR MROC 140400Z 11013KT 9999 FEW025 BKN100 23/18 A2998 RMK HZ ARND BECMG=
201003140500 METAR MROC 140500Z 14010KT 9999 FEW025 BKN100 24/18 A2998 RMK HZ ARND BECMG=
201003140600 METAR MROC 140600Z 13014KT 9999 FEW030 SCT100 24/16 A2996 BECMG=
201003140700 METAR MROC 140700Z 11016KT CAVOK 24/16 A2995 RMK HZ ARND BKN100 BECMG=
201003140800 METAR MROC 140800Z 10010KT CAVOK 23/17 A2993 RMK HZ ARND BKN100 BECMG=
201003140900 METAR MROC 140900Z 12011KT CAVOK 24/17 A2993 RMK HZ ARND BKN100 BECMG=
201003141000 METAR MROC NIL=
201003141100 METAR MROC 141100Z 10010KT CAVOK 23/18 A2995 RMK SCT110 BECMG=
201003141200 METAR MROC 141200Z 10010KT CAVOK 23/18 A2997 RMK SCT110 BKN250 BECMG=
201003141300 METAR MROC 141300Z 08005KT CAVOK 25/18 A2999 RMK TRACE SC BKN250=
201003141400 METAR MROC 141400Z 13004KT CAVOK 26/17 A3000 RMK FEW SC BKN250 HZ LEVE ARND BECMG=
201003141500 METAR MROC 141500Z 11009KT CAVOK 28/17 A3002 RMK FEW SC BKN250 HZ LEVE ARND BECMG=
201003141600 METAR MROC 141600Z 13006KT 9999 FEW040 BKN250 30/17 A3002 HZ LEVE ARND BECMG=
201003141700 METAR MROC 141700Z 13003KT 9999 FEW040 BKN250 31/17 A3000 RMK HZ LEVE ARND BECMG=
201003141800 METAR MROC 141800Z 16005KT 9999 FEW040 BKN250 32/18 A2999 RMK HZ LEVE ARND BECMG 24008KT=
201003141837 METAR MROC 141837Z 24008KT 9999 SCT040 BKN250 30/20 A2998 RMK HZ LEVE ARND BECMG=
201003141900 METAR MROC 141900Z 25009KT 9999 FEW040 BKN250 30/21 A2997 RMK HZ ARND=
201003142000 METAR MROC 142000Z 23011KT 9999 SCT040 BKN250 30/21 A2995 RMK HZ LEVE ARND=
201003142100 METAR MROC 142100Z 24011KT 9999 SCT030TCU SCT250 30/22 A2994 HZ LGT ARND BECMG=
201003142200 METAR MROC 142200Z 24009KT 9999 SCT030 SCT250 27/22 A2994 HZY BECMG=
201003142300 METAR MROC 142300Z 25010KT 9999 FEW020 SCT030 26/22 A2996 SCT250 HZY BECMG=
201003142358 METAR MROC 150000Z 23007KT 9999 BKNM030 25/22 A2997 HZY FEW250 BECMG=
201003150000 METAR MROC 150000Z 23007KT 9999 BKNM030 25/22 A2997 HZY FEW250 BECMG=
201003150100 METAR MROC 150100Z 00000KT 9999 BKN030 24/21 A2999 HZY FEW250 BECMG=
201003150200 METAR MROC 150200Z 00000KT 9999 BKN030 23/20 A3001 HZY BECMG=
201003150300 METAR MROC 150300Z 00000KT 9999 FEW030 SCT090 23/20 A3002 RMK LGT HZ ARND BECMG=
201003150400 METAR MROC 150400Z 00000KT 9999 FEW030 BKN250 22/20 A3003 RMK LGT HZ ARND BECMG=
201003150500 METAR MROC 150500Z 00000KT 9999 FEW030 BKN250 23/20 A3003 RMK LGT HZ ARND BECMG=
201003150600 METAR MROC 150600Z 00000KT 9999 BKN250 22/20 A3001 RMK HZ LGT ARND BECMG=
201003150700 METAR MROC 150700Z 00000KT 9999 BKN250 21/19 A2998 BECMG=
201003150800 METAR MROC 150800Z 00000KT 9999 OVC250 21/19 A2997 BECMG=
201003150900 METAR MROC 150900Z VRB02KT 9999 OVC250 21/19 A2997 BECMG=
201003151000 METAR MROC 151000Z 00000KT 9999 BKN250 20/18 A2997 BECMG=
201003151100 METAR MROC 151100Z 07002KT 9999 BKN250 21/18 A2999 BECMG=
201003151200 METAR MROC 151200Z 06006KT CAVOK 21/18 A3000 RMK BKN250 BECMG=
201003151300 METAR MROC 151300Z 08006KT CAVOK 23/18 A3002 OVC250 BECMG=
201003151400 METAR MROC 151400Z 12009KT CAVOK 25/18 A3003 HZY OVC250 BECMG=
201003151500 METAR MROC 151500Z 10008KT CAVOK 27/18 A3004 OVC250 HZY BECMG=
201003151600 METAR MROC 151600Z 10010KT CAVOK 29/18 A3003 HZY OVC250 VL MX 15KTS BECMG=
201003151700 METAR MROC 151700Z 12010KT 9999 FEW040 OVC250 30/18 A3002 HZY BECMG=
201003151800 METAR MROC 151800Z 10010KT 9999 FEW040 OVC250 32/18 A2999 HZY BECMG 24006KT=
201003151900 METAR MROC 151900Z 16006KT 9999 FEW035 BKN250 31/17 A2995 RMK RN DST NE TCU SW BECMG 24008KT=
201003152000 METAR MROC 152000Z 22009KT 9999 SCT030TCU BKN250 30/18 A2994 BECMG=
201003152100 METAR MROC 152100Z 23010KT 9999 FEW020TCU SCT030 BKN250 30/21 A2992 RMK HZ LEVE ARND=
201003152200 METAR MROC 152200Z 22009KT 9999 SCT030 BKN250 29/22 A2993 RMK HZ LEVE ARND BECMG=
201003152300 METAR MROC 152300Z 24010KT 9999 SCT030 BKN250 27/23 A2994 RMK HZ LEVE ARND BECMG=
201003160000 METAR MROC 160000Z 25007KT 9999 FEW012 SCT030 24/23 A2998 RMK VIS 8000SW=
201003160100 METAR MROC 160100Z 00000KT 9999 SCT025 23/23 A3000 RMK HZ LEVE ARND BECMG=
201003160200 METAR MROC 160200Z 00000KT 9999 FEW010 SCT030 23/23 A3002 RMK VIS 8000 SW VCFG HZ LEVE ARND BECMG=
201003160300 METAR MROC 160300Z 00000KT 9999 FEW015 SCT030 23/18 A3002 RMK HZ ARND LGT BECMG=
201003160400 METAR MROC 160400Z 00000KT 9999 FEW015 SCT030 23/18 A3001 RMK HZ LGT ARND BECMG=
201003160500 METAR MROC 160500Z 13006KT 9999 FEW030 23/18 A3001 RMK HZ LGT ARND BECMG=
201003160600 METAR MROC 160600Z 00000KT 9999 FEW030 23/17 A2999 BECMG=
201003160700 METAR MROC 160700Z 11006KT 9999 FEW030 23/16 A2998 BECMG=
201003160800 METAR MROC 160800Z 14007KT 9999 FEW030 22/17 A2997 BECMG=
201003160900 METAR MROC 160900Z 12007KT 9999 FEW030 22/17 A2997 BECMG=
201003161000 METAR MROC 161000Z 09005KT 9999 FEW030 22/17 A2998 BECMG=
201003161100 METAR MROC 161100Z 12010KT 9999 FEW030 21/17 A2998 BECMG=
201003161200 METAR MROC 161200Z 12010KT CAVOK 21/16 A3000 RMK BKN250 BECMG=
201003161300 METAR MROC 161300Z 10006KT CAVOK 23/16 A3002 RMK BKN250 BECMG=
201003161400 METAR MROC 161400Z 12011KT CAVOK 25/16 A3002 RMK BKN250 HZ LEVE SW BECMG=
201003161500 METAR MROC 161500Z 10013KT CAVOK 28/13 A3003 RMK BKN250 HZ LEVE SW BECMG=
201003161600 METAR MROC 161600Z 10013KT CAVOK 29/14 A3002 RMK BKN250 HZ LEVE SW BECMG=
201003161700 METAR MROC 161700Z 08013KT CAVOK 30/13 A3001 RMK BKN250 HZ LEVE ARND BECMG=
201003161800 METAR MROC 161800Z 08014KT CAVOK 31/14 A2997 RMK BKN250 HZ LEVE ARND BECMG=
201003161900 METAR MROC 161900Z 09010KT CAVOK 30/15 A2995 RMK CHECK TEXT NEW ENDING ADDED KATLYTAA=
201003162000 METAR MROC 162000Z 09011KT CAVOK 31/14 A2992 RMK BKN250 HZ LEVE ARND BECMG=
201003162100 METAR MROC 162100Z 08011KT CAVOK 30/14 A2991 RMK BKN250 HZ LEVE ARND BECMG=
201003162200 METAR MROC 162200Z 09009KT 9999 FEW040 BKN250 30/15 A2990 RMK HZ LEVE ARND BECMG=
201003162300 METAR MROC 162300Z 08008KT 9999 FEW040 BKN250 28/15 A2992 RMK HZ LEVE ARND=
201003170000 METAR MROC 170000Z 09004KT 9999 FEW040 BKN250 26/14 A2995 RMK HZ LEVE ARND=
201003170100 METAR MROC 170100Z 13006KT CAVOK 24/15 A2998 RMK BKN250 HZ LEVE ARND FEWSC BECMG=
201003170200 METAR MROC 170200Z 11006KT CAVOK 23/16 A3001 RMK HZ LEVE ARND BKN250 BECMG=
201003170300 METAR MROC 170300Z 11007KT CAVOK 22/16 A3003 SCT250 BECMG=
201003170400 METAR MROC 170400Z 12007KT CAVOK 22/17 A3004 FEW120 BECMG=
201003170500 METAR MROC 170500Z 10007KT CAVOK 22/16 A3004 BECMG=
201003170600 METAR MROC 170600Z 08005KT CAVOK 21/16 A3002 BECMG=
201003170700 METAR MROC 170700Z 07003KT CAVOK 20/15 A3000 FEW250 BECMG=
201003170800 METAR MROC 170800Z 07004KT CAVOK 18/14 A2998 FEW250 BECMG=
201003170900 METAR MROC 170900Z 07006KT CAVOK 17/14 A2998 BECMG=
201003170956 METAR MROC 1710000Z 07008KT CAVOK 18/14 A2999 BECMG=
201003171000 METAR MROC 171000Z 07008KT CAVOK 18/14 A2999 BECMG=
201003171100 METAR MROC 171100Z 06005KT CAVOK 17/14 A3001 BECMG=
201003171200 METAR MROC 171200Z 08006KT CAVOK 19/14 A3002 HZ LGT W BKN250 BECMG=
201003171300 METAR MROC 171300Z 08007KT CAVOK 20/14 A3005 RMK BKN250 HZ LGT W BECMG=
201003171400 METAR MROC 171400Z 12009KT CAVOK 23/15 A3006 RMK BKN250 HZ QUAD W BECMG=
201003171500 METAR MROC 171500Z 11009KT CAVOK 25/14 A3007 RMK BKN250 HZ QUAD W BECMG=
201003171600 METAR MROC 171600Z 10009KT CAVOK 27/14 A3006 RMK BKN250 LGT HZ QUAD W BECMG=
201003171700 METAR MROC 171700Z 12009KT CAVOK 28/14 A3004 RMK BKN250 LGT HZ ARND BECMG=
201003171800 METAR MROC 171800Z 11010KT CAVOK 30/14 A3000 RMK BKN250 LGT HZ ARND BECMG=
201003171900 METAR MROC 171900Z 10009KT CAVOK 30/14 A2998 RMK FEW050 BKN250 VEL MAX VTO 14KT BECMG=
201003172000 METAR MROC 172000Z 10010KT 9999 FEW040 BKN250 30/15 A2996 RMK LGT HZ ARND BECMG=
201003172100 METAR MROC 172100Z 11011KT 080V150 9999 FEW040 BKN250 30/14 A2995 RMK HZ LEVE ARND BECMG=
201003172200 METAR MROC 172200Z 12008KT 9999 FEW040 BKN250 29/14 A2994 RMK HZ LEVE ARND BECMG=
201003172300 METAR MROC 172300Z 12007KT 9999 FEW040 BKN250 27/15 A2996 RMK HZ LEVE ARND BECMG=
201003180000 METAR MROC 180000Z 10006KT CAVOK 25/15 A2998 RMK HZ LEVE ARND FEWSC OVC250 BECMG=
201003180100 METAR MROC 180100Z 13007KT CAVOK 23/14 A3002 RMK HZ LEVE ARND FEWSC OVC250 BECMG=
201003180200 METAR MROC 180200Z 13004KT CAVOK 23/13 A3004 HZ LGT ARND OVC250=
201003180300 METAR MROC 180300Z 11010KT CAVOK 23/14 A3006 RMK SCT250 LTNG SSW BECMG=
201003180400 METAR MROC 180400Z 11010KT CAVOK 22/16 A3007 RMK SCT250 LTNG SSW BECMG=
201003180500 METAR MROC 180500Z 10005KT CAVOK 22/15 A3007 RMK SCT250 LTNG S SSW BECMG=
201003180600 METAR MROC 180600Z 06005KT CAVOK 21/13 A3006 RMK SCT250 BECMG=
201003180700 METAR MROC 180700Z 10007KT CAVOK 21/14 A3001 RMK SCT250 BECMG=
201003180800 METAR MROC 180800Z 11006KT CAVOK 21/13 A3000 BECMG=
201003180900 METAR MROC 180900Z 12010KT CAVOK 21/11 A2999 BECMG=
201003181000 METAR MROC 181000Z 11008KT CAVOK 21/12 A3001 BECMG=
201003181100 METAR MROC 181100Z 08004KT CAVOK 21/12 A3001 RMK FEW250 BECMG=
201003181200 METAR MROC 181200Z 12010KT CAVOK 21/12 A3003 RMK SCT250 VEL MAX VTO 14KT BECMG=
201003181300 METAR MROC 181300Z 12014KT CAVOK 23/13 A3003 RMK BKN250 HZ DST W BECMG=
201003181400 METAR MROC 181400Z 12014KT CAVOK 24/13 A3005 RMK BKN250 VEL MAX VTO 22KT CB DST S BECMG=
201003181500 METAR MROC 181500Z 10014KT CAVOK 26/14 A3006 RMK BKN250 VEL MAX VTO 21KT LGT HZ W CB DST S BECMG=
201003181600 METAR MROC 181600Z 09017G28KT CAVOK 26/13 A3007 RMK FEW060 BKN250 HZ QUAD W BECMG=
201003181700 METAR MROC 181700Z 08013KT CAVOK 28/14 A3006 RMK FEW060 FEW130 BKN250 VEL MAX VTO 19KT BECMG=
201003181800 METAR MROC 181800Z 09012KT CAVOK 28/13 A3004 RMK FEW050 FEW120 BKN250 BECMG=
201003181900 METAR MROC 181900Z 09012KT 070V130 CAVOK 30/13 A3001 RMK FEW050 SCT120 BKN250 LGT HZ ARND BECMG=
201003182000 METAR MROC 182000Z 09013KT 9999 FEW045 BKN250 28/13 A2998 RMK FEW0100 LGT HZ ARND BECMG=
201003182100 METAR MROC 182100Z 09012KT 9999 FEW045 BKN250 28/14 A2996 RMK HZ LEVE ARND BECMG=
201003182200 METAR MROC 182200Z 08012KT 9999 FEW045 SCT130 BKN250 27/14 A2996 RMK HZ LEVE ARND BECMG=
201003182300 METAR MROC 182300Z 10010KT 9999 FEW040 SCT130 BKN250 26/14 A2997 RMK HZ LEVE ARND BECMG=
201003190000 METAR MROC 190000Z 11007KT 9999 FEW040 SCT250 24/16 A2999 RMK HZ LEVE ARND FEW130 BECMG=
201003190100 METAR MROC 190100Z 11010KT CAVOK 23/16 A3000 RMK SCT250 FEW SC BECMG=
201003190200 METAR MROC 190200Z 10010KT CAVOK 23/16 A3002 RMK SCT250 FEW SC BECMG=
201003190300 METAR MROC 190300Z 11011KT CAVOK 22/17 A3004 RMK SCT250 FEW SC BECMG=
201003190400 METAR MROC 190400Z 11014G24KT CAVOK 23/16 A3004 RMK SCT250 BECMG=
201003190500 METAR MROC 190500Z 11012KT CAVOK 22/17 A3004 RMK SCT250 BECMG=
201003190600 METAR MROC 190600Z 07010KT CAVOK 22/17 A3002 RMK SCT250 BECMG=
201003190700 METAR MROC 190700Z 10013KT CAVOK 22/17 A3001 RMK SCT250 BECMG=
201003190800 METAR MROC 190800Z 13016KT CAVOK 22/17 A2998 RMK SCT250 BECMG=
201003190900 METAR MROC 190900Z 11010KT CAVOK 22/17 A2999 RMK SCT250 BECMG=
201003191000 METAR MROC 191000Z 12011KT CAVOK 21/17 A3000 RMK SCT250 BECMG=
201003191100 METAR MROC 191100Z 12016KT CAVOK 21/17 A3000 RMK SCT250 BECMG=
201003191200 METAR MROC 191200Z 07010KT 9999 FEW030 BKN120 22/17 A3002 BECMG=
201003191300 METAR MROC 191300Z 07011KT 9999 FEW025 BKN120 22/17 A3003 RMK DZ N NE E VL MZ VTO 19KT BECMG=
201003191400 METAR MROC 191400Z 11017G28KT 9999 FEW030 SCT120 24/28 A3003 RMK DZ N NE E BECMG=
201003191500 METAR MROC 191500Z 12020KT 9999 FEW030 26/17 A3004 RMK DZ N NE E BECMG=
201003191600 METAR MROC 191600Z 10013G27KT 9999 FEW030 27/17 A3003 RMK DZ N NE E BECMG=
201003191700 METAR MROC 191700Z 10015G25KT 9999 FEW030 28/17 A3001 RMK DZ N NE E 28/17 A3001 BECMG=
201003191800 METAR MROC 191800Z 10015G25KT 9999 FEW030 29/16 A3000 RMK DZ N NE E BECMG=
201003191900 METAR MROC 191900Z 12021KT 9999 FEW030 28/17 A2997 RMK DZ N NE E BECMG=
201003192000 METAR MROC 192000Z 09010G25KT 9999 SCT030 28/17 A2995 RMK DZ N NE E BECMG=
201003192100 METAR MROC 192100Z 12014KT 9999 SCT030 28/17 A2994 RMK DZ DST N NE BECMG=
201003192200 METAR MROC 192200Z 11012KT 9999 FEW030 SCT250 27/16 A2994 RMK DZ N NE BECMG=
201003192300 METAR MROC 192300Z 11014KT 9999 FEW030 SCT250 25/17 A2995 DZ DST N NE BECMG=
201003200000 METAR MROC 200000Z 09010KT 9999 FEW030 SCT250 24/17 A2996 RMK DZ DST N NE VEL MAX VTO 15KT BECMG=
201003200100 METAR MROC 200100Z 11009KT 9999 FEW030 22/17 A2997 BECMG=
201003200200 METAR MROC 200200Z 08007G17KT CAVOK 21/17 A2998 RMK FEW250 BECMG=
201003200300 METAR MROC 200300Z 11011KT CAVOK 21/17 A2999 RMK FEW250 BECMG=
201003200400 METAR MROC 200400Z 12013KT CAVOK 22/18 A3000 RMK VEL MAX VTO 20KT BECMG=
201003200500 METAR MROC 200500Z 11016KT CAVOK 22/18 A3000 RMK VEL MAX VTO 21KT BECMG=
201003200600 METAR MROC 200600Z 11010KT CAVOK 22/18 A2999 RMK VEL MAX VTO 19KT BECMG=
201003200700 METAR MROC 200700Z 07006KT CAVOK 21/18 A2998 BECMG=
201003200800 METAR MROC 200800Z 06007KT CAVOK 22/18 A2996 BECMG=
201003200900 METAR MROC 200900Z 11009KT 080V140 CAVOK 21/17 A2996 RMK VEL MAX VTO 15KT BECMG=
201003201000 METAR MROC 201000Z 10008KT CAVOK 22/17 A2996 RMK VEL MAX VTO 16KT BECMG=
201003201100 METAR MROC 201100Z 10008KT CAVOK 21/17 A2997 BECMG=
201003201200 METAR MROC 201200Z 11009KT CAVOK 22/17 A2998 RMK FEW250 PCPN DST NE/E VEL MAX VTO 15KT BECMG=
201003201300 METAR MROC 201300Z 11010KT CAVOK 23/17 A3000 RMK FEW300 VEL MAX VTO 15KT BECMG=
201003201400 METAR MROC 201400Z 11010KT CAVOK 25/17 A3002 FEW250 VEL MAX VTO 15KT BECMG=
201003201500 METAR MROC 201500Z 12012KT CAVOK 28/17 A3003 RMK FEW300 BECMG=
201003201600 METAR MROC 201600Z 14008KT CAVOK 29/17 A3003 RMK FEW300=
201003201700 METAR MROC 201700Z 11011KT 9999 FEW030 30/17 A3000 BECMG=
201003201800 METAR MROC 201800Z 14007KT 9999 FEW035 SCT080 30/17 A2999 RMK DZ DST N NE VEL MAX VTO 14KT BECMG=
201003201900 METAR MROC 201900Z 22003KT 9999 SCT035 SCT080 29/18 A2998 BECMG=
201003202000 METAR MROC 202000Z 25008KT 9999 FEW035 SCT070 28/20 A2996 BECMG=
201003202100 METAR MROC 202100Z 25009KT 9999 -RA BKN035 SCT090 27/20 A2995 BECMG 6000 RA=
201003202200 METAR MROC 202200Z 23003KT 9999 SCT035 SCT090 24/22 A2996 RMK RN DST SW BECMG=
201003202300 METAR MROC 202300Z 26002KT 9999 BKN035 SCT090 ///// A2998 BECMG=
201003210000 METAR MROC 210000Z 00000KT 9999 SCT035 SCT100 23/21 A2998 RMK FEW250 BECMG=
201003210100 METAR MROC 210100Z 00000KT 9999 SCT035 SCT250 23/21 A2999 BECMG=
201003210200 METAR MROC 210200Z 00000KT 9999 FEW035 SCT090 23/21 A3001 BECMG=
201003210300 METAR MROC 210300Z 00000KT 9999 FEW035 SCT100 22/20 A3002 BECMG=
201003210400 METAR MROC 210400Z 08005KT 9999 FEW035 SCT100 23/19 A3003 BECMG=
201003210500 METAR MROC 210500Z 11007KT 9999 FEW035 SCT100 22/19 A3003 BECMG=
201003210600 METAR MROC 210600Z 08007KT 9999 FEW035 22/19 A3002 RMK TRACE 100 BECMG=
201003210700 METAR MROC 210700Z 08003KT 9999 FEW035 22/19 A2999 RMK TRACE AC BECMG=
201003210800 METAR MROC 210800Z 08006KT 9999 FEW035 21/18 A2998 BECMG=
201003210900 METAR MROC 210900Z 00000KT 9999 FEW035 22/10 A2998 BECMG=
201003211000 METAR MROC 211000Z 07009KT 9999 FEW035 22/19 A2998 BECMG=
201003211100 METAR MROC 211100Z 09005KT CAVOK 21/18 A2999 RMK SCT120 BECMG=
201003211200 METAR MROC 211200Z 08004KT CAVOK 22/18 A2999 RMK TRACE SC AC BKN250 BECMG=
201003211300 METAR MROC 211300Z 11007KT CAVOK 24/19 A3001 RMK FEW100 SCT250 BECMG=
201003211400 METAR MROC 211400Z 11008KT CAVOK 26/18 A3002 RMK BKN250 BECMG=
201003211500 METAR MROC 211500Z 11010G20KT CAVOK 28/18 A3002 RMK BKN250 BECMG=
201003211600 METAR MROC 211600Z 12012G22KT CAVOK 29/18 A3002 RMK BKN250 BECMG=
201003211700 METAR MROC 211700Z 13011KT CAVOK 30/18 A3000 RMK SCT250 BECMG 24006KT=
201003211800 METAR MROC 211800Z 12010KT 9999 FEW035 BKN250 30/18 A2997 BECMG=
201003211900 METAR MROC 211900Z 10008KT 9999 SCT035 SCT250 31/18 A2995 BECMG 24006KT=
201003212000 METAR MROC 212000Z 13007KT 9999 SCT035 BKN250 30/18 A2993 BECMG 24006KT=
201003212100 METAR MROC 212100Z 24007KT 9999 SCT030 BKN250 30/18 A2991 BECMG=
201003212200 METAR MROC 212200Z 14007KT 9999 SCT030 BKN250 28/18 A2991 BECMG=
201003212300 METAR MROC 212300Z 15005KT 9999 SCT030 BKN250 26/19 A2994 RMK RN NE BECMG=
201003220000 METAR MROC 220000Z 12008KT 9999 BKN030 25/19 A2996 RMK RN NE BECMG=
201003220100 METAR MROC 220100Z 12006KT 080V140 9999 BKN030 24/19 A2999 RERA BECMG=
201003220200 METAR MROC 220200Z 00000KT 9999 BKN030 23/20 A3001 BECMG=
201003220300 METAR MROC 220300Z 00000KT 9999 SCT030 SCT120 23/20 A3004 BECMG=
201003220400 METAR MROC 220400Z 00000KT 9999 -RA SCT030 BKN070 24/19 A3005 RMK LTNG DST N BECMG=
201003220500 METAR MROC 220500Z 00000KT 9999 -RA FEW030 BKN100 23/21 A3005 BECMG=
201003220600 METAR MROC 220600Z 00000KT 9999 FEW035 SCT100 BKN140 22/20 A3003 RERA BECMG=
201003220700 METAR MROC 220700Z 00000KT CAVOK 22/20 A3001 RMK FEW100 BKN140 BECMG=
201003220800 METAR MROC 220800Z 07008KT CAVOK 22/20 A2998 RMK BKN140 BECMG=
201003220900 METAR MROC 220900Z 10007KT CAVOK 23/19 A2997 RMK BKN120 BECMG=
201003221000 METAR MROC 221000Z 08007KT CAVOK 22/20 A2997 RMK BKN140 BECMG=
201003221100 METAR MROC 221100Z 11011KT CAVOK 22/19 A2997 RMK BKN140 BECMG=
201003221200 METAR MROC 221200Z 10012KT 9999 FEW035 SCT120 BKN250 23/19 A2998 RMK CB DST ENE PCPN N NE VEL MAX VTO 19KT BECMG=
201003221300 METAR MROC 221300Z 11014KT 9999 FEW035 SCT120 BKN250 23/19 A2999 RMK RN N NE BECMG=
201003221400 METAR MROC 221400Z 11011KT 9999 FEW030 BKN250 26/19 A3000 RMK RN N NE BECMG=
201003221500 METAR MROC 221500Z 10013KT 9999 FEW030 BKN250 26/19 A3002 RMK RN N NE BECMG=
201003221600 METAR MROC 221600Z 11014KT 9999 FEW030 BKN250 28/19 A3002 RMK RN N NE BECMG=
201003221700 METAR MROC 221700Z 11013KT 9999 FEW030 BKN250 29/18 A3001 RMK RN N NE BECMG=
201003221800 METAR MROC 221800Z 11010KT 080V140 9999 FEW030 SCT130 BKN250 29/18 A2999 RMK RN N NE BECMG=
201003221900 METAR MROC 221900Z 11011KT 9999 FEW030 BKN250 31/18 A2996 RMK RN N NE BECMG=
201003222000 METAR MROC 222000Z 09012KT 9999 SCT030 BKN250 29/18 A2994 RMK RN N NE BECMG=
201003222100 METAR MROC 222100Z 10009KT 9999 FEW030 BKN050 27/18 A2994 RMK DZ DST=
201003222200 METAR MROC 222200Z 11008KT 9999 -RA SCT035 BKN110 27/18 A2993 RMK RN DST NE/E BECMG=
201003222300 METAR MROC 222300Z 08009KT 9999 BKN035 26/18 A2995 RMK FEW110 RN DST N/NE BECMG=
201003230000 METAR MROC 230000Z 10005KT 9999 FEW030 SCT090 BKN250 25/18 A2997 RMK RN QUAD N CB DST S BECMG=
201003230100 METAR MROC 230100Z 10006KT 9999 RA FEW020 OVC030 23/20 A3000 BECMG=
201003230200 METAR MROC 230200Z 04002KT 9999 -RA FEW020 BKN040 22/21 A3001 RMK LTLG DST N BECMG=
201003230230 METAR MROC 230230Z 11004KT 9999 -DZ FEW020 BKN045 22/20 A3000 RERA BECMG=
201003230300 METAR MROC 230300Z 11010KT 9999 -DZ SCT030 SCT090 22/20 A3000 RMK LTNG RN DST NE BECMG=
201003230400 METAR MROC 230400Z 11009KT 9999 -DZ FEW030 SCT090 22/20 A2999 RMK RN DST NE E BECMG 7000 RA=
201003230500 METAR MROC 230500Z 09010G20KT 9999 -DZ BKN090 23/20 A2998 RMK RN DST NE E BECMG=
201003230600 METAR MROC 230600Z 11010G20KT 9999 -RA FEW035 BKN090 23/19 A2998 RMK=
201003230700 METAR MROC 230700Z 12013KT CAVOK 23/19 A2993 RERA RMK BKN100 BECMG=
201003230800 METAR MROC 230800Z 11013KT CAVOK 23/19 A2990 RMK BKN100 BECMG=
201003230900 METAR MROC 230900Z 12011KT CAVOK 23/19 A2991 RMK BKN100 BECMG=
201003231000 METAR MROC 231000Z 11015G25KT CAVOK 23/18 A2991 RMK SCT100 BECMG=
201003231100 METAR MROC 231100Z 12017KT CAVOK 22/18 A2993 RMK SCT100 BECMG=
201003231200 METAR MROC 231200Z 11014G24KT 9999 FEW030 22/17 A2994 RMK FEW100 FEW250 RN DST N NE E BECMG=
201003231300 METAR MROC 231300Z 10014KT 9999 FEW030 SCT250 23/17 A2997 RMK FEW100 VEL MAX VTO 19KT RN DST QUAD N BECMG=
201003231400 METAR MROC 231400Z 09017G31KT 9999 FEW030 BKN250 25/17 A2998 RMK FEW100 RN DST N/NE BECMG=
201003231500 METAR MROC 231500Z 09016KT 9999 FEW030 SCT250 24/16 A3002 RMK FEW110 RN DST N/NE BECMG=
201003231600 METAR MROC 231600Z 07020G30KT 9999 FEW040 SCT250 25/16 A3001 RMK FEW110 RN DST N BECMG=
201003231700 METAR MROC 231700Z 08016KT 9999 FEW040 SCT250 27/16 A3000 RMK VEL MAX VTO 24KT DZ DST N BECMG=
201003231800 METAR MROC 231800Z 08017G27KT 9999 FEW045 SCT250 27/16 A2998 RMK FEW110 DZ DST N BECMG=
201003231900 METAR MROC 231900Z 08014KT 9999 SCT040 BKN250 26/17 A2996 RMK RN DST N/NE BECMG=
201003232000 METAR MROC 232000Z 08012KT 9999 SCT040 SCT250 28/17 A2994 RMK FEW100 VEL MAX VTO 17KT DZ DST N/NE BECMG=
201003232100 METAR MROC 232100Z 08013KT 9999 SCT030 SCT250 26/16 A2992 RMK DZ DST N NE E BECMG=
201003232200 METAR MROC 232200Z 07020KT 9999 FEW020 SCT250 25/18 A2990 RMK DZ DST N NE E BECMG=
201003232300 METAR MROC 232300Z 11012KT 9999 FEW020 BKN250 24/17 A2991 RMK DZ DST N NE E BECMG=
201003240000 METAR MROC 240000Z 07016KT 9999 FEW020 BKN250 23/17 A2992 RMK DZ DST N NE E BECMG=
201003240100 METAR MROC 240100Z 08016KT 9999 FEW025 SCT250 23/17 A2993 BECMG=
201003240200 METAR MROC 240200Z 08012KT 9999 FEW025 23/15 A2995 BECMG=
201003240300 METAR MROC 240300Z 09010KT CAVOK 23/14 A2998 RMK SCT250 FEW SC BECMG=
201003240400 METAR MROC 240400Z 08018KT CAVOK 23/14 A2998 RMK SCT250 BECMG=
201003240500 METAR MROC 240500Z 09015G28KT CAVOK 22/14 A2997 RMK SCT250 MOSIG=
201003240600 METAR MROC 240600Z 10012G25KT CAVOK 21/14 A2996 RMK FEW250 MOSIG=
201003240700 METAR MROC 240700Z 10012KT CAVOK 21/14 A2995 RMK FEW250 MOSIG=
201003240800 METAR MROC 240800Z 11010KT CAVOK 20/15 A2995 RMK FEW250 MOSIG=
201003240900 METAR MROC 240900Z 08008KT CAVOK 19/14 A2993 RMK FEW250 MOSIG=
201003241000 METAR MROC 241000Z 11012KT CAVOK 20/14 A2994 RMK FEW250 BECMG=
201003241100 METAR MROC 241100Z 11012KT CAVOK 20/14 A2995 RMK FEW250 MOSIG=
201003241200 METAR MROC 241200Z 10006KT CAVOK 19/13 A2996 RMK SCT250 BECMG=
201003241300 METAR MROC 241300Z 10014KT CAVOK 22/13 A2998 RMK CB DST S SCT250 BECMG=
201003241400 METAR MROC 241400Z 09014KT CAVOK 25/12 A2999 RMK SCT250 BECMG=
201003241500 METAR MROC 241500Z 10010KT CAVOK 28/11 A2999 RMK SCT250 BECMG=
201003241600 METAR MROC 241600Z 10014KT CAVOK 29/14 A2999 BECMG=
201003241700 METAR MROC 241700Z 08013KT CAVOK 30/15 A2996 RMK FEW250 BECMG=
201003241800 METAR MROC 241800Z 12013KT 9999 FEW040 SCT250 30/15 A2995 BECMG=
201003241900 METAR MROC 241900Z 13011KT 9999 FEW040 SCT250 29/16 A2992 BECMG=
201003242000 METAR MROC 242000Z 11015KT 9999 FEW040 SCT250 29/16 A2990 BECMG=
201003242100 METAR MROC 242100Z 12007KT 9999 FEW040 30/16 A2989 RMK FEW300 VEL MAX VTO 14KT BECMG=
201003242200 METAR MROC 242200Z 13009KT 9999 FEW040 28/16 A2989 RMK FEW300 TCU DST S VEL MAX VTO 15KT BECMG=
201003242300 METAR MROC 242300Z 11009KT 9999 FEW040 26/17 A2990 RMK HZ W QUAD BECMG=
201003250000 METAR MROC 250000Z 13010KT 9999 FEW035 23/17 A2993 RMK CB DST S BECMG=
201003250100 METAR MROC 250100Z 08007KT 9999 FEW035 22/17 A2997 BECMG=
201003250200 METAR MROC 250200Z 09006KT 9999 FEW035 22/17 A2999 BECMG=
201003250300 METAR MROC 250300Z 11007KT 9999 FEW030 SCT110 22/17 A3000 BECMG=
201003250400 METAR MROC 250400Z 10002KT 9999 FEW030 BKN100 22/17 A3002 BECMG=
201003250500 METAR MROC 250500Z 09007KT 9999 FEW030 BKN110 22/17 A3001 BECMG=
201003250600 METAR MROC 250600Z 08008KT CAVOK 21/17 A2999 RMK FEW110 BECMG=
201003250700 METAR MROC 250700Z 09007KT CAVOK 22/17 A2997 RMK BKN110 BECMG=
201003250800 METAR MROC 250800Z 07007KT CAVOK 21/16 A2997 RMK BKN110 BECMG=
201003250900 METAR MROC 250900Z 09005KT CAVOK 21/16 A2996 RMK BKN100 BECMG=
201003251000 METAR MROC 251000Z 10003KT CAVOK 22/16 A2997 RMK BKN100 BECMG=
201003251100 METAR MROC 251100Z 09014KT CAVOK 21/16 A2999 FEWAC/CI BECMG=
201003251200 METAR MROC 251200Z 08005KT CAVOK 21/17 A3000 RMK FEW250 BECMG=
201003251300 METAR MROC 251300Z 09008KT CAVOK 23/17 A3002 BECMG=
201003251400 METAR MROC 251400Z 09009KT CAVOK 25/17 A3003 BECMG=
201003251500 METAR MROC 251500Z 11010KT 9999 FEW040 27/16 A3005 BECMG=
201003251600 METAR MROC 251600Z 10009KT 9999 FEW040 28/16 A3005 BECMG=
201003251700 METAR MROC 251700Z 14007KT 9999 FEW040 31/15 A3003 RMK FEW080 BECMG=
201003251800 METAR MROC 251800Z 22004KT 9999 SCT040 30/16 A3000 BECMG=
201003251900 METAR MROC 251900Z 25006KT 9999 SCT040 30/17 A2997 BECMG=
201003252000 METAR MROC 252000Z 25012KT 9999 SCT040 31/18 A2995 BECMG=
201003252100 METAR MROC 252100Z 26011KT 9999 SCT035 30/18 A2994 BECMG=
201003252200 METAR MROC 252200Z 25010KT 9999 SCT035 29/18 A2993 BECMG=
201003252300 METAR MROC 252300Z 25008KT 9999 SCT035 28/18 A2995 BECMG=
201003260000 METAR MROC 260000Z 00000KT 9999 SCT045 SCT250 26/18 A2997 BECMG=
201003260100 METAR MROC 260100Z 00000KT 9999 FEW040 SCT110 25/18 A2999 BECMG=
201003260200 METAR MROC 260200Z 00000KT 9999 SCT035 24/18 A3001 BECMG=
201003260300 METAR MROC 260300Z 00000KT 9999 FEW035 22/18 A3003 BECMG=
201003260400 METAR MROC 260400Z 00000KT 9999 FEW035 23/18 A3003 BECMG=
201003260500 METAR MROC 260500Z 00000KT 9999 FEW035 22/18 A3002 BECMG=
201003260600 METAR MROC 260600Z 00000KT 9999 FEW025 22/16 A3006 BECMG=
201003260700 METAR MROC 260700Z 00000KT 9999 FEW035 21/19 A3008 BECMG=
201003260800 METAR MROC 260800Z 00000KT CAVOK 21/18 A2996 BECMG=
201003260900 METAR MROC 260900Z 00000KT CAVOK 20/17 A2995 BECMG=
201003261000 METAR MROC 261000Z 04006KT CAVOK 20/16 A2997 BECMG=
201003261100 METAR MROC 261100Z 00000KT CAVOK 20/17 A2998 RMK SCT120 BECMG=
201003261200 METAR MROC 261200Z 07006KT CAVOK 19/16 A3000 BECMG=
201003261300 METAR MROC 261300Z 11009KT CAVOK 23/17 A3002 RMK FEW100 BECMG=
201003261400 METAR MROC 261400Z 11007KT 9999 FEW045 26/16 A3005 RMK HZ LEVE ARND BECMG=
201003261500 METAR MROC 261500Z 13011KT 9999 FEW045 27/15 A3004 RMK HZ LEVE ARND BECMG=
201003261600 METAR MROC 261600Z 13012KT 9999 FEW045 29/15 A3002 RMK HZ LEVE ARND BECMG=
201003261700 METAR MROC 261700Z 12011KT 9999 FEW045 30/15 A2999 RMK HZ LEVE ARN BECMG 24007KT=
201003261800 METAR MROC 261800Z 10012KT 9999 SCT045 31/15 A2996 RMK HZ LEVE ARND BECMG 24007KT=
201003261900 METAR MROC 261900Z 11008KT 9999 SCT045 31/15 A2993 RMK HZ LEVE ARND BECMG 24007KT=
201003262000 METAR MROC 262000Z 11011KT 9999 BKN045 30/16 A2992 RMK HZ LEVE ARND BECMG=
201003262100 METAR MROC 262100Z 12011KT 9999 FEW025TCU SCT040 30/16 A2991 RMK HZ SW BECMG=
201003262200 METAR MROC 262200Z 13010KT 9999 FEW020CB SCT035 28/16 A2992 RMK RN DST SSW SW W BECMG=
201003262300 METAR MROC 262300Z 13009KT 9999 FEW030 SCT100 26/17 A2993 RMK RN HZ DST SW BECMG=
201003270000 METAR MROC 270000Z 00000KT 9999 FEW030 SCT100 25/20 A2996 RMK HZ DST SW BECMG=
201003270100 METAR MROC 270100Z 11010KT 9999 FEW035 23/17 A2998 BECMG=
201003270200 METAR MROC 270200Z 10010KT CAVOK 23/16 A2999 BECMG=
201003270300 METAR MROC 270300Z 10007KT CAVOK 23/16 A3000 RMK FEW100 BECMG=
201003270400 METAR MROC 270400Z 12009KT CAVOK 22/16 A3001 RMK FEW100 BECMG=
201003270500 METAR MROC 270500Z 12009KT CAVOK 22/16 A3001 RMK VEL MAX VTO 14KT BECMG=
201003270600 METAR MROC 270600Z 11013KT CAVOK 22/16 A2999 BECMG=
201003270700 METAR MROC 270700Z 12008KT CAVOK 22/16 A2997 BECMG=
201003270800 METAR MROC 270800Z 12010KT CAVOK 22/16 A2995 BECMG=
201003270900 METAR MROC 270900Z 11006KT CAVOK 22/16 A2995 BECMG=
201003271000 METAR MROC 271000Z 10005KT CAVOK 21/18 A2996 BECMG=
201003271100 METAR MROC 271100Z 09008KT CAVOK 21/16 A2998 BECMG=
201003271200 METAR MROC 271200Z 11010KT CAVOK 21/16 A2999 RMK FEW300 BECMG=
201003271300 METAR MROC 271300Z 13010KT CAVOK 23/16 A3002 RMK FEW300 BECMG=
201003271400 METAR MROC 271400Z 12009KT CAVOK 25/16 A3003 RMK FEW300 BECMG=
201003271500 METAR MROC 271500Z 11010KT 9999 FEW040 SCT300 27/16 A3004 BECMG=
201003271600 METAR MROC 271600Z 10012KT 9999 FEW040 SCT300 28/14 A3004 BECMG=
201003271700 METAR MROC 271700Z 09011KT 9999 FEW040 29/14 A3001 BECMG=
201003271800 METAR MROC 271800Z 07009KT 040V110 9999 FEW040 30/14 A2998 BECMG=
201003271900 METAR MROC 271900Z 08011KT 9999 FEW040 31/13 A2994 BECMG=
201003272000 METAR MROC 272000Z 12011KT 080V140 9999 FEW040 31/13 A2992 BECMG=
201003272100 METAR MROC 272100Z 08012KT 9999 FEW040 32/13 A2989 RMK VEL MAX VTO 17KT BECMG=
201003272200 METAR MROC 272200Z 09009KT 9999 FEW040 30/13 A2989 BECMG=
201003272300 METAR MROC 272300Z 08009KT 070V130 9999 FEW035 28/15 A2991 RMK VEL MAX VTO 17KT BECMG=
201003280000 METAR MROC 280000Z 10005KT 9999 FEW030 26/15 A2993 BECMG=
201003280100 METAR MROC 280100Z 11004KT 9999 FEW025 24/16 A2996 BECMG=
201003280200 METAR MROC 280200Z 10009KT 9999 FEW025 23/16 A2998 BECMG=
201003280300 METAR MROC 280300Z 08012KT CAVOK 23/15 A3000 BECMG=
201003280400 METAR MROC 280400Z 08010KT CAVOK 23/14 A3002 BECMG=
201003280500 METAR MROC 280500Z 08011KT CAVOK 23/14 A3000 BECMG=
201003280600 METAR MROC 280600Z 11010KT CAVOK 22/15 A2999 BECMG=
201003280700 METAR MROC NIL=
201003280800 METAR MROC 280800Z 11009KT CAVOK 21/14 A2995 BECMG=
201003280900 METAR MROC 280900Z 11011KT CAVOK 21/14 A2994 BECMG=
201003281000 METAR MROC 281000Z 12010KT CAVOK 21/13 A2994 BECMG=
201003281100 METAR MROC 281100Z 10005KT CAVOK 20/13 A2995 BECMG=
201003281200 METAR MROC 281200Z 07007KT CAVOK 20/12 A2997 RMK FEW250 BECMG=
201003281300 METAR MROC 281300Z 09007KT 060V140 CAVOK 23/13 A2999 RMK FEW250 HZ QUAD W BECMG=
201003281400 METAR MROC 281400Z 11008KT CAVOK 25/14 A3000 RMK LGT HZ QUAD W BECMG=
201003281500 METAR MROC 281500Z 13011KT CAVOK 27/12 A3000 BECMG=
201003281600 METAR MROC 281600Z 10009KT CAVOK 28/13 A2999 RMK VEL MAX VTO 17KT BECMG=
201003281700 METAR MROC 281700Z 12006KT 100V180 CAVOK 30/12 A2997 BECMG=
201003281800 METAR MROC 281800Z 10002KT 9999 FEW040 30/13 A2994 BECMG=
201003281900 METAR MROC 281900Z 21008KT 9999 SCT040 31/15 A2991 BECMG=
201003282000 METAR MROC 282000Z 25012KT 9999 FEW030TCU SCT040 31/19 A2988 RMK VEL MAX VTO 17KT BECMG=
201003282100 METAR MROC 282100Z 24010KT 9999 FEW030TCU SCT040 30/17 A2986 RMK GUST 16KT=
201003282200 METAR MROC 282200Z 21009KT 9999 FEW030TCU SCT040 27/21 A2986 RMK GUST 14KT BECMG=
201003282300 METAR MROC 282300Z 23006KT 9999 SCT030 26/20 A2988 BECMG=
201003290000 METAR MROC 290000Z 00000KT 9999 SCT030 25/17 A2989 RMK HZ ARND BECMG=
201003290100 METAR MROC 290100Z 00000KT 9999 SCT030 24/17 A2992 RMK HZ ARND BECMG=
201003290200 METAR MROC 290200Z 00000KT 9999 SCT030 23/18 A2994 BECMG=
201003290300 METAR MROC 290300Z 09006KT 9999 FEW040 22/17 A2996 BECMG=
201003290400 METAR MROC 290400Z 08005KT 9999 FEW040 22/18 A2997 BECMG=
201003290500 METAR MROC 290500Z 09009KT 9999 FEW040 22/17 A2997 BECMG=
201003290600 METAR MROC 290600Z 10006KT 9999 FEW040 21/15 A2995 BECMG=
201003290700 METAR MROC 290700Z 12016KT 9999 FEW040 22/15 A2992 BECMG=
201003290800 METAR MROC 290800Z 07008KT 9999 FEW040 20/15 A2991 BECMG=
201003290900 METAR MROC 290900Z 09010KT 9999 FEW040 20/15 A2990 BECMG=
201003291000 METAR MROC 291000Z 07010KT CAVOK 20/15 A2991 BECMG=
201003291100 METAR MROC 291100Z 08013KT CAVOK 20/14 A2993 BECMG=
201003291200 METAR MROC 291200Z 07010KT 9999 SKC 20/14 A2994 BECMG=
201003291300 METAR MROC 291300Z 13008KT 9999 SKC 22/14 A2996 BECMG=
201003291400 METAR MROC 291400Z 12010KT 9999 SKC 25/14 A2997 BECMG=
201003291500 METAR MROC 291500Z 10013KT 9999 SKC 28/18 A2997 BECMG=
201003291600 METAR MROC 291600Z 10015KT CAVOK 30/14 A2997 BECMG=
201003291700 METAR MROC 291700Z 10010KT CAVOK 31/15 A2995 BECMG=
201003291800 METAR MROC 291800Z 10010KT 9999 FEW040 31/15 A2993 BECMG=
201003291900 METAR MROC 291900Z 10017KT 9999 SCT030TCU 31/15 A2991 BECMG=
201003292000 METAR MROC 292000Z 09010KT 9999 SCT030 TCU 31/14 A2988 BECMG=
201003292100 METAR MROC 292100Z 12009KT 9999 SCT030 31/14 A2986 BECMG=
201003292200 METAR MROC 292200Z 12008KT 9999 SCT025 30/15 A2986 RMK LGT HZ W QUAD BECMG=
201003292300 METAR MROC 292300Z 06010KT 9999 SCT025 SCT045 27/17 A2989 RMK TCU DST S LGT HZ ARND BECMG=
201003300000 METAR MROC 300000Z 12007KT 9999 FEW025 SCT070 25/16 A2991 RMK LGT HZ ARND BECMG=
201003300100 METAR MROC 300100Z 11007KT 9999 FEW030 SCT080 24/17 A2995=
201003300200 METAR MROC 300200Z 11008KT 9999 FEW030 BKN080 23/17 A2999 BECMG=
201003300300 METAR MROC 300300Z 11008KT 9999 FEW030 SCT080 23/16 A3000 BECMG=
201003300400 METAR MROC 300400Z 12011KT 9999 FEW030 22/16 A3000 RMK VEL MAX VTO 19KT BECMG=
201003300500 METAR MROC 300500Z 11011KT 9999 FEW030 23/15 A3000 RMK FEW250 BECMG=
201003300600 METAR MROC 300600Z 11011G21KT 9999 FEW030 23/15 A2998 BECMG=
201003300700 METAR MROC 300700Z 11011KT CAVOK 23/14 A2997 RMK FEW120 FEW250 VEL MAX VTO 16KT BECMG=
201003300800 METAR MROC NIL=
201003300900 METAR MROC NIL=
201003301000 METAR MROC 301000Z 12010KT CAVOK 22/15 A2995 BKN250 BECMG=
201003301100 METAR MROC 301100Z 10013KT CAVOK 21/15 A2996 BKN250 BECMG=
201003301200 METAR MROC 301200Z 10004KT CAVOK 21/14 A2998 FEW120 BKN250 BECMG=
201003301300 METAR MROC 301300Z 13015KT CAVOK 22/14 A3000 RMK BKN250 BECMG=
201003301400 METAR MROC 301400Z 10014KT CAVOK 24/12 A3002 RMK BKN250 BECMG=
201003301500 METAR MROC 301500Z 10015KT CAVOK 26/12 A3003 RMK BKN250 BECMG=
201003301600 METAR MROC 301600Z 09017KT CAVOK 27/12 A3004 RMK BKN250 BECMG=
201003301700 METAR MROC 301700Z 09016KT CAVOK 27/11 A3004 RMK BKN250 VEL MAX VTO 21KT BECMG=
201003301800 METAR MROC 301800Z 08012KT CAVOK 29/12 A3002 RMK BKN250 BECMG=
201003301900 METAR MROC 301900Z 08013KT CAVOK 29/12 A2999 RMK BKN250 BECMG=
201003302000 METAR MROC 302000Z 08015KT CAVOK 29/12 A2996 RMK BKN250 BECMG=
201003302100 METAR MROC 302100Z 09011KT CAVOK 29/12 A2995 RMK BKN250 BECMG=
201003302200 METAR MROC 302200Z 11010KT 9999 FEW045 28/13 A2995 RMK FEW250 BECMG=
201003302300 METAR MROC 302300Z 10010KT 9999 FEW045 26/15 A2997 RMK FEW250 BECMG=
201003310000 METAR MROC 310000Z 12010KT 9999 FEW045 SCT250 24/16 A2999 BECMG=
201003310100 METAR MROC 310100Z 11010KT CAVOK 23/16 A3001 RMK SCT250 BECMG=
201003310200 METAR MROC 310200Z 11010KT CAVOK 22/17 A3003 RMK BKN250 BECMG=
201003310300 METAR MROC 310300Z 12012KT CAVOK 22/17 A3004 RMK BKN 250 BECMG=
201003310400 METAR MROC 310400Z 12012KT CAVOK 22/16 A3005 RMK FEW250 BECMG=
201003310500 METAR MROC 310500Z 11012KT 9999 FEW040 21/15 A3005 BECMG=
201003310600 METAR MROC 310600Z 13013KT 9999 FEW040 21/15 A3005 BECMG=
201003310700 METAR MROC 310700Z 13020KT 9999 FEW040 21/15 A3003 BECMG=
201003310800 METAR MROC 310800Z 11006KT 9999 FEW040 21/15 A3001 BECMG=
201003310900 METAR MROC 310900Z 11012KT 9999 FEW040 21/15 A2999 BECMG=
201003311000 METAR MROC 311000Z 12015KT 9999 FEW040 21/15 A2999 BECMG=
201003311100 METAR MROC 311100Z 08010KT 9999 FEW040 SCT130 21/16 A3001 BECMG=
201003311200 METAR MROC 311200Z 07010KT 9999 FEW040 BKN130 21/16 A3002 BECMG=
201003311300 METAR MROC 311300Z 08007KT CAVOK 23/16 A3003 RMK BKN250 BECMG=
201003311400 METAR MROC 311400Z 11012KT CAVOK 25/17 A3003 RMK SCT250 BECMG=
201003311500 METAR MROC 311500Z 11012KT CAVOK 27/18 A3003 RMK SCT250 BECMG=
201003311600 METAR MROC 311600Z 11013G25KT CAVOK 28/17 A3003 RMK SCT250 BECMG=
201003311700 METAR MROC 311700Z 12017KT 9999 FEW045 SCT250 29/18 A3002 BECMG=
201003311800 METAR MROC 311800Z 11016KT 9999 FEW045 BKN250 29/17 A3001 BECMG=
201003311900 METAR MROC 311900Z 11013KT 9999 FEW040 BKN250 30/18 A2999 BECMG=
201003312000 METAR MROC 312000Z 12015KT 9999 FEW040 BKN250 28/18 A2999 BECMG=
201003312100 METAR MROC 312100Z 13014G24KT 9999 SCT040 BKN250 27/18 A2997 RMK FEW100 DZ DST N/NE BECMG=
201003312200 METAR MROC 312200Z 12010KT 9999 SCT040 BKN250 26/18 A2997 RMK VEL MAX VTO 18KT DZ DST N/NE BECMG=
201003312300 METAR MROC 312300Z 12010G20KT 9999 SCT040 BKN250 25/18 A2997 RMK DZ DST NE/SE BECMG=
201004010000 METAR MROC 010000Z 11011G21KT 9999 SCT040 BKN250 23/17 A2999 RMK DZ DST NE/N BECMG=
201004010100 METAR MROC 010100Z 11010KT 9999 FEW030 BKN250 22/18 A3001 RMK VEL MAX VTO 19KT BECMG=
201004010200 METAR MROC 010200Z 09012KT 9999 FEW030 BKN250 22/16 A3002 RMK VEL MAX VTO 16KT BECMG=
201004010300 METAR MROC 010300Z 10011KT CAVOK 22/15 A3003 RMK BKN250 BECMG=
201004010400 METAR MROC 010400Z 06010KT CAVOK 22/14 A3004 RMK BKN250=
201004010500 METAR MROC 010500Z 09012KT CAVOK 22/15 A3004 RMK BKN250 BECMG=
201004010600 METAR MROC 010600Z 08006KT CAVOK 22/16 A3003 RMK BKN250 BECMG=
201004010700 METAR MROC 010700Z 08006KT CAVOK 22/14 A3001 RMK BKN250 BECMG=
201004010800 METAR MROC 010800Z 07005KT CAVOK 22/15 A2999 RMK BKN250 BECMG=
201004010900 METAR MROC 010900Z 09003KT 9999 FEW030 BKN250 21/15 A2998 BECMG=
201004011000 METAR MROC 011000Z 12008KT 9999 FEW030 BKN250 21/15 A2998 BECMG=
201004011100 METAR MROC 011100Z 13012KT 9999 FEW030 BKN250 22/14 A2998 BECMG=
201004011200 METAR MROC 011200Z 13012KT CAVOK 21/15 A3000 RMK BKN120 BECMG=
201004011300 METAR MROC 011300Z 12013KT CAVOK 23/15 A3005 RMK FEW120 FEW250 BECMG=
201004011400 METAR MROC 011400Z 12013KT CAVOK 25/15 A3004 RMK FEW250 BECMG=
201004011500 METAR MROC 011500Z 12015KT CAVOK 26/14 A3004 RMK SCT250 BECMG=
201004011600 METAR MROC 011600Z 12014KT CAVOK 28/13 A3004 RMK SCT250 BECMG=
201004011700 METAR MROC 011700Z 10012KT 9999 FEW045 SCT260 30/14 A3002 BECMG=
201004011800 METAR MROC 011800Z 11013KT 9999 FEW045 SCT260 30/15 A2999 BECMG=
201004011900 METAR MROC 011900Z 13012KT 9999 SCT040 SCT080 29/16 A2996 BECMG=
201004012000 METAR MROC 012000Z 11012KT 9999 SCT040 SCT080 29/16 A2993 RMK FEW250 BECMG=
201004012100 METAR MROC 012100Z 11012KT 9999 FEW030 SCT090 29/17 A2991 RMK FEW250 VEL MAX VTO 17KT TCU DST SE BECMG=
201004012200 METAR MROC 012200Z 12011KT 9999 FEW040 SCT090 BKN250 27/18 A2992 RMK VEL MAX VTO 18KT TCU DST SW BECMG=
201004012300 METAR MROC 012300Z 12012KT 080V140 9999 FEW045 SCT080 BKN250 26/18 A2993 RMK VEL MAX VTO 19KT BECMG=
201004020000 METAR MROC 020000Z 11010KT 080V140 9999 SCT040 BKN250 25/18 A2994 RMK VEL MAX VTO 16KT DZ DST N/NE/E BECMG=
201004020100 METAR MROC 020100Z 11008KT 9999 FEW040 SCT070 24/18 A2997 RMK FEW250 BECMG=
201004020200 METAR MROC 020200Z 11007KT 9999 FEW030 23/17 A2999 RMK FEW060 BECMG=
201004020300 METAR MROC 020300Z 08003KT CAVOK 22/17 A2999 RMK SCT250 LTNG DST S BECMG=
201004020400 METAR MROC 020400Z 11007KT CAVOK 22/18 A3000 RMK FEW250 LTNG DST S BECMG=
201004020500 METAR MROC 020500Z 06005KT CAVOK 22/18 A3000 RMK FEW120 LTNG DST S BECMG=
201004020600 METAR MROC 020600Z 11008KT CAVOK 22/17 A2998 RMK SCT090 BECMG=
201004020700 METAR MROC 020700Z 11009KT 9999 FEW035 SCT090 22/17 A2994 BECMG=
201004020800 METAR MROC 020800Z 12010KT CAVOK 22/18 A2992 RMK SCT090 BECMG=
201004020900 METAR MROC 020900Z 10015KT CAVOK 22/18 A2992 RMK SCT090 BECMG=
201004021000 METAR MROC 021000Z 13008KT CAVOK 22/17 A2992 RMK FEW090 BECMG=
201004021100 METAR MROC 021100Z 08005KT CAVOK 22/17 A2994 RMK FEW090 BECMG=
201004021200 METAR MROC 021200Z 06007KT CAVOK 22/17 A2996 RMK FEW090 BECMG=
201004021300 METAR MROC 021300Z 06003KT CAVOK 24/18 A2997 RMK FEW080 BECMG=
201004021400 METAR MROC 021400Z 11007KT 110V170 CAVOK 27/18 A2998 BECMG=
201004021500 METAR MROC 021500Z 13010KT CAVOK 28/17 A2999 RMK VEL MAX VTO 16KT BECMG=
201004021600 METAR MROC 021600Z 12008KT 100V160 CAVOK 30/17 A2998 RMK FEW050 BECMG=
201004021700 METAR MROC 021700Z 12009KT 9999 SCT040 31/17 A2997 BECMG=
201004021800 METAR MROC 021800Z 13005KT 9999 BKN040 30/17 A2996 BECMG 24010KT=
201004021900 METAR MROC 021900Z 21009KT 9999 FEW030TCU SCT040 29/20 A2994 RMK FEW070 VEL MAX VTO 15KT RN S BECMG=
201004022000 METAR MROC 022000Z 20010KT 9999 FEW030TCU SCT050 28/20 A2991 RMK SCT250 BECMG=
201004022100 METAR MROC 022100Z 20010KT 9999 BKN025TCU 27/20 A2991 RK PCPN N NE BECMG=
201004022200 METAR MROC 022200Z 12008KT 9999 FEW015TCU BKN025 26/19 A2991 RMK PCPN N NE E BECMG=
201004022300 METAR MROC 022300Z 00000KT 9999 FEW015TCU BKN025 23/20 A2994 RMK RN DST SW W PCPN NW N NE E BECMG=
201004030000 METAR MROC 030000Z 00000KT 9999 VCFG FEW002 BKN025 23/20 A2994 RMK DZ N NE BECMG=
201004030100 METAR MROC 030100Z 00000KT 9999 SCT030 22/20 A2996 BECMG=
201004030200 METAR MROC 030200Z 00000KT 9999 SCT030 23/18 A2998 BECMG=
201004030300 METAR MROC 030300Z 00000KT 9999 FEW035 SCT250 23/18 A2999 BECMG=
201004030400 METAR MROC 030400Z 10005KT CAVOK 22/18 A3000 RMK SCT250 BECMG=
201004030500 METAR MROC 030500Z 09008KT CAVOK 22/18 A2998 RMK SCT250 BECMG=
201004030600 METAR MROC 030600Z 09009KT CAVOK 22/18 A2997 RMK SCT250 BECMG=
201004030700 METAR MROC 030700Z 06006KT CAVOK 22/18 A2994 RMK SCT250 BECMG=
201004030800 METAR MROC 030800Z 06013KT CAVOK 22/18 A2991 RMK SCT250 BECMG=
201004030900 METAR MROC 030900Z 07008KT CAVOK 22/18 A2991 RMK SCT250 BECMG=
201004031000 METAR MROC 031000Z 08008KT CAVOK 22/18 A2991 RMK SCT250 BECMG=
201004031100 METAR MROC 031100Z 00000KT CAVOK 22/18 A2992 RMK SCT250 BECMG=
201004031200 METAR MROC 031200Z 11005KT CAVOK 22/18 A2994 RMK SCT100 SCT250 BECMG=
201004031300 METAR MROC 031300Z 09008KT 9999 FEW015 BKN250 23/18 A2995 RMK PCPN DST NE BECMG=
201004031400 METAR MROC 031400Z 12010KT 9999 FEW015 BKN250 25/18 A2996 RMK PCPN DST NE BECMG=
201004031500 METAR MROC 031500Z 12010KT 9999 FEW015 BKN250 27/18 A2997 RMK PCPN DST NE BECMG=
201004031600 METAR MROC 031600Z 13013KT 9999 FEW015 BKN250 28/18 A2996 RMK PCPN DST NE BECMG=
201004031700 METAR MROC 031700Z 12013KT 9999 FEW015 BKN250 28/18 A2996 RMK PCPN DST NE BECMG=
201004031800 METAR MROC 031800Z 12010KT 9999 FEW015 BKN250 29/18 A2994 RMK PCPN DST NE BECMG=
201004031900 METAR MROC 031900Z 11010KT 9999 SCT020 BKN250 28/17 A2991 RMK PCPN DST NE BECMG=
201004032000 METAR MROC 032000Z 11010KT 9999 SCT020TCU BKN250 30/17 A2989 RMK PCPN DST NE CB DST S SW BECMG=
201004032100 METAR MROC 032100Z 11011KT 9999 FEW025 BKN250 28/18 A2988 RMK CB DST S SE VEL MAX VTO 17KT BECMG=
201004032200 METAR MROC 032200Z 13012KT 9999 FEW025TCU SCT100 BKN250 26/18 A2989 RMK CB DST S SE HZ W QUAD BECMG=
201004032300 METAR MROC 032300Z 12008KT 9999 FEW025 SCT045 BKN250 26/17 A2990 RMK PCPN DST SW BECMG=
201004040000 METAR MROC 040000Z 12007KT 9999 FEW045 SCT250 24/17 A2991 BECMG CAVOK=
201004040100 METAR MROC 040100Z 12005KT CAVOK 23/17 A2994 RMK SCT250 BECMG=
201004040200 METAR MROC 040200Z 10006KT CAVOK 23/17 A2997 RMK SCT250 BECMG=
201004040300 METAR MROC 040300Z 10002KT CAVOK 22/17 A2998 RMK SCT250 LGT HZ ARND BECMG=
201004040400 METAR MROC 040400Z 07011KT CAVOK 21/17 A2999 RMK SCT250 LGT HZ ARND BECMG=
201004040500 METAR MROC 040500Z 10005KT CAVOK 20/16 A2998 RMK SCT200 BECMG=
201004040600 METAR MROC 040600Z 11004KT CAVOK 21/16 A2997 RMK BKN200 BECMG=
201004040700 METAR MROC 040700Z 10006KT CAVOK 21/16 A2995 RKM BKN200 BECMG=
201004040800 METAR MROC 040800Z 09008KT CAVOK 21/15 A2996 RMK BKN200 BECMG=
201004040900 METAR MROC 040900Z 09006KT CAVOK 20/15 A2994 RMK BKN200 LGHT DST S BECMG=
201004041000 METAR MROC 041000Z 08008KT CAVOK 20/15 A2995 RMK BKN200 BECMG=
201004041100 METAR MROC 041100Z 11008KT CAVOK 20/15 A2995 RMK BKN200 VEL MAX VTO 14KT BECMG=
201004041200 METAR MROC 041200Z 08013KT CAVOK 21/14 A2997 RMK OVC250 FEW130 VEL MAX VTO 20KT BECMG=
201004041300 METAR MROC 041300Z 04010KT CAVOK 22/14 A2998 RMK OVC250 BECMG=
201004041400 METAR MROC 041400Z 12010KT CAVOK 24/14 A2999 RMK OVC250 BECMG=
201004041500 METAR MROC 041500Z 12011KT CAVOK 26/12 A3000 RMK BKN250 BECMG=
201004041600 METAR MROC 041600Z 11015KT CAVOK 29/05 A3000 RMK BKN250 BECMG=
201004041700 METAR MROC 041700Z 10011KT CAVOK 31/02 A2999 RMK BKN250 VEL MAX VTO 16KT BECMG=
201004041800 METAR MROC 041800Z 10005KT CAVOK 31/07 A2997 RMK BKN250 BECMG=
201004041900 METAR MROC 041900Z 13007KT CAVOK 32/11 A2993 RMK BKN250 BECMG=
201004042000 METAR MROC 042000Z 20005KT 9999 FEW040 BKN250 30/16 A2992 BECMG=
201004042100 METAR MROC 042100Z 25012KT 9999 SCT040 BKN250 29/18 A2991 RMK RN DST NE BECMG 6000 -RA=
201004042200 METAR MROC 042200Z 24009KT 9999 SCT040 BKN250 28/17 A2992 RMK DZ DST NE BECMG=
201004042300 METAR MROC 042300Z 23007KT 9999 FEW035 BKN250 27/20 A2992 RMK HZ LEVE ARND=
201004050000 METAR MROC 050000Z 00000KT 9999 FEW035 BKN250 25/20 A2995 RMK DZ DST NE BECMG=
201004050100 METAR MROC 050100Z 00000KT CAVOK 24/20 A2997 RMK BKN250 BECMG=
201004050200 METAR MROC 050200Z 00000KT CAVOK 23/18 A2999 RMK BKN250 BECMG=
201004050300 METAR MROC 050300Z 00000KT CAVOK 22/17 A3001 RMK SCT250 BECMG=
201004050400 METAR MROC 050400Z 00000KT CAVOK 22/14 A3001 RMK SCT250 BECMG=
201004050500 METAR MROC 050500Z 00000KT CAVOK 22/15 A3000 RMK SCT250 BECMG=
201004050600 METAR MROC 050600Z 09004KT CAVOK 22/13 A2999 RMK SCT250 BECMG=
201004050700 METAR MROC 050700Z 00000KT CAVOK 21/12 A2992 RMK SCT250 BECMG=
201004050800 METAR MROC 050800Z 07005KT CAVOK 21/11 A2996 RMK SCT250 BECMG=
201004050900 METAR MROC 050900Z 10004KT CAVOK 20/11 A2997 RMK SCT250 BECMG=
201004051000 METAR MROC 051000Z 09007KT CAVOK 20/12 A2998 RMK SCT250 BECMG=
201004051100 METAR MROC 051100Z 08010KT CAVOK 21/14 A3001 RMK SCT250 BECMG=
201004051200 METAR MROC 051200Z 08007KT CAVOK 20/14 A3002 RMK BKN250 CB DST SW BECMG=
201004051300 METAR MROC 051300Z 07002KT CAVOK 22/14 A3004 RMK BKN250 BECMG=
201004051400 METAR MROC 051400Z 10008KT CAVOK 25/14 A3006 RMK BKN250 BECMG=
201004051500 METAR MROC 051500Z 11008KT CAVOK 28/13 A3005 RMK BKN250 BECMG=
201004051600 METAR MROC 051600Z 12011KT CAVOK 30/08 A3004 RMK BKN250 BECMG=
201004051700 METAR MROC 051700Z 13004KT CAVOK 30/08 A3003 RMK BKN250 BECMG 24006KT=
201004051800 METAR MROC 051800Z 28002KT CAVOK 31/10 A3000 RMK BKN250 BECMG=
201004051900 METAR MROC 051900Z 25003KT CAVOK 32/10 A2996 RMK BKN250 BECMG=
201004052000 METAR MROC 052000Z 24013KT 9999 FEW035 SCT250 32/17 A2995 BECMG=
201004052100 METAR MROC 052100Z 24010KT 9999 SCT035 SCT250 31/20 A2993 BECMG=
201004052200 METAR MROC 052200Z 19009KT 9999 SCT035 SCT250 26/21 A2995 RMK HZ LEVE ARND BECMG=
201004052300 METAR MROC 052300Z 22006KT 9999 SCT035 SCT250 26/19 A2996 RMK HZ LEVE ARND BECMG=
201004060000 METAR MROC 060000Z 23006KT 9999 FEW040 BKN250 25/19 A2998 RMK HZ LEVE ARND BECMG=
201004060100 METAR MROC 060100Z 00000KT 9999 FEW035 BKN250 23/20 A3001 BECMG=
201004060200 METAR MROC 060200Z 00000KT 9999 FEW035 BKN250 22/20 A3003 BECMG=
201004060300 METAR MROC 060300Z 00000KT CAVOK 22/20 A3004 RMK BKN250 HZY=
201004060400 METAR MROC 060400Z 00000KT CAVOK 21/20 A3005 RMK BKN250 HZY BECMG=
201004060500 METAR MROC 060500Z 07003KT CAVOK 21/18 A3005 RMK BKN250 BECMG=
201004060600 METAR MROC 060600Z 08003KT CAVOK 21/17 A3004 RMK BKN250 BECMG=
201004060700 METAR MROC 060700Z 08006KT CAVOK 21/17 A3001 RMK BKN250 BECMG=
201004060800 METAR MROC 060800Z 06007KT CAVOK 22/16 A2999 RMK BKN250 BECMG=
201004060900 METAR MROC 060900Z 07006KT CAVOK 20/16 A2997 RMK BKN250 BECMG=
201004061000 METAR MROC 061000Z 07006KT CAVOK 20/16 A2997 RMK BKN250 BECMG=
201004061100 METAR MROC 061100Z 04006KT CAVOK 20/15 A2999 RMK BKN250 BECMG=
201004061200 METAR MROC 061200Z 09007KT CAVOK 21/16 A3000 RMK BKN250 LGT HZ ARND BECMG=
201004061300 METAR MROC 061300Z 12009KT 080V140 CAVOK 26/16 A3003 RMK BKN250 HZ ARND=
201004061400 METAR MROC 061400Z 12009KT 080V140 CAVOK 26/16 A3003 RMK BKN250 HZ ARND=
201004061500 METAR MROC 061500Z 12009KT CAVOK 27/16 A3003 RMK BKN250 HZ ARND BECMG=
201004061600 METAR MROC 061600Z 12009KT CAVOK 29/15 A3002 RMK BKN250 HZ ARND BECMG=
201004061700 METAR MROC 061700Z 12009KT 9999 FEW045 BKN250 30/16 A3000 RMK HZ ARND BECMG=
201004061800 METAR MROC 061800Z 13002KT 9999 FEW035 SCT250 31/16 A2999 RMK HZ ARND BECMG=
201004061900 METAR MROC 061900Z 23011KT 9999 SCT035 SCT250 29/18 A2996 RKM HZ ARND BECMG=
201004062000 METAR MROC 062000Z 21008KT 9999 SCT035 SCT250 26/20 A2995 RMK HZ ARND BECMG=
201004062100 METAR MROC 062100Z 19006KT 9999 FE030TCU SCT040 26/20 A2993 RMK HZY FEW250 BECMG=
201004062200 METAR MROC 062200Z 23007KT 9999 FEW025TCU SCT040 25/21 A2994 RMK HZY VIS 5KM SW QUAD N BECMG=
201004062300 METAR MROC 062300Z 22006KT 9000 4000NE -RA FEW010TCU BKN030 24/21 A2996 RMK HZY BECMG=
201004070000 METAR MROC 070000Z 12007KT 9999 FEW010TCU SCT035 SCT100 23/19 A2997 RMK HZY VIS 6KM N BECMG=
201004070100 METAR MROC 070100Z 11006KT 9999 FEW009 BKN030 23/19 A2999 RMK HZY VIS 5KM N/NW BECMG=
201004070200 METAR MROC 070200Z 07004KT 9999 FEW009 SCT030 23/18 A3000 RMK HZY VIS 6KM N BECMG=
201004070300 METAR MROC 070300Z 00000KT 9999 FEW035 22/18 A3001 RMK HZ ARND BECMG=
201004070400 METAR MROC 070400Z 10003KT CAVOK 22/18 A3003 RMK SCT250 HZ ARND BECMG=
201004070500 METAR MROC 070500Z 08006KT CAVOK 22/18 A3002 RMK SCT250 HZ ARND BECMG=
201004070600 METAR MROC 070600Z 09005KT CAVOK 22/17 A2999 RMK SCT250 HZ LEVE ARND BECMG=
201004070700 METAR MROC 070700Z 10004KT CAVOK 22/17 A2997 RMK HZ LEVE ARND BECMG=
201004070800 METAR MROC 070800Z 08005KT CAVOK 21/17 A2995 RMK HZ LEVE ARND BECMG=
201004070900 METAR MROC 070900Z 08006KT CAVOK 20/17 A2995 RMK HZ LEVE ARND BECMG=
201004071000 METAR MROC 071000Z 07006KT CAVOK 20/17 A2995 RMK HZ LEVE ARND BECMG=
201004071100 METAR MROC 071100Z 05006KT CAVOK 20/16 A2996 RMK HZ LEVE ARND BECMG=
201004071200 METAR MROC 071200Z 06004KT CAVOK 20/16 A2997 RMK SCT250 HZ LEVE ARND BECMG=
201004071300 METAR MROC 071300Z 09005KT CAVOK 23/17 A2998 RMK SCT250 HZ QUAD W BECMG=
201004071400 METAR MROC 071400Z 07002KT CAVOK 26/16 A3001 RMK FEW250 HZ QUAD W BECMG=
201004071500 METAR MROC 071500Z 15003KT CAVOK 28/15 A3001 RMK EFW250 HZ QUAD W BECMG=
201004071600 METAR MROC 071600Z 28005KT 260V320 9999 FEW035 29/17 A3000 RMK HZ QUAD W BECMG=
201004071700 METAR MROC 071700Z 24007KT 190V250 9999 SCT040 29/18 A2998 RMK HZ W BECMG=
201004071800 METAR MROC 071800Z 26007KT 9999 BKN045 29/18 A2997 RMK HZ ARND BECMG=
201004071900 METAR MROC 071900Z 24007KT 200V280 9999 BKN045 31/18 A2994 RMK HZ ARND BECMG=
201004072000 METAR MROC 072000Z 26010KT 9999 SCT045TCU 31/19 A2991 RMK HZ ARND VEL MAX VTO 16KT VIS N 7KM DUE HZ BECMG=
201004072100 METAR MROC 072100Z 26011KT 9999 FEW030TCU SCT040 29/20 A2990 RMK VIS SE/SW 8KM DUE HZ HZ LGT ARND BECMG=
201004072200 METAR MROC 072200Z 25010KT 9999 FEW025TCU SCT040 27/19 A2990 RMK FEW120 VIS 8KM SE DUE HZ/RN HZ LGT ARND BECMG=
201004072300 METAR MROC 072300Z 24003KT 9999 FEW025 BKN035 25/19 A2992 RMK FEW120 HZ LGT ARND BECMG=
201004080000 METAR MROC 080000Z 00000KT 9999 FEW025 BKN035 24/19 A2994 RMK HZ LGT ARND BECMG=
201004080100 METAR MROC 080100Z 00000KT 9999 FEW020 BKN035 23/19 A2997 BECMG=
201004080200 METAR MROC 080200Z 10004KT 9999 BKN035 23/18 A2998 BECMG=
201004080300 METAR MROC 080300Z 09008KT 9999 BKN035 22/18 A3000 BECMG=
201004080400 METAR MROC 080400Z 10006KT 070V130 9999 SCT035 SCT250 22/18 A3001 BECMG=
201004080500 METAR MROC 080500Z 10008KT 9999 FEW035 SCT250 22/17 A2999 BECMG=
201004080600 METAR MROC 080600Z 10006KT CAVOK 22/17 A2997 BECMG=
201004080700 METAR MROC 080700Z 09007KT CAVOK 22/17 A2995 BECMG=
201004080800 METAR MROC 080800Z 08007KT CAVOK 21/17 A2994 BECMG=
201004080900 METAR MROC 080900Z 06003KT CAVOK 20/17 A2994 BECMG=
201004081000 METAR MROC 081000Z 02003KT CAVOK 20/17 A2994 BECMG=
201004081100 METAR MROC 081100Z 00000KT CAVOK 21/16 A2995 BECMG=
201004081200 METAR MROC 081200Z 00000KT CAVOK 21/17 A2996 RMK BKN250 HZ LGT ARND BECMG=
201004081300 METAR MROC 081300Z 07003KT CAVOK 24/17 A2998 RMK FEW250 HZ LGT ARND BECMG=
201004081400 METAR MROC 081400Z 14008KT CAVOK 27/16 A3000 RMK FEW280 HZ LGT ARND BECMG=
201004081500 METAR MROC 081500Z 14009KT CAVOK 28/16 A3001 RMK FEW280 HZ LGT ARND BECMG=
201004081600 METAR MROC 081600Z 17003KT 9999 FEW045 28/17 A3000 RMK HZ LGT ARND BECMG 24007KT=
201004081700 METAR MROC 081700Z 23007KT 9999 FEW035 SCT045 29/19 A3000 RMK HZ LGT ARND BECMG=
201004081800 METAR MROC 081800Z 25008KT 9999 FEW035 SCT045 29/19 A2998 RMK HZ LGT ARND BECMG=
201004081900 METAR MROC 081900Z 24009KT 9999 SCT040 30/19 A2994 RMK HZ LGT ARND TCU DST NE/S BECMG=
201004082000 METAR MROC NIL=
201004082100 METAR MROC 082100Z 25006KT 9999 VCSH SCT020TCU BKN035 26/20 A2992 VIS N NE 8KMS SCT CB DST ARND HZY BECMG 5000 -TSRA=
201004082200 METAR MROC 082200Z VRB04KT 9999 4000N -RA FEW015CB SCT025 BKN040 24/20 A2992 BECMG 5000=
201004082300 METAR MROC 082300Z 00000KT 9999 FEW020 SCT040 BKN100 24/21 A2992 RERA HZY BECMG=
201004090000 METAR MROC 090000Z 00000KT 9999 FEW020 SCT040 BKN100 24/20 A2995 RMK HZY BECMG=
201004090100 METAR MROC 090100Z 00000KT 9999 FEW020 BKN120 24/20 A2996 BECMG=
201004090200 METAR MROC 090200Z 00000KT 9999 FEW025 BKN140 23/20 A2997 BECMG=
201004090300 METAR MROC 090300Z 10004KT 9999 FEW025 BKN130 23/18 A3000 BECMG=
201004090400 METAR MROC 090400Z 09005KT 9999 FEW030 BKN250 22/18 A3001 RMK FEW120 BECMG=
201004090500 METAR MROC 090500Z 09006KT 9999 FEW030 BKN250 22/18 A3000 BECMG=
201004090600 METAR MROC 090600Z 09006KT CAVOK 22/18 A2999 RMK FEW100 BKN250 BECMG=
201004090700 METAR MROC 090700Z 06007KT CAVOK 22/18 A2998 RMK FEW100 BKN250 BECMG=
201004090800 METAR MROC 090800Z 11006KT CAVOK 22/18 A2996 RMK FEW100 SCT250 BECMG=
201004090900 METAR MROC 090900Z 12005KT CAVOK 22/18 A2996 RMK FEW100 FEW250 BECMG=
201004091000 METAR MROC 091000Z 10007KT CAVOK 22/18 A2996 RMK FEW100 BECMG=
201004091100 METAR MROC 091100Z 08006KT 060V120 9999 FEW030 22/15 A2997 BECMG=
201004091200 METAR MROC 091200Z 07008KT CAVOK 22/15 A3000 RMK FEW050 FEW250 BECMG=
201004091300 METAR MROC 091300Z 12013KT 9999 FEW030 23/16 A3001 BECMG=
201004091400 METAR MROC 091400Z 12014KT 9999 FEW035 25/17 A3003 RMK VEL MAX VTO 20KT BECMG=
201004091500 METAR MROC 091500Z 11014KT 9999 FEW035 27/16 A3004 RMK VEL MAX VTO 23KT BECMG=
201004091600 METAR MROC 091600Z 11014G26KT 9999 FEW035 28/16 A3004 BECMG=
201004091700 METAR MROC 091700Z 13014G24KT 9999 FEW035 29/16 A3002 BECMG=
201004091800 METAR MROC 091800Z 13012KT 9999 FEW035 30/17 A3000 RMK VEL MAX VTO 18KT BECMG=
201004091900 METAR MROC 091900Z 11011G21KT 9999 FEW035 31/17 A2996 RMK FEW045 BECMG=
201004092000 METAR MROC 092000Z 10009KT 9999 FEW035 SCT045 30/17 A2994 RMK VEL MAX VTO 14KT PCPN DST NE SW BECMG=
201004092100 METAR MROC 092100Z 10012KT 9999 FEW035 SCT090 28/16 A2994 RMK DZ DST NE SSW BECMG=
201004092200 METAR MROC 092200Z 11012KT 9999 FEW035 SCT100 BKN250 26/16 A2995 RMK DZ DST NE BECMG=
201004092300 METAR MROC 092300Z 10011G21KT 9999 FEW035 BKN250 25/16 A2996 RMK DZ DST NE BECMG=
201004100000 METAR MROC 100000Z 13011KT 9999 FEW035 BKN250 23/16 A3000 RMK DZ DST NE BECMG=
201004100100 METAR MROC 100100Z 12011KT CAVOK 23/16 A3001 RMK SCT250 BECMG=
201004100200 METAR MROC 100200Z 13010G20KT CAVOK 23/15 A3002 RMK SCT250 BECMG=
201004100300 METAR MROC 100300Z 13010KT CAVOK 23/15 A3003 RMK SCT250 BECMG=
201004100400 METAR MROC NIL=
201004100500 METAR MROC 100500Z 12010G22KT CAVOK 23/16 A3003 RMK BKN250 BECMG=
201004100600 METAR MROC 100600Z 12010G20KT CAVOK 23/15 A3001 RMK BKN250 BECMG=
201004100700 METAR MROC 100700Z 13013KT CAVOK 22/17 A3000 RMK SCT250 BECMG=
201004100800 METAR MROC 100800Z 07008KT CAVOK 21/16 A2999 RMK SCT250 BECMG=
201004100900 METAR MROC 100900Z 09003KT CAVOK 21/16 A2999 RMK SCT250 BECMG=
201004101000 METAR MROC 101000Z 02003KT CAVOK 21/16 A3001 RMK SCT250 BECMG=
201004101100 METAR MROC 101100Z 09005KT CAVOK 21/16 A3002 RMK SCT250 BECMG=
201004101200 METAR MROC 101200Z 00000KT 9999 FEW040 21/17 A3004 RMK SCT250 DZ DST=
201004101300 METAR MROC 101300Z 11010G20KT CAVOK 23/17 A3005 RMK BKN250 BECMG=
201004101400 METAR MROC 101400Z 12013G23KT CAVOK 25/17 A3006 RMK BKN250 BECMG=
201004101500 METAR MROC 101500Z 12014KT CAVOK 27/17 A3007 RMK BKN250 BECMG=
201004101600 METAR MROC 101600Z 10011KT CAVOK 29/16 A3007 RMK BKN250 BECMG=
201004101700 METAR MROC 101700Z 13012G22KT 9999 FEW035SCT250 29/17 A3006 BECMG=
201004101800 METAR MROC 101800Z 11015KT 9999 SCT035 SCT250 29/17 A3004 RMK DZ DST NE BECMG=
201004101900 METAR MROC 101900Z 12013KT 9999 FEW035 BKN250 30/16 A3001 RMK DZ DST NE BECMG=
201004102000 METAR MROC 102000Z 14012KT 9999 FEW035 BKN250 30/12 A2998 RMK DZ DST NE BECMG=
201004102100 METAR MROC 102100Z 12013KT 9999 SCT035 BKN250 27/17 A2997 RMK RN N E BECMG=
201004102200 METAR MROC 102200Z 13011KT 9999 SCT035 BKN250 26/17 A2997 RMK RN NE BECMG=
201004102300 METAR MROC 102300Z 13010KT 9999 FEW020 BKN035 25/18 A2999 RMK RN NE E BECMG=
201004110000 METAR MROC 110000Z 11005KT 9999 FEW020 BKN035 25/17 A3001 RMK RN NE E BECMG -RA=
201004110100 METAR MROC 110100Z 11009KT 9999 SCT030 BKN100 24/17 A3003 RMK GUST 14KT BECMG=
201004110200 METAR MROC 110200Z 10004KT 9999 SCT030 BKN100 23/17 A3004 BECMG=
201004110300 METAR MROC 110300Z 08006KT 9999 FEW030 SCT120 23/17 A3005 BECMG=
201004110400 METAR MROC 110400Z 12007KT 9999 FEW030 SCT120 23/16 A3005 BECMG=
201004110500 METAR MROC 110500Z 11009KT 9999 FEW030 SCT120 23/17 A3004 BECMG=
201004110600 METAR MROC 110600Z 13010KT 9999 FEW030 SCT120 23/17 A3002 RMK VEL MAX VTO 16KT BECMG=
201004110700 METAR MROC 110700Z 1107001 12009KT 9999 FEW030 BKN120 23/17 A3002=
201004110800 METAR MROC 110800Z 11008KT 9999 FEW030 BKN120 22/17 A2997 BECMG=
201004110900 METAR MROC 110900Z 12012KT 9999 FEW030 BKN120 22/18 A2996 BECMG=
201004111000 METAR MROC 111000Z 13011KT 9999 SCT030 SCT100 23/18 A2996 RMK VEL MAX VTO 17KT BECMG=
201004111100 METAR MROC 111100Z 12009KT 9999 FEW030 BKN120 22/18 A2999 BECMG=
201004111200 METAR MROC 111200Z 13009KT 9999 FEW030 BKN100 23/17 A3000 RMK DZ DST N NE E BECMG=
201004111300 METAR MROC 111300Z 12008KT 9999 FEW030 BKKN100 23/17 A3001 RMK RN DST N NE E BECMG=
201004111400 METAR MROC 111400Z 13008KT 9999 FEW030 SCT100 BKN250 25/18 A3003 RMK RN DST N NE BECMG=
201004111500 METAR MROC 111500Z 10008KT 9999 FEW030 SCT100 BKN250 26/17 A3004 RMK RN DST N NE BECMG=
201004111600 METAR MROC 111600Z 11016KT 9999 SCT030 BKN250 28/17 A3001 RMK RN DST N FEW12 0 BECMG=
201004111700 METAR MROC 111700Z 10015KT 9999 FEW030 SCT110 27/17 A3001 RMK RN N NE SCT250 BECMG=
201004111800 METAR MROC 111800Z 11016KT 9999 FEW030 SCT110 27/17 A2998 RMK SCT250 RN N NE BECMG=
201004111900 METAR MROC 111900Z 10011KT 9999 SCT030 SCT110 29/17 A2995 RMK DZ N NE FEW250 BECMG=
201004112000 METAR MROC 112000Z 11015KT 9999 SCT030 SCT110 29/17 A2995 RMK DZ N NE BECMG=
201004112100 METAR MROC 112100Z 11015G25KT 9999 SCT035 SCT110 28/17 A2993 RMK DZ DST N BECMG=
201004112200 METAR MROC 112200Z 11010G20KT 090V150 9999 SCT035 SCT250 26/17 A2992 RMK FEW110 DZ DST N/NE BECMG=
201004112300 METAR MROC 112300Z 14008KT 070V160 9999 SCT040 BKN250 25/17 A2993 RMK FEW100 DZ DST N/NE VEL MAX VTO 13KT BECMG=
201004120000 METAR MROC 120000Z 15004KT 9999 SCT040 BKN250 24/17 A2996 RMK FEW100 DZ DST N/NE BECMG=
201004120100 METAR MROC 120100Z 11009KT 070V140 9999 SCT030 BKN250 23/17 A2998 RMK VEL MAX VTO 15KT LTNG DST S BECMG=
201004120200 METAR MROC 120200Z 12009KT 9999 SCT035 SCT250 23/17 A3001 RMK LTNG DST SSE VEL MAX VTO 17KT BECMG=
201004120300 METAR MROC 120300Z 12009KT 9999 -RA FEW035 SCT090 22/18 A3002 RMK LTNG DST SSW SW BECMG=
201004120400 METAR MROC 120400Z 11010G20KT 9999 FEW035 SCT100 22/17 A3003 RMK RN DST E SE LTNG SW BECMG=
201004120500 METAR MROC 120500Z 12010KT 9999 -RA FEW035 BKN100 22/17 A3002 RMK RN DST NE E SE S LTNG SW BECMG=
201004120600 METAR MROC 120600Z 09007KT 9999 -DZ SCT030 SCT100 21/18 A3000 RMK RN DST NE E SE BECMG=
201004120700 METAR MROC 120700Z 10010KT 9999 -RA SCT030 SCT100 21/18 A2999 RMK REDZ BECMG=
201004120800 METAR MROC 120800Z 11011KT 9999 FEW030 SCT100 21/17 A2997 RMK RERA BECMG=
201004120900 METAR MROC 120900Z 10010KT CAVOK 22/16 A2997 RMK SCT100 BECMG=
201004121000 METAR MROC 121000Z 09006KT CAVOK 21/16 A2996 RMK SCT100 BECMG=
201004121100 METAR MROC 121100Z 12009KT CAVOK 22/16 A2997 RMK SCT100 BECMG=
201004121200 METAR MROC 121200Z 11009KT CAVOK 22/16 A2997 RMK FEW100 BKN250 BECMG=
201004121300 METAR MROC 121300Z 12013KT CAVOK 23/16 A2999 RMK FEW100 BKN250 DZ DST NE BECMG=
201004121400 METAR MROC 121400Z 12012KT CAVOK 25/17 A3000 RMK FEW080 BKN250 VEL MAX VTO 20KT DZ DST NE BECMG=
201004121500 METAR MROC 121500Z 12011KT CAVOK 27/17 A3001 RMK FEW070 BKN250 VEL MAX VTO 16KT BECMG=
201004121600 METAR MROC 121600Z 12011KT CAVOK 28/17 A3000 RMK FEW060 BKN250 VEL MAX VTO 17KT BECMG=
201004121700 METAR MROC 121700Z 13012KT 9999 FEW045 SCT250 29/16 A2997 RMK FEW100 VEL MAX VTO 17KT BECMG=
201004121800 METAR MROC 121800Z 13011KT 9999 SCT045 27/17 A2997 RMK FEW100 BECMG 24005KT=
201004121900 METAR MROC 121900Z 12013KT 9999 FEW030TCU FEW040 SCT250 28/17 A2994 RMK RN DST S VEL MAX VTO 19KT BECMG=
201004122000 METAR MROC 122000Z 12011KT 090V150 9999 FEW035TCU SCT250 29/17 A2992 RMK RN DST S VEL MAX VTO 16KT BECMG=
201004122100 METAR MROC 122100Z 12009KT 9999 FEW030TCU SCT040 29/17 A2990 RMK FEW250 TCU DST S/SW BECMG=
201004122200 METAR MROC 122200Z 23006KT 9999 FEW030 SCT040 27/20 A2991 RMK FEW120 DZ DST NE/E CB DST S BECMG=
201004122300 METAR MROC NIL=
201004130000 METAR MROC 130000Z 13009KT 9999 SCT035 SCT250 23/16 A2994 RMK TCU DST S BECMG=
201004130100 METAR MROC 130100Z 12008KT 9999 FEW025 BKN035 23/17 A2999 RMK LTNG DST S BECMG=
201004130200 METAR MROC 130200Z 10007KT 9999 BKN035 23/17 A2999 RMK LTNG DST SSE BECMG=
201004130300 METAR MROC 130300Z 10005KT 9999 SCT035 BKN070 23/17 A3001 RMK LTNG DST SSE BECMG=
201004130400 METAR MROC 130400Z 10008KT 9999 FEW035 SCT070 BKN250 22/17 A3001 RMK=
201004130500 METAR MROC 130500Z 12008KT 9999 FEW035 SCT070 BKN250 22/17 A3003 BECMG=
201004130600 METAR MROC 130600Z 06008KT CAVOK 21/17 A3002 RMK SCT100 SCT250 BECMG=
201004130700 METAR MROC 130700Z 00000KT CAVOK 21/17 A2997 RMK SCT100 SCT250 BECMG=
201004130800 METAR MROC 130800Z 10007KT CAVOK 21/17 A2995 RMK SCT100 SCT250 BECMG=
201004130900 METAR MROC 130900Z 10003KT CAVOK 21/17 A2993 RMK SCT100 SCT250 BECMG=
201004131000 METAR MROC 131000Z 10004KT CAVOK 21/17 A2993 RMK SCT100 SCT250 BECMG=
201004131100 METAR MROC 131100Z 08009KT CAVOK 21/17 A2995 RMK SCT100 SCT250 BECMG=
201004131200 METAR MROC 131200Z 10006KT 9999 FEW040 SCT110 BKN250 21/17 A2995 RMK CB DST SW BECMG=
201004131300 METAR MROC 131300Z 10005KT CAVOK 22/17 A2998 RMK FEW110 BKN250 BECMG=
201004131400 METAR MROC 131400Z 12010KT 9999 FEW035 BKN270 25/17 A3000 RMK DZ DST=
201004131500 METAR MROC 131500Z 13008G18KT 9999 FEW035 SCT270 27/17 A3001 BECMG=
201004131600 METAR MROC 131600Z 13008G18KT 9999 FEW035 SCT270 28/16 A3000 BECMG=
201004131700 METAR MROC 131700Z 14012KT 9999 FEW040 SCT270 29/17 A2999 RMK TCU DST N/NE BECMG=
201004131800 METAR MROC 131800Z 13013KT 9999 FEW040 BKN270 29/17 A2997 RMK TCU DST N/S BECMG=
201004131900 METAR MROC 131900Z 12012KT 9999 FEW035 SCT270 29/17 A2994 RMK FEW040 TCU DST N/S/W RN DST S BECMG=
201004132000 METAR MROC 132000Z 13006KT 9999 -TS FEW020CB FEW040 SCT110 27/18 A2992 RMK VIS 7KM W DUE CB/TS BECMG -RA=
201004132100 METAR MROC 132100Z 31008KT 9999 FEW035 SCT045 BKN120 21/19 A2994 REDZ BECMG=
201004132200 METAR MROC 132200Z 00000KT 9999 -RA FEW035 SCT120 BKN250 24/19 A2994 BECMG=
201004132300 METAR MROC 132300Z 00000KT 9999 FEW035 SCT120 BKN250 25/19 A2993 BECMG=
201004140000 METAR MROC 140000Z 00000KT 9999 FEW035 SCT140 BKN250 24/17 A2996 RMK PCPN DST NE CB DST S SW W N BECMG=
201004140100 METAR MROC 140100Z 10004KT CAVOK 23/18 A2997 RMK SCT140 BKN250 BECMG=
201004140200 METAR MROC 140200Z 09006KT CAVOK 23/18 A2998 RMK SCT140 BKN250 BECMG=
201004140300 METAR MROC 140300Z 10008KT 9999 FEW040 BKN250 23/17 A3000 BECMG=
201004140400 METAR MROC 140400Z 10003KT 9999 FEW035 BKN250 22/17 A3002 BECMG=
201004140500 METAR MROC 140500Z 12006KT 090V150 CAVOK 22/17 A3002 RMK BKN250 BECMG=
201004140600 METAR MROC 140600Z 08003KT CAVOK 22/17 A3001 RMK BKN250 BECMG=
201004140700 METAR MROC 140700Z 10008KT CAVOK 22/17 A3000 RMK BKN250 BECMG=
201004140800 METAR MROC 140800Z 09006KT CAVOK 21/16 A3000 RMK BKN250 LTNG DST S BECMG=
201004140900 METAR MROC 140900Z 09003KT CAVOK 20/16 A2998 RMK FEW130 SCT250 LTNG DST S BECMG=
201004141000 METAR MROC 141000Z 06005KT CAVOK 20/16 A2998 RMK FEW120 SCT250 BECMG=
201004141100 METAR MROC 141100Z 10005KT CAVOK 22/16 A2999 RMK SCT130 BKN250 LTNG DST S BECMG=
201004141200 METAR MROC 141200Z 08003KT CAVOK 21/16 A3001 RMK BKN120 BECMG=
201004141300 METAR MROC 141300Z 09004KT CAVOK 22/16 A3005 RMK BKN120 CB DST W BECMG=
201004141400 METAR MROC 141400Z 00000KT CAVOK 23/16 A3007 RMK BKN140 BECMG=
201004141500 METAR MROC 141500Z 13005KT CAVOK 25/16 A3007 RMK SCT120 BKN220 BECMG 24006KT=
201004141600 METAR MROC 141600Z 13005KT CAVOK 26/16 A3006 RMK SCT120 BKN220 BECMG 24006KT=
201004141700 METAR MROC 141700Z 26008KT 9999 FEW040 SCT140 BKN220 26/19 A3006 BECMG=
201004141800 METAR MROC 141800Z 24008KT 9999 FEW040 SCT140 BKN220 27/18 A3005 BECMG=
201004141900 METAR MROC 141900Z 24005KT 9999 FEW040 SCT140 BKN250 28/19 A3000 RMK LGT HZ ARND BECMG=
201004142000 METAR MROC 142000Z 27008KT 9999 FEW035 SCT140 BKN250 27/19 A2998 RMK LGT HZ ARND BECMG=
201004142100 METAR MROC 142100Z 25003KT 9999 FEW030 SCT120 BKN250 27/19 A2997 BECMG=
201004142200 METAR MROC 142200Z 25006KT CAVOK 26/20 A2996 RMK FEW100 OVC250 HZ LEVE ARND BECMG=
201004142300 METAR MROC 142300Z 00000KT CAVOK 25/20 A2996 RMK SCT100 BKN250 HZ LEVE ARND BECMG=
201004150000 METAR MROC 150000Z 00000KT CAVOK 24/20 A2996 RMK SCT100 SCT250 HZ LEVE ARND BECMG=
201004150100 METAR MROC 150100Z 12004KT CAVOK 24/18 A2998 RMK SCT250 BECMG=
201004150200 METAR MROC 150200Z 11003KT CAVOK 23/18 A2999 RMK SCT250 BECMG=
201004150300 METAR MROC 150300Z 12003KT 9999 SCT030 SCT250 23/18 A3001 BECMG=
201004150400 METAR MROC 150400Z 00000KT 9999 FEW030 SCT250 22/17 A3002 RMK FEW120 BECMG=
201004150500 METAR MROC 150500Z 11008KT 9999 FEW030 SCT120 22/17 A3001 BECMG=
201004150600 METAR MROC 150600Z 12007KT 9999 FEW030 BKN110 22/17 A3001 BECMG=
201004150700 METAR MROC 150700Z 11007KT 9999 FEW030 BKN110 22/16 A3000 BECMG=
201004150800 METAR MROC 150800Z 10006KT 9999 FEW030 BKN110 23/16 A2998 BECMG=
201004150900 METAR MROC 150900Z 13010KT 9999 SCT030 SCT110 23/16 A2998 BECMG=
201004151000 METAR MROC 151000Z 10007KT 9999 SCT030 SCT110 22/17 A2998 BECMG=
201004151100 METAR MROC 151100Z 09007KT 9999 SCT030 SCT110 22/16 A2999 REDZ BECMG=
201004151200 METAR MROC 151200Z 12006KT 9999 FEW030 SCT120 22/16 A3000 RMK FEW220 CB/TCU DST S/SW BECMG=
201004151300 METAR MROC 151300Z 12008KT CAVOK 23/16 A3002 RMK BKN120 FEW250 BECMG=
201004151400 METAR MROC 151400Z 12010KT CAVOK 26/16 A3004 RMK SCT120 FEW250 BECMG=
201004151500 METAR MROC 151500Z 14008KT CAVOK 28/16 A3004 RMK FEW120 SCT250 BECMG 24006KT=
201004151600 METAR MROC 151600Z 13008KT 9999 FEW040 SCT250 29/16 A3004 BECMG=
201004151700 METAR MROC 151700Z 15007KT 9999 SCT035 SCT250 29/16 A3003 BECMG 24006KT=
201004151800 METAR MROC 151800Z 09005KT 9999 SCT035 SCT250 30/16 A3001 BECMG 24006KT=
201004151900 METAR MROC 151900Z 23010KT 9999 FEW020CB SCT030 29/20 A2998 BECMG=
201004152000 METAR MROC 152000Z 25008KT 9999 VCSH FEW020CB SCT030 30/20 A2996 BECMG 6000 RA=
201004152100 METAR MROC 152100Z 17005KT 7000 3000N -TSRA FEW015CB BKN030 23/21 A2997=
201004152200 METAR MROC 152200Z 11002KT 7000 4000N -RA FEW020 BKN030 21/21 A2997 BECMG=
201004152300 METAR MROC 152300Z 00000KT 9999 4000N BR FEW020 BKN035 22/21 A2999 RERA BECMG=
201004160000 METAR MROC 160000Z 00000KT 9999 4000N -RA BR SCT035 SCT100 22/21 A3002 BECMG=
201004160100 METAR MROC 160100Z 00000KT 9999 SCT035 SCT100 22/21 A3003 RERA BECMG=
201004160200 METAR MROC 160200Z 00000KT 9999 SCT035 SCT100 22/21 A3003 BECMG=
201004160300 METAR MROC 160300Z 00000KT CAVOK 21/21 A3005 RMK SCT120 SCT250 BECMG=
201004160400 METAR MROC 160400Z 00000KT CAVOK 21/21 A3005 SCT120 SCT250 BECMG=
201004160500 METAR MROC 160500Z 08002KT CAVOK 21/18 A3003 SCT120 SCT250 BECMG=
201004160600 METAR MROC NIL=
201004160700 METAR MROC 160700Z 00000KT CAVOK 20/17 A3000 RMK BKN250 BECMG=
201004160800 METAR MROC 160800Z 00000KT CAVOK 20/17 A2998 RMK BKN250 BECMG=
201004160900 METAR MROC 160900Z 08006KT CAVOK 19/17 A2998 RMK BKN250 BECMG=
201004161000 METAR MROC 161000Z 00000KT CAVOK 19/17 A2998 RMK BKN250 BECMG=
201004161100 METAR MROC 161100Z 00000KT CAVOK 19/16 A2999 RMK SCT250 BECMG=
201004161200 METAR MROC 161200Z 09004KT CAVOK 19/16 A3001 RMK SCT250 LGT HZ ARND BECMG=
201004161300 METAR MROC 161300Z 00000KT CAVOK 23/17 A3002 RMK SCT250 HZ LGT ARND BECMG=
201004161400 METAR MROC 161400Z 09003KT CAVOK 26/17 A3002 HZ LGT ARND BECMG=
201004161500 METAR MROC 161500Z 12008KT CAVOK 28/16 A3001 RMK HZ LGT ARND=
201004161600 METAR MROC 161600Z 12008KT 090V150 CAVOK 30/16 A3001 RMK HS LGT ARN BECMG=
201004161700 METAR MROC 161700Z 15007KT 9999 FEW040 30/17 A3000 BECMG 24007KT=
201004161800 METAR MROC 161800Z 22009KT 9999 -DZ SCT040 28/20 A2998 BECMG RA=
201004161900 METAR MROC 161900Z 21008KT 9999 VCTS SCT030TCU BKN130 28/21 A2995 RMK TCU CB DST SW BECMG -RA=
201004162000 METAR MROC 162000Z 25008KT 9999 4000SW RA FEW012CB SCT020TCU BKN120 25/21 A2994 BECMG=
201004162100 METAR MROC 162100Z 00000KT 8000 3500SW -TSRA SCT009CB BKN030 22/21 A2997 RMK VIS 4KM N BECMG=
201004162200 METAR MROC 162200Z VRB02KT 8000 3500SW -TSRA FEW009CB SCT020 BKN070 20/19 A2995 RMK VIS S UNLD BECMG=
201004162300 METAR MROC 162300Z 00000KT 9999 3000SW -TSRA FEW008CB SCT050 BKN100 21/20 A2997 RMK VIS N/S 4KM BECMG=
201004170000 METAR MROC 170000Z 05004KT 9999 4500SW -RA FEW030 SCT110 BKN250 21/21 A2996 RETS RMK CB DST N/S/SW BECMG=
201004170100 METAR MROC 170100Z 09006KT 9999 FEW030 BKN250 22/19 A3000 RERA RMK=
201004170200 METAR MROC 170200Z 00000KT CAVOK 21/18 A3002 RMK BKN110 BECMG=
201004170300 METAR MROC 170300Z 00000KT CAVOK 21/18 A3003 RMK BKN110 BECMG=
201004170400 METAR MROC 170400Z 00000KT CAVOK 20/18 A3003 RMK BKN110 BECMG=
201004170500 METAR MROC 170500Z 00000KT CAVOK 20/18 A3003 RMK SCT120 SCT250 BECMG=
201004170600 METAR MROC 170600Z 00000KT CAVOK 20/18 A3000 RMK SCT120 SCT250 BECMG=
201004170700 METAR MROC 170700Z 00000KT CAVOK 19/18 A2998 RMK FEW120 BKN250 BECMG=
201004170800 METAR MROC 170800Z 09004KT CAVOK 20/18 A2997 RMK FEW120 BECMG=
201004170900 METAR MROC 170900Z 08004KT CAVOK 20/18 A2997 RMK SCT120 BECMG=
201004171000 METAR MROC 171000Z 00000KT CAVOK 20/18 A2998 RMK SCT120 BECMG=
201004171100 METAR MROC 171100Z 00000KT CAVOK 20/18 A3000 RMK SCT120 BECMG=
201004171200 METAR MROC 171200Z 00000KT CAVOK 20/18 A3001 RMK CST120 SCT250 BECMG=
201004171300 METAR MROC 171300Z 00000KT CAVOK 20/18 A3003 RMK OVC120 BECMG=
201004171400 METAR MROC 171400Z 00000KT 9999 -RA OVC110 20/19 A3005 RMK VIS 6KM SW BECMG=
201004171500 METAR MROC 171500Z 00000KT 9999 -RA OVC120 20/19 A3008 RMK VIS 6KM SW BECMG=
201004171600 METAR MROC 171600Z 00000KT 8000 3500SW -RA OVC110 20/19 A3007 BECMG=
201004171700 METAR MROC 171700Z 09004KT 9000 4000SW -RA BR OVC120 20/19 A3004 BECMG=
201004171800 METAR MROC 171800Z 00000KT 6000 2500SW -RA BR SCT006 OVC120 21/21 A3006 RMK LOW ST BECMG 3000=
201004171900 METAR MROC 171900Z 14004KT 9999 4500SW BR FEW006 BKN120 23/21 A2999 RERA BECMG=
201004172000 METAR MROC 172000Z 00000KT CAVOK 25/19 A2994 RMK BKN120 FEW250 LGT HZ ARND BECMG=
201004172100 METAR MROC 172100Z 24007KT 6000 BR FEW001 BKN120 23/22 A2995 RMK FEW030 VIS SW 3KM DUE ST BECMG=
201004172200 METAR MROC 172200Z 25008KT 7000 BR FEW003 BKN120 23/21 A2996 BECMG=
201004172300 METAR MROC 172300Z 00000KT 9999 FEW020 SCT120 22/20 A2997 RMK SCT260 BECMG=
201004180000 METAR MROC 180000Z 00000KT 9999 FEW020 SCT260 21/19 A2995 RMK FEW120 HZ LGT ARND=
201004180100 METAR MROC 180100Z 00000KT CAVOK 22/19 A2998 RMK BKN260 HZ LGT ARND BECMG=
201004180200 METAR MROC 180200Z 00000KT CAVOK 21/19 A3002 RMK BKN260 HZ LGT ARND BECMG=
201004180300 METAR MROC 180300Z 09004KT CAVOK 20/19 A3005 RMK BKN260 HZ LGT ARND BECMG=
201004180400 METAR MROC 180400Z 09005KT CAVOK 20/18 A3005 RMK SCT260 BECMG=
201004180500 METAR MROC 180500Z 09007KT CAVOK 20/17 A3003 RMK SCT260 BECMG=
201004180600 METAR MROC 180600Z 08005KT CAVOK 19/16 A3002 RMK SCT260 BECMG=
201004180700 METAR MROC 180700Z 10005KT CAVOK 18/16 A3001 BECMG=
201004180800 METAR MROC 180800Z 10004KT CAVOK 19/16 A3000 BECMG=
201004180900 METAR MROC 180900Z 10005KT CAVOK 19/16 A2998 BECMG=
201004181000 METAR MROC 181000Z 09005KT CAVOK 18/15 A2998 BECMG=
201004181100 METAR MROC 181100Z 09006KT CAVOK 18/15 A2999 BECMG=
201004181200 METAR MROC 181200Z 10005KT CAVOK 19/14 A3001 BECMG=
201004181300 METAR MROC 181300Z 06003KT CAVOK 22/16 A3003 RMK SCT250 BECMG=
201004181400 METAR MROC 181400Z 00000KT CAVOK 24/16 A3004 BECMG 24006KT=
201004181500 METAR MROC 181500Z 00000KT CAVOK 27/15 A3004 RMK FEW260 HZ LGT DST S/SW/W BECMG 24006KT=
201004181600 METAR MROC 181600Z 24006KT CAVOK 28/17 A3003 RMK FEW260 TCU DST E BECMG=
201004181700 METAR MROC 181700Z 23007KT CAVOK 29/17 A3003 RMK FEW260 TCU DST E BECMG=
201004181800 METAR MROC 181800Z 24009KT 9999 FEW045 29/18 A3001 RMK TCU DST E BECMG=
201004181900 METAR MROC 181900Z 24011KT 9999 FEW045 30/20 A2998 RMK TCU DST N/SE BECMG=
201004182000 METAR MROC 182000Z 23010KT 9999 FEW045 30/20 A2997 RMK TCU DST N/E/SE BECMG=
201004182100 METAR MROC 182100Z 23011KT 9999 SCT025TCU BKN250 29/20 A2995 BECMG 5000 VCSH=
201004182200 METAR MROC 182200Z 23007KT 9999 SCT025TCU BKN250 28/21 A2995 RMK PCPN DST E SE HZY BECMG 5000 VCSH=
201004182300 METAR MROC 182300Z 23004KT 9999 SCT025TCU BKN250 27/20 A2996 RMK PCPN DST E BECMG=
201004190000 METAR MROC 190000Z 25004KT 9999 SCT035 SCT250 25/21 A2999 RMK HZY TCU DST ENE BECMG=
201004190100 METAR MROC 190100Z 00000KT 9999 FEW035 SCT070 24/21 A3001 BECMG=
201004190200 METAR MROC 190200Z 00000KT 9999 FEW035 BKN120 23/21 A3003 BECMG=
201004190300 METAR MROC 190300Z 00000KT CAVOK 23/21 A3004 RMK BKN250 BECMG=
201004190400 METAR MROC 190400Z 00000KT 9000 2000SW BR FEW003 BKN200 22/22 A3005 BECMG 6000 BR=
201004190500 METAR MROC 190500Z 00000KT 8000 3500SW BR SCT005 BKN200 22/22 A3005 RMK VIS 4KM NW/N BECMG=
201004190600 METAR MROC 190600Z 00000KT 9999 45000SW BR FEW080 BKN250 22/21 A3002 BECMG=
201004190700 METAR MROC 190700Z 00000KT 9999 2000SW BR SCT002 BKN250 21/21 A3001 BECMG=
201004190800 METAR MROC 190800Z 00000KT 9999 FEW003 BKN250 21/21 A3000 BECMG=
201004190900 METAR MROC 190900Z 00000KT 9999 VCFG FEW100 SCT250 21/18 A2999 RMK VIS 8KM SW BECMG=
201004191000 METAR MROC 191000Z 00000KT 9999 VCFG FEW001 SCT250 21/19 A3001 RMK FEW100 VIS 6KM SW BECMG=
201004191100 METAR MROC 191100Z 00000KT CAVOK 20/18 A3002 RMK FEW100 SCT250 BECMG=
201004191200 METAR MROC 191200Z 06003KT CAVOK 21/16 A3003 RMK FEW110 BKN250 BECMG=
201004191300 METAR MROC 191300Z 10002KT CAVOK 24/17 A3004 RMK SCT250 BECMG=
201004191400 METAR MROC 191400Z 12006KT CAVOK 27/18 A3005 RMK SCT250 LGT HZ ARND BECMG=
201004191500 METAR MROC 191500Z 12008KT CAVOK 27/17 A3006 RMK BKN250 CB DST SSW LGT HZ ARND BECMG=
201004191600 METAR MROC 191600Z 10007KT CAVOK 29/16 A3007 RMK BKN250 HZY BECMG=
201004191700 METAR MROC 191700Z 11015KT CAVOK 30/16 A3005 RMK BKN250 HZY=
201004191800 METAR MROC 191800Z 13007KT CAVOK 31/17 A3003 RMK SCT140 SCT250 LGT HZ ARND=
201004191900 METAR MROC 191900Z 22008KT 9999 FEW045 SCT140 31/19 A3000 RMK LGT HZ ARND=
201004192000 METAR MROC 192000Z 24012KT 9999 SCT040 SCT250 30/21 A2998 RMK HZY BECMG=
201004192100 METAR MROC 192100Z 24013KT 9999 SCT035 BKN250 30/22 A2996 RMK RN DST SE BECMG=
201004192200 METAR MROC 192200Z 06015KT 3000 -TS SHRA SCT015CB BKN030 22/18 A2999 RMK 9999 SW BECMG=
201004192300 METAR MROC 192300Z 00000KT 7000 -RA BR FEW003 SCT025 BKN080 20/19 A3001 RMK VIS 3000SW BECMG=
201004200000 METAR MROC 200000Z 00000KT 9999 FEW045 SCT110 21/20 A3003 RMK RN DST SW BECMG=
201004200100 METAR MROC 200100Z 00000KT 9999 FEW035 SCT120 21/20 A3004 BECMG=
201004200200 METAR MROC 200200Z 00000KT 9999 FEW035 20/20 A3005 RMK VIS 7000 SW DUE LOW ST BECMG=
201004200300 METAR MROC 200300Z 00000KT CAVOK 21/20 A3007 RMK FEW250 BECMG=
201004200400 METAR MROC 200400Z 00000KT CAVOK 20/19 A3008 RMK FEW250 BECMG=
201004200500 METAR MROC 200500Z 00000KT CAVOK 20/19 A3007 RMK FEW250 BECMG=
201004200600 METAR MROC 200600Z 00000KT CAVOK 19/18 A3007 RMK FEW250 BECMG=
201004200700 METAR MROC 200700Z 00000KT 9999 BKN030 19/18 A3006 RMK FEW110 BECMG=
201004200800 METAR MROC 200800Z 00000KT 9999 SCT030 20/19 A3004 RMK FEW110 BECMG=
201004200900 METAR MROC 200900Z 08002KT 9999 SCT030 19/18 A3003 RMK FEW110 BECMG=
201004201000 METAR MROC 201000Z 08005KT 9999 BKN030 20/19 A3003 BECMG=
201004201100 METAR MROC 201100Z 11002KT 9999 FEW030 20/18 A3004 RMK FEW120 BECMG=
201004201200 METAR MROC 201200Z 00000KT CAVOK 20/18 A3005 RMK FEW260 HZ E/SE BECMG=
201004201300 METAR MROC 201300Z 08003KT CAVOK 22/19 A3007 RMK FEW250 HZ ARND BECMG=
201004201400 METAR MROC 201400Z 11002KT CAVOK 25/20 A3008 RMK SCT250 HZ ARND BECMG=
201004201500 METAR MROC 201500Z 00000KT CAVOK 27/20 A3008 RMK SCT250 HZ ARND T HVH621 201500Z GG EGZZMCAR EGZZMSAM KWBCYMYX KWBCYZYX MDSDYMYX MKJPYMYX MPDAYXYX MPMGYMYX 201500Z MROCYMYX=
201004201600 METAR MROC 201600Z 30002KT 9999 FEW035 SCT250 29/19 A3007 RMK HZ ARND BECMG=
201004201700 METAR MROC 201700Z 26004KT 9999 SCT035 29/20 A3005 RMK HZ ARND BECMG=
201004201800 METAR MROC 201800Z 23007KT 9999 FEW020TCU SCT035 SCT120 29/19 A3003 HZ ARND BECMG=
201004201900 METAR MROC 201900Z 24008KT 9999 FEW020TCU SCT035 SCT250 28/21 A3001 RMK HZ ARND BECMG 5000 -TSRA=
201004202000 METAR MROC 202000Z 25009KT 9999 FEW015CB BKN035 29/21 A2998 RMK VIS 7000SW HZ RN DST N HZ ARND BECMG 5000 -TSRA=
201004202100 METAR MROC 202100Z 25009KT 9999 SCT015 BKN250 28/21 A2996 RMK HZ ARND RN DST N BECMG=
201004202200 METAR MROC 202200Z 26008KT 9999 -RA SCT015 SCT250 26/21 A2995 RMK HZ ARND BECMG=
201004202300 METAR MROC 202300Z 00000KT 9999 SCT025 SCT250 25/22 A2997 RERA RMK HZ SW=
201004210000 METAR MROC 210000Z 00000KT 9999 FEW025 SCT070 BKN250 25/22 A2998 RMK HZ ARND FU DST E BECMG=
201004210100 METAR MROC 210100Z 00000KT 9999 FEW030 SCT070 BKN250 24/22 A3001 RMK HZ ARND=
201004210200 METAR MROC 210200Z 00000KT 9999 FEW030 SCT070 BKN250 23/22 A3003 RMK HZ ARND=
201004210300 METAR MROC 210300Z 09003KT CAVOK 23/19 A3003 RMK SCT120 BKN250 BECMG=
201004210400 METAR MROC 210400Z 09005KT CAVOK 22/18 A3004 RMK SCT120 BKN250 BECMG=
201004210500 METAR MROC 210500Z 09006KT CAVOK 22/19 A3003 RMK SCT120 SCT250 BECMG=
201004210600 METAR MROC 210600Z 10008KT CAVOK 22/18 A3000 RMK BKN250 BECMG=
201004210700 METAR MROC 210700Z 07007KT CAVOK 22/18 A2999 RMK SCT120 SCT250 BECMG=
201004210800 METAR MROC 210800Z 07007KT CAVOK 21/18 A2996 RMK SCT120 SCT250 BECMG=
201004210900 METAR MROC 210900Z 08003KT CAVOK 21/16 A2995 RMK SCT120 SCT250 BECMG=
201004211000 METAR MROC 211000Z 12007KT CAVOK 23/16 A2996 RMK FEW120 BKN250 BECMG=
201004211100 METAR MROC 211100Z 05004KT CAVOK 20/16 A2998 RMK SCT120 SCT250 BECMG=
201004211200 METAR MROC 211200Z 04007KT CAVOK 21/16 A3000 FEW120 BKN250 BECMG=
201004211300 METAR MROC 211300Z 06007KT CAVOK 23/15 A3001 RMK BKN250 BECMG=
201004211400 METAR MROC 211400Z 10009KT 070V140 CAVOK 27/16 A3001 RMK FEW120 BKKN250=
201004211500 METAR MROC 211500Z 12010KT CAVOK 28/15 A3002 RMK FEW120 BKN250 BECMG=
201004211600 METAR MROC 211600Z 12008KT CAVOK 30/15 A3002 RMK SCT120 BKN250 BECMG=
201004211700 METAR MROC 211700Z 15008KT 9999 FEW040 SCT120 BKN250 31/15 A3001 BECMG=
201004211800 METAR MROC 211800Z VRB02KT 9999 FEW040 SCT120 BKN250 31/14 A2998 BECMG 24007 KT=
201004211900 METAR MROC 211900Z 27008KT 9999 FEW040 SCT120 BKN250 31/20 A2994 BECMG=
201004212000 METAR MROC 212000Z 22010KT 9999 FEW040 SCT120 BKN250 29/21 A2993 BECMG=
201004212100 METAR MROC 212100Z 22009KT 9999 FEW020TCU SCT030 BKN250 28/21 A2991 RMK HZY W BECMG=
201004212200 METAR MROC 212200Z 05004G14KT 9999 FEW020CB SCT030 BKN250 26/20 A2994 RMK RN DST N BECMG RA=
201004212300 METAR MROC 212300Z 00000KT 9999 -DZ SCT030 BKN250 24/22 A2993 BECMG=
201004220000 METAR MROC 220000Z 00000KT 9999 SCT030 BKN250 23/22 A2995 REDZ RMK HZ LEVE ARND BECMG=
201004220100 METAR MROC 220100Z 00000KT 9999 FEW040 BKN250 23/22 A2995 BECMG=
201004220200 METAR MROC 220200Z 00000KT 9999 FEW040 SCT250 22/20 A2996 BECMG=
201004220300 METAR MROC 220300Z 00000KT CAVOK 22/18 A2997 RMK SCT250 BECMG=
201004220400 METAR MROC 220400Z 08005KT CAVOK 23/17 A2997 BECMG=
201004220500 METAR MROC 220500Z 07002KT CAVOK 21/17 A2998 BECMG=
201004220600 METAR MROC 220600Z 07003KT CAVOK 22/16 A2996 BECMG=
201004220700 METAR MROC 220700Z 00000KT CAVOK 21/16 A2995 BECMG=
201004220800 METAR MROC 220800Z 08003KT CAVOK 21/17 A2993 BECMG=
201004220900 METAR MROC 220900Z 00000KT CAVOK 20/16 A2993 BECMG=
201004221000 METAR MROC 221000Z 06008KT CAVOK 21/16 A2993 BECMG=
201004221100 METAR MROC 221100Z 08007KT CAVOK 20/17 A2994 BECMG=
201004221200 METAR MROC 221200Z 05010KT CAVOK 20/15 A2995 RMK SCT250 BECMG=
201004221300 METAR MROC 221300Z 09006KT CAVOK 24/17 A2997 RMK BKN250 HZ QUAD W BECMG=
201004221400 METAR MROC 221400Z 04004KT CAVOK 26/17 A2998 RMK BKN250 HZ QUAD W BECMG 24008KT=
201004221500 METAR MROC 221500Z 12006KT 100V160 CAVOK 28/16 A2999 RMK BKN250 LGT HZ QUAD W BECMG=
201004221600 METAR MROC 221600Z 13010KT CAVOK 30/16 A2998 RMK BKN250 VEL MAX VTO 15KT BECMG=
201004221700 METAR MROC 221700Z 13008KT CAVOK 31/16 A2996 RMK BKN250 LGT HZ QUAD W BECMG=
201004221800 METAR MROC 221800Z 25012KT 9999 FEW045 BKN250 30/20 A2994 BECMG=
201004221900 METAR MROC 221900Z 25008KT 9999 FEW040 SCT250 30/20 A2991 RMK HZ QUAD W BECMG=
201004222000 METAR MROC 222000Z 26008KT 9999 SCT040 31/21 A2989 RMK FEW250 HZ QUAD W/N BECMG=
201004222100 METAR MROC 222100Z 23008KT 9999 FEW025TCU SCT040 29/21 A2989 RMK FEW100 HZ LGT ARND BECMG=
201004222200 METAR MROC 222200Z 24010KT 9999 FEW025TCU SCT035 28/22 A2989 RMK HZ ARND TUC N/E BECMG=
201004222300 METAR MROC 222300Z 24006KT 9999 -RA FEW020TCU FEW035 SCT110 26/22 A2990 RMK TCU OVC STND HZ ARND BECMG=
201004230000 METAR MROC 230000Z 00000KT 9999 FEW020 BKN250 24/22 A2993 RERA RMK FEW110 TCU DST S/W HZ ARND BECMG=
201004230100 METAR MROC 230100Z 26004KT 9999 FEW020 SCT250 24/22 A2994 RMK FEW030 HZ LGT ARND=
201004230200 METAR MROC 230200Z 09007KT 9999 FEW030 SCT250 24/20 A2996 BECMG=
201004230300 METAR MROC 230300Z 11006KT 080V140 9999 FEW030 SCT250 25/18 A2997 BECMG=
201004230400 METAR MROC 230400Z 10005KT 9999 FEW030 SCT250 25/17 A3000 RMK LTNG DST SW BECMG=
201004230500 METAR MROC 230500Z 09008KT 9999 FEW030 SCT100 25/16 A2999 RMK SCT250 BECMG=
201004230600 METAR MROC 230600Z 10009KT 9999 FEW030 SCT100 24/16 A2996 RMK SCT250 LTNG DST SW BECMG=
201004230700 METAR MROC 230700Z 13010KT 9999 FEW030 SCT100 BKN250 24/17 A2994 BECMG=
201004230800 METAR MROC 230800Z 12008KT CAVOK 23/16 A2993 RMK SCT100 BKN250 BECMG=
201004230900 METAR MROC 230900Z 13008KT CAVOK 23/17 A2992 RMK SCT100 BKN250 BECMG=
201004231000 METAR MROC 231000Z 11004KT CAVOK 23/17 A2993 RMK SCT100 BKN250 BECMG=
201004231100 METAR MROC 231100Z 09007KT CAVOK 23/17 A2995 RMK SCT100 BKN250 BECMG=
201004231200 METAR MROC 231200Z 12006KT CAVOK 22/18 A2996 RMK SCT100 BKN250 BECMG=
201004231300 METAR MROC 231300Z 10004KT CAVOK 24/18 A2997 RMK FEW120 BKN250 BECMG=
201004231400 METAR MROC 231400Z 13011KT CAVOK 26/19 A2998 RMK FEW120 BKN250 BECMG=
201004231500 METAR MROC 231500Z 12011KT CAVOK 28/18 A2998 RMK SCT080 SCT250 BECMG=
201004231600 METAR MROC 231600Z 13009KT 9999 FEW045 SCT250 30/18 A2997 RMK FEW080 BECMG=
201004231700 METAR MROC 231700Z 11011KT 9999 SCT045 30/19 A2997 RMK FEW100 FEW250 BECMG=
201004231721 METAR MROC 231721Z 25004KT 9999 FEW030TCU SCT045 SCT110 28/20 A2997 BECMG=
201004231800 METAR MROC 231800Z 24009KT 9999 FEW030 SCT040 28/21 A2996 RMK FEW110 BECMG=
201004231900 METAR MROC 231900Z 27005KT 9999 FEW030TCU SCT040 29/20 A2993 RMK FEW250 BECMG=
201004232000 METAR MROC 232000Z 14007KT 9999 FEW030TCU BKN040 31/20 A2990 RMK RN DST S BECMG=
201004232100 METAR MROC 232100Z 13006KT 9999 VCSH FEW025TCU SCT040 BKN250 29/19 A2989 PCPN NW NNW BECMG 24006KT=
201004232200 METAR MROC 232200Z 27010KT 9999 RA FEW015CB SCT025 SCT040 27/22 A2991 VIS N NE 7KMS BECMG 3000 SHRA=
201004232300 METAR MROC 232300Z 00000KT 9999 SCT030 SCT045 25/23 A2992 RERA RMK LGT HZ ARND BECMG=
201004240000 METAR MROC 240000Z 09004KT 9999 SCT035 BKN070 25/21 A2994 RMK PCPN DST ENE BECMG=
201004240100 METAR MROC 240100Z 10005KT 9999 FEW035 BKN080 24/21 A2997 RERA BECMG=
201004240200 METAR MROC 240200Z 13009KT 9999 FEW030 BKN250 24/20 A2997 RMK FEW070 BECMG=
201004240300 METAR MROC 240300Z 12007KT 9999 FEW040 SCT250 24/20 A2999 RMK FEW090 BECMG=
201004240400 METAR MROC 240400Z 11009KT 080V140 9999 FEW040 BKN250 24/19 A3000 BECMG=
201004240500 METAR MROC 240500Z 13007KT 9999 FEW040 SCT250 23/19 A2999 BECMG=
201004240600 METAR MROC 240600Z 13008KT 9999 FEW040 SCT250 23/19 A2998 BECMG=
201004240700 METAR MROC 240700Z 12005KT 9999 FEW040 SCT250 23/18 A2996 BECMG=
201004240800 METAR MROC 240800Z 14009KT CAVOK 23/18 A2994 SCT250 BECMG=
201004240900 METAR MROC 240900Z 12007KT CAVOK 23/18 A2993 RMK BKN250 BECMG=
201004241000 METAR MROC 241000Z 13006KT CAVOK 22/18 A2993 RMK OVC250 BECMG=
201004241100 METAR MROC 241100Z 14004KT CAVOK 23/18 A2996 RMK SCT120 OVC250 BECMG=
201004241200 METAR MROC 241200Z 00000KT CAVOK 22/18 A2997 RMK SCT120 BKN250 BECMG=
201004241300 METAR MROC 241300Z 07003KT CAVOK 24/19 A2999 RMK SCT140 BKN250 BECMG=
201004241400 METAR MROC 241400Z 12006KT CAVOK 26/18 A3002 RMK SCT140 BKN250 BECMG=
201004241500 METAR MROC 241500Z 11008KT CAVOK 28/18 A3002 RMK BKN250 BECMG=
201004241600 METAR MROC 241600Z 15003KT 9999 FEW040 BKN250 30/17 A3001 BECMG 24006KT=
201004241700 METAR MROC 241700Z 24007KT 9999 SCT040 SCT250 30/20 A2999 BECMG=
201004241800 METAR MROC 241800Z 24008KT 9999 SCT040 SCT250 31/21 A2997 BECMG=
201004241900 METAR MROC 241900Z 25010KT 9999 FEW025TCU SCT035 BKN250 30/21 A2995 BECMG 8000 VCSH=
201004242000 METAR MROC 242000Z 25009KT 9999 FEW025TCU SCT035 BKN250 29/22 A2993 RMK HZY BECMG 8000 VCSH=
201004242100 METAR MROC 242100Z 24012KT 9999 SCT020TCU SCT035 28/23 A2993 RMK SCT250 RN DST NE E BECMG 6000 RA=
201004242200 METAR MROC 242200Z 24010KT 5000 -RA BR FEW003 SCT030 BKN070 23/23 A2995 BECMG 2000 -RA BR=
201004242300 METAR MROC 242300Z 24002KT 3000 -RA BR SCT003 SCT030 23/23 A2997 BECMG=
201004250000 METAR MROC 250000Z 00000KT 5000 BR FEW003 SCT005 SCT015 23/23 A2999 RMK VIS 8000 N E SE BECMG -RA BR=
201004250100 METAR MROC 250100Z 00000KT 8000 BR SCT004 SCT015 23/23 A3001 RMK VIS 5000SW BECMG 4000 BR=
201004250200 METAR MROC 250200Z 00000KT 8000 SCT004 SCT012 23/23 A3002 RMK VIS 6000SW DUE LOW ST BECMG=
201004250300 METAR MROC 250300Z 00000KT 7000 BR FEW003 BKN012 23/23 A3003 BECMG=
201004250400 METAR MROC 250400Z 00000KT 9999 VCFG FEW003 BKN020 23/23 A3004 RMK VIS 8KM SW/W DUE ST LTNG IN THE CLOUD BECMG=
201004250500 METAR MROC 250500Z 00000KT 9999 VCFG FEW005 SCT015 23/23 A3004 RMK SCT025 VIS S/SW 8KM DUE ST BECMG=
201004250600 METAR MROC 250600Z 00000KT 9999 VCFG FEW005 BKN015 23/23 A3001 RMK VIS 15KM ARND DUE ST BECMG=
201004250700 METAR MROC 250700Z 00000KT 9999 -DZ VCFG FEW003 BKN012 22/22 A2999 RMK LTNG IN THE CLOUD VIS 15KM ARND DUE ST BECMG -RA=
201004250800 METAR MROC 250800Z 00000KT 9999 FEW012 BKN025 22/21 A2998 REDZ RMK ST SSE LTNG DST S BECMG=
201004250900 METAR MROC 250900Z 00000KT 9999 FEW015 BKN025 22/22 A2997 BECMG=
201004251000 METAR MROC 251000Z 00000KT 9999 VCFG FEW006 BKN025 22/22 A2998 RMK VIS S/SW 8KM DUE ST BECMG 6000 BR=
201004251100 METAR MROC 251100Z 00000KT 6000 DZ BR FEW003 BKN012 21/21 A3000 RMK VIS S/SW 3KM DUE ST/DZ BECMG 4000 -RA BR=
201004251200 METAR MROC 251200Z 00000KT 9999 FEW004 SCT030 21/21 A2999 REDZ RMK FEW080 ST SE/SSE BECMG=
201004251300 METAR MROC 251300Z 00000KT 9999 FEW040 BKN090 22/22 A3001 BECMG 24006KT=
201004251400 METAR MROC 251400Z 12006KT CAVOK 26/21 A3002 RMK FEW100 BKN250 BECMG=
201004251500 METAR MROC 251500Z 10002KT CAVOK 28/19 A3000 RMK BKN250 BECMG=
201004251600 METAR MROC 251600Z 25006KT 9999 FEW035 BKN250 29/22 A2999 RMK FEW100 BECMG=
201004251700 METAR MROC 251700Z 25007KT 9999 FEW035 BKN250 30/21 A2999 RMK FEW120 BECMG=
201004251800 METAR MROC 251800Z 22006KT 9999 3000S -TSRA FEW015CB SCT035 29/21 A2997 BECMG 4000 TSRA=
201004251900 METAR MROC 251900Z 23002KT 9999 SCT030 BKN100 26/23 A2995 RERA BECMG=
201004252000 METAR MROC 252000Z 24008KT 9999 FEW020TCU SCT030 SCT100 27/23 A2992 RMK RN DST ARND BECMG=
201004252100 METAR MROC 252100Z 21007KT 3000 R07/1000 RA FEW015 BKN030 23/23 A2993 BECMG=
201004252200 METAR MROC 252200Z 00000KT 8000 2000SW -DZ BR FEW002 SCT015 BKN030 21/20 A2995 BECMG 4000 RA=
201004252300 METAR MROC 252300Z 07005KT 9999 SCT030 SCT100 21/21 A2994 REDZ BECMG=
201004260000 METAR MROC 260000Z 00000KT 9999 FEW030 BKN100 21/21 A2996 BECMG=
201004260100 METAR MROC 260100Z 00000KT 9999 FEW030 BKN100 22/21 A2999 BECMG=
201004260200 METAR MROC 260200Z 00000KT 9999 FEW030 BKN100 22/21 A3000 BECMG=
201004260300 METAR MROC 260300Z 00000KT 9999 SCT030 BKN110 22/22 A3003 BECMG=
201004260400 METAR MROC 260400Z 00000KT 9999 -RA SCT030 BKN100 22/22 A3005 BECMG=
201004260500 METAR MROC 260500Z 00000KT 9999 -RA FEW010 SCT030 BKN100 21/21 A3005 BECMG=
201004260600 METAR MROC 260600Z 25009KT 9999 -RA FEW008 BKN080 21/20 A3002 BECMG=
201004260700 METAR MROC 260700Z 00000KT 9999 DZ FEW015 BKN080 21/20 A2999 RERA BECMG=
201004260800 METAR MROC 260800Z 00000KT CAVOK 20/19 A2996 REDZ BKN120 BECMG=
201004260900 METAR MROC 260900Z 06004KT CAVOK 21/20 A2996 RMK BKN140 BECMG=
201004261000 METAR MROC 261000Z 07003KT CAVOK 21/20 A2996 RMK BKN140 BECMG=
201004261100 METAR MROC 261100Z 09003KT CAVOK 21/19 A2997 RMK BKN140 BECMG=
201004261200 METAR MROC 261200Z 08006KT CAVOK 21/19 A2997 RMK BKN120 BECMG=
201004261201 METAR MROC 261201Z 08006KT CAVOK 21/19 A2997 RMK BKN120 ERUPCION DEL VOLCAN TURRIALBA BECMG=
201004261300 METAR MROC 261300Z 00000KT CAVOK 24/20 A2998 RMK FEW120 BKN250 BECMG=
201004261400 METAR MROC 261400Z 09008KT CAVOK 27/19 A2999 RMK BKN250 BECMG=
201004261500 METAR MROC 261500Z 04005KT CAVOK 29/20 A2998 RMK BKN250 HZ DST W BECMG 22007 KT=
201004261600 METAR MROC 261600Z 14007KT CAVOK 29/19 A2996 RMK BKN250 HZ DST W BECMG 22007 KT=
201004261700 METAR MROC 261700Z 24008KT 9999 FEW040 BKN250 28/22 A2997 RMK HZ W BECMG=
201004261800 METAR MROC 261800Z 26009KT 9999 FEW040 BKN250 29/23 A2996 RMK HZ DST W BECMG=
201004261900 METAR MROC 261900Z 25012KT 9999 FEW030TCU BKN250 28/23 A2994 RMK CB N DST S BECMG VCSH=
201004262000 METAR MROC 262000Z 24013KT 9999 VCSH SCT025TCU SCT100 BKN250 26/23 A2993 RMK CB RN DST S SW=
201004262100 METAR MROC 262100Z 25009KT 9999 VCTS FEW020CB SCT030 BKN250 25/23 A2993 RERA RMK FEW100 BECMG=
201004262200 METAR MROC 262200Z 22005KT 9999 -RA VCSH SCT015TCU SCT030 BKN110 24/21 A2993 RMK VIS 7KM N DUE LOW ST BECMG=
201004262300 METAR MROC 262300Z 22007KT 9999 -RA VCSH FEW015 BKN035 23/21 A2996 RMK VIS 7KM N DUE LOW ST BECMG=
201004270000 METAR MROC 270000Z 23006KT 9999 VCTS SCT009 BKN030 23/21 A2999 RMK VIS 7KM N DUE LOW ST BECMG=
201004270100 METAR MROC 270100Z VRB02KT 9999 -RA SCT005 BKN025 22/22 A3002 RETS RMK VIS 6KM NW/N DUE LOW ST LTNG DST NE BECMG=
201004270200 METAR MROC 270200Z 00000KT 9999 FEW010 BKN025 22/21 A3005 BECMG=
201004270300 METAR MROC 270300Z 00000KT 9999 SCT025 SCT100 22/21 A3006 BECMG=
201004270400 METAR MROC 270400Z 00000KT 9999 SCT025 SCT100 22/21 A3007 BECMG=
201004270500 METAR MROC 270500Z 00000KT 9999 SCT020 SCT100 22/21 A3006 BECMG=
201004270600 METAR MROC 270600Z 00000KT 9999 SCT020 SCT100 22/21 A3003 BECMG=
201004270700 METAR MROC 270700Z 00000KT 9999 BKN020 22/21 A3001 BECMG=
201004270800 METAR MROC 270800Z 00000KT 9999 FEW020 22/21 A3000 BECMG=
201004270900 METAR MROC 270900Z 08004KT CAVOK 22/20 A2998 RMK FEW100 BECMG=
201004271000 METAR MROC 271000Z 00000KT CAVOK 21/20 A2997 RMK FEW100 BECMG=
201004271100 METAR MROC 271100Z 04004KT CAVOK 21/19 A2997 RMK FEW060 SCT120 BECMG=
201004271200 METAR MROC 271200Z 00000KT CAVOK 21/20 A3000 RMK FEW060 SCT250 LINEA TCU DST SW BECMG=
201004271300 METAR MROC 271300Z 10003KT CAVOK 22/20 A3004 RMK SCT050 BKN120 BECMG=
201004271400 METAR MROC 271400Z 00000KT CAVOK 25/20 A3005 RMK FEW060 BKN110 HZ W BECMG=
201004271500 METAR MROC 271500Z 00000KT CAVOK 27/20 A3007 RMK FEW050 BKN110 HZ ARND BECMG 24005KT=
201004271538 METAR MROC 271538Z 25007KT 9999 FEW045 SCT110 BKN250 27/22 A3006 RMK HZ ARND BECMG=
201004271600 METAR MROC 271600Z 26007KT 9999 FEW040 SCT120 BKN250 28/22 A3006 HZ ARND BECMG=
201004271700 METAR MROC 271700Z 26010KT 9999 SCT035 BKN120 27/22 A3004 HZ ARND BECMG=
201004271800 METAR MROC 271800Z 26009KT 9999 FEW025TCU SCT035 BKN250 29/22 A3002 HZ ARND BECMG=
201004271900 METAR MROC 271900Z 23010KT 9999 4000N +RA FEW025TCU SCT030 BKN250 26/21 A3000 BECMG 3000 -TSRA=
201004271940 METAR MROC 271940Z 27014KT 8000 TSRA SCT015CB BKN100 27/24 A2998=
201004272000 METAR MROC 272000Z 25010KT 9999 -TSRA SCT015CB BKN030 24/22 A2998 RMK VIS 5KM N BECMG=
201004272023 METAR MROC 272023Z 00000KT 1500 0600SW TSRA SCT006 BKN015 22/22 A2997 BECMG=
201004272100 METAR MROC 272100Z 00000KT 1000 0500SW +RA SCT002 BKN015 22/22 A2998 BECMG=
201004272200 METAR MROC 272200Z 24005KT 9999 -DZ VCSH FEW005 SCT025 21/21 A2998 RMK VIS SW 8KM DUE RN BECMG0=
201004272300 METAR MROC 272300Z 24007KT 9999 4000SW -RA FEW005 SCT015 20/20 A3000 RMK SCT035 VIS W/NW/N 5KM DUE RN BECMG=
201004280000 METAR MROC 280000Z 35005KT 9999 -RA FEW005 SCT025 21/21 A3002 RMK SCT080 VIS SE 6KM DUE RN BECMG=
201004280100 METAR MROC 280100Z 17002KT 9999 -RA SCT025 BKN100 20/20 A3005 RMK ST SSE BECMG=
201004280200 METAR MROC 280200Z 02002KT 9999 FEW020 BKN030 21/21 A3008 RERA RMK ST SSE BECMG=
201004280300 METAR MROC 280300Z 29003KT 9999 FEW020 SCT030 BKN080 21/21 A3010 RMK ST SSE BECMG=
201004280400 METAR MROC 280400Z 32003KT 9999 FEW030 BKN080 21/21 A3011 RMK ST SSE BECMG=
201004280500 METAR MROC 280500Z 03003KT 9999 FEW030 BKN100 21/21 A3010 RMK ST S SE BECMG=
201004280600 METAR MROC 280600Z 14004KT CAVOK 21/21 A3007 RMK BKN100 ST S SE BECMG=
201004280700 METAR MROC 280700Z 09005KT CAVOK 21/21 A3005 BECMG=
201004280740 METAR MROC 280740Z 07005KT CAVOK 21/20 A3002 BECMG=
201004280800 METAR MROC 280800Z 07005KT CAVOK 21/20 A3002 BECMG=
201004280900 METAR MROC 280900Z 09003KT CAVOK 21/20 A3002 BECMG=
201004281000 METAR MROC 281000Z 06004KT CAVOK 20/20 A3001 BECMG=
201004281059 METAR MROC 281059Z 05004KT CAVOK 20/19 A3003 RMK SCT250 BECMG=
201004281100 METAR MROC 281100Z 05004KT CAVOK 20/19 A3003 RMK SCT250 BECMG=
201004281200 METAR MROC 281200Z 06005KT CAVOK 20/19 A3003 RMK SCT250 BECMG=
201004281300 METAR MROC 281300Z 08003KT CAVOK 22/19 A3006 RMK SCT100 FEW250 HZ LGT ARND0 BECMG=
201004281400 METAR MROC 281400Z 00000KT 9999 FEW045 SCT110 25/20 A3008 RMK HZ LGT ARND BECMG 24006KT=
201004281500 METAR MROC 281500Z 00000KT 9999 FEW045 SCT260 27/21 A3008 RMK FEW110 HZ LGT ARND TCU DST E BECMG 24006KT=
201004281600 METAR MROC NIL=
201004281700 METAR MROC 281700Z 16004KT 9999 FEW035 SCT260 29/21 A3007 RMK FEW045 HZ LGT ARND BECMG=
201004281800 METAR MROC 281800Z 24011KT 9999 FEW030TCU SCT110 SCT260 29/23 A3004 RMK CB DST S/SW RN DST S BECMG=
201004281900 METAR MROC 281900Z 21010KT 9999 -SHRA FEW015CB SCT030 SCT100 23/20 A3001 RMK VIS 6KM W/NW DUE CB/RASH BECMG 6000 -TSRA=
201004282000 METAR MROC 282000Z 30005KT 9999 4000W -TSRA FEW10CB BKN025 22/19 A3002 RMK VIS 7KM SW BECMG 5000=
201004282100 METAR MROC 282100Z 00000KT 8000 VCSH SCT010 BKN020 23/21 A3000 RMK LGT HZ ARND BECMG 5000 RA=
201004282200 METAR MROC 282200Z 26004KT 5000 -RA BR SCT008 BKN020 22/22 A3001 BECMG=
201004282300 METAR MROC 282300Z 23004KT 5000 -RA BR SCT007 BKN020 22/22 A3003 BECMG=
201004290000 METAR MROC 290000Z 00000KT 2500 RA VCST FEW010CB SCT020 BKN035 21/21 A3006 BECMG 5000 -RA BR=
201004290001 METAR MROC 290001Z 00000KT 2500 RA VCTS FEW010CB SCT020 BKN035 21/21 A3006 BECMG 5000 -RA BR=
201004290100 METAR MROC 290100Z 09004KT 5000 -RA BR FEW005 SCT020 BKN100 21/21 A3007 RMK VIS E ENE UNL BECMG=
201004290200 METAR MROC 290200Z 07004KT CAVOK 21/21 A3011 RERA RMK SCT100 BKN140 BECMG=
201004290300 METAR MROC 290300Z 00000KT 9999 BR FEW001 BKN070 21/21 A3012 RMK VIS 8KM SW BECMG=
201004290400 METAR MROC 290400Z 00000KT 9000 -DZ BR FEW040 OVC090 21/21 A3014 RMK VIS 7KM SW/W BECMG=
201004290500 METAR MROC 290500Z 00000KT 7000 3500SW BR SCT002 BKN070 21/21 A3014 RMK VIS NE UNLM BECMG=
201004290600 METAR MROC 290600Z 00000KT 9999 BR FEW003 OVC250 21/21 A3011 BECMG=
201004290700 METAR MROC 290700Z 10004KT 9999 BR OVC250 20/20 A3007 BECMG=
201004290800 METAR MROC 290800Z 06005KT CAVOK 21/21 A3004 RMK OVC250 BECMG=
201004290900 METAR MROC 290900Z 24002KT CAVOK 21/21 A3005 BKN250 BECMG0=
201004291000 METAR MROC 291000Z 00000KT 8000 4000SW BR FEW005 SCT015 BKN250 20/20 A3005 BECMG 9999 BECMG=
201004291100 METAR MROC 291100Z 00000KT 4000 2000SW BR FEW001 BKN003 20/20 A3006 BECMG=
201004291200 METAR MROC 291200Z 10004KT 2000 BR SCT001 SCT025 BKN250 20/20 A3007 BECMG 6000 BR=
201004291300 METAR MROC 291300Z 07003KT CAVOK 21/21 A3008 RMK FEW120 BKN250 HZY BECMG=
201004291400 METAR MROC 291400Z 06006KT CAVOK 24/21 A3008 RMK SCT120 SCT250 HZY BECMG=
201004291500 METAR MROC 291500Z 36004KT CAVOK 26/20 A3007 RMK SCT120 SCT250 HZY BECMG 24006KT=
201004291600 METAR MROC 291600Z 11005KT CAVOK 27/20 A3007 RMK BKN120 HZY BECMG 24006KT=
201004291700 METAR MROC 291700Z 24008KT 9999 FEW030 BKN120 27/22 A3007 RMK HZY BECMG=
201004291800 METAR MROC 291800Z 24010KT 9999 4000S RA SCT030 BKN120 25/23 A3006 BECMG=
201004291900 METAR MROC 291900Z 22004KT 5000 -RA VCTS VCSH FEW005 FEW012CB BKN100 22/22 A3004 BECMG=
201004292000 METAR MROC 292000Z 01003KT 9999 4000SW DZ BR VCSH FEW005 SCT030 BKN100 22/21 A3001 RMK CB DST W BECMG 5000 -RA BR=
201004292100 METAR MROC 292100Z 00000KT 3000 +RA BR SCT003 BKN015 23/23 A3001 BECMG 1000 +RA BR=
201004292200 METAR MROC 292200Z 07003KT 9999 SCT020 BKN100 22/22 A3000 RMK RN DST NW LOW ST SW BECMG=
201004292300 METAR MROC 292300Z 00000KT 9999 FEW030 OVC100 22/21 A3000 RMK RN DST SW NW LOW ST SW BECMG 5000 -RA BR=
201004300000 METAR MROC 300000Z 05002KT 9999 BR FEW002 SCT035 BKN100 22/21 A3002 VIS 5000SW RN DST SW BECMG 4000 -RA BR=
201004300100 METAR MROC 300100Z 23002KT 9999 4000SW -DZ BR FEW001 SCT100 22/22 A3004 RMK BECMG 2000 DZ BR=
201004300200 METAR MROC 300200Z 27003KT 9999 FEW002 SCT100 21/21 A3006 RMK FEW006 VIS 6000SW DUE LOW ST BECMG=
201004300300 METAR MROC 300300Z 00000KT 9999 BR FEW002 SCT020 21/21 A3007 RMK VIS=
201004300400 METAR MROC NIL=
201004300500 METAR MROC 300500Z 00000KT 9999 3000W BR FEW001 BKN110 21/21 A3008 RMK FEW030 ST IN THE STND BECMG=
201004300600 METAR MROC 300600Z 00000KT 9999 VCFG FEW003 SCT030 21/21 A3007 RMK VIS SW/W 8KM DUE ST BECMG=
201004300700 METAR MROC 300700Z 00000KT 9999 VCFG FEW003 SCT120 21/21 A3004 RMK FEW030 VIS SW/W 8KM DUE ST BECMG=
201004300800 METAR MROC 300800Z 00000KT 9999 VCFG FEW003 BKN120 20/20 A3003 RMK VIS S/SW/W 8KM DUE ST BECMG=
201004300900 METAR MROC 300900Z 07003KT 9999 FEW003 SCT120 20/20 A3001 RMK SCT260 VIS S/W 8KM DUE ST BECMG=
201004301000 METAR MROC 301000Z 10003KT CAVOK 20/20 A3001 RMK SCT120 SCT260 ST S/SW BECMG=
201004301100 METAR MROC 301100Z 06004KT CAVOK 20/19 A3001 RMK SCT120 FEW260 BECMG=
201004301200 METAR MROC 301200Z 07004KT CAVOK 21/19 A3002 RMK SCT120 FEW260 LINE TCU/CB DST SW/W BECMG=
201004301300 METAR MROC 301300Z 09006KT CAVOK 23/20 A3003 RMK FEW120 BKN250 TCU DST SW BECMG=
201004301400 METAR MROC 301400Z 07003KT CAVOK 26/20 A3004 RMK FEW120 BKN250 TCU DST SW BECMG 24006KT=
201004301500 METAR MROC 301500Z 25006KT 9999 FEW035 BKN250 26/21 A3005 BECMG=
201004301600 METAR MROC 301600Z 25007KT 9999 FEW035 BKN250 27/21 A3004 BECMG=
201004301700 METAR MROC 301700Z 23008KT 9999 FEW020TCU SCT035 BKN250 27/22 A3004 BECMG=
201004301800 METAR MROC 301800Z 23009KT 9999 SCT020CB SCT030 26/22 A3001 RMK RN DST NE E SE BECMG 5000 -TSRA=
201004301900 METAR MROC 301900Z 24009KT 9999 VCSH SCT020CB BKN030 25/22 A2997 RMK=
201004301945 METAR MROC 301945Z 03014KT 9999 2000W -RA FEW001 SCT025 BKN100 24/24 A2980=
201004302000 METAR MROC 302000Z 25012KT 3000 SHRA SCT010CB BKN015 24/22 A2996 RMK 9999 N BECMG 2000 TS SHRA=
201004302100 METAR MROC 302100Z 20005KT 3000 RA FEW003 SCT015 BKN030 21/21 A2996 BECMG 2000 -RA BR=
201004302200 METAR MROC 302200Z 24003KT 2000 RA BR FEW001 SCT015 BKN030 21/21 A2997 BECMG 1000 -RA BR=
201004302300 METAR MROC 302300Z 00000KT 1500 RA BR FEW001 SCT015 BKN030 21/21 A2998 BECMG 0500 FG=
201005010000 METAR MROC 010000Z 10003KT 5000 2000SW -RA BR FEW001 SCT030 OVC100 20/20 A3000 RMK VIS S UNL BECMG=
201005010100 METAR MROC 010100Z 08003KT 9999 -RA SCT030 OVC100 20/20 A3002 BECMG=
201005010200 METAR MROC 010200Z 14002KT 9999 -RA FEW030 OVC100 20/20 A3004 BECMG=
201005010300 METAR MROC 010300Z 00000KT 8000 -RA OVC100 21/21 A3007 BECMG=
201005010400 METAR MROC 010400Z 07004KT 9999 -RA OVC100 20/20 A3007 BECMG=
201005010500 METAR MROC 010500Z 13004KT CAVOK 20/20 A3005 RMK OVC100 BECMG=
201005010600 METAR MROC 010600Z 09003KT CAVOK 20/20 A3001 RMK OVC120 BECMG=
201005010700 METAR MROC 010700Z 01003KT CAVOK 20/19 A2999 RMK OVC120 BECMG=
201005010800 METAR MROC 010800Z 00000KT CAVOK 20/20 A2999 RMK OVC120 BECMG=
201005010900 METAR MROC 090100Z 07004KT CAVOK 19/19 A2999 RMK BKN120 BECMG=
201005011000 METAR MROC 011000Z 04004KT CAVOK 19/18 A2999 RMK BKN120 BECMG=
201005011100 METAR MROC 011100Z 09004KT CAVOK 19/18 A3000 RMK SCT120 BKN250 CB DST SW WSW BECMG=
201005011200 METAR MROC 011200Z 08004KT CAVOK 20/19 A3001 RMK FEW120 BKN250 CB DST SSW SW BECMG=
201005011300 METAR MROC 011300Z 10004KT CAVOK 22/20 A3002 RMK FEW120 BKN250 BECMG=
201005011400 METAR MROC 011400Z 00000KT CAVOK 24/20 A3003 RMK BKN250 BECMG 22006KT=
201005011425 METAR MROC 011425Z 25005KT CAVOK 25/20 A3004 BECMG=
201005011500 METAR MROC 011500Z 26005KT 9999 FEW040 OVC250 25/20 A3005 BECMG=
201005011600 METAR MROC 011600Z 24006KT 9999 FEW035 BKN250 26/21 A3005 BECMG=
201005011700 METAR MROC 011700Z 23006KT 9999 FEW030 BKN250 26/21 A3004 BECMG=
201005011800 METAR MROC 011800Z 23007KT 9999 FEW030 BKN250 27/21 A3002 RMK CB DST SW BECMG=
201005011900 METAR MROC 011900Z 25009KT 9999 SCT030 BKN250 28/21 A3000 RMK TCU RN DST ENE BECMG=
201005012000 METAR MROC 012000Z 24012KT 9999 SCT030 BKN250 28/22 A2997 RMK TCU RN DST E NE S SW BECMG 7000 -RA=
201005012100 METAR MROC 012100Z 24011KT 9999 SCT030 BKN250 26/22 A2995 RMK FEW100 TCU DST QUAD W BECMG=
201005012200 METAR MROC 012200Z 25015KT 9999 FEW025TCU BKN030 24/23 A2995 RMK FEW100 VIS 7KM NW/N DUE LOW ST BECMG=
201005012300 METAR MROC 012300Z 26010KT 9999 SCT020 BKN040 23/22 A2997 RMK VIS 6KM=
201005020000 METAR MROC 020000Z 26006KT 7000 3000N -TSRA SCT002 BKN015 21/21 A2999 RMK VIS 4KM SW VIS E/S UNLD BECMG=
201005020100 METAR MROC 020100Z 25008KT 9000 3000N -DZ SCT002 BKN010 21/21 A3001 RMK LOW ST QUAD N BECMG=
201005020200 METAR MROC 020200Z 30003KT 9999 SCT002 BKN030 22/22 A3003 RMK VIS 7KM N DUE LOW ST BECMG=
201005020300 METAR MROC 020300Z 23003KT 9999 SCT005 BKN030 22/22 A3006 RMK VIS 8000NW DUE LOW ST LTNG N NW BECMG 5000 DZ BR=
201005020400 METAR MROC 020400Z 22003KT 7000 -DZ BR FEW004 BKN008 22/22 A3006 RMK VIS 5000SW BECMG 3000 DZ BR=
201005020500 METAR MROC 020500Z 21002KT 9999 0800SW FG SCT001 SCT008 21/21 A3005 BECMG 2000 DZ BR=
201005020600 METAR MROC 020600Z 00000KT 9999 3000SW BR SCT003 SCT015 21/21 A3004 BECMG 5000BR=
201005020700 METAR MROC 020700Z 08003KT 9999 FEW006 SCT030 SCT100 21/21 A3000 RMK VIS 8000SW DUE LOW ST BECMG=
201005020800 METAR MROC 020800Z 00000KT 9999 FEW008 SCT030 SCT100 22/22 A3001 BECMG=
201005020900 METAR MROC 020900Z 00000KT 5000 BR FEW002 BKN010 21/21 A3000 RMK BECMG 1000 BR=
201005021000 METAR MROC 021000Z 00000KT 9999 VCFG FEW002 SCT015 22/22 A3001 BECMG=
201005021100 METAR MROC 021100Z 11003KT 9999 FEW001 SCT030 BKN100 21/21 A3002 BECMG=
201005021200 METAR MROC 021200Z 00000KT CAVOK 21/21 A3003 RMK SCT100 BKN250 VIS 7000SW DUE LOW ST BECMG=
201005021300 METAR MROC 021300Z 14004KT 9000 2000SW FEW001 SCT080 OVC250 21/21 A3005 RMK BC FG QUAD S RN DST NE BECMG 5000 BR=
201005021400 METAR MROC 021400Z 00000KT 9999 FEW045 OVC250 23/22 A3002 RMK FEW120 VIS 7KM W DUE LOW ST BECMG=
201005021500 METAR MROC 021500Z 05005KT CAVOK 25/21 A3006 RMK FEW120 OVC250 BECMG=
201005021600 METAR MROC 021600Z 08004KT CAVOK 27/21 A3003 RMK FEW120 BKN250 BECMG=
201005021700 METAR MROC 021700Z 11006KT CAVOK 28/20 A3002 28/20 A3002 RMK FEW050 BKN250 BECMG=
201005021800 METAR MROC 021800Z 11008KT 9999 SCT045 BKN250 29/19 A2997 BECMG=
201005021900 METAR MROC 021900Z 24011KT 9999 FEW030TCU BKN250 27/23 A2995 RMK FEW045 RN DST S/NE BECMG=
201005022000 METAR MROC 022000Z 23011KT 7000 -RA SCT009 BKN020 24/23 A2994 RMK VIS=
201005022100 METAR MROC 022100Z 27008KT 6000 -TSRA SCT007CB BKN015 22/22 A2995 RMK BECMG 3000 TS RA=
201005022200 METAR MROC 022200Z 20003KT 9999 4000W -RABR FEW003 SCT006 BKN015 22/21 A2995 BECMG=
201005022300 METAR MROC 022300Z 24003KT 9999 FEW005 BKN015 22/22 A2996 BECMG=
201005030000 METAR MROC 030000Z 29003KT 8000 VCFG FEW004 BKN015 22/22 A2999 BECMG 5000 -RA BR=
201005030100 METAR MROC 030100Z 24004KT 9999 FEW004 BKN012 22/21 A3001 BECMG 5000 BR=
201005030200 METAR MROC 030200Z 28004KT 9999 FEW005 BKN012 22/21 A3003 BECMG=
201005030300 METAR MROC 030300Z 31003KT 9999 FEW006 SCT020 22/21 A3005 BECMG=
201005030400 METAR MROC 030400Z 31006KT 9999 FEW006 SCT020 21/20 A3005 BECMG=
201005030500 METAR MROC 030500Z 00000KT 9999 SCT020 20/19 A3003 BECMG=
201005030600 METAR MROC 030600Z 10004KT 9999 SCT020 20/19 A3000 BECMG=
201005030700 METAR MROC 030700Z 07006KT 9999 SCT020 20/19 A3000 BECMG=
201005030800 METAR MROC 030800Z 30002KT 9999 SCT020 20/19 A2998 BECMG=
201005030900 METAR MROC 030900Z 22003KT 9999 SCT020 20/19 A2998 BECMG=
201005031000 METAR MROC 031000Z 03005KT 9999 SCT025 19/19 A2998 BECMG=
201005031100 METAR MROC 031100Z 05006KT 9999 SCT030 19/18 A3000 BECMG=
201005031200 METAR MROC 031200Z 09004KT 9999 FEW030 SCT250 19/18 A2999 BECMG=
201005031300 METAR MROC 031300Z 07007KT CAVOK 23/19 A3004 RMK BKN250 HZ W BECMG=
201005031400 METAR MROC 031400Z 10009KT CAVOK 25/19 A3004 RMK BKN250 HZ W BECMG=
201005031500 METAR MROC 031500Z 11005KT CAVOK 29/19 A3003 RMK HZ W BKN250 BECMG=
201005031600 METAR MROC 031600Z 11008KT 9999 FEW040 BKN250 28/20 A2998 BECMG=
201005031700 METAR MROC 031700Z 12008KT 9999 SCT040 SCT250 28/20 A3001 BECMG=
201005031800 METAR MROC 031800Z 15006KT 9999 SCT040 SCT250 29/19 A3000 RMK DZ NE BECMG 24007KT=
201005031900 METAR MROC 031900Z 13004KT 9999 SCT040 SCT250 29/19 A3000 BECMG 24007KT=
201005032000 METAR MROC 032000Z 26011KT 9999 FEW010TCU SCT035 BKN250 27/22 A2996 RMK RN DST W BECMG=
201005032100 METAR MROC 032100Z 22009KT 9999 FEW020TCU BKN040 27/23 A2996 RMK PCPN DST W NW BECMG=
201005032200 METAR MROC 032200Z 26008KT 9999 FEW015TCU SCT035 26/22 A2995 RMK PCPN DS N NE S BECMG=
201005032300 METAR MROC 032300Z 27010KT 4000 SHRA FEW015CB BKN025 22/20 A2999 RMK VIS E SE S UNLTD BECMG 3000 TSRA=
201005032301 METAR MROC 032301Z 27010KT 4000 TSRA FEW015CB BKN025 22/20 A2999 RMK VIS E SE S UNLTD BECMG 3000 TSRA=
201005040000 METAR MROC 040000Z 00000KT 9999 FEW015TCU SCT025 BKN250 21/21 A2999 RETSRA RMK TS DST SSW BECMG=
201005040100 METAR MROC 040100Z 14002KT 9999 FEW035 SCT120 BKN250 22/19 A3004 BECMG=
201005040200 METAR MROC 040200Z 11004KT 9999 FEW035 SCT120 BKN250 22/17 A3005 BECMG CAVOK=
201005040300 METAR MROC 040300Z 09005KT CAVOK 22/18 A3004 RMK FEW090 BKN250 LTNG DST SE/SW BECMG=
201005040400 METAR MROC 040400Z 07005KT CAVOK 22/18 A3005 RMK FEW070 BKN250 BECMG=
201005040500 METAR MROC 040500Z 03006KT CAVOK 21/16 A3005 RMK OVC200 LTNG DST S BECMG=
201005040600 METAR MROC 040600Z 08006KT CAVOK 21/16 A3004 RMK BKN250 BECMG=
201005040700 METAR MROC 040700Z 08005KT CAVOK 20/16 A3003 RMK BKN250 LTNG DST S BECMG=
201005040800 METAR MROC 040800Z 08005KT CAVOK 20/16 A3003 RMK BKN250 LTNG DST S BECMG=
201005040900 METAR MROC 040900Z 10003KT CAVOK 19/17 A3002 RMK BKN250 LTNG DST S BECMG=
201005041000 METAR MROC 041000Z 06004KT CAVOK 18/17 A3002 RMK OVC250 LTNG DST S BECMG=
201005041100 METAR MROC 041100Z 10003KT CAVOK 18/16 A2999 RMK OVC250 LTNG DST S BECMG=
201005041200 METAR MROC 041200Z 06004KT CAVOK 19/16 A3003 RMK FEW140 BKN250 HZ LGT QUAD W BECMG=
201005041300 METAR MROC 041300Z 03003KT CAVOK 22/16 A3004 RMK OVC250 BECMG=
201005041400 METAR MROC 041400Z 02005KT CAVOK 25/17 A3005 RMK BKN250 BECMG=
201005041500 METAR MROC 041500Z 12006KT CAVOK 27/16 A3005 RMK BKN250 BECMG=
201005041600 METAR MROC 041600Z 12008KT CAVOK 28/17 A3003 RMK BKN250 BECMG 26006KT=
201005041700 METAR MROC 041700Z 23006KT 9999 FEW040 BKN250 28/21 A3001 RMK LGT HZ ARND BECMG=
201005041800 METAR MROC 041800Z 24008KT 9999 SCT040 BKN250 26/21 A3001 RMK LGT HZ ARND BECMG=
201005041900 METAR MROC 041900Z 24009KT 9999 FEW030 SCT040 BKN250 27/22 A2998 RMK LGT HZ ARND BECMG=
201005042000 METAR MROC 042000Z 23006KT 9999 FEW025TCU SCT040 BKN250 26/21 A2995 HZY BECMG=
201005042100 METAR MROC 042100Z 24009KT 9999 FEW025TCU SCT040 BKN250 26/22 A2992 BECMG=
201005042200 METAR MROC 042200Z 22011KT 9999 RA SCT020CB BKN035 23/20 A2992 BECMG 5000 -TSRA=
201005042300 METAR MROC 042300Z 22008KT 9999 FEW020CB BKN035 22/21 A2994 RMK RN DST N NE E BECMG 5000 BR=
201005050000 METAR MROC 050000Z 28006KT 9999 VCSH FEW020CB BKN025 21/20 A2997 RMK=
201005050100 METAR MROC 050100Z 08003KT 9999 FEW030 BKN090 21/20 A3000 RERA BECMG=
201005050200 METAR MROC 050200Z 05004KT CAVOK 21/19 A3001 RMK FEW060 SCT100 BECMG=
201005050300 METAR MROC 050300Z 06007KT CAVOK 21/18 A3001 RMK FEW060 SCT100 BECMG=
201005050400 METAR MROC 050400Z 11006KT CAVOK 21/17 A3003 RMK SCT100 BECMG=
201005050500 METAR MROC 050500Z 06006KT CAVOK 20/17 A3003 RMK SCT100 BECMG=
201005050600 METAR MROC 050600Z 03008KT CAVOK 20/17 A3001 RMK SCT100 BECMG=
201005050700 METAR MROC 050700Z 10004KT CAVOK 19/17 A2999 RMK SCT100 BECMG=
201005050800 METAR MROC 050800Z 06005KT CAVOK 19/16 A2998 RMK SCT100 BECMG=
201005050900 METAR MROC 050900Z 07005KT CAVOK 18/16 A2998 RMK SCT100 BECMG=
201005051000 METAR MROC 051000Z 00000KT CAVOK 19/16 A2998 RMK SCT100 BECMG=
201005051100 METAR MROC 051100Z 05005KT 9999 FEW040 18/16 A2999 BECMG=
201005051200 METAR MROC 051200Z 05006KT 9999 FEW030 SCT250 19/16 A3001 BECMG=
201005051300 METAR MROC 051300Z 05006KT CAVOK 23/18 A3001 RMK SCT250 TCU DST SSW SW BECMG=
201005051400 METAR MROC 051400Z 05006KT CAVOK 25/17 A3002 RMK SCT300 TCU DST S BECMG=
201005051500 METAR MROC 051500Z 10006KT CAVOK 27/18 A3002 BECMG=
201005051600 METAR MROC 051600Z 11008KT 9999 FEW040 SCT110 28/18 A3003 BECMG=
201005051700 METAR MROC 051700Z 22012KT 9999 FEW030 SCT040 27/20 A3001 BECMG=
201005051800 METAR MROC 051800Z 23010KT 9999 FEW020TCU SCT035 27/21 A3000 RMK RN DST NE BECMG=
201005051900 METAR MROC 051900Z 25008KT 9999 FEW015CB SCT035 27/21 A2997 RMK RN DST NE BECMG 7000 RA=
201005052000 METAR MROC 052000Z 23009KT 9999 VCSH FEW015CB SCT030 27/21 A2993 BECMG 7000 -TSRA=
201005052100 METAR MROC 052100Z 23010KT 9999 FEW015CB SCT030 27/21 A2992 RMK RN NE SE BECMG 7000 RA=
201005052200 METAR MROC 052200Z 02003KT 9999 FEW010CB BKN030 23/18 A2994 RMK RN NE SE BECMG 7000 RA=
201005052300 METAR MROC 052300Z 18004KT 9999 2000SW BR SCT030 BKN100 22/20 A2995 RERA BECMG=
201005060000 METAR MROC 060000Z 00000KT 9999 SCT030 BKN100 22/20 A2998 RMK SH DST W BECMG=
201005060100 METAR MROC 060100Z 00000KT 9999 SCT030 BKN100 22/20 A3000 BECMG=
201005060200 METAR MROC 060200Z 08003KT 9999 FEW030 SCT100 BKN250 22/18 A3002 BECMG=
201005060300 METAR MROC 060300Z 10005KT 9999 FEW030 BKN100 22/18 A3003 BECMG=
201005060400 METAR MROC 060400Z 04005KT 9999 SCT030 SCT100 22/17 A3004 BECMG=
201005060500 METAR MROC 060500Z 08004KT 9999 SCT030 SCT100 21/17 A3003 BECMG=
201005060600 METAR MROC 060600Z 03005KT CAVOK 21/17 A3001 RMK BKN250 BECMG=
201005060700 METAR MROC 060700Z 09006KT CAVOK 21/17 A2999 RMK BKN250 BECMG=
201005060800 METAR MROC 060800Z 06003KT CAVOK 21/16 A2999 RMK BKN250 BECMG=
201005060900 METAR MROC 060900Z 06003KT CAVOK 19/16 A2998 RMK BKN250 BECMG=
201005061000 METAR MROC 061000Z 07004KT CAVOK 20/16 A2998 RMK BKN250 BECMG=
201005061100 METAR MROC 061100Z 08005KT CAVOK 19/16 A2997 RMK FEW250 BECMG=
201005061200 METAR MROC 061200Z 06004KT CAVOK 21/16 A2999 RMK FEW250 BECMG=
201005061300 METAR MROC 061300Z 07006KT CAVOK 23/17 A2999 RMK SCT250 BECMG=
201005061400 METAR MROC 061400Z 09009KT CAVOK 26/17 A2999 RMK FEW250 BECMG=
201005061500 METAR MROC 061500Z 11007KT 9999 FEW040 28/16 A3000 RMK FEW300 BECMG=
201005061600 METAR MROC 061600Z 08007KT 9999 FEW040 29/16 A2999 RMK FEW300 BECMG=
201005061700 METAR MROC 061700Z 15007KT 9999 SCT040 30/16 A2998 BECMG 22007KT=
201005061800 METAR MROC 061800Z 11006KT 9999 SCT040 FEW300 30/17 A2997 BECMG 22007KT=
201005061900 METAR MROC 061900Z 13005KT 9999 BKN040 30/17 A2995 BECMG 22007KT=
201005062000 METAR MROC 062000Z 22006KT 9999 BKN040 30/20 A2993 RMK HZY SW W BECMG=
201005062100 METAR MROC 062100Z 24012KT 9999 FEW030 SCT040 25/21 A2992 BECMG=
201005062200 METAR MROC 062200Z 28007KT 9999 2000W RA FEW020TCU BKN030 22/17 A2993 RMK VIS 6KM NE BECMG=
201005062300 METAR MROC 062300Z 12003KT 9999 SCT040 SCT100 22/18 A2994 RMK FEW200 RN DST SE BECMG=
201005070000 METAR MROC 070000Z 30004KT 9999 SCT045 SCT100 22/19 A2997 RMK FEW250 RN DST NE BECMG=
201005070100 METAR MROC 070100Z 00000KT 9999 FEW040 SCT090 22/18 A2998 BECMG=
201005070200 METAR MROC 070200Z VRB02KT 9999 FEW045 SCT100 23/17 A3000 BECMG=
201005070300 METAR MROC 070300Z 06007KT CAVOK 22/17 A3001 RMK FEW120 SCT250 LTNG DST W BECMG=
201005070400 METAR MROC 070400Z 10006KT CAVOK 22/16 A3001 BECMG=
201005070500 METAR MROC 070500Z 10007KT CAVOK 22/16 A3001 BECMG=
201005070600 METAR MROC 070600Z 05007KT CAVOK 21/16 A2999 BECMG=
201005070700 METAR MROC 070700Z 03004KT CAVOK 20/16 A2997 BECMG=
201005070800 METAR MROC 070800Z 08005KT CAVOK 20/16 A2995 BECMG=
201005070900 METAR MROC 070900Z 05005KT CAVOK 20/16 A2994 BECMG=
201005071000 METAR MROC 071000Z 03005KT CAVOK 19/16 A2994 BECMG=
201005071100 METAR MROC 071100Z 07006KT CAVOK 20/16 A2995 BECMG=
201005071200 METAR MROC 071200Z 11011KT CAVOK 22/16 A2996 BECMG=
201005071300 METAR MROC 071300Z 11008KT CAVOK 24/17 A2998 RMK VEL MAX VTO 16KT FEW050 BECMG=
201005071400 METAR MROC 071400Z 09011KT CAVOK 25/17 A2999 RMK VEL MAX VTO 16KT FEW050 BECMG=
201005071500 METAR MROC 071500Z 08012KT CAVOK 27/17 A2999 RMK VEL MAX VTO 21KT FEW050 BECMG=
201005071600 METAR MROC 071600Z 07010KT CAVOK 28/17 A3000 RMK FEW050 VEL MAX VTO 16KT BECMG=
201005071700 METAR MROC 071700Z 08012KT 9999 FEW045 28/17 A3000 RMK FEW060 VEL MAX VTO 19KT BECMG=
201005071800 METAR MROC 071800Z 09008KT 9999 FEW045 29/18 A2997 RMK FEW060 VEL MAX VTO 14KT TCU DST S/SW DZ DST NE BECMG=
201005071900 METAR MROC 071900Z 09008KT 9999 FEW040 SCT050 29/18 A2994 RMK VEL MAX VTO 16KT TCU DST S/SW BECMG=
201005072000 METAR MROC 072000Z 08008KT 9999 FEW030 BKN050 28/18 A2993 RMK TCU DST QUAD S DZ DST NE BECMG=
201005072100 METAR MROC 072100Z 11007KT 9999 FEW025 BKN090 26/18 A2991 RMK TCU DST S DZ NE BECMG=
201005072200 METAR MROC 072200Z 11012KT 9999 FEW025 BKN090 26/18 A2991 BECMG=
201005072300 METAR MROC 072300Z 11013KT 9999 SCT025 24/18 A2993 BECMG=
201005080000 METAR MROC 080000Z 10015KT 9999 SCT030 23/17 A2995 BECMG=
201005080100 METAR MROC 080100Z 08010KT 9999 SCT030 23/16 A2997 BECMG=
201005080200 METAR MROC 080200Z 12008KT 9999 SCT030 22/17 A2999 BECMG=
201005080300 METAR MROC 080300Z 11009KT 9999 SCT030 22/17 A3001 BECMG=
201005080400 METAR MROC 080400Z 11018KT 9999 SCT030 23/17 A3001 BECMG=
201005080500 METAR MROC 080500Z 12016KT 9999 SCT030 22/16 A3000 BECMG=
201005080600 METAR MROC 080600Z 10015KT CAVOK 22/16 A2999 BECMG=
201005080700 METAR MROC 080700Z 05012KT CAVOK 21/15 A2998 BECMG=
201005080800 METAR MROC 080800Z 07011KT CAVOK 21/15 A2997 BECMG=
201005080900 METAR MROC 080900Z 08008KT CAVOK 21/16 A2996 BECMG=
201005081000 METAR MROC 081000Z 08012KT CAVOK 21/16 A2995 BECMG=
201005081100 METAR MROC 081100Z 12010KT CAVOK 21/16 A2996 BECMG=
201005081200 METAR MROC 081200Z 05010KT 9999 FEW030 SCT250 22/17 A2998 BECMG=
201005081300 METAR MROC 081300Z 11007KT 9999 FEW030 SCT250 24/17 A2998 BECMG=
201005081400 METAR MROC 081400Z 11013KT 9999 FEW030 SCT250 25/18 A2999 BECMG=
201005081500 METAR MROC 081500Z 09010KT 9999 FEW030 SCT300 27/18 A3000 BECMG=
201005081600 METAR MROC 081600Z 07010KT 9999 FEW030 SCT300 28/17 A3000 BECMG=
201005081700 METAR MROC 081700Z 07013KT 9999 FEW030 SCT300 29/17 A2999 BECMG=
201005081800 METAR MROC 081800Z 07011KT 9999 SCT030 SCT300 29/18 A2997 BECMG=
201005081900 METAR MROC 081900Z 09011KT 9999 SCT030 SCT300 29/18 A2996 BECMG=
201005082000 METAR MROC 082000Z 09011KT 9999 FEW035 SCT300 29/18 A2994 RMK CB DST S TCU SW BECMG=
201005082100 METAR MROC 082100Z 08010KT 9999 FEW030 BKN250 28/16 A2993 RMK CB DST SW SE BECMG=
201005082200 METAR MROC 082200Z 08010KT 9999 FEW030 BKN250 29/15 A2992 RMK CB DST SSE SW BECMG=
201005082300 METAR MROC 082300Z 08010KT 9999 FEW035 BKN250 27/16 A2995 RMK VEL MAX VTO 17KT BECMG=
201005090000 METAR MROC 090000Z 08007KT 9999 FEW035 BKN250 25/16 A2997 RMK VEL MAX VTO 12KT CB DST ENE BECMG=
201005090100 METAR MROC 090100Z 08006KT CAVOK 25/16 A2998 RMK BKN250 BECMG=
201005090200 METAR MROC 090200Z 08011KT CAVOK 25/16 A2999 RMK SCT250 VEL MAX VTO 18KT BECMG=
201005090300 METAR MROC 090300Z 08012KT CAVOK 24/17 A3000 RMK FEW060 MAX VTO 18KT BECMG=
201005090400 METAR MROC 090400Z 09008KT CAVOK 24/17 A3000 RMK FEW050 VEL MAX VTO 14KT BECMG=
201005090500 METAR MROC 090500Z 10008KT CAVOK 23/16 A2999 RMK VEL MAX VTO 16KT BECMG=
201005090600 METAR MROC 090600Z 08012KT CAVOK 23/15 A2998 RMK VEL MAX VTO 18KT BECMG=
201005090700 METAR MROC 090700Z 10009KT CAVOK 22/17 A2996 BECMG=
201005090800 METAR MROC 090800Z 10013KT CAVOK 22/17 A2995 BECMG=
201005090900 METAR MROC 090900Z 10011KT CAVOK 22/17 A2995 RMK VEL MAX VTO 18KT BECMG=
201005091000 METAR MROC 091000Z 10012KT CAVOK 22/17 A2996 RMK VEL MAX VTO 19KT BECMG=
201005091100 METAR MROC 091100Z 10013KT CAVOK 22/16 A2997 RMK VEL MAX VTO 20KT BECMG=
201005091200 METAR MROC 091200Z 10010KT CAVOK 22/17 A2999 DZ DST NE BECMG0=
201005091300 METAR MROC 091300Z 11012KT 9999 FEW035 23/17 A2999 RMK DZ DST NE VEL MAX VTO 18KT BECMG=
201005091400 METAR MROC 091400Z 09014KT 9999 FEW035 25/17 A3002 RMK DZ DST NE VEL MAX VTO 21KT BECMG=
201005091500 METAR MROC 091500Z 09011KT 9999 FEW035 27/18 A3004 RMK DZ DST NE VEL MAX VTO 20KT BECMG=
201005091600 METAR MROC 091600Z 08015KT 9999 FEW030 SCT300 27/17 A3003 RMK VEL MAX VTO 23KT BECMG=
201005091700 METAR MROC 091700Z 09014KT 9999 FEW030 SCT300 28/17 A3003 RMK VEL MAX VTO 20KT BECMG=
201005091800 METAR MROC 091800Z 08015KT 9999 SCT035 SCT300 29/18 A3000 RMK VEL MAX VTO 21KT BECMG=
201005091900 METAR MROC 091900Z 07013KT 9999 FEW035 SCT300 29/16 A2997 BECMG=
201005092000 METAR MROC 092000Z 07014KT 9999 FEW035 SCT300 29/17 A2995 RMK VEL MAX VTO 21KT BECMG=
201005092100 METAR MROC 092100Z 08015KT CAVOK 28/18 A2994 RMK FEW300 VEL MAX VTO 20KT BECMG=
201005092200 METAR MROC 092200Z 08012KT CAVOK 27/18 A2993 RMK FEW250 VEL MAX VTO 19KT BECMG=
201005092300 METAR MROC 092300Z 11010KT CAVOK 27/17 A2994 RMK FEW250 BECMG=
201005100000 METAR MROC 100000Z 10010KT 9999 FEW045 24/17 A2996 BECMG=
201005100100 METAR MROC 100100Z 08014KT CAVOK 24/17 A2998 BECMG=
201005100200 METAR MROC 100200Z 09013KT CAVOK 24/17 A2999 BECMG=
201005100300 METAR MROC 100300Z 12019KT CAVOK 23/17 A3001 BECMG=
201005100400 METAR MROC 100400Z 11016KT CAVOK 23/17 A3000 BECMG=
201005100500 METAR MROC 100500Z 12019KT CAVOK 23/17 A2999 BECMG=
201005100600 METAR MROC 100600Z 12019KT CAVOK 23/17 A2997 BECMG=
201005100700 METAR MROC 100700Z 10017KT CAVOK 23/18 A2996 BECMG=
201005100800 METAR MROC 100800Z 10017G31KT CAVOK 23/17 A2996 BECMG=
201005100900 METAR MROC 100900Z 11021KT CAVOK 23/17 A2994 BECMG=
201005101000 METAR MROC NIL=
201005101037 METAR MROC 101037Z 10020KT 9999 FEW030 SCT250 22/17 A2995 BECMG=
201005101100 METAR MROC 101100Z 10017KT 9999 FEW030 SCT250 22/17 A2995 BECMG=
201005101200 METAR MROC 101200Z 11020KT 9999 FEW030 BKN250 22/17 A2995 RMK DZ N NE BECMG=
201005101300 METAR MROC 101300Z 10011G21KT 9999 FEW035 BKN250 23/17 A2999 RMK DZ DST N NE BECMG=
201005101400 METAR MROC 101400Z 11012G22KT 9999 FEW035 BKN250 23/16 A3000 RMK DZ DST NE E BECMG=
201005101500 METAR MROC 101500Z 09011G21KT CAVOK 25/15 A3000 RMK FEW090 BKN250 DZ DST NE BECMG=
201005101600 METAR MROC 101600Z 11012KT CAVOK 27/16 A3001 RMK BKN250 DZ DST NE BECMG=
201005101700 METAR MROC 101700Z 10013G23KT CAVOK 28/15 A2998 RMK SCT250 DZ DST NE BECMG=
201005101800 METAR MROC 101800Z 09012KT CAVOK 29/16 A2998 RMK SCT250 DZ DST NE BECMG=
201005101900 METAR MROC 101900Z 07010G20KT CAVOK 28/18 A2996 RMK BKN250 DZ DST NE BECMG=
201005102000 METAR MROC 102000Z 10010KT CAVOK 29/17 A2993 RMK BKN250 VEL MAX VTO 17KT BECMG=
201005102100 METAR MROC 102100Z 06017KT 9999 FEW040 BKN250 28/17 A2992 RMK RN DST NE TCU DST SW BECMG=
201005102200 METAR MROC 102200Z 07015KT 9999 FEW040 BKN250 26/16 A2993 RMK RN DST NE BECMG=
201005102300 METAR MROC 102300Z 07008KT 9999 FEW040 BKN250 26/18 A2994 RN DST NE BECMG=
201005110000 METAR MROC 110000Z 07011KT 9999 FEW040 BKN250 24/17 A2995 RMK RN DST NE BECMG=
201005110100 METAR MROC 110100Z 07009KT CAVOK 24/17 A2997 RMK FEWSC BKN250 BECMG=
201005110200 METAR MROC NIL=
201005110300 METAR MROC 110300Z 08012KT CAVOK 23/17 A2999 RMK BKN250 VEL MAX VTO 19KT BECMG=
201005110400 METAR MROC 110400Z 10011KT CAVOK 23/17 A2999 RMK BKN250 VEL MAX VTO 18KT BECMG=
201005110500 METAR MROC 110500Z 10011KT CAVOK 23/17 A2999 RMK BKN250 VEL MAX VTO 18KT BECMG=
201005110600 METAR MROC 110600Z 10013KT CAVOK 23/18 A2996 RMK BKN250 VEL MAX VTO 18KT BECMG=
201005110700 METAR MROC 110700Z 11012KT CAVOK 22/18 A2993 RMK BKN250 VEL MAX VTO 20KT BECMG=
201005110800 METAR MROC 110800Z 11012G24KT CAVOK 22/18 A2991 RMK SCT250 BECMG=
201005110900 METAR MROC 110900Z 10012KT CAVOK 22/17 A2991 RMK SCT250 BECMG=
201005111000 METAR MROC 111000Z 10009KT CAVOK 22/18 A2992 RMK SCT250 BECMG=
201005111100 METAR MROC 111100Z 11011KT CAVOK 23/18 A2993 RMK SCT250 VEL MAX VTO 18KT BECMG=
201005111200 METAR MROC 111200Z 11012KT 9999 FEW030 SCT250 22/18 A2994 RMK DZ DST NE VEL MAX VTO 17KT BECMG=
201005111300 METAR MROC 111300Z 11011KT 9999 FEW030 SCT250 25/18 A2997 BECMG=
201005111400 METAR MROC 111400Z 10014KT 9999 FEW030 SCT250 26/19 A2997 RMK GUST 19KT DZ NE BECMG=
201005111500 METAR MROC 111500Z 09012KT 9999 FEW030 BKN250 27/18 A2998 RMK DZ N BECMG=
201005111600 METAR MROC 111600Z 09012KT 9999 SCT030 BKN250 28/18 A2998 RMK FEW100 DZ NE BECMG=
201005111700 METAR MROC 111700Z 10010KT 9999 SCT030 SCT120 28/19 A2997 RMK DZ N NE FEW250 BECMG=
201005111800 METAR MROC 111800Z 11013KT 9999 SCT030 SCT120 28/18 A2995 RMK DZ N NE BECMG=
201005111900 METAR MROC 111900Z 11011KT 9999 SCT030 SCT120 29/18 A2993 RMK DZ N NE BECMG=
201005112000 METAR MROC 112000Z 08007KT 9999 SCT030 SCT120 28/18 A2990 RMK DZ N NE BECMG=
201005112100 METAR MROC 112100Z 09013G23KT 9999 SCT030 BKN100 27/18 A2990 RMK RN DST N/NE/E BECMG=
201005112200 METAR MROC 112200Z 11008KT 9999 FEW045 BKN100 24/17 A2991 RMK DZ DST N/NE BECMG=
201005112300 METAR MROC 112300Z 09010KT CAVOK 25/16 A2992 RMK BKN100 BECMG=
201005120000 METAR MROC 120000Z 09007KT CAVOK 25/16 A2995 RMK BKN100 FEW250 BECMG=
201005120100 METAR MROC 120100Z 11007KT CAVOK 24/17 A2996 RMK FEW050 SCT090 BKN250=
201005120200 METAR MROC 120200Z 10008KT CAVOK 24/18 A2996 RMK FEW050 BKN100 BECMG=
201005120300 METAR MROC 120300Z 12009KT 9999 FEW030 SCT100 23/18 A2997 BECMG=
201005120400 METAR MROC 120400Z 09010KT CAVOK 24/17 A2997 RMK SCT100 BECMG=
201005120500 METAR MROC 120500Z 09010KT CAVOK 23/18 A2996 RMK SCT100 BECMG=
201005120600 METAR MROC 120600Z 10013KT CAVOK 23/18 A2992 RMK FEW120 SCT250 BECMG=
201005120700 METAR MROC 120700Z 09010G20KT 9999 FEW030 24/18 A2990 BECMG=
201005120800 METAR MROC 120800Z 08013KT 9999 FEW030 23/17 A2990 BECMG=
201005120900 METAR MROC 120900Z 07012KT CAVOK 23/17 A2989 BECMG=
201005121000 METAR MROC 121000Z 10013KT CAVOK 23/17 A2989 BECMG=
201005121100 METAR MROC 121100Z 10009KT CAVOK 22/17 A2989 RMK FEW050 BKN100 TCU DST SW=
201005121200 METAR MROC 121200Z 09007KT CAVOK 23/17 A2992 RMK SCT100 BKN250 BECMG=
201005121300 METAR MROC 121300Z 09014KT 9999 FEW040 BKN250 24/17 A2994 RMK FEW100 VEL MAX VTO 20KT BECMG=
201005121400 METAR MROC 121400Z 09012KT CAVOK 25/17 A2995 RMK FEW050 BKN250 VEL MAX VTO 18KT BECMG=
201005121500 METAR MROC 121500Z 10011KT CAVOK 26/16 A2996 RMK FEW050 FEW100 BKN250 VEL MAX VTO 17KT DZ DST NE BECMG=
201005121600 METAR MROC 121600Z 08010KT CAVOK 27/16 A2996 RMK SCT100 BKN250 VEL MAX VRO 15KT BECMG=
201005121700 METAR MROC 121700Z 07011KT CAVOK 28/16 A2995 RMK BKN110 VEL MAX VTO 19KT BECMG=
201005121800 METAR MROC 121800Z 07013KT CAVOK 29/17 A2994 RMK BKN110 VEL MAX VTO 18KT DZ DST NE BECMG=
201005121900 METAR MROC 121900Z 08013KT CAVOK 29/17 A2992 RMK FEW050 FEW110 SCT250 BECMG=
201005122000 METAR MROC 122000Z 09013KT 9999 FEW045 SCT250 30/17 A2989 BECMG=
201005122100 METAR MROC 122100Z 09012KT 9999 FEW030 BKN250 29/17 A2988 BECMG=
201005122200 METAR MROC 122200Z 07010KT 9999 FEW030 BKN250 28/17 A2989 BECMG=
201005122300 METAR MROC 122300Z 10010KT 9999 FEW030 BKN250 27/17 A2991 RMK TRACE AC BECMG=
201005130000 METAR MROC 130000Z 07010KT 9999 FEW030 BKN250 25/17 A2993 RMK TRACE AC BECMG=
201005130100 METAR MROC 130100Z 08010KT 9999 FEW030 BKN250 25/17 A2995 BECMG=
201005130200 METAR MROC 130200Z 10010KT 9999 FEW030 BKN250 24/18 A2997 BECMG=
201005130300 METAR MROC 130300Z 09006KT 9999 FEW030 BKN250 24/17 A2998 BECMG=
201005130400 METAR MROC 130400Z 09008KT 9999 FEW030 BKN250 23/17 A2998 BECMG=
201005130500 METAR MROC 130500Z 06007KT CAVOK 23/18 A2998 BECMG=
201005130600 METAR MROC 130600Z 09010KT CAVOK 23/18 A2996 BECMG=
201005130700 METAR MROC 130700Z 10012KT CAVOK 23/18 A2994 BECMG=
201005130800 METAR MROC 130800Z 10010KT CAVOK 23/18 A2992 BECMG=
201005130900 METAR MROC 130900Z 09010KT CAVOK 23/17 A2991 BECMG=
201005131000 METAR MROC 131000Z 10014KT CAVOK 23/18 A2991 BECMG=
201005131100 METAR MROC 131100Z 08010KT 9999 FEW030 BKN250 23/18 A2993 RMK TRACE AC BECMG=
201005131200 METAR MROC 131200Z 08008KT 9999 FEW030 BKN250 23/18 A2994 RMK TRACE 110 DZ N NE BECMG=
201005131300 METAR MROC 131300Z 11012KT 9999 FEW030 SCT100 23/18 A2996 RMK FEW250 DZ N NE=
201005131400 METAR MROC 131400Z 11014KT 9999 FEW030 SCT100 BKN250 24/18 A2997 BECMG=
201005131500 METAR MROC 131500Z 11014KT 9999 FEW030 SCT100 BKN250 25/18 A2998 BECMG=
201005131600 METAR MROC 131600Z 09012KT 9999 FEW030 SCT119 BKN250 27/18 A2997 BECMG=
201005131700 METAR MROC 131700Z 10009KT 9999 FEW030 BKN110 29/18 A2995 RMK FEW250 BECMG=
201005131800 METAR MROC 131800Z 08013KT 9999 FEW040 SCT120 BKN250 30/17 A2994 BECMG=
201005131900 METAR MROC 131900Z 10009KT 9999 FEW040 SCT120 BKN250 30/18 A2994 BECMG=
201005132000 METAR MROC 132000Z 07013KT 9999 FEW040 SCT120 BKN250 30/17 A2991 BECMG=
201005132100 METAR MROC 132100Z 08009KT 9999 FEW040 SCT120 BKN250 29/17 A2990 RMK DZ DST ENE LGT HZ ARND BECMG=
201005132200 METAR MROC 132200Z 07013KT 9999 FEW040 SCT120 BKN250 28/18 A2990 BECMG=
201005132300 METAR MROC 132300Z 11010KT 9999 FEW040 SCT120 BKN250 27/18 A2992 BECMG=
201005140000 METAR MROC 140000Z 11010G20KT 9999 FEW035 BKN050 25/18 A2994 RMK DZ DST N NE BECMG=
201005140100 METAR MROC 140100Z 08007KT 9999 FEW035 SCT050 25/18 A2998 BECMG=
201005140200 METAR MROC 140200Z 08011KT 9999 FEW035 SCT120 BKN250 24/17 A2999 BECMG=
201005140300 METAR MROC 140300Z 10007KT 9999 FEW035 SCT250 24/17 A3002 RMK FEW120=
201005140400 METAR MROC 140400Z 10010KT CAVOK 23/18 A3001 RMK FEW100 BKN250 LTNG DST SW BECMG=
201005140500 METAR MROC 140500Z 11011G21KT CAVOK 23/18 A3000 RMK FEW140 BKN250 BECMG=
201005140600 METAR MROC 140600Z 11014KT CAVOK 23/18 A2998 RMK BKN250 BECMG=
201005140700 METAR MROC 140700Z 10009KT CAVOK 23/18 A2996 BKN250 BECMG=
201005140800 METAR MROC 140800Z 10012KT CAVOK 23/18 A2994 SCT250 LTNG DST S BECMG=
201005140900 METAR MROC 140900Z 10011KT CAVOK 23/18 A2994 RMK GUST 18KT LTNG DST S BECMG=
201005141000 METAR MROC 141000Z 08008KT CAVOK 24/18 A2995 RMK GUST 16KT BECMG=
201005141100 METAR MROC 141100Z 11010KT 9999 FEW045 23/18 A2998 RMK CB DST SSE/S=
201005141200 METAR MROC 141200Z 11010KT 9999 FEW045 23/18 A2998 RMK CB DST SSE/S GUST 17KT RN DST NE BECMG=
201005141300 METAR MROC 141300Z 11010KT 9999 FEW040 25/18 A2999 RMK DZ DST NE TCU S BECMG=
201005141400 METAR MROC 141400Z 10014KT 9999 FEW040 26/19 A3000 RMK DZ DST NE BECMG=
201005141500 METAR MROC 141500Z 09009KT 9999 SCT040 27/18 A3002 RMK DZ DST N NE BECMG=
201005141600 METAR MROC 141600Z 09012KT 9999 FEW030 SCT050 28/18 A3002 RMK DZ DST N NE VEL MAX VTO 18KT BECMG=
201005141700 METAR MROC 141700Z 10010KT 9999 FEW030 BKN070 28/19 A3002 RMK PCPN DST N NE E BECMG=
201005141800 METAR MROC 141800Z 10014KT 9999 FEW030 BKN120 28/19 A2999 RMK DZ DST N NE BECMG=
201005141900 METAR MROC 141900Z 09012KT 9999 FEW035 SCT120 BKN250 28/18 A2998 RMK DZ DST N NE BECMG=
201005142000 METAR MROC 142000Z 12011KT 9999 FEW035 BKN120 29/18 A2997 DZ N NE BECMG=
201005142100 METAR MROC 142100Z 11010KT 9999 FEW035 SCT100 BKN250 27/17 A2996 RMK VEL MAX VTO 17KT DZ DST NE RN DST SW BECMG 24006KT=
201005142200 METAR MROC 142200Z 18006KT 9999 FEW030 BKN250 27/18 A2996 BECMG 24006KT=
201005142300 METAR MROC 142300Z 22008KT CAVOK 25/22 A2997 RMK SCT120 BKN250 BECMG=
201005142345 METAR MROC 142345Z 08010KT 9999 FEW010 BKN250 23/17 A2995 RMK TCU DST SW W BECMG=
201005150000 METAR MROC 150000Z 23005KT CAVOK 23/22 A2998 RMK SCT100 BKN250 BECMG=
201005150100 METAR MROC 150100Z 20003KT 9999 FEW012 SCT100 23/22 A3000 BECMG=
201005150200 METAR MROC 150200Z 00000KT CAVOK 23/22 A3001 RMK SCT120 BECMG=
201005150300 METAR MROC 150300Z 10018KT CAVOK 23/17 A3003 RMK SCT120 BECMG=
201005150400 METAR MROC 150400Z 12012KT CAVOK 23/17 A3004 RMK SCT250 BECMG=
201005150500 METAR MROC 150500Z 08013KT CAVOK 23/17 A3002 RMK SCT250 BECMG=
201005150600 METAR MROC 150600Z 07005KT CAVOK 23/17 A2999 RMK SCT250 BECMG=
201005150700 METAR MROC 150700Z 07005KT CAVOK 22/17 A2998 RMK SCT250 BECMG=
201005150800 METAR MROC 150800Z 05005KT CAVOK 22/17 A2996 RMK SCT250 BECMG=
201005150900 METAR MROC 150900Z 07005KT CAVOK 22/16 A2996 RMK SCT250 BECMG=
201005151000 METAR MROC 151000Z 05007KT CAVOK 21/17 A2996 RMK SCT250 BECMG=
201005151100 METAR MROC 151100Z 05008KT CAVOK 22/17 A2997 RMK BKN250 BECMG=
201005151200 METAR MROC 151200Z 04005KT CAVOK 22/18 A2999 RMK SCT120 BKN250 BECMG=
201005151300 METAR MROC 151300Z 07005KT CAVOK 24/17 A3000 RMK SCT100 BKN250 TCU DST SW BECMG=
201005151400 METAR MROC 151400Z 09006KT CAVOK 25/18 A3001 RMK SCT110 BKN250 TCU DST SSW SW BECMG 24006KT=
201005151500 METAR MROC 151500Z 11006KT CAVOK 28/19 A3001 RMK BKN250 TCU DST SSW BECMG 24006KT=
201005151600 METAR MROC 151600Z 10010KT CAVOK 29/20 A3001 RMK BKN250 BECMG 24006KT=
201005151700 METAR MROC 151700Z 11007KT 9999 FEW035 BKN250 30/19 A3000 BECMG 24006KT=
201005151800 METAR MROC 151800Z 21009KT 9999 FEW020TCU SCT030 BKN250 27/21 A3000 BECMG 6000 -TSRA=
201005151900 METAR MROC 151900Z 20009KT 9999 SCT030 SCT250 27/22 A2999 RMK RN DST N SW BECMG=
201005152000 METAR MROC 152000Z 21008KT 9999 FEW015 BKN025 26/22 A2998 RMK RN DST N SW BECMG=
201005152100 METAR MROC 152100Z 20008KT 9999 FEW015 BKN025 24/23 A2997 RMK HZ ARND BECMG=
201005152200 METAR MROC 152200Z 26005KT 9999 FEW015 SCT030 BKN110 24/21 A2997 RMK HZ ARND BECMG=
201005152300 METAR MROC 152300Z 25003KT 9999 FEW015 SCT030 BKN110 23/21 A2996 RMK HZ ARND BECMG=
201005160000 METAR MROC 160000Z 25002KT 9999 FEW030 BKN110 23/21 A2997 RMK HZ ARND BECMG=
201005160100 METAR MROC 160100Z 23003KT 9999 FEW030 BKN110 23/21 A2999 RMK HZ ARND BECMG=
201005160200 METAR MROC 160200Z 23002KT 9999 FEW030 BKN110 23/21 A3002 RMK HZ ARND BECMG=
201005160300 METAR MROC 160300Z 17002KT 9999 FEW030 BKN120 23/21 A3004 BECMG=
201005160400 METAR MROC 160400Z 00000KT 9999 FEW030 BKN120 22/21 A3005 BECMG LTNG S=
201005160500 METAR MROC 160500Z 00000KT CAVOK 22/20 A3004 RMK BKN120 BECMG=
201005160600 METAR MROC 160600Z 09006KT CAVOK 23/18 A3003 RMK BKN120 BECMG=
201005160700 METAR MROC 160700Z 07006KT CAVOK 22/18 A3000 RMK BKN120 BECMG=
201005160800 METAR MROC 160800Z 08003KT CAVOK 21/18 A2999 RMK SCT120 SCT250 BECMG=
201005160900 METAR MROC 160900Z 07004KT CAVOK 20/18 A2998 RMK FEW120 BKN250 BECMG=
201005161000 METAR MROC 161000Z 08004KT CAVOK 20/17 A2997 RMK BKN250 BECMG=
201005161100 METAR MROC 161100Z 07006KT CAVOK 20/17 A2999 RMK BKN250 CB DST S BECMG=
201005161200 METAR MROC 161200Z 07006KT CAVOK 20/16 A3001 RMK FEW120 BKN250 CB DST S SW W BECMG=
201005161300 METAR MROC 161300Z 07006KT CAVOK 23/17 A3001 RMK CB DST S SW W FEW120 BKN250 BECMG=
201005161400 METAR MROC 161400Z 09004KT CAVOK 26/17 A3002 RMK FEW120 BKN250 CB DST S SW W BECMG=
201005161500 METAR MROC 161500Z 29004KT CAVOK 28/17 A3003 RMK CB DST S SW W FEW120 BKN250 BECMG=
201005161600 METAR MROC 161600Z 21006KT CAVOK 30/18 A3001 RMK CB DST S SW W FEW120 BKN250 BECMG=
201005161700 METAR MROC 161700Z 22011KT 9999 FEW040 SCT120 BKN250 29/18 A3001 CB DST SW BECMG=
201005161800 METAR MROC 161800Z 21002KT 9999 SCT040 SCT120 28/21 A3000 RMK CB DST SW FEW2 50 BECMG 7000 VCSH=
201005161900 METAR MROC 161900Z 22010KT 9999 FEW020 BKN040 29/22 A2998 BECMG 7000=
201005162000 METAR MROC 162000Z 19012KT 6000 2000SW RA BR FEW002 SCT015 BKN030 23/23 A2997 BECMG=
201005162100 METAR MROC 162100Z 21007KT 2000 -RA BR VCSH FEW001 SCT003 BKN030 22/22 A2998 RMK VIS S/E UNLD BECMG=
201005162200 METAR MROC 162200Z 23003KT 2000 -RA BR FEW001 SCT002 BKN025 21/21 A2999=
201005162228 METAR MROC 162228Z 34003KT 6000 3000SW -RA FEW001 SCT009 BKN030 21/21 A2999 BECMG=
201005162300 METAR MROC 162300Z VRB02KT 7000 -RA FEW003 BKN025 22/21 A3000 RMK VIS S UNLD BECMG=
201005170000 METAR MROC 170000Z 08004KT 9999 -RA VCFG SCT090 OVC150 21/21 A3000 RMK VIS 7KM NW BECMG=
201005170100 METAR MROC 170100Z 09005KT 9999 DZ SCT100 OVC120 22/21 A3000 BECMG=
201005170200 METAR MROC 170200Z 08005KT CAVOK 22/21 A3001 REDZ RMK SCT110 OVC250 BECMG0=
201005170300 METAR MROC 170300Z 10003KT CAVOK 22/20 A3003 RMK SCT120 BECMG=
201005170400 METAR MROC 170400Z 14003KT CAVOK 22/21 A3002 RMK SCT120 BECMG=
201005170500 METAR MROC 170500Z 10002KT CAVOK 21/20 A3002 RMK SCT120 BECMG=
201005170600 METAR MROC 170600Z 00000KT CAVOK 21/20 A3002 RMK SCT120 BECMG=
201005170700 METAR MROC 170700Z 09003KT CAVOK 20/20 A2997 RMK SCT120 SCT250 LOW ST SW BECMG=
201005170800 METAR MROC 170800Z 02003KT CAVOK 19/19 A2994 BECMG=
201005170900 METAR MROC 170900Z 07004KT CAVOK 19/18 A2996 BECMG=
201005171000 METAR MROC 171000Z 16005KT CAVOK 21/19 A2998 BECMG=
201005171100 METAR MROC 171100Z 04005KT CAVOK 20/19 A3000 BECMG=
201005171200 METAR MROC 171200Z 07002KT CAVOK 19/18 A3001 RMK SCT250 CB DST SSW BECMG=
201005171300 METAR MROC 171300Z 03002KT CAVOK 22/20 A3003 RMK SCT250 CB DST SSW LGT HZ QUAD W BECMG=
201005171400 METAR MROC 171400Z VRB02KT CAVOK 25/21 A3003 RMK SCT250 LGT HZ QUAD W BECMG=
201005171500 METAR MROC 171500Z 23004KT 9999 FEW045 SCT250 26/21 A3003 RMK LGT HZ DST W BECMG=
201005171600 METAR MROC 171600Z VRB02KT 9999 SCT030 BKN250 27/20 A3004 RMK HZ LGT W BECMG=
201005171637 METAR MROC 171637Z 22006KT 9999 SCT035 BKN250 28/21 A3003 RMK LGT HZ DST W BECMG=
201005171700 METAR MROC 171700Z 23008KT 9999 SCT035 BKN250 28/22 A3003 BECMG=
201005171800 METAR MROC 171800Z 19006KT 180V240 9999 SCT035 BKN250 28/21 A3000 BECMG=
201005171900 METAR MROC 171900Z 21011KT 9999 BKN035 27/22 A2998 RMK FEW250 RN DST NE BECMG=
201005172000 METAR MROC 172000Z 22009KT 9999 FEW025TCU SCT035 BKN250 27/23 A2995 RMK RN DST NE/E/SE BECMG=
201005172100 METAR MROC 172100Z 22008KT 9999 FEW020TCU SCT030 BKN250 25/23 A2994 RMK RN DST N NE E TCU DST S SW BECMG=
201005172200 METAR MROC 172200Z 21010KT 9999 FEW015 SCT020TCU BKN100 24/23 A2995 RMK PCPN NE BECMG 8000 SW=
201005172300 METAR MROC 172300Z 22007KT 8000 SCT006 BKN015 23/23 A2995 BECMG 6000 RA BCFG=
201005180000 METAR MROC 180000Z 22005KT 8000 SCT006 BKN015 23/23 A2998 BECMG 6000 RA BCFG=
201005180100 METAR MROC 180100Z 22006KT 7000 VCFG SCT005 BKN010 23/23 A3000 BECMG 6000 -RA BCFG=
201005180200 METAR MROC 180200Z 22003KT 7000 -DZ VCFG SCT005 BKN010 23/23 A3000 BECMG 6000 -RA BCFG=
201005180300 METAR MROC 180300Z 11004KT 9999 FEW007 SCT020 BKN100 22/22 A3003 BECMG=
201005180400 METAR MROC 180400Z 07003KT 9999 FEW009 SCT025 BKN100 22/22 A3002 BECMG=
201005180500 METAR MROC 180500Z 07010KT 9999 SCT030 SCT100 23/21 A3002 BECMG=
201005180600 METAR MROC 180600Z 02004KT 9999 SCT030 SCT100 23/21 A3000 BECMG=
201005180700 METAR MROC 180700Z 22002KT 9999 SCT030 22/21 A2999 RMK FEW100 BECMG=
201005180800 METAR MROC 180800Z 28003KT 9999 SCT030 21/21 A2998 RMK TRACE AC BECMG=
201005180900 METAR MROC 180900Z 00000KT 9999 SCT030 21/21 A2998 RMK TRACE AC BECMG=
201005181000 METAR MROC 181000Z 03003KT 9999 SCT030 21/21 A2999 RMK TRACE AC HZ ARND BECMG=
201005181100 METAR MROC 181100Z 04005KT 9999 SCT030 21/20 A3000 RMK TRACE CI BECMG=
201005181200 METAR MROC 181200Z 09002KT CAVOK 20/20 A3000 RMK BKN250 HZ ARND BECMG=
201005181300 METAR MROC 181300Z 05003KT CAVOK 24/20 A3001 RMK BKN250 HZ ARND BECMG=
201005181400 METAR MROC 181400Z 07005KT CAVOK 26/20 A3001 RMK BKN250 HZ ARND BECMG=
201005181500 METAR MROC 181500Z 11005KT 9999 FEW040 SCT250 28/20 A3001 RMK HZ ARND BECMG 25004KT=
201005181600 METAR MROC 181600Z 20003KT 9999 SCT040 SCT250 29/20 A3000 RMK HZ ARND BECMG 24004KT=
201005181700 METAR MROC 181700Z 21006KT 9999 SCT040 BKN250 28/22 A2999 RMK HZ LEVE ARND BECMG=
201005181800 METAR MROC 181800Z 15003KT 9999 SCT040 BKN250 29/22 A2997 RMK HZ LEVE ARND BECMG=
201005181900 METAR MROC 181900Z 26004KT 9999 FEW015TCU SCT030 BKN250 29/23 A2995 BECMG=
201005182000 METAR MROC 182000Z 21010KT 9999 FEW015TCU SCT030 BKN250 30/24 A2993 BECMG=
201005182100 METAR MROC NIL=
201005182200 METAR MROC 182200Z 23013KT 5000 -TSRA FEW015CB SCT025TCU SCT100 26/24 A2991 RMK VIS N NW UNL TS SE S BECMG 3000 TSRA=
201005182300 METAR MROC NIL=
201005190000 METAR MROC 190000Z 06004KT 9999 FEW010 BKN020 23/22 A2996 RETSRA BECMG=
201005190100 METAR MROC 190100Z 11003KT 9999 FEW010 BKN020 22/22 A2998 BECMG=
201005190200 METAR MROC 190200Z 00000KT 9999 -DZ FEW010 BKN020 23/22 A2999 BECMG=
201005190300 METAR MROC 190300Z VRB02KT 9999 SCT025 22/22 A3001 RMK FEW100 FEW250 BECMG=
201005190400 METAR MROC 190400Z 00000KT 9999 SCT025 22/22 A2999 RMK FEW250 LTNG DST SSE BECMG=
201005190500 METAR MROC 190500Z 11003KT 9999 FEW020 22/21 A2998 BECMG=
201005190600 METAR MROC 190600Z 07007KT CAVOK 22/21 A2996 RMK FEW050 BECMG=
201005190700 METAR MROC 190700Z 07009KT CAVOK 22/20 A2994 RMK FEW050 LTNG DST SE/S BECMG=
201005190800 METAR MROC 190800Z 08004KT CAVOK 22/20 A2994 RMK FEW050 LTNG DST SE/S BECMG=
201005190900 METAR MROC 190900Z 08007KT CAVOK 22/20 A2995 RMK FEW070 FEW250 TS/LTNG DST QUAD S BECMG=
201005191000 METAR MROC 191000Z 05005KT CAVOK 21/20 A2995 RMK FEW060 LTNG/TS DST QUAD S/W BECMG=
201005191100 METAR MROC 191100Z 28002KT CAVOK 21/19 A2996 RMK FEW060 SCT250 LTNG DST QUAD S/W BECMG=
201005191200 METAR MROC 191200Z 05005KT CAVOK 21/20 A2996 RMK FEW140 BKN250 CB DST SW BECMG=
201005191300 METAR MROC 191300Z 07004KT CAVOK 24/20 A2998 RMK SCT120 BKN250 BECMG=
201005191400 METAR MROC 191400Z 28005KT CAVOK 25/20 A2999 RMK FEW120 BKN250 BECMG=
201005191500 METAR MROC 191500Z 24003KT CAVOK 27/20 A2997 RMK BKN250 BECMG=
201005191600 METAR MROC 191600Z 23008KT 9999 FEW035 BKN250 28/21 A2998=
201005191700 METAR MROC 191700Z 21009KT 9999 SCT035 BKN250 28/22 A2998 BECMG=
201005191800 METAR MROC 191800Z 22010KT 9999 FEW025 SCT035 BKN250 28/23 A2997 BECMG=
201005191900 METAR MROC 191900Z 20010KT 9999 FEW020TCU SCT035 BKN250 28/22 A2995 RMK PCPN DST NE BECMG VCSH=
201005192000 METAR MROC 192000Z 20009KT 9999 RA FEW017CB SCT030 BKN250 28/23 A2992 VIS NE 6KMS BECMG 5000 -TSRA=
201005192100 METAR MROC 192100Z 07007KT 9999 1500N +TSRA SCT015CB BKN030 26/22 A2992 BECMG 5000 +TSRA=
201005192200 METAR MROC 192200Z 28007KT 9999 3000SW -RA BR SCT003 BKN025 22/21 A2994=
201005192300 METAR MROC 192300Z 01002KT 9999 4000SW -RA BR FEW005 BKN025 23/23 A2994 BECMG 7000 RA=
201005200000 METAR MROC 200000Z 29002KT 9999 VCFG SCT015 BKN090 23/23 A2995 RMK VIS 8000SW BECMG=
201005200100 METAR MROC 200100Z 00000KT 9999 FEW008 SCT015 BKN090 23/23 A2997 BECMG=
201005200200 METAR MROC 200200Z 25003KT 9999 FEW008 SCT015 BKN100 23/23 A2999 BECMG=
201005200300 METAR MROC 200300Z 24003KT 7000 VCFG SCT005 BKN015 23/23 A3000 BECMG 6000 BCFG=
201005200400 METAR MROC 200400Z 26003KT 7000 VCFG SCT005 BKN010 23/23 A3001 BECMG 6000 BCFG=
201005200500 METAR MROC 200500Z 23003KT 7000 VCFG SCT005 BKN010 23/23 A3001 BECMG 6000 BCFG=
201005200600 METAR MROC NIL=
201005200700 METAR MROC 200700Z 28002KT 9999 SCT015 23/23 A2999 RMK HZ ARN BECMG=
201005200800 METAR MROC NIL=
201005200900 METAR MROC 200900Z 25002KT 6000 VCFG FEW994 SCT015 22/22 A2996 BECMG=
201005201000 METAR MROC 201000Z 12003KT 9999 SCT020 21/21 A2996 BECMG=
201005201100 METAR MROC 201100Z 12002KT 9999 FEW009 SCT020 BKN250 21/21 A2997 BECMG=
201005201200 METAR MROC 201200Z 10002KT 9999 -RA SCT020 BKN100 21/21 A2998 BECMG=
201005201300 METAR MROC 201300Z 11004KT 9999 SCT030 BKN100 22/22 A2999 RMK DZ DST ARND BECMG 24006KT=
201005201400 METAR MROC 201400Z 08004KT CAVOK 24/22 A3000 RMK SCT100 BKN250 BECMG=
201005201500 METAR MROC 201500Z 12004KT CAVOK 25/22 A3002 RMK SCT120 BKN250 HZ DST SW BECMG=
201005201600 METAR MROC 201600Z 10002KT CAVOK 26/21 A3001 RMK SCT120 BKN120 RN DST E HZ SW BECMG 24006KT=
201005201700 METAR MROC 201700Z 14002KT 9999 RA BKN120 SCT250 27/20 A3000 RMK VIS 7000 SE BECMG 24006KT 6000 RA=
201005201800 METAR MROC 201800Z 12003KT 7000 3000SE -RA FEW025 BKN090 25/21 A2999 RMK RN DST ARND BECMG 5000 RA=
201005201900 METAR MROC 201900Z 08004KT 9999 4000SW -RA FEW020 BKN090 24/21 A2998 RMK VIS 4000SE RN DST ARND BECMG=
201005202000 METAR MROC 202000Z 17002KT 9999 4000SW -DZ BR FEW020 BKN100 25/21 A2995 RNK DZ DST ARND BECMG 24006KT=
201005202100 METAR MROC 202100Z 20006KT 9999 2000SW BR FEW002 SCT020 BKN100 24/22 A2995 BECMG 5000 BR=
201005202200 METAR MROC 202200Z 25004KT 7000 2000SW BR FEW002 SCT020 BKN100 24/21 A2996 BECMG 3000 BR=
201005202300 METAR MROC 202300Z 30002KT 7000 2000SW BR FEW002 SCT020 BKN100 23/21 A2997 BECMG=
201005210000 METAR MROC 210000Z 25007KT 7000 2000SW BR FEW002 SCT020 BKN100 23/21 A2999 BECMG=
201005210100 METAR MROC 210100Z 29003KT 9000 2000SW FEW002 BKN100 22/21 A3002 BECMG=
201005210200 METAR MROC 210200Z 27004KT 9999 FEW005 BKN100 22/21 A3003 BECMG=
201005210300 METAR MROC 210300Z 27004KT 9999 -DZ SCT010 BKN020 22/20 A3004 BECMG=
201005210400 METAR MROC 210400Z 25003KT 8000 VCFG BR FEW004 SCT008 BKN015 21/20 A3006 VIS SW W 4KMS BECMG 5000 BR=
201005210500 METAR MROC 210500Z 02002KT 8000 VCFG FEW005 SCT015 BKN020 21/20 A3003 BECMG=
201005210600 METAR MROC 210600Z 10003KT 9999 -RA FEW025 BKN100 21/20 A3001 BECMG=
201005210700 METAR MROC 210700Z 08005KT CAVOK 22/20 A2998 RERA RMK SCT100 BKN140 BECMG=
201005210800 METAR MROC 210800Z 07004KT CAVOK 22/20 A2995 RMK BKN120 BECMG=
201005210900 METAR MROC 210900Z 06004KT CAVOK 22/20 A2995 RMK BKN120 BECMG=
201005211000 METAR MROC 211000Z 00000KT CAVOK 21/20 A2996 RMK BKN120 BECMG=
201005211100 METAR MROC 211100Z 02002KT CAVOK 21/19 A2998 RMK BKN120 BECMG=
201005211200 METAR MROC 211200Z 19002KT CAVOK 22/20 A2999 RMK BKN120 HZY BECMG=
201005211300 METAR MROC 211300Z 29004KT 9999 FEW040 SCT120 23/20 A3002 RMK HZY LEVE ARND BECMG=
201005211400 METAR MROC 211400Z 29003KT 9999 FEW040 SCT120 24/20 A3002 RMK HZ LEVE ARND BECMG=
201005211500 METAR MROC 211500Z 28004KT 9999 SCT040 SCT120 26/21 A3002 RMK HZ LEVE ARND BECMG=
201005211600 METAR MROC 211600Z 21007KT 9999 SCT040 FEW120 26/20 A3001 RMK HZ LEVE ARND BECMG=
201005211700 METAR MROC 211700Z 23011KT 9999 SCT030 FEW120 25/21 A3001 RMK HZ LEVE ARND BECMG=
201005211800 METAR MROC 211800Z 22006KT 9999 FEW015 BKN030 24/21 A3000 RMK HZ LEVE ARND BECMG=
201005211900 METAR MROC 211900Z 22006KT 9999 -DZ FEW015 SCT025 BKN090 24/21 A2998 RMK TCU CB DST N NE=
201005212000 METAR MROC 212000Z 23006KT 9999 VCSH SCT020TCU BKN090 26/21 A2996 RMK RN N NE W SW BECMG 5000 -TSRA=
201005212100 METAR MROC 212100Z 26003KT 9999 -RA VCSH FEW045 OVC100 25/21 A2995 RMK VIS 6KM N/NE BECMG=
201005212200 METAR MROC 212200Z VRB02KT 9999 VCSH FEW045 SCT120 25/21 A2994 RMK VIS 7KM NW/N/NE BECMG=
201005212300 METAR MROC 212300Z 24003KT 9999 HZ FEW030 OVC100 24/21 A2994 RMK FEW060 VIS 6KM NW/N/NE BECMG=
201005212322 METAR MROC 212322Z 00000KT 5000 -RA HZ SCT015 BKN100 24/20 A2994 RMK VIS NE 3KM BECMG=
201005220000 METAR MROC 220000Z 25005KT 7000 3500SW BR VCFG FEW001 SCT025 BKN100 23/22 A2997 RMK VIS 4KM N BECMG=
201005220100 METAR MROC 220100Z 24005KT 5000 2000SW BR FEW001 BKN004 22/22 A2999 RMK TS DST W VIS E 10KM BECMG=
201005220200 METAR MROC 220200Z 25005KT 2500 BR VCFG FEW001 BKN003 22/21 A3001 RMK=
201005220300 METAR MROC 220300Z 27005KT 4000 BR SCT003 BKN007 22/22 A3003 BECMG=
201005220400 METAR MROC 220400Z 29003KT 5000 -DZ BR SCT003 BKN007 22/21 A3002 BECMG 2000 -RA BR=
201005220500 METAR MROC 220500Z 27004KT 9999 -DZ SCT010 BKN110 21/21 A3002 BECMG 5000BR=
201005220600 METAR MROC 220600Z 25004KT 9999 SCT015 SCT110 22/20 A3001 BECMG=
201005220700 METAR MROC 220700Z 34002KT 9999 BKN015 SCT110 22/20 A2998 BECMG=
201005220800 METAR MROC 220800Z 00000KT 9999 FEW025 SCT110 22/20 A2997 BECMG=
201005220900 METAR MROC 220900Z 00000KT CAVOK 21/20 A2997 RMK SCT110 BECMG=
201005221000 METAR MROC 221000Z 09005KT CAVOK 21/20 A2995 RMK FEW100 BECMG=
201005221100 METAR MROC 221100Z 09004KT CAVOK 20/19 A2995 RMK BKN100 BECMG=
201005221200 METAR MROC 221200Z 06004KT CAVOK 21/19 A2996 RMK SCT120 BKN250 BECMG=
201005221300 METAR MROC 221300Z 16004KT CAVOK 23/20 A2998 RMK FEW140 BKN250 HZ ARND BECMG=
201005221400 METAR MROC 221400Z 24005KT 9999 FEW025 SCT120 BKN250 24/20 A3000 HZ ARND BECMG=
201005221500 METAR MROC 221500Z 23505KT 9999 FEW025 SCT100 BKN250 25/20 A3001 RMK HZ ARND BECMG=
201005221600 METAR MROC 221600Z 24007KT 9999 SCT030 BKN250 26/21 A3000 RMK TCU DST NE HZ ARND BECMG=
201005221700 METAR MROC 221700Z 27007KT 9999 SCT030 BKN120 26/21 A2999 RMK HZ ARND BECMG FEW250=
201005221800 METAR MROC 221800Z 25008KT 9999 SCT030 BKN120 26/21 A2997 RMK TCU DST NE HZ ARND FEW250=
201005221900 METAR MROC 221900Z 23008KT 9999 SCT030 BKN120 27/21 A2995 RMK HZ ARND FEW250 TCU DST NNE BECMG=
201005222000 METAR MROC 222000Z 21006KT 9999 FEW020TCU SCT030 BKN100 26/22 A2990 RMK HZ ARND FEW250 CB DST E VIS 7KM NE BECMG=
201005222100 METAR MROC 222100Z 13003KT 9999 FEW030TCU SCT030 BKN100 26/21 A2987 RMK HZ ARND CB DST E PCPN DST NE E BECMG=
201005222200 METAR MROC 222200Z 11007KT 9999 FEW010CB SCT025 BKN100 26/21 A2988 RMK CB DST E PCPN DST NE E BECMG=
201005222300 METAR MROC 222300Z 24008KT 9999 SCT015CB BKN100 24/22 A2988 RMK CB DST E PCPN DST NE E BECMG=
201005230000 METAR MROC 230000Z 25006KT 8000 -RA VCFG FEW010 SCT020 OVC100 23/22 A2991 BECMG=
201005230100 METAR MROC 230100Z 24004KT 8000 -RA VCFG FEW010 SCT015 OVC100 23/22 A2994 BECMG=
201005230200 METAR MROC 230200Z 30006KT 8000 -TSRA FEW010CB SCT020 OVC100 21/20 A2997 RMK TS W BECMG=
201005230300 METAR MROC 230300Z 23002KT 7000 -RA FEW010 SCT020 OVC100 21/20 A2999 BECMG=
201005230400 METAR MROC 230400Z 00000KT 7000 -RA FEW010 SCT020 OVC100 21/20 A3000 BECMG=
201005230500 METAR MROC 230500Z 29002KT 6000 -RA SCT020 OVC100 21/20 A2999 BECMG=
201005230550 METAR MROC 230550Z 22004KT 1000 BR SCT001 BKN020 21/20 A2998 BECMG=
201005230600 METAR MROC 230600Z 22004KT 1000 BR SCT001 BKN020 21/20 A2998 BECMG=
201005230700 METAR MROC 230700Z 00000KT 4000 BR FEW001 SCT020 OVC100 21/20 A2995 BECMG=
201005230800 METAR MROC 230800Z 10004KT 8000 VCFG FEW003 SCT020 BKN100 21/20 A2991 BECMG=
201005230900 METAR MROC 230900Z 08004KT 9999 SCT030 BKN100 21/20 A2991 BECMG=
201005231000 METAR MROC 231000Z 16004KT 8000 VCFG FEW003 SCT020 BKN100 21/20 A2991 BECMG 4000 BR=
201005231100 METAR MROC 231100Z 00000KT 5000 BR FEW002 SCT030 BKN100 21/20 A2993 BECMG 4000 BR=
201005231200 METAR MROC 231200Z 00000KT 0700 FG FEW001 BKN100 21/20 A2994 BECMG 2000 BR=
201005231300 METAR MROC 231300Z 00000KT 9999 4000N BR FEW005 BKN100 21/21 A2996 BECMG=
201005231400 METAR MROC 231400Z 00000KT 9999 FEW015 BKN100 24/21 A2996 RMK HZY ARND=
201005231500 METAR MROC 231500Z 20003KT 9999 FEW030 BKN120 25/21 A2997 RMK HZ LEVE ARND BECMG=
201005231600 METAR MROC 231600Z 25006KT 9999 FEW030 BKN120 26/21 A2996 BECMG=
201005231700 METAR MROC 231700Z 24007KT 9999 SCT030 BKN120 27/22 A2994 BECMG=
201005231800 METAR MROC 231800Z 25009KT 9999 SCT030 SCT120 27/22 A2992 BECMG=
201005231900 METAR MROC 231900Z 26012KT 9999 FEW015 BKN030 25/22 A2989 BECMG 8000=
201005232000 METAR MROC 232000Z 22010KT 1500 -RA BR FEW001 SCT015 BKN030 22/21 A2989=
201005232100 METAR MROC 232100Z 27006KT 6000 -RA VCFG FEW005 SCT015 BKN100 22/21 A2988 BECMG 3000 -RA BR=
201005232200 METAR MROC 232200Z 29004KT 8000 -RA VCFG FEW005 SCT012 BKN025 21/21 A2988 RMK VIS WNW NW UNLTD BECMG=
201005232300 METAR MROC 232300Z 00000KT 2000 RA BR FEW008 SCT010 BKN100 21/21 A2990 BECMG=
201005240000 METAR MROC 240000Z 00000KT 5000 -RA BR FEW005 SCT010 BKN100 21/21 A2992=
201005240100 METAR MROC 240100Z 21002KT 3000 RA BR FEW003 SCT015 BKN100 21/21 A2994 RMK CONDICIONES VRBS BECMG=
201005240200 METAR MROC 240200Z 00000KT 9000 4000SW -RA BR SCT006 BKN020 21/20 A2995 VIS NW N 7KMS BECMG=
201005240300 METAR MROC 240300Z 00000KT 9999 -RA BR FEW006 SCT025 BKN100 21/20 A2996=
201005240400 METAR MROC 240400Z 08002KT 9999 DZ SCT035 BKN100 21/20 A2996 BECMG=
201005240500 METAR MROC 240500Z 00000KT 9999 -DZ FEW035 BKN100 21/20 A2996 BECMG=
201005240600 METAR MROC 240600Z 00000KT 9999 FEW001 SCT020 OVC100 21/20 A2994 BECMG=
201005240700 METAR MROC 240700Z VRB02KT 5000 3000SW BR SCT002 BKN045 OVC100 21/20 A2992 BECMG=
201005240800 METAR MROC 240800Z 24003KT 6000 3000SW -DZ BR SCT001 BKN009 21/20 A2991=
201005240900 METAR MROC 240900Z 29003KT 5000 2500W DZ BR SCT001 BKN006 21/20 A2990 BECMG=
201005241000 METAR MROC 241000Z 28004KT 3000 RA BR SCT001 BKN009 20/20 A2991 BECMG 5000 DZ BKN015=
201005241035 METAR MROC 241035Z 27004KT 5000 RA SCT001 BKN010 OVC080 20/20 A2993 BECMG=
201005241100 METAR MROC 241100Z 28003KT 5000 2000NW RA SCT009 OVC080 20/20 A2994 BECMG=
201005241200 METAR MROC 241200Z 33003KT 6000 2500S -RA BR VCFG FEW001 SCT015 OVC080 20/20 A2995 BECMG=
201005241300 METAR MROC 241300Z 33004KT 9999 FEW010 BKN100 20/20 A2995 RMK PCPN DST ESE SCT130 BECMG=
201005241400 METAR MROC 241400Z 23003KT 9999 FEW010 BKN120 22/20 A2996 RMK PCPN DST SE S BECMG=
201005241500 METAR MROC 241500Z 24004KT 9999 DZ SCT015 BKN120 23/20 A2998 BECMG=
201005241600 METAR MROC 241600Z 25004KT 9999 -RA FEW010 SCT020 BKN120 24/20 A2998 BECMG=
201005241700 METAR MROC 241700Z 28004KT 9999 SCT025 BKN120 25/20 A2997 BECMG=
201005241800 METAR MROC 241800Z 25007KT 9999 SCT025 BKN120 25/21 A2995 BECMG=
201005241900 METAR MROC 241900Z 26009KT 9999 RA FEW010 BKN020 25/21 A2993 RMK VIS S 6KMS BECMG 6000=
201005242000 METAR MROC 242000Z 24008KT 9999 RA FEW007 SCT015 BKN120 24/21 A2991 VIS SSE 6KMS BECMG 6000 -RA VCFG=
201005242100 METAR MROC 242100Z 26008KT 9999 VCFG SCT007 BKN015 23/20 A2990 RMK RN DST S SE BECMG 4000 -RA BR=
201005242200 METAR MROC 242200Z 25007KT 5000 RA BR FEW002 SCT015 BKN090 21/20 A2990 RMK VIS 8000N 3000SW BECMG 2000 -RA BR=
201005242300 METAR MROC 242300Z 26005KT 8000 3000SW -RA BR FEW003 SCT012 BKN090 21/20 A2991 BECMG 2000 -RA BR=
201005250000 METAR MROC 250000Z 27005KT 5000 2000SW RA BR SCT002 BKN090 21/20 A2993 BECMG 2000 -RA BR=
201005250100 METAR MROC 250100Z 30004KT 9999 FEW015 BKN110 21/20 A2995 RMK RN DST NE BECMG=
201005250200 METAR MROC 250200Z 31003KT 9999 DZ SCT020 BKN100 21/20 A2998 BECMG=
201005250300 METAR MROC 250300Z 22004KT 9999 SCT025 BKN100 21/20 A2999 BECMG=
201005250400 METAR MROC 250400Z 25003KT 9999 FEW009 SCT020 BKN10 21/20 A3000 BECMG=
201005250500 METAR MROC 250500Z 26003KT 4000 BR FEW001 SCT020 BKN100 21/20 A2999 BECMG 2000 BR=
201005250600 METAR MROC 250600Z 20004KT 7000 -RA VCFG FEW008 SCT020 OVC100 20/20 A2998 BECMG 4000 -RA=
201005250700 METAR MROC 250700Z 23002KT 9999 -RA SCT018 OVC100 20/19 A2996 BECMG 6000 RA VCFG=
201005250800 METAR MROC 250800Z 32006KT 9999 -RA FEW007 SCT020 OVC100 20/19 A2994 BECMG 6000 -RA VCFG=
201005250900 METAR MROC 250900Z 00000KT 9999 SCT020 BKN100 20/19 A2992 BECMG=
201005251000 METAR MROC 251000Z 17004KT 9999 FEW005 SCT020 BKN100 19/19 A2993 BECMG=
201005251100 METAR MROC 251100Z 32003KT 9999 SCT020 OVC100 20/19 A2994 BECMG=
201005251200 METAR MROC 251200Z 00000KT 9999 SCT015 OVC100 20/19 A2994 BECMG=
201005251300 METAR MROC 251300Z 00000KT 9999 VCSH FEW020 OVC100 20/19 A2997 BECMG=
201005251400 METAR MROC 251400Z 30002KT 9999 VCSH SCT020 BKN100 21/19 A2999 BECMG=
201005251500 METAR MROC 251500Z 23002KT 9999 FEW020 BKN110 23/20 A2999 RMK SCT220 BECMG=
201005251600 METAR MROC 251600Z 28003KT 9999 SCT025 BKN120 23/20 A3000 RMK RN DZ DST N NE E BECMG=
201005251700 METAR MROC 251700Z 24007KT 9999 SCT025 SCT120 24/20 A2999 RMK FEW250 BECMG=
201005251800 METAR MROC 251800Z 26006KT 9999 BKN025 SCT120 24/20 A2999 RMK DZ DST NE BECMG=
201005251900 METAR MROC 251900Z 26006KT 9999 SCT025 BKN120 24/20 A2996 BECMG=
201005252000 METAR MROC 252000Z 25007KT 9999 FEW015TCU BKN020 23/20 A2995 RMK SCT120 BECMG 6000 -TSRA=
201005252100 METAR MROC 252100Z 22006KT 9999 FEW010 SCT020 BKN100 23/19 A2993 BECMG=
201005252200 METAR MROC 252200Z 25007KT 9999 FEW010 SCT020 BKN100 22/20 A2993 BECMG=
201005252300 METAR MROC 252300Z 26005KT 9999 VCFG FEW005 SCT020 BKN100 22/20 A2994 BECMG=
201005260000 METAR MROC 260000Z 27006KT 9999 3000SW BR FEW001 SCT005 BKN100 21/20 A2996 BECMG 5000 RA BR=
201005260100 METAR MROC 260100Z 28003KT 8000 2000SW BR FEW001 SCT005 BKN100 21/20 A2999 BECMG 3000 -RA BR=
201005260200 METAR MROC 260200Z 28004KT 8000 2000SW BR FEW001 SCT005 BKN100 21/20 A3001 BECMG 3000 RA BR=
201005260300 METAR MROC 260300Z 26003KT 9999 4000SW BR FEW003 SCT005 BKN010 21/21 A3003 BECMG 5000=
201005260400 METAR MROC 260400Z 29003KT 9999 SCT010 BKN025 21/20 A3004 BECMG=
201005260500 METAR MROC 260500Z 27003KT 9999 FEW005 SCT010 BKN020 21/20 A3003 BECMG=
201005260600 METAR MROC 260600Z 00000KT 9999 FEW010 SCT020 BKN100 21/19 A3002 BECMG=
201005260700 METAR MROC 260700Z 30003KT 9999 FEW010 SCT025 BKN100 21/19 A3002 BECMG=
201005260800 METAR MROC 260800Z 31004KT 9999 FEW010 SCT025 BKN100 20/19 A2997 BECMG=
201005260900 METAR MROC 260900Z 29004KT 7000 3000SW -RADZ BR FEW003 SCT010 BKN025 20/19 A2998 BECMG 5000 -RA BR=
201005261000 METAR MROC 261000Z 33003KT 5000 -RADZ BR FEW002 SCT010 BKN025 20/19 A2997 BECMG=
201005261100 METAR MROC 261100Z 26003KT 6000 -RADZ VCFG FEW005 SCT020 BKN100 20/19 A2998 BECMG=
201005261200 METAR MROC 261200Z 32005KT 5000 -RA BR FEW005 SCT015 BKN100 20/19 A3001=
201005261300 METAR MROC 261300Z 30002KT 6000 -RA BR FEW002 SCT015 OVC090 20/19 A3001 RMK VIS 4KM SW LOW ST BECMG=
201005261400 METAR MROC 261400Z 31004KT 6000 3000SW FEW001 BKN015 21/20 A3003 RMK LOW ST SW BECMG=
201005261500 METAR MROC 261500Z 28005KT 7000 FEW005 SCT015 BKN090 22/20 A3003 RMK VIS 4KM SW DUE LOW ST BECMG=
201005261600 METAR MROC 261600Z 28004KT 4000 2000SW RA BR FEW001 SCT010 BKN080 22/20 A3004 BECMG 2000 RA BR BKN015=
201005261700 METAR MROC 261700Z 21006KT 2000 RA BR FEW001 SCT015 BKN030 21/20 A3004 BECMG=
201005261800 METAR MROC 261800Z 22010KT 3000 -RA BR FEW001 SCT015 BKN090 21/20 A3003 RMK VIS 7KM NE/SE VEL MAX VTO 15KT BECMG=
201005261900 METAR MROC 261900Z 24007KT 7000 FEW001 SCT025 BKN100 23/19 A3000 RMK FEW030 VIS QUAD S UNLD DZ DST NE BECMG=
201005262000 METAR MROC 262000Z 24007KT 7000 FEW001 SCT025 BKN100 23/19 A3000 RMK FEW030 VIS QUAD S UNLD BECMG=
201005262100 METAR MROC 262100Z 28004KT 9999 SCT025 BKN100 22/20 A2998 BECMG=
201005262200 METAR MROC 262200Z 26007KT 9999 SCT025 BKN100 22/19 A2996 BECMG=
201005262300 METAR MROC 262300Z 27007KT 9999 SCT025 BKN100 22/19 A2997 BECMG=
201005270000 METAR MROC 270000Z 26003KT 9999 SCT020 BKN100 21/20 A2999 BECMG=
201005270100 METAR MROC 270100Z 30003KT 9999 FEW010 SCT030 BKN100 21/19 A3002 BECMG=
201005270200 METAR MROC 270200Z 28003KT 9999 FEW010 SCT030 BKN100 21/19 A3003 BECMG=
201005270300 METAR MROC 270300Z 00000KT 9999 FEW015 BKN120 21/19 A3005 BECMG=
201005270400 METAR MROC 270400Z 00000KT 9999 FEW020 BKN120 21/19 A3005 RMK RN DST SE BECMG=
201005270500 METAR MROC 270500Z 11002KT CAVOK 20/19 A3005 RMK BKN120 BECMG=
201005270600 METAR MROC 270600Z 00000KT CAVOK 20/19 A3004 RMK BKN120 BECMG=
201005270700 METAR MROC 270700Z 04005KT CAVOK 20/19 A3002 RMK BKN120 BECMG=
201005270800 METAR MROC 270800Z 00000KT CAVOK 20/19 A3000 RMK BKN120 BECMG=
201005270900 METAR MROC 270900Z 00000KT CAVOK 20/19 A2998 RMK BKN120 BECMG=
201005271000 METAR MROC 271000Z 01003KT CAVOK 20/18 A2999 RMK BKN120 BECMG=
201005271100 METAR MROC 271100Z 00000KT CAVOK 19/18 A3000 RMK FEW050 BKN120 BECMG=
201005271200 METAR MROC 271200Z 13002KT CAVOK 20/19 A3001 RMK SCT120 BKN250 BECMG=
201005271300 METAR MROC 271300Z 08003KT CAVOK 23/20 A3002 RMK SCT120 SCT250 CB DST S HZ DST E/W BECMG 24006KT=
201005271400 METAR MROC 271400Z 00000KT CAVOK 24/19 A3004 RMK BKN110 BECMG 24005KT=
201005271500 METAR MROC 271500Z 25004KT 9999 SCT035 BKN110 25/20 A3006 BECMG=
201005271600 METAR MROC 271600Z 25009KT 9999 FEW020TCU SCT030 BKN100 29/21 A3007 RMK VIS 7KM NW DUE LOW ST/RN BECMG 7000 VCSH=
201005271700 METAR MROC 271700Z 27008KT 5000 2000SW RA BR FEW006 SCT010 BKN080 21/20 A3008 BECMG=
201005271800 METAR MROC 271800Z 34004KT 8000 3500E -RA SCT010 BKN070 22/20 A3006 RERA BECMG=
201005271900 METAR MROC 271900Z 25004KT 9999 SCT020 BKN110 23/21 A3004 RERA RMK RN DST SEE BECMG=
201005272000 METAR MROC 272000Z 28007KT 9999 BKN025 OVC110 23/20 A3002 BECMG 7000=
201005272100 METAR MROC 272100Z 27006KT 9999 SCT010 BKN020 23/21 A3002 BECMG=
201005272200 METAR MROC 272200Z 26005KT 9999 SCT010 BKN020 22/21 A3002 BECMG=
201005272300 METAR MROC 272300Z 29005KT 9999 SCT008 BKN015 21/21 A3004 BECMG 8000 -DZ BCFG=
201005280000 METAR MROC 280000Z 30003KT 9999 FEW007 BKN100 22/21 A3004 BECMG=
201005280100 METAR MROC 280100Z 21003KT 9999 -RA FEW007 BKN100 21/21 A3007 BECMG 5000 -RA BR=
201005280200 METAR MROC 280200Z 00000KT 9999 FEW007 BKN100 20/20 A3009 RERA BECMG=
201005280300 METAR MROC 280300Z 23004KT 9999 FEW004 BKN015 21/20 A3009 RMK VIS SSW 7KMS DUE FG=
201005280400 METAR MROC 280400Z 29003KT 9999 FEW006 SCT020 BKN100 21/21 A3011 BECMG=
201005280500 METAR MROC 280500Z 29003KT 9999 FEW007 SCT020 BKN100 21/21 A3010 BECMG=
201005280600 METAR MROC 280600Z 29002KT 9999 SCT020 BKN100 21/21 A3009 RMK TRACE ST BECMG=
201005280700 METAR MROC 280700Z 02002KT 9999 SCT020 BKN100 20/20 A3007 RMK TRACE ST BECMG=
201005280800 METAR MROC 280800Z 00000KT 9999 SCT020 BKN100 20/20 A3005 RMK TRACE ST BECMG=
201005280900 METAR MROC 280900Z 00000KT 9999 SCT020 BKN100 20/20 A3004 RMK TRACE ST BECMG=
201005281000 METAR MROC 281000Z 00000KT 9999 SCT020 BKN100 19/19 A3004 BECMG=
201005281100 METAR MROC 281100Z 08002KT 9999 FEW015 SCT100 BKN250 19/19 A3006 BECMG=
201005281200 METAR MROC 281200Z 11005KT 9999 FEW020 SCT120 BKN250 19/19 A3007 BECMG=
201005281300 METAR MROC 281300Z 10004KT CAVOK 21/18 A3009 RMK SCT120 BKN250 BECMG=
201005281400 METAR MROC 281400Z 00000KT 9999 FEW040 SCT120 BKN250 24/19 A3009 BECMG 24006 KT=
201005281500 METAR MROC 281500Z 24006KT 9999 FEW040 SCT120 BKN250 24/19 A3011 BECMG=
201005281600 METAR MROC 281600Z 26007KT 9999 SCT030 SCT250 24/19 A3011 BECMG=
201005281700 METAR MROC 281700Z 24005KT 9999 SCT030 SCT250 26/19 A3010 BECMG=
201005281800 METAR MROC 281800Z 00000KT 9999 SCT030 27/18 A3008 RMK FEW250 BECMG=
201005281900 METAR MROC 281900Z 22007KT 9999 SCT030 SCT250 27/20 A3005 BECMG=
201005282000 METAR MROC 282000Z 25004KT 9999 SCT030 SCT250 28/20 A3002 BECMG=
201005282100 METAR MROC 282100Z 25008KT 9999 FEW025TCU SCT035 BKN250 27/21 A3003 BECMG=
201005282200 METAR MROC 282200Z 24011KT 9999 SCT015 SCT025 25/22 A3003 RMK TCU DST E NE BECMG=
201005282300 METAR MROC 282300Z 24009KT 9999 FEW005 SCT020 BKN250 23/22 A3003 BECMG 8000 BCFG=
201005290000 METAR MROC 290000Z 25005KT 9999 FEW005 SCT015 BKN250 21/20 A3005 BECMG -DZ=
201005290100 METAR MROC 290100Z 30005KT 9999 FEW005 BKN015 22/21 A3006 VIS SSW SW 7KMS DUE FG BECMG=
201005290200 METAR MROC 290200Z 24003KT 9999 FEW004 BKN015 22/21 A3008 RMK VIS SSW SW 7KMS DUE FG BECMG=
201005290300 METAR MROC 290300Z 23004KT 9999 FEW004 BKN015 21/20 A3009 RMK VIS SSW 7KMS DUE FG=
201005290400 METAR MROC 290400Z 26005KT 9000 3000W SCT002 BKN015 21/20 A3010 RMK ST LOW ARND BECMG=
201005290500 METAR MROC 290500Z 27004KT 7000 2500SW -DZ BR VCFG SCT001 BKN009 21/20 A3009 BECMG 5000 DZ BR=
201005290600 METAR MROC 290600Z 27005KT 8000 3000SW BR VCFG SCT002 BKN015 20/20 A3008 RMK VIS 3KM W/NW/N BECMG=
201005290700 METAR MROC 290700Z 26004KT 9999 5000SW BR VCFG FEW004 BKN015 20/20 A3007 BECMG=
201005290800 METAR MROC 290800Z 28003KT 9999 4000SW BR VCFG FEW002 BKN015 20/20 A3005 BECMG=
201005290900 METAR MROC 290900Z VRB02KT 9999 4000SW BR VCFG FEW002 BKN025 20/19 A3004 BECMG 07004KT=
201005291000 METAR MROC 291000Z 00000KT 6000 2500NE BR VCFG SCT001 19/19 A3004 RMK FEW020 BECMG=
201005291100 METAR MROC 291100Z VRB02KT 9999 VCFG FEW001 BKN090 19/19 A3005 RMK VIS 7KM SE BECMG=
201005291200 METAR MROC 291200Z VRB02KT 9999 VCFG FEW003 BKN080 20/19 A3007 RMK VIS 8KM S/SE BECMG=
201005291300 METAR MROC 291300Z 00000KT 9999 FEW015 BKN250 22/20 A3010 BECMG=
201005291400 METAR MROC 291400Z 27002KT 9999 FEW020 SCT250 23/20 A3011 BECMG=
201005291500 METAR MROC 291500Z 23004KT 9999 SCT025 SCT250 24/20 A3011 BECMG=
201005291600 METAR MROC 291600Z 24007KT 9999 BKN025 SCT250 24/20 A3011 BECMG RA=
201005291700 METAR MROC 291700Z 24007KT 9999 FEW015 SCT030 BKN250 25/21 A3010 BECMG=
201005291800 METAR MROC 291800Z 25007KT 9999 SCT025 BKN250 26/22 A3008 BECMG=
201005291900 METAR MROC 291900Z 25008KT 9999 FEW015 BKN025 24/20 A3007 BECMG=
201005292000 METAR MROC 292000Z 24009KT 9999 FEW012 SCT020 BKN250 24/22 A3004 BECMG=
201005292100 METAR MROC 292100Z 25008KT 9999 SCT020 SCT100 24/20 A3001 RMK FEW250 BECMG=
201005292200 METAR MROC 292200Z 24008KT 9999 FEW020 SCT035 BKN250 23/20 A3001 BECMG=
201005292300 METAR MROC 292300Z 26006KT 9999 FEW020 BKN250 23/20 A3001 BECMG=
201005300000 METAR MROC 300000Z 26006KT 9999 FEW003 SCT010 SCT250 21/20 A3004 BECMG 5000 BR=
201005300100 METAR MROC NIL=
201005300200 METAR MROC NIL=
201005300300 METAR MROC 300300Z 24003KT 9999 4000SW BR FEW003 BKN010 20/20 A3010 BECMG 3000SW BR=
201005300400 METAR MROC NIL=
201005300500 METAR MROC 300500Z 31003KT 9999 FEW004 SCT010 BKN100 20/20 A3012 BECMG=
201005300600 METAR MROC 300600Z 03005KT 9999 FEW005 SCT020 20/20 A3010 BECMG=
201005300700 METAR MROC 300700Z 07002KT 9999 FEW006 SCT020 20/20 A3009 BECMG=
201005300800 METAR MROC 300800Z 00000KT 9999 FEW010 SCT020 19/19 A3007 BECMG=
201005300900 METAR MROC 300900Z 08004KT 9999 FEW010 BKN100 18/17 A3006 BECMG=
201005301000 METAR MROC 301000Z 08003KT 9999 FEW010 BKN110 18/17 A3006 BECMG=
201005301100 METAR MROC 301100Z 05003KT CAVOK 18/17 A3007 RMK TRACE ST BKN110 BECMG=
201005301200 METAR MROC 301200Z 00000KT CAVOK 28/27 A3008 RMK TRACE ST BKN110 BECMG=
201005301300 METAR MROC 301300Z 12002KT CAVOK 20/18 A3009 RMK BKN130 SCT250 BECMG 24006KT=
201005301400 METAR MROC 301400Z 28002KT 9999 FEW035 SCT250 22/18 A3011 BECMG=
201005301500 METAR MROC 301500Z 25004KT 9999 SCT030 SCT250 23/18 A3011 BECMG=
201005301600 METAR MROC 301600Z 23005KT 9999 SCT030 25/19 A3010 BECMG=
201005301700 METAR MROC 301700Z 27005KT 9999 SCT030 26/19 A3009 BECMG=
201005301800 METAR MROC 301800Z 25008KT 9999 SCT035 26/20 A3007 BECMG=
201005301900 METAR MROC 301900Z 25007KT 9999 SCT035 26/20 A3006 BECMG=
201005302000 METAR MROC 302000Z 24008KT 9999 SCT035 27/20 A3004 BECMG=
201005302100 METAR MROC 302100Z 27009KT 9999 SCT035 27/21 A3003 BECMG=
201005302200 METAR MROC 302200Z 26009KT 9999 SCT035 BKN100 25/21 A3003 BECMG=
201005302300 METAR MROC 302300Z 25008KT 9999 FEW015 SCT035 BKN100 23/20 A3004 BECMG=
201005310000 METAR MROC 310000Z 25007KT 9999 FEW010 SCT030 BKN080 22/20 A3005 BECMG=
201005310100 METAR MROC 310100Z 28004KT 9999 FEW010 SCT030 BKN080 21/20 A3007 BECMG=
201005310200 METAR MROC 310200Z VRB02KT 9999 -RA FEW010 SCT030 BKN080 21/20 A3010 BECMG=
201005310300 METAR MROC 310300Z 32002KT 9999 FEW030 BKN100 22/21 A3012 RERA BECMG=
201005310400 METAR MROC 310400Z 20002KT 9999 FEW005 BKN120 21/21 A3013 BECMG 5000 BR=
201005310500 METAR MROC 310500Z 00000KT 2000 BR FEW001 SCT004 BKN100 21/21 A3014 BECMG 5000=
201005310600 METAR MROC 310600Z 00000KT 5000 BR SCT003 BKN007 21/21 A3013 BECMG 7000=
201005310700 METAR MROC 310700Z 00000KT 7000 SCT006 BKN015 21/21 A3012 RMK FG ARND VIS E SE UNL BECMG=
201005310800 METAR MROC 310800Z 00000KT 9999 FEW015 SCT120 20/19 A3010 RMK VIS S 7KMS DUE FG BECMG=
201005310900 METAR MROC 310900Z 10004KT CAVOK 19/18 A3009 RMK SCT120 LGT HZ ARND BECMG=
201005311000 METAR MROC 311000Z 06003KT CAVOK 18/17 A3009 RMK FEW120 FEW250 BECMG=
201005311100 METAR MROC 311100Z 09003KT CAVOK 18/17 A3007 RMK FEW250 BECMG=
201005311200 METAR MROC 311200Z 29002KT CAVOK 19/17 A3010 RMK SCT250 HZY BECMG=
201005311300 METAR MROC 311300Z 00000KT CAVOK 22/18 A3011 RMK SCT250 HZY W BECMG=
201005311400 METAR MROC 311400Z 26003KT CAVOK 24/19 A3011 RMK SCT250 HZY W BECMG=
201005311500 METAR MROC 311500Z 25008KT 9999 FEW040 BKN250 25/20 A3013 RMK HZ W BECMG=
201005311600 METAR MROC 311600Z 23005KT 9999 FEW040 BKN250 26/21 A3012 HZ W BECMG=
201005311700 METAR MROC 311700Z 22005KT 9999 SCT040 BKN250 27/21 A3011 RMK HZ LEVE ARND BECMG=
201005311800 METAR MROC 311800Z 25009KT 9999 SCT035 BKN250 27/22 A3009 RMK HZ LEVE ARND BECMG=
201005311900 METAR MROC 311900Z 22011KT 9999 SCT035 BKN250 27/22 A3008 RMK HZ LEVE ARND BECMG=
201005312000 METAR MROC 312000Z 23010KT 9999 SCT030 BKN250 26/21 A3007 RMK HZ ARND BECMG=
201005312100 METAR MROC 312100Z 24008KT 7000 -RA VCSH SCT030 BKN150 25/22 A3006 RMK LGT HZ ARND VIS 4KM N DUE RN BECMG 5000 RA=
201005312200 METAR MROC 312200Z 25006KT 8000 3500N -RA VCSH SCT020 BKN200 24/21 A3005 RMK FEW070 VIS 4KM SW HZ ARND BECMG=
201005312300 METAR MROC 312300Z 26004KT 7000 3000NW BR HZ SCT020 BKN200 23/21 A3006 RMK FEW040 CB/RN DST N BECMG=
201006010000 METAR MROC 010000Z 25004KT 6000 2500SW BR HZ SCT015 BKN250 23/21 A3008 RMK FEW025 VIS 3KM N BECMG=
201006010100 METAR MROC 010100Z 30002KT 8000 3000SW HZ BR SCT009 BKN250 22/21 A3010 RMK VIS 3KM NW/N BECMG=
201006010200 METAR MROC 010200Z 00000KT 8000 3000SW HZ BR SCT003 22/21 A3011 RMK FEW010 VIS 4KM QUAD N BECMG=
201006010300 METAR MROC 010300Z 27002KT 2000 BR BKN002 22/21 A3012 BECMG 5000 BR=
201006010400 METAR MROC 010400Z 00000KT 3000 0800S BR FG BKN002 22/21 A3012 BECMG 5000 BR=
201006010500 METAR MROC 010500Z 30002KT 9999 VCFG SCT007 21/21 A3011 BECMG=
201006010600 METAR MROC 010600Z 29004KT 9999 4000SW BR BKN003 21/21 A3010 BECMG=
201006010700 METAR MROC 010700Z 03004KT 9999 FEW010 SCT120 20/19 A3007 BECMG=
201006010800 METAR MROC 010800Z 06003KT CAVOK 20/18 A3005 RMK SCT120 BECMG=
201006010900 METAR MROC 010900Z 04004KT CAVOK 19/18 A3007 RMK FEW120 BECMG=
201006011000 METAR MROC 011000Z 03006KT CAVOK 20/18 A3005 RMK FEW120 LTNG DST S BECMG=
201006011100 METAR MROC 011100Z 07003KT CAVOK 21/18 A3006 RMK BKN120 BECMG=
201006011200 METAR MROC 011200Z 06005KT CAVOK 22/18 A3006 RMK FEW120 SCT250 BECMG=
201006011300 METAR MROC 011300Z 24002KT CAVOK 24/19 A3007 RMK FEW120 SCT250 CB DST S HZ LGT S BECMG=
201006011400 METAR MROC 011400Z 25007KT 9999 FEW015 SCT250 23/20 A3009 RMK HZY VIS 7KM QUAD W BECMG=
201006011500 METAR MROC 011500Z VRB02KT 9999 FEW025 26/20 A3010 RMK FEW050 FEW250 VIS 7KM QUAD SW/W/NW/N DUE HZ BECMG=
201006011600 METAR MROC 011600Z 22006KT 9999 FEW045 27/21 A3008 RMK FEW120 VIS 7KM SW/W/NW HZ QUAD W BECMG=
201006011700 METAR MROC 011700Z 08007KT 9999 FEW045 29/18 A3006 RMK SCT110 VIS 7KM=
201006011800 METAR MROC 011800Z 23009KT 9999 SCT045 27/23 A3004 RMK FEW100 FEW250 VIS 7KM SW/W DUE HZ VEL MAX VTO 14KT BECMG=
201006011900 METAR MROC 011900Z 24010KT 9999 FEW030 SCT045 26/22 A3002 RMK VIS 7KM=
201006012000 METAR MROC 012000Z 23008KT 8000 FEW020TCU SCT035 25/22 A3000 RMK HZ ARND VIS 5KM SW BECMG=
201006012035 METAR MROC 012035Z 24003KT 4000 SHRA SCT010TCU BKN018 25/22 A2999 BECMG=
201006012100 METAR MROC 012100Z 20006KT 5000 -RA BR FEW006 SCT012TCU BKN025 23/23 A3000 BECMG 3000 -RA BR=
201006012200 METAR MROC 012200Z 17003KT 9999 -RA FEW007 SCT025 BKN120 23/22 A2999 BECMG=
201006012300 METAR MROC 012300Z 05003KT 9999 FEW025 BKN120 23/22 A3000 BECMG=
201006020000 METAR MROC 020000Z 00000KT 9999 SCT025 BKN120 23/23 A3001 BECMG=
201006020100 METAR MROC 020100Z 13004KT 9999 SCT025 BKN120 23/20 A3001 BECMG=
201006020200 METAR MROC 020200Z 05005KT 9999 SCT030 BKN120 23/19 A3002 RMK TS DST S BECMG=
201006020300 METAR MROC 020300Z 03003KT 9999 SCT030 BKN120 23/19 A3003 RMK TS DST SW BECMG=
201006020400 METAR MROC 020400Z 10014KT 9999 FEW030 SCT130 23/18 A3002 RMK TS DST SW BECMG=
201006020500 METAR MROC 020500Z 11010KT CAVOK 23/19 A3003 RMK TS DST SW FEW130 BECMG=
201006020600 METAR MROC 020600Z 12010KT CAVOK 23/18 A3002 RMK TS DST SW FEW130 BECMG=
201006020700 METAR MROC 020700Z 12010KT CAVOK 23/18 A3000 RMK TS DST SW BECMG=
201006020800 METAR MROC 020800Z 11008KT CAVOK 23/18 A3002 BECMG=
201006020900 METAR MROC 020900Z 01005KT CAVOK 22/20 A3002 BECMG=
201006021000 METAR MROC 021000Z 03004KT CAVOK 22/20 A3002 RMK SCT100 BECMG=
201006021100 METAR MROC 021100Z 06006KT CAVOK 21/19 A3001 RMK SCT120 BECMG=
201006021200 METAR MROC 021200Z 06006KT CAVOK 22/19 A3001 RMK FEW120 SCT250 BECMG=
201006021300 METAR MROC 021300Z 10007KT CAVOK 24/18 A3001 RMK FEW120 SCT250 BECMG=
201006021400 METAR MROC 021400Z 12007KT CAVOK 26/19 A3002 RMK FEW120 SCT250 BECMG=
201006021500 METAR MROC 021500Z 14005KT 9999 FEW040 SCT120 BKN250 27/19 A3002 BECMG 24006 KT=
201006021600 METAR MROC 021600Z 25008KT CAVOK 26/22 A3001 RMK SCT120 SCT250 BECMG=
201006021700 METAR MROC 021700Z 24006KT 9999 FEW040 SCT120 26/21 A3001 BECMG=
201006021800 METAR MROC 021800Z 24008KT 9999 SCT040 SCT120 27/21 A2999 RMK RN N NE BECMG=
201006021900 METAR MROC 021900Z 26007KT 9999 SCT040 SCT100 25/21 A2997 RMK RN N NE=
201006022000 METAR MROC 022000Z 26006KT 9999 RA BKN030 24/21 A2996 BECMG 6000=
201006022100 METAR MROC 022100Z 22005KT 9999 VCSH VCFG FEW004 FEW015CB BKN025 23/22 A2996 RERA RMK VIS S SW 9KMS BECMG 5000 -RA BR=
201006022200 METAR MROC 022200Z 22005KT 9999 -RA VCSH FEW015CB SCT025 BKN100 22/20 A2996 RASH N NE SE W VIS NE 8KMS BECMG 5000 -RA BR=
201006022300 METAR MROC 022300Z 29004KT 9999 -RA VCFG FEW015 SCT030 BKN100 22/20 A2998 VIS S SSW N 8KMS BECMG=
201006030000 METAR MROC 030000Z 29005KT 9999 FEW015 SCT025 BKN100 21/20 A3001 RMK PCPN DST ARND BECMG=
201006030100 METAR MROC 030100Z 36003KT 9999 FEW010 SCT030 BKN050 21/20 A3002 BECMG -RA=
201006030200 METAR MROC 030200Z 28002KT 9999 FEW025 BKN100 21/20 A3003 BECMG=
201006030300 METAR MROC 030300Z 00000KT 9999 FEW025 BKN080 21/20 A3004 BECMG=
201006030400 METAR MROC 030400Z 22006KT 9999 FEW015 BKN030 21/20 A3006 BECMG=
201006030500 METAR MROC 030500Z 30002KT 9999 SCT015 BKN045 21/20 A3005 BECMG=
201006030600 METAR MROC 030600Z 31003KT 9999 FEW015 BKN090 21/20 A3003 BECMG=
201006030700 METAR MROC 030700Z 00000KT 9999 FEW015 BKN090 21/20 A3000 BECMG=
201006030800 METAR MROC 030800Z 16003KT 9999 FEW025 BKN100 21/20 A2998 BECMG=
201006030900 METAR MROC 030900Z 00000KT 9999 FEW025 BKN100 20/19 A2998 BECMG=
201006031000 METAR MROC 031000Z 08003KT CAVOK 20/19 A2996 RMK FEW100 BECMG=
201006031100 METAR MROC 031100Z 00004KT CAVOK 20/19 A2997 RMK BKN150 BECMG=
201006031200 METAR MROC 031200Z 24003KT 0300 FG BKN130 19/19 A3000 BECMG=
201006031300 METAR MROC 031300Z 27002KT 3000 BR FEW001 SCT005 BKN120 21/20 A3003 VIS N NE E UNLT BECMG 9999=
201006031400 METAR MROC 031400Z 17002KT 9999 FEW008 BKN120 22/20 A3004 RMK LOW CLOWDS OVER APCH RNY 07 BECMG=
201006031500 METAR MROC 031500Z 00000KT 9999 FEW025 BKN120 24/20 A3003 BECMG=
201006031600 METAR MROC 031600Z 26005KT 9999 FEW025 BKN120 26/21 A3002 BECMG=
201006031700 METAR MROC 031700Z 24009KT 9999 FEW030 BKN120 26/22 A3003 BECMG=
201006031800 METAR MROC 031800Z 24006KT 9999 FEW017 SCT025 BKN120 25/21 A3000 BECMG 8000 RA=
201006031900 METAR MROC 031900Z 24007KT 9999 VCSH FEW017TCU BKN025 25/23 A3000 RMK PCPN S SW NE BECMG 6000 SHRA=
201006032000 METAR MROC 032000Z 26006KT 9999 VCSH FEW015TCU SCT025 BKN250 25/21 A2997 RMK PCPN E NE BECMG 6000 SHRA=
201006032100 METAR MROC 032100Z 25010KT 9999 4000SW SHRA SCT010CB BKN020 23/22 A2998 BECMG 2000 -TSRA=
201006032200 METAR MROC 032200Z 25009KT 3000 0800SW RA BR FG SCT001 BKN006 21/21 A2998 BECMG=
201006032300 METAR MROC 032300Z 25008KT 1500 -RA BR SCT003 BKN006 21/21 A3001 RMK BECMG 0500 -RA FG=
201006040000 METAR MROC 040000Z 23006KT 5000 RA BR FEW003 BKN010 21/21 A3004 BECMG 7000 -RA=
201006040100 METAR MROC 040100Z 27006KT 9999 RA SCT015 BKN080 20/20 A3007 BECMG=
201006040200 METAR MROC 040200Z 25006KT 9999 RA SCT020 BKN090 20/20 A3009 BECMG=
201006040300 METAR MROC 040300Z 28004KT 9999 FEW006 SCT020 OVC100 20/20 A3012 RERA BECMG=
201006040400 METAR MROC 040400Z 28002KT 9999 FEW006 SCT020 OVC100 20/20 A3012 BECMG=
201006040500 METAR MROC 040500Z 00000KT 9999 FEW006 SCT020 BKN100 20/19 A3010 BECMG=
201006040600 METAR MROC 040600Z 10004KT CAVOK 19/19 A3006 RMK BKN110 BECMG=
201006040700 METAR MROC 040700Z 08007KT CAVOK 20/19 A3003 RMK BKN110 BECMG=
201006040800 METAR MROC 040800Z 09004KT CAVOK 20/19 A3001 RMK BKN110 BECMG=
201006040900 METAR MROC 040900Z 08004KT CAVOK 20/18 A3001 RMK BKN110 BECMG=
201006041000 METAR MROC 041000Z 11004KT CAVOK 19/19 A3001 RMK BKN110 BECMG=
201006041100 METAR MROC 041100Z 13003KT CAVOK 19/18 A3002 RMK BKN120 BECMG=
201006041200 METAR MROC 041200Z 00000KT CAVOK 19/18 A3004 RMK BKN220 BECMG=
201006041300 METAR MROC 041300Z 11002KT CAVOK 21/19 A3007 RMK BKN250 BECMG 24006KT=
201006041400 METAR MROC 041400Z 21002KT CAVOK 22/19 A3008 RMK BKN250 BECMG=
201006041500 METAR MROC 041500Z 26005KT CAVOK 25/20 A3010 RMK BKN250 BECMG=
201006041600 METAR MROC 041600Z 25006KT CAVOK 26/20 A3010 RMK BKN250 BECMG=
201006041700 METAR MROC 041700Z 24008KT 9999 SCT035 25/22 A3010 RMK FEW250 BECMG=
201006041800 METAR MROC 041800Z 23005KT 9999 SCT035 SCT250 25/21 A3009 BECMG=
201006041900 METAR MROC 041900Z 22006KT 9999 FEW020TCU BKN030 25/22 A3007 BECMG 6000 RA=
201006042000 METAR MROC 042000Z 24007KT 9999 SCT030 SCT250 25/22 A3004 BECMG=
201006042100 METAR MROC 042100Z 24007KT 9999 SCT030 SCT250 26/21 A3001 BECMG=
201006042200 METAR MROC 042200Z 23008KT 9999 FEW010 BKN030 24/23 A3002 BECMG=
201006042300 METAR MROC 042300Z 23008KT 8000 3000SW BR FEW002 SCT010 BKN030 22/22 A3003 BECMG 5000=
201006050000 METAR MROC 050000Z 23005KT 2000 BR FEW001 BKN010 21/21 A3004 BECMG 1000=
201006050100 METAR MROC 050100Z 25004KT 8000 VCFG FEW005 BKN015 21/21 A3006 BECMG=
201006050200 METAR MROC 050200Z 23002KT 8000 VCFG FEW005 BKN015 21/21 A3007 BECMG=
201006050300 METAR MROC 050300Z 00000KT 8000 VCFG FEW004 BKN010 21/21 A3007 BECMG 03005KT 9999 BKN025=
201006050400 METAR MROC 050400Z 00000KT 9999 VCFG BKN025 21/21 A3007 VIS S SSW 8KMS BECMG=
201006050500 METAR MROC 050500Z 31003KT 9999 VCFG FEW010 SCT250 21/21 A3006 RMK VIS E NE 8KMS FEW025 BECMG=
201006050600 METAR MROC 050600Z 07003KT 9999 VCFG FEW030 SCT250 20/20 A3005 RMK VIS S SSW 8KMS BECMG=
201006050700 METAR MROC 050700Z 00000KT 9999 VCFG FEW035 SCT250 20/20 A3004 RMK VIS S SSW 8KMS BECMG 5000 BR=
201006050800 METAR MROC 050800Z 36002KT 9999 FEW035 SCT250 19/19 A3004 RMK VIS S 7KMS DUE FG BECMG=
201006050900 METAR MROC 050900Z 04004KT CAVOK 19/18 A3003 RMK SCT250 BECMG=
201006051000 METAR MROC 051000Z 08002KT CAVOK 10/19 A3003 RMK SCT250 BECMG=
201006051100 METAR MROC 051100Z 08006KT CAVOK 19/18 A3003 RMK FEW250 BECMG=
201006051200 METAR MROC 051200Z 07004KT CAVOK 21/19 A3005 RMK FEW250 BECMG=
201006051300 METAR MROC 051300Z 08003KT CAVOK 24/19 A3007 RMK FEW250 BECMG=
201006051400 METAR MROC 051400Z VRB02KT CAVOK 26/21 A3007 RMK FEW250 LGT HZ ARND=
201006051500 METAR MROC 051500Z 26004KT CAVOK 27/21 A3008 RMK FEW050 SCT250 BECMG=
201006051600 METAR MROC 051600Z 11004KT CAVOK 29/19 A3006 RMK FEW050 SCT250 HZ DST W BECMG=
201006051700 METAR MROC 051700Z 24010KT CAVOK 27/23 A3006 RMK FEW050 SCT250 HZ DST W BECMG=
201006051800 METAR MROC 051800Z 24009KT 9999 FEW040 SCT250 26/23 A3004 RMK VIS 8KM W DUE HZ BECMG=
201006051900 METAR MROC 051900Z 25008KT 9999 SCT040 BKN250 27/23 A3002 BECMG=
201006052000 METAR MROC 052000Z 25008KT 9999 FEW020 SCT030 BKN250 27/24 A3000 RMK HZ ARND BECMG=
201006052100 METAR MROC 052100Z 24008KT 9999 SCT020 BKN250 27/23 A2998 RMK VIS 7KM W/NW HZ ARND BECMG=
201006052200 METAR MROC 052200Z 23005KT 9999 FEW015 SCT030 BKN250 25/23 A2998 RMK FEW100 RN DST S/NE HZ ARND BECMG=
201006052300 METAR MROC 052300Z 15004KT 9999 FEW015 SCT040 OVC250 26/20 A2998 BECMG=
201006060000 METAR MROC 060000Z 10005KT 9999 SCT045 BKN250 25/20 A3000 RMK FEW100 DZ DST NE BECMG=
201006060100 METAR MROC 060100Z 08002KT 9999 SCT040 BKN120 24/20 A3001 BECMG=
201006060200 METAR MROC 060200Z 14009KT 9999 FEW035 SCT250 24/19 A3002 BECMG=
201006060300 METAR MROC 060300Z 11005KT CAVOK 23/19 A3002 RMK SCT250 BECMG=
201006060400 METAR MROC 060400Z 08006KT CAVOK 23/18 A3002 BECMG=
201006060500 METAR MROC 060500Z 09003KT CAVOK 22/19 A3002 BECMG=
201006060600 METAR MROC 060600Z 04002KT CAVOK 21/19 A3002 BECMG=
201006060700 METAR MROC 060700Z 07003KT CAVOK 21/19 A3001 RMK SCT250 BECMG=
201006060800 METAR MROC 060800Z 06005KT CAVOK 21/19 A3000 MRK LTNG DST NE BECMG=
201006060900 METAR MROC 060900Z 17003KT CAVOK 20/19 A3000 BECMG=
201006061000 METAR MROC 061000Z 03003KT CAVOK 20/20 A3001 RMK SCT250 BECMG=
201006061100 METAR MROC 061100Z 10005KT CAVOK 20/19 A3001 RMK BKN250 BECMG=
201006061200 METAR MROC 061200Z 08003KT 9999 -RA DZ BKN090 SCT250 20/19 A3003 BECMG=
201006061300 METAR MROC 061300Z 04006KT 9999 FEW040 BKN090 21/20 A3005 RERA BECMG=
201006061400 METAR MROC 061400Z 00000KT 9999 FEW040 BKN090 23/20 A3008 BECMG=
201006061500 METAR MROC 061500Z 03002KT 9999 FEW040 BKN100 24/21 A3007 BECMG=
201006061600 METAR MROC 061600Z 09004KT 9999 -DZ FEW040 BKN100 24/21 A3008 BECMG=
201006061700 METAR MROC 061700Z 10006KT 9999 -DZ SCT030 OVC100 21/20 A3007 RERA BECMG=
201006061800 METAR MROC 061800Z 13008KT 9999 -RA FEW030 OVC100 20/20 A3004 REDZ BECMG=
201006061900 METAR MROC 061900Z 11004KT 9999 FEW030 OVC100 22/21 A3000 RERA BECMG=
201006062000 METAR MROC 062000Z 13015KT 9999 FEW040 BKN100 25/20 A2996 BECMG=
201006062100 METAR MROC 062100Z 16004KT CAVOK 25/20 A2994 RMK OVC120 BECMG=
201006062200 METAR MROC 062200Z 00000KT 9999 FEW030 OVC120 26/18 A2996 BECMG=
201006062300 METAR MROC 062300Z 00000KT CAVOK 25/20 A2996 RMK OVC120 BECMG=
201006070000 METAR MROC 070000Z 12003KT CAVOK 23/21 A2999 RMK OVC110 BECMG=
201006070100 METAR MROC 070100Z 10003KT CAVOK 23/19 A3001 RMK OVC110 BECMG=
201006070200 METAR MROC 070200Z 00000KT CAVOK 21/18 A3004 RMK OVC110 BECMG=
201006070300 METAR MROC 070300Z 08005KT CAVOK 22/18 A3005 RMK OVC110 BECMG=
201006070400 METAR MROC 070400Z 08008KT CAVOK 21/18 A3005 RMK BKN120 BECMG=
201006070500 METAR MROC 070500Z 07006KT CAVOK 20/18 A3005 RMK SCT120 BECMG=
201006070600 METAR MROC 070600Z 04006KT CAVOK 20/18 A3002 RMK SCT120 BECMG=
201006070700 METAR MROC 070700Z 09007KT CAVOK 20/17 A3001 RMK SCT120 BECMG=
201006070800 METAR MROC 070800Z 08004KT CAVOK 20/17 A3001 RMK SCT120 BECMG=
201006070900 METAR MROC 070900Z 09007KT CAVOK 20/17 A3000 RMK SCT120 BECMG=
201006071000 METAR MROC 071000Z 09006KT CAVOK 20/17 A3000 RMK SCT120 BECMG=
201006071100 METAR MROC 071100Z 07006KT CAVOK 18/17 A3001 RMK SCT120 BECMG=
201006071200 METAR MROC 071200Z 07005KT CAVOK 20/17 A3003 RMK BKN250 BECMG=
201006071300 METAR MROC 071300Z 10005KT CAVOK 23/17 A3004 RMK BKN250 BECMG=
201006071400 METAR MROC 071400Z 03003KT CAVOK 26/19 A3004 RMK BKN250 TCU DST SW BECMG 24006KT=
201006071500 METAR MROC 071500Z 11009KT 9999 FEW040 BKN250 26/19 A3006 BECMG 24006KT=
201006071600 METAR MROC 071600Z 14009KT 9999 FEW040 BKN250 27/20 A3005 BECMG 24006KT=
201006071700 METAR MROC 071700Z 11010KT 080V140 9999 FEW040 BKN250 29/18 A3003 BECMG=
201006071800 METAR MROC 071800Z 12007KT 9999 FEW040 BKN250 29/18 A3002 BECMG=
201006071900 METAR MROC 071900Z 11007KT 9999 FEW040 BKN250 29/18 A3000 BECMG=
201006072000 METAR MROC 072000Z 13007KT 080V150 9999 SCT040 BKN250 29/18 A2998 BECMG=
201006072100 METAR MROC 072100Z 23010KT 9999 FEW045 SCT120 BKN250 26/23 A2997 RMK CB DST W TCU NW BECMG=
201006072200 METAR MROC 072200Z 27007KT 9999 SCT010 FEW020TCU BKN120 23/22 A3001 BECMG=
201006072300 METAR MROC 072300Z 27006KT 9999 SCT010 BKN120 23/21 A3003 RMK HZY BECMG 2200 5KT=
201006080000 METAR MROC 080000Z 28005KT 9999 DZ FEW007 SCT020 BKN250 22/21 A3004 RMK FEW120 CB RASH DST E SE BECMG=
201006080100 METAR MROC 080100Z 00000KT 9999 FEW005 SCT020 BKN250 22/22 A3005 BECMG=
201006080200 METAR MROC 080200Z 25003KT 9999 FEW010 BKN120 22/21 A3007 RMK LTNG DST SW BECMG=
201006080300 METAR MROC 080300Z 26002KT 9999 VCFG FEW001 SCT002 22/22 A3009 RMK VIS 8KM NW BECMG=
201006080400 METAR MROC 080400Z 25003KT 9999 SCT002 BKN130 22/22 A3008 RMK FEW020 VIS 8KM NW DUE LOW ST BECMG=
201006080500 METAR MROC 080500Z 00000KT 9999 VCFG FEW006 SCT025 OVC130 21/21 A3008 RMK VIS 7KM NW BECMG=
201006080600 METAR MROC 080600Z 00000KT VCFG SCT002 BKN010 21/21 A3007 RMK VIS 7KM NW BECMG=
201006080700 METAR MROC 080700Z 00000KT 9999 VCFG FEW002 SCT010 BKN025 21/21 A3006 BECMG=
201006080800 METAR MROC 080800Z 00000KT CAVOK 20/20 A3005 SCT120 BECMG=
201006080900 METAR MROC 080900Z 00000KT 9999 VCFG FEW020 SCT120 20/20 A3003 RMK VIS 6KM SW BECMG=
201006081000 METAR MROC 081000Z 00000KT 9999 VCFG FEW015 SCT120 20/19 A3005 RMK VIS 6KM SW BECMG=
201006081100 METAR MROC 081100Z 12003KT 9999 VCFG BKN110 19/19 A3005 RMK VIS 6KM NW BECMG=
201006081200 METAR MROC 081200Z 08003KT CAVOK 20/19 A3005 RMK BKN110 OVC250 VIS 6KM N/NW DUE FG BECMG=
201006081300 METAR MROC 081300Z 00000KT 9999 VCFG SCT120 BKN250 21/18 A3008 VIS W NW N 8KMS BECMG=
201006081400 METAR MROC 081400Z 00000KT CAVOK 22/19 A3000 RMK SCT120 BKN250 HZY BECMG 24005KT=
201006081401 METAR MROC 081401Z 00000KT CAVOK 22/19 A3009 RMK SCT120 BKN250 HZY BECMG 24005KT=
201006081500 METAR MROC 081500Z 00000KT CAVOK 23/19 A3010 RMK SCT120 BKN250 HZY BECMG 24005KT=
201006081600 METAR MROC 081600Z 24006KT 9999 FEW025 BKN250 25/21 A3011 RMK FEW120 HZY BECMG=
201006081700 METAR MROC 081700Z 25006KT 9999 FEW025 BKN250 26/21 A3011 RMK HZY FEW120 BECMG=
201006081800 METAR MROC 081800Z 24008KT 9999 SCT025 BKN250 26/21 A3010 RMK TCU DST NW E SE HZY BECMG 8000 VCSH=
201006081900 METAR MROC 081900Z 24008KT 9999 FEW015TCU SCT025 BKN250 26/21 A3006 PCPN DST SE BECMG 6000 SHRA=
201006082000 METAR MROC 082000Z 24008KT 9999 FEW012 SCT035 BKN140 24/22 A3005 RMK HZY PCPN DST SE SSW BECMG 6000 RA=
201006082100 METAR MROC 082100Z 23005KT 4000 RA BR VCSH FEW007 SCT020 BKN090 22/22 A3005 BECMG=
201006082200 METAR MROC 082200Z 25005KT 4000 RA BR FEW007 BKN020 22/22 A3005 RMK VIS 8000E BECMG 2000 -RA BR=
201006082300 METAR MROC 082300Z 24008KT 3000 RA BR FEW005 BKN015 21/21 A3007 VIS 9999E BECMG 1000 -RA BR=
201006090000 METAR MROC 090000Z 23002KT 7000 -RA FEW008 SCT015 BKN070 21/21 A3009 BECMG 3000 -RA BR=
201006090100 METAR MROC 090100Z 00000KT 9999 RA SCT015 BKN070 21/21 A3011 BECMG=
201006090200 METAR MROC 090200Z 00000KT 9999 DZ SCT025 SCT100 21/21 A3013 BECMG=
201006090300 METAR MROC 090300Z 11003KT 9999 SCT025 SCT100 21/21 A3012 REDZ BECMG=
201006090400 METAR MROC 090400Z 10002KT 9999 SCT030 SCT110 20/20 A3010 BECMG=
201006090500 METAR MROC 090500Z 06006KT 9999 SCT030 SCT110 21/20 A3009 BECMG=
201006090600 METAR MROC 090600Z 09005KT 9999 SCT030 SCT120 21/20 A3008 BECMG=
201006090700 METAR MROC 090700Z 08005KT CAVOK 20/19 A3005 RMK TRACE SC SCT120 BECMG=
201006090800 METAR MROC 090800Z 09006KT CAVOK 21/19 A3004 RMK SCT120 BECMG=
201006090900 METAR MROC 090900Z 10004KT CAVOK 20/18 A3003 RMK SCT120 BECMG=
201006091000 METAR MROC 091000Z 07004KT CAVOK 19/18 A3004 RMK SCT120 BECMG=
201006091100 METAR MROC 091100Z 07006KT CAVOK 19/18 A3005 RMK SCT120 SCT250 BECMG=
201006091200 METAR MROC 091200Z 09004KT CAVOK 20/18 A3007 RMK PCPN NE SCT120 SCT250 BECMG=
201006091300 METAR MROC 091300Z 08002KT CAVOK 22/19 A3009 RMK SCT120 BKN250 TCU DST W BECMG 24006KT=
201006091400 METAR MROC 091400Z 10003KT CAVOK 24/19 A3010 RMK FEW120 BKN250 BECMG=
201006091500 METAR MROC 091500Z 20005KT CAVOK 25/21 A3011 RMK FEW120 BKN250 BECMG=
201006091600 METAR MROC 091600Z 26008KT CAVOK 25/21 A3011 RMK FEW140 BKN250 BECMG=
201006091700 METAR MROC 091700Z 24008KT 9999 FEW040 BKN250 26/22 A3009 BECMG=
201006091800 METAR MROC 091800Z 26009KT 9999 SCT035 SCT250 26/22 A3008 BECMG=
201006091900 METAR MROC 091900Z 20008KT 4000 -TSRA SCT015CB SCT025 22/22 A3007 RMK VIS 8000E FEW100 BECMG=
201006092000 METAR MROC 092000Z 23008KT 3000 RA VCSH BR FEW002 SCT015CB SCT025 22/22 A3006 RETS VIS 7000E BECMG 2000 -RA BR=
201006092100 METAR MROC 092100Z 24005KT 3000 -RA BR FEW002 SCT015 BKN030 21/20 A3004=
201006092200 METAR MROC 092200Z 21004KT 5000 BR FEW002 SCT015 BKN030 21/21 A3006 BECMG=
201006092300 METAR MROC 092300Z 28003KT 5000 BR FEW002 SCT015 BKN100 21/21 A3006 BECMG=
201006100000 METAR MROC 100000Z 29003KT 3000 -RA BR FEW001 SCT010 BKN100 21/21 A3009=
201006100100 METAR MROC 100100Z 00000KT 8000 3000SW -RA BR FEW001 SCT025 OVC100 21/21 A3011 BECMG=
201006100200 METAR MROC 100200Z 00000KT 9999 4000SW BR FEW002 SCT025 OVC100 21/21 A3010 RERA BECMG=
201006100300 METAR MROC 100300Z 22003KT 9999 3000S BR FEW002 SCT025 BKN100 21/21 A3012 VIS WNW 6KMS BECMG 4000 BR=
201006100400 METAR MROC 100400Z 25003KT 2500 BR SCT001 BKN005 21/21 A3011 BECMG=
201006100500 METAR MROC 100500Z 00000KT 5000 BR FEW001 SCT007 BKN100 21/21 A3011 BECMG 7000=
201006100600 METAR MROC 100600Z 24002KT 9999 FEW010 SCT020 BKN100 21/21 A3010 BECMG=
201006100700 METAR MROC 100700Z 25003KT 9999 SCT025 BKN100 21/21 A3008 BECMG=
201006100800 METAR MROC 100800Z 28003KT 9999 SCT025 BKN100 20/20 A3006 BECMG=
201006100900 METAR MROC 100900Z 30002KT 9999 SCT025 BKN110 20/20 A3005 BECMG=
201006101000 METAR MROC 101000Z 00000KT 9999 SCT025 BKN110 20/20 A3006 BECMG=
201006101100 METAR MROC 101100Z 00000KT 9999 FEW030 BKN110 20/20 A3006 BECMG=
201006101200 METAR MROC 101200Z 00000KT 9999 FEW030 BKN120 20/20 A3007 RMK HZY BECMG=
201006101300 METAR MROC 101300Z 08004KT 9999 FEW030 BKN120 21/20 A3009 BECMG=
201006101400 METAR MROC NIL=
201006101500 METAR MROC 101500Z 09005KT 9999 FEW040 BKN120 24/20 A3010 RMK HZ LEVE ARND BECMG=
201006101600 METAR MROC 101600Z 11004KT 9999 FEW040 BKN120 23/19 A3009 RMK HZ LEVE ARND BECMG=
201006101700 METAR MROC 101700Z 09004KT 9999 FEW040 BKN110 26/20 A3007 BECMG=
201006101800 METAR MROC 101800Z 22007KT 9999 FEW040 BKN120 27/22 A3006 BECMG=
201006101900 METAR MROC 101900Z 23005KT 9999 -RA FEW010TCU SCT040 BKN120 25/22 A3004 BECMG 5000 RA=
201006102000 METAR MROC 102000Z 00000KT 9999 SCT030 OVC100 23/22 A3002 RERA BECMG 5000 RA=
201006102100 METAR MROC 102100Z 22005KT 9999 FEW015 SCT040 BKN110 26/22 A2999 RMK RN DST E BECMG=
201006102200 METAR MROC 102200Z 26007KT 7000 -RA FEW010 FEW020TCU SCT040 BKN100 24/21 A3001 BECMG 5000 RA=
201006102300 METAR MROC 102300Z 00000KT 7000 -RA BR SCT030 OVC100 20/20 A3003 RMK VIS NE/E/S UNLD BECMG 9999=
201006110000 METAR MROC 110000Z 09004KT 9999 -RA SCT040 OVC110 21/20 A3005 RMK VIS 7KM N/NW/W/SW DUE FG BECMG=
201006110100 METAR MROC 110100Z 08003KT 9999 -DZ FEW035 OVC110 20/20 A3007 RERA RMK VIS 7KM N/NW/W FUE FG BECMG=
201006110200 METAR MROC 110200Z 08003KT CAVOK 20/20 A3006 REDZ RMK SCT100 OVC250 BECMG=
201006110300 METAR MROC 110300Z 08005KT CAVOK 21/19 A3005 RMK SCT100 SCT250 BECMG=
201006110400 METAR MROC 110400Z 06003KT CAVOK 20/19 A3005 RMK BKN100 SCT250 BECMG=
201006110500 METAR MROC 110500Z 19002KT CAVOK 20/19 A3005 RMK SCT120 BKN250 BECMG=
201006110600 METAR MROC 110600Z 04002KT CAVOK 20/19 A3002 RMK BKN100 BECMG=
201006110700 METAR MROC 110700Z 08004KT CAVOK 19/19 A3002 RMK BKN100 BECMG=
201006110800 METAR MROC 110800Z 09002KT CAVOK 19/18 A3002 RMK SCT100 BECMG=
201006110900 METAR MROC 110900Z 08003KT CAVOK 18/18 A3003 RMK LTNG DST S BECMG=
201006111000 METAR MROC 111000Z 00000KT CAVOK 18/18 A3004 RMK FEW120 LTNG DST S BECMG=
201006111100 METAR MROC 111100Z 09005KT CAVOK 18/18 A3003 RMK SCT120 BKN250 BECMG=
201006111200 METAR MROC 111200Z 04005KT CAVOK 19/18 A3005 RMK FEW120 BKN250 BECMG=
201006111300 METAR MROC 111300Z 06006KT CAVOK 23/19 A3006 RMK BKN120 FEW250 BECMG=
201006111400 METAR MROC 111400Z 03003KT CAVOK 23/19 A3007 RMK BKN120 HZ QUAD W BECMG 24005KT=
201006111500 METAR MROC 111500Z 00000KT CAVOK 24/19 A3008 RMK BKN120 BECMG=
201006111600 METAR MROC 111600Z 22007KT CAVOK 24/20 A3007 RMK BKN120 TCU DST NE BECMG=
201006111700 METAR MROC 111700Z 23006KT 9999 FEW045 BKN120 25/19 A3007 RMK FEW250 TCU DST SW/NE BECMG=
201006111800 METAR MROC 111800Z 22007KT 9999 SCT040 BKN120 26/21 A3006 RMK TCU DST QUAD W BECMG=
201006111900 METAR MROC 111900Z 23007KT 9999 VCSH SCT040 SCT120 26/22 A3003 BECMG=
201006112000 METAR MROC 112000Z 23010KT 9999 FEW025 SCT035 25/22 A3001 RMK FEW100 TCU DST W RN DST NE BECMG=
201006112100 METAR MROC 112100Z 22010KT 9999 VCSH SCT025TCU BKN100 25/22 A3001 RMK RN N NE E BECMG=
201006112200 METAR MROC 112200Z 23010KT 9999 VCSH SCT025TCU BKN100 23/22 A3001 RMK=
201006112300 METAR MROC 112300Z 22008KT 5000 -RA VCFG SCT005 BKN010 21/21 A3003 BECMG 3000 RA BR=
201006120000 METAR MROC 120000Z 22006KT 0700 FG SCT001 BKN008 21/21 A3006 BECMG 1500 BR=
201006120100 METAR MROC 120100Z 21004KT 3000 -DZ BR SCT002 BKN008 20/20 A3008 BECMG 1500 BR -RA=
201006120200 METAR MROC 120200Z 00000KT 3000 -RA SCT004 BKN010 20/20 A3009 BECMG 5000 -RA FG=
201006120300 METAR MROC 120300Z 08003KT 9999 FEW020 BKN100 20/20 A3009 BECMG=
201006120400 METAR MROC 120400Z 05003KT 9999 FEW025 BKN100 21/21 A3010 BECMG=
201006120500 METAR MROC NIL=
201006120600 METAR MROC NIL=
201006120700 METAR MROC 120700Z 00000KT 9999 2000W BR SCT001 SCT100 20/20 A3007 BECMG=
201006120800 METAR MROC 120800Z 00000KT 0200 FG SCT001 SCT100 20/20 A3006 RMK UNL E BECMG=
201006120900 METAR MROC 120900Z 00000KT 9999 3000W BR FEW001 SCT100 19/19 A3005 BECMG=
201006121000 METAR MROC 121000Z 06003KT 9999 VCFG FEW002 18/18 A3004 BECMG=
201006121100 METAR MROC 121100Z 08002KT CAVOK 18/18 A3005 RMK TRACE AC BECMG=
201006121200 METAR MROC 121200Z 08005KT CAVOK 18/18 A3006 RMK TRACE AC SCT270 BECMG=
201006121300 METAR MROC 121300Z 03005KT CAVOK 22/19 A3008 RMK SCT270 BECMG=
201006121400 METAR MROC 121400Z 00000KT CAVOK 24/19 A3008 RMK SCT270 BECMG 24006KT=
201006121500 METAR MROC 121500Z 22005KT 9999 FEW045 25/21 A3009 BECMG=
201006121600 METAR MROC 121600Z 22005KT 9999 FEW045 26/22 A3008 BECMG=
201006121700 METAR MROC 121700Z 24008KT 9999 SCT040 26/21 A3007 BECMG=
201006121800 METAR MROC 121800Z 22009KT 9999 FEW015TCU SCT040 27/23 A3005 BECMG=
201006121900 METAR MROC 121900Z 21005KT 9999 FEW015TCU BKN040 25/22 A3005 RN DST E SE BECMG 7000 -SHRA=
201006122000 METAR MROC 122000Z 21005KT 9999 FEW015 SCT030 BKN100 24/22 A3003 RMK RN E SE W BECMG 7000 -SHRA=
201006122012 METAR MROC 122012Z 21005KT 9999 RA VCTS FEW015CB BKN025 24/23 A3003 VIS NE N 8KMS BECMG 3000 TSRA SCT012CB=
201006122100 METAR MROC 122100Z 20007KT 5000 SHRA SCT015CB BKN025 23/22 A3003 RMK VIS SE S W UNL BECMG 3000 TSRA=
201006122200 METAR MROC 122200Z 22005KT 2500 -TSRA SCT015CB BKN030 20/20 A3006 BECMG 4000 -RA BR VCTS FEW015CB=
201006122300 METAR MROC 122300Z 06007KT 8000 -RA FEW035 OVC100 20/20 A3006 RETS RMK VIS SE S UNL BECMG 9999=
201006130000 METAR MROC 130000Z 07004KT 9999 -RA OVC100 20/20 A3004 BECMG=
201006130100 METAR MROC 130100Z 10003KT 9999 -RA OVC100 21/20 A3008 BECMG=
201006130200 METAR MROC 130200Z 08008KT 9999 -RA OVC100 20/20 A3009 BECMG=
201006130300 METAR MROC 130300Z 05008KT 9999 -RA OVC100 20/20 A3010=
201006130400 METAR MROC 130400Z 07008KT 9999 -RA OVC110 20/19 A3009 BECMG=
201006130500 METAR MROC 130500Z 08008KT 9999 -DZ OVC110 19/19 A3005 RERA BECMG=
201006130600 METAR MROC 130600Z 10005KT CAVOK 21/17 A3003 RMK SCT110 BKN250 BECMG=
201006130700 METAR MROC 130700Z 08007KT CAVOK 20/18 A3000 SCT110 BKN230 BECMG=
201006130800 METAR MROC 130800Z 10003KT CAVOK 19/18 A3000 SCT120 BKN250 BECMG=
201006130900 METAR MROC 130900Z 21004KT CAVOK 19/18 A3000 RMK SCT120 BKN250 BECMG=
201006131000 METAR MROC 131000Z 07004KT 9999 FEW025 18/18 A3001 RMK FEW250 BECMG=
201006131100 METAR MROC 131100Z 08005KT CAVOK 17/17 A3002 RMK CB/TS DST S BECMG=
201006131200 METAR MROC 131200Z 05006KT CAVOK 19/17 A3003 RMK FEW080 FEW250 CB DST SW BECMG=
201006131300 METAR MROC 131300Z 09007KT CAVOK 22/18 A3002 RMK BKN250 BECMG=
201006131400 METAR MROC 131400Z 09005KT 9999 FEW040 BKN250 25/19 A3004 PCPN DST ENE N BECMG=
201006131500 METAR MROC 131500Z 12006KT 9999 FEW040 SCT070 BKN250 25/20 A3005 RMK PCPN DST N NE BECMG 24005KT=
201006131600 METAR MROC 131600Z 25006KT 9999 -RA SCT035 BKN070 22/21 A3007 BECMG=
201006131700 METAR MROC 131700Z 28005KT 9999 -RA SCT030 BKN100 23/21 A3006 BECMG=
201006131800 METAR MROC 131800Z 28003KT 9999 FEW035 BKN100 23/20 A3006 RERA RMK LGT HZ ARND BECMG=
201006131900 METAR MROC 131900Z 23002KT 9999 -RA FEW035 BKN100 24/22 A3004 BECMG=
201006132000 METAR MROC 132000Z 00000KT 9999 FEW035 SCT100 BKN250 25/21 A3001 RERA RMK LGT HZ ARND=
201006132100 METAR MROC 132100Z 28004KT 9999 -RA SCT015 BKN100 23/22 A3000 BECMG 5000 -RA BR=
201006132200 METAR MROC 132200Z 24004KT 9999 DZ FEW030 OVC100 22/22 A2999 RMK RN DST ARND BECMG 5000 -RA BR=
201006132300 METAR MROC 132300Z 00000KT 9999 DZ FEW015 OVC120 22/22 A3001 RMK RN DST ARND BECMG=
201006140000 METAR MROC 140000Z 00000KT 9999 DZ FEW015 OVC120 22/22 A3003 RMK RN DST ARND BECMG=
201006140100 METAR MROC 140100Z 00000KT 9999 -DZ BKN120 21/21 A3005 RMK RN DST ARND BECMG=
201006140200 METAR MROC 140200Z 00000KT CAVOK 21/21 A3005 RMK BKN120 BECMG=
201006140300 METAR MROC 140300Z 10002KT CAVOK 21/21 A3005 RMK BKN120 BECMG=
201006140400 METAR MROC 140400Z 26002KT 9999 -DZ VCFG FEW003 BKN120 21/21 A3007 BECMG 7000 BCFG=
201006140500 METAR MROC 140500Z 00000KT 9999 VCFG FEW003 BKN120 20/20 A3007 BECMG 5000 SW -RA BR=
201006140600 METAR MROC 140600Z 05004KT 9999 VCFG FEW003 BKN120 20/20 A3005 BECMG=
201006140700 METAR MROC 140700Z 09003KT 9999 FEW003 BKN120 20/20 A3003 BECMG=
201006140800 METAR MROC NIL=
201006140900 METAR MROC 140900Z 05004KT 9999 FEW030 SCT120 20/20 A3001 BECMG=
201006141000 METAR MROC 141000Z 07002KT CAVOK 20/20 A3000 RMK FEW120 BECMG=
201006141100 METAR MROC 141100Z 05003KT CAVOK 19/19 A3000 RMK BKN120 BECMG=
201006141200 METAR MROC 141200Z 05003KT CAVOK 20/19 A3002 RMK BKN120 BECMG=
201006141300 METAR MROC 141300Z 00000KT CAVOK 23/19 A3002 RMK SCT120 SCT250 BECMG 24006KT=
201006141400 METAR MROC 141400Z 00000KT CAVOK 25/19 A3002 RMK SCT250 TCU DST W BECMG 24006KT=
201006141500 METAR MROC 141500Z 00000KT CAVOK 27/20 A3001 RMK SCT250 BECMG 24006KT=
201006141600 METAR MROC 141600Z 22005KT 9999 SCT030 SCT250 28/21 A3001 BECMG=
201006141700 METAR MROC 141700Z 23009KT 9999 FEW020TCU SCT030 28/22 A3000 BECMG=
201006141800 METAR MROC 141800Z 24007KT 9999 3000E -TSRA SCT010CB BKN025 25/21 A3000 RMK VIS 5000E BECMG 2000 TSRA=
201006141900 METAR MROC 141900Z 23003KT 9999 4000SSW -TSRA FEW015CB BKN025 23/20 A2999 RMK VIS 9999E N BECMG 6000 RA=
201006142000 METAR MROC 142000Z 20005KT 9999 FEW015TCU SCT025 BKN120 23/22 A2997 RETSRA RN DST ARND BECMG=
201006142100 METAR MROC 142100Z 24009KT 8000 2000SW BR FEW010 SCT025 BKN120 23/22 A2996 BECMG 1000 -RA BR=
201006142200 METAR MROC 142200Z 24008KT 8000 2000SW BR FEW002 SCT010 BKN100 21/21 A2996 RMK VIS S UNL BECMG 3000 DZ BR=
201006142300 METAR MROC 142300Z 29004KT 4000 -RA BR FEW001 SCT010 BKN100 20/20 A2998 BECMG 1000 -RA BR=
201006150000 METAR MROC 150000Z 30003KT 6000 3000SW -RA BR FEW002 SCT010 BKN100 20/20 A2998 BECMG=
201006150100 METAR MROC 150100Z 33006KT 300V020 9999 VCFG FEW008 SCT025 OVC100 20/20 A3001 RERA BECMG=
201006150200 METAR MROC 150200Z 00000KT 9999 RA FEW008 SCT025 OVC100 20/20 A3003 BECMG=
201006150300 METAR MROC 150300Z 12002KT 8000 -RA SCT030 BKN100 20/20 A3005 BECMG=
201006150400 METAR MROC 150400Z 00000KT 5000 RA SCT030 BKN080 20/20 A3006 BECMG 7000=
201006150500 METAR MROC 150500Z 00000KT 2000 -RA BR SCT003 BKN007 20/20 A3007 BECMG=
201006150600 METAR MROC 150600Z 00000KT 5000 -RADZ BR SCT005 BKN100 20/20 A3004 BECMG=
201006150700 METAR MROC 150700Z 00000KT 2000 BR SCT001 BKN006 20/20 A3002 BECMG=
201006150800 METAR MROC 150800Z 00000KT 4000 -RA DZ FEW003 SCT010 BKN100 19/19 A3000 VIS S SSW 7KMS BECMG=
201006150801 METAR MROC 150801Z 00000KT 4000 -RADZ BR FEW003 SCT010 BKN100 19/19 A3000 RMK VIS S SSW 7KMS BECMG=
201006150900 METAR MROC 150900Z 00000KT 7000 VCFG FEW005 BKN010 20/20 A3000 BECMG=
201006151000 METAR MROC 151000Z 07004KT 9999 FEW010 SCT025 BKN100 20/20 A3000 BECMG=
201006151100 METAR MROC 151100Z 10003KT 9999 FEW010 BKN025 20/20 A3001 RMK PCPN DST S BECMG=
201006151200 METAR MROC 151200Z 08002KT 9999 FEW025 BKN070 20/20 A3002 BECMG=
201006151300 METAR MROC 151300Z 07003KT CAVOK 21/20 A3004 RMK OVC100 BECMG=
201006151400 METAR MROC 151400Z 06003KT 9999 FEW040 BKN110 22/20 A3004 RMK HZ LEVE ARND BECMG 22005KT=
201006151500 METAR MROC 151500Z 00000KT 9999 FEW040 BKN120 24/20 A3004 RMK FEW250 HZ LEVE ARND BECMG 22005KT=
201006151600 METAR MROC 151600Z 24007KT 9999 FEW040 SCT120 27/22 A3003 RMK SCT250 HZ LEVE ARND BECMG=
201006151700 METAR MROC 151700Z 24010KT 9999 FEW040 SCT250 26/22 A3003 HZ LEVE ARND BECMG=
201006151800 METAR MROC 151800Z 23009KT 9999 2000SW -RA FEW010TCU BKN040 22/22 A3003 RMK HZ LEVE ARND BECMG 5000 RA=
201006151900 METAR MROC 151900Z 24009KT 9999 -TS FEW010CB BKN040 24/22 A3001 RERA RMK RASH SE=
201006152000 METAR MROC 152000Z 21009KT 7000 RA FEW010 BKN040 22/22 A3001 RMK VIS SW UNL=
201006152100 METAR MROC 152100Z 24007KT 5000 -RA BR FEW002 SCT010 BKN040 22/22 A2999=
201006152200 METAR MROC 152200Z 25005KT 9999 3000E BR FEW001 SCT010 BKN035 22/22 A2999 RERA BECMG 5000 RA BR=
201006152300 METAR MROC 152300Z 29003KT 4000 RA FEW008 BKN035 21/21 A3001 BECMG=
201006160000 METAR MROC 160000Z 00000KT 7000 FEW008 SCT035 BKN100 21/21 A3003 BECMG=
201006160100 METAR MROC 160100Z 00000KT 9999 -RA FEW008 SCT035 BKN100 21/21 A3006 BECMG=
201006160200 METAR MROC 160200Z 05002KT 9999 -DZ FEW035 BKN120 21/21 A3007 BECMG=
201006160300 METAR MROC 160300Z 00000KT CAVOK 21/21 A3005 RMK SCT120 BKN250 BECMG=
201006160400 METAR MROC 160400Z 00000KT CAVOK 20/20 A3005 RMK SCT100 BKN120 BECMG=
201006160500 METAR MROC 160500Z 00000KT 9999 FEW003 SCT120 SCT250 20/20 A3005 BECMG=
201006160600 METAR MROC 160600Z 00000KT 9999 SCT015 SCT120 20/20 A3005 BECMG=
201006160700 METAR MROC 160700Z 12004KT CAVOK 19/19 A3002 RMK BKN120 BECMG=
201006160800 METAR MROC 160800Z 07006KT CAVOK 19/19 A3001 RMK SCT120 BECMG=
201006160900 METAR MROC 160900Z 06004KT CAVOK 19/19 A3001 BECMG=
201006161000 METAR MROC 161000Z 08005KT CAVOK 19/19 A3001 BECMG=
201006161100 METAR MROC 161100Z 06004KT CAVOK 18/18 A3002 RMK SCT120 BKN250 BECMG=
201006161200 METAR MROC 161200Z 07006KT CAVOK 19/18 A3003 RMK FEW120 SCT250 BECMG=
201006161300 METAR MROC 161300Z 07009KT CAVOK 22/19 A3005 RMK BKN250 BECMG=
201006161400 METAR MROC 161400Z 07005KT CAVOK 23/20 A3006 RMK BKN250 BECMG=
201006161500 METAR MROC 161500Z 11004KT 9999 FEW025 BKN250 26/20A A3007 RMK CB DST SW BECMG 24007KT=
201006161600 METAR MROC 161600Z 13005KT 9999 FEW025 BKN220 26/19 A3007 BECMG=
201006161700 METAR MROC 161700Z 12006KT 9999 FEW030 BKN140 26/20 A3006 BECMG=
201006161800 METAR MROC 161800Z 12006KT 9999 SCT030 SCT120 BKN250 27/20 A3005 BECMG 25007KT=
201006161900 METAR MROC 161900Z 26009KT 9999 SCT030 BKN250 26/22 A3003 BECMG=
201006162000 METAR MROC 162000Z 24010KT 9999 VCSH SCT025TCU BKN120 25/23 A3002 RMK CB RN DST NE N W BECMG 5000 -TSRA=
201006162100 METAR MROC 162100Z 25005KT 9999 -RA SCT020 OVC100 21/20 A3001 RETSRA BECMG=
201006162200 METAR MROC 162200Z 05005KT 9999 -TSRA SCT015CB OVC100 21/21 A3003 RMK TS DST NW BECMG=
201006162300 METAR MROC 162300Z 13005KT 9999 -RA SCT025 OVC100 21/20 A3003 RMK RASH DST NW N NE BECMG=
201006170000 METAR MROC 170000Z 10008KT 9999 -RA SCT030 OVC100 21/18 A3002 RMK RN DST E BECMG=
201006170100 METAR MROC 170100Z 11014KT 9999 SCT040 OVC100 21/18 A3003 BECMG=
201006170200 METAR MROC 170200Z 11004KT CAVOK 21/18 A3003 RMK OVC100 BECMG=
201006170300 METAR MROC 170300Z 00000KT CAVOK 21/18 A3003 RMK OVC100 BECMG=
201006170400 METAR MROC 170400Z 28003KT CAVOK 20/19 A3004 RMK BKN100 BECMG=
201006170500 METAR MROC 170500Z VRB02KT CAVOK 20/18 A3004 BECMG RMK BKN100 BECMG=
201006170600 METAR MROC 170600Z 09004KT 9999 -RA FEW025 BKN100 20/19 A3005 BECMG=
201006170700 METAR MROC 170700Z 07006KT 9999 FEW030 BKN100 20/19 A3001 BECMG=
201006170800 METAR MROC 170800Z 09005KT 9999 FEW030 SCT100 20/18 A3001 BECMG=
201006170900 METAR MROC 170900Z 13007KT 9999 FEW030 21/18 A3000 BECMG=
201006171000 METAR MROC 171000Z 08002KT 9999 FEW030 21/18 A3001 BECMG=
201006171100 METAR MROC 171100Z 00000KT CAVOK 20/18 A3002 RMK BKN080 BECMG=
201006171200 METAR MROC 171200Z 00000KT CAVOK 19/18 A3004 RMK FEW100 BKN250 BECMG=
201006171300 METAR MROC 171300Z 09003KT CAVOK 20/18 A3008 RMK BKN120 BECMG=
201006171400 METAR MROC 171400Z 08004KT CAVOK 22/19 A3006 RMK BKN120 BECMG=
201006171500 METAR MROC 171500Z 09003KT CAVOK 25/18 A3007 RMK BKN120 BECMG=
201006171600 METAR MROC 171600Z 20006KT CAVOK 27/18 A3006 RMK BKN120 BECMG=
201006171700 METAR MROC 171700Z 14003KT 9999 FEW040 SCT120 BKN250 27/18 A3006 BECMG=
201006171800 METAR MROC 171800Z 23005KT 9999 FEW040 SCT120 BKN250 27/21 A3004 BECMG=
201006171900 METAR MROC 171900Z 25008KT 9999 FEW040 SCT120 BKN250 26/21 A3003 BECMG=
201006172000 METAR MROC 172000Z 24006KT 9999 FEW040 SCT120 BKN250 25/22 A3001 BECMG=
201006172100 METAR MROC 172100Z 22003KTKT 9999 FEW035 SCT120 BKN250 24/22 A2999 BECMG=
201006172200 METAR MROC 172200Z 25005KT 9999 FEW010 BKN120 24/23 A2998 RMK LGT HZ ARND BECMG=
201006172300 METAR MROC 172300Z 22005KT 9999 VCFG SCT010 BKN120 23/23 A2999 RMK VIS N NE 8KMS BECMG=
201006180000 METAR MROC 180000Z 25006KT 8000 VCFG SCT007 SCT120 22/22 A3002 RMK FEW250 HZY BECMG=
201006180100 METAR MROC 180100Z 00000KT 8000 VCFG SCT006 BKN120 22/22 A3004 BECMG=
201006180200 METAR MROC 180200Z 00000KT 7000 FEW004 SCT120 BKN250 21/21 A3006 RMK VIS RED DUE FG VIS E SE S UNL BECMG 9999=
201006180300 METAR MROC 180300Z 00000KT 9999 3000SSW BR FEW002 SCT120 BKN250 21/21 A3008 BECMG=
201006180400 METAR MROC 180400Z 08004KT 9999 FEW030 SCT120 BKN250 22/21 A3008 BECMG=
201006180500 METAR MROC 180500Z 08005KT 9999 FEW030 SCT120 BKN250 22/20 A3007 BECMG=
201006180600 METAR MROC 180600Z 05006KT CAVOK 22/20 A3003 RMK SCT120 SCT250 BECMG=
201006180700 METAR MROC 180700Z 13010KT CAVOK 22/19 A2998 RMK SCT120 SCT250 BECMG=
201006180800 METAR MROC 180800Z 10007KT 070V130 CAVOK 22/18 A2998 RMK SCT120 SCT250 BECMG=
201006180900 METAR MROC 180900Z 10003KT CAVOK 21/17 A2999 RMK SCT120 SCT250 BECMG=
201006181000 METAR MROC 181000Z 06006KT CAVOK 21/18 A3001 RMK SCT120 SCT250 BECMG=
201006181100 METAR MROC 181100Z 09009KT CAVOK 21/18 A3002 RMK FEW120 SCT250 BECMG=
201006181200 METAR MROC 181200Z 10005KT CAVOK 21/18 A3002 RMK SCT250 CB DST SW BECMG=
201006181300 METAR MROC 181300Z 13009KT CAVOK 23/18 A3003 RMK CB DST SW SCT140 VEL MAX VTO 14KT BECMG=
201006181400 METAR MROC 181400Z 13006KT CAVOK 25/18 A3004 RMK FEW120 SCT250 CB DST SW BECMG=
201006181500 METAR MROC 181500Z 14005KT CAVOK 27/17 A3004 RMK SCT300 BECMG 24006KT=
201006181600 METAR MROC 181600Z 24007KT 9999 FEW045 SCT300 26/22 A3004 BECMG=
201006181700 METAR MROC 181700Z 23008KT 9999 SCT040 SCT300 28/22 A3004 BECMG=
201006181800 METAR MROC 181800Z 25007KT 9999 3000N RA FEW025TCU BKN035 26/22 A3003 BECMG 5000 TSRA=
201006181900 METAR MROC 181900Z 29005KT 9999 VCSH FEW015CB SCT030 24/22 A3000 RERA VIS W 8KMS BECMG=
201006182000 METAR MROC 182000Z 24014KT 7000 SHRA FEW004 FEW015CB BKN025 23/23 A3000 RMK VIS S QUAD UNLTD BECMG 2000 TSRA=
201006182100 METAR MROC 182100Z 17003KT 2000 R07/0600 TS SHRA SCT010CB BKN020 21/21 A3000 BECMG 3000 -TSRA=
201006182200 METAR MROC 182200Z 00000KT 9999 FEW015 BKN090 21/21 A3000 RETSRA RMK RN DST NE BECMG=
201006182300 METAR MROC 182300Z 10004KT 3000 -RA BR FEW005 BKN070 21/21 A3002 BECMG 5000 -RA BR=
201006190000 METAR MROC 190000Z 08003KT 9999 -RA OVC070 21/21 A3001 BECMG=
201006190100 METAR MROC 190100Z 07008KT 9999 -DZ BKN090 21/20 A3001 BECMG=
201006190200 METAR MROC 190200Z 16004KT CAVOK 21/20 A3003 RMK BKN120 BECMG=
201006190300 METAR MROC 190300Z VRB05KT 9999 2000W BR SCT001 BKN100 20/20 A3008 BECMG 5000 -RA BR=
201006190400 METAR MROC 190400Z 00000KT 9999 FEW005 BKN100 20/20 A3008 BECMG=
201006190500 METAR MROC 190500Z 07003KT 9999 FEW007 BKN100 20/20 A3007 BECMG=
201006190600 METAR MROC 190600Z 06003KT 9999 FEW007 BKN100 20/20 A3006 BECMG=
201006190700 METAR MROC 190700Z 11002KT CAVOK 20/20 A3004 RMK SCT100 BECMG=
201006190800 METAR MROC 190800Z 03004KT CAVOK 20/20 A3001 RMK SCT100 BECMG=
201006190900 METAR MROC 190900Z 24002KT 9999 FEW007 SCT100 19/19 A3004 BECMG 8000=
201006191000 METAR MROC 191000Z 30005KT 9999 VCFG SCT005 SCT100 20/20 A3005 BECMG 8000 VCFG=
201006191100 METAR MROC 191100Z 13002KT 9999 SCT010 BKN100 20/20 A3006 BECMG=
201006191200 METAR MROC 191200Z 00000KT 9999 FEW005 SCT025 BKN100 20/20 A3008 BECMG=
201006191300 METAR MROC 191300Z 09002KT 5000 -RA BR FEW005 OVC090 20/20 A3009 BECMG 7000 -RA=
201006191400 METAR MROC 191400Z 00000KT 9999 -RA BR FEW003 OVC100 21/21 A3011 RMK VIS 5000SSW 7000N BECMG=
201006191500 METAR MROC 191500Z 10003KT 9999 FEW005 BKN120 22/21 A3009 RMK SCT250 BECMG=
201006191600 METAR MROC 191600Z 10002KT CAVOK 24/20 A3006 RMK SCT120 BKN250 BECMG=
201006191700 METAR MROC 191700Z 07004KT 9999 FEW035 SCT120 SCT250 26/20 A3004 BECMG=
201006191800 METAR MROC 191800Z 10006KT 9999 FEW035 SCT120 BKN250 28/19 A3002 BECMG=
201006191900 METAR MROC 191900Z 11010KT 9999 FEW035 BKN120 28/18 A2999 RMK FEW250 BECMG=
201006192000 METAR MROC 192000Z 12008KT 9999 SCT030 BKN120 26/19 A2999 RMK RN DST NE E BECMG 24006KT=
201006192100 METAR MROC 192100Z 10006KT 9999 SCT030 BKN120 23/20 A2998 RMK RA DST NE E SE BECMG=
201006192200 METAR MROC 192200Z 08003KT 9999 FEW030 BKN120 23/20 A2999 BECMG=
201006192300 METAR MROC 192300Z 10005KT 9999 FEW030 BKN120 23/19 A3001 RMK RN E SE BECMG=
201006200000 METAR MROC 200000Z 13011KT 9999 -DZ FEW030 OVC120 21/19 A3001 BECMG=
201006200100 METAR MROC 200100Z 13012KT 9999 FEW030 BKN120 21/18 A3001 RMK LTNG DST W BECMG=
201006200200 METAR MROC 200200Z 14010KT 9999 FEW030 BKN120 21/17 A3005 RMK LTNG DST SW BECMG=
201006200300 METAR MROC 200300Z 14008KT CAVOK 21/18 A3006 RMK VEL MAX VTO 12KT SCT100 BKN140 BECMG=
201006200400 METAR MROC 200400Z 06005KT CAVOK 21/18 A3005 RMK FEW100 BKN140 BECMG=
201006200500 METAR MROC 200500Z 05003KT CAVOK 21/18 A3004 RMK BKN140 BECMG=
201006200600 METAR MROC 200600Z 08006KT CAVOK 21/18 A3000 RMK SCT140 BECMG=
201006200700 METAR MROC 200700Z 08005KT CAVOK 21/18 A2997 RMK SCT140 BECMG=
201006200800 METAR MROC 200800Z 06006KT CAVOK 21/17 A2995 RMK SCT120=
201006200900 METAR MROC 200900Z 06004KT CAVOK 19/17 A2996 RMK SCT120=
201006201000 METAR MROC 201000Z VRB03KT 9999 4000S BR SCT120 18/18 A2997=
201006201100 METAR MROC 201100Z 33004KT 0100 FG VV/// 18/18 A2998=
201006201200 METAR MROC 201200Z 00000KT 9999 BR BKN120 18/18 A3002 RMK VIS S 5KMS CB DST SSW=
201006201300 METAR MROC 201300Z 00000KT CAVOK 22/19 A3004 RMK SCT120 SCT250 BECMG=
201006201400 METAR MROC 201400Z 29004KT CAVOK 22/19 A3004 RMK SCT120 SCT250 BECMG=
201006201500 METAR MROC 201500Z 25003KT 9999 FEW040 SCT120 BKN250 24/19 A3004 BECMG=
201006201600 METAR MROC 201600Z 24004KT 9999 FEW040 SCT120 BKN250 25/20 A3003 BECMG=
201006201700 METAR MROC 201700Z 26008KT 9999 SCT040 BKN250 26/21 A3002 RMK RA S BECMG=
201006201800 METAR MROC 201800Z 23009KT 9999 SCT040 BKN250 25/22 A3001 BECMG=
201006201900 METAR MROC 201900Z 26009KT 9999 SCT040 BKN250 25/22 A2999 RMK DZ S BECMG=
201006202000 METAR MROC 202000Z 21010KT 9999 SCT040 BKN250 25/21 A2998 RMK RA E BECMG 8000 VCSH=
201006202100 METAR MROC 202100Z 25010KT 9999 VCFG FEW005 SCT020TCU BKN100 24/21 A2996 RN DST N NE BECMG 5000 -TSRA=
201006202200 METAR MROC 202200Z 26009KT 9999 VCFG FEW005 SCT015 BKN100 22/22 A2996 BECMG 4000 -DZ BR=
201006202300 METAR MROC 202300Z 22006KT 1000 -RA BR SCT001 BKN015 21/21 A2999 BECMG=
201006202353 METAR MROC 210000Z 28003KT 2000 RA BR SCT001 BKN020 21/21 A3001 BECMG=
201006202358 METAR MROC 210000Z 28003KT 2000 RA BR SCT001 BKN020 21/21 A3001 BECMG=
201006210000 METAR MROC 210000Z 28003KT 2000 RA BR SCT001 BKN020 21/21 A3001 BECMG=
201006210100 METAR MROC 210100Z 31006KT 3000 RA BR FEW001 SCT020 OVC100 20/20 A3003 BECMG=
201006210200 METAR MROC 210200Z 25003KT 8000 2000SW RA BR FEW001 SCT020 OVC100 20/20 A3006 BECMG=
201006210300 METAR MROC 210300Z 24004KT 6000 2000SW RA BR SCT002 OVC090 20/20 A3008 BECMG=
201006210400 METAR MROC 210400Z 11002KT 8000 RA BR SCT008 OVC090 20/20 A3008 RMK VIS 5000SW BECMG=
201006210500 METAR MROC 210500Z 15003KT 9999 -RA FEW030 BKN100 20/20 A3004 BECMG=
201006210600 METAR MROC 210600Z 07003KT CAVOK 20/20 A3002 RMK BKN100 BECMG=
201006210700 METAR MROC 210700Z 00000KT CAVOK 20/20 A3001 RMK BKN100 BECMG=
201006210800 METAR MROC 210800Z 00000KT 9999 FEW030 BKN120 20/20 A2999 RMK VIS 7000SSW DUE LOW ST BECMG=
201006210900 METAR MROC 210900Z 00000KT CAVOK 19/19 A3000 RMK BKN120 LOW ST SSW BECMG=
201006211000 METAR MROC 211000Z 00000KT 9999 4000SW BR FEW003 SCT030 SCT120 19/19 A3002 BECMG=
201006211100 METAR MROC 211100Z 08003KT 9999 DZ OVC090 19/19 A3002 BECMG -RA=
201006211200 METAR MROC 211200Z 09003KT CAVOK 19/19 A3004 RMK BKN100 SCT250 RN DST E BECMG=
201006211300 METAR MROC 211300Z 11003KT CAVOK 20/20 A3005 RMK BKN120 BECMG=
201006211400 METAR MROC 211400Z 08002KT CAVOK 22/20 A3006 RMK BKN120 BECMG 24008KT=
201006211500 METAR MROC 211500Z 24006KT 9999 FEW015 BKN120 24/22 A3006 RMK SCT250 BECMG=
201006211600 METAR MROC 211600Z 24006KT 9999 FEW015 BKN250 25/21 A3005 RMK TRACE120 BECMG=
201006211700 METAR MROC 211700Z 25008KT 9999 SCT025 BKN120 25/21 A3005 BECMG=
201006211800 METAR MROC 211800Z 24011KT 9999 SCT025 SCT250 25/21 A3003 BECMG=
201006211900 METAR MROC 211900Z 21008KT 9999 SCT020TCU SCT030 25/22 A2999 BECMG=
201006212000 METAR MROC 212000Z 21008KT 9999 SCT020TCU SCT030 25/22 A2999 BECMG=
201006212100 METAR MROC 212100Z 24009KT 9999 FEW008 SCT025 25/22 A2998 RMK PCPN SW BECMG=
201006212200 METAR MROC 212200Z 23008KT 9999 -RA VCFG FEW002 SCT025 BKN110 22/22 A2999 RMK VIS 7000 W DUE ST BECMG 4000 VCRA=
201006212300 METAR MROC 212300Z 23008KT 9999 FEW008 SCT030 BKN250 22/22 A2999 BECMG=
201006220000 METAR MROC 220000Z 25007KT 9999 5000W BR FEW005 SCT030 BKN250 21/21 A3002 BECMG 4000 -RA BR=
201006220100 METAR MROC 220100Z 26007KT 8000 VCFG FEW008 SCT030 21/21 A3004 RMK SCT110 TS DST N BECMG=
201006220200 METAR MROC 220200Z 24006KT 8000 VCFG FEW005 SCT030 BKN100 21/21 A3007 RMK VIS N 5000 DUE TSRA BECMG=
201006220300 METAR MROC 220300Z 04002KT 9999 VCFG FEW005 SCT030 BKN100 21/21 A3007 BECMG=
201006220400 METAR MROC 220400Z 00000KT 9999 -RA FEW005 SCT030 BKN100 21/21 A3008 BECMG=
201006220500 METAR MROC 220500Z 00000KT 9999 -RA FEW005 SCT030 BKN100 20/20 A3006 BECMG=
201006220600 METAR MROC 220600Z 00000KT 9999 VCFG SCT010 BKN100 21/21 A3005 BECMG=
201006220700 METAR MROC 220700Z 00000KT 9999 4000W BR FEW002 SCT020 BKN100 21/21 A3003 BECMG=
201006220800 METAR MROC 220800Z 26003KT 9999 3000W BR SCT002 SCT020 BKN100 20/20 A3003 BECMG 2000W BR=
201006220900 METAR MROC 220900Z 00000KT 8000 3000W BR SCT002 SCT020 BKN100 20/20 A3003 BECMG 2000W BR=
201006221000 METAR MROC 221000Z 22003KT 1200 BR SCT001 SCT020 BKN100 20/20 A3004 BECMG=
201006221100 METAR MROC 221100Z 00000KT 1200 BR FEW001 SCT020 BKN100 20/20 A3004 BECMG=
201006221200 METAR MROC 221200Z 10003KT 9999 FEW003 SCT100 20/20 A3004 BECMG=
201006221300 METAR MROC 221300Z 11005KT CAVOK 21/21 A3004 RMK FEW120 SCT250 HZ LEVE ARND BECMG=
201006221400 METAR MROC 221400Z 10005KT CAVOK 25/21 A3004 RMK FEW120 BKN250 BECMG 26004KT=
201006221500 METAR MROC 221500Z 24008KT CAVOK 27/23 A3004 RMK FEW120 BKN250 BECMG=
201006221600 METAR MROC 221600Z 22009KT 9999 FEW040 BKN250 27/23 A3004 RMK HZ DST SW BECMG=
201006221700 METAR MROC 221700Z 24010KT 9999 SCT040 SCT250 27/23 A3004 BECMG=
201006221800 METAR MROC 221800Z 22007KT 9999 FEW010TCU BKN040 24/23 A3003 BECMG 8000 VCSH=
201006221900 METAR MROC 221900Z 24010KT 9999 FEW010TCU BKN040 25/23 A3002 RMK RA DST E NW BECMG 8000 VCSH=
201006222000 METAR MROC 222000Z 24010KT 9999 SCT010 BKN040 24/22 A3001 BECMG 8000=
201006222100 METAR MROC 222100Z 21010KT 5000 -RA BR VCTS SCT004 FEW012CB BKN020 21/21 A3001 BECMG 4000 -TSRA=
201006222200 METAR MROC 222200Z 22006KT 4000 1500E -RA BR SCT003 FEW012CB BKN020 21/21 A3002 RMK LOW CLOWDS OVER APCH RNY 07 BECMG 2000=
201006222300 METAR MROC 222300Z 23005KT 8000 VCFG SCT004 BKN015 21/21 A3002 REDZ BECMG 3000 BR=
201006230000 METAR MROC 230000Z 00000KT 9999 SCT015 SCT120 21/21 A3003 BECMG=
201006230100 METAR MROC 230100Z 10003KT 9999 FEW020 BKN120 21/21 A3004 RMK LTNG DST NNE BECMG=
201006230200 METAR MROC 230200Z 08004KT CAVOK 21/21 A3004 RMK FEW120 SCT250 BECMG=
201006230300 METAR MROC 230300Z 07005KT CAVOK 21/21 A3005 FEW120 BKN250=
201006230400 METAR MROC 230400Z 09006KT CAVOK 21/20 A3004 SCT250 BECMG=
201006230500 METAR MROC 230500Z 04003KT CAVOK 20/20 A3004 SCT250 BECMG=
201006230600 METAR MROC 230600Z 17003KT 9999 FEW003 SCT025 BKN250 20/20 A3004 BECMG=
201006230700 METAR MROC 230700Z 08004KT 1300 BR FEW002 SCT006 BKN015 20/20 A3003=
201006230800 METAR MROC 230800Z 00000KT 0300 FG BKN001 BKN003 19/19 A3001 BECMG=
201006230900 METAR MROC 230900Z 02003KT 9999 2000SW VCFG FEW005 SCT015 BKN250 19/19 A3001 LTNG DST S SW BECMG=
201006231000 METAR MROC 231000Z 00000KT 9999 VCFG FEW005 SCT020 BKN250 18/18 A3002 BECMG=
201006231100 METAR MROC 231100Z 09005KT 9999 SCT030 BKN120 18/18 A3003 BECMG=
201006231200 METAR MROC 231200Z 08006KT 9999 4000E BR FEW010 SCT120 BKN250 19/19 A3002 CB DST S SW BECMG=
201006231300 METAR MROC 231300Z 07004KT CAVOK 22/20 A3004 RMK BKN 250 CB DST S BECMG=
201006231400 METAR MROC 231400Z 12004KT CAVOK 25/21 A3005 RMK FEW120 BKN250 BECMG 24005KT=
201006231500 METAR MROC 231500Z 22008KT CAVOK 24/22 A3006 RMK BKN250 BECMG=
201006231600 METAR MROC 231600Z 24007KT 9999 SCT040 SCT250 25/22 A3006 RMK LGT HZ ARND BECMG=
201006231700 METAR MROC 231700Z 28003KT 9999 SCT040 SCT250 26/22 A3005 HZY BECMG=
201006231800 METAR MROC 231800Z 23004KT 9999 SCT035 27/22 A3002 RMK HZY BECMG=
201006231900 METAR MROC 231900Z 23009KT 9999 SCT030 28/23 A3000 RMK HZY BECMG 6000 SHRA=
201006232000 METAR MROC 232000Z 20009KT 9999 SH VCTS FEW015CB SCT025 25/23 A2999 RMK VIS N NE 6KMS BECMG 3000 TSRA=
201006232100 METAR MROC 232100Z 23006KT 6000 -TSRA SCT015CB BKN030 24/23 A2998 RMK VIS 3000NE BECMG 3000 TSRA=
201006232200 METAR MROC 232200Z 06005KT 9999 VCSH SCT025 SCT120 24/20 A2997 RMK VIS 6000SW DUE LOW ST BECMG=
201006232300 METAR MROC 232300Z 00000KT 9999 SCT025 SCT120 24/22 A2998 RMK FEW250 VIS 6000SW DUE LOW ST BECMG=
201006240000 METAR MROC 240000Z 24004KT 9999 BR FEW005 BKN110 23/22 A2998 RMK FEW250 VIS 5000 SE SW BECMG=
201006240100 METAR MROC 240100Z 23004KT 4000 BR FEW002 SCT010 BKN110 23/23 A3000 RMK BECMG 1000 BR BKN001=
201006240200 METAR MROC 240200Z 00000KT 5000 BR FEW002 SCT010 BKN110 23/23 A3002 RMK BECMG 2000 BR BKN001=
201006240300 METAR MROC 240300Z 00000KT 7000 VCFG FEW003 SCT010 22/22 A3003 RMK SCT110 BECMG=
201006240400 METAR MROC 240400Z 00000KT 5000 -RA BR SCT003 SCT010 SCT110 22/22 A3003=
201006240500 METAR MROC 240500Z 00000KT 4000 BR SCT003 SCT010 SCT110 22/22 A3003 BECMG=
201006240600 METAR MROC 240600Z 00000KT 3000 BR FEW003 SCT010 SCT100 22/22 A3002 BECMG=
201006240700 METAR MROC 240700Z 00000KT 5000 BR FEW003 SCT015 22/22 A3001 BECMG=
201006240800 METAR MROC 240800Z 00000KT 4000 BR FEW002 SCT015 22/22 A2999 BECMG=
201006240900 METAR MROC 240900Z 21003KT 3000 FEW001 SCT010 22/22 A2998 BECMG=
201006241000 METAR MROC 241000Z 00000KT 5000 BR FEW001 SCT015 21/21 A2999 BECMG=
201006241100 METAR MROC 241100Z 06002KT 9999 FEW015 20/20 A2998 RMK HZ ANRD=
201006241200 METAR MROC 241200Z 00000KT CAVOK 21/20 A2998 RMK TCU DST SW SCT300 HZ ARND BECMG=
201006241300 METAR MROC 241300Z 21003KT CAVOK 22/20 A3001 RMK FEW250 HYZ VIS 8000SW HZ BECMG=
201006241400 METAR MROC 241400Z 21005KT 7000 HZ FEW015 24/21 A3003 BECMG=
201006241500 METAR MROC 241500Z 20004KT 9999 FEW015 25/21 A3003 RMK HZ ARND BECMG=
201006241600 METAR MROC 241600Z 21005KT 9999 FEW025 27/22 A3003 RMK HZ ARND=
201006241700 METAR MROC 241700Z 22006KT 9999 SCT025 27/25 A3001 RMK HZ ARND BECMG=
201006241800 METAR MROC 241800Z 22008KT 9999 SCT025 28/22 A2999 RMK HZ ARND BECMG=
201006241900 METAR MROC 241900Z 22009KT 9999 SCT025 28/23 A2996 RMK HZ ARND BECMG=
201006242000 METAR MROC 242000Z 22008KT 9999 SCT025TCU 28/23 A2993 RMK HZ ARND BECMG=
201006242100 METAR MROC 242100Z 20009KT 9999 SCT025 27/24 A2991 RMK HZ ARND BECMG=
201006242200 METAR MROC 242200Z 21011KT 9999 SCT025 26/23 A2991 RMK HZ ARND=
201006242300 METAR MROC 242300Z 21007KT 9999 FEW010 SCT025 24/23 A2993 RMK HZ ARND=
201006250000 METAR MROC 250000Z 25007KT 9999 3000N BR FEW005 BKN030 23/23 A2996 BECMG 4000 VCFG=
201006250100 METAR MROC 250100Z 24008KT 9999 4000SW BR FEW003 BKN025 22/22 A2997 BECMG 2000 BR SCT001 BKN020=
201006250200 METAR MROC 250200Z 28003KT 7000 -DZ VCFG FEW002 SCT020 22/22 A2999 BECMG=
201006250300 METAR MROC 250300Z 26004KT 9999 FEW004 SCT010 BKN025 21/21 A3002 REDZ BECMG=
201006250400 METAR MROC 250400Z 22004KT 9999 FEW006 SCT020 BKN100 21/21 A3005 BECMG=
201006250500 METAR MROC 250500Z 29004KT 9999 FEW010 BKN020 22/22 A3003 BECMG=
201006250600 METAR MROC 250600Z 35003KT 9999 FEW010 BKN020 22/22 A3000 BECMG=
201006250700 METAR MROC 250700Z 27003KT 9999 SCT020 SCT250 21/21 A2998 BECMG=
201006250800 METAR MROC 250800Z 09004KT CAVOK 20/20 A2995 RMK SCT250 LGT HZ ARND=
201006250900 METAR MROC 250900Z 04005KT CAVOK 20/20 A2994 RMK SCT250=
201006251000 METAR MROC 251000Z 04005KT 9999 SCT015 20/20 A2996=
201006251001 METAR MROC 251001Z 29005KT 9999 SCT015 20/20 A2996=
201006251100 METAR MROC 251100Z 00000KT 9999 SCT035 BKN070 21/21 A2997=
201006251200 METAR MROC 251200Z 11004KT 9999 FEW040 SCT070 BKN250 20/20 A2997 RMK LGT HZ ARND CB DST SSW=
201006251300 METAR MROC 251300Z 08005KT CAVOK 23/21 A2997 RMK CB DST SW BKN250 HZ ARND BECMG=
201006251400 METAR MROC 251400Z 00000KT CAVOK 26/21 A2999 RMK CB DST SW BKN250 HZ ARND BECMG 24006KT=
201006251500 METAR MROC 251500Z 24005KT 9999 FEW040 SCT250 26/23 A2998 RMK HZ ARND BECMG=
201006251600 METAR MROC 251600Z 23006KT 9999 FEW040 SCT250 26/22 A2998 RMK HZ ARND=
201006251700 METAR MROC 251700Z 24008KT 9999 SCT040 SCT250 27/23 A2998 RMK HZ ARND BECMG=
201006251800 METAR MROC 251800Z 23011KT 9999 SCT030 SCT250 26/23 A2998 RMK HZ ARND BECMG=
201006251900 METAR MROC 251900Z 23009KT 9999 FEW015TCU BKN030 25/22 A2995 RMK RN DST NE E HZ ARND=
201006252000 METAR MROC 252000Z 23008KT 9999 FEW015TCU BKN030 26/22 A2995 RMK RN NE E HZ ARND BECMG 8000 VCSH=
201006252100 METAR MROC 252100Z 22009KT 9999 4000N -TSRA FEW010CB SCT025 BKN100 23/22 A2994 BECMG 6000 TSRA SCT015CB=
201006252200 METAR MROC 252200Z 24007KT 6000 2000W -RA BR FEW002 SCT010 BKN025 22/22 A2993 BECMG=
201006252300 METAR MROC 252300Z 26007KT 3000 -RA BR FEW002 SCT005 BKN015 22/22 A2996=
201006260000 METAR MROC 260000Z 24004KT 3000 -RA BR FEW002 SCT005 BKN010 21/21 A2998=
201006260100 METAR MROC 260100Z 35003KT 5000 -RA BR SCT005 BKN020 21/21 A2999 BECMG=
201006260200 METAR MROC 260200Z 02003KT 6000 -RA BR FEW007 BKN070 21/21 A3002 RMK VIS 5000SW BECMG 9999=
201006260300 METAR MROC 260300Z 07003KT 9999 -DZ FEW015 BKN100 21/21 A3002 BECMG=
201006260400 METAR MROC 260400Z 00000KT CAVOK 21/21 A3002 RMK BKN100 BECMG=
201006260500 METAR MROC 260500Z 26003KT 9999 4000SW BR SCT002 BKN100 21/21 A3003=
201006260600 METAR MROC 260600Z 32003KT 9999 FEW007 BKN100 21/21 A3002 RMK VIS SW 7000 DUE LOW ST BECMG=
201006260700 METAR MROC 260700Z 30003KT 9999 FEW007 BKN100 21/21 A3000 RMK LOW ST S SW BECMG=
201006260800 METAR MROC 260800Z 00000KT 9999 FEW020 BKN100 21/21 A2994=
201006260900 METAR MROC 260900Z 23003KT 4000 1000SW BR R07/0700 SCT001 SCT100 20/20 A2998 RMK FEW020=
201006261000 METAR MROC 261000Z 30002KT 5000 BR SCT003 SCT100 20/20 A2998=
201006261100 METAR MROC 261100Z 26003KT 9999 FEW007 SCT020 SCT100 20/20 A2999=
201006261200 METAR MROC 261200Z 25004KT 3000 BR SCT003 BKN012 20/20 A3002=
201006261300 METAR MROC 261300Z 27006KT 2000 -RA BR SCT001 BKN010 20/20 A3003 BECMG=
201006261400 METAR MROC 261400Z 30004KT 2000 -RA BR SCT001 SCT015 OVC100 20/20 A3005 BECMG=
201006261500 METAR MROC 261500Z 31002KT 9999 VCFG FEW003 SCT020 OVC100 21/21 A3005 RERA VIS SW 7000 DUE ST BECMG=
201006261600 METAR MROC 261600Z 28003KT 9999 VCFG FEW010 SCT025 BKN120 22/22 A3005 VIS N 7000 DUE ST BECMG=
201006261700 METAR MROC 261700Z 26006KT 9999 FEW010 BKN020 24/22 A3004 BECMG=
201006261800 METAR MROC 261800Z 24007KT 9999 SCT020 BKN120 25/21 A3001 BECMG=
201006261900 METAR MROC 261900Z 25010KT 9999 FEW010 BKN020 26/22 A2999 RMK RN DST SW BECMG 5000 RA=
201006262000 METAR MROC 262000Z 23007KT 9999 2000SW -RA BR FEW005 SCT010 BKN020 23/22 A2998 BECMG 5000 RA=
201006262005 SPECI MROC 262005Z 23012KT 9999 -DZ FEW005 SCT008 BKN020 23/22 A2998 CHECK TEXT NEW ENDING ADDED KATLYTAA=
201006262100 METAR MROC 262100Z 00000KT 9999 RA FEW005 SCT012 OVC100 21/21 A2998 RMK VIS 5000 E BECMG=
201006262200 METAR MROC 262200Z 00000KT 9999 FEW005 SCT015 OVC100 22/22 A2997 RMK VIS SW 7000 DUE RA BECMG=
201006262300 METAR MROC 262300Z 00000KT 9999 VCSH FEW005 SCT015 OVC100 21/21 A2997 RMK VIS E 7000 DUE RA BECMG=
201006270000 METAR MROC 270000Z 23003KT 8000 DZ FEW005 SCT015 OVC100 21/21 A2999 BECMG 5000 -RA BR=
201006270100 METAR MROC 270100Z 25003KT 7000 VCFG SCT005 BKN015 21/21 A3001 RMK BECMG 5000 -RA BR=
201006270200 METAR MROC 270200Z 23007KT 7000 DZ VCFG FEW005 SCT015 OVC100 21/21 A3003 BECMG 5000 -RA BR=
201006270300 METAR MROC 270300Z 32003KT 9999 FEW005 SCT015 BKN100 21/21 A3005 BECMG=
201006270400 METAR MROC 270400Z 00000KT 9999 SCT020 BKN100 21/21 A3006 RMK TRACE ST BECMG=
201006270500 METAR MROC 270500Z 14003KT 9999 SCT020 BKN100 21/21 A3000 BECMG=
201006270600 METAR MROC 270600Z 00000KT 9999 SCT020 BKN100 21/21 A3004 BECMG=
201006270700 METAR MROC 270700Z 09003KT 9999 SCT020 BKN100 20/20 A3002 BECMG=
201006270800 METAR MROC 270800Z 09005KT 9999 SCT020 BKN100 20/20 A2999 BECMG=
201006270900 METAR MROC 270900Z 08004KT 9999 SCT020 SCT100 19/19 A2998 BECMG=
201006271000 METAR MROC 271000Z 09007KT CAVOK 19/18 A2997 RMK SCT110 BECMG=
201006271100 METAR MROC 271100Z 09004KT CAVOK 19/19 A2996 RMK SCT110 BECMG=
201006271200 METAR MROC 271200Z 11004KT CAVOK 19/19 A3000 RMK SCT110 BKN250 BECMG=
201006271300 METAR MROC 271300Z 10004KT CAVOK 20/19 A3000 RMK SCT120 BKN250 BECMG=
201006271400 METAR MROC 271400Z 00000KT CAVOK 22/20 A3001 RMK BKN250 BECMG 22006KT=
201006271500 METAR MROC 271500Z 00000KT CAVOK 23/20 A3001 RMK BKN250 BECMG 22006KT=
201006271600 METAR MROC 271600Z 22004KT CAVOK 24/21 A3002 RMK BKN250 BECMG=
201006271700 METAR MROC 271700Z 22006KT CAVOK 25/20 A3002 RMK FEW110 BKN250 BECMG=
201006271800 METAR MROC 271800Z 20003KT 9999 FEW040 SCT120 BKN250 25/20 A3000 RMK CB DST E BECMG=
201006271900 METAR MROC 271900Z 23004KT 9999 FEW040 SCT120 BKN250 27/21 A2997 RMK CB DST E BECMG=
201006272000 METAR MROC 272000Z 23007KT 9999 FEW040 SCT120 BKN250 27/22 A2995 BECMG=
201006272100 METAR MROC 272100Z 24009KT 9999 FEW030 SCT120 BKN250 25/22 A2995 BECMG=
201006272200 METAR MROC 272200Z 26007KT 9999 4000NW SH FEW017CB SCT025 BKN120 24/22 A2997 BECMG 5000 -TSRA=
201006272300 METAR MROC 272300Z 05004KT 9999 DZ VCSH SCT010 BKN025 21/21 A2998 RERA RMK VIS S 8KMS BECMG=
201006280000 METAR MROC 280000Z 00000KT 9999 -RA FEW015 SCT030 BKN120 22/22 A3000=
201006280100 METAR MROC 280100Z 00000KT 9999 -RA FEW035 BKN070 22/22 A3002 BECMG=
201006280200 METAR MROC 280200Z 00000KT 9999 FEW035 BKN070 22/22 A3004 RMK BECMG CAVOK=
201006280300 METAR MROC 280300Z 00000KT CAVOK 22/22 A3005 RMK BKN100 BECMG=
201006280400 METAR MROC 280400Z 00000KT CAVOK 21/21 A3005 RMK SCT100 SCT250 BECMG=
201006280500 METAR MROC 280500Z 00000KT CAVOK 21/21 A3006 RMK SCT100 SCT250 ST LOW S SW BECMG=
201006280600 METAR MROC 280600Z 00000KT 9999 FEW010 BKN100 21/21 A3005 BECMG=
201006280700 METAR MROC NIL=
201006280800 METAR MROC NIL=
201006280900 METAR MROC NIL=
201006281000 METAR MROC NIL=
201006281100 METAR MROC 281100Z 00000KT 9999 FEW002 SCT120 BKN250 21/21 A2999 BECMG=
201006281200 METAR MROC 281200Z 00000KT 9999 FEW005 BKN120 21/21 A3001 BECMG=
201006281300 METAR MROC 281300Z 04002KT CAVOK 21/21 A3002 RMK BKN120 BECMG=
201006281400 METAR MROC 281400Z 04003KT 9999 FEW015 BKN120 22/21 A3003 BECMG 24005KT=
201006281500 METAR MROC 281500Z 00000KT 9999 FEW020 BKN120 23/21 A3003 BECMG 24005KT=
201006281600 METAR MROC 281600Z 26005KT 9999 FEW015 SCT040 BKN100 24/22 A3003 BECMG=
201006281700 METAR MROC 281700Z 24005KT 9999 FEW025 SCT035 BKN100 24/22 A3003 BECMG=
201006281800 METAR MROC 281800Z 00000KT 9999 FEW030 BKN100 25/22 A3001 BECMG=
201006281900 METAR MROC 281900Z 00000KT CAVOK 25/21 A2998 RMK SCT070 BKN100 PCPN DST ENE BECMG=
201006282000 METAR MROC 282000Z 23002KT CAVOK 25/22 A2997 RMK SCT070 BKN100 DZ DST NE BECMG=
201006282100 METAR MROC 282100Z 25002KT 9999 SCT025 BKN100 25/23 A2995 BECMG=
201006282200 METAR MROC 282200Z 23006KT 9999 FEW020 OVC100 24/23 A2995 BECMG=
201006282300 METAR MROC 282300Z 23009KT 9999 SCT007 BKN100 22/22 A2998 BECMG 5000 -RA BR=
201006290000 METAR MROC 290000Z 22003KT 9999 BR FEW010 SCT020 BKN100 21/19 A3000 BECMG 5000 -RA BR=
201006290100 METAR MROC 290100Z 00000KT 9999 FEW025 BKN100 20/20 A3002 RERA BECMG=
201006290115 METAR MROC 290115Z VRB02KT 9999 RA FEW025 BKN100 20/20 A3002 BECMG=
201006290200 METAR MROC 290200Z 09005KT 9999 -DZ FEW030 BKN100 20/20 A3003 BECMG=
201006290300 METAR MROC 290300Z 10006KT CAVOK 20/20 A3003 RMK BKN100 BECMG=
201006290400 METAR MROC 290400Z 23004KT 9999 VCFG FEW005 BKN100 20/20 A3004 BECMG=
201006290500 METAR MROC 290500Z 00000KT 9999 VCFG FEW005 BKN100 20/20 A3004 BECMG=
201006290600 METAR MROC 290600Z 00000KT CAVOK 20/20 A3004 RMK BKN100 BECMG=
201006290700 METAR MROC 290700Z 00000KT CAVOK 20/20 A3003 RMK BKN100 BECMG=
201006290800 METAR MROC 290800Z 00000KT CAVOK 20/20 A3001 RMK BKN100 BECMG=
201006290900 METAR MROC 290900Z 19994KT CAVOK 20/20 A3001 RMK BKN100 BECMG=
201006291000 METAR MROC 291000Z 07004KT CAVOK 19/19 A3002 RMK BKN100 BECMG=
201006291100 METAR MROC 291100Z 08004KT CAVOK 20/20 A3002 RMK BKN090 BECMG=
201006291200 METAR MROC 291200Z 09003KT CAVOK 20/20 A3002 RMK BKN090 BECMG=
201006291300 METAR MROC 291300Z 07004KT CAVOK 22/19 A3003 RMK SCT100 BKN250 BECMG=
201006291400 METAR MROC 291400Z 09006KT CAVOK 26/19 A3005 RMK FEW120 BKN250 BECMG=
201006291500 METAR MROC 291500Z 05004KT CAVOK 27/19 A3004 RMK FEW120 BKN250 BECMG=
201006291600 METAR MROC 291600Z 10005KT CAVOK 28/19 A3003 RMK FEW120 SCT250 BECMG=
201006291700 METAR MROC 291700Z 08003KT 9999 FEW045 SCT300 30/18 A3001 BECMG=
201006291800 METAR MROC 291800Z 23010KT 9999 FEW035 28/22 A3000 RMK RN DST E BECMG=
201006291900 METAR MROC 291900Z 23013KT 9999 4000S TSRA SCT015CB SCT025 25/23 A3000 BECMG 3000 TSRA=
201006292000 METAR MROC 292000Z 30010KT 0800 TSRA R07/0600 FEW001 SCT010CB BKN020 19/19 A3005 BECMG 2000 RA BR=
201006292100 METAR MROC 292100Z 22003KT 3000 -RA BR FEW001 SCT010 BKN070 19/19 A3002 VIS S SW UNL=
201006292200 METAR MROC 292200Z 00000KT 7000 3000SW BR FEW001 SCT020 BKN100 20/20 A3000 RMK VIS S UNL BECMG=
201006292300 METAR MROC 292300Z 00000KT 9999 SCT020 BKN100 21/21 A3000 RMK RN DST E BECMG=
201006300000 METAR MROC 300000Z 26004KT 2000 BR FEW001 SCT005 BKN100 20/20 A3002 BECMG=
201006300100 METAR MROC 300100Z 06003KT 9999 FEW005 SCT030 BKN100 21/21 A3003 BECMG=
201006300200 METAR MROC 300200Z 11003KT CAVOK 20/20 A3005 BKN120 BECMG=
201006300300 METAR MROC 300300Z 05002KT CAVOK 21/21 A3004 BKN120 HZY BECMG=
201006300400 METAR MROC 300400Z VRB03KT CAVOK 21/21 A3005 RMK BKN120 BECMG=
201006300500 METAR MROC 300500Z 15003KT CAVOK 20/20 A3006 RMK BKN120 BECMG=
201006300600 METAR MROC 300600Z 07003KT CAVOK 20/20 A3005 RMK SCT120 FEW250 BECMG=
201006300700 METAR MROC 300700Z 00000KT CAVOK 19/19 A3003 RMK FEW120 SCT250 BECMG=
201006300800 METAR MROC 300800Z 07004KT CAVOK 19/19 A3001 RMK SCT250=
201006300900 METAR MROC 300900Z 090004KT CAVOK 18/18 A3000 RMK SCT250=
201006300901 METAR MROC 300901Z 09004KT CAVOK 18/18 A3000 RMK SCT250=
201006301000 METAR MROC 301000Z 09003KT CAVOK 18/18 A3001 RMK SCT250=
201006301100 METAR MROC 301100Z 06003KT CAVOK 18/17 A3002 RMK SCT250=
201006301200 METAR MROC 301200Z 08005KT CAVOK 18/18 A3002 RMK BKN250=
201006301300 METAR MROC 301300Z 06010KT CAVOK 22/18 A3000 RMK BKN250 BECMG=
201006301400 METAR MROC 301400Z 04005KT CAVOK 25/20 A3002 RMK BKN250 BECMG=
201006301500 METAR MROC 301500Z 11004KT CAVOK 27/19 A3003 RMK BKN270 BECMG=
201006301600 METAR MROC 301600Z 23007KT CAVOK 27/21 A3002 RMK BKN270 BECMG=
201006301700 METAR MROC 301700Z 24008KT 9999 FEW040 BKN270 27/22 A3002 BECMG=
201006301800 METAR MROC 301800Z 23009KT 9999 SCT040 SCT250 27/23 A3002 BECMG=
201006301900 METAR MROC 301900Z 26004KT 9999 3000N -RA BR FEW005 BKN030 25/23 A3002 BECMG 5000 -TSRA=
201006302000 METAR MROC 302000Z 23007KT 9999 FEW010 BKN030 25/24 A3001 RERA BECMG 5000 -TSRA=
201006302100 METAR MROC 302100Z 24010KT 9999 SCT025TCU BKN250 25/22 A3000 BECMG=
201006302200 METAR MROC 302200Z 28006KT 9999 SCT025 BKN250 25/22 A2999 BECMG=
201006302300 METAR MROC 302300Z 23006KT 9999 SCT020 BKN250 24/22 A3000 BECMG=
201007010000 METAR MROC 010000Z 26004KT 9999 FEW015 BKN025 22/22 A3002 RMK SCT250 DZ DST NE E SE BECMG=
201007010100 METAR MROC 010100Z 28004KT 9999 FEW015 SCT025 22/22 A3004 BECMG=
201007010200 METAR MROC 010200Z 00000KT 9999 SCT020 22/21 A3005 BECMG=
201007010300 METAR MROC 010300Z 00000KT 9999 FEW015 SCT250 21/21 A3006 BECMG=
201007010400 METAR MROC 010400Z 08002KT CAVOK 21/21 A3005 RMK SCT120 SCT250 BECMG=
201007010500 METAR MROC 010500Z 09003KT CAVOK 21/20 A3005 RMK SCT120 SCT250 BECMG=
201007010600 METAR MROC 010600Z 08004KT CAVOK 21/20 A3004 RMK BKN120 BECMG=
201007010700 METAR MROC 010700Z 05003KT CAVOK 21/20 A3003 RMK BKN120 BECMG=
201007010800 METAR MROC 010800Z 05003KT CAVOK 20/19 A3002 RMK SCT120=
201007010900 METAR MROC 010900Z 10004KT CAVOK 20/19 A3001 RMK FEW120 SCT250=
201007011000 METAR MROC 011000Z 04003KT CAVOK 20/19 A3001 RMK FE120 SCT250=
201007011100 METAR MROC 011100Z 06003KT CAVOK 20/18 A3002 RMK SCT120 SCT250=
201007011200 METAR MROC 011200Z 06003KT CAVOK 20/19 A3002 RMK FEW120 BKN250 CB DST SW=
201007011300 METAR MROC 011300Z 08005KT 9999 FEW035 BKN250 22/19 A3003 RMK CB DST SW BECMG=
201007011400 METAR MROC 011400Z 09004KT 9999 FEW030 BKN250 24/19 A3004 CB DST SW BECMG=
201007011500 METAR MROC 011500Z 10006KT 9999 SCT030 BKN250 25/20 A3004 RMK CB DST SW BECMG=
201007011600 METAR MROC 011600Z 10006KT 9999 SCT030 BKN250 27/19 A3004 TCU DST SW=
201007011700 METAR MROC 011700Z 09006KT 9999 FEW035 BKN250 29/18 A3003 RMK TCU DST S=
201007011800 METAR MROC 011800Z 12005KT 9999 FEW040 SCT120 BKN250 29/18 A3001 RMK TCU DST S BECMG=
201007011900 METAR MROC 011900Z 26009KT 9999 SCT035 SCT120 BKN250 26/23 A3000 RMK TCU DST S BECMG 7000 VCSH=
201007012000 METAR MROC 012000Z 21006KT 9999 4000E VCSH SCT015CB SCT025 BKN120 27/23 A2998 BECMG 8000=
201007012100 METAR MROC 012100Z VRB05KT 9999 -RA FEW015 SCT025 BKN110 24/20 A2996 BECMG 7000 RA=
201007012200 METAR MROC 012200Z 25006KT 9999 FEW015 SCT025 BKN110 22/22 A2998 BECMG 6000 -TSRA=
201007012300 METAR MROC 012300Z 00000KT 6000 VCFG FEW003 SCT020 BKN100 21/21 A3002 BECMG 2000 -RA BR=
201007020000 METAR MROC 020000Z 00000KT 9999 SCT020 BKN100 22/21 A3001 RMK HZ ARND BECMG=
201007020100 METAR MROC 020100Z 00000KT 9999 SCT025 BKN110 21/21 A3004 RMK TRACE ST BECMG=
201007020200 METAR MROC 020200Z 00000KT 9999 SCT030 BKN110 21/21 A3006 RMK TRACE ST BECMG=
201007020300 METAR MROC 020300Z 31004KT 9999 SCT030 BKN110 21/21 A3005 RMK TRACE ST BECMG=
201007020400 METAR MROC 020400Z 24008KT 9999 FEW005 SCT025 BKN100 21/21 A3006 BECMG=
201007020500 METAR MROC 020500Z 24003KT 9999 FEW006 SCT025 BKN100 21/21 A3007 BECMG=
201007020600 METAR MROC 020600Z 00000KT 9999 SCT025 BKN100 21/21 A3006 RMK TRACE ST BECMG=
201007020700 METAR MROC 020700Z 00000KT 9999 SCT025 BKN100 21/21 A3003 RMK TRACE ST BECMG=
201007020800 METAR MROC 020800Z 10002KT 9999 SCT030 BKN100 20/20 A3000 BECMG=
201007020900 METAR MROC 020900Z 08003KT 9999 SCT030 BKN100 20/20 A3000 BECMG=
201007021000 METAR MROC 021000Z 08004KT 9999 FEW025 19/19 A3000 BECMG=
201007021100 METAR MROC 021100Z 09004KT 9999 FEW025 19/18 A3000 BECMG=
201007021200 METAR MROC 021200Z 06004KT 9999 FEW030 SCT250 19/18 A2999 BECMG=
201007021300 METAR MROC 021300Z 24003KT CAVOK 21/19 A3001 RMK BKN270 HZ LEVE ARND CB DST SW BECMG=
201007021400 METAR MROC 021400Z 26005KT 9999 FEW040 SCT130 BKN270 23/20 A3004 RMK HZ ARND=
201007021500 METAR MROC 021500Z 25008KT 9999 FEW040 SCT130 BKN270 23/21 A3004 RMK HZ ARND BECMG=
201007021600 METAR MROC 021600Z 25007KT 9999 SCT040 SCT130 24/21 A3003 RMK HZ LEVE ARND=
201007021700 METAR MROC 021700Z 25007KT 9999 SCT030 SCT120 25/21 A3003 RMK HZ LEVE ARND=
201007021800 METAR MROC 021800Z 24007KT 9999 SCT030 SCT120 26/21 A3000 RMK RA DST NE=
201007021900 METAR MROC 021900Z 24007KT 9999 FEW015TCU BKN030 25/22 A2998 RMK RA DST N NE E BECMG 5000 RA=
201007022000 METAR MROC 022000Z 18006KT 5000 2000SW -TSRA BR FEW001 SCT010CB BKN030 21/21 A2998 BECMG=
201007022100 METAR MROC 022100Z VRB03KT 9999 -RA VCSH FEW012 SCT045 BKN070 21/21 A2996 RASH DST W WNW N BECMG=
201007022200 METAR MROC 022200Z 23004KT 5000 -RA BR FEW002 SCT015 BKN080 20/20 A3000 BECMG 3000=
201007022300 METAR MROC 022300Z 07006KT 7000 -RA FEW002 SCT020 BKN100 20/20 A2999 BECMG 5000 -RA BR=
201007030000 METAR MROC 030000Z 09003KT 9999 -RA BR SCT030 BKN100 019/19 A3001 VIS S 5KMS DUE FG BANK BECMG 5000 BR=
201007030100 METAR MROC 030100Z 00000KT 9999 SCT040 BKN100 19/19 A3002 RERA THIN FG BNK TO S SSW BECMG=
201007030200 METAR MROC 030200Z 06006KT 9999 FEW040 BKN100 20/20 A3001 BECMG=
201007030300 METAR MROC 030300Z VRB02KT 9999 VCFG FEW001 SCT035 BKN100 20/20 A3003 BECMG=
201007030400 METAR MROC 030400Z VRB02KT 9999 VCFG FEW001 SCT010 SCT100 19/19 A3004 RMK VIS SW 7000 DUE ST BECMG 5000 BR=
201007030500 METAR MROC 030500Z 00000KT 9999 VCFG FEW005 SCT110 19/19 A3005 BECMG=
201007030600 METAR MROC 030600Z 04003KT CAVOK 19/19 A3003 BECMG=
201007030700 METAR MROC 030700Z 10003KT CAVOK 18/18 A3002 BECMG=
201007030800 METAR MROC 030800Z 10004KT CAVOK 19/19 A3000 BECMG=
201007030900 METAR MROC 030900Z 08008KT CAVOK 18/18 A2998 BECMG=
201007031000 METAR MROC 031000Z 08006KT CAVOK 19/17 A2997 RMK SCT110 BECMG=
201007031100 METAR MROC 031100Z 12003KT CAVOK 18/17 A2998 RMK SCT110 BKN250 BECMG=
201007031200 METAR MROC 031200Z 09003KT CAVOK 18/17 A2999 RMK BKN250 BECMG=
201007031300 METAR MROC 031300Z 00000KT CAVOK 22/18 A3000 RMK BKN120 BECMG=
201007031400 METAR MROC 031400Z 20002KT CAVOK 23/19 A3003 RMK SCT120 BECMG=
201007031500 METAR MROC 031500Z 24006KT CAVOK 25/20 A3005 RMK SCT120 FEW250 BECMG=
201007031600 METAR MROC 031600Z 23007KT 9999 FEW035 BKN300 26/20 A3005 RMK FEW120 CB DST W BECMG=
201007031700 METAR MROC 031700Z 22006KT 9999 SCT035 SCT270 25/21 A3005 RMK TCU DST SE BECMG=
201007031800 METAR MROC 031800Z 23006KT 9999 SCT035 SCT250 27/22 A3002 BECMG=
201007031900 METAR MROC 031900Z 23008KT 9999 SCT035 BKN250 27/21 A3000 BECMG=
201007032000 METAR MROC 032000Z 22009KT 9999 SCT035 BKN250 27/22 A2998 RMK TCU DST N SE SSW BECMG=
201007032100 METAR MROC 032100Z 24010KT 9999 FEW035 BKN250 27/22 A2997 BECMG=
201007032200 METAR MROC 032200Z 23011KT 9999 VCSH SCT025 BKN250 25/23 A2998 RMK VIS 8000SW BECMG=
201007032300 METAR MROC 032300Z 23006KT 9999 -RA SCT020 BKN100 22/22 A3000 BECMG=
201007040000 METAR MROC 040000Z 27006KT 9999 BKN025 SCT100 22/22 A3001 BECMG=
201007040100 METAR MROC 040100Z 25003KT 9999 -RA FEW005 SCT015 BKN100 21/21 A3003 BECMG=
201007040200 METAR MROC 040200Z 28003KT 9999 FEW005 SCT010 BKN025 21/21 A3005 RERA BECMG=
201007040300 METAR MROC 040300Z 28002KT 9999 FEW005 SCT010 BKN025 21/21 A3006 BECMG=
201007040400 METAR MROC 040400Z 31002KT 9999 SCT015 BKN100 21/21 A3007 RMK TS DST N BECMG=
201007040500 METAR MROC 040500Z 31002KT 9999 SCT015 BKN100 21/21 A3008 RMK TS DST N BECMG=
201007040600 METAR MROC 040600Z 05005KT CAVOK 21/21 A3006 RMK BKN100 BECMG=
201007040700 METAR MROC 040700Z VRB02KT CAVOK 21/21 A3004 RMK TRACE ST BKN100 BECMG=
201007040800 METAR MROC 040800Z 00000KT 6000 VCFG FEW003 SCT015 BKN100 21/21 A3004 BECMG=
201007040900 METAR MROC 040900Z 00000KT 9999 FEW005 SCT015 BKN120 21/21 A3003 BECMG=
201007041000 METAR MROC 041000Z 00000KT 9999 FEW005 SCT015 BKN120 21/21 A3003 BECMG=
201007041100 METAR MROC 041100Z 00000KT 9999 SCT020 BKN120 21/21 A3005 BECMG=
201007041200 METAR MROC 041200Z 03003KT 9999 FEW020 SCT120 BKN250 21/21 A3006 BECMG=
201007041300 METAR MROC 041300Z 06003KT CAVOK 22/21 A3007 RMK SCT120 BKN250 BECMG 24006KT=
201007041400 METAR MROC 041400Z 00000KT 9999 FEW007 BKN250 24/21 A3007 RMK FEW120 BECMG 24006KT=
201007041500 METAR MROC 041500Z 24003KT 9999 FEW025 SCT120 BKN120 25/22 A3007 BECMG=
201007041600 METAR MROC 041600Z 26005KT 9999 SCT025 BKN250 26/21 A3008 BECMG=
201007041700 METAR MROC 041700Z 23008KT 9999 SCT025TCU BKN250 26/22 A3007 BECMG=
201007041800 METAR MROC 041800Z 23008KT 9999 FEW020TCU SCT025 SCT250 27/22 A3005 BECMG=
201007041900 METAR MROC 041900Z 24010KT 9999 SCT020TCU SCT025 25/23 A3005 BECMG 8000 VCSH=
201007042000 METAR MROC 042000Z 24010KT 9999 SCT015TCU SCT250 26/23 A3004 BECMG 7000 RA=
201007042100 METAR MROC 042100Z 22007KT 9999 3000SW -RA FEW015TCU SCT030 BKN120 22/22 A3003 BECMG 7000 -SHRA=
201007042200 METAR MROC 042200Z 23007KT 9999 3000SW BR FEW001 SCT030 BKN120 22/22 A3003 RERA RMK VIS N 4KMS DUE ST LOW=
201007042300 METAR MROC 042300Z 29006KT 9999 3000SW BR FEW001 SCT030 BKN120 22/22 A3006 BECMG 7000 -RA BCFG=
201007050000 METAR MROC 050000Z 29003KT 9999 FEW005 SCT030 BKN100 22/22 A3008 BECMG 7000 -RA BCFG=
201007050100 METAR MROC 050100Z 27002KT 9999 -DZ FEW030 OVC100 21/21 A3009 BECMG=
201007050200 METAR MROC 050200Z 00000KT CAVOK 21/21 A3011 REDZ RMK OVC100 BECMG=
201007050300 METAR MROC 050300Z 00000KT 9999 SCT030 BKN100 21/21 A3014 RMK LTNG DST E ESE BECMG=
201007050400 METAR MROC 050400Z 08004KT CAVOK 21/21 A3013 RMK BKN100 BECMG=
201007050500 METAR MROC 050500Z 12002KT CAVOK 21/21 A3009 RMK BKN100 BECMG=
201007050600 METAR MROC 050600Z 28003KT CAVOK 21/21 A3008 RMK BKN100 NIEBLA DELGADA AL SUR BECMG=
201007050700 METAR MROC 050700Z 00000KT CAVOK 20/20 A3006 RMK BKN120 BECMG=
201007050800 METAR MROC 050800Z 00000KT CAVOK 20/20 A3005 RMK BKN120 HZY=
201007050900 METAR MROC 050900Z 06004KT CAVOK 20/20 A3004 RMK BKN120=
201007051000 METAR MROC 051000Z 11003KT CAVOK 20/20 A3004 RMK BKN120=
201007051100 METAR MROC 051100Z 08006KT CAVOK 20/20 A3002 RMK BKN120 BECMG=
201007051200 METAR MROC 051200Z 07003KT CAVOK 20/20 A3002 RMK BKN120 SCT250=
201007051300 METAR MROC 051300Z 00000KT CAVOK 22/20 A3006 RMK SCT120 BKN250 BECMG 22006KT=
201007051400 METAR MROC 051400Z 08003KT CAVOK 24/20 A3006 RMK SCT120 BKN250 BECMG 22006KT=
201007051500 METAR MROC 051500Z VRB02KT CAVOK 25/20 A3007 RMK SCT120 BKN250 BECMG 22006KT=
201007051600 METAR MROC 051600Z 18003KT 9999 FEW040 SCT120 BKN250 26/21 A3006 BECMG=
201007051700 METAR MROC 051700Z 23007KT 9999 FEW040 SCT120 BKN250 26/22 A3006 BECMG=
201007051800 METAR MROC 051800Z 24006KT 9999 FEW040 SCT120 BKN250 26/22 A3004 RMK RA E=
201007051900 METAR MROC 051900Z 22008KT 9999 SCT030 BKN120 25/23 A3002 RMK FEW250 BECMG=
201007052000 METAR MROC 052000Z 24009KT 9999 SCT030 BKN120 25/23 A3000 BECMG=
201007052100 METAR MROC 052100Z 24007KT 9999 -RA SCT030 BKN120 23/22 A2999 RMK BECMG 5000 -RA BR=
201007052200 METAR MROC 052200Z 25004KT 9999 SCT030 BKN120 23/23 A2999 RMK RERA BECMG 8000 -RA VCFG=
201007052300 METAR MROC 052300Z 23005KT 9999 VCFG FEW005 SCT025 BKN120 23/23 A3000 RMK BECMG 5000 -RA BR=
201007060000 METAR MROC 060000Z 23005KT 5000 BR FEW002 SCT008 BKN015 22/22 A3002 RMK BECMG 2000 BR SCT001 BKN010=
201007060100 METAR MROC 060100Z 18002KT 8000 VCFG FEW002 SCT010 SCT120 22/22 A3005 RMK BECMG 5000 BR=
201007060200 METAR MROC 060200Z 00000KT 9999 FEW015 SCT120 22/21 A3006 BECMG=
201007060300 METAR MROC 060300Z 27005KT 9999 FEW015 SCT120 21/21 A3007 BECMG=
201007060400 METAR MROC 060400Z 29003KT 9999 FEW025 SCT120 21/20 A3009 RMK LTNG DST SW W BECMG=
201007060500 METAR MROC NIL=
201007060600 METAR MROC 060600Z 30004KT CAVOK 21/20 A3007 RMK SCT120 LTNG DST SW BECMG=
201007060700 METAR MROC 060700Z 00000KT CAVOK 20/20 A3006 RMK SCT120 LTNG DST SW BECMG=
201007060800 METAR MROC 060800Z 09002KT CAVOK 20/20 A3004 RMK FEW120=
201007060900 METAR MROC 060900Z 09004KT CAVOK 20/20 A3001 RMK SCT250=
201007061000 METAR MROC 061000Z 07006KT CAVOK 20/20 A2999 RMK SCT250=
201007061100 METAR MROC 061100Z 09006KT CAVOK 20/19 A2998 RMK FEW120 SCT250=
201007061200 METAR MROC 061200Z 05005KT CAVOK 20/19 A2999 RMK FEW120 SCT250=
201007061300 METAR MROC 061300Z 20003KT CAVOK 21/20 A3002 RMK SCT120 BKN250 BECMG 24006KT=
201007061400 METAR MROC 061400Z 27006KT CAVOK 23/21 A3005 RMK CB DST SW FEW120 BKN250 BECMG=
201007061500 METAR MROC 061500Z 22003KT 9999 FEW030 BKN250 25/20 A3004 BECMG=
201007061600 METAR MROC 061600Z 25008KT 9999 SCT030 BKN250 26/21 A3004 BECMG=
201007061700 METAR MROC 061700Z 22010KT 9999 SCT025 SCT250 25/22 A3005 RMK RA DST E BECMG=
201007061800 METAR MROC 061800Z 23007KT 9999 FEW015TCU SCT025 SCT130 26/22 A3002 RMK RA DST E BECMG 8000 -RA=
201007061900 METAR MROC 061900Z 21007KT 9999 FEW015 SCT025 SCT120 26/22 A3000 BECMG=
201007062000 METAR MROC 062000Z 23007KT 9999 FEW015TCU SCT030 26/23 A2997 RMK SCT120 RA DST N NW E SE BECMG 8000 RA=
201007062100 METAR MROC 062100Z 25005KT 9999 RA SCT010CB SCT020 22/22 A2996 RMK VIS 5KM NW BECMG 3000 RA=
201007062200 METAR MROC 062200Z 25006KT 7000 -DZ FEW010 SCT020 OVC100 21/21 A2996 RMK VIS UNL S 4KM N BECMG=
201007062300 METAR MROC 062300Z 26006KT 2000 RABR SCT002 BKN015 21/21 A2998 BECMG=
201007070000 METAR MROC 070000Z 20005KT 3000 RABR FEW005 SCT015 OVC100 21/21 A3001 BECMG=
201007070100 METAR MROC 070100Z 26003KT 5000 -RABR FEW004 SCT015 OVC100 20/20 A3003 BECMG=
201007070200 METAR MROC 070200Z 00000KT 3000 RABR FEW004 SCT015 OVC100 20/20 A3005 BECMG=
201007070300 METAR MROC 070300Z 02002KT 5000 RA SCT020 OVC100 20/20 A3006 BECMG=
201007070400 METAR MROC 070400Z 00000KT 9999 SCT020 OVC100 20/20 A3006 BECMG=
201007070500 METAR MROC 070500Z 00000KT 9999 SCT030 BKN100 20/20 A3007 BECMG=
201007070600 METAR MROC 070600Z 00000KT 9999 SCT020 BKN100 20/20 A3006 BECMG=
201007070700 METAR MROC 070700Z 32002KT 9999 SCT020 BKN100 20/20 A3003 BECMG=
201007070800 METAR MROC 070800Z 00000KT 7000 VCFG FEW002 SCT020 BKN100 20/20 A3002 BECMG=
201007070900 METAR MROC 070900Z 07004KT 5000 2000W BR FEW992 SCT020 BKN100 20/20 A3000 BECMG=
201007071000 METAR MROC 071000Z 03002KT 9999 4000W BR FEW002 SCT020 BKN100 19/19 A3000 BECMG=
201007071100 METAR MROC 071100Z 00000KT 9999 FEW003 SCT020 BKN100 20/20 A3001 BECMG=
201007071200 METAR MROC 071200Z 00000KT 9999 SCT020 SCT130 20/20 A3002 RMK TRACE ST BECMG=
201007071300 METAR MROC 071300Z 13002KT 9999 FEW020 SCT130 BKN250 21/21 A3003 BECMG 24006 KT=
201007071400 METAR MROC 071400Z 00000KT 9999 FEW020 SCT130 BKN250 23/21 A3003 BECMG 24006 KT=
201007071500 METAR MROC 071500Z 25005KT 9999 SCT020 SCT250 24/21 A3004 RMK FEW120 BECMG=
201007071600 METAR MROC 071600Z 21003KT 9999 SCT020 SCT 250 25/20 A3005 BECMG=
201007071700 METAR MROC 071700Z 22009KT 9999 FEW010CB BKN030 24/21 A3004 RMK RA DST E BECMG=
201007071800 METAR MROC 071800Z 23011KT 9999 4000W -DZBR FEW008 SCT015 BKN030 23/22 A3004 RMK BECMG 7000 -SHRA=
201007071900 METAR MROC 071900Z 26003KT 9999 4000 SW BR FEW008 SCT015 BKN030 22/22 A3002 BECMG 3000 -SHRA=
201007072000 METAR MROC 072000Z 26007KT 9999 SCT025 BKN100 25/21 A3000 BECMG 3000 -SHRA=
201007072100 METAR MROC 072100Z 23004KT 9999 FEW017CB SCT025 25/21 A2998 RMK RA DST S SE BECMG 8000 -RA=
201007072200 METAR MROC 072200Z 25008KT 9999 VCSH FEW008 SCT015CB BKN120 23/22 A2998 RMK 8000 SW=
201007072300 METAR MROC 072300Z 24005KT 3000 DZ BR SCT005 BKN010 20/20 A3001 RMK VIS SE 5KM BECMG 1000 BR=
201007080000 METAR MROC 080000Z 29004KT 7000 -RA VCFG FEW005 SCT010 BKN100 20/20 A3002 RMK VIS W QUAD UNLTD BECMG=
201007080100 METAR MROC 080100Z 29003KT 9999 -DZ FEW010 SCT025 BKN100 20/20 A3003 BECMG=
201007080200 METAR MROC 080200Z 27003KT 9999 -DZ VCFG FEW006 SCT025 BKN100 20/20 A3004 RMK VIS S SSW 8KMS BECMG 5000 -DZ BR=
201007080300 METAR MROC 080300Z 28002KT 9999 4000SW RA BR SCT003 BKN010 20/20 A3005 BECMG=
201007080400 METAR MROC 080400Z 29003KT 7000 3000SW DZ BR SCT002 BKN008 20/20 A3006 BECMG=
201007080500 METAR MROC 080500Z 35002KT 9999 -DZ BR BKN008 SCT100 20/20 A3006 VIS 5000 SW BECMG=
201007080600 METAR MROC 080600Z 00000KT 9999 VCFG SCT008 BKN100 20/20 A3005 RMK VIS 8000SW BECMG=
201007080700 METAR MROC 080700Z 00000KT 9999 BR FEW003 SCT008 SCT100 20/20 A3004 RMK VIS 5000SSW 8000SW BECMG=
201007080800 METAR MROC 080800Z 26003KT 0800 FG SCT001 BKN004 20/20 A3001=
201007080900 METAR MROC 080900Z 00000KT 3000 -RA BR FEW002 SCT005 BKN012 19/19 A3001=
201007081000 METAR MROC 081000Z 00000KT 5000 2000S BR SCT002 BKN008 19/19 A3001=
201007081100 METAR MROC 081100Z 00000KT 9999 BR SCT005 SCT100 19/19 A3001 RMK VIS 5000 NE S=
201007081200 METAR MROC 081200Z 06004KT 9999 BR FEW003 BKN100 20/20 A3002 RMK VIS 5000 N LOW ST SSW SE=
201007081300 METAR MROC 081300Z 01002KT 9999 4000S BR BKN120 21/21 A3004 FOG BANK S SSW BECMG 24006KT=
201007081400 METAR MROC 081400Z 23004KT 9999 2500SW BR SCT001 BKN120 21/21 A3005 RMK FG BANK IN APCH RNY 07 BECMG 4000 BR=
201007081500 METAR MROC 081500Z 23002KT 9999 FEW005 SCT120 BKN250 22/21 A3006 RMK HZY BECMG=
201007081600 METAR MROC 081600Z 23004KT 9999 FEW020 SCT140 BKN250 24/21 A3007 HZY BECMG=
201007081700 METAR MROC 081700Z 22006KT 9999 FEW020 SCT140 BKN250 24/21 A3006 RMK HZY BECMG=
201007081800 METAR MROC 081800Z 24006KT 9999 FEW020 SCT140 BKN250 25/21 A3003 RMK TCU DST NE E SE BECMG=
201007081900 METAR MROC 081900Z 23007KT 9999 FEW030 SCT120 26/22 A3001 RMK RA DST SE BECMG=
201007082000 METAR MROC 082000Z 22009KT 9999 FEW030 SCT120 25/22 A2999 RMK RA DST SE BECMG=
201007082100 METAR MROC 082100Z 24007KT 9999 SCT030 SCT250 25/22 A2997 BECMG=
201007082200 METAR MROC 082200Z 24007KT 9999 SCT025 SCT090 23/22 A2996 RMK FEW250 BECMG=
201007082300 METAR MROC 082300Z 23003KT 9999 SCT015 BKN090 22/22 A2997 RMK VIS 8KM N NE DUE SHRA BECMG -RA=
201007090000 METAR MROC 090000Z 00000KT 9999 4000N BR FEW005 SCT012 BKN090 21/21 A2999 BECMG -RA=
201007090100 METAR MROC 090100Z 00000KT 9999 SCT035 BKN100 21/21 A3002 BECMG=
201007090200 METAR MROC 090200Z 00000KT 9999 -DZ SCT030 BKN100 22/21 A3002 BECMG=
201007090300 METAR MROC 090300Z 06005KT 9999 FEW030 SCT120 22/21 A3001 BECMG=
201007090400 METAR MROC 090400Z 26004KT 9999 SCT030 SCT120 21/21 A3003 BECMG=
201007090500 METAR MROC 090500Z 07006KT 9999 SCT030 SCT120 21/20 A3002 BECMG=
201007090600 METAR MROC 090600Z 09003KT CAVOK 21/20 A3001 RMK SCT250 BECMG=
201007090700 METAR MROC 090700Z 00000KT CAVOK 21/20 A2999 RMK SCT250 BECMG=
201007090800 METAR MROC NIL=
201007090900 METAR MROC 090900Z 09003KT CAVOK 19/19 A2998 RMK SCT250 BECMG=
201007091000 METAR MROC 091000Z 08004KT CAVOK 20/19 A2998 RMK SCT250 BECMG=
201007091100 METAR MROC 091100Z 05005KT CAVOK 19/18 A3000 RMK FEW100 BECMG=
201007091200 METAR MROC 091200Z 09003KT CAVOK 20/18 A3001 RMK TRACE SC SCT250 BECMG=
201007091300 METAR MROC 091300Z 11003KT CAVOK 22/19 A3002 RMK SCT250 BECMG=
201007091400 METAR MROC 091400Z 13004KT CAVOK 24/19 A3004 RMK SCT250 BECMG=
201007091500 METAR MROC 091500Z 13007KT CAVOK 27/19 A3002 RMK BKN250 BECMG 22005KT=
201007091600 METAR MROC 091600Z 14007KT 9999 FEW040 SCT250 28/20 A3002 BECMG 24006KT=
201007091700 METAR MROC 091700Z 14007KT 9999 FEW035 BKN250 28/18 A3000 BECMG 24006KT=
201007091800 METAR MROC 091800Z 24007KT 9999 FEW020TCU BKN035 27/22 A2999 BECMG=
201007091900 METAR MROC 091900Z 22009KT 9999 FEW020TCU SCT040 26/23 A2997 BECMG=
201007092000 METAR MROC 092000Z 25008KT 9999 VCSH FEW020TCU BKN035 27/23 A2995 BECMG 7000 RA=
201007092100 METAR MROC 092100Z 24011KT 7000 2000 SW -RA FEW001 SCT010 BKN030 24/24 A2994 BECMG 4000 TSRA=
201007092200 METAR MROC 092200Z 24005KT 4000 BR FEW001 SCT008 BKN030 23/23 A2993 RERA BECMG 2000 BR=
201007092300 METAR MROC 092300Z 23003KT 7000 3000 SW FEW001 SCT008 BKN030 22/22 A2995 BECMG=
201007100000 METAR MROC 100000Z 00000KT 7000 3000SW BR FEW001 SCT008 BKN030 22/22 A2996 BECMG=
201007100100 METAR MROC 100100Z 00000KT 7000 3000SW BR FEW001 SCT010 BKN030 22/22 A2998 MRK BECMG 2000 BR BKN005=
201007100200 METAR MROC 100200Z 00000KT 4000 BR FEW001 BKN010 22/22 A2999 RMK BECMG 0500 FG=
201007100300 METAR MROC 100300Z 01004KT 9999 VCFG FEW002 BKN120 22/22 A3000 BECMG=
201007100400 METAR MROC 100400Z 03005KT 9999 -RA FEW080 BKN120 22/21 A3001 BECMG=
201007100500 METAR MROC 100500Z 13006KT CAVOK 22/20 A3002 RERA RMK BKN120 BECMG=
201007100600 METAR MROC 100600Z 09003KT CAVOK 21/20 A3000 RMK FEW080 SCT120 BECMG=
201007100700 METAR MROC 100700Z 09004KT CAVOK 21/21 A2997 RMK BKN120 BECMG=
201007100800 METAR MROC 100800Z 05003KT CAVOK 21/20 A2997 BKN120=
201007100900 METAR MROC 100900Z 05002KT CAVOK 21/19 A2996 RMK BKN120=
201007101000 METAR MROC 101000Z 12003KT CAVOK 21/19 A2995 RMK BKN120=
201007101100 METAR MROC 101100Z 14003KT CAVOK 20/19 A2996 RMK BKN120=
201007101200 METAR MROC 101200Z 00000KT CAVOK 20/20 A2998 RMK BKN120=
201007101300 METAR MROC 101300Z 00000KT CAVOK 21/20 A3000 RMK SCT220 BKN120 BECMG=
201007101400 METAR MROC 101400Z 00000KT CAVOK 22/21 A3001 RMK SCT120 BKN250 BECMG 24007KT=
201007101500 METAR MROC 101500Z 19003KT CAVOK 25/20 A3002 RMK BKN220 SCT120 BECMG 24007KT=
201007101600 METAR MROC 101600Z 24002KT 9999 FEW040 SCT120 BKN250 27/20 A3001 BECMG=
201007101700 METAR MROC 101700Z 27006KT 9999 FEW040 SCT120 BKN250 27/21 A3001 BECMG=
201007101800 METAR MROC 101800Z 23009KT 9999 SCT040 BKN120 28/23 A3000 BECMG=
201007101900 METAR MROC 101900Z 23007KT 9999 5000E -RA SCT030 BKN100 25/23 A2998 BECMG 5000 RA=
201007102000 METAR MROC 102000Z 19002KT 9999 FEW010 SCT030 BKN100 23/23 A2997 RERA RMK RA NE E BECMG=
201007102100 METAR MROC 102100Z 23007KT 8000 4000E -RA BR FEW006 SCT025 BKN100 23/23 A2998 BECMG 3000 RA=
201007102115 METAR MROC 102115Z 20006KT 3000 1000W -TSRA BR FEW002 SCT010CB BKN025 21/21 A3000 BECMG=
201007102200 METAR MROC 102200Z 25005KT 6000 2000W -TSRA BR FEW003 SCT010CB BKN025 19/19 A3001 BECMG 8000 -RA BR=
201007102300 METAR MROC 102300Z 09003KT 7000 -RA VCFG FEW002 SCT020 OVC100 19/19 A3001 BECMG 5000 BR=
201007102352 METAR MROC 110000Z 12003KT 9999 4000NW -RA FEW005 OVC100 20/20 A3001 BECMG=
201007110000 METAR MROC 110000Z 12003KT 9999 4000NW -RA FEW005 OVC100 20/20 A3001 BECMG=
201007110100 METAR MROC 110100Z 08003KT CAVOK 20/20 A3001 RMK OVC120 BECMG=
201007110200 METAR MROC 110200Z 06003KT CAVOK 20/20 A3001 BECMG=
201007110300 METAR MROC 110300Z 09004KT CAVOK 20/20 A3000 RMK OVC120 LOW ST SSW BECMG=
201007110400 METAR MROC 110400Z 00000KT CAVOK 20/20 A3001 RMK OVC120 LOW ST S LTNG DST S BECMG=
201007110500 METAR MROC 110500Z 17003KT CAVOK 19/19 A3001 RMK OVC120 LOW ST SE E BECMG=
201007110600 METAR MROC 110600Z 24002KT 9999 SCT020 BKN120 19/19 A3003 BECMG=
201007110700 METAR MROC 110700Z 29003KT 9999 FEW040 BKN120 20/20 A3001 BECMG=
201007110800 METAR MROC 110800Z 31004KT 9999 FEW040 BKN120 20/20 A2999=
201007110900 METAR MROC 110900Z 13003KT CAVOK 19/19 A2998 RMK BKN120=
201007111000 METAR MROC 111000Z 07004KT CAVOK 19/19 A2997 RMK SCT120=
201007111100 METAR MROC 111100Z 07003KT CAVOK 18/18 A2997 RMK SCT120 SCT250=
201007111200 METAR MROC 111200Z 11005KT CAVOK 19/19 A3000 RMK FEW120 BKN250 LINEA CB DST SSW=
201007111300 METAR MROC 111300Z 07004KT CAVOK 20/19 A3002 RMK FEW120 BKN250 LINEA CB DST S/SW BECMG=
201007111400 METAR MROC 111400Z 13002KT CAVOK 22/20 A3002 RMK BKN250 BECMG=
201007111500 METAR MROC 111500Z 22002KT CAVOK 23/20 A3005 RMK BKN250 BECMG=
201007111600 METAR MROC 111600Z 24004KT CAVOK 25/19 A3005 RMK BKN250 BECMG=
201007111700 METAR MROC 111700Z 23006KT 9999 FEW030 BKN250 26/20 A3002=
201007111800 METAR MROC 111800Z 22008KT 9999 FEW030 BKN250 26/22 A3001 BECMG=
201007111900 METAR MROC 111900Z 23008KT 9999 FEW020TCU BKN120 26/22 A3000 RMK BECMG 6000 RA=
201007112000 METAR MROC 112000Z 24010KT 9999 FEW020CB SCT035 26/23 A2996 RMK BECMG 5000 -TSRA=
201007112100 METAR MROC 112100Z 24012KT 9999 FEW010 SCT020TCU BKN100 24/23 A2995 BECMG 8000 -RA=
201007112200 METAR MROC 112200Z 20008KT 5000 -TSRA BR FEW003 SCT010CB OVC100 21/21 A2996 BECMG=
201007112300 METAR MROC 112300Z 34006KT 3000 -TSRABR FEW003 SCT010CB OVC100 21/21 A2999 BECMG=
201007120000 METAR MROC 120000Z 00000KT 5000 RABR FEW003 SCT015 OVC100 20/20 A3001 RMK BECMG 8000=
201007120100 METAR MROC 120100Z 33003KT 9999 RA BR FEW005 SCT015 OVC100 21/21 A3003 BECMG=
201007120200 METAR MROC 120200Z 31006KT 9999 FEW010 SCT025 BKN100 21/21 A3004 BECMG RERA=
201007120300 METAR MROC 120300Z 27003KT 9999 FEW025 BKN100 21/21 A3007 BECMG=
201007120400 METAR MROC 120400Z 00000KT 9999 FEW025 BKN100 21/21 A3007 BECMG=
201007120500 METAR MROC 120500Z 26004KT 2000 BR FEW001 SCT005 BKN100 20/20 A3008 BECMG=
201007120600 METAR MROC 120600Z 00000KT 3000 DZ BR FEW001 SCT005 OVC100 20/20 A3006 BECMG=
201007120700 METAR MROC 120700Z 30004KT 7000 FEW005 OVC100 20/20 A3004 REDZ RMK BCFG ARND BECMG=
201007120800 METAR MROC 120800Z 31004KT 9999 FEW005 OVC100 20/20 A3004 RMK BCFG ARND BECMG=
201007120900 METAR MROC 120900Z 32006KT 9999 FEW020 OVC100 20/20 A3003 BECMG=
201007121000 METAR MROC 121000Z 14004KT 9999 FEW020 OVC100 19/19 A3001 BECMG=
201007121100 METAR MROC 121100Z 11003KT CAVOK 19/19 A3000 RMK BKN100 BECMG=
201007121200 METAR MROC 121200Z 09005KT CAVOK 20/19 A2999 RMK BKN100 BECMG=
201007121300 METAR MROC 121300Z 09007KT CAVOK 21/19 A3000 RMK SCT120 OVC230 BECMG=
201007121400 METAR MROC 121400Z 25005KT CAVOK 22/21 A3001 RMK FEW120 BKN240 BECMG=
201007121500 METAR MROC 121500Z 24006KT 9999 FEW020 BKN250 23/210 A3004 RMK FEW120 BECMG=
201007121600 METAR MROC 121600Z 24005KT 9999 FEW015 SCT120 BKN250 24/20 A3005 BECMG=
201007121700 METAR MROC 121700Z 24007KT 9999 FEW018 BKN120 BKN250 24/21 A3004 RA DST SE E BECMG=
201007121800 METAR MROC 121800Z 25005KT 9999 SCT030 OVC120 25/20 A3003 BECMG 6000 RA=
201007121900 METAR MROC 121900Z 27004KT 9999 FEW015 SCT025 OVC120 23/19 A3002 BECMG 5000 RA=
201007122000 METAR MROC 122000Z 03002KT 9999 4000 N RA FEW018 SCT030 OVC120 23/19 A3000 BECMG 7000 -RA=
201007122100 METAR MROC 122100Z 00000KT 9999 +DZ FEW010CB SCT030 OVC120 23/20 A2998 BECMG=
201007122200 METAR MROC 122200Z 23006KT 9999 DZ SCT008 BKN120 22/22 A2999 BECMG=
201007122300 METAR MROC 122300Z 00000KT 9999 FEW008 BKN120 22/22 A3000 RMK FEW005 LOW SC TO S SW BECMG=
201007130000 METAR MROC 130000Z 00000KT 9999 FEW007 SCT100 BKN130 21/21 A3001 RMK LGT HZ ARND BECMG=
201007130100 METAR MROC 130100Z 26003KT 9999 FEW004 SCT015 BKN130 21/21 A3003 RMK VIS NW N 6KMS DUE LOW ST BECMG=
201007130200 METAR MROC 130200Z 00000KT 9999 -DZ FEW020 BKN130 21/21 A3004 BECMG=
201007130300 METAR MROC 130300Z 01002KT 9999 FEW020 BKN120 21/21 A3004 REDZ BECMG=
201007130400 METAR MROC 130400Z 00000KT 9999 FEW035 BKN120 20/20 A3004 BECMG=
201007130500 METAR MROC 130500Z 00000KT 9999 FEW035 BKN120 20/20 A3003 BECMG=
201007130600 METAR MROC 130600Z 09004KT CAVOK 20/20 A3001 RMK BKN120 BECMG=
201007130700 METAR MROC 130700Z 07005KT CAVOK 21/19 A3000 RMK BKN120 BECMG=
201007130800 METAR MROC 130800Z 12006KT CAVOK 21/19 A2999 RMK BKN120 BECMG=
201007130900 METAR MROC 130900Z 13007KT CAVOK 22/18 A2998 RMK BKN120 BECMG=
201007131000 METAR MROC 131000Z 13007KT CAVOK 22/18 A2998 RMK BKN120 BECMG=
201007131100 METAR MROC 131100Z 12006KT CAVOK 22/18 A2998 RMK BKN120 BECMG=
201007131200 METAR MROC 131200Z 14007KT CAVOK 22/18 A3000 RMK BKN120 BECMG=
201007131300 METAR MROC 131300Z 13006KT CAVOK 22/18 A3001 RMK BKN120 BANCO DE NIEBLA AL SW BECMG=
201007131400 METAR MROC 131400Z 15006KT 9999 FEW030 BKN120 23/19 A3002 BECMG 24006KT=
201007131500 METAR MROC 131500Z 24005KT 9999 SCT030 BKN120 23/21 A3005 BECMG=
201007131600 METAR MROC 131600Z 26006KT 9999 FEW025 BKN120 23/21 A3005 BECMG=
201007131700 METAR MROC 131700Z 28004KT 9999 FEW030 BKN120 25/21 A3003 BECMG=
201007131800 METAR MROC 131800Z 23008KT 9999 FEW020CB SCT030 BKN120 25/22 A3002 RMK RA DST NE BECMG 7000 VCSH=
201007131900 METAR MROC 131900Z 24010KT 9999 FEW020TCU BKN040 24/22 A3000 BECMG 5000 RA=
201007132000 METAR MROC 132000Z 23007KT 1000 RA BR SCT001 BKN020 22/22 A2998 RMK VIS N UNL BECMG=
201007132100 METAR MROC 132100Z 22003KT 3000 RA BR SCT001 BKN015 21/21 A2997 BECMG=
201007132135 METAR MROC 132135Z 21003KT 9999 4000W RA SCT005 BKN100 25/25 A2980 RMK TS DST W RASH=
201007132200 METAR MROC 132200Z 21002KT 5000 -RA BR FEW002 SCT025 BKN080 21/21 A2996 BECMG 2000 -RA BR=
201007132300 METAR MROC 132300Z 26005KT 9999 -RA BR FEW002 SCT030 BKN090 21/21 A2998 RMK VIS 5000 SW BECMG=
201007140000 METAR MROC 140000Z 26002KT 4000 -DZ BR FEW002 BKN008 20/20 A3000 BECMG 2000 -RA BR=
201007140100 METAR MROC 140100Z 21003KT 5000 1200SW BR FEW002 BKN010 20/20 A3001 RMK BECMG 0500 FG=
201007140200 METAR MROC 140200Z 20003KT 0500 FG FEW002 BKN005 20/20 A3002 RMK BECMG 2000 BR=
201007140300 METAR MROC 140300Z 00000KT 0200 FG VV/// 20/20 A3004 BECMG=
201007140400 METAR MROC 140400Z 00000KT 1200 FG SCT002 SCT005 BKN100 20/20 A3006 BECMG=
201007140500 METAR MROC 140500Z 05003KT 9999 SCT0010 BKN100 20/20 A3005 BECMG=
201007140600 METAR MROC 140600Z 00000KT 5000 BR FEW003 SCT120 19/19 A3003 BECMG=
201007140700 METAR MROC NIL=
201007140800 METAR MROC NIL=
201007140900 METAR MROC 140900Z 07003KT CAVOK 20/19 A2998 RMK SCT250 BECMG=
201007141000 METAR MROC 141000Z 05003KT CAVOK 20/18 A2998 RMK SCT250 BECMG=
201007141100 METAR MROC 141100Z 05003KT CAVOK 20/19 A3000 RMK SCCT250 BECMG=
201007141200 METAR MROC 141200Z 10009KT 9999 SCT020 BKN240 21/19 A3000 RMK RA DST NE N BECMG=
201007141300 METAR MROC 141300Z 12010KT 9999 SCT035 BKN250 21/18 A3001 RMK RN DST NE E BECMG=
201007141400 METAR MROC 141400Z 12011KT 9999 SCT030 BKN250 22/19 A3004 RMK RA DST NE E=
201007141500 METAR MROC 141500Z 10013KT 9999 SCT040 BKN250 24/17 A3004 RMK DZ DST NE BECMG=
201007141600 METAR MROC 141600Z 09015KT CAVOK 25/16 A3004 RMK SCT120 BKN250 BECMG=
201007141700 METAR MROC 141700Z 14011KT CAVOK 26/18 A3002 RMK SCT120 BKN250 BECMG=
201007141800 METAR MROC 141800Z 14009KT CAVOK 26/17 A3000 RMK SCT120 BKN250 RA DST SE E BECMG=
201007141900 METAR MROC 141900Z 15010KT CAVOK 26/17 A2999 RMK SCT120 BKN250 BECMG 23005KT=
201007142000 METAR MROC 142000Z 14007KT CAVOK 26/17 A2998 RMK FEW120 BKN250 BECMG=
201007142100 METAR MROC 142100Z 17004KT 9999 FEW040 SCT120 BKN250 26/17 A2998 BECMG=
201007142200 METAR MROC 142200Z 24006KT 9999 FEW040 SCT120 BKN250 24/22 A2999 BECMG=
201007142300 METAR MROC 142300Z 23005KT 9999 FEW030 SCT120 BKN250 23/22 A3000 BECMG=
201007150000 METAR MROC 150000Z 00000KT 9999 4000N BR FEW002 BKN120 22/20 A3003 RERA BECMG=
201007150100 METAR MROC 150100Z 10004KT CAVOK 21/19 A3003 RMK BKN120 BECMG=
201007150200 METAR MROC 150200Z 00000KT 9999 VCFG FEW001 BKN120 21/18 A3003 BECMG=
201007150300 METAR MROC 150300Z 25004KT 9999 4000SW FEW001 BKN120 21/21 A3006 BECMG=
201007150400 METAR MROC 150400Z 00000KT CAVOK 21/21 A3008 RMK SCT100 SCT250 BECMG=
201007150500 METAR MROC 150500Z 00000KT CAVOK 20/20 A3006 RMK SCT120 SCT250 BECMG=
201007150600 METAR MROC 150600Z 14003KT CAVOK 19/19 A3006 RMK SCT120 SCT250 BECMG=
201007150700 METAR MROC 150700Z 06005KT CAVOK 19/18 A3004 RMK SCT120 SCT250 BECMG=
201007150800 METAR MROC 150800Z 10008KT CAVOK 19/18 A3002 RMK SCT120 SCT250=
201007150900 METAR MROC 150900Z 08005KT CAVOK 19/18 A3000 RMK SCT120 SCT250=
201007151000 METAR MROC 151000Z 07005KT CAVOK 19/18 A2998 RMK SCT120 SCT250=
201007151100 METAR MROC 151100Z 09002KT CAVOK 18/18 A2999 RMK SCT120 SCT250=
201007151200 METAR MROC 151200Z 04005KT 9999 FEW035 SCT120 BKN250 18/17 A3001 RMK PCPN DST NE=
201007151300 METAR MROC 151300Z 08005KT 9999 FEW035 SCT120 BKN250 20/18 A3000 BECMG=
201007151400 METAR MROC 151400Z 15003KT 9999 FEW035 SCT120 BKN250 22/18 A3003 BECMG=
201007151500 METAR MROC 151500Z 13006KT 9999 FEW030 BKN120 22/19 A3005 RMK RA NE E SE S BECMG=
201007151600 METAR MROC 151600Z 06004KT 9999 FEW030 OVC120 22/20 A3005 RERA RMK RA NE E SW BECMG=
201007151700 METAR MROC 151700Z 11005KT 9999 SCT030 OVC100 22/20 A3004 RMK RA ARND=
201007151800 METAR MROC 151800Z 12007KT 090V150 9999 -DZ SCT030 OVC100 22/20 A3002 BECMG=
201007151900 METAR MROC 151900Z 11008KT 9999 SCT030 BKN100 26/19 A3000 BECMG=
201007152000 METAR MROC 152000Z 14006KT 9999 FEW030 SCT100 BKN250 24/19 A2998 BECMG=
201007152100 METAR MROC 152100Z 14006KT 9999 FEW030 SCT100 BKN250 24/19 A2998 RMK BECMG 24006KT=
201007152200 METAR MROC 152200Z 00000KT 9999 FEW030 SCT120 BKN250 23/15 A2999 BECMG=
201007152300 METAR MROC 152300Z 26006KT 9999 FEW030 BKN250 22/21 A3000 BECMG=
201007160000 METAR MROC NIL=
201007160100 METAR MROC 160100Z 26003KT 9999 FEW005 SCT015 BKN100 21/21 A3005 BECMG=
201007160200 METAR MROC 160200Z 00000KT 9999 FEW005 SCT025 BKN100 21/21 A3006 BECMG=
201007160300 METAR MROC 160300Z 00000KT 9999 FEW005 SCT120 21/21 A3006 BECMG=
201007160400 METAR MROC 160400Z 00000KT 9999 FEW030 BKN120 20/20 A3006 BECMG=
201007160500 METAR MROC 160500Z 00000KT 9999 BKN120 20/20 A3006 BECMG=
201007160600 METAR MROC 160600Z 00000KT 9999 BKN120 20/20 A3004 BECMG=
201007160700 METAR MROC 160700Z 00000KT 2000 BR R07/0200 SCT002 BKN005 20/20 A3003 BECMG=
201007160800 METAR MROC 160800Z 00000KT 0500 FG R07/0300 SCT002 BKN004 20/20 A3002=
201007160900 METAR MROC 160900Z 00000KT 0800 FG SCT002 BKN004 20/20 A3001=
201007161000 METAR MROC 161000Z 00000KT 2000 BR RO7/1000 FEW001 SCT004 BKN008 20/20 A3001 RMK VIS 7000 N E=
201007161100 METAR MROC 161100Z 00000KT 8000 3000SW BR FEW001 SCT005 BKN010 20/20 A3002=
201007161200 METAR MROC 161200Z 00000KT 4000 BR SCT001 BKN010 20/20 A3003 RMK VIS 6000 E DZ DST N NE=
201007161300 METAR MROC 161300Z 00000KT 4000 BR BKN010 20/20 A3007 RMK DZ DST N NE BECMG=
201007161400 METAR MROC 161400Z 31002KT 6000 VCFG SCT004 BKN015 21/21 A3007 BECMG=
201007161500 METAR MROC 161500Z 24004KT 7000 VCFG SCT004 BKN015 22/21 A3008 BECMG=
201007161600 METAR MROC 161600Z 21006KT 8000 VCFG SCT004 BKN015 22/21 A3008 BECMG=
201007161700 METAR MROC 161700Z 23003KT 8000 VCFG FEW004 SCT015 OVC100 22/21 A3008 RMK DZ DST N NE E BECMG=
201007161800 METAR MROC 161800Z 25008KT 8000 VCFG SCT005 BKN020 22/21 A3007 RMK DZ DST N NE E BECMG=
201007161900 METAR MROC 161900Z 23009KT 5000 RABR SCT003 BKN015 20/20 A3006 BECMG=
201007162000 METAR MROC 162000Z 26006KT 5000 -RABR SCT004 BKN015 20/20 A3004 BECMG=
201007162100 METAR MROC 162100Z 23002KT 7000 FEW005 SCT015 OVC100 21/21 A3003 RERA BECMG=
201007162200 METAR MROC 162200Z 23004KT 8000 VCFG FEW005 SCT015 OVC100 22/21 A3002 BECMG=
201007162300 METAR MROC 162300Z 26004KT 7000 VCFG FEW005 SCT010 OVC100 21/21 A3003 BECMG=
201007170000 METAR MROC 170000Z 26005KT 2000 RABR FEW002 SCT010 OVC100 20/20 A3006 BECMG=
201007170100 METAR MROC 170100Z 26002KT 5000 BR FEW003 SCT010 BKN100 20/20 A3008 BECMG 3000 BR=
201007170200 METAR MROC 170200Z 31002KT 7000 VCFG FEW001 SCT015 BKN100 19/19 A3010 BECMG 3000 BR=
201007170300 METAR MROC 170300Z 08003KT 7000 DZ VCFG FEW004 SCT015 BKN100 20/20 A3011 BECMG 3000 BR=
201007170400 METAR MROC 170400Z 00000KT 7000 -DZ VCFG FEW004 SCT015 BKN100 20/20 A3011 BECMG 3000 BR=
201007170500 METAR MROC 170500Z 08003KT 9999 SCT030 BKN100 19/19 A3010 RMK VRB02 BECMG 8000 BCFG=
201007170600 METAR MROC 170600Z 00000KT 9999 SCT030 BKN100 20/20 A3007 BECMG 8000 BCFG=
201007170700 METAR MROC 170700Z 24002KT 2000 BR FEW001 SCT015 BKN100 19/19 A3007 BECMG 1000 BR=
201007170800 METAR MROC 170800Z 25003KT 0500 FG BKN001 19/19 A3007 BECMG=
201007170900 METAR MROC 170900Z 32005KT 1200 3000N BR SCT001 SCT015 BKN100 19/19 A3006 BECMG=
201007171000 METAR MROC 171000Z 00000KT 9999 4000W BR FEW002 SCT020 BKN100 19/19 A3006 BECMG UNL=
201007171100 METAR MROC 171100Z 00000KT 8000 3000SW BR FEW001 SCT010 BKN100 19/19 A3007 BECMG UNL=
201007171200 METAR MROC 171200Z 04002KT 6000 2000SW BR FEW001 SCT010 BKN100 19/19 A3008 BECMG 9999=
201007171300 METAR MROC 171300Z 21002KT 6000 2000SW BR FEW001 SCT010 BKN100 20/20 A3010 BECMG 9999=
201007171400 METAR MROC 171400Z 00000KT 8000 3000SW BR FEW001 SCT020 BKN100 21/21 A3011 BECMG 9999=
201007171500 METAR MROC 171500Z 00000KT 9999 FEW003 SCT020 BKN100 22/20 A3012 RMK BCFG W BECMG 22006KT=
201007171600 METAR MROC 171600Z 24006KT 9999 FEW003 SCT020 BKN100 22/21 A3012 RMK BCFG ARND BECMG=
201007171700 METAR MROC 171700Z 25003KT 9999 SCT020 BKN100 25/21 A3009 BECMG=
201007171800 METAR MROC 171800Z 25005KT 9999 SCT020 BKN100 25/21 A3007 BECMG=
201007171900 METAR MROC 171900Z 26008KT 9999 SCT030 BKN120 26/21 A3006 BECMG=
201007172000 METAR MROC 172000Z 23008KT 9999 SCT030 BKN120 22/22 A3004 BECMG 5000 RA BR=
201007172100 METAR MROC 172100Z 24008KT 9999 VCFG FEW004 SCT015 BKN100 22/22 A3003 RMK VIS SW W 8KMS BECMG 500 -RA BR=
201007172200 METAR MROC 172200Z 25006KT 8000 RA BR SCT005 BKN012 21/21 A3003 RMK VIS SW 5KMS BECMG 2000 RA BR=
201007172300 METAR MROC 172300Z 27006KT 5000 -RADZ BR SCT005 BKN010 21/21 A3004 RMK VIS SW 3KMS BECMG 0500 FG=
201007180000 METAR MROC 180000Z 30003KT 9999 VCFG FEW006 SCT015 BKN100 20/20 A3006 RMK VIS SW WSW 8KMS RN DST E ESE BECMG 5000 -RA BR=
201007180100 METAR MROC 180100Z 00000KT 9999 FEW005 SCT015 BKN100 21/21 A3009 BECMG 8000 VCFG=
201007180200 METAR MROC 180200Z 00000KT 9999 VCFG FEW003 SCT020 BKN120 20/20 A3009 RMK VIS S SSW 8KMS BECMG=
201007180300 METAR MROC 180300Z 00000KT 9999 BR SCT006 SCT120 20/20 A3011 RMK VIS 5000 S NW BECMG 3000BR=
201007180400 METAR MROC 180400Z 00000KT 9999 4000S BR SCT006 SCT120 20/20 A3012 BECMG 2000 BR=
201007180500 METAR MROC 180500Z 00000KT 9999 4000SW BR FEW003 SCT006 BKN120 20/20 A3013 BECMG=
201007180600 METAR MROC 180600Z 23003KT 2000 BR BKN003 SCT120 20/20 A3011 C RMK VIS 9999 N BECMG=
201007180700 METAR MROC 180700Z 00000KT 0800 FG R07/0500 FEW001 BKN004 20/20 A3008 RMK VIS 9999 N 7000E=
201007180800 METAR MROC 180800Z 00000KT 9999 2000SW BR R07/0700 FEW002 SCT005 BKN120 20/20 A3007 RMK VIS 2000 S=
201007180900 METAR MROC 180900Z 00000KT 7000 3000SW BR RO7/1200 FEW002 BKN005 20/20 A3007 RMK VIS 9999 N=
201007181000 METAR MROC 181000Z 00000KT 7000 3000SW DZ BR FEW002 BKN005 20/20 A3006=
201007181100 METAR MROC 181100Z 00000KT 9999 -DZ BR FEW003 SCT010 BKN120 20/20 A3007 VIS 5000 SSW=
201007181200 METAR MROC 181200Z 08004KT CAVOK 20/20 A3008 RMK SCT070 BKN100 DZ DST SE=
201007181300 METAR MROC 181300Z 00000KT 9999 4000S BR OVC120 21/21 A3009 BANCO DE NIEBLA AL S SSW BECMG=
201007181400 METAR MROC 181400Z 24004KT 9999 4000SW BR FEW003 SCT006 BKN130 21/21 A3009 BECMG=
201007181500 METAR MROC 181500Z 21004KT 9999 SCT010 BKN140 22/22 A3010 RMK HZY BECMG=
201007181600 METAR MROC 181600Z 23005KT 9999 SCT015 BKN140 23/22 A3010 BECMG=
201007181700 METAR MROC 181700Z 23005KT 9999 BKN020 24/23 A3010 RMK FEW120 LGT HZ ARND BECMG=
201007181800 METAR MROC 181800Z 25007KT 9999 BKN020 24/22 A3008 RMK FEW120 BECMG=
201007181900 METAR MROC 181900Z 25006KT 9999 BKN025 24/22 A3006 RMK FEW120 BECMG=
201007182000 METAR MROC 182000Z 24009KT 9999 FEW015 SCT025 25/23 A3004 BECMG=
201007182100 METAR MROC 182100Z 24010KT 9999 SCT015 SCT025 22/22 A3002 BECMG=
201007182200 METAR MROC 182200Z 24008KT 9999 4000SW -RA BR FEW001 BKN010 22/22 A3002 RMK RA DST NE N NW BECMG 5000 -RA BR=
201007182300 METAR MROC 182300Z 22010KT 0300 FG VV/// 20/20 A3004 BECMG=
201007190000 METAR MROC 190000Z 25009KT 1500 DZ BR SCT001 BKN010 20/20 A3005 BECMG=
201007190100 METAR MROC 190100Z 00000KT 2000 DZ BR FEW001 SCT004 BKN020 20/20 A3007 BECMG=
201007190200 METAR MROC 190200Z 00000KT 7000 3000SW BR FEW001 SCT008 BKN020 20/20 A3009 BECMG=
201007190300 METAR MROC 190300Z 00000KT 9999 FEW020 BKN100 20/20 A3011 BECMG=
201007190400 METAR MROC 190400Z 00000KT 9999 FEW004 SCT015 BKN100 20/20 A3011 BECMG=
201007190500 METAR MROC 190500Z 00000KT 9999 SCT015 BKN100 20/29 A3010 BECMG=
201007190600 METAR MROC 190600Z 22002KT 2000 BR SCT001 SCT020 BKN100 20/20 A3009 BECMG 1000 BR=
201007190700 METAR MROC 190700Z VRB02KT 2500 BR SCT001 SCT020 BKN100 20/20 A3007 BECMG=
201007190800 METAR MROC 190800Z 00000KT 3000 BR FEW003 SCT020 BKN100 20/20 A3004 BECMG=
201007190900 METAR MROC 190900Z 00000KT 4000 BR FEW004 SCT020 BKN100 20/20 A3004 BECMG=
201007191000 METAR MROC 191000Z 00000KT 0500 FG SCT001 SCT100 BKN100 20/20 A3004 BECMG 2000 BR=
201007191100 METAR MROC 191100Z 00000KT 8000 3000W BR FEW002 SCT020 BKN100 20/20 A3005 BECMG=
201007191200 METAR MROC 191200Z 08004KT 8000 VCFG FEW002 BKN120 20/20 A3005 BECMG UNL=
201007191300 METAR MROC 191300Z 07004KT CAVOK 21/21 A3006 RMK FEW250 SCT120 TCU DST SSW BECMG=
201007191400 METAR MROC 191400Z 00000KT 9999 FEW001 SCT120 SCT250 23/22 A3007 RMK TCU DST S SW BECMG 24005KT=
201007191500 METAR MROC 191500Z 23007KT 9999 4500SW BR FEW002 BKN120 23/23 A3008 BECMG=
201007191600 METAR MROC 191600Z 22007KT 9999 HZ FEW020 BKN120 24/22 A3008 RMK VIS 5KM N SE HZY ARND BECMG=
201007191700 METAR MROC 191700Z 24007KT 9999 SCT025 BKN100 25/22 A3008 RMK TCU DST ARND HZ LEVE ARND BECMG=
201007191800 METAR MROC 191800Z 25009KT 9999 SCT030 BKN250 26/23 A3006 RMK HZ QUAD E BECMG=
201007191900 METAR MROC 191900Z 25006KT 9999 BKN030 25/23 A3004 RMK FEW250 RA DST SE E BECMG=
201007192000 METAR MROC 192000Z 22007KT 9999 SCT015 BKN030 25/22 A3001 RMK FEW250 RA DST SE E HZY ARND BECMG -RA=
201007192100 METAR MROC 192100Z 23008KT 9999 FEW020 SCT030 BKN250 24/23 A2999 BECMG=
201007192200 METAR MROC 192200Z 25010KT 9999 FEW020 SCT030 BKN250 23/23 A2999 BECMG=
201007192300 METAR MROC 192300Z 25008KT 8000 2000SW BR FEW001 SCT008 BKN030 22/22 A3000 BECMG 3000 -RA BR=
201007200000 METAR MROC 200000Z 24007KT 2000 BR FEW001 SCT008 BKN030 21/21 A3002 BECMG=
201007200100 METAR MROC 200100Z 24008KT 1500 BR SCT001 BKN030 21/21 A3006 BECMG 3000 -RA BR=
201007200200 METAR MROC 200200Z 00000KT 8000 3000E -RA BR FEW005 SCT015 BKN100 21/21 A3007 LTNG DST SW BECMG=
201007200300 METAR MROC 200300Z 00000KT 9999 VCFG FEW005 BKN015 21/21 A3009 RERA RMK VIS SW 8KMS LTNG DST SSE S BECMG=
201007200400 METAR MROC 200400Z 02003KT 9999 -RA FEW007 SCT020 BKN100 21/21 A3008 BECMG=
201007200500 METAR MROC 200500Z 00000KT CAVOK 21/21 A3004 RERA RMK BKN120 BECMG=
201007200600 METAR MROC 200600Z 00000KT 9999 4000S BR FEW002 SCT010 BKN100 21/21 A3005 BECMG=
201007200700 METAR MROC 200700Z 00000KT 8000 3000SW DZ BR FEW002 SCT007 BKN100 21/21 A3005 BECMG 4000 BR=
201007200800 METAR MROC 200800Z 00000KT 9999 VCFG FEW004 SCT030 BKN100 20/20 A3004 VIS 8KMS S SW=
201007200900 METAR MROC 200900Z 00000KT 9999 FEW030 SCT100 20/20 A3004=
201007201000 METAR MROC 201000Z 27004KT 7000 3000SW BR FEW001 SCT005 BKN120 20/20 A3003=
201007201100 METAR MROC 201100Z 00000KT 0300 FG VV/// 20/20 A3003=
201007201200 METAR MROC 201200Z 06006KT 9999 4000NW BR FEW120 BKN250 20/20 A3005 RMK FG BANK WNW NW=
201007201300 METAR MROC 201300Z 03002KT CAVOK 21/21 A3006 RMK SCT120 BKN250 BECMG=
201007201400 METAR MROC 201400Z 25003KT CAVOK 23/22 A3007 RMK SCT120 BKN250 BECMG=
201007201500 METAR MROC 201500Z 24004KT CAVOK 24/21 A3007 RMK FEW120 BKN250 BECMG=
201007201600 METAR MROC 201600Z 24005KT 9999 FEW040 BKN250 26/22 A3007 BECMG=
201007201700 METAR MROC 201700Z 24006KT 9999 FEW040 BKN250 26/22 A3006 BECMG=
201007201800 METAR MROC 201800Z 24011KT 9999 FEW010TCU SCT030 BKN250 26/24 A3005 BECMG=
201007201900 METAR MROC 201900Z 24007KT 9999 FEW010TCU SCT030 SCT250 24/23 A3004 BECMG 5000 TSRA=
201007202000 METAR MROC 202000Z 26008KT 9999 FEW010TCU SCT030 SCT250 24/23 A3004 BECMG 5000 RA BR=
201007202100 METAR MROC 202100Z 24007KT 9999 FEW010 BKN030 25/23 A3001 RMK RA DST SE=
201007202200 METAR MROC 202200Z 24009KT 9999 FEW010TCU BKN030 23/23 A3001 RA DST SE BECMG 5000 RA BR=
201007202300 METAR MROC 202300Z 26011KT 6000 2000SW BR FEW001 SCT005 BKN030 22/22 A3002 BECMG 3000 RA BR=
201007210000 METAR MROC 210000Z 12003KT 2000 TSRA FEW001 SCT005 FEW010CB BKN030 21/21 A3007 BECMG 5000 RA=
201007210040 METAR MROC 210040Z 04003KT 6000 2000SW -TSRA FEW010CB SCT005 BKN030 21/21 A3008 BECMG=
201007210100 METAR MROC 210100Z 09003KT 6000 2000SW RA SCT005 BKN030 20/20 A3009 BECMG=
201007210200 METAR MROC 210200Z 19005KT 6000 2000SW RA SCT005 OVC030 20/20 A3014 BECMG=
201007210300 METAR MROC 210300Z 05004KT 9999 RA SCT005 BKN010 20/20 A3014 BECMG=
201007210400 METAR MROC 210400Z 11004KT CAVOK 20/20 A3013 RMK BKN100 BECMG=
201007210500 METAR MROC 210500Z 07005KT CAVOK 20/20 A3012 RMK BKN120 BECMG=
201007210600 METAR MROC 210600Z 07002KT CAVOK 19/19 A3008 RMK SCT120 BECMG=
201007210700 METAR MROC 210700Z 09005KT CAVOK 19/19 A3004 RMK SCT120 BECMG=
201007210800 METAR MROC 210800Z 08005KT CAVOK 18/18 A3001 RMK FEW140 BECMG=
201007210900 METAR MROC 210900Z 11002KT CAVOK 18/17 A3001 RMK FEW140 BECMG=
201007211000 METAR MROC 211000Z 08006KT CAVOK 18/17 A3001=
201007211100 METAR MROC 211100Z 06004KT CAVOK 17/17 A3004=
201007211200 METAR MROC 211200Z 00000KT CAVOK 18/17 A3004=
201007211300 METAR MROC 211300Z 00000KT CAVOK 21/18 A3004 FEW120 CB DST SW/W BECMG=
201007211400 METAR MROC 211400Z 25003KT CAVOK 22/18 A3005 FEW250 BECMG CB DST SW W=
201007211500 METAR MROC 211500Z 26008KT CAVOK 23/20 A3007 FEW250 CB DST W BECMG=
201007211600 METAR MROC 211600Z 21003KT 9999 FEW035 SCT250 25/20 A3008 BECMG=
201007211700 METAR MROC 211700Z 22006KT 9999 SCT030 BKN250 26/22 A3007 BECMG=
201007211800 METAR MROC 211800Z 25012KT 9999 BKN030 SCT250 25/22 A3007 TCU DST SW W BECMG=
201007211900 METAR MROC 211900Z 24007KT 9999 SCT025TCU BKN250 26/23 A3004 BECMG=
201007212000 METAR MROC 212000Z 24010KT 9999 4000E +TSRA SCT010CB SCT030 BKN100 24/22 A3002 BECMG=
201007212100 METAR MROC 212100Z 10006KT 7000 3000W -RA BR SCT005 BKN020 22/22 A3003 RETS BECMG 6000 -RA BR=
201007212200 METAR MROC 212200Z 00000KT 9999 FEW010 SCT020 BKN120 21/21 A3002 RERA RMK VIS W 6000 TSRA BECMG 5000 -RA BR=
201007212300 METAR MROC 212300Z 00000KT 9999 SCT015 BKN120 22/22 A3003 BECMG=
201007220000 METAR MROC 220000Z 00000KT 9999 SCT020 BKN250 21/21 A3003 RMK TACE AC BECMG=
201007220100 METAR MROC 220100Z 22004KT 1500 BR SCT001 BKN015 21/21 A3007 BECMG=
201007220200 METAR MROC 220200Z 03002KT 8000 VCFG FEW001 SCT010 SCT120 21/21 A3008 BECMG=
201007220300 METAR MROC 220300Z 00000KT 2000 BR SCT001 SCT010 20/20 A3008 BECMG=
201007220400 METAR MROC 220400Z 07005KT 9999 3000SW BR FEW001 SCT250 20/20 A3008 BECMG=
201007220500 METAR MROC 220500Z 07003KT CAVOK 19/19 A3006 RMK SCT250 BECMG=
201007220600 METAR MROC 220600Z 00000KT CAVOK 19/19 A3004 RMK SCT300 BECMG=
201007220700 METAR MROC 220700Z 00000KT CAVOK 18/18 A3004 RMK SCT300 BECMG=
201007220800 METAR MROC 220800Z 05004KT CAVOK 18/18 A3003 RMK SCT300 BECMG=
201007220900 METAR MROC 220900Z 06003KT CAVOK 18/18 A3003 RMK SCT300 BECMG=
201007221000 METAR MROC 221000Z 00000KT CAVOK 18/18 A3002 RMK SCT300 BECMG=
201007221100 METAR MROC 221100Z 06006KT CAVOK 18/18 A3002 RMK SCT300 BECMG=
201007221200 METAR MROC 221200Z 08005KT CAVOK 18/18 A3004 RMK SCT300 CB DST SW BECMG=
201007221300 METAR MROC 221300Z 05002KT CAVOK 20/18 A3006 RMK SCT300 CB DST SW BECMG=
201007221400 METAR MROC 221400Z 00000KT CAVOK 24/19 A3007 RMK SCT300 BECMG 24007KT=
201007221500 METAR MROC 221500Z 00000KT 9999 FEW040 SCT250 26/20 A3008 BECMG=
201007221600 METAR MROC 221600Z 23006KT 9999 FEW035 SCT250 26/22 A3008 BECMG=
201007221700 METAR MROC 221700Z 24006KT 9999 SCT030 SCT250 26/22 A3008 BECMG=
201007221800 METAR MROC 221800Z 25008KT 9999 SCT025 SCT250 27/23 A3005 BECMG=
201007221900 METAR MROC 221900Z 24013KT 9999 SCT020TCU SCT120 27/23 A3005 RMK RASH DST E BECMG 5000 VCSH=
201007222000 METAR MROC 222000Z 23007KT 9999 FEW010CB SCT025 26/22 A3001 RMK CB RASH N NE BECMG=
201007222100 METAR MROC 222100Z 24007KT 9999 FEW010 SCT025TCU 27/23 A2998 RMK CB RASH DIST E LGT HZ ARND BECMG 8000 VCSH=
201007222200 METAR MROC 222200Z 22011KT 9999 SCT010 SCT025TCU 23/23 A2998 PCPN DST E N HZY BECMG 5000 RA BR=
201007222300 METAR MROC 222300Z 26007KT 0500 +TSRA SCT010CB BKN020TCU 22/22 A3001 RMK ACUMULACION DE AGUA EN LA PISTA BECMG 3000=
201007230000 METAR MROC 230000Z 32006KT 5000 -RA VCTS FEW015CB BKN060 20/20 A3005 RMK VIS SE UNL BECMG 2000 -RA BR=
201007230100 METAR MROC 230100Z 27002KT 9999 SCT035 BKN100 20/20 A3008 RMK LTNG DST WNW BECMG=
201007230200 METAR MROC 230200Z 11003KT CAVOK 20/20 A3009 RMK BKN120 BECMG=
201007230300 METAR MROC 230300Z 09005KT CAVOK 20/20 A3007 RMK BKN120 BECMG=
201007230400 METAR MROC 230400Z 08006KT CAVOK 20/20 A3006 RMK BKN120 BECMG=
201007230500 METAR MROC 230500Z 08007KT CAVOK 20/19 A3003 RMK BKN120 BECMG=
201007230600 METAR MROC 230600Z 26003KT CAVOK 19/19 A3004 RMK BKN120 BKN UNL=
201007230700 METAR MROC 230700Z 03002KT 9999 SCT004 BKN120 19/19 A3004 BECMG=
201007230800 METAR MROC 230800Z 00000KT 9999 SCT004 BKN120 20/20 A3003 BECMG=
201007230900 METAR MROC 230900Z 08002KT CAVOK 20/20 A3002 RMK BKN120 BECMG=
201007231000 METAR MROC 231000Z 12002KT CAVOK 19/19 A3003 RMK BKN120 BECMG=
201007231100 METAR MROC 231100Z 07005KT 9999 FEW020 18/18 A3003 RMK CB TS DST SW BECMG=
201007231200 METAR MROC 231200Z 10005KT 9999 FEW025 SCT250 18/18 A3004 RMK TCU DST S HZ ARND BECMG=
201007231300 METAR MROC 231300Z 09003KT CAVOK 21/20 A3005 RMK FEW300 CB DST SSW HZY BECMG=
201007231400 METAR MROC 231400Z 25002KT CAVOK 23/20 A3007 RMK FEW300 HZY CB DST SSW BECMG=
201007231500 METAR MROC 231500Z 00000KT 9999 FEW035 25/20 A3007 RMK HZY BECMG=
201007231600 METAR MROC 231600Z 31002KT 9999 FEW035 26/20 A3007 RMK HZY BECMG=
201007231700 METAR MROC 231700Z 23007KT 9999 FEW030 27/21 A3007 RMK HZY BECMG=
201007231800 METAR MROC 231800Z 24008KT 9999 FEW025TCU 27/23 A3006 RMK HZY BECMG=
201007231900 METAR MROC 231900Z 24010KT 9999 FEW020TCU SCT030 26/23 A3003 RMK PCPN DST NE BECMG 7000 -SHRA=
201007232000 METAR MROC 232000Z 25008KT 9999 FEW020TCU SCT030 26/23 A3001 RMK PCPN DST N BECMG 7000 -SHRA=
201007232100 METAR MROC 232100Z 26009KT 9999 FEW020TCU SCT030 26/22 A2999 RMK RA DST N S SE BECMG 6000=
201007232200 METAR MROC 232200Z 23006KT 8000 TSRA FEW015TCU SCT025 BKN100 23/23 A2999 BECMG 4000 -RA BR=
201007232300 METAR MROC 232300Z 22006KT 3000 BR FEW002 SCT015 BKN100 22/22 A3001 RERA BECMG=
201007240000 METAR MROC 240000Z 30004KT 4500 BR FEW002 SCT035 BKN100 22/22 A3002 RMK VIS UNL SW S SE BECMG=
201007240100 METAR MROC 240100Z 05003KT 9999 SCT035 SCT100 22/22 A3005 RMK VIS 5000 SE BECMG=
201007240200 METAR MROC 240200Z 10007KT 9999 FEW035 SCT120 21/21 A3005 BECMG=
201007240300 METAR MROC 240300Z 13004KT 9999 FEW025 22/21 A3004 BECMG=
201007240400 METAR MROC 240400Z VRB02KT 9999 FEW025 22/20 A3005 BECMG=
201007240500 METAR MROC 240500Z 07004KT 9999 FEW025 22/20 A3005 BECMG=
201007240600 METAR MROC 240600Z 09005KT CAVOK 20/20 A3005 RMK FEW250 BECMG=
201007240700 METAR MROC 240700Z 07002KT CAVOK 20/19 A3003 RMK FEW250 BECMG=
201007240800 METAR MROC 240800Z 00000KT CAVOK 20/19 A3001 RMK FEW250 BECMG=
201007240900 METAR MROC 240900Z 06007KT CAVOK 20/19 A3000 RMK FEW250 BECMG=
201007241000 METAR MROC 241000Z 07004KT CAVOK 20/19 A3000 RMK FEW250 BECMG=
201007241100 METAR MROC 241100Z 04005KT CAVOK 19/18 A2999 RMK TCU DST S FEW120 SCT250 BECMG=
201007241200 METAR MROC 241200Z 02002KT CAVOK 20/18 A3002 RMK CB DST SW FEW120 BKN250 BECMG=
201007241300 METAR MROC 241300Z 09004KT CAVOK 22/19 A3004 RMK CB DST SW BKN250 BECMG 24006KT=
201007241400 METAR MROC 241400Z 07005KT CAVOK 25/19 A3004 RMK CB DST SW BKN250 BECMG 24006KT=
201007241500 METAR MROC 241500Z 14007KT CAVOK 27/18 A3004 RMK CU DEVELOPING SSW SW BKN250 BECMG=
201007241600 METAR MROC 241600Z 24008KT CAVOK 27/22 A3005 RMK FEW060 BKN250 CB DST SW BECMG=
201007241700 METAR MROC 241700Z 24008KT 9999 SCT050 BKN250 27/22 A3004 BECMG=
201007241800 METAR MROC 241800Z 24008KT 9999 SCT045 BKN250 28/23 A3003 BECMG=
201007241900 METAR MROC 241900Z 24011KT 9999 FEW030CB SCT045 26/23 A3002 RMK FEW250 BECMG=
201007242000 METAR MROC 242000Z 4500 RA BR SCT020CB FEW030 25/24 A2999 RMK VIS UNL S BECMG=
201007242100 METAR MROC 242100Z 28007KT 9999 FEW015 BKN030 26/23 A2997 BECMG=
201007242200 METAR MROC 242200Z 24012KT 9999 FEW015 BKN030 25/24 A2997 BECMG=
201007242300 METAR MROC 242300Z 21008KT 8000 2000SW -RA BR FEW001 SCT005 BKN030 23/23 A2999 RMK VIS S UNL=
201007250000 METAR MROC 250000Z 28004KT 9999 3000SW BR FEW001 SCT030 BKN100 22/22 A3002 RERA RMK CB DST S BECMG=
201007250100 METAR MROC 250100Z 02003KT 9999 FEW030 SCT100 BKN250 22/22 A3003 BECMG=
201007250200 METAR MROC 250200Z 00000KT 9999 FEW030 SCT100 BKN250 21/21 A3003 BECMG=
201007250300 METAR MROC 250300Z 00000KT 9999 VCFG FEW010 SCT030 BKN100 22/22 A3007 RMK VIS S SW 8KMS BECMG=
201007250400 METAR MROC 250400Z 00000KT 9999 FEW030 BKN120 22/22 A3006 BECMG=
201007250500 METAR MROC 250500Z 26003KT 5000 2000SW BR FEW001 SCT004 BKN250 21/21 A3007 BECMG 3000=
201007250600 METAR MROC 250600Z 23003KT 2500 BR SCT002 BKN005 21/21 A3006 BECMG 3000=
201007250700 METAR MROC 250700Z 25003KT 4000 BR FEW002 SCT005 BKN250 21/21 A3003 BECMG=
201007250800 METAR MROC 250800Z 00000KT 8000 VCFG FEW010 BKN250 21/21 A3002 RMK VIS S SE UNL=
201007250900 METAR MROC 250900Z 11003KT CAVOK 20/20 A2998 RMK BKN250 HZY=
201007251000 METAR MROC 251000Z 08006KT CAVOK 20/20 A2996 RMK BKN250=
201007251100 METAR MROC 251100Z 07002KT CAVOK 20/19 A2998 RMK FEW120 SCT250=
201007251200 METAR MROC 251200Z 00000KT 9999 VCFG FEW120 BKN250 19/19 A3001 VIS S SSW 8KMS CB DST SW=
201007251300 METAR MROC 251300Z 07003KT CAVOK 23/19 A3002 RMK BKN250 BECMG=
201007251400 METAR MROC 251400Z 00000KT CAVOK 24/20 A3002 RMK BKN250 FEWCU BECMG 22004KT=
201007251500 METAR MROC 251500Z 23008KT 9999 FEW040 BKN250 26/22 A3004 BECMG=
201007251600 METAR MROC 251600Z VRB02KT 9999 FEW040 BKN250 26/21 A3002 BECMG=
201007251700 METAR MROC 251700Z 24007KT 9999 SCT040 SCT250 28/23 A3002 BECMG=
201007251800 METAR MROC 251800Z 23008KT 9999 SCT030 SCT250 28/23 A3000 BECMG=
201007251900 METAR MROC 251900Z 24009KT 9999 SCT030 SCT250 26/23 A2997 RMK RA N NE E BECMG=
201007252000 METAR MROC NIL=
201007252100 METAR MROC NIL=
201007252200 METAR MROC NIL=
201007252300 METAR MROC NIL=
201007260000 METAR MROC NIL=
201007260100 METAR MROC 260100Z 04003KT 9999 FEW001 BKN100 21/21 A3000 RERA BECMG=
201007260200 METAR MROC 260200Z 21004KT 9999 VCFG FEW010 BKN120 21/21 A3001 RMK BECMG 5000 BR=
201007260300 METAR MROC 260300Z 30005KT 9000 4000SW BR FEW001 SCT004 BKN120 21/21 A3004 RMK VIS 4000 NE E BECMG 3000 BR=
201007260400 METAR MROC 260400Z 28003KT 9999 4000SW BR SCT004 BKN120 21/21 A3004 BECMG 3000 BR=
201007260500 METAR MROC 260500Z 00000KT 9999 SCT004 BKN120 21/21 A3004 RMK LOW ST AT VC BECMG=
201007260600 METAR MROC 260600Z 00000KT 9999 SCT015 BKN120 21/21 A3002 RMK TS DST W=
201007260700 METAR MROC 260700Z 09002KT CAVOK 20/20 A3002 RMK SCT120 OVC200=
201007260800 METAR MROC 260800Z 11003KT CAVOK 20/20 A2999 RMK TS DST NW FEW120 BKN200=
201007260900 METAR MROC 260900Z 08003KT CAVOK 20/20 A2999 RMK TS DST SW SCT120 BKN200=
201007261000 METAR MROC 261000Z 07006KT CAVOK 19/19 A2997 RMK TS DST SW SCT120 BKN200=
201007261100 METAR MROC 261100Z 15003KT CAVOK 19/19 A2998 RMK LW ST MVG E SCT120 BKN250=
201007261200 METAR MROC 261200Z 00000KT CAVOK 19/18 A2998 RMK CB DST DVPNG SW SSW FEW120 BKN250=
201007261300 METAR MROC 261300Z 00000KT CAVOK 22/20 A3001 RMK BKN250 CB DST SW BECMG 24006KT=
201007261400 METAR MROC 261400Z 00000KT CAVOK 24/19 A3003 RMK FEW100 BKN250 BECMG 24006KT=
201007261500 METAR MROC 261500Z 22005KT CAVOK 24/21 A3004 RMK BKN250 BECMG=
201007261600 METAR MROC 261600Z 23005KT 9999 FEW030 BKN250 26/21 A3004 BECMG=
201007261700 METAR MROC 261700Z 25004KT 9999 FEW030 SCT120 BKN250 26/21 A3003 BECMG=
201007261800 METAR MROC 261800Z 25009KT 9999 FEW020TCU BKN250 27/21 A3002 RMK FEW120 BECMG=
201007261900 METAR MROC 261900Z 23008KT 9999 FEW010CB SCT020TCU BKN120 25/23 A2999 RMK RA DST N/NE BECMG 5000 -TSRA=
201007262000 METAR MROC 262000Z 24005KT 9999 SCT010CB BKN120 24/22 A2998 RMK BECMG 5000 TSRA=
201007262100 METAR MROC 262100Z 24007KT 9999 SCT007CB BKN020 24/23 A2997 BECMG 5000 -TSRA=
201007262200 METAR MROC 262200Z 24006KT 4000 -TSRA BR FEW001 SCT007CB BKN020 22/22 A2996 BECMG -RA BR=
201007262300 METAR MROC 262300Z 24004KT 2000 RA BR FEW001 SCT010 BKN020 22/22 A2998 BECMG 1000 -RA BR=
201007262350 METAR MROC 270000Z VRB02KT 9999 3000SW FEW001 SCT025 BKN100 22/22 A2998 BECMG 5000 BR SCT001=
201007262351 METAR MROC 270000Z VRB02KT 9999 3000SW BR FEW001 SCT025 BKN100 22/22 A2998 BECMG 5000 BR SCT001=
201007262355 METAR MROC 270000Z VRB02KT 9999 3000SW BR FEW001 SCT025 BKN100 22/22 A2998 BECMG 5000 BR SCT001=
201007270000 METAR MROC 270000Z VRB02KT 9999 3000SW BR FEW001 SCT025 BKN100 22/22 A2998 BECMG 5000 BR SCT001=
201007270100 METAR MROC 270100Z 24003KT 1500 BR SCT001 BKN020 22/22 A3001 BECMG 0500 FG BKN001=
201007270200 METAR MROC 270200Z 00000KT 0800 FG SCT001 BKN010 21/21 A3003 BECMG=
201007270300 METAR MROC 270300Z 00000KT 6000 3000SW -DZ BR FEW001 SCT015 OVC100 21/21 A3004 BECMG=
201007270400 METAR MROC 270400Z 23004KT 6000 3000SW -DZ BR FEW001 SCT015 OVC100 21/21 A3005 BECMG=
201007270500 METAR MROC 270500Z 00000KT 9999 FEW015 BKN100 21/21 A3006 REDZ BECMG=
201007270600 METAR MROC 270600Z 00000KT 9999 FEW015 SCT100 SCT250 21/21 A3004 BECMG=
201007270700 METAR MROC 270700Z 00000KT 9999 FEW015 SCT100 SCT250 21/21 A3003 BECMG=
201007270800 METAR MROC 270800Z 00000KT 9999 FEW010 SCT100 BKN250 20/20 A3000 BECMG=
201007270900 METAR MROC 270900Z 00000KT 9999 FEW010 SCT100 BKN250 20/20 A2999 BECMG=
201007271000 METAR MROC 271000Z 08002KT CAVOK 19/19 A2998 RMK SCT100 BKN250 BECMG=
201007271100 METAR MROC 271100Z 08004KT CAVOK 19/19 A2997 RMK SCT100 BKN250 BECMG=
201007271200 METAR MROC 271200Z 04005KT CAVOK 19/19 A2998 RMK SCT100 BKN250 BCFG S BECMG=
201007271300 METAR MROC 271300Z 09002KT CAVOK 20/20 A3001 RMK BKN250 BECMG 24005KT=
201007271400 METAR MROC 271400Z 00000KT CAVOK 22/20 A3003 RMK BKN250 BECMG=
201007271500 METAR MROC 271500Z VRB03KT CAVOK 24/21 A3003 RMK BKN250 HZ ARND BECMG 24005KT=
201007271600 METAR MROC 271600Z 00000KT CAVOK 25/21 A3003 RMK BKN250 BECMG=
201007271700 METAR MROC 271700Z 23005KT 9999 FEW030 BKN250 24/22 A3002 RMK HZ ARND BECMG=
201007271800 METAR MROC 271800Z 24005KT 9999 FEW025 BKN250 25/22 A3003 RMK HZ ARND BECMG=
201007271900 METAR MROC 271900Z 25007KT 9999 FEW020 BKN250 25/22 A3000 RMK HZ ARND BECMG=
201007272000 METAR MROC 272000Z 24007KT 8000 -RA SCT015TCU BKN250 24/23 A2998 BECMG 6000 RA=
201007272100 METAR MROC 272100Z 24005KT 5000 -RA BR FEW004 FEW015TCU BKN030 22/22 A2998 BECMG 3000 -TSRA BECMG=
201007272101 METAR MROC 272101Z COR 24005KT 5000 -RA BR FEW004 FEW015TCU BKN030 22/22 A2998 BECMG 3000 -TSRA=
201007272200 METAR MROC 272200Z 24005KT 4000 DZ BR SCT004 FEW015TCU BKN120 22/22 A2998 BECMG 3000 -RA BR=
201007272300 METAR MROC 272300Z 00000KT 6000 SCT004 BKN250 22/22 A2998 RMK FEW120 VIS RED DUE FG ARND BECMG=
201007280000 METAR MROC 280000Z 26002KT 4000 BR FEW002 BKN005 22/22 A3000 BECMG 2000 BR=
201007280100 METAR MROC 280100Z 00000KT 4000 -RA BR FEW002 SCT005 BKN120 21/21 A3002 RMK LTNG DST S BECMG=
201007280130 METAR MROC 280130Z 05003KT 4000 -RA VCTS FEW005 FEW015CB BKN100 21/21 A3004 BECMG 6000=
201007280200 METAR MROC NIL=
201007280300 METAR MROC NIL=
201007280400 METAR MROC 280400Z 35003KT 9999 FEW030 BKN100 20/20 A3006 BECMG=
201007280500 METAR MROC 280500Z VRB02KT 9999 FEW030 BKN100 21/21 A3007 BECMG=
201007280600 METAR MROC 280600Z 06004KT CAVOK 20/20 A3007 RMK BKN100 BECMG=
201007280700 METAR MROC 280700Z 11004KT CAVOK 20/20 A3005 BKN250 BECMG=
201007280800 METAR MROC 280800Z 04002KT CAVOK 19/19 A3003 RMK BKN100 BECMG=
201007280837 METAR MROC 280837Z 04002KT CAVOK 19/19 A3003 RMK BKN100 BECMG=
201007280900 METAR MROC 280900Z VRB02KT 9999 2000SW BR FEW001 SCT010 BKN100 19/19 A3003 BECMG 1000 BR=
201007281000 METAR MROC 281000Z 00000KT 7000 1000SW BR FEW001 SCT005 BKN100 20/20 A3003 BECMG 1000 BR=
201007281100 METAR MROC 281100Z 05003KT 7000 2000SW BR FEW001 SCT005 BKN100 19/19 A3004 BECMG=
201007281200 METAR MROC 281200Z 08002KT 5000 2000SW BR FEW001 SCT005 BKN100 19/19 A3006 BECNG 9999=
201007281300 METAR MROC 281300Z 05004KT 9999 FEW030 SCT120 BKN250 21/20 A3007 RMK HZY BECMG=
201007281400 METAR MROC 281400Z 06004KT CAVOK 22/20 A3005 RMK BKN120 HZY BECMG 24006KT=
201007281500 METAR MROC 281500Z 15004KT 9999 FEW035 BKN120 24/20 A3005 BECMG 24006KT=
201007281600 METAR MROC 281600Z 13007KT 9999 FEW030 BKN100 25/20 A3005 BECMG 24006KT=
201007281700 METAR MROC 281700Z 15007KT 9999 SCT030 SCT100 27/19 A3003 BECMG 24006KT=
201007281800 METAR MROC 281800Z 26004KT 9999 FEW030 SCT045 BKN120 26/22 A3003 BECMG=
201007281900 METAR MROC 281900Z 24008KT 9999 FEW020TCU SCT040 BKN120 25/23 A3001 RMK PCPN DST NE BECMG 6000 SHRA=
201007282000 METAR MROC 282000Z 25008KT 9999 VCSH FEW017TCU SCT025 BKN120 25/23 A3000 PCPN N NE BECMG 6000 SHRA=
201007282100 METAR MROC 282100Z 24010KT 5000 2000SW RA FEW015TCU BKN025 22/22 A2999 BECMG 2000 RA=
201007282200 METAR MROC 282200Z 25007KT 1000 0300WSW R07/0225 FG SCT001 BKN020 21/21 A3000 BECMG=
201007282300 METAR MROC 282300Z 26005KT 4000 BR FEW001 SCT010 BKN070 21/21 A3002 RMK VIS UNL S SSW BECMG 5000 RA=
201007290000 METAR MROC 290000Z 27005KT 9999 4000NE BR FEW001 BKN010 21/21 A3001 RMK FEW070 BECMG 5000 RA=
201007290100 METAR MROC 290100Z 27003KT 9999 -RA FEW001 BKN002 21/21 A3008 BECMG 5000 RA=
201007290200 METAR MROC 290200Z 00000KT 9999 SCT002 BKN020 21/21 A3010 RERA BECMG -RA=
201007290300 METAR MROC 290300Z 28002KT 6000 VCFG SCT002 BKN015 21/21 A3012 BECMG -RA=
201007290400 METAR MROC 290400Z 00000KT 6000 VCFG SCT003 BKN010 21/21 A3013 BECMG -RA=
201007290500 METAR MROC NIL=
201007290600 METAR MROC 290600Z 00000KT 6000 VCFG FEW003 SCT015 BKN100 20/20 A3008 BECMG=
201007290700 METAR MROC NIL=
201007290800 METAR MROC NIL=
201007290900 METAR MROC 290900Z 00000KT 0500 FG SCT001 SCT015 19/19 A3005 BECMG 1500 BR=
201007291000 METAR MROC 291000Z 00000KT 0500 FG SCT001 SCT010 19/19 A3006 BECMG 1500 BR=
201007291100 METAR MROC 291100Z 05005KT 9999 4000W BR FEW001 SCT250 18/18 A3007 BECMG UNL=
201007291200 METAR MROC 291200Z 09005KT CAVOK 18/18 A3008 RMK TRACE ST SCT140 BECMG=
201007291300 METAR MROC 291300Z 03003KT 9999 CAVOK 21/20 A3008 RMK LW ST MVG NE BECMG SCT120 BKN250=
201007291400 METAR MROC 291400Z 00000KT CAVOK 24/19 A3008 RMK BKN120 FEW250 BECMG 22006KT=
201007291500 METAR MROC 291500Z 24004KT CAVOK 25/21 A3008 RMK BKN120 BECMG=
201007291600 METAR MROC 291600Z 24007KT 9999 FEW040 SCT120 26/23 A3008 RMK SCT250 CB DVLPG NE SW BECMG=
201007291700 METAR MROC 291700Z 23008KT 9999 FEW040 SCT120 27/22 A3007 RMK SCT250 TCU DST ARND BECMG=
201007291800 METAR MROC 291800Z 24009KT 9999 FEW030CB SCT040 SCT250 27/22 A3006 RMK FEW120 RA DST NE BECMG=
201007291900 METAR MROC 291900Z 23013KT 9999 FEW015 FEW020CB BKN080 24/23 A3003 RMK FEW250 RA DST SW BECMG 5000 -TSRA=
201007292000 METAR MROC 292000Z 22007KT 9999 4000N -DZ FEW001 SCT015 BKN080 22/22 A3003 RMK CB CABECERA R07 BECMG 5000 -TSRA=
201007292100 METAR MROC 292100Z 25006KT 5000 2000SW BR FEW002 SCT005 BKN030 22/22 A3002 BECMG 2000 RA BR=
201007292200 METAR MROC 292200Z 24004KT 5000 2000SW BR FEW001 SCT005 BKN030 22/22 A3002 BECMG 2000 -RA BR=
201007292300 METAR MROC 292300Z 24003KT 6000 2000SW BR FEW001 SCT005 BKN030 21/21 A3003 RMK RA E SE BECMG 2000 RA BR=
201007300000 METAR MROC 300000Z 00000KT 8000 3000SW -RA BR FEW001 SCT030 OVC100 20/20 A3005 BECMG 3000 RA BR=
201007300100 METAR MROC 300100Z 00000KT 8000 3000SW -DZ BR FEW001 SCT030 OVC100 20/20 A3008 BECMG=
201007300200 METAR MROC 300200Z 00000KT 1200 BR SCT001 BKN005 20/20 A3009 RMK BECMG 0200 FG VV///=
201007300240 METAR MROC 300240Z 00000KT 3000 BR SCT002 BKN006 20/20 A3010 RERA RMK LOW ST OVER APCH RNY 07 BECMG 4000=
201007300300 METAR MROC 300300Z 00000KT 00000KT 5000 2000SW BR SCT002 BKN007 20/20 A3011 BECMG 2000 BR=
201007300400 METAR MROC 300400Z 00000KT 2000 RA BR SCT002 BKN020 20/20 A3012 BECMG 7000=
201007300500 METAR MROC 300500Z 25004KT 1500 -DZ BR SCT001 BKN004 20/20 A3011 BECMG=
201007300600 METAR MROC 300600Z 00000KT 0300 FG VV/// 20/20 A3008 BECMG=
201007300700 METAR MROC 300700Z 00000KT 5000 BR FEW002 SCT015 BKN100 20/20 A3004 RMK VIS E SE UNL BECMG 8000=
201007300800 METAR MROC 300800Z 00000KT 7000 2000SW BR SCT002 BKN100 20/20 A3003 RMK CONDICIONES MUY VARIABLES=
201007300900 METAR MROC 300900Z 00000KT 8000 VCFG BR FEW004 SCT030 BKN100 20/20 A3003 RMK VIS S SW 5KMS=
201007301000 METAR MROC 301000Z 00000KT 9999 FEW025 SCT250 19/19 A3002 RMK FEW120=
201007301100 METAR MROC 301100Z 06003KT CAVOK 19/19 A3003 SCT250=
201007301200 METAR MROC 301200Z 04005KT CAVOK 19/19 A3002 RMK FEW120 BKN250 CB DST SSW HZY=
201007301300 METAR MROC 301300Z 08007KT CAVOK 21/19 A3003 RMK FEW120 BKN250 BECMG=
201007301400 METAR MROC 301400Z 07006KT CAVOK 24/21 A3003 RMK SCT120 BKN250 BECMG 24005KT=
201007301500 METAR MROC 301500Z 00000KT CAVOK 26/20 A3004 RMK BKN250 BECMG 24006KT=
201007301600 METAR MROC 301600Z 24008KT 9999 FEW040 BKN250 25/21 A3004 BECMG=
201007301700 METAR MROC 301700Z 23007KT 9999 FEW035 BKN250 25/23 A3004 BECMG=
201007301800 METAR MROC 301800Z 24007KT 9999 SCT030 BKN250 26/23 A3003 BECMG=
201007301900 METAR MROC 301900Z 24011KT 9999 BKN025 26/23 A3001 BECMG=
201007302000 METAR MROC 302000Z 24007KT 9999 -RA FEW010CB BKN020 23/22 A3000 BECMG 6000 -TSRA=
201007302100 METAR MROC 302100Z 23008KT 6000 VCFG SCT005 BKN015 23/23 A2999 BECMG 3000 BR=
201007302200 METAR MROC 302200Z 23004KT 7000 3000W -RA BR FEW006 BKN015 21/21 A2998 BECMG 3000 BR=
201007302300 METAR MROC 302300Z 23004KT 6000 BR SCT006 BKN015 21/21 A2999 BECMG 2000 BR=
201007310000 METAR MROC 310000Z 25002KT 6000 1500W BR SCT003 BKN010 21/21 A3001 BECMG 1000 BR=
201007310100 METAR MROC 310100Z 24006KT 0500 FG BKN001 21/21 A3003 BECMG=
201007310200 METAR MROC 310200Z 25004KT 1500 RA BR SCT001 BKN020 20/20 A3004 BECMG=
201007310300 METAR MROC 310300Z 00000KT 9999 -DZ VCFG SCT002 BKN010 20/20 A3005 BECMG=
201007310400 METAR MROC 310400Z 11002KT 9999 VCFG SCT002 BKN020 20/20 A3005 BECMG=
201007310500 METAR MROC 310500Z 00000KT 9999 VCFG SCT020 BKN080 20/20 A3004 BECMG=
201007310600 METAR MROC 310600Z 00000KT 5000 2000WSW BR SCT001 SCT020 BKN080 20/20 A3002 BECMG 3000 BR=
201007310700 METAR MROC 310700Z 00000KT 5000 2000WSW BR SCT001 SCT015 BKN080 20/20 A3001 BECMG=
201007310800 METAR MROC 310800Z 07002KT 2000 BR SCT001 BKN010 20/20 A2998=
201007310900 METAR MROC 310900Z 12003KT 9999 4000WSW TS BR FEW001 BKN100 20/20 A2998=
201007311000 METAR MROC 311000Z 08003KT 9999 4000WSW TS BR FEW001 SCT120 SCT250 19/19 A2996=
201007311100 METAR MROC 311100Z 06003KT 9999 4000WSW TS BR SCT025 SCT120 BKN250 19/19 A2996=
201007311200 METAR MROC 311200Z 08004KT 9999 VCFG FEW025 SCT120 BKN250 19/19 A2997 RMK TCU DST ARND BECMG=
201007311300 METAR MROC 311300Z 06003KT CAVOK 21/20 A2999 RMK SCT120 BKN250 TCU DST SW BECMG=
201007311400 METAR MROC 311400Z 10003KT CAVOK 22/20 A2999 RMK FEW120 BKN250 BECMG 22005KT=
201007311500 METAR MROC 311500Z 10006KT 9999 FEW025 SCT120 BKN250 23/20 A3001 RN DST NE TCU DST SW BECMG=
201007311600 METAR MROC 311600Z 08007KT 7000 DZ FEW015 SCT025 BKN100 23/21 A3001 RMK VIS SW UNL BECMG=
201007311700 METAR MROC 311700Z 34005KT 9999 FEW025 BKN110 23/22 A2998 RERA BECMG -RA=
201007311800 METAR MROC 311800Z 07003KT 9999 FEW025 SCT120 BKN250 25/21 A2997 BECMG=
201007311900 METAR MROC 311900Z 10005KT 9999 FEW030 BKN250 28/21 A2994 BECMG=
201007312000 METAR MROC 312000Z 14005KT 9999 SCT030 BKN250 27/20 A2991 BECMG 24006KT=
201007312100 METAR MROC 312100Z 22008KT 9999 SCT025 BKN250 27/20 A2990 RMK PCPN DST NE BECMG=
201007312200 METAR MROC 312200Z 25008KT 9999 SCT020 BKN250 26/24 A2990 RMK PCPN DST NE BECMG=
201007312300 METAR MROC 312300Z 25009KT 8000 RA BR FEW005 SCT010 BKN100 23/23 A2992 BECMG 6000 RA BR=
201008010000 METAR MROC 010000Z 23006KT 5000 2000W BR SCT004 BKN010 22/22 A2995 BECMG=
201008010100 METAR MROC 010100Z 26004KT 3000 BR FEW003 BKN010 21/21 A2999 BECMG=
201008010200 METAR MROC 010200Z 34002KT 6000 BR FEW003 SCT015 BKN025 20/20 A3000 BECMG=
201008010300 METAR MROC 010300Z 09002KT 9999 FEW035 SCT250 20/20 A3001 BECMG=
201008010400 METAR MROC 010400Z 09003KT 9999 FEW035 SCT250 20/20 A3001 BECMG=
201008010500 METAR MROC 010500Z 04006KT CAVOK 20/20 A2999 RMK SCT250 BECMG=
201008010600 METAR MROC 010600Z 00000KT CAVOK 20/19 A2996 RMK SCT250 BECMG=
201008010700 METAR MROC 010700Z 00000KT 9999 -RA BKN100 19/19 A2997 BECMG=
201008010800 METAR MROC 010800Z 15003KT 9999 -DZ BKN100 19/19 A2996 BECMG=
201008010900 METAR MROC 010900Z 00000KT 9999 FEW005 BKN100 19/19 A2995 REDZ BECMG=
201008011000 METAR MROC NIL=
201008011100 METAR MROC 011100Z 07003KT CAVOK 19/19 A2994 RMK BKN100 BECMG=
201008011200 METAR MROC 011200Z 10005KT CAVOK 19/18 A2995 RMK BKN100 BECMG=
201008011300 METAR MROC 011300Z 07003KT CAVOK 21/18 A2996 BECMG 24006KT=
201008011400 METAR MROC 011400Z 10003KT CAVOK 22/18 A2998 RMK PCPN NE BKN230 BECMG 24006KT=
201008011500 METAR MROC 011500Z 07004KT CAVOK 23/19 A2998 RMK BKN250 BECMG 24006KT=
201008011600 METAR MROC 011600Z 24006KT 9999 FEW030 BKN250 23/20 A2998 BECMG=
201008011700 METAR MROC NIL=
201008011800 METAR MROC 011800Z 24004KT 9999 FEW030 SCT120 BKN250 26/22 A2995 BECMG=
201008011900 METAR MROC 011900Z 24005KT 9999 FEW030 BKN250 26/22 A2991 RMK TRACE 120 BECMG 8000 VCSH=
201008012000 METAR MROC 012000Z 25008KT 9999 SCT025 BKN250 24/22 A2989 BECMG=
201008012100 METAR MROC 012100Z 25008KT 9999 FEW025TCU BKN250 25/22 A2988 RMK HZY BECMG=
201008012200 METAR MROC 012200Z 26006KT 9999 VCTS VCSH FEW015CB SCT025 BKN100 23/22 A2991 RMK TS SE VIS N NE 8KMS BECMG 7000 -SHRA=
201008012300 METAR MROC 012300Z 26006KT 9999 VCTS VCSH FEW015CB SCT025 BKN100 23/22 A2991 RMK TS SE VIS N NE 8KMS BECMG 7000 -SHRA=
201008020000 METAR MROC 020000Z 00000KT 7000 -TSRA FEW004 FEW015CB BKN025 22/22 A2994 RMK VIS S SW W UNLTD BECMG 5000 -RA BR=
201008020040 METAR MROC 020040Z 00000KT 7000 -RA SCT030 BKN100 21/21 A2996 RETS RMK VIS E SE UNLTD BECMG=
201008020100 METAR MROC 020100Z 00000KT 9999 -RA FEW035 BKN100 20/20 A2996 BECMG=
201008020200 METAR MROC 020200Z 00000KT 9999 DZ FEW035 BKN100 20/20 A2998 RERA BECMG=
201008020300 METAR MROC 020300Z 00000KT 9999 FEW035 BKN250 20/20 A2999 REDZ RMK FEW100 BECMG=
201008020400 METAR MROC 020400Z 00000KT CAVOK 20/20 A2999 RMK SCT110 BKN200 BECMG=
201008020500 METAR MROC 020500Z 00000KT CAVOK 20/20 A2998 RMK FEW100 SCT200 BECMG=
201008020600 METAR MROC 020600Z 10003KT CAVOK 19/19 A2995 RMK OVC250 BECMG=
201008020700 METAR MROC 020700Z 00000KT CAVOK 19/19 A2995 RMK SCT100 SCT250 BECMG=
201008020800 METAR MROC 020800Z 00000KT 9999 FEW040 SCT100 BKN200 19/19 A2995 BECMG=
201008020900 METAR MROC 020900Z 00000KT 9999 FEW045 BKN110 19/19 A2996 BECMG=
201008021000 METAR MROC 021000Z 10004KT 9999 -DZ FEW040 BKN100 19/19 A2996 BECMG=
201008021100 METAR MROC 021100Z 10003KT CAVOK 19/19 A2995 REDZ RMK BKN100 BECMG=
201008021200 METAR MROC 021200Z 10003KT 9999 -RA BKN100 20/20 A2998 BECMG=
201008021300 METAR MROC 021300Z 29004KT 9999 -RA FEW020 BKN120 20/20 A3001 BECMG=
201008021400 METAR MROC 021400Z 00000KT 9999 FEW015 SCT120 BKN250 21/21 A3002 RERA BECMG=
201008021500 METAR MROC 021500Z 24003KT 9999 -RA FEW010 FEW020TCU BKN030 22/21 A3003 BECMG 5000 -RA BR=
201008021600 METAR MROC 021600Z 23007KT 9999 FEW010 BKN020 23/22 A3003 RERA=
201008021700 METAR MROC 021700Z 24006KT 9999 -RA FEW010 BKN020 23/22 A3002 BECMG=
201008021800 METAR MROC 021800Z 24005KT 9999 -RA FEW010 SCT020 BKN120 22/22 A3000 BECMG=
201008021900 METAR MROC 021900Z 26003KT 9999 SCT025 BKN120 24/21 A2997 BECMG=
201008022000 METAR MROC 022000Z 26005KT 9999 SCT025 BKN120 25/21 A2995 BECMG=
201008022100 METAR MROC 022100Z 24007KT 9999 SCT025 BKN120 24/22 A2995 RMK RA DST QUAD E BECMG=
201008022200 METAR MROC 022200Z 23006KT 9999 BKN010 24/22 A2996 RMK RA DST NE SE FEW120 BECMG 4000 BR=
201008022300 METAR MROC 022300Z 24008KT 9999 SCT010 SCT080 22/22 A2997 RMK FEW120 BECMG 4000 -RA BR=
201008030000 METAR MROC 030000Z 24003KT 5000 VCFG BKN008 21/21 A2999 BECMG 4000 -RA BR=
201008030100 METAR MROC 030100Z 00000KT 9999 VCFG SCT008 SCT100 21/21 A3000 BECMG=
201008030200 METAR MROC 030200Z 00000KT 9999 4500WSW BR FEW001 SCT008 21/21 A3001 RMK SCT100 BECMG=
201008030300 METAR MROC 030300Z 00000KT 5000 FEW003 SCT015 21/21 A3003 BECMG 2000 BR=
201008030400 METAR MROC 030400Z 00000KT 2000 BR SCT001 SCT010 21/21 A3004 BECMG=
201008030500 METAR MROC 030500Z 00000KT 5000 BR SCT003 SCT010 21/21 A3003 BECMG=
201008030600 METAR MROC 030600Z 00000KT 5000 BR FEW003 SCT120 20/20 A3002 BECMG=
201008030700 METAR MROC 030700Z 00000KT 7000 FG FEW003 20/20 A3000 BECMG=
201008030800 METAR MROC 030800Z 99999KT 8000 VCFG 19/19 A3000 BECMG=
201008030900 METAR MROC 030900Z 00000KT 8000 VCFG FEW002 19/19 A3001 BECMG=
201008031000 METAR MROC 031000Z 06004KT 8000 FEW003 19/19 A2999 BECMG=
201008031100 METAR MROC 031100Z 08006KT 9999 FEW025 SCT120 20/20 A3000 BECMG=
201008031200 METAR MROC 031200Z 08007KT 9999 FEW025 SCT120 21/20 A3001 BECMG=
201008031300 METAR MROC 031300Z 10004KT 9999 FEW010 BKN250 23/21 A3001 BECMG=
201008031400 METAR MROC 031400Z 22004KT 9999 FEW020 BKN250 24/21 A3002 RMK LW ST DST WSW BECMG=
201008031500 METAR MROC 031500Z 25006KT 9999 FEW030 BKN250 25/22 A3003 RMK BR DST WSW TCU DST E BECMG=
201008031600 METAR MROC 031600Z 24007KT 9999 SCT030 BKN250 26/22 A3003 RMK BR DST WSW TCU ARND BECMG=
201008031700 METAR MROC 031700Z 24006KT 9999 FEW030TCU SCT100 BKN200 26/23 A3003 RMK RA DST E BECMG=
201008031800 METAR MROC 031800Z 26006KT 9999 FEW030 SCT030CB SCT100 26/23 A3002 RMK BR DST WSW BECMG 5000 SHRA=
201008031900 METAR MROC 031900Z 24007KT 9999 FEW010 SCT030 BKN100 25/23 A3000 RMK BR DST ARND BECMG 5000 -SHRA=
201008032000 METAR MROC 032000Z 23005KT 9999 4500WSW BCFG SCT015 BKN100 25/24 A2998 BECMG 4000 BR=
201008032100 METAR MROC 032100Z 24007KT 6000 2000SW BR FEW001 SCT015 BKN100 23/23 A2998 BECMG=
201008032200 METAR MROC 032200Z 25005KT 6000 2000SW BR FEW001 SCT015 BKN100 23/23 A2997 BECMG=
201008032300 METAR MROC 032300Z 25003KT 4000 BR FEW001 SCT005 BKN100 22/22 A2998 BECMG 2000 -RA BR=
201008040000 METAR MROC 040000Z 22002KT 3000 BR FEW001 SCT005 BKN100 22/22 A3000 BECMG 2000 -RA BR=
201008040100 METAR MROC 040100Z 00000KT 6000 2000SW BR FEW001 SCT010 BKN100 22/22 A3001 BECMG=
201008040200 METAR MROC 040200Z 10005KT 9999 4000SW FEW001 SCT030 BKN100 22/22 A3001 BECMG=
201008040300 METAR MROC 040300Z 13007KT 9999 FEW035 SCT120 23/20 A3002 BECMG=
201008040400 METAR MROC 040400Z 040400Z07004KT CAVOK 22/20 A3002 RMK FEW120 SCT250 BECMG=
201008040500 METAR MROC 040500Z 05003KT CAVOK 21/20 A3001 RMK SCT250 BECMG=
201008040600 METAR MROC 040600Z 00000KT CAVOK 20/20 A2999 RMK SCT250 LIGERA NIEBLA AL SUR BECMG=
201008040700 METAR MROC 040700Z 06005KT CAVOK 20/20 A2997 RMK SCT250 BECMG=
201008040800 METAR MROC 040800Z 00000KT 9999 3000SW BR BKN250 19/19 A2995 RMK FG BANK S SW NEAR APCH RNY07 BECMG 3000=
201008040900 METAR MROC 040900Z 00000KT 0200 FG VV/// 20/20 A2996 RMK VIS N NE 2KMS BECMG=
201008041100 METAR MROC 041100Z 00000KT 9999 VCFG FEW030 BKN250 18/18 A2997 RMK VIS S SW 8KMS LTNG DST S BECMG=
201008041200 METAR MROC 041200Z 10003KT CAVOK 19/19 A2998 RMK FEW120 BKN250 CB DST S SW BECMG=
201008041300 METAR MROC 041300Z 08008KT CAVOK 21/19 A3000 RMK CB DST S SW FEW120 BKN250 BECMG=
201008041400 METAR MROC 041400Z 09007KT CAVOK 24/19 A3001 RMK CB DST S SW FEW120 BKN250 BECMG=
201008041500 METAR MROC 041500Z 00000KT CAVOK 26/18 A3001 RMK CB DST SW FEW120 BKN250 BECMG 24006KT=
201008041600 METAR MROC 041600Z 22006KT CAVOK 27/21 A2999 RMK CB DST SW FEW120 BKN250 BECMG=
201008041700 METAR MROC 041700Z 22004KT 9999 FEW040 SCT120 BKN250 26/22 A3000 BECMG=
201008041800 METAR MROC 041800Z 24009KT 9999 FEW040 SCT120 BKN250 26/23 A2998 BECMG=
201008041900 METAR MROC 041900Z 24009KT 9999 FEW040 SCT120 BKN250 26/23 A2996 BECMG=
201008042000 METAR MROC 042000Z 25008KT 9999 SCT040 BKN120 25/23 A2994 BECMG=
201008042100 METAR MROC 042100Z 23007KT 9999 FEW025 BKN120 24/22 A2994 RMK FEW040 RN DST NE BECMG=
201008042200 METAR MROC 042200Z 30006KT 9999 FEW025 BKN110 24/22 A2993 BECMG=
201008042300 METAR MROC 042300Z 23004KT 9999 FEW025 BKN110 23/22 A2995 RMK FEW035 VIS 7KM NW DUE LOW ST RN DST E BECMG=
201008042339 METAR MROC 042339Z 24003KT 7000 3000N -RA VCTS SCT020 BKN110 23/23 A2996 BECMG 4000 BR=
201008050000 METAR MROC 050000Z 00000KT 7000 3000N -RA VCTS SCT020 SCT100 22/22 A2997 BECMG 5000 -RA BR=
201008050100 METAR MROC 050100Z 00000KT 9000 4500NW BR FEW025 SCT100 BKN250 22/22 A2996 BECMG=
201008050200 METAR MROC 050200Z VRB02KT 9999 FEW025 BKN250 23/22 A2998 RMK FEW100 BECMG=
201008050300 METAR MROC 050300Z 00000KT 9999 BCFG SCT030 BKN250 22/21 A3000 RMK FEW100 BR ARND BECMG=
201008050400 METAR MROC 050400Z 00000KT 9999 4500WSW BR BCFG FEW030 BKN250 21/21 A3003 RMK FEW120 BECMG=
201008050500 METAR MROC 050500Z 00000KT 9999 4500WSW BR BCFG FEW005 SCT025 SCT120 21/21 A3002 BECMG=
201008050600 METAR MROC 050600Z 00000KT 9999 4500WSW BR BCFG SCT003 21/21 A3001 RMK FEW080 TS DST SW BECMG=
201008050700 METAR MROC 050700Z 00000KT 9999 4500WSW BR BCFG BKN003 21/21 A2998 BECMG=
201008050800 METAR MROC 050800Z 00000KT 4000 BR FEW001 BKN002 21/21 A2997 BECMG=
201008050900 METAR MROC 050900Z 00000KT 3000 BR SCT001 BKN002 20/20 A2996 BECMG 0900 FG=
201008051000 METAR MROC 051000Z 06003KT 4000 BR BCFG SCT002 20/20 A2996 BECMG 5000=
201008051100 METAR MROC 051100Z 11003KT 9999 4000WSW BR BCFG SCT015 BKN250 20/20 A2996 BECMG=
201008051200 METAR MROC 051200Z 08005KT 9999 VCFG BKN250 20/20 A2996 BECMG CAVOK=
201008051300 METAR MROC 051300Z 08006KT CAVOK 22/20 A2998 RMK BKN250 HZ DST SW/E BECMG=
201008051400 METAR MROC 051400Z 11004KT CAVOK 25/20 A2997 RMK SCT250 HZ QUAD W/E BECMG=
201008051500 METAR MROC 051500Z VRB02KT CAVOK 27/20 A2999 RMK FEW050 SCT250 HZ W BECMG 24006KT=
201008051600 METAR MROC 051600Z 23009KT 9999 SCT045 27/22 A3000 RMK FEW250 TCU DST W BECMG=
201008051700 METAR MROC 051700Z 24009KT 9999 FEW035TCU SCT045 26/22 A2999 BECMG=
201008051800 METAR MROC 051800Z 24009KT 9999 FEW030TCU SCT045 27/23 A2997 RMK RN DST NE/S BECMG=
201008051900 METAR MROC 051900Z 23008KT 9999 VCSH FEW025TCU BKN040 25/23 A2995 RMK FEW100 BECMG 7000 -HSRA=
201008052000 METAR MROC 052000Z 24008KT 7000 RA VCSH SCT020TCU BKN040 25/23 A2994 BECMG 5000 RA=
201008052100 METAR MROC 052100Z 20006KT 9999 DZ SCT010TCU BKN025 22/22 A2995 RMK 7000 W DUE RA BECMG 4000 TSRA=
201008052200 METAR MROC 052200Z 32005KT 2000 -RA BR FEW002 SCT010 BKN020 21/21 A2997 BECMG 0500 -RA FG VV///=
201008052228 METAR MROC 052228Z 04003KT 3000 RA BR FEW003 SCT010 BKN025 21/21 A2998 BECMG 2000 -RA BR=
201008052300 METAR MROC 052300Z 27003KT 3000 RA BR FEW002 SCT010 BKN020 21/21 A2999 BECMG 0500 -RA FG VV///=
201008060000 METAR MROC 060000Z 29003KT 4000 RA BR FEW004 SCT015 OVC100 21/21 A3001 BECMG 2000 -RA BR=
201008060100 METAR MROC 060100Z 290002KT 9999 SCT020 OVC100 20/20 A3002 BECMG=
201008060200 METAR MROC 060200Z 00000KT 9999 FEW003 SCT020 OVC100 20/20 A3004 BECMG=
201008060300 METAR MROC 060300Z 06003KT 9999 FEW003 SCT020 OVC100 20/20 A3003 BECMG=
201008060400 METAR MROC 060400Z 00000KT 9999 -DZ FEW030 OVC100 20/20 A3002 BECMG=
201008060500 METAR MROC 060500Z 00000KT CAVOK 20/20 A3001 REDZ RMK OVC100 BECMG=
201008060600 METAR MROC 060600Z 00000KT CAVOK 20/20 A3001 RMK BKN100 BCFG S BECMG=
201008060700 METAR MROC 060700Z 00000KT 2000 DZ BR FEW001 OVC100 20/20 A3000 RMK VIS N UNL BECMG=
201008060800 METAR MROC 060800Z 07005KT CAVOK 20/20 A2998 REDZ RMK OVC100 BECMG=
201008060900 METAR MROC 060900Z 13003KT CAVOK 20/20 A2997 RMK OVC100 BECMG=
201008061000 METAR MROC 061000Z 11002KT CAVOK 20/20 A2998 RMK OVC100 BECMG=
201008061100 METAR MROC 061100Z 10003KT CAVOK 19/19 A2999 RMK BKN100 BECMG=
201008061200 METAR MROC 061200Z 00000KT CAVOK 19/19 A3001 SCT100 BKN250 CB DST S=
201008061300 METAR MROC 061300Z 00000KT CAVOK 21/21 A3004 RMK SCT100 BKN250 BECMG 24006KT=
201008061400 METAR MROC 061400Z 00000KT 9999 SCT020 BKN250 23/21 A3005 BECMG 24006KT=
201008061500 METAR MROC 061500Z 00000KT 9999 FEW020 BKN250 24/21 A3004 BECMG 24006KT=
201008061600 METAR MROC 061600Z 00000KT 9999 FEW020 BKN250 26/21 A3004 BECMG 24006KT=
201008061700 METAR MROC 061700Z 26005KT 9999 SCT020TCU SCT250 26/22 A3004 BECMG=
201008061800 METAR MROC 061800Z 23010KT 9999 FEW015TCU SCT030 27/23 A3003 RNK SCT250 BECMG=
201008061900 METAR MROC 061900Z 24008KT 9999 SCT010TCU BKN030 25/23 A3000 BECMG 5000 TSRA=
201008062000 METAR MROC 062000Z 24010KT 9999 FEW005 BKN015 25/23 A3000 BECMG 5000 -TSRA=
201008062100 METAR MROC 062100Z 24006KT 9999 -RADZ FEW015TCU BKN025 23/22 A2999 BECMG=
201008062200 METAR MROC 062200Z 24009KT 9999 FEW015TCU SCT025 BKN100 24/22 A2997 RERADZ RMK RASH DST E ESE BECMG 8000 VCSH=
201008062300 METAR MROC 062300Z 24007KT 8000 -RA VCSH FEW006 SCT010 BKN020 22/22 A3000 VIS SE UNLTD BECMG 5000 -RA BR=
201008070000 METAR MROC 070000Z 21005KT 5000 -RA BR SCT004 BKN010 21/21 A3003 RMK=
201008070100 METAR MROC 070100Z 22005KT 8000 -RA VCFG SCT005 BKN015 20/20 A3008 RMK LTNG DST N BECMG=
201008070200 METAR MROC 070200Z 32005KT 9999 DZ SCT020 BKN100 20/20 A3010 BECMG=
201008070300 METAR MROC 070300Z VRB02KT 9999 FEW020 BKN100 21/21 A3009 BECMG=
201008070400 METAR MROC 070400Z 10003KT CAVOK 20/20 A3010 RMK SCT100 BECMG=
201008070500 METAR MROC 070500Z 11003KT CAVOK 20/20 A3008 RMK FEW250 BECMG=
201008070600 METAR MROC 070600Z 07005KT CAVOK 20/20 A3006 RMK FEW100 BECMG=
201008070700 METAR MROC 070700Z 09005KT CAVOK 19/19 A3005 RMK SCT100 BECMG=
201008070800 METAR MROC 070800Z 09004KT CAVOK 19/19 A3003 RMK FEW100 BECMG=
201008070900 METAR MROC 070900Z 00000KT CAVOK 18/18 A3002 RMK FEW120 BECMG=
201008071000 METAR MROC 071000Z 10003KT CAVOK 18/18 A3003 RMK FEW150 BECMG=
201008071100 METAR MROC 071100Z 00000KT CAVOK 18/18 A3003 RMK FEW100 BECMG=
201008071200 METAR MROC 071200Z 09004KT CAVOK 18/18 A3004 RMK BKN300 BECMG=
201008071300 METAR MROC 071300Z 12003KT 9999 FEW015 BKN250 20/19 A3006 BECMG=
201008071400 METAR MROC 071400Z 10004KT CAVOK 23/20 A3005 RMK BKN250 BECMG=
201008071500 METAR MROC 071500Z 00000KT 9999 FEW025 BKN250 25/19 A3005 BECMG 24006KT=
201008071600 METAR MROC 071600Z 24005KT 9999 FEW025 BKN250 26/22 A3005 BECMG=
201008071700 METAR MROC 071700Z 24006KT 9999 FEW025 SCT040 BKN250 26/23 A3004 BECMG=
201008071800 METAR MROC 071800Z 22007KT 9999 FEW015TCU SCT025 BKN100 24/23 A3003 BECMG 6000 SHRA=
201008071900 METAR MROC 071900Z 21004KT 4000 -RA BR FEW006 SCT012 BKN100 22/22 A3002=
201008072000 METAR MROC 072000Z 25005KT 8000 3000N DZ BR FEW005 SCT025 BKN070 22/22 A3001 LOW ST AND VIS 5KMS TO SW BECMG 5000 BR=
201008072100 METAR MROC 072100Z 22003KT 4500 BR BCFG SCT005 BKN070 22/22 A3000 BECMG 3000=
201008072200 METAR MROC 072200Z 21005KT 4500 BR DZ BCFG SCT002 SCT070 22/22 A3000 RMK FEW010 BECMG 5000=
201008072300 METAR MROC 072300Z 00000KT 2000 -DZ BR BCFG SCT005 SCT020 21/21 A3001 RMK FEW050 BECMG=
201008080000 METAR MROC 080000Z 18002KT 2000 RA BR BCFG FEW005 SCT020 21/21 A3002 RMK SCT080 BECMG 3000=
201008080100 METAR MROC 080100Z 00000KT 9999 SCT030 BKN100 21/21 A3004 RERA RMK BR ARND BECMG=
201008080200 METAR MROC 080200Z 00000KT 9999 4000N -DZ BR BCFG SCT002 BKN015 21/21 A3006 BECMG=
201008080300 METAR MROC 080300Z 00000KT 5000 BR FEW002 BKN015 20/20 A3007 RMK BECMG 1000 BR OVC001=
201008080400 METAR MROC 080400Z 05004KT 8000 VCFG FEW003 BKN020 21/21 A3009 BECMG=
201008080500 METAR MROC 080500Z 23003KT 0500 FG BKN001 20/20 A3009 BECMG 1200 BR=
201008080600 METAR MROC 080600Z 00000KT 4000 -RA BR SCT003 BKN010 20/20 A3008 BECMG=
201008080700 METAR MROC 080700Z 00000KT 5000 -DZ BR SCT004 BKN015 20/20 A3006 BECMG=
201008080800 METAR MROC 080800Z 00000KT 9999 VCFG FEW002 BKN020 20/20 A3004 RMK BECMG 2000 BR BKN001=
201008080900 METAR MROC 080900Z 00000KT 9999 DZ VCFG FEW002 BKN030 20/20 A3004 RMK BECMG 7000 RA=
201008081000 METAR MROC 081000Z 00000KT 9999 1000NW BR SCT001 BKN030 20/20 A3003 REDZ BECMG 5000 BR=
201008081100 METAR MROC 081100Z 00000KT 9999 FEW002 SCT030 BKN100 20/20 A3003 BECMG=
201008081200 METAR MROC 081200Z 00000KT 9999 4000N BR FEW005 SCT120 BKN220 20/20 A3004 BECMG=
201008081300 METAR MROC 081300Z 00000KT 9999 3000NW BR SCT012 BKN120 20/20 A3006 BECMG=
201008081400 METAR MROC 081400Z 28002KT 9999 VCFG SCT020 BKN150 22/22 A3007 VIS WSW 8KM DUE FG BNK BECMG=
201008081500 METAR MROC 081500Z 00000KT 9999 VCFG SCT020 BKN100 23/22 A3007 RMK TCU DST ARND BR ARND BECMG 24006KT=
201008081600 METAR MROC 081600Z 00000KT 9999 FEW020 SCT080 26/21 A3006 RMK SCT250 BR ARND BECMG=
201008081700 METAR MROC 081700Z 23007KT 9999 SCT020 SCT250 26/23 A3003 RMK FEW080 TCU BR ARND BECMG=
201008081800 METAR MROC 081800Z 23008KT 9999 FEW020TCU SCT030 25/22 A3002 RMK FEW080 FEW250 RA DST E BR ARND BECMG 8000 VCSH=
201008081900 METAR MROC 081900Z 23010KT 9999 BCFG SCT020TCU FEW250 26/23 A3000 RMK BR ARND BECMG 5000 SHRA=
201008082000 METAR MROC 082000Z 24009KT 4500 BR SCT015TCU BKN070 23/23 A2999 RMK RA W WSW BECMG 4000 -RA BR=
201008082100 METAR MROC 082100Z 29006KT 2000 -TSRA BR FEW001 SCT010 BKN020 21/21 A2999 BECMG=
201008082200 METAR MROC 082200Z VRB02KT 8000 3000SW BR FEW001 SCT010 BKN020 20/20 A3000 BECMG=
201008082300 METAR MROC 082300Z 09004KT 8000 3000SW BR FEW001 SCT020 BKN100 20/20 A2999 RERA BECMG=
201008082310 METAR MROC 082310Z 28003KT 5000 RA SCT008 BKN020 26/25 A2981=
201008090000 METAR MROC 090000Z 10003KT 9999 FEW005 SCT020 BKN100 21/21 A3000 RMK BCFG SW BECMG=
201008090100 METAR MROC 090100Z 00000KT 9999 FEW020 BKN100 21/21 A3001 RMK BCFG SW BECMG=
201008090200 METAR MROC 090200Z 30003KT 1500 BR FEW001 SCT003 BKN100 20/20 A3003 RMK VIS N UNL=
201008090300 METAR MROC 090300Z 00000KT 9999 VCFG FEW005 BKN100 20/20 A3004 BECMG=
201008090400 METAR MROC 090400Z 15003KT CAVOK 20/20 A3006 RMK BKN120 HZY BECMG=
201008090500 METAR MROC 090500Z 06002KT 9999 FEW015 SCT120 20/20 A3005 RMK HZY BECMG=
201008090600 METAR MROC 090600Z 10003KT CAVOK 20/20 A3004 RMK SCT120 HZY BECMG=
201008090700 METAR MROC 090700Z 07002KT CAVOK 19/19 A3001 RMK SCT120 BECMG=
201008090800 METAR MROC 090800Z 08004KT 9999 -RA BKN120 20/20 A2999 BECMG=
201008090900 METAR MROC 090900Z 12004KT 9999 -RA BKN120 20/20 A2999 BECMG=
201008091000 METAR MROC 091000Z 32003KT 9999 -RA BKN120 20/20 A3000 BECMG=
201008091100 METAR MROC 091100Z 08002KT CAVOK 20/20 A3001 RMK BKN120 BECMG=
201008091200 METAR MROC 091200Z 00000KT CAVOK 20/20 A3001 RMK SCT080 BKN120 BECMG=
201008091300 METAR MROC 091300Z 03002KT CAVOK 21/21 A3001 RMK SCT080 BKN120 BECMG 24005KT=
201008091400 METAR MROC 091400Z 09002KT CAVOK 23/21 A3002 RMK BKN120 BECMG 24005KT=
201008091500 METAR MROC 091500Z 22003KT CAVOK 23/22 A3005 RMK BKN120 BECMG=
201008091600 METAR MROC 091600Z 00000KT 9999 FEW040 BKN120 25/21 A3005 BECMG=
201008091700 METAR MROC 091700Z 10011KT 9999 FEW040 BKN120 27/20 A3003 BECMG=
201008091800 METAR MROC 091800Z 14005KT 110V180 9999 SCT040 BKN120 27/21 A3002 BECMG=
201008091900 METAR MROC 091900Z 25012KT 9999 FEW040 SCT120 BKN250 26/24 A2998 BECMG=
201008092000 METAR MROC 092000Z 26008KT 9999 SCT030 BKN250 26/24 A2997 RMK SCT120 BECMG=
201008092100 METAR MROC 092100Z 25008KT 9999 SCT020 BKN045 25/24 A2996 RMK FEW250 TCU ARND RN DST NE BECMG=
201008092200 METAR MROC 092200Z 24009KT 9999 RA VCSH FEW015TCU FEW020 SCT025 OVC120 24/23 A2997 RMK VIS 7KM NE/N/NW BECMG 5000 SHRA=
201008092300 METAR MROC 092300Z 25007KT 5000 2000NW BR FEW009TCU SCT015 BKN035 22/22 A2997 RERA BECMG 3000 RABR=
201008100000 METAR MROC 100000Z 24007KT 4500 2000NW BR FEW002 SCT006 BKN020 22/22 A3000 BECMG 3000 BR=
201008100100 METAR MROC 100100Z 24003KT 9000 4000NW RA VCTS SCT004 BKN030 22/22 A3002 BECMG=
201008100200 METAR MROC 100200Z 06003KT 9999 -RA FEW020 OVC080 21/21 A3002 RMK VIS 7KM NW DUE LOW ST BECMG=
201008100300 METAR MROC 100300Z 00000KT 9999 4500WSW +RA BR VCBCFG FEW025 SCT120 BKN250 21/21 A3002 BECMG=
201008100400 METAR MROC 100400Z 00000KT 9999 4500WSW BR SCT001 SCT010 21/21 A3006 RERA RMK FEW030 VIS QUAD N 5000 BECMG=
201008100500 METAR MROC 100500Z 27003KT 9999 SCT004 BKN010 21/21 A3007 RMK FEW120=
201008100600 METAR MROC 100600Z 00000KT 9999 4500WSW BR FEW001 SCT080 21/21 A3005 RMK FEW120 BECMG=
201008100700 METAR MROC 100700Z 00000KT 9999 FEW007 BKN013 21/21 A3003 RMK BR ARND BECMG=
201008100800 METAR MROC 100800Z 00000KT 9999 4500WSW BR VCBCFG SCT001 BKN020 21/21 A3001 BECMG=
201008100900 METAR MROC 100900Z 00000KT 9999 4500WSW BR VCBCFG SCT001 BKN020 21/21 A2999 RMK VIS QUAD N 5000 BECMG=
201008101000 METAR MROC 101000Z 00000KT 9999 4500WSW BR VCBCFG FEW001 BKN012 21/21 A2999 RMK VIS QUAD N 5000 BECMG=
201008101100 METAR MROC 101100Z 04002KT 9999 4500WSW BR FEW002 BKN013 21/21 A3000 BECMG=
201008101200 METAR MROC 101200Z 10003KT 9999 SCT025 SCT120 20/20 A3001 RMK FEW250 BR VCNTY TCU DST S BECMG=
201008101300 METAR MROC 101300Z 00000KT 9999 FEW010 SCT120 SCT250 23/21 A3002 RMK HZ QUAD E BECMG 24005KT=
201008101400 METAR MROC 101400Z 00000KT 9999 FEW020 SCT250 25/21 A3003 RMK HZ QUAD E/S BECMG 24005KT=
201008101500 METAR MROC 101500Z 24004KT 9999 FEW040 SCT250 26/22 A3003 RMK HZ ARND BECMG=
201008101600 METAR MROC 101600Z 24006KT 9999 SCT040 27/23 A3003 RMK FEW250 HZY QUAD E/N BECMG=
201008101700 METAR MROC 101700Z 24008KT 9999 FEW030TCU SCT040 27/23 A3001 RMK HZ QUAD E BECMG=
201008101800 METAR MROC 101800Z 23010KT 9999 FEW030TCU SCT035 27/23 A3001 RMK RN DST NE BECMG=
201008101900 METAR MROC 101900Z 24010KT 9000 RA VCTS SCT015 BKN030 25/24 A2998 RMK VIS 5KM SSW BECMG 5000 SHRA=
201008102000 METAR MROC 102000Z 21003KT 8000 RA VCTS FEW015 BKN030 22/22 A3000 RMK BECMG 4000 SHRA=
201008102100 METAR MROC 102100Z VRB02KT 9999 -RA SCT025 OVC100 21/21 A2998 BECMG 5000 TSRA=
201008102200 METAR MROC 102200Z 24003KT 9999 SCT030 BKN120 22/21 A2997 RERA BECMG=
201008102300 METAR MROC 102300Z 28004KT 9999 SCT020TCU BKN250 22/22 A2999 RMK FEW120 BECMG=
201008110000 METAR MROC 110000Z 25003KT 9000 FEW010 SCT030 BKN250 22/22 A3001 RMK LOW ST SW BECMG 5000 BR=
201008110100 METAR MROC 110100Z 00000KT 9000 -RA FEW010 SCT030 SCT100 22/22 A3003 RMK SCT120 BECMG=
201008110200 METAR MROC 110200Z 27004KT 9999 -DZ FEW005 SCT030 SCT100 21/21 A3006 RMK LTNG DST S SCT250 BECMG=
201008110300 METAR MROC 110300Z 33003KT 9999 FEW005 SCT030 BKN100 21/21 A3007 REDZ RMK LTNG DST S BECMG=
201008110400 METAR MROC 110400Z 00000KT 9999 FEW005 SCT030 BKN100 21/21 A3008 BECMG=
201008110500 METAR MROC 110500Z 18005KT 9999 FEW005 SCT030 SCT100 20/20 A3005 BECMG=
201008110600 METAR MROC 110600Z 03003KT CAVOK 20/20 A3004 RMK SCT100 SCT250 BECMG=
201008110700 METAR MROC 110700Z 00000KT CAVOK 20/20 A3003 RMK SCT100 SCT250 BECMG=
201008110800 METAR MROC 110800Z VRB02KT CAVOK 20/20 A3001 RMK SCT100 SCT250 BECMG=
201008110900 METAR MROC 110900Z 14002KT CAVOK 19/19 A3000 RMK SCT100 SCT250 BECMG=
201008111000 METAR MROC 111000Z 05003KT CAVOK 19/19 A3000 RMK SCT120 SCT250 BECMG=
201008111100 METAR MROC 111100Z 00000KT 9999 FEW030 SCT120 BKN250 20/20 A3002 BECMG=
201008111200 METAR MROC 111200Z VRB02KT 9999 3000SW BR FEW001 SCT005 BKN030 20/20 A3003 BECMG=
201008111300 METAR MROC 111300Z VRB02KT 7000 VCFG FEW002 BKN025 21/21 A3005 BECMG 24006KT=
201008111400 METAR MROC 111400Z 21003KT 8000 VCFG FEW009 SCT020 BKN250 22/22 A3007 BECMG 8000 VCSH=
201008111500 METAR MROC 111500Z 20003KT 8000 VCFG FEW008 SCT020 SCT110 22/21 A3008 BECMG 5000 RA BR=
201008111600 METAR MROC 111600Z 25004KT 9999 SCT007 BKN020 23/22 A3007 BECMG 7000 RA=
201008111700 METAR MROC 111700Z 26005KT 9999 SCT007 BKN020 24/22 A3006 BECMG=
201008111800 METAR MROC 111800Z 24008KT 9999 SCT015 SCT110 26/22 A3004 RMK SCT250 BECMG=
201008111900 METAR MROC 111900Z 23005KT 9999 SCT020 BKN120 25/23 A3000 BECMG 6000 RA=
201008112000 METAR MROC 112000Z 25011KT 8000 VCSH BKN010TCU 23/23 A2999 RMK UNL W BECMG 5000 -SHRA=
201008112100 METAR MROC 112100Z 20009KT 9999 -RA VCSH FEW015 SCT030 BKN100 19/19 A3000 RMK VIS NW N 8KMS BECMG 5000 -RA BR=
201008112200 METAR MROC 112200Z 27004KT 9999 -RA VCFG FEW015 SCT025 BKN100 20/20 A3003 RASH NW E SE BECMG 5000 -RA BR=
201008112300 METAR MROC 112300Z 00000KT 9999 SHRA FEW007 BKN015 20/20 A3003 VIS WNW NW N 5KMS BECMG 5000 -RA BR=
201008120000 METAR MROC 120000Z 35003KT 4000 DZ BR FEW004 SCT010 BKN020 20/20 A3005 VIS S SW 2KMS BECMG 2000 -RA BR=
201008120100 METAR MROC 120100Z 00000KT 9999 -DZ VCFG SCT015 BKN100 20/20 A3007 VIS W 8KMS BECMG=
201008120200 METAR MROC 120200Z 00000KT 9999 FEW020 BKN100 20/20 A3008 BECMG=
201008120300 METAR MROC 120300Z 00000KT 9999 VCFG FEW045 BKN080 20/20 A3010 RMK VIS 7KM W/NW BECMG=
201008120350 METAR MROC 120350Z VRB02KT 5000 1500SW BR SCT001 BKN070 20/20 A3010 RMK BECMG 2000=
201008120400 METAR MROC 120400Z 00000KT 5000 1500SW -DZ BR SCT001 BKN040 20/20 A3010 RMK VIS 8KM NE BECMG=
201008120411 METAR MROC 120411Z 24003KT 1500 -DZ BR SCT001 BKN006 20/20 A3010 BECMG=
201008120500 METAR MROC 120500Z 00000KT 1500 BR SCT001 BKN003 20/20 A3010 BECMG 2000 BKN0 10=
201008120600 METAR MROC 120600Z 00000KT 2000 BR SCT001 BKN010 20/20 A3009 BECMG=
201008120700 METAR MROC 120700Z 00000KT 9999 VCFG FEW001 BKN060 20/20 A3006 RMK VIS 7KM SW/W BECMG=
201008120800 METAR MROC 120800Z 08003KT CAVOK 20/20 A3003 RMK BKN080 BECMG=
201008120900 METAR MROC 120900Z 08005KT CAVOK 20/20 A3002 RMK SCT090 BECMG=
201008121000 METAR MROC 121000Z 00000KT CAVOK 19/19 A3001 RMK SCT100 BCFG QUAD S/W BECMG=
201008121100 METAR MROC 121100Z 00000KT 0100 FG VV/// 19/19 A3002 BECMG=
201008121200 METAR MROC 121200Z 09003KT 2000 BR SCT001 BKN120 19/19 A3004 BECMG=
201008121300 METAR MROC 121300Z 00000KT 9999 4000SW BR SCT120 BKN250 19/19 A3004 RMK FG BANK TO S SW W BECMG CAVOK=
201008121400 METAR MROC 121400Z 25003KT 9999 VCFG FEW120 BKN250 22/21 A3005 RMK VIS SW W 8KMS BECMG=
201008121500 METAR MROC 121500Z 27002KT CAVOK 24/21 A3006 RMK SCT120 SCT250 HZY BECMG=
201008121600 METAR MROC 121600Z 23005KT 9999 FEW040 SCT120 BKN250 25/22 A3005 HZY BECMG=
201008121700 METAR MROC 121700Z 23006KT 9999 FEW040 SCT140 BKN250 26/23 A3005 RMK HZY BECMG=
201008121800 METAR MROC 121800Z 23009KT 9999 FEW015 SCT030 BKN250 25/23 A3004 HZY BECMG 7000 SHRA=
201008121900 METAR MROC 121900Z 24007KT 8000 -RA FEW010TCU BKN025 24/23 A3002 RMK VIS N NE 5KMS BECMG 4000 SHRA=
201008122000 METAR MROC 122000Z 19004KT 9999 4000N SHRA FEW012CB BKN020 23/23 A3000 RASH NW N NE BECMG 4000 TSRA=
201008122100 METAR MROC 122100Z 24006KT 4000 BR DZ VCBCFG FEW006 BKN020 23/23 A2999 RESHR A BECMG 3000=
201008122200 METAR MROC 122200Z 23002KT 4000 BR SCT005TCU FEW020 23/23 A2997 REDZ RMK FEW100 BCFG DST WSW VIS QUAD S UNL BECMG=
201008122300 METAR MROC 122300Z 22004KT 8000 -DZ BKN008 22/22 A2998 RMK FEW100 BR VCNTY BECMG 5000 -RA BR=
201008130000 METAR MROC 130000Z 25003KT 8000 BCFG BKN005 22/22 A2999 RMK FEW100 FEW250 BR VCNTY BECMG 6000=
201008130100 METAR MROC 130100Z 00000KT 8000 3000N RA BCFG FEW001 BKN004 22/22 A3002 BECMG=
201008130200 METAR MROC 130200Z 00000KT 9999 FEW001 BKN030 21/21 A3003 RERA RMK TS DST S BECMG 5000 DZ BR=
201008130300 METAR MROC 130300Z 09002KT 9999 SCT020 OVC100 21/21 A3004 RERA BECMG=
201008130400 METAR MROC 130400Z 12004KT 9999 SCT020 OVC100 21/21 A3005 BECMG=
201008130500 METAR MROC 130500Z 14003KT 9999 SCT020 BKN100 22/20 A3005 BECMG=
201008130600 METAR MROC 130600Z 02004KT 9999 SCT025 BKN100 21/21 A3001 BECMG=
201008130700 METAR MROC 130700Z 99999KT 9999 SCT025 BKN100 21/21 A3001 BECMG=
201008130800 METAR MROC 130800Z 00000KT 9999 3000NW BR SCT002 SCT025 BKN100 20/20 A2999 BECMG=
201008130900 METAR MROC 130900Z 24003KT 9999 SCT030 BKN100 20/20 A2999 BECMG=
201008131000 METAR MROC 131000Z 00000KT 9999 FEW030 BKN120 20/20 A3000 BECMG=
201008131100 METAR MROC 131100Z 08003KT CAVOK 20/20 A3000 RMK BKN120 BECMG=
201008131200 METAR MROC 131200Z 00000KT 9999 FEW030 BKN120 20/20 A3002 BECMG=
201008131300 METAR MROC 131300Z 07003KT 9999 SCT030 BKN120 21/21 A3004 BECMG=
201008131400 METAR MROC 131400Z 00000KT 9999 -RA FEW001 SCT030 22/21 A3005 RMK SCT100 BR VCNTY BECMG 24006KT=
201008131425 METAR MROC 131425Z 26003KT 9999 FEW030 SCT050 22/22 A3006 RERA RMK FEW100 BR VCNTY TCU DST ARND BECMG=
201008131500 METAR MROC 131500Z 26005KT 9999 -DZ SCT015 22/22 A3007 RMK FEW030 FEW100 BR VCNTY BCFG DST SW BECMG=
201008131600 METAR MROC 131600Z 27003KT 9999 -RA SCT020 BKN100 23/22 A3006 RMK FEW070 BR VCNTY BECMG=
201008131700 METAR MROC 131700Z 22004KT 9999 -DZ SCT010 BKN080 24/22 A3005 RMK FEW030 BR VCNTY BECMG=
201008131800 METAR MROC 131800Z 21003KT 9999 FEW015TCU SCT030 SCT080 23/22 A3004 RERA RMK RA DST E WET RWY BECMG 8000 -RA=
201008131900 METAR MROC 131900Z 00000KT 9999 DZ SCT030 SCT070 24/21 A3001 RMK FEW100 TCU DST ARND BECMG 8000 -RA=
201008132000 METAR MROC 132000Z 26003KT 9999 FEW008TCU FEW045 SCT080 24/21 A3000 RMK RA QUAD E NE BECMG 6000 -RA=
201008132100 METAR MROC NIL=
201008132200 METAR MROC 132200Z 26008KT 9999 FEW005 SCT040 BKN100 23/22 A2996 BECMG 8000 -RA BR=
201008132300 METAR MROC 132300Z 28006KT 9999 FEW005 SCT040 BKN130 22/22 A2997 BECMG 8000 -RA BR=
201008140000 METAR MROC 140000Z 03004KT 9999 FEW001 SCT008 BKN130 22/22 A2999 RMK BCFG ARND BECMG 8000 -RA=
201008140100 METAR MROC 140100Z 00000KT 9999 FEW003 SCT030 SCT130 21/21 A3001 BECMG=
201008140200 METAR MROC 140200Z 07005KT CAVOK 21/21 A3002 FEW130 BECMG=
201008140300 METAR MROC 140300Z 00000KT CAVOK 20/20 A3003 BECMG=
201008140400 METAR MROC 140400Z 25003KT 9999 VCFG FEW006 SCT015 BKN250 21/21 A3004 RMK VIS SW W 8KMS BECMG 5000 BR=
201008140500 METAR MROC 140500Z 00000KT 8000 VCFG FEW006 BKN015 21/21 A3006 RMK VIS E SE S UNLTD BECMG 5000 BR=
201008140600 METAR MROC 140600Z 00000KT 9999 VCFG FEW010 BKN020 21/21 A3005 RMK VIS SW W 8KMS BECMG=
201008140700 METAR MROC 140700Z 00000KT 9999 VCFG FEW010 SCT020 BKN250 20/20 A3004 RMK VIS SW W 8KMS BECMG=
201008140800 METAR MROC 140800Z 00000KT 9999 VCFG FEW010 BKN020 21/21 A3003 VIS W QUAD 8KMS BECMG=
201008140900 METAR MROC 140900Z 00000KT 9999 4000SW BR SCT004 BKN020 20/20 A3003 BECMG 5000 BR=
201008141000 METAR MROC 141000Z 00000KT 9999 VCFG FEW010 SCT025 BKN250 20/20 A3003 VIS S SSW 8KMS BECMG=
201008141100 METAR MROC 141100Z 14003KT 9999 VCFG FEW030 SCT250 19/19 A3002 RMK VIS S SSW 8KMS FEW120 BECMG=
201008141200 METAR MROC 141200Z 00000KT CAVOK 19/19 A3003 RMK FEW120 SCT250 LGT HZ ARND BECMG=
201008141300 METAR MROC 141300Z 00000KT 9999 4000SW BR FEW002 SCT250 21/20 A3004 BECMG=
201008141400 METAR MROC 141400Z 24004KT 9999 FEW020 SCT250 22/21 A3005 RMK HZ ARND BECMG=
201008141500 METAR MROC 141500Z 24006KT 9999 FEW020 23/21 A3007 RMK HZ ARND BECMG=
201008141600 METAR MROC 141600Z 24007KT 9999 SCT020 25/21 A3007 BECMG=
201008141700 METAR MROC 141700Z 25005KT 9999 FEW015 SCT030 25/22 A3007 BECMG=
201008141800 METAR MROC 141800Z 24009KT 9999 FEW015 BKN030 25/22 A3006 BECMG=
201008141900 METAR MROC 141900Z 22009KT 9999 FEW015 BKN030 25/22 A3004 BECMG=
201008142000 METAR MROC 142000Z 22007KT 180V250 9999 FEW015 BKN040 25/22 A3003 BECMG=
201008142100 METAR MROC 142100Z 22006KT 9999 VCSH FEW015 BKN040 24/22 A3002 RMK CB DST SE BECMG=
201008142200 METAR MROC 142200Z 23006KT 9999 -RA VCSH FEW015 BKN035 23/23 A3002 RMK CB DST E BECMG 7000 SHRA=
201008142300 METAR MROC 142300Z 23004KT 9999 VCSH FEW015 SCT030 BKN110 23/23 A3003 BECMG 7000 SHRA=
201008150000 METAR MROC 150000Z 23005KT 9999 VCSH FEW015 SCT025 BKN110 22/22 A3004 BECMG 4000 -RA BR=
201008150100 METAR MROC 150100Z 25006KT 9999 SCT003 BKN025 21/21 A3008 RMK TS DST N VIS 7KM SW/W/NW DUE LOW ST BECMG=
201008150200 METAR MROC 150200Z 00000KT 9000 4000N -RA BR SCT003 BKN020 21/21 A3010 RMK TS DST N BECMG=
201008150300 METAR MROC 150300Z 15003KT 9000 4000E -RA BR SCT001 BKN012 21/21 A3010 BECMG=
201008150400 METAR MROC 150400Z 00000KT 9999 FEW001 SCT025 21/21 A3012 RMK SCT070 BR VCNTY BECMG=
201008150500 METAR MROC 150500Z VRB02KT 9999 BCFG FEW001 BKN100 21/21 A3010 RMK WET RWY BECMG=
201008150600 METAR MROC 150600Z 00000KT 9999 BCFG FEW001 20/20 A3007 BECMG=
201008150649 METAR MROC 150649Z 21003KT 0100 FG VV/// 20/20 A3007 BECMG=
201008150700 METAR MROC 150700Z 22004KT 0100 FG VV/// 20/20 A3007 BECMG=
201008150800 METAR MROC 150800Z 31002KT 0300 FG BKN001 20/20 A3006 BECMG=
201008150900 METAR MROC 150900Z 00000KT 3000 -DZ BR BKN001 20/20 A3006 BECMG SCT003 BKN012=
201008151000 METAR MROC 151000Z 00000KT 0700 R07/0700 DZ FG FEW001 BKN010 20/20 A3007 RMK VIS E UNL VRBLE CDTNS BECMG=
201008151100 METAR MROC 151100Z 00000KT 9999 4000W BR BCFG FEW001 BKN010 20/20 A3008 BECMG=
201008151200 METAR MROC 151200Z 06003KT 9999 4000SW BR BCFG FEW020 SCT250 19/19 A3009 RMK FEW100 BECMG=
201008151300 METAR MROC 151300Z 11003KT CAVOK 21/21 A3009 RMK BKN250 HZ QUAD W BECMG=
201008151400 METAR MROC 151400Z 00000KT CAVOK 23/20 A3010 RMK BKN250 HZ QUAD W BECMG 24005KT=
201008151500 METAR MROC 151500Z VRB02KT CAVOK 24/21 A3010 RMK SCT250 HZ W BECMG 24006KT=
201008151600 METAR MROC 151600Z 25004KT 9999 FEW045 SCT250 26/22 A3009 RMK TCU DST W BECMG=
201008151700 METAR MROC 151700Z 24008KT 9999 SCT040 26/23 A3008 RMK FEW100 BECMG=
201008151800 METAR MROC 151800Z 24008KT 200V260 9999 FEW025 SCT040 26/23 A3007 RMK FEW250 TCU QUAD N/E BECMG=
201008151900 METAR MROC 151900Z 24009KT 9999 -RA VCTS FEW020 SCT030TCU SCT100 26/23 A3004 RMK VIS 7KM NE DUE TS BECMG 7000 SHRA=
201008152000 METAR MROC 152000Z 25008KT 8000 -RA VCSH SCT020 BKN100 23/23 A3002 BECMG=
201008152100 METAR MROC 152100Z 00000KT 5000 -RA BR SCT005 BKN015 21/21 A3001 RETS BECMG 2000 -RA BR=
201008152200 METAR MROC 152200Z 00000KT 5000 -RA BR SCT005 BKN015 21/21 A3000 BECMG 2000 -RA BR=
201008152300 METAR MROC 152300Z 24002KT 5000 -RA BR SCT005 BKN015 21/21 A3003 BECMG 2000 -RA BR=
201008160000 METAR MROC 160000Z 30003KT 9999 4000W BR FEW005 SCT020 BKN250 21/21 A3004 RMK SCT100 BECMG 3000 BR=
201008160100 METAR MROC 160100Z 00000KT 8000 VCFG FEW005 SCT020 BKN250 20/20 A3007 BECMG=
201008160200 METAR MROC 160200Z 25005KT 1500 BR SCT001 SCT020 BKN250 21/21 A3008 BECMG 1000 BR=
201008160300 METAR MROC 160300Z 00000KT 1000 BR SCT001 SCT020 BKN250 21/21 A3009 BECMG 2000 BR=
201008160400 METAR MROC 160400Z 07003KT 8000 VCFG FEW001 SCT020 BKN250 20/20 A3010 BECMG UNL=
201008160500 METAR MROC 160500Z 08004KT CAVOK 20/20 A3008 RMK SCT250 BECMG=
201008160600 METAR MROC 160600Z 11004KT CAVOK 20/20 A3006 RMK SCT250 BECMG=
201008160700 METAR MROC 160700Z 10009KT CAVOK 21/19 A3003 RMK SCT250 BECMG=
201008160800 METAR MROC 160800Z 08004KT CAVOK 20/19 A2999 RMK SCT250 BECMG=
201008160900 METAR MROC 160900Z 08003KT CAVOK 19/19 A2999 RMK SCT250 BECMG=
201008161000 METAR MROC 161000Z 00000KT CAVOK 19/19 A3001 RMK SCT250 BECMG=
201008161100 METAR MROC 161100Z 03002KT CAVOK 18/18 A3002 RMK SCT250 BECMG=
201008161200 METAR MROC 161200Z VRB03KT CAVOK 18/18 A3004 RMK CB DST S BKN250 BECMG=
201008161300 METAR MROC 161300Z 05002KT CAVOK 20/20 A3005 RMK BKN250 CB DST SW BECMG 24006KT=
201008161400 METAR MROC 161400Z 30004KT CAVOK 22/20 A3006 RMK BKN250 CB DST SW BECMG 2400 6KT=
201008161500 METAR MROC 161500Z 24005KT 9999 FEW040 SCT130 BKN250 24/22 A3009 BECMG=
201008161600 METAR MROC 161600Z 26005KT 9999 FEW040 SCT130 BKN250 25/21 A3008 BECMG=
201008161700 METAR MROC 161700Z 18006KT 9999 -DZ SCT030 BKN120 24/21 A3008 BECMG 5000 RA=
201008161800 METAR MROC 161800Z 13010KT 9999 SCT030 BKN120 23/18 A3006 REDZ RMK RA S BECMG 5000 RA=
201008161900 METAR MROC 161900Z 13011KT 9999 SCT040 BKN120 23/18 A3003 BECMG 24006KT=
201008162000 METAR MROC 162000Z 09007KT 9999 SCT040 BKN120 23/18 A3001 BECMG 24006KT=
201008162100 METAR MROC 162100Z 13005KT CAVOK 25/17 A2999 RMK SCT100 BKN140 BECMG=
201008162200 METAR MROC 162200Z 24005KT CAVOK 23/20 A2999 RMK SCT100 BKN140 BECMG=
201008162300 METAR MROC 162300Z 25007KT 9999 4000SW -RA BR FEW003 SCT100 BKN140 22/22 A3003 RMK LOW CLOWDS OVER APCH RNY 07 BECMG=
201008162315 METAR MROC 162315Z 26005KT 8000 3500SW -RA VCFG BR FEW003 SCT007 BKN100 21/21 A3003 RMK LOW CLDS OVER APCH RNY 07 BECMG 5000 -RA BR=
201008170000 METAR MROC 170000Z 30004KT 9999 -DZ BR FEW003 SCT015 BKN100 21/21 A3004 RMK VIS SW 5KMS LOW CLDS OVER APCH RNY 07 BECMG=
201008170100 METAR MROC 170100Z 00000KT 9999 VCFG FEW004 SCT010 BKN100 21/21 A3005 RMK VIS S SSW 8KMS BECMG=
201008170200 METAR MROC 170200Z 00000KT 9999 FEW020 BKN120 21/21 A3005 BECMG=
201008170300 METAR MROC 170300Z 14003KT 9999 FEW030 BKN120 20/20 A3007 BECMG=
201008170400 METAR MROC 170400Z 06003KT CAVOK 20/20 A3007 RMK BKN120 BECMG=
201008170500 METAR MROC 170500Z 04004KT CAVOK 20/19 A3007 RMK SCT120 BKN250 BECMG=
201008170600 METAR MROC 170600Z 00000KT CAVOK 20/19 A3005 RMK BKN130 BECMG=
201008170700 METAR MROC 170700Z 09005KT CAVOK 21/18 A3003 RMK BKN130 BECMG=
201008170800 METAR MROC 170800Z 12003KT CAVOK 20/18 A3001 RMK FEW050 SCT110 BCFG QUAD S BECMG=
201008170900 METAR MROC 170900Z 11003KT CAVOK 19/18 A2999 RMK SCT200 BCFG QUAD S BECMG=
201008171000 METAR MROC 171000Z 07003KT CAVOK 19/18 A2999 RMK VIS 7KM SW DUE BCFG LTNG DST S BECMG=
201008171100 METAR MROC 171100Z 00000KT 9999 2000SW BR VCFG SCT120 18/18 A3001 RMK VIS 7KM NW BCFG ARND BECMG 0900 FG=
201008171200 METAR MROC 171200Z 00000KT 7000 VCFG SCT015 BKN120 18/18 A3003 BECMG=
201008171300 METAR MROC 171300Z 36002KT 9999 VCFG FEW020 BKN250 21/20 A3007 RMK VIS S SSW 8KMS LGT HZ ARND BECMG=
201008171400 METAR MROC 171400Z 09002KT 9999 FEW020 BKN120 21/20 A3009 RMK HZY BECMG 24006KT=
201008171500 METAR MROC 171500Z 00000KT 9999 FEW025 BKN120 23/20 A3009 RMK HZY CB DST S SSW BECMG 24006KT=
201008171600 METAR MROC 171600Z 00000KT 9999 FEW030 SCT120 25/20 A3008 RMK HZY=
201008171700 METAR MROC 171700Z 25005KT 9999 SCT030 26/21 A3007 RMK FEW120 HZY BECMG=
201008171800 METAR MROC 171800Z 24007KT 9999 SCT030 SCT140 27/20 A3005 RMK CB DST SE LGT HZ ARND BECMG=
201008171900 METAR MROC 171900Z 25010KT 9999 SCT030 BKN120 26/22 A3002 RMK CB PCPN DST E BECMG=
201008172000 METAR MROC 172000Z 23008KT 9999 FEW015 SCT030 BKN120 26/22 A3000 CB PCPN DST ENE BECMG 8000 VCSH=
201008172100 METAR MROC 172100Z 21010KT 9999 VCSH SCT015 SCT025TCU SCT140 24/22 A3000 RMK RA DST W NE BECMG=
201008172200 METAR MROC 172200Z 23011KT 9999 RA FEW015TCU BKN030 21/20 A3003 RMK FEW050 RA DST E W BECMG=
201008172300 METAR MROC 172300Z 28006KT 5000 SHRA SCT010CB FEW015 SCT045 20/20 A3005 RMK WET RWY VIS S UNL BECMG 7000 -SHRA=
201008180000 METAR MROC 180000Z 33003KT 9999 DZ SCT008 SCT050 21/21 A3007 RMK FEW025 RA DST NE BECMG=
201008180100 METAR MROC 180100Z 00000KT 9999 +DZ FEW008 BKN013 20/20 A3010 BECMG=
201008180200 METAR MROC 180200Z 00000KT CAVOK 21/21 A3011 REDZ RMK BKN070 BECMG=
201008180300 METAR MROC 180300Z 11003KT CAVOK 20/20 A3011 RMK BKN100 BECMG=
201008180400 METAR MROC 180400Z 10006KT CAVOK 20/20 A3011 RMK BKN100 BECMG=
201008180500 METAR MROC 180500Z 12003KT 9999 -RA BKN100 20/20 A3010 BECMG=
201008180600 METAR MROC 180600Z 25005KT 9999 4000W BR FEW002 SCT100 20/20 A3009 BECMG 2000 BR=
201008180700 METAR MROC 180700Z 00000KT 7000 3000W BR FEW001 SCT100 20/20 A3008 BECMG=
201008180800 METAR MROC 180800Z 00000KT 8000 VCFG FEW001 SCT100 19/19 A3006 BECMG=
201008180900 METAR MROC 180900Z 00000KT 8000 VCFG FEW001 SCT020 BKN120 19/19 A3006 RMK BECMG 2000 BR=
201008181000 METAR MROC 181000Z 00000KT 9999 VCFG FEW002 SCT120 19/19 A3006 BECMG=
201008181100 METAR MROC 181100Z 00000KT 9999 VCFG FEW002 SCT010 19/19 A3008 BECMG=
201008181200 METAR MROC 181200Z 00000KT 4000W BR FEW002 SCT015 BKN110 19/19 A3010 BECMG=
201008181300 METAR MROC 181300Z 00000KT 9999 4900W BR FEW010 BKN110 20/20 A3011 RMK FEW250 BECMG=
201008181400 METAR MROC 181400Z 00000KT CAVOK 21/19 A3011 RMK SCT120 SCT200 BECMG 24008KT=
201008181500 METAR MROC 181500Z 00000KT CAVOK 23/19 A3012 RMK SCT120 SCT200 HZ DST SE BECMG 24008KT=
201008181600 METAR MROC 181600Z 00000KT CAVOK 24/20 A3012 RMK FEW120 BKN200 HZ DST SE S BECMG=
201008181700 METAR MROC 181700Z 00000KT 9999 FEW025 BKN200 26/17 A3010 RMK FUME SE HZ SE S BECMG 24004KT=
201008181800 METAR MROC 181800Z 26005KT 9999 FEW045TCU BKN200 27/18 A3009 RMK FEW250 BECMG=
201008181900 METAR MROC 181900Z 26009KT CAVOK 27/21 A3005 RMK FEW050 BKN200 CB DST E BECMG=
201008182000 METAR MROC 182000Z 26010KT 9999 SCT018TCU SCT200 27/20 A3002 RMK FEW250 CB RA DST E SE BECMG=
201008182100 METAR MROC 182100Z 25012KT 9999 SCT015TCU SCT200 24/22 A3002 BECMG=
201008182200 METAR MROC 182200Z 23009KT 9999 FEW010CB SCT020 BKN250 23/22 A3002 BECMG=
201008182300 METAR MROC 182300Z 26007KT 9999 FEW005 SCT020 BKN100 22/22 A3004 BECMG=
201008190000 METAR MROC 190000Z 28005KT 9999 FEW005 SCT030 BKN100 21/21 A3006 BECMG=
201008190100 METAR MROC 190100Z 28003KT 9999 4000SW BR FEW001 SCT030 BKN100 21/21 A3008 BECMG=
201008190200 METAR MROC 190200Z 00000KT 9999 4000SW BR FEW001 SCT010 BKN100 21/21 A3009 BECMG=
201008190300 METAR MROC 190300Z 00000KT 9999 VCFG FEW005 SCT015 BKN100 21/21 A3009 BECMG=
201008190400 METAR MROC 190400Z 30003KT 9999 VCFG FEW005 BKN120 20/20 A3009 RMK VIS SSW SW 8KMS BECMG=
201008190500 METAR MROC 190500Z 00000KT 9999 3000SW BR FEW002 SCT005 BKN120 20/20 A3008 BECMG 3000 BR=
201008190600 METAR MROC 190600Z 00000KT 9999 VCFG FEW030 BKN120 20/20 A3007 RMK VIS S SSW 8KMS BECMG=
201008190700 METAR MROC 190700Z 05003KT CAVOK 20/20 A3003 RMK SCT120 BECMG=
201008190800 METAR MROC NIL=
201008190900 METAR MROC 190900Z 02003KT 9999 VCFG SCT120 SCT250 20/20 A3002 RMK VIS S SSW 7KMS BECMG=
201008191000 METAR MROC 191000Z 00000KT 9999 VCFG SCT120 SCT250 19/19 A3002 RMK VIS S SSW 8KMS BECMG=
201008191100 METAR MROC 191100Z 00000KT 9999 VCFG SCT120 SCT250 18/18 A3003 RMK VIS S SSW 8KMS BECMG=
201008191200 METAR MROC 191200Z 00000KT 9999 4000SW BR FEW002 SCT120 BKN250 18/18 A3003 BANCO DE NIEBLA EXT DE S A SW BECMG=
201008191300 METAR MROC 191300Z 06006KT 9999 3000SW BR FEW001 SCT120 BKN250 20/20 A3004 BECMG=
201008191400 METAR MROC 191400Z 30003KT 9999 3000SW BR FEW001 SCT120 BKN250 22/20 A3005 BECMG 24005KT=
201008191500 METAR MROC 191500Z 25004KT 9999 3000SW BR FEW001 SCT120 BKN250 23/21 A3006 BECMG=
201008191600 METAR MROC 191600Z 25005KT CAVOK 24/21 A3006 RMK BKN120 HZ LEVE ARND BECMG=
201008191700 METAR MROC 191700Z 28006KT 9999 FEW040 BKN120 25/21 A3005 RMK HZ LEVE ARND BECMG=
201008191800 METAR MROC 191800Z 25007KT 9999 FEW040 SCT120 BKN250 26/21 A3002 RMK HZ ARND BECMG=
201008191900 METAR MROC 191900Z 26008KT 9999 FEW015TCU SCT120 BKN250 25/22 A2999 RMK HZ ARND BECMG=
201008192000 METAR MROC 192000Z 24010KT 9999 SCT030 BKN250 26/23 A2996 RMK HZ ARND BECMG=
201008192100 METAR MROC 192100Z 26008KT 9999 -RA VCSH FEW020TCU SCT040 24/22 A2994 RMK SCT130 VIS 7KM NW/N BECMG=
201008192200 METAR MROC 192200Z 26009KT 7000 3000W -RA BR SCT010 BKN030 22/22 A2995 BECMG 1500 -RA BR=
201008192300 METAR MROC 192300Z 30006KT 3000 RA BR SCT003 BKN015 21/21 A2998 RESHRA RMK VIS 5KM NE BECMG=
201008200000 METAR MROC 200000Z 01003KT 9000 4000SW -RA BR SCT012 SCT030 OVC100 20/20 A3000 BECMG=
201008200100 METAR MROC 200100Z VRB02KT 9999 -RA SCT015 OVC100 20/20 A3003 BECMG=
201008200200 METAR MROC 200200Z 08003KT 9999 -RA OVC120 20/20 A3003 BECMG=
201008200300 METAR MROC 200300Z 09005KT 9999 RA OVC110 20/20 A3004 BECMG=
201008200400 METAR MROC 200400Z 02003KT 9999 DZ BCFG FEW070 BKN110 20/20 A3006 RMK TS DST S BECMG=
201008200500 METAR MROC 200500Z VRB02KT 9999 +DZ BCFG SCT040 SCT110 19/19 A3007 RERA BECMG 24006KT 3000 BR=
201008200600 METAR MROC 200600Z 00000KT 9999 -RA OVC070 20/20 A3004 REDZ BECMG=
201008200700 METAR MROC 200700Z 12002KT 9999 DZ OVC070 20/20 A3002 RERA RMK 7KM SW BR BECMG=
201008200800 METAR MROC 200800Z 07005KT 9999 DZ OVC080 20/20 A2999 BECMG=
201008200900 METAR MROC 200900Z 00000KT 9999 -RADZ OVC080 20/20 A2997 BECMG=
201008201000 METAR MROC 201000Z 07003KT 9999 -RADZ OVC080 19/19 A2997 BECMG=
201008201100 METAR MROC 201100Z 00000KT CAVOK 19/19 A2997 RERA RMK BKN100 FEW250 BECMG=
201008201125 METAR MROC 201125Z 28003KT 9999 -RA VCFG OVC080 19/19 A2998 BECMG=
201008201200 METAR MROC 201200Z 00000KT CAVOK 19/19 A2999 RERA RMK OVC080 LW ST S BECMG=
201008201300 METAR MROC 201300Z 13003KT CAVOK 20/20 A3000 RMK OVC100 HZ LGT W BECMG 24005KT=
201008201400 METAR MROC 201400Z 00000KT CAVOK 22/20 A3000 RMK SCT110 BKN250 LGT HZ ARND BECMG 24004KT=
201008201500 METAR MROC 201500Z 09004KT CAVOK 25/20 A2999 RMK SCT120 BKN250 HZ W BECMG=
201008201600 METAR MROC 201600Z 25009KT CAVOK 25/22 A3001 RMK BKN120 FEW250 HZ QUAD W BECMG=
201008201700 METAR MROC 201700Z 25010KT 9999 FEW040 BKN120 24/23 A3002 RMK VEL MAX VTO 14KT BECMG=
201008201800 METAR MROC 201800Z 23011KT 9999 SCT035 SCT120 25/21 A3000 RMK VEL MAX VTO 17KT RN DST NE BECMG=
201008201900 METAR MROC 201900Z 31005KT 7000 3000N -RA BR VCTS FEW020TCU SCT035 BKN100 22/22 A2997 BECMG 5000 RA BR=
201008202000 METAR MROC 202000Z 28006KT 7000 -RA FEW010 SCT015 BKN080 22/22 A2995 RMK VIS NE/E UNLD BECMG 5000 -RA BR=
201008202100 METAR MROC 202100Z 27009KT 7000 -RA SCT004 BKN015 22/22 A2994 BECMG 3000 -RRA BR=
201008202200 METAR MROC 202200Z 28008KT 8000 VCFG SCT004 BKN015 21/21 A2994 RERA BECMG 3000 -RA BR=
201008202300 METAR MROC 202300Z 30009KT 2000 -RA BR SCT003 BKN010 20/20 A2997 BECMG=
201008210000 METAR MROC 210000Z 03004KT 5000 -RA BR FEW004 SCT020 OVC100 20/20 A2999=
201008210100 METAR MROC 210100Z 00000KT 7000 -RA FEW005 SCT020 OVC100 20/20 A3001 BECMG=
201008210200 METAR MROC 210200Z 00000KT 8000 -RA SCT020 OVC100 20/20 A3004 BECMG=
201008210300 METAR MROC 210300Z 00000KT 9999 -RA SCT020 OVC100 20/20 A3004 BECMG=
201008210400 METAR MROC 210400Z 00000KT 9999 -RA FEW005 SCT020 OVC100 19/19 A3008 BECMG=
201008210500 METAR MROC 210500Z 05002KT 9999 -RA FEW005 SCT020 OVC100 20/20 A3008 BECMG=
201008210600 METAR MROC 210600Z 11003KT 9999 -RA SCT030 OVC100 19/19 A3006 BECMG=
201008210700 METAR MROC 210700Z 12003KT 9999 SCT030 OVC100 19/19 A3006 BECMG=
201008210800 METAR MROC 210800Z 09005KT 9999 SCT030 OVC100 19/19 A2998 BECMG=
201008210900 METAR MROC 210900Z 00000KT 2000 BR FEW001 SCT005 BKN100 19/19 A2997 BECMG=
201008211000 METAR MROC 211000Z 00000KT 2000 BR FEW001 SCT005 BKN100 19/19 A2997 BECMG=
201008211100 METAR MROC 211100Z 12002KT 9999 2000SW BR FEW001 SCT005 BKN100 19/19 A2998 BECMG=
201008211200 METAR MROC 211200Z 10004KT CAVOK 18/18 A2999 RMK SCT100 BKN250 BECMG=
201008211300 METAR MROC 211300Z 08006KT CAVOK 20/20 A3002 RMK SCT110 BKN250 BECMG=
201008211400 METAR MROC 211400Z 12003KT CAVOK 23/20 A3003 RMK SCT250 BECMG 24006KT=
201008211500 METAR MROC 211500Z 21006KT 9999 FEW030 SCT250 24/20 A3004 BECMG=
201008211600 METAR MROC 211600Z 23010KT 9999 SCT030 SCT160 25/22 A3006 BECMG=
201008211700 METAR MROC 211700Z 26007KT 9999 SCT025 BKN120 25/21 A3004 BECMG=
201008211800 METAR MROC 211800Z 24011KT 9999 SCT020TCU BKN110 26/22 A3002 BECMG=
201008211900 METAR MROC 211900Z 27010KT 9999 SCT015 BKN100 26/23 A2999 BECMG 7000 -RA=
201008212000 METAR MROC 212000Z 26010KT 9999 FEW010 SCT015 BKN100 25/22 A2997 BECMG 7000 -RA=
201008212100 METAR MROC 212100Z 25013KT 9999 VCSH FEW008 FEW015CB BKN025 24/22 A2997 RASH SE S SSW BECMG 5000 SHRA=
201008212200 METAR MROC 212200Z 23008KT 9999 VCSH FEW010 FEW015CB BKN025 23/22 A2997 RASH E ESE BECMG 5000 SHRA=
201008212300 METAR MROC 212300Z 25006KT 9999 SCT015 SCT100 22/21 A2998 RMK FEW250 RMK RASH DST E ESE BECMG=
201008220000 METAR MROC 220000Z 27005KT 9999 SCT015 SCT100 21/21 A3001 RMK RASH DST ESE SE TCU DST WNW BECMG=
201008220100 METAR MROC 220100Z 31003KT 9999 BR FEW003 SCT010 BKN120 21/21 A3004 VIS S SW 5KMS BECMG=
201008220200 METAR MROC 220200Z 27003KT 9999 4000SW -RA BR FEW002 BKN015 21/21 A3006=
201008220300 METAR MROC 220300Z 00000KT 9999 FEW002 BKN090 21/21 A3008 RMK FEW025 BECMG=
201008220400 METAR MROC 220400Z 00000KT 9999 FEW002 OVC100 20/20 A3008 RMK FEW010 BECMG=
201008220500 METAR MROC 220500Z 00000KT CAVOK 21/21 A3006 RMK SCT100 OVC250 BECMG=
201008220600 METAR MROC 220600Z 00000KT 9999 FEW001 SCT100 OVC250 20/20 A3005 RMK FEW010 BECMG=
201008220700 METAR MROC 220700Z 00000KT 3500 BR SCT001 OVC250 20/20 A3003 BECMG 9000=
201008220800 METAR MROC 220800Z 00000KT 9999 4200SW BR FEW001 BKN009 20/20 A3001 BECMG=
201008220900 METAR MROC 220900Z 00000KT 9999 4300SW BR SCT009 BKN100 20/20 A3001 BECMG=
201008221000 METAR MROC 221000Z 00000KT 9999 FEW020 BKN100 20/20 A3002 BECMG=
201008221100 METAR MROC 221100Z 00000KT 9999 FEW045 BKN100 19/19 A3003 BECMG=
201008221200 METAR MROC 221200Z 00000KT CAVOK 20/20 A3004 RMK BKN110 BECMG=
201008221300 METAR MROC 221300Z 00000KT CAVOK 21/20 A3007 RMK FEW080 BKN120 BECMG=
201008221400 METAR MROC 221400Z 00000KT CAVOK 22/20 A3008 RMK BKN120 BECMG 22005KT=
201008221500 METAR MROC 221500Z 00000KT CAVOK 23/20 A3008 RMK BKN120 BECMG 22006KT=
201008221600 METAR MROC 221600Z 24008KT 9999 FEW030 SCT120 BKN250 25/21 A3008 BECMG=
201008221700 METAR MROC 221700Z 25004KT 9999 FEW030 SCT130 BKN250 27/21 A3006 BECMG=
201008221800 METAR MROC 221800Z 25010KT 9999 FEW025TCU BKN250 27/21 A3003 RMK RN CB DST SE BECMG=
201008221900 METAR MROC 221900Z 27010KT 9999 FEW020TCU SCT100 BKN250 27/22 A3000 RMK CB RN DST E SE S BECMG=
201008222000 METAR MROC 222000Z 18005KT 9999 -RA FEW020TCU SCT100 BKN250 25/23 A2999 CB DST E SE S BECMG=
201008222100 METAR MROC 222100Z 22005KT 9999 3000S RADZ BR BKN012TCU FEW100 23/23 A2999 BECMG 6000=
201008222200 METAR MROC 222200Z 05005KT 6000 SHRA BKN005 FEW100 22/21 A3000 BECMG 3000=
201008222300 METAR MROC 222300Z 08005KT 9999 -DZ SCT010TCU FEW015 SCT100 21/21 A3002 RESH RA RMK TCU DST SW BECMG=
201008230000 METAR MROC 230000Z VRB02KT 9999 RA SCT008 BKN100 21/21 A3004 RMK FEW020 BECMG=
201008230100 METAR MROC 230100Z VRB02KT 9999 +RA BKN080 21/21 A3007 BECMG=
201008230200 METAR MROC 230200Z 00000KT 9999 -RA FEW015 OVC090 21/21 A3009 BECMG=
201008230300 METAR MROC 230300Z 08003KT 9999 -RA FEW025 BKN120 21/21 A3011 BECMG=
201008230400 METAR MROC 230400Z 25006KT 1500 -RA BR SCT001 BKN100 21/21 A3013 BECMG 0500 FG=
201008230500 METAR MROC 230500Z 33003KT 4000 -RA BR FEW002 BKN100 20/20 A3007 BECMG=
201008230600 METAR MROC 230600Z 12004KT 8000 VCFG FEW002 BKN120 20/20 A3004 BECMG=
201008230700 METAR MROC 230700Z 05004KT CAVOK 21/21 A3003 RMK BKN120 BECMG=
201008230800 METAR MROC 230800Z 07003KT CAVOK 20/20 A3001 RMK BKN120 BECMG=
201008230900 METAR MROC 230900Z 10004KT CAVOK 20/20 A2999 BECMG=
201008231000 METAR MROC 231000Z 00000KT CAVOK 19/19 A3002 BECMG=
201008231100 METAR MROC 231100Z 07005KT CAVOK 19/19 A3002 BECMG=
201008231200 METAR MROC 231200Z 08008KT CAVOK 20/18 A3004 RMK SCT120 SCT250 BECMG=
201008231300 METAR MROC 231300Z 11007KT CAVOK 22/19 A3005 RMK FEW120 BKN250 BECMG=
201008231400 METAR MROC 231400Z 09007KT CAVOK 25/20 A3005 RMK FEW120 SCT200 SCT250 BECMG=
201008231500 METAR MROC 231500Z 12006KT CAVOK 26/19 A3006 RMK FEW120 BKN200 SCT250 BECMG=
201008231600 METAR MROC 231600Z 12007KT CAVOK 27/20 A3005 RMK BKN200 FEW250 BECMG=
201008231700 METAR MROC 231700Z 13005KT 9999 FEW020TCU FEW110 BKN200 28/18 A3003 RMK FEW250 BECMG=
201008231800 METAR MROC 231800Z 25011KT 9999 FEW015TCU FEW080 BKN200 27/29 A3002 RMK FEW250 RA DST N BECMG=
201008231900 METAR MROC 231900Z 25009KT 9999 SCT015CB FEW090 26/24 A3000 RMK FEW250 RA N NE BECMG 5000 SHRA=
201008232000 METAR MROC 232000Z 27007KT 9999 4000N +SHRA BR BKN010CB 24/23 A3000 BECMG 3000 -TSRA=
201008232100 METAR MROC 232100Z 17007KT 5000 2000SW -TSRA BR FEW001 SCT015CB BKN030 20/20 A3000 BECMG=
201008232200 METAR MROC 232200Z VRB02KT 9999 FEW030 BKN100 21/20 A3000 BECMG=
201008232300 METAR MROC 232300Z 09004KT 9999 FEW030 BKN100 22/21 A3001 BECMG=
201008240000 METAR MROC 240000Z 08007KT 9999 FEW040 BKN100 22/21 A3002 BECMG=
201008240100 METAR MROC 240100Z VRB02KT CAVOK 22/21 A3003 RMK BKN100 BECMG=
201008240200 METAR MROC 240200Z 22002KT 9999 -RA FEW035 OVC100 21/21 A3006 BECMG=
201008240300 METAR MROC 240300Z 05005KT 9999 -DZ OVC100 21/21 A3005 BECMG=
201008240400 METAR MROC 240400Z 00000KT CAVOK 21/21 A3006 BKN100 BECMG=
201008240500 METAR MROC 240500Z 00000KT CAVOK 20/20 A3006 RMK BKN120 BECMG=
201008240600 METAR MROC 240600Z 00000KT CAVOK 20/20 A3006 RMK BKN120 BECMG=
201008240700 METAR MROC 240700Z 00000KT CAVOK 20/20 A3004 RMK BKN120 BECMG=
201008240800 METAR MROC 240800Z 08004KT CAVOK 19/19 A3001 RMK BKN120 BECMG=
201008240900 METAR MROC 240900Z 10004KT CAVOK 19/19 A3000 RMK BKN120 BECMG=
201008241000 METAR MROC 241000Z 09004KT CAVOK 19/19 A2998 RMK BKN120 BECMG=
201008241100 METAR MROC 241100Z 05005KT CAVOK 18/18 A2997 RMK BKN120 BECMG=
201008241200 METAR MROC 241200Z 12002KT CAVOK 20/18 A2998 RMK FEW120 BKN250 BECMG=
201008241300 METAR MROC 241300Z 22003KT CAVOK 22/20 A3001 RMK FEW120 BKN250 BECMG=
201008241400 METAR MROC 241400Z 26003KT CAVOK 23/20 A3003 RMK FEW120 BKN250 BECMG=
201008241500 METAR MROC 241500Z 25007KT 9999 FEW040 BKN250 25/21 A3003 BECMG=
201008241600 METAR MROC 241600Z 23006KT 9999 FEW040 BKN250 25/22 A3004 RMK HZ LEVE ARND BECMG=
201008241700 METAR MROC 241700Z 25006KT 9999 SCT030 BKN250 26/22 A3003 RMK HZ LEVE ARND BECMG=
201008241800 METAR MROC 241800Z 22008KT 9999 -TS FEW010CB SCT030 SCT250 26/22 A3001 RMK HZ LEVE ARND RA NE E BECMG 8000 VCSH=
201008241900 METAR MROC 241900Z 20003KT 9999 -DZ SCT030 BKN100 23/22 A3000 RETS BECMG=
201008242000 METAR MROC 242000Z 23005KT 9999 FEW005 SCT030 BKN100 24/23 A2998 RMK CB RASH DST SW RA E BECMG=
201008242100 METAR MROC 242100Z 24009KT 3000 -RA BR FEW002 SCT010 OVC100 21/21 A2996 BECMG 1500 -RA BR=
201008242200 METAR MROC 242200Z 21004KT 2000 -TSRA FEW004 SCT010CB OVC100 20/20 A2998 BECMG 3000 -TSRA=
201008242300 METAR MROC 242300Z 10002KT 8000 -RA CVFG FEW005 SCT015 OVC100 20/20 A2999 BECMG=
201008250000 METAR MROC 250000Z 00000KT 9999 -RA FEW006 SCT080 OVC110 21/21 A2998 BECMG=
201008250100 METAR MROC 250100Z 21005KT 1200 BR SCT001 OVC110 20/20 A2999 BECMG 1000 BR=
201008250200 METAR MROC 250200Z VRB03KT 8000 2000NW BR SCT003 OVC110 20/20 A3002 BECMG=
201008250300 METAR MROC 250300Z VRB02KT 8000 2000NW BR FEW003 BKN110 20/20 A3003 BECMG=
201008250400 METAR MROC 250400Z VRB02KT 9999 4000W BR FEW003 BKN110 20/20 A3003 RMK VIS N 4KM BR BECMG=
201008250500 METAR MROC 250500Z VRB02KT 9999 4000W BR BKN110 20/20 A3004 BECMG=
201008250600 METAR MROC 250600Z VRB02KT 9999 4000W BR BKN110 19/19 A3004 BECMG=
201008250700 METAR MROC 250700Z 08004KT 9999 FEW001 BKN110 19/19 A3002 RMK TS DST E BECMG=
201008250800 METAR MROC 250800Z 06005KT 9999 FEW001 BKN120 19/19 A3001 RMK TS DST NW BECMG=
201008250900 METAR MROC 250900Z VRB02KT 9999 FEW001 SCT120 18/18 A2999 BECMG=
201008251000 METAR MROC 251000Z 08007KT CAVOK 19/18 A3000 FEW120 BECMG=
201008251100 METAR MROC 251100Z 09005KT 9999 FEW050 18/18 A3000 RMK FEW100 TS DST SW BECMG=
201008251200 METAR MROC 251200Z 08006KT CAVOK 18/18 A3001 RMK FEW100 BKN250 CB DST S SW BECMG=
201008251300 METAR MROC 251300Z 06004KT CAVOK 22/19 A3003 RMK FEW150 BECMG=
201008251400 METAR MROC 251400Z 22005KT CAVOK 24/20 A3005 RMK FEW250 BECMG=
201008251500 METAR MROC 251500Z 23007KT CAVOK 25/21 A3006 RMK FEW050 FEW250 BECMG=
201008251600 METAR MROC 251600Z 24006KT 9999 FEW045 BKN200 26/20 A3007 BECMG=
201008251700 METAR MROC 251700Z 25007KT 9999 FEW045 26/22 A3005 RMK FEW250 BECMG=
201008251800 METAR MROC 251800Z 25008KT 9999 SCT040 27/21 A3002 RMK RN DST SE BECMG=
201008251900 METAR MROC 251900Z 27008KT 9999 FEW035TCU SCT040 27/22 A2999 RMK FEW250 BECMG=
201008252000 METAR MROC 252000Z 24008KT 9999 VCSH VCTS FEW020 SCT030TCU 27/23 A2996 BECMG 7000 SHRA=
201008252033 METAR MROC 252033Z 22009KT 9999 -RA VCSH FEW015 SCT025TCU OVC100 25/23 A2996 RMK VIS 7KM NE BECMG 5000 -TSRA=
201008252100 METAR MROC 252100Z 20006KT 9999 -RA VCSH FEW010 SCT025 BKN110 24/23 A2995 RMK VIS 7KM N/NE BECMG 7000 SHRA=
201008252200 METAR MROC 252200Z 20003KT 9000 3500N -RA VCSH SCT009 SCT025 BKN100 24/23 A2995 BECMG=
201008252300 METAR MROC 252300Z 24005KT 9999 4500N BR FEW009 SCT025 OVC250 23/23 A2996 RMK FEW100 BECMG=
201008260000 METAR MROC 260000Z 25004KT 7000 3000N -RA BR FEW009 SCT030 BKN110 23/23 A2998 BECMG=
201008260100 METAR MROC 260100Z 27004KT 9999 4000N BR VCTS SCT002 SCT100 22/22 A3000 RMK TS DST N BECMG=
201008260200 METAR MROC 260200Z 27005KT 7000 3000SW BR SCT002 BKN015 22/22 A3002 RMK TS DST N BECMG=
201008260300 METAR MROC 260300Z 24003KT 7000 3000SW BR FEW001 SCT015 BKN100 21/21 A3004 RMK TS DST N BECMG 5000 RA=
201008260400 METAR MROC 260400Z 25007KT 7000 3000SW TSRA BR FEW001 SCT015CB BKN100 21/21 A3006 BECMG=
201008260500 METAR MROC 260500Z 27008KT 7000 3000SW BR FEW001 SCT005 BKN100 21/21 A3006 RETSRA BECMG=
201008260600 METAR MROC 260600Z VRB02KT 6000 2000SW -TSRA BR FEW001 SCT010CB BKN100 21/21 A3006 BECMG=
201008260700 METAR MROC 260700Z 04003KT 8000 RA SCT010 OVC100 21/21 A3006 RETSRA BECMG=
201008260800 METAR MROC 260800Z 13002KT 8000 VCFG SCT010 OVC100 21/21 A3000 RERA BECMG=
201008260900 METAR MROC 260900Z VRB02KT 9999 SCT010 OVC100 21/21 A3000 RMK BCFG SW BECMG=
201008261000 METAR MROC 261000Z 00000KT 9999 SCT010 OVC100 20/20 A3000 RMK BCFG SW BECMG=
201008261100 METAR MROC 261100Z 00000KT 9999 4000SW FEW001 SCT010 BKN100 21/21 A3000=
201008261200 METAR MROC 261200Z 00000KT 7000 3000SW BR FEW001 SCT020 BKN100 21/21 A3003 BECMG=
201008261300 METAR MROC 261300Z 00000KT 9999 FEW005 SCT020 BKN100 21/21 A3004 RMK LGT HZ ARND BECMG 24006KT=
201008261400 METAR MROC 261400Z 00000KT 9999 FEW020 BKN100 23/22 A3005 RMK HZY BECMG 24006KT=
201008261500 METAR MROC 261500Z 08002KT 9999 FEW025 SCT120 BKN250 26/21 A3005 HZY BECMG=
201008261600 METAR MROC 261600Z 23002KT 9999 FEW025 SCT120 BKN250 26/22 A3004 RMK HZY BECMG=
201008261700 METAR MROC 261700Z 25008KT 9999 SCT025 SCT250 27/23 A3003 RMK LGT HZ ARND BECMG=
201008261800 METAR MROC 261800Z 24007KT 9999 SCT025 SCT250 27/23 A3000 RMK CB RASH DST SE BECMG=
201008261900 METAR MROC 261900Z 25008KT 9999 SCT025 SCT250 28/24 A2997 RMK CB PCPN DST SE BECMG 5000 TSRA=
201008262000 METAR MROC 262000Z 25009KT 9999 VCSH FEW015TCU SCT025 BKN250 27/24 A2994 RMK RASH E ESE BECMG 5000 TSRA SCT015CB=
201008262100 METAR MROC 262100Z 24006KT 8000 RA SCT010TCU BKN120 25/22 A2994 BECMG 5000 TSRA=
201008262200 METAR MROC 262200Z 27008KT 6000 -TSRA SCT004CB BKN015 22/22 A2996 BECMG 2000 -TSRA BR=
201008262300 METAR MROC NIL=
201008270000 METAR MROC NIL=
201008270100 METAR MROC 270100Z 00000KT 6000 -RA SCT010 OVC100 21/21 A3003 BECMG=
201008270200 METAR MROC 270200Z 00000KT 6000 -RA SCT010 OVC100 21/21 A3005 BECMG=
201008270300 METAR MROC 270300Z 28003KT 9999 -RA FEW002 SCT025 OVC100 21/21 A3006 RMK VIS 7KM NW BECMG=
201008270400 METAR MROC 270400Z 00000KT 9999 -DZ FEW003 SCT025 OVC090 21/21 A3006 RMK VIS 7KM NW BECMG=
201008270500 METAR MROC 270500Z 00000KT 9999 -DZ SCT006 BKN020 21/21 A3005 BECMG=
201008270600 METAR MROC 270600Z 25003KT 9000 4000N BR FEW001 SCT010 BKN090 21/21 A3005 BECMG=
201008270700 METAR MROC 270700Z 00000KT 9999 4000N BR FEW002 SCT020 BKN090 21/21 A3004 BECMG=
201008270800 METAR MROC 270800Z 00000KT 9999 FEW002 BKN020 21/21 A3001 RMK VIS 6KM=
201008270900 METAR MROC 270900Z 00000KT 9999 SCT020 BKN120 21/21 A2999 BECMG=
201008271000 METAR MROC 271000Z 00000KT 7000 3000SW BR FEW002 BKN010 20/20 A3000 BECMG=
201008271100 METAR MROC 271100Z 00000KT 7000 3000E BR FEW003 BKN015 20/20 A3000 BECMG=
201008271200 METAR MROC 271200Z 00000KT 9999 VCFG FEW025 BKN120 20/20 A3000 BECMG=
201008271300 METAR MROC 271300Z 00000KT CAVOK 20/20 A3001 RMK OVC100 HZY BECMG 24005KT=
201008271400 METAR MROC 271400Z 00000KT CAVOK 22/22 A3003 RMK BKN100 HZY BECMG 24005KT=
201008271500 METAR MROC 271500Z 24002KT 9999 FEW025 BKN100 24/22 A3004 RMK HZY BECMG=
201008271600 METAR MROC 271600Z 25002KT 9999 FEW025 BKN100 25/22 A3004 RMK HZY BECMG=
201008271700 METAR MROC 271700Z 26006KT 9999 FEW030 BKN120 25/21 A3003 BECMG=
201008271800 METAR MROC 271800Z 26006KT 9999 SCT030 BKN120 26/23 A3001 RMK TCU DST S BECMG=
201008271900 METAR MROC 271900Z 25008KT 9999 FEW020TCU SCT030 BKN120 26/23 A2998 RMK PCPN DST E BECMG VCSH=
201008272000 METAR MROC 272000Z 27008KT 9999 FEW020TCU SCT030 BKN250 26/23 A2995 RMK RASH DST E SE BECMG 5000 SHRA=
201008272100 METAR MROC 272100Z 25009KT 9999 FEW008 BKN020TCU 24/23 A2995 RMK FEW080 RA DST E SE W BECMG=
201008272200 METAR MROC 272200Z 25007KT 4000 BR DZ SCT001 SCT010CB 23/23 A2994 RERA RMK FEW080 BECMG=
201008272300 METAR MROC 272300Z 26009KT 2000 BR RA FEW001 BKN002 22/22 A2995 BECMG 4000 RA FEW008 BKN012=
201008280000 METAR MROC 280000Z 24006KT 1000 R07/0350 +RA BR BKN002 21/21 A2998 BECMG=
201008280100 METAR MROC 280100Z VRB02KT 5000 +DZRA VCFG SCT001 BKN004 21/21 A3000 BECMG=
201008280200 METAR MROC 280200Z VRB02KT 9999 +DZ FEW001 SCT008 21/21 A3002 RERA RMK FEW003 SCT050 BECMG=
201008280300 METAR MROC 280300Z 00000KT 9999 SCT015 OVC100 21/21 A3003 BECMG=
201008280400 METAR MROC 280400Z 00000KT 9999 SCT015 OVC100 21/21 A3005 BECMG=
201008280500 METAR MROC 280500Z 09003KT 9999 SCT020 OVC100 21/21 A3003 BECMG=
201008280600 METAR MROC 280600Z 00000KT 9999 SCT040 BKN100 21/21 A3003 RMK TRACE ST SW BECMG=
201008280700 METAR MROC 280700Z 22004KT 1000 BR BKN001 21/21 A3001 BECMG=
201008280800 METAR MROC 280800Z 00000KT 2000 BR SCT002 BKN100 21/21 A2999 BECMG=
201008280900 METAR MROC 280900Z 00000KT 8000 VCFG FEW003 BKN100 21/21 A2996 BECMG=
201008281000 METAR MROC 281000Z 00000KT 4000 BR FEW002 SCT005 BKN100 20/20 A2997 RMK BECMG 1000 BR BKN001=
201008281100 METAR MROC 281100Z 27004KT 1200 BR FEW002 BKN005 20/20 A2999 RMK BECMG 4000 BR=
201008281200 METAR MROC 281200Z 00000KT 2500 -DZ BR SCT002 BKN008 20/20 A3000 BECMG 2000 BR=
201008281300 METAR MROC 281300Z 00000KT 2000 DZ BR VCFG FEW001 BKN006 21/21 A3002 BECMG 5000=
201008281400 METAR MROC 281400Z 00000KT 9999 VCFG FEW001 BKN015 22/21 A3002 REDZ RMK FEW100 BECMG=
201008281500 METAR MROC 281500Z 13004KT 9999 FEW020TCU BKN100 23/22 A3003 RMK FEW250 BECMG 24006KT=
201008281600 METAR MROC 281600Z VRB02KT 9999 FEW018TCU BKN100 26/20 A3002 RMK FEW250 BECMG 24006KT=
201008281700 METAR MROC 281700Z 23008KT 9999 SCT022TCU BKN100 27/24 A2999 RMK CB DST S RA DST E BECMG=
201008281800 METAR MROC 281800Z 24012KT 9999 VCSH FEW001 BKN010CB 26/23 A2997 RMK FEW250 BECMG 6000 SHRA=
201008281900 METAR MROC 281900Z 25007KT 9999 4000SW SHRA FEW001 SCT010CB SCT080 23/23 A2996 RMK VIS QUAD N 4KM SHRA BECMG 3000 TSRA=
201008282000 METAR MROC 282000Z 26007KT 2000 0500SW DZ FG FEW001 BKN005 21/21 A2996 RMK FEW010 BECMG 1500 RA BR=
201008282100 METAR MROC 282100Z 26005KT 2000 -RA BR FEW001 SCT005 BKN020 21/21 A2995=
201008282200 METAR MROC 282200Z 27006KT 5000 -RA BR FEW001 SCT005 BKN020 20/20 A2995=
201008282300 METAR MROC 282300Z 22006KT 2000 RA BR FEW001 SCT003 BKN020 20/20 A2997 BECMG=
201008290000 METAR MROC 290000Z 00000KT 8000 -RA FEW003 SCT020 OVC100 20/20 A3000 BECMG=
201008290100 METAR MROC 290100Z 00000KT 9999 -RA SCT020 OVC100 20/20 A3002 BECMG=
201008290200 METAR MROC 290200Z 00000KT 9999 -RA SCT020 OVC100 20/20 A3003 BECMG=
201008290300 METAR MROC 290300Z 00000KT 9999 -RA OVC100 20/20 A3003 BECMG=
201008290400 METAR MROC 290400Z 00000KT 9999 -RA OVC100 20/20 A3004 BECMG=
201008290500 METAR MROC 290500Z 04003KT 9999 -DZ OVC100 20/20 A3004 RMK OVC100 BECMG=
201008290600 METAR MROC 290600Z 00000KT 9999 DZ OVC100 20/20 A3003 BECMG=
201008290700 METAR MROC 290700Z 00000KT 9999 -RA OVC100 19/19 A3001 BECMG=
201008290800 METAR MROC 290800Z 09003KT CAVOK 19/19 A2998 RMK BKN120 BECMG=
201008290900 METAR MROC 290900Z 08005KT CAVOK 19/19 A2996 RMK BKN120 BECMG=
201008291000 METAR MROC 291000Z 09004KT CAVOK 20/20 A2996 RMK BKN120 BECMG=
201008291100 METAR MROC 291100Z 10004KT CAVOK 20/19 A2996 RMK BKN120 BECMG=
201008291200 METAR MROC 291200Z 08005KT CAVOK 20/19 A2998 RMK BKN120 BECMG=
201008291300 METAR MROC 291300Z 00000KT CAVOK 20/20 A3001 RMK BKN120 BECMG 24008KT=
201008291400 METAR MROC 291400Z 00000KT CAVOK 21/20 A3003 RMK BKN120 ST LOW SW=
201008291500 METAR MROC 291500Z 00000KT CAVOK 23/21 A3003 RMK BKN120 ST LOW SW BECMG 2400 6KT=
201008291600 METAR MROC 291600Z 25004KT 9999 FEW040 BKN120 24/21 A3004 BECMG=
201008291700 METAR MROC 291700Z 25002KT 9999 FEW040 BKN120 25/21 A3003 BECMG=
201008291800 METAR MROC 291800Z 26008KT 210V280 9999 SCT040 BKN120 26/22 A3001 BECMG=
201008291900 METAR MROC 291900Z 25009KT 9999 SCT040 BKN110 26/23 A2999 BECMG=
201008292000 METAR MROC NIL=
201008292100 METAR MROC 292100Z 24006KT 9000 3000S RA BR VCSH SCT015 BKN100 22/22 A2997 RMK VIS 7KM NE BECMG 7000 SHRA=
201008292200 METAR MROC 292200Z 24008KT 7000 3000N -RA BR SCT003 BKN100 22/22 A2997 RMK FEW015 BECMG 5000 -SHRA=
201008292300 METAR MROC 292300Z 24006KT 2000 BR SCT002 OVC008 21/21 A2997 BECMG=
201008300000 METAR MROC 300000Z 27009KT 1500 -RA BR BKN003 21/21 A2999 BECMG 3000 BKN015=
201008300100 METAR MROC 300100Z 30004KT 3000 RA BR SCT002 BKN010 21/21 A3002 BECMG 5000=
201008300200 METAR MROC 300200Z 00000KT 7000 3000SW RA BR SCT001 BKN008 20/20 A3004 BECMG=
201008300300 METAR MROC 300300Z 00000KT 4900 -RA BR SCT001 BKN008 21/21 A3007 RERA RMK VIS E UNL BECMG=
201008300400 METAR MROC 300400Z 00000KT 2000 BR SCT001 BKN008 21/21 A3008 RMK VIS E UNL BECMG 0900 FG=
201008300500 METAR MROC 300500Z 00000KT 2000 BR VV/// 20/20 A3007 REDZ BECMG=
201008300600 METAR MROC 300600Z 00000KT 0650 FG VV/// 20/20 A3006 BECMG=
201008300700 METAR MROC 300700Z 00000KT 1000 BR VV/// 20/20 A3004 BECMG=
201008300800 METAR MROC 300800Z 00000KT 2000 BR SCT001 BKN008 20/20 A3004 RMK VIS E UNL BECMG=
201008300900 METAR MROC 300900Z VRB02KT 9999 4000S BR FEW001 SCT008 20/20 A3003 RMK FEW100 TS DST S BECMG=
201008301000 METAR MROC 301000Z 09006KT 9999 4000S BR FEW001 19/19 A3001 BECMG=
201008301100 METAR MROC 301100Z 08003KT 9999 FEW001 19/19 A3001 BECMG=
201008301200 METAR MROC 301200Z 08006KT 9999 FEW001 BKN250 20/20 A3003 BECMG=
201008301300 METAR MROC 301300Z 10006KT CAVOK 23/20 A3005 RMK FEW050 SCT250 BECMG=
201008301400 METAR MROC 301400Z 08007KT CAVOK 25/21 A3006 RMK FEW120 BKN250 LGT HZ QUAD W BECMG=
201008301500 METAR MROC 301500Z 10005KT 090V150 CAVOK 27/19 A3006 RMK VEL MAX VTO 11KT FEW050 BKN250 BECMG=
201008301600 METAR MROC 301600Z 13006KT 100V170 9999 FEW045 BKN250 27/20 A3006 RMK FEW130 BECMG 24005KT=
201008301700 METAR MROC 301700Z 13004KT 9999 FEW045 SCT250 29/19 A3005 RMK FEW120 BECMG 24005KT=
201008301800 METAR MROC 301800Z 25009KT 9999 FEW030TCU SCT045 28/23 A3002 RMK FEW110 TCU/RN DST E BECMG=
201008301900 METAR MROC 301900Z 25008KT 9999 4000W -TSRA FEW010CB FEW020 SCT030TCU 26/24 A3000 BECMG 7000 +SHRA=
201008302000 METAR MROC 302000Z 27007KT 9999 VCSH FEW015 SCT030TCU 26/24 A2999 RMK FEW090 VIS 8KM NW BECMG=
201008302100 METAR MROC 302100Z 24002KT 9999 -RA FEW010 SCT025 TCU 26/23 A2998 BECMG 7000 -RA=
201008302200 METAR MROC 302200Z 28004KT 9999 SCT020 BKN250 25/23 A2997 BECMG=
201008302300 METAR MROC 302300Z 24006KT 9999 SCT015 BKN250 24/23 A2998 BECMG=
201008310000 METAR MROC 310000Z 25005KT 7000 SCT005 BKN100 22/22 A3000 BECMG 2000 BR=
201008310100 METAR MROC 310100Z 30003KT 9999 FEW005 BKN100 22/22 A3002 BECMG=
201008310200 METAR MROC 310200Z 28003KT 8000 VCFG FEW005 BKN100 22/22 A3003 BECMG=
201008310300 METAR MROC 310300Z 00000KT 8000 VCFG FEW005 BKN100 22/22 A3004 BECMG=
201008310400 METAR MROC 310400Z 00000KT 8000 3000SW BR FEW001 SCT005 SCT100 21/21 A3004 BECMG=
201008310500 METAR MROC 310500Z VRB02KT 9999 3000W BR FEW001 SCT005 SCT100 21/21 A3002 BECMG=
201008310600 METAR MROC 310600Z 16003KT 9999 FEW030 SCT120 21/21 A3001 BECMG=
201008310700 METAR MROC 310700Z 00000KT 9999 FEW030 SCT120 20/20 A3001 RMK BCFG DST SW LTNG DST SW BECMG=
201008310800 METAR MROC 310800Z 07006KT CAVOK 21/20 A2998 RMK SCT120 SCT250 LTNG DST SW BECMG=
201008310900 METAR MROC 310900Z 05002KT CAVOK 20/19 A2998 RMK SCT120 SCT250 LTNG DST SW BECMG=
201008311000 METAR MROC 311000Z 09007KT CAVOK 21/19 A2999 RMK SCT120 SCT250 LTNG DST SW BECMG=
201008311100 METAR MROC 311100Z 00000KT CAVOK 20/19 A3000 RMK SCT120 SCT250 LTNG DST SW BECMG=
201008311200 METAR MROC 311200Z 05006KT CAVOK 21/19 A3000 RMK SCT120 BKN250 BECMG=
201008311300 METAR MROC 311300Z 04006KT CAVOK 22/19 A3001 RMK SCT120 BKN250 BECMG=
201008311400 METAR MROC 311400Z 09004KT CAVOK 24/20 A3002 RMK FEW120 BKN250 BECMG=
201008311500 METAR MROC 311500Z 10005KT CAVOK 27/19 A3001 RMK SCT120 SCT250 BECMG 24006KT=
201008311600 METAR MROC NIL=
201008311700 METAR MROC 311700Z 14009KT 9999 FEW030 BKN250 29/20 A2999 BECMG 24006KT=
201008311800 METAR MROC 311800Z METAR MEOC 24012KT 9999 SCT020 SCT250 28/25 A2998 BECMG=
201008311840 METAR MROC 311840Z SPECI MRPV 311840Z 29006KT 9999 SCT025TCU BKN250 27/21 A2993 RMK RA DST N NE BECMG=
201008311900 METAR MROC 311900Z 25014KT 9999 SCT020TCU BKN250 27/24 A2995 BECMG 5000 -TSRA=
201008312000 METAR MROC 312000Z 25011KT 8000 2000N TSRA SCT010CB BKN020 24/23 A2995 BECMG 3000 TSRA=
201008312100 METAR MROC 312100Z 11002KT 9999 4000SW -TSRA FEW015CB BKN025 21/21 A2997 BECMG=
201008312200 METAR MROC 312200Z 11003KT 9999 VCSH FEW010 BKN025 20/20 A2995 RETSRA RASH VIS SSW 8KMS BECMG 5000 -RA BR=
201008312300 METAR MROC 312300Z 02003KT 9999 FEW005 BKN025 22/22 A2997 RMK RASH DST E BECMG=
201009010000 METAR MROC 010000Z 00000KT 9999 -RA FEW010 SCT025 BKN100 21/21 A2999 BECMG=
201009010100 METAR MROC 010100Z 09003KT 9999 -DZ FEW030 BKN100 21/21 A2999 BECMG=
201009010200 METAR MROC 010200Z 03003KT CAVOK 21/21 A3001 RMK BKN120 BECMG=
201009010300 METAR MROC 010300Z 00000KT CAVOK 21/21 A3002 RMK SCT070 BKN250 BECMG=
201009010400 METAR MROC 010400Z 00000KT 9999 VCFG FEW090 BKN250 21/21 A3004 RMK VIS 9KM W LTNG DST SW BECMG=
201009010500 METAR MROC 010500Z 00000KT CAVOK 20/20 A3003 RMK BKN250 LTNG DST SW BECMG=
201009010600 METAR MROC 010600Z 00000KT CAVOK 19/19 A3001 RMK BKN250 BECMG=
201009010700 METAR MROC 010700Z 07003KT CAVOK 19/19 A2999 RMK SCT250 BECMG=
201009010800 METAR MROC 010800Z 09003KT CAVOK 19/19 A2998 RMK SCT250 BECMG=
201009010900 METAR MROC 010900Z 09005KT CAVOK 19/19 A2998 RMK SCT250 BECMG=
201009011000 METAR MROC 011000Z 09005KT CAVOK 18/18 A2998 RMK FEW250 BECMG=
201009011100 METAR MROC 011100Z 07004KT CAVOK 18/18 A2999 RMK FEW090 SCT250 BECMG=
201009011200 METAR MROC 011200Z 08004KT CAVOK 19/19 A2999 RMK BKN060 BECMG=
201009011300 METAR MROC 011300Z 00000KT CAVOK 21/20 A3002 RMK BKN080 BECMG=
201009011400 METAR MROC 011400Z 16002KT 9999 FEW020 SCT300 23/20 A3002 RMK LGT HZ ARND CB DST S SSW BECMG 24005KT=
201009011500 METAR MROC 011500Z 21003KT 9999 SCT020 SCT300 24/20 A3002 RMK LGT HZ ARND BECMG=
201009011600 METAR MROC 011600Z 23003KT 9999 SCT025 SCT300 26/21 A3001 BECMG=
201009011700 METAR MROC 011700Z 24006KT 9999 FEW030 SCT300 26/21 A2999 BECMG=
201009011800 METAR MROC 011800Z 24008KT 9999 FEW025TCU SCT300 27/22 A2997 BECMG=
201009011900 METAR MROC 011900Z 23011KT 9999 VCSH SCT020TCU SCT300 27/22 A2995 PCPN S SSW BECMG 7000 SHRA=
201009012000 METAR MROC 012000Z 23010KT 9999 VCSH FEW015CB SCT025 BKN250 26/23 A2994 RMK RASH VIS 8KMS SW RASH DST E SE BECMG 5000 TSRA=
201009012100 METAR MROC 012100Z 24009KT 9999 3000W BR FEW0014 SCT012CB BKN015 21/21 A2994 RESHRA RMK VIS 4KM N BR BECMG 3000 -RA BR=
201009012200 METAR MROC 012200Z 27006KT 2000 TSRA BR FEW001 OVC004 21/21 A2996 BECMG=
201009012300 METAR MROC 012300Z 29003KT 2000 TSRA BR FEW001 SCT002 20/20 A2997 RMK SCT010 VIS 5KM E BR BECMG=
201009020000 METAR MROC 020000Z 34004KT 5000 TSRA VCFG FEW001 SCT008 BKN010 20/20 A2999 RMK VIS E S UNL BECMG=
201009020100 METAR MROC 020100Z VRB02KT 9999 RA FEW001 BKN010 20/20 A3002 RETSRA RMK VIS 7KM SW BR BECMG=
201009020200 METAR MROC 020200Z 00000KT 9999 -RA SCT015 OVC100 20/20 A3003 BECMG=
201009020300 METAR MROC 020300Z 00000KT 9999 -RA FEW005 SCT015 OVC100 20/20 A3006 BECMG=
201009020400 METAR MROC 020400Z 00000KT 9999 SCT020 OVC100 20/20 A3007 BECMG=
201009020500 METAR MROC 020500Z 00000KT 9999 SCT020 OVC100 20/20 A3007 BECMG=
201009020600 METAR MROC 020600Z 00000KT 9999 SCT020 OVC100 20/20 A3006 BECMG=
201009020700 METAR MROC 020700Z 00000KT 9999 SCT020 OVC100 20/20 A3003 BECMG=
201009020800 METAR MROC 020800Z 00000KT 9999 SCT025 SCT100 20/20 A3001 BECMG=
201009020900 METAR MROC 020900Z 00000KT 9999 SCT025 SCT100 20/20 A3000 BECMG=
201009021000 METAR MROC 021000Z 00000KT 9999 BKN025 19/19 A3001 BECMG=
201009021100 METAR MROC 021100Z 04002KT 9999 FEW025 BKN120 20/20 A3002 BECMG=
201009021200 METAR MROC 021200Z 00000KT 9999 FEW015 BKN100 20/20 A3003 BECMG=
201009021300 METAR MROC 021300Z 00000KT 9999 FEW001 BKN100 21/21 A3005 RMK FEW012 BECMG 24006KT=
201009021400 METAR MROC 021400Z VRB02KT 9999 FEW001 BKN006 21/21 A3009 RMK FEW100 BECMG=
201009021500 METAR MROC 021500Z VRB02KT 9999 SCT010 SCT100 23/21 A3010 RMK FEW250 TCU DST SW S BECMG 24004KT=
201009021600 METAR MROC 021600Z VRB02KT 9999 SCT011 SCT250 25/20 A3009 RMK FEW100 TCU DST SW BECMG 24004KT=
201009021700 METAR MROC 021700Z 24007KT 9999 BKN012TCU FEW100 26/21 A3008 BECMG=
201009021800 METAR MROC 021800Z 23008KT 9999 BKN020TCU FEW100 26/22 A3007 RMK RA DST QUAD E BECMG=
201009021900 METAR MROC 021900Z 23013KT 9999 FEW008 BKN020TCU 24/23 A3005 BECMG 4000 -RA BR=
201009022000 METAR MROC 022000Z 24007KT 9999 4500SW DZ BR FEW001 SCT008 BKN020 22/22 A3004 RERA BECMG 3000 -RA BR=
201009022100 METAR MROC 022100Z 24005KT 9999 4000SW BR FEW001 SCT005 BKN020 22/22 A3004 BECMG 3000 -RA BR=
201009022200 METAR MROC 022200Z 24005KT 5000 2000SW DZ BR FEW001 SCT003 BKN020 20/20 A3006 BECMG 3000 -RA BR=
201009022300 METAR MROC 022300Z 24005KT 5000 2000SW DZ BR FEW001 SCT003 BKN020 20/20 A3006 BECMG 3000 -RA BR=
201009030000 METAR MROC 030000Z 00000KT 5000 2000SW -RA BR FEW001 SCT003 BKN020 20/20 A3008 BECMG 3000 RA=
201009030100 METAR MROC 030100Z 00000KT 9999 DZ FEW003 SCT020 BKN100 20/20 A3010 BECMG=
201009030200 METAR MROC 030200Z 00000KT 9999 FEW003 SCT020 BKN100 20/20 A3010 REDZ BECMG=
201009030300 METAR MROC 030300Z 00000KT 5000 DZ BR FEW002 SCT025 BKN100 20/20 A3013 VIS S SW 3KMS VIS SE UNLTD BECMG 3000=
201009030400 METAR MROC 030400Z 00000KT 9999 FEW010 BKN020 20/20 A3013 BECMG=
201009030500 METAR MROC 030500Z 00000KT 9999 FEW010 SCT020 BKN100 20/20 A3013 BECMG=
201009030600 METAR MROC 030600Z 00000KT 9999 4000S BCFG SCT007 BKN020 20/20 A3011 BECMG=
201009030700 METAR MROC 030700Z 00000KT 5000 BR FEW002 SCT005 BKN020 20/20 A3009 VIS SW W 3KMS VIS E SE UNLTD BECMG 3000 BR=
201009030800 METAR MROC 030800Z 00000KT 9999 FEW010 SCT120 20/20 A3007 BECMG=
201009030900 METAR MROC 030900Z 00000KT 9999 FEW020 BKN120 20/20 A3007 BECMG=
201009031000 METAR MROC 031000Z 00000KT CAVOK 20/20 A3008 RMK BKN120 BECMG=
201009031100 METAR MROC 031100Z 00000KT CAVOK 20/20 A3008 RMK BKN120 BECMG=
201009031200 METAR MROC 031200Z 20003KT 9999 FEW025 SCT120 23/23 A2993 RMK ST LOW ARND=
201009031300 METAR MROC 031300Z 00000KT 9999 2000SW BR FEW001 BKN080 20/20 A3013 BECMG 24008KT=
201009031400 METAR MROC 031400Z 00000KT 9999 2000SW BR FEW001 BKN080 21/21 A3014 BECMG 24008KT=
201009031500 METAR MROC 031500Z 00000KT 9999 FEW010 SCT100 BKN250 23/21 A3015 BECMG 24008 KT=
201009031600 METAR MROC 031600Z 25005KT 9999 FEW010 SCT100 BKN250 23/22 A3015 BECMG=
201009031700 METAR MROC 031700Z 27004KT 9999 FEW010 SCT030 BKN250 24/22 A3014 RMK=
201009031800 METAR MROC 031800Z 23005KT 9999 SCT030 BKN250 24/21 A3012 RMK RA DST S BECMG=
201009031900 METAR MROC 031900Z 19003KT 9999 SCT030 BKN250 23/22 A3009 RMK RA DST SE BECMG 8000 VCSH=
201009032000 METAR MROC 032000Z 17003KT 9999 SCT030 BKN250 24/21 A3006 BECMG 8000=
201009032100 METAR MROC 032100Z 23007KT 9000 4000W -RA FEW002 BKN025 22/22 A3006 RMK ST LOW ARND BECMG 7000=
201009032200 METAR MROC 032200Z 23007KT 8000 3000NW -DZ BR FEW003 SCT015 OVC100 21/21 A3006 RMK ST LOW ARND BECMG 5000 BR=
201009032300 METAR MROC 032300Z 24006KT 7000 3000NW -RA BR SCT003 BKN015 20/20 A3008 RMK ST LOW ARND BECMG 5000 -RA BR=
201009040000 METAR MROC 040000Z 25006KT 3000 -RA BR SCT001 BKN009 20/20 A3010 BECMG 5000=
201009040100 METAR MROC 040100Z 26004KT 5000 RA BR FEW003 BKN015 20/20 A3013 BECMG=
201009040200 METAR MROC 040200Z 20003KT 3000 RA BR SCT002 BKN009 19/19 A3015 BECMG=
201009040300 METAR MROC 040300Z 00000KT 6000 DZ SCT001 BKN008 19/19 A3017 RERA BECMG=
201009040400 METAR MROC 040400Z 00000KT 9999 FEW001 BKN100 19/19 A3017 REDZ BECMG=
201009040500 METAR MROC 040500Z 00000KT 9999 RA FEW001 OVC090 20/20 A3015 BECMG=
201009040600 METAR MROC 040600Z 08004KT 9999 FEW001 BKN090 20/20 A3013 RMK FEW030 BECMG=
201009040700 METAR MROC 040700Z 10004KT 9999 FEW035 BKN100 20/20 A3010 BECMG=
201009040800 METAR MROC 040800Z 09005KT 9999 FEW035 BKN100 20/20 A3008 BECMG=
201009040900 METAR MROC 040900Z 08004KT 9999 FEW001 BKN120 20/20 A3006 BECMG=
201009041000 METAR MROC 041000Z 09004KT 9999 FEW001 BKN120 20/20 A3007 BECMG=
201009041100 METAR MROC 041100Z 11004KT 9999 FEW001 BKN120 18/18 A3007 BECMG=
201009041200 METAR MROC 041200Z 08004KT CAVOK 19/18 A3008 RMK BKN080 BECMG=
201009041300 METAR MROC 041300Z 00000KT CAVOK 20/19 A3009 RMK BKN100 BECMG=
201009041400 METAR MROC 041400Z 00000KT CAVOK 22/19 A3011 RMK BKN090 BECMG=
201009041500 METAR MROC 041500Z VRB02KT CAVOK 24/20 A3011 RMK BKN090 BECMG 25006KT=
201009041600 METAR MROC 041600Z 26005KT CAVOK 25/20 A3011 RMK BKN100 FEW250 BECMG=
201009041700 METAR MROC 041700Z 24008KT CAVOK 25/22 A3010 RMK FEW050 SCT100 SCT250 BECMG=
201009041800 METAR MROC 041800Z 24008KT 9999 VCSH FEW040 BKN100 26/21 A3008 RMK TCU E RN DST NE FEW250 BECMG=
201009041900 METAR MROC 041900Z 24010KT 9999 VCSH SCT035 BKN250 25/22 A3005 RMK SCT110 TCU/RN NE/E BECMG=
201009042000 METAR MROC 042000Z 24008KT 9999 VCSH SCT035 BKN250 25/22 A3002 RMK FEW120 TCU/RN NE BECMG=
201009042100 METAR MROC 042100Z 23007KT 9999 -RA SCT025 BKN100 24/22 A3001 BECMG 6000 RA=
201009042200 METAR MROC 042200Z 24006KT 9999 -TSRA SCT020CB BKN100 22/22 A3001 BECMG 5000 -RA BR=
201009042300 METAR MROC 042300Z 25007KT 9999 FEW004 SCT010 BKN100 21/21 A3003 BECMG 4000 -RA BR=
201009050000 METAR MROC 050000Z 25005KT 9999 FEW004 SCT010 BKN100 21/21 A3006 BECMG 8000 VCFG=
201009050100 METAR MROC 050100Z 00000KT 9999 FEW004 SCR010 BKN100 21/21 A3007 BECMG 4000 BR=
201009050200 METAR MROC 050200Z 00000KT 9999 -RA FEW007 SCT020 OVC100 20/20 A3007 BECMG=
201009050300 METAR MROC 050300Z 00000KT CAVOK 20/20 A3007 RMK BKN100 BECMG=
201009050400 METAR MROC 050400Z 00000KT CAVOK 20/20 A3008 RMK BKN100 BCFG S BECMG=
201009050500 METAR MROC 050500Z 00000KT 9999 1000SW BR FEW001 SCT003 BKN100 20/20 A3007 BECMG 5000 BR=
201009050600 METAR MROC 050600Z 00000KT 9999 3000SW BR FEW001 SCT005 BKN100 20/20 A3005 BECMG 5000 BR=
201009050700 METAR MROC 050700Z 10003KT CAVOK 19/19 A3002 RMK SCT120 SCT250 ST LOW SW BECMG=
201009050800 METAR MROC 050800Z 06003KT CAVOK 18/18 A3000 RMK SCT120 SCT250 ST LOW SW BECMG=
201009050900 METAR MROC 050900Z 04006KT CAVOK 18/18 A2999 RMK SCT120 SCT250 ST LOW SW BECMG=
201009051000 METAR MROC 051000Z 09004KT CAVOK 19/19 A2999 RMK SCT120 SCT250 ST LOW SW BECMG=
201009051100 METAR MROC 051100Z 03003KT CAVOK 18/18 A3001 RMK SCT120 SCT250 BECMG=
201009051200 METAR MROC 051200Z 10004KT CAVOK 18/18 A3002 RMK SCT120 SCT250 ST LOW S BECMG=
201009051300 METAR MROC 051300Z 09005KT CAVOK 21/20 A3004 RMK SCT120 BKN250 BECMG=
201009051400 METAR MROC 051400Z 11008KT 9999 FEW025 SCT250 24/20 A3005 BECMG=
201009051500 METAR MROC 051500Z 13005KT 9999 FEW025 SCT250 26/21 A3004 BECMG 24005KT=
201009051600 METAR MROC 051600Z 10005KT 9999 FEW025 SCT250 27/20 A3003 BECMG 24005KT=
201009051700 METAR MROC 051700Z 11006KT 9999 FEW025 SCT250 28/21 A3001 BECMG 24005KT=
201009051800 METAR MROC 051800Z 14003KT 9999 SCT015TCU SCT250 29/20 A2999 BECMG 24005KT=
201009051900 METAR MROC 051900Z 27006KT 8000 -TSRA SCT010CB SCT250 22/22 A2996 BECMG 5000 TSRA=
201009052000 METAR MROC 052000Z 26008KT 8000 -TSRA SCT007CB BKN020 20/20 A2998 BECMG 5000 TSRA=
201009052100 METAR MROC 052100Z 32006KT 8000 -RA VCSH SCT015 BKN030 20/20 A2997 RETS BECMG 5000 -RA BR=
201009052200 METAR MROC 052200Z 00000KT 9999 -RA FEW015 SCT030 BKN100 21/21 A2997 BECMG 5000 -RA BR=
201009052300 METAR MROC 052300Z 00000KT 9999 -RA FEW010 BKN100 20/20 A2998 BECMG=
201009060000 METAR MROC 060000Z 00000KT 9999 -RA SCT025 BKN100 20/20 A3000 BECMG=
201009060100 METAR MROC 060100Z 00000KT 9999 VCFG SCT010 BKN025 20/20 A3003 VIS SW W 8KMS BECMG 5000 BR=
201009060200 METAR MROC 060200Z 00000KT 9999 DZ VCFG SCT010 BKN025 20/20 A3006 RMK VIS S SW 8KMS BECMG=
201009060300 METAR MROC 060300Z 29003KT 9999 DZ SCT002 BKN010 20/20 A3008 BECMG=
201009060400 METAR MROC 060400Z 28005KT 9999 -DZ VCFG SCT002 BKN015 20/20 A3009 RMK VIS 8KM NW BECMG=
201009060500 METAR MROC 060500Z 28004KT 9999 SCT003 BKN020 20/20 A3008 BECMG=
201009060600 METAR MROC 060600Z 31003KT 9999 FEW004 SCT015 BKN100 20/20 A3005 BECMG=
201009060700 METAR MROC 060700Z 00000KT 9999 SCT025 BKN250 20/20 A3002 BECMG=
201009060800 METAR MROC 060800Z 00000KT 9999 SCT030 BKN250 19/19 A3001 RMK FEW080 BECMG=
201009060900 METAR MROC 060900Z 00000KT CAVOK 19/19 A3000 RMK BKN250 BECMG=
201009061000 METAR MROC 061000Z 05005KT CAVOK 18/18 A3001 RMK BKN250 BECMG=
201009061100 METAR MROC 061100Z 06005KT CAVOK 19/19 A3001 RMK SCT130 SCT250 BECMG=
201009061200 METAR MROC 061200Z 00000KT CAVOK 19/19 A3002 RMK SCT130 BKN250 CB DST SW BECMG=
201009061300 METAR MROC 061300Z 13002KT CAVOK 20/20 A3004 BKN250 CB DST SSW SW BECMG=
201009061400 METAR MROC 061400Z 00000KT CAVOK 22/20 A3007 RMK BKN250 BECMG 24006KT=
201009061500 METAR MROC 061500Z 25005KT 9999 FEW030 BKN250 24/21 A3007 RMK CB LINE DST S SSW SW BECMG=
201009061600 METAR MROC 061600Z 25008KT 9999 SCT025 SCT250 25/22 A3008 BECMG=
201009061700 METAR MROC 061700Z 23009KT 9999 FEW020TCU SCT030 BKN250 24/22 A3008 RMK PCPN DST SE BECMG VCSH=
201009061800 METAR MROC 061800Z 23007KT 9999 -RA VCSH FEW020TCU SCT030 BKN100 23/22 A3006 RMK VIS E 8KMS BECMG 5000 SHRA=
201009061900 METAR MROC 061900Z 24005KT 8000 -RA VCSH FEW020TCU SCT030 BKN100 21/21 A3005 BECMG 5000 SHRA=
201009062000 METAR MROC 062000Z 24003KT 9999 VCSH FEW015CB SCT025 BKN100 21/21 A3003 RMK VIS N NE 8KMS BECMG 5000 -TSRA=
201009062100 METAR MROC 062100Z 23004KT 9999 FEW012 BKN100 22/22 A3002 RMK VIS N 8KM TCU DST SW BECMG=
201009062200 METAR MROC 062200Z VRB02KT 9999 FEW012TCU SCT015 BKN100 22/21 A3001 BECMG=
201009062300 METAR MROC 062300Z 00000KT 9999 FEW022 SCT080 22/21 A3003 RMK SCT100 TCU DST SW BECMG=
201009070000 METAR MROC 070000Z 25004KT 9999 FEW001 SCT080 21/21 A3005 RMK VIS 6KM TCU SW SCT100 BECMG 5000 BR=
201009070100 METAR MROC 070100Z 24003KT 3000 BR SCT001 BKN015 21/21 A3007 RMK VIS E UNL BECMG 0800 FG=
201009070200 METAR MROC 070200Z 26004KT 1500 BR SCT001 BKN015 20/20 A3009 RMK VIS E 6KM BECMG=
201009070300 METAR MROC 070300Z 22004KT 9999 FEW002 SCT010 BKN100 20/20 A3011 BECMG=
201009070400 METAR MROC 070400Z 24004KT 9999 VCFG FEW004 SCT010 BKN100 20/20 A3012 BECMG=
201009070500 METAR MROC 070500Z 26003KT 6000 VCFG FEW002 SCT010 BKN100 20/20 A3012 BECMG 3000 BR=
201009070600 METAR MROC 070600Z 00000KT 60000 VCFG FEW002 SCT010 BKN100 20/20 A3011 BECMG 3000 BR=
201009070700 METAR MROC 070700Z 00000KT 9999 VCFG FEW002 SCT010 BKN100 20/20 A3009 BECMG=
201009070800 METAR MROC 070800Z 00000KT CAVOK 20/20 A3007 RMK SCT120 BECMG=
201009070900 METAR MROC 070900Z 00000KT CAVOK 20/20 A3006 RMK SCT120 BECMG=
201009071000 METAR MROC 071000Z 00000KT CAVOK 20/20 A3006 RMK SCT120 BECMG=
201009071100 METAR MROC 071100Z 00000KT CAVOK 20/20 A3006 RMK BKN120 ST LOW SW BECMG=
201009071200 METAR MROC 071200Z 00000KT CAVOK 19/19 A3007 RMK BKN120 BECMG=
201009071300 METAR MROC 071300Z VRB02KT 9999 FEW001 BKN120 21/21 A3009 BECMG=
201009071400 METAR MROC 071400Z 22005KT 9999 3000SW BR FEW001 BKN120 21/21 A3012 RMK FEW012 BECMG=
201009071500 METAR MROC 071500Z 23004KT 9999 SCT018 SCT120 22/21 A3013 RMK TCU DST SW BR E BECMG=
201009071600 METAR MROC 071600Z 28004KT 9999 SCT020 SCT120 24/21 A3012 BECMG=
201009071700 METAR MROC 071700Z 24007KT 9999 FEW015TCU SCT020 SCT250 25/22 A3011 BECMG=
201009071800 METAR MROC 071800Z 22009KT 9999 BKN022 26/22 A3008 RMK FEW250 BECMG=
201009071900 METAR MROC 071900Z 22008KT 9999 SCT020CB SCT250 26/23 A3005 RMK CB RA E BECMG 7000 VCSH=
201009072000 METAR MROC 072000Z 23008KT 9999 FEW012CB FEW080 BKN200 24/22 A3003 RMK CB RA S BECMG=
201009072100 METAR MROC 072100Z 25005KT 7000 2000SW RA BR FEW012CB SCT020 BKN100 23/23 A3003 BECMG 3000=
201009072200 METAR MROC 072200Z 08002KT 7000 3000N -RA BR FEW002 SCT020 BKN100 21/21 A3003 BECMG=
201009072300 METAR MROC 072300Z 00000KT 7000 3000N -RA BR FEW002 SCT020 OVC100 21/21 A3004 RMK VIS S UNL BECMG=
201009080000 METAR MROC 080000Z 00000KT 8000 -RA BR FEW002 SCT020 OVC100 20/20 A3007=
201009080100 METAR MROC 080100Z 29003KT 0500 FG VV/// 21/21 A3008 BECMG 2000 BR=
201009080200 METAR MROC 080200Z 24004KT 2000 -DZ BR FEW001 SCT005 OVC100 21/21 A3010 BECMG 3000 -RA BR=
201009080300 METAR MROC 080300Z 25002KT 3000 -DZ BR FEW002 SCT005 BKN100 20/20 A3011 BECMG 5000=
201009080400 METAR MROC 080400Z 23003KT 1500 BR SCT002 BKN004 20/20 A3011 RMK CONDICIONES VARIABLES BECMG 0500 FG=
201009080500 METAR MROC 080500Z 24003KT 1500 DZ BR SCT001 BKN004 20/20 A3011 BECMG 0500 FG=
201009080600 METAR MROC 080600Z 00000KT 0500 DZ FG VV/// 20/20 A3009 BECMG=
201009080700 METAR MROC 080700Z 00000KT 3000 BR FEW002 BKN005 20/20 A3007 CONDICIONES VARIABLES BECMG=
201009080800 METAR MROC 080800Z 00000KT 8000 VCFG SCT005 BKN015 20/20 A3005 VIS SW W 4KMS DUE FG BECMG=
201009080900 METAR MROC 080900Z 00000KT 9999 VCFG FEW005 BKN020 20/20 A3004 VIS SSW SW 8KMS BECMG=
201009081000 METAR MROC 081000Z 04003KT 9999 BCFG FEW010 BKN025 20/20 A3003 RMK NIEBLA LIGERA AL S SW BECMG=
201009081100 METAR MROC 081100Z 08003KT 9999 FEW025 SCT250 20/20 A3004 BECMG=
201009081200 METAR MROC 081200Z 05007KT 9999 BCFG FEW140 BKN250 19/19 A3004 RMK=
201009081300 METAR MROC 081300Z 08007KT CAVOK 22/20 A3007 RMK FEW140 BKN250 ST LOW SW=
201009081400 METAR MROC 081400Z 110003KT CAVOK 23/21 A3008 RMK BKN250 BECMG=
201009081500 METAR MROC 081500Z 11007KT CAVOK 25/20 A3008 RMK BKN250 BECMG=
201009081600 METAR MROC 081600Z 16005KT 9999 FEW040 BKN250 28/20 A3008 BECMG 24007KT=
201009081700 METAR MROC 081700Z 23010KT 9999 FEW040 BKN250 27/24 A3007 BECMG=
201009081800 METAR MROC 081800Z 23009KT 9999 SCT030 BKN250 26/24 A3005 BECMG=
201009081900 METAR MROC 081900Z 25008KT 9999 RA FEW010 BKN030 25/23 A3003 BECMG=
201009082000 METAR MROC 082000Z 23007KT 8000 3000SW -TSRA FEW015CB SCT025 BKN100 23/23 A3001 BECMG=
201009082100 METAR MROC 082100Z 23007KT 7000 3000NW -RA VCTS SCT010 BKN100 23/23 A2999 RETS RMK SCT025 VIS 5KM SW BECMG 5000 -RA BR=
201009082200 METAR MROC 082200Z 25006KT 5000 2000SW -TSRA BR FEW005CB SCT008 BKN015 22/22 A3000 BECMG 2000=
201009082300 METAR MROC 082300Z 25004KT 5000 -RA BR SCT002 BKN100 21/21 A3001 RMK SCT015 BECMG 7000 -RA BR=
201009090000 METAR MROC 090000Z VRB02KT 6000 2000SW -RA BR SCT005 BKN025 21/21 A3005 RMK VIS NE/E UNLD BECMG=
201009090100 METAR MROC 090100Z 23004KT 7000 2000SW RA BR SCT003 BKN020 20/20 A3007 RMK TS DST NW BECMG=
201009090200 METAR MROC 090200Z 18005KT 5000 -RA BR SCT002 BKN020 18/18 A3012 RESHRA RMK FEW010 TS DST NW BECMG 7000=
201009090300 METAR MROC 090300Z 11005KT 9999 FEW001 SCT120 18/18 A3009 BECMG=
201009090400 METAR MROC 090400Z 10007KT 9999 FEW001 SCT120 19/19 A3008 BECMG=
201009090500 METAR MROC 090500Z 09009KT CAVOK 20/19 A3006 RMK SCT120 BECMG=
201009090600 METAR MROC 090600Z 09007KT CAVOK 20/18 A3004 RMK LW ST E BKN120 BECMG=
201009090700 METAR MROC 090700Z 10009KT CAVOK 20/18 A3002 RMK LW ST SE BKN120 BECMG=
201009090800 METAR MROC 090800Z 11002KT CAVOK 20/18 A3000 RMK BR ARND BKN100 BECMG=
201009090900 METAR MROC 090900Z 12003KT CAVOK 19/18 A3001 RMK BR ARND BKN100 BECMG=
201009091000 METAR MROC 091000Z 29004KT 9999 FEW001 BKN100 18/18 A3003 BECMG 4000 BR=
201009091100 METAR MROC 091100Z 00000KT 2000 BR SCT001 BKN003 18/18 A3005 RMK VIS 5KM E BECMG 4000 BR=
201009091200 METAR MROC 091200Z 00000KT 9999 4000SW BR VCFG FEW001 BKN100 19/19 A3006 RMK FEW020 BECMG 9999=
201009091300 METAR MROC 091300Z 00000KT 9999 VCFG FEW040 SCT120 20/20 A3008 RMK CB DST S/SW BECMG=
201009091400 METAR MROC 091400Z VRB02KT 9999 FEW040 SCT120 22/20 A3010 RMK FEW250 HZ DST E BECMG 24005KT=
201009091500 METAR MROC 091500Z VRB02KT 9999 SCT040 BKN110 24/20 A3010 RMK HZ E BECMG 24006KT=
201009091600 METAR MROC 091600Z 00000KT 9999 FEW040 BKN110 25/20 A3008 RMK HZ E BECMG 24005KT=
201009091700 METAR MROC 091700Z 24006KT 9999 FEW040 BKN110 26/21 A3006 BECMG=
201009091800 METAR MROC 091800Z 24009KT 9999 SCT040 SCT200 27/22 A3004 RMK FEW110 HZ DST E BECMG=
201009091900 METAR MROC 091900Z 26012KT 9999 VCSH FEW015 SCT040 BKN250 25/21 A3002 BECMG 7000 -SHRA=
201009092000 METAR MROC 092000Z 26014KT 9999 VCSH SCT020 BKN035 23/22 A3000 RMK VIS 6KM NW BECMG 7000 -SHRA=
201009092100 METAR MROC 092100Z 24008KT 9999 5000E -RA BR FEW001 SCT015 BKN035 22/22 A3000 BECMG 2000 RA BR=
201009092200 METAR MROC 092200Z 21002KT 9999 4000N BR FEW002 SCT020 BKN100 21/21 A3000 BECMG=
201009092300 METAR MROC 092300Z 00000KT 9999 SCT020 BKN100 21/21 A3000 BECMG=
201009100000 METAR MROC 100000Z 10004KT CAVOK 21/21 A3001 RMK SCT100 BKN250 BECMG=
201009100100 METAR MROC 100100Z 10003KT CAVOK 20/20 A3000 RMK SCT100 BKN250 BECMG=
201009100200 METAR MROC 100200Z 09005KT CAVOK 20/20 A3000 RMK SCT100 BKN250 BECMG=
201009100300 METAR MROC 100300Z 09003KT CAVOK 21/20 A3003 RMK BKN250 BECMG=
201009100400 METAR MROC 100400Z 09003KT CAVOK 20/20 A3005 BKN250 BECMG=
201009100500 METAR MROC 100500Z 12003KT CAVOK 19/19 A3006 RMK BKN250 BECMG=
201009100600 METAR MROC 100600Z 00000KT 9999 FEW005 SCT035 SCT250 20/20 A3005 BECMG=
201009100700 METAR MROC 100700Z 00000KT 5000 BR FEW003 SCT035 SCT250 19/19 A3003 BECMG=
201009100800 METAR MROC 100800Z 00000KT 5000 BR FEW003 SCT030 19/19 A3002 BECMG=
201009100900 METAR MROC 100900Z 06003KT 5000 BR FEW003 SCT030 19/19 A3000 BECMG=
201009101000 METAR MROC 101000Z 04002KT 9999 VCFG FEW003 SCT030 19/19 A3000 BECMG=
201009101100 METAR MROC 101100Z 08003KT 9999 FEW030 18/18 A3002 BECMG=
201009101200 METAR MROC 101200Z 07005KT CAVOK 19/19 A3001 RMK FEW070 BECMG=
201009101300 METAR MROC 101300Z 00000KT CAVOK 22/20 A3003 RMK HZ ARND FEW250 BECMG 24006KT=
201009101400 METAR MROC 101400Z 13002KT CAVOK 25/20 A3004 RMK HZ W FEW250 BECMG 24006KT=
201009101500 METAR MROC 101500Z 00000KT 9999 FEW025 SCT250 27/20 A3004 RMK HZ W BECMG 24006KT=
201009101600 METAR MROC 101600Z 22005KT 9999 FEW025 SCT250 27/22 A3003 BECMG=
201009101700 METAR MROC 101700Z 27012KT 9999 SCT020TCU SCT250 26/23 A3003 BECMG=
201009101800 METAR MROC 101800Z 26010KT 9999 SCT015TCU 26/23 A3001 RMK BECMG 5000 -TSRA=
201009101900 METAR MROC 101900Z 25006KT 9999 -TS VCSH SCT010CB BKN110 24/21 A3000 RMK 8000 E BECMG 5000 +TSRA=
201009102000 METAR MROC 102000Z 00000KT 9999 -TSRA SCT010CB BKN100 23/23 A2999 RMK VIS 8000 E BECMG 5000 +TSRA=
201009102100 METAR MROC 102100Z 34003KT 9999 -RA VCSH FEW006 FEW015CB BKN025 22/22 A2998 RASH VIS 8KMS TO W QUAD BECMG=
201009102200 METAR MROC 102200Z 00000KT 9999 FEW010 SCT030 BKN100 23/22 A2996 CB DST SSE BECMG=
201009102300 METAR MROC 102300Z 00000KT 9999 FEW020 SCT120 BKN250 22/22 A2997 RMK CB DST S W BECMG=
201009110000 METAR MROC 110000Z 23004KT 6000 FEW002 SCT003 BKN120 22/22 A2999 RMK VIS E UNLTD BECMG 3000 BR=
201009110001 METAR MROC 110001Z 23004KT 6000 FEW002 SCT003 BKN120 22/22 A2999 RMK VIS RED DUE LOW ST VIS E UNLTD BECMG 3000 BR=
201009110100 METAR MROC 110100Z 00000KT 6000 FEW002 BKN007 21/21 A3001 VIS SW 3KMS DUE LOW ST BECMG 4000=
201009110101 METAR MROC 110101Z 00000KT 6000 FEW002 BKN007 21/21 A3001 VIS SW 3KMS DUE LOW ST BECMG 4000 BR=
201009110200 METAR MROC 110200Z 00000KT 8000 VCFG FEW002 SCT006 BKN120 21/21 A3003 VIS SW 5KMS DUE LOW ST BECMG 4000 BR=
201009110240 METAR MROC 110240Z 00000KT 5000 2000SW BR SCT002 SCT100 21/21 A3004 RMK FEW010 BECMG=
201009110300 METAR MROC 110300Z 00000KT 6000 2500SW BR SCT002 BKN009 21/21 A3005 RMK VIS NE/E UNLD LOW ST ARND BECMG=
201009110400 METAR MROC 110400Z 06005KT 9999 FEW020 SCT250 20/20 A3004 BECMG=
201009110500 METAR MROC 110500Z VRB02KT 9999 FEW003 SCT250 19/19 A3004 BECMG=
201009110600 METAR MROC 110600Z 00000KT 9999 FEW020 SCT250 19/19 A3002 BECMG=
201009110700 METAR MROC 110700Z 06003KT 9999 VCFG FEW015 18/18 A3000 RMK VIS 7KM SW BECMG=
201009110800 METAR MROC 110800Z 11004KT CAVOK 18/18 A2998 RMK FEW250 BECMG=
201009110900 METAR MROC 110900Z VRB02KT CAVOK 18/18 A2998 RMK FEW250 BECMG=
201009111000 METAR MROC 111000Z 10005KT CAVOK 17/17 A2998 RMK FEW050 LTNG DST S BECMG=
201009111100 METAR MROC 111100Z 06003KT CAVOK 18/18 A2997 RMK FEW250 BECMG=
201009111200 METAR MROC 111200Z 08004KT CAVOK 18/18 A2999 RMK SCT250 HZ QUAD W BECMG=
201009111300 METAR MROC 111300Z 10003KT CAVOK 21/19 A3000 RMK SCT250 BECMG 24006KT=
201009111400 METAR MROC 111400Z 12003KT 9999 FEW030 SCT250 25/20 A3002 BECMG 24006KT=
201009111500 METAR MROC 111500Z 15007KT 9999 FEW035 SCT300 27/19 A3001 BECMG 24006KT=
201009111600 METAR MROC 111600Z 26006KT 9999 SCT035 26/22 A3001 HZY BECMG=
201009111700 METAR MROC 111700Z 26010KT 9999 SCT035 26/23 A3000 RMK FEW300 HZY BECMG=
201009111800 METAR MROC 111800Z 26012KT 9999 VCSH FEW015TCU BKN025 26/23 A2998 VIS N 8KMS BECMG 2000 TSRA SCT012CB=
201009111900 METAR MROC 111900Z 24008KT 9999 2000N -TSRA FEW012CB BKN020 23/23 A2996 BECMG 3000 TSRA=
201009112000 METAR MROC 112000Z 22003KT 9999 3000W -RA VCTS SCT012 BKN020 21/21 A2996 BECMG=
201009112100 METAR MROC 112100Z 27003KT 9999 3000SW DZ BR SCT001 BKN035 21/21 A2994 RMK FEW080 BECMG 5000 BR=
201009112200 METAR MROC 112200Z 26006KT 9999 4000SW BR FEW001 FEW013TCU BKN250 23/22 A2994 REDZ RMK CB DST S BECMG=
201009112300 METAR MROC 112300Z 22005KT 9999 3000SW BR FEW001 FEW018TCU SCT200 23/22 A2994 BECMG 3000 BR=
201009120000 METAR MROC 120000Z 26004KT 3000 BR FEW001 SCT030 BKN080 22/22 A2997 RMK VIS E UNL BECMG 1500 BR=
201009120100 METAR MROC 120100Z 00000KT 3000 -RA BR FEW001 SCT015 OVC080 22/22 A2999 BECMG=
201009120200 METAR MROC 120200Z 00000KT 3000 -DZ BR FEW001 SCT020 BKN100 22/22 A3002 BECMG=
201009120300 METAR MROC 120300Z 00000KT 5000 DZ BR FEW002 SCT010 BKN020 21/21 A3004 RMK BECMG 2000 -RA BR BKN001=
201009120400 METAR MROC 120400Z 00000KT 5000 BR FEW002 BKN020 21/21 A3004 RMK BECMG 2000 BR=
201009120500 METAR MROC 120500Z 00000KT CAVOK 20/20 A3001 RMK HZ ARND FEW100 BECMG=
201009120600 METAR MROC 120600Z 04005KT CAVOK 20/20 A2998 RMK FEW100 BECMG=
201009120700 METAR MROC 120700Z 06007KT CAVOK 19/19 A2995 RMK FEW100 BECMG=
201009120800 METAR MROC 120800Z 06007KT CAVOK 19/18 A2995 RMK FEW100 BECMG=
201009120900 METAR MROC 120900Z 00000KT 5000 BR FEW002 SCT020 18/18 A2996 BECMG 2000 BR=
201009121000 METAR MROC 121000Z 00000KT 5000 BR FEW002 SCT020 19/19 A2997 BECMG=
201009121100 METAR MROC 121100Z 00000KT 5000 BR FEW002 BKN020 19/19 A2998 BECMG=
201009121200 METAR MROC 121200Z 00000KT 9999 VCFG FEW002 SCT020 BKN250 19/19 A2999 BECMG=
201009121300 METAR MROC 121300Z 11004KT 9999 FEW001 BKN250 20/20 A3000 RMK TCU DST SW BECMG 24006KT=
201009121400 METAR MROC 121400Z 07005KT CAVOK 23/20 A3001 RMK BKN250 TCU DST SW NE BECMG 24006KT=
201009121500 METAR MROC 121500Z 00000KT CAVOK 25/19 A3001 RMK BKN250 CB DST SW TCU DST NE BECMG 24006KT=
201009121600 METAR MROC 121600Z 23006KT 220V280 CAVOK 26/22 A3001 RMK FEW070 BKN250 TCU DST ARND BECMG=
201009121700 METAR MROC 121700Z 23009KT 9999 FEW030 BKN250 26/23 A2999 RMK TCU DST ARND BECMG=
201009121800 METAR MROC 121800Z 23009KT 9999 SCT035 SCT250 26/22 A2997 RMK TCU ARND BECMG=
201009121900 METAR MROC 121900Z 25011KT 9999 VCSH SCT025CB FEW080 SCT250 26/23 A2995 RMK RA E NE VIS 6KM E BECMG 5000 SHRA=
201009122000 METAR MROC 122000Z 24006KT 5000 2000N TSRA BR SCT020CB FEW040 SCT080 23/23 A2994 BECMG 2000=
201009122100 METAR MROC 122100Z 29008KT 8000 3000SW DZ BR FEW001 SCT020 BKN080 21/21 A2993 VIS S UNL BECMG=
201009122200 METAR MROC 122200Z 27008KT 9999 3000SW BR FEW001 SCT020 BKN080 22/21 A2993 BECMG=
201009122300 METAR MROC 122300Z 33005KT 9999 3000SW BR FEW001 SCT020 BKN080 22/22 A2996 BECMG=
201009130000 METAR MROC 130000Z 31003KT 9999 DZ FEW003 SCT020 OVC080 21/21 A2997 BECMG=
201009130100 METAR MROC 130100Z 33005KT 9999 -TS RA FEW010CB SCT0430 OVC100 20/20 A3000=
201009130200 METAR MROC 130200Z 35004KT 9999 RA FEW010 SCT030 OVC100 20/20 A3002=
201009130300 METAR MROC 130300Z 13002KT 8000 RA SCT035 BKN080 20/20 A3004 BECMG=
201009130400 METAR MROC 130400Z 12003KT 6000 RA SCT035 BKN080 19/19 A3005 BECMG=
201009130500 METAR MROC 130500Z 10004KT 9999 -RA OVC100 19/19 A3003 BECMG=
201009130600 METAR MROC 130600Z 10003KT CAVOK 19/19 A3000 RMK BKN120 BECMG=
201009130700 METAR MROC 130700Z 05003KT CAVOK 19/19 A2998 RMK SCT120 BECMG=
201009130800 METAR MROC 130800Z 09004KT CAVOK 19/19 A2996 RMK SCT120 BECMG=
201009130900 METAR MROC 130900Z 10005KT CAVOK 19/19 A2995 RMK BKN120 BECMG=
201009131000 METAR MROC 131000Z 10004KT CAVOK 19/19 A2996 BECMG=
201009131100 METAR MROC 131100Z 10004KT CAVOK 18/18 A2996 RMK BKN120 BECMG=
201009131200 METAR MROC 131200Z 13003KT CAVOK 18/18 A2997 RMK BKN120 LINEA DE TCU DST S SSW SW BECMG=
201009131300 METAR MROC 131300Z 00000KT CAVOK 20/20 A2999 RMK BKN120 BECMG=
201009131400 METAR MROC 131400Z 18003KT 9999 FEW040 SCT120 BKN250 22/20 A3001 BECMG 24000 7KT=
201009131500 METAR MROC NIL=
201009131600 METAR MROC 131600Z 27004KT 9999 FEW040 BKN250 25/21 A3000 BECMG=
201009131700 METAR MROC 131700Z 26006KT 9999 SCT030 BKN250 26/21 A2997 BECMG=
201009131800 METAR MROC 131800Z 240008KT 9999 SCT030TCU SCT250 27/21 A2996 BECMG=
201009131900 METAR MROC 131900Z 24009KT 9999 SCT030TCU SCT250 26/23 A2993 BECMG 7000 VCSH=
201009132000 METAR MROC 132000Z 25011KT 9999 SCT015TCU BKN030 25/23 A2992 RMK RA DST E=
201009132100 METAR MROC 132100Z 24007KT 7000 3000SW -RA BR SCT002 BKN040 22/22 A2991 RMK FEW015TCU BECMG 5000 -RA BR=
201009132200 METAR MROC 132200Z 26005KT 5000 2000W -RA BR SCT001 BKN010 21/21 A2992 RMK VIS E UNLD ST LOW ARND BECMG=
201009132300 METAR MROC 132300Z 23005KT 2300 RA BR VCTS SCT001 BKN015 21/21 A2995 RMK TS DST N BECMG 3000 -RA BR=
201009132328 METAR MROC 132328Z 00000KT 5000 -RA BR VCTS SCT001 BKN015 21/21 A2997 RMK VIS 3KM SW BECMG 7000 BKN030=
201009140000 METAR MROC 140000Z 36003KT 3000 SHRA BR SCT001 BKN015 20/20 A2998 BECMG=
201009140100 METAR MROC 140100Z 04004KT 9000 -RA FEW003 BKN020 20/20 A3000 BECMG 9999=
201009140200 METAR MROC 140200Z 00000KT 9999 FEW020 SCT050 BKN090 20/20 A3001 BECMG=
201009140300 METAR MROC 140300Z 09003KT 9999 -DZ FEW001 SCT035 BKN090 20/20 A3003 RMK LGT BR ARND BECMG=
201009140400 METAR MROC 140400Z 09003KT 9999 FEW001 BKN080 20/20 A3003 BECMG=
201009140500 METAR MROC 140500Z 05003KT 9999 FEW001 BKN080 20/20 A3001 BECMG=
201009140600 METAR MROC 140600Z 28003KT 9999 DZ FEW001 BKN080 20/20 A3000 BECMG 5000 -RA=
201009140700 METAR MROC 140700Z 00000KT 9999 VCFG FEW001 BKN080 19/19 A2998 REDZ BECMG 5000=
201009140800 METAR MROC 140800Z 00000KT 3000 BR VCFG SCT001 SCT080 19/19 A2996 VIS E 8KM BECMG 2000 BR=
201009140900 METAR MROC 140900Z 09005KT 9999 4000W BR SCT001 SCT100 19/19 A2996 RMK BR ARND BECMG=
201009141000 METAR MROC 141000Z 06006KT 9999 FEW001 BKN100 19/19 A2997 RMK TS DST S BECMG=
201009141100 METAR MROC 141100Z 10005KT 9999 FEW001 BKN120 19/19 A2997 BECMG=
201009141200 METAR MROC 141200Z 11004KT 9999 FEW001 BKN250 19/19 A2997 RMK TCU DST SW FEW120 BECMG=
201009141300 METAR MROC 141300Z 09003KT CAVOK 21/20 A2999 RMK FEW120 SCT250 TCU DST S/SW HZ W BECMG=
201009141400 METAR MROC 141400Z VRB02KT CAVOK 23/20 A3001 RMK SCT250 TCU DST SW HZ QUAD W BECMG 24005KT=
201009141500 METAR MROC 141500Z 22003KT 9999 FEW045 SCT250 25/19 A3002 RMK FEW130 TCU DST S/SW BECMG=
201009141600 METAR MROC 141600Z 26007KT 9999 SCT035 BKN250 26/20 A3002 BECMG=
201009141700 METAR MROC 141700Z 27007KT 9999 FEW030 BKN250 26/21 A3001 RMK FEW040 BECMG=
201009141800 METAR MROC 141800Z 26008KT 9999 FEW030TCU SCT040 BKN250 26/21 A2999 RMK RN DST E BECMG=
201009141900 METAR MROC 141900Z 24009KT 9999 SCT030TCU BKN250 26/23 A2996 RMK FEW110 VEL MAX VTO 14KT BECMG BECMG 8000 VCSH=
201009142000 METAR MROC 142000Z 25010KT 9999 VCSH SCT020TCU SCT035 BKN250 25/23 A2995 BECMG 7000 SHRA=
201009142100 METAR MROC 142100Z 24008KT 5000 -SHRA SCT020TCU BKN030 23/22 A2994 BECMG 3000 TSRA=
201009142200 METAR MROC 142200Z 27006KT 5000 -RA BR FEW010TCU BKN020 21/21 A2996 BECMG=
201009142300 METAR MROC NIL=
201009142335 METAR MROC 142335Z 31004KT 9999 SCT015 BKN100 21/21 A2997 BECMG=
201009150000 METAR MROC 150000Z 31002KT 9999 FEW003 SCT020 BKN100 21/21 A2998 BECMG=
201009150100 METAR MROC 150100Z 00000KT 9999 FEW003 SCT020 BKN100 21/21 A2999 BECMG=
201009150200 METAR MROC 150200Z 00000KT 9999 FEW005 SCT020 BKN100 21/21 A3002 BECMG=
201009150300 METAR MROC 150300Z 00000KT CAVOK 21/21 A3002 RMK BKN100 ST LOW SW BECMG=
201009150400 METAR MROC 150400Z 00000KT 5000 1000SW BR FEW001 SCT005 BKN100 20/20 A3003 RMK VIS QUAD N UNL BECMG=
201009150500 METAR MROC 150500Z 00000KT 9999 2000SW BR FEW001 BKN100 20/20 A3003 BECMG=
201009150600 METAR MROC 150600Z 00000KT 9999 3000SW BR FEW001 SCT100 20/20 A3000 BECMG=
201009150700 METAR MROC 150700Z 00000KT 7000 2000SW BR FEW001 SCT100 20/20 A2998 BECMG=
201009150800 METAR MROC 150800Z 00000KT 9999 3000SW BR FEW001 SCT120 20/20 A2997 BECMG=
201009150900 METAR MROC 150900Z 00000KT CAVOK 19/19 A2997 RMK SCT120 SCT250 BECMG=
201009151000 METAR MROC 151000Z 00000KT CAVOK 19/19 A2996 RMK SCT120 SCT250 BECMG=
201009151100 METAR MROC 151100Z 00000KT CAVOK 18/18 A2998 RMK SCT120 SCT250 BECMG=
201009151200 METAR MROC 151200Z 07002KT 9999 SCT030 BKN070 19/19 A2999 BECMG=
201009151300 METAR MROC 151300Z 06003KT CAVOK 21/21 A3001 RMK FEW250 BECMG 24006KT=
201009151400 METAR MROC 151400Z 06003KT CAVOK 23/20 A3003 RMK SCT250 BECMG 24006KT=
201009151500 METAR MROC 151500Z 25003KT 9999 FEW030 SCT250 25/23 A3003 BECMG=
201009151600 METAR MROC 151600Z 23007KT 9999 SCT025 SCT250 25/21 A3003 BECMG=
201009151700 METAR MROC 151700Z 23008KT 9999 SCT025 SCT250 27/22 A3002 BECMG=
201009151800 METAR MROC 151800Z 22007KT 9999 SCT020TCU SCT250 27/22 A2999 BECMG=
201009151900 METAR MROC 151900Z 21008KT 9999 FEW010CB SCT025 27/23 A2997 RMK RA DST S SW BECMG TSRA=
201009152000 METAR MROC 152000Z 20008KT 9999 FEW010CB BKN025 25/21 A2996 RMK RA DST E BECMG 5000 TSRA=
201009152100 METAR MROC 152100Z 24008KT 9999 FEW025 SCT120 BKN250 25/22 A2994 RMK PCPN DST ENE CB DST S SSE ENE BECMG 5000 SHRA=
201009152200 METAR MROC 152200Z 23005KT 9999 SCT015 BKN100 23/23 A2994 CB RASH DST WNW CB DST E SE BECMG 5000 SHRA=
201009152300 METAR MROC 152300Z 25005KT 9999 FEW007 BKN015 23/23 A2996 BECMG 5000 -RA BR=
201009160000 METAR MROC 160000Z 31004KT 9999 VCFG FEW010 SCT020 BKN120 23/22 A2998 RMK VIS S SSW 8KMS CB LTNG DST N BECMG 5000 -RA BR=
201009160100 METAR MROC 160100Z 23004KT 9999 VCFG FEW005 BKN015 22/22 A2999 VIS S SSW 8KMS BECMG 5000 -RA BR=
201009160200 METAR MROC 160200Z 24003KT 9999 VCFG FEW005 BKN015 23/23 A3002 RMK VIS S SSW 8KMS BECMG=
201009160240 METAR MROC 160240Z 20003KT 9999 -DZ VCFG FEW005 SCT015 BKN080 21/21 A3004 RMK VIS 7KM SW BECMG=
201009160300 METAR MROC 160300Z 21004KT 7000 3000SW BR SCT001 BKN006 22/22 A3005 BECMG 5000 BR=
201009160400 METAR MROC 160400Z VRB02KT 7000 3000SW BR SCT001 BKN006 21/21 A3004 BECMG=
201009160500 METAR MROC 160500Z 00000KT 9999 FEW005 BKN250 21/21 A3003 RMK VIS 7KM NW DUE LOW ST BECMG=
201009160600 METAR MROC 160600Z 00000KT 9999 SCT002 BKN010 21/21 A3002 RMK ST LOW ARND BECMG=
201009160700 METAR MROC 160700Z 00000KT 9000 VCFG SCT006 BKN015 21/21 A3000 RMK VIS 6KM SW BECMG=
201009160800 METAR MROC 160800Z 00000KT 9000 5000SW BR VCFG FEW001 SCT010 BKN250 21/21 A2998 BECMG=
201009160900 METAR MROC 160900Z 00000KT 9999 VCFG FEW003 SCT015 BKN250 20/20 A2997 RMK VIS 6KM SW BECMG=
201009161000 METAR MROC 161000Z 09004KT 9999 FEW030 SCT250 20/20 A2996 BECMG=
201009161100 METAR MROC 161100Z 00000KT CAVOK 19/19 A2997 RMK FEW070 SCT250 BECMG BCFG DST SW BECMG=
201009161200 METAR MROC 161200Z 00000KT 9999 VCFG FEW003 BKN250 19/18 A2998 RMK FEW100 VIS 8KM S BECMG=
201009161300 METAR MROC 161300Z 00000KT CAVOK 20/20 A3000 RMK OVC220 CB DST S HZY BECMG=
201009161400 METAR MROC 161400Z 00000KT 9999 FEW005 BKN250 22/21 A3002 RMK HZY CB DST S BECMG 24004KT=
201009161500 METAR MROC 161500Z 24004KT 9999 FEW010 BKN220 23/20 A3002 HZY BECMG=
201009161600 METAR MROC 161600Z 00000KT 9999 FEW010 BKN220 24/21 A3001 HZY BECMG=
201009161700 METAR MROC 161700Z 23006KT 9999 FEW025 BKN220 26/22 A2999 RMK HZY BECMG=
201009161800 METAR MROC 161800Z 25012KT 9999 FEW025 BKN220 27/22 A2998 RMK HZY BECMG=
201009161900 METAR MROC 161900Z 22009KT 9999 -RA SCT025TCU BKN120 26/23 A2995 RMK VIS NE 6000 KMS HZY ARND BECMG 5000 RA=
201009162000 METAR MROC 162000Z 23006KT 9999 VCTS VCSH FEW015CB SCT025 BKN120 25/22 A2992 RERA RMK RASH VIS SE S 8KMS BECMG 5000 -TSRA=
201009162100 METAR MROC 162100Z 23009KT 3000 DZ BR VCFG FEW001 SCT015TCU SCT070 23/23 A2991 RMK VIS E UNL BECMG 4000 BR=
201009162200 METAR MROC 162200Z 25006KT 3000 BR VCFG FEW001 SCT010TCU SCT070 22/22 A2993 REDZ RMK VIS E 5000 BECMG 2000=
201009162300 METAR MROC 162300Z 11003KT 9999 3000SW -TSRA BR VCFG FEW001CB SCT035 SCT070 20/20 A2993 RETSRA BECMG=
201009170000 METAR MROC 170000Z 24004G26KT 9999 VCFG FEW020 SCT080 BKN200 21/21 A2995 RMK TS SW LW ST SW BECMG=
201009170100 METAR MROC 170100Z 00000KT 9999 4000SW BR VCFG FEW001 SCT010 20/20 A2998 RMK SCT020 BECMG 5000=
201009170200 METAR MROC 170200Z 00000KT 9999 3000SW BR VCFG FEW001 SCT010 20/20 A2999 RMK TS DST SW BECMG 5000=
201009170300 METAR MROC 170300Z 00000KT 2000 BR FEW002 SCT007 BKN100 21/21 A3002 BECMG 0500 FG BKN001=
201009170400 METAR MROC 170400Z 00000KT 2000 BR FEW002 SCT005 BKN100 20/20 A3002 BECMG=
201009170500 METAR MROC 170500Z 00000KT 5000 BR FEW003 SCT010 BKN100 20/20 A3002 BECMG=
201009170600 METAR MROC 170600Z 00000KT 5000 BR FEW003 SCT010 BKN100 20/20 A3000 BECMG=
201009170700 METAR MROC 170700Z 27003KT 9999 FEW015 SCT100 20/20 A2998 BECMG 5000 BR=
201009170800 METAR MROC 170800Z 33002KT CAVOK 20/20 A2996 RMK SCT120 BECMG=
201009170900 METAR MROC 170900Z 11004KT CAVOK 19/19 A2994 RMK FEW120 BECMG=
201009171000 METAR MROC 171000Z 08005KT CAVOK 19/19 A2993 RMK FEW120 BECMG=
201009171100 METAR MROC 171100Z 07004KT CAVOK 19/19 A2992 RMK SCT120 SCT250 BECMG=
201009171200 METAR MROC 171200Z 08005KT CAVOK 19/18 A2992 RMK BKN250 BECMG=
201009171300 METAR MROC 171300Z 09006KT CAVOK 21/18 A2995 RMK FEW120 BKN250 BECMG=
201009171400 METAR MROC 171400Z 00000KT CAVOK 24/19 A2998 RMK BKN250 BECMG 24006KT=
201009171500 METAR MROC 171500Z 22007KT CAVOK 25/22 A2998 RMK FEW120 BKN250 BECMG=
201009171600 METAR MROC 171600Z 26007KT CAVOK 25/21 A2998 RMK FEW120 BKN250 TCU DST E BECMG=
201009171700 METAR MROC 171700Z 26008KT CAVOK 26/22 A2995 RMK TCU DST E FEW120 BKN250 BECMG=
201009171800 METAR MROC 171800Z 25010KT CAVOK 26/23 A2993 RMK TCU DST ARND FEW120 BKN250 BECMG=
201009171900 METAR MROC 171900Z 24011KT 9999 FEW040 BKN250 26/23 A2992 RMK TCU DST ARND BECMG=
201009172000 METAR MROC 172000Z 24009KT 9999 BKN040 24/23 A2990 RMK FEW120 RA DST NE TCU DST ARND BECMG VCSH=
201009172100 METAR MROC 172100Z 25008KT 9999 3000N BR FEW005 BKN030 23/23 A2990 BECMG=
201009172200 METAR MROC 172200Z 25007KT 3000 RA BR FEW001 SCT005 BKN030 22/22 A2991 BECMG=
201009172300 METAR MROC 172300Z 26003KT 4000 BR FEW001 SCT005 BKN030 21/21 A2993 RERA BECMG=
201009180000 METAR MROC 180000Z 30005KT 8000 3000SW BR FEW001 SCT005 BKN030 21/21 A2996 BECMG=
201009180100 METAR MROC 180100Z 33003KT 9999 FEW005 SCT030 BKN100 21/21 A2998 BECMG=
201009180200 METAR MROC 180200Z VRB02KT 9999 FEW005 SCT030 BKN100 21/21 A3000 BECMG=
201009180300 METAR MROC 180300Z 26003KT 9999 FEW007 SCT030 BKN100 21/21 A3001 BECMG 8000 VCFG=
201009180400 METAR MROC 180400Z 00000KT 9999 FEW030 BKN100 21/21 A3001 BECMG 8000=
201009180500 METAR MROC 180500Z 00000KT 9999 VCFG FEW005 SCT120 20/20 A3000 RMK FEW030 VIS S SW 8KMS BECMG=
201009180600 METAR MROC 180600Z 00000KT 9999 4000SW BCFG FEW010 BKN120 20/20 A2999 BECMG 5000 BR=
201009180700 METAR MROC 180700Z 00000KT 9999 SCT025 BKN100 20/20 A2997 BECMG=
201009180800 METAR MROC 180800Z 00000KT 9999 BCFG BKN025 20/20 A2996 BECMG=
201009180900 METAR MROC 180900Z 00000KT 9999 BCFG SCT030 SCT080 20/20 A2996 RMK DELG BANCOS DE NIEBLA AL SUR BECMG=
201009181000 METAR MROC 181000Z 00000KT 9999 SCT030 SCT080 20/20 A2996 BECMG=
201009181100 METAR MROC 181100Z 00000KT 9999 FEW030 SCT120 19/19 A2998 BECMG=
201009181200 METAR MROC 181200Z 09004KT CAVOK 19/19 A2998 RMK FEW140 HZY BECMG=
201009181300 METAR MROC 181300Z 10003KT CAVOK 22/20 A3000 RMK HZY ARND FEW250 BECMG=
201009181400 METAR MROC 181400Z 00000KT CAVOK 24/20 A3002 RMK FEW250 HZ ARND BECMG 24007K T=
201009181500 METAR MROC 181500Z 20004KT 9999 FEW040 26/21 A3002 RMK FEW250 HZY ARND=
201009181600 METAR MROC 181600Z 25009KT 9999 SCT040TCU 26/20 A3002 RMK HZ ARND BECMG=
201009181700 METAR MROC 181700Z 23009KT 9999 FEW015TCU SCT040 27/23 A2999 BECMG=
201009181800 METAR MROC 181800Z 23009KT 9999 FEW010TCU SCT030 26/22 A2997 BECMG 8000 VCSH=
201009181900 METAR MROC 181900Z 24011KT 9999 FEW010TCU SCT030 26/22 A2994 RMK RA SE S BECMG 8000 VCSH=
201009182000 METAR MROC 182000Z 28006KT 6000 2000SW -RA BR FEW001 SCT010 BKN030 21/21 A2993 BECMG 2000 RA=
201009182100 METAR MROC 182100Z 26004KT 5000 1000SW TSRA BR FEW003 SCT010 BKN030 21/21 A2994 RMK VIS NE UNLD BECMG 5000 RA BR=
201009182200 METAR MROC 182200Z 31006KT 3000 -RA BR FEW001 SCT009 BKN030 21/21 A2994 RMK VIS 2KM NE BECMG 5000 -RA BR=
201009182300 METAR MROC 182300Z VRB02KT 8000 -RA FEW010 SCT025 BKN080 21/21 A2996 RMK VIS 5KM SW BECMG=
201009190000 METAR MROC 190000Z 00000KT 8000 -RA FEW002 SCT030 OVC090 21/21 A2999 RMK VIS 5KM W TS DST W BECMG=
201009190100 METAR MROC 190100Z 00000KT 9999 -DZ SCT003 BKN030 21/21 A3002 RMK TS DST W BECMG=
201009190200 METAR MROC 190200Z VRB02KT 9999 -RA SCT025 OVC090 21/21 A3004 RMK VIS 8KM W TS DST W BECMG=
201009190300 METAR MROC 190300Z 00000KT 9999 -RA VCFG FEW001 SCT025 BKN090 20/20 A3006 RMK VIS SW 8KM BECMG=
201009190400 METAR MROC 190400Z 00000KT 9999 VCFG FEW001 BKN080 20/20 A3005 RMK TS DST S BECMG=
201009190500 METAR MROC 190500Z 25004KT 9999 -RA VCFG FEW001 SCT015 20/20 A3006 RMK SCT080 VIS 5KM SW BECMG 4000 -RA BR=
201009190600 METAR MROC 190600Z 04003KT 9999 -RA VCFG FEW001 BKN090 20/20 A3003 RMK FEW020 BECMG=
201009190700 METAR MROC 190700Z 00000KT 9999 VCFG FEW001 BKN090 20/20 A2999 RMK FEW020 BECMG=
201009190800 METAR MROC 190800Z 00000KT 9999 -RA VCFG FEW001 BKN020 20/20 A3000 BECMG=
201009190900 METAR MROC 190900Z 00000KT 9999 -RA VCFG SCT020 SCT090 20/20 A2999 BECMG=
201009191000 METAR MROC 191000Z 10003KT 9999 SCT020 SCT090 19/19 A3000 BECMG=
201009191100 METAR MROC 191100Z 00000KT 9999 FEW040 BKN090 19/19 A3001 BECMG=
201009191200 METAR MROC 191200Z 06002KT CAVOK 19/19 A3003 RMK CB DST SW BKN090 BECMG=
201009191300 METAR MROC 191300Z VRB02KT 9999 VCFG SCT090 BKN130 20/20 A3006 BECMG=
201009191400 METAR MROC 191400Z VRB02KT 9999 FEW020 SCT090 BKN130 22/21 A3008 BECMG=
201009191500 METAR MROC 191500Z 00000KT 9999 FEW025 SCT100 BKN200 24/20 A3008 BECMG 24005 KT=
201009191600 METAR MROC 191600Z 23005KT 9999 FEW020 SCT120 25/22 A3007 RMK FEW035 FEW250 BECMG=
201009191700 METAR MROC 191700Z 26006KT 9999 SCT030 BKN110 26/22 A3007 RMK FEW250 BECMG=
201009191800 METAR MROC 191800Z 24008KT 9999 FEW025TCU SCT035 26/22 A3003 BECMG=
201009191900 METAR MROC 191900Z 25009KT 9999 SCT030 SCT090 25/23 A3000 RMK FEW250 CB DST E BECMG=
201009192000 METAR MROC 192000Z 23007KT 9999 VCSH FEW020TCU SCT030 BKN100 24/21 A2998 RMK TCU QUAD W CB E BECMG 7000 -SHRA BKN030=
201009192100 METAR MROC 192100Z 28006KT 9999 SCT015CB BKN100 24/21 A2997 BECMG 5000 TS RA=
201009192200 METAR MROC 192200Z 30003KT 9999 FEW007 BKN015 22/22 A2999 BECMG 3000 -RA BR=
201009192300 METAR MROC 192300Z 00000KT 9999 SCT015 BKN100 22/20 A3001 BECMG=
201009200000 METAR MROC 200000Z 12003KT 9999 -DZ BKN100 21/21 A3002 BECMG=
201009200100 METAR MROC 200100Z 10004KT CAVOK 21/20 A3003 RMK BKN100 BECMG=
201009200200 METAR MROC 200200Z 00000KT 9999 -DZ FEW005 BKN100 21/21 A3004 BECMG=
201009200300 METAR MROC 200300Z 00000KT 9999 FEW005 BKN100 20/20 A3005 BECMG=
201009200400 METAR MROC 200400Z 00000KT 8000 VCFG SCT004 BKN100 21/21 A3005 BECMG 5000 BR=
201009200500 METAR MROC 200500Z 00000KT 5000 BR SCT004 BKN100 21/21 A3005 RMK VIS UNL NE E BECMG=
201009200600 METAR MROC 200600Z 32003KT 5000 DZ BR SCT004 BKN100 20/20 A3004 RMKN VIS UNL NE E BECMG=
201009200700 METAR MROC 200700Z 00000KT 9999 4000W DZ BR FEW004 BKN120 20/20 A3001=
201009200800 METAR MROC 200800Z 00000KT 9999 4000W BR FEW004 SCT010 BKN120 20/20 A3000 BECMG=
201009200900 METAR MROC 200900Z 00000KT 9999 4000NW BR FEW004 SCT015 SCT120 20/20 A2999 BECMG=
201009201000 METAR MROC 201000Z 09002KT 9999 FEW005 SCT015 SCT120 19/19 A3000 BECMG=
201009201100 METAR MROC 201100Z 00000KT CAVOK 19/19 A3000 RMK BKN120 BECMG=
201009201200 METAR MROC 201200Z 00000KT CAVOK 19/19 A3003 RMK BKN120 BECMG=
201009201300 METAR MROC 201300Z 00000KT CAVOK 21/21 A3005 RMK SCT120 SCT250 BECMG 24006KT=
201009201400 METAR MROC 201400Z 00000KT CAVOK 23/20 A3005 RMK FEW120 SCT250 BECMG 24006KT=
201009201500 METAR MROC 201500Z 23007KT 9999 FEW040 SCT250 25/20 A3005 BECMG=
201009201600 METAR MROC 201600Z 23007KT 9999 FEW040 SCT250 26/21 A3004 BECMG=
201009201700 METAR MROC 201700Z 24007KT 9999 FEW030 SCT250 26/22 A3002 BECMG=
201009201800 METAR MROC 201800Z 24010KT 9999 SCT030 SCT250 27/22 A2999 BECMG=
201009201900 METAR MROC 201900Z 24009KT 9999 FEW010TCU SCT030 SCT250 26/23 A2995 RMK RA N NE BECMG 5000 TSRA=
201009202000 METAR MROC 202000Z 26011KT 9999 -RA FEW010TCU BKN030 23/23 A2995 RMK RA QUAD N BECMG 3000 RA BR=
201009202100 METAR MROC 202100Z 27002KT 3000 +RA VCTS SCT015CB BKN025 21/21 A2995 RMK VIS N NE UNLTD BECMG 5000 -RA BR=
201009202101 METAR MROC 202101Z 27002KT 3000 +RA VCTS SCT015CB BKN025 21/21 A2995 RETS RMK VIS N NE UNLTD BECMG 5000 -RA BR=
201009202200 METAR MROC 202200Z 28004KT 2500 RA BR FEW008 SCT015 BKN030 19/19 A2997 BECMG 1200 -RA BR=
201009202300 METAR MROC 202300Z 04006KT 5000 2000SW -RA BR SCT004 BKN010 20/20 A2998 BECMG 2000 -RA BR=
201009210000 METAR MROC 210000Z 11004KT 9999 -RA FEW030 BKN100 19/19 A2999 BECMG=
201009210100 METAR MROC 210100Z 09003KT 9999 RA OVC080 20/20 A3002 BECMG=
201009210200 METAR MROC 210200Z 07006KT 9999 -RA OVC100 20/20 A3002 BECMG=
201009210300 METAR MROC 210300Z 10003KT 9999 -RA OVC090 19/19 A3004 BECMG=
201009210400 METAR MROC 210400Z 00000KT CAVOK 20/20 A3005 RMK BKN090 BECMG=
201009210500 METAR MROC 210500Z 00000KT 9999 -DZ VCFG SCT080 BKN200 20/20 A3004 BECMG=
201009210600 METAR MROC 210600Z 00000KT 9999 FEW030 SCT250 19/19 A3001 BECMG=
201009210700 METAR MROC 210700Z 04003KT 9999 FEW040 SCT120 19/19 A2999 BECMG=
201009210800 METAR MROC 210800Z 08004KT CAVOK 18/18 A2998 RMK FEW080 SCT120 BECMG=
201009210900 METAR MROC 210900Z VRB02KT CAVOK 18/18 A2997 RMK BKN130 BECMG=
201009211000 METAR MROC 211000Z 09003KT CAVOK 18/18 A2998 RMK SCT130 BECMG=
201009211100 METAR MROC 211100Z 10004KT CAVOK 18/18 A2998 RMK SCT110 SCT250 BECMG=
201009211200 METAR MROC 211200Z 08005KT CAVOK 18/18 A3000 RMK SCT110 BKN250 BECMG=
201009211300 METAR MROC 211300Z 11003KT CAVOK 19/19 A3002 RMK BKN120 CB DST S BECMG 24004 KT=
201009211400 METAR MROC 211400Z 00000KT CAVOK 23/19 A3003 RMK BKN120 BECMG 24004KT=
201009211500 METAR MROC 211500Z 24004KT 9999 FEW030 SCT200 24/20 A3004 RMK FEW120 BECMG=
201009211600 METAR MROC 211600Z 27004KT 9999 SCT025 SCT220 25/20 A3004 BECMG=
201009211700 METAR MROC 211700Z 24009KT 9999 FEW015TCU SCT025 25/21 A3002 RMK FEW250 PCPN DST NW BECMG 5000 SHRA=
201009211800 METAR MROC 211800Z 25009KT 9999 VCSH FEW015CB BKN025 24/22 A3000 RMK RASH VIS 8KMS TO E RASH DST NW N BECMG 5000 TSRA=
201009211900 METAR MROC 211900Z 32006KT 2500 TSRA SCT012CB BKN025 21/21 A2999 RMK VIS S UNLTD BECMG=
201009212000 METAR MROC 212000Z 27006KT 8000 3000SW -RA BR FEW003 SCT025 BKN100 21/21 A2997 RMK VIS E UNLTD BECMG 4000 -RA BR=
201009212100 METAR MROC 212100Z 23006KT 8000 4000SW -RA BR VCFG FEW001 SCT025 21/21 A2997 RMK SCT090 VIS E UNL RA DST E BECMG 4000=
201009212200 METAR MROC 212200Z 22007KT 4000 RA BR SCT025 SCT090 20/20 A2996 BECMG 3000=
201009212300 METAR MROC 212300Z 23004KT 3000 -RA BR SCT001 BKN006 20/20 A2998 BECMG=
201009220000 METAR MROC 220000Z 30003KT 9999 4500W BR VCFG FEW001 SCT035 BKN080 20/20 A2999 BECMG 25008KT 5000=
201009220100 METAR MROC 220100Z 06003KT 9999 RA VCFG FEW020 BKN090 20/20 A3001 BECMG=
201009220200 METAR MROC 220200Z 00000KT 9999 -RA FEW015 BKN100 20/20 A3002 RMK BCFG SW BECMG 4000 BR=
201009220300 METAR MROC 220300Z 00000KT 9999 FEW010 BKN100 20/20 A3003 BECMG=
201009220400 METAR MROC 220400Z 00000KT CAVOK 20/20 A3002 RMK BKN100 BECMG=
201009220500 METAR MROC 220500Z 00000KT CAVOK 19/19 A3002 RMK BKN100 BECMG=
201009220600 METAR MROC 220600Z 00000KT 9999 1000 BR FEW002 BKN100 19/19 A3000 BECMG 1000 BR=
201009220700 METAR MROC 220700Z 00000KT 1000 BR SCT001 BKN100 19/19 A2999 RMK VIS E UNL BECMG 2000W BR=
201009220800 METAR MROC 220800Z 00000KT 9999 3000W BR SCT003 BKN110 18/18 A2997 BECMG 5000 W BR=
201009220900 METAR MROC 220900Z 10004KT CAVOK 17/17 A2996 RMK FEW120 BECMG=
201009221000 METAR MROC 221000Z 08004KT CAVOK 17/17 A2997 RMK FEW120 BECMG=
201009221100 METAR MROC 221100Z 08006KT CAVOK 17/17 A2997 RMK SCT120 BECMG=
201009221200 METAR MROC 221200Z 10007KT CAVOK 18/17 A2998 RMK FEW120 BECMG=
201009221300 METAR MROC 221300Z 11003KT CAVOK 20/18 A3001 RMK CB DST SW BKN250 BECMG=
201009221400 METAR MROC 221400Z 12002KT CAVOK 22/19 A3003 RMK CB DST SW SCT250 BECMG 24006KT=
201009221500 METAR MROC 221500Z 25003KT 9999 FEW015 SCT250 24/19 A3003 RMK CB DST SW BECMG=
201009221600 METAR MROC 221600Z 25006KT 9999 FEW025 SCT250 25/21 A3002 RMK CB DST SW BECMG SCT030=
201009221700 METAR MROC 221700Z 25009KT 9999 SCT022CB SCT250 26/21 A3001 BECMG 8000=
201009221800 METAR MROC 221800Z 24009KT 9999 FEW020TCU SCT023 SCT120 26/21 A2999 RMK FEW250 RA DST E BECMG 8000 VCSH=
201009221900 METAR MROC 221900Z 24007KT 9999 FEW020TCU BKN023 26/22 A2996 RMK FEW120 RA DST NE E SE BECMG 8000 VCSH=
201009222000 METAR MROC 222000Z 21009KT 9999 3000SW BR VCSH FEW018TCU BKN022 23/21 A2994 BECMG 3000 TSRA=
201009222100 METAR MROC 222100Z 24006KT 9999 3000SW BR FEW001 SCT020 BKN030 23/22 A2993 BECMG 5000 RA BR=
201009222200 METAR MROC 222200Z 25007KT 6000 2000SW BR FEW001 SCT010 BKN030 22/22 A2993 BECMG 4000 -RA BR=
201009222300 METAR MROC 222300Z 23008KT 2000 -RA BR FEW001 SCT005 BKN020 20/20 A2995 BECMG 4000 -RA BR=
201009230000 METAR MROC 230000Z 30004KT 5000 BR FEW001 SCT005 BKN020 20/20 A2998 BECMG=
201009230100 METAR MROC 230100Z 28003KT 5000 -RA BR FEW001 SCT005 BKN030 20/20 A3000=
201009230200 METAR MROC 230200Z VRB02KT 5000 -RA BR FEW001 SCT005 BKN030 20/20 A3003=
201009230300 METAR MROC 230300Z 00000KT 6000 -RA SCT010 BKN070 20/20 A3004 BECMG=
201009230400 METAR MROC 230400Z 00000KT 8000 -RA FEW010 BKN080 20/20 A3004 BECMG=
201009230500 METAR MROC 230500Z 02003KT 9999 -RA OVC100 20/20 A3004 BECMG=
201009230600 METAR MROC 230600Z 11002KT 9999 FEW030 BKN0100 20/20 A3002 BECMG=
201009230700 METAR MROC 230700Z 00000KT 9999 -RA BCFG SCT030 BKN100 20/20 A3001 DELG BANCOS DE NIEBLA S SSW BECMG=
201009230800 METAR MROC 230800Z 00000KT 9999 VCFG SCT025 BKN100 20/20 A2999 RMK VIS S SSW SW 8KMS BECMG=
201009230900 METAR MROC 230900Z 00000KT 9999 VCFG SCT025 BKN120 19/19 A2997 RMK VIS S SSW SW 8KMS BECMG=
201009231000 METAR MROC 231000Z 00000KT 9999 FEW030 BKN120 19/19 A2997 BECMG=
201009231100 METAR MROC 231100Z 00000KT 9999 BCFG SCT030 BKN120 19/19 A2998 DELG BANCOS DE NIEBLA AL S SSW BECMG=
201009231200 METAR MROC 231200Z 00000KT 9999 BCFG FEW010 SCT035 BKN100 19/19 A3001 RMK VIS S SW 7KMS BECMG 5000 -RA BR=
201009231300 METAR MROC 231300Z 00000KT 9999 BCFG FEW010 SCT035 BKN100 20/20 A3002 BECMG 24007KT=
201009231400 METAR MROC 231400Z 27004KT 9999 3000SW -DZ BR FEW001 SCT030 OVC100 21/21 A3004 BECMG=
201009231500 METAR MROC 231500Z 26003KT 9999 3000SW BR FEW001 SCT030 OVC100 22/21 A3005 BECMG=
201009231600 METAR MROC 231600Z 24004KT 9999 FEW030 SCT120 BKN250 24/21 A3004 BECMG=
201009231700 METAR MROC NIL=
201009231800 METAR MROC 231800Z 24008KT 9999 SCT030 SCT250 26/21 A2999 BECMG=
201009231900 METAR MROC 231900Z 24010KT 9999 FEW015TCU SCT030 SCT250 26/22 A2996 RMK RA S BECMG 5000 RA BR=
201009232000 METAR MROC 232000Z 19005KT 9999 -RA SCT015 BKN030 22/22 A2994 BECMG 5000 -RA BR=
201009232100 METAR MROC 232100Z 23007KT 9999 4500SW -RA BR SCT015 BKN040 21/21 A2993 BECMG 5000 -RA BR=
201009232200 METAR MROC 232200Z 22007KT 5000 2000NW RA BR FEW002 SCT015 BKN030 20/20 A2994 RMK VIS 7KM SW BECMG=
201009232300 METAR MROC 232300Z 31004KT 9999 -RA SCT020 BKN040 20/20 A2997 RMK VIS 6KM N BECMG=
201009240000 METAR MROC 240000Z 30005KT 9999 -DZ SCT015 BKN040 20/20 A2998 RMK VIS 7KM N=
201009240100 METAR MROC 240100Z 27003KT 9999 -RA FEW003 BKN070 20/20 A3000 RMK FEW015 BECMG=
201009240200 METAR MROC 240200Z 24004KT 7000 3000SW -RA BR SCT001 BKN015 20/20 A3003=
201009240300 METAR MROC 240300Z VRB02KT 9000 4000SW -RA BR VCFG FEW001 SCT010 BKN013 20/20 A3005 BECMG=
201009240400 METAR MROC 240400Z 00000KT 4000 -RA BR SCT001 BKN015 20/20 A3005 RMK FEW010 VIS E UNL BECMG 3000=
201009240500 METAR MROC 240500Z VRB02KT 9999 4000SE BR SCT001 BKN080 19/19 A3003 RMK FEW020 BECMG 6000=
201009240600 METAR MROC 240600Z 00000KT 4000 BR SCT001 BKN002 19/19 A3001 REDZ RMK VIS E 7KM BECMG=
201009240700 METAR MROC 240700Z 00000KT 7000 VCFG SCT002 BKN010 19/19 A2998 RMK VIS E UNL VRBLE CDTNS BECMG=
201009240800 METAR MROC 240800Z 00000KT 7000 VCFG SCT001 BKN005 19/19 A2997 RMK VIS 5000 SW VRBLE CDTNS BECMG=
201009240900 METAR MROC 240900Z 00000KT 7000 VCFG SCT001 BKN010 19/19 A2996 RMK VIS 4KM SW VRBLE CDTNS BECMG=
201009241000 METAR MROC 241000Z 00000KT 9999 VCFG FEW001 BKN010 19/19 A2996 RMK VRBLE CDTNS BECMG=
201009241100 METAR MROC 241100Z 00000KT 9999 FEW010 BKN020 19/19 A2997 BECMG=
201009241200 METAR MROC 241200Z 00000KT 6000 VCFG FEW001 SCT004 BKN015 20/20 A2999 RMK VIS E UNL BECMG=
201009241300 METAR MROC 241300Z VRB02KT 7000 SCT003 BKN020 20/20 A3001 RMK FEW015 VIS NE UNLD BECMG=
201009241400 METAR MROC 241400Z 28003KT 9000 FEW002 SCT012 BKN035 21/21 A3003 RMK VIS NE UNLD VIS 7KM NW BECMG=
201009241500 METAR MROC 241500Z VRB02KT 9999 FEW005 SCT015 BKN040 23/21 A3002 RMK PCPN DST E BECMG=
201009241600 METAR MROC 241600Z 24006KT 9999 VCSH FEW009 SCT015 BKN040 23/21 A3003 RMK VIS 9KM SW DUE RN BECMG 8000 -RA=
201009241700 METAR MROC 241700Z 24006KT 9999 SCT015 BKN040 24/22 A3001 BECMG=
201009241800 METAR MROC 241800Z 24007KT 9999 -DZ SCT015 BKN040 23/22 A2999 BECMG 7000 -RA BR=
201009241900 METAR MROC 241900Z 25008KT 9999 SCT015 BKN035 23/22 A2996 BECMG=
201009242000 METAR MROC 242000Z 26008KT 2000 -RA BR SCT006 BKN015 21/21 A2995 BECMG=
201009242100 METAR MROC 242100Z 21005KT 9999 4000W -RA BR SCT006 BKN015 21/21 A2992 BECMG 5000 -RA BR=
201009242200 METAR MROC 242200Z 25005KT 9999 -RA VCFG SCT006 BKN015 21/21 A2992 RMK VIS W 8000 BECMG 2000 -RA BR=
201009242300 METAR MROC 242300Z 26007KT 5000 -RA BR SCT005 BKN015 20/20 A2994 BECMG=
201009250000 METAR MROC 250000Z 24004KT 5000 -DZ BR SCT005 BKN015 20/20 A2996 BECMG 1000 -RA BR=
201009250100 METAR MROC 250100Z 26003KT 9999 SCT010 BKN100 20/20 A2999 BECMG=
201009250200 METAR MROC 250200Z 26004KT 5000 DZ BR SCT007 BKN100 19/19 A3001 BECMG=
201009250300 METAR MROC 250300Z 28005KT 9999 SCT010 BKN100 19/19 A3002 BECMG=
201009250400 METAR MROC 250400Z 26004KT 9999 SCT010 BKN100 20/20 A3002 BECMG=
201009250500 METAR MROC 250500Z 28003KT 9999 FEW010 BKN100 20/20 A3001 BECMG=
201009250600 METAR MROC 250600Z 26002KT 9999 FEW010 BKN100 20/20 A3000 BECMG=
201009250700 METAR MROC 250700Z 28002KT 7000 2000SW DZ BR FEW001 SCT010 OVC100 20/20 A2998 BECMG 5000 RA BR=
201009250800 METAR MROC 250800Z VRB02KT 7000 2000SW BR FEW001 SCT010 OVC100 19/19 A2996 BECMG 5000 RA BR=
201009250900 METAR MROC 250900Z 00000KT 9999 SCT010 OVC100 19/19 A2996 BECMG=
201009251000 METAR MROC 251000Z 25003KT 9999 SCT010 OVC100 19/19 A2994 BECMG=
201009251100 METAR MROC 251100Z 31002KT 3000 1000SW DZ BR FEW001 SCT010 OVC100 19/19 A2996 BECMG=
201009251200 METAR MROC 251200Z 00000KT 7000 2000SW BR FEW001 SCT010 OVC100 19/19 A2998 BECMG=
201009251300 METAR MROC 251300Z 28004KT 8000 VCFG FEW003 SCT012 BKN100 20/20 A2999 BECMG=
201009251400 METAR MROC 251400Z 28004KT 9999 FEW003 SCT012 BKN100 21/21 A3003 BECMG 5000 -RA BR=
201009251500 METAR MROC 251500Z 34004KT 9999 FEW005 SCT015 BKN100 22/21 A3004 RMK PCPN DST NE BECMG=
201009251600 METAR MROC 251600Z 05004KT 9999 FEW015 BKN110 23/20 A3002 BECMG=
201009251700 METAR MROC 251700Z 23004KT 9999 FEW015 BKN100 24/21 A3003 BECMG=
201009251800 METAR MROC 251800Z 24005KT 8000 -RA SCT015 BKN110 22/22 A3003 BECMG 5000 -RA BR=
201009251900 METAR MROC 251900Z 27005KT 9999 SCT015 BKN110 22/21 A3000 BECMG 8000=
201009252000 METAR MROC 252000Z 29002KT 9999 -RA FEW015 OVC100 21/20 A2997 BECMG 6000 RA=
201009252100 METAR MROC 252100Z 04003KT 9999 DZ OVC120 22/20 A2994 BECMG=
201009252200 METAR MROC 252200Z 00000KT 9999 DZ OVC120 22/20 A2995 BECMG=
201009252300 METAR MROC 252300Z 25004KT 9999 FEW007 SCT120 BKN150 21/20 A2991 RMK LOW CLDS NEAR APCH RNY 07 BECMG 8000 VCFG=
201009260000 METAR MROC 260000Z 26005KT 9999 FEW007 SCT120 BKN160 20/20 A2996 BECMG 8000 VCFG=
201009260100 METAR MROC 260100Z 00000KT 9999 FEW015 SCT120 BKN160 20/20 A2998 BECMG=
201009260200 METAR MROC 260200Z 24002KT 9999 FEW020 BKN120 20/20 A3001 BECMG=
201009260300 METAR MROC 260300Z 29004KT 9999 FEW009 SCT020 BKN060 20/20 A3004 BECMG=
201009260400 METAR MROC 260400Z 26004KT 9999 SCT003 BKN015 20/20 A3005 BECMG=
201009260500 METAR MROC 260500Z 26007KT 9999 DZ SCT003 BKN012 20/20 A3005 RMK VIS 6KM SW DUE LOW ST BECMG 7000=
201009260600 METAR MROC 260600Z 01007KT 9999 SCT002 BKN015 18/18 A3002 RMK VIS 6KM SW BECMG=
201009260700 METAR MROC 260700Z 17004KT 9999 SCT020 BKN070 19/19 A2998 BECMG=
201009260800 METAR MROC 260800Z 31003KT 9999 FEW010 BKN070 19/19 A2997 BECMG=
201009260900 METAR MROC 290900Z 08003KT 9999 FEW010 SCT100 18/18 A2996 BECMG=
201009261000 METAR MROC 261000Z 13003KT CAVOK 18/18 A2997 RMK FEW050 BKN100 BECMG=
201009261100 METAR MROC 261100Z 26006KT 7000 3000SW BR SCT001 BKN009 18/18 A3002 RMK VIS NE UNLD BECMG=
201009261200 METAR MROC 261200Z VRB02KT 6000 2500SW -DZ BR SCT001 BKN030 18/18 A3004 BECMG 9999=
201009261300 METAR MROC 261300Z 08003KT 2500 -RADZ BR FEW001 SCT005 BKN020 18/18 A3005 RMK VIS N 6KMS BECMG=
201009261400 METAR MROC 261400Z 10004KT 9999 -DZ VCFG FEW005 BKN020 19/19 A3006 RMK VIS E ENE 8KMS BECMG 24005KT=
201009261500 METAR MROC 261500Z 12002KT 9999 FEW020 BKN100 21/20 A3006 BECMG 24005KT=
201009261600 METAR MROC 261600Z 25002KT 9999 FEW025 BKN100 22/19 A3006 BECMG=
201009261700 METAR MROC 261700Z 26003KT 9999 SCT025 BKN100 23/20 A3005 BECMG 8000 -RA VCFG=
201009261800 METAR MROC 261800Z 27007KT 9999 FEW010 SCT025 BKN080 22/21 A3004 RMK PCPN DST WNW BECMG 8000 -RA VCFG=
201009261900 METAR MROC 261900Z 28012KT 7000 3000SW RA BR SCT005 BKN010 20/20 A3003 BECMG=
201009261930 METAR MROC 261930Z 28005KT 8000 3000W -DZ BR SCT005 BKN015 20/20 A3002 BECMG=
201009262000 METAR MROC 262000Z 29002KT 4000 -RA BR SCT002 BKN010 19/19 A3001 BECMG=
201009262100 METAR MROC 262100Z 09004KT 9999 VCFG FEW080 BKN100 20/20 A2997 BECMG=
201009262200 METAR MROC 262200Z 12003KT CAVOK 20/20 A2996 RMK FEW080 BKN120 BECMG=
201009262300 METAR MROC 262300Z 05003KT 9999 FEW020 BKN120 20/20 A2997 RMK RA DST QUAD E BECMG=
201009270000 METAR MROC 270000Z 07002KT CAVOK 20/20 A2998 RMK BKN120 FEW250 BECMG=
201009270100 METAR MROC 270100Z 12003KT CAVOK 19/19 A3000 RMK BKN120 BECMG=
201009270200 METAR MROC 270200Z 07003KT CAVOK 19/19 A3002 RMK SCT120 BECMG=
201009270300 METAR MROC 270300Z 08002KT CAVOK 19/19 A3004 RMK SCT120 BECMG=
201009270400 METAR MROC 270400Z 08003KT CAVOK 19/19 A3004 RMK SCT120 BECMG=
201009270500 METAR MROC 270500Z 09006KT CAVOK 18/18 A3004 RMK BKN080 BECMG=
201009270600 METAR MROC 270600Z 12008KT 9999 SCT035 SCT090 18/18 A3003 BECMG=
201009270700 METAR MROC 270700Z 05003KT 9999 SCT030 SCT100 19/19 A3000 BECMG=
201009270800 METAR MROC 270800Z 14002KT 9999 SCT030 SCT100 19/19 A2999 BECMG=
201009270900 METAR MROC 270900Z VRB02KT 9999 DZ SCT030 BKN100 19/19 A2999 RMK BECMG 5000 -RA BR=
201009271000 METAR MROC 271000Z 00000KT 9999 DZ VCFG SCT030 BKN100 19/19 A3000 RMK VIS SW 8000 BECMG=
201009271100 METAR MROC 271100Z 04002KT 7000 3000SW DZ BR FEW002 BKN020 19/19 A3001 RMK BECMG 2000 -RA BR=
201009271200 METAR MROC 271200Z 11002KT 9999 FEW005 BKN025 19/19 A3002 REDZ BECMG=
201009271300 METAR MROC 271300Z 14002KT 9999 FEW010 BKN023 20/20 A3004 RMK VIS 5000 W BR ARND BECMG=
201009271400 METAR MROC 271400Z 16002KT 9999 FEW023 BKN050 21/21 A3005 RMK FEW120 BECMG 24006KT=
201009271500 METAR MROC 271500Z 26002KT 9999 FEW020 BKN120 23/21 A3006 RMK FEW045 LW ST SW BECMG=
201009271600 METAR MROC 271600Z 25004KT 9999 SCT020 SCT200 25/22 A3005 RMK FEW050 TCU DST S BECMG=
201009271700 METAR MROC 271700Z 24009KT 9999 -DZ VCSH FEW012TCU BKN023 23/22 A3004 BECMG 8000 -RA=
201009271800 METAR MROC 271800Z 26009KT 9999 VCSH SCT010TCU SCT025 24/22 A3002 RMK RA DST E BECMG 6000 -RA=
201009271900 METAR MROC 271900Z 23009KT 9999 4000SW SHRA FEW010TCU SCT020 SCT030 23/22 A3002 RMK VIS 4000 NW BECMG 3000 +SHRA=
201009272000 METAR MROC 272000Z 23011KT 7000 3000N RADZ FEW001 SCT010 BKN020 21/21 A3000 RESHRA BECMG 5000 -RA BR=
201009272100 METAR MROC 272100Z 25006KT 3000 1000SW -RA BR FEW001 SCT010 BKN030 20/20 A2998 BECMG=
201009272200 METAR MROC 272200Z 25007KT 3000 1000SW DZ BR FEW001 SCT005 BKN030 20/20 A3000 BECMG=
201009272300 METAR MROC 272300Z 27005KT 2000 R07/0400 BR FEW001 SCT005 BKN020 20/20 A3001 BECMG=
201009280000 METAR MROC 280000Z 27003KT 3000 -DZ BR FEW001 SCT005 BKN020 20/20 A3002=
201009280100 METAR MROC 280100Z VRB02KT 6000 2000SW BR FEW001 SCT005 BKN030 20/20 A3003 BECMG=
201009280200 METAR MROC 280200Z 22002KT 6000 2000SW DZ BR FEW001 SCT005 BKN030 20/20 A3004 BECMG=
201009280300 METAR MROC 280300Z 00000KT 9999 VCFG FEW005 SCT015 BKN030 20/20 A3005 VIS WSW W 8KMS BECMG=
201009280400 METAR MROC 280400Z 00000KT 9999 FEW015 SCT030 BKN100 20/20 A3004 BECMG=
201009280500 METAR MROC 280500Z 26002KT 9999 FEW015 SCT030 BKN120 20/20 A3002 BECMG=
201009280600 METAR MROC 280600Z 29002KT 9999 -DZ VCFG FEW005 SCT015 BKN120 20/20 A3001 VIS S SW 8KMS BECMG=
201009280700 METAR MROC 280700Z 00000KT 9999 VCFG FEW010 BKN120 20/20 A2998 RMK VIS S SSW 8KMS BECMG=
201009280800 METAR MROC 280800Z 28003KT 4000 BR SCT003 BKN008 20/20 A2997 RMK VIS N NE ENE UNLTD BECMG 2500=
201009280900 METAR MROC 280900Z 31003KT 3500 DZ BR SCT002 BKN005 20/20 A2996 RK VIS N NE 8KMS BECMG=
201009281000 METAR MROC 281000Z 24002KT 2500 DZ BR SCT002 BKN005 19/19 A2997 BECMG=
201009281100 METAR MROC 281100Z 00000KT 2500 DZ BR SCT002 BKN005 19/19 A2997 BECMG=
201009281200 METAR MROC 281200Z 28002KT 2000 -RADZ BR SCT002 BKN005 19/19 A2999 BECMG=
201009281300 METAR MROC 281300Z 29004KT 2000 +DZ BR SCT002 BKN010 20/20 A3002 BECMG=
201009281400 METAR MROC 281400Z 29004KT 4000 1800W -DZ BR SCT002 BKN012 20/20 A3004 BECMG 7000=
201009281500 METAR MROC 281500Z 29004KT 1800 DZ BR SCT001 BKN010 21/21 A3004 BECMG=
201009281600 METAR MROC 281600Z 25006KT 1800 DZ BR SCT001 BKN010 21/21 A3003 RMK VIS 7KM W/NW BECMG=
201009281700 METAR MROC 281700Z 29005KT 9999 -DZ FEW002 SCT015 23/23 A2998 RMK FEW120 VIS 6KM SW BECMG BKN020=
201009281800 METAR MROC 281800Z 24004KT 9999 SCT006 BKN020 24/22 A2994 RMK VIS 7KM SW DUE LOW ST BECMG=
201009281900 METAR MROC 281900Z 27007KT 9999 FEW009 SCT015 BKN100 23/23 A2991 BECMG=
201009282000 METAR MROC 282000Z 23006KT 8000 3500W -DZ BR SCT009 BKN030 22/22 A2987 BECMG 5000 -RA BR=
201009282100 METAR MROC 282100Z 27007KT 2000 RA BR FEW001 SCT003 BKN010 21/21 A2988 BECMG=
201009282200 METAR MROC 282200Z 22006KT 1500 -DZ BR FEW001 SCT003 BKN010 21/21 A2988=
201009282300 METAR MROC 282300Z 24009KT 1000 R07/0500 RA BR FEW001 SCT003 BKN010 20/20 A2991 BECMG=
201009290000 METAR MROC 290000Z 27006KT 4000 2000SW -RA BR FEW001 SCT005 BKN020 20/20 A2992 BECMG=
201009290100 METAR MROC 290100Z 24006KT 4000 1500SW -RA BR FEW001 SCT005 OVC020 20/20 A2995 BECMG=
201009290200 METAR MROC 290200Z 24006KT 4000 1500SW RA BR FEW001 SCT005 OVC020 20/20 A2997 BECMG=
201009290300 METAR MROC 290300Z 30004KT 2500 0800SW +RA FG SCT001 BKN015 20/20 A2999 BECMG=
201009290400 METAR MROC 290400Z 28004KT 1600 0700SW RA FG SCT001 BKN015 20/20 A3000 BECMG=
201009290500 METAR MROC 290500Z 24004KT 4000 1500SW DZ SCT001 BKN030 20/20 A2998 RERA BECMG=
201009290600 METAR MROC 290600Z 27004KT 6000 RA BR VCFG FEW001 SCT025 BKN050 20/20 A2998 VIS E UNL BECMG=
201009290700 METAR MROC 290700Z 28004KT 8000 1500SW +DZ BR FEW001 SCT025 BKN050 20/20 A2995 RERA BECMG=
201009290800 METAR MROC 290800Z 26004KT 4500 1200SW RA BR FEW001 SCT005 BKN010 20/20 A2994 BECMG=
201009290900 METAR MROC 290900Z VRB02KT 8000 RA BR VCFG FEW003 SCT015 BKN030 20/20 A2993 RMK VIS 5000 SW BECMG=
201009291000 METAR MROC 291000Z 29002KT 9999 +DZ FEW008 SCT020 BKN050 19/19 A2993 RERA BECMG=
201009291100 METAR MROC 291100Z 28003KT 5000 2000SW RA BR FEW001 SCT010 BKN015 19/19 A2994 BECMG=
201009291200 METAR MROC 291200Z 22004KT 1500 0500SW RA FG FEW001 SCT010 BKN020 20/20 A2996 BECMG=
201009291300 METAR MROC 291300Z 25004KT 2500 -RA BR SCT001 BKN010 20/20 A2998 BECMG=
201009291400 METAR MROC 291400Z 27006KT 2500 RA BR SCT001 BKN010 20/20 A3001 BECMG=
201009291500 METAR MROC 291500Z 26006KT 5000 2000NE -DZ BR SCT001 BKN015 21/21 A3002 REDZ BECMG=
201009291600 METAR MROC 291600Z 29003KT 2000 RA BR SCT001 BKN009 21/21 A3003 BECMG 4000 -DZ BR=
201009291700 METAR MROC 291700Z 23003KT 2000 -RA BR SCT003 BKN010 21/21 A3001 RMK ST LOW ARND BECMG=
201009291800 METAR MROC 291800Z 23004KT 5000 -RA BR SCT001 BKN012 21/21 A2998 BECMG 2000 RA BR=
201009291900 METAR MROC 291900Z 27007KT 3000 1300NW DZ BR SCT002 BKN010 21/21 A2996 RMK VIS 6KM NE BECMG=
201009292000 METAR MROC 292000Z 26010KT 1800 RA BR SCT001 BKN009 21/21 A2993 BECMG 3000 -RA BR=
201009292100 METAR MROC 292100Z 28004KT 2000 -RA BR R07/0600 FEW001 BKN010 20/20 A2992 BECMG=
201009292200 METAR MROC 292200Z 26007KT 1500 RA BR R07/1000 SCT001 BKN010 20/20 A2994 BECMG=
201009292300 METAR MROC 292300Z 28003KT 3000 DZ BR BKN005 SCT010 20/20 A2994 BECMG 0800 -RA FG=
201009300000 METAR MROC 300000Z 27007KT 4000 RA BR BKN010 SCT015 20/20 A2995 BECMG=
201009300100 METAR MROC 300100Z 00000KT 1000 R07/0300 -DZ BR FEW001 SCT010 BKN100 19/19 A2999 BECMG=
201009300200 METAR MROC 300200Z 36002KT 8000 -DZ SCT012 SCT090 20/20 A2998 BECMG=
201009300300 METAR MROC 300300Z 05004KT 8000 -DZ SCT012 BKN090 20/20 A3000 BECMG=
201009300400 METAR MROC 300400Z 22003KT 8000 3000SW BR FEW001 SCT010 BKN090 20/20 A3001 BECMG=
201009300500 METAR MROC 300500Z 24003KT 1000 R07/0500 -DZ BR FEW001 SCT010 BKN090 20/20 A3000 BECMG=
201009300600 METAR MROC 300600Z 00000KT 1000 R07/0300 -DZ BR FEW001 SCT010 BKN100 19/19 A2999 BECMG=
201009300700 METAR MROC 300700Z 00000KT 2000 -DZ BR FEW001 SCT010 BKN100 19/19 A2997=
201009300800 METAR MROC 300800Z 00000KT 2000 -RA BR FEW001 SCT010 BKN100 19/19 A2997=
201009300900 METAR MROC 300900Z 00000KT 2000 -DZ BR FEW001 SCT005 BKN100 19/19 A2997=
201009301000 METAR MROC 301000Z VRB02KT 3000 -DZ BR FEW001 SCT005 BKN100 19/19 A2997=
201009301100 METAR MROC 301100Z 00000KT 1000 -DZ BR FEW001 SCT005 BKN100 19/19 A2998=
201009301200 METAR MROC 301200Z 00000KT 4000 2000SW -RA BR FEW001 SCT005 BKN080 20/20 A3000 BECMG=
201009301300 METAR MROC 301300Z 00000KT 2000 DZ BR SCT002 BKN010 20/20 A3004 BECMG 5000 -RA BR=
201009301400 METAR MROC 301400Z 13003KT 5000 -DZ BR SCT005 BKN070 21/21 A3006 BECMG=
201009301500 METAR MROC 301500Z 24004KT 9999 4000SW BR FEW003 BKN015 23/23 A3006 BECMG 8000 -RA VCFG=
201009301600 METAR MROC NIL=
201009301700 METAR MROC NIL=
201009301800 METAR MROC 301800Z 23007KT 9999 FEW015 BKN025 25/22 A3001 BECMG 7000 RA=
201009301900 METAR MROC 301900Z 24007KT 9999 BKN025 SCT100 25/22 A2998 BECMG=
201009302000 METAR MROC 302000Z 23009KT 9999 BKN025 SCT090 24/23 A2997 BECMG 7000 RA=
201009302100 METAR MROC 302100Z 26009KT 8000 3500SW -RA BCFG VCSH ST003 BKN012 21/21 A2996 RMK LOW CLOWDS OVER APCH RNY/07 BECMG 3000 RA BR=
201009302200 METAR MROC 302200Z 28004KT 3000 -RA BR VCTS FEW003 SCT012CB BKN025 21/21 A2999 RMK LOW CLDS OVER APCH RN/07 BECMG 1500 TSRA=
201009302300 METAR MROC 302300Z 08003KT 8000 -RA VCFG FEW003 SCT015 BKN030 20/20 A3003 RMK LOW ST AND VIS 4KMS TO SW W BECMG=
201010010000 METAR MROC 010000Z 10002KT 8000 -RA VCFG SCT003 BKN010 20/20 A3002 LOW CLDS OVER APCH RN/07 VIS SW 5KMS BECMG=
201010010100 METAR MROC 010100Z 00000KT 8000 DZ VCFG SCT003 BKN020 20/20 A3004 LOW CLDS AND VIS 5KMS TO SW W BECMG=
201010010200 METAR MROC 010200Z 00000KT 8000 -RA VCFG FEW005 SCT030 BKN100 20/20 A3007 VIS ESE SE UNLTD BECMG=
201010010300 METAR MROC 010300Z 08003KT 9999 -RA SCT006 OVC100 20/20 A3006 BECMG=
201010010400 METAR MROC 010400Z 32003KT 9999 BCFG FEW010 SCT050 BKN200 20/20 A3007 RMK VIS 5KM SW BECMG=
201010010500 METAR MROC 010500Z 30003KT 5000 2000SW BR SCT002 BKN009 20/20 A3006 RMK ST LOW ARND BECMG 9000=
201010010600 METAR MROC 010600Z 16003KT 9000 0800SW FG SCT001 BKN005 20/20 A3003 BECMG 3000 BR=
201010010700 METAR MROC 010700Z 32003KT 1500 BR VV/// 20/20 A3002 BECMG 4000 BR=
201010010800 METAR MROC 010800Z VRB02KT 9999 VCFG SCT020 BKN070 19/19 A2999 RMK VIS 8KM SW BECMG 5000 BR=
201010010900 METAR MROC 010900Z 00000KT CAVOK 19/19 A2999 RMK BKN070 VIS 6KM SW DUE LOW ST BECMG=
201010011000 METAR MROC 011000Z 06003KT 9999 FEW045 BKN060 19/19 A3000 BECMG=
201010011100 METAR MROC 011100Z 08004KT CAVOK 19/19 A3001 RMK BKN080 BECMG=
201010011200 METAR MROC 011200Z 00000KT 9999 VCFG BKN070 19/19 A3002 RMK FEW110 FEW250 VIS 8KM SW BECMG=
201010011300 METAR MROC 011300Z 26003KT 9999 BCFG FEW060 21/21 A3003 FEW120 FG BANKS AND VIS 7KMS TO SE S SW BECMG=
201010011400 METAR MROC 011400Z 23002KT 9999 FEW010 SCT300 22/21 A3005 RMK HZY BECMG=
201010011500 METAR MROC 011500Z 23003KT 9999 SCT020 24/22 A3006 RMK HZY BECMG=
201010011600 METAR MROC 011600Z 19003KT 9999 FEW025 SCT140 BKN250 25/21 A3006 HZY BECMG=
201010011700 METAR MROC 011700Z 25009KT 9999 SCT025 26/23 A3003 RMK FEW250 PCPN DST ENE BECMG VCSH=
201010011800 METAR MROC 011800Z 25008KT 9999 FEW020TCU SCT035 26/23 A3000 BECMG=
201010011900 METAR MROC 011900Z 25011KT 9999 FEW020TCU SCT030 BKN250 26/23 A2998 RMK CB RASH DST NW WNW BECMG 8000 VCSH=
201010012000 METAR MROC 012000Z 26010KT 9999 3000NW TSRA SCT012CB BKN025 23/23 A2996 BECMG 2000 TSRA=
201010012100 METAR MROC 012100Z 04004KT 9999 4000SW -RA BR FEW005 BKN013 22/22 A2995 RETSRA RMK RA DST E BECMG 3000 -RA VCTS=
201010012200 METAR MROC 012200Z 24008KT 8000 3500NW DZ FEW005 BKN015 22/22 A2996 RERA RMK VIS 4KM SE BR BECMG=
201010012300 METAR MROC 012300Z 23004KT 8000 FEW005 SCT013 BKN020 22/22 A2996 REDZ RMK LW ST QUAD E NE BECMG=
201010020000 METAR MROC 020000Z 24002KT 9999 FEW001 SCT012 BKN020 22/22 A2999 RMK LW ST E SE BECMG=
201010020100 METAR MROC 020100Z 26002KT 9999 FEW001 SCT018 BKN022 22/22 A3002 RMK LW ST E SE BECMG=
201010020200 METAR MROC 020200Z VRB02KT 9999 FEW001 SCT013 BKN070 21/21 A3004 BECMG 8000 VCFG=
201010020300 METAR MROC 020300Z 00000KT 9999 VCFG FEW007 SCT020 SCT120 21/21 A3004 RMK VIS 8000W BCFG ARND BECMG=
201010020400 METAR MROC 020400Z 00000KT 9999 VCFG FEW007 BKN120 21/21 A3005 RMK VIS 8000 SW BCFG ARND BECMG=
201010020500 METAR MROC 020500Z 00000KT 9999 FEW010 SCT120 BKN250 21/21 A3003 RMK BCFG ARND BECMG=
201010020600 METAR MROC 020600Z 00000KT 9999 BR SCT006 SCT100 21/21 A3001 RMK VIS 5000 S SW BECMG 3000 BR=
201010020700 METAR MROC 020700Z 00000KT 9999 VCFG FEW008 SCT100 20/20 A2999 RMK VIS 8000 S SW BCFG ARND BECMG=
201010020800 METAR MROC 020800Z 09003KT CAVOK 19/19 A2998 RMK THING FG BANK SE/SW SCT100 BECMG=
201010020900 METAR MROC 020900Z 00000KT 9999 VCFG FEW025 BKN080 19/19 A2997 RMK VIS SSW 8KMS BECMG 5000 BR=
201010021000 METAR MROC 021000Z 10003KT CAVOK 19/19 A2997 RMK THING FG BANK SSW BKN080 BECMG=
201010021100 METAR MROC 021100Z 11005KT CAVOK 18/18 A2999 RMK SCT120 BECMG=
201010021200 METAR MROC 021200Z 11005KT CAVOK 18/18 A3001 RMK SCT120 BKN250 TCU DST SW W BECMG=
201010021300 METAR MROC 021300Z 10003KT CAVOK 20/18 A3001 FEW120 BKN250 CB DIST E TCU DIST SW W BECMG=
201010021400 METAR MROC 021400Z 31003KT CAVOK 22/20 A3003 SCT120 BKN250 TCU DIST SW BECMG=
201010021500 METAR MROC 021500Z 00000KT CAVOK 24/20 A3004 RMK BKN250 TCU DST SW NW BECMG=
201010021600 METAR MROC 021600Z 22003KT CAVOK 26/20 A3003 RMK BKN250 TCU DST ARND BECMG=
201010021700 METAR MROC 021700Z 26006KT 9999 FEW035 BKN250 27/22 A3000 RMK TCU DST ARND BECMG=
201010021800 METAR MROC 021800Z 25008KT 9999 FEW035 BKN250 27/23 A2997 RMK TCU DST ARND BECMG=
201010021900 METAR MROC 021900Z 26008KT 9999 FEW035 BKN200 26/23 A2994 RMK RA DST NE E CB DST SE TCU DST ARND BECMG 8000 VCSH=
201010022000 METAR MROC 022000Z 25009KT 9999 VCSH FEW012TCU SCT035 BKN200 26/23 A2991 RMK RA DST NW SW E BECMG 8000=
201010022100 METAR MROC 022100Z 27013KT 7000 2000SW RA BR FEW001 SCT030 BKN100 22/22 A2992 BECMG 2000 +RA BR=
201010022200 METAR MROC 022200Z 25006KT 3000 -TSRA BR FEW001 FEW010CB SCT020 BKN080 21/21 A2995 BECMG=
201010022300 METAR MROC 022300Z 24006KT 3000 -RA BR FEW001 SCT020 BKN80 21/21 A2998 BECMG=
201010030000 METAR MROC 030000Z 01008KT 3000 -TSRA BR FEW001 FEW010CB SCT020 BKN080 20/20 A3001 BECMG=
201010030100 METAR MROC 030100Z 04006KT 3000 -TSRA BR FEW001 FEW010CB SCT020 BKN080 19/19 A3003 BECMG=
201010030200 METAR MROC 030200Z 00000KT 8000 -RA FEW005 SCT020 OVC080 19/19 A3005 BECMG=
201010030300 METAR MROC 030300Z 00000KT 9999 DZ FEW002 OVC100 19/19 A3006 BECMG=
201010030400 METAR MROC 030400Z 10004KT 9999 -RA FEW040 BKN100 20/20 A3005 BECMG=
201010030500 METAR MROC 030500Z 00000KT 9999 DZ OVC100 20/20 A3004 BECMG=
201010030600 METAR MROC 030600Z 00000KT CAVOK 19/19 A3002 RMK BKN120 BECMG=
201010030700 METAR MROC 030700Z 00000KT CAVOK 19/19 A3001 RMK NIEBLA FORMANDOSE AL S BECMG 24003KT 4000SW BCFG=
201010030701 METAR MROC 030701Z 00000KT CAVOK 19/19 A3001 RMK BKN120 NIEBLA FORMANDOSE AL S BECMG 24003KT 4000SW BCFG=
201010030800 METAR MROC 030800Z 10003KT CAVOK 19/19 A2999 RMK FEW070 BKN120 BECMG=
201010030900 METAR MROC 030900Z 00000KT CAVOK 19/19 A2998 RMK FEW070 BKN120 BECMG=
201010031000 METAR MROC 031000Z 07002KT CAVOK 19/19 A3000 RMK FEW070 BKN120 BECMG=
201010031100 METAR MROC 031100Z 00000KT CAVOK 19/19 A3002 RMK FEW080 SCST120 BKN250 BECMG=
201010031200 METAR MROC 031200Z 11004KT 9999 FEW030 BKN100 19/19 A3002 RMK PCPN DST N E BECMG=
201010031300 METAR MROC 031300Z 09003KT 9999 FEW030 BKN100 21/20 A3005 BECMG=
201010031400 METAR MROC 031400Z 11003KT 9999 FEW030 BKN110 22/20 A3007 BECMG 24005KT=
201010031500 METAR MROC 031500Z 10005KT 9999 FEW040 SCT120 BKN250 24/20 A3006 BECMG 24005 KT=
201010031600 METAR MROC 031600Z VRB02KT 9999 FEW040 SCT120 BKN250 26/20 A3006 BECMG 24005 KT=
201010031700 METAR MROC 031700Z 27007KT 9999 SCT040 BKN120 26/21 A3002 RMK SCT250 BECMG=
201010031800 METAR MROC 031800Z 26007KT 9999 FEW010TCU SCT030 BKN120 25/22 A3000 RMK RA E SE BECMG=
201010031900 METAR MROC 031900Z 23007KT TS FEW010CB BKN030 24/23 A2998 RMK RA E SE BECMG 25010KT -TA RA=
201010032000 METAR MROC 032000Z 28008KT 6000 3000N RA BR FEW001 SCT010 BKN030 22/22 A2996 RETS RMK VIS QUAD S UNL BECMG 3000=
201010032100 METAR MROC 032100Z 27007KT 6000 2800N -RA BR FEW002 BKN015 21/21 A2997 RMK VIS NE UNLD BECMG 4000 -RA BR=
201010032200 METAR MROC 032200Z 27006KT 5000 RA BR FEW002 SCT010 BKN020 21/21 A2997 RMK VIS 9KM NE BECMG 3000 -RA BR=
201010032300 METAR MROC 032300Z 26005KT 2000 -RA BR FEW002 SCT006 BKN015 20/20 A3000 BECMG 3000 -RA BR=
201010040000 METAR MROC 040000Z 29003KT 3000 -RA BR SCT002 BKN009 20/20 A3002 RMK VIS 2KM SW ST LOW ARND BECMG=
201010040100 METAR MROC 040100Z 29005KT 2000 R07/0900 +RA BR SCT002 BKN009 20/20 A3004 BECMG 3000 -RA BR=
201010040200 METAR MROC 040200Z 09006KT 3000 1400SW RA BR SCT002 BKN010 18/18 A3007 BECMG 5000 -RA BR=
201010040300 METAR MROC 040300Z 12006KT 5000 RA BR FEW001 SCT008 BKN020 18/18 A3009 RMK VIS 3000 SW BECMG=
201010040400 METAR MROC 040400Z 10005KT 9999 -RA VCFG FEW001 BKN080 17/17 A3009 RERA RMK VIS 5000 SW BECMG=
201010040500 METAR MROC 040500Z 08007KT 9999 VCFG FEW001 SCT050 BKN090 18/18 A3008 BECMG=
201010040600 METAR MROC 040600Z 08007KT 9999 4000SW RA BR VCFG FEW001 SCT050 BKN090 18/18 A3006 BECMG=
201010040700 METAR MROC 040700Z 10004KT 9999 4000SW RA BR VCFG FEW001 SCT050 BKN090 17/17 A3003 BECMG=
201010040800 METAR MROC 040800Z 08004KT 9999 -RA VCFG FEW001 SCT050 BKN090 17/17 A3001 RERA BECMG=
201010040900 METAR MROC 040900Z 08005KT 9999 SCT045 BKN090 18/17 A3000 BECMG=
201010041000 METAR MROC 041000Z 08007KT 9999 FEW045 BKN090 18/17 A2999 BECMG=
201010041100 METAR MROC 041100Z 11006KT 9999 FEW045 SCT100 BKN200 19/17 A3000 BECMG=
201010041200 METAR MROC 041200Z 08004KT CAVOK 19/16 A3003 RMK SCT100 SCT200 BECMG=
201010041300 METAR MROC 041300Z 11006KT CAVOK 21/17 A3005 RMK BKN100 FEW200 BECMG=
201010041400 METAR MROC 041400Z 13009KT 090V150 CAVOK 23/17 A3005 RMK VEL MAX VTO 14KT FEW110 BKN250 BECMG=
201010041500 METAR MROC 041500Z 13008KT CAVOK 25/17 A3007 RMK VEL MAX VTO 15KT FEW120 BKN250 BECMG=
201010041600 METAR MROC 041600Z 14007KT CAVOK 25/18 A3006 RMK SCT070 BKN250 VEL MAX VTO 14KT BECMG=
201010041700 METAR MROC 041700Z 12008KT CAVOK 26/17 A3004 RMK SCT050 BKN250 VEL MAX VTO 14KT BECMG=
201010041800 METAR MROC 041800Z 12005KT 9999 FEW040 BKN250 26/18 A3001 RMK FEW050 BECMG=
201010041900 METAR MROC 041900Z 23007KT 9999 FEW040 BKN250 24/22 A2999 RMK FEW050 BECMG=
201010042000 METAR MROC 042000Z 27007KT 9999 VCSH FEW030 SCT045 BKN250 25/22 A2998 RMK TCU NW BECMG=
201010042100 METAR MROC 042100Z 28005KT 9999 SCT030 SCT100 24/22 A2997 RMK FEW250 RN DST NW BECMG=
201010042200 METAR MROC 042200Z 26006KT 9999 VCSH FEW008 SCT030 BKN100 23/23 A2998 BECMG 8000 -RA VCFG=
201010042300 METAR MROC 042300Z 20004KT 9999 BCFG FEW006 BKN100 23/19 A3000 RMK VIS 8000 S SW BECMG=
201010050000 METAR MROC 050000Z 25003KT 9999 FEW030 SCT100 BKN250 21/21 A3003 BECMG=
201010050100 METAR MROC 050100Z 30002KT 9999 FEW030 SCT100 BKN250 21/21 A3005 BECMG=
201010050200 METAR MROC 050200Z 10003KT CAVOK 21/17 A3006 RMK SCT100 SCT250 BECMG=
201010050300 METAR MROC 050300Z 09007KT CAVOK 21/17 A3008 RMK SCT100 SCT250 BECMG=
201010050400 METAR MROC 050400Z 11004KT CAVOK 21/17 A3007 RMK SCT120 SCT250 BECMG=
201010050500 METAR MROC 050500Z 12003KT CAVOK 21/17 A3007 RMK SCT120 BKN250 BECMG=
201010050600 METAR MROC 050600Z 09004KT CAVOK 20/17 A3005 RMK FEW120 BKN250 BECMG=
201010050700 METAR MROC 050700Z 12003KT CAVOK 20/19 A3003 RMK FEW120 BKN250 BECMG=
201010050800 METAR MROC 050800Z 00000KT CAVOK 20/17 A3001 RMK FEW120 BKN250 BECMG=
201010050900 METAR MROC 050900Z 00000KT CAVOK 20/18 A3001 RMK FEW120 BKN250 BECMG=
201010051000 METAR MROC 051000Z 00000KT CAVOK 19/19 A3000 RMK FEW120 BKN250 BECMG=
201010051100 METAR MROC 051100Z 06005KT CAVOK 20/18 A3002 RMK FEW120 BKN250 BECMG=
201010051200 METAR MROC 051200Z 00000KT 9999 FEW040 BKN100 20/18 A3004 BECMG=
201010051300 METAR MROC 051300Z 00000KT 9999 SCT035 SCT100 21/19 A3006 RMK DZ DST N NE BECMG=
201010051400 METAR MROC 051400Z 12004KT 9999 FEW045 BKN100 23/19 A3007 BECMG=
201010051500 METAR MROC 051500Z 12007KT CAVOK 24/19 A3007 RMK SCT060 BKN120 DZ DST NE BECMG 24006KT=
201010051600 METAR MROC NIL=
201010051700 METAR MROC 051700Z 12006KT 9999 FEW045 BKN100 27/18 A3004 BECMG=
201010051800 METAR MROC 051800Z 12007KT 9999 SCT035 BKN100 27/18 A3001 BECMG 24006KT=
201010051900 METAR MROC 051900Z 15005KT 9999 SCT025 BKN100 25/19 A2998 RMK RN DST N NE BECMG 24006KT=
201010051940 METAR MROC 051940Z 24006KT 9999 SCT030 BKN100 26/22 A2997 RMK RN DST N NE BECMG=
201010052000 METAR MROC 052000Z 22004KT 9999 SCT030 BKN100 26/22 A2996 RMK RN DST N NE BECMG 7000 -RA=
201010052100 METAR MROC 052100Z 26009KT 9999 FEW025TCU SCT045 BKN250 24/22 A2996 BECMG=
201010052200 METAR MROC 052200Z 25006KT 9999 -RA VCFG FEW005 FEW015TCU SCT030 23/22 A2998 VIS NW N 8KMS BECMG 6000 -RA=
201010052300 METAR MROC 052300Z 25007KT 9999 4000N -RA FEW005 SCT035 BKN080 22/21 A3000 VIS RED N QUAD DUE LOW ST BECMG 5000 -RA BR=
201010060000 METAR MROC 060000Z 00000KT 9999 DZ FEW025 BKN080 21/21 A3002 BECMG=
201010060100 METAR MROC 060100Z 00000KT 9999 FEW010 SCT025 BKN100 21/21 A3004 BECMG=
201010060200 METAR MROC 060200Z 00000KT 9999 FEW030 BKN120 21/21 A3006 BECMG=
201010060300 METAR MROC 060300Z VRB02KT CAVOK 21/20 A3006 RMK BKN090 BECMG=
201010060400 METAR MROC 060400Z 00000KT 9999 FEW020 BKN080 20/17 A3007 BECMG=
201010060500 METAR MROC 060500Z 14003KT CAVOK 19/18 A3006 RMK BKN080 BECMG=
201010060600 METAR MROC 060600Z VRB02KT CAVOK 21/17 A3004 RMK BKN080 BECMG=
201010060700 METAR MROC 060700Z 00000KT 9999 BCFG FEW050 BKN080 19/19 A3004 RMK VIS 6KM S BECMG=
201010060800 METAR MROC 060800Z 00000KT 9999 FEW035 BKN070 19/19 A3002 BECMG=
201010060900 METAR MROC 060900Z 10003KT CAVOK 19/19 A3000 RMK BKN100 BECMG=
201010061000 METAR MROC 061000Z 08006KT CAVOK 20/19 A3000 RMK BKN100 BECMG=
201010061100 METAR MROC 061100Z VRB02KT CAVOK 20/18 A3002 RMK FEW070 BKN110 BECMG=
201010061200 METAR MROC 061200Z 00000KT CAVOK 20/18 A3003 RMK FEW070 BKN100 FEW200 BECMG=
201010061300 METAR MROC 061300Z 03003KT 9999 FEW035 SCT120 BKN250 21/19 A3005 RMK LGT HZ ARND BECMG 24005KT=
201010061400 METAR MROC 061400Z 12005KT 9999 FEW035 SCT060 BKN250 24/19 A3007 RMK PCPN DST ENE BECMG 24005KT=
201010061500 METAR MROC 061500Z 13004KT 9999 FEW040 SCT120 BKN250 25/18 A3007 BECMG 24005KT=
201010061600 METAR MROC 061600Z 13006KT 9999 FEW040 BKN250 27/18 A3005 RMK FEW140 BECMG 24005KT=
201010061601 METAR MROC 061601Z 13006KT 9999 FEW040 BKN250 27/18 A3005 RMK FEW140 BECMG 24005KT=
201010061700 METAR MROC 061700Z 13006KT 9999 FEW040 BKN250 27/18 A3005 RMK FEW140 BECMG 24005KT=
201010061701 METAR MROC 061701Z 23009KT 9999 FEW025TCU BKN040 25/21 A3004 RMK LGT HZ ARND BECMG VCSH=
201010061800 METAR MROC 061800Z 26011KT 9999 FEW020TCU BKN035 24/22 A3001 RMK LGT HZ ARND BECMG VCSH=
201010061900 METAR MROC 061900Z 25010KT 9999 FEW015TCU SCT035 26/22 A2998 RMKPCPN DST N NE BECMG 8000 VCSH=
201010061935 METAR MROC 061935Z 25009KT 9999 4000NW SHRA SCT015TCU SCT025 25/21 A2997 BECMG 5000 SHRA=
201010062000 METAR MROC 062000Z 24008KT 9999 4000N RA FEW015TCU SCT025 BKN100 24/22 A2996 BECMG 5000 SHRA=
201010062100 METAR MROC 062100Z 25007KT 9999 4000W RA BR FEW012CB SCT035 BKN100 24/22 A2995 RMK VIS 4000SE BECMG 8000 VCSH=
201010062200 METAR MROC 062200Z 27008KT 8000 BR VCTS VCSH FEW012TCU SCT035 23/22 A2996 RERA RMK FEW100 FEW240 VIS E UNL BECMG=
201010062300 METAR MROC 062300Z 19004KT 5000 TSRA BR FEW010 SCT030 BKN100 21/21 A2998 RMK VIS E UNL BECMG 8000 -RA=
201010070000 METAR MROC 070000Z 00000KT 9999 DZ FEW001 SCT030 BKN100 21/21 A3000 RETSRA RMK VIS 5KM SW TS DST SE BECMG=
201010070100 METAR MROC 070100Z 00000KT 9999 FEW001 SCT030 BKN100 21/21 A3002 REDZ BECMG=
201010070200 METAR MROC 070200Z 00000KT 9999 FEW001 BKN100 21/21 A3003 BECMG=
201010070300 METAR MROC 070300Z 00000KT 9999 BCFG FEW020 SCT120 BKN250 20/20 A3004 RMK VIS 7000 W NW BECMG=
201010070400 METAR MROC 070400Z 11002KT CAVOK 20/20 A3004 RMK SCT120 SCT250 BECMG=
201010070500 METAR MROC 070500Z 05005KT CAVOK 20/20 A3004 RMK SCT120 FEW250 BECMG=
201010070600 METAR MROC 070600Z 06002KT CAVOK 20/18 A3003 RMK SCT120 BECMG=
201010070700 METAR MROC 070700Z 09002KT CAVOK 19/18 A3000 RMK SCT120 BECMG=
201010070800 METAR MROC 070800Z 06004KT CAVOK 18/18 A2998 RMK SCT120 BECMG=
201010070900 METAR MROC 070900Z 00000KT CAVOK 18/18 A2998 RMK SCT120 BECMG=
201010071000 METAR MROC 071000Z 09005KT CAVOK 19/17 A2999 RMK SCT120 BECMG=
201010071100 METAR MROC 071100Z 08006KT CAVOK 19/18 A2999 RMK SCT120 BECMG=
201010071200 METAR MROC 071200Z 12006KT 9999 FEW045 SCT120 21/18 A3001 RMK DZ DST NE E BECMG=
201010071300 METAR MROC 071300Z 07009KT 9999 FEW040 BKN110 21/18 A3005 RMK DZ DST SE BECMG=
201010071400 METAR MROC 071400Z 11006KT 9999 FEW045 BKN110 22/18 A3007 RMK DZ DST QUAD E BECMG=
201010071500 METAR MROC 071500Z 11009KT CAVOK 25/18 A3006 RMK DZ LW ST DST QUAD E FEW110 FEW250 BECMG=
201010071600 METAR MROC 071600Z 14010KT CAVOK 26/19 A3007 RMK TCU DZ DST QUAD E FEW060 FEW110 BECMG=
201010071700 METAR MROC 071700Z 13009KT CAVOK 26/19 A3005 RMK TCU DST E SE SW FEW060 BECMG=
201010071800 METAR MROC 071800Z 10010KT CAVOK 27/17 A3002 RMK TCU DST NE E SW FEW060 FEW200 BECMG=
201010071900 METAR MROC 071900Z 12009KT CAVOK 27/17 A2998 RMK TCU DST ARND SCT070 SCT120 BECMG=
201010072000 METAR MROC 072000Z 12007KT CAVOK 28/17 A2996 RMK TCU DST ARND SCT070 BKN120 BECMG=
201010072100 METAR MROC 072100Z 21007KT 9999 FEW015TCU SCT030 BKN120 27/22 A2995 BECMG=
201010072200 METAR MROC 072200Z 21006KT 9999 FEW030 SCT120 BKN250 24/22 A2997 BECMG=
201010072300 METAR MROC 072300Z 21003KT 9999 FEW030 SCT120 BKN250 24/20 A2999 BECMG=
201010080000 METAR MROC 080000Z 11003KT 9999 FEW030 SCT120 BKN250 23/19 A3001 BECMG=
201010080100 METAR MROC 080100Z 08002KT 9999 FEW030 SCT120 BKN250 23/18 A3003 BECMG=
201010080200 METAR MROC 080200Z 13005KT 9999 FEW030 SCT120 22/18 A3005 BECMG=
201010080300 METAR MROC 080300Z 12006KT CAVOK 22/18 A3006 SCT120 BECMG=
201010080400 METAR MROC 080400Z 11005KT CAVOK 21/18 A3006 RMK BKN250 BECMG=
201010080500 METAR MROC 080500Z 08005KT CAVOK 21/18 A3006 RMK BKN250 BECMG=
201010080600 METAR MROC 080600Z 080600Z10006KT CAVOK 21/18 A3004 RMK BKN250 BECMG=
201010080700 METAR MROC 080700Z 08007KT CAVOK 21/18 A3002 RMK BKN250 BECMG=
201010080800 METAR MROC 080800Z 06003KT CAVOK 19/17 A3000 RMK BKN250 BECMG=
201010080900 METAR MROC 080900Z 08005KT CAVOK 19/18 A2999 RMK BKN250 BECMG=
201010081000 METAR MROC 081000Z 07004KT CAVOK 18/17 A3000 RMK FEW100 SCT250 BECMG=
201010081100 METAR MROC 081100Z 08006KT CAVOK 19/17 A3001 RMK FEW070 SCT270 BECMG=
201010081200 METAR MROC 081200Z 08008KT 9999 FEW035 SCT070 21/18 A3003 RMK FEW300 DZ DST NE E BECMG=
201010081300 METAR MROC 081300Z 10005KT 9999 FEW035 SCT070 23/19 A3005 RMK CB DST SW BECMG=
201010081400 METAR MROC 081400Z 11007KT 9999 SCT030 24/19 A3008 RMK CB DST SW BECMG=
201010081500 METAR MROC 081500Z 13011KT 090V180 9999 SCT030 SCT250 25/19 A3009 BECMG=
201010081600 METAR MROC 081600Z 13011KT 9999 SCT030 SCT250 26/19 A3007 RMK DZ N NE E BECMG=
201010081700 METAR MROC 081700Z 15008KT 9999 SCT030 SCT250 27/19 A3006 RMK DZ NE N BECMG=
201010081800 METAR MROC 081800Z 13005KT 090V160 9999 SCT030 SCT250 27/19 A3002 BECMG=
201010081900 METAR MROC 081900Z 13006KT 9999 BKN030 26/19 A3000 BECMG=
201010082000 METAR MROC 082000Z 23008KT 9999 FEW010TCU BKN030 27/20 A2997 RMK RA DST W BECMG=
201010082100 METAR MROC 082100Z 24009KT 9999 VCSH FEW015TCU SCT030 25/23 A2997 RMK FEW045 VEL MAX VTO 14KT VIS 8KM NW BECMG=
201010082200 METAR MROC 082200Z 25006KT 9999 4000NW -RA BR FEW010 SCT030 BKN045 25/23 A2997 BECMG=
201010082300 METAR MROC 082300Z 14004KT 9999 FEW010 SCT025 BKN040 23/19 A3001 RMK VIS 6KM NW DUE LOW ST BECMG=
201010090000 METAR MROC 090000Z 12008KT 9999 FEW006 SCT025 BKN040 23/19 A3003 RMK VIS 6KM W DUE LOW ST BECMG=
201010090100 METAR MROC 090100Z 11005KT 070V140 9999 FEW035 BKN080 22/19 A3005 BECMG=
201010090200 METAR MROC 090200Z 11006KT 9999 FEW040 SCT080 22/18 A3007 BECMG=
201010090300 METAR MROC 090300Z 08005KT 9999 FEW040 SCT080 21/18 A3008 BECMG=
201010090400 METAR MROC 090400Z 11009KT CAVOK 21/17 A3008 RMK SCT080 BECMG=
201010090500 METAR MROC 090500Z 10003KT 9999 FEW040 SCT080 21/17 A3009 BECMG=
201010090600 METAR MROC 090600Z 06005KT 9999 FEW040 SCT080 21/18 A3006 BECMG=
201010090700 METAR MROC 090700Z 11006KT 9999 FEW040 SCT080 21/18 A3003 BECMG=
201010090800 METAR MROC 090800Z 09006KT CAVOK 21/18 A3003 RMK FEW080 BECMG=
201010090900 METAR MROC 090900Z 06008KT CAVOK 20/18 A3002 RMK FEW080 BECMG=
201010091000 METAR MROC 091000Z 14007KT CAVOK 20/18 A3002 RMK FEW080 BECMG=
201010091100 METAR MROC 091100Z 13008KT CAVOK 20/17 A3003 RMK FEW080 BECMG=
201010091200 METAR MROC 091200Z 12004KT CAVOK 19/17 A3004 RMK BKN250 BECMG=
201010091300 METAR MROC 091300Z 12008KT 9999 FEW045 BKN300 22/17 A3006 BECMG=
201010091400 METAR MROC 091400Z 12007KT 9999 FEW045 SCT300 24/18 A3007 RMK DZ DST E BECMG=
201010091500 METAR MROC 091500Z 11007KT 080V140 9999 FEW045 SCT300 25/18 A3009 BECMG=
201010091600 METAR MROC 091600Z 12008KT 9999 FEW040 SCT300 26/18 A3007 BECMG=
201010091700 METAR MROC 091700Z 13010KT 9999 SCT040 27/18 A3004 RMK FEW250 VEL MAX VTO 15KT BECMG=
201010091800 METAR MROC 091800Z 12010KT 9999 SCT040 SCT250 28/18 A3002 RMK FEW080 BECMG=
201010091900 METAR MROC 091900Z 14010KT 9999 FEW030 SCT080 27/18 A2999 RMK FEW045 FEW250 BECMG 23005KT=
201010092000 METAR MROC 092000Z 13006KT 9999 FEW030 SCT090 28/19 A2996 RMK FEW045 BECMG 24005KT=
201010092100 METAR MROC 092100Z 12007KT 9999 SCT025 SCT090 26/19 A2996 BECMG=
201010092200 METAR MROC 092200Z 11009KT 9999 FEW015 SCT030 BKN090 24/18 A2998 BECMG=
201010092300 METAR MROC 092300Z 12008KT 9999 FEW030 BKN090 22/17 A2999 BECMG=
201010100000 METAR MROC 100000Z 12007KT CAVOK 21/17 A3002 RMK SCT100 SCT250 BECMG=
201010100100 METAR MROC 100100Z 12009KT CAVOK 21/16 A3003 RMK FEW100 SCT250 BECMG=
201010100200 METAR MROC 100200Z 12008KT CAVOK 21/18 A3005 RMK FEW100 SCT250 BECMG=
201010100300 METAR MROC 100300Z 12008KT CAVOK 21/17 A3006 RMK SCT120 SCT250 BECMG=
201010100400 METAR MROC 100400Z 11007KT 080V140 CAVOK 21/17 A3005 RMK SCT120 SCT250 BECMG=
201010100500 METAR MROC 100500Z 11003KT CAVOK 21/17 A3004 RMK SCT120 SCT250 BECMG=
201010100600 METAR MROC 100600Z 09007KT CAVOK 21/17 A3003 RMK SCT120 BKN250 BECMG=
201010100700 METAR MROC 100700Z 06005KT CAVOK 20/17 A3002 RMK SCT120 BKN250 BECMG=
201010100800 METAR MROC 100800Z 07008KT CAVOK 20/17 A3000 RMK SCT120 BKN250 BECMG=
201010100900 METAR MROC 100900Z 08005KT CAVOK 20/17 A2999 RMK SCT120 BKN250 BECMG=
201010101000 METAR MROC 101000Z 10007KT CAVOK 20/17 A3001 RMK SCT120 BKN250 BECMG=
201010101100 METAR MROC 101100Z 12003KT CAVOK 19/16 A3001 RMK FEW120 SCT250 BECMG=
201010101200 METAR MROC 101200Z 12003KT CAVOK 19/15 A3002 RMK FEW120 SCT250 BECMG=
201010101300 METAR MROC 101300Z 10007KT CAVOK 23/14 A3003 RMK SCT250 BECMG=
201010101400 METAR MROC 101400Z 10011KT CAVOK 25/14 A3005 RMK FEW120 SCT250 BECMG=
201010101500 METAR MROC 101500Z 13007KT CAVOK 26/17 A3005 RMK FEW120 BKN250 BECMG=
201010101600 METAR MROC 101600Z 12008KT CAVOK 27/17 A3003 RMK SCT120 SCT250 BECMG=
201010101700 METAR MROC 101700Z 13008KT 9999 FEW045 SCT250 28/16 A3000 BECMG 24006KT=
201010101800 METAR MROC 101800Z 12007KT 9999 FEW035 SCT120 BKN250 28/17 A2997 BECMG 24006KT=
201010101900 METAR MROC 101900Z 16004KT 9999 FEW040 BKN120 28/18 A2994 BECMG 24006KT=
201010102000 METAR MROC 102000Z 23007KT 9999 SCT035 SCT120 27/21 A2992 BECMG=
201010102100 METAR MROC 102100Z 24008KT 9999 FEW020 SCT035 BKN120 25/23 A2991 RMK PCPN DST NW S LGT HZ ARND BECMG=
201010102200 METAR MROC 102200Z 24007KT 9999 FEW015 BKN120 23/23 A2993 RMK CB DST ENE S HZY BECMG=
201010102300 METAR MROC 102300Z 24005KT 9999 FEW007 SCT015 BKN120 23/23 A2995 LGT HZ ARND BECMG=
201010110000 METAR MROC 110000Z 23004KT 9999 FEW007 SCT015 BKN120 22/22 A2997 RMK=
201010110100 METAR MROC 110100Z 00000KT 9999 VCFG FEW005 SCT020 BKN120 21/21 A2999 RMK VIS S SSW 8KMS BECMG 5000 BR=
201010110200 METAR MROC 110200Z 00000KT 9999 VCFG FEW006 SCT030 BKN120 22/22 A3001 RMK VIS S SSW 8KMS LGT HZ ARND BECMG=
201010110300 METAR MROC 110300Z 12006KT 9999 VCFG FEW030 BKN090 22/19 A3001 BECMG=
201010110400 METAR MROC 110400Z 10003KT 9999 BCFG FEW030 BKN100 22/19 A3001 RMK VIS 6KM S BECMG=
201010110500 METAR MROC 110500Z 10005KT 9999 BCFG FEW030 SCT100 BKN300 22/18 A3000 RMK VIS 6KM S BECMG=
201010110600 METAR MROC 110600Z 10003KT 9999 FEW040 BKN300 21/19 A2997 BECMG=
201010110700 METAR MROC 110700Z VRB02KT CAVOK 20/19 A2996 RMK SCT300 BECMG=
201010110800 METAR MROC 110800Z 00000KT CAVOK 20/18 A2996 RMK FEW050 FEW300 BECMG=
201010110900 METAR MROC 110900Z 12006KT 9999 FEW045 21/18 A2996 RMK FEW300 BECMG=
201010111000 METAR MROC 111000Z 10006KT CAVOK 21/17 A2996 RMK FEW050 BECMG=
201010111100 METAR MROC 111100Z 10005KT 9999 FEW045 20/17 A2997 BECMG=
201010111200 METAR MROC 111200Z 09006KT CAVOK 23/18 A3001 RMK BKN250 LGT HZ ARND BECMG=
201010111300 METAR MROC 111300Z 09006KT CAVOK 23/18 A3001 RMK BKN250 LGT HZ ARND BECMG=
201010111400 METAR MROC 111400Z 09002KT CAVOK 25/18 A3002 RMK BKN250 BECMG=
201010111500 METAR MROC 111500Z 11008KT CAVOK 27/18 A3003 RMK BKN250 BECMG=
201010111600 METAR MROC 111600Z 14006KT CAVOK 28/17 A3001 RMK SCT270 BECMG 24006KT=
201010111700 METAR MROC 111700Z 23008KT 9999 FEW045 SCT300 27/20 A2994 BECMG=
201010111800 METAR MROC 111800Z 24012KT 9999 SCT030 27/22 A2996 RMK LGT HZ ARND BECMG=
201010111900 METAR MROC 111900Z 25010KT 9999 FEW020TCU SCT040 27/23 A2994 BECMG=
201010112000 METAR MROC 112000Z 25012KT 9999 VCSH FEW015CB SCT025 27/23 A2991 RMK VIS N NE 8KMS BECMG 7000-TSRA=
201010112100 METAR MROC 112100Z 25010KT 9999 VCSH FEW012CB SCT030 BKN080 24/23 A2992 RMK VIS 8KM E 3000 N BECMG 7000 -TSRA=
201010112200 METAR MROC 112200Z 00000KT 5000 -RA BR FEW001 FEW010TCU SCT020 BKN050 22/22 A2994 RERA RMK VIS E UNL BECMG=
201010112300 METAR MROC 112300Z VRB02KT 9999 2000SW BR FEW001 SCT015 BKN035 22/22 A2995 BECMG=
201010120000 METAR MROC 120000Z 00000KT 5000 BR FEW001 SCT008 BKN030 21/21 A2996 RMK VIS E UNL HUMO E BECMG=
201010120100 METAR MROC 120100Z 00000KT 9999 VCFG FEW001 SCT012 BKN030 21/21 A2998 BECMG=
201010120200 METAR MROC 120200Z 00000KT 9999 3000W BR FEW001 SCT012 BKN050 22/22 A3000 BECMG 8000 VCFG=
201010120300 METAR MROC 120300Z 00000KT 9999 VCFG FEW007 BKN035 22/22 A3001 RMK VIS 7000 SW W BECMG=
201010120400 METAR MROC 120400Z 00000KT 9999 VCFG FEW007 BKN035 22/22 A3002 RMK VIS 7000 SW W BECMG=
201010120500 METAR MROC 120500Z 00000KT 9999 BR FEW005 BKN035 21/21 A3001 RMK VIS 5000 SW W BECMG=
201010120600 METAR MROC 120600Z 00000KT 9999 BR FEW005 BKN035 22/22 A2999 RMK VIS 5000 SW W BECMG=
201010120700 METAR MROC 120700Z 07004KT 9999 FEW007 SCT035 22/21 A2997 BECMG=
201010120800 METAR MROC 120800Z 08005KT CAVOK 21/20 A2995 RMK SCT120 BECMG=
201010120900 METAR MROC 120900Z 05006KT CAVOK 21/20 A2994 RMK SCT120 BECMG=
201010121000 METAR MROC 121000Z 06008KT CAVOK 21/20 A2995 RMK SCT120 BECMG=
201010121100 METAR MROC 121100Z 09007KT CAVOK 21/19 A2996 RMK SCT120 BECMG=
201010121200 METAR MROC 121200Z 08005KT CAVOK 21/19 A2998 RMK SCT250 BECMG=
201010121300 METAR MROC 121300Z 08003KT CAVOK 23/20 A3000 RMK BKN250 TCU DST SW NE BECMG 24006KT=
201010121400 METAR MROC 121400Z 08002KT CAVOK 25/20 A3001 RMK BKN250 TCU DST NE SW BECMG 24006KT=
201010121500 METAR MROC 121500Z 36004KT CAVOK 27/19 A3001 RMK FEW250 BKN300 TCU DST E SW BECMG=
201010121600 METAR MROC 121600Z 19004KT 9999 FEW040 SCT250 28/20 A3001 RMK TCU DST QUAD E SW VRBLE WND BECMG=
201010121700 METAR MROC 121700Z 22005KT 9999 SCT040 28/22 A2999 RMK FEW250 TCU DST QUAD E SW BECMG=
201010121800 METAR MROC 121800Z 22005KT 9999 SCT040 27/22 A2996 RMK FEW250 TCU DST ARND BECMG=
201010121900 METAR MROC 121900Z 24011KT 9999 FEW013TCU SCT045 28/23 A2993 RMK FEW250 RA DST E SW BECMG 5000 SHRA=
201010122000 METAR MROC 122000Z 24011KT 9999 4000SW RA BR FEW010 BKN035 26/24 A2992 RMK VIS 4KM E BECMG 5000 RA BR=
201010122100 METAR MROC 122100Z 25011KT 6000 2000SW -TSRA BR FEW001 FEW010CB BKN030 24/24 A2992 BECMG 4000 -TSRA=
201010122200 METAR MROC 122200Z 25007KT 1000 R07/0700 -DZ BR FEW001 SCT010 BKN030 22/22 A2995 BECMG=
201010122300 METAR MROC 122300Z 27003KT 3000 -RA BR FEW001 SCT010 BKN030 22/22 A2995=
201010130000 METAR MROC 130000Z 26003KT 6000 2000SW -RA BR FEW001 SCT010 BKN030 21/21 A2998 RMK VIS QUAD S UNL BECMG=
201010130100 METAR MROC 130100Z 00000KT 9999 FEW002 SCT030 BKN100 22/22 A3000 BECMG=
201010130200 METAR MROC 130200Z 02005KT 9999 FEW002 SCT030 BKN100 21/21 A3001 BECMG=
201010130300 METAR MROC 130300Z 00000KT CAVOK 21/21 A3003 RMK SCT120 BKN250 BECMG=
201010130400 METAR MROC 130400Z 08005KT CAVOK 22/21 A3001 RMK FEW120 BKN250 BECMG=
201010130500 METAR MROC 130500Z 08005KT CAVOK 21/20 A2998 RMK BKN250 BECMG=
201010130600 METAR MROC 130600Z 06005KT CAVOK 21/20 A2997 RMK BKN250 BECMG=
201010130700 METAR MROC 130700Z 00000KT CAVOK 21/20 A2996 RMK BKN250 BECMG=
201010130800 METAR MROC 130800Z 00000KT CAVOK 20/20 A2996 RMK BKN250 BECMG=
201010130900 METAR MROC 130900Z 05004KT CAVOK 20/20 A2996 RMK BKN250 BECMG=
201010131000 METAR MROC 131000Z 09005KT CAVOK 20/19 A2996 RMK BKN250 BECMG=
201010131100 METAR MROC 131100Z 04005KT CAVOK 20/19 A2997 RMK BKN250 BECMG=
201010131200 METAR MROC 131200Z 07006KT CAVOK 21/19 A2999 RMK BKN250 CB DST SW BECMG=
201010131300 METAR MROC 131300Z 11008KT CAVOK 23/20 A3000 RMK BKN250 BECMG=
201010131400 METAR MROC 131400Z 13009KT 9999 FEW040 BKN250 25/20 A3001 BECMG=
201010131500 METAR MROC NIL=
201010131600 METAR MROC 131600Z 25009KT 9999 SCT030 SCT250 25/23 A3004 BECMG=
201010131700 METAR MROC 131700Z 26005KT 9999 SCT030 SCT250 26/23 A3000 BECMG=
201010131800 METAR MROC 131800Z 26007KT 9999 SCT030 SCT250 26/22 A2998 BECMG=
201010131900 METAR MROC 131900Z 23008KT 9999 SCT030 SCT250 26/23 A2996 BECMG=
201010132000 METAR MROC 132000Z 27007KT 9999 FEW015TCU SCT030 SCT250 25/22 A2994 BECMG=
201010132100 METAR MROC 132100Z 24006KT 9999 VCSH SCT035 BKN250 26/23 A2992 RMK VIS 8KM NE BECMG 7000 -SHRA=
201010132200 METAR MROC 132200Z 20003KT 9999 -SHRA FEW015TCU SCT030 BKN250 25/23 A2995 RMK VIS 7KM E/N BECMG=
201010132300 METAR MROC 132300Z 25004KT 9000 4000NW BR FEW003 SCT100 BKN200 23/23 A2996 RMK FEW040 BECMG=
201010140000 METAR MROC 140000Z 00000KT 9999 3500SW BR FEW003 SCT035 BKN250 22/22 A2997 BECMG=
201010140100 METAR MROC 140100Z VRB02KT 8000 2000SW BR SCT002 SCT020 22/22 A2999 RMK FEW250 VIS NE UNLD BECMG 5000 BR BKN010=
201010140200 METAR MROC 140200Z 00000KT 8000 2000SW BR FEW001 SCT040 BKN200 22/22 A3000 RMK FEW020 VIS NE UNLD BECMG=
201010140300 METAR MROC 140300Z 22003KT 9999 4000SW BR FEW001 SCT040 BKN120 21/21 A3002 RMK VIS SE 5000 BECMG=
201010140400 METAR MROC 140400Z VRB02KT 9999 FEW001 SCT040 BKN250 23/19 A3002 RMK=
201010140500 METAR MROC 140500Z 00000KT 9999 FEW001 SCT040 BKN120 21/21 A3002 RMK FEW020 LGTH BR ARND BECMG=
201010140600 METAR MROC 140600Z 33006KT 9999 FEW001 SCT040 BKN120 21/21 A3001 RMK=
201010140700 METAR MROC 140700Z 11003KT 9999 FEW001 SCT040 BKN120 21/21 A2998 BECMG=
201010140800 METAR MROC 140800Z 13005KT 9999 SCT040 BKN120 21/20 A2994 BECMG=
201010140900 METAR MROC 140900Z 11006KT 9999 SCT040 BKN120 22/19 A2996 BECMG=
201010141000 METAR MROC 141000Z 09007KT 9999 FEW020 SCT080 22/18 A2998 BECMG=
201010141100 METAR MROC 141100Z 11004KT 9999 FEW020 SCT080 21/18 A2999 RMK FEW040 BECMG=
201010141200 METAR MROC 141200Z 10004KT 9999 FEW040 BKN120 22/19 A3002 RMK FEW200 BECMG=
201010141300 METAR MROC 141300Z VRB02KT 9999 FEW040 BKN110 23/20 A3002 RMK FEW250 VIS 8KM NE DZ DST NE/E BECMG=
201010141400 METAR MROC 141400Z 11011G21KT 9999 FEW045 SCT110 BKN250 22/17 A3003 BECMG=
201010141500 METAR MROC 141500Z 12011KT 9999 FEW040 SCT130 BKN250 24/17 A3002 RMK VEL MAX VTO 19KT BECMG=
201010141521 METAR MROC 141521Z 11015G26KT 9999 FEW045 SCT130 BKN250 25/17 A3001 BECMG=
201010141600 METAR MROC 141600Z 12015G29KT 9999 FEW045 BKN250 26/18 A3001 RMK FEW130 BECMG=
201010141700 METAR MROC 141700Z 11011KT 090V150 9999 FEW045 BKN250 27/18 A3000 RMK VEL MAX VTO 19KT BECMG=
201010141800 METAR MROC 141800Z 13014KT 9999 FEW035 BKN250 27/18 A2998 RMK FEW045 VEL MAX VTO 22KT BECMG=
201010141900 METAR MROC 141900Z 14012KT 9999 FEW035 BKN250 26/18 A2995 RMK FEW045 VEL MAX VTO 18KT BECMG=
201010142000 METAR MROC 142000Z 12012KT 9999 FEW040 SCT090 BKN250 26/18 A2994 RMK RN DST NE BECMG=
201010142100 METAR MROC 142100Z 12010G20KT 9999 FEW035 BKN090 24/18 A2993 RMK RN DST N NE BECMG=
201010142200 METAR MROC 142200Z 12010KT 9999 FEW035 BKN100 24/17 A2993 RMK RN DST N NE BECMG=
201010142300 METAR MROC 142300Z 1301121KT 9999 FEW035 SCT100 BKN250 22/18 A2994 RMK RN DST N NE BECMG=
201010150000 METAR MROC 150000Z 11014KT CAVOK 22/18 A2997 RMK BKN250 BECMG=
201010150100 METAR MROC NIL=
201010150200 METAR MROC 150200Z 08006KT CAVOK 21/18 A3003 RMK SCT120 SCT250 LTNG SW BECMG=
201010150300 METAR MROC 150300Z 07006KT CAVOK 22/18 A3004 RMK SCT120 SCT250 BECMG=
201010150400 METAR MROC 150400Z 10006G17KT 070V140 CAVOK 22/18 A3003 RMK SCT120 SCT250 BECMG=
201010150500 METAR MROC NIL=
201010150600 METAR MROC 150600Z 10008KT CAVOK 21/18 A3000 RMK SCT120 BKN250 BECMG=
201010150700 METAR MROC 150700Z 13009KT CAVOK 22/17 A2997 RMK SCT120 BKN250 BECMG=
201010150800 METAR MROC 150800Z 13009G20KT CAVOK 22/17 A2995 RMK SCT120 BKN250 BECMG=
201010150900 METAR MROC 150900Z 12008KT 090V150 CAVOK 22/17 A2995 RMK SCT120 BKN250 BECMG=
201010151000 METAR MROC 151000Z 09006KT CAVOK 22/18 A2997 RMK SCT120 BKN250 BECMG=
201010151100 METAR MROC 151100Z 09005KT CAVOK 20/18 A2997 RMK SCT120 BKN250 BECMG=
201010151200 METAR MROC 151200Z 11005KT CAVOK 21/18 A3000 RMK FEW120 SCT250 CB DST SW BECMG=
201010151300 METAR MROC 151300Z 07003KT CAVOK 22/18 A3004 RMK FEW120 SCT250 DZ DST NE BECMG=
201010151400 METAR MROC 151400Z 08006KT CAVOK 25/18 A3003 RMK FEW120 SCT250 RN DST NE E BECMG=
201010151500 METAR MROC 151500Z 09010KT CAVOK 27/19 A3001 RMK FEW120 SCT250 RN DST NE E BECMG=
201010151600 METAR MROC 151600Z 12012KT 9999 FEW045 BKN250 27/18 A3002 RMK RN DST NE BECMG=
201010151700 METAR MROC 151700Z 13008KT 9999 BKN035 SCT090 26/19 A3002 RMK RN DST NE E BECMG 24006KT -RA=
201010151735 METAR MROC 151735Z 21006KT 9999 BKN035 SCT090 25/19 A3002 BECMG=
201010151800 METAR MROC 151800Z 19008KT 9999 BKN035 SCT090 26/19 A2999 RMK DZ DST NE=
201010151900 METAR MROC 151900Z 23006KT 9999 SCT035 BKN100 26/22 A2998 RMK RN DST=
201010152000 METAR MROC 152000Z 32005KT 9999 VCSH VCTS FEW010CB BKN030 22/20 A2995 RMK BECMG 5000 SHRA=
201010152100 METAR MROC 152100Z 14003KT 9999 VCSH SCT030 BKN090 23/20 A2997 RMK=
201010152200 METAR MROC 152200Z 00000KT 9999 VCSH BCFG SCT030 BKN090 22/21 A2998 BECMG=
201010152300 METAR MROC 152300Z 14007KT 9999 VCSH SCT030 BKN090 22/19 A2997 BECMG=
201010160000 METAR MROC 160000Z 13008KT 9999 -RA FEW030 BKN090 21/20 A3000 BECMG=
201010160100 METAR MROC 160100Z 11008KT 9999 -RA FEW020 OVC100 21/19 A3003 BECMG=
201010160200 METAR MROC 160200Z 12012KT 9999 FEW020 OVC120 21/18 A3004 RERA VEL MAX VTO 15KTS BECMG=
201010160300 METAR MROC 160300Z 12012KT 9999 -RA FEW030 BKN100 21/17 A3006 BECMG=
201010160400 METAR MROC 160400Z 13010KT 9999 FEW030 BKN110 21/18 A3007 RMK LTNG DST S VEL MAX VTO 16KT BECMG=
201010160500 METAR MROC 160500Z 12007KT CAVOK 21/17 A3005 RMK FEW050 SCT120 BKN250=
201010160600 METAR MROC 160600Z 07005KT 9999 -RA FEW045 SCT120 OVC250 20/17 A3004 BECMG=
201010160700 METAR MROC 160700Z VRB02KT 9999 FEW040 SCT080 OVC250 20/18 A3003 BECMG=
201010160800 METAR MROC 160800Z 00000KT CAVOK 19/18 A3001 RMK SCT070 OVC250 BECMG=
201010160900 METAR MROC 160900Z 08005KT CAVOK 19/18 A3000 RMK SCT100 BKN250 BECMG=
201010161000 METAR MROC 161000Z 04005KT CAVOK 20/17 A3000 RMK BKN090 BECMG=
201010161100 METAR MROC 161100Z VRB02KT CAVOK 20/16 A3001 RMK BKN070 BECMG=
201010161200 METAR MROC 161200Z 07006KT CAVOK 20/16 A3002 RMK BKN080 BECMG=
201010161300 METAR MROC 161300Z 08004KT CAVOK 21/17 A3005 RMK BKN100 BECMG=
201010161400 METAR MROC 161400Z 12005KT CAVOK 23/17 A3007 RMK BKN100 BECMG=
201010161500 METAR MROC 161500Z 13006KT CAVOK 24/17 A3008 RMK BKN100 SCT250 BECMG=
201010161600 METAR MROC 161600Z 24003KT 9999 FEW045 BKN100 24/19 A3008 RMK SCT250 BECMG=
201010161700 METAR MROC 161700Z 23009KT 9999 FEW020 BKN100 23/20 A3007 BECMG=
201010161800 METAR MROC 161800Z 24006KT 9999 FEW020 BKN100 23/20 A3004 RMK RN DST S SE BECMG -RA=
201010161900 METAR MROC 161900Z 24004KT 9999 FEW020 SCT110 BKN250 24/21 A3002 BECMG=
201010162000 METAR MROC 162000Z 26006KT 9999 FEW030 SCT110 BKN250 25/21 A2999 RMK RN DST E NE BECMG=
201010162100 METAR MROC 162100Z VRB02KT 9999 -RA VCSH SCT040 BKN100 23/22 A2999 RMK VIS 5OOOSW TCU SW BECMG=
201010162200 METAR MROC 162200Z 23005KT 9999 VCFG SCT080 BKN100 22/22 A3000 RMK VIS 5KM SW W TCU SW W BECMG=
201010162300 METAR MROC 162300Z 24004KT 9999 VCFG FEW001 BKN100 21/21 A3002 RMK VIS 5KM SW W TCU DST SW E FEW080 FEW200 BECMG=
201010170000 METAR MROC 170000Z 25005KT 5000 BR FEW001 SCT008 BKN040 21/21 A3005 RMK VIS E UNL BECMG 3000 BR=
201010170100 METAR MROC 170100Z VRB02KT 9999 FEW001 SCT040 BKN110 20/20 A3008 RMK VIS 5KM SW W BECMG=
201010170200 METAR MROC 170200Z VRB02KT 9999 2000SW BR SCT001 SCT040 20/20 A3010 RMK FEW110 BECMG=
201010170300 METAR MROC 170300Z 22003KT 9999 4000SW BR FEW001 BKN025 20/20 A3011 BECMG=
201010170400 METAR MROC 170400Z 00000KT 9999 FEW030 BKN100 20/20 A3010 BECMG=
201010170500 METAR MROC 170500Z 00000KT 9999 FEW025 BKN100 20/20 A3008 BECMG=
201010170600 METAR MROC 170600Z 06002KT CAVOK 20/20 A3006 RMK SCT120 SCT250 BECMG=
201010170700 METAR MROC 170700Z 00000KT BCFG CAVOK 19/19 A3005 RMK SCT120 SCT250 BCFG S SSW BECMG=
201010170800 METAR MROC 170800Z 29003KT 9999 2000SW BR FEW001 SCT120 19/19 A3004 RMK BECMG 2000 BR=
201010170900 METAR MROC 170900Z 00000KT CAVOK 19/19 A3003 RMK SCT120 BECMG=
201010171000 METAR MROC 171000Z 09007KT CAVOK 19/16 A3002 RMK SCT120 BECMG=
201010171100 METAR MROC 171100Z 06008KT CAVOK 19/17 A3004 RMK BKN120 BECMG=
201010171200 METAR MROC 171200Z 08005KT CAVOK 19/16 A3005 RMK SCT120 BECMG=
201010171300 METAR MROC 171300Z 11006KT CAVOK 21/17 A3009 RMK SCT080 SCT120 BECMG=
201010171400 METAR MROC 171400Z 10006KT CAVOK ///// A3010 RMK=
201010171500 METAR MROC 171500Z 06004KT CAVOK 24/18 A3010 RMK BKN110 BECMG=
201010171600 METAR MROC 171600Z 14004KT CAVOK 25/17 A3009 RMK BKN110 BECMG 24006KT=
201010171700 METAR MROC 171700Z 25007KT 9999 FEW040 BKN110 23/20 A3008 BECMG=
201010171800 METAR MROC 171800Z 24004KT 9999 SCT040 SCT110 25/19 A3005 RMK FEW250 TCU DST SW BECMG=
201010171900 METAR MROC 171900Z 24008KT 9999 -DZ SCT040 SCT110 24/20 A3002 RMK TCU DST SW BECMG=
201010172000 METAR MROC 172000Z 23009KT 9999 -RA SCT040 SCT200 23/22 A3000 RMK FEW070 RA DST W E NE TCU DST ARND BECMG 6000=
201010172100 METAR MROC 172100Z 23008KT 8000 2000SW -RA BR FEW001 SCT030 BKN100 21/21 A2999 BECMG 6000 -RA BR=
201010172200 METAR MROC 172200Z 25006KT 8000 2000SW -RA BR FEW001 SCT030 BKN100 20/20 A3000 BECMG 6000 -RA BR=
201010172300 METAR MROC 172300Z 00000KT 9999 FEW005 SCT030 BKN100 21/21 A3001 BECMG=
201010180000 METAR MROC 180000Z 00000KT 9999 FEW030 BKN100 20/20 A3003 BECMG=
201010180100 METAR MROC 180100Z 10003KT 9999 FEW030 BKN120 20/20 A3005 BECMG=
201010180200 METAR MROC 180200Z 00000KT 9999 FEW035 BKN120 20/19 A3007 BECMG0=
201010180300 METAR MROC 180300Z 00000KT 9999 FEW040 BKN100 20/20 A3009 BECMG=
201010180400 METAR MROC 180400Z 00000KT CAVOK 20/20 A3010 RMK BKN100 BECMG=
201010180500 METAR MROC 180500Z 00000KT 9999 SCT015 SCT025 20/20 A3008 BECMG=
201010180600 METAR MROC 180600Z 00000KT 9999 FEW010 SCT025 BKN120 20/20 A3006 BECMG=
201010180700 METAR MROC 180700Z 00000KT 9999 FEW010 SCT035 BKN120 20/20 A3003 BECMG=
201010180800 METAR MROC 180800Z 00000KT 9999 FEW035 BKN120 19/19 A3001 BECMG=
201010180900 METAR MROC 180900Z 00000KT CAVOK 19/19 A3001 RMK SCT120 SCT250 BECMG=
201010181000 METAR MROC 181000Z 07003KT 9999 FEW010 BKN020 19/19 A3001 BECMG=
201010181100 METAR MROC 181100Z 00000KT 9999 SCT020 SCT120 19/19 A3003 BECMG=
201010181200 METAR MROC 181200Z 00000KT 9999 SCT020 BKN120 19/19 A3005 BECMG=
201010181300 METAR MROC 181300Z 00000KT 9999 SCT030 BKN120 20/20 A3008 BECMG=
201010181400 METAR MROC 181400Z 00000KT 9999 FEW015 SCT030 BKN120 23/20 A3009 BECMG=
201010181500 METAR MROC 181500Z 27004KT 9999 FEW030 SCT120 BKN250 24/21 A3009 BECMG=
201010181600 METAR MROC 181600Z 28006KT 9999 SCT030 SCT250 25/20 A3008 BECMG=
201010181700 METAR MROC 181700Z 27007KT 9999 SCT030 SCT250 25/21 A3005 BECMG=
201010181800 METAR MROC 181800Z 24008KT 9999 SCT030 SCT120 25/21 A3003 BECMG 8000=
201010181900 METAR MROC 181900Z 24008KT 9999 BKN030 24/22 A3001 BECMG 8000 VCSH=
201010182000 METAR MROC 182000Z 25010KT 9999 BKN030 24/21 A2999 BECMG 8000 VCSH=
201010182100 METAR MROC 182100Z 25007KT 9999 SCT015 BKN030 23/22 A2997 BECMG 7000 -SHRA=
201010182200 METAR MROC 182200Z 25007KT 9999 VCSH FEW010 BKN025 22/22 A2997 RMK VIS 8KM N BECMG 7000 -SHRA=
201010182300 METAR MROC 182300Z 23006KT 9999 -RA FEW009 BKN020 21/21 A2999 RMK VIS 7KM NE BECMG 5000 BR BKN010=
201010190000 METAR MROC 190000Z 24006KT 9999 FEW010 BKN020 21/21 A3001 RMK VIS 8KM N BECMG=
201010190100 METAR MROC 190100Z 25004KT 9999 SCT006 BKN020 21/21 A3003 BECMG=
201010190200 METAR MROC 190200Z 28005KT 9999 SCT009 BKN020 21/21 A3006 BECMG=
201010190300 METAR MROC 190300Z 29004KT 9999 SCT008 BKN020 20/20 A3007 BECMG=
201010190400 METAR MROC 190400Z 30003KT 9999 SCT008 BKN020 21/21 A3007 BECMG=
201010190500 METAR MROC 190500Z 33002KT 9999 SCT008 BKN020 21/21 A3006 BECMG=
201010190600 METAR MROC 190600Z VRB02KT 9999 FEW010 BKN030 20/20 A3004 BECMG=
201010190700 METAR MROC 190700Z 00000KT 9999 FEW015 BKN030 20/20 A3002 BECMG=
201010190800 METAR MROC 190800Z 00000KT 9999 FEW020 BKN110 20/20 A3001 BECMG=
201010190900 METAR MROC 190900Z 00000KT 9999 FEW020 19/19 A3000 BECMG=
201010191000 METAR MROC 191000Z 00000KT 9999 FEW020 SCT090 19/19 A3001 BECMG=
201010191100 METAR MROC 191100Z 00000KT 9999 SCT015 BKN020 19/19 A3003 BECMG=
201010191200 METAR MROC 191200Z 06004KT 9999 SCT010 BKN030 20/20 A3005 BECMG=
201010191300 METAR MROC 191300Z VRB02KT 9999 FEW030 SCT050 BKN070 21/20 A3007 RMK HZ QUAD E/W BECMG=
201010191400 METAR MROC 191400Z 28003KT 9999 FEW006 SCT030 23/20 A3009 RMK SCT080 VIS 8KM SW DUE LOW ST BECMG=
201010191500 METAR MROC 191500Z 26005KT 9000 4400SW BR HZ FEW004 SCT030 22/21 A3010 RMK FEW010 BECMG=
201010191600 METAR MROC 191600Z 27006KT 9000 FEW006 SCT030 23/21 A3009 RMK FEW015 HZY BECMG=
201010191700 METAR MROC 191700Z 26007KT 9999 SCT015 SCT030 24/21 A3008 RMK FEW090 BECMG=
201010191800 METAR MROC 191800Z 26008KT 9999 FEW020 BKN035 24/21 A3005 BECMG=
201010191900 METAR MROC 191900Z 25009KT 9999 SCT020 SCT035 25/21 A3002 BECMG=
201010192000 METAR MROC 192000Z 24008KT 9999 FEW010 FEW020TCU SCT030 25/22 A3000 BECMG=
201010192100 METAR MROC 192100Z 25008KT 9999 FEW010 SCT020CB 24/22 A2999 RMK RN DST NE E BECMG -TSRA=
201010192200 METAR MROC 192200Z 25008KT 9999 FEW006 SCT025 23/22 A3000 BECMG=
201010192300 METAR MROC 192300Z 26005KT 9999 3000SW BR SCT003 SCT025 22/22 A3001 BECMG 2000 -RA BR=
201010192345 METAR MROC 192345Z 30006KT 2000 -RA BR SCT001 OVC004 21/20 A2998 BECMG=
201010200000 METAR MROC 200000Z 28004KT 9999 BR SCT003 SCT250 21/21 A3003 RMK VIS 5000SW BECMG=
201010200100 METAR MROC 200100Z 29004KT 9999 BCFG SCT007 SCT015 21/21 A3005 BCFG S SW BECMG=
201010200200 METAR MROC 200200Z 00000KT 9999 BCFG FEW006 SCT015 21/21 A3007 RMK BCFG S SW=
201010200300 METAR MROC 200300Z 23004KT 9999 BCFG FEW006 SCT015 21/21 A3009 BECMG=
201010200400 METAR MROC 200400Z 00000KT 9999 BCFG FEW004 SCT015 20/20 A3009 BECMG=
201010200500 METAR MROC 200500Z 00000KT 9999 BCFG FEW004 SCT015 20/20 A3008 BECMG=
201010200600 METAR MROC 200600Z 00000KT 9999 BCFG FEW004 SCT015 20/20 A3007 BECMG=
201010200700 METAR MROC 200700Z 00000KT 9999 BCFG FEW004 SCT025 20/20 A3004 BECMG=
201010200800 METAR MROC 200800Z 00000KT 9999 BCFG FEW004 SCT025 19/19 A3003 BECMG=
201010200900 METAR MROC 200900Z 00000KT 9999 2000SW BR FEW001 SCT020 19/19 A3003 BECMG=
201010201000 METAR MROC 201000Z 13003KT 9999 2000SW BR FEW001 SCT020 19/19 A3003 BECMG=
201010201100 METAR MROC 201100Z 11003KT 9999 FEW030 19/19 A3004 BECMG=
201010201200 METAR MROC 201200Z 08005KT CAVOK 19/19 A3004 RMK FEW130 BECMG=
201010201300 METAR MROC 201300Z 00000KT CAVOK 22/19 A3007 BECMG=
201010201400 METAR MROC 201400Z 00000KT CAVOK 25/19 A3008 RMK FEW300 LINEA CUMULOS DESARROLLO S SW BECMG 24006KT=
201010201500 METAR MROC 201500Z 25006KT 9999 FEW035 25/20 A3009 BECMG=
201010201600 METAR MROC 201600Z 25007KT 9999 FEW035 26/21 A3008 BECMG=
201010201700 METAR MROC NIL=
201010201800 METAR MROC 201800Z 25008KT 9999 SCT025TCU 27/21 A3003 BECMG=
201010201900 METAR MROC 201900Z 24010KT 9999 SCT025TCU 27/21 A3000 BECMG=
201010202000 METAR MROC 202000Z 24009KT 9999 SCT030 27/22 A2996 BECMG=
201010202100 METAR MROC 202100Z 24011KT 9999 FEW020TCU SCT040 26/21 A2996 RMK FEW120 BECMG=
201010202200 METAR MROC 202200Z 25011KT 9999 VCSH SCT020TCU SCT070 24/21 A2997 RMK SU N NW BECMG 6000 SHRA=
201010202300 METAR MROC 202300Z 24008KT 9999 VCSH FEW008 FEW015TCU SCT040 22/21 A3000 RMK VIS N NW 8KMS BECMG 7000 -RA=
201010210000 METAR MROC 210000Z 26006KT 9999 VCFG FEW005 SCT010 BKN025 21/21 A3002 RMK LTNG DST N BECMG 5000 -RA BR=
201010210100 METAR MROC 210100Z 25006KT 8000 VCFG FEW005 SCT010 BKN020 21/21 A3006 RMK VIS E SE UNL BECMG 5000 -RA BR=
201010210200 METAR MROC 210200Z 00000KT 9999 -RA VCFG FEW005 SCT010 BKN025 21/21 A3009 RMK VIS N NE 8KMS LTNG DST N NW BECMG=
201010210300 METAR MROC 210300Z 00000KT 9999 4500NW -RA BR FEW009 SCT030 BKN060 21/21 A3010 RMK LTNG DST ARND=
201010210400 METAR MROC 210400Z 00000KT 8000 3500SW -RA BR SCT003 BKN030 20/20 A3011=
201010210500 METAR MROC 210500Z 08004KT 9999 -RA SCT020 OVC050 20/20 A3008 BECMG=
201010210600 METAR MROC 210600Z 00000KT 9999 FEW010 BKN050 20/20 A3007 RMK FEW025 BECMG=
201010210700 METAR MROC 210700Z VRB02KT 9999 BCFG SCT002 BKN015 20/20 A3005 RMK VIS 7KM E/S/SW BECMG=
201010210800 METAR MROC 210800Z 00000KT 9999 BCFG FEW003 SCT050 20/20 A3001 RMK FEW015 FEW100 VIS 6KM SW BECMG=
201010210900 METAR MROC 210900Z VRB02KT 9999 0300SW FG FEW002 SCT020 BKN060 19/19 A3001 BECMG=
201010211000 METAR MROC 211000Z 00000KT 9999 FEW030 BKN060 20/20 A3002 BECMG=
201010211100 METAR MROC 211100Z 04004KT 9999 BCFG BKN060 20/20 A3004 RMK VIS 6KM SW/NW BECMG=
201010211200 METAR MROC 211200Z 17003KT 1800 BR SCT001 BKN070 20/20 A3004 BECMG=
201010211300 METAR MROC 211300Z 05003KT 8000 VCFG BCFG FEW005 BKN120 21/21 A3006 VIS E ESE 4KMS VIS W WNW UNLTD BECMG CAVOK=
201010211400 METAR MROC 211400Z 14002KT CAVOK 22/20 A3007 RMK FEW080 BKN120 HZY BECMG 24006KT=
201010211500 METAR MROC 211500Z VRB03KT CAVOK 24/20 A3008 RMK BKN120 HZY BECMG 24006KT=
201010211600 METAR MROC 211600Z 25009KT 9999 FEW030 BKN120 26/22 A3006 RMK HZY BECMG=
201010211700 METAR MROC 211700Z 24009KT 9999 FEW025TCU 26/21 A3003 RMK FEW120 BECMG=
201010211800 METAR MROC 211800Z 23010KT 9999 VCSH FEW015TCU SCT025 26/22 A3000 RASH E ESE BECMG 5000 SHRA=
201010211900 METAR MROC 211900Z 27008KT 9999 SHRA SCT015TCU BKN025 26/22 A2996 RMK VIS SW UNL BECMG 5000 -TSRA SCT010CB BKN020=
201010212000 METAR MROC 212000Z 24006KT 3000 TSRA SCT008CB BKN020 23/23 A2996 BECMG=
201010212100 METAR MROC 212100Z 00000KT 9999 FEW012 BKN030 21/21 A2994 RETSRA RMK VIS 5KM SW FEW050 BECMG=
201010212200 METAR MROC 212200Z 22005KT 9999 FEW030 SCT040 22/22 A2995 RMK FEW100 VIS 5KM SW TCU SW BECMG 6000=
201010212300 METAR MROC 212300Z 23006KT 4000 2000SW BR FEW001 SCT020 BKN040 21/21 A2997 BECMG 2000 BR=
201010220000 METAR MROC 220000Z 25006KT 1600 0700SW +RA FG SCT001 BKN005 21/21 A3000 BECMG 3000 BR=
201010220100 METAR MROC 220100Z 17005KT 9999 4000SW +DZ BR FEW010 SCT030 BKN070 20/20 A3002 RETSRA BECMG=
201010220200 METAR MROC 220200Z 00000KT 9999 FEW010 SCT035 BKN070 20/20 A3004 REDZ BECMG=
201010220300 METAR MROC 220300Z 07007KT 9999 FEW035 SCT120 20/20 A3005 BECMG=
201010220400 METAR MROC 220400Z 00000KT 9999 BCFG FEW040 SCT100 20/20 A3005 RMK BCFG SSW LTNG SW BECMG 5000BR=
201010220500 METAR MROC 220500Z 13002KT 9999 FEW030 BKN100 20/20 A3005 RMK BCFG S SSW BECMG=
201010220600 METAR MROC 220600Z 00000KT 9999 -DZ FEW030 BKN100 20/20 A3003 BECMG=
201010220700 METAR MROC 220700Z 00000KT 9999 DZ SCT025 BKN100 19/19 A3001 BECMG=
201010220800 METAR MROC 220800Z 03003KT 9999 VCFG FEW002 SCT025 BKN100 19/19 A3000 RMK VIS 6000SW BECMG 8000 VCFG=
201010220900 METAR MROC 220900Z 09004KT 7000 RA SCT025 BKN100 19/19 A3000 BECMG=
201010221000 METAR MROC 221000Z 08008KT 9999 DZ FEW025 BKN100 19/19 A2998 RMK RERA BECMG=
201010221100 METAR MROC 221100Z 00000KT CAVOK 20/19 A3001 RMK BKN120 BECMG=
201010221200 METAR MROC 221200Z 15004KT 9999 SCT030 BKN220 19/18 A3003 RMK RN DST NE E BECMG=
201010221300 METAR MROC 221300Z 00000KT 9999 BKN040 20/19 A3006 RMK FEW220 VIS 6KM SE BECMG=
201010221400 METAR MROC 221400Z 08003KT 9999 FEW040 BKN100 21/20 A3008 RMK FEW080 RA DST NE E S BECMG=
201010221500 METAR MROC 221500Z 14005KT 9999 SCT050 SCT250 24/18 A3009 RMK FEW100 RA DST QUAD E BECMG=
201010221600 METAR MROC 221600Z 12008KT 9999 FEW050 SCT080 24/18 A3009 RMK SCT100 FEW250 RA DST E BECMG 24006KT=
201010221700 METAR MROC 221700Z 15004KT CAVOK 25/18 A3006 RMK SCT080 BKN110 FEW250 TCU DST ARND BECMG 24006KT=
201010221800 METAR MROC 221800Z 16004KT CAVOK 26/18 A3002 RMK FEW080 FEW110 BKN220 TCU DST ARND BECMG 24006KT=
201010221900 METAR MROC 221900Z 21004KT 9999 FEW040 BKN080 26/21 A2999 RMK FEW220 TCU DST ARND DZ DST E BECMG=
201010222000 METAR MROC 222000Z 20004KT 9999 FEW040 SCT080 25/21 A2997 RMK SCT110 FEW220 TCU DST ARND RA DST SE BECMG 5000 -RA=
201010222100 METAR MROC 222100Z 10004KT 9999 FEW040 BKN080 25/16 A2995 BECMG=
201010222200 METAR MROC 222200Z 14005KT 9999 SCT040 BKN080 24/16 A2997 BECMG=
201010222300 METAR MROC 222300Z 13007KT 9999 FEW004 SCT040 BKN080 22/18 A2999 BECMG=
201010230000 METAR MROC 230000Z 22004KT 9999 BCFG FEW004 SCT040 BKN100 21/21 A3001 BECMG 5000 BR=
201010230100 METAR MROC 230100Z 22002KT 9999 2000SW BCFG FEW002 SCT010 BKN100 20/20 A3002 BECMG=
201010230200 METAR MROC 230200Z 00000KT 9999 4000SW BR FEW005 SCT015 BKN120 20/20 A3005 BECMG=
201010230300 METAR MROC 230300Z 00000KT 8000 VCFG FEW005 SCT010 BKN120 20/20 A3007 BECMG=
201010230400 METAR MROC 230400Z 00000KT 9999 VCFG FEW010 SCT040 BKN140 20/20 A3008 RMK VIS SSW 8KMS BECMG=
201010230500 METAR MROC 230500Z 00000KT 9999 FEW040 BKN120 19/19 A3007 BECMG=
201010230600 METAR MROC 230600Z 08002KT CAVOK 19/19 A3005 RMK SCT140 BECMG=
201010230700 METAR MROC 230700Z 00000KT CAVOK 18/18 A3002 SCT140 BECMG=
201010230800 METAR MROC 230800Z 00000KT CAVOK 18/18 A3002 RMK SCT140=
201010230900 METAR MROC 230900Z 06005KT CAVOK 17/17 A3000 RMK SCT140=
201010231000 METAR MROC 231000Z 10004KT CAVOK 17/16 A3001 RMK SCT140=
201010231100 METAR MROC 231100Z 08005KT CAVOK 16/16 A3002 RMK FEW140 SCT250=
201010231200 METAR MROC 231200Z 10005KT CAVOK 17/16 A3003 RMK FEW120 SCT250 CB DST S SW=
201010231300 METAR MROC 231300Z 31003KT CAVOK 20/17 A3005 RMK CB DST S SW FEW120 SCT250 BECMG 24006KT=
201010231400 METAR MROC NIL=
201010231500 METAR MROC 231500Z 25003KT 9999 FEW040 BKN250 23/18 A3007 BECMG=
201010231600 METAR MROC 231600Z 23004KT 9999 FEW040 BKN250 25/19 A3007 BECMG=
201010231700 METAR MROC 231700Z 25010KT 9999 FEW010TCU BKN250 25/21 A3004 BECMG=
201010231800 METAR MROC 231800Z 24008KT 9999 FEW010TCU SCT030 BKN250 24/21 A3003 BECMG 6000 VCSH=
201010231900 METAR MROC 231900Z 24009KT 9999 FEW010TCU SCT030 BKN250 24/21 A2999 RMK RA DST E SE BECMG 6000 VCSH=
201010232000 METAR MROC 232000Z 24010KT 8000 3000SW BR FEW001 SCT030 SCT250 22/22 A2998 RMK RA ARND BECMG 5000 -RA BR=
201010232100 METAR MROC 232100Z 28003KT 6000 2500SW -RA BR FEW003 SCT010 BKN030 20/20 A2998 RMK VIS 3KM N BECMG=
201010232200 METAR MROC 232200Z VRB02KT 9999 -RA FEW003 SCT060 BKN100 21/21 A2998 RMK FEW020 VIS 6KM SW DUE LOW ST BECMG=
201010232300 METAR MROC 232300Z 00000KT 9999 -RA FEW001 BKN070 21/21 A2999 RMK FEW015 VIS 5KM SW DUE LOW ST BECMG=
201010240000 METAR MROC 240000Z VRB02KT 9999 4000W BR FEW001 SCT045 BKN100 20/20 A3001 RMK FEW015 VIS 5KM SW BECMG=
201010240100 METAR MROC 240100Z 00000KT 9999 FEW009 SCT020 BKN070 20/20 A3004 RMK VIS 7KM SW DUE LOW ST BECMG=
201010240200 METAR MROC 240200Z VRB02KT 9999 FEW015 BKN070 20/20 A3006 RMK FEW045 BECMG=
201010240300 METAR MROC 240300Z 16003KT 9999 4000SW DZ BR FEW015 BKN070 20/20 A3008 BECMG 5000=
201010240400 METAR MROC 240400Z 08004KT 9999 5000SW BR FEW015 BKN070 19/19 A3007 REDZ BECMG=
201010240500 METAR MROC 240500Z 05004KT 9999 5000SW -RA BR FEW020 BKN090 20/19 A3006 BECMG=
201010240600 METAR MROC 240600Z 00000KT 9999 FEW001 BKN090 19/19 A3004 RMK VIS 7KM SE BR LW ST SW BECMG=
201010240700 METAR MROC 240700Z 00000KT 9999 FEW001 BKN090 19/19 A3001 RMK LW ST W SW BECMG=
201010240800 METAR MROC 240800Z 00000KT 2000 0800SW FG SCT001 SCT005 19/19 A3001 RMK FEW090 BECMG 1000=
201010240900 METAR MROC 240900Z 00000KT 5000 2000W BR SCT001 BKN110 19/19 A3000 BECMG 2000=
201010241000 METAR MROC 241000Z 00000KT 9999 4000SW BR FEW001 BKN025 19/19 A3000 RMK VIS 5KM SE BR BECMG 4000=
201010241100 METAR MROC 241100Z 00000KT 9999 5000SW BR FEW001 BKN025 19/19 A3002 RMK VIS 5KM SE BR BECMG 4000=
201010241200 METAR MROC 241200Z 00000KT 9999 FEW001 BKN120 19/19 A3003 RMK FEW040 BECMG=
201010241300 METAR MROC 241300Z 10004KT CAVOK 22/20 A3004 RMK BKN250=
201010241400 METAR MROC 241400Z VRB02KT CAVOK 24/19 A3003 RMK BKN250 BECMG 24006KT=
201010241500 METAR MROC 241500Z 23007KT 9999 FEW045 BKN250 26/22 A3004 RMK FEW140 BECMG=
201010241600 METAR MROC 241600Z 22010KT 9999 SCT045 26/22 A3004 RMK FEW120 FEW250 TCU DST S/N BECMG=
201010241700 METAR MROC 241700Z 23009KT 9999 FEW025TCU FEW040 SCT200 25/20 A3002 RMK TCU DST S/NE BECMG=
201010241800 METAR MROC 241800Z 23009KT 9999 VCSH FEW020TCU SCT030 26/23 A2999 RMK FEW100 BECMG -SHRA=
201010241900 METAR MROC 241900Z 22010KT 9999 4500NE SHRA FEW015 SCT020TCU BKN080 24/23 A2996 RMK FEW040 BECMG 5000 -TSRA BKN030=
201010242000 METAR MROC 242000Z 12003KT 3500 1500SW -TSRA BR FEW001 SCT015CB BKN040 21/21 A2996 RETS RMK VIS 8KM NE BECMG 5000 -RA BR=
201010242100 METAR MROC 242100Z 00000KT 9999 4000SW RA BR FEW003 SCT015TCU BKN090 21/21 A2994 BECMG 4000 RA BR=
201010242200 METAR MROC 242200Z 27005KT 9999 4000SW BR FEW003 SCT015TCU BKN080 21/21 A2995 BECMG=
201010242300 METAR MROC 242300Z 26003KT 7000 -RA BR SCT003 BKN012 21/21 A2997 RMK VIS 5000SW BECMG 3000 RA BR=
201010250000 METAR MROC 250000Z 22004KT 2000 DZ BR OVC003 20/20 A2999 BECMG 0500 DZ FG VV///=
201010250100 METAR MROC 250100Z 18002KT 2000 TSRA BR FEW005 SCT015CB BKN090 20/20 A3001 RMK BECMG 5000 -RA BR=
201010250200 METAR MROC 250200Z 00000KT 7000 RA BR SCT010 BKN090 20/20 A3003 RMK VIS 3000SW BECMG=
201010250300 METAR MROC 250300Z 00000KT 8000 3000SW BR FEW001 SCT030 OVC100 20/20 A3005 BECMG 5000 -RA BR=
201010250400 METAR MROC 250400Z 00000KT 9999 BCFG FEW005 SCT030 BKN100 20/20 A3004 BECMG=
201010250500 METAR MROC 250500Z 00000KT 9999 FEW030 SCT100 19/19 A3003 BECMG=
201010250600 METAR MROC 250600Z 00000KT CAVOK 19/19 A3000 RMK FEW120 SCT250 BECMG=
201010250700 METAR MROC 250700Z 00000KT CAVOK 19/19 A3000 RMK FEW120 SCT250 BECMG=
201010250800 METAR MROC 250800Z 00000KT CAVOK 19/19 A2996 RMK FEW120 SCT250 BECMG=
201010250900 METAR MROC 250900Z 10004KT 9999 FEW030 SCT250 18/18 A2997 BECMG=
201010251000 METAR MROC 251000Z 00000KT 9999 FEW030 SCT250 18/18 A2997 BECMG=
201010251100 METAR MROC 251100Z 09005KT CAVOK 18/18 A2998 RMK SCT250 BECMG=
201010251200 METAR MROC 251200Z 09005KT CAVOK 18/18 A2999 RMK SCT250 CB DST S BECMG=
201010251300 METAR MROC 251300Z 11003KT CAVOK 21/19 A3001 RMK SCT250 CB DST S SW W BECMG 24006KT=
201010251400 METAR MROC 251400Z 00000KT CAVOK 24/19 A3001 RMK SCT250 BECMG 24006KT=
201010251500 METAR MROC 251500Z 00000KT 9999 FEW030 SCT250 25/19 A3001 BECMG 24006KT=
201010251600 METAR MROC 251600Z 23008KT 9999 SCT035 26/22 A3000 BECMG=
201010251700 METAR MROC 251700Z 25010KT 9999 FEW020 SCT030 26/22 A2999 BECMG=
201010251800 METAR MROC 251800Z 25010KT 9999 FEW020TCU BKN030 25/22 A2996 RMK RN DST N NE BECMG=
201010251900 METAR MROC 251900Z 26009KT 9999 FEW020CB SCT030 BKN100 25/22 A2994 RMK RN DST N/NE BECMG 5000 TSRA=
201010252000 METAR MROC 252000Z 25009KT 8000 VCSH FEW010CB SCT020 BKN100 25/22 A2992 RMK RN DST N/NE BECMG 4000 TSRA=
201010252100 METAR MROC 252100Z 25009KT 5000 RA VCTS SCT012CB BKN025 22/22 A2991 RMK VIS N NE 3KMS VIS S UNLTD BECMG 2000 TSRA=
201010252200 METAR MROC 252200Z 27009KT 7000 RA BCFG FEW003 SCT020 BKN100 21/21 A2992 VIS S SW N 4KMS BECMG 5000 -RA BR=
201010252300 METAR MROC 252300Z 26004KT 5000 2000SW -RADZ BR FEW002 SCT006 NKN020 21/21 A2995 RMK LOW ST OVER APCH RNY/07 BECMG 2000 RA BR=
201010260000 METAR MROC 260000Z 34003KT 9999 DZ VCFG FEW010 SCT020 BKN100 20/20 A2996 RMK VIS NE ENE E 8KMS BECMG=
201010260100 METAR MROC 260100Z 00000KT 9999 FEW010 SCT025 BKN100 20/20 A2999 BECMG=
201010260200 METAR MROC 260200Z 00000KT 9999 FEW030 BKN100 20/20 A3001 BECMG=
201010260300 METAR MROC 260300Z 00000KT 9999 FEW040 SCT060 20/20 A3002 BECMG=
201010260400 METAR MROC 260400Z 00000KT 9999 FEW035 BKN060 20/20 A3002 BECMG=
201010260500 METAR MROC 260500Z 00000KT 9999 FEW040 BKN060 20/20 A3001 BECMG=
201010260600 METAR MROC NIL=
201010260700 METAR MROC 260700Z 00000KT 9000 1800SW BR SCT001 BKN006 20/20 A2998 BECMG 9999 BKN070=
201010260800 METAR MROC 260800Z VRB02KT 9000 1500SW BR SCT010 SCT050 19/19 A2995 BECMG=
201010260900 METAR MROC 260900Z VRB02KT 9999 FEW040 SCT250 18/18 A2995 BECMG=
201010261000 METAR MROC 261000Z 06003KT 9999 FEW040 SCT250 18/18 A2995 BECMG=
201010261100 METAR MROC 261100Z 11004KT 9999 VCFG SCT300 18/18 A2996 RMK VIS 8KM S BECMG=
201010261200 METAR MROC 261200Z 09004KT CAVOK 18/18 A2998 RMK SCT300 HZ QUAD W CB DST SE/S/SW BECMG=
201010261300 METAR MROC 261300Z 12003KT CAVOK 20/18 A3000 RMK SCT300 CB DST S SW BECMG=
201010261400 METAR MROC 261400Z 00000KT CAVOK 24/20 A3001 RMK SCT300 CB DST S BECMG 24005KT=
201010261500 METAR MROC 261500Z 25004KT CAVOK 25/20 A3002 RMK SCT300 CB LINE DIST S SSW SW BECMG=
201010261600 METAR MROC 261600Z 24009KT 9999 FEW035 26/20 A3003 RMK CB DST SSW HZY BECMG=
201010261700 METAR MROC 261700Z 25009KT 9999 SCT035 25/22 A3001 BECMG=
201010261800 METAR MROC NIL=
201010261900 METAR MROC 261900Z 23009KT 9999 VCSH FEW017CB SCT025 BKN035 25/22 A2997 RAS SW N NW BECMG 5000 SHRA=
201010262000 METAR MROC 262000Z 22013KT 9999 -RA VCSH FEW015CB SCT030 BKN040 22/22 A2995 VIS SW NW 8KMS BECMG 5000 SHRA=
201010262100 METAR MROC 262100Z 22006KT 8000 4000SW -RA BR VCSH FEW001 SCT030 BKN080 21/20 A2997 RERA RMK VIS S UNL BECMG 6000=
201010262200 METAR MROC 262200Z 02007KT 9999 -RA VCFG FEW004 BKN080 21/20 A2995 RMK RA DST SE NW LW ST SW BECMG=
201010262300 METAR MROC 262300Z 16003KT 9999 FEW015 SCT080 BKN250 21/20 A2996 RMK RA DST NW TCU DST NE BECMG=
201010270000 METAR MROC 270000Z 09002KT CAVOK 20/20 A2998 RMK SCT090 SCT250 BECMG=
201010270100 METAR MROC 270100Z 06003KT CAVOK 20/20 A2999 RMK LW ST SE SCT090 SCT250 BECMG=
201010270200 METAR MROC NIL=
201010270300 METAR MROC NIL=
201010270400 METAR MROC NIL=
201010270500 METAR MROC NIL=
201010270600 METAR MROC NIL=
201010270700 METAR MROC NIL=
201010270800 METAR MROC NIL=
201010270900 METAR MROC NIL=
201010271000 METAR MROC NIL=
201010271100 METAR MROC NIL=
201010271200 METAR MROC NIL=
201010271300 METAR MROC NIL=
201010271400 METAR MROC NIL=
201010271500 METAR MROC 271500Z 26002KT CAVOK 24/19 A3007 RMK ST DST SW TCU DST E SW BKN250 BECMG=
201010271600 METAR MROC 271600Z 24005KT CAVOK 25/20 A3007 RMK TCU DST ARND BKN250 BECMG=
201010271700 METAR MROC 271700Z 25007KT 9999 FEW035 BKN250 26/21 A3005 RMK TCU DST ARND BECMG=
201010271800 METAR MROC 271800Z 26010KT 9999 BKN035 SCT250 26/23 A3003 RMK RA DST NW NE E TCU DST ARND BECMG=
201010271900 METAR MROC 271900Z 25010KT 9999 FEW012TCU SCT018 SCT250 25/22 A3000 RMK RA DST W E BECMG 8000 VCSH=
201010272000 METAR MROC 272000Z 232009KT 9999 FEW012TCU SCT022 24/23 A2997 RMK FEW080 FEW250 RA DST NW S E SW BECMG 8000 VCSH=
201010272100 METAR MROC 272100Z 24007KT 9999 FEW010TCU BKN030 23/22 A2997 BECMG=
201010272200 METAR MROC 272200Z 26006KT 9999 3000W BR FEW001 SCT010 BKN030 22/22 A2999 BECMG 6000 -RA BR=
201010272300 METAR MROC 272300Z 26005KT 8000 3000SW BR FEW001 SCT010 BKN030 21/21 A3001 BECMG 6000 -RA BR=
201010280000 METAR MROC 280000Z 00000KT 8000 3000SW BR FEW001 SCT030 BKN250 21/21 A3002 BECMG=
201010280100 METAR MROC 280100Z 00000KT 9999 3000SW BR FEW001 SCT030 BKN250 21/21 A3004 BECMG=
201010280200 METAR MROC 280200Z 00000KT 9999 3000SW BR FEW001 SCT030 BKN250 21/21 A3006 BECMG=
201010280300 METAR MROC 280300Z 00000KT 9999 VCFG FEW005 SCT010 BKN020 21/21 A3006 VIS S SW W 8KMS BECMG=
201010280400 METAR MROC 280400Z 00000KT 9999 VCFG FEW020 SCT250 21/21 A3005 RMK VIS S SW W 8KMS BECMG=
201010280500 METAR MROC 280500Z 00000KT 2500 0500SE BR FG SCT001 BKN005 20/20 A3006 RMK VIS N E UNLTD BECMG 0500 FG VV///=
201010280600 METAR MROC 280600Z 00000KT 9999 4000SW BCFG FEW010 SCT300 20/20 A3004 DISPERSA NIEBLA AL S SW WSW BECMG 05003KT CAVOK=
201010280700 METAR MROC 280700Z 06007KT 9999 FEW030 SCT250 20/20 A3001 BECMG=
201010280800 METAR MROC 280800Z 05004KT 9999 FEW035 SCT300 20/19 A3000 BECMG=
201010280900 METAR MROC 280900Z 00000KT CAVOK 20/19 A2999 RMK SCT300 BECMG=
201010281000 METAR MROC 281000Z 04004KT CAVOK 20/18 A2999 RMK SCT300 BECMG=
201010281100 METAR MROC 281100Z 00000KT CAVOK 19/17 A2999 RMK SCT300 BECMG=
201010281200 METAR MROC 281200Z 06002KT CAVOK 19/17 A2999 RMK BKN250 CB DST S SE BECMG=
201010281300 METAR MROC 281300Z 13007KT CAVOK 22/18 A3002 RMK BKN250 CB DST S SE BECMG=
201010281400 METAR MROC 281400Z 13008KT CAVOK 25/18 A3003 RMK BKN250 CB DST S SE BECMG 24007KT=
201010281500 METAR MROC 281500Z 13009KT 9999 FEW040 BKN250 27/17 A3005 RMK CB DST S BECMG 24007KT=
201010281600 METAR MROC 281600Z 09004KT 9999 FEW040 BKN250 27/18 A3004 RMK CB DST S BECMG=
201010281700 METAR MROC 281700Z 13006KT 9999 SCT040 SCT250 27/19 A3002 BECMG 24005KT=
201010281800 METAR MROC 281800Z 07010KT 9999 SCT040 SCT250 28/18 A2999 BECMG 24005KT=
201010281900 METAR MROC 281900Z 25008KT 9999 FEW020 BKN040 25/22 A2996 BECMG=
201010282000 METAR MROC 282000Z 19007KT 9999 FEW020 BKN040 25/22 A2994 BECMG=
201010282100 METAR MROC 282100Z 24006KT 9999 FEW030 BKN040 23/22 A2994 RMK DZ N NE BECMG -DZ=
201010282200 METAR MROC 282200Z 25004KT 9999 FEW015 BKN030 23/23 A2994 RMK PCPN DST NE BECMG=
201010282300 METAR MROC 282300Z 24004KT 9999 SCT025 BKN250 22/22 A2995 RMK PCPN DST N NE BECMG=
201010290000 METAR MROC 290000Z 17003KT 9999 SCT025 SCT250 21/21 A2997 RMK TS DST S BECMG=
201010290100 METAR MROC 290100Z 13004KT 9999 FEW025 22/19 A2999 RMK TS DST S BECMG=
201010290200 METAR MROC 290200Z 00000KT 9999 FEW025 21/20 A3001 BECMG=
201010290300 METAR MROC 290300Z 13005KT 9999 FEW025 SCT110 22/18 A3001 RMK TS DST S BECMG=
201010290400 METAR MROC 290400Z VRB02KT 9999 FEW010 SCT110 21/18 A3002 RMK TS DST S BECMG=
201010290500 METAR MROC 290500Z 11004KT 9999 FEW010 SCT110 21/18 A3000 RMK TS DST S BECMG=
201010290600 METAR MROC 290600Z 13005KT 9999 FEW010 SCT110 21/18 A2999 RMK TS DST S BECMG=
201010290700 METAR MROC 290700Z 06006KT 9999 FEW010 SCT110 20/18 A2998 RMK TS DST SW BECMG=
201010290800 METAR MROC 290800Z 05004KT 9999 FEW010 SCT110 19/18 A2998 RMK TS DST SW BECMG=
201010290900 METAR MROC 290900Z 11004KT 9999 FEW010 SCT110 19/17 A2997 BECMG=
201010291000 METAR MROC 291000Z 05006KT CAVOK 18/16 A2997 RMK SCT110 BECMG=
201010291100 METAR MROC 291100Z 06005KT CAVOK 17/16 A2998 RMK SCT110 BECMG=
201010291200 METAR MROC 291200Z 08007KT CAVOK 18/16 A2998 RMK FEW110 BKN250 TCU DST NE BECMG=
201010291300 METAR MROC 291300Z 07004KT CAVOK 22/18 A3000 RMK BKN250 BECMG=
201010291400 METAR MROC 291400Z 00000KT CAVOK 24/18 A3002 RMK BKN250 BECMG 09008KT=
201010291500 METAR MROC 291500Z VRB06KT 9999 FEW030 BKN250 26/17 A3004 BECMG=
201010291600 METAR MROC 291600Z 25007KT 9999 FEW030 BKN250 25/20 A3005 BECMG=
201010291700 METAR MROC 291700Z 24005KT 9999 SCT030 BKN250 26/20 A3002 BECMG=
201010291800 METAR MROC 291800Z 28008KT 9999 SCT020TCU SCT250 26/21 A2999 BECMG=
201010291900 METAR MROC 291900Z 23005KT 9999 SCT015TCU BKN250 27/21 A2995 BECMG 8000 VCSH=
201010292000 METAR MROC 292000Z 28008KT 9999 -TSRA FEW010CB SCT020 BKN100 22/22 A2993 RMK VIS NW 5000 BECMG=
201010292100 METAR MROC 292100Z 33002KT 9999 -TS DZ BR FEW015CB SCT020 BKN090 21/21 A2992 RMK VIS 5000SW BCFG SSW BECMG 4000 -RA BR=
201010292200 METAR MROC 292200Z 23004KT 9999 VCFG FEW015 OVC090 21/21 A2995 RETS RMK VIS 8000SW BCFG SW W BECMG=
201010292300 METAR MROC 292300Z 32003KT 9999 VCFG SCT025 BKN090 21/21 A2998 RMK VIS 8000SW LTNG S BECMG=
201010300000 METAR MROC 300000Z 00000KT CAVOK 21/21 A2998 RMK SCT100 BKN250 BECMG=
201010300100 METAR MROC 300100Z 00000KT 9999 FEW035 BKN250 21/19 A3000 BECMG=
201010300200 METAR MROC 300200Z 09003KT CAVOK 21/18 A3003 RMK BKN250 BECMG=
201010300300 METAR MROC NIL=
201010300400 METAR MROC 300400Z 09005KT CAVOK 21/19 A3005 RMK BKN250 LTNG DST S BECMG=
201010300500 METAR MROC 300500Z 04006KT CAVOK 20/19 A3004 RMK BKN250 BECMG=
201010300600 METAR MROC 300600Z 03005KT CAVOK 20/18 A3001 RMK BKN250 LTNG DST S BECMG=
201010300700 METAR MROC 300700Z 06003KT CAVOK 20/18 A2997 RMK BKN250 BECMG=
201010300800 METAR MROC 300800Z 10004KT CAVOK 21/18 A2996 RMK BKN250 BECMG=
201010300900 METAR MROC 300900Z VRB02KT CAVOK 19/18 A2997 RMK BKN250 BECMG=
201010301000 METAR MROC 301000Z 05006KT CAVOK 18/17 A2998 RMK BKN250 BECMG=
201010301100 METAR MROC 301100Z 10005KT CAVOK 20/17 A2999 RMK BKN250 BECMG=
201010301200 METAR MROC 301200Z 09009KT 9999 FEW040 BKN250 20/18 A3001 BECMG=
201010301230 METAR MROC 301230Z 22003KT CAVOK 23/22 A2990 RMK SCT070 SCT090 CB RN DST NW N NE E CB DST S W=
201010301300 METAR MROC 301300Z 00000KT 9999 FEW040 BKN250 22/19 A3002 BECMG=
201010301400 METAR MROC NIL=
201010301500 METAR MROC 301500Z 11010KT 9999 FEW045 SCT250 25/19 A3004 BECMG=
201010301600 METAR MROC 301600Z 13010KT 9999 BKN030 25/19 A3003 BECMG=
201010301700 METAR MROC 301700Z 13011KT 9999 FEW030 SCT100 25/20 A3002 RMK FEW250 RN DST S E BECMG 24006KT=
201010301800 METAR MROC 301800Z 12011KT 9999 SCT030 27/19 A2997 RMK FEW100 FEW250 RN DST NE N BECMG=
201010301900 METAR MROC 301900Z 32009KT 9999 BKN030 25/20 A2995 RMK RN DST N NE BECMG 7000 RA=
201010302000 METAR MROC 302000Z 24006KT 9999 FEW015TCU BKN030 25/22 A2994 RMK RN DST SW E NE BECMG -RA=
201010302100 METAR MROC 302100Z 24009KT 9999 -RA FEW020TCU BKN030 23/22 A2993 BECMG 6000 SHRA=
201010302200 METAR MROC 302200Z 25004KT 7000 -RA FEW005 SCT015 BKN100 21/21 A2994 RMK VIS N NE 4KMS BECMG 5000 -RA BR=
201010302300 METAR MROC 302300Z 26005KT 5000 2000N -DZ BR SCT003 BKN010 21/21 A2996 BECMG 2000 BR SCT002 BKN006=
201010310000 METAR MROC 310000Z 00000KT 9999 VCFG FEW005 SCT010 BKN030 21/21 A2998 RMK VIS S SW NE 8KMS BECMG=
201010310100 METAR MROC 310100Z 00000KT 9999 VCFG FEW005 SCT020 BKN120 21/21 A3000 BECMG=
201010310200 METAR MROC 310200Z 11002KT CAVOK 19/18 A2997 RMK FEW250 BECMG=
201010310300 METAR MROC 310300Z 00000KT 9999 FEW005 SCT100 20/20 A3003 BECMG=
201010310400 METAR MROC 310400Z 08004KT 9999 FEW030 20/20 A3003 BECMG=
201010310500 METAR MROC 310500Z 00000KT 9999 FEW003 19/19 A3003 BECMG=
201010310600 METAR MROC 310600Z 07005KT CAVOK 19/19 A3000 BECMG=
201010310700 METAR MROC 310700Z 11002KT CAVOK 19/18 A2998 FEW250 BECMG=
201010310800 METAR MROC NIL=
201010310900 METAR MROC 310900Z 06004KT CAVOK 19/18 A2997 RMO EW250 BECMG=
201010311000 METAR MROC 311000Z 09005KT CAVOK 18/18 A2998 RMK SCT250 BECMG=
201010311100 METAR MROC NIL=
201010311200 METAR MROC 311200Z 09003KT CAVOK 20/18 A3000 RMK SCT250 BECMG=
201010311300 METAR MROC 311300Z 07005KT CAVOK 22/18 A3004 RMK FEW250 BECMG=
201010311400 METAR MROC 311400Z 13007KT 9999 FEW035 SCT120 24/19 A3005 BECMG=
201010311500 METAR MROC 311500Z 10006KT 9999 FEW035 SCT100 26/19 A3005 RMK FEW250 PCPN DST NE BECMG=
201010311600 METAR MROC 311600Z 15004KT 9999 FEW035 SCT100 26/19 A3004 BECMG 24006KT=
201010311700 METAR MROC 311700Z 24006KT 9999 SCT035 SCT100 26/20 A3002 BECMG=
201010311800 METAR MROC 311800Z 28006KT 9999 VCSH FEW020TCU SCT035 26/21 A2999 PCPN N NE E BECMG 5000 SHRA=
201010311900 METAR MROC 311900Z 24005KT 9999 -RA FEW015CB BKN025 23/20 A2997 BECMG 5000 TSRA=
201010312000 METAR MROC 312000Z 21007KT 9999 VCSH FEW010 FEW020TCU BKN120 21/21 A2995 RMK FEW250 RASH SW W NW BECMG=
201010312100 METAR MROC 312100Z 25005KT 9999 4000W BR VCSH FEW020 BKN080 22/22 A2995 RMK FEW250 RA DST S BECMG 6000=
201010312200 METAR MROC 312200Z 26006KT 5000 RA BR FEW005 BKN050 22/22 A2997 RMK FEW250 VIS S UNL BECMG=
201010312300 METAR MROC 312300Z VRB02KT 8000 4000SE BR VCFG FEW012 BKN045 22/21 A2999 RERA RMK RA DST W BECMG=
201011010000 METAR MROC 010000Z 00000KT 9999 5000SE BR FEW012 BKN040 22/21 A3002 RMK LW ST SW BECMG 5000=
201011010100 METAR MROC 010100Z 25003KT 9999 5000SW BR FEW001 SCT020 BKN040 21/21 A3005 RMK LW ST SE BECMG=
201011010200 METAR MROC 010200Z 00000KT 7000 -DZ BR BKN005 21/21 A3008 RMK VIS 5000 SW W BECMG 2000 BR=
201011010300 METAR MROC 010300Z 00000KT 9999 BR BCFG FEW003 BKN008 21/21 A3008 RMK VIS 5000 SW W BECMG=
201011010400 METAR MROC 010400Z 00000KT 5000 -DZ BR FEW003 BKN008 21/21 A3009 RMK VIS 7000N BECMG 4000 -RA=
201011010500 METAR MROC 010500Z 00000KT 3000 BR SCT001 SCT008 21/21 A3007 RMK VIS 7000N BECMG=
201011010600 METAR MROC 010600Z 00000KT 6000 0800SW -DZ FG R07/0300 SCT001 SCT006 20/20 A3005 RMK VIS 9999 N BECMG 3000 -RA=
201011010700 METAR MROC 010700Z 00000KT 7000 DZ BR FEW003 BKN007 20/20 A3003 RMK VIS 4000SW 9999N BECMG=
201011010800 METAR MROC 010800Z 00000KT 1200 BR R07/0500 FEW002 BKN005 20/20 A3001 RMK VIS 7000 N BECMG 6000=
201011010900 METAR MROC 010900Z 00000KT 9999 3000SW BR FEW002 SCT120 20/20 A3001 RMK LTNG DST S BECMG=
201011011000 METAR MROC 011000Z 27004KT 9999 4000SW BR BCFG FEW002 BKN120 20/20 A3001 RMK BECMG 2000 BR=
201011011100 METAR MROC 011100Z 00000KT 9999 4000SW BR FEW002 SCT030 BKN120 20/20 A3004 RMK BECMG 9999=
201011011200 METAR MROC 011200Z 00000KT 0400 FG R07/0100 SCT001 BKN120 20/20 A3007 RMK VIS 9999 E BECMG 5000BR=
201011011300 METAR MROC 011300Z 05005KT 9999 FEW001 BKN120 20/20 A3009 RMK VIS 6KM SW BR FEW250 BECMG=
201011011400 METAR MROC 011400Z 24005KT 9999 FEW001 SCT120 24/22 A3010 RMK SCT250 CB DST SW LW ST SW BECMG=
201011011500 METAR MROC 011500Z 25006KT 9999 FEW025 BKN250 24/21 A3011 RMK TCU DST NE E SW BECMG=
201011011600 METAR MROC 011600Z 24008KT 9999 FEW025 BKN250 26/21 A3009 RMK TCU DST ARND BECMG=
201011011700 METAR MROC 011700Z 24009KT 9999 BKN030 SCT250 26/22 A3008 RMK PCPTN DST NE E TCU DST ARND BECMG=
201011011800 METAR MROC 011800Z 25004KT 9999 RA SCT012TCU SCT035 25/23 A3005 RMK FEW250 RA DST NE E S W BECMG 5000=
201011011900 METAR MROC 011900Z 25007KT 9999 -RA FEW010 BKN040 23/22 A3003 RERA RMK FEW200 RA DST NE E W BECMG=
201011012000 METAR MROC 012000Z 22004KT 9999 VCSH FEW020 SCT080 BKN200 24/22 A3001 RMK RA SW E NE VIS 6KM SE BECMG=
201011012100 METAR MROC 012100Z 26007KT 9999 3000SW BR FEW001 SCRT010 BKN030 22/22 A3000 BECMG=
201011012200 METAR MROC NIL=
201011012300 METAR MROC 012300Z 27006KT 8000 3000SW -RA BR FEW001 SCT010 BKN030 21/21 A3005 BECMG 6000 -RA BR=
201011020000 METAR MROC 020000Z VRB02KT 6000 2000SW RABR FEW001 SCT010 BKN030 21/21 A3007 BECMG=
201011020100 METAR MROC 020100Z 09004KT 6000 2000SW RA BR FEW001 SCT010 BKN030 21/21 A3009 BECMG=
201011020200 METAR MROC 020200Z 03002KT 9999 RA FEW010 SCT030 BKN100 21/21 A3010 BECMG=
201011020300 METAR MROC 020300Z 26003KT 9999 -DZ BCFG OVC100 20/20 A3008 RMK VIS S SW 5KMS BECMG 5000 BR=
201011020400 METAR MROC 020400Z 26004KT 0500 FG VV/// 20/20 A3019 BECMG=
201011020500 METAR MROC 020500Z 00000KT 9999 BCFG FEW004 SCT020 BKN120 20/20 A3008 VIS SW W 7KMS BECMG=
201011020600 METAR MROC 020600Z 00000KT 9999 3000SW BCFG SCT002 BKN120 20/20 A3005 BECMG 2000 BR=
201011020700 METAR MROC 020700Z 00000KT 9999 FEW010 BKN020 20/20 A3003 BECMG=
201011020800 METAR MROC 020800Z 00000KT 9999 FEW025 SCT120 BKN250 19/19 A3002 BECMG=
201011020900 METAR MROC 020900Z 00000KT 9999 FEW025 BKN120 19/19 A3001 BECMG=
201011021000 METAR MROC 021000Z 00000KT 9999 FEW025 BKN120 19/19 A3001 BECMG=
201011021100 METAR MROC 021100Z 10003KT CAVOK 19/19 A3003 RMK BKN120 BECMG=
201011021200 METAR MROC 021200Z 06003KT CAVOK 19/19 A3005 RMK SCT060 BKN100 HZY BECMG=
201011021300 METAR MROC 021300Z 27003KT 9999 4000SW BR FEW001 BKN100 21/20 A3008 BECMG=
201011021400 METAR MROC 021400Z 00000KT 8000 3000SW BR FEW001 SCT020 BKN100 21/21 A3009 BECMG=
201011021500 METAR MROC 021500Z 23004KT 8000 3000SW BR FEW001 SCT020 BKN100 22/22 A3009 BECMG=
201011021600 METAR MROC 021600Z 21005KT 8000 3000SW BR FEW001 SCT020 BKN100 21/21 A3008 BECMG=
201011021700 METAR MROC 021700Z 23006KT 9999 BCFG FEW005 SCT020 BKN100 22/21 A3005 BECMG=
201011021800 METAR MROC 021800Z 25006KT 9999 BCFG FEW005 SCT020 BKN100 22/22 A3002 BECMG=
201011021900 METAR MROC 021900Z 24009KT 4000 -DZ BR FEW001 SCT010 BKN080 21/21 A2999 BECMG 2000 -RA BR BKN030=
201011022000 METAR MROC 022000Z 24009KT 2000 R07/0800 FEW001 SCT010 BKN030 21/21 A2997 BECMG=
201011022100 METAR MROC 022100Z 26010KT 1000 -DZ BR FEW001 SCT008 BKN015 20/20 A2996 BECMG 1500=
201011022200 METAR MROC 022200Z 26007KT 1200 -RA BR FEW001 SCT006 BKN015 20/20 A2997=
201011022300 METAR MROC 022300Z 26006KT 1200 RA BR FEW001 SCT007 BKN015 20/20 A2997 BECMG=
201011030000 METAR MROC 030000Z 25007KT 1200 RA BR FEW002 SCT007 BKN015 20/20 A3000 BECMG=
201011030100 METAR MROC 030100Z 24005KT 1500 RA BR FEW002 SCT010 OVC100 20/20 A3002 BECMG=
201011030200 METAR MROC 030200Z 00000KT 1200 DZ BR FEW001 SCT010 OVC100 20/20 A3004 BECMG=
201011030300 METAR MROC 030300Z 26004KT 1200 0800SW DZ FG SCT001 BKN003 20/20 A3005 BECMG=
201011030400 METAR MROC 030400Z 27004KT 0800 -DZ FG SCT001 BKN003 20/20 A3004 REDZ BECMG=
201011030500 METAR MROC 030500Z 27004KT 4000 2000SW RA BR FEW001 SCT005 BKN010 20/20 A3003 BECMG=
201011030600 METAR MROC 030600Z 32005KT 3000 RA BR FEW001 BKN015 20/20 A3001 BECMG=
201011030700 METAR MROC 030700Z 35003KT 3000 RA BR FEW001 BKN015 19/19 A2998 BECMG=
201011030800 METAR MROC 030800Z 33003KT 3000 RA BR FEW001 BKN015 19/19 A2996 BECMG=
201011030900 METAR MROC 030900Z 29004KT 5000 RA BR FEW001 SCT005 BKN010 19/19 A2996 BECMG=
201011031000 METAR MROC 031000Z 32003KT 5000 RA BR FEW001 SCT005 BKN015 19/19 A2996 BECMG=
201011031100 METAR MROC 031100Z 00000KT 4000 2000SW RA BR FEW001 SCT005 BKN015 19/19 A2998 BECMG=
201011031200 METAR MROC 031200Z 27004KT 2000 RA BR FEW001 SCT005 BKN010 20/20 A3000 BECMG=
201011031300 METAR MROC 031300Z 00000KT 1200 -RA BR FEW001 SCT005 BKN012 20/20 A3002=
201011031400 METAR MROC 031400Z 00000KT 1500 -RA BR FEW002 SCT012 OVC100 20/20 A3003=
201011031500 METAR MROC 031500Z 00000KT 5000 BR FEW003 SCT015 OVC100 20/20 A3003 BECMG=
201011031600 METAR MROC 031600Z 29003KT 5000 -RA BR FEW004 SCT015 OVC100 21/21 A3003=
201011031700 METAR MROC 031700Z 24006KT 6000 BCFG FEW005 SCT015 OVC100 23/22 A3000 BECMG=
201011031800 METAR MROC 031800Z 26007KT 9999 BCFG FEW006 SCT015 BKN100 23/22 A2997 RMK VIS N 5000 BECMG=
201011031900 METAR MROC 031900Z 26009KT 2000 DZ BR FEW002 SCT008 BKN015 22/22 A2994 BECMG=
201011032000 METAR MROC 032000Z 26013KT 1200 -DZ BR SCT001 BKN008 21/21 A2991 BECMG=
201011032100 METAR MROC 032100Z 25010KT 0800 -DZ FG R07/0400 OVC001 21/21 A2991 BECMG=
201011032200 METAR MROC 032200Z 25009KT 0400 DZ FG R07/0200 OVC001 20/20 A2991 BECMG=
201011032300 METAR MROC 032300Z 26007KT 0300 -DZ FG OVC001 R07/200 20/20 A2992 BECMG=
201011040000 METAR MROC 040000Z 25008KT 0400 -DZ FG R07/0200 OVC001 20/20 A2993 BECMG=
201011040100 METAR MROC 040100Z 25006KT 1500 DZ BR R07/0500 BKN002 20/20 A2995 RMK VIS 6000N FEW006 BECMG=
201011040200 METAR MROC 040200Z 25007KT 1200 RA BR R07/0500 OVC002 20/20 A2997 RMK VIS 5000 N BECMG=
201011040300 METAR MROC 040300Z 27008KT 2000 RA BR FEW001 SCT005 OVC030 20/20 A2998 BECMG=
201011040400 METAR MROC 040400Z VRB02KT 2000 R07/0400 +RA BR FEW001 SCT005 OVC030 20/20 A2998 BECMG=
201011040500 METAR MROC 040500Z 15003KT 2000 R07/1200 RA BR FEW001 SCT005 OVC030 20/20 A2997 BECMG=
201011040600 METAR MROC 040600Z 15003KT 3000 R07/1100 RA BR FEW001 SCT005 OVC030 20/20 A2994 BECMG=
201011040700 METAR MROC 040700Z 00000KT 4000 -RA BR FEW001 SCT005 OVC030 19/19 A2993=
201011040800 METAR MROC 040800Z 09003KT 4000 -DZ BR FEW001 SCT005 OVC030 19/19 A2992=
201011040900 METAR MROC 040900Z 11003KT 2000 -DZ BR FEW001 SCT005 OVC030 19/19 A2992=
201011041000 METAR MROC 041000Z 00000KT 2000 -DZ BR FEW001 SCT005 OVC030 20/20 A2992=
201011041100 METAR MROC 041100Z 00000KT 8000 VCFG FEW005 SCT030 OVC100 19/19 A2993 BECMG=
201011041200 METAR MROC 041200Z 00000KT 9999 4000 BR FEW005 SCT030 OVC100 20/20 A2996 BECMG=
201011041300 METAR MROC 041300Z 00000KT 8000 4000SW BR FEW004 BKN015 20/20 A2999 BECMG 4000 -RA BR=
201011041400 METAR MROC 041400Z 23004KT 8000 BR FEW006 BKN020 22/22 A3001 RMK VIS 5000SW BECMG=
201011041500 METAR MROC 041500Z 25003KT 9999 FEW020 SCT100 BKN250 23/22 A3001 BECMG=
201011041600 METAR MROC 041600Z 23005KT 9999 SCT020 SCT100 24/21 A3001 BECMG=
201011041700 METAR MROC 041700Z 24007KT 9999 BKN020 SCT100 24/22 A2998 BECMG=
201011041800 METAR MROC 041800Z 22008KT 9999 SCT020 BKN100 24/22 A2998 RMK DZ DST NE E BECMG VCSH=
201011041900 METAR MROC 041900Z 22010KT 9999 RA BKN020 24/22 A2993 RMK FEW100 BECMG 7000 RA=
201011042000 METAR MROC 042000Z 24004KT 5000 2000SW DZ BR FEW001 SCT020 BKN040 21/21 A2991 RMK VIS NE UNLD BECMG 8000=
201011042100 METAR MROC 042100Z 23005KT 4000 +DZ BR SCT003 SCT015 BKN100 21/21 A2991 RMK VIS N NE E 7KMS BECMG 2000 -RADZ BR SCT002 BKN006=
201011042200 METAR MROC 042200Z 24007KT 2000 -RADZ BR SCT001 BKN006 20/20 A2992 BECMG=
201011042300 METAR MROC 042300Z 30003KT 6000 BCFG FEW006 BKN017 20/20 A2993 REDZ RMK VIS E SE S UNL BECMG 3000 -RA BR=
201011050000 METAR MROC 050000Z 31003KT 8000 VCFG FEW008 SCT017 BKN100 20/20 A2995 RMK VIS E SE S UNL LTNG DST S BECMG 5000 -RA BR=
201011050100 METAR MROC 050100Z 260002KT 5000 -DZ BR FEW004 SCT010 BKN100 20/20 A2998 RMK VIS E SE UNL BECMG 3000 -RA BR=
201011050200 METAR MROC 050200Z 25005KT 1200 R07/900 +DZ BR SCT001 BKN005 20/20 A3001 BECMG 2000=
201011050300 METAR MROC 050300Z 24002KT 0700 FG VV/// 20/20 A3002 BECMG=
201011050400 METAR MROC 050400Z 00000KT 5000 BR FEW004 SCT015 OVC100 20/20 A3002 BECMG -DZ BR=
201011050500 METAR MROC 050500Z 00000KT 5000 BR FEW004 SCT015 OVC100 20/20 A3002 BECMG -DZ BR=
201011050600 METAR MROC 050600Z 00000KT 9999 FEW005 SCT015 BKN100 20/20 A3000 BECMG 4000 BR=
201011050700 METAR MROC 050700Z 00000KT 5000 BR FEW004 SCT015 BKN100 20/20 A2997 BECMG=
201011050800 METAR MROC 050800Z 00000KT 5000 DZ BR FEW002 SCT015 BKN100 20/20 A2996 BECMG=
201011050900 METAR MROC 050900Z 00000KT 2000 BR FEW002 SCT015 BKN100 20/20 A2996 BECMG=
201011051000 METAR MROC 051000Z 00000KT 1200 BR SCT001 SCT010 BKN100 20/20 A2991 BECMG=
201011051100 METAR MROC 051100Z 00000KT 2000 BR FEW002 SCT010 BKN100 20/20 A2998 BECMG=
201011051200 METAR MROC 051200Z 00000KT 2000 -DZ BR FEW001 SCT010 OVC100 20/20 A3001=
201011051300 METAR MROC 051300Z 00000KT 2500 -RA BR FEW002 SCT007 BKN015 20/20 A3003=
201011051400 METAR MROC 051400Z 00000KT 3000 -RA BR SCT005 BKN015 20/20 A3006 BECMG=
201011051500 METAR MROC 051500Z 00000KT 6000 -RA BCFG FEW005 SCT015 BKN100 20/20 A3006 BECMG=
201011051600 METAR MROC 051600Z 00000KT 8000 DZ VCFG FEW005 SCT015 BKN100 22/22 A3006 RMK VIS W/NW UNLD BECMG=
201011051700 METAR MROC 051700Z 14003KT 8000 +DZ VCFG FEW005 SCT020 BKN100 21/21 A3003 BECMG=
201011051800 METAR MROC 051800Z 13003KT 9999 -DZ VCFG FEW020 BKN100 22/21 A3001 VIS S SSW 8KMS RN DST N NW BECMG=
201011051900 METAR MROC 051900Z 22005KT 4000 -RADZ BR FEW004 SCT010 BKN100 21/21 A2999 BECMG 2000=
201011052000 METAR MROC 052000Z 23005KT 4000 -RA BR FEW005 BKN015 20/20 A2997 BECMG=
201011052100 METAR MROC 052100Z 25005KT 1000 -RA BR FEW001 SCT005 BKN015 20/20 A2997 BECMG=
201011052200 METAR MROC 052200Z 13002KT 1500 -RA BR FEW001 SCT005 BKN015 19/19 A2999 BECMG=
201011052300 METAR MROC 052300Z 08004KT 3000 -RA BR FEW001 SCT010 BKN020 19/19 A3001 BECMG=
201011060000 METAR MROC 060000Z 10005KT 5000 RA BR FEW001 SCT015 BKN050 18/18 A3002 BECMG=
201011060100 METAR MROC 060100Z 09006KT 9999 -RA FEW020 SCT040 BKN080 19/19 A3005 RERA BECMG=
201011060200 METAR MROC 060200Z 10007KT 9999 DZ FEW020 SCT040 BKN080 19/19 A3006 BECMG=
201011060300 METAR MROC 060300Z 09006KT 9999 DZ FEW035 BKN100 19/18 A3009 BECMG=
201011060400 METAR MROC 060400Z 10008KT 9999 DZ FEW020 BKN090 19/18 A3010 BECMG=
201011060500 METAR MROC 060500Z 07012KT 9999 FEW030 BKN100 19/17 A3008 BECMG=
201011060600 METAR MROC 060600Z 09007KT CAVOK 19/17 A3008 RMK SCT120 SCT250 BECMG=
201011060700 METAR MROC 060700Z 13006KT CAVOK 18/16 A3005 RMK SCT120 SCT250 BECMG=
201011060800 METAR MROC 060800Z 11007KT CAVOK 18/16 A3004 RMK SCT250 BECMG=
201011060900 METAR MROC 060900Z 12009KT CAVOK 18/16 A3004 RMK SCT250 BECMG=
201011061000 METAR MROC 061000Z 12008KT CAVOK 19/15 A3004 RMK SCT250 BECMG=
201011061100 METAR MROC 061100Z 08006KT CAVOK 19/16 A3005 RMK BKN250 BECMG=
201011061200 METAR MROC 061200Z 08007KT 9999 FEW025 BKN250 19/16 A3008 RMK DZ DST NE E BECMG=
201011061300 METAR MROC 061300Z 12011KT 9999 FEW020 BKN250 20/17 A3009 FEW130 RMK RA DST N NE BECMG=
201011061400 METAR MROC 061400Z 11013KT 9999 FEW025 SCT120 21/17 A3011 RMK RA DST QUAD E S FEW250 BECMG=
201011061500 METAR MROC 061500Z 12014KT 9999 FEW025 SCT120 22/16 A3012 RMK SCT200 RA DST QUAD SE BECMG=
201011061600 METAR MROC 061600Z 13008G20KT 9999 FEW025 SCT120 22/17 A3011 RMK FEW200 RA DST QUAD SE BECMG=
201011061700 METAR MROC 061700Z 13014KT 9999 FEW030 SCT100 23/17 A3009 RMK SCT250 RA DST E SE BECMG=
201011061800 METAR MROC 061800Z 13012KT 9999 FEW030 BKN250 24/17 A3006 RMK FEW100 RA DST SE BECMG=
201011061900 METAR MROC 061900Z 14015KT 9999 FEW030 SCT110 23/16 A3003 RMK SCT250 BECMG=
201011062000 METAR MROC NIL=
201011062100 METAR MROC 062100Z 12012KT 9999 FEW030 BKN120 22/16 A3001 BECMG=
201011062200 METAR MROC 062200Z 12013G25KT 9999 FEW030 BKN120 22/16 A3002 RMK DZ N NE E BECMG=
201011062300 METAR MROC 062300Z 11009G20KT 080V140 9999 FEW030 BKN120 20/16 A3004 RMK DZ N NE E BECMG=
201011070000 METAR MROC 070000Z 11008KT 9999 FEW040 BKN120 20/17 A3006 BECMG=
201011070100 METAR MROC 070100Z 11006KT 9999 FEW040 SCT120 20/17 A3007 BECMG=
201011070200 METAR MROC 070200Z 11010KT 9999 FEW040 SCT120 20/17 A3009 BECMG=
201011070300 METAR MROC 070300Z 12006KT 9999 FEW040 SCT120 20/17 A3009 BECMG=
201011070400 METAR MROC 070400Z 12008KT CAVOK 20/17 A3010 RMK SCT120 BECMG=
201011070500 METAR MROC 070500Z 13006KT CAVOK 20/17 A3008 RMK SCT120 BECMG=
201011070600 METAR MROC 070600Z 17008KT CAVOK 20/16 A3007 RMK SCT120 BECMG=
201011070700 METAR MROC 070700Z 07006KT CAVOK 19/16 A3005 RMK SCT120 BECMG=
201011070800 METAR MROC 070800Z 14004KT CAVOK 18/16 A3003 RMK SCT120 BECMG=
201011070900 METAR MROC 070900Z 12007KT CAVOK 19/16 A3003 RMK SCT120 BECMG=
201011071000 METAR MROC 071000Z 13010KT CAVOK 19/16 A3003 RMK SCT120 BECMG=
201011071100 METAR MROC 071100Z 13006KT CAVOK 18/16 A3004 RMK SCT120 BECMG=
201011071200 METAR MROC 071200Z 11015KT 9999 FEW025 18/15 A3006 RMK FEW120 DZ DST NW N NE BECMG=
201011071300 METAR MROC 071300Z 08005KT 9999 SCT030 BKN120 19/16 A3008 DZ DST NW N NE BECMG=
201011071400 METAR MROC 071400Z 13008KT 9999 FEW030 BKN120 21/16 A3009 RMK DZ NW N NE BECMG=
201011071500 METAR MROC 071500Z 13012KT 9999 FEW030 BKN120 21/16 A3010 RMK DZ N NE BECMG=
201011071600 METAR MROC 071600Z 12009KT 9999 FEW030 BKN120 23/17 A3009 BECMG=
201011071700 METAR MROC 071700Z 13012KT 9999 FEW030 SCT120 BKN250 24/17 A3006 RMK DZ N NE E=
201011071800 METAR MROC 071800Z 13014KT 9999 FEW030 BKN250 24/16 A3004 RMK DZ NW N NE E FEW120=
201011071900 METAR MROC 071900Z 13012KT 9999 FEW030 BKN250 25/17 A3001 RMK DZ N NE E FEW1 210 BECMG=
201011072000 METAR MROC 072000Z 12012KT 9999 FEW030 BKN250 24/16 A2999 RMK DZ N NE E FEW1 20 BECMG=
201011072100 METAR MROC 072100Z 12017KT 9999 FEW030 BKN250 23/16 A2999 RMK FEW120 DZ N NE E BECMG=
201011072200 METAR MROC 072200Z 09006KT 9999 SCT025 BKN250 22/16 A3001 BECMG=
201011072300 METAR MROC 072300Z 13004KT 9999 SCT025 BKN250 22/15 A3002 RMK DZ N NE BECMG=
201011080000 METAR MROC 080000Z 11011KT 9999 FEW025 BKN250 19/16 A3003 RMK PCPN DST N NE BECMG=
201011080100 METAR MROC 080100Z 11013KT 9999 FEW025 BKN250 19/15 A3005 BECMG=
201011080200 METAR MROC 080200Z 13018KT 9999 FEW030 SCT250 19/15 A3006 BECMG=
201011080300 METAR MROC 080300Z 12011KT 9999 FEW030 19/16 A3006 BECMG=
201011080400 METAR MROC 080400Z 11016KT 9999 FEW030 19/19 A3006 BECMG=
201011080500 METAR MROC 080500Z 09007KT 9999 FEW 030 20/16 A3004 BECMG=
201011080600 METAR MROC 080600Z 09004KT CAVOK 19/16 A3003 RMK TRCE SC050 BECMG=
201011080700 METAR MROC 080700Z 09008KT CAVOK 19/16 A3001 RMK TRACE SC050 BECMG=
201011080800 METAR MROC 080800Z 09008KT CAVOK 18/15 A2999 RMK TRACE SC050 BECMG=
201011080900 METAR MROC 080900Z 11010KT CAVOK 18/16 A2998 RMK TRACE SC050 BECMG=
201011081000 METAR MROC 081000Z 10004KT CAVOK 18/15 A2999 RMK TRACE SC050 BECMG=
201011081100 METAR MROC 081100Z 11004KT 9999 FEW025 SCT120 18/15 A3001 BECMG=
201011081200 METAR MROC 081200Z 09006KT 9999 FEW025 BKN120 17/15 A3002 BECMG=
201011081300 METAR MROC 081300Z 09007KT 9999 FEW025 SCT120 20/15 A3004 RMK FEW250 BECMG=
201011081400 METAR MROC 081400Z 12010KT 9999 FEW025 21/15 A3005 RMK FEW120 BECMG=
201011081500 METAR MROC 081500Z 12009KT 9999 FEW025 22/15 A3006 RMK FEW120 BECMG=
201011081600 METAR MROC 081600Z 13012KT 9999 FEW025 22/14 A3005 RMK FEW120 VEL MAX VTO 19KT BECMG=
201011081700 METAR MROC 081700Z 13011KT 9999 FEW030 24/14 A3003 RMK FEW120 MAX WND SPD 18KT BECMG=
201011081800 METAR MROC 081800Z 13015KT 9999 FEW030 24/14 A3000 BECMG=
201011081900 METAR MROC 081900Z 12013KT 9999 FEW032 24/14 A2998 BECMG=
201011082000 METAR MROC 082000Z 12013KT 9999 FEW040 24/15 A2996 RMK FEW080 MAX WND SPD 19KT BECMG=
201011082100 METAR MROC 082100Z 12011KT 9999 FEW040 23/15 A2994 BECMG=
201011082200 METAR MROC 082200Z 12012KT 9999 FEW040 22/15 A2996 BECMG=
201011082300 METAR MROC 082300Z 12009KT 9999 FEW030 21/14 A2997 BECMG=
201011090000 METAR MROC 090000Z 12011KT 9999 FEW030 20/15 A2999 BECMG=
201011090100 METAR MROC 090100Z 11008KT CAVOK 19/15 A3001 BECMG=
201011090200 METAR MROC 090200Z 11007KT CAVOK 19/15 A3003 BECMG=
201011090300 METAR MROC 090300Z 11005KT CAVOK 18/14 A3004 BECMG=
201011090400 METAR MROC 090400Z 11007KT CAVOK 18/13 A3004 BECMG=
201011090500 METAR MROC 090500Z 10007KT CAVOK 18/12 A3003 BECMG=
201011090600 METAR MROC 090600Z 09007KT CAVOK 18/11 A3001 BECMG=
201011090700 METAR MROC 090700Z 10009KT CAVOK 18/12 A2999 BECMG=
201011090800 METAR MROC 090800Z 11008KT CAVOK 18/12 A2998 BECMG=
201011090900 METAR MROC 090900Z 10005KT CAVOK 17/13 A2997 BECMG=
201011091000 METAR MROC 091000Z 09005KT CAVOK 17/13 A2997 BECMG=
201011091100 METAR MROC 091100Z 10007G18KT CAVOK 17/13 A2998 BECMG=
201011091200 METAR MROC 091200Z 08006KT CAVOK 18/13 A3000 RMK FEW070 BECMG=
201011091300 METAR MROC 091300Z 11008KT CAVOK 20/14 A3001 RMK SCT090 BECMG=
201011091400 METAR MROC 091400Z 11011G22KT CAVOK 22/14 A3001 RMK FEW090 BECMG=
201011091500 METAR MROC 091500Z 12013KT CAVOK 23/14 A3002 RMK BKN090 BECMG=
201011091600 METAR MROC 091600Z 11010KT CAVOK 24/15 A3001 RMK BKN090 BECMG=
201011091700 METAR MROC 091700Z 12009KT CAVOK 25/16 A2999 RMK BKN090 BECMG=
201011091800 METAR MROC 091800Z 12006KT CAVOK 26/16 A2996 RMK BKN090 BECMG 24006KT=
201011091900 METAR MROC 091900Z 15006KT CAVOK 27/16 A2994 RMK BKN090 BECMG 24006KT=
201011092000 METAR MROC 092000Z 12008KT 9999 FEW040 BKN090 26/17 A2992 BECMG 24006KT=
201011092100 METAR MROC 092100Z 13005KT 9999 FEW030 BKN090 24/17 A2991 BECMG 25007KT=
201011092200 METAR MROC 092200Z 11009KT 9999 FEW030 BKN100 23/17 A2991 BECMG=
201011092300 METAR MROC 092300Z 12007KT 9999 FEW035 BKN100 22/17 A2992 RMK DZ DST ENE E SE FEW250 BECMG=
201011092310 METAR MROC 092310Z 23004KT 9999 RA BKN010 24/22 A2984 RMK FEW090 VIS W N 7KMS=
201011100000 METAR MROC 100000Z 09006KT 9999 FEW035 BKN100 21/17 A2995 PCPN DST NE ENE BECMG=
201011100100 METAR MROC 100100Z 12006KT 9999 FEW035 BKN120 21/17 A2997 BECMG=
201011100200 METAR MROC 100200Z 11004KT 9999 FEW035 BKN100 20/17 A2999 BECMG=
201011100300 METAR MROC 100300Z 00000KT 9999 FEW035 BKN100 20/16 A3000 BECMG=
201011100400 METAR MROC 100400Z 11004KT 9999 FEW035 SCT110 20/15 A3000 BECMG=
201011100500 METAR MROC 100500Z 11004KT 9999 FEW030 SCT100 20/14 A2999 BECMG=
201011100600 METAR MROC 100600Z 13003KT 9999 FEW030 SCT110 20/14 A2999 BECMG=
201011100700 METAR MROC 100700Z 12005KT 9999 DZ FEW030 BKN110 19/15 A2997 BECMG=
201011100800 METAR MROC 100800Z 11006KT 9999 FEW030 SCT120 19/15 A2996 BECMG=
201011100900 METAR MROC 100900Z 12005KT 9999 FEW030 SCT120 19/14 A2995 BECMG=
201011101000 METAR MROC 101000Z 11011KT 9999 FEW030 SCT120 19/14 A2996 BECMG=
201011101100 METAR MROC 101100Z 10007KT 9999 FEW030 BKN120 19/14 A2997 BECMG=
201011101200 METAR MROC 101200Z 08009KT 9999 FEW030 BKN110 20/15 A2998 BECMG=
201011101300 METAR MROC 101300Z 11007KT CAVOK 21/15 A3000 RMK SCT070 BKN120 BECMG=
201011101400 METAR MROC 101400Z 12009KT CAVOK 22/16 A3001 RMK FEW070 BKN120 BECMG=
201011101500 METAR MROC 101500Z 12009KT CAVOK 23/16 A3002 RMK BKN120 SCT250 BECMG=
201011101600 METAR MROC 101600Z 11007KT CAVOK 24/17 A3001 RMK SCT100 BKN140 PCPN DST ESE SE BECMG=
201011101700 METAR MROC 101700Z 14006KT CAVOK 25/17 A3000 RMK SCT100 BKN140 BECMG 24005KT=
201011101800 METAR MROC 101800Z 26010KT 9999 FEW030 SCT045 BKN120 24/19 A2998 RMK PCPN DST NNW N NE BECMG=
201011101900 METAR MROC 101900Z 24006KT 9999 FEW030 SCT040 BKN120 24/20 A2996 RMK PCPN DST N NE E=
201011102000 METAR MROC 102000Z 25005KT 9999 FEW015 SCT035 BKN120 24/20 A2994 RMK PCPN DST NW N E BECMG 8000 VCSH=
201011102100 METAR MROC 102100Z 24006KT 9999 5000SE -DZ BR FEW015 SCT035 BKN100 22/21 A2994 RMK PCPN SE SW NE VIS 8KM SW BECMG=
201011102200 METAR MROC 102200Z 17003KT 3000 BR VCSH FEW001 SCT012 BKN100 21/21 A2996 RMK VIS E UNL RA TCU W PCPN DST S E BECMG 5000=
201011102300 METAR MROC 102300Z 27004KT 9999 5000SW BR VCFG FEW001 SCT020 BKN100 20/20 A2997 RMK RA DST SE BECMG=
201011110000 METAR MROC 110000Z 26004KT 5000 2000W DZ BR FEW001 SCT015 BKN080 20/20 A2999 BECMG=
201011110100 METAR MROC 110100Z 00000KT 5000 BR FEW001 SCT040 BKN080 20/20 A3001 REDZ RMK VIS E 8KM BECMG 04006KT 9999=
201011110200 METAR MROC 110200Z VRB02KT 8000 VCFG FEW001 SCT040 BKN080 20/20 A3002 BECMG 5000 -RA BR=
201011110300 METAR MROC 110300Z 25003KT 0800 -DZ FG R07/0600 BKN003 20/20 A3004 BECMG 2000 -RA BR=
201011110400 METAR MROC 110400Z 26003KT 7000 2000SW DZ BR FEW002 SCT008 BKN080 20/20 A3004 BECMG 4000 -RA BR=
201011110500 METAR MROC 110500Z 26003KT 8000 VCFG SCT005 BKN080 19/19 A3004 BECMG=
201011110600 METAR MROC 110600Z 28003KT 8000 VCFG SCT005 BKN080 19/19 A3003 BECMG=
201011110700 METAR MROC 110700Z 34002KT 9999 FEW015 BKN090 19/19 A3001 BECMG=
201011110800 METAR MROC 110800Z 03003KT CAVOK 19/19 A2999 RMK BKN100 BECMG=
201011110900 METAR MROC 110900Z 12003KT CAVOK 19/18 A2999 RMK BKN100 BECMG=
201011111000 METAR MROC 111000Z 08003KT CAVOK 19/18 A2999 RMK BKN100 BECMG=
201011111100 METAR MROC 111100Z 10003KT 9999 FEW035 BKN100 19/18 A3001 BECMG=
201011111200 METAR MROC 111200Z 12003KT 9999 FEW030 BKN100 19/18 A3003 BECMG=
201011111300 METAR MROC 111300Z 07006KT 9999 FEW030 BKN100 21/18 A3005 BECMG=
201011111400 METAR MROC 111400Z 13004KT 9999 FEW030 BKN100 22/19 A3006 RMK DZ DST E BECMG=
201011111500 METAR MROC 111500Z 13008KT 9999 FEW030 BKN100 23/19 A3007 RMK PCP DST E BECMG=
201011111600 METAR MROC 111600Z 10008KT 9999 FEW035 BKN110 25/19 A3006 RMK FEW250 PCPN DST E BECMG=
201011111700 METAR MROC 111700Z 13008KT 9999 FEW030 SCT080 BKN220 25/18 A3005 RMK PCPN DST SW/E TCU DST SW BECMG=
201011111800 METAR MROC 111800Z 17006KT 9999 FEW035 SCT080 BKN200 25/18 A3003 BECMG 24005KT=
201011111812 METAR MROC 111812Z 27004KT 9999 FEW035 SCT080 BKN200 23/21 A3003 BECMG=
201011111900 METAR MROC 111900Z 29005KT 9999 -RA FEW035 BKN080 23/21 A3002 RMK PCPN DST SW BECMG 8000 -SHRA=
201011112000 METAR MROC 112000Z 23007KT 9999 VCSH FEW012 SCT040 BKN100 23/22 A3000 RMK PCPN DST NE E S SW BECMG=
201011112100 METAR MROC 112100Z 22004KT 9999 -DZ FEW010 SCT030 OVC100 21/21 A3001 RMK DZ N NE BECMG 8000 -RA=
201011112200 METAR MROC 112200Z 28002KT 9999 3000N BR FEW010 SCT030 OVC100 22/19 A3002 BECMG=
201011112300 METAR MROC 112300Z VRB02KT 9999 4000N BR FEW010 SCT030 OVC100 21/21 A3004 BECMG=
201011120000 METAR MROC 120000Z 33004KT 9999 FEW030 BKN100 21/20 A3006 BECMG=
201011120100 METAR MROC 120100Z 07003KT 9999 FEW030 SCT100 BKN250 21/18 A3009 BECMG=
201011120200 METAR MROC 120200Z 11004KT 9999 FEW030 SCT100 BKN250 21/17 A3009 BECMG=
201011120300 METAR MROC 120300Z 11003KT 9999 FEW035 SCT100 BKN250 21/17 A3009 BECMG=
201011120400 METAR MROC 120400Z 04004KT 9999 FEW035 SCT120 BKN250 21/17 A3009 BECMG=
201011120500 METAR MROC 120500Z 06005KT CAVOK 21/17 A3009 RMK BKN120 BECMG=
201011120600 METAR MROC 120600Z 08005KT CAVOK 20/16 A3007 RMK BKN120 BECMG=
201011120700 METAR MROC 120700Z 09003KT CAVOK 20/17 A3005 RMK BKN120 BECMG=
201011120800 METAR MROC 120800Z 12004KT CAVOK 20/16 A3005 RMK SCT120 BECMG=
201011120900 METAR MROC 120900Z 12005KT CAVOK 19/17 A3004 RMK SCT120 BECMG=
201011121000 METAR MROC 121000Z 08003KT CAVOK 18/16 A3004 RMK SCT120 SCT250 BECMG=
201011121100 METAR MROC 121100Z 08003KT CAVOK 17/16 A3006 FEW120 SCT270 BECMG=
201011121200 METAR MROC 121200Z 06004KT CAVOK 17/16 A3007 RMK FEW270 BECMG=
201011121300 METAR MROC 121300Z 05003KT CAVOK 21/17 A3008 RMK FEW270 BECMG=
201011121400 METAR MROC 121400Z 10004KT CAVOK 23/17 A3008 RMK FEW270 BECMG=
201011121500 METAR MROC 121500Z 14009KT 9999 FEW040 SCT270 26/17 A3008 BECMG=
201011121600 METAR MROC NIL=
201011121700 METAR MROC 121700Z 24007KT 9999 SCT040 SCT270 26/20 A3006 BECMG=
201011121800 METAR MROC 121800Z 24006KT 9999 SCT040 SCT270 25/20 A3005 BECMG=
201011121900 METAR MROC 121900Z 15007KT 120V180 9999 FEW010TCU SCT030 BKN100 25/19 A3003 BECMG=
201011122000 METAR MROC 122000Z 13005KT 9999 FEW010TCU SCT030 BKN100 24/18 A3001 BECMG=
201011122100 METAR MROC 122100Z 12007KT 9999 SCT025 BKN100 24/18 A3000 BECMG=
201011122200 METAR MROC 122200Z 26006KT 9000 VCFG FEW004 SCT025 BKN100 22/22 A3002 BECMG 5000 BR=
201011122300 METAR MROC 122300Z 25006KT 4000 BR FEW002 SCT025 BKN100 21/21 A3003 BECMG 1500 -DZ BR=
201011130000 METAR MROC 130000Z 26005KT 5000 FEW003 SCT025 BKN100 20/20 A3005 BECMG 2500 BR=
201011130100 METAR MROC 130100Z 00000KT 5000 BR SCT025 BKN100 20/20 A3008 BECMG 7000=
201011130200 METAR MROC 130200Z 29003KT 5000 BR FEW003 SCT025 BKN100 20/20 A3009 BECMG 7000=
201011130300 METAR MROC 130300Z 00000KT 5000 BR FEW003 SCT025 BKN100 20/20 A3010 BECMG=
201011130400 METAR MROC 130400Z 02002KT 8000 BCFG FEW003 SCT025 BKN100 20/20 A3010 BECMG UNL=
201011130500 METAR MROC 130500Z 03002KT 9999 SCT025 20/20 A3008 BECMG=
201011130600 METAR MROC 130600Z 10003KT 9999 SCT025 19/19 A3007 BECMG=
201011130700 METAR MROC 130700Z 09002KT 9999 SCT025 20/19 A3005 BECMG=
201011130800 METAR MROC 130800Z 13006KT 9999 SCT025 20/20 A3004 BECMG=
201011130900 METAR MROC 130900Z 01010KT 9999 SCT025 19/19 A3003 BECMG=
201011131000 METAR MROC 131000Z 17004KT 9999 SCT025 20/19 A3003 BECMG=
201011131100 METAR MROC 131100Z 34003KT 9999 SCT025 19/19 A3004 BECMG=
201011131200 METAR MROC 131200Z 00000KT 9999 FEW030 BKN100 19/19 A3006 BECMG=
201011131300 METAR MROC 131300Z 09003KT 9999 FEW030 BKN100 21/19 A3008 BECMG=
201011131400 METAR MROC 131400Z 13005KT 9999 SCT045 SCT100 21/18 A3009 BECMG=
201011131500 METAR MROC 131500Z 09005KT 9999 SCT030 BKN250 24/18 A3009 BECMG=
201011131600 METAR MROC 131600Z 13007KT 9999 SCT025 SCT100 BKN250 24/18 A3008 BECMG=
201011131700 METAR MROC 131700Z 14005KT 9999 FEW025 SCT100 BKN250 24/18 A3006 BECMG=
201011131800 METAR MROC 131800Z 13003KT 9999 FEW030 SCT080 BKN100 23/18 A3005 RMK PCPN DST SE SW BECMG=
201011131900 METAR MROC 131900Z 13003KT 9999 FEW040 SCT110 BKN200 22/17 A3001 RMK PCPN SE SW BECMG=
201011132000 METAR MROC 132000Z 12007KT 9999 FEW055 SCT110 BKN200 23/18 A3000 BECMG=
201011132100 METAR MROC 132100Z 13004KT 9999 SCT030 BKN100 22/17 A3000 RMK RN DST SE NE BECMG 24006KT=
201011132200 METAR MROC 132200Z 12007KT 9999 SCT035 BKN100 21/17 A2999 RMK RN DST SE E NE BECMG=
201011132300 METAR MROC 132300Z 12007KT 9999 FEW035 SCT100 BKN250 21/16 A3001 RMK RN DST NE E BECMG=
201011140000 METAR MROC 140000Z 10010KT CAVOK 20/16 A3003 RMK SCT120 SCT250 BECMG=
201011140100 METAR MROC 140100Z 12011KT CAVOK 20/16 A3005 RMK SCT120 SCT250 BECMG=
201011140200 METAR MROC 140200Z 12006KT CAVOK 20/16 A3007 RMK FEW120 SCT250 BECMG=
201011140300 METAR MROC 140300Z 10008KT CAVOK 20/16 A3008 RMK FEW120 SCT250 BECMG=
201011140400 METAR MROC 140400Z 12008KT CAVOK 20/16 A3008 RMK SCT120 SCT250 BECMG=
201011140500 METAR MROC 140500Z 11008KT CAVOK 20/16 A3007 RMK SCT120 SCT250 BECMG=
201011140600 METAR MROC 140600Z 08003KT CAVOK 20/16 A3005 RMK SCT120 SCT250 BECMG=
201011140700 METAR MROC 140700Z 08006KT CAVOK 19/16 A3004 RMK SCT120 SCT250 BECMG=
201011140800 METAR MROC 140800Z 07006KT CAVOK 19/16 A3003 RMK SCT120 SCT250 BECMG=
201011140900 METAR MROC 140900Z 09007KT CAVOK 20/16 A3001 RMK SCT120 SCT250 BECMG=
201011141000 METAR MROC 141000Z 08008KT CAVOK 20/16 A3001 RMK SCT120 SCT250 BECMG=
201011141100 METAR MROC 141100Z 08006KT CAVOK 19/16 A3002 RMK SCT120 SCT250 BECMG=
201011141200 METAR MROC 141200Z 09007KT 9999 FEW040 BKN120 19/16 A3002 BECMG=
201011141300 METAR MROC 141300Z 09008KT 9999 FEW040 BKN100 20/16 A3006 BECMG=
201011141400 METAR MROC 141400Z 11006KT CAVOK 21/16 A3009 RMK BKN090 BECMG=
201011141500 METAR MROC 141500Z 12007KT CAVOK 23/16 A3010 RMK BKN100 SCT250 BECMG=
201011141600 METAR MROC 141600Z 11006KT CAVOK 25/16 A3008 RMK FEW120 BECMG=
201011141700 METAR MROC 141700Z 11008KT CAVOK 26/15 A3005 RMK SCT250 BECMG 24006KT=
201011141800 METAR MROC 141800Z 10008KT 9999 FEW040 SCT250 27/15 A3002 BECMG 24006KT=
201011141900 METAR MROC 141900Z 16007KT 9999 FEW040 BKN120 27/15 A3000 BECMG 24006KT=
201011142000 METAR MROC 142000Z 24008KT 9999 FEW020TCU SCT040 BKN100 24/21 A2998 RMK PCPN DST SW BECMG=
201011142100 METAR MROC 142100Z 24008KT 9999 FEW020TCU SCT040 BKN100 24/21 A2998 RMK PCPN DST SW BECMG=
201011142200 METAR MROC 142200Z 24008KT 9999 FEW020TCU SCT030 BKN100 22/21 A3000 RMK PCPN DST SW LGT HZ ARND BECMG=
201011142300 METAR MROC 142300Z 25005KT 9999 FEW005 SCT020 BKN250 21/21 A3001 RMK LOW CLOWDS OVER APCH RNY/07 BECMG 5000 BR=
201011150000 METAR MROC 150000Z 29003KT 9999 SCT015 SCT120 20/20 A3002 BECMG=
201011150100 METAR MROC 150100Z 13003KT 9999 FEW030 SCT120 BKN250 20/18 A3004 BECMG CAVOK=
201011150200 METAR MROC 150200Z 11003KT CAVOK 19/16 A3007 RMK FEW120 SCT250 BECMG=
201011150300 METAR MROC 150300Z 11003KT CAVOK 19/16 A3008 RMK FEW120 FEW250 BECMG=
201011150400 METAR MROC 150400Z 07006KT CAVOK 19/16 A3008 RMK FEW120 BECMG=
201011150500 METAR MROC 150500Z 11005KT CAVOK 18/15 A3006 RMK FEW120 BECMG=
201011150600 METAR MROC 150600Z 09005KT CAVOK 19/11 A3004 RMK FEW120 BECMG=
201011150700 METAR MROC 150700Z 10004KT CAVOK 17/15 A3002 RMK FEW120 BECMG=
201011150800 METAR MROC 150800Z 08006KT CAVOK 17/15 A3000 RMK FEW120 BECMG=
201011150900 METAR MROC 150900Z 10006KT CAVOK 18/10 A2999 RMK FEW120 BECMG=
201011151000 METAR MROC 151000Z 10006KT CAVOK 18/10 A3000 RMK FEW120 BECMG=
201011151100 METAR MROC 151100Z 09005KT CAVOK 18/09 A3000 RMK SCT120 BECMG=
201011151200 METAR MROC 151200Z 06004KT CAVOK 18/11 A3003 RMK BKN120 BECMG=
201011151300 METAR MROC 151300Z 13002KT CAVOK 19/13 A3005 RMK BKN120 BECMG=
201011151400 METAR MROC 151400Z 12004KT CAVOK 23/13 A3005 RMK FEW120 BECMG 24005KT=
201011151500 METAR MROC 151500Z 22004KT CAVOK 24/15 A3006 RMK FEW140 BECMG=
201011151600 METAR MROC 151600Z 24007KT CAVOK 25/16 A3006 RMK FEW140 BECMG=
201011151700 METAR MROC 151700Z 25007KT CAVOK 26/17 A3004 RMK FEW220 BECMG=
201011151800 METAR MROC 151800Z 25008KT CAVOK 27/18 A3001 RMK SCT140 SCT220 BECMG=
201011151900 METAR MROC 151900Z 25008KT 9999 FEW035 BKN130 26/20 A2999 BECMG=
201011152000 METAR MROC 152000Z 23011KT 9999 FEW035 BKN120 25/20 A2997 RMK RN TCU DST SW BECMG=
201011152100 METAR MROC 152100Z 24010KT 9999 FEW035 BKN120 24/21 A2996 RMK TCU PCPN DST SW S E N BECMG=
201011152200 METAR MROC 152200Z 24009KT 9999 FEW035 BKN120 22/21 A2997 RMK TCU PCPN DST QUAD E S FEW200 BECMG=
201011152300 METAR MROC 152300Z 25005KT 9999 VCSH FEW020 SCT080 BKN120 21/21 A3000 RMK PCPN DST QUAD N E S BECMG=
201011160000 METAR MROC 160000Z 25004KT 9999 FEW010 SCT030 BKN080 21/21 A3001 RMK LGT BR ARND BECMG=
201011160100 METAR MROC 160100Z 31002KT 9999 FEW012 SCT035 BKN080 20/20 A3003 RMK LGT BR ARND BECMG=
201011160200 METAR MROC 160200Z 29002KT 9999 FEW012 SCT035 BKN080 20/20 A3006 RMK LGT BR ARND BECMG=
201011160300 METAR MROC 160300Z 26002KT 9999 FEW015 SCT080 BKN250 20/20 A3008 RMK BCFG S SW BECMG=
201011160400 METAR MROC 160400Z 26004KT 9999 FEW006 SCT012 BKN090 20/20 A3008 BECMG 5000 DZ BR=
201011160500 METAR MROC 160500Z 00000KT 9999 VCFG FEW004 BKN020 20/20 A3006 RMK VIS 7000SW BECMG 5000 DZ BR=
201011160600 METAR MROC 160600Z 26002KT 9999 VCFG FEW004 BKN020 20/20 A3005 RMK VIS 7000SW BECMG 5000BR=
201011160700 METAR MROC 160700Z 23002KT 3000 BR R07/0900 SCT001 BKN020 19/19 A3002 BECMG 5000 BR=
201011160800 METAR MROC 160800Z 00000KT 3000 BR R07/1200 FEW001 SCT006 19/19 A3001 RMK VIS 9999 N BECMG 5000 BR=
201011160900 METAR MROC 160900Z 08002KT 5000 BR SCT001 BKN020 18/18 A3001 BECMG 9999=
201011161000 METAR MROC 161000Z 10004KT 9999 VCFG FEW002 BKN100 18/18 A3001 RMK VIS 7000 SW BECMG=
201011161100 METAR MROC 161100Z 09005KT CAVOK 18/18 A3002 RMK SCT120 SCT250 BECMG=
201011161200 METAR MROC 161200Z 08005KT CAVOK 18/17 A3004 RMK FEW250 BECMG=
201011161300 METAR MROC 161300Z 08002KT CAVOK 20/18 A3006 RMK LW ST SW LGT BR ARND FEW200 BKN250 BECMG=
201011161400 METAR MROC 161400Z 21002KT CAVOK 23/18 A3008 RMK LGT BR ARND BKN250 BECMG=
201011161500 METAR MROC 161500Z 26005KT 9999 FEW030 BKN250 23/19 A3009 RMK LGT BR ARND TCU DST W BECMG=
201011161600 METAR MROC 161600Z 25006KT 9999 FEW030 SCT120 BKN250 24/20 A3008 RMK LGT BR ARND TCU DST W BECMG=
201011161700 METAR MROC 161700Z 25007KT 9999 FEW030 BKN120 25/20 A3005 RMK TCU DST QUAD S E W BECMG=
201011161800 METAR MROC 161800Z 25009KT CAVOK 26/20 A3002 RMK TCU DST QUAD E S W BKN120 BECMG=
201011161900 METAR MROC 161900Z 23005KT CAVOK 27/19 A2999 RMK TCU DST QUAD E S W FEW090 BECMG=
201011162000 METAR MROC 162000Z 26007KT 9999 FEW040 27/18 A2995 RMK TCU DST QUAD E S W FEW090 BECMG=
201011162100 METAR MROC 162100Z 25009KT 9999 FEW040 SCT270 25/21 A2995 BECMG=
201011162200 METAR MROC 162200Z 25011KT 9999 SCT040 SCT250 23/21 A2996 BECMG=
201011162300 METAR MROC 162300Z 23006KT 9999 SCT030 SCT250 22/21 A2998 BECMG=
201011170000 METAR MROC 170000Z 27005KT 9999 SCT030 SCT250 21/20 A3001 BECMG=
201011170100 METAR MROC 170100Z 27003KT 9999 FEW003 BKN030 21/21 A3004 BECMG=
201011170200 METAR MROC 170200Z 00000KT 9999 BCFG SCT030 SCT100 21/21 A3006 BECMG=
201011170300 METAR MROC 170300Z 24003KT 9999 BCFG FEW015 BKN025 21/21 A3007 RMK VIS S SSW 7KMS BECMG=
201011170400 METAR MROC 170400Z 20003KT 8000 VCFG FEW008 BKN020 20/20 A3007 BECMG 5000 DZ BR=
201011170500 METAR MROC 170500Z 00000KT 5000 BR FEW001 BKN015 20/20 A3006 RMK VIS N UNL BECMG 3000 BR=
201011170600 METAR MROC 170600Z 00000KT 5000 BR FEW001 BKN015 20/20 A3005 BECMG=
201011170700 METAR MROC 170700Z 00000KT 3000 BR FEW001 BKN015 18/18 A3003 BECMG=
201011170800 METAR MROC 170800Z 00000KT 2000 BR SCT001 BKN015 20/20 A3002 BECMG=
201011170900 METAR MROC 170900Z 00000KT 2000 BR SCT001 BKN015 20/20 A3001 BECMG=
201011171000 METAR MROC 171000Z 00000KT 4000 BR FEW001 SCT020 BKN100 20/20 A3002 BECMG=
201011171100 METAR MROC 171100Z 00000KT 5000 BR FEW001 SCT020 BKN110 19/19 A3003 BECMG=
201011171200 METAR MROC 171200Z 00000KT 5000 2000SW BR FEW001 SCT015 BKN100 19/19 A3005 BECMG=
201011171300 METAR MROC 171300Z 10003KT 5000 2000SW BR FEW001 SCT015 BKN100 20/20 A3009 BECMG=
201011171400 METAR MROC 171400Z 00000KT 8000 3000SW BR FEW001 SCT015 BKN120 22/20 A3011 BECMG=
201011171500 METAR MROC 171500Z 24003KT 8000 3000SW BR FEW001 SCT020 BKN120 25/20 A3011 BECMG=
201011171600 METAR MROC 171600Z 23008KT 9999 SCT020 SCT120 25/20 A3010 RMK HZ ARND BECMG=
201011171700 METAR MROC 171700Z 24008KT 9999 SCT020 SCT120 24/19 A3008 RMK HZ ARND=
201011171800 METAR MROC 171800Z 26007KT 9999 SCT020 SCT120 25/20 A3005 RMK HZ ARND BECMG=
201011171900 METAR MROC 171900Z 26007KT 9999 SCT020 SCT120 25/21 A3001 RMK HZ ARND FEW250 BECMG=
201011172000 METAR MROC 172000Z 25009KT 9999 SCT020 SCT120 25/20 A3000 RMK HZ ARND RA NE E FEW250 BECMG=
201011172100 METAR MROC 172100Z 25006KT 9999 SCT015 SCT120 23/21 A2999 RMK HZ ARND PCPN DST NE FEW250 BECMG=
201011172200 METAR MROC 172200Z 23004KT 5000 BR FEW002 SCT015 BKN120 21/21 A3001 BECMG 2500 -RA BR=
201011172300 METAR MROC 172300Z 23004KT 5000 BR FEW002 SCT015 BKN120 21/21 A3001 BECMG 2500 -RA BR=
201011180000 METAR MROC 180000Z 26006KT 2000 -RA BR FEW002 SCT010 OVC100 21/21 A3004=
201011180100 METAR MROC 180100Z 32003KT 5000 BR FEW003 SCT015 BKN100 20/20 A3006 BECMG=
201011180200 METAR MROC 180200Z 28004KT 8000 VCFG FEW004 SCT015 BKN100 20/20 A3008 BECMG=
201011180300 METAR MROC 180300Z 00000KT 6000 VCFG FEW001 SCT012 BKN030 20/20 A3008 RMK BR ARND BECMG=
201011180400 METAR MROC 180400Z VRB02KT 6000 VCFG FEW001 SCT012 BKN030 20/20 A3008 RMK BR ARND BECMG=
201011180500 METAR MROC 180500Z 26004KT 3000 BR SCT001 BKN020 20/20 A3008 BECMG=
201011180600 METAR MROC 180600Z VRB02KT 3000 BR SCT001 BKN020 20/20 A3007 BECMG=
201011180700 METAR MROC 180700Z VRB02KT 3000 BR SCT001 BKN040 19/19 A3004 BECMG=
201011180800 METAR MROC 180800Z 00000KT 4000 BR SCT001 BKN040 19/19 A3003 BECMG=
201011180900 METAR MROC 180900Z 08007KT 6000 FEW001 SCT040 18/18 A3001 RMK BR ARND BECMG=
201011181000 METAR MROC 181000Z VRB02KT 8000 FEW001 SCT040 18/18 A3003 RMK BR ARND BECMG=
201011181100 METAR MROC 181100Z 00000KT 9999 SCT040 18/18 A3003 RMK LOW ST SW BECMG=
201011181200 METAR MROC 181200Z 00000KT 9999 5000SW BR VCFG FEW001 SCT040 18/17 A3006 BECMG=
201011181300 METAR MROC 181300Z 00000KT 9999 FEW005 SCT030 19/18 A3008 RMK HZ ARND BECMG=
201011181400 METAR MROC 181400Z 00000KT 8000 BCFG FEW005 SCT030 21/20 A3010 BECMG=
201011181500 METAR MROC 181500Z 23002KT 9999 FEW007 SCT110 24/19 A3011 RMK HZ ARND BECMG=
201011181600 METAR MROC 181600Z 25005KT 9999 FEW007 SCT110 25/20 A3009 RMK HZ ARND BECMG=
201011181700 METAR MROC 181700Z 26006KT 9999 FEW010 SCT110 25/20 A3007 RMK HZ ARND BECMG=
201011181800 METAR MROC 181800Z 25004KT 8000 FEW003 SCT015TCU BKN100 25/21 A3005 RMK HZ ARND BECMG=
201011181900 METAR MROC 181900Z 26005KT 7000 VCSH FEW003 SCT015TCU BKN100 24/21 A3001 RMK HZ ARND BECMG 5000 -SHRA=
201011182000 METAR MROC 182000Z 24008KT 7000 -RA SCT010 BKN100 23/21 A2999 BECMG 5000 -SHRA=
201011182100 METAR MROC 182100Z 23007KT 8000 3000N VCSH BR SCT006 BKN090 22/22 A2998 BECMG 2000 -RA BR=
201011182200 METAR MROC 182200Z 25007KT 5000 BR FEW003 SCT015 BKN080 22/21 A2999 BECMG=
201011182300 METAR MROC 182300Z 00000KT 3000 BR SCT003 BKN012 21/21 A2999 BECMG 2000 -RA BR=
201011190000 METAR MROC 190000Z 00000KT 9999 BR FEW006 BKN020 20/20 A3001 RMK VIS 5000 SW BECMG=
201011190100 METAR MROC 190100Z 24003KT 9999 3000SW BR FEW003 SCT015 BKN090 20/20 A3003 BECMG=
201011190200 METAR MROC 190200Z 28002KT 9999 3000SW BR FEW003 SCT010 20/20 A3006 BECMG=
201011190300 METAR MROC 190300Z 04003KT 4000 BR FEW001 SCT010 BKN070 20/20 A3008 BECMG=
201011190400 METAR MROC 190400Z 00000KT 9999 2000SW BR FEW001 SCT070 20/20 A3007 BECMG=
201011190500 METAR MROC 190500Z 05004KT 9999 FEW030 BKN070 20/18 A3006 BECMG=
201011190600 METAR MROC 190600Z 05004KT CAVOK 20/18 A3003 RMK BKN100 BECMG=
201011190700 METAR MROC 190700Z 10006KT CAVOK 20/17 A3000 RMK BKN100 BECMG=
201011190800 METAR MROC 190800Z 00000KT CAVOK 19/17 A2998 RMK BKN100 BECMG=
201011190900 METAR MROC 190900Z 06002KT CAVOK 19/16 A2997 RMK SCT120 BECMG=
201011191000 METAR MROC 191000Z 09006KT CAVOK 19/16 A2998 RMK SCT120 BECMG=
201011191100 METAR MROC 191100Z 09005KT CAVOK 19/16 A2998 RMK SCT120 BECMG=
201011191200 METAR MROC 191200Z 00000KT CAVOK 19/17 A3000 RMK SCT100 SCT250 BECMG=
201011191300 METAR MROC 191300Z 00000KT CAVOK 19/17 A3005 RMK FEW100 BKN250 LINEA CB DST S SW W BECMG=
201011191400 METAR MROC 191400Z 24005KT CAVOK 23/19 A3007 RMK SCT100 SCT250 HZ SW W BECMG=
201011191500 METAR MROC 191500Z 00000KT CAVOK 22/18 A3008 RMK SCT100 FEW250 CB DST SW HZ LEVE S SW W BECMG=
201011191600 METAR MROC 191600Z 00000KT 9999 FEW040 SCT100 23/19 A3006 RMK HZ LGT ARND BECMG=
201011191700 METAR MROC 191700Z 27005KT CAVOK 26/18 A3003 RMK SCT100 SCT250 HZ LGT ARND BECMG=
201011191800 METAR MROC 191800Z 24004KT 9999 FEW045 SCT250 26/20 A2999 RMKHZ SW BECMG=
201011191900 METAR MROC 191900Z 22006KT 9999 SCT040 SCT250 26/20 A2996 RMK HZ LEVE ARND BECMG=
201011192000 METAR MROC 192000Z 25009KT 9999 SCT035TCU 26/21 A2994 HZ SW LEVE ARND BECMG=
201011192100 METAR MROC 192100Z 24011KT 9999 FEW020TCU SCT035 25/22 A2993 RMK HZY BECMG=
201011192200 METAR MROC 192200Z 25007KT 7000 -RA FEW017TCU BKN030 22/22 A2995 RMK HZY BECMG 9999 -RA=
201011192300 METAR MROC 192300Z 26006KT 7000 3000SW BCFG FEW003 SCT015 BKN120 21/21 A2997 VIS ESE SE UNL BECMG 4000 BR=
201011200000 METAR MROC 200000Z 24003KT 4000 BR FEW002 BKN007 21/21 A2999 RMK VIS ESE SE 8KMS BECMG 2000 -RA BR=
201011200100 METAR MROC 200100Z 00000KT 8000 VCFG FEW005 BKN015 21/21 A3001 RMK VIS ESE SE UNL BECMG=
201011200200 METAR MROC 200200Z 00000KT 8000 VCFG SCT005 BKN015 21/21 A3004 RMK VIS SW W 5KMS BECMG 5000 BR=
201011200300 METAR MROC 200300Z 00000KT 3000 -RA BR SCT004 BKN015 20/20 A3006 BECMG 2000 -RA BR=
201011200400 METAR MROC 200400Z 00000KT 1500 BR SCT001 BKN015 20/20 A3006 BECMG=
201011200500 METAR MROC 200500Z 00000KT 2000 BR FEW002 BKN015 20/20 A3005 BECMG=
201011200600 METAR MROC 200600Z 00000KT 9999 12000W DZ BR FEW001 SCT015 BKN100 20/20 A3003 BECMG 08005KT=
201011200700 METAR MROC 200700Z 00000KT 9999 2000W BR FEW001 SCT015 BKN100 20/20 A3001 BECMG 08005KT=
201011200800 METAR MROC 200800Z 33003KT 9999 SCT025 BKN100 20/20 A2999 RMK HZ ARND BECMG=
201011200900 METAR MROC 200900Z 08003KT 9999 -DZ SCT025 BKN100 20/20 A2999 BECMG=
201011201000 METAR MROC 201000Z 04004KT 9999 SCT925 BKN100 20/20 A2998 REDZ BECMG=
201011201100 METAR MROC 201100Z 05008KT 9999 SCT025 BKN100 19/19 A2999 BECMG=
201011201200 METAR MROC 201200Z 05002KT 9999 SCT025 BKN100 20/19 A3001 RMK RA DST NE E BECMG=
201011201300 METAR MROC 201300Z 10003KT 9999 FEW025 BKN080 21/19 A3004 RMK PCPN DST N E SE BECMG=
201011201400 METAR MROC 201400Z 13008KT 9999 FEW025 SCT100 24/19 A3006 RMK PCPN DST N NE BECMG=
201011201500 METAR MROC 201500Z 11008KT 9999 FEW030 SCT100 25/19 A3007 RMK FEW250 CB DST SSW SW PCPN DST N NE BECMG=
201011201600 METAR MROC 201600Z 10010KT 9999 FEW030 SCT080 26/19 A3006 DZ DST N NE BECMG=
201011201700 METAR MROC 201700Z 11008KT 9999 FEW030 SCT120 BKN250 25/18 A3004 RMK PCPN DST N NE BECMG=
201011201800 METAR MROC 201800Z 11007KT 9999 FEW035 SCT100 25/18 A3002 PCPN DST N NE BECMG=
201011201900 METAR MROC 201900Z 12011KT 9999 SCT030 SCT100 25/18 A3000 RMK PCPN DST N NE E VEL MAX VTO 18KT BECMG=
201011202000 METAR MROC 202000Z 14011KT 9999 SCT030 BKN100 23/16 A2997 RMK PCPN DST N NE VEL MAX VTO 16KT BECMG=
201011202100 METAR MROC 202100Z 13009KT 9999 FEW030 SCT080 24/16 A2996 RMK SCT200 TCU DST S SW PCPN DST E BECMG=
201011202200 METAR MROC 202200Z 13014KT 9999 FEW030 BKN200 24/16 A2997 RMK FEW080 FEW110 TCU DST SW BECMG=
201011202300 METAR MROC 202300Z 14011KT 9999 FEW040 SCT200 22/16 A2998 RMK FEW140 TCU DST SW BECMG=
201011210000 METAR MROC 210000Z VRB02KT 9999 FEW040 SCT140 21/16 A3001 RMK TCU DST SW W BECMG=
201011210100 METAR MROC 210100Z 06004KT 9999 FEW040 SCT140 20/16 A3003 BECMG=
201011210200 METAR MROC 210200Z 06007KT 9999 FEW040 20/16 A3004 RMK FEW140 BECMG=
201011210300 METAR MROC 210300Z 13007KT CAVOK 21/17 A3004 RMK SCT120 BECMG=
201011210400 METAR MROC 210400Z 07005KT CAVOK 20/17 A3005 RMK SCT120 BECMG=
201011210500 METAR MROC 210500Z 11003KT CAVOK 21/18 A3004 RMK SCT120 BECMG=
201011210600 METAR MROC 210600Z 06008KT CAVOK 20/17 A3003 RMK SCT120 BECMG=
201011210700 METAR MROC 210700Z 36003KT CAVOK 19/17 A3002 RMK FEW120 BECMG=
201011210800 METAR MROC 210800Z 00000KT CAVOK 19/17 A3000 RMK SCT120 BECMG=
201011210900 METAR MROC 210900Z 00000KT CAVOK 19/17 A3000 RMK SCT120 BECMG=
201011211000 METAR MROC 211000Z 08007KT CAVOK 20/18 A3001 RMK SCT120 BECMG=
201011211100 METAR MROC 211100Z 09005KT CAVOK 20/18 A3002 RMK SCT120 BECMG=
201011211200 METAR MROC 211200Z 05006KT 9999 FEW045 SCT250 20/18 A3004 BECMG=
201011211300 METAR MROC 211300Z 04004KT 9999 FEW040 SCT250 21/18 A3007 RMK FEW120 BECMG=
201011211400 METAR MROC 211400Z 14007KT 9999 FEW040 SCT110 24/18 A3008 RMK FEW250 BECMG=
201011211500 METAR MROC 211500Z 13004KT 9999 FEW040 BKN110 23/18 A3010 RMK PCPN DST QUAD E S FEW070 BECMG=
201011211600 METAR MROC 211600Z 25005KT 9999 FEW045 BKN110 24/20 A3009 RMK PCPN DST QUAD E FEW070 BECMG=
201011211700 METAR MROC 211700Z 23005KT 8000 VCSH FEW040 BKN080 22/21 A3008 RMK VIS W UNL BECMG=
201011211800 METAR MROC 211800Z VRB02KT 9999 -RA FEW022 BKN080 21/20 A3006 RERA RMK PCPN DST S BECMG=
201011211900 METAR MROC 211900Z 10007KT 9999 FEW020 BKN100 22/19 A3002 RMK RN DST N NE BECMG=
201011212000 METAR MROC 212000Z 09006KT 9999 VCSH FEW020 OVC100 22/17 A3002 RMK VIS E 7 KMS DUE RN BECMG 5000 -RA=
201011212100 METAR MROC 212100Z 08002KT 9999 -RA FEW020 OVC100 20/19 A3001 BECMG=
201011212200 METAR MROC 212200Z 11004KT 9999 -RA FEW020 OVC100 20/19 A3001 BECMG=
201011212300 METAR MROC 212300Z 12010KT 9999 -RA OVC100 20/18 A3001 BECMG=
201011220000 METAR MROC 220000Z 12009KT 9999 -DZ OVC100 20/18 A3002 BECMG=
201011220100 METAR MROC 220100Z 08006KT 040V100 9999 -DZ OVC100 20/18 A3003 BECMG=
201011220200 METAR MROC 220200Z 08007KT CAVOK 20/17 A3003 RMK OVC100 BECMG=
201011220300 METAR MROC 220300Z 13010KT CAVOK 21/17 A3005 OVC100 BECMG=
201011220400 METAR MROC 220400Z 13010KT CAVOK 21/17 A3005 RMK OVC100 BECMG=
201011220500 METAR MROC 220500Z 14010KT CAVOK 20/17 A3002 RMK OVC100 BECMG=
201011220600 METAR MROC 220600Z 10004KT CAVOK 20/17 A3001 RMK OVC100 BECMG=
201011220700 METAR MROC 220700Z 25005KT CAVOK 19/18 A3001 RMK BKN120 BECMG=
201011220800 METAR MROC 220800Z 09003KT CAVOK 19/18 A3000 RMK BKN120 BECMG=
201011220900 METAR MROC 220900Z 12004KT  CAVOK 20/17 A2999 RMK BKN120 BECMG=
201011221000 METAR MROC 221000Z 08004KT CAVOK 20/17 A2999 RMK BKN100 BECMG=
201011221100 METAR MROC 221100Z 13009KT CAVOK 20/17 A3000 RMK BKN100 BECMG=
201011221200 METAR MROC 221200Z 13008KT CAVOK 20/17 A3001 RMK SCT120 BKN250 CB DST S SW BECMG=
201011221300 METAR MROC 221300Z 13007KT CAVOK 21/17 A3002 RMK SCT120 BKN250 CB DST S SW=
201011221400 METAR MROC 221400Z 12005KT 9999 FEW040 BKN250 24/18 A3002 BECMG=
201011221500 METAR MROC 221500Z 09007KT 9999 FEW040 BKN250 25/18 A3003 BECMG=
201011221600 METAR MROC 221600Z 08017KT 9999 SCT040 SCT250 26/16 A3004 BECMG=
201011221700 METAR MROC 221700Z 10014KT 9999 SCT040 SCT250 26/16 A3002 BECMG=
201011221800 METAR MROC 221800Z 08007KT 9999 SCT040 SCT100 26/17 A2999 BECMG=
201011221900 METAR MROC 221900Z 11008KT 9999 SCT030 SCT100 25/18 A2997 BECMG=
201011222000 METAR MROC 222000Z 11009KT 9999 SCT030 BKN070 25/18 A2995 BECMG=
201011222100 METAR MROC 222100Z 08002KT 9999 -RA BKN030 24/19 A2994 BECMG=
201011222200 METAR MROC 222200Z 12008KT 9999 BKN030 24/18 A2995 RMK RA DST N NE BECMG=
201011222300 METAR MROC 222300Z 10007KT 9999 BKN025 22/18 A2997 RMK RA DST N NE BECMG=
201011230000 METAR MROC 230000Z 10002KT 9999 SCT025 22/19 A2999 BECMG=
201011230100 METAR MROC 230100Z 14004KT 9999 SCT025 22/18 A3000 BECMG=
201011230200 METAR MROC 230200Z 05003KT 9999 SCT025 21/20 A3004 BECMG=
201011230300 METAR MROC 230300Z VRB02KT 9999 -DZ FEW040 BKN100 20/20 A3004 BECMG=
201011230400 METAR MROC 230400Z 00000KT 9999 -RADZ SCT080 BKN120 20/20 A3005 BECMG=
201011230500 METAR MROC 230500Z 00000KT 9999 FEW020 BKN120 20/20 A3002 RMK FEW080 BECMG=
201011230600 METAR MROC NIL=
201011230700 METAR MROC 230700Z 12007KT 9999 FEW030 BKN120 20/18 A2997 BECMG=
201011230800 METAR MROC NIL=
201011230900 METAR MROC NIL=
201011230933 METAR MROC 230933Z NIL=
201011230935 METAR MROC 230935Z 08004KT 9999 FEW020 BKN110 20/18 A2994 BECMG=
201011230937 METAR MROC 230937Z NIL=
201011231000 METAR MROC 231000Z 00000KT 9999 FEW030 BKN110 19/18 A2995 BECMG=
201011231027 METAR MROC 231027Z 08007KT 050V120 9999 FEW030 BKN110 21/18 A2995 BECMG=
201011231100 METAR MROC 231100Z 14008KT 9999 FEW030 BKN110 21/18 A2995 BECMG=
201011231200 METAR MROC 231200Z 10005KT 9999 FEW020 SCT120 BKN250 20/18 A2996 RMK BCFG QUAD N E TCU DST S SW BECMG=
201011231300 METAR MROC 231300Z 11008KT 9999 FEW020 SCT120 BKN250 21/18 A2997 RMK RA DST N NE BECMG=
201011231400 METAR MROC 231400Z 13014KT 9999 FEW020 SCT120 BKN250 23/19 A2998 RMK RA DST N NE BECMG=
201011231500 METAR MROC 231500Z 13010KT 9999 FEW020 SCT120 BKN250 24/19 A2998 RMK RA DST N NE BECMG=
201011231600 METAR MROC 231600Z 11010KT 9999 FEW020 SCT120 BKN250 23/19 A2998 RMK RA DST N NE BECMG=
201011231700 METAR MROC 231700Z 17004KT 9999 FEW020 SCT110 BKN250 25/20 A2997 RMK RA DST N NE BECMG=
201011231800 METAR MROC 231800Z 14011KT 9999 -RA SCT015 BKN110 24/19 A2995 BECMG=
201011231900 METAR MROC 231900Z 12006KT 9999 SCT015 SCT110 BKN250 23/20 A2994 RMK RA DST N NE BECMG/=
201011232000 METAR MROC 232000Z 14007KT 9999 -RA SCT015 OVC100 21/19 A2992 BECMG=
201011232100 METAR MROC 232100Z 13005KT 9999 DZ FEW035 OVC090 21/20 A2991 RMK HVH652 232100Z GG EDDFDLHS 232100Z MHTGYGYX SVC ADS VHH246 EDDFDLHS FF MROCZPZX MHTGZQZX MHCCZQZX MHCCZFZX UNKNOWN MHTGZQZX=
201011232200 METAR MROC 232200Z 07003KT 9999 FEW040 BKN120 22/20 A2990 RMK DZ DST NE E BECMG=
201011232300 METAR MROC 232300Z 13008KT 9999 FEW040 BKN120 21/17 A2991 RMK FEW250 BECMG=
201011240000 METAR MROC 240000Z 12007KT CAVOK 21/17 A2991 RMK SCT120 SCT250 BECMG=
201011240100 METAR MROC 240100Z 12009KT CAVOK 21/17 A2995 RMK FEW120 SCT250 BECMG=
201011240200 METAR MROC 240200Z 12008KT CAVOK 21/17 A2997 RMK SCT120 SCT250 BECMG=
201011240300 METAR MROC 240300Z 13007KT CAVOK 21/17 A2998 RMK SCT120 SCT250 BECMG=
201011240400 METAR MROC 240400Z 13008KT CAVOK 21/17 A2999 RMK SCT120 BKN250 BECMG=
201011240500 METAR MROC 240500Z 00000KT 9999 1200W BR FEW004 SCT120 19/19 A2998 BECMG=
201011240600 METAR MROC 240600Z 13006KT CAVOK 21/17 A2997 RMK SCT120 BKN250 BECMG=
201011240700 METAR MROC 240700Z 12006KT CAVOK 21/17 A2996 RMK SCT120 BKN250 BECMG=
201011240800 METAR MROC 240800Z 10004KT CAVOK 20/17 A2993 RMK SCT120 BKN250 BECMG=
201011240900 METAR MROC 240900Z 13008KT CAVOK 20/17 A2991 RMK SCT120 BKN250 BECMG=
201011241000 METAR MROC 241000Z 12008KT CAVOK 20/17 A2991 RMK SCT120 BKN250 BECMG=
201011241100 METAR MROC 241100Z 12009KT CAVOK 20/16 A2992 RMK SCT120 BKN250 BECMG=
201011241200 METAR MROC 241200Z 13007KT CAVOK 19/16 A2993 RMK SCT120 BKN250 BECMG=
201011241300 METAR MROC 241300Z 14007KT 9999 FEW040 SCT250 21/17 A2996 BECMG=
201011241400 METAR MROC 241400Z 13007KT CAVOK 23/18 A2998 RMK SCT120 BECMG=
201011241500 METAR MROC 241500Z 13009KT 9999 FEW035 SCT120 26/17 A2999 BECMG=
201011241600 METAR MROC 241600Z 13009KT 9999 SCT035 27/17 A2997 BECMG=
201011241700 METAR MROC 241700Z 12006KT 9999 SCT035 28/16 A2995 BECMG 24006KT=
201011241800 METAR MROC 241800Z 25011KT 9999 SCT040 27/21 A2993 RMK TCU DST QUAD S BECMG=
201011241900 METAR MROC 241900Z 23009KT 9999 FEW020TCU SCT035 25/21 A2990 RMK TCU ARND BECMG VCSH=
201011242000 METAR MROC 242000Z 24009KT 9999 VCSH FEW020TCU SCT035 25/22 A2987 RMK FEW200 BECMG=
201011242100 METAR MROC 242100Z 24009KT 9999 VCSH FEW010 FEW017CB BKN030 24/21 A2987 VIS SE SSE 8KMS RASH DST WNW SSW BECMG 6000 SHRA=
201011242200 METAR MROC 242200Z 23004KT 7000 -SHRA FEW005 FEW015CB BKN025 21/21 A2988 RMK VIS SE S UNLTD BECMG=
201011242300 METAR MROC 242300Z 25004KT 7000 DZ FEW005 SCT010 BKN020 21/21 A2990 RMK VIS SSE S UNL VIS RED DUE LOW ST BECMG 5000 BR=
201011250000 METAR MROC 250000Z 00000KT 6000 -RA SCT005 BKN010 20/20 A2991 VIS SE S 8KMS BECMG 8000 VCFG=
201011250100 METAR MROC 250100Z 00000KT 4000 BR SCT003 BKN010 20/20 A2994 BECMG=
201011250200 METAR MROC 250200Z 00000KT 0800 FG BKN001 20/20 A2996 BECMG 3000=
201011250300 METAR MROC 250300Z 00000KT 7000 3000SW BCFG FEW025 SCT120 BKN250 20/20 A2998 BECMG=
201011250400 METAR MROC 250400Z 00000KT 9999 BCFG FEW025 SCT120 19/19 A2997 RMK VIS SW 6000 BECMG=
201011250500 METAR MROC 250500Z 00000KT 9999 1200W BR FEW004 SCT120 19/19 A2998 BECMG=
201011250600 METAR MROC 250600Z 00000KT 0500 FG BKN001 19/19 A2996 BECMG 2000 BR=
201011250700 METAR MROC 250700Z 00000KT 9999 BCFG 18/18 A2995 RMK VIS W 7000 BECMG=
201011250800 METAR MROC 250800Z 00000KT 9999 4000W BR 17/17 A2993 BECMG 2000 BR=
201011250900 METAR MROC 250900Z 00000KT 4000 BR BKN004 18/18 A2993 BECMG=
201011251000 METAR MROC 251000Z 00000KT 4000 BR SCT004 17/17 A2994 BECMG=
201011251100 METAR MROC 251100Z 09006KT 9999 BCFG FEW004 SCT120 17/17 A2995 RMK VIS W 6000 BECMG=
201011251200 METAR MROC 251200Z 07004KT CAVOK 17/17 A2997 RMK FEW100 SCT250 BECMG=
201011251300 METAR MROC 251300Z 07006KT CAVOK 19/18 A2998 RMK FEW120 SCT250 CB DST SW BECMG=
201011251400 METAR MROC 251400Z 09005KT CAVOK 22/18 A3001 RMK SCT120 SCT250 CB DST SW BECMG=
201011251500 METAR MROC 251500Z 13006KT CAVOK 25/19 A3001 RMK BKN140 FEW250 BECMG=
201011251600 METAR MROC 251600Z 15008KT 9999 SCT040 27/18 A3000 RMK FEW140 BECMG 24007KT=
201011251700 METAR MROC 251700Z 24007KT 9999 FEW025TCU BKN040 25/20 A2998 BECMG=
201011251800 METAR MROC 251800Z 24008KT 9999 FEW025 SCT040 26/22 A2996 RMK LGT HZ ARND BECMG VCSH=
201011251900 METAR MROC 251900Z 23008KT 9999 FEW020TCU SCT035 26/21 A2992 RMK PCPN DST E BECMG VCSH=
201011252000 METAR MROC 252000Z 24011KT 9999 VCSH FEW017CB BKN025 25/22 A2992 RMK VIS WNW NW 8KMS BECMG 7000 -SHRA=
201011252100 METAR MROC 252100Z 28008KT 8000 VCSH FEW020TCU BKN045 23/22 A2992 RMK VIS E UNL PCPN QUAD N E S W VIS 5KM N SE BECMG 5000 RA BR BKN020=
201011252200 METAR MROC 252200Z 25003KT 5000 2000SW RA BR FEW001 SCT020 BKN080 21/21 A2992 RMK VIS E UNL PCPN QUAD S W BECMG 6000=
201011252300 METAR MROC 252300Z VRB02KT 5000 2000SW BR FEW001 SCT015 BKN050 20/20 A2996 RMK PCPN QUAD E BECMG 3000=
201011260000 METAR MROC 260000Z 09004KT 9999 FEW020 BKN090 20/20 A2996 RMK LW ST SW BECMG=
201011260100 METAR MROC 260100Z 09003KT 9999 FEW020 BKN110 21/20 A2998 RMK LW ST SW BECMG=
201011260200 METAR MROC 260200Z 00000KT 9999 FEW030 BKN110 21/20 A3000 RMK LW ST SW BECMG=
201011260300 METAR MROC 260300Z 05004KT 9999 FEW030 BKN110 21/20 A3001 BECMG=
201011260400 METAR MROC 260400Z 08006KT CAVOK 21/19 A3001 RMK SCT120 SCT250 BECMG=
201011260500 METAR MROC 260500Z 05006KT CAVOK 21/20 A3000 RMK SCT120 SCT250 BECMG=
201011260600 METAR MROC 260600Z 08004KT CAVOK 20/19 A2998 RMK BKN120 BECMG=
201011260700 METAR MROC 260700Z 00000KT CAVOK 20/20 A2997 RMK BKN120 BECMG=
201011260800 METAR MROC 260800Z 10004KT CAVOK 21/19 A2996 RMK BKN120 BECMG=
201011260900 METAR MROC 260900Z 08004KT CAVOK 19/19 A2995 RMK BKN120 BECMG=
201011261000 METAR MROC 261000Z 00000KT CAVOK 20/19 A2995 RMK BKN120 BECMG=
201011261100 METAR MROC 261100Z 00000KT CAVOK 19/18 A2999 RMK FEW120 SCT250 BECMG=
201011261200 METAR MROC 261200Z 00000KT CAVOK 19/18 A2999 RMK FEW120 SCT250 BECMG=
201011261300 METAR MROC 261300Z 00000KT CAVOK 21/20 A3001 RMK SCT120 SCT250 TCU DST SW BECMG=
201011261400 METAR MROC 261400Z 00000KT CAVOK 23/20 A3002 RMK SCT120 FEW200 TCU DST SW BECMG 24008KT=
201011261500 METAR MROC 261500Z 00000KT 9999 FEW040 25/19 A3002 RMK FEW200 TCU DST SW NE BECMG 24008KT=
201011261600 METAR MROC 261600Z 25008KT 9999 FEW035 26/22 A3002 RMK FEW200 TCU DST ARND BECMG=
201011261700 METAR MROC 261700Z 26007KT 9999 SCT040 SCT200 26/20 A3000 RMK TCU DST ARND PCPN NE E BECMG=
201011261800 METAR MROC 261800Z 28009KT 9999 FEW020TCU SCT040 27/21 A2997 RMK FEW100 FEW200 PCPN DST N E S BECMG 8000 VCSH=
201011261900 METAR MROC 261900Z 24010KT 9999 FEW020 SCT040CB 27/22 A2994 RMK FEW110 PCPN QUAD E S BECMG 8000=
201011262000 METAR MROC 262000Z 23005KT 9999 4000N TSRA BR FEW010 BKN040 23/23 A2993 RMK FEW110 FEW200 BECMG=
201011262100 METAR MROC 262100Z 00000KT 9999 FEW010 BKN040 22/22 A2992 RERA BECMG=
201011262200 METAR MROC 262200Z 24003KT 9999 FEW010 BKN040 22/21 A2994 BECMG=
201011262300 METAR MROC 262300Z 00000KT 9999 4000N BR FEW002 SCT030 BKN080 21/21 A2995 BECMG=
201011270000 METAR MROC 270000Z 31004KT 9000 BCFG FEW002 SCT025 BKN080 21/21 A2997 BECMG=
201011270100 METAR MROC 270100Z 27005KT 9000 BCFG FEW002 SCT030 BKN080 21/21 A2999 BECMG=
201011270200 METAR MROC 270200Z VRB02KT 9999 BCFG FEW002 SCT080 21/21 A3000 BECMG=
201011270300 METAR MROC 270300Z 00000KT CAVOK 20/20 A3002 RMK SCT100 BECMG=
201011270400 METAR MROC 270400Z 07006KT CAVOK 20/20 A3002 RMK SCT120 BECMG=
201011270500 METAR MROC 270500Z 09003KT CAVOK 21/20 A3001 RMK BKN120 BECMG=
201011270600 METAR MROC 270600Z 03003KT CAVOK 21/20 A3000 RMK BKN120 HZY BECMG=
201011270700 METAR MROC 270700Z 09005KT CAVOK 21/20 A2999 RMK BKN120 HZY BECMG=
201011270800 METAR MROC 270800Z 05005KT CAVOK 21/19 A2997 RMK BKN120 LTNG DST S BECMG=
201011270900 METAR MROC 270900Z 09004KT CAVOK 21/19 A2996 RMK BKN120 BECMG=
201011271000 METAR MROC 271000Z 00000KT CAVOK 20/19 A2998 RMK BKN120 BECMG=
201011271100 METAR MROC 271100Z 00000KT CAVOK 20/19 A2998 RMK BKN120 BECMG=
201011271200 METAR MROC 271200Z 08006KT CAVOK 20/19 A2999 RMK BKN120 BECMG=
201011271300 METAR MROC 271300Z 04006KT CAVOK 22/19 A3001 RMK SCT120 CB DST SW=
201011271400 METAR MROC 271400Z 00000KT 9999 FEW040 SCT120 24/19 A3003 RMK CB DST SW BECMG 24007KT=
201011271500 METAR MROC 271500Z 08004KT 9999 FEW040 26/19 A3002 RMK CB DST S BECMG 24007K T=
201011271600 METAR MROC 271600Z 09006KT SCT030 26/20 A3002 RMK DZ DST N NE BECMG 24007KT=
201011271700 METAR MROC 271700Z 25006KT -RA 9999 BKN030 24/22 A3001 BECMG=
201011271800 METAR MROC 271800Z 23003KT 9999 SCT030 BKN070 24/20 A2998 RMK RA DST NE E S BECMG=
201011271900 METAR MROC 271900Z 10010KT 9999 FEW030 BKN070 26/19 A2996 BECMG=
201011272000 METAR MROC 272000Z 10009KT 9999 FEW030 BKN070 25/18 A2993 BECMG=
201011272100 METAR MROC 272100Z 11010KT 9999 SCT025 SCT100 25/16 A2992 RMK DZ DST N NE BECMG=
201011272200 METAR MROC 272200Z 08006KT 9999 SCT025 SCT120 24/17 A2994 RMK DZ DST N NE BECMG=
201011272300 METAR MROC 272300Z 11010KT 9999 SCT030 SCT120 23/18 A2995 RMK DZ DST N NE BECMG=
201011280000 METAR MROC 280000Z 15002KT 9999 SCT030 SCT120 22/18 A2996 BECMG=
201011280100 METAR MROC 280100Z 04004KT 9999 FEW030 21/19 A2998 BECMG=
201011280200 METAR MROC 280200Z 05008KT 9999 FEW030 22/18 A3000 BECMG=
201011280300 METAR MROC 280300Z 08006KT 9999 FEW030 SCT120 21/18 A3000 BECMG=
201011280400 METAR MROC 280400Z 07009KT 9999 FEW030 SCT120 21/19 A3000 BECMG=
201011280500 METAR MROC 280500Z 28004KT 9999 FEW030 SCT120 20/19 A3000 BECMG=
201011280600 METAR MROC 280600Z 00000KT 9999 FEW030 SCT120 20/18 A3000 BECMG=
201011280700 METAR MROC 280700Z 00000KT 9999 FEW030 SCT120 19/19 A2999 BECMG=
201011280800 METAR MROC 280800Z 12005KT 9999 FEW030 SCT120 21/18 A2997 BECMG=
201011280900 METAR MROC 280900Z 10006KT 9999 FEW030 SCT120 21/18 A2997 BECMG=
201011281000 METAR MROC 281000Z 11007KT 9999 FEW030 SCT120 21/18 A2997 BECMG=
201011281100 METAR MROC 281100Z 09007KT 9999 FEW030 SCT120 21/17 A2999 BECMG=
201011281200 METAR MROC 281200Z VRB02KT 9999 FEW030 BKN110 21/17 A3001 RMK FEW080 BECMG=
201011281300 METAR MROC 281300Z 12005KT 9999 FEW025 BKN110 22/18 A3003 RMK RA DST NE BECMG=
201011281400 METAR MROC 281400Z 10005KT 9999 FEW025 SCT110 BKN250 23/18 A3004 RMK RA DST NE BECMG=
201011281500 METAR MROC 281500Z 13006KT 9999 FEW025 BKN250 26/19 A3004 RMK FEW110 PCPN DST NE BECMG=
201011281600 METAR MROC 281600Z 13006KT 9999 FEW015 BKN030 25/18 A3004 RMK PCPN DST NE BECMG=
201011281700 METAR MROC 281700Z 14009KT 9999 FEW015 SCT030 BKN100 25/18 A3002 RMK PCPN DST NE BECMG=
201011281800 METAR MROC 281800Z 14009KT 9999 SCT020 BKN100 25/18 A3000 RMK RA DST NE BECMG=
201011281900 METAR MROC 281900Z 14009KT 9999 SCT020 SCT100 28/18 A2996 RMK PCPN DST NE BECMG=
201011282000 METAR MROC 282000Z 25011KT 9999 SCT020TCU SCT100 25/20 A2995 BECMG=
201011282100 METAR MROC 282100Z 25010KT 9999 FEW015CB SCT020TCU 24/21 A2994 RMK FEW120 BECMG 8000 VCSH=
201011282200 METAR MROC 282200Z 25008KT 9999 SCT020 SCT250 23/20 A2995 RMK FEW100 BECMG=
201011282300 METAR MROC 282300Z 27006KT 9999 SCT020 SCT100 21/21 A2996 RMK FEW250 BECMG=
201011290000 METAR MROC 290000Z 25002KT 9999 SCT015 SCT100 21/21 A2997 BECMG=
201011290100 METAR MROC 290100Z 00000KT 9999 SCT015 SCT120 20/20 A2999 BECMG=
201011290200 METAR MROC 290200Z 00000KT 9999 FEW015 SCT120 20/20 A3001 BECMG=
201011290300 METAR MROC 290300Z 00000KT 9999 FEW020 SCT120 20/20 A3002 BECMG=
201011290400 METAR MROC 290400Z 10003KT 9999 FEW020 SCT120 20/19 A3002 BECMG=
201011290500 METAR MROC 290500Z 08007KT 9999 FEW030 SCT120 20/19 A3001 BECMG=
201011290600 METAR MROC 290600Z 00000KT CAVOK 20/19 A3001 RMK SCT120 BECMG=
201011290700 METAR MROC 290700Z 00000KT CAVOK 19/19 A2998 RMK SCT120 BECMG=
201011290800 METAR MROC 290800Z 00000KT 9999 2000SW BR FEW001 SCT120 19/19 A2997 BECMG=
201011290900 METAR MROC 290900Z 00000KT 7000 2000SW BR FEW001 SCT120 19/19 A2996 BECMG=
201011291000 METAR MROC 291000Z 03003KT 9999 3000SW BR FEW001 SCT120 18/18 A2996 BECMG=
201011291100 METAR MROC 291100Z 09005KT CAVOK 19/18 A2997 RMK SCT120 SCT250 BECMG=
201011291200 METAR MROC 291200Z 09004KT 9999 FEW002 SCT100 19/18 A2998 BECMG=
201011291300 METAR MROC 291300Z 09006KT 9999 FEW035 22/19 A3000 BECMG=
201011291400 METAR MROC 291400Z 12009KT 9999 FEW040 24/19 A3001 BECMG=
201011291500 METAR MROC 291500Z 12010KT 9999 SCT035 25/19 A3002 RMK DZ DST NE E BECMG=
201011291600 METAR MROC 291600Z 13008KT 9999 SCT035 SCT120 27/18 A3002 RMK DZ DST NE E BECMG=
201011291700 METAR MROC 291700Z 14010KT 9999 SCT035 SCT120 26/19 A2994 RMK DZ DST NE E BECMG=
201011291800 METAR MROC 291800Z 13008KT 9999 RA SCT035 SCT120 26/20 A2997 RMK VIS 7000SE RN DST N NE E BECMG=
201011291900 METAR MROC 291900Z 14007KT 9999 FEW020 27/19 A2993 BECMG 24005KT=
201011292000 METAR MROC 292000Z 15008KT 9999 FEW030 28/19 A2990 BECMG 24005KT=
201011292100 METAR MROC 292100Z 12005KT 9999 FEW020 BKN035 26/17 A2990 RMK TCU DST S W BECMG 24005KT=
201011292200 METAR MROC 292200Z 10004KT 9999 FEW020TCU BKN030 25/21 A2991 RMK LGT HZ W BECMG 24005KT=
201011292300 METAR MROC 292300Z 27007KT 9999 -RA FEW010 BKN030 23/22 A2992 RMK TCU DST W WNW BECMG=
201011300000 METAR MROC 300000Z 26004KT 9999 SCT015 BKN035 22/22 A2995 BECMG=
201011300100 METAR MROC 300100Z 00000KT 9999 -RA FEW020 BKN040 22/20 A2997 BECMG=
201011300200 METAR MROC NIL=
201011300300 METAR MROC 300300Z 00000KT 9999 SCT035 SCT250 21/18 A3000 BECMG=
201011300400 METAR MROC 300400Z 00000KT 9999 SCT035 SCT250 20/18 A3000 BECMG=
201011300500 METAR MROC 300500Z 13003KT 9999 FEW030 SCT120 19/16 A2998 RMK TRACE250 BECMG=
201011300600 METAR MROC 300600Z 14005KT 9999 FEW030 SCT120 19/17 A2997 BECMG=
201011300700 METAR MROC 300700Z 10006KT 9999 FEW030 SCT120 19/18 A2994 BECMG=
201011300800 METAR MROC 300800Z 08005KT 9999 -RA FEW030 SCT120 19/19 A2992 BECMG=
201011300900 METAR MROC 300900Z 00000KT 9999 FEW030 SCT120 20/19 A2990 BECMG=
201011301000 METAR MROC 301000Z 00000KT 9999 FEW030 SCT120 20/19 A2990 BECMG=
201011301100 METAR MROC 301100Z 00000KT 9999 FEW030 SCT120 20/19 A2991 BECMG=
201011301200 METAR MROC 301200Z 14005KT 9999 -RA FEW 15 SCT030 BKN100 21/20 A2993 BECMG=
201011301300 METAR MROC 301300Z 00000KT 9999 -RA FEW020 SCT030 BKN080 20/20 A2996 RMK PCPN FUERTE AL E SE BECMG=
201011301400 METAR MROC 301400Z 05006KT 9999 FEW030 SCT080 BKN120 22/21 A2996 RMK PCPN DST N NE BECMG=
201011301500 METAR MROC 301500Z 14003KT 9999 FEW030 SCT080 BKN120 24/22 A2997 RMK PCPN DST N NE E BECMG=
201011301600 METAR MROC 301600Z 25005KT 9999 FEW030 SCT070 BKN120 25/22 A2997 RMK PCPN DST N NE BECMG=
201011301700 METAR MROC 301700Z 19005KT 9999 SCT030 BKN070 24/21 A2996 RMK PCPN DST NW N NE SE BECMG=
201011301800 METAR MROC 301800Z 17006KT 9999 -RA FEW012 SCT030 BKN070 24/21 A2994 BECMG=
201011301900 METAR MROC 301900Z 00000KT 9999 -RA FEW005 SCT030 BKN100 23/22 A2992 BECMG=
201011302000 METAR MROC 302000Z 25004KT 9999 FEW010 SCT030 BKN110 25/22 A2989 BECMG=
201011302100 METAR MROC 302100Z 23005KT 8000 VCFG FEW010 SCT030 BKN100 22/22 A2990 RMK VIS S UNL VIS N 5KM BECMG=
201011302200 METAR MROC 302200Z 25006KT 9999 4000N -RA BR SCT018 BKN100 22/22 A2990 BECMG=
201011302300 METAR MROC 302300Z 26004KT 5000 2000SW -RA BR SCT020 BKN100 22/22 A2992 RNK VIS E 8KM PCPN QUAD S BECMG 3000 -RA BR=
201012010000 METAR MROC 010000Z VRB02KT 3000 1000W BR BCFG FEW001 SCT003 BKN010 21/21 A2996 BECMG 0800 FG OVC001=
201012010019 METAR MROC 010019Z 27004KT 2000 BR FEW001 SCT003 BKN010 21/21 A2997 BECMG 0800 FG OVC001=
201012010045 METAR MROC 010045Z 28003KT 1500 0500SW FG FEW001 SCT003 BKN120 21/21 A2998 BECMG 0800 FG OVC001=
201012010100 METAR MROC 010100Z VRB02KT 2000 BR FEW001 SCT003 BKN010 21/21 A2999 BECMG 0800 FG OVC001=
201012010200 METAR MROC 010200Z 00000KT 7000 3000SW BR FEW001 SCT030 BKN120 21/21 A3000 BECMG=
201012010300 METAR MROC NIL=
201012010400 METAR MROC 010400Z 00000KT 9999 BCFG FEW035 SCT070 BKN100 21/21 A3002 RMK BCFG S SW W BECMG=
201012010500 METAR MROC 010500Z 00000KT 8000 RA OVC080 21/21 A3001 BECMG=
201012010600 METAR MROC 010600Z 00000KT 9999 OVC080 20/20 A3001 BECMG=
201012010700 METAR MROC 010700Z 00000KT 9999 4500SW RA BR FEW001 BKN080 20/20 A2997=
201012010800 METAR MROC 010800Z 00000KT 9999 4500SW -RA BR FEW006 SCT030 BKN100 20/20 A2996 BECMG=
201012010900 METAR MROC 010900Z 00000KT 9999 4500SW BR FEW002 SCT020 BKN100 20/20 A2994 BECMG=
201012011000 METAR MROC 011000Z 00000KT 9999 4000SW -RA BR FEW002 SCT020 BKN100 20/20 A2996 BECMG 3000 -RA BR=
201012011100 METAR MROC 011100Z 00000KT 6000 -RA FEW030 BKN100 20/20 A2997 BECMG=
201012011200 METAR MROC 011200Z 09003KT 9999 3000SW RA BR FEW010 BKN100 20/20 A2999 BECMG=
201012011300 METAR MROC 011300Z 00000KT 9999 4000SW -RA BR FEW012 BKN100 20/20 A3000 RERA RMK VIS 4KM N BECMG=
201012011400 METAR MROC 011400Z VRB02KT 1600 RA BR FEW001 SCT012 BKN100 20/20 A3003 BECMG=
201012011500 METAR MROC 011500Z 10004KT 9999 4000SE -RA BR FEW001 SCT035 BKN100 20/20 A3002 BECMG=
201012011600 METAR MROC 011600Z 11003KT 9999 4000SW -RA BR FEW001 SCT040 BKN100 21/21 A3003 RMK PCPN DST QUAD E S BECMG=
201012011700 METAR MROC 011700Z VRB02KT 9999 FEW040 BKN100 22/21 A2999 RMK PCPN DST QUAD NE E SE BECMG 24004KT=
201012011800 METAR MROC 011800Z 13006KT 4000 RA BR FEW001 SCT030 BKN100 20/20 A2998 BECMG 2000 +RA=
201012011900 METAR MROC 011900Z 10007KT 3000 RA BR FEW001 SCT030 BKN100 20/20 A2995 BECMG 2000 +RA=
201012012000 METAR MROC 012000Z 09004KT 9999 -RA FEW020 SCT080 BKN100 20/20 A2993 RERA RMK LGT BR ARND BECMG 6000=
201012012100 METAR MROC 012100Z 08004KT 9999 -RA FEW020 BKN120 20/20 A2992 RMK VIS 7KM QUAD N FEW070 FEW040 BECMG=
201012012200 METAR MROC 012200Z 14004KT 9000 RA VCFG FEW025 BKN110 20/20 A2993 RMK FEW070 VIS W UNLD BECMG 6000=
201012012300 METAR MROC 012300Z 15003KT 9999 -RA VCFG FEW025 OVC110 20/19 A2995 RERA RMK SCT060 VIS QUAD N 8KM BECMG=
201012020000 METAR MROC 020000Z VRB02KT 9999 -RA FEW015 BKN100 19/19 A2998 RMK FEW060 BECMG=
201012020100 METAR MROC 020100Z VRB02KT 9999 -DZ FEW025 BKN110 19/19 A3001 RMK FEW070 BECMG=
201012020200 METAR MROC 020200Z 13005KT 9999 FEW030 BKN110 19/19 A3002 BECMG=
201012020300 METAR MROC 020300Z 11005KT 9999 -DZ FEW030 BKN110 19/18 A3004 BECMG=
201012020400 METAR MROC 020400Z 09003KT 9999 -RA FEW035 BKN100 19/19 A3004 BECMG=
201012020500 METAR MROC 020500Z 10004KT 9999 -RA FEW035 BKN100 19/18 A3002 BECMG=
201012020600 METAR MROC 020600Z 09008KT 9999 -RA SCT035 BKN100 18/18 A3001 BECMG=
201012020700 METAR MROC 020700Z 10005KT 9999 -RA SCT035 BKN100 18/18 A2999 BECMG=
201012020800 METAR MROC 020800Z 05004KT 9999 -DZ SCT035 BKN100 18/18 A2997=
201012020900 METAR MROC 020900Z 11005KT 9999 -RA SCT035 BKN100 18/18 A2996=
201012021000 METAR MROC 021000Z 09005KT 9999 -RA SCT035 BKN100 18/18 A2997=
201012021100 METAR MROC 021100Z 08006KT 9999 -DZ SCT030 BKN100 19/18 A2999=
201012021200 METAR MROC 021200Z 07004KT 9999 -DZ SCT030 BKN100 19/19 A3000 RMK RN DST N E SE S=
201012021300 METAR MROC 021300Z 12004KT 9999 FEW045 BKN080 20/19 A3002 RMK VIS 8KM NE RN DST N/NE/E BECMG=
201012021400 METAR MROC 021400Z 13006KT 100V160 9999 -RA FEW045 BKN080 20/19 A3005 RMK VIS 8KM NE BECMG=
201012021500 METAR MROC 021500Z 11006KT 9999 FEW040 BKN100 21/19 A3006 RMK VIS 8KM NE DUE RN BECMG=
201012021600 METAR MROC 021600Z 13006KT 9999 FEW045 SCT080 BKN130 22/19 A3005 BECMG=
201012021700 METAR MROC 021700Z 13006KT 9999 FEW040 SCT060 BKN130 24/19 A3002 BECMG=
201012021800 METAR MROC 021800Z 13009KT 9999 FEW040 SCT070 BKN170 24/19 A2999 BECMG=
201012021900 METAR MROC 021900Z 14007KT 100V160 9999 FEW040 SCT060 SCT120 25/19 A2996 BECMG=
201012022000 METAR MROC 022000Z 14010KT 9999 FEW035 SCT050 BKN120 23/18 A2995 RMK VEL MAX VTO 15KT BECMG=
201012022100 METAR MROC 022100Z 14015KT 9999 FEW030 SCT050 BKN120 23/18 A2994 BECMG=
201012022200 METAR MROC 022200Z 00000KT 9999 FEW030 BKN100 22/18 A2995 BECMG=
201012022300 METAR MROC 022300Z 00000KT 9999 FEW030 BKN100 21/18 A2997 BECMG=
201012030000 METAR MROC 030000Z 00000KT 9999 FEW030 BKN100 21/18 A2998 BECMG=
201012030100 METAR MROC 030100Z 11010KT 9999 FEW030 SCT100 20/17 A3001 BECMG=
201012030200 METAR MROC 030200Z 10007KT 9999 FEW030 SCT100 20/15 A3003 BECMG=
201012030300 METAR MROC 030300Z 13010KT 9999 FEW030 SCT100 19/15 A3004 BECMG=
201012030400 METAR MROC 030400Z 13008KT 9999 FEW030 SCT100 20/16 A3004 BECMG=
201012030500 METAR MROC 030500Z 11010KT 9999 FEW030 SCT100 20/15 A3003 BECMG=
201012030600 METAR MROC 030600Z 11009KT 9999 FEW040 SCT110 19/15 A3001 BECMG=
201012030700 METAR MROC 030700Z 09011KT CAVOK 19/15 A2999 RMK SCT110 BECMG=
201012030800 METAR MROC 030800Z 11009KT CAVOK 20/14 A2997 RMK SCT110 BECMG=
201012030900 METAR MROC 030900Z 11008KT CAVOK 20/14 A2996 RMK SCT110 BECMG=
201012031000 METAR MROC 031000Z 12008KT CAVOK 19/15 A2997 RMK FEW110 BECMG=
201012031100 METAR MROC 031100Z 12007KT CAVOK 19/15 A2999 RMK FEW110 BECMG=
201012031200 METAR MROC 031200Z 10005KT 9999 FEW040 BKN250 19/14 A3000 RMK PCPN DST NE BECMG=
201012031300 METAR MROC 031300Z 10003KT CAVOK 21/15 A3002 RMK SCT250 BECMG=
201012031400 METAR MROC 031400Z 09005KT CAVOK 23/15 A3003 RMK FEW250 BECMG=
201012031500 METAR MROC 031500Z 11009KT CAVOK 24/16 A3004 RMK FEW250 BECMG=
201012031600 METAR MROC 031600Z 11010KT 9999 FEW040 SCT250 25/16 A3004 BECMG=
201012031700 METAR MROC 031700Z 11010G20KT 9999 FEW040 SCT300 26/15 A3002 RMK DZ NE BECMG=
201012031800 METAR MROC 031800Z 12005KT 9999 FEW040 SCT300 27/15 A2999 BECMG=
201012031900 METAR MROC 031900Z 10015KT 9999 FEW040 SCT300 27/15 A2996 BECMG=
201012032000 METAR MROC 032000Z 12011KT 9999 SCT035 26/17 A2994 RMK DZ NE BECMG=
201012032100 METAR MROC 032100Z 12010KT 9999 SCT030 25/17 A2994 BECMG=
201012032200 METAR MROC 032200Z 13007KT 9999 SCT030 24/17 A2994 BECMG=
201012032300 METAR MROC 032300Z 14010KT 9999 SCT030 23/17 A2996 BECMG=
201012040000 METAR MROC 040000Z 11008KT 9999 SCT030 22/16 A3000 BECMG=
201012040100 METAR MROC 040100Z 12005KT 9999 SCT030 21/16 A3003 BECMG=
201012040200 METAR MROC 040200Z 14010KT 9999 FEW030 SCT250 20/16 A3004 BECMG=
201012040300 METAR MROC 040300Z 12010G20KT CAVOK 20/15 A3005 RMK FEW050 BECMG=
201012040400 METAR MROC 040400Z 11010KT 9999 FEW045 20/15 A3006 RMK VEL MAX VTO 15KT BECMG=
201012040500 METAR MROC 040500Z 10008KT CAVOK 19/14 A3005 BECMG=
201012040600 METAR MROC 040600Z 11009KT CAVOK 20/14 A3003 RMK VEL MAX VTO 17KT BECMG=
201012040700 METAR MROC 040700Z 12012KT CAVOK 20/15 A3000 BECMG=
201012040800 METAR MROC 040800Z 12009KT CAVOK 19/15 A2999 RMK FEW100 BECMG=
201012040900 METAR MROC 040900Z 10010KT 050V120 9999 FEW025 19/15 A3000 RMK FEW080 VEL MAX VTO 15KT BECMG=
201012041000 METAR MROC 041000Z 12012KT CAVOK 19/15 A2999 BECMG=
201012041100 METAR MROC 041100Z 12010KT 080V140 CAVOK 19/15 A3000 RMK VEL MAX VTO 15KT BECMG=
201012041200 METAR MROC 041200Z 07005KT CAVOK 19/15 A3002 RMK FEW050 FEW250 BECMG=
201012041300 METAR MROC 041300Z 11009KT CAVOK 21/15 A3004 RMK BKN250 BECMG=
201012041400 METAR MROC 041400Z 12009KT CAVOK 23/15 A3005 RMK BKN250 BECMG=
201012041500 METAR MROC 041500Z 11012KT CAVOK 25/15 A3006 RMK SCT250 BECMG=
201012041600 METAR MROC 041600Z 10011KT 9999 FEW035 SCT250 26/16 A3006 BECMG=
201012041700 METAR MROC 041700Z 11010KT 9999 SCT035 25/17 A3003 BECMG=
201012041800 METAR MROC 041800Z 10012KT 9999 SCT035 SCT250 26/17 A3002 BECMG=
201012041900 METAR MROC 041900Z 12012KT 9999 SCT030 BKN250 25/19 A2999 BECMG=
201012042000 METAR MROC 042000Z 13011KT 9999 SCT030 SCT070 25/16 A2996 RMK VTO CZDO EN PISTA VEL MAX 15KT BECMG=
201012042100 METAR MROC 042100Z 13011KT 9999 SCT030 SCT070 25/16 A2996 RMK VTO CZDO EN PISTA VEL MAX 15KT BECMG=
201012042200 METAR MROC 042200Z 10010KT 9999 FEW030 SCT070 24/16 A2997 RMK VEL MAX VTO 15KT VTO CZDO EN PISTA BECMG=
201012042300 METAR MROC 042300Z 12010KT 9999 FEW030 SCT070 22/16 A2999 RMK PCPN DST N NE BECMG=
201012050000 METAR MROC 050000Z 12007KT 9999 FEW030 SCT300 21/17 A3000 BECMG=
201012050100 METAR MROC 050100Z 11008KT 9999 FEW030 SCT300 20/16 A3002 BECMG=
201012050200 METAR MROC 050200Z 13007KT 9999 FEW030 SCT300 20/16 A3004 BECMG=
201012050300 METAR MROC 050300Z 10003KT CAVOK 20/15 A3005 RMK FEW300 BECMG=
201012050400 METAR MROC 050400Z 10004KT CAVOK 19/15 A3004 RMK FEW300 BECMG=
201012050500 METAR MROC 050500Z 09002KT CAVOK 18/16 A3004 RMK FEW300 BECMG=
201012050600 METAR MROC 050600Z 09007KT CAVOK 18/13 A3003 RMK FEW300 BECMG=
201012050700 METAR MROC 050700Z 00000KT CAVOK 18/13 A3000 RMK FEW300 BECMG=
201012050800 METAR MROC 050800Z 00000KT CAVOK 16/14 A2999 RMK FEW300 BECMG=
201012050900 METAR MROC 050900Z 00000KT CAVOK 16/14 A2999 RMK FEW300 BECMG=
201012051000 METAR MROC 051000Z 08005KT CAVOK 18/14 A2999 RMK FEW300 BECMG=
201012051100 METAR MROC 051100Z 04003KT CAVOK 17/14 A3001 RMK FEW399 BECMG=
201012051200 METAR MROC 051200Z 00000KT CAVOK 17/14 A3002 RMK FEW300 BECMG=
201012051300 METAR MROC 051300Z 13012KT CAVOK 20/14 A3002 BECMG=
201012051400 METAR MROC 051400Z 12008KT CAVOK 23/14 A3004 BECMG=
201012051500 METAR MROC 051500Z 12010KT CAVOK 25/14 A3005 BECMG=
201012051600 METAR MROC 051600Z 11010KT CAVOK 26/14 A3005 BECMG=
201012051700 METAR MROC 051700Z 12008KT 9999 FEW045 26/15 A3003 BECMG=
201012051800 METAR MROC 051800Z 08010KT 9999 FEW045 27/15 A3000 BECMG=
201012051900 METAR MROC 051900Z 09011KT 9999 FEW040 27/15 A2997 BECMG=
201012052000 METAR MROC 052000Z 09011KT 9999 FEW040 27/14 A2995 BECMG=
201012052100 METAR MROC 052100Z 07017KT 9999 FEW040 27/14 A2994 BECMG=
201012052200 METAR MROC 052200Z 09011KT 9999 FEW040 26/14 A2995 BECMG=
201012052300 METAR MROC 052300Z 09012KT 9999 FEW030 24/14 A2996 RMK LGT PCPN DST NE BECMG=
201012052355 METAR MROC 060000Z 09010KT 9999 FEW025 22/14 A2999 BECMG=
201012052358 METAR MROC 060000Z 09010KT 9999 FEW025 22/14 A2999 BECMG=
201012060000 METAR MROC 060000Z 09010KT 9999 FEW025 22/14 A2999 BECMG=
201012060100 METAR MROC 060100Z 06006KT 9999 FEW025 21/14 A3001 BECMG=
201012060200 METAR MROC 060200Z 13003KT CAVOK 19/17 A3004 BECMG=
201012060300 METAR MROC 060300Z 03003KT CAVOK 20/16 A3006 BECMG=
201012060400 METAR MROC 060400Z 08007KT CAVOK 19/16 A3006 BECMG=
201012060500 METAR MROC 060500Z 08009KT CAVOK 19/16 A3005 BECMG=
201012060600 METAR MROC 060600Z 05006KT CAVOK 19/16 A3003 BECMG=
201012060700 METAR MROC 060700Z 10005KT CAVOK 19/16 A3002 BECMG0=
201012060800 METAR MROC 060800Z 06007KT CAVOK 19/16 A3000 BECMG=
201012060900 METAR MROC 060900Z 03010KT 9999 FEW030 19/16 A3000 BECMG=
201012061000 METAR MROC 061000Z 10010KT 9999 FEW035 19/16 A3000 RMK FEW100 BECMG=
201012061100 METAR MROC 061100Z 13012KT 9999 SCT030 SCT250 20/16 A3001 BECMG=
201012061200 METAR MROC 061200Z 11010KT 9999 SCT035 20/17 A3003 RMK DZ DST NE BECMG=
201012061300 METAR MROC 061300Z 12012KT 9999 FEW030 SCT100 21/16 A3005 RMK LGT PCPN DST E SE BECMG=
201012061400 METAR MROC 061400Z 11009KT 9999 FEW030 SCT100 23/17 A3006 RMK LGT PCPN NE E BECMG=
201012061500 METAR MROC 061500Z 11015KT 9999 FEW035 SCT110 25/16 A3006 RMK LGT PCPN DST QUAD E BECMG=
201012061600 METAR MROC 061600Z 10014KT 9999 FEW035 SCT110 26/18 A3006 RMK LGT PCPN DST QUAD E N BECMG=
201012061700 METAR MROC 061700Z 10017G27KT 9999 FEW035 26/17 A3004 RMK LGT PCPN DST E N BECMG=
201012061800 METAR MROC 061800Z 08014KT 9999 FEW035 SCT300 26/17 A3002 RMK LGT PCPN DST QUAD E N MAX WND SPD 20KT BECMG=
201012061900 METAR MROC 061900Z 11016KT 9999 FEW035 SCT090 27/18 A2999 RMK FEW300 LGT PCPN DST QUAD E N BECMG=
201012062000 METAR MROC 062000Z 10012KT 9999 FEW030 SCT100 25/17 A2997 RMK TCU DST SW LGT PCPN DST NE MAX WND SPD 18KT BECMG=
201012062100 METAR MROC 062100Z 09015KT 9999 FEW040 25/17 A2996 RMK FEW100 PCPN DST NE VEL MAX VTO 20KT BECMG=
201012062200 METAR MROC 062200Z 10011KT 9999 FEW040 SCT070 24/17 A2996 RMK PCPN DST N/NE VEL MAX VTO 16KT BECMG=
201012062300 METAR MROC 062300Z 09008KT 9999 FEW040 SCT080 23/17 A2998 RMK PCPN DST N/NE BECMG=
201012070000 METAR MROC 070000Z 09005KT 9999 FEW040 SCT070 22/17 A2999 RMK PCPN DST N/NE BECMG=
201012070100 METAR MROC 070100Z VRB02KT 9999 FEW030 BKN090 21/18 A3002 BECMG=
201012070200 METAR MROC 070200Z 05009KT 9999 FEW030 SCT100 21/17 A3002 BECMG=
201012070300 METAR MROC 070300Z 11013KT 9999 FEW030 SCT100 21/17 A3002 RMK VEL MAX VTO 18KT BECMG=
201012070400 METAR MROC 070400Z 09011KT 9999 FEW030 SCT100 21/17 A3003 RMK VEL MAX VTO 17KT BECMG=
201012070500 METAR MROC 070500Z 11014G25KT 9999 SCT030 SCT100 21/17 A3003 BECMG=
201012070600 METAR MROC 070600Z 30005KT 9999 SCT030 20/17 A3003 RMK FEW100 BECMG=
201012070700 METAR MROC 070700Z 17003KT 9999 SCT030 20/16 A3002 BECMG=
201012070800 METAR MROC 070800Z 07007KT 9999 FEW030 19/15 A3002=
201012070900 METAR MROC 070900Z 10007KT 9999 SCT030 18/14 A3001=
201012071000 METAR MROC 071000Z 14006KT 9999 SCT030 18/14 A3006 RMK VEL MAX VTO 14KT=
201012071100 METAR MROC 071100Z 09006KT 9999 FEW030 SCT100 17/13 A3005=
201012071200 METAR MROC 071200Z 13007KT 9999 FEW030 BKN100 18/11 A3006 RMK PCPN DST N NE E=
201012071300 METAR MROC 071300Z 11012G22KT 090V150 9999 FEW035 BKN100 18/12 A3006 RMK PCPN DST N/NE/E BECMG=
201012071400 METAR MROC 071400Z 11009KT 070V130 9999 FEW035 BKN100 20/11 A3011 RMK RN DST NE VEL MAX VTO 15KT BECMG=
201012071500 METAR MROC 071500Z 10010KT 070V130 9999 FEW045 BKN110 21/10 A3012 RMK VEL MAX VTO 16KT BECMG=
201012071600 METAR MROC 071600Z 12010KT 9999 FEW045 BKN110 21/10 A3010 RMK VEL MAX VTO 16KT FU NR APCH 25 BECMG=
201012071700 METAR MROC 071700Z 11011G21KT 9999 FEW045 SCT120 23/10 A3008 RMK FEW180 BECMG=
201012071800 METAR MROC 071800Z 12015G27KT 9999 FEW045 SCT120 23/12 A3004 RMK FEW200 BECMG=
201012071900 METAR MROC 071900Z 13013G26KT 090V150 9999 FEW045 SCT120 22/13 A3001 RMK FEW170 BECMG=
201012072000 METAR MROC 072000Z 13014KT 9999 FEW045 SCT120 23/15 A2998 RMK FEW200 VEL MAX VTO 19KT BECMG=
201012072100 METAR MROC 072100Z 12012G23KT 9999 FEW045 SCT120 23/15 A2999 BECMG=
201012072200 METAR MROC 072200Z 12020KT 9999 FEW040 BKN120 23/16 A2997 BECMG=
201012072300 METAR MROC 072300Z 12018KT 9999 FEW040 BKN120 21/16 A2999 BECMG=
201012080000 METAR MROC 080000Z 08006KT 9999 FEW035 SCT120 20/15 A3002 BECMG=
201012080100 METAR MROC 080100Z 10011KT 9999 FEW030 SCT120 20/15 A3004 BECMG=
201012080200 METAR MROC 080200Z 12007KT 9999 FEW030 SCT120 19/16 A3005 BECMG=
201012080300 METAR MROC 080300Z 11010KT 9999 FEW030 SCT110 19/16 A3005 BECMG=
201012080400 METAR MROC 080400Z 11008KT 9999 FEW030 SCT120 19/15 A3005 BECMG=
201012080500 METAR MROC 080500Z 07006KT 9999 FEW030 SCT120 08/14 A3006 BECMG=
201012080600 METAR MROC 080600Z 07008KT 9999 FEW035 SCT120 18/14 A3004 BECMG=
201012080700 METAR MROC 080700Z 08007KT 9999 FEW035 SCT120 18/14 A3002 BECMG=
201012080800 METAR MROC 080800Z 10008KT 9999 FEW035 SCT120 18/15 A3000 BECMG=
201012080900 METAR MROC 080900Z 09005KT 9999 FEW035 SCT120 18/14 A3000 BECMG=
201012081000 METAR MROC 081000Z 09007KT 9999 FEW035 SCT120 18/14 A3001 BECMG=
201012081100 METAR MROC 081100Z 10008KT 9999 FEW035 SCT120 18/14 A3001 BECMG=
201012081200 METAR MROC 081200Z 11008KT 9999 FEW035 SCT120 19/14 A3002 BECMG=
201012081300 METAR MROC 081300Z 11010G20KT 9999 FEW035 BKN110 20/14 A3004 BECMG=
201012081400 METAR MROC 081400Z 11007KT 9999 FEW035 BKN110 21/15 A3007 BECMG=
201012081500 METAR MROC 081500Z 11009KT 9999 FEW035 BKN110 22/15 A3006 BECMG=
201012081600 METAR MROC 081600Z 15010KT 9999 FEW040 BKN110 23/15 A3006 BECMG=
201012081700 METAR MROC 081700Z 14016KT CAVOK 25/15 A3004 RMK BKN110 BECMG=
201012081800 METAR MROC 081800Z 12008KT 9999 FEW035 BKN110 25/16 A3002 BECMG=
201012081900 METAR MROC 081900Z 15013KT 9999 FEW035 BKN100 24/16 A3000 PCPN DST NE BECMG=
201012082000 METAR MROC 082000Z 12010KT 9999 FEW035 BKN100 23/16 A2998 BECMG=
201012082100 METAR MROC 082100Z 13008KT 9999 FEW035 BKN110 23/17 A2998 BECMG=
201012082200 METAR MROC 082200Z 12006KT CAVOK 22/17 A2998 RMK BKN120 BECMG=
201012082300 METAR MROC 082300Z 12007KT CAVOK 22/16 A2998 RMK SCT120 BKN220 BECMG=
201012090000 METAR MROC 090000Z 12008KT 9999 FEW035 SCT120 BKN250 21/17 A2999 BECMG=
201012090100 METAR MROC 090100Z 08006KT 9999 FEW035 SCT120 21/18 A3001 BECMG=
201012090200 METAR MROC 090200Z 11003KT 9999 FEW035 SCT120 21/18 A3003 BECMG=
201012090300 METAR MROC 090300Z 12006KT 100V160 9999 FEW045 SCT120 20/18 A3004 BECMG=
201012090400 METAR MROC 090400Z 08007KT 050V110 9999 FEW045 BKN090 21/17 A3004 BECMG=
201012090500 METAR MROC 090500Z 11009KT 9999 FEW040 BKN100 20/17 A3003 BECMG=
201012090600 METAR MROC 090600Z 10007KT 9999 FEW040 BKN100 20/17 A3003 BECMG=
201012090700 METAR MROC 090700Z 04006KT 9999 FEW040 SCT110 19/18 A3001 BECMG=
201012090800 METAR MROC 090800Z 11010KT 9999 FEW040 SCT110 19/18 A2999 BECMG=
201012090900 METAR MROC 090900Z 09009KT 9999 FEW040 SCT120 20/16 A2999 BECMG=
201012091000 METAR MROC 091000Z 09007KT 9999 FEW045 BKN120 19/16 A3000 BECMG=
201012091100 METAR MROC 091100Z 09005KT CAVOK 19/17 A3001 RMKN SCT120 BECMG=
201012091200 METAR MROC 091200Z 12009KT 9999 FEW040 BKN130 20/16 A3003 RMK PCPN DST NE BECMG=
201012091300 METAR MROC 091300Z 12007KT 9999 FEW030 BKN100 21/17 A3004 RMK RN DST NE E SE BECMG=
201012091400 METAR MROC 091400Z VRB02KT 9999 FEW030 BKN100 23/17 A3006 RMK RN DST NE E SE BECMG=
201012091500 METAR MROC 091500Z 12005KT 9999 FEW030 BKN120 24/17 A3006 RMK RN DST NE E BECMG=
201012091600 METAR MROC 091600Z 35007KT 9999 FEW035 SCT120 24/17 A3006 BECMG=
201012091700 METAR MROC 091700Z 34009KT 9999 FEW035 SCT120 25/15 A3004 RMK DZ DST NE E SE BECMG=
201012091800 METAR MROC 091800Z 33008KT CAVOK 26/15 A3001 RMK SCT120 DZ DST NE E BECMG=
201012091900 METAR MROC 091900Z 13012KT CAVOK 23/16 A3000 RMK BKN120 DZ DST NE E SE BECMG=
201012092000 METAR MROC 092000Z 12010KT 9999 FEW040 BKN120 23/15 A2999 RMK DZ DST NE E BECMG=
201012092100 METAR MROC 092100Z 12014KT 9999 FEW035 BKN100 22/14 A2998 RMK PCPN DST NE E EL MAX VTO 20KT BECMG=
201012092200 METAR MROC 092200Z 11011KT 9999 FEW035 BKN100 22/14 A2998 RMK PCPN DST N NE E VEL MAX VTO 18KT BECMG=
201012092300 METAR MROC 092300Z 11012G22KT 9999 FEW035 BKN100 20/15 A2999 RMK PCPN DST NE E BECMG=
201012100000 METAR MROC 100000Z 10010KT 9999 FEW030 BKN100 20/15 A3001 BECMG=
201012100100 METAR MROC 100100Z 11012G22KT 9999 FEW030 BKN100 19/15 A3002 BECMG=
201012100200 METAR MROC 100200Z 10008KT 9999 FEW030 BKN100 19/15 A3004 BECMG=
201012100300 METAR MROC 100300Z 11010G20KT 9999 FEW030 19/15 A3005 BECMG=
201012100400 METAR MROC 100400Z 07010KT 9999 FEW030 19/16 A3004 BECMG=
201012100500 METAR MROC 100500Z 09006KT 9999 FEW030 19/16 A3003 BECMG=
201012100600 METAR MROC 100600Z 08005KT 9999 FEW030 19/16 A3002 BECMG=
201012100700 METAR MROC 100700Z 11010KT 9999 FEW030 19/13 A3001 BECMG=
201012100800 METAR MROC 100800Z 10010G28KT 9999 FEW030 18/13 A3000 BECMG=
201012100900 METAR MROC NIL=
201012101000 METAR MROC 101000Z 11013KT 9999 FEW030 18/14 A2998 BECMG=
201012101100 METAR MROC 101100Z 11010G22KT 9999 FEW030 18/14 A2999 BECMG=
201012101200 METAR MROC 101200Z 12010KT 9999 FEW030 SCT250 19/14 A3000 RMK PCPN DST N NE BECMG=
201012101300 METAR MROC 101300Z 12012G22KT 9999 SCT030 20/15 A3003 RMK PCPN DST N NE E BECMG=
201012101400 METAR MROC 101400Z 13014G24KT 9999 FEW030 21/15 A3004 RMK VTO CZDO EN PISTA PCPN DST N NE BECMG=
201012101500 METAR MROC 101500Z 13014G25KT 9999 FEW030 22/15 A3004 RMK VTO CZDO EN PISTA PCPN DST N NE FEW140 BECMG=
201012101600 METAR MROC 101600Z 13015KT 9999 FEW035 23/15 A3004 RMK VEL MAX VTO 24KT VTO CZDO EN PISTA PCPN DST N BECMG=
201012101700 METAR MROC 101700Z 12014KT 9999 FEW035 24/16 A3002 RMK PCPN DST N BECMG=
201012101800 METAR MROC 101800Z 13012KT 9999 FEW035 24/16 A2999 RMK VTO CZDO EN PISTA PCPN DST N NE BECMG=
201012101900 METAR MROC 101900Z 14012G22KT 9999 FEW035 25/16 A2997 RMK VTO CZDO EN PISTA DZ DST N NE BECMG=
201012102000 METAR MROC 102000Z 14014G24KT 9999 SCT035 24/16 A2996 RMK VTO CZDO EN PISTA PCPN DST N NE BECMG=
201012102100 METAR MROC 102100Z 13009KT 9999 SCT035 24/16 A2996 RMK PCPN DST NE E MAX WND SPD 14KT FEW300 BECMG=
201012102200 METAR MROC 102200Z 12009KT 9999 SCT035 23/16 A2996 RMK MAX WND SPD 15KT PCPN DST NE E FEW100 BECMG=
201012102300 METAR MROC 102300Z VRB02KT 9999 SCT035 22/15 A2998 RMK PCPN DST NE E FEW100 BECMG=
201012102310 METAR MROC 102310Z 25010KT 9999 SCT035 21/16 A2998 RMK PCPN DST NE E FEW100 BECMG=
201012110000 METAR MROC 110000Z 02005KT 9999 SCT035 20/15 A2999 RMK PCPN DST SE E NE CROSS WIND ON RWY BECMG=
201012110100 METAR MROC 110100Z 06005KT 9999 FEW035 20/16 A3002 RMK PCPN DST E/NE BECMG=
201012110200 METAR MROC 110200Z 11005KT CAVOK 19/16 A3005 RMK FEW120 DZ DST NE BECMG=
201012110300 METAR MROC 110300Z 11005KT CAVOK 19/16 A3005 RMK FEW120 DZ DST NE BECMG=
201012110400 METAR MROC 110400Z 08010G20KT CAVOK 20/16 A3004 BECMG=
201012110500 METAR MROC 110500Z 04005KT CAVOK 18/16 A3002 BECMG=
201012110600 METAR MROC 110600Z 06005KT CAVOK 18/16 A3000 BECMG=
201012110700 METAR MROC 110700Z 12005KT CAVOK 19/16 A2998 BECMG=
201012110800 METAR MROC 110800Z 12011KT CAVOK 19/16 A2997 BECMG=
201012110900 METAR MROC 110900Z 10008KT CAVOK 19/16 A2997 BECMG=
201012111000 METAR MROC 111000Z 08010KT CAVOK 19/16 A2998 BECMG=
201012111100 METAR MROC 111100Z 08011KT 9999 FEW035 18/15 A3000 BECMG=
201012111200 METAR MROC 111200Z 07005KT 9999 FEW020 17/14 A3002 RMK DZ DST NE E SE E BECMG=
201012111300 METAR MROC 111300Z 10006KT 9999 FEW040 19/14 A3004 RMK PCPN DST SE E NE BECMG=
201012111400 METAR MROC 111400Z 13006KT 9999 FEW040 21/15 A3006 RMK PCPN DST SE E NE CROSS WIND BECMG=
201012111500 METAR MROC 111500Z 13009KT 9999 FEW040 23/15 A3006 RMK PCPN DST SE E NE CROSS WIND MAX WND SPD 15KT BECMG=
201012111600 METAR MROC 111600Z 12010KT 9999 FEW030 24/16 A3005 RMK CROSS WIND MAX WND SPD 17KT PCPN DST SE E NE FEW050 BECMG=
201012111700 METAR MROC 111700Z 14015KT 9999 FEW030 25/16 A3002 RMK CROSS WIND FEW050 PCPN DST E NE BECMG=
201012111800 METAR MROC 111800Z 14013KT 9999 FEW030 26/16 A2999 RMK CROSS WIND MAX WND SPD 18KT FEW080 BECMG=
201012111900 METAR MROC 111900Z 16010G22KT 9999 FEW030 27/17 A2997 RMK CROSS WIND FEW100 PCPN DST E SW BECMG=
201012112000 METAR MROC 112000Z 14008KT 9999 SCT030 25/17 A2996 RMK CROSS WIND PCPN DST E SW FEW080 FEW100 BECMG=
201012112100 METAR MROC 112100Z 13007KT 9999 FEW030 SCT080 25/17 A2996 RMK FEW045 BECMG=
201012112200 METAR MROC 112200Z 15007KT 9999 FEW040 SCT080 25/17 A2996 BECMG=
201012112300 METAR MROC 112300Z 13008KT 9999 FEW045 23/17 A2997 RMK FEW250 VEL MAX VTO 13KT BECMG=
201012120000 METAR MROC 120000Z 13007KT 9999 FEW035 SCT090 21/17 A2999 BECMG=
201012120100 METAR MROC 120100Z 10003KT 9999 FEW035 20/17 A3001 RMK FEW090 BECMG=
201012120200 METAR MROC 120200Z 07004KT 9999 FEW045 21/16 A3003 BECMG=
201012120300 METAR MROC 120300Z 09005KT 9999 FEW040 20/17 A3004 BECMG=
201012120400 METAR MROC 120400Z 09006KT 9999 FEW035 20/17 A3003 BECMG=
201012120500 METAR MROC 120500Z 11007KT 9999 FEW035 20/17 A3001 BECMG=
201012120600 METAR MROC 120600Z 09004KT 9999 SCT035 20/17 A2999 BECMG=
201012120700 METAR MROC 120700Z 05005KT 9999 SCT035 18/17 A2998=
201012120800 METAR MROC 120800Z 07003KT 9999 SCT035 18/16 A2997=
201012120900 METAR MROC 120900Z 07003KT 9999 SCT035 18/17 A2997=
201012121000 METAR MROC 121000Z 00000KT 9999 SCT030 18/17 A2998=
201012121100 METAR MROC 121100Z 06006KT 9999 FEW035 SCT080 18/17 A2999=
201012121200 METAR MROC 121200Z 00000KT 9999 SCT035 18/17 A3000 RMK FEW070 FEW250 PCPN DST N NE=
201012121300 METAR MROC 121300Z 00000KT CAVOK 20/17 A3003 RMK FEW070 SCT250 BECMG=
201012121400 METAR MROC 121400Z 27003KT CAVOK 23/18 A3006 RMK SCT250 BECMG=
201012121500 METAR MROC 121500Z 25004KT CAVOK 24/18 A3006 RMK FEW050 BECMG=
201012121600 METAR MROC 121600Z 25004KT 9999 FEW045 26/18 A3005 BECMG=
201012121700 METAR MROC 121700Z 23007KT 9999 SCT045 27/19 A3003 RMK FEW300 BECMG=
201012121800 METAR MROC 121800Z 25008KT 9999 FEW030 SCT040 26/20 A3000 BECMG=
201012121900 METAR MROC 121900Z 25007KT 9999 FEW020 FEW025TCU SCT040 26/20 A2997 BECMG VCSH BKN030=
201012122000 METAR MROC 122000Z 27009KT 9999 -RA FEW020 FEW025TCU SCT040 24/21 A2995 RMK BECMG -SHRA=
201012122100 METAR MROC 122100Z 26010KT 9999 SCT010TCU BKN025 23/21 A2995 RMK PCPN DST NE BECMG 8000 -RA=
201012122200 METAR MROC 122200Z 26004KT 9999 SCT010 BKN025 23/19 A2995 RMK PCPN DST NE BECMG=
201012122300 METAR MROC 122300Z 00000KT 9999 SCT010 BKN025 22/19 A2997 BECMG=
201012130000 METAR MROC 130000Z 00000KT 9999 FEW025 SCT100 20/19 A2998 BECMG=
201012130100 METAR MROC 130100Z 12003KT FEW025 SCT100 20/18 A3000 BECMG=
201012130200 METAR MROC 130200Z 10005KT 9999 FEW025 SCT100 20/18 A3002 BECMG=
201012130300 METAR MROC 130300Z 11008KT 9999 FEW025 SCT100 20/17 A3003 BECMG=
201012130400 METAR MROC 130400Z 12014KT 9999 FEW025 SCT100 19/16 A3003 RMK MAX WND SPD 19KT BECMG=
201012130500 METAR MROC 130500Z 12009KT 9999 FEW025 SCT100 19/16 A3002 RMK CROSS=
201012130600 METAR MROC 130600Z 12011G26KT 9999 FEW025 SCT100 19/16 A2999 RMK CROSS=
201012130700 METAR MROC 130700Z 11010G22KT 9999 FEW025 SCT100 19/15 A2999 RMK CROSS=
201012130800 METAR MROC 130800Z 12010KT CAVOK 19/15 A2998 RMK SCT100 CROSS WIND BECMG=
201012130900 METAR MROC 130900Z 10012KT CAVOK 19/15 A2998 RMK SCT090 CROSS WIND MAX WND SPD 20KT BECMG=
201012131000 METAR MROC 131000Z 12010KT CAVOK 19/15 A2999 RMK SCT090 CROSS WIND BECMG=
201012131100 METAR MROC 131100Z 10010KT 9999 FEW025 SCT090 19/16 A3000 RMK CROSS=
201012131200 METAR MROC 131200Z 11010KT 9999 FEW040 SCT090 20/16 A3001 RMK PCPN DST QUAD NE E SE CB DST SW CROSS WIND BECMG=
201012131300 METAR MROC 131300Z 00000KT 9999 FEW025 SCT100 20/15 A3004 RMK PCPN DST NE BECMG=
201012131400 METAR MROC 131400Z 10004KT 9999 SCT030 22/16 A3004 RMK PCPN DST NE N NW BECMG=
201012131500 METAR MROC 131500Z 14004KT 9999 SCT025 SCT100 24/16 A3005 RMK PCPN DST NW N NE BECMG=
201012131600 METAR MROC 131600Z 00000KT 9999 FEW025 SCT100 25/16 A3003 BECMG=
201012131700 METAR MROC 131700Z 14010KT 9999 FEW025 SCT100 26/15 A3001 RMK DZ NE BECMG=
201012131800 METAR MROC 131800Z 05010KT 9999 FEW030 SCT100 26/15 A2999 RMK DZ DST NE BECMG=
201012131900 METAR MROC 131900Z 09009KT 9999 FEW030 SCT120 26/16 A2995 RMK RN DST N NE BECMG=
201012132000 METAR MROC 132000Z 10012KT 9999 FEW030 SCT120 25/16 A2992 RMK N DST N NE BECMG=
201012132100 METAR MROC 132100Z 12012KT 9999 FEW030 BKN120 22/15 A2992 RMK DZ DST N NE E BECMG=
201012132200 METAR MROC 132200Z 10012G22KT 9999 FEW030 SCT120 22/14 A2994 RN DST NE E BECMG=
201012132300 METAR MROC 132300Z 14006KT 9999 FEW035 BKN120 19/14 A2998 RMK RN DST NE E BECMG=
201012140000 METAR MROC 140000Z 10010KT 9999 FEW035 19/14 A2999 RMK FEW120 RN DST NE E BECMG=
201012140100 METAR MROC 140100Z 12024KT 9999 FEW035 SCT120 19/15 A3001 BECMG=
201012140200 METAR MROC 140200Z 11012KT 9999 FEW035 SCT120 19/15 A3003 BECMG=
201012140300 METAR MROC 140300Z 12012KT 9999 FEW035 BKN110 19/15 A3003 RMK VEL MAX VTO 19KT BECMG 12015G25KT=
201012140400 METAR MROC 140400Z 12012G23KT 090V150 9999 FEW040 BKN100 20/15 A3003 BECMG=
201012140500 METAR MROC 140500Z 13009G19KT 9999 FEW035 SCT110 19/14 A3003 RMK FEW060 BECMG=
201012140600 METAR MROC 140600Z 10006KT 9999 FEW040 BKN120 19/15 A3002 RMK FEW070 BECMG=
201012140700 METAR MROC 140700Z 09006KT 9999 FEW040 SCT120 18/14 A3000 RMK FEW060 BECMG=
201012140800 METAR MROC 140800Z 10006KT 9999 FEW040 SCT120 BKN200 18/13 A2997 BECMG=
201012140900 METAR MROC 140900Z 12008KT 080V150 9999 FEW040 SCT150 17/12 A2997 BECMG=
201012141000 METAR MROC 141000Z 13009KT 9999 FEW030 SCT120 17/12 A2999 RMK VEL MAX VTO 15KT BECMG=
201012141100 METAR MROC 141100Z 11006KT 9999 FEW030 SCT120 16/12 A3002 BECMG=
201012141200 METAR MROC 141200Z 11008KT 9999 FEW035 SCT180 16/11 A3003 RMK RN DST N/NE/E VIS 8KM E BECMG=
201012141300 METAR MROC 141300Z 11009KT 9999 FEW030 SCT120 17/11 A3006 RMK RN DST N NE E BECMG=
201012141400 METAR MROC 141400Z 11010KT 9999 FEW030 SCT120 19/11 A3008 RMK RN DST SE DZ DST N NE E BECMG=
201012141500 METAR MROC 141500Z 10009KT 9999 FEW035 SCT140 21/11 A3007 RMK DZ DST SE E NE BECMG=
201012141600 METAR MROC 141600Z 12013KT CAVOK 21/11 A3005 RMK SCT250 DZ DST SE E NE BECMG=
201012141700 METAR MROC 141700Z 13014KT 9999 FEW035 22/12 A3003 RMK FEW250 DZ DST NE E BECMG=
201012141800 METAR MROC 141800Z 13014KT 9999 FEW035 SCT250 22/11 A3001 RMK DZ DST NE E BECMG=
201012141900 METAR MROC 141900Z 12017KT 9999 FEW035 SCT250 22/11 A2998 BECMG=
201012142000 METAR MROC 142000Z 13010G20KT 9999 SCT030 BKN250 21/12 A2995 DZ DST=
201012142100 METAR MROC 142100Z 12015G27KT 9999 FEW030 SCT250 21/12 A2996 RMK DZ DST N NE BECMG=
201012142200 METAR MROC 142200Z 12015G27KT 9999 FEW030 SCT250 20/12 A2995 RMK DZ DST N NE BECMG=
201012142300 METAR MROC 142300Z 13015G25KT 9999 FEW030 SCT120 BKN270 18/13 A2997 RMK DZ DST N NE BECMG=
201012142301 METAR MROC 142301Z 13015G25KT 9999 FEW030 SCT120 BKN270 17/13 A2997 RMK DZ DST N NE BECMG=
201012150000 METAR MROC 150000Z 09007KT 9999 FEW030 SCT120 17/13 A3000 RMK SCT250 BECMG=
201012150100 METAR MROC 150100Z 12014KT 9999 FEW030 SCT120 17/13 A3000 DZ DIST N NE E BECMG=
201012150200 METAR MROC 150200Z 12012KT 9999 FEW030 18/14 A3002 BECMG=
201012150300 METAR MROC 150300Z 11010KT 9999 FEW030 18/14 A3004 BECMG=
201012150400 METAR MROC 150400Z 11007KT 9999 FEW030 18/14 A3003 BECMG=
201012150500 METAR MROC 150500Z 11010G20KT 9999 FEW030 18/14 A3002 BECMG=
201012150600 METAR MROC 150600Z 12010KT 9999 FEW030 SCT100 18/14 A3000 BECMG=
201012150700 METAR MROC 150700Z 13015G28KT 9999 FEW030 SCT100 18/14 A2999 BECMG=
201012150800 METAR MROC 150800Z 11012KT 9999 FEW030 SCT100 18/14 A2996 BECMG=
201012150900 METAR MROC 150900Z 12012KT 9999 FEW030 SCT100 18/14 A2996 BECMG=
201012151000 METAR MROC 151000Z 12018KT 9999 FEW030 SCT100 18/14 A2997 BECMG=
201012151100 METAR MROC 151100Z 10013KT 9999 FEW025 SCT120 18/14 A2998 BECMG=
201012151200 METAR MROC 151200Z 07010KT 9999 FEW020 BKN120 18/14 A2998 RMK DZ DST N NE E BECMG=
201012151300 METAR MROC 151300Z 11010KT 9999 FEW030 BKN120 20/14 A3002 BECMG=
201012151400 METAR MROC 151400Z 11010KT 9999 FEW030 BKN120 20/14 A3002 BECMG=
201012151500 METAR MROC 151500Z 12010KT 9999 FEW025 BKN120 21/14 A3002 BECMG=
201012151600 METAR MROC 151600Z 11011KT 9999 FEW030 BKN120 23/14 A3002 BECMG=
201012151700 METAR MROC 151700Z 11012KT CAVOK 23/14 A2999 RMK BKN120 BECMG=
201012151800 METAR MROC 151800Z 11012KT CAVOK 24/14 A2997 BKN120 BECMG=
201012151900 METAR MROC 151900Z 12014KT CAVOK 23/14 A2995 RMK BKN120 BECMG=
201012152000 METAR MROC 152000Z 11010KT 9999 FEW035 BKN120 23/15 A2993 RMK VEL MAX VTO 16KT BECMG=
201012152100 METAR MROC 152100Z 12011KT 9999 SCT040 BKN120 22/15 A2993 BECMG=
201012152200 METAR MROC 152200Z 12013KT 9999 FEW040 BKN120 21/15 A2995 RMK PCPN DST SE E BECMG=
201012152300 METAR MROC 152300Z 13012KT 9999 FEW025 BKN120 20/15 A2995 RMK PCPN DST QUAD S BECMG=
201012160000 METAR MROC 160000Z 13010KT 9999 FEW030 BKN120 19/15 A2997 BECMG=
201012160100 METAR MROC 160100Z 13009KT 9999 FEW030 BKN120 20/15 A2999 BECMG=
201012160200 METAR MROC 160200Z 13010KT CAVOK 20/15 A3002 BKN120 BECMG=
201012160300 METAR MROC 160300Z 11006KT CAVOK 19/15 A3003 RMK BKN120 BECMG=
201012160400 METAR MROC 160400Z 11007KT CAVOK 19/15 A3003 RMK BKN120 BECMG=
201012160500 METAR MROC 160500Z 10008KT CAVOK 19/15 A3002 RMK BKN120 BECMG=
201012160600 METAR MROC 160600Z 10005KT CAVOK 19/15 A3000 RMK BKN120 BECMG=
201012160700 METAR MROC 160700Z 11006KT CAVOK 20/15 A2998 RMK BKN120 BECMG=
201012160800 METAR MROC 160800Z 10006KT CAVOK 19/16 A2996 RMK BKN120=
201012160900 METAR MROC 160900Z 09007KT CAVOK 19/16 A2996 RMK SCT120=
201012161000 METAR MROC 161000Z 09006KT CAVOK 19/16 A2997 RMK SCT120=
201012161100 METAR MROC 161100Z 09006KT CAVOK 18/16 A2997 RMK FEW120=
201012161200 METAR MROC 161200Z 09006KT CAVOK 18/16 A2999 RMK SCT120 BKN250=
201012161300 METAR MROC 161300Z 10004KT CAVOK 20/16 A3001 RMK SCT120 BKN250 PCPN DST NE TCU DST SW BECMG=
201012161400 METAR MROC 161400Z 12008KT CAVOK 22/16 A3003 RMK SCT120 BKN250 PCPN DST SE NE BECMG=
201012161500 METAR MROC 161500Z 11010KT CAVOK 23/16 A3003 RMK CROSS WIND FEW120 BKN250 PCPN DST NE SE BECMG=
201012161600 METAR MROC 161600Z 11011KT 9999 FEW030 BKN250 25/16 A3002 RMK CROSS=
201012161700 METAR MROC 161700Z 13010KT 9999 FEW035 BKN250 26/16 A3000 RMK CROSS=
201012161800 METAR MROC 161800Z 10005KT 9999 FEW040 BKN250 26/17 A2998 RMK CROSS=
201012161900 METAR MROC 161900Z 24007KT 9999 SCT040 SCT250 26/19 A2996 RMK CROSS=
201012162000 METAR MROC 162000Z 24009KT 9999 SCT040 SCT250 26/19 A2994 RMK CROSS WIND TCU DST E SW BECMG=
201012162100 METAR MROC 162100Z 26008KT 9999 FEW030TCU SCT040 25/19 A2993 BECMG=
201012162200 METAR MROC 162200Z 25009KT 9999 VCSH FEW025TCU SCT040 24/20 A2995 RMK FEW080 BECMG=
201012162300 METAR MROC 162300Z 24006KT 9999 FEW025 SCT035 BKN080 22/20 A2997 BECMG BKN04 0=
201012170000 METAR MROC 170000Z 22004KT 9999 FEW010 SCT020 21/20 A2998 RMK FEW035 SCT110 BECMG=
201012170100 METAR MROC 170100Z 26003KT 9999 FEW010 SCT070 BKN250 20/20 A3001 RMK FEW035 BECMG=
201012170200 METAR MROC 170200Z 00000KT 9999 FEW045 BKN200 19/19 A3003 RMK FEW070 BECMG=
201012170300 METAR MROC 170300Z 08006KT CAVOK 19/18 A3004 RMK FEW100 SCT140 BECMG=
201012170400 METAR MROC 170400Z 08004KT CAVOK 19/17 A3003 RMK SCT140 BECMG=
201012170500 METAR MROC 170500Z 00000KT CAVOK 18/17 A3003 RMK SCT140 BECMG=
201012170600 METAR MROC 170600Z 10002KT 9999 FEW030 17/16 A3002 BECMG=
201012170700 METAR MROC 170700Z 00000KT 9999 FEW030 SCT250 17/16 A3000 BECMG=
201012170800 METAR MROC 170800Z 11005KT 9999 FEW025 SCT250 16/15 A2999=
201012170900 METAR MROC 170900Z 10003KT 9999 FEW025 SCT250 17/16 A2998=
201012171000 METAR MROC 171000Z 09006KT 9999 FEW025 SCT250 18/16 A2999=
201012171100 METAR MROC 171100Z 11004KT 9999 SCT030 18/16 A3004 RMK FEW100 FEW250=
201012171200 METAR MROC 171200Z 09006KT 9999 SCT025 18/15 A3002 RMK FEW250=
201012171300 METAR MROC 171300Z 10007KT 9999 FEW010 SCT045 20/16 A3004 RMKL FEW100 BECMG=
201012171400 METAR MROC 171400Z 12007KT CAVOK 22/16 A3006 RMK SCT250 HZ DST W BECMG=
201012171500 METAR MROC 171500Z 10003KT CAVOK 24/16 A3007 RMK SCT250 BECMG 24006KT=
201012171600 METAR MROC 171600Z VRB02KT 9999 FEW040 SCT250 26/16 A3007 BECMG 24006KT=
201012171700 METAR MROC 171700Z 26004KT 9999 SCT040 26/15 A3005 BECMG=
201012171800 METAR MROC 171800Z 27007KT 9999 SCT040 27/17 A3001 RMK FEW250 TCU DST S/N BECMG=
201012171900 METAR MROC 171900Z 24009KT 9999 SCT040 28/20 A2998 RMK TCU DST S BECMG=
201012172000 METAR MROC 172000Z 25010KT 9999 FEW030TCU 26/19 A2996 RMK FEW040 BECMG=
201012172100 METAR MROC 172100Z 23010KT 9999 FEW025TCU 26/20 A2996 BECMG=
201012172200 METAR MROC 172200Z 26012KT 9999 SCT020TCU 24/20 A2997 BECMG=
201012172300 METAR MROC 172300Z 25008KT 9999 BKN020 22/20 A2999 BECMG=
201012180000 METAR MROC 180000Z 25005KT 9999 BKN020 21/20 A3001 BECMG=
201012180100 METAR MROC 180100Z 00000KT 9999 SCT025 20/20 A3003 BECMG=
201012180200 METAR MROC 180200Z 00000KT 9999 FEW025 20/19 A3004 BECMG=
201012180300 METAR MROC 180300Z 00000KT 9999 FEW025 SCT110 20/19 A3005 RMK LGT BR ARND BECMG=
201012180400 METAR MROC 180400Z 00000KT 9999 FEW025 19/19 A3005 RMK LGT BR ARND BECMG=
201012180500 METAR MROC 180500Z 09004KT 9999 FEW025 18/17 A3004 RMK LGT BR ARND VIS 8KM W BECMG=
201012180600 METAR MROC 180600Z 00000KT 9999 SCT030 BKN100 18/17 A3003 RMK LGT BR ARND VIS 8KM W BECMG=
201012180637 METAR MROC 180637Z 09005KT 9999 SCT030 BKN100 18/17 A3003 RMK LGT BR ARND VIS 8KM W BECMG=
201012180700 METAR MROC 180700Z 10004KT 9999 FEW025 BKN100 18/17 A3001 RMK LGT BR ARND VIS 8KM W BECMG=
201012180800 METAR MROC 180800Z 11004KT 9999 FEW025 SCT100 17/17 A2999 RMK LGT BR ARND VIS 8KM W BECMG=
201012180900 METAR MROC 180900Z 00000KT 9999 FEW025 SCT100 17/16 A2999 RMK LGT BR ARND VIS 8KM W BECMG=
201012181000 METAR MROC 181000Z 09004KT 9999 FEW025 SCT100 17/16 A2998 RMK LGT BR ARND BECMG=
201012181100 METAR MROC 181100Z 09005KT 9999 FEW025 SCT100 16/15 A3000 RMK LGT BR ARND BECMG=
201012181200 METAR MROC 181200Z 09005KT CAVOK 16/14 A3001 RMK BKN250 TCU DST SW BECMG=
201012181300 METAR MROC 181300Z 12004KT CAVOK 17/15 A3004 RMK BKN250 HZ LEVE SW BECMG=
201012181400 METAR MROC 181400Z 00000KT CAVOK 21/16 A3005 RMK BKN250 HZ SW W BECMG=
201012181500 METAR MROC 181500Z 11004KT CAVOK 24/15 A3004 RMK BKN250 HZ SW W BECMG 22006KT BECMG=
201012181600 METAR MROC 181600Z 00000KT CAVOK 26/16 A3003 RMK BKN250 BECMG 22007KT=
201012181700 METAR MROC 181700Z 26007KT 9999 FEW030 BKN250 27/17 A3001 BECMG=
201012181800 METAR MROC 181800Z 26008KT 9999 FEW030 BKN250 27/17 A2997 BECMG=
201012181900 METAR MROC 181900Z 24011KT 9999 FEW030 SCT250 27/17 A2994 BECMG=
201012182000 METAR MROC 182000Z 24010KT 9999 FEW030TCU SCT250 27/19 A2992 BECMG=
201012182100 METAR MROC 182100Z 22013KT 9999 FEW020TCU SCT250 26/20 A2991 RMK HZ ARND BECMG=
201012182200 METAR MROC 182200Z 24010KT 9999 FEW015TCU SCT250 25/21 A2992 RMK HZ ARND BECMG=
201012182300 METAR MROC 182300Z 28007KT 9999 -RA FEW005 BKN015 21/21 A2995 RMK HZ ARND BECMG=
201012190000 METAR MROC 190000Z 24004KT 9999 FEW007 SCT015 21/21 A2996 RERA BECMG=
201012190100 METAR MROC 190100Z 00000KT 9999 FEW010 SCT025 BKN100 20/20 A2998 HZY BECMG=
201012190200 METAR MROC 190200Z 00000KT 9999 FEW010 SCT025 BKN100 20/20 A3001 HZY BECMG0=
201012190300 METAR MROC 190300Z 00000KT 7000 BCFG SCT002 BKN020 20/20 A3003 RMK HZY BECMG=
201012190400 METAR MROC 190400Z VRB02KT 9000 VCFG FEW003 SCT020 BKN250 19/18 A3003 BECMG 05005KT=
201012190500 METAR MROC 190500Z 00000KT 9999 FEW001 SCT030 BKN250 17/17 A3002 RMK VIS 7KM SW DUE LOW ST BECMG=
201012190600 METAR MROC 190600Z 06004KT 9999 FEW010 BKN250 17/16 A3001 RMK FEW080 BECMG=
201012190700 METAR MROC 190700Z 10004KT 9999 FEW010 SCT250 17/16 A2999 RMK FEW060 BECMG=
201012190800 METAR MROC 190800Z 09003KT CAVOK 16/15 A2997 RMK FEW080 SCT250 BECMG=
201012190900 METAR MROC 190900Z 07004KT 9999 FEW010 SCT250 16/15 A2997 RMK FEW080 BECMG=
201012191000 METAR MROC 191000Z VRB02KT CAVOK 16/15 A2997 RMK SCT250 BECMG=
201012191100 METAR MROC 191100Z 00000KT CAVOK 16/15 A2999 RMK FEW250 BECMG=
201012191200 METAR MROC 191200Z 08008KT CAVOK 16/15 A2999 RMK SCT200 BECMG=
201012191300 METAR MROC 191300Z 08006KT CAVOK 19/16 A3001 RMK BKN250 VERY DIST CBS TO S SW BECMG=
201012191400 METAR MROC 191400Z 11005KT CAVOK 21/16 A3003 RMK BKN250 VERY DIST CBS TO S SW BECMG=
201012191500 METAR MROC 191500Z 13008KT CAVOK 24/16 A3003 RMK BKN250 TCU DST S SW BECMG=
201012191600 METAR MROC 191600Z 13006KT CAVOK 26/15 A3002 RMK BKN250 BECMG=
201012191700 METAR MROC 191700Z 15008KT 9999 FEW040 BKN250 27/16 A3000 BECMG=
201012191800 METAR MROC 191800Z 22006KT 9999 FEW025TCU SCT040 27/18 A2999 RMK FEW250 BECMG=
201012191900 METAR MROC 191900Z 25010KT 9999 FEW025TCU SCT040 27/19 A2997 RMK HZ=
201012192000 METAR MROC 192000Z 26005KT 9999 FEW030 BKN250 27/19 A2993 BECMG=
201012192100 METAR MROC 192100Z 22007KT 9999 SCT030 BKN250 26/20 A2992 RMK HZ LEVE SW W BECMG=
201012192200 METAR MROC 192200Z 23008KT 9999 SCT035 BKN250 24/20 A2992 BECMG=
201012192300 METAR MROC 192300Z 24006KT 9999 FEW035 SCT120 23/21 A2995 RMK FEW250 BECMG=
201012200000 METAR MROC 200000Z 24006KT 9999 DZ BKN030 SCT120 21/21 A2996 RERA RMK BECMG 5000 DZ BR=
201012200100 METAR MROC 200100Z 00000KT 9999 SCT030 BKN120 21/21 A2999 BECMG=
201012200200 METAR MROC 200200Z 00000KT 9999 FEW030 SCT120 20/19 A3001 BECMG=
201012200300 METAR MROC 200300Z 00000KT 9999 FEW030 BKN120 20/20 A3003 BECMG=
201012200400 METAR MROC 200400Z 09004KT 9999 FEW030 BKN120 20/19 A3003 BECMG=
201012200500 METAR MROC 200500Z 00000KT 9999 FEW030 BKN120 20/18 A3002 BECMG=
201012200600 METAR MROC 200600Z 12005KT 9999 FEW030 BKN120 20/17 A3002 BECMG=
201012200700 METAR MROC 200700Z 00000KT 9999 FEW030 BKN120 19/18 A3001 BECMG=
201012200800 METAR MROC 200800Z 11003KT 9999 FEW030 BKN120 20/17 A2997 BECMG=
201012200900 METAR MROC 200900Z 13003KT 9999 FEW030 BKN120 20/17 A2997 BECMG=
201012201000 METAR MROC 201000Z 10006KT 9999 FEW030 BKN120 19/17 A2998 BECMG=
201012201100 METAR MROC 201100Z 06005KT 9999 FEW030 SCT120 19/16 A2998 BECMG=
201012201200 METAR MROC 201200Z 11003KT 9999 FEW030 BKN120 19/16 A3001 RMK DZ N NE E BECMG=
201012201300 METAR MROC 201300Z 10004KT 9999 FEW030 SCT120 BKN250 20/15 A3003 RMK DZ DST N NE E BECMG=
201012201400 METAR MROC 201400Z 11007KT 9999 FEW030 SCT120 23/15 A3005 PCPN DST N NE E BECMG=
201012201500 METAR MROC 201500Z 10012KT 9999 FEW030 SCT100 23/16 A3006 RMK PCPN DST N NE E BECMG=
201012201600 METAR MROC 201600Z 12011KT 9999 FEW030 SCT080 24/16 A3006 RMK PCPN DST N NE BECMG=
201012201700 METAR MROC 201700Z 12012KT 9999 FEW030 SCT100 25/15 A3004 RMK PCPN DST N NE VEL MAX VTO 18KT BECMG=
201012201800 METAR MROC 201800Z 12012KT 9999 FEW030 SCT045 24/16 A3002 RMK VEL MAX VTO 19KT FEW120 DZ N NE BECMG=
201012201900 METAR MROC 201900Z 12013KT 9999 FEW030 SCT120 BKN250 24/16 A3002 RMK DZ DST N NE BECMG=
201012202000 METAR MROC 202000Z 13011KT 9999 FEW030 SCT120 BKN250 22/15 A2998 RMK DZ DST N NE VEL MAX VTO 18KT BECMG=
201012202100 METAR MROC 202100Z 13009KT 9999 SCT030 BKN250 23/12 A2997 RMK FEW120 PCPN DST N NE E SE TCU DST SW CROSS WIND MAX WND SPD 16KT BECMG=
201012202200 METAR MROC 202200Z 12011KT 9999 FEW030 BKN250 21/13 A2998 RMK FEW120 PCPN DST QUAD N E S TCU DST SW CROSS WIND MAX WND SPD 20KT BECMG=
201012202300 METAR MROC 202300Z 13007KT 9999 FEW030 BKN100 20/12 A3000 RMK FEW250 PCPN DST QUAD N E S TCU DST SW CROSS WIND MAX WND SPD 14KT BECMG=
201012210000 METAR MROC 210000Z 13007KT 9999 FEW030 SCT250 19/13 A3001 RMK FEW100 PCPN DST QUAD N E CROSS WIND MAX WND SPD 13KT BECMG=
201012210100 METAR MROC 210100Z 12009KT 9999 FEW025 19/13 A3002 BECMG=
201012210200 METAR MROC 210200Z 13012KT 9999 FEW025 19/13 A3004 BECMG=
201012210300 METAR MROC 210300Z 13014KT CAVOK 19/13 A3005 BECMG=
201012210400 METAR MROC 210400Z 13012KT CAVOK 19/11 A3006 BECMG=
201012210500 METAR MROC 210500Z 12012KT CAVOK 19/10 A3004 BECMG=
201012210600 METAR MROC 210600Z 10007KT CAVOK 19/11 A3003 BECMG=
201012210700 METAR MROC 210700Z 13013KT CAVOK 19/12 A3001 BECMG=
201012210800 METAR MROC 210800Z 13009KT CAVOK 18/13 A3000=
201012210900 METAR MROC 210900Z 12012KT CAVOK 18/13 A3000=
201012211000 METAR MROC 211000Z 12010KT CAVOK 18/13 A3001=
201012211100 METAR MROC 211100Z 12008KT CAVOK 17/13 A3002=
201012211200 METAR MROC 211200Z 10005KT CAVOK 17/13 A3003=
201012211300 METAR MROC 211300Z 12009KT 9999 FEW015 19/13 A3005 RMK CROSS WIND MAX WND SPD 18KT PCPN DST NE BECMG=
201012211400 METAR MROC 211400Z 12009KT CAVOK 21/13 A3007 RMK PCPN DST NE CROSS=
201012211500 METAR MROC 211500Z 11013KT CAVOK 23/12 A3006 RMK PCPN DST NE CROSS=
201012211600 METAR MROC 211600Z 12012KT CAVOK 24/12 A3006 RMK PCPN DST NE CROSS=
201012211700 METAR MROC 211700Z 11008KT 9999 FEW040 25/13 A3005 RMK PCPN DST NE CROSS WIND BECMG=
201012211738 METAR MROC 211738Z 11012G22KT 9999 FEW040 25/13 A3003 RMK PCPN DST NE CROSS WIND BECMG=
201012211800 METAR MROC 211800Z 10015KT 9999 FEW040 25/13 A3003 RMK PCPN DST NE CROSS WIND MAX WND SPD 21KT BECMG=
201012211900 METAR MROC 211900Z 12014KT 9999 FEW050 26/13 A3000 RMK PCPN DST NE CROSS WIND MAX WND SPD 21KT BECMG=
201012212000 METAR MROC 212000Z 10010KT CAVOK 26/11 A2999 RMK FEW070 VEL MAX VTO 18KT TCU DST NE/SW BECMG=
201012212100 METAR MROC 212100Z 10012G22KT CAVOK 26/09 A2998 RMK FEW050 DU LGT NR RYW BECMG=
201012212200 METAR MROC 212200Z 10013KT CAVOK 25/09 A2999 RMK FEW050 VEL MAX VTO 19KT DU LGT NR RWY BECMG=
201012212300 METAR MROC 212300Z 10010KT CAVOK 23/13 A3000 RMK FEW050 VEL MAX VTO 16KT BECMG=
201012220000 METAR MROC 220000Z 12007KT 9999 FEW040 21/13 A3002 BECMG=
201012220100 METAR MROC 220100Z 13008KT 9999 FEW045 20/14 A3005 BECMG=
201012220200 METAR MROC 220200Z 12006KT CAVOK 19/15 A3007 FEW120 BECMG=
201012220300 METAR MROC 220300Z 13009KT 9999 FEW035 19/14 A3008 RMK VEL MAX VTO 16KT BECMG=
201012220400 METAR MROC 220400Z 12010KT 9999 FEW035 19/16 A3008 RMK VEL MAX VTO 18KT BECMG=
201012220500 METAR MROC 220500Z 11005KT 9999 FEW035 18/15 A3008 RMK VEL MAX VTO 14KT BECMG=
201012220600 METAR MROC 220600Z 07007KT 9999 FEW035 18/15 A3007 BECMG=
201012220700 METAR MROC 220700Z 12008KT 9999 FEW035 18/15 A3005 BECMG=
201012220800 METAR MROC 220800Z 12011KT 9999 FEW035 19/14 A3004=
201012220900 METAR MROC 220900Z 12011G21KT CAVOK 18/14 A3003=
201012221000 METAR MROC 221000Z 13010G20KT CAVOK 18/14 A3003=
201012221100 METAR MROC 221100Z 12011G21KT CAVOK 18/14 A3004=
201012221200 METAR MROC 221200Z 09008KT CAVOK 18/14 A3006 RMK FEW120 DZ DST ENE VEL MAX VTO 14KT=
201012221300 METAR MROC 221300Z 10006KT 070V140 CAVOK 19/15 A3008 RMK FEW080 BECMG=
201012221400 METAR MROC 221400Z 08004KT CAVOK 22/15 A3010 RMK FEW070 BECMG=
201012221500 METAR MROC 221500Z 11008KT CAVOK 24/15 A3009 BECMG=
201012221600 METAR MROC 221600Z 12008G18KT 9999 FEW045 26/14 A3008 BECMG=
201012221700 METAR MROC 221700Z 13008KT 9999 FEW040 27/15 A3006 RMK FEW060 BECMG=
201012221800 METAR MROC 221800Z 14011KT 9999 FEW040 27/15 A3004 RMK FEW060 FEW150 BECMG=
201012221900 METAR MROC 221900Z 14011KT 100V160 9999 SCT040 25/16 A3001 RMK FEW080 VEL MAX VTO 17KT BECMG=
201012222000 METAR MROC 222000Z 13009KT 9999 SCT045 SCT070 24/16 A3000 RMK VEL MAX VTO 15KT BECMG=
201012222100 METAR MROC 222100Z 11010KT 9999 SCT025 26/16 A2997 RMK PCPN DST NE BECMG=
201012222200 METAR MROC 222200Z 12010KT 9999 SCT025 23/16 A2998 RMK PCPN DST NE BECMG=
201012222300 METAR MROC 222300Z 12007KT 9999 SCT020 21/15 A3001 RMK PCPN DST NE BECMG=
201012230000 METAR MROC 230000Z 11007KT 9999 SCT020 BKN100 21/16 A3002 RMK PCPN NE BECMG=
201012230100 METAR MROC 230100Z 12010G20KT 9999 FEW030 20/15 A3004 BECMG=
201012230200 METAR MROC 230200Z 07007KT CAVOK 19/15 A3007 BECMG=
201012230300 METAR MROC 230300Z 08009KT 9999 FEW025 19/16 A3009 RMK CROSS WIND MAX WND SPD 14KT BECMG=
201012230400 METAR MROC 230400Z 04009KT CAVOK 19/16 A3008 RMK CROSS WIND BECMG=
201012230500 METAR MROC 230500Z 07006KT CAVOK 19/16 A3008 RMK CROSS WIND MAX WND SPD 13KT BECMG=
201012230600 METAR MROC 230600Z 07006KT CAVOK 19/15 A3008 RMK CROSS WIND MAX WND SPD 11KT BECMG=
201012230700 METAR MROC 230700Z 09008KT CAVOK 18/15 A3006 RMK CROSS WIND BECMG=
201012230800 METAR MROC 230800Z 07007KT CAVOK 18/15 A3004 RMK CROSS WIND MAX WND SPD 15KT BECMG=
201012230900 METAR MROC 230900Z 08007KT CAVOK 18/15 A3004 RMK CROSS WIND MAX WND SPD 13KT BECMG=
201012231000 METAR MROC 231000Z 09009KT CAVOK 18/14 A3003 RMK CROSS WND BECMG=
201012231100 METAR MROC 231100Z 10010KT CAVOK 18/15 A3004 RMK CROSS WND MAX WND 16KT BECMG=
201012231200 METAR MROC 231200Z 06007KT 9999 FEW040 17/15 A3005 RMK CROSS WND MAX WND 16KT PCPN DST NE BECMG=
201012231300 METAR MROC 231300Z 11009KT 9999 FEW025 20/15 A3006 RMK PCPN DST NE BECMG=
201012231400 METAR MROC 231400Z 11008KT 9999 FEW020 22/16 A3008 RMK PCPN DST NE BECMG=
201012231500 METAR MROC 231500Z 12014KT 9999 FEW020 23/16 A3007 RMK PCPN DST NE BECMG=
201012231600 METAR MROC 231600Z 12017KT 9999 FEW020 25/14 A3006 RMK PCPN DST NE BECMG=
201012231700 METAR MROC 231700Z 11008KT 9999 FEW020 26/15 A3005 RMK PCPN DST NE BECMG=
201012231800 METAR MROC 231800Z 12010KT 9999 FEW020 26/15 A3002 RMK PCPN DST NE BECMG=
201012231900 METAR MROC 231900Z 11015KT 9999 SCT030 26/15 A3000 PCPN NE BECMG=
201012232000 METAR MROC 232000Z 11015KT 9999 SCT030 BKN250 25/16 A2997 PCPN NE BECMG0=
201012232100 METAR MROC 232100Z 12010KT 9999 SCT030 SCT100 24/16 A2997 RMK RN DST NE BECMG=
201012232200 METAR MROC 232200Z 13010KT 9999 FEW030 SCT100 23/16 A2997 BECMG=
201012232300 METAR MROC 232300Z 13011G21KT 9999 FEW030 SCT120 23/16 A2997 BECMG=
201012232345 METAR MROC 232345Z 09012KT 9999 SCT010 20/15 A2997 RMK RN DST NE BECMG=
201012240000 METAR MROC 240000Z 10008KT 9999 FEW030 20/16 A2998 BECMG=
201012240100 METAR MROC 240100Z 10008KT 9999 FEW030 20/16 A3000 BECMG=
201012240200 METAR MROC 240200Z 13009KT 9999 FEW030 19/16 A3002 BECMG=
201012240300 METAR MROC 240300Z 10007KT 9999 FEW040 19/16 A3003 BECMG=
201012240400 METAR MROC 240400Z 09004KT 9999 FEW035 19/16 A3003 BECMG=
201012240500 METAR MROC 240500Z 10006KT 9999 FEW035 18/16 A3002 BECMG=
201012240600 METAR MROC 240600Z VRB02KT 9999 FEW040 17/16 A3001 RMK FEW060 BECMG=
201012240700 METAR MROC 240700Z VRB02KT 9999 FEW030 SCT050 18/16 A3000 BECMG=
201012240800 METAR MROC 240800Z 00000KT 9999 FEW030 18/16 A2998 RMK FEW060 BECMG=
201012240900 METAR MROC 240900Z 00000KT 9999 FEW030 17/16 A2997 RMK FEW050 BECMG=
201012241000 METAR MROC 241000Z 00000KT 9999 FEW040 SCT090 16/15 A2998 BECMG=
201012241100 METAR MROC 241100Z 17003KT 9999 FEW040 18/16 A2998 RMK FEW070 BECMG=
201012241200 METAR MROC 241200Z 00000KT 9999 FEW040 18/15 A2999 RMK PCPN DST N/NE BECMG=
201012241300 METAR MROC 241300Z 11006KT 9999 FEW035 19/15 A3001 RMK RN DST NE BECMG=
201012241400 METAR MROC 241400Z 11008KT 9999 FEW035 22/15 A3003 BECMG=
201012241500 METAR MROC 241500Z 14008KT 9999 FEW035 23/16 A3003 RMK RN DST NE E BECMG=
201012241600 METAR MROC 241600Z 13008KT 9999 FEW035 25/16 A3002 RMK RN DST NE E BECMG=
201012241700 METAR MROC 241700Z 13012G22KT 9999 SCT035 25/17 A3001 BECMG=
201012241800 METAR MROC 241800Z 12010KT 9999 BKN030 29/17 A2999 RMK RN DST N NE E BECMG=
201012241900 METAR MROC 241900Z 15010KT 9999 BKN030 24/16 A2997 BECMG=
201012242000 METAR MROC 242000Z 21008KT 9999 BKN030 24/17 A2995 RMK RN DST NE/E/S BECMG=
201012242100 METAR MROC 242100Z 25006KT 9999 BKN030 22/18 A2995 RMK PCPN DST N NE E ESE BECMG=
201012242200 METAR MROC 242200Z 28006KT 9999 BKN030 22/19 A2995 RMK PCPN DST N NE E BECMG=
201012242300 METAR MROC 242300Z 21003KT 9999 BKN030 22/17 A2996 RMK PCPN DST N NE E SE BECMG=
201012250000 METAR MROC 250000Z 00000KT 9999 BKN030 21/17 A2997 RMK PCPN DST N NE E BECMG=
201012250100 METAR MROC 250100Z 00000KT 9999 BKN030 20/18 A2998 BECMG=
201012250200 METAR MROC 250200Z 17006KT 9999 SCT030 20/16 A2999 BECMG=
201012250300 METAR MROC 250300Z 00000KT 9999 SCT030 19/17 A3000 BECMG=
201012250400 METAR MROC 250400Z 07005KT 9999 SCT030 19/16 A2999 BECMG=
201012250500 METAR MROC 250500Z 08004KT 9999 FEW030 19/16 A2998 BECMG=
201012250600 METAR MROC 250600Z 06004KT 9999 FEW030 19/16 A2995 BECMG=
201012250700 METAR MROC 250700Z 10010KT 9999 FEW030 19/16 A2995 BECMG=
201012250800 METAR MROC 250800Z 08004KT 9999 20/16 A2995 BECMG=
201012250900 METAR MROC 250900Z 21003KT 9999 FEW030 SCT120 18/16 A2995 BECMG=
201012251000 METAR MROC 251000Z 00000KT 9999 FEW030 SCT120 18/16 A2996 BECMG=
201012251100 METAR MROC 251100Z 00000KT 9999 FEW030 SCT120 17/15 A2998 BECMG=
201012251200 METAR MROC 251200Z 00000KT 9999 SCT030 17/15 A2999 BECMG=
201012251300 METAR MROC 251300Z 00000KT 9999 SCT030 21/17 A3003 RMK DZ DST N NE E FEW120 BECMG=
201012251400 METAR MROC 251400Z 00000KT 9999 SCT030 21/17 A3003 RMK DZ DST N NE E FEW120 BECMG=
201012251500 METAR MROC 251500Z 12006KT 9999 SCT030 24/17 A3002 RMK FEW120 DZ DST N NE E BECMG=
201012251600 METAR MROC 251600Z 12003KT 9999 BKN030 24/18 A3003 RMK PCPN DST N NE E BECMG=
201012251700 METAR MROC 251700Z 17003KT 9999 BKN030 SCT100 25/17 A3000 RMK PCPN DST N NE BECMG 24005KT=
201012251800 METAR MROC 251800Z 25008KT 9999 SCT030 BKN080 25/17 A2998 RMK PCPN DST N NE BECMG=
201012251900 METAR MROC 251900Z 25008KT 9999 SCT030 SCT080 24/18 A2996 RMK PCPN DST N NE E BECMG=
201012252000 METAR MROC 252000Z 25007KT 9999 SCT030 SCT080 24/19 A2995 BECMG=
201012252100 METAR MROC 252100Z 28006KT 9999 SCT030 SCT080 23/19 A2994 RMK PCPN DST QUAD N E BECMG=
201012252200 METAR MROC 252200Z 00000KT 9999 FEW030 SCT080 25/18 A2994 RMK FEW100 PCPN DST QUAD N E BECMG=
201012252300 METAR MROC 252300Z 27007KT 9999 FEW025 SCT100 23/19 A2995 RMK PCPN DST QUAD N E BECMG=
201012260000 METAR MROC 260000Z VRB02KT 9999 FEW030 21/18 A2997 RMK FEW100 PCPN DST QUAD N E BECMG=
201012260100 METAR MROC 260100Z 07004G15KT 9999 FEW025 21/17 A2999 BECMG=
201012260200 METAR MROC 260200Z 11008KT 9999 FEW025 SCT100 21/17 A3001 RMK MAX WND SPD 13KT BECMG=
201012260300 METAR MROC 260300Z 09008KT 9999 FEW035 SCT120 21/17 A3003 BECMG=
201012260400 METAR MROC 260400Z 08006KT CAVOK 21/17 A3003 RMK SCT120 BECMG=
201012260500 METAR MROC 260500Z 09011KT 9999 FEW040 21/17 A3001 RMK FEW120 BECMG=
201012260600 METAR MROC 260600Z 08010G20KT CAVOK 21/17 A2999 BECMG=
201012260700 METAR MROC 260700Z 07005KT CAVOK 20/17 A2998 BECMG=
201012260800 METAR MROC 260800Z 11008KT CAVOK 20/16 A2997=
201012260900 METAR MROC 260900Z 10007KT 9999 FEW040 20/16 A2998=
201012261000 METAR MROC 261000Z 11005KT 9999 FEW040 19/15 A3001=
201012261100 METAR MROC 261100Z 13006KT 9999 SCT040 18/14 A3002=
201012261200 METAR MROC 261200Z 10008KT 9999 FEW035 BKN110 23/14 A3003 RMK CROSS WND MAX WND 13KT FEW080 TCU QUAD N E S BECMG=
201012261300 METAR MROC 261300Z 11005KT 9999 -RA FEW035 SCT050 BKN090 15/14 A3008 BECMG=
201012261400 METAR MROC 261400Z 13004KT 9999 FEW035 SCT100 18/15 A3009 RMK FEW080 FEW250 PCPN DST QUAD N E W BECMG=
201012261500 METAR MROC 261500Z 12006KT 9999 -RA FEW035 BKN100 19/15 A3010 RMK CROSS WND MAX WND SPD 12KT FEW080 PCPN DST QUAD N E W BECMG=
201012261600 METAR MROC 261600Z 13004KT 9999 -RA FEW035 BKN110 21/15 A3009 RMK CROS WND MAX WND SPD 12KT FEW080 BECMG=
201012261700 METAR MROC 261700Z VRB02KT 9999 FEW035 BKN110 22/15 A3006 RMK CROSS WND PCPN DST QUAD N E FEW080 BECMG=
201012261800 METAR MROC 261800Z 10008KT 9999 FEW035 BKN110 23/14 A3003 RMK CROSS WND MAX WND 13KT FEW080 TCU QUAD N E S BECMG=
201012261900 METAR MROC 261900Z 08011KT 9999 FEW030 BKN120 22/15 A3002 RN DST N NE E BECMG0=
201012262000 METAR MROC 262000Z 00000KT 9999 FEW030 BKN120 22/14 A2999 RN DST N NE E BECMG=
201012262100 METAR MROC 262100Z 11010KT 070V140 9999 FEW040 BKN120 21/13 A2999 RMK PCPN DST N NE E VEL MAX VTO 15KT BECMG=
201012262200 METAR MROC 262200Z 12014G26KT 080V150 9999 FEW040 BKN120 19/13 A2998 RMK PCPN DST N NE E BECMG=
201012262300 METAR MROC 262300Z 12016G28KT 9999 FEW040 BKN120 18/13 A3000 RMK PCPN DST N/NE/E BECMG=
201012262345 METAR MROC 262345Z 10016G26KT 9999 4000NE -RADZ SCT030 BKN100 17/12 A3003 BECMG=
201012270000 METAR MROC 270000Z 13018G28KT 9999 FEW030 BKN110 18/13 A3002 RMK PCPN DST N NE E BECMG=
201012270100 METAR MROC 270100Z 12021G35KT 9999 FEW030 SCT120 19/12 A3003 BECMG=
201012270200 METAR MROC 270200Z 12017KT 9999 FEW030 SCT120 18/12 A3006 BECMG 12018G30KT=
201012270300 METAR MROC 270300Z 10020G30KT 9999 FEW030 SCT120 19/11 A3008 BECMG=
201012270400 METAR MROC 270400Z 12022G32KT 9999 SCT030 19/12 A3008 BECMG=
201012270500 METAR MROC 270500Z 12020G33KT 9999 SCT030 19/12 A3006 BECMG=
201012270600 METAR MROC 270600Z 12016G27KT 9999 FEW030 SCT120 18/14 A3004 BECMG=
201012270700 METAR MROC 270700Z 12017G27KT 9999 FEW030 SCT120 18/14 A3004 BECMG=
201012270800 METAR MROC 270800Z 12016G27KT 9999 FEW030 SCT120 18/14 A3001=
201012270900 METAR MROC 270900Z 12018G30KT 9999 FEW030 SCT120 18/14 A2999=
201012271000 METAR MROC 271000Z 12019G29KT 9999 FEW030 SCT120 18/14 A3000=
201012271100 METAR MROC 271100Z 12020G31KT 9999 FEW030 SCT120 18/14 A3002=
201012271200 METAR MROC 271200Z 12017G28KT 9999 FEW030 SCT120 18/15 A3003 RMK FEW250 PCPN DST N E QDS=
201012271300 METAR MROC 271300Z 11015G29KT -DZ 9999 FEW035 19/15 A3004 RMK PCPN DST N VIS 7KM NE BECMG=
201012271400 METAR MROC 271400Z 11018G34KT 9999 FEW030 21/15 A3007 RMK PCPN DST QUAD N VIS 8KM NE BECMG=
201012271500 METAR MROC 271500Z 12017G29KT 9999 FEW035 22/15 A3007 RMK PCPN DST N/NE VIS 8KM NE BECMG=
201012271600 METAR MROC 271600Z 11016G28KT 9999 FEW040 24/15 A3006 RMK FEW120 PCPN DST N NE E BECMG=
201012271700 METAR MROC 271700Z 11018G32KT 9999 FEW040 24/15 A3004 RMK VIS 8KM NE PCPN DST QUAD N BECMG=
201012271800 METAR MROC 271800Z 11018G30KT 9999 FEW035 24/16 A3003 RMK PCPN DST N NE BECMG=
201012271900 METAR MROC 271900Z 09019G29KT 9999 FEW040 25/15 A3000 RMK FEW110 PCPN DST N NE BECMG=
201012272000 METAR MROC 272000Z 10015G25KT 9999 FEW040 BKN110 24/16 A2998 RMK PCPN DST N NE BECMG=
201012272100 METAR MROC 272100Z 08006G20KT 9999 FEW035 BKN110 24/15 A2998 RMK PCPN DST NE BECMG=
201012272200 METAR MROC 272200Z 10007KT 9999 FEW030 BKN110 22/14 A2998 RMK PCPN DST NE BECMG=
201012272300 METAR MROC 272300Z 11012G22KT 9999 FEW030 BKN110 20/13 A2998 RMK PCPN DST NE BECMG=
201012280000 METAR MROC 280000Z 12013KT 9999 FEW025 SCT110 18/14 A3001 BECMG=
201012280100 METAR MROC 280100Z 11015G25KT 9999 FEW030 SCT120 18/14 A3002 RN DST N NE E BECMG=
201012280200 METAR MROC 280200Z 12015G25KT 9999 FEW030 SCT120 19/14 A3003 BECMG=
201012280300 METAR MROC 280300Z 12017G28KT 9999 FEW030 SCT120 19/14 A3006 BECMG=
201012280400 METAR MROC 280400Z 12014G25KT 9999 FEW030 SCT120 19/15 A3005 BECMG=
201012280500 METAR MROC 280500Z 11013G23KT 090V150 9999 FEW030 SCT120 18/15 A3003 BECMG=
201012280600 METAR MROC 280600Z 10010G22KT 050V130 CAVOK 19/15 A3002 BECMG=
201012280700 METAR MROC 280700Z 12014G27KT 090V150 CAVOK 19/15 A2999 BECMG=
201012280800 METAR MROC 280800Z 12017G27KT CAVOK 19/15 A2996 BECMG=
201012280900 METAR MROC 280900Z 12016G26KT CAVOK 19/15 A2995 BECMG=
201012281000 METAR MROC 281000Z 11014G24KT CAVOK 19/15 A2996 BECMG=
201012281100 METAR MROC 281100Z 11013G23KT CAVOK 19/15 A2997 BECMG=
201012281200 METAR MROC 281200Z 13012KT 9999 FEW025 18/15 A2998 RMK PCPN DST QUAD N E CROSS WND MAX WND 21KT BECMG=
201012281300 METAR MROC NIL=
201012281400 METAR MROC 281400Z 11015KT 9999 FEW020 SCT110 21/15 A3004 RMK PCPN DST NE BECMG=
201012281500 METAR MROC 281500Z 05007KT 9999 FEW015 24/15 A3004 RMK PCPN DST NR BECMG=
201012281600 METAR MROC 281600Z 11015KT 9999 FEW015 23/16 A3004 RMK PCPN DST NE BECMG=
201012281700 METAR MROC 281700Z 12010KT 9999 FEW015 24/16 A3001 RMK PCPN DST NE BECMG=
201012281800 METAR MROC 281800Z 13013G24KT 9999 FEW015 SCT120 25/16 A2998 RMK PCPN DST NE BECMG=
201012281900 METAR MROC 281900Z 12012G24KT 9999 FEW015 SCT120 25/16 A2996 BECMG=
201012282000 METAR MROC 282000Z 10008KT 9999 FEW015 SCT120 24/16 A2996 RMK PCPN DST NE BECMG=
201012282100 METAR MROC 282100Z 14007KT 9999 FEW030 SCT080 23/16 A2995 RMK RN DST NE E BECMG=
201012282200 METAR MROC 282200Z 09005KT 9999 FEW030 SCT090 22/16 A2995 RMK RN DST NE E BECMG=
201012282300 METAR MROC 282300Z 14005KT 9999 FEW030 SCT100 22/16 A2996 RMK RN DST NE E BECMG=
201012290000 METAR MROC 290000Z 14006KT 9999 FEW035 SCT100 20/15 A2996 RMK RN DST NE E BECMG=
201012290100 METAR MROC 290100Z 18004KT 9999 FEW035 SCT100 20/16 A2997 BECMG=
201012290200 METAR MROC 290200Z 13006KT CAVOK 19/16 A2998 BECMG=
201012290300 METAR MROC 290300Z 12005KT 080V140 9999 FEW035 19/18 A3000 RMK FEW060 BECMG=
201012290400 METAR MROC 290400Z 06003KT 9999 FEW035 SCT060 19/16 A2999 BECMG=
201012290500 METAR MROC 290500Z 00000KT 9999 FEW035 19/15 A2998 RMK FEW060 BECMG=
201012290600 METAR MROC 290600Z 11006KT 040V100 9999 FEW030 SCT250 19/15 A2996 RMK FEW050 BECMG=
201012290700 METAR MROC 290700Z 04005KT 9999 FEW035 19/15 A2994 RMK FEW060 BECMG=
201012290800 METAR MROC 290800Z 10005KT CAVOK 19/16 A2992 RMK FEW060 BECMG=
201012290900 METAR MROC 290900Z 08005KT CAVOK 19/16 A2990 RMK FEW050 BECMG=
201012291000 METAR MROC 291000Z 03005KT CAVOK 19/15 A2991 RMK FEW050 BECMG=
201012291100 METAR MROC 291100Z 14006KT CAVOK 19/16 A2993 RMK SCT070 BECMG=
201012291200 METAR MROC 291200Z 13004KT 9999 FEW045 BKN060 19/16 A2994 RMK SCT250 PCPN DST N NE VIS 8KM NE BECMG=
201012291300 METAR MROC 291300Z 15004KT 9999 FEW040 SCT080 20/16 A2996 RMK RN DST N NE E BECMG=
201012291400 METAR MROC 291400Z 11008KT 9999 FEW035 22/16 A2997 RMK RN DST N NE E BECMG=
201012291500 METAR MROC 291500Z 12012KT 9999 FEW035 24/17 A2996 RMK RN DST N NE E BECMG=
201012291600 METAR MROC 291600Z 13012KT 9999 FEW035 25/16 A2996 RMK RN DST N NE E BECMG=
201012291700 METAR MROC 291700Z 09011G21KT 9999 FEW035 27/16 A2995 RMK RN DST N NE E BECMG=
201012291800 METAR MROC 291800Z 09013KT 9999 FEW035 27/16 A2992 RMK SCT090 RN DST N NE E BECMG=
201012291900 METAR MROC 291900Z 09013KT 9999 FEW035 26/16 A2991 FEW100 RN DST N NE E BECMG0=
201012292000 METAR MROC 292000Z 15010KT 9999 SCT035 BKN250 26/17 A2989 RN DST N NE E BECMG0=
201012292100 METAR MROC 292100Z 11009KT 9999 SCT035 BKN270 27/17 A2987 DZ DST N NE E BECMG=
201012292200 METAR MROC 292200Z 10007KT 9999 FEW030 BKN250 26/16 A2988 RMK PCPN DST N NE BECMG=
201012292300 METAR MROC 292300Z 13008KT 9999 FEW030 BKN270 24/17 A2998 RMK DZ N NE BECMG=
201012300000 METAR MROC 300000Z 15004KT 9999 FEW030 SCT270 21/17 A2991 PCPN DST N NE BECMG=
201012300003 METAR MROC 300003Z 15004KT 9999 FEW030 SCT270 21/17 A2991 RMK PCPN DST N NE BECMG=
201012300100 METAR MROC 300100Z 14007KT 9999 FEW030 SCT270 21/17 A2994 BECMG=
201012300200 METAR MROC 300200Z 12004KT 9999 FEW030 SCT270 21/17 A2996 BECMG=
201012300300 METAR MROC 300300Z 13010KT 9999 FEW030 SCT270 21/17 A2997 BECMG=
201012300400 METAR MROC 300400Z 14006KT 9999 FEW030 SCT270 21/17 A2998 BECMG=
201012300500 METAR MROC 300500Z 14010KT 9999 FEW030 21/17 A2996 RMK FEW129 BECMG=
201012300600 METAR MROC 300600Z 14005KT 9999 FEW030 SCT120 21/17 A2995 BECMG=
201012300700 METAR MROC 300700Z 13007KT 9999 FEW030 SCT120 21/17 A2994 BECMG=
201012300800 METAR MROC 300800Z 11006KT 9999 FEW030 SCT120 20/17 A2993 BECMG=
201012300900 METAR MROC 300900Z 08005KT 9999 FEW030 SCT120 20/17 A2992 BECMG=
201012301000 METAR MROC 301000Z 08003KT 9999 FEW030 SCT120 19/17 A2993 BECMG=
201012301100 METAR MROC 301100Z 11012KT 9999 FEW030 20/17 A2994 BECMG=
201012301200 METAR MROC 301200Z 12012KT 9999 FEW030 20/17 A2995 BECMG=
201012301300 METAR MROC 301300Z 12007KT CAVOK 22/17 A2997 BECMG=
201012301400 METAR MROC 301400Z 13009KT CAVOK 24/17 A2999 BECMG=
201012301500 METAR MROC 301500Z 14011KT 9999 FEW035 26/17 A3000 RMK FEW300 BECMG=
201012301600 METAR MROC 301600Z 13010KT 9999 FEW030 27/17 A3000 BECMG 24006KT=
201012301700 METAR MROC 301700Z 11008KT 9999 FEW035 28/17 A2999 BECMG=
201012301800 METAR MROC 301800Z 10008KT 9999 FEW035 29/15 A2996 BECMG 24006KT=
201012301900 METAR MROC 301900Z 10007KT 9999 FEW035 29/15 A2993 RMK FEW120 BECMG=
201012302000 METAR MROC 302000Z 22006KT 9999 FEW035 SCT120 27/20 A2990 BECMG=
201012302030 METAR MROC 302030Z 13004KT 9999 FEW035 SCT120 29/16 A2989 RMK CROSS WND BECMG=
201012302100 METAR MROC 302100Z 24008KT 9999 FEW035 SCT120 27/21 A2988 RMK CROSS WND PCPN DST QUAD N E BECMG=
201012302200 METAR MROC 302200Z 17009KT 9999 FEW040 BKN120 25/18 A2990 RMK TCU DST W SW RA DST QUAD N E CROSS WND BECMG=
201012302300 METAR MROC 302300Z 12006KT 9999 -RA FEW020 SCT080 BKN110 21/19 A2993 RMK VIS 8KM E MAX WND SPD 11KT CROSS WND BECMG=
201012302317 METAR MROC 302317Z VRB02KT 9999 4000W -RA BR FEW020 SCT080 BKN110 21/20 A2994 BECMG=
201012310000 METAR MROC 310000Z 11007KT 9999 FEW020 SCT080 BKN110 21/19 A2995 RMK MAX WND SPD 13KT BECMG=
201012310100 METAR MROC 310100Z 07003KT 9999 FEW030 BKN100 20/20 A2997 BECMG=
201012310200 METAR MROC 310200Z 08006KT 9999 FEW030 BKN100 21/19 A2997 BECMG=
201012310300 METAR MROC 310300Z 12010KT 9999 FEW035 SCT100 21/19 A2997 BECMG=
201012310400 METAR MROC 310400Z 14010KT 9999 FEW030 SCT100 21/18 A2998 BECMG=
201012310500 METAR MROC 310500Z 13008KT 9999 SCT035 21/18 A2998 BECMG=
201012310600 METAR MROC 310600Z 13007KT 9999 SCT035 21/19 A2996 BECMG=
201012310700 METAR MROC 310700Z 13007KT 9999 SCT035 21/19 A2994 BECMG=
201012310800 METAR MROC 310800Z 12007KT 9999 FEW035 21/19 A2992=
201012310900 METAR MROC 310900Z 13007KT 9999 FEW035 21/18 A2992=
201012311000 METAR MROC 311000Z 10002KT CAVOK 20/18 A2992 RMK BKN250=
201012311100 METAR MROC 311100Z 10002KT CAVOK 20/18 A2995=
201012311200 METAR MROC 311200Z 07004KT 9999 FEW030 SCT250 19/18 A2997 RMK DZ DST N NE E=
201012311300 METAR MROC 311300Z 12005KT 9999 FEW030 BKN250 21/17 A3000 RMK PCPN DST QUAD N E BECMG=
201012311400 METAR MROC 311400Z 12006KT 9999 FEW030 BKN250 22/17 A3003 RMK CROSS WND PCPN DST QUAD N E BECMG=
201012311500 METAR MROC 311500Z 09013KT 9999 FEW030 BKN250 25/15 A3003 RMK CROSS WND MAX WND 20KT PCPN DST QUAD N E BECMG=
201012311600 METAR MROC 311600Z 10013KT 9999 FEW030 26/14 A3002 RMK FEW250 PCPN DST QUAD N E BECMG=
201012311700 METAR MROC 311700Z 09010KT 9999 FEW045 27/15 A3001 RMK CROSS WND MAX WND 18KT FEW250 PCPN DST QUAD N E TCU DST W BECMG=
201012311800 METAR MROC 311800Z 09011KT 9999 FEW045 27/14 A2998 RMK FEW250 PCPN DST N E TCU DST W BECMG=
201012311900 METAR MROC 311900Z 10009KT 9999 FEW040 28/14 A2995 BECMG=
201012312000 METAR MROC 312000Z 09011KT 9999 FEW045 29/15 A2992 BECMG=
201012312100 METAR MROC 312100Z 10012KT 9999 FEW045 28/16 A2990 RMK VEL MAX VTO 15KT BECMG=
201012312200 METAR MROC 312200Z 10009KT 9999 RADZ FEW040 BKN060 26/18 A2992 RMK VIS 6KM NE BECMG=
201012312300 METAR MROC 312300Z 12006KT 9999 FEW025 SCT045 23/19 A2994 RMK FEW060 BECMG=
