201101010000 METAR MROC 010000Z 10008KT 9999 FEW040 22/18 A2995 RMK FEW070 FEW250 NOSIG=
201101010100 METAR MROC 010100Z 11007KT 9999 FEW035 SCT070 22/18 A2996 RMK FEW250 NOSIG=
201101010200 METAR MROC 010200Z 11007KT 9999 FEW035 SCT070 22/18 A3001 NOSIG=
201101010300 METAR MROC 010300Z 14004KT 9999 FEW035 SCT080 21/18 A3002 NOSIG=
201101010400 METAR MROC 010400Z 13005KT 9999 FEW035 21/18 A3002 RMK FEW250 NOSIG=
201101010500 METAR MROC 010500Z 14005KT 9999 FEW035 20/17 A3001 RMK FEW250 NOSIG=
201101010600 METAR MROC 010600Z 12006KT CAVOK 20/17 A2999 RMK SCT250 NOSIG=
201101010700 METAR MROC 010700Z 08010KT CAVOK 20/17 A2997 RMK SCT250 NOSIG=
201101010800 METAR MROC 010800Z 00000KT CAVOK 20/17 A2995 RMK SCT250=
201101010900 METAR MROC 010900Z 09008KT CAVOK 21/18 A2995 RMK SCT250=
201101011000 METAR MROC 011000Z 00000KT CAVOK 20/18 A2996 RMK FEW120 SCT250=
201101011100 METAR MROC 011100Z 12002KT CAVOK 20/17 A2997 RMK FEW120 SCT250=
201101011200 METAR MROC 011200Z 13006KT CAVOK 20/17 A2997 RMK FEW250=
201101011300 METAR MROC 011300Z 14007KT 9999 FEW045 22/17 A3002 NOSIG=
201101011400 METAR MROC 011400Z 12010KT CAVOK 24/17 A3003 RMK VEL MAX VTO 15KT NOSIG=
201101011500 METAR MROC 011500Z 10012KT 9999 FEW045 26/15 A3002 RMK VEL MAX VTO 16KT NOSIG=
201101011600 METAR MROC 011600Z 09013KT 9999 FEW045 27/15 A3002 NOSIG=
201101011700 METAR MROC 011700Z 08014KT 9999 FEW045 28/16 A3000 NOSIG=
201101011800 METAR MROC 011800Z 08013KT 9999 FEW040 28/15 A2998 RMK VEL MAX VTO 19KT NOSIG=
201101011900 METAR MROC 011900Z 08013KT 9999 FEW040 29/16 A2996 RMK FEW200 VEL MAX VTO 19KT NOSIG=
201101012000 METAR MROC 012000Z 09012KT 9999 FEW030 SCT040 29/17 A2993 RMK TCU DST N/SW NOSIG=
201101012100 METAR MROC 012100Z 08010KT 9999 SCT035 28/16 A2992 NOSIG=
201101012200 METAR MROC 012200Z 08008KT 9999 FEW030 28/15 A2992 NOSIG=
201101012300 METAR MROC 012300Z 11006KT 9999 FEW030 26/16 A2993 NOSIG=
201101012351 METAR MROC 020000Z 09008KT 9999 FEW030 24/16 A2995 NOSIG=
201101020000 METAR MROC 020000Z 09008KT 9999 FEW030 24/16 A2995 NOSIG=
201101020100 METAR MROC 020100Z 13007KT 9999 FEW030 23/18 A2999 NOSIG=
201101020200 METAR MROC 020200Z 14008KT 9999 FEW035 22/18 A3001 NOSIG=
201101020300 METAR MROC 020300Z 15007KT 9999 FEW030 22/18 A3002 RMK MAX WND 13KT NOSIG=
201101020400 METAR MROC 020400Z 07004KT 9999 FEW040 21/18 A3003 RMK MAX WND 10KT NOSIG=
201101020500 METAR MROC 020500Z 10004KT 9999 FEW040 21/18 A3001 NOSIG=
201101020600 METAR MROC 020600Z 10004KT 9999 FEW040 21/18 A2999 NOSIG=
201101020700 METAR MROC 020700Z 00000KT 9999 SCT045 BKN080 19/19 A2998 NOSIG=
201101020800 METAR MROC 020800Z 00000KT 9999 5000W BR FEW001 SCT045 BKN080 19/19 A2997 NOSIG=
201101020825 METAR MROC 020825Z 00000KT 9999 4000W BR FEW001 SCT045 BKN080 19/19 A2997 NOSIG=
201101020900 METAR MROC 020900Z 00000KT 9999 FEW001 SCT080 19/19 A2996 RMK FEW045 LGT BR ARND NOSIG=
201101021000 METAR MROC 021000Z 00000KT 9999 1200SW BR FEW001 SCT080 18/18 A2997 RMK FEW035 NOSIG=
201101021011 METAR MROC 021011Z 00000KT 1200 0400SW FG FEW001 SCT035 18/18 A2997 RMK VIS E UNL SCT080 NOSIG=
201101021022 METAR MROC 021022Z 00000KT 1200 RA BR FEW001 SCT035 18/18 A2997 RMK VIS E UNL SCT080 NOSIG=
201101021040 METAR MROC 021040Z 00000KT 3000 RA BR FEW001 SCT035 19/19 A2998 RMK VIS E UNL SCT080 NOSIG=
201101021100 METAR MROC 021100Z 00000KT 5000 -RA BR FEW001 SCT035 19/19 A2998 RERA RMK VIS E UNL SCT080 NOSIG=
201101021200 METAR MROC 021200Z VRB02KT 9999 FEW040 BKN090 19/19 A2998 RMK VIS 8KM SE PCPN DST QUAD N E LOW ST SW NOSIG=
201101021300 METAR MROC 021300Z 00000KT 9999 BKN025 21/20 A3000 RMK PCPN DST N NE E SW NOSIG=
201101021400 METAR MROC 021400Z 09004KT 9999 BKN025 21/20 A3002 RMK PCPN DST N NE E NOSIG=
201101021500 METAR MROC 021500Z 00000KT 9999 SCT030 BKN250 21/17 A3000 RMK PCPN DST N NE E NOSIG=
201101021510 METAR MROC 021510Z 12008KT 9999 4000NE -RADZ BKN020 22/17 A3000 NOSIG=
201101021600 METAR MROC 021600Z 12010KT 9999 BKN030 23/18 A3002 RMK PCPN DST N NE E SW NOSIG=
201101021700 METAR MROC 021700Z 10010KT 9999 FEW030 BKN080 24/17 A3000 RMK PCPN DST N NE E NOSIG=
201101021800 METAR MROC 021800Z 10013KT 9999 SCT030 26/17 A2998 RMK PCPN DST N NE E FEW250 NOSIG=
201101021900 METAR MROC 021900Z 10008KT 9999 SCT030 BKN250 27/17 A2996 RMK PCPN DST N NE E NOSIG=
201101022000 METAR MROC 022000Z 10011KT 9999 SCT030 BKN250 26/17 A2994 RMK PCPN DST N NE E NOSIG=
201101022100 METAR MROC 022100Z 09012KT 9999 SCT030 SCT250 25/16 A2993 RMK RN DST N NE E NOSIG=
201101022200 METAR MROC 022200Z 10010KT 9999 SCT035 23/15 A2994 RMK RN DST N NE E NOSIG=
201101022300 METAR MROC 022300Z 09009KT 9999 FEW035 21/15 A2995 RMK DZ DST N NE E NOSIG=
201101030000 METAR MROC 030000Z 09010KT 9999 FEW035 21/14 A2995 RMK DZ DST N NE E NOSIG=
201101030100 METAR MROC 030100Z 12007KT 9999 FEW035 20/15 A2997 NOSIG=
201101030200 METAR MROC 030200Z 12007KT 9999 FEW035 20/16 A2998 NOSIG=
201101030300 METAR MROC 030300Z 12009KT 9999 FEW040 20/17 A3000 RMK FEW050 VEL MAX VTO 15KT NOSIG=
201101030400 METAR MROC 030400Z 12010KT 9999 FEW040 SCT250 20/17 A3000 RMK FEW050 VEL MAX VTO 15KT NOSIG=
201101030500 METAR MROC 030500Z 12010KT 9999 FEW040 SCT070 20/16 A2999 RMK FEW250 NOSIG=
201101030600 METAR MROC 030600Z 12011KT 9999 FEW045 20/17 A2998 RMK FEW060 VEL MAX VTO 19KT NOSIG=
201101030700 METAR MROC 030700Z 11010KT 9999 FEW045 20/17 A2998 RMK FEW060 NOSIG=
201101030800 METAR MROC 030800Z 11010KT 9999 FEW040 20/16 A2994 RMK FEW050 NOSIG=
201101030900 METAR MROC 030900Z 11010KT 9999 FEW040 20/16 A2998 RMK FEW060 NOSIG=
201101031000 METAR MROC 031000Z 10012KT 9999 -DZ FEW040 20/16 A2994 RMK FEW050 VIS 8KM NE NOSIG=
201101031100 METAR MROC 031100Z 10015KT 9999 FEW045 19/15 A2995 RMK FEW060 VEL MAX VTO 21KT NOSIG=
201101031200 METAR MROC 031200Z 09016KT 9999 FEW040 SCT250 20/15 A2996 RMK DZ DST=
201101031300 METAR MROC 031300Z 09017KT 9999 FEW040 BKN250 20/14 A2998 RMK DZ DST NE E NOSIG=
201101031400 METAR MROC 031400Z 09019KT CAVOK 22/13 A3000 RMK BKN250 DZ DST NE NOSIG=
201101031500 METAR MROC 031500Z 10014G29KT CAVOK 22/12 A3000 RMK BKN250 DZ DST NE NOSIG=
201101031600 METAR MROC 031600Z 10017G27KT CAVOK 24/09 A3000 RMK BKN250 DZ DST NE NOSIG=
201101031700 METAR MROC 031700Z 10016G26KT CAVOK 25/09 A2999 RMK SCT250 DZ DST NE NOSIG=
201101031800 METAR MROC 031800Z 11014G24KT CAVOK 26/11 A2997 RMK SCT250 DZ DST NE NOSIG=
201101031900 METAR MROC 031900Z 12015KT 9999 FEW035 26/13 A2995 NOSIG=
201101032000 METAR MROC 032000Z 10013KT 9999 FEW035 26/14 A2993 NOSIG=
201101032100 METAR MROC 032100Z 11011KT 9999 FEW040 25/15 A2992 RMK PCPN DST N NE NOSIG=
201101032200 METAR MROC 032200Z 12010KT 9999 FEW040 SCT070 22/16 A2993 RMK PCPN DST N NE NOSIG=
201101032300 METAR MROC 032300Z 12012KT 9999 FEW035 BKN060 21/15 A2994 RMK PCPN DST N NE NOSIG=
201101040000 METAR MROC 040000Z 12012KT 9999 FEW035 BKN060 20/15 A2995 RMK VEL MAX VTO 17KT NOSIG=
201101040100 METAR MROC 040100Z 13011KT 9999 FEW035 SCT070 20/15 A2997 RMK VEL MAX VTO 18KT NOSIG=
201101040200 METAR MROC 040200Z 12011KT 9999 FEW035 SCT120 19/15 A2999 RMK VEL MAX VTO 17KT NOSIG=
201101040300 METAR MROC 040300Z 12010KT 9999 FEW035 SCT100 18/14 A3001 NOSIG=
201101040400 METAR MROC 040400Z 10010KT 9999 FEW035 SCT100 18/13 A3002 NOSIG=
201101040500 METAR MROC 040500Z 00000KT 9999 FEW030 18/14 A3001 NOSIG=
201101040600 METAR MROC 040600Z 10010KT 9999 FEW030 18/14 A3000 NOSIG=
201101040700 METAR MROC 040700Z 10011KT 9999 FEW030 18/14 A2998 NOSIG=
201101040800 METAR MROC 040800Z 08006KT 9999 FEW030 18/14 A2997 NOSIG=
201101040900 METAR MROC 040900Z 05003KT 9999 FEW030 19/15 A2996 NOSIG=
201101041000 METAR MROC 041000Z 32003KT 9999 FEW030 17/14 A2997 NOSIG=
201101041100 METAR MROC 041100Z 08005KT 9999 FEW030 17/14 A2998 NOSIG=
201101041200 METAR MROC 041200Z 11010KT 9999 FEW030 19/14 A2998 NOSIG=
201101041300 METAR MROC 041300Z 12007KT CAVOK 21/15 A3000 RMK VEL MAX VTO 14KT NOSIG=
201101041400 METAR MROC 041400Z 13011KT CAVOK 22/16 A3002 RMK VEL MAX VTO 16KT NOSIG=
201101041500 METAR MROC 041500Z 11012KT CAVOK 24/14 A3002 RMK VEL MAX VTO 21KT NOSIG=
201101041600 METAR MROC 041600Z 10014KT CAVOK 25/15 A3002 RMK VEL MAX VT0 16KT NOSIG=
201101041700 METAR MROC 041700Z 10012KT CAVOK 26/15 A3001 RMK VEL MAX VTO 17KT NOSIG=
201101041800 METAR MROC 041800Z 11012KT 9999 FEW035 26/15 A2999 RMK VEL MAX VTO 19KT NOSIG=
201101041900 METAR MROC 041900Z 11011KT 9999 FEW035 27/14 A2997 RMK VEL MAX VTO 17KT NOSIG=
201101042000 METAR MROC 042000Z 12010KT 9999 FEW035 28/14 A2995 RMK VEL MAX VTO 17KT NOSIG=
201101042027 METAR MROC 042027Z 10012KT 090V150 9999 FEW035 27/14 A2994 RMK VEL MAX VTO 18KT NOSIG=
201101042100 METAR MROC 042100Z 12009KT 9999 FEW035 27/14 A2993 RMK PCPN DST N E CROSS WND MAX WND 15KT NOSIG=
201101042200 METAR MROC 042200Z 13012KT 090V150 9999 FEW032 26/14 A2993 RMK PCPN DST N E NOSIG=
201101042300 METAR MROC 042300Z 10008KT 9999 FEW030 25/15 A2995 RMK FEW080 FEW110 PCPN DST N E CROSS WND MAX WND 14KT NOSIG=
201101042356 METAR MROC 050000Z 12006KT 9999 FEW030 22/15 A2996 NOSIG=
201101042357 METAR MROC 050000Z 12006KT 9999 FEW030 22/15 A2996 NOSIG=
201101050000 METAR MROC 050000Z 12006KT 9999 FEW030 22/15 A2996 NOSIG=
201101050100 METAR MROC 050100Z 10003KT 9999 FEW030 21/16 A2999 NOSIG=
201101050200 METAR MROC 050200Z 08008KT CAVOK 20/16 A3001 NOSIG=
201101050300 METAR MROC 050300Z 09008KT CAVOK 20/16 A3002 NOSIG=
201101050400 METAR MROC 050400Z 07005KT CAVOK 20/16 A3003 NOSIG=
201101050500 METAR MROC 050500Z 07003KT CAVOK 20/17 A3002 RMK FEW120 NOSIG=
201101050600 METAR MROC 050600Z 09004KT CAVOK 20/16 A3001 RMK FEW120 NOSIG=
201101050700 METAR MROC 050700Z 11006KT CAVOK 19/16 A3000 RMK FEW120 NOSIG=
201101050800 METAR MROC 050800Z 08006KT CAVOK 18/16 A2998=
201101050900 METAR MROC 050900Z 06005KT CAVOK 18/16 A2997=
201101051000 METAR MROC 051000Z 08005KT CAVOK 19/16 A2997=
201101051100 METAR MROC 051100Z 08005KT CAVOK 20/16 A2998 RMK SCT120 RN DST NE E=
201101051200 METAR MROC 051200Z 12010G23KT CAVOK 20/17 A2998 RMK BKN080 RN DST N NE E=
201101051300 METAR MROC 051300Z 13011G21KT 9999 FEW025 SCT080 21/17 A3000 RMK FEW110 PCPN DST N E NOSIG=
201101051326 METAR MROC 051326Z 13011KT 110V170 9999 FEW025 SCT080 22/17 A3001 RMK MAX WND 19KT FEW110 PCPN DST N E NOSIG=
201101051400 METAR MROC 051400Z 13015KT 9999 FEW030 SCT120 23/16 A3002 RMK CROSS WND MAX WND 22KT FEW080 PCPN DST N E NOSIG=
201101051500 METAR MROC 051500Z 12015KT 9999 FEW030 SCT120 23/16 A3003 RMK FEW080 PCPN DST N E MAX WND 21KT NOSIG=
201101051600 METAR MROC 051600Z 11015KT 9999 FEW025 SCT110 25/15 A3002 RMK CROSS WND MAX WND 22KT PCPN DST N E NOSIG=
201101051700 METAR MROC 051700Z 13010KT 9999 FEW030 BKN110 25/16 A3001 RMK CROSS WND MAX WND 15KT PCPN DST N E FEW080 NOSIG=
201101051800 METAR MROC 051800Z 31005KT 9999 FEW035 SCT080 BKN110 25/17 A2999 RMK PCPN DST N E CROSS WND MAX WND 10KT NOSIG=
201101051810 METAR MROC 051810Z 32004KT 9999 -RADZ FEW035 SCT080 BKN110 25/17 A2999 RMK PCPN DST N E CROSS WND MAX NOSIG=
201101051820 METAR MROC 051820Z 13004G18KT 9999 -RADZ FEW035 SCT080 BKN110 24/18 A2999 RMK PCPN DST N E CROSS WND NOSIG=
201101051900 METAR MROC 051900Z 14007KT 9999 SCT035 SCT110 24/17 A2997 RMK CROSS WND PCPN DST N E NOSIG=
201101052000 METAR MROC 052000Z 10012KT 9999 FEW040 BKN110 24/16 A2995 RMK FEW080 PCPN DST N E SW TCU DST W NOSIG=
201101052100 METAR MROC 052100Z 11011G21KT 9999 FEW040 SCT050 BKN120 26/16 A2994 RMK DZ DST NE E TCU DST S NOSIG=
201101052200 METAR MROC 052200Z 15012KT 9999 FEW040 SCT060 24/16 A2994 RMK FEW110 DZ DST N NE NOSIG=
201101052300 METAR MROC 052300Z 10009KT 9999 FEW040 BKN060 22/16 A2997 RMK DZ DST NE NOSIG=
201101060000 METAR MROC 060000Z 13010KT 9999 FEW040 SCT050 BKN100 21/16 A2998 RMK VEL MAX VTO 15KT DZ DST N NE NOSIG=
201101060100 METAR MROC 060100Z 11008KT 9999 FEW045 BKN080 21/16 A3000 RMK VEL MAX VTO 14KT NOSIG=
201101060200 METAR MROC 060200Z 12009KT 9999 FEW045 BKN100 20/16 A3002 NOSIG=
201101060300 METAR MROC 060300Z 12008KT CAVOK 20/16 A3002 RMK SCT120 NOSIG=
201101060400 METAR MROC 060400Z 07004KT CAVOK 19/16 A3003 RMK SCT120 NOSIG=
201101060500 METAR MROC 060500Z 09006KT CAVOK 19/16 A3001 RMK SCT120 NOSIG=
201101060600 METAR MROC 060600Z 09007KT CAVOK 19/16 A3000 RMK SCT120 NOSIG=
201101060700 METAR MROC 060700Z 10006KT CAVOK 19/16 A2998 RMK SCT120 NOSIG=
201101060800 METAR MROC 060800Z 09005KT CAVOK 18/16 A2996 RMK SCT120=
201101060900 METAR MROC 060900Z 09005KT CAVOK 18/16 A2995 RMK SCT120=
201101061000 METAR MROC 061000Z 10005KT CAVOK 18/15 A2996 RMK SCT120=
201101061100 METAR MROC 061100Z 06006KT CAVOK 17/15 A2999 RMK FEW120=
201101061200 METAR MROC 061200Z 07005KT 9999 FEW035 16/14 A3000 RMK DZ DST NE=
201101061300 METAR MROC 061300Z 04005KT CAVOK 18/15 A3002 NOSIG=
201101061400 METAR MROC 061400Z 10010KT 070V130 CAVOK 23/15 A3003 RMK SCT110 NOSIG=
201101061500 METAR MROC 061500Z 12010KT CAVOK 24/15 A3003 RMK SCT120 VEL MAX VTO 16KT NOSIG=
201101061600 METAR MROC 061600Z 10009KT CAVOK 26/15 A3002 RMK FEW120 VEL MAX VTO 14KT NOSIG=
201101061700 METAR MROC 061700Z 10006KT CAVOK 27/15 A3000 RMK FEW050 BECMG 24005KT=
201101061800 METAR MROC 061800Z 23007KT 9999 FEW040 26/16 A2998 RMK FEW050 NOSIG=
201101061900 METAR MROC 061900Z 23007KT 9999 FEW030TCU 26/17 A2996 RMK FEW045 NOSIG=
201101062000 METAR MROC 062000Z 22008KT 9999 FEW030TCU 27/18 A2994 RMK FEW045 NOSIG=
201101062100 METAR MROC 062100Z 23008KT 9999 SCT030TCU 27/18 A2993 NOSIG=
201101062200 METAR MROC 062200Z 27009KT 9999 SCT030TCU 24/19 A2994 NOSIG=
201101062300 METAR MROC 062300Z 27009KT 9999 SCT020TCU 23/18 A2995 RMK PCPN DST ESE NOSIG=
201101070000 METAR MROC 070000Z 19003KT 9999 BKN015 21/20 A2998 RMK RA DST E S SW BECMG 8000 VCSH VCFG=
201101070100 METAR MROC 070100Z 23002KT 9999 FEW010 SCT015 20/20 A3000 RMK HZ ARND NOSIG=
201101070200 METAR MROC 070200Z 00000KT 9999 SCT020 20/20 A3002 RMK HZ ARND NOSIG=
201101070300 METAR MROC 070300Z VRB02KT 9999 5000W BR FEW020 SCT040 20/20 A3003 NOSIG=
201101070400 METAR MROC 070400Z VRB02KT 9999 FEW020 20/20 A3002 RMK LGT BR ARND FEW100 NOSIG=
201101070415 METAR MROC 070415Z 12005KT 9999 FEW020 19/17 A3002 RMK LGT BR ARND FEW100 NOSIG=
201101070500 METAR MROC 070500Z 10005KT CAVOK 19/17 A3001 NOSIG=
201101070600 METAR MROC 070600Z 11004KT CAVOK 19/17 A3000 NOSIG=
201101070700 METAR MROC 070700Z 10005KT CAVOK 18/16 A2999 NOSIG=
201101070800 METAR MROC 070800Z 12004KT CAVOK 18/15 A2998 NOSIG=
201101070900 METAR MROC 070900Z 07004KT 9999 FEW020 17/14 A2997 NOSIG=
201101071000 METAR MROC 071000Z 10006KT 9999 FEW020 18/14 A2997 NOSIG=
201101071100 METAR MROC 071100Z 08008KT CAVOK 18/14 A2998 NOSIG=
201101071200 METAR MROC 071200Z 07009KT CAVOK 19/14 A2998 RMK PCPN DST QUAD N E NOSIG=
201101071300 METAR MROC 071300Z 11004KT 9999 FEW025 BKN250 20/15 A3001 RMK DZ DST NE NOSIG=
201101071400 METAR MROC 071400Z 08006KT 9999 FEW025 BKN250 22/15 A3003 RMK DZ DST NE NOSIG=
201101071500 METAR MROC 071500Z 12010G22KT 9999 FEW030 BKN250 23/16 A3002 RMK DZ DST NE NOSIG=
201101071600 METAR MROC 071600Z 10014KT 9999 FEW030 BKN250 24/16 A3000 RMK DZ DST NE NOSIG=
201101071700 METAR MROC 071700Z 12020KT 9999 FEW025 BKN250 24/16 A2998 RMK DZ DST NE NOSIG=
201101071800 METAR MROC 071800Z 11014KT 9999 FEW030 BKN250 25/16 A2995 RMK DZ DST NE NOSIG=
201101071900 METAR MROC 071900Z 12017G27KT 9999 FEW035 BKN250 26/16 A2992 RMK DZ DST NE NOSIG=
201101072000 METAR MROC 072000Z 14013KT 9999 SCT030 SCT250 26/16 A2990 NOSIG=
201101072100 METAR MROC 072100Z 13012KT 9999 FEW035 SCT250 25/16 A2988 RMK VEL MAX VTO 21KT NOSIG=
201101072200 METAR MROC 072200Z 14012KT 9999 FEW035 SCT250 25/16 A2989 RMK VEL MAX VTO 18KT NOSIG=
201101072300 METAR MROC 072300Z 13011KT 9999 FEW035 BKN250 22/16 A2989 RMK VEL MAX VTO 20KT=
201101072345 METAR MROC 072345Z 09013KT 9999 SCT020 SCT250 19/15 A2990 RMK RA DST NE E VEL MAX VTO 20KT FEW100 NOSIG=
201101080000 METAR MROC 080000Z 12011KT 9999 FEW030 SCT250 20/16 A2992 NOSIG=
201101080100 METAR MROC 080100Z 12009KT 9999 FEW030 20/15 A2994 NOSIG=
201101080200 METAR MROC 080200Z 11010KT 9999 FEW030 20/15 A2997 NOSIG=
201101080300 METAR MROC 080300Z 11007KT 9999 FEW020 19/15 A2999 RMK FEW040 NOSIG=
201101080400 METAR MROC 080400Z 11006KT CAVOK 19/16 A2998 RMK FEW250 NOSIG=
201101080500 METAR MROC 080500Z 11006KT CAVOK 19/16 A2998 RMK SCT200 NOSIG=
201101080600 METAR MROC 080600Z 07007KT CAVOK 18/16 A2998 RMK SCT200 NOSIG=
201101080700 METAR MROC 080700Z 08008KT CAVOK 18/16 A2996 RMK SCT250 NOSIG=
201101080800 METAR MROC 080800Z 10005KT CAVOK 19/16 A2994 RMK BKN250 NOSIG=
201101080900 METAR MROC 080900Z VRB02KT CAVOK 18/16 A2994 RMK BKN200 NOSIG=
201101081000 METAR MROC 081000Z 08005KT CAVOK 18/16 A2995 RMK BKN250 NOSIG=
201101081100 METAR MROC 081100Z 00000KT CAVOK 18/16 A2996 RMK OVC250 NOSIG=
201101081200 METAR MROC 081200Z 07003KT CAVOK 17/15 A2997 RMK OVC250 NOSIG=
201101081300 METAR MROC 081300Z 08004KT CAVOK 18/16 A3001 RMK FEW100 BKN250 NOSIG=
201101081400 METAR MROC 081400Z 08006KT 9999 FEW035 BKN250 22/17 A3003 BECMG 24006KT=
201101081500 METAR MROC 081500Z 12009KT 9999 FEW040 BKN250 22/16 A3003 RMK FEW100 BECMG 24006KT=
201101081600 METAR MROC 081600Z 12010KT CAVOK 25/16 A3002 RMK FEW120 BKN250 VEL MAX VTO 16KT NOSIG=
201101081700 METAR MROC 081700Z 12010KT CAVOK 25/15 A2999 RMK BKN250 NOSIG=
201101081800 METAR MROC 081800Z 14007KT CAVOK 28/15 A2996 RMK BKN250 NOSIG=
201101081900 METAR MROC 081900Z 14008KT 9999 FEW035 BKN250 28/16 A2993 RMK BECMG 24006KT=
201101082000 METAR MROC 082000Z 22005KT 9999 FEW035 SCT120 BKN250 27/20 A2991 NOSIG=
201101082100 METAR MROC 082100Z 25009KT 9999 FEW025TCU SCT035 26/20 A2990 RMK LGT HZ ARND FEW250 NOSIG=
201101082200 METAR MROC 082200Z 25006KT 9999 SCT030 SCT250 25/20 A2990 RMK LGT HZ ARND NOSIG=
201101082300 METAR MROC 082300Z 25006KT 9999 FEW035 SCT140 BKN250 23/19 A2992 RMK LGT HZ ARND NOSIG=
201101090000 METAR MROC 090000Z 23004KT 9999 FEW030 SCT140 BKN250 22/19 A2993 RMK HZY NOSIG=
201101090100 METAR MROC 090100Z 18002KT 9999 FEW030 SCT140 BKN250 21/18 A2995 RMK LGT HZ ARND NOSIG=
201101090200 METAR MROC 090200Z 09002KT CAVOK 21/18 A2996 RMK FEW140 BKN250 NOSIG=
201101090300 METAR MROC 090300Z 00000KT CAVOK 21/18 A2997 RMK FEW120 SCT250 NOSIG=
201101090400 METAR MROC 090400Z 05004KT CAVOK 20/18 A2998 RMK FEW120 SCT250 NOSIG=
201101090500 METAR MROC 090500Z 00000KT CAVOK 19/18 A2997 RMK FEW120 SCT250 NOSIG=
201101090600 METAR MROC 090600Z 00000KT CAVOK 19/18 A2997 RMK FEW120 SCT250 NOSIG=
201101090700 METAR MROC 090700Z 07007KT CAVOK 18/18 A2996 RMK FEW120 NOSIG=
201101090800 METAR MROC 090800Z 11006KT CAVOK 18/17 A2994 RMK FEW100 NOSIG=
201101090900 METAR MROC 090900Z 00000KT CAVOK 17/17 A2995 RMK FEW100 NOSIG=
201101091000 METAR MROC 091000Z 06005KT CAVOK 18/17 A2995 RMK FEW100 NOSIG=
201101091100 METAR MROC 091100Z 00000KT CAVOK 17/16 A2996 RMK FEW100 NOSIG=
201101091200 METAR MROC 091200Z 05005KT CAVOK 17/16 A2997 RMK FEW100 SCT250 NOSIG=
201101091300 METAR MROC 091300Z 10004KT CAVOK 20/17 A2999 RMK BKN250 NOSIG=
201101091400 METAR MROC 091400Z 11009KT CAVOK 23/17 A2999 RMK BKN250 NOSIG=
201101091500 METAR MROC 091500Z 12008KT CAVOK 25/17 A3000 RMK BKN250 BECMG 24006KT=
201101091600 METAR MROC 091600Z 14009KT 9999 FEW030 SCT250 27/16 A3000 BECMG 24006KT=
201101091700 METAR MROC 091700Z 14008KT 9999 SCT030 28/16 A2997 RMK FEW250 BECMG 24006KT=
201101091800 METAR MROC 091800Z 14007KT 9999 SCT030 SCT045 27/16 A2996 BECMG 24006KT=
201101091900 METAR MROC 091900Z 15005KT 9999 SCT030 SCT045 27/16 A2994 NOSIG=
201101092000 METAR MROC 092000Z 15005KT 9999 FEW030 BKN070 26/16 A2992 NOSIG=
201101092100 METAR MROC 092100Z 14006KT 9999 FEW035 BKN070 26/15 A2991 RMK TCU DST NE NOSIG=
201101092200 METAR MROC 092200Z 24010KT 9999 FEW035 BKN080 26/20 A2991 RMK TCU DST NE SW W NOSIG=
201101092300 METAR MROC 092300Z 24008KT 9999 FEW040 BKN250 23/20 A2993 RMK PCPN SW FEW080 NOSIG=
201101100000 METAR MROC 100000Z 26007KT 9999 FEW040 BKN250 21/21 A2995 RMK TCU DST SW NOSIG=
201101100100 METAR MROC 100100Z 00000KT 9999 FEW040 SCT250 20/20 A2998 RMK HZ ARND NOSIG=
201101100200 METAR MROC 100200Z 00000KT 8000 VCFG SCT008 SCT250 20/20 A3001 NOSIG=
201101100300 METAR MROC 100300Z 00000KT CAVOK 20/15 A3002 RMK SCT120 NOSIG=
201101100400 METAR MROC 100400Z 00000KT CAVOK 19/18 A3000 RMK SCT120 NOSIG=
201101100500 METAR MROC 100500Z 00000KT CAVOK 19/16 A2999 RMK SCT120 NOSIG=
201101100600 METAR MROC 100600Z 15005KT CAVOK 19/16 A2998 RMK SCT250 NOSIG=
201101100700 METAR MROC 100700Z 07003KT CAVOK 18/16 A2997 RMK SCT250 NOSIG=
201101100800 METAR MROC 100800Z 09005KT CAVOK 19/16 A2996 RMK SCT250=
201101100900 METAR MROC 100900Z 08007KT CAVOK 20/15 A2995 RMK FEW120 SCT250=
201101101000 METAR MROC 101000Z 13010KT 9999 FEW040 SCT120 20/16 A2996=
201101101100 METAR MROC 101100Z 12010KT CAVOK 21/16 A2997 RMK SCT120=
201101101200 METAR MROC 101200Z 12009KT 9999 FEW045 SCT250 20/15 A2998 RMK FEW120 DZ DST N NE=
201101101300 METAR MROC 101300Z 09007KT 9999 FEW045 SCT120 21/16 A2999 RMK FEW100 PCPN DST QUAD N NOSIG=
201101101319 METAR MROC 101319Z 13003KT 9999 FEW045 SCT120 23/16 A3000 RMK FEW100 PCPN DST QUAD N NOSIG=
201101101400 METAR MROC 101400Z 13007KT 9999 FEW045 SCT120 23/16 A3000 RMK PCPN DST N NE CROSS WND MAX WND 13KT NOSIG=
201101101419 METAR MROC 101419Z 13009G21KT 9999 FEW045 SCT120 25/16 A2999 RMK PCPN DST N NE CROSS WND NOSIG=
201101101500 METAR MROC 101500Z 13010G20KT CAVOK 24/17 A3000 RMK TCU DST N NE NOSIG=
201101101600 METAR MROC 101600Z 13011KT 9999 FEW052 SCT120 25/18 A3000 RMK TCU DST N NE E MAX WND 20KT NOSIG=
201101101622 METAR MROC 101622Z 13011KT 9999 FEW052 SCT120 27/18 A2999 RMK TCU DST N NE E MAX WND 17KT NOSIG=
201101101700 METAR MROC 101700Z 13012KT 9999 FEW045 SCT120 28/17 A2997 RMK FEW080 TCU DST QUAD N E MAX WND 21KT NOSIG=
201101101800 METAR MROC 101800Z 12014G24KT 9999 FEW025 SCT080 25/16 A2996 RMK TCU DST QUAD N E PCPN DST W FEW120 NOSIG=
201101101900 METAR MROC 101900Z 11017KT 9999 FEW035 BKN090 25/15 A2994 RMK FEW120 PCPN DST QUAD N E MAX WND 25KT NOSIG=
201101102000 METAR MROC 102000Z 11012KT 9999 FEW035 SCT090 26/14 A2990 RMK SCT110 MAX WND 18KT NOSIG=
201101102100 METAR MROC 102100Z 12011KT CAVOK 28/14 A2989 RMK FEW050 BKN110 VEL MAX VTO 16KT NOSIG=
201101102200 METAR MROC 102200Z 12012KT CAVOK 25/15 A2991 RMK FEW050 BKN120 VEL MAX VTO 17KT NOSIG=
201101102300 METAR MROC 102300Z 12012KT CAVOK 24/15 A2992 RMK BKN120 VEL MAX VTO 17KT NOSIG=
201101110000 METAR MROC 110000Z 10013KT 9999 FEW045 SCT080 23/16 A2994 RMK SCT120 VEL MAX VTO 18KT DZ DST E NOSIG=
201101110100 METAR MROC 110100Z 11009KT CAVOK 23/15 A2996 RMK BKN100 VEL MAX VTO 14KT NOSIG=
201101110200 METAR MROC 110200Z 11011KT CAVOK 23/14 A2999 RMK BKN110 VEL MAX VTO 16KT NOSIG=
201101110300 METAR MROC 110300Z 13009KT CAVOK 23/13 A3000 NOSIG=
201101110400 METAR MROC 110400Z 11009KT CAVOK 23/11 A2999 RMK SCT120 NOSIG=
201101110500 METAR MROC 110500Z 12009KT CAVOK 22/11 A2997 RMK SCT120 NOSIG=
201101110600 METAR MROC 110600Z 12010KT CAVOK 21/14 A2996 RMK SCT120 NOSIG=
201101110700 METAR MROC 110700Z 12011KT CAVOK 21/14 A2993 RMK SCT120=
201101110800 METAR MROC 110800Z 12013KT CAVOK 22/16 A2992 RMK SCT120=
201101110900 METAR MROC 110900Z 12009KT CAVOK 22/16 A2992 RMK SCT120=
201101111000 METAR MROC 111000Z 13010KT CAVOK 21/16 A2994 RMK SCT120=
201101111100 METAR MROC 111100Z 13003KT CAVOK 19/16 A2997 RMK SCT120=
201101111200 METAR MROC 111200Z 12013KT 9999 FEW025 SCT100 21/17 A2997 RMK PCPN DST NE E VEL MAX VTO 20KT=
201101111300 METAR MROC 111300Z 11013KT 9999 FEW045 SCT080 23/14 A3000 RMK VEL MAX VTO 20KT DZ DST NE NOSIG=
201101111400 METAR MROC 111400Z 11015KT CAVOK 25/14 A3000 RMK SCT090 VEL MAX VTO 23KT NOSIG=
201101111500 METAR MROC 111500Z 12014KT 9999 FEW045 25/15 A3000 RMK VEL MAX VTO 20KT DZ DST NE NOSIG=
201101111600 METAR MROC 111600Z 11014KT 9999 FEW040 27/16 A3000 RMK VEL MAX VTO 20KT NOSIG=
201101111700 METAR MROC 111700Z 09020G31KT 9999 FEW045 27/14 A2999 RMK DZ DST NE NOSIG=
201101111800 METAR MROC 111800Z 09019KT 9999 FEW045 28/14 A2996 RMK VEL MAX VTO 26KT DZ DST NE NOSIG=
201101111900 METAR MROC 111900Z 09018G28KT 9999 FEW045 29/15 A2993 NOSIG=
201101112000 METAR MROC 112000Z 09018KT 9999 FEW040 27/15 A2990 RMK VEL MAX VTO 24KT NOSIG=
201101112100 METAR MROC 112100Z 09015G25KT 9999 SCT025 26/17 A2988 RMK PCPN DST NE NOSIG=
201101112200 METAR MROC 112200Z 09015G25KT 9999 FEW025 25/16 A2989 RMK PCPN DST NE NOSIG=
201101112300 METAR MROC 112300Z 09014G28KT 9999 FEW025 24/14 A2990 RMK PCPN DST NE NOSIG=
201101120000 METAR MROC 120000Z 10010KT 9999 FEW025 22/17 A2992 RMK PCPN DST NE NOSIG=
201101120100 METAR MROC 120100Z 12016KT 9999 FEW025 23/17 A2993 NOSIG=
201101120200 METAR MROC 120200Z 14013KT 9999 FEW025 22/18 A2995 NOSIG=
201101120300 METAR MROC 120300Z 12011G21KT 080V140 9999 FEW030 22/17 A2996 RMK TS DST NE NOSIG=
201101120400 METAR MROC 120400Z 13013G24KT 9999 FEW030 SCT100 22/17 A2995 RMK TS DST NE NOSIG=
201101120500 METAR MROC 120500Z 12014G25KT 9999 FEW030 SCT100 22/18 A2994 NOSIG=
201101120600 METAR MROC 120600Z 11013KT 9999 FEW030 SCT100 22/17 A2992 RMK MAX WND 22KT NOSIG=
201101120700 METAR MROC 120700Z 12015G27KT 9999 FEW030 SCT100 22/17 A2990 NOSIG=
201101120800 METAR MROC 120800Z 11018G28KT 9999 FEW030 SCT100 22/17 A2988 NOSIG=
201101120900 METAR MROC 120900Z 12013KT CAVOK 22/17 A2989 RMK MAX WND 20KT NOSIG=
201101121000 METAR MROC 121000Z 13014G24KT CAVOK 22/17 A2989 NOSIG=
201101121100 METAR MROC 121100Z 11014KT CAVOK 22/17 A2991 RMK MAX WND 21KT NOSIG=
201101121200 METAR MROC 121200Z 12015KT CAVOK 22/17 A2992 RMK TCU DST QUAD N E MAX WND 22KT NOSIG=
201101121300 METAR MROC 121300Z 09020KT 9999 FEW030 SCT100 23/16 A2995 NOSIG=
201101121400 METAR MROC 121400Z 11010KT 9999 FEW030 SCT100 24/17 A2998 RMK PCPN DST NE NOSIG=
201101121500 METAR MROC 121500Z 10018G28KT 9999 FEW030 SCT100 24/16 A2998 RMK PCPN DST NE NOSIG=
201101121600 METAR MROC 121600Z 10016KT 9999 FEW035 SCT100 25/14 A2999 RMK PCPN DST NE NOSIG=
201101121700 METAR MROC 121700Z 09024KT 9999 SCT030 SCT100 26/15 A2997 RMK PCPN DST NR NOSIG=
201101121800 METAR MROC 121800Z 10013G30KT 9999 FU SCT030 26/16 A2995 RMK PCPN DST NE NOSIG=
201101121900 METAR MROC 121900Z 10020KT 9999 SCT030 26/15 A2992 RMK PCPN DST NE NOSIG=
201101122000 METAR MROC 122000Z 10018G28KT 9999 SCT030 26/16 A2989 RMK PCPN DST NE NOSIG=
201101122100 METAR MROC 122100Z 10016G26KT 9999 FEW045 25/15 A2989 NOSIG=
201101122200 METAR MROC 122200Z 09015G25KT 9999 FEW045 SCT120 23/16 A2990 NOSIG=
201101122300 METAR MROC 122300Z 11017G27KT 9999 FEW040 23/16 A2990 RMK FEW120 NOSIG=
201101122345 METAR MROC 122345Z 09013KT 9999 DZ FEW030 20/16 A2992 RMK VIS 7000 NE FEW120 VEL MAX VTO 18KT NOSIG=
201101130000 METAR MROC 130000Z 11016G26KT 9999 FEW040 22/16 A2991 NOSIG=
201101130100 METAR MROC 130100Z 11014G24KT 9999 FEW040 21/16 A2993 NOSIG=
201101130200 METAR MROC 130200Z 12016G26KT 9999 FEW040 21/16 A2996 NOSIG=
201101130300 METAR MROC 130300Z 11017G30KT 9999 FEW035 SCT080 22/17 A2996 NOSIG=
201101130400 METAR MROC 130400Z 12018KT 9999 -RADZ FEW030 BKN080 22/16 A2997 RMK VEL MAX VTO 26KT NOSIG=
201101130500 METAR MROC 130500Z 12021G31KT 9999 FEW030 BKN080 22/16 A2995 NOSIG=
201101130600 METAR MROC 130600Z 11015G26KT 9999 -RA FEW040 BKN080 21/15 A2996 NOSIG=
201101130700 METAR MROC 130700Z 12018G28KT 9999 FEW045 21/16 A2992 NOSIG=
201101130800 METAR MROC 130800Z 12017G28KT 9999 FEW040 20/16 A2991 NOSIG=
201101130900 METAR MROC 130900Z 12015G25KT 9999 FEW040 20/16 A2990 NOSIG=
201101131000 METAR MROC 131000Z 12017KT 9999 FEW040 20/16 A2991 RMK VEL MAX VTO 23KT NOSIG=
201101131100 METAR MROC 131100Z 11016G26KT 9999 FEW045 20/16 A2994 NOSIG=
201101131200 METAR MROC 131200Z 11016KT 9999 FEW030 SCT250 21/16 A2995 RMK VEL MAX VTO 24KT DZ NE VIS 8KM NE NOSIG=
201101131300 METAR MROC 131300Z 12016G27KT 9999 FEW040 21/16 A2997 RMK RA DST NE NOSIG=
201101131400 METAR MROC 131400Z 12018G28KT 9999 FEW040 23/16 A2999 NOSIG=
201101131500 METAR MROC 131500Z 12015G25KT 9999 FEW040 25/17 A3000 NOSIG=
201101131600 METAR MROC 131600Z 11015G25KT 9999 FEW040 25/17 A2999 NOSIG=
201101131700 METAR MROC 131700Z 11014G25KT 9999 FEW040 27/17 A2998 RMK DZ DST NE NOSIG=
201101131800 METAR MROC 131800Z 10016KT 9999 SCT035 25/15 A2995 RMK FEW100 DZ DST NE NOSIG=
201101131900 METAR MROC 131900Z 10018G28KT 9999 FEW035 SCT100 27/15 A2992 RMK DZ DST NE NOSIG=
201101132000 METAR MROC NIL=
201101132100 METAR MROC 132100Z 09015KT 9999 FEW035 SCT120 26/15 A2990 RMK DZ DST N NE VEL MAX VTO 21KT NOSIG=
201101132200 METAR MROC 132200Z 10015KT 9999 FEW030 SCT050 25/15 A2990 RMK DZ DST N NE E VEL MAX VTO 22KT FEW120 NOSIG=
201101132300 METAR MROC 132300Z 13013KT 9999 FEW030 SCT070 23/17 A2993 RMK DZ DST NE E VEL MAX VTO 20KT NOSIG=
201101140000 METAR MROC 140000Z 11013KT 9999 FEW025 SCT040 22/16 A2994 RMK DZ DST N NE E VEL MAX VTO 21KT NOSIG=
201101140100 METAR MROC 140100Z 11012KT 9999 FEW030 22/16 A2996 RMK DZ DST N NE E NOSIG=
201101140200 METAR MROC 140200Z 10015KT 9999 FEW030 20/17 A2999 NOSIG=
201101140300 METAR MROC 140300Z 09014KT 9999 FEW030 21/17 A2999 NOSIG=
201101140400 METAR MROC 140400Z 11013KT 9999 FEW030 21/16 A2999 NOSIG=
201101140500 METAR MROC 140500Z 13018G28KT 9999 FEW030 20/16 A2998 NOSIG=
201101140600 METAR MROC 140600Z 12007KT 9999 FEW030 20/16 A2996 NOSIG=
201101140700 METAR MROC 140700Z 12018KT 9999 FEW030 20/16 A2994 NOSIG=
201101140800 METAR MROC 140800Z 11011G22KT 9999 FEW030 20/16 A2991 NOSIG=
201101140900 METAR MROC 140900Z 14012KT 9999 FEW030 21/16 A2991 NOSIG=
201101141000 METAR MROC 141000Z 12015G25KT 9999 FEW030 21/16 A2994 NOSIG=
201101141100 METAR MROC 141100Z 10021KT 9999 FEW030 20/16 A2994 NOSIG=
201101141200 METAR MROC 141200Z 12014KT 9999 FEW030 21/17 A2995 NOSIG=
201101141300 METAR MROC 141300Z 12015G28KT 9999 FEW030 21/16 A2997 RMK PCPN DST NE NOSIG=
201101141400 METAR MROC 141400Z 13014G28KT 9999 FEW030 23/16 A2999 RMK PCPN DST NE NOSIG=
201101141500 METAR MROC 141500Z 13016KT 9999 FEW030 SCT100 23/17 A3000 RMK PCPN DST N NE GUST 23KT NOSIG=
201101141600 METAR MROC 141600Z 12016KT 9999 FEW030 SCT100 26/17 A2999 RMK PCPM DST N NE NOSIG=
201101141700 METAR MROC 141700Z 11014KT 9999 FEW030 SCT100 26/18 A2998 RMK PCPM DST N NE NOSIG=
201101141800 METAR MROC 141800Z 11010KT 080V160 9999 FEW030 SCT100 28/18 A2995 RMK PCPM DST NE GUST 17KT NOSIG=
201101141900 METAR MROC 141900Z 15008KT 9999 FEW030 SCT060 28/18 A2993 RMK PCPM DST N NE NOSIG=
201101142000 METAR MROC 142000Z 15010KT 9999 SCT030 27/18 A2991 RMK PCPM DST N NE NOSIG=
201101142100 METAR MROC 142100Z 08009KT 9999 SCT035 SCT080 23/18 A2992 RMK PCPN DST N NE SW CROSS WND MAX WND 14KT NOSIG=
201101142200 METAR MROC 142200Z 10013G28KT 9999 FEW035 SCT090 24/16 A2992 RMK PCPN DST N NE NOSIG=
201101142300 METAR MROC 142300Z 09008KT 9999 FEW035 BKN090 23/17 A2992 RMK TCU DST N NE MAX WND 14KT NOSIG=
201101150000 METAR MROC 150000Z 10012G23KT 9999 FEW035 SCT090 22/18 A2994 RMK SCT200 PCPN DST QUAD N E S CROSS WND NOSIG=
201101150100 METAR MROC 150100Z 10005G18KT 9999 FEW035 SCT100 21/18 A2995 RMK CROSS WND NOSIG=
201101150200 METAR MROC 150200Z 13011KT 9999 FEW035 SCT100 22/17 A2997 RMK CROSS WND MAX WND 17KT NOSIG=
201101150300 METAR MROC 150300Z 13010KT 9999 FEW035 SCT100 22/18 A2999 NOSIG=
201101150400 METAR MROC 150400Z 11003KT 9999 FEW035 21/17 A2999 RMK FEW100 RN DST NE E NOSIG=
201101150500 METAR MROC 150500Z 07010KT CAVOK 22/17 A2998 RMK SCT090 DZ DST N NE E NOSIG=
201101150600 METAR MROC 150600Z 10008KT CAVOK 21/17 A2996 RMK FEW090 DZ DST N NE E NOSIG=
201101150700 METAR MROC 150700Z 06005KT 9999 FEW035 SCT100 21/17 A2995 RMK DZ DST N NE E NOSIG=
201101150800 METAR MROC 150800Z 07006KT 9999 FEW035 SCT100 21/17 A2994 RMK DZ DST NE E=
201101150900 METAR MROC 150900Z 06005KT 9999 FEW035 SCT100 21/17 A2993 RMK DZ DST NE=
201101151000 METAR MROC 151000Z 10006KT 9999 FEW035 21/17 A2993 RMK DZ DST NE=
201101151100 METAR MROC 151100Z 05005KT CAVOK 21/17 A2995 RMK FEW100 DZ DST NE=
201101151200 METAR MROC 151200Z 07006KT 9999 FEW035 BKN100 21/17 A2996 RMK RN DST N NE E=
201101151300 METAR MROC 151300Z 06006KT 9999 FEW035 BKN100 21/17 A2998 RMK RN DST N NE E NOSIG=
201101151400 METAR MROC 151400Z 11011KT 070V160 9999 FEW035 BKN100 23/17 A3000 RMK RN DST N NE E MAX WND 18KT NOSIG=
201101151500 METAR MROC 151500Z 13013G24KT 090V160 9999 FEW035 BKN110 25/17 A2999 RMK RN DST N NE E TCU DST E NOSIG=
201101151600 METAR MROC 151600Z 12011G22KT 9999 FEW030 BKN110 27/17 A2999 RMK RN DST N NE E CROSS WND NOSIG=
201101151700 METAR MROC 151700Z 12007G17KT 9999 FEW030 SCT110 28/17 A2997 RMK RN DST QUAD N E CROSS WND NOSIG=
201101151800 METAR MROC 151800Z 12013KT 080V150 9999 FEW030 SCT110 28/16 A2995 RMK RN DST N NE TCU DST E MAX WND 21KT NOSIG=
201101151900 METAR MROC 151900Z 10010KT 9999 FEW030 SCT110 27/17 A2994 RMK RN DST N NE NOSIG=
201101152000 METAR MROC 152000Z 10012KT 9999 FEW030 SCT110 BKN250 28/17 A2991 RMK RN DST N NE E NOSIG=
201101152100 METAR MROC 152100Z 11012KT 9999 FEW030 SCT110 BKN250 27/17 A2989 RMK RA DST N NE E NOSIG=
201101152200 METAR MROC 152200Z 13011KT 9999 SCT030 BKN250 26/17 A2990 RMK RA DST N NE NOSIG=
201101152300 METAR MROC 152300Z 11009KT 9999 FEW030 BKN060 23/16 A2992 RMK RA DST N NE NOSIG=
201101160000 METAR MROC 160000Z 11008KT 070V130 9999 FEW030 BKN060 22/17 A2993 RMK RA DST N NE E NOSIG=
201101160100 METAR MROC 160100Z 11011G22KT 9999 FEW030 SCT080 22/17 A2994 NOSIG=
201101160200 METAR MROC 160200Z 07009KT 9999 FEW040 SCT090 21/17 A2998 NOSIG=
201101160300 METAR MROC 160300Z 05005KT 9999 FEW040 SCT100 21/17 A2999 NOSIG=
201101160400 METAR MROC 160400Z 07006KT 9999 FEW035 SCT100 21/17 A2999 NOSIG=
201101160500 METAR MROC 160500Z 04008KT 9999 FEW035 SCT120 21/17 A2998 NOSIG=
201101160600 METAR MROC 160600Z 14005KT CAVOK 21/17 A2997 RMK FEW120 SCT250 NOSIG=
201101160700 METAR MROC 160700Z 07010KT CAVOK 21/17 A2996 RMK FEW120 SCT250=
201101160800 METAR MROC 160800Z 07007KT CAVOK 21/17 A2994 RMK FEW120 SCT250=
201101160900 METAR MROC 160900Z 08010KT CAVOK 20/17 A2994 RMK FEW120 SCT250=
201101161000 METAR MROC 161000Z 11009KT CAVOK 20/17 A2995 RMK FEW120 SCT250=
201101161100 METAR MROC 161100Z 12006KT CAVOK 20/17 A2996 RMK FEW120 SCT250=
201101161200 METAR MROC 161200Z 06005KT 9999 FEW040 SCT250 18/17 A2998 RMK FEW120 DZ DST N NE CB DST S=
201101161300 METAR MROC 161300Z 00000KT 9999 FEW040 SCT250 20/17 A2999 RMK DZ DST NNE CB DST S NOSIG=
201101161400 METAR MROC 161400Z 10006KT 9999 FEW040 23/17 A3001 RMK DZ N NE NOSIG=
201101161500 METAR MROC 161500Z 13008KT 100V160 9999 FEW040 26/17 A3001 RMK DZ NE NOSIG=
201101161600 METAR MROC 161600Z 13011KT 9999 FEW030 26/17 A2999 RMK RA DST NE NOSIG=
201101161700 METAR MROC 161700Z 13008KT 9999 FEW030 SCT130 27/17 A2998 RMK DZ DST NE NOSIG=
201101161800 METAR MROC 161800Z 12010KT 090V150 9999 FEW030 SCT130 27/17 A2994 RMK PCPM DST NE NOSIG=
201101161900 METAR MROC 161900Z 12011KT 9999 SCT030 BKN120 28/17 A2991 NOSIG=
201101162000 METAR MROC 162000Z 12010KT 9999 SCT030 SCT120 29/17 A2989 NOSIG=
201101162100 METAR MROC 162100Z 13005KT 9999 SCT020 BKN110 27/17 A2988 RMK DZ DST NE NOSIG=
201101162200 METAR MROC 162200Z 22008KT 9999 SCT020 BKN110 26/20 A2989 RMK DZ DST NE NOSIG=
201101162300 METAR MROC 162300Z 23008KT 9999 SCT020 BKN110 23/22 A2992 RMK RN DST S SW N NE NOSIG=
201101162355 METAR MROC 170000Z 25008KT 9999 VCFG FEW003 SCT015 BKN100 21/21 A2994 BECMG VRB02KT 7000 BC=
201101170000 METAR MROC 170000Z 25008KT 9999 VCFG FEW003 SCT015 BKN100 21/21 A2994 BECMG VRB02KT 7000 BC=
201101170100 METAR MROC 170100Z 24006KT 9999 VCFG FEW002 SCT010 BKN025 21/21 A2998 BECMG 00000KT 5000 BR=
201101170200 METAR MROC 170200Z 00000KT 8000 VCFG FEW001 SCT010 BKN025 21/21 A3000 BECMG 05006KT=
201101170300 METAR MROC 170300Z 00000KT 8000 VCFG FEW001 SCT010 BKN025 21/21 A3001 BECMG 05006KT=
201101170400 METAR MROC 170400Z 00000KT 5000 BR FEW001 SCT015 BKN100 21/21 A3002 RMK LGHTNG SW BECMG 05006KT=
201101170500 METAR MROC 170500Z 00000KT 8000 VCFG FEW001 SCT015 BKN100 21/21 A3000 RMK LGHTNG SW BECMG 05006KT=
201101170600 METAR MROC 170600Z 00000KT 9999 VCFG FEW001 SCT020 BKN100 20/20 A2999 RMK LGHTNG SW BECMG 05006KT=
201101170620 METAR MROC 170620Z 13005KT 9999 VCFG FEW001 SCT020 BKN100 21/18 A2999 RMK LGHTNG SW NOSIG=
201101170700 METAR MROC 170700Z VRB02KT 9999 FEW001 SCT025 BKN100 21/18 A2998 RMK LGT BR ARND NOSIG=
201101170800 METAR MROC 170800Z 09007KT 9999 SCT025 BKN100 21/18 A2997 RMK LGT BR ARND NOSIG=
201101170900 METAR MROC 170900Z 08006KT 9999 FEW035 BKN100 20/17 A2996 RMK LGT BR ARND NOSIG=
201101171000 METAR MROC 171000Z 08004KT CAVOK 20/17 A2995 RMK LGT BR ARND NOSIG=
201101171100 METAR MROC 171100Z VRB02KT CAVOK 21/16 A2998 RMK LGT BR ARND NOSIG=
201101171200 METAR MROC 171200Z VRB02KT CAVOK 19/16 A2998 RMK LW ST SE NE NOSIG=
201101171300 METAR MROC 171300Z 11004KT 9999 FEW020 BKN220 20/16 A3000 RMK DZ DST NE NOSIG=
201101171400 METAR MROC 171400Z 10005KT 9999 FEW020 SCT250 21/16 A3002 RMK DZ DST NE NOSIG=
201101171500 METAR MROC 171500Z 29003KT 9999 FEW020 SCT250 25/16 A3002 RMK DZ DST NE NOSIG=
201101171600 METAR MROC 171600Z 00000KT 9999 FEW020 SCT250 27/17 A3000 RMK DZ DST NE NOSIG=
201101171700 METAR MROC 171700Z 13006KT 9999 FEW030 SCT120 30/17 A2998 RMK DZ DST NE NOSIG=
201101171800 METAR MROC 171800Z 16007KT 9999 FEW030 29/17 A2995 RMK DZ DST NE NOSIG=
201101171900 METAR MROC 171900Z 15010KT 9999 SCT030 29/17 A2992 RMK DZ DST NE NOSIG=
201101172000 METAR MROC 172000Z 12007KT 9999 SCT030 27/17 A2990 RMK DZ DIST NE BECMG 24006KT=
201101172100 METAR MROC 172100Z 15008KT 9999 SCT030 BKN250 27/18 A2990 RMK DZ DST SW NOSIG=
201101172200 METAR MROC 172200Z 15007KT 9999 FEW035 BKN100 25/18 A2990 RMK FEW250=
201101172300 METAR MROC 172300Z 26010KT 9999 FEW035 SCT100 23/21 A2991 NOSIG=
201101180000 METAR MROC 180000Z 00000KT 9999 FEW030 SCT100 22/21 A2993 RMK RN DST NE NOSIG=
201101180100 METAR MROC 180100Z 11007KT 9999 FEW030 22/18 A2996 NOSIG=
201101180200 METAR MROC 180200Z 12009KT 9999 FEW035 22/17 A2997 NOSIG=
201101180300 METAR MROC 180300Z 09007KT 9999 FEW035 21/17 A3000 NOSIG=
201101180400 METAR MROC 180400Z 12006KT 9999 FEW035 21/17 A3000 NOSIG=
201101180500 METAR MROC 180500Z 09002KT 9999 FEW035 20/16 A3000 NOSIG=
201101180600 METAR MROC 180600Z 12008KT CAVOK 21/16 A2998 RMK FEW120 NOSIG=
201101180700 METAR MROC 180700Z 10005KT CAVOK 20/16 A2997 RMK FEW120 NOSIG=
201101180800 METAR MROC 180800Z 07004KT CAVOK 20/16 A2995 RMK FEW120 NOSIG=
201101180900 METAR MROC 180900Z 08002KT CAVOK 20/16 A2995 RMK FEW120 NOSIG=
201101181000 METAR MROC 181000Z 09007KT CAVOK 20/17 A2996 RMK FEW120 NOSIG=
201101181100 METAR MROC 181100Z 09008KT CAVOK 20/17 A2996 RMK FEW120 NOSIG=
201101181200 METAR MROC 181200Z 10007KT 9999 FEW030 20/17 A2996 NOSIG=
201101181300 METAR MROC 181300Z 08007KT CAVOK 21/16 A3001 NOSIG=
201101181400 METAR MROC 181400Z 11004KT CAVOK 23/17 A3003 NOSIG=
201101181500 METAR MROC 181500Z 13008KT CAVOK 26/17 A3003 NOSIG=
201101181600 METAR MROC 181600Z 13009KT CAVOK 27/16 A3002 NOSIG=
201101181700 METAR MROC 181700Z 14008KT FEW040 29/16 A3000 NOSIG=
201101181800 METAR MROC 181800Z 14008KT 9999 FEW040 29/16 A2997 BECMG 22007KT=
201101181900 METAR MROC 181900Z 24008KT 9999 FEW035 29/19 A2995 NOSIG=
201101182000 METAR MROC 182000Z 23009KT 9999 FEW030 29/20 A2993 RMK TCU DST SW NOSIG=
201101182100 METAR MROC 182100Z 24009KT 9999 FEW025 SCT035 28/21 A2992 RMK LGT HZ ARND NOSIG=
201101182200 METAR MROC 182200Z 24009KT 9999 FEW020TCU BKN035 26/21 A2992 RMK LGT HZ ARND NOSIG=
201101182300 METAR MROC 182300Z 26007KT 9999 FEW025 SCT035 24/22 A2994 RMK HZY NOSIG=
201101190000 METAR MROC 190000Z 27005KT 9999 FEW015 SCT035 22/22 A2996 RMK HZY NOSIG=
201101190100 METAR MROC 190100Z 00000KT 9999 FEW020 SCT035 21/21 A2998 RMK HZY NOSIG=
201101190200 METAR MROC 190200Z 00000KT 9999 FEW020 SCT035 21/21 A3000 RMK FEW100 HZY NOSIG=
201101190300 METAR MROC 190300Z 11007KT 9999 FEW025 21/18 A3002 NOSIG=
201101190400 METAR MROC 190400Z 11004KT 9999 FEW030 21/17 A3002 NOSIG=
201101190500 METAR MROC 190500Z 12005KT 9999 FEW030 20/17 A3002 NOSIG=
201101190600 METAR MROC 190600Z 12006KT 9999 FEW030 21/17 A3000 NOSIG=
201101190700 METAR MROC 190700Z 12007KT 9999 FEW030 20/17 A2999 NOSIG=
201101190800 METAR MROC 190800Z 11007KT 9999 FEW030 20/17 A2998 NOSIG=
201101190900 METAR MROC 190900Z 06007KT 9999 FEW030 19/16 A2997 NOSIG=
201101191000 METAR MROC 191000Z 10007KT 9999 FEW030 20/16 A2998 NOSIG=
201101191100 METAR MROC 191100Z 11006KT CAVOK 20/16 A2999 NOSIG=
201101191200 METAR MROC 191200Z 11005KT CAVOK 19/16 A3001 RMK FEW250 NOSIG=
201101191300 METAR MROC 191300Z 11007KT CAVOK 21/15 A3003 RMK FEW250 NOSIG=
201101191400 METAR MROC 191400Z 13008KT CAVOK 23/16 A3004 RMK FEW250 NOSIG=
201101191500 METAR MROC 191500Z 12013KT CAVOK 25/15 A3004 NOSIG=
201101191600 METAR MROC 191600Z 11013KT CAVOK 27/14 A3006 NOSIG=
201101191700 METAR MROC 191700Z 11012KT CAVOK 28/14 A3002 NOSIG=
201101191800 METAR MROC 191800Z 12010KT CAVOK 29/14 A2999 NOSIG=
201101191900 METAR MROC 191900Z 11009KT 9999 FEW040 29/14 A2997 NOSIG=
201101192000 METAR MROC 192000Z 11010KT 9999 FEW040 29/14 A2995 RMK VEL MAX VTO 15KT NOSIG=
201101192100 METAR MROC 192100Z 10007KT 9999 FEW040 29/14 A2994 RMK TCU DST NE SW CROSS WND MAX WND 15KT NOSIG=
201101192200 METAR MROC 192200Z 13007KT 9999 FEW020 28/14 A2995 RMK FEW040 TCU DST SW CROSS WND MAX WND 13KT NOSIG=
201101192300 METAR MROC 192300Z 12004KT 9999 FEW035 26/14 A2996 RMK TCU DST SW NE CROSS WND MAX WND 10KT NOSIG=
201101200000 METAR MROC 200000Z 00000KT CAVOK 24/14 A2998 RMK TCU DST SE NE LW ST SW NOSIG=
201101200100 METAR MROC 200100Z 00000KT CAVOK 22/15 A3001 NOSIG=
201101200200 METAR MROC 200200Z 13008KT CAVOK 22/16 A3003 NOSIG=
201101200300 METAR MROC 200300Z 12012KT CAVOK 21/16 A3004 NOSIG=
201101200400 METAR MROC 200400Z 12012KT CAVOK 21/16 A3004 NOSIG=
201101200500 METAR MROC 200500Z 12011KT CAVOK 20/15 A3003 NOSIG=
201101200600 METAR MROC 200600Z 12008KT CAVOK 20/15 A3001 NOSIG=
201101200700 METAR MROC 200700Z 13011KT CAVOK 20/15 A3000 NOSIG=
201101200800 METAR MROC 200800Z 12010KT CAVOK 20/15 A2998=
201101200900 METAR MROC 200900Z 12011KT CAVOK 20/15 A2998=
201101201000 METAR MROC 201000Z 12005KT CAVOK 19/15 A2998=
201101201100 METAR MROC 201100Z 10007KT CAVOK 19/14 A2998 RMK SCT250=
201101201200 METAR MROC 201200Z 08006KT CAVOK 18/14 A2999 RMK FEW250=
201101201300 METAR MROC 201300Z 10004KT CAVOK 20/15 A3002 RMK MX WND 9KT NOSIG=
201101201400 METAR MROC 201400Z 13009KT CAVOK 23/15 A3003 RMK TCU DST SW CROSS WND NOSIG=
201101201500 METAR MROC 201500Z 14011KT 100V160 CAVOK 25/14 A3003 RMK TCU DST SW MX WND 16KT NOSIG=
201101201600 METAR MROC 201600Z 13008KT CAVOK 27/14 A3002 RMK TCU DST SW CROSS WND MX WND 15KT NOSIG=
201101201700 METAR MROC 201700Z 13010KT CAVOK 28/12 A3000 RMK TCU DST SW CROSS WND MX WND 18KT NOSIG=
201101201800 METAR MROC 201800Z 13006KT CAVOK 29/13 A2997 RMK TCU DST SW CROSS WND MX WND 14KT NOSIG=
201101201900 METAR MROC 201900Z 16007KT 9999 FEW050 SCT250 30/10 A2994 RMK TCU DST SW W CROSS WND MX WND 14KT NOSIG=
201101201918 METAR MROC 201918Z 22008KT 9999 FEW050 SCT250 30/16 A2993 RMK TCU DST SW W CROSS WND NOSIG=
201101202000 METAR MROC 202000Z 24012KT 9999 FEW025 SCT250 29/18 A2992 RMK TCU DST SW W CROSS WND NOSIG=
201101202100 METAR MROC 202100Z 24012KT 9999 FEW025 SCT250 28/20 A2992 RMK TCU DST SW W NOSIG=
201101202200 METAR MROC 202200Z 23012KT 9999 SCT025 25/21 A2993 RMK TCU DST SW W NOSIG=
201101202300 METAR MROC 202300Z 24009KT 9999 SCT025 23/20 A2993 RMK TCU DST SW HZ SW W NOSIG=
201101210000 METAR MROC 210000Z 23005KT 9999 BKN030 22/21 A2995 RMK HZ ARND NOSIG=
201101210100 METAR MROC 210100Z 24008KT 9999 BKN030 21/21 A2997 RMK HZ ARND NOSIG=
201101210200 METAR MROC 210200Z 00000KT 9999 BKN030 21/21 A3000 RMK HZ ARND NOSIG=
201101210300 METAR MROC 210300Z 14002KT 9999 VCFG FEW005 SCT020 21/21 A3000 RMK VIS SW W 8KMS NOSIG=
201101210400 METAR MROC 210400Z 10004KT CAVOK 20/15 A3002 RMK FEW120 NOSIG=
201101210500 METAR MROC 210500Z 09005KT CAVOK 20/15 A3000 RMK FEW120 NOSIG=
201101210600 METAR MROC 210600Z 10005KT CAVOK 20/15 A2999 RMK SCT270 NOSIG=
201101210700 METAR MROC 210700Z 08006KT CAVOK 19/16 A2997 RMK SCT270 NOSIG=
201101210800 METAR MROC 210800Z 08005KT CAVOK 19/15 A2996 RMK SCT270=
201101210900 METAR MROC 210900Z 08006KT CAVOK 18/15 A2995 RMK SCT270=
201101211000 METAR MROC 211000Z 07006KT CAVOK 17/14 A2995 RMK SCT270=
201101211100 METAR MROC 211100Z 08007KT CAVOK 18/14 A2996 RMK SCT250=
201101211200 METAR MROC 211200Z 08008KT CAVOK 18/14 A2997 RMK SCT270 TCU DST SSW=
201101211300 METAR MROC 211300Z 08008KT CAVOK 20/14 A2999 RMK SCT270 NOSIG=
201101211400 METAR MROC 211400Z 08005KT CAVOK 23/13 A3000 RMK BKN270 NOSIG=
201101211500 METAR MROC 211500Z 11006KT CAVOK 25/14 A3000 RMK BKN270 NOSIG=
201101211600 METAR MROC 211600Z 15007KT CAVOK 28/13 A3000 RMK BKN270 NOSIG=
201101211700 METAR MROC 211700Z 18005KT CAVOK 29/13 A2998 RMK BKN270 BECMG 27006KT=
201101211800 METAR MROC 211800Z 26009KT 9999 FEW040 BKN250 29/16 A2995 NOSIG=
201101211900 METAR MROC 211900Z 23011KT 9999 FEW040 BKN250 28/18 A2991 NOSIG=
201101212000 METAR MROC 212000Z 26011KT 9999 FEW030 BKN250 27/19 A2990 NOSIG=
201101212100 METAR MROC 212100Z 24008KT 9999 SCT020 BKN250 26/20 A2989 RMK RA DST N NOSIG=
201101212200 METAR MROC 212200Z 23005KT 9999 SCT020 BKN250 24/20 A2989 RMK HZ ARND NOSIG=
201101212300 METAR MROC 212300Z 22006KT 9999 FEW015 SCT025 22/21 A2990 RMK HZ ARND NOSIG=
201101220000 METAR MROC 220000Z 00000KT 9999 FEW009 BKN020 21/21 A2992 RMK HZ ARND NOSIG=
201101220100 METAR MROC 220100Z 00000KT 9999 SCT015 20/20 A2993 RMK HZ ARND NOSIG=
201101220200 METAR MROC 220200Z 00000KT 4000 BR FEW005 SCT010 20/20 A2996 RMK VIS E 7000 BECMG 3000 BR=
201101220300 METAR MROC 220300Z 00000KT 4000 BR FEW001 SCT020 20/20 A2997 RMK VIS E 6000 BECMG 3000 BR=
201101220400 METAR MROC 220400Z 00000KT 9999 BCFG FEW001 SCT020 20/18 A2996 RMK FEW070 BECMG 04004KT=
201101220425 METAR MROC 220425Z 12004KT 9999 BCFG FEW001 SCT020 20/17 A2996 RMK FEW070 NOSIG=
201101220500 METAR MROC 220500Z 00000KT 9999 BCFG FEW001 20/17 A2995 RMK FG BANKS SE SW W FEW030 NOSIG=
201101220600 METAR MROC 220600Z 00000KT 9999 BCFG FEW001 SCT100 19/19 A2994 RMK FG BANKS SE SW W VIS 6KM SW NOSIG=
201101220700 METAR MROC 220700Z 00000KT 9999 BCFG FEW001 SCT030 19/18 A2993 RMK FG BANKS SE SW W NOSIG=
201101220800 METAR MROC 220800Z 00000KT 9999 BCFG FEW001 SCT100 18/18 A2992 RMK FEW030 FG BANKS SE SW W NOSIG=
201101220900 METAR MROC 220900Z 08006KT 9999 BCFG FEW001 SCT100 18/17 A2991 RMK FG BANKS SE SW W NOSIG=
201101221000 METAR MROC 221000Z 06006KT 9999 BCFG FEW001 SCT100 19/15 A2991 RMK FG BANKS SE SW W NOSIG=
201101221100 METAR MROC 221100Z VRB02KT 9999 FEW030 SCT100 20/15 A2993 NOSIG=
201101221200 METAR MROC 221200Z 08006KT 9999 FEW030 BKN090 20/15 A2994 NOSIG=
201101221300 METAR MROC 221300Z 10010KT CAVOK 21/15 A2995 RMK BKN100 OVC250 NOSIG=
201101221400 METAR MROC 221400Z 12011KT CAVOK 21/15 A2998 RMK BKN100 OVC250 NOSIG=
201101221500 METAR MROC 221500Z 12010KT CAVOK 24/15 A3000 RMK BKN100 OVC250 NOSIG=
201101221600 METAR MROC 221600Z 11009KT CAVOK 25/15 A2999 RMK BKN100 NOSIG=
201101221700 METAR MROC 221700Z 11008KT 9999 FEW035 BKN100 26/15 A2998 NOSIG=
201101221800 METAR MROC 221800Z 14010KT 9999 FEW035 SCT100 BKN250 27/15 A2996 NOSIG=
201101221900 METAR MROC 221900Z 13012KT 9999 FEW035 SCT100 BKN250 26/14 A2993 NOSIG=
201101222000 METAR MROC 222000Z 14006KT 9999 FEW030 BKN100 27/14 A2991 NOSIG=
201101222100 METAR MROC 222100Z 25007KT 9999 FEW040 SCT100 BKN250 26/19 A2991 RMK HZ LEVE ARND NOSIG=
201101222200 METAR MROC 222200Z 14003KT CAVOK 25/14 A2991 RMK FEW110 BKN250 NOSIG=
201101222300 METAR MROC 222300Z 10003KT CAVOK 24/14 A2991 RMK FEW120 BKN250 NOSIG=
201101222353 METAR MROC 230000Z 00000KT CAVOK 21/17 A2994 BECMG 06006KT=
201101222357 METAR MROC 230000Z 00000KT CAVOK 21/17 A2994 BECMG 06006KT=
201101230000 METAR MROC 230000Z 00000KT CAVOK 21/17 A2994 BECMG 06006KT=
201101230100 METAR MROC 230100Z 09005KT CAVOK 21/14 A2995 NOSIG=
201101230200 METAR MROC 230200Z 13008KT CAVOK 21/13 A2997 NOSIG=
201101230300 METAR MROC 230300Z 09006KT CAVOK 21/14 A2999 RMK SCT250 NOSIG=
201101230400 METAR MROC 230400Z 08010KT CAVOK 20/14 A3000 RMK SCT250 NOSIG=
201101230500 METAR MROC 230500Z 08006KT CAVOK 19/14 A2999 RMK SCT250 NOSIG=
201101230600 METAR MROC 230600Z 11007KT 080V140 CAVOK 20/12 A2998 RMK SCT250 NOSIG=
201101230700 METAR MROC 230700Z 12006KT CAVOK 20/10 A2997 RMK SCT250 NOSIG=
201101230800 METAR MROC 230800Z 11008KT CAVOK 20/10 A2996 RMK SCT250 NOSIG=
201101230900 METAR MROC 230900Z 12010KT CAVOK 20/09 A2994 RMK SCT250 NOSIG=
201101231000 METAR MROC 231000Z 07007KT CAVOK 19/10 A2995 RMK FEW250 NOSIG=
201101231100 METAR MROC 231100Z 05005KT CAVOK 16/09 A2996 RMK FEW250 NOSIG=
201101231200 METAR MROC 231200Z 04005KT CAVOK 17/09 A2996 RMK FEW250 NOSIG=
201101231300 METAR MROC 231300Z 09007KT CAVOK 20/10 A2999 RMK FEW250 NOSIG=
201101231400 METAR MROC 231400Z 13011KT CAVOK 22/10 A3000 RMK FEW250 NOSIG=
201101231500 METAR MROC 231500Z 13013G23KT CAVOK 24/08 A3001 RMK SCT250 NOSIG=
201101231600 METAR MROC 231600Z 11012KT CAVOK 26/08 A3000 RMK SCT250 NOSIG=
201101231700 METAR MROC 231700Z 11011KT CAVOK 27/08 A2998 RMK SCT250 NOSIG=
201101231800 METAR MROC 231800Z 13011KT CAVOK 28/10 A2995 RMK SCT250 NOSIG=
201101231900 METAR MROC 231900Z 14008KT CAVOK 29/10 A2993 RMK SCT250 BECMG 24006KT=
201101232000 METAR MROC 232000Z 13009KT 9999 FEW040 SCT250 28/11 A2991 BECMG 24006KT=
201101232100 METAR MROC 232100Z 22003KT 9999 SCT035 SCT300 27/17 A2991 NOSIG=
201101232200 METAR MROC 232200Z 26008KT 9999 SCT035 27/14 A2991 RMK SCT300 NOSIG=
201101232300 METAR MROC 232300Z 23007KT 9999 FEW025 SCT035 25/15 A2993 RMK LGT HZ ARND NOSIG=
201101240000 METAR MROC 240000Z 17005KT 9999 FEW035 22/14 A2994 RMK FEW300 NOSIG=
201101240100 METAR MROC 240100Z 10005KT 9999 FEW035 21/14 A2997 NOSIG=
201101240200 METAR MROC 240200Z 11006KT 9999 FEW035 20/14 A2999 NOSIG=
201101240300 METAR MROC 240300Z 13010KT 9999 FEW035 20/14 A3001 NOSIG=
201101240400 METAR MROC 240400Z 13006KT 9999 FEW035 20/15 A3002 NOSIG=
201101240500 METAR MROC 240500Z 09004KT 9999 FEW030 19/14 A3001 NOSIG=
201101240600 METAR MROC 240600Z 06005KT 9999 FEW030 18/12 A3001 NOSIG=
201101240700 METAR MROC 240700Z 08003KT 9999 FEW030 18/11 A3000 NOSIG=
201101240800 METAR MROC 240800Z 07007KT 9999 FEW030 19/17 A2997 NOSIG=
201101240900 METAR MROC 240900Z 05005KT 9999 FEW030 16/12 A2996 NOSIG=
201101241000 METAR MROC 241000Z 00000KT 9999 FEW030 16/12 A2996 NOSIG=
201101241100 METAR MROC 241100Z 10010KT CAVOK 17/12 A2997 NOSIG=
201101241200 METAR MROC 241200Z 08008KT CAVOK 16/11 A2998 RMK BKN250 NOSIG=
201101241300 METAR MROC 241300Z 08008KT CAVOK 18/10 A3000 RMK BKN300 TCU DST S NOSIG=
201101241400 METAR MROC 241400Z 08005KT CAVOK 22/09 A3002 RMK BKN300 NOSIG=
201101241500 METAR MROC 241500Z 14009KT CAVOK 24/10 A3003 RMK BKN300 NOSIG=
201101241600 METAR MROC 241600Z 14009KT CAVOK 26/09 A3002 RMK BKN300 NOSIG=
201101241700 METAR MROC 241700Z 14007KT CAVOK 29/10 A3000 RMK BKN300 BECMG 24008KT=
201101241800 METAR MROC 241800Z 25006KT CAVOK 29/12 A2997 RMK BKN300 NOSIG=
201101241900 METAR MROC 241900Z 23007KT 9999 FEW045 BKN300 29/14 A2994 NOSIG=
201101242000 METAR MROC 242000Z 22007KT 9999 SCT045 SCT300 28/17 A2993 NOSIG=
201101242100 METAR MROC 242100Z 14008KT 9999 FEW045 SCT300 27/14 A2993 NOSIG=
201101242200 METAR MROC 242200Z 11010KT 9999 FEW045 SCT300 27/14 A2992 RMK MX WND 18KT NOSIG=
201101242300 METAR MROC 242300Z 13008KT CAVOK 25/15 A2994 RMK TCU DST NE NOSIG=
201101250000 METAR MROC 250000Z 12010KT CAVOK 22/16 A2995 RMK TCU DST QUAD N E MX WND 18KT NOSIG=
201101250100 METAR MROC 250100Z 14010KT CAVOK 21/16 A2997 NOSIG=
201101250200 METAR MROC 250200Z 12010KT CAVOK 21/16 A2998 NOSIG=
201101250300 METAR MROC 250300Z 12007KT CAVOK 21/15 A3000 NOSIG=
201101250400 METAR MROC 250400Z 10008KT CAVOK 21/15 A3000 NOSIG=
201101250500 METAR MROC 250500Z 13011KT CAVOK 20/15 A2999 NOSIG=
201101250600 METAR MROC 250600Z 12010KT CAVOK 20/13 A2998 NOSIG=
201101250700 METAR MROC 250700Z 13008KT CAVOK 20/14 A2997 NOSIG=
201101250800 METAR MROC NIL=
201101250900 METAR MROC NIL=
201101251000 METAR MROC NIL=
201101251100 METAR MROC 251100Z 14010KT CAVOK 19/14 A2994=
201101251200 METAR MROC 251200Z 14011KT CAVOK 19/14 A2996 RMK FEW250=
201101251300 METAR MROC 251300Z 14010KT CAVOK 21/15 A2998 RMK SCT250 NOSIG=
201101251400 METAR MROC 251400Z 11010KT CAVOK 23/14 A2999 RMK SCT250 NOSIG=
201101251500 METAR MROC 251500Z 13010KT 090V150 CAVOK 26/14 A3000 RMK MX WND 16KT BKN250 NOSIG=
201101251600 METAR MROC 251600Z 13010KT CAVOK 27/14 A3000 RMK TCU DST NE E MX WND 18KT NOSIG=
201101251700 METAR MROC 251700Z 10012KT CAVOK 27/13 A2999 RMK TCU DST NE E MX WND 17KT NOSIG=
201101251800 METAR MROC 251800Z 10010G20KT 080V140 CAVOK 28/14 A2996 RMK TCU DST NE E SW NOSIG=
201101251900 METAR MROC 251900Z 10010G20KT 9999 FEW045 BKN300 28/12 A2993 RMK TCU DST E W NOSIG=
201101252000 METAR MROC 252000Z 09010G21KT CAVOK 29/12 A2990 RMK TCU DST NE SW W NOSIG=
201101252100 METAR MROC 252100Z 10008KT 9999 FEW040 BKN300 28/12 A2989 NOSIG=
201101252200 METAR MROC 252200Z 10009KT 9999 FEW040 BKN300 27/12 A2989 NOSIG=
201101252300 METAR MROC 252300Z 09006KT 9999 FEW040 BKN300 25/12 A2990 NOSIG=
201101260000 METAR MROC 260000Z 09007KT CAVOK 23/12 A2991 RMK BKN270 NOSIG=
201101260100 METAR MROC 260100Z 02005KT CAVOK 21/19 A2994 RMK BKN250 NOSIG=
201101260200 METAR MROC 260200Z 11007KT CAVOK 21/14 A2996 RMK SCT250 NOSIG=
201101260300 METAR MROC 260300Z 09006KT CAVOK 20/14 A2999 RMK SCT250 NOSIG=
201101260400 METAR MROC 260400Z 09005KT CAVOK 20/14 A2999 RMK SCT270 NOSIG=
201101260500 METAR MROC 260500Z 06005KT CAVOK 18/13 A3000 RMK SCT270 NOSIG=
201101260600 METAR MROC 260600Z 08007KT CAVOK 19/14 A2998 RMK SCT300=
201101260700 METAR MROC 260700Z 06006KT CAVOK 17/13 A2996 RMK SCT300=
201101260800 METAR MROC 260800Z 08008KT CAVOK 18/13 A2994 RMK SCT300=
201101260900 METAR MROC 260900Z 12007KT CAVOK 18/13 A2994 RMK SCT300=
201101261000 METAR MROC 261000Z 09007KT CAVOK 18/13 A2995 RMK SCT300=
201101261100 METAR MROC 261100Z 08005KT CAVOK 17/13 A2995 RMK SCT300=
201101261200 METAR MROC 261200Z 08008KT CAVOK 18/12 A2997 RMK SCT300=
201101261300 METAR MROC 261300Z 07007KT CAVOK 20/12 A2999 RMK SCT300 NOSIG=
201101261400 METAR MROC 261400Z 11002KT CAVOK 22/12 A3001 RMK SCT300 NOSIG=
201101261500 METAR MROC 261500Z 13010KT CAVOK 25/11 A3001 RMK SCT300 NOSIG=
201101261600 METAR MROC 261600Z 12011KT 090V160 CAVOK 27/12 A3000 RMK SCT300 NOSIG=
201101261700 METAR MROC 261700Z 13012KT 9999 FEW040 28/12 A2999 NOSIG=
201101261800 METAR MROC 261800Z 12008KT 9999 FEW040 28/14 A2997 NOSIG=
201101261900 METAR MROC 261900Z 13008KT 9999 FEW040 29/14 A2994 NOSIG=
201101262000 METAR MROC 262000Z 11009KT 9999 FEW040 27/14 A2992 NOSIG=
201101262100 METAR MROC 262100Z 11010KT 9999 SCT035 28/14 A2991 NOSIG=
201101262200 METAR MROC 262200Z 14008KT 9999 FEW035 26/14 A2991 NOSIG=
201101262300 METAR MROC 262300Z 12009KT 9999 FEW040 24/15 A2992 NOSIG=
201101270000 METAR MROC 270000Z 11005KT CAVOK 23/15 A2995 RMK FEW100 NOSIG=
201101270100 METAR MROC 270100Z 05004KT CAVOK 22/18 A2998 RMK FEW100 NOSIG=
201101270200 METAR MROC 270200Z 09005KT CAVOK 21/16 A3000 NOSIG=
201101270300 METAR MROC 270300Z 11005KT CAVOK 20/15 A3002 NOSIG=
201101270400 METAR MROC 270400Z 11009KT CAVOK 20/15 A3003 RMK CROSS WND MX WND 17KT NOSIG=
201101270500 METAR MROC 270500Z 12014KT CAVOK 20/15 A3003 RMK CROSS WND NOSIG=
201101270600 METAR MROC 270600Z 12012G27KT 100V160 CAVOK 20/15 A3001 NOSIG=
201101270700 METAR MROC 270700Z 08005KT CAVOK 20/15 A2999 RMK MX WND 12KT NOSIG=
201101270800 METAR MROC 270800Z VRB02KT CAVOK 19/15 A2997 NOSIG=
201101270900 METAR MROC 270900Z 07007KT CAVOK 19/15 A2997 NOSIG=
201101271000 METAR MROC 271000Z 08007KT CAVOK 18/15 A2997 NOSIG=
201101271100 METAR MROC 271100Z 08007KT CAVOK 19/15 A2998 NOSIG=
201101271200 METAR MROC 271200Z 07006KT CAVOK 18/15 A2998 NOSIG=
201101271300 METAR MROC 271300Z 07006KT 9999 FEW030 20/15 A3002 NOSIG=
201101271400 METAR MROC 271400Z 09005KT 9999 FEW030 23/16 A3003 NOSIG=
201101271500 METAR MROC 271500Z 11011KT 9999 FEW030 25/16 A3003 NOSIG=
201101271600 METAR MROC 271600Z 11014KT 9999 FEW030 26/16 A3004 NOSIG=
201101271700 METAR MROC 271700Z 14017KT 9999 FEW030 28/16 A3002 NOSIG=
201101271800 METAR MROC 271800Z 15017KT 9999 SCT025 28/17 A3000 NOSIG=
201101271900 METAR MROC 271900Z 15010KT 9999 SCT025 SCT250 26/15 A2998 RMK DZ DST NE NOSIG=
201101272000 METAR MROC 272000Z 12011KT 9999 FEW025 SCT250 27/21 A2995 RMK DZ DST NE NOSIG=
201101272100 METAR MROC 272100Z 13012KT 9999 SCT025 25/15 A2995 RMK DZ DST NE NOSIG=
201101272200 METAR MROC 272200Z 12010KT 9999 SCT025 SCT250 24/13 A2995 RMK DZ DST NE NOSIG=
201101272300 METAR MROC 272300Z 13016KT 9999 FEW020 SCT250 23/14 A2996 RMK DZ DST NE NOSIG=
201101280000 METAR MROC 280000Z 12010KT 9999 FEW020 SCT250 22/13 A2998 NOSIG=
201101280100 METAR MROC 280100Z 12009KT 9999 FEW030 SCT250 21/13 A3000 NOSIG=
201101280200 METAR MROC 280200Z 11012KT 9999 FEW030 21/14 A3003 NOSIG=
201101280300 METAR MROC 280300Z 13007KT 9999 FEW030 21/15 A3005 NOSIG=
201101280400 METAR MROC 280400Z 14008KT 9999 FEW030 21/14 A3005 NOSIG=
201101280500 METAR MROC 280500Z 07008KT 9999 FEW030 21/14 A3004 NOSIG=
201101280600 METAR MROC 280600Z 09007KT CAVOK 20/14 A3003 RMK FEW250 NOSIG=
201101280700 METAR MROC 280700Z 12009KT CAVOK 20/14 A3001 RMK FEW250 NOSIG=
201101280800 METAR MROC 280800Z 05003KT CAVOK 18/13 A2999 RMK FEW250 NOSIG=
201101280900 METAR MROC 280900Z 11007KT CAVOK 19/14 A2998 RMK FEW250 NOSIG=
201101281000 METAR MROC 281000Z 08002KT CAVOK 18/13 A3000 RMK FEW250 NOSIG=
201101281100 METAR MROC 281100Z 10007KT CAVOK 18/13 A3000 RMK FEW250 NOSIG=
201101281200 METAR MROC 281200Z 06007KT CAVOK 18/14 A3002 RMK FEW120 NOSIG=
201101281300 METAR MROC 281300Z 08008KT CAVOK 21/14 A3003 RMK FEW120 NOSIG=
201101281400 METAR MROC 281400Z 09008KT CAVOK 23/14 A3006 NOSIG=
201101281500 METAR MROC 281500Z 10013KT CAVOK 24/14 A3006 NOSIG=
201101281600 METAR MROC 281600Z 12013KT CAVOK 26/13 A3005 RMK SCT300 NOSIG=
201101281700 METAR MROC 281700Z 13012KT CAVOK 27/13 A3003 NOSIG=
201101281800 METAR MROC 281800Z 12012KT CAVOK 28/14 A3000 NOSIG=
201101281900 METAR MROC 281900Z 12008KT CAVOK 29/14 A2998 NOSIG=
201101282000 METAR MROC 282000Z 09013KT 9999 FEW045 29/14 A2996 NOSIG=
201101282100 METAR MROC 282100Z 09014KT 9999 SCT040 28/13 A2995 NOSIG=
201101282200 METAR MROC 282200Z 10010KT 9999 SCT040 28/15 A2994 NOSIG=
201101282300 METAR MROC 282300Z 07010KT 9999 FEW030 SCT040 26/16 A2996 RMK VEL MAX VTO 15KT NOSIG=
201101290000 METAR MROC 290000Z 12007KT 9999 FEW030 BKN045 24/17 A2999 RMK PCPN DST N NE E NOSIG=
201101290100 METAR MROC 290100Z 09010KT 9999 FEW030 BKN045 22/17 A3003 NOSIG=
201101290200 METAR MROC 290200Z 10006KT 9999 FEW035 SCT250 21/17 A3005 NOSIG=
201101290300 METAR MROC 290300Z 10011KT 9999 FEW035 SCT070 21/17 A3007 NOSIG=
201101290400 METAR MROC 290400Z 09008KT 9999 FEW040 21/16 A3007 NOSIG=
201101290500 METAR MROC 290500Z 06006KT 9999 FEW045 21/17 A3006 NOSIG=
201101290600 METAR MROC 290600Z 12008KT 9999 FEW040 21/17 A3004 NOSIG=
201101290700 METAR MROC 290700Z 13012KT 9999 FEW040 21/16 A3001 NOSIG=
201101290800 METAR MROC NIL=
201101290900 METAR MROC 290900Z 12014KT 9999 FEW040 20/14 A2997 NOSIG=
201101291000 METAR MROC 291000Z 11012G24KT 9999 FEW040 21/16 A2998 NOSIG=
201101291100 METAR MROC 291100Z 12013KT 9999 FEW040 20/16 A3000 NOSIG=
201101291200 METAR MROC 291200Z 11013KT 9999 FEW025 20/16 A3002 RMK PCPN DST NE NOSIG=
201101291300 METAR MROC 291300Z 12012KT 9999 FEW030 21/16 A3006 RMK VEL MAX VTO 16KT PCPN DST N NE SE NOSIG=
201101291400 METAR MROC 291400Z 12014KT 9999 FEW030 23/16 A3009 RMK PCPN DST N NE NOSIG=
201101291500 METAR MROC 291500Z 11013KT 9999 FEW030 25/15 A3009 RMK PCPN DST NE NOSIG=
201101291600 METAR MROC 291600Z 11016KT 9999 FEW035 26/15 A3009 RMK PCPN DST NE VEL MAX VTO 21KT NOSIG=
201101291700 METAR MROC 291700Z 10017KT 9999 FEW035 26/15 A3006 NOSIG=
201101291800 METAR MROC 291800Z 09017KT 9999 FEW035 28/14 A3005 RMK VEL MAX VTO 21KT NOSIG=
201101291900 METAR MROC 291900Z 08017KT 9999 FEW035 28/12 A3003 RMK VEL MAX VTO 23KT NOSIG=
201101292000 METAR MROC 292000Z 08017KT 9999 FEW035 28/12 A3001 RMK VEL MAX VTO 24KT NOSIG=
201101292100 METAR MROC 292100Z 09014G27KT 9999 FEW040 27/12 A3000 RMK TCU DST NE SW NOSIG=
201101292200 METAR MROC 292200Z 09013G24KT 9999 FEW050 26/13 A3001 RMK TCU DST NE SW NOSIG=
201101292300 METAR MROC 292300Z 10008G22KT 9999 FEW035 25/13 A3003 RMK TCU DST NE SW NOSIG=
201101300000 METAR MROC 300000Z 10006G17KT CAVOK 23/13 A3004 RMK TCU DST NE SW NOSIG=
201101300100 METAR MROC 300100Z 10009KT CAVOK 22/13 A3006 NOSIG=
201101300200 METAR MROC 300200Z 12005KT CAVOK 20/13 A3009 NOSIG=
201101300300 METAR MROC 300300Z 12008KT CAVOK 20/14 A3011 NOSIG=
201101300400 METAR MROC 300400Z 13007KT CAVOK 19/13 A3010 NOSIG=
201101300500 METAR MROC 300500Z 12007KT CAVOK 19/13 A3011 NOSIG=
201101300600 METAR MROC 300600Z 13008KT CAVOK 19/13 A3010 NOSIG=
201101300700 METAR MROC 300700Z 13008KT CAVOK 18/12 A3007 NOSIG=
201101300800 METAR MROC 300800Z 11008KT CAVOK 18/13 A3006=
201101300900 METAR MROC 300900Z 09010KT CAVOK 18/11 A3004=
201101301000 METAR MROC 301000Z 09013KT CAVOK 18/11 A3003=
201101301100 METAR MROC 301100Z 10010KT CAVOK 19/12 A3005=
201101301200 METAR MROC 301200Z 14006KT CAVOK 18/12 A3007=
201101301300 METAR MROC 301300Z 12010KT CAVOK 19/11 A3009 RMK MX WND 15KT NOSIG=
201101301321 METAR MROC 301321Z 12010KT CAVOK 21/12 A3010 RMK MX WND 15KT NOSIG=
201101301400 METAR MROC 301400Z 12010KT CAVOK 22/12 A3012 RMK MX WND 17KT NOSIG=
201101301425 METAR MROC 301425Z 12008KT CAVOK 24/10 A3013 RMK MX WND 14KT NOSIG=
201101301500 METAR MROC 301500Z 12009KT CAVOK 25/10 A3013 NOSIG=
201101301600 METAR MROC 301600Z 10007KT CAVOK 26/10 A3012 RMK MX WND 15KT NOSIG=
201101301700 METAR MROC 301700Z 10010KT CAVOK 27/11 A3009 RMK TCU DST N NE E CROSS WND MX WND 15KT NOSIG=
201101301800 METAR MROC 301800Z 07013KT CAVOK 27/11 A3007 RMK TCU DST N NE E MX WND 19KT NOSIG=
201101301900 METAR MROC 301900Z 09012KT CAVOK 27/14 A3004 RMK TCU DST N NE E SW MX WND 19KT NOSIG=
201101302000 METAR MROC 302000Z 08012KT 9999 FEW040 27/15 A3002 RMK FEW090 TCU DST N NE E SW NOSIG=
201101302100 METAR MROC 302100Z 10015KT 9999 SCT040 26/15 A3000 RMK RA DST NE NOSIG=
201101302200 METAR MROC 302200Z 09016KT 9999 SCT040 25/14 A3000 RMK RA DST NE NOSIG=
201101302300 METAR MROC 302300Z 09011KT 9999 FEW040 24/14 A3001 RMK DZ DST NE NOSIG=
201101310000 METAR MROC 310000Z 10009KT 9999 FEW030 22/14 A3003 RMK DZ DST NE NOSIG=
201101310100 METAR MROC 310100Z 10008KT 9999 FEW030 21/13 A3006 NOSIG=
201101310200 METAR MROC 310200Z 14007KT 9999 FEW040 19/13 A3009 NOSIG=
201101310300 METAR MROC 310300Z 13009KT 9999 FEW040 19/14 A3011 NOSIG=
201101310400 METAR MROC 310400Z 11012KT 9999 FEW040 19/14 A3009 NOSIG=
201101310500 METAR MROC 310500Z 13010KT 9999 FEW040 19/13 A3008 NOSIG=
201101310600 METAR MROC 310600Z 14010KT 9999 FEW040 19/13 A3006 NOSIG=
201101310700 METAR MROC 310700Z 09006KT 9999 FEW045 18/13 A3004=
201101310800 METAR MROC 310800Z 09006KT CAVOK 17/12 A3003=
201101310900 METAR MROC 310900Z 09007KT CAVOK 17/12 A3001=
201101311000 METAR MROC 311000Z 09007KT CAVOK 18/12 A3000=
201101311100 METAR MROC 311100Z 11007KT CAVOK 18/12 A3001 RMK FEW280=
201101311200 METAR MROC 311200Z 05004KT CAVOK 16/12 A3003 RMK FEW300=
201101311300 METAR MROC 311300Z 07004KT CAVOK 19/12 A3006 NOSIG=
201101311400 METAR MROC 311400Z 11005KT CAVOK 23/12 A3008 NOSIG=
201101311500 METAR MROC 311500Z 14011KT CAVOK 25/12 A3009 NOSIG=
201101311600 METAR MROC 311600Z 12009KT CAVOK 25/12 A3009 NOSIG=
201101311700 METAR MROC 311700Z 13010KT CAVOK 28/13 A3006 NOSIG=
201101311800 METAR MROC 311800Z 13008KT 9999 FEW040 29/13 A3004 NOSIG=
201101311900 METAR MROC 311900Z 14006KT 120V200 9999 FEW040 29/14 A3002 NOSIG=
201101312000 METAR MROC 312000Z 23005KT 9999 SCT030 26/17 A3000 NOSIG=
201101312100 METAR MROC 312100Z 23008KT 9999 FEW025TCU BKN035 26/18 A2998 NOSIG=
201101312200 METAR MROC 312200Z 23008KT 9999 FEW035 SCT100 26/20 A2998 NOSIG=
201101312300 METAR MROC 312300Z 13009KT 9999 FEW035 SCT100 24/16 A2997 NOSIG=
201101312359 METAR MROC 010000Z 08003KT 9999 FEW035 SCT100 22/16 A2999 NOSIG=
201102010000 METAR MROC 010000Z 08003KT 9999 FEW035 SCT100 22/16 A2999 NOSIG=
201102010100 METAR MROC 010100Z 08006KT 9999 FEW030 22/15 A3001 NOSIG=
201102010200 METAR MROC 010200Z 13008KT 9999 FEW030 21/15 A3002 NOSIG=
201102010300 METAR MROC 010300Z 11008KT 9999 FEW030 21/15 A3003 NOSIG=
201102010352 METAR MROC 030400Z 13010KT 9999 FEW030 21/15 A3005 NOSIG=
201102010400 METAR MROC 030400Z 13010KT 9999 FEW030 21/15 A3005 NOSIG=
201102010500 METAR MROC 010500Z 09008KT 9999 FEW030 21/16 A3004 RMK CROSS WND MX WND 15KT NOSIG=
201102010600 METAR MROC 010600Z 12009KT 9999 FEW030 SCT100 22/16 A3002 RMK MX WND 17KT NOSIG=
201102010700 METAR MROC 010700Z 12012G22KT 9999 FEW030 SCT100 21/17 A2999 NOSIG=
201102010800 METAR MROC 010800Z 09010KT 9999 FEW030 SCT100 21/16 A2998 NOSIG=
201102010900 METAR MROC 010900Z 00000KT 9999 FEW030 SCT100 20/16 A2998 NOSIG=
201102010920 METAR MROC 010920Z 12009KT 9999 FEW030 SCT100 21/15 A2997 NOSIG=
201102011000 METAR MROC 011000Z 13010KT CAVOK 20/15 A2997 RMK MX WND 17KT NOSIG=
201102011100 METAR MROC 011100Z 13011G21KT CAVOK 21/15 A2997 NOSIG=
201102011200 METAR MROC 011200Z 12010KT CAVOK 21/15 A2999 RMK TCU DST N NE MX WND 18KT NOSIG=
201102011300 METAR MROC 011300Z 11010G20KT 9999 FEW015 22/16 A3001 NOSIG=
201102011400 METAR MROC 011400Z 11011KT 9999 FEW015 20/16 A3003 NOSIG=
201102011500 METAR MROC 011500Z 10012KT 9999 FEW015 SCT140 26/16 A3003 NOSIG=
201102011600 METAR MROC 011600Z 11008KT 9999 FEW020 BKN100 26/16 A3004 NOSIG=
201102011700 METAR MROC 011700Z 08008KT 9999 FEW020 BKN100 26/16 A3003 NOSIG=
201102011800 METAR MROC 011800Z 13009KT 9999 FEW025 BKN090 27/16 A3000 NOSIG=
201102011900 METAR MROC 011900Z 15010KT 9999 FEW030 SCT100 29/16 A2996 NOSIG=
201102012000 METAR MROC 012000Z 14005KT 9999 FEW030 SCT100 28/15 A2994 NOSIG=
201102012100 METAR MROC 012100Z 14008KT 9999 FEW030 SCT090 29/15 A2992 NOSIG=
201102012200 METAR MROC 012200Z 13006KT 9999 SCT030 SCT090 27/16 A2992 NOSIG=
201102012300 METAR MROC 012300Z 23006KT 9999 FEW025 SCT080 25/19 A2995 NOSIG=
201102020000 METAR MROC 020000Z 00000KT 9999 FEW020 SCT035 23/20 A2996 NOSIG=
201102020100 METAR MROC 020100Z 28005KT 9999 FEW020 SCT035 21/21 A3000 RMK HZ ARND VIS W 8000 NOSIG=
201102020200 METAR MROC 020200Z 00000KT 9999 SCT020 21/21 A3001 RMK HZ ARND NOSIG=
201102020300 METAR MROC 020300Z 07007KT 9999 SCT020 22/18 A3003 NOSIG=
201102020400 METAR MROC 020400Z 10012G22KT 9999 SCT030 22/17 A3002 NOSIG=
201102020500 METAR MROC 020500Z 12008KT 9999 FEW030 21/17 A3000 NOSIG=
201102020600 METAR MROC 020600Z 12010G21KT 080V140 9999 FEW030 21/16 A2998 NOSIG=
201102020700 METAR MROC 020700Z 12008KT 9999 FEW030 21/16 A2997 NOSIG=
201102020800 METAR MROC 020800Z 13011KT 9999 FEW030 21/16 A2995 NOSIG=
201102020900 METAR MROC 020900Z 13011KT 9999 FEW030 20/15 A2995 NOSIG=
201102021000 METAR MROC 021000Z 12010KT 9999 FEW030 21/15 A2996 NOSIG=
201102021100 METAR MROC 021100Z 12010KT 9999 FEW030 21/16 A2996 NOSIG=
201102021200 METAR MROC 021200Z 12012KT CAVOK 20/16 A2996 NOSIG=
201102021300 METAR MROC 021300Z 12013KT CAVOK 22/15 A2999 NOSIG=
201102021400 METAR MROC 021400Z 13013KT CAVOK 24/15 A3001 NOSIG=
201102021500 METAR MROC 021500Z 13014KT CAVOK 26/14 A3002 NOSIG=
201102021600 METAR MROC 021600Z 12012KT CAVOK 28/14 A3002 NOSIG=
201102021700 METAR MROC 021700Z 11010KT CAVOK 29/15 A3001 NOSIG=
201102021800 METAR MROC 021800Z 12011KT CAVOK 29/14 A2999 NOSIG=
201102021900 METAR MROC 021900Z 11012KT 9999 FEW030 29/14 A2996 NOSIG=
201102022000 METAR MROC 022000Z 11010KT 9999 FEW030 29/14 A2994 NOSIG=
201102022100 METAR MROC 022100Z 10011KT 9999 FEW040 29/13 A2992 NOSIG=
201102022200 METAR MROC 022200Z 09013KT 9999 FEW040 28/14 A2992 NOSIG=
201102022300 METAR MROC 022300Z 09012KT 9999 FEW040 26/15 A2994 NOSIG=
201102030000 METAR MROC 030000Z 10009KT 9999 FEW040 24/16 A2995 NOSIG=
201102030100 METAR MROC 030100Z 10013KT 9999 FEW040 23/16 A2997 NOSIG=
201102030200 METAR MROC 030200Z 10013KT CAVOK 22/15 A2998 NOSIG=
201102030300 METAR MROC 030300Z 12014KT CAVOK 21/15 A2999 NOSIG=
201102030400 METAR MROC 030400Z 09011KT CAVOK 21/15 A3001 NOSIG=
201102030500 METAR MROC 030500Z 11015G25KT CAVOK 21/15 A3001 NOSIG=
201102030600 METAR MROC 030600Z 10015G25KT CAVOK 21/15 A2999 NOSIG=
201102030700 METAR MROC 030700Z 11014KT CAVOK 21/15 A2997 NOSIG=
201102030800 METAR MROC 030800Z 10013KT CAVOK 20/15 A2996 NOSIG=
201102030900 METAR MROC 030900Z 11011KT CAVOK 20/15 A2997 NOSIG=
201102031000 METAR MROC 031000Z 14009KT CAVOK 20/13 A2997 NOSIG=
201102031100 METAR MROC 031100Z 11010KT CAVOK 20/14 A2998 NOSIG=
201102031200 METAR MROC 031200Z 10007KT 9999 FEW025 SCT250 20/14 A3000 RMK PCPN DST NE NOSIG=
201102031300 METAR MROC 031300Z 12011KT 9999 FEW045 SCT300 21/15 A3002 RMK PCPN DST NE VEL MAX VTO 17KT NOSIG=
201102031400 METAR MROC 031400Z 11011KT 9999 FEW045 24/15 A3003 RMK PCPN DST NE VEL MAX VTO 16KT NOSIG=
201102031500 METAR MROC 031500Z 11015KT 9999 FEW040 24/16 A3004 RMK PCPN DST NE VEL MAX VTO 21KT NOSIG=
201102031600 METAR MROC 031600Z 12014KT 9999 FEW035 SCT120 26/16 A3005 RMK PCPN DST NE NOSIG=
201102031700 METAR MROC 031700Z 10016KT 9999 FEW030 SCT120 27/16 A3003 RMK DZ DST NE NOSIG=
201102031800 METAR MROC 031800Z 10015KT 9999 FEW030 27/15 A2999 RMK FEW120 NOSIG=
201102031900 METAR MROC 031900Z 10016KT 9999 FEW030 28/16 A2996 RMK FEW120 NOSIG=
201102032000 METAR MROC 032000Z 09012G22KT 9999 SCT030 26/16 A2994 NOSIG=
201102032100 METAR MROC 032100Z 08016KT 9999 FEW035 27/14 A2993 RMK TCU DST NE MX WND 21 KT NOSIG=
201102032200 METAR MROC 032200Z 08022KT 9999 FEW035 26/14 A2993 RMK TCU DST NE MX WND 31KT NOSIG=
201102032300 METAR MROC 032300Z 08018KT CAVOK 25/14 A2992 RMK TCU DST NE MX WND 25 KT NOSIG=
201102032352 METAR MROC 040000Z 08018KT CAVOK 23/14 A2994 NOSIG=
201102032355 METAR MROC 040000Z 08018KT CAVOK 23/14 A2994 NOSIG=
201102040000 METAR MROC 040000Z 08018KT CAVOK 23/14 A2994 NOSIG=
201102040100 METAR MROC 040100Z 09014KT CAVOK 22/14 A2997 NOSIG=
201102040200 METAR MROC 040200Z 09015KT CAVOK 22/14 A2999 NOSIG=
201102040300 METAR MROC 040300Z 09014KT CAVOK 22/14 A3002 NOSIG=
201102040400 METAR MROC 040400Z 10011G21KT CAVOK 21/14 A3003 NOSIG=
201102040500 METAR MROC 040500Z 11012KT CAVOK 21/15 A3002 NOSIG=
201102040600 METAR MROC 040600Z 11012KT CAVOK 20/15 A2998 NOSIG=
201102040700 METAR MROC 040700Z 11014KT CAVOK 20/15 A2997 NOSIG=
201102040800 METAR MROC 040800Z 11013G23KT CAVOK 21/15 A2996=
201102040900 METAR MROC NIL=
201102041000 METAR MROC 041000Z 12012G22KT CAVOK 21/14 A2995=
201102041100 METAR MROC 041100Z 13014G24KT CAVOK 21/16 A2996=
201102041200 METAR MROC 041200Z 11010G20KT CAVOK 20/16 A2997 RMK DZ DST N NE E=
201102041300 METAR MROC 041300Z 12015KT CAVOK 21/16 A2999 RMK TCU DST N NE E MX WND 22KT NOSIG=
201102041325 METAR MROC 041325Z 12018G29KT CAVOK 22/16 A2999 RMK TCU DST N NE E NOSIG=
201102041400 METAR MROC 041400Z 13017G27KT CAVOK 22/16 A3000 RMK TCU DST N NE E NOSIG=
201102041500 METAR MROC 041500Z 13019G32KT CAVOK 24/16 A3001 RMK TCU DST N NE E NOSIG=
201102041600 METAR MROC 041600Z 10023G33KT 9999 FEW030 24/14 A3001 RMK TCU DST N NE E NOSIG=
201102041643 METAR MROC 041643Z 10016G26KT 9999 FEW030 26/14 A3000 RMK TCU DST N NE E NOSIG=
201102041700 METAR MROC 041700Z 09015KT CAVOK 27/14 A3000 RMK TCU DST NE MX WND 23KT NOSIG=
201102041800 METAR MROC 041800Z 09013G26KT 060V130 CAVOK 27/13 A2997 RMK TCU DST NE SW NOSIG=
201102041900 METAR MROC 041900Z 09015KT CAVOK 28/12 A2995 RMK TCU DST NE SW MX WND 24KT NOSIG=
201102042000 METAR MROC 042000Z 11013G26KT 080V140 CAVOK 28/15 A2991 RMK TCU DST NE E SW NOSIG=
201102042100 METAR MROC 042100Z 10014KT 9999 FEW040 27/16 A2990 RMK GUST 19KT RA DST NE=
201102042200 METAR MROC 042200Z 10012KT 9999 FEW040 26/15 A2991 RMK RA DST NE NOSIG=
201102042300 METAR MROC 042300Z 11011KT CAVOK 24/14 A2991 RMK GUST 17KT NOSIG=
201102050000 METAR MROC 050000Z 11013KT CAVOK 22/14 A2992 NOSIG=
201102050100 METAR MROC 050100Z 11011KT CAVOK 22/14 A2999 RMK GUST 19KT NOSIG=
201102050200 METAR MROC 050200Z 12014KT CAVOK 22/14 A2996 NOSIG=
201102050300 METAR MROC 050300Z 12010KT CAVOK 21/14 A2998 NOSIG=
201102050400 METAR MROC 050400Z 13009KT CAVOK 21/15 A2999 NOSIG=
201102050500 METAR MROC 050500Z 00000KT CAVOK 20/14 A2999 NOSIG=
201102050600 METAR MROC 050600Z 07002KT CAVOK 20/15 A2997 NOSIG=
201102050700 METAR MROC 050700Z 16002KT CAVOK 21/14 A2994 NOSIG=
201102050800 METAR MROC 050800Z 15005KT CAVOK 21/16 A2992=
201102050900 METAR MROC 050900Z 06008KT CAVOK 20/15 A2992=
201102051000 METAR MROC 051000Z 05005KT CAVOK 19/15 A2991=
201102051100 METAR MROC 051100Z 11009KT CAVOK 20/16 A2993=
201102051200 METAR MROC 051200Z 13012KT 9999 FEW030 20/16 A2994=
201102051300 METAR MROC 051300Z 12012KT 9999 FEW030 21/16 A2996 NOSIG=
201102051400 METAR MROC 051400Z 12014KT 9999 FEW030 23/16 A2998 RMK DZ N NE NOSIG=
201102051500 METAR MROC 051500Z 12013KT 9999 FEW030 26/16 A2998 RMK DZ N NE NOSIG=
201102051600 METAR MROC 051600Z 11011KT 9999 FEW030 27/16 A2998 RMK DZ N NE GUST 18KT NOSIG=
201102051700 METAR MROC 051700Z 12014KT 9999 FEW030 27/16 A2997 RMK DZ DST N NE NOSIG=
201102051800 METAR MROC 051800Z 11018KT 9999 FEW030 27/16 A2994 RMK DZ DST N NE NOSIG=
201102051900 METAR MROC 051900Z 11012KT 9999 FEW030 28/16 A2991 NOSIG=
201102052000 METAR MROC 052000Z 13011KT 9999 FEW030 28/15 A2989 RMK FEW100 NOSIG=
201102052100 METAR MROC 052100Z 14011G21KT 9999 FEW030 27/15 A2988 RMK FEW100 NOSIG=
201102052200 METAR MROC 052200Z 13015KT 9999 FEW030 24/15 A2988 NOSIG=
201102052300 METAR MROC 052300Z 13013G23KT 9999 FEW030 22/14 A2989 NOSIG=
201102052345 METAR MROC 052345Z 08014KT 9999 FEW020 19/13 A2991 RMK FEW030 DZ DST N NE E VEL MAX VTO 19KT NOSIG=
201102060000 METAR MROC 060000Z 12015KT 9999 FEW030 21/14 A2991 NOSIG=
201102060100 METAR MROC 060100Z 12012KT 9999 FEW030 19/12 A2995 NOSIG=
201102060200 METAR MROC 060200Z 14012KT 9999 FEW030 19/11 A2996 NOSIG=
201102060300 METAR MROC 060300Z 14012KT 9999 FEW030 19/12 A2998 RMK MX WND 19KT NOSIG=
201102060400 METAR MROC 060400Z 13010G20KT CAVOK 19/12 A2999 NOSIG=
201102060500 METAR MROC 060500Z 13013KT 100V160 CAVOK 19/12 A2999 RMK MX WND 19KT NOSIG=
201102060600 METAR MROC 060600Z 13011KT CAVOK 19/13 A2998 RMK MX WND 19KT NOSIG=
201102060700 METAR MROC 060700Z 12010G20KT CAVOK 19/12 A2997 NOSIG=
201102060800 METAR MROC 060800Z 11009KT CAVOK 19/12 A2995 RMK MX WND 17KT NOSIG=
201102060900 METAR MROC 060900Z 13009KT CAVOK 18/12 A2994 RMK MX WND 15KT NOSIG=
201102061000 METAR MROC 061000Z 08005KT CAVOK 17/12 A2995 NOSIG=
201102061100 METAR MROC 061100Z 10005KT CAVOK 17/13 A2995 NOSIG=
201102061200 METAR MROC 061200Z 08007KT CAVOK 18/13 A2997 NOSIG=
201102061300 METAR MROC 061300Z 12012KT CAVOK 19/13 A2998 RMK PCPN DST NE NOSIG=
201102061400 METAR MROC 061400Z 13017KT CAVOK 21/12 A2999 RMK PCPN DST NE NOSIG=
201102061500 METAR MROC 061500Z 11013KT CAVOK 24/13 A3001 RMK PCPN DST NE NOSIG=
201102061600 METAR MROC 061600Z 13013G20KT CAVOK 26/14 A3000 RMK PCPN DST NE NOSIG=
201102061700 METAR MROC 061700Z 12011KT CAVOK 27/14 A2998 RMK PCPN DST NE NOSIG=
201102061800 METAR MROC 061800Z 12010KT 9999 FEW025 28/14 A2996 RMK PCPN DST NE NOSIG=
201102061900 METAR MROC 061900Z 12016KT 9999 FEW025 29/14 A2994 RMK PCPN DST NE FEW250 NOSIG=
201102062000 METAR MROC 062000Z 09014KT 9999 FEW025 SCT250 29/14 A2992 RMK PCPN DST NE NOSIG=
201102062100 METAR MROC 062100Z 10011KT 9999 FEW025 SCT250 28/14 A2990 RMK PCPN DST NE NOSIG=
201102062200 METAR MROC 062200Z 11012KT 9999 FEW025 SCT025 27/13 A2991 RMK PCPN DST NE NOSIG=
201102062300 METAR MROC 062300Z 11007KT 9999 FEW025 SCT250 26/13 A2992 NOSIG=
201102062351 METAR MROC 070000Z 11007KT 9999 FEW030 24/14 A2995 NOSIG=
201102062354 METAR MROC 070000Z 11007KT 9999 FEW030 24/14 A2995 NOSIG=
201102070000 METAR MROC 070000Z 11007KT 9999 FEW030 24/14 A2995 NOSIG=
201102070100 METAR MROC 070100Z 13010KT 9999 FEW030 22/16 A2997 NOSIG=
201102070200 METAR MROC 070200Z 13010KT CAVOK 21/16 A3000 NOSIG=
201102070300 METAR MROC 070300Z 09005KT CAVOK 20/16 A3003 NOSIG=
201102070400 METAR MROC 070400Z 12005KT CAVOK 21/15 A3004 NOSIG=
201102070500 METAR MROC 070500Z 08006KT CAVOK 19/16 A3004 NOSIG=
201102070600 METAR MROC 070600Z 04002KT CAVOK 18/14 A3003 NOSIG=
201102070700 METAR MROC 070700Z 07003KT CAVOK 18/14 A3001 NOSIG=
201102070800 METAR MROC 070800Z 08005KT CAVOK 18/14 A3000 NOSIG=
201102070900 METAR MROC 070900Z 00000KT CAVOK 18/14 A2999 NOSIG=
201102071000 METAR MROC 071000Z 00000KT CAVOK 18/14 A2999 NOSIG=
201102071100 METAR MROC 071100Z 11003KT CAVOK 19/14 A3001 NOSIG=
201102071200 METAR MROC 071200Z 07008KT CAVOK 19/14 A3002 NOSIG=
201102071300 METAR MROC 071300Z 06004KT CAVOK 20/14 A3004 NOSIG=
201102071400 METAR MROC 071400Z 13009KT CAVOK 24/13 A3005 NOSIG=
201102071500 METAR MROC 071500Z 13009KT CAVOK 26/14 A3006 NOSIG=
201102071600 METAR MROC 071600Z 13008KT CAVOK 27/13 A3006 NOSIG=
201102071700 METAR MROC 071700Z 12005KT CAVOK 29/12 A3004 NOSIG=
201102071800 METAR MROC 071800Z 24007KT 9999 FEW035 29/16 A3002 NOSIG=
201102071900 METAR MROC 071900Z 25009KT 9999 SCT040 29/17 A3000 NOSIG=
201102072000 METAR MROC 072000Z 23010KT 9999 SCT040 29/18 A2997 NOSIG=
201102072100 METAR MROC 072100Z 24012KT 9999 FEW025TCU SCT035 29/19 A2996 RMK LGT HZ ARND PCPN DST NE NOSIG=
201102072200 METAR MROC 072200Z 24011KT 9999 FEW020TCU SCT030 26/19 A2997 RMK RASH DST E LGT HZ ARND NOSIG=
201102072300 METAR MROC 072300Z 21006KT 9999 FEW025 BKN035 26/19 A2999 NOSIG=
201102080000 METAR MROC 080000Z 00000KT 9999 SCT035 23/18 A3001 RMK LGT HZ ARND NOSIG=
201102080100 METAR MROC 080100Z 00000KT 9999 SCT035 22/17 A3003 NOSIG=
201102080200 METAR MROC 080200Z 00000KT 9999 SCT035 21/18 A3006 NOSIG=
201102080300 METAR MROC 080300Z 00000KT 9999 SCT035 22/18 A3009 NOSIG=
201102080400 METAR MROC NIL=
201102080500 METAR MROC 080500Z 110005KT 9999 FEW035 21/16 A3009 NOSIG=
201102080600 METAR MROC NIL=
201102080700 METAR MROC NIL=
201102080800 METAR MROC 080800Z 09004KT 9999 FEW035 ///// A3006 NOSIG=
201102080900 METAR MROC NIL=
201102081000 METAR MROC 081000Z 06006KT 9999 FEW035 19/14 A3003 NOSIG=
201102081100 METAR MROC 081100Z 05008KT 9999 FEW035 19/13 A3004 NOSIG=
201102081200 METAR MROC 081200Z 10003KT CAVOK 19/14 A3004 NOSIG=
201102081300 METAR MROC 081300Z 08005KT CAVOK 21/13 A3007 NOSIG=
201102081400 METAR MROC 081400Z 13010KT CAVOK 23/14 A3007 RMK VEL MAX VTO 16KT NOSIG=
201102081500 METAR MROC 081500Z 13011KT CAVOK 26/14 A3008 RMK VEL MAX VTO 17KT NOSIG=
201102081600 METAR MROC 081600Z 11012KT 9999 FEW040 27/14 A3009 RMK VEL MAX VTO 20KT NOSIG=
201102081700 METAR MROC 081700Z 10011KT 9999 FEW040 28/14 A3007 RMK VEL MAX VTO 18KT NOSIG=
201102081800 METAR MROC 081800Z 08013KT 9999 SCT040 28/13 A3004 NOSIG=
201102081900 METAR MROC 081900Z 10012KT 9999 SCT040 29/14 A3001 RMK FEW100 NOSIG=
201102082000 METAR MROC 082000Z 08016KT 9999 SCT040 SCT100 28/15 A2999 RMK PCPN DST E NOSIG=
201102082100 METAR MROC 082100Z 08011KT 9999 FEW040 SCT100 28/14 A2997 RMK TCU DST NE SW W NOSIG=
201102082200 METAR MROC 082200Z 13005KT 9999 FEW040 SCT100 27/14 A2996 RMK TCU DST NE SW FEW080 MX WND 11KT NOSIG=
201102082232 METAR MROC 082232Z 24007KT 9999 FEW040 SCT100 24/20 A2998 RMK TCU DST NE SW FEW080 NOSIG=
201102082300 METAR MROC 082300Z 26010KT 9999 SCT035 SCT100 23/20 A2998 RMK TCU DST NE SW W NOSIG=
201102090000 METAR MROC 090000Z 00000KT 9999 SCT035 SCT090 22/19 A3000 RMK TCU DST NE SW W NOSIG=
201102090100 METAR MROC 090100Z 00000KT 9999 SCT040 21/19 A3002 NOSIG=
201102090200 METAR MROC 090200Z 11006KT 9999 FEW040 21/15 A3004 NOSIG=
201102090300 METAR MROC 090300Z 12009KT 9999 FEW035 SCT100 21/15 A3006 NOSIG=
201102090400 METAR MROC 090400Z 10006KT 9999 FEW035 SCT100 21/15 A3006 NOSIG=
201102090500 METAR MROC 090500Z 11008KT CAVOK 21/15 A3005 NOSIG=
201102090600 METAR MROC 090600Z 11007KT CAVOK 20/16 A3003 NOSIG=
201102090700 METAR MROC 090700Z 11005KT CAVOK 20/15 A3001 NOSIG=
201102090800 METAR MROC NIL=
201102090900 METAR MROC 090900Z 06004KT CAVOK 19/16 A2998=
201102091000 METAR MROC 091000Z 07007KT CAVOK 19/16 A2999 RMK FEW100=
201102091100 METAR MROC 091100Z 05008KT CAVOK 19/15 A3000=
201102091200 METAR MROC 091200Z 08005KT CAVOK 19/15 A3001 RMK DZ DST NE E=
201102091300 METAR MROC 091300Z 12010KT CAVOK 21/15 A3003 RMK TCU DST NE E SW CROSS WND NOSIG=
201102091400 METAR MROC 091400Z 13011KT 100V160 CAVOK 23/16 A3004 RMK TCU DST NE E SW MX WND 17KT NOSIG=
201102091500 METAR MROC 091500Z 12010KT 070V150 CAVOK 24/16 A3005 RMK TCU DST NE E SW MX WND 16KT NOSIG=
201102091526 METAR MROC 091526Z 13010KT 090V150 CAVOK 26/15 A3005 RMK TCU DST NE E SW MX WND 18KT NOSIG=
201102091600 METAR MROC 091600Z 13010G21KT 110V170 CAVOK 26/15 A3004 RMK TCU DST NE E SW NOSIG=
201102091700 METAR MROC 091700Z 13008G20KT 070V160 9999 FEW050 27/15 A3003 RMK TCU DST NE E SW NOSIG=
201102091800 METAR MROC 091800Z 13007KT 090V180 9999 FEW050 SCT100 27/15 A3001 RMK TCU DST E NOSIG=
201102091836 METAR MROC 091836Z 19006KT 140V220 9999 FEW050 SCT100 27/15 A2998 RMK TCU DST E NOSIG=
201102091900 METAR MROC 091900Z 22007KT 150V240 CAVOK 27/17 A2997 RMK TCU DST NE E SW NOSIG=
201102091925 METAR MROC 091925Z 28005KT CAVOK 27/17 A2996 RMK TCU DST NE E SW NOSIG=
201102092000 METAR MROC 092000Z 24009KT 9999 FEW030 BKN080 27/18 A2994 RMK TCU NE E SW W RN SW W NOSIG=
201102092100 METAR MROC 092100Z 23010KT 9999 FEW030 BKN080 25/20 A2994 NOSIG=
201102092200 METAR MROC 092200Z 23010KT 9999 SCT030 SCT080 24/20 A2994 RMK HZ ARND NOSIG=
201102092300 METAR MROC 092300Z 24006KT 9999 SCT030 SCT080 22/19 A2995 RMK HZ ARND NOSIG=
201102092352 METAR MROC 100000Z 21005KT 9999 SCT030 BKN090 22/19 A2997 RMK RMK HZ ARND BECMG 00000KT=
201102092357 METAR MROC 100000Z 21005KT 9999 SCT030 BKN090 22/19 A2997 RMK RMK HZ ARND BECMG 00000KT=
201102100000 METAR MROC 100000Z 21005KT 9999 SCT030 BKN090 22/19 A2997 RMK RMK HZ ARND BECMG 00000KT=
201102100100 METAR MROC 100100Z 00000KT 9999 FEW030 SCT100 21/19 A2999 NOSIG=
201102100200 METAR MROC 100200Z 00000KT 9999 FEW030 SCT100 21/20 A3001 NOSIG=
201102100300 METAR MROC 100300Z 00000KT 9999 SCT015 BKN120 21/20 A3002 RMK HZY NOSIG=
201102100400 METAR MROC 100400Z 00000KT 9999 SCT015 BKN120 20/20 A3002 NOSIG=
201102100500 METAR MROC 100500Z 00000KT 9999 FEW020 SCT120 20/18 A3002 NOSIG=
201102100600 METAR MROC 100600Z 09006KT 9999 SCT020 20/17 A2999 NOSIG=
201102100700 METAR MROC 100700Z 10005KT 9999 SCT025 19/16 A2996=
201102100800 METAR MROC 100800Z 08007KT CAVOK 19/16 A2994 RMK SCT130=
201102100900 METAR MROC 100900Z 11006KT CAVOK 19/16 A2994 RMK SCT130=
201102101000 METAR MROC 101000Z 09006KT CAVOK 19/15 A2994 RMK SCT130=
201102101100 METAR MROC 101100Z 08007KT CAVOK 18/16 A2995 RMK SCT130=
201102101200 METAR MROC 101200Z 07007KT CAVOK 18/15 A2997=
201102101300 METAR MROC 101300Z 09006KT CAVOK 21/16 A3000 NOSIG=
201102101400 METAR MROC 101400Z 08005KT CAVOK 24/15 A3001 NOSIG=
201102101500 METAR MROC 101500Z 11009KT CAVOK 26/15 A3002 NOSIG=
201102101600 METAR MROC 101600Z 14005KT 9999 FEW040 28/15 A3002 BECMG 24006KT=
201102101700 METAR MROC 101700Z 18005KT 150V230 9999 FEW040 29/15 A3001 BECMG 24007KT=
201102101800 METAR MROC 101800Z 26008KT 9999 SCT030 29/17 A2998 NOSIG=
201102101900 METAR MROC 101900Z 27008KT 9999 SCT030 30/17 A2995 RMK HZ LEVE ARND NOSIG=
201102102000 METAR MROC 102000Z 26014KT 9999 SCT030 SCT250 30/18 A2991 RMK HZ LEVE ARND NOSIG=
201102102100 METAR MROC 102100Z 13006KT 9999 3000E -TSRA FEW006CB BKN025 22/20 A2992 BECMG 6000 -TSRA=
201102102200 METAR MROC 102200Z 09005KT 9999 -RA SCT015 SCT100 20/19 A2993 RETS NOSIG=
201102102300 METAR MROC 102300Z 00000KT 9999 SCT020 SCT100 22/20 A2994 NOSIG=
201102110000 METAR MROC 110000Z 11003KT 9999 SCT020 BKN250 21/20 A2995 RMK TRACE100 NOSIG=
201102110100 METAR MROC 110100Z 10004KT 9999 SCT025 SCT250 21/18 A2998 NOSIG=
201102110200 METAR MROC 110200Z 09005KT 9999 SCT025 SCT250 21/18 A3000 NOSIG=
201102110300 METAR MROC 110300Z 10007KT CAVOK 20/17 A3001 RMK LGT BR ARND MX WND 14KT NOSIG=
201102110400 METAR MROC 110400Z 10007KT CAVOK 20/16 A3001 RMK LGT BR ARND MX WND 13KT NOSIG=
201102110500 METAR MROC 110500Z 10010G20KT CAVOK 20/16 A3001 RMK LGT BR ARND NOSIG=
201102110600 METAR MROC 110600Z 10010KT CAVOK 20/16 A3001 RMK LGT BR ARND MX WND 17KT NOSIG=
201102110700 METAR MROC 110700Z 08007KT CAVOK 19/15 A2999 RMK LGT BR ARND NOSIG=
201102110800 METAR MROC 110800Z 08008KT CAVOK 20/15 A2997 RMK LGT BR ARND NOSIG=
201102110900 METAR MROC 110900Z 09008KT 060V120 CAVOK 20/15 A2996 RMK LGT BR ARND MX WND 13KT NOSIG=
201102111000 METAR MROC 111000Z 10010KT CAVOK 20/15 A2996 RMK LGT BR ARND MX WND 15KT NOSIG=
201102111100 METAR MROC 111100Z 10008KT CAVOK 20/14 A2997 RMK LGT BR ARND MX WND 15KT NOSIG=
201102111200 METAR MROC 111200Z 07005KT CAVOK 19/15 A3000 RMK MX WND 12KT NOSIG=
201102111300 METAR MROC 111300Z 09010KT CAVOK 21/15 A3002 NOSIG=
201102111400 METAR MROC 111400Z 11016KT CAVOK 23/15 A3003 NOSIG=
201102111500 METAR MROC 111500Z 10012G22KT CAVOK 24/15 A3005 NOSIG=
201102111600 METAR MROC 111600Z 09015KT 9999 FEW045 26/14 A3004 NOSIG=
201102111700 METAR MROC 111700Z 10014KT 9999 FEW045 27/14 A3004 NOSIG=
201102111800 METAR MROC 111800Z 10010KT 9999 FEW040 29/13 A3002 NOSIG=
201102111900 METAR MROC 111900Z 08010KT 9999 FEW040 29/13 A2999 NOSIG=
201102112000 METAR MROC 112000Z 09010G22KT 9999 FEW040 29/13 A2996 NOSIG=
201102112100 METAR MROC 112100Z 09011KT 9999 FEW040 29/13 A2994 NOSIG=
201102112200 METAR MROC 112200Z 09010KT 9999 FEW045 28/14 A2994 NOSIG=
201102112300 METAR MROC 112300Z 08008KT 9999 FEW045 26/12 A2996 NOSIG=
201102120000 METAR MROC 120000Z 08012KT 9999 FEW040 23/11 A2997 RMK VEL MAX VTO 17KT NOSIG=
201102120100 METAR MROC 120100Z 09003KT CAVOK 22/10 A3000 NOSIG=
201102120200 METAR MROC 120200Z 11005KT CAVOK 21/13 A3003 NOSIG=
201102120300 METAR MROC 120300Z 07006KT CAVOK 20/12 A3004 NOSIG=
201102120400 METAR MROC 120400Z 04005KT CAVOK 20/12 A3005 NOSIG=
201102120500 METAR MROC 120500Z 07009KT CAVOK 20/14 A3004 NOSIG=
201102120600 METAR MROC 120600Z 07008G18KT CAVOK 20/13 A3004 NOSIG=
201102120700 METAR MROC 120700Z 09007KT 060V120 CAVOK 19/13 A3001 NOSIG=
201102120800 METAR MROC 120800Z 11014KT CAVOK 20/12 A2999 NOSIG=
201102120900 METAR MROC 120900Z 11015KT CAVOK 20/13 A2998 RMK GUST 20KT NOSIG=
201102121000 METAR MROC 121000Z 10011KT CAVOK 19/14 A3000 NOSIG=
201102121100 METAR MROC 121100Z 09009KT CAVOK 19/14 A3001 NOSIG=
201102121200 METAR MROC 121200Z 11014G24KT CAVOK 20/13 A3002 NOSIG=
201102121300 METAR MROC 121300Z 11011KT 070V130 CAVOK 22/13 A3004 RMK VEL MAX VTO 17KT NOSIG=
201102121400 METAR MROC 121400Z 11013KT CAVOK 24/13 A3006 RMK VEL MAX VTO 18KT NOSIG=
201102121500 METAR MROC 121500Z 11012KT CAVOK 26/14 A3008 RMK VEL MAX VTO 18KT SCT270 NOSIG=
201102121600 METAR MROC 121600Z 10010KT CAVOK 28/14 A3007 RMK VEL MAX VTO 17KT SCT270 NOSIG=
201102121700 METAR MROC 121700Z 12012KT CAVOK 28/13 A3005 RMK VEL MAX VTO 20KT SCT300 NOSIG=
201102121800 METAR MROC 121800Z 11012KT CAVOK 29/15 A3003 RMK FEW050 FEW300 VEL MAX VTO 19KT NOSIG=
201102121900 METAR MROC 121900Z 07017KT 9999 FEW040 29/14 A3002 RMK VEL MAX VTO 23KT FEW300 NOSIG=
201102122000 METAR MROC 122000Z 07016KT 9999 FEW030 30/15 A2999 RMK VEL MAX VTO 22KT FEW045 NOSIG=
201102122100 METAR MROC 122100Z 08010KT 9999 FEW030 SCT040 28/14 A2998 RMK PCPN DST NE NOSIG=
201102122200 METAR MROC 122200Z 07012KT 9999 FEW030 SCT040 26/15 A2998 RMK PCPN DST ENE NOSIG=
201102122300 METAR MROC 122300Z 06011KT 9999 FEW030 SCT040 25/16 A2999 RMK PCPN DST NE NOSIG=
201102130000 METAR MROC 130000Z 10005KT 9999 -RA FEW025 BKN040 22/18 A3002 NOSIG=
201102130100 METAR MROC 130100Z 10005KT 9999 FEW025 BKN040 22/18 A3002 NOSIG=
201102130200 METAR MROC 130200Z 10005KT 9999 SCT030 22/17 A3006 NOSIG=
201102130300 METAR MROC 130300Z 13007KT 9999 SCT030 20/18 A3008 NOSIG=
201102130400 METAR MROC 130400Z 12012KT 9999 SCT030 21/18 A3008 NOSIG=
201102130500 METAR MROC 130500Z 10017KT 9999 SCT030 21/16 A3008 NOSIG=
201102130600 METAR MROC 130600Z 12006KT 9999 SCT030 21/16 A3006 NOSIG=
201102130700 METAR MROC 130700Z 12008KT 9999 SCT030 20/17 A3005 NOSIG=
201102130800 METAR MROC 130800Z 09011KT 9999 FEW030 20/16 A3003 NOSIG=
201102130900 METAR MROC 130900Z 11012KT 9999 FEW030 20/15 A3001 NOSIG=
201102131000 METAR MROC 131000Z 10012KT 9999 FEW030 21/15 A3001 NOSIG=
201102131100 METAR MROC 131100Z 10014KT 9999 FEW030 21/14 A3003 NOSIG=
201102131200 METAR MROC 131200Z 11017KT 9999 FEW030 SCT100 21/15 A3003 RMK DZ DST NE NOSIG=
201102131300 METAR MROC 131300Z 09021G31KT 9999 FEW030 SCT120 22/14 A3006 RMK DZ DST N NE NOSIG=
201102131400 METAR MROC 131400Z 10016G26KT 9999 FEW030 23/14 A3008 RMK DZ DST N NOSIG=
201102131500 METAR MROC 131500Z 09017G28KT 9999 FEW035 25/14 A3008 RMK DZ DST NE NOSIG=
201102131600 METAR MROC 131600Z 09017G28KT 9999 SCT035 26/15 A3010 RMK DZ DST N NE NOSIG=
201102131700 METAR MROC 131700Z 10012G22KT 9999 SCT035 SCT080 25/16 A3009 RMK PCPN DST N NE E NOSIG=
201102131800 METAR MROC 131800Z 08017G28KT 9999 SCT035 SCT080 26/16 A3007 RMK DZ DST N NE E NOSIG=
201102131900 METAR MROC 131900Z 10013G26KT 9999 FEW035 SCT070 25/15 A3004 RMK DZ DST N NE E NOSIG=
201102132000 METAR MROC 132000Z 10013G24KT 9999 FEW035 SCT100 26/16 A3002 RMK DZ DST NE E NOSIG=
201102132100 METAR MROC 132100Z 09014G24KT 9999 FEW035 25/15 A3001 RMK TCU DST NE SW W FEW100 NOSIG=
201102132200 METAR MROC 132200Z 09014G24KT CAVOK 24/14 A3001 RMK TCU DST NE NOSIG=
201102132300 METAR MROC 132300Z 11014G24KT CAVOK 23/14 A3001 RMK TCU DST NE NOSIG=
201102140000 METAR MROC 140000Z 10016G26KT CAVOK 21/14 A3003 RMK TCU DST NE NOSIG=
201102140100 METAR MROC 140100Z 11012G23KT CAVOK 20/14 A3004 NOSIG=
201102140200 METAR MROC 140200Z 10012KT CAVOK 20/14 A3007 NOSIG=
201102140300 METAR MROC 140300Z 11012KT 9999 FEW030 20/14 A3009 RMK VEL MAX VTO 19KT NOSIG=
201102140400 METAR MROC 140400Z 10011KT CAVOK 20/12 A3009 RMK VEL MAX VTO 18KT NOSIG=
201102140500 METAR MROC 140500Z 11015G25KT CAVOK 20/15 A3007 NOSIG=
201102140600 METAR MROC 140600Z 10015KT CAVOK 20/15 A3005 RMK FEW050 VEL MAX VTO 21KT NOSIG=
201102140700 METAR MROC 140700Z 10012G22KT 060V120 CAVOK 20/16 A3003 RMK FEW050 NOSIG=
201102140800 METAR MROC 140800Z 10012G22KT 9999 FEW045 20/16 A3000 NOSIG=
201102140900 METAR MROC 140900Z 11012KT CAVOK 20/17 A3000 RMK VEL MAX VTO 18KT FEW050 NOSIG=
201102141000 METAR MROC 141000Z 10008KT 9999 FEW040 SCT080 21/17 A3000 NOSIG=
201102141100 METAR MROC 141100Z 05008KT 9999 FEW040 SCT090 21/17 A3002 NOSIG=
201102141200 METAR MROC 141200Z 11007KT 9999 FEW040 SCT080 BKN250 21/16 A3003 RMK VIS 8KM NE DZ NE/E NOSIG=
201102141300 METAR MROC 141300Z 12007KT 9999 FEW035 BKN080 21/16 A3006 RMK TCU N NE E MX WND 12KT NOSIG=
201102141400 METAR MROC 141400Z 11009KT 9999 FEW035 BKN080 23/17 A3008 RMK TCU N NE E S MX WND 14KT NOSIG=
201102141500 METAR MROC 141500Z 11009G19KT 9999 FEW030 BKN080 24/17 A3009 RMK TCU N NE E S FEW140 NOSIG=
201102141519 METAR MROC 141519Z 11010G20KT 9999 RA FEW030 BKN080 23/18 A3010 RMK TCU N NE E S FEW140 NOSIG=
201102141600 METAR MROC 141600Z 11007KT 9999 DZ FEW030 BKN090 24/18 A3010 RERA RMK TCU DST N NE E S MX WND 13KT FEW140 NOSIG=
201102141700 METAR MROC 141700Z 08011KT 060V120 9999 FEW030 BKN140 27/16 A3008 REDZ RMK TCU DST NE E S MAX WND 17KT FEW090 NOSIG=
201102141800 METAR MROC 141800Z 11013KT 9999 FEW040 BKN140 26/16 A3004 RMK TCU DST NE E S MX WND 21KT NOSIG=
201102141900 METAR MROC 141900Z 11010KT 9999 FEW035 SCT120 26/15 A3002 RMK TCU DST N NE E S NOSIG=
201102142000 METAR MROC 142000Z 10013KT 9999 FEW030 28/15 A2998 RMK RN DST N NE NOSIG=
201102142100 METAR MROC 142100Z 13010KT 9999 FEW015 SCT030 27/16 A2996 NOSIG=
201102142200 METAR MROC 142200Z 11009KT 9999 FEW015 SCT030 25/16 A2997 RMK RA DST N NE NOSIG=
201102142300 METAR MROC 142300Z 09009KT 9999 FEW015 SCT030 26/15 A2998 RMK RA N NE NOSIG=
201102150000 METAR MROC 150000Z 12007KT 9999 FEW015 SCT030 23/17 A3000 RMK RA DST NE NOSIG=
201102150100 METAR MROC 150100Z 09005KT 9999 FEW020 SCT040 23/17 A3002 NOSIG=
201102150200 METAR MROC 150200Z 08009KT 9999 SCT030 22/17 A3004 NOSIG=
201102150300 METAR MROC 150300Z 11014KT 9999 FEW030 SCT070 21/17 A3005 NOSIG=
201102150400 METAR MROC 150400Z 09003KT 9999 FEW030 SCT070 21/17 A3005 NOSIG=
201102150500 METAR MROC 150500Z 10003KT 9999 FEW030 SCT070 21/17 A3004 NOSIG=
201102150600 METAR MROC 150600Z 09005KT 9999 FEW035 SCT080 21/16 A3004 NOSIG=
201102150700 METAR MROC 150700Z 11008KT 9999 FEW035 SCT100 21/16 A3001=
201102150800 METAR MROC 150800Z 05005KT 9999 FEW035 SCT100 20/16 A3000=
201102150900 METAR MROC 150900Z 07007KT 9999 FEW035 SCT120 20/17 A3000=
201102151000 METAR MROC 151000Z 07004KT 9999 FEW035 SCT120 20/16 A3001=
201102151100 METAR MROC 151100Z 10008KT 9999 FEW030 BKN100 21/16 A3001=
201102151200 METAR MROC 151200Z 10007KT 9999 -RA FEW030 BKN100 19/17 A3004=
201102151300 METAR MROC 151300Z 12013KT 9999 FEW030 BKN080 21/16 A3004 RMK RA DST N NE NOSIG=
201102151400 METAR MROC 151400Z 11013KT 9999 FEW030 BKN080 22/17 A3007 RMK RA DST N NE NOSIG=
201102151500 METAR MROC 151500Z 12010KT 9999 FEW030 SCT080 BKN250 23/17 A3008 RMK RA DST N NE NOSIG=
201102151600 METAR MROC 151600Z 09013KT 9999 FEW030 SCT080 BKN250 26/16 A3008 RMK RA DST N NE GUST 20KT NOSIG=
201102151700 METAR MROC 151700Z 07015KT 9999 FEW030 BKN250 26/15 A3006 RMK RA DST N NE GUST 23KT NOSIG=
201102151800 METAR MROC 151800Z 10011KT 9999 FEW030 BKN250 26/15 A3004 RMK RA DST N NEGUS T 17KT NOSIG=
201102151900 METAR MROC 151900Z 09010KT 9999 FEW030 BKN250 27/16 A3002 RMK RA DST N NE NOSIG=
201102152000 METAR MROC 152000Z 09009KT 9999 SCT030 BKN250 26/16 A2998 RMK RA DST N NE NOSIG=
201102152100 METAR MROC 152100Z 09008KT 9999 SCT030 BKN250 26/16 A2997 RMK PCPN DST NE NOSIG=
201102152200 METAR MROC 152200Z 07008KT 9999 SCT030 BKN250 25/16 A2999 RMK PCPN DST NE NOSIG=
201102152300 METAR MROC 152300Z 07003KT 9999 SCT020 BKN100 23/16 A3001 RMK PCPN DST NE NOSIG=
201102160000 METAR MROC 160000Z 11010KT 9999 SCT020 BKN100 22/15 A3000 RMK PCPN DST NE NOSIG=
201102160100 METAR MROC 160100Z 12011KT 9999 SCT020 BKN100 22/16 A3002 NOSIG=
201102160200 METAR MROC 160200Z 10013KT 9999 SCT020 SCT080 22/16 A3004 NOSIG=
201102160300 METAR MROC 160300Z 10008KT CAVOK 21/16 A3005 RMK CROSS WND MX WND 16KT NOSIG=
201102160400 METAR MROC 160400Z 11009KT CAVOK 21/17 A3007 RMK MX WND 14KT NOSIG=
201102160500 METAR MROC 160500Z 08008KT CAVOK 21/16 A3007 RMK MX WND 15KT NOSIG=
201102160600 METAR MROC 160600Z 11009KT CAVOK 21/16 A3005 RMK MX WND 15KT NOSIG=
201102160700 METAR MROC 160700Z 09013KT CAVOK 21/15 A3003 RMK MX WND 18KT NOSIG=
201102160800 METAR MROC 160800Z 11012KT 090V150 CAVOK 21/16 A3001 RMK MX WND 20KT NOSIG=
201102160900 METAR MROC 160900Z 10012G22KT CAVOK 21/16 A3000 NOSIG=
201102161000 METAR MROC 161000Z 09006G21KT CAVOK 21/16 A3001 NOSIG=
201102161100 METAR MROC 161100Z 08008KT CAVOK 20/16 A3002 RMK CROSS WND MX WND 15KT NOSIG=
201102161200 METAR MROC 161200Z 11013G24KT CAVOK 21/16 A3003 RMK PCPN DST NE E SE TCU DST SW NOSIG=
201102161300 METAR MROC 161300Z 10013KT 9999 FEW015 21/15 A3006 RMK PCPN DST NE NOSIG=
201102161400 METAR MROC 161400Z 11013KT 9999 FEW015 23/16 A3008 RMK PCPN DST NE NOSIG=
201102161500 METAR MROC 161500Z 12013KT 9999 FEW020 25/16 A3009 RMK PCPN DST NE NOSIG=
201102161600 METAR MROC 161600Z 10012G24KT 9999 FEW020 26/15 A3009 RMK PCPN DST NE NOSIG=
201102161700 METAR MROC 161700Z 08013KT 9999 FEW020 28/13 A3007 RMK PCPN DST NE NOSIG=
201102161800 METAR MROC 161800Z 09013KT 9999 FEW020 28/13 A3004 RMK PCPN DST NE NOSIG=
201102161900 METAR MROC 161900Z 05008KT 9999 SCT020 29/13 A3002 RMK PCPN DST NE NOSIG=
201102162000 METAR MROC 162000Z 09016KT 9999 SCT020 29/13 A2999 RMK PCPN DST NE NOSIG=
201102162100 METAR MROC 162100Z 11012KT 9999 FEW030 28/14 A2997 RMK FEW060 DZ DST NE NOSIG=
201102162200 METAR MROC 162200Z 11012KT 9999 FEW015 SCT035 26/15 A2997 RMK DZ DST NE TCU DST S FEW070 NOSIG=
201102162300 METAR MROC 162300Z 10011KT 9999 SCT040 25/12 A2999 RMK TCU DST S FEW080 DZ DST NE NOSIG=
201102170000 METAR MROC 170000Z 11010KT 9999 SCT045 23/13 A3000 RMK DZ DST NE VEL MAX VTO 15KT FEW250 NOSIG=
201102170100 METAR MROC 170100Z 11012KT 9999 FEW040 21/14 A3003 RMK VEL MAX VTO 18KT NOSIG=
201102170200 METAR MROC 170200Z 12013G24KT CAVOK 21/14 A3004 NOSIG=
201102170300 METAR MROC 170300Z 11014KT CAVOK 21/14 A3007 RMK GUST 22KT NOSIG=
201102170400 METAR MROC NIL=
201102170500 METAR MROC NIL=
201102170600 METAR MROC NIL=
201102170700 METAR MROC NIL=
201102170800 METAR MROC NIL=
201102170900 METAR MROC NIL=
201102171000 METAR MROC NIL=
201102171100 METAR MROC 171100Z 07006KT CAVOK 20/13 A3003 NOSIG=
201102171200 METAR MROC 171200Z 08007KT 9999 FEW030 19/13 A3005 RMK DZ NE 6NOSIG=
201102171300 METAR MROC 171300Z 10008KT CAVOK 21/13 A3006 RMK FEW110 NOSIG=
201102171400 METAR MROC 171400Z 12013KT CAVOK 23/15 A3008 RMK FEW110 VEL MAX VTO 21KT NOSIG=
201102171500 METAR MROC 171500Z 12013KT CAVOK 26/16 A3009 RMK FEW120 VEL MAX VTO 20KT NOSIG=
201102171600 METAR MROC 171600Z 11013KT CAVOK 27/15 A3008 RMK VEL MAX VTO 18KT FEW120 NOSIG=
201102171700 METAR MROC 171700Z 09012KT 9999 FEW045 29/15 A3007 RMK VEL MAX VTO 17KT FEW120 NOSIG=
201102171800 METAR MROC 171800Z 10010KT 9999 SCT045 29/15 A3005 RMK VEL MAX VTO 18KT NOSIG=
201102171900 METAR MROC 171900Z 12012KT 9999 SCT045 30/15 A3001 RMK VEL MAX VTO 17KT FEW130 NOSIG=
201102172000 METAR MROC 172000Z 10011KT 9999 FEW030 SCT050 29/17 A2999 RMK VEL MAX VTO 17KT FEW100 NOSIG=
201102172100 METAR MROC 172100Z 11009KT 9999 FEW035 SCT060 28/16 A2997 NOSIG=
201102172200 METAR MROC 172200Z 10011KT 9999 FEW035 SCT100 28/15 A2997 NOSIG=
201102172300 METAR MROC 172300Z 11012KT 9999 FEW035 SCT080 25/16 A2999 NOSIG=
201102180000 METAR MROC 180000Z 11012KT 9999 FEW035 SCT100 23/17 A3001 RMK DZ DST ENE NOSIG=
201102180100 METAR MROC 180100Z 11015KT 9999 FEW035 22/16 A3002 RMK FEW080 NOSIG=
201102180200 METAR MROC 180200Z 11013KT 9999 FEW035 22/16 A3003 NOSIG=
201102180300 METAR MROC 180300Z 12010KT 9999 FEW035 22/16 A3006 NOSIG=
201102180400 METAR MROC 180400Z 12013KT 9999 FEW035 22/16 A3007 NOSIG=
201102180500 METAR MROC 180500Z 12016KT 9999 FEW035 21/16 A3007 NOSIG=
201102180600 METAR MROC 180600Z 11014KT 9999 FEW035 22/16 A3004 NOSIG=
201102180700 METAR MROC 180700Z 10010G20KT 9999 FEW035 21/16 A3002 NOSIG=
201102180800 METAR MROC 180800Z 11011KT 9999 FEW035 21/16 A3001 NOSIG=
201102180900 METAR MROC 180900Z 05005KT 9999 FEW035 21/16 A3001 NOSIG=
201102181000 METAR MROC 181000Z 11014KT 9999 FEW035 21/16 A3001 NOSIG=
201102181100 METAR MROC 181100Z 11012KT 9999 FEW035 21/16 A3002 NOSIG=
201102181200 METAR MROC 181200Z 11016KT 9999 FEW030 21/16 A3004 NOSIG=
201102181300 METAR MROC 181300Z 11014KT 9999 FEW030 22/16 A3007 RMK DZ DST N NE VEL MAX VTO 21KT NOSIG=
201102181400 METAR MROC 181400Z 11013KT 9999 FEW030 24/17 A3008 RMK VEL MAX VTO 19KT NOSIG=
201102181500 METAR MROC 181500Z 12014KT 9999 FEW030 25/16 A3009 NOSIG=
201102181600 METAR MROC 181600Z 10014KT 9999 FEW030 27/15 A3009 RMK FEW120 VEL MAX VTO 21KT NOSIG=
201102181700 METAR MROC 181700Z 09014G24KT 9999 FEW030 28/15 A3007 NOSIG=
201102181800 METAR MROC NIL=
201102181900 METAR MROC 181900Z 09013KT 9999 SCT035 29/17 A3001 RMK VEL MAX VTO 20KT NOSIG=
201102182000 METAR MROC 182000Z 10013KT 9999 FEW035 SCT120 28/16 A2999 RMK VEL MAX VTO 20KT NOSIG=
201102182100 METAR MROC 182100Z 08012KT 9999 FEW035 SCT120 27/15 A2998 RMK TCU DST ARND FEW080 NOSIG=
201102182200 METAR MROC 182200Z 10013KT 9999 FEW035 SCT080 26/16 A2998 RMK TCU DST ARND RN CB DST SW MX WND 18KT NOSIG=
201102182300 METAR MROC 182300Z 11014KT 9999 FEW035 24/15 A3000 RMK FEW100 NOSIG=
201102182353 METAR MROC 190000Z 12014KT 9999 FEW030 23/15 A3000 NOSIG=
201102190000 METAR MROC 190000Z 12014KT 9999 FEW030 23/15 A3000 NOSIG=
201102190100 METAR MROC 190100Z 12013KT 9999 FEW030 22/15 A3002 NOSIG=
201102190200 METAR MROC 190200Z 10014KT 9999 FEW030 22/14 A3003 NOSIG=
201102190300 METAR MROC 190300Z 10013G23KT CAVOK 22/15 A3004 RMK FEW080 NOSIG=
201102190400 METAR MROC 190400Z 11015G25KT 9999 FEW035 21/16 A3004 RMK FEW090 NOSIG=
201102190500 METAR MROC 190500Z 10013G23KT CAVOK 21/15 A3003 RMK FEW100 NOSIG=
201102190600 METAR MROC 190600Z 10012KT CAVOK 21/16 A3001 RMK FEW090 VEL MAX VTO 17KT NOSIG=
201102190700 METAR MROC 190700Z 11010KT CAVOK 21/15 A3000 RMK VEL MAX VTO 16KT FEW080 NOSIG=
201102190800 METAR MROC 190800Z 09010KT CAVOK 20/15 A2999 RMK FEW080 VEL MAX VTO 15KT NOSIG=
201102190900 METAR MROC 190900Z 09009G20KT 070V130 CAVOK 20/15 A2999 NOSIG=
201102191000 METAR MROC 191000Z 10014KT CAVOK 20/15 A2998 RMK VEL MAX VTO 20KT NOSIG=
201102191100 METAR MROC 191100Z 10013KT CAVOK 20/14 A3000 RMK VEL MAX VTO 18KT CB DST S NOSIG=
201102191200 METAR MROC 191200Z 11012KT CAVOK 20/15 A3001 RMK FEW250 VEL MAX VTO 18KT NOSIG=
201102191300 METAR MROC 191300Z 11012KT CAVOK 21/14 A3003 RMK MX WND 19KT NOSIG=
201102191400 METAR MROC 191400Z 10010G20KT CAVOK 24/15 A3005 NOSIG=
201102191500 METAR MROC 191500Z 11013KT CAVOK 26/14 A3005 RMK MX WND 22KT NOSIG=
201102191600 METAR MROC 191600Z 12014G24KT CAVOK 27/13 A3005 NOSIG=
201102191628 METAR MROC 191628Z 10013G23KT 080V140 CAVOK 28/13 A3004 NOSIG=
201102191700 METAR MROC 191700Z 11012G22KT CAVOK 29/13 A3003 RMK TCU DST E NOSIG=
201102191800 METAR MROC 191800Z 10013G23KT CAVOK 29/11 A3000 RMK TCU DST E NOSIG=
201102191900 METAR MROC 191900Z 11011KT CAVOK 30/13 A2997 RMK TCU DST E LGT HZ E MX WND 18KT NOSIG=
201102192000 METAR MROC 192000Z 09010KT 9999 SCT035 29/14 A2994 NOSIG=
201102192100 METAR MROC 192100Z 08012KT 9999 FEW040 30/14 A2992 NOSIG=
201102192200 METAR MROC 192200Z 13011KT 9999 FEW040 28/15 A2992 NOSIG=
201102192300 METAR MROC 192300Z 11005KT 9999 FEW040 26/15 A2993 RMK GUST 11KT NOSIG=
201102200000 METAR MROC 200000Z 12009KT 9999 FEW030 24/15 A2995 RMK GUST 15KT NOSIG=
201102200100 METAR MROC 200100Z 12008KT 9999 FEW030 23/15 A2998 NOSIG=
201102200200 METAR MROC 200200Z 10010KT 9999 FEW030 22/15 A3001 NOSIG=
201102200300 METAR MROC 200300Z 10008KT CAVOK 21/15 A3001 NOSIG=
201102200301 METAR MROC 200301Z 10008KT CAVOK 21/15 A3001 NOSIG=
201102200400 METAR MROC 200400Z 12012KT CAVOK 20/15 A3002=
201102200500 METAR MROC 200500Z 11013KT CAVOK 20/15 A3001 NOSIG=
201102200600 METAR MROC 200600Z 10010KT CAVOK 20/15 A3000 NOSIG=
201102200700 METAR MROC 200700Z 09008KT CAVOK 20/15 A2997=
201102200800 METAR MROC 200800Z 10011KT CAVOK 20/15 A2996=
201102200900 METAR MROC 200900Z 08010KT CAVOK 20/15 A2996=
201102201000 METAR MROC 201000Z 10011KT CAVOK 20/15 A2995=
201102201100 METAR MROC 201100Z 10010KT CAVOK 20/15 A2996=
201102201200 METAR MROC 201200Z 11011KT CAVOK 20/15 A2998=
201102201300 METAR MROC 201300Z 09009G20KT CAVOK 22/15 A3000 NOSIG=
201102201400 METAR MROC 201400Z 11012KT CAVOK 23/16 A3001 RMK DZ N NE=
201102201500 METAR MROC 201500Z 10012KT CAVOK 26/15 A3003 RMK DZ N NE NOSIG=
201102201600 METAR MROC 201600Z 10012KT 9999 FEW040 27/14 A3002 RMK DZ N NE NOSIG=
201102201700 METAR MROC 201700Z 09012G24KT 9999 FEW040 28/14 A3001 RMK DZ N NE NOSIG=
201102201800 METAR MROC 201800Z 10011KT 080V140 9999 FEW040 29/15 A2998 RMK GUST 19KT DZ N NE NOSIG=
201102201900 METAR MROC 201900Z 10011KT 9999 FEW040 29/15 A2995 RMK DZ N NE NOSIG=
201102202000 METAR MROC 202000Z 10007KT 9999 SCT030 29/15 A2992 RMK DZ N NE NOSIG=
201102202100 METAR MROC 202100Z 12011KT 9999 SCT030 29/15 A2990 RMK DZ DST NE NOSIG=
201102202200 METAR MROC 202200Z 09010KT 9999 SCT030 25/17 A2991 RMK DZ DST NE NOSIG=
201102202300 METAR MROC 202300Z 12009KT 9999 SCT025 24/16 A2992 RMK DZ DST NE NOSIG=
201102210000 METAR MROC 210000Z 09010KT 9999 SCT025 22/16 A2994 NOSIG=
201102210100 METAR MROC 210100Z 10005KT 9999 SCT025 22/16 A2996 NOSIG=
201102210200 METAR MROC 210200Z 10012KT 9999 SCT025 21/16 A2997 NOSIG=
201102210300 METAR MROC 210300Z 11013KT 9999 FEW025 21/16 A3000 RMK MX WND 20KT NOSIG=
201102210334 METAR MROC 210334Z 11015G25KT 9999 FEW025 21/16 A3000 NOSIG=
201102210400 METAR MROC 210400Z 11014KT CAVOK 21/15 A3000 RMK MX WND 21KT NOSIG=
201102210500 METAR MROC 210500Z 11008KT CAVOK 20/14 A3001 RMK MX WND 14KT NOSIG=
201102210600 METAR MROC 210600Z 09008KT CAVOK 20/13 A2999 RMK MX WND 16KT NOSIG=
201102210700 METAR MROC 210700Z 12010G20KT CAVOK 21/11 A2997 NOSIG=
201102210800 METAR MROC 210800Z 11010KT CAVOK 20/13 A2996 RMK MX WND 17KT NOSIG=
201102210900 METAR MROC 210900Z 10008KT CAVOK 20/12 A2995 RMK MX WND 13KT NOSIG=
201102211000 METAR MROC 211000Z 10007G17KT 070V130 CAVOK 19/12 A2994 NOSIG=
201102211100 METAR MROC 211100Z 12009G20KT CAVOK 20/12 A2996 NOSIG=
201102211200 METAR MROC 211200Z 12011KT CAVOK 19/13 A2997 RMK MX WND 19KT TCU DST SW NOSIG=
201102211300 METAR MROC 211300Z 12010KT CAVOK 21/13 A2999 RMK BKN250 NOSIG=
201102211400 METAR MROC 211400Z 13008KT CAVOK 23/12 A3000 RMK SCT250 NOSIG=
201102211500 METAR MROC 211500Z 13015KT CAVOK 26/12 A3001 RMK SCT250 NOSIG=
201102211600 METAR MROC 211600Z 10012KT CAVOK 28/09 A3002 NOSIG=
201102211700 METAR MROC 211700Z 11010KT 9999 FEW030 28/11 A3001 NOSIG=
201102211800 METAR MROC 211800Z 08016KT 9999 FEW030 28/12 A3000 NOSIG=
201102211900 METAR MROC 211900Z 10012KT 9999 FEW030 28/13 A2997 NOSIG=
201102212000 METAR MROC 212000Z 09013KT 9999 FEW030 28/14 A2995 NOSIG=
201102212100 METAR MROC 212100Z 09011KT 9999 FEW030 29/13 A2992 RMK TCU DST S VEL MAX VTO 16KT NOSIG=
201102212200 METAR MROC 212200Z 09010G20KT 9999 FEW035 28/11 A2992 NOSIG=
201102212300 METAR MROC 212300Z 09008KT 9999 FEW040 25/13 A2993 NOSIG=
201102220000 METAR MROC 220000Z 11007KT 9999 FEW040 23/12 A2995 NOSIG=
201102220100 METAR MROC 220100Z 11006KT 9999 FEW040 21/13 A2997 NOSIG=
201102220200 METAR MROC 220200Z 10008KT CAVOK 21/12 A2999 NOSIG=
201102220300 METAR MROC 220300Z 10009KT CAVOK 21/11 A3000 RMK GUST 14KT NOSIG=
201102220400 METAR MROC 220400Z 10013KT CAVOK 20/13 A3002 RMK GUST 20KT NOSIG=
201102220500 METAR MROC 220500Z 10010KT CAVOK 20/13 A3002 RMK GUST 19KT NOSIG=
201102220600 METAR MROC 220600Z 11010KT CAVOK 20/12 A3001 RMK GUST 17KT NOSIG=
201102220700 METAR MROC 220700Z 11010KT CAVOK 19/12 A2999 RMK GUST 16KT NOSIG=
201102220800 METAR MROC 220800Z 10011KT CAVOK 20/12 A2998 RMK GUST 17KT NOSIG=
201102220900 METAR MROC 220900Z 12009KT CAVOK 19/12 A2998 NOSIG=
201102221000 METAR MROC 221000Z 12008KT CAVOK 18/11 A2999 NOSIG=
201102221100 METAR MROC 221100Z 12009KT CAVOK 18/12 A3000 NOSIG=
201102221200 METAR MROC 221200Z 12008KT CAVOK 18/11 A3001 RMK GUST 14KT NOSIG=
201102221300 METAR MROC 221300Z 12010KT CAVOK 20/11 A3002 RMK VEL MAX VTO 17KT NOSIG=
201102221400 METAR MROC 221400Z 11011G23KT CAVOK 22/11 A3004 NOSIG=
201102221500 METAR MROC 221500Z 10011KT CAVOK 25/12 A3005 RMK VEL MAX VTO 17KT NOSIG=
201102221600 METAR MROC 221600Z 11012KT CAVOK 26/11 A3004 RMK VEL MAX VTO 18KT NOSIG=
201102221700 METAR MROC 221700Z 09011KT 090V150 CAVOK 27/12 A3003 RMK VEL MAX VTO 16KT NOSIG=
201102221800 METAR MROC 221800Z 09011KT CAVOK 28/12 A3000 RMK VEL MAX VTO 16KT NOSIG=
201102221900 METAR MROC 221900Z 10011KT 9999 FEW035 29/12 A2997 RMK VEL MAX VTO 16KT NOSIG=
201102222000 METAR MROC 222000Z 11009KT 9999 FEW035 29/12 A2994 NOSIG=
201102222100 METAR MROC 222100Z 10009KT 9999 FEW040 28/13 A2993 NOSIG=
201102222200 METAR MROC 222200Z 10008KT 9999 FEW040 27/14 A2993 RMK VEL MAX VTO 14KT NOSIG=
201102222300 METAR MROC 222300Z 11007KT 9999 FEW040 26/13 A2994 RMK TCU DST S VEL MAX VTO 14KT NOSIG=
201102230000 METAR MROC 230000Z 10007KT 9999 FEW040 24/14 A2996 NOSIG=
201102230100 METAR MROC 230100Z 12008KT 9999 FEW040 22/15 A2998 RMK VEL MAX VTO 14KT NOSIG=
201102230200 METAR MROC 230200Z 11008KT CAVOK 21/13 A3000 NOSIG=
201102230300 METAR MROC 230300Z 10011KT CAVOK 21/12 A3002 NOSIG=
201102230400 METAR MROC 230400Z 11017KT CAVOK 20/13 A3003 NOSIG=
201102230500 METAR MROC 230500Z 10014KT CAVOK 20/13 A3003 NOSIG=
201102230600 METAR MROC 230600Z 10010KT CAVOK 19/13 A3002 NOSIG=
201102230700 METAR MROC 230700Z 12008KT CAVOK 19/13 A3000 NOSIG=
201102230800 METAR MROC 230800Z 13010KT CAVOK 19/13 A2999 NOSIG=
201102230900 METAR MROC 230900Z 10011KT CAVOK 19/13 A2998 NOSIG=
201102231000 METAR MROC 231000Z 12010KT CAVOK 19/12 A2999 NOSIG=
201102231100 METAR MROC 231100Z 12007KT CAVOK 18/12 A3000 NOSIG=
201102231200 METAR MROC 231200Z 10008KT CAVOK 18/12 A3001 RMK SCT399 NOSIG=
201102231300 METAR MROC 231300Z 12012KT CAVOK 20/13 A3002 RMK BKN250 NOSIG=
201102231400 METAR MROC 231400Z 12011G21KT CAVOK 23/14 A3004 RMK SCT300 NOSIG=
201102231500 METAR MROC 231500Z 10011KT 9999 FEW040 SCT300 24/13 A3005 RMK VEL MAX VTO 18KT NOSIG=
201102231600 METAR MROC 231600Z 10012KT 9999 FEW040 SCT300 26/14 A3005 NOSIG=
201102231700 METAR MROC 231700Z 09013KT 9999 FEW040 SCT300 27/14 A3003 NOSIG=
201102231800 METAR MROC 231800Z 11011KT 9999 FEW040 27/14 A3001 RMK FEW300 NOSIG=
201102231900 METAR MROC 231900Z 09010KT 9999 FEW040 28/13 A2998 NOSIG=
201102232000 METAR MROC 232000Z 11011KT 9999 FEW040 27/14 A2995 RMK VEL MAX VTO 18KT FEW120 CB DST S NOSIG=
201102232100 METAR MROC 232100Z 09010KT 9999 FEW040 SCT150 27/13 A2994 RMK CB DST S TCU DST NE MX WND 17KT NOSIG=
201102232200 METAR MROC 232200Z 11010G20KT 9999 FEW040 SCT150 26/14 A2995 RMK TCU DST NE E SW FEW110 NOSIG=
201102232300 METAR MROC 232300Z 11011G21KT 9999 FEW040 SCT110 24/14 A2996 RMK TCU DST NE E SW FEW150 NOSIG=
201102240000 METAR MROC 240000Z 12011KT 9999 FEW040 SCT110 22/14 A2998 RMK MX WND 20KT TCU DST NE E SW FEW200 NOSIG=
201102240100 METAR MROC 240100Z 12010KT 9999 FEW040 SCT110 22/15 A3000 RMK MX WND 16KT NOSIG=
201102240200 METAR MROC 240200Z 12011KT 9999 FEW040 SCT110 21/15 A3002 RMK MX WND 18KT NOSIG=
201102240300 METAR MROC 240300Z 11009KT CAVOK 21/14 A3003 RMK FEW250 NOSIG=
201102240400 METAR MROC 240400Z 09008KT CAVOK 20/14 A3005 RMK FEW250 NOSIG=
201102240500 METAR MROC 240500Z 08006KT CAVOK 20/14 A3005 NOSIG=
201102240600 METAR MROC 240600Z 03005KT CAVOK 18/13 A3005 NOSIG=
201102240700 METAR MROC 240700Z 07005KT CAVOK 18/13 A3003 NOSIG=
201102240800 METAR MROC 240800Z 05009KT CAVOK 18/13 A3002 NOSIG=
201102240900 METAR MROC 240900Z 07006KT CAVOK 18/13 A3001 RMK SCT140 NOSIG=
201102241000 METAR MROC 241000Z 07007KT CAVOK 18/13 A3001 RMK SCT150 NOSIG=
201102241100 METAR MROC 241100Z 10007KT CAVOK 19/13 A3003 NOSIG=
201102241200 METAR MROC 241200Z 07006KT CAVOK 18/13 A3004 NOSIG=
201102241300 METAR MROC 241300Z 08006KT CAVOK 20/13 A3006 RMK FEW300 NOSIG=
201102241400 METAR MROC 241400Z 09006KT CAVOK 23/12 A3007 RMK FEW300 NOSIG=
201102241500 METAR MROC 241500Z 13010KT CAVOK 25/13 A3007 NOSIG=
201102241600 METAR MROC 241600Z 12008KT 100V160 CAVOK 28/13 A3006 RMK MX WND 15KT NOSIG=
201102241700 METAR MROC 241700Z 14007KT CAVOK 29/13 A3004 RMK TCU DST NE E SW NOSIG=
201102241728 METAR MROC 241728Z 24009KT CAVOK 28/14 A3003 RMK TCU DST NE E SW NOSIG=
201102241800 METAR MROC 241800Z 24009KT 9999 SCT055 28/14 A3002 RMK TCU DST E FEW150 NOSIG=
201102241900 METAR MROC 241900Z 22008KT 9999 FEW055 29/15 A3000 RMK TCU DST N NE E SW FEW090 NOSIG=
201102242000 METAR MROC 242000Z 22010KT 9999 FEW055 29/16 A2997 RMK TCU DST N NE E S SW MX WND 17KT FEW090 NOSIG=
201102242032 METAR MROC 242032Z 08009KT 9999 FEW020TCU BKN040 26/16 A2992 RMK HZ=
201102242100 METAR MROC 242100Z 20007KT 9999 -RA FEW015TCU BKN035 27/17 A2995 NOSIG=
201102242200 METAR MROC 242200Z 20007KT 9999 -RA FEW015TCU BKN035 27/17 A2995 NOSIG=
201102242300 METAR MROC 242300Z 15006KT 9999 BKN035 23/18 A2997 NOSIG=
201102250000 METAR MROC 250000Z VRB02KT 9999 SCT035 22/18 A2998 RMK HZ LEVE ARND NOSIG=
201102250100 METAR MROC 250100Z 00000KT 9999 FEW030 21/18 A3001 NOSIG=
201102250200 METAR MROC 250200Z 11007KT CAVOK 21/17 A3003 NOSIG=
201102250300 METAR MROC 250300Z 10003KT CAVOK 20/17 A3005 NOSIG=
201102250400 METAR MROC 250400Z 09004KT CAVOK 20/16 A3006 NOSIG=
201102250500 METAR MROC 250500Z 09005KT CAVOK 20/16 A3005 NOSIG=
201102250600 METAR MROC 250600Z 07007KT CAVOK 20/16 A3004 NOSIG=
201102250700 METAR MROC 250700Z 08004KT CAVOK 19/16 A3003 NOSIG=
201102250800 METAR MROC 250800Z 06007KT CAVOK 19/15 A3001 NOSIG=
201102250900 METAR MROC 250900Z 09005KT CAVOK 19/16 A3001 NOSIG=
201102251000 METAR MROC 251000Z 06005KT CAVOK 18/15 A3001 NOSIG=
201102251100 METAR MROC 251100Z 09005KT CAVOK 18/15 A3001 NOSIG=
201102251200 METAR MROC 251200Z 11004KT CAVOK 18/15 A3004 RMK FEW120 SCT300 NOSIG=
201102251300 METAR MROC 251300Z 12003KT CAVOK 21/15 A3007 RMK FEW130 HZ LEVE ARND BECMG 24006KT=
201102251400 METAR MROC 251400Z 13003KT CAVOK 23/15 A3008 RMK SCT130 HZ LEVE ARND NOSIG=
201102251500 METAR MROC 251500Z 28003KT CAVOK 26/15 A3009 RMK SCT130 HZ LEVE ARND NOSIG=
201102251600 METAR MROC 251600Z 20004KT CAVOK 27/15 A3009 RMK SCT130 HZ LEVE ARND NOSIG=
201102251700 METAR MROC 251700Z 25008KT 9999 FEW040 29/15 A3006 RMK HZ LEVE ARND NOSIG=
201102251800 METAR MROC 251800Z 23009KT 9999 SCT040 29/17 A3003 RMK HZ LEVE ARND NOSIG=
201102251900 METAR MROC 251900Z 22010KT 190V250 9999 SCT040 30/17 A2999 RMK HZ LEVE ARND NOSIG=
201102252000 METAR MROC 252000Z 24013KT 9999 SCT040 29/18 A2997 RMK HZ LEVE ARND NOSIG=
201102252100 METAR MROC 252100Z 21010KT 9999 SCT025TCU 27/19 A2995 RMK HZ ARND NOSIG=
201102252200 METAR MROC 252200Z 21010KT 9999 SCT025TCU 27/19 A2995 RMK HZ ARND NOSIG=
201102252300 METAR MROC 252300Z 21010KT 9999 SCT025TCU 26/19 A2996 RMK HZ ARND NOSIG=
201102260000 METAR MROC 260000Z 22004KT 9999 SCT025TCU 23/18 A2998 RMK HZ ARND NOSIG=
201102260100 METAR MROC 260100Z 24005KT 9999 SCT025 22/18 A3000 RMK HZ ARND NOSIG=
201102260200 METAR MROC 260200Z 23003KT 9999 SCT025 22/17 A3002 RMK HZ ARND NOSIG=
201102260300 METAR MROC 260300Z VRB02KT 9999 SCT030 21/16 A3004 RMK LGT BR ARND NOSIG=
201102260400 METAR MROC 260400Z VRB02KT 9999 SCT030 21/15 A3005 RMK LGT BR ARND NOSIG=
201102260500 METAR MROC 260500Z 00000KT 9999 FEW030 20/15 A3004 RMK LGT BR ARND NOSIG=
201102260600 METAR MROC 260600Z 00000KT 9999 SCT030 19/16 A3003 RMK LGT BR ARND NOSIG=
201102260700 METAR MROC 260700Z VRB02KT 9999 FEW030 19/16 A3001 RMK LGT BR ARND NOSIG=
201102260800 METAR MROC 260800Z 07004KT 9999 5000W BR FEW030 18/16 A2999 NOSIG=
201102260900 METAR MROC 260900Z 00000KT 9999 VCFG FEW030 18/16 A2998 NOSIG=
201102261000 METAR MROC 261000Z 08003KT 9999 VCFG FEW030 18/16 A2998 NOSIG=
201102261100 METAR MROC 261100Z 08006KT CAVOK 18/15 A2998 RMK HZ ARND NOSIG=
201102261200 METAR MROC 261200Z 05006KT CAVOK 18/16 A2999 RMK HZ ARND CB DST NE NOSIG=
201102261300 METAR MROC 261300Z 07005KT CAVOK 21/17 A3002 RMK HZ ARND NOSIG=
201102261400 METAR MROC 261400Z 10014KT 9999 FEW030 24/17 A3003 RMK HZ ARND NOSIG=
201102261500 METAR MROC 261500Z 11012KT 9999 FEW020 SCT250 27/16 A3004 RMK HZ ARND NOSIG=
201102261600 METAR MROC 261600Z 11008KT 9999 FEW020 SCT250 28/17 A3003 RMK HZ ARND NOSIG=
201102261700 METAR MROC 261700Z 12010KT 9999 SCT020 SCT250 29/16 A3002 RMK HZ ARND NOSIG=
201102261800 METAR MROC 261800Z 13010KT 9999 SCT025 SCT250 29/17 A2998 RMK HZ ARND NOSIG=
201102261900 METAR MROC 261900Z 13012KT 9999 SCT025 SCT250 30/17 A2996 RMK HZ ARND NOSIG=
201102262000 METAR MROC 262000Z 15008KT 9999 SCT025 29/16 A2993 RMK HZ ARND BECMG 24006KT=
201102262100 METAR MROC 262100Z 20009KT 9999 FEW025 SCT035 29/19 A2991 RMK HZ QUAD W FEW080 NOSIG=
201102262200 METAR MROC 262200Z 22009KT 9999 -TSRA FEW015CB SCT030 27/20 A2993 RMK HZ ARND VIS 6KM NW NOSIG=
201102262300 METAR MROC 262300Z 27007KT 9999 3000SW -TSRA FEW006CB SCT015 BKN030 20/18 A2994 BECMG -SHRA=
201102270000 METAR MROC 270000Z 19004KT 9999 FEW015 SCT035 BKN250 21/19 A2997 RMK VIS 5KM SW HZ ARND NOSIG=
201102270100 METAR MROC 270100Z VRB02KT 9999 FEW035 BKN060 26/20 A2998 RMK HZ ARND SCT250 BECMG 07006KT=
201102270200 METAR MROC 270200Z 00000KT 9999 FEW035 SCT050 21/20 A3000 RMK HZ ARND SCT250 NOSIG=
201102270300 METAR MROC 270300Z 06003KT CAVOK 21/20 A3001 RMK HZ ARND SCT060 NOSIG=
201102270400 METAR MROC 270400Z 00000KT CAVOK 21/19 A3002 RMK HZ ARND SCT060 NOSIG=
201102270500 METAR MROC 270500Z 06005KT CAVOK 20/19 A3002 NOSIG=
201102270600 METAR MROC 270600Z 00000KT CAVOK 21/18 A3000 NOSIG=
201102270700 METAR MROC 270700Z 07003KT CAVOK 20/18 A2998 NOSIG=
201102270800 METAR MROC 270800Z 00000KT CAVOK 21/18 A2997 NOSIG=
201102270900 METAR MROC 270900Z 07007KT CAVOK 21/18 A2996 NOSIG=
201102271000 METAR MROC 271000Z 08007KT CAVOK 21/18 A2997 NOSIG=
201102271100 METAR MROC 271100Z 07005KT CAVOK 20/18 A2998 NOSIG=
201102271200 METAR MROC 271200Z 08003KT 9999 FEW030 20/18 A2999 NOSIG=
201102271300 METAR MROC 271300Z 09003KT 9999 FEW035 BKN250 21/17 A3002 RMK FEW090 NOSIG=
201102271400 METAR MROC 271400Z 00000KT 9999 FEW040 SCT080 BKN250 22/17 A3004 NOSIG=
201102271500 METAR MROC 271500Z 06005KT 9999 FEW040 SCT120 BKN250 23/17 A3006 NOSIG=
201102271600 METAR MROC 271600Z 13009KT 9999 FEW030 SCT120 SCT250 27/16 A3004 NOSIG=
201102271700 METAR MROC 271700Z 11010KT 9999 FEW025 BKN120 27/17 A3002 RMK FEW045 DZ DST NE NOSIG=
201102271800 METAR MROC 271800Z 12011KT 9999 FEW040 SCT110 BKN160 27/17 A2999 RMK DZ DST N/NE VEL MAX VTO 16KT NOSIG=
201102271900 METAR MROC 271900Z 13007KT 9999 SCT040 BKN120 27/17 A2998 NOSIG=
201102272000 METAR MROC 272000Z 13007KT 9999 SCT035 BKN120 26/17 A2994 NOSIG=
201102272100 METAR MROC 272100Z 12009KT 9999 SCT030 BKN070 25/17 A2993 RMK DZ DST N NE NOSIG=
201102272200 METAR MROC 272200Z 12009KT 9999 SCT030 BKN070 24/18 A2992 RMK VEL MAX VTO 17KT DZ DST N NE NOSIG=
201102272300 METAR MROC 272300Z 11009KT 9999 SCT030 BKN070 23/17 A2993 RMK DZ DST NE NOSIG=
201102280000 METAR MROC 280000Z 11006KT 9999 SCT030 BKN070 23/17 A2995 RMK PCPN DST N NE NOSIG=
201102280100 METAR MROC 280100Z 11003KT 9999 SCT030 BKN070 23/17 A2998 NOSIG=
201102280200 METAR MROC 280200Z 08004KT 9999 FEW030 BKN070 22/17 A3001 NOSIG=
201102280300 METAR MROC 280300Z 09005KT 9999 FEW030 SCT070 22/17 A3002 NOSIG=
201102280400 METAR MROC 280400Z 00000KT 9999 FEW030 SCT080 21/18 A3003 NOSIG=
201102280500 METAR MROC 280500Z 05005KT 9999 FEW030 SCT080 21/18 A3002 NOSIG=
201102280600 METAR MROC 280600Z 00000KT 9999 FEW030 SCT080 20/18 A3001 NOSIG=
201102280700 METAR MROC 280700Z 08005KT 9999 FEW030 SCT080 21/17 A3000 NOSIG=
201102280800 METAR MROC 280800Z 00000KT 9999 SCT030 19/17 A2999 RMK FEW100 NOSIG=
201102280900 METAR MROC 280900Z 00000KT 9999 SCT030 21/17 A2999 RMK FEW100 NOSIG=
201102281000 METAR MROC 281000Z 05007KT CAVOK 21/17 A2999 RMK SCT100 NOSIG=
201102281100 METAR MROC 281100Z 08006KT CAVOK 21/17 A3000 RMK SCT100 NOSIG=
201102281200 METAR MROC 281200Z 11004KT 9999 -RA FEW020 SCT100 20/19 A3001 NOSIG=
201102281300 METAR MROC 281300Z 09004KT 9999 -RA SCT025 BKN080 20/19 A3004 RMK VIS SW W NW 8KMS NOSIG=
201102281400 METAR MROC 281400Z 05004KT 9999 FEW025 BKN100 22/19 A3005 RMK PCPN DST NE SE NOSIG=
201102281500 METAR MROC 281500Z 10007KT 9999 SCT025 SCT080 24/18 A3006 RMK PCPN DST N NE E NOSIG=
201102281600 METAR MROC 281600Z 10011KT 9999 FEW025 BKN100 26/17 A3005 RMK PCPN DST N NE NOSIG=
201102281700 METAR MROC 281700Z 10012KT 9999 FEW030 SCT100 27/16 A3008 RMK DZ DST NE NOSIG=
201102281800 METAR MROC 281800Z 09013G23KT 9999 FEW030 SCT120 29/16 A2999 NOSIG=
201102281900 METAR MROC 281900Z 10012KT 9999 SCT030 BKN060 27/17 A2998 RMK DZ DST N NE VEL MAX VTO 17KT NOSIG=
201102282000 METAR MROC 282000Z 10011KT 9999 FEW030 BKN060 26/16 A2995 RMK DZ DST N NE NOSIG=
201102282100 METAR MROC 282100Z 11012G22KT 9999 FEW030 SCT080 26/17 A2994 RMK SCT120 TCU DST NE E SW NOSIG=
201102282200 METAR MROC 282200Z 09011G21KT 9999 FEW030 BKN100 24/17 A2995 RMK RN DST N NE NOSIG=
201102282300 METAR MROC 282300Z 09011KT 9999 FEW030 BKN100 24/16 A2998 RMK RN DST N NE NOSIG=
201103010000 METAR MROC 010000Z 10006KT 9999 -DZ FEW030 BKN090 22/18 A3000 RMK RN DST N NE E NOSIG=
201103010100 METAR MROC 010100Z 09006KT 9999 FEW030 SCT100 21/18 A3002 NOSIG=
201103010200 METAR MROC 010200Z 09006KT 9999 FEW030 21/17 A3004 RMK FEW110 NOSIG=
201103010300 METAR MROC 010300Z 12005KT 9999 FEW030 SCT090 21/17 A3006 RMK LIGTHNING DST SW MX WND 12KT NOSIG=
201103010400 METAR MROC 010400Z 12006KT 9999 FEW030 21/17 A3007 RMK LGHTNG DST S MX WND 12KT NOSIG=
201103010500 METAR MROC 010500Z VRB02KT 9999 FEW030 20/17 A3006 NOSIG=
201103010600 METAR MROC 010600Z 09006KT CAVOK 21/17 A3003 RMK LW ST NE MX WND 11KT NOSIG=
201103010700 METAR MROC 010700Z VRB02KT CAVOK 20/17 A3001 RMK LW ST NE NOSIG=
201103010800 METAR MROC 010800Z 08007KT CAVOK 21/17 A2999 RMK MX WND 13KT NOSIG=
201103010900 METAR MROC 010900Z 06006KT 9999 RA FEW001 SCT100 21/17 A2999 RMK BR DST NE E SE NOSIG=
201103011000 METAR MROC 011000Z 05006KT 9999 -RA NSC 19/18 A2998 RERA RMK LW ST NE NOSIG=
201103011100 METAR MROC 011100Z VRB02KT CAVOK 20/18 A2999 RMK LW ST SE NOSIG=
201103011110 METAR MROC 011110Z 27007KT CAVOK 20/18 A2999 RMK LW ST SE NOSIG=
201103011130 METAR MROC 011130Z 08006KT CAVOK 21/17 A3001 RMK LW ST SE NOSIG=
201103011140 METAR MROC 011140Z 10007KT 9999 -RA FEW020 BKN080 20/18 A3002 NOSIG=
201103011200 METAR MROC 011200Z 08006KT 9999 FEW001 BKN080 20/18 A3002 RMK RN DST NE E SE NOSIG=
201103011212 METAR MROC 011212Z 08006KT 9999 RA FEW001 BKN080 19/18 A3002 RMK RN DST NE E SE VIS 8KM E NOSIG=
201103011300 METAR MROC 011300Z 10006KT 9999 -RA FEW005 BKN090 19/18 A3005 NOSIG=
201103011400 METAR MROC 011400Z 08007KT 9999 -DZ FEW035 BKN100 20/19 A3007 RMK RN DST N NE E NOSIG=
201103011500 METAR MROC 011500Z 09008KT 9999 -DZ FEW035 BKN100 21/19 A3007 RMK RN DST N NE E NOSIG=
201103011600 METAR MROC 011600Z 10014KT 9999 FEW035 BKN110 24/17 A3005 RMK RN DST NE NOSIG=
201103011700 METAR MROC 011700Z 09014KT 9999 FEW035 BKN120 26/16 A3004 RMK DZ DST NE NOSIG=
201103011800 METAR MROC 011800Z 09015KT 9999 FEW035 SCT120 27/15 A3002 RMK DZ DST NE NOSIG=
201103011900 METAR MROC 011900Z 08015G25KT 9999 FEW035 SCT120 27/15 A3000 RMK DZ DST NE NOSIG=
201103012000 METAR MROC 012000Z 10014G24KT 9999 FEW035 SCT120 BKN250 26/15 A2997 RMK DZ DST NE NOSIG=
201103012100 METAR MROC 012100Z 09013KT 9999 FEW035 SCT120 BKN250 25/14 A2996 RMK DZ NE GUST 20KT NOSIG=
201103012200 METAR MROC 012200Z 08013KT 9999 FEW035 BKN120 25/14 A2996 RMK DZ DST NE GUST 19KT NOSIG=
201103012300 METAR MROC 012300Z 10006KT 080V140 9999 FEW035 BKN120 23/14 A2999 RMK=
201103020000 METAR MROC 020000Z 09011KT 9999 FEW035 BKN120 22/14 A3001 RMK GUST 17KT NOSIG=
201103020100 METAR MROC 020100Z 09015KT 9999 FEW035 BKN120 22/14 A3002 NOSIG=
201103020200 METAR MROC 020200Z 09012KT CAVOK 21/14 A3004 RMK BKN120 NOSIG=
201103020300 METAR MROC 020300Z 12011KT 9999 CAVOK 21/15 A3006 RMK BKN100 VEL MAX VTO 19KT NOSIG=
201103020400 METAR MROC 020400Z 11010KT CAVOK 20/15 A3006 RMK BKN100 NOSIG=
201103020500 METAR MROC 020500Z 12009KT CAVOK 20/15 A3006 RMK BKN100 NOSIG=
201103020600 METAR MROC 020600Z 11010KT CAVOK 20/14 A3004 RMK SCT120 NOSIG=
201103020700 METAR MROC 020700Z 11011KT CAVOK 20/15 A3002 RMK SCT120 NOSIG=
201103020800 METAR MROC 020800Z 12013KT CAVOK 20/15 A2998 RMK SCT120 NOSIG=
201103020900 METAR MROC 020900Z 11015KT CAVOK 20/15 A2997 RMK FEW120 SCT250 NOSIG=
201103021000 METAR MROC 021000Z 11014KT CAVOK 19/14 A2997 RMK SCT250 NOSIG=
201103021100 METAR MROC 021100Z 12015KT CAVOK 20/14 A2998 RMK SCT250 NOSIG=
201103021200 METAR MROC 021200Z 11014KT 9999 FEW025 SCT300 20/14 A3002 RMK DZ DST NE NOSIG=
201103021300 METAR MROC 021300Z 10015KT 9999 FEW025 21/13 A3004 NOSIG=
201103021400 METAR MROC 021400Z 08011KT 9999 FEW030 23/12 A3006 NOSIG=
201103021500 METAR MROC 021500Z 09013KT CAVOK 25/12 A3007 RMK GUST 20KT NOSIG=
201103021600 METAR MROC 021600Z 10012KT 9999 FEW040 26/10 A3006 RMK GUST 20KT NOSIG=
201103021700 METAR MROC 021700Z 08016KT 9999 FEW040 27/11 A3005 RMK GUST 21KT NOSIG=
201103021800 METAR MROC 021800Z 11013KT 9999 FEW048 28/13 A3002 RMK GUST 22KT NOSIG=
201103021900 METAR MROC 021900Z 12012KT 9999 FEW045 28/13 A2999 RMK GUST 18KT NOSIG=
201103022000 METAR MROC 022000Z 09013KT 9999 FEW045 28/12 A2997 RMK GUST 20KT NOSIG=
201103022100 METAR MROC 022100Z 12010KT 9999 FEW045 28/12 A2994 NOSIG=
201103022200 METAR MROC 022200Z 08012KT 9999 FEW040 FEW040 27/14 A2994 RMK DZ DST NE NOSIG=
201103022300 METAR MROC 022300Z 07011KT 9999 SCT030 BKN100 25/14 A2996 RMK DZ DST N NE NOSIG=
201103030000 METAR MROC 030000Z 10010KT 9999 SCT030 SCT100 21/15 A3001 RMK DZ DST N NE NOSIG=
201103030100 METAR MROC 030100Z 08010KT 9999 FEW030 21/15 A3001 NOSIG=
201103030200 METAR MROC 030200Z 10012KT 9999 FEW030 20/14 A3003 NOSIG=
201103030300 METAR MROC 030300Z 10010KT CAVOK 19/12 A3006 RMK FEW120 NOSIG=
201103030400 METAR MROC 030400Z 12010KT CAVOK 19/13 A3006 RMK FEW120 NOSIG=
201103030500 METAR MROC 030500Z 11014KT CAVOK 19/13 A3005 RMK FEW120 NOSIG=
201103030600 METAR MROC 030600Z 11013G23KT CAVOK 19/13 A3003 RMK FEW120 NOSIG=
201103030700 METAR MROC 030700Z 10012KT CAVOK 20/12 A3002 RMK FEW120 NOSIG=
201103030800 METAR MROC 030800Z 10010KT CAVOK 20/12 A3000 RMK FEW120 NOSIG=
201103030900 METAR MROC 030900Z 11010KT CAVOK 19/19 A2999 RMK FEW120 NOSIG=
201103031000 METAR MROC 031000Z 11011KT CAVOK 19/13 A2998 RMK FEW120 NOSIG=
201103031100 METAR MROC 031100Z 11010KT 9999 FEW035 19/13 A3001 RMK FEW120 NOSIG=
201103031200 METAR MROC 031200Z 11011KT CAVOK 19/12 A3002 RMK FEW120 DZ DST NE NOSIG=
201103031300 METAR MROC 031300Z 12010G20KT CAVOK 20/13 A3004 NOSIG=
201103031400 METAR MROC 031400Z 11011KT 9999 FEW035 22/13 A3005 NOSIG=
201103031500 METAR MROC 031500Z 09016KT 9999 FEW040 24/12 A3005 NOSIG=
201103031600 METAR MROC 031600Z 09010KT 9999 FEW040 26/11 A3005 NOSIG=
201103031700 METAR MROC 031700Z 09012KT 9999 FEW040 27/11 A3003 NOSIG=
201103031800 METAR MROC 031800Z 09012KT 9999 FEW040 27/12 A3000 NOSIG=
201103031900 METAR MROC 031900Z 08017KT 9999 FEW040 28/12 A2998 NOSIG=
201103032000 METAR MROC 032000Z 11009KT 9999 FEW040 28/12 A2995 NOSIG=
201103032100 METAR MROC 032100Z 10009KT 9999 FEW040 27/13 A2993 RMK MX WND 17KT TCU DST S NOSIG=
201103032200 METAR MROC 032200Z 10011KT 9999 FEW040 26/13 A2992 RMK TCU DST NE E SW MX WND 19KT NOSIG=
201103032300 METAR MROC 032300Z 11010KT 9999 FEW030 25/13 A2993 RMK TCU DST NE E S SW MX WND 15KT NOSIG=
201103040000 METAR MROC 040000Z 10008G18KT 9999 FEW030 23/14 A2995 RMK TCU DST NE E SW NOSIG=
201103040100 METAR MROC 040100Z 11008KT 9999 FEW030 21/14 A2999 RMK MX WND 14KT NOSIG=
201103040200 METAR MROC 040200Z 11011KT CAVOK 20/13 A3001 RMK MX WND 18KT NOSIG=
201103040300 METAR MROC 040300Z 11011G21KT CAVOK 20/13 A3003 NOSIG=
201103040400 METAR MROC 040400Z 12012KT CAVOK 19/14 A3003 NOSIG=
201103040500 METAR MROC 040500Z 11011KT CAVOK 19/14 A3003 NOSIG=
201103040600 METAR MROC 040600Z 12010KT CAVOK 19/14 A3002 NOSIG=
201103040700 METAR MROC 040700Z 11010KT CAVOK 19/14 A3000 RMK GUST 15KT NOSIG=
201103040800 METAR MROC 040800Z 11007KT CAVOK 19/14 A2998 RMK GUST 16KT NOSIG=
201103040900 METAR MROC 040900Z 08005KT CAVOK 18/13 A2997 NOSIG=
201103041000 METAR MROC 041000Z 11011KT CAVOK 18/13 A2996 NOSIG=
201103041100 METAR MROC 041100Z 11010KT CAVOK 19/14 A2997 NOSIG=
201103041200 METAR MROC 041200Z 09009KT CAVOK 18/13 A2999 NOSIG=
201103041300 METAR MROC 041300Z 11011KT CAVOK 20/14 A3001 RMK MX WND 16KT NOSIG=
201103041329 METAR MROC 041329Z 11013G23KT CAVOK 21/13 A3002 NOSIG=
201103041400 METAR MROC 041400Z 11012G24KT CAVOK 22/14 A3003 NOSIG=
201103041500 METAR MROC 041500Z 11013G26KT CAVOK 24/13 A3003 NOSIG=
201103041600 METAR MROC 041600Z 12013KT CAVOK 26/13 A3003 RMK MX WND 20KT NOSIG=
201103041700 METAR MROC 041700Z 09013KT CAVOK 27/13 A3002 RMK MX WND 19KT TCU DST QUAD E NOSIG=
201103041800 METAR MROC 041800Z 11011G21KT 9999 FEW040 28/13 A2999 RMK TCU DST QUAD E NOSIG=
201103041900 METAR MROC 041900Z 10011G21KT 9999 FEW040 28/13 A2996 RMK TCU DST SW QUAD E NOSIG=
201103042000 METAR MROC 042000Z 11010KT 070V140 9999 FEW040 28/14 A2994 RMK TCU DST S QUAD E MX WND 17KT NOSIG=
201103042100 METAR MROC 042100Z 12011KT 9999 FEW025 SCT040 27/14 A2993 RMK HZY NOSIG=
201103042200 METAR MROC 042200Z 11010KT 9999 SCT040 25/14 A2993 RMK HZY NOSIG=
201103042300 METAR MROC 042300Z 10011KT 9999 FEW040 22/14 A2995 RMK HZY FEW100 NOSIG=
201103050000 METAR MROC 050000Z 12010G20KT 9999 FEW040 21/14 A2996 NOSIG=
201103050100 METAR MROC 050100Z 12008KT 9999 FEW040 20/14 A2999 RMK VEL MAX VTO 14KT NOSIG=
201103050200 METAR MROC 050200Z 12009KT 9999 FEW040 20/14 A3001 RMK VEL MAX VTO 14KT NOSIG=
201103050300 METAR MROC 050300Z 10012KT 9999 FEW040 19/14 A3003 NOSIG=
201103050400 METAR MROC 050400Z 11010KT 9999 FEW040 19/14 A3004 NOSIG=
201103050500 METAR MROC 050500Z 10008KT 9999 FEW040 19/14 A3004 NOSIG=
201103050600 METAR MROC 050600Z 10013KT CAVOK 19/14 A3003 NOSIG=
201103050700 METAR MROC 050700Z 11004KT CAVOK 19/14 A3000 NOSIG=
201103050800 METAR MROC 050800Z 07008KT CAVOK 18/13 A2999 NOSIG=
201103050900 METAR MROC 050900Z 08007KT CAVOK 17/12 A2998 NOSIG=
201103051000 METAR MROC 051000Z 09008KT CAVOK 18/13 A2997 NOSIG=
201103051100 METAR MROC 051100Z 09006KT CAVOK 17/13 A2998 NOSIG=
201103051200 METAR MROC 051200Z 08013KT CAVOK 17/13 A3000 NOSIG=
201103051300 METAR MROC 051300Z 09012KT CAVOK 19/13 A3002 NOSIG=
201103051400 METAR MROC 051400Z 09008KT CAVOK 22/13 A3004 RMK VEL MAX VTO 16KT NOSIG=
201103051500 METAR MROC 051500Z 10011KT CAVOK 24/12 A3006 RMK VEL MAX VTO 18KT NOSIG=
201103051600 METAR MROC 051600Z 11010KT CAVOK 26/11 A3004 NOSIG=
201103051700 METAR MROC 051700Z 11010KT CAVOK 28/12 A3002 RMK VEL MAX VTO 17KT NOSIG=
201103051800 METAR MROC 051800Z 11010KT 9999 FEW045 29/12 A2999 RMK VEL MAX VTO 19KT NOSIG=
201103051900 METAR MROC 051900Z 12008KT 9999 FEW045 30/11 A2996 RMK VEL MAX VTO 14KT NOSIG=
201103052000 METAR MROC 052000Z 11006KT 9999 SCT040 29/10 A2994 NOSIG=
201103052100 METAR MROC 052100Z 20007KT 9999 SCT035TCU 27/17 A2993 RMK RN DST SSW NOSIG=
201103052200 METAR MROC 052200Z 17007KT 9999 -RA FEW035 SCT100 22/15 A2994 RMK BECMG 00000KT=
201103052300 METAR MROC 052300Z 17005KT 9999 FEW045 SCT100 24/17 A2995 NOSIG=
201103052355 METAR MROC 060000Z 13006KT 9999 FEW035 SCT120 23/16 A2996 NOSIG=
201103052359 METAR MROC 060000Z 13006KT 9999 FEW035 SCT120 23/16 A2996 NOSIG=
201103060000 METAR MROC 060000Z 13006KT 9999 FEW035 SCT120 23/16 A2996 NOSIG=
201103060100 METAR MROC 060100Z 11005KT CAVOK 21/16 A2997 NOSIG=
201103060200 METAR MROC 060200Z 11005KT CAVOK 21/16 A3001 RMK FEW120 NOSIG=
201103060300 METAR MROC 060300Z 09005KT CAVOK 20/16 A3003 RMK LIGHT BR ARND NOSIG=
201103060400 METAR MROC 060400Z VRB02KT CAVOK 19/16 A3004 RMK LIGHT BR ARND NOSIG=
201103060500 METAR MROC 060500Z 08005KT CAVOK 18/15 A3005 RMK LIGHT BR ARND NOSIG=
201103060600 METAR MROC 060600Z 07006KT CAVOK 17/14 A3003 RMK LIGHT BR ARND NOSIG=
201103060700 METAR MROC 060700Z 06007KT CAVOK 17/13 A3001 RMK LIGHT BR ARND NOSIG=
201103060800 METAR MROC 060800Z 06005KT CAVOK 16/12 A3000 RMK LIGHT BR ARND NOSIG=
201103060900 METAR MROC 060900Z 08006KT CAVOK 16/13 A2999 RMK LIGHT BR ARND NOSIG=
201103061000 METAR MROC 061000Z 09004KT CAVOK 16/13 A3000 RMK LIGHT BR ARND NOSIG=
201103061100 METAR MROC 061100Z 08006KT CAVOK 16/12 A3001 RMK LIGHT BR ARND NOSIG=
201103061200 METAR MROC 061200Z 07008KT CAVOK 15/10 A3002 RMK SCT300 NOSIG=
201103061300 METAR MROC 061300Z 07006KT CAVOK 19/12 A3003 NOSIG=
201103061400 METAR MROC 061400Z 09007KT CAVOK 23/11 A3005 NOSIG=
201103061500 METAR MROC 061500Z 10009KT CAVOK 26/10 A3006 NOSIG=
201103061600 METAR MROC 061600Z 13009KT CAVOK 28/08 A3006 BECMG 23006KT=
201103061700 METAR MROC 061700Z 12011KT CAVOK 29/07 A3003 NOSIG=
201103061800 METAR MROC 061800Z 13010KT CAVOK 30/10 A3000 BECMG 22006KT=
201103061900 METAR MROC 061900Z 11009KT 9999 FEW040 30/11 A2998 BECMG 22006KT=
201103062000 METAR MROC 062000Z 10008KT 9999 FEW035 30/11 A2996 BECMG 22006KT=
201103062100 METAR MROC 062100Z 14006KT 9999 SCT040 28/11 A2993 BECMG 24006KT=
201103062200 METAR MROC 062200Z 20006KT 9999 SCT040 28/11 A2993 NOSIG=
201103062300 METAR MROC 062300Z 14006KT 9999 FEW035 26/14 A2993 NOSIG=
201103062352 METAR MROC 062352Z 12010KT 9999 FEW030 23/15 A2994 NOSIG=
201103070000 METAR MROC 070000Z 12010KT 9999 FEW030 23/15 A2994 NOSIG=
201103070100 METAR MROC 070100Z 10006KT CAVOK 22/15 A2998 RMK FEW100 NOSIG=
201103070200 METAR MROC 070200Z 13006KT 9999 FEW040 SCT080 21/15 A2999 NOSIG=
201103070300 METAR MROC 070300Z 12007KT 9999 FEW040 SCT100 21/15 A3001 NOSIG=
201103070400 METAR MROC 070400Z 08006KT CAVOK 20/14 A3002 RMK SCT120 NOSIG=
201103070500 METAR MROC 070500Z 09005KT CAVOK 19/14 A3002 RMK SCT120 NOSIG=
201103070600 METAR MROC 070600Z 11008KT CAVOK 19/14 A2999 NOSIG=
201103070700 METAR MROC 070700Z 10008KT CAVOK 18/13 A2998 NOSIG=
201103070800 METAR MROC 070800Z 07006KT CAVOK 18/12 A2996 NOSIG=
201103070900 METAR MROC 070900Z 11009KT CAVOK 18/12 A2996 NOSIG=
201103071000 METAR MROC 071000Z 10006KT CAVOK 18/11 A2997 NOSIG=
201103071100 METAR MROC 071100Z 07008KT CAVOK 17/11 A2998 NOSIG=
201103071200 METAR MROC 071200Z 07009KT CAVOK 16/10 A3000 RMK SCT300 NOSIG=
201103071235 METAR MROC 071235Z 23002KT CAVOK 19/17 A2982=
201103071300 METAR MROC 071300Z 07008KT CAVOK 19/09 A3002 RMK SCT250 NOSIG=
201103071400 METAR MROC 071400Z 09004KT CAVOK 23/10 A3002 RMK SCT250 NOSIG=
201103071500 METAR MROC 071500Z 11012KT CAVOK 26/07 A3003 RMK FEW250 NOSIG=
201103071600 METAR MROC 071600Z 09006KT CAVOK 27/04 A3001 RMK FEW250 NOSIG=
201103071700 METAR MROC 071700Z 08008KT 9999 FEW030 29/09 A2999 NOSIG=
201103071800 METAR MROC 071800Z 14008KT 9999 FEW030 29/09 A2996 NOSIG=
201103071900 METAR MROC 071900Z 21008KT 9999 FEW030 31/10 A2994 NOSIG=
201103072000 METAR MROC 072000Z 23010KT 9999 SCT025 30/16 A2991 NOSIG=
201103072100 METAR MROC 072100Z 21013KT 9999 SCT025 28/16 A2990 NOSIG=
201103072200 METAR MROC 072200Z 21007KT 190V250 9999 SCT030 27/17 A2990 RMK HZ ARND NOSIG=
201103072300 METAR MROC 072300Z 20008KT 9999 SCT030 26/17 A2992 RMK HZ ARND NOSIG=
201103080000 METAR MROC 080000Z 19006KT 9999 SCT030 23/17 A2994 NOSIG=
201103080100 METAR MROC 080100Z 20005KT 9999 FEW030 22/16 A2996 NOSIG=
201103080200 METAR MROC 080200Z 10003KT 9999 FEW030 21/16 A2998 NOSIG=
201103080300 METAR MROC 080300Z 08003KT 9999 FEW030 SCT120 21/16 A3000 NOSIG=
201103080400 METAR MROC 080400Z 10006KT 9999 FEW030 21/16 A3002 RMK FEW120 NOSIG=
201103080500 METAR MROC 080500Z 10005KT CAVOK 20/16 A3002 RMK FEW120 NOSIG=
201103080600 METAR MROC 080600Z 10006KT CAVOK 21/16 A3001 RMK FEW120 NOSIG=
201103080700 METAR MROC 080700Z 10006KT CAVOK 20/15 A3001 RMK FEW120 NOSIG=
201103080800 METAR MROC 080800Z 07006KT CAVOK 19/15 A2999 NOSIG=
201103080900 METAR MROC 080900Z 10006KT CAVOK 20/15 A2998 NOSIG=
201103081000 METAR MROC 081000Z 07006KT CAVOK 18/15 A2999 NOSIG=
201103081100 METAR MROC 081100Z 08008KT CAVOK 19/15 A2999 NOSIG=
201103081200 METAR MROC 081200Z 07008KT CAVOK 19/14 A3000 NOSIG=
201103081300 METAR MROC 081300Z 08007KT CAVOK 21/14 A3002 NOSIG=
201103081400 METAR MROC 081400Z 08008KT CAVOK 24/14 A3004 NOSIG=
201103081500 METAR MROC 081500Z 11005KT CAVOK 27/12 A3004 NOSIG=
201103081600 METAR MROC 081600Z 13007KT CAVOK 29/11 A3004 NOSIG=
201103081700 METAR MROC 081700Z 15008KT 9999 FEW035 30/11 A3003 NOSIG=
201103081800 METAR MROC 081800Z 12010KT 9999 FEW030 29/13 A3001 NOSIG=
201103081900 METAR MROC 081900Z 09009KT 9999 SCT030 30/14 A2999 NOSIG=
201103082000 METAR MROC 082000Z 12007KT 9999 SCT030 29/15 A2997 NOSIG=
201103082100 METAR MROC 082100Z 22006KT 9999 SCT050 28/17 A2996 RMK TCU DST NE E S SW NOSIG=
201103082200 METAR MROC 082200Z 19008KT 9999 FEW025 SCT080 27/18 A2996 RMK TCU DST NE E S SW RN DST SE S NOSIG=
201103082234 METAR MROC 082234Z 13008KT 9999 FEW025 SCT080 25/17 A2997 RMK CROSS WND TCU DST NE E S SW RN DST SE S NOSIG=
201103082300 METAR MROC 082300Z 13006KT 9999 FEW025 SCT110 24/17 A2997 RMK FEW080 TCU DST ARND RN DST E SE S SW MX WND 12KT NOSIG=
201103090000 METAR MROC 090000Z 11010KT 9999 FEW025 SCT110 22/16 A3000 RMK FEW080 TCU DST ARND RN DST E SE S SW NOSIG=
201103090100 METAR MROC 090100Z 10006KT 9999 FEW025 SCT110 22/16 A3003 RMK MX WND 11KT LGHT BR ARND NOSIG=
201103090200 METAR MROC 090200Z 12007KT 9999 FEW025 SCT110 22/16 A3006 RMK MX WND 14KT LGHT BR ARND NOSIG=
201103090300 METAR MROC 090300Z 12006KT 9999 FEW030 SCT110 21/16 A3008 RMK HZ LEVE ARND NOSIG=
201103090400 METAR MROC 090400Z 08006KT 9999 FEW030 21/16 A3009 RMK HZ LEVE ARND NOSIG=
201103090500 METAR MROC 090500Z 07004KT CAVOK 20/16 A3009 NOSIG=
201103090600 METAR MROC 090600Z 09005KT CAVOK 20/16 A3008 NOSIG=
201103090700 METAR MROC 090700Z 07007KT CAVOK 19/16 A3006 NOSIG=
201103090800 METAR MROC 090800Z 05005KT CAVOK 18/15 A3005 NOSIG=
201103090900 METAR MROC 090900Z 06006KT CAVOK 18/15 A3004 NOSIG=
201103091000 METAR MROC 091000Z 06007KT CAVOK 18/15 A3004 NOSIG=
201103091100 METAR MROC 091100Z 08006KT CAVOK 19/15 A3005 NOSIG=
201103091200 METAR MROC 091200Z 06006KT CAVOK 18/15 A3007 RMK FEW250 NOSIG=
201103091300 METAR MROC 091300Z 09004KT CAVOK 20/15 A3009 NOSIG=
201103091334 METAR MROC 091334Z 07006KT CAVOK 23/15 A3010 NOSIG=
201103091400 METAR MROC 091400Z 10006KT CAVOK 23/15 A3010 RMK MX WND 12KT NOSIG=
201103091500 METAR MROC 091500Z 12010KT CAVOK 25/15 A3010 RMK MX WND 16KT TCU DST E NOSIG=
201103091600 METAR MROC 091600Z 12010KT CAVOK 27/15 A3010 RMK TCU DST E SW MX WND 16KT NOSIG=
201103091700 METAR MROC 091700Z 11008G18KT 070V140 9999 FEW030 BKN250 28/15 A3008 RMK TCU DST E W NOSIG=
201103091800 METAR MROC 091800Z 11008KT 070V140 9999 FEW030 SCT110 29/15 A3005 RMK MX WND 16KT TCU DST E SCT250 NOSIG=
201103091900 METAR MROC 091900Z 10005KT CAVOK 29/15 A3002 RMK TCU DST E MX WND 11KT NOSIG=
201103091915 METAR MROC 091915Z 16006KT CAVOK 29/16 A3001 RMK TCU DST E MX WND 11KT NOSIG=
201103092000 METAR MROC 092000Z 22008KT 9999 FEW040 SCT080 29/17 A3000 RMK MX WND 15KT TCU DST E FEW250 NOSIG=
201103092100 METAR MROC 092100Z 23012KT 9999 FEW025TCU BKN035 28/18 A2998 RMK LGT HZ ARND=
201103092200 METAR MROC 092200Z 22010KT 9999 FEW025TCU SCT035 28/18 A2998 RMK LGT HZ ARND NOSIG=
201103092300 METAR MROC 092300Z 22008KT 9999 VCSH FEW025TCU SCT035 26/18 A3000 RMK SH E BECMG -RA=
201103100000 METAR MROC 100000Z 22005KT 9999 BKN030 24/18 A3002 RMK PCPN DST N BECMG -RA=
201103100100 METAR MROC 100100Z 16004KT 9999 SCT035 23/17 A3005 NOSIG=
201103100200 METAR MROC 100200Z 13004KT 9999 FEW035 SCT060 22/17 A3007 NOSIG=
201103100300 METAR MROC 100300Z 11002KT 9999 FEW035 SCT050 21/17 A3009 NOSIG=
201103100400 METAR MROC 100400Z 07006KT 9999 FEW040 20/15 A3011 NOSIG=
201103100500 METAR MROC 100500Z 08011KT 9999 FEW040 20/14 A3011 NOSIG=
201103100600 METAR MROC 100600Z 06006KT 9999 FEW040 19/14 A3009 NOSIG=
201103100700 METAR MROC 100700Z 08007KT 9999 FEW040 18/13 A3007 NOSIG=
201103100800 METAR MROC 100800Z 09006KT 9999 FEW040 19/14 A3006 NOSIG=
201103100900 METAR MROC 100900Z 09009KT CAVOK 20/14 A3005 NOSIG=
201103101000 METAR MROC 101000Z 08008KT CAVOK 19/14 A3005 NOSIG=
201103101100 METAR MROC 101100Z 07006KT CAVOK 19/14 A3006 NOSIG=
201103101200 METAR MROC 101200Z 06005KT CAVOK 17/13 A3009 NOSIG=
201103101300 METAR MROC 101300Z 07007KT CAVOK 21/14 A3009 RMK FEW300 NOSIG=
201103101400 METAR MROC 101400Z 10008KT CAVOK 24/13 A3010 RMK SCT300 NOSIG=
201103101500 METAR MROC 101500Z 12009KT CAVOK 26/11 A3011 RMK SCT300 NOSIG=
201103101600 METAR MROC 101600Z 11006KT 9999 FEW035 30/09 A3008 RMK FEW300 BECMG 24007KT=
201103101700 METAR MROC 101700Z 11006KT 9999 FEW035 30/09 A3008 RMK FEW300 BECMG 24007KT=
201103101800 METAR MROC 101800Z 21011KT 9999 SCT035 28/15 A3006 RMK LGT HZ W NOSIG=
201103101900 METAR MROC 101900Z 23011KT 9999 FEW025TCU SCT045 30/16 A3004 NOSIG=
201103102000 METAR MROC 102000Z 23012KT 9999 -SHRA FEW020TCU SCT040 26/16 A3002 RMK VIS SW 6KMS NOSIG=
201103102100 METAR MROC 102100Z 18006KT 9999 SCT020CB SCT035 25/17 A3000 RMK TS RA DST SSW SW NOSIG=
201103102200 METAR MROC 102200Z 13005KT 9999 -RA FEW020 BKN035 24/16 A3001 RMK RN DST S SW W NOSIG=
201103102300 METAR MROC 102300Z 00000KT 9999 FEW035 SCT080 SCT250 22/17 A3002 NOSIG=
201103110000 METAR MROC 110000Z 00000KT 9999 FEW035 SCT090 BKN250 20/17 A3003 RMK DZ DST NE NOSIG=
201103110100 METAR MROC 110100Z 00000KT CAVOK 21/15 A3007 RMK SCT100 NOSIG=
201103110200 METAR MROC 110200Z 00000KT CAVOK 20/14 A3010 RMK FEW120 NOSIG=
201103110300 METAR MROC 110300Z 10006KT CAVOK 20/14 A3012 RMK FEW120 NOSIG=
201103110400 METAR MROC 110400Z 07007KT CAVOK 19/13 A3013 RMK FEW120 MX WND 12KT NOSIG=
201103110500 METAR MROC 110500Z 09005KT CAVOK 19/12 A3011 NOSIG=
201103110600 METAR MROC 110600Z 06005KT CAVOK 18/11 A3010 NOSIG=
201103110700 METAR MROC 110700Z VRB02KT CAVOK 17/11 A3007 NOSIG=
201103110800 METAR MROC 110800Z 07008KT CAVOK 17/10 A3007 NOSIG=
201103110900 METAR MROC 110900Z 05007KT CAVOK 16/10 A3006 NOSIG=
201103111000 METAR MROC 111000Z 08007KT CAVOK 17/10 A3007 NOSIG=
201103111100 METAR MROC 111100Z 06005KT CAVOK 16/10 A3008 NOSIG=
201103111200 METAR MROC 111200Z 08007KT CAVOK 17/11 A3010 RMK TCU DST S SW FEW110 NOSIG=
201103111300 METAR MROC 111300Z 08007KT CAVOK 19/10 A3011 RMK FEW250 NOSIG=
201103111400 METAR MROC 111400Z 12008KT CAVOK 22/11 A3012 RMK FEW250 NOSIG=
201103111500 METAR MROC 111500Z 12012KT CAVOK 25/11 A3013 RMK FEW250 NOSIG=
201103111600 METAR MROC 111600Z 11012KT CAVOK 27/10 A3014 NOSIG=
201103111700 METAR MROC 111700Z 09012KT CAVOK 28/10 A3011 RMK FEW250 NOSIG=
201103111800 METAR MROC 111800Z 09010KT 9999 FEW045 29/11 A3008 NOSIG=
201103111900 METAR MROC 111900Z 09010KT 9999 FEW040 29/12 A3005 NOSIG=
201103112000 METAR MROC 112000Z 11010KT 9999 FEW040 29/11 A3003 NOSIG=
201103112100 METAR MROC 112100Z 13010KT 9999 SCT040 29/11 A3000 RMK HZ SW W NOSIG=
201103112200 METAR MROC 112200Z 09012KT 9999 SCT040 27/13 A3000 RMK HZ SW W NOSIG=
201103112300 METAR MROC 112300Z 09007KT 9999 SCT040 24/14 A3003 RMK HZ SW NOSIG=
201103120000 METAR MROC 120000Z 09009KT 9999 SCT040 22/15 A3005 NOSIG=
201103120100 METAR MROC 120100Z 09012KT 9999 FEW040 21/15 A3007 NOSIG=
201103120200 METAR MROC NIL=
201103120300 METAR MROC 120300Z 10009KT 9999 FEW040 20/14 A3011 NOSIG=
201103120400 METAR MROC 120400Z 12012KT 9999 FEW040 20/14 A3010 NOSIG=
201103120500 METAR MROC 120500Z 12012KT CAVOK 20/14 A3010 NOSIG=
201103120600 METAR MROC 120600Z 11012G22KT CAVOK 20/13 A3009 NOSIG=
201103120700 METAR MROC 120700Z 11010KT CAVOK 19/14 A3007 RMK VEL MAX VTO 18KT NOSIG=
201103120800 METAR MROC 120800Z 11013KT CAVOK 19/13 A3005 RMK VEL MAX VTO 20KT NOSIG=
201103120900 METAR MROC 120900Z 11011KT CAVOK 19/13 A3005 RMK VEL MAX VTO 18KT NOSIG=
201103121000 METAR MROC 121000Z 12011KT CAVOK 20/12 A3004 RMK VEL MAX VTO 18KT NOSIG=
201103121100 METAR MROC 121100Z 11009KT CAVOK 20/12 A3005 RMK VEL MAX VTO 15KT NOSIG=
201103121200 METAR MROC 121200Z 06008KT CAVOK 18/12 A3007 NOSIG=
201103121300 METAR MROC 121300Z 11009KT CAVOK 21/13 A3009 NOSIG=
201103121400 METAR MROC 121400Z 11014KT CAVOK 23/13 A3010 NOSIG=
201103121500 METAR MROC 121500Z 12012KT CAVOK 24/13 A3011 RMK GUST 17KT NOSIG=
201103121600 METAR MROC 121600Z 12008KT 9999 FEW040 26/14 A3010 RMK GUST 17KT NOSIG=
201103121700 METAR MROC 121700Z 10009KT 9999 FEW040 27/13 A3009 RMK GUST 16KT NOSIG=
201103121800 METAR MROC 121800Z 08015KT 9999 SCT040 28/14 A3006 RMK GUST 21KT NOSIG=
201103121900 METAR MROC 121900Z 09014KT 9999 SCT040 28/14 A3004 NOSIG=
201103122000 METAR MROC 122000Z 10013KT 9999 SCT030 28/14 A3001 NOSIG=
201103122100 METAR MROC 122100Z 13008KT 9999 SCT030 28/15 A2999 RMK PCPN DST NE NOSIG=
201103122200 METAR MROC 122200Z 11012KT 9999 SCT025 26/15 A2999 RMK PCPN DST NE NOSIG=
201103122300 METAR MROC 122300Z 11008KT 9999 SCT025 24/15 A3001 RMK PCPN DST NE NOSIG=
201103130000 METAR MROC 130000Z 11009KT 9999 SCT025 22/15 A3003 NOSIG=
201103130100 METAR MROC 130100Z 10006KT 9999 SCT025 22/15 A3007 NOSIG=
201103130200 METAR MROC 130200Z 11006KT 9999 FEW030 21/14 A3009 RMK FEW100 NOSIG=
201103130300 METAR MROC 130300Z 11007KT CAVOK 21/14 A3011 RMK SCT120 NOSIG=
201103130400 METAR MROC 130400Z 12012G23KT CAVOK 20/14 A3011 NOSIG=
201103130500 METAR MROC 130500Z 11012G23KT CAVOK 20/14 A3010 NOSIG=
201103130600 METAR MROC 130600Z 11011KT CAVOK 20/14 A3008 NOSIG=
201103130700 METAR MROC 130700Z 11007KT CAVOK 19/13 A3005 NOSIG=
201103130800 METAR MROC 130800Z 11009KT CAVOK 19/13 A3004 NOSIG=
201103130900 METAR MROC 130900Z 09010KT CAVOK 19/13 A3004 NOSIG=
201103131000 METAR MROC 131000Z 11020KT CAVOK 19/13 A3004 NOSIG=
201103131100 METAR MROC 131100Z 11009KT CAVOK 19/13 A3005 NOSIG=
201103131200 METAR MROC 131200Z 07007KT CAVOK 19/13 A3007 NOSIG=
201103131300 METAR MROC 131300Z 10011KT CAVOK 21/13 A3009 RMK SCT250 NOSIG=
201103131400 METAR MROC 131400Z 11011KT CAVOK 23/13 A3010 RMK SCT250 NOSIG=
201103131500 METAR MROC 131500Z 11012KT CAVOK 25/12 A3011 NOSIG=
201103131600 METAR MROC 131600Z 12012KT CAVOK 26/11 A3011 NOSIG=
201103131700 METAR MROC 131700Z 10010KT CAVOK 27/12 A3008 NOSIG=
201103131800 METAR MROC 131800Z 10011KT 9999 FEW045 28/13 A3006 NOSIG=
201103131900 METAR MROC 131900Z 09010KT 9999 SCT040 28/14 A3002 NOSIG=
201103132000 METAR MROC 132000Z 10006KT 9999 SCT035 SCT250 29/13 A3000 NOSIG=
201103132100 METAR MROC 132100Z 10012KT 9999 FEW035 SCT250 28/13 A2998 RMK TCU DST E S SW MX WND 21KT NOSIG=
201103132200 METAR MROC 132200Z 11011KT 9999 FEW040 SCT080 26/11 A2999 RMK MX WND 17KT TCU DST E S RN DST SW FEW250 NOSIG=
201103132300 METAR MROC 132300Z 12011KT 9999 FEW040 SCT080 25/12 A3000 RMK MX WND 18KT TCU DST NE E S SW RN DST SW FEW250 NOSIG=
201103140000 METAR MROC 140000Z 10009KT 9999 FEW040 SCT080 23/14 A3001 RMK TCU DST E SW FEW250 NOSIG=
201103140100 METAR MROC 140100Z 11010KT 9999 FEW040 SCT080 22/15 A3004 NOSIG=
201103140200 METAR MROC 140200Z 12007KT 9999 FEW040 SCT100 21/14 A3007 RMK MX WND 12KT NOSIG=
201103140300 METAR MROC 140300Z 09007KT 9999 FEW040 21/13 A3008 NOSIG=
201103140400 METAR MROC 140400Z 11009KT CAVOK 20/15 A3009 NOSIG=
201103140500 METAR MROC 140500Z 11009KT CAVOK 20/14 A3008 RMK GUST 18KT NOSIG=
201103140600 METAR MROC 140600Z 10012KT CAVOK 20/14 A3006 RMK GUST 18KT NOSIG=
201103140700 METAR MROC 140700Z 11011KT CAVOK 20/14 A3003 RMK GUST 19KT NOSIG=
201103140800 METAR MROC 140800Z 10010G22KT CAVOK 20/14 A3001 NOSIG=
201103140900 METAR MROC 140900Z 11013KT CAVOK 20/14 A3000 RMK GUST 19KT NOSIG=
201103141000 METAR MROC 141000Z 11010KT CAVOK 20/13 A2999 NOSIG=
201103141100 METAR MROC 141100Z 12013KT CAVOK 20/13 A3000 RMK GUST 19KT NOSIG=
201103141200 METAR MROC 141200Z 11013KT CAVOK 20/13 A3002 RMK GUST 19KT BKN270 CB DST SW NOSIG=
201103141300 METAR MROC 141300Z 12012KT CAVOK 21/13 A3004 RMK MX WND 17KT TCU DST S SW NOSIG=
201103141327 METAR MROC 141327Z 12012G23KT CAVOK 22/13 A3005 RMK TCU DST S SW NOSIG=
201103141400 METAR MROC 141400Z 11014KT CAVOK 23/13 A3005 RMK MX WND 22KT TCU DST SW NOSIG=
201103141500 METAR MROC 141500Z 12014KT CAVOK 25/12 A3007 RMK MX WND 22KT TCU DST E SW NOSIG=
201103141511 METAR MROC 141511Z 10010KT CAVOK 27/12 A3007 RMK MX WND 16KT TCU DST E SW NOSIG=
201103141600 METAR MROC 141600Z 09011G21KT CAVOK 27/13 A3007 RMK TCU DST E SW CB DST S NOSIG=
201103141700 METAR MROC 141700Z 08014KT CAVOK 28/13 A3005 RMK TCU DST E SW CB DST S NOSIG=
201103141800 METAR MROC 141800Z 10009KT CAVOK 29/13 A3003 RMK MX WND 15KT CROSS WND TCU DST E SW CB DST S NOSIG=
201103141900 METAR MROC 141900Z 10008KT 9999 FEW045 BKN140 29/12 A3000 RMK MX WND 14KT CROSS WND TCU DST E S SW NOSIG=
201103142000 METAR MROC 142000Z 12009KT 9999 FEW045 BKN140 29/12 A2996 RMK MX WND 16KT CROSS WND TCU DST E S SW NOSIG=
201103142100 METAR MROC 142100Z 13008KT 9999 FEW040 SCT120 28/12 A2995 RMK TCU DST S SSW BECMG 24006KT=
201103142200 METAR MROC 142200Z 20008KT 9999 SCT035 26/19 A2996 RMK LGT HZ W QUAD NOSIG=
201103142300 METAR MROC 142300Z 23009KT 9999 FEW025 SCT035 24/19 A2998 RMK LGT HZ ARND NOSIG=
201103150000 METAR MROC 150000Z 24007KT 9999 SCT030 22/18 A3001 RMK LGT HZ ARND=
201103150100 METAR MROC 150100Z 30005KT 9999 FEW030 21/19 A3003 NOSIG=
201103150200 METAR MROC 150200Z 00000KT 9999 FEW030 21/18 A3006 NOSIG=
201103150300 METAR MROC 150300Z 06004KT CAVOK 20/15 A3007 NOSIG=
201103150400 METAR MROC 150400Z 09005KT CAVOK 20/13 A3008 NOSIG=
201103150500 METAR MROC 150500Z 11008KT CAVOK 20/14 A3007 NOSIG=
201103150600 METAR MROC 150600Z 10011KT CAVOK 20/15 A3006 NOSIG=
201103150700 METAR MROC 150700Z 10008KT CAVOK 20/14 A3003 NOSIG=
201103150800 METAR MROC 150800Z 12011KT CAVOK 20/14 A3002 NOSIG=
201103150900 METAR MROC 150900Z 10006KT CAVOK 19/14 A3001 NOSIG=
201103151000 METAR MROC 151000Z 11009KT CAVOK 20/13 A3001 NOSIG=
201103151100 METAR MROC 151100Z 09005KT CAVOK 19/13 A3003 NOSIG=
201103151200 METAR MROC 151200Z 11010KT CAVOK 20/13 A3004 RMK BKN250 NOSIG=
201103151300 METAR MROC 151300Z 12009KT CAVOK 21/14 A3006 RMK BKN250 NOSIG=
201103151400 METAR MROC 151400Z 11011KT CAVOK 24/13 A3007 RMK BKN250 NOSIG=
201103151500 METAR MROC 151500Z 12013KT CAVOK 26/13 A3008 RMK BKN250 NOSIG=
201103151600 METAR MROC 151600Z 09015KT 9999 FEW035 SCT300 26/12 A3010 NOSIG=
201103151700 METAR MROC 151700Z 09014KT 9999 FEW035 28/13 A3008 NOSIG=
201103151800 METAR MROC 151800Z 09010KT 9999 FEW040 SCT070 29/13 A3005 NOSIG=
201103151900 METAR MROC 151900Z 09011KT 9999 FEW040 SCT080 28/14 A3002 NOSIG=
201103152000 METAR MROC 152000Z 08010KT 9999 FEW040 SCT070 27/13 A3000 BECMG 24007KT=
201103152100 METAR MROC 152100Z 10008KT 9999 SCT040 29/13 A2997 RMK FEW100 NOSIG=
201103152200 METAR MROC 152200Z 09009KT 9999 SCT035 SCT100 27/14 A2997 NOSIG=
201103152300 METAR MROC 152300Z 22008KT 9999 SCT035 24/18 A3000 NOSIG=
201103160000 METAR MROC 160000Z 24006KT 9999 FEW035 SCT100 21/19 A3003 RMK HZ SW W NW BECMG 05005KT=
201103160100 METAR MROC 160100Z 27002KT 9999 FEW035 21/18 A3005 RMK HZ SW W BECMG 05005KT=
201103160200 METAR MROC 160200Z 09005KT CAVOK 21/16 A3007 NOSIG=
201103160300 METAR MROC 160300Z 11009KT CAVOK 21/15 A3007 RMK MX WND 16KT NOSIG=
201103160400 METAR MROC 160400Z 12009KT CAVOK 21/15 A3009 RMK MX WND 15KT CROSS WND NOSIG=
201103160500 METAR MROC 160500Z 10008G19KT CAVOK 20/14 A3009 RMK CROSS WND NOSIG=
201103160600 METAR MROC 160600Z 11011KT CAVOK 20/14 A3008 RMK MX WND 18KT NOSIG=
201103160700 METAR MROC 160700Z 12012KT CAVOK 20/13 A3005 RMK MX WND 20KT NOSIG=
201103160800 METAR MROC 160800Z 12011KT CAVOK 20/12 A3004 RMK MX WND 18KT CROSS WND NOSIG=
201103160900 METAR MROC 160900Z 11007KT CAVOK 19/12 A3004 RMK MX WND 13KT CROSS WND NOSIG=
201103161000 METAR MROC 161000Z 12008G18KT CAVOK 19/12 A3004 NOSIG=
201103161100 METAR MROC 161100Z 12007KT CAVOK 19/12 A3005 RMK MX WND 15KT CROSS WND NOSIG=
201103161200 METAR MROC 161200Z 12009KT CAVOK 19/12 A3007 RMK MX WND 16KT NOSIG=
201103161300 METAR MROC 161300Z 13009KT CAVOK 21/12 A3009 NOSIG=
201103161400 METAR MROC 161400Z 11008KT CAVOK 24/12 A3009 NOSIG=
201103161500 METAR MROC 161500Z 09012KT CAVOK 27/11 A3011 NOSIG=
201103161600 METAR MROC 161600Z 08014KT CAVOK 28/11 A3011 NOSIG=
201103161700 METAR MROC 161700Z 09013KT CAVOK 28/11 A3008 NOSIG=
201103161800 METAR MROC 161800Z 10011KT 9999 FEW045 29/11 A3005 NOSIG=
201103161900 METAR MROC 161900Z 11010KT 9999 FEW040 30/12 A3002 NOSIG=
201103162000 METAR MROC 162000Z 09008KT 9999 FEW040 29/12 A3000 NOSIG=
201103162100 METAR MROC NIL=
201103162200 METAR MROC 162200Z 07013KT 9999 SCT030 28/11 A2998 RMK HZ LEVE SW NOSIG=
201103162300 METAR MROC 162300Z 10007KT 9999 SCT030 25/13 A3001 RMK HZ LEVE ARND NOSIG=
201103170000 METAR MROC 170000Z 10005KT 9999 FEW030 23/13 A3003 RMK GUST 12KT NOSIG=
201103170100 METAR MROC 170100Z 12010KT 9999 FEW030 21/14 A3006 NOSIG=
201103170200 METAR MROC 170200Z 11009KT CAVOK 21/14 A3008 NOSIG=
201103170300 METAR MROC 170300Z 12011KT CAVOK 20/14 A3009 RMK VEL MAX VTO 17KT NOSIG=
201103170400 METAR MROC 170400Z 12011KT CAVOK 20/13 A3009 RMK VEL MAX VTO 17KT NOSIG=
201103170500 METAR MROC 170500Z 11012KT CAVOK 20/13 A3007 RMK VEL MAX VTO 18KT NOSIG=
201103170600 METAR MROC 170600Z 11014G24KT CAVOK 20/13 A3005 NOSIG=
201103170700 METAR MROC 170700Z 11014G25KT CAVOK 20/13 A3003 NOSIG=
201103170800 METAR MROC 170800Z 12012G24KT CAVOK 19/14 A3001 NOSIG=
201103170900 METAR MROC 170900Z 11014G24KT CAVOK 20/13 A3001 NOSIG=
201103171000 METAR MROC 171000Z 12012G22KT CAVOK 20/13 A3000 NOSIG=
201103171100 METAR MROC 171100Z 12012G22KT CAVOK 20/14 A3003 NOSIG=
201103171200 METAR MROC 171200Z 12011KT CAVOK 20/13 A3004 RMK VEL MAX VTO 19KT NOSIG=
201103171300 METAR MROC 171300Z 11014KT 9999 FEW040 22/14 A3007 RMK DZ NE GUST 19KT NOSIG=
201103171400 METAR MROC 171400Z 12013KT 9999 FEW040 23/15 A3009 RMK GUST 21KT NOSIG=
201103171500 METAR MROC NIL=
201103171600 METAR MROC 171600Z 11017KT 9999 FEW030 25/15 A3009 RMK GUST 25KT DZ NE NOSIG=
201103171700 METAR MROC 171700Z 11018KT 9999 SCT030 27/15 A3006 RMK GUST 23KT DZ NE NOSIG=
201103171800 METAR MROC 171800Z 12015KT 9999 SCT030 28/15 A3002 RMK GUST 22KT DZ NE NOSIG=
201103171900 METAR MROC 171900Z 11016G26KT 9999 SCT030 28/14 A3000 RMK DZ NE NOSIG=
201103172000 METAR MROC 172000Z 11011KT 9999 SCT030 27/15 A2999 RMK GUST 15KT DZ DST NE NOSIG=
201103172100 METAR MROC 172100Z 10013KT 9999 SCT025 SCT100 26/15 A2997 RMK RA DST N NE NOSIG=
201103172200 METAR MROC 172200Z 10015KT 9999 SCT025 SCT100 24/15 A2998 RMK RA DST N NE NOSIG=
201103172300 METAR MROC 172300Z 09011KT 9999 SCT025 24/14 A3000 RMK RA DST N NE NOSIG=
201103180000 METAR MROC 180000Z 10012G22KT 9999 SCT025 21/12 A3003 NOSIG=
201103180100 METAR MROC 180100Z 10006KT 9999 SCT025 21/12 A3005 NOSIG=
201103180200 METAR MROC 180200Z 11005KT 9999 SCT025 21/13 A3001 NOSIG=
201103180300 METAR MROC 180300Z 11011KT 9999 FEW030 SCT100 21/14 A3009 NOSIG=
201103180400 METAR MROC 180400Z 12009KT 9999 FEW030 SCT100 20/14 A3009 NOSIG=
201103180500 METAR MROC 180500Z 10008KT 9999 FEW030 SCT100 20/14 A3007 NOSIG=
201103180600 METAR MROC 180600Z 09011KT CAVOK 20/14 A3005 RMK FEW100 NOSIG=
201103180700 METAR MROC 180700Z 11014KT CAVOK 20/14 A3005 RMK FEW120 NOSIG=
201103180800 METAR MROC 180800Z 11010G21KT CAVOK 20/14 A3001 NOSIG=
201103180900 METAR MROC 180900Z 11010G20KT CAVOK ///// A3000 NOSIG=
201103181000 METAR MROC 181000Z 12013KT CAVOK 20/14 A3000 NOSIG=
201103181100 METAR MROC 181100Z 10014KT CAVOK 20/14 A3001 NOSIG=
201103181200 METAR MROC 181200Z 10014KT 9999 FEW030 20/15 A3003 NOSIG=
201103181300 METAR MROC 181300Z 09010KT 9999 FEW030 21/13 A3006 RMK PCPN DST N NE NOSIG=
201103181400 METAR MROC 181400Z 10017KT 9999 FEW030 23/13 A3007 RMK PCPN DST N NE NOSIG=
201103181500 METAR MROC 181500Z 09015KT 9999 FEW030 25/12 A3007 NOSIG=
201103181600 METAR MROC 181600Z 10020G30KT 9999 FEW025 26/12 A3007 NOSIG=
201103181700 METAR MROC 181700Z 08020KT 9999 SCT025 26/12 A3005 NOSIG=
201103181800 METAR MROC 181800Z 08022KT 9999 SCT025 27/12 A3003 NOSIG=
201103181900 METAR MROC 181900Z 07014KT 9999 SCT020 28/13 A3000 NOSIG=
201103182000 METAR MROC 182000Z 07022KT 9999 SCT020 27/13 A2998 RMK PCPN DST NE NOSIG=
201103182100 METAR MROC 182100Z 09015G25KT 9999 SCT040 26/13 A2997 RMK TCU DST N NE E SW FEW080 NOSIG=
201103182200 METAR MROC 182200Z 10013G23KT 9999 SCT040 25/11 A2998 RMK TCU DST N NE E SW FEW080 NOSIG=
201103182300 METAR MROC 182300Z 10013KT 9999 FEW050 23/13 A2998 RMK MX WND 20KT TCU DST N NE E SW HZ DST W NOSIG=
201103182344 METAR MROC 182344Z 09013G23KT 9999 FEW050 22/13 A2999 RMK TCU DST N NE E SW HZ DST W NOSIG=
201103190000 METAR MROC 190000Z 09013G23KT CAVOK 22/13 A2999 RMK TCU DST NE S HZ DST QUAD W NOSIG=
201103190100 METAR MROC 190100Z 09010G22KT CAVOK 21/13 A3001 NOSIG=
201103190200 METAR MROC 190200Z 10013KT CAVOK 21/13 A3002 NOSIG=
201103190300 METAR MROC 190300Z 11017KT CAVOK 20/14 A3004 NOSIG=
201103190400 METAR MROC 190400Z 11014G25KT CAVOK 20/14 A3004 NOSIG=
201103190500 METAR MROC 190500Z 11014KT CAVOK 20/14 A3003 RMK GUST 20KT NOSIG=
201103190600 METAR MROC 190600Z 11017G27KT CAVOK 20/14 A3001 NOSIG=
201103190700 METAR MROC 190700Z 11014KT CAVOK 20/14 A2998 RMK GUST 20KT NOSIG=
201103190800 METAR MROC 190800Z 12014KT CAVOK 20/15 A2998 RMK GUST 19KT NOSIG=
201103190900 METAR MROC 190900Z 11014KT CAVOK 20/15 A2998 RMK GUST 21KT NOSIG=
201103191000 METAR MROC 191000Z 12009KT CAVOK 19/15 A2999 RMK GUST 16KT NOSIG=
201103191100 METAR MROC 191100Z 11011KT CAVOK 19/15 A2999 RMK GUST 19KT NOSIG=
201103191200 METAR MROC 191200Z 11011KT 9999 FEW040 19/15 A3001 RMK GUST 20KT DZ NE NOSIG=
201103191300 METAR MROC 191300Z 12011KT 9999 FEW040 21/15 A3003 RMK GUST 20KT TCU DST NE E SW NOSIG=
201103191321 METAR MROC 191321Z 11015G27KT 9999 FEW040 22/15 A3005 RMK TCU DST NE E SW NOSIG=
201103191400 METAR MROC 191400Z 10014G24KT 9999 FEW040 22/14 A3005 RMK TCU DST QUAD E FEW200 NOSIG=
201103191500 METAR MROC 191500Z 10015G25KT 9999 FEW040 SCT160 24/15 A3007 RMK TCU DST QUAD E NOSIG=
201103191600 METAR MROC 191600Z 09016KT 9999 FEW035 SCT160 25/15 A3007 RMK GUST 24KT TCU DST QUAD E NOSIG=
201103191700 METAR MROC 191700Z 10016G27KT 9999 FEW035 SCT160 25/15 A3005 RMK TCU DST QUAD E NOSIG=
201103191800 METAR MROC 191800Z 11016G27KT 9999 FEW035 SCT160 26/15 A3002 RMK TCU DST SW QUAD E NOSIG=
201103191900 METAR MROC 191900Z 11014KT 9999 FEW040 SCT160 26/14 A3001 RMK GUST 22KT TCU DST SW QUAD E NOSIG=
201103192000 METAR MROC 192000Z 12013G25KT 9999 FEW040 BKN180 27/15 A2998 RMK TCU DST QUAD E RN TCU DST SW NOSIG=
201103192100 METAR MROC 192100Z 12014G28KT 9999 FEW030 BKN250 26/15 A2996 NOSIG=
201103192200 METAR MROC 192200Z 12015G25KT 9999 FEW030 BKN250 24/15 A2996 NOSIG=
201103192300 METAR MROC 192300Z 12013G23KT 9999 FEW030 BKN250 23/15 A2998 RMK DZ DST N NE NOSIG=
201103200000 METAR MROC 200000Z 11012G22KT 9999 FEW025 SCT250 21/15 A2998 RMK DZ DST NE FEW140 NOSIG=
201103200100 METAR MROC 200100Z 11011KT 9999 FEW030 SCT250 21/14 A3001 RMK FEW140 VEL MAX VTO 19KT NOSIG=
201103200200 METAR MROC 200200Z 11013KT 9999 FEW030 SCT250 21/13 A3003 NOSIG=
201103200300 METAR MROC 200300Z 12012KT 9999 FEW030 SCT250 21/14 A3004 NOSIG=
201103200400 METAR MROC 200400Z 10011G22KT 9999 FEW030 SCT250 20/14 A3005 NOSIG=
201103200500 METAR MROC 200500Z 11010KT CAVOK 20/13 A3005 NOSIG=
201103200600 METAR MROC 200600Z 07010KT CAVOK 20/14 A3003 NOSIG=
201103200700 METAR MROC 200700Z 07011KT CAVOK 20/15 A3001 NOSIG=
201103200800 METAR MROC 200800Z 10007KT CAVOK 20/15 A2999 NOSIG=
201103200900 METAR MROC 200900Z 11007KT CAVOK 19/15 A2999 NOSIG=
201103201000 METAR MROC 201000Z 11010KT CAVOK 19/15 A2998 NOSIG=
201103201100 METAR MROC 201100Z 11011KT 9999 FEW035 20/14 A3001 NOSIG=
201103201200 METAR MROC 201200Z 11010KT 9999 FEW030 SCT250 20/14 A3002 NOSIG=
201103201300 METAR MROC 201300Z 12014KT 9999 FEW030 SCT250 21/14 A3003 RMK VEL MAX VTO 21KT TCU DST S NOSIG=
201103201400 METAR MROC 201400Z 10014G25KT 9999 FEW030 BKN250 23/15 A3006 RMK TCU DST S NOSIG=
201103201500 METAR MROC 201500Z 10015G25KT 9999 FEW030 BKN250 24/16 A3007 RMK TCU=
201103201600 METAR MROC 201600Z 10019G30KT 9999 FEW030 BKN250 24/15 A3007 NOSIG=
201103201700 METAR MROC NIL=
201103201800 METAR MROC 201800Z 10015KT 9999 FEW030 SCT270 26/13 A3006 RMK VEL MAX VTO 21KT NOSIG=
201103201900 METAR MROC 201900Z 09016G26KT 9999 FEW030 SCT270 27/13 A3002 NOSIG=
201103202000 METAR MROC 202000Z 10013G23KT 9999 FEW030 BKN250 28/14 A2998 RMK CB DST SSW NOSIG=
201103202100 METAR MROC 202100Z 09012KT 9999 FEW030 BKN250 26/14 A2997 NOSIG=
201103202200 METAR MROC 202200Z 10012KT 9999 FEW030 BKN250 26/14 A2996 NOSIG=
201103202300 METAR MROC 202300Z 11012G22KT 9999 FEW030 FEW030 SCT250 22/16 A2997 RMK DZ DST NE E NOSIG=
201103210000 METAR MROC 210000Z 10014KT 9999 FEW035 SCT250 22/16 A2997 RMK DZ DST NE E NOSIG=
201103210100 METAR MROC 210100Z 12011G22KT CAVOK 21/16 A2999 RMK SCT250 NOSIG=
201103210200 METAR MROC NIL=
201103210210 METAR MROC 210210Z 11011G23KT CAVOK 21/15 A3002 RMK FEW250 NOSIG=
201103210300 METAR MROC 210300Z 11011G21KT CAVOK 21/15 A3003 NOSIG=
201103210400 METAR MROC 210400Z 11013G23KT CAVOK 21/15 A3004 NOSIG=
201103210500 METAR MROC 210500Z 11014G25KT CAVOK 21/14 A3004 NOSIG=
201103210600 METAR MROC 210600Z 11013G23KT CAVOK 21/13 A3002 NOSIG=
201103210700 METAR MROC 210700Z 11011G22KT CAVOK 21/12 A3000 NOSIG=
201103210800 METAR MROC 210800Z 11011G21KT CAVOK 20/13 A2997 NOSIG=
201103210900 METAR MROC 210900Z 11012KT CAVOK 20/14 A2996 RMK MX WND 20KT NOSIG=
201103211000 METAR MROC 211000Z 12014KT CAVOK 19/14 A2996 RMK MX WND 22KT NOSIG=
201103211100 METAR MROC 211100Z 08008KT CAVOK 20/14 A2998 RMK MX WND 14KT NOSIG=
201103211200 METAR MROC 211200Z 07007KT CAVOK 19/15 A2999 RMK MX WND 12KT CROSS WND TCU DST NE E NOSIG=
201103211207 METAR MROC 211207Z 09010G20KT CAVOK 20/14 A3000 RMK CROSS WND TCU DST NE E NOSIG=
201103211300 METAR MROC 211300Z 11014KT CAVOK 21/15 A3001 RMK SCT250 NOSIG=
201103211400 METAR MROC 211400Z 11016G26KT CAVOK 23/14 A3003 RMK SCT250 NOSIG=
201103211500 METAR MROC 211500Z 11014KT CAVOK 25/15 A3004 RMK BKN250 NOSIG=
201103211600 METAR MROC 211600Z 11015G25KT CAVOK 26/15 A3004 RMK BKN250 NOSIG=
201103211700 METAR MROC 211700Z 09015KT 9999 FEW035 BKN250 27/14 A3004 NOSIG=
201103211800 METAR MROC 211800Z 09018KT 9999 FEW035 BKN250 27/14 A3002 NOSIG=
201103211900 METAR MROC 211900Z 11015KT 9999 FEW035 BKN250 27/15 A3000 NOSIG=
201103212000 METAR MROC 212000Z 09017KT 9999 FEW035 BKN250 26/14 A2999 NOSIG=
201103212100 METAR MROC 212100Z 08018KT 9999 FEW035 SCT250 25/12 A2996 RMK DZ DST N=
201103212200 METAR MROC 212200Z 11011G21KT 9999 FEW035 SCT250 25/11 A2995 NOSIG=
201103212300 METAR MROC 212300Z 12014G24KT 9999 FEW035 BKN250 23/12 A2996 NOSIG=
201103220000 METAR MROC 220000Z 11013G25KT CAVOK 22/12 A2997 RMK BKN250 NOSIG=
201103220100 METAR MROC 220100Z 12015KT CAVOK 21/12 A2999 RMK GUST 20KT BKN250 NOSIG=
201103220200 METAR MROC 220200Z 11014KT CAVOK 20/14 A2999 RMK BKN250 NOSIG=
201103220300 METAR MROC 220300Z 11012G22KT CAVOK 20/14 A3001 RMK BKN250 NOSIG=
201103220400 METAR MROC 220400Z 10013KT CAVOK 20/15 A3002 RMK SCT250 NOSIG=
201103220500 METAR MROC 220500Z 11014G24KT CAVOK 20/15 A3002 RMK SCT250 NOSIG=
201103220600 METAR MROC 220600Z 11012G22KT CAVOK 19/15 A2999 NOSIG=
201103220700 METAR MROC 220700Z 11014G24KT CAVOK 19/15 A2998 RMK SCT250 NOSIG=
201103220800 METAR MROC 220800Z 11014G25KT CAVOK 19/15 A2996 RMK SCT250 NOSIG=
201103220900 METAR MROC 220900Z 10011KT CAVOK 19/14 A2994 RMK SCT250 VEL MAX VTO 17KT NOSIG=
201103221000 METAR MROC 221000Z 11015G25KT CAVOK 19/13 A2994 RMK SCT250 NOSIG=
201103221100 METAR MROC 221100Z 12011KT CAVOK 19/14 A2996 RMK SCT250 VEL MAX VTO 17KT NOSIG=
201103221200 METAR MROC 221200Z 11012KT CAVOK 19/14 A2997 RMK BKN250 VEL MAX VTO 18KT DZ DST NE NOSIG=
201103221300 METAR MROC 221300Z 11009KT 9999 FEW020 BKN250 20/14 A3001 RMK PCPN DST NE NOSIG=
201103221400 METAR MROC 221400Z 11006KT 9999 SCT020 BKN250 23/13 A3003 RMK PCPN DST NE NOSIG=
201103221500 METAR MROC 221500Z 11010KT 9999 SCT020 BKN250 25/13 A3003 RMK PCPN DST NE NOSIG=
201103221600 METAR MROC 221600Z 11015G25KT 9999 FEW020 BKN250 25/12 A3003 NOSIG=
201103221700 METAR MROC 221700Z 10012G22KT 9999 FEW025 BKN250 24/13 A3002 NOSIG=
201103221800 METAR MROC 221800Z 11013G26KT 9999 FEW025 BKN250 26/14 A3000 RMK PCPN DST NE NOSIG=
201103221900 METAR MROC 221900Z 11015KT 9999 FEW025 BKN250 26/14 A2996 RMK PCPN DST NE NOSIG=
201103222000 METAR MROC 222000Z 11013KT 9999 FEW025 BKN250 27/13 A2994 RMK PCPN DST NE NOSIG=
201103222100 METAR MROC 222100Z 09013KT 9999 FEW025 SCT120 BKN250 26/13 A2992 RMK=
201103222200 METAR MROC 222200Z 11010KT 9999 FEW030 SCT120 BKN250 26/13 A2992 RMK=
201103222300 METAR MROC 222300Z 10011KT 9999 FEW030 SCT250 23/15 A2993 RMK GUST 16KT DZ N NE NOSIG=
201103230000 METAR MROC 230000Z 12011KT 9999 FEW030 SCT250 21/15 A2995 RMK GUST 17KT DZ NE NOSIG=
201103230100 METAR MROC 230100Z 12009KT 9999 FEW030 20/14 A2997 NOSIG=
201103230200 METAR MROC 230200Z 10008KT 9999 FEW030 20/14 A2999 NOSIG=
201103230300 METAR MROC 230300Z 10009KT CAVOK 19/14 A3001 RMK FEW100 NOSIG=
201103230400 METAR MROC 230400Z 11012KT CAVOK 19/13 A3001 NOSIG=
201103230500 METAR MROC NIL=
201103230600 METAR MROC 230600Z 11012KT CAVOK 19/13 A2998 NOSIG=
201103230700 METAR MROC 230700Z 11013KT CAVOK 19/14 A2995 NOSIG=
201103230800 METAR MROC 230800Z 09006KT CAVOK 19/13 A2994 NOSIG=
201103230900 METAR MROC 230900Z 09008KT CAVOK 19/12 A2994 NOSIG=
201103231000 METAR MROC 231000Z 10011KT CAVOK 18/12 A2993 NOSIG=
201103231100 METAR MROC 231100Z 10010KT CAVOK 19/12 A2994 NOSIG=
201103231200 METAR MROC 231200Z 10008KT CAVOK 19/13 A2997 RMK SCT250 NOSIG=
201103231300 METAR MROC 231300Z 07008KT 9999 FEW025 SCT250 21/13 A2998 NOSIG=
201103231400 METAR MROC 231400Z 12017KT 9999 FEW025 SCT250 23/13 A3000 NOSIG=
201103231500 METAR MROC 231500Z 11011KT 9999 FEW025 SCT250 26/13 A3000 NOSIG=
201103231600 METAR MROC 231600Z 11012KT 9999 FEW025 BKN250 27/14 A2999 NOSIG=
201103231700 METAR MROC 231700Z 09010KT 9999 FEW025 BKN250 28/14 A2997 NOSIG=
201103231800 METAR MROC 231800Z 12008KT 9999 FEW025 29/14 A2995 NOSIG=
201103231900 METAR MROC 231900Z 13010KT 9999 FEW025 BKN250 30/14 A2992 NOSIG=
201103232000 METAR MROC 232000Z 13010KT 9999 FEW025 BKN250 29/13 A2989 NOSIG=
201103232100 METAR MROC 232100Z 12010KT 9999 FEW025 BKN250 28/15 A2988 BECMG RMK HZ DIST SW-W-NW=
201103232200 METAR MROC 232200Z 12007KT 9999 FEW030 SCT250 27/15 A2989 RMK MX WND 14KT TCU DST QUAD E S HZ DST QUAD W FEW100 NOSIG=
201103232300 METAR MROC 232300Z 13009KT 9999 FEW030 SCT250 25/16 A2990 RMK MX WND 18KT TCU DST QUAD E S HZ DST QUAD W NOSIG=
201103240000 METAR MROC 240000Z 12008KT 9999 FEW030 23/16 A2992 RMK MX WND 14KT TCU DST QUAD E S HZ DST QUAD W FEW090 FEW250 NOSIG=
201103240100 METAR MROC 240100Z 11007KT 9999 FEW030 SCT090 22/16 A2995 RMK MX WND 14KT NOSIG=
201103240200 METAR MROC 240200Z 12009KT 9999 FEW030 SCT090 20/16 A2997 RMK MX WND 16KT NOSIG=
201103240300 METAR MROC 240300Z 10009KT CAVOK 21/15 A3000 NOSIG=
201103240400 METAR MROC 240400Z 09004KT CAVOK 20/15 A3000 NOSIG=
201103240500 METAR MROC 240500Z 10009KT 080V140 CAVOK 20/15 A2999 NOSIG=
201103240600 METAR MROC 240600Z 10009KT CAVOK 20/15 A2998 NOSIG=
201103240700 METAR MROC 240700Z 09005KT CAVOK 19/15 A2997 NOSIG=
201103240800 METAR MROC 240800Z 07007KT CAVOK 19/14 A2995 NOSIG=
201103240900 METAR MROC 240900Z 12009KT CAVOK 20/14 A2995 NOSIG=
201103241000 METAR MROC 241000Z 10007KT CAVOK 19/13 A2995 NOSIG=
201103241100 METAR MROC 241100Z 10008KT CAVOK 20/13 A2996 NOSIG=
201103241200 METAR MROC 241200Z 09008KT CAVOK 19/13 A2997 RMK SCT250 NOSIG=
201103241300 METAR MROC 241300Z 09009KT CAVOK 21/13 A3000 RMK MX WND 16KT NOSIG=
201103241320 METAR MROC 241320Z 10009KT CAVOK 23/13 A3000 RMK MX WND 16KT NOSIG=
201103241400 METAR MROC 241400Z 10010KT CAVOK 24/12 A3001 RMK MX WND 18KT NOSIG=
201103241500 METAR MROC 241500Z 10009KT CAVOK 26/13 A3002 RMK MX WND 17KT NOSIG=
201103241600 METAR MROC 241600Z 10008KT CAVOK 29/12 A3001 RMK MX WND 13KT NOSIG=
201103241700 METAR MROC 241700Z 09005KT CAVOK 29/12 A2998 RMK MX WND 10KT TCU DST E NOSIG=
201103241730 METAR MROC 241730Z 19004KT CAVOK 29/12 A2996 RMK TCU DST E NOSIG=
201103241800 METAR MROC 241800Z VRB02KT CAVOK 29/12 A2995 RMK CROSS WND TCU DST E NOSIG=
201103241828 METAR MROC 241828Z 23011KT CAVOK 29/15 A2994 RMK CROSS WND TCU DST E NOSIG=
201103241900 METAR MROC 241900Z 23010KT CAVOK 30/15 A2993 RMK MX WND 16KT TCU DST E NOSIG=
201103242000 METAR MROC 242000Z 23010KT CAVOK 30/16 A2991 RMK TCU DST E S NOSIG=
201103242100 METAR MROC 242100Z 24010KT 9999 SCT040 29/16 A2990 RMK FEW300 LGT HZ ARND NOSIG=
201103242200 METAR MROC 242200Z 19005KT 9999 BKN040 27/16 A2990 RMK LGT HZ ARND=
201103242300 METAR MROC 242300Z 13006KT 9999 SCT040 25/16 A2992 RMK FEW300 LGT HZ ARND NOSIG=
201103250000 METAR MROC 250000Z 12007KT 9999 FEW040 BKN270 23/16 A2993 NOSIG=
201103250100 METAR MROC 250100Z 10009KT CAVOK 22/16 A2994 RMK BKN270 NOSIG=
201103250200 METAR MROC 250200Z 11007KT CAVOK 21/16 A2997 RMK FEW300 NOSIG=
201103250300 METAR MROC 250300Z 11006KT CAVOK 21/16 A2999 RMK FEW300 NOSIG=
201103250400 METAR MROC 250400Z 08007KT CAVOK 21/16 A3001 RMK FEW300 NOSIG=
201103250500 METAR MROC 250500Z 10005KT CAVOK 20/16 A3000 RMK FEW300 NOSIG=
201103250600 METAR MROC 250600Z 07010KT CAVOK 20/16 A3000 RMK FEW300 NOSIG=
201103250700 METAR MROC 250700Z 13004KT CAVOK 20/15 A2997 RMK FEW300 NOSIG=
201103250800 METAR MROC 250800Z 11010KT CAVOK 20/14 A2996 RMK FEW300 NOSIG=
201103250900 METAR MROC 250900Z 09006KT CAVOK 19/14 A2996 NOSIG=
201103251000 METAR MROC 251000Z 09008KT CAVOK 19/14 A2997 NOSIG=
201103251100 METAR MROC 251100Z 10010KT CAVOK 19/14 A2998 NOSIG=
201103251200 METAR MROC 251200Z 09010KT CAVOK 19/14 A2999 NOSIG=
201103251300 METAR MROC 251300Z 11011KT CAVOK 21/14 A3001 NOSIG=
201103251400 METAR MROC 251400Z 11011KT CAVOK 24/13 A3002 NOSIG=
201103251500 METAR MROC 251500Z 11010KT CAVOK 26/13 A3002 RMK VEL MAX VTO 16KT NOSIG=
201103251600 METAR MROC 251600Z 11007KT CAVOK 28/11 A3002 NOSIG=
201103251700 METAR MROC 251700Z 07004KT 9999 FEW045 29/11 A3000 BECMG 24007KT=
201103251800 METAR MROC 251800Z 23008KT 9999 SCT045 30/13 A2996 NOSIG=
201103251900 METAR MROC 251900Z 21009KT 9999 SCT040 31/14 A2993 NOSIG=
201103252000 METAR MROC 252000Z 22010KT 9999 FEW030TCU SCT040 31/16 A2991 NOSIG=
201103252100 METAR MROC 252100Z 21010KT 9999 FEW030TCU SCT040 29/18 A2990 NOSIG=
201103252200 METAR MROC 252200Z 22010KT 9999 SCT035 28/18 A2990 NOSIG=
201103252300 METAR MROC 252300Z 22009KT 9999 FEW025 SCT035 26/19 A2992 RMK HZ LEVE ARND NOSIG=
201103260000 METAR MROC 260000Z 22008KT 9999 FEW025 SCT035 24/19 A2994 NOSIG=
201103260100 METAR MROC 260100Z 21005KT 9999 FEW015 SCT030 23/20 A2996 RMK HZ LGT ARND NOSIG=
201103260200 METAR MROC 260200Z 23003KT 9999 FEW025 22/20 A2997 BECMG 05005KT=
201103260300 METAR MROC 260300Z 00000KT 9999 FEW001 SCT090 22/19 A2998 RMK LGHT BR ARND FEW030 NOSIG=
201103260400 METAR MROC 260400Z VRB02KT 9999 FEW001 SCT090 21/20 A3000 RMK LGHT BR ARND FEW030 NOSIG=
201103260500 METAR MROC 260500Z 08009KT CAVOK 21/17 A2999 RMK LGHT BR ARND NOSIG=
201103260600 METAR MROC 260600Z 08008KT CAVOK 21/16 A2997 RMK LGHT BR ARND NOSIG=
201103260700 METAR MROC 260700Z 09008KT CAVOK 21/16 A2995 RMK MX WND 14KT LGHT BR ARND NOSIG=
201103260800 METAR MROC 260800Z 09005KT CAVOK 21/16 A2994 RMK MX WND 10KT NOSIG=
201103260900 METAR MROC 260900Z 09006KT CAVOK 20/15 A2993 NOSIG=
201103261000 METAR MROC NIL=
201103261014 METAR MROC 261014Z 08006KT CAVOK 19/15 A2994 NOSIG=
201103261100 METAR MROC 261100Z 06006KT CAVOK 18/14 A2996 NOSIG=
201103261200 METAR MROC 261200Z 06008KT CAVOK 18/14 A2998 NOSIG=
201103261300 METAR MROC 261300Z 08006KT CAVOK 22/15 A2999 NOSIG=
201103261400 METAR MROC 261400Z 11007KT CAVOK 25/14 A3000 RMK LEVE HZ ARND NOSIG=
201103261500 METAR MROC 261500Z 12009KT CAVOK 27/14 A3000 RMK HZ LEVE ARND NOSIG=
201103261600 METAR MROC 261600Z 10005KT CAVOK 29/14 A2999 RMK HZ LEVE ARND BECMG 24005KT=
201103261700 METAR MROC 261700Z 13003KT 9999 FEW045 30/12 A2997 BECMG 24005KT=
201103261800 METAR MROC 261800Z 23010KT 9999 FEW035 31/14 A2994 NOSIG=
201103261900 METAR MROC 261900Z 23009KT 9999 FEW035 31/17 A2991 NOSIG=
201103262000 METAR MROC 262000Z 23012KT 9999 SCT035 30/18 A2989 NOSIG=
201103262100 METAR MROC 262100Z 21009KT 9999 SCT030 29/19 A2988 BECMG 8000 VCSH=
201103262200 METAR MROC 262200Z 22009KT 9999 FEW015TCU SCT030 29/19 A2987 RMK HZ ARND NOSIG=
201103262300 METAR MROC 262300Z 21011KT 9999 FEW015TCU SCT030 27/19 A2989 RMK HZ ARND RA NE E NOSIG=
201103270000 METAR MROC 270000Z 21006KT 9999 FEW015 BKN030 25/17 A2991 RMK HZ ARND RA E NOSIG=
201103270100 METAR MROC 270100Z 21006KT 9999 FEW015 BKN030 23/18 A2994 RMK HZ ARND=
201103270200 METAR MROC 270200Z 26002KT 9999 SCT030 22/19 A2996 RMK HZ ARND NOSIG=
201103270300 METAR MROC 270300Z 24002KT 9999 SCT025 22/19 A2996 RMK HZY NOSIG=
201103270400 METAR MROC 270400Z 09003KT 9999 FEW025 21/18 A2999 NOSIG=
201103270500 METAR MROC 270500Z 08005KT CAVOK 22/17 A2999 NOSIG=
201103270600 METAR MROC 270600Z 08007KT CAVOK 21/17 A2997 NOSIG=
201103270700 METAR MROC 270700Z 08004KT CAVOK 20/17 A2994 NOSIG=
201103270800 METAR MROC 270800Z 08008KT CAVOK 20/16 A2992 NOSIG=
201103270900 METAR MROC 270900Z 08007KT CAVOK 20/16 A2992 NOSIG=
201103271000 METAR MROC 271000Z 08008KT CAVOK 20/16 A2993 NOSIG=
201103271100 METAR MROC 271100Z 09005KT CAVOK 19/16 A2995 NOSIG=
201103271200 METAR MROC 271200Z 08005KT CAVOK 19/16 A2996 NOSIG=
201103271300 METAR MROC 271300Z 08007KT CAVOK 23/16 A2998 NOSIG=
201103271400 METAR MROC 271400Z 12008KT CAVOK 26/16 A3000 NOSIG=
201103271500 METAR MROC 271500Z 12009KT CAVOK 29/15 A3000 BECMG 24006KT=
201103271600 METAR MROC 271600Z 13008KT 060V130 CAVOK 30/15 A2998 BECMG 24006KT=
201103271700 METAR MROC 271700Z 12008KT 9999 FEW040 31/16 A2997 BECMG 24006KT=
201103271800 METAR MROC 271800Z 16007KT 100V190 9999 FEW040 32/15 A2994 RMK HZ W BECMG 24006KT=
201103271900 METAR MROC 271900Z 22009KT 9999 SCT040 31/19 A2991 RMK HZ W NOSIG=
201103272000 METAR MROC 272000Z 22012KT 9999 SCT040 29/20 A2989 RMK HZ ARND NOSIG=
201103272100 METAR MROC 272100Z 24005KT 9999 -TSRA SCT012CB BKN025 27/18 A2989 RMK=
201103272200 METAR MROC 272200Z 12005KT 7000 -TSRA SCT010CB BKN020 22/21 A2991 RMK VIS W UNL BECMG 8000 VCSH=
201103272300 METAR MROC 272300Z 11005KT 9999 FEW015 BKN030 22/20 A2991 RETS NOSIG=
201103280000 METAR MROC 280000Z 00000KT 9999 FEW020 BKN100 22/20 A2992 NOSIG=
201103280100 METAR MROC 280100Z 00000KT 9999 FEW025 BKN100 23/21 A2994 NOSIG=
201103280200 METAR MROC 280200Z 00000KT 9999 FEW025 BKN100 23/21 A2996 NOSIG=
201103280300 METAR MROC 280300Z 04005KT 9999 BCFG FEW002 SCT030 22/21 A2998 RMK SCT100 VIS 6000 SW W NOSIG=
201103280400 METAR MROC 280400Z 00000KT 9999 FEW035 BKN100 21/20 A2999 NOSIG=
201103280500 METAR MROC 280500Z 09004KT 9999 FEW035 SCT100 20/19 A2998 NOSIG=
201103280600 METAR MROC 280600Z 00000KT CAVOK 20/19 A2997 RMK SCT100 NOSIG=
201103280700 METAR MROC 280700Z 08004KT CAVOK 19/18 A2994 RMK FEW100 NOSIG=
201103280800 METAR MROC 280800Z 04005KT CAVOK 20/18 A2992 RMK FEW110 NOSIG=
201103280900 METAR MROC 280900Z 07008KT CAVOK 21/18 A2991 NOSIG=
201103281000 METAR MROC 281000Z 07006KT CAVOK 19/17 A2992 NOSIG=
201103281100 METAR MROC 281100Z 08004KT CAVOK 20/17 A2995 NOSIG=
201103281200 METAR MROC 281200Z 05006KT CAVOK 19/17 A2998 RMK TCU DST S SCT250 NOSIG=
201103281300 METAR MROC 281300Z 06008KT 9999 FEW025 SCT250 21/18 A3001 RMK CB DST S NOSIG=
201103281400 METAR MROC 281400Z 11008KT 9999 FEW025 SCT250 25/17 A3003 RMK CB DST S NOSIG=
201103281500 METAR MROC 281500Z 12005KT 9999 FEW025 BKN250 24/17 A3004 RMK CB DST S BECMG 24006KT=
201103281600 METAR MROC 281600Z 12009KT 9999 FEW025 SCT250 28/17 A3003 RMK CB DST S NOSIG=
201103281700 METAR MROC 281700Z 12012KT 9999 FEW025 SCT250 29/18 A3000 NOSIG=
201103281800 METAR MROC 281800Z 12010KT 9999 FEW025 SCT250 30/17 A2997 NOSIG=
201103281900 METAR MROC 281900Z 16006KT 9999 SCT025 SCT250 31/16 A2993 NOSIG=
201103282000 METAR MROC 282000Z 20006KT 9999 FEW015TCU SCT030 BKN250 29/20 A2990 RMK PCPN DST NE NOSIG=
201103282100 METAR MROC 282100Z 22011KT 9999 FEW020TCU FEW030 BKN090 25/20 A2990 RMK RN DST SW MX WND 16KT BECMG -SHRA=
201103282200 METAR MROC 282200Z 25006KT 9999 FEW030 BKN200 23/21 A2992 RMK FEW070 TCU DST QUAD E BECMG -SHRA=
201103282225 METAR MROC 282225Z 31004KT 9999 FEW030 BKN200 23/21 A2992 RMK FEW070 TCU DST QUAD E BECMG -SHRA=
201103282300 METAR MROC 282300Z VRB02KT 9999 VCSH FEW035 BKN200 23/20 A2993 RMK TCU DST QUAD E RN SE FEW100 BECMG -SHRA=
201103290000 METAR MROC 290000Z 00000KT 9999 FEW030 BKN250 23/20 A2994 RMK TCU DST QUAD E FEW100 NOSIG=
201103290100 METAR MROC 290100Z 00000KT 9999 FEW030 BKN250 23/20 A2996 RMK LGHT BR ARND NOSIG=
201103290200 METAR MROC 290200Z 00000KT 9999 FEW030 BKN250 22/20 A2998 NOSIG=
201103290300 METAR MROC 290300Z 08004KT 9999 FEW030 SCT250 22/18 A3000 NOSIG=
201103290400 METAR MROC 290400Z 10002KT 9999 FEW030 SCT250 21/18 A3001 NOSIG=
201103290500 METAR MROC 290500Z VRB02KT 9999 FEW030 SCT250 21/18 A3001 NOSIG=
201103290600 METAR MROC 290600Z 00000KT 9999 FEW030 SCT250 21/18 A2999 NOSIG=
201103290700 METAR MROC 290700Z 00000KT 9999 FEW030 SCT250 21/17 A2996 NOSIG=
201103290800 METAR MROC 290800Z 12007KT 9999 FEW030 SCT250 22/18 A2995 NOSIG=
201103290900 METAR MROC 290900Z 12011KT 9999 FEW030 SCT250 22/17 A2995 RMK GUST 16KT NOSIG=
201103291000 METAR MROC 291000Z 08003KT 9999 FEW030 SCT250 22/17 A2996 NOSIG=
201103291100 METAR MROC 291100Z 05003KT CAVOK 21/17 A2998 RMK SCT250 NOSIG=
201103291200 METAR MROC 291200Z 04007KT CAVOK 21/17 A2999 RMK SCT250 NOSIG=
201103291300 METAR MROC 291300Z 07005KT CAVOK 23/17 A3002 RMK BKN250 HZ LEVE ARND NOSIG=
201103291400 METAR MROC 291400Z 10008KT CAVOK 26/17 A3003 RMK BKN250 NOSIG=
201103291500 METAR MROC 291500Z 12010KT CAVOK 28/16 A3005 RMK BKN250 NOSIG=
201103291600 METAR MROC 291600Z 11010KT 9999 FEW030 BKN250 29/16 A3004 NOSIG=
201103291700 METAR MROC 291700Z 10009KT 9999 SCT035 SCT250 29/16 A3004 NOSIG=
201103291800 METAR MROC 291800Z 16006KT 9999 FEW025TCU SCT035 30/16 A3001 RMK SCT250 BECMG 24007KT=
201103291900 METAR MROC 291900Z 12010KT 9999 FEW025TCU SCT250 31/17 A2998 RMK RN DST ESE NOSIG=
201103292000 METAR MROC 292000Z 09010KT 9999 SCT035 SCT250 30/16 A2995 RMK HZ SW W NOSIG=
201103292100 METAR MROC 292100Z 23010KT 9999 FEW025TCU SCT035 BKN250 26/21 A2995 RMK HZY BECMG 8000 -RA VCSH=
201103292200 METAR MROC 292200Z 22006KT 9999 FEW030 SCT040 BKN250 25/21 A2996 NOSIG=
201103292300 METAR MROC 292300Z 23005KT 9999 FEW030 SCT150 BKN250 25/21 A2997 RMK HZY NOSIG=
201103300000 METAR MROC 300000Z 00000KT 9999 FEW030 BKN250 23/21 A3000 RMK FEW150 NOSIG=
201103300100 METAR MROC 300100Z 00000KT 9999 FEW035 BKN250 22/22 A3002 RMK FEW150 NOSIG=
201103300200 METAR MROC 300200Z 00000KT 9999 FEW035 SCT250 22/17 A3004 NOSIG=
201103300300 METAR MROC NIL=
201103300400 METAR MROC 300400Z 00000KT CAVOK 21/16 A3008 RMK FEW250 NOSIG=
201103300500 METAR MROC 300500Z 00000KT CAVOK 20/18 A3007 RMK FEW250 NOSIG=
201103300600 METAR MROC 300600Z 11004KT CAVOK 20/16 A3003 RMK FEW250 NOSIG=
201103300700 METAR MROC 300700Z 07005KT CAVOK 20/16 A3000 RMK FEW250 NOSIG=
201103300800 METAR MROC 300800Z 07005KT CAVOK 19/15 A2998 RMK FEW250 NOSIG=
201103300900 METAR MROC 300900Z 09008KT CAVOK 21/16 A2997 RMK FEW250 NOSIG=
201103301000 METAR MROC 301000Z 11011KT CAVOK 22/13 A2997 RMK FEW250 NOSIG=
201103301100 METAR MROC 301100Z 11006KT CAVOK 21/14 A2998 RMK FEW250 NOSIG=
201103301200 METAR MROC 301200Z 09002KT CAVOK 20/13 A3001 RMK BKN250 NOSIG=
201103301300 METAR MROC 301300Z 07005KT CAVOK 22/14 A3004 RMK BKN250 NOSIG=
201103301400 METAR MROC 301400Z 00000KT CAVOK 25/12 A3007 RMK BKN250 NOSIG=
201103301500 METAR MROC 301500Z 12010KT CAVOK 28/09 A3006 RMK SCT250 VEL MAX VTO 17KT NOSIG=
201103301600 METAR MROC 301600Z 11011KT CAVOK 29/09 A3005 RMK FEW250 VEL MAX VTO 17KT NOSIG=
201103301700 METAR MROC 301700Z 10008KT CAVOK 31/07 A3002 RMK FEW250 NOSIG=
201103301800 METAR MROC 301800Z 21008KT 9999 FEW040 SCT250 30/17 A3000 NOSIG=
201103301900 METAR MROC 301900Z 22009KT 9999 SCT040 30/16 A2997 RMK FEW250 LGT HZ ARND NOSIG=
201103302000 METAR MROC 302000Z 22009KT 9999 FEW030TCU SCT040 30/18 A2994 RMK LGT HZ ARND NOSIG=
201103302100 METAR MROC 302100Z 22012KT 210V270 9999 FEW030TCU SCT080 29/19 A2992 NOSIG=
201103302200 METAR MROC 302200Z 22011KT 9999 VCSH FEW030TCU SCT080 29/19 A2992 RMK MX WND 17KT FEW200 RN S SW NOSIG=
201103302300 METAR MROC 302300Z 20009KT 9999 FEW030TCU FEW055 25/20 A2994 RMK RN DST E S SW FEW200 NOSIG=
201103310000 METAR MROC 310000Z 21006KT 9999 FEW030 SCT200 24/21 A2996 RMK TCU DST E SW W RN DST E FEW080 NOSIG=
201103310100 METAR MROC 310100Z 23006KT 9999 FEW030 SCT080 23/21 A2998 RMK LGHT BR ARND NOSIG=
201103310200 METAR MROC 310200Z 21004KT 9999 FEW025 SCT080 22/22 A3001 RMK LGHT BR ARND NOSIG=
201103310300 METAR MROC 310300Z 10004KT CAVOK 25/20 A3001 RMK SCT250 HZ ARND CB DST W BECMG 24006KT=
201103310400 METAR MROC 310400Z 00000KT 8000 2000W BR VCFG FEW001 SCT025 21/21 A3003 NOSIG=
201103310500 METAR MROC 310500Z 00000KT 8000 2000W BCFG FEW001 SCT020 20/20 A3003 NOSIG=
201103310600 METAR MROC 310600Z 00000KT 5000 2000W BR FEW001 SCT020 20/20 A3001 NOSIG=
201103310700 METAR MROC 310700Z 00000KT 9999 2000W BCFG FEW001 SCT020 20/20 A2998 RMK LGHT BR ARND NOSIG=
201103310800 METAR MROC 310800Z 05004KT 9999 BCFG FEW001 19/18 A2997 RMK LGHT BR ARND NOSIG=
201103310900 METAR MROC 310900Z 00000KT 9999 BCFG FEW001 SCT100 18/17 A2995 RMK=
201103311000 METAR MROC 311000Z 00000KT 9999 FEW001 SCT100 18/17 A2996 RMK LGHT BR ARND NOSIG=
201103311100 METAR MROC 311100Z 07004KT 9999 FEW001 SCT100 18/16 A2998 RMK LGHT BR ARND NOSIG=
201103311200 METAR MROC 311200Z 00000KT CAVOK 18/16 A2998 RMK CB DST SW NOSIG=
201103311300 METAR MROC 311300Z 10004KT CAVOK 25/20 A3001 RMK SCT250 HZ ARND CB DST W BECMG 24006KT=
201103311400 METAR MROC 311400Z 00000KT CAVOK 25/17 A3004 RMK BKN300 HZY CB DST W BECMG 24006KT=
201103311500 METAR MROC 311500Z 23002KT 9999 FEW035 SCT250 27/18 A3004 RMK HYZ NOSIG=
201103311600 METAR MROC 311600Z 16004KT 9999 SCT035 SCT300 28/16 A3003 RMK HZY BECMG 24006KT=
201103311700 METAR MROC 311700Z 24006KT 9999 FEW025 SCT035 30/16 A3001 RMK FEW300 HZY NOSIG=
201103311800 METAR MROC 311800Z 21010KT 9999 FEW025 SCT035 31/15 A2998 RMK HZY NOSIG=
201103311900 METAR MROC 311900Z 23011KT 9999 FEW025TCU SCT035 30/18 A2995 RMK TCU SCT ARND HZY NOSIG=
201103312000 METAR MROC 312000Z 22012KT 9999 FEW025TCU SCT035 29/19 A2992 RMK TCU SCT ARND BECMG 8000 VCSH=
201103312100 METAR MROC 312100Z 23011KT 9999 FEW025TCU SCT035 28/19 A2991 RMK HZ ARND=
201103312200 METAR MROC 312200Z 22010KT 9999 FEW025TCU BKN250 26/19 A2992 RMK HZ ARND BECMG 8000 VCSH=
201103312300 METAR MROC 312300Z 24007KT 9999 FEW025 BKN250 ///// A2992 RMK HZ ARND NOSIG=
201104010000 METAR MROC 010000Z 24007KT 9999 FEW030 BKN250 24/20 A2994 RMK HZ ARND NOSIG=
201104010100 METAR MROC 010100Z 00000KT 9999 FEW030 BKN250 23/19 A2997 RMK HZ ARND NOSIG=
201104010200 METAR MROC 010200Z 00000KT 9999 FEW035 BKN250 22/20 A2998 RMK HZ ARND NOSIG=
201104010300 METAR MROC 010300Z 00000KT 9999 FEW035 BKN250 22/20 A3000 RMK HZY NOSIG=
201104010400 METAR MROC 010400Z 00000KT CAVOK 21/21 A3001 RMK BKN250 HZY NOSIG=
201104010500 METAR MROC 010500Z 00000KT 5000 BR SCT008 SCT250 21/21 A3000 NOSIG=
201104010600 METAR MROC 010600Z 00000KT 5000 BR SCT004 BKN010 21/21 A2999 NOSIG=
201104010700 METAR MROC 010700Z 05004KT 8000 VCFG FEW005 SCT010 21/19 A2997 NOSIG=
201104010800 METAR MROC 010800Z 09004KT 9999 FEW020 SCT250 20/18 A2995 RMK HZ ARND=
201104010900 METAR MROC 010900Z 11012KT 9999 FEW030 BKN250 19/16 A2995=
201104010901 METAR MROC 010901Z 11002KT 9999 FEW030 BKN250 19/16 A2995 RMK HZY=
201104011000 METAR MROC 011000Z 08002KT 9999 FEW030 BKN250 18/15 A2995 RMK HZY=
201104011100 METAR MROC 011100Z 08004KT CAVOK 18/14 A2996 RMK BKN250 HZY=
201104011200 METAR MROC 011200Z 08002KT CAVOK 18/15 A2998 RMK FEW120 BKN250 HZY=
201104011300 METAR MROC 011300Z 10004KT CAVOK 21/13 A3000 RMK HZY ARND FEW120 BKN250 BECMG 24006KT=
201104011400 METAR MROC 011400Z 34003KT CAVOK 25/13 A3002 RMK FEW120 BKN250 HZY ARND BECMG 24006KT=
201104011500 METAR MROC 011500Z 28006KT CAVOK 28/11 A3002 RMK HZY FEW120 BKN250 NOSIG=
201104011600 METAR MROC 011600Z 21010KT CAVOK 29/15 A3002 RMK HZY ARND FEW120 BKN250=
201104011700 METAR MROC 011700Z 23008KT CAVOK 30/12 A3001 RMK BKN250 BECMG RMK HZY ARND=
201104011800 METAR MROC 011800Z 23010KT CAVOK 31/17 A2999 RMK HZY ARND BKN250 NOSIG=
201104011900 METAR MROC 011900Z 25011KT 9999 FEW040 BKN250 31/19 A2994 RMK HZY ARND=
201104012000 METAR MROC 012000Z 24012KT 9999 FEW040 BKN250 30/19 A2992 RMK HZY ARND NOSIG=
201104012100 METAR MROC 012100Z 22012KT 9999 FEW025 BKN250 28/21 A2991 RMK HX ARND NOSIG=
201104012200 METAR MROC 012200Z 23012KT 9999 FEW025 BKN250 26/20 A2991 RMK HZ ARND NOSIG=
201104012300 METAR MROC 012300Z 19004KT 9999 SCT025 BKN250 26/21 A2993 RMK HZ ARND NOSIG=
201104020000 METAR MROC 020000Z 00000KT 9999 SCT025 BKN250 24/15 A2995 RMK HZ ARND NOSIG=
201104020100 METAR MROC 020100Z 26003KT 9999 FEW025 SCT250 23/18 A2997 RMK HZ ARND NOSIG=
201104020200 METAR MROC 020200Z 00000KT 9999 FEW025 SCT250 23/18 A3000 RMK HZ ARND NOSIG=
201104020300 METAR MROC 020300Z 08005KT 9999 FEW008 SCT030 21/19 A3001 NOSIG=
201104020400 METAR MROC 020400Z 10005KT 9999 FEW015 SCT070 21/17 A3002 NOSIG=
201104020500 METAR MROC 020500Z 11008KT 9999 FEW030 SCT070 22/17 A3001 NOSIG=
201104020600 METAR MROC 020600Z 11008KT CAVOK 22/16 A2997 RMK FEW120 NOSIG=
201104020700 METAR MROC 020700Z 05007KT CAVOK 20/14 A2997 RMK FEW250 NOSIG=
201104020800 METAR MROC 020800Z 08006KT CAVOK 19/12 A2996 RMK FEW250 NOSIG=
201104020900 METAR MROC 020900Z 06003KT CAVOK 17/12 A2996 RMK FEW250 NOSIG=
201104021000 METAR MROC 021000Z 05005KT CAVOK 16/10 A2997 RMK FEW250 NOSIG=
201104021100 METAR MROC 021100Z 09006KT CAVOK 17/09 A2998 RMK FEW250 NOSIG=
201104021200 METAR MROC 021200Z 08007KT CAVOK 17/09 A2999 RMK SCT250 NOSIG=
201104021300 METAR MROC 021300Z 06003KT CAVOK 21/18 A3002 RMK FEW250 NOSIG=
201104021400 METAR MROC 021400Z 10004KT CAVOK 26/07 A3003 RMK SCT250 NOSIG=
201104021500 METAR MROC 021500Z 00000KT CAVOK 28/07 A3004 RMK SCT250 NOSIG=
201104021600 METAR MROC 021600Z 12006KT CAVOK 30/05 A3002 RMK SCT250 NOSIG=
201104021700 METAR MROC 021700Z 13005KT CAVOK 31/06 A3004 RMK BKN250 NOSIG=
201104021800 METAR MROC 021800Z 24008KT 9999 FEW030 BKN250 31/08 A2998 RMK HZ ARND NOSIG=
201104021900 METAR MROC 021900Z 23013KT 9999 SCT030 BKN250 31/12 A2996 RMK HZ ARND NOSIG=
201104022000 METAR MROC 022000Z 26014KT 9999 SCT030 BKN250 30/16 A2994 RMK HZ ARND NOSIG=
201104022100 METAR MROC 022100Z 25011KT 9999 FEW055 BKN200 28/16 A2993 RMK CB DST SW TCU DST QUAD E LGHT BR ARND NOSIG=
201104022200 METAR MROC 022200Z 23010KT 9999 SCT050 BKN200 28/18 A2993 RMK RN DST S TCU DST QUAD E S LGHT BR ARND NOSIG=
201104022300 METAR MROC 022300Z 21005KT CAVOK 28/19 A2995 RMK RN DST QUAD E S TCU DST QUAD E S LGHT BR ARND NOSIG=
201104022330 METAR MROC 022330Z 13005KT CAVOK 26/17 A2996 RMK RN DST QUAD E S TCU DST QUAD E S LGHT BR ARND NOSIG=
201104030000 METAR MROC 030000Z 15004KT 9999 FEW040 SCT080 25/17 A2998 RMK RN DST QUAD E S TCU DST QUAD E S LGHT BR ARND NOSIG=
201104030100 METAR MROC 030100Z 15005KT 9999 FEW040 SCT090 24/17 A3001 RMK HZ LGT ARND NOSIG=
201104030200 METAR MROC 030200Z 16006KT 9999 FEW040 23/17 A3003 RMK FEW100 HZ LGT ARND NOSIG=
201104030300 METAR MROC 030300Z 10004KT 9999 FEW040 22/17 A3003 NOSIG=
201104030400 METAR MROC 030400Z 10007KT 9999 FEW040 21/16 A3003 NOSIG=
201104030500 METAR MROC 030500Z 12011KT CAVOK 22/16 A3002 RMK FEW250 NOSIG=
201104030600 METAR MROC 030600Z 08006KT CAVOK 21/15 A3000 RMK FEW250 NOSIG=
201104030700 METAR MROC 030700Z 06008KT CAVOK 20/12 A2998 RMK FEW250 NOSIG=
201104030800 METAR MROC 030800Z 05005KT CAVOK 19/11 A2998 NOSIG=
201104030900 METAR MROC 030900Z 09005KT CAVOK 18/12 A2998 NOSIG=
201104031000 METAR MROC 031000Z 08005KT CAVOK 20/14 A2997 NOSIG=
201104031100 METAR MROC 031100Z 10007KT CAVOK 21/13 A2998 NOSIG=
201104031200 METAR MROC 031200Z 10006KT CAVOK 21/10 A2999 RMK GUST 13KT NOSIG=
201104031300 METAR MROC 031300Z 11008KT 080V140 CAVOK 23/11 A3002 NOSIG=
201104031400 METAR MROC 031400Z 13009KT CAVOK 26/16 A3004 RMK MX WND 17KT NOSIG=
201104031500 METAR MROC 031500Z 12010KT CAVOK 28/16 A3005 RMK MX WND 16KT NOSIG=
201104031600 METAR MROC 031600Z 10013G24KT CAVOK 28/16 A3005 RMK TCU DST NE E NOSIG=
201104031634 METAR MROC 031634Z 11009KT CAVOK 30/15 A3003 RMK MX WND 15KT TCU DST NE E NOSIG=
201104031700 METAR MROC 031700Z 11011KT CAVOK 30/16 A3002 RMK MX WND 19KT TCU DST QUAD E SW NOSIG=
201104031728 METAR MROC 031728Z 09012G22KT CAVOK 30/16 A3001 RMK TCU DST QUAD E SW NOSIG=
201104031800 METAR MROC 031800Z 11010G23KT CAVOK 30/16 A3000 RMK TCU DST QUAD E S NOSIG=
201104031900 METAR MROC 031900Z 11008KT 9999 FEW035 BKN080 29/16 A2997 RMK MX WND 16KT TCU DST QUAD E S RN DST E SW NOSIG=
201104032000 METAR MROC 032000Z 07014KT 9999 FEW030 BKN080 27/16 A2995 RMK MX WND 19KT CB RN DST SW TCU DST QUAD E NOSIG=
201104032100 METAR MROC 032100Z 08012KT 9999 FEW035 BKN060 26/15 A2994 RMK VEL MAX VTO 19KT DZ DST NE NOSIG=
201104032200 METAR MROC 032200Z 09015G25KT 9999 FEW035 SCT070 BKN120 26/14 A2993 RMK CB DST SE S DZ NE NOSIG=
201104032300 METAR MROC 032300Z 08015G25KT 9999 FEW035 SCT120 BKN250 25/15 A2994 NOSIG=
201104040000 METAR MROC 040000Z 08012KT 9999 FEW035 SCT120 BKN250 24/15 A2996 RMK VEL MAX VTO 18KT NOSIG=
201104040100 METAR MROC 040100Z 10009KT 9999 FEW035 BKN250 24/16 A3000 NOSIG=
201104040200 METAR MROC 040200Z 09013KT CAVOK 23/15 A2998 RMK BKN250 VEL MAX VTO 19KT NOSIG=
201104040201 METAR MROC 040201Z 09013KT CAVOK 23/15 A2998 RMK BKN250 VEL MAX VTO 19KT NOSIG=
201104040300 METAR MROC 040300Z 10013KT CAVOK 23/14 A3000 RMK SCT250 NOSIG=
201104040400 METAR MROC 040400Z 10011KT CAVOK 22/11 A3002 RMK SCT250 NOSIG=
201104040500 METAR MROC 040500Z 12013G23KT CAVOK 22/15 A3000 RMK SCT250 NOSIG=
201104040600 METAR MROC 040600Z 11010KT CAVOK 21/15 A2999 RMK SCT250 NOSIG=
201104040700 METAR MROC 040700Z 11008KT CAVOK 21/13 A2997 RMK SCT250 NOSIG=
201104040800 METAR MROC 040800Z 12008KT CAVOK 21/13 A2996 RMK SCT250 NOSIG=
201104040900 METAR MROC 040900Z 11016KT CAVOK 20/14 A2995 RMK SCT250 NOSIG=
201104041000 METAR MROC 041000Z 11011KT CAVOK 20/14 A2997 RMK SCT250 NOSIG=
201104041100 METAR MROC 041100Z 12010KT CAVOK 20/13 A2996 RMK SCT250 NOSIG=
201104041200 METAR MROC 041200Z 12013KT CAVOK 20/13 A2992 RMK BKN250 NOSIG=
201104041300 METAR MROC 041300Z 12010KT CAVOK 23/13 A2999 RMK BKN250 NOSIG=
201104041400 METAR MROC 041400Z 13012KT CAVOK 25/13 A3001 RMK BKN250 NOSIG=
201104041500 METAR MROC 041500Z 13012KT CAVOK 27/12 A3001 RMK BKN250 NOSIG=
201104041600 METAR MROC 041600Z 10010KT CAVOK 29/13 A3000 RMK BKN250 VEL MAX VTO 18KT NOSIG=
201104041700 METAR MROC 041700Z 11008KT 9999 FEW035 BKN250 29/13 A2999 BECMG 24006KT=
201104041800 METAR MROC 041800Z 11006KT 9999 FEW035 BKN250 29/11 A2998 NOSIG=
201104041900 METAR MROC 041900Z 15007KT 9999 FEW035 BKN250 30/12 A2996 RMK LGT HZ ARND BECMG 24007KT=
201104042000 METAR MROC 042000Z 21004KT 9999 FEW035 BKN250 29/17 A2994 RMK HZY=
201104042100 METAR MROC 042100Z 23006KT 9999 SCT030 SCT250 27/18 A2993 NOSIG=
201104042200 METAR MROC 042200Z 23009KT 9999 FEW030 BKN250 26/20 A2993 NOSIG=
201104042300 METAR MROC 042300Z 23012KT 9999 SCT020 SCT250 23/20 A2995 NOSIG=
201104050000 METAR MROC 050000Z 23006KT 9999 FEW008 SCT020 SCT250 22/21 A2997 NOSIG=
201104050100 METAR MROC 050100Z 20005KT 9999 FEW010 SCT020 BKN100 22/20 A2998 NOSIG=
201104050200 METAR MROC 050200Z 00000KT 9999 FEW030 BKN100 22/20 A3000 NOSIG=
201104050300 METAR MROC 050300Z 07009KT 9999 FEW030 SCT100 21/17 A3001 RMK LGHT BR ARND NOSIG=
201104050400 METAR MROC 050400Z 10006KT 9999 FEW030 SCT100 21/16 A3002 RMK MX WND 12KT LGHT BR ARND NOSIG=
201104050500 METAR MROC 050500Z 10007KT CAVOK 21/17 A3002 NOSIG=
201104050600 METAR MROC 050600Z 11006KT CAVOK 21/17 A3001 RMK MX WND 11KT LGHT BR ARND NOSIG=
201104050700 METAR MROC 050700Z 08008KT 9999 FEW030 21/17 A2999 RMK MX WND 13KT=
201104050800 METAR MROC 050800Z 08009KT CAVOK 21/17 A2997 RMK LGHT BR ARND LIGHTNG S NOSIG=
201104050900 METAR MROC 050900Z 09006KT CAVOK 21/17 A2997 RMK LGHT BR ARND NOSIG=
201104051000 METAR MROC 051000Z 05006KT CAVOK 19/17 A2997 NOSIG=
201104051100 METAR MROC 051100Z 09004KT CAVOK 20/16 A2998 NOSIG=
201104051200 METAR MROC 051200Z 05007KT CAVOK 19/16 A3000 RMK TCU DST E SW NOSIG=
201104051300 METAR MROC 051300Z 04004KT CAVOK 23/16 A3002 RMK BKN250 NOSIG=
201104051400 METAR MROC 051400Z 09004KT CAVOK 25/17 A3002 RMK BKN250 BECMG 24006KT=
201104051500 METAR MROC 051500Z 12007KT CAVOK 28/17 A3003 RMK BKN250 NOSIG=
201104051600 METAR MROC 051600Z 12011KT 9999 FEW035 BKN250 28/17 A3003 NOSIG=
201104051700 METAR MROC 051700Z 12012KT 9999 FEW035 BKN250 30/17 A3001 RMK FEW100 NOSIG=
201104051800 METAR MROC 051800Z 11011KT 9999 FEW035 BKN250 30/17 A3000 NOSIG=
201104051900 METAR MROC 051900Z 15009KT 9999 SCT030 BKN250 29/17 A2998 NOSIG=
201104052000 METAR MROC 052000Z 22010KT 9999 SCT030 SCT250 28/19 A2996 NOSIG=
201104052100 METAR MROC 052100Z 27004KT 9999 VCSH FEW010CB SCT030 BKN100 25/18 A2996 BECMG 8000 VCSH=
201104052200 METAR MROC 052200Z 21005KT 9999 FEW010 SCT030 BKN100 25/18 A2996 RMK RA ARND BECMG 7000 RA=
201104052300 METAR MROC 052300Z VRB02KT 9999 SCT030 BKN100 24/18 A2996 RMK RA DST N NE E NOSIG=
201104060000 METAR MROC 060000Z 10004KT 9999 FEW030 SCT100 BKN250 23/18 A2999 NOSIG=
201104060100 METAR MROC 060100Z 13007KT 9999 FEW030 SCT100 BKN250 23/17 A3001 NOSIG=
201104060200 METAR MROC 060200Z 08008KT 9999 FEW030 BKN250 23/17 A3002 NOSIG=
201104060300 METAR MROC 060300Z 11006KT 9999 FEW030 BKN250 22/16 A3004 NOSIG=
201104060400 METAR MROC 060400Z 08007KT CAVOK 22/17 A3005 RMK BKN250=
201104060500 METAR MROC 060500Z 10006KT CAVOK 22/17 A3004 RMK BKN250 NOSIG=
201104060600 METAR MROC 060600Z 09005KT CAVOK 22/17 A3003 RMK BKN250 NOSIG=
201104060700 METAR MROC 060700Z 07008KT CAVOK 22/17 A3001 RMK BKN250=
201104060800 METAR MROC 060800Z 11012KT CAVOK 22/17 A2998 RMK FEW100 BKN250=
201104060900 METAR MROC 060900Z 11010KT CAVOK 22/17 A2998 RMK SCT100 SCT250=
201104061000 METAR MROC 061000Z 12011KT CAVOK 222/16 A3000 RMK SCT100 SCT250 VEL MAX VTO 17KT=
201104061100 METAR MROC 061100Z 11011KT CAVOK 22/17 A3000 RMK BKN100 VEL MAX VTO 16KT=
201104061200 METAR MROC 061200Z 12009KT 9999 FEW030 SCT120 BKN250 22/16 A3001 RMK LGT HZ ARND=
201104061300 METAR MROC 061300Z 12013G23KT 9999 FEW030 BKN250 23/15 A3002 RMK FEW120=
201104061400 METAR MROC 061400Z 11013KT 9999 FEW030 SCT110 BKN230 26/15 A3005 NOSIG=
201104061500 METAR MROC 061500Z 11013KT 9999 FEW030 SCT110 BKN250 25/14 A3007 RMK=
201104061600 METAR MROC 061600Z 10015KT CAVOK 26/13 A3007 RMK GUST 23KT SCT120 BKN250 HZ LEVE ARND NOSIG=
201104061700 METAR MROC 061700Z 10014KT CAVOK 26/12 A3006 RMK SCT120 BKN250 GUST 22KT HZ LGT ARND NOSIG=
201104061800 METAR MROC 061800Z 10014KT CAVOK 27/11 A3004 RMK OVC250 GUST 21KT NOSIG=
201104061900 METAR MROC 061900Z 11012KT CAVOK 28/13 A3001 RMK GUST 19KT OVC250 NOSIG=
201104062000 METAR MROC 062000Z 11012KT CAVOK 28/14 A2999 RMK GUST 17KT FEW130 OVC250 NOSIG=
201104062100 METAR MROC 062100Z 11013KT CAVOK 28/11 A2996 RMK FEW130 BKN250 NOSIG=
201104062200 METAR MROC 062200Z 11015KT CAVOK 27/11 A2996 RMK FEW055 BKN250 NOSIG=
201104062300 METAR MROC 062300Z 10012KT 9999 FEW040 SCT130 BKN250 25/14 A2997 NOSIG=
201104070000 METAR MROC 070000Z 10013KT 9999 FEW040 BKN250 24/14 A3000 NOSIG=
201104070100 METAR MROC 070100Z 10010KT CAVOK 23/14 A3002 RMK BKN250 NOSIG=
201104070200 METAR MROC 070200Z 11012KT CAVOK 23/14 A3004 RMK BKN250 NOSIG=
201104070300 METAR MROC 070300Z 08005KT CAVOK 22/14 A3005 RMK BKN250 NOSIG=
201104070400 METAR MROC 070400Z 08008KT CAVOK 21/14 A3006 RMK BKN250 NOSIG=
201104070500 METAR MROC 070500Z 08007KT CAVOK 20/15 A3006 RMK BKN250 NOSIG=
201104070600 METAR MROC 070600Z 10009KT CAVOK 20/15 A3003 RMK BKN250 NOSIG=
201104070700 METAR MROC 070700Z 11007KT CAVOK 21/14 A3002=
201104070800 METAR MROC 070800Z 10007KT CAVOK 21/15 A2999=
201104070900 METAR MROC 070900Z 07006KT CAVOK 20/14 A2997=
201104071000 METAR MROC 071000Z 09007KT CAVOK 21/14 A2997=
201104071100 METAR MROC 071100Z 10007KT CAVOK 21/14 A2998 RMK SCT250 NOSIG=
201104071200 METAR MROC 071200Z 07005KT CAVOK 20/15 A3000 RMK FEW120 FEW250=
201104071300 METAR MROC 071300Z 09004KT CAVOK 23/15 A3003 RMK FEW120 FEW250 NOSIG=
201104071400 METAR MROC 071400Z 14013KT CAVOK 25/15 A3005 NOSIG=
201104071500 METAR MROC 071500Z 12012G24KT CAVOK 26/16 A3005 RMK FEW250 NOSIG=
201104071600 METAR MROC 071600Z 09010KT CAVOK 28/16 A3004 NOSIG=
201104071700 METAR MROC 071700Z 12013KT 9999 SCT040 29/16 A3003 RMK DZ DST NE NOSIG=
201104071800 METAR MROC 071800Z 13011KT 9999 SCT035 28/16 A3000 RMK DZ DST NE NOSIG=
201104071900 METAR MROC 071900Z 12012KT 9999 SCT035 28/16 A2997 RMK RASH DST SW DZ DST NW NE BECMG 8000 VCSH=
201104072000 METAR MROC 072000Z 14003KT 9999 BKN030 25/16 A2995 RMK RA SDT SW DZ DST NE BECMG 24006KT=
201104072100 METAR MROC 072100Z 12009KT 9999 FEW030 BKN090 25/18 A2995 RMK TCU RN DST QUAD E CROSS WND NOSIG=
201104072125 METAR MROC 072125Z 32008KT 9999 FEW030 BKN090 23/19 A2996 RMK TCU RN DST QUAD E CROSS WND NOSIG=
201104072200 METAR MROC 072200Z 22005KT 9999 FEW030 BKN090 23/18 A2997 RMK RN TCU DST QUAD E NOSIG=
201104072228 METAR MROC 072228Z 14006KT 9999 FEW030 BKN090 23/15 A2997 RMK RN TCU DST QUAD E NOSIG=
201104072300 METAR MROC 072300Z 12007KT 9999 FEW030 SCT100 BKN170 22/15 A2997 RMK TCU RN DST QUAD E NOSIG=
201104080000 METAR MROC 080000Z 13010KT 9999 FEW030 SCT100 BKN170 22/15 A2999 RMK TCU DST SW QUAD E MX WND 19KT NOSIG=
201104080100 METAR MROC 080100Z 12010KT 9999 FEW030 SCT100 21/15 A3000 RMK MX WND 17KT NOSIG=
201104080200 METAR MROC 080200Z 12009KT 9999 FEW030 SCT100 21/15 A3002 NOSIG=
201104080300 METAR MROC 080300Z 12006KT 060V140 9999 FEW035 SCT100 BKN250 21/15 A3004 RMK LTNG DST S NOSIG=
201104080400 METAR MROC 080400Z 08009KT 9999 FEW035 SCT100 BKN250 21/15 A3005 NOSIG=
201104080500 METAR MROC 080500Z 08007KT CAVOK 21/15 A3005 RMK SCT100 BKN250 NOSIG=
201104080600 METAR MROC 080600Z 09003KT CAVOK 21/16 A3003 RMK FEW100 BKN250 NOSIG=
201104080700 METAR MROC 080700Z 06006KT CAVOK 21/16 A3000 RMK FEW100 BKN250 NOSIG=
201104080800 METAR MROC 080800Z 09007KT 060V120 CAVOK 21/17 A2998 RMK FEW120 BKN250 NOSIG=
201104080900 METAR MROC 080900Z 06007KT CAVOK 21/17 A2997 RMK BKN250 NOSIG=
201104081000 METAR MROC 081000Z 07006KT CAVOK 21/17 A2996 RMK BKN250 NOSIG=
201104081100 METAR MROC 081100Z 09009KT CAVOK 21/17 A2997 RMK BKN250 NOSIG=
201104081200 METAR MROC 081200Z 12007KT 9999 FEW040 SCT120 BKN250 21/17 A3000 RMK GUST 13KT NOSIG=
201104081300 METAR MROC 081300Z 12008KT 9999 FEW025 BKN120 22/17 A3001 RMK MX WND 14KT FEW080 NOSIG=
201104081344 METAR MROC 081344Z 11009G20KT 9999 FEW025 BKN120 23/17 A3003 RMK TCU DST QUAD E FEW080 NOSIG=
201104081400 METAR MROC 081400Z 12012KT 9999 FEW025 SCT120 23/17 A3003 RMK MX WND 20KT TCU DST QUAD E SCT250 NOSIG=
201104081413 METAR MROC 081413Z 11012KT 9999 FEW025 SCT120 25/17 A3003 RMK MX WND 20KT TCU DST QUAD E SCT250 NOSIG=
201104081445 METAR MROC 081445Z 13013G23KT 9999 FEW025 SCT120 26/17 A3004 RMK TCU DST QUAD E SCT250 NOSIG=
201104081500 METAR MROC 081500Z 12013KT 9999 FEW025 SCT120 25/16 A3004 RMK SCT250 TCU DST QUAD E MX WND 20KT NOSIG=
201104081600 METAR MROC 081600Z 12011G21KT 100V160 9999 FEW025 BKN250 26/17 A3004 RMK TCU DST QUAD E FEW120 NOSIG=
201104081700 METAR MROC 081700Z 11012KT 9999 FEW025 BKN200 27/17 A3002 RMK MX WND 20KT TCU DST QUAD E FEW120 NOSIG=
201104081800 METAR MROC 081800Z 13012KT 9999 FEW035 SCT200 28/17 A3000 RMK GUST 18KT TCU DST QUAD E FEW120 NOSIG=
201104081900 METAR MROC 081900Z 11010KT 9999 FEW035 SCT110 27/16 A2997 RMK GUST 17KT TCU DST QUAD E TCU RN DST SW SCT200 NOSIG=
201104082000 METAR MROC 082000Z 11007KT 9999 -RA FEW030 BKN110 25/17 A2996 RMK TCU DST W NOSIG=
201104082100 METAR MROC 082100Z 12010KT 9999 -RA SCT030 BKN070 23/17 A2997 RMK VEL MAX VTO 19KT NOSIG=
201104082200 METAR MROC 082200Z 12009KT 9999 -DZ SCT030 BKN070 24/16 A2996 RMK RASH DST SW W NW NOSIG=
201104082300 METAR MROC 082300Z 09004KT 9999 FEW030 SCT070 BKN120 24/18 A2997 NOSIG=
201104090000 METAR MROC 090000Z 12007KT 9999 -RA FEW030 SCT070 SCT120 23/15 A2999 NOSIG=
201104090100 METAR MROC 090100Z 12007KT 9999 -RA FEW030 SCT070 BKN120 22/17 A3001 NOSIG=
201104090200 METAR MROC 090200Z 09004KT 9999 FEW030 BKN120 21/17 A3004 RMK LTNG DST S NOSIG=
201104090300 METAR MROC 090300Z 09005KT 9999 FEW030 BKN120 22/16 A3006 RMK LTNG DST S NOSIG=
201104090400 METAR MROC 090400Z 00000KT 9999 FEW030 BKN120 22/17 A3007 RMK LTNG DST S NOSIG=
201104090500 METAR MROC 090500Z 08003KT 9999 FEW030 BKN120 21/17 A3006 RMK LTNG DST S NOSIG=
201104090600 METAR MROC 090600Z 04004KT 9999 SCT030 20/18 A3005 RMK FEW120 NOSIG=
201104090700 METAR MROC 090700Z 04003KT 9999 SCT030 21/17 A3001 NOSIG=
201104090800 METAR MROC 090800Z 23022KT 9999 SCT030 22/17 A2997 NOSIG=
201104090900 METAR MROC 090900Z 13011KT 9999 SCT030 22/17 A2997 NOSIG=
201104091000 METAR MROC 091000Z 13016KT 9999 SCT030 21/17 A2997 NOSIG=
201104091100 METAR MROC 091100Z 10010KT 9999 SCT030 21/17 A2998 NOSIG=
201104091200 METAR MROC 091200Z 11011KT 9999 SCT030 BKN250 22/17 A2999 RMK PCPN DST N NE E NOSIG=
201104091300 METAR MROC 091300Z 12010KT 9999 SCT030 BKN250 22/17 A3002 RMK PCPN DIST N NE NOSIG=
201104091400 METAR MROC 091400Z 10008KT 9999 SCT035 BKN250 24/17 A3006 RMK PCPN DIST N NE NOSIG=
201104091500 METAR MROC 091500Z 13011KT 9999 FEW040 BKN250 25/17 A3006 RMK RN DIST N NE NOSIG=
201104091600 METAR MROC 091600Z 11012KT 9999 FEW030 SCT110 26/17 A3006 RMK RN DIST N NE SCT250 NOSIG=
201104091700 METAR MROC 091700Z 12012KT 9999 SCT030 BKN250 28/17 A3005 RMK RN DIST N NE FEW100 NOSIG=
201104091800 METAR MROC 091800Z 11010KT 9999 SCT030 BKN120 27/17 A3003 RMK RN DIST N NE NOSIG=
201104091900 METAR MROC 091900Z 12009KT 9999 SCT030 BKN140 27/14 A3000 RMK RN DIST N NOSIG=
201104092000 METAR MROC 092000Z 11010KT 9999 FEW030 BKN120 27/15 A2998 RMK PCPN DST N/NE NOSIG=
201104092100 METAR MROC 092100Z 12010KT 9999 FEW030 BKN110 28/14 A2996 RMK DZ DST N NE NOSIG=
201104092200 METAR MROC 092200Z 13009KT 9999 FEW030 BKN120 27/16 A2997 RMK DZ DST N NE E NOSIG=
201104092300 METAR MROC 092300Z 12010KT 9999 FEW030 BKN100 25/17 A2998 RMK RN DST N NE E NOSIG=
201104100000 METAR MROC 100000Z 13010KT 9999 -RA SCT020 BKN100 22/18 A3001 RMK RN DST NE E S NOSIG=
201104100100 METAR MROC 100100Z 12005KT 9999 FEW030 SCT120 22/18 A3003 RMK RERA NOSIG=
201104100200 METAR MROC 100200Z 12006KT 9999 FEW030 SCT120 22/17 A3005 RMK TS DST S NOSIG=
201104100300 METAR MROC 100300Z VRB02KT 9999 FEW030 SCT080 22/18 A3008 NOSIG=
201104100400 METAR MROC 100400Z VRB02KT 9999 FEW030 SCT080 21/18 A3009 NOSIG=
201104100500 METAR MROC 100500Z 07008KT 9999 FEW030 SCT080 21/17 A3008 NOSIG=
201104100600 METAR MROC 100600Z 07004KT 9999 FEW030 SCT100 21/17 A3005 NOSIG=
201104100700 METAR MROC 100700Z 10008KT CAVOK 21/17 A3003 RMK GUST 14KT NOSIG=
201104100800 METAR MROC 100800Z 09007KT CAVOK 21/17 A3002 RMK GUST 12KT NOSIG=
201104100900 METAR MROC 100900Z 09005KT CAVOK 21/16 A3001 RMK GUST 11KT NOSIG=
201104101000 METAR MROC 101000Z 09006KT CAVOK 21/16 A3002 NOSIG=
201104101100 METAR MROC 101100Z 09004KT CAVOK 20/16 A3003 NOSIG=
201104101200 METAR MROC 101200Z 10004KT 9999 FEW020 SCT200 20/15 A3005 RMK TCU DST SW QUAD E NOSIG=
201104101300 METAR MROC 101300Z 11004KT CAVOK 22/16 A3006 RMK BKN250 NOSIG=
201104101400 METAR MROC 101400Z 10005KT CAVOK 24/15 A3008 RMK BKN250 NOSIG=
201104101500 METAR MROC 101500Z 09010KT 9999 FEW030 SCT250 27/14 A3008 NOSIG=
201104101600 METAR MROC 101600Z 11011KT 9999 FEW035 28/13 A3008 NOSIG=
201104101700 METAR MROC 101700Z 11011KT 9999 FEW035 28/14 A3007 NOSIG=
201104101800 METAR MROC 101800Z 13012KT 9999 FEW035 28/15 A3004 NOSIG=
201104101900 METAR MROC 101900Z 12010KT 9999 SCT035 29/16 A3001 NOSIG=
201104102000 METAR MROC 102000Z 13011KT 9999 SCT035 30/16 A2998 NOSIG=
201104102100 METAR MROC 102100Z 12010KT 9999 FEW020 SCT035 26/16 A2998 RMK DZ NE HZ SW NOSIG=
201104102200 METAR MROC 102200Z 13011KT 9999 SCT030 SCT070 24/15 A2998 RMK RA DST SW NOSIG=
201104102300 METAR MROC 102300Z 10011KT 9999 SCT030 SCT070 24/15 A3000 NOSIG=
201104110000 METAR MROC 110000Z 12008KT 9999 FEW030 BKN100 23/16 A3003 NOSIG=
201104110100 METAR MROC 110100Z 12009KT 9999 FEW030 BKN110 22/16 A3007 NOSIG=
201104110200 METAR MROC 110200Z 10006KT 9999 FEW030 SCT100 22/16 A3009 NOSIG=
201104110300 METAR MROC 110300Z 11007KT 9999 FEW030 21/17 A3010 RMK FEW110 NOSIG=
201104110400 METAR MROC 110400Z 10006KT CAVOK 21/16 A3011 RMK SCT250 NOSIG=
201104110500 METAR MROC 110500Z 10007KT CAVOK 21/16 A3010 RMK SCT250 NOSIG=
201104110600 METAR MROC 110600Z 09007KT CAVOK 21/15 A3009 RMK FEW100 SCT250 NOSIG=
201104110700 METAR MROC 110700Z 10005KT CAVOK 20/15 A3005 RMK FEW100 SCT250 NOSIG=
201104110800 METAR MROC 110800Z 12008KT CAVOK 21/14 A3002 RMK FEW250 NOSIG=
201104110900 METAR MROC 110900Z 11007KT CAVOK 21/14 A3002 RMK FEW120=
201104111000 METAR MROC 111000Z 11005KT CAVOK 20/13 A3002 RMK FEW120=
201104111100 METAR MROC 111100Z 09006KT CAVOK 21/13 A3003 RMK FEW120 SCT250=
201104111200 METAR MROC 111200Z 07008KT CAVOK 20/13 A3004 RMK FEW120 SCT250=
201104111300 METAR MROC 111300Z 12013KT CAVOK 22/14 A3005 RMK FEW129 BKN250 NOSIG=
201104111400 METAR MROC 111400Z 13012KT CAVOK 24/14 A3006 RMK FEW120 BKN250 NOSIG=
201104111500 METAR MROC 111500Z 13010KT CAVOK 26/14 A3006 RMK FEW120 BKN250 NOSIG=
201104111600 METAR MROC 111600Z 10013KT 9999 FEW025 BKN250 28/14 A3005 NOSIG=
201104111700 METAR MROC 111700Z 11014KT 9999 FEW025 BKN250 29/14 A3003 NOSIG=
201104111800 METAR MROC 111800Z 09011KT 9999 SCT020 BKN250 30/14 A3001 NOSIG=
201104111900 METAR MROC 111900Z 22006KT 9999 SCT025 BKN250 28/18 A2998 NOSIG=
201104112000 METAR MROC 112000Z 24012KT 9999 SCT025 BKN250 28/19 A2995 RMK RA DST NE NOSIG=
201104112100 METAR MROC 112100Z 24012KT 9999 SCT025 SCT100 28/19 A2994 RMK HZ ARND BECMG 8000 VSH=
201104112200 METAR MROC 112200Z 05015KT 9999 -RA FEW015TCU SCT030 SCT100 21/19 A2997=
201104112300 METAR MROC 112300Z 00000KT 9999 FEW030 SCT100 BKN250 21/20 A2998 RMK HZ ARND NOSIG=
201104120000 METAR MROC 120000Z 31004KT 9999 FEW030 SCT100 BKN250 23/20 A3000 RMK HZ ARND NOSIG=
201104120100 METAR MROC 120100Z 00000KT 9999 FEW030 SCT100 BKN250 22/19 A3003 RMK HZ ARND NOSIG=
201104120200 METAR MROC 120200Z VRB02KT 9999 FEW030 SCT100 BKN250 22/17 A3004 RMK HZ ARND NOSIG=
201104120300 METAR MROC 120300Z 11007KT CAVOK 21/16 A3007 RMK SCT120 LTNG DST S SW NOSIG=
201104120400 METAR MROC 120400Z 08008KT CAVOK 21/16 A3007 RMK SCT120 LTNG DST S SW NOSIG=
201104120500 METAR MROC 120500Z 06007KT CAVOK 20/16 A3005 RMK SCT120 LTNG DST SW NOSIG=
201104120600 METAR MROC 120600Z 13006KT CAVOK 21/16 A3004 RMK FEW100 NOSIG=
201104120700 METAR MROC 120700Z 08004KT CAVOK 20/16 A3004 RMK FEW090 NOSIG=
201104120800 METAR MROC 120800Z 11007KT CAVOK 20/16 A3002 RMK FEW100=
201104120900 METAR MROC 120900Z 08007KT CAVOK 20/16 A3001 RMK FEW120=
201104121000 METAR MROC 121000Z 08006KT CAVOK 19/15 A3002 RMK SCT250=
201104121100 METAR MROC 121100Z 09006KT CAVOK 19/15 A3003 RMK FEW120 SCT250 TCU DST SW=
201104121200 METAR MROC 121200Z 09005KT CAVOK 19/14 A3004 RMK BKN250 TCU DST SW=
201104121300 METAR MROC 121300Z 10011G22KT CAVOK 22/15 A3006 RMK BKN250 NOSIG=
201104121400 METAR MROC 121400Z 12007KT CAVOK 23/16 A3008 RMK BKN250 DZ DST NE NOSIG=
201104121500 METAR MROC 121500Z 09012G22KT CAVOK 25/16 A3007 RMK BKN250 DZ NE NOSIG=
201104121600 METAR MROC 121600Z 10015KT 9999 FEW030 BKN250 26/16 A3007 RMK DZ DST NE NOSIG=
201104121700 METAR MROC 121700Z 11013KT 9999 FEW030 BKN250 27/15 A3004 NOSIG=
201104121800 METAR MROC 121800Z 11010KT 9999 FEW030 SCT300 29/14 A3001 NOSIG=
201104121900 METAR MROC 121900Z 12008KT 9999 SCT030 29/14 A2998 RMK FEW300 NOSIG=
201104122000 METAR MROC 122000Z 22005KT 9999 SCT025 28/17 A2995 NOSIG=
201104122100 METAR MROC 122100Z 19005KT 9999 FEW050 SCT100 26/19 A2994 RMK TCU DST SW QUAD E NOSIG=
201104122200 METAR MROC 122200Z 20006KT 9999 -RA FEW045 SCT100 26/18 A2994 RMK TCU DST S QUAD E CB RN DST SW NOSIG=
201104122300 METAR MROC 122300Z 15005KT 9999 FEW040 BKN100 25/16 A2995 RMK TCU DST QUAD E CB RN DST SW NOSIG=
201104130000 METAR MROC 130000Z VRB02KT 9999 FEW025 SCT090 24/16 A2998 RMK TCU DST QUAD E CB DST S HZ W NOSIG=
201104130100 METAR MROC 130100Z 11005KT 9999 FEW035 SCT100 23/16 A3002 NOSIG=
201104130200 METAR MROC 130200Z 11006KT 9999 FEW035 SCT250 21/16 A3004 NOSIG=
201104130300 METAR MROC 130300Z 11007KT 9999 FEW035 SCT250 21/15 A3007 NOSIG=
201104130400 METAR MROC 130400Z 11005KT CAVOK 20/14 A3009 RMK SCT250 NOSIG=
201104130500 METAR MROC 130500Z 08005KT CAVOK 19/13 A3008 RMK SCT250 NOSIG=
201104130600 METAR MROC 130600Z 09006KT CAVOK 19/12 A3005 RMK FEW250 NOSIG=
201104130700 METAR MROC 130700Z 10004KT CAVOK 19/14 A3005 RMK FEW250 GUST 09KT NOSIG=
201104130800 METAR MROC 130800Z 09007KT CAVOK 18/13 A3001 RMK FEW250 NOSIG=
201104130900 METAR MROC 130900Z 09006KT CAVOK 18/13 A3001 RMK FEW250 NOSIG=
201104131000 METAR MROC 131000Z 08006KT CAVOK 18/13 A3001 RMK FEW250 GUST 12KT NOSIG=
201104131100 METAR MROC 131100Z 07014KT CAVOK 18/11 A3001 NOSIG=
201104131200 METAR MROC 131200Z 08006KT CAVOK 19/10 A3003 RMK GUST 11KT FEW250 NOSIG=
201104131300 METAR MROC 131300Z 07004KT CAVOK 21/12 A3005 RMK GUST 11KT TCU DST E NOSIG=
201104131400 METAR MROC 131400Z 12012KT CAVOK 23/13 A3007 RMK GUST 19KT TCU DST E NOSIG=
201104131500 METAR MROC 131500Z 13012KT CAVOK 24/12 A3008 RMK GUST 19KT TCU DST E NOSIG=
201104131600 METAR MROC 131600Z 12013KT CAVOK 26/13 A3007 RMK GUST 18KT TCU DST E NOSIG=
201104131700 METAR MROC 131700Z 10012KT CAVOK 27/13 A3004 RMK GUST 20KT NOSIG=
201104131800 METAR MROC 131800Z 10010KT CAVOK 28/14 A3001 RMK GUST 16KT NOSIG=
201104131900 METAR MROC 131900Z 10009KT CAVOK 29/13 A2999 RMK GUST 16KT NOSIG=
201104132000 METAR MROC 132000Z 12009KT CAVOK 29/14 A2996 RMK GUST 17KT NOSIG=
201104132100 METAR MROC 132100Z 12009KT 9999 FEW045 29/13 A2994 RMK LGT HZ ARND BECMG 24006KT=
201104132200 METAR MROC 132200Z 12009KT 9999 FEW040 28/14 A2994 RMK LGT HZ ARND BECMG 24006KT=
201104132300 METAR MROC 132300Z 12010KT 9999 FEW035 25/14 A2995 RMK LGT HZ ARND NOSIG=
201104140000 METAR MROC 140000Z 11008KT 9999 FEW035 23/14 A2998 RMK FEW300 LGT HZ ARND NOSIG=
201104140100 METAR MROC 140100Z 13007KT 9999 FEW035 21/14 A3000 RMK FEW300 NOSIG=
201104140200 METAR MROC 140200Z 10007KT 9999 FEW035 21/14 A3002 RMK FEW300 NOSIG=
201104140300 METAR MROC 140300Z 10005KT 9999 FEW035 20/13 A3004 NOSIG=
201104140400 METAR MROC 140400Z 11010KT 9999 FEW035 20/12 A3004 NOSIG=
201104140500 METAR MROC 140500Z 11011KT 9999 FEW035 20/12 A3004 NOSIG=
201104140600 METAR MROC 140600Z 10010KT 9999 FEW035 19/12 A3002 NOSIG=
201104140700 METAR MROC 140700Z 11011KT CAVOK 19/10 A3000 RMK FEW060 NOSIG=
201104140800 METAR MROC 140800Z 07009KT CAVOK 19/08 A2998 RMK FEW060 NOSIG=
201104140900 METAR MROC 140900Z 10007KT CAVOK 19/10 A2997 RMK FEW060 NOSIG=
201104141000 METAR MROC 141000Z 08012KT CAVOK 18/09 A2998 RMK FEW060 NOSIG=
201104141100 METAR MROC 141100Z 09008KT CAVOK 18/11 A2999 RMK FEW060 NOSIG=
201104141200 METAR MROC 141200Z 08012KT CAVOK 18/09 A3001 RMK SCT300 NOSIG=
201104141300 METAR MROC 141300Z 09008KT CAVOK 21/10 A3003 RMK SCT300 VEL MAX VTO 16KT NOSIG=
201104141400 METAR MROC 141400Z 11010KT CAVOK 24/11 A3004 RMK SCT300 VEL MAX VTO 18KT NOSIG=
201104141500 METAR MROC 141500Z 12012KT CAVOK 25/11 A3004 RMK SCT300 NOSIG=
201104141600 METAR MROC 141600Z 11011KT CAVOK 27/10 A3003 RMK FEW120 SCT300 VEL MAX VTO 17KT NOSIG=
201104141700 METAR MROC 141700Z 12010KT CAVOK 28/11 A3001 RMK FEW300 VEL MAX VTO 17KT NOSIG=
201104141800 METAR MROC 141800Z 12010KT 9999 FEW045 29/12 A2998 RMK FEW300 NOSIG=
201104141900 METAR MROC 141900Z 10008KT 9999 FEW045 29/11 A2995 RMK VEL MAX VTO 13KT NOSIG=
201104142000 METAR MROC 142000Z 12009KT 9999 FEW045 29/12 A2992 RMK VEL MAX VTO 16KT NOSIG=
201104142100 METAR MROC 142100Z 13010KT 9999 SCT035 28/12 A2991 NOSIG=
201104142200 METAR MROC 142200Z 12008KT 9999 FEW040 28/13 A2991 NOSIG=
201104142300 METAR MROC 142300Z 11008KT 9999 FEW035 25/14 A2992 NOSIG=
201104150000 METAR MROC 150000Z 12006KT 9999 FEW035 24/14 A2994 NOSIG=
201104150100 METAR MROC 150100Z 11008KT CAVOK 22/13 A2996 NOSIG=
201104150200 METAR MROC 150200Z 11006KT CAVOK 21/12 A2999 RMK FEW080 NOSIG=
201104150300 METAR MROC 150300Z 08005KT CAVOK 20/12 A3000 NOSIG=
201104150400 METAR MROC 150400Z 09007KT CAVOK 20/12 A3001 NOSIG=
201104150500 METAR MROC 150500Z 09005KT CAVOK 20/13 A3001 NOSIG=
201104150600 METAR MROC 150600Z 08005KT CAVOK 19/12 A2999 NOSIG=
201104150700 METAR MROC 150700Z 09004KT CAVOK 20/11 A2998 NOSIG=
201104150800 METAR MROC 150800Z 08004KT CAVOK 19/11 A2997 NOSIG=
201104150900 METAR MROC 150900Z 08007KT CAVOK 19/10 A2997 NOSIG=
201104151000 METAR MROC 151000Z 09007KT CAVOK 19/11 A2997 NOSIG=
201104151100 METAR MROC 151100Z 08008KT CAVOK 19/11 A2999 NOSIG=
201104151200 METAR MROC 151200Z 09006KT CAVOK 19/12 A3000 NOSIG=
201104151300 METAR MROC 151300Z 08006KT CAVOK 22/12 A3002 RMK FEW120 SCT250 HZ LEVE ARND NOSIG=
201104151400 METAR MROC 151400Z 10007KT CAVOK 25/12 A3003 RMK FEW120 SCT250 HZ ARND NOSIG=
201104151500 METAR MROC 151500Z 00000KT 9999 FEW035 SCT250 26/12 A3002 BECMG 24010KT RMK HZ ARND=
201104151600 METAR MROC 151600Z 21007KT 9999 FEW030 SCT250 28/14 A3001 NOSIG=
201104151700 METAR MROC 151700Z 19005KT 9999 FEW035 SCT250 28/14 A2999 RMK HZ ARND NOSIG=
201104151800 METAR MROC 151800Z 25010KT 9999 SCT030 30/16 A2996 RMK HZ ARND NOSIG=
201104151900 METAR MROC 151900Z 25011KT 9999 SCT030 30/16 A2994 RMK HZ ARND NOSIG=
201104152000 METAR MROC 152000Z 24010KT 9999 FEW025TCU SCT035 BKN250 30/16 A2992 RMK HZ ARND NOSIG=
201104152100 METAR MROC 152100Z 23014KT 9999 FEW015TCU SCT035 BKN250 28/17 A2991 RMK HZ ARND NOSIG=
201104152200 METAR MROC 152200Z 23012KT 9999 FEW015TCU SCT035 BKN250 26/18 A2992 RMK HZ ARND RA E SE NOSIG=
201104152300 METAR MROC 152300Z 25009KT 9999 FEW015TCU SCT035 BKN250 25/18 A2993 RMK HZ ARND RA E SE NOSIG=
201104160000 METAR MROC 160000Z 23008KT 9999 FEW015 BKN035 23/18 A2996 RMK RA E SE HZ ARND NOSIG=
201104160100 METAR MROC 160100Z 16004KT 9999 FEW020 BKN025 23/19 A2998 RMK HZ ARND FU SE NOSIG=
201104160200 METAR MROC 160200Z 11004KT 9999 BKN025 21/19 A3001 BECMG 07005KT 9999 SCT025=
201104160300 METAR MROC 160300Z 11004KT 9999 SCT025 SCT045 21/18 A3003 NOSIG=
201104160400 METAR MROC NIL=
201104160500 METAR MROC 160500Z 11004KT CAVOK 19/17 A3003 RMK SCT300 NOSIG=
201104160600 METAR MROC 160600Z 11003KT CAVOK 19/16 A3001 RMK SCT300 NOSIG=
201104160700 METAR MROC 160700Z 08005KT CAVOK 19/16 A2999 RMK SCT300 NOSIG=
201104160800 METAR MROC 160800Z 10003KT CAVOK 19/15 A2999 RMK SCT300=
201104160900 METAR MROC 160900Z 09005KT CAVOK 18/15 A2998 RMK SCT300=
201104161000 METAR MROC 161000Z 09005KT CAVOK 19/15 A2998 RMK SCT300=
201104161100 METAR MROC 161100Z 06005KT CAVOK 18/14 A3001 RMK SCT300=
201104161200 METAR MROC 161200Z 09003KT CAVOK 17/14 A3002 RMK FEW120 SCT300 LGT HZ ARND=
201104161300 METAR MROC 161300Z 09004KT CAVOK 22/14 A3004 RMK SCT250 NOSIG=
201104161400 METAR MROC 161400Z 09004KT CAVOK 25/14 A3006 RMK SCT250 BECMG 24006KT=
201104161500 METAR MROC 161500Z 13005KT 9999 FEW030 SCT250 27/14 A3006 NOSIG=
201104161600 METAR MROC 161600Z 14007KT 9999 FEW030 SCT250 29/12 A3004 NOSIG=
201104161700 METAR MROC 161700Z 07006KT 9999 FEW030 29/14 A3002 RMK BECMG 24006KT FU S=
201104161800 METAR MROC 161800Z 11007KT 9999 SCT030 30/12 A3000 RMK HZ LGT ARND NOSIG=
201104161900 METAR MROC 161900Z 15008KT 9999 SCT025 30/12 A2995 RMK HZ LGT ARND NOSIG=
201104162000 METAR MROC 162000Z 22003KT 9999 SCT025 29/13 A2992 RMK HZ LGT ARND NOSIG=
201104162100 METAR MROC 162100Z 13007KT 9999 SCT025TCU 28/15 A2991 RMK BECMG 7000 RA=
201104162200 METAR MROC 162200Z 11007KT 9999 SCT025 27/15 A2991 NOSIG=
201104162300 METAR MROC 162300Z 11006KT 9999 SCT025 26/15 A2992 NOSIG=
201104170000 METAR MROC 170000Z 12006KT 9999 SCT025 24/16 A2995 NOSIG=
201104170100 METAR MROC 170100Z 14007KT CAVOK 23/17 A2996 RMK SCT250 HZ ARND NOSIG=
201104170200 METAR MROC 170200Z 11006KT CAVOK 22/17 A3000 NOSIG=
201104170300 METAR MROC 170300Z 10006KT CAVOK 22/17 A3001 NOSIG=
201104170400 METAR MROC 170400Z 07005KT CAVOK 20/17 A3003 NOSIG=
201104170500 METAR MROC 170500Z 12005KT CAVOK 20/15 A3003 NOSIG=
201104170600 METAR MROC 170600Z 07008KT CAVOK 19/15 A3001 NOSIG=
201104170700 METAR MROC 170700Z 06007KT CAVOK 20/16 A3000 RMK SCT100 NOSIG=
201104170800 METAR MROC 170800Z 07006KT 9999 FEW035 SCT100 20/16 A2999=
201104170900 METAR MROC 170900Z 09005KT CAVOK 20/14 A2997 RMK SCT250=
201104171000 METAR MROC 171000Z 09006KT CAVOK 20/15 A2998 RMK SCT250=
201104171100 METAR MROC 171100Z 10005KT CAVOK 20/16 A2999 RMK FEW250=
201104171200 METAR MROC 171200Z 07005KT CAVOK 20/15 A3001 RMK BKN100=
201104171300 METAR MROC 171300Z 11004KT CAVOK 22/15 A3003 RMK BKN100 NOSIG=
201104171400 METAR MROC 171400Z 11007KT CAVOK 25/15 A3004 RMK BKN250 NOSIG=
201104171500 METAR MROC 171500Z 13008KT 9999 FEW030 BKN250 27/14 A3004 NOSIG=
201104171600 METAR MROC 171600Z 11010KT 9999 FEW030 BKN250 28/15 A3003 RMK HZ ARND LGT NOSIG=
201104171700 METAR MROC 171700Z 12010KT 9999 SCT025 SCT250 29/14 A3002 RMK HZ ARND LGT NOSIG=
201104171800 METAR MROC 171800Z 22008KT 9999 SCT025TCU SCT250 30/16 A3001 RMK HZ ARND LGT NOSIG=
201104171900 METAR MROC 171900Z 23016KT 9999 SCT020TCU SCT250 29/18 A2998 RMK HZ ARND NOSIG=
201104172000 METAR MROC 172000Z 20007KT 9999 BKN025 25/19 A2996 RMK HZ ARND BECMG 6000 -SHRA=
201104172100 METAR MROC 172100Z 22008KT 9999 FEW050 SCT080 27/18 A2993 RMK BECMG 6000 -SHRA LGHT BR ARND=
201104172200 METAR MROC 172200Z 13009KT 9999 FEW050 BKN100 23/17 A2993 RMK TCU RN SW NOSIG=
201104172214 METAR MROC 172214Z 13006KT 9999 -RA FEW050 BKN100 22/16 A2994 RMK TCU SW NOSIG=
201104172300 METAR MROC 172300Z 12012KT 9999 FEW030 BKN110 22/15 A2995 RMK GUST 20KT CB DST SW WET RWY NOSIG=
201104172343 METAR MROC 172343Z 12014G25KT 9999 FEW030 BKN110 22/14 A2998 RMK CB DST SW WET RWY NOSIG=
201104180000 METAR MROC 180000Z 12014KT 9999 FEW030 BKN110 21/13 A2999 RMK GUST 21KT NOSIG=
201104180100 METAR MROC 180100Z 12010KT 9999 FEW030 BKN110 21/14 A3001 NOSIG=
201104180200 METAR MROC 180200Z 12009KT 9999 FEW030 BKN110 21/14 A3003 NOSIG=
201104180300 METAR MROC 180300Z 12007KT CAVOK 21/14 A3004 RMK BKN110 NOSIG=
201104180400 METAR MROC 180400Z 12009KT CAVOK 21/14 A3005 RMK BKN110 NOSIG=
201104180500 METAR MROC 180500Z 10006KT 070V130 CAVOK 22/14 A3004 RMK BKN110 GUST 11KT NOSIG=
201104180600 METAR MROC 180600Z 11006KT CAVOK 21/13 A3003 RMK BKN110 NOSIG=
201104180700 METAR MROC 180700Z 07006KT CAVOK 20/13 A3001 RMK BKN110 NOSIG=
201104180800 METAR MROC 180800Z 08007KT CAVOK 20/13 A2998 RMK SCT120 NOSIG=
201104180900 METAR MROC 180900Z 05006KT CAVOK 19/12 A2999 RMK SCT120 NOSIG=
201104181000 METAR MROC 181000Z 06006KT CAVOK 19/13 A2999 RMK SCT120 NOSIG=
201104181100 METAR MROC 181100Z 08005KT CAVOK 18/13 A3000 NOSIG=
201104181200 METAR MROC 181200Z 11006KT CAVOK 19/14 A3002 NOSIG=
201104181300 METAR MROC 181300Z 09005KT CAVOK 22/15 A3004 NOSIG=
201104181400 METAR MROC 181400Z 12007KT CAVOK 25/15 A3005 RMK GUST 15KT NOSIG=
201104181500 METAR MROC 181500Z 11004KT CAVOK 25/15 A3007 NOSIG=
201104181600 METAR MROC 181600Z 25006KT CAVOK 27/15 A3006 RMK GUST 11KT NOSIG=
201104181700 METAR MROC NIL=
201104181800 METAR MROC 181800Z 24008KT 9999 SCT050 29/17 A3003 RMK GUST 13KT NOSIG=
201104181900 METAR MROC 181900Z 22012KT 9999 SCT050 29/17 A3000 NOSIG=
201104182000 METAR MROC 182000Z 24010KT 9999 FEW050 BKN070 28/19 A2998 RMK TCU SW S NOSIG=
201104182100 METAR MROC 182100Z 26014KT 9999 VCSH FEW025TCU SCT035 28/17 A2996 RMK PCPN S SW HZY BECMG 6000 -SHRA=
201104182200 METAR MROC 182200Z 19007KT 9999 SCT030 SCT250 24/18 A2998 RMK HZ LGT N PCPN DST SE BECMG 8000=
201104182300 METAR MROC 182300Z 19004KT 9999 FEW025 SCT040 23/19 A2999 RMK BKN100 PCPN DST N HZ LGT ARND NOSIG=
201104182301 METAR MROC 182301Z 19004KT 9999 FEW025 SCT040 23/19 A2999 RMK FEW100 PCPN DST N HZ LGT ARND NOSIG=
201104190000 METAR MROC 190000Z 18003KT 9999 FEW025 SCT040 BKN250 23/18 A3001 RMK HZY NOSIG=
201104190100 METAR MROC 190100Z 23004KT 9999 SCT025 SCT040 23/20 A3003 RMK HZY NOSIG=
201104190101 METAR MROC 190101Z 23004KT 9999 SCT025 SCT040 23/20 A3003 RMK HZY NOSIG=
201104190200 METAR MROC 190200Z 23005KT 9999 FEW025 SCT040 22/19 A3004 RMK HZY NOSIG=
201104190300 METAR MROC 190300Z 00000KT 9999 FEW030 SCT045 21/20 A3008 NOSIG=
201104190400 METAR MROC 190400Z 00000KT 9999 FEW030 SCT070 21/20 A3008 NOSIG=
201104190500 METAR MROC 190500Z 10002KT 9999 FEW030 SCT070 21/20 A3007 NOSIG=
201104190600 METAR MROC 190600Z 11006KT 9999 FEW030 SCT080 21/17 A3005 NOSIG=
201104190700 METAR MROC 190700Z 12009KT 9999 FEW030 SCT080 21/17 A3004 NOSIG=
201104190800 METAR MROC 190800Z 08007KT 9999 FEW030 SCT080 20/16 A3002 NOSIG=
201104190900 METAR MROC 190900Z 09007KT CAVOK 20/16 A3001 NOSIG=
201104191000 METAR MROC 191000Z 10008KT CAVOK 20/16 A3002 NOSIG=
201104191100 METAR MROC 191100Z 08008KT CAVOK 20/15 A3003 NOSIG=
201104191200 METAR MROC 191200Z 05004KT CAVOK 20/15 A3004 RMK SCT250 NOSIG=
201104191300 METAR MROC 191300Z 07006KT CAVOK 22/16 A3007 RMK BKN300 NOSIG=
201104191400 METAR MROC 191400Z 11008KT CAVOK 25/15 A3008 RMK BKN300 NOSIG=
201104191500 METAR MROC 191500Z 11008KT CAVOK 27/18 A3008 RMK SCT300 HZ LGT ARND BECMG 24010KT=
201104191600 METAR MROC 191600Z 12009KT 9999 FEW035 SCT300 28/15 A3007 RMK HZ LGT ARND BECMG 24010KT=
201104191700 METAR MROC 191700Z 13009KT 9999 SCT045 SCT300 29/15 A3006 RMK HZ LGT ARND BECMG 24010KT=
201104191800 METAR MROC 191800Z 10008KT 9999 BKN045 29/15 A3004 RMK FEW300 HZ LGT ARND NOSIG=
201104191801 METAR MROC 191801Z 16005KT 9999 BKN045 28/15 A3004 RMK HZY FEW300 BECMG 24008KT=
201104191900 METAR MROC 191900Z 25007KT 9999 FEW030TCU SCT045 28/18 A3001 RMK HZY NOSIG=
201104192000 METAR MROC 192000Z 20008KT 9999 -DZ VCTS VCSH FEW015CB SCT025 BKN120 24/19 A3000 RMK SH TO SW TS W NOSIG=
201104192100 METAR MROC 192100Z 21007KT 9999 SCT025 SCT250 23/19 A2999 RMK RN DST SW NOSIG=
201104192200 METAR MROC 192200Z 00000KT 9999 FEW035 SCT100 23/19 A3000 RMK RN DST SW SCT250 NOSIG=
201104192300 METAR MROC 192300Z 32007KT 9999 0800N R07/1300 RA BR BKN020 SCT080 21/20 A3001 RMK VIS 1200SW BECMG 5000 -RA BR=
201104200000 METAR MROC 200000Z 24003KT 9999 4000SW -RA BR FEW006 SCT030 BKN090 21/21 A3003 NOSIG=
201104200100 METAR MROC 200100Z 00000KT 9999 -DZ VCFG SCT030 BKN090 20/20 A3005 RMK VIS 8000 W NOSIG=
201104200200 METAR MROC 200200Z 00000KT 9999 -DZ FEW030 BKN100 21/20 A3005 NOSIG=
201104200300 METAR MROC 200300Z 00000KT CAVOK 21/20 A3007 NOSIG=
201104200400 METAR MROC 200400Z 09005KT CAVOK 21/14 A3008 NOSIG=
201104200500 METAR MROC 200500Z 09004KT CAVOK 20/14 A3008 NOSIG=
201104200600 METAR MROC 200600Z 09005KT CAVOK 19/14 A3004 NOSIG=
201104200700 METAR MROC 200700Z 08005KT CAVOK 19/14 A3004 NOSIG=
201104200800 METAR MROC 200800Z VRB02KT CAVOK 18/14 A3003 NOSIG=
201104200900 METAR MROC 200900Z 07006KT CAVOK 19/14 A3002 NOSIG=
201104201000 METAR MROC 201000Z 06005KT CAVOK 18/14 A3002 NOSIG=
201104201100 METAR MROC 201100Z 08006KT CAVOK 18/14 A3003 NOSIG=
201104201200 METAR MROC 201200Z 08007KT CAVOK 19/13 A3003 NOSIG=
201104201300 METAR MROC 201300Z 06005KT CAVOK 20/14 A3005 RMK FEW100 BKN250 BECMG 24006KT=
201104201400 METAR MROC 201400Z 00000KT CAVOK 23/16 A3008 RMK BKN250 BECMG 24006KT=
201104201500 METAR MROC 201500Z 03004KT CAVOK 26/14 A3007 RMK BKN250 BECMG 24006KT=
201104201600 METAR MROC 201600Z 12007KT CAVOK 28/12 A3006 RMK BKN250 BECMG 24006KT=
201104201700 METAR MROC 201700Z 12009KT CAVOK 28/14 A3005 RMK BKN250 NOSIG=
201104201800 METAR MROC 201800Z 13009KT 9999 FEW040 SCT250 29/14 A3003 BECMG 24006KT=
201104201900 METAR MROC 201900Z 20008KT 9999 FEW020TCU SCT035 28/17 A3001 NOSIG=
201104202000 METAR MROC 202000Z 22009KT 9999 FEW020TCU SCT035 28/17 A2998 RMK BECMG 8000 VCSH NOSIG=
201104202100 METAR MROC 202100Z 21008KT 9999 FEW015TCU BKN035 27/18 A2996 RMK HZ ARND NOSIG=
201104202200 METAR MROC 202200Z 20006KT 9999 FEW015TCU BKN035 25/19 A2996 RMK HZY ARND NOSIG=
201104202300 METAR MROC 202300Z 21006KT 9999 FEW015TCU BKN035 25/20 A2998 RMK HZY ARND RA E=
201104210000 METAR MROC 210000Z 22004KT 9999 FEW015 BKN035 24/20 A2999 RMK HZY ARND RA NE E NOSIG=
201104210100 METAR MROC 210100Z 30006KT 9999 FEW015 BKN035 23/18 A3000 RMK HZ ARND NOSIG=
201104210200 METAR MROC 210200Z 00000KT 9999 SCT030 BKN100 22/18 A3003 RMK HZ ARND NOSIG=
201104210300 METAR MROC 210300Z 11005KT 9999 SCT025 BKN120 22/17 A3004 RMK HZ LGT ARND NOSIG=
201104210400 METAR MROC 210400Z 09007KT 9999 FEW035 BKN120 21/16 A3006 RMK HZ LGT NOSIG=
201104210500 METAR MROC 210500Z 10005KT CAVOK 21/16 A3005 RMK BKN120 NOSIG=
201104210600 METAR MROC 210600Z 10009KT CAVOK 21/15 A3004 RMK BKN120 NOSIG=
201104210700 METAR MROC 210700Z 10008KT CAVOK 21/14 A3003 RMK BKN120 NOSIG=
201104210800 METAR MROC 210800Z 000000KT 9999 FEW030 21/15 A3000 NOSIG=
201104210900 METAR MROC 210900Z 06005KT CAVOK 20/14 A2999 RMK FEW120 BKN180 NOSIG=
201104211000 METAR MROC 211000Z 05007KT CAVOK 19/14 A2999 RMK FEW120 BKN180 NOSIG=
201104211100 METAR MROC 211100Z 08004KT CAVOK 18/13 A2999 RMK FEW120 BKN180 NOSIG=
201104211200 METAR MROC 211200Z 00000KT CAVOK 19/13 A3001 RMK FEW120 BKN250 HZ LGT ARND NOSIG=
201104211300 METAR MROC 211300Z 05006KT CAVOK 21/12 A3003 RMK FEW120 BKN250 HZ LGT ARND NOSIG=
201104211400 METAR MROC 211400Z 00000KT CAVOK 23/13 A3004 RMK BKN250 HZY LGT ARND NOSIG=
201104211500 METAR MROC 211500Z 00000KT CAVOK 26/13 A3003 RMK BKN250 HZY LGT ARND BECMG 24006KT=
201104211600 METAR MROC 211600Z 13004KT CAVOK 28/09 A3003 RMK BKN250 HZ LGT ARND BECMG 24006=
201104211700 METAR MROC 211700Z 24011KT CAVOK 27/18 A3002 RMK BKN250 HZ LGT ARND=
201104211800 METAR MROC 211800Z 22008KT 180V240 9999 FEW040 BKN250 27/17 A3001 RMK HZY LGT ARND NOSIG=
201104211900 METAR MROC 211900Z 25010KT 9999 FEW040 BKN250 29/18 A2998 RMK HZ LGT ARND NOSIG=
201104212000 METAR MROC 212000Z 25013KT 9999 SCT040 BKN250 27/19 A2997 RMK HZY ARND=
201104212100 METAR MROC 212100Z 25013KT 9999 SCT020 BKN250 27/20 A2996 RMK HZ ARND PCPN DST NE=
201104212200 METAR MROC 212200Z 23008KT 9999 SCT020TCU BKN250 25/20 A2996 RMK HZ ARND PCPN DST NE NOSIG=
201104212300 METAR MROC 212300Z 22005KT 9999 SCT020 BKN100 24/19 A2998 NOSIG=
201104220000 METAR MROC 220000Z 00000KT 9999 SCT025 BKN100 23/19 A3001 NOSIG=
201104220100 METAR MROC 220100Z 22005KT 9999 SCT025 BKN100 22/20 A3001 RMK HZY ARND NOSIG=
201104220200 METAR MROC 220200Z 00000KT 9999 SCT030 BKN250 21/20 A3002 RMK LTNG DST S HZY ARND NOSIG=
201104220300 METAR MROC 220300Z 00000KT 9999 FEW030 SCT100 20/19 A3004 NOSIG=
201104220400 METAR MROC NIL=
201104220500 METAR MROC 220500Z 11005KT CAVOK 20/16 A3004 RMK FEW120 NOSIG=
201104220600 METAR MROC 220600Z 09005KT CAVOK 20/15 A3003 RMK SCT250 NOSIG=
201104220700 METAR MROC 220700Z 10006KT CAVOK 20/16 A3001 RMK SCT250 NOSIG=
201104220800 METAR MROC 220800Z 10007KT CAVOK 20/14 A2998 RMK SCT250=
201104220900 METAR MROC 220900Z 09007KT CAVOK 20/14 A2998 RMK SCT250=
201104221000 METAR MROC 221000Z 08004KT CAVOK 19/14 A2998=
201104221100 METAR MROC 221100Z 09007KT CAVOK 19/13 A2999=
201104221200 METAR MROC 221200Z 08006KT CAVOK 18/14 A3001 RMK SCT250=
201104221300 METAR MROC 221300Z 00000KT CAVOK 22/14 A3003 RMK CB DST SW FEW250 NOSIG=
201104221400 METAR MROC 221400Z 11006KT CAVOK 24/14 A3005 RMK CB DST SW SCT250 NOSIG=
201104221500 METAR MROC 221500Z 14009KT CAVOK 26/13 A3005 RMK CB DST SW SCT250 NOSIG=
201104221600 METAR MROC 221600Z 14010KT 9999 FEW030 28/12 A3004 RMK CB DST SW FEW250 NOSIG=
201104221700 METAR MROC 221700Z 11007KT 9999 SCT030 29/12 A3003 RMK FEW250 NOSIG=
201104221800 METAR MROC 221800Z 26010KT 9999 SCT025 SCT250 28/17 A3001 NOSIG=
201104221900 METAR MROC 221900Z 24004KT 9999 SCT025TCU 22/18 A2998 RMK FEW250 NOSIG=
201104222000 METAR MROC 222000Z 22008KT 9999 SCT025TCU 27/18 A2995 RMK FEW250 NOSIG=
201104222100 METAR MROC 222100Z 22010KT 9999 FEW025TCU SCT100 28/20 A2994 RMK FEW250 NOSIG=
201104222200 METAR MROC 222200Z 22009KT 9999 FEW025 SCT080 25/20 A2993 RMK SCT250=
201104222300 METAR MROC 222300Z 21007KT 9999 FEW030 SCT080 23/20 A2995 RMK FEW250 NOSIG=
201104230000 METAR MROC 230000Z 23005KT 9999 FEW030 BKN080 23/19 A2997 NOSIG=
201104230100 METAR MROC 230100Z 23005KT 9999 FEW030 BKN080 22/19 A2999 NOSIG=
201104230200 METAR MROC 230200Z 27004KT 9999 FEW030 BKN080 22/20 A3001 NOSIG=
201104230300 METAR MROC 230300Z 32003KT 9999 FEW030 BKN080 22/20 A3003 NOSIG=
201104230400 METAR MROC 230400Z VRB02KT 9999 FEW030 BKN080 21/17 A3005 NOSIG=
201104230500 METAR MROC 230500Z 11006KT 9999 FEW030 BKN080 21/15 A3003 NOSIG=
201104230600 METAR MROC 230600Z 12006KT CAVOK 20/15 A3002 RMK SCT100 NOSIG=
201104230700 METAR MROC 230700Z 08006KT CAVOK 20/15 A3001 RMK SCT100 NOSIG=
201104230800 METAR MROC 230800Z 08006KT CAVOK 19/14 A3000 RMK SCT100 NOSIG=
201104230900 METAR MROC 230900Z 08006KT CAVOK 19/14 A2999 RMK SCT100 NOSIG=
201104231000 METAR MROC 231000Z 07005KT CAVOK 18/13 A3000 RMK FEW120 NOSIG=
201104231100 METAR MROC 231100Z 08005KT CAVOK 18/13 A3001 RMK FEW120 NOSIG=
201104231200 METAR MROC 231200Z 08007KT CAVOK 18/13 A3002 NOSIG=
201104231300 METAR MROC 231300Z 09003KT CAVOK 22/13 A3005 NOSIG=
201104231400 METAR MROC 231400Z 14007KT CAVOK 24/13 A3006 RMK FEW100 NOSIG=
201104231500 METAR MROC 231500Z 17004KT 9999 FEW035 SCT250 26/13 A3007 RMK HZ LGT ARND BECMG 24007KT NOSIG=
201104231600 METAR MROC 231600Z VRB02KT 9999 FEW035 SCT250 27/13 A3005 RMK FEW100 NOSIG=
201104231700 METAR MROC 231700Z 24008KT 9999 FEW035 SCT090 27/17 A3005 RMK FEW250 NOSIG=
201104231800 METAR MROC 231800Z 24010KT 9999 FEW035 SCT080 29/17 A3002 RMK TCU SW W NOSIG=
201104231900 METAR MROC 231900Z 23011KT 9999 FEW035TCU SCT080 29/17 A2999 NOSIG=
201104232000 METAR MROC 232000Z 22010KT 9999 VCSH FEW035TCU SCT080 28/18 A2997 RMK RN SW DST S NOSIG=
201104232100 METAR MROC 232100Z 21011KT 9999 3000S -SHRA FEW015TCU BKN025 22/21 A2998 BECMG 5000 SHRA=
201104232200 METAR MROC 232200Z 19007KT 9999 FEW025TCU SCT035 24/20 A2997 RMK PCPN DST S HZ LGT ARND NOSIG=
201104232300 METAR MROC 232300Z 17005KT 9999 SCT035TCU SCT045 23/19 A2998 RMK PCPN DST SE HZ ARND NOSIG=
201104240000 METAR MROC 240000Z 20006KT 9999 VCSH FEW015CB BKN025 22/19 A3000 RMK VIS SSW 8KM BECMG 14006KT=
201104240100 METAR MROC 240100Z 18005KT 9999 BKN035 22/19 A3001 RMK BECMG 14005KT=
201104240200 METAR MROC 240200Z 25003KT 9999 VCFG FEW005 BKN030 21/21 A3003 RMK VIS 8KMS O NO NOSIG=
201104240300 METAR MROC 240300Z 10004KT 9999 SCT020 22/16 A3007 NOSIG=
201104240400 METAR MROC 240400Z 15003KT 9999 SCT020 22/15 A3005 NOSIG=
201104240500 METAR MROC 240500Z 09005KT 9999 SCT020 21/15 A3007 NOSIG=
201104240600 METAR MROC 240600Z 11004KT 9999 FEW030 21/15 A3005 NOSIG=
201104240700 METAR MROC 240700Z 00000KT 9999 FEW030 21/14 A3006 NOSIG=
201104240800 METAR MROC 240800Z 000000KT 9999 FEW030 21/15 A3000 NOSIG=
201104240900 METAR MROC 240900Z 06005KT 9999 FEW030 19/15 A3000 NOSIG=
201104241000 METAR MROC 241000Z 08007KT 9999 FEW030 20/15 A3000 NOSIG=
201104241100 METAR MROC 241100Z 08006KT CAVOK 20/15 A3001 RMK FEW250 NOSIG=
201104241200 METAR MROC 241200Z 00000KT CAVOK 20/15 A3003 NOSIG=
201104241300 METAR MROC 241300Z 10005KT CAVOK 22/16 A3004 NOSIG=
201104241400 METAR MROC 241400Z VRB02KT CAVOK 25/15 A3005 RMK HZ LGT ARND BECMG 24006K T=
201104241500 METAR MROC 241500Z VRB03KT 9999 FEW045 27/17 A3005 RMK HZ LGT ARND BECMG 24006KT=
201104241600 METAR MROC 241600Z 24006KT 9999 SCT045 28/16 A3004 RMK HZ LGT ARND NOSIG=
201104241700 METAR MROC 241700Z 23008KT 9999 BKN045 28/17 A3003 RMK HZ LGT ARND NOSIG=
201104241800 METAR MROC 241800Z 24007KT 9999 SCT035 BKN050 27/17 A3002 RMK HZ LGT ARND BECMG 8000 VCSH=
201104241900 METAR MROC 241900Z 24009KT 9999 FEW025 SCT035 BKN050 27/18 A2999 RMK HZ LGT ARND NOSIG=
201104242000 METAR MROC 242000Z 22008KT 9999 FEW030TCU SCT040 BKN050 28/19 A2996 RMK HZ LGT ARND NOSIG=
201104242100 METAR MROC 242100Z 23011KT 9999 FEW020CB SCT030 20/19 A2994 RMK HZ=
201104242200 METAR MROC 242200Z 14005KT 9999 SCT030 SCT080 26/18 A2994 RMK RN DST NE E HZ LEVE SW W NOSIG=
201104242300 METAR MROC 242300Z 21004KT 9999 SCT025 SCT090 23/20 A2996 RMK DZ DST N NE E NOSIG=
201104242345 METAR MROC 242345Z 08010KT 9999 SCT025 22/17 A2994 RMK HZY VEL MAX VTO 16KT NOSIG=
201104250000 METAR MROC 250000Z 12004KT 9999 FEW030 SCT100 23/18 A2997 NOSIG=
201104250100 METAR MROC 250100Z 08005KT 9999 FEW035 SCT250 22/18 A2999 NOSIG=
201104250200 METAR MROC 250200Z 10006KT 9999 FEW035 SCT250 22/17 A3001 NOSIG=
201104250300 METAR MROC 250300Z 09006KT CAVOK 21/17 A3002 NOSIG=
201104250400 METAR MROC 250400Z 09007KT CAVOK 21/16 A3003 NOSIG=
201104250500 METAR MROC 250500Z 09007KT CAVOK 21/16 A3003 NOSIG=
201104250600 METAR MROC 250600Z VRB02KT CAVOK 21/16 A3001 NOSIG=
201104250700 METAR MROC 250700Z 10005KT CAVOK 21/15 A2999 NOSIG=
201104250800 METAR MROC 250800Z 08005KT CAVOK 20/14 A2997 NOSIG=
201104250900 METAR MROC 250900Z 09006KT CAVOK 20/15 A2998 NOSIG=
201104251000 METAR MROC 251000Z 08007KT CAVOK 19/15 A2998 NOSIG=
201104251100 METAR MROC 251100Z 08007KT CAVOK 19/15 A2999 NOSIG=
201104251200 METAR MROC 251200Z 08007KT CAVOK 20/15 A3001 NOSIG=
201104251300 METAR MROC 251300Z 08005KT CAVOK 23/15 A3003 RMK HZ LEVE ARND NOSIG=
201104251400 METAR MROC 251400Z 06006KT CAVOK 26/15 A3003 RMK HZ LEVE ARND NOSIG=
201104251500 METAR MROC 251500Z 13007KT CAVOK 28/14 A3002 RMK HZ LEVE ARND NOSIG=
201104251600 METAR MROC 251600Z 14008KT CAVOK 29/13 A3002 RMK HZ LEVE ARND BECMG 24006KT=
201104251700 METAR MROC 251700Z 23011KT 9999 FEW035 29/19 A3001 NOSIG=
201104251800 METAR MROC 251800Z 23010KT 9999 FEW035 29/20 A2999 RMK HZ LEVE ARND NOSIG=
201104251900 METAR MROC 251900Z 22012KT 9999 SCT035 29/20 A2996 RMK HZ LEVE ARND NOSIG=
201104252000 METAR MROC 252000Z 24012KT 9999 FEW020TCU SCT030 30/20 A2994 RMK HZ=
201104252100 METAR MROC 252100Z 11005KT 9999 2000SW -TSRA FEW010CB BKN030 22/18 A2994 BECMG 5000 TSRA=
201104252200 METAR MROC 252200Z 00000KT 8000 2000SW -RA FEW010 BKN030 21/20 A2994 RETS NOSIG=
201104252300 METAR MROC 252300Z 00000KT 9999 SCT030 BKN080 23/20 A2995 RMK HZY ARND VIS SW 2000 DUE HZY NOSIG=
201104260000 METAR MROC 260000Z VRB02KT 9999 SCT030 BKN080 23/20 A2997 RMK HZY ARND VIS SW 2KMS DUE HZY NOSIG=
201104260100 METAR MROC 260100Z 00000KT 9999 SCT030 BKN100 23/18 A2998 NOSIG=
201104260200 METAR MROC 260200Z 00000KT 9999 FEW030 SCT100 22/20 A2999 RMK HZ ARND NOSIG=
201104260300 METAR MROC 260300Z 07004KT CAVOK 21/20 A3000 RMK HZY NOSIG=
201104260400 METAR MROC 260400Z 00000KT CAVOK 20/19 A3000 RMK HZY NOSIG=
201104260500 METAR MROC 260500Z 09005KT CAVOK 20/17 A3000 RMK HZY NOSIG=
201104260600 METAR MROC 260600Z 07005KT CAVOK 19/17 A2998 RMK HZY NOSIG=
201104260700 METAR MROC NIL=
201104260800 METAR MROC 260800Z 06007KT CAVOK 19/17 A2995 RMK HZ LGT ARND NOSIG=
201104260900 METAR MROC 260900Z 07006KT CAVOK 18/16 A2995 RMK HZ LGT ARND NOSIG=
201104261000 METAR MROC 261000Z 08007KT CAVOK 18/16 A2996 RMK HZ LGT ARND NOSIG=
201104261100 METAR MROC 261100Z 07005KT CAVOK 18/16 A2998 RMK HZ LGT ARND NOSIG=
201104261200 METAR MROC 261200Z 07005KT CAVOK 18/16 A2999 RMK SCT250 HZY CB DST SSW NOSIG=
201104261300 METAR MROC 261300Z 00000KT CAVOK 22/16 A3002 RMK HZY ARND SCT250 BECMG 24006KT=
201104261400 METAR MROC 261400Z 00000KT CAVOK 24/17 A3003 RMK HZY ARND BKN250 BECMG 24006KT=
201104261500 METAR MROC 261500Z 24006KT CAVOK 26/17 A3003 RMK HZY ARND BKN250 NOSIG=
201104261600 METAR MROC 261600Z 23006KT 9999 FEW040 BKN250 27/18 A3003 RMK HZY ARND NOSIG=
201104261700 METAR MROC 261700Z 20009KT 9999 FEW040 BKN250 28/20 A3002 RMK HZY ARND NOSIG=
201104261800 METAR MROC 261800Z 23009KT 9999 FEW040 BKN250 27/20 A2999 RMK HZY ARND NOSIG=
201104261900 METAR MROC 261900Z 24010KT 9999 FEW040 BKN250 28/21 A2997 RMK HZY ARND NOSIG=
201104262000 METAR MROC 262000Z 23008KT 9999 FEW040 BKN250 27/21 A2995 RMK HZY ARND RA DST E NOSIG=
201104262100 METAR MROC 262100Z 25010KT 9999 FEW010CB SCT030 27/20 A2993 RMK HZ ARND PCPN DST NE BECMG 8000 -RA VCTS=
201104262200 METAR MROC 262200Z 26010KT 9999 FEW020 SCT250 27/20 A2993 RMK HZ ARND PCPN DST NE NOSIG=
201104262300 METAR MROC 262300Z 25010KT 9999 SCT020TCU SCT250 25/21 A2994 RMK HZ ARND PCPN DST NE NOSIG=
201104270000 METAR MROC 270000Z 26006KT 9999 SCT020TCU SCT250 23/21 A2997 RMK HZ ARND NOSIG=
201104270100 METAR MROC 270100Z 24004KT 9999 SCT020 22/21 A2998 RMK HZ ARND NOSIG=
201104270200 METAR MROC 270200Z 27003KT 9999 SCT012 BKN030 22/20 A2999 RMK VIS SW 8KM NOSIG=
201104270300 METAR MROC 270300Z 29003KT 9999 SCT012 BKN035 22/20 A3002 RMK HZ ARND NOSIG=
201104270400 METAR MROC 270400Z 00000KT 9999 FEW015 SCT030 22/20 A3003 RMK HZ ARND NOSIG=
201104270500 METAR MROC NIL=
201104270600 METAR MROC 270600Z 00000KT 9999 FEW010 SCT025 21/20 A3001 RMK VIS 6000SW HZ HZY NOSIG=
201104270700 METAR MROC 270700Z 00000KT 9999 BR FEW008 SCT025 20/20 A2997 RMK VIS 5000SW HZY=
201104270800 METAR MROC 270800Z 00000KT 9999 4800SW BR FEW008 SCT025 20/20 A2996 RMK HZ ARND=
201104270900 METAR MROC 270900Z 00000KT 9999 4800SW BR FEW007 SCT025 20/20 A2996 RMK HZ ARND=
201104271000 METAR MROC 271000Z 00000KT 9999 FEW010 SCT025 21/20 A2997 RMK HZ ARND=
201104271100 METAR MROC 271100Z 10006KT 9999 FEW025 22/19 A2997 RMK FEW120 HZ SW W=
201104271200 METAR MROC 271200Z 08004KT 9999 FEW035 SCT120 23/19 A2999 RMK HZ LEVE ARND=
201104271300 METAR MROC 271300Z 08006KT 9999 FEW030 SCT120 24/19 A3002 RMK HZ LGT ARND NOSIG=
201104271400 METAR MROC 271400Z 15007KT 9999 FEW030 SCT120 BKN250 26/19 A3003 RMK HZ ARND LEVE NOSIG=
201104271500 METAR MROC 271500Z 11002KT 9999 FEW030 SCT120 BKN250 27/18 A3003 RMK HZ ARND BECMG 24006KT=
201104271600 METAR MROC 271600Z 24006KT 9999 FEW030 BKN250 29/19 A3003 RMK HZ LGT ARND PCPN DST NE NOSIG=
201104271700 METAR MROC 271700Z 24010KT 9999 SCT020TCU BKN250 28/21 A3002 RMK HZ ARND LGT PCPN DST NE NOSIG=
201104271800 METAR MROC 271800Z 20011KT 9999 4000E TSRA SCT010CB BKN020 27/20 A3001 RMK BECMG 4000 TSRA=
201104271900 METAR MROC 271900Z 27005KT 9999 -TSRA SCT015CB OVC100 20/20 A3003 RMK VIS W 7000 NOSIG=
201104272000 METAR MROC 272000Z 23003KT 9999 FEW010 BKN030 20/20 A3003 RERA RMK VIS 8000 W NOSIG=
201104272100 METAR MROC 272100Z VRB02KT 9999 BCFG FEW001 BKN080 20/20 A3000 RMK FEW015 NOSIG=
201104272120 METAR MROC 272120Z VRB02KT 9999 4000SW BR FEW001 BKN080 21/20 A3000 RMK FEW015 NOSIG=
201104272200 METAR MROC 272200Z 00000KT 9999 5000W BR FEW001 BKN060 21/21 A3001 RMK FEW020 NOSIG=
201104272300 METAR MROC 272300Z 00000KT 9999 FEW001 SCT020 BKN050 21/20 A3003 NOSIG=
201104280000 METAR MROC 280000Z 00000KT 8000 FEW001 SCT110 21/20 A3004 RMK FEW020 LGHT BR ARND NOSIG=
201104280100 METAR MROC 280100Z VRB02KT 9999 FEW020 SCT110 21/21 A3007 RMK LGHT BR ARND NOSIG=
201104280200 METAR MROC 280200Z 00000KT 9999 FEW001 SCT110 21/20 A3009 RMK LGHT BR ARND NOSIG=
201104280300 METAR MROC 280300Z 00000KT CAVOK 20/20 A3010 RMK SCT100 SCT250 HZY ARND NOSIG=
201104280400 METAR MROC 280400Z 09003KT CAVOK 21/20 A3009 RMK SCT100 SCT250 HZY=
201104280500 METAR MROC 280500Z VRB02KT CAVOK 20/19 A3009 RMK SCT100 SCT250 HZY=
201104280600 METAR MROC 280600Z 00000KT CAVOK 19/19 A3009 RMK SCT100 SCT250 NOSIG=
201104280700 METAR MROC 280700Z 09006KT CAVOK 19/18 A3003 RMK SCT100 SCT250 NOSIG=
201104280800 METAR MROC 280800Z 08005KT CAVOK 19/18 A3001 RMK SCT100 SCT250 NOSIG=
201104280900 METAR MROC 280900Z 08006KT CAVOK 19/17 A3000 RMK FEW120 SCT250 NOSIG=
201104281000 METAR MROC 281000Z 09005KT CAVOK 20/17 A3001 RMK FEW120 SCT250 NOSIG=
201104281100 METAR MROC 281100Z 09004KT 9999 FEW035 SCT250 19/18 A3002 NOSIG=
201104281200 METAR MROC 281200Z 06007KT 9999 FEW035 SCT250 20/18 A3003 RMK CB DST SW NOSIG=
201104281300 METAR MROC 281300Z 10005KT 9999 FEW035 SCT250 23/18 A3006 RMK CB DST SW NOSIG=
201104281400 METAR MROC 281400Z 10008KT 9999 FEW045 SCT250 26/19 A3006 NOSIG=
201104281500 METAR MROC 281500Z 09008KT 9999 FEW045 SCT250 28/17 A3006 BECMG 24007KT=
201104281600 METAR MROC 281600Z 11007KT CAVOK 29/18 A3006 RMK GUST 14KT BECMG 24007KT=
201104281700 METAR MROC 281700Z 09007KT CAVOK 30/17 A3005 RMK GUST 14KT BECMG 24007KT=
201104281800 METAR MROC 281800Z 25012KT 9999 FEW020TCU SCT100 29/21 A3002 RMK GUST 17KT FEW250 NOSIG=
201104281900 METAR MROC 281900Z 24009KT 9999 FEW020TCU SCT080 30/22 A3000 RMK GUST 15KT RN DST E NOSIG=
201104282000 METAR MROC 282000Z 23009KT 2000 TSRA BR FEW001 SCT020CB 24/22 A2998 RMK VIS E UNL GUST 14KT SCT100 BECMG 5000=
201104282100 METAR MROC 282100Z 01005KT 8000 -RA FEW015CB SCT030 BKN120 22/22 A2999 RMK VIS UNL E SE NOSIG=
201104282200 METAR MROC 282200Z 00000KT 9999 FEW015 SCT030 BKN150 22/21 A2999 RMK HZ LGT ARND CB DST SW S SE NOSIG=
201104282300 METAR MROC 282300Z 00000KT 9999 FEW015 SCT025 BKN150 22/21 A2998 RMK HZ ARND=
201104282301 METAR MROC 282301Z 00000KT 9999 FEW015 SCT025 BKN150 22/21 A2998 RMK HZ ARND NOSIG=
201104290000 METAR MROC 290000Z 00000KT 9999 SCT040 BKN120 22/22 A3000 RMK HZ ARND NOSIG=
201104290100 METAR MROC 290100Z 00000KT 9999 FEW040 BKN100 22/21 A3002 RMK HZ ARND NOSIG=
201104290200 METAR MROC 290200Z 00000KT 9999 FEW030 SCT250 22/21 A3004 RMK HZ ARND NOSIG=
201104290300 METAR MROC 290300Z 02004KT 9999 FEW020 21/20 A3004 NOSIG=
201104290400 METAR MROC 290400Z 13007KT 9999 FEW025 22/18 A3003 NOSIG=
201104290500 METAR MROC 290500Z 13004KT CAVOK 22/18 A3001 NOSIG=
201104290600 METAR MROC 290600Z 13013KT CAVOK 23/17 A2999 NOSIG=
201104290700 METAR MROC 290700Z 06006KT CAVOK 22/17 A2999 NOSIG=
201104290800 METAR MROC 290800Z 07005KT CAVOK 21/18 A2999 NOSIG=
201104290900 METAR MROC 290900Z 08005KT CAVOK 22/18 A2998 NOSIG=
201104291000 METAR MROC 291000Z 11008KT CAVOK 22/17 A2998 NOSIG=
201104291100 METAR MROC 291100Z 11002KT 9999 FEW045 21/17 A3001 NOSIG=
201104291200 METAR MROC 291200Z 11005KT CAVOK 21/17 A3001 RMK SCT250 NOSIG=
201104291300 METAR MROC 291300Z 13007KT CAVOK 23/18 A3001 RMK SCT250 CB DST SSW SW NOSIG=
201104291400 METAR MROC 291400Z 15008KT CAVOK 26/17 A3003 RMK BKN250 HZ LGT ARND BECMG 24006KT=
201104291500 METAR MROC 291500Z 12009KT 9999 FEW045 BKN250 28/17 A3004 RMK HZ LGT ARND NOSIG=
201104291600 METAR MROC 291600Z 09009KT 9999 SCT045 BKN250 29/16 A3004 RMK HZ LGT ARND NOSIG=
201104291700 METAR MROC 291700Z 08013KT 9999 FEW045 SCT250 29/16 A3002 RMK HZ LGT ARND NOSIG=
201104291800 METAR MROC 291800Z 11010KT FEW045 30/15 A2999 RMK FEW250 HZ LGT SW NOSIG=
201104291801 METAR MROC 291801Z 11010KT 9999 FEW045 30/15 A2999 RMK FEW250 HZ LGT SW NOSIG=
201104291900 METAR MROC 291900Z 09009KT 9999 FEW045 SCT100 31/15 A2996 RMK SCT250 HZ LGT SW W NOSIG=
201104292000 METAR MROC 292000Z 26010KT 9999 FEW035 SCT100 BKN250 29/22 A2993 RMK TCU DST E HZ LGT W NOSIG=
201104292100 METAR MROC 292100Z 24012KT 9999 SCT030 28/22 A2991 RMK HZ SW W NOSIG=
201104292200 METAR MROC 292200Z 26009KT 9999 SCT030 25/22 A2991 RMK HZ SW W NOSIG=
201104292300 METAR MROC 292300Z 26004KT 9999 SCT030 24/22 A2993 RMK HZ N SW W NOSIG=
201104300000 METAR MROC 300000Z 25004KT 9999 FEW015TCU FEW030 SCT250 23/22 A2994 RMK HZ N SW W VIS 6000 SW HZ NOSIG=
201104300100 METAR MROC 300100Z 22004KT 9999 FEW035 22/22 A2996 RMK HZ ARND BECMG 05006KT=
201104300200 METAR MROC 300200Z 34004KT CAVOK 22/21 A2998 RMK HZ ARND NOSIG=
201104300300 METAR MROC 300300Z VRB02KT CAVOK 22/18 A3000 RMK LGHT BR ARND NOSIG=
201104300400 METAR MROC 300400Z 09006KT CAVOK 22/17 A3000 RMK LGHT BR ARND NOSIG=
201104300500 METAR MROC 300500Z 09007KT CAVOK 21/17 A2998 NOSIG=
201104300600 METAR MROC 300600Z 09009KT CAVOK 21/17 A2997 RMK GUST 16KT NOSIG=
201104300700 METAR MROC 300700Z 12009G19KT CAVOK 21/16 A2994 NOSIG=
201104300800 METAR MROC 300800Z 11008G21KT CAVOK 21/16 A2994 NOSIG=
201104300900 METAR MROC 300900Z 12009KT CAVOK 21/16 A2993 RMK GUST 15KT NOSIG=
201104301000 METAR MROC 301000Z 12009G19KT CAVOK 21/15 A2993 NOSIG=
201104301100 METAR MROC 301100Z 12007G18KT CAVOK 21/15 A2994 RMK TS DST S NOSIG=
201104301200 METAR MROC 301200Z 12012G22KT CAVOK 21/15 A2994 RMK CB DST S NOSIG=
201104301300 METAR MROC 301300Z 12010KT CAVOK 23/16 A2996 RMK SCT250 CB DST S NOSIG=
201104301400 METAR MROC 301400Z 12008KT CAVOK 25/15 A2998 RMK SCT250 NOSIG=
201104301500 METAR MROC 301500Z 13010KT CAVOK 27/15 A2998 NOSIG=
201104301600 METAR MROC 301600Z 11010KT CAVOK 28/14 A2997 NOSIG=
201104301700 METAR MROC 301700Z 12009KT CAVOK 29/14 A2996 RMK SCT250 NOSIG=
201104301800 METAR MROC 301800Z 12010KT 9999 FEW035 29/15 A2992 BECMG 24008KT=
201104301900 METAR MROC 301900Z 12009KT 9999 FEW035 30/14 A2989 BECMG 24008KT=
201104302000 METAR MROC 302000Z 14005KT 9999 SCT035 30/15 A2988 BECMG 24008KT=
201104302100 METAR MROC 302100Z 22010KT 190V250 9999 BKN035 28/21 A2986 RMK RA S=
201104302200 METAR MROC 302200Z 26012KT 9999 SCT035 SCT250 27/21 A2986 RMK HZ DST W=
201104302300 METAR MROC 302300Z 24006KT 9999 SCT035 SCT250 25/20 A2989 RMK RA DST E HZY W NOSIG=
201105010000 METAR MROC 010000Z 07007KT 9999 -RA BKN030 24/17 A2992 NOSIG=
201105010100 METAR MROC 010100Z 00000KT 9999 SCT035 21/20 A2994 RERA NOSIG=
201105010200 METAR MROC 010200Z 10004KT 9999 SCT040 22/19 A2996 RMK FEW080 NOSIG=
201105010300 METAR MROC 010300Z 11008KT 9999 FEW045 22/16 A2997 RMK NOSIG=
201105010400 METAR MROC 010400Z 12009KT CAVOK 21/16 A2999 RMK NOSIG=
201105010500 METAR MROC 010500Z 09007KT CAVOK 21/15 A2999 RMK NOSIG=
201105010600 METAR MROC 010600Z 12011KT CAVOK 21/14 A2996 RMK NOSIG=
201105010700 METAR MROC 010700Z 09006KT CAVOK 21/14 A2994 RMK NOSIG=
201105010800 METAR MROC 010800Z 12008KT CAVOK 21/13 A2992=
201105010900 METAR MROC 010900Z 12009KT CAVOK 21/13 A2991=
201105011000 METAR MROC 011000Z 13008KT CAVOK 20/12 A2991=
201105011100 METAR MROC 011100Z 13009KT CAVOK 20/13 A2991=
201105011200 METAR MROC 011200Z 24005KT CAVOK 23/19 A2983 RMK FEW130 CB DST NNE HZ LGT ARND=
201105011300 METAR MROC 011300Z 11005KT CAVOK 23/13 A2996 RMK CB DST SW=
201105011400 METAR MROC 011400Z 15007KT CAVOK 26/13 A2995 RMK FEW250 BECMG 24006KT=
201105011500 METAR MROC 011500Z 12008KT CAVOK 28/14 A2997 BECMG 24006KT=
201105011600 METAR MROC 011600Z 15008KT CAVOK 29/13 A2996 BECMG 24006KT=
201105011700 METAR MROC 011700Z 16007KT 9999 FEW040 30/13 A2995 BECMG 24006KT=
201105011800 METAR MROC 011800Z 25008KT 9999 FEW040 29/17 A2993 NOSIG=
201105011900 METAR MROC 011900Z 25007KT 220V280 9999 SCT040 30/18 A2989 RMK TCU RA DST S NOSIG=
201105012000 METAR MROC 012000Z 24014KT 9999 SCT040 28/20 A2988 NOSIG=
201105012100 METAR MROC 012100Z 24011KT 9999 FEW015 BKN040 27/21 A2987 RMK RA NE E BECMG 8000 VCSH=
201105012200 METAR MROC 012200Z 08008KT 9999 -RA FEW015TCU BKN040 22/17 A2988 BECMG 8000=
201105012300 METAR MROC 012300Z 00000KT 9999 SCT040 SCT070 22/19 A2989 RMK RA DST N NE NOSIG=
201105020000 METAR MROC 020000Z 07003KT 9999 SCT040 SCT070 22/20 A2990 NOSIG=
201105020100 METAR MROC 020100Z 09005KT 9999 FEW040 SCT070 22/18 A2994 NOSIG=
201105020200 METAR MROC 020200Z 00000KT CAVOK 21/19 A2995 RMK FEW070 NOSIG=
201105020300 METAR MROC 020300Z 12008KT CAVOK 22/17 A2996 RMK SCT090 NOSIG=
201105020400 METAR MROC 020400Z 11008KT CAVOK 21/17 A2997 RMK FEW090 NOSIG=
201105020500 METAR MROC 020500Z 08007KT CAVOK 21/17 A2997 NOSIG=
201105020600 METAR MROC 020600Z 07006KT CAVOK 20/16 A2994 NOSIG=
201105020700 METAR MROC 020700Z 11008KT CAVOK 21/16 A2993 NOSIG=
201105020800 METAR MROC 020800Z 08007KT CAVOK 20/16 A2991=
201105020900 METAR MROC 020900Z 06004KT CAVOK 20/16 A2991=
201105021000 METAR MROC 021000Z 06006KT CAVOK 20/17 A2992=
201105021100 METAR MROC 021100Z 07005KT CAVOK 19/16 A2993=
201105021200 METAR MROC 021200Z 12004KT CAVOK 21/17 A2994=
201105021300 METAR MROC 021300Z 04005KT CAVOK 22/17 A2997 NOSIG=
201105021400 METAR MROC 021400Z 11008KT CAVOK 25/17 A2997 NOSIG=
201105021500 METAR MROC 021500Z 10011KT 9999 FEW040 26/17 A2998 RMK DZ DST NE NOSIG=
201105021600 METAR MROC 021600Z 15005KT 9999 SCT030 28/17 A2996 RMK DZ DST NE BECMG 24006KT=
201105021700 METAR MROC 021700Z 15005KT 9999 SCT030 28/17 A2996 RMK DZ DST NE BECMG 24006KT=
201105021800 METAR MROC 021800Z 13012KT 9999 SCT030 29/16 A2995 RMK DZ DST NE NOSIG=
201105021900 METAR MROC 021900Z 13013KT 9999 SCT030 29/17 A2992 NOSIG=
201105022000 METAR MROC 022000Z 11007KT 9999 SCT030 28/17 A2989 NOSIG=
201105022100 METAR MROC 022100Z 11011KT 9999 FEW030 SCT100 29/16 A2987 RMK GUST 20KT NOSIG=
201105022200 METAR MROC 022200Z 11010KT 9999 SCT045 27/16 A2987 RMK GUST 17KT CB DST SW FEW100 NOSIG=
201105022300 METAR MROC 022300Z 12008KT 9999 FEW035 27/16 A2987 RMK GUST 14KT FEW100 NOSIG=
201105030000 METAR MROC 030000Z 11007KT 9999 FEW035 25/17 A2990 RMK GUST 13KT CB DST E FEW090 NOSIG=
201105030100 METAR MROC 030100Z 14008KT 9999 FEW035 24/17 A2992 NOSIG=
201105030200 METAR MROC 030200Z 13003KT 9999 FEW035 23/15 A2994 NOSIG=
201105030300 METAR MROC 030300Z 12007KT 090V150 9999 FEW035 23/16 A2995 NOSIG=
201105030400 METAR MROC 030400Z 00000KT 9999 FEW035 22/16 A2997 NOSIG=
201105030500 METAR MROC 030500Z 11007KT 9999 FEW035 22/16 A2997 NOSIG=
201105030600 METAR MROC 030600Z 08004KT CAVOK 21/16 A2995 NOSIG=
201105030700 METAR MROC 030700Z 00000KT CAVOK 21/16 A2994 NOSIG=
201105030800 METAR MROC 030800Z 09007KT CAVOK 21/16 A2993 NOSIG=
201105030900 METAR MROC 030900Z 09008KT CAVOK 21/16 A2994 NOSIG=
201105031000 METAR MROC 031000Z 08004KT CAVOK 20/16 A2995 NOSIG=
201105031100 METAR MROC 031100Z 08010KT CAVOK 20/16 A2996 NOSIG=
201105031200 METAR MROC 031200Z 10003KT CAVOK 21/16 A2997 NOSIG=
201105031300 METAR MROC 031300Z 12008KT CAVOK 23/16 A2998 RMK GUST 15KT NOSIG=
201105031400 METAR MROC 031400Z 12008KT CAVOK 26/16 A3000 RMK GUST 14KT NOSIG=
201105031500 METAR MROC 031500Z 12010KT CAVOK 28/15 A3001 RMK GUST 15KT NOSIG=
201105031600 METAR MROC 031600Z 11011KT CAVOK 29/16 A3001 RMK GUST 17KT NOSIG=
201105031700 METAR MROC 031700Z 12011KT CAVOK 29/16 A2999 RMK GUST 19KT NOSIG=
201105031800 METAR MROC 031800Z 12010KT CAVOK 30/17 A2997 RMK GUST 18KT NOSIG=
201105031900 METAR MROC 031900Z 10010KT 9999 FEW045 31/16 A2995 RMK GUST 19KT CB DST E FEW100 NOSIG=
201105032000 METAR MROC 032000Z 09010KT 9999 FEW045 30/17 A2992 RMK GUST 17KT RN DST E FEW100 NOSIG=
201105032100 METAR MROC 032100Z 10012KT 9999 FEW040 SCT250 30/17 A2991 NOSIG=
201105032200 METAR MROC 032200Z 13011KT 9999 FEW040 SCT250 28/18 A2989 RMK VEL MAX VTO 16KT NOSIG=
201105032300 METAR MROC 032300Z 12011KT 9999 FEW040 27/18 A2990 RMK FEW250 VEL MAX VTO 16KT HZ LGT W NOSIG=
201105040000 METAR MROC 040000Z 11009KT 090V150 9999 FEW035 SCT050 25/18 A2993 RMK NOSIG=
201105040100 METAR MROC 040100Z 10009KT 9999 FEW030 24/14 A2995 NOSIG=
201105040200 METAR MROC 040200Z 13008KT 9999 FEW035 23/18 A2997 RMK VEL MAX VTO 16KT NOSIG=
201105040300 METAR MROC 040300Z 11010KT 9999 FEW035 23/18 A2999 NOSIG=
201105040400 METAR MROC 040400Z 11006KT 9999 FEW035 23/18 A3001 NOSIG=
201105040500 METAR MROC 040500Z 09012KT 9999 FEW035 23/18 A3001 NOSIG=
201105040600 METAR MROC 040600Z 07007KT 9999 FEW035 22/16 A2999 NOSIG=
201105040700 METAR MROC 040700Z 121010KT 9999 FEW035 23/17 A2997 NOSIG=
201105040800 METAR MROC 040800Z 10005KT 9999 FEW030 22/18 A2995 NOSIG=
201105040900 METAR MROC 040900Z 06006KT 9999 FEW030 SCT250 22/18 A2996 RMK TS DST S NOSIG=
201105041000 METAR MROC 041000Z 13010KT 9999 FEW030 SCT250 22/17 A2996 RMK TS DST S NOSIG=
201105041100 METAR MROC 041100Z 10011KT 9999 FEW030 SCT120 21/17 A2997 RMK FEW250 NOSIG=
201105041200 METAR MROC 041200Z 09007KT 9999 FEW020 BKN250 22/18 A2998 RMK FEW100 PCPN DST NE NOSIG=
201105041300 METAR MROC 041300Z 13008KT 9999 FEW040 SCT070 BKN250 23/17 A2999 RMK VEL MAX VTO 16KT DZ DST N NE NOSIG=
201105041400 METAR MROC 041400Z 13014KT 9999 FEW045 SCT090 BKN250 25/18 A3000 RMK VEL MAX VTO 20KT DZ NE NOSIG=
201105041500 METAR MROC 041500Z 12014KT 9999 FEW045 BKN250 26/18 A3000 RMK VEL MAX VTO 20KT FEW100 NOSIG=
201105041600 METAR MROC 041600Z 10010KT 9999 FEW045 BKN250 28/17 A3000 RMK DZ DST NE VEL MAX VTO 18KT NOSIG=
201105041700 METAR MROC 041700Z 12012KT 9999 FEW040 SCT120 BKN250 27/16 A3000 RMK DZ DST NE NOSIG=
201105041800 METAR MROC 041800Z 10011KT 9999 FEW040 BKN250 28/16 A2999 RMK DZ DST NE NOSIG=
201105041900 METAR MROC 041900Z 10011KT 070V130 9999 FEW045 BKN250 30/17 A2996 RMK DZ DST NE TCU DST S NOSIG=
201105042000 METAR MROC 042000Z 12010KT 9999 FEW040 BKN250 29/17 A2994 RMK DZ DST NE VEL MAX VTO 15KT NOSIG=
201105042100 METAR MROC 042100Z 11008KT 9999 FEW035 BKN250 29/17 A2994 NOSIG=
201105042200 METAR MROC 042200Z 10012KT 9999 FEW035 BKN250 28/16 A2994 RMK FEW120 NOSIG=
201105042300 METAR MROC 042300Z 13008KT 9999 FEW040 BKN250 26/17 A2996 NOSIG=
201105050000 METAR MROC 050000Z 12007KT 9999 FEW040 SCT100 BKN250 25/17 A2997 NOSIG=
201105050100 METAR MROC 050100Z 12010KT 9999 FEW040 SCT120 24/18 A2998 NOSIG=
201105050200 METAR MROC 050200Z 11011KT 9999 FEW040 SCT140 24/18 A3000 NOSIG=
201105050300 METAR MROC 050300Z 13011KT CAVOK 23/18 A2998 RMK GUST 19KT NOSIG=
201105050400 METAR MROC 050400Z 12013G25KT CAVOK 23/18 A3000 NOSIG=
201105050500 METAR MROC 050500Z 12015G29KT CAVOK 23/18 A2998 NOSIG=
201105050600 METAR MROC 050600Z 13013G23KT CAVOK 23/18 A2995 NOSIG=
201105050700 METAR MROC 050700Z 12013G23KT 9999 FEW045 23/18 A2994 NOSIG=
201105050800 METAR MROC 050800Z 11013G25KT 9999 FEW045 23/18 A2994 NOSIG=
201105050900 METAR MROC 050900Z 12012G23KT 9999 FEW030 SCT100 23/18 A2995 NOSIG=
201105051000 METAR MROC 051000Z 09009KT 9999 FEW030 SCT100 23/18 A2996 RMK GUST 15KT LGHTNG DST SW NOSIG=
201105051100 METAR MROC 051100Z 11011KT 8000 -DZ FEW020 SCT100 21/18 A2996 RMK GUST 17KT NOSIG=
201105051200 METAR MROC 051200Z 12011KT 9999 -DZ FEW030 SCT080 BKN110 22/18 A2998 RMK GUST 20KT RN CB DST E NOSIG=
201105051300 METAR MROC 051300Z 11008KT 9999 SCT035 BKN100 23/18 A3000 RMK RN DST N NE E NOSIG=
201105051400 METAR MROC 051400Z 11008KT 9999 DZ FEW035 BKN090 22/18 A3001 RMK RN DST N NE E NOSIG=
201105051500 METAR MROC 051500Z 11007KT 9999 -RA FEW035 BKN080 21/19 A3002 NOSIG=
201105051600 METAR MROC 051600Z 11010KT 9999 FEW035 BKN100 23/19 A3001 RMK RN DST NE NOSIG=
201105051700 METAR MROC 051700Z 12013G23KT 9999 FEW040 BKN110 25/18 A3000 NOSIG=
201105051800 METAR MROC 051800Z 12007KT 9999 -RA SCT040 BKN080 23/19 A3002 RMK RN DST N NE E NOSIG=
201105051900 METAR MROC 051900Z 09005KT 9999 -RA FEW035 BKN080 21/20 A2997 RMK RN DST NE E NOSIG=
201105052000 METAR MROC 052000Z 13006KT 9999 FEW030 BKN100 22/20 A2995 RMK RN DST NE/E NOSIG=
201105052100 METAR MROC 052100Z 13007KT 9999 -DZ FEW030 BKN100 22/19 A2993 NOSIG=
201105052200 METAR MROC 052200Z 12007KT 9999 -DZ FEW030 BKN100 23/18 A2994 NOSIG=
201105052300 METAR MROC 052300Z 10009KT 9999 -RA FEW030 BKN100 21/18 A2994 NOSIG=
201105060000 METAR MROC 060000Z 13009KT 9999 FEW030 SCT100 22/18 A2994 NOSIG=
201105060100 METAR MROC 060100Z 13013G23KT 9999 FEW030 SCT100 22/18 A2996 NOSIG=
201105060200 METAR MROC 060200Z 12010KT 9999 -DZ FEW030 BKN100 22/18 A2999 NOSIG=
201105060300 METAR MROC 060300Z 12010KT 9999 FEW025 BKN080 23/18 A3000 RMK TS DST S GUST 15KT NOSIG=
201105060400 METAR MROC 060400Z 12010KT 9999 -RA FEW025 SCT080 22/18 A2999 RMK GUST 15KT TS DST S NOSIG=
201105060500 METAR MROC 060500Z 13010KT CAVOK 23/18 A3000 RMK BKN090 GUST 17KT TS DST SE S NOSIG=
201105060600 METAR MROC 060600Z 07004KT 9999 FEW035 SCT120 BKN250 21/18 A2999 RMK=
201105060700 METAR MROC 060700Z 09006KT 9999 FEW030 SCT130 BKN200 22/18 A2998 RMK=
201105060800 METAR MROC 060800Z 11005KT 9999 FEW035 BKN250 22/18 A2997 RMK FEW100 NOSIG=
201105060900 METAR MROC 060900Z 03006KT 9999 FEW030 BKN250 21/18 A2996 RMK FEW100 NOSIG=
201105061000 METAR MROC 061000Z 08005KT 9999 FEW035 SCT200 21/18 A2996 RMK FEW090 NOSIG=
201105061100 METAR MROC 061100Z 01003KT 9999 FEW020 SCT250 21/18 A2997 RMK FEW100 NOSIG=
201105061200 METAR MROC 061200Z 08006KT 9999 FEW035 SCT120 BKN250 21/18 A2997 RMK DZ DST NE NOSIG=
201105061300 METAR MROC 061300Z 12011KT 9999 FEW035 BKN250 24/18 A2998 NOSIG=
201105061400 METAR MROC 061400Z 13012G24KT 9999 FEW035 BKN250 25/19 A2998 NOSIG=
201105061500 METAR MROC 061500Z 12011KT 9999 FEW030 BKN250 26/18 A2999 NOSIG=
201105061600 METAR MROC NIL=
201105061700 METAR MROC 061700Z 13015G25KT 9999 FEW030 BKN250 27/17 A2999 NOSIG=
201105061800 METAR MROC 061800Z 11012KT 9999 FEW030 SCT120 BKN250 27/17 A3000 NOSIG=
201105061900 METAR MROC 061900Z 10012KT 9999 FEW030 SCT120 BKN250 26/17 A2998 NOSIG=
201105062000 METAR MROC 062000Z 13009KT 9999 SCT030 SCT120 24/18 A2997 NOSIG=
201105062100 METAR MROC 062100Z 14010KT 9999 -RA SCT030 OVC100 23/18 A2997 NOSIG=
201105062200 METAR MROC 062200Z 09006KT 9999 -RA SCT025 OVC100 22/19 A2996 NOSIG=
201105062300 METAR MROC 062300Z 13012KT 9999 FEW030 OVC100 22/18 A2996 NOSIG=
201105070000 METAR MROC 070000Z 13008KT 9999 -RA FEW030 BKN100 21/18 A2998 NOSIG=
201105070100 METAR MROC 070100Z 08008KT 9999 -RA FEW030 BKN100 21/18 A2999 NOSIG=
201105070200 METAR MROC 070200Z 10011KT 9999 FEW035 BKN100 22/17 A2998 NOSIG=
201105070300 METAR MROC 070300Z 11011G21KT 9999 -DZ BKN090 22/18 A2999 NOSIG=
201105070400 METAR MROC 070400Z 12013G26KT CAVOK 23/17 A2996 RMK BKN120 NOSIG=
201105070500 METAR MROC 070500Z 11008KT CAVOK 23/17 A2998 RMK BKN120 NOSIG=
201105070600 METAR MROC 070600Z 09007KT CAVOK 23/17 A2997 RMK SCT120 NOSIG=
201105070700 METAR MROC 070700Z 13010KT CAVOK 22/17 A2994 RMK SCT120 NOSIG=
201105070800 METAR MROC 070800Z 11010KT CAVOK 23/17 A2991 RMK SCT120=
201105070900 METAR MROC 070900Z 13011KT CAVOK 22/17 A2989 RMK SCT120=
201105071000 METAR MROC 071000Z 08006KT CAVOK 21/17 A2993 RMK SCT120=
201105071100 METAR MROC 071100Z 08006KT 9999 FEW030 SCT120 21/17 A2994 RMK DZ DST NE E=
201105071200 METAR MROC 071200Z 08005KT 9999 FEW030 BKN250 21/17 A2997 RMK DZ DST NE E=
201105071300 METAR MROC 071300Z 11015KT 9999 FEW030 SCT120 23/18 A2998 RMK SCT250 NOSIG=
201105071400 METAR MROC 071400Z 13008KT CAVOK 25/18 A3000 RMK TCU DST SW BKN250 NOSIG=
201105071500 METAR MROC 071500Z 13011KT CAVOK 27/17 A2998 RMK CB DST S FEW250 NOSIG=
201105071600 METAR MROC 071600Z 16010KT CAVOK 30/16 A2997 RMK CB DST S FEW250 BECMG 24006KT=
201105071700 METAR MROC 071700Z 26011KT 9999 SCT035 SCT250 28/19 A2998 NOSIG=
201105071800 METAR MROC 071800Z 28008KT 9999 BKN030 28/20 A2997 NOSIG=
201105071900 METAR MROC 071900Z 26008KT 9999 VCSH FEW015TCU BKN030 28/21 A2995 RMK SHRA NW BECMG 5000 VCSH=
201105072000 METAR MROC 072000Z 26005KT 9999 FEW015TCU BKN030 28/21 A2993 BECMG 5000 SHRA=
201105072100 METAR MROC 072100Z 25009KT 9999 FEW015TCU BKN040 27/21 A2993 RMK RN N BECMG -SHRA=
201105072200 METAR MROC 072200Z 25010KT 8000 VCSH FEW020CB BKN040 23/23 A2993 RMK RN N BECMG TSRA=
201105072300 METAR MROC 072300Z 25007KT 9999 FEW001 FEW010CB SCT045 23/23 A2994 RMK RN QUAD N FEW020 BECMG -RA=
201105080000 METAR MROC 080000Z 27005KT 9999 -SHRA FEW001 SCT015 BKN040 23/22 A2995 RERA NOSIG=
201105080100 METAR MROC 080100Z 00000KT 9999 BKN030 22/22 A2997 RMK RERA BECMG 8000=
201105080200 METAR MROC 080200Z 00000KT 9999 BKN030 22/22 A2998 RMK BECMG 8000 VCFG HZY=
201105080300 METAR MROC 080300Z 05006KT 9999 SCT030 BKN100 22/22 A2998 NOSIG=
201105080400 METAR MROC 080400Z 08008KT 9999 FEW030 SCT100 22/19 A2997 NOSIG=
201105080500 METAR MROC 080500Z 08010KT 9999 FEW030 SCT100 23/19 A2997 NOSIG=
201105080600 METAR MROC 080600Z 12010KT 9999 FEW035 SCT120 23/19 A2996 NOSIG=
201105080700 METAR MROC 080700Z 09005KT 9999 FEW035 SCT120 23/19 A2996 NOSIG=
201105080800 METAR MROC NIL=
201105080900 METAR MROC 080900Z 05003KT 9999 FEW035 SCT120 21/19 A2996 NOSIG=
201105081000 METAR MROC 081000Z 05007KT 9999 FEW035 SCT120 21/19 A2995 NOSIG=
201105081100 METAR MROC 081100Z 09003KT 9999 FEW035 SCT100 21/19 A2996 NOSIG=
201105081200 METAR MROC 081200Z 09004KT 9999 FEW035 BKN100 21/19 A2998 RMK DZ N NE NOSIG=
201105081300 METAR MROC 081300Z VRB02KT 9999 FEW030 BKN100 22/20 A2999 RMK CB DST SW DZ E NOSIG=
201105081400 METAR MROC 081400Z 07003G13KT 9999 FEW020 BKN100 24/20 A3000 RMK RN DST S E NOSIG=
201105081500 METAR MROC 081500Z 12006KT 9999 -RA FEW020 BKN100 24/20 A3000 RMK RN DST QUAD S E FEW150 NOSIG=
201105081600 METAR MROC 081600Z 11010KT 080V150 9999 -DZ FEW025 SCT090 26/19 A2998 RMK GUST 16KT RN DST QUAD E SCT150 NOSIG=
201105081700 METAR MROC 081700Z 12009KT 9999 FEW025 SCT090 28/19 A2995 RMK GUST 15KT RN DST QUAD E SCT150 NOSIG=
201105081800 METAR MROC 081800Z 11009KT 9999 FEW025 BKN100 29/18 A2994 RMK GUST 18KT BECMG 24007KT=
201105081900 METAR MROC 081900Z 12011KT 9999 FEW020 BKN100 27/19 A2992 RMK RN QUAD E BECMG 24007KT=
201105082000 METAR MROC 082000Z 13008KT 9999 -RA FEW020 SCT090 25/20 A2992 RMK GUST 16KT RN S QUAD E SCT110 BECMG 24007KT=
201105082100 METAR MROC 082100Z 13008KT 9999 -RA FEW020 SCT045 BKN250 27/19 A2990 RMK VIS 7KM NE FEW100 NOSIG=
201105082200 METAR MROC 082200Z 13006KT 9999 FEW020 SCT050 BKN200 27/19 A2991 RMK PCPN DST N NE NOSIG=
201105082300 METAR MROC 082300Z 16004KT 9999 -DZ FEW030 SCT045 OVC200 26/19 A2992 RMK VIS 7KM NE NOSIG=
201105090000 METAR MROC 090000Z 15004KT 9999 FEW040 SCT110 OVC250 24/19 A2995 RMK DZ DST N NE NOSIG=
201105090100 METAR MROC 090100Z 12008KT CAVOK 23/19 A2996 RMK SCT070 BKN250 DZ DST NE NOSIG=
201105090200 METAR MROC 090200Z 13012G22KT 9999 -RA SCT080 BKN200 23/19 A2999 RMK NOSIG=
201105090300 METAR MROC 090300Z 09010KT 9999 SCT030 BKN110 22/19 A2999 NOSIG=
201105090400 METAR MROC 090400Z 09007KT 9999 SCT030 BKN100 22/18 A2998 NOSIG=
201105090500 METAR MROC 090500Z 08003KT 9999 FEW030 BKN100 21/18 A2997 NOSIG=
201105090600 METAR MROC 090600Z 07005KT 9999 FEW030 BKN100 22/18 A2996 NOSIG=
201105090700 METAR MROC 090700Z 11003KT 9999 FEW030 BKN100 22/18 A2996 NOSIG=
201105090800 METAR MROC 090800Z 11008KT 9999 FEW030 SCT100 22/19 A2994 NOSIG=
201105090900 METAR MROC 090900Z 05007KT 9999 FEW030 SCT100 21/17 A2995 NOSIG=
201105091000 METAR MROC 091000Z 05006KT 9999 FEW025 SCT100 21/18 A2995 NOSIG=
201105091100 METAR MROC 091100Z 10008KT 9999 FEW025 SCT100 21/18 A2999 NOSIG=
201105091200 METAR MROC 091200Z 10004KT 9999 FEW020 SCT100 BKN250 23/18 A2995 RMK PCPN DST NE NOSIG=
201105091300 METAR MROC 091300Z 11004KT 9999 FEW025 SCT110 OVC250 23/19 A2997 RMK PCPN DST N NE NOSIG=
201105091400 METAR MROC 091400Z 12007KT 9999 FEW025 OVC250 25/19 A2998 RMK PCPN DST NE BECMG 24007KT=
201105091500 METAR MROC 091500Z 12012KT FEW035 OVC250 26/19 A2997 RMK GUST 17KT PCPN DST NE BECMG 24007KT=
201105091600 METAR MROC 091600Z 13009KT CAVOK 28/19 A2995 RMK BKN250 BECMG 24007KT=
201105091700 METAR MROC 091700Z 12007KT 050V150 CAVOK 29/18 A2992 RMK FEW080 BKN250 NOSIG=
201105091800 METAR MROC 091800Z 13006KT 110V170 9999 FEW035 BKN250 31/18 A2990 RMK NOSIG=
201105091900 METAR MROC 091900Z 13013KT 9999 FEW035 BKN250 28/19 A2990 RMK FEW050 TCU DST S PCPN DST QUAD N NOSIG=
201105092000 METAR MROC 092000Z 12010KT 090V150 9999 FEW025 SCT045 29/19 A2988 RMK SCT250 PCPN DST QUAD N VEL MAX VTO 18KT NOSIG=
201105092100 METAR MROC 092100Z 14010KT 9999 FEW035 SCT080 BKN250 27/19 A2987 RMK RN DST NE E NOSIG=
201105092200 METAR MROC 092200Z 12011KT 9999 SCT035 BKN090 25/19 A2987 RMK DZ DST N NE NOSIG=
201105092300 METAR MROC 092300Z 13011KT 9999 FEW035 SCT100 BKN250 25/18 A2989 RMK RN DST NE SW NOSIG=
201105100000 METAR MROC 100000Z 15006KT 9999 SCT035 BKN100 24/19 A2992 RMK LTNG SW W RN DST NE NOSIG=
201105100100 METAR MROC 100100Z 03003KT CAVOK 23/21 A2994 RMK BKN250 LTNG DST S SW W NOSIG=
201105100200 METAR MROC 100200Z 00000KT CAVOK 23/21 A2996 RMK BKN250 LTNG S SW NOSIG=
201105100300 METAR MROC 100300Z VRB02KT 9999 FEW001 SCT100 22/22 A3000 RMK FEW015 NOSIG=
201105100400 METAR MROC 100400Z 00000KT 9999 FEW001 22/21 A2997 RMK FEW100 NOSIG=
201105100500 METAR MROC 100500Z 00000KT 9999 VCFG FEW001 21/21 A2996 RMK FEW100 NOSIG=
201105100600 METAR MROC 100600Z VRB02KT 9999 FEW001 21/20 A2993 NOSIG=
201105100700 METAR MROC 100700Z 13004KT 9999 FEW001 22/18 A2990 NOSIG=
201105100800 METAR MROC 100800Z 09007KT CAVOK 22/18 A2990 NOSIG=
201105100900 METAR MROC 100900Z 10009KT CAVOK 22/18 A2988 RMK LGHTG DST S NOSIG=
201105101000 METAR MROC 101000Z 08006KT CAVOK 22/18 A2989 NOSIG=
201105101100 METAR MROC 101100Z 09007KT CAVOK 22/18 A2990 NOSIG=
201105101200 METAR MROC 101200Z 11007KT CAVOK 22/18 A2990 NOSIG=
201105101300 METAR MROC 101300Z 13008KT CAVOK 23/18 A2993 RMK FEW100 SCT250 NOSIG=
201105101400 METAR MROC 101400Z 10009KT 9999 SCT045 SCT250 24/19 A2996 NOSIG=
201105101500 METAR MROC 101500Z 11011KT 9999 FEW035 SCT100 27/18 A2994 RMK SCT250 BECMG 24006KT=
201105101600 METAR MROC 101600Z 12014G25KT 9999 FEW035 BKN250 28/18 A2993 NOSIG=
201105101700 METAR MROC 101700Z 14009KT 9999 FEW035 BKN250 29/18 A2994 NOSIG=
201105101800 METAR MROC 101800Z 15011KT 9999 FEW035 BKN250 31/17 A2991 BECMG 24006KT=
201105101900 METAR MROC 101900Z 24009KT 9999 SCT035 BKN250 27/22 A2989 BECMG 8000=
201105102000 METAR MROC 102000Z 25009KT 9999 FEW020 SCT035 BKN250 27/22 A2988 NOSIG=
201105102100 METAR MROC 102100Z 24004KT 9999 SCT035 BKN130 26/21 A2987 RMK RA NE NOSIG=
201105102200 METAR MROC 102200Z 24004KT 9999 SCT035 BKN130 26/22 A2986 RMK RA E NOSIG=
201105102300 METAR MROC 102300Z 13003KT 9999 SCT035 BKN120 26/18 A2989 NOSIG=
201105110000 METAR MROC 110000Z 13005KT 9999 FEW035 BKN120 25/18 A2990 NOSIG=
201105110100 METAR MROC 110100Z 15003KT 9999 FEW035 BKN120 24/18 A2991 NOSIG=
201105110200 METAR MROC 110200Z 00000KT 9999 FEW035 BKN120 23/18 A2993 NOSIG=
201105110300 METAR MROC 110300Z 24005KT 9999 BCFG FEW020 BKN120 22/22 A2996 RMK VIS 6KM W BECMG 8000 BCFG=
201105110400 METAR MROC 110400Z 00000KT 9999 3000SW BCFG FEW010 BKN110 22/22 A2996 RMK VIS 7KM NW NOSIG=
201105110500 METAR MROC 110500Z 00000KT 9999 3000SW BCFG FEW015 BKN090 21/21 A2996 RMK VIS 6KM NW NOSIG=
201105110600 METAR MROC 110600Z 00000KT 9999 3500SW BCFG FEW015 BKN120 22/22 A2995 RMK NOSIG=
201105110700 METAR MROC 110700Z 00000KT 9999 VCFG FEW020 SCT120 BKN250 21/20 A2993 RMK NOSIG=
201105110800 METAR MROC 110800Z 09005KT CAVOK 22/18 A2992 RMK SCT150 SCT250 LTNG DST SW NOSIG=
201105110900 METAR MROC 110900Z 00000KT CAVOK 21/19 A2992 RMK SCT120 BKN250 NOSIG=
201105111000 METAR MROC 111000Z 04006KT CAVOK 21/18 A2991 RMK SCT100 BKN250 NOSIG=
201105111100 METAR MROC 111100Z 00000KT CAVOK 21/18 A2992 RMK FEW100 BKN250 NOSIG=
201105111200 METAR MROC 111200Z 12011KT 9999 SCT030 SCT100 28/17 A2995 RMK RA DST W NOSIG=
201105111300 METAR MROC 111300Z 08005KT CAVOK 24/19 A2997 RMK FEW110 BKN250 NOSIG=
201105111400 METAR MROC 111400Z 13011KT 9999 FEW040 SCT120 BKN250 26/19 A2998 NOSIG=
201105111500 METAR MROC 111500Z 13008KT 9999 FEW040 SCT120 BKN250 28/19 A2999 BECMG 24006KT=
201105111600 METAR MROC 111600Z 14012KT 9999 SCT030 BKN250 27/19 A3000 BECMG 24006KT=
201105111700 METAR MROC 111700Z 13010KT 9999 SCT030 BKN250 27/19 A2998 RMK RA DST S N NE BECMG 24006KT=
201105111800 METAR MROC 111800Z 13005KT 080V160 9999 SCT030 SCT100 28/18 A2996 RMK RA DST W BECMG 24006KT=
201105111900 METAR MROC 111900Z 12011KT 9999 SCT030 SCT100 28/17 A2995 RMK RA DST W NOSIG=
201105112000 METAR MROC 112000Z 13008KT 9999 SCT030 BKN100 27/17 A2995 NOSIG=
201105112100 METAR MROC 112100Z 12007KT 9999 SCT030 BKN100 26/16 A2992 RMK PCPN DST NE NOSIG=
201105112200 METAR MROC 112200Z 14005KT 9999 SCT030 BKN120 26/15 A2992 BECMG 24006KT=
201105112300 METAR MROC 112300Z 24004KT 9999 SCT035 BKN120 26/19 A2995 NOSIG=
201105120000 METAR MROC 120000Z 27006KT 9999 FEW030 BKN120 24/21 A2995 RMK TS DST S NOSIG=
201105120100 METAR MROC 120100Z 23004KT 9999 FEW030 SCT120 23/21 A2998 NOSIG=
201105120200 METAR MROC 120200Z 10004KT 9999 FEW030 SCT120 24/18 A3001 NOSIG=
201105120300 METAR MROC 120300Z 11004KT CAVOK 23/18 A3002 RMK BKN120 LTNG S NOSIG=
201105120400 METAR MROC 120400Z 00000KT CAVOK 23/18 A3004 RMK BKN120 LTNG DST S NOSIG=
201105120500 METAR MROC 120500Z 13004KT CAVOK 23/17 A3003 RMK SCT120 LTNG S NOSIG=
201105120600 METAR MROC 120600Z 09004KT CAVOK 22/17 A2999 RMK SCT120 NOSIG=
201105120700 METAR MROC 120700Z 08006KT CAVOK 20/17 A2998 RMK SCT120 LTNG DST S SW=
201105120800 METAR MROC 120800Z 08003KT CAVOK 20/17 A2998 RMK SCT120 LTNG DST S SW=
201105120900 METAR MROC 120900Z 08006KT CAVOK 19/17 A2997 RMK SCT120=
201105121000 METAR MROC 121000Z 10006KT CAVOK 20/17 A2997 RMK SCT120=
201105121100 METAR MROC 121100Z 10004KT CAVOK 20/16 A2997 RMK SCT120=
201105121200 METAR MROC 121200Z 08008KT CAVOK 20/16 A2998 RMK FEW120 BKN250=
201105121300 METAR MROC 121300Z 12005KT CAVOK 23/17 A2999 RMK SCT130 BKN250 NOSIG=
201105121400 METAR MROC 121400Z 13002KT CAVOK 25/17 A3001 RMK SCT130 BKN230 NOSIG=
201105121500 METAR MROC 121500Z 24006KT CAVOK 28/17 A3003 RMK SCT130 BKN230 NOSIG=
201105121600 METAR MROC 121600Z 23006KT 9999 FEW030 BKN250 27/18 A3003 NOSIG=
201105121700 METAR MROC 121700Z 24008KT 9999 SCT030 BKN250 27/20 A3003 NOSIG=
201105121800 METAR MROC 121800Z 23010KT 9999 FEW035 BKN250 27/20 A3001 NOSIG=
201105121900 METAR MROC 121900Z 23011KT 9999 SCT025TCU BKN250 29/21 A2999 RMK PCPN DST NE NOSIG=
201105122000 METAR MROC 122000Z 28012KT 9999 FEW015CB SCT020TCU BKN250 26/21 A2998 BECMG 8000 VCSH=
201105122100 METAR MROC 122100Z 32009KT 9999 -RA VCSH SCT010CB BKN090 23/19 A2998 RMK GUST 15KT RN DST SE VIS N 5KM DUE RN BECMG 8000=
201105122200 METAR MROC 122200Z 00000KT 9999 -RA FEW010CB FEW020 BKN090 22/20 A2998 RMK TS DST SW SH DST QUAD N E S NOSIG=
201105122300 METAR MROC 122300Z 00000KT 5000 RA BR FEW001 SCT020 BKN090 21/21 A3001 RMK VIS SW UNL TS DST S NOSIG=
201105130000 METAR MROC 130000Z VRB02KT 9999 -RA BCFG FEW001 BKN100 21/21 A3000 RMK FEW020 LGHT BR ARND NOSIG=
201105130100 METAR MROC 130100Z 00000KT 9999 -RADZ BCFG FEW001 BKN100 21/21 A3002 RMK LGHT BR ARND NOSIG=
201105130200 METAR MROC 130200Z 00000KT 9999 FEW008 BKN080 21/21 A3004 RERA NOSIG=
201105130300 METAR MROC 130300Z 00000KT 9999 FEW030 BKN080 21/21 A3005 RMK HZ LEVE ARND NOSIG=
201105130400 METAR MROC 130400Z 00000KT CAVOK 21/21 A3005 RMK BKN100 HZY LEVE ARND NOSIG=
201105130500 METAR MROC 130500Z 09003KT CAVOK 21/21 A3003 RMK BKN100 HZY LEVE ARND NOSIG=
201105130600 METAR MROC 130600Z 10004KT CAVOK 21/21 A3001 RMK BKN100 NOSIG=
201105130700 METAR MROC 130700Z 07005KT CAVOK 20/20 A2998 RMK SCT120 SCT250 NOSIG=
201105130800 METAR MROC 130800Z 06006KT CAVOK 21/19 A2996 RMK SCT120 SCT250 NOSIG=
201105130900 METAR MROC 130900Z 00000KT CAVOK 21/19 A2996 RMK SCT120 SCT250 NOSIG=
201105131000 METAR MROC 131000Z 00000KT CAVOK 19/19 A2998 RMK SCT120 SCT250 NOSIG=
201105131100 METAR MROC 131100Z 00000KT CAVOK 20/19 A2999 RMK SCT120 SCT250 NOSIG=
201105131200 METAR MROC 131200Z 00000KT CAVOK 21/20 A3000 RMK SCT120 SCT250 CB DST SW HZ LGT ARND NOSIG=
201105131300 METAR MROC 131300Z 10004KT CAVOK 23/19 A3001 RMK CB DST SW NOSIG=
201105131400 METAR MROC 131400Z 00000KT CAVOK 26/19 A3002 RMK CB DST SW W NOSIG=
201105131427 METAR MROC 131427Z 25006KT CAVOK 26/21 A3002 RMK CB DST SW W NOSIG=
201105131500 METAR MROC 131500Z 27005KT CAVOK 26/20 A3002 RMK CB DST SW W NOSIG=
201105131600 METAR MROC 131600Z 24004KT 9999 FEW045 BKN250 27/20 A3000 RMK GUST 09KT CB DST SW NOSIG=
201105131700 METAR MROC 131700Z 24009KT 9999 FEW050 BKN250 28/20 A2999 RMK CB DST SW NOSIG=
201105131800 METAR MROC 131800Z 23011KT 9999 FEW020TCU SCT050 27/21 A2997 RMK FEW250 BECMG 8000 VCSH=
201105131900 METAR MROC 131900Z 24010KT 9999 FEW020TCU FEW080 SCT250 28/21 A2995 RMK GUST 16KT RN DST E BECMG 8000 VCSH=
201105132000 METAR MROC 132000Z 25009KT 9999 VCSH FEW020CB SCT070 29/22 A2992 RMK=
201105132100 METAR MROC 132100Z 23012KT 9999 4000E SHRA FEW020CB BKN045 27/22 A2991 RMK VIS SW 6KM DUE HZ BECMG 8000 -TSRA=
201105132200 METAR MROC 132200Z 23005KT 3500 SHRA FEW015CB SCT025TCU BKN100 24/23 A2992 RMK VIS UNL S SW NOSIG=
201105132300 METAR MROC 132300Z 09005KT 9999 2000S -SHRA FEW010CB SCT035 BKN100 21/21 A2994 RMK FEW020 VIS 3KM N NOSIG=
201105140000 METAR MROC 140000Z 15003KT 9999 2500SW SHRA VCTS FEW008TCU SCT030 BKN100 21/21 A2997 RMK NOSIG=
201105140039 METAR MROC 140039Z 10003KT 9999 3000SW -RA VCTS FEW006 SCT025 BKN070 20/20 A2998 RESHRA RMK VIS 3KM W/NW NOSIG=
201105140100 METAR MROC 140100Z 15005KT 9999 3000SW -RA FEW006 SCT030 BKN070 21/21 A2998 RMK LTNG DST NW NOSIG=
201105140200 METAR MROC 140200Z 18003KT 9999 BCFG SCT030 BKN070 21/21 A3002 RMK VIS 6KM SW NOSIG=
201105140300 METAR MROC 140300Z 00000KT 9999 SCT030 BKN090 21/21 A3003 NOSIG=
201105140400 METAR MROC 140400Z 09004KT 9999 SCT030 BKN090 21/21 A3003 NOSIG=
201105140500 METAR MROC 140500Z 00000KT 9999 SCT030 BKN090 21/21 A3001 NOSIG=
201105140600 METAR MROC 140600Z 00000KT 9999 SCT030 BKN100 20/20 A3000 NOSIG=
201105140700 METAR MROC NIL=
201105140800 METAR MROC 140800Z 32008KT 9999 SCT030 BKN100 21/21 A2996 NOSIG=
201105140900 METAR MROC 140900Z 10002KT 9999 SCT030 BKN100 20/20 A2996 NOSIG=
201105141000 METAR MROC 141000Z 00000KT 9999 SCT030 BKN100 20/20 A2997 NOSIG=
201105141100 METAR MROC 141100Z 00000KT 9999 SCT030 BKN100 20/20 A2998 NOSIG=
201105141200 METAR MROC 141200Z 10002KT 9999 SCT025 BKN100 21/20 A2999 NOSIG=
201105141300 METAR MROC 141300Z 11005KT CAVOK 22/20 A3000 RMK FEW130 BKN250 HZY NOSIG=
201105141400 METAR MROC 141400Z 09003KT CAVOK 23/20 A3001 RMK BKN250 HZY NOSIG=
201105141500 METAR MROC 141500Z VRB02KT 9999 FEW040 SCT250 25/18 A3001 RMK HZY QUAD W BECMG 24006KT=
201105141600 METAR MROC 141600Z 12003KT 9999 FEW035 SCT250 27/18 A2999 RMK HZ W BECMG 24006KT=
201105141700 METAR MROC 141700Z 20003KT 9999 SCT035 29/16 A2998 RMK FEW250 HZ W NOSIG=
201105141800 METAR MROC 141800Z 24007KT 9999 FEW025TCU SCT035 28/19 A2996 RMK SCT250 HZ W NOSIG=
201105141900 METAR MROC 141900Z 23007KT 9999 FEW020TCU SCT035 29/21 A2992 RMK FEW250 HZ SW W NW VEL MAX VTO 16KT NOSIG=
201105142000 METAR MROC 142000Z 23011KT 9999 FEW020TCU BKN035 26/22 A2991 RMK RN DST NE E SW BECMG 5000 TS RA=
201105142100 METAR MROC 142100Z 25003KT 9999 SCT015TCU SCT025 24/21 A2993 RMK RN DST N NE E BECMG 5000 TS RA=
201105142200 METAR MROC 142200Z 11004KT 9999 SCT025 SCT090 21/19 A2994 RMK RN DST S BECMG 24006KT=
201105142300 METAR MROC 142300Z 08006KT CAVOK 22/18 A2995 RMK FEW120 BKN250 HZ LEVE SW NOSIG=
201105150000 METAR MROC 150000Z 05003KT CAVOK 22/18 A2994 RMK BKN250 HZ LEVE SW W NOSIG=
201105150100 METAR MROC 150100Z 00000KT CAVOK 21/19 A2998 RMK SCT250 NOSIG=
201105150200 METAR MROC 150200Z 00000KT CAVOK 21/19 A2999 RMK SCT250 NOSIG=
201105150300 METAR MROC 150300Z 00000KT 9999 BCFG FEW001 SCT110 20/19 A3001 NOSIG=
201105150400 METAR MROC 150400Z 00000KT 9999 FEW001 SCT250 20/19 A3002 RMK LGHT BR ARND NOSIG=
201105150500 METAR MROC 150500Z 08004KT 9999 FEW001 SCT250 19/19 A3001 RMK LGHT BR ARND NOSIG=
201105150600 METAR MROC 150600Z VRB02KT 9999 FEW001 SCT250 19/18 A3000 RMK LGHT BR ARND NOSIG=
201105150700 METAR MROC 150700Z VRB02KT 9999 FEW001 SCT250 19/18 A2999 RMK LGHT BR ARND NOSIG=
201105150800 METAR MROC 150800Z 11004KT 9999 FEW001 SCT250 19/18 A2997 RMK LGHT BR ARND NOSIG=
201105150900 METAR MROC 150900Z 10005KT 9999 FEW001 18/18 A2996 RMK LGHT BR ARND NOSIG=
201105151000 METAR MROC 151000Z 09006KT CAVOK 19/18 A2995 RMK LGHT BR ARND NOSIG=
201105151100 METAR MROC 151100Z VRB02KT CAVOK 18/17 A2997 RMK LGHT BR ARND NOSIG=
201105151200 METAR MROC 151200Z 10004KT CAVOK 18/17 A3000 NOSIG=
201105151300 METAR MROC 151300Z 10004KT CAVOK 21/18 A3002 RMK FEW250 HZ SW NOSIG=
201105151400 METAR MROC 151400Z 00000KT CAVOK 24/19 A3003 RMK FEW250 HZ SW BECMG 24006KT=
201105151500 METAR MROC 151500Z 24003KT CAVOK 26/19 A3004 RMK FEW250 HZ SW NOSIG=
201105151600 METAR MROC 151600Z 26006KT 9999 FEW040 SCT250 27/19 A3004 RMK HZ LEVE ARND NOSIG=
201105151700 METAR MROC 151700Z 25007KT 9999 SCT035 SCT250 28/20 A3002 RMK HA LEVE ARND NOSIG=
201105151800 METAR MROC 151800Z 25010KT 9999 SCT035 SCT250 28/22 A3001 RMK HZ ARND NOSIG=
201105151900 METAR MROC 151900Z 26010KT 9999 SCT035 SCT250 26/20 A2999 RMK HZ ARND NOSIG=
201105152000 METAR MROC 152000Z 25009KT 9999 BKN030 SCT250 26/21 A2997 RMK HZ ARND NOSIG=
201105152100 METAR MROC 152100Z 26006KT 9999 SCT030 BKN250 25/21 A2995 RMK HZ ARND=
201105152200 METAR MROC 152200Z 24005KT 9999 SCT030 BKN250 24/21 A2995 RMK HZ ARND NOSIG=
201105152300 METAR MROC 152300Z 26004KT 9999 FEW030 SCT120 BKN250 24/21 A2995 RMK HZ ARND NOSIG=
201105160000 METAR MROC 160000Z 27004KT 9999 FEW030 SCT120 BKN250 23/21 A2998 RMK HZY ARND NOSIG=
201105160100 METAR MROC 160100Z 00000KT 9999 FEW030 SCT120 BKN250 22/22 A3000 RMK HZ ARND=
201105160200 METAR MROC 160200Z 00000KT 9999 FEW005 SCT025 BKN100 22/22 A3002 RMK HZ ARND=
201105160300 METAR MROC 160300Z 24003KT 9000 3000SW BCFG SCT002 BKN030 22/22 A3004 BECMG 6000 BCFG=
201105160400 METAR MROC 160400Z 25006KT 5000 1800SW BR SCT001 OVC004 21/21 A3006 BECMG 3000 BR=
201105160500 METAR MROC 160500Z 00000KT 4000 1800W BR SCT001 BKN008 21/21 A3005 NOSIG=
201105160600 METAR MROC 160600Z 00000KT 8000 2000SW BCFG SCT004 BKN035 21/21 A3002 RMK VIS 2KM N NOSIG=
201105160700 METAR MROC 160700Z 00000KT 8000 3000SW BCFG FEW030 OVC070 21/21 A2999 RMK VIS 2KM NW NOSIG=
201105160800 METAR MROC NIL=
201105160900 METAR MROC 160900Z 00000KT 3000 1000SW BR SCT001 BKN008 21/21 A2998 NOSIG=
201105161000 METAR MROC 161000Z 00000KT 5000 2500SW BR SCT002 BKN010 21/21 A2998 BECMG 7000 BCFG=
201105161100 METAR MROC 161100Z 00000KT 9999 VCFG FEW130 BKN250 20/20 A2998 BECMG 08006KT=
201105161200 METAR MROC 161200Z 09003KT 9000 4000SW BCFG BKN120 21/19 A3001 RMK VIS 7KM NW HZY NOSIG=
201105161300 METAR MROC 161300Z 00000KT 9999 FEW015 BKN250 22/17 A3003 RMK BECMG 23006KT HZ ARND=
201105161400 METAR MROC 161400Z 27005KT CAVOK 24/18 A3003 RMK HZ ARND BKN250 NOSIG=
201105161500 METAR MROC 161500Z 24005KT CAVOK 26/20 A3004 RMK HZ ARND BKN250 NOSIG=
201105161600 METAR MROC 161600Z 26006KT 9999 FEW030 BKN250 27/19 A3003 RMK HZ ARND NOSIG=
201105161700 METAR MROC 161700Z 23009KT 9999 FEW030 BKN250 28/18 A3001 RMK HZ ARND NOSIG=
201105161800 METAR MROC 161800Z 23007KT 9999 FEW025 BKN250 28/20 A3000 RMK HZ ARND NOSIG=
201105161900 METAR MROC 161900Z 22010KT 9999 FEW030 BKN250 29/20 A2997 RMK HZ ARND NOSIG=
201105162000 METAR MROC 162000Z 26010KT 9999 FEW025TCU BKN250 29/21 A2995 RMK HZY ARND NOSIG=
201105162100 METAR MROC 162100Z 25011KT 9999 SCT025TCU BKN250 28/21 A2994 RMK HZ ARND NOSIG=
201105162200 METAR MROC 162200Z 24009KT 9999 SCT025TCU BKN250 25/22 A2996 RMK HZY ARND NOSIG=
201105162300 METAR MROC 162300Z 25011KT 9999 FEW010 SCT025 BKN250 24/22 A2997 RMK RA DST NE HZY ARND NOSIG=
201105170000 METAR MROC 170000Z 23006KT 9999 FEW010TCU BKN030 23/22 A3000 RMK RA NE E HZY ARND BECMG 7000 SHRA=
201105170100 METAR MROC 170100Z 03003KT 9999 SCT030 BKN100 21/19 A3003 RERA NOSIG=
201105170200 METAR MROC 170200Z 00000KT 9999 SCT030 SCT100 21/20 A3005 NOSIG=
201105170300 METAR MROC 170300Z 00000KT 9999 SCT030 SCT100 22/20 A3006 RMK SCT250 NOSIG=
201105170400 METAR MROC 170400Z 10003KT 9999 FEW030 SCT090 BKN220 21/21 A3006 NOSIG=
201105170500 METAR MROC 170500Z 00000KT 9999 FEW030 OVC250 20/20 A3006 NOSIG=
201105170600 METAR MROC 170600Z 11005KT 9999 FEW030 BKN250 18/18 A3003 NOSIG=
201105170700 METAR MROC 170700Z 09004KT CAVOK 18/17 A3001 RMK BKN250 NOSIG=
201105170800 METAR MROC 170800Z 10006KT CAVOK 18/16 A2999 RMK BKN250 NOSIG=
201105170900 METAR MROC 170900Z 09004KT CAVOK 18/16 A2999 RMK BKN250 NOSIG=
201105171000 METAR MROC 171000Z 09004KT CAVOK 17/17 A2999 RMK BKN250 NOSIG=
201105171100 METAR MROC 171100Z 10006KT 9999 FEW030 BKN250 17/15 A3001 NOSIG=
201105171200 METAR MROC 171200Z 10006KT CAVOK 18/14 A3002 RMK FEW100 BKN250 HZ ARND NOSIG=
201105171300 METAR MROC 171300Z 09005KT CAVOK 19/14 A3004 RMK FEW100 BKN250 HZ ARND NOSIG=
201105171400 METAR MROC 171400Z 09005KT CAVOK 23/14 A3006 RMK BECMG 23005KT BKN250 HZ ARND=
201105171500 METAR MROC 171500Z 21003KT 9999 FEW015 BKN250 26/18 A3006 RMK HZ ARND=
201105171600 METAR MROC 171600Z 26005KT 9999 FEW015 BKN250 26/18 A3004 RMK HZ ARND NOSIG=
201105171700 METAR MROC 171700Z 26009KT 9999 FEW015 BKN250 27/19 A3003 RMK HZ ARND NOSIG=
201105171800 METAR MROC 171800Z 24010KT 9999 FEW015 BKN250 28/18 A3000 RMK HZ ARND NOSIG=
201105171900 METAR MROC 171900Z 26008KT 9999 SCT030 BKN250 27/20 A2998 RMK HZ ARND NOSIG=
201105172000 METAR MROC 172000Z 25012KT 9999 SCT030 BKN250 27/20 A2996 RMK HZ ARND NOSIG=
201105172100 METAR MROC 172100Z 24010KT 9999 SCT030 BKN250 27/20 A2994 RMK LGHT HZ ARND NOSIG=
201105172200 METAR MROC 172200Z 25008KT 9999 FEW025TCU FEW080 BKN250 25/20 A2995 RMK GUST 13KT RN N BECMG 8000 VCSH=
201105172300 METAR MROC 172300Z 25008KT 9999 FEW025 SCT070 24/20 A2996 RMK GUST 13KT RN DST N SCT250 BECMG 8000 VCSH=
201105180000 METAR MROC 180000Z 27004KT 9999 FEW012 SCT080 23/21 A2998 RMK RN DST N SCT110 BECMG 8000 VCSH=
201105180100 METAR MROC 180100Z 24006KT 9999 FEW020 SCT080 22/22 A3000 RMK LGHT BR ARND NOSIG=
201105180200 METAR MROC 180200Z 25004KT 9999 FEW020 SCT100 22/22 A3003 RMK GUST 09KT NOSIG=
201105180300 METAR MROC 180300Z 24004KT 9999 FEW010 SCT100 21/21 A3005 RMK VIS SW 6KMS DUE ST LOW HZY ARND NOSIG=
201105180400 METAR MROC 180400Z 28003KT 9999 FEW010 SCT100 21/21 A3006 RMK HZY ARND NOSIG=
201105180500 METAR MROC 180500Z VRB02KT 9999 FEW010 SCT100 21/21 A3006 RMK HZY ARND NOSIG=
201105180600 METAR MROC 180600Z 00000KT 9999 FEW010 SCT100 21/21 A3004 RMK HZY ARND NOSIG=
201105180700 METAR MROC 180700Z 07004KT CAVOK 20/20 A3002 RMK SCT120 NOSIG=
201105180800 METAR MROC 180800Z 07004KT CAVOK 19/17 A3000 RMK SCT120 NOSIG=
201105180900 METAR MROC 180900Z 09004KT CAVOK 18/16 A2999 RMK SCT120 NOSIG=
201105181000 METAR MROC 181000Z 07003KT CAVOK 18/16 A2998 NOSIG=
201105181100 METAR MROC 181100Z 00000KT CAVOK 17/15 A2999 RMK SCT120 NOSIG=
201105181200 METAR MROC 181200Z 11004KT CAVOK 18/16 A3001 RMK FEW120 BKN250 HZY ARND NOSIG=
201105181300 METAR MROC 181300Z 00000KT CAVOK 20/16 A3003 RMK HZ ARND BECMG 24007KT=
201105181400 METAR MROC 181400Z VRB02KT 9999 FEW001 SCT250 24/17 A3005 RMK HZ ARND BECMG 24007KT=
201105181500 METAR MROC 181500Z VRB02KT 9999 FEW001 SCT250 26/17 A3006 RMK HZ ARND BECMG 24007KT=
201105181600 METAR MROC 181600Z 25005KT CAVOK 27/18 A3005 RMK HZ ARND NOSIG=
201105181700 METAR MROC 181700Z 24009KT CAVOK 28/17 A3004 RMK GUST 15KT HZ ARND NOSIG=
201105181800 METAR MROC 181800Z 22009KT 9999 FEW025 28/20 A3003 RMK HZ ARND FEW080 NOSIG=
201105181900 METAR MROC 181900Z 24011KT 9999 FEW025TCU FEW080 SCT250 28/21 A3000 RMK GUST 20KT HZ ARND NOSIG=
201105182000 METAR MROC 182000Z 25012KT 9999 VCSH SCT025TCU FEW080 27/21 A2998 RMK=
201105182100 METAR MROC 182100Z 22005KT 9999 -RA SCT020TCU BKN120 24/22 A2997 RESHRA RMK VIS 6KM N NOSIG=
201105182200 METAR MROC 182200Z 26006KT 9999 VCSH SCT030TCU BKN150 23/22 A2999 RMK HZ QUAD W NOSIG=
201105182300 METAR MROC 182300Z 25009KT 6000 VCFG FEW005 SCT010 BKN020 22/22 A3000 RMK BECMG 4000 -RA BR=
201105190000 METAR MROC 190000Z 28005KT 4000 2000SW -RA BR FEW002 SCT005 BKN010 20/20 A3003 RMK BECMG 4000 -RA BR=
201105190100 METAR MROC 190100Z 00000KT 9999 FEW015 SCT150 20/20 A3003 NOSIG=
201105190200 METAR MROC 190200Z 00000KT 9999 FEW035 BKN120 20/20 A3005 NOSIG=
201105190300 METAR MROC 190300Z 00000KT 9999 FEW035 SCT250 20/20 A3006 NOSIG=
201105190400 METAR MROC 190400Z 00000KT 9999 FEW035 SCT250 20/20 A3007 NOSIG=
201105190500 METAR MROC 190500Z 00000KT 9999 FEW035 SCT250 20/20 A3008 NOSIG=
201105190600 METAR MROC 190600Z 00000KT CAVOK 20/20 A3007 RMK SCT250 NOSIG=
201105190700 METAR MROC 190700Z 00000KT CAVOK 19/19 A3005 RMK SCT250 NOSIG=
201105190800 METAR MROC 190800Z 06005KT CAVOK 19/19 A3004 RMK SCT250 NOSIG=
201105190900 METAR MROC 190900Z 09003KT CAVOK 19/19 A3002 RMK SCT250 NOSIG=
201105191000 METAR MROC 191000Z 08003KT CAVOK 18/18 A3002 RMK SCT250 NOSIG=
201105191100 METAR MROC 191100Z 00000KT CAVOK 18/17 A3003 RMK SCT250 NOSIG=
201105191200 METAR MROC 191200Z 00000KT CAVOK 18/18 A3004 RMK HZ ARND SCT250 NOSIG=
201105191300 METAR MROC 191300Z 00000KT CAVOK 21/18 A3006 RMK SCT250 HZY BECMG 24006KT=
201105191400 METAR MROC 191400Z VRB02KT CAVOK 24/18 A3008 RMK SCT250 HZY BECMG 24006KT=
201105191500 METAR MROC 191500Z VRB02KT CAVOK 25/18 A3008 RMK FEW250 HZY BECMG 24006KT=
201105191600 METAR MROC 191600Z 27004KT CAVOK 27/17 A3008 RMK FEW250 HZY NOSIG=
201105191700 METAR MROC 191700Z 25005KT 9999 FEW040 28/17 A3006 RMK HZY NOSIG=
201105191800 METAR MROC 191800Z 25008KT 9999 FEW035 28/19 A3004 RMK HZY TCU DST S NOSIG=
201105191900 METAR MROC 191900Z 24010KT 9999 FEW020TCU 28/19 A3002 RMK HZY NOSIG=
201105192000 METAR MROC 192000Z 24010KT 9999 FEW020TCU 28/21 A3000 RMK HZ ARND NOSIG=
201105192100 METAR MROC 192100Z 25010KT 9999 -SHRA FEW020TCU SCT100 26/20 A3000 RMK HZY FEW035 VIS 6KM NE NOSIG=
201105192200 METAR MROC 192200Z 24009KT 9000 -RA VCSH FEW020 SCT040 BKN070 25/21 A3000 RMK HZY VIS 5KM N NOSIG=
201105192300 METAR MROC 192300Z 23008KT 9000 RA VCSH FEW010TCU FEW025 SCT080 24/21 A3001 RMK VIS 5KM NE HZ ARND NOSIG=
201105192345 METAR MROC 192345Z 28006KT 4500 RA BR HZ FEW005 FEW010TCU SCT015 23/19 A2999 RESH BECMG BKN010=
201105200000 METAR MROC 200000Z 24008KT 8000 3800SW -RA VCFG FEW008 SCT015 BKN030 23/22 A3003 RMK HZ ARND VIS 4KM N BECMG 5000 RA BR=
201105200100 METAR MROC 200100Z 24005KT 8000 3000SW BCFG SCT002 BKN025 22/22 A3004 RMK FEW008 HZ ARND VIS 2KM NW NOSIG=
201105200200 METAR MROC 200200Z 28003KT 9999 3000NW BCFG FEW015 BKN060 22/21 A3007 RMK LGT HZ ARND VIS 5KM SW NOSIG=
201105200300 METAR MROC 200300Z VRB02KT 9999 BCFG FEW001 SCT040 BKN100 22/21 A3008 RMK LGHT BR ARND NOSIG=
201105200400 METAR MROC 200400Z 00000KT 9999 BCFG FEW001 SCT040 BKN100 22/21 A3009 RMK LGHT BR ARND NOSIG=
201105200500 METAR MROC 200500Z 00000KT 6000 BCFG FEW001 SCT030 BKN060 21/21 A3008 RMK VIS E UNL NOSIG=
201105200541 METAR MROC 200541Z 00000KT 5000 BR FEW001 SCT020 BKN050 21/21 A3008 RMK VIS E UNL NOSIG=
201105200600 METAR MROC 200600Z 00000KT 5000 BR FEW001 SCT020 BKN050 21/21 A3008 NOSIG=
201105200700 METAR MROC 200700Z 00000KT 5000 BR FEW001 SCT020 BKN050 21/21 A3006 NOSIG=
201105200800 METAR MROC 200800Z 00000KT 4000 BR FEW001 SCT030 BKN050 21/21 A3004 RMK VIS E UNL NOSIG=
201105200900 METAR MROC 200900Z 00000KT 8000 VCFG FEW001 SCT030 BKN080 20/20 A3003 RMK VIS E UNL NOSIG=
201105201000 METAR MROC 201000Z 00000KT 9999 BCFG FEW001 SCT030 BKN080 20/18 A3002 NOSIG=
201105201100 METAR MROC 201100Z VRB02KT 8000 VCFG FEW001 SCT030 19/18 A3002 RMK VIS E UNL SCT250 NOSIG=
201105201200 METAR MROC 201200Z 08005KT 6000 BCFG FEW001 SCT250 19/17 A3003 RMK FEW030 NOSIG=
201105201300 METAR MROC 201300Z 07004KT 7000 BCFG SCT250 22/18 A3004 RMK VIS 4KM NE HZY NOSIG=
201105201400 METAR MROC 201400Z 09005KT 7000 FEW300 25/18 A3005 RMK HZY VIS 4KM SW NOSIG=
201105201500 METAR MROC 201500Z VRB02KT 9000 FEW300 27/17 A3004 RMK HZY NOSIG=
201105201600 METAR MROC 201600Z VRB02KT CAVOK 29/15 A3003 RMK FEW300 HZ ARND BECMG 24006KT=
201105201700 METAR MROC 201700Z 24007KT CAVOK 30/20 A3002 RMK FEW300 VIS 7KM SW HZ ARND NOSIG=
201105201800 METAR MROC 201800Z 23010KT 9000 FEW030TCU 29/21 A3000 RMK HZY VIS 7KM W NOSIG=
201105201900 METAR MROC 201900Z 24013KT 9000 FEW030 28/21 A2999 RMK HZY FEW250 VIS 7KM SW/W/NE NOSIG=
201105202000 METAR MROC 202000Z 24013KT 9000 FEW030TCU 28/21 A2996 RMK HZY TCU DST NE VIS 7KM SW/NE NOSIG=
201105202100 METAR MROC 202100Z 26008KT 9999 FEW010CB BKN030 25/22 A2997 RMK VIS N 4KMS DUE RA HZY ARND=
201105202200 METAR MROC 202200Z 27009KT 9999 -DZ FEW010 BKN030 22/21 A2996 RMK VIS SW 5KMS DUE RA NOSIG=
201105202300 METAR MROC 202300Z 00000KT 9999 -TSRA FEW010CB SCT030 BKN100 21/21 A2998 NOSIG=
201105210000 METAR MROC 210000Z 00000KT 9999 BCFG FEW005 SCT030 BKN100 21/20 A2999 RETSRA RMK VIS N 4KMS DUE ST LOW NOSIG=
201105210100 METAR MROC 210100Z 00000KT 9999 FEW030 BKN100 22/21 A3000 RMK HZ LGT ARND NOSIG=
201105210200 METAR MROC 210200Z 00000KT 9999 FEW030 BKN100 21/21 A3001 RMK HZ LGT ARND NOSIG=
201105210300 METAR MROC 210300Z 00000KT 5000 BR FEW005 SCT015 21/21 A3002 RMK VIS W 3KM BECMG 2000 BR=
201105210400 METAR MROC 210400Z 00000KT 5000 BR FEW015 BKN100 21/21 A3005 NOSIG=
201105210500 METAR MROC 210500Z VRB02KT 8000 VCFG FEW030 20/20 A3005 NOSIG=
201105210600 METAR MROC 210600Z VRB02KT CAVOK 20/19 A3004 RMK BKN200 NOSIG=
201105210700 METAR MROC 210700Z 05003KT CAVOK 20/19 A3003 RMK BKN200 NOSIG=
201105210800 METAR MROC 210800Z 00000KT CAVOK 19/18 A3001 RMK SCT080 BKN200 NOSIG=
201105210900 METAR MROC 210900Z 11003KT CAVOK 19/18 A2999 RMK SCT060 BKN200 NOSIG=
201105211000 METAR MROC 211000Z 07004KT CAVOK 19/18 A3000 RMK BKN250 NOSIG=
201105211100 METAR MROC 211100Z 10005KT CAVOK 18/17 A3000 RMK BKN250 HZY NOSIG=
201105211200 METAR MROC 211200Z 08005KT CAVOK 19/17 A3001 RMK BKN250 HZY NOSIG=
201105211300 METAR MROC 211300Z 09006KT CAVOK 22/18 A3003 RMK BKN250 HZY ARND NOSIG=
201105211400 METAR MROC 211400Z 21004KT CAVOK 24/18 A3005 RMK BKN250 HZY ARND NOSIG=
201105211500 METAR MROC 211500Z 28007KT 9999 FEW040 BKN250 25/19 A3006 RMK HZY ARND NOSIG=
201105211600 METAR MROC 211600Z 28007KT 9999 FEW040 BKN250 26/19 A3006 RMK HZY ARN NOSIG=
201105211700 METAR MROC 211700Z 00000KT 9999 FEW040 BKN250 27/19 A3004 RMK HZY ARND NOSIG=
201105211800 METAR MROC 211800Z 23010KT 9999 FEW040 BKN250 27/21 A3002 RMK HZY ARND NOSIG=
201105211900 METAR MROC 211900Z 25008KT 9999 4000SW BR FEW005 FEW030 SCT120 BKN250 26/21 A3000 RMK HZY ARND NOSIG=
201105212000 METAR MROC NIL=
201105212100 METAR MROC 212100Z 26005KT 9999 FEW006 SCT020 BKN120 25/22 A2996 RMK HZ ARND NOSIG=
201105212200 METAR MROC 212200Z 24009KT 8000 SCT015 BKN120 24/22 A2996 RMK HZ ARND BECMG 6000=
201105212300 METAR MROC 212300Z 26008KT 3000 BR FEW002 BKN010 22/22 A2997 BECMG 2500 BR -RA=
201105220000 METAR MROC 220000Z 23011KT 3000 -RA BR SCT003 BKN010 21/21 A2999 NOSIG=
201105220100 METAR MROC 220100Z 27006KT 4000 -RA BR SCT003 BKN010 21/21 A3001 RMK 8000E NOSIG=
201105220200 METAR MROC 220200Z 28006KT 9999 4000W -RA BR FEW003 BKN010 21/21 A3004 NOSIG=
201105220300 METAR MROC 220300Z 26006KT 9000 4000SW BCFG FEW001 SCT003 BKN030 21/21 A3006 RMK VIS UNLD NE BECMG 5000 BR=
201105220400 METAR MROC 220400Z 30005KT 6000 2000SW RA BR FEW001 SCT009 BKN035 21/21 A3008 RMK VIS 3KM NW/N NOSIG=
201105220500 METAR MROC 220500Z 33006KT 6000 2000SW -RA BR FEW005 BKN045 20/20 A3008 RMK FEW010 VIS 3KM NW BECMG 8000 BCFG=
201105220600 METAR MROC 220600Z VRB02KT 9999 -DZ VCFG FEW009 BKN060 20/20 A3006 RMK FEW020 VIS 8KM NW NOSIG=
201105220700 METAR MROC 220700Z VRB02KT 9999 VCFG FEW010 BKN060 20/20 A3003 RMK FEW025 NOSIG=
201105220800 METAR MROC 220800Z 00000KT 9999 FEW020 OVC180 20/20 A3002 RMK FEW070 NOSIG=
201105220900 METAR MROC 220900Z 00000KT 9999 -DZ FEW020 BKN120 20/20 A3001 RMK FEW070 NOSIG=
201105221000 METAR MROC 221000Z 00000KT 9999 4500SW BCFG FEW020 BKN080 20/20 A3003 BECMG 5000 BR=
201105221100 METAR MROC 221100Z 10003KT 9999 FEW035 BKN250 20/20 A3003 NOSIG=
201105221200 METAR MROC 221200Z 00000KT 9999 VCFG SCT080 OVC200 20/20 A3005 RMK VIS 6KM SW/W/NW HZ ARND NOSIG=
201105221300 METAR MROC 221300Z 00000KT 9999 FEW020 BKN100 21/20 A3007 NOSIG=
201105221400 METAR MROC 221400Z 09003KT 9999 FEW020 SCT100 BKN250 22/21 A3008 RMK HZ ARND NOSIG=
201105221500 METAR MROC 221500Z 00000KT 9999 FEW020 BKN240 24/20 A3008 BECMG 23005KT=
201105221600 METAR MROC 221600Z VRB02KT 9999 FEW015 SCT110 BKN250 22/19 A3007 NOSIG=
201105221700 METAR MROC NIL=
201105221800 METAR MROC NIL=
201105221900 METAR MROC NIL=
201105222000 METAR MROC NIL=
201105222100 METAR MROC NIL=
201105222200 METAR MROC NIL=
201105222300 METAR MROC NIL=
201105230000 METAR MROC NIL=
201105230100 METAR MROC NIL=
201105230200 METAR MROC NIL=
201105230300 METAR MROC 230300Z 00000KT 9999 FEW005 BKN120 21/20 A3008 RMK HZY ARND NOSIG=
201105230400 METAR MROC 230400Z 00000KT 9999 FEW005 BKN120 21/20 A3009 RMK HZY ARND NOSIG=
201105230500 METAR MROC 230500Z 12003KT 9999 FEW030 BKN120 21/19 A3007 RMK HZY ARND NOSIG=
201105230600 METAR MROC 230600Z 09003KT CAVOK 20/18 A3005 RMK BKN120 NOSIG=
201105230700 METAR MROC 230700Z 04004KT CAVOK 20/18 A3003 RMK BKN 120 NOSIG=
201105230800 METAR MROC 230800Z 10006KT CAVOK 19/17 A3001 RMK BKN120 NOSIG=
201105230900 METAR MROC 230900Z 07003KT CAVOK 18/18 A3001 RMK BKN120 NOSIG=
201105231000 METAR MROC 231000Z 00000KT CAVOK 18/17 A3001 RMK BKN120 NOSIG=
201105231100 METAR MROC 231100Z 11005KT CAVOK 18/16 A3001 NOSIG=
201105231200 METAR MROC 231200Z 08004KT CAVOK 19/16 A3003 RMK TCU DST SW NOSIG=
201105231300 METAR MROC 231300Z 00000KT CAVOK 21/17 A3005 RMK CB DST S HZY SW NOSIG=
201105231400 METAR MROC 231400Z 00000KT CAVOK 24/17 A3006 RMK CB DST S HZY QUAD W BECMG 24010KT=
201105231500 METAR MROC 231500Z 24009KT CAVOK 25/19 A3007 RMK CB DST SW NOSIG=
201105231600 METAR MROC 231600Z 23004KT 9999 FEW025 26/19 A3007 RMK FEW140 NOSIG=
201105231700 METAR MROC 231700Z 23008KT 9999 FEW025 BKN250 27/20 A3006 RMK RN DST QUAD E FEW080 NOSIG=
201105231800 METAR MROC 231800Z 23008KT 9999 FEW020TCU FEW080 SCT100 26/20 A3004 RMK RN DST QUAD N E BECMG VCSH=
201105231900 METAR MROC 231900Z 24010KT 9999 FEW020TCU FEW080 SCT100 27/20 A3002 RMK GUST 18KT RN SW QUAD E N BECMG VCSH=
201105232000 METAR MROC 232000Z 23011G21KT 2800 1300SW +SHRA BR FEW001 BKN100 22/22 A2999 RMK FEW018 NOSIG=
201105232100 METAR MROC 232100Z 23008KT 9999 VCSH FEW001 SCT080 BKN110 23/21 A2999 RMK RN S QUAD N E NOSIG=
201105232200 METAR MROC 232200Z 27009KT 9999 -RADZ FEW003 SCT030 BKN080 22/22 A3001 RMK GUST 15KT RN QUAD N E BECMG 4000 -RA BR=
201105232300 METAR MROC 232300Z 31004KT 9999 -RADZ FEW003 OVC020 21/20 A3003 RMK RN DST QUAD N W BECMG 4000 BR=
201105240000 METAR MROC 240000Z 00000KT 9999 -RADZ FEW003 SCT025 BKN080 21/21 A3003 RMK RN S QUAD E NOSIG=
201105240100 METAR MROC 240100Z 14004KT 9999 -RA SCT030 BKN080 21/21 A3003 NOSIG=
201105240200 METAR MROC 240200Z 00000KT 9999 -RA BKN100 21/21 A3004 NOSIG=
201105240300 METAR MROC 240300Z 00000KT 9999 FEW002 BKN100 20/20 A3005 NOSIG=
201105240400 METAR MROC 240400Z 00000KT 9999 4000W FEW002 BKN100 20/20 A3005 RMK FEW030 NOSIG=
201105240500 METAR MROC 240500Z 00000KT 9999 FEW035 BKN100 19/19 A3006 NOSIG=
201105240600 METAR MROC 240600Z 04004KT CAVOK 19/19 A3005 RMK BKN120 NOSIG=
201105240700 METAR MROC 240700Z 11005KT CAVOK 19/19 A3002 RMK BKN120 NOSIG=
201105240800 METAR MROC 240800Z 03003KT CAVOK 19/19 A3001 RMK BKN120 NOSIG=
201105240900 METAR MROC 240900Z 06006KT CAVOK 19/19 A2999 RMK BKN120 NOSIG=
201105241000 METAR MROC 241000Z 13002KT 9999 -RA BKN120 19/19 A3001 NOSIG=
201105241100 METAR MROC 241100Z 00000KT CAVOK 19/19 A3002 RERA RMK BKN120 NOSIG=
201105241200 METAR MROC 241200Z 00000KT CAVOK 19/19 A3004 RMK PCPN DST NE E HZ ARND BKN120 NOSIG=
201105241300 METAR MROC 241300Z 12003KT CAVOK 20/20 A3004 RMK BKN120 BECMG 24006KT=
201105241400 METAR MROC 241400Z 27005KT CAVOK 22/21 A3005 RMK SCT130 BKN250 HZ LGT ARND NOSIG=
201105241500 METAR MROC 241500Z 26003KT CAVOK 24/20 A3005 RMK FEW130 BKN250 HZ ARND NOSIG=
201105241600 METAR MROC 241600Z 24006KT 9999 FEW035 BKN250 25/20 A3005 RMK HZ ARND NOSIG=
201105241700 METAR MROC 241700Z 24008KT 9999 SCT030 BKN250 26/20 A3005 RMK HZ ARND NOSIG=
201105241800 METAR MROC 241800Z 24006KT 9999 FEW020 SCT030 BKN250 26/20 A3004 RMK HZY ARND NOSIG=
201105241900 METAR MROC 241900Z 21008KT 9999 FEW020TCU SCT030 BKN250 26/21 A3001 RMK HZ ARND NOSIG=
201105242000 METAR MROC 242000Z 24007KT 9999 FEW010CB FEW020 SCT030 26/21 A2999 RMK HZ ARND RASH DST NE E BECMG 5000 TSRA=
201105242100 METAR MROC 242100Z 25009KT 9000 4300NE -SHRA FEW010CB FEW025 SCT100 25/21 A2997 RMK HZ ARND FEW250 BECMG -TSRA=
201105242200 METAR MROC 242200Z 22003KT 9000 -RA VCSH FEW015TCU FEW030 BKN250 25/22 A2997 RMK VIS 7KM NE HZ ARND FEW100 NOSIG=
201105242242 METAR MROC 242242Z 24005KT 9000 VCSH FEW010TCU FEW025 SCT080 BKN250 25/22 A2999 RMK VIS 7KM NE HZ ARND NOSIG=
201105242300 METAR MROC 242300Z 25006KT 9000 VCSH FEW015TCU FEW025 SCT080 BKN250 24/22 A2999 RMK HZ ARND VIS 7KM NE =
201105250000 METAR MROC 250000Z 26006KT 8000 FEW015TCU SCT030 BKN080 22/21 A3001 RMK HZY VIS 4KM N BECMG -RA=
201105250100 METAR MROC 250100Z 27004KT 9000 FEW020 SCT040 BKN070 21/21 A3003 RMK HZ ARND NOSIG=
201105250200 METAR MROC 250200Z 00000KT 8000 VCFG FEW001 BKN015 21/21 A3003 RMK VIS 7KM SW HZ ARND FEW005 NOSIG=
201105250300 METAR MROC 250300Z 26004KT 2800 BR FEW001 BKN015 21/21 A3006 RMK FEW005 NOSIG=
201105250321 METAR MROC 250321Z 26004KT 4000 BR FEW001 BKN015 21/21 A3006 RMK FEW005 NOSIG=
201105250400 METAR MROC 250400Z VRB02KT 3200 BR FEW001 BKN015 21/21 A3006 RMK FEW005 NOSIG=
201105250500 METAR MROC 250500Z 00000KT 3000 BR FEW001 BKN012 21/21 A3004 RMK FEW003 NOSIG=
201105250600 METAR MROC 250600Z 00000KT 3000 BR FEW001 BKN012 21/21 A3003 RMK FEW003 NOSIG=
201105250700 METAR MROC 250700Z 00000KT 3000 R07/1200 BR FEW001 BKN008 21/21 A3002 RMK FEW003 NOSIG=
201105250800 METAR MROC 250800Z VRB02KT 3000 BR FEW001 SCT025 21/21 A2999 RMK VIS 5KM E NOSIG=
201105250900 METAR MROC 250900Z 00000KT 5000 BR FEW001 SCT110 20/20 A2999 RMK FEW020 NOSIG=
201105251000 METAR MROC 251000Z 00000KT 8000 VCFG FEW001 SCT110 20/19 A3000 RMK FEW020 NOSIG=
201105251100 METAR MROC 251100Z 00000KT 8000 VCFG FEW001 SCT080 20/19 A3001 RMK FEW010 NOSIG=
201105251200 METAR MROC 251200Z 09004KT 6000 BCFG FEW001 SCT200 20/19 A3002 RMK VIS E UNL FEW010 FEW080 HZ DST E NOSIG=
201105251300 METAR MROC 251300Z 10004KT 7000 FEW140 SCT250 22/19 A3003 RMK HZY VIS 4KM NE/SW NOSIG=
201105251400 METAR MROC 251400Z 09004KT 9000 SCT250 25/19 A3004 RMK VIS 7KM SW/NW/N HZ ARND NOSIG=
201105251500 METAR MROC 251500Z 00000KT CAVOK 27/17 A3002 RMK BKN250 VIS 7KM QUAD W DUE HZ BECMG 24006KT=
201105251600 METAR MROC 251600Z 24010KT CAVOK 27/21 A3002 RMK BKN250 VIS 6KM SW DUE HZ NOSIG=
201105251700 METAR MROC 251700Z 24008KT 9000 FEW040 OVC250 27/21 A3002 RMK VIS 6KM SW HZY NOSIG=
201105251800 METAR MROC 251800Z 25011KT 7000 SCT030 OVC250 26/22 A3002 RMK VIS 5KM SW HZY NOSIG=
201105251900 METAR MROC 251900Z 26008KT 7000 FEW020TCU FEW030 BKN200 26/22 A3000 RMK VIS 5KM SW/NE HZY BECMG 5000 -SHRA HZ=
201105252000 METAR MROC 252000Z 25006KT 7000 FEW015TCU FEW030 BKN200 26/21 A2998 RMK FEW070 VIS 4KM SW HZY BECMG -SHRA=
201105252100 METAR MROC 252100Z 25009KT 9999 FEW015TCU SCT030 BKN200 26/21 A2997 RMK HZ ARND NOSIG=
201105252200 METAR MROC 252200Z 24007KT 9999 FEW001 SCT030 BKN170 24/22 A2997 RMK VIS SW 3KMS DUE ST LOW HZ ARND NOSIG=
201105252300 METAR MROC 252300Z 24005KT 6000 RA FEW005 BKN030 23/22 A2999 RMK HZ ARND NOSIG=
201105260000 METAR MROC 260000Z 31004KT 5000 -TSRA BR FEW010CB SCT030 BKN100 21/21 A3002 NOSIG=
201105260100 METAR MROC 260100Z 00000KT 7000 -RA FEW005 SCT020 BKN100 21/21 A3003 NOSIG=
201105260200 METAR MROC 260200Z VRB02KT 7000 2000SW BR FEW002 SCT020 BKN100 21/21 A3005 BECMG 2000 BR=
201105260300 METAR MROC 260300Z 00000KT 8000 FEW030 BKN100 21/21 A3006 RMK BECMG 4000 -RA BR=
201105260400 METAR MROC 260400Z 00000KT 7000 3000SW BR FEW030 BKN100 21/21 A3005 RMK BECMG 2000 BR=
201105260500 METAR MROC 260500Z VRB02KT 8000 4000SW BR BKN120 21/21 A3004 RMK BECMG 5000 BR=
201105260600 METAR MROC 260600Z 00000KT 8000 4000SW BR BKN120 20/20 A3003 NOSIG=
201105260700 METAR MROC 260700Z 08003KT 8000 BKN120 20/20 A3000 NOSIG=
201105260800 METAR MROC 260800Z VRB02KT CAVOK 20/20 A2999 RMK SCT180 NOSIG=
201105260900 METAR MROC 260900Z 11003KT CAVOK 19/19 A2999 RMK SCT200 NOSIG=
201105261000 METAR MROC 261000Z 00000KT 5000 BR FEW001 SCT120 18/18 A2999 NOSIG=
201105261100 METAR MROC 261100Z 00000KT 9999 BCFG FEW030 19/19 A3001 RMK HZ ARND NOSIG=
201105261200 METAR MROC 261200Z 06004KT CAVOK 19/19 A3003 RMK FEW050 HZ ARND NOSIG=
201105261300 METAR MROC 261300Z 00000KT CAVOK 21/20 A3005 RMK SCT250 HZ ARND BECMG 24006K T=
201105261400 METAR MROC 261400Z 00000KT CAVOK 24/20 A3007 RMK SCT250 HZ ARND BECMG 24006K T=
201105261500 METAR MROC 261500Z 28003KT 9999 FEW040 BKN250 25/20 A3005 RMK HZ ARND NOSIG=
201105261600 METAR MROC NIL=
201105261700 METAR MROC 261700Z 25011KT 9999 FEW030 BKN250 28/21 A3003 RMK HZ ARND NOSIG=
201105261800 METAR MROC 261800Z 26007KT 240V300 9999 SCT030 BKN250 28/21 A3001 RMK HZ ARND NOSIG=
201105261900 METAR MROC 261900Z 23013KT 9999 SCT025TCU BKN130 29/23 A2999 RMK CB RN DST NE BECMG 5000 -TSRA SCT015CB=
201105262000 METAR MROC 262000Z 22002KT 8000 4000NE RA FEW005 SCT015CB BKN100 22/22 A2998 RMK VIS SW UNL NOSIG=
201105262100 METAR MROC 262100Z 00000KT 9999 SCT020 BKN100 22/21 A2997 RMK RASH DST W NW NOSIG=
201105262200 METAR MROC 262200Z 29002KT 9000 SCT020 BKN100 22/21 A2997 RMK RASH DST W HZ ARND NOSIG=
201105262300 METAR MROC 262300Z 00000KT 9999 SCT025 BKN110 21/21 A3000 RMK HZ ARND VIS N 6000 BECMG -RA=
201105270000 METAR MROC 270000Z 00000KT 8000 RA SCT025 OVC100 21/21 A3002 NOSIG=
201105270100 METAR MROC 270100Z 00000KT 4000 -RA BR FEW003 SCT025 OVC100 21/21 A3002 RMK VIS S UNL BECMG 2000 -RA BR=
201105270200 METAR MROC 270200Z 00000KT 6000 -RA SCT025 OVC100 21/21 A3004 NOSIG=
201105270300 METAR MROC 270300Z 09005KT 9999 -RA FEW020 SCT060 BKN090 21/21 A3003 RMK VIS 7KM SW NOSIG=
201105270400 METAR MROC 270400Z 09004KT 9999 -DZ SCT050 BKN100 21/21 A3004 NOSIG=
201105270500 METAR MROC 270500Z 09003KT 9999 -DZ VCFG FEW060 BKN200 21/20 A3005 RMK VIS 7KM SW NOSIG=
201105270600 METAR MROC 270600Z 00000KT 9999 4500SW BCFG FEW080 BKN200 20/20 A3003 NOSIG=
201105270700 METAR MROC 270700Z 00000KT 9999 BCFG FEW100 BKN200 20/20 A2999 RMK VIS 5KM W NOSIG=
201105270800 METAR MROC 270800Z VRB02KT CAVOK 21/20 A2998 RMK FEW070 SCT200 NOSIG=
201105270900 METAR MROC 270900Z VRB02KT 9999 VCFG SCT070 20/20 A2997 RMK VIS 8KM SW FEW200 NOSIG=
201105271000 METAR MROC 271000Z 00000KT 9999 BCFG FEW090 SCT250 20/20 A2998 RMK VIS 5KM W NOSIG=
201105271100 METAR MROC 271100Z VRB02KT 9999 BCFG FEW070 19/19 A3000 RMK VIS 5KM SW FEW200 NOSIG=
201105271200 METAR MROC 271200Z 08003KT 9999 VCFG FEW100 19/19 A3000 RMK FEW250 VIS 7KM SW LGT HZ ARND NOSIG=
201105271300 METAR MROC 271300Z 00000KT CAVOK 22/20 A3003 RMK FEW120 SCT230 NOSIG=
201105271400 METAR MROC 271400Z 24005KT CAVOK 23/21 A3004 RMK FEW120 SCT250 NOSIG=
201105271500 METAR MROC 271500Z 24005KT CAVOK 25/20 A3004 RMK SCT110 BKN250 NOSIG=
201105271600 METAR MROC 271600Z 25006KT 9999 FEW025 SCT110 BKN250 25/21 A3003 NOSIG=
201105271700 METAR MROC 271700Z 24007KT 9999 FEW025 SCT110 BKN250 26/22 A3001 NOSIG=
201105271800 METAR MROC 271800Z 25007KT 9999 FEW025 SCT110 BKN250 27/20 A2999 NOSIG=
201105271900 METAR MROC 271900Z 23007KT 9999 FEW025 SCT120 26/21 A2996 RMK SCT250 NOSIG=
201105272000 METAR MROC 272000Z 25008KT 9999 FEW015 SCT025 BKN250 26/23 A2994 RMK SCT110 NOSIG=
201105272100 METAR MROC 272100Z 26009KT 9999 FEW015TCU FEW025 SCT110 26/23 A2993 NOSIG=
201105272200 METAR MROC 272200Z 26010KT 9999 FEW015TCU SCT020 SCT080 24/22 A2994 RMK GUST 15KT VIS 8KM E RN QUAD N E BECMG 8000=
201105272300 METAR MROC 272300Z 25006KT 0800 R07/0200 +TSRA FG SCT001 BKN080 21/21 A2997 RMK VIS E UNL BECMG 7000=
201105280000 METAR MROC 280000Z VRB02KT 8000 -RA VCFG FEW001 BKN100 21/21 A2999 RMK FEW010 FEW025 VIS E UNL NOSIG=
201105280100 METAR MROC 280100Z 00000KT 8000 VCFG FEW001 SCT100 21/21 A3002 RMK FEW020 VIS E UNL NOSIG=
201105280200 METAR MROC 280200Z 00000KT 9999 FEW002 SCT020 BKN120 21/21 A3001 NOSIG=
201105280300 METAR MROC 280300Z 00000KT 9999 FEW005 SCT020 BKN120 21/21 A3004 RMK HZ ARND NOSIG=
201105280400 METAR MROC 280400Z 00000KT 9999 FEW005 SCT020 BKN120 21/21 A3001 RMK HZ LGT ARND NOSIG=
201105280500 METAR MROC 280500Z 00000KT 9999 SCT020 BKN120 21/21 A3001 RMK HZ LGT ARND NOSIG=
201105280600 METAR MROC 280600Z 00000KT 9999 FEW020 BKN120 21/21 A3001 NOSIG=
201105280700 METAR MROC 280700Z VRB02KT 9999 FEW020 BKN120 21/21 A2999 NOSIG=
201105280800 METAR MROC 280800Z 00000KT 9999 FEW020 BKN120 21/21 A2997 NOSIG=
201105280900 METAR MROC 280900Z 00000KT 9999 FEW020 BKN120 20/20 A2994 NOSIG=
201105281000 METAR MROC 281000Z 00000KT 9999 FEW020 SCT120 20/20 A2994 NOSIG=
201105281100 METAR MROC 281100Z 00000KT 9999 FEW020 SCT120 20/20 A2996 NOSIG=
201105281200 METAR MROC 281200Z 13003KT 0500 FG FEW001 SCT120 BKN250 20/20 A2997 NOSIG=
201105281300 METAR MROC 281300Z VRB02KT 5000 BR FEW001 SCT120 BKN250 20/20 A3000 NOSIG=
201105281400 METAR MROC 281400Z 00000KT 5000 BR FEW001 SCT120 22/21 A3000 RMK VIS S UNL SCT250 NOSIG=
201105281500 METAR MROC 281500Z VRB02KT 9999 FEW020 SCT120 25/20 A3000 RMK LGHT BR ARND SCT250 BECMG 24007KT=
201105281600 METAR MROC 281600Z 00000KT 9999 FEW030 SCT150 28/19 A2999 RMK LGHT BR ARND SCT250 BECMG 24007KT=
201105281700 METAR MROC 281700Z 24007KT 9999 FEW020TCU FEW030 SCT150 28/20 A2997 RMK LGHT BR ARND FEW250 NOSIG=
201105281800 METAR MROC 281800Z 21006KT 8000 VCSH FEW001 FEW020TCU SCT150 26/23 A2995 RMK RN N DST QUAD E S W FEW100 BECMG -SHRA=
201105281837 METAR MROC 281837Z 11005KT 9999 FEW001 FEW020TCU SCT150 28/19 A2993 RMK CB SW RN N FEW100 BECMG -SHRA=
201105281900 METAR MROC 281900Z 13005KT 9999 FEW020TCU SCT150 29/19 A2992 RMK RN DST N SW BECMG -SHRA=
201105281929 METAR MROC 281929Z 24009KT 9999 FEW020TCU SCT080 27/23 A2991 RMK RN DST E QUAD W FEW110 BECMG -SHRA=
201105282000 METAR MROC 282000Z 26009KT 9999 FEW020TCU SCT080 27/23 A2990 RMK RN DST QUAD W FEW200 BECMG -SHRA=
201105282100 METAR MROC 282100Z 19005KT 6000 RA FEW020TCU SCT080 23/23 A2991 RMK RN DST SE NOSIG=
201105282200 METAR MROC 282200Z 10004KT 9999 FEW035 BKN100 22/22 A2989 RMK RN DST QUAD N VIS QUAD N 3KM NOSIG=
201105282300 METAR MROC 282300Z 21003KT 8000 4000SW BCFG FEW002 SCT060 BKN250 23/23 A2989 RMK CB DST S NOSIG=
201105290000 METAR MROC 290000Z 25005KT 6000SW 3000 BR FEW002 SCT006 BKN020 22/22 A2993 RMK BECMG 2000 BR=
201105290100 METAR MROC 290100Z 00000KT 8000 VCFG FEW002 SCT030 BKN060 21/21 A2995 NOSIG=
201105290200 METAR MROC 290200Z 00000KT 6000 FEW002 BKN015 21/21 A2997 RMK BECMG 2000 -RA BR=
201105290300 METAR MROC 290300Z 00000KT 6000 -RA SCT015 OVC100 21/21 A2999 NOSIG=
201105290400 METAR MROC 290400Z 00000KT 6000 -RA SCT015 OVC100 21/21 A2999 NOSIG=
201105290500 METAR MROC 290500Z 00000KT 4000 BR SCT015 OVC100 21/21 A3000 NOSIG=
201105290600 METAR MROC 290600Z 24003KT 9999 4000W BR SCT015 OVC100 21/21 A2998 NOSIG=
201105290700 METAR MROC 290700Z 00000KT 9000 2000W BR FEW002 SCT010 OVC100 21/21 A2996 NOSIG=
201105290800 METAR MROC 290800Z 00000KT 1000 BR FEW002 SCT010 OVC100 21/21 A2994 NOSIG=
201105290900 METAR MROC 290900Z 00000KT 1000 BR FEW006 SCT020 OVC100 20/20 A2992 NOSIG=
201105291000 METAR MROC 291000Z 00000KT 9999 SCT020 OVC100 20/20 A2992 NOSIG=
201105291100 METAR MROC 291100Z 00000KT 9999 FEW020 OVC120 20/20 A2992 RMK PCPN DST NE E NOSIG=
201105291200 METAR MROC 291200Z 00000KT CAVOK 20/20 A2993 RMK BKN250 NOSIG=
201105291300 METAR MROC 291300Z VRB02KT CAVOK 22/21 A2996 RMK SCT100 BKN250 BECMG 24006KT=
201105291400 METAR MROC 291400Z 23009KT 9999 FEW015TCU SCT030 BKN120 25/24 A2990 RMK RA DST QUAD S BECMG 5000 -TSRA=
201105291500 METAR MROC 291500Z 26003KT 9999 FEW035 SCT150 BKN250 25/21 A2997 NOSIG=
201105291600 METAR MROC 291600Z VRB02KT 9999 FEW040 SCT150 BKN250 26/20 A2996 RMK TCU DST N NOSIG=
201105291700 METAR MROC 291700Z 25004KT 9999 SCT035 BKN250 28/21 A2995 NOSIG=
201105291800 METAR MROC 291800Z 24009KT 9999 SCT030 BKN250 28/22 A2993 RMK RA DST S BECMG 7000 RA=
201105291900 METAR MROC 291900Z 21009KT 9999 -RA SCT020TCU BKN120 25/23 A2992 RMK HZ LGT W RA DST QUAD S BECMG 5000 RA=
201105292000 METAR MROC 292000Z 23009KT 9999 FEW015TCU SCT030 BKN120 25/24 A2990 RMK RA DST QUAD S BECMG 5000 -TSRA=
201105292100 METAR MROC 292100Z 22009KT 9999 -SHRA FEW010 SCT015TCU SCT025 26/23 A2988 RMK FEW090 VIS 5KM N NOSIG=
201105292200 METAR MROC 292200Z 20007KT 9999 -RA VCSH FEW010 FEW015TCU SCT025 BKN100 25/24 A2987 BECMG 7000 -SHRA=
201105292300 METAR MROC 292300Z 20004KT 9999 VCSH FEW015 BKN060 24/23 A2989 RMK FEW030 NOSIG=
201105300000 METAR MROC 300000Z 25004KT 9999 VCSH FEW010 SCT025 BKN150 23/23 A2990 RMK VIS 8KM NW FEW090 NOSIG=
201105300100 METAR MROC 300100Z 00000KT 9999 FEW006 BKN250 23/23 A2992 RMK FEW020 VIS 6KM W DUE LOW ST NOSIG=
201105300200 METAR MROC 300200Z 00000KT 9999 BCFG FEW006 BKN250 22/22 A2995 RMK FEW070 VIS 6KM SW NOSIG=
201105300300 METAR MROC 300300Z VRB02KT 6000 BCFG FEW001 SCT100 22/22 A2997 RMK VIS E UNL NOSIG=
201105300400 METAR MROC 300400Z 00000KT 9999 BCFG FEW001 SCT080 22/22 A2997 NOSIG=
201105300500 METAR MROC 300500Z 00000KT 9999 0300SW R07/0100 BCFG FEW001 SCT080 22/22 A2998 RMK FEW010 NOSIG=
201105300528 METAR MROC 300528Z 00000KT 9999 1600SW BR FEW001 SCT080 21/21 A2996 RMK FEW010 NOSIG=
201105300600 METAR MROC 300600Z 00000KT 4800 2000W BR FEW001 SCT080 21/21 A2995 RMK FEW010 VIS E UNL VIS S 2KM NOSIG=
201105300700 METAR MROC 300700Z 00000KT 3000 BR SCT001 BKN015 21/21 A2994 NOSIG=
201105300800 METAR MROC 300800Z 00000KT 8000 VCFG FEW001 SCT010 BKN080 21/21 A2992 NOSIG=
201105300900 METAR MROC 300900Z 00000KT 8000 VCFG FEW001 SCT010 BKN080 21/21 A2992 NOSIG=
201105301000 METAR MROC 301000Z 00000KT 8000 VCFG FEW001 BKN080 21/21 A2993 RMK FEW010 NOSIG=
201105301100 METAR MROC 301100Z 00000KT 9999 VCFG FEW001 SCT080 21/21 A2993 RMK VIS 8KM SW FEW010 NOSIG=
201105301200 METAR MROC 301200Z VRB02KT CAVOK 21/21 A2994 NOSIG=
201105301300 METAR MROC 301300Z VRB02KT CAVOK 23/22 A2998 RMK FEW070 SCT300 CB DST S NOSIG=
201105301400 METAR MROC 301400Z 26006KT 9999 SCT025 SCT250 24/22 A2999 RMK CB DST SW NOSIG=
201105301500 METAR MROC 301500Z VRB02KT 9999 FEW025 BKN250 26/21 A2999 NOSIG=
201105301600 METAR MROC 301600Z 22006KT 9999 FEW025 BKN250 27/23 A2998 RMK FEW035 NOSIG=
201105301700 METAR MROC 301700Z 24006KT 9999 FEW030 BKN250 28/23 A2996 NOSIG=
201105301800 METAR MROC 301800Z 28011KT 9999 FEW030 BKN250 27/23 A2994 NOSIG=
201105301900 METAR MROC 301900Z 21012KT 9999 VCSH BKN030 26/22 A2992 RMK FEW250 TS DST E VEL MAX VTO 16KT NOSIG=
201105302000 METAR MROC 302000Z 23011KT 9999 VCSH FEW015 FEW020TCU SCT035 25/21 A2992 RMK FEW250 BECMG 7000 SHRA=
201105302100 METAR MROC 302100Z 26008KT 9999 VCSH FEW010TCU SCT030 BKN100 23/21 A2992 BECMG 5000 -TSRA=
201105302200 METAR MROC 302200Z 27005KT 9999 FEW010 SCT030 BKN100 22/21 A2992 RMK RA DST E NOSIG=
201105302300 METAR MROC 302300Z 00000KT 9999 FEW010 SCT030 BKN100 22/22 A2993 NOSIG=
201105310000 METAR MROC 310000Z 00000KT 9999 FEW030 BKN100 22/21 A2993 NOSIG=
201105310100 METAR MROC 310100Z 09004KT CAVOK 22/22 A2995 RMK BKN100 NOSIG=
201105310200 METAR MROC 310200Z 00000KT CAVOK 22/22 A2997 RMK BKN100 NOSIG=
201105310300 METAR MROC 310300Z VRB02KT CAVOK 21/21 A3001 RMK BKN100 LTNG DST S NOSIG=
201105310400 METAR MROC 310400Z 23004KT CAVOK 21/21 A3002 RMK BKN080 NOSIG=
201105310500 METAR MROC 310500Z 30003KT 9999 DZ FEW006 BKN030 21/21 A3003 RMK BECMG 8000 -RA VCFG=
201105310600 METAR MROC 310600Z 00000KT 8000 VCFG FEW002 SCT008 BKN020 21/21 A3001 BECMG 3000 BR=
201105310700 METAR MROC 310700Z 29003KT 8000 VCFG FEW002 SCT006 BKN020 21/21 A2999 RMK BECMG 3000 BR=
201105310800 METAR MROC 310800Z VRB02KT 8000 VCFG FEW002 SCT005 BKN015 21/21 A2997 NOSIG=
201105310900 METAR MROC 310900Z 00000KT 9999 BCFG FEW002 BKN030 21/21 A2994 NOSIG=
201105311000 METAR MROC 311000Z 00000KT 9999 BCFG FEW002 BKN030 21/21 A2995 NOSIG=
201105311100 METAR MROC 311100Z 00000KT 9999 BCFG FEW002 BKN045 21/21 A2996 NOSIG=
201105311200 METAR MROC 311200Z 00000KT 9999 BCFG FEW004 BKN045 21/21 A2998 NOSIG=
201105311300 METAR MROC 311300Z 00000KT CAVOK 21/21 A2999 RMK SCT120 BKN250 NOSIG=
201105311400 METAR MROC 311400Z 00000KT CAVOK 23/21 A2999 RMK SCT120 BKN250 HZ ARND BECMG 24006KT=
201105311500 METAR MROC 311500Z 17004KT 9999 FEW040 BKN250 26/20 A2999 RMK HZ LEVE ARND BECMG 24006KT=
201105311600 METAR MROC 311600Z 25009KT 9999 FEW040 SCT110 BKN250 25/22 A2999 RMK HZY LGT ARND NOSIG=
201105311700 METAR MROC 311700Z 27007KT 9999 SCT040 BKN250 27/21 A2998 RMK HZ LGT ARND NOSIG=
201105311800 METAR MROC 311800Z 23011KT 9999 FEW015TCU BKN030 26/23 A2996 RMK HZ LGT ARND RA NE NOSIG=
201105311900 METAR MROC 311900Z 25010KT 9999 VCSH FEW015TCU BKN025 28/23 A2993 RMK RN TS NE BECMG 5000 SHRA=
201105312000 METAR MROC 312000Z 24010KT 9999 VCSH FEW010CB SCT020TCU 26/21 A2991 RMK RN TS DST NE BECMG SHRA=
201105312100 METAR MROC 312100Z 12007KT 9999 FEW010CB BKN020 23/21 A2990 RMK RASH DST SE E BECMG 5000 RA=
201105312200 METAR MROC 312200Z 17006KT 3000 TSRA FEW010CB SCT020 OVC100 21/21 A2992 RMK VIS E UNL BECMG 2000 RA=
201105312300 METAR MROC 312300Z 19005KT 5000 -TSRA FEW010CB SCT020 OVC100 20/20 A2994 BECMG 6000 -RA=
201106010000 METAR MROC 010000Z 00000KT 7000 -RA FEW005 SCT025 OVC100 21/21 A2996 RMK TS DST SW NOSIG=
201106010100 METAR MROC 010100Z 00000KT 9999 FEW025 OVC100 21/21 A2996 NOSIG=
201106010200 METAR MROC 010200Z 00000KT 9999 FEW025 OVC100 21/21 A3000 RMK HZ ARND NOSIG=
201106010300 METAR MROC 010300Z 00000KT 9999 FEW025 SCT080 BKN070 21/21 A3001 RMK HZ ARND NOSIG=
201106010400 METAR MROC 010400Z 00000KT 9999 VCFG FEW015 BKN070 21/21 A3003 RMK FEW050 VIS 8KM W NOSIG=
201106010500 METAR MROC 010500Z 30003KT 9999 RA FEW010 SCT040 BKN070 21/21 A3002 RMK VIS 7KM W NOSIG=
201106010600 METAR MROC 010600Z 00000KT 9999 -RADZ FEW002 SCT008 BKN060 21/21 A3000 RMK VIS 6KM SW BECMG 6000 RA BKN006=
201106010700 METAR MROC 010700Z 00000KT 9999 VCFG FEW002 SCT020 BKN080 20/20 A2998 RERA RMK FEW008 VIS 8KM SW NOSIG=
201106010800 METAR MROC 010800Z VRB02KT 9999 3500SW BCFG SCT003 BKN070 21/21 A2997 RMK FEW015 NOSIG=
201106010900 METAR MROC 010900Z 00000KT 9999 BCFG SCT020 BKN070 21/21 A2995 RMK VIS 7KM SW FEW040 NOSIG=
201106011000 METAR MROC 011000Z 00000KT 9999 SCT020 BKN100 20/20 A2996 NOSIG=
201106011100 METAR MROC 011100Z 00000KT 5000 BR FEW015 BKN150 21/21 A2997 RMK FEW030 BECMG 3000 BR=
201106011200 METAR MROC 011200Z VRB02KT 6000 2500E BR BCFG SCT020 BKN150 20/20 A2998 RMK VIS UNLD SW/W FEW050 BECMG 8000 BCFG=
201106011300 METAR MROC 011300Z 00000KT 9999 4000N BR FEW005 SCT015 BKN120 21/21 A3000 NOSIG=
201106011400 METAR MROC 011400Z 00000KT 9999 FEW005 BKN110 21/21 A3002 BECMG 24005KT=
201106011500 METAR MROC 011500Z 24006KT 6000 VCFG SCT003 BKN010 21/21 A3003 RMK UNL E NOSIG=
201106011600 METAR MROC 011600Z 26002KT 9999 SCT015 SCT250 24/21 A3002 NOSIG=
201106011700 METAR MROC 011700Z 30006KT 9999 SCT020 SCT120 26/21 A2999 RMK SCT250 NOSIG=
201106011800 METAR MROC 011800Z 25005KT 9999 FEW025 BKN120 27/21 A2997 NOSIG=
201106011900 METAR MROC 011900Z 23009KT 9999 FEW020TCU BKN120 27/21 A2997 NOSIG=
201106012000 METAR MROC 012000Z 22010KT 9999 SCT015TCU SCT025 28/21 A2995 NOSIG=
201106012100 METAR MROC 012100Z VRB02KT 9999 FEW015TCU FEW040 BKN100 23/21 A2995 RERA RMK RN DST W QUAD E NOSIG=
201106012200 METAR MROC 012200Z 25006KT 9999 VCSH FEW001TCU FEW080 BKN100 24/21 A2994 RMK SH W BECMG 8000=
201106012300 METAR MROC 012300Z 00000KT 9999 FEW001 BKN110 23/22 A2995 NOSIG=
201106020000 METAR MROC 020000Z 24004KT 9999 -RA VCFG FEW008 BKN100 22/22 A2999 RMK FEW040 BECMG 8000=
201106020100 METAR MROC 020100Z 00000KT 9999 FEW003 SCT015 BKN100 21/21 A3002 NOSIG=
201106020200 METAR MROC 020200Z 29003KT 9999 FEW010 SCT025 BKN100 21/21 A3003 NOSIG=
201106020300 METAR MROC 020300Z 26004KT 9999 FEW010 SCT025 BKN100 21/21 A3005 NOSIG=
201106020400 METAR MROC 020400Z 25005KT 9999 -DZ FEW010 SCT025 BKN100 21/21 A3007 BECMG -RA=
201106020500 METAR MROC 020500Z 27005KT 9999 -RA FEW010 SCT025 BKN100 20/20 A3007 NOSIG=
201106020600 METAR MROC 020600Z 32004KT 9999 -RA FEW010 SCT025 BKN100 20/20 A3005 NOSIG=
201106020700 METAR MROC 020700Z 00000KT 9999 FEW010 SCT030 BKN100 20/20 A3003 NOSIG=
201106020800 METAR MROC 020800Z 13003KT 9999 FEW030 BKN100 20/20 A3000 NOSIG=
201106020900 METAR MROC 020900Z 11003KT 9999 FEW030 BKN100 20/20 A2998 NOSIG=
201106021000 METAR MROC 021000Z 09003KT CAVOK 20/20 A2998 RMK FEW110 NOSIG=
201106021100 METAR MROC 021100Z 00000KT CAVOK 20/20 A2998 RMK FEW120 NOSIG=
201106021200 METAR MROC 021200Z 09004KT CAVOK 19/19 A2998 RMK FEW120 SCT250 NOSIG=
201106021300 METAR MROC 021300Z 11004KT CAVOK 22/20 A3000 RMK FEW120 SCT250 NOSIG=
201106021400 METAR MROC 021400Z 00000KT CAVOK 24/19 A3002 NOSIG=
201106021500 METAR MROC 021500Z 24006KT 9999 FEW030 BKN120 25/20 A3003 NOSIG=
201106021600 METAR MROC 021600Z 23007KT 9999 SCT030 BKN120 26/21 A3002 NOSIG=
201106021700 METAR MROC 021700Z 23007KT 9999 FEW030 BKN120 26/21 A3001 RMK GUST 12KT FEW250 NOSIG=
201106021800 METAR MROC 021800Z 25007KT 9999 FEW030 SCT140 27/21 A3000 RMK FEW055 FEW250 NOSIG=
201106021900 METAR MROC 021900Z 23007KT 9999 VCSH FEW012TCU FEW050 BKN140 27/20 A2998 RMK GUST 13KT SH SW NOSIG=
201106022000 METAR MROC 022000Z 23006KT 9999 FEW040 BKN090 26/22 A2997 RMK TCU SW NOSIG=
201106022100 METAR MROC 022100Z 23009KT 9999 FEW003 SCT030 BKN080 25/22 A2996 RMK RA DST S BECMG 4000 -RA BR=
201106022200 METAR MROC 022200Z 25005KT 9000 4000SW -RA FEW002 SCT025 BKN060 22/22 A2996 NOSIG=
201106022300 METAR MROC 022300Z 31005KT 9999 4000SW FEW002 SCT020 BKN050 21/21 A2998 RMK BECMG 3000 -RA BR=
201106030000 METAR MROC 030000Z 31004KT 5000 2000SW -RA FEW002 SCT010 BKN020 21/21 A2999 NOSIG=
201106030100 METAR MROC 030100Z 31005KT 8000 3000SW -RA FEW002 SCT005 BKN010 21/21 A3002 NOSIG=
201106030200 METAR MROC 030200Z 32005KT 9000 4000SW SCT010 BKN020 21/21 A3003 NOSIG=
201106030300 METAR MROC 030300Z 00000KT 9999 SCT030 BKN100 21/21 A3003 RERA BECMG -RA=
201106030400 METAR MROC 030400Z 00000KT 9999 SCT030 BKN100 21/21 A3004 NOSIG=
201106030500 METAR MROC 030500Z 00000KT 9999 SCT030 BKN100 21/21 A3004 NOSIG=
201106030600 METAR MROC 030600Z 00000KT 9999 SCT030 BKN100 21/21 A3002 NOSIG=
201106030700 METAR MROC 030700Z 00000KT 9999 SCT030 BKN100 21/21 A3001 NOSIG=
201106030800 METAR MROC 030800Z 00000KT 9999 SCT030 BKN100 21/21 A3001 NOSIG=
201106030900 METAR MROC 030900Z 00000KT 9999 SCT030 BKN100 21/21 A3000 NOSIG=
201106031000 METAR MROC 031000Z 00000KT 9999 SCT030 BKN100 21/21 A2999 NOSIG=
201106031100 METAR MROC 031100Z 00000KT 9999 SCT025 BKN100 20/20 A3000 NOSIG=
201106031200 METAR MROC 031200Z 00000KT 9999 -RA VCFG FEW004 SCT025 BKN100 20/20 A3002 NOSIG=
201106031300 METAR MROC 031300Z 00000KT 9999 FEW005 SCT025 BKN120 21/21 A3003 NOSIG=
201106031400 METAR MROC 031400Z 00000KT 9999 SCT030 BKN120 22/21 A3004 RMK BECMG 24006KT=
201106031500 METAR MROC 031500Z 26004KT 9999 SCT035 BKN120 23/21 A3005 NOSIG=
201106031600 METAR MROC 031600Z 24003KT 9999 SCT035 BKN120 25/21 A3003 RMK HZ LGT SE NOSIG=
201106031700 METAR MROC 031700Z 20004KT 9999 SCT035 BKN150 26/21 A3002 RMK HZ LGT E/SE NOSIG=
201106031800 METAR MROC 031800Z 25006KT 9999 SCT040TCU BKN180 27/22 A3000 NOSIG=
201106031900 METAR MROC 031900Z 24008KT 9999 SCT040TCU SCT200 28/23 A2998 NOSIG=
201106032000 METAR MROC 032000Z 21009KT 9999 FEW020TCU SCT030 BKN100 27/23 A2996 RMK BECMG 8000 VCSH=
201106032100 METAR MROC 032100Z 25007KT 9999 -RA VCSH FEW008TCU SCT025 BKN100 23/23 A2997 RMK VIS 8KM SW FEW015 NOSIG=
201106032200 METAR MROC 032200Z 25004KT 9999 FEW010 BKN030 22/22 A2997 RMK FEW100 NOSIG=
201106032300 METAR MROC 032300Z 00000KT 9999 FEW015 BKN140 23/23 A2998 RMK FEW025 NOSIG=
201106032345 METAR MROC 032345Z 27004KT 9999 3000S SCT008 BKN080 22/20 A2995 RMK TCU DST W/S NOSIG=
201106040000 METAR MROC 040000Z 00000KT 9999 FEW008 SCT100 OVC250 22/22 A2999 RMK FEW080 NOSIG=
201106040100 METAR MROC 040100Z 00000KT 9999 FEW006 SCT090 BKN250 22/22 A3001 RMK FEW015 NOSIG=
201106040200 METAR MROC 040200Z 00000KT 9999 FEW006 SCT060 BKN250 22/22 A3003 RMK FEW025 NOSIG=
201106040300 METAR MROC 040300Z 00000KT 9999 BCFG FEW004 SCT020 22/22 A3004 RMK=
201106040400 METAR MROC 040400Z 00000KT 9999 BCFG FEW002 SCT010 BKN060 22/22 A3006 RMK SCTD FG BANKS QUAD W NOSIG=
201106040500 METAR MROC 040500Z 00000KT 9999 FEW004 SCT020 BKN080 22/22 A3006 NOSIG=
201106040600 METAR MROC 040600Z 00000KT 9999 FEW004 SCT080 21/21 A3003 RMK FEW020 NOSIG=
201106040700 METAR MROC 040700Z 00000KT 9999 FEW020 BKN080 21/21 A3002 NOSIG=
201106040800 METAR MROC 040800Z 00000KT 9999 FEW020 SCT100 21/21 A3002 RMK FEW040 NOSIG=
201106040900 METAR MROC 040900Z 07005KT CAVOK 21/19 A3000 NOSIG=
201106041000 METAR MROC 041000Z VRB02KT CAVOK 21/19 A3001 NOSIG=
201106041100 METAR MROC 041100Z 00000KT CAVOK 20/20 A3002 NOSIG=
201106041200 METAR MROC 041200Z 00000KT 9999 FEW004 SCT100 20/20 A3003 RMK LW ST SW SCT140 NOSIG=
201106041300 METAR MROC 041300Z VRB02KT CAVOK 22/21 A3004 RMK BKN250 NOSIG=
201106041400 METAR MROC 041400Z VRB02KT CAVOK 23/21 A3003 RMK FEW110 BKN250 BECMG 24006KT=
201106041500 METAR MROC 041500Z 24003KT CAVOK 26/19 A3003 RMK BKN250 NOSIG=
201106041600 METAR MROC 041600Z 24007KT 9999 FEW035 SCT250 26/22 A3002 NOSIG=
201106041700 METAR MROC 041700Z 24009KT 9999 FEW040 BKN250 26/22 A3002 NOSIG=
201106041800 METAR MROC 041800Z 24008KT 9999 FEW035 BKN140 27/22 A3001 RMK TCU DST E NOSIG=
201106041900 METAR MROC 041900Z 25008KT 9999 -SHRA FEW020TCU BKN120 27/21 A2998 RMK FEW035 VIS 7KM NE NOSIG=
201106042000 METAR MROC 042000Z 25009KT 9999 VCSH FEW020TCU SCT030 BKN110 25/22 A2997 BECMG SHRA=
201106042100 METAR MROC 042100Z 26006KT 9999 VCSH FEW005 SCT020TCU BKN100 24/22 A2996 NOSIG=
201106042200 METAR MROC 042200Z 20004KT 9999 -RA FEW010 SCT020 BKN100 23/23 A2996 BECMG 7000 BCFG=
201106042300 METAR MROC 042300Z 18008KT 1000 R07/0500 SHRA BR FEW001 FEW010CB BKN030 20/20 A3000 NOSIG=
201106050000 METAR MROC 050000Z 07008KT 4000 RA BR FEW001 SCT030 BKN100 20/20 A3004 NOSIG=
201106050100 METAR MROC 050100Z 09002KT 6000 -RA FEW030 OVC100 19/19 A3006 NOSIG=
201106050200 METAR MROC 050200Z 11003KT 9999 FEW030 OVC100 20/20 A3006 NOSIG=
201106050300 METAR MROC 050300Z 09005KT 9999 SCT030 20/20 A3005 NOSIG=
201106050400 METAR MROC 050400Z 08006KT CAVOK 20/19 A3004 RMK FEW050 NOSIG=
201106050500 METAR MROC 050500Z 00000KT 9999 BCFG FEW080 20/20 A3005 NOSIG=
201106050600 METAR MROC 050600Z VRB02KT 9999 BCFG FEW035 19/19 A3005 NOSIG=
201106050700 METAR MROC 050700Z 03004KT 9999 BCFG FEW035 19/19 A3002 NOSIG=
201106050800 METAR MROC 050800Z 00000KT CAVOK 19/19 A3001 RMK FEW100 NOSIG=
201106050900 METAR MROC 050900Z 11003KT CAVOK 19/19 A2999 RMK FEW150 NOSIG=
201106051000 METAR MROC 051000Z 04004KT CAVOK 18/18 A2999 NOSIG=
201106051100 METAR MROC 051100Z 09004KT CAVOK 18/18 A2999 RMK FEW150 SCT250 NOSIG=
201106051200 METAR MROC 051200Z VRB02KT CAVOK 18/18 A3001 RMK SCT120 BKN250 NOSIG=
201106051300 METAR MROC 051300Z 00000KT CAVOK 20/19 A3003 RMK FEW120 BKN250 BECMG 22007KT=
201106051400 METAR MROC 051400Z 00000KT CAVOK 21/20 A3005 RMK FEW120 BKN250 BECMG 22007KT=
201106051500 METAR MROC 051500Z 25004KT 9999 FEW040 BKN120 23/20 A3005 NOSIG=
201106051600 METAR MROC 051600Z 23008KT 9999 FEW040 BKN120 24/21 A3006 NOSIG=
201106051700 METAR MROC 051700Z 26006KT 9999 SCT040 BKN120 24/21 A3005 NOSIG=
201106051800 METAR MROC 051800Z 23005KT 9999 SCT030 BKN120 25/21 A3003 NOSIG=
201106051900 METAR MROC 051900Z 25007KT 9999 SCT030 BKN120 26/21 A3000 NOSIG=
201106052000 METAR MROC 052000Z 25009KT 9999 SCT015TCU BKN025 24/22 A2999 RMK PCPN DST NE NOSIG=
201106052100 METAR MROC 052100Z 25009KT 9999 -RA SCT010TCU BKN025 23/22 A2997 BECMG 5000 RA=
201106052200 METAR MROC 052200Z 23007KT 2000 RA BR FEW005 SCT010 BKN025 21/21 A2998 NOSIG=
201106052300 METAR MROC 052300Z 29011KT 1500 RA BR FEW004 SCT010 BKN020 20/20 A3001 NOSIG=
201106060000 METAR MROC 060000Z 32002KT 4000 RA BR FEW005 SCT015 BKN025 19/19 A3003 BECMG 2000 RA BR=
201106060100 METAR MROC 060100Z 03004KT 6000 -RA BR VCFG FEW006 SCT015 OVC100 19/19 A3005 BECMG 3000 -RA BR=
201106060200 METAR MROC 060200Z 11003KT 6000 -RA VCFG FEW006 SCT016 OVC100 19/19 A3007 NOSIG=
201106060300 METAR MROC 060300Z 09003KT 9999 -DZ FEW030 BKN080 19/19 A3007 NOSIG=
201106060348 METAR MROC 060348Z VRB02KT CAVOK 19/19 A3006 RMK BKN090 NOSIG=
201106060400 METAR MROC 060400Z VRB02KT CAVOK 19/19 A3007 RMK BKN100 NOSIG=
201106060500 METAR MROC 060500Z 00000KT 9999 VCFG BKN080 20/20 A3006 NOSIG=
201106060600 METAR MROC 060600Z 00000KT 9999 VCFG BKN070 19/19 A3005 RMK VIS 8KM SW BECMG 7000 BCFG=
201106060700 METAR MROC 060700Z 00000KT 9999 BCFG FEW050 BKN070 19/19 A3004 RMK VIS 7KM SW BECMG 7000 BCFG=
201106060800 METAR MROC 060800Z 00000KT 9999 -DZ BCFG FEW015 BKN070 19/19 A3002 RMK VIS 7KM SW NOSIG=
201106060900 METAR MROC 060900Z VRB02KT 9999 BCFG BKN080 19/19 A3001 RMK VIS 7KM SW W NW NOSIG=
201106061000 METAR MROC 061000Z 00000KT 9999 VCFG FEW045 BKN080 19/19 A3001 NOSIG=
201106061100 METAR MROC 061100Z VRB02KT 9999 VCFG BKN070 19/19 A3001 RMK VIS 8KM SW NOSIG=
201106061200 METAR MROC 061200Z 00000KT 9999 VCFG BKN090 20/20 A3003 RMK VIS 8KM W NOSIG=
201106061300 METAR MROC 061300Z 00000KT CAVOK 20/20 A3005 RMK BKN100 BECMG 24006KT=
201106061400 METAR MROC 061400Z 30003KT 9999 FEW015 SCT030 BKN100 21/20 A3007 BECMG 24006KT=
201106061500 METAR MROC 061500Z 22005KT 9999 SCT020 BKN100 23/20 A3007 NOSIG=
201106061600 METAR MROC 061600Z 26007KT 9999 FEW015 BKN025 22/20 A3008 RMK RA DST NE E BECMG -RA=
201106061700 METAR MROC 061700Z 33004KT 9999 FEW010 BKN020 22/20 A3007 RMK RA SCT ARND NOSIG=
201106061800 METAR MROC 061800Z 21004KT 9999 FEW015 BKN100 25/21 A3005 NOSIG=
201106061900 METAR MROC 061900Z 25006KT 9999 FEW020 BKN110 24/20 A3002 NOSIG=
201106062000 METAR MROC 062000Z 25007KT 9999 FEW015TCU SCT020 SCT120 24/21 A3000 RMK BECMG 8000 -RA=
201106062100 METAR MROC 062100Z 26008KT 5000 -RA BR FEW001 FEW010TCU BKN120 21/21 A3000 RMK VIS E UNL FEW020 NOSIG=
201106062200 METAR MROC 062200Z 31007KT 9999 VCSH FEW008 FEW012TCU SCT120 21/21 A2999 RMK SH W FEW020 SCT250 NOSIG=
201106062300 METAR MROC 062300Z 30006KT 5000 -RA BR FEW001 FEW012CB BKN025 20/20 A3001 RMK FEW003 NOSIG=
201106070000 METAR MROC 070000Z 00000KT 3000 RA BR FEW001 SCT010 BKN025 20/20 A3003 NOSIG=
201106070018 METAR MROC 070018Z VRB02KT 6000 RA BCFG FEW001 SCT010 BKN025 20/20 A3003 NOSIG=
201106070100 METAR MROC 070100Z 00000KT 9999 FEW008 SCT110 20/20 A3003 RERA NOSIG=
201106070200 METAR MROC 070200Z 00000KT 9999 FEW020 SCT120 19/19 A3004 NOSIG=
201106070300 METAR MROC 070300Z 00000KT CAVOK 19/19 A3005 RMK SCT120 NOSIG=
201106070400 METAR MROC 070400Z 00000KT CAVOK 19/19 A3005 RMK SCT120 NOSIG=
201106070500 METAR MROC 070500Z 00000KT 9999 1000SW R07/0150 BR FEW001 SCT120 18/18 A3005 NOSIG=
201106070600 METAR MROC 070600Z 00000KT 9999 FEW020 SCT120 18/18 A3004 NOSIG=
201106070700 METAR MROC 070700Z 10004KT 9999 FEW020 SCT120 18/18 A3002 NOSIG=
201106070800 METAR MROC 070800Z 08003KT CAVOK 18/18 A3002 RMK SCT120 NOSIG=
201106070900 METAR MROC 070900Z 10005KT CAVOK 17/17 A3001 RMK FEW120 NOSIG=
201106071000 METAR MROC 071000Z 10004KT CAVOK 17/17 A3002 RMK FEW120 NOSIG=
201106071100 METAR MROC 071100Z 10004KT CAVOK 17/17 A3003 RMK FEW250 NOSIG=
201106071200 METAR MROC NIL=
201106071300 METAR MROC 071300Z 00000KT CAVOK 23/19 A3006 BECMG 24006KT=
201106071400 METAR MROC 071400Z 00000KT CAVOK 23/19 A3006 BECMG 24006KT=
201106071500 METAR MROC 071500Z VRB02KT CAVOK 25/18 A3005 BECMG 24006KT=
201106071600 METAR MROC 071600Z VRB02KT 9999 FEW020 BKN250 25/19 A3005 BECMG 24006KT=
201106071700 METAR MROC 071700Z 25006KT 9999 FEW030 BKN250 26/18 A3005 RMK CB DST SW NOSIG=
201106071800 METAR MROC 071800Z 26008KT 9999 FEW035 BKN250 26/20 A3003 RMK TCU SW W NOSIG=
201106071900 METAR MROC 071900Z 25007KT 9999 FEW010TCU SCT035 SCT250 25/21 A3002 NOSIG=
201106072000 METAR MROC 072000Z 25010KT 9999 FEW010TCU BKN035 26/22 A3000 RMK RN DST SW FEW250 NOSIG=
201106072100 METAR MROC 072100Z 25010KT 9999 SCT010TCU BKN100 24/22 A3000 RMK RA DST S BECMG 8000 VCSH=
201106072200 METAR MROC 072200Z 25010KT 5000 2000SW DZ BR FEW001 SCT004 BKN008 21/21 A2999 RMK BECMG 2000 -RA BR=
201106072300 METAR MROC 072300Z 30004KT 9999 BCFG FEW006 SCT025 BKN060 22/21 A3000 NOSIG=
201106080000 METAR MROC 080000Z 30004KT 9999 SCT020 BKN050 21/21 A3001 NOSIG=
201106080100 METAR MROC 080100Z 00000KT 9999 SCT025 BKN060 21/21 A3003 NOSIG=
201106080200 METAR MROC 080200Z 00000KT CAVOK 21/21 A3003 NOSIG=
201106080300 METAR MROC 080300Z 00000KT CAVOK 20/20 A3003 NOSIG=
201106080400 METAR MROC 080400Z 00000KT CAVOK 19/19 A3005 NOSIG=
201106080500 METAR MROC 080500Z 00000KT CAVOK 18/18 A3005 NOSIG=
201106080600 METAR MROC 080600Z 11004KT CAVOK 18/18 A3004 NOSIG=
201106080700 METAR MROC 080700Z 00000KT CAVOK 19/18 A3003 NOSIG=
201106080800 METAR MROC 080800Z 08003KT CAVOK 19/18 A3002 NOSIG=
201106080900 METAR MROC 080900Z 09004KT CAVOK 18/28 A3001 NOSIG=
201106081000 METAR MROC 081000Z 00000KT CAVOK 18/18 A3002 NOSIG=
201106081100 METAR MROC 081100Z 11005KT CAVOK 18/18 A3002 RMK SCT130 NOSIG=
201106081200 METAR MROC 081200Z 08005KT CAVOK 18/18 A3004 NOSIG=
201106081300 METAR MROC 081300Z 10003KT CAVOK 22/18 A3005 RMK FEW200 HZ LGT BECMG 24006KT=
201106081400 METAR MROC 081400Z 00000KT CAVOK 24/18 A3006 RMK HZ LGT W BECMG 24006KT=
201106081500 METAR MROC 081500Z VRB02KT 9999 FEW045 26/19 A3006 RMK HZ LGT W BECMG 24006K T=
201106081600 METAR MROC 081600Z 25007KT 9999 FEW035 26/20 A3005 NOSIG=
201106081700 METAR MROC NIL=
201106081800 METAR MROC 081800Z 26008KT 9999 FEW015TCU SCT035 BKN250 27/21 A3002 NOSIG=
201106081900 METAR MROC 081900Z 24009KT 9999 SCT020TCU BKN250 27/22 A3001 NOSIG=
201106082000 METAR MROC 082000Z 25008KT 9999 SCT025TCU BKN250 27/22 A2998 RMK HZ QUAD E NOSIG=
201106082100 METAR MROC 082100Z 24009KT 9999 FEW025 BKN250 27/23 A2997 RMK FEW035 TCU DST E NOSIG=
201106082200 METAR MROC 082200Z 24009KT 9999 VCSH FEW025TCU BKN250 26/22 A2997 RMK FEW035 FEW080 TCU DST NE/E NOSIG=
201106082300 METAR MROC 082300Z 25008KT 9999 VCSH FEW020 SCT080 BKN250 25/22 A2998 RMK FEW030 NOSIG=
201106090000 METAR MROC 090000Z 26006KT 9999 VCSH FEW020 SCT035 SCT100 23/22 A3001 RMK VIS 8KM W FEW250 NOSIG=
201106090100 METAR MROC 090100Z 25005KT 9999 VCFG FEW002 SCT009 BKN080 22/22 A3002 RMK FEW025 VIS 8KM SW NOSIG=
201106090200 METAR MROC 090200Z VRB02KT 9999 BCFG SCT001 BKN025 22/22 A3003 RMK FEW010 VIS 5KM SW BECMG 5000 BR BKN006=
201106090300 METAR MROC 090300Z 00000KT 9999 BCFG FEW001 SCT012 BKN020 22/22 A3004 NOSIG=
201106090400 METAR MROC 090400Z 00000KT 1200 R07/0550 BR FEW001 SCT008 BKN012 21/21 A3004 NOSIG=
201106090500 METAR MROC 090500Z 00000KT 0800 R07/0450 FG SCT001 BKN008 22/22 A3004 NOSIG=
201106090528 METAR MROC 090528Z 00000KT 2000 BR FEW001 BKN012 22/22 A3003 NOSIG=
201106090600 METAR MROC 090600Z 00000KT 9999 2000W BCFG FEW001 SCT008 BKN030 22/22 A3003 NOSIG=
201106090700 METAR MROC 090700Z 00000KT 9999 2000W BCFG FEW001 SCT008 BKN030 22/22 A3002 NOSIG=
201106090800 METAR MROC 090800Z 00000KT 8000 VCFG FEW001 SCT015 BKN100 22/22 A3000 NOSIG=
201106090900 METAR MROC 090900Z 00000KT 5000 BR FEW001 SCT010 BKN040 21/21 A3000 NOSIG=
201106091000 METAR MROC 091000Z 00000KT 5000 BR FEW001 SCT110 21/21 A2999 RMK VIS E UNL NOSIG=
201106091100 METAR MROC 091100Z 00000KT 9999 2000SW BCFG FEW001 SCT110 20/20 A3000 RMK SCTD FG BANKS SW W NOSIG=
201106091200 METAR MROC NIL=
201106091300 METAR MROC 091300Z 25005KT 5000 2000SW HZ BCFG FEW006 SCT250 21/21 A3002 RMK VIS 7KM N NE BECMG 7000=
201106091400 METAR MROC 091400Z 24005KT 6000 2500SW HZ FEW009 SCT250 24/23 A3005 BECMG 9000=
201106091500 METAR MROC 091500Z VRB02KT 8000 FEW015 SCT250 25/22 A3005 RMK VIS 6KM SW HZY NOSIG=
201106091600 METAR MROC 091600Z 25007KT 9999 FEW035 SCT250 27/23 A3004 RMK VIS 7KM SW HZY NOSIG=
201106091700 METAR MROC 091700Z 25010KT 9000 FEW025TCU FEW035 27/23 A3004 RMK VIS 7KM SW HZY NOSIG=
201106091800 METAR MROC 091800Z 28009KT 9999 FEW009 SCT025 27/23 A3002 RMK VIS 7KM SW HZY BECMG VCSH BKN030=
201106091900 METAR MROC 091900Z 25010KT 9999 VCSH FEW010 SCT025TCU 27/24 A3001 RMK VIS 7KM SW HZY VEL MAX VTO 15KT BECMG -SHRA=
201106092000 METAR MROC 092000Z 23012KT 9999 -SHRA FEW009CB FEW020TCU SCT035 26/23 A3000 RMK VIS 5KM W VEL MAX VTO 18KT NOSIG=
201106092100 METAR MROC 092100Z 28006KT 9999 -TS VCSH FEW010CB SCT020TCU BKN035 24/23 A2998 BECMG 5000 +RA=
201106092200 METAR MROC 092200Z 25007KT 9999 FEW010 BKN030 23/23 A2997 NOSIG=
201106092300 METAR MROC 092300Z 00000KT 9999 BCFG FEW005 SCT030 BKN100 23/23 A2998 NOSIG=
201106100000 METAR MROC 100000Z 25003KT 9999 BCFG FEW005 SCT030 BKN100 23/23 A2998 NOSIG=
201106100100 METAR MROC NIL=
201106100200 METAR MROC NIL=
201106100300 METAR MROC NIL=
201106100400 METAR MROC 100400Z 00000KT 9999 BCFG FEW005 SCT025 BKN100 22/22 A3002 NOSIG=
201106100500 METAR MROC 100500Z 00000KT 5000 BR FEW002 BKN010 22/22 A3002 RMK BECMG 2000 BR=
201106100600 METAR MROC NIL=
201106100700 METAR MROC 100700Z 00000KT 5000 2000SW BR FEW002 BKN015 21/21 A2998 NOSIG=
201106100800 METAR MROC 100800Z 00000KT 5000 BR FEW002 BKN015 21/21 A2998 NOSIG=
201106100900 METAR MROC 100900Z 00000KT 5000 BR FEW002 BKN015 21/21 A2997 NOSIG=
201106101000 METAR MROC 101000Z 00000KT 5000 BR FEW002 SCT025 20/20 A2997 RMK LTNG DST S NOSIG=
201106101100 METAR MROC 101100Z 00000KT 8000 3500SW BR FEW002 SCT035 20/20 A2999 NOSIG=
201106101200 METAR MROC 101200Z 00000KT 5000 2000SW BR FEW025 SCT100 20/20 A2999 RMK HZY=
201106101300 METAR MROC 101300Z 00000KT 9999 4000SW BR FEW001 22/22 A3001 RMK HZ ARND BECMG 24006KT=
201106101400 METAR MROC 101400Z 00000KT 9999 FEW030 25/21 A3002 RMK HZ ARND BECMG 24006KT=
201106101500 METAR MROC 101500Z 25003KT 9999 FEW030 26/22 A3002 RMK CB DST SW HZ ARND=
201106101600 METAR MROC 101600Z 22008KT 9999 SCT030 FEW250 28/23 A3001 RMK CB DST SW HZ ARND NOSIG=
201106101700 METAR MROC 101700Z 18005KT 9999 SCT030 FEW120 27/22 A2999 RMK TCU DST SW HZ LGT ARND NOSIG=
201106101800 METAR MROC NIL=
201106101900 METAR MROC 101900Z 23010KT 9999 FEW010TCU SCT030 28/24 A2996 RMK HZ ARND NOSIG=
201106102000 METAR MROC 102000Z 24011KT 9999 FEW010TCU SCT025 28/24 A2994 RMK PCPN DST NE HZ ARND NOSIG=
201106102100 METAR MROC 102100Z 25010KT 9999 FEW010TCU SCT025 26/24 A2993 RMK HZ ARND NOSIG=
201106102200 METAR MROC 102200Z 25008KT 3000 BR FEW007 BKN015 24/24 A2993 RERA BECMG 1500 -RA BR=
201106102300 METAR MROC 102300Z 25007KT 2000 BR FEW004 SCT010 BKN015 23/23 A2995 BECMG 1000 -RA BR=
201106110000 METAR MROC 110000Z 24006KT 2000 BR FEW003 SCT010 BKN020 22/22 A2996 NOSIG=
201106110100 METAR MROC 110100Z 24003KT 2000 BR FEW002 SCT010 BKN020 22/22 A2999 NOSIG=
201106110200 METAR MROC 110200Z 27004KT 1200 BR FEW001 SCT010 BKN020 22/22 A2999 NOSIG=
201106110300 METAR MROC 110300Z VRB02KT 0700 FG SCT001 BKN002 22/22 A2999 RMK VIS 1 5KM NE NOSIG=
201106110400 METAR MROC 110400Z VRB02KT 0600 R07/0200 FEW001 BKN002 22/22 A2999 RMK VIS 1 2KM NE NOSIG=
201106110500 METAR MROC NIL=
201106110600 METAR MROC 110600Z 00000KT 2500 R07/0800 BR SCT002 22/22 A2998 RMK VIS 4KM SE/N BECMG 1000 BR=
201106110700 METAR MROC 110700Z 08004KT 9999 3000SW BCFG FEW002 20/20 A2995 RMK FEW020 NOSIG=
201106110800 METAR MROC 110800Z 08004KT 9999 FEW003 21/19 A2994 NOSIG=
201106110900 METAR MROC 110900Z 08005KT CAVOK 21/18 A2993 RMK FEW250 NOSIG=
201106111000 METAR MROC 111000Z 10005KT CAVOK 21/18 A2992 RMK FEW250 NOSIG=
201106111100 METAR MROC 111100Z 12006KT 9999 VCFG FEW050 SCT200 22/18 A2991 NOSIG=
201106111200 METAR MROC 111200Z 12005KT CAVOK 22/18 A2993 RMK BKN300 NOSIG=
201106111300 METAR MROC 111300Z 13007KT CAVOK 24/18 A2995 RMK BKN280 NOSIG=
201106111400 METAR MROC 111400Z 24006KT CAVOK 26/22 A2996 RMK BKN280 NOSIG=
201106111500 METAR MROC 111500Z 26006KT CAVOK 26/22 A2996 RMK BKN250 NOSIG=
201106111600 METAR MROC 111600Z 24007KT 9999 FEW030 BKN250 26/22 A2997 NOSIG=
201106111700 METAR MROC 111700Z 00000KT 9999 SCT025 SCT250 27/23 A2996 NOSIG=
201106111800 METAR MROC 111800Z 22006KT 9999 SCT020TCU SCT250 28/22 A2994 NOSIG=
201106111900 METAR MROC 111900Z 26008KT 9999 FEW012TCU SCT025 27/23 A2992 RMK PCPN DST NE NOSIG=
201106112000 METAR MROC 112000Z 28007KT 9999 FEW012TCU SCT025 29/23 A2989 RMK PCPN DST NE NOSIG=
201106112100 METAR MROC 112100Z 24008KT 9999 FEW012TCU SCT035 28/23 A2987 NOSIG=
201106112200 METAR MROC 112200Z 25009KT 9999 FEW001 FEW012TCU SCT035 25/24 A2988 RMK VIS 8KM QUAD W DUE LW ST NOSIG=
201106112300 METAR MROC 112300Z 23005KT 5000 BR FEW001 FEW012TCU SCT035 24/24 A2990 RMK FEW080 NOSIG=
201106120000 METAR MROC 120000Z 25006KT 5000 BR FEW001 SCT080 23/23 A2990 RMK FEW020 SCT250 NOSIG=
201106120100 METAR MROC 120100Z VRB02KT 5000 BR FEW001 BKN030 23/23 A2992 RMK FEW020 NOSIG=
201106120200 METAR MROC 120200Z 00000KT 9999 FEW030 SCT120 22/22 A2994 BECMG RMK VIS SW 5KMS DUE ST BAJOS=
201106120300 METAR MROC 120300Z 00000KT 9999 FEW030 SCT120 23/20 A2994 NOSIG=
201106120400 METAR MROC 120400Z 13006KT CAVOK 23/18 A2994 RMK FEW120 SCT250 LTNG DST SW=
201106120500 METAR MROC NIL=
201106120600 METAR MROC 120600Z 13007KT CAVOK 23/19 A2993 RMK FEW120 SCT250 NOSIG=
201106120700 METAR MROC 120700Z 12005KT CAVOK 23/19 A2992 RMK FEW120 SCT250 NOSIG=
201106120800 METAR MROC 120800Z 12005KT CAVOK 23/19 A2990 RMK FEW120 SCT250 NOSIG=
201106120900 METAR MROC 120900Z 08005KT CAVOK 23/19 A2990 RMK FEW120 SCT250 NOSIG=
201106121000 METAR MROC NIL=
201106121100 METAR MROC 121100Z 09005KT 9999 -RA BKN120 23/20 A2991 NOSIG=
201106121200 METAR MROC 121200Z 00000KT CAVOK 22/20 A2994 RMK BKN100 NOSIG=
201106121300 METAR MROC 121300Z VRB02KT CAVOK 23/21 A2995 NOSIG=
201106121400 METAR MROC 121400Z 10005KT CAVOK 24/20 A2995 NOSIG=
201106121500 METAR MROC 121500Z 13009KT CAVOK 26/20 A2995 RMK GUST 15KT BECMG 24008KT=
201106121600 METAR MROC 121600Z 11008KT CAVOK 28/19 A2995 RMK GUST 15KT BECMG 24008KT=
201106121700 METAR MROC 121700Z 10007KT 9999 FEW035 BKN200 28/19 A2995 RMK GUST 12KT FEW080 FEW120 BECMG 24008KT=
201106121800 METAR MROC 121800Z 12007KT CAVOK 28/19 A2993 RMK GUST 15KT BECMG 24008KT=
201106121900 METAR MROC 121900Z 10005KT CAVOK 29/18 A2991 BECMG 24008KT=
201106122000 METAR MROC 122000Z VRB02KT CAVOK 28/19 A2989 BECMG 24008KT=
201106122100 METAR MROC 122100Z 14005KT CAVOK 28/18 A2988 RMK SCT120 BKN250 HZ LGT NOSIG=
201106122200 METAR MROC 122200Z VRB02KT CAVOK 28/24 A2989 RMK SCT120 BKN250 HZ LGT BECMG 24006KT=
201106122300 METAR MROC 122300Z 24004KT CAVOK 26/24 A2990 RMK SCT120 BKN250 HZ LGT NOSIG=
201106130000 METAR MROC 130000Z 25005KT 9999 FEW030 SCT120 BKN250 24/24 A2991 RMK HZ LGT NOSIG=
201106130100 METAR MROC 130100Z 12003KT 9999 FEW025 SCT100 BKN200 24/21 A2994 NOSIG=
201106130200 METAR MROC 130200Z 12006KT 9999 FEW025 SCT100 BKN200 24/19 A2995 NOSIG=
201106130300 METAR MROC NIL=
201106130400 METAR MROC NIL=
201106130404 METAR MROC 130404Z 11007KT 9999 FEW025 BKN250 23/19 A2999 NOSIG=
201106130500 METAR MROC 130500Z 12007KT CAVOK 23/19 A2994 NOSIG=
201106130600 METAR MROC 130600Z 08006KT CAVOK 23/19 A2993 RMK BKN250 NOSIG=
201106130700 METAR MROC 130700Z 08006KT CAVOK 23/19 A2993 RMK BKN250 NOSIG=
201106130800 METAR MROC 130800Z 09006KT CAVOK 23/19 A2992 NOSIG=
201106130900 METAR MROC 130900Z 14005KT CAVOK 23/19 A2992 RMK BKN250 NOSIG=
201106131000 METAR MROC 131000Z 08004KT CAVOK 22/22 A2993 NOSIG=
201106131100 METAR MROC 131100Z 04004KT CAVOK 22/19 A2994 RMK BKN250 NOSIG=
201106131200 METAR MROC 131200Z 03002KT 9999 FEW030 SCT200 21/20 A2994 NOSIG=
201106131300 METAR MROC 131300Z 11004KT CAVOK 24/20 A2996 RMK SCT080 BKN200 NOSIG=
201106131400 METAR MROC 131400Z 13009KT CAVOK 26/20 A2995 RMK SCT090 BKN200 HZ QUAD W NOSIG=
201106131500 METAR MROC 131500Z 12011KT 9999 FEW040 SCT120 BKN250 28/19 A2995 RMK HZ QUAD W NOSIG=
201106131600 METAR MROC 131600Z 12010KT 9999 FEW035 BKN250 29/19 A2995 NOSIG=
201106131700 METAR MROC 131700Z 09010KT 9999 SCT035 BKN250 29/18 A2996 NOSIG=
201106131800 METAR MROC 131800Z 11009KT 9999 SCT035 BKN250 30/19 A2994 NOSIG=
201106131900 METAR MROC 131900Z 06011KT 9999 SCT030 BKN250 27/20 A2994 RMK RA DST QUAD N BECMG 7000 RA=
201106132000 METAR MROC 132000Z 08013KT 9999 FEW020 SCT100 BKN250 29/18 A2991 RMK FEW030 NOSIG=
201106132100 METAR MROC 132100Z 14012KT 9999 VCSH FEW010 BKN120 27/19 A2991 RMK VEL MAX VTO 18KT FEW040 FEW250 NOSIG=
201106132200 METAR MROC 132200Z 16010KT 9999 VCSH FEW015 SCT040 BKN250 26/18 A2992 RMK VIS 8KM SW FEW120 NOSIG=
201106132300 METAR MROC 132300Z 02004KT 9999 VCSH FEW040 BKN110 24/22 A2993 RMK RA DST NE SW NOSIG=
201106140000 METAR MROC 140000Z 12008KT 9999 FEW045 BKN120 OVC250 24/19 A2994 NOSIG=
201106140100 METAR MROC 140100Z 13007KT 9999 FEW040 SCT100 BKN250 24/18 A2998 NOSIG=
201106140200 METAR MROC 140200Z 09006KT CAVOK 23/18 A2999 RMK SCT090 BKN250 NOSIG=
201106140300 METAR MROC 140300Z 08007KT CAVOK 23/18 A2997 NOSIG=
201106140400 METAR MROC 140400Z VRB02KT CAVOK 23/18 A2997 NOSIG=
201106140500 METAR MROC 140500Z 12007KT CAVOK 23/18 A2996 NOSIG=
201106140600 METAR MROC 140600Z 13013KT CAVOK 24/18 A2996 NOSIG=
201106140700 METAR MROC 140700Z 12010KT CAVOK 23/17 A2996 RMK SCT120 NOSIG=
201106140800 METAR MROC 140800Z 09007KT CAVOK 23/18 A2995 RMK LGTNG SW NOSIG=
201106140900 METAR MROC 140900Z 05004KT CAVOK 22/18 A2995 NOSIG=
201106141000 METAR MROC 141000Z VRB02KT CAVOK 22/18 A2994 NOSIG=
201106141100 METAR MROC 141100Z 09004KT CAVOK 22/18 A2993 NOSIG=
201106141200 METAR MROC 141200Z 07005KT 9999 FEW015 SCT250 22/18 A2995 RMK FEW120 NOSIG=
201106141300 METAR MROC 141300Z 08005KT 9999 FEW040 25/19 A2998 RMK FEW140 FEW200 NOSIG=
201106141400 METAR MROC 141400Z 12010KT CAVOK 26/19 A2997 RMK SCT250 VEL MAX VTO 17KT NOSIG=
201106141500 METAR MROC 141500Z 12012KT CAVOK 27/18 A2997 RMK SCT250 VEL MAX VTO 17KT NOSIG=
201106141600 METAR MROC 141600Z 13011KT 9999 FEW045 SCT250 29/19 A2997 NOSIG=
201106141700 METAR MROC 141700Z 11010KT 090V160 9999 FEW045 30/18 A2996 RMK FEW250 VEL MAX VTO 14KT NOSIG=
201106141800 METAR MROC 141800Z 14007KT 9999 FEW040 30/18 A2996 RMK FEW070 NOSIG=
201106141900 METAR MROC 141900Z 23007KT 9999 FEW040 SCT080 28/23 A2993 RMK TCU DST=
201106142000 METAR MROC 142000Z 20005KT 9999 VCSH FEW020TCU SCT040 BKN080 27/23 A2993 RMK VIS 8KM N/NW BECMG -SHRA=
201106142100 METAR MROC 142100Z VRB02KT 9999 VCSH FEW010CB SCT030 BKN100 26/23 A2991 RMK RA ARND BECMG 5000 RA=
201106142200 METAR MROC 142200Z 25010KT 9999 BCFG FEW001 SCT030 BKN100 22/22 A2993 NOSIG=
201106142300 METAR MROC 142300Z 03006KT 9999 FEW030 BKN100 23/21 A2996 NOSIG=
201106150000 METAR MROC 150000Z 00000KT 9999 FEW040 BKN100 23/19 A2993 NOSIG=
201106150100 METAR MROC 150100Z 29003KT 9999 FEW040 OVC100 22/20 A2996 NOSIG=
201106150200 METAR MROC 150200Z 11008KT 9999 FEW040 OVC100 24/18 A2999 NOSIG=
201106150300 METAR MROC 150300Z 12005KT 9999 FEW030 SCT120 24/19 A3001 NOSIG=
201106150400 METAR MROC 150400Z 15004KT 9999 -RA BKN120 22/22 A3004 NOSIG=
201106150500 METAR MROC 150500Z VRB02KT 8000 -RA VCFG BKN100 21/21 A3004 NOSIG=
201106150600 METAR MROC 150600Z VRB02KT 5000 2000SW FEW002 SCT015 20/20 A3002 NOSIG=
201106150700 METAR MROC 150700Z 00000KT 8000 -RA VCFG FEW002 BKN020 20/20 A2999 NOSIG=
201106150800 METAR MROC 150800Z 09004KT 9999 BKN080 20/20 A2997 RERA NOSIG=
201106150900 METAR MROC 150900Z 08006KT CAVOK 20/20 A2994 RMK BKN120 NOSIG=
201106151000 METAR MROC 151000Z 07070KT CAVOK 20/19 A2992 RMK SCT080 BKN150 NOSIG=
201106151100 METAR MROC 151100Z 08006KT CAVOK 21/18 A2992 RMK SCT060 BKN150 NOSIG=
201106151200 METAR MROC 151200Z 09006KT CAVOK 22/18 A2993 RMK SCT100 OVC200 NOSIG=
201106151300 METAR MROC 151300Z 09005KT CAVOK 23/18 A2995 RMK SCT120 BKN250 NOSIG=
201106151400 METAR MROC 151400Z 08009KT CAVOK 23/19 A2996 RMK SCT120 BKN250 NOSIG=
201106151500 METAR MROC NIL=
201106151600 METAR MROC 151600Z 12006KT CAVOK 26/19 A3000 RMK SCT120 BKN250 NOSIG=
201106151700 METAR MROC 151700Z 24007KT 9999 -RA FEW040 SCT120 BKN250 25/22 A3001 NOSIG=
201106151800 METAR MROC 151800Z 22006KT 9999 FEW040 BKN120 24/22 A3001 RMK DZ N NE NOSIG=
201106151900 METAR MROC 151900Z 25006KT 9999 FEW035 BKN110 24/21 A2999 RMK RN DST N NE NOSIG=
201106152000 METAR MROC 152000Z 25006KT 9999 FEW030 BKN110 25/22 A2997 RMK RN DST N NE NOSIG=
201106152100 METAR MROC 152100Z 26007KT 9999 FEW010 SCT025TCU BKN120 25/22 A2995 NOSIG=
201106152200 METAR MROC 152200Z 24008KT 8000 VCFG SCT008 SCT015 22/22 A2995 BECMG 5000 -RA BR=
201106152300 METAR MROC 152300Z 24009KT 2000 -DZ BR FEW001 SCT003 BKN006 21/21 A2997 BECMG 1200 -RA BR=
201106160000 METAR MROC 160000Z 25007KT 3000 -RA BR SCT003 BKN007 20/20 A2998 NOSIG=
201106160100 METAR MROC 160100Z 22004KT 2000 +RA VCTS FEW015CB SCT025 BKN080 20/20 A3002 BECMG 5000=
201106160200 METAR MROC 160200Z 00000KT 5000 -RA BR SCT003 SCT015 20/20 A3004 BECMG 7000=
201106160300 METAR MROC 160300Z VRB02KT 6000 -RA BR FEW003 BKN045 20/20 A3004 RMK VIS 4KM SW NOSIG=
201106160400 METAR MROC 160400Z 07003KT 9999 -RA FEW010 BKN090 20/20 A3003 NOSIG=
201106160500 METAR MROC 160500Z 28003KT 8000 3700SW -DZRA BCFG FEW010 BKN090 20/20 A3003 RMK FEW035 VIS 4KM E/SE/S BECMG 3000 BR=
201106160600 METAR MROC 160600Z 28004KT 1800 BR BCFG FEW001 BKN003 20/20 A3003 BECMG 4000 BR=
201106160700 METAR MROC 160700Z 31003KT 9999 FEW020 BKN060 20/20 A3002 RMK FEW040 NOSIG=
201106160800 METAR MROC 160800Z 00000KT 9999 FEW030 BKN100 20/20 A3001 NOSIG=
201106160900 METAR MROC 160900Z 00000KT 9999 FEW025 BKN110 20/20 A2999 NOSIG=
201106161000 METAR MROC 161000Z VRB02KT CAVOK 20/20 A2997 RMK SCT150 NOSIG=
201106161100 METAR MROC 161100Z 00000KT CAVOK 19/19 A2998 RMK BKN140 NOSIG=
201106161200 METAR MROC 161200Z 00000KT CAVOK 19/19 A2999 RMK FEW100 BKN130 NOSIG=
201106161300 METAR MROC 161300Z 00000KT CAVOK 20/20 A3001 RMK FEW090 BKN120 NOSIG=
201106161400 METAR MROC 161400Z 00000KT CAVOK 23/21 A3001 RMK FEW090 BKN120 NOSIG=
201106161500 METAR MROC 161500Z 09003KT CAVOK 25/21 A3002 RMK BKN120=
201106161600 METAR MROC NIL=
201106161700 METAR MROC 161700Z 00000KT 9999 FEW040 BKN120 28/19 A3000 BECMG 24006KT=
201106161800 METAR MROC 161800Z 25007KT 9999 FEW020TCU SCT035 28/22 A2999 RMK PCPN DST S E CB DST SSE NOSIG=
201106161842 METAR MROC 161842Z 22010KT 9999 -RA SCT020TCU BKN035 23/23 A2999 BECMG 5000 -SHRA VCTS=
201106161900 METAR MROC 161900Z 20009KT 8000 -RA SCT020TCU BKN035 23/23 A2999 RMK VIS SW 4KMS VIS E SE UNL BECMG 3000 SHRA=
201106162000 METAR MROC 162000Z 35004KT 9999 -RA SCT015TCU BKN035 22/21 A2998 BECMG 5000 -TSRA=
201106162100 METAR MROC 162100Z 31003KT 9999 -RA SCT025 BKN080 20/20 A2998 RMK VIS 6000SW NOSIG=
201106162200 METAR MROC 162200Z 00000KT 9999 -RA FEW030 BKN090 20/20 A2997 NOSIG=
201106162300 METAR MROC 162300Z 00000KT 9999 -RA FEW035 BKN090 20/20 A2998 NOSIG=
201106162345 METAR MROC 162345Z 00000KT 5000 -RA BR SCT030 BKN100 20/18 A2998 NOSIG=
201106170000 METAR MROC 170000Z 05003KT 9999 4500SW -RA BR FEW003 SCT035 BKN090 21/21 A3001 NOSIG=
201106170100 METAR MROC 170100Z 10003KT 9999 -RA OVC090 20/20 A3003 NOSIG=
201106170200 METAR MROC 170200Z 08004KT 9999 -DZ FEW035 OVC100 20/20 A3002 NOSIG=
201106170300 METAR MROC 170300Z 00000KT 9999 FEW035 OVC100 20/20 A3003 NOSIG=
201106170400 METAR MROC 170400Z 00000KT 9999 BCFG FEW035 BKN100 20/20 A3005 NOSIG=
201106170500 METAR MROC 170500Z 00000KT 9999 FEW035 BKN100 20/20 A3005 NOSIG=
201106170600 METAR MROC 170600Z 00000KT 9999 FEW035 BKN100 20/20 A3004 NOSIG=
201106170700 METAR MROC 170700Z 00000KT 9999 FEW035 BKN100 20/20 A3002 NOSIG=
201106170800 METAR MROC 170800Z 11004KT CAVOK 19/19 A3000 RMK SCT120 SCT250 NOSIG=
201106170900 METAR MROC 170900Z 08003KT CAVOK 20/20 A2998 RMK SCT120 NOSIG=
201106171000 METAR MROC 171000Z 07004KT CAVOK 20/20 A2997 RMK SCT120 NOSIG=
201106171050 METAR MROC 171050Z 08006KT CAVOK 19/19 A2996 RMK SCT120 NOSIG=
201106171100 METAR MROC 171100Z 08006KT CAVOK 19/19 A2996 RMK SCT120 NOSIG=
201106171200 METAR MROC 171200Z 05004KT CAVOK 20/19 A2996 RMK SCT120 SCT250 NOSIG=
201106171300 METAR MROC 171300Z 13004KT CAVOK 21/20 A3000 RMK SCT120 SCT250 NOSIG=
201106171400 METAR MROC 171400Z 00000KT CAVOK 23/19 A3001 RMK SCT120 BECMG 24007KT=
201106171500 METAR MROC 171500Z 00000KT CAVOK 26/20 A3003 RMK FEW120 SCT250 BECMG 24007KT=
201106171600 METAR MROC 171600Z 25006KT 9999 FEW040 BKN250 27/20 A3003 NOSIG=
201106171700 METAR MROC 171700Z 24008KT 9999 SCT035 BKN250 27/21 A3003 NOSIG=
201106171800 METAR MROC 171800Z 24009KT 9999 SCT025TCU BKN035 25/22 A3002 BECMG 8000 -TSRA=
201106171900 METAR MROC 171900Z 23006KT 9999 -RA FEW020TCU SCT035 BKN120 24/21 A3001 RMK RN DST NE E NOSIG=
201106172000 METAR MROC 172000Z 23005KT 9999 -RA FEW015 SCT035 BKN100 23/21 A3000 RMK RN DST NE E NOSIG=
201106172100 METAR MROC 172100Z 30003KT 9999 FEW005 SCT020 BKN120 24/22 A2998 RMK BECMG 8000 -RA VCFG=
201106172200 METAR MROC 172200Z VRB02KT 9999 VCSH SCT015TCU BKN120 25/21 A2997 RMK BECMG 6000 RA=
201106172300 METAR MROC 172300Z 22004KT 9999 VCSH SCT010TCU BKN100 24/22 A2998 RMK VIS QUAD E 5KM BECMG 5000 SHRA=
201106180000 METAR MROC 180000Z VRB02KT 5000 FEW015TCU SCT020 BKN100 21/20 A2999 RMK VIS QUAD W UNL NOSIG=
201106180100 METAR MROC 180100Z 07003KT 9999 -RA SCT020 BKN100 21/21 A3002 NOSIG=
201106180200 METAR MROC 180200Z 00000KT 9999 SCT025 BKN120 21/21 A3004 NOSIG=
201106180300 METAR MROC 180300Z 00000KT 9999 -RA OVC120 21/21 A3006 NOSIG=
201106180400 METAR MROC 180400Z 00000KT 9999 -RA OVC120 21/21 A3007 NOSIG=
201106180500 METAR MROC 180500Z 00000KT CAVOK 21/21 A3007 RMK BKN120 LGT HZ ARND NOSIG=
201106180600 METAR MROC 180600Z 00000KT CAVOK 20/20 A3005 RMK BKN120 HZY NOSIG=
201106180700 METAR MROC 180700Z 00000KT CAVOK 20/20 A3003 RMK BKN120 HZY NOSIG=
201106180800 METAR MROC 180800Z 00000KT CAVOK 20/20 A3002 RMK BKN120 NOSIG=
201106180900 METAR MROC 180900Z 00000KT CAVOK 19/19 A3002 RMK BKN120 NOSIG=
201106181000 METAR MROC 181000Z 00000KT CAVOK 19/19 A3002 RMK BKN120 NOSIG=
201106181100 METAR MROC 181100Z 08004KT CAVOK 19/19 A3002 RMK SCT120 NOSIG=
201106181200 METAR MROC 181200Z 08004KT CAVOK 19/19 A3004 RMK SCT120 CB DST SSW NOSIG=
201106181300 METAR MROC 181300Z 00000KT CAVOK 22/20 A3006 RMK SCT120 BECMG 24006KT=
201106181400 METAR MROC 181400Z 00000KT CAVOK 23/20 A3007 RMK SCT120 BECMG 24006KT=
201106181500 METAR MROC 181500Z VRB02KT 9999 SCT035 BKN150 24/21 A3008 RMK HZ LGT ARND BECMG 24006KT=
201106181600 METAR MROC 181600Z 23008KT 9999 SCT030 SCT250 26/21 A3008 RMK HZ LGT ARND NOSIG=
201106181700 METAR MROC 181700Z 24008KT 9999 FEW025 SCT030TCU 26/22 A3006 RMK HZ LGT ARND NOSIG=
201106181800 METAR MROC 181800Z 25008KT 9999 FEW025 SCT030TCU 27/23 A3004 RMK HZ LGT ARND BECMG 7000 RA=
201106181900 METAR MROC 181900Z 23009KT 6000 TSRA SCT010CB 25/22 A3002 RMK BECMG 2000 +TSRA=
201106182000 METAR MROC 182000Z VRB02KT 5000 2000SW RA FEW020TCU BKN080 22/22 A3002 NOSIG=
201106182100 METAR MROC 182100Z VRB02KT 7000 -RA BR FEW009 SCT015TCU SCT035 BKN080 21/21 A3003 RMK VIS 5KM W NOSIG=
201106182200 METAR MROC 182200Z 29006KT 7000 -RA BCFG FEW009 SCT025 BKN100 21/21 A3004 RMK VIS 5KM SW/W/NW BECMG 5000 RA=
201106182300 METAR MROC 182300Z 00000KT 2000 -RA BR BCFG FEW006 SCT010 BKN100 20/20 A3003 RMK VIS 1KM S/NE BECMG 0600 FG=
201106182355 METAR MROC 190000Z 00000KT 5000 2000SW BR BCFG FEW009 BKN140 20/20 A3005 RMK VIS 2KM NW/N FEW040 NOSIG=
201106190000 METAR MROC 190000Z 00000KT 5000 2000SW BR BCFG FEW009 BKN140 20/20 A3005 RMK VIS 2KM NW/N FEW040 NOSIG=
201106190100 METAR MROC 190100Z 00000KT 9999 VCFG FEW035 BKN200 20/20 A3006 RMK FEW120 NOSIG=
201106190200 METAR MROC 190200Z 00000KT CAVOK 20/20 A3007 RMK FEW080 BKN120 NOSIG=
201106190300 METAR MROC 190300Z 08004KT 9999 FEW045 BKN100 21/21 A3008 NOSIG=
201106190400 METAR MROC 190400Z 00000KT 9999 -RA OVC090 20/20 A3007 BECMG CAVOK=
201106190500 METAR MROC 190500Z 00000KT CAVOK 20/20 A3005 RMK SCT120 BKN250 NOSIG=
201106190600 METAR MROC 190600Z 11004KT CAVOK 20/20 A3004 RMK BKN250 NOSIG=
201106190700 METAR MROC 190700Z 11003KT CAVOK 19/19 A3002 RMK BKN250 NOSIG=
201106190800 METAR MROC 190800Z 09003KT CAVOK 19/18 A3001 RMK BKN250 NOSIG=
201106190900 METAR MROC 190900Z 07005KT CAVOK 18/18 A3002 RMK BKN250 NOSIG=
201106191000 METAR MROC 191000Z 08006KT CAVOK 18/18 A3002 RMK BKN250 NOSIG=
201106191100 METAR MROC 191100Z 08005KT CAVOK 19/18 A3001 RMK SCT250 CB DST SW NOSIG=
201106191200 METAR MROC 191200Z 09005KT CAVOK 20/19 A3002 RMK FEW250 CB DST SW NOSIG=
201106191300 METAR MROC 191300Z 06007KT CAVOK 22/20 A3003 RMK FEW300 CB DST SSW NOSIG=
201106191400 METAR MROC 191400Z 12006KT CAVOK 24/19 A3004 RMK FEW110 FEW300 NOSIG=
201106191500 METAR MROC 191500Z 12008KT CAVOK 26/19 A3004 RMK FEW300 NOSIG=
201106191600 METAR MROC 191600Z 11009KT 060V120 9999 FEW045 28/19 A3003 RMK FEW300 NOSIG=
201106191700 METAR MROC 191700Z 13008KT 9999 FEW035 SCT250 29/19 A3003 RMK FEW045 BECMG 24006KT=
201106191800 METAR MROC 191800Z 15006KT 9999 FEW035 SCT045 BKN250 29/19 A3002 BECMG 24006KT=
201106191900 METAR MROC 191900Z 27008KT 9999 FEW035 SCT070 BKN250 27/23 A3000 RMK TCU DST W/NW BECMG VCSH=
201106192000 METAR MROC 192000Z 25011KT 9999 VCSH FEW015TCU SCT035 BKN250 24/23 A2999 RMK VIS 8KM NW BECMG 7000 SHRA=
201106192100 METAR MROC 192100Z 24008KT 9999 FEW015 SCT030 BKN250 24/23 A2999 RMK HZ ARND NOSIG=
201106192200 METAR MROC 192200Z 33003KT 9999 FEW010 SCT030 BKN250 23/19 A2998 RMK RA E HZ ARND NOSIG=
201106192300 METAR MROC 192300Z 00000KT 9999 3000SW BR FEW002 SCT010 BKN030 23/21 A2999 RMK HZ ARND NOSIG=
201106200000 METAR MROC 200000Z 27004KT 9999 2000SW BR FEW001 SCT010 BKN030 22/22 A3001 RMK HZ ARND BECMG 3000 BR=
201106200100 METAR MROC 200100Z 00000KT 9999 3000SW BR FEW002 SCT015 BKN030 22/22 A3003 RMK HZ ARND BECMG 3000 BR=
201106200200 METAR MROC 200200Z 00000KT 9999 3000SW BR FEW002 SCT015 BKN030 21/21 A3004 RMK HZ ARND BECMG 3000 BR=
201106200300 METAR MROC 200300Z 00000KT 8000 VCFG FEW002 SCT030 21/21 A3004 NOSIG=
201106200400 METAR MROC 200400Z VRB02KT 8000 VCFG FEW002 SCT030 21/21 A3005 NOSIG=
201106200500 METAR MROC 200500Z 04003KT CAVOK 21/21 A3005 RMK BKN100 NOSIG=
201106200600 METAR MROC 200600Z 03003KT CAVOK 21/21 A3002 RMK BKN100 NOSIG=
201106200700 METAR MROC 200700Z 08004KT CAVOK 21/21 A2999 RMK BKN100 NOSIG=
201106200800 METAR MROC 200800Z 00000KT CAVOK 21/20 A2998 RMK SCT150 NOSIG=
201106200900 METAR MROC 200900Z 10005KT CAVOK 20/20 A2997 RMK SCT200 NOSIG=
201106201000 METAR MROC 201000Z 03004KT CAVOK 20/20 A2997 RMK SCT060 BKN200 NOSIG=
201106201100 METAR MROC 201100Z 07004KT 9999 FEW035 SCT080 BKN150 19/19 A2997 NOSIG=
201106201200 METAR MROC 201200Z 08003KT 9999 FEW045 SCT100 BKN200 21/19 A2998 RMK CB DST S HZ LGT ARND NOSIG=
201106201300 METAR MROC 201300Z 13003KT 9999 FEW040 SCT120 BKN250 23/20 A3000 NOSIG=
201106201400 METAR MROC 201400Z 26007KT 9999 FEW040 SCT120 BKN250 23/21 A3003 NOSIG=
201106201500 METAR MROC 201500Z 25007KT 9999 FEW040 SCT120 BKN250 25/21 A3003 NOSIG=
201106201600 METAR MROC 201600Z 25005KT 9999 FEW040 SCT120 25/21 A3002 NOSIG=
201106201700 METAR MROC 201700Z 25009KT 9999 SCT040 SCT120 26/23 A3002 NOSIG=
201106201800 METAR MROC 201800Z 24008KT 9999 SCT040 SCT100 25/22 A2999 NOSIG=
201106201900 METAR MROC 201900Z 24007KT 9999 VCSH FEW010TCU BKN030 24/22 A2997 NOSIG=
201106202000 METAR MROC 202000Z 26007KT 9999 VCSH FEW010TCU BKN030 24/22 A2997 BECMG 5000 RA=
201106202100 METAR MROC 202100Z 26006KT 9999 FEW007 SCT025 BKN130 24/22 A2995 RMK CB TS RASH DST E BECMG -RA=
201106202200 METAR MROC 202200Z 00000KT 9999 FEW010 SCT025 BKN250 23/21 A2993 RMK PCPN DST E NOSIG=
201106202300 METAR MROC 202300Z 00000KT 9999 SCT030 BKN130 23/21 A2994 RMK PCPN DST NE NOSIG=
201106210000 METAR MROC 210000Z 00000KT 9999 -RADZ SCT030 BKN130 22/22 A2997 BECMG 8000 -RA=
201106210100 METAR MROC 210100Z 00000KT 9999 FEW035 SCT130 BKN250 22/20 A2998 RMK=
201106210200 METAR MROC 210200Z 10006KT CAVOK 23/20 A2999 RMK SCT130 BKN250 LTNG DST S NOSIG=
201106210300 METAR MROC 210300Z 09004KT CAVOK 22/21 A3002 RMK BKN070 NOSIG=
201106210400 METAR MROC 210400Z 00000KT 9999 2000SW BCFG FEW001 BKN070 21/21 A3002 NOSIG=
201106210500 METAR MROC 210500Z 00000KT 9999 4000SW BCFG FEW060 BKN250 20/20 A3000 NOSIG=
201106210600 METAR MROC 210600Z VRB02KT 9999 BCFG FEW050 SCT250 21/19 A3000 RMK VIS 6KM SW NOSIG=
201106210700 METAR MROC 210700Z 01003KT 9999 BCFG FEW045 20/19 A2998 RMK VIS 5KM SW FEW250 NOSIG=
201106210800 METAR MROC 210800Z VRB02KT 9999 BCFG FEW040 BKN070 21/20 A2998 RMK VIS 6KM SW NOSIG=
201106210900 METAR MROC 210900Z VRB02KT 9999 VCFG SCT100 20/19 A2997 RMK FEW250 NOSIG=
201106211000 METAR MROC 211000Z 00000KT CAVOK 19/19 A2997 RMK FEW130 NOSIG=
201106211100 METAR MROC 211100Z 04004KT CAVOK 19/19 A2996 RMK FEW120 FEW250 NOSIG=
201106211200 METAR MROC 211200Z 07004KT CAVOK 19/19 A2998 RMK FEW120 SCT180 HZ SW NOSIG=
201106211300 METAR MROC 211300Z 00000KT CAVOK 21/20 A3000 RMK SCT120 BKN250 CB DST SSW SW NOSIG=
201106211400 METAR MROC 211400Z 13004KT CAVOK 25/20 A3005 RMK FEW120 SCT250 VEL MAX VTO 12KT BECMG 24007KT=
201106211500 METAR MROC 211500Z 13009KT CAVOK 27/19 A3000 RMK FEW120 BKN250 CB DST SSW BECMG 24007KT=
201106211600 METAR MROC 211600Z 12002KT CAVOK 28/19 A2999 RMK FEW140 BKN250 BECMG 24007KT=
201106211700 METAR MROC 211700Z 26011KT 9999 SCT025 SCT250 26/22 A2999 NOSIG=
201106211800 METAR MROC 211800Z 27008KT 9999 FEW015 SCT030 BKN250 26/22 A2999 RMK TCU DST N NE PCPN DST E BECMG 8000 VCSH=
201106211900 METAR MROC 211900Z 24006KT 9999 -RA VCSH FEW008 FEW015TCU SCT025 24/24 A2997 RMK VIS N NE 8KMS BECMG 5000 -SHRA=
201106212000 METAR MROC 212000Z 26006KT 5000 BR SCT004 SCT030 BKN100 22/22 A2996 RETSRA RMK VIS E UNL NOSIG=
201106212001 METAR MROC 212001Z 26006KT 5000 BR SCT004 SCT030 BKN100 22/22 A2996 RETSRA RMK VIS E UNL NOSIG=
201106212100 METAR MROC 212100Z 00000KT 5000 BR SCT003 BKN080 23/23 A2996 RMK FEW015 NOSIG=
201106212200 METAR MROC 212200Z 25006KT 5000 BR FEW003 SCT008 BKN080 23/23 A2996 RMK VIS 7000E DZ DST NE SW W NOSIG=
201106212300 METAR MROC 212300Z 26008KT 5000 BR FEW003 BKN008 21/21 A2998 NOSIG=
201106220000 METAR MROC 220000Z 26006KT 2000 1200SW R07/0800 BR FEW002 BKN006 21/21 A2999 NOSIG=
201106220100 METAR MROC 220100Z 30004KT 9999 -DZ FEW006 SCT015TCU BKN080 20/20 A3001 RMK LTNG SW NW N NOSIG=
201106220200 METAR MROC 220200Z 00000KT 9999 -TSRA FEW008 FEW015CB BKN080 21/21 A3002 NOSIG=
201106220300 METAR MROC 220300Z 000000KT 9999 FEW008 OVC100 21/21 A3005 RERA NOSIG=
201106220400 METAR MROC 220400Z 00000KT 9999 FEW030 OVC100 21/21 A3005 NOSIG=
201106220500 METAR MROC 220500Z 00000KT 9999 FEW030 BKN100 20/20 A3002 NOSIG=
201106220600 METAR MROC 220600Z 12004KT CAVOK 20/20 A2999 RMK SCT120 SCT250 NOSIG=
201106220700 METAR MROC 220700Z 00000KT CAVOK 20/20 A2999 RMK SCT120 SCT250 NOSIG=
201106220800 METAR MROC 220800Z 00000KT CAVOK 19/19 A2998 RMK FEW120 SCT250 NOSIG=
201106220900 METAR MROC 220900Z 13003KT 0300 FG VV/// 19/19 A2999 RMK R07/0100 BECMG 00000 5000 BR=
201106221000 METAR MROC 221000Z 06005KT CAVOK 19/19 A2999 RMK FEW120 NOSIG=
201106221100 METAR MROC 221100Z 08006KT CAVOK 19/19 A2999 RMK FEW120 NOSIG=
201106221200 METAR MROC 221200Z 06007KT CAVOK 20/19 A3000 RMK FEW120 BKN250 NOSIG=
201106221300 METAR MROC 221300Z 10005KT CAVOK 23/20 A3002 RMK SCT250 NOSIG=
201106221400 METAR MROC 221400Z 11005KT CAVOK 26/20 A3003 RMK FEW250 NOSIG=
201106221500 METAR MROC 221500Z 12005KT CAVOK 27/20 A3003 RMK FEW250 TCU DST SSW BECMG 24008KT=
201106221600 METAR MROC 221600Z 24011KT 9999 FEW040 SCT250 28/21 A3003 RMK TCU DST SSW NOSIG=
201106221700 METAR MROC 221700Z 25009KT 9999 SCT040 27/22 A3002 RMK TCU DST SW NOSIG=
201106221800 METAR MROC 221800Z 25006KT 9999 FEW020CB SCT030 28/22 A3000 RMK RN=
201106221900 METAR MROC 221900Z 10006KT 9999 3000W RA SCT020TCU BKN090 22/22 A2999 RMK BECMG 24005KT 9999=
201106222000 METAR MROC 222000Z 00000KT 9999 SCT025 BKN100 26/23 A2997 RERA NOSIG=
201106222100 METAR MROC 222100Z 24009KT 9999 4500SW -RA FEW020TCU SCT030 BKN100 25/24 A2996 RMK BECMG 6000 SHRA=
201106222200 METAR MROC 222200Z 26008KT 2000 DZ BR FEW001 SCT005 BKN015 ///// A//// RMK BECMG 0500 BKN001=
201106222300 METAR MROC 222300Z 00000KT 5000 BR FEW002 SCT035 BKN100 24/23 A2995 NOSIG=
201106230000 METAR MROC 230000Z 24008KT 0500 FG SCT002 BKN005 22/22 A2997 RMK BECMG 0200 VV///=
201106230100 METAR MROC 230100Z 25006KT 1200 BR FEW002 BKN010 21/21 A2999 NOSIG=
201106230200 METAR MROC 230200Z 00000KT 4000 1800SW BR SCT002 SCT030 BKN250 21/21 A3002 RMK VIS N NE UNLTD LTNG DST S SSW BECMG 6000=
201106230300 METAR MROC 230300Z 00000KT 4000 1800SW BR SCT002 SCT030 BKN250 21/21 A3002 RMK VIS N NE UNLTD LTNG DST S SSW BECMG 6000=
201106230400 METAR MROC 230400Z 00000KT 9999 4000SW BCFG FEW002 BKN250 21/21 A3003 RMK LTNG DST S SW NOSIG=
201106230500 METAR MROC 230500Z 21003KT 9999 BCFG BKN250 21/21 A3001 RMK VIS S SW 5KMS LTNG DST S SW WSW NOSIG=
201106230600 METAR MROC 230600Z 00000KT 5000 2000SW BR FEW002 SCT030 BKN250 21/21 A3003 RMK VIS SE UNL LTNG DST S NOSIG=
201106230700 METAR MROC 230700Z 00000KT 9999 FEW010 SCT120 BKN250 21/21 A3001 RMK=
201106230800 METAR MROC 230800Z 00000KT 9999 SCT020 BKN120 21/21 A2999 RMK HZY NOSIG=
201106230900 METAR MROC 230900Z 00000KT 9999 SCT030 BKN120 21/21 A3000 RMK HZY NOSIG=
201106231000 METAR MROC 231000Z 00000KT 9999 FEW030 BKN120 20/20 A2999 RMK HZY NOSIG=
201106231100 METAR MROC 231100Z 00000KT 9999 FEW030 BKN250 20/20 A2999 RMK HZY NOSIG=
201106231200 METAR MROC 231200Z 10004KT CAVOK 20/19 A2999 RMK BKN250 HZY CB DST S NOSIG=
201106231300 METAR MROC 231300Z 00000KT 9999 SCT035 BKN250 22/20 A3001 RMK HZ LGT ARND BECMG 24006KT=
201106231400 METAR MROC 231400Z 00000KT 9999 FEW025 SCT045 BKN250 23/21 A3001 RMK HZ LGT SW BECMG 24006KT=
201106231500 METAR MROC 231500Z VRB02KT 9999 FEW035 SCT045 BKN250 26/21 A3002 RMK HZ LGT SW NOSIG=
201106231600 METAR MROC 231600Z 00000KT 9999 FEW045 SCT150 BKN250 27/21 A3001 NOSIG=
201106231700 METAR MROC 231700Z VRB02KT 9999 FEW030 SCT100 BKN250 29/20 A2999 RMK TCU DST S NOSIG=
201106231800 METAR MROC 231800Z 26007KT 9999 DZ FEW020TCU SCT035 BKN200 27/21 A2997 RMK BECMG 8000 VCSH=
201106231900 METAR MROC 231900Z 31010G20KT 5000 2000SW -TSRA SCT015CB BKN030 22/21 A2996 RMK BECMG 2000 +TSRA=
201106232000 METAR MROC 232000Z 02003KT 9999 FEW025 SCT060 BKN150 23/21 A2993 RETSRA NOSIG=
201106232100 METAR MROC 232100Z 23009KT 9999 FEW040 BKN140 23/22 A2994 RMK FEW060 TS DST QUAD W NOSIG=
201106232200 METAR MROC 232200Z 27003KT 9999 3500N BR FEW015 SCT040 BKN130 21/21 A2994 RMK RN DST NW NOSIG=
201106232300 METAR MROC 232300Z 23004KT 5000 2300SW BR FEW003 SCT080 BKN140 21/21 A2997 RMK FEW010 FEW035 BECMG 3500 BR=
201106232315 METAR MROC 232315Z 26004KT 7000 2000N -RA BR FEW005 BKN080 OVC170 21/21 A2998 RMK VIS 2KM NW NOSIG=
201106240000 METAR MROC 240000Z 25004KT 7000 2000N -RA BR FEW009 BKN150 21/21 A2999 RMK FEW025 NOSIG=
201106240100 METAR MROC 240100Z 00000KT 9000 -RA FEW010 BKN035 21/21 A2999 RMK VIS 5KM N NOSIG=
201106240200 METAR MROC 240200Z 00000KT 9999 -RA FEW009 BKN040 21/21 A3001 NOSIG=
201106240300 METAR MROC 240300Z 00000KT 9999 SCT030 BKN080 21/21 A3002 NOSIG=
201106240400 METAR MROC 240400Z 00000KT 9999 FEW015 SCT030 BKN080 21/21 A3002 NOSIG=
201106240500 METAR MROC 240500Z 00000KT 9999 SCT025 BKN100 21/21 A3001 RMK BCFG SW W NOSIG=
201106240600 METAR MROC 240600Z 00000KT 9999 4000SW BR FEW005 SCT025 SCT100 20/20 A2998 NOSIG=
201106240700 METAR MROC 240700Z 00000KT 9999 FEW008 SCT025 SCT100 20/20 A2995 RMK BCFG SW W NOSIG=
201106240800 METAR MROC 240800Z 00000KT 9999 3000SW BR FEW004 SCT025 SCT100 20/20 A2995 NOSIG=
201106240900 METAR MROC 240900Z 22004KT 5000 BR BKN008 SCT100 20/20 A2996 BECMG 8000 BCFG=
201106241000 METAR MROC 241000Z 27003KT 9999 SCT012 BKN100 20/20 A2997 NOSIG=
201106241100 METAR MROC 241100Z 27004KT 9999 SCT015 BKN100 20/20 A2997 NOSIG=
201106241200 METAR MROC 241200Z 27003KT 9999 BKN020 SCT080 20/20 A2998 RMK DZ DST NE NOSIG=
201106241300 METAR MROC 241300Z 00000KT 9999 -RA FEW020 OVC080 21/21 A2999 RMK FEW040 VIS 7KM NE NOSIG=
201106241400 METAR MROC 241400Z VRB02KT 9999 FEW020 OVC080 21/20 A3001 RMK FEW050 DZ DST E BECMG 24005KT=
201106241500 METAR MROC 241500Z 00000KT 9999 FEW020 BKN120 22/20 A3003 RMK FEW070 BECMG 23006KT=
201106241600 METAR MROC 241600Z 23003KT 9999 FEW020 BKN120 24/19 A3001 RMK FEW030 NOSIG=
201106241700 METAR MROC 241700Z 23003KT 9999 FEW020 BKN130 25/20 A3001 RMK FEW030 FEW080 NOSIG=
201106241800 METAR MROC 241800Z 23007KT 9999 FEW015 BKN130 25/21 A2998 RMK FEW035 NOSIG=
201106241900 METAR MROC 241900Z 23007KT 9999 FEW015 BKN160 24/22 A2996 RMK FEW030 DZ DST NE NOSIG=
201106242000 METAR MROC 242000Z 23006KT 9999 FEW015 SCT025 23/22 A2994 RMK SCT150 DZ DST NE NOSIG=
201106242100 METAR MROC 242100Z 23007KT 9999 FEW015 BKN030 23/22 A2992 NOSIG=
201106242200 METAR MROC 242200Z 24008KT 9999 -RA FEW008 BKN030 22/21 A2993 BECMG 5000 RA=
201106242300 METAR MROC 242300Z 22007KT 5000 -RA BR FEW002 SCT010 BKN030 21/21 A2995 BECMG 3000 -RA BR=
201106250000 METAR MROC 250000Z 23006KT 0500 FG VV/// 20/20 A2996 NOSIG=
201106250100 METAR MROC 250100Z 22002KT 3000 BR FEW002 SCT010 BKN030 20/20 A3000 NOSIG=
201106250200 METAR MROC 250200Z 00000KT 4000 BR FEW002 SCT008 BKN030 20/20 A3001 NOSIG=
201106250300 METAR MROC 250300Z 00000KT 9999 BCFG FEW002 SCT010 BKN030 20/20 A3002 NOSIG=
201106250400 METAR MROC 250400Z 00000KT 9999 BCFG FEW002 SCT015 BKN050 20/20 A3003 NOSIG=
201106250500 METAR MROC 250500Z 00000KT 9999 BCFG FEW002 SCT015 BKN050 20/20 A3002 NOSIG=
201106250600 METAR MROC 250600Z 00000KT 9999 FEW005 SCT010 BKN030 20/20 A3001 NOSIG=
201106250700 METAR MROC 250700Z VRB02KT 9999 FEW005 SCT010 BKN030 20/20 A3000 NOSIG=
201106250800 METAR MROC 250800Z 24003KT 5000 BR FEW002 BKN015 20/20 A2999 NOSIG=
201106250900 METAR MROC 250900Z 24005KT 3000 -RA BR SCT002 BKN010 20/20 A2999 NOSIG=
201106251000 METAR MROC 251000Z 28004KT 5000 -RA BR SCT002 BKN010 20/20 A3000 NOSIG=
201106251100 METAR MROC 251100Z 05008KT 9999 -RA SCT035 BKN120 20/20 A2999 NOSIG=
201106251200 METAR MROC 251200Z 11005KT CAVOK 20/20 A2999 RERA RMK SCT100 BKN200 NOSIG=
201106251300 METAR MROC 251300Z 09005KT CAVOK 21/21 A3000 RMK BKN100 NOSIG=
201106251400 METAR MROC 251400Z 00000KT CAVOK 22/22 A3001 RMK BKN100 BECMG 22005KT=
201106251500 METAR MROC 251500Z 24005KT CAVOK 26/19 A3001 RMK SCT110 BKN250 NOSIG=
201106251600 METAR MROC 251600Z 22006KT CAVOK 25/21 A3001 RMK FEW120 BKN250 NOSIG=
201106251700 METAR MROC 251700Z 24007KT 9999 FEW040 SCT120 BKN250 25/21 A3001 NOSIG=
201106251800 METAR MROC 251800Z 23008KT 9999 FEW040 SCT120 BKN250 25/22 A3000 NOSIG=
201106251900 METAR MROC 251900Z 24007KT 9999 FEW040 BKN120 26/21 A2997 NOSIG=
201106252000 METAR MROC 252000Z 22006KT 9999 SCT030 BKN120 26/21 A2997 NOSIG=
201106252100 METAR MROC 252100Z 23010KT 9999 FEW025TCU SCT035 BKN120 26/22 A2995 RMK PCPN DST SE E BECMG 8000 VCSH=
201106252200 METAR MROC 252200Z 23011KT 9999 FEW025TCU SCT035 BKN120 24/21 A2995 BECMG 8000 VCSH=
201106252300 METAR MROC 252300Z 25008KT 9999 VCFG FEW002 SCT005 BKN012 22/22 A2997 RMK VIS SW 8KMS PCPN DST WNW NW ESE BECMG 5000 -RA BR=
201106260000 METAR MROC 260000Z 24006KT 5000 DZ BR FEW002 SCT005 BKN100 21/21 A3000 RMK VIS E SE 8KMS BECMG 1500 RA BR=
201106260100 METAR MROC 260100Z 26004KT 8000 DZ VCFG FEW003 SCT007 BKN012 21/21 A3002 RMK VIS E SE UNL BECMG 5000 -RA BR=
201106260200 METAR MROC 260200Z 23005KT 9999 -RA VCFG FEW004 SCT008 BKN120 21/21 A3003 RMK VIS SW WSW 8KMS BECMG 7000 BCFG=
201106260300 METAR MROC 260300Z 27004KT 9999 VCFG FEW003 SCT025 BKN080 21/21 A3004 RMK FEW008 VIS 8KM SW BECMG BKN020=
201106260400 METAR MROC 260400Z 00000KT 9999 FEW003 BKN025 21/21 A3005 RMK FEW009 NOSIG=
201106260500 METAR MROC 260500Z 00000KT 9999 FEW004 BKN025 21/21 A3004 RMK FEW012 NOSIG=
201106260600 METAR MROC 260600Z 00000KT 9999 VCFG SCT005 BKN020 21/21 A3003 RMK VIS 8KM SW NOSIG=
201106260700 METAR MROC 260700Z 00000KT 9999 BCFG FEW005 BKN020 21/21 A3002 RMK VIS 6KM SW NOSIG=
201106260800 METAR MROC 260800Z 00000KT 9999 BCFG FEW010 BKN140 20/20 A3000 RMK FEW020 VIS 6KM SW NOSIG=
201106260900 METAR MROC 260900Z VRB02KT 9999 BCFG FEW009 SCT070 BKN200 20/20 A3000 RMK FEW040 VIS 7KM SW LTNG DST NE NOSIG=
201106261000 METAR MROC 261000Z 07005KT 9999 FEW035 OVC200 21/21 A2999 RMK FEW130 NOSIG=
201106261100 METAR MROC 261100Z 09006KT 9999 -RA FEW070 BKN250 21/20 A2997 NOSIG=
201106261200 METAR MROC 261200Z VRB02KT 9999 4000S BCFG BKN120 21/20 A2998 RMK VIS 6KM SW NOSIG=
201106261300 METAR MROC 261300Z 00000KT 9999 1500S BCFG 20/20 A3000 RMK NIEBLA DISIPANDOSE BECMG CAVOK=
201106261400 METAR MROC 261400Z 00000KT CAVOK 21/21 A3002 RMK BKN120 NOSIG=
201106261500 METAR MROC 261500Z 11008KT CAVOK 25/20 A3002 RMK BKN120 VEL MAX VTO 12KT NOSIG=
201106261600 METAR MROC 261600Z 11007KT CAVOK 25/20 A3003 RMK OVC120 BECMG 24006KT=
201106261700 METAR MROC 261700Z 11005KT CAVOK 25/20 A3002 RMK OVC120 BECMG 24006KT=
201106261800 METAR MROC 261800Z 13007KT CAVOK 26/20 A3000 RMK OVC120 BECMG 24006KT=
201106261900 METAR MROC 261900Z 16002KT 9999 FEW025 BKN140 25/22 A2996 BECMG 24006KT=
201106262000 METAR MROC 262000Z 24006KT 9999 FEW030 BKN140 23/22 A2997 NOSIG=
201106262100 METAR MROC 262100Z 24005KT 9999 FEW025 BKN120 24/22 A2996 NOSIG=
201106262200 METAR MROC 262200Z 23005KT CAVOK 24/23 A2994 RMK OVC120 NOSIG=
201106262300 METAR MROC 262300Z 24005KT 9999 FEW012 BKN120 23/23 A2995 NOSIG=
201106270000 METAR MROC 270000Z 24005KT 9999 SCT012 BKN120 21/21 A2996 NOSIG=
201106270100 METAR MROC 270100Z 00000KT 9999 FEW012 SCT025 BKN100 21/21 A2998 NOSIG=
201106270200 METAR MROC 270200Z 08003KT 9999 FEW030 SCT250 21/21 A2998 NOSIG=
201106270300 METAR MROC 270300Z 07004KT CAVOK 21/19 A2999 RMK SCT250 NOSIG=
201106270400 METAR MROC 270400Z 07005KT CAVOK 22/18 A2999 RMK SCT250 NOSIG=
201106270500 METAR MROC 270500Z 07002KT CAVOK 21/18 A2999 RMK SCT250 NOSIG=
201106270600 METAR MROC 270600Z 07003KT CAVOK 21/18 A2998 RMK SCT250 NOSIG=
201106270700 METAR MROC 270700Z 09004KT CAVOK 22/18 A2997 RMK SCT250 NOSIG=
201106270800 METAR MROC 270800Z 09009KT CAVOK 21/18 A2996 RMK SCT250 NOSIG=
201106270900 METAR MROC 270900Z 09006KT CAVOK 21/18 A2996 NOSIG=
201106271000 METAR MROC 271000Z 09005KT CAVOK 21/18 A2996 NOSIG=
201106271100 METAR MROC 271100Z 00000KT CAVOK 21/18 A2997 RMK FEW120 SCT250 NOSIG=
201106271200 METAR MROC 271200Z 04003KT CAVOK 21/18 A2997 RMK SCT120 FEW250 NOSIG=
201106271300 METAR MROC 271300Z 00000KT CAVOK 23/18 A3001 RMK FEW120 NOSIG=
201106271400 METAR MROC 271400Z 09004KT CAVOK 25/19 A3000 RMK FEW250 NOSIG=
201106271500 METAR MROC 271500Z 20006KT CAVOK 27/20 A3000 RMK FEW250 NOSIG=
201106271600 METAR MROC 271600Z 24009KT CAVOK 27/21 A3000 RMK FEW120 FEW250 NOSIG=
201106271700 METAR MROC 271700Z 24008KT 9999 FEW040 SCT250 27/22 A3000 NOSIG=
201106271800 METAR MROC 271800Z 23009KT 9999 FEW020TCU SCT035 27/23 A2999 NOSIG=
201106271900 METAR MROC 271900Z 23010KT 9999 SCT020TCU SCT030 27/23 A2998 RMK DZ DST NE NOSIG=
201106272000 METAR MROC 272000Z 22011KT 9999 FEW015CB SCT020TCU SCT030 26/23 A2996 RMK RN DST NE E BECMG 8000 VCTS=
201106272100 METAR MROC 272100Z 21009KT 9999 SCT020CB SCT030 BKN250 25/22 A2995 RMK RA DST QUAD N NOSIG=
201106272200 METAR MROC 272200Z 23006KT 9999 SCT035 BKN250 23/22 A2995 RMK RA DST W NW N NE BECMG 8000 VCSH=
201106272300 METAR MROC 272300Z 24007KT 9999 4000NW BR FEW020 SCT035 BKN200 23/23 A2997 RMK BECMG 3000 BR=
201106280000 METAR MROC 280000Z 26006KT 9999 4000NW BR SCT010 BKN020 22/22 A2998 RMK BECMG 5000 -TSRA=
201106280100 METAR MROC 280100Z 00000KT 9999 SCT005 BKN015 22/22 A3000 RMK LTNG SW NOSIG=
201106280200 METAR MROC 280200Z 27004KT 9000 4000NW DZ BR FEW004 SCT010 BKN020 22/22 A3000 NOSIG=
201106280300 METAR MROC 280300Z 00000KT 8000 VCFG FEW003 SCT008 BKN025 21/21 A3001 RMK VIS SE E ENE UNL NOSIG=
201106280400 METAR MROC 280400Z 00000KT 9999 BCFG FEW004 SCT025 21/21 A3001 RMK VIS S SSW 7KMS NOSIG=
201106280500 METAR MROC 280500Z 00000KT 9999 FEW025 BKN250 21/21 A3001 NOSIG=
201106280600 METAR MROC 280600Z 00000KT 9999 FEW025 BKN250 20/20 A3000 NOSIG=
201106280700 METAR MROC 280700Z 06005KT CAVOK 20/20 A2997 RMK BKN250 NOSIG=
201106280800 METAR MROC 280800Z 09007KT CAVOK 21/19 A2995 RMK BKN250 NOSIG=
201106280900 METAR MROC 280900Z 13011KT CAVOK 23/18 A2995 RMK BKN250 NOSIG=
201106281000 METAR MROC 281000Z 12011KT CAVOK 22/18 A2994 RMK BKN250 NOSIG=
201106281100 METAR MROC 281100Z 11010KT CAVOK 22/18 A2995 RMK FEW140 BKN250 NOSIG=
201106281200 METAR MROC 281200Z 08007KT 22/19 A2997 RMK BKN140 SCT250 NOSIG=
201106281300 METAR MROC 281300Z 11006KT 070V130 CAVOK 23/18 A2997 RMK SCT120 BKN250 BECMG 24006KT=
201106281400 METAR MROC 281400Z 07005KT CAVOK 23/19 A2999 RMK SCT120 BKN250 NOSIG=
201106281500 METAR MROC 281500Z 12009KT 080V140 CAVOK 24/19 A3000 RMK FEW050 SCT120 BKN200 NOSIG=
201106281600 METAR MROC 281600Z 13006KT 9999 FEW035 SCT100 BKN250 27/19 A2999 NOSIG=
201106281700 METAR MROC 281700Z 25010KT 9999 FEW035 BKN250 27/21 A3001 NOSIG=
201106281800 METAR MROC 281800Z 23010KT 9999 SCT035 BKN200 27/22 A3001 NOSIG=
201106281900 METAR MROC 281900Z 24009KT 9999 FEW015TCU SCT030 BKN130 26/22 A2999 NOSIG=
201106282000 METAR MROC 282000Z 25007KT 9999 FEW020TCU SCT035 BKN150 26/22 A2997 RMK BECMG 7000 SHRA=
201106282100 METAR MROC 282100Z 26007KT 9999 FEW015 SCT035 BKN200 26/22 A2995 RMK TCU E BECMG 7000 SHRA=
201106282200 METAR MROC 282200Z 23007KT 9999 FEW010 FEW015TCU SCT035 BKN200 25/23 A2995 RMK HZ LGT ARND BECMG SHRA=
201106282300 METAR MROC 282300Z 24008KT 8000 3000N -SHRA BR FEW009 BKN020 23/23 A2996 RMK VIS 4KM NW HZ ARND BECMG 6000 RA=
201106290000 METAR MROC 290000Z 24005KT 3000 -RA BR VCTS FEW003 BKN025 22/22 A2997 RMK FEW010 VIS 7KM NE/SE NOSIG=
201106290100 METAR MROC 290100Z VRB02KT 3500 -DZ BR FEW001 SCT003 BKN020 22/22 A2999 RMK VIS 7KM NE/E/SE BECMG 5000 BCFG=
201106290200 METAR MROC 290200Z VRB02KT 4500 -DZ BCFG FEW002 SCT010 BKN120 22/22 A3000 RMK VIS 9KM NE/E/SE BECMG 7000 BCFG=
201106290300 METAR MROC 290300Z 00000KT 9999 FEW005 SCT015 BKN080 22/22 A3001 RMK VIS 8000SW BCFG NOSIG=
201106290400 METAR MROC 290400Z 00000KT 9999 FEW005 SCT015 BKN090 21/21 A3002 RMK VIS 8000SW BCFG NOSIG=
201106290500 METAR MROC 290500Z 00000KT 9999 SCT015 SCT120 22/22 A3003 NOSIG=
201106290600 METAR MROC 290600Z 00000KT 9999 SCT015 SCT120 21/21 A3002 NOSIG=
201106290700 METAR MROC 290700Z 000000KT 9999 FEW005 SCT015 SCT120 21/21 A2998 RMK VIS 8000SW BCFG NOSIG=
201106290800 METAR MROC 290800Z 00000KT 9999 FEW007 SCT015 21/21 A2997 RMK VIS 8000SW BCFG FEW120 NOSIG=
201106290900 METAR MROC 290900Z 10005KT CAVOK 21/20 A2996 RMK FEW120 SCT250 LTNG DST S NOSIG=
201106291000 METAR MROC 291000Z 08004KT CAVOK 21/19 A2996 RMK FEW120 SCT250 LTNG DST S NOSIG=
201106291100 METAR MROC 291100Z 08005KT CAVOK 21/19 A2997 RMK SCT120 SCT250 NOSIG=
201106291200 METAR MROC 291200Z 08006KT CAVOK 22/20 A2998 RMK SCT100 SCT250 NOSIG=
201106291300 METAR MROC 291300Z 06005KT 9999 -RA BKN170 22/20 A3000 NOSIG=
201106291400 METAR MROC 291400Z VRB02KT CAVOK 22/20 A3001 RMK OVC170 RN NE/E NOSIG=
201106291500 METAR MROC 291500Z VRB02KT 9999 -RA OVC160 22/21 A3002 NOSIG=
201106291600 METAR MROC 291600Z VRB02KT 9999 -RA FEW050 BKN150 23/21 A3002 RMK HZ W BECMG 22005KT=
201106291700 METAR MROC 291700Z 16004KT 9999 FEW045 SCT200 27/20 A2999 RMK FEW120 HZ W BECMG 23005KT=
201106291800 METAR MROC 291800Z 24006KT 9999 FEW040 28/22 A2998 RMK FEW130 FEW250 NOSIG=
201106291900 METAR MROC 291900Z 25009KT 9999 FEW025TCU FEW040 26/22 A2996 RMK FEW250 HZ QUAD W NOSIG=
201106292000 METAR MROC 292000Z 25007KT 9999 4800E -SHRA VCTS FEW015TCU SCT035 BKN110 26/22 A2995 BECMG 8000 -TSRA BKN030=
201106292100 METAR MROC 292100Z 24005KT 9999 FEW008 BKN030 26/22 A2993 RMK HZ ARND NOSIG=
201106292200 METAR MROC 292200Z 21006KT 9999 FEW008 BKN030 25/22 A2993 RMK HZ ARND RA NE SW NOSIG=
201106292300 METAR MROC 292300Z 20007KT 1000 R07/0700 TSRA BR FEW001 FEW008CB BKN020 22/22 A2995 NOSIG=
201106300000 METAR MROC 300000Z 00000KT 3000 -RA BR FEW001 SCT020 OVC100 21/21 A2996 RMK LTNG DST SW BECMG 5000 -RA BR=
201106300100 METAR MROC 300100Z 02004KT 9999 FEW020 OVC100 21/21 A2997 NOSIG=
201106300200 METAR MROC 300200Z 00000KT 9999 FEW030 OVC100 21/21 A3000 NOSIG=
201106300300 METAR MROC 300300Z 00000KT 9999 BKN035 20/20 A3002 RMK LNTG DST S SW NOSIG=
201106300400 METAR MROC 300400Z 00000KT 9999 FEW030 SCT060 21/21 A3003 RMK LTNG DST SE NOSIG=
201106300500 METAR MROC 300500Z 00000KT 9999 FEW030 SCT060 20/20 A3003 RMK LTNG DST SW NOSIG=
201106300600 METAR MROC 300600Z 00000KT CAVOK 20/20 A3001 NOSIG=
201106300700 METAR MROC 300700Z 09004KT CAVOK 19/19 A2999 NOSIG=
201106300800 METAR MROC 300800Z 00000KT CAVOK 19/19 A2996 NOSIG=
201106300900 METAR MROC 300900Z 00000KT CAVOK 18/18 A2997 RMK FEW100 LTNG DST SE S NOSIG=
201106301000 METAR MROC 301000Z 06005KT CAVOK 19/19 A2997 RMK SCT100 NOSIG=
201106301100 METAR MROC 301100Z 13004KT CAVOK 19/19 A2998 RMK SCT050 BKN100 NOSIG=
201106301200 METAR MROC 301200Z VRB02KT 9999 SCT045 BKN200 20/20 A3000 RMK HZY NOSIG=
201106301300 METAR MROC 301300Z 00000KT 9999 FEW035 BKN100 21/20 A3002 RMK HZY ARND BECMG 22006KT=
201106301400 METAR MROC 301400Z 00000KT 9999 FEW030 SCT110 BKN250 22/19 A3003 RMK HZY BECMG 22006KT=
201106301500 METAR MROC 301500Z 08003KT 9999 FEW030 BKN250 24/20 A3001 RMK HZ LEVE ARND BECMG 22006KT=
201106301600 METAR MROC 301600Z 10005KT CAVOK 27/20 A2998 RMK BKN250 HZ LEVE ARND BECMG 22006KT=
201106301700 METAR MROC 301700Z 13005KT 9999 FEW040 BKN250 29/18 A2995 RMK HZ LGT ARND BECMG 22006KT=
201106301800 METAR MROC 301800Z 25004KT 9999 FEW040 BKN250 30/17 A2993 RMK HZ LGT ARND NOSIG=
201106301900 METAR MROC 301900Z 23012KT 9999 SCT040 BKN250 28/25 A2991 RMK HZ LGT ARND NOSIG=
201106302000 METAR MROC 302000Z 22011KT 9999 SCT030 BKN250 26/23 A2990 RMK HZ LGHT ARND NOSIG=
201106302100 METAR MROC 302100Z 22010KT 9999 VCSH VCTS FEW012CB BKN025 25/23 A2990 RMK RASH NE E BECMG 2000 TSRA=
201106302200 METAR MROC 302200Z 01003KT 5000 2000 TSRA SCT012CB BKN020 21/21 A2992 RMK VIS S SSW UNLTD BECMG 2000 +SHRA=
201106302201 METAR MROC 302201Z 01003KT 5000 2000N TSRA SCT012CB BKN020 21/21 A2992 RMK VIS S SSW UNLTD BECMG 2000 +SHRA=
201106302300 METAR MROC 302300Z 00000KT 9999 -RA VCSH VCTS FEW015CB SCT030 BKN100 21/21 A2993 RMK VIS WNW 8KMS TS NW BECMG RA=
201107010000 METAR MROC 010000Z 32003KT 9999 -RA FEW020 SCT030 BKN080 21/21 A2996 RETS NOSIG=
201107010100 METAR MROC 010100Z 00000KT 9999 FEW020 BKN035 21/21 A2997 NOSIG=
201107010200 METAR MROC 010200Z 00000KT 9999 -RA SCT035 BKN100 21/21 A2998 NOSIG=
201107010300 METAR MROC 010300Z 00000KT 9999 -RA BCFG FEW003 BKN100 20/20 A3002 RMK FEW008 VIS 6KM SW NOSIG=
201107010400 METAR MROC 010400Z 24003KT 5000 2400SW -DZ BR FEW001 BKN004 20/20 A3003=
201107010500 METAR MROC 010500Z VRB02KT 7000 3000SW BR BCFG SCT002 BKN025 20/20 A3003 RMK FEW010 BECMG BKN004=
201107010600 METAR MROC 010600Z 25003KT 9999 FEW003 SCT010 BKN035 20/20 A3003 BECMG 6000 BCFG BKN008=
201107010700 METAR MROC 010700Z 31005KT 9999 FEW020 BKN250 20/20 A2999 NOSIG=
201107010800 METAR MROC 010800Z 00000KT 9999 SCT020 BKN250 20/20 A2998 NOSIG=
201107010900 METAR MROC 010900Z 00000KT CAVOK 19/19 A2997 RMK BKN200 BECMG BCFG=
201107011000 METAR MROC 011000Z 09003KT CAVOK 19/19 A2995 RMK BKN250 NOSIG=
201107011100 METAR MROC 011100Z 07005KT CAVOK 18/18 A2994 RMK FEW120 BKN200 NOSIG=
201107011200 METAR MROC 011200Z 07003KT CAVOK 19/19 A2995 RMK FEW140 BKN200 NOSIG=
201107011300 METAR MROC 011300Z 06006KT CAVOK 21/19 A2996 RMK FEW140 BKN220 NOSIG=
201107011400 METAR MROC 011400Z 08003KT CAVOK 23/20 A2996 RMK BKN220 NOSIG=
201107011500 METAR MROC 011500Z 11003KT CAVOK 26/20 A2997 RMK OVC220 NOSIG=
201107011600 METAR MROC 011600Z 23006KT 9999 FEW035 BKN230 26/20 A2998 NOSIG=
201107011700 METAR MROC 011700Z 22009KT 9999 FEW025 SCT040 BKN250 25/20 A3000 RMK PCPN DST NE BECMG 8000 VCSH=
201107011800 METAR MROC 011800Z 25010KT 9999 FEW015TCU SCT025 BKN250 25/22 A2998 RMK PCPN DST E SE BECMG 8000 VCSH=
201107011900 METAR MROC 011900Z 24009KT 9999 VCSH FEW015CB SCT025 BKN100 22/22 A2998 BECMG 7000 SHRA VCTS=
201107011901 METAR MROC 011901Z 24009KT 9999 VCSH FEW015CB SCT025 BKN100 22/22 A2998 RMK SH NE E BECMG 7000 SHRA VCTS=
201107012000 METAR MROC 012000Z 28006KT 9999 FEW015CB SCT025 BKN100 23/22 A2996 BECMG 7000 SHRA VCTS=
201107012100 METAR MROC 012100Z 27006KT 9999 VCSH FEW015CB BKN030 22/21 A2995 RMK VIS 8000 S SCT120 NOSIG=
201107012200 METAR MROC 012200Z 00000KT 4000 RABR BKN012 21/21 A2996 NOSIG=
201107012300 METAR MROC 012300Z 00000KT 5000 RA BR FEW005 BKN012 21/21 A2997 NOSIG=
201107020000 METAR MROC 020000Z 21006KT 0800 RABR FG FEW002 BKN010 19/19 A3001 BECMG 5000 RA BR=
201107020100 METAR MROC 020100Z 00000KT 8000 RABR FEW005 SCT010 BKN090 19/19 A3002 RMK VIS 5000SW NOSIG=
201107020200 METAR MROC 020200Z 00000KT 9999 -RA FEW010 SCT025 BKN100 19/19 A3005 NOSIG=
201107020300 METAR MROC 020300Z 00000KT 9999 -DZ OVC100 19/19 A3004 NOSIG=
201107020400 METAR MROC 020400Z 00000KT CAVOK 20/20 A3004 RMK OVC100 NOSIG=
201107020500 METAR MROC 020500Z 00000KT 0500 FG VV/// 19/19 A3004 NOSIG=
201107020600 METAR MROC 020600Z 10002KT 9999 2000SW BR FEW001 OVC100 19/19 A3002 BECMG 9999=
201107020700 METAR MROC 020700Z 00000KT CAVOK 19/19 A2999 RMK OVC100 NOSIG=
201107020800 METAR MROC 020800Z 00000KT CAVOK 18/18 A2998 RMK OVC100 NOSIG=
201107020900 METAR MROC 020900Z 00000KT CAVOK 18/18 A2997 RMK SCT120 NOSIG=
201107021000 METAR MROC 021000Z 09006KT CAVOK 18/18 A2997 RMK SCT120 NOSIG=
201107021100 METAR MROC 021100Z 09006KT CAVOK 18/18 A2996 RMK FEW120 NOSIG=
201107021200 METAR MROC 021200Z 07005KT CAVOK 18/18 A2998 RMK SCT120 BKN250 NOSIG=
201107021300 METAR MROC 021300Z 09003KT CAVOK 20/19 A2999 RMK BKN120 NOSIG=
201107021400 METAR MROC 021400Z 11009KT CAVOK 22/19 A3000 RMK BKN120 SCT250 NOSIG=
201107021500 METAR MROC 021500Z 11006KT CAVOK 24/19 A3000 RMK BKN120 NOSIG=
201107021600 METAR MROC 021600Z 11005KT CAVOK 26/19 A3000 RMK BKN120 BECMG 24007KT=
201107021700 METAR MROC 021700Z 23006KT 9999 FEW040 SCT120 BKN250 26/20 A2999 NOSIG=
201107021800 METAR MROC 021800Z 23007KT 9999 FEW035 BKN250 27/20 A2998 RMK FEW120 NOSIG=
201107021900 METAR MROC 021900Z 23008KT 9999 SCT030 BKN120 26/21 A2996 NOSIG=
201107022000 METAR MROC 022000Z 25009KT 9999 SCT020CB SCT120 25/23 A2994 RMK RN DST SE NW BECMG 8000 VCTS VCSH=
201107022100 METAR MROC 022100Z 22009KT 4000 RA BR SCT015CB BKN030 23/22 A2993 RMK RA DST QUAD E/S BECMG 2000 TSRA=
201107022200 METAR MROC 022200Z 00000KT 7000 FEW010 SCT035 BKN100 21/21 A2994 RERA RMK RA DST QUAD N/E NOSIG=
201107022300 METAR MROC 022300Z 00000KT 9999 FEW025 SCT040 BKN120 21/21 A2994 NOSIG=
201107030000 METAR MROC 030000Z 00000KT 9999 FEW030 SCT035 BKN120 22/21 A2997 NOSIG=
201107030100 METAR MROC 030100Z 26003KT 9999 FEW020 SCT030 BKN100 21/21 A2999 NOSIG=
201107030200 METAR MROC 030200Z VRB02KT 9999 FEW015 SCT025 BKN100 21/21 A3000 NOSIG=
201107030300 METAR MROC 030300Z 00000KT 9999 SCT015 BKN025 21/21 A3002 NOSIG=
201107030400 METAR MROC 030400Z 00000KT 9999 -DZ SCT010 BKN025 21/21 A3003 BECMG 8000 -RA VCFG=
201107030500 METAR MROC 030500Z 25003KT 8000 -RA VCFG SCT006 BKN020 20/20 A3002 BECMG 5000 -RA BR=
201107030600 METAR MROC 030600Z 00000KT 5000 BR FEW002 SCT005 BKN010 20/20 A3000 RMK VIS SE UNL NOSIG=
201107030700 METAR MROC 030700Z 00000KT 8000 -RA VCFG FEW004 SCT015 BKN025 20/20 A2998 NOSIG=
201107030800 METAR MROC 030800Z 00000KT 5000 -DZ BR FEW003 BKN008 29/20 A2997 RMK VIS S 3KMS BECMG 3000=
201107030900 METAR MROC 030900Z 00000KT 8000 VCFG FEW005 SCT012 BKN025 20/20 A2995 RMK VIS SE S UNLTD NOSIG=
201107031000 METAR MROC 031000Z 00000KT 8000 VCFG FEW007 SCT015 BKN025 19/19 A2995 RMK VIS SE S UNL NOSIG=
201107031100 METAR MROC 031100Z 00000KT 9999 -DZ FEW020 BKN120 20/20 A2995 RMK HZY NOSIG=
201107031200 METAR MROC 031200Z 00000KT 9999 BCFG FEW020 BKN120 20/20 A2996 RMK VIS E 7KMS THING FG BANKS TO S SW NR APCH RWYO7 NOSIG=
201107031300 METAR MROC 031300Z 00000KT 9999 FEW020 SCT080 BKN120 21/21 A2997 NOSIG=
201107031400 METAR MROC 031400Z VRB02KT 9999 FEW035 SCT150 BKN200 23/20 A2998 RMK HZ LGT ARND NOSIG=
201107031500 METAR MROC 031500Z 24004KT 9999 SCT035 BKN250 25/22 A2999 RMK HZ QUAD W NOSIG=
201107031600 METAR MROC 031600Z 23009KT 9999 SCT035 BKN250 25/20 A3000 NOSIG=
201107031700 METAR MROC 031700Z 26006KT 9999 FEW020 SCT035 BKN250 25/21 A3000 NOSIG=
201107031800 METAR MROC 031800Z 26007KT 9999 SCT015TCU BKN035 26/21 A2998 NOSIG=
201107031900 METAR MROC 031900Z 24009KT 9999 FEW025 SCT035 BKN200 26/22 A2996 RMK RA DST E BECMG 7000 SHRA=
201107032000 METAR MROC 032000Z 25010KT 9999 VCSH FEW020 SCT025 BKN200 26/22 A2993 RMK TCU DST W BECMG SHRA=
201107032100 METAR MROC 032100Z 18009KT 1000 R07/0300 +SHRA BR FEW009 SCT020 BKN050 20/20 A2995 NOSIG=
201107032200 METAR MROC 032200Z 04003KT 9999 -RA FEW006 BKN100 21/21 A2994 RMK FEW020 VIS 8KM SW/NE NOSIG=
201107032300 METAR MROC 032300Z 00000KT 9999 FEW010 BKN140 21/21 A2995 RMK FEW020 FEW060 NOSIG=
201107040000 METAR MROC 040000Z 08003KT 9999 FEW035 BKN200 21/21 A2996 RMK FEW100 NOSIG=
201107040100 METAR MROC 040100Z 00000KT CAVOK 21/21 A2997 RMK BKN200 NOSIG=
201107040200 METAR MROC 040200Z 00000KT CAVOK 20/20 A2999 RMK FEW050 BKN200 NOSIG=
201107040300 METAR MROC 040300Z 00000KT CAVOK 20/20 A3000 RMK FEW100 BKN250 NOSIG=
201107040400 METAR MROC 040400Z 00000KT CAVOK 20/20 A3001 RMK FEW100 BKN250 NOSIG=
201107040500 METAR MROC 040500Z 10003KT CAVOK 19/19 A3001 RMK BKN250 NOSIG=
201107040600 METAR MROC 040600Z 00000KT CAVOK 19/19 A2999 RMK BKN250 NOSIG=
201107040700 METAR MROC 040700Z 00000KT CAVOK 19/19 A2998 RMK BKN250=
201107040800 METAR MROC 040800Z 05004KT CAVOK 18/18 A2997 RMK BKN250=
201107040900 METAR MROC 040900Z 00000KT CAVOK 18/18 A2997 RMK SCT250 NOSIG=
201107041000 METAR MROC 041000Z 08003KT CAVOK 18/18 A2997 RMK SCT250 NOSIG=
201107041100 METAR MROC 041100Z 09005KT CAVOK 18/18 A2998 RMK FEW120 SCT250 NOSIG=
201107041200 METAR MROC 041200Z 08006KT CAVOK 18/18 A2999 RMK FEW120 SCT250 TCU DST SSW NOSIG=
201107041300 METAR MROC 041300Z 15002KT CAVOK 21/19 A3000 RMK FEW120 SCT250 NOSIG=
201107041400 METAR MROC 041400Z 09004KT CAVOK 22/20 A3000 RMK BKN120 BECMG 24006KT=
201107041500 METAR MROC 041500Z 07005KT CAVOK 25/20 A3000 RMK BKN120 BECMG 24006KT=
201107041600 METAR MROC 041600Z 33003KT 9999 FEW040 SCT120 27/19 A2998 BECMG 24006KT=
201107041700 METAR MROC 041700Z 24009KT 9999 SCT040 FEW120 27/21 A2998 NOSIG=
201107041800 METAR MROC 041800Z 23008KT 9999 FEW010TCU SCT040 26/23 A2997 NOSIG=
201107041900 METAR MROC 041900Z 25009KT 9999 VCSH FEW010TCU BKN040 25/22 A2995 RMK BECMG 5000 +RA=
201107042000 METAR MROC 042000Z 23010KT 9999 VCSH FEW005 SCT015 BKN030 24/23 A2994 BECMG 5000 +RA=
201107042100 METAR MROC 042100Z 28007KT 2000 +TSRA BR FEW001 FEW008CB BKN020 22/22 A2995 BECMG 1000 +TSRA BR=
201107042200 METAR MROC 042200Z 00000KT 3000 -TSRA BR FEW001 FEW008 BKN020 21/21 A2996 NOSIG=
201107042300 METAR MROC 042300Z 00000KT 9999 2000SW -RA BR FEW001 SCT030 OVC100 21/21 A2996 NOSIG=
201107050000 METAR MROC 050000Z 00000KT 9999 3000SW BR FEW001 SCT030 BKN100 21/21 A2996 NOSIG=
201107050100 METAR MROC 050100Z 00000KT 9999 SCT030 BKN100 21/21 A2998 NOSIG=
201107050200 METAR MROC 050200Z 00000KT 9999 BCFG FEW030 SCT100 20/20 A3000 NOSIG=
201107050300 METAR MROC 050300Z 11004KT 8000 VCFG FEW002 19/19 A3001 RMK BECMG 4000 BR=
201107050400 METAR MROC 050400Z 00000KT 9999 BCFG FEW002 19/19 A3002 NOSIG=
201107050500 METAR MROC 050500Z VRB02KT 9999 BCFG FEW005 18/18 A3003 NOSIG=
201107050600 METAR MROC 050600Z VRB02KT 9999 BCFG FEW002 18/18 A3002 RMK FEW035 NOSIG=
201107050700 METAR MROC 050700Z 00000KT 9999 BCFG FEW002 18/18 A3000 RMK FEW035 LTNG DST S NOSIG=
201107050800 METAR MROC 050800Z 00000KT 9999 FEW035 18/18 A2998 NOSIG=
201107050900 METAR MROC 050900Z 06003KT 9999 BCFG FEW002 SCT020 BKN035 18/18 A2999 RMK LTNG DST S NOSIG=
201107051000 METAR MROC 051000Z 10005KT 9999 FEW020 18/18 A2999 RMK FEW035 LTNG DST SE NOSIG=
201107051100 METAR MROC 051100Z 08006KT CAVOK 18/18 A2999 RMK SCT120 LTNG DST SE NOSIG=
201107051200 METAR MROC 051200Z 06004KT CAVOK 19/19 A3000 RMK FEW060 SCT120 BKN250 NOSIG=
201107051300 METAR MROC 051300Z 00000KT CAVOK 20/20 A3001 RMK FEW120 BKN250 NOSIG=
201107051400 METAR MROC 051400Z 16004KT CAVOK 23/20 A3003 RMK FEW120 BKN250 BECMG 23006KT=
201107051500 METAR MROC 051500Z 00000KT 9999 FEW040 BKN250 25/21 A3003 RMK FEW130 NOSIG=
201107051600 METAR MROC 051600Z 29002KT 9999 FEW040 BKN250 27/20 A3001 RMK FEW130 NOSIG=
201107051700 METAR MROC 051700Z 24007KT 9999 FEW040 SCT250 28/22 A2999 NOSIG=
201107051800 METAR MROC 051800Z 25007KT 9999 SCT040 28/23 A2997 NOSIG=
201107051900 METAR MROC 051900Z 25010KT 9999 SCT030 SCT250 27/23 A2995 NOSIG=
201107052000 METAR MROC 052000Z 23010KT 5000 -RA BR FEW001 SCT015 BKN030 24/24 A2994 BECMG 2000 RA BR=
201107052100 METAR MROC 052100Z 22006KT 2500 -TSRA FEW003 FEW015CB SCT025 BKN100 22/22 A2994 RMK VIS E SE S UNLTD BECMG 5000=
201107052200 METAR MROC 052200Z 00000KT 9999 SCT010 SCT025 22/22 A2994 RMK VIS NW N 7KMS DUE LOW ST HZY NOSIG=
201107052300 METAR MROC 052300Z 23003KT 9999 VCFG FEW005 SCT025 BKN250 23/23 A2996 RMK VIS SW NW N 8KMS LOW CLDS NEAR APCH RNY/07 NOSIG=
201107060000 METAR MROC 060000Z 26005KT 3000 BR FEW001 SCT003 BKN010 23/23 A2996 RMK LOW ST OVER APCH RNY07 BECMG 2000-RA BR=
201107060100 METAR MROC 060100Z 26005KT 8000 VCFG FEW002 SCT005 BKN015 22/22 A3000 RMK VIS E SE S UNLTD NOSIG=
201107060200 METAR MROC 060200Z 00000KT 5000 BR FEW002 SCT005 BKN015 22/22 A3001 RMK CONDS VRBS BECMG 3000 -RA BR=
201107060300 METAR MROC 060300Z 00000KT 7000 BCFG FEW003 SCT010 BKN050 22/22 A3002 RMK VIS 5KM SW VIS UNL NE NOSIG=
201107060400 METAR MROC 060400Z 00000KT 9000 BCFG FEW003 SCT035 22/22 A3003 RMK VIS 5KM SW FEW010 SCT250 NOSIG=
201107060500 METAR MROC 060500Z 27003KT 9999 4000SW BCFG FEW003 SCT009 BKN040 21/21 A3004 BECMG 6000 BCFG BKN006=
201107060600 METAR MROC 060600Z 00000KT 9999 3500SW BCFG FEW002 BKN015 21/21 A3003 RMK FEW009 NOSIG=
201107060700 METAR MROC 060700Z 00000KT 9999 4000SW BCFG FEW005 SCT250 21/21 A3000 RMK FEW015 NOSIG=
201107060800 METAR MROC 060800Z VRB02KT 9999 4000SW BCFG FEW020 SCT250 19/19 A2998 NOSIG=
201107060900 METAR MROC 060900Z 04003KT CAVOK 19/19 A2997 RMK FEW250 NOSIG=
201107061000 METAR MROC 061000Z 06004KT CAVOK 19/19 A2997 RMK FEW120 NOSIG=
201107061011 METAR MROC 061011Z 06004KT CAVOK 19/19 A2997 RMK FEW120 NOSIG=
201107061100 METAR MROC 061100Z 09003KT CAVOK 19/19 A2997 RMK FEW250 NOSIG=
201107061200 METAR MROC 061200Z 07011KT CAVOK 20/18 A2998 RMK FEW250 NOSIG=
201107061300 METAR MROC 061300Z VRB02KT CAVOK 22/18 A2998 RMK BKN300 NOSIG=
201107061400 METAR MROC 061400Z 09008KT CAVOK 25/19 A2997 RMK BKN300 NOSIG=
201107061500 METAR MROC 061500Z 12011KT CAVOK 25/19 A2996 RMK BKN250 NOSIG=
201107061600 METAR MROC 061600Z 12010KT 9999 FEW040 BKN250 27/18 A2997 RMK VEL MAX VTO 18KT NOSIG=
201107061700 METAR MROC 061700Z 13009KT 9999 FEW035 BKN250 28/19 A2998 NOSIG=
201107061800 METAR MROC 061800Z 11007KT 9999 FEW035 SCT070 27/17 A2998 RMK FEW250 NOSIG=
201107061900 METAR MROC 061900Z 11003KT 9999 FEW035 BKN050 28/18 A2996 BECMG 24006KT=
201107061901 METAR MROC 061901Z 11003KT 9999 FEW035 BKN070 28/18 A2996 BECMG 24006KT=
201107062000 METAR MROC 062000Z 25009KT 9999 FEW030 BKN070 26/23 A2995 NOSIG=
201107062100 METAR MROC 062100Z 24008KT 9999 SCT030 BKN070 25/23 A2994 NOSIG=
201107062200 METAR MROC 062200Z 22009KT 9999 FEW035 BKN250 25/21 A2994 NOSIG=
201107062300 METAR MROC 062300Z 23006KT 9999 SCT035 BKN250 24/22 A2996 NOSIG=
201107070000 METAR MROC 070000Z 26007KT 9999 FEW035 SCT100 BKN250 23/21 A2998 NOSIG=
201107070100 METAR MROC 070100Z 30005KT 9999 -DZ SCT020 BKN100 22/22 A3002 NOSIG=
201107070200 METAR MROC 070200Z 00000KT 9999 FEW030 SCT120 22/22 A3003 REDZ NOSIG=
201107070300 METAR MROC 070300Z 00000KT 9999 BCFG FEW030 BKN120 22/22 A3004 BECMG 24006KT=
201107070400 METAR MROC 070400Z 00000KT CAVOK 21/21 A3001 RMK BKN120 NOSIG=
201107070500 METAR MROC 070500Z 09005KT CAVOK 21/21 A2998 RMK BKN120 NOSIG=
201107070600 METAR MROC 070600Z 00000KT CAVOK 21/20 A2997 RMK BKN120 NOSIG=
201107070700 METAR MROC 070700Z 00000KT CAVOK 21/20 A2996 RMK BKN120 NOSIG=
201107070800 METAR MROC 070800Z 00000KT CAVOK 21/20 A2997 RMK SCT120 SCT250 NOSIG=
201107070900 METAR MROC 070900Z 32004KT CAVOK 20/20 A2999 RMK FEW120 SCT250 LTNG DST S NOSIG=
201107071000 METAR MROC 071000Z 00000KT CAVOK 21/20 A2999 RMK SCT120 BECMG 06005KT=
201107071100 METAR MROC 071100Z 00000KT CAVOK 20/20 A2999 RMK BKN120 LTNG DST S NOSIG=
201107071200 METAR MROC 071200Z 00000KT CAVOK 21/20 A3000 RMK SCT120 BKN250 CB DST SW NOSIG=
201107071300 METAR MROC 071300Z 00000KT CAVOK 22/20 A3000 RMK BKN250 CB DST SSW NOSIG=
201107071400 METAR MROC 071400Z 10002KT CAVOK 25/20 A3001 RMK BKN250 BECMG 25007KT=
201107071500 METAR MROC 071500Z 00000KT CAVOK 24/19 A3002 RMK SCT100 SCT250 BECMG 25007KT=
201107071600 METAR MROC 071600Z 00000KT CAVOK 26/20 A3000 RMK FEW100 BKN250 NOSIG=
201107071700 METAR MROC 071700Z 25009KT 9999 FEW035 SCT100 25/21 A2999 RMK SCT250 NOSIG=
201107071800 METAR MROC 071800Z 24007KT 9999 FEW030 SCT100 BKN250 26/21 A2998 NOSIG=
201107071900 METAR MROC 071900Z 24008KT 9999 SCT030 BKN250 26/22 A2996 NOSIG=
201107072000 METAR MROC 072000Z 25003KT 9999 SCT030 BKN250 27/20 A2993 NOSIG=
201107072100 METAR MROC 072100Z 23006KT 9999 SCT035 BKN150 27/21 A2990 NOSIG=
201107072200 METAR MROC 072200Z 24006KT 9999 SCT035 BKN180 27/22 A2991 RMK HZ LGT ARND NOSIG=
201107072300 METAR MROC 072300Z 24007KT 9999 FEW025 SCT035 BKN150 25/23 A2993 NOSIG=
201107080000 METAR MROC 080000Z 23007KT 2000 BR SCT001 BKN010 23/23 A2993 RMK BECMG 0300 VV///=
201107080100 METAR MROC 080100Z 24007KT 0800 R07/0500 FG FEW001 BKN004 22/22 A2996 NOSIG=
201107080200 METAR MROC 080200Z 25006KT 5000 BR FEW002 BKN010 21/21 A2998 RMK TS DST S NOSIG=
201107080300 METAR MROC 080300Z 24003KT 6000 BCFG SCT002 BKN007 21/21 A3000 NOSIG=
201107080400 METAR MROC 080400Z 00000KT 8000 VCFG SCT004 BKN008 21/21 A3000 RMK VIS SE UNL NOSIG=
201107080500 METAR MROC 080500Z 31003KT 9999 FEW004 BKN020 21/21 A3001 NOSIG=
201107080600 METAR MROC 080600Z 00000KT 9999 SCT020 21/21 A2998 RMK LTNG DST SW NOSIG=
201107080700 METAR MROC NIL=
201107080800 METAR MROC NIL=
201107080900 METAR MROC 080900Z 00000KT 0400 FG VV/// 20/20 A2997 RMK VIS N NE E UNL NOSIG=
201107081000 METAR MROC 081000Z 33003KT 0400 FG VV/// 20/20 A2996 BECMG 1200 BR=
201107081100 METAR MROC 081100Z 13003KT 9999 BCFG SCT120 BKN250 19/19 A2996 RMK SCT FG BANKS SE S W NOSIG=
201107081200 METAR MROC 081200Z 09003KT 9999 BCFG BKN120 SCT200 19/19 A2997 RMK FOG SMALL BANKS TO SE S SW BECMG CAVOK=
201107081300 METAR MROC 081300Z 29003KT 9999 BCFG SCT120 BKN200 20/20 A2999 RMK VIS SW 8KM NOSIG=
201107081400 METAR MROC 081400Z 00000KT 9999 4500SW SCT002 SCT130 BKN220 21/21 A2999 RMK BECMG 24006KT=
201107081500 METAR MROC 081500Z 23005KT 9000 4000SW BCFG FEW002 SCT020 BKN200 23/22 A3000 NOSIG=
201107081600 METAR MROC 081600Z 22006KT 9999 FEW020TCU SCT080 24/23 A2990 RMK RA DST E NOSIG=
201107081700 METAR MROC 081700Z 23005KT 9999 FEW030 BKN250 26/22 A2996 NOSIG=
201107081800 METAR MROC 081800Z 25006KT 9999 SCT035 BKN250 27/22 A2993 RMK HZ LGT ARND NOSIG=
201107081900 METAR MROC 081900Z 25007KT 9999 BKN035 27/23 A2992 RMK HZ LGT ARND NOSIG=
201107082000 METAR MROC 082000Z 24009KT 9999 FEW020TCU SCT035 27/23 A2991 NOSIG=
201107082100 METAR MROC 082100Z 22011G21KT 9999 FEW020TCU SCT040 27/23 A2990 RMK RN DST SW NOSIG=
201107082200 METAR MROC 082200Z 22006KT 9999 FEW020TCU SCT080 24/23 A2990 RMK RA DST E NOSIG=
201107082300 METAR MROC 082300Z 00000KT 9999 FEW001 SCT040 23/23 A2993 RMK VIS 5KM QUAD N FEW015 SCT250 CB DST S BECMG 4000 BR=
201107090000 METAR MROC 090000Z 24004KT 7000 FEW001 SCT015 BKN020 22/22 A2994 RMK FU ASIDE RWY07 VIS W UNL VIS N 5KM BECMG 4000 BR=
201107090100 METAR MROC 090100Z VRB02KT 9999 FEW002 SCT015 22/22 A2997 RMK SCT020 NOSIG=
201107090200 METAR MROC 090200Z 00000KT 9999 FEW001 SCT015 BKN020 21/21 A2998 NOSIG=
201107090300 METAR MROC 090300Z 00000KT 9999 SCT005 BKN012 21/21 A2998 BECMG 7000 BCFG=
201107090400 METAR MROC 090400Z 00000KT 9999 FEW003 SCT015 21/21 A2998 RMK VIS 8000SW VCFG NOSIG=
201107090500 METAR MROC 090500Z 00000KT 8000 BR VCFG FEW005 BKN012 21/21 A2998 RMK VIS 5000SW NOSIG=
201107090600 METAR MROC 090600Z 00000KT 9999 FEW007 SCT012 21/21 A2998 NOSIG=
201107090700 METAR MROC 090700Z 00000KT 9999 FEW008 SCT015 ///// A2997 NOSIG=
201107090800 METAR MROC 090800Z 00000KT 9999 2000SW BR SCT005 SCT015 21/21 A2996 NOSIG=
201107090900 METAR MROC 090900Z 00000KT 9999 BR FEW004 SCT015 21/21 A2994 RMK VIS 5000 SW NOSIG=
201107091000 METAR MROC 091000Z 04003KT 9999 SCT015 SCT100 20/20 A2995 NOSIG=
201107091100 METAR MROC 091100Z 05005KT 9999 FEW003 SCT025 BKN250 19/19 A2995 NOSIG=
201107091200 METAR MROC 091200Z 06005KT 9999 FEW030 SCT250 19/19 A2994 RMK TCU DST SSW SW W HZ SW NOSIG=
201107091300 METAR MROC 091300Z 07005KT 9999 FEW030 SCT250 23/20 A2995 RMK CB DST E NOSIG=
201107091400 METAR MROC 091400Z 13009KT 9999 FEW030 SCT250 23/19 A2999 RMK CB DST E S NOSIG=
201107091500 METAR MROC 091500Z 12007KT 9999 FEW030 BKN200 24/20 A2998 RMK CB DST E S NOSIG=
201107091600 METAR MROC 091600Z 13007KT 9999 FEW020 BKN200 26/20 A2998 RMK GUST 14KT CB DST E SW FEW110 NOSIG=
201107091700 METAR MROC 091700Z 12007KT 9999 FEW020 BKN200 28/19 A2996 RMK CB DST E SW GUST 12KT NOSIG=
201107091800 METAR MROC 091800Z 10008KT 9999 FEW040 BKN200 29/20 A2996 RMK GUST 14KT CB DST SW FEW140 NOSIG=
201107091900 METAR MROC 091900Z 09008KT CAVOK 30/18 A2994 RMK GUST 14KT NOSIG=
201107092000 METAR MROC 092000Z 10010KT 9999 FEW020 BKN250 29/18 A2993 RMK GUST 15KT FEW040 CB DST SW NOSIG=
201107092100 METAR MROC 092100Z 24010KT 9999 FEW025 BKN250 27/24 A2992 RMK FEW045 NOSIG=
201107092200 METAR MROC 092200Z 25011KT 9999 FEW015 SCT030 BKN250 26/24 A2992 RMK HZ QUAD W TCU DST NW/N BECMG 7000 -SHRA=
201107092300 METAR MROC 092300Z 24009KT 9000 -SHRA FEW009TCU FEW015 SCT020 26/24 A2992 RMK VIS 5KM NW/N HZ ARND BECMG 5000 -RA BR=
201107100000 METAR MROC 100000Z 25006KT 7000 3000N -RA BR FEW006 BKN020 23/23 A2996 RMK FEW010 VIS 4KM SW BECMG 5000 -RA BR BKN010=
201107100100 METAR MROC 100100Z VRB02KT 8000 3800NW BR BCFG FEW002 SCT015 BKN200 23/23 A2998 RMK VIS 5KM SW NOSIG=
201107100200 METAR MROC 100200Z 09003KT 9999 4500NW BCFG FEW010 BKN110 22/21 A2997 RMK VIS 8KM SW LTNG DST S NOSIG=
201107100300 METAR MROC 100300Z 07003KT 9999 FEW025 BKN150 22/20 A2997 RMK LTNG DST S NOSIG=
201107100400 METAR MROC 100400Z 14003KT 9999 FEW035 BKN150 22/19 A2996 NOSIG=
201107100500 METAR MROC 100500Z 09004KT 9999 FEW045 SCT150 21/20 A2995 NOSIG=
201107100600 METAR MROC 100600Z 04003KT 9999 FEW045 BKN200 22/19 A2994 RMK LTNG DST QUAD S NOSIG=
201107100700 METAR MROC 100700Z 06006KT CAVOK 22/19 A2995 RMK FEW060 LTNG DST QUAD S NOSIG=
201107100800 METAR MROC 100800Z 12005KT CAVOK 22/19 A2994 RMK FEW060 LTNG DST QUAD S NOSIG=
201107100900 METAR MROC 100900Z 07004KT CAVOK 21/19 A2993 RMK FEW060 LTNG ARND NOSIG=
201107101000 METAR MROC 101000Z 08007KT CAVOK 21/18 A2992 RMK FEW060 SCT150 LTNG ARND NOSIG=
201107101100 METAR MROC 101100Z 13010KT 9999 FEW035 BKN120 23/19 A2994 RMK LTNG ARND NOSIG=
201107101200 METAR MROC 101200Z 29003KT 9999 FEW040 BKN150 22/19 A2996 NOSIG=
201107101300 METAR MROC 101300Z 28005KT CAVOK 22/20 A2995 RMK OVC100 NOSIG=
201107101400 METAR MROC 101400Z 26003KT 9999 FEW040 BKN100 24/21 A2998 NOSIG=
201107101500 METAR MROC 101500Z VRB02KT 9999 FEW040 SCT100 BKN250 26/19 A2999 BECMG 24006KT=
201107101600 METAR MROC 101600Z 11007KT 080V140 9999 FEW040 SCT100 BKN250 27/18 A3000 BECMG 24006KT=
201107101700 METAR MROC 101700Z 09008KT 9999 FEW040 BKN250 28/18 A2998 NOSIG=
201107101800 METAR MROC 101800Z 09003KT 9999 FEW040 BKN250 29/18 A2995 BECMG 24006KT=
201107101900 METAR MROC 101900Z 25010KT 9999 SCT040 BKN250 26/23 A2994 NOSIG=
201107102000 METAR MROC 102000Z 24009KT 9999 SCT030 BKN250 26/23 A2992 NOSIG=
201107102100 METAR MROC 102100Z 25007KT 9999 FEW015 SCT025 BKN040 25/23 A2993 RMK HZY BECMG 8000 VCSH=
201107102200 METAR MROC 102200Z 24008KT 9999 SCT010 SCT025 24/23 A2992 RMK FEW120 HZY BECMG 8000 VCSH=
201107102300 METAR MROC 102300Z 25006KT 9999 VCSH SCT010 SCT015TCU 23/23 A2994 RMK VIS NW N NE 8KMS BECMG 7000 -SHRA=
201107110000 METAR MROC 110000Z 25006KT 5000 -RA BR SCT004 BKN010 22/22 A2997 BECMG 3000 -RA BR=
201107110100 METAR MROC 110100Z 29003KT 7000 -DZ BCFG FEW004 SCT010 BKN025 21/21 A2998 BECMG 5000 -SHRA=
201107110200 METAR MROC 110200Z 00000KT 9999 2000W BCFG FEW001 SCT015 21/21 A2999 RMK LGHTG DST SW SCT080 NOSIG=
201107110300 METAR MROC 110300Z 00000KT 8000 2000SW BCFG FEW001 SCT015 BKN030 21/21 A3000 NOSIG=
201107110400 METAR MROC 110400Z 00000KT 8000 BCFG FEW002 SCT025 BKN100 21/21 A3001 NOSIG=
201107110500 METAR MROC 110500Z 00000KT 6000 BCFG FEW001 SCT030 21/21 A3002 RMK VIS E S UNL SCT080 NOSIG=
201107110600 METAR MROC 110600Z 00000KT 8000 BCFG FEW001 SCT100 21/21 A2999 NOSIG=
201107110700 METAR MROC 110700Z VRB02KT 9999 5000SW BCFG FEW001 SCT100 21/21 A2999 NOSIG=
201107110800 METAR MROC 110800Z 00000KT 9999 BCFG FEW001 SCT100 20/20 A2996 RMK VIS 6KM QUAD W FEW020 NOSIG=
201107110900 METAR MROC 110900Z 00000KT CAVOK 20/20 A2995 NOSIG=
201107111000 METAR MROC 111000Z 00000KT CAVOK 19/19 A2996 NOSIG=
201107111100 METAR MROC 111100Z 00000KT 9999 FEW015 BKN110 19/19 A2998 RMK LGHTG DST SW NOSIG=
201107111200 METAR MROC 111200Z 00000KT CAVOK 19/19 A2999 RMK CB DST E SW W NOSIG=
201107111300 METAR MROC 111300Z 00000KT 9999 SCT015 BKN120 21/20 A3002 RMK LGT HZ ARND CB DST S SW WSW NOSIG=
201107111400 METAR MROC 111400Z 00000KT 9999 SCT015 SCT300 23/21 A3001 RMK LGT HZ ARND NOSIG=
201107111500 METAR MROC 111500Z 25003KT 9999 FEW020 SCT300 25/21 A3002 RMK HZY NOSIG=
201107111600 METAR MROC 111600Z 24006KT 9999 FEW025 BKN120 26/21 A3002 RMK HZY NOSIG=
201107111700 METAR MROC 111700Z 23008KT 9999 FEW025 SCT120 BKN250 26/21 A3001 RMK LGT HZ ARND NOSIG=
201107111800 METAR MROC 111800Z 23006KT 9999 FEW015TCU SCT025 BKN250 26/22 A2999 RMK RASH DST E BECMG 8000 VCSH=
201107111900 METAR MROC 111900Z 25012KT 9999 -SHRA FEW012CB BKN025 24/22 A2998 RMK VIS S SW 5KMS BECMG 4000 -TSRA=
201107112000 METAR MROC 112000Z 25008KT 9999 VCSH FEW008 FEW015TCU BKN025 22/22 A2997 RMK VIS S SW 8KMS BECMG 5000 -SHRA VCTS=
201107112100 METAR MROC 112100Z 24008KT 2000 RA BR SCT003 BKN015 21/21 A2997 NOSIG=
201107112200 METAR MROC 112200Z 25010KT 2000 RA BR SCT003 BKN010 20/20 A2997 NOSIG=
201107112300 METAR MROC 112300Z 21004KT 2000 RA BR SCT003 BKN010 20/20 A3000 NOSIG=
201107120000 METAR MROC 120000Z 27003KT 4000 RA BR SCT005 BKN020 20/20 A3002 NOSIG=
201107120100 METAR MROC 120100Z 27003KT 9999 -RA FEW015 BKN100 20/20 A3005 NOSIG=
201107120200 METAR MROC 120200Z 30003KT 9999 -RA FEW004 SCT025 BKN100 19/19 A3008 NOSIG=
201107120300 METAR MROC 120300Z 35003KT 9999 -RA FEW004 SCT025 BKN100 19/19 A3008 NOSIG=
201107120400 METAR MROC 120400Z 12005KT 9999 -RA FEW030 OVC100 19/19 A3007 NOSIG=
201107120500 METAR MROC 120500Z 09005KT 9999 DZ FEW030 OVC100 19/19 A3004 NOSIG=
201107120600 METAR MROC 120600Z 12005KT 9999 -RA OVC100 20/20 A3005 NOSIG=
201107120700 METAR MROC 120700Z 28009KT 9999 -RA OVC100 19/19 A3006 NOSIG=
201107120800 METAR MROC 120800Z 30003KT 9999 -RA FEW015 OVC100 19/19 A3005 NOSIG=
201107120900 METAR MROC 120900Z 00000KT 9999 -RA FEW015 OVC100 19/19 A3005 NOSIG=
201107121000 METAR MROC 121000Z 00000KT 9999 4000SW -RA BR FEW002 SCT015 OVC100 19/19 A3005 NOSIG=
201107121100 METAR MROC 121100Z 03004KT 9999 BCFG FEW015 BKN100 19/19 A3004 RERA NOSIG=
201107121200 METAR MROC 121200Z 11003KT 9999 FEW015 BKN100 19/19 A3004 NOSIG=
201107121300 METAR MROC 121300Z 09004KT CAVOK 20/20 A3005 RMK BKN100 NOSIG=
201107121400 METAR MROC 121400Z 10003KT CAVOK 21/21 A3004 RMK BKN100 NOSIG=
201107121500 METAR MROC 121500Z 00000KT CAVOK 23/20 A3005 RMK BKN120 BECMG 24007KT=
201107121600 METAR MROC 121600Z 00000KT CAVOK 25/20 A3006 RMK BKN120 NOSIG=
201107121700 METAR MROC 121700Z 25003KT CAVOK 27/19 A3006 RMK BKN120 NOSIG=
201107121800 METAR MROC 121800Z 25009KT 9999 FEW035 SCT120 BKN250 26/22 A3005 NOSIG=
201107121900 METAR MROC 121900Z 25009KT 9999 FEW015 SCT030 BKN120 23/23 A3004 RMK RN DST SSE NE NOSIG=
201107122000 METAR MROC 122000Z 25009KT 9999 -RA SCT025 BKN100 22/22 A3005 RMK BECMG 8000 RA=
201107122100 METAR MROC 122100Z 10005KT 8000 -RA FEW012 SCT020 BKN100 21/21 A2993 NOSIG=
201107122200 METAR MROC 122200Z 10004KT 9999 -RA FEW015 SCT025 BKN100 21/21 A3002 NOSIG=
201107122300 METAR MROC 122300Z 10005KT 9999 DZ SCT040 BKN100 20/20 A3003 NOSIG=
201107130000 METAR MROC 130000Z 08007KT CAVOK 21/19 A3004 RMK SCT050 BKN100 NOSIG=
201107130100 METAR MROC 130100Z 00000KT 9999 DZ BCFG FEW005 SCT040 BKN120 21/19 A3007 NOSIG=
201107130200 METAR MROC NIL=
201107130300 METAR MROC 130300Z 00000KT 9999 SCT045 BKN120 20/20 A3009 BECMG -RA=
201107130400 METAR MROC 130400Z 00000KT 9999 VCFG SCT070 BKN120 20/20 A3010 RMK VIS S SSW 8KMS BECMG -RA=
201107130500 METAR MROC 130500Z 00000KT 9999 VCFG OVC100 20/20 A3008 BECMG 8000 -RA=
201107130600 METAR MROC 130600Z 00000KT 9999 VCFG OVC100 20/20 A3006 RMK VIS S SSW 8KMS NOSIG=
201107130700 METAR MROC 130700Z 00000KT 2000 BR SCT002 BKN100 20/20 A3004 NOSIG=
201107130800 METAR MROC 130800Z 00000KT 3500 BR FEW002 SCT005 BKN110 20/20 A3003 BECMG 5000=
201107130900 METAR MROC 130900Z 00000KT 8000 VCFG FEW005 SCT010 BKN110 20/20 A3003 NOSIG=
201107131000 METAR MROC 131000Z 00000KT 9999 SCT015 BKN120 20/20 A3002 NOSIG=
201107131100 METAR MROC 131100Z 00000KT 9999 FEW015 BKN120 20/20 A3002 NOSIG=
201107131200 METAR MROC 131200Z 09004KT CAVOK 19/19 A3003 RMK BKN120 HZY NOSIG=
201107131300 METAR MROC 131300Z 08004KT CAVOK 20/20 A3003 RMK BKN120 FEW250 HZ LGT ARND BECMG 24006KT=
201107131400 METAR MROC 131400Z 08005KT CAVOK 21/18 A3006 RMK BKN120 FEW250 HZ LGT ARND NOSIG=
201107131500 METAR MROC 131500Z 11003KT CAVOK 22/20 A3007 RMK SCT100 BKN200 HZ LGT ARND NOSIG=
201107131600 METAR MROC 131600Z 00000KT 9999 -RA SCT060 BKN100 21/21 A3008 NOSIG=
201107131700 METAR MROC 131700Z 00000KT 9999 1000S -RA FEW010 SCT020 BKN100 22/21 A3009 RMK HZ LGT ARND NOSIG=
201107131800 METAR MROC 131800Z 25003KT 2000 -RA BR FEW001 SCT010 BKN030 21/21 A3008=
201107131900 METAR MROC 131900Z 00000KT 2000 0800SW -RA BR FEW001 SCT005 BKN015 21/21 A3006 NOSIG=
201107132000 METAR MROC 132000Z VRB02KT 9999 BCFG FEW004 SCT020 BKN100 22/18 A3004 NOSIG=
201107132100 METAR MROC 132100Z VRB02KT 9999 BCFG FEW004 BKN100 23/19 A3000 RMK FEW010 NOSIG=
201107132200 METAR MROC 132200Z 21005KT 9999 FEW018 BKN120 22/20 A3000 RMK FEW100 NOSIG=
201107132300 METAR MROC 132300Z 25004KT 9999 BCFG FEW002 BKN120 22/21 A3000 RMK FEW015 NOSIG=
201107140000 METAR MROC 140000Z 25005KT 8000 VCFG FEW002 SCT010 BKN120 21/21 A3003 NOSIG=
201107140100 METAR MROC 140100Z VRB02KT 3000 BR FEW001 SCT010 BKN040 20/20 A3005 BECMG 1500 BR=
201107140200 METAR MROC 140200Z 00000KT 3000 BR FEW001 SCT008 BKN030 20/20 A3004 BECMG 1500 BR=
201107140300 METAR MROC 140300Z 00000KT 2000 BR SCT001 BKN005 20/20 A3005 NOSIG=
201107140400 METAR MROC 140400Z 00000KT 5000 BR FEW003 SCT005 BKN120 20/20 A3005 RMK VIS 9999 N E BECMG 9999=
201107140500 METAR MROC 140500Z 00000KT 9999 4000SW BR FEW003 BKN120 19/19 A3005 NOSIG=
201107140600 METAR MROC 140600Z 00000KT 9999 4000SW BR FEW004 SCT120 19/19 A3004 NOSIG=
201107140700 METAR MROC 140700Z 00000KT 9999 4000SW BR FEW005 SCT120 19/19 A3003 NOSIG=
201107140800 METAR MROC 140800Z 00000KT 9999 4000SW BR FEW005 SCT120 19/19 A3001 NOSIG=
201107140900 METAR MROC 140900Z 24003KT 1500 R07/0400 BR SCT002 BKN006 19/19 A2999 NOSIG=
201107141000 METAR MROC 141000Z 00000KT 3000 BR FEW003 SCT006 19/19 A2998 BECMG 5000 BR=
201107141100 METAR MROC 141100Z 00000KT 3000 BR FEW003 SCT006 19/19 A2999 RMK VIS 9999 N E BECMG 9999=
201107141200 METAR MROC 141200Z 00000KT 2000 BR SCT002 SCT015 19/19 A3000 RMK FEW090 BECMG -RA BR=
201107141300 METAR MROC 141300Z 00000KT 3000 BR SCT001 BKN070 20/20 A3002 RMK VIS E 5KM BECMG 5000=
201107141400 METAR MROC 141400Z 00000KT 5000 BR FEW001 SCT022 22/21 A3003 RMK SCT120 VIS E UNL NOSIG=
201107141500 METAR MROC 141500Z VRB02KT 8000 VCFG FEW002 SCT030 23/21 A3003 RMK SCT120 VIS E UNL NOSIG=
201107141600 METAR MROC 141600Z 25005KT 9999 SCT030 SCT120 23/21 A3003 RMK LGHT BR ARND NOSIG=
201107141700 METAR MROC 141700Z 24005KT 9999 SCT025 SCT100 24/20 A3002 RMK CB DST E SW FEW250 NOSIG=
201107141800 METAR MROC 141800Z 24008KT 9999 FEW012CB FEW030 SCT120 25/22 A2999 RMK CB RN DST E SW FEW070 BECMG VCSH=
201107141900 METAR MROC 141900Z 24009KT 9999 FEW008CB FEW030 SCT080 25/22 A2997 RMK GUST 14KT CB RN QUAD E S FEW120 BECMG VCSH=
201107142000 METAR MROC 142000Z 23008KT 9999 FEW008CB FEW020 SCT080 23/22 A2995 RMK CB RN QUAD E SCT110 BECMG VCTS=
201107142100 METAR MROC 142100Z 24002KT 9999 3000SW -RA BR FEW001 SCT020 BKN080 22/22 A2994 RMK HZ ARND BECMG 5000 RA BR=
201107142200 METAR MROC 142200Z 00000KT 9999 3000SW -RA BR FEW001 SCT020 BKN080 21/21 A2993 NOSIG=
201107142300 METAR MROC 142300Z 00000KT 9999 3000SW BR FEW001 SCT008 BKN100 21/21 A2994 BECMG 5000 BR=
201107150000 METAR MROC 150000Z 22003KT 9999 3000SW BR FEW001 SCT008 BKN100 21/21 A2994 BECMG 3000 BR=
201107150100 METAR MROC 150100Z 00000KT 9999 FEW008 BKN100 20/20 A2996 BECMG 27004KT=
201107150200 METAR MROC 150200Z 00000KT 9999 4000SW FEW001 SCT008 BKN100 20/20 A2996 RMK HZ LEVE ARND BECMG 27004KT=
201107150300 METAR MROC 150300Z 11003KT 9999 FEW035 SCT080 BKN100 21/20 A2997 NOSIG=
201107150400 METAR MROC 150400Z 08003KT 9999 BCFG SCT060 BKN130 21/20 A2998 NOSIG=
201107150500 METAR MROC 150500Z 00000KT 3000 BR FEW002 BKN010 20/20 A2999 RMK BECMG 1000 BR=
201107150600 METAR MROC 150600Z 00000KT 3000 BR FEW002 BKN010 20/20 A2997 NOSIG=
201107150700 METAR MROC 150700Z 00000KT 2000 BR FEW002 BKN010 20/20 A2996 NOSIG=
201107150800 METAR MROC 150800Z 00000KT 2500 0800SW FG FEW002 BKN010 20/20 A2994 NOSIG=
201107150900 METAR MROC 150900Z 00000KT 9999 4000SW BR FEW004 BKN020 19/19 A2993 NOSIG=
201107151000 METAR MROC 151000Z 30003KT 5000 2000SW BR FEW002 BKN010 19/19 A2994 NOSIG=
201107151100 METAR MROC 151100Z 00000KT 2000 BR FEW002 BKN010 19/19 A2994 NOSIG=
201107151200 METAR MROC 151200Z 00000KT 5000 2000SW BR FEW002 SCT060 BKN100 19/19 A2994 NOSIG=
201107151300 METAR MROC 151300Z 00000KT 7000 BCFG FEW002 SCT110 BKN250 20/20 A2996 NOSIG=
201107151400 METAR MROC 151400Z 00000KT 7000 BCFG FEW004 BKN100 21/20 A2998 RMK HZ ARND BECMG 22006KT=
201107151500 METAR MROC 151500Z 00000KT 9999 BCFG FEW001 BKN100 22/20 A2999 RMK HZ ARND BECMG 22006KT=
201107151600 METAR MROC 151600Z 00000KT 9999 BCFG FEW001 BKN100 23/20 A2999 RMK HZ ARND BECMG 22006KT=
201107151700 METAR MROC 151700Z 25003KT 9999 FEW010 BKN100 23/21 A2999 RMK HZ ARND NOSIG=
201107151800 METAR MROC 151800Z 21005KT 9999 FEW010 SCT100 BKN250 24/21 A2996 RMK HZ ARND NOSIG=
201107151900 METAR MROC 151900Z 23006KT 9999 FEW010 SCT100 BKN250 24/21 A2994 RMK HZ ARND RA DST NE E NOSIG=
201107152000 METAR MROC 152000Z 25006KT 9999 FEW010 SCT100 23/22 A2992 RMK RA N/NE/E HZ ARND BECMG 5000 RA=
201107152100 METAR MROC NIL=
201107152200 METAR MROC 152200Z 26007KT 1500 TSRA SCT010CB BKN025 20/20 A2992 BECMG 3000=
201107152300 METAR MROC 152300Z 23004KT 2000 -RA BR FEW002 SCT005 BKN010 20/20 A2992 RMK VIS SE S 1200 NOSIG=
201107160000 METAR MROC 160000Z 00000KT 8000 -RA VCFG FEW004 SCT010 BKN100 20/20 A2994 BECMG 1200 BR -RA=
201107160100 METAR MROC 160100Z 00000KT 9999 DZ SCT015 BKN100 20/20 A2995 NOSIG=
201107160200 METAR MROC 160200Z VRB02KT 7000 DZ BCFG FEW002 SCT007 BKN100 20/20 A2999 RMK VIS N QUAD 4KMS BECMG 3000 -RA BR=
201107160300 METAR MROC 160300Z 00000KT 9999 BCFG FEW001 BKN100 20/20 A2997 REDZ RMK FEW008 NOSIG=
201107160400 METAR MROC 160400Z 00000KT 9999 FEW025 SCT070 BKN110 20/20 A2998 NOSIG=
201107160500 METAR MROC 160500Z 00000KT 6000 BCFG FEW001 SCT012 BKN020 20/20 A2998 BECMG 2000 DZ BR=
201107160600 METAR MROC 160600Z 00000KT 5000 BR FEW001 SCT012 BKN020 20/20 A2997 BECMG 2000 DZ BR=
201107160700 METAR MROC 160700Z 00000KT 7000 2000W -DZ BCFG FEW001 SCT015 BKN020 20/20 A2996 BECMG 2000 BR=
201107160800 METAR MROC 160800Z 00000KT 9999 BCFG FEW001 SCT018 BKN080 19/19 A2994 BECMG 5000 BR=
201107160900 METAR MROC 160900Z 00000KT 9999 BCFG FEW001 SCT018 BKN050 20/20 A2994 RMK SCTD FG BANKS ARND BECMG 5000 BR=
201107161000 METAR MROC 161000Z 00000KT 9999 BCFG FEW001 SCT018 BKN050 20/20 A2994 RMK SCTD FG BANKS ARND FEW008 BECMG 5000 BR=
201107161100 METAR MROC 161100Z 00000KT 9999 BCFG FEW001 SCT030 BKN100 20/20 A2994 RMK SCTD FG BANKS ARND FEW004 BECMG 5000 BR=
201107161200 METAR MROC 161200Z 00000KT 9999 1000E PRFG FEW001 SCT020 BKN100 19/19 A2995 BECMG 2000 BR=
201107161300 METAR MROC 161300Z 00000KT 7000 VCFG FEW004 SCT020 BKN100 20/20 A2997 NOSIG=
201107161400 METAR MROC 161400Z 00000KT 9999 FEW006 SCT020 BKN100 21/21 A2998 NOSIG=
201107161500 METAR MROC 161500Z 25003KT 9999 FEW004 SCT020 BKN100 21/21 A3000 BECMG 8000 -RA VCFG=
201107161600 METAR MROC 161600Z 25004KT 9999 FEW010 SCT025 BKN100 23/21 A3000 NOSIG=
201107161700 METAR MROC 161700Z 25004KT 9999 FEW015 SCT025 BKN120 23/21 A2999 BECMG 8000 -RA=
201107161800 METAR MROC 161800Z 25005KT 9999 FEW010 BKN025 23/21 A2998 BECMG 8000 -RA VCFG=
201107161900 METAR MROC 161900Z 24005KT 9999 -RA FEW008 BKN025 22/21 A2996 BECMG 8000=
201107162000 METAR MROC 162000Z 00000KT 9999 -RA FEW010 SCT025 BKN100 21/21 A2995 RMK VIS N QUAD 6KMS BECMG 7000=
201107162100 METAR MROC 162100Z 00000KT 9999 -RA SCT012 BKN100 21/21 A2994 NOSIG=
201107162200 METAR MROC 162200Z 00000KT 3000 RA SCT008 BKN090 21/21 A2994 NOSIG=
201107162240 METAR MROC 162240Z 00000KT 5000 -RA BR SCT001 BKN015 20/19 A2992 NOSIG=
201107162300 METAR MROC 162300Z 00000KT 9999 FEW005 SCT012 BKN100 21/21 A2995 NOSIG=
201107162345 METAR MROC 162345Z 00000KT 6000 -RA BR VCFG SCT001 BKN015 20/19 A2993 RMK VIS 3000 S NW NOSIG=
201107170000 METAR MROC 170000Z 00000KT 9999 -DZ FEW005 SCT015 BKN100 20/20 A2996 BECMG RA=
201107170100 METAR MROC 170100Z 00000KT 9999 -DZ FEW005 SCT020 BKN100 20/20 A2998 NOSIG=
201107170200 METAR MROC 170200Z 00000KT 9999 FEW005 SCT025 BKN120 20/20 A2999 REDZ NOSIG=
201107170300 METAR MROC 170300Z 00000KT 9999 DZ FEW001 SCT020 BKN100 20/20 A3002 NOSIG=
201107170400 METAR MROC 170400Z 00000KT 4000 BR FEW001 SCT020 OVC100 20/20 A3003 BECMG 24005KT=
201107170500 METAR MROC 170500Z 00000KT 4000 BR FEW001 SCT010 BKN100 20/20 A3003 BECMG 24005KT=
201107170600 METAR MROC 170600Z 00000KT 9999 BCFG FEW005 SCT020 BKN100 20/20 A3002 BECMG 24006KT 2000 BR=
201107170700 METAR MROC 170700Z VRB02KT 2000 BR FEW001 SCT010 BKN100 20/20 A3002 NOSIG=
201107170800 METAR MROC 170800Z 00000KT 2000 BR FEW001 SCT008 OVC090 20/20 A2999 RERA RMK VIS N UNL NOSIG=
201107170900 METAR MROC 170900Z 00000KT 5000 BR FEW001 SCT020 BKN110 19/19 A2999 NOSIG=
201107171000 METAR MROC 171000Z 00000KT 1200 BR SCT001 BKN010 19/19 A2999 BECMG 5000 BR=
201107171100 METAR MROC 171100Z 00000KT 2500 BR SCT001 BKN020 19/19 A3000 BECMG 5000 BR=
201107171200 METAR MROC 171200Z VRB02KT 7000 BCFG FEW001 SCT010 BKN030 19/19 A3001 BECMG 9999=
201107171300 METAR MROC 171300Z 00000KT 9999 FEW003 SCT015 BKN090 20/20 A3003 NOSIG=
201107171400 METAR MROC 171400Z 00000KT 9999 FEW020 BKN070 20/20 A3004 RMK RN DST NW N NE E BECMG 8000 -RA=
201107171500 METAR MROC 171500Z 00000KT 9999 SCT030 SCT080 22/21 A3004 NOSIG=
201107171600 METAR MROC 171600Z 00000KT 9999 SCT030 SCT120 23/21 A3004 NOSIG=
201107171700 METAR MROC 171700Z 24004KT 9999 FEW020TCU SCT030 BKN120 25/21 A3003 NOSIG=
201107171800 METAR MROC 171800Z 22008KT 9999 FEW025 SCT100 BKN250 23/22 A3003 RMK CB DST ARND BECMG 8000 VCTS VCSH=
201107171900 METAR MROC 171900Z 25009KT 9999 FEW015CB BKN030 25/23 A3000 NOSIG=
201107172000 METAR MROC 172000Z 24006KT 9999 -RA FEW015CB BKN025 23/23 A2999 RMK SCT100 VIS 7000 E NOSIG=
201107172100 METAR MROC 172100Z 22004KT 3000 -RA BR FEW010 BKN020 22/22 A2998 RMK BECMG 1000 -RA BR=
201107172200 METAR MROC 172200Z 31003KT 3000 -RA BR FEW002 SCT005 BKN015 21/21 A3000=
201107172300 METAR MROC 172300Z 05005KT 1500 -RA BR FEW002 SCT005 BKN012 ///// A3002 RMK BECMG 0800 BKN003=
201107180000 METAR MROC 180000Z VRB02KT 5000 2000SW -RA BR FEW015 SCT035 BKN100 20/20 A3004 NOSIG=
201107180100 METAR MROC 180100Z 09004KT 9999 -RA BKN100 20/20 A3005 NOSIG=
201107180200 METAR MROC 180200Z 26003KT 9999 -RA BCFG FEW020 BKN100 20/20 A3006 NOSIG=
201107180300 METAR MROC 180300Z 28004KT 9999 -RA OVC100 19/19 A3004 NOSIG=
201107180400 METAR MROC 180400Z 28004KT 9999 SCT020 BKN100 20/20 A3005 NOSIG=
201107180500 METAR MROC 180500Z 05005KT 9999 SCT020 BKN100 19/19 A3006 NOSIG=
201107180600 METAR MROC 180600Z 02003KT CAVOK 19/19 A3003 RMK BKN120 SCT150 LTNG DST ENE NOSIG=
201107180700 METAR MROC 180700Z 07008KT CAVOK 19/19 A3002 RMK SCT120 SCT250 OCN LTNG DST ENE NOSIG=
201107180800 METAR MROC 180800Z 08008KT CAVOK 20/19 A3000 RMK SCT120 BKN250 NOSIG=
201107180900 METAR MROC 180900Z 08006KT CAVOK 20/19 A2999 RMK BKN250 NOSIG=
201107180901 METAR MROC 180901Z 08006KT CAVOK 20/19 A2999 RMK BKN120 NOSIG=
201107181000 METAR MROC 181000Z 06003KT CAVOK 20/19 A2999 RMK BKN120 NOSIG=
201107181100 METAR MROC 181100Z 09008KT CAVOK 21/19 A2999 RMK BKN120 NOSIG=
201107181200 METAR MROC 181200Z 10003KT CAVOK 20/19 A3001 RMK BKN120 NOSIG=
201107181300 METAR MROC 181300Z 08008KT 9999 FEW035 SCT120 BKN250 22/20 A3002 NOSIG=
201107181400 METAR MROC 181400Z 11008KT 9999 FEW035 SCT060 BKN250 24/19 A3004 NOSIG=
201107181500 METAR MROC 181500Z 12011KT 9999 FEW040 SCT100 BKN250 25/19 A3005 NOSIG=
201107181600 METAR MROC 181600Z 12010KT 070V140 9999 FEW040 SCT120 BKN250 25/20 A3006 NOSIG=
201107181700 METAR MROC 181700Z 13011KT 9999 SCT035TCU SCT120 BKN250 26/20 A3006 NOSIG=
201107181800 METAR MROC 181800Z 12008KT 9999 SCT035TCU BKN250 26/20 A3003 RMK BECMG 24006KT=
201107181827 METAR MROC 181827Z 20004KT 9999 SCT035TCU BKN250 27/23 A3002 RMK NOSIG=
201107181900 METAR MROC 181900Z 24009KT 9999 FEW025TCU SCT035 BKN250 26/23 A3001 NOSIG=
201107182000 METAR MROC 182000Z 24010KT 9999 FEW025 SCT35TCU BKN250 25/23 A3000 RMK RA DST NE NOSIG=
201107182100 METAR MROC 182100Z 25009KT 9999 FEW015 BKN025 25/23 A2998 RMK RN DST E SW FEW250 BECMG 8000 VCSH=
201107182200 METAR MROC 182200Z 23007KT 9999 FEW006 SCT020 23/23 A2997 RMK RN DST E SCT100 FEW250 BECMG 8000 VCSH=
201107182300 METAR MROC 182300Z 25006KT 9999 FEW006 SCT018 22/22 A2997 RMK VIS 7KM N FEW080 SCT250 BECMG 8000 VCSH=
201107190000 METAR MROC 190000Z 26004KT 9999 5000SW BR FEW005 BKN018 22/22 A2999 BECMG 2000 BR=
201107190100 METAR MROC 190100Z 00000KT 9999 FEW001 SCT018 21/21 A3000 RMK FEW010 BECMG 8000 VCFG=
201107190200 METAR MROC 190200Z 00000KT 9999 BCFG FEW001 21/21 A3002 RMK SCTD FG BANKS SE SW W FEW010 FEW100 BECMG 8000 VCFG=
201107190300 METAR MROC 190300Z 00000KT 9999 FEW007 SCT100 21/21 A3002 NOSIG=
201107190400 METAR MROC 190400Z 09009KT CAVOK 21/20 A3003 NOSIG=
201107190500 METAR MROC 190500Z 10007KT CAVOK 21/19 A3002 NOSIG=
201107190600 METAR MROC 190600Z 10004KT CAVOK 21/19 A3001 NOSIG=
201107190700 METAR MROC 190700Z 11008KT CAVOK 22/18 A2999 NOSIG=
201107190800 METAR MROC 190800Z 12009KT CAVOK 22/17 A2998 NOSIG=
201107190900 METAR MROC 190900Z 06004KT CAVOK 21/17 A2999 NOSIG=
201107191000 METAR MROC 191000Z 10005KT CAVOK 21/17 A2999 NOSIG=
201107191100 METAR MROC 191100Z 00000KT CAVOK 20/16 A3000 RMK FEW100 NOSIG=
201107191200 METAR MROC 191200Z 08003KT CAVOK 20/17 A3001 RMK FEW100 NOSIG=
201107191300 METAR MROC 191300Z 11005KT CAVOK 23/18 A3003 NOSIG=
201107191400 METAR MROC 191400Z 12006KT CAVOK 25/18 A3003 BECMG 24007KT=
201107191500 METAR MROC 191500Z 24009KT CAVOK 25/21 A3004 NOSIG=
201107191600 METAR MROC 191600Z 25010KT 9999 FEW015 26/22 A3005 NOSIG=
201107191700 METAR MROC 191700Z 25009KT 9999 FEW015 26/22 A3004 RMK FEW030 NOSIG=
201107191800 METAR MROC 191800Z 24008KT 9999 FEW015 27/23 A3001 RMK FEW030 NOSIG=
201107191900 METAR MROC 191900Z 23009KT 9999 FEW025TCU FEW040 27/22 A2999 NOSIG=
201107192000 METAR MROC 192000Z 24009KT 9999 VCSH FEW020CB SCT040 27/23 A2997 RMK RN DST E RN CB S BECMG -SHRA=
201107192100 METAR MROC 192100Z 24008KT 9999 VCSH FEW010TCU SCT030 25/23 A2996 RMK RA DST E NOSIG=
201107192200 METAR MROC 192200Z 23005KT 9999 FEW010TCU SCT030 25/23 A2995 RMK HZ ARND NOSIG=
201107192300 METAR MROC 192300Z 23005KT 9999 FEW010 SCT030 BKN120 24/23 A2996 RMK HZ ARND NOSIG=
201107200000 METAR MROC 200000Z 24004KT 9999 3000SW BR FEW001 SCT010 BKN120 23/23 A2997 NOSIG=
201107200100 METAR MROC 200100Z 00000KT 9999 FEW020 SCT120 21/21 A2999 RMK HZ ARND NOSIG=
201107200200 METAR MROC NIL=
201107200300 METAR MROC 200300Z 00000KT 9999 4000NW BR FEW002 SCT030 21/21 A3003 NOSIG=
201107200400 METAR MROC 200400Z 08008KT 9999 SCT035 22/20 A3002 NOSIG=
201107200500 METAR MROC 200500Z 13006KT 9999 FEW040 22/19 A3002 NOSIG=
201107200600 METAR MROC 200600Z 09004KT 9999 FEW045 22/19 A3001 NOSIG=
201107200700 METAR MROC 200700Z VRB02KT 9999 FEW045 21/19 A3000 NOSIG=
201107200800 METAR MROC 200800Z VRB02KT 9999 FEW045 21/18 A2999 NOSIG=
201107200900 METAR MROC 200900Z 07006KT 9999 FEW045 21/19 A2998 NOSIG=
201107201000 METAR MROC 201000Z 00000KT CAVOK 20/18 A2998 NOSIG=
201107201100 METAR MROC 201100Z 00000KT CAVOK 19/18 A2997 NOSIG=
201107201200 METAR MROC 201200Z 04004KT 9999 FEW045 20/18 A2999 RMK FEW120 HZ ARND NOSIG=
201107201300 METAR MROC 201300Z 09007KT CAVOK 23/19 A3001 NOSIG=
201107201400 METAR MROC 201400Z 13010KT CAVOK 25/18 A3002 NOSIG=
201107201500 METAR MROC 201500Z 13012KT 9999 FEW040 SCT120 26/17 A3002 NOSIG=
201107201600 METAR MROC 201600Z 13006KT 9999 FEW040 SCT120 28/18 A3001 NOSIG=
201107201700 METAR MROC 201700Z 10009KT 9999 FEW040 SCT120 BKN250 29/19 A3001 NOSIG=
201107201800 METAR MROC 201800Z 09006KT 9999 FEW040 BKN250 29/19 A2999 NOSIG=
201107201900 METAR MROC 201900Z 14008KT 100V170 9999 FEW040 BKN250 30/19 A2997 NOSIG=
201107202000 METAR MROC 202000Z 24007KT 9999 SCT040 BKN250 27/23 A2996 NOSIG=
201107202100 METAR MROC 202100Z 25011KT 9999 SCT025TCU BKN035 26/23 A2996 RMK HZY=
201107202200 METAR MROC 202200Z 24008KT 9999 FEW015TCU SCT035 BKN250 25/23 A2996 NOSIG=
201107202300 METAR MROC 202300Z 25007KT 9999 PRFG FEW015TCU SCT025 BKN250 24/23 A2997 RMK VIS SW WSW 7KMS LOW CLDS NEAR APCH RWY/07 NOSIG=
201107210000 METAR MROC 210000Z VRB02KT 9999 PRFG FEW015TCU SCT025 BKN250 23/23 A2998 RMK VIS S SW 7KMS NOSIG=
201107210100 METAR MROC 210100Z VRB02KT 9999 FEW008 SCT020 BKN250 23/23 A2999 BECMG 06005KT=
201107210200 METAR MROC 210200Z 08003KT 9999 FEW025 SCT250 22/22 A3000 BECMG CAVOK=
201107210300 METAR MROC 210300Z 11006KT CAVOK 23/20 A3001 NOSIG=
201107210400 METAR MROC 210400Z 11008KT CAVOK 23/18 A3001 NOSIG=
201107210500 METAR MROC 210500Z 12008KT CAVOK 22/18 A3001 NOSIG=
201107210600 METAR MROC 210600Z 13008KT CAVOK 22/18 A2999 NOSIG=
201107210700 METAR MROC 210700Z 12009KT CAVOK 22/19 A2998 NOSIG=
201107210800 METAR MROC 210800Z 11007KT CAVOK 22/19 A2996 NOSIG=
201107210900 METAR MROC 210900Z 11009KT CAVOK 22/19 A2995 NOSIG=
201107211000 METAR MROC 211000Z 11007KT CAVOK 22/19 A2997 NOSIG=
201107211100 METAR MROC 211100Z 11007KT 9999 FEW015 21/19 A2996 RMK RN DST E NOSIG=
201107211200 METAR MROC 211200Z 11008KT 9999 FEW010 SCT070 22/20 A2998 RMK GUST 15KT RN CB DST QUAD E SCT250 NOSIG=
201107211300 METAR MROC 211300Z 10008KT 9999 FEW035 SCT070 BKN250 24/20 A2999 RMK PCPN DST SE S NOSIG=
201107211400 METAR MROC 211400Z 13010G20KT 9999 FEW030 BKN250 24/20 A2999 RMK DZ DST NE NOSIG=
201107211500 METAR MROC 211500Z 11010KT 9999 FEW030 BKN250 27/19 A2999 RMK VEL MAX VTO 17KT NOSIG=
201107211600 METAR MROC 211600Z 10011KT 9999 FEW030 BKN250 29/19 A2999 RMK VEL MAX VTO 16KT NOSIG=
201107211700 METAR MROC 211700Z 09015KT 9999 FEW035 BKN250 28/19 A2999 NOSIG=
201107211800 METAR MROC 211800Z 09011KT 9999 FEW035 BKN250 29/20 A2997 RMK CB DST NE PCPN DST E NE NOSIG=
201107211900 METAR MROC 211900Z 09010KT 9999 FEW035 SCT250 29/18 A2995 RMK FEW120 NOSIG=
201107212000 METAR MROC 212000Z 08013KT 9999 SCT035 SCT250 28/19 A2994 RMK FEW120 PCPN DST NNE VEL MAX VTO 21KT NOSIG=
201107212100 METAR MROC 212100Z 09009KT 9999 FEW035 29/17 A2992 RMK FEW120 NOSIG=
201107212200 METAR MROC 212200Z 08011KT 9999 FEW035 28/17 A2992 RMK FEW120 NOSIG=
201107212300 METAR MROC 212300Z 09008KT 9999 FEW035 27/16 A2994 RMK FEW120 NOSIG=
201107220000 METAR MROC 220000Z 24004KT 9999 4500SW BR FEW002 23/23 A2996 RMK FEW035 BECMG 9999=
201107220100 METAR MROC 220100Z 20002KT 9999 FEW010 SCT025 22/22 A2999 RMK VIS SW 6KMS BECMG CAVOK=
201107220200 METAR MROC 220200Z 08004KT CAVOK 23/21 A3000 RMK FEW120 NOSIG=
201107220300 METAR MROC 220300Z 12004KT CAVOK 23/20 A3000 NOSIG=
201107220400 METAR MROC 220400Z 10005KT CAVOK 23/20 A2999 NOSIG=
201107220500 METAR MROC 220500Z 09007KT CAVOK 23/19 A2999 NOSIG=
201107220600 METAR MROC 220600Z 12006KT CAVOK 22/19 A2997 NOSIG=
201107220700 METAR MROC 220700Z 13007KT CAVOK 22/19 A2995 NOSIG=
201107220800 METAR MROC 220800Z 13006KT CAVOK 22/19 A2995 NOSIG=
201107220900 METAR MROC 220900Z 13007KT CAVOK 22/19 A2994 NOSIG=
201107221000 METAR MROC 221000Z 00000KT CAVOK 21/18 A2996 NOSIG=
201107221100 METAR MROC 221100Z 04003KT CAVOK 20/18 A2997 NOSIG=
201107221200 METAR MROC 221200Z 05004KT CAVOK 20/18 A2998 RMK FEW120 SCT250 NOSIG=
201107221300 METAR MROC 221300Z 04004KT CAVOK 22/19 A2998 RMK FEW120 BKN250 TCU DST S SSW SW NOSIG=
201107221400 METAR MROC 221400Z 07006KT CAVOK 26/19 A2999 RMK FEW120 SCT250 CB DST S SW NOSIG=
201107221500 METAR MROC 221500Z 14008KT 9999 FEW040 BKN100 25/19 A3000 RMK FEW250 BECMG 24007KT=
201107221600 METAR MROC 221600Z 07004KT 9999 FEW035 BKN100 26/20 A3002 NOSIG=
201107221700 METAR MROC 221700Z 12006KT 9999 SCT035 BKN100 25/19 A3002 NOSIG=
201107221800 METAR MROC 221800Z 12005KT 9999 SCT030 BKN100 25/19 A3000 RMK RN DST N NE E NOSIG=
201107221900 METAR MROC 221900Z 14004KT CAVOK 25/19 A2997 RMK SCT080 BKN110 NOSIG=
201107222000 METAR MROC 222000Z 04003KT CAVOK 25/19 A2991 RMK SCT080 BKN110 NOSIG=
201107222100 METAR MROC NIL=
201107222200 METAR MROC NIL=
201107222300 METAR MROC 222300Z 22003KT 9999 FEW025 SCT110 BKN250 24/22 A2996 NOSIG=
201107230000 METAR MROC 230000Z 25006KT 9999 VCFG FEW005 SCT110 BKN250 23/23 A2996 RMK VIS W 8000 VIS N 4000 BECMG 4000 BR=
201107230100 METAR MROC 230100Z 09007KT CAVOK 22/20 A2997 RMK SCT110 NOSIG=
201107230200 METAR MROC 230200Z 13004KT CAVOK 22/18 A2999 RMK SCT110 NOSIG=
201107230300 METAR MROC 230300Z 11003KT CAVOK 22/19 A2998 RMK SCT120 NOSIG=
201107230400 METAR MROC 230400Z 10003KT CAVOK 22/19 A2999 RMK FEW120 SCT250 NOSIG=
201107230500 METAR MROC 230500Z 06004KT CAVOK 21/20 A2999 RMK SCT250 NOSIG=
201107230600 METAR MROC 230600Z 12008KT CAVOK 22/20 A2996 RMK SCT250 NOSIG=
201107230700 METAR MROC 230700Z 12008KT CAVOK 22/19 A2995 RMK SCT250 NOSIG=
201107230800 METAR MROC 230800Z 13007KT CAVOK 22/19 A2994 RMK SCT250 NOSIG=
201107230801 METAR MROC 230801Z 13007KT CAVOK 22/19 A2994 RMK SCT250 NOSIG=
201107230900 METAR MROC 230900Z 14007KT CAVOK 22/19 A2994 RMK FEW120 SCT250 LTN G DST ENE NOSIG=
201107231000 METAR MROC 231000Z 07003KT CAVOK 22/19 A2995 RMK FEW120 SCT250 NOSIG=
201107231100 METAR MROC 231100Z 12004KT CAVOK 21/19 A2997 RMK FEW120 BKN250 LTNG DST ENE NOSIG=
201107231200 METAR MROC 231200Z VRB02KT 9999 FEW030 SCT120 BKN250 21/19 A3000 RMK PCPN DST N NE ENE CB DST S NOSIG=
201107231300 METAR MROC 231300Z 10009KT 9999 FEW025 BKN120 23/18 A3001 NOSIG=
201107231400 METAR MROC 231400Z 09010KT 9999 FEW025 SCT100 BKN230 24/18 A3001 NOSIG=
201107231500 METAR MROC 231500Z 13012KT 9999 SCT025 BKN110 24/19 A3003 NOSIG=
201107231600 METAR MROC 231600Z 12010KT 9999 SCT025 BKN110 24/17 A3004 NOSIG=
201107231700 METAR MROC 231700Z 12014KT 9999 FEW030 BKN110 28/17 A3002 NOSIG=
201107231800 METAR MROC 231800Z 10007KT CAVOK 27/17 A2999 RMK SCT090 BKN130 NOSIG=
201107231900 METAR MROC 231900Z 13008KT CAVOK 28/17 A2996 RMK SCT090 BKN130 NOSIG=
201107232000 METAR MROC 232000Z 12011KT CAVOK 26/16 A2996 RMK SCT090 BKN120 NOSIG=
201107232100 METAR MROC 232100Z 10007KT CAVOK 27/17 A2996 NOSIG=
201107232200 METAR MROC 232200Z 11008KT CAVOK 28/17 A2996 NOSIG=
201107232300 METAR MROC 232300Z 13006KT CAVOK 26/18 A2998 NOSIG=
201107240000 METAR MROC 240000Z 13008KT CAVOK 24/18 A2999 NOSIG=
201107240100 METAR MROC 240100Z 11007KT CAVOK 23/18 A2999 NOSIG=
201107240200 METAR MROC 240200Z 12011KT CAVOK 23/18 A3000 NOSIG=
201107240300 METAR MROC 240300Z 10011KT CAVOK 24/18 A2998 RMK SCT120 NOSIG=
201107240400 METAR MROC 240400Z 12013G24KT CAVOK 23/18 A2998 NOSIG=
201107240500 METAR MROC 240500Z 13003KT CAVOK 22/18 A2998 NOSIG=
201107240600 METAR MROC 240600Z 14012G22KT CAVOK 22/17 A2997 NOSIG=
201107240700 METAR MROC 240700Z 13010KT CAVOK 22/17 A2998 NOSIG=
201107240800 METAR MROC 240800Z 13011KT CAVOK 21/17 A2996 NOSIG=
201107240900 METAR MROC 240900Z 13010KT CAVOK 21/16 A2996 NOSIG=
201107241000 METAR MROC 241000Z 06004KT CAVOK 20/16 A2997 NOSIG=
201107241100 METAR MROC NIL=
201107241200 METAR MROC 241200Z 06006KT CAVOK 20/15 A2999 RMK FEW120 TCU DST S NOSIG=
201107241300 METAR MROC 241300Z 12009KT CAVOK 23/16 A2999 RMK CB DST S SCT120 FEW250 NOSIG=
201107241400 METAR MROC 241400Z 12010KT CAVOK 26/18 A3002 RMK CB DST SW NOSIG=
201107241500 METAR MROC 241500Z 12011KT CAVOK 27/18 A3002 NOSIG=
201107241600 METAR MROC 241600Z 12011G21KT 9999 FEW040 SCT200 28/17 A3001 RMK FEW120 NOSIG=
201107241700 METAR MROC 241700Z 08016KT 9999 FEW035 SCT200 29/17 A3001 RMK FEW070 FEW120 NOSIG=
201107241800 METAR MROC 241800Z 11012KT 9999 FEW035 SCT120 28/18 A3001 RMK FEW080 FEW200 NOSIG=
201107241900 METAR MROC 241900Z 13011KT CAVOK 27/18 A2998 RMK CB DST SW NOSIG=
201107242000 METAR MROC 242000Z 13010KT 9999 FEW045 BKN140 27/18 A2996 NOSIG=
201107242100 METAR MROC 242100Z 09004KT 9999 FEW045 BKN130 27/19 A2994 NOSIG=
201107242200 METAR MROC 242200Z 15006KT CAVOK 27/19 A2993 RMK BKN100 NOSIG=
201107242300 METAR MROC 242300Z 11006KT CAVOK 26/18 A2994 RMK BKN100 NOSIG=
201107250000 METAR MROC 250000Z 13006KT 090V150 CAVOK 26/18 A2996 RMK BKN100 NOSIG=
201107250100 METAR MROC 250100Z 11004KT CAVOK 24/19 A2998 RMK SCT100 SCT250 NOSIG=
201107250200 METAR MROC 250200Z 08006KT CAVOK 24/19 A2999 RMK SCT100 SCT250 NOSIG=
201107250300 METAR MROC 250300Z 09007KT CAVOK 23/19 A3000 RMK SCT100 SCT250 NOSIG=
201107250400 METAR MROC 250400Z 09007KT CAVOK 23/18 A3000 RMK SCT100 SCT250 NOSIG=
201107250500 METAR MROC 250500Z 12010KT CAVOK 23/18 A2999 RMK SCT100 NOSIG=
201107250600 METAR MROC 250600Z 13007KT CAVOK 22/18 A2998 RMK SCT100 NOSIG=
201107250700 METAR MROC 250700Z 12006KT CAVOK 22/19 A2997 RMK SCT100 NOSIG=
201107250800 METAR MROC 250800Z 07003KT CAVOK 21/18 A2997 RMK SCT100 NOSIG=
201107250900 METAR MROC 250900Z 07005KT CAVOK 21/18 A2994 RMK SCT100 NOSIG=
201107251000 METAR MROC 251000Z 09004KT CAVOK 21/18 A2996 RMK LTNG DST NE/S NOSIG=
201107251100 METAR MROC 251100Z 07005KT CAVOK 20/18 A2998 RMK SCT100 SCT250 NOSIG=
201107251200 METAR MROC 251200Z 05006KT 9999 FEW030 BKN100 21/18 A2998 RMK CB DST E NOSIG=
201107251300 METAR MROC 251300Z 12009KT 9999 FEW030 BKN100 23/18 A3000 NOSIG=
201107251400 METAR MROC 251400Z 12009KT CAVOK 25/18 A3000 RMK BKN120 CB DST S SW NOSIG=
201107251500 METAR MROC 251500Z 14008KT CAVOK 26/19 A3002 RMK FEW120 BKN250 TCU DST S SW NOSIG=
201107251600 METAR MROC 251600Z 13007KT 9999 FEW040 SCT120 BKN250 27/18 A3000 RMK BECMG 24006KT=
201107251700 METAR MROC 251700Z 09008KT 9999 FEW040 SCT120 BKN250 29/19 A2998 NOSIG=
201107251800 METAR MROC 251800Z 12010KT 080V140 9999 SCT040 BKN250 29/18 A2997 NOSIG=
201107251900 METAR MROC 251900Z 14007KT 9999 SCT040 BKN250 29/19 A2994 NOSIG=
201107252000 METAR MROC 252000Z 10011G21KT 9999 SCT030 BKN250 28/18 A2993 RMK RA DST S NOSIG=
201107252100 METAR MROC 252100Z 14009KT 9999 FEW020 SCT100 BKN220 27/18 A2992 RMK PCPN DST W WNW CB/TCU DST ARND NOSIG=
201107252200 METAR MROC 252200Z 24008KT 9999 FEW005 FEW015TCU BKN080 24/23 A2993 BECMG 8000 -RA VCFG=
201107252300 METAR MROC 252300Z 24005KT 8000 VCFG SCT005 FEW015TCU BKN100 23/23 A2996 RMK VIS E SE UNLTD BECMG 5000 BR=
201107260000 METAR MROC 260000Z 25003KT 8000 VCFG FEW003 SCT010 BKN120 22/22 A2997 BECMG 5000 BR=
201107260100 METAR MROC 260100Z 00000KT 8000 4000N PRFG FEW003 SCT007 BKN120 22/22 A2999 RMK LTNG DST S NOSIG=
201107260101 METAR MROC 260101Z 00000KT 8000 3500N PRFG FEW003 SCT007 BKN120 22/22 A2999 RMK LTNG DST S NOSIG=
201107260200 METAR MROC 260200Z 28004KT 8000 2000W BCFG FEW001 SCT003 BKN010 22/22 A3000 NOSIG=
201107260300 METAR MROC 260300Z 00000KT 9999 FEW001 SCT010 BKN020 22/22 A3001 RMK LW ST W NOSIG=
201107260400 METAR MROC 260400Z 11003KT 9999 FEW010 SCT110 21/21 A3001 NOSIG=
201107260500 METAR MROC 260500Z 05005KT 9999 FEW002 SCT110 22/21 A2998 RMK LGTNG DST S NOSIG=
201107260600 METAR MROC 260600Z 22003KT 9999 BCFG FEW002 SCT110 21/21 A2997 RMK SCTD FG BANKS SW LGTNG DST SW BECMG 8000 VCFG=
201107260700 METAR MROC 260700Z 00000KT 9999 3000W BR FEW001 20/20 A2996 RMK LGTNG DST SW FEW010 NOSIG=
201107260800 METAR MROC 260800Z 08005KT 9999 FEW008 20/20 A2993 NOSIG=
201107260900 METAR MROC 260900Z 08008KT CAVOK 21/18 A2992 NOSIG=
201107261000 METAR MROC 261000Z 11006KT CAVOK 21/18 A2991 NOSIG=
201107261100 METAR MROC 261100Z 04005KT CAVOK 21/18 A2994 RMK LGTNG DST S NOSIG=
201107261200 METAR MROC 261200Z 09004KT 9999 FEW020 BKN250 21/18 A2995 RMK CB DST SW NOSIG=
201107261300 METAR MROC 261300Z 06007KT CAVOK 22/18 A2995 RMK FEW120 BKN200 NOSIG=
201107261400 METAR MROC 261400Z 13011KT CAVOK 25/18 A2995 RMK FEW120 BKN220 VEL MAX VTO 16KT NOSIG=
201107261500 METAR MROC 261500Z 13010KT CAVOK 26/18 A2997 RMK FEW120 BKN250 VEL MAX VTO 16KT NOSIG=
201107261600 METAR MROC 261600Z 11009KT 9999 FEW040 BKN250 28/18 A2997 RMK VEL MAX VTO 18KT FEW120 CB DST S NOSIG=
201107261700 METAR MROC 261700Z 11011KT 9999 FEW040 BKN250 28/18 A2995 RMK PCPN DST E VEL MAX VTO 18KT NOSIG=
201107261800 METAR MROC 261800Z 12010KT 9999 FEW040 BKN250 29/18 A2992 RMK VEL MAX VTO 18KT NOSIG=
201107261900 METAR MROC 261900Z 10010KT 9999 FEW040 BKN250 29/18 A2990 RMK VEL MAX VTO 16KT NOSIG=
201107262000 METAR MROC 262000Z 11008KT 9999 FEW030 BKN250 29/18 A2989 RMK TCU DST N S SW CB DST S SW NOSIG=
201107262100 METAR MROC 262100Z 13009KT 9999 SCT030 BKN100 28/18 A2989 RMK VEL MAX VTO 16KT TCU DST S NOSIG=
201107262200 METAR MROC 262200Z 22012KT 9999 SCT030 BKN100 25/23 A2990 RMK TCU DST SSW NOSIG=
201107262300 METAR MROC 262300Z 26006KT 9999 FEW030 BKN120 23/22 A2992 RMK TCU DST SSW NOSIG=
201107270000 METAR MROC 270000Z 27003KT 9999 FEW006 SCT020 BKN120 23/21 A2992 NOSIG=
201107270100 METAR MROC 270100Z 31002KT 9999 SCT020 BKN100 22/22 A2995 NOSIG=
201107270200 METAR MROC 270200Z 20002KT 9999 FEW003 SCT015 BKN025 22/22 A2998 NOSIG=
201107270300 METAR MROC 270300Z 29002KT 9999 FEW005 SCT015 BKN100 22/22 A2999 BECMG 5000 BR=
201107270400 METAR MROC 270400Z 02003KT 9999 FEW015 BKN100 21/21 A2999 NOSIG=
201107270500 METAR MROC 270500Z 06002KT 9999 FEW010 BKN120 21/21 A2997 NOSIG=
201107270600 METAR MROC 270600Z 05003KT CAVOK 21/21 A2996 RMK BKN120 NOSIG=
201107270700 METAR MROC 270700Z 05005KT CAVOK 21/21 A2995 RMK BKN120 NOSIG=
201107270800 METAR MROC 270800Z 00000KT CAVOK 21/21 A2995 RMK BKN120 NOSIG=
201107270900 METAR MROC 270900Z 24003KT CAVOK 20/20 A2994 RMK SCT120 BKN250 NOSIG=
201107271000 METAR MROC 271000Z 00000KT CAVOK 20/20 A2994 RMK FEW130 BKN250 LGTN DST S BECMG 06005KT=
201107271100 METAR MROC 271100Z 00000KT 9999 FEW003 SCT130 BKN250 19/19 A2997 BECMG 06005KT=
201107271200 METAR MROC 271200Z 00000KT 9999 FEW003 SCT130 BKN250 20/20 A2998 BECMG 06005KT=
201107271300 METAR MROC 271300Z 11003KT CAVOK 21/21 A3000 RMK FEW120 SCT250 HZ SW NOSIG=
201107271400 METAR MROC 271400Z 04004KT CAVOK 24/19 A3000 RMK SCT250 HZ LEVE ARND NOSIG=
201107271500 METAR MROC 271500Z 14005KT CAVOK 27/18 A2999 RMK SCT250 BECMG 24008KT=
201107271600 METAR MROC 271600Z 12004KT 9999 FEW045 SCT250 28/17 A2999 BECMG 24008KT=
201107271700 METAR MROC 271700Z 23007KT 9999 SCT035 SCT250 28/21 A2999 NOSIG=
201107271800 METAR MROC 271800Z 23008KT 9999 FEW020TCU SCT035 BKN250 28/22 A2997 NOSIG=
201107271900 METAR MROC 271900Z 23011KT 9999 FEW020TCU BKN035 27/23 A2995 RMK FEW250 NOSIG=
201107272000 METAR MROC 272000Z 25012KT 9999 2000SW TSRA FEW010CB BKN030 27/24 A2995=
201107272100 METAR MROC 272100Z 26004KT 1200 TSRA SCT005CB BKN020 OVC100 22/22 A2992=
201107272200 METAR MROC 272200Z 27006KT 4000 BR FEW003 SCT020 OVC100 22/22 A2992 BECMG 2000 BR=
201107272300 METAR MROC 272300Z 26006KT 0500 FG SCT001 BKN010 21/21 A2995 NOSIG=
201107280000 METAR MROC 280000Z 25008KT 0300 FG SCT001 BKN007 21/21 A2996 NOSIG=
201107280100 METAR MROC 280100Z 27003KT 3000 -DZ BR SCT004 BKN015 20/20 A3001 NOSIG=
201107280200 METAR MROC 280200Z 00000KT 8000 VCFG SCT005 BKN015 20/20 A3001 NOSIG=
201107280300 METAR MROC 280300Z 00000KT 9999 SCT015 BKN025 21/21 A3003 NOSIG=
201107280400 METAR MROC 280400Z 00000KT 9999 FEW015 SCT025 BKN120 21/21 A3004 NOSIG=
201107280500 METAR MROC 280500Z 00000KT 9999 FEW020 SCT120 BKN250 20/20 A3005 NOSIG=
201107280600 METAR MROC 280600Z 00000KT 9999 BKN020 20/20 A3003 NOSIG=
201107280700 METAR MROC 280700Z 00000KT 9999 SCT020 BKN120 20/20 A3001 NOSIG=
201107280800 METAR MROC 280800Z 00000KT 9999 SCT020 BKN120 20/20 A3000 NOSIG=
201107280900 METAR MROC 280900Z 00000KT CAVOK 19/19 A2997 RMK SCT120 SCT250 NOSIG=
201107281000 METAR MROC 281000Z 00000KT CAVOK 19/19 A2995 RMK FEW120 BKN250=
201107281100 METAR MROC 281100Z 08006KT CAVOK 20/20 A2994 RMK FEW120 BKN250 NOSIG=
201107281200 METAR MROC 281200Z 09006KT CAVOK 21/19 A2994 RMK SCT120 BKN250 RMK LGT HZ ARND NOSIG=
201107281300 METAR MROC 281300Z 00000KT CAVOK 21/20 A2997 RMK BKN250 BECMG 24006KT=
201107281400 METAR MROC 281400Z 13007KT 9999 FEW030 BKN250 23/18 A2999 NOSIG=
201107281500 METAR MROC 281500Z 08010KT 9999 FEW030 BKN200 23/19 A3000 NOSIG=
201107281600 METAR MROC 281600Z 10005KT CAVOK 24/20 A3000 RMK BKN200 NOSIG=
201107281700 METAR MROC 281700Z 23007KT CAVOK 23/22 A3001 RMK SCT100 BKN140 NOSIG=
201107281800 METAR MROC NIL=
201107281900 METAR MROC 281900Z 25008KT 9999 SCT012 BKN110 24/22 A3000 RMK HZ ARND VIS NE 8000 BECMG 8000 VCSH=
201107282000 METAR MROC 282000Z 23007KT 9999 SCT020 BKN120 25/22 A2997 RMK RA DST NE BECMG 8000 VCSH=
201107282100 METAR MROC 282100Z 24006KT 9999 FEW010 SCT020 BKN120 23/22 A2996 RERA RMK LW ST SW W RN DST QUAD E S NOSIG=
201107282200 METAR MROC 282200Z 26003KT 9999 FEW011 SCT120 24/22 A2995 RMK RN DST E TCU SE S SW FEW040 NOSIG=
201107282300 METAR MROC 282300Z 25007KT 9999 FEW010TCU FEW080 SCT120 23/22 A2997 RMK RN DST N E SW NOSIG=
201107290000 METAR MROC 290000Z 00000KT 8000 3000SW BR FEW001 FEW010TCU SCT120 22/22 A2998 RMK VIS 6KM N RN DST QUAD E S BECMG 4000 BR=
201107290100 METAR MROC 290100Z 25005KT 6000 DZ VCTS FEW001 SCT008 BKN020 21/21 A3000 BECMG 4000 BR=
201107290200 METAR MROC 290200Z VRB02KT 4000 +DZ BR VCTS FEW001 SCT004 BKN020 21/21 A3003 BECMG 2000 BR=
201107290300 METAR MROC 290300Z 20003KT 3000 R07/0900 TSRA BR BKN005 FEW012CB 21/21 A3005 BECMG 6000 -RA=
201107290400 METAR MROC 290400Z 00000KT 9999 FEW005 SCT030 BKN100 21/21 A3006 RETSRA RMK LTNG DST SSW NOSIG=
201107290500 METAR MROC 290500Z 00000KT 9999 BR SCT005 SCT015 21/21 A3005 RMK VIS 5000SW BECMG 9999=
201107290600 METAR MROC 290600Z 00000KT 9999 FEW020 BKN120 21/21 A3001 RMK LTNG DST S SW NOSIG=
201107290700 METAR MROC 290700Z 15003KT 9999 FEW025 BKN120 20/20 A3001 NOSIG=
201107290800 METAR MROC 290800Z 00000KT 9999 SCT025 BKN120 20/20 A2999 NOSIG=
201107290900 METAR MROC 290900Z 28003KT 9999 FEW025 BKN120 20/20 A2999 NOSIG=
201107291000 METAR MROC 291000Z 00000KT 9999 FEW025 BKN120 19/19 A2998 NOSIG=
201107291100 METAR MROC 291100Z 00000KT 9999 FEW015 SCT025 BKN120 19/19 A2998 NOSIG=
201107291200 METAR MROC 291200Z 36004KT 9999 FEW015 SCT025 BKN080 19/19 A3000 RMK DZ DST N NE E S NOSIG=
201107291300 METAR MROC 291300Z 00000KT 9999 FEW020 BKN080 20/20 A3003 RMK RN DST QUAD S NOSIG=
201107291400 METAR MROC 291400Z 00000KT 9999 FEW020 BKN080 21/20 A3005 RMK RN DST QUAD E S NOSIG=
201107291500 METAR MROC 291500Z 00000KT 9999 FEW020 BKN140 22/20 A3005 RMK RN DST QUAD E S FEW035 FEW080 NOSIG=
201107291600 METAR MROC 291600Z 26004KT 9999 FEW020 SCT040 BKN140 22/19 A3006 RMK RN DST QUAD E S NOSIG=
201107291700 METAR MROC 291700Z 24004KT 9999 -RA FEW020 SCT040 BKN140 23/20 A3006 RMK RN DST QUAD E S LW ST SW NOSIG=
201107291800 METAR MROC 291800Z 26003KT 9999 5000SW -RA BR FEW001 SCT080 BKN140 21/20 A3005 RERA RMK CB DST SW NOSIG=
201107291900 METAR MROC 291900Z 00000KT 9999 -DZ VCSH FEW001 SCT080 BKN140 22/20 A3002 RMK FEW020 CB RN S RN DST E SW NOSIG=
201107292000 METAR MROC 292000Z 00000KT 9999 FEW010 BKN140 22/20 A2998 RMK FEW080 NOSIG=
201107292100 METAR MROC 292100Z 29006KT 9999 FEW040 OVC120 22/20 A2995 NOSIG=
201107292200 METAR MROC 292200Z 27003KT CAVOK 22/20 A2994 RMK OVC120 HZ NE E NOSIG=
201107292300 METAR MROC 292300Z 00000KT CAVOK 22/20 A2995 RMK OVC120 HZ NE=
201107300000 METAR MROC 300000Z 12003KT CAVOK 21/20 A2994 RMK OVC120 NOSIG=
201107300100 METAR MROC 300100Z 10002KT CAVOK 21/20 A2995 RMK OVC120 NOSIG=
201107300200 METAR MROC 300200Z 07009KT CAVOK 21/18 A2996 RMK BKN120 NOSIG=
201107300300 METAR MROC 300300Z 14004KT CAVOK 21/19 A2998 RMK BKN120 NOSIG=
201107300400 METAR MROC 300400Z 26005KT CAVOK 20/19 A3000 RMK BKN120 NOSIG=
201107300500 METAR MROC 300500Z 30005KT 5000 BR SCT004 SCT010 BKN100 19/19 A3001 BECMG 2000 BR=
201107300600 METAR MROC NIL=
201107300700 METAR MROC 300700Z 10003KT 9999 SCT030 BKN120 19/19 A2998 NOSIG=
201107300800 METAR MROC 300800Z 12003KT 9999 SCT030 SCT120 19/19 A2997 NOSIG=
201107300900 METAR MROC 300900Z 00000KT 9999 SCT030 SCT120 18/18 A2996 NOSIG=
201107301000 METAR MROC 301000Z 11004KT CAVOK 18/18 A2996 RMK FEW110 NOSIG=
201107301100 METAR MROC 301100Z 10003KT CAVOK 18/18 A2997 RMK SCT100 BKN250 NOSIG=
201107301200 METAR MROC 301200Z 00000KT 9999 FEW004 SCT090 BKN230 18/18 A2998 NOSIG=
201107301300 METAR MROC 301300Z 25003KT 9999 4000SW BR FEW003 FEW015 BKN250 21/20 A3000 NOSIG=
201107301400 METAR MROC 301400Z 23004KT 9999 FEW015 SCT250 21/20 A3001 RMK VIS SW 7000 KMS DUE ST LOW NOSIG=
201107301500 METAR MROC 301500Z 00000KT 9999 FEW025 SCT250 23/20 A3002 RMK TCU DST SW NOSIG=
201107301600 METAR MROC 301600Z 23007KT 9999 FEW030TCU SCT250 25/20 A3002 NOSIG=
201107301700 METAR MROC 301700Z 26006KT 9999 SCT030 SCT250 26/19 A3002 NOSIG=
201107301800 METAR MROC 301800Z 26009KT 9999 SCT030 SCT250 25/21 A2998 RMK RA DST E NOSIG=
201107301900 METAR MROC 301900Z 25009KT 9999 SCT030 SCT250 25/21 A2996 NOSIG=
201107302000 METAR MROC 302000Z 24009KT 9999 FEW015 BKN030 24/21 A2995 RMK RA DST SE NOSIG=
201107302100 METAR MROC 302100Z 23008KT 9999 FEW010 BKN030 23/21 A2994 RMK RA DST SE S BECMG 5000 RA=
201107302200 METAR MROC 302200Z 21004KT 9999 4000SW -RA BR FEW001 SCT020 BKN100 22/22 A2994 BECMG 5000 RA BR=
201107302300 METAR MROC 302300Z 00000KT 9999 4000SW -RA BR FEW001 SCT020 BKN100 21/21 A2995 BECMG 5000 RA BR=
201107310000 METAR MROC 310000Z 05004KT 9999 -RA FEW020 BKN100 21/21 A2996 NOSIG=
201107310100 METAR MROC 310100Z 00000KT CAVOK 20/20 A2996 RERA RMK BKN100 NOSIG=
201107310200 METAR MROC 310200Z 00000KT CAVOK 21/21 A2999 RMK LW ST SW SE NOSIG=
201107310300 METAR MROC 310300Z 24004KT 0800 FG VV/// 20/20 A3001 NOSIG=
201107310400 METAR MROC 310400Z 26003KT 6000 2000W BCFG FEW001 SCT003 BKN030 20/20 A3003 RMK FG BANKS SE SW W NOSIG=
201107310500 METAR MROC 310500Z 00000KT 3000 BR FEW001 SCT003 BKN025 20/20 A3003 NOSIG=
201107310600 METAR MROC 310600Z 00000KT 5000 2000SW BR FEW001 SCT012 BKN025 20/20 A3002 RMK VRBLE CNDTS NOSIG=
201107310700 METAR MROC 310700Z 00000KT 3000 +DZ BR FEW001 SCT010 BKN025 20/20 A3001 RMK VRBLE CDTNS NOSIG=
201107310800 METAR MROC 310800Z 00000KT 3000 R07/1400 +DZ BR FEW001 SCT008 BKN020 20/20 A3000 RMK VRBLE CDTNS NOSIG=
201107310900 METAR MROC 310900Z 00000KT 4000 +DZ BR FEW001 SCT008 BKN020 19/19 A2998 RMK VRBLE CDTNS NOSIG=
201107311000 METAR MROC 311000Z 00000KT 8000 -DZ VCFG FEW001 SCT010 BKN080 20/20 A2998 NOSIG=
201107311100 METAR MROC 311100Z 00000KT 9999 FEW001 SCT040 BKN110 19/19 A2998 RMK LW ST E SW NOSIG=
201107311200 METAR MROC 311200Z 10004KT CAVOK 19/19 A2999 RMK BKN120 NOSIG=
201107311300 METAR MROC 311300Z 09007KT CAVOK 21/21 A3000 RMK BKN120 NOSIG=
201107311400 METAR MROC 311400Z 10005KT CAVOK 23/21 A3001 RMK BKN120 NOSIG=
201107311500 METAR MROC 311500Z 14003KT CAVOK 25/20 A3002 RMK SCT120 BKN250 NOSIG=
201107311600 METAR MROC 311600Z 25006KT 9999 FEW040 SCT120 BKN250 25/22 A3003 NOSIG=
201107311700 METAR MROC 311700Z 25009KT 9999 FEW040 SCT120 BKN250 26/23 A3002 NOSIG=
201107311800 METAR MROC 311800Z 26011KT 9999 SCT030 BKN250 26/21 A3001 RMK RA DST SE NOSIG=
201107311900 METAR MROC 311900Z 24010KT 9999 3000SW RA BR FEW001 SCT030 BKN100 23/23 A2999 BECMG 6000 RA=
201107312000 METAR MROC 312000Z 24007KT 9999 -RA FEW010 SCT030 BKN100 23/22 A2997 RMK BECMG 8000 RA=
201107312100 METAR MROC 312100Z 25005KT 9999 -RA SCT025 BKN090 21/21 A2997 NOSIG=
201107312200 METAR MROC 312200Z 28006KT 9999 -RA SCT025 BKN090 21/21 A2997 NOSIG=
201107312300 METAR MROC 312300Z 31004KT 9999 -RA SCT020 BKN080 21/21 A2999 NOSIG=
201108010000 METAR MROC 010000Z 29004KT 9999 -RA SCT020 BKN080 21/21 A3000 NOSIG=
201108010100 METAR MROC 010100Z 05003KT 9999 FEW025 SCT100 20/20 A3002 NOSIG=
201108010200 METAR MROC 010200Z 00000KT 9999 -RA FEW025 OVC100 20/20 A3003 NOSIG=
201108010300 METAR MROC 010300Z 00000KT 9999 -RA FEW030 OVC100 20/20 A3004 NOSIG=
201108010400 METAR MROC 010400Z 00000KT CAVOK 20/20 A3003 RMK OVC100 NOSIG=
201108010500 METAR MROC NIL=
201108010600 METAR MROC 010600Z 00000KT CAVOK 19/19 A3002 RMK BKN100 NOSIG=
201108010700 METAR MROC 010700Z 00000KT CAVOK 19/19 A3002 RMK BKN100 NOSIG=
201108010800 METAR MROC 010800Z 11004KT CAVOK 18/18 A3001 RMK BKN100 NOSIG=
201108010900 METAR MROC 010900Z 11004KT CAVOK 18/18 A3000 RMK BKN100 NOSIG=
201108011000 METAR MROC 011000Z 10004KT CAVOK 17/17 A3001 RMK BKN100 NOSIG=
201108011100 METAR MROC 011100Z 08002KT CAVOK 17/17 A3001 RMK SCT120 FEW250 NOSIG=
201108011200 METAR MROC 011200Z 00000KT CAVOK 17/17 A3002 RMK FEW120 FEW250 CB DST S NOSIG=
201108011300 METAR MROC 011300Z 08003KT CAVOK 21/20 A3003 NOSIG=
201108011400 METAR MROC 011400Z 00000KT 9999 FEW045 23/18 A3003 NOSIG=
201108011500 METAR MROC 011500Z 26003KT 9999 FEW040 25/20 A3004 NOSIG=
201108011600 METAR MROC 011600Z 23005KT 9999 FEW040 26/20 A3003 NOSIG=
201108011700 METAR MROC 011700Z 23006KT 9999 SCT035 26/21 A3002 NOSIG=
201108011800 METAR MROC 011800Z 25006KT 9999 FEW020TCU SCT030 26/20 A3001 NOSIG=
201108011900 METAR MROC 011900Z 24008KT 9999 SCT015TCU 27/21 A2997 NOSIG=
201108012000 METAR MROC 012000Z 23012KT 9999 RA VCSH FEW015TCU FEW025TCU FEW100 25/23 A2996 RMK VIS 8KM E RA S BECMG -SHRA=
201108012100 METAR MROC 012100Z 00000KT 9999 4000NE TSRA FEW008CB SCT015 BKN100 24/22 A2996 BECMG 3000 TSRA=
201108012200 METAR MROC 012200Z 20006KT 8000 -RA FEW008 SCT015 OVC100 21/21 A2997 NOSIG=
201108012300 METAR MROC 012300Z 00000KT 7000 -RA FG FEW003 SCT016 OVC100 21/21 A2999=
201108020000 METAR MROC 020000Z 00000KT 9999 FEW005 SCT018 OVC100 21/21 A3000 NOSIG=
201108020100 METAR MROC 020100Z 00000KT 9999 VCFG FEW004 SCT020 BKN110 21/21 A2999 RMK VIS W 7000 NOSIG=
201108020200 METAR MROC 020200Z 33005KT 3000 BR FEW003 SCT015 BKN110 20/20 A3002 BECMG 5000 BR=
201108020300 METAR MROC 020300Z 00000KT 9999 SCT025 BKN100 21/21 A3004 NOSIG=
201108020400 METAR MROC 020400Z 00000KT 9999 SCT025 BKN100 21/21 A3005 BECMG 06003KT=
201108020500 METAR MROC 020500Z 09005KT 9999 FEW030 BKN100 20/20 A3003 NOSIG=
201108020600 METAR MROC 020600Z 08004KT CAVOK 20/20 A3002 RMK BKN120 NOSIG=
201108020700 METAR MROC 020700Z 10003KT CAVOK 20/20 A3000 RMK BKN120 NOSIG=
201108020800 METAR MROC 020800Z 09003KT CAVOK 20/19 A2998 RMK SCT120 NOSIG=
201108020900 METAR MROC 020900Z 09009KT CAVOK 20/19 A2996 RMK SCT120 NOSIG=
201108021000 METAR MROC 021000Z 08002KT CAVOK 19/18 A2995 RMK SCT120 NOSIG=
201108021100 METAR MROC 021100Z 08005KT CAVOK 19/18 A2996 RMK FEW120 FEW250 CB DST S NOSIG=
201108021200 METAR MROC 021200Z VRB02KT CAVOK 18/18 A2998 RMK SCT300 CB DST S SW NOSIG=
201108021300 METAR MROC 021300Z 03005KT 9999 FEW020 BKN250 22/18 A2999 RMK CB DST S SW NOSIG=
201108021400 METAR MROC 021400Z 00000KT 9999 FEW030 SCT250 25/19 A2999 RMK CB DST S SW NOSIG=
201108021500 METAR MROC 021500Z 24006KT 9999 FEW030 BKN250 25/21 A3001 NOSIG=
201108021600 METAR MROC 021600Z 23009KT 9999 FEW025 BKN250 25/21 A3001 NOSIG=
201108021700 METAR MROC 021700Z 24005KT 9999 SCT025 BKN250 25/21 A3000 NOSIG=
201108021800 METAR MROC 021800Z 23006KT 9999 SCT020TCU BKN250 26/22 A2998 NOSIG=
201108021900 METAR MROC 021900Z 23006KT 9999 FEW010TCU SCT020 BKN250 27/22 A2996 BECMG VCSH=
201108022000 METAR MROC 022000Z 25010KT 9999 VCSH FEW018TCU SCT030 BKN250 26/23 A2993 BECMG -SHRA=
201108022100 METAR MROC 022100Z 23013KT 3000 +TSRA BR FEW001 SCT010CB BKN080 23/23 A2993 BECMG 1000 BR=
201108022200 METAR MROC 022200Z 23009KT 9999 -RA FEW001 BKN010 21/21 A2994 RMK FEW008 NOSIG=
201108022300 METAR MROC 022300Z 23003KT 2500 RA BR FEW001 SCT004 BKN020 21/21 A2996 RMK VIS E 4KM BECMG 1000 BR=
201108030000 METAR MROC 030000Z 26004KT 9999 -RA FEW001 SCT008 BKN030 21/21 A2998 RMK LW ST SE VIS SW 8KM NOSIG=
201108030100 METAR MROC 030100Z 00000KT 6000 FEW001 SCT012 BKN080 21/21 A3000 RMK VIS E UNL NOSIG=
201108030200 METAR MROC 030200Z 12003KT 9999 FEW002 SCT100 20/20 A2999 RMK FEW040 NOSIG=
201108030300 METAR MROC 030300Z 08003KT CAVOK 21/21 A2998 RMK SCT100 NOSIG=
201108030400 METAR MROC 030400Z 09005KT CAVOK 21/20 A2999 NOSIG=
201108030500 METAR MROC 030500Z 12007KT CAVOK 21/20 A2999 NOSIG=
201108030600 METAR MROC NIL=
201108030700 METAR MROC NIL=
201108030800 METAR MROC NIL=
201108031000 METAR MROC NIL=
201108031100 METAR MROC NIL=
201108031200 METAR MROC NIL=
201108031300 METAR MROC 031300Z 00000KT CAVOK 21/18 A2999 RMK CB DST SW FEW070 SCT250 NOSIG=
201108031400 METAR MROC 031400Z 27005KT CAVOK 23/19 A3001 RMK CB DST SW E FEW070 SCT250 NOSIG=
201108031500 METAR MROC 031500Z VRB02KT 080V330 CAVOK 25/19 A3001 RMK CB DST E SW BKN080 SCT250 NOSIG=
201108031600 METAR MROC 031600Z 23005KT CAVOK 27/20 A3001 RMK CB DST SW E FEW120 BKN250 NOSIG=
201108031700 METAR MROC 031700Z 23009KT 9999 FEW030 BKN200 26/23 A2999 RMK CB DST E SW RN DST E NOSIG=
201108031800 METAR MROC 031800Z 22007KT 9999 SCT040 BKN200 26/22 A2998 RMK CB RN DST E CB DST SW NOSIG=
201108031900 METAR MROC 031900Z 21005KT 9999 -RA FEW030TCU SCT040 SCT200 25/23 A2996 RMK RN DST E S SW NOSIG=
201108032000 METAR MROC 032000Z 27005KT 9999 FEW012TCU BKN200 25/23 A2994 RMK TCU SW W NOSIG=
201108032100 METAR MROC 032100Z 22007KT 9999 FEW010TCU SCT030 SCT200 26/23 A2992 NOSIG=
201108032200 METAR MROC 032200Z 22007KT 9999 FEW015 SCT030 BKN100 24/23 A2992 RMK HZ ARND=
201108032300 METAR MROC 032300Z 24007KT 9999 4000SW BR FEW001 SCT010 BKN030 24/23 A2993 RMK HZ ARND=
201108040000 METAR MROC 040000Z 23006KT 5000 BR FEW001 SCT010 BKN030 22/22 A2995 BECMG 2000 BR=
201108040100 METAR MROC 040100Z 23006KT 7000 VCFG FEW002 SCT010 BKN030 21/21 A2998 BECMG 2000 BR=
201108040200 METAR MROC 040200Z 24005KT 7000 BCFG FEW002 SCT010 BKN030 21/21 A2999 BECMG 2000 BR=
201108040300 METAR MROC 040300Z 00000KT 7000 BCFG FEW002 BKN030 21/21 A3000 BECMG 2000 BR=
201108040400 METAR MROC 040400Z 000000KT 9999 FEW005 SCT015 21/21 A3000 NOSIG=
201108040500 METAR MROC 040500Z 00000KT 9999 FEW030 21/21 A3000 RMK FEW120 NOSIG=
201108040600 METAR MROC 040600Z 00000KT 9999 FEW025 21/21 A2999 RMK FEW120 NOSIG=
201108040700 METAR MROC 040700Z 09004KT 9999 FEW025 20/20 A2997 RMK FEW120 NOSIG=
201108040800 METAR MROC 040800Z 08003KT 9999 FEW025 SCT120 21/20 A2996 NOSIG=
201108040900 METAR MROC 040900Z 07002KT 9999 FEW025 SCT120 21/19 A2995 NOSIG=
201108041000 METAR MROC 041000Z 06005KT CAVOK 20/19 A2995 NOSIG=
201108041100 METAR MROC 041100Z 00000KT CAVOK 20/19 A2996 RMK SCT250 NOSIG=
201108041200 METAR MROC 041200Z 00000KT 9999 FEW025 SCT250 21/17 A2998 NOSIG=
201108041300 METAR MROC 041300Z 07006KT 9999 FEW025 SCT250 23/17 A2999 RMK TCU DST SW NOSIG=
201108041400 METAR MROC 041400Z 12009KT 9999 FEW030 25/18 A3000 RMK TCU DST SW NOSIG=
201108041500 METAR MROC 041500Z 11010KT 9999 FEW030 27/17 A3000 NOSIG=
201108041600 METAR MROC 041600Z 11008KT 9999 FEW030 28/19 A3000 NOSIG=
201108041700 METAR MROC 041700Z 23008KT 9999 FEW030 28/22 A2999 NOSIG=
201108041800 METAR MROC 041800Z 23009KT 9999 SCT030 28/23 A2998 NOSIG=
201108041900 METAR MROC 041900Z 23012KT 9999 SCT030 27/24 A2995 NOSIG=
201108042000 METAR MROC 042000Z 23010KT 9999 FEW010TCU SCT030 28/23 A2993 RMK RA DST NE E NOSIG=
201108042100 METAR MROC 042100Z 22009KT 9999 -SHRA FEW015CB BKN025 25/23 A2993 RMK VIS 6KMS TO WNW W BECMG 7000 SHRA=
201108042200 METAR MROC 042200Z 21004KT 9999 -RA VCSH FEW018TCU BKN025 23/23 A2993 RMK SH DST S/SW/W NOSIG=
201108042300 METAR MROC 042300Z 21004KT 8000 VCFG FEW004 SCT012 BKN120 23/23 A2996 BECMG 7000 BCFG=
201108050000 METAR MROC 050000Z 00000KT 8000 VCFG FEW004 SCT010 BKN250 23/32 A2998 RMK TCU DST N NOSIG=
201108050001 METAR MROC 050001Z 00000KT 8000 VCFG FEW004 SCT010 BKN250 23/32 A2998 RMK TCU DST N NOSIG=
201108050100 METAR MROC 050100Z 00000KT 8000 VCFG FEW004 SCT010 BKN140 22/22 A3000 RMK VIS E SE UNL NOSIG=
201108050200 METAR MROC 050200Z 14003KT 9999 VCFG FEW020 BKN150 22/19 A3003 RMK LTNG DST QUAD S NOSIG=
201108050300 METAR MROC 050300Z 09006KT CAVOK 22/18 A3004 RMK LGTNG DST QUAD W NOSIG=
201108050400 METAR MROC 050400Z 09004KT CAVOK 22/18 A3005 NOSIG=
201108050500 METAR MROC 050500Z 08008KT CAVOK 22/18 A3004 NOSIG=
201108050600 METAR MROC 050600Z 08004KT CAVOK 22/18 A3002 NOSIG=
201108050700 METAR MROC 050700Z 08007KT CAVOK 22/18 A3000 NOSIG=
201108050800 METAR MROC 050800Z 11005KT CAVOK 22/18 A3000 NOSIG=
201108050900 METAR MROC 050900Z 03006KT CAVOK 20/18 A2999 NOSIG=
201108051000 METAR MROC 051000Z 00000KT CAVOK 20/18 A2999 RMK LW ST SW NOSIG=
201108051100 METAR MROC 051100Z 08002KT CAVOK 21/18 A3000 NOSIG=
201108051200 METAR MROC 051200Z 10005KT CAVOK 21/18 A3001 RMK CB DST SW NOSIG=
201108051300 METAR MROC 051300Z 00000KT CAVOK 21/20 A3003 RMK BKN120 CB DST S NOSIG=
201108051400 METAR MROC 051400Z 00000KT CAVOK 26/19 A3004 RMK SCT140 BECMG 24005KT=
201108051500 METAR MROC 051500Z 25005KT CAVOK 26/21 A3004 RMK FEW140 NOSIG=
201108051600 METAR MROC 051600Z 23008KT 9999 FEW045 27/21 A3003 NOSIG=
201108051700 METAR MROC 051700Z 13006KT 9999 FEW040 SCT120 30/19 A3002 NOSIG=
201108051800 METAR MROC 051800Z 22006KT 9999 SCT040 28/21 A3001 RMK FEW120 TCU DST S SW ENE NOSIG=
201108051900 METAR MROC 051900Z 23012KT 9999 SCT035 BKN250 27/23 A2999 RMK CB RASH DST SW BECMG 8000 VCSH=
201108052000 METAR MROC 052000Z 24011KT 9999 SCT035 SCT250 26/22 A2996 NOSIG=
201108052100 METAR MROC 052100Z 22009KT 9999 -TS VCSH FEW015CB BKN025 24/23 A2996 NOSIG=
201108052200 METAR MROC 052200Z 26002KT 9999 R07/0400 -TSRA SCT008CB BKN025 22/21 A2999 RMK VIS 5000 SW NOSIG=
201108052300 METAR MROC 052300Z 00000KT 9999 -RA FEW004 SCT015 BKN100 21/21 A3000 NOSIG=
201108060000 METAR MROC 060000Z 00000KT 9999 FEW030 BKN250 21/21 A2999 RMK TCU DST E NOSIG=
201108060100 METAR MROC 060100Z 00000KT 9999 FEW030 SCT250 21/21 A3001 NOSIG=
201108060200 METAR MROC 060200Z 09004KT 9999 FEW035 SCT120 21/21 A3002 NOSIG=
201108060300 METAR MROC 060300Z 07003KT CAVOK 21/20 A3002 RMK SCT120 NOSIG=
201108060400 METAR MROC 060400Z 00000KT CAVOK 21/19 A3002 RMK SCT120 NOSIG=
201108060500 METAR MROC 060500Z 09003KT CAVOK 21/19 A3003 NOSIG=
201108060600 METAR MROC 060600Z 07003KT CAVOK 20/19 A3002 NOSIG=
201108060700 METAR MROC 060700Z 05006KT CAVOK 20/19 A3001 NOSIG=
201108060800 METAR MROC 060800Z 06003KT CAVOK 20/18 A2999 NOSIG=
201108060900 METAR MROC 060900Z 08007KT CAVOK 19/18 A2998 NOSIG=
201108061000 METAR MROC 061000Z 07004KT CAVOK 20/18 A2999 NOSIG=
201108061100 METAR MROC 061100Z 07009KT CAVOK 20/18 A2999 RMK SCT120 NOSIG=
201108061200 METAR MROC 061200Z 03004KT CAVOK 21/18 A3000 RMK BKN120 CB DST SW NOSIG=
201108061300 METAR MROC 061300Z 05005KT CAVOK 21/18 A3002 RMK BKN120 TCU DST SW W NOSIG=
201108061400 METAR MROC 061400Z 00000KT CAVOK 23/18 A3004 RMK BKN120 CB DST SW NOSIG=
201108061500 METAR MROC 061500Z 10008KT CAVOK 24/19 A3003 RMK FEW129 SCT250 NOSIG=
201108061600 METAR MROC 061600Z 08007KT CAVOK 28/20 A3001 RMK FEW120 SCT250 CB DST SW NOSIG=
201108061700 METAR MROC 061700Z 12008KT CAVOK 29/19 A3001 RMK SCT300 NOSIG=
201108061800 METAR MROC 061800Z 13006KT 9999 FEW045 SCT250 30/19 A2999 NOSIG=
201108061900 METAR MROC 061900Z 10008KT 9999 FEW040 SCT250 30/20 A2997 NOSIG=
201108062000 METAR MROC 062000Z 11005KT 9999 SCT035 BKN250 29/19 A2996 NOSIG=
201108062100 METAR MROC 062100Z 20010KT 9999 SCT030 BKN110 27/24 A2994 BECMG 8000 VCSH=
201108062200 METAR MROC 062200Z 23006KT 7000 BCFG SCT008TCU BKN020 25/25 A2995 BECMG 2000 BR=
201108062300 METAR MROC 062300Z 00000KT 7000 BCFG FEW006 SCT010TCU BKN110 24/24 A2996 NOSIG=
201108070000 METAR MROC 070000Z 10003KT 9999 FEW006 SCT025 BKN120 23/23 A2997 NOSIG=
201108070100 METAR MROC 070100Z 07006KT 9999 SCT025 BKN130 24/18 A2999 NOSIG=
201108070200 METAR MROC 070200Z 12011KT 9999 FEW030 SCT250 23/19 A3000 NOSIG=
201108070300 METAR MROC 070300Z 08007KT CAVOK 22/19 A3002 RMK SCT250 VEL MAX VTO 12KT NOSIG=
201108070400 METAR MROC 070400Z 06003KT CAVOK 22/18 A3003 RMK SCT250 NOSIG=
201108070500 METAR MROC 070500Z 08004KT CAVOK 22/19 A3003 RMK SCT250 NOSIG=
201108070600 METAR MROC 070600Z 08005KT CAVOK 21/18 A3002 RMK SCT250 LTNG DST S NOSIG=
201108070700 METAR MROC 070700Z 08006KT CAVOK 21/18 A3000 RMK SCT250 NOSIG=
201108070800 METAR MROC 070800Z 13006KT CAVOK 22/18 A2999 RMK SCT250 NOSIG=
201108070900 METAR MROC 070900Z 11006KT CAVOK 22/18 A2998 RMK SCT250 LTNG DST S NOSIG=
201108071000 METAR MROC 071000Z 13008KT CAVOK 22/18 A2998 RMK SCT250 LTNG DST S NOSIG=
201108071100 METAR MROC 071100Z 12005KT CAVOK 22/18 A2999 RMK SCT250 NOSIG=
201108071200 METAR MROC 071200Z 09005KT CAVOK 21/19 A3000 RMK SCT250 CB DST S SW NOSIG=
201108071300 METAR MROC 071300Z 07006KT CAVOK 24/19 A3002 RMK TCU DSR SW BKN250 NOSIG=
201108071400 METAR MROC 071400Z 06003KT CAVOK 27/20 A3002 RMK TCU DST SW BKN250 BECMG 24006KT=
201108071500 METAR MROC 071500Z 09006KT 9999 FEW035 BKN250 28/18 A3002 RMK BECMG 24006KT=
201108071600 METAR MROC 071600Z 08011KT 9999 FEW035 BKN250 29/18 A3002 NOSIG=
201108071700 METAR MROC 071700Z 22006KT 9999 BKN030 30/21 A3003 NOSIG=
201108071800 METAR MROC 071800Z 23008KT 9999 SCT030 BKN120 27/22 A3001 NOSIG=
201108071900 METAR MROC 071900Z 23009KT 9999 FEW020TCU SCT030 BKN120 28/23 A3000 RMK BECMG 8000 VCSH=
201108072000 METAR MROC 072000Z 24010KT 9999 FEW020TCU SCT030 BKN120 27/24 A2996 NOSIG=
201108072100 METAR MROC 072100Z 23008KT 9999 FEW020TCU FEW030 BKN200 27/24 A2994 NOSIG=
201108072200 METAR MROC 072200Z 22008KT 5000 -RA BR VCTS FEW002 SCT012CB SCT020 24/24 A2994 RETSRA RMK VIS E UNL NOSIG=
201108072300 METAR MROC 072300Z 22006KT 5000 RA BR FEW002 SCT008 BKN015 23/23 A2996 BECMG 3000 -RA BR=
201108080000 METAR MROC 080000Z 27007KT 5000 BR VCTS FEW002 SCT010CB 22/22 A3000 RMK CB RN QUAD W VIS E UNL NOSIG=
201108080100 METAR MROC 080100Z 30002KT 9999 FEW001 BKN040 20/20 A3003 RMK LGTNG ARND FEW008 FEW018 NOSIG=
201108080200 METAR MROC 080200Z 00000KT 9999 FEW020 BKN120 20/20 A3004 RMK LTNG N W S NOSIG=
201108080300 METAR MROC 080300Z 29003KT 9999 DZ FEW020 BKN090 20/20 A3004 RMK LTNG N NW NOSIG=
201108080400 METAR MROC 080400Z 00000KT 9999 SCT020 SCT100 21/21 A3006 NOSIG=
201108080500 METAR MROC 080500Z 07002KT 9999 FEW025 SCT100 21/20 A3004 NOSIG=
201108080600 METAR MROC 080600Z 08004KT 9999 FEW035 SCT120 21/21 A3003 NOSIG=
201108080700 METAR MROC 080700Z 06004KT 9999 FEW020 SCT120 20/20 A3000 NOSIG=
201108080800 METAR MROC 080800Z 00000KT 9999 FEW015 SCT120 20/20 A2998 NOSIG=
201108080900 METAR MROC 080900Z 00000KT 9999 FEW015 SCT120 19/19 A2998 NOSIG=
201108081000 METAR MROC 081000Z 00000KT CAVOK 19/19 A2998 RMK SCT120 NOSIG=
201108081100 METAR MROC 081100Z 09006KT CAVOK 21/19 A3001 RMK SCT120 SCT250 NOSIG=
201108081200 METAR MROC 081200Z 00000KT CAVOK 20/19 A3002 RMK SCT250 NOSIG=
201108081300 METAR MROC 081300Z 09005KT CAVOK 23/19 A3004 NOSIG=
201108081400 METAR MROC 081400Z 12005KT CAVOK 25/20 A3003 NOSIG=
201108081500 METAR MROC 081500Z 11006KT CAVOK 27/19 A3004 BECMG 24006KT=
201108081600 METAR MROC 081600Z 27009KT CAVOK 28/22 A3004 NOSIG=
201108081700 METAR MROC 081700Z 24009KT 9999 FEW020 BKN250 27/21 A3006 RMK CB DST N E FEW090 NOSIG=
201108081800 METAR MROC 081800Z 24010KT 9999 FEW020TCU SCT030 SCT250 27/23 A3004 RMK CB DST N NOSIG=
201108081900 METAR MROC 081900Z 25008KT 9999 BKN020TCU FEW100 27/23 A3001 BECMG VCSH=
201108082000 METAR MROC 082000Z 25009KT 9999 FEW020TCU BKN030 26/23 A3000 RMK RN DST E FEW200 BECMG VCSH=
201108082100 METAR MROC 082100Z 24008KT 9999 FEW010TCU BKN030 25/23 A2998 NOSIG=
201108082200 METAR MROC 082200Z 25006KT 9999 FEW010 BKN030 24/23 A2998 RMK HZ ARND NOSIG=
201108082300 METAR MROC 082300Z 24005KT 9999 FEW010 BKN030 23/23 A2998 RMK HZ ARND NOSIG=
201108090000 METAR MROC 090000Z 00000KT BCFG FEW001 SCT005 BKN030 23/23 A3001 RMK HZ ARND NOSIG=
201108090100 METAR MROC 090100Z 00000KT 7000 BCFG FEW001 SCT005 BKN030 22/22 A3003 RMK HZ ARND NOSIG=
201108090200 METAR MROC 090200Z 00000KT 9999 2000SW BR FEW001 SCT005 22/22 A3003 RMK HZ ARND NOSIG=
201108090300 METAR MROC 090300Z 31004KT 7000 3000W BR FEW004 SCT010 BKN100 22/22 A3005 BECMG 3000 BR=
201108090400 METAR MROC 090400Z 00000KT 9999 3000W BR FEW003 21/21 A3005 RMK FEW030 NOSIG=
201108090500 METAR MROC 090500Z 00000KT 9999 3000W BR FEW002 21/21 A3005 NOSIG=
201108090600 METAR MROC 090600Z 05006KT CAVOK 21/20 A3004 NOSIG=
201108090700 METAR MROC 090700Z 05009KT CAVOK 22/19 A3003 NOSIG=
201108090800 METAR MROC 090800Z 07006KT CAVOK 21/19 A3001 NOSIG=
201108090900 METAR MROC 090900Z 04005KT CAVOK 21/19 A3001 NOSIG=
201108091000 METAR MROC 091000Z 00000KT CAVOK 21/19 A2999 NOSIG=
201108091100 METAR MROC 091100Z 05005KT CAVOK 20/18 A3000 NOSIG=
201108091200 METAR MROC 091200Z 05003KT CAVOK 20/18 A3001 NOSIG=
201108091300 METAR MROC 091300Z 00000KT CAVOK 23/19 A3002 BECMG 09007KT=
201108091400 METAR MROC 091400Z 27008KT CAVOK 24/21 A3003 NOSIG=
201108091500 METAR MROC 091500Z 26006KT CAVOK 26/21 A3001 RMK FEW250 NOSIG=
201108091600 METAR MROC 091600Z 25009KT 9999 FEW040 SCT250 27/22 A3003 NOSIG=
201108091700 METAR MROC 091700Z 23006KT 9999 FEW040 SCT250 27/23 A3002 NOSIG=
201108091800 METAR MROC 091800Z 24011KT 9999 SCT030 SCT250 27/23 A3001 NOSIG=
201108091900 METAR MROC 091900Z 25011KT 9999 SCT030 SCT250 26/24 A2999 NOSIG=
201108092000 METAR MROC 092000Z 25010KT 9999 SCT030 SCT250 26/23 A2998 RMK HZ ARND NOSIG=
201108092100 METAR MROC 092100Z 25009KT 9999 FEW015TCU SCT025 BKN250 25/23 A2998 BECMG VCSH=
201108092200 METAR MROC 092200Z 25008KT 9999 FEW012 BKN025 25/24 A2998 RMK PCPN DST SW W BECMG 8000 VCSH=
201108092300 METAR MROC 092300Z 25006KT 9999 VCSH FEW006 SCT012TCU BKN025 24/23 A3000 RMK VIS SSW SW 8KMS BECMG 8000 -RA=
201108100000 METAR MROC 100000Z 26007KT 8000 VCFG SCT005 BKN020 22/22 A3001 BECMG 5000 BR=
201108100100 METAR MROC 100100Z 00000KT 9999 FEW005 SCT015 BKN025 22/22 A3001 NOSIG=
201108100200 METAR MROC 100200Z 00000KT 9999 BCFG FEW004 SCT012 BKN025 22/22 A3002 NOSIG=
201108100300 METAR MROC 100300Z 00000KT 9999 BCFG FEW004 SCT012 BKN030 21/21 A3003 NOSIG=
201108100400 METAR MROC 100400Z 00000KT 9999 BCFG FEW004 SCT020 BKN030 21/21 A3004 NOSIG=
201108100500 METAR MROC 100500Z 00000KT 9999 5000SW BR FEW001 SCT020 BKN080 21/21 A3003 RMK SCTD FG BANKS QUAD S W NOSIG=
201108100600 METAR MROC 100600Z 00000KT CAVOK 21/21 A3002 NOSIG=
201108100700 METAR MROC 100700Z 12006KT CAVOK 23/19 A3001 NOSIG=
201108100800 METAR MROC 100800Z 12003KT CAVOK 22/19 A2998 NOSIG=
201108100900 METAR MROC 100900Z 00000KT CAVOK 21/19 A2998 NOSIG=
201108101000 METAR MROC 101000Z 11006KT CAVOK 23/19 A2997 NOSIG=
201108101100 METAR MROC 101100Z 12009KT 9999 FEW012 SCT250 23/19 A2999 RMK CB DST E FEW120 NOSIG=
201108101200 METAR MROC 101200Z 12009KT 9999 FEW012 SCT250 23/19 A2999 RMK CB DST NE FEW120 NOSIG=
201108101300 METAR MROC 101300Z 12010KT 9999 FEW030 SCT250 24/19 A3000 NOSIG=
201108101400 METAR MROC 101400Z 15008KT 9999 FEW030 SCT250 26/19 A3001 RMK VEL MAX VTO 12KT CB DST SSW ENE NOSIG=
201108101500 METAR MROC 101500Z 10010KT 9999 FEW035 SCT250 28/17 A3001 RMK CB DST SW VEL MAX VTO 16KT NOSIG=
201108101600 METAR MROC 101600Z 10009KT 9999 FEW040 SCT250 29/17 A3001 RMK VEL MAX 13KT NOSIG=
201108101700 METAR MROC 101700Z 10007KT 9999 FEW040 SCT150 BKN250 29/18 A3002 RMK VEL MAX VTO 14KT NOSIG=
201108101800 METAR MROC 101800Z 06013KT 9999 FEW035 SCT120 BKN200 27/18 A3001 RMK VEL MAX VTO 19KT NOSIG=
201108101900 METAR MROC 101900Z 09007KT 9999 FEW030 SCT100 BKN250 25/19 A2999 RMK PCPN DST ENE NE=
201108102000 METAR MROC 102000Z 13006KT 9999 FEW030 BKN100 25/19 A2993 RMK PCPN DST ENE NOSIG=
201108102100 METAR MROC 102100Z 10009KT CAVOK 25/17 A2992 RMK SCT100 SCT120 NOSIG=
201108102200 METAR MROC 102200Z 13009KT CAVOK 26/17 A2992 RMK SCT120 BKN250 NOSIG=
201108102300 METAR MROC 102300Z 13009KT CAVOK 25/17 A2995 RMK SCT120 BKN250 NOSIG=
201108110000 METAR MROC 110000Z 14007KT CAVOK 24/18 A2995 RMK SCT120 BKN250 NOSIG=
201108110100 METAR MROC 110100Z 14004KT CAVOK 23/18 A2996 RMK SCT120 BKN250 NOSIG=
201108110200 METAR MROC 110200Z 00000KT CAVOK 22/18 A2999 RMK SCT120 BKN250 NOSIG=
201108110300 METAR MROC 110300Z 00000KT CAVOK 21/21 A3002 RMK SCT120 BKN250 NOSIG=
201108110400 METAR MROC 110400Z 00000KT CAVOK 21/19 A3003 RMK FEW120 LTNG DST S SW NOSIG=
201108110500 METAR MROC 110500Z 05005KT CAVOK 20/19 A3003 RMK FEW120 BKN250 LTNG DST S SW NOSIG=
201108110600 METAR MROC 110600Z 12005KT CAVOK 21/19 A3000 RMK SCT120 BKN250 LTNG DST S NOSIG=
201108110700 METAR MROC 110700Z 13006KT CAVOK 22/19 A3000 RMK SCT120 SCT250 LTNG DST S NOSIG=
201108110800 METAR MROC 110800Z 00000KT CAVOK 21/19 A2996 RMK SCT120 SCT250 LTNG DST SW NOSIG=
201108110900 METAR MROC 110900Z 00000KT CAVOK 20/20 A2999 RMK SCT120 SCT250 NOSIG=
201108111000 METAR MROC 111000Z 00000KT CAVOK 20/20 A2999 RMK SCT120 SCT250 NOSIG=
201108111100 METAR MROC 111100Z 00000KT CAVOK 19/19 A2998 RMK SCT120 SCT250 NOSIG=
201108111200 METAR MROC 111200Z 00000KT CAVOK 19/19 A2999 RMK FEW130 BKN250 NOSIG=
201108111300 METAR MROC 111300Z 00000KT CAVOK 21/19 A3000 RMK BKN250 NOSIG=
201108111400 METAR MROC 111400Z 00000KT CAVOK 23/19 A3000 RMK BKN250 NOSIG=
201108111500 METAR MROC 111500Z 13009KT CAVOK 27/19 A2998 RMK SCT120 BKN250=
201108111600 METAR MROC 111600Z 10009KT CAVOK 28/18 A2998 RMK BKN250 NOSIG=
201108111700 METAR MROC 111700Z 12004KT 9999 FEW035 BKN250 28/19 A2998 RMK FEW120 NOSIG=
201108111800 METAR MROC 111800Z 26008KT 9999 SCT035 SCT100 26/22 A2999 NOSIG=
201108111900 METAR MROC 111900Z 25006KT 9999 VCSH SCT030 SCT100 25/23 A2999 RMK VIS 7000NW HZ DST N NOSIG=
201108112000 METAR MROC 112000Z 26007KT 9999 SCT030 BKN120 25/23 A2997 RMK HZ SW W N NW NOSIG=
201108112100 METAR MROC 112100Z 23008KT 9999 SCT025 BKN250 25/23 A2994 RMK HZ ARND NOSIG=
201108112200 METAR MROC 112200Z 26007KT 9999 FEW015 BKN200 25/23 A2991 RMK FEW040 HZ LGT ARND NOSIG=
201108112300 METAR MROC 112300Z 24010KT 8000 VCFG SCT005 BKN015 22/22 A2993 BECMG 2000 BR=
201108120000 METAR MROC 120000Z 26005KT 8000 VCFG SCT005 BKN015 22/22 A2997 BECMG 8000 -RA VCFG=
201108120100 METAR MROC 120100Z 28008KT 8000 VCFG FEW005 SCT015 BKN100 21/21 A2999 RMK BECMG 4000 BR=
201108120200 METAR MROC 120200Z 00000KT 9999 FEW007 SCT020 BKN100 21/21 A3002 NOSIG=
201108120300 METAR MROC 120300Z 00000KT 9999 FEW005 SCT020 BKN120 21/21 A3003 NOSIG=
201108120400 METAR MROC 120400Z 00000KT 9999 SCT020 SCT120 21/21 A3004 NOSIG=
201108120500 METAR MROC 120500Z 00000KT 9999 FEW020 SCT120 BKN250 20/20 A3002 NOSIG=
201108120600 METAR MROC 120600Z 21003KT 9999 FEW003 BKN120 20/20 A3001 NOSIG=
201108120700 METAR MROC 120700Z 00000KT 8000 VCFG FEW005 BKN120 20/20 A3000 RMK VIS SE S UNLTD NOSIG=
201108120800 METAR MROC 120800Z 00000KT 9999 FEW010 BKN120 20/20 A2999 NOSIG=
201108120900 METAR MROC 120900Z 00000KT 9999 FEW015 SCT120 20/20 A2998 NOSIG=
201108121000 METAR MROC 121000Z 00000KT 9999 SCT015 SCT250 20/20 A2999 RMK HAZY NOSIG=
201108121100 METAR MROC 121100Z 00000KT 9999 FEW015 BKN100 19/19 A3000 RMK HAZY NOSIG=
201108121200 METAR MROC NIL=
201108121300 METAR MROC 121300Z 08006KT 9999 BCFG FEW003 BKN120 21/19 A3002 RMK VIS 6KM SW W NOSIG=
201108121400 METAR MROC 121400Z 07004KT CAVOK 23/19 A3001 RMK FEW100 BKN130 NOSIG=
201108121500 METAR MROC 121500Z 13005KT CAVOK 25/18 A3001 RMK FEW100 BKN130 NOSIG=
201108121600 METAR MROC 121600Z 14005KT CAVOK 27/18 A3001 RMK FEW100 BKN250 BECMG 24006KT=
201108121700 METAR MROC 121700Z 16005KT 9999 FEW035 SCT120 BKN250 29/16 A3000 BECMG 24006KT=
201108121800 METAR MROC 121800Z 10005KT 9999 SCT035 BKN250 30/17 A2998 BECMG 24006KT=
201108121900 METAR MROC 121900Z 22005KT 9999 SCT020TCU BKN250 26/23 A2996 RMK RA DST E BECMG 8000 VCSH=
201108122000 METAR MROC 122000Z 26006KT 9999 VCSH SCT020TCU BKN120 24/20 A2996 BECMG SHRA=
201108122100 METAR MROC 122100Z 35006G17KT 9999 RA FEW020 BKN035 20/18 A2996 RMK CB DST ARND BECMG 7000 SHRA VCTS=
201108122200 METAR MROC 122200Z 13006KT 9999 -RA FEW015 BKN130 22/18 A2996 RMK CB DST QUAD W N FEW070 NOSIG=
201108122300 METAR MROC 122300Z 00000KT 9999 FEW015 BKN130 21/21 A2998 RMK CB DST QUAD W NOSIG=
201108122354 METAR MROC 130000Z 06006KT 9999 -RA NSC 22/20 A2998 RMK CB DST QUAD S W NOSIG=
201108130000 METAR MROC 130000Z 06006KT 9999 -RA NSC 22/20 A2998 RMK CB DST QUAD S W NOSIG=
201108130100 METAR MROC 130100Z 00000KT 9999 -RA NSC 21/20 A3000 RMK CB DST QUAD W NOSIG=
201108130200 METAR MROC 130200Z 24003KT 9999 -DZ BCFG FEW001 OVC100 20/20 A3002 RMK SCTD FG BANKS SE SW W NOSIG=
201108130300 METAR MROC 130300Z 11003KT 9999 4500SW BR FEW003 BKN100 20/20 A3003 NOSIG=
201108130400 METAR MROC 130400Z 00000KT CAVOK 20/20 A3003 RMK OVC100 NOSIG=
201108130500 METAR MROC 130500Z 00000KT CAVOK 20/20 A3003 RMK SCT120 BKN250 NOSIG=
201108130600 METAR MROC 130600Z 00000KT CAVOK 20/20 A3001 RMK FEW120 SCT250 NOSIG=
201108130700 METAR MROC 130700Z 07008KT CAVOK 19/18 A2999 RMK FEW120 BKN250 NOSIG=
201108130800 METAR MROC NIL=
201108130829 METAR MROC 130829Z 09002KT CAVOK 18/17 A2998 RMK SCT250 NOSIG=
201108130900 METAR MROC 130900Z 00000KT CAVOK 19/17 A2997 RMK SCT250 NOSIG=
201108130952 METAR MROC 141000Z 07010KT CAVOK 19/17 A2996 NOSIG=
201108131000 METAR MROC NIL=
201108131100 METAR MROC 131100Z 07007KT CAVOK 19/17 A2996 NOSIG=
201108131200 METAR MROC 131200Z 10006KT CAVOK 20/17 A2998 RMK FEW120 BKN250 CB DST SSW W NOSIG=
201108131300 METAR MROC 131300Z 09006KT CAVOK 21/18 A2999 RMK CB DST QUAD N W NOSIG=
201108131400 METAR MROC 131400Z 00000KT CAVOK 22/19 A3001 RMK CB DST QUAD W N BECMG 24007KT=
201108131500 METAR MROC 131500Z 00000KT CAVOK 25/20 A3000 RMK CB DST QUAD W N BECMG 24006KT=
201108131600 METAR MROC 131600Z 22006KT CAVOK 26/20 A3001 RMK CB DST QUAD W N NOSIG=
201108131700 METAR MROC 131700Z 25010KT 9999 FEW040 BKN250 26/21 A3000 RMK CB DST ARND NOSIG=
201108131800 METAR MROC 131800Z 26009KT 9999 FEW012TCU BKN040 26/22 A2999 RMK RN DST E CB DST ARND FEW120 BECMG VCSH=
201108131900 METAR MROC 131900Z 20009KT 9999 +TSRA FEW008CB SCT035 SCT120 24/21 A2997 RMK VIS NE 8KM BECMG 5000 +TSRA BR=
201108132000 METAR MROC 132000Z 04004KT 9999 -TSRA FEW010CB SCT035 SCT120 22/21 A2996 RMK CB ARND NOSIG=
201108132100 METAR MROC 132100Z 25006KT 9999 FEW003 SCT020 BKN100 22/21 A2994=
201108132200 METAR MROC 132200Z 17007KT 5000 +TS RA BR FEW001 SCT010CB BKN100 21/21 A2995 BECMG 2000 RA BR=
201108132300 METAR MROC 132300Z 31003KT 3000 -TSRA BR FEW001 FEW010CB BKN030 20/20 A2998 BECMG 2000 -RA BR=
201108140000 METAR MROC 140000Z 00000KT 5000 -RA BR FEW001 SCT030 BKN100 19/19 A2999=
201108140100 METAR MROC 140100Z 00000KT 8000 VCFG -RA FEW002 SCT030 OVC100 19/19 A3000 NOSIG=
201108140200 METAR MROC 140200Z 00000KT 9999 DZ FEW030 BKN100 20/20 A3000 NOSIG=
201108140300 METAR MROC 140300Z 00000KT 9999 3000W BR FEW003 SCT100 BKN250 19/19 A3000 BECMG 4000 -RA BR=
201108140400 METAR MROC 140400Z 27003KT 1200 BR SCT002 SCT100 BKN250 19/19 A3002 BECMG 4000 BR=
201108140500 METAR MROC 140500Z 29003KT 8000 VCFG FEW005 SCT100 19/19 A3002 NOSIG=
201108140600 METAR MROC 140600Z 00000KT 9999 SCT010 BKN100 19/19 A3001 NOSIG=
201108140700 METAR MROC 140700Z 00000KT 9999 SCT015 BKN100 19/19 A2999 NOSIG=
201108140800 METAR MROC 140800Z 00000KT 9999 SCT015 BKN100 19/19 A2997 NOSIG=
201108140900 METAR MROC 140900Z 07005KT 9999 SCT015 BKN100 19/19 A2995 NOSIG=
201108141000 METAR MROC 141000Z 07005KT CAVOK 19/19 A2995 RMK SCT060 BKN120 NOSIG=
201108141100 METAR MROC 141100Z 00000KT CAVOK 19/19 A2995 RMK SCT060 BKN120 NOSIG=
201108141200 METAR MROC 141200Z 00000KT CAVOK 19/19 A2997 RMK SCT080 BKN120 NOSIG=
201108141300 METAR MROC 141300Z 00000KT CAVOK 20/20 A2999 RMK BKN100 HZ ARND NOSIG=
201108141400 METAR MROC 141400Z 26003KT CAVOK 21/20 A3000 RMK BKN120 HZ S SW NOSIG=
201108141500 METAR MROC 141500Z 00000KT CAVOK 22/20 A3001 RMK SCT120 BKN250 BECMG 22005KT=
201108141600 METAR MROC 141600Z 20003KT CAVOK 25/20 A3001 RMK SCT120 BKN250 BECMG 22006KT=
201108141700 METAR MROC 141700Z 24007KT 9999 FEW040 SCT120 BKN250 26/21 A3001 NOSIG=
201108141800 METAR MROC 141800Z 24008KT 9999 SCT040 SCT250 26/22 A2997 NOSIG=
201108141900 METAR MROC 141900Z 22009KT 9999 SCT030 SCT250 26/22 A2995 NOSIG=
201108142000 METAR MROC 142000Z 23010KT 210V270 9999 BKN030 26/22 A2992 RMK RA S BECMG 8000 VCSH=
201108142100 METAR MROC 142100Z 33004KT 6000 2000N -SHRA SCT010CB SCT025 21/20 A2993 BECMG 3000 SHRA=
201108142200 METAR MROC 142200Z 24006KT 4000 -SHRA VCTS SCT012 BKN025 19/19 A2996 NOSIG=
201108142300 METAR MROC 142300Z 00000KT 8000 -RA SCT015 BKN100 20/20 A2997 RMK VIS SE S UNLIMITED NOSIG=
201108150000 METAR MROC 150000Z 09008KT 9999 -RA OVC100 20/20 A2996 NOSIG=
201108150100 METAR MROC 150100Z 12007KT 9999 -RA OVC100 20/20 A2996 NOSIG=
201108150200 METAR MROC 150200Z 25004KT 9999 -RA OVC120 20/20 A3000 NOSIG=
201108150300 METAR MROC 150300Z 31002KT 9999 FEW002 BKN120 19/19 A3001 NOSIG=
201108150400 METAR MROC 150400Z 00000KT 9999 FEW002 BKN120 19/19 A3003 NOSIG=
201108150500 METAR MROC 150500Z 00000KT CAVOK 19/19 A3003 NOSIG=
201108150600 METAR MROC 150600Z 12004KT CAVOK 19/19 A3001 NOSIG=
201108150700 METAR MROC 150700Z 06003KT CAVOK 18/18 A3000 RMK LGTNG SW NOSIG=
201108150800 METAR MROC 150800Z 04005KT CAVOK 18/18 A2997 NOSIG=
201108150900 METAR MROC 150900Z 00000KT CAVOK 18/18 A2997 NOSIG=
201108151000 METAR MROC 151000Z 00000KT CAVOK 18/18 A2997 NOSIG=
201108151100 METAR MROC 151100Z 00000KT CAVOK 18/18 A2997 NOSIG=
201108151200 METAR MROC 151200Z 09005KT CAVOK 18/18 A2997 NOSIG=
201108151300 METAR MROC 151300Z 09004KT CAVOK 21/19 A2997 RMK SCT120 BKN250 NOSIG=
201108151400 METAR MROC 151400Z 13007KT CAVOK 23/19 A2998 RMK SCT120 BKN250 CB DST S NOSIG=
201108151500 METAR MROC 151500Z 11005KT 9999 FEW030 BKN250 26/19 A2999 RMK CB DST S NOSIG=
201108151600 METAR MROC 151600Z 11006KT 9999 FEW030 SCT120 BKN250 28/18 A3000 NOSIG=
201108151700 METAR MROC 151700Z 14005KT 9999 SCT035 SCT120 27/18 A3000 BECMG 24006KT=
201108151800 METAR MROC 151800Z 25009KT 9999 SCT030 SCT120 26/22 A2998 NOSIG=
201108151900 METAR MROC 151900Z 25009KT 9999 SCT030 BKN250 27/22 A2995 RMK TCU DST S W NOSIG=
201108152000 METAR MROC 152000Z 26010KT 9999 VCSH FEW015TCU SCT025 26/22 A2992 RMK VIS NE 8KMS BECMG 5000 SHRA=
201108152100 METAR MROC 152100Z 21007KT 9999 2000SW TSRA FEW010CB SCT025 BKN090 20/20 A2993 NOSIG=
201108152156 METAR MROC 152156Z 00000KT 5000 2000SW -RA BR SCT003 BKN090 20/20 A2995 NOSIG=
201108152200 METAR MROC 152200Z 00000KT 5000 2000SW -RA BR SCT003 BKN090 20/20 A2995 NOSIG=
201108152300 METAR MROC 152300Z 25003KT 4000 RA BR SCT003 BKN090 20/20 A2997 NOSIG=
201108160000 METAR MROC 160000Z 00000KT 5000 2000SW RA BR SCT003 BKN020 20/20 A2999 BECMG 6000 -RA=
201108160100 METAR MROC 160100Z 00000KT 9999 -RA FEW030 BKN100 20/20 A3001 NOSIG=
201108160200 METAR MROC 160200Z 00000KT 9999 -RA FEW030 OVC100 20/20 A3004 NOSIG=
201108160300 METAR MROC 160300Z 08004KT 9999 RA FEW030 OVC100 19/19 A3006 NOSIG=
201108160400 METAR MROC 160400Z 00000KT CAVOK 20/20 A3007 RMK BKN110 NOSIG=
201108160500 METAR MROC 160500Z VRB02KT CAVOK 20/20 A3006 RMK BKN110 NOSIG=
201108160600 METAR MROC 160600Z 00000KT 0500 R07/0200 FG FEW001 SCT250 19/19 A3004 NOSIG=
201108160700 METAR MROC 160700Z 09004KT CAVOK 19/19 A3000 RMK SCT120 BKN250 NOSIG=
201108160800 METAR MROC 160800Z 07008KT CAVOK 19/19 A2996 RMK SCT120 BKN250 NOSIG=
201108160900 METAR MROC 160900Z 08006KT CAVOK 19/19 A2995 RMK SCT120 BKN250 NOSIG=
201108161000 METAR MROC 161000Z 09003KT CAVOK 20/18 A2995 RMK SCT120 BKN250 NOSIG=
201108161100 METAR MROC 161100Z 00000KT CAVOK 19/18 A2997 RMK FEW120 SCT250 NOSIG=
201108161200 METAR MROC 161200Z 00000KT CAVOK 20/16 A3000 RMK FEW120 SCT250 NOSIG=
201108161300 METAR MROC 161300Z 06004KT CAVOK 21/18 A3003 RMK FEW120 SCT250=
201108161400 METAR MROC 161400Z 08003KT CAVOK 23/18 A3004 RMK FEW120 SCT250 CB DST SW NOSIG=
201108161500 METAR MROC 161500Z 03003KT CAVOK 26/19 A3005 RMK BKN250 BECMG 24007KT=
201108161600 METAR MROC 161600Z 14007KT CAVOK 26/18 A3005 RMK BKN250 NOSIG=
201108161700 METAR MROC 161700Z 14007KT 9999 FEW035 BKN250 27/19 A3004 RMK BKN250 NOSIG=
201108161800 METAR MROC 161800Z 25006KT 9999 FEW025 BKN040 25/22 A3002 RMK BKN250=
201108161900 METAR MROC 161900Z 23009KT 9999 FEW015CB SCT025 BKN035 24/23 A3001 RMK RN DST SSW NW BECMG 6000 VCSH=
201108162000 METAR MROC 162000Z 22010KT 9999 VCSH SCT020TCU BKN030 23/22 A2999 RMK VIS 8000 N NE BECMG 6000 -SHRA=
201108162100 METAR MROC 162100Z 26008KT 8000 VCSH SCT015TCU BKN030 23/22 A2999 BECMG 6000 -SHRA=
201108162200 METAR MROC 162200Z VRB02KT 0200 TSRA FG FEW001 SCT006CB BKN010 20/20 A3001 NOSIG=
201108162300 METAR MROC 162300Z VRB02KT 4000 -RA BR FEW003 SCT015 BKN100 20/20 A3001=
201108162350 METAR MROC 170000Z VRB02KT 9999 BCFG SCT020 BKN100 20/20 A3001 NOSIG=
201108170000 METAR MROC 170000Z VRB02KT 9999 BCFG SCT020 BKN100 20/20 A3001 NOSIG=
201108170100 METAR MROC 170100Z 05005KT 9999 BCFG FEW035 SCT100 21/21 A3002 NOSIG=
201108170200 METAR MROC 170200Z 00000KT 9999 BCFG FEW001 SCT035 20/20 A3004 NOSIG=
201108170300 METAR MROC 170300Z 00000KT 6000 2000NE BR FEW001 SCT004 20/20 A3004 RMK VIS S SSE UNL NOSIG=
201108170400 METAR MROC 170400Z 09005KT 9999 BCFG FEW004 SCT030 19/19 A3004 RMK FG BANK VIS 7KMS TO S SW NOSIG=
201108170500 METAR MROC 170500Z 06005KT CAVOK 19/19 A3003 RMK OVC120 NOSIG=
201108170600 METAR MROC 170600Z 08006KT CAVOK 20/19 A3003 RMK SCT120 BKN250 NOSIG=
201108170700 METAR MROC 170700Z 10006KT CAVOK 21/19 A3002 RMK SCT120 BKN250 NOSIG=
201108170800 METAR MROC 170800Z 03004KT CAVOK 20/18 A3001 RMK FEW120 BKN250 NOSIG=
201108170900 METAR MROC 170900Z 09008KT 9999 FEW030 SCT120 20/19 A2999 RMK LTNG DST ENE S NOSIG=
201108171000 METAR MROC 171000Z 06004KT 9999 FEW030 SCT120 20/18 A3000 NOSIG=
201108171100 METAR MROC 171100Z 06008KT 9999 FEW030 SCT120 19/18 A3001 RMK CB DST S NOSIG=
201108171200 METAR MROC 171200Z 08006KT 9999 FEW030 SCT120 20/18 A3003 RMK CB DST S SW NOSIG=
201108171300 METAR MROC 171300Z 00000KT CAVOK 23/18 A3003 RMK SCT120 FEW250 BECMG 24006KT=
201108171400 METAR MROC 171400Z VRB02KT 9999 FEW030 SCT080 SCT250 24/20 A3005 RMK CB DST SW BECMG 24006KT=
201108171500 METAR MROC 171500Z 26007KT 9999 FEW025 BKN100 23/20 A3008 NOSIG=
201108171600 METAR MROC 171600Z 27004KT 9999 SCT020 SCT150 23/21 A3008 NOSIG=
201108171700 METAR MROC 171700Z 24003KT 9999 VCSH SCT015 BKN100 25/21 A3006 BECMG -SHRA=
201108171800 METAR MROC 171800Z 21005KT 9999 SCT025 BKN180 26/22 A3003 NOSIG=
201108171900 METAR MROC 171900Z 27008KT 9999 FEW020TCU SCT040 26/22 A3000 RMK FEW180 BECMG -SHRA=
201108172000 METAR MROC 172000Z 26005KT 8000 -TSRA FEW010CB BKN035 24/21 A2999 BECMG 5000 -TSRA BKN020=
201108172100 METAR MROC 172100Z 27006KT 9999 5000SW -DZ BR FEW010CB SCT020 BKN025 22/22 A2998 BECMG 4000 DZ BR=
201108172200 METAR MROC 172200Z 24005KT 5000 -SHRA BR FEW001 FEW008CB BKN020 22/22 A2999 RMK VIS S 3KM BECMG 2000 SHRA BR=
201108172242 METAR MROC 172242Z 25006KT 0800 R07/0500 FG SCT001 BKN010 21/21 A3001 NOSIG=
201108172300 METAR MROC 172300Z 26005KT 2000 BR SCT001 BKN010 21/21 A3000 NOSIG=
201108172353 METAR MROC 180000Z 00000KT 4000 BR FEW001 SCT010 21/21 A2999 RMK VIS E UNL SCT100 CB DST ARND BECMG 3000 BR=
201108180000 METAR MROC 180000Z 00000KT 4000 BR FEW001 SCT010 21/21 A2999 RMK VIS E UNL SCT100 CB DST ARND BECMG 3000 BR=
201108180100 METAR MROC 180100Z 00000KT 9999 BCFG FEW001 SCT100 21/21 A3000 RMK FEW008 LGTNG DST E VIS 6KM SW W FG BANKS=
201108180200 METAR MROC 180200Z 10003KT 9999 FEW008 SCT100 22/20 A3001 NOSIG=
201108180300 METAR MROC 180300Z 09003KT CAVOK 22/20 A3003 NOSIG=
201108180400 METAR MROC 180400Z 00000KT 9999 VCFG FEW003 20/20 A3005 RMK VIS 8000 SW W NOSIG=
201108180500 METAR MROC 180500Z 29003KT 9999 4500SW BR FEW003 SCT007 20/20 A3004 NOSIG=
201108180600 METAR MROC 180600Z 00000KT 0800 FG SCT001 BKN003 20/20 A3003 BECMG 2000 BR=
201108180700 METAR MROC 180700Z 00000KT 2000 R07/0100 BR FEW001 SCT005 20/20 A3000 BECMG 5000 BR=
201108180800 METAR MROC 180800Z 00000KT 9999 VCFG FEW005 19/19 A2999 RMK VIS 8000 SW NOSIG=
201108180900 METAR MROC 180900Z 05004KT CAVOK 18/18 A2998 NOSIG=
201108181000 METAR MROC 181000Z 10004KT CAVOK 18/18 A2998 NOSIG=
201108181100 METAR MROC 181100Z 05005KT CAVOK 19/18 A2999 RMK CB DST SSW NOSIG=
201108181200 METAR MROC 181200Z 06006KT CAVOK 19/18 A3001 RMK CB DST SSW NOSIG=
201108181300 METAR MROC 181300Z 11002KT 9999 FEW010 SCT250 22/18 A3003 RMK LW ST SW CB DST S SW NOSIG=
201108181400 METAR MROC 181400Z 11007KT CAVOK 24/19 A3004 RMK LW ST E CB DST S SW W NOSIG=
201108181500 METAR MROC 181500Z 12008KT CAVOK 26/17 A3003 RMK LW ST E CB DST S SW W NOSIG=
201108181600 METAR MROC 181600Z 14006KT 9999 FEW020 BKN250 27/16 A3003 RMK CB DST S SW W BECMG 24006KT=
201108181700 METAR MROC 181700Z 26011KT 9999 FEW020 SCT250 26/23 A3002 RMK CB DST S SW W NOSIG=
201108181800 METAR MROC 181800Z 24009KT 9999 FEW010TCU FEW030 27/23 A3001 RMK CB DST E S SW W FEW250 NOSIG=
201108181900 METAR MROC 181900Z 26010KT 9999 FEW010TCU SCT040 27/23 A2998 RMK CB DST E S SW W RN DST E FEW250 NOSIG=
201108181942 METAR MROC 181942Z 24009KT 9999 TS FEW008CB SCT018 BKN080 27/23 A2997 RMK CB RN E CB DST S SW W BECMG TSRA=
201108182000 METAR MROC 182000Z 25009KT 9999 VCTS SCT008CB FEW018 SCT140 25/23 A2995 RMK CB ARND RN E BECMG TSRA=
201108182100 METAR MROC 182100Z 27007KT 8000 -TSRA FEW003 FEW010CB BKN030 23/23 A2996 BECMG 3000 RA BR=
201108182200 METAR MROC 182200Z 02003KT 8000 -RA FEW005 FEW010TCU SCT030 BKN100 21/21 A2995 NOSIG=
201108182300 METAR MROC 182300Z 00000KT 9999 3000SW BR FEW001 SCT020 BKN100 22/22 A2997 NOSIG=
201108190000 METAR MROC 190000Z 00000KT 9999 3000SW BR FEW001 SCT020 BKN100 22/22 A2997 NOSIG=
201108190100 METAR MROC 190100Z 21003KT 9999 2000SW BR FEW001 SCT010 BKN100 21/21 A3000 BECMG 3000 BR=
201108190200 METAR MROC 190200Z 27005KT 5000 BR FEW001 SCT005 BKN070 21/21 A3002 BECMG 2000 BR=
201108190300 METAR MROC 190300Z VRB02KT 9999 BCFG FEW002 SCT006 BKN060 21/21 A3002 NOSIG=
201108190400 METAR MROC 190400Z 04003KT 9999 BCFG FEW040 21/21 A3001 NOSIG=
201108190500 METAR MROC 190500Z 00000KT CAVOK 19/19 A3000 NOSIG=
201108190600 METAR MROC 190600Z 00000KT 2000 BR FEW001 SCT003 BKN015 20/20 A3000 NOSIG=
201108190700 METAR MROC 190700Z 08004KT 5000 BR FEW003 SCT030 20/20 A2999 NOSIG=
201108190800 METAR MROC 190800Z 00000KT 9999 BCFG FEW030 20/20 A2997 NOSIG=
201108190900 METAR MROC 190900Z VRB02KT CAVOK 19/19 A2995 NOSIG=
201108191000 METAR MROC 191000Z 09006KT CAVOK 19/19 A2995 NOSIG=
201108191100 METAR MROC 191100Z 09004KT CAVOK 18/18 A2996 NOSIG=
201108191200 METAR MROC 191200Z 07003KT CAVOK 18/18 A2996 RMK FEW120 SCT250 NOSIG=
201108191300 METAR MROC 191300Z 00000KT CAVOK 22/18 A2998 RMK FEW120 BKN250 NOSIG=
201108191400 METAR MROC 191400Z 00000KT CAVOK 25/19 A2999 RMK BKN250 BECMG 22006KT=
201108191500 METAR MROC 191500Z 11006KT CAVOK 27/18 A2998 RMK BKN250 BECMG 22006KT=
201108191600 METAR MROC 191600Z 14009KT 9999 FEW040 BKN250 28/18 A2997 BECMG 22006KT=
201108191700 METAR MROC 191700Z 22010KT 9999 FEW040 BKN250 27/22 A2997 NOSIG=
201108191800 METAR MROC 191800Z 21009KT 9999 SCT030 BKN250 27/22 A2996 NOSIG=
201108191900 METAR MROC 191900Z 26011KT 5000 +RA FEW010TCU BKN030 26/23 A2995 RMK VIS S UNL=
201108192000 METAR MROC 192000Z 20008KT 9999 3000SW -RA BR FEW001 SCT010 BKN030 22/22 A2994 BECMG 3000 -RA BR=
201108192100 METAR MROC 192100Z 22006KT 9000 VCSH FEW003 SCT015 BKN080 22/22 A2994 RMK VIS 6KM NE/N BECMG 8000 -RA BKN015=
201108192200 METAR MROC 192200Z 24007KT 8000 VCSH VCFG FEW005 SCT020 BKN080 21/21 A2995 RMK VIS SE S SW UNLTD NOSIG=
201108192300 METAR MROC 192300Z 32004KT 2000 -RA BR SCT003 BKN020 21/21 A2996 NOSIG=
201108200000 METAR MROC 200000Z 00000KT 9999 -RA BR FEW030 BKN100 21/21 A2998 RMK VIS S SE 8KMS NOSIG=
201108200100 METAR MROC NIL=
201108200200 METAR MROC 200200Z 26005KT 8000 VCFG FEW004 SCT015 BKN100 20/20 A3004 RMK VIS SE S UNLTD CONDICIONES VARIABLES BECMG 5000 -RA BR=
201108200300 METAR MROC 200300Z 28005KT 9999 VCFG FEW004 SCT100 20/20 A3005 RMK FEW035 NOSIG=
201108200400 METAR MROC 200400Z 35003KT 9999 FEW005 SCT100 19/19 A3004 RMK FEW015 NOSIG=
201108200500 METAR MROC 200500Z 11003KT 9999 FEW005 SCT100 19/19 A3003 NOSIG=
201108200600 METAR MROC 200600Z 10005KT 9999 FEW005 SCT110 19/19 A3000 NOSIG=
201108200700 METAR MROC 200700Z 09005KT CAVOK 19/19 A2997 NOSIG=
201108200800 METAR MROC 200800Z 09006KT CAVOK 19/19 A2996 NOSIG=
201108200900 METAR MROC 200900Z 11002KT CAVOK 18/18 A2995 NOSIG=
201108201000 METAR MROC 201000Z 10005KT CAVOK 18/18 A2995 NOSIG=
201108201100 METAR MROC 201100Z 08005KT CAVOK 18/16 A2996 NOSIG=
201108201200 METAR MROC 201200Z 12003KT CAVOK 18/17 A2997 RMK CB DST NE SW NOSIG=
201108201300 METAR MROC 201300Z VRB02KT CAVOK 21/18 A2999 RMK BKN250 CB LINE DST S SSW SW NOSIG=
201108201400 METAR MROC 201400Z 26007KT CAVOK 22/19 A3002 RMK BKN250 CB DST SSW SW NOSIG=
201108201500 METAR MROC 201500Z 24005KT CAVOK 24/19 A3002 RMK BKN250 NOSIG=
201108201600 METAR MROC 201600Z 25009KT 9999 FEW035 SCT250 25/20 A3003 NOSIG=
201108201700 METAR MROC 201700Z 25008KT 9999 FEW025 SCT035 24/21 A3002 NOSIG=
201108201800 METAR MROC 201800Z 25007KT 9999 FEW020 SCT035 26/21 A3001 NOSIG=
201108201900 METAR MROC 201900Z 24005KT 9999 FEW015TCU SCT025 BKN250 26/21 A2997 RMK SH DST E BECMG VCSH=
201108202000 METAR MROC 202000Z 23004KT 9999 FEW020TCU SCT035 BKN250 25/21 A2994 RMK RN DST SE NOSIG=
201108202100 METAR MROC 202100Z 24008KT 9999 SCT030 BKN250 26/22 A2994 RMK RN DST E/SE TCU DST SSW NOSIG=
201108202200 METAR MROC 202200Z 24008KT 9999 FEW012 SCT020 23/22 A2994 RMK RN DST NE/SW SCT250 NOSIG=
201108202300 METAR MROC 202300Z 23007KT 9999 SCT005 BKN015 22/22 A2995 RMK VIS 7KM SSW/N/NE=
201108210000 METAR MROC 210000Z 26006KT 5000 -TSRA BR SCT005 FEW015CB BKN020 21/21 A2998 RMK VIS 9999 E S BECMG 7000 -RA=
201108210100 METAR MROC 210100Z 27004KT 9999 VCFG FEW005 SCT025 BKN100 21/21 A2999 NOSIG=
201108210200 METAR MROC 210200Z 25006KT 9999 RA VCFG FEW003 SCT010 BKN100 21/21 A3002 NOSIG=
201108210300 METAR MROC 210300Z 29004KT 5000 -DZ BR FEW001 SCT010 BKN030 20/20 A3004=
201108210400 METAR MROC 210400Z VRB02KT 9999 FEW002 SCT030 BKN100 20/20 A3005 NOSIG=
201108210500 METAR MROC 210500Z VRB02KT 9999 BCFG FEW030 SCT100 19/19 A3005 NOSIG=
201108210600 METAR MROC 210600Z 00000KT 9999 FEW030 SCT120 19/19 A3003 NOSIG=
201108210700 METAR MROC 210700Z 09005KT CAVOK 19/19 A3001 RMK SCT120 SCT250 NOSIG=
201108210800 METAR MROC 210800Z 00000KT CAVOK 19/19 A2999 RMK SCT120 SCT250 NOSIG=
201108210900 METAR MROC 210900Z 00000KT CAVOK 19/19 A2998 RMK FEW120 SCT250 NOSIG=
201108211000 METAR MROC 211000Z 00000KT 3000 BR FEW001 SCT005 18/18 A2999 NOSIG=
201108211100 METAR MROC 211100Z 00000KT 8000 VCFG FEW001 SCT120 18/18 A3001 NOSIG=
201108211200 METAR MROC 211200Z 07003KT 9999 BCFG FEW001 BKN120 18/18 A3003 NOSIG=
201108211300 METAR MROC 211300Z 00000KT CAVOK 21/20 A3004 RMK SCT250 CB DST SSW W NOSIG=
201108211400 METAR MROC 211400Z 00000KT CAVOK 24/18 A3000 RMK BKN250 NOSIG=
201108211500 METAR MROC 211500Z 25005KT 9999 FEW040 BKN250 24/19 A3001 NOSIG=
201108211600 METAR MROC NIL=
201108211700 METAR MROC 211700Z 25007KT 9999 SCT040 SCT250 26/21 A3004 NOSIG=
201108211800 METAR MROC 211800Z 26004KT 9999 SCT040 SCT250 26/21 A3002 RMK RN DST E NOSIG=
201108211900 METAR MROC 211900Z 22004KT 9999 RA FEW015TCU SCT030 26/21 A2999 RMK VIS 7000 NE E BECMG 6000=
201108212000 METAR MROC 212000Z 04005KT 9999 4500NW -TSRA SCT015CB SCT120 23/21 A2998 RMK VIS 6000 SW BECMG 5000 TSRA=
201108212100 METAR MROC 212100Z 23007KT 9999 VCSH SCT015CB BKN110 24/22 A2997 BECMG 8000 VCSH=
201108212200 METAR MROC 212200Z 24008KT 4000 DZ BR FEW006 SCT015 BKN100 22/22 A2997 BECMG 2000 -RA BR=
201108212300 METAR MROC 212300Z 26012KT 2000 RA BR SCT006 BKN010 20/20 A3001 NOSIG=
201108212350 METAR MROC 220000Z 26008KT 1200 -TSRA BR SCT002 SCT007CB BKN010 19/19 A3004 BECMG 5000 -RA BR=
201108220000 METAR MROC 220000Z 26008KT 1200 -TSRA BR SCT002 SCT007CB BKN010 19/19 A3004 BECMG 5000 -RA BR=
201108220100 METAR MROC 220100Z 00000KT 9999 BCFG FEW015 BKN100 20/20 A3005 NOSIG=
201108220200 METAR MROC 220200Z 00000KT 9999 BCFG FEW020 BKN120 20/20 A3006 NOSIG=
201108220300 METAR MROC 220300Z 08003KT CAVOK 19/19 A3006 RMK SCT120 BKN250 NOSIG=
201108220400 METAR MROC NIL=
201108220500 METAR MROC 220500Z 11002KT CAVOK 19/19 A3003 RMK SCT120 BKN250 NOSIG=
201108220600 METAR MROC 220600Z 00000KT CAVOK 19/19 A3002 RMK SCT120 BKN250 NOSIG=
201108220700 METAR MROC 220700Z 11003KT CAVOK 19/19 A3000 RMK BKN250 LTNG DST ENE NOSIG=
201108220800 METAR MROC 220800Z 05005KT CAVOK 18/18 A2999 RMK BKN250 NOSIG=
201108220900 METAR MROC 220900Z 09003KT CAVOK 18/18 A3000 RMK BKN250 NOSIG=
201108221000 METAR MROC 221000Z 07004KT CAVOK 18/18 A3000 RMK SCT250 NOSIG=
201108221100 METAR MROC 221100Z 07004KT CAVOK 19/19 A3001 RMK SCT120 SCT250 NOSIG=
201108221200 METAR MROC 221200Z 08002KT 9999 FEW030 SCT120 19/19 A3001 NOSIG=
201108221300 METAR MROC 221300Z 11007KT CAVOK 23/20 A3001 RMK FEW120 SCT250 NOSIG=
201108221400 METAR MROC 221400Z 14008KT CAVOK 24/19 A3002 RMK SCT120 SCT250 NOSIG=
201108221500 METAR MROC 221500Z 13012KT CAVOK 26/19 A3003 RMK FEW050 SCT150 SCT300 NOSIG=
201108221600 METAR MROC 221600Z 12008KT 9999 FEW040 SCT140 BKN250 27/18 A3002 BECMG 24006KT=
201108221700 METAR MROC 221700Z 13008KT 9999 FEW040 SCT140 BKN280 28/19 A3001 BECMG 24006KT=
201108221800 METAR MROC 221800Z 19005KT 9999 SCT030 SCT250 28/23 A2999 BECMG 24006KT=
201108221900 METAR MROC 221900Z 25008KT 9999 SCT030 SCT040 26/23 A2997 BECMG 7000 -SHRA=
201108222000 METAR MROC 222000Z 24008KT 8000 VCSH FEW015TCU BKN030 23/23 A2996 BECMG 5000 -SHRA=
201108222100 METAR MROC 222100Z 27012KT 9999 -TSRA FEW005 FEW012CB SCT025 BKN080 23/23 A2997 RMK VIS 7KM W BECMG 6000 -TSRA BKN025=
201108222200 METAR MROC 222200Z 27010KT 9999 5000SW -RA BR VCTS FEW001 SCT010 BKN012 21/21 A3000 RETSRA BECMG 5000 -RA BR=
201108222300 METAR MROC 222300Z 32003KT 8000 VCFG FEW001 SCT008 BKN012 21/21 A3001 RMK FEW005 NOSIG=
201108222357 METAR MROC 230000Z 32003KT 9999 FEW005 SCT025 BKN150 21/21 A3001 RMK CB TS DST QUAD W S NOSIG=
201108230000 METAR MROC 230000Z 32003KT 9999 FEW005 SCT025 BKN150 21/21 A3001 RMK CB TS DST QUAD W S NOSIG=
201108230100 METAR MROC 230100Z 00000KT 9999 FEW005 BKN150 21/21 A3003 RMK FEW025 CB DST QUAD W S NOSIG=
201108230200 METAR MROC 230200Z 29003KT 9999 FEW005 SCT025 BKN040 21/21 A3006 RMK LGTNG DST SW NOSIG=
201108230300 METAR MROC 230300Z 00000KT 9999 SCT025 BKN080 21/20 A3006 NOSIG=
201108230400 METAR MROC 230400Z 00000KT 9999 FEW025 BKN100 20/20 A3005 NOSIG=
201108230500 METAR MROC 230500Z 11004KT CAVOK 20/20 A3004 RMK BKN120 NOSIG=
201108230600 METAR MROC 230600Z 09003KT CAVOK 20/20 A3003 RMK SCT120 NOSIG=
201108230700 METAR MROC 230700Z 08004KT CAVOK 20/20 A2999 RMK SCT120 NOSIG=
201108230800 METAR MROC 230800Z 08003KT CAVOK 20/20 A2998 RMK SCT120 NOSIG=
201108230900 METAR MROC 230900Z 10004KT CAVOK 20/19 A2997 NOSIG=
201108231000 METAR MROC 231000Z 06003KT CAVOK 18/18 A2997 NOSIG=
201108231100 METAR MROC 231100Z 08003KT CAVOK 19/18 A2998 NOSIG=
201108231200 METAR MROC 231200Z 07006KT CAVOK 20/18 A2998 RMK FEW250 TCU DST S SSW SW NOSIG=
201108231300 METAR MROC 231300Z 08005KT CAVOK 22/18 A2999 RMK CB DST E S SW W NOSIG=
201108231400 METAR MROC 231400Z 09010KT 080V140 CAVOK 25/18 A3001 RMK CB DST E S SW W NOSIG=
201108231500 METAR MROC 231500Z 14007KT 9999 FEW025 BKN250 26/19 A3000 RMK CB DST E SE SW BECMG 24007KT=
201108231600 METAR MROC 231600Z 12006KT 070V130 9999 FEW025 SCT040 27/17 A3000 RMK CB DST E S SW W SCT140 FEW250 BECMG 24007KT=
201108231700 METAR MROC 231700Z 24010KT 9999 FEW020 BKN120 26/22 A3000 RMK CB DST E/S/SW/W RN DST S FEW070 FEW250 NOSIG=
201108231800 METAR MROC 231800Z 23010KT 9999 FEW018CB FEW040 BKN120 26/21 A2998 RMK CB NE DST S/W TCU SW BECMG -SHRA=
201108231900 METAR MROC 231900Z 23010KT 9999 FEW018CB FEW040 BKN120 25/22 A2996 RMK CB RN DST E S SW FEW080 BECMG -SHRA=
201108232000 METAR MROC 232000Z 26009KT 8000 RA FEW005CB SCT030 BKN100 22/22 A2995 RMK CB DST ARND NOSIG=
201108232100 METAR MROC 232100Z 27005KT 9999 FEW010CB SCT030 BKN100 23/22 A2995 BECMG 3000 RA BR=
201108232200 METAR MROC 232200Z 21005KT 9999 SCT030 BKN100 23/21 A2994 NOSIG=
201108232300 METAR MROC 232300Z 26005KT 9999 BCFG FEW001 SCT030 BKN100 22/22 A2997 BECMG 5000 BR=
201108240000 METAR MROC 240000Z 00000KT 9999 BCFG FEW001 SCT030 BKN100 22/21 A2998 BECMG 5000 BR=
201108240100 METAR MROC 240100Z 00000KT 9999 FEW035 BKN100 22/21 A3000 BECMG RA=
201108240200 METAR MROC 240200Z 00000KT 9999 FEW035 BKN100 22/21 A3000 BECMG 5000 RA BR=
201108240300 METAR MROC 240300Z 00000KT 8000 VCFG FEW002 SCT030 21/21 A3001 BECMG 2000 BR=
201108240400 METAR MROC 240400Z 00000KT 2000 BR FEW001 SCT010 20/20 A3003 NOSIG=
201108240500 METAR MROC 240500Z VRB02KT 9999 BCFG FEW002 SCT060 20/20 A3002 NOSIG=
201108240600 METAR MROC 240600Z 00000KT 9999 BCFG FEW040 SCT100 20/20 A3002 NOSIG=
201108240700 METAR MROC 240700Z 00000KT CAVOK 19/19 A3000 RMK SCT100 NOSIG=
201108240800 METAR MROC 240800Z VRB02KT 9999 FEW035 BKN100 19/19 A2998 RMK LTNG DST S NOSIG=
201108240900 METAR MROC 240900Z 11004KT CAVOK 19/19 A2997 RMK BKN100 NOSIG=
201108241000 METAR MROC 241000Z 11003KT CAVOK 19/19 A2997 RMK FEW050 BKN100 NOSIG=
201108241100 METAR MROC 241100Z 07003KT CAVOK 20/19 A2997 RMK SCT050 BKN150 NOSIG=
201108241200 METAR MROC 241200Z 00000KT CAVOK 19/19 A2998 RMK SCT120 BKN200 HZY NOSIG=
201108241250 METAR MROC 241250Z 00000KT CAVOK 20/20 A3001 RMK BKN100 BECMG 22006KT=
201108241300 METAR MROC 241300Z 00000KT CAVOK 20/20 A3001 RMK BKN100 BECMG 22006KT=
201108241400 METAR MROC 241400Z 00000KT CAVOK 22/20 A3003 RMK SCT080 BKN250 BECMG 22006KT=
201108241500 METAR MROC 241500Z 28006KT 9999 FEW040 BKN120 24/20 A3002 RMK HZ ARND NOSIG=
201108241600 METAR MROC 241600Z 24007KT 9999 FEW040 BKN120 24/20 A3002 NOSIG=
201108241700 METAR MROC 241700Z 23008KT 9999 SCT040 BKN120 24/21 A3002 RMK RA S NOSIG=
201108241800 METAR MROC 241800Z 22005KT 9999 SCT040 BKN120 23/21 A3000 NOSIG=
201108241900 METAR MROC 241900Z 24007KT 9999 SCT030 BKN100 24/22 A2998 RMK RA N NOSIG=
201108242000 METAR MROC 242000Z 23007KT 9999 FEW010 SCT030 BKN100 23/22 A2996 RMK RA NE=
201108242100 METAR MROC 242100Z 26005KT 9999 -RA VCSH FEW015TCU BKN025 25/22 A2994 RMK RASH E ESE BECMG 5000 SHRA=
201108242200 METAR MROC 242200Z 00000KT 9999 -RA FEW015TCU SCT025 BKN120 23/22 A2994=
201108242300 METAR MROC 242300Z 23003KT 9999 -SHRA FEW012CB SCT025 BKN070 22/22 A2996 RMK VIS WNW 6KMS BECMG -RA=
201108250000 METAR MROC 250000Z 29005KT 9999 -RA FEW020 SCT070 BKN140 21/21 A2998 RMK VIS NW N 6KMS DUE RN NOSIG=
201108250100 METAR MROC 250100Z 00000KT 9999 FEW030 SCT100 21/21 A3005 NOSIG=
201108250200 METAR MROC 250200Z 31004KT 9999 FEW005 SCT020 BKN100 21/21 A3002 NOSIG=
201108250300 METAR MROC 250300Z 00000KT 9999 FEW005 SCT008 BKN025 21/21 A3004 NOSIG=
201108250400 METAR MROC 250400Z 27005KT 9999 DZ FEW004 SCT008 BKN020 20/20 A3005 NOSIG=
201108250500 METAR MROC 250500Z 28005KT 9999 FEW004 SCT012 BKN030 20/20 A3005 REDZ NOSIG=
201108250600 METAR MROC 250600Z VRB02KT 8000 RA VCFG FEW001 SCT008 BKN020 20/20 A3005 REDZ NOSIG=
201108250700 METAR MROC 250700Z 33006KT 9999 FEW004 SCT025 BKN110 20/20 A3003 RERA NOSIG=
201108250800 METAR MROC 250800Z 00000KT 9999 FEW004 SCT110 20/20 A3000 NOSIG=
201108250900 METAR MROC 250900Z 09005KT 8000 RA VCFG FEW001 OVC100 20/20 A3000 NOSIG=
201108251000 METAR MROC 251000Z 10003KT 9999 -RA FEW050 BKN140 19/19 A2998 RERA NOSIG=
201108251100 METAR MROC 251100Z 22003KT 9999 VCFG FEW040 SCT080 BKN150 19/19 A3000 RMK VIS 8KM SW BECMG 7000 -RA BCFG=
201108251200 METAR MROC 251200Z 00000KT 9999 -RA FEW004 SCT080 BKN100 19/19 A3002 NOSIG=
201108251300 METAR MROC 251300Z 19002KT 9999 -RA VCFG FEW005 SCT070 BKN100 20/20 A3005 RMK VIS SW 8KMS NOSIG=
201108251400 METAR MROC 251400Z 26003KT 9999 DZ VCFG SCT010 BKN100 21/21 A3007 RMK VIS SW 8KMS NOSIG=
201108251500 METAR MROC 251500Z 34003KT 9999 SCT020 SCT250 23/21 A3008 NOSIG=
201108251600 METAR MROC 251600Z 21003KT 9999 SCT020 SCT250 25/19 A3006 NOSIG=
201108251700 METAR MROC 251700Z 23006KT 9999 SCT025 SCT250 25/20 A3007 RMK RA DST SE NOSIG=
201108251800 METAR MROC 251800Z 24006KT 9999 SCT030 SCT250 26/21 A3004 RMK RA DST SW NOSIG=
201108251900 METAR MROC 251900Z 26009KT 9999 FEW015 SCT030 25/21 A3003 RMK SCT140 RA DST SE E NOSIG=
201108252000 METAR MROC 252000Z 27009KT 9999 SCT015 BKN030 24/22 A3001 RMK RN DST NE E BECMG -RA=
201108252100 METAR MROC 252100Z 26008KT 9999 SCT010 BKN025 22/22 A3001 NOSIG=
201108252200 METAR MROC 252200Z 25005KT 9999 SCT015 BKN080 22/22 A2999 NOSIG=
201108252300 METAR MROC 252300Z 26004KT 9999 FEW015 SCT030 22/22 A3001 RMK SCT120 FEW250 NOSIG=
201108260000 METAR MROC 260000Z 00000KT 9999 SCT020 BKN100 22/22 A3003 NOSIG=
201108260100 METAR MROC 260100Z 00000KT 9999 FEW030 BKN100 21/21 A3005 NOSIG=
201108260200 METAR MROC 260200Z 00000KT 9999 SCT003 BKN100 21/21 A3007 NOSIG=
201108260300 METAR MROC 260300Z 27003KT 9999 3000SW BR FEW001 SCT010 OVC100 21/21 A3008 BECMG 2000 BR=
201108260400 METAR MROC 260400Z 00000KT 3000 BR SCT001 BKN010 21/21 A3009 BECMG 1500 BR=
201108260500 METAR MROC 260500Z 00000KT 4000 BR FEW002 SCT012 BKN100 20/20 A3008 NOSIG=
201108260550 METAR MROC 260550Z 00000KT 5000 BR FEW003 SCT020 BKN120 21/21 A3008 NOSIG=
201108260650 METAR MROC 260650Z 00000KT 2000 BR FEW001 SCT010 20/20 A3007 NOSIG=
201108260800 METAR MROC 260800Z 00000KT 0500 FG VV/// 20/20 A3005 NOSIG=
201108260850 METAR MROC 260850Z 00000KT 9999 4000SW BR FEW001 SCT120 20/20 A3003 NOSIG=
201108260900 METAR MROC 260900Z 00000KT 9999 4000SW BR FEW001 SCT120 20/20 A3003 NOSIG=
201108261000 METAR MROC 261000Z 06003KT CAVOK 20/20 A3003 RMK FEW120 NOSIG=
201108261100 METAR MROC 261100Z 00000KT 9999 4000SW BR FEW001 SCT120 20/20 A3004 NOSIG=
201108261200 METAR MROC 261200Z 00000KT 1500 R07/0175 BR FEW001 SCT120 BKN250 19/19 A3008 BECMG 9999=
201108261300 METAR MROC 261300Z 00000KT 9999 VCFG FEW005 SCT015 BKN250 20/20 A3010 RMK VIS 7000 SSW NOSIG=
201108261400 METAR MROC 261400Z 09003KT 9999 FEW007 BKN250 23/21 A3011 RMK FEW120 NOSIG=
201108261500 METAR MROC 261500Z 00000KT CAVOK 26/21 A3010 RMK BKN250 BECMG 24007KT=
201108261600 METAR MROC NIL=
201108261700 METAR MROC 261700Z 25009KT 9999 FEW030 BKN250 27/23 A3009 NOSIG=
201108261800 METAR MROC 261800Z 24011KT 9999 FEW030 SCT250 26/22 A3007 NOSIG=
201108261900 METAR MROC 261900Z 25011KT 9999 VCTSRA FEW015CB SCT020TCU 25/23 A3004 BECMG 8000 TSRA=
201108262000 METAR MROC 262000Z 26009KT 9999 VCFG FEW015CB SCT025 BKN090 23/23 A3005 RMK VCFG RN VIS 7000 N NE NOSIG=
201108262100 METAR MROC 262100Z 00000KT 9999 4000E -TSRA FEW015CB SCT025 BKN100 23/23 A3005 BECMG 8000 -RA VCFG=
201108262200 METAR MROC 262200Z 05002KT 9999 -RA FEW010 SCT025 OVC100 22/22 A3002 NOSIG=
201108262300 METAR MROC 262300Z 00000KT 9999 -RA FEW015 SCT025 BKN100 22/22 A3003 NOSIG=
201108262350 METAR MROC 270000Z 00000KT 9999 FEW015 SCT100 BKN250 22/22 A3004 RMK TS DST SW BECMG 8000 VCFG=
201108270000 METAR MROC 270000Z 00000KT 9999 FEW015 SCT100 BKN250 22/22 A3004 RMK TS DST SW BECMG 8000 VCFG=
201108270100 METAR MROC 270100Z 00000KT 9999 BCFG FEW015 SCT100 BKN150 21/21 A3006 RMK LTNG FROM NE TO S NOSIG=
201108270200 METAR MROC 270200Z 00000KT 8000 VCFG VCTS FEW005 SCT020 BKN120 21/21 A3010 RMK LTNG FROM NE TO S BECMG 4000 BR=
201108270300 METAR MROC 270300Z 05004KT 5000 -RA BR FEW002 SCT007 BKN120 21/21 A3012 BECMG 8000=
201108270400 METAR MROC 270400Z 08005KT 9999 -DZ FEW020 BKN120 21/21 A3012 NOSIG=
201108270500 METAR MROC 270500Z 11004KT 9999 -DZ OVC120 21/21 A3009 NOSIG=
201108270600 METAR MROC 270600Z 08004KT CAVOK 21/290 A3005 RMK OVC120 NOSIG=
201108270700 METAR MROC 270700Z 07004KT CAVOK 21/18 A3004 RMK OVC120 NOSIG=
201108270800 METAR MROC 270800Z 00000KT 9999 2500SW -DZ PRFG FEW001 BKN120 20/20 A3002 BECMG 2000 DZ BR=
201108270900 METAR MROC 270900Z 00000KT 2000 BR SCT002 BKN005 20/20 A3001 BECMG 5000=
201108271000 METAR MROC 271000Z 07004KT 8000 VCFG FEW005 SCT140 BKN250 19/19 A3001 RMK VIS E SE UNL NOSIG=
201108271100 METAR MROC 271100Z 10003KT CAVOK 19/18 A3001 RMK BKN250 NOSIG=
201108271200 METAR MROC 271200Z 00000KT CAVOK 18/18 A3003 RMK SCT250 NOSIG=
201108271300 METAR MROC 271300Z 00000KT CAVOK 20/19 A3006 RMK SCT150 SCT250 HZ ARND BECMG 24006KT=
201108271400 METAR MROC 271400Z 00000KT CAVOK 23/20 A3007 RMK BKN250 HZ ARND NOSIG=
201108271500 METAR MROC 271500Z 07002KT 9999 FEW035 BKN250 25/19 A3006 RMK HZ ARND NOSIG=
201108271600 METAR MROC 271600Z 07005KT 050V150 CAVOK 28/18 A3004 RMK SCT120 BKN250 HZ ARND NOSIG=
201108271700 METAR MROC 271700Z 14006KT 9999 FEW035 BKN250 28/18 A3004 RMK FEW120 BECMG24006KT=
201108271800 METAR MROC 271800Z 25006KT 9999 SCT025TCU BKN250 29/20 A3003 RMK HZ LGT ARND NOSIG=
201108271900 METAR MROC 271900Z 25010KT 9999 SCT025TCU BKN250 28/23 A3001 RMK HZ LGT ARND NOSIG=
201108272000 METAR MROC 272000Z 25009KT 9999 4500SW RA VCTS FEW015TCU SCT025 BKN100 25/24 A2999 RMK HZ LGT ARND NOSIG=
201108272100 METAR MROC 272100Z 22012KT 9999 VCSH SCT015TCU FEW030 25/22 A2996 RMK BECMG -TSRA=
201108272200 METAR MROC 272200Z 30005KT 9999 3000N TSRA BR FEW001 SCT015CB SCT080 21/21 A3000 RMK BECMG -TSRA=
201108272300 METAR MROC 272300Z 08005KT 9999 FEW010CB SCT250 20/20 A2998 RETSRA RMK CB W FEW080 RN DST QUAD W NOSIG=
201108272355 METAR MROC 280000Z 13003KT 9999 FEW010TCU SCT250 21/21 A3000 RMK CB RN DST S NOSIG=
201108280000 METAR MROC 280000Z 13003KT 9999 FEW010TCU SCT250 21/21 A3000 RMK CB RN DST S NOSIG=
201108280100 METAR MROC 280100Z 05007KT 9999 FEW004 SCT250 21/21 A3002 RMK LGTNG DST NE S SW NOSIG=
201108280200 METAR MROC 280200Z 00000KT 8000 -RA FEW004 BKN100 21/21 A3005 RMK FEW012 BECMG 5000 -RA BR=
201108280300 METAR MROC 280300Z 00000KT 9999 FEW030 BKN080 21/21 A3008 RMK LOW ST S SW NOSIG=
201108280400 METAR MROC 280400Z 00000KT 9999 FEW030 SCT100 21/21 A3008 NOSIG=
201108280500 METAR MROC 280500Z 00000KT 9999 SCT030 21/21 A3006 NOSIG=
201108280600 METAR MROC 280600Z 00000KT CAVOK 20/20 A3004 RMK SCT250 NOSIG=
201108280700 METAR MROC 280700Z 09004KT CAVOK 20/20 A3001 NOSIG=
201108280800 METAR MROC 280800Z 07007KT CAVOK 20/20 A2995 RMK SCT250 NOSIG=
201108280900 METAR MROC 280900Z 06007KT CAVOK 20/20 A2991 RMK SCT250 NOSIG=
201108281000 METAR MROC 281000Z 05004KT CAVOK 19/19 A2992 RMK SCT250 NOSIG=
201108281100 METAR MROC 281100Z 25003KT 9999 4500SW BR FEW005 19/19 A2995 RMK FEW120 FEW250 NOSIG=
201108281200 METAR MROC 281200Z 00000KT 9999 SCT030 SCT100 20/20 A2999 RMK RN DST N NE E NOSIG=
201108281300 METAR MROC 281300Z 00000KT 9999 FEW020 BKN060 21/20 A3001 RMK RN DST QUAD E NOSIG=
201108281400 METAR MROC 281400Z 16002KT 9999 FEW020 BKN060 22/21 A3003 RMK FEW250 RN DST QUAD E BECMG 24007KT=
201108281500 METAR MROC 281500Z 00000KT 9999 FEW020 BKN200 24/21 A3004 RMK CB RN DST NE E SW BECMG 24007KT=
201108281600 METAR MROC 281600Z 23004KT 9999 FEW020 BKN200 26/22 A3003 RMK CB DST NE W QUAD S NOSIG=
201108281700 METAR MROC 281700Z 22007KT 9999 SCT020 SCT200 27/21 A3004 RMK CB DST NE W QUAD S NOSIG=
201108281800 METAR MROC 281800Z 22012KT 9999 FEW012TCU SCT035 SCT200 26/21 A3002 RMK CB DST ARND RN DST E NOSIG=
201108281900 METAR MROC 281900Z 21008KT 9999 FEW012CB SCT100 SCT250 27/22 A2999 RMK RN DST S N QUAD E BECMG TSRA=
201108282000 METAR MROC 282000Z 21009KT 9999 VCSH SCT010CB FEW080 SCT120 23/20 A2998 RMK RN DST S N QUAD E BECMG TSRA=
201108282100 METAR MROC 282100Z 28007KT 9999 FEW008 SCT030 BKN120 22/21 A2998 RMK RA S NOSIG=
201108282200 METAR MROC 292200Z 06007KT 9999 FEW008 SCT030 BKN110 22/20 A2995 RMK RA DST N NOSIG=
201108282300 METAR MROC 282300Z 10007KT 9999 -RA FEW040 BKN120 22/21 A2995 NOSIG=
201108290000 METAR MROC 290000Z 09007KT CAVOK 22/21 A2997 RMK BKN100 NOSIG=
201108290100 METAR MROC 290100Z 24008KT 9999 -RA SCT008 BKN100 21/21 A3002 BECMG 3000 RA BR=
201108290200 METAR MROC NIL=
201108290300 METAR MROC NIL=
201108290400 METAR MROC NIL=
201108290500 METAR MROC 290500Z 00000KT 9999 FEW005 SCT025 20/20 A3005 NOSIG=
201108290600 METAR MROC 290600Z 08005KT CAVOK 20/20 A3002 RMK SCT100 NOSIG=
201108290700 METAR MROC 290700Z 11003KT CAVOK 20/20 A2998 RMK FEW150 NOSIG=
201108290800 METAR MROC 290800Z 08006KT CAVOK 20/20 A2995 RMK FEW150 NOSIG=
201108290900 METAR MROC 290900Z 00000KT CAVOK 19/19 A2994 RMK FEW180 NOSIG=
201108291000 METAR MROC 291000Z 08002KT CAVOK 19/19 A2995 NOSIG=
201108291100 METAR MROC 291100Z 00000KT 9999 FEW015 SCT030 BKN050 18/18 A2997 NOSIG=
201108291200 METAR MROC 291200Z 00000KT 9999 FEW020 SCT030 BKN250 19/19 A3000 BECMG 6000 -RA=
201108291300 METAR MROC 291300Z 00000KT CAVOK 21/20 A3003 RMK FEW120 BKN250 TCU DST SW BECMG 23006KT=
201108291400 METAR MROC 291400Z 00000KT CAVOK 22/20 A3004 RMK FEW120 BKN250 BECMG 23006KT=
201108291500 METAR MROC 291500Z 05005KT CAVOK 25/20 A3004 RMK FEW120 BKN250 BECMG 23006KT=
201108291600 METAR MROC 291600Z 19003KT 9999 FEW040 BKN250 24/19 A3005 BECMG 24007KT=
201108291700 METAR MROC 291700Z 26003KT 9999 FEW040 SCT120 OVC250 24/21 A3004 NOSIG=
201108291800 METAR MROC 291800Z 26004KT 9999 FEW040 SCT120 OVC250 25/21 A3000 RMK HZ ARND NOSIG=
201108291900 METAR MROC 291900Z 26007KT 9999 FEW040 SCT120 OVC250 26/21 A2997 RMK HZ ARND NOSIG=
201108292000 METAR MROC 292000Z 23006KT 9999 FEW040 SCT130 OVC250 26/22 A2995 RMK HZ ARND NOSIG=
201108292100 METAR MROC 292100Z 24009KT 9999 SCT025 BKN250 25/23 A2994 NOSIG=
201108292200 METAR MROC 292200Z 24008KT 9999 VCSH SCT020 SCT110 23/23 A2994 RMK VIS 8KM S RN DST NW N FEW250 BECMG 9000 -RA BKN020=
201108292300 METAR MROC 292300Z 24005KT 9999 BKN020 SCT250 22/22 A2995 NOSIG=
201108300000 METAR MROC 300000Z 00000KT 9999 SCT020 BKN120 22/22 A2997 NOSIG=
201108300100 METAR MROC 300100Z 00000KT 9999 FEW025 SCT100 BKN250 22/22 A2998 NOSIG=
201108300200 METAR MROC 300200Z 00000KT 9999 FEW035 SCT100 BKN250 22/22 A2999 NOSIG=
201108300300 METAR MROC 300300Z 00000KT 8000 VCFG FEW001 SCT100 21/21 A3002 RMK FEW015 BECMG 5000 BR=
201108300400 METAR MROC 300400Z 27002KT 5000 BR SCT001 BKN015 21/21 A3003 BECMG 3000 BR=
201108300500 METAR MROC 300500Z 00000KT 8000 VCFG FEW001 SCT100 21/21 A3001 RMK VIS E UNL BECMG 5000 BR=
201108300600 METAR MROC 300600Z 00000KT 5000 BR FEW001 SCT006 BKN015 21/21 A3000 BECMG 3000 BR=
201108300700 METAR MROC 300700Z 00000KT 5000 BR FEW001 SCT006 BKN015 21/21 A2999 RMK VIS E UNLTD BECMG 3000 BR=
201108300800 METAR MROC 300800Z 00000KT 5000 BR FEW001 20/20 A2998 RMK VIS E UNLTD FEW006 BECMG 3000 BR=
201108300900 METAR MROC 300900Z 10005KT 9999 BCFG FEW001 SCT120 19/19 A2996 NOSIG=
201108301000 METAR MROC 301000Z 09006KT 9999 FEW002 SCT120 19/18 A2995 RMK LGTNG DST NE NOSIG=
201108301100 METAR MROC 301100Z 13003KT 9999 FEW002 19/19 A2997 RMK CB LGTNG DST QUAD E NOSIG=
201108301200 METAR MROC 301200Z 00000KT 9999 FEW002 BKN250 19/18 A2998 RMK CB DST W QUAD E NOSIG=
201108301300 METAR MROC 301300Z 00000KT CAVOK 20/20 A3000 RMK BKN250 NOSIG=
201108301400 METAR MROC 301400Z 00000KT CAVOK 21/20 A3002 RMK SCT140 BKN250 CB DST S BECMG 24006KT=
201108301500 METAR MROC 301500Z 00000KT CAVOK 23/20 A3003 RMK BKN250 BECMG 24006KT=
201108301600 METAR MROC 301600Z 26004KT CAVOK 25/21 A3003 RMK BKN250 NOSIG=
201108301700 METAR MROC 301700Z 24007KT 9999 FEW025 BKN250 26/21 A3002 NOSIG=
201108301800 METAR MROC 301800Z 25008KT 9999 FEW020 BKN250 27/23 A3000 RMK CB RASH DST E RN DST SE NOSIG=
201108301900 METAR MROC 301900Z 23006KT 9999 FEW020 SCT140 BKN250 26/22 A2997 RMK CB RN DST ENE SE NOSIG=
201108302000 METAR MROC 302000Z 21005KT 9999 VCSH FEW020TCU SCT030 BKN250 26/22 A2994 RMK RASH DST E SE BECMG 7000 -SHRA=
201108302100 METAR MROC 302100Z 24006KT 9999 +SHRA FEW015CB FEW020TCU SCT040 26/23 A2993 RMK RASH VIS 8KMS ENE E SE BECMG 7000 -TSRA=
201108302200 METAR MROC 302200Z 20004KT 9999 3000NE TSRA FEW015CB SCT020TCU BKN100 23/23 A2992 BECMG 8000 -SHRA=
201108302300 METAR MROC 302300Z 00000KT 8000 -DZ VCSH VCFG FEW004 FEW015TCU SCT025 BKN250 22/22 A2994 RETSRA RMK VIS ESE UNL NOSIG=
201108310000 METAR MROC 310000Z 00000KT 9999 FEW005 SCT020 BKN250 22/22 A2996 RMK LTNG DST E BECMG 7000=
201108310100 METAR MROC 310100Z 00000KT 8000 VCFG FEW003 BKN010 22/22 A3000 BECMG 7000 BKN008=
201108310200 METAR MROC 310200Z 00000KT 9999 -RA FEW005 SCT025 BKN100 22/22 A3000 NOSIG=
201108310300 METAR MROC 310300Z 00000KT CAVOK 21/21 A2999 RMK BKN100 HZ ARND NOSIG=
201108310400 METAR MROC 310400Z 00000KT CAVOK 21/21 A2998 RMK BKN100 HZ ARND NOSIG=
201108310500 METAR MROC 310500Z 27004KT 9999 4000NW BR FEW001 SCT120 BKN250 21/21 A3001 BECMG 2000 BR=
201108310600 METAR MROC 310600Z 00000KT 9999 FEW005 SCT120 BKN250 21/21 A3000 NOSIG=
201108310700 METAR MROC 310700Z 00000KT 9999 FEW005 SCT120 BKN250 ///// A3000 NOSIG=
201108310800 METAR MROC 310800Z 00000KT 9999 FEW010 SCT120 BKN250 20/20 A2999 NOSIG=
201108310900 METAR MROC 310900Z 00000KT 9999 VCFG FEW003 FEW015 19/19 A2998 NOSIG=
201108311000 METAR MROC 311000Z 10004KT CAVOK 18/18 A2998 NOSIG=
201108311100 METAR MROC 311100Z 00000KT CAVOK 18/18 A3000 RMK FEW120 SCT250 NOSIG=
201108311200 METAR MROC 311200Z 10005KT CAVOK 18/18 A2999 RMK FEW120 BKN250 CB DST SW NOSIG=
201108311300 METAR MROC 311300Z 00000KT CAVOK 20/19 A3001 RMK FEW120 BKN250 NOSIG=
201108311400 METAR MROC 311400Z 00000KT CAVOK 24/20 A3000 RMK BKN250 NOSIG=
201108311500 METAR MROC 311500Z 05001KT CAVOK 26/20 A3001 RMK BKN250 BECMG 24006KT=
201108311600 METAR MROC 311600Z 25006KT CAVOK 27/22 A3001 RMK OVC250 NOSIG=
201108311700 METAR MROC 311700Z 25006KT CAVOK 27/23 A3000 RMK OVC200 NOSIG=
201108311800 METAR MROC 311800Z 24006KT 9999 FEW035 BKN250 28/21 A2999 NOSIG=
201108311900 METAR MROC 311900Z 23008KT 9999 FEW035 BKN250 27/22 A2998 NOSIG=
201108312000 METAR MROC 312000Z 24008KT 9999 SCT035 BKN250 27/24 A2996 NOSIG=
201108312100 METAR MROC 312100Z 25010KT 9999 4000SW FEW010TCU SCT025 BKN250 26/24 A2995 RMK VIS SW RED BY HZ BECMG 8000 VCSH=
201108312200 METAR MROC 312200Z 23006KT 9999 4000SW FEW010TCU SCT025 BKN250 25/24 A2994 RMK VIS SW RED BY HZ NOSIG=
201108312300 METAR MROC 312300Z 23005KT 4000 BR FEW007 SCT015 BKN250 24/24 A2996 BECMG 1000 BR=
201108312357 METAR MROC 010000Z 26005KT 2000 BR FEW002 SCT006 BKN015 22/22 A2997 NOSIG=
201109010000 METAR MROC 010000Z 26005KT 2000 BR FEW002 SCT006 BKN015 22/22 A2997 NOSIG=
201109010100 METAR MROC 010100Z 24006KT 3000 BR FEW002 SCT010 BKN015 22/22 A2999 BECMG 5000 BR=
201109010200 METAR MROC 010200Z 00000KT 5000 BR FEW002 SCT010 BKN015 22/22 A3000 NOSIG=
201109010300 METAR MROC 010300Z 00000KT 7000 FEW004 SCT010 BKN020 21/21 A3000 RMK VIS RED DUE FG NOSIG=
201109010400 METAR MROC 010400Z 00000KT 8000 VCFG FEW003 SCT008 BKN020 21/21 A3002 RMK VIS SE UNL NOSIG=
201109010500 METAR MROC 010500Z 09002KT 9999 SCT008 SCT020 21/21 A3002 NOSIG=
201109010600 METAR MROC 010600Z 06005KT 9999 SCT030 21/21 A3002 RMK HZY NOSIG=
201109010700 METAR MROC 010700Z 05007KT CAVOK 21/21 A3000 RMK SCT250 NOSIG=
201109010800 METAR MROC 010800Z 00000KT CAVOK 20/20 A2998 RMK FEW100 SCT250 LTNG DST S SE NOSIG=
201109010900 METAR MROC 010900Z 00000KT CAVOK 20/20 A2999 RMK SCT250 LTNG DST S NOSIG=
201109011000 METAR MROC 011000Z 00000KT CAVOK 20/20 A3001 RMK SCT250 LTNG DST S NOSIG=
201109011100 METAR MROC 011100Z 00000KT CAVOK 19/19 A3002 RMK FEW120 SCT250 LTNG DST S NOSIG=
201109011200 METAR MROC 011200Z 00000KT CAVOK 19/19 A3001 RMK SCT120 BKN200 CB DST S HZY NOSIG=
201109011300 METAR MROC 011300Z 00000KT CAVOK 21/20 A3003 RMK HZ ARND SCT120 BKN250 BECMG 24006KT=
201109011400 METAR MROC 011400Z 00000KT CAVOK 25/21 A3003 RMK VIS SW W RED BY HZ BKN250 BECMG 24006KT=
201109011500 METAR MROC 011500Z 00000KT CAVOK 27/20 A3004 RMK VIS SW W RED BY HZ BKN250 NOSIG=
201109011600 METAR MROC 011600Z 12007KT 9999 FEW045 BKN250 29/19 A3003 NOSIG=
201109011700 METAR MROC 011700Z 10008KT 090V150 9999 FEW035 BKN250 29/19 A3002 RMK HZ W BECMG 24006KT=
201109011800 METAR MROC 011800Z 12007 9999 FEW025 SCT035 BKN250 29/18 A3001 RMK HZ W BECMG 24006KT=
201109011900 METAR MROC 011900Z 23010KT 9999 SCT030 BKN220 28/24 A2998 RMK HZY FEW100 TCU N BECMG -SHRA=
201109012000 METAR MROC 012000Z 25013KT 8000 FEW010 SCT015TCU BKN200 24/24 A2995 RMK HZY RA DST N NE BECMG -SHRA VCTS=
201109012100 METAR MROC 012100Z 26009KT 6000 -TSRA FEW001 FEW010CB SCT012 BKN100 22/22 A2999 RERA RMK VIS E UNL BECMG 3000 -TSRA BR=
201109012200 METAR MROC 012200Z 29006KT 5000 BR FEW001 SCT012 BKN020 21/21 A2998 RMK VIS E UNLTD NOSIG=
201109012300 METAR MROC 012300Z 35003KT 9999 FEW001 SCT020 BKN050 21/21 A3001 RMK RN DST S NOSIG=
201109012356 METAR MROC 020000Z 15001KT 9999 FEW005 SCT050 BKN100 22/22 A3000 RMK RN DST S NOSIG=
201109020000 METAR MROC 020000Z 15001KT 9999 FEW005 SCT050 BKN100 22/22 A3000 RMK RN DST S NOSIG=
201109020100 METAR MROC 020100Z 00000KT 9999 FEW005 BKN100 21/21 A3002 RMK FEW015 NOSIG=
201109020200 METAR MROC 020200Z 05004KT 9999 BCFG FEW001 SCT100 22/22 A3003 RMK FEW005 FG BANKS ARND NOSIG=
201109020300 METAR MROC 020300Z 22003KT 9999 4000SW BR FEW001 SCT007 21/21 A3007 RMK SCT100 NOSIG=
201109020400 METAR MROC 020400Z 00000KT 9999 FEW012 SCT100 20/20 A3005 RMK VIS 8000SW LOW ST NOSIG=
201109020500 METAR MROC 020500Z 00000KT 9999 FEW040 SCT100 21/21 A3006 NOSIG=
201109020600 METAR MROC 020600Z 04004KT 9999 SCT025 BKN100 21/21 A3006 NOSIG=
201109020700 METAR MROC 020700Z 00000KT 9999 SCT025 BKN100 21/21 A3002 NOSIG=
201109020800 METAR MROC 020800Z 00000KT 9999 SCT025 BKN100 21/21 A3003 NOSIG=
201109020900 METAR MROC 020900Z 00000KT 9999 FEW030 BKN100 21/21 A3003 RMK LOW ST SW BECMG 4000SW BR=
201109021000 METAR MROC 021000Z 00000KT 9999 FEW030 BKN100 20/20 A3003 RMK VIS 8000SW LOW ST NOSIG=
201109021100 METAR MROC 021100Z 00000KT 9999 FEW035 SCT100 20/20 A3003 NOSIG=
201109021200 METAR MROC 021200Z 00000KT 9999 FEW035 SCT100 20/20 A3004 NOSIG=
201109021300 METAR MROC 021300Z 00000KT 9999 FEW002 21/20 A3004 RMK CB DST NE S SW FEW120 BECMG 24007KT=
201109021400 METAR MROC 021400Z 08002KT 9999 FEW001 SCT250 24/20 A3007 RMK CB DST NE QUAD W BECMG 24007KT=
201109021500 METAR MROC 021500Z 27001KT 9999 FEW035 BKN200 25/21 A3007 RMK CB DST NE QUAD W HZY ARND NOSIG=
201109021600 METAR MROC 021600Z 26004KT 9999 FEW030 BKN250 26/20 A3008 RMK CB DST NE QUAD W HZY ARND NOSIG=
201109021700 METAR MROC 021700Z 25008KT 9999 VCSH FEW020TCU BKN200 27/22 A3006 RMK CB DST QUAD W CB RN DST N E S NOSIG=
201109021800 METAR MROC 021800Z 23007KT 9999 -RA FEW010CB BKN100 25/23 A3004 RMK CB RN S CB DST ARND BECMG -TSRA=
201109021900 METAR MROC 021900Z 20005KT 9999 FEW020TCU BKN110 23/24 A3004 RMK CB TS RN DST S SW CB DST ARND BECMG 5000=
201109022000 METAR MROC 022000Z 26003KT 250V310 9999 FEW010TCU BKN025 23/22 A3002 RMK RN DST E S NOSIG=
201109022100 METAR MROC 022100Z 00000KT 9999 FEW010TCU BKN030 23/22 A3001 RMK RA DST NE E NOSIG=
201109022200 METAR MROC 022200Z 25004KT 9999 -RA FEW010TCU SCT030 BKN100 22/22 A3000=
201109022300 METAR MROC 022300Z 00000KT 9999 FEW010TCU SCT030 BKN100 21/21 A3003 NOSIG=
201109030000 METAR MROC 030000Z 00000KT 9999 -TSRA FEW010CB SCT030 BKN100 21/21 A3005 NOSIG=
201109030100 METAR MROC 030100Z 00000KT 9999 4000SW RA BR FEW001 SCT020 OVC100 21/21 A3009 NOSIG=
201109030200 METAR MROC 030200Z 31004KT 9999 -RA SCT020 OVC100 21/21 A3009 NOSIG=
201109030300 METAR MROC NIL=
201109030400 METAR MROC 030400Z 00000KT CAVOK 20/20 A3008 RMK BKN100 NOG=
201109030500 METAR MROC 030500Z 00000KT 9999 2000W BR FEW002 BKN100 19/19 A3001 NOSIG=
201109030600 METAR MROC 030600Z 09004KT CAVOK 20/20 A3005=
201109030700 METAR MROC 030700Z 07004KT CAVOK 20/20 A3003 RMK BKN120 NOSIG=
201109030800 METAR MROC 030800Z 08004KT CAVOK 20/20 A3000 RMK BKN120 NOSIG=
201109030900 METAR MROC 030900Z 00000KT 9999 FEW002 BKN100 19/19 A3001 RMK VIS SW 7000 DUE HZ NOSIG=
201109031000 METAR MROC 031000Z 00000KT 9999 FEW002 BKN100 19/19 A3001=
201109031100 METAR MROC 031100Z 00000KT 1200 BR FEW001 SCT005 BKN100 19/19 A3003 BECMG 4000N BR=
201109031200 METAR MROC 031200Z 00000KT 1500 BR FEW002 SCT007 BKN100 19/19 A3004 BECMG 8000=
201109031300 METAR MROC 031300Z 10005KT 9999 VCFG FEW003 BKN250 20/20 A3003 RMK TCU DST S NOSIG=
201109031400 METAR MROC 031400Z 13004KT CAVOK 23/20 A3004 RMK BKN250 TCU DST S BECMG 22006KT=
201109031500 METAR MROC 031500Z 29006KT 9999 FEW030 BKN250 24/21 A3006 RMK HZ ARND NOSIG=
201109031600 METAR MROC 031600Z 25005KT 9999 FEW030 BKN250 25/21 A3006 RMK HZ ARND NOSIG=
201109031700 METAR MROC 031700Z 26008KT 240V270 9999 FEW030 BKN250 27/21 A3005 RMK HZ ARND NOSIG=
201109031800 METAR MROC 031800Z 25008KT 9999 SCT030 BKN250 27/21 A3004 RMK HZ ARND NOSIG=
201109031900 METAR MROC 031900Z 26007KT 9999 SCT030 BKN250 26/21 A3001 RMK HZ ARND NOSIG=
201109032000 METAR MROC 032000Z 25010KT 9999 SCT030 BKN200 25/22 A3000 RMK HZ ARND NOSIG=
201109032100 METAR MROC 032100Z 26009KT 9999 FEW015 SCT030 BKN120 23/22 A2999 RMK RN DST ESE NW BECMG VCSH=
201109032200 METAR MROC 032200Z 25008KT 9999 FEW015 SCT030 BKN120 23/22 A3000 RMK RN DST E NOSIG=
201109032300 METAR MROC 032300Z 25005KT 9999 SCT030 BKN120 22/21 A3001 NOSIG=
201109040000 METAR MROC 040000Z 27005KT 9999 SCT010 BKN025 21/21 A3003 BECMG 8000 -RA=
201109040100 METAR MROC 040100Z 27004KT 9999 -RA FEW005 SCT010 BKN025 21/21 A3005 NOSIG=
201109040200 METAR MROC 040200Z 00000KT 9999 FEW004 SCT015 BKN025 21/21 A3007 NOSIG=
201109040300 METAR MROC 040300Z 00000KT 8000 -RADZ VCFG FEW001 SCT010 BKN100 21/21 A3009 BECMG 5000 -RA BR=
201109040400 METAR MROC 040400Z 00000KT 9999 -RADZ FEW001 SCT020 BKN100 21/21 A3011 BECMG 5000 -RA BR=
201109040500 METAR MROC 040500Z 00000KT 5000 RA BR FEW001 OVC100 20/20 A3010 RMK FEW018 VIS E 8KM BECMG 3000 RA BR=
201109040600 METAR MROC 040600Z 00000KT 5000 -RADZ BR FEW001 SCT015 BKN100 20/20 A3007 RERA RMK VIS E 8KM BECMG 3000 RA BR=
201109040700 METAR MROC 040700Z 00000KT 9999 -RADZ FEW001 SCT015 BKN100 20/20 A3004 BECMG 5000 -RA BR=
201109040800 METAR MROC 040800Z 09001KT 9999 FEW001 BKN100 20/20 A3001 NOSIG=
201109040900 METAR MROC 040900Z 10004KT CAVOK 20/20 A2998 RMK BKN100 NOSIG=
201109041000 METAR MROC 041000Z 10002KT 9999 -RA FEW002 BKN100 20/20 A2999 RMK LGTNG DST S NOSIG=
201109041100 METAR MROC 041100Z 00000KT 8000 RA VCFG FEW001 OVC100 20/20 A3001 BECMG 5000 RA=
201109041200 METAR MROC 041200Z 00000KT 9999 RA FEW001 SCT030 OVC130 20/20 A3003 NOSIG=
201109041300 METAR MROC 041300Z 00000KT CAVOK 20/20 A3003 RERA RMK BKN120 NOSIG=
201109041400 METAR MROC 041400Z 00000KT 9999 FEW010 BKN120 23/21 A3006 BECMG 24005KT=
201109041500 METAR MROC 041500Z 28004KT 9999 FEW020 BKN120 23/21 A3007 NOSIG=
201109041600 METAR MROC 041600Z 24004KT 9999 FEW025 SCT120 BKN250 25/22 A3006 NOSIG=
201109041700 METAR MROC 041700Z 23005KT 9999 FEW025 BKN250 26/20 A3005 RMK TCU DST E N NOSIG=
201109041800 METAR MROC 041800Z 25008KT 9999 FEW020TCU SCT030 BKN250 27/23 A3002 RMK CB DST N RN DST SE BECMG 8000 VCSH=
201109041900 METAR MROC 041900Z 22008KT 9999 4000SW -TSRA FEW015CB SCT025 BKN100 23/23 A3000 NOSIG=
201109042000 METAR MROC 042000Z 00000KT 9999 FEW015CB SCT025 BKN100 24/23 A2998 RMK RN DST N NE SE NOSIG=
201109042100 METAR MROC 042100Z 22009KT 9999 4000SW TSRA SCT010CB FEW025 SCT100 22/22 A2999 BECMG 5000 TSRA=
201109042140 METAR MROC 042140Z 28005KT 9999 3000SW -RA BR FEW003 SCT025 BKN100 20/20 A2998 NOSIG=
201109042200 METAR MROC 042200Z 32002KT 9999 -RA FEW015 BKN090 20/20 A2997 NOSIG=
201109042300 METAR MROC 042300Z 00000KT 9999 FEW010 SCT035 BKN100 21/21 A2998 NOSIG=
201109050000 METAR MROC 050000Z 00000KT 9999 FEW015 BKN120 21/21 A3001 NOSIG=
201109050100 METAR MROC 050100Z 00000KT CAVOK 21/21 A3004 RMK BKN120 NOSIG=
201109050200 METAR MROC 050200Z 00000KT CAVOK 21/21 A3004 RMK SCT120 NOSIG=
201109050300 METAR MROC 050300Z 00000KT CAVOK 21/21 A3005 RMK SCT120 NOSIG=
201109050400 METAR MROC 050400Z 00000KT CAVOK 20/20 A3003 RMK SCT120 BKN250 NOSIG=
201109050500 METAR MROC 050500Z 00000KT CAVOK 21/21 A3003 RMK SCT120 BKN250 NOSIG=
201109050600 METAR MROC 050600Z 00000KT CAVOK 20/20 A3003 RMK BKN120 NOSIG=
201109050700 METAR MROC 050700Z 00000KT CAVOK 20/20 A3002 RMK BKN120 NOSIG=
201109050800 METAR MROC 050800Z 00000KT CAVOK 20/20 A2999 RMK BKN120 NOSIG=
201109050900 METAR MROC 050900Z 00000KT CAVOK 19/19 A2999 RMK SCT120 SCT250 NOSIG=
201109051000 METAR MROC 051000Z 00000KT CAVOK 18/18 A2999 RMK SCT120 SCT250 NOSIG=
201109051100 METAR MROC 051100Z 00000KT CAVOK 18/18 A3000 RMK SCT120 SCT250 NOSIG=
201109051200 METAR MROC 051200Z 11005KT CAVOK 18/18 A3000 RMK BKN100 NOSIG=
201109051300 METAR MROC 051300Z 00000KT CAVOK 20/19 A3001 RMK FEW120 BKN250 NOSIG=
201109051400 METAR MROC 051400Z 24003KT CAVOK 22/20 A3004 RMK BKN250 NOSIG=
201109051500 METAR MROC 051500Z 27006KT 9999 SCT030 23/22 A3005 NOSIG=
201109051600 METAR MROC 051600Z 23005KT 9999 SCT030 23/22 A3005 NOSIG=
201109051700 METAR MROC 051700Z 27005KT 9999 FEW035 SCT250 26/21 A3003 NOSIG=
201109051800 METAR MROC 051800Z 25008KT 9999 SCT035 27/21 A3001 RMK FEW250 NOSIG=
201109051900 METAR MROC 051900Z 22010KT 9999 FEW015TCU SCT030 26/23 A2998 NOSIG=
201109052000 METAR MROC 052000Z 23004KT 9999 4000SW TSRA SCT012CB BKN025 23/23 A2997 BECMG 6000 TSRA=
201109052100 METAR MROC 052100Z 23008KT 8000 -RA VCSH FEW004 FEW015TCU SCT025 24/22 A2996 NOSIG=
201109052200 METAR MROC 052200Z 25006KT 9999 VCTS FEW002 FEW010TCU BKN025 23/23 A2996 RMK VIS E 8KM BECMG 7000 SHRA=
201109052300 METAR MROC 052300Z 24007KT 9999 4000NE -TSRA FEW002 SCT010CB BKN025 21/21 A2999 BECMG 6000 SHRA=
201109060000 METAR MROC 060000Z 00000KT 4500 2000SW RA BR VCTS FEW002 BKN009 21/21 A3001 BECMG 3000 -RA BR=
201109060100 METAR MROC 060100Z 00000KT 8000 -RA VCFG FEW002 SCT015 OVC100 20/20 A3003 NOSIG=
201109060200 METAR MROC 060200Z 00000KT 9999 BCFG FEW035 BKN100 20/20 A3003 RMK LTNG DST S NOSIG=
201109060300 METAR MROC 060300Z 00000KT CAVOK 20/20 A3002 RMK SCT120 BKN250 NOSIG=
201109060400 METAR MROC NIL=
201109060500 METAR MROC 060500Z 15002KT 9999 1500SW PRFG SCT020 BKN250 19/19 A3003 BECMG 0500 FG=
201109060600 METAR MROC 060600Z 00000KT 0300 FG VV/// 20/20 A3002 NOSIG=
201109060700 METAR MROC 060700Z 00000KT 9999 3000SW PRFG FEW035 BKN250 19/19 A3000 NOSIG=
201109060800 METAR MROC 060800Z 00000KT 9999 FEW035 BKN250 19/19 A2999 NOSIG=
201109060900 METAR MROC 060900Z 00000KT CAVOK 19/19 A2998 RMK BKN250 NOSIG=
201109061000 METAR MROC 061000Z 00000KT CAVOK 19/19 A3000 RMK FEW100 BKN250 NOSIG=
201109061100 METAR MROC 061100Z 12003KT 9999 FEW035 BKN250 18/18 A3001 NOSIG=
201109061200 METAR MROC 061200Z 00000KT CAVOK 18/18 A3003 RMK BKN250 HZY NOSIG=
201109061300 METAR MROC 061300Z 00000KT 9999 FEW035 BKN250 21/20 A3006 BECMG 24006KT=
201109061400 METAR MROC 061400Z 10002KT CAVOK 24/21 A3006 BECMG 24006KT=
201109061500 METAR MROC 061500Z 12008KT FEW035 BKN250 27/19 A3005 BECMG 24006KT=
201109061600 METAR MROC 061600Z 23006KT 9999 FEW035 SCT250 27/23 A3005 NOSIG=
201109061700 METAR MROC 061700Z 21010KT 9999 FEW035 SCT250 27/23 A3003 NOSIG=
201109061800 METAR MROC 061800Z 23014KT 9999 SCT030TCU SCT250 27/23 A3002 NOSIG=
201109061900 METAR MROC 061900Z 24013KT 9999 FEW020TCU SCT030 27/23 A3000 RMK RN DST NE BECMG VCSH=
201109062000 METAR MROC 062000Z 22007KT 9999 RA VCTS FEW015CB BKN030 26/23 A2997 RMK VIS 7KM E BECMG SHRA=
201109062100 METAR MROC 062100Z 25008KT 9999 -SHRA VCTS FEW010TCU SCT030 BKN080 24/24 A2996 RMK CB DST N E SE S SW BECMG -TSRA=
201109062200 METAR MROC 062200Z 24004KT 9999 VCSH FEW008CB FEW012 BKN080 24/24 A2996 RMK CB DST ARND RN DST E SE BECMG VCTS=
201109062300 METAR MROC 062300Z 00000KT 9999 FEW008TCU FEW020 BKN200 23/23 A2997 RMK RN DST QUAD E S BECMG -SHRA=
201109062355 METAR MROC 070000Z 21001KT 9999 FEW001 SCT030 BKN200 23/23 A3001 RMK TCU W RN DST QUAD E S NOSIG=
201109070000 METAR MROC 070000Z 21001KT 9999 FEW001 SCT030 BKN200 23/23 A3001 RMK TCU W RN DST QUAD E S NOSIG=
201109070100 METAR MROC 070100Z 24004KT 8000 VCFG FEW001 SCT008 BKN030 22/22 A3003 BECMG 5000 BR=
201109070200 METAR MROC 070200Z 00000KT 9999 VCFG FEW001 SCT008 BKN030 22/22 A3003 BECMG 5000 BR=
201109070300 METAR MROC 070300Z 24003KT 8000 BR FEW003 BKN008 22/22 A3005 RMK VIS 5000SW NOSIG=
201109070400 METAR MROC 070400Z 00000KT 0500 R07/0300 FG BKN002 21/21 A3006 NOSIG=
201109070500 METAR MROC 070500Z 00000KT 1500 R07/0200 BR BKN003 21/21 A3006 RMK VIS 8000 N E NOSIG=
201109070600 METAR MROC 070600Z 00000KT 9999 FEW002 SCT010 BKN100 21/21 A3005 RMK VIS W 5KMS DUE ST LOW=
201109070700 METAR MROC 070700Z 06003KT 9999 FEW005 SCT025 BKN250 21/21 A3002 NOSIG=
201109070800 METAR MROC 070800Z 08005KT 9999 FEW030 BKN250 19/19 A3000 NOSIG=
201109070900 METAR MROC 070900Z 00000KT 9999 FEW030 BKN250 19/19 A2999 RMK VIS 8000SW LOW ST NOSIG=
201109071000 METAR MROC 071000Z 07003KT 9999 FEW030 SCT250 19/19 A2999 NOSIG=
201109071100 METAR MROC 071100Z 08006KT CAVOK 20/19 A3001 RMK FEW250 CB DST SSW NOSIG=
201109071200 METAR MROC 071200Z 07004KT CAVOK 19/19 A3003 RMK FEW250 CB DST SSW NOSIG=
201109071300 METAR MROC 071300Z 03005KT 9999 FEW002 SCT250 22/19 A3005 RMK CB DST SW W BECMG 24007KT=
201109071400 METAR MROC 071400Z 09004KT 9999 FEW010 SCT250 26/20 A3006 RMK CB DST SW W BECMG 24007KT=
201109071500 METAR MROC 071500Z 16004KT CAVOK 28/19 A3006 RMK CB DST W SCT250 BECMG 24007KT=
201109071600 METAR MROC 071600Z 25007KT 9999 FEW040 BKN250 26/23 A3007 RMK CB DST W NOSIG=
201109071700 METAR MROC 071700Z 24007KT 9999 FEW050 BKN250 27/22 A3005 RMK CB DST SW W NOSIG=
201109071800 METAR MROC 071800Z 25007KT 9999 FEW015TCU SCT080 BKN250 27/23 A3003 RMK CB DST SW W N RN DST N E S SW NOSIG=
201109071900 METAR MROC 071900Z 24009KT 9999 FEW015TCU FEW045 BKN250 27/23 A2999 RMK CB RN DST ARND NOSIG=
201109072000 METAR MROC NIL=
201109072037 METAR MROC 072037Z 19009KT 6000 -TSRA FEW010CB SCT030 BKN100 20/19 A2999 NOSIG=
201109072100 METAR MROC 072100Z 15005KT 4000 -TSRA BR FEW001 FEW010CB SCT030 BKN100 19/19 A3002 BECMG 7000 -RA=
201109072200 METAR MROC 072200Z 06005KT 9999 -RA FEW030 OVC100 20/20 A3003 NOSIG=
201109072300 METAR MROC 072300Z 11002KT CAVOK 21/21 A3002 RMK BKN100 SCT250 NOSIG=
201109080000 METAR MROC 080000Z 06006KT CAVOK 21/21 A3002 RMK SCT100 BKN250 NOSIG=
201109080100 METAR MROC 080100Z 08005KT CAVOK 21/21 A3003 RMK SCT100 BKN250 LTNG DST S NOSIG=
201109080200 METAR MROC 080200Z 28003KT 9999 FEW020 SCT120 BKN250 21/21 A3005 NOSIG=
201109080300 METAR MROC 080300Z 00000KT CAVOK 20/20 A3011 RMK SCT120 NOSIG=
201109080352 METAR MROC 080352Z 29004KT CAVOK 20/20 A3010 RMK SCT120 NOSIG=
201109080500 METAR MROC 080500Z 00000KT 8000 VCFG FEW003 SCT250 20/20 A3009 RMK FEW120 BECMG 4000 BR=
201109080600 METAR MROC 080600Z 10004KT 9999 FEW004 SCT120 19/19 A3006 RMK FEW250 NOSIG=
201109080700 METAR MROC 080700Z 00000KT 9999 FEW004 SCT120 19/19 A3004 NOSIG=
201109080800 METAR MROC 080800Z 00000KT 9999 FEW005 SCT120 19/19 A3003 NOSIG=
201109080900 METAR MROC 080900Z 00000KT 9999 FEW004 SCT120 19/19 A3002 NOSIG=
201109081000 METAR MROC NIL=
201109081100 METAR MROC 081100Z 00000KT CAVOK 19/19 A3004 RMK SCT120 NOSIG=
201109081200 METAR MROC 081200Z 00000KT CAVOK 19/19 A3006 RMK KN120 NOSIG=
201109081300 METAR MROC 081300Z 07003KT CAVOK 20/20 A3008 RMK BKN120 NOSIG=
201109081400 METAR MROC 081400Z 00000KT CAVOK 22/21 A3010 RMK BKN120 BECMG 24006KT=
201109081500 METAR MROC 081500Z 00000KT CAVOK 23/21 A3009 RMK BKN120 HZ ARND BECMG 24006K T=
201109081600 METAR MROC 081600Z 24001KT CAVOK 25/22 A3010 RMK BKN120 HZ QUAD W NOSIG=
201109081700 METAR MROC 081700Z 25007KT 9999 SCT045 BKN140 24/22 A3009 RMK VIS 8KM W DUE HZ NOSIG=
201109081800 METAR MROC 081800Z 28003KT 9999 FEW040 SCT140 BKN250 26/21 A3006 NOSIG=
201109081900 METAR MROC 081900Z 24010KT 9999 FEW040 SCT140 BKN250 26/23 A3003 NOSIG=
201109082000 METAR MROC 082000Z 21008KT 9999 FEW020TCU FEW040 BKN200 25/21 A3001 RMK RN DST S E BECMG -RA=
201109082100 METAR MROC 082100Z 24009KT 9999 FEW015TCU SCT025 BKN250 25/22 A3000 NOSIG=
201109082200 METAR MROC 082200Z 24007KT 9999 FEW015TCU SCT025 BKN250 24/23 A3000 RMK CB RASH DST E BECMG 8000 VCSH=
201109082300 METAR MROC 082300Z 24003KT 8000 -RA VCSH FEW015CB BKN120 22/22 A3003 RMK RASH WNW NW NE VIS E SE UNL BECMG 5000 -RA BR=
201109090000 METAR MROC 090000Z 00000KT 9999 -RA FEW008 SCT080 BKN120 22/22 A3003 RMK CB DST W WNW S NOSIG=
201109090100 METAR MROC 090100Z 27004KT 9999 DZ FEW006 SCT080 BKN120 21/21 A3005 NOSIG=
201109090200 METAR MROC 090200Z 00000KT 9000 DZ SCT020 BKN100 24/23 A2990=
201109090300 METAR MROC 090300Z 29002KT 9999 VCFG FEW001 BKN100 20/20 A3007 RMK CB DST SW W NOSIG=
201109090400 METAR MROC 090400Z 00000KT 8000 VCFG FEW001 SCT010 BKN100 20/20 A3008 BECMG 5000 BR=
201109090500 METAR MROC 090500Z 11001KT 9999 FEW001 BKN100 20/20 A3007 RMK HZY QUAD E NOSIG=
201109090600 METAR MROC 090600Z 08002KT 9999 FEW001 BKN100 20/20 A3005 RMK HZY ARND VIS 6KM SW W NOSIG=
201109090700 METAR MROC 090700Z 06002KT 9999 FEW005 BKN100 20/20 A3004 RMK HZY ARND NOSIG=
201109090800 METAR MROC 090800Z 05004KT 9999 FEW005 BKN110 20/20 A3003 RMK HZY ARND NOSIG=
201109090900 METAR MROC 090900Z 06004KT CAVOK 19/19 A3002 RMK HZY ARND NOSIG=
201109091000 METAR MROC 091000Z 09004KT CAVOK 19/19 A3002 RMK HZY ARND NOSIG=
201109091100 METAR MROC 091100Z 09004KT CAVOK 19/18 A3002 RMK CB LGTNG DST SW BKN110 NOSIG=
201109091200 METAR MROC 091200Z 10001KT 9999 FEW010 BKN120 20/18 A3003 RMK CB LGTNG DST SW NOSIG=
201109091300 METAR MROC 091300Z 00000KT CAVOK 20/19 A3006 RMK SCT140 NOSIG=
201109091400 METAR MROC 091400Z 08006KT CAVOK 24/18 A3007 RMK FEW140 NOSIG=
201109091500 METAR MROC 091500Z 10003KT CAVOK 25/18 A3008 RMK FEW140 SCT300 NOSIG=
201109091600 METAR MROC 091600Z 09003KT CAVOK 27/18 A3006 RMK FEW140 SCT300 BECMG 24006KT=
201109091700 METAR MROC 091700Z 23009KT 9999 FEW040 SCT300 27/21 A3004 NOSIG=
201109091800 METAR MROC 091800Z 24009KT 9999 SCT035 SCT300 27/22 A3002 NOSIG=
201109091900 METAR MROC 091900Z 24009KT 9999 SCT030 SCT300 27/22 A2999 NOSIG=
201109092000 METAR MROC 092000Z 23008KT 9999 FEW015TCU SCT025 BKN300 26/22 A2997 RMK RN DST E BECMG 8000 VCSH=
201109092100 METAR MROC 092100Z 23012KT 9999 VCTS FEW015TCU SCT020 25/23 A2996 RMK RN DST SW NW NOSIG=
201109092200 METAR MROC 092200Z 24007KT 9999 4000N -SHRA SCT015 SCT080 23/23 A2996 BECMG -RA=
201109092300 METAR MROC 092300Z 24005KT 9999 4500N -RABR FEW012 BKN025 23/23 A2999 NOSIG=
201109100000 METAR MROC 100000Z 25006KT 9999 SCT015 SCT090 22/22 A2999 BECMG 5000 -RA BR=
201109100100 METAR MROC 100100Z 26004KT 9999 FEW003 SCT015 BKN090 21/21 A3001 NOSIG=
201109100200 METAR MROC 100200Z 30005KT 9999 FEW015 BKN100 21/21 A3003 NOSIG=
201109100300 METAR MROC 100300Z 00000KT 9999 FEW015 BKN100 21/21 A3006 RMK HZ LGT ARND NOSIG=
201109100400 METAR MROC 100400Z 00000KT 9999 FEW015 BKN120 21/21 A3006 NOSIG=
201109100500 METAR MROC 100500Z 00000KT 9999 FEW020 BKN120 20/20 A3005 NOSIG=
201109100600 METAR MROC 100600Z 00000KT 9999 FEW020 BKN120 20/20 A3003 NOSIG=
201109100700 METAR MROC 100700Z 00000KT 9999 FEW030 BKN120 20/20 A3001 NOSIG=
201109100800 METAR MROC 100800Z 00000KT 9999 VCFG FEW040 BKN090 20/20 A3000 RMK VIS 8KM SW NOSIG=
201109100900 METAR MROC 100900Z 00000KT 9999 VCFG FEW025 SCT070 BKN200 19/19 A2999 RMK VIS 8KM SW/W NOSIG=
201109101000 METAR MROC 101000Z 00000KT 9999 4500SW BCFG FEW025 BKN250 19/19 A2999 RMK FEW070 NOSIG=
201109101100 METAR MROC 101100Z 09003KT CAVOK 19/18 A3000 RMK SCT250 LTNG DST S NOSIG=
201109101200 METAR MROC 101200Z 11003KT 9999 FEW040 BKN070 20/19 A3003 RMK CB DST S SW HZ W RA NE E NOSIG=
201109101300 METAR MROC 101300Z 09004KT 9999 SCT045 BKN080 21/19 A3005 RMK CB DST SSW NOSIG=
201109101400 METAR MROC 101400Z 07006KT CAVOK 23/20 A3006 RMK SCT090 SCT220 NOSIG=
201109101500 METAR MROC 101500Z 10005KT CAVOK 25/20 A3006 RMK FEW100 BKN250 NOSIG=
201109101600 METAR MROC 101600Z 13010KT CAVOK 25/14 A3006 RMK BKN250 NOSIG=
201109101700 METAR MROC NIL=
201109101800 METAR MROC 101800Z 24004KT 9999 FEW030 BKN250 27/19 A3002 NOSIG=
201109101900 METAR MROC 101900Z 24011KT 9999 SCT030 BKN250 24/23 A3000 NOSIG=
201109102000 METAR MROC 102000Z 24008KT 9999 FEW015TCU SCT025 26/23 A2997 NOSIG=
201109102100 METAR MROC 102100Z 24008KT 9999 VCSH FEW010TCU SCT025 BKN140 25/22 A2996 RMK SHRA NE BECMG 8000 VCSH=
201109102200 METAR MROC 102200Z 23008KT 9999 VCSH FEW015TCU SCT025 BKN140 24/22 A2996 RMK SHRA N NE NOSIG=
201109102300 METAR MROC 102300Z 26008KT 8000 VCSH FEW003 SCT020 BKN140 23/23 A2997 BECMG 5000 -RA BR=
201109110000 METAR MROC 110000Z 24005KT 2000 BR FEW002 SCT010 BKN015 21/21 A2999 NOSIG=
201109110100 METAR MROC 110100Z 23004KT 2000 BR FEW002 SCT010 BKN015 21/21 A3001 NOSIG=
201109110200 METAR MROC 110200Z 27004KT 2000 BR FEW002 SCT010 BKN015 21/21 A3004 NOSIG=
201109110300 METAR MROC 110300Z 00000KT 9999 FEW006 SCT020 BKN120 21/21 A3005 NOSIG=
201109110400 METAR MROC 110400Z 27003KT 9999 FEW006 SCT025 BKN120 21/21 A3006 NOSIG=
201109110500 METAR MROC 110500Z 00000KT 9999 FEW010 SCT025 BKN140 21/21 A3005 NOSIG=
201109110600 METAR MROC 110600Z 00000KT 9999 FEW008 SCT030 BKN140 20/20 A3004 NOSIG=
201109110700 METAR MROC 110700Z 00000KT 9999 SCT025 BKN140 20/20 A3001 NOSIG=
201109110800 METAR MROC 110800Z 00000KT 9999 FEW025 SCT100 20/20 A3006 NOSIG=
201109110900 METAR MROC 110900Z 00000KT 9999 FEW025 SCT120 19/19 A2999 NOSIG=
201109111000 METAR MROC 111000Z 00000KT 9999 FEW025 19/19 A3000 RMK FEW120 NOSIG=
201109111100 METAR MROC 111100Z 00000KT CAVOK 19/19 A3001 RMK BKN250 NOSIG=
201109111200 METAR MROC 111200Z 07003KT CAVOK 19/19 A3002 RMK FEW150 BKN250 NOSIG=
201109111300 METAR MROC 111300Z 00000KT CAVOK 20/20 A3003 RMK BKN250 NOSIG=
201109111400 METAR MROC 111400Z 00000KT CAVOK 23/20 A3005 RMK BKN250 BECMG 24006KT=
201109111500 METAR MROC 111500Z 00000KT CAVOK 24/21 A3006 RMK BKN250 BECMG 24006KT=
201109111600 METAR MROC 111600Z 27003KT 9999 DZ FEW010 BKN120 25/23 A2995 RMK FEW090 CBS RN / NE / E / SE HZ LGT ARUND/=
201109111700 METAR MROC 111700Z 22006KT 9999 SCT035 BKN200 24/21 A3006 NOSIG=
201109111800 METAR MROC 111800Z 26007KT 9999 SCT030 BKN200 25/22 A3004 NOSIG=
201109111900 METAR MROC 111900Z 00000KT 9999 VCSH FEW015TCU SCT030 BKN200 24/22 A3001 RMK SHRA DST NE BECMG 6000 VCSH=
201109112000 METAR MROC 112000Z 24008KT 9999 VCSH SCT030 BKN200 24/22 A2999 RMK SHRA DST NE NOSIG=
201109112100 METAR MROC 112100Z 24008KT 9999 -DZ FEW001 FEW010TCU SCT020 BKN140 23/23 A2998 BECMG -SHRA=
201109112200 METAR MROC 112200Z 24006KT 9999 -RA FEW001 FEW010TCU SCT025 BKN140 23/23 A2998 BECMG -SHRA=
201109112300 METAR MROC 112300Z 25007KT 9999 -DZ FEW005 SCT140 22/22 A3000 RMK TCU W S RN DST S SCT200 NOSIG=
201109112355 METAR MROC 120000Z 25006KT 9999 VCFG FEW001 SCT009 BKN020 21/21 A3001 BECMG 5000 BR=
201109120000 METAR MROC 120000Z 25006KT 9999 VCFG FEW001 SCT009 BKN020 21/21 A3001 BECMG 5000 BR=
201109120100 METAR MROC 120100Z 26005KT 9999 VCFG FEW001 SCT009 BKN020 21/21 A3003 BECMG 5000 BR=
201109120200 METAR MROC 120200Z 24005KT 9999 VCFG FEW001 SCT007 BKN018 21/21 A3007 BECMG 5000 BR=
201109120300 METAR MROC 120300Z 24004KT 9999 BKN020 21/21 A3009 NOSIG=
201109120400 METAR MROC 120400Z 25006KT 9999 BKN020 SCT090 20/20 A3010 NOSIG=
201109120500 METAR MROC 120500Z 26006KT 9999 BKN020 SCT090 20/20 A3010 NOSIG=
201109120600 METAR MROC 120600Z 28006KT 9999 SCT006 BKN020 20/20 A3010 NOSIG=
201109120700 METAR MROC 120700Z 00000KT 9999 FEW006 SCT020 BKN100 20/20 A3007 NOSIG=
201109120800 METAR MROC 120800Z 00000KT 9999 3000SW BR FEW002 SCT020 BKN100 20/20 A3003 NOSIG=
201109120900 METAR MROC 120900Z 10003KT 9999 3000SW R07/1000 BR FEW002 SCT030 BKN100 20/20 A3002 NOSIG=
201109121000 METAR MROC 121000Z 00000KT 9999 FEW030 SCT100 19/19 A3005 NOSIG=
201109121100 METAR MROC 121100Z 00000KT 9999 SCT030 SCT100 19/19 A3007 NOSIG=
201109121200 METAR MROC 121200Z 00000KT 9999 FEW020 BKN100 20/20 A3008 NOSIG=
201109121300 METAR MROC 121300Z 00000KT 9999 FEW010 SCT040 21/21 A3010 RMK RN DST SE SCT120 NOSIG=
201109121400 METAR MROC 121400Z 19001KT 9999 FEW010 SCT035 23/20 A3013 RMK RN DST SE S SCT140 NOSIG=
201109121500 METAR MROC 121500Z 00000KT 9999 FEW030 BKN140 23/20 A3013 RMK RN DST S NOSIG=
201109121600 METAR MROC 121600Z 28006KT 9999 SCT030 BKN140 25/21 A3012 RMK RN DST S NOSIG=
201109121700 METAR MROC 121700Z 25007KT 9999 SCT030 SCT120 26/21 A3011 NOSIG=
201109121800 METAR MROC 121800Z 23008KT 9999 FEW010TCU SCT030 26/22 A3008 RMK TCU SW RN DST E NOSIG=
201109121900 METAR MROC 121900Z 24010KT 9999 FEW012TCU FEW030 SCT120 25/22 A3006 RMK CB RN DST E NOSIG=
201109122000 METAR MROC 122000Z 25009KT 9999 FEW012TCU SCT040 25/22 A3003 RMK CB DST NE E BECMG -SHRA=
201109122100 METAR MROC 122100Z 26007KT 9999 FEW010TCU BKN030 24/22 A3001 RMK RA S BECMG 5KMS RA=
201109122200 METAR MROC 122200Z 00000KT 3000 -RA BR FEW001 SCT010 BKN030 21/21 A3003 BECMG 1000 -RA BR=
201109122300 METAR MROC 122300Z 00000KT 3000 -RA BR FEW001 SCT010 BKN030 21/21 A3004 RMK VIS S UNL BECMG 1000 -RA BR=
201109130000 METAR MROC 130000Z 28008KT 260V320 7000 2000SW -DZ BR FEW001 SCT020 BKN100 21/21 A3007 NOSIG=
201109130100 METAR MROC 130100Z 25003KT 7000 2000SW -RA BR FEW001 SCT020 OVC100 21/21 A3008 BECMG 5000 -RA BR=
201109130200 METAR MROC 130200Z 00000KT 7000 2000SW DZ BR FEW001 SCT015 OVC100 21/21 A3009 BECMG 3000 -RA BR=
201109130300 METAR MROC 130300Z 00000KT FEW003 SCT020 OVC100 21/21 A3011 NOSIG=
201109130400 METAR MROC 130400Z 08002KT CAVOK 21/21 A3013 RMK SCT120 NOSIG=
201109130500 METAR MROC 130500Z 09005KT CAVOK 21/21 A3009 RMK SCT120 NOSIG=
201109130600 METAR MROC NIL=
201109130700 METAR MROC 130700Z 10003KT CAVOK 20/20 A3005 RMK SCT120 NOSIG=
201109130800 METAR MROC 130800Z 00000KT CAVOK 19/19 A3004 RMK SCT120 NOSIG=
201109130900 METAR MROC 130900Z 04004KT CAVOK 18/18 A3001 RMK SCT120 NOSIG=
201109131000 METAR MROC 131000Z 09005KT 9999 FEW020 BKN120 19/19 A3005 NOSIG=
201109131100 METAR MROC 131100Z 04003KT CAVOK 19/19 A3005 RMK SCT120 NOSIG=
201109131200 METAR MROC 131200Z 00000KT CAVOK 18/18 A3007 RMK SCT120 NOSIG=
201109131251 METAR MROC 031300Z 07004KT CAVOK 21/20 A3004 RMK SCT120 BKN250 NOSIG=
201109131300 METAR MROC 131300Z 00000KT CAVOK 19/19 A3009 RMK BKN250 NOSIG=
201109131400 METAR MROC 131400Z 00000KT CAVOK 22/20 A3009 RMK BKN250 BECMG 22005KT=
201109131500 METAR MROC 131500Z 00000KT CAVOK 25/20 A3006 RMK BKN250 BECMG 22005KT=
201109131600 METAR MROC 131600Z 30006KT 9999 FEW040 SCT120 BKN250 27/21 A3007 BECMG 22005KT=
201109131700 METAR MROC 131700Z 26006KT 9999 FEW040 SCT120 BKN250 28/23 A3005 NOSIG=
201109131800 METAR MROC 131800Z 25004KT 9999 FEW040 SCT120 BKN250 27/23 A3003 NOSIG=
201109131900 METAR MROC 131900Z 26009KT 9999 FEW015TCU SCT035 28/24 A3000 NOSIG=
201109132000 METAR MROC 132000Z 23009KT 9999 RA FEW015CB SCT030 BKN100 24/23 A3000 BECMG 6000 -TS RA=
201109132100 METAR MROC 132100Z 24004KT 8000 -RA VCSH FEW005 SCT010 SCT015CB 23/23 A2999 RMK VIS S SW 5KMS VIS E SE UNL BECMG 4000 -SHRA=
201109132200 METAR MROC 132200Z 23004KT 9999 4000NW SHRA VCTS FEW015CB BKN025 22/22 A2999 BECMG RMK TS WNW NW=
201109132300 METAR MROC 132300Z 00000KT 9999 VCFG FEW008 SCT020 BKN100 22/22 A2999 RMK VIS N NE 8KMS BECMG 5000 -RA BR=
201109140000 METAR MROC 140000Z 00000KT 9999 VCFG FEW003 SCT020 BKN120 22/22 A3001 RMK VIS W 8KMS BECMG 5000 -RA BR=
201109140100 METAR MROC 140100Z 00000KT 9999 4000SW PRFG FEW003 SCT020 21/21 A3002 BECMG 4000 BR=
201109140200 METAR MROC 140200Z 00000KT 9999 VCFG FEW140 SCT250 21/21 A3001 RMK VIS NW N 8KMS NOSIG=
201109140300 METAR MROC 140300Z 00000KT 9999 VCFG FEW001 21/21 A3003 RMK HZY ARND FEW025 VIS 6KM SW W NOSIG=
201109140400 METAR MROC 140400Z 11002KT 9999 VCFG FEW001 21/21 A3004 RMK FEW025 NOSIG=
201109140500 METAR MROC 140500Z 00000KT 9999 VCFG FEW001 21/21 A3004 RMK FEW025 NOSIG=
201109140600 METAR MROC 140600Z 07003KT 9999 VCFG FEW001 20/20 A3003 RMK LGTNG DST S FEW020 NOSIG=
201109140700 METAR MROC 140700Z 07004KT 9999 FEW002 21/20 A3000 NOSIG=
201109140800 METAR MROC 140800Z 08003KT 9999 FEW002 20/19 A2999 RMK CB TS DST SW NOSIG=
201109140900 METAR MROC 140900Z 07006KT 9999 FEW002 20/19 A2997 RMK CB TS DST SW NOSIG=
201109141000 METAR MROC 141000Z 05006KT CAVOK 20/18 A2997 RMK CB TS DST SW NOSIG=
201109141100 METAR MROC 141100Z 06005KT CAVOK 20/19 A2998 RMK CB TS DST SW NOSIG=
201109141200 METAR MROC 141200Z 08005KT CAVOK 21/19 A3000 RMK CB TS DST SW BKN250 NOSIG=
201109141300 METAR MROC 141300Z 10008KT CAVOK 23/19 A3001 RMK SCT250 CB DST S SW NOSIG=
201109141400 METAR MROC 141400Z 13007KT CAVOK 25/18 A3003 RMK BKN250 CB DST S SW NOSIG=
201109141500 METAR MROC 141500Z 13009KT CAVOK 27/17 A3002 RMK BKN250 CBS DST S SW NOSIG=
201109141600 METAR MROC 141600Z 11009KT 9999 FEW035 BKN250 28/17 A3004 NOSIG=
201109141700 METAR MROC 141700Z 08007KT 9999 SCT035 BKN250 28/17 A3003 RMK TCU DST SSE S BECMG 24006KT=
201109141800 METAR MROC 141800Z 18003KT 9999 FEW030 BKN250 30/22 A3001 RMK FEW060 BECMG 24006KT=
201109141900 METAR MROC 141900Z 22010KT 9999 SCT030 BKN250 28/22 A2998 BECMG VCSH=
201109142000 METAR MROC 142000Z 21010KT 9999 VCSH VCTS FEW015CB SCT030 BKN250 26/22 A2996 RMK TS RASH NW N BECMG -SHRA SCT015CB=
201109142100 METAR MROC 142100Z 24011KT 9999 VCSH VCTS FEW015CB BKN030 25/23 A2997 NOSIG=
201109142200 METAR MROC 142200Z 30006KT 9999 FEW010 BKN025 22/22 A2996 NOSIG=
201109142300 METAR MROC 142300Z 25003KT 9999 FEW025 BKN250 23/22 A2996 NOSIG=
201109150000 METAR MROC 150000Z 00000KT 9999 FEW030 SCT100 BKN250 22/22 A2998 NOSIG=
201109150054 METAR MROC 150054Z 33002KT 9999 FEW030 BKN100 22/22 A3000 NOSIG=
201109150100 METAR MROC 150100Z 33002KT 9999 FEW030 BKN100 22/22 A3000 NOSIG=
201109150200 METAR MROC 150200Z 00000KT 9999 FEW030 BKN120 22/21 A3001 NOSIG=
201109150300 METAR MROC 150300Z 08002KT CAVOK 21/21 A3002 RMK SCT120 BKN250 NOSIG=
201109150400 METAR MROC 150400Z 06006KT CAVOK 21/20 A3003 RMK FEW120 SCT250 NOSIG=
201109150500 METAR MROC 150500Z 01002KT CAVOK 20/20 A3002 RMK FEW120 SCT250 NOSIG=
201109150600 METAR MROC 150600Z 34003KT CAVOK 20/20 A3003 RMK ST LOW SW FEW120 SCT250 NOSIG=
201109150700 METAR MROC 150700Z 24002KT 9999 FEW003 SCT250 19/19 A3002 RMK FEW120 NOSIG=
201109150800 METAR MROC 150800Z 00000KT 9999 FEW003 SCT250 19/19 A//// RMK FEW120 NOSIG=
201109150900 METAR MROC 150900Z 00000KT 9999 2000SW BR FEW001 SCT250 19/19 A2999 NOSIG=
201109151000 METAR MROC 151000Z 00000KT 9999 FEW001 SCT250 19/19 A2999 NOSIG=
201109151100 METAR MROC 151100Z 08006KT CAVOK 19/19 A2998 RMK SCT250 NOSIG=
201109151200 METAR MROC 151200Z 00000KT CAVOK 19/18 A3001 RMK FEW100 SCT250 TCU DST SW NOSIG=
201109151300 METAR MROC 151300Z 08003KT CAVOK 22/19 A3002 RMK FEW100 SCT250 TCU DST SW NOSIG=
201109151400 METAR MROC 151400Z 11006KT CAVOK 25/19 A3003 RMK SCT250 TCU DST SW NOSIG=
201109151500 METAR MROC 151500Z 12006KT CAVOK 27/18 A3004 RMK SCT250 TCU DST SW NOSIG=
201109151600 METAR MROC 151600Z 15008KT CAVOK 29/17 A3004 RMK BKN250 BECMG 24007KT=
201109151700 METAR MROC 151700Z 25010KT 9999 SCT035 SCT250 26/21 A3004 NOSIG=
201109151800 METAR MROC 151800Z 25007KT 9999 SCT020 SCT035 26/23 A3003 NOSIG=
201109151845 METAR MROC 151845Z 00000KT 9999 3000SW -RA FEW025 BKN100 22/22 A3000 NOSIG=
201109151900 METAR MROC 151900Z 25003KT 9999 -RA FEW025 BKN090 22/22 A3000 RMK VIS 6000 SW NOSIG=
201109152000 METAR MROC 152000Z 00000KT 9999 SCT030 BKN100 23/23 A3000 RMK LOW ST SW NOSIG=
201109152100 METAR MROC 152100Z 25010KT 2000 -RA BR FEW001 SCT005 BKN015 20/20 A3001=
201109152200 METAR MROC 152200Z 31006KT 5000 BR FEW002 SCT006 BKN015 20/20 A3002 BECMG 1000 BR=
201109152300 METAR MROC 152300Z 00000KT 9999 FEW005 SCT020 BKN250 21/21 A3003 NOSIG=
201109160000 METAR MROC 160000Z 00000KT 9999 FEW006 SCT080 BKN200 20/20 A3004 NOSIG=
201109160100 METAR MROC 160100Z 00000KT CAVOK 20/20 A3005 RMK BKN200 NOSIG=
201109160200 METAR MROC 160200Z 00000KT CAVOK 20/20 A3006 RMK BKN200 NOSIG=
201109160300 METAR MROC 160300Z 00000KT CAVOK 20/20 A3006 RMK BKN200 NOSIG=
201109160400 METAR MROC 160400Z 09004KT CAVOK 20/20 A3006 RMK SCT140 BKN250 NOSIG=
201109160500 METAR MROC 160500Z 08003KT CAVOK 19/19 A3005 RMK SCT140 SCT250 NOSIG=
201109160600 METAR MROC 160600Z 09005KT CAVOK 19/19 A3003 RMK SCT140 SCT250 NOSIG=
201109160700 METAR MROC 160700Z 06009KT CAVOK 20/18 A3001 RMK SCT140 SCT250 NOSIG=
201109160800 METAR MROC 160800Z 03004KT CAVOK 19/18 A3001 RMK SCT140 SCT250 NOSIG=
201109160900 METAR MROC 160900Z 05007KT CAVOK 20/18 A3000 RMK SCT140 FEW250 NOSIG=
201109161000 METAR MROC 161000Z 08003KT CAVOK 20/18 A3000 RMK SCT140 NOSIG=
201109161100 METAR MROC 161100Z 09003KT CAVOK 20/18 A2999 RMK FEW250 CB DST S NOSIG=
201109161200 METAR MROC 161200Z 00000KT CAVOK 19/18 A3000 RMK FEW300 CB DST S SW NOSIG=
201109161300 METAR MROC 161300Z 00000KT 9999 FEW025 22/19 A3003 RMK CB DST S SW FEW250 BECMG 24006KT=
201109161400 METAR MROC 161400Z 13010KT 9999 FEW030 SCT250 24/19 A3004 NOSIG=
201109161500 METAR MROC 161500Z 14008KT 9999 FEW030 SCT250 26/19 A3005 NOSIG=
201109161600 METAR MROC 161600Z 15006KT 9999 SCT030 SCT250 28/19 A3003 NOSIG=
201109161700 METAR MROC 161700Z 25010KT 9999 SCT025 SCT250 26/22 A3005 NOSIG=
201109161800 METAR MROC 161800Z 26011KT 9999 VCSH FEW015TCU BKN025 25/22 A3003 BECMG 7000 VCSH=
201109161900 METAR MROC 161900Z 23008KT 1000 R07/0300 +SHRA VCTS FEW005TCU BKN015 22/22 A3001 NOSIG=
201109162000 METAR MROC 162000Z 25010KT 9999 4000NW -RA FEW003 FEW010CB SCT025 BKN100 22/22 A2998 NOSIG=
201109162100 METAR MROC 162100Z 26006KT 9999 -TSRA FEW001 FEW010CB SCT030 BKN040 22/22 A2998 BECMG 5000 TSRA=
201109162200 METAR MROC 162200Z 27005KT 1600 RA BR VCTS FEW001CB SCT020 OVC100 21/21 A2997 NOSIG=
201109162300 METAR MROC 162300Z 26006KT 3000 +RA BR FEW001CB SCT010 OVC100 20/20 A3000 RMK CB QUAD W VIS 5KM E BECMG 1000 +RA FG=
201109162356 METAR MROC 170000Z 29001KT 8000 RA VCFG FEW001 SCT010 OVC100 20/20 A3002 NOSIG=
201109170000 METAR MROC 170000Z 29001KT 8000 RA VCFG FEW001 SCT010 OVC100 20/20 A3002 NOSIG=
201109170100 METAR MROC 170100Z 00000KT 5000 RA BR FEW001 SCT010 OVC100 20/20 A3005 RMK VIS 8KM QUAD E BECMG 3000 RA BR=
201109170200 METAR MROC 170200Z 00000KT 9999 -RA VCFG FEW001 SCT020 OVC100 20/20 A3007 RERA NOSIG=
201109170300 METAR MROC 170300Z 00000KT 9999 SCT020 BKN120 20/20 A3008 RMK LOW ST S SSW NOSIG=
201109170400 METAR MROC 170400Z 00000KT 9999 FEW012 BKN100 20/20 A3007 NOSIG=
201109170500 METAR MROC 170500Z 00000KT 9999 FEW015 OVC100 19/19 A3006 RMK LOW ST SW NOSIG=
201109170600 METAR MROC 170600Z 00000KT 9999 FEW015 OVC100 20/20 A3005 NOSIG=
201109170700 METAR MROC 170700Z 00000KT 9999 FEW015 OVC100 19/19 A3004 NOSIG=
201109170800 METAR MROC 170800Z 00000KT 9999 FEW015 OVC100 19/19 A3002 RMK LOW ST SW NOSIG=
201109170900 METAR MROC 170900Z 00000KT 9999 2000SW R07/0200 BR FEW002 SCT015 BKN120 19/19 A3001 NOSIG=
201109171000 METAR MROC 171000Z 00000KT 9999 4800SW BR FEW005 SCT120 19/19 A2999 RMK SCT020 NOSIG=
201109171100 METAR MROC 171100Z 00000KT 9999 4000 BR FEW003 SCT120 19/19 A3000 RMK FEW025 NOSIG=
201109171200 METAR MROC 171200Z 05003KT CAVOK 18/18 A3002 RMK SCT100 SCT250 LOW ST S SW NOSIG=
201109171300 METAR MROC 171300Z 10002KT 9999 FEW001 BKN110 19/19 A3002 NOSIG=
201109171400 METAR MROC 171400Z 10003KT 9999 FEW001 BKN110 22/21 A3004 NOSIG=
201109171500 METAR MROC 171500Z 00000KT 9999 FEW001 BKN090 24/20 A3004 BECMG 24007KT=
201109171600 METAR MROC 171600Z 13005KT CAVOK 25/19 A3005 RMK CB RN DST NE HZY QUAD E W BECMG 24007KT=
201109171700 METAR MROC 171700Z 22006KT 9999 FEW001 SCT080 OVC140 24/23 A3004 RMK CB RN DST NE NOSIG=
201109171800 METAR MROC 171800Z 24009KT 9999 VCSH FEW008TCU SCT020 OVC140 25/23 A3002 RMK CB RN DST SE TCU SW BECMG -SHRA=
201109171900 METAR MROC 171900Z 24007KT 9999 VCSH FEW005TCU FEW022 OVC140 24/23 A3000 RMK CB RN DST QUAD E TCU SW BECMG -SHRA=
201109172000 METAR MROC 172000Z 25009KT 9999 VCSH FEW001 FEW010CB OVC160 23/22 A2998 RMK CB RN DST QUAD E CB SW BECMG -TSRA=
201109172100 METAR MROC 172100Z 27006KT 9999 FEW010 SCT020TCU BKN120 23/22 A2997 RMK BECMG -RA=
201109172200 METAR MROC 172200Z 26005KT 9999 SCT015 BKN200 24/22 A2996 NOSIG=
201109172300 METAR MROC 172300Z 25006KT 9999 FEW005 SCT015 BKN200 22/22 A2998 BECMG 5000 BR=
201109180000 METAR MROC 180000Z 00000KT 9999 FEW005 SCT015 BKN200 21/21 A3001 BECMG 5000 BR=
201109180100 METAR MROC 180100Z 00000KT 9999 4000SW BR FEW002 SCT010 BKN200 21/21 A3004 BECMG 5000 BR=
201109180200 METAR MROC 180200Z 24003KT 7000 3000SW BR FEW001 SCT010 BKN030 21/21 A3006 BECMG 3000 BR=
201109180300 METAR MROC 180300Z 00000KT 1500 -RABR SCT002 BKN012 20/20 A3008 BECMG 0500 -RABR=
201109180400 METAR MROC 180400Z 08005KT 7000 -RA SCT015 BKN100 20/20 A3009 NOSIG=
201109180500 METAR MROC 180500Z 00000KT 9999 SCT020 BKN100 20/20 A3008 NOSIG=
201109180600 METAR MROC 180600Z 00000KT 9999 SCT020 BKN100 20/20 A3006 NOSIG=
201109180700 METAR MROC 180700Z 00000KT 9999 SCT020 BKN100 19/19 A3004 NOSIG=
201109180800 METAR MROC 180800Z 00000KT 9999 SCT020 BKN100 19/19 A3002 NOSIG=
201109180900 METAR MROC 180900Z 00000KT CAVOK 19/19 A3001 RMK SCT100 BKN250 NOSIG=
201109181000 METAR MROC 181000Z 11003KT CAVOK 19/19 A3000 RMK SCT120 SCT250 NOSIG=
201109181100 METAR MROC 181100Z 09004KT CAVOK 19/19 A3000 RMK SCT120 SCT250 NOSIG=
201109181200 METAR MROC 181200Z 10003KT CAVOK 19/19 A3001 RMK SCT120 SCT250 NOSIG=
201109181300 METAR MROC 181300Z 03003KT CAVOK 20/20 A3005 RMK BKN250 NOSIG=
201109181400 METAR MROC 181400Z 00000KT CAVOK 23/20 A3007 RMK SCT250 TCU DST SW BECMG 22006KT=
201109181500 METAR MROC 181500Z 23007KT 9999 FEW025 25/21 A3007 NOSIG=
201109181600 METAR MROC 181600Z 23009KT 9999 FEW025 SCT250 25/22 A3007 NOSIG=
201109181700 METAR MROC 181700Z 25006KT 9999 SCT025 SCT130 26/21 A3007 NOSIG=
201109181800 METAR MROC 181800Z 26005KT 9999 SCT025 SCT130 26/20 A3004 NOSIG=
201109181900 METAR MROC 181900Z 22007KT 9999 SCT025 BKN250 26/22 A3000 RMK RA DST E SE BECMG 8000 VCSH=
201109182000 METAR MROC 182000Z 21005KT 9999 SCT025 BKN250 26/22 A2997 BECMG 8000 VCSH=
201109182100 METAR MROC 182100Z 23010KT 9999 SHRA SCT015CB BKN025 24/22 A2997 RMK SH VIS 5KMS SW BEMG 2000 TSRA=
201109182200 METAR MROC 182200Z 24009KT 7000 2000 -SHRA VCTS SCT015CB BKN025 20/20 A2999 RMK VIS SE UNL TS S BECMG 3000 -TSRA=
201109182300 METAR MROC 182300Z 32004KT 8000 -RA FEW005 FEW015CB SCT020 BKN120 20/20 A3000 RMK VIS S SSW 5KMS DUE LOW ST BECMG 5000 -RA BR=
201109190000 METAR MROC 190000Z 36003KT 8000 RA SCT012 BKN025 20/20 A3003 NOSIG=
201109190100 METAR MROC 190100Z 00000KT 9999 -RA SCT020 BKN100 20/20 A3006 NOSIG=
201109190200 METAR MROC 190200Z 00000KT 9999 -RA FEW025 BKN100 20/20 A3005 NOSIG=
201109190300 METAR MROC 190300Z 06006KT 9999 -RA FEW002 BKN100 20/20 A3004 NOSIG=
201109190400 METAR MROC 190400Z 23006KT 0300 FG VV/// 20/20 A3006 NOSIG=
201109190500 METAR MROC 190500Z 36002KT 4000 BR FEW001 BKN020 20/20 A3007 RMK VIS SW UNLT D FEW008 NOSIG=
201109190600 METAR MROC 190600Z 00000KT 9999 FEW010 BKN020 20/20 A3006 NOSIG=
201109190700 METAR MROC 190700Z 00000KT 9999 FEW010 BKN020 20/20 A3004 RMK LGTNG DST SW NOSIG=
201109190800 METAR MROC 190800Z 00000KT 9999 FEW005 BKN020 20/20 A3004 NOSIG=
201109190900 METAR MROC 190900Z 00000KT 9999 FEW012 BKN030 20/20 A3003 NOSIG=
201109191000 METAR MROC 191000Z 00000KT 9999 FEW001 BKN030 19/19 A3004 NOSIG=
201109191100 METAR MROC 191100Z 00000KT 9999 FEW001 BKN120 19/19 A3004 RMK CB DST E FEW012 NOSIG=
201109191200 METAR MROC 191200Z 08004KT CAVOK 19/19 A3004 RMK CB DST E SE NOSIG=
201109191300 METAR MROC 191300Z 11004KT CAVOK 23/21 A3006 RMK FEW060 BKN250 NOSIG=
201109191400 METAR MROC 191400Z 00000KT 9999 FEW030 SCT100 BKN250 23/21 A3008 BECMG 24006KT=
201109191500 METAR MROC 191500Z 24003KT 9999 FEW030 SCT120 BKN250 25/21 A3008 RMK TCU DST S HZY NOSIG=
201109191600 METAR MROC 191600Z 23007KT 9999 SCT030 BKN250 27/22 A3007 NOSIG=
201109191700 METAR MROC 191700Z 23006KT 9999 FEW030 SCT100 BKN250 26/21 A3005 RMK TUC DST N E SE RN DST E BECMG VCSH=
201109191800 METAR MROC 191800Z 23005KT 9999 FEW030 BKN100 26/22 A3002 BECMG VCSH=
201109191900 METAR MROC 191900Z 25002KT 9999 VCSH VCTS FEW015CB SCT030 BKN120 27/22 A3000 RMK TS RASH VIS 8KMS N NE BECMG 5000 TSRA=
201109191901 METAR MROC 191901Z 25002KT 9999 VCTS VCSH FEW015CB SCT030 BKN120 27/22 A3000 RMK TS RASH VIS 8KMS N BECMG 5000 TSRA=
201109192000 METAR MROC 192000Z 05006KT 9999 -RA VCTS VCSH FEW015CB SCT025 BKN120 21/19 A2998 RMK TS N NNW VIS ESE UNL NOSIG=
201109192100 METAR MROC 192100Z 10002KT 9999 FEW012 SCT025 BKN100 22/22 A2995 RMK RN DST SW W NE NOSIG=
201109192200 METAR MROC 192200Z 25005KT 9999 3000SW BR SCT003 BKN100 20/20 A2997 BECMG 1000 BR=
201109192300 METAR MROC 192300Z 00000KT 9999 4800SW -DZ BR FEW003 SCT020 BKN090 20/20 A2998 NOSIG=
201109200000 METAR MROC 200000Z 00000KT 9999 RA SCT020 BKN090 21/21 A3000 NOSIG=
201109200100 METAR MROC 200100Z 00000KT 9999 -RA FEW020 BKN100 20/20 A3002 NOSIG=
201109200200 METAR MROC 200200Z 20003KT 9999 FEW005 BKN100 20/20 A3005 NOSIG=
201109200300 METAR MROC 200300Z 00000KT 9000 4000SW BR FEW001 OVC100 20/20 A3006 NOSIG=
201109200400 METAR MROC 200400Z 00000KT 7000 3000SW BR FEW001 OVC100 20/20 A3005 NOSIG=
201109200500 METAR MROC 200500Z 10002KT 9999 3000SW BR FEW001 BKN100 19/19 A3002 NOSIG=
201109200600 METAR MROC 200600Z 08004KT 9999 FEW020 BKN100 20/20 A3000 NOSIG=
201109200700 METAR MROC 200700Z 09006KT 9999 FEW020 BKN100 21/20 A2997 NOSIG=
201109200800 METAR MROC 200800Z 28001KT 9999 FEW002 BKN100 19/19 A2996 BECMG 3000 BR=
201109200900 METAR MROC 200900Z 00000KT 9999 1000SW BR FEW001 SCT100 19/19 A2996 BECMG 1000 BR=
201109201000 METAR MROC 201000Z 00000KT 0500 FG VV/// 19/19 A2997 BECMG 2000 BR=
201109201100 METAR MROC 201100Z 00000KT 9999 2000SW BR FEW001 SCT250 19/19 A2998 BECMG 9999=
201109201200 METAR MROC 201200Z 00000KT 9999 2000SW BR FEW001 SCT250 19/19 A2999 RMK CB DST SW BECMG 9999=
201109201300 METAR MROC 201300Z 00000KT 9999 4000SW BR FEW003 SCT250 20/20 A3003 RMK CB DST S SW NOSIG=
201109201400 METAR MROC 201400Z 00000KT CAVOK 23/21 A3005 RMK SCT250 CB DST SW W BECMG 24004KT=
201109201500 METAR MROC 201500Z 14006KT 9999 FEW025 BKN250 26/19 A3005 NOSIG=
201109201600 METAR MROC 201600Z 21005KT 9999 FEW030 BKN250 26/22 A3005 NOSIG=
201109201700 METAR MROC 201700Z 25006KT 9999 FEW030 BKN150 26/22 A3004 NOSIG=
201109201800 METAR MROC 201800Z 26006KT 9999 FEW020TCU SCT035 27/22 A3001 NOSIG=
201109201900 METAR MROC 201900Z 23008KT 6000 SHRA FEW010TCU BKN020 24/22 A2998 NOSIG=
201109202000 METAR MROC 202000Z 34004KT 2000 -SHRA FEW010TCU BKN020 21/21 A2998 NOSIG=
201109202100 METAR MROC 202100Z 00000KT 4000 -SHRA FEW003 BKN015 20/20 A2997 RMK 8000 E BECMG 2000 -RABR=
201109202200 METAR MROC 202200Z 00000KT 8000 -RA VCFG FEW004 BKN015 20/20 A2997 RMK UNL E NOSIG=
201109202300 METAR MROC 202300Z 8000 VCFG FEW004 SCT025 BKN100 21/21 A2997 NOSIG=
201109210000 METAR MROC 210000Z 00000KT 8000 VCFG FEW003 SCT025 BKN100 21/21 A3000 NOSIG=
201109210100 METAR MROC 210100Z 00000KT 1500 BR SCT001 BKN100 20/20 A3002 RMK UNL E BECMG 0500 FG BKN001=
201109210200 METAR MROC 210200Z 00000KT 6000 1500W BR FEW001 BKN015 20/20 A3004 NOSIG=
201109210300 METAR MROC 210300Z 00000KT 9999 4000SW PRFG BKN140 SCT250 19/19 A3001 BECMG 3000 BR=
201109210400 METAR MROC 210400Z 00000KT 6000 SCT005 BKN010 20/20 A3006 BECMG 3000 BR=
201109210500 METAR MROC 210500Z 00000KT 9999 SCT007 BKN015 20/20 A3004 NOSIG=
201109210600 METAR MROC 210600Z 00000KT 9999 SCT010 BKN020 20/20 A3002 NOSIG=
201109210700 METAR MROC 210700Z 00000KT 9999 SCT020 SCT140 20/20 A3000 NOSIG=
201109210800 METAR MROC 210800Z 00000KT 9999 FEW025 SCT140 18/18 A2998 NOSIG=
201109210900 METAR MROC 210900Z 07004KT 9999 FEW030 SCT140 18/18 A2999 NOSIG=
201109211000 METAR MROC 211000Z 07005KT 9999 FEW035 SCT250 18/18 A2999 NOSIG=
201109211100 METAR MROC 211100Z 10005KT 9999 FEW035 SCT250 19/17 A3000 NOSIG=
201109211200 METAR MROC 211200Z 09006KT CAVOK 20/17 A3001 RMK BKN250 NOSIG=
201109211300 METAR MROC 211300Z 09002KT CAVOK 22/18 A3003 RMK BKN250 NOSIG=
201109211400 METAR MROC 211400Z 12010KT CAVOK 25/15 A3003 RMK BKN250 NOSIG=
201109211500 METAR MROC 211500Z 14011KT CAVOK 26/16 A3003 RMK BKN250 NOSIG=
201109211600 METAR MROC 211600Z 11010G20KT 9999 FEW035 BKN250 27/16 A3002 NOSIG=
201109211700 METAR MROC 211700Z 13016KT 9999 FEW030 BKN250 28/18 A3002 NOSIG=
201109211800 METAR MROC 211800Z 10010KT 9999 FEW015TCU SCT030 BKN250 28/18 A3000 NOSIG=
201109211900 METAR MROC 211900Z 13010KT 9999 FEW015TCU BKN030 28/18 A2997 RMK PCPN DST N NE BECMG 24006KT=
201109212000 METAR MROC 212000Z 15006KT 9999 SCT030 BKN100 26/18 A2995 RMK PCPN DST N NE NOSIG=
201109212100 METAR MROC 212100Z 26008KT 9999 FEW020 BKN100 23/22 A2996 RMK CB DST E CB RN DST QUAD W NOSIG=
201109212200 METAR MROC 212200Z 28005KT 9999 FEW010 BKN110 22/22 A2997 RMK CB DST E S W HZY W NOSIG=
201109212300 METAR MROC 212300Z 26003KT 9999 FEW010 SCT110 22/22 A2998 RMK CB DST NE E S W SCT160 NOSIG=
201109212351 METAR MROC 220000Z 29001KT 9999 FEW010 SCT160 22/21 A3000 RMK CB DST NE S W NOSIG=
201109220000 METAR MROC 220000Z 29001KT 9999 FEW010 SCT160 22/21 A3000 RMK CB DST NE S W NOSIG=
201109220100 METAR MROC 220100Z 30002KT 9999 FEW001 SCT020 21/21 A3002 RMK HZY ARND NOSIG=
201109220200 METAR MROC 220200Z 00000KT 9999 FEW001 BKN080 21/21 A3004 RMK HZY ARND NOSIG=
201109220300 METAR MROC 220300Z 00000KT 9999 FEW025 SCT100 22/22 A3007 NOSIG=
201109220400 METAR MROC 220400Z 00000KT 9999 FEW015 SCT100 21/21 A3007 NOSIG=
201109220500 METAR MROC 220500Z 00000KT 9999 FEW015 SCT100 20/20 A3006 NOSIG=
201109220600 METAR MROC 220600Z 00000KT 9999 FEW030 BKN120 21/21 A3005 NOSIG=
201109220700 METAR MROC 220700Z 00000KT 9999 FEW030 BKN120 20/20 A3002 NOSIG=
201109220800 METAR MROC 220800Z 00000KT 9999 FEW030 BKN120 20/20 A3000 NOSIG=
201109220900 METAR MROC 220900Z 00000KT CAVOK 20/19 A3001 RMK SCT120 NOSIG=
201109221000 METAR MROC NIL=
201109221100 METAR MROC 221100Z 04003KT CAVOK 20/19 A3002 RMK SCT100 NOSIG=
201109221200 METAR MROC 221200Z 06007KT CAVOK 21/18 A3004 RMK BKN100 NOSIG=
201109221300 METAR MROC 221300Z 09002KT CAVOK 22/19 A3005 RMK CB DST SW HZY QUAD W NOSIG=
201109221400 METAR MROC 221400Z 28002KT CAVOK 23/20 A3007 RMK HZY QUAD W NOSIG=
201109221500 METAR MROC 221500Z 00000KT CAVOK 26/20 A3007 NOSIG=
201109221600 METAR MROC 221600Z 15007KT CAVOK 28/18 A3005 NOSIG=
201109221700 METAR MROC 221700Z 12007KT CAVOK 29/18 A3002 NOSIG=
201109221800 METAR MROC 221800Z 13010KT 110V170 CAVOK 29/20 A2999 RMK CB DST E W TCU S NOSIG=
201109221900 METAR MROC 221900Z 14009KT 9999 FEW020TCU 29/19 A2997 RMK CB DST E W NOSIG=
201109222000 METAR MROC 222000Z 14008KT 9999 RA FEW001CB SCT100 29/19 A2996 RMK CB SW DST ARND BECMG TSRA=
201109222100 METAR MROC 222100Z 24007KT 9999 3000SW BR FEW001 SCT015 BKN100 24/24 A2996 BECMG 5000 RA BR=
201109222200 METAR MROC 222200Z 22002KT 3000 BR FEW001 SCT010 BKN030 22/22 A2998 BECMG 1000 RA BR=
201109222300 METAR MROC 222300Z 00000KT 9999 3000W BR FEW001 SCT010 BKN100 23/23 A2999 NOSIG=
201109230000 METAR MROC 230000Z 34001KT 9999 FEW008 SCT030 BKN100 22/22 A3000 NOSIG=
201109230100 METAR MROC 230100Z 09013KT 9999 FEW030 BKN100 24/17 A3000 NOSIG=
201109230200 METAR MROC 230200Z 12011KT 9999 FEW030 SCT100 23/19 A3002 NOSIG=
201109230300 METAR MROC 230300Z 13007KT 9999 FEW030 SCT100 23/18 A3001 NOSIG=
201109230400 METAR MROC 230400Z 26006KT CAVOK 20/20 A3003 RMK FEW060 NOSIG=
201109230500 METAR MROC 230500Z 24003KT 0500 FG BKN001 20/20 A3003 NOSIG=
201109230600 METAR MROC 230600Z 00000KT 2000 BR FEW001 SCT010 20/20 A3003 NOSIG=
201109230700 METAR MROC 230700Z 00000KT 8000 VCFG FEW002 19/19 A3001 NOSIG=
201109230800 METAR MROC 230800Z 04004KT 9999 FEW003 19/19 A3000 NOSIG=
201109230900 METAR MROC 230900Z 05005KT 9999 FEW030 20/18 A2999 NOSIG=
201109231000 METAR MROC 231000Z 00000KT CAVOK 19/18 A3000 NOSIG=
201109231100 METAR MROC 231100Z 06007KT CAVOK 19/18 A3001 NOSIG=
201109231200 METAR MROC 231200Z 07005KT 9999 FEW035 SCT250 20/18 A3003 RMK CB DST SW NOSIG=
201109231300 METAR MROC 231300Z 11001KT CAVOK 24/18 A3005 RMK SCT250 CB DST SW NOSIG=
201109231400 METAR MROC 231400Z 14009KT CAVOK 26/18 A3007 RMK SCT250 CB DST SW NOSIG=
201109231500 METAR MROC 231500Z 12009KT 9999 FEW040 SCT250 28/19 A3007 RMK CB DST SW NOSIG=
201109231600 METAR MROC 231600Z 11008KT 9999 FEW040 SCT250 28/18 A3006 NOSIG=
201109231700 METAR MROC 231700Z 10005KT 9999 SCT040 SCT300 29/18 A3003 NOSIG=
201109231800 METAR MROC 231800Z 12004KT 9999 SCT030 SCT120 29/18 A3001 NOSIG=
201109231900 METAR MROC 231900Z 26010KT 9999 FEW030 SCT300 27/23 A2997 NOSIG=
201109232000 METAR MROC 232000Z 25010KT 9999 SCT030 SCT300 27/25 A2996 NOSIG=
201109232100 METAR MROC 232100Z 25012KT 9999 VCSH SCT010 FEW015TCU BKN250 26/24 A2995 RMK RASH VIS 8KMS NW N NE BECMG 5000 SHRA=
201109232200 METAR MROC 232200Z 21004KT 9999 4000SW TSRA SCT012CB BKN035 20/20 A2997 RMK STRONG TSTM S SW NEAR APCH RWY07 NOSIG=
201109232300 METAR MROC 232300Z 08005KT 9999 -RA VCTS VCSH FEW015CB BKN100 21/21 A2997 RMK RASH TS ENE NOSIG=
201109240000 METAR MROC 240000Z 08007KT 9999 -RA OVC100 21/21 A2999 RETS NOSIG=
201109240100 METAR MROC 240100Z 24004KT 9999 FEW035 BKN120 20/20 A3001 NOSIG=
201109240200 METAR MROC 240200Z 06005KT 9999 FEW035 BKN120 21/21 A3003 NOSIG=
201109240300 METAR MROC 240300Z 13003KT 9999 FEW001 SCT120 20/20 A3004 RMK HZY ARND NOSIG=
201109240400 METAR MROC 240400Z 31001KT 9999 FEW001 SCT120 20/20 A3003 RMK HZY ARND BECMG 5000=
201109240500 METAR MROC 240500Z 03002KT 9999 VCFG FEW001 SCT120 20/20 A3003 BECMG 5000=
201109240600 METAR MROC 240600Z 00000KT 9999 VCFG FEW001 SCT120 20/20 A3001 NOSIG=
201109240700 METAR MROC 240700Z 06007KT 9999 FEW001 20/20 A2998 RMK TS DST SW NOSIG=
201109240800 METAR MROC 240800Z 11002KT CAVOK 20/20 A2997 RMK TS DST S SW W NOSIG=
201109240900 METAR MROC 240900Z 07004KT CAVOK 19/19 A2996 RMK TS DST S SW W NOSIG=
201109241000 METAR MROC 241000Z 06006KT 9999 FEW002 20/19 A2997 NOSIG=
201109241100 METAR MROC 241100Z 08006KT 9999 FEW010 SCT080 20/19 A2997 RMK TS DST W CB DST E S SW NOSIG=
201109241200 METAR MROC 241200Z 12007KT 070V140 9999 FEW010 BKN250 21/19 A2997 RMK CB DST NE E S SW NOSIG=
201109241300 METAR MROC 241300Z 15008KT CAVOK 23/18 A3000 RMK FEW100 BKN250 CB DST S NOSIG=
201109241400 METAR MROC 241400Z 13005KT 9999 FEW030 BKN250 25/20 A3004 NOSIG=
201109241500 METAR MROC 241500Z 13006KT 9999 FEW030 BKN250 27/21 A3003 RMK CB DST S NOSIG=
201109241600 METAR MROC 241600Z 09004KT 9999 FEW030 BKN250 28/18 A3002 NOSIG=
201109241700 METAR MROC 241700Z 16004KT 9999 SCT030 BKN250 29/23 A3000 BECMG 24006KT=
201109241800 METAR MROC 241800Z 23011KT 9999 SCT030 BKN250 28/23 A2997 NOSIG=
201109241900 METAR MROC 241900Z 25013KT 9999 FEW025TCU SCT035 27/24 A2994 BECMG VCSH=
201109242000 METAR MROC 242000Z 29010KT 9999 4000NW SHRA SCT012CB BKN020 24/21 A2993 BECMG 4000 TSRA=
201109242100 METAR MROC 242100Z 30006KT 9999 3000NW SHRA FEW010TCU SCT025 BKN250 22/20 A2992 NOSIG=
201109242200 METAR MROC 242200Z 27004KT 230V290 9999 FEW008 SCT020 BKN100 23/21 A2993 NOSIG=
201109242300 METAR MROC 242300Z 26004KT 9999 FEW005 SCT015 BKN050 22/22 A2995 NOSIG=
201109250000 METAR MROC 250000Z 00000KT 8000 -RA SCT020 BKN050 22/22 A2998 RMK LTNG DST N NOSIG=
201109250100 METAR MROC 250100Z 00000KT 9999 -RA FEW010 BKN050 22/22 A3001 RMK LTNG DST S NOSIG=
201109250200 METAR MROC 250200Z 00000KT 9999 BCFG FEW020 BKN100 21/21 A3003 RERA NOSIG=
201109250300 METAR MROC 250300Z 00000KT 9999 FEW002 SCT020 BKN100 21/21 A3005 NOSIG=
201109250400 METAR MROC 250400Z 00000KT 9999 FEW005 SCT025 BKN100 21/21 A3004 NOSIG=
201109250500 METAR MROC 250500Z 00000KT 9999 FEW005 SCT025 BKN100 21/21 A3003 NOSIG=
201109250600 METAR MROC 250600Z 00000KT 9999 VCFG FEW005 SCT025 OVC100 21/21 A3002 NOSIG=
201109250700 METAR MROC 250700Z 00000KT 9999 FEW030 BKN100 20/20 A2999 NOSIG=
201109250800 METAR MROC 250800Z 09005KT CAVOK 20/20 A2996 RMK SCT120 SCT250 NOSIG=
201109250900 METAR MROC 250900Z 05007KT CAVOK 20/20 A2994 RMK SCT120 SCT250 NOSIG=
201109251000 METAR MROC 251000Z 00000KT CAVOK 20/19 A2993 RMK SCT120 SCT250 NOSIG=
201109251100 METAR MROC 251100Z 02003KT CAVOK 19/19 A2997 RMK SCT120 SCT250 NOSIG=
201109251200 METAR MROC 251200Z 05004KT CAVOK 19/19 A3000 RMK BKN100 NOSIG=
201109251300 METAR MROC 251300Z 24002KT 9999 SCT040 BKN150 20/20 A3003 RMK RA DST QUAD N/E CB DST SW NOSIG=
201109251400 METAR MROC 251400Z 06006KT 9999 FEW025 SCT100 BKN180 22/20 A3004 RMK RA DST QUAD N/E CB DST SW NOSIG=
201109251500 METAR MROC 251500Z 24002KT CAVOK 23/21 A3004 RMK FEW060 BKN200 CB DST S/SW HZY NOSIG=
201109251600 METAR MROC 251600Z 31005KT 9999 SCT025 BKN250 24/22 A3005 RMK HZY NOSIG=
201109251700 METAR MROC 251700Z 30003KT 9999 SCT035 BKN250 26/22 A3002 RMK HZ LGT ARND NOSIG=
201109251800 METAR MROC 251800Z 25007KT 9999 SCT035 BKN250 26/23 A3000 RMK HZ LGT ARND NOSIG=
201109251900 METAR MROC 251900Z 24008KT 9999 FEW020TCU SCT035 BKN250 26/22 A2996 RMK HZ LGT ARND BECMG 8000 VCSH=
201109252000 METAR MROC 252000Z 23010KT 9999 FEW005 SCT025 BKN120 25/23 A2994 RMK HZ LGT ARND BECMG 8000 VCSH=
201109252100 METAR MROC 252100Z 26010KT 9999 FEW010CB SCT020 BKN100 24/22 A2998 BECMG -TSRA BR=
201109252200 METAR MROC 252200Z 20004KT 2000 -RABR FEW002 SCT010 BKN020 22/22 A2994 NOSIG=
201109252300 METAR MROC 252300Z 18005KT 2000 -RA BR FEW002 SCT010 BKN020 22/22 A2997=
201109260000 METAR MROC 260000Z 02003KT 8000 -RABR FEW002 SCT010 BKN020 20/20 A3000 BECMG -RA BR=
201109260100 METAR MROC 260100Z 00000KT 9999 FEW015 SCT030 BKN100 20/20 A3002 NOSIG=
201109260200 METAR MROC 260200Z 00000KT 8000 VCFG FEW004 SCT010 BKN020 21/21 A3006 NOSIG=
201109260300 METAR MROC 260300Z 00000KT 9999 -RA SCT020 BKN100 20/20 A3007 NOSIG=
201109260400 METAR MROC 260400Z 00000KT 9999 FEW008 SCT020 BKN100 20/20 A3008 NOSIG=
201109260500 METAR MROC 260500Z 00000KT 9999 FEW008 SCT020 BKN100 20/20 A3007 NOSIG=
201109260600 METAR MROC 260600Z 00000KT 9999 SCT020 BKN100 20/20 A3004 NOSIG=
201109260700 METAR MROC 260700Z 00000KT 9999 SCT020 BKN100 20/20 A3001 NOSIG=
201109260800 METAR MROC 260800Z 06003KT 9999 FEW025 BKN120 19/19 A2999 NOSIG=
201109260900 METAR MROC 260900Z 00000KT 9999 FEW030 BKN120 19/19 A2998 NOSIG=
201109261000 METAR MROC 261000Z 08002KT 9999 FEW030 BKN120 19/19 A2998 NOSIG=
201109261100 METAR MROC 261100Z 00000KT CAVOK 19/19 A2999 RMK BKN120 NOSIG=
201109261200 METAR MROC 261200Z 00000KT CAVOK 19/19 A3001 RMK FEW060 BKN120 PCPN DST ENE E NOSIG=
201109261300 METAR MROC 261300Z 00000KT CAVOK 22/20 A3003 RMK BKN250 NOSIG=
201109261400 METAR MROC 261400Z 22003KT CAVOK 24/20 A3005 RMK BKN250 NOSIG=
201109261500 METAR MROC 261500Z 23007KT 9999 SCT030 25/21 A3007 NOSIG=
201109261600 METAR MROC 261600Z 25005KT 9999 SCT025 25/20 A3006 NOSIG=
201109261700 METAR MROC 261700Z 21008KT 9999 SCT025 BKN250 25/22 A3005 RMK RA DST N NE NOSIG=
201109261800 METAR MROC 261800Z 24010KT 9999 SCT020 BKN100 25/22 A3003 RMK RA DST N NE NOSIG=
201109261900 METAR MROC 261900Z 26010KT 9999 SCT020 BKN100 25/22 A3003 RMK RA DST N NE BECMG 8000 VCSH=
201109262000 METAR MROC 262000Z 23008KT 9999 SCT020 BKN100 25/22 A2998 RMK RA DST N NE BECMG 8000 VCSH=
201109262100 METAR MROC 262100Z 23008KT 9999 RA FEW001 OVC160 24/23 A2997 RMK CB DST E W FEW020 NOSIG=
201109262200 METAR MROC 262200Z 24005KT 9999 -RADZ FEW001 FEW010CB BKN100 22/22 A2998 RMK CB NE SE S SW W BECMG -TSRA=
201109262300 METAR MROC 262300Z 24005KT 9999 FEW001CB SCT030 OVC160 22/22 A2999 RMK CB SW DST E S N BECMG -TSRA=
201109262351 METAR MROC 270000Z 25004KT 9999 FEW001CB SCT025 BKN120 22/22 A3001 RMK CB SW DST N E S W BECMG 5000 BR=
201109270000 METAR MROC 270000Z 25004KT 9999 FEW001CB SCT025 BKN120 22/22 A3001 RMK CB SW DST N E S W BECMG 5000 BR=
201109270100 METAR MROC 270100Z 00000KT 8000 VCFG FEW001 SCT008 BKN035 21/21 A3003 BECMG 5000 BR=
201109270200 METAR MROC 270200Z 21004KT 5000 BR SCT001 BKN003 21/21 A3006 BECMG 1000 FG=
201109270300 METAR MROC 270300Z 00000KT 5000 BR SCT001 BKN008 21/21 A3006 NOSIG=
201109270400 METAR MROC 270400Z 00000KT 3000 0500NE BR SCT001 BKN010 21/21 A3007 NOSIG=
201109270500 METAR MROC 270500Z 00000KT 5000 2000NE BR SCT002 BKN015 21/21 A3006 NOSIG=
201109270600 METAR MROC 270600Z 00000KT 8000 VCFG SCT002 BKN020 20/20 A3004 NOSIG=
201109270700 METAR MROC 270700Z 00000KT 9999 BCFG SCT005 BKN025 20/20 A3003 NOSIG=
201109270800 METAR MROC 270800Z 00000KT 9999 BCFG SCT010 BKN100 20/20 A3002 NOSIG=
201109270900 METAR MROC 270900Z 00000KT 8000 VCFG SCT005 BKN020 20/20 A3002 BECMG 5000 BR=
201109271000 METAR MROC 271000Z 00000KT 9999 BCFG SCT005 BKN020 20/20 A3002 NOSIG=
201109271100 METAR MROC 271100Z 00000KT 9999 SCT025 BKN100 20/20 A3004 NOSIG=
201109271200 METAR MROC 271200Z 00000KT 9999 BCFG FEW035 BKN150 20/20 A3004 NOSIG=
201109271300 METAR MROC 271300Z 08004KT 9999 FEW001 BKN100 22/21 A3005 RMK CB DST E SW HZY ARND NOSIG=
201109271400 METAR MROC 271400Z 09003KT 9999 FEW001 BKN110 24/19 A3007 RMK CB DST E SW HZY ARND NOSIG=
201109271500 METAR MROC 271500Z 23003KT 9999 FEW001 SCT110 27/21 A3007 RMK CB DST SW W NOSIG=
201109271600 METAR MROC 271600Z 23009KT 9999 FEW020 BKN130 27/23 A3007 RMK CB DST QUAD W HZY QUAD W NOSIG=
201109271700 METAR MROC 271700Z 24008KT 9999 FEW025 BKN130 27/23 A3006 RMK CB RN DST QUAD E HZY QUAD E CB DST S NOSIG=
201109271800 METAR MROC 271800Z 23009KT 9999 FEW020TCU SCT250 27/22 A3004 RMK RN DST S QUAD E NOSIG=
201109271900 METAR MROC 271900Z 21007KT 9999 VCTS FEW020TCU BKN030 26/23 A3002 RMK CB RN DST E SE S BECMG TSRA=
201109272000 METAR MROC 272000Z 22005KT 9999 FEW010CB SCT030 SCT200 24/23 A3001 RMK RN DST QUAD E BECMG TSRA=
201109272100 METAR MROC 272100Z 22005KT 9999 FEW010 SCT030 BKN100 23/23 A2991 BECMG 5000 RA BR=
201109272200 METAR MROC 272200Z 00000KT 9999 FEW010 SCT030 BKN100 23/23 A2998 BECMG 5000 RA BR=
201109272300 METAR MROC 272300Z 00000KT 9999 FEW005 SCT100 BKN200 23/23 A2999 BECMG 5000 BR=
201109280000 METAR MROC 280000Z 00000KT 9999 FEW005 SCT100 BKN200 22/22 A3000 BECMG 5000 BR=
201109280100 METAR MROC 280100Z 00000KT 9999 SCT025 BKN120 21/21 A2999 NOSIG=
201109280200 METAR MROC 280200Z 00000KT 2000 BR FEW001 SCT010 22/22 A3004 RMK VIS N UNL BECMG 0500 FG BKN001=
201109280300 METAR MROC 280300Z 00000KT 0400 FG VV/// 21/21 A3004 NOSIG=
201109280400 METAR MROC 280400Z 00000KT 2000 FEW001 SCT020 21/21 A3006 RMK SCT020 BECMG 5000 BR=
201109280500 METAR MROC 280500Z 00000KT 8000 VCFG FEW002 BKN020 20/20 A3005 NOSIG=
201109280600 METAR MROC 280600Z 00000KT 8000 VCFG FEW003 SCT025 20/20 A3004 NOSIG=
201109280700 METAR MROC 280700Z 00000KT 9999 VCFG FEW003 19/19 A3000 NOSIG=
201109280800 METAR MROC 280800Z 00000KT 9999 FEW003 19/19 A3000 NOSIG=
201109280900 METAR MROC 280900Z 00000KT 9999 VCFG FEW003 18/18 A2998 NOSIG=
201109281000 METAR MROC 281000Z 04002KT CAVOK 18/18 A2999 NOSIG=
201109281100 METAR MROC 281100Z 08003KT CAVOK 19/19 A2999 RMK FEW120 TCU DST SW NOSIG=
201109281200 METAR MROC 281200Z 05002KT CAVOK 20/19 A3001 RMK FEW120 NOSIG=
201109281255 METAR MROC 181300Z 00000KT CAVOK 23/21 A3003 RMK SCT260 BECMG 22006KT=
201109281300 METAR MROC 281300Z 00000KT CAVOK 23/21 A3003 RMK SCT260 BECMG 22006KT=
201109281400 METAR MROC 281400Z 22004KT CAVOK 25/21 A3004 RMK SCT250 NOSIG=
201109281500 METAR MROC 281500Z 23006KT 9999 FEW040 SCT250 27/21 A3004 NOSIG=
201109281600 METAR MROC 281600Z 23007KT 9999 FEW040 SCT250 28/22 A3004 NOSIG=
201109281700 METAR MROC 281700Z 24008KT 9999 SCT040 28/23 A3002 NOSIG=
201109281800 METAR MROC 281800Z 24010KT 9999 SCT040 28/24 A2999 NOSIG=
201109281900 METAR MROC 281900Z 26010KT 9999 -TS FEW010CB SCT030 26/24 A2996 BECMG 5000 TS RA=
201109282000 METAR MROC 282000Z 05002KT 3000 -TSRA FEW010CB BKN030 23/22 A2997 NOSIG=
201109282100 METAR MROC 282100Z 00000KT 9999 DZ FEW015 SCT025 BKN100 20/20 A2996 RETSRA RMK CB TS DST S SW NOSIG=
201109282200 METAR MROC 282200Z 05003KT 9999 FEW020 BKN120 22/22 A2995 NOSIG=
201109282300 METAR MROC 282300Z 00000KT 9999 SCT025 BKN120 22/22 A2997 NOSIG=
201109290000 METAR MROC 290000Z 00000KT 9999 SCT025 BKN120 22/22 A2998 NOSIG=
201109290100 METAR MROC NIL=
201109290200 METAR MROC 290200Z 00000KT 9999 SCT030 BKN120 21/21 A3001 NOSIG=
201109290300 METAR MROC 290300Z 00000KT 8000 VCFG FEW001 SCT080 21/21 A3003 RMK LGTNG DST E HZY ARND BECMG 5000=
201109290400 METAR MROC 290400Z 00000KT 8000 VCFG FEW001 SCT030 21/21 A3003 RMK LGTNG DST QUAD E HZY ARND BECMG 5000=
201109290500 METAR MROC 290500Z 00000KT 6000 FEW001 SCT030 BKN080 21/21 A3003 RMK LGTNG DST SW HZY ARND BECMG 3000=
201109290600 METAR MROC 290600Z 10002KT 5000 BR FEW001 SCT030 20/20 A3000 RMK LGTNG DST SW VIS E UNL BECMG 3000=
201109290700 METAR MROC 290700Z 03004KT 8000 VCFG FEW001 SCT030 20/20 A2998 RMK LGTNG DST S HZY ARND BECMG 5000=
201109290800 METAR MROC 290800Z 00000KT 9999 4000SW FEW001 SCT030 20/20 A2997 RMK LGTNG DST S HZY ARND FG BANKS SW BECMG 3000=
201109290900 METAR MROC 290900Z 00000KT 9999 3000SW FEW001 SCT080 20/20 A2996 RMK LGTNG DST SW HZY ARND FG BANKS SW NOSIG=
201109291000 METAR MROC 291000Z 06007KT 9999 VCFG FEW001 20/20 A2995 RMK LGTNG DST S SW HZY ARND VIS 8KM SW NOSIG=
201109291100 METAR MROC 291100Z 09004KT 9999 FEW001 SCT250 20/20 A2996 RMK LGTNG DST S SW HZY ARND NOSIG=
201109291200 METAR MROC 291200Z 09007KT 9999 FEW030 BKN250 21/20 A2998 RMK CB DST S SW NOSIG=
201109291300 METAR MROC 291300Z 09003KT CAVOK 23/21 A2999 RMK BKN250 NOSIG=
201109291400 METAR MROC 291400Z 16004KT CAVOK 25/21 A3001 RMK BKN250 BECMG 24006KT=
201109291500 METAR MROC 291500Z 10005KT CAVOK 28/20 A3002 RMK BKN250 BECMG 24006KT=
201109291600 METAR MROC 291600Z 23008KT 9999 FEW035 BKN250 26/22 A3002 NOSIG=
201109291700 METAR MROC 291700Z 24008KT 9999 FEW035 BKN250 26/24 A3000 RMK HZY NOSIG=
201109291800 METAR MROC 291800Z 23005KT 9999 SCT025 BKN250 27/24 A2997 RMK HZY NOSIG=
201109291900 METAR MROC 291900Z 25009KT 9999 FEW015TCU SCT025 BKN250 26/24 A2993 RMK HZY RN DST SE BECMG 8000 VCSH=
201109292000 METAR MROC 292000Z 24007KT 9999 FEW015TCU SCT025 BKN250 26/23 A2990 RMK HZY RN DST E BECMG 6000 SHRA=
201109292100 METAR MROC 292100Z 25002KT 8000 2000E RA VCFG SCT020 BKN100 26/21 A2989=
201109292200 METAR MROC 292200Z 25005KT 8000 2000SW VCFG SCT020 BKN060 24/24 A2989 RERA NOSIG=
201109292300 METAR MROC 292300Z 26005KT 5000 BR FEW005 SCT015 BKN080 23/23 A2990 NOSIG=
201109300000 METAR MROC 300000Z 26005KT 5000 2000SW -RA BR FEW002 SCT015 BKN050 22/22 A2994 NOSIG=
201109300100 METAR MROC 300100Z 26006KT 4500 2000SW -RA BR FEW001 SCT003 BKN012 22/22 A2997 RMK LTNG DST S NOSIG=
201109300200 METAR MROC 300200Z 28005KT 8000 -TSRA VCFG SCT015CB BKN100 22/22 A3000 NOSIG=
201109300300 METAR MROC 300300Z 00000KT 9999 FEW010 SCT030 BKN100 21/21 A3001 RERA NOSIG=
201109300400 METAR MROC 300400Z 28002KT 9999 4000SW BR FEW001 SCT010 BKN100 22/22 A3002 BECMG 3000 BR SCT001 BKN010=
201109300500 METAR MROC 300500Z 00000KT 9999 4000SW BR FEW001 SCT010 BKN100 22/22 A3001 NOSIG=
201109300600 METAR MROC 300600Z 00000KT 9999 FEW010 SCT030 BKN100 22/22 A3001 NOSIG=
201109300700 METAR MROC 300700Z 00000KT 9999 4000SW BR FEW001 SCT010 BKN100 21/21 A3000 NOSIG=
201109300800 METAR MROC 300800Z 00000KT 3000 BR FEW001 SCT010 21/21 A2996 NOSIG=
201109300900 METAR MROC 300900Z 00000KT 3000 BR FEW001 SCT010 21/21 A2997 NOSIG=
201109301000 METAR MROC 301000Z 00000KT 5000 2000SW BR FEW001 SCT020 BKN100 21/21 A2995 NOSIG=
201109301100 METAR MROC 301100Z 09004KT 9999 3000SW BR FEW003 SCT100 20/20 A2995 NOSIG=
201109301200 METAR MROC 301200Z 00000KT CAVOK 21/21 A2997 RMK FEW120 BKN250 NOSIG=
201109301300 METAR MROC 301300Z 00000KT 9999 FEW008 SCT100 24/22 A2998 RMK HZ SW NOSIG=
201109301400 METAR MROC NIL=
201109301500 METAR MROC 301500Z 24007KT 9999 FEW030 BKN250 26/24 A3001 RMK HZ S SW W NOSIG=
201109301600 METAR MROC 301600Z 24008KT 9999 SCT020TCU SCT250 27/24 A3001 RMK HZ S SW W NOSIG=
201109301700 METAR MROC 301700Z 24008KT 9999 VCTS VCSH FEW015CB SCT020TCU 27/24 A2998 NOSIG=
201109301800 METAR MROC 301800Z 03009KT 320V030 9999 1200SW R07/0400 RA SCT003 BKN025TCU 20/20 A2998 BECMG 5000 -RA BR=
201109301900 METAR MROC 301900Z 23002KT 9999 FEW012 SCT020 21/21 A2997 RMK SCT100 NOSIG=
201109302000 METAR MROC 302000Z 00000KT 8000 VCFG SCT006 SCT020 21/21 A2994 BECMG 5000 -RA BR=
201109302052 METAR MROC 302052Z 00000KT 7000 -RA FEW006 SCT020 BKN100 21/21 A2994 BECMG 2000 -RA BR=
201109302100 METAR MROC 302100Z 00000KT 7000 -RA FEW006 SCT020 BKN100 21/21 A2994 BECMG 2000 -RA BR=
201109302200 METAR MROC 302200Z 00000KT 4000 BR FEW002 SCT020 BKN100 21/21 A2995 BECMG 0500 FG BKN001=
201109302300 METAR MROC 302300Z 00000KT 3000 -RA BR FEW002 BKN030 21/21 A2997 NOSIG=
201109302350 METAR MROC 010000Z 00000KT 5000 BR FEW002 BKN030 21/21 A2997 NOSIG=
201110010000 METAR MROC 010000Z 00000KT 5000 BR FEW002 BKN030 21/21 A2997 NOSIG=
201110010100 METAR MROC 010100Z 00000KT 9999 4000W BR FEW002 SCT030 BKN100 20/20 A2998 NOSIG=
201110010200 METAR MROC 010200Z 00000KT 2000 BR FEW001 SCT020 BKN100 20/20 A2999 BECMG 1000 BR=
201110010300 METAR MROC 010300Z 00000KT 3000 BR SCT002 SCT020 BKN120 20/20 A3000 BECMG 5000=
201110010400 METAR MROC 010400Z 00000KT 5000 BR FEW002 SCT030 BKN140 19/19 A3000 BECMG 04004KT 8000 VCFG=
201110010500 METAR MROC 010500Z 09004KT 8000 VCFG FEW030 SCT140 BKN250 19/19 A3000 RMK VIS N E UNL BECMG 9999=
201110010600 METAR MROC 010600Z 09005KT 9999 FEW030 SCT140 BKN250 19/19 A2999 NOSIG=
201110010700 METAR MROC 010700Z 08006KT CAVOK 18/18 A2996 RMK FEW140 BKN250 NOSIG=
201110010800 METAR MROC 010800Z 08006KT CAVOK 18/18 A2994 RMK BKN250 NOSIG=
201110010900 METAR MROC 010900Z 09005KT CAVOK 18/18 A2995 RMK BKN250 NOSIG=
201110011000 METAR MROC 011000Z 10003KT CAVOK 19/18 A2995 RMK BKN250 NOSIG=
201110011100 METAR MROC 011100Z 00000KT CAVOK 18/18 A2996 RMK SCT250 NOSIG=
201110011200 METAR MROC 011200Z 00000KT CAVOK 18/18 A3000 RMK SCT250 NOSIG=
201110011300 METAR MROC 011300Z 00000KT 9999 FEW035 SCT250 21/19 A3003 NOSIG=
201110011400 METAR MROC 011400Z 05003KT 9999 FEW035 SCT250 23/20 A3004 NOSIG=
201110011500 METAR MROC 011500Z 00000KT 9999 FEW035 SCT250 25/20 A3004 NOSIG=
201110011600 METAR MROC 011600Z 20008KT 9999 FEW035 BKN250 26/21 A3003 NOSIG=
201110011700 METAR MROC 011700Z 26010KT 9999 FEW035 BKN250 27/22 A3002 NOSIG=
201110011800 METAR MROC 011800Z 24010KT 9999 SCT030 BKN250 27/22 A2999 NOSIG=
201110011900 METAR MROC 011900Z 25012KT 9999 FEW010 SCT025 BKN250 26/22 A2996 BECMG 8000 VCSH=
201110012000 METAR MROC 012000Z 22012KT 9999 FEW010TCU BKN020 25/23 A2995 RMK PCPN DST N NE E BECMG 7000 VCSH=
201110012100 METAR MROC 012100Z 23009KT 9999 TSRA FEW008CB SCT030 OVC080 23/23 A2995 RMK CB RA N NE VIS 5KM N BECMG 5000 TSRA=
201110012200 METAR MROC 012200Z 24005KT 5000 TSRA FEW001CB SCT010 BKN030 22/22 A2996 RMK CB RN QUAD W VIS E UNL BECMG 3000 TSRA=
201110012300 METAR MROC 012300Z 30007KT 1200 R07/0800 +TSRA SCT001CB FEW050 OVC100 20/20 A2998 RMK VIS S UNL NOSIG=
201110012354 METAR MROC 020000Z 34002KT 3000 TSRA FEW001CB SCT010 OVC070 20/20 A3000 RMK VIS E UNL BECMG 1000 TSRA=
201110020000 METAR MROC 020000Z 34002KT 3000 TSRA FEW001CB SCT010 OVC070 20/20 A3000 RMK VIS E UNL BECMG 1000 TSRA=
201110020100 METAR MROC 020100Z 31003KT 9999 -RA DZ FEW001 SCT010 BKN020 20/20 A3003 RETSRA BECMG 5000=
201110020200 METAR MROC 020200Z 31003KT 9999 -RA DZ FEW001 BKN030 20/20 A3006 BECMG 5000=
201110020300 METAR MROC 020300Z 00000KT 9999 -RA SCT010 BKN080 21/21 A3007 NOSIG=
201110020400 METAR MROC 020400Z 10003KT 9999 RA SCT020 BKN080 20/20 A3006 NOSIG=
201110020500 METAR MROC 020500Z 09007KT 9999 -RA OVC090 20/20 A3004 NOSIG=
201110020600 METAR MROC 020600Z 08008KT 9999 -DZ FEW035 OVC100 20/20 A3001 NOSIG=
201110020700 METAR MROC 020700Z 10003KT 9999 -DZ FEW035 OVC100 20/20 A3000 NOSIG=
201110020800 METAR MROC 020800Z 11002KT CAVOK 19/19 A2998 RMK BKN120 NOSIG=
201110020900 METAR MROC 020900Z 00000KT CAVOK 19/19 A2996 RMK BKN120 NOSIG=
201110021000 METAR MROC 021000Z 07003KT CAVOK 19/19 A2997 RMK SCT120 SCT250 NOSIG=
201110021100 METAR MROC 021100Z 00000KT CAVOK 19/19 A2998 RMK BKN100 NOSIG=
201110021200 METAR MROC 021200Z 00000KT CAVOK 19/19 A3001 RMK FEW100 SCT250 CB DST SW NOSIG=
201110021300 METAR MROC 021300Z 00000KT 9999 FEW002 SCT140 20/20 A3004 RMK CB DST SW NOSIG=
201110021400 METAR MROC 021400Z 12002KT CAVOK 23/21 A3005 RMK CB DST SW SCT140 BECMG 24007KT=
201110021500 METAR MROC 021500Z 00000KT CAVOK 25/20 A3005 RMK CB DST ARND BECMG 24007K T=
201110021600 METAR MROC 021600Z 24004KT 9999 FEW040 SCT130 26/20 A3004 RMK CB DST ARND NOSIG=
201110021700 METAR MROC 021700Z 23009KT 9999 FEW020TCU SCT080 SCT200 26/22 A3002 RMK CB RN DST QUAD E CB DST QUAD S W BECMG SHRA=
201110021800 METAR MROC 021800Z 23008KT 9999 FEW015TCU SCT080 SCT120 25/23 A3000 RMK CB RN DST ARND BECMG SHRA=
201110021900 METAR MROC 021900Z 24007KT 9999 TSRA FEW001CB FEW020 BKN080 23/23 A2998 BECMG 5000 TSRA=
201110022000 METAR MROC 022000Z 22004KT 6000 -TSRA FEW001CB FEW020 OVC100 22/22 A2996 RERA RMK VIS E UNL BECMG 3000 -TSRA=
201110022100 METAR MROC 022100Z 27004KT 4000 -RA BR FEW001 SCT010 OVC100 21/21 A2995 NOSIG=
201110022200 METAR MROC 022200Z 00000KT 8000 -RA VCFG FEW003 SCT020 OVC100 21/21 A2997 NOSIG=
201110022300 METAR MROC 022300Z 00000KT 9999 BCFG -RA FEW003 SCT020 OVC100 21/21 A2999 NOSIG=
201110030000 METAR MROC 030000Z 11004KT 9999 -RA FEW010 SCT030 OVC100 21/21 A3002 NOSIG=
201110030100 METAR MROC 030100Z 00000KT 9999 -RA FEW030 OVC100 21/21 A3004 NOSIG=
201110030200 METAR MROC 030200Z 08005KT 9999 -RA FEW030 OVC100 21/21 A3006 NOSIG=
201110030300 METAR MROC 030300Z 06004KT 9999 -RA FEW030 OVC100 21/21 A3006 NOSIG=
201110030400 METAR MROC 030400Z 00000KT 9999 -RA FEW030 OVC100 20/20 A3005 NOSIG=
201110030500 METAR MROC 030500Z 07004KT CAVOK 20/20 A3005 RMK BKN100 NOSIG=
201110030600 METAR MROC 030600Z 06005KT CAVOK 20/20 A3002 RMK BKN100 NOSIG=
201110030700 METAR MROC 030700Z 09006KT CAVOK 19/19 A3000 RMK SCT100 NOSIG=
201110030800 METAR MROC 030800Z 08004KT CAVOK 19/19 A2998 RMK SCT100 NOSIG=
201110030900 METAR MROC 030900Z 08005KT CAVOK 18/18 A2997 NOSIG=
201110031000 METAR MROC 031000Z 06006KT CAVOK 18/18 A2999 NOSIG=
201110031100 METAR MROC 031100Z 07005KT CAVOK 19/18 A3001 RMK SCT120 LTNG DST N NOSIG=
201110031200 METAR MROC 031200Z 06005KT 9999 FEW035 BKN250 19/18 A3002 RMK FEW120 NOSIG=
201110031300 METAR MROC 031300Z 07004KT CAVOK 21/20 A3004 RMK SCT120 BKN250 NOSIG=
201110031400 METAR MROC 031400Z 00000KT 9999 FEW025 SCT120 BKN250 23/21 A3006 BECMG 22005KT=
201110031500 METAR MROC 031500Z 22002KT 9999 FEW025 BKN120 24/20 A3007 NOSIG=
201110031600 METAR MROC 031600Z 12004KT 9999 FEW025 SCT130 BKN250 26/20 A3007 NOSIG=
201110031700 METAR MROC 031700Z 24007KT 9999 FEW030 SCT130 BKN250 25/22 A3005 RMK HZ LGT N NW NOSIG=
201110031800 METAR MROC 031800Z 22004KT 9999 FEW030 SCT130 BKN250 26/22 A3001 NOSIG=
201110031900 METAR MROC 031900Z 23005KT 9999 FEW030 SCT130 BKN250 26/22 A2999 NOSIG=
201110032000 METAR MROC 032000Z 21007KT 9999 SCT030 BKN250 27/22 A2996 NOSIG=
201110032100 METAR MROC 032100Z 24005KT 9999 VCSH FEW015CB SCT030 BKN100 26/23 A2994 RMK RASH AND VIS ENE NE 8KMS BECMG 7000 -SHRA=
201110032200 METAR MROC 032200Z 06006KT 9999 3000SW SHRA SCT012CB BKN020 22/22 A2995 BECMG 3000=
201110032300 METAR MROC 032300Z 35004KT 9999 VCSH SCT030 BKN120 21/21 A2999 RMK RASH SW W WNW CB DST NW NOSIG=
201110040000 METAR MROC 040000Z 02003KT 9999 FEW010 SCT020 BKN120 21/21 A3001 NOSIG=
201110040100 METAR MROC 040100Z 00000KT 9999 FEW010 SCT020 BKN120 21/21 A3003 NOSIG=
201110040200 METAR MROC 040200Z 00000KT 9999 FEW010 SCT020 BKN120 21/21 A3005 NOSIG=
201110040300 METAR MROC 040300Z 00000KT 9999 FEW001 BKN040 21/21 A3007 NOSIG=
201110040400 METAR MROC 040400Z 00000KT 9999 FEW001 SCT040 21/21 A3006 RMK SCT120 NOSIG=
201110040500 METAR MROC 040500Z 27002KT 9999 FEW001 BKN040 21/21 A3007 BECMG 5000=
201110040600 METAR MROC 040600Z 33002KT 9999 FEW001 BKN080 21/21 A3005 RMK FEW004 BECMG 5000=
201110040700 METAR MROC 040700Z 00000KT 9999 -RADZ FEW001 SCT015 OVC080 21/21 A3002 BECMG 5000=
201110040800 METAR MROC 040800Z 00000KT 8000 FEW001 SCT080 20/20 A3000 RMK VIS E UNL BECMG 5000=
201110040900 METAR MROC 040900Z 00000KT 6000 FEW001 19/19 A2999 RMK VIS E UNL BECMG 3000=
201110041000 METAR MROC 041000Z 06003KT 9999 FEW001 19/19 A3000 NOSIG=
201110041100 METAR MROC 041100Z 00000KT 9999 FEW001 SCT250 19/19 A3002 RMK CB DST E NOSIG=
201110041200 METAR MROC 041200Z 09003KT 9999 FEW001 SCT100 BKN200 19/19 A3005 RMK CB DST QDT E W NOSIG=
201110041300 METAR MROC 041300Z 08003KT CAVOK 22/20 A3005 RMK SCT140 BKN250 HZY NOSIG=
201110041400 METAR MROC 041400Z 22002KT CAVOK 23/22 A3008 RMK SCT140 BKN250 LGT HZ ARND TCU DST S NOSIG=
201110041500 METAR MROC 041500Z 25005KT CAVOK 24/22 A3008 RMK SCT140 BKN250 LGT HZ ARND NOSIG=
201110041600 METAR MROC 041600Z 23005KT 9999 FEW025 SCT140 BKN250 24/22 A3008 RMK HZ ARND NOSIG=
201110041700 METAR MROC 041700Z 25003KT 9999 FEW025 BKN250 26/23 A3004 NOSIG=
201110041800 METAR MROC 041800Z 23004KT 9999 FEW025 BKN200 26/22 A3002 NOSIG=
201110041900 METAR MROC 041900Z 24004KT 9999 FEW025 BKN200 26/22 A2998 NOSIG=
201110042000 METAR MROC 042000Z 23003KT 9999 -RA FEW025 SCT120 BKN200 26/23 A2995 NOSIG=
201110042100 METAR MROC 042100Z 24009KT 9999 FEW025 SCT120 25/23 A2995 NOSIG=
201110042200 METAR MROC 042200Z 23006KT 9999 4000SW RA BR FEW005 SCT020 BKN090 23/23 A2996 NOSIG=
201110042300 METAR MROC 042300Z 25004KT 5000 -RA BR FEW003 SCT008 BKN090 22/22 A2998 NOSIG=
201110050000 METAR MROC 050000Z 00000KT 9999 -DZ FEW008 BKN120 21/21 A2999 NOSIG=
201110050100 METAR MROC 050100Z 00000KT 9999 FEW030 BKN120 21/21 A3001 REDZ NOSIG=
201110050200 METAR MROC 050200Z 27004KT 9999 FEW003 SCT015 BKN120 21/21 A3002 RMK VIS SW 5KMS DUE VCFG NOSIG=
201110050300 METAR MROC 050300Z 00000KT 6000 2000SW BR FEW001 BKN010 21/21 A3004 BECMG 1500 BR=
201110050400 METAR MROC 050400Z 00000KT 5000 2000SW BR FEW001 BKN010 21/21 A3005 NOSIG=
201110050500 METAR MROC 050500Z 00000KT 8000 2000SW BR FEW001 SCT010 BKN100 21/21 A3004 BECMG 1500 BR=
201110050600 METAR MROC 050600Z 00000KT 9999 1000SW BR FEW001 BKN100 21/21 A3002 BECMG 1000 BR=
201110050700 METAR MROC 050700Z 00000KT 9999 1000SW BR FEW001 SCT005 BKN100 20/20 A3001 BECMG 1000 BR=
201110050800 METAR MROC 050800Z 00000KT 2000 BR FEW001 SCT005 20/20 A2999 BECMG 0500 FG VV///=
201110050900 METAR MROC 050900Z 00000KT 8000 2000SW BR FEW001 SCT005 BKN100 20/20 A2998 BECMG 1000 BR=
201110051000 METAR MROC 051000Z 00000KT 9999 2000SW BR FEW001 BKN100 20/20 A2999 BECMG 4000 BR=
201110051100 METAR MROC 051100Z 00000KT 9999 FEW005 BKN100 19/19 A2999 NOSIG=
201110051200 METAR MROC 051200Z 10003KT 9999 FEW005 BKN100 19/19 A3001 RMK CB DST S NOSIG=
201110051300 METAR MROC 051300Z 00000KT 9999 BR FEW003 SCT100 22/22 A3003 RMK VIS 5000 SW CB DST S BECMG 24004KT=
201110051325 METAR MROC 051325Z 26004KT 9999 2000SW BR SCT001 SCT100 22/22 A3003 RMK VIS 2000S CB DST S NOSIG=
201110051400 METAR MROC 051400Z 25004KT 9999 4800SW BR FEW005 SCT100 23/22 A3006 NOSIG=
201110051500 METAR MROC 051500Z 25003KT 9999 FEW012 SCT025 24/22 A3005 RMK HZ ARND=
201110051600 METAR MROC 051600Z 24007KT 9999 FEW020 SCT120 25/22 A3004 RMK HZ ARND NOSIG=
201110051700 METAR MROC 051700Z 24006KT 9999 FEW020TCU SCT025 26/22 A3001 RMK HZ ARND NOSIG=
201110051800 METAR MROC 051800Z 24008KT 9999 FEW015TCU SCT025 27/22 A2999 RMK SCT250 HZ ARND BECMG 8000 VCSH=
201110051900 METAR MROC 051900Z 24008KT 9999 VCSH FEW015CB BKN025 25/22 A2997 RMK VIS 6000 NE E HZ ARND BECMG 6000 -TSRA=
201110052000 METAR MROC 052000Z 23008KT 9999 -TSRA BR FEW015CB SCT020 BKN100 23/23 A2994 RMK VIS 5000SW DUE ST NOSIG=
201110052100 METAR MROC 052100Z 26006KT 5000 -TSRA FEW015CB BKN030 22/22 A2994 NOSIG=
201110052150 METAR MROC 052150Z 27008KT 2000 BR SCT002 BKN015 21/21 A2995 BECMG 0500 FG=
201110052200 METAR MROC 052200Z 27008KT 2000 BR SCT002 BKN015 21/21 A2996 RMK BECMG 0500F G=
201110052300 METAR MROC 052300Z 29002KT 2000 BR SCT003 BKN015 21/21 A2997 NOSIG=
201110060000 METAR MROC 060000Z 00000KT 2000 -RA BR FEW002 BKN010 20/20 A3001 NOSIG=
201110060053 METAR MROC 060053Z 00000KT 2000 -RA BR FEW002 BKN010 20/20 A3001 NOSIG=
201110060100 METAR MROC 060100Z 00000KT 2000 -RA BR FEW002 BKN010 20/20 A3001 NOSIG=
201110060200 METAR MROC 060200Z 10003KT 2000 RA BR FEW002 BKN010 20/20 A3003 NOSIG=
201110060228 METAR MROC 060228Z 07004KT 9999 FEW020 BKN090 20/20 A3003 NOSIG=
201110060300 METAR MROC 060300Z 10004KT 9999 FEW035 BKN090 20/20 A3002 NOSIG=
201110060400 METAR MROC 060400Z 08003KT 9999 FEW035 SCT100 BKN250 20/20 A2999 NOSIG=
201110060500 METAR MROC 060500Z 00000KT 9999 FEW035 SCT100 BKN250 20/20 A2998 NOSIG=
201110060600 METAR MROC 060600Z 20003KT 9999 FEW005 BKN250 20/20 A2999 BECMG 6000=
201110060700 METAR MROC 060700Z 00000KT 2500 BR SCT002 BKN005 20/20 A2997 RMK VIS E 5KMS BECMG 6000 BKN015=
201110060800 METAR MROC 060800Z 00000KT 8000 VCFG FEW030 SCT250 19/19 A2996 RMK VIS NE E SE UNL NOSIG=
201110060900 METAR MROC 060900Z 05005KT 9999 FEW035 SCT250 18/18 A2994 NOSIG=
201110061000 METAR MROC 061000Z 06007KT CAVOK 19/19 A2995 RMK SCT250 NOSIG=
201110061100 METAR MROC 061100Z 06006KT CAVOK 19/18 A2995 RMK SCT250 NOSIG=
201110061200 METAR MROC 061200Z 05002KT CAVOK 19/18 A2998 RMK FEW100 SCT250 CB DST S NOSIG=
201110061300 METAR MROC 061300Z 00000KT CAVOK 22/19 A3000 RMK FEW100 SCT250 BECMG 24006KT=
201110061400 METAR MROC 061400Z 09003KT 9999 FEW030 BKN110 24/19 A3001 BECMG 24006KT=
201110061500 METAR MROC 061500Z 10006KT 9999 FEW030 SCT150 24/20 A3002 NOSIG=
201110061600 METAR MROC 061600Z 11007KT 9999 FEW030 SCT200 26/21 A3001 NOSIG=
201110061700 METAR MROC 061700Z 20004KT 9999 SCT025 BKN130 27/21 A2999 RMK RA DST NE E SE BECMG 8000 VCSH=
201110061800 METAR MROC 061800Z 21008KT 9999 VCSH SCT015TCU BKN100 25/22 A2999 RMK RASH E BECMG 7000 RA=
201110061900 METAR MROC 061900Z 00000KT 9999 VCRA SCT015TCU BKN100 26/22 A2994 RMK RASH DST N NE E BECMG 6000 RA=
201110062000 METAR MROC 062000Z 25008KT 9999 SCT015TCU BKN100 26/23 A2993 RMK RA DST SE NOSIG=
201110062100 METAR MROC 062100Z 26004KT 9999 FEW015TCU SCT080 BKN200 24/23 A2991 RMK CB DST QDT W E RN DST E BECMG -SHRA=
201110062200 METAR MROC 062200Z 26005KT 9999 TSRA FEW001CB SCT010 BKN040 23/23 A2992 BECMG 5000 +TSRA=
201110062300 METAR MROC 062300Z 25007KT 0300 R07/0125 FG VV/// 21/21 A2994 NOSIG=
201110062354 METAR MROC 070000Z 00000KT 1200 BR SCT001 BKN002 21/21 A2995 NOSIG=
201110070000 METAR MROC 070000Z 00000KT 1200 R07/0300 BR SCT001 BKN002 21/21 A2995 NOSIG=
201110070100 METAR MROC 070100Z 00000KT 3000 BR SCT001 SCT005 21/21 A2996 RMK VIS 8KM E BECMG 1000 FG=
201110070200 METAR MROC 070200Z 00000KT 2000 BR SCT001 BKN020 21/21 A2999 BECMG 1000 FG=
201110070300 METAR MROC 070300Z 32002KT 3000 DZ BR SCT005 BKN012 21/21 A3001 RMK VIS 5000 E NOSIG=
201110070400 METAR MROC 070400Z 00000KT 5000 2000S BR FEW003 BKN015 21/21 A3001 REDZ RMK VIS 9999 N BECMG 8000 VCFG=
201110070500 METAR MROC 070500Z 03002KT 9999 VCFG FEW003 SCT015 21/21 A3001 RMK VIS 8000 SW BECMG CAVOK=
201110070600 METAR MROC 070600Z 00000KT 9999 FEW010 SCT025 BKN120 20/20 A2999 NOSIG=
201110070700 METAR MROC 070700Z 00000KT CAVOK 19/19 A2997 BECMG SCT250=
201110070800 METAR MROC 070800Z 00000KT CAVOK 19/19 A2995 RMK SCT250 NOSIG=
201110070900 METAR MROC 070900Z 07006KT CAVOK 19/19 A2994 RMK SCT250 NOSIG=
201110071000 METAR MROC 071000Z 07004KT CAVOK 20/20 A2995 RMK SCT250 NOSIG=
201110071100 METAR MROC 071100Z 07002KT CAVOK 19/19 A2995 RMK SCT100 SCT250 NOSIG=
201110071200 METAR MROC 071200Z 06003KT CAVOK 20/20 A2998 RMK BKN100 NOSIG=
201110071300 METAR MROC 071300Z 00000KT CAVOK 21/20 A3000 RMK BKN110 CB DST SW NOSIG=
201110071400 METAR MROC 071400Z 13003KT CAVOK 25/20 A3001 RMK CB DST S SCT110 SCT250 NOSIG=
201110071500 METAR MROC 071500Z 13004KT CAVOK 26/20 A3001 RMK CB DST S BECMG 24007KT=
201110071600 METAR MROC 071600Z 25007KT 9999 FEW030 BKN120 27/22 A3000 RMK CB DST S NOSIG=
201110071700 METAR MROC 071700Z 24008KT 9999 FEW040 BKN120 27/22 A2998 RMK CB RN DST E NOSIG=
201110071800 METAR MROC 071800Z 26010KT 9999 FEW015TCU SCT050 SCT120 27/23 A2995 RMK CB DST ARND RN DST E BECMG -SHRA=
201110071900 METAR MROC 071900Z 26009KT 9999 SCT020TCU SCT120 27/23 A2993 RMK CB DST ARND RN DST E BECMG -SHRA=
201110072000 METAR MROC 072000Z 25009KT 9999 TSRA SCT005CB FEW030 SCT120 27/23 A2991 RMK CB QDT E BECMG 5000 TSRA=
201110072100 METAR MROC 072100Z 26008KT 9999 FEW010CB SCT030 BKN120 25/23 A2990 BECMG 3000 RA BR=
201110072200 METAR MROC 072200Z 24007KT 9999 -TS FEW010CB SCT030 BKN120 24/23 A2989 BECMG 3000 RA BR=
201110072300 METAR MROC 072300Z 26008KT 9999 FEW005 SCT020 BKN100 22/22 A2993 RMK VIS N 4KMS DUE ST LOW BECMG 3000 RA BR=
201110080000 METAR MROC 080000Z 27006KT 9999 FEW005 SCT020 BKN100 21/21 A2993 NOSIG=
201110080100 METAR MROC 080100Z 22005KT 9999 FEW020 SCT1000 BKN200 21/21 A2997 NOSIG=
201110080200 METAR MROC 080200Z 26003KT 9999 -RA FEW020 BKN100 21/21 A3000 NOSIG=
201110080300 METAR MROC 080300Z 00000KT 9999 -RA FEW020 BKN100 21/21 A3001 RMK CB DST NW NOSIG=
201110080400 METAR MROC 080400Z 30003KT 9999 -RA FEW020 BKN100 20/20 A3001 NOSIG=
201110080500 METAR MROC 080500Z 30003KT 9999 -RA FEW020 BKN100 20/20 A3001 NOSIG=
201110080600 METAR MROC 080600Z 00000KT 9999 SCT020 BKN100 20/20 A2999 NOSIG=
201110080700 METAR MROC 080700Z 13003KT 9999 SCT020 BKN100 20/20 A2996 NOSIG=
201110080800 METAR MROC 080800Z 08002KT 9999 SCT020 BKN100 20/20 A2993 NOSIG=
201110080900 METAR MROC 080900Z 09006KT 9999 FEW030 SCT100 20/20 A2992 NOSIG=
201110081000 METAR MROC 081000Z 09003KT CAVOK 20/20 A2993 RMK SCT120 NOSIG=
201110081100 METAR MROC 081100Z 00000KT CAVOK 19/19 A2995 RMK BKN120 NOSIG=
201110081200 METAR MROC 081200Z 06010KT CAVOK 20/20 A2996 RMK BKN120 NOSIG=
201110081300 METAR MROC 081300Z 09004KT CAVOK 21/20 A2998 RMK SCT120 BKN250 NOSIG=
201110081400 METAR MROC 081400Z 02003KT CAVOK 24/20 A2999 RMK FEW120 SCT250 BECMG 22005KT=
201110081500 METAR MROC 081500Z 07004KT CAVOK 26/20 A2999 RMK FEW120 SCT250 NOSIG=
201110081600 METAR MROC 081600Z 14003KT CAVOK 27/19 A2997 RMK BKN250 BECMG 22006KT=
201110081700 METAR MROC 081700Z 24010KT 9999 FEW040 SCT120 BKN250 28/21 A2995 RMK RA DST S NOSIG=
201110081800 METAR MROC 081800Z 21011KT 9999 FEW010TCU SCT040 BKN250 27/23 A2993 RMK RA DST S NOSIG=
201110081900 METAR MROC 081900Z 22009KT 9999 FEW010CB SCT040 BKN250 26/24 A2990 BECMG 8000 VCSH=
201110082000 METAR MROC 082000Z 21007KT 9999 FEW010CB SCT040 BKN250 25/22 A2990 BECMG 8000 VCSH=
201110082100 METAR MROC 082100Z 23005KT 9999 -SHRA FEW010CB SCT025 BKN100 23/23 A2989 RMK VIS QUAD N 6KM BECMG 7000 TSRA=
201110082200 METAR MROC 082200Z 36005KT 8000 -RA VCTS FEW015CB SCT030 BKN100 22/22 A2990 NOSIG=
201110082300 METAR MROC 082300Z 00000KT 5000 -RA BR VCTS FEW002 SCT015CB BKN100 22/22 A2992 RMK UNLD NE/E BECMG 4000 -RA BR BKN025=
201110090000 METAR MROC 090000Z 00000KT 9999 BCFG FEW025 BKN100 21/21 A2994 RMK LTNG DST S NOSIG=
201110090100 METAR MROC 090100Z 00000KT 9999 -RA FEW025 BKN100 21/21 A2996 BECMG 7000 -RA=
201110090200 METAR MROC 090200Z 00000KT 9999 BCFG FEW035 BKN120 21/21 A2999 RMK LTNG DST S NOSIG=
201110090300 METAR MROC 090300Z 00000KT 8000 VCFG FEW001 OVC120 21/21 A3002 RMK VIS E UNL BECMG 5000=
201110090400 METAR MROC 090400Z 00000KT 8000 3000SW VCFG FEW001 SCT020 BKN120 21/21 A3001 RMK LTNG SW BECMG 5000 BR=
201110090439 METAR MROC 090439Z 00000KT 1600 R07/0900 BR SCT001 BKN020 21/21 A3000 NOSIG=
201110090500 METAR MROC 090500Z 00000KT 4000 BR FEW001 SCT010 BKN120 21/21 A2999 BECMG 1500 BR=
201110090600 METAR MROC 090600Z 00000KT 9999 VCFG FEW001 BKN120 20/20 A2996 BECMG 5000 BR=
201110090700 METAR MROC 090700Z 00000KT 9999 3000SW R07/1000 FEW001 BKN120 20/20 A2995 RMK BCFG SW BECMG 1000 FG=
201110090800 METAR MROC 090800Z 00000KT 5000 BR SCT001 BKN010 20/20 A2994 RMK VIS E UNL BECMG 1000 FG=
201110090900 METAR MROC 090900Z 05001KT 9999 DZ VCFG FEW001 SCT010 BKN020 20/20 A2993 BECMG 5000 BR=
201110091000 METAR MROC 091000Z 00000KT 9999 VCFG FEW001 SCT010 BKN040 20/20 A2994 REDZ BECMG 5000 BR=
201110091100 METAR MROC 091100Z 00000KT 9999 VCFG FEW001 SCT020 BKN080 20/20 A2995 NOSIG=
201110091200 METAR MROC 091200Z 00000KT 9999 VCFG FEW001 BKN160 20/20 A2997 RMK CB DST QDT S W NOSIG=
201110091300 METAR MROC 091300Z 08003KT 9999 FEW010 SCT040 BKN180 21/21 A2999 RMK HZ LGT ARND NOSIG=
201110091400 METAR MROC 091400Z 10003KT CAVOK 23/21 A3000 RMK BKN200 HZ LGT ARND BECMG 24005KT=
201110091500 METAR MROC 091500Z 24002KT CAVOK 24/21 A3001 RMK FEW060 BKN200 HZ LGT ARND NOSIG=
201110091600 METAR MROC 091600Z 25004KT 9999 FEW035 BKN200 25/22 A3002 RMK HZY NOSIG=
201110091700 METAR MROC 091700Z 26006KT 9999 FEW025 SCT040 BKN200 25/22 A3000 RMK HZY NOSIG=
201110091800 METAR MROC 091800Z 24006KT 9999 VCSH FEW015TCU SCT030 BKN120 25/22 A2997 RMK VIS 8KM SW BECMG 7000 SHRA=
201110091900 METAR MROC 091900Z 25002KT 9999 -RA VCSH FEW015TCU SCT030 BKN100 22/22 A2996 RESHRA BECMG 7000 SHRA=
201110092000 METAR MROC 092000Z 29004KT 9999 -RA FEW010 SCT015TCU BKN100 23/22 A2993 BECMG 7000 RA=
201110092100 METAR MROC 092100Z 30005KT 9999 SCT030 BKN120 24/22 A2991 NOSIG=
201110092200 METAR MROC 092200Z 00000KT 9999 FEW020 SCT030 BKN100 23/21 A2991 NOSIG=
201110092300 METAR MROC 092300Z 26007KT 9999 RA BKN015 SCT100 22/22 A2992 BECMG 6000 -RA VCFG=
201110100000 METAR MROC 100000Z 32004KT 9999 RA SCT025 BKN090 21/21 A2994 NOSIG=
201110100100 METAR MROC 100100Z 29006KT 9999 RA FEW003 SCT020 BKN090 20/20 A2998 RMK VIS SW 6KMS DUE VCFG NOSIG=
201110100200 METAR MROC 100200Z 26005KT 6000 RA FEW015 OVC090 20/20 A3002 RMK VIS SW 3KMS DUE RASH BECMG 8000 -RA=
201110100300 METAR MROC 100300Z 00000KT 9999 -RA FEW015 OVC100 20/20 A3001 NOSIG=
201110100400 METAR MROC 100400Z 17003KT 9999 -DZ BR FEW005 OVC120 20/20 A3002 NOSIG=
201110100500 METAR MROC 100500Z 00000KT 9999 FEW020 SCT100 BKN250 20/20 A3000 NOSIG=
201110100600 METAR MROC 100600Z 00000KT CAVOK 20/20 A2999 RMK SCT120 BKN250 NOSIG=
201110100700 METAR MROC 100700Z 00000KT CAVOK 20/20 A2998 RMK SCT120 BKN250 NOSIG=
201110100800 METAR MROC 100800Z 00000KT CAVOK 20/20 A2996 RMK SCT120 BKN250 NOSIG=
201110100900 METAR MROC 100900Z 00000KT CAVOK 20/20 A2996 RMK SCT120 BKN250 NOSIG=
201110101000 METAR MROC 101000Z 00000KT 9999 FEW020 SCT120 BKN250 20/20 A2997 NOSIG=
201110101100 METAR MROC 101100Z 00000KT 9999 FEW020 SCT120 BKN250 20/20 A2997 NOSIG=
201110101200 METAR MROC 101200Z 00000KT 9999 FEW020 BKN100 20/20 A2999 NOSIG=
201110101300 METAR MROC 101300Z 00000KT 9999 FEW015 BKN090 21/21 A3001 BECMG 24004KT=
201110101400 METAR MROC 101400Z 28002KT 9999 SCT020 BKN100 22/22 A3004 NOSIG=
201110101500 METAR MROC 101500Z 25004KT 7000 2000SW RA BR SCT003 BKN012 21/21 A3006 NOSIG=
201110101600 METAR MROC 101600Z 31004KT 7000 3000SW RA BR FEW003 SCT010 BKN070 21/21 A3006 NOSIG=
201110101700 METAR MROC 101700Z 26009KT 5000 1200SW RA BR SCT003 BKN015 21/21 A3004 NOSIG=
201110101800 METAR MROC 101800Z 26007KT 9999 BR FEW008 BKN025 21/21 A3002 RERA RMK VIS 5000 NW N NE NOSIG=
201110101900 METAR MROC 101900Z 26009KT 9999 FEW008 BKN025 22/22 A2999 NOSIG=
201110102000 METAR MROC 102000Z 25006KT 9999 DZ FEW006 SCT020 BKN090 21/21 A2997 BECMG RA BR=
201110102100 METAR MROC 102100Z 00000KT 6000 2000SW DZ BR FEW001 SCT008 BKN015 21/21 A2996 RMK BECMG 1000 DZ BR BKN001=
201110102200 METAR MROC 102200Z 00000KT 2000 -RA BR FEW002 SCT005 BKN010 20/20 A2997 BECMG 5000 -RA BR=
201110102300 METAR MROC 102300Z 13002KT 5000 BR FEW003 SCT015 BKN100 20/20 A2997 NOSIG=
201110110000 METAR MROC 110000Z 00000KT 3000 -RA BR FEW004 SCT015 BKN100 20/20 A2999=
201110110100 METAR MROC 110100Z 24005KT 1200 -RA BR FEW001 SCT006 BKN015 20/20 A3002 BECMG 0500 FG=
201110110200 METAR MROC 110200Z 27005KT 1500 -RA BR FEW002 SCT007 BKN015 19/19 A3005=
201110110300 METAR MROC 110300Z 00000KT 1500 R07/0900 RA BR FEW001 BKN008 19/19 A3007 BECMG 1000 +RA BR=
201110110400 METAR MROC 110400Z 00000KT 2500 RA BR FEW001 BKN010 19/19 A3007 BECMG 1000 +RA BR=
201110110500 METAR MROC 110500Z 00000KT 8000 3000W -RA VCFG FEW001 SCT002 BKN015 19/19 A3005 RMK VIS S 6KM NOSIG=
201110110600 METAR MROC 110600Z 28004KT 8000 3000W -RA VCFG FEW001 SCT002 BKN015 19/19 A3004 RMK VIS S 5KM BECMG 5000 -RA BR=
201110110700 METAR MROC 110700Z 28005KT 4500 2000SW -RA BR FEW001 SCT002 BKN008 19/19 A3002 BECMG 2000 -RA BR=
201110110800 METAR MROC 110800Z 00000KT 8000 3800SW -RA VCFG FEW008 BKN030 19/19 A3000 RMK FEW010 NOSIG=
201110110900 METAR MROC 110900Z 00000KT 9999 -DZ BCFG SCT010 BKN035 19/19 A3000 BECMG =
201110111000 METAR MROC 111000Z 00000KT 9999 BCFG FEW005 BKN100 19/19 A2999 RMK FEW030 VIS SE 5KM NOSIG=
201110111100 METAR MROC 111100Z 00000KT 9999 -DZ FEW025 BKN100 19/19 A3001 NOSIG=
201110111200 METAR MROC 111200Z 00000KT 9999 BCFG FEW001 SCT040 BKN100 19/19 A3001 NOSIG=
201110111300 METAR MROC 111300Z 00000KT 9999 BCFG SCT030 BKN100 20/20 A3003 NOSIG=
201110111400 METAR MROC 111400Z 00000KT 9999 FEW005 SCT030 BKN100 22/22 A3005 NOSIG=
201110111500 METAR MROC 111500Z 00000KT 9999 FEW006 SCT030 BKN100 23/22 A3007 NOSIG=
201110111600 METAR MROC 111600Z 24004KT 8000 -RA VCFG FEW002 SCT010 BKN100 22/22 A3007 NOSIG=
201110111700 METAR MROC 111700Z 25010KT 8000 VCRA FEW002 SCT012 BKN100 23/22 A3006 BECMG 5000 -RA BR=
201110111800 METAR MROC 111800Z 24010KT 9999 VCRA FEW005 SCT010 BKN100 23/23 A3004 NOSIG=
201110111900 METAR MROC 111900Z 24008KT 9999 FEW010 SCT015 BKN100 23/22 A3000 NOSIG=
201110112000 METAR MROC 112000Z 26010KT 0700 RA FG FEW001 SCT005 BKN010 20/20 A2999 NOSIG=
201110112100 METAR MROC 112100Z 26012KT 2800 RA BR FEW001 SCT005 OVC010 19/19 A3000 BECMG 1000 RA FG=
201110112200 METAR MROC 112200Z 00000KT 3000 RA BR FEW001 SCT005 OVC010 20/20 A3000 BECMG 1500=
201110112300 METAR MROC 112300Z 26007KT 1200 R07/0800 RADZ BR SCT001 OVC002 20/20 A3001 NOSIG=
201110112352 METAR MROC 120000Z 25005KT 3000 RA BR SCT001 OVC002 19/19 A3004 BECMG 1500=
201110120000 METAR MROC 120000Z 25005KT 3000 RA BR SCT001 OVC002 19/19 A3004 BECMG 1500=
201110120100 METAR MROC 120100Z 00000KT 3000 RA BR SCT001 OVC002 19/19 A3007 BECMG 1500=
201110120200 METAR MROC 120200Z 00000KT 5000 RA BR FEW001 SCT010 OVC020 20/20 A3009 BECMG 3000=
201110120300 METAR MROC 120300Z 00000KT 9999 4800SW RA BR FEW008 BKN070 20/20 A3010 NOSIG=
201110120400 METAR MROC 120400Z 00000KT 9999 -RA FEW008 BKN070 19/19 A3010 NOSIG=
201110120500 METAR MROC 120500Z 00000KT 9999 -RA OVC090 19/19 A3008 NOSIG=
201110120600 METAR MROC 120600Z 00000KT 9999 -RA FEW030 OVC100 19/19 A3008 NOSIG=
201110120700 METAR MROC 120700Z 00000KT 9999 -RA FEW004 OVC100 19/19 A3006 NOSIG=
201110120800 METAR MROC 120800Z 00000KT 9999 -RA FEW003 OVC100 19/19 A3003 NOSIG=
201110120900 METAR MROC 120900Z 07003KT 9999 -DZ FEW015 BKN100 19/19 A3001 NOSIG=
201110121000 METAR MROC 121000Z 03003KT 9999 0500SW R07/0300 FG SCT002 SCT250 19/19 A3002 BECMG 9999=
201110121100 METAR MROC 121100Z 00000KT 1200 R07/0800 BR BKN003 19/19 A3004 NOSIG=
201110121120 METAR MROC 121120Z 00000KT 4000 DZ BR FEW001 SCT008 BKN080 19/19 A3005 NOSIG=
201110121200 METAR MROC 121200Z 00000KT 3000 -DZ BR FEW002 BKN008 19/19 A3005 NOSIG=
201110121300 METAR MROC 121300Z 00000KT 1500 -DZ BR SCT001 OVC015 19/19 A3007 NOSIG=
201110121400 METAR MROC 121400Z 14001KT 3000 BR FEW001 SCT012 OVC020 19/19 A3007 RMK VIS 5KM E BECMG 1500=
201110121500 METAR MROC 121500Z 13002KT 9999 FEW001 SCT015 BKN070 17/17 A3008 RMK VIS 5KM W BECMG 24007KT=
201110121600 METAR MROC 121600Z 23004KT 2400 RADZ BR FEW001 SCT010 OVC070 16/16 A3008 RMK VIS E UNL BECMG 1500=
201110121700 METAR MROC 121700Z 24006KT 2000 +DZ BR SCT001 OVC004 15/15 A3006 RERA BECMG 1000=
201110121800 METAR MROC 121800Z 24006KT 9999 FEW001 BKN012 22/20 A3003 RMK FEW004 NOSIG=
201110121900 METAR MROC 121900Z 24006KT 9999 FEW001 SCT010 BKN015 22/20 A3001 NOSIG=
201110122000 METAR MROC 122000Z 24009KT 9999 FEW001 SCT004 BKN012 22/20 A2998 BECMG 5000=
201110122100 METAR MROC 122100Z 23011KT 3000 -RA BR FEW001 SCT010 BKN020 20/20 A2997 NOSIG=
201110122200 METAR MROC 122200Z 24014KT 2000 -RA BR FEW001 SCT008 OVC020 19/19 A2998 NOSIG=
201110122300 METAR MROC 122300Z 21008KT 1000 -RA BR FEW001 SCT005 OVC020 20/19 A3000 BECMG 3000 RA BR=
201110130000 METAR MROC 130000Z 21005KT 2000 RA BR FEW001 SCT005 OVC020 19/19 A3002 BECMG 1000 RA BR=
201110130100 METAR MROC 130100Z 22008KT 3000 RA BR FEW001 SCT005 OVC020 19/18 A3005 BECMG 1000 RA BR=
201110130200 METAR MROC NIL=
201110130300 METAR MROC 130300Z 22005KT 2000 -RA BR FEW001 SCT005 BKN010 18/18 A3010 RMK BECMG 0500 -RA FG BKN001=
201110130400 METAR MROC 130400Z 00000KT 1500 -RA BR FEW001 SCT006 BKN012 18/17 A3010 NOSIG=
201110130500 METAR MROC 130500Z 00000KT 2500 -RA BR FEW002 SCT008 BKN015 18/17 A3008 NOSIG=
201110130600 METAR MROC 130600Z 00000KT 4000 -RA BR FEW002 SCT010 OVC100 18/18 A3007 NOSIG=
201110130700 METAR MROC 130700Z 00000KT 4000 -RA BR FEW002 SCT010 OVC100 18/18 A3005 NOSIG=
201110130800 METAR MROC 130800Z 00000KT 4000 -RA BR FEW002 SCT010 OVC100 18/18 A3003 NOSIG=
201110130900 METAR MROC 130900Z 00000KT 1200 DZ BR FEW001 BKN010 18/18 A3003 NOSIG=
201110131000 METAR MROC 131000Z 00000KT 8000 DZ VCFG FEW001 BKN100 18/18 A3002 NOSIG=
201110131100 METAR MROC 131100Z 00000KT 9999 FEW030 BKN100 18/18 A3000 NOSIG=
201110131200 METAR MROC 131200Z 00000KT 9999 4000SW BR FEW001 BKN100 18/18 A3001 NOSIG=
201110131300 METAR MROC 131300Z 25004KT 0800 FG VV/// 18/18 A3002 NOSIG=
201110131400 METAR MROC 131400Z 22004KT 2000 BR SCT001 BKN015 19/18 A3005 NOSIG=
201110131500 METAR MROC 131500Z 00000KT 3000 BR FEW001 SCT005 BKN015 20/19 A3006 NOSIG=
201110131600 METAR MROC 131600Z 24003KT 3000 1000SW DZ BR FEW001 SCT005 BKN015 20/19 A3005 BECMG 1000 RA BR=
201110131700 METAR MROC 131700Z 23004KT 4000 1000SW BR FEW001 SCT005 BKN015 21/20 A3003 BECMG 1000 RA BR=
201110131800 METAR MROC 131800Z 24008KT 3000 1000SW DZ BR FEW001 SCT003 BKN015 20/20 A3000 BECMG 1000 RA BR=
201110131900 METAR MROC 131900Z 23006KT 3000 1000SW -DZ BR FEW001 SCT003 BKN015 20/20 A2998 BECMG 1000 RA BR=
201110132000 METAR MROC 132000Z 24005KT 3000 1000SW -RA BR FEW001 SCT003 OVC015 20/19 A2996 BECMG 1000 RA BR=
201110132100 METAR MROC 132100Z 24005KT 2000 -RA BR FEW001 SCT003 OVC012 20/20 A2994 BECMG 1000 -RA BR=
201110132200 METAR MROC 132200Z 21004KT 1400 -RA BR SCT002 BKN012 20/20 A2994 BECMG 1000 RA BR=
201110132300 METAR MROC 132300Z 21002KT 1000 RA BR SCT001 BKN008 20/20 A2994 BECMG 0800 RA FG=
201110140000 METAR MROC 140000Z 23002KT 1500 RA BR SCT002 BKN008 19/19 A2996 RMK VIS SW 1KM BECMG 1000 RA BR=
201110140100 METAR MROC 140100Z 23003KT 0200 -RA FG VV/// 19/19 A2999 BECMG 0900 -RA FG=
201110140200 METAR MROC 140200Z 000000KT 0400 FG VV/// 19/19 A3001 RMK VIS S/SE/E 2KM BECMG 1500 BR BKN020=
201110140300 METAR MROC 140300Z 00000KT 0100 FG VV/// 20/19 A3002 NOSIG=
201110140400 METAR MROC 140400Z 00000KT 0100 DZ FG VV/// 19/19 A3003 NOSIG=
201110140500 METAR MROC 140500Z 00000KT 0100 -DZ FG VV/// 19/19 A3002 REDZ NOSIG=
201110140600 METAR MROC 140600Z 00000KT 0100 DZ FG VV/// 19/19 A2999 NOSIG=
201110140700 METAR MROC 140700Z 28004KT 3000 DZ BR FEW001 SCT003 OVC010 19/18 A2997 RMK VIS 5KM E NOSIG=
201110140800 METAR MROC 140800Z 00000KT 1500 BR SCT001 OVC002 19/19 A2996 NOSIG=
201110140900 METAR MROC 140900Z 00000KT 1000 +DZ FG SCT001 OVC002 19/18 A2996 NOSIG=
201110141000 METAR MROC 141000Z 23002KT 0500 +RADZ FG SCT001 OVC002 19/18 A2997 NOSIG=
201110141100 METAR MROC 141100Z 00000KT 1500 BR SCT001 OVC002 19/18 A2998 RERADZ RMK VIS UNL S NOSIG=
201110141200 METAR MROC 141200Z 00000KT 8000 VCFG FEW001 SCT020 OVC030 19/18 A2998 NOSIG=
201110141300 METAR MROC 141300Z 00000KT 4000 BR FEW001 SCT008 BKN020 19/19 A3000 BECMG 24005KT 2000 BR=
201110141400 METAR MROC 141400Z 00000KT 9999 4000SW BR FEW010 SCT035 BKN100 20/20 A3002 NOSIG=
201110141500 METAR MROC 141500Z 27004KT 1200 DZ BR SCT002 BKN010 20/20 A3006 BECMG 0900 DZ FG BKN006=
201110141600 METAR MROC 141600Z 27006KT 4000 DZ BR FEW001 SCT008 BKN020 21/21 A3005 BECMG 2500 -RA BR=
201110141700 METAR MROC 141700Z 24009KT 1200 +DZ BR SCT001 BKN008 20/20 A3003 BECMG 1000 -RA BR=
201110141800 METAR MROC 141800Z 27006KT 1200 -RA BR SCT001 BKN008 20/20 A3000 BECMG 1000 -RA BR=
201110141900 METAR MROC 141900Z 25007KT 1200 RA BR SCT001 BKN008 19/19 A2995 RMK VIS 0900 SW/W NOSIG=
201110142000 METAR MROC 142000Z 26008KT 1200 RA BR SCT001 BKN010 19/19 A2992 RMK VIS SW/W 0900 NOSIG=
201110142100 METAR MROC 142100Z 26006KT 0500 RA BR SCT001 BKN006 19/19 A2991 RMK VIS 1000E SW NOSIG=
201110142200 METAR MROC 142200Z 25004KT 0500 RA BR SCT001 BKN004 19/19 A2991 RMK VIS 1200SW NOSIG=
201110142300 METAR MROC 142300Z 25009KT 1000 RA BR SCT001 BKN006 19/19 A2993 RMK VIS 1300 SW NOSIG=
201110150000 METAR MROC 150000Z 23007KT 5000 RA BR SCT003 BKN020 19/19 A2994 NOSIG=
201110150100 METAR MROC 150100Z 23005KT 8000 -RA FEW004 SCT020 BKN090 19/19 A2996 NOSIG=
201110150200 METAR MROC 150200Z 24009KT 3000 RA BR FEW001 SCT003 BKN015 19/19 A2999 NOSIG=
201110150300 METAR MROC 150300Z 27007KT 3000 +RA BR SCT001 BKN015 19/19 A3005 NOSIG=
201110150400 METAR MROC 150400Z 24006KT 2000 RA BR SCT001 BKN015 19/19 A3002 BECMG 1000 -RA BR=
201110150500 METAR MROC 150500Z 25004KT 2000 RA BR SCT001 BKN015 19/19 A3001 BECMG 1000 -RA BR=
201110150600 METAR MROC 150600Z 24006KT 3000 -RA BR SCT001 OVC015 18/18 A3000 BECMG 1000 -RA BR=
201110150700 METAR MROC 150700Z 29003KT 3000 SCT001 OVC015 18/18 A2997 BECMG 1000 -RA BR=
201110150800 METAR MROC 150800Z 00000KT 4000 DZ BR FEW001 SCT005 OVC020 19/18 A2995 BECMG 1000 -RA BR=
201110150900 METAR MROC 150900Z 04004KT 2000 RA BR FEW001 OVC020 18/18 A2998 BECMG 1000 -RA BR=
201110151000 METAR MROC 151000Z 26004KT 1000 BR FEW001 SCT003 OVC020 18/18 A2998 BECMG 0500 FG VV///=
201110151100 METAR MROC 151100Z 24003KT 2000 -RA BR FEW001 SCT003 OVC020 18/18 A2997 NOSIG=
201110151200 METAR MROC 151200Z 24006KT 3000 BR FEW001 SCT003 OVC020 18/18 A2998 NOSIG=
201110151300 METAR MROC 151300Z 23007KT 5000 DZ BR FEW001 SCT003 BKN020 19/19 A3001 NOSIG=
201110151400 METAR MROC 151400Z 23003KT 3000 DZ BR FEW002 BKN015 19/19 A3002 NOSIG=
201110151500 METAR MROC 151500Z 22006KT 5000 -DZ BR SCT002 BKN015 20/19 A3003 NOSIG=
201110151600 METAR MROC 151600Z 23005KT 9999 VCFG SCT020 SCT100 22/19 A3003 RMK VIS 8000 W N NOSIG=
201110151700 METAR MROC 151700Z 24006KT 8000 RA VCFG FEW003 SCT020TCU BKN030 21/19 A3001 RMK 9999 E BECMG 5000 RA BR=
201110151800 METAR MROC 151800Z 22004KT 9999 VCFG SCT020TCU SCT025 23/19 A2997 RMK VIS 8000SW W RN DST SW W FEW250 NOSIG=
201110151900 METAR MROC 151900Z 23006KT 3000 RA BR SCT002 BKN015 19/19 A2997 RMK VIS 5000E NOSIG=
201110152000 METAR MROC 152000Z 26009KT 1300 RA BR SCT003 BKN010 19/19 A2995 NOSIG=
201110152100 METAR MROC 152100Z 25009KT 1200 -RA BR SCT001 BKN010 20/19 A2995 NOSIG=
201110152200 METAR MROC 152200Z 27006KT 1200 -RA BR FEW001 SCT005 BKN010 19/18 A3000=
201110152300 METAR MROC 152300Z 26010KT 1200 -RA BR SCT001 BKN010 128/18 A3001 NOSIG=
201110152349 METAR MROC 160000Z 27003KT 1200 -RA BR SCT001 BKN006 18/18 A3003 NOSIG=
201110160000 METAR MROC 160000Z 27003KT 1200 -RA BR SCT001 BKN006 18/18 A3003 NOSIG=
201110160100 METAR MROC 160100Z 00000KT 2000 BR FEW001 SCT005 BKN012 19/18 A3006 NOSIG=
201110160200 METAR MROC 160200Z 00000KT 4000 -RA BR FEW002 BKN012 19/18 A3008 NOSIG=
201110160300 METAR MROC 160300Z 33004KT 9999 FEW004 BKN100 19/18 A3008 NOSIG=
201110160400 METAR MROC 160400Z 00000KT 9999 -RA VCFG FEW002 BKN100 19/18 A3010 NOSIG=
201110160500 METAR MROC 160500Z 00000KT 9999 -RA VCFG FEW002 SCT030 OVC100 19/18 A3009 NOSIG=
201110160600 METAR MROC 160600Z 00000KT 2000 -RA BR 19/18 A3007 BECMG 1200 BR=
201110160700 METAR MROC 160700Z 00000KT 2500 BR FEW002 SCT010 BKN100 19/18 A3005 NOSIG=
201110160800 METAR MROC 160800Z 00000KT 5000 BR FEW002 SCT015 BKN100 19/18 A3003 NOSIG=
201110160900 METAR MROC 160900Z 34001KT 8000 -DZ VCFG FEW003 SCT015 BKN120 19/18 A3003 RMK VIS 5KM SW NOSIG=
201110161000 METAR MROC 161000Z 00000KT 9999 VCFG FEW010 BKN080 19/18 A3003 RMK VIS SW 6000 NOSIG=
201110161100 METAR MROC 161100Z 00000KT 9999 VCFG FEW007 BKN080 19/18 A3004 RMK VIS SW 6000 NOSIG=
201110161200 METAR MROC 161200Z 00000KT 3000 BR FEW002 SCT015 BKN100 19/18 A3005 NOSIG=
201110161300 METAR MROC 161300Z 00000KT 2000 BR FEW001 SCT005 BKN010 19/18 A3007 NOSIG=
201110161400 METAR MROC 161400Z 26005KT 0400 DZ FG SCT001 BKN005 19/18 A3010 NOSIG=
201110161500 METAR MROC 161500Z 29005KT 1200 RA BR SCT001 BKN008 19/19 A3007 NOSIG=
201110161600 METAR MROC 161600Z 27005KT 0800 RA FG SCT001 BKN003 19/18 A3006 NOSIG=
201110161700 METAR MROC 161700Z 21002KT 1400 RA BR SCT001 BKN010 19/18 A3005 NOSIG=
201110161800 METAR MROC 161800Z 25007KT 3000 -RA BR SCT003 BKN010 19/18 A3003 NOSIG=
201110161900 METAR MROC 161900Z 25005KT 5000 -RA BR SCT007 BKN015 19/18 A3001 NOSIG=
201110162000 METAR MROC 162000Z 23004KT 9999 VCFG FEW005 SCT025 BKN080 20/18 A3000 RMK VIS 8000 SW N NOSIG=
201110162100 METAR MROC 162100Z 26005KT 9999 2500W +DZ FEW001 SCT040 OVC080 19/18 A2999 RMK BR W BECMG 2000 BR=
201110162200 METAR MROC 162200Z 29001KT 9999 FEW001 SCT020 19/18 A2998 REDZ RMK SCT080 BECMG 5000 BR=
201110162300 METAR MROC 162300Z 29002KT 9999 4000W -RADZ FEW001 SCT020 OVC080 19/18 A2999 RMK BR W BECMG 3000 BR=
201110170000 METAR MROC 170000Z 29003KT 9999 RA FEW001 SCT010 OVC080 18/17 A3000 NOSIG=
201110170100 METAR MROC 170100Z 34002KT 9999 -RADZ FEW001 SCT010 OVC080 18/17 A3003 RERA NOSIG=
201110170200 METAR MROC 170200Z 30002KT 9999 FEW004 BKN080 18/17 A3004 NOSIG=
201110170300 METAR MROC 170300Z 17003KT 9999 -DZ FEW015 BKN080 18/17 A3004 NOSIG=
201110170400 METAR MROC 170400Z 01002KT 9999 -DZ FEW008 BKN080 18/17 A3004 NOSIG=
201110170500 METAR MROC 170500Z 05002KT 9999 -RA OVC080 18/17 A3003 NOSIG=
201110170600 METAR MROC 170600Z 08004KT 9999 -RA FEW030 BKN100 17/17 A3001 NOSIG=
201110170700 METAR MROC 170700Z 10003KT 9999 -DZ FEW030 BKN100 17/17 A2999 NOSIG=
201110170800 METAR MROC 170800Z 11002KT CAVOK 18/17 A2998 RMK OVC100 NOSIG=
201110170900 METAR MROC 170900Z 00000KT 9999 FEW006 BKN100 18/17 A2996 NOSIG=
201110171000 METAR MROC 171000Z 10002KT 9999 FEW030 BKN100 18/17 A2997 NOSIG=
201110171100 METAR MROC 171100Z 09002KT 9999 FEW035 BKN110 18/17 A2997 NOSIG=
201110171200 METAR MROC 171200Z 07002KT 9999 FEW025 BKN090 18/17 A2999 RMK LOW ST SW W NOSIG=
201110171300 METAR MROC 171300Z 23002KT 2000 DZ BR FEW001 SCT004 OVC030 18/18 A3001 RMK VIS 8000E BECMG 1000=
201110171400 METAR MROC 171400Z 27004KT 2000 DZ BR FEW001 SCT008 OVC025 18/18 A3004 NOSIG=
201110171500 METAR MROC 171500Z 31002KT 2000 +DZ BR FEW001 SCT008 OVC025 20/18 A3006 NOSIG=
201110171600 METAR MROC 171600Z 27005KT 2500 DZ BR FEW001 SCT005 OVC020 19/18 A3007 NOSIG=
201110171700 METAR MROC 171700Z 25009KT 2500 +DZ BR FEW001 SCT003 OVC020 19/19 A3004 NOSIG=
201110171800 METAR MROC 171800Z 24007KT 2500 DZ BR FEW001 SCT003 OVC010 19/19 A3002 NOSIG=
201110171900 METAR MROC 171900Z 25005KT 3000 -DZ BR FEW001 SCT004 BKN010 20/19 A3000 REDZ RMK VIS 5000E NOSIG=
201110172000 METAR MROC 172000Z 25007KT 2500 DZ BR FEW001 SCT003 OVC008 20/19 A2997 NOSIG=
201110172100 METAR MROC 172100Z 25010KT 2000 DZ BR FEW001 SCT003 OVC015 19/19 A2996 NOSIG=
201110172200 METAR MROC 172200Z 26008KT 2000 DZ BR FEW001 SCT003 OVC015 18/18 A2997 NOSIG=
201110172300 METAR MROC 172300Z 26005KT 2000 -RA BR FEW001 SCT003 OVC015 19/18 A2998 NOSIG=
201110180000 METAR MROC 180000Z 26005KT 2000 -RA BR FEW001 SCT003 OVC015 18/18 A2999 NOSIG=
201110180100 METAR MROC 180100Z 27004KT 2000 -RA BR FEW001 SCT003 OVC015 18/18 A3001 NOSIG=
201110180200 METAR MROC 180200Z 30003KT 3000 -DZ BR FEW001 SCT005 OVC020 18/18 A3002 NOSIG=
201110180300 METAR MROC 180300Z 29003KT 2000 -RA BR FEW001 SCT006 BKN020 18/18 A3002 BECMG 0500 -RA BR=
201110180400 METAR MROC 180400Z 30005KT 3000 BR FEW002 SCT006 BKN020 18/18 A3001 NOSIG=
201110180500 METAR MROC 180500Z 32004KT 8000 VCFG FEW002 SCT010 BKN100 18/18 A3001 NOSIG=
201110180600 METAR MROC 180600Z 33006KT 5000 BR FEW002 SCT010 BKN100 18/18 A2999 NOSIG=
201110180700 METAR MROC 180700Z 32004KT 8000 VCFG FEW002 SCT010 BKN100 18/18 A2997 NOSIG=
201110180800 METAR MROC 180800Z 35005KT 5000 BR FEW002 SCT010 BKN100 18/18 A2996 NOSIG=
201110180900 METAR MROC 180900Z 32003KT 5000 BR FEW002 SCT015 BKN100 18/18 A2996 NOSIG=
201110181000 METAR MROC 181000Z 30003KT 1500 DZ BR FEW001 BKN010 18/19 A2997 NOSIG=
201110181100 METAR MROC 181100Z 00000KT 1500 DZ BR FEW001 BKN005 18/18 A2998 NOSIG=
201110181200 METAR MROC 181200Z 36004KT 2000 BR FEW002 BKN010 18/18 A3000 NOSIG=
201110181300 METAR MROC 181300Z 27003KT 2000 DZ BR SCT001 BKN010 19/19 A3003 NOSIG=
201110181400 METAR MROC 181400Z 27005KT 5000 BR FEW001 SCT015 BKN025 20/20 A3005 NOSIG=
201110181500 METAR MROC 181500Z 26004KT 2000 BR FEW001 SCT003 OVC010 20/19 A3008 NOSIG=
201110181600 METAR MROC 181600Z 28006KT 4000 BR FEW001 SCT005 BKN020 21/19 A3008 NOSIG=
201110181700 METAR MROC 181700Z 26009KT 4000 BR FEW001 SCT005 BKN020 20/19 A3005 NOSIG=
201110181800 METAR MROC 181800Z 27008KT 2000 DZ BR FEW001 SCT003 BKN020 20/19 A3004 NOSIG=
201110181900 METAR MROC 181900Z 27007KT 3000 BR FEW001 SCT005 BKN020 20/19 A3002 NOSIG=
201110182000 METAR MROC 182000Z 26008KT 2000 RA BR FEW001 SCT005 BKN015 19/19 A3000 NOSIG=
201110182100 METAR MROC 182100Z 26006KT 1000 RA BR SCT001 BKN010 19/18 A3000 BECMG 0800 RA FG=
201110182200 METAR MROC 182200Z 27002KT 1200 RA BR SCT001 BKN012 19/18 A3001 NOSIG=
201110182300 METAR MROC 182300Z 24004KT 1500 RA BR SCT001 BKN015 19/18 A3002 NOSIG=
201110190000 METAR MROC 190000Z 29004KT 5000 DZ BR FEW004 SCT015 BKN080 19/18 A3002 NOSIG=
201110190100 METAR MROC 190100Z 26004KT 6000 3000SW -DZ FEW001 SCT012 BKN025 18/18 A3005 RMK BR QUAD W BECMG 3000 BR BKN010=
201110190200 METAR MROC 190200Z 28005KT 7000 3000SW SCT002 BKN012 18/18 A3006 RMK BR QUAD W BECMG 4000 BR BKN009=
201110190300 METAR MROC 190300Z 26005KT 8000 3000SW DZ VCFG FEW001 SCT003 BKN015 18/18 A3007 RMK BR SW BECMG 5000 BR=
201110190400 METAR MROC 190400Z 27005KT 8000 3000SW VCFG FEW001 SCT005 BKN030 18/18 A3007 REDZ RMK BR QDT W BECMG 5000 BR=
201110190500 METAR MROC 190500Z 26005KT 8000 3000SW VCFG FEW001 SCT002 BKN008 18/18 A3006 RMK BR QDT W BECMG 5000 BR=
201110190600 METAR MROC 190600Z 30003KT 5000 BR FEW001 SCT002 OVC004 18/18 A3006 REDZ BECMG 3000=
201110190700 METAR MROC 190700Z 31003KT 9999 VCFG FEW001 BKN070 18/18 A3004 NOSIG=
201110190800 METAR MROC 190800Z 30003KT 9999 VCFG FEW001 SCT005 BKN040 18/18 A3002 RMK VIS 5000W BR BECMG 5000 BR=
201110190900 METAR MROC 190900Z 32002KT 9999 FEW001 SCT010 BKN035 18/17 A3001 NOSIG=
201110191000 METAR MROC 191000Z 36002KT 9999 FEW001 BKN030 18/17 A3001 NOSIG=
201110191100 METAR MROC 191100Z 00000KT 9999 VCFG FEW001 BKN020 18/17 A3002 BECMG 5000 BR=
201110191200 METAR MROC 191200Z 27002KT 3000 BR FEW001 SCT002 OVC012 18/18 A3005 REDZ RMK VIS 5000E BECMG 2000=
201110191300 METAR MROC 191300Z 34003KT 8000 3000N -DZ VCFG FEW003 SCT015 BKN080 18/18 A3008 RMK VIS N RED DUE BR NOSIG=
201110191400 METAR MROC 191400Z 29002KT 9999 SCT020 BKN100 20/18 A3011 NOSIG=
201110191500 METAR MROC 191500Z 24004KT 9999 SCT025 SCT120 21/18 A3014 NOSIG=
201110191600 METAR MROC 191600Z 24004KT 9999 SCT020 SCT120 22/18 A3012 NOSIG=
201110191700 METAR MROC 191700Z 27005KT 9999 FEW008 BKN020 23/19 A3009 RMK SCT100 NOSIG=
201110191800 METAR MROC 191800Z 24007KT 9999 -RA FEW008 BKN020 22/19 A3006 BECMG 8000 VCSH=
201110191900 METAR MROC 191900Z 23007KT 9999 3000SW RA FEW015CB SCT020 BKN100 20/19 A3005 BECMG 6000 SHRA=
201110192000 METAR MROC 192000Z 26005KT -RA BR FEW002 SCT010 BKN020 18/18 A3008 NOSIG=
201110192100 METAR MROC NIL=
201110192200 METAR MROC 192200Z 25008KT 1300 DZ BR SCT001 BKN008 19/18 A3003 NOSIG=
201110192230 METAR MROC 192230Z 27008KT 1200 DZ BR SCT001 BKN004 18/18 A3004 NOSIG=
201110192300 METAR MROC 192300Z 26007KT 0800 DZ FG SCT001 BKN003 18/18 A3004 NOSIG=
201110200000 METAR MROC 200000Z 26006KT 1500 DZ BR SCT001 BKN008 18/18 A3005 NOSIG=
201110200100 METAR MROC 200100Z 26005KT 2000 -RA BR FEW002 SCT010 BKN020 18/18 A3008 NOSIG=
201110200200 METAR MROC 200200Z 27004KT 1500 -RA BR SCT001 BKN008 18/18 A3010 NOSIG=
201110200300 METAR MROC 200300Z 24002KT 2000 -RA BR SCT001 BKN012 18/18 A3010 NOSIG=
201110200400 METAR MROC 200400Z 25002KT 4000 BR FEW001 SCT015 BKN100 18/18 A3011 NOSIG=
201110200500 METAR MROC 200500Z 00000KT 3000 BR FEW001 SCT005 OVC010 18/18 A3012 NOSIG=
201110200600 METAR MROC 200600Z 28003KT 3000 BR FEW001 SCT005 OVC010 18/18 A3010 NOSIG=
201110200700 METAR MROC 200700Z 00000KT 3000 1000SW BR FEW001 SCT005 OVC010 18/18 A3007 NOSIG=
201110200800 METAR MROC 200800Z 00000KT 2000 BR FEW001 SCT005 OVC010 18/18 A3005 NOSIG=
201110200900 METAR MROC 200900Z 00000KT 0500 FG SCT001 OVC010 18/18 A3004 NOSIG=
201110201000 METAR MROC 201000Z 00000KT 8000 1000SW BR FEW001 SCT005 BKN015 18/18 A3004 BECMG 9999=
201110201100 METAR MROC 201100Z 09002KT 8000 2000SW BR FEW001 SCT005 BKN015 18/18 A3005 BECMG 9999=
201110201200 METAR MROC 201200Z 02003KT 9999 FEW010 BKN100 18/18 A3005 NOSIG=
201110201300 METAR MROC 201300Z 04002KT CAVOK 20/17 A3008 NOSIG=
201110201400 METAR MROC 201400Z 13002KT CAVOK 21/18 A3013 BECMG 24005KT=
201110201500 METAR MROC 201500Z 20002KT CAVOK 24/18 A3014 NOSIG=
201110201600 METAR MROC 201600Z 26006KT 9999 FEW040 SCT120 BKN250 22/19 A3012 NOSIG=
201110201700 METAR MROC 201700Z 25009KT 9999 FEW035 BKN250 24/18 A3008 NOSIG=
201110201800 METAR MROC 201800Z 25007KT 9999 -RA SCT030 BKN100 22/19 A3005 NOSIG=
201110201900 METAR MROC 201900Z 27006KT 8000 -RA VCFG FEW006 SCT015 BKN090 21/19 A3005 NOSIG=
201110202000 METAR MROC 202000Z 25009KT 8000 -RA VCFG SCT008 BKN015 20/19 A3001 BECMG 5000 RA BR=
201110202100 METAR MROC 202100Z 25004KT 1500 -RA BR FEW001 SCT006 BKN015 19/19 A3002 NOSIG=
201110202200 METAR MROC 202200Z 24004KT 1200 -RA BR SCT001 BKN008 19/18 A3002 BECMG 0400 -RA BR=
201110202300 METAR MROC 202300Z 24003KT 0500 -RA FG SCT001 BKN005 18/18 A3003 NOSIG=
201110210000 METAR MROC 210000Z 24003KT 1000 -RA BR SCT001 BKN005 18/18 A3005 NOSIG=
201110210100 METAR MROC 210100Z 23002KT 1500 -RA BR SCT001 BKN005 18/18 A3006 NOSIG=
201110210200 METAR MROC 210200Z 32003KT 2000 -RA BR SCT001 BKN006 18/18 A3007 NOSIG=
201110210300 METAR MROC 210300Z 01002KT 4000 -RA BR FEW001 SCT005 OVC010 18/18 A3008 NOSIG=
201110210400 METAR MROC NIL=
201110210500 METAR MROC 210500Z 00000KT 9999 -DZ SCT020 OVC100 18/18 A3006 NOSIG=
201110210600 METAR MROC 210600Z 23002KT 0500 FG SCT001 BKN010 18/18 A3004 RMK VIS N UNLD BECMG 1500 BR=
201110210700 METAR MROC 210700Z 24002KT 0500 FG VV/// 18/18 A3002 BECMG 1500 BR=
201110210800 METAR MROC 210800Z 27003KT 2000 -RA BR FEW001 SCT002 BKN010 18/18 A3000 RMK VIS 1000 SW BECMG 1000 BR=
201110210900 METAR MROC 210900Z 18002KT 3000 -DZ BR FEW001 SCT002 BKN020 18/18 A3000 RMK BECMG 1000 BR=
201110211000 METAR MROC 211000Z 02002KT 3000 BR FEW001 SCT002 BKN020 18/18 A3000 RMK BECMG 1000 BR=
201110211100 METAR MROC 211100Z 24002KT 8000 2000SW FEW001 SCT005 BKN030 18/18 A3002 RMK BR QUAD W BECMG 1500 BR=
201110211200 METAR MROC 211200Z 20002KT 9999 2000SW FEW001 SCT030 BKN100 18/18 A3003 RMK VIS SW 2KMS DUE BR NOSIG=
201110211300 METAR MROC 211300Z 00000KT 9999 VCFG FEW001 BKN100 19/19 A3005 NOSIG=
201110211400 METAR MROC 211400Z 10002KT 9999 VCFG FEW002 SCT030 BKN100 21/19 A3005 NOSIG=
201110211500 METAR MROC 211500Z 00000KT 8000 VCSH FEW002 SCT030 BKN100 22/19 A3005 BECMG 24005KT=
201110211600 METAR MROC 211600Z 26004KT 2000 -RA BR FEW002 BKN020 20/20 A3009 BECMG 0500 -RA BR BKN002=
201110211700 METAR MROC 211700Z 00000KT 1500 -RA BR FEW0002 BKN015 20/18 A3008 NOSIG=
201110211800 METAR MROC 211800Z 14003KT 5000 -RA BR SCT002 BKN015 20/19 A3006 NOSIG=
201110211900 METAR MROC 211900Z 28005KT 1500 -RA BR SCT002 BKN015 19/18 A3001 BECMG 0500 -RA BR=
201110212000 METAR MROC 212000Z 00000KT 2000 -RA BR SCT003 BKN015 19/18 A3001 NOSIG=
201110212100 METAR MROC 212100Z 09002KT 9999 FEW001 SCT060 OVC080 20/19 A2998 NOSIG=
201110212200 METAR MROC 212200Z 28002KT 9999 FEW001TCU SCT040 OVC080 20/18 A2998 NOSIG=
201110212246 METAR MROC 212246Z 24005KT 3000 BR FEW001 SCT040 OVC080 20/19 A2999 RMK VIS UNL E BECMG 1500=
201110212300 METAR MROC 212300Z 24004KT 3000 BR RA FEW001 SCT004 BKN010 19/19 A2999 RMK VIS 5000E BECMG 1500=
201110220000 METAR MROC 220000Z 22004KT 3000 RA BR SCT001 BKN004 19/19 A3001 BECMG 1500=
201110220100 METAR MROC 220100Z 19003KT 1200 -RADZ BR VV/// 19/19 A3002 RERA NOSIG=
201110220200 METAR MROC 220200Z 23004KT 3000 RA BR SCT001 OVC002 19/18 A3004 BECMG 1000 BR=
201110220300 METAR MROC 220300Z 24003KT 1200 RA BR SCT001 BKN003 19/18 A3004 NOSIG=
201110220400 METAR MROC 220400Z 32003KT 4000 -RA BR SCT003 BKN008 19/18 A3004 NOSIG=
201110220500 METAR MROC 220500Z 00000KT 9999 -DZ FEW005 SCT012 BKN100 18/18 A3002 NOSIG=
201110220600 METAR MROC 220600Z 00000KT 9999 FEW005 SCT025 BKN100 19/18 A3000 NOSIG=
201110220700 METAR MROC 220700Z 24002KT 8000 VCFG FEW003 SCT010 BKN100 18/18 A2998 NOSIG=
201110220800 METAR MROC 220800Z 00000KT 9999 FEW006 SCT020 BKN100 18/18 A2995 NOSIG=
201110220900 METAR MROC 220900Z 00000KT 8000 VCFG FEW006 SCT015 BKN100 18/18 A2994 NOSIG=
201110221000 METAR MROC 221000Z 00000KT 8000 VCFG FEW006 SCT020 BKN100 18/18 A2995 NOSIG=
201110221100 METAR MROC 221100Z 24003KT 9999 FEW008 SCT020 BKN100 18/18 A2997 NOSIG=
201110221200 METAR MROC 221200Z 21002KT 4000 -DZ BR FEW001 BKN006 18/18 A2998 NOSIG=
201110221300 METAR MROC 221300Z 21003KT 4000 BR FEW001 SCT008 BKN030 19/18 A3001 NOSIG=
201110221400 METAR MROC 221400Z 24003KT 9999 FEW001 FEW010TCU BKN030 20/18 A3004 BECMG -SHRA=
201110221500 METAR MROC 221500Z 22002KT 9999 FEW002 FEW015TCU SCT020 23/18 A3001 NOSIG=
201110221600 METAR MROC 221600Z 26006KT 9999 FEW015 FEW020TCU BKN090 23/19 A2999 NOSIG=
201110221700 METAR MROC 221700Z 25008KT 9999 FEW020TCU SCT030 BKN090 23/19 A2996 BECMG -SHRA=
201110221800 METAR MROC 221800Z 28011KT 9999 -DZ VCSH FEW010TCU SCT020 BKN090 21/18 A2995 BECMG 8000=
201110221900 METAR MROC 221900Z 28005KT 9999 VCSH FEW020TCU BKN100 22/18 A2993 BECMG 8000 -SHRA=
201110222000 METAR MROC 222000Z 23009KT 9999 FEW020TCU SCT030 SCT090 22/19 A2991 BECMG -SHRA=
201110222100 METAR MROC 222100Z 23008KT 9999 3000SW RA FEW020TCU SCT030 SCT090 21/18 A2991 NOSIG=
201110222200 METAR MROC 222200Z 26006KT 9999 3000SW -RA FEW001 SCT015 BKN100 20/18 A2994 NOSIG=
201110222300 METAR MROC 222300Z 23006KT 3000 -RA BR FEW001 SCT010 BKN100 18/18 A2995 NOSIG=
201110230000 METAR MROC 230000Z 23005KT 3000 RA BR FEW001 SCT010 OVC100 18/18 A2997 NOSIG=
201110230100 METAR MROC 230100Z 30002KT 3000 -RA BR FEW001 SCT005 OVC100 18/18 A2998 NOSIG=
201110230200 METAR MROC 230200Z 00000KT 4000 1000SW -RA BR FEW001 SCT005 OVC100 18/18 A2999 NOSIG=
201110230300 METAR MROC 230300Z 32002KT 2000 -DZ BR FEW001 SCT006 BKN020 18/18 A3000 BECMG 0600 DZ FG=
201110230400 METAR MROC 230400Z 00000KT 1200 DZ BR FEW001 SCT005 BKN015 18/18 A3000 NOSIG=
201110230500 METAR MROC 230500Z 00000KT 2000 BR FEW002 SCT006 BKN020 18/18 A3000 NOSIG=
201110230600 METAR MROC 230600Z 00000KT 1200 BR FEW001 SCT005 BKN020 18/18 A2998 NOSIG=
201110230700 METAR MROC 230700Z 00000KT 1000 BR FEW001 SCT003 BKN020 18/18 A2996 NOSIG=
201110230800 METAR MROC 230800Z 03002KT 1500 BR FEW001 SCT005 BKN020 18/18 A2995 NOSIG=
201110230900 METAR MROC 230900Z 18002KT 1000 BR FEW001 SCT004 BKN020 18/18 A2994 NOSIG=
201110231000 METAR MROC 231000Z 00000KT 9999 VCFG FEW001 BKN120 19/18 A2994 NOSIG=
201110231100 METAR MROC 231100Z 00000KT 8000 VCFG FEW002 BKN120 18/18 A2995 NOSIG=
201110231200 METAR MROC 231200Z 00000KT 1500 BR FEW002 SCT020 BKN120 19/18 A2997 NOSIG=
201110231300 METAR MROC 231300Z 07003KT 5000 BR FEW001 SCT020 BKN120 19/19 A2999 NOSIG=
201110231400 METAR MROC 231400Z VRB02KT 9999 VCFG FEW003 BKN025 21/20 A2999 BECMG 23006KT=
201110231500 METAR MROC NIL=
201110231600 METAR MROC 231600Z 22007KT 8000 3000SW -RA VCFG FEW001 SCT020 BKN100 21/20 A3000 NOSIG=
201110231700 METAR MROC 231700Z 25006KT 9999 SCT020 BKN100 23/19 A2998 NOSIG=
201110231800 METAR MROC 231800Z 23007KT 9999 SCT020 SCT100 22/19 A2997 NOSIG=
201110231900 METAR MROC 231900Z 23009KT 9999 SCT020 SCT100 23/19 A2993 NOSIG=
201110232000 METAR MROC 232000Z 22009KT 9999 FEW008 SCT020 BKN070 22/19 A2992 BECMG 5000 RA BR=
201110232100 METAR MROC 232100Z 22007KT 9999 -RA VCSH FEW006 SCT025 BKN080 22/19 A2992 BECMG 6000 RA=
201110232200 METAR MROC 232200Z 23008KT 9000 RA VCSH FEW009 SCT020 BKN100 21/19 A2994 BECMG 7000 -RA BKN020=
201110232300 METAR MROC 232300Z 24007KT 8000 3700NW RA VCSH FEW003 BKN020 20/18 A2995 BECMG 5000 -RA BR=
201110240000 METAR MROC 240000Z 25005KT 9999 FEW007 SCT012 BKN100 20/18 A2998 RERA NOSIG=
201110240100 METAR MROC 240100Z 28004KT 9999 FEW006 BKN020 20/18 A3001 BECMG 7000=
201110240200 METAR MROC 240200Z 27003KT 9999 -RADZ FEW009 SCT015 BKN070 19/18 A3002 BECMG 7000=
201110240300 METAR MROC 240300Z 24003KT 9999 VCFG FEW007 BKN030 19/18 A3004 NOSIG=
201110240400 METAR MROC 240400Z 12001KT 9999 3000SW DZ FEW001 SCT005 BKN020 19/18 A3000 BECMG 5000=
201110240500 METAR MROC 240500Z 13001KT 9999 3000SW DZ SCT001 BKN010 19/18 A3007 BECMG 3000=
201110240600 METAR MROC 240600Z 14001KT 9999 FEW001 SCT080 19/18 A3005 REDZ NOSIG=
201110240700 METAR MROC 240700Z 29002KT 9999 1500SW FEW001 SCT020 19/18 A3002 BECMG 1000 BR=
201110240800 METAR MROC 240800Z 25001KT 0500 FG VV/// 19/18 A3001 NOSIG=
201110240900 METAR MROC 240900Z 15001KT 9999 1500SW SCT001 BKN100 19/18 A3001 BECMG 1000 BR=
201110241000 METAR MROC 241000Z 00000KT 0500 PRFG VV/// 19/18 A3001 NOSIG=
201110241100 METAR MROC 241100Z 11002KT 9999 1000SW FEW001 SCT110 18/18 A3002 NOSIG=
201110241200 METAR MROC 241200Z 05003KT 9999 FEW001 SCT080 BKN110 18/17 A3002 NOSIG=
201110241300 METAR MROC 241300Z 01002KT 9999 BCFG FEW070 BKN120 22/18 A3006 BECMG 24005KT=
201110241400 METAR MROC 241400Z 24003KT 9999 VCFG FEW045 BKN100 21/18 A3005 NOSIG=
201110241500 METAR MROC 241500Z 19004KT 9999 FEW020 BKN150 23/19 A3005 NOSIG=
201110241600 METAR MROC 241600Z 20004KT 9999 FEW020 BKN150 24/18 A3005 NOSIG=
201110241700 METAR MROC 241700Z 21005KT 9999 FEW015 SCT045 BKN150 23/19 A3002 NOSIG=
201110241800 METAR MROC 241800Z 25006KT 9999 FEW015 SCT040 SCT250 24/20 A2999 NOSIG=
201110241900 METAR MROC 241900Z 27006KT 9999 FEW015 SCT035 BKN100 23/21 A2995 BECMG 8000 VCSH=
201110242000 METAR MROC 242000Z 23007KT 9999 VCSH FEW015TCU FEW030 BKN100 23/19 A2995 BECMG -SHRA=
201110242100 METAR MROC 242100Z 24008KT 9999 VCSH FEW012TCU BKN025 SCT100 22/20 A2994 NOSIG=
201110242200 METAR MROC 242200Z 23007KT 8000 VCFG SCT007 BKN025 21/20 A2996 BECMG 5000 -RA BR=
201110242300 METAR MROC 242300Z 24006KT 4000 BR SCT002 BKN005 20/19 A2998 BECMG 3000 -RA BR=
201110250000 METAR MROC 250000Z 32002KT 9999 FEW006 SCT100 20/19 A2999 NOSIG=
201110250100 METAR MROC 250100Z 21005KT 9999 FEW002 SCT025 BKN120 20/19 A3000 NOSIG=
201110250200 METAR MROC 250200Z 00000KT 9999 FEW004 SCT025 BKN120 20/19 A3003 NOSIG=
201110250300 METAR MROC 250300Z 10002KT 9999 VCFG FEW003 FEW030 SCT120 19/18 A3003 NOSIG=
201110250400 METAR MROC 250400Z 04003KT CAVOK 19/18 A3002 NOSIG=
201110250500 METAR MROC 250500Z 13004KT 9999 VCFG FEW003 SCT100 19/17 A3003 NOSIG=
201110250600 METAR MROC 250600Z 03002KT 9999 VCFG FEW003 SCT100 18/17 A3001 NOSIG=
201110250700 METAR MROC 250700Z 06006KT CAVOK 18/16 A3001 RMK SCT120 NOSIG=
201110250800 METAR MROC 250800Z 10009KT CAVOK 20/16 A2996 RMK SCT120 NOSIG=
201110250900 METAR MROC 250900Z 08007KT CAVOK 20/16 A2995 RMK SCT120 NOSIG=
201110251000 METAR MROC 251000Z 06006KT CAVOK 19/16 A2996 RMK SCT120 NOSIG=
201110251100 METAR MROC 251100Z 02006KT CAVOK 18/16 A2997 RMK FEW120 NOSIG=
201110251200 METAR MROC 251200Z 04007KT CAVOK 19/16 A2999 RMK FEW120 NOSIG=
201110251300 METAR MROC 251300Z 03004KT CAVOK 23/17 A3000 NOSIG=
201110251400 METAR MROC 251400Z 10009KT CAVOK 24/16 A3000 NOSIG=
201110251500 METAR MROC 251500Z 09009KT CAVOK 25/16 A3001 NOSIG=
201110251600 METAR MROC 251600Z 08009KT 9999 FEW040 26/16 A3000 NOSIG=
201110251700 METAR MROC 251700Z 06011KT 9999 FEW040 28/16 A2997 NOSIG=
201110251800 METAR MROC 251800Z 07008KT 9999 SCT040 27/16 A2995 BECMG 24007KT=
201110251900 METAR MROC 251900Z 07009KT 9999 SCT040 27/16 A2992 NOSIG=
201110252000 METAR MROC 252000Z 09005KT 9999 SCT040 SCT250 28/15 A2989 NOSIG=
201110252100 METAR MROC 252100Z 27014KT 9999 FEW010 BKN030 23/20 A2988 RMK RA DST N NE BECMG 6000 RA=
201110252200 METAR MROC 252200Z 27011KT 2000 BR SCT002 BKN015 21/20 A2990 BECMG 0500 DZ FG=
201110252300 METAR MROC 252300Z 29005KT 4000 BR SCT003 BKN015 21/20 A2993 NOSIG=
201110252354 METAR MROC 260000Z 34003KT 4000 BR FEW003 SCT010 BKN015 21/20 A2994 NOSIG=
201110260000 METAR MROC 260000Z 34003KT 4000 BR FEW003 SCT010 BKN015 21/20 A2994 NOSIG=
201110260100 METAR MROC 260100Z 00000KT 9999 SCT030 21/19 A2995 NOSIG=
201110260200 METAR MROC 260200Z 13009KT 9999 FEW030 21/16 A2996 NOSIG=
201110260300 METAR MROC 260300Z 10006KT 9999 FEW040 21/16 A2998 NOSIG=
201110260400 METAR MROC 260400Z 12007KT 9999 FEW045 21/16 A2999 NOSIG=
201110260500 METAR MROC 260500Z 12006KT CAVOK 21/16 A2998 NOSIG=
201110260600 METAR MROC 260600Z 06002KT CAVOK 20/16 A2995 NOSIG=
201110260700 METAR MROC 260700Z 10005KT CAVOK 20/16 A2993 NOSIG=
201110260800 METAR MROC 260800Z 10006KT CAVOK 20/16 A2990 NOSIG=
201110260900 METAR MROC 260900Z 11007KT CAVOK 20/16 A2989 NOSIG=
201110261000 METAR MROC 261000Z 07004KT CAVOK 19/16 A2989 NOSIG=
201110261100 METAR MROC 261100Z 12009KT 9999 FEW045 20/16 A2990 NOSIG=
201110261200 METAR MROC 261200Z 12007KT 9999 FEW040 20/16 A2993 NOSIG=
201110261300 METAR MROC 261300Z 13010KT 9999 FEW035 22/16 A2994 NOSIG=
201110261400 METAR MROC 261400Z 12009KT 9999 FEW030 24/16 A2994 NOSIG=
201110261500 METAR MROC 261500Z 12013KT 9999 FEW030 25/16 A2993 NOSIG=
201110261600 METAR MROC 261600Z 11010KT 9999 SCT030 27/15 A2992 NOSIG=
201110261700 METAR MROC 261700Z 13005KT 9999 SCT030 28/15 A2991 NOSIG=
201110261800 METAR MROC 261800Z 20003KT 9999 SCT030 SCT250 27/20 A2988 NOSIG=
201110261900 METAR MROC 261900Z 26013KT 9999 SCT025 BKN250 24/20 A2985 NOSIG=
201110262000 METAR MROC 262000Z 27010KT 9999 FEW010 SCT020 BKN250 25/20 A2983 NOSIG=
201110262100 METAR MROC 262100Z 23010KT 9999 VCSH FEW001 SCT012TCU SCT160 24/21 A2981 BECMG -SHRA=
201110262200 METAR MROC 262200Z 23009KT 9999 SHRA FEW002TCU SCT008 BKN020 22/20 A2983 BECMG 5000=
201110262300 METAR MROC 262300Z 21006KT 9999 FEW001 SCT010 BKN020 21/20 A2985 RESHRA BECMG 5000 -SHRA=
201110270000 METAR MROC 270000Z 22005KT 9999 -DZ VCFG FEW010 BKN030 21/19 A2986 BECMG 5000=
201110270100 METAR MROC 270100Z 26007KT 9999 -DZ FEW010 SCT035 BKN080 21/19 A2988 BECMG 13007KT=
201110270200 METAR MROC 270200Z 32003KT 9999 DZ FEW010 BKN025 21/19 A2991 BECMG 13007KT=
201110270300 METAR MROC 270300Z 35003KT 9999 -DZ FEW025 BKN090 21/18 A2993 NOSIG=
201110270400 METAR MROC 270400Z 00000KT 9999 FEW030 BKN100 21/19 A2993 NOSIG=
201110270500 METAR MROC 270500Z 29002KT 9999 -DZ FEW025 BKN090 21/19 A2993 NOSIG=
201110270600 METAR MROC 270600Z 09002KT 9999 -RA FEW025 OVC100 20/19 A2991 NOSIG=
201110270700 METAR MROC 270700Z 00000KT 9999 FEW010 SCT025 BKN100 20/19 A2990 NOSIG=
201110270800 METAR MROC 270800Z 02004KT 9999 FEW035 BKN100 20/19 A2989 NOSIG=
201110270900 METAR MROC 270900Z 10003KT CAVOK 20/19 A2988 NOSIG=
201110271000 METAR MROC 271000Z 35002KT CAVOK 20/19 A2989 NOSIG=
201110271100 METAR MROC 271100Z 07005KT 9999 -RA OVC080 19/18 A2989 NOSIG=
201110271200 METAR MROC 271200Z 10004KT CAVOK 19/18 A2990 NOSIG=
201110271300 METAR MROC 271300Z 07005KT CAVOK 23/18 A2991 NOSIG=
201110271400 METAR MROC 271400Z 08006KT CAVOK 23/18 A2990 NOSIG=
201110271500 METAR MROC 271500Z 11005KT CAVOK 25/18 A2989 NOSIG=
201110271600 METAR MROC 271600Z 11008KT 9999 FEW030 SCT250 27/18 A2988 NOSIG=
201110271700 METAR MROC 271700Z 24011KT 9999 FEW025TCU SCT080 25/20 A2986 BECMG -SHRA=
201110271800 METAR MROC 271800Z 26013KT 9999 FEW012CB BKN030 24/20 A2984 BECMG TSRA=
201110271900 METAR MROC 271900Z 25012KT 5000 TSRA BR FEW001CB SCT010 BKN020 22/20 A2983 BECMG 3000=
201110272000 METAR MROC 272000Z 25007KT 4000 -RA BR FEW001 SCT010 BKN015 22/20 A2982 RETSRA BECMG 3000=
201110272100 METAR MROC 272100Z 21005KT 2000 RA BR FEW001 SCT005 BKN015 21/20 A2983 NOSIG=
201110272200 METAR MROC 272200Z 22008KT 2000 -RA BR FEW001 SCT005 OVC015 20/20 A2985 NOSIG=
201110272300 METAR MROC 272300Z 32007KT 3000 -RA BR FEW003 SCT025 OVC100 19/19 A2986 NOSIG=
201110280000 METAR MROC 280000Z 35002KT 7000 -RA VCFG FEW003 SCT025 OVC100 20/19 A2989 NOSIG=
201110280100 METAR MROC 280100Z 03002KT 8000 -RA VCFG FEW003 SCT025 OVC100 20/19 A2991 NOSIG=
201110280200 METAR MROC 280200Z 03002KT 9999 2000SW -RA BR FEW003 SCT025 OVC100 20/19 A2993 NOSIG=
201110280300 METAR MROC 280300Z 00000KT 9999 -RA FEW030 BKN100 20/19 A2995=
201110280400 METAR MROC NIL=
201110280500 METAR MROC 280500Z 09003KT CAVOK 20/19 A2994 NOSIG=
201110280600 METAR MROC 280600Z 03003KT CAVOK 20/19 A2993 NOSIG=
201110280700 METAR MROC 280700Z 23003KT 1500 BR FEW001 BKN005 20/19 A2990=
201110280800 METAR MROC 280800Z 00000KT 8000 VCFG FEW002 BKN010 20/19 A2990 NOSIG=
201110280900 METAR MROC 280900Z 00000KT 8000 DZ VCFG FEW002 BKN010 20/19 A2995 NOSIG=
201110281000 METAR MROC 281000Z 07004KT 9999 FEW010 BKN100 19/17 A2991 NOSIG=
201110281100 METAR MROC 281100Z 11002KT 9999 BCFG FEW015 BKN100 20/19 A2990 NOSIG=
201110281200 METAR MROC 281200Z 07002KT 9999 FEW030 BKN100 19/19 A2990 NOSIG=
201110281300 METAR MROC 281300Z 11004KT 9999 VCFG FEW001 BKN250 23/20 A2995 NOSIG=
201110281400 METAR MROC 281400Z 11003KT 9999 VCFG FEW003 BKN250 24/19 A2994 BECMG 22005KT=
201110281500 METAR MROC 281500Z 25005KT 9999 FEW030 BKN250 26/20 A2995 NOSIG=
201110281600 METAR MROC 281600Z 27005KT 9999 FEW030 BKN250 24/20 A2994 NOSIG=
201110281700 METAR MROC 281700Z 24004KT 9999 FEW030 BKN250 26/19 A2991 NOSIG=
201110281800 METAR MROC 281800Z 22007KT 9999 SCT030 BKN250 26/20 A2988 NOSIG=
201110281900 METAR MROC 281900Z 25009KT 9999 SCT030 BKN250 25/20 A2986 NOSIG=
201110282000 METAR MROC 282000Z 24010KT 9999 FEW005 SCT010 BKN030 23/21 A2984 BECMG 5000 RA BR=
201110282100 METAR MROC 282100Z 21007KT 4000 TSRA BR FEW003 SCT010CB BKN030 22/21 A2985 BECMG 2000 RA BR=
201110282200 METAR MROC 282200Z 20004KT 5000 -RA BR VCTS FEW004 SCT012CB BKN080 21/20 A2988 NOSIG=
201110282300 METAR MROC 282300Z 16002KT 9999 3000NW -RA VCFG FEW010 SCT035 BKN100 21/19 A2989 NOSIG=
201110290000 METAR MROC 290000Z 07002KT 9999 -RA FEW015 SCT035 BKN100 21/21 A2990 NOSIG=
201110290100 METAR MROC 290100Z 24002KT 9999 -RA BCFG SCT035 BKN100 21/19 A2993 NOSIG=
201110290200 METAR MROC 290200Z 24003KT 9999 4000SW -RA FEW002 SCT020 BKN100 20/20 A2997 BECMG 8000 -RA BKN020=
201110290300 METAR MROC 290300Z 00000KT 9999 FEW010 BKN120 20/19 A2997 NOSIG=
201110290400 METAR MROC 290400Z 32002KT 9999 FEW010 SCT030 BKN120 20/19 A2997 NOSIG=
201110290500 METAR MROC 290500Z 09003KT 9999 FEW030 SCT120 20/19 A2996 NOSIG=
201110290600 METAR MROC 290600Z 04003KT 9999 FEW030 SCT120 20/19 A2994 NOSIG=
201110290700 METAR MROC 290700Z 07002KT 9999 FEW035 SCT120 19/18 A2991 NOSIG=
201110290800 METAR MROC 290800Z 01002KT 9999 FEW030 SCT120 19/18 A2990 NOSIG=
201110290900 METAR MROC 290900Z 02002KT 9999 FEW030 SCT120 19/18 A2991 NOSIG=
201110291000 METAR MROC 291000Z 07003KT 9999 FEW035 SCT120 19/18 A2991 NOSIG=
201110291100 METAR MROC 291100Z 09003KT 9999 FEW035 BKN120 19/18 A2993 NOSIG=
201110291200 METAR MROC 291200Z 08003KT CAVOK 20/18 A2995 RMK SCT120 SCT250 NOSIG=
201110291300 METAR MROC 291300Z 12003KT CAVOK 21/18 A2997 NOSIG=
201110291400 METAR MROC 291400Z 06002KT CAVOK 22/19 A2998 NOSIG=
201110291500 METAR MROC 291500Z 12002KT CAVOK 24/19 A2999 NOSIG=
201110291600 METAR MROC 291600Z 13003KT CAVOK 23/19 A2998 NOSIG=
201110291700 METAR MROC 291700Z 10006KT CAVOK 23/19 A2995 NOSIG=
201110291800 METAR MROC 291800Z 11006KT 9999 -DZ FEW030 SCT080 OVC200 23/18 A2993 BECMG 24004KT=
201110291900 METAR MROC 291900Z 10005KT 9999 FEW035 SCT120 BKN250 25/19 A2990 BECMG 24004KT=
201110292000 METAR MROC 292000Z 34003KT 9999 FEW035 SCT090 SCT200 26/18 A2986 NOSIG=
201110292100 METAR MROC 292100Z 26007KT 9999 FEW015 SCT090 BKN240 24/21 A2985 NOSIG=
201110292200 METAR MROC 292200Z 23006KT 9999 4800SW SCT005 BKN020 22/21 A2986 NOSIG=
201110292300 METAR MROC 292300Z 23004KT 4000 -RA BR FEW002 SCT008 BKN090 21/20 A2990 NOSIG=
201110300000 METAR MROC 300000Z 00000KT 8000 -DZ VCFG FEW003 SCT010 BKN090 21/20 A2992 NOSIG=
201110300100 METAR MROC 300100Z 28003KT 9999 VCFG FEW003 SCT015 BKN100 21/20 A2993 NOSIG=
201110300200 METAR MROC 300200Z 25006KT 8000 VCFG FEW002 SCT010 BKN025 21/20 A2996 NOSIG=
201110300300 METAR MROC 300300Z 27003KT 3000 BR FEW001 SCT020 BKN100 21/20 A2998 NOSIG=
201110300400 METAR MROC 300400Z 25004KT 3000 BR FEW001 SCT020 BKN100 21/290 A2999 NOSIG=
201110300500 METAR MROC 300500Z 00000KT 3000 BR FEW001 SCT020 BKN100 20/20 A2997 NOSIG=
201110300600 METAR MROC 300600Z 08002KT 8000 VCFG BR FEW001 BKN100 20/19 A2994 NOSIG=
201110300700 METAR MROC 300700Z 00000KT 9999 2000SW FEW001 SCT020 BKN100 20/19 A2992 NOSIG=
201110300800 METAR MROC 300800Z 03002KT 9999 2000SW FEW001 SCT010 BKN100 20/19 A2992 NOSIG=
201110300900 METAR MROC 300900Z 07002KT 9999 2000SW FEW001 SCT010 BKN100 20/19 A2992 NOSIG=
201110301000 METAR MROC 301000Z 07004KT 9999 FEW010 BKN100 19/17 A2991 NOSIG=
201110301100 METAR MROC 301100Z 05004KT 9999 FEW020 BKN100 18/17 A2993 NOSIG=
201110301200 METAR MROC 301200Z 08004KT CAVOK 19/17 A2994 NOSIG=
201110301300 METAR MROC 301300Z 07004KT CAVOK 21/18 A2996 NOSIG=
201110301400 METAR MROC 301400Z 06004KT CAVOK 22/18 A2997 NOSIG=
201110301500 METAR MROC 301500Z 06002KT CAVOK 23/18 A2998 BECMG 24005KT=
201110301600 METAR MROC 301600Z 22003KT CAVOK 26/20 A2997 NOSIG=
201110301700 METAR MROC 301700Z 25008KT 9999 FEW035 SCT120 BKN250 24/20 A2994 NOSIG=
201110301800 METAR MROC 301800Z 24008KT 9999 SCT030 BKN120 25/20 A2992 BECMG 8000 VCSH=
201110301900 METAR MROC 301900Z 22007KT 9999 SCT030 BKN120 26/20 A2988 NOSIG=
201110302000 METAR MROC 302000Z 20008KT 9999 3000NE -TSRA FEW015CB SCT030 BKN090 23/19 A2988 BECMG 5000 TSRA=
201110302100 METAR MROC 302100Z 32007KT 4000 -TSRA SCT015CB BKN025 21/18 A2990 BECMG 5000 TSRA=
201110302200 METAR MROC 302200Z 36003KT 3000 SCT010 BKN020 19/19 A2991 BECMG 0800 -RA BR=
201110302300 METAR MROC 302300Z 07002KT 5000 -RABR FEW010 SCT020 BKN110 20/19 A2992 NOSIG=
201110310000 METAR MROC 310000Z 34002KT 8000 VCFG FEW003 SCT020 BKN110 20/19 A2993 NOSIG=
201110310100 METAR MROC 310100Z 15002KT 9999 VCFG FEW003 SCT020 BKN110 20/19 A2994 RMK 5000 W DUE FG NOSIG=
201110310200 METAR MROC 310200Z 00000KT 9999 SCT025 BKN110 20/19 A2996 NOSIG=
201110310300 METAR MROC 310300Z 11005KT CAVOK 20/18 A2999 NOSIG=
201110310400 METAR MROC 310400Z 29002KT CAVOK 20/19 A2999 BECMG -RA=
201110310500 METAR MROC 310500Z 14002KT CAVOK 20/19 A2999 NOSIG=
201110310600 METAR MROC 310600Z 05002KT CAVOK 20/19 A2997 NOSIG=
201110310700 METAR MROC 310700Z 06002KT CAVOK 20/18 A2994 NOSIG=
201110310800 METAR MROC 310800Z 07002KT CAVOK 20/18 A2992 NOSIG=
201110310900 METAR MROC 310900Z 02004KT 9999 -RA SCT080 BKN200 20/18 A2992 NOSIG=
201110311000 METAR MROC 311000Z 05002KT CAVOK 19/18 A2992 NOSIG=
201110311100 METAR MROC 311100Z 07002KT CAVOK 20/18 A2992 NOSIG=
201110311200 METAR MROC 311200Z 02005KT CAVOK 19/18 A2993 NOSIG=
201110311300 METAR MROC 311300Z 11003KT CAVOK 21/18 A2993 RMK BKN100 OVC200 NOSIG=
201110311400 METAR MROC NIL=
201110311500 METAR MROC 311500Z 24006KT 9999 FEW030 BKN100 22/18 A2998 NOSIG=
201110311600 METAR MROC 311600Z 26006KT 9999 FEW010 SCT020 BKN100 22/20 A2999 BECMG 8000 -RA VCFG=
201110311700 METAR MROC 311700Z 24006KT 9999 SCT010 BKN020 23/19 A2995 NOSIG=
201110311800 METAR MROC 311800Z 27007KT 9999 FEW010 BKN020 23/19 A2992 NOSIG=
201110311900 METAR MROC 311900Z 23006KT 9999 SCT020 BKN120 24/19 A2989 NOSIG=
201110312000 METAR MROC 312000Z 26006KT 9999 BKN015 24/19 A2987 NOSIG=
201110312100 METAR MROC 312100Z 25008KT 9999 FEW015TCU BKN025 24/20 A2986 BECMG 8000 VCSH=
201110312200 METAR MROC 312200Z 25009KT 9999 VCSH FEW015TCU BKN025 21/19 A2988 BECMG 8000 -RA=
201110312300 METAR MROC 312300Z 25005KT 9999 VCSH FEW016TCU SCT025 BKN100 21/19 A2990 BECMG 8000 -RA=
201111010000 METAR MROC 010000Z 29002KT 9999 FEW020 SCT035 BKN100 20/19 A2992 NOSIG=
201111010100 METAR MROC 010100Z 00000KT 8000 -RA FEW010 SCT030 BKN120 20/19 A2995 NOSIG=
201111010200 METAR MROC 010200Z 10002KT 9999 DZ SCT030 BKN120 20/19 A2997 NOSIG=
201111010300 METAR MROC 010300Z 10002KT 9999 -DZ SCT030 SCT100 20/19 A2998 NOSIG=
201111010400 METAR MROC 010400Z 08003KT 9999 SCT035 BKN120 20/18 A2998 NOSIG=
201111010500 METAR MROC 010500Z 10002KT 9999 FEW035 BKN100 20/18 A2998 NOSIG=
201111010600 METAR MROC 010600Z 29003KT 9999 FEW005 SCT035 BKN120 20/19 A2996 NOSIG=
201111010700 METAR MROC 010700Z 21002KT 4000 BR FEW002 SCT006 BKN025 20/19 A2994 NOSIG=
201111010800 METAR MROC 010800Z 08003KT 9999 4000SW FEW002 SCT010 BKN025 19/19 A2992 NOSIG=
201111010900 METAR MROC 010900Z 00000KT 9999 4000SW FEW006 SCT020 BKN100 19/19 A2992 NOSIG=
201111011000 METAR MROC 011000Z 06002KT 9999 VCFG FEW008 SCT025 BKN100 19/19 A2993 NOSIG=
201111011100 METAR MROC 011100Z 11002KT 9999 SCT035 BKN100 19/18 A2993 NOSIG=
201111011200 METAR MROC 011200Z 02002KT 9999 FEW030 BKN100 19/19 A2995 NOSIG=
201111011300 METAR MROC 011300Z 00000KT 9999 SCT030 BKN070 20/19 A2998 NOSIG=
201111011400 METAR MROC 011400Z 00000KT 9999 FEW020 BKN120 22/19 A2999 NOSIG=
201111011500 METAR MROC 011500Z 00000KT 9999 FEW020 SCT120 BKN250 24/19 A2999 NOSIG=
201111011600 METAR MROC 011600Z 25003KT 9999 FEW020 SCT120 BKN250 24/19 A2998 NOSIG=
201111011700 METAR MROC 011700Z 27005KT 9999 FEW020 SCT140 BKN250 24/20 A2995 NOSIG=
201111011800 METAR MROC 011800Z 24006KT 9999 SCT025 SCT140 25/20 A2992 RMK CB RN DST S TCU E NOSIG=
201111011900 METAR MROC 011900Z 23008KT 9999 FEW015TCU SCT025 BKN140 23/20 A2990 BECMG 8000 VCSH=
201111012000 METAR MROC NIL=
201111012100 METAR MROC 012100Z 17007KT 3000 +RA BR FEW001 SCT015 OVC025 21/20 A2989 NOSIG=
201111012200 METAR MROC 012200Z 06002KT 9999 2000SW -RA BR FEW001 SCT025 BKN100 20/20 A2990 NOSIG=
201111012300 METAR MROC 012300Z 24005KT 8000 2000SW -RA BR FEW001 SCT020 BKN100 20/20 A2992 NOSIG=
201111020000 METAR MROC 020000Z 22002KT 5000 2000SW BR FEW001 SCT005 BKN030 20/20 A2994 NOSIG=
201111020100 METAR MROC 020100Z 22002KT 8000 VCFG FEW001 SCT005 BKN030 20/20 A2997 NOSIG=
201111020200 METAR MROC 020200Z 28003KT 8000 VCFG FEW001 SCT005 BKN030 20/20 A2999 NOSIG=
201111020300 METAR MROC 020300Z 00000KT 2000 -DZ BR SCT002 BKN015 20/20 A2999 BECMG 0500 DZ BR=
201111020400 METAR MROC 020400Z 00000KT 2000 BR FEW002 SCT015 BKN100 20/20 A2999 NOSIG=
201111020500 METAR MROC 020500Z 28002KT 1200 BR SCT002 BKN015 20/20 A2999 NOSIG=
201111020600 METAR MROC 020600Z 35003KT 2000 BR FEW002 SCT015 BKN100 20/20 A2998 NOSIG=
201111020700 METAR MROC 020700Z 05002KT 3000 BR FEW002 SCT020 BKN100 20/19 A2994 NOSIG=
201111020800 METAR MROC 020800Z 03002KT 5000 BR FEW002 SCT020 BKN100 19/19 A2992 NOSIG=
201111020900 METAR MROC 020900Z 06002KT 8000 VCFG FEW003 SCT030 19/18 A2991 NOSIG=
201111021000 METAR MROC 021000Z 02005KT CAVOK 19/18 A2992 NOSIG=
201111021100 METAR MROC 021100Z 09004KT CAVOK 20/18 A2994 NOSIG=
201111021200 METAR MROC 021200Z 20002KT 9999 BCFG FEW002 BKN120 19/18 A2996 BECMG 8000 VCFG=
201111021300 METAR MROC 021300Z 01004KT 9999 VCFG SCT120 BKN250 20/19 A2999 NOSIG=
201111021400 METAR MROC 021400Z 04005KT 9999 FEW015 SCT130 BKN250 26/19 A2999 NOSIG=
201111021500 METAR MROC 021500Z 09006KT 9999 FEW030 BKN120 26/18 A2999 NOSIG=
201111021600 METAR MROC 021600Z 10007KT 9999 FEW030 SCT120 BKN250 25/18 A2997 NOSIG=
201111021700 METAR MROC 021700Z 27007KT 9999 FEW030 SCT120 BKN250 26/21 A2995 NOSIG=
201111021800 METAR MROC 021800Z 22008KT 9999 SCT030 BKN250 25/24 A2993 NOSIG=
201111021900 METAR MROC 021900Z 22010KT 9999 SCT030 BKN250 25/21 A2991 NOSIG=
201111022000 METAR MROC 022000Z 23010KT 9999 SCT030 BKN250 24/21 A2988 BECMG 8000 VCSH=
201111022100 METAR MROC 022100Z 25007KT 7000 -TSRA VCSH FEW004 FEW012CB BKN025 22/21 A2989 BECMG 4000 TSRA=
201111022200 METAR MROC 022200Z 20005KT 2000 0800SW -RA BR FEW001 SCT006 BKN012 22/21 A2991 BECMG 1000 -RA BR=
201111022300 METAR MROC 022300Z 25004KT 2000 0800SW BR FEW001 SCT003 BKN007 21/20 A2992 NOSIG=
201111030000 METAR MROC 030000Z 24003KT 2000 0800SW BR FEW001 SCT003 BKN008 21/20 A2995 NOSIG=
201111030100 METAR MROC 030100Z 00000KT 4500 2000SW BR FEW002 SCT008 BKN025 21/20 A2997 NOSIG=
201111030200 METAR MROC 030200Z 16002KT 9999 4500 FEW002 BKN080 21/20 A2999 NOSIG=
201111030300 METAR MROC 030300Z 00000KT 9999 FEW020 SCT120 BKN250 21/20 A3000 NOSIG=
201111030400 METAR MROC 030400Z 06005KT CAVOK 21/18 A2998=
201111030500 METAR MROC 030500Z 09005KT CAVOK 21/17 A2997 RMK BKN250 NOSIG=
201111030600 METAR MROC 030600Z 05004KT CAVOK 21/17 A2996 RMK BKN250 NOSIG=
201111030700 METAR MROC 030700Z 09004KT CAVOK 21/17 A2994 RMK BKN250 NOSIG=
201111030800 METAR MROC 030800Z 10006KT CAVOK 20/17 A2993 RMK SCT250 NOSIG=
201111030900 METAR MROC 030900Z 09006KT CAVOK 20/17 A2993 RMK SCT250 NOSIG=
201111031000 METAR MROC 031000Z 03007KT CAVOK 20/17 A2994 RMK SCT250 NOSIG=
201111031100 METAR MROC 031100Z 06005KT CAVOK 20/17 A2996 RMK FEW070 SCT250 NOSIG=
201111031200 METAR MROC 031200Z 06005KT CAVOK 20/17 A2997 RMK FEW070 SCT250 NOSIG=
201111031300 METAR MROC 031300Z 08005KT CAVOK 22/17 A2998 NOSIG=
201111031400 METAR MROC 031400Z 10006KT CAVOK 24/18 A2999 NOSIG=
201111031500 METAR MROC 031500Z 10007KT CAVOK 26/18 A2999 NOSIG=
201111031600 METAR MROC 031600Z 11005KT 9999 FEW045 SCT100 SCT250 27/18 A2999 BECMG 24005KT=
201111031700 METAR MROC 031700Z 22006KT 9999 FEW040 SCT080 BKN200 25/20 A2996 NOSIG=
201111031800 METAR MROC 031800Z 25006KT 9999 FEW030TCU SCT040 SCT150 26/21 A2994 BECMG -SHRA=
201111031900 METAR MROC 031900Z 21006KT 9999 FEW020TCU SCT045 BKN250 28/22 A2991 BECMG -SHRA=
201111032000 METAR MROC 032000Z 26009KT 9999 FEW020TCU SCT045 BKN250 26/20 A2988 BECMG VCSH=
201111032100 METAR MROC 032100Z 23006KT 9999 FEW015TCU SCT035 BKN250 25/21 A2988 NOSIG=
201111032200 METAR MROC 032200Z 24008KT 8000 VCFG SCT006 FEW015TCU SCT035 22/21 A2990 BECMG 5000 -RA BR=
201111032300 METAR MROC 032300Z 28005KT 9999 VCFG FEW012 SCT035 BKN250 22/21 A2992 NOSIG=
201111040000 METAR MROC 040000Z 20003KT 9999 FEW015 SCT035 22/20 A2995 BECMG 05005KT=
201111040100 METAR MROC 040100Z 01008KT 9999 FEW030 SCT040 BKN100 22/20 A2996 NOSIG=
201111040200 METAR MROC 040200Z 11009KT 9999 FEW035 BKN110 22/17 A2999 NOSIG=
201111040300 METAR MROC 040300Z 08005KT CAVOK 21/17 A3002 NOSIG=
201111040400 METAR MROC 040400Z 08006KT CAVOK 21/17 A3001 NOSIG=
201111040500 METAR MROC 040500Z 07003KT CAVOK 20/19 A2999 NOSIG=
201111040600 METAR MROC 040600Z 20004KT CAVOK 21/18 A2997 NOSIG=
201111040700 METAR MROC 040700Z 13002KT CAVOK 20/17 A2995 NOSIG=
201111040800 METAR MROC 040800Z 10006KT CAVOK 19/18 A2995 NOSIG=
201111040900 METAR MROC 040900Z 01005KT CAVOK 19/17 A2993 NOSIG=
201111041000 METAR MROC 041000Z 06004KT CAVOK 20/17 A2992 NOSIG=
201111041100 METAR MROC 041100Z 08004KT CAVOK 20/17 A2994 NOSIG=
201111041200 METAR MROC 041200Z 05005KT CAVOK 19/17 A2995 NOSIG=
201111041300 METAR MROC 041300Z 09005KT CAVOK 22/17 A2997 NOSIG=
201111041400 METAR MROC 041400Z 09008KT CAVOK 25/17 A2997 NOSIG=
201111041500 METAR MROC 041500Z 11009KT CAVOK 26/17 A2997 NOSIG=
201111041600 METAR MROC 041600Z 11005KT 9999 FEW045 27/18 A2997 BECMG 24005KT=
201111041700 METAR MROC 041700Z 26006KT 9999 FEW030TCU SCT040 26/19 A2995 NOSIG=
201111041800 METAR MROC 041800Z 25008KT 9999 FEW030TCU SCT080 26/20 A2992 BECMG VCSH=
201111041900 METAR MROC 041900Z 04002KT 9999 4800SW TSRA FEW006 SCT010CB SCT100 22/21 A2991 BECMG 24006KT=
201111042000 METAR MROC 042000Z 32003KT 9999 4500SW TSRA FEW003 SCT010CB SCT100 22/20 A2988 BECMG 3000 TSRA=
201111042100 METAR MROC 042100Z 22002KT 5000 -RA BR SCT004 BKN015 21/20 A2989 BECMG 2000 -RA BR=
201111042200 METAR MROC 042200Z 31004KT 3000 -DZ BR FEW001 SCT006 BKN020 21/20 A2990 BECMG 0500 DZ BR=
201111042300 METAR MROC NIL=
201111050000 METAR MROC 050000Z 28003KT 8000 VCFG FEW002 SCT020 BKN100 21/20 A2993 NOSIG=
201111050100 METAR MROC 050100Z 11003KT 9999 FEW030 SCT100 20/17 A2995 NOSIG=
201111050200 METAR MROC 050200Z 10006KT 9999 FEW025 20/16 A2997 NOSIG=
201111050300 METAR MROC 050300Z 07006KT CAVOK 21/17 A2998 NOSIG=
201111050400 METAR MROC 050400Z 07006KT CAVOK 21/17 A2998 NOSIG=
201111050500 METAR MROC NIL=
201111050600 METAR MROC 050600Z 02008KT CAVOK 20/16 A2994 NOSIG=
201111050700 METAR MROC 050700Z 05004KT CAVOK 20/15 A2994 NOSIG=
201111050800 METAR MROC 050800Z 09004KT CAVOK 20/15 A2993 NOSIG=
201111050900 METAR MROC 050900Z 06007KT CAVOK 17/15 A2992 NOSIG=
201111051000 METAR MROC 051000Z 06006KT CAVOK 19/15 A2992 NOSIG=
201111051100 METAR MROC 051100Z 08005KT CAVOK 19/15 A2993 NOSIG=
201111051200 METAR MROC 051200Z 07006KT CAVOK 20/14 A2996 NOSIG=
201111051300 METAR MROC 051300Z 06007KT CAVOK 22/16 A2996 RMK BKN250 NOSIG=
201111051400 METAR MROC 051400Z 15003KT CAVOK 25/16 A2998 RMK BKN250 BECMG 24006KT=
201111051500 METAR MROC 051500Z 11007KT CAVOK 26/15 A2996 BECMG 24006KT=
201111051600 METAR MROC 051600Z 12006KT CAVOK 27/15 A2995 RMK BKM250 NOSIG=
201111051700 METAR MROC 051700Z 15004KT 9999 FEW035 SCT250 28/15 A2993 BECMG 24006KT=
201111051800 METAR MROC 051800Z 22007KT 9999 FEW030 SCT100 28/20 A2991 RMK FEW250 NOSIG=
201111051900 METAR MROC 051900Z 23008KT 9999 FEW020 SCT035 26/19 A2989 NOSIG=
201111052000 METAR MROC 052000Z 25005KT 9999 FEW015 SCT030 26/20 A2986 BECMG 8000 VCFG=
201111052100 METAR MROC 052100Z 23006KT 9999 FEW020TCU SCT035 26/21 A2981 NOSIG=
201111052200 METAR MROC 052200Z 24007KT 9999 FEW020TCU BKN025 25/20 A2985 NOSIG=
201111052300 METAR MROC 052300Z 24007KT 9999 FEW010 SCT025 23/21 A2998 NOSIG=
201111060000 METAR MROC NIL=
201111060100 METAR MROC 060100Z 14004KT 9999 SCT030 21/17 A2993 NOSIG=
201111060200 METAR MROC 060200Z 11004KT 9999 FEW030 SCT070 21/19 A2996 NOSIG=
201111060300 METAR MROC 060300Z 10003KT 9999 FEW035 21/17 A2997 NOSIG=
201111060400 METAR MROC 060400Z 07006KT 9999 FEW040 SCT100 21/17 A2997 NOSIG=
201111060500 METAR MROC 060500Z 07006KT 9999 FEW035 SCT100 21/17 A2997 NOSIG=
201111060600 METAR MROC 060600Z 09009KT CAVOK 21/17 A2995 NOSIG=
201111060700 METAR MROC 060700Z 10007KT CAVOK 21/17 A2993 NOSIG=
201111060800 METAR MROC 060800Z 07005KT CAVOK 21/17 A2992 NOSIG=
201111060900 METAR MROC 060900Z 06005KT CAVOK 19/17 A2991 NOSIG=
201111061000 METAR MROC 061000Z 06006KT CAVOK 19/16 A2992 NOSIG=
201111061100 METAR MROC 061100Z 06005KT CAVOK 19/15 A2993 NOSIG=
201111061200 METAR MROC 061200Z 07006KT CAVOK 20/15 A2995 NOSIG=
201111061300 METAR MROC 061300Z 09007KT CAVOK 23/16 A2998 NOSIG=
201111061400 METAR MROC 061400Z 09005KT CAVOK 25/16 A2999 NOSIG=
201111061500 METAR MROC 061500Z 10007KT CAVOK 26/16 A2998 RMK FEW250 NOSIG=
201111061600 METAR MROC 061600Z 12008KT 9999 FEW030 SCT250 26/16 A2997 NOSIG=
201111061700 METAR MROC 061700Z 11008KT 9999 FEW030 SCT050 27/17 A2996 NOSIG=
201111061800 METAR MROC 061800Z 11006KT 9999 FEW030 BKN050 26/17 A2994 NOSIG=
201111061900 METAR MROC 061900Z 12005KT 9999 FEW025 BKN060 28/18 A2992 NOSIG=
201111062000 METAR MROC 062000Z 26012KT 9999 SCT020 BKN040 24/21 A2989 BECMG 8000 VCSH=
201111062100 METAR MROC 062100Z 24010KT 9999 RA SCT020 BKN040 23/21 A2990 NOSIG=
201111062200 METAR MROC 062200Z 30004KT 9999 FEW005 SCT020 BKN070 21/20 A2992 RERA NOSIG=
201111062300 METAR MROC 062300Z 00000KT 9999 FEW001 SCT020 BKN070 21/20 A2994 NOSIG=
201111070000 METAR MROC 070000Z 28003KT 8000 VCFG FEW001 SCT005 BKN020 21/20 A2996 NOSIG=
201111070100 METAR MROC 070100Z 10004KT 9999 FEW010 SCT030 BKN120 21/19 A2997 NOSIG=
201111070200 METAR MROC 070200Z 09006KT 9999 FEW030 SCT120 21/17 A3000 NOSIG=
201111070300 METAR MROC 070300Z 05003KT CAVOK 21/17 A3000 RMK FEW100 NOSIG=
201111070400 METAR MROC 070400Z 09005KT 9999 FEW040 BKN120 20/18 A3001 NOSIG=
201111070500 METAR MROC NIL=
201111070600 METAR MROC 070600Z 06006KT CAVOK 21/16 A2997 NOSIG=
201111070700 METAR MROC 070700Z 08006KT CAVOK 20/16 A2994 NOSIG=
201111070800 METAR MROC 070800Z 08006KT CAVOK 20/15 A2993 NOSIG=
201111070900 METAR MROC 070900Z 06004KT CAVOK 20/15 A2993 NOSIG=
201111071000 METAR MROC 071000Z 08007KT CAVOK 20/15 A2993 NOSIG=
201111071100 METAR MROC 071100Z 04006KT CAVOK 20/15 A2994 NOSIG=
201111071200 METAR MROC 071200Z 10003KT CAVOK 19/15 A2995 RMK CB DST S SW FEW250 NOSIG=
201111071300 METAR MROC 071300Z 35003KT CAVOK 24/16 A2998 NOSIG=
201111071400 METAR MROC 071400Z 10003KT CAVOK 25/16 A2997 NOSIG=
201111071500 METAR MROC 071500Z 10008KT CAVOK 25/17 A2997 NOSIG=
201111071600 METAR MROC 071600Z 07011KT 9999 FEW040 SCT250 27/17 A2996 NOSIG=
201111071700 METAR MROC 071700Z 10010KT 9999 FEW040 SCT300 27/17 A2995 NOSIG=
201111071800 METAR MROC 071800Z 09008KT 9999 SCT040 28/18 A2993 NOSIG=
201111071900 METAR MROC 071900Z 08008KT 9999 SCT040 28/17 A2991 NOSIG=
201111072000 METAR MROC 072000Z 10009KT 9999 SCT030 27/17 A2987 NOSIG=
201111072100 METAR MROC 072100Z 25009KT 9999 FEW030 SCT150 23/21 A2988 NOSIG=
201111072200 METAR MROC 072200Z 24008KT 8000 VCSH FEW006 SCT025 BKN150 22/21 A2990 BECMG 6000 -RA BKN020=
201111072300 METAR MROC 072300Z 25005KT 9000 3000NW FEW006 SCT020 BKN180 22/21 A2992 NOSIG=
201111080000 METAR MROC 080000Z 23005KT 7000 2000SW SCT002 BKN015 22/21 A2994 BECMG 5000 BR BKN008=
201111080100 METAR MROC 080100Z 25005KT 9999 4000SW VCFG FEW004 SCT020 BKN100 21/20 A2997 NOSIG=
201111080200 METAR MROC 080200Z 00000KT 9999 BCFG FEW045 BKN150 21/20 A3000 NOSIG=
201111080300 METAR MROC 080300Z 13004KT 9999 FEW040 BKN120 21/18 A3002 NOSIG=
201111080400 METAR MROC NIL=
201111080500 METAR MROC 080500Z 11006KT CAVOK 21/18 A2999 RMK BKN120 NOSIG=
201111080600 METAR MROC 080600Z 07005KT CAVOK 21/17 A2998 NOSIG=
201111080700 METAR MROC 080700Z 07003KT CAVOK 20/17 A2996 NOSIG=
201111080800 METAR MROC 080800Z 12003KT CAVOK 20/15 A2996 NOSIG=
201111080900 METAR MROC 080900Z 14003KT CAVOK 18/15 A2995 NOSIG=
201111081000 METAR MROC 081000Z 09005KT CAVOK 19/14 A2995 NOSIG=
201111081100 METAR MROC 081100Z 09007KT CAVOK 19/14 A2995 NOSIG=
201111081200 METAR MROC 081200Z 09007KT CAVOK 20/14 A2997 NOSIG=
201111081300 METAR MROC 081300Z 10006KT CAVOK 22/15 A2999 NOSIG=
201111081400 METAR MROC 081400Z 11009KT CAVOK 23/15 A2998 NOSIG=
201111081500 METAR MROC 081500Z 10011KT CAVOK 24/14 A2998 NOSIG=
201111081600 METAR MROC 081600Z 10009KT CAVOK 26/14 A2997 NOSIG=
201111081700 METAR MROC 081700Z 11008KT CAVOK 26/15 A2995 NOSIG=
201111081800 METAR MROC 081800Z 10007KT 9999 FEW045 SCT250 27/16 A2993 NOSIG=
201111081900 METAR MROC 081900Z 12008KT 9999 FEW035 SCT120 27/16 A2991 BECMG 24004KT=
201111082000 METAR MROC 082000Z 11007KT 9999 FEW045 SCT250 27/16 A2988 BECMG 24004KT=
201111082100 METAR MROC 082100Z 11005KT 9999 FEW040TCU SCT250 25/16 A2987 NOSIG=
201111082200 METAR MROC 082200Z 23004KT 9999 FEW030 SCT100 24/18 A2989 NOSIG=
201111082300 METAR MROC 082300Z 23005KT 9999 SCT035 SCT100 23/20 A2991 NOSIG=
201111090000 METAR MROC 090000Z 20003KT CAVOK 22/20 A2994 NOSIG=
201111090100 METAR MROC 090100Z 12005KT CAVOK 21/16 A2996 NOSIG=
201111090200 METAR MROC 090200Z 11006KT CAVOK 21/16 A2999 NOSIG=
201111090300 METAR MROC 090300Z 10005KT CAVOK 21/17 A3002 NOSIG=
201111090400 METAR MROC 090400Z 08006KT CAVOK 20/17 A3002 NOSIG=
201111090500 METAR MROC NIL=
201111090600 METAR MROC NIL=
201111090700 METAR MROC 090700Z 05004KT CAVOK 19/16 A2996 NOSIG=
201111090800 METAR MROC 090800Z 00000KT CAVOK 19/16 A2994 NOSIG=
201111090900 METAR MROC 090900Z 04002KT 9999 FEW005 17/16 A2993 NOSIG=
201111091000 METAR MROC 091000Z 00000KT 9999 FEW005 18/16 A2993 NOSIG=
201111091100 METAR MROC 091100Z 06005KT CAVOK 17/13 A2995 NOSIG=
201111091200 METAR MROC 091200Z 06005KT CAVOK 17/13 A2996 NOSIG=
201111091300 METAR MROC NIL=
201111091400 METAR MROC 091400Z 09005KT CAVOK 24/13 A2998 NOSIG=
201111091500 METAR MROC 091500Z 21003KT CAVOK 27/12 A2999 NOSIG=
201111091600 METAR MROC 091600Z 25008KT 9999 FEW045 26/17 A2997 NOSIG=
201111091700 METAR MROC 091700Z 23004KT 9999 FEW040 SCT100 26/16 A2995 NOSIG=
201111091800 METAR MROC 091800Z 24008KT 9999 FEW040 SCT120 26/17 A2993 NOSIG=
201111091900 METAR MROC 091900Z 23007KT 9999 FEW040 BKN100 26/19 A2990 NOSIG=
201111092000 METAR MROC 092000Z 23006KT 9999 FEW035 BKN100 25/20 A2987 NOSIG=
201111092100 METAR MROC 092100Z 28006KT 8000 RA FEW010 BKN015 23/20 A2988 BECMG TS=
201111092200 METAR MROC 092200Z 30004KT 8000 VCSH FEW010 SCT015 BKN250 22/20 A2990 NOSIG=
201111092300 METAR MROC 092300Z 19002KT 9999 SCT025 BKN250 22/18 A2990 NOSIG=
201111100000 METAR MROC 100000Z 11003KT 9999 SCT035 BKN250 22/17 A2992 NOSIG=
201111100100 METAR MROC 100100Z 14002KT 9999 SCT035 21/17 A2996 NOSIG=
201111100200 METAR MROC 100200Z 10002KT 9999 SCT040 20/17 A2998 NOSIG=
201111100300 METAR MROC NIL=
201111100400 METAR MROC NIL=
201111100500 METAR MROC NIL=
201111100600 METAR MROC NIL=
201111100700 METAR MROC NIL=
201111100800 METAR MROC NIL=
201111100900 METAR MROC NIL=
201111101000 METAR MROC NIL=
201111101100 METAR MROC NIL=
201111101200 METAR MROC 101200Z 08004KT 9999 -RA OVC120 19/18 A2998 NOSIG=
201111101300 METAR MROC 101300Z 15002KT 9999 VCSH FEW030 SCT070 BKN110 19/17 A2998 NOSIG=
201111101400 METAR MROC 101400Z 13004KT 9999 SCT030 BKN110 20/18 A3001 NOSIG=
201111101500 METAR MROC 101500Z 10005KT 9999 VCSH FEW025 SCT035 BKN110 22/18 A3001 NOSIG=
201111101600 METAR MROC 101600Z 10009KT 9999 -RA FEW030 BKN100 22/18 A3000 NOSIG=
201111101700 METAR MROC 101700Z 12007KT 9999 SCT030 BKN100 24/18 A2997 NOSIG=
201111101800 METAR MROC 101800Z 11011KT 9999 FEW025 SCT100 25/18 A2992 RMK SCT250 NOSIG=
201111101900 METAR MROC 101900Z 11007KT 9999 FEW025 SCT090 BKN250 25/18 A2990 NOSIG=
201111102000 METAR MROC 102000Z 10005KT 9999 FEW025 BKN030 24/16 A2989 BECMG 24006 VCSH=
201111102100 METAR MROC 102100Z 11011KT 9999 FEW030 BKN070 24/16 A2993 NOSIG=
201111102200 METAR MROC 102200Z 10011G22KT 9999 FEW035 SCT070 23/13 A2989 NOSIG=
201111102300 METAR MROC 102300Z 09008KT 9999 FEW030 21/13 A2992 NOSIG=
201111110000 METAR MROC 110000Z 11009KT 9999 FEW030 20/14 A2994 NOSIG=
201111110100 METAR MROC 110100Z 13012KT 9999 FEW030 20/15 A3001 NOSIG=
201111110200 METAR MROC 110200Z 12012KT 9999 FEW030 BKN080 20/14 A3003 NOSIG=
201111110300 METAR MROC NIL=
201111110400 METAR MROC NIL=
201111110500 METAR MROC 110500Z 05009KT 9999 DZ BKN090 20/15 A3003 NOSIG=
201111110600 METAR MROC NIL=
201111110700 METAR MROC NIL=
201111110800 METAR MROC NIL=
201111110900 METAR MROC NIL=
201111111000 METAR MROC NIL=
201111111100 METAR MROC 111100Z 08006KT 9999 FEW035 SCT100 19/14 A2998 NOSIG=
201111111200 METAR MROC NIL=
201111111300 METAR MROC 111300Z 08009KT 9999 FEW030 SCT100 21/15 A3001 NOSIG=
201111111400 METAR MROC 111400Z 10009KT 9999 FEW030 BKN100 22/14 A3006 NOSIG=
201111111500 METAR MROC 111500Z 08012KT 9999 FEW030 BKN100 23/12 A3007 NOSIG=
201111111600 METAR MROC 111600Z 10011KT 9999 FEW030 SCT100 25/13 A3006 NOSIG=
201111111700 METAR MROC 111700Z 10012KT 9999 FEW030 SCT120 25/13 A3000 NOSIG=
201111111800 METAR MROC 111800Z 08012KT 9999 FEW035 SCT120 25/13 A2998 NOSIG=
201111111900 METAR MROC 111900Z 08015KT 9999 FEW035 SCT130 25/13 A2996 NOSIG=
201111112000 METAR MROC 112000Z 08012KT 9999 FEW035 SCT130 25/13 A2994 NOSIG=
201111112100 METAR MROC 112100Z 10018KT 9999 FEW035 SCT130 25/13 A2994 NOSIG=
201111112200 METAR MROC 112200Z 09016KT 9999 FEW040 SCT120 23/14 A2995 NOSIG=
201111112300 METAR MROC 112300Z 08011KT 9999 FEW040 SCT120 23/13 A2996 NOSIG=
201111120000 METAR MROC 111200Z 08012KT CAVOK 22/14 A2999 NOSIG=
201111120100 METAR MROC 120100Z 08004KT CAVOK 21/16 A3002 NOSIG=
201111120200 METAR MROC 120200Z 12005KT CAVOK 21/15 A3004 NOSIG=
201111120300 METAR MROC 120300Z 05006KT 9999 FEW002 SCT090 21/15 A3004 NOSIG=
201111120400 METAR MROC 120400Z 12007KT CAVOK 21/15 A3004 RMK BKN120 NOSIG=
201111120500 METAR MROC 120500Z 12007KT CAVOK 20/15 A3004 RMK BKN120 NOSIG=
201111120600 METAR MROC 120600Z 08003KT CAVOK 20/15 A3003 RMK BKN120 NOSIG=
201111120700 METAR MROC 120700Z 06007KT CAVOK 20/15 A3000 RMK BKN120 NOSIG=
201111120800 METAR MROC 120800Z 07006KT CAVOK 20/15 A2998 RMK BKN120 NOSIG=
201111120900 METAR MROC 120900Z 06005KT CAVOK 19/15 A2997 RMK SCT120 NOSIG=
201111121000 METAR MROC 121000Z 09006KT CAVOK 20/15 A2997 NOSIG=
201111121100 METAR MROC 121100Z 06006KT 9999 FEW020 SCT120 19/15 A2998 NOSIG=
201111121200 METAR MROC NIL=
201111121300 METAR MROC 121300Z 09009KT CAVOK 19/15 A3003 NOSIG=
201111121400 METAR MROC 121400Z 08012KT CAVOK 21/16 A3004 NOSIG=
201111121500 METAR MROC 121500Z 09015KT 9999 FEW030 SCT130 BKN250 24/16 A3004 NOSIG=
201111121600 METAR MROC 121600Z 11011KT 9999 FEW030 BKN120 23/16 A3003 NOSIG=
201111121700 METAR MROC 121700Z 11008KT 9999 SCT030 BKN120 23/16 A3002 NOSIG=
201111121800 METAR MROC 121800Z 11006KT 9999 SCT030 BKN120 24/16 A2999 NOSIG=
201111121900 METAR MROC 121900Z 11007KT 9999 SCT030 BKN120 24/16 A2997 NOSIG=
201111122000 METAR MROC 122000Z 11008KT 9999 SCT030 BKN120 23/16 A2995 NOSIG=
201111122100 METAR MROC 122100Z 11007KT 9999 VCSH FEW030 BKN080 23/16 A2995 NOSIG=
201111122200 METAR MROC 122200Z 10006KT 9999 -RA VCSH SCT040 BKN100 21/16 A2997 NOSIG=
201111122300 METAR MROC 122300Z 11006KT 9999 FEW030 SCT060 BKN120 21/16 A2999 NOSIG=
201111130000 METAR MROC 130000Z 08007KT 9999 FEW040 SCT080 BKN200 21/16 A2999 NOSIG=
201111130100 METAR MROC 130100Z 06006KT CAVOK 20/17 A3000 NOSIG=
201111130200 METAR MROC 130200Z 08005KT CAVOK 21/17 A3002 NOSIG=
201111130300 METAR MROC 130300Z 07006KT 9999 -RA FEW035 BKN080 20/17 A3003=
201111130400 METAR MROC 130400Z 03005KT 9999 -RA FEW035 BKN080 19/18 A3005 NOSIG=
201111130500 METAR MROC 130500Z 03006KT 9999 -RA FEW035 BKN100 19/18 A3005 NOSIG=
201111130600 METAR MROC NIL=
201111130700 METAR MROC 130700Z 07002KT 9999 -RA OVC100 19/18 A3001 NOSIG=
201111130800 METAR MROC 130800Z 03005KT 9999 -RA OVC100 19/18 A3000 NOSIG=
201111130900 METAR MROC 130900Z 02005KT 9999 -RA OVC100 19/18 A2998 NOSIG=
201111131000 METAR MROC 131000Z 04005KT 9999 -RA OVC100 19/18 A2996 NOSIG=
201111131100 METAR MROC 131100Z 16002KT 9999 -RA OVC100 18/18 A2999 NOSIG=
201111131200 METAR MROC 131200Z 05002KT 9999 -RA OVC120 18/17 A3000 NOSIG=
201111131300 METAR MROC 131300Z 03005KT 9999 -RA OVC120 19/18 A3001 NOSIG=
201111131400 METAR MROC 131400Z 06006KT 9999 -RA OVC160 20/17 A3001 NOSIG=
201111131500 METAR MROC 131500Z 07004KT 9999 -RA FEW100 OVC160 21/17 A3002 NOSIG=
201111131600 METAR MROC 131600Z 07006KT CAVOK 24/18 A3002 NOSIG=
201111131700 METAR MROC 131700Z 22003KT CAVOK 24/17 A3000 NOSIG=
201111131800 METAR MROC 131800Z 25005KT 9999 VCSH FEW045 BKN160 24/20 A2997 BECMG -RA=
201111131900 METAR MROC 131900Z 14003KT 9999 SCT040 BKN160 24/18 A2995 NOSIG=
201111132000 METAR MROC 132000Z 11003KT 9999 FEW035 BKN200 24/18 A2991 NOSIG=
201111132100 METAR MROC 132100Z 14005KT 9999 FEW035 BKN140 23/18 A2990 NOSIG=
201111132200 METAR MROC 132200Z 11007KT 9999 FEW035 BKN180 22/18 A2990 NOSIG=
201111132300 METAR MROC 132300Z 11008KT 9999 FEW040 SCT120 BKN250 22/17 A2992 NOSIG=
201111140000 METAR MROC 140000Z 10007KT CAVOK 21/17 A2993 NOSIG=
201111140100 METAR MROC 140100Z 08005KT 9999 FEW030 BKN120 21/17 A2995 NOSIG=
201111140200 METAR MROC 140200Z 06005KT 9999 FEW030 BKN120 21/17 A2997 NOSIG=
201111140300 METAR MROC 140300Z 09010KT 9999 FEW030 BKN120 21/16 A2998 NOSIG=
201111140400 METAR MROC 140400Z 11010KT 9999 FEW030 BKN110 21/16 A2999 NOSIG=
201111140500 METAR MROC 140500Z 07004KT CAVOK 20/16 A2998 NOSIG=
201111140600 METAR MROC 140600Z 12007KT CAVOK 21/16 A2996 NOSIG=
201111140700 METAR MROC 140700Z 11008KT CAVOK 21/16 A2993 NOSIG=
201111140800 METAR MROC 140800Z 08005KT CAVOK 21/16 A2992 NOSIG=
201111140900 METAR MROC 140900Z 07008KT CAVOK 21/16 A2992 NOSIG=
201111141000 METAR MROC 141000Z 06006KT CAVOK 21/16 A2992 NOSIG=
201111141100 METAR MROC 141100Z 06006KT 9999 FEW035 BKN120 19/16 A2994=
201111141200 METAR MROC 141200Z 26004KT 9999 FEW035 BKN100 18/17 A2997 NOSIG=
201111141300 METAR MROC 141300Z 00000KT 9999 FEW035 BKN100 20/18 A2999 BECMG 13003KT=
201111141400 METAR MROC 141400Z 00000KT 9999 FEW035 BKN120 22/18 A3001 NOSIG=
201111141500 METAR MROC 141500Z 08002KT CAVOK 23/17 A3001 NOSIG=
201111141600 METAR MROC 141600Z 09005KT CAVOK 23/17 A3000 NOSIG=
201111141700 METAR MROC 141700Z 10005KT CAVOK 24/17 A2998 NOSIG=
201111141800 METAR MROC 141800Z 11003KT 9999 FEW035 SCT120 BKN250 25/17 A2996 BECMG 24003KT=
201111141900 METAR MROC 141900Z 25006KT 9999 FEW030 SCT120 BKN250 23/19 A2992 NOSIG=
201111142000 METAR MROC 142000Z 25006KT 9999 FEW030 SCT120 BKN250 23/19 A2990 NOSIG=
201111142100 METAR MROC 142100Z 23005KT 9999 FEW012 SCT030 BKN130 22/19 A2989 NOSIG=
201111142200 METAR MROC 142200Z 23003KT 9999 FEW012 SCT030 BKN130 22/19 A2990 NOSIG=
201111142300 METAR MROC 142300Z 26003KT 9999 FEW002 SCT070 BKN130 22/20 A2990 NOSIG=
201111150000 METAR MROC 150000Z 00000KT 9999 FEW020 BKN120 22/17 A2992 NOSIG=
201111150100 METAR MROC 150100Z 11003KT 9999 FEW025 BKN120 22/17 A2994 NOSIG=
201111150200 METAR MROC 150200Z 12006KT 9999 FEW030 SCT090 BKN200 22/17 A2996 NOSIG=
201111150300 METAR MROC 150300Z 12005KT CAVOK 21/17 A2997 NOSIG=
201111150400 METAR MROC 150400Z 11006KT CAVOK 22/17 A2997 NOSIG=
201111150500 METAR MROC 150500Z 26003KT 9999 2000SW FEW001 SCT080 19/19 A2996 NOSIG=
201111150600 METAR MROC 150600Z 29002KT 1200 BR SCT001 BKN004 19/19 A2995 BECMG 3000 BR BKN020=
201111150700 METAR MROC 150700Z 32003KT 5000 BR FEW005 BKN025 19/19 A2994 BECMG 9999=
201111150800 METAR MROC 150800Z 04002KT 8000 VCFG FEW004 BKN150 19/18 A2993 NOSIG=
201111150900 METAR MROC 150900Z 06002KT 9999 FEW010 BKN150 19/17 A2993 NOSIG=
201111151000 METAR MROC 151000Z 07003KT CAVOK 18/17 A2992 NOSIG=
201111151100 METAR MROC 151100Z 07002KT 9999 FEW040 BKN150 18/16 A2994 NOSIG=
201111151200 METAR MROC 151200Z 06004KT CAVOK 19/16 A2995 NOSIG=
201111151300 METAR MROC 151300Z 04003KT 9999 FEW030 SCT100 21/17 A2997 RMK FEW230 NOSIG=
201111151400 METAR MROC 151400Z 20003KT 9999 FEW030 BKN100 21/18 A2999 NOSIG=
201111151500 METAR MROC 151500Z 26006KT CAVOK 22/18 A2999 RMK BKN100 NOSIG=
201111151600 METAR MROC 151600Z 24006KT 9999 FEW020 BKN100 23/19 A2998 NOSIG=
201111151700 METAR MROC 151700Z 26007KT 9999 SCT015 BKN100 23/19 A2998 NOSIG=
201111151800 METAR MROC 151800Z 22007KT 9999 SCT015 BKN100 24/19 A2995 NOSIG=
201111151900 METAR MROC 151900Z 26009KT 9999 FEW008 SCT015 BKN100 24/20 A2990 NOSIG=
201111152000 METAR MROC 152000Z 25010KT 9999 FEW007 SCT015 BKN100 23/20 A2989 NOSIG=
201111152100 METAR MROC 152100Z 24011KT 9999 VCFG SCT008 BKN015 22/19 A2986 RMK VIS S N 8KMS BECMG 6000 -RA=
201111152200 METAR MROC 152200Z 25006KT 7000 RA SCT006 BKN012 20/19 A2989 BECMG 5000 -RA BR=
201111152300 METAR MROC 152300Z 22004KT 5000 -RA BR SCT005 BKN010 20/19 A2992 NOSIG=
201111160000 METAR MROC 160000Z 22006KT 3000 -RA BR FEW002 SCT005 BKN010 20/19 A2993 NOSIG=
201111160100 METAR MROC 160100Z 26008KT 3000 -RA BR FEW002 SCT005 BKN010 20/19 A2996 NOSIG=
201111160200 METAR MROC 160200Z 27006KT 5000 -RA BR FEW003 SCT006 BKN015 20/19 A2998=
201111160300 METAR MROC 160300Z 21002KT 3000 BR BKN003 SCT015 20/19 A2998 NOSIG=
201111160400 METAR MROC 160400Z 00000KT 4000 -DZ BR BKN004 SCT012 20/19 A2999 NOSIG=
201111160500 METAR MROC 160500Z 00000KT 5000 BR SCT005 BKN015 20/19 A2998 NOSIG=
201111160600 METAR MROC 160600Z 00000KT 9999 -DZ FEW002 SCT030 BKN100 20/19 A2996 NOSIG=
201111160653 METAR MROC 170700Z 00000KT 9999 SCT030 BKN120 19/19 A2994 NOSIG=
201111160700 METAR MROC 160700Z 00000KT 9999 SCT030 BKN120 19/19 A2994 NOSIG=
201111160800 METAR MROC 160800Z 02004KT 9999 FEW010 SCT030 BKN120 20/19 A2990 NOSIG=
201111160900 METAR MROC 160900Z 24005KT 9999 4000SW SCT003 BKN120 19/19 A2991 BECMG 5000 BR=
201111161000 METAR MROC 161000Z 04002KT 1000 BR BKN002 SCT006 19/19 A2991 BECMG 7000 VCFG=
201111161100 METAR MROC 161100Z 00000KT 9999 FEW008 18/18 A2992 NOSIG=
201111161130 METAR MROC 161130Z 29003KT 9999 0500SW SCT001 19/18 A//// BECMG 9999=
201111161200 METAR MROC 161200Z 26002KT 0500 FG BKN001 19/19 A2994 BECMG 9999=
201111161300 METAR MROC 161300Z 05002KT 0800 FG SCT250 19/19 A2996 BECMG 06003KT 9999=
201111161400 METAR MROC 161400Z 30005KT 9999 4000SW FEW004 SCT130 22/19 A2996 RMK FG BANK S SW NOSIG=
201111161500 METAR MROC 161500Z 26005KT 9999 FEW010 SCT120 24/20 A2997 NOSIG=
201111161600 METAR MROC 161600Z 23007KT 9999 FEW010 BKN020 23/20 A2997 BECMG 8000 VCSH=
201111161700 METAR MROC 161700Z 25010KT 9999 FEW010 BKN020 23/20 A2996=
201111161800 METAR MROC 161800Z 25006KT 9999 VCSH FEW015TCU BKN025 23/20 A2995 BECMG 6000 -RA=
201111161900 METAR MROC 161900Z 26006KT 9999 FEW015TCU BKN025 23/20 A2991 BECMG 6000 -RA=
201111162000 METAR MROC 162000Z 09002KT 9999 -RA FEW010 SCT030 BKN120 22/20 A2989 NOSIG=
201111162100 METAR MROC 162100Z 00000KT 9999 -RA FEW010 SCT030 BKN120 23/20 A2987 NOSIG=
201111162200 METAR MROC 162200Z 23004KT 9999 FEW005 SCT040 BKN100 23/20 A2988 NOSIG=
201111162300 METAR MROC 162300Z 23004KT 5000 BR FEW001 SCT010 BKN030 22/21 A2990 BECMG 1000=
201111170000 METAR MROC 170000Z 25004KT 2000 BR FEW001 SCT010 BKN030 21/20 A2993 BECMG 5000=
201111170100 METAR MROC 170100Z 21003KT 2000 -RA BR FEW001 SCT005 BKN020 21/20 A2995 BECMG 5000 -RA BR=
201111170200 METAR MROC 170200Z 29003KT 2000 -RA BR FEW001 SCT005 BKN020 21/20 A2997 BECMG 5000 -RA BR=
201111170300 METAR MROC 170300Z 26002KT 1500 BR SCT001 BKN015 21/20 A2997 NOSIG=
201111170400 METAR MROC 170400Z 00000KT 0700 FG BKN001 21/20 A2998 BECMG 0200 FG=
201111170500 METAR MROC 170500Z 23002KT 1200 BR FEW001 BKN010 20/20 A2998 NOSIG=
201111170600 METAR MROC 170600Z 00000KT 1200 BR SCT001 BKN010 20/19 A2997 NOSIG=
201111170700 METAR MROC 170700Z 00000KT 1200 BR SCT001 BKN010 20/20 A2995 NOSIG=
201111170800 METAR MROC 170800Z 03002KT 2000 BR FEW001 SCT010 20/20 A2994 NOSIG=
201111170900 METAR MROC 170900Z 13002KT 3000 BR FEW001 SCT015 20/19 A2994 RMK FEW100 NOSIG=
201111171000 METAR MROC 171000Z 07001KT 9999 3000SW FEW001 SCT080 19/19 A2995 NOSIG=
201111171100 METAR MROC 171100Z 06002KT 9999 3000SW FEW001 SCT250 19/18 A2995 NOSIG=
201111171200 METAR MROC 171200Z 05004KT 9999 FEW002 SCT100 BKN250 19/18 A2995 NOSIG=
201111171300 METAR MROC 171300Z 09004KT CAVOK 22/18 A2997 NOSIG=
201111171400 METAR MROC 171400Z 10012KT CAVOK 24/18 A2997 NOSIG=
201111171500 METAR MROC 171500Z 11011KT 9999 FEW040 BKN250 25/18 A2996 NOSIG=
201111171600 METAR MROC 171600Z 10004KT 9999 FEW040 BKN250 27/17 A2996 BECMG 22005KT=
201111171700 METAR MROC 171700Z 12011KT 9999 FEW040 BKN250 28/16 A2992 BECMG 22005KT=
201111171800 METAR MROC 171800Z 12007KT 9999 FEW040 BKN250 28/17 A2990 BECMG 22005KT=
201111171900 METAR MROC 171900Z 14006KT 9999 FEW030 BKN250 28/17 A2988 BECMG 22006KT=
201111172000 METAR MROC 172000Z 06008KT 9999 SCT030 BKN250 27/17 A2986 BECMG 22006KT=
201111172100 METAR MROC 172100Z 27009KT 9999 VCSH FEW020 SCT040 BKN200 23/20 A2986 BECMG 7000 -SHRA=
201111172200 METAR MROC 172200Z 28003KT 9999 FEW040 SCT060 BKN200 22/19 A2989 NOSIG=
201111172300 METAR MROC 172300Z 28003KT 9999 FEW045 BKN250 21/18 A2991 NOSIG=
201111180000 METAR MROC 180000Z 29003KT 9999 FEW040 SCT070 BKN250 21/19 A2993 NOSIG=
201111180100 METAR MROC 180100Z 03003KT CAVOK 21/19 A2995 NOSIG=
201111180200 METAR MROC 180200Z 05006KT CAVOK 22/17 A2997 NOSIG=
201111180300 METAR MROC 180300Z 08003KT CAVOK 21/17 A2999=
201111180400 METAR MROC 180400Z 08004KT CAVOK 20/16 A3000 NOSIG=
201111180500 METAR MROC 180500Z 09003KT CAVOK 20/16 A2999=
201111180600 METAR MROC 180600Z 07003KT CAVOK 19/16 A2997 NOSIG=
201111180700 METAR MROC 180700Z 04002KT CAVOK 19/17 A2997 NOSIG=
201111180800 METAR MROC 180800Z 01002KT CAVOK 20/17 A2996 NOSIG=
201111180900 METAR MROC 180900Z 03006KT CAVOK 18/16 A2994 NOSIG=
201111181000 METAR MROC 181000Z 06008KT CAVOK 18/16 A2995 NOSIG=
201111181100 METAR MROC 181100Z 04006KT CAVOK 19/16 A2995 NOSIG=
201111181200 METAR MROC 181200Z 06005KT CAVOK 20/16 A2997 NOSIG=
201111181300 METAR MROC 181300Z 05006KT CAVOK 22/16 A2999 NOSIG=
201111181400 METAR MROC 181400Z 12007KT CAVOK 24/17 A3000 NOSIG=
201111181500 METAR MROC 181500Z 12006KT 9999 FEW045 BKN250 26/17 A3000 NOSIG=
201111181600 METAR MROC 181600Z 10007KT 9999 SCT045 SCT250 26/16 A2998 NOSIG=
201111181700 METAR MROC 181700Z 10007KT 9999 SCT040 SCT250 26/16 A2996 NOSIG=
201111181800 METAR MROC 181800Z 16005KT 9999 SCT040 SCT250 27/16 A2994 BECMG 24006KT=
201111181900 METAR MROC 181900Z 23010KT 9999 FEW020TCU SCT040 BKN250 27/20 A2991 NOSIG=
201111182000 METAR MROC 182000Z 25012KT 9999 VCSH FEW015TCU SCT030 SCT100 25/20 A2989 BECMG 7000 SHRA=
201111182100 METAR MROC 182100Z 36010KT 2000 -TSRA SCT010CB BKN025 19/18 A2991 BECMG 7000 RA=
201111182200 METAR MROC 182200Z 24003KT 9999 4000SW -RA SCT005 BKN020 20/19 A2995 NOSIG=
201111182300 METAR MROC NIL=
201111190000 METAR MROC 190000Z 06002KT 9999 -DZ SCT015 BKN100 20/20 A2996 NOSIG=
201111190100 METAR MROC 190100Z 15003KT 9999 FEW025 SCT100 20/20 A2995 NOSIG=
201111190200 METAR MROC 190200Z 22004KT CAVOK 20/19 A2998 NOSIG=
201111190300 METAR MROC 190300Z 26004KT 5000 BR FEW001 SCT250 19/19 A3000 NOSIG=
201111190400 METAR MROC 190400Z 03006KT 9999 VCFG FEW001 19/18 A3000 NOSIG=
201111190500 METAR MROC 190500Z 04003KT 9999 VCFG FEW001 19/17 A2999 NOSIG=
201111190600 METAR MROC 190600Z 00000KT CAVOK 18/17 A2999 NOSIG=
201111190700 METAR MROC 190700Z 07003KT CAVOK 18/16 A2997 NOSIG=
201111190800 METAR MROC 190800Z 08002KT CAVOK 19/15 A2995 NOSIG=
201111190900 METAR MROC 190900Z 05002KT CAVOK 17/16 A2994 NOSIG=
201111191000 METAR MROC 191000Z 04008KT CAVOK 17/16 A2995 NOSIG=
201111191100 METAR MROC 191100Z 02003KT CAVOK 17/15 A2996 NOSIG=
201111191200 METAR MROC 191200Z 04006KT CAVOK 17/15 A2999 NOSIG=
201111191300 METAR MROC 191300Z 09003KT CAVOK 22/16 A3001 NOSIG=
201111191400 METAR MROC 191400Z 23004KT CAVOK 23/18 A3003 NOSIG=
201111191500 METAR MROC 191500Z 26004KT CAVOK 23/17 A3003 NOSIG=
201111191600 METAR MROC 191600Z 25006KT 9999 FEW040 24/19 A3002 NOSIG=
201111191700 METAR MROC 191700Z 24007KT 9999 SCT040 25/18 A3000 NOSIG=
201111191800 METAR MROC 191800Z 26006KT 9999 FEW025TCU SCT035 24/19 A2998 BECMG -RA=
201111191900 METAR MROC 191900Z 24007KT 9999 FEW015CB FEW020TCU SCT035 26/20 A2994 BECMG 8000 VCTS VCSH=
201111192000 METAR MROC 192000Z 24008KT 4000 RA BR SCT008 FEW015CB BKN030 21/20 A2994 NOSIG=
201111192100 METAR MROC 192100Z 24004KT 4000 BR FEW003 SCT010 BKN025 21/20 A2995 RMK VIS 6000 E BECMG 2000 -RA BR=
201111192200 METAR MROC 192200Z 26004KT 2000 BR FEW002 SCT010 BKN025 20/19 A2994 RMK VIS E 4000 NOSIG=
201111192300 METAR MROC 192300Z 26004KT 0100 FG VV/// 19/19 A2995 NOSIG=
201111200000 METAR MROC 200000Z 23002KT 3000 -DZ BR FEW001 SCT010 BKN020 19/19 A2997 NOSIG=
201111200100 METAR MROC 200100Z 00000KT 5000 BR FEW002 BKN020 19/19 A3000 NOSIG=
201111200200 METAR MROC 200200Z 00000KT 9999 VCFG FEW003 SCT020 19/19 A3001 NOSIG=
201111200300 METAR MROC 200300Z 00000KT 9999 FEW020 BKN070 19/19 A3002 NOSIG=
201111200400 METAR MROC 200400Z 16002KT CAVOK 19/18 A3002 NOSIG=
201111200500 METAR MROC 200500Z 00000KT CAVOK 18/18 A3001 NOSIG=
201111200600 METAR MROC 200600Z 02005KT CAVOK 18/18 A2999 NOSIG=
201111200700 METAR MROC 200700Z 07003KT CAVOK 18/17 A2997 NOSIG=
201111200800 METAR MROC 200800Z 06004KT CAVOK 19/17 A2995 NOSIG=
201111200900 METAR MROC 200900Z 05003KT CAVOK 19/17 A2994 NOSIG=
201111201000 METAR MROC 201000Z 02006KT CAVOK 18/16 A2994 NOSIG=
201111201100 METAR MROC 201100Z 01004KT CAVOK 18/16 A2996 NOSIG=
201111201200 METAR MROC 201200Z 12003KT 9999 BCFG SCT002 SCT120 17/17 A2998 NOSIG=
201111201300 METAR MROC 201300Z 05004KT 9999 FEW030 BKN120 18/18 A3001 NOSIG=
201111201400 METAR MROC 201400Z 07004KT 9999 FEW030 BKN120 22/17 A3002 RMK CB DST NW NOSIG=
201111201500 METAR MROC 201500Z 14003KT 9999 FEW030 SCT120 25/18 A3001 RMK CB DST SW NOSIG=
201111201600 METAR MROC 201600Z 09007KT 9999 SCT030 BKN070 26/17 A3000 RMK PCPN DST NE NOSIG=
201111201700 METAR MROC 201700Z 24009KT 9999 SCT030 BKN080 24/19 A2998 RMK PCPN DST NE NOSIG=
201111201800 METAR MROC 201800Z 25006KT 9999 SCT025 BKN090 25/20 A2996 NOSIG=
201111201900 METAR MROC 201900Z 26009KT 9999 SCT025 BKN090 24/20 A2994 NOSIG=
201111202000 METAR MROC 202000Z 24008KT 9999 BKN025 25/21 A2991 BECMG 8000 SHRA=
201111202100 METAR MROC 202100Z 22006KT 9999 FEW015TCU SCT025 23/20 A2991 NOSIG=
201111202200 METAR MROC NIL=
201111202300 METAR MROC 202300Z 26006KT 9999 VCFG FEW004 SCT010 BKN020 21/20 A2995 BECMG 5000 BR=
201111210000 METAR MROC 210000Z 24003KT 9999 FEW004 SCT010 BKN020 21/20 A2997 BECMG 5000=
201111210100 METAR MROC 210100Z 24002KT 9999 FEW025 SCT250 20/20 A3000 NOSIG=
201111210200 METAR MROC 210200Z 22002KT 0500 FG VV/// 20/20 A3002 NOSIG=
201111210300 METAR MROC 210300Z 03004KT 9999 FEW008 20/20 A3003 NOSIG=
201111210400 METAR MROC NIL=
201111210500 METAR MROC 210500Z 05003KT CAVOK 20/17 A3001 NOSIG=
201111210600 METAR MROC 210600Z 06003KT CAVOK 21/17 A3001 NOSIG=
201111210700 METAR MROC 210700Z 02003KT CAVOK 20/17 A2998 NOSIG=
201111210800 METAR MROC 210800Z 08003KT CAVOK 20/17 A2996 NOSIG=
201111210900 METAR MROC 210900Z 09004KT CAVOK 20/17 A2995 NOSIG=
201111211000 METAR MROC 211000Z 09003KT CAVOK 19/16 A2996 NOSIG=
201111211100 METAR MROC 211100Z 05004KT CAVOK 19/16 A2997 NOSIG=
201111211200 METAR MROC 211200Z 04002KT CAVOK 20/16 A2998 NOSIG=
201111211300 METAR MROC 211300Z 03005KT 9999 FEW030 SCT080 22/17 A3002 NOSIG=
201111211400 METAR MROC 211400Z 31005KT 9999 FEW030 SCT100 23/17 A3005 NOSIG=
201111211500 METAR MROC 211500Z 09008KT 9999 FEW030 SCT100 26/17 A3003 NOSIG=
201111211600 METAR MROC 211600Z 10011KT 9999 FEW030 SCT100 26/17 A3001 NOSIG=
201111211700 METAR MROC 211700Z 10008KT 9999 FEW030 SCT100 27/18 A2998 NOSIG=
201111211800 METAR MROC 211800Z 11010KT 9999 -RA SCT030 BKN100 22/18 A2996 NOSIG=
201111211900 METAR MROC 211900Z 12006KT 9999 FEW030 BKN100 25/19 A2994 NOSIG=
201111212000 METAR MROC 212000Z 13006KT 9999 FEW030 BKN100 24/18 A2992 NOSIG=
201111212100 METAR MROC 212100Z 09008KT 9999 VCFG FEW030 BKN100 24/16 A2991 NOSIG=
201111212200 METAR MROC 212200Z 20002KT 9999 FEW030 BKN100 22/19 A2992 NOSIG=
201111212300 METAR MROC 212300Z 00000KT 9999 FEW030 BKN100 22/19 A2992 NOSIG=
201111220000 METAR MROC 220000Z 18002KT 9999 FEW030 BKN100 22/19 A2994 NOSIG=
201111220100 METAR MROC 220100Z 12008KT 9999 FEW030 BKN100 21/17 A2996 NOSIG=
201111220200 METAR MROC 220200Z 09011KT 9999 FEW030 SCT100 BKN250 21/17 A2999 NOSIG=
201111220300 METAR MROC 220300Z 10008KT 9999 FEW030 SCT100 BKN250 21/20 A3000 NOSIG=
201111220400 METAR MROC 220400Z 09006KT 9999 SCT030 BKN250 21/17 A3002 NOSIG=
201111220500 METAR MROC 220500Z 34003KT 9999 SCT040 SCT250 21/17 A3002 NOSIG=
201111220600 METAR MROC 220600Z 10002KT 9999 SCT040 20/17 A3000 NOSIG=
201111220700 METAR MROC 220700Z 00000KT 9999 SCT040 21/17 A2998 NOSIG=
201111220800 METAR MROC 220800Z 10005KT 9999 SCT045 20/17 A2994 NOSIG=
201111220900 METAR MROC 220900Z 10008KT 9999 FEW030 SCT070 20/16 A2994 NOSIG=
201111221000 METAR MROC 221000Z 10007KT 9999 FEW030 SCT070 20/15 A2994 NOSIG=
201111221100 METAR MROC 221100Z 10010KT 9999 FEW030 SCT070 20/15 A2997 NOSIG=
201111221200 METAR MROC 221200Z 11010KT CAVOK 20/15 A2998 RMK BKN070 NOSIG=
201111221300 METAR MROC 221300Z 23003KT 9999 SCT025 SCT080 24/21 A2996=
201111221400 METAR MROC 221400Z 09012KT CAVOK 23/15 A3004 NOSIG=
201111221500 METAR MROC 221500Z 12007KT CAVOK 25/15 A3003 NOSIG=
201111221600 METAR MROC NIL=
201111221700 METAR MROC 221700Z 09005KT 9999 FEW040 SCT120 BKN250 28/15 A3000 NOSIG=
201111221800 METAR MROC 221800Z 24008KT 9999 FEW040 SCT120 BKN250 24/20 A2997 NOSIG=
201111221900 METAR MROC 221900Z 25010KT 9999 SCT030 BKN120 25/20 A2995 NOSIG=
201111222000 METAR MROC 222000Z 26009KT 9999 SCT030 BKN120 24/19 A2993 NOSIG=
201111222100 METAR MROC 222100Z 22004KT 9999 VCSH SCT030 BKN080 25/19 A2992 NOSIG=
201111222200 METAR MROC 222200Z 21005KT 9999 FEW020 SCT035 BKN100 24/20 A2992 NOSIG=
201111222300 METAR MROC 222300Z 13005KT 9999 VCSH FEW015TCU SCT035 BKN110 23/17 A2993 NOSIG=
201111230000 METAR MROC 230000Z 11003KT 9999 FEW020 SCT035 BKN100 22/17 A2996 NOSIG=
201111230100 METAR MROC 230100Z 09003KT 9999 FEW006 SCT040 BKN060 22/18 A3000 NOSIG=
201111230200 METAR MROC 230200Z 12004KT CAVOK 21/17 A3003 NOSIG=
201111230300 METAR MROC NIL=
201111230400 METAR MROC 230400Z 11006KT CAVOK 21/16 A3005 NOSIG=
201111230500 METAR MROC 230500Z 12006KT CAVOK 20/17 A3004 NOSIG=
201111230600 METAR MROC 230600Z 11007KT CAVOK 20/17 A3002 NOSIG=
201111230700 METAR MROC 230700Z 12006KT CAVOK 20/16 A2999 NOSIG=
201111230800 METAR MROC 230800Z 10006KT CAVOK 20/16 A2998 NOSIG=
201111230900 METAR MROC 230900Z 08005KT CAVOK 20/16 A2997 NOSIG=
201111231000 METAR MROC 231000Z 04005KT CAVOK 20/16 A2998 NOSIG=
201111231100 METAR MROC 231100Z 08003KT CAVOK 20/16 A2999 NOSIG=
201111231200 METAR MROC 231200Z 07005KT 9999 FEW030 20/16 A3001 NOSIG=
201111231300 METAR MROC 231300Z 02005KT 9999 FEW040 22/17 A3003 NOSIG=
201111231400 METAR MROC 231400Z 11008KT 9999 FEW045 24/17 A3004 NOSIG=
201111231500 METAR MROC 231500Z 12007KT 9999 FEW045 SCT080 26/17 A3005 NOSIG=
201111231600 METAR MROC 231600Z 09008KT 9999 SCT040 BKN080 26/17 A3004 NOSIG=
201111231700 METAR MROC 231700Z 11010KT 9999 SCT045 BKN120 26/17 A3002 NOSIG=
201111231800 METAR MROC 231800Z 14005KT 9999 FEW025TCU SCT045 BKN120 26/17 A2999 BECMG 24007KT=
201111231900 METAR MROC 231900Z 24007KT 8000 -SHRA FEW010TCU SCT060 BKN100 24/20 A2997 BECMG 5000 RA BR=
201111232000 METAR MROC 232000Z 25008KT 9999 SHRA VCSH FEW012TCU SCT035 BKN100 23/21 A2995 BECMG 7000 -RA BKN025=
201111232100 METAR MROC 232100Z 29003KT 9999 3000SW RA FEW010CB SCT030 BKN100 20/19 A2996 NOSIG=
201111232200 METAR MROC 232200Z 25003KT 9999 SCT030 BKN100 21/19 A2995 NOSIG=
201111232300 METAR MROC 232300Z 20003KT 9999 FEW030 SCT100 BKN250 21/19 A2996 NOSIG=
201111232356 METAR MROC 240100Z 02003KT 9999 FEW035 BKN100 21/17 A3002 NOSIG=
201111240000 METAR MROC 240000Z 09004KT 9999 FEW035 SCT100 20/18 A3000 NOSIG=
201111240100 METAR MROC 240100Z 02003KT 9999 FEW035 BKN100 21/17 A3002 NOSIG=
201111240200 METAR MROC 240200Z 29503KT 9999 FEW035 BKN100 21/18 A3003 NOSIG=
201111240300 METAR MROC 240300Z 11003KT 9999 FEW030 SCT110 20/18 A3006 NOSIG=
201111240400 METAR MROC 240400Z 03006KT 9999 FEW030 SCT110 20/17 A3006 NOSIG=
201111240500 METAR MROC 240500Z 11008KT 9999 FEW030 SCT110 20/17 A3004 NOSIG=
201111240600 METAR MROC 240600Z 09006KT 9999 FEW020 SCT120 20/17 A3004 NOSIG=
201111240700 METAR MROC 240700Z 09005KT 9999 FEW020 SCT120 20/17 A3001 NOSIG=
201111240800 METAR MROC 240800Z 08004KT 9999 FEW020 SCT120 20/17 A2999 NOSIG=
201111240900 METAR MROC 240900Z 09006KT 9999 FEW020 BKN120 20/17 A2998 NOSIG=
201111241000 METAR MROC 241000Z 11003KT 9999 FEW020 BKN120 21/17 A2998 NOSIG=
201111241100 METAR MROC 241100Z 06003KT 9999 FEW020 BKN120 19/18 A2999 NOSIG=
201111241200 METAR MROC 241200Z 11003KT 9999 SCT020 BKN100 20/17 A3000 NOSIG=
201111241300 METAR MROC NIL=
201111241400 METAR MROC NIL=
201111241500 METAR MROC NIL=
201111241600 METAR MROC 241600Z 13004KT 9999 FEW035 BKN120 22/19 A3005 NOSIG=
201111241700 METAR MROC 241700Z 12003KT 9999 SCT030 BKN120 23/18 A3002 NOSIG=
201111241800 METAR MROC 241800Z 15004KT 9999 -RA SCT035 BKN100 23/18 A3001 NOSIG=
201111241900 METAR MROC 241900Z 31002KT 9999 -DZ SCT035 BKN100 23/18 A2999 NOSIG=
201111242000 METAR MROC 242000Z 25002KT 9999 SCT040 SCT120 25/18 A2996 NOSIG=
201111242100 METAR MROC 242100Z 16002KT 9999 SCT030 SCT110 24/18 A2994 NOSIG=
201111242200 METAR MROC NIL=
201111242300 METAR MROC 242300Z 11008KT 9999 SCT025 BKN110 22/17 A2997 NOSIG=
201111250000 METAR MROC 250000Z 10005KT 9999 FEW025 BKN110 21/17 A2999 NOSIG=
201111250100 METAR MROC 250100Z 10005KT 9999 FEW025 BKN110 21/17 A3003 NOSIG=
201111250200 METAR MROC 250200Z 07008KT 9999 -DZ FEW010 BKN100 21/17 A3005 NOSIG=
201111250300 METAR MROC 250300Z 09007KT 9999 DZ FEW010 BKN030 20/17 A3007 BECMG 8000 RA=
201111250400 METAR MROC 250400Z 08005KT 9999 -RA SCT025 BKN070 19/18 A3007 NOSIG=
201111250500 METAR MROC 250500Z 06006KT 9999 -RA SCT035 BKN080 19/17 A3004 NOSIG=
201111250600 METAR MROC 250600Z 09006KT CAVOK 20/17 A3002 NOSIG=
201111250700 METAR MROC 250700Z 09007KT 9999 -RA SCT025 BKN080 20/17 A2999 NOSIG=
201111250800 METAR MROC 250800Z 10007KT CAVOK 20/17 A2996 NOSIG=
201111250900 METAR MROC 250900Z 08005KT CAVOK 20/17 A2996 NOSIG=
201111251000 METAR MROC 251000Z 10007KT 9999 FEW030 BKN150 21/17 A2996 NOSIG=
201111251100 METAR MROC 251100Z 08005KT 9999 -DZ FEW035 BKN120 21/17 A2997 NOSIG=
201111251200 METAR MROC 251200Z 10007KT 9999 -DZ FEW040 SCT080 BKN150 21/17 A2997 NOSIG=
201111251300 METAR MROC 251300Z 06004KT 9999 FEW030 BKN120 21/17 A3000 NOSIG=
201111251400 METAR MROC NIL=
201111251500 METAR MROC NIL=
201111251600 METAR MROC NIL=
201111251700 METAR MROC 251700Z 10005KT 9999 SCT030 BKN110 24/18 A2998 NOSIG=
201111251800 METAR MROC 251800Z 12006KT 9999 SCT030 BKN110 25/18 A2996 RMK RA DST NE E SE NOSIG=
201111251900 METAR MROC 251900Z 24006KT 9999 SCT030 BKN110 22/19 A2995 NOSIG=
201111252000 METAR MROC 252000Z 25006KT 9999 -RA SCT025 BKN100 22/20 A2992 NOSIG=
201111252100 METAR MROC 252100Z 26005KT 9999 -DZ FEW012 BKN080 22/20 A2991 NOSIG=
201111252200 METAR MROC 252200Z 25004KT 9999 4000N -RADZ FEW004 SCT012 BKN080 22/20 A2991 NOSIG=
201111252300 METAR MROC 252300Z 24005KT 3000 RA BR FEW001 SCT010 OVC060 21/20 A2992 BECMG 0800 FG=
201111260000 METAR MROC 260000Z 23006KT 3000 RA BR SCT001 BKN002 20/20 A2994 BECMG 0800 FG VV///=
201111260100 METAR MROC 260100Z 22004KT 4000 RA BR SCT005 OVC010 20/20 A2997 NOSIG=
201111260200 METAR MROC 260200Z 30006KT 5000 -RA FEW008 OVC080 20/20 A2999 NOSIG=
201111260300 METAR MROC 260300Z 22003KT 5000 RA BR SCT003 BKN010 20/20 A3001 NOSIG=
201111260400 METAR MROC 260400Z 22002KT 4000 DZ BR SCT003 BKN008 20/20 A3001 NOSIG=
201111260500 METAR MROC 260500Z 28002KT 7000 DZ VCFG FEW003 SCT008 BKN080 20/20 A3000 NOSIG=
201111260600 METAR MROC 260600Z 00000KT 1300 BR FEW001 SCT003 BKN010 20/19 A2998 NOSIG=
201111260700 METAR MROC 260700Z 00000KT 9999 FEW030 BKN120 20/19 A2997 NOSIG=
201111260800 METAR MROC 260800Z 02004KT 9999 FEW040 BKN120 19/19 A2993 NOSIG=
201111260900 METAR MROC 260900Z 10003KT CAVOK 19/18 A2991 NOSIG=
201111261000 METAR MROC 261000Z 12006KT 9999 FEW045 SCT120 20/18 A2991 NOSIG=
201111261100 METAR MROC 261100Z 30002KT 9999 FEW040 SCT120 19/18 A2994 NOSIG=
201111261200 METAR MROC 261200Z 02003KT 9999 FEW030 SCT250 18/18 A2995 NOSIG=
201111261300 METAR MROC 261300Z 04002KT 9999 FEW001 BKN120 20/18 A2998 NOSIG=
201111261400 METAR MROC 261400Z 02003KT 9999 FEW001 SCT120 23/19 A3000 NOSIG=
201111261409 METAR MROC 241400Z 02003KT 9999 FEW001 SCT120 23/19 A3000 NOSIG=
201111261415 METAR MROC 241400Z 02003KT 9999 FEW001 SCT120 23/19 A3000 NOSIG=
201111261500 METAR MROC 261500Z 06004KT 9999 FEW030 SCT120 25/18 A2998 NOSIG=
201111261600 METAR MROC 261600Z 13002KT 9999 FEW030 BKN130 27/18 A2997 NOSIG=
201111261700 METAR MROC 261700Z 24009KT 9999 FEW025TCU SCT040 25/20 A2995 BECMG -SHRA=
201111261800 METAR MROC 261800Z 24009KT 9999 FEW020CB BKN100 24/21 A2993 BECMG 8000 RA SCT010CB OVC040=
201111261900 METAR MROC 261900Z 24008KT 9999 FEW010CB SCT018 BKN080 24/20 A2991 BECMG 5000 TSRA FEW010CB OVC015=
201111262000 METAR MROC 262000Z 23008KT 9999 VCSH FEW001 SCT012CB BKN080 23/21 A2989 BECMG 5000 TSRA SCT010CB OVC015=
201111262100 METAR MROC 262100Z 240008KT 1000 RA BR SCT001 BKN010CB 21/20 A2989 NOSIG=
201111262200 METAR MROC 262200Z 23005KT 2000 -RA BR SCT001 BKN015 21/20 A2990 BECMG 1000 -DZ BR=
201111262300 METAR MROC 262300Z 23003KT 2000 -RA BR SCT001 BKN015 21/20 A2990 BECMG 1000 -DZ BR=
201111270000 METAR MROC 270000Z 21003KT 2000 BR SCT001 BKN015 20/20 A2992 BECMG 1000 BR=
201111270100 METAR MROC 270100Z 34002KT 8000 VCFG FEW001 SCT015 BKN100 21/20 A2993 NOSIG=
201111270200 METAR MROC 270200Z 00000KT 8000 VCFG FEW001 SCT015 BKN100 20/20 A2993 NOSIG=
201111270300 METAR MROC 270300Z 00000KT 9999 4000W BR FEW001 SCT020 BKN100 20/20 A2994 BECMG 8000 VCFG=
201111270400 METAR MROC 240400Z 34003KT 0800 FG SCT001 SCT020 20/19 A2994 RMK SCT100 UNL SE BECMG 0200 FG=
201111270500 METAR MROC 270500Z 00000KT 1200 BR SCT001 19/19 A2994 NOSIG=
201111270600 METAR MROC 270600Z 29002KT 1000 BR SCT001 19/19 A2992 RMK VIS SE 8000 NOSIG=
201111270700 METAR MROC 270700Z 04004KT 9999 2000W BR FEW001 18/18 A2990 BECMG 8000 VCFG=
201111270800 METAR MROC 270800Z 03003KT 9999 FEW001 SCT030 18/18 A2987 NOSIG=
201111270900 METAR MROC 270900Z 07002KT 9999 FEW001 SCT030 20/17 A2985 NOSIG=
201111271000 METAR MROC 271000Z 03003KT CAVOK 18/17 A2984 NOSIG=
201111271100 METAR MROC 271100Z 06003KT CAVOK 17/16 A2986 NOSIG=
201111271200 METAR MROC 271200Z 04002KT 9999 FEW030 SCT090 18/17 A2989 NOSIG=
201111271300 METAR MROC 271300Z 07004KT 9999 FEW030 22/19 A2994 NOSIG=
201111271400 METAR MROC 271400Z 03005KT 9999 FEW030 24/19 A2995 NOSIG=
201111271500 METAR MROC 271500Z 11005KT 9999 FEW035 25/19 A2993 BECMG 22006KT=
201111271600 METAR MROC 271600Z VRB02KT 9999 SCT030 27/18 A2992 BECMG 22006KT=
201111271700 METAR MROC 271700Z 13006KT 9999 SCT030 25/18 A2991 NOSIG=
201111271800 METAR MROC 271800Z 22008KT 9999 FEW015TCU SCT030 25/21 A2989 NOSIG=
201111271900 METAR MROC 271900Z 24008KT 9999 FEW010 BKN030 24/21 A2988 NOSIG=
201111272000 METAR MROC 272000Z 25008KT 9999 FEW010 BKN030 25/22 A2986 BECMG 5000 BR=
201111272100 METAR MROC 272100Z 24007KT 9000 -SHRA FEW010TCU BKN030 23/21 A2985 BECMG 7000 -SHRA=
201111272200 METAR MROC 272200Z 24006KT 7000 3000NE -SHRA FEW008TCU BKN020 22/21 A2985 BECMG 5000 -RA BR=
201111272300 METAR MROC 272300Z 25005KT 1200 BR SCT001 BKN010 21/21 A2987 BECMG 0900 FG BKN008=
201111280000 METAR MROC 280000Z 24003KT 3000 BR FEW001 SCT008 BKN030 21/20 A2988 BECMG 7000=
201111280100 METAR MROC 280100Z 27003KT 8000 3000SW VCFG FEW001 BKN025 21/20 A2991 NOSIG=
201111280200 METAR MROC 280200Z 08002KT 9999 FEW030 BKN080 21/19 A2993 NOSIG=
201111280300 METAR MROC 280300Z COR 11003KT 9999 -RADZ FEW001 SCT080 21/19 A2994 NOSIG=
201111280400 METAR MROC 280400Z 02003KT 9999 FEW001 21/19 A2994 NOSIG=
201111280500 METAR MROC 280500Z 11007KT 9999 FEW001 BKN080 21/18 A2994 NOSIG=
201111280600 METAR MROC 280600Z 08004KT 9999 VCFG FEW001 BKN080 21/18 A2993 NOSIG=
201111280700 METAR MROC 280700Z 04004KT 9999 FEW020 SCT080 20/18 A2991 NOSIG=
201111280800 METAR MROC 280800Z 06006KT 9999 FEW020 SCT080 21/18 A2989 NOSIG=
201111280900 METAR MROC 280900Z 14004KT 9999 FEW020 SCT080 21/17 A2988 NOSIG=
201111281000 METAR MROC 281000Z 17003KT 9999 FEW020 SCT080 21/17 A2988 NOSIG=
201111281100 METAR MROC 281100Z 04004KT 9999 FEW020 SCT080 21/17 A2989 NOSIG=
201111281200 METAR COR MROC 281200Z 11007KT 9999 FEW020 22/16 A2990 NOSIG=
201111281300 METAR MROC 281300Z 02005KT 9999 FEW040 SCT100 23/18 A2992 NOSIG=
201111281400 METAR MROC 281400Z 08008KT 9999 SCT045 SCT100 24/17 A2994 NOSIG=
201111281500 METAR MROC 281500Z 09007KT 9999 FEW040 SCT080 25/16 A2994 NOSIG=
201111281600 METAR MROC 281600Z 10007KT 9999 SCT040 26/17 A2995 NOSIG=
201111281700 METAR MROC 281700Z 10009KT 9999 SCT040 SCT080 26/16 A2993 NOSIG=
201111281800 METAR MROC 281800Z 11010KT 9999 VCSH FEW020 SCT040 BKN080 23/18 A2992 BECMG -RA=
201111281900 METAR MROC 281900Z 11011KT 9999 FEW040 SCT060 BKN120 24/17 A2987 NOSIG=
201111282000 METAR MROC 282000Z 08008KT 9999 -DZ FEW040 SCT080 BKN120 24/16 A2989 NOSIG=
201111282100 METAR MROC 282100Z 11006KT 9999 FEW035 BKN090 23/17 A2988 NOSIG=
201111282200 METAR MROC 282200Z 12005KT 9999 SCT035 BKN100 22/17 A2989 NOSIG=
201111282300 METAR MROC 282300Z 12004KT 9999 FEW040 BKN120 22/17 A2991 NOSIG=
201111290000 METAR MROC 290000Z 10005KT 9999 FEW040 SCT120 21/16 A2993 NOSIG=
201111290100 METAR MROC 290100Z 15002KT 9999 FEW040 SCT120 21/15 A2995 NOSIG=
201111290200 METAR MROC 290200Z 11008KT CAVOK 20/16 A2998 NOSIG=
201111290300 METAR MROC 290300Z 09013KT CAVOK 21/15 A2998 NOSIG=
201111290400 METAR MROC 290400Z 11012KT CAVOK 21/14 A2999 NOSIG=
201111290500 METAR MROC 290500Z 09006KT CAVOK 20/14 A2999 NOSIG=
201111290600 METAR MROC 290600Z 10008KT CAVOK 19/13 A2999 NOSIG=
201111290700 METAR MROC 290700Z 07005KT CAVOK 18/14 A2997 NOSIG=
201111290800 METAR MROC 290800Z 10008KT CAVOK 19/14 A2995 NOSIG=
201111290900 METAR MROC 290900Z 08005KT CAVOK 18/15 A2994 NOSIG=
201111291000 METAR MROC 291000Z 12007KT CAVOK 19/15 A2994 NOSIG=
201111291100 METAR MROC 291100Z 11005KT 9999 FEW040 19/15 A2996 NOSIG=
201111291200 METAR MROC 291200Z 12006KT 9999 FEW040 19/15 A2998 NOSIG=
201111291300 METAR MROC 291300Z 11006KT 9999 FEW040 21/15 A3000 NOSIG=
201111291400 METAR MROC 291400Z 08007KT 9999 FEW040 22/15 A3001 NOSIG=
201111291500 METAR MROC 291500Z 10009KT CAVOK 23/14 A3001 NOSIG=
201111291600 METAR MROC 291600Z 13008KT CAVOK 24/15 A3000 NOSIG=
201111291700 METAR MROC NIL=
201111291800 METAR MROC NIL=
201111291900 METAR MROC 291900Z 12010G20KT 9999 FEW035 24/16 A2994 NOSIG=
201111292000 METAR MROC NIL=
201111292100 METAR MROC 292100Z 13012KT 9999 FEW035 23/16 A2991 NOSIG=
201111292200 METAR MROC 292200Z 13012KT 9999 FEW035 22/15 A2992 NOSIG=
201111292300 METAR MROC 292300Z 12008KT 9999 FEW030 21/16 A2995 NOSIG=
201111300000 METAR MROC 300000Z 10009KT 9999 FEW025 20/16 A2997 NOSIG=
201111300100 METAR MROC 300100Z 10011KT 9999 FEW025 20/16 A3000 NOSIG=
201111300200 METAR MROC 300200Z 08006KT 9999 FEW025 20/16 A3001 NOSIG=
201111300300 METAR MROC 300300Z 11009KT 9999 FEW035 20/16 A3002 NOSIG=
201111300400 METAR MROC 300400Z 08006KT 9999 FEW035 19/16 A3004 NOSIG=
201111300500 METAR MROC 300500Z 07005KT 9999 FEW035 19/16 A3002 NOSIG=
201111300600 METAR MROC 300600Z 09006KT 9999 FEW040 19/16 A3000 NOSIG=
201111300700 METAR MROC 300700Z 07006KT 9999 FEW040 19/16 A2998 NOSIG=
201111300800 METAR MROC 300800Z 06009KT CAVOK 18/15 A2997 NOSIG=
201111300900 METAR MROC 300900Z 06008KT CAVOK 18/15 A2995 NOSIG=
201111301000 METAR MROC 301000Z 06005KT CAVOK 19/15 A2996 NOSIG=
201111301100 METAR MROC 301100Z 07004KT 9999 FEW035 18/15 A2997 NOSIG=
201111301200 METAR MROC 301200Z 05007KT 9999 FEW040 18/15 A2998 NOSIG=
201111301300 METAR MROC 301300Z 09003KT 9999 FEW035 21/15 A3001 NOSIG=
201111301400 METAR MROC 301400Z 09008KT 9999 FEW035 22/16 A3002 NOSIG=
201111301500 METAR MROC 301500Z 11012KT 9999 FEW030 23/15 A3001 NOSIG=
201111301600 METAR MROC 301600Z 10010KT 9999 SCT030 24/16 A3000 NOSIG=
201111301700 METAR MROC 301700Z 10010KT 9999 SCT030 24/16 A2998 NOSIG=
201111301800 METAR MROC 301800Z 13009KT 9999 SCT030 25/16 A2995 NOSIG=
201111301900 METAR MROC 301900Z 16006KT 9999 SCT030 24/16 A2994 NOSIG=
201111302000 METAR MROC 302000Z 13009KT 9999 SCT030 24/16 A2991 NOSIG=
201111302100 METAR MROC 302100Z 12010KT 9999 FEW030 24/16 A2991 NOSIG=
201111302200 METAR MROC 302200Z 11009KT 9999 FEW030 23/15 A2992 NOSIG=
201111302300 METAR MROC 302300Z 12010KT 9999 FEW030 21/16 A2994 NOSIG=
201112010000 METAR MROC 010000Z 11010KT 9999 FEW030 20/16 A2997 NOSIG=
201112010100 METAR MROC 010100Z 08005KT 9999 FEW030 20/16 A3000 NOSIG=
201112010200 METAR MROC 010200Z 10009KT 9999 SCT030 20/16 A3000 NOSIG=
201112010300 METAR MROC 010300Z 10009KT 9999 FEW030 20/16 A3002 NOSIG=
201112010400 METAR MROC 010400Z 11008KT 9999 FEW040 20/16 A3002 NOSIG=
201112010500 METAR MROC 010500Z 10007KT 9999 FEW040 20/16 A3001 NOSIG=
201112010600 METAR MROC 010600Z 08006KT 9999 FEW040 20/16 A2999 NOSIG=
201112010700 METAR MROC 010700Z 08007KT 9999 FEW040 19/16 A2998 NOSIG=
201112010800 METAR MROC 010800Z 10004KT 9999 FEW040 19/15 A2995 NOSIG=
201112010900 METAR MROC 010900Z 08005KT CAVOK 19/14 A2995 NOSIG=
201112011000 METAR MROC 011000Z 09008KT 9999 FEW040 20/14 A2996 NOSIG=
201112011100 METAR MROC 011100Z 10007KT 9999 FEW040 19/14 A2997 NOSIG=
201112011200 METAR MROC 011200Z 10009KT 9999 FEW035 19/14 A2997 NOSIG=
201112011300 METAR MROC 011300Z 07006KT 9999 SCT030 20/14 A3001 NOSIG=
201112011400 METAR MROC 011400Z 08007KT 9999 SCT030 21/15 A3002 NOSIG=
201112011500 METAR MROC 011500Z 11006KT 9999 SCT030 SCT250 22/15 A3002 NOSIG=
201112011600 METAR MROC 011600Z 10010KT 9999 FEW030 SCT060 22/15 A3001 NOSIG=
201112011700 METAR MROC 011700Z 12008KT 9999 FEW030 SCT050 24/15 A2999 NOSIG=
201112011800 METAR MROC 011800Z 11008KT 9999 FEW030 SCT050 24/16 A2997 NOSIG=
201112011900 METAR MROC 011900Z 12009KT 9999 FEW030 SCT050 23/15 A2994 NOSIG=
201112012000 METAR MROC 012000Z 12007KT 9999 FEW030 SCT050 23/15 A2992 NOSIG=
201112012100 METAR MROC 012100Z 33004KT 9999 FEW045 BKN060 25/15 A2992 NOSIG=
201112012200 METAR MROC 012200Z 04007KT 9999 FEW045 SCT120 22/14 A2993 NOSIG=
201112012300 METAR MROC 012300Z 11006KT 9999 FEW045 SCT080 22/14 A2994 NOSIG=
201112012357 METAR MROC 020000Z 09004KT 9999 FEW035 SCT050 20/15 A2996 NOSIG=
201112020000 METAR MROC 020000Z 09004KT 9999 FEW035 SCT050 20/15 A2996 NOSIG=
201112020100 METAR MROC 020100Z 07010KT 9999 FEW035 19/14 A2999 NOSIG=
201112020200 METAR MROC 020200Z 08006KT 9999 FEW035 19/13 A3001 NOSIG=
201112020300 METAR MROC 020300Z 10010KT 9999 FEW035 19/14 A3002 NOSIG=
201112020400 METAR MROC 020400Z 08014KT 9999 FEW035 18/13 A3002 NOSIG=
201112020500 METAR MROC 020500Z 10012KT 9999 FEW030 18/13 A3002 NOSIG=
201112020600 METAR MROC 020600Z 10011KT 9999 FEW030 18/13 A3002 NOSIG=
201112020700 METAR MROC 020700Z 09008KT 9999 FEW030 18/13 A3001 NOSIG=
201112020800 METAR MROC 020800Z 12006KT 9999 FEW030 18/13 A3000 NOSIG=
201112020900 METAR MROC 020900Z 14004KT 9999 FEW030 18/14 A2999 NOSIG=
201112021000 METAR MROC 021000Z 10005KT CAVOK 18/14 A2999 NOSIG=
201112021100 METAR MROC 021100Z 10008KT CAVOK 18/13 A3000 NOSIG=
201112021200 METAR MROC 021200Z 08006KT 9999 FEW030 18/13 A3001 NOSIG=
201112021300 METAR MROC 021300Z 06006KT 9999 FEW040 20/13 A3003 NOSIG=
201112021400 METAR MROC 021400Z 08005KT 9999 FEW040 SCT120 23/14 A3005 NOSIG=
201112021500 METAR MROC 021500Z 11010KT 9999 FEW040 SCT120 23/15 A3003 NOSIG=
201112021600 METAR MROC 021600Z 09011KT 9999 FEW040 SCT120 24/14 A3003 NOSIG=
201112021700 METAR MROC 021700Z 07011KT 9999 FEW045 SCT150 26/15 A3002 NOSIG=
201112021800 METAR MROC 021800Z 08010G20KT 9999 SCT045 SCT200 25/15 A2998 NOSIG=
201112021900 METAR MROC 021900Z 09010KT 9999 SCT045 25/15 A2995 NOSIG=
201112022000 METAR MROC 022000Z 10009KT 9999 SCT045 SCT150 26/15 A2993 NOSIG=
201112022100 METAR MROC 022100Z 09011KT 9999 BKN040 23/16 A2993 NOSIG=
201112022200 METAR MROC 022200Z 09009KT 9999 FEW030 SCT040 22/16 A2994 NOSIG=
201112022300 METAR MROC 022300Z 16006KT 9999 FEW025 SCT045 20/13 A2996 NOSIG=
201112030000 METAR MROC 030000Z 13007KT 9999 FEW030 19/14 A2999 NOSIG=
201112030100 METAR COR MROC 030100Z 13005KT 9999 SCT045 19/12 A3002 NOSIG=
201112030200 METAR MROC 030200Z 11006KT 9999 FEW040 18/12 A3004 NOSIG=
201112030300 METAR MROC 030300Z 14006KT 9999 FEW040 18/13 A3005 NOSIG=
201112030400 METAR MROC 030400Z 09006KT 9999 FEW040 18/14 A3004 NOSIG=
201112030500 METAR MROC 030500Z 07003KT 9999 FEW040 18/14 A3004 NOSIG=
201112030600 METAR MROC 030600Z 07007KT 9999 FEW040 18/14 A3002 NOSIG=
201112030700 METAR MROC 030700Z 05005KT CAVOK 18/14 A3001 NOSIG=
201112030800 METAR MROC 030800Z 04009KT CAVOK 18/14 A2999 NOSIG=
201112030900 METAR MROC 030900Z 03007KT CAVOK 18/13 A2998 NOSIG=
201112031000 METAR MROC 031000Z 07005KT CAVOK 18/13 A2998 NOSIG=
201112031100 METAR MROC 031100Z 06006KT CAVOK 18/14 A2999 NOSIG=
201112031200 METAR MROC 031200Z 06007KT CAVOK 19/14 A3001 NOSIG=
201112031300 METAR MROC 031300Z 09007KT CAVOK 21/14 A3001 NOSIG=
201112031400 METAR MROC 031400Z 11011KT 9999 FEW045 22/14 A3002 NOSIG=
201112031500 METAR MROC 031500Z 10012G22KT CAVOK 24/14 A3001 NOSIG=
201112031600 METAR MROC 031600Z 09009KT CAVOK 25/15 A3000 NOSIG=
201112031700 METAR MROC 031700Z 09010KT 9999 FEW045 26/16 A2998 NOSIG=
201112031800 METAR MROC 031800Z 10010KT 9999 FEW045 26/15 A2995 NOSIG=
201112031900 METAR MROC 031900Z 11010KT 9999 SCT045 SCT120 26/15 A2992 NOSIG=
201112032000 METAR MROC 032000Z 11008KT 9999 SCT045 SCT120 25/16 A2990 NOSIG=
201112032100 METAR MROC 032100Z 13007KT 9999 FEW035 26/16 A2989 NOSIG=
201112032200 METAR MROC 032200Z 13009KT 9999 SCT040 25/16 A2989 NOSIG=
201112032300 METAR MROC 032300Z 11003KT 9999 FEW040 SCT120 23/17 A2991 NOSIG=
201112040000 METAR MROC 040000Z 14006KT 9999 FEW040 SCT120 21/16 A2993 NOSIG=
201112040100 METAR MROC 040100Z 13002KT 9999 FEW040 SCT120 21/17 A2996 NOSIG=
201112040200 METAR MROC 040200Z 11003KT CAVOK 20/17 A2998 NOSIG=
201112040300 METAR MROC 040300Z 09007KT CAVOK 21/17 A2999 NOSIG=
201112040400 METAR MROC 040400Z 07003KT CAVOK 20/17 A2999 NOSIG=
201112040500 METAR MROC 040500Z 08004KT CAVOK 21/17 A2997 NOSIG=
201112040600 METAR MROC 040600Z 07006KT CAVOK 21/16 A2996 NOSIG=
201112040700 METAR MROC 040700Z 07010KT CAVOK 20/16 A2994 NOSIG=
201112040800 METAR MROC 040800Z 08006KT CAVOK 20/16 A2991 RMK FEW100 NOSIG=
201112040900 METAR MROC 040900Z 09006KT CAVOK 20/16 A2991 NOSIG=
201112041000 METAR MROC 041000Z 07006KT CAVOK 20/15 A2992 NOSIG=
201112041100 METAR MROC 041100Z 10005KT CAVOK 20/15 A2993 NOSIG=
201112041200 METAR MROC 041200Z 11005KT CAVOK 19/15 A2995 NOSIG=
201112041300 METAR MROC 041300Z 04005KT CAVOK 22/15 A2996 NOSIG=
201112041400 METAR MROC 041400Z 11005KT CAVOK 24/16 A2997 NOSIG=
201112041500 METAR MROC 041500Z 09007KT CAVOK 25/16 A2996 NOSIG=
201112041600 METAR MROC 041600Z 12007KT CAVOK 27/16 A2995 NOSIG=
201112041700 METAR MROC 041700Z 12008KT 9999 FEW045 27/16 A2993 NOSIG=
201112041800 METAR MROC 041800Z 13007KT 9999 FEW045 28/16 A2992 NOSIG=
201112041900 METAR MROC 041900Z 24010KT 9999 SCT035 24/19 A2988 NOSIG=
201112042000 METAR MROC 042000Z 36010KT 9999 FEW025 BKN080 28/22 A2982=
201112042100 METAR MROC 042100Z 23009KT 9999 SCT030 25/20 A2986 NOSIG=
201112042200 METAR MROC 042200Z 23007KT 9999 SCT025 SCT250 24/20 A2985 NOSIG=
201112042300 METAR MROC 042300Z 23006KT 9999 FEW010 SCT020 22/20 A2987 BECMG 5000 BR=
201112050000 METAR MROC 050000Z 26005KT 9999 SCT008 BKN020 21/20 A2990 BECMG 8000 VCFG=
201112050100 METAR MROC 050100Z 30004KT 9999 -RA VCFG FEW002 SCT012 BKN020 21/20 A2993 BECMG 09005KT=
201112050200 METAR MROC 050200Z 34002KT 9999 FEW002 SCT030 21/19 A2995 BECMG 09005KT=
201112050300 METAR COR MROC 050300Z 27001KT 9999 FEW002 SCT025 21/19 A2997 BECMG 09005KT=
201112050400 METAR MROC 050400Z 08003KT 9999 FEW002 SCT035 20/18 A2997 NOSIG=
201112050500 METAR MROC 050500Z 07005KT 9999 FEW035 20/17 A2996 NOSIG=
201112050600 METAR COR MROC 050600Z 09004KT CAVOK 19/17 A2994 RMK SCT100 NOSIG=
201112050700 METAR MROC 050700Z 06003KT CAVOK 20/16 A2992 NOSIG=
201112050800 METAR MROC 050800Z 10003KT 9999 VCFG SCT035 19/16 A2991 NOSIG=
201112050900 METAR MROC 050900Z 07003KT 9999 VCFG SCT035 19/16 A2990 NOSIG=
201112051000 METAR MROC 051000Z 04007KT CAVOK 19/16 A2990 NOSIG=
201112051100 METAR MROC 051100Z 06006KT CAVOK 18/16 A2991 RMK FEW080 NOSIG=
201112051200 METAR MROC 051200Z 04007KT CAVOK 19/16 A2992 NOSIG=
201112051300 METAR MROC 051300Z 08006KT 9999 FEW035 22/17 A2994 NOSIG=
201112051400 METAR MROC 051400Z 07007KT 9999 FEW035 24/17 A2994 NOSIG=
201112051500 METAR MROC 051500Z 10007KT 9999 FEW035 25/17 A2994 NOSIG=
201112051600 METAR MROC 051600Z 10007KT 9999 FEW035 BKN120 25/16 A2993 NOSIG=
201112051700 METAR MROC 051700Z 12005KT 9999 FEW030 BKN110 26/17 A2991 NOSIG=
201112051800 METAR MROC 051800Z 13008KT 9999 SCT025 BKN100 25/17 A2989 NOSIG=
201112051900 METAR MROC 051900Z 11008KT 9999 SCT025 BKN100 25/18 A2988 NOSIG=
201112052000 METAR MROC 052000Z 13007KT 9999 SCT025 SCT100 25/17 A2985 NOSIG=
201112052100 METAR MROC 052100Z 10006KT 9999 SCT035 26/16 A2984 NOSIG=
201112052200 METAR MROC 052200Z 07005KT 9999 FEW025 SCT035 26/17 A2984 NOSIG=
201112052300 METAR MROC 052300Z 22005KT 9999 FEW020 SCT035 23/19 A2987 NOSIG=
201112060000 METAR MROC 060000Z 25005KT 9999 FEW008 SCT035 21/20 A2990 NOSIG=
201112060100 METAR MROC NIL=
201112060200 METAR MROC 060200Z 07010KT 9999 FEW030 20/15 A2994 NOSIG=
201112060300 METAR MROC 060300Z 08005KT CAVOK 20/16 A2997 NOSIG=
201112060400 METAR MROC 060400Z 04007KT CAVOK 20/15 A2997 NOSIG=
201112060500 METAR MROC 060500Z 08003KT CAVOK 19/15 A2996 NOSIG=
201112060600 METAR MROC 060600Z 07003KT CAVOK 19/15 A2995 NOSIG=
201112060700 METAR MROC 060700Z 07003KT CAVOK 18/15 A2994 NOSIG=
201112060800 METAR MROC 060800Z 09003KT CAVOK 18/15 A2992 NOSIG=
201112060900 METAR MROC 060900Z 04003KT CAVOK 19/15 A2992 NOSIG=
201112061000 METAR MROC 061000Z 06006KT CAVOK 20/15 A2991 NOSIG=
201112061100 METAR MROC 061100Z 09003KT CAVOK 20/15 A2992 NOSIG=
201112061200 METAR MROC 061200Z 11009KT CAVOK 20/14 A2993 NOSIG=
201112061300 METAR MROC 061300Z 09006KT CAVOK 21/14 A2995 NOSIG=
201112061400 METAR MROC NIL=
201112061500 METAR MROC 061500Z 11007KT CAVOK 24/15 A2997 NOSIG=
201112061600 METAR MROC 061600Z 11007KT CAVOK 24/14 A2996 NOSIG=
201112061700 METAR MROC 061700Z 10007KT CAVOK 25/15 A2993 NOSIG=
201112061800 METAR MROC NIL=
201112061900 METAR MROC 061900Z 13006KT 9999 FEW035 SCT100 27/15 A2988 BECMG 24006KT=
201112062000 METAR MROC 062000Z 11004KT 9999 FEW030 SCT070 26/15 A2986 BECMG 24005KT=
201112062100 METAR MROC 062100Z 23008KT 9999 FEW030 SCT050 SCT120 24/20 A2986 NOSIG=
201112062200 METAR MROC 062200Z 26006KT 8000 3000NW RA VCFG FEW015 SCT045 BKN080 22/19 A2988 NOSIG=
201112062300 METAR MROC 062300Z 22003KT 9999 3000NW RA FEW015 SCT045 BKN080 22/20 A2990 NOSIG=
201112062357 METAR MROC 070000Z 22003KT 9999 FEW015 SCT045 BKN120 21/20 A2992 RERA=
201112070000 METAR MROC 070000Z 22003KT 9999 FEW015 SCT045 BKN120 21/20 A2992 RERA=
201112070100 METAR MROC 070100Z 23002KT 9999 FEW040 SCT080 20/19 A2995 NOSIG=
201112070200 METAR MROC 070200Z 10002KT 9999 FEW045 SCT150 20/17 A2998 NOSIG=
201112070300 METAR MROC 070300Z 08003KT 9999 FEW030 SCT100 20/17 A3000 NOSIG=
201112070400 METAR MROC 070400Z 06004KT 9999 FEW030 SCT100 20/16 A3000 NOSIG=
201112070500 METAR MROC 070500Z 01002KT 9999 FEW030 SCT100 20/16 A3000 NOSIG=
201112070600 METAR MROC 070600Z 06005KT 9999 FEW030 SCT100 19/15 A2998 NOSIG=
201112070700 METAR MROC 070700Z 09004KT 9999 FEW030 SCT100 18/15 A2996 NOSIG=
201112070800 METAR MROC 070800Z 07008KT 9999 FEW030 19/15 A2995 NOSIG=
201112070900 METAR MROC 070900Z 06005KT 9999 FEW030 18/15 A2993 NOSIG=
201112071000 METAR MROC 071000Z 09005KT 9999 FEW030 18/14 A2994 NOSIG=
201112071100 METAR MROC 071100Z 10009KT 9999 FEW030 19/14 A2995 NOSIG=
201112071200 METAR MROC 071200Z 10006KT 9999 FEW030 18/14 A2997 NOSIG=
201112071300 METAR MROC 071300Z 09005KT 9999 FEW045 21/15 A2998 NOSIG=
201112071400 METAR MROC 071400Z 04002KT CAVOK 23/15 A3000 NOSIG=
201112071500 METAR MROC 071500Z 07009KT 9999 FEW040 24/15 A3000 NOSIG=
201112071600 METAR MROC 071600Z 08010KT 9999 FEW040 25/14 A2999 NOSIG=
201112071700 METAR MROC 071700Z 07009KT 9999 SCT045 SCT100 24/16 A2997 NOSIG=
201112071800 METAR MROC 071800Z 12008KT 9999 SCT045 SCT100 24/16 A2995 NOSIG=
201112071900 METAR MROC 071900Z 11008KT 9999 FEW045 SCT060 BKN100 24/16 A2993 BECMG 22006KT=
201112072000 METAR MROC 072000Z 10007KT 9999 FEW045 SCT060 BKN100 24/16 A2991 BECMG 22006KT=
201112072100 METAR MROC 072100Z 08004KT 9999 SCT035 BKN060 24/16 A2990 RMK RA DST NW NE BECMG 22005KT=
201112072200 METAR MROC 072200Z 11007KT 9999 FEW030 SCT040 BKN080 24/16 A2990 NOSIG=
201112072300 METAR MROC 072300Z 10007KT 9999 FEW035 SCT060 21/15 A2992 NOSIG=
201112080000 METAR MROC 080000Z 09005KT 9999 FEW035 SCT060 20/15 A2995 NOSIG=
201112080100 METAR MROC 080100Z 06005KT 9999 FEW035 SCT060 20/15 A2999 NOSIG=
201112080200 METAR MROC 080200Z 08007KT 9999 FEW035 SCT060 20/15 A3001 NOSIG=
201112080300 METAR MROC 080300Z 10008KT 9999 FEW035 SCT070 20/15 A3001 NOSIG=
201112080400 METAR MROC 080400Z 08009KT CAVOK 20/15 A3001 NOSIG=
201112080500 METAR MROC 080500Z 09012KT CAVOK 19/15 A2999 NOSIG=
201112080600 METAR MROC 080600Z 09013KT CAVOK 20/15 A2998 NOSIG=
201112080700 METAR MROC 080700Z 10010KT CAVOK 19/15 A2996 NOSIG=
201112080800 METAR MROC 080800Z 11010KT CAVOK 19/14 A2994 NOSIG=
201112080900 METAR MROC 080900Z 10008KT CAVOK 20/14 A2993 NOSIG=
201112081000 METAR MROC 081000Z 11009KT CAVOK 19/14 A2994 NOSIG=
201112081100 METAR MROC 081100Z 09009KT CAVOK 19/14 A2995 NOSIG=
201112081200 METAR MROC 081200Z 05006KT CAVOK 19/15 A2997 NOSIG=
201112081300 METAR MROC 081300Z 02007KT 9999 FEW040 SCT080 20/15 A3000 NOSIG=
201112081400 METAR MROC 081400Z 09007KT 9999 FEW040 SCT080 BKN250 21/15 A3002 NOSIG=
201112081500 METAR MROC 081500Z 11010KT 9999 FEW045 BKN200 22/15 A3002 NOSIG=
201112081600 METAR MROC 081600Z 09010KT 9999 SCT045 BKN200 23/14 A3000 NOSIG=
201112081700 METAR MROC 081700Z 09011KT 9999 SCT045 SCT120 BKN200 24/15 A2998 NOSIG=
201112081800 METAR MROC 081800Z 10007KT 9999 FEW045 SCT070 BKN200 25/15 A2997 NOSIG=
201112081900 METAR MROC 081900Z 11008KT 9999 SCT045 BKN080 25/15 A2994 NOSIG=
201112082000 METAR MROC 082000Z 10007KT 9999 FEW045 BKN120 25/16 A2992 NOSIG=
201112082100 METAR MROC 082100Z 12007KT 9999 FEW045 SCT120 BKN250 24/15 A2990 NOSIG=
201112082200 METAR MROC 082200Z 15005KT 9999 FEW045 SCT120 BKN250 24/16 A2990 NOSIG=
201112082300 METAR MROC 082300Z 22004KT 9999 FEW035 BKN120 22/19 A2993 NOSIG=
201112090000 METAR MROC 090000Z 24004KT 9999 FEW040 SCT120 21/19 A2995 NOSIG=
201112090100 METAR MROC 090100Z 24005KT 9999 FEW030 BKN100 20/18 A2996 NOSIG=
201112090200 METAR MROC 090200Z 11006KT 9999 FEW040 BKN120 20/16 A2999 NOSIG=
201112090300 METAR MROC 090300Z 09006KT 9999 FEW040 SCT150 20/14 A3000 NOSIG=
201112090400 METAR MROC 090400Z 09007KT 9999 FEW040 SCT150 20/15 A3000 NOSIG=
201112090500 METAR MROC 090500Z 07009KT 9999 FEW045 SCT150 20/15 A2998 NOSIG=
201112090600 METAR MROC 090600Z 07008KT CAVOK 20/14 A2996 NOSIG=
201112090700 METAR MROC 090700Z 08007KT 9999 FEW035 19/14 A2995 NOSIG=
201112090800 METAR MROC 090800Z 05007KT 9999 FEW035 19/14 A2993 NOSIG=
201112090900 METAR MROC 090900Z 08004KT 9999 FEW035 19/14 A2993 NOSIG=
201112091000 METAR MROC 091000Z 08008KT 9999 FEW035 18/14 A2993 NOSIG=
201112091100 METAR MROC 091100Z 06012KT CAVOK 19/15 A2993 NOSIG=
201112091200 METAR MROC 091200Z 10002KT CAVOK 19/15 A2994 NOSIG=
201112091300 METAR MROC 091300Z 10007KT CAVOK 21/15 A2997 NOSIG=
201112091400 METAR MROC 091400Z 08006KT CAVOK 23/15 A2998 NOSIG=
201112091500 METAR MROC 091500Z 08008KT CAVOK 25/15 A2997 NOSIG=
201112091600 METAR MROC 091600Z 10010KT CAVOK 25/15 A2997 NOSIG=
201112091700 METAR MROC 091700Z 11009KT CAVOK 26/15 A2995 NOSIG=
201112091800 METAR MROC 091800Z 10008KT 9999 FEW040 27/15 A2993 NOSIG=
201112091900 METAR MROC 091900Z 12007KT 9999 FEW035 SCT250 26/15 A2991 NOSIG=
201112092000 METAR MROC 092000Z 11009KT 9999 FEW040 SCT250 27/15 A2990 NOSIG=
201112092100 METAR MROC 092100Z 16006KT 9999 SCT035 SCT250 25/15 A2989 BECMG 24006KT=
201112092200 METAR MROC 092200Z 25008KT 9999 FEW015 SCT035 22/20 A2990 NOSIG=
201112092300 METAR MROC 092300Z 25006KT 9999 FEW015 SCT035 21/20 A2992 NOSIG=
201112100000 METAR MROC 100000Z 27005KT 9999 FEW015 SCT035 20/19 A2994 NOSIG=
201112100100 METAR MROC 100100Z 19002KT 9999 FEW025 SCT040 20/19 A2996 NOSIG=
201112100200 METAR MROC 100200Z 08003KT 9999 FEW030 SCT050 21/17 A2998 NOSIG=
201112100300 METAR MROC 100300Z 09003KT 9999 FEW030 SCT060 20/17 A3000 NOSIG=
201112100400 METAR MROC 100400Z 07005KT CAVOK 20/15 A3000 NOSIG=
201112100500 METAR MROC 100500Z 09007KT CAVOK 20/14 A2999 NOSIG=
201112100600 METAR MROC 100600Z 06006KT CAVOK 19/14 A2998 NOSIG=
201112100700 METAR MROC 100700Z 07005KT CAVOK 19/14 A2996 NOSIG=
201112100800 METAR MROC 100800Z 07007KT CAVOK 19/14 A2994 NOSIG=
201112100900 METAR MROC 100900Z 05004KT CAVOK 18/14 A2993 NOSIG=
201112101000 METAR MROC 101000Z 06006KT CAVOK 18/14 A2994 NOSIG=
201112101100 METAR MROC 101100Z 09009KT CAVOK 19/14 A2995 NOSIG=
201112101200 METAR MROC 101200Z 05008KT CAVOK 18/14 A2996 NOSIG=
201112101300 METAR MROC 101300Z 06006KT CAVOK 21/14 A2998 NOSIG=
201112101400 METAR MROC 101400Z 10007KT CAVOK 23/14 A3000 NOSIG=
201112101500 METAR MROC 101500Z 11006KT CAVOK 26/14 A2998 NOSIG=
201112101600 METAR MROC 101600Z 11009KT CAVOK 26/13 A2997 NOSIG=
201112101700 METAR MROC 101700Z 11010KT 9999 FEW035 SCT120 27/16 A2995 NOSIG=
201112101800 METAR MROC 101800Z 12006KT 9999 FEW035 SCT110 27/16 A2993 NOSIG=
201112101900 METAR MROC 101900Z 10010KT 9999 FEW030 SCT080 26/17 A2990 NOSIG=
201112102000 METAR MROC 102000Z 13007KT 9999 SCT030 26/17 A2987 NOSIG=
201112102100 METAR MROC 102100Z 12007KT 9999 SCT035 25/17 A2987 NOSIG=
201112102200 METAR MROC 102200Z 14006KT 9999 FEW030 BKN040 24/17 A2987 NOSIG=
201112102300 METAR MROC 102300Z 14005KT 9999 FEW025 BKN040 23/17 A2991 NOSIG=
201112110000 METAR MROC 110000Z 16004KT 9999 SCT030 BKN040 21/18 A2993 NOSIG=
201112110100 METAR MROC 110100Z VRB02KT 9999 FEW030 SCT040 21/18 A2995 NOSIG=
201112110200 METAR MROC 110200Z 07002KT 9999 FEW035 BKN100 21/18 A2998 NOSIG=
201112110300 METAR MROC 110300Z 06004KT 9999 FEW035 SCT100 21/18 A3000 NOSIG=
201112110400 METAR MROC 110400Z 03004KT 9999 -DZ FEW035 BKN080 21/18 A3000 NOSIG=
201112110500 METAR MROC 110500Z 03005KT 9999 FEW035 SCT120 20/18 A2998 NOSIG=
201112110600 METAR MROC 110600Z 09005KT 9999 FEW035 BKN120 21/17 A2996 NOSIG=
201112110700 METAR MROC 110700Z 09003KT 9999 FEW035 BKN120 20/17 A2994 NOSIG=
201112110800 METAR MROC 110800Z 09004KT 9999 FEW035 SCT100 21/17 A2993 NOSIG=
201112110900 METAR MROC 110900Z 10009KT CAVOK 21/17 A2992 NOSIG=
201112111000 METAR MROC 111000Z 11008KT CAVOK 21/17 A2991 NOSIG=
201112111100 METAR MROC 111100Z 35005KT CAVOK 20/17 A2991 NOSIG=
201112111200 METAR MROC 111200Z 06008KT 9999 FEW040 SCT250 21/17 A2992 NOSIG=
201112111300 METAR MROC 111300Z 10006KT 9999 SCT035 SCT250 22/17 A2994 NOSIG=
201112111400 METAR MROC 111400Z 09009KT 9999 SCT035 23/18 A2997 NOSIG=
201112111500 METAR MROC 111500Z 11006KT 9999 SCT035 26/18 A2995 NOSIG=
201112111600 METAR MROC 111600Z 11006KT 9999 SCT035 26/18 A2995 NOSIG=
201112111700 METAR MROC 111700Z VRB03KT 9999 BKN035 25/18 A2995 NOSIG=
201112111800 METAR MROC 111800Z 13006KT 9999 BKN035 24/19 A2993 NOSIG=
201112111900 METAR MROC 111900Z 12008KT 9999 SCT035 SCT050 24/18 A2990 NOSIG=
201112112000 METAR MROC 112000Z 11006KT 9999 -RA SCT035 BKN060 23/19 A2989 NOSIG=
201112112100 METAR MROC 112100Z 13007KT 9999 -RA FEW030 SCT060 BKN100 22/19 A2988 NOSIG=
201112112200 METAR MROC 112200Z 12006KT 9999 FEW040 SCT060 BKN180 23/18 A2987 NOSIG=
201112112300 METAR MROC 112300Z 12006KT 9999 -RA FEW030 SCT060 BKN100 22/18 A2990=
201112112356 METAR MROC 120000Z 12005KT 9999 FEW045 BKN120 21/18 A2992 NOSIG=
201112120000 METAR MROC 120000Z 12005KT 9999 FEW045 BKN120 21/18 A2992 NOSIG=
201112120100 METAR MROC 120100Z 08003KT 9999 FEW045 SCT120 20/18 A2995 NOSIG=
201112120200 METAR MROC 120200Z 10006KT 9999 -RA SCT035 BKN080 20/18 A2997 NOSIG=
201112120300 METAR MROC 120300Z 07004KT 8000 -RA SCT025 BKN100 19/18 A3001 NOSIG=
201112120400 METAR MROC 120400Z 13005KT 8000 -RA FEW030 BKN100 19/18 A3000 NOSIG=
201112120500 METAR MROC 120500Z 02005KT 8000 -RA FEW025 BKN100 19/18 A3000 NOSIG=
201112120600 METAR MROC 120600Z 09003KT 9999 SCT030 BKN100 19/17 A2998 NOSIG=
201112120700 METAR MROC 120700Z 07007KT 9999 SCT030 BKN100 19/18 A2998 NOSIG=
201112120800 METAR MROC 120800Z 07004KT 9999 -RA SCT030 BKN100 19/18 A2995 NOSIG=
201112120900 METAR MROC 120900Z 04008KT 9999 SCT030 BKN100 19/17 A2992 NOSIG=
201112121000 METAR MROC 121000Z 05004KT 9999 -RA FEW030 BKN100 19/17 A2992 NOSIG=
201112121100 METAR MROC 121100Z 10005KT 9999 FEW030 BKN100 19/17 A2993 NOSIG=
201112121200 METAR MROC 121200Z 09003KT 9999 FEW030 BKN100 19/17 A2995 NOSIG=
201112121300 METAR MROC 121300Z 06004KT 9999 FEW040 BKN150 20/17 A2997 NOSIG=
201112121400 METAR MROC 121400Z 09008KT 9999 FEW040 SCT060 BKN150 22/17 A2998 NOSIG=
201112121500 METAR MROC 121500Z 13005KT 9999 FEW040 SCT080 BKN200 22/18 A3000 NOSIG=
201112121503 METAR MROC 151200Z 08003KT 9999 SCT045 BKN200 20/17 A2995 NOSIG=
201112121600 METAR MROC 121600Z 11006KT 9999 FEW040 SCT080 BKN200 23/17 A3000 NOSIG=
201112121700 METAR MROC 121700Z 10004KT 9999 FEW040 SCT080 BKN120 23/18 A2999 NOSIG=
201112121800 METAR MROC 121800Z 13004KT 9999 FEW040 SCT080 BKN250 24/19 A2996 NOSIG=
201112121900 METAR MROC 121900Z 12006KT 9999 FEW040 SCT060 BKN120 23/18 A2994 NOSIG=
201112122000 METAR MROC 122000Z 11010KT 9999 -DZ FEW035 OVC100 22/18 A2993 BECMG RA=
201112122100 METAR MROC 122100Z 12006KT 9999 -RA FEW025 OVC100 21/18 A2993 NOSIG=
201112122200 METAR MROC 122200Z 12005KT 7000 -RA FEW020 OVC090 20/19 A2993 BECMG 5000 -RA BR=
201112122218 METAR MROC 122218Z 11005KT 5000 RA BR FEW008 OVC090 20/18 A2993 BECMG 3000 RA BR=
201112122300 METAR MROC 122300Z 11006KT 6000 RA FEW010 OVC100 20/18 A2994 NOSIG=
201112130000 METAR MROC 130000Z 12003KT 9999 RA FEW020 OVC100 20/18 A2996 NOSIG=
201112130100 METAR MROC 130100Z 09003KT 9999 FEW030 BKN120 19/18 A2998 NOSIG=
201112130200 METAR MROC 130200Z 09003KT 9999 FEW035 BKN100 19/18 A2999 NOSIG=
201112130300 METAR MROC 130300Z 07004KT 9999 -RA FEW035 BKN100 20/18 A3001 NOSIG=
201112130400 METAR MROC 130400Z 08005KT 9999 -RA FEW035 BKN100 19/18 A3001 NOSIG=
201112130500 METAR MROC 130500Z 08006KT 9999 -RA FEW035 BKN100 19/18 A3000 NOSIG=
201112130600 METAR MROC 130600Z 10006KT 9999 -RA FEW035 BKN100 20/18 A2997 NOSIG=
201112130700 METAR MROC 130700Z 01002KT 9999 -RA FEW035 BKN100 20/18 A2995 NOSIG=
201112130800 METAR MROC 130800Z 10004KT 9999 FEW035 BKN120 20/18 A2994 NOSIG=
201112130900 METAR MROC 130900Z 03002KT 9999 FEW035 BKN120 20/18 A2994 NOSIG=
201112131000 METAR MROC 131000Z 36002KT 9999 FEW035 BKN120 19/18 A2994 NOSIG=
201112131100 METAR MROC 131100Z 03002KT 9999 DZ FEW035 BKN120 19/18 A2995 NOSIG=
201112131200 METAR MROC 131200Z 02006KT 9999 SCT035 BKN100 19/18 A2995 NOSIG=
201112131300 METAR MROC 131300Z 10002KT 9999 -DZ FEW035 BKN100 20/18 A2998 NOSIG=
201112131400 METAR MROC 131400Z 02004KT 9999 -RA SCT035 OVC100 20/18 A3001 BECMG 7000=
201112131500 METAR MROC 131500Z 08003KT 5000 RA FEW025 OVC090 20/18 A3002 NOSIG=
201112131600 METAR MROC 131600Z 04003KT 3000 RA FEW010 OVC090 20/19 A3002 NOSIG=
201112131700 METAR MROC 131700Z 02005KT 9999 4500W -DZ FEW030 SCT060 BKN100 21/19 A3001 NOSIG=
201112131800 METAR MROC 131800Z 03003KT 9999 -DZ FEW008 SCT060 BKN120 23/20 A2997 NOSIG=
201112131900 METAR MROC 131900Z 14005KT 9999 FEW025 SCT080 BKN200 25/19 A2991 NOSIG=
201112132000 METAR MROC 132000Z 25008KT 8000 3800SW -RA FEW008 SCT020 BKN100 22/21 A2991 BECMG 6000 RA BKN025=
201112132100 METAR MROC 132100Z 18004KT 3000 -RA BR FEW005 BKN020 20/19 A2991 NOSIG=
201112132200 METAR MROC 132200Z 13002KT 9999 FEW030 SCT100 21/19 A2991 NOSIG=
201112132300 METAR MROC 132300Z 00000KT 9999 FEW030 BKN100 21/18 A2993 NOSIG=
201112140000 METAR MROC 140000Z 12003KT 9999 FEW030 SCT100 21/18 A2993 NOSIG=
201112140100 METAR MROC 140100Z 11003KT 9999 -RA FEW030 BKN100 20/19 A2995 NOSIG=
201112140200 METAR MROC 140200Z 09003KT 9999 FEW040 SCT120 20/18 A2997 NOSIG=
201112140300 METAR MROC 140300Z 12006KT 9999 FEW040 BKN100 20/16 A3000 NOSIG=
201112140400 METAR MROC 140400Z 09004KT 9999 FEW040 SCT120 21/17 A2999 NOSIG=
201112140500 METAR MROC 140500Z 11005KT CAVOK 21/17 A2998 NOSIG=
201112140600 METAR MROC 140600Z 10005KT CAVOK 21/17 A2997 NOSIG=
201112140700 METAR MROC 140700Z 34002KT 9999 FEW040 BKN180 20/17 A2996 NOSIG=
201112140800 METAR MROC 140800Z 01004KT 9999 FEW040 BKN180 20/17 A2994 NOSIG=
201112140900 METAR MROC 140900Z 01003KT CAVOK 19/17 A2992 NOSIG=
201112141000 METAR MROC 141000Z 04006KT CAVOK 20/17 A2993 NOSIG=
201112141100 METAR MROC 141100Z 08004KT 9999 FEW040 SCT180 20/16 A2993 NOSIG=
201112141200 METAR MROC 141200Z 10009KT 9999 FEW040 SCT120 BKN250 20/16 A2994 NOSIG=
201112141300 METAR MROC 141300Z 11009KT 9999 FEW035 SCT120 BKN250 21/17 A2995 NOSIG=
201112141400 METAR MROC 141400Z 12009KT 9999 FEW035 BKN120 22/17 A2998 NOSIG=
201112141500 METAR MROC 141500Z 12009KT 9999 FEW035 BKN090 23/17 A2999 NOSIG=
201112141600 METAR MROC 141600Z 10007KT 9999 FEW035 BKN100 24/17 A2999 NOSIG=
201112141700 METAR MROC 141700Z 10009KT 9999 FEW035 BKN120 24/17 A2996 NOSIG=
201112141800 METAR MROC 141800Z 10010KT 9999 SCT035 BKN100 25/16 A2994 NOSIG=
201112141900 METAR MROC 141900Z 12006KT 9999 4000SE -RA SCT030 BKN090 24/17 A2991 NOSIG=
201112142000 METAR MROC 142000Z 12006KT 9999 4000S -RA SCT030 BKN090 23/18 A2990 NOSIG=
201112142100 METAR MROC 142100Z 06007KT 9999 SCT030 BKN100 22/16 A2990 NOSIG=
201112142200 METAR MROC 142200Z 10009KT 9999 SCT030 BKN100 22/16 A2990 NOSIG=
201112142300 METAR MROC 142300Z 07005KT 9999 SCT030 BKN100 22/17 A2992 RMK DZ DST N NE NOSIG=
201112150000 METAR MROC 150000Z 10006KT 9999 SCT030 BKN100 21/17 A2993 NOSIG=
201112150100 METAR MROC 150100Z 08003KT 9999 SCT030 BKN100 19/17 A2998 NOSIG=
201112150200 METAR MROC 150200Z 03004KT 9999 FEW030 BKN100 20/17 A2999 NOSIG=
201112150300 METAR MROC 150300Z 12006KT 9999 FEW040 BKN100 20/16 A3000 NOSIG=
201112150400 METAR MROC 150400Z 07006KT 9999 FEW035 BKN090 20/16 A3001 NOSIG=
201112150500 METAR MROC 150500Z 11006KT CAVOK 20/16 A2999 NOSIG=
201112150600 METAR MROC 150600Z 06004KT CAVOK 20/16 A2998 NOSIG=
201112150700 METAR MROC 150700Z 06004KT 9999 +DZ BKN080 20/16 A2996 NOSIG=
201112150800 METAR MROC 150800Z 06006KT CAVOK 19/17 A2995 NOSIG=
201112150900 METAR MROC 150900Z 03006KT CAVOK 19/17 A2994 NOSIG=
201112151000 METAR MROC 151000Z 07004KT CAVOK 20/17 A2993 NOSIG=
201112151100 METAR MROC 151100Z 08004KT CAVOK 20/17 A2994 NOSIG=
201112151200 METAR MROC 151200Z 08003KT 9999 SCT045 BKN200 20/17 A2995 NOSIG=
201112151300 METAR MROC 151300Z 04003KT 9999 FEW020 SCT080 BKN140 22/17 A2997 NOSIG=
201112151400 METAR MROC 151400Z 10008KT 9999 FEW025 BKN100 23/17 A2998 NOSIG=
201112151500 METAR MROC 151500Z 09007KT 9999 FEW025 BKN100 23/17 A2998 NOSIG=
201112151600 METAR MROC NIL=
201112151700 METAR MROC 151700Z 12007KT 9999 SCT025 BKN100 25/18 A2995 NOSIG=
201112151800 METAR MROC 151800Z 11008KT 9999 SCT025 BKN100 24/17 A2994 NOSIG=
201112151900 METAR MROC 151900Z 09009KT 9999 SCT025 BKN100 25/16 A2990 NOSIG=
201112152000 METAR MROC 152000Z 11007KT 9999 SCT025 BKN100 24/17 A2988 NOSIG=
201112152100 METAR MROC 152100Z 12007KT 9999 SCT020 BKN070 22/17 A2988 NOSIG=
201112152200 METAR MROC 152200Z 12007KT 9999 SCT020 BKN080 22/17 A2989 NOSIG=
201112152300 METAR MROC 152300Z 09005KT 9999 SCT020 BKN080 21/17 A2991 NOSIG=
201112160000 METAR MROC 160000Z 02003KT 9999 FEW030 BKN080 21/17 A2992 NOSIG=
201112160100 METAR MROC 160100Z 06004KT 9999 FEW030 BKN080 21/17 A2995 NOSIG=
201112160200 METAR MROC 160200Z 08004KT 9999 FEW030 BKN080 21/16 A2995 NOSIG=
201112160300 METAR MROC 160300Z 07004KT 9999 FEW035 BKN100 21/16 A2998 NOSIG=
201112160400 METAR MROC 160400Z 12002KT CAVOK 21/16 A2999 NOSIG=
201112160500 METAR MROC 160500Z 05007KT CAVOK 20/16 A2998 NOSIG=
201112160600 METAR MROC 160600Z 06007KT 9999 FEW040 BKN100 20/16 A2997 NOSIG=
201112160700 METAR MROC 160700Z 07007KT 9999 FEW040 BKN100 20/16 A2995 NOSIG=
201112160800 METAR MROC 160800Z 09003KT CAVOK 20/16 A2995 NOSIG=
201112160900 METAR MROC 160900Z 07006KT CAVOK 20/16 A2993 NOSIG=
201112161000 METAR MROC 161000Z 06003KT CAVOK 20/15 A2994 NOSIG=
201112161100 METAR MROC 161100Z 09003KT CAVOK 20/15 A2994 NOSIG=
201112161200 METAR MROC 161200Z 10006KT CAVOK 20/14 A2996 NOSIG=
201112161300 METAR MROC 161300Z 07002KT CAVOK 21/15 A2999 NOSIG=
201112161400 METAR MROC 161400Z 10008KT CAVOK 22/15 A3000 NOSIG=
201112161500 METAR MROC 161500Z 11011KT CAVOK 23/15 A3001 NOSIG=
201112161600 METAR MROC 161600Z 10009KT CAVOK 24/15 A2998 NOSIG=
201112161700 METAR MROC 161700Z 10009KT CAVOK 25/15 A2998 NOSIG=
201112161800 METAR MROC 161800Z 11008KT CAVOK 27/16 A2996 NOSIG=
201112161900 METAR MROC NIL=
201112162000 METAR MROC 162000Z 07011KT 9999 FEW030 BKN120 25/15 A2991 NOSIG=
201112162100 METAR MROC 162100Z 10009KT 9999 FEW040 BKN120 25/15 A2990 NOSIG=
201112162200 METAR MROC 162200Z 10008KT 9999 FEW040 SCT150 BKN250 24/15 A2991 NOSIG=
201112162300 METAR MROC 162300Z 08006KT 9999 SCT040 BKN150 23/14 A2993 NOSIG=
201112162354 METAR MROC 170000Z 10009KT 9999 FEW040 BKN150 21/14 A2995 NOSIG=
201112170000 METAR MROC 170000Z 10009KT 9999 FEW040 BKN150 21/14 A2995 NOSIG=
201112170100 METAR MROC 170100Z 07007KT 9999 FEW040 BKN150 21/15 A2997 NOSIG=
201112170200 METAR MROC 170200Z 11011KT 9999 FEW030 BKN120 21/15 A2998 NOSIG=
201112170300 METAR MROC 170300Z 10010KT 9999 FEW030 SCT120 20/16 A2999 NOSIG=
201112170400 METAR MROC 170400Z 11012KT 9999 FEW030 SCT120 21/16 A3000 NOSIG=
201112170500 METAR MROC 170500Z 11012KT 9999 FEW030 SCT120 21/16 A2999 NOSIG=
201112170600 METAR MROC 170600Z 12007KT 9999 FEW030 SCT120 21/16 A2997 NOSIG=
201112170700 METAR MROC 170700Z 09007KT 9999 FEW030 SCT110 21/16 A2996 NOSIG=
201112170800 METAR MROC 170800Z 12003KT 9999 FEW030 SCT110 20/16 A2995 NOSIG=
201112170900 METAR MROC 170900Z 07002KT 9999 FEW020 SCT120 20/16 A2994 NOSIG=
201112171000 METAR MROC 171000Z 11007KT 9999 FEW020 SCT120 20/16 A2993 NOSIG=
201112171100 METAR MROC 171100Z 11010KT 9999 FEW020 SCT120 20/16 A2994 NOSIG=
201112171200 METAR MROC 171200Z 10005KT 9999 FEW025 SCT120 20/16 A2996 NOSIG=
201112171300 METAR MROC 171300Z 12015KT 9999 FEW025 SCT120 21/16 A2999 NOSIG=
201112171400 METAR MROC 171400Z 12014KT 9999 FEW025 SCT120 22/16 A3002 NOSIG=
201112171500 METAR MROC 171500Z 11007KT 9999 FEW035 BKN120 23/17 A3001 NOSIG=
201112171600 METAR MROC 171600Z 10007KT 9999 FEW035 SCT120 BKN250 25/18 A3000 NOSIG=
201112171700 METAR MROC 171700Z 11009KT 9999 SCT040 BKN100 25/17 A2998 BECMG -RA=
201112171800 METAR MROC 171800Z 28003KT 9999 -RA FEW035 BKN080 24/18 A2998 NOSIG=
201112171900 METAR MROC 171900Z 14004KT 9999 -RA FEW025 BKN100 22/19 A2996 NOSIG=
201112172000 METAR MROC 172000Z 28004KT 9999 SCT035 BKN120 23/19 A2992 NOSIG=
201112172100 METAR MROC 172100Z 27005KT 9999 FEW025 SCT040 BKN100 24/19 A2991 BECMG RA=
201112172200 METAR MROC 172200Z 10008KT 9999 FEW020 SCT045 BKN120 22/16 A2992 NOSIG=
201112172300 METAR MROC 172300Z 10010G20KT 9999 SCT045 BKN120 21/16 A2992 NOSIG=
201112180000 METAR MROC 180000Z 10013KT 9999 SCT040 BKN100 20/16 A2993 NOSIG=
201112180100 METAR MROC 180100Z 11015G25KT 9999 FEW040 BKN100 20/15 A2994 NOSIG=
201112180200 METAR MROC 180200Z 10014KT 9999 FEW040 SCT100 20/16 A2997 NOSIG=
201112180300 METAR MROC 180300Z 11014KT 9999 FEW040 SCT100 20/15 A2999 NOSIG=
201112180400 METAR MROC 180400Z 10013KT 9999 FEW040 SCT100 21/16 A2999 NOSIG=
201112180500 METAR MROC 180500Z 11014KT 9999 FEW040 SCT100 21/15 A2995 NOSIG=
201112180600 METAR MROC 180600Z 10014KT CAVOK 21/15 A2996 NOSIG=
201112180700 METAR MROC 180700Z 10014KT CAVOK 21/16 A2995 NOSIG=
201112180800 METAR MROC 180800Z 11013KT CAVOK 20/15 A2994 NOSIG=
201112180900 METAR MROC 180900Z 10012KT CAVOK 20/15 A2993 NOSIG=
201112181000 METAR MROC 181000Z 10010KT CAVOK 20/15 A2993 NOSIG=
201112181100 METAR MROC 181100Z 10010KT CAVOK 20/16 A2996 NOSIG=
201112181200 METAR MROC 181200Z 11012KT CAVOK 20/15 A2997 NOSIG=
201112181300 METAR MROC 181300Z 10012KT 9999 FEW035 SCT090 BKN250 20/14 A3000 NOSIG=
201112181400 METAR MROC 181400Z 10012KT 9999 FEW040 SCT100 BKN250 21/14 A3003 NOSIG=
201112181500 METAR MROC 181500Z 11015KT 9999 FEW040 BKN120 21/15 A3004 NOSIG=
201112181600 METAR MROC 181600Z 10014KT 9999 FEW045 SCT120 BKN250 22/14 A3004 NOSIG=
201112181700 METAR MROC 181700Z 09016G26KT CAVOK 24/10 A3000 NOSIG=
201112181800 METAR MROC 181800Z 09017KT CAVOK 25/09 A2997 NOSIG=
201112181900 METAR MROC 181900Z 09014G24KT CAVOK 25/09 A2996 NOSIG=
201112182000 METAR MROC 182000Z 10012KT CAVOK 25/10 A2993 NOSIG=
201112182100 METAR MROC 182100Z 09010KT CAVOK 24/11 A2993 NOSIG=
201112182200 METAR MROC 182200Z 09010KT CAVOK 22/13 A2994 NOSIG=
201112182300 METAR MROC 182300Z 10008KT CAVOK 22/14 A2995 NOSIG=
201112190000 METAR MROC 190000Z 10008KT CAVOK 21/14 A2997 NOSIG=
201112190100 METAR MROC 190100Z 10011KT CAVOK 21/14 A2999 NOSIG=
201112190200 METAR MROC 190200Z 09008KT CAVOK 20/15 A3002 NOSIG=
201112190300 METAR MROC 190300Z 10008KT CAVOK 20/15 A3002 NOSIG=
201112190400 METAR MROC 190400Z 08010KT CAVOK 20/14 A3003 NOSIG=
201112190500 METAR MROC 190500Z 08007KT CAVOK 20/14 A3002 NOSIG=
201112190600 METAR MROC 190600Z 10009KT CAVOK 20/14 A3000 NOSIG=
201112190700 METAR MROC 190700Z 04006KT CAVOK 19/14 A2998 NOSIG=
201112190800 METAR MROC 190800Z 08007KT CAVOK 20/15 A2996 NOSIG=
201112190900 METAR MROC 190900Z 07009KT CAVOK 19/15 A2995 NOSIG=
201112191000 METAR MROC 191000Z 07011KT CAVOK 19/15 A2996 NOSIG=
201112191100 METAR MROC 191100Z 06008KT CAVOK 19/15 A2997 NOSIG=
201112191200 METAR MROC 191200Z 10012G22KT CAVOK 19/15 A2997 NOSIG=
201112191300 METAR MROC 191300Z 10011KT CAVOK 20/15 A2999 NOSIG=
201112191400 METAR MROC 191400Z 11011KT CAVOK 21/14 A3002 NOSIG=
201112191500 METAR MROC 191500Z 10010KT CAVOK 23/15 A3003 NOSIG=
201112191600 METAR MROC 191600Z 10010G20KT CAVOK 22/15 A3002 NOSIG=
201112191700 METAR MROC 191700Z 10011KT 9999 FEW040 BKN250 23/12 A3001 NOSIG=
201112191800 METAR MROC 191800Z 10010KT CAVOK 24/12 A2998 NOSIG=
201112191900 METAR MROC 191900Z 10010KT CAVOK 23/10 A2995 NOSIG=
201112192000 METAR MROC 192000Z 11010KT CAVOK 23/14 A2992 NOSIG=
201112192100 METAR MROC 192100Z 11010KT CAVOK 23/15 A2991 NOSIG=
201112192200 METAR MROC NIL=
201112192300 METAR MROC 192300Z 12010KT 9999 FEW030 BKN250 22/15 A2991 NOSIG=
201112200000 METAR MROC 200000Z 12010KT 9999 FEW030 SCT120 BKN250 20/15 A2993 NOSIG=
201112200100 METAR MROC 200100Z 10008KT 9999 FEW030 SCT120 BKN250 21/15 A2995 NOSIG=
201112200200 METAR MROC 200200Z 09005KT 9999 FEW030 SCT120 21/15 A2998 NOSIG=
201112200300 METAR MROC 200300Z 12005KT 9999 FEW045 BKN120 20/15 A3000 NOSIG=
201112200400 METAR MROC 200400Z 09009KT CAVOK 21/14 A3000 NOSIG=
201112200500 METAR MROC 200500Z 11007KT CAVOK 20/14 A2999 NOSIG=
201112200600 METAR MROC 200600Z 12007KT CAVOK 19/13 A2999 NOSIG=
201112200700 METAR MROC 200700Z 06005KT CAVOK 18/13 A2996 NOSIG=
201112200800 METAR MROC 200800Z 10006KT CAVOK 19/13 A2994 NOSIG=
201112200900 METAR MROC 200900Z 11008KT CAVOK 19/13 A2993 NOSIG=
201112201000 METAR MROC 201000Z 10007KT CAVOK 19/13 A2993 NOSIG=
201112201100 METAR MROC 201100Z 10007KT CAVOK 19/13 A2994 NOSIG=
201112201200 METAR MROC 201200Z 12011KT 9999 FEW045 19/14 A2995 NOSIG=
201112201300 METAR MROC 201300Z 10008KT 9999 FEW025 21/15 A2997 NOSIG=
201112201400 METAR MROC 201400Z 12012KT 9999 SCT030 22/16 A2998 NOSIG=
201112201500 METAR MROC 201500Z 12010KT 9999 SCT030 23/16 A2998 NOSIG=
201112201600 METAR MROC 201600Z 28003KT 9999 +DZ VCSH OVC018 22/19 A2996=
201112201700 METAR MROC 201700Z 11009KT 9999 SCT025 BKN090 24/16 A2995 NOSIG=
201112201800 METAR MROC 201800Z 12011KT 9999 SCT025 BKN080 25/16 A2991 NOSIG=
201112201900 METAR MROC 201900Z 10007KT 9999 SCT025 BKN080 24/16 A2989 NOSIG=
201112202000 METAR MROC 202000Z 08011KT 9999 SCT030 SCT080 25/15 A2986 NOSIG=
201112202100 METAR MROC 202100Z 09009KT 9999 SCT035 SCT070 25/14 A2984 NOSIG=
201112202200 METAR MROC 202200Z 06014KT 9999 SCT035 SCT070 25/14 A2983 NOSIG=
201112202300 METAR MROC 202300Z 09009KT 9999 FEW035 24/14 A2984 NOSIG=
201112210000 METAR MROC 210000Z 07006KT 9999 FEW035 22/15 A2986 NOSIG=
201112210100 METAR MROC 210100Z 08004KT 9999 FEW035 21/16 A2989 NOSIG=
201112210200 METAR MROC 210200Z 08007KT 9999 FEW035 21/16 A2991 NOSIG=
201112210300 METAR MROC 210300Z 09010KT 9999 FEW035 21/16 A2992 NOSIG=
201112210400 METAR MROC 210400Z 09007KT CAVOK 21/15 A2992 NOSIG=
201112210500 METAR MROC 210500Z 09010KT CAVOK 21/15 A2991 NOSIG=
201112210600 METAR MROC 210600Z 11007KT CAVOK 21/14 A2990 NOSIG=
201112210700 METAR MROC 210700Z 02006KT CAVOK 19/15 A2989 NOSIG=
201112210800 METAR MROC 210800Z 05004KT CAVOK 19/14 A2988 NOSIG=
201112210900 METAR MROC 210900Z 04006KT CAVOK 19/15 A2987 NOSIG=
201112211000 METAR MROC 211000Z 06008KT CAVOK 20/15 A2988 NOSIG=
201112211100 MROC 211100Z 11011KT CAVOK 20/15 A2989 NOSIG=
201112211200 METAR MROC 211200Z 11011KT CAVOK 20/15 A2989 NOSIG=
201112211300 METAR MROC 211300Z 10008KT CAVOK 21/16 A2993 NOSIG=
201112211400 METAR MROC 211400Z 11011KT CAVOK 22/16 A2994 NOSIG=
201112211500 METAR MROC 211500Z 12010KT CAVOK 24/16 A2993 NOSIG=
201112211600 METAR MROC 211600Z 13011KT CAVOK 25/16 A2993 NOSIG=
201112211700 METAR MROC NIL=
201112211800 METAR MROC NIL=
201112211900 METAR MROC 211900Z 10008KT 9999 FEW035 28/15 A2987 NOSIG=
201112212000 METAR MROC 212000Z 10006KT 9999 FEW035 28/15 A2984 NOSIG=
201112212100 METAR MROC 212100Z 07007KT 9999 FEW035 28/14 A2983 NOSIG=
201112212200 METAR MROC 212200Z 24009KT 9999 FEW035 SCT100 25/20 A2982 NOSIG=
201112212300 METAR MROC 212300Z 24006KT 9999 FEW035 SCT120 23/21 A2983 NOSIG=
201112212356 METAR MROC 220000Z 26006KT 9999 FEW010 SCT020 21/20 A2986 NOSIG=
201112220000 METAR MROC 220000Z 26006KT 9999 FEW010 SCT020 21/20 A2986 NOSIG=
201112220100 METAR MROC 220100Z 29002KT 9999 FEW010 SCT020 21/20 A2988 NOSIG=
201112220200 METAR MROC 220200Z 10004KT CAVOK 21/17 A2990 NOSIG=
201112220300 METAR MROC 220300Z 07003KT CAVOK 21/17 A2992 NOSIG=
201112220400 METAR MROC 220400Z 05005KT CAVOK 21/17 A2992 NOSIG=
201112220500 METAR MROC 220500Z 07005KT CAVOK 21/17 A2992 NOSIG=
201112220600 METAR MROC 220600Z 10006KT 9999 FEW030 SCT120 20/17 A2991 NOSIG=
201112220700 METAR MROC 220700Z 11006KT 9999 FEW030 SCT120 21/16 A2988 NOSIG=
201112220800 METAR MROC 220800Z 12007KT 9999 FEW030 SCT120 21/16 A2986 NOSIG=
201112220900 METAR MROC 220900Z 11009KT 9999 FEW030 SCT120 21/16 A2984 NOSIG=
201112221000 METAR MROC 221000Z 12009KT 9999 FEW020 21/16 A2985 NOSIG=
201112221100 METAR MROC 221100Z 08005KT 9999 FEW020 21/16 A2988 NOSIG=
201112221200 METAR MROC 221200Z 02005KT 9999 FEW020 SCT100 20/16 A2990 NOSIG=
201112221300 METAR MROC 221300Z 10008KT 9999 FEW040 BKN080 22/17 A2992 NOSIG=
201112221400 METAR MROC 221400Z 10006KT 9999 FEW040 BKN150 23/17 A2994 NOSIG=
201112221500 METAR MROC 221500Z 09009KT 9999 FEW040 BKN150 24/18 A2995 NOSIG=
201112221600 METAR MROC 221600Z 11010G20KT 9999 FEW040 BKN150 25/17 A2993 NOSIG=
201112221700 METAR MROC 221700Z 12011KT 9999 FEW030 SCT120 BKN200 25/18 A2993 NOSIG=
201112221800 METAR MROC 221800Z 09011KT 9999 FEW030 SCT150 BKN200 25/17 A2991 BECMG -RA=
201112221900 METAR MROC 221900Z 10012KT 9999 FEW040 SCT150 BKN250 26/18 A2989 NOSIG=
201112222000 METAR MROC 222000Z 10009KT 9999 FEW040 SCT150 BKN250 25/17 A2986 NOSIG=
201112222100 METAR MROC 222100Z 09006KT 9999 FEW040 SCT120 BKN250 27/21 A2983 NOSIG=
201112222200 METAR MROC 222200Z 24008KT 9999 SCT045 BKN250 25/21 A2985 NOSIG=
201112222300 METAR MROC 222300Z 23006KT 9999 SCT035 SCT250 23/21 A2986 NOSIG=
201112230000 METAR MROC 230000Z 26007KT 9000 FEW008 SCT250 22/22 A2994 NOSIG=
201112230100 METAR MROC 230100Z 06001KT 9999 FEW010 BKN200 22/22 A2997 NOSIG=
201112230200 MROC 230200Z 10003KT 9999 FEW010 BKN200 21/20 A2998 NOSIG=
201112230300 METAR MROC 230300Z 09003KT 9999 FEW010 SCT200 21/20 A3000 NOSIG=
201112230400 METAR MROC 230400Z 35004KT CAVOK 20/18 A2996 NOSIG=
201112230500 METAR MROC 230500Z 00000KT CAVOK 20/18 A2998 NOSIG=
201112230600 METAR MROC 230600Z 00000KT CAVOK 19/18 A2997 NOSIG=
201112230700 METAR MROC 230700Z 00000KT CAVOK 19/18 A2995 NOSIG=
201112230800 METAR MROC 230800Z 06004KT CAVOK 19/17 A2993 NOSIG=
201112230900 METAR MROC 230900Z 00000KT CAVOK 18/17 A2994 NOSIG=
201112231000 METAR MROC 231000Z 00000KT CAVOK 18/17 A2996 NOSIG=
201112231100 METAR MROC 231100Z 05002KT CAVOK 18/17 A2996 NOSIG=
201112231200 METAR MROC 231200Z 04002KT CAVOK 19/17 A2998 NOSIG=
201112231300 METAR MROC 231300Z 08004KT 9999 SCT040 BKN200 21/19 A3000 NOSIG=
201112231400 METAR MROC 231400Z 12012KT 9999 SCT040 SCT200 23/19 A3000 NOSIG=
201112231500 METAR MROC 231500Z 11009KT 9999 SCT040 BKN250 26/18 A3001 NOSIG=
201112231600 METAR MROC 231600Z 10013KT 9999 SCT045 SCT250 27/17 A3001 NOSIG=
201112231700 METAR MROC 231700Z 10012KT 9999 SCT045 27/17 A2999 NOSIG=
201112231800 METAR MROC 231800Z 08018KT 9999 SCT045 BKN250 28/17 A2996 NOSIG=
201112231900 METAR MROC 231900Z 11011KT 9999 SCT045 BKN250 28/18 A2993 NOSIG=
201112232000 METAR MROC 232000Z 08013KT 9999 SCT040 SCT250 29/18 A2991 NOSIG=
201112232100 METAR MROC 232100Z 13006KT 9999 BKN040 SCT250 27/18 A2990 BECMG -RA=
201112232200 METAR MROC 232200Z 12008KT 9999 BKN035 SCT100 25/20 A2991 NOSIG=
201112232300 METAR MROC 232300Z 14008KT 9999 4500E -RA SCT030 SCT250 23/20 A2994 NOSIG=
201112240000 METAR MROC 240000Z 08003KT 9999 FEW035 SCT250 23/19 A2993 NOSIG=
201112240100 METAR MROC 240100Z 12006KT 9999 FEW035 SCT120 22/19 A2995 NOSIG=
201112240200 METAR MROC 240200Z 11003KT 9999 FEW035 SCT130 22/19 A2997 NOSIG=
201112240300 METAR MROC 240300Z 12008KT 9999 FEW035 SCT120 23/18 A2999 NOSIG=
201112240400 METAR MROC 240400Z 12009KT 9999 FEW035 SCT120 22/19 A2999 NOSIG=
201112240500 METAR MROC 240500Z 12007KT 9999 FEW035 SCT120 22/19 A2998 NOSIG=
201112240600 METAR MROC 240600Z 09006KT 9999 FEW035 SCT080 22/19 A2999 NOSIG=
201112240700 METAR MROC 240700Z 00000KT 9999 FEW035 SCT100 21/19 A2996 NOSIG=
201112240800 METAR MROC 240800Z 09002KT 9999 FEW035 SCT120 22/19 A2995 NOSIG=
201112240900 METAR MROC 240900Z 00000KT 9999 FEW035 SCT150 20/20 A2995 NOSIG=
201112241000 METAR MROC 241000Z 13002KT 9999 FEW035 BKN150 20/19 A2995 NOSIG=
201112241100 METAR MROC 241100Z 00000KT 9999 FEW035 BKN120 21/20 A2996 NOSIG=
201112241200 METAR MROC 241200Z 12007KT 9999 FEW035 BKN100 22/18 A2998 NOSIG=
201112241300 METAR MROC 241300Z 12007KT 9999 SCT035 BKN100 22/18 A3000 NOSIG=
201112241400 METAR MROC 241400Z 14006KT 9999 SCT035 SCT100 23/18 A3003 NOSIG=
201112241500 METAR MROC 241500Z 12012G24KT 9999 FEW040 SCT250 24/15 A3003 NOSIG=
201112241600 METAR MROC 241600Z 10013KT 9999 FEW040 BKN250 25/15 A3004 NOSIG=
201112241700 METAR MROC 241700Z 10010KT 9999 FEW040 BKN250 27/18 A3002 NOSIG=
201112241800 METAR MROC 241800Z 09013KT 9999 FEW045 SCT250 26/17 A3000 NOSIG=
201112241900 METAR MROC 241900Z 08018KT 9999 FEW040 SCT250 27/17 A2996 NOSIG=
201112242000 METAR MROC 242000Z 09016KT 9999 FEW040 27/17 A2994 NOSIG=
201112242100 METAR MROC 242100Z 09011KT 9999 FEW035 26/16 A2987 NOSIG=
201112242200 METAR MROC 242200Z 06011KT 9999 FEW030 25/16 A2987 NOSIG=
201112242300 METAR MROC 242300Z 08010KT 9999 FEW030 24/15 A2988 NOSIG=
201112250000 METAR MROC 250000Z 09010KT 9999 FEW030 22/12 A2991 NOSIG=
201112250100 METAR MROC 250100Z 12012KT 9999 FEW030 21/14 A2993 NOSIG=
201112250200 METAR MROC 250200Z 11011KT CAVOK 21/14 A2997 NOSIG=
201112250300 METAR COR MROC 250300Z 10009KT CAVOK 22/13 A2998 NOSIG=
201112250400 METAR MROC 250400Z 09010KT CAVOK 21/14 A2998 NOSIG=
201112250500 METAR MROC 250500Z 10010KT CAVOK 21/13 A2997 NOSIG=
201112250600 METAR MROC 250600Z 10010KT CAVOK 21/14 A2996 NOSIG=
201112250700 METAR MROC 250700Z 10011KT CAVOK 20/14 A2993 NOSIG=
201112250800 METAR MROC 250800Z 10013KT CAVOK 20/14 A2992 NOSIG=
201112250900 METAR MROC 250900Z 10012KT CAVOK 20/14 A2991 NOSIG=
201112251000 METAR MROC 251000Z 09009KT CAVOK 20/15 A2992 NOSIG=
201112251100 METAR COR MROC 251100Z 10011KT CAVOK 20/15 A2993 NOSIG=
201112251200 METAR MROC 251200Z 09011KT CAVOK 20/15 A2994 NOSIG=
201112251300 METAR MROC 251300Z 10013KT 9999 FEW025 22/15 A2996 NOSIG=
201112251400 METAR MROC 251400Z 10014KT CAVOK 22/15 A2998 NOSIG=
201112251500 METAR MROC 251500Z 10014KT CAVOK 25/14 A2998 NOSIG=
201112251600 METAR MROC 251600Z 10012KT 9999 FEW040 26/13 A2998 NOSIG=
201112251700 METAR MROC 251700Z 11013KT 9999 FEW040 27/11 A2997 NOSIG=
201112251800 METAR MROC 251800Z 11011KT 9999 FEW040 SCT120 27/13 A2996 NOSIG=
201112251900 METAR MROC 251900Z 10008KT 9999 FEW035 SCT110 27/15 A2993 NOSIG=
201112252000 METAR MROC 252000Z 10005KT 9999 SCT030 BKN090 27/16 A2990 NOSIG=
201112252100 METAR MROC 252100Z 08010KT 9999 FEW030 SCT070 27/16 A2988 NOSIG=
201112252200 METAR MROC 252200Z 10011KT 9999 FEW030 SCT070 25/17 A2987 NOSIG=
201112252300 METAR MROC 252300Z 09009KT 9999 FEW030 SCT070 23/16 A2990 NOSIG=
201112260000 METAR MROC 260000Z 12006KT 9999 FEW030 22/15 A2992 NOSIG=
201112260100 METAR MROC NIL=
201112260200 METAR MROC 260200Z 10010KT 9999 FEW030 21/16 A2996 NOSIG=
201112260300 METAR MROC 260300Z 10010KT CAVOK 21/15 A2997 NOSIG=
201112260400 METAR MROC 260400Z 09011KT CAVOK 21/16 A2998 NOSIG=
201112260500 METAR MROC 260500Z 08008KT CAVOK 21/16 A2999 NOSIG=
201112260600 METAR MROC 260600Z 08010KT CAVOK 21/16 A2997 NOSIG=
201112260700 METAR MROC 260700Z 08012KT CAVOK 21/14 A2992 NOSIG=
201112260800 METAR MROC 260800Z 12011G21KT CAVOK 20/15 A2991 NOSIG=
201112260900 METAR MROC 260900Z 10008KT CAVOK 20/14 A2991 NOSIG=
201112261000 METAR MROC 261000Z 10009KT CAVOK 20/16 A2992 NOSIG=
201112261100 METAR MROC 261100Z 08009KT CAVOK 20/16 A2994 NOSIG=
201112261200 METAR MROC 261200Z 10011KT 9999 FEW045 20/16 A2995 NOSIG=
201112261300 METAR MROC 261300Z 08012KT 9999 FEW030 21/16 A2996 NOSIG=
201112261400 METAR MROC 261400Z 08012KT 9999 FEW030 23/15 A2999 NOSIG=
201112261500 METAR MROC 261500Z 07016KT 9999 FEW030 24/14 A2998 NOSIG=
201112261600 METAR MROC 261600Z 07019KT 9999 FEW030 25/13 A2997 NOSIG=
201112261700 METAR MROC 261700Z 08018KT 9999 FEW030 26/13 A2995 NOSIG=
201112261800 METAR MROC 261800Z 08014KT 9999 FEW030 26/14 A2994 NOSIG=
201112261900 METAR MROC 261900Z 08013KT 9999 FEW030 26/16 A2991 NOSIG=
201112262000 METAR MROC 262000Z 10013KT 9999 FEW030 25/16 A2990 NOSIG=
201112262100 METAR MROC 262100Z 10011G21KT 9999 FEW035 26/14 A2990 NOSIG=
201112262200 METAR MROC 262200Z 09009KT 9999 FEW035 25/11 A2990 NOSIG=
201112262300 METAR MROC 262300Z 12011KT 9999 FEW035 23/13 A2991 NOSIG=
201112262354 METAR MROC 270000Z 11011KT CAVOK 21/13 A2995 NOSIG=
201112270000 METAR MROC 270000Z 11011KT CAVOK 21/13 A2995 NOSIG=
201112270100 METAR MROC 270100Z 11010KT CAVOK 20/14 A2997 NOSIG=
201112270200 METAR MROC 270200Z 10009KT CAVOK 20/14 A2999 NOSIG=
201112270300 METAR MROC 270300Z 09013KT CAVOK 20/14 A3001 NOSIG=
201112270400 METAR MROC 270400Z 10014KT CAVOK 20/14 A3002 NOSIG=
201112270500 METAR MROC 270500Z 12010KT CAVOK 19/14 A3000 NOSIG=
201112270600 METAR MROC 270600Z 11008KT CAVOK 19/14 A3000 NOSIG=
201112270700 METAR MROC 270700Z 12008KT CAVOK 19/13 A2998 NOSIG=
201112270800 METAR MROC NIL=
201112270900 METAR MROC 270900Z 11010KT CAVOK 20/14 A2995 NOSIG=
201112271000 METAR MROC 271000Z 11011KT CAVOK 19/14 A2995 NOSIG=
201112271100 METAR MROC 271100Z 11012KT CAVOK 18/13 A2996 NOSIG=
201112271200 METAR MROC 271200Z 10010KT CAVOK 18/13 A2998 NOSIG=
201112271300 METAR MROC 271300Z 11016KT CAVOK 21/13 A3000 NOSIG=
201112271400 METAR MROC 271400Z 10015KT CAVOK 23/14 A3001 NOSIG=
201112271500 METAR MROC 271500Z 11010G20KT CAVOK 24/13 A3001 NOSIG=
201112271600 METAR MROC 271600Z 10015KT CAVOK 25/13 A3000 NOSIG=
201112271700 METAR MROC 271700Z 09014KT CAVOK 26/12 A2999 NOSIG=
201112271800 METAR MROC 271800Z 10010KT CAVOK 27/13 A2997 NOSIG=
201112271900 METAR MROC 271900Z 09011KT CAVOK 28/13 A2995 NOSIG=
201112272000 METAR MROC 272000Z 08011KT CAVOK 27/12 A2994 NOSIG=
201112272100 METAR MROC 272100Z 09010KT 9999 FEW050 SCT250 27/13 A2993 NOSIG=
201112272200 METAR MROC 272200Z 08009KT 9999 FEW045 SCT250 26/12 A2992 NOSIG=
201112272300 METAR MROC 272300Z 07010KT 9999 FEW045 24/13 A2994 NOSIG=
201112280000 METAR MROC 280000Z 09008KT CAVOK 22/13 A2996 NOSIG=
201112280100 METAR MROC 280100Z 09010KT CAVOK 21/15 A2998 NOSIG=
201112280200 METAR MROC 280200Z 09008KT CAVOK 21/15 A3002 NOSIG=
201112280300 METAR MROC 280300Z 09009KT CAVOK 21/14 A3003 NOSIG=
201112280400 METAR MROC 280400Z 10008KT CAVOK 20/14 A3003 NOSIG=
201112280500 METAR MROC 280500Z 10008KT CAVOK 21/14 A3003 NOSIG=
201112280600 METAR MROC 280600Z 10008KT CAVOK 20/14 A3002 NOSIG=
201112280700 METAR MROC 280700Z 08006KT CAVOK 20/15 A3002 NOSIG=
201112280800 METAR MROC 280800Z 11009KT CAVOK 20/15 A3000 NOSIG=
201112280900 METAR MROC 280900Z 10011KT CAVOK 20/15 A2999 NOSIG=
201112281000 METAR MROC 281000Z 09012KT CAVOK 21/14 A2999 NOSIG=
201112281100 METAR MROC 281100Z 11010KT CAVOK 20/14 A3000 NOSIG=
201112281200 METAR MROC 281200Z 11010KT CAVOK 20/14 A3001 NOSIG=
201112281300 METAR MROC 281300Z 10011G21KT CAVOK 22/14 A3002 NOSIG=
201112281400 METAR MROC 281400Z 09013KT CAVOK 23/14 A3003 NOSIG=
201112281500 METAR MROC 281500Z 07012KT CAVOK 25/14 A3002 NOSIG=
201112281600 METAR MROC 281600Z 09014KT CAVOK 25/14 A3001 NOSIG=
201112281700 COR MROC 281700Z 07013KT CAVOK 26/14 A3000 NOSIG=
201112281800 METAR MROC 281800Z 08015KT 9999 FEW045 27/14 A2997 NOSIG=
201112281900 METAR MROC 281900Z 08011KT 9999 SCT045 27/15 A2995 NOSIG=
201112282000 METAR MROC 282000Z 10010KT 9999 SCT045 28/14 A2992 NOSIG=
201112282100 METAR MROC 282100Z 10010KT 9999 FEW045 28/16 A2996 NOSIG=
201112282200 MROC 282200Z 10011KT 9999 SCT045 24/16 A2992 NOSIG=
201112282300 METAR MROC 282300Z 09010KT 9999 SCT035 23/15 A2994 NOSIG=
201112290000 METAR MROC 290000Z 11010KT 9999 FEW035 21/15 A2997 NOSIG=
201112290100 METAR MROC 290100Z 11010KT 9999 FEW035 20/15 A3000 NOSIG=
201112290200 METAR MROC 290200Z 10012KT 9999 FEW035 20/13 A3001 NOSIG=
201112290300 METAR MROC 290300Z 12013KT CAVOK 20/14 A3003 NOSIG=
201112290400 METAR MROC 290400Z 11010KT CAVOK 20/13 A3004 NOSIG=
201112290500 METAR MROC 290500Z 11011KT CAVOK 20/13 A3002 NOSIG=
201112290600 METAR MROC 290600Z 12007KT CAVOK 20/13 A3001 NOSIG=
201112290700 METAR MROC 290700Z 10008KT CAVOK 20/14 A2998 NOSIG=
201112290800 METAR MROC 290800Z 10009KT CAVOK 21/14 A2997 NOSIG=
201112290900 METAR MROC 290900Z 09011KT CAVOK 21/14 A2995 NOSIG=
201112291000 METAR MROC 291000Z 09010G20KT CAVOK 21/14 A2995 NOSIG=
201112291100 METAR MROC 291100Z 11009KT CAVOK 20/14 A2996 NOSIG=
201112291200 METAR MROC 291200Z 10006KT CAVOK 20/14 A2997 NOSIG=
201112291300 METAR MROC 291300Z 11011KT CAVOK 22/14 A3000 NOSIG=
201112291400 METAR MROC 291400Z 10010KT CAVOK 24/15 A3002 NOSIG=
201112291500 METAR MROC 291500Z 10011KT CAVOK 25/15 A3002 NOSIG=
201112291600 METAR MROC 291600Z 11012KT CAVOK 26/14 A3000 NOSIG=
201112291700 METAR MROC NIL=
201112291800 METAR MROC 291800Z 10009KT CAVOK 28/15 A2996 NOSIG=
201112291900 METAR MROC 291900Z 12010KT 9999 FEW040 SCT250 27/15 A2993 NOSIG=
201112292000 METAR MROC 292000Z 10010KT 9999 FEW040 SCT250 28/16 A2992 NOSIG=
201112292100 METAR MROC NIL=
201112292200 METAR MROC NIL=
201112292300 METAR MROC NIL=
201112300000 METAR MROC NIL=
201112300100 METAR MROC 300100Z 05008KT 9999 FEW035 SCT250 22/16 A2997 NOSIG=
201112300200 METAR MROC 300200Z 10006KT CAVOK 22/15 A2999 NOSIG=
201112300300 METAR MROC 300300Z 10006KT CAVOK 21/15 A2999 NOSIG=
201112300400 METAR MROC 300400Z 10012KT CAVOK 21/15 A2998 NOSIG=
201112300500 METAR MROC 300500Z 10011KT CAVOK 21/15 A2998 NOSIG=
201112300600 METAR MROC 300600Z 10010KT CAVOK 21/14 A2996 NOSIG=
201112300700 METAR MROC 300700Z 10011KT CAVOK 21/15 A2994 NOSIG=
201112300800 METAR MROC 300800Z 10010KT CAVOK 21/14 A2993 NOSIG=
201112300900 METAR MROC 300900Z 10012KT CAVOK 22/14 A2993 NOSIG=
201112301000 METAR MROC 301000Z 11008KT CAVOK 21/14 A2994 NOSIG=
201112301100 METAR MROC 301100Z 12008KT CAVOK 20/15 A2995 NOSIG=
201112301200 METAR MROC 301200Z 11009KT CAVOK 20/15 A2996 NOSIG=
201112301300 METAR MROC 301300Z 10010KT CAVOK 23/15 A2998 NOSIG=
201112301400 METAR MROC 301400Z 10012KT CAVOK 25/15 A2999 NOSIG=
201112301500 METAR MROC 301500Z 09009KT CAVOK 25/16 A2999 NOSIG=
201112301600 METAR MROC 301600Z 08012KT 9999 FEW035 SCT250 27/15 A2998 NOSIG=
201112301700 METAR MROC 301700Z 09012KT 9999 FEW035 SCT250 27/15 A2997 NOSIG=
201112301800 METAR MROC 301800Z 08012KT 9999 FEW035 SCT250 28/16 A2996 NOSIG=
201112301900 METAR MROC 301900Z 09012KT 9999 FEW035 SCT250 27/15 A2992 NOSIG=
201112302000 METAR MROC 302000Z 08010KT 9999 FEW030 SCT220 27/15 A2990 NOSIG=
201112302100 METAR MROC 302100Z 09011KT 9999 FEW035 BKN120 27/14 A2990 NOSIG=
201112302200 METAR MROC 302200Z 08012KT 9999 FEW035 BKN140 25/14 A2990 NOSIG=
201112302300 METAR MROC 302300Z 08012KT 9999 FEW035 BKN120 24/14 A2997 NOSIG=
201112310000 METAR MROC 310000Z 09010KT 9999 FEW035 BKN140 23/15 A2995 NOSIG=
201112310100 METAR MROC 310100Z 09009KT 9999 FEW035 SCT120 22/15 A2996 NOSIG=
201112310200 METAR MROC 310200Z 10011KT CAVOK 22/16 A2997 NOSIG=
201112310300 METAR MROC 310300Z 09012KT CAVOK 22/15 A2998 NOSIG=
201112310400 METAR MROC 310400Z 09011G21KT CAVOK 22/15 A2998 NOSIG=
201112310500 METAR MROC 310500Z 09010KT CAVOK 21/15 A2997 NOSIG=
201112310600 METAR MROC 310600Z 10013KT CAVOK 21/15 A2995 NOSIG=
201112310700 METAR MROC 310700Z 10011KT CAVOK 22/15 A2993 NOSIG=
201112310800 METAR MROC 310800Z 09011KT CAVOK 22/16 A2991 NOSIG=
201112310900 METAR MROC 310900Z 09014KT CAVOK 21/16 A2991 NOSIG=
201112311000 METAR MROC 311000Z 10013KT CAVOK 22/16 A2993 NOSIG=
201112311100 METAR MROC 311100Z 09013G23KT CAVOK 22/16 A2993 NOSIG=
201112311200 METAR MROC 311200Z 10011KT CAVOK 21/16 A2995 NOSIG=
201112311300 METAR MROC 311300Z 08013KT CAVOK 23/16 A2997 NOSIG=
201112311400 METAR MROC 311400Z 09014KT 9999 FEW030 BKN120 24/16 A2998 NOSIG=
201112311500 METAR MROC 311500Z 09015G25KT 9999 FEW030 BKN110 24/16 A2999 NOSIG=
201112311600 METAR MROC 311600Z 08015G25KT 9999 FEW030 SCT120 26/16 A2997 NOSIG=
201112311700 METAR MROC 311700Z 09015G25KT 9999 FEW030 SCT130 25/14 A2995 NOSIG=
201112311800 METAR MROC 311800Z 07018G28KT 9999 FEW030 SCT140 27/14 A2993 NOSIG=
201112311900 METAR MROC 311900Z 08014KT 9999 FEW035 27/14 A2990 NOSIG=
201112312000 METAR MROC 312000Z 07016KT 9999 FEW035 27/14 A2988 NOSIG=
201112312100 METAR MROC 312100Z 09010G20KT 9999 FEW035 SCT080 26/14 A2987 NOSIG=
201112312200 METAR MROC 312200Z 07015G25KT 9999 FEW035 SCT120 25/14 A2988 NOSIG=
201112312300 METAR MROC 312300Z 08014KT 9999 FEW035 SCT120 24/14 A2990 NOSIG=
201112312357 METAR MROC 010000Z 08012KT CAVOK 23/13 A2992 NOSIG=
