201201010000 METAR MROC 010000Z 08012KT CAVOK 23/13 A2992 NOSIG=
201201010100 METAR MROC 010100Z 10012KT CAVOK 22/14 A2994 NOSIG=
201201010200 METAR MROC 010200Z 10013KT CAVOK 21/14 A2995 NOSIG=
201201010300 METAR MROC 010300Z 10010KT CAVOK 21/14 A2997 NOSIG=
201201010400 METAR MROC 010400Z 11010KT CAVOK 21/15 A2997 NOSIG=
201201010500 METAR MROC 010500Z 10014KT CAVOK 21/15 A2996 NOSIG=
201201010600 METAR MROC 010600Z 09013KT CAVOK 21/15 A2994 NOSIG=
201201010700 METAR MROC 010700Z 11013KT CAVOK 20/15 A2992 NOSIG=
201201010800 METAR MROC 010800Z 10010KT CAVOK 19/14 A2991 NOSIG=
201201010900 METAR MROC 010900Z 10012KT CAVOK 20/14 A2991 NOSIG=
201201011000 METAR MROC 011000Z 11012KT CAVOK 20/14 A2992 NOSIG=
201201011100 METAR MROC 011100Z 10013KT CAVOK 20/14 A2994 NOSIG=
201201011200 METAR MROC 011200Z 10013KT CAVOK 20/14 A2995 NOSIG=
201201011300 METAR MROC 011300Z 11016KT CAVOK 21/14 A2997 NOSIG=
201201011400 METAR MROC 011400Z 11017KT CAVOK 23/14 A2999 NOSIG=
201201011500 METAR MROC 011500Z 11018KT CAVOK 23/14 A2998 NOSIG=
201201011600 METAR MROC 011600Z 09015KT CAVOK 26/14 A2998 NOSIG=
201201011700 METAR MROC 011700Z 08014KT 9999 FEW040 BKN250 26/13 A2996 NOSIG=
201201011800 METAR MROC 011800Z 07014KT 9999 FEW040 BKN250 27/14 A2994 NOSIG=
201201011900 METAR MROC 011900Z 08013KT 9999 FEW035 BKN250 27/14 A2991 NOSIG=
201201012000 METAR MROC 012000Z 07010G20KT 9999 SCT035 BKN250 27/14 A2989 NOSIG=
201201012100 METAR MROC 012100Z 07013KT 9999 FEW040 SCT250 27/15 A2988 NOSIG=
201201012200 METAR MROC 012200Z 08010G20KT 9999 FEW030 SCT250 25/15 A2988 NOSIG=
201201012300 METAR MROC 012300Z 08010KT 9999 FEW030 BKN250 24/15 A2989 NOSIG=
201201020000 METAR MROC 020000Z 10010G20KT 9999 FEW035 SCT100 23/16 A2992 NOSIG=
201201020100 METAR MROC 020100Z 10011KT 9999 SCT045 22/16 A2996 NOSIG=
201201020200 METAR MROC 020200Z 09011KT CAVOK 22/15 A2999 NOSIG=
201201020300 METAR MROC 020300Z 11012KT CAVOK 22/16 A2999 NOSIG=
201201020400 METAR MROC 020400Z 10010KT CAVOK 21/16 A2999 NOSIG=
201201020500 METAR MROC 020500Z 07007KT CAVOK 21/16 A2999 NOSIG=
201201020600 METAR MROC 020600Z 07008KT CAVOK 21/16 A2998 NOSIG=
201201020700 METAR MROC 020700Z 08008KT CAVOK 21/15 A2995 NOSIG=
201201020800 METAR MROC 020800Z 10012KT CAVOK 21/16 A2993 NOSIG=
201201020900 METAR MROC 020900Z 09013KT CAVOK 21/14 A2994 NOSIG=
201201021000 METAR MROC 021000Z 09013KT CAVOK 20/15 A2993 NOSIG=
201201021100 METAR MROC 021100Z 10012KT CAVOK 20/15 A2995 NOSIG=
201201021200 METAR MROC 021200Z 09011KT CAVOK 20/14 A2997 NOSIG=
201201021300 METAR MROC 021300Z 10013KT CAVOK 21/14 A2999 NOSIG=
201201021400 METAR MROC 021400Z 10015KT CAVOK 22/15 A3002 NOSIG=
201201021500 METAR MROC 021500Z 09012KT CAVOK 25/14 A3001 NOSIG=
201201021600 METAR MROC 021600Z 10014G24KT 9999 FEW045 25/15 A3000 NOSIG=
201201021700 METAR MROC 021700Z 09015G25KT 9999 SCT035 26/16 A3000 NOSIG=
201201021800 METAR MROC 021800Z 07012KT 9999 SCT040 26/12 A2999 NOSIG=
201201021900 METAR MROC 021900Z 08014KT 9999 SCT045 26/13 A2996 NOSIG=
201201022000 METAR MROC 022000Z 09014KT CAVOK 27/13 A2994 NOSIG=
201201022100 METAR MROC 022100Z 09010G20KT CAVOK 27/14 A2993 NOSIG=
201201022200 METAR MROC 022200Z 08010G20KT CAVOK 26/15 A2994 NOSIG=
201201022300 METAR MROC NIL=
201201030000 METAR MROC 030000Z 10009KT 9999 FEW040 22/15 A2998 NOSIG=
201201030100 METAR MROC 030100Z 10008KT 9999 FEW040 22/15 A3002 NOSIG=
201201030200 METAR MROC 030200Z 09010KT 9999 FEW040 21/15 A3005 NOSIG=
201201030300 METAR MROC 030300Z 09010G20KT CAVOK 21/14 A3006 NOSIG=
201201030400 METAR MROC 030400Z 10011KT CAVOK 21/14 A3006 NOSIG=
201201030500 METAR MROC 030500Z 08011G21KT 9999 FEW035 20/14 A3006 NOSIG=
201201030600 METAR MROC 030600Z 09012KT CAVOK 20/14 A3004 NOSIG=
201201030700 METAR MROC 030700Z 10012G22KT CAVOK 20/14 A3003 NOSIG=
201201030800 METAR MROC 030800Z 10010G20KT CAVOK 20/13 A3001 NOSIG=
201201030900 METAR MROC 030900Z 10012G22KT CAVOK 20/14 A2999 NOSIG=
201201031000 METAR MROC 031000Z 09012KT CAVOK 20/14 A3000 NOSIG=
201201031100 METAR MROC 031100Z 11011G21KT CAVOK 20/14 A3001 NOSIG=
201201031200 METAR MROC 031200Z 10016G26KT 9999 FEW045 BKN250 20/14 A3003 NOSIG=
201201031300 METAR MROC 031300Z 10011G21KT CAVOK 21/14 A3006 NOSIG=
201201031400 METAR MROC 031400Z 09011G22KT CAVOK 23/14 A3008 NOSIG=
201201031500 METAR MROC 031500Z 10010G20KT CAVOK 24/14 A3007 NOSIG=
201201031600 METAR MROC 031600Z 08012G22KT 9999 FEW045 SCT250 25/14 A3007 NOSIG=
201201031700 METAR MROC 031700Z 07016G26KT 9999 FEW045 SCT250 25/13 A3004 NOSIG=
201201031800 METAR MROC 031800Z 07013G23KT 9999 FEW045 SCT250 25/14 A3002 NOSIG=
201201031900 METAR MROC 031900Z 07017G27KT 9999 FEW045 BKN250 26/14 A2999 NOSIG=
201201032000 METAR MROC 032000Z 07016G32KT 9999 FEW045 BKN250 24/14 A2997 NOSIG=
201201032100 METAR MROC 032100Z 09013KT 9999 FEW035 BKN250 24/13 A2998 NOSIG=
201201032200 METAR MROC 032200Z 08016KT 9999 FEW035 BKN250 23/13 A2999 NOSIG=
201201032300 METAR MROC 032300Z 09015KT 9999 FEW035 BKN250 22/13 A3000 NOSIG=
201201040000 METAR MROC 040000Z 10014KT 9999 FEW035 BKN250 21/13 A3002 NOSIG=
201201040100 METAR MROC 040100Z 09017KT 9999 FEW035 BKN250 21/12 A3003 NOSIG=
201201040200 METAR MROC 040200Z 09015G25KT 9999 FEW035 BKN250 20/12 A3005 NOSIG=
201201040300 METAR MROC 040300Z 09015G28KT 9999 FEW035 BKN190 21/12 A3007 NOSIG=
201201040400 METAR MROC 040400Z 08019G29KT 9999 FEW030 BKN180 20/13 A3007 NOSIG=
201201040500 METAR MROC 040500Z 08013KT 9999 FEW030 SCT100 20/12 A3007 NOSIG=
201201040600 METAR MROC 040600Z 07015G25KT CAVOK 20/12 A3005 RMK SCT100 NOSIG=
201201040700 METAR MROC 040700Z 09011G21KT CAVOK 20/12 A3001 RMK SCT200 NOSIG=
201201040800 COR MROC 040800Z 08013KT CAVOK 20/12 A3001 NOSIG=
201201040900 METAR MROC 040900Z 08013KT CAVOK 20/13 A3000 NOSIG=
201201041000 METAR MROC 041000Z 08011KT 9999 FEW045 20/13 A3001 NOSIG=
201201041100 METAR MROC 041100Z 08015KT 9999 FEW040 20/13 A3002 NOSIG=
201201041200 METAR MROC 041200Z 07016KT 9999 FEW035 SCT250 21/12 A3003 NOSIG=
201201041300 METAR MROC 041300Z 08017KT 9999 FEW035 SCT250 20/14 A3005 BECMG 09015G25KT=
201201041400 METAR MROC 041400Z 09012KT 9999 FEW035 SCT250 22/14 A3007 BECMG 09010G20KT=
201201041500 METAR MROC 041500Z 10014KT 9999 FEW035 BKN250 23/14 A3008 NOSIG=
201201041600 METAR COR MROC 041600Z 09013KT 9999 FEW035 BKN250 24/15 A3007 BECMG 09010G20KT=
201201041700 METAR MROC 041700Z 09012KT 9999 FEW035 BKN250 25/14 A3004 BECMG 09010G20KT=
201201041800 METAR MROC 041800Z 08015KT 9999 FEW035 BKN250 26/14 A3002 BECMG 08012G24KT=
201201041900 METAR MROC 041900Z 08012KT 9999 FEW035 SCT250 26/15 A2999 BECMG 08012G22KT=
201201042000 METAR MROC 042000Z 07012KT 9999 FEW030 SCT100 25/14 A2997 BECMG 07012G22KT=
201201042100 METAR MROC 042100Z 08009KT 9999 FEW030 SCT070 24/15 A2996 NOSIG=
201201042200 METAR MROC 042200Z 07009KT 9999 FEW030 BKN070 23/15 A2997 NOSIG=
201201042300 METAR MROC 042300Z 06009KT 9999 FEW030 BKN070 22/15 A2999 NOSIG=
201201050000 METAR MROC 050000Z 05007KT 9999 FEW030 SCT070 22/15 A3002 NOSIG=
201201050100 METAR MROC 050100Z 06006KT 9999 FEW030 SCT070 20/16 A3003 NOSIG=
201201050200 METAR MROC 050200Z 08005KT 9999 FEW030 SCT070 21/16 A3005 NOSIG=
201201050300 METAR MROC 050300Z 06010KT 9999 FEW035 SCT100 21/16 A3006 NOSIG=
201201050400 METAR MROC 050400Z 08010KT 9999 FEW035 SCT100 21/16 A3006 NOSIG=
201201050500 METAR MROC 050500Z 11010KT 9999 FEW030 SCT100 20/16 A3004 NOSIG=
201201050600 METAR MROC 050600Z 08009KT 9999 FEW030 SCT100 20/15 A3004 NOSIG=
201201050700 METAR MROC 050700Z 11008KT 9999 FEW035 SCT120 20/15 A3001 NOSIG=
201201050800 METAR MROC 050800Z 07004KT 9999 FEW035 SCT120 19/15 A3000 NOSIG=
201201050900 METAR MROC 050900Z 05009KT 9999 FEW035 19/14 A2999 NOSIG=
201201051000 METAR MROC 051000Z 02005KT 9999 SCT035 19/14 A3000 NOSIG=
201201051100 METAR MROC 051100Z 05009KT CAVOK 18/14 A3001 NOSIG=
201201051200 METAR MROC 051200Z 04009KT 9999 FEW030 BKN100 19/14 A3003 NOSIG=
201201051300 METAR MROC 051300Z 06006KT 9999 FEW030 BKN100 19/14 A3006 NOSIG=
201201051400 METAR MROC 051400Z 10007KT 9999 FEW030 SCT120 21/14 A3008 NOSIG=
201201051500 METAR MROC 051500Z 09009KT 9999 FEW030 SCT120 21/14 A3008 NOSIG=
201201051600 METAR MROC 051600Z 08010KT 9999 FEW030 SCT120 23/14 A3007 NOSIG=
201201051700 METAR MROC 051700Z 09008KT 9999 FEW030 SCT120 23/14 A3005 NOSIG=
201201051800 METAR MROC 051800Z 11011KT 9999 FEW030 SCT120 24/15 A3002 NOSIG=
201201051900 METAR MROC 051900Z 13011KT 9999 FEW030 BKN100 23/14 A2999 NOSIG=
201201052000 METAR MROC 052000Z 10010KT 9999 FEW030 BKN080 22/15 A2998 NOSIG=
201201052100 METAR MROC 052100Z 11010KT 9999 FEW030 BKN100 22/14 A2997 NOSIG=
201201052200 METAR MROC 052200Z 11008KT 9999 FEW030 SCT080 BKN120 21/15 A2997 NOSIG=
201201052300 METAR MROC 052300Z 10007KT 9999 FEW030 SCT080 BKN120 20/14 A2999 NOSIG=
201201052355 METAR MROC 060000Z 07011KT 9999 FEW030 SCT080 BKN120 19/14 A2999 NOSIG=
201201060000 METAR MROC 060000Z 07011KT 9999 FEW030 SCT080 BKN120 19/14 A2999 NOSIG=
201201060100 METAR MROC 060100Z 09013KT 9999 FEW030 BKN120 19/14 A3000 NOSIG=
201201060200 METAR MROC 060200Z 11011KT 9999 FEW030 BKN120 19/14 A3002 NOSIG=
201201060300 METAR MROC 060300Z 09012KT 9999 FEW030 SCT120 19/14 A3003 NOSIG=
201201060400 METAR MROC 060400Z 12007KT 9999 SCT030 SCT120 19/15 A3004 NOSIG=
201201060500 METAR MROC 060500Z 12006KT 9999 SCT030 SCT120 19/14 A3002 NOSIG=
201201060600 METAR MROC 060600Z 12004KT 9999 SCT030 SCT120 19/15 A3002 NOSIG=
201201060700 METAR MROC 060700Z 04002KT 9999 SCT030 SCT120 19/15 A3000 NOSIG=
201201060800 METAR MROC 060800Z 09008KT 9999 FEW030 SCT120 19/14 A2998 NOSIG=
201201060900 METAR MROC 060900Z 11006KT 9999 FEW030 SCT120 18/14 A2998 NOSIG=
201201061000 METAR MROC 061000Z 08006KT 9999 FEW020 SCT120 18/14 A2998 NOSIG=
201201061100 METAR MROC 061100Z 09010KT 9999 FEW030 SCT120 19/15 A2997 NOSIG=
201201061200 METAR MROC 061200Z 09010KT 9999 FEW030 SCT110 19/15 A2999 NOSIG=
201201061300 METAR MROC 061300Z 10008KT 9999 FEW035 BKN120 21/15 A3000 NOSIG=
201201061400 METAR MROC 061400Z 10010KT 9999 FEW035 BKN120 22/15 A3003 NOSIG=
201201061500 METAR MROC 061500Z 10010KT 9999 FEW035 SCT120 BKN250 23/15 A3003 NOSIG=
201201061600 METAR MROC 061600Z 10015KT 9999 FEW030 BKN080 23/15 A3003 NOSIG=
201201061700 METAR MROC 061700Z 09015KT 9999 FEW030 SCT080 BKN250 23/15 A3001 NOSIG=
201201061800 METAR MROC 061800Z 11013KT 9999 FEW030 SCT060 BKN120 23/16 A2999 NOSIG=
201201061900 METAR MROC 061900Z 12012KT 9999 FEW030 SCT060 BKN120 24/16 A2995 NOSIG=
201201062000 METAR MROC 062000Z 12013KT 9999 SCT030 BKN120 23/16 A2995 NOSIG=
201201062100 METAR MROC 062100Z 11007KT 9999 SCT035 BKN160 23/16 A2993 NOSIG=
201201062200 METAR MROC 062200Z 14006KT 9999 SCT040 BKN180 23/16 A2993 NOSIG=
201201062300 METAR MROC 062300Z 10006KT 9999 FEW030 SCT060 BKN180 23/15 A2995 NOSIG=
201201070000 METAR MROC 070000Z 10006KT 9999 FEW030 BKN200 21/16 A2997 NOSIG=
201201070100 METAR MROC 070100Z 04003KT 9999 SCT040 BKN200 21/16 A2998 NOSIG=
201201070200 METAR MROC 070200Z 10010KT 9999 FEW040 BKN200 21/16 A2999 NOSIG=
201201070300 METAR MROC 070300Z 11011KT 9999 FEW040 BKN120 21/15 A3000 NOSIG=
201201070400 METAR MROC 070400Z 09008KT 9999 FEW035 SCT120 21/15 A3001 NOSIG=
201201070500 METAR MROC 070500Z 08006KT 9999 FEW035 BKN120 21/15 A3000 NOSIG=
201201070600 METAR MROC 070600Z 02006KT 9999 FEW035 SCT100 20/16 A3001 NOSIG=
201201070700 METAR MROC 070700Z 13002KT 9999 FEW035 SCT100 20/15 A2999 NOSIG=
201201070800 METAR MROC 070800Z 11006KT 9999 FEW035 SCT120 20/15 A2997 NOSIG=
201201070900 METAR MROC 070900Z 09006KT 9999 FEW035 BKN100 20/15 A2996 NOSIG=
201201071000 METAR MROC 071000Z 12005KT 9999 FEW035 BKN100 19/15 A2997 NOSIG=
201201071100 METAR MROC 071100Z 12008KT 9999 FEW035 BKN100 19/15 A2998 NOSIG=
201201071200 METAR MROC 071200Z 09005KT 9999 FEW035 BKN120 19/15 A2999 NOSIG=
201201071300 METAR MROC 071300Z 06004KT CAVOK 21/15 A3002 NOSIG=
201201071400 METAR MROC 071400Z 10006KT CAVOK 24/15 A3002 NOSIG=
201201071500 METAR MROC 071500Z 11007KT CAVOK 24/15 A3003 NOSIG=
201201071600 METAR MROC 071600Z 08010KT 9999 FEW045 SCT120 25/15 A3002 NOSIG=
201201071700 METAR MROC 071700Z 10010KT 9999 FEW045 26/15 A2999 NOSIG=
201201071800 METAR MROC 071800Z 09010KT 9999 FEW045 27/13 A2997 NOSIG=
201201071900 METAR MROC 071900Z 08011KT 9999 SCT045 27/12 A2995 NOSIG=
201201072000 METAR MROC 072000Z 08011KT 9999 SCT045 28/13 A2993 NOSIG=
201201072100 METAR MROC 072100Z 08010KT 9999 FEW040 27/13 A2992 NOSIG=
201201072200 METAR MROC 072200Z 07012KT 9999 FEW040 26/14 A2993 NOSIG=
201201072300 METAR MROC 072300Z 10007KT 9999 FEW040 25/13 A2993 NOSIG=
201201080000 METAR MROC NIL=
201201080100 METAR MROC 080100Z 06007KT CAVOK 22/18 A3000 NOSIG=
201201080200 METAR MROC 080200Z 07006KT CAVOK 21/15 A3001 NOSIG=
201201080300 METAR MROC 080300Z 10013KT CAVOK 21/15 A3003 NOSIG=
201201080400 METAR MROC 080400Z 06012KT CAVOK 20/15 A3003 NOSIG=
201201080500 METAR MROC 080500Z 08010KT CAVOK 20/15 A3003 NOSIG=
201201080600 METAR MROC 080600Z 03005KT CAVOK 19/15 A3001 NOSIG=
201201080700 METAR MROC 080700Z 02003KT CAVOK 18/15 A3000 NOSIG=
201201080800 METAR MROC 080800Z 02005KT CAVOK 18/14 A2998 NOSIG=
201201080900 METAR MROC 080900Z 03005KT CAVOK 18/14 A2997 NOSIG=
201201081000 METAR MROC 081000Z 02008KT CAVOK 18/14 A2997 NOSIG=
201201081100 METAR MROC 081100Z 10013KT CAVOK 20/15 A2997 NOSIG=
201201081200 METAR MROC 081200Z 09013KT CAVOK 21/14 A2998 NOSIG=
201201081300 METAR MROC NIL=
201201081400 METAR MROC 081400Z 10010G20KT CAVOK 23/14 A3001 NOSIG=
201201081500 METAR MROC 081500Z 10011KT CAVOK 24/13 A3001 NOSIG=
201201081600 METAR MROC 081600Z 10011KT CAVOK 27/11 A3001 NOSIG=
201201081700 METAR MROC 081700Z 09012KT CAVOK 27/11 A3000 NOSIG=
201201081800 METAR MROC NIL=
201201081900 METAR MROC 081900Z 08010G20KT CAVOK 28/13 A2996 NOSIG=
201201082000 METAR MROC 082000Z 07010KT CAVOK 27/12 A2994 NOSIG=
201201082100 METAR MROC 082100Z 07011KT 9999 FEW035 27/14 A2992 NOSIG=
201201082200 METAR MROC 082200Z 07012KT 9999 FEW035 26/13 A2992 NOSIG=
201201082300 METAR MROC 082300Z 07011KT 9999 FEW035 24/13 A2992 NOSIG=
201201090000 METAR MROC 090000Z 06013KT 9999 FEW030 22/13 A2995 NOSIG=
201201090100 METAR MROC 090100Z 10008KT 9999 FEW030 21/14 A2998 NOSIG=
201201090200 METAR MROC 090200Z 08008KT 9999 FEW030 21/13 A2999 NOSIG=
201201090300 METAR MROC 090300Z 14005KT 9999 FEW045 20/14 A3003 NOSIG=
201201090400 METAR MROC 090400Z 09003KT CAVOK 20/13 A3003 NOSIG=
201201090500 METAR MROC 090500Z 06004KT CAVOK 20/12 A3001 NOSIG=
201201090600 METAR MROC 090600Z 13005KT CAVOK 19/13 A2999 NOSIG=
201201090700 METAR MROC 090700Z 13005KT CAVOK 19/13 A2998 NOSIG=
201201090800 METAR MROC 090800Z 03002KT CAVOK 17/12 A2997 NOSIG=
201201090900 METAR MROC 090900Z 07004KT CAVOK 16/12 A2996 NOSIG=
201201091000 METAR MROC 091000Z 03004KT CAVOK 15/12 A2997 NOSIG=
201201091100 METAR MROC 091100Z 04007KT CAVOK 16/12 A2998 NOSIG=
201201091200 METAR MROC 091200Z 07005KT CAVOK 18/13 A2997 NOSIG=
201201091300 METAR MROC 091300Z 08007KT CAVOK 21/13 A3000 NOSIG=
201201091400 METAR MROC 091400Z 08006KT CAVOK 24/14 A3001 NOSIG=
201201091500 METAR MROC 091500Z 08009KT CAVOK 26/13 A3000 NOSIG=
201201091600 METAR MROC 091600Z 09007KT 9999 FEW035 SCT270 27/13 A3000 NOSIG=
201201091700 METAR MROC 091700Z 07011KT 9999 FEW035 SCT270 28/13 A2998 NOSIG=
201201091800 METAR MROC 091800Z 09010KT 9999 FEW035 BKN250 27/14 A2997 NOSIG=
201201091900 METAR MROC 091900Z 07013KT 9999 FEW035 BKN250 27/15 A2995 NOSIG=
201201092000 METAR MROC 092000Z 08010KT 9999 FEW035 BKN250 27/15 A2992 NOSIG=
201201092100 METAR MROC 092100Z 08011KT 9999 FEW035 BKN250 26/13 A2990 NOSIG=
201201092200 METAR MROC 092200Z 05013KT 9999 FEW035 BKN250 26/13 A2991 NOSIG=
201201092300 METAR MROC 092300Z 06012KT 9999 FEW035 BKN250 24/14 A2992 NOSIG=
201201100000 METAR MROC NIL=
201201100100 METAR MROC 100100Z 08010KT 9999 FEW035 BKN250 22/15 A2996 NOSIG=
201201100200 METAR MROC NIL=
201201100300 METAR MROC 100300Z 07010KT 9999 FEW035 SCT250 21/15 A3000 NOSIG=
201201100400 METAR MROC 100400Z 08012KT CAVOK 21/15 A3000 NOSIG=
201201100500 METAR MROC 100500Z 08009KT CAVOK 20/15 A2999 NOSIG=
201201100600 METAR MROC 100600Z 10008KT CAVOK 20/15 A2999 NOSIG=
201201100700 METAR MROC 100700Z 10008KT CAVOK 19/14 A2998 NOSIG=
201201100800 METAR MROC 100800Z 10010KT CAVOK 19/14 A2995 NOSIG=
201201100900 METAR MROC 100900Z 11009KT CAVOK 19/13 A2994 NOSIG=
201201101000 METAR MROC 101000Z 12010KT CAVOK 19/12 A2995 NOSIG=
201201101100 METAR MROC 101100Z 11008KT CAVOK 18/12 A2996 NOSIG=
201201101200 METAR MROC 101200Z 10007KT CAVOK 18/12 A2997 NOSIG=
201201101300 METAR MROC 101300Z 04006KT CAVOK 19/11 A2999 NOSIG=
201201101400 METAR MROC 101400Z 11008KT CAVOK 21/10 A3001 NOSIG=
201201101500 METAR MROC 101500Z 11009KT CAVOK 24/10 A3002 NOSIG=
201201101600 METAR MROC 101600Z 12010KT CAVOK 26/08 A2998 NOSIG=
201201101700 METAR MROC 101700Z 11010KT CAVOK 28/08 A2998 NOSIG=
201201101800 METAR MROC 101800Z 11010KT CAVOK 29/09 A2995 NOSIG=
201201101900 METAR MROC 101900Z 11008KT CAVOK 28/10 A2991 NOSIG=
201201102000 METAR MROC 102000Z 12007KT CAVOK 28/12 A2989 NOSIG=
201201102100 METAR MROC 102100Z 09009KT CAVOK 27/13 A2988 NOSIG=
201201102200 METAR MROC 102200Z 11007KT 9999 FEW035 SCT200 27/13 A2988 NOSIG=
201201102300 METAR MROC 102300Z 09006KT 9999 FEW035 25/13 A2989 NOSIG=
201201102353 METAR MROC 110000Z 10008KT CAVOK 22/13 A2990 NOSIG=
201201110000 METAR MROC 110000Z 10008KT CAVOK 22/13 A2990 NOSIG=
201201110100 METAR MROC 110100Z 11009KT CAVOK 21/14 A2994 NOSIG=
201201110200 METAR MROC 110200Z 10008KT CAVOK 20/13 A2996 NOSIG=
201201110300 METAR MROC 110300Z 10011KT CAVOK 20/14 A2997 NOSIG=
201201110400 METAR MROC 110400Z 10010KT CAVOK 20/14 A2998 NOSIG=
201201110500 METAR MROC 110500Z 09010KT CAVOK 20/14 A2997 NOSIG=
201201110600 METAR MROC 110600Z 08006KT CAVOK 19/13 A2996 NOSIG=
201201110700 METAR MROC 110700Z 03010KT CAVOK 19/13 A2993 NOSIG=
201201110800 METAR MROC 110800Z 03010KT CAVOK 18/13 A2992 NOSIG=
201201110900 METAR MROC 110900Z 06008KT CAVOK 17/12 A2991 NOSIG=
201201111000 METAR MROC 111000Z 07005KT CAVOK 17/12 A2991 NOSIG=
201201111100 METAR MROC 111100Z 06007KT CAVOK 16/12 A2992 NOSIG=
201201111200 METAR MROC 111200Z 07009KT CAVOK 18/13 A2993 NOSIG=
201201111300 METAR MROC 111300Z 05005KT CAVOK 20/14 A2995 NOSIG=
201201111400 METAR MROC 111400Z 09009KT CAVOK 22/14 A2997 NOSIG=
201201111500 METAR MROC 111500Z 11017KT CAVOK 24/14 A2996 NOSIG=
201201111600 METAR MROC 111600Z 11011KT CAVOK 25/13 A2996 NOSIG=
201201111700 METAR MROC 111700Z 12017KT CAVOK 27/13 A2993 NOSIG=
201201111800 METAR MROC 111800Z 12013KT 9999 FEW040 27/13 A2996 NOSIG=
201201111900 METAR MROC 111900Z 10010G20KT 9999 SCT040 28/14 A2993 NOSIG=
201201112000 METAR MROC 112000Z 11008KT 9999 SCT040 28/14 A2991 NOSIG=
201201112100 METAR MROC 112100Z 10007KT 9999 FEW045 SCT120 27/14 A2990 NOSIG=
201201112200 METAR MROC 112200Z 19005KT 9999 FEW045 SCT120 28/18 A2990 NOSIG=
201201112300 METAR MROC 112300Z 25008KT 9999 FEW045 24/18 A2991 NOSIG=
201201120000 METAR MROC 120000Z 22006KT 9999 FEW040 22/18 A2992 NOSIG=
201201120100 METAR MROC 120100Z 09005KT CAVOK 21/14 A2994 NOSIG=
201201120200 METAR MROC 120200Z 07006KT CAVOK 21/15 A2995 NOSIG=
201201120300 METAR MROC 120300Z 08007KT CAVOK 21/15 A2996 NOSIG=
201201120400 METAR MROC 120400Z 07004KT CAVOK 21/13 A2996 NOSIG=
201201120500 METAR MROC NIL=
201201120600 METAR MROC 120600Z 05007KT CAVOK 19/12 A2995 NOSIG=
201201120700 METAR MROC 120700Z 02007KT CAVOK 18/12 A2993 NOSIG=
201201120800 METAR MROC 120800Z 04005KT CAVOK 18/12 A2992 NOSIG=
201201120900 METAR MROC 120900Z 04006KT CAVOK 18/12 A2992 NOSIG=
201201121000 METAR MROC 121000Z 06005KT CAVOK 18/12 A2993 NOSIG=
201201121100 METAR MROC 121100Z 05005KT CAVOK 18/12 A2994 NOSIG=
201201121200 METAR MROC 121200Z 05006KT CAVOK 17/12 A2995 NOSIG=
201201121300 METAR MROC 121300Z 03008KT CAVOK 20/12 A2997 NOSIG=
201201121400 METAR MROC 121400Z 10010KT CAVOK 23/13 A2998 NOSIG=
201201121500 METAR MROC 121500Z 10012KT CAVOK 26/13 A2998 NOSIG=
201201121600 MROC 121600Z 10011KT CAVOK 27/12 A2997 NOSIG=
201201121700 METAR MROC 121700Z 10010KT CAVOK 28/13 A2996 NOSIG=
201201121800 METAR MROC 121800Z 11009KT CAVOK 28/14 A2993 NOSIG=
201201121900 METAR MROC 121900Z 11009KT 9999 FEW035 28/14 A2992 NOSIG=
201201122000 MROC 122000Z 10009KT 9999 SCT035 28/14 A2990 NOSIG=
201201122100 METAR MROC 122100Z 08010KT 9999 SCT035 28/14 A2989 NOSIG=
201201122200 METAR MROC 122200Z 07011KT 9999 FEW035 27/14 A2986 NOSIG=
201201122300 METAR MROC 122300Z 09007KT 9999 FEW035 26/14 A2990 NOSIG=
201201130000 METAR MROC 130000Z 11006KT 9999 FEW035 23/14 A2992 NOSIG=
201201130100 METAR MROC 130100Z 11006KT 9999 FEW035 22/15 A2994 NOSIG=
201201130200 METAR MROC 130200Z 12006KT CAVOK 21/15 A2997 NOSIG=
201201130300 METAR MROC 130300Z 11006KT CAVOK 21/15 A2998 NOSIG=
201201130400 METAR MROC 130400Z 08005KT CAVOK 20/14 A2998 NOSIG=
201201130500 METAR MROC 130500Z 09004KT CAVOK 20/14 A2998 NOSIG=
201201130600 METAR MROC 130600Z 09004KT CAVOK 18/14 A2997 NOSIG=
201201130700 METAR MROC 130700Z 11006KT CAVOK 19/13 A2995 NOSIG=
201201130800 METAR MROC 130800Z 05005KT CAVOK 17/13 A2995 NOSIG=
201201130900 METAR MROC 130900Z 06004KT CAVOK 19/14 A2996 NOSIG=
201201131000 METAR MROC 131000Z 02007KT 9999 FEW030 16/13 A2997 NOSIG=
201201131100 METAR MROC 131100Z 05005KT CAVOK 19/14 A2998 NOSIG=
201201131200 METAR MROC 131200Z 06008KT 9999 FEW030 20/14 A2999 NOSIG=
201201131300 METAR MROC 131300Z 10010KT CAVOK 21/14 A3001 NOSIG=
201201131400 METAR MROC 131400Z 10012KT CAVOK 22/14 A3003 NOSIG=
201201131500 METAR MROC 131500Z 10012G23KT CAVOK 24/13 A3004 NOSIG=
201201131600 METAR MROC 131600Z 09014G27KT CAVOK 26/13 A3002 NOSIG=
201201131700 METAR MROC 131700Z 07016G26KT CAVOK 26/13 A3001 NOSIG=
201201131800 METAR MROC 131800Z 07014G25KT CAVOK 27/14 A2998 NOSIG=
201201131900 METAR MROC 131900Z 07016KT 9999 FEW045 28/13 A2994 NOSIG=
201201132000 METAR MROC 132000Z 07015KT 9999 FEW045 27/11 A2993 NOSIG=
201201132100 METAR MROC 132100Z 07013KT 9999 FEW040 27/13 A2992 NOSIG=
201201132200 METAR MROC 132200Z 06015G25KT 9999 FEW040 26/14 A2992 NOSIG=
201201132300 METAR MROC 132300Z 08011KT 9999 FEW040 24/15 A2995 NOSIG=
201201140000 METAR MROC 140000Z 10010KT 9999 FEW040 22/15 A2996 NOSIG=
201201140100 METAR MROC 140100Z 10010G20KT 9999 FEW040 21/15 A2998 NOSIG=
201201140200 METAR MROC 140200Z 10013G23KT 9999 FEW040 21/15 A2999 NOSIG=
201201140300 METAR MROC 140300Z 11017G27KT 9999 FEW045 21/15 A3001 NOSIG=
201201140400 METAR MROC 140400Z 10014G24KT 9999 FEW045 21/15 A3002 NOSIG=
201201140500 MROC 140500Z 09009KT 9999 FEW045 21/13 A3002 NOSIG=
201201140600 METAR MROC 140600Z 10012KT CAVOK 20/12 A3002 NOSIG=
201201140700 METAR MROC 140700Z 10012KT CAVOK 20/12 A3001 NOSIG=
201201140800 METAR MROC 140800Z 10009KT CAVOK 21/09 A3000 NOSIG=
201201140900 METAR MROC 140900Z 11011KT CAVOK 20/10 A3000 NOSIG=
201201141000 METAR MROC 141000Z 10010KT CAVOK 20/11 A3001 NOSIG=
201201141100 METAR MROC 141100Z 09011KT CAVOK 20/12 A3001 NOSIG=
201201141200 METAR MROC 141200Z 10008KT CAVOK 19/12 A3003 NOSIG=
201201141300 METAR MROC 141300Z 10011KT CAVOK 21/12 A3004 NOSIG=
201201141400 METAR MROC 141400Z 10010G20KT CAVOK 23/11 A3007 NOSIG=
201201141500 METAR MROC 141500Z 10014G24KT CAVOK 24/11 A3006 RMK SCT250 NOSIG=
201201141600 METAR MROC 141600Z 10014G24KT CAVOK 26/13 A3006 RMK SCT250 NOSIG=
201201141700 METAR MROC 141700Z 11012G22KT CAVOK 27/13 A3004 RMK SCT250 NOSIG=
201201141800 METAR MROC 141800Z 10014G24KT CAVOK 28/14 A3002 NOSIG=
201201141900 METAR MROC 141900Z 09012G22KT 9999 FEW040 28/14 A2999 NOSIG=
201201142000 METAR MROC 142000Z 09012G22KT 9999 SCT040 SCT250 27/15 A2998 NOSIG=
201201142100 METAR MROC 142100Z 11012G22KT 9999 FEW035 SCT045 26/16 A2998 NOSIG=
201201142200 METAR MROC 142200Z 09010G20KT 9999 FEW035 SCT045 25/16 A2998 NOSIG=
201201142300 METAR MROC 142300Z 08011G21KT 9999 FEW035 SCT045 BKN250 23/14 A3001 NOSIG=
201201150000 METAR MROC 150000Z 11011G22KT 9999 FEW035 SCT045 BKN250 21/14 A2998 NOSIG=
201201150100 METAR MROC 150100Z 10011G21KT 9999 FEW035 BKN250 21/14 A3006 NOSIG=
201201150200 METAR MROC 150200Z 11011KT CAVOK 21/15 A3007 NOSIG=
201201150300 METAR MROC 150300Z 10011KT CAVOK 21/15 A3008 NOSIG=
201201150400 METAR MROC 150400Z 09008G20KT CAVOK 21/15 A3008 NOSIG=
201201150500 METAR MROC 150500Z 09008KT CAVOK 21/15 A3007 NOSIG=
201201150600 METAR MROC 150600Z 04006KT CAVOK 21/16 A3007 NOSIG=
201201150700 METAR MROC 150700Z 06011KT CAVOK 21/15 A3006 NOSIG=
201201150800 METAR MROC 150800Z 05006KT CAVOK 20/16 A3003 NOSIG=
201201150900 METAR MROC 150900Z 10009KT CAVOK 20/16 A3004 NOSIG=
201201151000 METAR MROC 151000Z 10009KT CAVOK 20/16 A3004 NOSIG=
201201151100 METAR MROC 151100Z 10012KT CAVOK 21/15 A3003 NOSIG=
201201151200 METAR MROC 151200Z 09012KT CAVOK 21/15 A3005 NOSIG=
201201151300 METAR MROC 151300Z 10011G21KT CAVOK 21/15 A3006 NOSIG=
201201151400 METAR MROC 151400Z 11011G21KT 9999 FEW030 SCT250 23/16 A3009 NOSIG=
201201151500 METAR MROC 151500Z 08016G30KT 9999 FEW030 SCT080 26/14 A3010 NOSIG=
201201151600 METAR MROC 151600Z 07015G29KT 9999 FEW030 SCT080 25/15 A3012 NOSIG=
201201151700 METAR MROC 151700Z 07015G28KT 9999 SCT030 SCT080 25/15 A3011 NOSIG=
201201151800 METAR MROC 151800Z 07016G29KT 9999 SCT030 SCT080 25/15 A3008 NOSIG=
201201151900 METAR MROC 151900Z 07015KT 9999 FEW030 BKN080 25/14 A3005 NOSIG=
201201152000 METAR MROC 152000Z 07018KT 9999 FEW030 SCT070 25/13 A3003=
201201152100 METAR MROC 152100Z 08010G20KT 9999 FEW030 BKN080 25/14 A3002 NOSIG=
201201152200 METAR MROC 152200Z 07019KT 9999 FEW030 SCT080 SCT200 24/13 A3002 NOSIG=
201201152300 METAR MROC 152300Z 06016G26KT 9999 FEW035 SCT120 BKN200 24/13 A3002 NOSIG=
201201152354 METAR MROC 160000Z 07020KT 9999 FEW030 SCT080 BKN180 23/13 A3003 NOSIG=
201201160000 METAR MROC 160000Z 07020KT 9999 FEW030 SCT080 BKN180 23/13 A3003 NOSIG=
201201160100 METAR MROC 160100Z 08012G22KT CAVOK 23/12 A3004 NOSIG=
201201160200 METAR MROC 160200Z 10014KT CAVOK 21/14 A3006 NOSIG=
201201160300 METAR MROC 160300Z 08008KT CAVOK 20/15 A3008 NOSIG=
201201160400 METAR MROC 160400Z 08010KT 9999 FEW040 22/15 A3008 NOSIG=
201201160500 METAR MROC 160500Z 10012KT 9999 FEW040 21/16 A3007 NOSIG=
201201160600 METAR MROC 160600Z 10010KT 9999 SCT040 21/15 A3007 NOSIG=
201201160700 METAR MROC 160700Z 11010KT CAVOK 21/15 A3005 NOSIG=
201201160800 METAR MROC 160800Z 11008KT CAVOK 20/15 A3003 NOSIG=
201201160900 METAR MROC 160900Z 13007KT CAVOK 290/15 A3003 NOSIG=
201201161000 METAR MROC 161000Z 11009KT CAVOK 20/15 A3003 NOSIG=
201201161100 METAR MROC 161100Z 12008KT CAVOK 20/15 A3003 NOSIG=
201201161200 METAR MROC 161200Z 10012KT 9999 FEW040 SCT250 20/14 A3004 NOSIG=
201201161300 METAR MROC 161300Z 11013KT 9999 FEW030 SCT250 22/14 A3006 NOSIG=
201201161400 METAR MROC 161400Z 10018KT 9999 FEW030 24/14 A3009 NOSIG=
201201161500 METAR MROC 161500Z 08010G20KT 9999 FEW030 26/14 A3009 NOSIG=
201201161600 METAR MROC 161600Z 07016G26KT 9999 FEW035 SCT070 26/13 A3009 NOSIG=
201201161700 METAR MROC 161700Z 06017G27KT 9999 SCT035 26/13 A3008 NOSIG=
201201161800 METAR MROC 161800Z 06021G33KT 9999 FEW030 SCT060 26/11 A3005 NOSIG=
201201161900 METAR MROC 161900Z 06023G33KT 9999 FEW045 26/10 A3001 NOSIG=
201201162000 METAR MROC 162000Z 06019G30KT 9999 FEW045 26/10 A3000 NOSIG=
201201162100 METAR MROC 162100Z 06020G29KT 9999 FEW045 26/09 A2998 NOSIG=
201201162200 METAR MROC 162200Z 06023G33KT 9999 FEW045 26/11 A2998 NOSIG=
201201162300 METAR MROC 162300Z 06016KT 9999 FEW045 24/13 A3000 NOSIG=
201201170000 METAR MROC 170000Z 07017KT 9999 FEW045 23/13 A3001 NOSIG=
201201170100 METAR MROC 170100Z 07014KT CAVOK 22/13 A3003 RMK NOSIG=
201201170200 METAR MROC 170200Z 07016KT CAVOK 22/13 A3005 NOSIG=
201201170300 METAR MROC 170300Z 08010KT CAVOK 21/14 A3007 NOSIG=
201201170400 METAR MROC 170400Z 07012KT CAVOK 21/12 A3007 NOSIG=
201201170500 METAR MROC 170500Z 07015KT CAVOK 21/13 A3006 NOSIG=
201201170600 METAR MROC 170600Z 07011KT CAVOK 21/12 A3005 NOSIG=
201201170700 METAR MROC 170700Z 10014KT CAVOK 19/13 A3001 NOSIG=
201201170800 METAR MROC 170800Z 08009KT CAVOK 20/11 A3000 NOSIG=
201201170900 METAR MROC 170900Z 10007KT CAVOK 19/13 A2998 NOSIG=
201201171000 METAR MROC 171000Z 09007KT CAVOK 19/13 A2999 NOSIG=
201201171100 METAR MROC 171100Z 10007KT CAVOK 19/13 A2999 NOSIG=
201201171200 METAR MROC 171200Z 10009KT CAVOK 19/12 A3001 NOSIG=
201201171300 METAR MROC 171300Z 11008KT 9999 FEW045 BKN250 21/12 A3004 NOSIG=
201201171400 METAR MROC 171400Z 09012KT 9999 FEW045 SCT250 23/13 A3007 NOSIG=
201201171500 METAR MROC 171500Z 10011KT 9999 FEW045 BKN250 24/14 A3007 NOSIG=
201201171600 METAR MROC 171600Z 07014G24KT 9999 FEW045 BKN250 26/12 A3008 NOSIG=
201201171700 METAR MROC 171700Z 08014G25KT CAVOK 27/11 A3006 NOSIG=
201201171800 METAR MROC 171800Z 08010G20KT CAVOK 28/10 A3004 NOSIG=
201201171900 METAR MROC 171900Z 07013KT CAVOK 27/09 A3002 NOSIG=
201201172000 METAR MROC 172000Z 07012KT CAVOK 27/10 A3000 NOSIG=
201201172100 METAR MROC 172100Z 06015KT 9999 FEW045 27/12 A2999 NOSIG=
201201172200 METAR MROC 172200Z 06012KT 9999 FEW045 SCT070 24/15 A3000 NOSIG=
201201172300 METAR MROC 172300Z 08007KT 9999 FEW040 SCT070 24/15 A3001 NOSIG=
201201180000 METAR MROC 180000Z 07009KT 9999 FEW040 SCT070 21/15 A3003 NOSIG=
201201180100 METAR MROC 180100Z 09011KT 9999 FEW040 22/14 A3004 NOSIG=
201201180200 METAR MROC 180200Z 09011KT 9999 FEW040 21/15 A3005 NOSIG=
201201180300 METAR MROC 180300Z 11015KT 9999 FEW035 20/15 A3006 NOSIG=
201201180400 METAR MROC 180400Z 10017KT 9999 FEW035 21/14 A3006 NOSIG=
201201180500 METAR MROC 180500Z 09016KT CAVOK 21/14 A3005 NOSIG=
201201180600 METAR MROC 180600Z 09014KT CAVOK 21/13 A3003 NOSIG=
201201180700 METAR MROC 180700Z 08010KT CAVOK 20/14 A3001 NOSIG=
201201180800 METAR MROC 180800Z 07014KT CAVOK 20/13 A2999 NOSIG=
201201180900 METAR MROC 180900Z 10012KT CAVOK 19/13 A2997 NOSIG=
201201181000 METAR MROC 181000Z 11013KT CAVOK 19/13 A2997 NOSIG=
201201181100 METAR MROC 181100Z 10013KT CAVOK 19/12 A2998 NOSIG=
201201181200 METAR MROC 181200Z 11010G20KT CAVOK 20/12 A3001 NOSIG=
201201181300 METAR MROC 181300Z 12008KT CAVOK 20/13 A3003 NOSIG=
201201181400 METAR MROC 181400Z 12009KT CAVOK 23/13 A3005 NOSIG=
201201181500 METAR MROC 181500Z 10008KT CAVOK 25/13 A3006 NOSIG=
201201181600 METAR MROC 181600Z 07011KT CAVOK 26/11 A3005 NOSIG=
201201181700 METAR MROC 181700Z 07013KT CAVOK 27/12 A3004 NOSIG=
201201181800 METAR MROC 181800Z 06013KT 9999 FEW040 28/11 A3003 NOSIG=
201201181900 METAR MROC 181900Z 07011G21KT 9999 FEW040 28/11 A3000 NOSIG=
201201182000 METAR MROC 182000Z 07011KT 9999 FEW040 28/10 A2997 NOSIG=
201201182100 METAR MROC 182100Z 06014KT 9999 FEW040 28/10 A2996 NOSIG=
201201182200 METAR MROC 182200Z 06010G20KT 9999 FEW040 27/10 A2996 NOSIG=
201201182300 METAR MROC 182300Z 05017KT 9999 FEW040 SCT250 25/11 A2997 NOSIG=
201201190000 METAR MROC 190000Z 05015KT 9999 FEW035 SCT250 22/11 A2999 NOSIG=
201201190100 METAR MROC 190100Z 09008KT 9999 FEW035 21/14 A3001 NOSIG=
201201190200 METAR MROC 190200Z 10010KT 9999 FEW035 21/14 A3003 NOSIG=
201201190300 METAR MROC 190300Z 11008KT 9999 FEW035 20/13 A3004 NOSIG=
201201190400 METAR MROC 190400Z 08008KT 9999 FEW035 20/11 A3004 NOSIG=
201201190500 METAR MROC 190500Z 09010KT 9999 FEW035 20/13 A3003 NOSIG=
201201190600 METAR MROC 190600Z 11010KT CAVOK 19/14 A3002 NOSIG=
201201190700 METAR MROC 190700Z 10010KT CAVOK 19/14 A3001 NOSIG=
201201190800 METAR MROC 190800Z 09010KT CAVOK 18/12 A2998 NOSIG=
201201190900 METAR MROC 190900Z 10008KT CAVOK 18/12 A2996 NOSIG=
201201191000 METAR MROC 191000Z 11009KT CAVOK 18/13 A2996 NOSIG=
201201191100 METAR MROC NIL=
201201191200 METAR MROC 191200Z 11010KT CAVOK 18/12 A3001 NOSIG=
201201191300 METAR MROC 191300Z 11008KT CAVOK 20/11 A3004 NOSIG=
201201191400 METAR MROC 191400Z 11010KT CAVOK 22/11 A3005 NOSIG=
201201191500 METAR MROC 191500Z 09010KT CAVOK 24/11 A3006 NOSIG=
201201191600 METAR MROC 191600Z 08012G22KT CAVOK 25/10 A3005 NOSIG=
201201191700 MROC 191700Z 08015KT CAVOK 25/11 A3004 NOSIG=
201201191800 MROC 191800Z 06013G23KT 9999 FEW045 25/12 A3001 NOSIG=
201201191900 MROC 191900Z 07014KT 9999 SCT045 26/12 A2998 NOSIG=
201201192000 METAR MROC 192000Z 09011KT 9999 SCT030 SCT080 24/14 A2996 BECMG -RA=
201201192100 METAR MROC 192100Z 10008KT 9999 SCT030 SCT070 24/15 A2995 NOSIG=
201201192200 METAR MROC NIL=
201201192300 METAR MROC 192300Z 09011KT 9999 FEW030 SCT070 22/14 A2995 NOSIG=
201201200000 METAR MROC 200000Z 10010KT 9999 FEW030 20/14 A2996 NOSIG=
201201200100 METAR MROC 200100Z 10011KT CAVOK 20/13 A2997 NOSIG=
201201200200 METAR MROC 200200Z 09014KT CAVOK 19/13 A2999 NOSIG=
201201200300 METAR MROC 200300Z 09011KT CAVOK 19/13 A2999 NOSIG=
201201200400 METAR MROC 200400Z 10011KT CAVOK 20/08 A2999 NOSIG=
201201200500 METAR MROC 200500Z 10008KT CAVOK 19/09 A2999 NOSIG=
201201200600 METAR MROC 200600Z 10011KT CAVOK 19/11 A2997 NOSIG=
201201200700 METAR MROC 200700Z 09008KT CAVOK 20/12 A2996 NOSIG=
201201200800 METAR MROC 200800Z 10011KT CAVOK 19/13 A2994 NOSIG=
201201200900 METAR MROC 200900Z 10010KT CAVOK 20/13 A2992 NOSIG=
201201201000 METAR MROC 201000Z 09011KT CAVOK 20/13 A2993 NOSIG=
201201201100 METAR MROC 201100Z 10011KT CAVOK 19/13 A2995 NOSIG=
201201201200 METAR MROC 201200Z 10009KT CAVOK 18/13 A2997 NOSIG=
201201201300 METAR MROC 201300Z 09010KT CAVOK 21/11 A2998 NOSIG=
201201201400 METAR MROC 201400Z 10008KT CAVOK 23/11 A3000 NOSIG=
201201201500 METAR MROC 201500Z 10010KT CAVOK 25/22 A3001 NOSIG=
201201201600 METAR MROC 201600Z 10010KT CAVOK 26/12 A3000 NOSIG=
201201201700 METAR MROC 201700Z 11014KT CAVOK 27/12 A2999 NOSIG=
201201201800 METAR MROC 201800Z 09012KT CAVOK 27/13 A2998 NOSIG=
201201201900 METAR MROC NIL=
201201202000 METAR MROC 202000Z 07014KT 9999 FEW040 27/14 A2993 NOSIG=
201201202001 METAR MROC 202001Z 07014KT 9999 FEW040 27/14 A2993 NOSIG=
201201202100 METAR MROC 202100Z 07021KT 9999 SCT030 26/14 A2993 NOSIG=
201201202200 METAR MROC 202200Z 07019KT 9999 SCT030 25/14 A2993 NOSIG=
201201202300 METAR MROC 202300Z 06021KT 9999 SCT030 24/14 A2994 NOSIG=
201201202353 METAR MROC 210000Z 08012KT 9999 FEW025 23/15 A2995 NOSIG=
201201210000 METAR MROC 210000Z 08012KT 9999 FEW025 23/15 A2995 NOSIG=
201201210100 METAR MROC 210100Z 08017KT 9999 FEW025 22/14 A2997 NOSIG=
201201210200 METAR MROC 210200Z 08015KT 9999 FEW030 21/14 A2999 NOSIG=
201201210300 METAR MROC 210300Z 09012KT 9999 FEW030 21/14 A3000 NOSIG=
201201210400 METAR MROC 210400Z 07015KT 9999 FEW030 21/14 A3001 NOSIG=
201201210500 METAR MROC 210500Z 08016KT 9999 FEW030 21/14 A3001 NOSIG=
201201210600 METAR MROC 210600Z 09012KT 9999 FEW030 20/12 A3000 NOSIG=
201201210700 METAR MROC 210700Z 11012KT 9999 FEW030 20/10 A2999 NOSIG=
201201210800 METAR MROC 210800Z 10010KT 9999 FEW030 19/11 A2997 NOSIG=
201201210900 METAR MROC 210900Z 10010KT 9999 FEW030 19/11 A2996 NOSIG=
201201211000 METAR MROC 211000Z 09008KT 9999 FEW030 19/11 A2996 NOSIG=
201201211100 METAR MROC 211100Z 10009KT 9999 FEW030 19/10 A2996 NOSIG=
201201211200 METAR MROC 211200Z 10012KT CAVOK 19/19 A2998 NOSIG=
201201211300 METAR MROC 211300Z 10015KT CAVOK 20/08 A3000 NOSIG=
201201211400 METAR MROC 211400Z 11015KT CAVOK 23/08 A3002 NOSIG=
201201211500 METAR MROC 211500Z 11014KT CAVOK 25/05 A3002 NOSIG=
201201211600 METAR MROC 211600Z 10018KT CAVOK 27/05 A3002 NOSIG=
201201211700 METAR MROC 211700Z 10019KT CAVOK 28/08 A3000 NOSIG=
201201211800 METAR COR MROC 211800Z 09017KT CAVOK 27/09 A2999 NOSIG=
201201211900 METAR MROC 211900Z 11014KT 9999 FEW035 28/11 A2996 NOSIG=
201201212000 METAR MROC 212000Z 08017KT 9999 FEW035 28/11 A2994 NOSIG=
201201212100 MROC 212100Z 11008KT 9999 FEW045 27/12 A2992 NOSIG=
201201212200 METAR MROC 212200Z 11009KT 9999 FEW040 27/13 A2992 NOSIG=
201201212300 METAR MROC 212300Z 11008KT 9999 FEW035 25/12 A2993 NOSIG=
201201220000 METAR MROC 220000Z 09007KT 9999 FEW040 22/13 A2994 NOSIG=
201201220100 METAR MROC 220100Z 09005KT 9999 FEW035 21/12 A2996 NOSIG=
201201220200 METAR MROC 220200Z 06007KT 9999 FEW035 21/13 A2999 NOSIG=
201201220300 METAR MROC 220300Z 08010KT CAVOK 21/12 A2999 NOSIG=
201201220400 METAR MROC 220400Z 08011KT CAVOK 20/12 A2999 NOSIG=
201201220500 METAR MROC 220500Z 19919KT CAVOK 20/12 A2998 NOSIG=
201201220600 METAR MROC 220600Z 11010KT CAVOK 19/12 A2998 NOSIG=
201201220700 METAR MROC 220700Z 08008KT CAVOK 19/11 A2998 NOSIG=
201201220800 METAR MROC 220800Z 08008KT CAVOK 17/11 A2996 NOSIG=
201201220900 METAR MROC 220900Z 08007KT CAVOK 18/17 A2996 NOSIG=
201201221000 METAR MROC 221000Z 11009KT CAVOK 18/10 A2997 NOSIG=
201201221100 METAR MROC 221100Z 11009KT CAVOK 19/10 A2998 NOSIG=
201201221200 METAR MROC 221200Z 11009KT CAVOK 19/09 A2999 NOSIG=
201201221300 MROC 221300Z 10010KT CAVOK 20/10 A3000 NOSIG=
201201221400 METAR MROC 221400Z 11011KT CAVOK 22/10 A3002 NOSIG=
201201221500 METAR MROC 221500Z 11011KT CAVOK 24/09 A3002 NOSIG=
201201221600 METAR MROC 221600Z 11010G20KT CAVOK 25/10 A3002 NOSIG=
201201221700 METAR MROC 221700Z 10010KT CAVOK 27/11 A3001 NOSIG=
201201221800 METAR MROC 221800Z 11011KT CAVOK 28/11 A2998 NOSIG=
201201221900 METAR MROC 221900Z 10009KT CAVOK 28/11 A2995 NOSIG=
201201222000 METAR MROC 222000Z 10008KT CAVOK 28/11 A2993 NOSIG=
201201222100 METAR MROC 222100Z 10008KT 9999 FEW040 28/13 A2992 NOSIG=
201201222200 METAR MROC 222200Z 10007KT 9999 FEW040 27/13 A2991 NOSIG=
201201222300 METAR MROC 222300Z 11007KT 9999 FEW040 26/14 A2992 NOSIG=
201201230000 METAR MROC 230000Z 10007KT 9999 FEW040 23/14 A2994 NOSIG=
201201230100 METAR MROC 230100Z 10006KT CAVOK 21/14 A2997 NOSIG=
201201230200 METAR MROC 230200Z 09004KT CAVOK 21/14 A2999 NOSIG=
201201230300 METAR MROC 230300Z 11013KT CAVOK 20/13 A3000 NOSIG=
201201230400 METAR MROC 230400Z 08009KT CAVOK 20/12 A3001 NOSIG=
201201230500 METAR MROC 230500Z 10015KT CAVOK 20/11 A3001 NOSIG=
201201230600 METAR MROC 230600Z 11011KT CAVOK 19/12 A2999 NOSIG=
201201230700 METAR MROC 230700Z 13013KT CAVOK 19/13 A2997 NOSIG=
201201230800 METAR MROC 230800Z 06008KT CAVOK 18/13 A2996 NOSIG=
201201230900 METAR MROC 230900Z 09010KT CAVOK 18/12 A2995 NOSIG=
201201231000 METAR MROC 231000Z 07004KT CAVOK 18/12 A2996 NOSIG=
201201231100 METAR MROC 231100Z 10013KT CAVOK 18/12 A2996 NOSIG=
201201231200 METAR MROC 231200Z 10012KT CAVOK 18/12 A2997 NOSIG=
201201231300 METAR MROC 231300Z 07005KT CAVOK 20/13 A3000 NOSIG=
201201231400 METAR MROC 231400Z 11010KT CAVOK 22/13 A3001 NOSIG=
201201231500 METAR MROC 231500Z 12010KT CAVOK 24/13 A3001 NOSIG=
201201231600 METAR MROC 231600Z 12011KT CAVOK 26/12 A3001 NOSIG=
201201231700 METAR MROC 231700Z 10011KT CAVOK 27/10 A3000 NOSIG=
201201231800 METAR MROC 231800Z 10009KT 9999 FEW040 28/13 A2998 NOSIG=
201201231900 METAR MROC 231900Z 09007KT 9999 FEW040 28/11 A2995 NOSIG=
201201232000 METAR MROC 232000Z 11007KT 9999 FEW040 29/10 A2994 NOSIG=
201201232100 METAR MROC 232100Z 20007KT 9999 SCT035 26/18 A2992 NOSIG=
201201232200 METAR MROC 232200Z 23012KT 9999 SCT030 23/18 A2993 NOSIG=
201201232300 METAR MROC 232300Z 23010KT 9999 SCT030 23/18 A2995 NOSIG=
201201240000 METAR MROC 240000Z 24006KT 9999 SCT030 20/17 A2997 NOSIG=
201201240100 METAR MROC 240100Z 09005KT CAVOK 20/17 A2998 NOSIG=
201201240200 METAR MROC 240200Z 24004KT CAVOK 19/17 A3000 NOSIG=
201201240300 MROC 240300Z 04002KT CAVOK 20/17 A3003 NOSIG=
201201240400 METAR MROC 240400Z 06003KT CAVOK 20/15 A3003 NOSIG=
201201240500 MROC 240500Z 10006KT CAVOK 20/14 A3003 NOSIG=
201201240600 METAR MROC 240600Z 06004KT CAVOK 19/15 A3003 NOSIG=
201201240700 METAR MROC 240700Z 08004KT CAVOK 19/13 A3000 NOSIG=
201201240800 METAR MROC 240800Z 06006KT CAVOK 18/13 A2998 NOSIG=
201201240900 METAR MROC 240900Z 05005KT CAVOK 18/13 A2998 NOSIG=
201201241000 METAR MROC 241000Z 06006KT CAVOK 18/13 A2998 NOSIG=
201201241100 METAR MROC 241100Z 10010KT CAVOK 19/13 A2998 NOSIG=
201201241200 METAR MROC 241200Z 11008KT CAVOK 19/13 A2999 NOSIG=
201201241300 METAR MROC 241300Z 10011KT CAVOK 20/14 A3002 NOSIG=
201201241400 METAR MROC 241400Z 10010G20KT 9999 FEW035 SCT250 22/14 A3003 NOSIG=
201201241500 METAR MROC 241500Z 10012KT 9999 FEW035 SCT250 25/12 A3004 NOSIG=
201201241600 METAR MROC 241600Z 10012KT FEW035 SCT250 26/12 A3005 NOSIG=
201201241700 METAR MROC 241700Z 09012KT 9999 FEW035 SCT250 27/13 A3004 NOSIG=
201201241800 METAR MROC 241800Z 10012KT 9999 FEW035 BKN250 28/13 A3000 NOSIG=
201201241900 METAR MROC 241900Z 08013KT 9999 SCT035 SCT250 29/12 A2998 NOSIG=
201201242000 METAR MROC 242000Z 09013KT 9999 SCT035 SCT250 29/13 A2995 NOSIG=
201201242100 METAR MROC 242100Z 12010KT 9999 SCT035 SCT300 28/12 A2995 NOSIG=
201201242200 METAR MROC 242200Z 12009KT 9999 SCT035 SCT300 27/12 A2994 NOSIG=
201201242300 METAR MROC 242300Z 14010KT 9999 SCT035 SCT300 26/14 A2996 NOSIG=
201201250000 METAR MROC 250000Z 23006KT 9999 FEW025 SCT300 22/19 A2999 NOSIG=
201201250100 METAR MROC 250100Z 27006KT 9999 FEW025 SCT300 21/20 A3002 NOSIG=
201201250200 METAR MROC 250200Z 25003KT 9999 FEW020 SCT300 20/19 A3005 NOSIG=
201201250300 METAR MROC 250300Z 06005KT CAVOK 20/16 A3006 NOSIG=
201201250400 METAR MROC 250400Z 08003KT CAVOK 20/16 A3006 NOSIG=
201201250500 METAR MROC 250500Z 08003KT CAVOK 19/15 A3006 NOSIG=
201201250600 METAR MROC 250600Z 07005KT CAVOK 19/14 A3005 NOSIG=
201201250700 METAR MROC 250700Z 04003KT CAVOK 18/14 A3002 NOSIG=
201201250800 METAR MROC 250800Z 04003KT CAVOK 18/14 A3001 NOSIG=
201201250900 METAR MROC 250900Z 05007KT CAVOK 18/14 A3000 NOSIG=
201201251000 METAR MROC NIL=
201201251100 METAR MROC 251100Z 06007KT CAVOK 19/14 A3000 NOSIG=
201201251200 METAR MROC 251200Z 06007KT CAVOK 18/14 A3002 NOSIG=
201201251300 METAR MROC 251300Z 05007KT CAVOK 20/14 A3004 NOSIG=
201201251400 METAR MROC 251400Z 10005KT CAVOK 22/14 A3006 NOSIG=
201201251500 METAR MROC 251500Z 12007KT CAVOK 24/13 A3006 NOSIG=
201201251600 METAR MROC 251600Z 11008KT CAVOK 26/11 A3004 NOSIG=
201201251700 METAR MROC 251700Z 12008KT CAVOK 27/12 A3003 NOSIG=
201201251800 METAR MROC 251800Z COR 13006KT CAVOK 28/14 A3000 NOSIG=
201201251900 METAR MROC 251900Z 12007KT 9999 SCT045 SCT100 26/14 A2998 NOSIG=
201201252000 METAR MROC 252000Z 14005KT 9999 SCT045 SCT080 26/14 A2996 BECMG 24007KT=
201201252100 METAR MROC 252100Z 25008KT 9999 SCT030 SCT080 27/17 A2994 NOSIG=
201201252200 METAR MROC 252200Z 18010KT 9999 SCT025 SCT060 25/15 A2995 NOSIG=
201201252300 METAR MROC 252300Z 19011KT 9999 SCT035 SCT060 25/16 A2995 NOSIG=
201201252354 METAR MROC 260000Z 10009KT 9999 SCT035 SCT100 22/14 A2996 NOSIG=
201201260000 METAR MROC 260000Z 10009KT 9999 SCT035 SCT100 22/14 A2996 NOSIG=
201201260100 METAR MROC 260100Z 10012KT CAVOK 21/14 A2998 NOSIG=
201201260200 METAR MROC 260200Z 12016KT CAVOK 21/14 A3000 NOSIG=
201201260300 METAR MROC 260300Z 10007KT CAVOK 20/14 A3001 NOSIG=
201201260400 METAR MROC 260400Z 09007KT CAVOK 20/14 A3001 NOSIG=
201201260500 METAR MROC 260500Z 10008KT CAVOK 20/14 A3000 NOSIG=
201201260600 METAR MROC 260600Z 10008KT CAVOK 19/14 A2998 NOSIG=
201201260700 METAR MROC 260700Z 09007KT CAVOK 19/14 A2996 NOSIG=
201201260800 METAR MROC 260800Z 10007KT CAVOK 19/14 A2995 NOSIG=
201201260900 METAR MROC 260900Z 12006KT CAVOK 19/13 A2996 NOSIG=
201201261000 METAR MROC 261000Z 08005KT CAVOK 18/14 A2996 NOSIG=
201201261100 METAR MROC 261100Z 10007KT CAVOK 19/14 A2996 NOSIG=
201201261200 METAR MROC 261200Z 11010KT CAVOK 19/14 A2999 NOSIG=
201201261300 METAR MROC 261300Z 11014KT CAVOK 20/14 A3000 NOSIG=
201201261400 METAR MROC 261400Z 12018KT CAVOK 23/14 A3001 NOSIG=
201201261500 METAR MROC 261500Z 12017KT CAVOK 25/13 A3002 NOSIG=
201201261600 METAR MROC 261600Z 10014KT 9999 FEW045 26/13 A3002 NOSIG=
201201261700 METAR MROC 261700Z 09010G20KT 9999 SCT040 27/13 A3001 NOSIG=
201201261800 METAR MROC 261800Z 11014KT 9999 BKN035 29/13 A2998 NOSIG=
201201261900 METAR MROC 261900Z 13013KT 9999 SCT030 BKN080 27/14 A2996 NOSIG=
201201262000 METAR MROC 262000Z 11011KT 9999 SCT035 BKN080 25/14 A2994 NOSIG=
201201262100 METAR COR MROC 262100Z 10009KT 9999 SCT030 SCT080 25/14 A2992 NOSIG=
201201262200 METAR MROC 262200Z 10009KT 9999 SCT030 SCT100 23/15 A2994 NOSIG=
201201262300 METAR MROC 262300Z 11010KT 9999 FEW030 SCT045 SCT100 23/16 A2994 NOSIG=
201201270000 METAR MROC 270000Z 11009KT 9999 FEW030 SCT070 22/16 A2997 NOSIG=
201201270100 METAR MROC 270100Z 11007KT 9999 FEW030 BKN060 21/15 A2999 NOSIG=
201201270200 METAR MROC 270200Z 11010KT 9999 FEW030 SCT070 21/15 A3001 NOSIG=
201201270300 METAR MROC 270300Z 10006KT 9999 FEW030 20/15 A3001 NOSIG=
201201270400 METAR MROC 270400Z 09006KT 9999 FEW030 20/15 A3001 NOSIG=
201201270500 METAR MROC 270500Z 03006KT 9999 FEW030 20/15 A3000 NOSIG=
201201270600 METAR MROC 270600Z 04008KT 9999 FEW030 20/15 A2999 NOSIG=
201201270700 METAR MROC 270700Z 04008KT 9999 FEW030 19/15 A2998 NOSIG=
201201270800 METAR MROC 270800Z 07007KT CAVOK 19/15 A2996 NOSIG=
201201270900 MROC 270900Z 06006KT CAVOK 18/12 A2998 NOSIG=
201201271000 METAR MROC 271000Z 04007KT CAVOK 18/14 A2997 NOSIG=
201201271100 METAR MROC 271100Z 05010KT CAVOK 18/14 A2999 NOSIG=
201201271200 METAR MROC 271200Z 06009KT 9999 FEW025 19/15 A3000 NOSIG=
201201271300 METAR MROC 271300Z 02007KT 9999 FEW030 19/16 A3001 NOSIG=
201201271400 METAR MROC 271400Z 08009KT 9999 FEW030 23/15 A3003 NOSIG=
201201271500 METAR MROC 271500Z 12008KT 9999 FEW030 24/15 A3003 NOSIG=
201201271600 METAR MROC 271600Z 14007KT 9999 FEW030 24/14 A3003 NOSIG=
201201271700 METAR MROC 271700Z 11011G22KT 9999 FEW040 25/14 A3001 NOSIG=
201201271800 METAR MROC 271800Z 13012KT 9999 SCT035 27/12 A2999 NOSIG=
201201271900 METAR MROC 271900Z 11011G21KT 9999 SCT040 26/13 A2997 NOSIG=
201201272000 METAR MROC 272000Z 11014KT 9999 FEW045 25/13 A2995 NOSIG=
201201272100 METAR MROC 272100Z 09011KT 9999 FEW045 26/12 A2994 NOSIG=
201201272200 METAR MROC 272200Z 08011KT 9999 FEW045 25/12 A2993 NOSIG=
201201272300 METAR MROC 272300Z 08010G20KT 9999 FEW045 24/10 A2995 NOSIG=
201201280000 METAR MROC 280000Z 08009KT 9999 FEW045 22/13 A2996 NOSIG=
201201280100 METAR MROC 280100Z 11009KT 9999 FEW045 21/14 A2998 NOSIG=
201201280200 METAR MROC 280200Z 09010KT 9999 FEW045 20/15 A2999 NOSIG=
201201280300 METAR MROC 280300Z 11016KT 9999 FEW035 20/14 A3001 NOSIG=
201201280400 METAR MROC 280400Z 09013KT CAVOK 20/14 A3001 NOSIG=
201201280500 METAR MROC 280500Z 12013KT CAVOK 19/14 A3001 NOSIG=
201201280600 METAR MROC 280600Z 11010G20KT CAVOK 19/14 A3001 NOSIG=
201201280700 METAR MROC 280700Z 10010G20KT CAVOK 19/13 A2999 NOSIG=
201201280800 METAR MROC 280800Z 11018KT CAVOK 19/14 A2997 NOSIG=
201201280900 METAR MROC 280900Z 11017KT CAVOK 19/13 A2997 NOSIG=
201201281000 METAR MROC 281000Z 12016KT CAVOK 18/13 A2997 NOSIG=
201201281100 METAR MROC 281100Z 02007KT CAVOK 18/11 A2999 NOSIG=
201201281200 METAR MROC 281200Z 06010KT CAVOK 18/12 A3000 NOSIG=
201201281300 METAR MROC 281300Z 07006KT CAVOK 20/13 A3001 NOSIG=
201201281400 METAR MROC 281400Z 11013KT CAVOK 21/11 A3002 NOSIG=
201201281500 METAR MROC 281500Z 11014KT CAVOK 23/08 A3003 NOSIG=
201201281600 METAR MROC 281600Z 11013KT CAVOK 26/07 A3003 NOSIG=
201201281700 METAR MROC 281700Z 10012KT CAVOK 26/09 A3001 NOSIG=
201201281800 METAR MROC 281800Z 11010KT CAVOK 27/11 A3000 NOSIG=
201201281900 METAR MROC 291900Z 10008KT CAVOK 27/11 A2998 NOSIG=
201201282000 METAR MROC NIL=
201201282100 METAR MROC 282100Z 07012KT 9999 FEW035 27/10 A2994 NOSIG=
201201282200 METAR MROC 282200Z 10013KT 9999 FEW035 27/11 A2994 NOSIG=
201201282300 METAR MROC 282300Z 08013KT 9999 FEW035 25/11 A2996 NOSIG=
201201290000 METAR MROC 290000Z 09012KT 9999 FEW035 22/12 A2997 NOSIG=
201201290100 METAR MROC 290100Z 09012KT 9999 FEW035 21/13 A3000 NOSIG=
201201290200 METAR MROC 290200Z 09013KT CAVOK 20/12 A3001 NOSIG=
201201290300 METAR MROC 290300Z 10010G20KT 9999 FEW035 21/11 A3003 NOSIG=
201201290400 METAR MROC 290400Z 10012KT 9999 FEW040 20/11 A3003 NOSIG=
201201290500 METAR MROC 290500Z 10011KT 9999 FEW040 20/11 A3002 NOSIG=
201201290600 METAR MROC 290600Z 10012KT 9999 FEW035 20/12 A3001 NOSIG=
201201290700 METAR MROC 290700Z 10010KT CAVOK 19/12 A2999 NOSIG=
201201290800 METAR MROC 290800Z 10011KT CAVOK 19/12 A2998 NOSIG=
201201290900 MROC 290900Z 06006KT CAVOK 18/12 A2998 NOSIG=
201201291000 MROC 291000Z 11012KT CAVOK 18/12 A2998 NOSIG=
201201291100 METAR MROC 291100Z 11010G20KT CAVOK 18/12 A2998 NOSIG=
201201291200 METAR MROC 291200Z 11010KT CAVOK 18/12 A3000 NOSIG=
201201291300 METAR MROC 291300Z 10012KT CAVOK 20/12 A3000 NOSIG=
201201291400 METAR MROC 291400Z 11013KT CAVOK 23/11 A3001 NOSIG=
201201291500 METAR MROC 291500Z 10015KT CAVOK 24/13 A3003 NOSIG=
201201291600 METAR MROC 291600Z 11014KT 9999 FEW040 SCT250 26/13 A3003 NOSIG=
201201291700 METAR MROC 291700Z 10015KT 9999 FEW040 SCT250 26/14 A3002 NOSIG=
201201291800 METAR MROC 291800Z 10012G22KT 9999 SCT045 27/14 A3000 NOSIG=
201201291900 METAR MROC 291900Z 09015G25KT 9999 SCT045 26/14 A2999 NOSIG=
201201292000 METAR MROC 292000Z 09010G20KT 9999 SCT040 24/13 A2997 NOSIG=
201201292100 METAR MROC 292100Z 10012G25KT 9999 FEW030 SCT045 24/14 A2996 NOSIG=
201201292200 METAR MROC 292200Z 09013KT 9999 FEW030 SCT045 25/14 A2994 NOSIG=
201201292300 METAR MROC 292300Z 11012KT 9999 FEW030 23/15 A2996 NOSIG=
201201300000 METAR MROC 300000Z 11012KT 9999 FEW030 SCT300 21/15 A2999 NOSIG=
201201300100 METAR MROC 300100Z 11012KT 9999 FEW030 SCT300 21/15 A3002 NOSIG=
201201300200 METAR MROC 300200Z 10011KT 9999 FEW030 SCT120 21/15 A3003 NOSIG=
201201300300 METAR MROC 300300Z 09011KT CAVOK 21/15 A3004 NOSIG=
201201300400 METAR MROC 300400Z 09011KT 9999 FEW030 SCT120 20/15 A3005 NOSIG=
201201300500 METAR MROC 300500Z 09010KT 9999 FEW030 SCT120 20/14 A3005 NOSIG=
201201300600 METAR MROC 300600Z 10012KT 9999 FEW030 20/14 A3003 NOSIG=
201201300700 METAR MROC 300700Z 10015KT 9999 FEW030 20/14 A3001 NOSIG=
201201300800 METAR MROC 300800Z 08013KT 9999 FEW030 19/13 A2998 NOSIG=
201201300900 METAR MROC 300900Z 08011KT 9999 FEW030 19/13 A2997 NOSIG=
201201301000 METAR MROC 301000Z 07012KT 9999 FEW030 19/13 A2997 NOSIG=
201201301100 METAR MROC 301100Z 10011KT 9999 FEW040 19/13 A2998 NOSIG=
201201301200 METAR MROC 301200Z 10010KT 9999 FEW040 SCT070 19/13 A2999 NOSIG=
201201301300 METAR MROC 301300Z 11013KT 9999 FEW040 SCT080 21/11 A3000 NOSIG=
201201301400 METAR MROC 301400Z 11010KT CAVOK 23/12 A3002 NOSIG=
201201301500 METAR MROC 301500Z 10013KT CAVOK 24/12 A3002 NOSIG=
201201301600 METAR MROC 301600Z 10013KT 9999 FEW030 SCT250 25/13 A3004 NOSIG=
201201301700 METAR MROC 301700Z 10014KT 9999 FEW030 SCT250 26/11 A3001 NOSIG=
201201301800 METAR MROC 301800Z 10014KT 9999 FEW030 SCT250 26/11 A2998 NOSIG=
201201301900 METAR MROC 301900Z 09013KT 9999 FEW030 SCT250 26/13 A2997 NOSIG=
201201302000 METAR MROC 302000Z 10012KT 9999 FEW030 SCT100 25/13 A2994 NOSIG=
201201302100 METAR MROC 302100Z 09010G20KT 9999 FEW025 SCT100 SCT250 25/13 A2994 NOSIG=
201201302200 METAR MROC 302200Z 10010G20KT 9999 FEW025 SCT100 SCT250 24/12 A2994 NOSIG=
201201302300 METAR MROC 302300Z 10017KT 9999 FEW030 SCT120 BKN250 22/12 A2995 NOSIG=
201201302353 METAR MROC 310000Z 09010G20KT 9999 FEW030 SCT120 BKN250 21/13 A2996 NOSIG=
201201310000 METAR MROC 310000Z 09010G20KT 9999 FEW030 SCT120 BKN250 21/13 A2996 NOSIG=
201201310100 METAR MROC 310100Z 10010G20KT CAVOK 20/13 A2998 NOSIG=
201201310200 METAR MROC 310200Z 11010G20KT CAVOK 20/14 A2999 NOSIG=
201201310300 METAR MROC 310300Z 11014KT CAVOK 20/13 A3001 NOSIG=
201201310400 METAR MROC 310400Z 10012KT CAVOK 21/13 A3001 NOSIG=
201201310500 METAR MROC 310500Z 11014KT CAVOK 20/13 A3000 NOSIG=
201201310600 METAR MROC 310600Z 10010G20KT CAVOK 20/13 A2999 NOSIG=
201201310700 METAR MROC 310700Z 10014KT CAVOK 20/14 A2998 NOSIG=
201201310800 METAR MROC 310800Z 10013KT CAVOK 19/13 A2995 NOSIG=
201201310900 METAR MROC 310900Z 11014KT CAVOK 19/13 A2994 NOSIG=
201201311000 METAR MROC 311000Z 10011KT CAVOK 19/13 A2995 NOSIG=
201201311100 METAR MROC 311100Z 10010KT CAVOK 20/13 A2995 NOSIG=
201201311200 METAR MROC 311200Z 09012KT 9999 FEW035 20/13 A2997 NOSIG=
201201311300 METAR MROC 311300Z 10016KT 9999 FEW035 21/13 A2999 NOSIG=
201201311400 METAR MROC 311400Z 10018KT 9999 FEW035 22/14 A3001 NOSIG=
201201311500 METAR MROC 311500Z 10012G22KT 9999 FEW035 23/14 A3003 NOSIG=
201201311600 METAR MROC 311600Z 09013G23KT 9999 FEW035 25/14 A3004 NOSIG=
201201311700 METAR MROC 311700Z 08019KT 9999 FEW035 26/14 A3002 NOSIG=
201201311800 METAR MROC 311800Z 07021KT 9999 FEW030 26/14 A2999 NOSIG=
201201311900 METAR MROC 311900Z 10014G24KT 9999 SCT030 SCT300 25/13 A2997 NOSIG=
201201312000 METAR MROC 312000Z 08018KT 9999 SCT030 SCT300 26/13 A2994 NOSIG=
201201312100 METAR MROC 312100Z 08021KT 9999 SCT030 25/13 A2993 NOSIG=
201201312200 METAR MROC 312200Z 08013G23KT 9999 SCT030 24/13 A2993 NOSIG=
201201312300 METAR MROC 312300Z 08017KT 9999 FEW030 24/11 A2994 NOSIG=
201201312353 METAR MROC 010000Z 09015KT 9999 FEW030 22/11 A2997 NOSIG=
201202010000 METAR MROC 010000Z 09015KT 9999 FEW030 22/11 A2997 NOSIG=
201202010100 METAR MROC 010100Z 10014KT 9999 FEW035 21/12 A2999 NOSIG=
201202010200 METAR MROC 010200Z 09010G20KT CAVOK 21/12 A3000 NOSIG=
201202010300 METAR MROC 010300Z 099012KT CAVOK 20/12 A3001 NOSIG=
201202010400 METAR MROC 010400Z 10013KT CAVOK 21/11 A3001 NOSIG=
201202010500 METAR MROC 010500Z 10012KT CAVOK 21/12 A3000 NOSIG=
201202010600 METAR MROC 010600Z 10011KT CAVOK 20/12 A2998 NOSIG=
201202010700 METAR MROC 010700Z 10012KT CAVOK 20/12 A2997 NOSIG=
201202010800 METAR MROC 010800Z 09012KT CAVOK 20/13 A2995 NOSIG=
201202010900 METAR MROC 010900Z 11011KT CAVOK 20/13 A2994 NOSIG=
201202011000 METAR MROC 011000Z 09012KT CAVOK 19/13 A2993 NOSIG=
201202011100 METAR MROC 011100Z 09011KT CAVOK 20/13 A2995 NOSIG=
201202011200 METAR MROC 011200Z 10012KT CAVOK 20/13 A2996 NOSIG=
201202011300 METAR MROC 011300Z 10015KT CAVOK 21/13 A2997 NOSIG=
201202011400 METAR MROC 011400Z 10015KT CAVOK 23/13 A2997 NOSIG=
201202011500 METAR MROC 011500Z 10014KT CAVOK 25/12 A2999 NOSIG=
201202011600 METAR MROC 011600Z 09016KT CAVOK 25/13 A2998 NOSIG=
201202011700 METAR MROC 011700Z 09015KT 9999 FEW040 25/14 A2997 NOSIG=
201202011800 METAR MROC 011800Z 09012KT 9999 FEW040 27/13 A2996 NOSIG=
201202011900 METAR MROC 011900Z 08014KT 9999 FEW040 27/12 A2993 NOSIG=
201202012000 METAR MROC 012000Z 08012G22KT 9999 FEW040 27/12 A2991 NOSIG=
201202012100 METAR MROC 012100Z 08010KT 9999 FEW040 27/11 A2990 NOSIG=
201202012200 METAR MROC 012200Z 08012KT 9999 FEW040 26/11 A2991 NOSIG=
201202012300 METAR MROC 012300Z 08010KT 9999 FEW040 25/12 A2992 NOSIG=
201202020000 METAR MROC 020000Z 08009KT 9999 FEW040 23/12 A2993 NOSIG=
201202020100 METAR MROC 020100Z 07011KT 9999 FEW040 22/12 A2994 NOSIG=
201202020200 METAR MROC 020200Z 08010KT 9999 FEW040 21/13 A2995 NOSIG=
201202020300 METAR MROC 020300Z 10017KT 9999 FEW035 21/13 A2997 NOSIG=
201202020400 METAR MROC 020400Z 10017KT 9999 FEW035 20/12 A2997 NOSIG=
201202020500 METAR MROC 020500Z 11016KT 9999 FEW035 20/13 A2996 NOSIG=
201202020600 METAR MROC 020600Z 11017KT 9999 FEW035 20/12 A2996 NOSIG=
201202020700 METAR MROC 020700Z 11012KT CAVOK 20/12 A2995 NOSIG=
201202020800 METAR MROC 020800Z 09013KT CAVOK 20/13 A2993 NOSIG=
201202020900 METAR MROC 020900Z 10013KT 9999 FEW035 19/13 A2992 NOSIG=
201202021000 METAR MROC 021000Z 10008KT CAVOK 19/14 A2994 NOSIG=
201202021100 METAR MROC 021100Z 09006KT CAVOK 19/13 A2994 NOSIG=
201202021200 METAR MROC 021200Z 11018KT 9999 FEW035 SCT100 19/13 A2994 NOSIG=
201202021300 METAR MROC 021300Z 11012KT 9999 FEW035 SCT100 20/14 A2995 NOSIG=
201202021400 METAR MROC 021400Z 11014KT 9999 FEW035 SCT100 BKN250 21/14 A2997 NOSIG=
201202021500 METAR MROC 021500Z 10013KT 9999 FEW035 SCT100 BKN250 24/13 A2998 NOSIG=
201202021600 METAR MROC 021600Z 09012KT 9999 FEW035 SCT100 BKN250 25/12 A2998 NOSIG=
201202021700 METAR MROC 021700Z 09014KT 9999 FEW035 SCT100 BKN250 25/11 A2996 NOSIG=
201202021800 METAR MROC 021800Z 09010KT 9999 FEW035 SCT100 BKN250 25/11 A2994 NOSIG=
201202021900 METAR MROC 021900Z 09010KT 9999 FEW035 SCT100 BKN250 26/12 A2991 NOSIG=
201202022000 METAR MROC 022000Z 09010KT 9999 FEW035 BKN250 27/13 A2988 NOSIG=
201202022100 METAR MROC 022100Z 08014KT 9999 FEW030 SCT120 BKN250 26/14 A2986 NOSIG=
201202022200 METAR MROC 022200Z 10013KT 9999 FEW030 SCT120 BKN250 23/13 A2987 NOSIG=
201202022300 METAR MROC 022300Z 10012KT 9999 FEW030 BKN140 22/14 A2988 NOSIG=
201202030000 METAR MROC 030000Z 11010G20KT 9999 FEW030 SCT120 BKN250 22/12 A2989 NOSIG=
201202030100 METAR MROC 030100Z 11015KT 9999 FEW030 SCT120 BKN250 21/14 A2992 NOSIG=
201202030200 METAR MROC 030200Z 11012KT CAVOK 20/14 A2994 NOSIG=
201202030300 METAR MROC 030300Z 10010KT CAVOK 21/14 A2994 NOSIG=
201202030400 METAR MROC 030400Z 11010KT CAVOK 20/14 A2995 NOSIG=
201202030500 METAR MROC 030500Z 10011KT CAVOK 20/14 A2992 RMK BKN110 GUST 16KT NOSIG=
201202030600 METAR MROC 030600Z 11011KT CAVOK 20/13 A2991 NOSIG=
201202030700 METAR MROC 030700Z 10010KT CAVOK 21/12 A2989 RMK BKN120 NOSIG=
201202030800 METAR MROC 030800Z 11011KT CAVOK 21/13 A2988 NOSIG=
201202030900 METAR MROC 030900Z 10010KT CAVOK 21/12 A2987 NOSIG=
201202031000 METAR MROC 031000Z 09011KT CAVOK 21/14 A2988 NOSIG=
201202031100 METAR MROC 031100Z 11012KT CAVOK 20/14 A2989 NOSIG=
201202031200 METAR MROC 031200Z 10012KT CAVOK 21/13 A2989 NOSIG=
201202031300 METAR MROC 031300Z 10012G22KT CAVOK 23/07 A2991 NOSIG=
201202031400 METAR MROC 031400Z 10012G22KT CAVOK 23/09 A2993 NOSIG=
201202031500 METAR MROC NIL=
201202031600 METAR MROC 031600Z 09015KT CAVOK 26/08 A2994 NOSIG=
201202031700 METAR MROC 031700Z 10013KT CAVOK 27/10 A2994 NOSIG=
201202031800 METAR MROC 031800Z 09013KT CAVOK 29/09 A2992 NOSIG=
201202031900 METAR MROC 031900Z 11011KT CAVOK 28/09 A2989 NOSIG=
201202032000 METAR MROC 032000Z 11008KT CAVOK 29/10 A2986 NOSIG=
201202032100 METAR MROC 032100Z 14006KT 9999 FEW045 29/11 A2985 NOSIG=
201202032200 METAR MROC 032200Z 22008KT 9999 FEW040 SCT140 24/18 A2987 NOSIG=
201202032300 METAR MROC 032300Z 24007KT 9999 FEW035 BKN120 22/17 A2988 NOSIG=
201202040000 METAR MROC 040000Z 23003KT 9999 FEW030 BKN120 21/18 A2990 NOSIG=
201202040100 METAR MROC 040100Z 10012KT 9999 FEW030 SCT100 20/13 A2988 NOSIG=
201202040200 METAR MROC NIL=
201202040300 METAR MROC NIL=
201202040400 METAR MROC 040400Z 09003KT 9999 FEW030 SCT110 20/16 A2994 NOSIG=
201202040500 METAR MROC 040500Z 00000KT 9999 FEW030 SCT110 19/17 A2994 NOSIG=
201202040600 METAR MROC 040600Z 06009KT 9999 FEW030 SCT100 20/14 A2991 NOSIG=
201202040700 METAR MROC 040700Z 10013KT 9999 FEW030 SCT100 20/14 A2988 NOSIG=
201202040800 METAR MROC 040800Z 10009KT 9999 FEW030 SCT100 20/13 A2988 NOSIG=
201202040900 METAR MROC 040900Z 09011KT 9999 FEW030 SCT100 20/13 A2988 NOSIG=
201202041000 METAR MROC 041000Z 10012KT 9999 FEW030 SCT100 20/13 A2988 NOSIG=
201202041100 METAR MROC 041100Z 11011KT 9999 FEW030 SCT120 20/13 A2991 NOSIG=
201202041200 METAR MROC 041200Z 10012KT 9999 FEW040 BKN120 20/13 A2991 NOSIG=
201202041300 METAR MROC 041300Z 11011KT CAVOK 20/13 A2992 RMK BKN120 NOSIG=
201202041400 METAR MROC 041400Z 10013KT CAVOK 23/13 A2993 NOSIG=
201202041500 METAR MROC 041500Z 11013G28KT CAVOK 26/13 A2994 NOSIG=
201202041600 METAR MROC 041600Z 11010KT CAVOK 26/12 A2993 NOSIG=
201202041700 METAR MROC 041700Z 11008KT CAVOK 28/13 A2994 NOSIG=
201202041800 METAR MROC 041800Z 19006KT 9999 FEW035 BKN120 26/16 A2994 NOSIG=
201202041900 METAR MROC 041900Z 26008KT 9999 SCT035 SCT120 27/17 A2993 NOSIG=
201202042000 METAR MROC 042000Z 25006KT 9999 SCT035 SCT120 26/16 A2989 NOSIG=
201202042100 METAR MROC 042100Z 11012KT 9999 FEW030 BKN120 26/15 A2988 NOSIG=
201202042200 METAR MROC 042200Z 10014KT 9999 FEW030 SCT100 BKN200 25/15 A2987 NOSIG=
201202042300 METAR MROC 042300Z 11015KT 9999 FEW030 SCT100 BKN200 23/15 A2989 NOSIG=
201202042356 METAR MROC 050000Z 11015KT 9999 SCT030 SCT100 22/14 A2991 NOSIG=
201202050000 METAR MROC 050000Z 11015KT 9999 SCT030 SCT100 22/14 A2991 NOSIG=
201202050100 METAR MROC 050100Z 11012KT 9999 FEW030 BKN120 22/15 A2993 NOSIG=
201202050200 METAR MROC 050200Z 10012KT 9999 FEW030 SCT120 21/15 A2995 NOSIG=
201202050300 METAR MROC 050300Z 10010KT 9999 FEW030 SCT120 21/15 A2997 NOSIG=
201202050400 METAR MROC 050400Z 08010KT CAVOK 20/14 A2997 NOSIG=
201202050500 METAR MROC 050500Z 10012KT CAVOK 21/14 A2997 NOSIG=
201202050600 METAR MROC 050600Z 09011KT CAVOK 21/14 A2997 NOSIG=
201202050700 METAR MROC 050700Z 08012KT CAVOK 21/14 A2995 NOSIG=
201202050800 METAR MROC 050800Z 05011KT CAVOK 21/14 A2994 NOSIG=
201202050900 METAR MROC 050900Z 06007KT CAVOK 21/14 A2992 NOSIG=
201202051000 METAR MROC 051000Z 08007KT 9999 -RA FEW010 OVC100 21/14 A2993 NOSIG=
201202051100 METAR MROC 051100Z 10005KT 9999 FEW010 SCT100 20/15 A2994 NOSIG=
201202051200 METAR MROC 051200Z 08005KT 9999 -RA FEW015 BKN100 19/15 A2997 NOSIG=
201202051300 METAR MROC 051300Z 08011KT 9999 DZ BKN100 20/16 A2998 NOSIG=
201202051400 METAR MROC 051400Z 09011KT CAVOK 21/15 A2999 NOSIG=
201202051500 METAR MROC 051500Z 10012KT CAVOK 23/15 A2998 NOSIG=
201202051600 METAR MROC 051600Z 10015KT CAVOK 26/13 A2997 NOSIG=
201202051700 METAR MROC 051700Z 11015KT CAVOK 28/13 A2995 NOSIG=
201202051800 METAR MROC 051800Z 10016KT 9999 FEW035 SCT120 29/13 A2993 NOSIG=
201202051900 METAR MROC 051900Z 11014KT 9999 FEW035 SCT120 29/14 A2991 NOSIG=
201202052000 METAR MROC 052000Z 10011KT 9999 FEW035 SCT120 30/16 A2990 NOSIG=
201202052100 METAR MROC 052100Z 23010KT 9999 FEW030 SCT080 27/19 A2989 RMK FEW120 NOSIG=
201202052200 METAR MROC 052200Z 23010KT 9999 SCT035 SCT100 25/20 A2990 NOSIG=
201202052300 METAR MROC 052300Z 23010KT 8000 VCTS FEW015 SCT020 BKN100 23/20 A2992 BECMG SHRA=
201202060000 METAR MROC 060000Z 22002KT 9999 -RA FEW015 SCT025 BKN100 22/20 A2994 NOSIG=
201202060100 METAR MROC 060100Z 25004KT 9999 FEW030 SCT070 21/20 A2996 NOSIG=
201202060200 METAR MROC 060200Z 06005KT 9999 FEW030 SCT100 21/19 A2998 NOSIG=
201202060300 METAR MROC 060300Z 06008KT 9999 FEW030 SCT110 21/17 A2999 NOSIG=
201202060400 METAR MROC 060400Z 08008KT CAVOK 21/17 A3000 NOSIG=
201202060500 METAR MROC 060500Z 08004KT CAVOK 21/16 A3001 NOSIG=
201202060600 METAR MROC 060600Z 08004KT CAVOK 19/17 A3000 NOSIG=
201202060700 METAR MROC 060700Z 06008KT CAVOK 20/16 A2997 NOSIG=
201202060800 METAR MROC 060800Z 08005KT CAVOK 21/15 A2995 NOSIG=
201202060900 METAR MROC 060900Z 06011KT CAVOK 20/15 A2993 NOSIG=
201202061000 METAR MROC 061000Z 04006KT CAVOK 20/15 A2993 NOSIG=
201202061100 METAR MROC 061100Z 02006KT CAVOK 19/15 A2995 NOSIG=
201202061200 METAR MROC 061200Z 06004KT CAVOK 19/14 A2998 NOSIG=
201202061300 METAR MROC 061300Z 10009KT 9999 FEW045 SCT250 22/15 A2998 NOSIG=
201202061400 METAR MROC 061400Z 10012KT 9999 FEW045 23/16 A3000 NOSIG=
201202061500 METAR MROC 061500Z 10012KT 9999 FEW045 24/17 A3001 NOSIG=
201202061600 METAR MROC 061600Z 11011KT 9999 FEW045 26/14 A3000 NOSIG=
201202061700 METAR MROC 061700Z 10014KT 9999 FEW045 26/15 A3000 NOSIG=
201202061800 METAR MROC 061800Z 11011KT 9999 FEW045 SCT070 26/16 A2998 NOSIG=
201202061900 METAR MROC 061900Z 11010KT 9999 SCT035 SCT080 25/16 A2996 NOSIG=
201202062000 METAR MROC 062000Z 10011KT 9999 FEW040 28/14 A2992 NOSIG=
201202062100 METAR MROC 062100Z 09011KT 9999 FEW040 27/14 A2991 NOSIG=
201202062200 METAR MROC 062200Z 09011KT 9999 FEW040 26/13 A2990 NOSIG=
201202062300 METAR MROC 062300Z 08009KT 9999 FEW040 25/14 A2990 NOSIG=
201202070000 METAR MROC 070000Z 10007KT 9999 SCT040 24/16 A2991 NOSIG=
201202070100 METAR MROC 070100Z 08008KT 9999 SCT040 23/17 A2993 NOSIG=
201202070200 METAR MROC 070200Z 06009KT 9999 SCT040 24/15 A2996 NOSIG=
201202070300 METAR MROC 070300Z 08008KT 9999 FEW040 22/15 A2998 NOSIG=
201202070400 METAR MROC 070400Z 08012KT 9999 FEW040 21/15 A2999 NOSIG=
201202070500 METAR MROC 070500Z 04008KT 9999 FEW040 21/15 A2999 NOSIG=
201202070600 METAR MROC 070600Z 05011KT 9999 FEW040 20/16 A2999 NOSIG=
201202070700 METAR MROC 070700Z 07012KT 9999 FEW040 21/16 A2998 NOSIG=
201202070800 METAR MROC 070800Z 03004KT 9999 FEW040 20/15 A2996 NOSIG=
201202070900 METAR MROC 070900Z 14005KT 9999 FEW040 18/15 A2996 NOSIG=
201202071000 METAR MROC 071000Z 21002KT 9999 FEW040 19/15 A2996 NOSIG=
201202071100 METAR MROC 071100Z 08013KT 9999 FEW040 20/16 A2995 NOSIG=
201202071200 METAR MROC 071200Z 11016KT 9999 FEW030 21/16 A2996 NOSIG=
201202071300 METAR MROC 071300Z 09011KT 9999 FEW030 SCT120 22/16 A2998 NOSIG=
201202071400 METAR MROC 071400Z 11013KT 9999 FEW030 SCT120 23/16 A2998 NOSIG=
201202071500 METAR MROC 071500Z 11014KT 9999 FEW030 24/16 A2999 NOSIG=
201202071600 METAR MROC 071600Z 10015KT 9999 FEW030 27/15 A2999 NOSIG=
201202071700 METAR MROC 071700Z 08013KT 9999 FEW030 27/13 A2998 NOSIG=
201202071800 METAR MROC 071800Z 06017KT 9999 SCT030 28/14 A2997 NOSIG=
201202071900 METAR MROC 071900Z 06018KT 9999 SCT030 29/14 A2994 NOSIG=
201202072000 METAR MROC 072000Z 07008KT 9999 BKN040 28/14 A2992 NOSIG=
201202072100 METAR MROC 072100Z 06012KT 9999 BKN040 27/16 A2991 NOSIG=
201202072200 METAR MROC 072200Z 07012KT 9999 FEW030 SCT040 25/16 A2992 NOSIG=
201202072300 METAR MROC 072300Z 07012KT 9999 FEW030 BKN250 26/15 A2992 NOSIG=
201202080000 METAR MROC 080000Z 07010KT 9999 FEW030 SCT120 BKN250 23/15 A2994 NOSIG=
201202080100 METAR MROC 080100Z 10008KT 9999 FEW030 SCT110 BKN250 23/16 A2997 NOSIG=
201202080200 METAR MROC 080200Z 09010KT 9999 FEW030 SCT110 BKN250 22/16 A3000 NOSIG=
201202080300 METAR MROC 080300Z 09008KT 9999 FEW030 SCT060 BKN150 22/16 A3001=
201202080400 METAR MROC 080400Z 10010KT 9999 FEW030 SCT070 BKN150 22/16 A3001 NOSIG=
201202080500 METAR MROC 080500Z 10003KT 9999 FEW030 SCT060 BKN250 22/16 A3001 NOSIG=
201202080600 METAR MROC 080600Z 11006KT 9999 FEW030 SCT070 BKN200 22/17 A3000 NOSIG=
201202080700 METAR MROC 080700Z 11009KT 9999 FEW035 BKN250 22/17 A2998 NOSIG=
201202080800 METAR MROC 080800Z 11009KT 9999 FEW035 BKN080 22/16 A2997 NOSIG=
201202080900 METAR MROC 080900Z 09006KT 9999 FEW035 BKN080 22/16 A2997 NOSIG=
201202081000 METAR MROC 081000Z 08004KT 9999 FEW035 SCT080 21/16 A2997 NOSIG=
201202081100 METAR MROC 081100Z 08004KT 9999 FEW030 SCT060 21/16 A2998 NOSIG=
201202081200 METAR MROC 081200Z 08004KT 9999 FEW030 SCT060 21/16 A2999 NOSIG=
201202081300 METAR MROC 081300Z 09008KT 9999 SCT030 23/16 A3000 NOSIG=
201202081400 METAR MROC 081400Z 08014KT 9999 FEW030 25/16 A3002 NOSIG=
201202081500 METAR MROC 081500Z 07015KT 9999 FEW030 26/15 A3003 NOSIG=
201202081600 METAR MROC 081600Z 08010G20KT 9999 SCT030 26/15 A3002 NOSIG=
201202081700 METAR MROC 081700Z 07013KT 9999 SCT030 27/15 A3001 NOSIG=
201202081800 METAR MROC 081800Z 07013G23KT 9999 SCT030 26/16 A3000 NOSIG=
201202081900 METAR MROC 081900Z 08015KT 9999 BKN030 25/16 A2997 NOSIG=
201202082000 METAR MROC 082000Z 11012KT 9999 SCT030 SCT250 27/16 A2995 NOSIG=
201202082100 METAR MROC 082100Z 08012KT 9999 FEW030 SCT045 25/15 A2994 NOSIG=
201202082200 METAR MROC 082200Z 11011KT 9999 -RA SCT030 SCT045 23/17 A2994 NOSIG=
201202082300 METAR MROC 082300Z 12009KT 9999 -RA FEW030 BKN045 23/17 A2994 NOSIG=
201202090000 METAR MROC 090000Z 11007KT 9999 FEW030 SCT070 22/16 A2996 NOSIG=
201202090100 METAR MROC 090100Z 10009KT 9999 FEW030 BKN060 22/16 A2998 NOSIG=
201202090200 METAR MROC 090200Z 12008KT 9999 FEW030 21/16 A3001 NOSIG=
201202090300 METAR MROC 090300Z 09007KT 9999 FEW030 21/15 A3002 NOSIG=
201202090400 METAR MROC 090400Z 09009KT 9999 FEW030 21/16 A3003 NOSIG=
201202090500 METAR MROC 090500Z 10006KT 9999 FEW030 21/16 A3003 NOSIG=
201202090600 METAR MROC 090600Z 11004KT 9999 FEW030 20/15 A3002 NOSIG=
201202090700 METAR MROC 090700Z 11008KT 9999 FEW030 20/14 A3001 NOSIG=
201202090800 METAR MROC 090800Z 11009KT 9999 FEW030 20/15 A2998 NOSIG=
201202090900 METAR MROC 090900Z 09011KT 9999 FEW030 20/15 A2996 NOSIG=
201202091000 METAR MROC 091000Z 09013KT 9999 FEW030 20/15 A2996 NOSIG=
201202091100 METAR MROC 091100Z 08012G22KT 9999 FEW030 SCT250 20/13 A2998 NOSIG=
201202091200 METAR MROC 091200Z 08012G22KT 9999 FEW030 SCT250 20/13 A2998 NOSIG=
201202091300 METAR MROC 091300Z 11012KT CAVOK 20/14 A3000 NOSIG=
201202091400 METAR MROC 091400Z 11013KT CAVOK 21/14 A3002 A3002 NOSIG=
201202091500 METAR MROC 091500Z 11014KT CAVOK 23/13 A3004 NOSIG=
201202091600 METAR MROC 091600Z 10014KT CAVOK 25/12 A3004 NOSIG=
201202091700 METAR MROC 091700Z 10012G22KT CAVOK 27/12 A3003 NOSIG=
201202091800 METAR MROC 091800Z 09012KT CAVOK 28/11 A3001 NOSIG=
201202091900 METAR MROC NIL=
201202092000 METAR MROC 092000Z 06016KT CAVOK 27/13 A2995 NOSIG=
201202092100 METAR MROC 092100Z 08011KT CAVOK 25/15 A2995 NOSIG=
201202092200 METAR MROC 092200Z 08011KT CAVOK 24/15 A2995 NOSIG=
201202092300 METAR MROC 092300Z 07011KT 9999 FEW035 BKN200 23/14 A2997 NOSIG=
201202100000 METAR MROC 100000Z 07012KT 9999 FEW035 BKN200 22/14 A2998 NOSIG=
201202100100 METAR MROC 100100Z 07010KT 9999 FEW030 BKN200 21/14 A3000 NOSIG=
201202100200 METAR MROC 100200Z 08012KT CAVOK 21/14 A3003 NOSIG=
201202100300 METAR MROC 100300Z 08010KT CAVOK 21/14 A3005 NOSIG=
201202100400 METAR MROC 100400Z 07012KT CAVOK 21/13 A3006 NOSIG=
201202100500 METAR MROC 100500Z 08010KT CAVOK 20/13 A3006 NOSIG=
201202100600 METAR MROC 100600Z 11010KT CAVOK 20/13 A3005 NOSIG=
201202100700 METAR MROC 100700Z 11010KT CAVOK 20/13 A3005 NOSIG=
201202100800 METAR MROC 100800Z 07010KT CAVOK 19/13 A3000 NOSIG=
201202100900 METAR MROC 100900Z 07008KT CAVOK 19/13 A2999 NOSIG=
201202101000 METAR MROC NIL=
201202101004 METAR MROC 101004Z 11010KT CAVOK 19/13 A2999 NOSIG=
201202101100 METAR MROC 101100Z 10012KT CAVOK 19/13 A3000 NOSIG=
201202101200 METAR MROC 101200Z 11012KT CAVOK 19/12 A3002 NOSIG=
201202101300 METAR MROC 101300Z 11014KT CAVOK 20/13 A3003 NOSIG=
201202101400 METAR MROC 101400Z 10018KT CAVOK 22/13 A3004 NOSIG=
201202101500 METAR MROC 101500Z 09019KT CAVOK 23/13 A3006 NOSIG=
201202101600 METAR MROC 101600Z 08014KT CAVOK 24/12 A3006 NOSIG=
201202101700 METAR MROC 101700Z 07017KT CAVOK 27/11 A3005 NOSIG=
201202101800 METAR MROC 101800Z 09011G21KT CAVOK 28/11 A3003 NOSIG=
201202101900 METAR MROC 101900Z 09014KT 9999 FEW040 SCT100 BKN250 29/11 A3000 NOSIG=
201202102000 METAR MROC 102000Z 10013KT 9999 FEW040 SCT100 BKN250 28/12 A2998 NOSIG=
201202102100 METAR MROC 102100Z 10009KT 9999 FEW045 BKN250 28/13 A2997 NOSIG=
201202102200 METAR MROC 102200Z 10007KT 9999 FEW045 SCT250 27/14 A2997 NOSIG=
201202102300 METAR MROC 102300Z 11009KT 9999 FEW045 SCT250 26/14 A2997 NOSIG=
201202110000 METAR MROC 110000Z 11007KT 9999 FEW045 SCT250 23/15 A3000 NOSIG=
201202110100 METAR MROC 110100Z 10006KT CAVOK 22/16 A3002 NOSIG=
201202110200 METAR MROC 110200Z 10007KT CAVOK 22/16 A3004 NOSIG=
201202110300 METAR MROC 110300Z 08005KT CAVOK 21/16 A3005 NOSIG=
201202110400 METAR MROC 110400Z 07004KT CAVOK 20/15 A3006 NOSIG=
201202110500 METAR MROC 110500Z 07006KT CAVOK 19/14 A3006 NOSIG=
201202110600 METAR MROC 110600Z 06005KT CAVOK 18/14 A3005 NOSIG=
201202110700 METAR MROC 110700Z 06006KT CAVOK 18/12 A3003 NOSIG=
201202110800 METAR MROC 110800Z 05007KT CAVOK 18/13 A3001 NOSIG=
201202110900 METAR MROC 110900Z 06007KT CAVOK 18/13 A3000 NOSIG=
201202111000 METAR MROC 111000Z 06007KT CAVOK 18/12 A3001 NOSIG=
201202111100 METAR MROC 111100Z 05009KT CAVOK 19/13 A3002 NOSIG=
201202111200 METAR MROC 111200Z 04011KT CAVOK 19/13 A3004 NOSIG=
201202111300 MROC 111300Z 08007KT CAVOK 21/13 A3006 NOSIG=
201202111400 METAR MROC 111400Z 10009KT CAVOK 22/13 A3008 NOSIG=
201202111500 METAR MROC 111500Z 10010KT CAVOK 24/13 A3008 NOSIG=
201202111600 METAR MROC 111600Z 11011KT CAVOK 26/13 A3007 NOSIG=
201202111700 METAR MROC 111700Z 09011KT CAVOK 27/13 A3006 NOSIG=
201202111800 METAR MROC 111800Z 09010KT CAVOK 28/12 A3002 NOSIG=
201202111900 METAR MROC 111900Z 09011KT CAVOK 28/12 A2999 NOSIG=
201202112000 MROC 112000Z 10010KT 9999 FEW045 28/12 A2997 NOSIG=
201202112100 METAR MROC 112100Z 07010KT 9999 FEW045 28/12 A2995 NOSIG=
201202112200 METAR MROC 112200Z 10008KT 9999 FEW045 28/13 A2995 NOSIG=
201202112300 METAR MROC 112300Z 11007KT 9999 FEW045 26/15 A2996 NOSIG=
201202120000 METAR MROC 120000Z 10008KT 9999 FEW040 23/16 A2999 NOSIG=
201202120100 METAR MROC 120100Z 09009KT 9999 FEW040 23/15 A3000 NOSIG=
201202120200 METAR MROC 120200Z 10007KT 9999 FEW040 22/14 A3002 NOSIG=
201202120300 METAR MROC 120300Z 11012KT 9999 FEW040 21/15 A3004 NOSIG=
201202120400 METAR MROC 120400Z 07009KT 9999 FEW040 21/16 A3006 NOSIG=
201202120500 METAR MROC 120500Z 09014KT 9999 FEW040 21/15 A3005 NOSIG=
201202120600 METAR MROC 120600Z 09012KT 9999 FEW035 20/15 A3004 NOSIG=
201202120700 METAR MROC 120700Z 10007KT 9999 FEW035 20/14 A3002 NOSIG=
201202120800 METAR MROC 120800Z 05008KT 9999 FEW035 20/15 A3002 NOSIG=
201202120900 METAR MROC 120900Z 08006KT 9999 FEW035 19/15 A3001 NOSIG=
201202121000 METAR MROC 121000Z 05009KT 9999 FEW035 19/15 A3002 NOSIG=
201202121100 METAR MROC 121100Z 06008KT 9999 FEW035 19/14 A3002 NOSIG=
201202121200 METAR MROC 121200Z 05007KT 9999 FEW030 19/15 A3004 NOSIG=
201202121300 METAR MROC 121300Z 10010KT 9999 FEW030 21/15 A3004 NOSIG=
201202121400 METAR MROC 121400Z 11011KT 9999 FEW030 23/15 A3005 NOSIG=
201202121500 METAR MROC 121500Z 10013G23KT 9999 FEW030 24/14 A3007 NOSIG=
201202121600 METAR MROC 121600Z 09010G20KT 9999 FEW030 25/13 A3007 NOSIG=
201202121700 METAR MROC 121700Z 08010G21KT 9999 FEW030 27/13 A3005 NOSIG=
201202121800 METAR MROC 121800Z 08014G24KT 9999 FEW030 27/13 A3003 NOSIG=
201202121900 METAR MROC 121900Z 08013G23KT 9999 FEW030 27/10 A2999 NOSIG=
201202122000 METAR MROC 122000Z 07013G23KT 9999 FEW030 28/10 A2998 NOSIG=
201202122100 METAR MROC 122100Z 07017KT 9999 FEW030 28/10 A2996 NOSIG=
201202122200 METAR MROC 122200Z 06018KT 9999 FEW030 27/12 A2996 NOSIG=
201202122300 METAR MROC 122300Z 07010KT 9999 FEW030 26/13 A2997 NOSIG=
201202130000 METAR MROC 130000Z 07012KT 9999 FEW030 23/12 A3000 NOSIG=
201202130100 METAR MROC 130100Z 07011KT 9999 FEW030 22/13 A3002 NOSIG=
201202130200 METAR MROC 130200Z 09008KT 9999 FEW030 22/13 A3003 NOSIG=
201202130300 METAR MROC 130300Z 08010KT CAVOK 21/14 A3005 NOSIG=
201202130400 METAR MROC 130400Z 08011KT CAVOK 21/14 A3005 NOSIG=
201202130500 METAR MROC 130500Z 09008KT CAVOK 21/14 A3006 NOSIG=
201202130600 METAR MROC 130600Z 09004KT CAVOK 21/14 A3004 NOSIG=
201202130700 METAR MROC 130700Z 10004KT CAVOK 20/14 A3002 NOSIG=
201202130800 METAR MROC 130800Z 19001KT CAVOK 19/13 A3000 NOSIG=
201202130900 METAR MROC 130900Z 00000KT CAVOK 18/13 A2998 NOSIG=
201202131000 METAR MROC 131000Z 10004KT CAVOK 19/14 A2998 NOSIG=
201202131100 METAR MROC 131100Z 11010KT CAVOK 19/14 A2999 NOSIG=
201202131200 METAR MROC 131200Z 11010KT CAVOK 19/14 A3001 NOSIG=
201202131300 METAR MROC 131300Z 11011KT CAVOK 21/14 A3002 NOSIG=
201202131400 METAR MROC 131400Z 09014KT CAVOK 24/13 A3004 NOSIG=
201202131500 METAR MROC 131500Z 09013KT CAVOK 26/12 A3005 NOSIG=
201202131600 METAR MROC 131600Z 10015KT CAVOK 27/12 A3005 NOSIG=
201202131700 METAR MROC 131700Z 08014KT 9999 FEW030 28/10 A3003 NOSIG=
201202131800 METAR MROC 131800Z 08015KT 9999 FEW030 28/11 A3001 NOSIG=
201202131900 METAR MROC 131900Z 08013KT 9999 FEW030 28/11 A2998 NOSIG=
201202132000 METAR MROC 132000Z 08014KT 9999 FEW030 28/10 A2996 NOSIG=
201202132100 METAR MROC 132100Z 07010KT CAVOK 29/10 A2994 NOSIG=
201202132200 METAR MROC NIL=
201202132300 METAR MROC 132300Z 07012KT CAVOK 26/12 A2994 NOSIG=
201202140000 METAR MROC 140000Z 07011KT CAVOK 24/12 A2996 NOSIG=
201202140100 METAR MROC 140100Z 07011KT CAVOK 23/12 A2999 NOSIG=
201202140200 METAR MROC 140200Z 07013KT CAVOK 22/13 A3001 NOSIG=
201202140300 METAR MROC 140300Z 08010KT CAVOK 21/13 A3003 NOSIG=
201202140400 METAR MROC 140400Z 08008KT CAVOK 21/13 A3004 NOSIG=
201202140500 METAR MROC 140500Z 09007KT CAVOK 20/13 A3004 NOSIG=
201202140600 METAR MROC 140600Z 09008KT CAVOK 20/13 A3003 NOSIG=
201202140700 METAR MROC 140700Z 08008KT CAVOK 20/13 A3001 NOSIG=
201202140800 METAR MROC 140800Z 10007KT CAVOK 19/13 A3000 NOSIG=
201202140900 METAR MROC 140900Z 12007KT CAVOK 19/13 A2999 NOSIG=
201202141000 METAR MROC 141000Z 11010KT CAVOK 19/13 A2999 NOSIG=
201202141100 METAR MROC 141100Z 12009KT CAVOK 19/12 A3000 NOSIG=
201202141200 METAR MROC 141200Z 12009KT CAVOK 19/12 A3002 NOSIG=
201202141300 METAR MROC 141300Z 11009KT CAVOK 21/13 A3004 NOSIG=
201202141400 METAR MROC 141400Z 11010KT CAVOK 24/13 A3006 NOSIG=
201202141500 METAR MROC 141500Z 10009KT CAVOK 26/12 A3007 NOSIG=
201202141600 METAR MROC 141600Z 06015KT CAVOK 28/09 A3007 NOSIG=
201202141700 METAR MROC 141700Z 08010KT CAVOK 28/10 A3006 NOSIG=
201202141800 METAR MROC 141800Z 07010KT CAVOK 28/10 A3003 NOSIG=
201202141900 METAR MROC 141900Z 06015KT 9999 FEW045 29/11 A3000 NOSIG=
201202142000 METAR MROC 142000Z 06016KT 9999 FEW045 28/12 A2997 NOSIG=
201202142100 METAR MROC 142100Z 05024KT 9999 FEW035 28/12 A2996 NOSIG=
201202142200 METAR MROC 142200Z 05016G26KT 9999 FEW035 28/12 A2995 NOSIG=
201202142300 METAR MROC 142300Z 05024KT 9999 FEW035 25/12 A2997 NOSIG=
201202142353 METAR MROC 150000Z 07017KT 9999 FEW035 23/12 A2999 NOSIG=
201202150000 METAR MROC 150000Z 07017KT 9999 FEW035 23/12 A2999 NOSIG=
201202150100 METAR MROC 150100Z 11009KT 9999 FEW035 22/13 A3000 NOSIG=
201202150200 METAR MROC 150200Z 12014KT 9999 FEW035 21/14 A3002 NOSIG=
201202150300 METAR MROC 150300Z 12011KT 9999 FEW035 21/13 A3003 NOSIG=
201202150400 METAR MROC 150400Z 09007KT 9999 FEW035 20/12 A3005 NOSIG=
201202150500 METAR MROC 150500Z 07007KT 9999 FEW035 20/11 A3004 NOSIG=
201202150600 METAR MROC 150600Z 09008KT 9999 FEW035 20/11 A3004 NOSIG=
201202150700 METAR MROC 150700Z 05005KT 9999 FEW035 18/12 A3001 NOSIG=
201202150800 METAR MROC 150800Z 07006KT CAVOK 17/12 A3001 NOSIG=
201202150900 METAR MROC 150900Z 04012KT CAVOK 18/12 A3001 NOSIG=
201202151000 METAR MROC 151000Z 06004KT CAVOK 16/12 A3002 NOSIG=
201202151100 METAR MROC 151100Z 05006KT CAVOK 17/12 A3004 NOSIG=
201202151200 METAR MROC 151200Z 11009KT CAVOK 19/09 A3004 NOSIG=
201202151300 METAR MROC 151300Z 11011KT 9999 FEW035 21/10 A3006 NOSIG=
201202151400 METAR MROC 151400Z 10013KT 9999 FEW035 25/13 A3008 NOSIG=
201202151500 METAR MROC 151500Z 10010G20KT 9999 FEW035 26/12 A3009 NOSIG=
201202151600 METAR MROC 151600Z 07018KT 9999 FEW035 28/10 A3008 NOSIG=
201202151700 METAR MROC 151700Z 09015KT 9999 FEW040 28/11 A3007 NOSIG=
201202151800 METAR MROC 151800Z 07018KT 9999 FEW040 29/11 A3003 NOSIG=
201202151900 METAR MROC 151900Z 08016KT 9999 FEW040 29/11 A3001 NOSIG=
201202152000 METAR MROC 152000Z 09014KT 9999 FEW040 30/10 A2999 NOSIG=
201202152100 MROC 152100Z 08010KT CAVOK 29/10 A2996 NOSIG=
201202152200 METAR MROC 152200Z 07011KT CAVOK 28/10 A2997 NOSIG=
201202152300 METAR MROC 152300Z 07008KT 9999 FEW045 27/12 A2999 NOSIG=
201202160000 METAR MROC 160000Z 11005KT 9999 FEW040 24/13 A3001 NOSIG=
201202160100 METAR MROC 160100Z 09005KT 9999 FEW040 23/13 A3004 NOSIG=
201202160200 METAR MROC 160200Z 08005KT 9999 FEW045 22/13 A3005 NOSIG=
201202160300 METAR MROC 160300Z 09005KT CAVOK 22/13 A3006 NOSIG=
201202160400 METAR MROC 160400Z 07010KT CAVOK 21/13 A3007 NOSIG=
201202160500 METAR MROC 160500Z 06015KT CAVOK 21/13 A3005 NOSIG=
201202160600 METAR MROC 160600Z 07011KT CAVOK 21/13 A3006 NOSIG=
201202160700 METAR MROC 160700Z 07011KT CAVOK 20/13 A3004 NOSIG=
201202160800 METAR MROC 160800Z 08009KT CAVOK 20/13 A3002 NOSIG=
201202160900 METAR MROC 160900Z 10009KT CAVOK 20/14 A3002 NOSIG=
201202161000 METAR MROC 161000Z 11007KT CAVOK 19/13 A3004 NOSIG=
201202161100 METAR MROC 161100Z 09009KT CAVOK 20/13 A3005 NOSIG=
201202161200 METAR MROC 161200Z 12007KT CAVOK 19/13 A3006 NOSIG=
201202161300 METAR MROC 161300Z 13008KT CAVOK 20/13 A3008 NOSIG=
201202161400 METAR MROC 161400Z 11010KT CAVOK 20/13 A3009 NOSIG=
201202161500 METAR MROC 161500Z 11012KT CAVOK 25/11 A3010 NOSIG=
201202161600 METAR MROC 161600Z 11011KT CAVOK 26/11 A3010 NOSIG=
201202161700 METAR MROC 161700Z 11010KT CAVOK 27/12 A3008 NOSIG=
201202161800 METAR MROC 161800Z 09009KT 9999 FEW040 SCT300 28/12 A3006 NOSIG=
201202161900 METAR MROC 161900Z 12010KT 9999 FEW040 BKN300 28/13 A3004 NOSIG=
201202162000 METAR MROC 162000Z 10011KT 9999 SCT035 27/13 A3002 NOSIG=
201202162100 METAR MROC 162100Z 08010G20KT 9999 FEW045 SCT080 28/12 A3000 NOSIG=
201202162200 METAR MROC 162200Z 08009KT 9999 FEW045 BKN250 27/12 A2999 NOSIG=
201202162300 METAR MROC 162300Z 07011KT 9999 FEW045 BKN250 25/12 A3000 NOSIG=
201202162359 METAR MROC 170100Z 09007KT 9999 FEW045 BKN250 22/13 A3003 NOSIG=
201202170000 METAR MROC 170000Z 09006KT 9999 FEW045 BKN250 23/14 A3001 NOSIG=
201202170100 METAR MROC 170100Z 09007KT 9999 FEW045 BKN250 22/13 A3003 NOSIG=
201202170200 METAR MROC 170200Z 09008KT 9999 FEW045 SCT250 22/14 A3004 NOSIG=
201202170300 METAR MROC 170300Z 10012KT 9999 FEW035 21/14 A3006 NOSIG=
201202170400 METAR MROC 170400Z 10011KT 9999 FEW035 21/13 A3006 NOSIG=
201202170500 METAR MROC 170500Z 10014KT 9999 FEW035 20/14 A3004 NOSIG=
201202170600 METAR MROC 170600Z 12010G20KT 9999 FEW035 20/13 A3002 NOSIG=
201202170700 METAR MROC 170700Z 09012KT 9999 FEW035 20/13 A3000 NOSIG=
201202170800 METAR MROC 170800Z 10012KT 9999 FEW035 20/13 A2998 NOSIG=
201202170900 METAR MROC 170900Z 06009KT 9999 FEW035 19/13 A2998 NOSIG=
201202171000 METAR MROC 171000Z 06006KT 9999 FEW035 18/13 A2999 NOSIG=
201202171100 METAR MROC 171100Z 24004KT 9999 FEW035 18/12 A3001 NOSIG=
201202171200 METAR MROC 171200Z 07010KT 9999 FEW035 SCT120 18/14 A3002 NOSIG=
201202171300 METAR MROC 171300Z 03006KT CAVOK 21/13 A3005 NOSIG=
201202171400 METAR MROC 171400Z 10011KT CAVOK 25/13 A3006 NOSIG=
201202171500 METAR MROC 171500Z 10011KT CAVOK 25/12 A3006 NOSIG=
201202171600 METAR MROC 171600Z 09009KT CAVOK 27/12 A3006 NOSIG=
201202171700 METAR MROC 171700Z 09007KT CAVOK 28/12 A3004 NOSIG=
201202171800 METAR MROC 171800Z 09009KT 9999 FEW040 29/12 A3002 NOSIG=
201202171900 METAR MROC 171900Z 12007KT 9999 FEW040 29/12 A3000 NOSIG=
201202172000 METAR MROC 172000Z 11007KT 9999 FEW030 29/12 A//// NOSIG=
201202172100 METAR MROC 172100Z 11010KT 9999 SCT030 29/11 A2995 NOSIG=
201202172200 METAR MROC 172200Z 11008KT 9999 SCT030 28/13 A2994 NOSIG=
201202172300 METAR MROC 172300Z 07012KT 9999 SCT030 25/14 A2996 NOSIG=
201202180000 METAR MROC 180000Z 10010KT 9999 SCT030 22/15 A2997 NOSIG=
201202180100 METAR MROC 180100Z 10010KT 9999 SCT030 22/15 A2999 NOSIG=
201202180200 METAR MROC 180200Z 10010KT 9999 FEW030 21/15 A3001 NOSIG=
201202180300 METAR MROC 180300Z 08005KT 9999 FEW030 20/13 A3003 NOSIG=
201202180400 METAR MROC 180400Z 11005KT CAVOK 20/11 A3004 NOSIG=
201202180500 METAR MROC 180500Z 11007KT CAVOK 20/10 A3002 NOSIG=
201202180600 METAR MROC 180600Z 09006KT CAVOK 19/10 A3001 NOSIG=
201202180700 METAR MROC 180700Z 11007KT CAVOK 19/10 A2998 NOSIG=
201202180800 METAR MROC 180800Z 05008KT CAVOK 18/10 A2997 NOSIG=
201202180900 METAR MROC 180900Z 07007KT CAVOK 18/10 A2997 NOSIG=
201202181000 METAR MROC 181000Z 09005KT CAVOK 18/11 A2997 NOSIG=
201202181100 METAR MROC 181100Z 06006KT CAVOK 17/09 A2999 NOSIG=
201202181200 METAR MROC 181200Z 05006KT CAVOK 16/10 A3001 NOSIG=
201202181300 METAR MROC 181300Z 06006KT CAVOK 20/11 A3003 NOSIG=
201202181400 METAR MROC 181400Z 09012KT CAVOK 23/10 A3004 NOSIG=
201202181500 METAR MROC 181500Z 10013KT CAVOK 25/10 A3004 NOSIG=
201202181600 METAR MROC 181600Z 11014KT CAVOK 27/07 A3004 NOSIG=
201202181700 METAR MROC 181700Z 10013KT CAVOK 28/08 A3001 NOSIG=
201202181800 METAR MROC 181800Z 11013KT CAVOK 28/09 A2999 NOSIG=
201202181900 METAR MROC 181900Z 11013KT 9999 FEW030 29/10 A2996 NOSIG=
201202182000 METAR MROC 182000Z 09010KT 9999 SCT030 29/11 A2993 NOSIG=
201202182100 METAR MROC 182100Z 11010KT 9999 SCT030 28/11 A2992 NOSIG=
201202182200 METAR MROC 182200Z 20007KT 9999 BKN030 25/18 A2992 NOSIG=
201202182300 METAR MROC 182300Z 21007KT 9999 SCT025 SCT045 24/18 A2994 NOSIG=
201202190000 METAR MROC 190000Z 22008KT 9999 FEW025 SCT045 22/19 A2995 NOSIG=
201202190100 METAR MROC 190100Z 17003KT 9999 FEW030 SCT050 22/14 A2997 NOSIG=
201202190200 METAR MROC 190200Z 10005KT CAVOK 21/15 A3000 NOSIG=
201202190300 METAR MROC 190300Z 12003KT CAVOK 20/14 A3002 NOSIG=
201202190400 METAR MROC 190400Z 07005KT CAVOK 19/14 A3002 NOSIG=
201202190500 METAR MROC 190500Z 03005KT CAVOK 19/15 A3002 NOSIG=
201202190600 METAR MROC 190600Z 07005KT CAVOK 19/14 A3001 NOSIG=
201202190700 METAR MROC 190700Z 06006KT CAVOK 17/13 A3000 NOSIG=
201202190800 METAR MROC 190800Z 06006KT CAVOK 17/12 A2998 NOSIG=
201202190900 METAR MROC 190900Z 07007KT CAVOK 18/13 A2997 NOSIG=
201202191000 METAR MROC 191000Z 02006KT CAVOK 17/12 A2998 NOSIG=
201202191100 METAR MROC 191100Z 06006KT CAVOK 17/13 A2999 NOSIG=
201202191200 METAR MROC 191200Z 06008KT CAVOK 17/13 A3000 NOSIG=
201202191300 METAR MROC 191300Z 07005KT CAVOK 20/14 A3002 NOSIG=
201202191400 METAR MROC 191400Z 08007KT CAVOK 22/13 A3003 NOSIG=
201202191500 METAR MROC 191500Z 10009KT CAVOK 24/13 A3004 NOSIG=
201202191600 METAR MROC 191600Z 11010KT CAVOK 26/13 A3003 NOSIG=
201202191700 METAR MROC 191700Z 10007KT 9999 FEW045 29/13 A3002 NOSIG=
201202191800 METAR MROC 191800Z 12008KT 9999 FEW045 30/11 A2997 BECMG 24006KT=
201202191900 METAR MROC 191900Z 12008KT 9999 FEW045 30/11 A2997 BECMG 24006KT=
201202192000 METAR MROC 192000Z 12008KT 9999 FEW040 29/12 A2993 NOSIG=
201202192100 METAR MROC 192100Z 26007KT 9999 SCT040 28/15 A2992 NOSIG=
201202192200 METAR MROC 192200Z 24013KT 9999 SCT035 26/16 A2992 NOSIG=
201202192300 METAR MROC 192300Z 18011KT 9999 BKN030 25/15 A2993 NOSIG=
201202192354 METAR MROC 200000Z 17010KT 9999 SCT030 23/16 A2994 NOSIG=
201202200000 METAR MROC 200000Z 17010KT 9999 SCT030 23/16 A2994 NOSIG=
201202200100 METAR MROC 200100Z 10008KT CAVOK 22/15 A2997 NOSIG=
201202200200 METAR MROC 200200Z 11013KT 9999 FEW035 21/15 A3000 NOSIG=
201202200300 METAR MROC 200300Z 11011KT 9999 FEW035 21/15 A3001 NOSIG=
201202200400 METAR MROC 200400Z 09010KT 9999 FEW035 20/15 A3002 NOSIG=
201202200500 METAR MROC 200500Z 07007KT 9999 FEW035 20/16 A3003 NOSIG=
201202200600 METAR MROC 200600Z 06007KT 9999 FEW035 20/15 A3001 NOSIG=
201202200700 METAR MROC 200700Z 07005KT 9999 FEW035 19/15 A3000 NOSIG=
201202200800 METAR MROC 200800Z 08008KT 9999 FEW035 20/15 A2998 NOSIG=
201202200900 METAR MROC 200900Z 13009KT 9999 FEW035 20/16 A2997 NOSIG=
201202201000 METAR MROC 201000Z 10009KT 9999 FEW035 21/16 A2999 NOSIG=
201202201100 METAR MROC 201100Z 12013KT 9999 FEW035 21/16 A2999 NOSIG=
201202201200 METAR MROC 201200Z 09014KT 9999 SCT030 20/14 A3001 NOSIG=
201202201300 METAR MROC 201300Z 10015KT 9999 SCT030 21/14 A3002 NOSIG=
201202201400 METAR MROC 201400Z 11014KT 9999 SCT030 22/15 A3005 NOSIG=
201202201500 METAR MROC 201500Z 10017KT 9999 FEW030 SCT100 23/15 A3006 NOSIG=
201202201600 METAR MROC 201600Z 07020KT 9999 SCT030 SCT100 24/12 A3007 NOSIG=
201202201700 METAR MROC 201700Z 08018KT 9999 SCT030 26/10 A3005 NOSIG=
201202201800 METAR MROC 201800Z 10012G22KT 9999 SCT030 27/12 A3003 NOSIG=
201202201900 METAR MROC 201900Z 10019KT 9999 SCT030 26/11 A3002 NOSIG=
201202202000 METAR MROC 202000Z 11020KT 9999 SCT035 27/11 A2999 NOSIG=
201202202100 METAR MROC 202100Z 08011KT 9999 FEW045 26/13 A2996 NOSIG=
201202202200 METAR MROC 202200Z 11013KT 9999 FEW030 24/13 A2997 NOSIG=
201202202300 METAR MROC 202300Z 12012KT 9999 SCT030 23/12 A2999 NOSIG=
201202210000 METAR MROC 210000Z 11010KT 9999 FEW030 21/11 A3000 NOSIG=
201202210100 METAR MROC 210100Z 12012KT 9999 FEW030 20/13 A3002 NOSIG=
201202210200 METAR MROC 210200Z 11011KT 9999 FEW035 20/11 A3004 NOSIG=
201202210300 METAR MROC 210300Z 11014KT 9999 FEW035 20/12 A3005 NOSIG=
201202210400 METAR MROC 210400Z 11010KT CAVOK 20/13 A3006 NOSIG=
201202210500 METAR MROC 210500Z 11012KT CAVOK 19/13 A3005 NOSIG=
201202210600 METAR MROC 210600Z 10012KT CAVOK 20/12 A3004 NOSIG=
201202210700 METAR MROC 210700Z 11010KT CAVOK 19/12 A3001 NOSIG=
201202210800 METAR MROC 210800Z 10010KT CAVOK 19/13 A2999 NOSIG=
201202210900 METAR MROC 210900Z 10012KT CAVOK 19/12 A2998 NOSIG=
201202211000 METAR MROC 211000Z 12013KT CAVOK 19/13 A2999 NOSIG=
201202211100 METAR MROC 211100Z 11014KT CAVOK 19/12 A3000 NOSIG=
201202211200 METAR MROC 211200Z 11014KT CAVOK 19/13 A3002 NOSIG=
201202211300 MROC 211300Z 10010G20KT CAVOK 20/12 A3004 NOSIG=
201202211400 METAR MROC 211400Z 11010G20KT CAVOK 22/11 A3006 NOSIG=
201202211500 METAR MROC 211500Z 09011KT CAVOK 25/09 A3008 NOSIG=
201202211600 METAR MROC 211600Z 09013KT CAVOK 26/10 A3007 NOSIG=
201202211700 METAR MROC 211700Z 07014KT CAVOK 26/13 A3006 NOSIG=
201202211800 METAR MROC 211800Z 07013G23KT 9999 FEW045 27/14 A3004 NOSIG=
201202211900 METAR MROC 211900Z 07014G24KT 9999 FEW045 27/14 A3003 NOSIG=
201202212000 METAR MROC 212000Z 07015G25KT 9999 FEW045 27/12 A2999 NOSIG=
201202212100 METAR MROC 212100Z 07013KT 9999 FEW045 27/11 A2998 NOSIG=
201202212200 METAR MROC 212200Z 06017KT 9999 FEW045 27/12 A2997 NOSIG=
201202212300 METAR MROC 212300Z 07016KT 9999 FEW045 25/12 A2997 NOSIG=
201202220000 METAR MROC 220000Z 09011KT 9999 FEW040 23/13 A2999 NOSIG=
201202220100 METAR MROC 220100Z 08010KT 9999 FEW040 22/13 A3000 NOSIG=
201202220200 METAR MROC 220200Z 08014KT 9999 FEW040 22/14 A3002 NOSIG=
201202220300 METAR MROC 220300Z 08018KT 9999 FEW030 20/14 A3004 NOSIG=
201202220400 METAR MROC 220400Z 10019KT 9999 FEW030 20/14 A3003 NOSIG=
201202220500 METAR MROC 220500Z 10018KT 9999 FEW030 20/13 A3004 NOSIG=
201202220600 METAR MROC 220600Z 09019KT 9999 FEW030 19/14 A3003 NOSIG=
201202220700 METAR MROC 220700Z 10015KT 9999 FEW030 21/13 A3001 NOSIG=
201202220800 METAR MROC 220800Z 09017KT 9999 FEW030 20/14 A2999 NOSIG=
201202220900 METAR MROC 220900Z 10014KT 9999 FEW030 19/14 A2998 NOSIG=
201202221000 METAR MROC 221000Z 10015KT 9999 FEW030 19/14 A2997 NOSIG=
201202221100 METAR MROC 221100Z 10016KT 9999 FEW030 20/14 A2999 NOSIG=
201202221200 METAR MROC 221200Z 11015KT 9999 FEW030 19/14 A3001 NOSIG=
201202221300 METAR MROC 221300Z 13012KT 9999 FEW030 20/15 A3003 NOSIG=
201202221400 METAR MROC 221400Z 11013KT 9999 FEW030 22/13 A3005 NOSIG=
201202221500 METAR MROC 221500Z 10013KT 9999 FEW030 25/11 A3006 NOSIG=
201202221600 METAR MROC 221600Z 10010G20KT 9999 FEW030 25/11 A3005 NOSIG=
201202221700 METAR MROC 221700Z 09014KT 9999 FEW030 25/11 A3005 NOSIG=
201202221800 METAR MROC 221800Z 10010G20KT 9999 FEW030 26/12 A3001 NOSIG=
201202221900 METAR MROC 221900Z 10013KT 9999 FEW030 27/12 A2998 NOSIG=
201202222000 METAR MROC 222000Z 10012KT 9999 FEW030 28/12 A2995 NOSIG=
201202222100 METAR MROC 222100Z 12010G20KT 9999 FEW030 28/12 A2993 NOSIG=
201202222200 METAR MROC 222200Z 09008KT 9999 FEW030 27/12 A2992 NOSIG=
201202222300 METAR MROC 222300Z 09010KT 9999 FEW030 25/11 A2993 NOSIG=
201202230000 METAR MROC 230000Z 07012KT 9999 FEW030 22/12 A2994 NOSIG=
201202230100 METAR MROC 230100Z 07011KT 9999 FEW030 21/13 A2995 NOSIG=
201202230200 METAR MROC 230200Z 08010KT 9999 FEW030 21/13 A2998 NOSIG=
201202230300 METAR MROC 230300Z 08008KT 9999 FEW030 21/13 A2999 NOSIG=
201202230400 MROC 230400Z 10010KT 9999 FEW030 21/13 A2999 NOSIG=
201202230500 METAR MROC 230500Z 12011KT 9999 FEW030 20/13 A2999 NOSIG=
201202230600 METAR MROC 230600Z 11011KT 9999 FEW035 20/14 A2997 NOSIG=
201202230700 METAR MROC 230700Z 11009KT CAVOK 20/13 A2996 NOSIG=
201202230800 METAR MROC 230800Z 05006KT CAVOK 18/12 A2996 NOSIG=
201202230900 METAR MROC 230900Z 04008KT CAVOK 16/10 A2996 NOSIG=
201202231000 METAR MROC 231000Z 03007KT CAVOK 15/11 A2996 NOSIG=
201202231100 METAR MROC 231100Z 06008KT CAVOK 15/10 A2996 NOSIG=
201202231200 METAR MROC 231200Z 06006KT CAVOK 16/12 A2998 NOSIG=
201202231300 METAR MROC 231300Z 09006KT CAVOK 20/13 A2999 NOSIG=
201202231400 METAR MROC 231400Z 10009KT CAVOK 23/14 A3001 NOSIG=
201202231500 METAR MROC 231500Z 10009KT CAVOK 25/12 A3002 NOSIG=
201202231600 METAR MROC 231600Z 08012KT CAVOK 26/11 A3002 NOSIG=
201202231700 METAR MROC 231700Z 10008KT 9999 FEW045 27/12 A3000 NOSIG=
201202231800 METAR MROC 231800Z 10011KT 9999 FEW045 27/12 A2998 NOSIG=
201202231900 METAR MROC 231900Z 10009KT 9999 FEW045 28/12 A2996 NOSIG=
201202232000 METAR MROC 232000Z 11007KT 9999 FEW045 28/12 A2996 NOSIG=
201202232100 METAR MROC 232100Z 09008KT 9999 FEW040 29/11 A2990 NOSIG=
201202232200 METAR MROC 232200Z 12007KT 9999 FEW035 28/11 A2989 NOSIG=
201202232300 METAR MROC 232300Z 11007KT 9999 FEW035 27/12 A2990 NOSIG=
201202240000 METAR MROC 240000Z 13006KT 9999 FEW035 24/13 A2992 NOSIG=
201202240100 METAR MROC 240100Z 14007KT 9999 FEW035 22/14 A2995 NOSIG=
201202240200 METAR MROC 240200Z 10008KT 9999 FEW035 21/13 A2997 NOSIG=
201202240215 METAR MROC 240215Z 11005KT 9999 FEW035 20/13 A2998 NOSIG=
201202240229 METAR MROC 240229Z 10004KT 9999 FEW035 20/13 A2998 NOSIG=
201202240245 METAR MROC 240245Z 11005KT 9999 FEW035 20/14 A2998 NOSIG=
201202240300 METAR MROC 240300Z 11006KT 9999 FEW035 20/14 A2998 NOSIG=
201202240400 METAR MROC 240400Z 09006KT 9999 FEW035 20/14 A2999 NOSIG=
201202240417 METAR MROC 240417Z 07005KT 9999 FEW035 20/14 A2999 NOSIG=
201202240427 METAR MROC 240427Z 09006KT 9999 FEW035 20/14 A2999 NOSIG=
201202240443 METAR MROC 240443Z 09007KT 9999 FEW035 20/14 A2999 NOSIG=
201202240500 METAR MROC 240500Z 12010KT 9999 FEW035 20/14 A2998 NOSIG=
201202240527 METAR MROC 240527Z 11009KT 9999 FEW035 20/14 A2998 NOSIG=
201202240543 METAR MROC 240543Z 11011KT 9999 FEW035 20/14 A2997 NOSIG=
201202240600 METAR MROC 240600Z 11010KT 9999 FEW035 20/14 A2996 NOSIG=
201202240614 METAR MROC 240614Z 11010KT 9999 FEW035 20/14 A2996 NOSIG=
201202240700 METAR MROC 240700Z 08006KT 9999 FEW035 19/14 A2996 NOSIG=
201202240800 METAR MROC 240800Z 08005KT CAVOK 18/13 A2994 NOSIG=
201202240900 METAR MROC 240900Z 07005KT CAVOK 17/13 A2994 NOSIG=
201202241000 METAR MROC 241000Z 07005KT CAVOK 17/12 A2995 NOSIG=
201202241100 METAR MROC 241100Z 06008KT CAVOK 17/13 A2997 NOSIG=
201202241200 METAR MROC 241200Z 06007KT CAVOK 16/11 A2998 NOSIG=
201202241300 METAR MROC 241300Z 07006KT CAVOK 20/13 A3000 NOSIG=
201202241400 METAR MROC 241400Z 05006KT CAVOK 24/11 A3003 NOSIG=
201202241500 METAR MROC 241500Z 12010KT CAVOK 26/08 A3003 NOSIG=
201202241600 METAR MROC 241600Z 11011KT CAVOK 27/09 A3003 NOSIG=
201202241700 METAR MROC 241700Z 11009KT CAVOK 29/10 A3000 NOSIG=
201202241800 METAR MROC 241800Z 09010KT CAVOK 29/11 A2999 NOSIG=
201202241900 METAR MROC 241900Z 09010KT 9999 FEW045 30/11 A2997 NOSIG=
201202242000 METAR MROC 242000Z 09009KT 9999 FEW040 29/12 A2993 NOSIG=
201202242100 METAR MROC 242100Z 10014KT 9999 FEW040 SCT250 29/12 A2992 NOSIG=
201202242200 METAR MROC 242200Z 11011KT 9999 FEW040 BKN250 27/13 A2992 NOSIG=
201202242300 METAR MROC 242300Z 11012KT 9999 FEW035 BKN250 25/15 A2993 NOSIG=
201202242353 METAR MROC 250000Z 11014KT 9999 FEW035 BKN250 23/16 A2994 NOSIG=
201202250000 METAR MROC 250000Z 11014KT 9999 FEW035 BKN250 23/16 A2994 NOSIG=
201202250100 METAR MROC 250100Z 09016KT 9999 FEW035 23/15 A2997 NOSIG=
201202250200 METAR MROC 250200Z 09013KT 9999 FEW035 22/16 A2999 NOSIG=
201202250300 METAR MROC 250300Z 10008KT 9999 FEW040 21/16 A3001 NOSIG=
201202250400 METAR MROC 250400Z 08008KT 9999 FEW040 22/16 A3002 NOSIG=
201202250500 METAR MROC 250500Z 10010KT 9999 FEW030 21/16 A3001 NOSIG=
201202250600 METAR MROC 250600Z 09008KT 9999 FEW030 21/16 A3000 NOSIG=
201202250700 METAR MROC 250700Z 08005KT 9999 FEW030 20/16 A2998 NOSIG=
201202250800 METAR MROC 250800Z 09008KT 9999 FEW030 20/16 A2998 NOSIG=
201202250900 METAR MROC 250900Z 09006KT 9999 FEW025 20/16 A2997 NOSIG=
201202251000 METAR MROC 251000Z 08006KT 9999 FEW025 20/16 A2997 NOSIG=
201202251100 METAR MROC 251100Z 09010KT 9999 FEW025 20/15 A2994 NOSIG=
201202251200 METAR MROC 251200Z 08006KT 9999 FEW025 SCT250 20/15 A3000 NOSIG=
201202251300 METAR MROC 251300Z 07012KT 9999 FEW025 BKN250 21/16 A3002 NOSIG=
201202251400 METAR MROC 251400Z 09015KT 9999 FEW035 BKN250 23/16 A3004 NOSIG=
201202251500 METAR MROC 251500Z 10018KT 9999 FEW025 BKN250 24/15 A3004 NOSIG=
201202251600 METAR MROC 251600Z 09019KT 9999 FEW025 BKN250 26/15 A3005 NOSIG=
201202251700 METAR MROC 251700Z 12016KT 9999 FEW035 BKN250 26/14 A3003 NOSIG=
201202251800 METAR MROC 251800Z 10017KT 9999 FEW040 BKN250 27/13 A2999 NOSIG=
201202251900 METAR MROC 251900Z 09014KT 9999 FEW035 BKN250 29/13 A2997 NOSIG=
201202252000 METAR MROC 252000Z 07015KT 9999 FEW035 SCT250 30/14 A2993 NOSIG=
201202252100 COR MROC 252100Z 28009KT 9999 SCT030 28/13 A2991 NOSIG=
201202252200 METAR MROC 252200Z 07010G20KT 9999 FEW020 BKN200 25/15 A2993 NOSIG=
201202252300 METAR MROC 252300Z 11006KT 9999 FEW030 SCT050 BKN250 24/16 A2995 NOSIG=
201202260000 METAR MROC 260000Z 08009KT 9999 SCT030 BKN250 22/15 A2996 NOSIG=
201202260100 METAR MROC 260100Z 08011KT 9999 FEW035 21/13 A2996 NOSIG=
201202260200 METAR MROC 260200Z 11009KT CAVOK 21/16 A3000 NOSIG=
201202260300 METAR MROC 260300Z 09009KT CAVOK 21/16 A3003 NOSIG=
201202260400 METAR MROC 260400Z 09008KT CAVOK 21/16 A3003 NOSIG=
201202260500 METAR MROC 260500Z 07008KT 9999 FEW045 21/16 A3004 NOSIG=
201202260600 METAR MROC 260600Z 08007KT 9999 FEW040 21/16 A3002 NOSIG=
201202260700 METAR MROC 260700Z 10010KT 9999 FEW040 21/16 A2997 NOSIG=
201202260800 METAR MROC 260800Z 10010KT 9999 FEW040 20/16 A2997 NOSIG=
201202260900 METAR MROC 260900Z 10011KT 9999 FEW040 21/15 A2996 NOSIG=
201202261000 METAR MROC 261000Z 07008KT 9999 FEW040 20/15 A2996 NOSIG=
201202261100 METAR MROC 261100Z 11010KT 9999 FEW040 20/14 A2997 NOSIG=
201202261200 METAR MROC 261200Z 10010KT 9999 FEW040 SCT250 20/14 A2998 NOSIG=
201202261300 METAR MROC 261300Z 10011KT CAVOK 21/15 A2999 NOSIG=
201202261400 METAR MROC 261400Z 10014G24KT 9999 FEW040 BKN200 22/15 A3002 NOSIG=
201202261500 METAR MROC 261500Z 08011G21KT 9999 FEW040 BKN250 24/14 A3002 NOSIG=
201202261600 METAR MROC 261600Z 08016KT 9999 FEW035 BKN250 25/14 A3003 NOSIG=
201202261700 METAR MROC 261700Z 08013KT 9999 FEW040 SCT250 27/13 A3001 NOSIG=
201202261800 METAR MROC 261800Z 09016G26KT 9999 SCT040 27/14 A3000 NOSIG=
201202261900 METAR MROC 261900Z 10013KT 9999 SCT040 27/14 A2998 NOSIG=
201202262000 METAR MROC 262000Z 09013KT 9999 FEW035 26/13 A2993 RMK GUST 20KT NOSIG=
201202262100 METAR MROC 262100Z 09013KT 9999 FEW035 26/13 A2993 NOSIG=
201202262200 METAR MROC 262200Z 07013KT 9999 FEW035 26/11 A2994 NOSIG=
201202262300 METAR MROC 262300Z 08011KT 9999 FEW035 23/12 A2995 NOSIG=
201202270000 METAR MROC 270000Z 08013KT 9999 FEW035 22/13 A2995 NOSIG=
201202270100 METAR MROC 270100Z 08011KT 9999 FEW035 21/13 A2996 NOSIG=
201202270200 METAR MROC NIL=
201202270300 METAR MROC 270300Z 09017KT 9999 FEW035 20/11 A3000 NOSIG=
201202270400 METAR MROC 270400Z 08016KT CAVOK 20/11 A3001 NOSIG=
201202270500 METAR MROC 270500Z 09016KT CAVOK 19/12 A3001 NOSIG=
201202270600 METAR MROC 270600Z 09017KT CAVOK 19/12 A3000 NOSIG=
201202270700 METAR MROC 270700Z 09015KT CAVOK 20/12 A2997 NOSIG=
201202270800 METAR MROC 270800Z 10019KT 9999 FEW035 19/13 A2995 NOSIG=
201202270900 METAR MROC 270900Z 09018KT 9999 FEW035 19/13 A2994 NOSIG=
201202271000 METAR MROC 271000Z 10021KT 9999 FEW040 20/13 A2994 NOSIG=
201202271100 METAR MROC 271100Z 09016KT 9999 FEW040 19/13 A2997 NOSIG=
201202271200 METAR MROC 271200Z 08015KT 9999 FEW030 BKN250 19/13 A2999 NOSIG=
201202271300 METAR MROC 271300Z 09012KT 9999 FEW030 SCT250 21/13 A3000 NOSIG=
201202271400 METAR MROC 271400Z 09011KT 9999 FEW030 SCT250 23/13 A3004 NOSIG=
201202271500 METAR MROC 271500Z 07018KT 9999 FEW030 SCT250 25/09 A3004 NOSIG=
201202271600 METAR MROC 271600Z 06019KT 9999 FEW030 SCT250 26/09 A3005 NOSIG=
201202271700 METAR MROC 271700Z 07019G30KT 9999 FEW035 27/10 A3003 NOSIG=
201202271800 METAR MROC 271800Z 07019G32KT 9999 FEW035 26/11 A3001 NOSIG=
201202271900 METAR MROC 271900Z 06018G30KT 9999 FEW035 27/09 A2999 NOSIG=
201202272000 METAR MROC 272000Z 06016G26KT 9999 FEW035 SCT250 26/10 A2997 NOSIG=
201202272100 METAR MROC 272100Z 05020G30KT 9999 FEW035 SCT250 26/10 A2995 NOSIG=
201202272200 METAR MROC 272200Z 06020G30KT 9999 FEW035 SCT250 26/10 A2994 NOSIG=
201202272300 METAR MROC 272300Z 06020KT 9999 FEW035 SCT250 24/09 A2995 NOSIG=
201202280000 METAR MROC 280000Z 07018KT 9999 FEW035 SCT250 22/10 A2996 NOSIG=
201202280100 METAR MROC 280100Z 07015KT 9999 FEW035 SCT250 21/09 A2998 NOSIG=
201202280200 METAR MROC 280200Z 08013KT 9999 FEW040 21/10 A3000 NOSIG=
201202280300 METAR MROC 280300Z 09010KT CAVOK 20/11 A3001 NOSIG=
201202280400 METAR MROC 280400Z 09010KT CAVOK 19/12 A3002 NOSIG=
201202280500 METAR MROC 280500Z 10009KT CAVOK 19/11 A3001 NOSIG=
201202280600 METAR MROC 280600Z 11010KT CAVOK 19/11 A3001 NOSIG=
201202280700 METAR MROC 280700Z 10009KT CAVOK 18/11 A2999 NOSIG=
201202280800 METAR MROC 280800Z 12008KT CAVOK 19/11 A2998 NOSIG=
201202280900 METAR MROC 280900Z 10008KT 9999 FEW040 19/11 A2998 NOSIG=
201202281000 METAR MROC 281000Z 11006KT 9999 SCT045 18/11 A2999 NOSIG=
201202281100 METAR MROC 281100Z 11007KT 9999 FEW045 19/11 A3000 NOSIG=
201202281200 METAR MROC 281200Z 11009KT CAVOK 18/12 A3002 NOSIG=
201202281300 METAR MROC 281300Z 11010G20KT 9999 FEW040 SCT250 20/12 A3004 NOSIG=
201202281400 METAR MROC 281400Z 11012KT 9999 SCT040 22/11 A3004 NOSIG=
201202281500 METAR MROC 281500Z 07015KT 9999 SCT040 24/12 A3005 NOSIG=
201202281600 METAR MROC 281600Z 06016KT 9999 SCT035 24/13 A3007 NOSIG=
201202281700 METAR MROC 281700Z 10012KT 9999 SCT035 25/12 A3005 NOSIG=
201202281800 METAR MROC 281800Z 07015KT 9999 SCT035 26/12 A3002 NOSIG=
201202281900 METAR MROC 281900Z 07015KT 9999 SCT035 26/12 A3002 NOSIG=
201202281959 METAR MROC 281959Z 08016KT 9999 FEW035 SCT100 BKN250 26/13 A2997 NOSIG=
201202282000 METAR MROC 282000Z 08016KT 9999 FEW035 SCT100 BKN250 26/13 A2997 NOSIG=
201202282100 METAR MROC 282100Z 07013G23KT 9999 SCT035 SCT100 23/14 A2996 NOSIG=
201202282200 METAR MROC 282200Z 07016G26KT 9999 SCT035 SCT250 23/13 A2996 NOSIG=
201202282300 METAR MROC 282300Z 07016KT 9999 FEW040 23/12 A2998 NOSIG=
201202290000 METAR MROC NIL=
201202290100 METAR MROC NIL=
201202290200 METAR MROC NIL=
201202290300 METAR MROC 290300Z 07010G20KT 9999 FEW040 SCT120 20/12 A3005 NOSIG=
201202290400 METAR MROC 290400Z 08015KT 9999 FEW040 SCT120 20/12 A3004 NOSIG=
201202290500 METAR MROC 290500Z 07014KT 9999 FEW040 19/13 A3005 NOSIG=
201202290600 METAR MROC 290600Z 10005KT 9999 FEW040 20/12 A3003 NOSIG=
201202290700 METAR MROC 290700Z 09011KT 9999 FEW040 19/13 A3001 NOSIG=
201202290800 METAR MROC 290800Z 11012KT 9999 FEW040 19/13 A2999 NOSIG=
201202290900 METAR MROC 290900Z 10012KT 9999 FEW040 19/13 A2998 NOSIG=
201202291000 METAR MROC 291000Z 10013KT 9999 FEW040 19/13 A2999 NOSIG=
201202291100 METAR MROC 291100Z 11013KT 9999 FEW040 19/13 A3001 NOSIG=
201202291200 METAR MROC 291200Z 09009KT 9999 FEW040 19/12 A3002 NOSIG=
201202291300 METAR MROC 291300Z 10013G23KT CAVOK 21/12 A3003 NOSIG=
201202291400 METAR MROC 291400Z 10012G22KT CAVOK 22/12 A3004 NOSIG=
201202291500 METAR MROC 291500Z 10011G21KT CAVOK 24/12 A3005 NOSIG=
201202291600 METAR MROC 291600Z 10017G27KT CAVOK 26/10 A3005 NOSIG=
201202291700 METAR MROC 291700Z 08015KT CAVOK 26/10 A3003 NOSIG=
201202291800 METAR MROC 291800Z 07012KT 9999 FEW045 28/12 A3002 NOSIG=
201202291900 METAR MROC 291900Z 09014G24KT 9999 FEW045 27/13 A2998 NOSIG=
201202292000 METAR MROC 292000Z 09014KT 9999 FEW040 27/11 A2995 NOSIG=
201202292100 METAR MROC 292100Z 10012G22KT 9999 FEW030 26/12 A2994 NOSIG=
201202292200 METAR MROC 292200Z 09018KT 9999 FEW035 25/09 A2994 NOSIG=
201202292300 METAR MROC 292300Z 09019KT 9999 FEW040 24/08 A2994 NOSIG=
201202292353 METAR MROC 010000Z 10020KT 9999 FEW040 22/11 A2995 NOSIG=
201203010000 METAR MROC 010000Z 10020KT 9999 FEW040 22/11 A2995 NOSIG=
201203010100 METAR MROC 010100Z 11011G21KT 9999 FEW030 21/13 A2997 NOSIG=
201203010200 METAR MROC 010200Z 10016KT 9999 FEW030 21/13 A2999 NOSIG=
201203010300 METAR MROC NIL=
201203010400 METAR MROC 010400Z 09013KT 9999 FEW035 20/13 A3002 NOSIG=
201203010500 METAR MROC 010500Z 09014KT 9999 FEW035 20/13 A3001 NOSIG=
201203010600 METAR MROC 010600Z 10013KT 9999 FEW035 20/13 A2999 NOSIG=
201203010700 METAR MROC 010700Z 10015KT 9999 FEW035 20/13 A2995 NOSIG=
201203010800 METAR MROC 010800Z 10015KT 9999 FEW035 20/13 A2995 NOSIG=
201203010900 METAR MROC 010900Z 12014KT CAVOK 20/13 A2996 NOSIG=
201203011000 METAR MROC 011000Z 11013KT CAVOK 19/13 A2996 NOSIG=
201203011100 METAR MROC 011100Z 11012KT CAVOK 20/12 A2997 NOSIG=
201203011200 METAR MROC 011200Z 11014KT CAVOK 20/12 A2999 NOSIG=
201203011300 METAR MROC 011300Z 10017KT 9999 FEW035 21/12 A3000 NOSIG=
201203011400 METAR MROC 011400Z 10016KT 9999 FEW035 23/12 A3002 NOSIG=
201203011500 METAR MROC 011500Z 10018KT 9999 FEW035 25/08 A3002 NOSIG=
201203011600 METAR MROC 011600Z 08018KT 9999 FEW035 26/11 A3003 NOSIG=
201203011700 METAR MROC 011700Z 08020KT 9999 FEW035 27/12 A3001 NOSIG=
201203011800 METAR MROC 011800Z 11011G21KT 9999 FEW030 28/12 A2998 NOSIG=
201203011900 METAR MROC 011900Z 10020KT 9999 FEW030 28/14 A2996 NOSIG=
201203012000 METAR MROC 012000Z 09018KT 9999 FEW030 27/14 A2993 NOSIG=
201203012100 METAR MROC 012100Z 09012KT 9999 FEW035 26/12 A2992 NOSIG=
201203012200 METAR MROC 012200Z 09013KT 9999 FEW040 25/13 A2992 NOSIG=
201203012300 METAR MROC 012300Z 09011KT 9999 FEW045 24/07 A2992 NOSIG=
201203020000 METAR MROC 020000Z 08012KT CAVOK 22/07 A2994 NOSIG=
201203020100 METAR MROC 020100Z 09011KT CAVOK 20/12 A2995 NOSIG=
201203020200 METAR MROC 020200Z 08011G21KT CAVOK 20/11 A2995 NOSIG=
201203020300 METAR MROC 020300Z 09011G21KT CAVOK 20/12 A2996 NOSIG=
201203020400 METAR MROC 020400Z 09013KT CAVOK 20/13 A2998 NOSIG=
201203020500 METAR MROC 020500Z 09012KT CAVOK 20/12 A2999 NOSIG=
201203020600 METAR MROC 020600Z 10012KT CAVOK 20/10 A2997 NOSIG=
201203020700 METAR MROC NIL=
201203020800 METAR MROC 020800Z 10010KT CAVOK 19/12 A2994 NOSIG=
201203020900 METAR MROC 020900Z 10012KT CAVOK 19/10 A2993 NOSIG=
201203021000 METAR MROC 021000Z 12010KT CAVOK 18/10 A2993 NOSIG=
201203021100 METAR MROC 021100Z 10012KT CAVOK 18/10 A2993 NOSIG=
201203021200 METAR MROC 021200Z 10010KT CAVOK 18/10 A2994 NOSIG=
201203021300 METAR MROC 021300Z 12012KT CAVOK 20/09 A2996 NOSIG=
201203021400 METAR MROC 021400Z 09010KT CAVOK 24/08 A2998 NOSIG=
201203021500 METAR MROC 021500Z 10010KT CAVOK 26/07 A3000 NOSIG=
201203021600 METAR MROC 021600Z 12010KT CAVOK 27/08 A2999 NOSIG=
201203021700 METAR MROC 021700Z 10010G20KT CAVOK 28/10 A2997 NOSIG=
201203021800 METAR MROC 021800Z 10012KT CAVOK 29/11 A2994 NOSIG=
201203021900 METAR MROC 021900Z 10012KT CAVOK 30/12 A2991 NOSIG=
201203022000 METAR MROC 022000Z 09010KT CAVOK 30/12 A2988 NOSIG=
201203022100 METAR MROC 022100Z 10010KT 9999 SCT040 30/13 A2986 NOSIG=
201203022200 METAR MROC 022200Z 10009KT 9999 SCT040 28/14 A2987 NOSIG=
201203022300 METAR MROC 022300Z 12009KT 9999 FEW040 26/15 A2989 NOSIG=
201203030000 METAR MROC 030000Z 13006KT 9999 FEW040 23/16 A2992 NOSIG=
201203030100 METAR MROC 030100Z 13009KT 9999 FEW040 23/16 A2993 NOSIG=
201203030200 METAR MROC 030200Z 11007KT 9999 FEW040 21/15 A2996 NOSIG=
201203030300 METAR MROC 030300Z 11010KT 9999 FEW030 20/15 A2998 NOSIG=
201203030400 METAR MROC 030400Z 10011KT 9999 FEW030 20/15 A2999 NOSIG=
201203030500 METAR MROC 030500Z 10010G20KT 9999 FEW030 20/15 A2998 NOSIG=
201203030600 METAR MROC 030600Z 09015KT 9999 FEW030 20/14 A2996 NOSIG=
201203030700 METAR MROC 030700Z 07010KT 9999 FEW030 20/14 A2993 NOSIG=
201203030800 METAR MROC 030800Z 06009KT 9999 FEW030 19/14 A2991 NOSIG=
201203030900 METAR MROC 030900Z 09016KT 9999 FEW030 20/13 A2989 NOSIG=
201203031000 METAR MROC 031000Z 09014KT 9999 FEW030 20/13 A2989 NOSIG=
201203031100 METAR MROC 031100Z 09014KT 9999 FEW030 20/12 A2990 NOSIG=
201203031200 METAR MROC 031200Z 08016KT 9999 FEW030 20/13 A2993 NOSIG=
201203031300 METAR MROC 031300Z 09010KT 9999 FEW030 22/14 A2996 NOSIG=
201203031400 METAR MROC 031400Z 10011KT 9999 FEW030 25/13 A2996 NOSIG=
201203031500 METAR MROC 031500Z 09010KT CAVOK 26/13 A2998 NOSIG=
201203031600 METAR MROC 031600Z 10011KT CAVOK 28/13 A2997 NOSIG=
201203031700 METAR MROC 031700Z 10009KT CAVOK 29/13 A2995 NOSIG=
201203031800 METAR MROC 031800Z 09009KT 9999 FEW040 30/12 A2994 NOSIG=
201203031900 METAR MROC 031900Z 11008KT 9999 FEW040 32/12 A2990 NOSIG=
201203032000 METAR MROC 032000Z 12007KT 9999 SCT040 29/13 A2987 NOSIG=
201203032100 METAR MROC 032100Z 16010KT 9999 VCSH BKN035 27/17 A2987 NOSIG=
201203032200 METAR MROC 032200Z 22008KT 9999 VCSH SCT030 SCT250 26/17 A2987 NOSIG=
201203032300 METAR MROC 032300Z 11012KT 9999 SCT030 SCT250 26/16 A2987 NOSIG=
201203040000 METAR MROC 040000Z 12010KT 9999 FEW030 SCT250 24/16 A2988 NOSIG=
201203040100 METAR MROC 040100Z 10008KT CAVOK 23/17 A2991 NOSIG=
201203040200 METAR MROC 040200Z 10008KT CAVOK 22/16 A2994 NOSIG=
201203040300 METAR MROC 040300Z 07005KT 9999 FEW030 22/15 A2997 NOSIG=
201203040400 METAR MROC 040400Z 06003KT 9999 FEW030 21/16 A2998 NOSIG=
201203040500 METAR MROC 040500Z 08004KT CAVOK 21/16 A2997 NOSIG=
201203040600 METAR MROC 040600Z 07008KT CAVOK 21/16 A2997 NOSIG=
201203040700 METAR MROC 040700Z 09008KT CAVOK 21/15 A2995 NOSIG=
201203040800 METAR MROC 040800Z 08007KT CAVOK 21/15 A2994 NOSIG=
201203040900 METAR MROC 040900Z 07006KT CAVOK 21/15 A2993 NOSIG=
201203041000 METAR MROC 041000Z 08008KT CAVOK 21/15 A2994 NOSIG=
201203041100 METAR MROC 041100Z 05008KT CAVOK 20/15 A2996 NOSIG=
201203041200 METAR MROC 041200Z 06005KT CAVOK 19/14 A2998 NOSIG=
201203041300 METAR MROC 041300Z 08006KT CAVOK 19/14 A3001 NOSIG=
201203041400 METAR MROC 041400Z 12008KT CAVOK 25/16 A3003 NOSIG=
201203041500 METAR MROC 041500Z 10007KT CAVOK 27/15 A3003 NOSIG=
201203041600 METAR MROC 041600Z 09009KT CAVOK 28/15 A3002 NOSIG=
201203041700 METAR MROC 041700Z 10009KT CAVOK 29/14 A3001 NOSIG=
201203041800 METAR MROC 041800Z 10010G20KT 9999 FEW045 29/15 A2999 NOSIG=
201203041900 METAR MROC 041900Z 10010G20KT 9999 FEW040 29/14 A2995 NOSIG=
201203042000 METAR MROC 042000Z 10011G21KT 9999 FEW040 30/14 A2993 NOSIG=
201203042100 METAR MROC 042100Z 08010G20KT 9999 FEW040 SCT250 30/13 A2990 NOSIG=
201203042200 METAR MROC 042200Z 11012KT 9999 FEW035 SCT130 28/15 A2989 NOSIG=
201203042300 METAR MROC 042300Z 10013KT 9999 FEW035 SCT130 26/16 A2991 NOSIG=
201203050000 METAR MROC 050000Z 08010KT 9999 FEW035 SCT130 24/17 A2992 NOSIG=
201203050100 METAR MROC 050100Z 10013KT 9999 FEW035 SCT130 23/17 A2994 NOSIG=
201203050200 METAR MROC 050200Z 10012KT 9999 FEW035 SCT130 23/17 A2995 NOSIG=
201203050300 METAR MROC 050300Z 09011KT 9999 FEW035 23/17 A2998 NOSIG=
201203050400 METAR MROC 050400Z 10014KT 9999 FEW035 22/17 A2998 NOSIG=
201203050500 METAR MROC 050500Z 10012KT 9999 FEW035 23/17 A3000 NOSIG=
201203050600 METAR MROC 050600Z 10009KT 9999 FEW035 23/17 A2998 NOSIG=
201203050700 METAR MROC 050700Z 06007KT 9999 FEW030 SCT120 22/18 A2998 NOSIG=
201203050800 METAR MROC 050800Z 09010KT 9999 FEW030 SCT120 22/17 A2994 NOSIG=
201203050900 METAR MROC 050900Z 08014G24KT 9999 FEW030 SCT120 23/17 A2993 NOSIG=
201203051000 METAR MROC 051000Z 10012KT 9999 FEW030 SCT120 22/17 A2993 NOSIG=
201203051100 METAR MROC 051100Z 10009KT 9999 FEW030 SCT120 23/17 A2995 NOSIG=
201203051200 METAR MROC 051200Z 09010KT 9999 FEW030 BKN100 22/17 A2995 NOSIG=
201203051300 METAR MROC 051300Z 09010KT 9999 FEW035 SCT100 24/17 A2998 NOSIG=
201203051400 METAR MROC 051400Z 10010KT 9999 -RA FEW035 BKN100 23/17 A3001 NOSIG=
201203051500 METAR MROC 051500Z 07005KT 9999 FEW035 BKN100 22/18 A3007 RERA NOSIG=
201203051600 METAR MROC 051600Z 07011KT 9999 FEW040 SCT100 26/17 A3004 NOSIG=
201203051700 METAR MROC 051700Z 07011G21KT 9999 FEW040 BKN120 25/16 A3003 NOSIG=
201203051800 METAR MROC 051800Z 07010G20KT 9999 FEW045 BKN120 27/15 A3002 NOSIG=
201203051900 METAR MROC 051900Z 07015KT 9999 FEW040 BKN120 24/15 A3000 NOSIG=
201203052000 METAR MROC 052000Z 07011G20KT 9999 FEW040 SCT120 25/14 A2997 NOSIG=
201203052100 METAR MROC 052100Z 08013G23KT 9999 FEW030 SCT120 24/15 A2994 NOSIG=
201203052200 METAR MROC 052200Z 07016G26KT 9999 FEW030 SCT100 BKN250 25/13 A2993 NOSIG=
201203052300 METAR MROC 052300Z 08012G22KT 9999 FEW030 SCT100 BKN250 24/14 A2995 NOSIG=
201203052352 METAR MROC 060000Z 08018KT 9999 FEW030 SCT250 23/13 A2997 NOSIG=
201203060000 METAR MROC 060000Z 08018KT 9999 FEW030 SCT250 23/13 A2997 NOSIG=
201203060100 METAR MROC 060100Z 08015G25KT 9999 FEW030 SCT100 23/12 A2997 NOSIG=
201203060200 METAR MROC 060200Z 08018KT 9999 FEW030 22/13 A3000 NOSIG=
201203060300 METAR MROC 060300Z 09015KT 9999 FEW030 21/14 A3001 NOSIG=
201203060400 METAR MROC 060400Z 09015KT 9999 FEW030 21/14 A3003 NOSIG=
201203060500 METAR MROC 060500Z 10013KT 9999 FEW030 21/15 A3001 NOSIG=
201203060600 METAR MROC 060600Z 10010G20KT 9999 FEW030 21/15 A3000 NOSIG=
201203060700 METAR MROC 060700Z 08015KT 9999 FEW030 21/14 A2997 NOSIG=
201203060800 METAR MROC 060800Z 08015KT 9999 FEW030 21/14 A2994 NOSIG=
201203060900 METAR MROC 060900Z 10016KT 9999 FEW030 21/15 A2994 NOSIG=
201203061000 METAR MROC 061000Z 09016KT 9999 FEW030 21/15 A2995 NOSIG=
201203061100 METAR MROC 061100Z 09012KT 9999 FEW030 20/14 A2996 NOSIG=
201203061200 METAR MROC 061200Z 10014KT 9999 FEW030 SCT250 20/14 A2996 NOSIG=
201203061300 METAR MROC 061300Z 10015KT 9999 FEW030 SCT250 21/14 A2998 NOSIG=
201203061400 METAR MROC 061400Z 09017KT 9999 FEW030 SCT250 22/15 A3000 NOSIG=
201203061500 METAR MROC 061500Z 09016G26KT 9999 FEW030 SCT250 24/15 A3000 NOSIG=
201203061600 METAR MROC 061600Z 08030G40KT 9999 FEW030 SCT250 24/12 A3002 NOSIG=
201203061700 METAR MROC 061700Z 07021G36KT 9999 FEW030 SCT100 24/12 A2999 NOSIG=
201203061800 METAR MROC 061800Z 07024KT 9999 SCT030 26/12 A2998 NOSIG=
201203061900 METAR MROC 061900Z 07020G30KT 9999 FEW030 26/13 A2996 NOSIG=
201203062000 METAR MROC 062000Z 07020G32KT 9999 FEW030 SCT100 25/13 A2994 NOSIG=
201203062100 METAR MROC 062100Z 07018G29KT 9999 FEW045 25/13 A2990 NOSIG=
201203062200 METAR MROC 062200Z 07019G29KT 9999 FEW030 25/12 A2991 NOSIG=
201203062300 METAR MROC 062300Z 07016KT 9999 FEW030 23/14 A2991 NOSIG=
201203070000 METAR MROC 070000Z 08019KT 9999 FEW030 22/12 A2991 NOSIG=
201203070100 METAR MROC 070100Z 07016KT 9999 FEW030 21/13 A2994 NOSIG=
201203070200 METAR MROC 070200Z 07018KT 9999 FEW030 22/11 A2995 RMK VEL MAX VTO 26KT NOSIG=
201203070300 METAR MROC 070300Z 07013KT 9999 FEW030 21/11 A2998 NOSIG=
201203070400 METAR MROC 070400Z 07016G26KT CAVOK 22/11 A2998 NOSIG=
201203070500 METAR MROC 070500Z 08012KT CAVOK 21/11 A2999 NOSIG=
201203070600 METAR MROC 070600Z 06018G28KT CAVOK 21/11 A2996 NOSIG=
201203070700 METAR MROC 070700Z 09011KT CAVOK 21/11 A2993 NOSIG=
201203070800 METAR MROC 070800Z 09013KT CAVOK 21/12 A2991 NOSIG=
201203070900 COR MROC 070900Z 09011KT CAVOK 20/12 A2990 NOSIG=
201203071000 METAR MROC 071000Z 08010G20KT 9999 FEW035 20/12 A2991 NOSIG=
201203071100 METAR MROC 071100Z 10013KT 9999 FEW035 20/12 A2992 NOSIG=
201203071200 METAR MROC 071200Z 10012KT 9999 FEW045 20/11 A2992 NOSIG=
201203071300 METAR MROC 071300Z 10011G21KT 9999 FEW035 22/12 A2994 NOSIG=
201203071400 METAR MROC 071400Z 08013G23KT 9999 FEW035 24/12 A2996 NOSIG=
201203071500 METAR MROC 071500Z 09015G25KT 9999 FEW035 25/10 A2997 NOSIG=
201203071600 METAR MROC 071600Z 08015G25KT 9999 FEW035 26/12 A2997 NOSIG=
201203071700 METAR MROC 071700Z 09012G22KT 9999 FEW035 27/10 A2995 NOSIG=
201203071800 METAR MROC 071800Z 07019G29KT 9999 FEW040 27/11 A2994 NOSIG=
201203071900 METAR MROC 071900Z 08017G27KT 9999 FEW035 27/14 A2991 NOSIG=
201203072000 METAR MROC 072000Z 07015G25KT 9999 FEW035 27/12 A2989 NOSIG=
201203072100 METAR MROC 072100Z 07020KT 9999 FEW035 26/13 A2986 NOSIG=
201203072200 METAR MROC 072200Z 07016G26KT 9999 FEW035 26/13 A2986 NOSIG=
201203072300 METAR MROC 072300Z 08014G24KT 9999 FEW035 23/14 A2987 NOSIG=
201203080000 METAR MROC 080000Z 08010G20KT 9999 FEW035 22/14 A2988 NOSIG=
201203080100 METAR MROC 080100Z 10012KT 9999 FEW035 21/15 A2990 NOSIG=
201203080200 METAR MROC 080200Z 08014KT 9999 FEW030 21/14 A2992 NOSIG=
201203080300 METAR MROC 080300Z 07024KT CAVOK 21/15 A2993 NOSIG=
201203080400 METAR MROC 080400Z 07020KT 9999 FEW030 SCT100 21/15 A2997 NOSIG=
201203080500 METAR MROC 080500Z 06020G35KT 9999 FEW030 21/13 A2994 NOSIG=
201203080600 METAR MROC 080600Z 07014G24KT 9999 FEW030 21/14 A2994 NOSIG=
201203080700 METAR MROC 080700Z 09019KT 9999 FEW030 21/14 A2992 NOSIG=
201203080800 METAR MROC 080800Z 09011G21KT 9999 FEW030 20/14 A2989 NOSIG=
201203080900 METAR MROC 080900Z 09010G20KT 9999 FEW030 20/13 A2987 NOSIG=
201203081000 METAR MROC 081000Z 10020KT 9999 FEW030 20/13 A2987 NOSIG=
201203081100 METAR MROC 081100Z 09013G23KT 9999 FEW030 20/13 A2988 NOSIG=
201203081200 METAR MROC 081200Z 09019KT 9999 FEW035 20/13 A2992 NOSIG=
201203081300 METAR MROC 081300Z 09019KT 9999 FEW035 21/14 A2993 NOSIG=
201203081400 METAR MROC 081400Z 09018KT 9999 FEW035 22/13 A2995 NOSIG=
201203081500 METAR MROC 081500Z 09015KT 9999 FEW035 24/11 A2997 NOSIG=
201203081600 METAR MROC 081600Z 09017G27KT 9999 FEW035 25/12 A2998 NOSIG=
201203081700 METAR MROC 081700Z 08018KT 9999 FEW035 25/13 A2995 NOSIG=
201203081800 METAR MROC 081800Z 08013KT 9999 FEW035 27/13 A2994 NOSIG=
201203081900 METAR MROC 081900Z 07013KT 9999 FEW035 27/11 A2992 NOSIG=
201203082000 METAR MROC 082000Z 07017KT 9999 FEW035 27/12 A2989 NOSIG=
201203082100 METAR MROC 082100Z 07013KT 9999 FEW035 27/13 A2988 NOSIG=
201203082200 METAR MROC 082200Z 07013G23KT 9999 FEW035 26/13 A2987 NOSIG=
201203082300 METAR MROC 082300Z 07018KT 9999 FEW035 24/13 A2988 NOSIG=
201203090000 METAR MROC 090000Z 07017KT 9999 FEW035 22/14 A2990 NOSIG=
201203090100 METAR MROC 090100Z 08015KT 9999 FEW035 21/09 A2993 NOSIG=
201203090200 METAR MROC 090200Z 07015KT 9999 FEW035 21/07 A2996 NOSIG=
201203090300 METAR MROC 090300Z 10012KT 9999 FEW035 20/11 A2997 NOSIG=
201203090400 METAR MROC 090400Z 10012G23KT CAVOK 20/14 A3000 NOSIG=
201203090500 METAR MROC 090500Z 09012KT 9999 FEW030 20/12 A2997 NOSIG=
201203090600 METAR MROC 090600Z 10011KT 9999 FEW030 20/10 A2995 NOSIG=
201203090700 METAR MROC 090700Z 09011KT CAVOK 20/10 A2992 NOSIG=
201203090800 METAR MROC 090800Z 10011KT 9999 FEW030 19/11 A2991 NOSIG=
201203090900 METAR MROC 090900Z 09012KT 9999 FEW030 19/12 A2991 NOSIG=
201203091000 METAR MROC 091000Z 10014KT 9999 FEW035 19/13 A2991 NOSIG=
201203091100 METAR MROC 091100Z 10013KT 9999 FEW035 19/13 A2992 NOSIG=
201203091200 METAR MROC 091200Z 10013G23KT 9999 FEW045 19/13 A2993 NOSIG=
201203091300 METAR MROC 091300Z 11013KT 9999 FEW040 22/13 A2996 NOSIG=
201203091400 METAR MROC 091400Z 11016G26KT 9999 FEW040 23/13 A2998 NOSIG=
201203091500 METAR MROC 091500Z 10013G23KT 9999 FEW040 25/11 A2998 NOSIG=
201203091600 METAR MROC 091600Z 09012G22KT 9999 FEW040 27/11 A2998 NOSIG=
201203091700 METAR MROC 091700Z 08015KT 9999 FEW040 27/12 A2997 NOSIG=
201203091800 METAR MROC 091800Z 08015KT 9999 FEW040 29/12 A2995 NOSIG=
201203091900 METAR MROC 091900Z 07015KT 9999 FEW040 29/13 A2994 NOSIG=
201203092000 METAR MROC 092000Z 12016KT 9999 FEW040 28/14 A2991 NOSIG=
201203092100 METAR MROC 092100Z 11012KT 9999 FEW030 26/14 A2990 NOSIG=
201203092200 METAR MROC 092200Z 10013KT 9999 FEW030 25/12 A2992 NOSIG=
201203092203 METAR MROC 192200Z 10013KT 9999 FEW030 25/12 A2992 NOSIG=
201203092300 METAR MROC 092300Z 10013KT 9999 FEW030 24/12 A2994 NOSIG=
201203100000 METAR MROC 100000Z 09012KT 9999 FEW030 22/13 A2995 NOSIG=
201203100100 METAR MROC 100100Z 10014KT 9999 FEW030 21/13 A2997 NOSIG=
201203100200 METAR MROC 100200Z 10015KT CAVOK 20/14 A2998 NOSIG=
201203100300 METAR MROC 100300Z 09011G21KT CAVOK 21/14 A3000 NOSIG=
201203100400 METAR MROC NIL=
201203100500 METAR MROC 100500Z 10013G23KT CAVOK 20/14 A2999 NOSIG=
201203100600 METAR MROC 100600Z 09014G24KT CAVOK 20/14 A2998 NOSIG=
201203100700 METAR MROC 100700Z 10012G22KT CAVOK 20/14 A2996 NOSIG=
201203100800 METAR MROC 100800Z 10011KT CAVOK 20/14 A2995 NOSIG=
201203100900 METAR MROC 100900Z 09013KT CAVOK 20/14 A2994 NOSIG=
201203101000 METAR MROC 101000Z 09011KT CAVOK 20/13 A2995 NOSIG=
201203101100 METAR MROC 101100Z 09010G20KT CAVOK 20/13 A2995 NOSIG=
201203101200 METAR MROC 101200Z 10010G20KT CAVOK 20/13 A2997 NOSIG=
201203101300 METAR MROC 101300Z 10014G25KT 9999 FEW035 21/13 A3001 NOSIG=
201203101400 METAR MROC 101400Z 09011G25KT CAVOK 23/13 A3001 NOSIG=
201203101500 METAR MROC 101500Z 09015G25KT CAVOK 24/13 A3002 NOSIG=
201203101600 METAR MROC 101600Z 10015G25KT CAVOK 25/13 A3003 NOSIG=
201203101700 METAR MROC 101700Z 08017G27KT 9999 FEW045 26/14 A3000 NOSIG=
201203101800 METAR MROC 101800Z 08014G24KT 9999 FEW045 27/14 A2998 NOSIG=
201203101900 METAR MROC 101900Z 07018G28KT 9999 FEW040 27/14 A2996 NOSIG=
201203102000 METAR MROC 102000Z 07018KT 9999 FEW040 26/14 A2993 NOSIG=
201203102100 METAR MROC 102100Z 08011G21KT 9999 FEW040 27/14 A2991 NOSIG=
201203102200 METAR MROC 102200Z 08014G24KT 9999 FEW040 SCT250 26/14 A2990 NOSIG=
201203102300 METAR MROC 102300Z 09015KT 9999 FEW040 23/14 A2990 NOSIG=
201203110000 METAR MROC 110000Z 10016G26KT 9999 FEW040 22/15 A2992 NOSIG=
201203110100 METAR MROC 110100Z 09015KT 9999 FEW040 21/15 A2994 NOSIG=
201203110200 METAR MROC 110200Z 10015KT 9999 FEW040 21/16 A2995 NOSIG=
201203110300 METAR MROC 110300Z 10014G24KT 9999 FEW040 22/15 A2998 NOSIG=
201203110400 METAR MROC 110400Z 09013G23KT 9999 FEW040 21/15 A2999 NOSIG=
201203110500 METAR MROC 110500Z 09016KT 9999 FEW040 21/15 A3000 NOSIG=
201203110600 METAR MROC 110600Z 10016KT 9999 FEW035 21/15 A2998 NOSIG=
201203110700 METAR MROC NIL=
201203110800 METAR MROC 110800Z 08016KT 9999 FEW035 21/14 A2994 NOSIG=
201203110900 METAR MROC 110900Z 10015KT 9999 FEW035 21/14 A2996 NOSIG=
201203111000 METAR MROC 111000Z 11013KT 9999 FEW035 20/14 A2997 NOSIG=
201203111100 METAR MROC 111100Z 12012KT 9999 FEW035 20/14 A2997 NOSIG=
201203111200 METAR MROC 111200Z 09015KT 9999 FEW030 20/13 A2998 NOSIG=
201203111300 METAR MROC 111300Z 09018KT 9999 FEW030 21/12 A3001 NOSIG=
201203111400 METAR MROC 111400Z 08010G20KT 9999 FEW030 24/12 A3001 NOSIG=
201203111500 METAR MROC 111500Z 09011G21KT 9999 FEW030 25/11 A3001 NOSIG=
201203111600 METAR MROC 111600Z 08019KT 9999 FEW030 26/12 A3003 NOSIG=
201203111700 METAR MROC 111700Z 08017KT 9999 FEW035 27/13 A3002 NOSIG=
201203111800 METAR MROC 111800Z 08019KT 9999 FEW035 28/13 A2998 NOSIG=
201203111900 METAR MROC 111900Z 08021KT 9999 FEW030 28/13 A2998 NOSIG=
201203112000 METAR MROC 112000Z 08013G23KT 9999 FEW030 SCT100 27/14 A2994 NOSIG=
201203112100 METAR MROC 112100Z 08016KT 9999 SCT040 26/15 A2993 NOSIG=
201203112200 METAR MROC 112200Z 07013KT 9999 FEW035 25/15 A2994 NOSIG=
201203112300 METAR MROC 112300Z 09010KT 9999 FEW035 24/15 A2994 NOSIG=
201203120000 METAR MROC 120000Z 08014G24KT 9999 FEW040 23/14 A2996 NOSIG=
201203120100 METAR MROC 120100Z 08011G21KT 9999 FEW040 22/14 A2996 NOSIG=
201203120200 METAR MROC 120200Z 08010G20KT CAVOK 22/14 A2998 NOSIG=
201203120300 METAR MROC 120300Z 08010G20KT CAVOK 21/14 A2999 NOSIG=
201203120400 METAR MROC 120400Z 07010G20KT CAVOK 21/14 A3000 NOSIG=
201203120500 METAR MROC 120500Z 08011G21KT CAVOK 21/14 A2998 NOSIG=
201203120600 METAR MROC 120600Z 08010G20KT CAVOK 21/14 A2998 NOSIG=
201203120700 METAR MROC 120700Z 10010G20KT CAVOK 21/14 A2996 NOSIG=
201203120800 METAR MROC 120800Z 10010G20KT CAVOK 20/14 A2995 NOSIG=
201203120900 METAR MROC 120900Z 09010G20KT CAVOK 20/13 A2993 NOSIG=
201203121000 METAR MROC 121000Z 08010G20KT CAVOK 20/13 A2994 NOSIG=
201203121100 METAR MROC 121100Z 09010G20KT CAVOK 20/14 A2994 NOSIG=
201203121200 METAR MROC 121200Z 09011G21KT CAVOK 21/14 A2995 NOSIG=
201203121300 METAR MROC 121300Z 09017KT 9999 FEW030 22/13 A2997 NOSIG=
201203121400 METAR MROC 121400Z 09019KT 9999 FEW030 23/14 A2999 NOSIG=
201203121500 METAR MROC 121500Z 10011G21KT 9999 FEW030 25/14 A3000 NOSIG=
201203121600 METAR MROC 121600Z 08014G24KT 9999 FEW035 26/11 A3001 NOSIG=
201203121700 METAR MROC 121700Z 07022KT 9999 FEW030 27/12 A3000 NOSIG=
201203121800 METAR MROC 121800Z 07023KT 9999 FEW030 27/11 A2998 NOSIG=
201203121900 METAR MROC 121900Z 08014G24KT 9999 FEW030 28/17 A2995 NOSIG=
201203122000 METAR MROC 122000Z 08022KT 9999 FEW035 28/11 A2992 NOSIG=
201203122100 METAR MROC 122100Z 07014G24KT 9999 FEW035 27/12 A2991 NOSIG=
201203122200 METAR MROC 122200Z 07017KT 9999 FEW035 26/13 A2990 NOSIG=
201203122300 METAR MROC 122300Z 07014KT 9999 FEW035 25/11 A2991 NOSIG=
201203130000 METAR MROC 130000Z 08015KT 9999 FEW035 23/12 A2991 NOSIG=
201203130100 METAR MROC 130100Z 08015KT 9999 FEW035 22/12 A2994 NOSIG=
201203130200 METAR MROC 130200Z 09013KT 9999 FEW035 21/12 A2995 NOSIG=
201203130300 METAR MROC 130300Z 10010G20KT 9999 FEW035 21/13 A2997 NOSIG=
201203130400 METAR MROC 130400Z 10010G20KT 9999 FEW035 21/11 A2997 NOSIG=
201203130500 METAR MROC 130500Z 10010G20KT 9999 FEW035 21/13 A2998 NOSIG=
201203130600 METAR MROC 130600Z 10010G25KT 9999 FEW035 21/13 A2996 NOSIG=
201203130700 METAR MROC 130700Z 09010G20KT 9999 FEW035 21/13 A2994 NOSIG=
201203130800 METAR MROC 130800Z 10010G20KT 9999 FEW035 20/14 A2994 NOSIG=
201203130900 METAR MROC 130900Z 10015KT 9999 FEW035 20/14 A2994 NOSIG=
201203131000 METAR MROC 131000Z 09018KT 9999 FEW035 21/14 A2993 NOSIG=
201203131100 METAR MROC 131100Z 10020KT 9999 FEW035 20/15 A2994 NOSIG=
201203131200 METAR MROC 131200Z 11010G20KT 9999 FEW035 20/15 A2995 NOSIG=
201203131300 METAR MROC 131300Z 11012KT 9999 FEW035 22/15 A2997 NOSIG=
201203131400 METAR MROC 131400Z 10012G22KT 9999 FEW035 23/15 A2999 NOSIG=
201203131500 METAR MROC 131500Z 08015KT 9999 FEW035 25/14 A2999 NOSIG=
201203131600 METAR MROC 131600Z 09015KT 9999 FEW035 26/14 A3001 NOSIG=
201203131700 METAR MROC 131700Z 09013G23KT CAVOK 27/14 A3000 NOSIG=
201203131800 METAR MROC 131800Z 09012KT 9999 FEW035 28/15 A2999 NOSIG=
201203131900 METAR MROC 131900Z 10010G21KT 9999 FEW035 28/15 A2996 NOSIG=
201203132000 METAR MROC 132000Z 11013KT 9999 FEW030 28/14 A2994 NOSIG=
201203132100 METAR MROC 132100Z 10015KT 9999 FEW030 27/15 A2993 NOSIG=
201203132200 METAR MROC 132200Z 11015KT 9999 FEW030 25/14 A2992 NOSIG=
201203132300 METAR MROC 132300Z 10012G22KT 9999 FEW030 24/14 A2992 NOSIG=
201203140000 METAR MROC 140000Z 10012G22KT 9999 FEW030 21/14 A2993 NOSIG=
201203140100 METAR MROC 140100Z 10015KT 9999 FEW030 21/15 A2995 NOSIG=
201203140200 METAR MROC 140200Z 10015KT 9999 FEW030 21/15 A2997 NOSIG=
201203140300 METAR MROC 140300Z 10011G21KT 9999 FEW045 21/15 A2999 NOSIG=
201203140400 METAR MROC 140400Z 10012KT 9999 FEW045 21/14 A3000 NOSIG=
201203140500 METAR MROC 140500Z 12013KT 9999 FEW045 21/15 A2999 NOSIG=
201203140600 METAR MROC 140600Z 09012KT 9999 FEW045 21/15 A2998 NOSIG=
201203140700 METAR MROC 140700Z 10012KT 9999 FEW045 21/15 A2995 NOSIG=
201203140800 METAR MROC 140800Z 10013G23KT 9999 FEW040 20/15 A2992 NOSIG=
201203140900 METAR MROC 140900Z 08013G23KT 9999 FEW040 21/15 A2991 NOSIG=
201203141000 METAR MROC 141000Z 10012G22KT 9999 FEW040 20/16 A2992 NOSIG=
201203141100 METAR MROC 141100Z 10013G23KT 9999 FEW040 20/15 A2993 NOSIG=
201203141200 METAR MROC 141200Z 10013KT 9999 FEW035 SCT250 20/15 A2995 NOSIG=
201203141300 METAR MROC 141300Z 11016KT 9999 FEW035 SCT250 21/16 A2997 NOSIG=
201203141400 METAR MROC 141400Z 11015KT 9999 FEW035 SCT250 23/17 A2999 NOSIG=
201203141500 METAR MROC 141500Z 11020G30KT 9999 FEW030 SCT250 25/15 A2999 NOSIG=
201203141600 METAR MROC 141600Z 10013G23KT 9999 FEW030 26/15 A3000 NOSIG=
201203141700 METAR MROC 141700Z 08015G25KT 9999 FEW030 27/15 A2999 NOSIG=
201203141800 METAR MROC 141800Z 09015G25KT 9999 FEW030 27/15 A2998 NOSIG=
201203141900 METAR MROC 141900Z 09013G23KT 9999 FEW030 27/14 A2996 NOSIG=
201203142000 METAR MROC 142000Z 09011G21KT 9999 FEW030 27/14 A2994 NOSIG=
201203142100 METAR MROC 142100Z 10012G22KT 9999 FEW040 27/14 A2992 NOSIG=
201203142200 METAR MROC 142200Z 11015KT 9999 FEW040 25/14 A2992 NOSIG=
201203142300 METAR MROC 142300Z 11012G22KT 9999 FEW040 23/15 A2993 NOSIG=
201203150000 METAR MROC 150000Z 10012G22KT 9999 FEW035 21/15 A2993 NOSIG=
201203150100 METAR MROC 150100Z 10012G22KT 9999 FEW035 21/14 A2995 NOSIG=
201203150200 METAR MROC 150200Z 10014G25KT 9999 FEW035 21/15 A2997 NOSIG=
201203150300 METAR MROC 150300Z 10013KT 9999 FEW035 21/15 A2999 NOSIG=
201203150400 METAR MROC 150400Z 10010G20KT 9999 FEW035 21/14 A3000 NOSIG=
201203150500 METAR MROC 150500Z 10016KT 9999 FEW035 21/15 A2998 NOSIG=
201203150600 METAR MROC 150600Z 10014KT 9999 FEW035 20/14 A2997 NOSIG=
201203150700 METAR MROC 150700Z 10015G25KT 9999 FEW035 20/14 A2995 NOSIG=
201203150800 METAR COR MROC 150800Z 10013G23KT 9999 FEW035 20/14 A2995 NOSIG=
201203150900 METAR MROC 150900Z 10012KT 9999 FEW035 20/14 A2996 NOSIG=
201203151000 METAR MROC 151000Z 09012KT 9999 FEW035 20/14 A2995 NOSIG=
201203151100 METAR MROC 151100Z 10012KT 9999 FEW035 20/14 A2996 NOSIG=
201203151200 METAR MROC 151200Z 10010G20KT 9999 FEW035 20/14 A2998 NOSIG=
201203151300 METAR MROC 151300Z 10010G20KT CAVOK 22/14 A3001 NOSIG=
201203151400 METAR MROC 151400Z 10011G21KT CAVOK 23/14 A3001 NOSIG=
201203151500 METAR MROC 151500Z 10015G25KT 9999 FEW040 25/15 A3002 NOSIG=
201203151600 METAR MROC 151600Z 09015G25KT 9999 FEW035 26/13 A3001 NOSIG=
201203151700 METAR MROC 151700Z 08016G26KT 9999 FEW035 26/15 A2999 NOSIG=
201203151800 METAR MROC 151800Z 07016G27KT 9999 FEW040 27/14 A2998 NOSIG=
201203151900 METAR MROC 151900Z 07012G22KT 9999 FEW040 27/15 A2997 NOSIG=
201203152000 METAR MROC 152000Z 07010G21KT 9999 FEW040 SCT250 27/15 A2995 NOSIG=
201203152100 METAR MROC 152100Z 07013G23KT 9999 FEW030 27/15 A2993 NOSIG=
201203152200 METAR MROC 152200Z 08020KT 9999 FEW030 BKN250 26/15 A2993 NOSIG=
201203152300 METAR MROC 152300Z 07015KT 9999 FEW030 BKN250 25/14 A2994 NOSIG=
201203152353 METAR MROC 160000Z 09016KT 9999 FEW030 BKN250 23/15 A2996 NOSIG=
201203160000 METAR MROC 160000Z 09016KT 9999 FEW030 BKN250 23/15 A2996 NOSIG=
201203160100 METAR MROC 160100Z 11017KT 9999 FEW030 22/16 A2997 NOSIG=
201203160200 METAR MROC 160200Z 09016KT CAVOK 22/15 A2998 NOSIG=
201203160300 METAR MROC 160300Z 11012KT CAVOK 21/15 A3001 NOSIG=
201203160400 METAR MROC 160400Z 09013KT CAVOK 21/15 A3003 NOSIG=
201203160500 METAR MROC 160500Z 09012KT CAVOK 21/15 A3002 NOSIG=
201203160600 METAR MROC 160600Z 11013KT CAVOK 20/15 A3001 NOSIG=
201203160700 METAR MROC 160700Z 11013KT CAVOK 20/15 A2998 NOSIG=
201203160800 METAR MROC 160800Z 11015KT CAVOK 21/15 A2994 NOSIG=
201203160900 METAR MROC 160900Z 11015KT CAVOK 21/15 A2994 NOSIG=
201203161000 METAR MROC 161000Z 11015KT CAVOK 21/15 A2995 NOSIG=
201203161100 METAR MROC 161100Z 11012KT 9999 FEW030 21/15 A2996 NOSIG=
201203161200 METAR MROC 161200Z 10015KT 9999 FEW030 21/15 A2998 NOSIG=
201203161300 METAR MROC 161300Z 10012G22KT 9999 FEW030 22/14 A3001 NOSIG=
201203161400 METAR MROC 161400Z 10017KT 9999 FEW030 23/14 A3002 NOSIG=
201203161500 METAR MROC 161500Z 08022KT 9999 FEW030 25/13 A3004 NOSIG=
201203161600 METAR MROC 161600Z 08021KT 9999 FEW030 26/14 A3004 NOSIG=
201203161700 METAR MROC 161700Z 10022KT 9999 FEW030 26/14 A3004 NOSIG=
201203161800 METAR MROC 161800Z 08013G23KT 9999 FEW030 27/13 A3003 NOSIG=
201203161900 METAR MROC 161900Z 08011G21KT 9999 FEW030 27/14 A3000 NOSIG=
201203162000 METAR MROC 162000Z 08022KT 9999 FEW030 27/12 A2997 NOSIG=
201203162100 METAR MROC 162100Z 10012G22KT 9999 FEW040 SCT250 26/13 A2996 NOSIG=
201203162200 METAR MROC 162200Z 09014KT 9999 FEW040 SCT250 26/12 A2996 NOSIG=
201203162300 METAR MROC 162300Z 11012KT 9999 FEW040 SCT250 24/13 A2997 NOSIG=
201203170000 METAR MROC 170000Z 09011G21KT 9999 FEW040 BKN250 22/14 A2999 NOSIG=
201203170100 METAR MROC 170100Z 11012KT 9999 FEW040 21/14 A3000 NOSIG=
201203170200 METAR MROC 170200Z 11011KT 9999 FEW040 21/15 A3002 NOSIG=
201203170300 METAR MROC 170300Z 09010KT CAVOK 21/15 A3003 NOSIG=
201203170400 METAR MROC 170400Z 10010G20KT CAVOK 21/14 A3003 NOSIG=
201203170500 METAR MROC 170500Z 10014G24KT CAVOK 21/15 A3003 NOSIG=
201203170600 METAR MROC 170600Z 11010G20KT CAVOK 21/15 A3002 NOSIG=
201203170700 METAR MROC 170700Z 11010G20KT CAVOK 21/15 A3000 NOSIG=
201203170800 METAR MROC 170800Z 11012KT CAVOK 20/14 A3000 NOSIG=
201203170900 METAR MROC 170900Z 07007KT CAVOK 20/15 A2999 NOSIG=
201203171000 METAR MROC 171000Z 11011KT CAVOK 20/15 A2999 NOSIG=
201203171100 METAR MROC 171100Z 11012G22KT CAVOK 20/15 A2999 NOSIG=
201203171200 METAR MROC 171200Z 11010G20KT CAVOK 20/15 A3001 NOSIG=
201203171300 MROC 171300Z 10014KT CAVOK 22/15 A3002 NOSIG=
201203171400 METAR MROC 171400Z 11015G25KT 9999 FEW040 BKN250 23/16 A3003 NOSIG=
201203171500 METAR MROC 171500Z 10014G24KT 9999 FEW040 BKN250 24/16 A3005 NOSIG=
201203171600 METAR MROC 171600Z 10016KT 9999 FEW030 BKN200 26/15 A3006 NOSIG=
201203171700 METAR MROC 171700Z 10014KT 9999 FEW035 BKN200 26/16 A3006 NOSIG=
201203171800 METAR MROC 171800Z 10013KT 9999 FEW030 BKN200 27/14 A3004 NOSIG=
201203171900 METAR MROC 171900Z 09011G21KT 9999 FEW030 BKN200 26/13 A3003 NOSIG=
201203172000 METAR MROC 172000Z 11014KT 9999 FEW035 BKN200 24/13 A3000 NOSIG=
201203172100 METAR MROC 172100Z 11013KT 9999 FEW035 BKN280 24/13 A2999 NOSIG=
201203172200 METAR MROC 172200Z 10012KT 9999 FEW035 BKN280 24/11 A2998 NOSIG=
201203172300 METAR MROC 172300Z 10011KT 9999 FEW035 BKN280 24/12 A2999 NOSIG=
201203180000 METAR MROC 180000Z 10011KT 9999 FEW035 BKN280 22/14 A3001 NOSIG=
201203180100 METAR MROC 180100Z 11012KT 9999 FEW035 BKN280 21/15 A3003 NOSIG=
201203180200 METAR MROC 180200Z 10011KT 9999 FEW035 BKN250 21/15 A3005 NOSIG=
201203180300 METAR MROC 180300Z 10012KT 9999 FEW030 21/14 A3007 NOSIG=
201203180400 METAR MROC 180400Z 10018KT 9999 FEW030 21/14 A3006 NOSIG=
201203180500 METAR MROC 180500Z 10016KT 9999 FEW030 20/15 A3005 NOSIG=
201203180600 METAR MROC 180600Z 10016KT 9999 FEW035 20/14 A3004 NOSIG=
201203180700 METAR MROC 180700Z 11015KT FEW035 20/14 A3002 NOSIG=
201203180800 METAR MROC 180800Z 10016KT 9999 FEW035 20/14 A3000 NOSIG=
201203180900 METAR MROC 180900Z 10016KT 9999 FEW035 20/14 A2998 NOSIG=
201203181000 METAR MROC 181000Z 10016KT 9999 FEW035 20/14 A3000 NOSIG=
201203181100 METAR MROC 181100Z 09015KT 9999 FEW035 21/14 A3001 NOSIG=
201203181200 METAR MROC 181200Z 10013KT 9999 FEW035 SCT120 BKN250 20/14 A3002 NOSIG=
201203181300 METAR MROC 181300Z 06008KT 9999 FEW035 SCT120 BKN250 21/14 A3006 NOSIG=
201203181400 METAR MROC 181400Z 07008KT 9999 FEW035 BKN250 22/16 A3008 NOSIG=
201203181500 METAR MROC 181500Z 10011KT 9999 FEW035 BKN250 24/16 A3007 NOSIG=
201203181600 METAR MROC 181600Z 11013KT 9999 FEW035 BKN250 26/15 A3007 NOSIG=
201203181700 METAR MROC 181700Z 11012KT 9999 SCT035 SCT250 27/15 A3005 NOSIG=
201203181800 METAR MROC 181800Z 10013G25KT 9999 SCT030 SCT250 27/15 A3002 NOSIG=
201203181900 METAR MROC 181900Z 11017KT 9999 SCT030 SCT250 27/15 A3000 NOSIG=
201203182000 METAR MROC 182000Z 11015KT 9999 SCT030 SCT250 26/14 A2999 NOSIG=
201203182100 METAR MROC 182100Z 11013G23KT SCT030 SCT070 26/14 A2997 NOSIG=
201203182200 METAR MROC 182200Z 10016KT 9999 FEW030 SCT070 23/14 A2998 NOSIG=
201203182300 METAR MROC 182300Z 10013KT 9999 FEW030 SCT070 23/13 A3000 NOSIG=
201203190000 METAR MROC 190000Z 12012KT 9999 FEW030 21/12 A3000 NOSIG=
201203190100 METAR MROC 190100Z 12012KT 9999 FEW030 21/12 A3002 NOSIG=
201203190200 METAR MROC 190200Z 11012KT 9999 FEW030 21/13 A3004 NOSIG=
201203190300 METAR MROC 190300Z 11010KT CAVOK 20/12 A3003 NOSIG=
201203190400 METAR MROC 190400Z 11011KT CAVOK 20/13 A3004 NOSIG=
201203190500 METAR MROC 190500Z 10008KT CAVOK 20/13 A3004 NOSIG=
201203190600 METAR MROC 190600Z 10008KT CAVOK 20/13 A3001 NOSIG=
201203190700 METAR MROC 190700Z 11008KT CAVOK 20/13 A3000 NOSIG=
201203190800 METAR MROC 190800Z 10009KT CAVOK 19/13 A2999 NOSIG=
201203190900 METAR MROC 190900Z 10009KT CAVOK 19/13 A2998 NOSIG=
201203191000 METAR MROC 191000Z 10007KT CAVOK 19/13 A2998 NOSIG=
201203191100 METAR MROC 191100Z 07008KT CAVOK 19/13 A2998 NOSIG=
201203191200 METAR MROC 191200Z 11012KT CAVOK 19/13 A2999 NOSIG=
201203191300 METAR MROC 191300Z 12012KT CAVOK 21/14 A3002 NOSIG=
201203191400 METAR MROC 191400Z 10013KT CAVOK 22/13 A3003 NOSIG=
201203191500 METAR MROC 191500Z 10013KT CAVOK 24/11 A3005 NOSIG=
201203191600 METAR MROC 191600Z 09011KT CAVOK 26/12 A3004 NOSIG=
201203191700 METAR MROC 191700Z 10011G22KT 9999 FEW040 27/12 A3002 NOSIG=
201203191800 METAR MROC 191800Z 10012G22KT 9999 FEW040 28/12 A3000 NOSIG=
201203191900 METAR MROC 191900Z 09012KT 9999 FEW040 28/12 A2996 NOSIG=
201203192000 METAR MROC 192000Z 10011KT 9999 FEW040 28/12 A2993 NOSIG=
201203192100 METAR MROC 192100Z 10008KT 9999 FEW040 SCT100 27/12 A2991 NOSIG=
201203192200 METAR MROC 192200Z 10011KT 9999 FEW035 27/13 A2991 NOSIG=
201203192300 METAR MROC 192300Z 11009KT 9999 FEW035 25/13 A2992 NOSIG=
201203200000 METAR MROC 200000Z 11010KT 9999 FEW040 22/14 A2994 NOSIG=
201203200100 METAR MROC 200100Z 11009KT CAVOK 21/14 A2997 NOSIG=
201203200154 METAR MROC 200154Z 09010KT CAVOK 21/15 A2999 NOSIG=
201203200200 METAR MROC 200200Z 09010KT CAVOK 21/15 A2999 NOSIG=
201203200300 METAR MROC 200300Z 09008KT CAVOK 20/14 A3001 NOSIG=
201203200400 METAR MROC 200400Z 09008KT CAVOK 20/14 A3000 NOSIG=
201203200500 METAR MROC 200500Z 08006KT CAVOK 19/12 A3000 NOSIG=
201203200600 METAR MROC 200600Z 09007KT CAVOK 20/12 A2999 NOSIG=
201203200700 METAR MROC 200700Z 07006KT CAVOK 19/12 A2997 NOSIG=
201203200800 METAR MROC 200800Z 08004KT CAVOK 19/12 A2996 NOSIG=
201203200900 METAR MROC 200900Z 06009KT CAVOK 18/12 A2994 NOSIG=
201203201000 METAR MROC 201000Z 07007KT CAVOK 18/12 A2994 NOSIG=
201203201100 METAR MROC 201100Z 08005KT CAVOK 18/11 A2995 NOSIG=
201203201200 METAR MROC 201200Z 06007KT CAVOK 18/11 A2997 NOSIG=
201203201300 METAR MROC 201300Z 07007KT CAVOK 21/11 A2998 NOSIG=
201203201400 METAR MROC 201400Z 09008KT CAVOK 24/12 A3000 NOSIG=
201203201500 METAR MROC 201500Z 10008KT CAVOK 26/11 A3001 NOSIG=
201203201600 METAR MROC 201600Z 15004KT 9999 FEW040 27/12 A3001 RMK BECMG 24008KT=
201203201700 METAR MROC 201700Z 23005KT 9999 FEW035 30/12 A2998 NOSIG=
201203201800 METAR MROC 201800Z 26007KT 9999 FEW035 29/13 A2996 NOSIG=
201203201900 METAR MROC 201900Z 24009KT 9999 SCT035 30/13 A2993 NOSIG=
201203202000 METAR MROC 202000Z 26011KT 9999 FEW030TCU SCT035 29/15 A2990 NOSIG=
201203202100 METAR MROC 202100Z 27015KT 9999 VCSH FEW020TCU SCT040 28/15 A2988 NOSIG=
201203202200 METAR MROC 202200Z 24013KT 9999 FEW020TCU SCT040 BKN100 26/16 A2988 NOSIG=
201203202300 METAR MROC 202300Z 12008KT 9999 FEW030 BKN100 23/16 A2990 NOSIG=
201203202351 METAR MROC 210000Z 12009KT 9999 SCT030 BKN100 22/16 A2992 NOSIG=
201203210000 METAR MROC 210000Z 12009KT 9999 SCT030 BKN100 22/16 A2992 NOSIG=
201203210100 METAR MROC 210100Z 11004KT 9999 FEW030 SCT100 22/16 A2994 NOSIG=
201203210200 METAR MROC 210200Z 11009KT 9999 FEW030 SCT100 22/16 A2996 NOSIG=
201203210300 METAR MROC 210300Z 12006KT 9999 FEW030 SCT120 22/16 A2999 NOSIG=
201203210400 METAR MROC 210400Z 09007KT 9999 FEW030 SCT120 21/15 A3001 NOSIG=
201203210500 METAR MROC 210500Z 10010KT 9999 FEW030 SCT120 20/14 A2999 NOSIG=
201203210600 METAR MROC 210600Z 10009KT 9999 FEW030 SCT120 20/14 A2999 NOSIG=
201203210700 METAR MROC 210700Z 10009KT 9999 FEW030 SCT120 20/13 A2997 NOSIG=
201203210800 METAR MROC 210800Z 10007KT 9999 FEW030 SCT120 20/14 A2994 NOSIG=
201203210900 METAR MROC 300900Z 07007KT CAVOK 21/16 A2993 NOSIG=
201203211000 METAR MROC 211000Z 09007KT 9999 FEW030 SCT120 20/13 A2995 NOSIG=
201203211100 METAR MROC 211100Z 08007KT 9999 FEW030 SCT120 20/13 A2995 NOSIG=
201203211200 METAR MROC 211200Z 11011KT 9999 FEW030 BKN120 20/13 A2996 NOSIG=
201203211300 METAR MROC 211300Z 10011G21KT CAVOK 21/12 A2998 NOSIG=
201203211400 METAR MROC 211400Z 10014KT CAVOK 22/13 A2999 NOSIG=
201203211500 METAR MROC 211500Z 11016KT CAVOK 25/13 A3001 NOSIG=
201203211600 METAR MROC 211600Z 11017KT 9999 FEW035 BKN120 27/13 A3001 NOSIG=
201203211700 METAR MROC 211700Z 11014KT 9999 FEW035 SCT120 BKN250 28/13 A2999 NOSIG=
201203211800 METAR MROC 211800Z 08010KT 9999 FEW035 SCT120 BKN250 30/14 A2997 BECMG 24006KT=
201203211900 METAR MROC 211900Z 12013KT 9999 FEW035 BKN250 29/14 A2994 BECMG 24006KT=
201203212000 METAR MROC 212000Z 26004KT 9999 FEW020TCU SCT080 BKN250 26/15 A2993 NOSIG=
201203212100 METAR MROC 212100Z 12010KT 9999 VCSH FEW020TCU SCT035 BKN100 24/15 A2993 BECMG 24006KT -SHRA=
201203212200 METAR MROC 212200Z 11008KT 9999 SCT030 BKN100 24/15 A2994 NOSIG=
201203212300 METAR MROC 212300Z 28003KT 9999 FEW040 SCT120 BKN200 22/18 A2996 NOSIG=
201203220000 METAR MROC 220000Z 14002KT 9999 FEW035 SCT120 BKN200 23/16 A2997 NOSIG=
201203220100 METAR MROC 220100Z 09005KT 9999 FEW035 SCT080 21/16 A2999 NOSIG=
201203220200 METAR MROC 220200Z 07004KT CAVOK 21/16 A3001 NOSIG=
201203220300 METAR MROC 220300Z 07006KT CAVOK 21/13 A3001 NOSIG=
201203220400 METAR MROC 220400Z 09007KT CAVOK 21/14 A//// NOSIG=
201203220500 METAR MROC 220500Z 09008KT CAVOK 20/13 A3000 NOSIG=
201203220600 METAR MROC 220600Z 03006KT CAVOK 19/12 A2999 NOSIG=
201203220700 METAR MROC 220700Z 05005KT CAVOK 19/11 A2996 NOSIG=
201203220800 METAR MROC 220800Z 07005KT CAVOK 20/12 A2995 NOSIG=
201203220900 METAR MROC 220900Z 08006KT CAVOK 20/12 A2994 NOSIG=
201203221000 METAR MROC 221000Z 08005KT CAVOK 20/12 A2994 NOSIG=
201203221100 METAR MROC 221100Z 04010KT CAVOK 19/13 A2996 NOSIG=
201203221200 METAR MROC 221200Z 06009KT CAVOK 19/14 A2997 NOSIG=
201203221300 METAR MROC 221300Z 10010KT CAVOK 22/15 A2999 NOSIG=
201203221400 METAR MROC 221400Z 11012KT CAVOK 23/16 A3001 NOSIG=
201203221500 METAR MROC 221500Z 11011G21KT CAVOK 25/15 A3001 NOSIG=
201203221600 METAR MROC 221600Z 12011G21KT 9999 FEW045 27/14 A3001 NOSIG=
201203221700 METAR MROC 221700Z 10013G23KT 9999 FEW045 28/15 A3000 NOSIG=
201203221800 METAR MROC 221800Z 10010KT 9999 SCT045 29/14 A2997 RMK FEW060 NOSIG=
201203221900 METAR MROC 221900Z 10011KT 9999 SCT040 28/15 A2995 NOSIG=
201203222000 METAR MROC 222000Z 11012KT 9999 FEW030 28/14 A2993 NOSIG=
201203222100 METAR MROC 222100Z 10013KT 9999 FEW030 26/15 A2991 NOSIG=
201203222200 METAR MROC 222200Z 11015KT 9999 FEW030 24/14 A2991 NOSIG=
201203222300 METAR MROC 222300Z 11013KT 9999 FEW030 23/12 A2993 NOSIG=
201203230000 METAR MROC 230000Z 11011G21KT 9999 FEW030 22/12 A2995 NOSIG=
201203230100 METAR MROC 230100Z 11010KT 9999 FEW030 21/13 A2998 NOSIG=
201203230200 METAR MROC 230200Z 10008KT 9999 FEW030 21/14 A3000 NOSIG=
201203230300 METAR MROC 230300Z 11014KT 9999 FEW030 20/14 A3001 NOSIG=
201203230400 METAR MROC 230400Z 11017KT 9999 FEW030 20/14 A3000 NOSIG=
201203230500 METAR MROC 230500Z 10014KT 9999 FEW030 20/13 A3000 NOSIG=
201203230600 METAR MROC 230600Z 10013KT 9999 FEW030 20/13 A2998 NOSIG=
201203230700 METAR MROC 230700Z 07009KT 9999 FEW030 20/14 A2997 NOSIG=
201203230800 METAR MROC 230800Z 06008KT 9999 FEW030 19/14 A2996 NOSIG=
201203230900 METAR MROC 230900Z 08009KT 9999 FEW030 19/14 A2995 NOSIG=
201203231000 METAR MROC 231000Z 06008KT 9999 FEW030 19/14 A2996 NOSIG=
201203231100 METAR MROC 231100Z 04008KT 9999 FEW030 18/14 A2996 NOSIG=
201203231200 METAR MROC 231200Z 07009KT CAVOK 19/14 A2998 NOSIG=
201203231300 METAR MROC 231300Z 05005KT CAVOK 22/14 A3000 NOSIG=
201203231400 METAR MROC 231400Z 11009KT CAVOK 24/14 A3002 NOSIG=
201203231500 METAR MROC 231500Z 09010KT CAVOK 25/14 A3004 NOSIG=
201203231600 METAR MROC 231600Z 11009KT 9999 FEW040 28/14 A3003 NOSIG=
201203231700 METAR MROC 231700Z 08008KT 9999 FEW040 28/14 A3001 NOSIG=
201203231800 METAR MROC 231800Z 12007KT 9999 FEW040 30/14 A2998 NOSIG=
201203231900 METAR MROC 231900Z 23003KT 9999 FEW030 30/15 A2995 NOSIG=
201203232000 METAR MROC 232000Z 17004KT 9999 FEW045 28/14 A2993 NOSIG=
201203232100 METAR MROC 232100Z 10008KT 9999 FEW040 30/14 A2991 NOSIG=
201203232200 METAR MROC 232200Z 11011KT 9999 FEW040 28/15 A2989 NOSIG=
201203232300 METAR MROC 232300Z 10010KT 9999 FEW040 25/15 A2991 NOSIG=
201203240000 METAR MROC 240000Z 11011KT 9999 FEW035 23/15 A2994 NOSIG=
201203240100 METAR MROC 240100Z 10011KT 9999 FEW035 21/16 A2997 NOSIG=
201203240200 METAR MROC 240200Z 10009KT 9999 FEW035 21/15 A2999 NOSIG=
201203240300 METAR MROC 240300Z 08007KT 9999 FEW030 20/15 A3001 NOSIG=
201203240400 METAR MROC 240400Z 10010KT 9999 FEW030 20/15 A3000 NOSIG=
201203240500 METAR MROC 240500Z 10011KT 9999 FEW030 20/15 A3000 NOSIG=
201203240600 METAR MROC 240600Z 09008KT 9999 FEW035 20/15 A2999 NOSIG=
201203240700 METAR MROC 240700Z 09007KT 9999 FEW030 SCT070 20/15 A2997 NOSIG=
201203240800 METAR MROC 240800Z 09008KT 9999 FEW030 SCT080 20/14 A2997 NOSIG=
201203240900 METAR MROC 240900Z 07006KT 9999 FEW030 SCT080 20/14 A2997 NOSIG=
201203241000 METAR MROC 241000Z 09007KT CAVOK 20/14 A2997 NOSIG=
201203241100 METAR MROC 241100Z 11009KT CAVOK 20/14 A2998 NOSIG=
201203241200 METAR MROC 241200Z 09006KT CAVOK 20/14 A2999 NOSIG=
201203241300 METAR MROC 241300Z 11011KT CAVOK 22/15 A3002 NOSIG=
201203241400 METAR MROC 241400Z 10008KT CAVOK 23/15 A3004 NOSIG=
201203241500 METAR MROC 241500Z 08009KT CAVOK 24/14 A3004 NOSIG=
201203241600 METAR MROC 241600Z 10010KT 9999 FEW040 26/14 A3004 NOSIG=
201203241700 METAR MROC 241700Z 11008KT 9999 FEW040 28/13 A3002 NOSIG=
201203241800 METAR MROC 241800Z 10005KT 9999 FEW035 30/13 A2999 BECMG 24006KT=
201203241900 METAR MROC 241900Z 22005KT 9999 SCT035 29/15 A2996 NOSIG=
201203242000 METAR MROC NIL=
201203242100 METAR MROC 242100Z 24006KT 9999 FEW020 SCT035 BKN110 27/18 A2995 NOSIG=
201203242200 METAR MROC 242200Z 14005KT 9999 SCT030 SCT100 25/15 A2995 NOSIG=
201203242300 METAR MROC 242300Z 10006KT 9999 SCT025 SCT090 25/15 A2996 NOSIG=
201203250000 METAR MROC 250000Z 11007KT 9999 FEW030 BKN100 23/16 A2997 NOSIG=
201203250100 METAR MROC 250100Z 12007KT 9999 FEW035 SCT100 23/16 A2999 NOSIG=
201203250200 METAR MROC 250200Z 10005KT 9999 FEW035 SCT100 22/15 A3002 NOSIG=
201203250300 METAR MROC 250300Z 12005KT 9999 FEW035 SCT100 21/15 A3004 NOSIG=
201203250400 METAR MROC 250400Z 10006KT 9999 FEW035 SCT100 21/14 A3005 NOSIG=
201203250500 METAR MROC 250500Z 10008KT 9999 FEW035 SCT100 21/15 A3003 NOSIG=
201203250600 METAR MROC 250600Z 08005KT 9999 FEW035 SCT120 20/15 A3001 NOSIG=
201203250700 METAR MROC 250700Z 08006KT 9999 FEW035 SCT120 20/15 A2999 NOSIG=
201203250800 METAR MROC 250800Z 08006KT 9999 FEW035 SCT120 20/15 A2998 NOSIG=
201203250900 METAR MROC 250900Z 05005KT 9999 FEW035 SCT120 18/14 A2998 NOSIG=
201203251000 METAR MROC 251000Z 07007KT 9999 FEW035 SCT120 20/14 A2998 NOSIG=
201203251100 METAR MROC 251100Z 06007KT 9999 FEW035 19/14 A3000 NOSIG=
201203251200 METAR MROC 251200Z 05004KT CAVOK 18/11 A3001 NOSIG=
201203251300 METAR MROC 251300Z 10006KT CAVOK 21/13 A3004 NOSIG=
201203251400 METAR MROC 251400Z 10008KT CAVOK 24/11 A3006 NOSIG=
201203251500 METAR MROC 251500Z 12006KT CAVOK 26/09 A3006 NOSIG=
201203251600 METAR MROC 251600Z 13008KT 9999 FEW035 SCT250 28/09 A3005 NOSIG=
201203251700 METAR MROC 251700Z 11006KT 9999 FEW035 30/07 A3001 NOSIG=
201203251800 METAR MROC 251800Z 11003KT 9999 FEW035 SCT250 30/06 A2998 BECMG 24006KT=
201203251900 METAR MROC 251900Z 20005KT 9999 FEW040 BKN250 31/06 A2996 NOSIG=
201203252000 METAR MROC 252000Z 26014KT 9999 SCT040 SCT250 30/14 A2993 NOSIG=
201203252100 METAR MROC 252100Z 26016KT 9999 SCT035 BKN250 29/14 A2993 BECMG 8000 VCSH=
201203252200 METAR MROC 252200Z 13010KT 9999 FEW030 SCT100 BKN250 26/14 A2993 NOSIG=
201203252300 METAR MROC 252300Z 15008KT 9999 SCT035 BKN250 25/13 A2994 NOSIG=
201203252353 METAR MROC 260000Z 12010KT CAVOK 23/15 A2997 NOSIG=
201203260000 METAR MROC 260000Z 12010KT CAVOK 23/15 A2997 NOSIG=
201203260100 METAR MROC 260100Z 11011KT CAVOK 22/15 A3000 NOSIG=
201203260200 METAR MROC 260200Z 10009KT CAVOK 22/15 A3002 NOSIG=
201203260300 METAR MROC 260300Z 07004KT CAVOK 21/14 A3003 NOSIG=
201203260400 METAR MROC 260400Z 08006KT CAVOK 21/11 A3004 NOSIG=
201203260500 METAR MROC 260500Z 09006KT CAVOK 21/09 A3004 NOSIG=
201203260600 METAR MROC 260600Z 11005KT CAVOK 20/10 A3004 NOSIG=
201203260700 METAR MROC 260700Z 05004KT CAVOK 20/10 A3002 NOSIG=
201203260800 METAR MROC 260800Z 03004KT CAVOK 19/13 A3001 NOSIG=
201203260900 METAR MROC 260900Z 05006KT CAVOK 19/11 A3000 NOSIG=
201203261000 METAR MROC 261000Z 07006KT CAVOK 20/09 A2999 NOSIG=
201203261100 METAR MROC 261100Z 06007KT CAVOK 20/09 A3000 NOSIG=
201203261200 METAR MROC 261200Z 06008KT CAVOK 20/09 A3000 NOSIG=
201203261300 METAR MROC 261300Z 06013KT CAVOK 23/09 A3002 NOSIG=
201203261400 METAR MROC 261400Z 09007KT CAVOK 25/08 A3005 NOSIG=
201203261500 METAR MROC 261500Z 11012KT CAVOK 27/07 A3005 NOSIG=
201203261600 METAR MROC 261600Z 11015KT CAVOK 28/08 A3004 NOSIG=
201203261700 METAR MROC 261700Z 13012KT CAVOK 29/09 A3002 NOSIG=
201203261800 METAR MROC 261800Z 18012KT 9999 FEW030 SCT250 30/09 A3000 NOSIG=
201203261900 METAR MROC 261900Z 21012KT 9999 FEW030 SCT250 29/10 A2996 NOSIG=
201203262000 METAR MROC 262000Z 22012KT 9999 FEW030 SCT250 31/13 A2994 NOSIG=
201203262100 METAR MROC 262100Z 20006KT 9999 SCT030 SCT200 28/15 A2992 NOSIG=
201203262200 METAR MROC 262200Z 12008KT 9999 SCT030 SCT200 26/13 A2992 NOSIG=
201203262300 METAR MROC 262300Z 12009KT 9999 FEW030 SCT250 25/15 A2993 NOSIG=
201203270000 METAR MROC 270000Z 10008KT CAVOK 23/13 A2996 NOSIG=
201203270100 METAR MROC 270100Z 11006KT CAVOK 22/12 A2998 NOSIG=
201203270200 METAR MROC 270200Z 11009KT CAVOK 22/13 A3000 NOSIG=
201203270300 METAR MROC 270300Z 10009KT CAVOK 21/14 A3002 NOSIG=
201203270400 METAR MROC 270400Z 09008KT CAVOK 21/12 A3003 NOSIG=
201203270500 METAR MROC 270500Z 07005KT CAVOK 20/10 A3001 NOSIG=
201203270600 METAR MROC 270600Z 07004KT CAVOK 20/10 A3001 NOSIG=
201203270700 METAR MROC 270700Z 08006KT CAVOK 20/11 A2999 NOSIG=
201203270800 METAR MROC 270800Z 07007KT CAVOK 20/10 A2998 NOSIG=
201203270900 METAR MROC 270900Z 10007KT CAVOK 20/09 A2999 NOSIG=
201203271000 METAR MROC 271000Z 06006KT CAVOK 18/09 A3000 NOSIG=
201203271100 METAR MROC 271100Z 08008KT CAVOK 19/08 A3001 NOSIG=
201203271200 METAR MROC 271200Z 06004KT CAVOK 18/08 A3002 NOSIG=
201203271300 METAR MROC 271300Z 09005KT CAVOK 22/10 A3004 NOSIG=
201203271400 METAR MROC 271400Z 09008KT CAVOK 25/08 A3005 RMK FEW250 NOSIG=
201203271500 METAR MROC 271500Z 11010KT CAVOK 26/08 A3005 NOSIG=
201203271600 METAR MROC 271600Z 11008KT CAVOK 28/09 A3004 NOSIG=
201203271700 METAR MROC 271700Z 11008KT CAVOK 30/09 A3003 NOSIG=
201203271800 METAR MROC 271800Z 11008KT 9999 FEW045 30/10 A3000 NOSIG=
201203271900 METAR COR MROC 271900Z 12007KT 9999 SCT045 29/11 A2998 BECMG 22006KT=
201203271925 METAR MROC 271925Z 23004KT 9999 SCT030 29/13 A2997 NOSIG=
201203272000 METAR MROC 272000Z 16007KT 9999 SCT035 30/12 A2996 BECMG 20006KT=
201203272100 METAR MROC 272100Z 12008KT 9999 SCT035 29/14 A2994 BECMG 24006KT=
201203272200 METAR MROC 272200Z 10009KT 9999 SCT035 27/14 A2993 BECMG 24006KT=
201203272300 METAR MROC 272300Z 10008KT 9999 SCT035 25/15 A2995 NOSIG=
201203280000 METAR MROC 280000Z 11010KT 9999 SCT035 23/16 A2997 NOSIG=
201203280100 METAR MROC 280100Z 10011KT 9999 FEW035 22/16 A3000 NOSIG=
201203280200 METAR MROC 280200Z 10010KT 9999 FEW035 21/16 A3001 NOSIG=
201203280300 METAR MROC 280300Z 09014KT 9999 FEW035 22/16 A3003 NOSIG=
201203280400 METAR MROC 280400Z 10013KT 9999 FEW035 21/15 A3003 NOSIG=
201203280500 METAR MROC 280500Z 08015KT 9999 FEW035 21/16 A3002 NOSIG=
201203280600 METAR MROC 280600Z 11010G20KT 9999 FEW035 21/16 A3000 NOSIG=
201203280700 METAR MROC 280700Z 10017KT 9999 FEW035 21/16 A2998 NOSIG=
201203280800 METAR MROC 280800Z 10017KT 9999 FEW035 21/16 A2995 NOSIG=
201203280900 METAR MROC 280900Z 10010G20KT 9999 FEW035 21/16 A2994 NOSIG=
201203281000 METAR MROC 281000Z 10014KT 9999 FEW035 21/16 A2994 NOSIG=
201203281100 METAR MROC 281100Z 07011KT 9999 FEW035 21/16 A2997 NOSIG=
201203281200 METAR MROC 281200Z 11010G20KT 9999 FEW030 SCT150 21/16 A2998 NOSIG=
201203281300 METAR MROC 281300Z 07008KT 9999 FEW030 SCT150 23/16 A2999 NOSIG=
201203281400 METAR MROC 281400Z 11011KT 9999 FEW030 SCT200 24/16 A3000 NOSIG=
201203281500 METAR MROC 281500Z 12010KT 9999 FEW030 SCT200 26/16 A3001 NOSIG=
201203281600 METAR MROC 281600Z 11010KT 9999 FEW030 BKN250 27/15 A2999 NOSIG=
201203281700 METAR MROC 281700Z 10012KT 9999 SCT030 SCT250 26/15 A2999 NOSIG=
201203281800 METAR MROC 281800Z 10014KT 9999 SCT030 SCT250 27/16 A2997 NOSIG=
201203281900 METAR MROC 281900Z 11011KT 9999 BKN030 26/15 A2995 NOSIG=
201203282000 METAR MROC 282000Z 11011KT 9999 FEW035 SCT120 26/16 A2992 NOSIG=
201203282100 METAR MROC 282100Z 08012KT 9999 SCT035 SCT070 26/15 A2991 NOSIG=
201203282200 METAR MROC 282200Z 10013KT 9999 SCT035 SCT070 25/15 A2990 NOSIG=
201203282300 METAR MROC 282300Z 10016KT 9999 FEW035 SCT070 23/15 A2990 NOSIG=
201203290000 METAR MROC 290000Z 10012KT 9999 FEW035 SCT070 22/15 A2992 NOSIG=
201203290100 METAR MROC 290100Z 11013KT 9999 FEW035 SCT070 21/15 A2994 NOSIG=
201203290200 METAR MROC 290200Z 10012KT 9999 FEW035 SCT070 21/16 A2996 NOSIG=
201203290300 METAR MROC 290300Z 09010KT 9999 FEW030 21/15 A2998 NOSIG=
201203290400 METAR MROC 290400Z 11010KT 9999 FEW045 22/14 A2999 NOSIG=
201203290500 METAR COR MROC 290500Z 11012KT CAVOK 21/14 A2999 NOSIG=
201203290600 METAR MROC 290600Z 10013KT CAVOK 21/14 A2997 NOSIG=
201203290700 METAR MROC NIL=
201203290800 METAR MROC 290800Z 10009KT CAVOK 20/14 A2993 NOSIG=
201203290900 METAR MROC 290900Z 11011KT CAVOK 20/14 A2992 NOSIG=
201203291000 METAR MROC 291000Z 11012G22KT CAVOK 20/14 A2992 NOSIG=
201203291100 METAR MROC 291100Z 11010KT CAVOK 20/14 A2992 NOSIG=
201203291200 METAR MROC 291200Z 11012KT CAVOK 20/14 A2992 NOSIG=
201203291300 METAR MROC 291300Z 11012KT CAVOK 22/14 A2995 NOSIG=
201203291400 METAR MROC 291400Z 11013KT CAVOK 25/12 A2995 NOSIG=
201203291500 METAR MROC 291500Z 10012KT CAVOK 26/11 A2997 NOSIG=
201203291600 METAR MROC 291600Z 11011KT CAVOK 27/12 A2996 NOSIG=
201203291700 METAR MROC 291700Z 10010KT CAVOK 29/13 A2994 NOSIG=
201203291800 METAR MROC 291800Z 09009KT 9999 FEW040 29/13 A2994 NOSIG=
201203291900 METAR MROC 291900Z 08012KT 9999 SCT035 29/13 A2991 NOSIG=
201203292000 METAR MROC 292000Z 11008KT 9999 SCT035 SCT070 28/13 A2991 NOSIG=
201203292100 METAR MROC 292100Z 12009KT 9999 SCT035 SCT090 27/15 A2990 NOSIG=
201203292200 METAR MROC 292200Z 12011KT 9999 FEW035 SCT100 26/16 A2990 NOSIG=
201203292300 METAR MROC 292300Z 12006KT 9999 FEW035 BKN090 25/16 A2992 NOSIG=
201203300000 METAR MROC 300000Z 10008KT 9999 FEW035 BKN250 23/15 A2995 NOSIG=
201203300100 METAR MROC 300100Z 09010KT CAVOK 22/15 A2997 NOSIG=
201203300200 METAR MROC 300200Z 09010KT CAVOK 21/15 A2997 NOSIG=
201203300300 METAR MROC 300300Z 10013KT CAVOK 21/16 A2998 NOSIG=
201203300400 METAR MROC 300400Z 10011KT CAVOK 21/16 A2999 NOSIG=
201203300500 METAR MROC 300500Z 10010G20KT CAVOK 22/15 A2997 NOSIG=
201203300600 METAR MROC 300600Z 10010KT CAVOK 21/16 A2996 NOSIG=
201203300700 METAR MROC 300700Z 09011KT CAVOK 21/16 A2992 NOSIG=
201203300800 METAR MROC 300800Z 10011KT CAVOK 21/16 A2992 NOSIG=
201203300900 METAR MROC 300900Z 07007KT CAVOK 21/16 A2993 NOSIG=
201203301000 METAR MROC 301000Z 08007KT CAVOK 21/16 A2993 NOSIG=
201203301100 METAR MROC 301100Z 10009KT CAVOK 21/16 A2994 NOSIG=
201203301200 METAR MROC 301200Z 10010KT 9999 FEW035 21/16 A2996 NOSIG=
201203301300 METAR MROC 301300Z 12010KT 9999 FEW035 23/17 A2998 NOSIG=
201203301400 METAR MROC 301400Z 11011KT 9999 FEW040 25/16 A3000 NOSIG=
201203301500 METAR MROC 301500Z 10011KT 9999 FEW040 SCT250 26/16 A3000 NOSIG=
201203301600 METAR MROC 301600Z 14010KT 9999 FEW040 SCT250 28/16 A3001 NOSIG=
201203301700 METAR MROC 301700Z 14011KT 9999 FEW035 SCT250 29/15 A2999 NOSIG=
201203301800 METAR MROC 301800Z 10011KT 9999 FEW035 SCT250 29/15 A2997 BECMG 22006KT=
201203301900 METAR MROC 301900Z 13006KT 9999 FEW035 SCT250 29/15 A2996 BECMG 22005KT=
201203302000 METAR MROC 302000Z 14008KT 9999 FEW030TCU BKN250 30/15 A2994 NOSIG=
201203302100 METAR MROC 302100Z 12015KT 9999 SCT030 BKN250 29/16 A2992 NOSIG=
201203302200 METAR MROC 302200Z 11018KT 9999 SCT030 BKN250 26/17 A2991 NOSIG=
201203302300 METAR MROC 302300Z 11019KT 9999 SCT030 BKN250 26/16 A2992 NOSIG=
201203302352 METAR MROC 310000Z 09014KT 9999 SCT030 BKN250 24/15 A2996 NOSIG=
201203310000 METAR MROC 310000Z 09014KT 9999 SCT030 BKN250 24/15 A2996 NOSIG=
201203310100 METAR MROC 310100Z 10014KT 9999 FEW030 22/15 A2999 NOSIG=
201203310200 METAR MROC 310200Z 09012KT 9999 FEW030 22/13 A3000 NOSIG=
201203310300 METAR MROC 310300Z 09009KT 9999 FEW035 22/13 A3001 NOSIG=
201203310400 METAR MROC 310400Z 09007KT 9999 FEW035 222/15 A3002 NOSIG=
201203310500 METAR MROC 310500Z 08007KT 9999 FEW035 22/13 A3002 NOSIG=
201203310600 METAR MROC 310600Z 06007KT CAVOK 21/14 A3000 NOSIG=
201203310700 METAR MROC 310700Z 09008KT CAVOK 21/15 A2997 NOSIG=
201203310800 METAR MROC 310800Z 08007KT CAVOK 21/14 A2995 NOSIG=
201203310900 METAR MROC 310900Z 09010KT CAVOK 21/14 A2995 NOSIG=
201203311000 METAR MROC 311000Z 10008KT CAVOK 21/14 A2996 NOSIG=
201203311100 METAR MROC 311100Z 07006KT CAVOK 21/14 A2997 NOSIG=
201203311200 METAR MROC 311200Z 10009KT CAVOK 21/14 A2998 NOSIG=
201203311300 METAR MROC 311300Z 09016KT CAVOK 22/14 A3001 NOSIG=
201203311400 METAR MROC 311400Z 10017KT CAVOK 26/14 A3002 NOSIG=
201203311500 METAR MROC 311500Z 10016KT CAVOK 28/14 A3002 NOSIG=
201203311600 METAR MROC 311600Z 11016KT CAVOK 29/14 A3001 NOSIG=
201203311700 METAR MROC 311700Z 11013KT 9999 FEW035 31/14 A3000 NOSIG=
201203311800 METAR MROC 311800Z 11014KT 9999 FEW035 SCT250 30/14 A2997 NOSIG=
201203311900 METAR MROC 311900Z 26008KT 9999 SCT035 SCT250 30/15 A2995 NOSIG=
201203312000 METAR MROC 312000Z 26013KT 9999 SCT035 SCT250 28/18 A2993 NOSIG=
201203312100 METAR MROC 312100Z 24008KT 9999 FEW025 SCT035 24/18 A2991 NOSIG=
201203312200 METAR MROC 312200Z 22005KT 9999 FEW020 SCT050 28/19 A2991 NOSIG=
201203312300 METAR MROC 312300Z 14006KT 9999 FEW025 SCT060 27/17 A2991 NOSIG=
201204010000 METAR MROC 010000Z 11009KT 9999 FEW035 SCT250 24/17 A2993 NOSIG=
201204010100 METAR MROC 010100Z 08006KT CAVOK 23/17 A2995 NOSIG=
201204010200 METAR MROC 010200Z 08008KT CAVOK 22/17 A2997 NOSIG=
201204010300 METAR MROC 010300Z 11006KT CAVOK 22/16 A2999 NOSIG=
201204010400 METAR MROC 010400Z 08004KT 9999 FEW040 22/16 A3001 NOSIG=
201204010500 METAR MROC 010500Z 06005KT 9999 FEW035 22/16 A3001 NOSIG=
201204010600 METAR MROC 010600Z 07004KT 9999 SCT035 21/16 A2999 NOSIG=
201204010700 METAR MROC 010700Z 08004KT 9999 SCT035 22/16 A2998 NOSIG=
201204010800 METAR MROC 010800Z 11002KT 9999 SCT030 21/16 A2996 NOSIG=
201204010900 METAR MROC 010900Z 00000KT 9999 FEW030 20/16 A2995 NOSIG=
201204011000 METAR MROC 011000Z 00000KT 9999 FEW030 20/16 A2995 NOSIG=
201204011100 METAR MROC 011100Z 00000KT 9999 FEW030 SCT120 19/17 A2997 NOSIG=
201204011200 METAR MROC 011200Z 09004KT 9999 FEW030 SCT120 20/16 A2998 NOSIG=
201204011300 METAR MROC 011300Z 10004KT 9999 FEW035 BKN200 21/16 A3000 NOSIG=
201204011400 METAR MROC 011400Z 09007KT 9999 FEW035 SCT200 25/16 A3001 NOSIG=
201204011500 METAR MROC 011500Z 08005KT 9999 FEW035 BKN200 28/15 A3000 NOSIG=
201204011600 METAR MROC 011600Z 19003KT 9999 FEW040 BKN200 30/15 A2998 BECMG 24006KT=
201204011700 METAR MROC 011700Z 24007KT 9999 SCT040 BKN200 28/16 A2997 NOSIG=
201204011800 METAR MROC 011800Z 17004KT 9999 SCT035 BKN200 30/15 A2994 BECMG 24006KT=
201204011900 METAR MROC 011900Z 26005KT 9999 FEW020TCU FEW035 BKN200 29/17 A2992 BECMG SHRA=
201204011915 METAR MROC 011915Z 23007G20KT 9999 3000SW +SHRA FEW010TCU FEW025 BKN100 25/20 A2993 BECMG 6000 -TSRA=
201204012000 METAR MROC 012000Z 16004KT 9999 4000S -RA VCSH FEW010TCU FEW020 BKN100 21/20 A2991 NOSIG=
201204012100 METAR MROC 012100Z 22008KT 9999 4000SW -RA FEW010TCU FEW020 BKN100 22/18 A2989 NOSIG=
201204012200 METAR MROC 012200Z 15003KT 9999 FEW030 BKN100 21/19 A2991 NOSIG=
201204012300 METAR MROC 012300Z 08004KT 9999 FEW030 BKN100 23/19 A2993 NOSIG=
201204020000 METAR MROC 020000Z 17002KT 9999 FEW030 BKN100 23/19 A2994 NOSIG=
201204020100 METAR MROC 020100Z 26003KT 9999 FEW030 BKN100 22/20 A2994 NOSIG=
201204020200 METAR MROC 020200Z 16002KT 9999 FEW030 BKN120 22/19 A2996 NOSIG=
201204020300 METAR MROC 020300Z 13005KT 9999 FEW035 BKN200 22/18 A2998 NOSIG=
201204020400 METAR MROC 020400Z 00000KT 9999 FEW035 BKN200 21/18 A3000 NOSIG=
201204020500 METAR MROC 020500Z 08004KT CAVOK 21/17 A2998 NOSIG=
201204020600 METAR MROC 020600Z 11004KT CAVOK 21/18 A2996 NOSIG=
201204020700 METAR MROC 020700Z 00000KT CAVOK 21/17 A2994 NOSIG=
201204020800 METAR MROC 020800Z 07006KT CAVOK 21/16 A2992 NOSIG=
201204020900 METAR MROC 020900Z 04008KT CAVOK 21/17 A2991 NOSIG=
201204021000 METAR MROC 021000Z 09011KT CAVOK 21/17 A2991 NOSIG=
201204021100 METAR MROC 021100Z 08008KT CAVOK 21/17 A2993 NOSIG=
201204021200 METAR MROC 021200Z 07007KT CAVOK 21/17 A2994 NOSIG=
201204021300 METAR MROC 021300Z 06003KT 9999 FEW030 SCT100 BKN250 23/17 A2996 NOSIG=
201204021400 METAR MROC 021400Z 09008KT 9999 FEW030 BKN250 24/18 A2997 NOSIG=
201204021500 METAR MROC 021500Z 09007KT 9999 FEW030 BKN250 26/17 A2998 NOSIG=
201204021600 METAR MROC 021600Z 12007KT 9999 FEW030 BKN250 28/16 A2997 BECMG 24007KT=
201204021700 METAR MROC 021700Z 15007KT 9999 FEW030 BKN250 29/17 A2997 BECMG 24005KT=
201204021800 METAR MROC 021800Z 23006KT 9999 FEW030 BKN250 28/18 A2994 NOSIG=
201204021900 METAR MROC 021900Z 24010KT 9999 SCT030 BKN250 28/19 A2992 NOSIG=
201204022000 METAR MROC 022000Z 23011KT 9999 SCT030 BKN250 27/20 A2990 NOSIG=
201204022100 METAR MROC 022100Z 23011KT 9999 FEW015CB SCT025 BKN220 26/20 A2989 BECMG 7000 -SHRA=
201204022200 METAR MROC 022200Z 10006KT 6000 -SHRA VCTS SCT012CB BKN025 22/19 A2992 BECMG 5000 -TSRA=
201204022300 METAR MROC 022300Z 26006KT 9999 -RA FEW020 SCT035 BKN100 21/19 A2991 NOSIG=
201204030000 METAR MROC 030000Z 10003KT 9999 SCT035 BKN220 21/19 A2992 NOSIG=
201204030100 METAR MROC 030100Z 06002KT 9999 FEW035 BKN220 22/19 A2994 NOSIG=
201204030200 METAR MROC 030200Z 08002KT 9999 FEW035 BKN220 21/20 A2995 NOSIG=
201204030300 METAR MROC 030300Z 32003KT 9999 FEW025 BKN120 21/20 A2995 NOSIG=
201204030400 METAR MROC 030400Z 10002KT 9999 FEW025 BKN100 21/19 A2998 NOSIG=
201204030500 METAR MROC 030500Z 07003KT 9999 FEW030 SCT100 21/19 A2997 NOSIG=
201204030600 METAR MROC 030600Z 04003KT 9999 FEW035 SCT100 21/18 A2995 NOSIG=
201204030700 METAR MROC 030700Z 19002KT 9999 FEW035 SCT120 20/18 A2994 NOSIG=
201204030800 METAR MROC 030800Z 17002KT 9999 FEW035 BKN120 20/18 A2994 NOSIG=
201204030900 METAR MROC 030900Z 09003KT 9999 5000SW FEW020 BKN100 19/18 A2993 NOSIG=
201204031000 METAR MROC 031000Z 05003KT 9999 FEW025 BKN100 20/18 A2993 NOSIG=
201204031100 METAR MROC 031100Z 22001KT 9999 FEW030 BKN100 20/17 A2994 NOSIG=
201204031200 METAR MROC 031200Z 23002KT 9999 FEW030 SCT080 SCT250 19/17 A2998 NOSIG=
201204031300 METAR MROC 031300Z 09003KT CAVOK 20/18 A2999 NOSIG=
201204031400 METAR MROC 031400Z 08003KT CAVOK 24/18 A3001 NOSIG=
201204031500 METAR MROC 031500Z 14002KT CAVOK 27/18 A3002 NOSIG=
201204031600 METAR MROC 031600Z 26007KT 9999 FEW030 SCT100 BKN250 27/19 A3002 NOSIG=
201204031700 METAR MROC 031700Z 24008KT 9999 SCT030 SCT100 29/18 A3000 NOSIG=
201204031800 METAR MROC 031800Z 22009KT 9999 FEW025TCU SCT035 BKN200 27/20 A2997 NOSIG=
201204031900 METAR MROC 031900Z 20006KT 9999 SCT020TCU BKN035 26/16 A2996 BECMG 7000 SHRA=
201204031928 METAR MROC 031928Z 05010KT 5000 2000E TSRA SCT015CB BKN025 23/17 A2994 BECMG 2000=
201204032000 METAR MROC 032000Z 27006KT 7000 -SHRA VCTS FEW015CB SCT035 BKN100 20/18 A2994 BECMG 9999=
201204032100 METAR MROC 032100Z 00000KT 9999 DZ FEW020 OVC100 20/20 A2993 NOSIG=
201204032200 METAR MROC 032200Z 34004KT 9999 FEW020 BKN110 21/21 A2991 NOSIG=
201204032300 METAR MROC 032300Z 07003KT 9999 FEW030 OVC120 21/20 A2991 NOSIG=
201204040000 METAR MROC 040000Z 14004KT 9999 FEW040 BKN120 22/19 A2995 NOSIG=
201204040100 METAR MROC 040100Z 14002KT 9999 SCT035 BKN250 21/19 A2998 NOSIG=
201204040200 METAR MROC 040200Z 09002KT 9999 FEW035 BKN250 21/19 A3000 NOSIG=
201204040300 METAR MROC 040300Z 11003KT 9999 FEW035 BKN250 21/19 A3000 NOSIG=
201204040400 METAR MROC 040400Z 04003KT 9999 FEW035 SCT120 BKN250 21/19 A3001 NOSIG=
201204040500 METAR MROC 040500Z 08005KT 9999 FEW035 SCT120 BKN250 21/18 A2999 NOSIG=
201204040600 METAR MROC 040600Z 07004KT CAVOK 21/18 A2997 NOSIG=
201204040700 METAR MROC 040700Z 20003KT CAVOK 20/18 A2995 NOSIG=
201204040800 METAR MROC 040800Z 17003KT 9999 FEW020 SCT120 BKN250 20/18 A2995 NOSIG=
201204040900 METAR MROC 040900Z 06003KT 9999 FEW020 SCT120 BKN250 20/19 A2996 NOSIG=
201204041000 METAR MROC 041000Z 07003KT 9999 FEW020 SCT120 20/18 A2995 NOSIG=
201204041100 METAR MROC 041100Z 04005KT 9999 FEW025 SCT120 20/18 A2997 NOSIG=
201204041200 METAR MROC 041200Z 05005KT CAVOK 20/17 A2998 NOSIG=
201204041204 METAR MROC 041204Z 10004KT CAVOK 20/17 A2997 NOSIG=
201204041300 METAR MROC 041300Z 10006KT CAVOK 23/19 A2999 NOSIG=
201204041400 METAR MROC 041400Z 13007KT CAVOK 26/18 A3001 BECMG 22005KT=
201204041500 METAR MROC 041500Z 09005KT 9999 FEW035 SCT120 28/18 A2999 BECMG 22006KT=
201204041600 METAR MROC 041600Z 11007KT 9999 FEW035 SCT120 29/18 A2997 NOSIG=
201204041700 METAR MROC 041700Z 12011KT 9999 FEW035 SCT120 30/17 A2995 NOSIG=
201204041800 METAR MROC 041800Z 10011KT 9999 FEW035 BKN250 30/17 A2993 NOSIG=
201204041900 METAR MROC 041900Z 12009KT 9999 FEW035 BKN250 30/16 A2991 NOSIG=
201204042000 METAR MROC 042000Z 10007KT 9999 FEW035 SCT120 BKN250 31/16 A2988 NOSIG=
201204042100 METAR MROC 042100Z 20013KT 9999 FEW030 SCT100 BKN200 26/21 A2987 BECMG 7000 RA=
201204042200 METAR MROC 042200Z 22013KT 9999 3000NW RA FEW020CB SCT100 BKN200 24/21 A2989 BECMG 6000 -TSRA=
201204042300 METAR MROC 042300Z 29009KT 4000 RA BR SCT010 BKN030 22/20 A2992 NOSIG=
201204042354 METAR MROC 050000Z 22003KT 5000 RA BR SCT015 BKN030 22/21 A2993 NOSIG=
201204050000 METAR MROC 050000Z 22003KT 5000 RA BR SCT015 BKN030 22/21 A2993 NOSIG=
201204050100 METAR MROC 050100Z 31005KT 9999 BCFG FEW035 BKN120 22/21 A2996 NOSIG=
201204050200 METAR MROC 050200Z 33003KT 9999 BCFG FEW010 BKN120 22/20 A2997 NOSIG=
201204050300 METAR MROC 050300Z 07002KT 9999 FEW030 SCT140 BKN220 22/20 A2998 NOSIG=
201204050400 METAR MROC 050400Z 32002KT 9999 FEW030 SCT140 BKN220 21/20 A3002 NOSIG=
201204050500 METAR MROC 050500Z 00000KT 9999 3500SW SCT002 BKN010 21/20 A3001=
201204050600 METAR MROC 050600Z 03004KT 9999 FEW010 SCT025 BKN120 20/18 A3000 NOSIG=
201204050700 METAR MROC 050700Z 13002KT 9999 FEW030 SCT120 BKN250 20/18 A2997 NOSIG=
201204050800 METAR MROC 050800Z 00000KT 9999 SCT030 BKN120 21/18 A2997 NOSIG=
201204050900 METAR MROC 050900Z 14002KT 9999 SCT030 SCT120 20/19 A2995 NOSIG=
201204051000 METAR MROC 051000Z 07004KT 9999 FEW030 SCT120 20/18 A2994 NOSIG=
201204051100 METAR MROC 051100Z 10005KT 9999 FEW030 BKN120 21/17 A2994 NOSIG=
201204051200 METAR MROC 051200Z 03006KT 9999 FEW030 BKN120 21/17 A2995 NOSIG=
201204051300 METAR MROC 051300Z 20005KT 3000 BR FEW001 BKN020 20/19 A2999 NOSIG=
201204051400 METAR MROC 051400Z 28009KT 5000 BR FEW001 SCT120 BKN200 21/19 A3002 NOSIG=
201204051500 METAR MROC 051500Z 25005KT 5000 BR FEW005 SCT120 BKN200 24/19 A3003 NOSIG=
201204051600 METAR MROC 051600Z 26007KT 8000 FEW025 SCT120 BKN200 26/19 A3004 NOSIG=
201204051700 METAR MROC 051700Z 27009KT 9999 FEW025 SCT120 BKN250 26/19 A3001 NOSIG=
201204051800 METAR MROC 051800Z 24010KT 9999 FEW030 SCT120 BKN250 26/20 A2998 NOSIG=
201204051900 METAR MROC 051900Z 23009KT 9999 SCT030 BKN200 26/19 A2997 NOSIG=
201204052000 METAR MROC 052000Z 26012KT 9999 SCT030 BKN200 27/20 A2993 NOSIG=
201204052100 METAR MROC 052100Z 23010KT 9999 SCT030 BKN200 27/20 A2992 NOSIG=
201204052200 METAR MROC 052200Z 22008KT 9999 FEW020TCU FEW030 BKN200 25/20 A2991 BECMG -SHRA=
201204052300 METAR MROC 052300Z 25007KT 9999 5000N -SHRA FEW015CB SCT025 BKN200 24/20 A2993 BECMG 7000=
201204060000 METAR MROC 060000Z 08003KT 9999 2000W RA FEW008 SCT020 BKN100 23/20 A2995 NOSIG=
201204060100 METAR MROC 060100Z 05003KT 9999 FEW015 SCT025 BKN100 22/20 A2999 RERA NOSIG=
201204060200 METAR MROC 060200Z 09002KT 9999 FEW015 SCT025 BKN100 22/20 A3001 NOSIG=
201204060300 METAR MROC 060300Z 08002KT 9999 SCT025 BKN100 21/19 A3002 NOSIG=
201204060400 METAR MROC 060400Z 04003KT 9999 FEW020 SCT030 21/19 A3003 NOSIG=
201204060500 METAR MROC 060500Z 07002KT 9999 SCT025 20/18 A3002 NOSIG=
201204060600 METAR MROC 060600Z 06002KT 9999 FEW020 SCT025 20/17 A3000 NOSIG=
201204060700 METAR MROC 060700Z 04003KT 9999 FEW025 SCT120 20/17 A2998 NOSIG=
201204060800 METAR MROC 060800Z 09004KT 9999 FEW025 SCT120 19/16 A2997 NOSIG=
201204060900 METAR MROC 060900Z 06004KT CAVOK 18/16 A2997 NOSIG=
201204061000 METAR MROC 061000Z 11005KT CAVOK 18/16 A2997 NOSIG=
201204061100 METAR MROC 061100Z 08004KT CAVOK 17/15 A2999 NOSIG=
201204061200 METAR MROC 061200Z 06006KT CAVOK 17/14 A2999 NOSIG=
201204061300 METAR MROC 061300Z 08004KT CAVOK 21/14 A3001 NOSIG=
201204061400 METAR COR MROC 061400Z 11005KT CAVOK 25/17 A3002 NOSIG=
201204061500 METAR COR MROC 061500Z 08007KT CAVOK 26/16 A3003 BECMG 22006KT=
201204061600 METAR MROC 061600Z 10005KT 9999 FEW045 BKN250 28/13 A3003 BECMG 24007KT=
201204061700 METAR MROC 061700Z 22007KT 9999 SCT035 SCT250 29/17 A3002 NOSIG=
201204061800 METAR MROC 061800Z 23010KT 9999 SCT035 SCT250 29/17 A3000 NOSIG=
201204061900 METAR MROC 061900Z 23011KT 9999 FEW020TCU FEW035 SCT250 29/18 A2996 NOSIG=
201204062000 METAR MROC 062000Z 22011KT 9999 VCSH FEW020TCU FEW030 SCT250 28/19 A2994 BECMG RA=
201204062100 METAR MROC 062100Z 19007KT 9999 VCSH FEW010TCU SCT030 SCT250 27/18 A2995 BECMG TS RA=
201204062200 METAR MROC 062200Z 13005KT 9999 3000SW -RA BR FEW001 SCT020 BKN100 21/19 A2994 BECMG 24007KT=
201204062300 METAR MROC 062300Z 04002KT 9999 DZ SCT020 OVC100 21/19 A2995 NOSIG=
201204070000 METAR MROC 070000Z 31003KT 9999 FEW030 BKN100 22/20 A2998 NOSIG=
201204070100 METAR MROC 070100Z 32003KT 9999 FEW030 BKN100 22/19 A3000 NOSIG=
201204070200 METAR MROC 070200Z 00000KT 9999 FEW030 SCT100 22/20 A3003 NOSIG=
201204070300 METAR MROC 070300Z 00000KT 9999 FEW030 BKN100 21/20 A3004 NOSIG=
201204070400 METAR MROC 070400Z 00000KT 9999 FEW030 BKN100 21/20 A3004 NOSIG=
201204070500 METAR MROC 070500Z 04005KT 9999 FEW030 SCT180 21/19 A3002 NOSIG=
201204070600 METAR MROC 070600Z 03008KT CAVOK 20/18 A3000 NOSIG=
201204070700 METAR MROC 070700Z 08007KT CAVOK 20/17 A2998 NOSIG=
201204070800 METAR MROC 070800Z 07009KT CAVOK 20/17 A2997 NOSIG=
201204070900 METAR MROC 070900Z 06006KT CAVOK 19/16 A2997 NOSIG=
201204071000 METAR MROC 071000Z 06008KT CAVOK 19/16 A2998 NOSIG=
201204071100 METAR MROC 071100Z 03007KT CAVOK 18/16 A3000 NOSIG=
201204071200 METAR MROC 071200Z 05009KT CAVOK 20/16 A3001 NOSIG=
201204071300 METAR MROC 071300Z 08006KT CAVOK 23/16 A3003 NOSIG=
201204071400 METAR MROC 071400Z 10008KT CAVOK 25/16 A3005 NOSIG=
201204071500 METAR MROC 071500Z 11009KT CAVOK 26/15 A3006 NOSIG=
201204071600 METAR MROC 071600Z 23009KT CAVOK 26/19 A3007 NOSIG=
201204071700 METAR MROC 071700Z 24010KT 9999 FEW040 SCT120 BKN250 26/19 A3006 NOSIG=
201204071800 METAR MROC 071800Z 25008KT 9999 FEW040 BKN250 27/20 A3003 NOSIG=
201204071900 METAR MROC 071900Z 24008KT 9999 FEW040 BKN250 28/19 A3001 NOSIG=
201204072000 METAR MROC 072000Z 23007KT 9999 FEW040 SCT250 29/20 A2997 NOSIG=
201204072100 METAR MROC 072100Z 24012KT 9999 VCTS VCSH FEW015CB SCT030 28/20 A2995 BECMG 5000 -TSRA SCT015CB BKN025=
201204072200 METAR MROC 072200Z 22010KT 9999 -RA FEW015CB SCT035 BKN120 24/20 A2997 NOSIG=
201204072300 METAR MROC 072300Z 19004KT 9999 FEW020 SCT035 BKN120 23/20 A2999 NOSIG=
201204080000 METAR MROC 080000Z 22004KT 9999 SCT020 BKN030 22/20 A3001 BECMG 7000 RA=
201204080100 METAR MROC 080100Z 23007KT 8000 -RA SCT020 BKN030 22/21 A3004 NOSIG=
201204080200 METAR MROC 080200Z 00000KT 5000 DZ SCT010 BKN030 21/21 A3007 BECMG 7000=
201204080300 METAR MROC 080300Z 30005KT 5000 2500SW BR SCT002 BKN015 20/20 A3010 NOSIG=
201204080400 METAR MROC 080400Z 30003KT 6000 SCT008 BKN018 20/19 A3010 NOSIG=
201204080500 METAR MROC 080500Z 12003KT 6000 SCT006 BKN018 20/19 A3008 NOSIG=
201204080600 METAR MROC 080600Z 10003KT 9000 4500SW SCT015 BKN030 20/19 A3006 NOSIG=
201204080700 METAR MROC 080700Z 07003KT 9000 3000SW SCT015 BKN030 20/19 A3003 NOSIG=
201204080800 METAR MROC 080800Z 03006KT 9999 SCT020 BKN080 21/18 A3001 NOSIG=
201204080900 METAR MROC 080900Z 09004KT 9999 SCT020 SCT080 19/18 A3001 NOSIG=
201204081000 METAR MROC 081000Z 07005KT 9999 FEW020 BKN080 19/18 A3001 NOSIG=
201204081100 METAR MROC 081100Z 06003KT 9999 FEW030 BKN060 19/18 A3002 NOSIG=
201204081200 METAR MROC 081200Z 05003KT 9999 FEW030 SCT060 BKN120 20/18 A3002 NOSIG=
201204081300 METAR MROC 081300Z 18003KT 9999 SCT035 BKN045 21/18 A3005 NOSIG=
201204081400 METAR MROC 081400Z 19002KT 9999 FEW035 SCT100 BKN250 24/18 A3006 NOSIG=
201204081500 METAR MROC 081500Z 31007KT 9999 SCT035 BKN250 25/17 A3008 NOSIG=
201204081600 METAR MROC 081600Z 10009KT 9999 SCT035 BKN250 25/16 A3007 NOSIG=
201204081700 METAR MROC 081700Z 09009KT 9999 SCT035 BKN250 27/15 A3006 NOSIG=
201204081800 METAR MROC 081800Z 12011KT 9999 FEW030 SCT045 BKN250 27/16 A3003 NOSIG=
201204081900 METAR MROC 081900Z 11011KT 9999 FEW035 SCT045 BKN250 27/15 A3001 NOSIG=
201204082000 METAR MROC 082000Z 11013KT 9999 FEW035 SCT045 BKN140 27/14 A2999 NOSIG=
201204082100 METAR MROC 082100Z 11010KT 9999 FEW030 SCT040 BKN250 26/13 A2999 NOSIG=
201204082200 METAR MROC 082200Z 14013KT 9999 FEW030 BKN120 24/15 A3000 NOSIG=
201204082300 METAR MROC 082300Z 11014KT 9999 FEW030 SCT120 BKN250 23/15 A3000 NOSIG=
201204090000 METAR MROC 090000Z 11008KT 9999 FEW030 SCT120 23/15 A3002 NOSIG=
201204090100 METAR MROC 090100Z 10007KT CAVOK 22/14 A3004 NOSIG=
201204090200 METAR MROC 090200Z 09007KT CAVOK 22/15 A3005 NOSIG=
201204090300 METAR MROC 090300Z 10008KT CAVOK 21/14 A3006 NOSIG=
201204090400 METAR MROC 090400Z 06007KT CAVOK 20/14 A3006 NOSIG=
201204090500 METAR MROC 090500Z 03007KT CAVOK 20/11 A3005 NOSIG=
201204090600 METAR MROC 090600Z 08004KT CAVOK 20/11 A3003 NOSIG=
201204090700 METAR MROC 090700Z 02007KT CAVOK 19/12 A3001 NOSIG=
201204090800 METAR MROC 090800Z 06005KT CAVOK 20/12 A2998 NOSIG=
201204090900 METAR MROC 090900Z 07005KT CAVOK 19/12 A2998 NOSIG=
201204091000 METAR MROC 091000Z 07006KT CAVOK 19/12 A2998 NOSIG=
201204091100 METAR MROC 091100Z 03007KT CAVOK 19/12 A2999 NOSIG=
201204091200 METAR MROC 091200Z 06003KT CAVOK 19/13 A3001 NOSIG=
201204091300 METAR MROC 091300Z 09006KT CAVOK 22/14 A3003 NOSIG=
201204091400 METAR MROC 091400Z 12012KT CAVOK 24/15 A3003 NOSIG=
201204091500 METAR MROC 091500Z 12012KT CAVOK 26/15 A3002 NOSIG=
201204091600 METAR MROC 091600Z 12012KT CAVOK 27/14 A3002 NOSIG=
201204091700 METAR MROC 091700Z 10010G20KT CAVOK 28/13 A3000 NOSIG=
201204091800 METAR MROC 091800Z 10010G20KT CAVOK 28/13 A2998 NOSIG=
201204091900 METAR MROC 091900Z 10011KT 9999 FEW040 SCT250 28/13 A2995 NOSIG=
201204092000 METAR MROC 092000Z 10010KT 9999 FEW040 BKN250 29/13 A2994 NOSIG=
201204092100 METAR MROC 092100Z 09011KT 9999 SCT035 BKN250 29/12 A2992 NOSIG=
201204092200 METAR MROC 092200Z 11009KT 9999 FEW035 BKN250 28/14 A2991 NOSIG=
201204092300 METAR MROC 092300Z 11016KT 9999 FEW035 SCT120 BKN250 26/16 A2992 NOSIG=
201204092353 METAR MROC 100000Z 10013KT 9999 SCT035 BKN250 23/16 A2994 NOSIG=
201204100000 METAR MROC 100000Z 10013KT 9999 SCT035 BKN250 23/16 A2994 NOSIG=
201204100100 METAR MROC 100100Z 08009KT 9999 FEW035 BKN120 22/16 A2998 NOSIG=
201204100200 METAR MROC 100200Z 08010KT 9999 FEW035 SCT120 22/15 A2998 NOSIG=
201204100300 METAR MROC 100300Z 08008KT CAVOK 21/15 A3000 NOSIG=
201204100400 METAR MROC 100400Z 10009KT CAVOK 21/14 A3002 NOSIG=
201204100500 METAR MROC 100500Z 11008KT CAVOK 20/14 A3001 NOSIG=
201204100600 METAR MROC 100600Z 10009KT CAVOK 20/14 A3001 NOSIG=
201204100700 METAR MROC 100700Z 07007KT CAVOK 20/13 A2999 NOSIG=
201204100800 METAR MROC 100800Z 09006KT CAVOK 20/14 A2997 NOSIG=
201204100900 METAR MROC 100900Z 09005KT CAVOK 19/13 A2997 NOSIG=
201204101000 METAR MROC 101000Z 08007KT CAVOK 19/13 A2999 NOSIG=
201204101100 METAR MROC 101100Z 10006KT CAVOK 20/13 A2999 NOSIG=
201204101200 METAR MROC 101200Z 10009KT CAVOK 20/13 A3000 NOSIG=
201204101300 METAR MROC 101300Z 10016KT CAVOK 21/14 A3002 NOSIG=
201204101400 METAR MROC 101400Z 11010G20KT CAVOK 23/14 A3004 NOSIG=
201204101500 METAR MROC 101500Z 10019KT CAVOK 25/13 A3003 NOSIG=
201204101600 METAR MROC 101600Z 10013KT 9999 FEW035 27/12 A3003 NOSIG=
201204101700 METAR MROC 101700Z 11017KT 9999 FEW035 SCT250 28/11 A3001 NOSIG=
201204101800 METAR MROC 101800Z 11014KT 9999 FEW035 SCT250 29/13 A2999 NOSIG=
201204101900 METAR MROC 101900Z 12012KT 9999 FEW035 BKN250 29/11 A2996 NOSIG=
201204102000 METAR MROC 102000Z 14011KT 9999 FEW035 BKN250 30/11 A2994 BECMG 24008KT=
201204102100 METAR MROC 102100Z 14006KT 9999 FEW030 BKN250 28/13 A2994 BECMG 23007KT=
201204102200 METAR MROC 102200Z 20006KT 9999 VCSH FEW020TCU FEW030 BKN250 28/14 A2994 BECMG 15006KT=
201204102300 METAR MROC 102300Z 19007KT 9999 VCSH FEW025 BKN250 24/18 A2995 NOSIG=
201204110000 MROC 110000Z 16005KT 9999 VCSH FEW025 BKN250 23/16 A2998 NOSIG=
201204110100 METAR MROC 110100Z 14007KT 9999 SCT030 22/16 A3000 NOSIG=
201204110200 METAR MROC 110200Z 08004KT 9999 SCT035 22/16 A3003 NOSIG=
201204110300 METAR MROC 110300Z 08004KT CAVOK 21/16 A3005 NOSIG=
201204110400 METAR MROC 110400Z 09005KT CAVOK 21/16 A3006 NOSIG=
201204110500 METAR MROC 110500Z 07007KT CAVOK 20/15 A3005 NOSIG=
201204110600 METAR MROC 110600Z 07004KT CAVOK 20/15 A3004 NOSIG=
201204110700 METAR MROC 110700Z 08005KT CAVOK 20/15 A3002 NOSIG=
201204110800 METAR MROC 110800Z 04006KT CAVOK 19/15 A3000 NOSIG=
201204110900 METAR MROC 110900Z 09007KT CAVOK 20/15 A3001 NOSIG=
201204111000 METAR MROC 111000Z 09007KT CAVOK 20/15 A3002 NOSIG=
201204111100 METAR MROC 111100Z 06005KT CAVOK 18/15 A3004 NOSIG=
201204111200 METAR MROC 111200Z 08004KT CAVOK 20/14 A3005 NOSIG=
201204111300 METAR MROC 111300Z 08005KT CAVOK 21/14 A3008 NOSIG=
201204111400 METAR MROC 111400Z 07006KT CAVOK 23/13 A3010 NOSIG=
201204111500 METAR MROC 111500Z 10010KT CAVOK 24/12 A3010 NOSIG=
201204111600 METAR MROC 111600Z 10007KT CAVOK 26/12 A3009 NOSIG=
201204111700 METAR MROC 111700Z 10007KT 9999 FEW045 SCT250 28/12 A3008 NOSIG=
201204111800 METAR MROC 111800Z 08005KT 9999 FEW040 SCT250 28/12 A3005 BECMG 22006KT=
201204111900 METAR MROC 111900Z 23009KT 9999 SCT030 BKN200 27/16 A3003 NOSIG=
201204112000 METAR MROC 112000Z 21011KT 9999 VCSH FEW020TCU FEW035 BKN200 26/19 A3002 BECMG -SHRA=
201204112100 METAR MROC 112100Z 20009KT 9999 VCSH FEW010TCU SCT035 BKN200 26/19 A3001 BECMG -SHRA=
201204112200 METAR MROC 112200Z 21004KT 9999 VCSH FEW010TCU SCT030 BKN200 24/19 A3002 NOSIG=
201204112300 METAR MROC 112300Z 21007KT 9999 SCT030 BKN200 23/19 A3003 NOSIG=
201204120000 METAR MROC 120000Z 23007KT 9999 SCT030 BKN200 23/18 A3004 NOSIG=
201204120100 METAR MROC 120100Z 22002KT 9999 SCT030 BKN200 21/19 A3006 NOSIG=
201204120200 METAR MROC 120200Z 00000KT 9999 SCT030 SCT200 21/19 A3007 NOSIG=
201204120300 METAR MROC 120300Z 00000KT 9999 FEW035 SCT250 21/18 A3008 NOSIG=
201204120400 METAR MROC 120400Z 16002KT 9999 FEW035 20/18 A3009 NOSIG=
201204120500 METAR MROC 120500Z 09004KT CAVOK 20/17 A3008 NOSIG=
201204120600 METAR MROC 120600Z 06009KT CAVOK 19/16 A3007 NOSIG=
201204120700 METAR MROC 120700Z 04007KT CAVOK 19/15 A3004 NOSIG=
201204120800 METAR MROC 120800Z 04010KT CAVOK 19/15 A3003 NOSIG=
201204120900 METAR MROC 120900Z 06009KT CAVOK 18/14 A3002 NOSIG=
201204121000 METAR MROC 121000Z 06006KT CAVOK 18/13 A3004 NOSIG=
201204121100 METAR MROC 121100Z 04010KT CAVOK 18/12 A3004 NOSIG=
201204121200 METAR MROC 121200Z 06010KT CAVOK 18/12 A3005 NOSIG=
201204121300 METAR MROC 121300Z 07004KT CAVOK 21/12 A3007 NOSIG=
201204121400 METAR MROC 121400Z 06006KT CAVOK 25/12 A3009 NOSIG=
201204121500 METAR MROC 121500Z 10006KT CAVOK 27/11 A3008 NOSIG=
201204121600 METAR MROC 121600Z 13006KT CAVOK 29/11 A3007 NOSIG=
201204121700 METAR MROC 121700Z 14005KT CAVOK 29/09 A3006 NOSIG=
201204121800 METAR MROC 121800Z 15006KT 9999 FEW040 SCT120 30/14 A3004 NOSIG=
201204121900 METAR MROC 121900Z 25009KT 9999 SCT040 29/15 A3001 NOSIG=
201204122000 METAR MROC NIL=
201204122100 METAR MROC 122100Z 22013KT 9999 FEW020TCU SCT035 28/19 A2998 NOSIG=
201204122200 METAR MROC 122200Z 20009KT 9999 FEW020TCU BKN035 26/19 A2999 NOSIG=
201204122300 METAR MROC 122300Z 19006KT 9999 SCT020 BKN035 25/19 A3000 NOSIG=
201204130000 METAR MROC 130000Z 17005KT 9999 FEW020 BKN035 24/16 A3003 NOSIG=
201204130100 METAR MROC 130100Z 13003KT 9999 SCT035 23/16 A3005 NOSIG=
201204130200 METAR MROC 130200Z 11007KT 9999 SCT035 22/16 A3007 NOSIG=
201204130300 METAR MROC 130300Z 09006KT 9999 SCT040 21/15 A3008 NOSIG=
201204130400 METAR MROC 130400Z 07005KT CAVOK 21/13 A3009 NOSIG=
201204130500 METAR MROC 130500Z 09004KT CAVOK 20/12 A3008 NOSIG=
201204130600 METAR MROC 130600Z 06005KT CAVOK 20/13 A3006 NOSIG=
201204130700 METAR MROC 130700Z 06005KT CAVOK 19/12 A3004 NOSIG=
201204130800 METAR MROC 130800Z 06004KT CAVOK 18/12 A3003 NOSIG=
201204130900 METAR MROC 130900Z 09004KT CAVOK 18/12 A3003 NOSIG=
201204131000 METAR MROC 131000Z 09004KT CAVOK 16/13 A3004 NOSIG=
201204131100 METAR MROC 131100Z 07005KT CAVOK 17/12 A3005 NOSIG=
201204131200 METAR MROC 131200Z 09006KT CAVOK 17/12 A3006 NOSIG=
201204131300 METAR MROC 131300Z 11004KT CAVOK 21/11 A3004 NOSIG=
201204131400 METAR MROC 131400Z 09003KT CAVOK 24/12 A3010 NOSIG=
201204131500 METAR MROC 131500Z 17003KT CAVOK 26/11 A3009 BECMG 24006KT=
201204131600 METAR MROC 131600Z 25007KT 9999 FEW040 27/13 A3009 NOSIG=
201204131700 METAR MROC 131700Z 23008KT 9999 FEW040 28/15 A3007 NOSIG=
201204131800 METAR MROC 131800Z 23008KT 9999 FEW040 28/14 A3005 NOSIG=
201204131900 METAR MROC 131900Z 26010KT 9999 SCT040 29/14 A3001 NOSIG=
201204132000 METAR MROC 132000Z 26012KT 9999 FEW025TCU SCT040 28/16 A2999 NOSIG=
201204132100 METAR MROC 132100Z 23012KT 9999 FEW025TCU SCT040 29/18 A2998 NOSIG=
201204132200 METAR MROC 132200Z 23009KT 9999 FEW030 SCT100 28/17 A2997 NOSIG=
201204132300 METAR MROC 132300Z 17004KT 9999 SCT030 SCT100 26/16 A2999 BECMG 07004KT=
201204140000 METAR MROC 140000Z 14004KT 9999 SCT035 SCT100 24/16 A3001 NOSIG=
201204140100 METAR MROC 140100Z 14004KT 9999 FEW025 SCT100 23/16 A3003 NOSIG=
201204140200 METAR MROC NIL=
201204140300 METAR MROC 140300Z 06006KT 9999 CAVOK 22/16 A3008 NOSIG=
201204140400 METAR MROC 140400Z 09003KT CAVOK 21/16 A3010 NOSIG=
201204140500 METAR MROC 140500Z 08003KT CAVOK 20/16 A3010 NOSIG=
201204140600 METAR MROC 140600Z 06002KT CAVOK 20/14 A3008 NOSIG=
201204140700 METAR MROC 140700Z 07004KT CAVOK 19/14 A3005 NOSIG=
201204140800 METAR MROC 140800Z 07006KT CAVOK 19/14 A3003 NOSIG=
201204140900 METAR MROC 140900Z 06007KT CAVOK 19/14 A3002 NOSIG=
201204141000 METAR MROC 141000Z 06007KT CAVOK 18/14 A3003 NOSIG=
201204141100 METAR MROC NIL=
201204141200 METAR MROC 141200Z 07005KT CAVOK 19/14 A3005 NOSIG=
201204141300 METAR MROC 141300Z 10008KT CAVOK 22/14 A3007 NOSIG=
201204141400 METAR MROC 141400Z 12008KT CAVOK 25/14 A3009 NOSIG=
201204141500 METAR MROC 141500Z 10010KT CAVOK 26/11 A3008 NOSIG=
201204141600 METAR MROC 141600Z 13008KT CAVOK 29/13 A3007 NOSIG=
201204141700 METAR MROC 141700Z 11006KT CAVOK 29/12 A3005 BECMG 22006KT=
201204141800 METAR MROC 141800Z 21006KT 9999 FEW040 SCT250 29/15 A3002 NOSIG=
201204141900 METAR MROC 141900Z 20006KT 9999 FEW035TCU SCT250 29/16 A2999 NOSIG=
201204142000 METAR MROC 142000Z 24007KT 9999 FEW030TCU SCT250 28/16 A2996 NOSIG=
201204142100 METAR MROC 142100Z 21010KT 9999 FEW020TCU SCT035 SCT250 26/19 A2995 BECMG 7000 -TSRA=
201204142200 METAR MROC 142200Z 23010KT 9999 SCT035 SCT250 27/19 A2994 NOSIG=
201204142300 METAR MROC 142300Z 21012KT 9999 VCSH FEW020 SCT035 BKN200 25/19 A2995 NOSIG=
201204142352 METAR MROC 150000Z 16010KT 9999 VCSH FEW020 SCT035 BKN200 24/17 A2997 NOSIG=
201204150000 METAR MROC 150000Z 16010KT 9999 VCSH FEW020 SCT035 BKN200 24/17 A2997 NOSIG=
201204150100 METAR MROC 150100Z 09008KT 9999 FEW030 BKN100 23/17 A3001 NOSIG=
201204150200 METAR MROC 150200Z 10011KT 9999 FEW030 SCT250 22/16 A3002 NOSIG=
201204150300 METAR MROC 150300Z 08007KT CAVOK 21/15 A3004 NOSIG=
201204150400 METAR MROC 150400Z 06004KT CAVOK 20/15 A3006 NOSIG=
201204150500 METAR MROC 150500Z 08004KT CAVOK 20/15 A3005 NOSIG=
201204150600 METAR MROC 150600Z 04006KT CAVOK 19/15 A3003 NOSIG=
201204150700 METAR MROC 150700Z 08004KT CAVOK 21/13 A3000 NOSIG=
201204150800 METAR MROC 150800Z 07007KT CAVOK 20/13 A2999 NOSIG=
201204150900 METAR MROC 150900Z 06005KT CAVOK 20/14 A2998 NOSIG=
201204151000 METAR MROC 151000Z 10005KT CAVOK 20/14 A2998 NOSIG=
201204151100 METAR MROC 151100Z 09007KT CAVOK 21/13 A2999 NOSIG=
201204151200 METAR MROC 151200Z 09007KT CAVOK 21/13 A3000 NOSIG=
201204151300 METAR MROC 151300Z 11011KT CAVOK 23/13 A3002 NOSIG=
201204151400 METAR MROC 151400Z 11013KT CAVOK 24/13 A3003 NOSIG=
201204151500 METAR MROC 151500Z 10012KT CAVOK 26/13 A3003 NOSIG=
201204151600 METAR MROC 151600Z 11009KT CAVOK 28/13 A3003 RMK SCT250 NOSIG=
201204151700 METAR MROC 151700Z 12007KT 9999 FEW045 BKN250 29/13 A3002 NOSIG=
201204151800 METAR MROC 151800Z 12007KT 9999 FEW040 BKN250 20/14 A3000 BECMG 24006KT=
201204151900 METAR MROC 151900Z 12007KT 9999 SCT035 SCT250 30/14 A2997 NOSIG=
201204152000 METAR MROC 152000Z 13006KT 9999 SCT030 SCT250 29/15 A2995 BECMG 23006KT=
201204152100 METAR MROC 152100Z 11009KT 9999 SCT030 SCT250 29/15 A2993 NOSIG=
201204152200 METAR MROC 152200Z 12007KT 9999 VCSH FEW020TCU FEW030 SCT250 27/16 A2992 BECMG 22006KT=
201204152300 METAR MROC 152300Z 11010KT 9999 FEW025 SCT250 26/16 A2992 NOSIG=
201204160000 METAR MROC 160000Z 11009KT 9999 FEW025 SCT060 24/16 A2994 NOSIG=
201204160100 METAR MROC 160100Z 10004KT 9999 FEW030 SCT050 BKN250 23/16 A2998 NOSIG=
201204160200 METAR MROC 160200Z 11007KT 9999 FEW045 SCT250 22/18 A2999 NOSIG=
201204160300 METAR MROC 160300Z 08007KT CAVOK 22/17 A3002 NOSIG=
201204160400 METAR MROC 160400Z 09004KT CAVOK 22/15 A3002 NOSIG=
201204160500 METAR MROC 160500Z 09005KT CAVOK 21/16 A3001 NOSIG=
201204160600 METAR MROC 160600Z 09010KT CAVOK 21/16 A3000 NOSIG=
201204160700 METAR MROC 160700Z 09005KT CAVOK 21/16 A2998 NOSIG=
201204160800 METAR MROC 160800Z 10008KT CAVOK 21/15 A2996 NOSIG=
201204160900 METAR MROC 160900Z 01003KT CAVOK 20/16 A2997 NOSIG=
201204161000 METAR MROC 161000Z 09004KT CAVOK 19/16 A2998 NOSIG=
201204161100 METAR MROC 161100Z 10006KT CAVOK 21/16 A2999 NOSIG=
201204161200 METAR MROC 161200Z 07006KT CAVOK 21/15 A3001 NOSIG=
201204161300 METAR MROC 161300Z 06008KT CAVOK 23/15 A3003 NOSIG=
201204161400 METAR MROC 161400Z 07008KT CAVOK 25/15 A3004 NOSIG=
201204161500 METAR MROC 161500Z 20006KT CAVOK 27/15 A3004 NOSIG=
201204161600 METAR MROC 161600Z 23006KT 9999 FEW035 BKN250 29/16 A3003 NOSIG=
201204161700 METAR MROC 161700Z 20008KT 9999 SCT035 BKN250 29/16 A3001 NOSIG=
201204161800 METAR MROC 161800Z 24015KT 9999 SCT035 BKN250 29/18 A3000 NOSIG=
201204161900 METAR MROC 161900Z 22014KT 9999 SCT035 BKN250 29/18 A2996 NOSIG=
201204162000 METAR MROC 162000Z 21016KT 9999 VCSH FEW020TCU SCT035 SCT100 28/20 A2995 BECMG 7000 -SHRA=
201204162100 METAR MROC 162100Z 20007KT 3000 -SHRA BR VCTS FEW004 BKN020 21/20 A2996 BECMG 5000 -RA=
201204162200 METAR MROC 162200Z 11005KT 8000 FEW020 BKN100 22/20 A2995 NOSIG=
201204162300 METAR MROC 162300Z 07006KT 9999 FEW020 BKN100 22/19 A2996 NOSIG=
201204170000 METAR MROC 170000Z 22003KT 9999 -RA SCT020 BKN100 22/19 A2999 BECMG 8000=
201204170100 METAR MROC 170100Z 11002KT 9999 -DZ SCT020 BKN100 22/19 A3000 BECMG 8000=
201204170200 METAR MROC 170200Z 00000KT 9999 FEW020 BKN100 22/20 A3001 NOSIG=
201204170300 METAR MROC 170300Z 10003KT 9999 FEW030 BKN100 22/20 A3004 NOSIG=
201204170400 METAR MROC 170400Z 08004KT 9999 FEW030 BKN100 21/19 A3004 NOSIG=
201204170500 METAR MROC 170500Z 06008KT CAVOK 21/18 A3003 NOSIG=
201204170600 METAR MROC 170600Z 09008KT CAVOK 21/17 A3002 NOSIG=
201204170700 METAR MROC 170700Z 04005KT CAVOK 21/17 A3000 NOSIG=
201204170800 METAR MROC 170800Z 06007KT CAVOK 21/17 A2998 NOSIG=
201204170900 METAR MROC 170900Z 06003KT CAVOK 21/18 A2997 NOSIG=
201204171000 METAR MROC 171000Z 11003KT CAVOK 21/17 A2998 NOSIG=
201204171100 METAR MROC 171100Z 07006KT CAVOK 21/17 A2999 NOSIG=
201204171200 METAR MROC 171200Z 07006KT CAVOK 21/16 A3001 NOSIG=
201204171300 METAR MROC 171300Z 06006KT CAVOK 23/17 A3004 NOSIG=
201204171400 METAR MROC 171400Z 09005KT CAVOK 25/17 A3005 NOSIG=
201204171500 METAR MROC 171500Z 07003KT 9999 FEW040 SCT120 BKN250 26/18 A3004 BECMG 24010KT=
201204171600 METAR MROC 171600Z 25006KT 9999 FEW040 SCT120 BKN250 26/18 A3005 NOSIG=
201204171700 METAR MROC 171700Z 21008KT 9999 SCT030 SCT120 28/19 A3004 NOSIG=
201204171800 METAR MROC 171800Z 26007KT 9999 TSRA FEW010CB BKN030 26/19 A3002 BECMG 6000=
201204171900 METAR MROC 171900Z 27006KT 8000 -TSRA SCT030 BKN100 21/18 A3000 NOSIG=
201204172000 METAR MROC 172000Z 21006KT 5000 BR FEW002 SCT020 BKN100 21/20 A3000 NOSIG=
201204172100 METAR MROC 172100Z 20006KT 9999 -RA SCT040 BKN100 20/19 A2999 NOSIG=
201204172200 METAR MROC NIL=
201204172300 METAR MROC 172300Z 03004KT 9999 FEW045 BKN100 21/19 A3000 NOSIG=
201204180000 METAR MROC 180000Z 10002KT 9999 -RA FEW045 BKN100 20/19 A3002 NOSIG=
201204180100 METAR MROC 180100Z 08002KT 9999 -RA FEW045 BKN100 20/19 A3003 NOSIG=
201204180200 METAR MROC 180200Z 06003KT 9999 FEW045 BKN100 20/18 A3004 NOSIG=
201204180300 METAR MROC 180300Z 09003KT 9999 FEW030 BKN080 20/18 A3004 NOSIG=
201204180400 METAR MROC 180400Z 07005KT 9999 FEW030 BKN100 20/17 A3003 NOSIG=
201204180500 METAR MROC 180500Z 07005KT 9999 FEW035 SCT100 21/16 A3001 NOSIG=
201204180600 METAR MROC 180600Z 05003KT CAVOK 21/16 A3001 NOSIG=
201204180700 METAR MROC 180700Z 07006KT 9999 -RA FEW025 BKN100 20/16 A2991 NOSIG=
201204180800 METAR MROC 180800Z 06004KT 9999 FEW030 BKN100 20/16 A2998 NOSIG=
201204180900 METAR MROC 180900Z 04003KT 9999 FEW035 BKN100 19/16 A2998 NOSIG=
201204181000 METAR MROC 181000Z 10003KT 9999 FEW035 SCT120 19/16 A2999 NOSIG=
201204181100 METAR MROC 181100Z 04005KT CAVOK 18/16 A3000 NOSIG=
201204181200 METAR MROC 181200Z 05005KT CAVOK 19/16 A3002 RMK SCT250 NOSIG=
201204181300 METAR MROC 181300Z 11002KT CAVOK 22/17 A3005 NOSIG=
201204181400 METAR MROC 181400Z 24002KT CAVOK 24/17 A3007 NOSIG=
201204181500 METAR MROC 181500Z 25003KT CAVOK 26/17 A3007 NOSIG=
201204181600 METAR MROC 181600Z 24006KT 9999 FEW035 BKN250 26/17 A3007 NOSIG=
201204181700 METAR MROC 181700Z 24006KT 9999 SCT030 SCT250 27/19 A3005 NOSIG=
201204181800 METAR MROC 181800Z 24010KT 9999 SCT030 SCT250 27/19 A3002 NOSIG=
201204181900 METAR MROC 181900Z 24010KT 9999 SCT030 BKN250 26/20 A2998 NOSIG=
201204182000 METAR MROC 182000Z 24012KT 9999 SCT025 BKN250 25/19 A2998 NOSIG=
201204182100 METAR MROC 182100Z 27004KT 9999 FEW020 SCT030 BKN250 24/19 A2997 BECMG -RA=
201204182200 METAR MROC 182200Z 00000KT 9999 FEW015 SCT030 BKN250 23/21 A2997 NOSIG=
201204182300 METAR MROC 182300Z 00000KT 9999 FEW015 SCT030 BKN120 22/21 A2998 NOSIG=
201204190000 METAR MROC 190000Z 11004KT CAVOK 22/18 A2997 NOSIG=
201204190100 METAR MROC 190100Z 06004KT 9999 FEW025 SCT120 22/18 A2999 NOSIG=
201204190200 METAR MROC 190200Z 11003KT CAVOK 22/17 A3000 NOSIG=
201204190300 METAR MROC 190300Z 08004KT CAVOK 21/18 A3002 NOSIG=
201204190400 METAR MROC 190400Z 05003KT CAVOK 20/17 A3003 NOSIG=
201204190500 METAR MROC 190500Z 00000KT CAVOK 20/17 A3003 NOSIG=
201204190600 METAR MROC 190600Z 11003KT CAVOK 20/16 A3002 NOSIG=
201204190700 METAR MROC 190700Z 06003KT CAVOK 19/16 A3000 NOSIG=
201204190800 METAR MROC 190800Z 03005KT CAVOK 19/16 A2997 NOSIG=
201204190900 METAR MROC 190900Z 05004KT CAVOK 18/16 A2996 NOSIG=
201204191000 METAR MROC 191000Z 08002KT CAVOK 18/15 A2996 NOSIG=
201204191100 METAR MROC 191100Z 07003KT CAVOK 18/15 A2998 NOSIG=
201204191200 METAR MROC 191200Z 06003KT CAVOK 18/16 A2999 NOSIG=
201204191300 METAR MROC 191300Z 08002KT CAVOK 21/17 A3002 NOSIG=
201204191400 METAR MROC 191400Z 00000KT CAVOK 24/17 A3003 NOSIG=
201204191500 METAR MROC 191500Z 22002KT 9999 FEW040 BKN250 27/17 A3004 NOSIG=
201204191600 METAR MROC 191600Z 24006KT 9999 FEW040 BKN250 27/17 A3003 NOSIG=
201204191700 METAR MROC 191700Z 25008KT 9999 SCT035 SCT250 28/18 A3001 NOSIG=
201204191800 METAR MROC 191800Z 24010KT 9999 SCT035 SCT250 28/19 A2998 NOSIG=
201204191900 METAR MROC 191900Z 22010KT 9999 FEW020 SCT030TCU 28/19 A2996 NOSIG=
201204192000 METAR MROC 192000Z 23009KT 9999 VCSH SCT015 SCT025TCU 24/19 A2994 BECMG RA=
201204192100 METAR MROC 192100Z 28008KT 3000 -TSRA FEW005 SCT015CB BKN035 21/19 A2995 NOSIG=
201204192200 METAR MROC 192200Z 25002KT 8000 VCSH FEW010 SCT025 BKN120 21/19 A2993 NOSIG=
201204192300 METAR MROC 192300Z 14003KT 9999 FEW025 SCT120 BKN250 22/19 A2994 NOSIG=
201204192353 METAR MROC 200000Z 12004KT 9999 3500NW FEW025 SCT120 BKN250 21/20 A2996 NOSIG=
201204200000 METAR MROC 200000Z 12004KT 9999 3500NW FEW025 SCT120 BKN250 21/20 A2996 NOSIG=
201204200100 METAR MROC 200100Z 12003KT 9999 FEW025 SCT120 21/19 A2998 NOSIG=
201204200200 METAR MROC 200200Z 04002KT 9999 FEW025 SCT120 21/19 A2999 NOSIG=
201204200300 METAR MROC 200300Z 07005KT CAVOK 21/18 A3000 NOSIG=
201204200400 METAR MROC 200400Z 06005KT CAVOK 21/17 A3000 NOSIG=
201204200500 METAR MROC 200500Z 11003KT CAVOK 20/17 A2999 NOSIG=
201204200600 METAR MROC 200600Z 08003KT CAVOK 20/17 A2998 NOSIG=
201204200700 METAR MROC 200700Z 07003KT CAVOK 19/17 A2996 NOSIG=
201204200800 METAR MROC 200800Z 08004KT CAVOK 19/17 A2994 NOSIG=
201204200900 METAR MROC 200900Z 08003KT CAVOK 18/16 A2993 NOSIG=
201204201000 METAR MROC 201000Z 10005KT CAVOK 18/16 A2995 NOSIG=
201204201100 METAR MROC 201100Z 08004KT CAVOK 18/16 A2995 NOSIG=
201204201200 METAR MROC 201200Z 08005KT 9999 SCT015 SCT250 19/16 A2998 NOSIG=
201204201300 METAR MROC 201300Z 08006KT CAVOK 21/17 A2998 NOSIG=
201204201400 METAR MROC 201400Z 13004KT CAVOK 25/18 A3001 BECMG 24006KT=
201204201500 METAR MROC 201500Z 21005KT 9999 FEW030 SCT250 26/18 A3003 NOSIG=
201204201600 METAR MROC 201600Z 24009KT 9999 SCT030 SCT250 26/18 A3001 NOSIG=
201204201700 METAR MROC 201700Z 24010KT 9999 SCT030 BKN250 27/18 A3001 NOSIG=
201204201800 METAR MROC 201800Z 22013KT 9999 SCT030 BKN250 27/19 A2998 NOSIG=
201204201900 METAR MROC 201900Z 21013KT 9999 FEW020TCU SCT030 BKN250 27/20 A2995 BECMG 6000 -TSRA=
201204202000 METAR MROC 202000Z 24021KT 9999 VCSH FEW010TCU SCT020 BKN100 24/19 A2995 BECMG 7000 -TSRA=
201204202100 METAR MROC 202100Z 23006KT 9999 4000W -SHRA FEW010TCU SCT020 BKN100 23/20 A2993 BECMG 7000 -TSRA=
201204202200 METAR MROC 202200Z 29008KT 9000 2000NW -SHRA FEW005 FEW015TCU BKN100 22/20 A2992 BECMG 7000 -RA BKN020=
201204202300 METAR MROC 202300Z 33005KT 9999 -RA VCSH FEW010 SCT020 BKN100 21/19 A2994 NOSIG=
201204210000 METAR MROC 210000Z 30004KT 9999 VCSH FEW005 SCT015 BKN080 22/19 A2996 NOSIG=
201204210100 METAR MROC 210100Z 19005KT 7000 4000SW RA FEW004 BKN020 21/19 A2998 BECMG 5000 BR=
201204210200 METAR MROC 210200Z 16002KT 8000 4000SW DZ FEW005 SCT020 BKN080 20/19 A3000 NOSIG=
201204210300 METAR MROC 210300Z 30003KT 9999 -DZ FEW005 SCT015 21/20 A3002 NOSIG=
201204210400 METAR MROC 210400Z 03002KT 9999 FEW005 SCT025 SCT070 21/20 A3002 NOSIG=
201204210500 METAR MROC 210500Z 00000KT 9999 SCT025 SCT120 20/20 A3002 NOSIG=
201204210600 METAR MROC 210600Z 00000KT 9999 FEW006 SCT025 20/20 A2999 NOSIG=
201204210700 METAR MROC 210700Z 09002KT 9999 4000SW BR FEW003 SCT025 20/20 A2997 NOSIG=
201204210800 METAR MROC 210800Z 07003KT 9999 FEW025 SCT120 19/18 A2995 NOSIG=
201204210900 METAR MROC 210900Z 05003KT CAVOK 19/19 A2995 NOSIG=
201204211000 METAR MROC 211000Z 09004KT CAVOK 19/19 A2994 NOSIG=
201204211100 METAR MROC 211100Z 06005KT CAVOK 18/18 A2996 NOSIG=
201204211200 METAR MROC 211200Z 10004KT CAVOK 19/16 A2997 NOSIG=
201204211300 METAR MROC 211300Z 10004KT CAVOK 22/17 A3000 NOSIG=
201204211400 METAR MROC 211400Z 11002KT 9999 FEW045 25/17 A3002 BECMG 22005KT=
201204211500 METAR MROC 211500Z 26005KT 9999 FEW040 25/18 A3003 NOSIG=
201204211600 METAR MROC 211600Z 23006KT 9999 SCT035 26/18 A3002 NOSIG=
201204211700 METAR MROC 211700Z 21007KT 9999 FEW035 27/18 A3001 NOSIG=
201204211800 METAR MROC 211800Z 24010KT 9999 FEW020TCU FEW035 28/19 A2998 NOSIG=
201204211900 METAR MROC 211900Z 25009KT 9999 SCT030 28/19 A2995 NOSIG=
201204212000 METAR MROC 212000Z 25011KT 9999 FEW020TCU SCT035 27/20 A2991 NOSIG=
201204212100 METAR MROC 212100Z 25012KT 9999 VCSH FEW020 BKN035 25/20 A2991 BECMG 8000 -SHRA=
201204212106 METAR MROC 212106Z 26012KT 9999 -TS FEW015CB BKN035 25/19 A2993 BECMG 8000 -SHRA=
201204212200 METAR MROC 212200Z 20006KT 9999 -DZ SCT030 BKN100 24/20 A2993 BECMG 8000 -SHRA=
201204212300 METAR MROC 212300Z 26009KT 9999 SCT030 BKN100 23/19 A2994 NOSIG=
201204220000 METAR MROC 220000Z 22006KT 9999 -RA SCT030 OVC100 22/19 A2998 NOSIG=
201204220100 METAR MROC 220100Z 03006KT 9999 -RA FEW030 OVC100 21/18 A3003 NOSIG=
201204220200 METAR MROC 220200Z 05006KT 9999 FEW030 BKN100 20/18 A3002 NOSIG=
201204220300 METAR MROC 220300Z 13003KT CAVOK 20/18 A3005 NOSIG=
201204220400 METAR MROC 220400Z 06005KT CAVOK 20/18 A3005 NOSIG=
201204220500 METAR MROC 220500Z 08004KT CAVOK 19/18 A3003 NOSIG=
201204220600 METAR MROC 220600Z 06004KT CAVOK 19/18 A3002 NOSIG=
201204220700 METAR MROC 220700Z 09005KT CAVOK 18/17 A3000 NOSIG=
201204220800 METAR MROC 220800Z 07005KT CAVOK 19/17 A2998 NOSIG=
201204220900 METAR MROC 220900Z 08006KT CAVOK 19/16 A2998 NOSIG=
201204221000 METAR MROC 221000Z 07005KT CAVOK 18/16 A2998 NOSIG=
201204221100 METAR MROC 221100Z 08006KT CAVOK 18/16 A2999 NOSIG=
201204221200 METAR MROC 221200Z 06006KT CAVOK 19/16 A3000 NOSIG=
201204221300 METAR MROC 221300Z 05005KT CAVOK 21/17 A3002 NOSIG=
201204221400 METAR MROC 221400Z 10005KT CAVOK 26/17 A3003 NOSIG=
201204221500 METAR MROC 221500Z 11006KT CAVOK 27/17 A3003 NOSIG=
201204221600 METAR MROC 221600Z 12004KT CAVOK 29/16 A3002 NOSIG=
201204221700 METAR MROC 221700Z 25007KT 9999 FEW040 SCT300 29/19 A3001 NOSIG=
201204221800 METAR MROC 221800Z 23011KT 9999 SCT040 28/19 A2999 NOSIG=
201204221900 METAR MROC 221900Z 24014KT 9999 SCT040 28/20 A2996 NOSIG=
201204222000 METAR MROC 222000Z 25011KT 9999 VCSH FEW020TCU SCT040 26/20 A2995 NOSIG=
201204222100 METAR MROC 222100Z 10004KT 4000 -TSRA FEW015CB SCT025 BKN070 20/19 A2994 BECMG 7000=
201204222200 METAR MROC 222200Z 00000KT 9999 -RA SCT030 BKN100 20/19 A2995 NOSIG=
201204222300 METAR MROC 222300Z 12003KT 9999 SCT035 BKN100 21/19 A2997 NOSIG=
201204230000 METAR MROC 230000Z 00000KT CAVOK 22/20 A2999 NOSIG=
201204230100 METAR MROC 230100Z 23003KT CAVOK 21/20 A3001 NOSIG=
201204230200 METAR MROC NIL=
201204230300 METAR MROC 230300Z 04003KT CAVOK 21/17 A3003 NOSIG=
201204230400 METAR MROC 230400Z 12004KT CAVOK 21/17 A3003 NOSIG=
201204230500 METAR MROC 230500Z 10002KT CAVOK 20/16 A3002 NOSIG=
201204230600 METAR COR MROC 230600Z 05006KT CAVOK 19/16 A3000 NOSIG=
201204230700 METAR MROC 230700Z 07006KT CAVOK 21/15 A2998 NOSIG=
201204230800 METAR MROC 230800Z 07007KT CAVOK 20/16 A2996 NOSIG=
201204230900 METAR MROC 230900Z 07004KT 9999 FEW025 20/16 A2996 NOSIG=
201204231000 METAR MROC 231000Z 05008KT 9999 FEW035 20/16 A2996 NOSIG=
201204231100 METAR MROC 231100Z 08007KT 9999 FEW030 SCT120 21/16 A2999 NOSIG=
201204231200 METAR MROC 231200Z 10007KT 9999 SCT045 SCT300 22/17 A2997 NOSIG=
201204231300 METAR MROC 231300Z 10007KT 9999 SCT045 SCT300 22/17 A3003 NOSIG=
201204231400 METAR MROC 231400Z 10005KT 9999 BKN040 23/17 A3005 NOSIG=
201204231500 METAR MROC 231500Z 12005KT 9999 FEW025 BKN040 24/17 A3006 NOSIG=
201204231600 METAR MROC 231600Z 04009KT 9999 FEW025 SCT040 25/16 A3006 NOSIG=
201204231700 METAR MROC 231700Z 09011KT 9999 FEW025 SCT040 25/15 A3005 NOSIG=
201204231720 METAR MROC 231720Z 10012G26KT 9999 FEW025 SCT040 24/15 A3005 NOSIG=
201204231800 METAR MROC 231800Z 11015KT 9999 FEW025 SCT070 BKN250 23/15 A3003 NOSIG=
201204231900 METAR MROC 231900Z 10016KT 9999 FEW030 BKN250 25/15 A3001 NOSIG=
201204232000 METAR MROC 232000Z 10015KT 9999 FEW030 SCT140 BKN250 24/15 A2998 NOSIG=
201204232100 METAR MROC 232100Z 12012KT 9999 FEW030 SCT130 BKN250 25/15 A2999 NOSIG=
201204232200 METAR MROC 232200Z 12012KT 9999 FEW030 SCT130 BKN250 24/15 A2999 NOSIG=
201204232300 METAR MROC 232300Z 09012KT 9999 FEW035 SCT250 22/15 A2999 NOSIG=
201204240000 METAR MROC 240000Z 10013G23KT CAVOK 21/14 A3000 NOSIG=
201204240100 METAR MROC 240100Z 10010G20KT CAVOK 21/14 A3002 NOSIG=
201204240200 METAR MROC 240200Z 10012G22KT CAVOK 20/15 A3003 NOSIG=
201204240300 METAR MROC 240300Z 09011KT CAVOK 20/14 A3005 NOSIG=
201204240400 METAR MROC 240400Z 10011KT CAVOK 20/14 A3006 NOSIG=
201204240500 METAR MROC 240500Z 10010KT CAVOK 19/14 A3004 NOSIG=
201204240600 METAR MROC 240600Z 10009KT CAVOK 19/14 A3002 NOSIG=
201204240700 METAR MROC 240700Z 11010KT CAVOK 20/14 A2999 NOSIG=
201204240800 METAR MROC 240800Z 11009KT CAVOK 20/14 A2996 NOSIG=
201204240900 METAR MROC 240900Z 09010KT CAVOK 20/14 A2997 NOSIG=
201204241000 METAR MROC 241000Z 07007KT CAVOK 20/14 A2997 NOSIG=
201204241100 METAR MROC 241100Z 05007KT CAVOK 20/15 A2997 NOSIG=
201204241200 METAR MROC 241200Z 04008KT CAVOK 20/14 A2998 NOSIG=
201204241300 METAR MROC 241300Z 06007KT CAVOK 23/15 A3000 NOSIG=
201204241400 METAR MROC 241400Z 10010G20KT CAVOK 23/15 A3000 NOSIG=
201204241500 METAR MROC 241500Z 09012KT CAVOK 25/15 A3002 NOSIG=
201204241600 METAR MROC 241600Z 09010KT 9999 FEW035 26/15 A3002 NOSIG=
201204241700 METAR MROC 241700Z 09011KT 9999 FEW035 25/15 A3001 NOSIG=
201204241800 METAR MROC 241800Z 12011G21KT 9999 FEW035 26/15 A2999 NOSIG=
201204241900 METAR MROC 241900Z 12010G21KT 9999 FEW035 25/15 A2996 NOSIG=
201204242000 METAR MROC 242000Z 10010G20KT 9999 SCT030 SCT250 25/15 A2996 NOSIG=
201204242100 METAR MROC 242100Z 11010G20KT 9999 FEW025 SCT120 SCT250 24/15 A2994 NOSIG=
201204242200 METAR MROC 242200Z 11016KT 9999 FEW025 BKN120 22/15 A2994 NOSIG=
201204242300 METAR MROC 242300Z 11011G21KT 9999 FEW030 SCT120 22/14 A2996 NOSIG=
201204242349 METAR MROC 250000Z 10010G20KT 9999 FEW030 BKN120 20/15 A2999 NOSIG=
201204250000 METAR MROC 250000Z 10010G20KT 9999 FEW030 BKN120 20/15 A2999 NOSIG=
201204250100 METAR MROC 250100Z 12012G22KT 9999 FEW030 SCT120 20/15 A3000 NOSIG=
201204250200 METAR MROC 250200Z 06010KT 9999 FEW030 SCT120 20/15 A3002 NOSIG=
201204250300 METAR MROC NIL=
201204250700 METAR MROC NIL=
201204250800 METAR MROC 250800Z 10007KT CAVOK 19/15 A2997 NOSIG=
201204250900 METAR MROC 250900Z 11008KT CAVOK 19/14 A2997 NOSIG=
201204251000 METAR MROC 251000Z 08008KT CAVOK 19/15 A2997 NOSIG=
201204251100 METAR MROC 251100Z 09010G20KT CAVOK 19/15 A2998 NOSIG=
201204251200 METAR MROC 251200Z 07008KT 9999 FEW030 SCT120 19/14 A3000 NOSIG=
201204251300 METAR MROC 251300Z 08010G20KT 9999 FEW030 BKN120 20/12 A3001 NOSIG=
201204251400 METAR MROC 251400Z 10010G20KT 9999 FEW030 SCT120 22/14 A3000 NOSIG=
201204251500 METAR MROC 251500Z 11023G23KT 9999 FEW030 SCT120 23/15 A3000 NOSIG=
201204251600 METAR MROC 251600Z 10010G20KT CAVOK 24/15 A2999 NOSIG=
201204251700 METAR MROC 251700Z 11015G25KT 9999 FEW035 25/15 A2999 NOSIG=
201204251800 METAR MROC 251800Z 10011G21KT 9999 FEW035 26/15 A2997 NOSIG=
201204251900 METAR MROC 251900Z 11010G20KT 9999 FEW035 27/13 A2995 NOSIG=
201204252000 METAR MROC 252000Z 09010G20KT 9999 FEW035 27/14 A2993 NOSIG=
201204252100 METAR MROC 252100Z 08011KT 9999 FEW030 SCT120 25/14 A2993 NOSIG=
201204252200 METAR MROC 252200Z 11010KT 9999 FEW030 SCT070 SCT150 23/15 A2993 NOSIG=
201204252300 METAR MROC 252300Z 11011G21KT 9999 FEW030 SCT070 SCT200 23/16 A2994 NOSIG=
201204260000 METAR MROC 260000Z 10012G22KT 9999 FEW030 SCT070 SCT150 22/15 A2995 NOSIG=
201204260100 METAR MROC 260100Z 09010KT 9999 FEW030 SCT100 20/15 A2999 NOSIG=
201204260200 METAR MROC 260200Z 10010KT 9999 FEW030 SCT100 20/15 A3001 NOSIG=
201204260300 METAR MROC 260300Z 10010G20KT CAVOK 20/15 A3002 NOSIG=
201204260400 METAR MROC 260400Z 09011G21KT CAVOK 20/14 A3002 NOSIG=
201204260500 METAR MROC 260500Z 07010KT CAVOK 20/14 A3002 NOSIG=
201204260600 METAR MROC 260600Z 09006KT CAVOK 19/15 A3003 NOSIG=
201204260700 METAR MROC 260700Z 10008KT CAVOK 20/13 A3000 NOSIG=
201204260800 METAR MROC 260800Z 08006KT CAVOK 20/14 A3000 NOSIG=
201204260900 METAR MROC 260900Z 11010KT 9999 FEW025 BKN120 21/14 A3000 NOSIG=
201204261000 METAR MROC 261000Z 11010KT 9999 FEW030 SCT120 20/14 A3000 NOSIG=
201204261100 METAR MROC 261100Z 12008KT 9999 FEW035 SCT120 20/14 A2999 NOSIG=
201204261200 METAR MROC 261200Z 09008KT 9999 FEW040 SCT120 20/13 A3000 NOSIG=
201204261300 METAR MROC 261300Z 05007KT CAVOK 22/12 A3002 NOSIG=
201204261400 METAR MROC 261400Z 08006KT CAVOK 24/11 A3002 NOSIG=
201204261500 METAR MROC 261500Z 10009KT CAVOK 26/09 A3001 NOSIG=
201204261600 METAR MROC 261600Z 10010KT CAVOK 27/08 A2999 NOSIG=
201204261700 METAR MROC 261700Z 10009KT CAVOK 29/11 A2999 NOSIG=
201204261800 METAR MROC 261800Z 10006KT 9999 FEW040 SCT120 BKN250 30/11 A2997 NOSIG=
201204261900 METAR MROC 261900Z 21005KT 9999 FEW040 SCT120 BKN250 29/14 A2995 NOSIG=
201204262000 METAR MROC 262000Z 23008KT 9999 FEW020 BKN040 29/14 A2994 NOSIG=
201204262100 METAR MROC 262100Z 10009KT 9999 VCTS FEW035 BKN200 25/15 A2995 BECMG -TSRA=
201204262200 METAR MROC 262200Z 11008KT 9999 -RA SCT100 BKN200 24/15 A2994 NOSIG=
201204262300 METAR MROC NIL=
201204270000 METAR MROC 270000Z 09006KT CAVOK 22/16 A2998 NOSIG=
201204270100 METAR MROC 270100Z 11006KT CAVOK 22/16 A2999 NOSIG=
201204270200 METAR MROC 270200Z 07005KT CAVOK 21/16 A2999 NOSIG=
201204270300 METAR MROC 270300Z 11005KT CAVOK 21/15 A3000 NOSIG=
201204270400 METAR MROC 270400Z 09012KT CAVOK 22/16 A3001 NOSIG=
201204270500 METAR MROC 270500Z 07009KT CAVOK 21/16 A3001 NOSIG=
201204270600 METAR MROC 270600Z 08011KT CAVOK 21/16 A2998 NOSIG=
201204270700 METAR MROC 270700Z 07011KT CAVOK 21/15 A2997 NOSIG=
201204270800 METAR MROC 270800Z 08014KT CAVOK 21/16 A2996 NOSIG=
201204270900 METAR MROC 270900Z 08009KT CAVOK 20/16 A2995 NOSIG=
201204271000 METAR MROC 271000Z 07011KT CAVOK 21/16 A2998 NOSIG=
201204271100 METAR MROC 271100Z 08011KT CAVOK 21/16 A2999 NOSIG=
201204271200 METAR MROC 271200Z 07009KT CAVOK 21/16 A3000 NOSIG=
201204271300 METAR MROC 271300Z 08005KT CAVOK 21/16 A3003 NOSIG=
201204271400 METAR MROC 271400Z 08005KT 9999 -DZ BKN120 22/17 A3005 NOSIG=
201204271500 METAR MROC 271500Z 08005KT CAVOK 23/17 A3005 NOSIG=
201204271600 METAR MROC 271600Z 05002KT CAVOK 24/16 A3004 NOSIG=
201204271700 METAR MROC 271700Z 28003KT CAVOK 25/17 A3005 NOSIG=
201204271800 METAR MROC 271800Z 24003KT CAVOK 26/18 A3002 NOSIG=
201204271900 METAR MROC 271900Z 26005KT 9999 FEW040 SCT120 BKN200 26/19 A2999 NOSIG=
201204272000 METAR MROC 272000Z 24007KT 9999 FEW040 SCT120 BKN200 24/19 A2997 NOSIG=
201204272100 METAR MROC 272100Z 23007KT 9999 -RA FEW025 SCT100 BKN170 23/19 A2997 NOSIG=
201204272200 METAR MROC 272200Z 22004KT 9999 -RA FEW020 SCT100 BKN250 22/19 A2998 NOSIG=
201204272300 METAR MROC 272300Z 00000KT 9999 -RA FEW020 BKN120 22/19 A2999 NOSIG=
201204280000 METAR MROC 280000Z 26003KT 9999 -RA FEW020 BKN120 21/20 A3001 NOSIG=
201204280100 METAR MROC 280100Z 07003KT 9999 -RA FEW020 BKN120 21/20 A3002 NOSIG=
201204280200 METAR MROC 280200Z 21004KT 9999 -RA FEW015 BKN120 20/19 A3002 NOSIG=
201204280245 METAR COR MROC 280245Z 25005KT 3000 1500SW -DZ BR SCT001 BKN005 20/20 A3005 BECMG 1500 BR BKN002=
201204280300 METAR MROC 280300Z 27005KT 2000 -DZ BR SCT001 BKN006 20/20 A3005 BECMG 1000 BR=
201204280345 METAR MROC 280345Z 25005KT 3000 1500SW -DZ BR SCT001 BKN005 20/20 A3005 BECMG 1500 BR BKN002=
201204280400 METAR MROC 280400Z 11002KT 3000 -RA BR SCT001 BKN008 20/20 A3004 BECMG 7000=
201204280500 METAR MROC 280500Z 11002KT 6000 2000SW -RA BR FEW001 SCT015 BKN070 20/20 A3002 NOSIG=
201204280600 METAR MROC 280600Z 08005KT 8000 4000SW SCT015 BKN070 20/19 A2997 NOSIG=
201204280700 METAR MROC 280700Z 05007KT 9999 FEW025 BKN130 20/18 A2996 NOSIG=
201204280800 METAR MROC 280800Z 15004KT 9999 FEW035 BKN140 20/17 A2995 NOSIG=
201204280900 METAR MROC 280900Z 08005KT 9999 FEW035 OVC160 26/16 A2994 NOSIG=
201204281000 METAR MROC 281000Z 07004KT 9999 -DZ FEW030 BKN130 20/17 A2995 NOSIG=
201204281100 METAR MROC 281100Z 04003KT CAVOK 19/17 A2997 NOSIG=
201204281200 METAR MROC 281200Z 10004KT CAVOK 19/17 A2999 NOSIG=
201204281300 METAR MROC 281300Z 05003KT CAVOK 21/17 A3001 NOSIG=
201204281400 METAR MROC 281400Z 06005KT CAVOK 23/17 A3002 NOSIG=
201204281500 METAR MROC 281500Z 09003KT CAVOK 27/16 A3002 NOSIG=
201204281600 METAR MROC 281600Z 24006KT CAVOK 27/16 A3002 NOSIG=
201204281700 METAR MROC 281700Z 22007KT CAVOK 28/18 A3001 NOSIG=
201204281800 METAR MROC 281800Z 26007KT CAVOK 27/18 A2999 NOSIG=
201204281900 METAR MROC 281900Z 25009KT 9999 FEW035 BKN250 29/17 A2997 NOSIG=
201204282000 METAR MROC 282000Z 23011KT 9999 FEW030 BKN250 28/19 A2995 NOSIG=
201204282100 METAR MROC 282100Z 22009KT 9999 SCT030TCU BKN250 28/19 A2995 NOSIG=
201204282200 METAR MROC 282200Z 21008KT 9999 FEW025TCU BKN120 26/19 A2996 NOSIG=
201204282300 METAR MROC 282300Z 22006KT 9999 SCT025 BKN120 24/19 A2997 NOSIG=
201204290000 METAR MROC 290000Z 26006KT 9999 SCT030 SCT250 23/19 A2999 NOSIG=
201204290100 METAR MROC 290100Z 30004KT 9999 SCT020 SCT100 22/20 A3001 NOSIG=
201204290200 METAR MROC 290200Z 24002KT 9999 SCT020 SCT090 22/19 A3001 NOSIG=
201204290300 METAR MROC 290300Z 25003KT 9999 SCT020 SCT090 21/20 A3003 NOSIG=
201204290400 METAR MROC 290400Z 03002KT 9999 FEW020 SCT100 21/19 A3003 NOSIG=
201204290500 METAR MROC 290500Z 00000KT 9999 FEW020 SCT100 21/19 A3002 NOSIG=
201204290600 METAR MROC 290600Z 07003KT 9999 FEW030 SCT100 20/18 A3000 NOSIG=
201204290700 METAR MROC 290700Z 03005KT CAVOK 20/17 A2997 NOSIG=
201204290800 METAR MROC 290800Z 03006KT CAVOK 20/17 A2996 NOSIG=
201204290900 METAR MROC 290900Z 06002KT 9999 FEW002 SCT100 20/17 A2995 NOSIG=
201204291000 METAR MROC 291000Z 08003KT 9999 FEW002 SCT100 19/16 A2996 NOSIG=
201204291100 METAR MROC 291100Z 21001KT 9999 FEW002 19/16 A2998 NOSIG=
201204291200 METAR MROC 291200Z 05002KT 9999 FEW002 SCT250 19/16 A3001 NOSIG=
201204291300 METAR MROC 291300Z 00000KT 9999 FEW020 22/19 A3004 NOSIG=
201204291400 METAR MROC 291400Z 00000KT 9999 FEW025 SCT250 25/18 A3004 BECMG 22006KT=
201204291500 METAR MROC 291500Z 14005KT 9999 FEW025 SCT250 27/18 A3004 BECMG 22005KT=
201204291600 METAR MROC 291600Z 22005KT 9999 FEW030 SCT250 28/20 A3002 NOSIG=
201204291700 METAR MROC 291700Z 25008KT 9999 SCT030 28/19 A3001 NOSIG=
201204291800 METAR MROC 291800Z 24010KT 9999 SCT030TCU 28/19 A2999 NOSIG=
201204291900 METAR MROC 291900Z 23011KT 9999 FEW020CB SCT030TCU 28/20 A2996 NOSIG=
201204292000 METAR MROC 292000Z 25010KT 7000 3000N TSRA BKN025CB 26/19 A2995 RMK BECMG 3000 +TSRA=
201204292100 METAR MROC 292100Z 14016KT 9999 FEW030 BKN120 23/18 A2994 RETSRA NOSIG=
201204292200 METAR MROC 292200Z 13004KT 9999 FEW030 SCT120 BKN250 23/19 A2994 NOSIG=
201204292300 METAR MROC 292300Z 15003KT 9999 FEW030 SCT120 BKN250 25/19 A2995 NOSIG=
201204292351 METAR MROC 300000Z 26005KT 9999 FEW030 SCT120 BKN250 23/20 A2996 NOSIG=
201204300000 METAR MROC 300000Z 26005KT 9999 FEW030 SCT120 BKN250 23/20 A2996 NOSIG=
201204300100 METAR MROC 300100Z 24003KT 9999 FEW025 SCT120 BKN250 22/20 A2997 NOSIG=
201204300200 METAR MROC 300200Z 28002KT 9999 FEW025 BKN120 22/20 A2999 NOSIG=
201204300300 METAR MROC 300300Z 02003KT CAVOK 21/19 A3000 NOSIG=
201204300400 METAR MROC 300400Z 03006KT CAVOK 22/18 A3001 NOSIG=
201204300500 METAR MROC 300500Z 05005KT CAVOK 21/17 A3000 NOSIG=
201204300600 METAR MROC 300600Z 06006KT CAVOK 21/17 A2998 NOSIG=
201204300700 METAR MROC 300700Z 06004KT CAVOK 21/17 A2998 NOSIG=
201204300800 METAR MROC 300800Z 12003KT CAVOK 19/17 A2997 NOSIG=
201204300900 METAR MROC 300900Z 07002KT CAVOK 19/18 A2997 NOSIG=
201204301000 METAR MROC 301000Z 05003KT CAVOK 18/16 A2998 NOSIG=
201204301100 METAR MROC 301100Z 07004KT CAVOK 18/16 A2997 NOSIG=
201204301200 METAR MROC 301200Z 04004KT CAVOK 19/16 A2999 NOSIG=
201204301300 METAR MROC 301300Z 06008KT CAVOK 22/17 A3001 NOSIG=
201204301400 METAR MROC 301400Z 10013KT CAVOK 26/16 A3001 NOSIG=
201204301500 METAR MROC 301500Z 11015KT CAVOK 27/15 A3001 NOSIG=
201204301600 METAR MROC 301600Z 10015KT CAVOK 28/13 A3000 NOSIG=
201204301700 METAR COR MROC 301700Z 10013KT 9999 FEW035 SCT250 30/13 A2998 BECMG 24006KT=
201204301800 METAR MROC 301800Z 26008KT 9999 SCT035 SCT250 29/18 A2996 NOSIG=
201204301900 METAR MROC 301900Z 23011KT 9999 FEW020TCU SCT035 SCT250 28/18 A2994 BECMG 8000 VCSH=
201204302000 METAR MROC 302000Z 22012KT 9999 FEW020TCU SCT035 BKN120 28/19 A2991 BECMG 8000 VCSH=
201204302100 METAR MROC 302100Z 29006KT 9999 -SHRA FEW0015TCU FEW030 BKN140 25/20 A2991 NOSIG=
201204302200 METAR MROC 302200Z 26005KT 9999 3500SW -SHRA FEW008TCU FEW025 BKN110 22/19 A2993 BECMG 7000 BKN030=
201204302300 METAR MROC 302300Z 28005KT 9000 4000N -SHRA FEW010TCU FEW025 BKN100 22/19 A2994 NOSIG=
201205010000 METAR MROC 010000Z 00000KT 9999 VCSH FEW015 BKN150 22/19 A2996 NOSIG=
201205010100 METAR MROC 010100Z 09004KT 9999 -RA SCT020 BKN100 22/18 A2997 NOSIG=
201205010200 METAR MROC 010200Z 07005KT 9999 FEW030 SCT100 23/17 A2999 NOSIG=
201205010300 METAR MROC 010300Z 00000KT 9999 FEW030 SCT100 22/18 A3001 NOSIG=
201205010400 METAR MROC 010400Z 28003KT 9999 FEW035 BKN090 21/19 A3001 NOSIG=
201205010500 METAR MROC 010500Z 02004KT 9999 FEW040 BKN120 21/18 A3000 NOSIG=
201205010600 METAR MROC 010600Z 07004KT 9999 FEW035 BKN120 20/18 A2997 NOSIG=
201205010700 METAR MROC 010700Z 07005KT CAVOK 21/16 A2995 NOSIG=
201205010800 METAR MROC 010800Z 08003KT CAVOK 20/16 A2994 NOSIG=
201205010900 METAR MROC 010900Z 11004KT CAVOK 20/17 A2993 NOSIG=
201205011000 METAR MROC 011000Z 00000KT CAVOK 20/17 A2995 NOSIG=
201205011100 METAR MROC 011100Z 10006KT CAVOK 19/17 A2995 NOSIG=
201205011200 METAR MROC 011200Z 06006KT CAVOK 21/16 A2995 NOSIG=
201205011300 METAR MROC 011300Z 06006KT CAVOK 24/17 A2997=
201205011400 METAR MROC 011400Z 11007KT CAVOK 25/16 A2997=
201205011500 METAR MROC 011500Z 11007KT CAVOK 27/16 A2998 NOSIG=
201205011600 METAR MROC 011600Z 11009KT 9999 FEW035 SCT250 29/16 A2998 NOSIG=
201205011700 METAR MROC 011700Z 11007KT 9999 FEW035 SCT250 30/16 A2997 BECMG 23006KT=
201205011800 METAR MROC 011800Z 21007KT 9999 FEW030 SCT110 28/19 A2996 NOSIG=
201205011900 METAR MROC 011900Z 23012KT 9999 4000N +SHRA SCT030 BKN100 26/20 A2994 BECMG 5000 SHRA=
201205012000 METAR MROC 012000Z 20007KT 5000 -RA SCT030 BKN100 24/21 A2993 NOSIG=
201205012100 METAR MROC 012100Z 28004KT 9999 FEW010 SCT030 BKN100 23/20 A2993 NOSIG=
201205012200 METAR MROC 012200Z 24007KT 5000 BR FEW001 SCT020 OVC100 20/20 A2994 NOSIG=
201205012300 METAR MROC 012300Z 10002KT 9999 3000SW BR FEW001 SCT020 OVC100 21/20 A2996 NOSIG=
201205020000 METAR MROC 020000Z 15002KT 9999 DZ FEW005 SCT020 OVC100 21/19 A2998 NOSIG=
201205020100 METAR MROC 020100Z 09003KT 9999 FEW020 OVC100 21/20 A2999 NOSIG=
201205020200 METAR MROC 020200Z 09003KT 9999 -DZ FEW020 OVC100 21/20 A3001 NOSIG=
201205020300 METAR MROC 020300Z 07004KT 9999 FEW035 BKN100 21/20 A3000 NOSIG=
201205020400 METAR MROC 020400Z 00000KT 9999 VCFG FEW035 BKN100 21/20 A3001 NOSIG=
201205020500 METAR MROC 020500Z 15003KT 9999 VCFG FEW035 BKN100 20/20 A3000 NOSIG=
201205020600 METAR MROC 020600Z 07005KT CAVOK 20/20 A2996 NOSIG=
201205020700 METAR MROC 020700Z 06006KT CAVOK 20/18 A2994 NOSIG=
201205020800 METAR MROC 020800Z 06007KT CAVOK 20/17 A2993 NOSIG=
201205020900 METAR MROC 020900Z 07003KT CAVOK 19/18 A2992 NOSIG=
201205021000 METAR MROC 021000Z 09004KT CAVOK 20/17 A2992 NOSIG=
201205021100 METAR MROC 021100Z 10003KT CAVOK 19/17 A2995 NOSIG=
201205021200 METAR MROC 021200Z 08004KT 9999 FEW035 BKN120 20/18 A2997 NOSIG=
201205021300 METAR MROC 021300Z 06004KT 9999 FEW030 SCT180 22/18 A3000 NOSIG=
201205021400 METAR MROC 021400Z 08004KT 9999 FEW030 SCT180 25/18 A3002 NOSIG=
201205021500 METAR MROC 021500Z 11008KT 9999 FEW035 SCT200 26/17 A3002 NOSIG=
201205021600 METAR MROC 021600Z 17003KT 9999 FEW045 SCT200 28/18 A3001 BECMG 24007KT=
201205021700 METAR MROC 021700Z 10006KT 9999 FEW045 SCT200 29/15 A2999 BECMG 24007KT=
201205021800 METAR MROC 021800Z 22006KT 9999 FEW045 SCT030 29/19 A2998 NOSIG=
201205021900 METAR MROC 021900Z 23008KT 9999 FEW015 SCT030 26/19 A2996 NOSIG=
201205022000 METAR MROC 022000Z 23011KT 9999 FEW015 SCT030 27/21 A2993 NOSIG=
201205022100 METAR MROC 022100Z 24007KT 8000 -RA VCSH FEW015CB BKN025 23/21 A2994 BECMG 5000 -TSRA=
201205022200 METAR MROC 022200Z 16003KT 9999 VCSH FEW015CB BKN025 23/21 A2994 BECMG -RA=
201205022300 METAR MROC 022300Z 27002KT 9999 FEW015 SCT025 BKN140 23/20 A2995 NOSIG=
201205030000 METAR MROC 030000Z 22003KT 9999 FEW025 BKN250 22/20 A2997 NOSIG=
201205030100 METAR MROC 030100Z 28002KT 9999 FEW030 BKN250 22/18 A2998 NOSIG=
201205030200 METAR MROC 030200Z 06004KT CAVOK 22/18 A3000 NOSIG=
201205030300 METAR MROC 030300Z 05009KT CAVOK 22/17 A2999 NOSIG=
201205030400 METAR MROC NIL=
201205030500 METAR MROC 030500Z 11003KT CAVOK 22/16 A2999 NOSIG=
201205030600 METAR MROC 030600Z 07005KT CAVOK 21/16 A2997 NOSIG=
201205030700 METAR MROC 030700Z 06005KT CAVOK 21/16 A2995 NOSIG=
201205030800 METAR MROC 030800Z 07004KT CAVOK 20/16 A2994 NOSIG=
201205030900 METAR MROC 030900Z 01004KT CAVOK 20/15 A2993 NOSIG=
201205031000 METAR MROC 031000Z 08002KT CAVOK 21/16 A2994 NOSIG=
201205031100 METAR MROC NIL=
201205031200 METAR MROC 031200Z 07006KT CAVOK 21/16 A2999 NOSIG=
201205031255 METAR MROC 041300Z 09006KT 9999 FEW035 SCT250 24/19 A3002 NOSIG=
201205031300 METAR MROC NIL=
201205031400 METAR MROC 031400Z 10005KT CAVOK 24/16 A3003 NOSIG=
201205031500 METAR MROC 031500Z 11007KT CAVOK 25/16 A3003 NOSIG=
201205031600 METAR MROC 031600Z 09005KT CAVOK 27/14 A3002 NOSIG=
201205031700 METAR MROC 031700Z 10004KT 9999 FEW040 SCT250 29/15 A3001 NOSIG=
201205031800 METAR MROC 031800Z 25010KT 9999 SCT040 SCT250 27/19 A2998 NOSIG=
201205031900 METAR MROC 031900Z 25009KT 9999 FEW025TCU SCT040 BKN250 28/19 A2996 NOSIG=
201205032000 METAR MROC 232000Z 23011KT 9999 VCSH FEW020TCU SCT040 BKN250 26/21 A2992 BECMG 6000 -SHRA=
201205032100 METAR MROC 032100Z 31006KT 9999 VCTS VCSH SCT015CB BKN030 24/20 A2994 BECMG 5000 -TSRA=
201205032200 METAR MROC 032200Z 30007KT 9999 DZ FEW015 SCT030 BKN100 22/20 A2994 NOSIG=
201205032300 METAR MROC 032300Z 25005KT 9999 SCT025 BKN100 21/19 A2995 REDZ NOSIG=
201205040000 METAR MROC 040000Z 29003KT 9999 SCT020 BKN100 21/18 A2997 BECMG -RA=
201205040100 METAR MROC 040100Z 30004KT 9999 -RA FEW030 BKN100 21/19 A3000 NOSIG=
201205040200 METAR MROC 040200Z 05005KT 9999 DZ FEW035 BKN090 22/19 A3001 NOSIG=
201205040300 METAR MROC 040300Z 07003KT 9999 FEW035 OVC100 21/18 A3002 NOSIG=
201205040400 METAR MROC 040400Z 11002KT CAVOK 21/18 A3006 NOSIG=
201205040500 METAR MROC 040500Z 07005KT 9999 FEW035 SCT100 BKN250 21/18 A3002 NOSIG=
201205040600 METAR MROC 040600Z 07006KT 9999 FEW035 SCT250 22/17 A3000 NOSIG=
201205040700 METAR MROC 040700Z 16003KT 9999 FEW035 SCT250 22/18 A2999 NOSIG=
201205040800 METAR MROC 040800Z 00000KT 9999 FEW035 SCT250 21/18 A2997 NOSIG=
201205040900 METAR MROC 040900Z 06006KT 9999 FEW030 SCT250 22/17 A2995 NOSIG=
201205041000 METAR MROC 041000Z 06006KT 9999 FEW035 SCT250 21/17 A2996 NOSIG=
201205041100 METAR MROC 041100Z 04006KT 9999 FEW035 SCT250 21/17 A2998 NOSIG=
201205041200 METAR MROC 041200Z 07005KT 9999 FEW035 SCT250 22/17 A2999 NOSIG=
201205041300 METAR MROC 041300Z 09006KT 9999 FEW035 SCT250 24/19 A3002 NOSIG=
201205041400 METAR MROC 041400Z 00000KT 9999 FEW035 SCT250 26/19 A3002 BECMG 22006KT=
201205041500 METAR MROC 041500Z 12008KT 9999 FEW035 SCT250 27/18 A3003 BECMG 22006KT=
201205041600 METAR MROC 041600Z 12007KT 9999 FEW030 29/18 A3003 BECMG 22006KT=
201205041700 METAR MROC 041700Z 11008KT 9999 FEW015 SCT035 29/18 A3003 BECMG 21006KT=
201205041800 METAR MROC 041800Z 24010KT 9999 SCT015TCU SCT030 27/20 A3001 NOSIG=
201205041900 METAR MROC 041900Z 21009KT 9999 VCSH FEW015CB SCT030 28/21 A2997 BECMG 7000 -TSRA=
201205042000 METAR MROC 042000Z 19008KT 7000 TSRA SCT015CB BKN030 24/17 A2998 NOSIG=
201205042100 METAR MROC 042100Z 03008KT 9999 VCSH VCTS SCT015CB BKN100 21/18 A2997 NOSIG=
201205042200 METAR MROC 042200Z 08003KT DZ FEW025 SCT100 BKN200 22/19 A2997 NOSIG=
201205042300 METAR MROC 042300Z 31005KT 9999 DZ FEW030 SCT100 BKN200 22/19 A2999 NOSIG=
201205042352 METAR MROC 050000Z 11007KT 9999 SCT025 BKN200 22/18 A2999 NOSIG=
201205050000 METAR MROC 050000Z 11007KT 9999 SCT025 BKN200 22/18 A2999 NOSIG=
201205050100 METAR MROC 050100Z 10006KT 9999 FEW025 SCT120 22/17 A3002 NOSIG=
201205050200 METAR MROC 050200Z 08005KT 9999 FEW025 BKN150 22/17 A3004 NOSIG=
201205050300 METAR MROC 050300Z 06004KT CAVOK 21/18 A3005 NOSIG=
201205050400 METAR MROC 050400Z 11002KT CAVOK 21/18 A3006 NOSIG=
201205050500 METAR MROC 050500Z 08004KT CAVOK 21/18 A3004 NOSIG=
201205050600 METAR MROC NIL=
201205050700 METAR MROC 050700Z 00000KT CAVOK 21/18 A3002 NOSIG=
201205050800 METAR MROC 050800Z 00000KT CAVOK 20/18 A3001 NOSIG=
201205050900 METAR MROC 050900Z 22003KT CAVOK 20/18 A3000 NOSIG=
201205051000 METAR MROC 051000Z 00000KT CAVOK 20/18 A3000 NOSIG=
201205051100 METAR MROC 051100Z 10002KT CAVOK 19/18 A3000 NOSIG=
201205051200 METAR MROC 051200Z 08004KT CAVOK 20/18 A3002 NOSIG=
201205051300 METAR MROC 051300Z 09004KT CAVOK 21/18 A3003 BECMG 24006KT=
201205051400 METAR MROC 051400Z 04006KT CAVOK 23/17 A3003 NOSIG=
201205051500 METAR MROC 051500Z 12008KT 9999 FEW030 SCT120 BKN250 25/17 A3003 NOSIG=
201205051600 METAR MROC 051600Z 13008KT 9999 FEW030 SCT120 BKN250 26/17 A3003 NOSIG=
201205051700 METAR MROC 051700Z 24010KT 9999 FEW035 SCT120 SCT250 25/19 A3003 NOSIG=
201205051800 METAR MROC 051800Z 27010KT 9999 FEW035 SCT150 27/19 A3001 NOSIG=
201205051900 METAR MROC 051900Z 26012KT 9999 SCT030 SCT150 27/19 A2999 NOSIG=
201205052000 METAR MROC 052000Z 24011KT 9999 SCT030 SCT120 27/18 A2996 NOSIG=
201205052100 METAR MROC 052100Z 23010KT 9999 FEW015 SCT025TCU 25/21 A2995 BECMG -SHRA=
201205052200 METAR MROC 052200Z 24011KT 9999 -TS VCSH FEW010 SCT020CB BKN100 25/21 A2995 BECMG SHRA=
201205052300 METAR MROC 052300Z 21007KT 9999 1000E TSRA SCT010CB BKN020 23/20 A2998 BECMG 4000 -SHRA BR=
201205060000 METAR MROC 060000Z 19005KT 2000 -RABR VCTS FEW006 SCT010 BKN020 20/19 A3001 BECMG 5000 -RABR=
201205060100 METAR MROC 060100Z 27004KT 5000 -DZBR FEW006 SCT015 OVC100 20/20 A3003 NOSIG=
201205060200 METAR MROC 060200Z 30005KT 9999 -DZ FEW006 SCT015 OVC100 19/19 A3004 NOSIG=
201205060300 METAR MROC 060300Z 00000KT 9999 -DZ SCT020 BKN090 20/19 A3007 NOSIG=
201205060400 METAR MROC 060400Z 00000KT 9999 RA SCT012 BKN090 20/19 A3008 NOSIG=
201205060500 METAR MROC 060500Z 08002KT 9999 SCT030 SCT120 20/19 A3006 NOSIG=
201205060600 METAR MROC 060600Z 06003KT 9999 FEW025 SCT120 20/20 A3004 NOSIG=
201205060700 METAR MROC 060700Z 09004KT 9999 FEW020 SCT120 19/19 A3001 NOSIG=
201205060800 METAR MROC 060800Z 09003KT 9999 SCT020 19/18 A3000 NOSIG=
201205060900 METAR MROC 060900Z 00000KT 9999 FEW025 19/19 A2999 NOSIG=
201205061000 METAR MROC 061000Z 00000KT 9999 FEW025 19/19 A3000 NOSIG=
201205061100 METAR MROC 061100Z 14005KT CAVOK 18/18 A3000 NOSIG=
201205061200 METAR MROC 061200Z 06003KT CAVOK 19/18 A3001 NOSIG=
201205061300 METAR MROC 061300Z 07003KT CAVOK 22/18 A3003 NOSIG=
201205061400 METAR MROC 061400Z 00000KT CAVOK 25/18 A3004 BECMG 23006KT=
201205061500 METAR MROC 061500Z 11006KT 9999 FEW035 SCT250 26/17 A3005 NOSIG=
201205061600 METAR MROC 061600Z 24007KT 9999 SCT035 26/19 A3005 NOSIG=
201205061700 METAR MROC 061700Z 23008KT 9999 SCT030 27/20 A3004 NOSIG=
201205061800 METAR MROC 061800Z 22009KT 9999 SCT030 27/19 A3002 NOSIG=
201205061900 METAR MROC 061900Z 24010KT 9999 SCT030 SCT250 27/20 A3000 NOSIG=
201205062000 METAR MROC 062000Z 25008KT 9999 -RA VCSH FEW015TCU SCT025 26/20 A2998 BECMG 7000 SHRA BKN030=
201205062100 METAR MROC 062100Z 14006KT 9999 -TSRA FEW010CB SCT025 BKN100 22/20 A2998 BECMG 5000 -SHRA=
201205062200 METAR MROC 062200Z 19006KT 9999 -TSRA FEW010CB SCT025 BKN100 21/19 A3000 BECMG 5000 RA=
201205062300 METAR MROC 062300Z 07003KT 9999 FEW035 BKN100 21/19 A3000 NOSIG=
201205070000 METAR MROC 070000Z 28004KT 9999 -RA SCT030 BKN045 21/19 A2999 NOSIG=
201205070100 METAR MROC 070100Z 27003KT 9999 FEW035 BKN100 22/19 A3004 NOSIG=
201205070200 METAR MROC 070200Z 00000KT 9999 FEW035 BKN100 21/19 A3005 NOSIG=
201205070300 METAR MROC 070300Z 26004KT 9999 FEW035 BKN120 21/20 A3007 NOSIG=
201205070400 METAR MROC 070400Z 31003KT 9999 FEW035 BKN120 21/20 A3007 NOSIG=
201205070500 METAR MROC 070500Z 26002KT 9999 FEW035 BKN120 21/20 A3006 NOSIG=
201205070600 METAR MROC 070600Z 32003KT 9999 FEW035 BKN120 21/19 A3005 NOSIG=
201205070700 METAR MROC 070700Z 00000KT 9999 FEW035 BKN120 21/19 A3002 NOSIG=
201205070800 METAR MROC 070800Z 04005KT CAVOK 20/19 A2999 NOSIG=
201205070900 METAR MROC 070900Z 07006KT CAVOK 19/16 A2996 NOSIG=
201205071000 METAR MROC 071000Z 06007KT CAVOK 19/16 A2996 NOSIG=
201205071100 METAR MROC 071100Z 06006KT CAVOK 19/16 A2996 NOSIG=
201205071200 METAR MROC 071200Z 08006KT CAVOK 19/14 A2998 NOSIG=
201205071300 METAR MROC 071300Z 03006KT CAVOK 20/16 A3000 NOSIG=
201205071400 METAR MROC 071400Z 08004KT CAVOK 25/18 A3000 NOSIG=
201205071500 METAR MROC 071500Z 09004KT CAVOK 27/17 A3002 NOSIG=
201205071600 METAR MROC 071600Z 18004KT 9999 FEW040 SCT120 BKN250 28/19 A3002 BECMG 24007KT=
201205071700 METAR MROC 071700Z 24009KT 9999 FEW040 BKN250 26/20 A3001 NOSIG=
201205071800 METAR MROC 071800Z 22008KT 9999 SCT040 SCT250 25/19 A3000 NOSIG=
201205071900 METAR MROC 071900Z 25009KT 9999 SCT030 SCT250 28/20 A2998 NOSIG=
201205072000 METAR MROC 072000Z 20009KT 9999 FEW015TCU BKN030 26/21 A2995 BECMG -SHRA=
201205072100 METAR MROC 072100Z 22011KT 9999 VCSH FEW015CB BKN025 26/20 A2995 BECMG 5000 SHRA=
201205072200 METAR MROC 072200Z 24008KT 6000 2500N -TSRA FEW015CB SCT025 BKN100 23/20 A2995 NOSIG=
201205072300 METAR MROC 072300Z 28006KT 9999 FEW025 SCT035 BKN070 22/20 A2997 NOSIG=
201205080000 METAR MROC 080000Z 28004KT 9999 -RA SCT030 BKN045 21/19 A2999 NOSIG=
201205080100 METAR MROC 080100Z 29003KT 9999 DZ SCT030 BKN050 21/19 A3001 NOSIG=
201205080200 METAR MROC 080200Z 26003KT 9999 SCT030 BKN050 21/19 A3003 NOSIG=
201205080300 METAR MROC 080300Z 00000KT 9000 FEW015 SCT030 21/20 A3004 NOSIG=
201205080400 METAR MROC 080400Z 23004KT 9999 SCT030 20/16 A3005 NOSIG=
201205080500 METAR MROC 080500Z 16004KT 9999 FEW015 SCT035 BKN250 21/19 A3004 NOSIG=
201205080600 METAR MROC 080600Z 00000KT 9999 FEW015 SCT0100 BKN250 20/19 A3001 NOSIG=
201205080700 METAR MROC 080700Z 10003KT 9000 FEW015 BKN250 19/19 A2998 NOSIG=
201205080800 METAR MROC 080800Z 05003KT 9000 FEW015 BKN300 19/18 A2997 NOSIG=
201205080900 METAR MROC 080900Z 05004KT 9999 FEW015 BKN300 18/17 A2997 NOSIG=
201205081000 METAR MROC 081000Z 07005KT 9999 FEW025 BKN300 18/16 A2995 NOSIG=
201205081100 METAR MROC 081100Z 09004KT CAVOK 17/15 A2997 NOSIG=
201205081200 METAR MROC NIL=
201205081300 METAR MROC 081300Z 09004KT CAVOK 21/16 A3000 NOSIG=
201205081400 METAR MROC 081400Z 13002KT CAVOK 25/16 A3001 NOSIG=
201205081500 METAR MROC 081500Z 25003KT CAVOK 26/17 A3002 NOSIG=
201205081600 METAR MROC 081600Z 22007KT 9999 FEW030 BKN250 27/17 A3003 NOSIG=
201205081700 METAR MROC 081700Z 24007KT 9999 SCT030 SCT250 27/19 A3002 NOSIG=
201205081800 METAR MROC 081800Z 23010KT 9999 FEW020TCU SCT030 BKN250 26/19 A3002 NOSIG=
201205081900 METAR MROC 081900Z 26009KT 9999 VCSH FEW020TCU SCT030 BKN250 27/19 A2998 BECMG 8000 -RA VCTS SCT015CB=
201205082000 METAR MROC 082000Z 22009KT 9999 VCTS VCSH FEW015CB BKN025 27/20 A2996 BECMG 5000 TSRA=
201205082100 METAR MROC 082100Z 10005KT 3000 TSRA SCT012CB BKN025 21/18 A2996 NOSIG=
201205082200 METAR MROC 082200Z 04004KT 9999 -RA VCFG SCT030 BKN100 21/19 A2995 NOSIG=
201205082300 METAR MROC 082300Z 22003KT 9999 VCFG FEW003 SCT030 BKN120 21/19 A2996 BECMG 5000 BR=
201205090000 METAR MROC 090000Z 23004KT 9999 SCT030 BKN120 21/20 A2999 NOSIG=
201205090100 METAR MROC 090100Z 00000KT 9999 SCT010 SCT025 21/20 A3001 NOSIG=
201205090200 METAR MROC 090200Z 00000KT 9999 SCT010 SCT100 21/20 A3001 NOSIG=
201205090300 METAR MROC 090300Z 30004KT 9999 -RA FEW002 BKN100 21/20 A3002 NOSIG=
201205090400 METAR MROC 090400Z 27003KT 3000 BR FEW001 BKN100 20/20 A3003 NOSIG=
201205090500 METAR MROC 090500Z 22003KT 3000 BR FEW001 BKN100 20/20 A3002 NOSIG=
201205090600 METAR MROC 090600Z 06003KT 9999 4000SW BR FEW001 SCT100 BKN250 20/20 A3001 NOSIG=
201205090700 METAR MROC 090700Z 08002KT 9999 FEW020 BKN250 19/18 A2998 NOSIG=
201205090800 METAR MROC 090800Z 04004KT 9999 FEW020 SCT250 18/17 A2997 NOSIG=
201205090900 METAR MROC 090900Z 08003KT 9999 FEW020 SCT250 17/16 A2996 NOSIG=
201205091000 METAR MROC 091000Z 05003KT 9999 FEW002 SCT250 17/15 A2995 NOSIG=
201205091100 METAR MROC 091100Z 08004KT 9999 FEW002 SCT250 17/15 A2996 NOSIG=
201205091200 METAR MROC 091200Z 06006KT CAVOK 18/15 A2997 NOSIG=
201205091300 METAR MROC 091300Z 05004KT CAVOK 22/17 A3000 NOSIG=
201205091400 METAR MROC 091400Z 00000KT CAVOK 25/17 A3001 BECMG 22005KT=
201205091500 METAR MROC 091500Z 20003KT CAVOK 27/18 A3001 NOSIG=
201205091600 METAR MROC 091600Z 13008KT 9999 FEW035 SCT250 28/16 A3000 BECMG 22008KT=
201205091700 METAR MROC 091700Z 25009KT 9999 FEW035 SCT250 28/20 A3001 NOSIG=
201205091800 METAR MROC 091800Z 24010KT 9999 SCT035 27/20 A2999 NOSIG=
201205091900 METAR MROC 091900Z 23007KT 9999 SCT035 27/20 A2995 NOSIG=
201205092000 METAR MROC 092000Z 25009KT 4000 RA BR SCT003 SCT020 24/21 A2994 NOSIG=
201205092100 METAR MROC 092100Z 17007KT 7000 -TSRA SCT015CB BKN120 21/18 A2992 NOSIG=
201205092200 METAR MROC 092200Z 16002KT 9999 FEW035 SCT120 BKN200 21/19 A2992 NOSIG=
201205092300 METAR MROC 092300Z 21004KT 9999 FEW030 SCT120 BKN200 21/19 A2994 NOSIG=
201205092356 METAR MROC 100000Z 31002KT 8000 VCFG FEW030 SCT120 BKN250 21/19 A2995 NOSIG=
201205100000 METAR MROC 100000Z 31002KT 8000 VCFG FEW030 SCT120 BKN250 21/19 A2995 NOSIG=
201205100100 METAR MROC 100100Z 25003KT 8000 VCFG FEW030 SCT120 21/19 A2997 NOSIG=
201205100200 METAR MROC 100200Z 08002KT 9999 FEW030 20/19 A2997 NOSIG=
201205100300 METAR MROC 100300Z 02006KT 9999 FEW030 SCT060 20/19 A2999 NOSIG=
201205100400 METAR MROC 100400Z 15003KT 9999 FEW030 SCT060 20/19 A3000 NOSIG=
201205100500 METAR MROC 100500Z 00000KT 9999 FEW030 SCT080 19/18 A3000 NOSIG=
201205100600 METAR MROC 100600Z 06002KT 9999 FEW030 SCT080 19/18 A2997 NOSIG=
201205100700 METAR MROC 100700Z 08003KT CAVOK 18/17 A2994 NOSIG=
201205100800 METAR MROC 100800Z 09004KT CAVOK 18/16 A2992 NOSIG=
201205100900 METAR MROC 100900Z 16002KT CAVOK 18/16 A2992 NOSIG=
201205101000 METAR MROC 101000Z 06004KT CAVOK 17/15 A2992 NOSIG=
201205101100 METAR MROC 101100Z 07003KT CAVOK 17/16 A2993 NOSIG=
201205101200 METAR MROC 101200Z 09005KT CAVOK 17/15 A2995 NOSIG=
201205101300 METAR MROC 101300Z 02006KT CAVOK 20/16 A2997 BECMG 24006KT=
201205101400 METAR MROC 101400Z 32004KT CAVOK 23/16 A2998 NOSIG=
201205101500 METAR MROC 101500Z 16004KT CAVOK 26/17 A2998 NOSIG=
201205101600 METAR MROC 101600Z 11011KT CAVOK 27/17 A2997 NOSIG=
201205101700 METAR MROC 101700Z 10012KT 9999 FEW030 BKN250 28/17 A2997 NOSIG=
201205101800 METAR MROC 101800Z 24014KT 9999 SCT030 BKN250 26/19 A2996 NOSIG=
201205101900 METAR MROC 101900Z 25016KT 9999 SCT030 SCT250 27/20 A2994 BECMG 8000 VCSH=
201205102000 METAR MROC 102000Z 26012KT 9999 VCSH FEW015TCU SCT030 SCT250 27/20 A2991 NOSIG=
201205102100 METAR MROC 102100Z 03011KT 3000 -TSRA SCT010CB BKN025 22/18 A2993 BECMG 5000 RA BR=
201205102200 METAR MROC 102200Z 13003KT 9000 4000W -TSRA FEW009 SCT030 BKN110 21/19 A2992 BECMG 9999=
201205102300 METAR MROC 102300Z 27004KT 8000 VCFG FEW008 SCT030 BKN120 21/19 A2994 NOSIG=
201205110000 METAR MROC 110000Z 00000KT 9999 FEW008 SCT030 BKN130 21/19 A2995 NOSIG=
201205110100 METAR MROC 110100Z 19002KT 8000 VCFG SCT030 BKN120 21/19 A2997 NOSIG=
201205110200 METAR MROC 110200Z 04003KT 8000 -DZ VCFG SCT030 BKN120 21/20 A2999 NOSIG=
201205110300 METAR MROC 110300Z 06002KT 9999 SCT020 BKN100 21/20 A3000 NOSIG=
201205110400 METAR MROC 110400Z 05002KT 9999 FEW020 20/19 A2999 NOSIG=
201205110500 METAR MROC 110500Z 06003KT 9999 FEW020 20/18 A2998 NOSIG=
201205110600 METAR MROC 110600Z 08002KT 9999 FEW025 20/17 A2997 NOSIG=
201205110700 METAR MROC 110700Z 09002KT CAVOK 20/17 A2997 NOSIG=
201205110800 METAR MROC 110800Z 03006KT CAVOK 20/17 A2996 NOSIG=
201205110900 METAR MROC 110900Z 08006KT CAVOK 20/18 A2995 NOSIG=
201205111000 METAR MROC NIL=
201205111100 METAR MROC 111100Z 05007KT CAVOK 18/18 A2996 NOSIG=
201205111200 METAR MROC 111200Z 11007KT CAVOK 21/16 A2997 NOSIG=
201205111300 METAR MROC 111300Z 08006KT CAVOK 23/17 A3000 NOSIG=
201205111400 METAR MROC 111400Z 09004KT CAVOK 26/17 A3000 NOSIG=
201205111500 METAR MROC 111500Z 10007KT CAVOK 26/16 A3001 NOSIG=
201205111600 METAR MROC 111600Z 09006KT CAVOK 27/15 A3001 NOSIG=
201205111700 METAR MROC 111700Z 10012KT 9999 FEW030 BKN300 28/17 A2999 NOSIG=
201205111800 METAR MROC 111800Z 23007KT 9999 SCT030 SCT300 27/20 A2998 NOSIG=
201205111900 METAR MROC 111900Z 25007KT 9999 FEW015TCU SCT025 BKN250 27/20 A2995 BECMG VCSH=
201205112000 METAR MROC 112000Z 24007KT 8000 VCSH FEW020 SCT030 BKN250 28/20 A2994 NOSIG=
201205112100 METAR MROC 112100Z 24009KT 9999 FEW020 SCT030 BKN250 26/21 A2992 BECMG 5000 RA=
201205112200 METAR MROC 112200Z 20008KT 9999 VCSH FEW020 BKN030 25/20 A2993 BECMG VCTS=
201205112300 METAR MROC 112300Z 24007KT 9999 FEW015 BKN035 23/20 A2995 NOSIG=
201205120000 METAR MROC 120000Z 25005KT 9999 2000SW BR FEW001 SCT035 22/21 A2998 BECMG 3000=
201205120100 METAR MROC 120100Z 23005KT 9999 3000SW BR FEW001 SCT015 BKN035 22/20 A3000 NOSIG=
201205120200 METAR MROC 120200Z 32003KT 9999 3000SW BR FEW001 SCT015 BKN035 22/20 A3002 NOSIG=
201205120300 METAR MROC 120300Z 03007KT 9999 FEW030 SCT120 22/19 A3002 NOSIG=
201205120400 METAR MROC 120400Z 05010KT 9999 FEW030 SCT120 22/17 A3003 NOSIG=
201205120500 METAR MROC 120500Z 05006KT CAVOK 21/17 A3003 NOSIG=
201205120600 METAR MROC 120600Z 02008KT CAVOK 21/16 A3002 NOSIG=
201205120700 METAR MROC 120700Z 12002KT CAVOK 20/16 A3001 NOSIG=
201205120800 METAR MROC 120800Z 06006KT CAVOK 20/17 A2999 NOSIG=
201205120900 METAR MROC 120900Z 03006KT CAVOK 19/16 A2999 NOSIG=
201205121000 METAR MROC 121000Z 06005KT CAVOK 18/16 A3000 NOSIG=
201205121100 METAR MROC 121100Z 05008KT 9999 FEW030 18/16 A3000 NOSIG=
201205121200 METAR MROC 121200Z 06009KT 9999 FEW030 BKN250 21/17 A3001 NOSIG=
201205121300 METAR MROC 121300Z 05006KT 9999 FEW030 BKN250 24/17 A3003 NOSIG=
201205121400 METAR MROC 121400Z 10011KT 9999 FEW030 BKN250 24/17 A3001 NOSIG=
201205121500 METAR MROC 121500Z 10008KT 9999 FEW030 BKN250 25/17 A3001 NOSIG=
201205121600 METAR MROC 121600Z 10009KT 9999 FEW035 BKN250 26/17 A3001 NOSIG=
201205121700 METAR MROC 121700Z 08010KT 9999 FEW035 BKN250 28/17 A3000 BECMG 24006KT=
201205121800 METAR MROC 121800Z 07010KT 9999 FEW035 BKN250 28/17 A2998 NOSIG=
201205121900 METAR MROC 121900Z 06013KT 9999 FEW035 BKN250 29/17 A2996 BECMG 24006KT=
201205122000 METAR MROC 122000Z 08007KT 9999 SCT035 BKN250 29/16 A2996 BECMG 24006KT=
201205122100 METAR MROC 122100Z 07007KT 9999 FEW025TCU BKN035 28/16 A2992 NOSIG=
201205122200 METAR MROC 122200Z 14005KT 9999 -RA FEW020TCU BKN030 25/22 A2993 NOSIG=
201205122300 METAR MROC 122300Z 11004KT 9999 FEW030 SCT040 BKN250 24/18 A2995 NOSIG=
201205130000 METAR MROC 130000Z 25002KT 9999 FEW030 SCT040 BKN250 23/18 A2998 NOSIG=
201205130100 METAR MROC 130100Z 31003KT 9999 FEW040 BKN250 22/20 A2998 NOSIG=
201205130200 METAR MROC 130200Z 23007KT 9999 FEW040 BKN250 21/20 A3000 NOSIG=
201205130300 METAR MROC 130300Z 00000KT 9999 SCT035 21/20 A3002 NOSIG=
201205130400 METAR MROC 130400Z 10002KT 9999 SCT035 21/20 A3003 NOSIG=
201205130500 METAR MROC 130500Z 09004KT CAVOK 20/18 A3003 NOSIG=
201205130600 METAR MROC 130600Z 25004KT CAVOK 21/18 A3000 NOSIG=
201205130700 METAR MROC 130700Z 10003KT CAVOK 20/18 A2998 NOSIG=
201205130800 METAR MROC 130800Z 07003KT CAVOK 20/18 A2995 NOSIG=
201205130900 METAR MROC 130900Z 03004KT CAVOK 20/18 A2995 NOSIG=
201205131000 METAR MROC 131000Z 09006KT CAVOK 21/17 A2994 NOSIG=
201205131100 METAR MROC 131100Z 09008KT 9999 FEW030 SCT250 22/17 A2993 NOSIG=
201205131200 METAR MROC 131200Z 11008KT 9999 FEW030 BKN250 22/17 A2994 NOSIG=
201205131300 METAR MROC 131300Z 07006KT 9999 FEW035 BKN250 23/18 A2997 NOSIG=
201205131400 METAR MROC 131400Z 08003KT 9999 FEW035 BKN250 25/17 A2998 NOSIG=
201205131500 METAR MROC 131500Z 29005KT 9999 FEW035 BKN250 26/18 A2999 NOSIG=
201205131600 METAR MROC 131600Z 27003KT 9999 SCT035 SCT250 27/17 A2998 NOSIG=
201205131700 METAR MROC 131700Z 08009KT 9999 SCT035 SCT120 27/17 A2996 NOSIG=
201205131800 METAR MROC 131800Z 08008KT 9999 SCT035 SCT120 28/17 A2994 NOSIG=
201205131900 METAR MROC 131900Z 08009KT 9999 SCT035 BKN250 29/17 A2992 NOSIG=
201205132000 METAR MROC 132000Z 11007KT 9999 SCT035 BKN250 29/17 A2989 NOSIG=
201205132100 METAR MROC 132100Z 13007KT 9999 FEW030 SCT120 BKN250 29/18 A2988 BECMG 22006KT=
201205132200 METAR MROC 132200Z 14003KT 9999 FEW030 SCT120 BKN250 26/18 A2989 NOSIG=
201205132300 METAR MROC 132300Z 28004KT 9999 FEW030 BKN250 24/23 A2991 NOSIG=
201205140000 METAR MROC 140000Z 29003KT 9999 FEW030 SCT120 SCT250 23/20 A2993 NOSIG=
201205140100 METAR MROC 140100Z 11002KT CAVOK 23/18 A2993 NOSIG=
201205140200 METAR MROC 140200Z 12002KT CAVOK 22/19 A2995 NOSIG=
201205140300 METAR MROC 140300Z 00000KT 9999 FEW035 SCT120 22/20 A2997 NOSIG=
201205140400 METAR MROC 140400Z 31004KT 9999 FEW035 SCT120 22/20 A2998 NOSIG=
201205140500 METAR MROC 140500Z 29002KT 9999 -RA FEW035 BKN120 21/20 A2998 NOSIG=
201205140600 METAR MROC 140600Z 25003KT 9999 FEW035 BKN120 20/19 A2997 NOSIG=
201205140700 METAR MROC 140700Z 32002KT 9999 FEW035 BKN120 21/20 A2995 NOSIG=
201205140800 METAR MROC 140800Z 00000KT 9999 FEW020 BKN120 21/19 A2994 NOSIG=
201205140900 METAR MROC 140900Z 03003KT 9999 FEW020 SCT120 20/19 A2993 NOSIG=
201205141000 METAR MROC 141000Z 09004KT 9999 FEW020 SCT120 20/19 A2993 NOSIG=
201205141100 METAR MROC 141100Z 02005KT CAVOK 20/18 A2993 NOSIG=
201205141200 METAR MROC 141200Z 10004KT CAVOK 21/18 A2993 NOSIG=
201205141300 METAR MROC 141300Z 09006KT CAVOK 22/20 A2995 NOSIG=
201205141400 METAR MROC 141400Z 00000KT CAVOK 23/21 A2999 BECMG 22004KT=
201205141500 METAR MROC 141500Z 00000KT 9999 FEW035 BKN250 25/22 A3000 NOSIG=
201205141600 METAR MROC 141600Z 25004KT 9999 FEW035 BKN250 28/20 A2998 NOSIG=
201205141700 METAR MROC 141700Z 23008KT 9999 FEW030TCU SCT035 BKN250 28/20 A2996 NOSIG=
201205141800 METAR MROC 141800Z 21011KT 9999 FEW020CB SCT035 BKN250 27/19 A2994 NOSIG=
201205141900 METAR MROC 141900Z 22011KT 9999 VCTS VCSH SCT020CB SCT030 26/18 A2992 BECMG 5000 -TSRA=
201205142000 METAR MROC 142000Z 27008KT 9999 RA FEW015CB BKN025 24/20 A2991 BECMG 5000 -TSRA=
201205142100 METAR MROC 142100Z 23008KT 9999 -RA FEW015 BKN030 23/19 A2991 BECMG 5000 -TSRA=
201205142200 METAR MROC 142200Z 29005KT 5000 RA BR FEW001 SCT010 BKN025 22/20 A2992 BECMG 2000 RA BR=
201205142300 METAR MROC 142300Z 24007KT 5000 -RA BR FEW005 SCT020 BKN100 20/20 A2994 NOSIG=
201205142354 METAR MROC 150000Z 31007KT 9999 -RA FEW015 SCT030 BKN100 20/19 A2995 NOSIG=
201205150000 METAR MROC 150000Z 31007KT 9999 -RA FEW015 SCT030 BKN100 20/19 A2995 NOSIG=
201205150100 METAR MROC 150100Z 31005KT 9999 VCFG FEW010 SCT025 BKN100 21/19 A2998 NOSIG=
201205150200 METAR MROC 150200Z 31004KT 9999 VCFG FEW010 SCT020 BKN100 20/19 A2999 NOSIG=
201205150300 METAR MROC 150300Z 28002KT 9999 SCT020 BKN100 20/19 A2997 NOSIG=
201205150400 METAR MROC 150400Z 29002KT 9999 SCT020 BKN100 20/19 A3002 NOSIG=
201205150500 METAR MROC 150500Z 00000KT 9999 FEW020 BKN100 20/19 A3001 NOSIG=
201205150600 METAR MROC 150600Z 09003KT 9999 FEW025 BKN100 20/19 A2999 NOSIG=
201205150700 METAR MROC 150700Z 09004KT 9999 FEW025 BKN100 20/19 A2995 NOSIG=
201205150800 METAR MROC 150800Z 07005KT CAVOK 20/18 A2992 NOSIG=
201205150900 METAR MROC 150900Z 06005KT CAVOK 20/17 A2991 NOSIG=
201205151000 METAR MROC 151000Z 07007KT CAVOK 21/17 A2990 NOSIG=
201205151100 METAR MROC 151100Z 14004KT CAVOK 21/17 A2994 NOSIG=
201205151200 METAR MROC 151200Z 23006KT CAVOK 20/18 A2997 NOSIG=
201205151300 METAR MROC 151300Z 26005KT 9999 SCT030 SCT250 23/19 A3001 NOSIG=
201205151400 METAR MROC 151400Z 31009KT 9999 FEW030 BKN250 23/19 A3002 NOSIG=
201205151500 METAR MROC 151500Z 29007KT 9999 FEW025 BKN250 25/19 A3001 NOSIG=
201205151600 METAR MROC 151600Z 25011KT 9999 FEW025 SCT150 BKN250 26/20 A3000 NOSIG=
201205151700 METAR MROC 151700Z 24014KT 9999 SCT025 SCT120 BKN250 26/20 A3000 NOSIG=
201205151800 METAR MROC 151800Z 25012KT 9999 VCSH SCT015TCU SCT120 BKN250 26/20 A2998 BECMG 7000 RA=
201205151900 METAR MROC 151900Z 23010KT 9999 VCSH SCT015TCU SCT030 BKN100 23/20 A2996 NOSIG=
201205152000 METAR MROC 152000Z 26012KT 9999 SCT015 SCT035 BKN100 23/21 A2995 NOSIG=
201205152100 METAR MROC 152100Z 26005KT 9999 FEW020TCU SCT030 BKN080 23/20 A2995 BECMG 7000 SHRA BKN020=
201205152200 METAR MROC 152200Z 28005KT 9999 -RA FEW020 SCT030 BKN100 23/20 A2994 NOSIG=
201205152253 METAR MROC 152253Z 22003KT 9999 -RA FEW005 SCT015 BKN100 22/20 A2996 NOSIG=
201205152300 METAR MROC 152300Z 22003KT 9999 -RA FEW005 SCT015 BKN100 22/20 A2996 NOSIG=
201205152348 METAR MROC 160000Z 26003KT 7000 -DZ FEW004 SCT015 BKN100 21/21 A2998 BECMG 5000 -RABR=
201205160000 METAR MROC 160000Z 26003KT 7000 -DZ FEW004 SCT015 BKN100 21/21 A2998 BECMG 5000 -RABR=
201205160100 METAR MROC 160100Z 24004KT 8000 -RA FEW003 SCT010 BKN020 21/21 A3002 NOSIG=
201205160200 METAR MROC 160200Z 09003KT 5000 -TSRA FEW010CB OVC020 20/20 A3006 NOSIG=
201205160300 METAR MROC 160300Z 03004KT 7000 RA SCT015 BKN080 20/20 A3007 NOSIG=
201205160400 METAR MROC 160400Z 09003KT 9999 FEW030 BKN090 20/19 A3002 NOSIG=
201205160500 METAR MROC 160500Z 07005KT CAVOK 20/18 A2998 NOSIG=
201205160600 METAR MROC 160600Z 00000KT CAVOK 20/18 A2999 NOSIG=
201205160700 METAR MROC NIL=
201205160800 METAR MROC 160800Z 06003KT 9999 FEW012 BKN120 19/18 A2996 NOSIG=
201205160900 METAR MROC 160900Z 08005KT CAVOK 19/19 A2998 NOSIG=
201205161000 METAR MROC 161000Z 06005KT CAVOK 20/19 A2998 NOSIG=
201205161100 METAR MROC 161100Z 09006KT CAVOK 20/19 A2999 NOSIG=
201205161200 METAR MROC 161200Z 05007KT CAVOK 20/17 A2998 NOSIG=
201205161300 METAR MROC 161300Z 07006KT CAVOK 22/17 A3001 NOSIG=
201205161400 METAR MROC 161400Z 07004KT CAVOK 25/17 A3001=
201205161500 METAR MROC 161500Z 10005KT CAVOK 27/18 A3001 BECMG 22006KT=
201205161600 METAR MROC 161600Z 11010KT 9999 FEW035 SCT120 BKN250 28/18 A3001 NOSIG=
201205161700 METAR MROC 161700Z 10008KT 9999 FEW035 BKN250 28/17 A2999 NOSIG=
201205161800 METAR MROC 161800Z 13009KT 9999 FEW035 BKN250 29/17 A2997 BECMG 22006KT=
201205161900 METAR MROC 161900Z 25010KT 9999 SCT030 BKN250 27/21 A2995=
201205162000 METAR MROC 162000Z 25009KT 9999 FEW020TCU SCT030 BKN250 28/21 A2993 NOSIG=
201205162010 METAR MROC 162010Z 22008KT 9999 FEW010TCU SCT030 BKN250 26/21 A2992 NOSIG=
201205162100 METAR COR MROC 162100Z 22008KT 9999 FEW010TCU SCT030 BKN250 26/21 A2992 NOSIG=
201205162200 METAR MROC 162200Z 20003KT 9999 FEW010TCU BKN030 25/18 A2992 BECMG RA VCTS=
201205162300 METAR MROC 162300Z 21004KT 9999 FEW001 BKN030 24/22 A2992 BECMG VCSH=
201205170000 METAR MROC 170000Z 24005KT 5000 2000SW BR FEW001 BKN030 23/22 A2994 BECMG -RA=
201205170100 METAR MROC 170100Z 25004KT 5000 2000SW -RA BR FEW001 BKN030 22/22 A2996 BECMG 2000=
201205170200 METAR MROC 170200Z 00000KT 5000 1000SW BR FEW001 SCT010 BKN030 22/22 A2999 BECMG 4000 BR=
201205170300 METAR MROC 170300Z 18002KT 8000 VCFG FEW020 BKN030 22/22 A3000 NOSIG=
201205170400 METAR MROC 170400Z 05003KT 9999 FEW020 21/21 A3000 NOSIG=
201205170500 METAR MROC 170500Z 06007KT 9999 FEW025 21/18 A2999 NOSIG=
201205170600 METAR MROC 170600Z 08006KT 9999 FEW025 20/18 A2998 NOSIG=
201205170700 METAR MROC 170700Z 05005KT CAVOK 20/18 A2996 NOSIG=
201205170800 METAR MROC 170800Z 10006KT CAVOK 20/18 A2995 NOSIG=
201205170900 METAR MROC 170900Z 07007KT CAVOK 21/18 A2994 NOSIG=
201205171000 METAR MROC 171000Z 08006KT CAVOK 20/17 A2994 NOSIG=
201205171100 METAR MROC 171100Z 10005KT CAVOK 20/17 A2996 NOSIG=
201205171200 METAR MROC 171200Z 05010KT CAVOK 21/17 A2998 NOSIG=
201205171300 METAR MROC 171300Z 00000KT CAVOK 24/18 A3000 NOSIG=
201205171400 METAR MROC 171400Z 04005KT CAVOK 25/18 A3000 NOSIG=
201205171500 METAR MROC 171500Z 25003KT CAVOK 29/18 A3000 NOSIG=
201205171600 METAR MROC 171600Z 15004KT 9999 FEW040 BKN250 29/20 A3000 BECMG 24006KT=
201205171700 METAR MROC 171700Z 24009KT 9999 SCT040 BKN250 28/20 A2997 NOSIG=
201205171800 METAR MROC 171800Z 23006KT 9999 SCT030 SCT250 28/20 A2995 NOSIG=
201205171900 METAR MROC 171900Z 22007KT 9999 SCT030 SCT250 28/21 A2993 NOSIG=
201205172000 METAR MROC 172000Z 23009KT 9999 SCT030 SCT250 27/21 A2991 NOSIG=
201205172100 METAR MROC 172100Z 23012KT 9999 FEW015CB SCT025 BKN250 25/21 A2990 NOSIG=
201205172200 METAR MROC 172200Z 19003KT 9999 -RA VCSH FEW012CB SCT025 BKN140 23/19 A2991 NOSIG=
201205172300 METAR MROC 172300Z 18003KT 9999 FEW020 SCT140 BKN250 23/20 A2993 NOSIG=
201205180000 METAR MROC 180000Z 00000KT 9999 FEW010 BKN020 22/20 A2995 NOSIG=
201205180100 METAR MROC 180100Z 09002KT 9999 FEW010 BKN025 23/20 A2997 BECMG -RA=
201205180200 METAR MROC 180200Z 27002KT 9999 FEW010 BKN030 23/20 A2998 NOSIG=
201205180300 METAR MROC 180300Z 25004KT 9999 FEW010 BKN030 22/21 A3000=
201205180400 METAR MROC 180400Z 31003KT 9999 FEW015 BKN030 22/21 A3001=
201205180500 METAR MROC 180500Z 34002KT 9999 FEW020 SCT030 22/20 A3000=
201205180600 METAR MROC 180600Z 00000KT 9999 FEW030 SCT100 22/20 A2997=
201205180700 METAR MROC 180700Z 11002KT 9999 FEW010 BKN030 22/20 A2996=
201205180800 METAR MROC 180800Z 04002KT 9999 SCT030 BKN100 21/19 A2993=
201205180900 METAR MROC 180900Z 09003KT 9999 FEW030 BKN100 21/19 A2993=
201205181000 METAR MROC 181000Z 03002KT 9999 FEW015 BKN110 20/18 A2993 NOSIG=
201205181100 METAR MROC 181100Z 02002KT 9999 FEW015 SCT130 BKN250 19/18 A2994 NOSIG=
201205181200 METAR MROC 181200Z 05004KT 9999 FEW035 SCT120 BKN250 20/18 A2995 NOSIG=
201205181300 METAR MROC 181300Z 03004KT CAVOK 22/18 A2996 NOSIG=
201205181400 METAR MROC 181400Z 08003KT CAVOK 25/18 A2998 NOSIG=
201205181500 METAR MROC 181500Z 09005KT CAVOK 26/18 A2997 NOSIG=
201205181600 METAR MROC 181600Z 10005KT CAVOK 27/17 A2997 NOSIG=
201205181700 METAR MROC 181700Z 11006KT 9999 FEW045 BKN250 28/16 A2996 NOSIG=
201205181800 METAR MROC 181800Z 11003KT 9999 FEW040 BKN250 29/16 A2993 NOSIG=
201205181900 METAR MROC 181900Z 26003KT 9999 SCT040 BKN250 31/15 A2991 NOSIG=
201205182000 METAR MROC 182000Z 24004KT 9999 SCT035 BKN250 28/21 A2989 NOSIG=
201205182100 METAR MROC 182100Z 24008KT 9999 SCT035 BKN250 28/23 A2988 NOSIG=
201205182200 METAR MROC 182200Z 23006KT 9999 FEW030 BKN250 27/23 A2987 NOSIG=
201205182300 METAR MROC 182300Z 25007KT 9999 FEW040 OVC220 25/22 A2989 BECMG 5000 -DZ BR=
201205190000 METAR MROC 190000Z 23006KT 9999 FEW030 SCT250 23/21 A2991 NOSIG=
201205190100 METAR MROC 190100Z 23004KT 9999 FEW030 BKN120 22/21 A2994 NOSIG=
201205190200 METAR MROC 190200Z 26003KT 9999 FEW035 BKN120 22/20 A2996 NOSIG=
201205190300 METAR MROC 190300Z 25006KT 9999 FEW035 BKN120 22/20 A2998 NOSIG=
201205190400 METAR MROC 190400Z 28002KT 9999 FEW035 BKN120 22/20 A2998 NOSIG=
201205190500 METAR MROC 190500Z 29003KT 9999 FEW010 BKN120 22/20 A2999 NOSIG=
201205190600 METAR MROC 190600Z 31002KT 9999 FEW010 BKN100 22/20 A2999 NOSIG=
201205190700 METAR MROC 190700Z 28002KT 9999 FEW010 BKN100 21/19 A2996 NOSIG=
201205190800 METAR MROC 190800Z 32002KT 9999 FEW010 BKN100 21/19 A2994 NOSIG=
201205190900 METAR MROC 190900Z 31002KT 9999 FEW010 BKN100 22/19 A2993 NOSIG=
201205191000 METAR COR MROC 191000Z 09001KT 9999 FEW010 SCT100 21/20 A2992 NOSIG=
201205191100 METAR MROC 191100Z 17001KT 9999 FEW012 SCT035 BKN100 21/19 A2993 NOSIG=
201205191200 METAR MROC 191200Z 03002KT 9999 FEW012 SCT035 BKN100 22/19 A2994 NOSIG=
201205191300 METAR MROC 191300Z 13003KT 9999 FEW015 SCT035 BKN120 22/21 A2996 BECMG 22006KT=
201205191400 METAR MROC 191400Z 00000KT 9999 FEW025 SCT130 BKN250 24/20 A2998 BECMG 22006KT=
201205191500 METAR MROC 191500Z 00000KT 9999 FEW030 BKN220 26/20 A2998 BECMG 22006KT=
201205191600 METAR MROC 191600Z 27008KT 9999 SCT030 BKN250 27/21 A2999 NOSIG=
201205191700 METAR MROC 191700Z 24007KT 9999 SCT030 BKN240 27/21 A2997 NOSIG=
201205191800 METAR MROC 191800Z 25009KT 9999 SCT025 BKN250 27/20 A2994 NOSIG=
201205191900 METAR MROC 191900Z 24009KT 9999 FEW020TCU SCT025 SCT250 26/21 A2990 NOSIG=
201205192000 METAR MROC 192000Z 24011KT 9999 -TSRA SCT015CB SCT025 26/21 A2990 BECMG 5000 TSRA=
201205192045 METAR MROC 192045Z 23012KT 0500 TSRA FEW001 SCT005CB BKN015 22/20 A2991 NOSIG=
201205192100 METAR MROC 192100Z 25012KT 0400 +TSRA SCT001 SCT010CB BKN020 21/20 A2991 NOSIG=
201205192200 METAR MROC 192200Z 02004KT 9999 BKN015 21/21 A2991 NOSIG=
201205192300 METAR MROC 192300Z 21013KT 5000 0500SW -RA BR FEW001 SCT005 BKN020 20/20 A2992 NOSIG=
201205192350 METAR MROC 200000Z 27009KT 8000 VCFG FEW005 SCT015 BKN025 20/20 A2996 NOSIG=
201205200000 METAR MROC 200000Z 27009KT 8000 VCFG FEW005 SCT015 BKN025 20/20 A2996 NOSIG=
201205200100 METAR MROC 200100Z 29005KT 8000 VCFG FEW005 SCT015 BKN025 20/20 A2998 NOSIG=
201205200200 METAR MROC 200200Z 12007KT 9999 BCFG FEW010 SCT025 BKN100 20/20 A2999 NOSIG=
201205200300 METAR MROC 200300Z 07003KT 9999 FEW010 SCT025 BKN100 20/20 A2999 NOSIG=
201205200400 METAR MROC 200400Z 11002KT 9999 FEW030 BKN100 20/20 A2999 NOSIG=
201205200500 METAR MROC 200500Z 29003KT 9999 FEW030 BKN100 20/20 A2999 NOSIG=
201205200600 METAR MROC 200600Z 00000KT 9999 FEW020 BKN100 20/20 A2998 NOSIG=
201205200700 METAR MROC 200700Z 00000KT 9999 FEW020 BKN100 20/20 A2997 NOSIG=
201205200800 METAR MROC 200800Z 00000KT 9999 FEW020 SCT040 BKN120 20/20 A2996 NOSIG=
201205200900 METAR MROC 200900Z 00000KT 9999 FEW020 SCT050 BKN120 20/19 A2994 NOSIG=
201205201000 METAR MROC 201000Z 00000KT 9999 FEW030 SCT070 BKN120 20/20 A2995 NOSIG=
201205201100 METAR MROC 201100Z 00000KT 9999 FEW030 SCT070 BKN120 20/20 A2995 NOSIG=
201205201200 METAR MROC 201200Z 05002KT 9999 FEW030 SCT100 BKN150 20/19 A2995 NOSIG=
201205201300 METAR MROC NIL=
201205201400 METAR MROC 201400Z 00000KT 9999 FEW030 SCT120 BKN220 24/19 A3000 NOSIG=
201205201500 METAR MROC 201500Z 24003KT 9999 FEW030 SCT100 BKN230 24/19 A3002 NOSIG=
201205201600 METAR MROC 201600Z 26004KT 9999 SCT025 SCT100 25/19 A3000 NOSIG=
201205201700 METAR MROC 201700Z 25004KT 9999 -RA SCT025 BKN100 24/19 A3000 NOSIG=
201205201800 METAR MROC 201800Z 24009KT 7000 -RA BKN020 23/19 A2999 BECMG 5000 RA=
201205201900 METAR MROC 201900Z 23005KT 9999 VCSH SCT020 BKN100 24/21 A2998 NOSIG=
201205202000 METAR MROC 202000Z 25009KT 9999 SCT025 BKN110 25/20 A2994 NOSIG=
201205202100 METAR MROC 202100Z 25010KT 9999 SCT020 BKN110 24/20 A2992 BECMG BKN020=
201205202200 METAR MROC 202200Z 27003KT 9999 FEW005 SCT015 BKN110 22/19 A2993 NOSIG=
201205202300 METAR MROC 202300Z 28006KT 8000 DZ VCFG SCT005 BKN015 21/20 A2994 BECMG 5000 -RA BR BKN009=
201205210000 METAR MROC 210000Z 26005KT 8000 -DZ VCFG 21/20 A2997 BECMG RA=
201205210100 METAR MROC 210100Z 28003KT 5000 2400SW RA BR FEW001 BKN012 21/21 A3000 NOSIG=
201205210200 METAR MROC 210200Z 27003KT 9999 -RA VCFG FEW004 SCT018 BKN100 21/20 A3002 NOSIG=
201205210300 METAR MROC 210300Z 31003KT 9999 DZ SCT015 BKN100 21/21 A3004 NOSIG=
201205210400 METAR MROC 210400Z 21002KT 9999 SCT012 BKN100 21/20 A3004 NOSIG=
201205210500 METAR MROC 210500Z 24002KT 9999 -RA SCT010 BKN090 21/21 A3004 NOSIG=
201205210600 METAR MROC 210600Z 11002KT 9999 -RA FEW006 SCT025 BKN100 21/20 A3002 NOSIG=
201205210700 METAR MROC 210700Z 08002KT 9999 -RA SCT025 BKN100 20/20 A2999 NOSIG=
201205210800 METAR MROC 210800Z 00000KT 9999 -DZ FEW025 BKN100 20/20 A2998 NOSIG=
201205210900 METAR MROC 210900Z 00000KT 9999 -DZ OVC100 20/20 A3000 NOSIG=
201205211000 METAR MROC 211000Z 00000KT 9999 4000SW -DZ BR FEW001 OVC100 20/20 A3000 BECMG 3000 BR=
201205211100 METAR MROC 211100Z 00000KT 9999 FEW003 OVC100 20/20 A2999 NOSIG=
201205211200 METAR MROC 211200Z 07002KT 9999 -DZ FEW045 BKN100 20/20 A2998 NOSIG=
201205211300 MROC 211300Z 19002KT 9999 -DZ FEW002 SCT150 BKN200 21/19 A3001 NOSIG=
201205211400 METAR MROC 211400Z 14005KT 9999 -DZ FEW005 SCT150 BKN200 22/20 A3003 NOSIG=
201205211500 METAR MROC 211500Z 27002KT 9999 FEW030 BKN150 24/19 A3005 NOSIG=
201205211600 METAR MROC 211600Z 25007KT 9999 SCT030 BKN250 24/19 A3005 NOSIG=
201205211700 METAR MROC 211700Z 26009KT 9999 FEW020 SCT030 BKN250 25/19 A3004 NOSIG=
201205211800 METAR MROC 211800Z 25008KT 9999 SCT025 SCT120 BKN250 26/19 A3002 NOSIG=
201205211900 METAR MROC 211900Z 25011KT 9999 SCT025 SCT100 BKN250 26/19 A3000 NOSIG=
201205212000 METAR MROC 212000Z 23006KT 9999 SCT030 BKN100 27/19 A2997 NOSIG=
201205212100 METAR MROC 212100Z 24006KT 9999 SCT030 BKN100 26/20 A2995 NOSIG=
201205212200 METAR MROC 212200Z 25007KT 9999 FEW010TCU SCT030 BKN100 26/20 A2995 NOSIG=
201205212300 METAR MROC 212300Z 24007KT 9999 3000E -TSRA FEW010CB SCT030 OVC100 22/21 A2997 BECMG 3000 BKN010=
201205220000 METAR MROC 220000Z 24004KT 9999 FEW010 SCT020 OVC100 21/20 A2999 NOSIG=
201205220100 METAR MROC 220100Z 27004KT 9999 -RA FEW005 SCT020 OVC100 21/20 A3002 NOSIG=
201205220200 METAR MROC 220200Z 25002KT 9999 -RA FEW005 SCT020 OVC100 21/20 A3004 NOSIG=
201205220300 METAR MROC 220300Z 00000KT 9999 -DZ FEW005 SCT020 OVC100 21/20 A3004 NOSIG=
201205220400 METAR MROC 220400Z 00000KT 9999 FEW005 SCT020 OVC100 21/20 A3004 NOSIG=
201205220500 METAR MROC 220500Z 20003KT 9999 FEW005 SCT020 OVC100 21/20 A3003 NOSIG=
201205220600 METAR MROC 220600Z 13002KT 9999 FEW020 BKN100 21/21 A3003 NOSIG=
201205220700 METAR MROC 220700Z 29003KT 9999 FEW020 BKN120 21/21 A3001 NOSIG=
201205220800 METAR MROC 220800Z 00000KT 0100 FG SCT001 BKN005 21/21 A2999 BECMG 5000 BR=
201205220900 METAR MROC 220900Z 05002KT 0100 FG SCT001 BKN005 20/20 A2998 BECMG 5000 BR=
201205221000 METAR MROC 221000Z 05003KT 9999 BCFG FEW020 SCT120 20/20 A2999 NOSIG=
201205221100 METAR MROC 221100Z 03004KT 9999 BCFG FEW020 SCT120 19/19 A2999 NOSIG=
201205221200 METAR MROC 221200Z 14003KT 9999 1000SW SCT001 BKN120 20/20 A3001 NOSIG=
201205221300 METAR MROC 221300Z 00000KT 9999 1000SW FEW001 BKN120 21/20 A3003 NOSIG=
201205221400 METAR MROC 221400Z 00000KT 9999 2000SW FEW001 BKN120 22/20 A3005 NOSIG=
201205221500 METAR MROC 221500Z 28004KT 9999 2000SW FEW001 BKN120 23/20 A3006 NOSIG=
201205221600 METAR MROC 221600Z 25006KT 9999 SCT020 BKN120 24/20 A3007 NOSIG=
201205221700 METAR MROC 221700Z 24006KT 9999 SCT020 BKN120 25/20 A3006 NOSIG=
201205221800 METAR MROC 221800Z 24006KT 9999 SCT020 BKN120 25/20 A3003 NOSIG=
201205221900 METAR MROC 221900Z 26004KT 9999 SCT020 BKN120 27/20 A2999 NOSIG=
201205222000 METAR MROC 222000Z 23008KT 9999 SCT030 BKN120 26/25 A2997 NOSIG=
201205222100 METAR MROC 222100Z 25010KT 9999 VCSH FEW015CB SCT025 BKN120 25/21 A2996 BECMG RA=
201205222200 METAR MROC 222200Z 25010KT 9999 VCTS VCSH SCT012CB BKN025 24/21 A2997 BECMG 6000 TSRA=
201205222300 METAR MROC 222300Z 18005KT 9999 DZ VCSH SCT010 SCT015CB 22/21 A2998 BECMG 5000 RA=
201205230000 METAR MROC 230000Z 00000KT 9999 -RA SCT030 BKN100 22/20 A3001 BECMG 5000 RA=
201205230100 METAR MROC 230100Z 09003KT 9999 -RA FEW030 BKN100 21/20 A3001 NOSIG=
201205230200 METAR MROC 230200Z 10002KT 9999 -RA FEW030 BKN100 22/20 A3002 NOSIG=
201205230300 METAR MROC 230300Z 00000KT 9999 -RA FEW035 BKN100 21/20 A3001 NOSIG=
201205230400 METAR MROC 230400Z 17003KT 9999 FEW030 BKN100 20/19 A3001 NOSIG=
201205230500 METAR MROC 230500Z 00000KT 9999 4000W FEW004 SCT020 BKN100 21/20 A3000 NOSIG=
201205230600 METAR MROC 230600Z 06004KT 9999 FEW030 BKN120 21/21 A3000 NOSIG=
201205230700 METAR MROC 230700Z 00000KT 9999 FEW030 BKN120 20/19 A2998 NOSIG=
201205230800 METAR MROC 230800Z 12003KT 9999 VCFG FEW030 BKN120 20/19 A2998=
201205230900 METAR MROC NIL=
201205231000 METAR MROC 231000Z 07003KT CAVOK 19/18 A2998 NOSIG=
201205231100 METAR MROC 231100Z 07003KT CAVOK 19/18 A2998 NOSIG=
201205231200 METAR MROC 231200Z 08003KT CAVOK 20/18 A2999 NOSIG=
201205231300 METAR MROC 231300Z 12003KT CAVOK 21/18 A3002 NOSIG=
201205231400 METAR MROC 231400Z 27002KT 9999 FEW020 BKN100 24/19 A3005 NOSIG=
201205231500 METAR MROC 231500Z 25005KT 9999 FEW025 BKN100 24/19 A3006 NOSIG=
201205231600 METAR MROC 231600Z 28004KT 9999 FEW025 SCT120 BKN250 24/19 A3006 NOSIG=
201205231700 METAR MROC 231700Z 22004KT 9999 FEW025 SCT120 BKN250 27/19 A3003 NOSIG=
201205231800 METAR MROC 231800Z 25006KT 9999 FEW030 BKN250 28/19 A2999 NOSIG=
201205231900 METAR MROC 231900Z 26010KT 9999 SCT030 BKN250 26/20 A2997 NOSIG=
201205232000 METAR MROC 232000Z 25008KT 9999 FEW020 SCT030 BKN250 25/20 A2995 NOSIG=
201205232100 METAR MROC 232100Z 24010KT 9999 FEW020 SCT030 BKN250 28/22 A2994 NOSIG=
201205232200 METAR MROC 232200Z 22007KT 9999 FEW015 SCT025 BKN250 25/22 A2994 NOSIG=
201205232300 METAR MROC 232300Z 23006KT 9999 FEW015 SCT025 BKN250 25/21 A2993 NOSIG=
201205240000 METAR MROC 240000Z 25007KT 9999 SCT008 BKN020 22/21 A2997 BECMG 5000 -RA BR=
201205240100 METAR MROC 240100Z 24005KT 9999 SCT005 BKN012 22/22 A2997 BECMG 5000 -RA BR=
201205240200 METAR MROC 240200Z 24005KT 9999 4800SW BR SCT003 BKN008 22/22 A2999 BECMG -RA=
201205240300 METAR MROC 240300Z 24003KT 9999 3000SW FEW001 SCT005 BKN010 22/22 A3000 BECMG -RA=
201205240400 METAR MROC 240400Z 23002KT 9999 3000SW FEW001 SCT005 BKN015 22/22 A3001 BECMG -RA=
201205240500 METAR MROC 240500Z 24003KT 9999 3000SW FEW001 SCT005 BKN015 22/22 A3002 BECMG 3000=
201205240600 METAR MROC 240600Z 20002KT 3000 BR FEW001 SCT005 BKN015 21/21 A3001 NOSIG=
201205240700 METAR MROC 240700Z 22002KT 3000 BR FEW001 SCT005 BKN015 21/21 A2998 NOSIG=
201205240800 METAR MROC 240800Z 11002KT 2000 BR FEW001 SCT005 BKN015 21/21 A2997 NOSIG=
201205240900 METAR MROC 240900Z 25002KT 5000 BR FEW001 SCT005 BKN015 21/21 A2996 NOSIG=
201205241000 METAR MROC 241000Z 22001KT 5000 BR FEW001 SCT005 BKN015 21/21 A2997 BECMG 3000=
201205241100 METAR MROC 241100Z 22002KT 9999 FEW001 SCT010 BKN100 21/21 A2998 BECMG 5000=
201205241200 METAR MROC 241200Z 29003KT 4000 BR FEW001 SCT010 BKN100 21/21 A3000 NOSIG=
201205241300 METAR MROC 241300Z 00000KT 9999 4000SW BR FEW001 SCT010 BKN120 22/22 A3000 NOSIG=
201205241400 METAR MROC 241400Z 00000KT 8000 VCFG FEW001 SCT015 BKN130 24/23 A3001 BECMG 22006KT=
201205241500 METAR MROC 241500Z 26007KT 8000 BR VCFG FEW002 SCT020 BKN120 23/21 A3004 NOSIG=
201205241600 METAR MROC 241600Z 27007KT 9999 SCT025 BKN120 24/20 A3005 NOSIG=
201205241700 METAR MROC 241700Z 25007KT 9999 FEW006 BKN020 24/20 A3004 BECMG RA=
201205241800 METAR MROC 241800Z 27007KT 9999 BKN025 SCT100 22/20 A3003 BECMG RA=
201205241900 METAR MROC 241900Z 31006KT 9999 SCT025 SCT100 22/20 A3001 BECMG RA=
201205242000 METAR MROC 242000Z 25005KT 9999 FEW015 SCT100 BKN250 22/19 A2997 NOSIG=
201205242100 METAR MROC 242100Z 23003KT 9999 FEW020 SCT030 BKN250 24/19 A2996=
201205242200 METAR MROC 242200Z 20005KT 9999 SCT035 BKN250 24/20 A2994 NOSIG=
201205242300 METAR MROC 242300Z 26003KT 9999 SCT030 BKN100 23/19 A2997 NOSIG=
201205242342 METAR MROC 250000Z 21003KT 9999 SCT035 BKN100 22/20 A2997 NOSIG=
201205250000 METAR MROC 250000Z 21003KT 9999 SCT035 BKN100 22/20 A2997 NOSIG=
201205250100 METAR MROC 250100Z 00000KT 9999 SCT035 BKN100 22/20 A2999 NOSIG=
201205250200 METAR MROC 250200Z 00000KT 9999 SCT035 BKN100 22/20 A3000 NOSIG=
201205250300 METAR MROC 250300Z 10002KT 9999 SCT030 SCT250 22/20 A3002 NOSIG=
201205250400 METAR MROC 250400Z 12002KT 9999 SCT030 SCT250 22/20 A3004 NOSIG=
201205250500 METAR MROC 250500Z 00000KT 9999 FEW030 SCT100 22/20 A3003 NOSIG=
201205250600 METAR MROC 250600Z 00000KT 9999 FEW010 SCT030 BKN100 21/20 A3002 NOSIG=
201205250700 METAR MROC 250700Z 09003KT 9999 FEW030 SCT120 BKN250 21/19 A3000 NOSIG=
201205250800 METAR MROC 250800Z 08004KT CAVOK 20/19 A3000 NOSIG=
201205250900 METAR MROC 250900Z 09005KT CAVOK 19/18 A2998 NOSIG=
201205251000 METAR MROC 251000Z 05004KT CAVOK 19/17 A2998 NOSIG=
201205251100 METAR MROC 251100Z 05004KT CAVOK 19/17 A2998 NOSIG=
201205251200 METAR MROC 251200Z 07004KT CAVOK 21/17 A3001 NOSIG=
201205251300 METAR MROC 251300Z 08003KT CAVOK 23/18 A3002=
201205251400 METAR MROC 251400Z 07005KT CAVOK 25/18 A3003=
201205251500 METAR MROC 251500Z 22005KT 9999 FEW035 BKN250 26/19 A3003 NOSIG=
201205251600 METAR MROC 251600Z 23008KT 9999 FEW035 BKN250 26/20 A3002=
201205251700 METAR MROC 251700Z 24009KT 9999 SCT035 BKN250 27/21 A3002=
201205251800 METAR MROC 251800Z 24009KT 9999 SCT030 BKN250 28/21 A3001 RMK RN DST E NOSIG=
201205251900 METAR MROC 251900Z 26007KT 9999 VCTS SCT010CB BKN025 26/21 A3000=
201205252000 METAR MROC 252000Z 24006KT 9999 -RA FEW010 SCT025 BKN100 24/21 A2999=
201205252100 METAR MROC 252100Z 25006KT 9999 FEW010 SCT020 24/21 A2998=
201205252200 METAR MROC 252200Z 24006KT 7000 VCFG SCT010 BKN020 24/21 A2995 NOSIG=
201205252240 METAR MROC 252240Z 18003KT 1500 RA BR SCT006 BKN015 23/21 A2997 BECMG 4000 RA BR=
201205252300 METAR MROC 252300Z 19003KT 1500 -RA BR SCT006 BKN015 22/21 A2997 BECMG 3000 -RA BR=
201205260000 METAR MROC 260000Z 21005KT 9999 4000SW VCTS FEW005 SCT020 OVC110 21/19 A3000 BECMG -RA=
201205260100 METAR MROC 260100Z 31005KT 9999 FEW006 SCT020 BKN110 20/19 A3002 RMK LTNG DST SW NOSIG=
201205260200 METAR MROC 260200Z 06004KT 9999 SCT020 BKN110 21/19 A3002 NOSIG=
201205260300 METAR MROC 260300Z 08004KT 9999 FEW020 SCT120 21/19 A3003 NOSIG=
201205260400 METAR MROC 260400Z 12006KT CAVOK 22/19 A3004 NOSIG=
201205260500 METAR MROC 260500Z 27004KT CAVOK 20/19 A3004 NOSIG=
201205260600 METAR MROC 260600Z 15003KT CAVOK 20/19 A3004 NOSIG=
201205260700 METAR MROC 260700Z 31002KT CAVOK 20/18 A3002 NOSIG=
201205260800 METAR MROC 260800Z 10003KT CAVOK 19/18 A2999 NOSIG=
201205260900 METAR MROC 260900Z 05002KT CAVOK 19/19 A2999 NOSIG=
201205261000 METAR MROC 261000Z 06003KT CAVOK 18/18 A3000 NOSIG=
201205261100 METAR MROC 261100Z 06004KT CAVOK 19/19 A2998 NOSIG=
201205261200 METAR MROC 261200Z 06003KT CAVOK 21/17 A3000 NOSIG=
201205261300 METAR MROC NIL=
201205261352 METAR MROC 291400Z 11007KT CAVOK 26/19 A2998 NOSIG=
201205261400 METAR MROC 261400Z 09007KT CAVOK 26/18 A3002 NOSIG=
201205261500 METAR MROC 261500Z 09007KT CAVOK 27/17 A3000 NOSIG=
201205261600 METAR MROC 261600Z 12007KT 9999 FEW035 BKN130 27/17 A2999 BECMG 24006KT=
201205261700 METAR MROC 261700Z 11007KT 9999 FEW035 BKN130 28/17 A2988 NOSIG=
201205261800 METAR MROC 261800Z 21007KT 9999 SCT030 SCT100 27/21 A2996 NOSIG=
201205261900 METAR MROC 261900Z 24010KT 9000 VCSH FEW015TCU SCT025 BKN100 25/21 A2995 BECMG SHRA=
201205262000 METAR MROC 262000Z 25008KT 9000 4000NE -RA FEW010 SCT020 BKN110 23/21 A2994 BECMG 7000 SHRA=
201205262100 METAR MROC 262100Z 11004KT 9999 FEW010 SCT020 BKN110 24/21 A2993 BECMG 7000 SHRA=
201205262200 METAR MROC 262200Z 11006KT 9999 SCT020 BKN100 24/17 A2995 NOSIG=
201205262300 METAR MROC 262300Z 07007KT 9999 -RA SCT035 BKN100 21/18 A2994 NOSIG=
201205270000 METAR MROC 270000Z 11007KT 9999 FEW035 BKN100 22/17 A2995 NOSIG=
201205270100 METAR MROC 270100Z 08003KT CAVOK 22/17 A2997 NOSIG=
201205270200 METAR MROC 270200Z 28003KT CAVOK 21/18 A2999 NOSIG=
201205270300 METAR MROC 270300Z 00000KT CAVOK 21/18 A2999 NOSIG=
201205270400 METAR MROC 270400Z 08003KT CAVOK 20/17 A2999 NOSIG=
201205270500 METAR MROC 270500Z 00000KT CAVOK 19/16 A2999 NOSIG=
201205270600 METAR MROC 270600Z 07003KT CAVOK 19/17 A2998 NOSIG=
201205270700 METAR MROC 270700Z 09002KT CAVOK 19/16 A2997 NOSIG=
201205270800 METAR MROC 270800Z 00000KT CAVOK 18/16 A2996 NOSIG=
201205270900 METAR MROC 270900Z 05007KT CAVOK 18/16 A2995 NOSIG=
201205271000 METAR MROC 271000Z 06003KT CAVOK 18/15 A2997 NOSIG=
201205271052 METAR MROC 271052Z 08004KT CAVOK 17/15 A2996 NOSIG=
201205271100 METAR MROC 271100Z 08004KT CAVOK 17/15 A2996 NOSIG=
201205271200 METAR MROC 271200Z 07005KT CAVOK 18/15 A2997 NOSIG=
201205271300 METAR MROC 271300Z 08005KT CAVOK 20/16 A2997 NOSIG=
201205271400 METAR MROC 271400Z 11003KT CAVOK 25/16 A2998 NOSIG=
201205271500 METAR MROC 271500Z 23005KT CAVOK 27/17 A2998 NOSIG=
201205271600 METAR MROC 271600Z 24006KT 9999 FEW040 SCT250 27/17 A2999 NOSIG=
201205271700 METAR MROC 271700Z 24007KT 9999 FEW040 SCT250 28/18 A2997 NOSIG=
201205271800 METAR MROC 271800Z 25006KT 9999 FEW040 SCT250 27/17 A2995 NOSIG=
201205271900 METAR MROC 271900Z 25006KT 9999 SCT030 SCT250 26/19 A2993 NOSIG=
201205272000 METAR MROC 272000Z 25010KT 9999 SCT030 SCT250 26/20 A2992 BECMG VCSH=
201205272100 METAR MROC 272100Z 24009KT 9999 FEW020 SCT040 BKN250 26/20 A2990 NOSIG=
201205272200 METAR MROC 272200Z 25008KT 9999 FEW020TCU BKN040 25/21 A2991 BECMG 8000 VCSH=
201205272300 METAR MROC 272300Z 24005KT 9999 FEW020TCU SCT040 BKN250 24/21 A2992 NOSIG=
201205280000 METAR MROC 280000Z 21003KT 9999 VCSH FEW015TCU SCT035 BKN250 22/21 A2993 BECMG 8000 RA=
201205280100 METAR MROC 280100Z 25002KT 9999 FEW010 BKN030 23/21 A2997 NOSIG=
201205280200 METAR MROC 280200Z 26004KT 9999 FEW010 SCT040 22/21 A2998 NOSIG=
201205280300 METAR MROC 280300Z 00000KT 9999 FEW005 SCT040 22/21 A2998 NOSIG=
201205280400 METAR MROC 280400Z 10005KT CAVOK 21/18 A2997 NOSIG=
201205280500 METAR MROC 280500Z 06009KT CAVOK 22/18 A2997 NOSIG=
201205280600 METAR MROC 280600Z 08005KT CAVOK 22/18 A2997 NOSIG=
201205280700 METAR MROC 280700Z 00000KT CAVOK 21/18 A2994 NOSIG=
201205280800 METAR MROC 280800Z 06003KT CAVOK 21/18 A2993 NOSIG=
201205280900 METAR MROC 280900Z 11005KT CAVOK 20/18 A2993 NOSIG=
201205281000 METAR MROC 281000Z 05005KT CAVOK 20/17 A2994 NOSIG=
201205281100 METAR MROC 281100Z 10004KT 9999 FEW030 SCT250 22/17 A2995 NOSIG=
201205281200 METAR MROC 281200Z 07004KT 9999 SCT030 SCT250 21/17 A2997 NOSIG=
201205281300 METAR MROC 281300Z 03004KT CAVOK 23/18 A2997 NOSIG=
201205281400 METAR MROC 281400Z 09006KT CAVOK 26/18 A2996 NOSIG=
201205281500 METAR MROC 281500Z 10007KT CAVOK 28/18 A2996 NOSIG=
201205281600 METAR MROC 281600Z 22006KT 9999 FEW035 SCT250 29/20 A2995 NOSIG=
201205281700 METAR MROC 181700Z 23010KT 9999 SCT035 28/21 A2995 NOSIG=
201205281800 METAR MROC 281800Z 25010KT 9999 FEW025 SCT035 28/22 A2994 NOSIG=
201205281900 METAR MROC 281900Z 25011KT 9999 VCSH FEW017CB SCT025 28/21 A2992 BECMG 8000 -RA VCTS=
201205282000 METAR MROC 282000Z 20008KT 8000 4000NE TSRA SCT015CB BKN025 25/22 A2992 BECMG 3000 +TSRA=
201205282032 METAR MROC 282032Z 07006KT 3000 +TSRA SCT012CB BKN020 21/18 A2992 BECMG 5000=
201205282100 METAR MROC 282100Z 20004KT 5000 TSRA SCT015CB BKN025 20/19 A2993 NOSIG=
201205282200 METAR MROC 282200Z 16002KT 9999 DZ VCFG FEW003 OVC090 20/20 A2995 NOSIG=
201205282300 METAR MROC 282300Z 26004KT 9999 -DZ FEW006 SCT020 BKN100 21/20 A2997 NOSIG=
201205290000 METAR MROC 290000Z 29004KT 9999 -DZ FEW012 BKN090 20/19 A2999 NOSIG=
201205290100 METAR MROC 290100Z 10002KT 9999 -DZ FEW008 BKN100 20/20 A2997 NOSIG=
201205290200 METAR MROC 290200Z 00000KT CAVOK 21/20 A2998 NOSIG=
201205290300 METAR MROC 290300Z 06002KT CAVOK 21/20 A2999 NOSIG=
201205290400 METAR MROC 290400Z 10004KT CAVOK 21/20 A3001 NOSIG=
201205290500 METAR MROC 290500Z 07003KT CAVOK 20/20 A3000 NOSIG=
201205290600 METAR MROC 290600Z 10003KT CAVOK 20/19 A2999 NOSIG=
201205290700 METAR MROC 290700Z 10003KT CAVOK 20/19 A2996 NOSIG=
201205290800 METAR MROC 290800Z 09005KT CAVOK 19/18 A2994 NOSIG=
201205290900 METAR MROC 290900Z 06005KT CAVOK 19/18 A2993 NOSIG=
201205291000 METAR MROC 291000Z 05006KT CAVOK 20/18 A2993 NOSIG=
201205291100 METAR MROC 291100Z 05007KT CAVOK 21/18 A2995 NOSIG=
201205291200 METAR MROC 291200Z 08005KT CAVOK 22/18 A2996 NOSIG=
201205291300 METAR MROC 291300Z 07007KT CAVOK 24/20 A2997 NOSIG=
201205291400 METAR MROC 291400Z 11007KT CAVOK 26/19 A2998 NOSIG=
201205291500 METAR MROC 291500Z 20007KT CAVOK 26/19 A2999 NOSIG=
201205291600 METAR MROC 291600Z 25008KT 9999 FEW035 BKN250 26/20 A2999 NOSIG=
201205291700 METAR MROC 291700Z 27006KT 9999 FEW035 BKN250 27/21 A2997 NOSIG=
201205291800 METAR MROC 291800Z 25006KT 9999 SCT020TCU BKN250 28/21 A2997 NOSIG=
201205291900 METAR MROC 291900Z 25010KT 9999 FEW020CB SCT025 28/21 A2994 BECMG -TSRA=
201205292000 METAR MROC 292000Z 23010KT 9999 FEW020CB SCT025 26/22 A2992 BECMG -TSRA=
201205292100 METAR MROC 292100Z 25011KT 9999 VCTS SCT015CB BKN025 25/22 A2992 BECMG 7000 -TSRA=
201205292200 METAR MROC 292200Z 24007KT 5000 -TSRA FEW010CB SCT020 BKN100 22/22 A2992 NOSIG=
201205292300 METAR MROC 292300Z 33007KT 9999 FEW030 OVC100 23/21 A2994=
201205292343 METAR MROC 300000Z 31008KT 9999 VCTS FEW005 SCT015 BKN100 23/20 A2994=
201205300000 METAR MROC 300000Z 31008KT 9999 VCTS FEW005 SCT015 BKN100 23/20 A2994=
201205300020 METAR MROC 300020Z 03007KT 9999 SCT010 BKN025 22/18 A2995 NOSIG=
201205300100 METAR MROC 300100Z 10004KT 9999 -RA SCT025 BKN100 21/19 A2997 NOSIG=
201205300200 METAR MROC 300200Z 11003KT 9999 SCT030 BKN100 21/19 A2999 NOSIG=
201205300300 METAR MROC 300300Z 07004KT 9999 -RA SCT030 OVC100 22/20 A3001 NOSIG=
201205300400 METAR MROC 300400Z 07006KT DZ SCT030 BKN100 22/19 A3002 NOSIG=
201205300500 METAR MROC 300500Z 08003KT 5000 RA SCT025 BKN100 21/19 A3002=
201205300600 METAR MROC 300600Z 04005KT 9999 DZ FEW030 BKN100 21/20 A2999 NOSIG=
201205300700 METAR MROC 300700Z 06004KT CAVOK 21/20 A2996 NOSIG=
201205300800 METAR MROC 300800Z 08004KT CAVOK 21/19 A2993 NOSIG=
201205300900 METAR MROC 300900Z 08003KT CAVOK 21/19 A2992 NOSIG=
201205301000 METAR MROC 301000Z 07006KT CAVOK 21/18 A2993 NOSIG=
201205301100 METAR MROC 301100Z 09003KT CAVOK 21/18 A2994 NOSIG=
201205301200 METAR MROC 301200Z 21005KT CAVOK 21/19 A2998 NOSIG=
201205301300 METAR MROC 301300Z 02003KT CAVOK 22/19 A2999 NOSIG=
201205301400 METAR MROC 301400Z 00000KT CAVOK 23/19 A3000 BECMG 24007KT=
201205301500 METAR MROC 301500Z 02004KT 9999 FEW030 BKN120 24/19 A2999 NOSIG=
201205301600 METAR MROC 301600Z 23004KT 9999 FEW035 SCT120 BKN250 27/20 A2997 NOSIG=
201205301700 METAR MROC 301700Z 25007KT 9999 FEW035 SCT120 BKN250 26/21 A2997 NOSIG=
201205301800 METAR MROC 301800Z 29007KT 9999 SCT030 BKN120 27/20 A2997 NOSIG=
201205301900 METAR COR MROC 301900Z 23008KT 9999 SCT010TCU BKN120 27/20 A2994 NOSIG=
201205302000 METAR MROC 302000Z 23009KT 9999 VCSH SCT025TCU BKN120 26/21 A2991 NOSIG=
201205302100 METAR MROC 302100Z 26007KT 9999 VCTS FEW010CB SCT025 BKN120 23/21 A2992 BECMG -TSRA=
201205302200 METAR MROC 302200Z 29006KT 9999 -RA SCT010 BKN020 23/21 A2992 BECMG 7000 RA=
201205302300 METAR MROC 302300Z 05002KT 9999 -RA FEW010 SCT025 BKN120 23/20 A2991 NOSIG=
201205310000 METAR MROC 310000Z 24002KT 9999 VCFG FEW004 SCT025 BKN120 23/20 A2995 NOSIG=
201205310100 METAR MROC 310100Z 23004KT 5000 BR VCTS FEW002 SCT015 BKN120 22/21 A2998 BECMG 3000 -RA BR=
201205310200 METAR MROC 310200Z 09005KT 2000 TSRA SCT007CB BKN020 19/17 A3002 BECMG 4000 RA BR=
201205310300 METAR MROC 310300Z 07005KT 9999 -RA FEW025 OVC080 19/18 A3002 RETS NOSIG=
201205310400 METAR MROC 310400Z 05004KT 9999 FEW015 OVC100 20/19 A3000 NOSIG=
201205310500 METAR MROC 310500Z 02005KT CAVOK 20/19 A3001 REDZ NOSIG=
201205310600 METAR MROC 310600Z 28003KT 9999 FEW030 SCT090 BKN250 20/20 A3001 NOSIG=
201205310700 METAR MROC 310700Z 16003KT 9999 SCT030 BKN100 20/20 A3001 NOSIG=
201205310800 METAR MROC 310800Z 07003KT 9999 FEW030 BKN100 21/20 A2998 NOSIG=
201205310900 METAR MROC 310900Z 10004KT 9999 FEW030 BKN110 21/21 A2994 NOSIG=
201205311000 METAR MROC 311000Z 10003KT 9999 FEW030 OVC110 21/21 A2992 NOSIG=
201205311100 METAR MROC 311100Z 20005KT 9999 FEW002 BKN110 21/20 A2994 NOSIG=
201205311200 METAR MROC 311200Z 26005KT 2000 0800SW FG BR SCT001 BKN006 20/19 A2997 BECMG 5000 BR=
201205311300 METAR MROC 311300Z 33004KT 9999 4000N FEW010 BKN100 21/19 A3000 NOSIG=
201205311400 METAR MROC 311400Z 08003KT 9999 FEW012 BKN120 24/14 A3001 NOSIG=
201205311500 METAR MROC 311500Z 12002KT 9999 FEW012 BKN130 26/19 A3001 NOSIG=
201205311600 METAR MROC 311600Z 23003KT 9999 FEW010 SCT130 BKN200 27/19 A3001 NOSIG=
201205311700 METAR MROC 311700Z 24008KT 9999 FEW015 SCT060 BKN200 26/20 A3000 NOSIG=
201205311800 METAR MROC 311800Z 24009KT 9999 FEW015 SCT030 BKN200 25/21 A2998 NOSIG=
201205311900 METAR MROC 311900Z 22012KT 9000 2000S SHRA VCTS FEW003 FEW010CB BKN025 22/20 A2997 BECMG 5000 -TSRA=
201205312000 METAR MROC 312000Z 29007KT 6000 2800N RA FEW004 BKN020 21/20 A2997 NOSIG=
201205312100 METAR MROC 312100Z 29004KT 9999 3000SW FEW001 SCT005 BKN030 21/20 A2997 BECMG 5000 BR=
201205312200 METAR MROC 312200Z 00000KT 9999 FEW005 SCT030 BKN100 22/19 A2998 NOSIG=
201205312300 METAR COR MROC 312300Z 08004KT 9999 SCT030 BKN100 21/20 A2998 BECMG -RA=
201206010000 METAR MROC 010000Z 17002KT 5000 -RA FEW002 SCT030 OVC100 21/20 A3001 BECMG TS=
201206010100 METAR MROC 010100Z 09003KT 9999 FEW005 SCT030 OVC100 20/20 A3000 NOSIG=
201206010200 METAR MROC 010200Z 11003KT 9999 FEW030 BKN100 20/20 A3001 NOSIG=
201206010300 METAR MROC 010300Z 06003KT CAVOK 21/19 A3003 NOSIG=
201206010400 METAR MROC 010400Z 04005KT CAVOK 21/19 A3002 NOSIG=
201206010500 METAR MROC 010500Z 09003KT CAVOK 20/19 A3002 NOSIG=
201206010600 METAR MROC 010600Z 04005KT CAVOK 20/18 A3001 NOSIG=
201206010700 METAR MROC 010700Z 06005KT CAVOK 20/17 A2999 NOSIG=
201206010800 METAR MROC 010800Z 07006KT CAVOK 20/17 A2998 NOSIG=
201206010900 METAR MROC 010900Z 06006KT CAVOK 20/17 A2997 NOSIG=
201206011000 METAR MROC 011000Z 07005KT CAVOK 20/17 A2998 NOSIG=
201206011100 METAR MROC 011100Z 05005KT CAVOK 19/17 A3000 NOSIG=
201206011200 METAR MROC 011200Z 07003KT CAVOK 20/16 A3001 NOSIG=
201206011300 METAR MROC 011300Z 06002KT CAVOK 23/17 A3005 NOSIG=
201206011400 METAR MROC 011400Z 00000KT CAVOK 27/17 A3006 NOSIG=
201206011500 METAR MROC 011500Z 18003KT 9999 FEW040 BKN250 27/18 A3006 NOSIG=
201206011600 METAR MROC 011600Z 24004KT 9999 FEW040 SCT250 27/20 A3005 NOSIG=
201206011700 METAR MROC 011700Z 25008KT 9999 FEW040 SCT250 27/20 A3005 NOSIG=
201206011800 METAR MROC 011800Z 26009KT 9999 VCSH FEW010TCU SCT030 26/20 A3004 BECMG -SHRA=
201206011900 METAR MROC 011900Z 24008KT 9999 FEW010TCU BKN030 26/20 A3002 BECMG -SHRA=
201206012000 METAR MROC 012000Z 25009KT 9999 FEW010 BKN030 25/21 A3001 BECMG -SHRA=
201206012100 METAR MROC 012100Z 23009KT 9999 -RA VCSH FEW015CB SCT025 BKN130 23/21 A2999 BECMG 5000 TSRA=
201206012200 METAR MROC 012200Z 26006KT 9999 VCSH FEW015CB SCT025 BKN120 23/20 A2998 BECMG 5000 TSRA=
201206012300 METAR MROC 012300Z 24006KT 9999 VCSH FEW015CB BKN025 23/20 A3000 BECMG 5000 SHRA=
201206020000 METAR MROC 020000Z 22005KT 9999 VCTS VCSH SCT015CB BKN025 22/19 A3003 BECMG 5000 RA=
201206020100 METAR MROC 020100Z 22004KT 9999 SCT020 BKN100 21/19 A3005 BECMG 8000 RA=
201206020200 METAR MROC NIL=
201206020300 METAR MROC 020300Z 30003KT 9999 FEW008 BKN100 21/19 A3008 NOSIG=
201206020400 METAR MROC 020400Z 00000KT 9999 FEW009 BKN100 21/20 A3010 NOSIG=
201206020500 METAR MROC 020500Z 10002KT 9999 FEW010 BKN100 21/20 A3009 NOSIG=
201206020600 METAR MROC 020600Z 13002KT 9999 -RA FEW010 BKN100 21/20 A3007 NOSIG=
201206020700 METAR MROC 020700Z 11003KT 9999 FEW010 BKN100 21/21 A3006 NOSIG=
201206020800 METAR MROC 020800Z 08003KT 9999 FEW012 BKN100 21/20 A3002 NOSIG=
201206020900 METAR MROC 020900Z 07005KT 9999 -RA VCFG FEW025 BKN090 21/19 A3000 NOSIG=
201206021000 METAR MROC 021000Z 07005KT 9999 -RA VCFG FEW030 BKN090 21/19 A3000 NOSIG=
201206021100 METAR MROC 021100Z 08006KT CAVOK 21/18 A3000 NOSIG=
201206021200 METAR MROC 021200Z 06006KT CAVOK 22/18 A3000 NOSIG=
201206021300 METAR MROC 021300Z 07006KT CAVOK 24/18 A3002 NOSIG=
201206021400 METAR MROC 021400Z 08009KT CAVOK 25/18 A3004 NOSIG=
201206021500 METAR MROC 021500Z 10010KT CAVOK 26/19 A3004 NOSIG=
201206021600 METAR MROC 021600Z 09009KT CAVOK 27/19 A3005 NOSIG=
201206021700 METAR MROC 021700Z 10008KT 9999 FEW040 SCT120 BKN250 29/18 A3004 NOSIG=
201206021800 METAR MROC 021800Z 13003KT 9999 FEW035 SCT120 BKN250 31/23 A3003 BECMG 24008KT=
201206021900 METAR MROC 021900Z 24012KT 9999 FEW020TCU SCT030 BKN250 28/22 A3001 BECMG 8000 VCSH=
201206022000 METAR MROC 022000Z 23009KT 9999 VCTS VCSH FEW015CB BKN030 24/21 A2999 BECMG 4000 TSRA=
201206022100 METAR MROC 022100Z 27005KT 5000 RA BR FEW002 SCT010 BKN020 20/19 A3001 BECMG 3000 -DZ BR=
201206022200 METAR MROC 022200Z 13003KT 9999 SCT025 BKN100 21/19 A3001 RERA NOSIG=
201206022300 METAR MROC 022300Z 08003KT 9999 RA VCTS VCFG FEW006 SCT020 BKN090 20/19 A3002 NOSIG=
201206030000 METAR MROC 030000Z 11004KT 9999 -RA SCT030 BKN100 20/20 A3001 NOSIG=
201206030100 METAR MROC 030100Z 02006KT CAVOK 21/20 A3002 NOSIG=
201206030200 METAR MROC 030200Z 12002KT CAVOK 21/20 A3002 NOSIG=
201206030300 METAR MROC 030300Z 00000KT CAVOK 20/20 A3003 NOSIG=
201206030400 METAR COR MROC 030400Z 15003KT CAVOK 20/20 A3004 NOSIG=
201206030500 METAR COR MROC 030500Z 04003KT CAVOK 19/18 A3005 NOSIG=
201206030600 METAR MROC 030600Z 07004KT CAVOK 19/17 A3002 NOSIG=
201206030700 METAR MROC 030700Z 07003KT CAVOK 20/18 A3000 NOSIG=
201206030800 METAR MROC 030800Z 03004KT CAVOK 19/17 A2999 NOSIG=
201206030900 METAR MROC 030900Z 06006KT CAVOK 20/17 A2999 NOSIG=
201206031000 METAR MROC 031000Z 04005KT CAVOK 19/17 A2998 NOSIG=
201206031100 METAR MROC 031100Z 03004KT 9999 FEW020 SCT250 20/17 A2999 NOSIG=
201206031200 METAR MROC 031200Z 05010KT CAVOK 21/17 A2999 NOSIG=
201206031300 METAR MROC 031300Z 12006KT CAVOK 24/18 A3001 NOSIG=
201206031400 METAR MROC 031400Z 11012KT 9999 FEW025 BKN260 25/18 A3001 NOSIG=
201206031500 METAR MROC 031500Z 11010KT 9999 FEW030 SCT250 27/17 A3002 NOSIG=
201206031600 METAR MROC 031600Z 13010KT 9999 FEW030 SCT250 28/19 A3005 BECMG 22006KT=
201206031700 METAR MROC 031700Z 12006KT 9999 FEW030 SCT230 28/17 A3004 BECMG 22006KT=
201206031800 METAR MROC 031800Z 20007KT 9999 FEW030 BKN250 29/20 A3002 NOSIG=
201206031900 METAR MROC 031900Z 20009KT 9999 FEW030 BKN250 27/20 A3000 NOSIG=
201206032000 METAR MROC 032000Z 21013KT 9999 FEW020TCU SCT030 BKN250 27/20 A2998 NOSIG=
201206032100 METAR MROC 032100Z 24011KT 9999 FEW020TCU SCT030 BKN250 24/21 A2998=
201206032200 METAR MROC 032200Z 29008KT 9999 FEW005 SCT020TCU BKN030 24/19 A2998=
201206032300 METAR MROC 032300Z 29004KT 9999 VCSH FEW005 SCT020 BKN100 23/19 A2998 NOSIG=
201206032343 METAR MROC 040000Z 27003KT 9999 VCSH FEW005 SCT020 BKN100 22/20 A3001 NOSIG=
201206040000 METAR MROC 040000Z 27003KT 9999 VCSH FEW005 SCT020 BKN100 22/20 A3001 NOSIG=
201206040100 METAR MROC 040100Z 29003KT 9999 FEW015 BKN025 22/20 A3003 NOSIG=
201206040200 METAR MROC 040200Z 00000KT 9999 SCT030 BKN120 22/20 A3004 NOSIG=
201206040300 METAR MROC 040300Z 00000KT 9999 SCT030 BKN100 21/20 A3005 NOSIG=
201206040400 METAR MROC 040400Z 07002KT 9999 SCT030 BKN100 21/20 A3004 NOSIG=
201206040500 METAR MROC 040500Z 04003KT 9999 FEW030 BKN100 21/19 A3003 NOSIG=
201206040600 METAR MROC 040600Z 09005KT CAVOK 21/18 A3001 NOSIG=
201206040700 METAR MROC 040700Z 05005KT CAVOK 21/17 A2998 NOSIG=
201206040800 METAR MROC NIL=
201206040900 METAR MROC 040900Z 05006KT CAVOK 21/17 A2995 NOSIG=
201206041000 METAR MROC 041000Z 10003KT CAVOK 21/17 A2997 NOSIG=
201206041100 METAR MROC 041100Z 08003KT CAVOK 20/17 A2998 NOSIG=
201206041200 METAR MROC 041200Z 06005KT CAVOK 21/17 A2999 NOSIG=
201206041300 METAR MROC 041300Z 03004KT CAVOK 22/17 A3002 NOSIG=
201206041400 METAR MROC 041400Z 09004KT CAVOK 24/18 A3001 NOSIG=
201206041500 METAR MROC 041500Z 29005KT 9999 FEW035 BKN250 25/18 A3003 NOSIG=
201206041600 METAR MROC 041600Z 25006KT 9999 FEW035 BKN250 25/19 A3002=
201206041700 METAR MROC 041700Z 25006KT 9999 SCT030 BKN250 25/19 A3002 NOSIG=
201206041800 METAR MROC 041800Z 23006KT 9999 SCT030 BKN100 26/21 A3000 NOSIG=
201206041900 METAR MROC 041900Z 24007KT 9999 SCT030 BKN100 27/21 A2997 NOSIG=
201206042000 METAR MROC 042000Z 25007KT 9999 -SHRA FEW015CB SCT025 BKN100 26/21 A2995=
201206042100 METAR MROC 042100Z 24005KT 9999 VCSH FEW010 SCT020 OVC100 24/21 A2994 NOSIG=
201206042200 METAR MROC 042200Z 26005KT 9000 VCFG FEW010 SCT015 OVC100 24/22 A2993 NOSIG=
201206042300 METAR MROC 042300Z 25008KT 5000 BR SCT008 BKN015 23/21 A2994 BECMG RA=
201206050000 METAR MROC 050000Z 23006KT 5000 -RA BR SCT005 BKN012 22/22 A2995 BECMG 3000 -RA BR BKN005=
201206050100 METAR MROC 050100Z 16003KT 5000 RA BR FEW006 SCT015 OVC100 21/20 A2997 NOSIG=
201206050200 METAR MROC 050200Z 26005KT 5000 BR FEW005 SCT015 OVC100 21/20 A2999 NOSIG=
201206050300 METAR MROC 050300Z 29002KT 9999 VCFG SCT006 BKN100 21/20 A3001 NOSIG=
201206050400 METAR MROC 050400Z 26004KT 9999 SCT010 BKN100 21/20 A3003 NOSIG=
201206050500 METAR MROC 050500Z 29004KT 9999 4000SW RA BR FEW003 SCT012 BKN100 21/20 A3002 NOSIG=
201206050600 METAR MROC 050600Z 07003KT 9999 SCT015 BKN120 21/20 A3001 RERA NOSIG=
201206050700 METAR MROC 050700Z 12004KT 9999 FEW035 BKN250 20/20 A2997 NOSIG=
201206050800 METAR MROC 050800Z 09003KT 9999 FEW035 BKN250 20/19 A2995 NOSIG=
201206050900 METAR MROC 050900Z 00000KT CAVOK 20/20 A2995 NOSIG=
201206051000 METAR MROC 051000Z 00000KT CAVOK 20/20 A2995 NOSIG=
201206051100 METAR MROC 051100Z 00000KT 9999 4000SW BR FEW001 SCT120 BKN250 20/20 A2996 NOSIG=
201206051200 METAR MROC 051200Z 06004KT CAVOK 19/19 A2996 NOSIG=
201206051300 METAR MROC 051300Z 04004KT CAVOK 23/19 A2999 NOSIG=
201206051400 METAR MROC 051400Z 04005KT CAVOK 25/14 A2999 NOSIG=
201206051500 METAR MROC 051500Z 08003KT 9999 FEW035 SCT250 27/19 A2999 BECMG 24006KT NOSIG=
201206051600 METAR MROC 051600Z 21005KT 9999 SCT030 BKN250 27/20 A2998 NOSIG=
201206051700 METAR MROC 051700Z 23008KT 9999 SCT030 SCT250 27/21 A2997 NOSIG=
201206051800 METAR MROC 051800Z 24010KT 9999 FEW010 SCT015 27/21 A2995 NOSIG=
201206051900 METAR MROC 051900Z 23009KT 9999 VCSH FEW010 SCT020 26/21 A2993 NOSIG=
201206052000 METAR MROC 052000Z 24010KT 9999 VCSH SCT010 BKN020 25/21 A2992 BECMG SHRA=
201206052100 METAR MROC 052100Z 22007KT 3000 -TSRA BR FEW001 FEW010CB BKN030 23/21 A2992 NOSIG=
201206052200 METAR MROC 052200Z 24005KT 3000 BR FEW001 SCT005 BKN030 23/23 A2992 BECMG RA VCTS=
201206052300 METAR MROC 052300Z 26003KT 4000 BR FEW001 SCT005 BKN030 22/22 A2993 BECMG VCSH=
201206060000 METAR MROC 060000Z 27004KT 5000 BR FEW001 SCT005 BKN030 22/22 A2994 BECMG RA=
201206060100 METAR MROC 060100Z 28005KT 8000 -RA FEW001 SCT010 BKN030 22/22 A2998 BECMG 5000 RA=
201206060200 METAR MROC 060200Z 24002KT 8000 RA SCT010 BKN030 22/22 A2998 NOSIG=
201206060300 METAR MROC 060300Z 30003KT 8000 FEW015 BKN025 21/21 A2999 NOSIG=
201206060400 METAR MROC 060400Z 28003KT 9999 5000SW BR SCT010 BKN025 21/21 A3000 NOSIG=
201206060500 METAR MROC 060500Z 30003KT 9999 SCT015 BKN025 21/21 A2999 NOSIG=
201206060600 METAR MROC 060600Z 28002KT 9999 FEW015 SCT025 BKN100 21/21 A2997 NOSIG=
201206060700 METAR MROC 060700Z 22004KT 0800 FG FEW002 SCT005 BKN015 21/20 A2996=
201206060800 METAR MROC NIL=
201206060900 METAR MROC NIL=
201206061000 METAR MROC NIL=
201206061100 METAR MROC NIL=
201206061200 METAR MROC NIL=
201206061300 METAR MROC 061300Z 07005KT CAVOK 22/19 A2999 NOSIG=
201206061400 METAR MROC 061400Z 11006KT CAVOK 25/19 A3000 NOSIG=
201206061500 METAR MROC 061500Z 12004KT 9999 FEW040 BKN250 26/18 A3000 NOSIG=
201206061600 METAR MROC 061600Z 25002KT 9999 FEW040 BKN250 29/20 A3000 NOSIG=
201206061700 METAR MROC 061700Z 24006KT 9999 FEW040 BKN250 27/21 A2998 NOSIG=
201206061800 METAR MROC 061800Z 23010KT 9999 FEW010TCU SCT030 BKN250 27/21 A2997 NOSIG=
201206061900 METAR MROC 061900Z 24010KT 9999 VCSH FEW010TCU SCT030 BKN250 25/21 A2996 NOSIG=
201206062000 METAR MROC 062000Z 24006KT 9999 VCSH FEW005 BKN030 24/21 A2996 BECMG 5000 -RA BR=
201206062100 METAR MROC 062100Z 23007KT 7000 3000E -SHRA SCT015CB BKN025 23/21 A2995 BECMG 3000 TSRA=
201206062200 METAR MROC 062200Z 22002KT 5000 2000N -RA FEW010 SCT020 BKN100 21/20 A2995 NOSIG=
201206062300 METAR MROC 062300Z 00000KT 9999 FEW010 SCT020 BKN100 21/21 A2996 NOSIG=
201206070000 METAR MROC 070000Z 00000KT CAVOK 21/21 A2995 NOSIG=
201206070100 METAR MROC 070100Z 00000KT CAVOK 21/20 A2998 NOSIG=
201206070200 METAR MROC 070200Z 00000KT CAVOK 21/21 A3000 NOSIG=
201206070300 METAR MROC 070300Z 00000KT 9999 FEW002 BKN100 20/20 A3000 NOSIG=
201206070400 METAR MROC 070400Z 07003KT 9999 VCFG FEW003 BKN100 20/20 A2998 NOSIG=
201206070500 METAR MROC 070500Z 06005KT 9999 FEW030 SCT120 21/19 A2998 NOSIG=
201206070600 METAR MROC 070600Z 02003KT 9999 FEW030 SCT250 20/18 A2998 NOSIG=
201206070700 METAR MROC 070700Z 13002KT 9999 FEW030 SCT250 20/18 A2997 NOSIG=
201206070800 METAR MROC 070800Z 05003KT 9999 FEW030 SCT150 19/18 A2995 NOSIG=
201206070900 METAR MROC NIL=
201206071000 METAR MROC 071000Z 06005KT 9999 FEW030 SCT250 20/18 A2995 NOSIG=
201206071100 METAR MROC 071100Z 05006KT 9999 FEW030 SCT250 20/18 A2996 NOSIG=
201206071200 METAR MROC 071200Z 05005KT 9999 FEW030 BKN250 20/18 A2997 NOSIG=
201206071300 METAR MROC 071300Z 07005KT CAVOK 22/18 A2999 NOSIG=
201206071400 METAR MROC 071400Z 11005KT CAVOK 24/18 A3000 NOSIG=
201206071500 METAR MROC 071500Z 12006KT CAVOK 25/19 A3000 NOSIG=
201206071600 METAR MROC 071600Z 12004KT CAVOK 28/19 A2999 NOSIG=
201206071700 METAR MROC 071700Z 25004KT CAVOK 29/19 A2997 NOSIG=
201206071800 METAR MROC 071800Z 25007KT 9999 FEW040 SCT250 27/20 A2996 NOSIG=
201206071900 METAR MROC NIL=
201206072000 METAR MROC NIL=
201206072100 METAR MROC NIL=
201206072200 METAR MROC 072200Z 23007KT 7000 3000SW -TSRA SCT015CB SCT030TCU SCT100 25/22 A2991 NOSIG=
201206072300 METAR MROC 072300Z 26004KT 9999 4000SW RA SCT015CB SCT100 24/21 A2994 NOSIG=
201206080000 METAR MROC 080000Z 28003KT 9999 VCFG FEW010CB SCT020 BKN100 23/21 A2995 NOSIG=
201206080100 METAR MROC 080100Z 12002KT 9999 FEW008 SCT020 BKN100 23/21 A2995 NOSIG=
201206080200 METAR MROC 080200Z 07003KT 9999 FEW025 SCT120 23/21 A2995 NOSIG=
201206080300 METAR MROC 080300Z 11005KT 9999 FEW025 SCT250 23/20 A2996 NOSIG=
201206080400 METAR MROC 080400Z 00000KT 9999 FEW002 SCT250 22/22 A2997 NOSIG=
201206080500 METAR MROC 080500Z 06002KT 9999 FEW030 22/20 A2996 NOSIG=
201206080600 METAR MROC 080600Z 05003KT CAVOK 22/19 A2995 NOSIG=
201206080700 METAR MROC 080700Z 05006KT CAVOK 22/18 A2992 NOSIG=
201206080800 METAR MROC 080800Z 11008KT CAVOK 22/18 A2991 NOSIG=
201206080900 METAR MROC 080900Z 05005KT CAVOK 22/18 A2991 NOSIG=
201206081000 METAR MROC 081000Z 04004KT CAVOK 21/17 A2992 NOSIG=
201206081100 METAR MROC 081100Z 05003KT 9999 FEW030 21/17 A2992 NOSIG=
201206081200 METAR MROC 081200Z 03006KT 9999 FEW030 22/17 A2994 NOSIG=
201206081300 METAR MROC 081300Z 11009KT 9999 FEW030 24/18 A2995 NOSIG=
201206081400 METAR MROC 081400Z 11009KT 9999 FEW030 26/18 A2995 NOSIG=
201206081500 METAR MROC 081500Z 11010KT 9999 FEW030 28/18 A2995 NOSIG=
201206081600 METAR MROC 081600Z 10009KT 9999 FEW035 29/17 A2994 NOSIG=
201206081700 METAR MROC 081700Z 08009KT 9999 SCT030 29/17 A2993 NOSIG=
201206081800 METAR MROC 081800Z 11008KT 9999 SCT030 SCT110 28/17 A2992 BECMG 26006KT=
201206081900 METAR MROC 081900Z 11006KT 9999 SCT030 SCT110 29/17 A2990 NOSIG=
201206082000 METAR MROC 082000Z 07008KT 9999 SCT030 SCT110 27/17 A2989 NOSIG=
201206082100 METAR MROC 082100Z 16006KT 9999 SCT030 BKN250 27/18 A2987 NOSIG=
201206082200 METAR MROC 082200Z 11504KT 9999 SCT030 BKN100 26/18 A2988=
201206082300 METAR MROC 082300Z 13002KT 9999 SCT030 BKN100 26/20 A2990 NOSIG=
201206082350 METAR MROC 090000Z 27004KT 9999 SCT030 BKN250 24/20 A2991 NOSIG=
201206090000 METAR MROC 090000Z 27004KT 9999 SCT030 BKN250 24/20 A2991 NOSIG=
201206090100 METAR MROC 090100Z 18003KT 9999 SCT030 BKN100 24/18 A2992 NOSIG=
201206090200 METAR MROC 090200Z 22003KT 9999 SCT015 SCT080 23/19 A2993 NOSIG=
201206090300 METAR MROC 090300Z 33003KT 9999 FEW030 SCT120 23/20 A2996 NOSIG=
201206090400 METAR MROC 090400Z 02004KT 9999 FEW030 SCT120 22/19 A2996 NOSIG=
201206090500 METAR MROC 090500Z 00000KT 9999 FEW030 SCT120 21/19 A2996 NOSIG=
201206090600 METAR MROC NIL=
201206090700 METAR MROC 090700Z 04005KT CAVOK 22/19 A2995 NOSIG=
201206090800 METAR MROC 090800Z 12002KT CAVOK 21/19 A2994 NOSIG=
201206090900 METAR MROC 090900Z 08003KT CAVOK 21/18 A2992 NOSIG=
201206091000 METAR MROC 091000Z 07007KT CAVOK 20/18 A2992 NOSIG=
201206091100 METAR MROC 091100Z 06007KT CAVOK 21/17 A2992 NOSIG=
201206091200 METAR MROC 091200Z 06005KT CAVOK 21/17 A2992 NOSIG=
201206091300 METAR MROC 091300Z 07007KT CAVOK 24/18 A2992 NOSIG=
201206091400 METAR MROC 091400Z 10006KT CAVOK 26/17 A2994 NOSIG=
201206091500 METAR MROC 091500Z 10006KT 9999 FEW035 SCT250 27/17 A2995 NOSIG=
201206091600 METAR MROC 091600Z 16006KT 9999 FEW035 SCT250 29/17 A2997 BECMG 24007KT=
201206091700 METAR MROC 091700Z 24008KT 9999 SCT030 BKN250 26/20 A2996 NOSIG=
201206091800 METAR MROC 091800Z 23007KT 9999 SCT030 BKN250 26/21 A2995 NOSIG=
201206091900 METAR MROC NIL=
201206092000 METAR MROC 092000Z 26005KT 9999 VCSH SCT020 BKN100 23/20 A2991 RERA=
201206092100 METAR MROC 092100Z 09006KT 9999 -RA BKN100 21/18 A2991 RERA NOSIG=
201206092200 METAR MROC 092200Z 05008KT CAVOK 23/18 A2989 NOSIG=
201206092300 METAR MROC 092300Z 28004KT CAVOK 22/18 A2989 NOSIG=
201206100000 METAR MROC 100000Z 08004KT CAVOK 22/17 A2990 NOSIG=
201206100100 METAR MROC 100100Z 07007KT CAVOK 22/17 A2989 NOSIG=
201206100200 METAR MROC 100200Z 06002KT CAVOK 21/17 A2992 NOSIG=
201206100300 METAR MROC 100300Z 08005KT CAVOK 21/16 A2994 NOSIG=
201206100400 METAR MROC 100400Z 08006KT CAVOK 21/16 A2994 NOSIG=
201206100500 METAR MROC 100500Z 06005KT CAVOK 20/16 A2994 NOSIG=
201206100600 METAR MROC 100600Z 03005KT CAVOK 20/16 A2993 NOSIG=
201206100700 METAR MROC 100700Z 04007KT CAVOK 21/17 A2992 NOSIG=
201206100800 METAR MROC 100800Z 05005KT CAVOK 21/16 A2991 NOSIG=
201206100900 METAR MROC 100900Z 08006KT CAVOK 20/18 A2991 NOSIG=
201206101000 METAR MROC 101000Z 10004KT CAVOK 20/18 A2992 NOSIG=
201206101100 METAR MROC 101100Z 00000KT CAVOK 20/18 A2993 NOSIG=
201206101200 METAR MROC 101200Z 08004KT CAVOK 20/16 A2993 NOSIG=
201206101300 METAR MROC 101300Z 08004KT CAVOK 22/17 A2995 NOSIG=
201206101400 METAR MROC 101400Z 08005KT CAVOK 25/18 A2996 NOSIG=
201206101500 METAR MROC 101500Z 13007KT CAVOK 25/17 A2996 NOSIG=
201206101600 METAR MROC 101600Z 11005KT CAVOK 26/17 A2996 NOSIG=
201206101700 METAR MROC 101700Z 26009KT 9999 FEW040 BKN300 26/20 A2995 NOSIG=
201206101800 METAR MROC 101800Z 24009KT 9999 FEW030 BKN300 27/20 A2994 NOSIG=
201206101900 METAR MROC 101900Z 25010KT 9999 SCT030 SCT250 26/21 A2994 NOSIG=
201206102000 METAR MROC 102000Z 23007KT 9999 FEW020TCU SCT030 26/21 A2993 BECMG SHRA=
201206102100 METAR MROC 102100Z 22008KT 9999 RA FEW010TCU BKN030 25/21 A2993 BECMG TS=
201206102200 METAR MROC 102200Z 20005KT 9999 FEW010 BKN030 25/21 A2992 RERA BECMG SHRA=
201206102300 METAR MROC 102300Z 23006KT 5000 BR FEW001 SCT005 BKN030 23/21 A2994 BECMG 3000=
201206110000 METAR MROC 110000Z 26006KT 5000 3000N BR FEW001 SCT005 BKN030 22/20 A2996 BECMG BKN010=
201206110100 METAR COR MROC 110100Z 00000KT 9999 FEW005 SCT030 BKN100 22/20 A2998 NOSIG=
201206110200 METAR MROC 110200Z 00000KT 9999 FEW030 SCT100 22/20 A2999 NOSIG=
201206110300 METAR MROC 110300Z 00000KT 9999 FEW030 SCT120 21/20 A3000 NOSIG=
201206110400 METAR MROC 110400Z 21003KT 9999 FEW030 SCT120 21/20 A3000 NOSIG=
201206110500 METAR MROC 110500Z 02005KT 9999 FEW030 BKN120 21/21 A2999 NOSIG=
201206110600 METAR MROC 110600Z 07003KT 9999 FEW030 BKN120 21/19 A2997 NOSIG=
201206110700 METAR MROC 110700Z 09005KT 9999 FEW030 BKN120 22/19 A2995 NOSIG=
201206110800 METAR MROC 110800Z 04003KT 9999 FEW030 BKN120 23/18 A2996 NOSIG=
201206110900 METAR MROC 110900Z 06006KT 9999 -RA FEW030 BKN120 22/18 A2994 NOSIG=
201206111000 METAR MROC 111000Z 05005KT 9999 -RA FEW030 BKN120 22/18 A2993 NOSIG=
201206111100 METAR MROC 111100Z 04008KT 9999 RA FEW030 BKN120 21/19 A2994 NOSIG=
201206111200 METAR MROC 111200Z 09006KT 9999 -RA FEW030 BKN100 21/18 A2995 NOSIG=
201206111300 METAR MROC 111300Z 10010KT CAVOK 22/17 A2997 NOSIG=
201206111400 METAR MROC 111400Z 09006KT 9999 -RA FEW040 OVC100 22/17 A2993 NOSIG=
201206111500 METAR MROC 111500Z 12007KT 9999 -RA FEW040 OVC100 22/17 A2994 NOSIG=
201206111600 METAR MROC 111600Z 09011KT 9999 -RA FEW040 BKN100 22/18 A2996 NOSIG=
201206111700 METAR MROC 111700Z 09014KT 9999 FEW040 BKN100 23/18 A2995 NOSIG=
201206111800 METAR MROC 111800Z 09012KT 9999 FEW040 BKN100 24/18 A2995 NOSIG=
201206111900 METAR MROC 111900Z 10010KT 9999 FEW040 BKN120 25/18 A2995 NOSIG=
201206112000 METAR MROC 112000Z 11011KT 9999 FEW040 BKN120 26/18 A2993 NOSIG=
201206112100 METAR MROC 112100Z 11009KT 9999 FEW040 BKN120 25/18 A2991 NOSIG=
201206112200 METAR MROC 112200Z 11010KT 9999 FEW040 BKN120 24/18 A2991 NOSIG=
201206112300 METAR MROC 112300Z 11007KT 9999 FEW040 BKN120 23/18 A2992 NOSIG=
201206120000 METAR MROC 120000Z 06008KT 9999 FEW040 BKN120 23/17 A2994 NOSIG=
201206120100 METAR MROC 120100Z 09008KT 9999 FEW040 BKN110 23/17 A2995 NOSIG=
201206120200 METAR MROC 120200Z 07007KT 9999 -RA SCT030 OVC100 22/18 A2999 NOSIG=
201206120300 METAR MROC 120300Z 03006KT CAVOK 20/17 A3000 NOSIG=
201206120400 METAR MROC 120400Z 06005KT 9999 RA FEW015 SCT080 BKN110 20/18 A3001 NOSIG=
201206120500 METAR MROC 120500Z 14002KT 9999 RA FEW015 OVC100 20/18 A3002 NOSIG=
201206120600 METAR MROC 120600Z 06004KT 9000 4300SW RA FEW012 OVC100 19/19 A3001 NOSIG=
201206120700 METAR MROC 120700Z 27002KT 9999 RA FEW015 OVC100 19/19 A2997 NOSIG=
201206120800 METAR MROC 120800Z 10004KT 9999 FEW020 BKN100 19/19 A2992 RERA NOSIG=
201206120900 METAR MROC 120900Z 06005KT CAVOK 20/17 A2992 NOSIG=
201206121000 METAR MROC 121000Z 06005KT CAVOK 20/17 A2993 NOSIG=
201206121100 METAR MROC 121100Z 11004KT 9999 FEW045 BKN080 21/17 A2993 NOSIG=
201206121200 METAR MROC 121200Z 10005KT 9999 FEW040 SCT080 21/16 A2995 NOSIG=
201206121300 METAR MROC NIL=
201206121400 METAR MROC 121400Z 25002KT 9999 FEW040 SCT100 24/18 A2998 NOSIG=
201206121500 METAR MROC 121500Z 12005KT 9999 FEW040 SCT100 25/18 A2998 NOSIG=
201206121600 METAR MROC 121600Z 22007KT 9999 SCT035 BKN120 24/19 A2999 NOSIG=
201206121700 METAR MROC 121700Z 15003KT 9999 -RA SCT030 BKN120 24/19 A2999 NOSIG=
201206121800 METAR MROC 121800Z 25004KT 9999 VCSH SCT030 BKN120 24/19 A2998 NOSIG=
201206121900 METAR MROC 121900Z 28004KT 9999 VCSH SCT030 BKN120 24/19 A2996 NOSIG=
201206122000 METAR MROC 122000Z 12006KT 9999 -RA SCT030 OVC100 24/18 A2995 NOSIG=
201206122100 METAR MROC 122100Z 12010KT 9999 -RA FEW025 OVC100 21/19 A2994 NOSIG=
201206122200 METAR MROC 122200Z 09009KT CAVOK 21/18 A2992 BECMG -RA=
201206122300 METAR MROC 122300Z 07007KT CAVOK 22/16 A2992 BECMG -RA=
201206130000 METAR MROC 130000Z 00000KT CAVOK 21/16 A2993 BECMG -RA=
201206130100 METAR MROC 130100Z 20002KT 9999 -DZ FEW020 OVC100 21/17 A2996 BECMG RA=
201206130200 METAR MROC 130200Z 21002KT 9999 -RA FEW020 OVC100 21/17 A2998 BECMG RA=
201206130300 METAR MROC 130300Z 03006KT CAVOK 20/17 A3000 NOSIG=
201206130400 METAR MROC 130400Z 05002KT CAVOK 20/16 A3001 NOSIG=
201206130500 METAR MROC 130500Z 08005KT CAVOK 19/16 A3001 NOSIG=
201206130600 METAR MROC 130600Z 08004KT CAVOK 19/15 A2998 NOSIG=
201206130700 METAR MROC 130700Z 08004KT CAVOK 18/15 A2997 NOSIG=
201206130800 METAR MROC 130800Z 05006KT CAVOK 18/15 A2997 NOSIG=
201206130900 METAR MROC 130900Z 07004KT CAVOK 17/15 A2996 NOSIG=
201206131000 METAR MROC 131000Z 07005KT CAVOK 18/14 A2996 NOSIG=
201206131100 METAR MROC 131100Z 08003KT CAVOK 17/15 A2996 NOSIG=
201206131200 METAR MROC 131200Z 07004KT CAVOK 18/15 A3000 NOSIG=
201206131300 METAR MROC 131300Z 00000KT CAVOK 20/18 A3003 NOSIG=
201206131400 METAR MROC 131400Z 00000KT 9999 FEW020 OVC090 20/19 A3005 BECMG -RA=
201206131500 METAR MROC 131500Z 00000KT 9999 -DZ FEW035 OVC100 21/19 A3005 NOSIG=
201206131600 METAR MROC 131600Z 10003KT CAVOK 22/18 A3003 NOSIG=
201206131700 METAR MROC 131700Z 10003KT CAVOK 23/17 A3002 NOSIG=
201206131800 METAR MROC 131800Z 15002KT 9999 FEW040 SCT120 BKN250 26/17 A3000 BECMG 24004KT=
201206131900 METAR MROC 131900Z 24006KT 9999 SCT035 BKN120 25/19 A2998 BECMG -RA=
201206132000 METAR MROC 132000Z 23010KT 4000 RA FEW002 SCT015 BKN030 21/21 A3000 BECMG 2000 RA BR=
201206132100 METAR MROC 132100Z 25006KT 4000 -RA FEW002 SCT010 BKN025 19/18 A2999 NOSIG=
201206132200 METAR MROC 132200Z 31003KT 9999 RA BR FEW005 SCT020 BKN100 19/18 A3000 NOSIG=
201206132300 METAR MROC 132300Z 14003KT 9999 -RA FEW025 OVC100 19/18 A3000 NOSIG=
201206132349 METAR MROC 140000Z 09003KT 9999 -DZ FEW030 OVC100 19/18 A3001 NOSIG=
201206140000 METAR MROC 140000Z 08004KT 9999 -DZ FEW035 OVC100 19/18 A3000 NOSIG=
201206140100 METAR MROC 140100Z 08004KT 9999 -DZ FEW035 OVC100 19/18 A3000 NOSIG=
201206140200 METAR MROC 140200Z 07006KT 9999 -DZ FEW040 OVC100 20/18 A3002 NOSIG=
201206140300 METAR MROC 140300Z 07004KT 9999 -DZ FEW040 OVC100 20/17 A3004 NOSIG=
201206140400 METAR MROC 140400Z 07003KT 9999 FEW040 OVC100 20/17 A3004 NOSIG=
201206140500 METAR MROC 140500Z 09005KT 9999 -DZ FEW040 OVC100 19/17 A3004 NOSIG=
201206140600 METAR MROC 140600Z 07004KT CAVOK 19/16 A3002 NOSIG=
201206140700 METAR MROC 140700Z 07004KT CAVOK 19/16 A2999 NOSIG=
201206140800 METAR MROC 140800Z 07006KT CAVOK 19/16 A2997 NOSIG=
201206140900 METAR MROC 140900Z 07005KT CAVOK 20/15 A2996 NOSIG=
201206141000 METAR MROC 141000Z 06006KT CAVOK 19/15 A2996 NOSIG=
201206141100 METAR MROC 141100Z 10004KT CAVOK 19/15 A2997 NOSIG=
201206141200 METAR MROC 141200Z 06005KT CAVOK 20/15 A2999 NOSIG=
201206141300 METAR MROC 141300Z 07003KT CAVOK 21/16 A3001 NOSIG=
201206141400 METAR MROC 141400Z 07006KT CAVOK 24/16 A3002 NOSIG=
201206141500 METAR MROC 141500Z 12007KT CAVOK 26/15 A3003 NOSIG=
201206141600 METAR MROC 141600Z 20009KT CAVOK 28/17 A3004 NOSIG=
201206141700 METAR MROC 141700Z 26012KT 9999 FEW035 SCT120 25/17 A3004 NOSIG=
201206141800 METAR MROC 141800Z 27012KT 9999 SCT035 BKN250 26/18 A3003 NOSIG=
201206141900 METAR MROC 141900Z 24010KT 9999 FEW020TCU BKN035 25/19 A3002 NOSIG=
201206142000 METAR MROC 142000Z 23007KT 9999 SCT020TCU BKN025 25/19 A3000 NOSIG=
201206142100 METAR MROC 142100Z 24009KT 9999 VCSH FEW020TCU SCT030 BKN250 25/20 A2998 BECMG RA=
201206142200 METAR MROC 142200Z 24008KT 9999 5000NE -TSRA FEW010CB SCT025 BKN100 23/20 A2998 BECMG 7000 TSRA=
201206142300 METAR MROC 142300Z 25005KT 9000 3000NE -SHRA SCT015 BKN030 22/19 A3000 NOSIG=
201206150000 METAR MROC 150000Z 26004KT 5000 RA BR SCT002 BKN025 21/20 A3002 NOSIG=
201206150100 METAR MROC 150100Z 00000KT 3500 +RA SCT001 BKN015 19/18 A3003 BECMG 5000 RA BR=
201206150200 METAR MROC 150200Z VRB02KT 9999 FEW015 SCT040 19/18 A3002 RERA NOSIG=
201206150300 METAR MROC 150300Z 09004KT 9999 FEW030 SCT120 19/18 A3002 NOSIG=
201206150400 METAR MROC 150400Z 16003KT 9999 FEW030 BKN120 20/18 A3003 BECMG 24004KT 5000 BR=
201206150500 METAR MROC 150500Z 00000KT 9999 4800SW FEW005 BKN120 19/18 A3002 NOSIG=
201206150600 METAR MROC 150600Z 15002KT 9999 4000SW FEW005 SCT120 19/18 A3000 NOSIG=
201206150700 METAR MROC 150700Z 06002KT CAVOK 19/18 A2999 NOSIG=
201206150800 METAR MROC 150800Z 31003KT 9999 FEW012 SCT120 19/18 A2998 NOSIG=
201206150900 METAR MROC 150900Z 00000KT 9999 FEW015 18/18 A2999 NOSIG=
201206151000 METAR MROC 151000Z 04004KT 9999 VCFG FEW001 18/18 A3000 NOSIG=
201206151100 METAR MROC 151100Z 08004KT CAVOK 18/18 A3002 NOSIG=
201206151200 METAR MROC 151200Z 08006KT CAVOK 17/16 A2999 NOSIG=
201206151300 METAR MROC 151300Z 05004KT CAVOK 21/16 A3002 NOSIG=
201206151400 METAR MROC 151400Z 04006KT CAVOK 22/17 A3003 NOSIG=
201206151500 METAR MROC 151500Z 06006KT CAVOK 24/17 A3003 NOSIG=
201206151600 METAR MROC 151600Z 10006KT CAVOK 25/17 A3002 NOSIG=
201206151700 METAR MROC 151700Z 07007KT 9999 FEW040 BKN300 26/16 A3001 BECMG 24006KT=
201206151800 METAR MROC 151800Z VRB02KT 9999 FEW040 BKN300 28/16 A2999 BECMG 24006KT=
201206151900 METAR MROC 151900Z 23007KT 9999 FEW045 BKN300 28/19 A2997 NOSIG=
201206152000 METAR MROC 152000Z 25007KT 9999 FEW025TCU SCT120 SCT300 27/20 A2996 NOSIG=
201206152100 METAR MROC 152100Z 22007KT 9999 FEW025TCU SCT120 SCT200 28/20 A2996 NOSIG=
201206152200 METAR MROC 152200Z 22007KT 9999 SCT025 BKN120 25/21 A2996 NOSIG=
201206152300 METAR MROC 152300Z 27006KT 9999 SCT025 BKN120 24/21 A2996 BECMG -RA=
201206160000 METAR MROC 160000Z 21003KT 5000 BR FEW001 SCT005 BKN030 23/21 A2998 BECMG SHRA BKN010=
201206160100 METAR MROC 160100Z 00000KT 9999 FEW001 SCT030 BKN120 23/21 A3000 NOSIG=
201206160200 METAR MROC 160200Z 00000KT 9999 SCT030 BKN100 23/21 A3001 NOSIG=
201206160300 METAR MROC 160300Z 11504KT 9999 FEW030 SCT120 22/18 A3003 NOSIG=
201206160400 METAR MROC 160400Z 09003KT CAVOK 21/18 A3003 NOSIG=
201206160500 METAR MROC 160500Z 04004KT CAVOK 22/18 A3003 NOSIG=
201206160600 METAR MROC 160600Z 11003KT 9999 FEW030 SCT120 21/18 A3002 NOSIG=
201206160700 METAR MROC 160700Z 06004KT 9999 FEW030 SCT120 21/17 A3000 NOSIG=
201206160800 METAR MROC 160800Z 07004KT CAVOK 21/17 A2998 NOSIG=
201206160900 METAR MROC 160900Z 03004KT CAVOK 20/17 A2997 NOSIG=
201206161000 METAR MROC 161000Z 08003KT CAVOK 20/16 A2998 NOSIG=
201206161100 METAR MROC 161100Z 07005KT CAVOK 19/16 A3000 NOSIG=
201206161200 METAR MROC 161200Z 05004KT CAVOK 19/16 A3001 NOSIG=
201206161300 METAR MROC 161300Z 05005KT CAVOK 23/17 A3001 NOSIG=
201206161400 METAR MROC 161400Z 09002KT CAVOK 26/17 A3003 NOSIG=
201206161500 METAR MROC 161500Z 03003KT CAVOK 26/16 A3003 NOSIG=
201206161600 METAR MROC 161600Z 12005KT CAVOK 26/17 A3002 NOSIG=
201206161700 METAR MROC 161700Z 09006KT 9999 FEW040 SCT120 BKN200 26/16 A3002 NOSIG=
201206161800 METAR MROC 161800Z 11005KT 9999 FEW020 SCT100 OVC200 26/17 A3001 NOSIG=
201206161900 METAR MROC 161900Z 24007KT 9999 FEW020 SCT100 OVC200 25/20 A2999 NOSIG=
201206162000 METAR MROC 162000Z 24008KT 9999 FEW020 SCT100 OVC200 25/22 A2998 NOSIG=
201206162100 METAR MROC 162100Z 21008KT 9999 FEW020TCU SCT120 BKN220 24/20 A2997 NOSIG=
201206162200 METAR MROC 162200Z 23007KT 9999 SCT030 BKN120 23/18 A2996 NOSIG=
201206162300 METAR MROC 162300Z 31006KT 9999 FEW030 BKN120 21/19 A2998 NOSIG=
201206170000 METAR MROC 170000Z 30004KT 9999 FEW025 BKN035 22/18 A3000 BECMG -RA=
201206170100 METAR MROC 170100Z 28004KT 9999 FEW025 BKN035 21/19 A3001 NOSIG=
201206170200 METAR MROC 170200Z 27004KT 9999 FEW020 BKN035 21/19 A3003 NOSIG=
201206170300 METAR MROC 170300Z 27003KT 9999 FEW004 SCT025 BKN100 21/19 A3003 NOSIG=
201206170400 METAR MROC 170400Z 32002KT 9999 SCT015 BKN100 21/19 A3005 NOSIG=
201206170500 METAR MROC 170500Z 32003KT 9999 FEW015 BKN100 21/19 A3005 NOSIG=
201206170600 METAR MROC 170600Z 31003KT 9999 SCT020 BKN100 20/19 A3002 NOSIG=
201206170700 METAR MROC 170700Z 11003KT CAVOK 20/18 A2999 RMK BKN100 NOSIG=
201206170800 METAR MROC 170800Z 06004KT CAVOK 20/18 A2997 NOSIG=
201206170900 METAR MROC 170900Z 05002KT CAVOK 20/17 A2997 NOSIG=
201206171000 METAR MROC 171000Z 23001KT CAVOK 19/17 A2997 BECMG 8000=
201206171100 METAR MROC 171100Z 08003KT 9999 3000SW BCFG FEW035 SCT120 19/17 A2997 NOSIG=
201206171200 METAR MROC 171200Z 08004KT CAVOK 19/18 A2997 NOSIG=
201206171300 METAR MROC 171300Z 06003KT CAVOK 23/17 A3001 NOSIG=
201206171400 METAR MROC 171400Z 10004KT CAVOK 25/17 A3001 NOSIG=
201206171500 METAR MROC 171500Z 21009KT 9999 FEW030 SCT120 BKN250 26/18 A3003 NOSIG=
201206171600 METAR MROC 171600Z 24010KT 9999 FEW030 SCT120 BKN250 26/18 A3003=
201206171700 METAR MROC 171700Z 24007KT 9999 SCT035 BKN250 26/18 A3001 NOSIG=
201206171800 METAR MROC 171800Z 24007KT 9999 FEW020TCU SCT035 BKN250 26/19 A2999 NOSIG=
201206171900 METAR MROC 171900Z 23006KT 9999 FEW020TCU SCT030 BKN250 26/19 A2997 BECMG 8000 VCSH=
201206172000 METAR MROC 172000Z 24008KT 9999 FEW017TCU SCT025 BKN250 26/19 A2995 BECMG 8000 VCSH=
201206172100 METAR MROC 172100Z 25008KT 9999 4000SW RA FEW005 SCT015 BKN100 22/22 A2996 BECMG 5000 +RA=
201206172200 METAR MROC 172200Z 28007KT 9999 FEW010 BKN030 22/22 A2996 NOSIG=
201206172300 METAR MROC 172300Z 27007KT 9999 FEW010 SCT030 BKN110 21/21 A2996 NOSIG=
201206180000 METAR MROC 180000Z 27006KT 9999 FEW015 SCT035 BKN100 21/19 A2997 NOSIG=
201206180100 METAR MROC 180100Z 30002KT 9999 FEW030 BKN100 21/19 A3000 NOSIG=
201206180200 METAR MROC 180200Z 29004KT 9999 -DZ SCT025 SCT100 21/19 A3002 NOSIG=
201206180300 METAR MROC 180300Z 19002KT 9999 -DZ SCT025 BKN100 21/19 A3004 NOSIG=
201206180400 METAR MROC 180400Z 00000KT 9999 -RA FEW025 BKN100 21/19 A3003 NOSIG=
201206180500 METAR MROC 180500Z 24003KT 3000 BR FEW001 BKN100 20/19 A3004 BECMG 9999=
201206180600 METAR MROC 180600Z 30003KT 9999 FEW005 BKN100 20/19 A3002 NOSIG=
201206180700 METAR MROC 180700Z 30003KT 9999 -DZ FEW005 OVC100 20/19 A3001 NOSIG=
201206180800 METAR MROC 180800Z 03004KT 9999 -RA FEW005 OVC100 20/19 A2998 NOSIG=
201206180900 METAR MROC 180900Z 09004KT 9999 -DZ OVC100 19/18 A2996 RERA NOSIG=
201206181000 METAR MROC 181000Z 11002KT CAVOK 20/18 A2996 NOSIG=
201206181100 METAR MROC 181100Z 22004KT 0500 FG SCT001 BKN100 19/18 A2996 BECMG 3000 BR BKN010=
201206181200 METAR MROC 181200Z 06003KT 9999 3000NE FEW001 SCT100 BKN200 19/18 A2997 NOSIG=
201206181300 METAR MROC 181300Z 00000KT CAVOK 20/20 A3000 NOSIG=
201206181400 METAR MROC 181400Z 31005KT CAVOK 23/21 A3001 NOSIG=
201206181500 METAR MROC 181500Z 26006KT CAVOK 25/20 A3003 NOSIG=
201206181600 METAR MROC 181600Z 22004KT 9999 FEW035 BKN250 26/17 A3003 NOSIG=
201206181700 METAR MROC 181700Z 21002KT 9999 FEW035 BKN250 28/17 A3000 NOSIG=
201206181800 METAR MROC 181800Z 26005KT 9999 FEW035 BKN250 29/17 A2998 NOSIG=
201206181900 METAR MROC 181900Z 24010KT 9999 FEW015 SCT030 BKN250 28/18 A2997 NOSIG=
201206182000 METAR MROC 182000Z 19007KT 9999 FEW015TCU SCT030 BKN250 26/20 A2995 NOSIG=
201206182100 METAR MROC 182100Z 24010KT 9999 -DZ FEW015CB SCT025 BKN250 24/21 A2995 NOSIG=
201206182200 METAR MROC 182200Z 26009KT 9999 FEW006 SCT025TCU BKN250 23/20 A2995 REDZ=
201206182300 METAR MROC 182300Z 25008KT 9999 FEW006 SCT025 BKN250 22/20 A2996 NOSIG=
201206182348 METAR MROC 190000Z 25007KT 9999 VCFG FEW004 SCT015 BKN025 22/20 A2997 NOSIG=
201206190000 METAR MROC 190000Z 25007KT 9999 VCFG FEW004 SCT015 BKN025 22/20 A2997 NOSIG=
201206190100 METAR MROC 190100Z 25003KT 9999 VCFG FEW004 SCT012 BKN020 21/20 A2999 NOSIG=
201206190200 METAR MROC 190200Z 19003KT 9999 SCT010 BKN020 21/20 A3000 NOSIG=
201206190300 METAR MROC 190300Z 00000KT 9999 SCT007 BKN020 21/20 A3001 NOSIG=
201206190400 METAR MROC 190400Z 00000KT 9999 FEW012 BKN025 21/19 A3002 NOSIG=
201206190500 METAR MROC 190500Z 04002KT 9999 FEW030 BKN250 20/19 A3001 NOSIG=
201206190600 METAR MROC 190600Z 07002KT CAVOK 19/18 A3000 NOSIG=
201206190700 METAR MROC 190700Z 00000KT 9999 3000SW FEW003 SCT010 BKN250 19/18 A2999 RMK VIS RED SW DUE BR=
201206190800 METAR MROC 190800Z 04003KT 9999 VCFG SCT010 BKN250 20/18 A2999 NOSIG=
201206190900 METAR MROC 190900Z 07004KT 9999 FEW020 SCT250 19/17 A2999 NOSIG=
201206191000 METAR MROC 191000Z 07003KT CAVOK 18/16 A2999 NOSIG=
201206191100 METAR MROC 191100Z 08004KT CAVOK 18/15 A3000 NOSIG=
201206191200 METAR MROC 191200Z 06004KT CAVOK 19/16 A3001 NOSIG=
201206191300 METAR MROC 191300Z 12002KT CAVOK 21/17 A3003 NOSIG=
201206191400 METAR MROC 191400Z 00000KT CAVOK 24/17 A3004 NOSIG=
201206191500 METAR MROC 191500Z 00000KT 9999 FEW035 BKN250 25/17 A3004 NOSIG=
201206191600 METAR MROC 191600Z 23006KT 9999 FEW035 BKN250 26/18 A3005 NOSIG=
201206191700 METAR MROC 191700Z 25006KT 9999 SCT030 BKN250 27/18 A3004 NOSIG=
201206191800 METAR MROC 191800Z 22007KT 9999 SCT030 BKN100 27/19 A3003 NOSIG=
201206191900 METAR MROC 191900Z 26009KT 9999 SCT025TCU BKN035 27/20 A3001 NOSIG=
201206192000 METAR MROC 192000Z 23009KT 9999 FEW020TCU SCT035 27/21 A2999 NOSIG=
201206192100 METAR MROC 192100Z 24010KT 9999 FEW020TCU SCT030 26/20 A2998 NOSIG=
201206192200 METAR MROC 192200Z 26009KT 9999 FEW020 FEW025TCU 25/20 A2997 NOSIG=
201206192300 METAR MROC 192300Z 26008KT 9999 VCSH FEW015 FEW025TCU 24/20 A2997 NOSIG=
201206200000 METAR MROC 200000Z 26006KT 9000 SCT009 FEW018TCU 22/21 A2999 BECMG 5000 BR BKN020=
201206200100 METAR MROC 200100Z 25006KT 9000 VCFG SCT003 BKN010 22/21 A3001 BECMG BKN035=
201206200200 METAR MROC 200200Z 26006KT 9000 4300SW -RA BCFG SCT003 BKN009 22/20 A3003 BECMG BKN040=
201206200300 METAR MROC 200300Z 23003KT 9999 FEW006 SCT012 BKN100 21/20 A3005 NOSIG=
201206200400 METAR MROC 200400Z 25003KT 9999 FEW006 SCT012 SCT030 21/20 A3005 NOSIG=
201206200500 METAR MROC 200500Z 25002KT 9999 SCT005 SCT012 21/20 A3004 NOSIG=
201206200600 METAR MROC 200600Z 00000KT 9999 2000SW SCT005 BKN015 21/20 A3003 NOSIG=
201206200700 METAR MROC 200700Z 00000KT 9999 4000SW SCT006 BKN015 21/20 A3001 NOSIG=
201206200800 METAR MROC 200800Z 00000KT 9999 FEW006 SCT015 21/19 A3000 NOSIG=
201206200900 METAR MROC 200900Z 00000KT 9999 VCFG FEW005 SCT020 20/20 A3000 NOSIG=
201206201000 METAR MROC 201000Z 09004KT 9999 VCFG FEW002 19/19 A3000 NOSIG=
201206201100 METAR MROC 201100Z 00000KT CAVOK 19/19 A3001 NOSIG=
201206201200 METAR MROC 201200Z 05002KT 9999 FEW006 20/18 A3001 NOSIG=
201206201300 METAR MROC 201300Z 00000KT 7000 3000SW FEW001 SCT010 23/19 A3003 NOSIG=
201206201400 METAR MROC 201400Z 24002KT 8000 3000SW FEW004 SCT020 25/19 A3003 NOSIG=
201206201500 METAR MROC 201500Z 23004KT 9000 4000SW FEW008 SCT020 26/20 A3004 NOSIG=
201206201600 METAR MROC 201600Z 24007KT 9000 FEW010 SCT025 26/20 A3003 NOSIG=
201206201700 METAR MROC 201700Z 25006KT 9000 FEW015 SCT025 27/20 A3002 NOSIG=
201206201800 METAR MROC 201800Z 24009KT 9000 FEW010 SCT020TCU 27/20 A3001 NOSIG=
201206201900 METAR MROC 201900Z 26010KT 9000 FEW010 SCT020TCU 27/21 A2999 NOSIG=
201206202000 METAR MROC 202000Z 25011KT 9999 VCSH FEW010 SCT020TCU 25/21 A2998 BECMG RA=
201206202100 METAR MROC 202100Z 25008KT 9999 VCSH FEW015 BKN030 26/21 A2997 BECMG 5000 RA BR=
201206202200 METAR MROC 202200Z 23010KT 9999 FEW015 BKN030 25/21 A2997 BECMG SHRA=
201206202300 METAR MROC 202300Z 23008KT 9999 FEW010 SCT030 BKN070 23/20 A2999 BECMG SHRA=
201206210000 METAR MROC 210000Z 23008KT 9999 FEW010 SCT030 BKN070 23/20 A2999 BECMG SHRA=
201206210100 METAR COR MROC 210100Z 21004KT 9999 FEW030 BKN070 22/20 A3002 NOSIG=
201206210200 METAR MROC 210200Z 20002KT 9999 FEW030 BKN100 22/20 A3003 NOSIG=
201206210252 METAR MROC 210300Z 00000KT 9999 SCT030 BKN100 23/20 A3004 NOSIG=
201206210300 METAR MROC 210300Z 00000KT 9999 SCT030 BKN100 23/20 A3004 NOSIG=
201206210400 METAR MROC 210400Z 00000KT 9999 SCT030 BKN100 23/20 A3005 NOSIG=
201206210500 METAR MROC 210500Z 31002KT 9999 SCT030 BKN100 22/20 A3005 NOSIG=
201206210600 METAR MROC 210600Z 31003KT 9999 FEW030 BKN100 22/21 A3005 NOSIG=
201206210700 METAR MROC 210700Z 00000KT 9999 FEW030 BKN100 22/20 A3003 NOSIG=
201206210800 METAR MROC 210800Z 13002KT 9999 FEW030 BKN100 21/20 A3001 NOSIG=
201206210900 METAR MROC 210900Z 05004KT CAVOK 21/18 A2999 NOSIG=
201206211000 METAR MROC NIL=
201206211100 METAR MROC 211100Z 05011KT CAVOK 22/17 A2998 NOSIG=
201206211200 METAR MROC 211200Z 07005KT CAVOK 21/17 A2998 NOSIG=
201206211300 METAR MROC 211300Z 17003KT CAVOK 24/18 A3000 BECMG 24007KT NOSIG=
201206211400 METAR MROC 211400Z 09006KT CAVOK 26/17 A3001 NOSIG=
201206211500 METAR MROC 211500Z 10007KT CAVOK 27/17 A3001 NOSIG=
201206211600 METAR MROC 211600Z 12005KT CAVOK 29/16 A3000 NOSIG=
201206211700 METAR MROC 211700Z 24008KT 9999 FEW040 SCT300 28/20 A3000 NOSIG=
201206211800 METAR MROC 211800Z 25010KT 9999 FEW020 SCT035 28/20 A2998 NOSIG=
201206211900 METAR MROC 211900Z 23012KT 9999 FEW020 SCT035 27/21 A2996 NOSIG=
201206212000 METAR MROC 212000Z 26006KT 9999 -TS RA FEW010CB BKN030 21/18 A2997 NOSIG=
201206212100 METAR MROC 212100Z 30004KT 9999 FEW010 SCT020 23/20 A2995 BECMG 6000 -RA=
201206212200 METAR MROC 212200Z 24005KT 9999 SCT010 SCT020 24/20 A2994 NOSIG=
201206212300 METAR MROC 212300Z 24006KT 8000 VCFG SCT010 SCT025 23/21 A2996 BECMG 5000 -RA BR=
201206220000 METAR MROC 220000Z 26002KT 9999 -RA FEW015TCU SCT030 BKN140 22/18 A2995 BECMG 5000 -RA BR=
201206220100 METAR MROC 220100Z 28005KT 9999 SCT015 SCT025 22/19 A2998 BECMG 8000 RA=
201206220200 METAR MROC 220200Z 25003KT 9999 VCFG SCT010 SCT030 21/19 A3002 NOSIG=
201206220300 METAR MROC 220300Z 00000KT 9999 VCFG SCT008 BKN030 21/19 A3003 NOSIG=
201206220400 METAR MROC 220400Z 25004KT 9000 3000SW VCFG SCT005 BKN025 21/20 A3005 BECMG 6000 BCFG=
201206220500 METAR MROC 220500Z 00000KT 4000 1000SW SCT001 BKN015 21/20 A3004 BECMG 6000=
201206220600 METAR MROC 220600Z 09003KT 9999 VCFG FEW010 SCT030 21/19 A3000 NOSIG=
201206220700 METAR MROC 220700Z 09003KT 9999 VCFG FEW015 SCT030 20/19 A2996 NOSIG=
201206220800 METAR MROC 220800Z 08003KT CAVOK 20/18 A2995 NOSIG=
201206220900 METAR MROC 220900Z 06008KT CAVOK 19/17 A2996 NOSIG=
201206221000 METAR MROC 221000Z 12003KT 8000 2000SW VCFG FEW015 BKN100 19/18 A2995 NOSIG=
201206221100 METAR MROC 221100Z 07004KT CAVOK 18/15 A2995 NOSIG=
201206221200 METAR MROC 221200Z 08003KT 9999 VCFG FEW015 19/16 A2997 NOSIG=
201206221300 METAR MROC 221300Z 08002KT 9999 SCT020 21/17 A2999 NOSIG=
201206221400 METAR MROC 221400Z 13002KT 9999 FEW020 SCT140 23/18 A3002 BECMG 24006KT=
201206221500 METAR MROC 221500Z 00000KT 9999 FEW020 SCT160 27/18 A3002 BECMG 24006KT=
201206221600 METAR MROC 221600Z 27005KT 9999 SCT025 SCT120 26/18 A3001 NOSIG=
201206221700 METAR MROC 221700Z 24008KT 9999 FEW025 SCT120 26/19 A3001 NOSIG=
201206221800 METAR MROC 221800Z 25007KT 9999 FEW015 SCT025 25/19 A3000 NOSIG=
201206221900 METAR MROC 221900Z 24008KT 9999 FEW015TCU SCT025 27/19 A2999 BECMG 8000 VCSH=
201206222000 METAR MROC 222000Z 23009KT 9999 VCSH SCT015TCU BKN025 25/21 A2996 BECMG 6000 SHRA=
201206222100 METAR MROC 222100Z 23009KT 9999 -RA FEW010 SCT020 BKN100 21/21 A2995 NOSIG=
201206222200 METAR MROC 222200Z 27005KT 8000 -DZ VCFG FEW003 SCT015 BKN090 21/21 A2998 BECMG 5000 RA BR=
201206222300 METAR MROC 222300Z VRB02KT 9999 -RA FEW002 SCT020 BKN100 21/21 A3000 NOSIG=
201206230000 METAR MROC 230000Z 05002KT 9999 VCFG FEW006 SCT020 BKN100 21/19 A2997 NOSIG=
201206230100 METAR MROC 230100Z 17002KT 9999 -DZ VCFG FEW004 SCT020 BKN100 21/20 A2999 NOSIG=
201206230200 METAR MROC 230200Z 00000KT 9999 VCFG FEW003 SCT025 BKN100 21/20 A3002 NOSIG=
201206230300 METAR MROC 230300Z 28002KT 9999 3000SW FEW001 SCT025 BKN100 21/19 A3002 BECMG 3000 BR=
201206230400 METAR MROC 230400Z 02003KT 9999 3000SW FEW001 SCT025 BKN100 21/19 A3003 BECMG 3000 BR=
201206230500 METAR MROC 230500Z 29002KT 9999 3000SW FEW001 SCT025 BKN100 20/19 A3003 BECMG 3000 BR=
201206230600 METAR MROC 230600Z 13002KT 9999 2000SW FEW001 SCT020 20/18 A3002 NOSIG=
201206230700 METAR MROC 230700Z 08003KT 9999 FEW010 SCT030 19/17 A3001 NOSIG=
201206230800 METAR MROC 230800Z 09003KT 9999 FEW030 19/17 A3000 NOSIG=
201206230900 METAR MROC 230900Z 05002KT CAVOK 19/17 A2999 NOSIG=
201206231000 METAR MROC 231000Z 08003KT CAVOK 18/16 A3000 NOSIG=
201206231100 METAR MROC 231100Z 07004KT CAVOK 18/16 A3002 NOSIG=
201206231200 METAR MROC 231200Z 09005KT CAVOK 18/16 A3004 NOSIG=
201206231300 METAR MROC 231300Z 12003KT CAVOK 21/20 A3005 NOSIG=
201206231400 METAR MROC 231400Z 00000KT CAVOK 24/20 A3007 BECMG 22006KT=
201206231500 METAR MROC 231500Z 32003KT 9999 FEW030 25/20 A3007 NOSIG=
201206231600 METAR MROC 231600Z 25007KT 9999 FEW030 26/21 A3007 NOSIG=
201206231700 METAR MROC 231700Z 27009KT 9999 FEW030 26/21 A3007 NOSIG=
201206231800 METAR MROC 231800Z 24009KT 9999 FEW020TCU SCT030 26/20 A3005 NOSIG=
201206231900 METAR MROC 231900Z 23003KT 9999 SCT020TCU BKN030 26/20 A3003 NOSIG=
201206232000 METAR MROC 232000Z 24010KT 9999 VCSH SCT015CB SCT030 23/21 A3003 BECMG 7000 RA=
201206232100 METAR MROC 232100Z 26009KT 8000 -RA VCFG FEW002 BKN008 22/20 A3002 BECMG 3000 RA BR=
201206232200 METAR MROC 232200Z 23004KT 3000 RA BR FEW002 BKN004 21/20 A3003 NOSIG=
201206232300 METAR MROC 232300Z 18002KT 3000 RA BR FEW004 BKN012 20/19 A3004 NOSIG=
201206240000 METAR MROC 240000Z 14002KT 9999 -DZ FEW006 BKN020 20/19 A3005 BECMG 5000 RA BR=
201206240100 METAR MROC 240100Z 00000KT 9999 SCT005 BKN020 21/20 A3007 NOSIG=
201206240200 METAR MROC 240200Z 13002KT 9999 SCT025 SCT100 21/20 A3008 NOSIG=
201206240300 METAR MROC 240300Z 07003KT 9999 SCT010 SCT025 21/19 A3009 NOSIG=
201206240400 METAR MROC 240400Z 07003KT 9999 FEW025 BKN120 20/19 A3010 NOSIG=
201206240500 METAR MROC 240500Z 18003KT 9999 FEW025 BKN120 20/18 A3009 NOSIG=
201206240600 METAR MROC 240600Z 10003KT CAVOK 19/17 A3008 NOSIG=
201206240700 METAR MROC 240700Z 07003KT CAVOK 20/17 A3006 NOSIG=
201206240800 METAR MROC 240800Z 05002KT CAVOK 20/17 A3005 NOSIG=
201206240900 METAR MROC 240900Z 04006KT CAVOK 19/17 A3004 NOSIG=
201206241000 METAR MROC 241000Z 06007KT CAVOK 20/17 A3005 NOSIG=
201206241100 METAR MROC 241100Z 07006KT CAVOK 21/17 A3005 NOSIG=
201206241200 METAR MROC 241200Z 03008KT CAVOK 21/17 A3006 NOSIG=
201206241300 METAR MROC 241300Z 09004KT CAVOK 24/17 A3008 NOSIG=
201206241400 METAR MROC 241400Z 31004KT CAVOK 26/17 A3009 NOSIG=
201206241500 METAR MROC 241500Z 33003KT CAVOK 27/17 A3009 NOSIG=
201206241600 METAR MROC 241600Z 00000KT 9999 FEW035 BKN250 28/17 A3007 NOSIG=
201206241615 METAR MROC 241615Z 04005KT 9999 FEW035 BKN250 29/17 A3006=
201206241700 METAR MROC 241700Z 00000KT 9999 SCT035 BKN250 30/16 A3007 NOSIG=
201206241800 METAR MROC 241800Z 24008KT 9999 FEW025TCU BKN035 29/21 A3005 NOSIG=
201206241900 METAR MROC 241900Z 23008KT 9999 FEW025TCU SCT035 BKN250 27/20 A3003 NOSIG=
201206242000 METAR MROC 242000Z 23008KT 9999 FEW025TCU SCT035 25/22 A3001 NOSIG=
201206242100 METAR MROC 242100Z 23006KT 9999 -RA VCSH FEW015TCU SCT030 SCT100 25/22 A3000 NOSIG=
201206242200 METAR MROC 242200Z 23008KT 9999 FEW015 SCT025TCU SCT250 26/21 A3001 NOSIG=
201206242300 METAR MROC 242300Z 24007KT 9999 VCSH FEW015 SCT020TCU BKN250 25/21 A3001 NOSIG=
201206250000 METAR MROC 250000Z 25005KT 9999 VCSH FEW015 SCT025TCU 23/21 A3004 NOSIG=
201206250100 METAR MROC 250100Z 29003KT 9999 DZ FEW010 SCT020 23/21 A3005 NOSIG=
201206250200 METAR MROC 250200Z 24002KT 9999 FEW020 BKN100 22/20 A3007 NOSIG=
201206250300 METAR MROC 250300Z 27003KT 9999 FEW035 22/20 A3006 NOSIG=
201206250400 METAR MROC 250400Z 04005KT CAVOK 21/18 A3006 NOSIG=
201206250500 METAR MROC 250500Z 07003KT CAVOK 20/17 A3007 NOSIG=
201206250600 METAR MROC 250600Z 04004KT CAVOK 20/17 A3006 NOSIG=
201206250700 METAR MROC 250700Z 03003KT CAVOK 19/17 A3006 NOSIG=
201206250800 METAR MROC 250800Z 02004KT 9999 FEW020 19/17 A3003 NOSIG=
201206250900 METAR MROC 250900Z 12005KT 9999 FEW020 19/19 A3004 NOSIG=
201206251000 METAR MROC 251000Z 00000KT CAVOK 19/19 A3005 NOSIG=
201206251100 METAR MROC 251100Z 10004KT CAVOK 18/17 A3003 NOSIG=
201206251200 METAR MROC 251200Z 07006KT CAVOK 20/16 A3002 NOSIG=
201206251300 METAR MROC 251300Z 07004KT CAVOK 22/16 A3004 NOSIG=
201206251400 METAR MROC 251400Z VRB02KT CAVOK 26/16 A3003 BECMG 22005KT=
201206251500 METAR MROC 251500Z 03005KT CAVOK 27/15 A3002 BECMG 22005KT=
201206251600 METAR MROC 251600Z 09004KT CAVOK 28/14 A3000 BECMG 22005KT=
201206251700 METAR MROC 251700Z 25007KT CAVOK 28/18 A2998 NOSIG=
201206251800 METAR MROC 251800Z 25010KT 9999 FEW035 SCT300 28/18 A2998 NOSIG=
201206251900 METAR MROC 251900Z 24013KT 9999 SCT035 27/21 A2996 NOSIG=
201206252000 METAR MROC 252000Z 25012KT 9999 VCSH FEW010 SCT020TCU 25/21 A2995 BECMG SHRA=
201206252013 METAR MROC 252013Z 25013KT 9999 RA VCSH SCT010 SCT020TCU 25/21 A2995 BECMG 7000 SHRA=
201206252100 METAR MROC 252100Z 25011KT 9999 -RA FEW010 BKN030 24/21 A2996 BECMG RA BKN015=
201206252200 METAR MROC 252200Z 27006KT 9999 FEW010 BKN030 21/18 A2997 BECMG RA=
201206252300 METAR MROC 252300Z 23004KT 9999 FEW015 BKN030 22/18 A2999 NOSIG=
201206260000 METAR MROC 260000Z 26005KT 9999 SCT030 SCT070 21/19 A3001 NOSIG=
201206260100 METAR MROC 260100Z 26005KT 9999 SCT020 SCT070 21/19 A3003 NOSIG=
201206260200 METAR MROC 260200Z 31004KT 9999 FEW010 SCT030 21/19 A3004 NOSIG=
201206260300 METAR MROC 260300Z 00000KT 9999 SCT030 BKN040 21/19 A3005 NOSIG=
201206260400 METAR MROC 260400Z 00000KT 9999 FEW035 SCT100 21/19 A3006 NOSIG=
201206260500 METAR MROC 260500Z 32002KT 9999 FEW030 BKN100 21/18 A3006 NOSIG=
201206260600 METAR MROC 260600Z 00000KT 9999 FEW030 BKN100 21/18 A3004 NOSIG=
201206260700 METAR MROC 260700Z 13003KT 9999 FEW030 SCT120 19/18 A3001 NOSIG=
201206260800 METAR MROC 260800Z 09003KT CAVOK 20/18 A2999 NOSIG=
201206260900 METAR MROC 260900Z 18002KT CAVOK 20/17 A2999 NOSIG=
201206261000 METAR MROC 261000Z 10003KT CAVOK 19/17 A2999 NOSIG=
201206261100 METAR MROC 261100Z 05004KT CAVOK 19/17 A3000 NOSIG=
201206261200 METAR MROC 261200Z 08004KT CAVOK 19/16 A3000 NOSIG=
201206261300 METAR MROC 261300Z 07004KT CAVOK 22/18 A3002 NOSIG=
201206261400 METAR MROC 261400Z 09004KT CAVOK 24/18 A3002 NOSIG=
201206261500 METAR MROC 261500Z 21002KT 9999 FEW040 SCT250 27/18 A3003 NOSIG=
201206261600 METAR MROC 261600Z 23005KT 9999 SCT040 27/18 A3002 NOSIG=
201206261700 METAR MROC 261700Z 25008KT 9999 FEW015 SCT030 26/18 A3002 NOSIG=
201206261800 METAR MROC 261800Z 26011KT 9999 VCSH FEW015 SCT030 25/19 A3000 BECMG RA=
201206261900 METAR MROC 261900Z 20005KT 9999 -TS RA FEW015CB BKN030 23/19 A3000 NOSIG=
201206262000 METAR MROC 262000Z 20003KT 9999 -RA FEW010 SCT030 BKN100 22/19 A2999 NOSIG=
201206262100 METAR MROC 262100Z 32003KT 9999 FEW020 SCT140 BKN250 23/19 A2996 NOSIG=
201206262200 METAR MROC 262200Z 27004KT 9999 FEW025 BKN100 24/18 A2997 NOSIG=
201206262300 METAR MROC 262300Z 26005KT 9999 FEW025 BKN100 23/19 A2997 NOSIG=
201206270000 METAR MROC 270000Z 21005KT 9999 SCT025 BKN120 22/19 A3002 NOSIG=
201206270020 METAR MROC 270020Z 22004KT 9999 -RA SCT020 BKN120 22/19 A3002 NOSIG=
201206270100 METAR MROC 270100Z 22004KT 9999 -RA VCTS FEW017CB SCT030 BKN100 21/19 A3004 NOSIG=
201206270200 METAR MROC 270200Z 00000KT 8000 3500NW -RA VCFG SCT030 BKN100 21/19 A3007 BECMG 5000 -RA BR=
201206270300 METAR MROC 270300Z 00000KT 9999 -RA FEW020 BKN100 20/19 A3005 NOSIG=
201206270400 METAR MROC 270400Z 07002KT 9999 4000SW VCFG FEW020 SCT100 20/19 A3005 NOSIG=
201206270500 METAR MROC 270500Z 08003KT 9999 FEW020 BKN120 20/19 A3004 NOSIG=
201206270600 METAR MROC 270600Z 09003KT CAVOK 19/18 A3001 NOSIG=
201206270700 METAR MROC 270700Z 10004KT CAVOK 18/17 A3000 NOSIG=
201206270800 METAR MROC 270800Z 12002KT CAVOK 19/17 A2999 NOSIG=
201206270900 METAR MROC 270900Z 02005KT CAVOK 18/17 A3001 NOSIG=
201206271000 METAR MROC 271000Z 08003KT 9999 VCFG FEW015 SCT120 18/16 A3002 NOSIG=
201206271100 METAR MROC 271100Z 07003KT CAVOK 18/16 A3002 NOSIG=
201206271200 METAR MROC 271200Z 10004KT CAVOK 18/16 A3004 NOSIG=
201206271300 METAR MROC 271300Z 04007KT CAVOK 20/16 A3005 NOSIG=
201206271400 METAR MROC 271400Z 03005KT CAVOK 22/17 A3007 NOSIG=
201206271500 METAR MROC 271500Z 20003KT CAVOK 24/18 A3009 NOSIG=
201206271600 METAR MROC 271600Z 24005KT 9999 FEW030 SCT120 BKN250 24/18 A3009 NOSIG=
201206271700 METAR MROC 271700Z 24005KT 9999 FEW030 SCT120 BKN250 25/19 A3007 NOSIG=
201206271800 METAR MROC 271800Z 26006KT 9999 FEW030 SCT120 BKN250 25/19 A3006 NOSIG=
201206271900 METAR MROC 271900Z 26006KT 9999 SCT025 BKN250 26/19 A3004 NOSIG=
201206272000 METAR MROC 272000Z 25008KT 9999 FEW010TCU SCT025 25/19 A3002 BECMG 8000 VCSH=
201206272100 METAR MROC 272100Z 36003KT 9999 VCSH FEW015TCU SCT025 23/18 A3002 NOSIG=
201206272200 METAR MROC 272200Z 16002KT 9999 VCTS FEW020CB SCT030 BKN100 23/22 A3002 NOSIG=
201206272300 METAR MROC 272300Z 13003KT 9999 -RA FEW010 SCT090 22/22 A3002 NOSIG=
201206280000 METAR MROC 280000Z 00000KT 9999 FEW030 SCT100 BKN250 22/20 A3003 NOSIG=
201206280100 METAR MROC 280100Z 00000KT 9999 SCT025 BKN100 22/20 A3006 NOSIG=
201206280200 METAR MROC 280200Z 07002KT 9999 FEW015 SCT120 22/20 A3007 NOSIG=
201206280300 METAR MROC 280300Z 07002KT CAVOK 21/18 A3008 NOSIG=
201206280400 METAR MROC 280400Z 08005KT CAVOK 21/17 A3008 NOSIG=
201206280500 METAR MROC 280500Z 06004KT CAVOK 20/17 A3007 NOSIG=
201206280600 METAR MROC 280600Z 06004KT CAVOK 21/16 A3006 NOSIG=
201206280700 METAR MROC 280700Z 06003KT CAVOK 20/16 A3005 NOSIG=
201206280800 METAR MROC 280800Z 10008KT CAVOK 21/15 A3004 NOSIG=
201206280900 METAR MROC 280900Z 06006KT CAVOK 20/15 A3004 NOSIG=
201206281000 METAR MROC 281000Z 06003KT CAVOK 19/15 A3004 NOSIG=
201206281100 METAR MROC 281100Z 08005KT CAVOK 20/15 A3003 NOSIG=
201206281200 METAR MROC 281200Z 11008KT CAVOK 21/15 A3005 NOSIG=
201206281300 METAR MROC 281300Z 12009KT CAVOK 23/17 A3009 NOSIG=
201206281400 METAR MROC 281400Z 12006KT CAVOK 25/17 A3009 NOSIG=
201206281500 METAR MROC 281500Z 11009KT 9999 FEW030 SCT250 26/18 A3010 NOSIG=
201206281600 METAR MROC 281600Z 09012KT 9999 FEW030 SCT250 27/17 A3008 NOSIG=
201206281700 METAR MROC 281700Z 11006KT 9999 FEW040 SCT250 28/15 A3005 NOSIG=
201206281800 METAR MROC 281800Z 06011KT 9999 FEW040 BKN250 28/15 A3005 NOSIG=
201206281900 METAR MROC 281900Z 06007KT 9999 FEW040 BKN250 28/16 A3003 NOSIG=
201206282000 METAR MROC 282000Z 06010KT 9999 FEW035 SCT120 27/14 A3001 NOSIG=
201206282100 METAR MROC 282100Z 22006KT 9999 SCT035 BKN120 24/20 A2999 NOSIG=
201206282200 METAR MROC 282200Z 23006KT 5000 BR FEW003 SCT010 BKN025 22/20 A3002=
201206282300 METAR MROC 282300Z 31004KT 9999 FEW030 BKN120 21/18 A3003 NOSIG=
201206282351 METAR MROC 290000Z 00000KT 9999 FEW030 BKN120 21/18 A3005 NOSIG=
201206290000 METAR MROC 290000Z 00000KT 9999 FEW030 BKN120 21/18 A3005 NOSIG=
201206290100 METAR MROC 290100Z 00000KT CAVOK 22/18 A3004 NOSIG=
201206290200 METAR MROC 290200Z 00000KT CAVOK 22/17 A3006 NOSIG=
201206290300 METAR MROC 290300Z 12006KT CAVOK 22/16 A3007 NOSIG=
201206290400 METAR MROC 290400Z 08003KT CAVOK 22/16 A3010 NOSIG=
201206290500 METAR MROC 290500Z 04004KT CAVOK 21/17 A3006 NOSIG=
201206290600 METAR MROC 290600Z 02004KT 9999 -RA NSC 21/17 A3007=
201206290700 METAR MROC 290700Z 06004KT CAVOK 20/17 A3004 NOSIG=
201206290800 METAR MROC 290800Z 05007KT 9999 -RA NSC 21/15 A3003 NOSIG=
201206290900 METAR MROC 290900Z 10008KT CAVOK 21/15 A3001 NOSIG=
201206291000 METAR MROC 291000Z 05008KT CAVOK 21/15 A2999 NOSIG=
201206291100 METAR MROC 291100Z 05009KT CAVOK 21/15 A2997 NOSIG=
201206291200 METAR MROC 291200Z 07004KT CAVOK 21/14 A2998 NOSIG=
201206291300 METAR MROC 291300Z 08003KT CAVOK 23/13 A2999 NOSIG=
201206291400 METAR MROC 291400Z 09006KT CAVOK 24/13 A3000 NOSIG=
201206291500 METAR MROC 291500Z 11008KT CAVOK 25/14 A3002=
201206291600 METAR MROC 291600Z 07010KT CAVOK 26/15 A3003=
201206291700 METAR MROC 291700Z 08009G19KT 9999 FEW035 SCT250 27/15 A3002=
201206291800 METAR MROC 291800Z 07006KT 9999 SCT035 BKN250 29/16 A3001 NOSIG=
201206291900 METAR MROC 291900Z 13008KT 9999 SCT030 BKN100 29/15 A2996 NOSIG=
201206292000 METAR MROC NIL=
201206292100 METAR MROC 292100Z 25011KT 9000 3000NW -SHRA FEW010 SCT020TCU BKN100 22/20 A2997 BECMG 5000 RA=
201206292112 METAR MROC 292112Z 24009KT 5000 RA BR SCT010 BKN100 21/19 A2997 NOSIG=
201206292200 METAR MROC 292200Z 15002KT 5000 RA BR FEW010 SCT020 BKN100 21/19 A3000 NOSIG=
201206292300 METAR MROC 292300Z 05004KT 8000 RA VCFG FEW006 SCT015 BKN100 20/19 A2999 NOSIG=
201206300000 METAR MROC 300000Z 07002KT 9999 -RA FEW025 SCT060 BKN180 20/18 A2998 NOSIG=
201206300100 METAR MROC 300100Z 06002KT 9999 FEW025 BKN150 20/17 A3000 NOSIG=
201206300200 METAR MROC 300200Z 05005KT 9999 FEW030 BKN120 20/17 A3003 NOSIG=
201206300300 METAR MROC 300300Z 00000KT 9999 FEW030 SCT120 19/17 A3005 NOSIG=
201206300400 METAR MROC 300400Z 08003KT 9999 FEW035 SCT120 19/18 A3005 NOSIG=
201206300500 METAR MROC 300500Z 06004KT 9999 FEW035 SCT120 20/18 A3006 NOSIG=
201206300600 METAR MROC 300600Z 04005KT CAVOK 20/18 A3003 NOSIG=
201206300700 METAR MROC 300700Z 06006KT CAVOK 19/16 A3000 NOSIG=
201206300800 METAR MROC 300800Z 06006KT CAVOK 19/16 A2999 NOSIG=
201206300900 METAR MROC 300900Z 08007KT CAVOK 20/17 A2998 NOSIG=
201206301000 METAR MROC 301000Z 12011KT CAVOK 21/17 A2997 NOSIG=
201206301100 METAR MROC 301100Z 12009KT CAVOK 21/17 A2996 NOSIG=
201206301200 METAR MROC 301200Z 09006KT CAVOK 20/15 A2998 NOSIG=
201206301300 METAR MROC 301300Z 21003KT CAVOK 21/16 A3001 NOSIG=
201206301400 METAR MROC 301400Z 03004KT 9999 FEW040 BKN120 22/16 A3002 NOSIG=
201206301500 METAR MROC 301500Z 11004KT 9999 FEW035 BKN120 23/16 A3002 NOSIG=
201206301600 METAR MROC 301600Z 12006KT 9999 FEW035 SCT120 26/17 A3002 NOSIG=
201206301700 METAR MROC 301700Z 12007KT 9999 FEW040 SCT250 27/16 A3000 NOSIG=
201206301800 METAR MROC 301800Z 15004KT 9999 FEW040 BKN250 28/16 A2999 BECMG 24006KT=
201206301900 METAR MROC 301900Z 23010KT 9999 FEW025 SCT040 BKN120 25/19 A2996 NOSIG=
201206302000 METAR MROC 302000Z 30008KT 9999 4800W SHRA VCTS FEW015CB SCT020TCU SCT100 22/18 A2995 BECMG -TSRA=
201206302100 METAR MROC 302100Z 21004KT 9999 3000SW TS VCSH FEW010CB BKN030 22/18 A2996 BECMG RA=
201206302200 METAR MROC 302200Z 24004KT 3000 RA BR FEW001 SCT010 BKN030 20/18 A2997 BECMG TS BKN015=
201206302300 METAR MROC 302300Z 27002KT 7000 -TS RA FEW001 FEW010CB SCT030 OVC100 20/18 A2999 BECMG 3000 BKN015=
201207010000 METAR MROC 010000Z 14002KT 5000 -RA BR FEW001 SCT030 OVC100 19/18 A3001 BECMG TS=
201207010100 METAR MROC 010100Z 06004KT 8000 -RA FEW030 OVC100 20/18 A3002 NOSIG=
201207010200 METAR MROC 010200Z 04008KT 9999 -RA FEW030 OVC100 20/18 A3001 NOSIG=
201207010300 METAR MROC 010300Z 18004KT 9999 -DZ FEW030 OVC100 20/18 A3002 NOSIG=
201207010400 METAR MROC 010400Z 00000KT 9999 FEW035 OVC100 20/18 A3004 NOSIG=
201207010500 METAR MROC 010500Z 04007KT CAVOK 20/18 A3002 NOSIG=
201207010600 METAR MROC 010600Z 07007KT CAVOK 20/17 A2999 NOSIG=
201207010700 METAR MROC 010700Z 07008KT CAVOK 20/17 A2996 NOSIG=
201207010800 METAR MROC 010800Z 09006KT CAVOK 21/16 A2995 NOSIG=
201207010900 METAR MROC 010900Z 08006KT CAVOK 21/16 A2995 NOSIG=
201207011000 METAR MROC 011000Z 14002KT CAVOK 21/16 A2996 NOSIG=
201207011100 METAR MROC 011100Z 01004KT 9999 FEW030 SCT120 19/16 A2998 NOSIG=
201207011200 METAR MROC 011200Z 23007KT 9999 SCT030 BKN120 25/18 A3004 NOSIG=
201207011300 METAR MROC 011300Z 07004KT 9999 FEW030 SCT120 23/17 A3002 NOSIG=
201207011400 METAR MROC 011400Z 12006KT 9999 FEW030 SCT120 24/16 A3004 NOSIG=
201207011500 METAR MROC 011500Z 12006KT 9999 FEW030 SCT120 25/16 A3004 NOSIG=
201207011600 METAR MROC 011600Z 14004KT 9999 SCT030 BKN120 27/16 A3004 BECMG 24006KT=
201207011700 METAR MROC 011700Z 23007KT 9999 SCT030 BKN120 25/18 A3004 NOSIG=
201207011800 METAR MROC 011800Z 28005KT 9999 SCT030 BKN120 27/18 A3001 NOSIG=
201207011900 METAR MROC 011900Z 23005KT 9999 SCT030 SCT120 27/18 A2999 NOSIG=
201207012000 METAR MROC 012000Z 25004KT 9999 SCT030 SCT120 28/19 A2996 NOSIG=
201207012100 METAR MROC 012100Z 25009KT 9999 FEW010 SCT030 BKN250 26/20 A2995 NOSIG=
201207012200 METAR MROC 012200Z 26007KT 9999 FEW015 SCT120 BKN250 25/21 A2994 NOSIG=
201207012300 METAR MROC 012300Z 25006KT 9999 FEW015 SCT120 BKN250 25/21 A2994 NOSIG=
201207020000 METAR MROC 020000Z 08009KT 9999 FEW030 SCT120 BKN250 24/16 A2995 NOSIG=
201207020100 METAR MROC 020100Z 09007KT CAVOK 23/16 A2996 NOSIG=
201207020200 METAR MROC 020200Z 10009KT CAVOK 23/16 A2996 NOSIG=
201207020300 METAR MROC 020300Z 10008KT 9999 FEW035 22/16 A2998 NOSIG=
201207020400 METAR MROC 020400Z 10009KT 9999 FEW035 22/16 A3000 NOSIG=
201207020500 METAR MROC 020500Z 11008KT 9999 FEW035 22/16 A3001 NOSIG=
201207020600 METAR MROC 020600Z 10007KT 9999 FEW035 22/16 A3000 NOSIG=
201207020700 METAR MROC 020700Z 10009KT 9999 FEW035 SCT200 21/16 A2997 NOSIG=
201207020800 METAR MROC 020800Z 12009KT 9999 FEW035 SCT120 21/16 A2996 NOSIG=
201207020900 METAR MROC 020900Z 10008KT 9999 FEW035 SCT120 21/16 A2996 NOSIG=
201207021000 METAR MROC 021000Z 12006KT 9999 FEW035 21/16 A2996 NOSIG=
201207021100 METAR MROC 021100Z 12009KT 9999 FEW035 SCT200 21/16 A2994 NOSIG=
201207021200 METAR MROC 021200Z 12009KT 9999 FEW045 SCT200 22/16 A2996 NOSIG=
201207021300 METAR MROC 021300Z 07005KT 9999 FEW030 SCT250 23/17 A2999 NOSIG=
201207021400 METAR MROC 021400Z 11011KT 9999 FEW030 SCT250 24/16 A3000 NOSIG=
201207021500 METAR MROC 021500Z 08009KT 9999 FEW030 SCT250 26/16 A3000 NOSIG=
201207021600 METAR MROC 021600Z 08010KT 9999 SCT035 27/16 A3001 NOSIG=
201207021700 METAR MROC 021700Z 10005KT 9999 SCT035 28/16 A3000 NOSIG=
201207021800 METAR MROC 021800Z 13007KT 9999 SCT035 29/16 A2997 BECMG 24006KT=
201207021900 METAR MROC 021900Z 24005KT 9999 FEW025TCU SCT035 26/20 A2995 BECMG 8000 VCSH=
201207022000 METAR MROC 022000Z 23009KT 9999 SCT020TCU SCT035 26/21 A2994 BECMG 8000 VCSH=
201207022100 METAR MROC 022100Z 24008KT 9999 VCSH FEW020TCU SCT035 BKN100 25/23 A2994 BECMG -RA=
201207022200 METAR MROC 022200Z 29004KT 9999 FEW025 SCT120 BKN250 25/19 A2993 NOSIG=
201207022300 METAR MROC 022300Z 24004KT 9999 FEW045 BKN250 24/21 A2994 NOSIG=
201207030000 METAR MROC 030000Z 25004KT 9999 FEW045 SCT120 BKN250 22/20 A2996 NOSIG=
201207030100 METAR MROC 030100Z 26003KT 9999 VCFG FEW003 SCT120 22/20 A2998 NOSIG=
201207030200 METAR MROC 030200Z 32002KT 9999 VCFG FEW003 SCT120 22/20 A2999 NOSIG=
201207030300 METAR MROC 030300Z 25004KT 9999 FEW030 SCT120 21/19 A3000 NOSIG=
201207030400 METAR MROC 030400Z 11005KT CAVOK 22/16 A3000 NOSIG=
201207030500 METAR MROC 030500Z 08008KT 9999 FEW030 SCT120 22/16 A3001 NOSIG=
201207030600 METAR MROC 030600Z 10010KT 9999 FEW030 SCT120 22/16 A2997 NOSIG=
201207030700 METAR MROC 030700Z 11010KT CAVOK 22/16 A2995 NOSIG=
201207030800 METAR MROC 030800Z 06005KT CAVOK 22/16 A2995 NOSIG=
201207030900 METAR MROC 030900Z 10005KT CAVOK 21/16 A2994 NOSIG=
201207031000 METAR MROC 031000Z 04003KT CAVOK 21/16 A2992 NOSIG=
201207031100 METAR MROC 031100Z 12008KT CAVOK 21/16 A2991 NOSIG=
201207031200 METAR MROC 031200Z 11012KT 9999 FEW020 SCT250 22/16 A2993 NOSIG=
201207031300 METAR MROC 031300Z 12012KT 9999 FEW025 SCT250 23/18 A2996 NOSIG=
201207031400 METAR MROC 031400Z 10014KT 9999 FEW025 SCT250 25/18 A2998 NOSIG=
201207031500 METAR MROC 031500Z 10020KT 9999 FEW025 SCT250 26/17 A2998 NOSIG=
201207031600 METAR MROC 031600Z 08013G23KT CAVOK 27/15 A2996 NOSIG=
201207031700 METAR MROC 031700Z 10012G22KT 9999 FEW045 BKN250 26/15 A2997 NOSIG=
201207031800 METAR MROC 031800Z 09012KT CAVOK 26/15 A2996 NOSIG=
201207031900 METAR MROC 031900Z 12009KT CAVOK 27/15 A2992 NOSIG=
201207032000 METAR MROC 032000Z 08010KT 9999 FEW040 BKN250 27/14 A2993 NOSIG=
201207032100 METAR MROC 032100Z 07011KT 9999 FEW035 BKN250 27/15 A2992 NOSIG=
201207032200 METAR MROC 032200Z 06010KT 9999 FEW035 SCT120 BKN250 25/15 A2993 NOSIG=
201207032300 METAR MROC 032300Z 09007KT 9999 FEW035 SCT120 BKN250 24/15 A2995 NOSIG=
201207040000 METAR MROC 040000Z 11009KT 9999 FEW035 SCT120 BKN250 23/16 A2995 NOSIG=
201207040100 METAR MROC 040100Z 12010KT 9999 FEW035 SCT250 23/16 A2997 NOSIG=
201207040200 METAR MROC 040200Z 12007KT 9999 FEW035 SCT250 22/16 A2998 NOSIG=
201207040300 METAR MROC 040300Z 11005KT CAVOK 22/16 A3000 NOSIG=
201207040400 METAR MROC NIL=
201207040500 METAR MROC 040500Z 06003KT CAVOK 21/17 A3000 NOSIG=
201207040600 METAR MROC 040600Z 07005KT CAVOK 22/17 A2998 NOSIG=
201207040700 METAR MROC 040700Z 03005KT CAVOK 21/17 A2996 NOSIG=
201207040800 METAR MROC 040800Z 00000KT CAVOK 20/16 A2994 NOSIG=
201207040900 METAR MROC 040900Z 06003KT CAVOK 20/16 A2995 NOSIG=
201207041000 METAR MROC 041000Z 03005KT CAVOK 20/16 A2994 NOSIG=
201207041100 METAR MROC 041100Z 05005KT CAVOK 21/16 A2994 NOSIG=
201207041200 METAR MROC 041200Z 04008KT CAVOK 20/16 A2994 NOSIG=
201207041300 METAR MROC 041300Z 10009KT CAVOK 22/16 A2993 NOSIG=
201207041400 METAR MROC 041400Z 11010KT CAVOK 25/17 A2995 NOSIG=
201207041500 METAR MROC 041500Z 13007KT 9999 FEW035 SCT120 BKN250 27/17 A2997 NOSIG=
201207041600 METAR MROC 041600Z 13005KT 9999 FEW035 BKN120 27/16 A2998 NOSIG=
201207041700 METAR MROC 041700Z 13005KT 9999 FEW035 BKN120 27/16 A2998 NOSIG=
201207041800 METAR MROC 041800Z 22009KT 9999 FEW035 SCT100 BKN250 26/19 A2997 NOSIG=
201207041900 METAR MROC 041900Z 26009KT 9999 SCT035 BKN100 25/20 A2996 NOSIG=
201207042000 METAR MROC 042000Z 24004KT 9999 4000E RA FEW015CB SCT025 BKN100 24/21 A2994 NOSIG=
201207042100 METAR MROC 042100Z 25008KT 9999 -RA FEW015TCU SCT025 BKN100 23/21 A2991 NOSIG=
201207042200 METAR MROC 042200Z 26007KT 9999 SCT015 BKN080 22/20 A2992 BECMG 7000 RA BKN020=
201207042300 METAR MROC 042300Z 26007KT 9999 FEW010 BKN020 22/20 A2994 BECMG 7000 RA=
201207042355 METAR MROC 050000Z 22005KT 9999 4500N -RA FEW010 SCT080 BKN180 21/19 A2994 NOSIG=
201207050000 METAR MROC 050000Z 22005KT 9999 4500N -RA FEW010 SCT080 BKN180 21/19 A2994 NOSIG=
201207050100 METAR MROC 050100Z 27003KT 9999 FEW010 SCT080 21/19 A2997 NOSIG=
201207050200 METAR MROC 050200Z 31003KT 9999 BCFG FEW010 SCT080 21/20 A2998 NOSIG=
201207050300 METAR MROC 050300Z 19002KT 9999 4500SW FEW004 SCT015 SCT090 21/20 A3000 NOSIG=
201207050400 METAR MROC 050400Z 27002KT 9999 3000E -RA SCT020 BKN090 21/20 A3002 NOSIG=
201207050500 METAR MROC 050500Z 26003KT 4000 -RA BR BKN007 SCT090 21/20 A3000 NOSIG=
201207050600 METAR MROC 050600Z 15002KT 9999 -RA SCT030 BKN100 20/18 A2998 NOSIG=
201207050700 METAR MROC 050700Z 12005KT 9999 FEW035 SCT100 20/17 A2995 NOSIG=
201207050800 METAR MROC NIL=
201207050900 METAR MROC 050900Z 09007KT 9999 FEW025 SCT100 20/19 A2995 NOSIG=
201207051000 METAR MROC 051000Z 07008KT CAVOK 20/19 A2993 NOSIG=
201207051100 METAR MROC 051100Z 09006KT CAVOK 21/19 A2992 NOSIG=
201207051200 METAR MROC 051200Z 07008KT CAVOK 21/17 A2993 NOSIG=
201207051300 METAR MROC 051300Z 09007KT 9999 FEW040 BKN100 21/17 A2994 NOSIG=
201207051400 METAR MROC 051400Z 10005KT 9999 FEW040 SCT100 BKN200 22/17 A2995 NOSIG=
201207051500 METAR MROC 051500Z 13003KT 9999 FEW045 BKN200 25/18 A2996 BECMG 24006KT=
201207051600 METAR MROC 051600Z 07006KT 9999 FEW035 BKN200 25/18 A2995 BECMG 24006KT=
201207051700 METAR MROC 051700Z 11007KT 9999 FEW035 BKN200 26/18 A2994 NOSIG=
201207051800 METAR MROC 051800Z 10009KT 9999 FEW035 SCT100 BKN200 24/17 A2992 NOSIG=
201207051900 METAR MROC 051900Z 10009KT 9999 FEW035 SCT100 BKN200 24/17 A2992 NOSIG=
201207052000 METAR MROC 052000Z 11010KT 9999 FEW035 BKN200 25/17 A2991 NOSIG=
201207052100 METAR MROC 052100Z 10007KT 9999 FEW030 SCT120 BKN200 24/15 A2990 NOSIG=
201207052200 METAR MROC 052200Z 12007KT 9999 FEW030 SCT120 BKN200 24/16 A2991 NOSIG=
201207052300 METAR MROC 052300Z 08007KT 9999 FEW030 SCT120 BKN200 23/16 A2993 NOSIG=
201207060000 METAR MROC 060000Z 09007KT 9999 FEW030 SCT120 BKN200 22/16 A2995 NOSIG=
201207060100 METAR MROC 060100Z 10005KT CAVOK 22/16 A2997 NOSIG=
201207060200 METAR MROC 060200Z 08005KT CAVOK 21/16 A2999 NOSIG=
201207060300 METAR MROC 060300Z 11010KT CAVOK 22/16 A2999 NOSIG=
201207060400 METAR MROC 060400Z 11009KT CAVOK 21/15 A2998 NOSIG=
201207060500 METAR MROC 060500Z 06007KT CAVOK 21/15 A2996 NOSIG=
201207060600 METAR MROC 060600Z 06008KT CAVOK 21/15 A2992 NOSIG=
201207060700 METAR MROC 060700Z 07006KT CAVOK 21/14 A2991 NOSIG=
201207060800 METAR MROC 060800Z 08008KT CAVOK 21/14 A2993 NOSIG=
201207060900 METAR MROC 060900Z 08005KT CAVOK 20/15 A2992 NOSIG=
201207061000 METAR MROC 061000Z 11009KT CAVOK 20/15 A2989 NOSIG=
201207061100 METAR MROC 061100Z 10007KT 9999 FEW030 BKN120 20/15 A2991 NOSIG=
201207061200 METAR MROC 061200Z 10003KT 9999 FEW030 BKN120 20/15 A2993 NOSIG=
201207061300 METAR MROC 061300Z 07005KT 9999 FEW030 BKN120 21/15 A2996 NOSIG=
201207061400 METAR MROC 061400Z 11006KT CAVOK 23/15 A2996 NOSIG=
201207061500 METAR MROC 061500Z 12005KT CAVOK 26/15 A2997 NOSIG=
201207061600 METAR MROC 061600Z 16006KT CAVOK 26/15 A2997 NOSIG=
201207061638 METAR MROC 061638Z 21006KT CAVOK 24/18 A2997 NOSIG=
201207061700 METAR MROC 061700Z 24008KT 9999 FEW030 BKN120 24/17 A2997 NOSIG=
201207061800 METAR MROC 061800Z 23005KT 9999 FEW030 BKN120 25/17 A2995 NOSIG=
201207061900 METAR MROC 061900Z 24005KT 9999 SCT030 BKN120 25/18 A2993 NOSIG=
201207062000 METAR MROC 062000Z 17005KT 9999 SCT030 SCT120 26/18 A2992 NOSIG=
201207062100 METAR MROC 062100Z 25007KT 9999 SCT030 SCT120 26/18 A2991 NOSIG=
201207062200 METAR MROC 062200Z 24007KT 9999 FEW015 SCT025 BKN120 24/18 A2991 NOSIG=
201207062300 METAR MROC 062300Z 22006KT 9999 FEW015 SCT025 BKN120 23/20 A2992 BECMG -RA=
201207070000 METAR MROC 070000Z 23004KT 8000 VCFG FEW010 SCT020 BKN120 22/20 A2994 BECMG 5000 RA BR=
201207070100 METAR MROC 070100Z 13003KT 9999 -RA SCT030 BKN120 21/17 A2996 NOSIG=
201207070200 METAR MROC 070200Z 13004KT 9999 -RA SCT030 BKN120 21/17 A2997 NOSIG=
201207070300 METAR MROC 070300Z 28001KT 9999 BCFG FEW030 BKN120 21/17 A2998 NOSIG=
201207070400 METAR MROC 070400Z COR 29002KT 9999 2500SW BCFG FEW025 BKN120 20/18 A2999 NOSIG=
201207070500 METAR MROC 070500Z 14002KT 9999 2500SW BCFG BKN120 20/19 A2999 NOSIG=
201207070600 METAR MROC 070600Z 10001KT 9999 FEW025 BKN120 20/18 A2996 NOSIG=
201207070700 METAR MROC 070700Z 07004KT 9999 FEW025 BKN120 20/18 A2994 NOSIG=
201207070800 METAR MROC 070800Z 09005KT 9999 FEW025 BKN120 21/16 A2992 NOSIG=
201207070900 METAR MROC 070900Z 06005KT 9999 FEW025 SCT120 21/16 A2991 NOSIG=
201207071000 METAR MROC 071000Z 06003KT 9999 FEW025 20/16 A2991 NOSIG=
201207071100 METAR MROC 071100Z 08004KT 9999 FEW035 SCT120 20/16 A2992 NOSIG=
201207071200 METAR MROC 071200Z 06008KT 9999 FEW035 BKN120 21/16 A2993 NOSIG=
201207071300 METAR MROC 071300Z 06009KT CAVOK 24/17 A2994 NOSIG=
201207071400 METAR MROC 071400Z 11008KT CAVOK 25/17 A2995 NOSIG=
201207071500 METAR MROC 071500Z 10008KT CAVOK 26/17 A2995 NOSIG=
201207071600 METAR MROC 071600Z 15009KT CAVOK 27/19 A2995 BECMG 24007KT=
201207071700 METAR MROC 071700Z 25009KT 9999 FEW035 SCT300 26/19 A2996 NOSIG=
201207071800 METAR MROC 071800Z 26009KT 9999 FEW020TCU SCT030 27/20 A2995 BECMG 8000 VCSH=
201207071900 METAR MROC 071900Z 24011KT 9999 VCTS VCSH FEW015CB SCT025 26/20 A2993 BECMG 5000 TSRA=
201207072000 METAR MROC 072000Z 06009KT 9999 SHRA VCTS SCT017CB BKN030 20/18 A2994 NOSIG=
201207072100 METAR MROC 072100Z 27003KT 9999 FEW010 SCT020 BKN100 21/21 A2994 RERA NOSIG=
201207072200 METAR MROC 072200Z 00000KT 9999 VCFG FEW001 SCT025 BKN100 23/22 A2994 NOSIG=
201207072300 METAR MROC 072300Z 08002KT 9999 -DZ FEW025 BKN100 21/19 A2995 NOSIG=
201207080000 METAR MROC 080000Z 06002KT 9999 -DZ FEW030 BKN090 21/19 A2994 NOSIG=
201207080100 METAR MROC 080100Z 11009KT CAVOK 22/18 A2995 NOSIG=
201207080200 METAR MROC 080200Z 12010KT CAVOK 22/17 A2998 NOSIG=
201207080300 METAR MROC 080300Z 05007KT CAVOK 22/17 A2996 NOSIG=
201207080400 METAR MROC 080400Z 06003KT CAVOK 21/18 A2996 NOSIG=
201207080500 METAR MROC 080500Z 05007KT CAVOK 21/17 A2994 NOSIG=
201207080600 METAR MROC 080600Z 12009KT CAVOK 22/17 A2993 NOSIG=
201207080700 METAR MROC 080700Z 11008KT CAVOK 22/17 A2993 NOSIG=
201207080800 METAR MROC 080800Z 10006KT CAVOK 21/17 A2990 NOSIG=
201207080900 METAR MROC 080900Z 15007KT CAVOK 21/16 A2991 NOSIG=
201207081000 METAR MROC 081000Z 07006KT CAVOK 19/16 A2991 NOSIG=
201207081100 METAR MROC 081100Z 03003KT CAVOK 20/16 A2991 NOSIG=
201207081200 METAR MROC 081200Z 13004KT CAVOK 19/16 A2994 NOSIG=
201207081300 METAR MROC 081300Z 00000KT CAVOK 23/18 A2997 A2998 BECMG 22005KT=
201207081400 METAR MROC 081400Z 00000KT CAVOK 24/18 A2998 BECMG 22006KT=
201207081500 METAR MROC 081500Z 00000KT 9999 FEW030 BKN250 24/19 A2999 NOSIG=
201207081600 METAR MROC 081600Z 25005KT 9999 FEW030 BKN250 25/20 A3000 NOSIG=
201207081700 METAR MROC 081700Z 26005KT 9999 SCT030 BKN250 25/19 A2999 NOSIG=
201207081800 METAR MROC 081800Z 21003KT 9999 VCSH SCT015TCU SCT030 26/19 A2997 NOSIG=
201207081900 METAR MROC 081900Z 22003KT 9999 FEW030 BKN250 27/20 A2994 NOSIG=
201207082000 METAR MROC 082000Z 23005KT 9999 FEW015TCU SCT025 SCT250 26/20 A2993 NOSIG=
201207082100 METAR MROC 082100Z 23007KT 9999 FEW015TCU SCT025 BKN100 25/21 A2992=
201207082200 METAR MROC 082200Z 26009KT 9999 FEW020 SCT030 BKN100 23/20 A2992=
201207082300 METAR MROC 082300Z 25005KT 8000 VCFG FEW010 SCT020 BKN030 22/20 A2994 NOSIG=
201207082349 METAR MROC 090000Z 24004KT 8000 VCFG FEW005 SCT010 BKN025 21/20 A2995 NOSIG=
201207090000 METAR MROC 090000Z 24004KT 8000 VCFG FEW005 SCT010 BKN025 21/20 A2995 NOSIG=
201207090100 METAR MROC 090100Z 31003KT 9999 SCT030 BKN100 21/20 A2998 NOSIG=
201207090200 METAR MROC 090200Z 06003KT 9999 FEW030 BKN250 21/19 A2998 NOSIG=
201207090300 METAR MROC 090300Z 09010KT 9999 FEW030 BKN130 23/17 A2997 NOSIG=
201207090400 METAR MROC 090400Z 10010KT 9999 FEW030 BKN140 23/17 A2997 NOSIG=
201207090500 METAR MROC 090500Z 11010KT 9999 FEW030 BKN140 22/17 A2997 NOSIG=
201207090600 METAR MROC 090600Z 11010KT 9999 FEW030 SCT250 22/17 A2995 NOSIG=
201207090700 METAR MROC 090700Z 11009KT 9999 FEW030 SCT150 22/17 A2994 NOSIG=
201207090800 METAR MROC 090800Z 11007KT 9999 FEW030 SCT200 22/17 A2993 NOSIG=
201207090900 METAR MROC 090900Z 09005KT 9999 FEW030 SCT250 22/17 A2992 NOSIG=
201207091000 METAR MROC 091000Z 06004KT CAVOK 21/17 A2993 NOSIG=
201207091100 METAR MROC 091100Z 05003KT CAVOK 21/17 A2993 NOSIG=
201207091200 METAR MROC 091200Z 07005KT CAVOK 21/17 A2994 NOSIG=
201207091300 METAR MROC 091300Z 11005KT CAVOK 22/17 A2994 NOSIG=
201207091400 METAR MROC 091400Z 11007KT 9999 FEW030 BKN120 23/18 A2993 NOSIG=
201207091500 METAR MROC 091500Z 09009KT 9999 FEW030 BKN120 25/17 A2994 NOSIG=
201207091600 METAR MROC 091600Z 09009KT 9999 FEW030 SCT120 BKN250 25/17 A2995 NOSIG=
201207091700 METAR MROC 091700Z 08010KT 9999 FEW030 SCT120 BKN250 29/17 A2994 NOSIG=
201207091800 METAR MROC 091800Z 09010KT 9999 SCT030 BKN120 26/17 A2993 NOSIG=
201207091900 METAR MROC 091900Z 08009KT 9999 SCT030 BKN120 25/17 A2994 NOSIG=
201207092000 METAR MROC 092000Z 10009KT 9999 SCT030 SCT120 27/17 A2991 NOSIG=
201207092100 METAR MROC 092100Z 10007KT 9999 FEW030 SCT120 26/17 A2990 NOSIG=
201207092200 METAR MROC 092200Z 10006KT 9999 FEW030 BKN250 27/15 A2989 NOSIG=
201207092300 METAR MROC 092300Z 07005KT 9999 FEW030 BKN250 25/15 A2991 NOSIG=
201207092355 METAR MROC 100000Z 10006KT 9999 FEW030 SCT120 BKN250 24/15 A2993 NOSIG=
201207100000 METAR MROC 100000Z 10006KT 9999 FEW030 SCT120 BKN250 24/15 A2993 NOSIG=
201207100100 METAR MROC 100100Z 11009KT 9999 FEW030 SCT250 23/16 A2995 NOSIG=
201207100200 METAR MROC 100200Z 12006KT 9999 FEW030 SCT120 22/16 A2997 NOSIG=
201207100300 METAR MROC 100300Z 11006KT CAVOK 22/16 A3001 NOSIG=
201207100400 METAR MROC 100400Z 11007KT CAVOK 22/16 A3001 NOSIG=
201207100500 METAR MROC 100500Z 11007KT CAVOK 21/16 A3001 NOSIG=
201207100600 METAR MROC 100600Z 04005KT CAVOK 20/15 A2994 NOSIG=
201207100700 METAR MROC 100700Z 09004KT CAVOK 21/15 A2993 NOSIG=
201207100800 METAR MROC 100800Z 10007KT CAVOK 21/15 A2991 NOSIG=
201207100900 METAR MROC 100900Z 13012KT CAVOK 22/17 A2992 NOSIG=
201207101000 METAR MROC 101000Z 12008KT CAVOK 22/17 A2992 NOSIG=
201207101100 METAR MROC 101100Z 14007KT CAVOK 21/17 A2995 NOSIG=
201207101200 METAR MROC 101200Z 05006KT 9999 FEW030 SCT100 21/16 A2997 NOSIG=
201207101300 METAR MROC 101300Z 05006KT 9999 FEW040 SCT120 23/17 A2996 NOSIG=
201207101400 METAR MROC 101400Z 11004KT 9999 FEW040 SCT250 26/16 A2997 NOSIG=
201207101500 METAR MROC 101500Z 12009KT 9999 FEW040 SCT120 28/17 A2998 NOSIG=
201207101600 METAR MROC 101600Z 11006KT 9999 FEW040 BKN120 27/16 A2999 NOSIG=
201207101700 METAR MROC 101700Z 15004KT 9999 FEW040 SCT120 29/16 A2997 BECMG 24008KT=
201207101800 METAR MROC 101800Z 24011KT 9999 FEW025 SCT040 26/20 A2995 BECMG SHRA=
201207101900 METAR MROC 101900Z 20004KT 3000 -TSRA BR FEW010CB SCT015 BKN025 21/19 A2996 BECMG 7000 RA=
201207102000 METAR MROC 102000Z 31005KT 9999 VCSH FEW010 SCT020 BKN100 22/20 A2995 NOSIG=
201207102100 METAR MROC 102100Z 23003KT 9999 FEW010 SCT020 OVC100 21/20 A2994 RERA BECMG RA=
201207102200 METAR MROC 102200Z 30005KT 9999 FEW005 SCT020 OVC100 21/19 A2993 BECMG RA=
201207102300 METAR MROC 102300Z 05002KT 9999 3000E FEW001 SCT020 OVC100 21/19 A2995 BECMG RA=
201207110000 METAR MROC 110000Z 00000KT 9999 3000E FEW001 SCT020 BKN100 21/19 A2995 BECMG 5000 BR=
201207110100 METAR MROC 110100Z 07004KT 9999 FEW030 BKN100 21/19 A2997 NOSIG=
201207110200 METAR MROC 110200Z 07003KT CAVOK 21/18 A2997 NOSIG=
201207110300 METAR MROC 110300Z 08004KT CAVOK 22/17 A2997 NOSIG=
201207110400 METAR MROC 110400Z 30003KT CAVOK 22/17 A2999 NOSIG=
201207110500 METAR MROC 110500Z 36003KT CAVOK 20/18 A2999 NOSIG=
201207110600 METAR MROC 110600Z 05004KT CAVOK 21/17 A2998 NOSIG=
201207110700 METAR MROC 110700Z 00000KT CAVOK 20/17 A2995 NOSIG=
201207110800 METAR MROC 110800Z 04007KT CAVOK 20/17 A2994 NOSIG=
201207110900 METAR MROC 110900Z 09006KT CAVOK 21/17 A2993 NOSIG=
201207111000 METAR MROC 111000Z 09005KT CAVOK 21/17 A2993 NOSIG=
201207111100 METAR MROC NIL=
201207111200 METAR MROC 111200Z 10005KT CAVOK 21/16 A2993 NOSIG=
201207111300 METAR MROC 111300Z 11008KT CAVOK 23/17 A2995 NOSIG=
201207111400 METAR MROC 111400Z 11010KT 9999 FEW040 24/17 A2996 NOSIG=
201207111500 METAR MROC 111500Z 11011KT 9999 FEW040 SCT250 26/17 A2996 NOSIG=
201207111600 METAR MROC 111600Z 08012KT 9999 FEW040 BKN250 25/17 A3000 NOSIG=
201207111700 METAR MROC 111700Z 08008KT 9999 FEW040 BKN250 27/17 A2998 NOSIG=
201207111800 METAR MROC 111800Z 08009KT 9999 FEW040 BKN250 27/16 A2997 NOSIG=
201207111900 METAR MROC 111900Z 07011KT 9999 FEW040 BKN250 27/16 A2995 NOSIG=
201207112000 METAR MROC 112000Z 07013KT 9999 FEW040 BKN250 26/16 A2992 NOSIG=
201207112100 METAR MROC 112100Z 09009KT 9999 FEW035 BKN250 26/16 A2991 NOSIG=
201207112200 METAR MROC 112200Z 09007KT 9999 FEW035 BKN150 26/15 A2991 A2991 NOSIG=
201207112300 METAR MROC 112300Z 06010KT 9999 FEW035 BKN150 25/15 A2991 NOSIG=
201207120000 METAR MROC 120000Z 00000KT 9999 FEW035 BKN150 23/20 A2994 NOSIG=
201207120100 METAR MROC 120100Z 00000KT 9999 FEW035 BKN250 22/20 A2997 NOSIG=
201207120200 METAR MROC 120200Z 09004KT 9999 FEW035 BKN250 22/17 A2998 NOSIG=
201207120300 METAR MROC 120300Z 09007KT 9999 FEW035 SCT100 22/17 A2998 NOSIG=
201207120400 METAR MROC 120400Z 10007KT 9999 FEW035 22/17 A2999 NOSIG=
201207120500 METAR MROC 120500Z 11006KT 9999 FEW035 21/16 A2999 NOSIG=
201207120600 METAR MROC 120600Z 10007KT 9999 FEW035 22/16 A2998 NOSIG=
201207120700 METAR MROC 120700Z 11006KT 9999 FEW035 SCT120 21/16 A2996 NOSIG=
201207120800 METAR MROC 120800Z 11008KT 9999 FEW035 SCT120 21/16 A2994 NOSIG=
201207120900 METAR MROC 120900Z 12008KT CAVOK 21/16 A2994 NOSIG=
201207121000 METAR MROC 121000Z 10004KT CAVOK 21/16 A2995 NOSIG=
201207121100 METAR MROC 121100Z 06005KT 9999 FEW040 SCT120 21/16 A2995 NOSIG=
201207121200 METAR MROC 121200Z 03004KT 9999 FEW040 SCT120 21/16 A2994 NOSIG=
201207121300 METAR MROC 121300Z 10003KT 9999 FEW035 SCT120 23/16 A2996 NOSIG=
201207121400 METAR MROC 121400Z 12011KT 9999 FEW035 SCT250 25/17 A2999 NOSIG=
201207121500 METAR MROC 121500Z 09008KT 9999 FEW035 SCT120 26/15 A2999 NOSIG=
201207121600 METAR MROC 121600Z 12008KT 9999 FEW035 SCT120 27/15 A2999 NOSIG=
201207121700 METAR MROC 121700Z 13008KT 9999 FEW030 SCT120 27/16 A2999 NOSIG=
201207121800 METAR MROC 121800Z 16006KT 9999 FEW035 BKN120 27/16 A2998 NOSIG=
201207121900 METAR MROC 121900Z 20004KT 9999 FEW035 BKN120 27/19 A2996 NOSIG=
201207122000 METAR MROC 122000Z 14005KT 9999 FEW030 BKN120 28/14 A2994 NOSIG=
201207122100 METAR MROC 122100Z 23007KT 9999 FEW030 SCT140 28/19 A2992 NOSIG=
201207122200 METAR MROC 122200Z 24010KT 9999 FEW025TCU SCT130 BKN250 27/22 A2994 NOSIG=
201207122300 METAR MROC 122300Z 25008KT 9999 SCT020 BKN120 23/20 A2995 NOSIG=
201207130000 METAR MROC 130000Z 24006KT 0800 -TSRA FG SCT003 BKN006 FEW012CB 21/19 A2999 BECMG 4000 -RA BR=
201207130100 METAR MROC 130100Z 28003KT 9999 -RA SCT015 BKN080 20/19 A3001 NOSIG=
201207130200 METAR MROC 130200Z 00000KT 9999 FEW007 SCT020 BKN090 20/19 A3001 NOSIG=
201207130300 METAR MROC 130300Z 15002KT 9999 FEW020 BKN100 21/19 A3004 NOSIG=
201207130400 METAR MROC 130400Z 00000KT 9999 FEW020 BKN100 21/19 A3004 NOSIG=
201207130500 METAR MROC 130500Z 06002KT 9999 FEW020 BKN100 20/19 A3002 NOSIG=
201207130600 METAR MROC 130600Z 08003KT 9999 FEW030 BKN100 20/19 A3001 NOSIG=
201207130700 METAR MROC 130700Z 08005KT CAVOK 20/18 A2996 NOSIG=
201207130800 METAR MROC 130800Z 11003KT CAVOK 20/18 A2995 NOSIG=
201207130900 METAR MROC 130900Z 07008KT CAVOK 21/17 A2997 NOSIG=
201207131000 METAR MROC 131000Z 06005KT CAVOK 21/17 A2997 NOSIG=
201207131100 METAR MROC 131100Z 05003KT CAVOK 20/17 A2996 NOSIG=
201207131200 METAR MROC 131200Z 06005KT CAVOK 20/17 A2998 NOSIG=
201207131300 METAR MROC 131300Z 04003KT CAVOK 23/17 A2999 NOSIG=
201207131400 METAR MROC 131400Z 08009KT CAVOK 24/17 A2999 NOSIG=
201207131500 METAR MROC 131500Z 11009KT 9999 FEW035 BKN250 24/17 A3000 NOSIG=
201207131600 METAR MROC 131600Z 08008KT 9999 FEW035 BKN250 27/17 A3001 NOSIG=
201207131700 METAR MROC 131700Z 07011KT 9999 SCT035 SCT250 28/16 A2998 NOSIG=
201207131800 METAR MROC 131800Z 13010KT 9999 SCT030 BKN250 27/17 A2998 NOSIG=
201207131900 METAR MROC 131900Z 12007KT 9999 SCT030 BKN250 27/17 A2998 NOSIG=
201207132000 METAR MROC 132000Z 22009KT 9999 SCT030 BKN100 25/21 A2996 NOSIG=
201207132100 METAR MROC 132100Z 25003KT 9999 FEW010TCU SCT030 BKN100 24/21 A2995=
201207132200 METAR MROC 132200Z 26009KT 9999 FEW008TCU SCT025 BKN100 23/21 A2995=
201207132300 METAR MROC 132300Z 23007KT 6000 VCFG SCT006 BKN015 22/20 A2996 NOSIG=
201207140000 METAR MROC 140000Z 25008KT 5000 BR SCT005 BKN010 21/20 A2997 BECMG 2000 -RA BR=
201207140100 METAR MROC 140100Z 29005KT 8000 VCFG FEW010 BKN025 22/18 A3000 BECMG 5000 BR=
201207140200 METAR MROC 140200Z 13003KT 9999 FEW010 SCT030 21/19 A3001 NOSIG=
201207140300 METAR MROC 140300Z 00000KT 9999 VCFG FEW010 BKN025 21/20 A3003 NOSIG=
201207140400 METAR MROC 140400Z 00000KT 8000 VCFG FEW010 SCT025 21/19 A3004 BECMG 5000 BR=
201207140500 METAR MROC NIL=
201207140600 METAR MROC 140600Z 10009KT CAVOK 21/16 A3000 NOSIG=
201207140700 METAR MROC 140700Z 10008KT CAVOK 22/16 A2997 NOSIG=
201207140800 METAR MROC 140800Z 09010KT CAVOK 22/16 A2998 NOSIG=
201207140900 METAR MROC 140900Z 09009KT CAVOK 22/16 A2997 NOSIG=
201207141000 METAR MROC 141000Z 10012KT CAVOK 21/15 A2997 NOSIG=
201207141100 METAR MROC 141100Z 07012KT CAVOK 21/12 A2999 NOSIG=
201207141200 METAR MROC 141200Z 10011KT CAVOK 20/14 A3000 NOSIG=
201207141300 METAR MROC 141300Z 11013KT CAVOK 21/12 A2999 NOSIG=
201207141400 METAR MROC 141400Z 11010KT CAVOK 23/12 A3000 NOSIG=
201207141500 METAR MROC 141500Z 12010KT CAVOK 27/12 A3002 NOSIG=
201207141600 METAR MROC 141600Z 12010KT CAVOK 28/12 A3000 NOSIG=
201207141700 METAR MROC 141700Z 12007KT CAVOK 29/12 A3000 NOSIG=
201207141800 METAR MROC 141800Z 17006KT 9999 FEW030 BKN250 29/16 A3000=
201207141900 METAR MROC 141900Z 24012KT 9999 SCT030 BKN250 27/19 A2999 NOSIG=
201207142000 METAR MROC 142000Z 23010KT 9999 SCT020TCU SCT250 27/20 A2998 NOSIG=
201207142100 METAR MROC 142100Z 24009KT 9999 SCT015TCU BKN025 23/21 A2996 BECMG 8000 RA=
201207142200 METAR MROC 142200Z 25010KT 3000 SHRA BR FEW002 SCT015CB BKN025 22/20 A2999 NOSIG=
201207142300 METAR MROC 142300Z 29004KT 8000 3000N RA FEW002 SCT025 BKN100 22/20 A3000 RESH NOSIG=
201207150000 METAR MROC 150000Z 22004KT 5000 -RA BR FEW005 SCT015 BKN050 21/20 A3003 NOSIG=
201207150100 METAR MROC 150100Z 30003KT 9999 -RA BCFG SCT015 BKN050 21/20 A3006 NOSIG=
201207150200 METAR COR MROC 150200Z 26001KT 9999 BCFG SCT015 BKN100 21/19 A3006 NOSIG=
201207150300 METAR MROC 150300Z 02002KT 9999 FEW025 SCT120 21/19 A3005 NOSIG=
201207150400 METAR MROC 150400Z 09004KT CAVOK 20/19 A3005 NOSIG=
201207150500 METAR MROC 150500Z 06008KT CAVOK 21/17 A3003 NOSIG=
201207150600 METAR MROC 150600Z 06006KT CAVOK 20/17 A3003 NOSIG=
201207150700 METAR MROC 150700Z 04006KT CAVOK 20/17 A3001 NOSIG=
201207150800 METAR MROC 150800Z 04004KT CAVOK 19/17 A2998 NOSIG=
201207150900 METAR MROC 150900Z 06005KT CAVOK 21/19 A2999 NOSIG=
201207151000 METAR MROC 151000Z 08005KT CAVOK 20/19 A3000 NOSIG=
201207151100 METAR MROC 151100Z 07008KT CAVOK 20/18 A3001 NOSIG=
201207151200 METAR MROC 151200Z 06005KT CAVOK 19/16 A3002 NOSIG=
201207151300 METAR MROC 151300Z 09005KT 9999 FEW030 BKN100 21/17 A3004 NOSIG=
201207151400 METAR MROC 151400Z 09006KT 9999 -DZ FEW030 BKN100 21/17 A3006 NOSIG=
201207151500 METAR MROC 151500Z 12008KT 9999 FEW030 SCT100 BKN200 22/18 A3005 NOSIG=
201207151600 METAR MROC 151600Z 07004KT 9999 FEW030 SCT100 BKN200 24/18 A3006 NOSIG=
201207151700 METAR MROC 151700Z 10003KT 9999 FEW030 SCT100 BKN200 25/18 A3004 BECMG 24006KT=
201207151800 METAR MROC 151800Z 11007KT 9999 FEW030 BKN200 25/17 A3002 NOSIG=
201207151900 METAR MROC 151900Z 10003KT 9999 FEW030 BKN200 27/17 A2999 NOSIG=
201207152000 METAR MROC 152000Z 10008KT 9999 FEW030 BKN200 26/17 A2996 NOSIG=
201207152100 METAR MROC 152100Z 10006KT 9999 FEW030 BKN200 26/17 A2996 NOSIG=
201207152200 METAR MROC 152200Z 12006KT 9999 SCT030 BKN200 26/17 A2996 NOSIG=
201207152300 METAR MROC 152300Z 13006KT 9999 SCT030 SCT130 25/17 A2997 NOSIG=
201207160000 METAR MROC 160000Z 12005KT 9999 SCT030 SCT130 24/17 A3000 NOSIG=
201207160100 METAR MROC 160100Z 18005KT 9999 FEW030 SCT130 22/20 A3001 BECMG 24007KT=
201207160200 METAR MROC 160200Z 16004KT 9999 FEW020 SCT130 22/17 A3002 BECMG 24007KT=
201207160300 METAR MROC 160300Z 08004KT 9999 FEW030 22/17 A3002 NOSIG=
201207160400 METAR MROC 160400Z 08012KT 9999 FEW030 24/16 A3002 NOSIG=
201207160500 METAR MROC 160500Z 12008KT 9999 FEW030 23/16 A3001 NOSIG=
201207160600 METAR MROC 160600Z 06006KT 9999 FEW030 22/16 A2999 NOSIG=
201207160700 METAR MROC 160700Z 07005KT 9999 FEW030 21/16 A2998 NOSIG=
201207160800 METAR MROC 160800Z 24003KT 9999 3000W BR SCT002 19/17 A2997 BECMG 2000 BR=
201207160900 METAR MROC 160900Z 03002KT 5000 BR SCT001 BKN010 20/18 A2997 NOSIG=
201207161000 METAR MROC 161000Z 08003KT 9999 VCFG FEW002 BKN120 20/18 A2998 NOSIG=
201207161100 METAR MROC 161100Z 07004KT CAVOK 19/16 A2998 NOSIG=
201207161200 METAR MROC 161200Z 07004KT 9999 FEW020 SCT250 19/16 A3000 NOSIG=
201207161253 METAR MROC 121300Z 06004KT 9999 FEW035 SCT250 22/17 A3002 NOSIG=
201207161300 METAR MROC 161300Z 06004KT 9999 FEW035 SCT250 22/17 A3002 NOSIG=
201207161400 METAR MROC 161400Z 10006KT 9999 FEW035 24/17 A3002 NOSIG=
201207161500 METAR MROC 161500Z 12007KT 9999 FEW035 SCT250 26/17 A3002 NOSIG=
201207161600 METAR MROC 161600Z 10007KT 9999 FEW045 SCT120 SCT250 28/17 A3001 NOSIG=
201207161700 METAR MROC 161700Z 07009KT 9999 FEW030 SCT120 SCT250 29/18 A3001 NOSIG=
201207161800 METAR MROC 161800Z 06012KT 9999 FEW040 SCT120 BKN250 28/17 A2999 NOSIG=
201207161900 METAR MROC 161900Z 11006KT 9999 SCT040 SCT250 29/17 A2997 NOSIG=
201207162000 METAR MROC 162000Z 10004KT 9999 SCT040 SCT250 28/16 A2997 NOSIG=
201207162100 METAR MROC 162100Z 24005KT 9999 FEW020TCU SCT035 26/21 A2994 BECMG 8000 -RA=
201207162200 METAR MROC 162200Z 25007KT 9999 FEW020TCU SCT035 24/21 A2995 NOSIG=
201207162300 METAR MROC 162300Z 20003KT 9999 FEW020 BKN250 25/21 A2995 NOSIG=
201207170000 METAR MROC 170000Z 25004KT 9999 FEW020 BKN250 22/20 A2996 NOSIG=
201207170100 METAR MROC 170100Z 23002KT 9999 FEW035 BKN250 21/20 A2999 NOSIG=
201207170200 METAR MROC 170200Z 08003KT 9999 FEW035 BKN250 22/19 A3000 NOSIG=
201207170300 METAR MROC 170300Z 11005KT 9999 FEW035 22/19 A3000 NOSIG=
201207170400 METAR MROC 170400Z 10004KT 9999 FEW035 21/17 A2999 NOSIG=
201207170500 METAR MROC 170500Z 10007KT 9999 FEW035 22/16 A2997 NOSIG=
201207170600 METAR MROC 170600Z 10009KT 9999 FEW035 22/16 A2996 NOSIG=
201207170700 METAR MROC 170700Z 08009KT 9999 FEW035 22/15 A2996 NOSIG=
201207170800 METAR MROC 170800Z 12004KT 9999 FEW035 21/16 A2995 NOSIG=
201207170900 METAR MROC 170900Z 09007KT 9999 FEW035 21/16 A2993 NOSIG=
201207171000 METAR MROC 171000Z 10007KT CAVOK 21/16 A2993 NOSIG=
201207171100 METAR MROC 171100Z 12007KT CAVOK 21/15 A2994 NOSIG=
201207171200 METAR MROC 171200Z 11008KT 9999 FEW040 BKN250 21/15 A2996 NOSIG=
201207171300 METAR MROC 171300Z 12011KT CAVOK 23/16 A2997 NOSIG=
201207171400 METAR MROC 171400Z 09007KT CAVOK 25/15 A2997 NOSIG=
201207171500 METAR MROC 171500Z 08011KT CAVOK 26/15 A2998 NOSIG=
201207171600 METAR MROC 171600Z 09010KT CAVOK 27/14 A2999 NOSIG=
201207171700 METAR MROC 171700Z 08011KT CAVOK 28/15 A2998 NOSIG=
201207171800 METAR MROC 171800Z 11006KT CAVOK 29/14 A2998 BECMG 24006KT=
201207171900 METAR MROC 171900Z 11005KT CAVOK 30/15 A2996 NOSIG=
201207172000 METAR MROC 172000Z 16003KT 9999 FEW040 SCT300 30/14 A2993 BECMG 24006KT=
201207172100 METAR MROC 172100Z 23004KT 9999 FEW030 SCT260 30/22 A2992 NOSIG=
201207172200 METAR MROC 172200Z 23009KT 9999 FEW030TCU BKN250 28/22 A2991 NOSIG=
201207172300 METAR MROC 172300Z 26006KT 9999 VCTS VCSH SCT020CB SCT250 24/17 A2993 NOSIG=
201207180000 METAR MROC 180000Z 10005KT 9999 SCT025 SCT250 24/17 A2997 NOSIG=
201207180100 METAR MROC 180100Z 08003KT CAVOK 23/17 A2998 NOSIG=
201207180200 METAR MROC 180200Z 09005KT CAVOK 23/16 A3000 NOSIG=
201207180300 METAR MROC 180300Z 07004KT CAVOK 22/17 A3002 NOSIG=
201207180400 METAR MROC 180400Z 13004KT CAVOK 22/17 A2997 NOSIG=
201207180500 METAR MROC 180500Z 09004KT CAVOK 22/17 A2995 NOSIG=
201207180600 METAR MROC 180600Z 08006KT CAVOK 23/16 A2995 NOSIG=
201207180700 METAR MROC 180700Z 06005KT CAVOK 22/16 A2995 NOSIG=
201207180800 METAR MROC 180800Z 09004KT CAVOK 21/17 A2994 NOSIG=
201207180900 METAR MROC 180900Z 05004KT CAVOK 20/16 A2994 NOSIG=
201207181000 METAR MROC 181000Z 06006KT CAVOK 21/16 A2995 NOSIG=
201207181100 METAR MROC 181100Z 05007KT CAVOK 21/16 A2993 NOSIG=
201207181200 METAR MROC 181200Z 02006KT CAVOK 20/16 A2995 NOSIG=
201207181300 METAR MROC 181300Z 08004KT CAVOK 23/17 A2999 NOSIG=
201207181400 METAR MROC 181400Z 12005KT CAVOK 26/18 A3001 NOSIG=
201207181500 METAR MROC 181500Z 12006KT CAVOK 27/18 A3001 BECMG 22006KT=
201207181600 METAR MROC 181600Z 23006KT 9999 FEW035 BKN250 29/17 A3002 NOSIG=
201207181700 METAR MROC 181700Z 24009KT 9999 FEW035 BKN250 27/19 A3000 NOSIG=
201207181800 METAR MROC 181800Z 26007KT 9999 SCT030TCU SCT250 27/20 A2998 NOSIG=
201207181900 METAR MROC 181900Z 25006KT 9999 2000S -TSRA SCT012CB BKN020 27/20 A2997 BECMG 5000 TSRA=
201207182000 METAR MROC 182000Z 09003KT 9999 SCT025 BKN250 21/19 A2997 RETSRA NOSIG=
201207182100 METAR MROC 182100Z 28005KT 9999 SCT030 BKN120 23/19 A2997 NOSIG=
201207182200 METAR MROC 182200Z 23005KT 9999 FEW015 BKN100 24/19 A2993 NOSIG=
201207182300 METAR MROC 182300Z 17003KT 9999 FEW020 BKN100 24/20 A2992 NOSIG=
201207190000 METAR MROC 190000Z 19004KT 9999 FEW002 SCT030 BKN140 24/19 A2994 BECMG 5000 BR=
201207190100 METAR MROC 190100Z 08011KT 9999 FEW030 SCT140 24/14 A2996 NOSIG=
201207190200 METAR MROC 190200Z 08010KT CAVOK 23/14 A2998 NOSIG=
201207190300 METAR MROC 190300Z 08010KT CAVOK 22/15 A2999 NOSIG=
201207190400 METAR MROC 190400Z 11008KT CAVOK 22/15 A3000 NOSIG=
201207190500 METAR MROC 190500Z 04004KT CAVOK 21/15 A3000 NOSIG=
201207190600 METAR MROC 190600Z 04005KT CAVOK 21/15 A2999 NOSIG=
201207190700 METAR MROC 190700Z 06008KT CAVOK 20/16 A2997 NOSIG=
201207190800 METAR MROC 190800Z 11002KT CAVOK 20/16 A2998 NOSIG=
201207190900 METAR MROC 190900Z 06003KT CAVOK 20/15 A2996 NOSIG=
201207191000 METAR MROC 191000Z 06004KT CAVOK 20/16 A2997 NOSIG=
201207191100 METAR MROC 191100Z 04004KT CAVOK 20/16 A2997 NOSIG=
201207191200 METAR MROC 191200Z 09004KT CAVOK 20/16 A2998 NOSIG=
201207191300 METAR MROC 191300Z 06004KT 9999 FEW030 BKN080 22/16 A2999 NOSIG=
201207191400 METAR MROC 191400Z 08004KT 9999 FEW030 BKN080 23/18 A3001 NOSIG=
201207191500 METAR MROC 191500Z 11008KT 9999 FEW030 BKN080 24/17 A3001 NOSIG=
201207191600 METAR MROC 191600Z 09006KT 9999 FEW030 BKN080 25/17 A3000 NOSIG=
201207191700 METAR MROC 191700Z 11012KT 9999 FEW030 BKN080 24/16 A3001 NOSIG=
201207191800 METAR MROC 191800Z 08009KT 9999 FEW030 BKN080 25/16 A3000 NOSIG=
201207191900 METAR MROC 191900Z 11012KT 9999 FEW035 BKN100 25/17 A2997 NOSIG=
201207192000 METAR MROC 192000Z 09012KT 9999 FEW035 BKN110 27/16 A2996 NOSIG=
201207192100 METAR MROC 192100Z 08011KT 9999 FEW035 BKN120 26/16 A2996 NOSIG=
201207192200 METAR MROC 192200Z 09010KT 9999 FEW035 SCT120 BKN200 25/17 A2994 NOSIG=
201207192300 METAR MROC 192300Z 09010KT 9999 FEW035 SCT120 BKN250 24/17 A2993 NOSIG=
201207192353 METAR MROC 200000Z 11008KT 9999 FEW030 SCT100 SCT250 23/17 A2994 NOSIG=
201207200000 METAR MROC 200000Z 11008KT 9999 FEW030 SCT100 SCT250 23/17 A2994 NOSIG=
201207200100 METAR MROC 200100Z 11008KT 9999 FEW030 SCT100 23/17 A2997 NOSIG=
201207200200 METAR MROC 200200Z 09005KT 9999 FEW030 SCT100 23/16 A2998 NOSIG=
201207200300 METAR MROC 200300Z 12007KT 9999 FEW035 SCT120 22/16 A3000 NOSIG=
201207200400 METAR MROC 200400Z 12008KT 9999 FEW035 SCT120 22/17 A3002 NOSIG=
201207200500 METAR MROC 200500Z 10005KT 9999 FEW035 SCT120 22/17 A3000 NOSIG=
201207200600 METAR MROC 200600Z 11004KT 9999 FEW035 SCT120 22/17 A2999 NOSIG=
201207200700 METAR MROC 200700Z 07004KT 9999 FEW035 22/17 A2997 NOSIG=
201207200800 METAR MROC 200800Z 10004KT CAVOK 22/16 A2996 NOSIG=
201207200900 METAR MROC 200900Z 00000KT CAVOK 22/17 A2995 NOSIG=
201207201000 METAR MROC 201000Z 10005KT CAVOK 22/19 A2996 NOSIG=
201207201100 METAR MROC 201100Z 08006KT CAVOK 22/18 A2995 NOSIG=
201207201200 METAR MROC 201200Z 06004KT CAVOK 22/17 A2995 NOSIG=
201207201300 METAR MROC 201300Z 10002KT 9999 FEW040 SCT120 BKN250 24/18 A2997 NOSIG=
201207201400 METAR MROC 201400Z 06007KT 9999 FEW030 SCT120 BKN250 25/18 A2999 NOSIG=
201207201500 MROC 201500Z 10009KT 9999 FEW030 SCT120 BKN250 25/18 A2999 NOSIG=
201207201600 METAR MROC 201600Z 07007KT 9999 FEW030 SCT120 BKN250 28/16 A3000 NOSIG=
201207201700 METAR MROC 201700Z 06011KT 9999 FEW040 SCT150 BKN200 27/16 A2999 NOSIG=
201207201800 METAR MROC 201800Z 06009KT 9999 FEW030 SCT100 BKN200 27/16 A2997 NOSIG=
201207201900 METAR MROC 201900Z 07007KT 9999 FEW030 SCT120 BKN200 27/17 A2995 NOSIG=
201207202000 METAR MROC 202000Z 13006KT 9999 FEW015 SCT025TCU BKN100 26/16 A2995 BECMG 24006KT=
201207202100 METAR MROC 202100Z 13006KT 9999 FEW010 SCT025 BKN100 26/17 A2993 BECMG 24006KT=
201207202200 METAR MROC 202200Z 11006KT 9999 FEW010 SCT025 BKN100 26/16 A2993 NOSIG=
201207202300 METAR MROC 202300Z 25008KT 9999 3000SW FEW001 SCT025 BKN100 23/21 A2994 BECMG 5000 BR=
201207210000 METAR MROC 210000Z 22002KT 9999 3000SW DZ FEW001 SCT020 BKN100 22/21 A2996 NOSIG=
201207210100 METAR MROC 210100Z 23005KT 9999 3000SW -DZ FEW001 SCT020 BKN100 22/20 A2998 BECMG 5000 BR=
201207210200 METAR MROC NIL=
201207210300 METAR MROC 210300Z 06004KT 9999 FEW020 BKN100 22/19 A3001 NOSIG=
201207210400 METAR MROC 210400Z 12006KT 9999 FEW020 BKN100 22/18 A3001 NOSIG=
201207210500 METAR MROC 210500Z 07005KT 9999 FEW025 SCT100 21/17 A3001 NOSIG=
201207210600 METAR MROC 210600Z 10004KT 9999 FEW025 SCT100 21/17 A2998 NOSIG=
201207210700 METAR MROC 210700Z 11004KT 9999 FEW030 SCT100 21/17 A2998 NOSIG=
201207210800 METAR MROC 210800Z 02005KT 9999 FEW030 SCT100 20/17 A2997 NOSIG=
201207210900 METAR MROC 210900Z 03005KT CAVOK 20/17 A2997 NOSIG=
201207211000 METAR MROC 211000Z 08004KT CAVOK 20/17 A2996 NOSIG=
201207211100 METAR MROC 211100Z 22004KT CAVOK 19/17 A2996 NOSIG=
201207211200 METAR MROC 211200Z 03005KT CAVOK 20/17 A2998 NOSIG=
201207211300 METAR MROC 211300Z 09003KT CAVOK 21/17 A2999 NOSIG=
201207211400 METAR MROC 211400Z 00000KT CAVOK 23/17 A2997 NOSIG=
201207211500 METAR MROC 211500Z 11002KT CAVOK 24/17 A2997 NOSIG=
201207211600 METAR MROC 211600Z 11006KT CAVOK 24/16 A2999 NOSIG=
201207211700 METAR MROC 211700Z 11007KT 9999 FEW040 SCT120 BKN250 25/16 A3000 NOSIG=
201207211800 METAR MROC 211800Z 09008KT 9999 FEW040 SCT120 BKN250 27/16 A2999 NOSIG=
201207211900 METAR MROC 211900Z 12006KT 9999 FEW040 SCT120 BKN250 28/16 A2996 NOSIG=
201207212000 METAR MROC 212000Z 25008KT 9999 SCT030 SCT250 25/19 A2995 NOSIG=
201207212100 METAR MROC 212100Z 24008KT 9999 FEW025 SCT035 BKN250 24/19 A2993 NOSIG=
201207212200 METAR MROC 212200Z 26004KT 9999 -RA FEW020 SCT035 BKN120 24/19 A2993 NOSIG=
201207212300 METAR MROC 212300Z 23003KT 9999 FEW020 SCT035 BKN120 23/20 A2994 NOSIG=
201207220000 METAR MROC 220000Z 23003KT 9999 FEW015 SCT035 BKN120 23/20 A2995 NOSIG=
201207220100 METAR MROC 220100Z 24004KT 9999 FEW015 SCT035 BKN120 22/19 A2996 NOSIG=
201207220200 METAR MROC 220200Z 33003KT 9999 FEW035 SCT120 BKN250 21/19 A2997 NOSIG=
201207220300 METAR MROC 220300Z 08003KT 9999 FEW035 SCT120 BKN250 22/18 A2998 NOSIG=
201207220400 METAR MROC 220400Z 29002KT 9999 FEW035 SCT120 BKN250 22/19 A2999 NOSIG=
201207220500 METAR MROC 220500Z 07003KT 9999 FEW035 SCT120 BKN250 22/18 A2998 NOSIG=
201207220600 METAR MROC 220600Z 06003KT 9999 FEW035 SCT120 BKN250 22/17 A2998 NOSIG=
201207220700 METAR MROC 220700Z 05003KT 9999 FEW035 SCT120 BKN250 22/17 A2996 NOSIG=
201207220800 METAR MROC 220800Z 25004KT 9999 BCFG FEW035 SCT120 SCT250 20/18 A2995 NOSIG=
201207220900 METAR MROC 220900Z 02002KT 0500 FG VV/// 20/19 A2995 BECMG 9999=
201207221000 METAR MROC 221000Z 13002KT 9999 BCFG FEW035 SCT120 SCT250 19/18 A2996 NOSIG=
201207221100 METAR MROC 221100Z 26001KT 0100 FG VV/// 20/19 A2998 BECMG 5000 BR=
201207221200 METAR MROC 221200Z 11001KT 9999 0500SW FEW010 SCT040 BKN120 19/18 A2998 NOSIG=
201207221300 METAR MROC 221300Z 22003KT 9999 FEW010 SCT140 BKN250 21/19 A3001 NOSIG=
201207221400 METAR MROC 221400Z 09004KT 9999 FEW030 SCT140 BKN250 25/18 A3001 NOSIG=
201207221500 METAR MROC 221500Z 12006KT 9999 FEW030 SCT140 BKN250 26/17 A3003 NOSIG=
201207221600 METAR MROC 221600Z 11005KT 9999 FEW030 SCT140 BKN250 27/17 A3002 NOSIG=
201207221700 METAR MROC 221700Z 14005KT 9999 FEW030 SCT140 BKN250 28/17 A3002 BECMG 24006KT=
201207221800 METAR MROC 221800Z 24007KT 9999 FEW025 SCT050 BKN140 26/20 A3000 NOSIG=
201207221900 METAR MROC 221900Z 23008KT 9999 FEW025 SCT050 BKN140 25/20 A2999 NOSIG=
201207222000 METAR MROC 222000Z 26007KT 9999 SCT020 SCT050 25/21 A2996 NOSIG=
201207222100 METAR MROC 222100Z 24006KT 9999 SCT025 BKN080 25/23 A2996 NOSIG=
201207222200 METAR MROC 222200Z 25008KT 8000 VCFG FEW005 SCT015 BKN030 24/23 A2996 BECMG 5000 BR SCT001=
201207222300 METAR MROC 222300Z 25006KT 4000 1800SW BR SCT002 BKN006 22/21 A2998 BECMG 0800 FG=
201207230000 METAR MROC 230000Z 22003KT 8000 VCFG SCT006 BKN025 22/20 A3002 NOSIG=
201207230100 METAR MROC 230100Z 21003KT 8000 VCFG FEW005 SCT025 BKN150 22/20 A3006 NOSIG=
201207230200 METAR MROC 230200Z 26004KT 9999 4000SW VCFG FEW001 SCT020 BKN120 22/20 A3006 BECMG 3000 BR BKN010=
201207230300 METAR MROC NIL=
201207230400 METAR MROC 230400Z 06004KT 9999 FEW030 BKN120 21/20 A3004 NOSIG=
201207230500 METAR MROC 230500Z 07007KT CAVOK 21/18 A3003 NOSIG=
201207230600 METAR MROC 230600Z 09007KT CAVOK 22/17 A3001 NOSIG=
201207230700 METAR MROC 230700Z 05006KT CAVOK 22/17 A3001 NOSIG=
201207230800 METAR MROC 230800Z 05008KT CAVOK 22/18 A2999 NOSIG=
201207230900 METAR MROC 230900Z 05004KT CAVOK 21/17 A3000 NOSIG=
201207231000 METAR MROC 231000Z 05003KT CAVOK 22/17 A2999 NOSIG=
201207231100 METAR MROC 231100Z 08005KT 9999 FEW020 SCT250 21/17 A3000 NOSIG=
201207231200 METAR MROC 231200Z 08009KT CAVOK 22/17 A2999 NOSIG=
201207231300 METAR MROC 231300Z 11011KT CAVOK 23/19 A3003 NOSIG=
201207231400 METAR MROC 231400Z 12008KT 9999 FEW030 BKN120 23/19 A3003 NOSIG=
201207231500 METAR MROC 231500Z 11010G20KT 9999 FEW030 SCT120 25/16 A3004 NOSIG=
201207231600 METAR MROC 231600Z 08012G22KT 9999 FEW035 SCT120 27/15 A3003 NOSIG=
201207231700 METAR MROC 231700Z 06011G21KT 9999 FEW035 BKN250 27/15 A3001 NOSIG=
201207231800 METAR MROC 231800Z 09009KT 9999 FEW035 SCT120 BKN250 29/16 A2999 NOSIG=
201207231900 METAR MROC 231900Z 08009KT 9999 FEW035 SCT120 BKN250 28/16 A2998 NOSIG=
201207232000 METAR MROC 232000Z 09008KT CAVOK 27/16 A2998 NOSIG=
201207232100 METAR MROC 232100Z 12007KT 9999 FEW035 SCT120 BKN250 27/16 A2998 NOSIG=
201207232200 METAR MROC 232200Z 14007KT 9999 FEW035 SCT120 BKN250 27/16 A2998 NOSIG=
201207232253 METAR MROC 272300Z 10008KT 9999 DZ FEW020 BKN100 23/19 A2992 NOSIG=
201207232300 METAR MROC 232300Z 12003KT 9999 FEW030 BKN250 26/16 A2999 NOSIG=
201207240000 METAR MROC 240000Z 26004KT 9999 FEW030 SCT120 BKN250 23/21 A3001 NOSIG=
201207240100 METAR MROC 240100Z 31003KT 9999 FEW030 SCT120 22/21 A3004 NOSIG=
201207240200 METAR MROC 240200Z 06006KT 9999 FEW030 SCT120 22/17 A3005 NOSIG=
201207240300 METAR MROC 240300Z 06005KT 9999 FEW030 SCT120 22/17 A3006 NOSIG=
201207240400 METAR MROC 240400Z 05005KT CAVOK 21/17 A3008 NOSIG=
201207240500 METAR MROC 240500Z 09004KT CAVOK 22/17 A3006 NOSIG=
201207240600 METAR MROC 240600Z 00000KT CAVOK 21/17 A3005 NOSIG=
201207240700 METAR MROC 240700Z 10002KT CAVOK 21/18 A3006 NOSIG=
201207240800 METAR MROC 240800Z 00000KT CAVOK 21/18 A3003 NOSIG=
201207240900 METAR MROC 240900Z 08003KT CAVOK 21/17 A3001 NOSIG=
201207241000 METAR MROC 241000Z 05005KT CAVOK 21/17 A2999 NOSIG=
201207241100 METAR MROC 241100Z 11004KT CAVOK 21/17 A2999 NOSIG=
201207241200 METAR MROC 241200Z 10012KT 9999 FEW030 SCT070 22/17 A3000 NOSIG=
201207241300 METAR MROC 241300Z 10010KT 9999 FEW030 SCT080 23/17 A3004 NOSIG=
201207241400 METAR MROC 241400Z 10010KT 9999 FEW030 SCT080 23/17 A3005 NOSIG=
201207241500 METAR MROC 241500Z 10010KT 9999 SCT030 SCT080 26/18 A3005 NOSIG=
201207241600 METAR MROC 241600Z 09010KT 9999 SCT030 SCT080 25/17 A3005 NOSIG=
201207241700 METAR MROC 241700Z 10010KT 9999 SCT030 BKN100 27/17 A3004 NOSIG=
201207241800 METAR MROC 241800Z 11010KT 9999 SCT030 BKN100 27/17 A3002 NOSIG=
201207241900 METAR MROC 241900Z 09008KT 1500 -TSRA SCT020CB BKN100 26/17 A3004 BECMG 2000 RA=
201207242000 METAR MROC 242000Z 07004KT 9999 -RA FEW020 OVC100 21/19 A3000 NOSIG=
201207242100 METAR MROC 242100Z 12004KT 9999 -RA FEW020 BKN100 21/19 A2997 NOSIG=
201207242200 METAR MROC 242200Z 07002KT 9999 FEW035 OVC100 21/18 A2994 NOSIG=
201207242300 METAR MROC 242300Z 09007KT 9999 FEW040 BKN100 22/17 A2997 NOSIG=
201207242352 METAR MROC 250000Z 05005KT 9999 FEW035 SCT100 BKN200 22/17 A2998 NOSIG=
201207250000 METAR MROC 250000Z 05005KT 9999 FEW035 SCT100 BKN200 22/17 A2998 NOSIG=
201207250100 METAR MROC 250100Z 06005KT 9999 FEW035 SCT100 BKN250 21/17 A2999 NOSIG=
201207250200 METAR MROC 250200Z 11008KT 9999 FEW035 BKN250 22/17 A3001 NOSIG=
201207250300 METAR MROC 250300Z 10006KT 9999 FEW035 BKN250 22/17 A2999 NOSIG=
201207250400 METAR MROC 250400Z 11005KT CAVOK 21/17 A3001 NOSIG=
201207250500 METAR MROC 250500Z 11008KT CAVOK 22/17 A3002 NOSIG=
201207250600 METAR MROC 250600Z 08004KT CAVOK 21/17 A2998 NOSIG=
201207250700 METAR MROC 250700Z 13004KT CAVOK 22/17 A2996 NOSIG=
201207250800 METAR MROC 250800Z 10004KT CAVOK 21/16 A2995 NOSIG=
201207250900 METAR MROC 250900Z 13010KT CAVOK 21/18 A2997 NOSIG=
201207251000 METAR MROC 251000Z 13009KT CAVOK 22/18 A2997 NOSIG=
201207251100 METAR MROC 251100Z 13010KT CAVOK 22/18 A2998 NOSIG=
201207251200 METAR MROC 251200Z 13008KT CAVOK 22/16 A2998 NOSIG=
201207251300 METAR MROC 251300Z 10006KT CAVOK 22/17 A3000 NOSIG=
201207251400 METAR MROC 251400Z 25004KT 9999 FEW030 BKN120 24/18 A3001 NOSIG=
201207251500 METAR MROC 251500Z 10009KT 9999 FEW030 BKN120 26/17 A3002 NOSIG=
201207251600 METAR MROC 251600Z 11009KT 9999 FEW030 BKN120 26/17 A3001 NOSIG=
201207251700 METAR MROC 251700Z 07010KT 9999 FEW030 SCT120 SCT200 29/17 A3001 NOSIG=
201207251800 METAR MROC 251800Z 24009KT 9999 FEW035 SCT120 SCT250 26/20 A2999 NOSIG=
201207251900 METAR MROC 251900Z 24008KT 9999 SCT030 BKN120 25/20 A2998 NOSIG=
201207252000 METAR MROC 252000Z 24006KT 9999 FEW030 SCT120 BKN250 29/19 A2995 NOSIG=
201207252100 METAR MROC 252100Z 07011KT 9999 FEW030 SCT120 BKN250 27/16 A2994 NOSIG=
201207252200 METAR MROC 252200Z 08008KT 9999 FEW030 SCT120 BKN250 27/17 A2993 NOSIG=
201207252300 METAR MROC 252300Z 08010KT 9999 FEW030 SCT120 BKN250 26/16 A2994 NOSIG=
201207260000 METAR MROC 260000Z 09010KT 9999 FEW030 BKN250 25/16 A2996 NOSIG=
201207260100 METAR MROC 260100Z 08007KT CAVOK 24/17 A2996 NOSIG=
201207260200 METAR MROC 260200Z 10007KT CAVOK 23/17 A2997 NOSIG=
201207260300 METAR MROC NIL=
201207260400 METAR MROC 260400Z 11010KT 9999 FEW030 SCT100 23/16 A2999 NOSIG=
201207260500 METAR MROC 260500Z 12010KT 9999 FEW030 SCT100 22/17 A2998 NOSIG=
201207260600 METAR MROC 260600Z 12011KT 9999 FEW030 SCT100 22/17 A2997 NOSIG=
201207260700 METAR MROC 260700Z 06006KT 9999 FEW030 SCT100 21/17 A2996 NOSIG=
201207260800 METAR MROC 260800Z 06004KT 9999 FEW030 21/17 A2995 NOSIG=
201207260900 METAR MROC 260900Z 08005KT CAVOK 21/16 A2994 NOSIG=
201207261000 METAR MROC 261000Z 05005KT CAVOK 21/16 A2995 NOSIG=
201207261100 METAR MROC 261100Z 07006KT CAVOK 21/16 A2996 NOSIG=
201207261200 METAR MROC 261200Z 09005KT CAVOK 22/17 A2995 NOSIG=
201207261300 METAR MROC 261300Z 10007KT CAVOK 24/17 A2996 NOSIG=
201207261400 METAR MROC 261400Z 10007KT CAVOK 26/16 A2996 NOSIG=
201207261500 METAR MROC 261500Z 08008KT CAVOK 28/16 A2996 NOSIG=
201207261600 METAR MROC 261600Z 08012KT 9999 FEW040 SCT250 28/16 A2997 NOSIG=
201207261700 METAR MROC 261700Z 06014KT 9999 FEW040 SCT250 29/16 A2997 NOSIG=
201207261800 METAR MROC 261800Z 08010KT 9999 SCT030 28/16 A2996 NOSIG=
201207261900 METAR MROC 261900Z 07011KT 9999 SCT030 SCT250 29/17 A2994 NOSIG=
201207262000 METAR MROC 262000Z 07010KT 9999 SCT030 SCT250 29/16 A2992 NOSIG=
201207262100 METAR MROC 262100Z 08009KT 9999 SCT030 SCT250 28/17 A2991 NOSIG=
201207262200 METAR MROC 262200Z 08008KT 9999 SCT030 SCT250 27/17 A2992 NOSIG=
201207262300 METAR MROC 262300Z 09009KT 9999 FEW030 SCT250 26/17 A2992 RMK VEL MAX VTO 17KT NOSIG=
201207270000 METAR MROC 270000Z 06011KT 9999 FEW030 SCT250 25/16 A2994 NOSIG=
201207270100 METAR MROC 270100Z 11003KT 9999 FEW030 SCT250 24/17 A2997 NOSIG=
201207270200 METAR MROC 270200Z 11007KT 9999 FEW030 SCT250 23/17 A2997 NOSIG=
201207270300 METAR MROC 270300Z 08009KT 9999 FEW030 SCT120 24/16 A2999 NOSIG=
201207270400 METAR MROC 270400Z 07009KT 9999 FEW030 24/16 A2999 NOSIG=
201207270500 METAR MROC 270500Z 08007KT 9999 FEW030 23/17 A2999 NOSIG=
201207270600 METAR MROC 270600Z 08008KT 9999 FEW030 23/17 A2997 NOSIG=
201207270700 METAR MROC 270700Z 11005KT 9999 FEW030 SCT120 22/18 A2996 NOSIG=
201207270800 METAR MROC 270800Z 07010KT 9999 FEW030 SCT120 23/17 A2993 NOSIG=
201207270900 METAR MROC 270900Z 08009KT 9999 FEW030 23/18 A2992 NOSIG=
201207271000 METAR MROC 271000Z 08008G18KT 9999 FEW030 23/18 A2992 NOSIG=
201207271100 METAR MROC 271100Z 10007KT 9999 FEW030 SCT250 23/18 A2993 NOSIG=
201207271200 METAR MROC 271200Z 09007KT 9999 FEW035 BKN250 23/17 A2995 NOSIG=
201207271300 METAR MROC 271300Z 12007KT 9999 FEW030 BKN250 25/18 A2996 NOSIG=
201207271400 METAR MROC 271400Z 08009KT 9999 FEW030 BKN250 26/17 A2998 NOSIG=
201207271500 METAR MROC 271500Z 08008KT 9999 FEW035 SCT120 BKN250 28/17 A2998 NOSIG=
201207271600 METAR MROC 271600Z 07008KT 9999 FEW035 SCT120 BKN250 28/17 A2997 NOSIG=
201207271700 METAR MROC 271700Z 07011KT 9999 FEW035 BKN120 29/17 A2996 NOSIG=
201207271800 METAR MROC 271800Z 08007KT 9999 SCT035 BKN250 29/17 A2995 NOSIG=
201207271900 METAR MROC 271900Z 07012KT 9999 SCT035 BKN250 29/17 A2992 NOSIG=
201207272000 METAR MROC 272000Z 08012KT 9999 FEW035 SCT140 BKN250 29/17 A2991 NOSIG=
201207272100 METAR MROC 272100Z 11011KT 9999 FEW030 SCT120 BKN250 27/18 A2990 NOSIG=
201207272200 METAR MROC 272200Z 11008KT 9999 FEW025 BKN120 26/17 A2991 NOSIG=
201207272300 METAR MROC 272300Z 10008KT 9999 DZ FEW020 BKN100 23/19 A2992 NOSIG=
201207272354 METAR MROC 280000Z 13012KT 9999 FEW020 BKN100 23/18 A2995 NOSIG=
201207280000 METAR MROC 280000Z 13012KT 9999 FEW020 BKN100 23/18 A2995 NOSIG=
201207280100 METAR MROC 280100Z 10007KT 9999 FEW020 BKN090 23/18 A2997 NOSIG=
201207280200 METAR MROC 280200Z 10006KT 9999 FEW020 BKN120 22/19 A2999 NOSIG=
201207280300 METAR MROC 280300Z 07004KT 9999 FEW020 BKN120 23/18 A3000 NOSIG=
201207280400 METAR MROC 280400Z 06007KT 9999 FEW020 BKN120 20/19 A3002 NOSIG=
201207280500 METAR MROC 280500Z 08004KT 9999 RA FEW020 BKN100 21/19 A3003 NOSIG=
201207280600 METAR MROC 280600Z 12006KT 9999 RA FEW020 OVC100 20/19 A3001 NOSIG=
201207280700 METAR MROC 280700Z 09002KT 5000 RA FEW020 OVC100 20/18 A2998 NOSIG=
201207280800 METAR MROC 280800Z 10005KT 9999 -RA FEW020 OVC100 20/18 A2997 NOSIG=
201207280900 METAR MROC 280900Z 05004KT 9999 FEW030 OVC100 20/18 A2997 RERA NOSIG=
201207281000 METAR MROC 281000Z 11004KT 9999 -RA FEW025 BKN100 20/18 A2997 NOSIG=
201207281100 METAR MROC 281100Z 09009KT 9999 FEW030 BKN080 20/17 A2995 NOSIG=
201207281200 METAR MROC 281200Z 10014KT 9999 FEW030 BKN080 21/15 A2996 NOSIG=
201207281300 METAR MROC 281300Z 11016G26KT CAVOK 23/17 A2996 NOSIG=
201207281400 METAR MROC 281400Z 11013KT 9999 FEW025 BKN250 23/17 A2996 NOSIG=
201207281500 METAR MROC 281500Z 12014KT 9999 FEW025 SCT090 BKN250 23/18 A2998 NOSIG=
201207281600 METAR MROC 281600Z 11012G24KT 9999 FEW025 SCT090 BKN250 25/19 A2999 NOSIG=
201207281700 METAR MROC 281700Z 09010G20KT 9999 FEW020 BKN080 23/17 A2999 BECMG RA=
201207281800 METAR MROC 281800Z 11010G20KT 9999 FEW030 OVC080 22/17 A2999 NOSIG=
201207281900 METAR MROC 281900Z 10010G20KT 9999 FEW030 BKN090 23/17 A2997 NOSIG=
201207282000 METAR MROC 282000Z 10010KT 2000 RA BR SCT002 BKN080 20/18 A2999 BECMG 9999 -RA=
201207282100 METAR MROC 282100Z 07006KT 9999 RA SCT030 OVC100 21/18 A2996 NOSIG=
201207282200 METAR MROC 282200Z 12004KT 9999 -RA SCT030 OVC100 21/18 A2998 NOSIG=
201207282300 METAR MROC 282300Z 08005KT 9999 -RA SCT025 OVC100 21/18 A2998 NOSIG=
201207290000 METAR MROC 290000Z 06003KT 9999 -RA SCT030 OVC100 20/18 A3000 NOSIG=
201207290100 METAR MROC 290100Z 09004KT 9999 -RA SCT030 OVC100 20/18 A3003 NOSIG=
201207290200 METAR MROC 290200Z 06002KT 9999 -RA SCT030 OVC100 19/18 A3005 NOSIG=
201207290300 METAR MROC 290300Z 15002KT 9999 -RA SCT025 BKN100 19/18 A3006 NOSIG=
201207290400 METAR MROC 290400Z 05002KT 9999 SCT025 BKN100 20/18 A3006 NOSIG=
201207290500 METAR MROC 290500Z 03007KT 5000 RA SCT020 BKN080 20/18 A3006 NOSIG=
201207290600 METAR MROC 290600Z 07007KT 9999 -RA SCT030 BKN100 19/18 A3002 NOSIG=
201207290700 METAR MROC 290700Z 09006KT 9999 -RA SCT030 BKN100 20/17 A2999 NOSIG=
201207290800 METAR MROC 290800Z 09005KT 9999 -RA SCT030 BKN100 20/17 A2998 NOSIG=
201207290900 METAR MROC 290900Z 09005KT 9999 -RA SCT030 BKN100 19/17 A2997 NOSIG=
201207291000 METAR MROC 291000Z 10006KT 9999 -RA SCT030 BKN100 19/17 A2996 NOSIG=
201207291100 METAR MROC 291100Z 09006KT 9999 FEW035 BKN100 20/16 A2998 NOSIG=
201207291200 METAR MROC 291200Z 09006KT 9999 -RA NSC 20/16 A2999 RMK OVC100 NOSIG=
201207291300 METAR MROC 291300Z 04005KT CAVOK 20/17 A3002 NOSIG=
201207291400 METAR MROC 291400Z 07007KT CAVOK 21/17 A3005 NOSIG=
201207291500 METAR MROC 291500Z 08003KT 9999 -RA FEW040 OVC100 20/17 A3008 NOSIG=
201207291600 METAR MROC 291600Z 03005KT 9999 -RA FEW040 OVC100 20/18 A3005 NOSIG=
201207291700 METAR MROC 291700Z 03004KT CAVOK 21/18 A3006 NOSIG=
201207291800 METAR MROC 291800Z 20003KT 9999 FEW040 BKN100 23/17 A3004 NOSIG=
201207291900 METAR MROC 291900Z 23003KT 9999 FEW040 BKN100 23/19 A3002 NOSIG=
201207292000 METAR MROC 292000Z 28003KT 9999 SCT035 BKN100 23/19 A3000 NOSIG=
201207292100 METAR MROC 292100Z 20001KT 9999 FEW030 BKN100 24/19 A2999 NOSIG=
201207292200 METAR COR MROC 292200Z 13003KT 9999 VCSH FEW030 SCT100 BKN200 24/18 A3000 BECMG RA=
201207292300 METAR MROC 292300Z 10007KT 9999 -RA FEW030 BKN100 22/17 A3002 NOSIG=
201207292355 METAR MROC 300000Z 09005KT 9999 -RA FEW045 SCT100 BKN200 20/18 A3005 NOSIG=
201207300000 METAR MROC 300000Z 09005KT 9999 -RA FEW045 SCT100 BKN200 20/18 A3005 NOSIG=
201207300100 METAR MROC 300100Z 11005KT 9999 -DZ FEW030 BKN200 21/18 A3006 NOSIG=
201207300200 METAR MROC 300200Z 08003KT CAVOK 20/18 A3005 NOSIG=
201207300300 METAR MROC 300300Z 13002KT CAVOK 20/18 A3005 NOSIG=
201207300400 METAR MROC 300400Z 05003KT CAVOK 20/18 A3005 NOSIG=
201207300500 METAR MROC 300500Z 08005KT CAVOK 20/16 A3006 NOSIG=
201207300600 METAR MROC 300600Z 10007KT CAVOK 21/16 A3005 NOSIG=
201207300700 METAR MROC 300700Z 06005KT CAVOK 21/16 A3003 NOSIG=
201207300800 METAR MROC 300800Z 06007KT CAVOK 20/16 A3000 NOSIG=
201207300900 METAR MROC 300900Z 10006KT CAVOK 21/17 A3000 NOSIG=
201207301000 METAR MROC 301000Z 13007KT CAVOK 21/18 A2999 NOSIG=
201207301100 METAR MROC 301100Z 11004KT CAVOK 21/17 A2998 NOSIG=
201207301200 METAR MROC 301200Z 06008KT CAVOK 20/15 A2998 NOSIG=
201207301300 METAR MROC 301300Z 08004KT CAVOK 22/16 A3000 NOSIG=
201207301400 METAR MROC 301400Z 09007KT CAVOK 23/16 A3002 NOSIG=
201207301500 METAR MROC 301500Z 10010KT CAVOK 22/15 A3004 NOSIG=
201207301600 METAR MROC 301600Z 10010KT CAVOK 23/16 A3005 NOSIG=
201207301700 METAR MROC 301700Z 10011KT CAVOK 25/16 A3004 NOSIG=
201207301800 METAR MROC 301800Z 09011KT CAVOK 26/16 A3002 NOSIG=
201207301900 METAR MROC 301900Z 10010G20KT CAVOK 25/16 A3000 NOSIG=
201207302000 METAR MROC 302000Z 10010G20KT CAVOK 26/14 A2999 NOSIG=
201207302100 METAR MROC 302100Z 08011KT 9999 FEW045 SCT120 BKN200 25/14 A2999 NOSIG=
201207302200 METAR MROC 302200Z 07008KT 9999 FEW045 SCT120 BKN200 25/15 A3000 NOSIG=
201207302300 METAR COR MROC 302300Z 09006KT 9999 FEW040 SCT120 BKN200 24/15 A3001 BECMG DZ=
201207302355 METAR MROC 310000Z 08009KT 9999 -RA FEW040 SCT120 BKN200 23/16 A3004 NOSIG=
201207310000 METAR MROC 310000Z 08009KT 9999 -RA FEW040 SCT120 BKN200 23/16 A3004 NOSIG=
201207310100 METAR MROC 310100Z 09008KT 9999 FEW040 BKN200 22/16 A3006 BECMG 24006KT=
201207310200 METAR MROC 310200Z 10006KT 9999 FEW040 SCT120 BKN200 22/16 A3007 NOSIG=
201207310300 METAR MROC 310300Z 10005KT CAVOK 23/13 A3005 NOSIG=
201207310400 METAR MROC 310400Z 14003KT CAVOK 23/11 A3003 NOSIG=
201207310500 METAR MROC 310500Z 23006KT 9999 FEW004 BKN120 20/19 A3004 BECMG 5000 BR=
201207310600 METAR MROC 310600Z 12002KT 9999 FEW002 BKN120 20/19 A3002 NOSIG=
201207310700 METAR MROC 310700Z 08002KT CAVOK 19/18 A2998 NOSIG=
201207310800 METAR MROC 310800Z 08007KT CAVOK 22/12 A2997 NOSIG=
201207310900 METAR MROC 310900Z 08009KT CAVOK 21/13 A2996 NOSIG=
201207311000 METAR MROC 311000Z 12007KT CAVOK 21/13 A2997 NOSIG=
201207311100 METAR MROC 311100Z 10012KT CAVOK 21/13 A2997 NOSIG=
201207311200 METAR MROC 311200Z 11010KT CAVOK 21/15 A2999 NOSIG=
201207311300 METAR MROC 311300Z 12010KT CAVOK 22/16 A3001 NOSIG=
201207311400 METAR MROC 311400Z 12012KT 9999 FEW040 SCT250 24/16 A3002 NOSIG=
201207311500 METAR MROC 311500Z 13009KT 9999 FEW040 SCT250 26/16 A3004 NOSIG=
201207311600 METAR MROC 311600Z 12008KT 9999 FEW040 SCT250 27/16 A3004 BECMG 24006KT=
201207311700 METAR MROC 311700Z 23009KT 9999 FEW010 SCT030 25/18 A3004 NOSIG=
201207311800 METAR MROC 311800Z 24006KT 9999 FEW010 BKN030 25/19 A3004 BECMG RA=
201207311900 METAR MROC 311900Z 11005KT 9999 SCT030 SCT100 23/17 A3001 BECMG RA=
201207312000 METAR MROC 312000Z 07006KT 9999 SCT030 SCT100 25/17 A3000 BECMG RA=
201207312100 METAR MROC 312100Z 25002KT 9999 SCT030 BKN080 24/18 A3000 RMK LOW CLOWDS NEAR APCH RWY 07 NOSIG=
201207312200 METAR MROC 312200Z VRB02KT 9999 SCT030 BKN080 23/19 A2998 BECMG 10007KT=
201207312300 METAR MROC 312300Z 08009KT 9999 FEW035 BKN080 24/16 A2998 NOSIG=
201208010000 METAR MROC 010000Z 08011KT 9999 FEW035 SCT080 BKN250 23/16 A3000 NOSIG=
201208010100 METAR MROC 010100Z 11007KT 9999 FEW035 SCT080 BKN250 22/15 A3000 NOSIG=
201208010200 METAR MROC 010200Z 10010KT CAVOK 22/16 A3003 NOSIG=
201208010300 METAR MROC 010300Z 07007KT CAVOK 21/17 A3005 NOSIG=
201208010400 METAR MROC 010400Z 07006KT 9999 FEW035 SCT250 21/16 A3006 NOSIG=
201208010500 METAR MROC 010500Z 12010G20KT 9999 FEW035 SCT250 21/16 A3004 NOSIG=
201208010600 METAR MROC 010600Z 11008KT 9999 FEW035 SCT250 22/16 A3004 NOSIG=
201208010700 METAR MROC 010700Z 12008KT 9999 FEW035 SCT250 21/16 A3002 NOSIG=
201208010800 METAR MROC 010800Z 10006KT 9999 FEW035 SCT250 21/16 A3001 NOSIG=
201208010900 METAR MROC 010900Z 10006KT 9999 FEW035 SCT250 21/16 A3001 NOSIG=
201208011000 METAR MROC 011000Z 08005KT 9999 FEW035 21/16 A3001 NOSIG=
201208011100 METAR MROC 011100Z 02005KT 9999 FEW035 20/16 A3002 NOSIG=
201208011200 METAR MROC 011200Z 07004KT 9999 FEW045 21/16 A3003 NOSIG=
201208011300 METAR MROC 011300Z 11009KT CAVOK 23/16 A3005 NOSIG=
201208011400 METAR MROC 011400Z 11009KT CAVOK 24/15 A3006 NOSIG=
201208011500 METAR MROC 011500Z 12008KT CAVOK 26/15 A3007 NOSIG=
201208011600 METAR MROC 011600Z 10006KT 9999 FEW035 SCT250 27/15 A3006 NOSIG=
201208011700 METAR MROC 011700Z 23008KT 9999 FEW035 SCT300 27/19 A3005 NOSIG=
201208011800 METAR MROC 011800Z 24007KT 9999 SCT035 28/18 A3002 NOSIG=
201208011900 METAR MROC 011900Z 25009KT 9999 FEW025TCU SCT035 28/20 A3000 BECMG 8000 VCSH=
201208012000 METAR MROC 012000Z 26013KT 9999 VCSH FEW025TCU SCT035 SCT250 26/21 A3000 BECMG RA=
201208012100 METAR MROC 012100Z 25012KT 9999 VCSH FEW015TCU BKN030 25/23 A3000 BECMG -RA=
201208012200 METAR MROC 012200Z 23008KT 9999 VCFG FEW003 BKN025 23/23 A3000 BECMG 5000 -DZ BR=
201208012300 METAR MROC 012300Z 24007KT 9999 5000SW -DZ SCT004 BKN020 22/21 A3000 BECMG 4000 BR=
201208020000 METAR MROC 020000Z 22004KT 8000 RA VCFG SCT004 BKN015 22/20 A3003 BECMG 5000 BR=
201208020100 METAR MROC 020100Z 00000KT 9999 FEW006 SCT025 SCT100 20/20 A3005 RERA NOSIG=
201208020200 METAR MROC 020200Z 27004KT 8000 2000SW -DZ SCT005 BKN012 21/20 A3006 BECMG RA=
201208020300 METAR MROC 020300Z 26003KT 8000 VCFG FEW001 SCT005 BKN015 21/20 A3007 BECMG 5000 DZ=
201208020400 METAR MROC 020400Z 10002KT 9999 FEW005 SCT020 21/20 A3006 BECMG 5000 BR=
201208020500 METAR MROC 020500Z 04003KT 9999 FEW020 SCT250 21/20 A3005 BECMG 5000 BR=
201208020600 METAR MROC 020600Z 09006KT 9999 FEW020 SCT250 21/18 A3003 NOSIG=
201208020700 METAR MROC 020700Z 09004KT 9999 FEW020 SCT250 21/18 A3003 NOSIG=
201208020800 METAR MROC 020800Z 07002KT 9999 FEW020 SCT250 21/19 A3002 NOSIG=
201208020900 METAR MROC 020900Z 06005KT CAVOK 21/18 A3001 NOSIG=
201208021000 METAR MROC 021000Z 08005KT CAVOK 21/18 A3001 NOSIG=
201208021100 METAR MROC 021100Z 10004KT 9999 FEW030 SCT100 21/18 A3002 NOSIG=
201208021200 METAR MROC 021200Z 09007KT 9999 FEW030 BKN100 21/17 A3001 NOSIG=
201208021300 METAR MROC 021300Z 10010KT 9999 FEW030 BKN100 22/18 A3002 NOSIG=
201208021400 METAR MROC 021400Z 10009KT CAVOK 24/18 A3001 NOSIG=
201208021500 METAR MROC 021500Z 12013KT CAVOK 26/18 A3002 NOSIG=
201208021600 METAR MROC 021600Z 12011KT CAVOK 27/17 A3003 NOSIG=
201208021700 METAR MROC 021700Z 12011KT CAVOK 27/18 A3003 NOSIG=
201208021800 METAR MROC 021800Z 12009KT 9999 FEW035 BKN250 28/16 A3001 BECMG 24006KT=
201208021900 METAR MROC 021900Z 26011KT 9999 SCT035 BKN250 26/20 A2999 NOSIG=
201208022000 METAR MROC 022000Z 23008KT 9999 SCT035 BKN250 26/20 A2998 NOSIG=
201208022100 METAR MROC 022100Z 23006KT 9999 SCT030 OVC110 25/20 A2999 NOSIG=
201208022200 METAR MROC 022200Z 23006KT 9999 -RA SCT030 OVC100 24/21 A2999 NOSIG=
201208022300 METAR MROC 022300Z 24004KT 9999 FEW025 BKN100 23/20 A2999 NOSIG=
201208030000 METAR MROC 030000Z 27003KT 9999 FEW025 BKN100 23/20 A3001 NOSIG=
201208030100 METAR MROC 030100Z 30003KT 9999 FEW030 SCT100 22/20 A3002 NOSIG=
201208030200 METAR MROC 030200Z 30003KT 9999 FEW030 SCT100 22/20 A3003 NOSIG=
201208030300 METAR MROC 030300Z 30003KT 9999 FEW015 SCT080 BKN250 22/20 A3003 NOSIG=
201208030400 METAR MROC 030400Z 09002KT 9999 FEW015 BKN250 21/19 A3004 NOSIG=
201208030500 METAR MROC 030500Z 04003KT CAVOK 21/19 A3004 NOSIG=
201208030600 METAR MROC 030600Z 06004KT CAVOK 21/17 A3003 NOSIG=
201208030700 METAR MROC 030700Z 09004KT CAVOK 21/17 A3001 NOSIG=
201208030800 METAR MROC 030800Z 04006KT CAVOK 20/17 A2999 NOSIG=
201208030900 METAR MROC 030900Z 10007KT CAVOK 21/16 A2997 NOSIG=
201208031000 METAR MROC 031000Z 04005KT CAVOK 21/16 A2999 NOSIG=
201208031100 METAR MROC 031100Z 07004KT CAVOK 20/16 A3001 NOSIG=
201208031200 METAR MROC 031200Z 05007KT CAVOK 20/16 A3002 NOSIG=
201208031300 METAR MROC 031300Z 08005KT 9999 FEW030 BKN250 23/17 A3003 NOSIG=
201208031400 METAR MROC 031400Z 11014KT 9999 FEW030 BKN250 24/16 A3003 NOSIG=
201208031500 METAR MROC 031500Z 10013KT 9999 FEW030 SCT250 26/16 A3001 NOSIG=
201208031600 METAR MROC 031600Z 09012KT 9999 FEW030 SCT250 27/16 A3001 NOSIG=
201208031700 METAR MROC 031700Z 08010KT 9999 SCT030 SCT250 29/15 A3000 NOSIG=
201208031800 METAR MROC 031800Z 10010KT 9999 SCT030 29/16 A3000 NOSIG=
201208031900 METAR MROC 031900Z 09010KT 9999 SCT030 30/15 A2997 NOSIG=
201208032000 METAR MROC 032000Z 08010KT 9999 SCT030 SCT250 29/15 A2995 NOSIG=
201208032100 METAR MROC 032100Z 10010KT 9999 FEW045 BKN200 28/15 A2993 NOSIG=
201208032200 METAR MROC 032200Z 12006KT 9999 FEW035 BKN200 27/16 A2993 BECMG 24006KT=
201208032300 METAR COR MROC 032300Z 25006KT 9999 VCSH FEW035 BKN200 28/20 A2996 NOSIG=
201208032357 METAR MROC 040000Z 24006KT 9999 VCSH SCT015 BKN200 22/20 A2998 NOSIG=
201208040000 METAR MROC 040000Z 24006KT 9999 VCSH SCT015 BKN200 22/20 A2998 NOSIG=
201208040100 METAR MROC 040100Z 25005KT 9999 BCFG SCT015 SCT200 21/20 A3001 NOSIG=
201208040200 METAR MROC 040200Z 31004KT 9999 FEW020 SCT120 21/20 A3001 NOSIG=
201208040300 METAR MROC 040300Z 30002KT 9999 FEW020 SCT100 22/20 A3003 NOSIG=
201208040400 METAR MROC 040400Z 07002KT CAVOK 21/19 A3003 NOSIG=
201208040500 METAR MROC 040500Z 06004KT CAVOK 21/18 A3002 NOSIG=
201208040600 METAR MROC 040600Z 06005KT CAVOK 20/16 A2999 NOSIG=
201208040700 METAR MROC 040700Z 06006KT CAVOK 20/15 A2997 NOSIG=
201208040800 METAR MROC 040800Z 06006KT CAVOK 22/14 A2996 NOSIG=
201208040900 METAR MROC 040900Z 08002KT CAVOK 21/16 A2998 NOSIG=
201208041000 METAR MROC 041000Z 00000KT CAVOK 19/17 A2999 NOSIG=
201208041100 METAR MROC 041100Z 06006KT CAVOK 19/16 A2999 NOSIG=
201208041200 METAR MROC 041200Z 09004KT CAVOK 19/15 A2996 NOSIG=
201208041300 METAR MROC 041300Z 10005KT CAVOK 22/15 A2999 NOSIG=
201208041400 METAR MROC 041400Z 10006KT CAVOK 24/15 A2999 NOSIG=
201208041500 METAR MROC 041500Z 13008KT CAVOK 26/15 A3001 NOSIG=
201208041600 METAR MROC 041600Z 13008KT 9999 FEW040 BKN250 28/15 A3000 NOSIG=
201208041700 METAR MROC 041700Z 28005KT 9999 FEW040 BKN250 27/18 A2999 NOSIG=
201208041800 METAR MROC 041800Z 24006KT 9999 BKN040 27/19 A2999 NOSIG=
201208041900 METAR MROC 041900Z 22004KT 9999 SCT040 SCT250 27/19 A2997 NOSIG=
201208042000 METAR MROC 042000Z 23007KT 9999 FEW040 SCT080 BKN250 ///// A2995 NOSIG=
201208042100 METAR MROC 042100Z 24009KT 9999 FEW010TCU BKN030 26/21 A2994 BECMG SHRA=
201208042200 METAR MROC 042200Z 25013KT 9999 FEW010 BKN030 23/21 A2995 BECMG SHRA=
201208042300 METAR MROC 042300Z 23006KT 9999 FEW010 BKN030 23/20 A2996 NOSIG=
201208050000 METAR MROC 050000Z 28003KT 9999 SCT030 SCT100 22/19 A2997 NOSIG=
201208050100 METAR MROC 050100Z 30003KT 9999 FEW010 SCT030 BKN100 22/20 A2999 NOSIG=
201208050200 METAR MROC 050200Z 24003KT 9999 FEW010 SCT030 BKN100 22/20 A3001 NOSIG=
201208050300 METAR MROC 050300Z 29002KT 5000 BR FEW002 SCT030 BKN100 22/20 A3003 BECMG 2000 BR=
201208050400 METAR MROC 050400Z 05003KT 9999 FEW030 SCT100 21/20 A3003 NOSIG=
201208050500 METAR MROC 050500Z 05005KT 9999 FEW030 SCT110 21/18 A3002 NOSIG=
201208050600 METAR MROC 050600Z 07003KT 9999 FEW030 SCT110 21/17 A3001 NOSIG=
201208050700 METAR MROC 050700Z 08003KT 9999 FEW030 SCT110 21/18 A3002 NOSIG=
201208050800 METAR MROC 050800Z 14002KT 9999 FEW030 SCT120 21/18 A3000 NOSIG=
201208050900 METAR MROC 050900Z 04004KT 9999 FEW030 SCT120 20/16 A2999 NOSIG=
201208051000 METAR MROC 051000Z 04004KT CAVOK 20/16 A2997 NOSIG=
201208051100 METAR MROC 051100Z 12006KT CAVOK 21/16 A2997 NOSIG=
201208051200 METAR MROC 051200Z 12010KT 9999 FEW030 SCT250 22/16 A2997 NOSIG=
201208051300 METAR MROC 051300Z 11009KT 9999 FEW030 SCT250 23/16 A3000 NOSIG=
201208051400 METAR MROC 051400Z 11008KT 9999 FEW030 BKN250 25/16 A3001 NOSIG=
201208051500 METAR MROC 051500Z 11011KT 9999 FEW030 BKN250 26/14 A3002 NOSIG=
201208051600 METAR MROC 051600Z 10008KT 9999 FEW030 SCT250 28/12 A3001 NOSIG=
201208051700 METAR MROC 051700Z 10006KT 9999 FEW030 BKN250 30/13 A3001 NOSIG=
201208051800 METAR MROC 051800Z 11006KT 9999 FEW040 BKN250 30/12 A2999 NOSIG=
201208051900 METAR MROC 051900Z 13008KT 9999 FEW040 BKN250 30/11 A2999 NOSIG=
201208052000 METAR MROC 052000Z 16005KT 9999 FEW030 BKN250 28/20 A2996 NOSIG=
201208052100 METAR MROC 052100Z 24011KT 9999 SCT025TCU SCT300 26/21 A2995 BECMG 8000 VCSH=
201208052200 METAR MROC NIL=
201208052300 METAR MROC 052300Z 23009KT 9999 FEW015TCU SCT030 24/21 A2997 NOSIG=
201208060000 METAR MROC 060000Z 22006KT 9999 SCT015TCU BKN025 23/21 A3000 BECMG 7000 RA=
201208060100 METAR MROC 060100Z 23006KT 9999 FEW008 SCT015 BKN025 22/21 A3002 BECMG 8000 -RA VCFG=
201208060200 METAR MROC 060200Z 24005KT 9999 VCFG FEW006 SCT015 BKN030 22/20 A3003 NOSIG=
201208060300 METAR MROC 060300Z 32002KT 9999 BCFG FEW030 BKN080 22/20 A3005 NOSIG=
201208060400 METAR MROC 060400Z 29001KT 9999 FEW010 SCT030 BKN080 22/20 A3006 BECMG 09004KT=
201208060500 METAR MROC 060500Z 12001KT 9999 FEW030 SCT080 BKN250 21/19 A3006 NOSIG=
201208060600 METAR MROC 060600Z 07002KT 9999 FEW030 SCT150 BKN250 21/19 A3004 NOSIG=
201208060700 METAR MROC 060700Z 10004KT 9999 FEW030 SCT150 BKN250 20/17 A3002 NOSIG=
201208060800 METAR MROC 060800Z 09003KT CAVOK 19/16 A3000 NOSIG=
201208060900 METAR MROC 060900Z 06004KT CAVOK 19/16 A2999 NOSIG=
201208061000 METAR MROC 061000Z 06005KT CAVOK 19/15 A3000 NOSIG=
201208061100 METAR MROC 061100Z 09004KT CAVOK 18/15 A3000 NOSIG=
201208061200 METAR MROC 061200Z 06005KT CAVOK 18/15 A3002 NOSIG=
201208061300 METAR MROC 061300Z 11003KT CAVOK 22/15 A3003 NOSIG=
201208061400 METAR MROC 061400Z 00000KT CAVOK 26/15 A3004 BECMG 24005KT=
201208061500 METAR MROC 061500Z 27004KT CAVOK 26/15 A3004 NOSIG=
201208061600 METAR MROC 061600Z 25006KT CAVOK 25/17 A3005 NOSIG=
201208061700 METAR MROC 061700Z 25007KT 9999 FEW035 BKN250 27/18 A3004 NOSIG=
201208061800 METAR MROC 061800Z 24008KT 9999 SCT030 BKN250 26/19 A3002 NOSIG=
201208061900 METAR MROC 061900Z 23008KT 9999 FEW025TCU SCT040 27/19 A2999 NOSIG=
201208062000 METAR MROC 062000Z 24011KT 9999 FEW025TCU SCT040 26/19 A2997 NOSIG=
201208062100 METAR MROC 062100Z 23009KT 9999 FEW030TCU BKN250 26/19 A2994 NOSIG=
201208062200 METAR MROC 062200Z 26011KT 9999 FEW030 BKN250 24/20 A2994 NOSIG=
201208062300 METAR MROC 062300Z 25009KT 9999 FEW007 SCT025 BKN250 23/20 A2996 BECMG 5000 BR=
201208070000 METAR MROC 070000Z 26007KT 9999 VCFG SCT007 BKN020 22/20 A2998 BECMG 5000 BR=
201208070100 METAR MROC 070100Z 27004KT 8000 VCFG FEW007 BKN020 22/20 A3000 NOSIG=
201208070200 METAR MROC 070200Z 26004KT 8000 VCFG FEW001 SCT004 BKN015 22/20 A3002 BECMG 5000 BR=
201208070300 METAR MROC 070300Z 20002KT 1000 TS SHRA FEW010CB BKN015 21/20 A3004 NOSIG=
201208070400 METAR MROC 070400Z 00000KT 5000 -RA FEW001 SCT010 BKN100 20/19 A3005 BECMG TS=
201208070500 METAR MROC 070500Z 09002KT 9999 -RA FEW005 SCT020 OVC100 20/19 A3004 NOSIG=
201208070600 METAR MROC 070600Z 06003KT 9999 FEW030 BKN100 20/19 A3001 RERA NOSIG=
201208070700 METAR MROC 070700Z 00000KT CAVOK 20/19 A2998 NOSIG=
201208070800 METAR MROC 070800Z 00000KT CAVOK 19/18 A2997 NOSIG=
201208070900 METAR MROC 070900Z 14003KT 9999 2000SW FEW001 BKN100 19/18 A2996 NOSIG=
201208071000 METAR MROC 071000Z 02002KT 9999 3000SW FEW001 BKN020 19/18 A2997 NOSIG=
201208071100 METAR MROC 071100Z 09001KT 9999 FEW001 SCT250 19/18 A2998 NOSIG=
201208071200 METAR MROC 071200Z 05003KT CAVOK 19/17 A2999 NOSIG=
201208071300 METAR MROC 071300Z 00000KT CAVOK 21/18 A3000 NOSIG=
201208071400 METAR MROC 071400Z 00000KT CAVOK 24/17 A3001 NOSIG=
201208071500 METAR MROC 071500Z 00000KT CAVOK 26/18 A3001 NOSIG=
201208071600 METAR MROC 071600Z 26006KT 9999 FEW035 BKN250 25/19 A3002 NOSIG=
201208071700 METAR MROC 071700Z 24009KT 9999 FEW035 BKN250 26/20 A3001 NOSIG=
201208071800 METAR MROC 071800Z 25008KT 9999 SCT030 SCT250 27/20 A2999 NOSIG=
201208071900 METAR MROC 071900Z 24009KT 9999 FEW015 SCT025TCU SCT250 26/20 A2995 NOSIG=
201208072000 METAR MROC 072000Z 24011KT 9999 VCSH FEW015TCU SCT025 BKN140 26/21 A2993 BECMG RA=
201208072100 METAR MROC 072100Z 26007KT 9999 4000N -TSRA SCT010CB BKN020 23/21 A2992 BECMG 5000 TSRA=
201208072200 METAR MROC 072200Z 31002KT 8000 -TSRA FEW009CB SCT020 OVC100 23/19 A2994 NOSIG=
201208072300 METAR MROC 072300Z 27004KT 8000 -RA SCT008 BKN020 22/20 A2995 NOSIG=
201208080000 METAR MROC 080000Z 24002KT 8000 VCFG FEW002 SCT015 OVC100 21/20 A2997 BECMG 3000 BR=
201208080100 METAR MROC 080100Z 22004KT 8000 -RA VCFG FEW002 SCT015 OVC100 20/16 A2999 NOSIG=
201208080200 METAR MROC 080200Z 26003KT 9999 DZ SCT020 OVC100 20/19 A3001 NOSIG=
201208080300 METAR MROC 080300Z 28006KT 5000 -RA BR SCT005 BKN015 20/19 A3004 NOSIG=
201208080400 METAR MROC 080400Z 13002KT 8000 -RA VCFG FEW005 SCT015 BKN100 20/19 A3003 NOSIG=
201208080500 METAR MROC 080500Z 00000KT 9999 FEW025 OVC100 20/19 A3003 NOSIG=
201208080600 METAR MROC 080600Z 00000KT 9999 BCFG FEW025 BKN120 20/19 A3001 RMK VIS SSW 5KMS BECMG 5000 BR=
201208080700 METAR MROC 080700Z 00000KT 9999 FEW025 BKN120 20/19 A2998 NOSIG=
201208080800 METAR MROC 080800Z 03003KT 9999 FEW025 BKN120 20/19 A2997 NOSIG=
201208080900 METAR MROC 080900Z 07002KT 9999 FEW025 BKN120 19/18 A2996 NOSIG=
201208081000 METAR MROC 081000Z 00000KT 9999 FEW025 BKN120 19/18 A2996 NOSIG=
201208081100 METAR MROC 081100Z 06003KT 9999 FEW025 BKN120 18/18 A2997 NOSIG=
201208081200 METAR MROC 081200Z 00000KT CAVOK 18/17 A2998 NOSIG=
201208081300 METAR MROC 081300Z 07003KT CAVOK 20/17 A2999 NOSIG=
201208081400 METAR MROC 081400Z 07004KT CAVOK 23/18 A3000 NOSIG=
201208081500 METAR MROC 081500Z 29003KT CAVOK 25/18 A3000 NOSIG=
201208081600 METAR MROC 081600Z 25005KT 9999 FEW035 BKN250 26/18 A3000 NOSIG=
201208081700 METAR MROC 081700Z 25006KT 9999 FEW035 BKN250 26/18 A2999 NOSIG=
201208081800 METAR MROC 081800Z 24007KT 9999 SCT025TCU BKN250 26/20 A2998 NOSIG=
201208081900 METAR MROC 081900Z 24008KT 9999 SCT025TCU BKN250 27/20 A2995 NOSIG=
201208082000 METAR MROC 082000Z 24008KT 9999 SCT025TCU BKN250 27/20 A2993 NOSIG=
201208082100 METAR MROC 082100Z 15004KT 5000 -TSRA SCT015CB BKN100 22/19 A2991 NOSIG=
201208082200 METAR MROC 082200Z 12004KT 9999 3000SW VCTS FEW015CB SCT040 BKN200 20/19 A2993 NOSIG=
201208082300 METAR MROC 082300Z 04005KT 9000 FEW040 SCT100 BKN200 22/20 A2994 NOSIG=
201208082354 METAR MROC 090000Z 22002KT 8000 VCFG FEW015 SCT100 BKN200 22/20 A2996 NOSIG=
201208090000 METAR MROC 090000Z 22002KT 8000 VCFG FEW015 SCT100 BKN200 22/20 A2996 NOSIG=
201208090100 METAR MROC 090100Z 14001KT 9999 BCFG FEW030 SCT100 BKN200 21/19 A3000 NOSIG=
201208090200 METAR MROC 090200Z 00000KT CAVOK 21/19 A3002 NOSIG=
201208090300 METAR MROC 090300Z 06002KT 9999 VCFG FEW008 SCT100 21/19 A3002 NOSIG=
201208090400 METAR MROC 090400Z 05002KT 9999 FEW007 BKN100 21/19 A3001 NOSIG=
201208090500 METAR MROC 090500Z 11002KT 9999 4500SW FEW006 SCT120 BKN250 20/19 A3001 NOSIG=
201208090600 METAR MROC 090600Z 12002KT 9999 FEW012 SCT120 20/19 A2999 NOSIG=
201208090700 METAR MROC 090700Z 05004KT 9999 FEW010 SCT120 19/18 A2997 NOSIG=
201208090800 METAR MROC 090800Z 06004KT 9999 FEW010 SCT120 19/17 A2995 NOSIG=
201208090900 METAR MROC 090900Z 08002KT CAVOK 18/17 A2995 NOSIG=
201208091000 METAR MROC 091000Z 07004KT CAVOK 19/16 A2995 NOSIG=
201208091100 METAR MROC 091100Z 09005KT CAVOK 20/16 A2995 NOSIG=
201208091200 METAR MROC 091200Z 06007KT CAVOK 20/16 A2997 NOSIG=
201208091300 METAR MROC 091300Z 07004KT CAVOK 21/17 A2998 NOSIG=
201208091400 METAR MROC 091400Z 09002KT CAVOK 23/18 A2998 NOSIG=
201208091500 METAR MROC 091500Z 05003KT CAVOK 26/18 A2997 BECMG 24006KT=
201208091600 METAR MROC 091600Z 12005KT 9999 FEW035 SCT120 BKN200 27/16 A2996 NOSIG=
201208091700 METAR MROC 091700Z 24008KT 9999 FEW035 SCT120 BKN200 25/18 A2999 NOSIG=
201208091800 METAR MROC 091800Z 24006KT 9999 FEW015 SCT035 BKN200 24/20 A2997 BECMG 8000 SHRA=
201208091900 METAR MROC 091900Z 26005KT 9999 FEW015 SCT035 BKN200 25/20 A2995 BECMG 8000 SHRA=
201208092000 METAR MROC 092000Z 22006KT 9999 SCT035 BKN200 26/20 A2993 NOSIG=
201208092100 METAR MROC 092100Z 23007KT 9999 SCT030 BKN200 25/21 A2991 BECMG SHRA FEW012TCU=
201208092200 METAR MROC 092200Z 20009KT 9999 DZ FEW030 BKN100 22/20 A2990 BECMG SHRA FEW012TCU=
201208092300 METAR MROC 092300Z 29006KT 9999 SCT030 BKN100 22/19 A2993 REDZ NOSIG=
201208100000 METAR MROC 100000Z 14002KT 9999 -RA SCT030 BKN100 22/19 A2996 NOSIG=
201208100100 METAR MROC 100100Z 09002KT 9999 -RA FEW030 OVC100 21/20 A2999 NOSIG=
201208100200 METAR MROC 100200Z 10002KT 9999 -RA OVC100 21/20 A3000 NOSIG=
201208100300 METAR MROC 100300Z 24002KT 9999 -RA FEW030 BKN100 21/19 A3001 NOSIG=
201208100400 METAR MROC 100400Z 29003KT 5000 -RA BR FEW001 BKN015 21/19 A3002 NOSIG=
201208100500 METAR MROC 100500Z 09002KT 5000 BR FEW002 BKN015 20/19 A2999 NOSIG=
201208100600 METAR MROC 100600Z 07002KT 9999 FEW004 BKN100 20/19 A2998 NOSIG=
201208100700 METAR MROC 100700Z 06003KT 9999 FEW007 BKN100 20/19 A2996 NOSIG=
201208100800 METAR MROC 100800Z 07005KT 9999 FEW010 BKN100 19/17 A2997 NOSIG=
201208100900 METAR MROC 100900Z 07006KT CAVOK 19/17 A2997 NOSIG=
201208101000 METAR MROC 101000Z 07003KT CAVOK 18/17 A2997 NOSIG=
201208101100 METAR MROC 101100Z 09004KT CAVOK 19/17 A2998 NOSIG=
201208101200 METAR MROC 101200Z 06003KT CAVOK 19/17 A2999 NOSIG=
201208101300 METAR MROC 101300Z 09003KT CAVOK 20/17 A3002 NOSIG=
201208101400 METAR MROC 101400Z 09002KT CAVOK 22/18 A3002 NOSIG=
201208101500 METAR MROC 101500Z 06004KT CAVOK 25/18 A3003 NOSIG=
201208101600 METAR MROC 101600Z 00000KT 9999 FEW040 SCT120 BKN250 28/18 A3001 BECMG 24006KT=
201208101700 METAR MROC 101700Z 00000KT 9999 FEW040 SCT120 BKN250 28/18 A3000 BECMG 24006KT=
201208101800 METAR MROC 101800Z 29005KT 9999 FEW040 SCT120 BKN250 27/19 A2999 NOSIG=
201208101900 METAR MROC 101900Z 25007KT 9999 FEW010TCU SCT030 BKN250 28/19 A2997 NOSIG=
201208102000 METAR MROC 102000Z 24012KT 9999 FEW010TCU BKN030 24/21 A2996 BECMG SHRA=
201208102100 METAR MROC 102100Z 25010KT 9999 -RA FEW015CB BKN025 22/20 A2997 BECMG 6000 TSRA=
201208102200 METAR MROC 102200Z 28005KT 9999 -RA FEW015CB SCT025 BKN100 22/20 A2999 BECMG 6000 -TSRA=
201208102300 METAR MROC 102300Z 09003KT 9999 -RA SCT025 BKN100 21/19 A3000 BECMG 8000 -RA VCFG=
201208110000 METAR MROC 110000Z 11003KT 9999 -RA SCT030 BKN100 20/19 A3002 NOSIG=
201208110100 METAR MROC 110100Z 08003KT 9999 -RA SCT030 BKN100 20/19 A3004 NOSIG=
201208110200 METAR MROC 110200Z 06003KT 9999 -RA FEW030 BKN100 20/19 A3004 NOSIG=
201208110300 METAR MROC 110300Z 08004KT 9999 BCFG FEW030 BKN100 20/18 A3004 NOSIG=
201208110400 METAR MROC 110400Z 07005KT CAVOK 21/18 A3002 NOSIG=
201208110500 METAR MROC 110500Z 06005KT CAVOK 20/18 A3001 NOSIG=
201208110600 METAR MROC 110600Z 08005KT CAVOK 20/17 A2999 NOSIG=
201208110700 METAR MROC 110700Z 06007KT CAVOK 20/17 A2998 NOSIG=
201208110800 METAR MROC 110800Z 06007KT CAVOK 21/17 A2996 NOSIG=
201208110900 METAR MROC 110900Z 07004KT CAVOK 20/17 A2996 NOSIG=
201208111000 METAR MROC 111000Z 09003KT CAVOK 20/16 A2997 NOSIG=
201208111100 METAR MROC 111100Z 17004KT CAVOK 19/16 A2998 NOSIG=
201208111200 METAR MROC 111200Z 03003KT CAVOK 19/16 A3001 NOSIG=
201208111300 METAR MROC 111300Z 09003KT CAVOK 21/17 A3003 NOSIG=
201208111400 METAR MROC 111400Z 08003KT CAVOK 24/17 A3003 NOSIG=
201208111500 METAR MROC 111500Z 27002KT CAVOK 27/16 A3003 NOSIG=
201208111600 METAR MROC 111600Z 27002KT 9999 FEW040 SCT300 27/18 A3003 NOSIG=
201208111700 METAR MROC 111700Z 22008KT 9999 FEW040 SCT300 27/20 A3003 NOSIG=
201208111800 METAR MROC 111800Z 23009KT 9999 FEW025TCU SCT040 26/20 A3001 RMK RN DST E NOSIG=
201208111900 METAR MROC 111900Z 24009KT 8000 RA SCT015TCU BKN025 24/21 A2998 BECMG 5000 SHRA=
201208112000 METAR MROC 112000Z 24009KT 8000 RA SCT015TCU BKN025 24/21 A2998 BECMG 5000 SHRA=
201208112100 METAR MROC 112100Z 29006KT 7000 -RA SCT006 BKN025 21/20 A2998 RETS NOSIG=
201208112200 METAR MROC 112200Z 21007KT 3000 -RA BR BKN006 SCT015 21/20 A2999 BECMG 1500 RA BR=
201208112300 METAR MROC 112300Z 16004KT 9999 4000SW -RA FEW006 SCT015 BKN090 19/18 A3001 BECMG 3000 BR=
201208120000 METAR MROC 120000Z 03004KT 9999 -RA SCT030 BKN090 19/18 A3003 NOSIG=
201208120100 METAR MROC 120100Z 08003KT CAVOK 19/18 A3001 NOSIG=
201208120200 METAR MROC 120200Z 10003KT CAVOK 20/18 A3002 NOSIG=
201208120300 METAR MROC 120300Z 32002KT CAVOK 19/18 A3003 NOSIG=
201208120400 METAR MROC 120400Z 13002KT 9999 2000SW FEW001 SCT005 BKN100 19/18 A3004 BECMG 1000 BR=
201208120500 METAR MROC 120500Z 11002KT 1000 BR SCT001 BKN100 19/18 A3003 NOSIG=
201208120600 METAR MROC 120600Z 07003KT 9999 FEW020 BKN100 19/18 A3001 NOSIG=
201208120700 METAR MROC 120700Z 02003KT CAVOK 19/18 A2997 NOSIG=
201208120800 METAR MROC 120800Z 06005KT CAVOK 20/18 A2999 NOSIG=
201208120900 METAR MROC 120900Z 06007KT CAVOK 21/17 A2996 NOSIG=
201208121000 METAR MROC 121000Z 04009KT CAVOK 20/17 A2994 NOSIG=
201208121100 METAR MROC 121100Z 09007KT CAVOK 21/17 A2994 NOSIG=
201208121200 METAR MROC 121200Z 06007KT CAVOK 21/17 A2998 NOSIG=
201208121300 METAR MROC 121300Z 11008KT CAVOK 22/17 A3000 NOSIG=
201208121400 METAR MROC 121400Z 10004KT CAVOK 24/17 A3000 NOSIG=
201208121500 METAR MROC 121500Z 13008KT CAVOK 26/18 A3002 NOSIG=
201208121600 METAR MROC 121600Z 14008KT 9999 FEW030 SCT100 BKN250 26/17 A3001 BECMG 23007KT=
201208121700 METAR MROC 121700Z 12006KT 9999 FEW035 SCT100 BKN250 27/17 A3000 BECMG 24006KT=
201208121800 METAR MROC 121800Z 23002KT 9999 FEW030 BKN040TCU 27/17 A2999 BECMG VCTS VCSH=
201208121900 METAR MROC 121900Z 15005KT 9999 SCT030 SCT100 27/18 A2997 BECMG -RA=
201208122000 METAR MROC 122000Z 13003KT 9999 FEW030 BKN100 26/17 A2995=
201208122100 METAR MROC 122100Z 11003KT 9999 SCT030 BKN100 25/18 A2996 BECMG 24006KT 6000 RA=
201208122200 METAR MROC 122200Z 23002KT 9999 FEW030 BKN090 24/20 A2995 NOSIG=
201208122300 METAR MROC 122300Z 25003KT CAVOK 24/20 A2995 NOSIG=
201208130000 METAR MROC 130000Z 25005KT CAVOK 22/20 A2997 NOSIG=
201208130100 METAR MROC 130100Z 30003KT 9999 FEW030 BKN100 22/19 A2999 NOSIG=
201208130200 METAR MROC 130200Z 24002KT 9999 SCT030 SCT100 21/20 A3001 NOSIG=
201208130300 METAR MROC 130300Z 04002KT 9999 FEW020 SCT250 21/19 A3003 NOSIG=
201208130400 METAR MROC 130400Z 02006KT CAVOK 20/18 A3003 NOSIG=
201208130500 METAR MROC 130500Z 06004KT CAVOK 20/17 A3003 NOSIG=
201208130600 METAR MROC 130600Z 06006KT CAVOK 20/17 A3001 NOSIG=
201208130700 METAR MROC 130700Z 09002KT CAVOK 20/17 A2999 NOSIG=
201208130800 METAR MROC 130800Z 05002KT CAVOK 20/16 A2996 NOSIG=
201208130900 METAR MROC 130900Z 05003KT CAVOK 19/16 A2995 NOSIG=
201208131000 METAR MROC 131000Z 11010KT CAVOK 21/16 A2995 NOSIG=
201208131100 METAR MROC 131100Z 10008KT CAVOK 21/16 A2997 NOSIG=
201208131200 METAR MROC 131200Z 09006KT 9999 FEW030 SCT300 21/16 A3000 NOSIG=
201208131300 METAR MROC 131300Z 11006KT 9999 SCT030 23/16 A3002 NOSIG=
201208131400 METAR MROC 131400Z 11010KT 9999 FEW030 SCT120 24/16 A3003 NOSIG=
201208131500 METAR MROC 131500Z 11008KT 9999 FEW035 SCT120 25/15 A3004 NOSIG=
201208131600 METAR MROC 131600Z 07008KT 9999 FEW035 SCT120 26/14 A3002 NOSIG=
201208131700 METAR MROC 131700Z 09005KT 9999 FEW035 SCT120 29/15 A3002 NOSIG=
201208131800 METAR MROC 131800Z 07012KT 9999 FEW035 SCT120 29/14 A3000 NOSIG=
201208131900 METAR MROC 131900Z 07010KT 9999 FEW035 SCT120 29/15 A2998 NOSIG=
201208132000 METAR MROC 132000Z 09006KT 9999 SCT035 29/12 A2994 NOSIG=
201208132045 METAR MROC 132045Z 23008KT 9999 FEW045 SCT100 27/21 A2993 NOSIG=
201208132100 METAR MROC 132100Z 26011KT 9999 FEW045 SCT100 27/21 A2993 NOSIG=
201208132200 METAR MROC 132200Z 22011KT 9999 3000N -SHRA FEW015TCU SCT040 24/21 A2994 NOSIG=
201208132300 METAR MROC 132300Z 25009KT 9999 4500N VCSH FEW010TCU SCT040 22/20 A2995 NOSIG=
201208132357 METAR MROC 140000Z 28005KT 9999 4500N VCSH FEW010 BKN025 21/19 A2999 NOSIG=
201208140000 METAR MROC 140000Z 28005KT 9999 4500N VCSH FEW010 BKN025 21/19 A2999 NOSIG=
201208140100 METAR MROC 140100Z 26003KT 5000 -RA BR FEW008 BKN015 21/19 A3002 NOSIG=
201208140200 METAR MROC 140200Z 22002KT 9999 -RA BCFG FEW008 SCT025 BKN100 21/19 A3005 NOSIG=
201208140300 METAR MROC 140300Z 00000KT 9999 4500SW FEW005 SCT030 SCT090 21/19 A3006 NOSIG=
201208140400 METAR MROC 140400Z 00000KT 9999 SCT020 20/19 A3007 NOSIG=
201208140500 METAR MROC 140500Z 26003KT 9999 2000SW FEW002 20/19 A3006 NOSIG=
201208140600 METAR MROC 140600Z 00000KT 9999 2000SW FEW005 19/18 A3005 NOSIG=
201208140700 METAR MROC 140700Z 00000KT 9999 2000SW FEW003 19/18 A3003 NOSIG=
201208140800 METAR MROC 140800Z 00000KT 9999 0300SW SCT002 19/18 A3002 NOSIG=
201208140900 METAR MROC 140900Z 00000KT 9999 VCFG FEW001 18/17 A2999 NOSIG=
201208141000 METAR MROC 141000Z 10004KT CAVOK 18/16 A2997 NOSIG=
201208141100 METAR MROC 141100Z 09007KT CAVOK 17/17 A2997 NOSIG=
201208141200 METAR MROC 141200Z 06005KT CAVOK 18/16 A2998 NOSIG=
201208141300 METAR MROC 141300Z 07005KT CAVOK 22/17 A3002 NOSIG=
201208141400 METAR MROC 141400Z 29003KT 9999 FEW040 BKN120 24/17 A3005 NOSIG=
201208141500 METAR MROC 141500Z 27005KT 9999 FEW035 SCT120 25/19 A3005 NOSIG=
201208141600 METAR MROC 141600Z 24006KT 9999 SCT030 SCT250 25/19 A3005 NOSIG=
201208141700 METAR MROC 141700Z 24006KT 9999 SCT030 SCT250 26/18 A3003 NOSIG=
201208141755 METAR MROC 171800Z 25007KT 9999 VCSH SCT020TCU BKN030 26/19 A3000 BECMG SHRA=
201208141800 METAR MROC 141800Z 25007KT 9999 SCT020TCU BKN030 26/19 A3000 BECMG SHRA=
201208141827 METAR MROC 171800Z 25007KT 9999 VCSH SCT020TCU BKN030 26/19 A3000 BECMG SHRA=
201208141900 METAR MROC 141900Z 18009KT 2000 0800SW TSRA SCT010CB BKN020 20/18 A3000 NOSIG=
201208142000 METAR MROC 142000Z 01003KT 7000 3000N -RA FEW001 SCT025 BKN100 21/19 A2998 NOSIG=
201208142100 METAR COR MROC 142100Z 32003KT 8000 2000SW VCFG FEW001 SCT020 BKN100 21/19 A2998 BECMG 5000 RA BR=
201208142200 METAR MROC 142200Z 16002KT 2000 -RA BR FEW001 SCT010 OVC100 20/19 A2997 BECMG BKN010=
201208142300 METAR COR MROC 142300Z 00000KT 9999 FEW010 OVC100 20/19 A2997 BECMG RA=
201208150000 METAR MROC 150000Z 00000KT 9999 VCFG FEW010 OVC100 21/19 A2999 BECMG 5000 BR=
201208150100 METAR MROC 150100Z 00000KT 9999 FEW020 BKN100 21/18 A3000 BECMG 5000 BR=
201208150200 METAR MROC 150200Z 28003KT 8000 2000S VCFG FEW001 SCT020 BKN100 20/19 A3004 BECMG 3000 BR=
201208150300 METAR MROC 150300Z 16002KT 0200 FG OVC001 20/18 A3005 BECMG 2000 BR=
201208150400 METAR MROC 150400Z 10002KT 9999 FEW030 BKN100 20/19 A3005 NOSIG=
201208150500 METAR MROC 150500Z 09007KT 9999 FEW030 BKN100 19/18 A3004 NOSIG=
201208150600 METAR MROC 150600Z 03005KT CAVOK 18/17 A3002 NOSIG=
201208150700 METAR MROC 150700Z 07003KT CAVOK 18/15 A3001 NOSIG=
201208150800 METAR MROC 150800Z 06003KT CAVOK 18/16 A2999 NOSIG=
201208150900 METAR MROC 150900Z 04004KT CAVOK 18/16 A2998 NOSIG=
201208151000 METAR MROC 151000Z 10004KT CAVOK 17/16 A2998 NOSIG=
201208151100 METAR MROC 151100Z 04003KT CAVOK 18/16 A2999 NOSIG=
201208151200 METAR MROC 151200Z 11004KT CAVOK 18/16 A3000 NOSIG=
201208151300 METAR MROC 151300Z 08003KT CAVOK 20/16 A3002 NOSIG=
201208151400 METAR MROC 151400Z 08003KT CAVOK 20/16 A3002 NOSIG=
201208151500 METAR MROC 151500Z 23002KT CAVOK 25/18 A3005 NOSIG=
201208151600 METAR MROC 151600Z 25007KT 9999 FEW040 SCT250 25/19 A3005 NOSIG=
201208151700 METAR MROC 151700Z 25010KT 9999 FEW040 25/19 A3005 NOSIG=
201208151800 METAR MROC 151800Z 25009KT 9999 SCT030 25/20 A3004 NOSIG=
201208151900 METAR MROC 151900Z 26010KT 9999 SCT030 25/20 A3001 BECMG SHRA=
201208152000 METAR MROC 152000Z 24010KT 9999 FEW010TCU SCT0300 25/20 A2998 BECMG SHRA=
201208152100 METAR MROC 152100Z 25010KT 9999 RA VCSH FEW015CB SCT030 BKN100 24/19 A2996 BECMG 5000 TSRA=
201208152200 METAR MROC 152200Z 25008KT 9999 -RA VCSH FEW015CB SCT025 BKN100 22/20 A2997 BECMG 5000 TSRA=
201208152300 METAR MROC 152300Z 25006KT 5000 -RA BR SCT005 SCT010 21/20 A2998 NOSIG=
201208160000 METAR MROC 160000Z 26007KT 8000 -RA VCFG SCT010 BKN025 20/19 A3001 NOSIG=
201208160100 METAR MROC 160100Z 26004KT 9999 VCFG SCT005 BKN020 20/19 A3003 NOSIG=
201208160200 METAR MROC 160200Z 07010KT 1500 +SHRA VCTS SCT010 BKN020 20/19 A3010 BECMG 5000=
201208160300 METAR MROC 160300Z 05004KT 8000 -RA VCFG SCT015 BKN035 19/18 A3009 NOSIG=
201208160400 METAR MROC 160400Z 08002KT 8000 RA VCFG SCT015 BKN035 19/18 A3011 NOSIG=
201208160500 METAR MROC 160500Z 11003KT 9999 -RA FEW015 SCT035 BKN100 19/18 A3010 NOSIG=
201208160600 METAR MROC 160600Z 09005KT 9999 FEW015 BKN100 19/18 A3007 NOSIG=
201208160700 METAR MROC 160700Z 08005KT CAVOK 19/17 A3003 NOSIG=
201208160800 METAR MROC 160800Z 07006KT CAVOK 20/17 A3000 NOSIG=
201208160900 METAR MROC 160900Z 07006KT CAVOK 20/17 A2999 NOSIG=
201208161000 METAR MROC 161000Z 07008KT CAVOK 21/16 A2999 NOSIG=
201208161100 METAR MROC 161100Z 08006KT CAVOK 21/17 A3000 NOSIG=
201208161200 METAR MROC 161200Z 07004KT 9999 FEW045 BKN180 21/16 A3002 NOSIG=
201208161300 METAR MROC 161300Z 03005KT CAVOK 23/17 A3005 NOSIG=
201208161400 METAR MROC 161400Z 11009KT CAVOK 23/17 A3005 NOSIG=
201208161500 METAR MROC 161500Z 11010KT CAVOK 25/17 A3006 NOSIG=
201208161600 METAR MROC 161600Z 11007KT CAVOK 27/17 A3005 NOSIG=
201208161700 METAR MROC 161700Z 10011KT 9999 FEW040 SCT250 27/17 A3005 BECMG 24006KT=
201208161800 METAR MROC 161800Z 13003KT 9999 SCT040 27/20 A3004 NOSIG=
201208161900 METAR MROC 161900Z 25007KT 9999 BKN040 25/20 A3003 NOSIG=
201208162000 METAR MROC 162000Z 25006KT 9999 SCT030 BKN120 25/20 A3001 NOSIG=
201208162100 METAR MROC 162100Z 23007KT 9999 FEW015 SCT030 BKN120 24/21 A3000 BECMG -RA=
201208162200 METAR MROC 162200Z 23009KT 9999 VCSH FEW015 SCT025 BKN090 23/20 A3000 BECMG -RA=
201208162300 METAR MROC 162300Z 25004KT 9999 VCFG FEW015 SCT030 BKN100 22/20 A3003 NOSIG=
201208170000 METAR MROC 170000Z 25006KT 8000 VCFG FEW003 BKN012 21/20 A3006 BECMG 5000 BR=
201208170100 METAR MROC 170100Z 26003KT 4500 2000SW BR FEW002 SCT006 21/20 A3006 BECMG 8000 VCFG=
201208170200 METAR MROC 170200Z 20003KT 5000 2000SW BR BKN005 21/19 A3008 NOSIG=
201208170300 METAR MROC 170300Z 15002KT 8000 VCFG FEW002 SCT120 21/19 A3010 NOSIG=
201208170400 METAR MROC 170400Z 00000KT 9999 FEW020 SCT120 21/21 A3012 NOSIG=
201208170500 METAR MROC 170500Z 05002KT CAVOK 21/19 A3010 NOSIG=
201208170600 METAR MROC 170600Z 14003KT CAVOK 20/18 A3006 NOSIG=
201208170700 METAR MROC 170700Z 05004KT CAVOK 20/17 A3002 NOSIG=
201208170800 METAR MROC 170800Z 06005KT CAVOK 20/17 A2999 NOSIG=
201208170900 METAR MROC 170900Z 05006KT CAVOK 21/16 A2998 NOSIG=
201208171000 METAR MROC 171000Z 11008KT CAVOK 22/16 A2999 NOSIG=
201208171100 METAR MROC 171100Z 10009KT CAVOK 22/16 A3000 NOSIG=
201208171200 METAR MROC 171200Z 11007KT CAVOK 21/16 A3000 NOSIG=
201208171300 METAR MROC 171300Z 09009KT CAVOK 22/16 A3003 NOSIG=
201208171400 METAR MROC 171400Z 11011KT CAVOK 22/16 A3004 NOSIG=
201208171500 METAR MROC 171500Z 11013KT CAVOK 23/16 A3006 NOSIG=
201208171600 METAR MROC 171600Z 11009KT CAVOK 24/17 A3007 NOSIG=
201208171700 METAR MROC 171700Z 09006KT CAVOK 26/17 A3006 NOSIG=
201208171800 METAR MROC 171800Z 08007KT 9999 FEW035 SCT100 BKN250 26/17 A3005 BECMG 24006KT=
201208171900 METAR MROC 171900Z 11008KT 9999 FEW030 SCT100 BKN250 25/17 A3003 BECMG 24006KT=
201208172000 METAR MROC 172000Z 19010KT 9999 FEW035 BKN250 24/20 A3002 BECMG 25006KT=
201208172100 METAR MROC 172100Z 22006KT 8000 RA SCT025 BKN100 23/18 A3002 BECMG 5000 RA=
201208172125 METAR MROC 172125Z 16004KT 2000 -RA SCT020 BKN100 21/19 A3003 NOSIG=
201208172200 METAR MROC 172200Z 18003KT 9999 SCT020 OVC100 20/19 A3003 NOSIG=
201208172300 METAR MROC 172300Z 32008KT 9999 FEW020 BKN100 21/19 A3005 NOSIG=
201208180000 METAR MROC 180000Z 30002KT 9999 FEW030 BKN130 21/18 A3005 NOSIG=
201208180100 METAR MROC 180100Z 27005KT 9999 FEW015 SCT030 BKN130 20/18 A3008 BECMG 8000 VCFG=
201208180200 METAR MROC 180200Z 03003KT 9999 FEW015 SCT030 BKN130 20/18 A3008 NOSIG=
201208180300 METAR MROC 180300Z 11003KT CAVOK 19/18 A3008 NOSIG=
201208180400 METAR MROC 180400Z 05003KT CAVOK 19/18 A3007 NOSIG=
201208180500 METAR MROC 180500Z 07004KT CAVOK 18/16 A3005 NOSIG=
201208180600 METAR MROC 180600Z 06006KT CAVOK 19/17 A3002 NOSIG=
201208180700 METAR MROC 180700Z 09006KT  CAVOK 20/15 A3000 NOSIG=
201208180800 METAR MROC 180800Z 09008KT CAVOK 21/14 A2998 NOSIG=
201208180900 METAR MROC NIL=
201208181000 METAR MROC 181000Z 10010KT CAVOK 22/14 A3001 NOSIG=
201208181100 METAR MROC 181100Z 12005KT CAVOK 21/15 A3002 NOSIG=
201208181200 METAR MROC 181200Z 10007KT CAVOK 21/14 A3004 NOSIG=
201208181300 METAR MROC 181300Z 12006KT 9999 FEW035 BKN120 22/15 A3007 BECMG 24006KT=
201208181400 METAR MROC 181400Z 11009KT CAVOK 22/16 A3008 NOSIG=
201208181500 METAR MROC 181500Z 11007KT CAVOK 25/16 A3007 NOSIG=
201208181600 METAR MROC 181600Z 11004KT CAVOK 27/16 A3006 NOSIG=
201208181700 METAR MROC 181700Z 24009KT 9999 FEW035 BKN120 26/18 A3007 NOSIG=
201208181800 METAR MROC 181800Z 24005KT 9999 SCT030 SCT250 27/18 A3005 NOSIG=
201208181900 METAR MROC 181900Z 24009KT 9999 SCT030 SCT120 27/19 A3001 NOSIG=
201208182000 METAR MROC 182000Z 24011KT 9999 SCT030 SCT120 26/20 A2999 NOSIG=
201208182100 METAR MROC 182100Z 26012KT 9999 -RA VCSH FEW020TCU SCT035 SCT120 23/19 A2999 BECMG SHRA=
201208182200 METAR MROC 182200Z 26004KT 9999 VCTS SCT015CB BKN100 23/18 A3000 BECMG SHRA=
201208182300 METAR MROC 182300Z 16004KT 9999 3000NW RA VCTS FEW015CB SCT035 BKN100 21/19 A3001 RETS BECMG 24004KT=
201208182354 METAR MROC 190000Z 26004KT 9999 3000NW FEW015 SCT120 SCT250 21/19 A3001 NOSIG=
201208190000 METAR MROC 190000Z 26004KT 9999 3000NW FEW015 SCT120 SCT250 21/19 A3001 NOSIG=
201208190100 METAR MROC 190100Z 27003KT 9999 BCFG SCT004 BKN120 21/19 A3002 NOSIG=
201208190200 METAR MROC 190200Z 25004KT 5000 BR SCT002 BKN030 21/19 A3004 NOSIG=
201208190300 METAR MROC 190300Z 24003KT 2000 BR FEW002 BKN004 20/19 A3005 NOSIG=
201208190400 METAR MROC 190400Z 00000KT 8000 VCFG FEW004 SCT007 20/19 A3007 NOSIG=
201208190500 METAR MROC 190500Z 10002KT 9999 VCFG FEW005 SCT012 20/19 A3007 NOSIG=
201208190600 METAR MROC 190600Z 24003KT 9999 FEW006 SCT012 20/19 A3006 NOSIG=
201208190700 METAR MROC 190700Z 00000KT 9999 FEW008 SCT100 19/18 A3006 NOSIG=
201208190800 METAR MROC 190800Z 11002KT CAVOK 18/17 A3004 NOSIG=
201208190900 METAR MROC 190900Z 08005KT CAVOK 18/16 A3004 NOSIG=
201208191000 METAR MROC 191000Z 05006KT CAVOK 18/15 A3004 NOSIG=
201208191100 METAR MROC 191100Z 09007KT CAVOK 17/15 A3005 NOSIG=
201208191200 METAR MROC 191200Z 07004KT CAVOK 18/15 A3006 NOSIG=
201208191300 METAR MROC 191300Z 08005KT CAVOK 22/16 A3009 NOSIG=
201208191400 METAR MROC 191400Z 12003KT CAVOK 25/16 A3010 NOSIG=
201208191500 METAR MROC 191500Z 20004KT CAVOK 27/17 A3010 NOSIG=
201208191600 METAR MROC 191600Z 25008KT 9999 FEW035 SCT250 25/18 A3011 NOSIG=
201208191700 METAR MROC 191700Z 25008KT 9999 SCT035 SCT250 26/19 A3009 NOSIG=
201208191800 METAR MROC 191800Z 23007KT 9999 BKN030 SCT250 26/19 A3007 NOSIG=
201208191900 METAR MROC 191900Z 23009KT 9999 BKN025TCU 28/20 A3005 NOSIG=
201208192000 METAR MROC 192000Z 21008KT 3000 +TSRA BKN020CB 23/20 A3005 NOSIG=
201208192100 METAR MROC 192100Z 15004KT 9999 SCT020 OVC100 19/18 A3005 RERA NOSIG=
201208192200 METAR MROC 192200Z 04004KT 9999 FEW035 OVC100 20/18 A3006 BECMG TSRA=
201208192300 METAR MROC 192300Z 11004KT 9999 FEW035 OVC100 20/19 A3005 BECMG 5000 BR=
201208200000 METAR MROC 200000Z 07005KT CAVOK 20/18 A3003 NOSIG=
201208200100 METAR MROC 200100Z 11003KT CAVOK 18/15 A3006 NOSIG=
201208200200 METAR MROC 200200Z 07002KT CAVOK 20/17 A3002 NOSIG=
201208200300 METAR MROC 200300Z 00000KT CAVOK 20/17 A3006 NOSIG=
201208200400 METAR MROC NIL=
201208200500 METAR MROC 200500Z 03005KT CAVOK 19/16 A3007 NOSIG=
201208200600 METAR MROC 200600Z 11003KT CAVOK 19/16 A3007 NOSIG=
201208200700 METAR MROC NIL=
201208200800 METAR MROC 200800Z 09005KT CAVOK 17/15 A3005 NOSIG=
201208200900 METAR MROC 200900Z 06003KT CAVOK 17/15 A3003 NOSIG=
201208201000 METAR MROC 201000Z 04006KT CAVOK 17/15 A3002 NOSIG=
201208201100 METAR MROC 201100Z 04004KT CAVOK 17/15 A3004 NOSIG=
201208201200 METAR MROC 201200Z 04004KT CAVOK 18/15 A3005 NOSIG=
201208201300 METAR MROC 201300Z 09002KT CAVOK 21/16 A3007 NOSIG=
201208201400 METAR MROC 201400Z 07004KT CAVOK 23/16 A3008 BECMG 24006KT=
201208201500 METAR MROC 201500Z 30002KT CAVOK 27/17 A3008 BECMG 24006KT=
201208201600 METAR MROC 201600Z 24006KT 9999 FEW040 SCT250 26/19 A3007 NOSIG=
201208201700 METAR MROC 201700Z 27004KT 9999 FEW040 SCT250 28/18 A3006 NOSIG=
201208201800 METAR MROC 201800Z 23009KT 9999 SCT040 27/19 A3004 NOSIG=
201208201900 METAR MROC 201900Z 24008KT 9999 SCT030 27/20 A3002 NOSIG=
201208202000 METAR MROC 202000Z 26008KT 9999 FEW015 SCT030 25/20 A2999 BECMG TSRA=
201208202100 METAR MROC 202100Z 27004KT 9999 VCSH FEW015CB BKN025 24/21 A2999 RETSRA BECMG 7000 RA=
201208202200 METAR MROC 202200Z 12005KT 9999 -RA VCTS FEW015CB SCT030 BKN250 21/19 A3001 RMK TS DST WNW NOSIG=
201208202201 METAR MROC 202201Z 12005KT 9999 -RA VCTS FEW015CB SCT030 BKN120 21/19 A3001 NOSIG=
201208202300 METAR MROC 202300Z 27006KT 9999 BCFG FEW030 SCT100 BKN130 21/18 A3002 RMK VIS S SW 5KMS DUE FOG BECMG 5000 BR=
201208210000 METAR MROC 210000Z 27002KT 9999 -RA BCFG OVC100 20/18 A3004 NOSIG=
201208210100 METAR MROC NIL=
201208210200 METAR MROC 210200Z 00000KT 9999 FEW035 SCT120 20/18 A3008 NOSIG=
201208210300 METAR MROC 210300Z 11003KT 9999 FEW035 SCT200 19/18 A3008 NOSIG=
201208210400 METAR MROC 210400Z 08002KT 9999 FEW035 SCT120 19/18 A3010 NOSIG=
201208210500 METAR MROC 210500Z 07003KT 9999 FEW035 BKN120 19/18 A3008 NOSIG=
201208210600 METAR MROC 210600Z 08004KT 9999 FEW035 SCT120 BKN250 19/17 A3005 NOSIG=
201208210700 METAR MROC 210700Z 06003KT CAVOK 19/18 A3002 NOSIG=
201208210800 METAR MROC 210800Z 06006KT CAVOK 19/17 A3000 NOSIG=
201208210900 METAR MROC 210900Z 05007KT CAVOK 19/17 A2998 NOSIG=
201208211000 METAR MROC 211000Z 04004KT CAVOK 19/17 A2998 NOSIG=
201208211100 METAR MROC 211100Z 10003KT CAVOK 19/16 A3000 NOSIG=
201208211200 METAR MROC 211200Z 27004KT 9999 FEW035 SCT120 19/17 A3002 NOSIG=
201208211300 METAR MROC 211300Z 29004KT 9999 FEW035 22/18 A3004 NOSIG=
201208211400 METAR MROC 211400Z 24004KT 9999 SCT020 22/19 A3005 NOSIG=
201208211500 METAR MROC 211500Z 26004KT 9999 BKN020 24/19 A3007 NOSIG=
201208211600 METAR MROC 211600Z 25004KT 9999 FEW020 SCT035 25/18 A3007 NOSIG=
201208211700 METAR MROC 211700Z 22006KT 9999 FEW020TCU SCT030 24/18 A3005 BECMG 8000 VCSH=
201208211800 METAR MROC 211800Z 24006KT 9999 FEW020TCU SCT030 24/19 A3004 BECMG 8000 VCSH=
201208211900 METAR MROC 211900Z 24006KT 9999 FEW020TCU SCT030 27/20 A3001 BECMG 6000 -SHRA=
201208212000 METAR MROC 212000Z 24009KT 9999 FEW020 SCT030 25/20 A2998 BECMG 5000 -SHRA=
201208212100 METAR MROC 212100Z 24012KT 9999 VCSH FEW015 BKN030 22/20 A2999 BECMG RA=
201208212200 METAR MROC 212200Z 26008KT 9000 4000SW VCFG FEW006 SCT015 BKN030 21/19 A3001 BECMG RA=
201208212300 METAR MROC 212300Z 30004KT 9999 -RA SCT015 BKN030 21/19 A3003 BECMG 2000 -DZ BR=
201208220000 METAR MROC 220000Z 25003KT 9999 3000SW VCFG SCT004 SCT025 BKN100 21/19 A3004 BECMG 2000 BR=
201208220100 METAR MROC 220100Z 29002KT 9999 VCFG FEW010 SCT025 21/19 A3005 NOSIG=
201208220200 METAR MROC 220200Z 10002KT 9999 FEW015 SCT030 20/19 A3005 NOSIG=
201208220300 METAR MROC 220300Z 04003KT CAVOK 20/19 A3005 NOSIG=
201208220400 METAR MROC 220400Z 06006KT CAVOK 21/18 A3004 NOSIG=
201208220500 METAR MROC 220500Z 06003KT CAVOK 20/18 A3003 NOSIG=
201208220600 METAR MROC 220600Z 32003KT CAVOK 20/18 A3004 NOSIG=
201208220700 METAR MROC 220700Z 33002KT 8000 2000SW VCFG FEW001 SCT005 20/18 A3002 NOSIG=
201208220800 METAR MROC 220800Z 00000KT 8000 2000SW VCFG FEW001 SCT005 20/18 A3002 NOSIG=
201208220900 METAR MROC 220900Z 07002KT 9999 2000SW VCFG FEW001 SCT020 19/18 A3003 NOSIG=
201208221000 METAR MROC 221000Z 02003KT 9999 FEW001 SCT040 19/17 A3002 NOSIG=
201208221100 METAR MROC 221100Z 09004KT 9999 VCFG FEW001 SCT250 18/17 A3002 NOSIG=
201208221200 METAR MROC 221200Z 07004KT 9999 FEW030 SCT250 18/16 A3004 NOSIG=
201208221300 METAR MROC 221300Z 06007KT 9999 VCFG FEW025 SCT250 21/17 A3005 NOSIG=
201208221400 METAR MROC 221400Z 05004KT CAVOK 23/17 A3006 BECMG 22006KT=
201208221500 METAR MROC 221500Z 09005KT 9999 FEW040 SCT250 26/18 A3007 BECMG 22006KT=
201208221600 METAR MROC 221600Z 14005KT 9999 FEW035 SCT250 28/18 A3005 BECMG 22006KT=
201208221700 METAR MROC 221700Z 28006KT 9999 SCT030 SCT250 26/18 A3004 NOSIG=
201208221800 METAR MROC 221800Z 23008KT 9999 FEW020TCU SCT035 SCT250 26/19 A3002 BECMG RA=
201208221900 METAR MROC 221900Z 24008KT 9999 VCSH FEW015TCU BKN030 25/21 A3001 BECMG 8000 RA=
201208222000 METAR MROC 222000Z 26006KT 9999 2000W -TSRA FEW010CB SCT025 BKN035 19/18 A2999 NOSIG=
201208222100 METAR MROC 222100Z 29002KT 9999 FEW003 SCT030 OVC100 20/18 A2998 BECMG 8000 VCFG=
201208222200 METAR MROC 222200Z 30003KT 9999 FEW004 SCT030 BKN110 21/20 A2999 NOSIG=
201208222300 METAR MROC 222300Z 24005KT 9999 -RA FEW005 SCT030 OVC110 21/19 A3000 NOSIG=
201208230000 METAR MROC 230000Z 28002KT 9999 FEW005 SCT030 BKN110 20/19 A3000 NOSIG=
201208230100 METAR MROC 230100Z 13002KT 9999 FEW005 SCT030 BKN120 20/18 A3004 NOSIG=
201208230200 METAR MROC 230200Z 29002KT 9999 SCT030 SCT120 21/19 A3005 NOSIG=
201208230300 METAR MROC 230300Z 30002KT 9999 FEW015 SCT025 BKN120 20/19 A3006 NOSIG=
201208230400 METAR MROC 230400Z 13002KT 9999 FEW030 BKN120 19/18 A//// NOSIG=
201208230500 METAR MROC 230500Z 04006KT CAVOK 19/18 A3004 NOSIG=
201208230600 METAR MROC 230600Z 04004KT CAVOK 19/17 A3002 NOSIG=
201208230700 METAR MROC 230700Z 00000KT CAVOK 19/17 A3001 NOSIG=
201208230800 METAR MROC 230800Z 00000KT CAVOK 18/17 A3000 NOSIG=
201208230900 METAR MROC 230900Z 06004KT CAVOK 18/17 A2999 NOSIG=
201208231000 METAR MROC 231000Z 07004KT CAVOK 18/16 A2998 NOSIG=
201208231100 METAR MROC 231100Z 04007KT CAVOK 19/16 A2999 NOSIG=
201208231200 METAR MROC 231200Z 03008KT CAVOK 19/16 A3000 NOSIG=
201208231300 METAR MROC 231300Z 06008KT CAVOK 21/17 A3002 NOSIG=
201208231400 METAR MROC 231400Z 10005KT CAVOK 24/18 A3003 NOSIG=
201208231500 METAR MROC 231500Z 10006KT 9999 FEW035 SCT250 26/17 A3003 NOSIG=
201208231600 METAR MROC 231600Z 11005KT 9999 SCT035 SCT250 27/17 A3003 NOSIG=
201208231700 METAR MROC 231700Z 15005KT 9999 SCT030 SCT250 29/16 A3001 NOSIG=
201208231800 METAR MROC 231800Z 24011KT 9999 SCT030 SCT250 26/20 A2999 NOSIG=
201208231900 METAR MROC 231900Z 23012KT 9999 4000N -RA FEW012TCU SCT025 26/21 A2998 BECMG 5000 RA=
201208232000 METAR MROC 232000Z 25006KT 4000 RA SCT004 BKN010CB 22/21 A2997 BECMG 4000 TSRA=
201208232100 METAR MROC 232100Z 18007KT 9999 4000N SHRA FEW010 SCT025 BKN100 20/19 A2996 RETS NOSIG=
201208232200 METAR MROC 232200Z 20006KT 9999 4000NW FEW010 SCT035 BKN100 21/19 A2997 RESHRA NOSIG=
201208232300 METAR MROC 232300Z 28006KT 9999 BKN020 21/19 A2996 NOSIG=
201208232353 METAR MROC 240000Z 30003KT 9999 SCT010 BKN020 20/19 A2998 NOSIG=
201208240000 METAR MROC 240000Z 30003KT 9999 SCT010 BKN020 20/19 A2998 NOSIG=
201208240100 METAR MROC 240100Z 06002KT 9999 FEW030 BKN120 20/19 A2998 NOSIG=
201208240200 METAR MROC 240200Z 16003KT 9999 -DZ FEW030 BKN120 20/19 A3000 NOSIG=
201208240300 METAR MROC 240300Z 30002KT 9999 FEW030 SCT120 20/19 A3002 NOSIG=
201208240400 METAR MROC 240400Z 06002KT 9999 FEW030 20/19 A3002 NOSIG=
201208240500 METAR MROC 240500Z 08005KT CAVOK 19/18 A3000 NOSIG=
201208240600 METAR MROC 240600Z 07004KT CAVOK 19/17 A2997 NOSIG=
201208240700 METAR MROC NIL=
201208240800 METAR MROC NIL=
201208240900 METAR MROC 240900Z VRB02KT 0500 FG BKN001 18/18 A2994 NOSIG=
201208241000 METAR MROC 241000Z 06003KT 0300 FG VV/// 17/17 A2996 BECMG 2000 BR=
201208241100 METAR MROC 241100Z 06004KT 9999 FEW003 17/16 A2997 NOSIG=
201208241200 METAR MROC 241200Z 07005KT CAVOK 17/16 A2997 NOSIG=
201208241300 METAR MROC 241300Z 10004KT CAVOK 20/18 A3000 NOSIG=
201208241400 METAR MROC 241400Z 05003KT CAVOK 23/18 A3000 BECMG 24006KT=
201208241500 METAR MROC 241500Z 25005KT 9999 FEW035 BKN250 24/18 A3001 NOSIG=
201208241600 METAR MROC 241600Z 26006KT 9999 FEW030 SCT250 25/19 A3000 NOSIG=
201208241700 METAR MROC 241700Z 22007KT 9999 SCT025TCU SCT250 26/18 A2998 NOSIG=
201208241755 METAR MROC 271800Z 26005KT 9999 SCT025TCU SCT250 27/18 A2995 NOSIG=
201208241800 METAR MROC 241800Z 26005KT 9999 SCT025TCU SCT250 27/18 A2995 NOSIG=
201208241900 METAR MROC 241900Z 25008KT 9999 SCT025TCU SCT250 28/18 A2992 NOSIG=
201208242000 METAR MROC 242000Z 25009KT 9999 SCT025 SCT250 27/21 A2991 NOSIG=
201208242100 METAR MROC 242100Z 25010KT 9999 FEW010TCU SCT030 26/22 A2989 BECMG TSRA=
201208242200 METAR MROC 242200Z 24010KT 9999 FEW010TCU SCT030 25/21 A2989 BECMG TSRA=
201208242300 METAR COR MROC 242300Z 24007KT 9999 -RA FEW010 SCT030 BKN100 23/21 A2991 BECMG TSRA=
201208250000 METAR MROC 250000Z 24007KT 8000 VCFG FEW001 SCT010 BKN030 22/21 A2994 BECMG 3000 BR BKN010=
201208250100 METAR MROC 250100Z 23004KT 9999 SCT010 BKN100 22/20 A2995 BECMG 5000 BR BKN015=
201208250200 METAR MROC 250200Z 26004KT 9999 SCT010 BKN100 22/20 A2998 BECMG 5000 BR BKN015=
201208250300 METAR MROC 250300Z 29003KT 5000 BR FEW005 SCT015 OVC100 21/20 A2999 BECMG 2000 -RA BR=
201208250400 METAR MROC 250400Z 23005KT 8000 VCFG FEW005 SCT015 OVC100 21/20 A3001 NOSIG=
201208250500 METAR MROC NIL=
201208250600 METAR MROC 250600Z 03004KT 9999 FEW005 BKN120 21/19 A2997 NOSIG=
201208250700 METAR MROC NIL=
201208250800 METAR MROC 250800Z 26002KT 9999 SCT020 SCT120 20/19 A2993 NOSIG=
201208250900 METAR MROC 250900Z 03004KT 9999 SCT025 20/18 A2993 NOSIG=
201208251000 METAR MROC 251000Z 11003KT CAVOK 20/18 A2993 NOSIG=
201208251100 METAR MROC 251100Z 04004KT CAVOK 19/17 A2994 NOSIG=
201208251200 METAR MROC 251200Z 222002KT 9999 FEW006 BKN250 19/17 A2995 NOSIG=
201208251300 METAR MROC 251300Z 12003KT CAVOK 21/18 A2996 NOSIG=
201208251400 METAR MROC 251400Z 00000KT CAVOK 24/19 A2999 BECMG 26006KT=
201208251500 METAR MROC 251500Z 26003KT 9999 FEW040 BKN250 25/18 A2998 NOSIG=
201208251600 METAR MROC 251600Z 25006KT 9999 FEW040 BKN250 26/19 A2997 NOSIG=
201208251700 METAR MROC 251700Z 26008KT 9999 SCT040 BKN250 26/20 A2996 NOSIG=
201208251800 METAR MROC 251800Z 24009KT 9999 SCT040 BKN250 26/20 A2995 NOSIG=
201208251900 METAR MROC 251900Z 25011KT 9999 SCT040 SCT250 26/21 A2991 BECMG SHRA=
201208252000 METAR MROC 252000Z 24012KT 9999 FEW010TCU BKN030 25/21 A2990 BECMG SHRA=
201208252100 METAR MROC 252100Z 25009KT 9999 SCT015 BKN025 24/20 A2991 BECMG 5000 SHRA=
201208252200 METAR MROC 252200Z 24009KT 9999 FEW015TCU SCT025 BKN120 23/19 A2991 NOSIG=
201208252300 METAR MROC 252300Z 23009KT 9999 FEW015TCU SCT025 BKN120 22/19 A2994 NOSIG=
201208260000 METAR MROC 260000Z 23006KT 9999 FEW015TCU BKN025 21/19 A2996 BECMG 6000 RA=
201208260100 METAR MROC 260100Z 22008KT 9999 VCFG FEW004 SCT010 BKN030 21/20 A2999 BECMG 7000 RA=
201208260200 METAR MROC 260200Z 30004KT 5000 RA FEW005 SCT015 BKN100 21/19 A3004 NOSIG=
201208260300 METAR MROC 260300Z 13002KT 5000 -RA BR FEW005 SCT015 BKN100 20/19 A3006 NOSIG=
201208260400 METAR MROC 260400Z 08005KT 9999 -RA FEW015 BKN100 19/18 A3001 NOSIG=
201208260500 METAR MROC 260500Z 10004KT CAVOK 19/18 A2995 NOSIG=
201208260600 METAR MROC 260600Z 13002KT CAVOK 20/17 A2995 NOSIG=
201208260700 METAR MROC 260700Z 30004G14KT 9999 BKN020 19/18 A2997 NOSIG=
201208260800 METAR MROC 260800Z 31004KT 9999 FEW020 SCT120 19/17 A2995 NOSIG=
201208260900 METAR MROC 260900Z 09003KT CAVOK 19/17 A2995 NOSIG=
201208261000 METAR MROC 261000Z 08005KT CAVOK 19/17 A2994 NOSIG=
201208261100 METAR MROC 261100Z 06007KT CAVOK 19/16 A2995 NOSIG=
201208261200 METAR MROC 261200Z 07006KT CAVOK 19/16 A2996 NOSIG=
201208261300 METAR MROC 261300Z 07004KT CAVOK 23/17 A2998 NOSIG=
201208261400 METAR MROC NIL=
201208261500 METAR MROC 261500Z 23011KT CAVOK 21/18 A3003 NOSIG=
201208261600 METAR MROC 261600Z 26008KT 9999 FEW030 BKN120 23/19 A3004 NOSIG=
201208261700 METAR MROC 261700Z 30005KT 9999 SCT030 BKN120 24/18 A3003 NOSIG=
201208261800 METAR MROC 261800Z 27002KT 9999 -RA FEW030 SCT120 25/18 A3000 NOSIG=
201208261900 METAR MROC 261900Z 12002KT 9999 FEW030 BKN120 26/18 A2996 NOSIG=
201208262000 METAR MROC 262000Z 20004KT 9999 DZ FEW030 BKN120 26/18 A2995 NOSIG=
201208262100 METAR MROC 262100Z 25011KT 9999 -DZ FEW010 SCT025 BKN100 22/20 A2996=
201208262200 METAR MROC 262200Z 27006KT 9999 FEW010 FEW010 SCT100 BKN250 22/19 A2995 NOSIG=
201208262300 METAR MROC 262300Z 26004KT 9999 FEW020 SCT100 BKN250 22/19 A2997 NOSIG=
201208270000 METAR MROC 270000Z 11003KT 9999 -DZ FEW040 SCT100 BKN250 21/19 A2998 NOSIG=
201208270100 METAR MROC 270100Z 10003KT CAVOK 21/19 A2999 NOSIG=
201208270200 METAR MROC 270200Z 09003KT CAVOK 22/19 A3000 NOSIG=
201208270300 METAR MROC 270300Z 07005KT CAVOK 22/19 A3000 NOSIG=
201208270400 METAR MROC 270400Z 17004KT CAVOK 21/19 A3001 NOSIG=
201208270500 METAR MROC 270500Z 27005KT 8000 1000SW VCFG FEW001 SCT005 BKN120 20/19 A3003 BECMG 5000 BR=
201208270600 METAR MROC 270600Z 31003KT 9999 VCFG FEW002 SCT015 BKN120 20/19 A3001 NOSIG=
201208270700 METAR MROC 270700Z 10002KT 9999 FEW015 BKN120 21/19 A2999 NOSIG=
201208270800 METAR MROC 270800Z 07003KT 9999 FEW015 BKN120 20/19 A2997 NOSIG=
201208270900 METAR MROC 270900Z 05004KT CAVOK 20/18 A2996 NOSIG=
201208271000 METAR MROC 271000Z 20001KT 9999 3000SW FEW001 SCT120 19/18 A2998 BECMG 3000 BR BKN015=
201208271100 METAR MROC 271100Z 22002KT 9999 4800SW FEW001 BKN120 19/18 A2998 BECMG 3000 BR=
201208271200 METAR MROC 271200Z 00000KT 3000SW VCFG FEW001 BKN120 20/19 A3000 NOSIG=
201208271300 METAR MROC 271300Z 23004KT CAVOK 22/19 A3002 NOSIG=
201208271400 METAR MROC 271400Z 11002KT CAVOK 25/19 A3004 NOSIG=
201208271500 METAR MROC 271500Z 25003KT 9999 FEW035 26/20 A3003 NOSIG=
201208271600 METAR MROC 271600Z 24006KT 9999 FEW035 26/19 A3001 NOSIG=
201208271700 METAR MROC 271700Z 24006KT 9999 SCT035 27/20 A3001 NOSIG=
201208271800 METAR MROC 271800Z 24007KT 9999 SCT035 27/21 A2999 NOSIG=
201208271900 METAR MROC 271900Z 23013KT 9999 SCT030TCU BKN260 27/21 A2996 NOSIG=
201208272000 METAR MROC 272000Z 25010KT 9999 VCSH FEW010 SCT020TCU SCT035 26/21 A2994 BECMG SHRA=
201208272100 METAR MROC 272100Z 24007KT 8000 3000W -TSRA FEW007 SCT012CB OVC100 23/21 A2995 BECMG 9999 -RA=
201208272200 METAR MROC 272200Z 21005KT 9999 4000N -RA FEW005 SCT020 OVC100 22/20 A2995 NOSIG=
201208272300 METAR MROC 272300Z 27005KT 9999 4000N -RA BR FEW005 SCT020 OVC100 22/20 A2995 NOSIG=
201208280000 METAR MROC 280000Z 28002KT 8000 VCFG FEW005 SCT020 BKN100 22/20 A2997 BECMG 6000 BCFG=
201208280100 METAR MROC 280100Z 28002KT 8000 -TSRA FEW010CB SCT020 BKN100 22/20 A3000 BECMG 6000 BCFG=
201208280147 METAR MROC 280147Z 19002KT 8000 3000W -RA BR FEW002 SCT020 OVC100 22/21 A3000 NOSIG=
201208280200 METAR MROC 280200Z 23002KT 8000 3000W -RA BR FEW002 SCT020 OVC100 22/21 A3003 NOSIG=
201208280300 METAR MROC 280300Z 29003KT 8000 VCFG SCT006 BKN015 22/21 A3004 NOSIG=
201208280400 METAR MROC 280400Z 30002KT 5000 BR SCT004 BKN010 21/20 A3005 BECMG 3000=
201208280500 METAR MROC 280500Z 00000KT 5000 BR FEW004 SCT015 21/20 A3003 BECMG 05004KT=
201208280600 METAR MROC 280600Z 00000KT 5000 BR FEW006 BKN020 21/19 A2999 NOSIG=
201208280700 METAR MROC 280700Z 07003KT 8000 VCFG FEW020 BKN120 20/18 A2999 NOSIG=
201208280800 METAR MROC 280800Z 04003KT 9999 SCT020 SCT120 20/18 A2996 NOSIG=
201208280900 METAR MROC 280900Z 00000KT 5000 BR FEW005 SCT020 19/18 A2996 NOSIG=
201208281000 METAR MROC 281000Z 00000KT 0200 FG VV/// 19/18 A2996 NOSIG=
201208281100 METAR MROC 281100Z 04003KT 8000 3000SW VCFG FEW002 SCT015 19/18 A2998 BECMG 9999=
201208281200 METAR MROC 281200Z 07005KT 9999 FEW030 SCT250 18/17 A2997 NOSIG=
201208281300 METAR MROC 281300Z 30002KT 9999 FEW030 SCT250 21/18 A2999 NOSIG=
201208281400 METAR MROC 281400Z 11005KT 9999 FEW030 BKN200 22/17 A3001 NOSIG=
201208281500 METAR MROC 281500Z 07003KT CAVOK 23/18 A3003 NOSIG=
201208281600 METAR MROC 281600Z 28006KT CAVOK 24/18 A3003 NOSIG=
201208281700 METAR MROC 281700Z 26004KT CAVOK 23/19 A3002 NOSIG=
201208281800 METAR MROC 281800Z 25005KT 9999 SCT030 BKN200 23/21 A3000 NOSIG=
201208281900 METAR MROC 281900Z 17002KT 9999 FEW030 BKN200 24/19 A2998 NOSIG=
201208282000 METAR MROC 282000Z 29002KT 9999 FEW030 BKN140 25/18 A2996 NOSIG=
201208282100 METAR MROC 282100Z 24005KT 9999 FEW025 BKN120 24/19 A2995 NOSIG=
201208282200 METAR MROC 282200Z 28005KT 9999 FEW030 SCT120 BKN200 25/18 A2995 NOSIG=
201208282300 METAR MROC 282300Z 23004KT 9999 FEW030 SCT120 BKN200 24/19 A2996 BECMG 5000 BR=
201208282355 METAR MROC 290000Z 26005KT 8000 VCFG FEW030 SCT120 BKN200 22/21 A2998 BECMG 3000 BR=
201208290000 METAR MROC 290000Z 26005KT 8000 VCFG FEW030 SCT120 BKN200 22/21 A2998 BECMG 3000 BR=
201208290100 METAR MROC 290100Z 26002KT 8000 VCFG FEW030 SCT120 BKN200 22/21 A2999 BECMG 3000 BR=
201208290200 METAR MROC 290200Z 18001KT 5000 BR FEW002 SCT120 BKN250 22/20 A3001 NOSIG=
201208290300 METAR MROC 290300Z 26004KT 0800 FG SCT002 BKN005 21/20 A3003 NOSIG=
201208290400 METAR MROC 290400Z 21002KT 5000 2000SW BR FEW002 BKN006 21/20 A3003 NOSIG=
201208290500 METAR MROC 290500Z 10002KT 9999 4800SW FEW006 SCT010 21/20 A3002 NOSIG=
201208290600 METAR MROC 290600Z 07003KT 9999 4000SW FEW004 SCT015 20/19 A3000 NOSIG=
201208290700 METAR MROC 290700Z 05004KT 9999 VCFG SCT010 20/18 A2999 NOSIG=
201208290800 METAR MROC 290800Z 18002KT 9999 VCFG FEW010 19/17 A2997 NOSIG=
201208290900 METAR MROC 290900Z 00000KT CAVOK 19/17 A2997 NOSIG=
201208291000 METAR MROC 291000Z 08005KT 9999 VCFG FEW001 18/17 A2997 NOSIG=
201208291100 METAR MROC 291100Z 05004KT 9999 4000SW BR FEW001 SCT015 18/16 A2997 NOSIG=
201208291200 METAR MROC 291200Z 08005KT CAVOK 18/16 A2997 NOSIG=
201208291300 METAR MROC 291300Z 07004KT CAVOK 20/17 A2998 NOSIG=
201208291400 METAR MROC 291400Z 05004KT CAVOK 24/18 A3001 NOSIG=
201208291500 METAR MROC 291500Z 23008KT 9999 FEW035 BKN250 24/20 A3001 NOSIG=
201208291600 METAR MROC 291600Z 24005KT 9999 FEW030 BKN200 25/19 A3002 NOSIG=
201208291700 METAR MROC 291700Z 25005KT 9999 FEW030 BKN200 25/20 A3001 NOSIG=
201208291800 METAR MROC 291800Z 24008KT 9999 SCT030 BKN200 26/20 A2998 NOSIG=
201208291900 METAR MROC 291900Z 21008KT 9999 -RA FEW015TCU SCT040 BKN200 24/20 A2996 NOSIG=
201208292000 METAR MROC 292000Z 25002KT 9999 FEW025 SCT120 BKN200 25/20 A2993 NOSIG=
201208292100 METAR MROC 292100Z 28003KT 9999 FEW015 SCT030 BKN200 25/20 A2991 NOSIG=
201208292200 METAR MROC 292200Z 18003KT 9999 SCT030 BKN200 25/20 A2989 NOSIG=
201208292300 METAR MROC 292300Z 25005KT 9999 2000SW VCFG FEW001 SCT010 BKN200 23/21 A2989 BECMG 5000 BR=
201208300000 METAR MROC 300000Z 24007KT 2000 BR FEW001 BKN010 22/21 A2995 BECMG 1000=
201208300100 METAR MROC 300100Z 24005KT 3000 BR FEW001 BKN010 21/20 A2999 BECMG 5000=
201208300200 METAR MROC 300200Z 23006KT 8000 VCFG FEW001 SCT020 BKN100 21/19 A3000 NOSIG=
201208300300 METAR MROC 300300Z 26005KT 4000 -RA BR SCT004 SCT010 OVC100 20/19 A3003 BECMG 3000 RA BR=
201208300400 METAR MROC 300400Z 27004KT 5000 -RA BR FEW004 SCT010 OVC100 20/19 A3006 NOSIG=
201208300500 METAR MROC 300500Z 31004KT 5000 -RA BR FEW003 SCT010 OVC100 20/19 A3002 NOSIG=
201208300600 METAR MROC 300600Z 30003KT 9999 FEW006 SCT020 OVC100 20/19 A2998 NOSIG=
201208300700 METAR MROC 300700Z 08005KT 9999 SCT025 BKN110 20/19 A2997 NOSIG=
201208300800 METAR MROC 300800Z 09005KT 9999 FEW035 BKN110 20/18 A2995 NOSIG=
201208300900 METAR MROC 300900Z 24008KT 9999 FEW002 SCT035 BKN110 19/18 A2996=
201208301000 METAR MROC 301000Z 34003KT 9999 SCT035 19/17 A2995 NOSIG=
201208301100 METAR MROC 301100Z 08003KT CAVOK 18/17 A2996 NOSIG=
201208301200 METAR MROC 301200Z 07004KT CAVOK 19/17 A2995 NOSIG=
201208301300 METAR MROC 301300Z 06003KT CAVOK 21/18 A3000 NOSIG=
201208301400 METAR MROC 301400Z 26003KT CAVOK 25/18 A3001 NOSIG=
201208301500 METAR MROC 301500Z 25002KT 9999 FEW040 BKN250 26/18 A3001 NOSIG=
201208301600 METAR MROC 301600Z 13005KT 9999 FEW040 BKN250 27/17 A3002 BECMG 26006KT=
201208301700 METAR MROC 301700Z 23010KT 9999 SCT040 BKN250 25/20 A3002 NOSIG=
201208301800 METAR MROC 301800Z 24010KT 9999 SCT030 SCT250 26/20 A3000 NOSIG=
201208301900 METAR MROC 301900Z 25011KT 9999 SCT030 SCT250 25/20 A2999 BECMG SHRA=
201208302000 METAR MROC 302000Z 26008KT 9999 FEW015 SCT030 25/20 A2996 BECMG SHRA=
201208302100 METAR MROC 302100Z 25009KT 9999 FEW015 SCT025 BKN045 23/20 A2996 BECMG 6000 SHRA=
201208302200 METAR MROC 302200Z 25008KT 9999 FEW010 SCT025 BKN070 22/20 A2997 NOSIG=
201208302300 METAR MROC 302300Z 23008KT 9999 4000N SCT005 BKN015 21/20 A2998 RMK VIS RED DUE LOW ST BECMG 5000 SHRA=
201208302325 METAR MROC 302325Z 26005KT 2000 SHRA SCT005 BKN020 21/19 A3001 BECMG 5000=
201208302335 METAR MROC 302335Z 26005KT 2000 SHRA SCT005 BKN020 21/19 A3001 BECMG 5000=
201208310000 METAR MROC 310000Z 26004KT 5000 2000SW -TSRA FEW015CB SCT025 BKN100 21/19 A3003 BECMG 7000=
201208310100 METAR MROC 310100Z 29003KT 9999 FEW003 SCT030 BKN060 20/19 A3004 NOSIG=
201208310200 METAR MROC 310200Z 00000KT 9999 FEW004 SCT025 BKN100 20/19 A3007 NOSIG=
201208310300 METAR MROC 310300Z 12002KT 8000 VCFG FEW004 SCT025 BKN100 20/19 A3008 NOSIG=
201208310400 METAR MROC 310400Z 14002KT 8000 VCFG FEW004 SCT025 BKN100 20/19 A3008 NOSIG=
201208310500 METAR MROC 310500Z 04003KT 9999 BCFG FEW025 SCT120 BKN200 20/19 A3007 NOSIG=
201208310600 METAR MROC 310600Z 11002KT CAVOK 20/19 A3003 NOSIG=
201208310700 METAR MROC 310700Z 06004KT CAVOK 19/18 A3001 NOSIG=
201208310800 METAR MROC 310800Z 06004KT CAVOK 19/18 A3000 NOSIG=
201208310900 METAR MROC 310900Z 04004KT CAVOK 19/17 A2999 NOSIG=
201208311000 METAR MROC 311000Z 07007KT CAVOK 20/17 A2998 NOSIG=
201208311100 METAR MROC 311100Z 08006KT CAVOK 20/17 A2999 NOSIG=
201208311200 METAR MROC 311200Z 12006KT 9999 FEW040 SCT100 BKN250 21/17 A3000 NOSIG=
201208311300 METAR MROC 311300Z 09006KT CAVOK 22/17 A3001 NOSIG=
201208311400 METAR MROC 311400Z 10005KT CAVOK 25/17 A3002 NOSIG=
201208311500 METAR MROC 311500Z 13008KT CAVOK 27/17 A3004 NOSIG=
201208311600 METAR MROC 311600Z 20004KT 9999 FEW035 SCT060 26/18 A3006 NOSIG=
201208311700 METAR MROC 311700Z 25008KT 9999 SCT035 26/19 A3005 NOSIG=
201208311800 METAR MROC 311800Z 25008KT 9999 FEW020TCU SCT035 26/20 A3004 NOSIG=
201208311900 METAR MROC 311900Z 23005KT 7000 3000S -SHRA FEW015CB SCT030 BKN100 22/21 A3001 RETSRA BECMG 8000=
201208312000 METAR MROC 312000Z 24007KT 9999 FEW004 SCT045 BKN100 22/21 A3001 RESH RMK LOW CLDS OVER APCH RWY/07 NOSIG=
201208312100 METAR MROC 312100Z 24008KT 9999 VCFG FEW003 SCT020 BKN090 22/20 A3001 BECMG 5000 BR=
201208312135 METAR MROC 312135Z 22007KT 2000 +RA FEW002 BKN070 20/18 A3001 NOSIG=
201208312200 METAR MROC 312200Z 25005KT 9999 SCT035 SCT120 20/18 A3000 RERA NOSIG=
201208312300 METAR MROC 312300Z 09003KT 9999 FEW035 BKN120 20/19 A3001 NOSIG=
201209010000 METAR MROC 010000Z 08002KT 9999 FEW035 BKN120 20/19 A3002 NOSIG=
201209010100 METAR MROC 010100Z 06004KT 9999 FEW035 BKN120 22/18 A3004 NOSIG=
201209010200 METAR MROC 010200Z 03008KT 9999 FEW020 BKN120 22/20 A3002 NOSIG=
201209010300 METAR MROC 010300Z 02005KT CAVOK 21/18 A3002 NOSIG=
201209010400 METAR MROC 010400Z 07005KT CAVOK 21/18 A3002 NOSIG=
201209010500 METAR MROC 010500Z 16002KT CAVOK 21/16 A3002 NOSIG=
201209010600 METAR MROC 010600Z 12002KT CAVOK 21/17 A3003 NOSIG=
201209010700 METAR MROC 010700Z 21002KT CAVOK 21/17 A3003 NOSIG=
201209010800 METAR MROC 010800Z 08003KT CAVOK 19/16 A3002 NOSIG=
201209010900 METAR MROC 010900Z 28002KT CAVOK 18/16 A2999 NOSIG=
201209011000 METAR MROC 011000Z 06004KT CAVOK 19/16 A2999 NOSIG=
201209011100 METAR MROC 011100Z 11007KT CAVOK 20/16 A2999 NOSIG=
201209011200 METAR MROC 011200Z 12005KT CAVOK 21/16 A3002 NOSIG=
201209011300 METAR MROC 011300Z 12003KT CAVOK 24/17 A3004 NOSIG=
201209011400 METAR MROC 011400Z 11008KT CAVOK 23/16 A3004 NOSIG=
201209011500 METAR MROC 011500Z 10010KT CAVOK 25/16 A3004 NOSIG=
201209011600 METAR MROC 011600Z 10005KT CAVOK 28/17 A3004 NOSIG=
201209011700 METAR MROC 011700Z 12008KT 9999 FEW045 BKN250 28/17 A3003 NOSIG=
201209011800 METAR MROC 011800Z 08006KT 9999 FEW035 BKN250 29/16 A3002 BECMG 24006KT=
201209011900 METAR MROC 011900Z 23008KT 9999 FEW020TCU SCT035 26/21 A3000 BECMG -TSRA=
201209012000 METAR MROC 012000Z 24011KT 9999 VCSH FEW015TCU SCT035 SCT250 24/21 A2999 NOSIG=
201209012100 METAR MROC 012100Z 24011KT 9999 VCFG FEW015TCU SCT025 BKN100 24/21 A2999 BECMG SHRA=
201209012200 METAR MROC 012200Z 23008KT 2000 TSRA FEW010CB SCT020 BKN100 22/20 A3000 BECMG 1000=
201209012300 METAR MROC 012300Z 12003KT 9999 FEW020 SCT120 20/19 A2999 RERA NOSIG=
201209020000 METAR MROC 020000Z 03002KT 9999 FEW020 SCT120 BKN250 21/18 A3001 NOSIG=
201209020100 METAR MROC 020100Z 09002KT 9999 FEW025 SCT120 20/19 A3002 NOSIG=
201209020200 METAR MROC 020200Z 10006KT 9999 FEW035 SCT130 22/17 A3004 NOSIG=
201209020300 METAR MROC 020300Z 06004KT CAVOK 21/18 A3004 NOSIG=
201209020400 METAR MROC 020400Z 03005KT CAVOK 21/17 A3005 NOSIG=
201209020500 METAR MROC 020500Z 00000KT CAVOK 20/18 A3006 NOSIG=
201209020600 METAR MROC 020600Z 06004KT CAVOK 19/17 A3004 NOSIG=
201209020700 METAR MROC 020700Z 06004KT CAVOK 19/17 A3001 NOSIG=
201209020800 METAR MROC 020800Z 04007KT CAVOK 20/16 A2998 NOSIG=
201209020900 METAR MROC 020900Z 06005KT CAVOK 20/16 A2998 NOSIG=
201209021000 METAR MROC 021000Z 04004KT CAVOK 20/16 A3000 NOSIG=
201209021100 METAR MROC 021100Z 06004KT CAVOK 20/16 A3000 NOSIG=
201209021200 METAR MROC 021200Z 11007KT CAVOK 21/17 A3000 NOSIG=
201209021300 METAR MROC 021300Z 05003KT CAVOK 22/17 A3002 NOSIG=
201209021400 METAR MROC 021400Z 12010KT 9999 FEW035 SCT120 25/18 A3003 NOSIG=
201209021500 METAR MROC 021500Z 12010KT 9999 SCT035 26/17 A3005 NOSIG=
201209021600 METAR MROC 021600Z 09007KT 9999 SCT030 SCT120 27/17 A3006 BECMG 20006KT=
201209021700 METAR MROC 021700Z 08007KT 9999 SCT030 SCT110 26/17 A3006 NOSIG=
201209021800 METAR MROC 021800Z 19003KT 9999 SCT030 SCT110 27/15 A3003 BECMG 20004KT=
201209021900 METAR MROC 021900Z 08009KT 9999 SCT020TCU SCT110 28/15 A2999 NOSIG=
201209022000 METAR MROC 022000Z 15007KT 9999 -RA SCT020TCU BKN100 21/19 A2999 BECMG -TSRA=
201209022100 METAR MROC 022100Z 18002KT 9999 4000W -RA VCSH FEW002 FEW025TCU BKN100 22/18 A3000 NOSIG=
201209022200 METAR MROC 022200Z 02004KT 9999 -RA FEW025 SCT120 BKN200 22/20 A2998 NOSIG=
201209022300 METAR MROC 022300Z 21001KT 9999 FEW025 BKN120 22/18 A3000 NOSIG=
201209022356 METAR MROC 030000Z 09002KT 9999 FEW040 BKN120 22/18 A3001 NOSIG=
201209030000 METAR MROC 030000Z 09002KT 9999 FEW040 BKN120 22/18 A3001 NOSIG=
201209030100 METAR MROC 030100Z 05002KT 9999 FEW040 BKN120 22/18 A3004 NOSIG=
201209030200 METAR MROC 030200Z 07004KT 9999 FEW040 SCT120 BKN250 22/17 A3005 NOSIG=
201209030300 METAR MROC 030300Z 08008KT CAVOK 22/18 A3006 NOSIG=
201209030400 METAR MROC 030400Z 06004KT CAVOK 21/17 A3006 NOSIG=
201209030500 METAR MROC 030500Z 04008KT CAVOK 21/17 A3003 NOSIG=
201209030600 METAR MROC 030600Z 12003KT CAVOK 20/16 A3003 NOSIG=
201209030700 METAR MROC 030700Z 06003KT CAVOK 19/16 A3002 NOSIG=
201209030800 METAR MROC 030800Z 07005KT CAVOK 20/16 A3000 NOSIG=
201209030900 METAR MROC 030900Z 05004KT CAVOK 19/16 A3001 NOSIG=
201209031000 METAR MROC 031000Z 04005KT CAVOK 19/16 A3001 NOSIG=
201209031100 METAR MROC 031100Z 09002KT 9999 FEW025 19/16 A3004 NOSIG=
201209031200 METAR MROC 031200Z 19003KT 9999 FEW025 BKN250 19/16 A3004 NOSIG=
201209031300 METAR MROC 031300Z 07004KT 9999 FEW035 BKN250 21/17 A3007 NOSIG=
201209031400 METAR MROC 031400Z 11008KT 9999 FEW035 SCT100 BKN250 22/17 A3008 NOSIG=
201209031500 METAR MROC 031500Z 12008KT 9999 FEW035 BKN100 23/17 A3009 NOSIG=
201209031600 METAR MROC 031600Z 10005KT 9999 FEW030 BKN100 25/18 A3009 NOSIG=
201209031700 METAR MROC 031700Z 32002KT 9999 SCT030 SCT100 27/18 A3008 NOSIG=
201209031800 METAR MROC 031800Z 24008KT 9999 FEW020TCU SCT030 26/19 A3005 BECMG 8000 RA=
201209031900 METAR MROC 031900Z 27003KT 9999 FEW020TCU SCT030 27/20 A3002 BECMG 8000 RA=
201209032000 METAR MROC 032000Z 24010KT 9999 FEW015TCU SCT025 BKN100 24/21 A3000 BECMG 8000 RA=
201209032100 METAR MROC 032100Z 26008KT 9999 FEW005 BKN030 23/20 A3000 BECMG TSRA=
201209032200 METAR MROC 032200Z 25009KT 8000 2000SW VCFG FEW001 SCT015 BKN030 21/20 A3003 BECMG 2000 BR BKN010=
201209032300 METAR MROC 032300Z 31004KT 8000 VCFG FEW005 SCT030 BKN100 21/19 A3004 BECMG 5000 BR=
201209040000 METAR MROC 040000Z 07003KT 9999 SCT030 BKN100 22/19 A3005 NOSIG=
201209040100 METAR MROC 040100Z 07008KT 9999 FEW030 BKN100 22/17 A3005 NOSIG=
201209040200 METAR MROC 040200Z 10005KT CAVOK 22/17 A3008 BECMG RA=
201209040300 METAR MROC 040300Z 11005KT CAVOK 22/17 A3010 NOSIG=
201209040400 METAR MROC 040400Z 19003KT CAVOK 21/17 A3011 NOSIG=
201209040500 METAR MROC 040500Z 31004KT CAVOK 20/18 A3012 NOSIG=
201209040600 METAR MROC 040600Z 33003KT CAVOK 20/18 A3010 NOSIG=
201209040700 METAR MROC NIL=
201209040800 METAR MROC 040800Z 07004KT CAVOK 20/18 A3003 NOSIG=
201209040900 METAR MROC 040900Z 07005KT CAVOK 19/17 A3002 NOSIG=
201209041000 METAR MROC 041000Z 04008KT CAVOK 20/17 A3001 NOSIG=
201209041100 METAR MROC 041100Z 06005KT CAVOK 21/16 A3002 NOSIG=
201209041200 METAR MROC 041200Z 00000KT CAVOK 20/16 A3003 NOSIG=
201209041300 METAR MROC 041300Z 05006KT CAVOK 24/16 A3005 NOSIG=
201209041400 METAR MROC 041400Z 10006KT 9999 FEW040 SCT250 25/16 A3008 NOSIG=
201209041500 METAR MROC 041500Z 14006KT 9999 FEW040 SCT250 26/17 A3009 NOSIG=
201209041600 METAR MROC 041600Z 11006KT 9999 FEW040 SCT250 26/16 A3008 BECMG 26006KT=
201209041700 METAR MROC 041700Z 17006KT 9999 SCT030 SCT250 28/16 A3008 BECMG 26006KT=
201209041800 METAR MROC 041800Z 23007KT 9999 SCT030 SCT250 26/19 A3006 NOSIG=
201209041900 METAR MROC 041900Z 23010KT 9999 -RA FEW015 BKN030 26/20 A3002 BECMG SHRA=
201209042000 METAR MROC 042000Z 24010KT 3000 TSRA FEW010CB BKN030 22/20 A3003 NOSIG=
201209042100 METAR MROC 042100Z 24009KT 2000 0500S -RA PRFG SCT002 BKN006 21/20 A3001 RMK FG BANK TO SE S SSW BECMG 0500=
201209042200 METAR MROC 042200Z 21007KT 2000 -RA BR SCT003 BKN006 20/19 A3002 BECMG 5000=
201209042300 METAR MROC 042300Z 25005KT 4000 BR SCT003 BKN010 20/19 A3005 NOSIG=
201209050000 METAR MROC 050000Z 24004KT 8000 VCFG FEW004 SCT010 BKN020 20/19 A3004 NOSIG=
201209050030 METAR MROC 050030Z 31002KT 9999 SCT010 BKN020 20/19 A3005 NOSIG=
201209050100 METAR MROC 050100Z 00000KT 9999 -RA SCT010 BKN020 20/19 A3006 NOSIG=
201209050200 METAR MROC 050200Z 00000KT 9999 -RA FEW006 SCT015 BKN100 20/19 A3007 NOSIG=
201209050300 METAR MROC 050300Z 03003KT 9999 FEW010 SCT035 BKN100 20/19 A3006 NOSIG=
201209050400 METAR MROC 050400Z 22003KT 9999 FEW015 BKN120 20/18 A3007 NOSIG=
201209050500 METAR MROC 050500Z 33003KT 9999 BCFG FEW020 BKN120 20/19 A3007 NOSIG=
201209050600 METAR MROC 050600Z 08001KT 9999 BCFG BKN025 19/18 A3005 NOSIG=
201209050700 METAR MROC 050700Z 07003KT 9999 FEW025 19/18 A3003 NOSIG=
201209050800 METAR MROC 050800Z 07004KT CAVOK 19/17 A3000 NOSIG=
201209050900 METAR MROC 050900Z 07005KT CAVOK 18/16 A2998 NOSIG=
201209051000 METAR MROC 051000Z 06006KT CAVOK 19/16 A2998 NOSIG=
201209051100 METAR MROC 051100Z 06006KT CAVOK 18/16 A3000 NOSIG=
201209051200 METAR MROC 051200Z 09006KT CAVOK 19/16 A3002 NOSIG=
201209051300 METAR MROC NIL=
201209051400 METAR MROC NIL=
201209051435 METAR MROC 051435Z 21006KT CAVOK 25/18 A3007 NOSIG=
201209051500 METAR MROC 051500Z 23008KT CAVOK 25/18 A3006 NOSIG=
201209051600 METAR MROC 051600Z 24009KT 9999 FEW040 25/19 A3008 NOSIG=
201209051700 METAR MROC 051700Z 23002KT 9999 SCT040 25/19 A3007 NOSIG=
201209051800 METAR MROC 051800Z 22009KT 9999 FEW020TCU SCT035 26/19 A3004 NOSIG=
201209051900 METAR MROC 051900Z 25007KT 9999 FEW020TCU BKN030 25/19 A3002 BECMG 5000 SHRA=
201209051925 METAR MROC 051925Z 25007KT 9999 4000E SHRA FEW015CB BKN025 24/20 A3001 BECMG 3000 -TSRA=
201209052000 METAR MROC 052000Z 07006KT 9999 -RA FEW015CB BKN025 22/20 A3000 BECMG 5000 -TSRA=
201209052100 METAR MROC 052100Z 28003KT 9999 -DZ FEW012 BKN025 23/20 A2999 BECMG RA=
201209052200 METAR MROC 052200Z 22006KT 9999 4800SW -RA FEW006 SCT015 BKN080 21/19 A2999 NOSIG=
201209052300 METAR MROC 052300Z 10004KT 2000 -TSRA BR FEW003 FEW010CB BKN025 20/19 A3001 BECMG 5000 -RA BR=
201209060000 METAR MROC 060000Z 14003KT 9999 -DZ FEW008 SCT020 BKN080 20/19 A3004 NOSIG=
201209060100 METAR MROC 060100Z 34002KT 9999 -DZ VCFG FEW005 SCT020 BKN090 21/19 A3007 NOSIG=
201209060200 METAR MROC 060200Z 03005KT 9999 -DZ SCT020 BKN100 21/19 A3006 NOSIG=
201209060300 METAR MROC 060300Z 17003KT 9999 2000SW VCFG FEW001 SCT020 BKN100 20/19 A3006 BECMG 0500 FG VV///=
201209060400 METAR MROC 060400Z 06003KT 9999 FEW030 BKN100 20/19 A3005 NOSIG=
201209060500 METAR MROC 060500Z 03003KT 9999 FEW005 SCT120 19/18 A3005 BECMG 2000 BR=
201209060600 METAR MROC 060600Z 16003KT 0500 FG BKN001 19/18 A3005 BECMG 2000 BR=
201209060700 METAR MROC 060700Z 04005KT 8000 VCFG SCT005 19/18 A3006 BECMG 3000 BR=
201209060800 METAR MROC 060800Z 05005KT 9999 FEW030 SCT120 19/18 A3003 BECMG 3000 RA BR=
201209060900 METAR MROC 060900Z 00000KT CAVOK 19/17 A3001 BECMG 5000 BR=
201209061000 METAR MROC 061000Z 05003KT 9999 FEW001 SCT120 19/17 A3001 BECMG 5000 BR=
201209061100 METAR MROC 061100Z 04005KT CAVOK 19/17 A3001 NOSIG=
201209061200 METAR MROC 061200Z 03005KT CAVOK 20/17 A3004 NOSIG=
201209061300 METAR MROC 061300Z 06007KT CAVOK 21/18 A3004 NOSIG=
201209061400 METAR MROC 061400Z 10005KT CAVOK 24/18 A3006 NOSIG=
201209061500 METAR MROC 061500Z 11007KT CAVOK 26/18 A3006 NOSIG=
201209061600 METAR MROC 061600Z 12007KT 9999 FEW040 27/18 A3006 NOSIG=
201209061700 METAR MROC 061700Z 09007KT 9999 FEW035 BKN250 27/18 A3005 NOSIG=
201209061800 METAR MROC 061800Z 22010KT 9999 FEW035 BKN250 26/21 A3002 NOSIG=
201209061900 METAR MROC 061900Z 24009KT 9999 SCT035 SCT250 27/21 A2999 NOSIG=
201209062000 METAR MROC 062000Z 24012KT 9999 VCSH FEW020TCU SCT030 27/22 A2997 BECMG -TSRA=
201209062100 METAR MROC 062100Z 27008KT 8000 2000N -TSRA SCT010CB BKN020 23/21 A2998 BECMG 5000 TSRA=
201209062200 METAR MROC 062200Z 03002KT 8000 -RA FEW006 BKN015 22/19 A2996 BECMG SHRA=
201209062300 METAR MROC 062300Z 29004KT 5000 -RA BR FEW002 SCT020 OVC100 22/20 A2997 NOSIG=
201209070000 METAR MROC 070000Z 24006KT 4000 -RA BR FEW002 BKN008 21/20 A2998 BECMG 3000 BR BKN006=
201209070100 METAR MROC 070100Z 24003KT 5000 FEW002 BKN008 21/20 A3000 NOSIG=
201209070200 METAR MROC NIL=
201209070300 METAR MROC 070300Z 10003KT 2000 +TSRA SCT015CB BKN030 21/20 A3003 BECMG 5000=
201209070400 METAR MROC 070400Z 06003KT 8000 -RA SCT030 BKN100 21/20 A3001 RETS NOSIG=
201209070500 METAR MROC 070500Z 00000KT 8000 VCFG FEW003 SCT030 21/20 A3002 BECMG 4000 BR=
201209070600 METAR MROC 070600Z 19004KT 8000 1000SW VCFG FEW030 SCT150 20/19 A3001 BECMG 0500 FG=
201209070640 METAR MROC 070640Z 00000KT 2000 BR FEW015 SCT030 20/19 A3000 BECMG 7000=
201209070700 METAR MROC 070700Z 34003KT 4000 BR FEW015 SCT030 20/19 A2999 BECMG 8000=
201209070800 METAR MROC 070800Z 07003KT 8000 VCFG FEW030 SCT120 20/19 A2998 NOSIG=
201209070900 METAR MROC 070900Z 07005KT 9999 FEW030 SCT200 19/18 A2996 NOSIG=
201209071000 METAR MROC 071000Z 07004KT CAVOK 19/17 A2997 NOSIG=
201209071100 METAR MROC 071100Z 06007KT CAVOK 20/16 A2999 NOSIG=
201209071200 METAR MROC 071200Z 06006KT CAVOK 19/16 A2998 NOSIG=
201209071300 METAR MROC 071300Z 06006KT CAVOK 22/17 A3000 NOSIG=
201209071400 METAR MROC 071400Z 25006KT CAVOK 24/19 A3005 NOSIG=
201209071500 METAR MROC 071500Z 24006KT 9999 FEW035 SCT250 24/19 A3005 NOSIG=
201209071600 METAR MROC 071600Z 23005KT 9999 FEW035 SCT250 26/19 A3005 NOSIG=
201209071700 METAR MROC 071700Z 14003KT 9999 SCT035 SCT250 28/18 A3003 NOSIG=
201209071800 METAR MROC 071800Z 10006KT 9999 SCT035 SCT250 28/18 A3001 NOSIG=
201209071900 METAR MROC 071900Z 10007KT 9999 FEW02TCU FEW035 SCT250 29/18 A2996 NOSIG=
201209072000 METAR MROC 072000Z 12006KT 9999 VCSH FEW015CB FEW035 BKN200 27/18 A2994 BECMG 24009KT SHRA=
201209072100 METAR MROC 072100Z 27011KT 9999 VCSH FEW015TCU FEW035 SCT120 BKN200 23/19 A2995 BECMG SHRA=
201209072200 METAR MROC 072200Z 28006KT 9999 -SHRA FEW005 BKN020TCU 22/19 A2995 NOSIG=
201209072300 METAR MROC 072300Z 27005KT 9999 FEW005 BKN015 22/20 A2996 BECMG 5000 BR=
201209072357 METAR MROC 080000Z 29005KT 9999 FEW005 BKN015 22/20 A2999 BECMG 5000 BR=
201209080000 METAR MROC 080000Z 29005KT 9999 FEW005 BKN015 22/20 A2999 BECMG 5000 BR=
201209080100 METAR MROC 080100Z 30002KT 9999 FEW015 SCT025 22/19 A3000 NOSIG=
201209080200 METAR MROC 080200Z 15001KT 9999 FEW030 SCT100 21/19 A3003 NOSIG=
201209080300 METAR MROC 080300Z 30002KT 9999 FEW030 BKN110 22/20 A3006 NOSIG=
201209080400 METAR MROC 080400Z 00000KT 9999 FEW020 BKN100 21/20 A3006 NOSIG=
201209080500 METAR MROC 080500Z 09002KT 9999 VCFG FEW020 BKN100 21/19 A3004 NOSIG=
201209080600 METAR MROC 080600Z 24002KT 9999 VCFG FEW003 SCT120 21/19 A3001 NOSIG=
201209080700 METAR MROC 080700Z 00000KT 9999 FEW035 SCT120 21/19 A2999 NOSIG=
201209080800 METAR MROC 080800Z 00000KT 9999 VCFG FEW010 SCT120 21/19 A2998 NOSIG=
201209080900 METAR MROC 080900Z 15002KT 9999 VCFG FEW020 SCT120 20/19 A2998 NOSIG=
201209081000 METAR MROC 081000Z 04006KT CAVOK 20/19 A2997 NOSIG=
201209081100 METAR MROC 081100Z 08003KT CAVOK 20/18 A2998 NOSIG=
201209081200 METAR MROC 081200Z 05006KT CAVOK 21/18 A2998 NOSIG=
201209081300 METAR MROC 081300Z 28002KT CAVOK 22/19 A3001 NOSIG=
201209081400 METAR MROC 081400Z 23003KT 9999 FEW040 BKN120 23/19 A3004 NOSIG=
201209081500 METAR MROC 081500Z 08002KT 9999 FEW040 BKN120 26/18 A3004 NOSIG=
201209081600 METAR MROC 081600Z 26004KT 9999 FEW040 SCT250 26/19 A3001 NOSIG=
201209081700 METAR MROC 081700Z 23008KT 9999 FEW040 SCT250 28/19 A3001 NOSIG=
201209081800 METAR MROC 081800Z 24009KT 9999 -SHRA FEW015TCU SCT035 27/20 A2997 BECMG 8000 TSRA=
201209081900 METAR MROC 081900Z 21012KT 9999 VCTS VCSH FEW015TCU FEW020CB SCT035 26/20 A2995 BECMG 8000 TSRA=
201209081943 METAR MROC 081943Z 23007KT 3000 1000N TSRA SCT010CB BKN030 23/19 A2996 NOSIG=
201209082000 METAR MROC 082000Z 23007G17KT 0500 +TSRA SCT006CB BKN020 22/19 A2996 NOSIG=
201209082100 METAR MROC 082100Z 23005KT 3000 -RA BR FEW001 SCT005 BKN025 20/19 A2998 BECMG TS=
201209082200 METAR MROC 082200Z 00000KT 9999 -RA VCFG FEW005 SCT020 BKN100 20/18 A2996 BECMG 5000 TS=
201209082300 METAR MROC 082300Z 04003KT 9999 VCFG FEW005 SCT020 BKN100 20/19 A2998 BECMG 3000 BR=
201209090000 METAR MROC 090000Z 29002KT -RA SCT020 BKN100 20/19 A2999 NOSIG=
201209090100 METAR MROC 090100Z 28002KT 9999 SCT020 BKN100 20/18 A3001 BECMG 5000 BR=
201209090200 METAR MROC 090200Z 27004KT 8000 VCFG FEW001 SCT020 BKN100 20/19 A3003 BECMG 2000 BR BKN010=
201209090300 METAR MROC 090300Z 15004KT 9999 FEW004 BKN100 20/19 A3005 NOSIG=
201209090400 METAR MROC 090400Z 11003KT CAVOK 20/18 A3005 NOSIG=
201209090500 METAR MROC 090500Z 11003KT CAVOK 19/18 A3003 NOSIG=
201209090600 METAR MROC 090600Z 04003KT CAVOK 20/18 A3001 NOSIG=
201209090700 METAR MROC 090700Z 06003KT CAVOK 19/18 A3000 NOSIG=
201209090800 METAR MROC 090800Z 25002KT 8000 VCFG FEW003 SCT120 18/17 A3001 BECMG 5000 BR=
201209090900 METAR MROC 090900Z 03002KT 9999 FEW003 SCT120 18/17 A3001 NOSIG=
201209091000 METAR MROC 091000Z 09003KT CAVOK 18/17 A3001 NOSIG=
201209091100 METAR MROC 091100Z 13002KT CAVOK 18/17 A3003 NOSIG=
201209091200 METAR MROC 091200Z 00000KT CAVOK 18/17 A3004 NOSIG=
201209091300 METAR MROC 091300Z 09002KT CAVOK 19/18 A3007 NOSIG=
201209091400 METAR MROC 091400Z 30002KT CAVOK 22/18 A3008 BECMG 24007KT=
201209091500 METAR MROC 091500Z 26002KT 9999 FEW030 BKN120 23/18 A3009 NOSIG=
201209091600 METAR MROC 091600Z 25005KT 9999 FEW030 SCT120 BKN200 23/18 A3008 NOSIG=
201209091700 METAR MROC 091700Z 24005KT 9999 FEW030 SCT120 BKN200 24/18 A3009 NOSIG=
201209091800 METAR MROC 091800Z 23008KT 9999 SCT030 BKN250 25/19 A3006 NOSIG=
201209091900 METAR MROC 091900Z 24006KT 9999 -RA FEW010TCU BKN030 25/19 A3003 BECMG +RA=
201209092000 METAR MROC 092000Z 23006KT 9999 SCT030 SCT120 26/19 A3001 NOSIG=
201209092100 METAR MROC 092100Z 23008KT 9999 FEW020TCU SCT030 BKN120 24/19 A3000 NOSIG=
201209092200 METAR MROC 092200Z 24005KT 9999 FEW015CB SCT030 BKN120 23/20 A3000 BECMG 5000 -SHRA=
201209092300 METAR MROC 092300Z 24003KT 9999 FEW020TCU SCT060 BKN100 23/19 A3002 BECMG 5000 -SHRA=
201209100000 METAR MROC 100000Z 16003KT 9999 -RA FEW030 BKN070 20/19 A3007 NOSIG=
201209100100 METAR MROC 100100Z 16003KT 9999 -RA FEW030 BKN070 20/19 A3007 NOSIG=
201209100200 METAR MROC 100200Z 00000KT 9999 -RA FEW030 BKN100 21/19 A3008 NOSIG=
201209100300 METAR MROC 100300Z 02004KT 9999 FEW030 BKN100 20/19 A3008 NOSIG=
201209100400 METAR MROC 100400Z 07006KT 9999 FEW030 BKN200 20/18 A3006 NOSIG=
201209100500 METAR MROC 100500Z 07004KT 9999 FEW030 BKN200 20/17 A3006 NOSIG=
201209100600 METAR MROC 100600Z 05006KT 9999 FEW030 SCT120 20/17 A3005 NOSIG=
201209100700 METAR MROC 100700Z 09003KT 9999 FEW030 BKN120 20/17 A3002 NOSIG=
201209100800 METAR MROC 100800Z 05006KT 9999 FEW030 21/16 A3001 NOSIG=
201209100900 METAR MROC 100900Z 11012KT 9999 FEW030 SCT200 21/16 A3000 NOSIG=
201209101000 METAR MROC 101000Z 10013KT CAVOK 21/16 A3002 NOSIG=
201209101100 METAR MROC 101100Z 11010G20KT CAVOK 21/16 A3002 NOSIG=
201209101200 METAR MROC 101200Z 10008KT 9999 FEW045 21/16 A3003 NOSIG=
201209101300 METAR MROC 101300Z 11008KT CAVOK 22/16 A3005 NOSIG=
201209101400 METAR MROC 101400Z 11010KT CAVOK 25/17 A3007 NOSIG=
201209101500 METAR MROC 101500Z 11008KT CAVOK 26/17 A3007 NOSIG=
201209101600 METAR MROC 101600Z 09007KT 9999 FEW040 28/17 A3007 NOSIG=
201209101700 METAR MROC 101700Z 07007KT 9999 FEW040 BKN250 29/16 A3005 NOSIG=
201209101800 METAR MROC 101800Z 06012KT 9999 SCT040 BKN250 29/17 A3002 NOSIG=
201209101900 METAR MROC 101900Z 08005KT 9999 FEW040 BKN220 29/17 A2999 NOSIG=
201209102000 METAR MROC 102000Z 24008KT 9999 FEW020TCU SCT035 BKN200 26/21 A2998 NOSIG=
201209102100 METAR MROC 102100Z 25005KT 9999 VCSH FEW020 SCT100 BKN250 25/22 A2999 NOSIG=
201209102200 METAR MROC 102200Z 24007KT 9999 VCSH FEW030 BKN120 25/21 A3000 NOSIG=
201209102300 METAR MROC 102300Z 12004KT 9999 FEW045 BKN120 22/18 A3000 RERA NOSIG=
201209110000 METAR MROC 110000Z 08005KT CAVOK 23/18 A3003 NOSIG=
201209110100 METAR MROC 110100Z 11004KT CAVOK 23/17 A3002 NOSIG=
201209110200 METAR MROC 110200Z 14003KT CAVOK 22/18 A3004 NOSIG=
201209110300 METAR MROC 110300Z 07006KT CAVOK 22/17 A3003 NOSIG=
201209110400 METAR MROC 110400Z 10006KT CAVOK 23/15 A3003 NOSIG=
201209110500 METAR MROC 110500Z 09008KT CAVOK 22/15 A3001 NOSIG=
201209110600 METAR MROC 110600Z 12009KT CAVOK 22/15 A3001 NOSIG=
201209110700 METAR MROC 110700Z 09009KT CAVOK 22/14 A2999 NOSIG=
201209110800 METAR MROC 110800Z 10004KT CAVOK 21/15 A2997 NOSIG=
201209110900 METAR MROC 110900Z 08004KT CAVOK 21/15 A2998 NOSIG=
201209111000 METAR MROC 111000Z 11008KT CAVOK 21/15 A3000 NOSIG=
201209111100 METAR MROC 111100Z 09006KT CAVOK 20/15 A3002 NOSIG=
201209111200 METAR MROC 111200Z 09005KT 9999 FEW030 21/15 A3002 NOSIG=
201209111300 METAR MROC 111300Z 10007KT CAVOK 23/16 A3004 NOSIG=
201209111400 METAR MROC 111400Z 11006KT CAVOK 24/17 A3004 NOSIG=
201209111500 METAR MROC 111500Z 10005KT CAVOK 27/17 A3004 NOSIG=
201209111600 METAR MROC 111600Z 06012KT 9999 FEW040 SCT250 28/16 A3005 NOSIG=
201209111700 METAR MROC 111700Z 06016G33KT 3000 RA FEW035 BKN070 23/16 A3007 BECMG 6000 -RA=
201209111800 METAR MROC 111800Z 10010G20KT 9999 -RA SCT045 BKN090 22/17 A3004 NOSIG=
201209111900 METAR MROC 111900Z 12009KT CAVOK 23/15 A2998 NOSIG=
201209112000 METAR MROC 112000Z 07010G20KT CAVOK 23/16 A2996 NOSIG=
201209112100 METAR MROC 112100Z 10010KT 9999 SCT035 BKN140 25/16 A2996 NOSIG=
201209112200 METAR MROC 112200Z 10008KT 9999 SCT035 BKN140 24/16 A2995 NOSIG=
201209112300 METAR MROC 112300Z 11010KT 9999 SCT030 BKN130 22/17 A2996 NOSIG=
201209120000 METAR MROC 120000Z 09008KT 9999 SCT030 BKN130 23/15 A2999 NOSIG=
201209120100 METAR MROC 120100Z 08007KT 9999 SCT030 BKN130 23/15 A3001 NOSIG=
201209120200 METAR MROC 120200Z 09005KT 9999 FEW035 SCT130 22/16 A3002 NOSIG=
201209120300 METAR MROC 120300Z 10003KT CAVOK 21/16 A3003 NOSIG=
201209120400 METAR MROC 120400Z 10009KT CAVOK 22/16 A3004 NOSIG=
201209120500 METAR MROC 120500Z 10007KT CAVOK 21/16 A3003 NOSIG=
201209120600 METAR MROC 120600Z 10007KT CAVOK 21/16 A3001 NOSIG=
201209120700 METAR MROC 120700Z 08009KT CAVOK 21/15 A2998 NOSIG=
201209120800 METAR MROC 120800Z 07011KT CAVOK 21/15 A2996 NOSIG=
201209120900 METAR MROC 120900Z 09007KT CAVOK 21/14 A2995 NOSIG=
201209121000 METAR MROC 121000Z 09007KT CAVOK 20/15 A2996 NOSIG=
201209121100 METAR MROC 121100Z 07012KT CAVOK 22/12 A2996 NOSIG=
201209121200 METAR MROC 121200Z 09008KT CAVOK 21/14 A2997 NOSIG=
201209121300 METAR MROC 121300Z 09010KT CAVOK 23/15 A2998 NOSIG=
201209121400 METAR MROC 121400Z 08011KT CAVOK 25/13 A2999 NOSIG=
201209121500 METAR MROC 121500Z 08014G24KT CAVOK 26/14 A3000 NOSIG=
201209121600 METAR MROC 121600Z 08014G28KT 9999 FEW040 SCT250 27/13 A3000 NOSIG=
201209121700 METAR MROC 121700Z 07014G28KT 9999 FEW040 SCT250 28/12 A2999 NOSIG=
201209121800 METAR MROC 121800Z 06014KT 9999 FEW040 28/10 A2997 NOSIG=
201209121900 METAR MROC 121900Z 07012KT 9999 FEW040 29/11 A2994 NOSIG=
201209122000 METAR MROC 122000Z 08012KT 9999 FEW040 29/11 A2992 NOSIG=
201209122100 METAR MROC 122100Z 07009KT 9999 FEW040 SCT250 27/13 A2991 NOSIG=
201209122200 METAR MROC 122200Z 07009KT 9999 FEW040 SCT250 27/13 A2991 NOSIG=
201209122300 METAR MROC 122300Z 09008KT 9999 FEW030 BKN250 25/13 A2993 NOSIG=
201209122357 METAR MROC 130000Z 12008KT 9999 FEW040 SCT120 BKN250 23/15 A2994 NOSIG=
201209130000 METAR MROC 130000Z 12008KT 9999 FEW040 SCT120 BKN250 23/15 A2994 NOSIG=
201209130100 METAR MROC 130100Z 11007KT 9999 FEW040 SCT120 23/15 A2995 NOSIG=
201209130200 METAR MROC 130200Z 08006KT 9999 FEW035 22/15 A2998 NOSIG=
201209130300 METAR MROC 130300Z 11007KT CAVOK 22/16 A3001 NOSIG=
201209130400 METAR MROC 130400Z 10006KT CAVOK 22/16 A3001 NOSIG=
201209130500 METAR MROC 130500Z 10009KT CAVOK 22/15 A3000 NOSIG=
201209130600 METAR MROC 130600Z 04003KT CAVOK 21/15 A3001 NOSIG=
201209130700 METAR MROC 130700Z 16002KT CAVOK 20/15 A2998 NOSIG=
201209130800 METAR MROC 130800Z 07004KT CAVOK 20/16 A2995 NOSIG=
201209130900 METAR MROC 130900Z 07005KT CAVOK 20/15 A2991 NOSIG=
201209131000 METAR MROC 131000Z 05005KT CAVOK 20/15 A2991 NOSIG=
201209131100 METAR MROC 131100Z 07006KT CAVOK 21/15 A2994 NOSIG=
201209131200 METAR MROC 131200Z 04006KT CAVOK 21/15 A2995 NOSIG=
201209131300 METAR MROC 131300Z 07008KT 9999 FEW045 BKN200 22/16 A2998 NOSIG=
201209131400 METAR MROC 131400Z 12008KT 9999 FEW030 BKN200 23/16 A2999 NOSIG=
201209131500 METAR MROC 131500Z 11006KT 9999 FEW035 BKN200 25/16 A3001 NOSIG=
201209131600 METAR MROC 131600Z 10006KT 9999 FEW035 BKN200 27/16 A3000 NOSIG=
201209131700 METAR MROC 131700Z 20007KT 9999 SCT040 BKN200 27/18 A2999 NOSIG=
201209131800 METAR MROC 131800Z 25008KT 9999 SCT040 BKN200 26/20 A2997 NOSIG=
201209131900 METAR MROC 131900Z 25010KT 9999 FEW015TCU SCT040 BKN200 25/20 A2996 BECMG 8000 SHRA=
201209132000 METAR MROC 132000Z 19003KT 9999 2000N -TSRA FEW012CB SCT100 BKN200 21/19 A2995 NOSIG=
201209132100 METAR MROC 132100Z 21004KT 9999 FEW005 SCT015 BKN030 21/20 A2996 BECMG TSRA=
201209132200 METAR MROC 132200Z 24004KT 8000 2000SW VCFG FEW001 SCT015 BKN030 22/20 A2997 BECMG 1000 BR BKN010=
201209132300 METAR MROC 132300Z 27004KT 8000 2000SW VCFG FEW001 SCT010 BKN030 21/20 A2997 BECMG 3000 BR=
201209140000 METAR MROC 140000Z 08003KT 9999 SCT030 BKN100 21/20 A2995 NOSIG=
201209140100 METAR MROC 140100Z 07003KT 9999 FEW030 SCT120 BKN250 21/18 A2993 NOSIG=
201209140200 METAR MROC 140200Z 13002KT CAVOK 22/17 A2997 NOSIG=
201209140300 METAR MROC 140300Z 05007KT CAVOK 22/17 A3000 NOSIG=
201209140400 METAR MROC 140400Z 05004KT CAVOK 21/17 A3000 NOSIG=
201209140500 METAR MROC 140500Z 08005KT CAVOK 21/13 A2999 NOSIG=
201209140600 METAR MROC 140600Z 06007KT CAVOK 21/17 A2997 NOSIG=
201209140700 METAR MROC 140700Z 09007KT CAVOK 21/16 A2995 NOSIG=
201209140800 METAR MROC 140800Z 13010KT CAVOK 21/17 A2993 NOSIG=
201209140900 METAR MROC 140900Z 05003KT CAVOK 20/16 A2995 NOSIG=
201209141000 METAR MROC 141000Z 07006KT CAVOK 21/16 A2995 NOSIG=
201209141100 METAR MROC 141100Z 06006KT CAVOK 20/16 A2996 NOSIG=
201209141200 METAR MROC 141200Z 06004KT 9999 FEW035 BKN080 20/16 A2999 NOSIG=
201209141300 METAR MROC 141300Z 07005KT 9999 FEW035 BKN080 23/17 A2999 NOSIG=
201209141400 METAR MROC 141400Z 11007KT 9999 FEW030 SCT250 23/16 A3000 NOSIG=
201209141500 METAR MROC 141500Z 10009KT 9999 FEW030 BKN250 25/18 A3001 NOSIG=
201209141600 METAR MROC 141600Z 12005KT 9999 FEW030 BKN250 27/17 A3001 BECMG 24006KT=
201209141700 METAR MROC 141700Z 25008KT 9999 SCT030 SCT250 25/19 A3000 NOSIG=
201209141800 METAR MROC 141800Z 24006KT 9999 FEW015 BKN030 26/18 A2999 NOSIG=
201209141900 METAR MROC 141900Z 25006KT 9999 FEW015 BKN030 27/19 A2995 NOSIG=
201209142000 METAR MROC 142000Z 08008KT 1000 TSRA FEW010CB BKN030 21/19 A2995 NOSIG=
201209142100 METAR MROC 142100Z 13003KT 9999 DZ VCTS VCSH FEW016CB SCT030 BKN100 20/17 A2992 RETSRA=
201209142200 METAR MROC 142200Z 29003KT 9999 FEW030 BKN100 20/18 A2993 NOSIG=
201209142300 METAR MROC 142300Z 08002KT 9999 -RA FEW030 BKN100 20/18 A2994 NOSIG=
201209150000 METAR MROC 150000Z 11004KT 9999 -RA FEW030 BKN100 20/18 A2996 NOSIG=
201209150100 METAR MROC 150100Z 03008KT CAVOK 21/18 A2999 NOSIG=
201209150200 METAR MROC 150200Z 07005KT CAVOK 21/18 A2999 NOSIG=
201209150300 METAR MROC 150300Z 11004KT CAVOK 21/17 A3002 NOSIG=
201209150400 METAR MROC 150400Z 08003KT CAVOK 20/17 A3003 NOSIG=
201209150500 METAR MROC 150500Z 01003KT CAVOK 19/17 A3003 NOSIG=
201209150600 METAR MROC 150600Z 05004KT CAVOK 19/17 A3000 NOSIG=
201209150700 METAR MROC 150700Z 06005KT CAVOK 19/17 A3000 NOSIG=
201209150800 METAR MROC 150800Z 07003KT CAVOK 19/17 A2998 NOSIG=
201209150900 METAR MROC 150900Z 07004KT CAVOK 20/17 A2997 NOSIG=
201209151000 METAR MROC 151000Z 06003KT CAVOK 20/17 A2999 NOSIG=
201209151100 METAR MROC 151100Z 07004KT CAVOK 20/16 A3000 NOSIG=
201209151200 METAR MROC 151200Z 06007KT CAVOK 21/17 A3001 NOSIG=
201209151300 METAR MROC 151300Z 06005KT CAVOK 23/17 A3003 NOSIG=
201209151400 METAR MROC 151400Z 13003KT CAVOK 25/17 A3006 BECMG 24006KT=
201209151500 METAR MROC 151500Z 09007KT CAVOK 27/18 A3005 NOSIG=
201209151600 METAR MROC 151600Z 11007KT CAVOK 27/17 A3003 NOSIG=
201209151700 METAR MROC 151700Z 12005KT 9999 FEW040 BKN250 28/18 A3002 NOSIG=
201209151800 METAR MROC 151800Z 24006KT 9999 SCT035 SCT250 27/21 A2999 NOSIG=
201209151900 METAR MROC 151900Z 24008KT 9999 SCT025CB SCT035 26/21 A2997 NOSIG=
201209152000 METAR MROC 152000Z 24009KT 9999 SCT020CB SCT030 26/21 A2995 BECMG -TSRA=
201209152100 METAR MROC 152100Z 25011KT 1000 +TSRA BKN006 SCT015 23/21 A2997 BECMG 4000=
201209152101 METAR MROC 152101Z 25011KT 1000 +TSRA BKN005CB SCT015 23/21 A2997 BECMG 4000=
201209152200 METAR MROC 152200Z 30006KT 4000 -RA BR SCT004 BKN020 20/19 A2999 BECMG 6000=
201209152300 METAR MROC 152300Z 18003KT 6000 FEW003 SCT020 BKN100 20/19 A3001 BECMG 8000=
201209160000 METAR MROC 160000Z 04003KT 9999 BCFG FEW007 BKN120 20/19 A3000 NOSIG=
201209160100 METAR MROC 160100Z 29002KT 9999 BCFG FEW020 BKN120 20/19 A3002 NOSIG=
201209160200 METAR MROC 160200Z 08003KT CAVOK 20/19 A3003 NOSIG=
201209160300 METAR MROC 160300Z 13003KT CAVOK 21/19 A3003 NOSIG=
201209160400 METAR MROC 160400Z 18002KT CAVOK 20/18 A3003 NOSIG=
201209160500 METAR MROC 160500Z 18004KT CAVOK 21/18 A3004 NOSIG=
201209160600 METAR MROC 160600Z 05005KT CAVOK 21/18 A3002 NOSIG=
201209160700 METAR MROC 160700Z 07004KT CAVOK 21/18 A3000 NOSIG=
201209160800 METAR MROC 160800Z 11007KT CAVOK 22/17 A2998 NOSIG=
201209160900 METAR MROC 160900Z 04006KT CAVOK 21/17 A2999 NOSIG=
201209161000 METAR MROC 161000Z 04007KT 9999 FEW030 SCT120 21/17 A2998 NOSIG=
201209161100 METAR MROC 161100Z 09006KT 9999 FEW035 SCT100 22/17 A2998 NOSIG=
201209161200 METAR MROC 161200Z 11007KT 9999 FEW030 SCT100 BKN250 22/17 A2999 NOSIG=
201209161300 METAR MROC 161300Z 08006KT CAVOK 23/18 A3003 NOSIG=
201209161400 METAR MROC 161400Z 09007KT 9999 FEW045 BKN250 25/19 A3005 BECMG 24006KT=
201209161500 METAR MROC 161500Z 12007KT 9999 FEW035 BKN250 26/19 A3007 BECMG 24006KT=
201209161600 METAR MROC 161600Z 08006KT 9999 SCT035 BKN250 28/16 A3006 NOSIG=
201209161700 METAR MROC 161700Z 14007KT 9999 FEW035 BKN250 28/18 A3004 NOSIG=
201209161800 METAR MROC 161800Z 14006KT 9999 FEW035 BKN250 30/18 A3001 NOSIG=
201209161900 METAR MROC 161900Z 23010KT 9999 FEW020TCU SCT030 27/22 A2997 NOSIG=
201209162000 METAR MROC 162000Z 26009KT 9999 VCSH FEW020TCU BKN030 27/21 A2995 BECMG -TSRA=
201209162100 METAR MROC 162100Z 24008KT 7000 -TSRA FEW008CB SCT025 BKN100 20/19 A2998 NOSIG=
201209162200 METAR MROC 162200Z 09002KT 9999 -RA SCT030 BKN100 21/19 A2998 RETS NOSIG=
201209162300 METAR MROC 162300Z 00000KT 9999 -RA SCT030 BKN100 21/119 A3001 NOSIG=
201209170000 METAR MROC 170000Z 24002KT 9999 SCT030 BKN100 21/14 A3000 RERA NOSIG=
201209170100 METAR MROC 170100Z 24002KT 9999 SCT030 BKN100 21/14 A3002 NOSIG=
201209170200 METAR MROC 170200Z 26003KT 9999 FEW030 SCT120 21/19 A3006 NOSIG=
201209170300 METAR MROC 170300Z 09003KT CAVOK 20/18 A3007 NOSIG=
201209170400 METAR MROC 170400Z 06003KT CAVOK 20/18 A3008 NOSIG=
201209170500 METAR MROC 170500Z 02003KT CAVOK 19/17 A3009 NOSIG=
201209170600 METAR MROC 170600Z 07003KT CAVOK 19/17 A3007 NOSIG=
201209170700 METAR MROC 170700Z 13002KT CAVOK 19/18 A3004 NOSIG=
201209170800 METAR MROC 170800Z 04003KT CAVOK 19/17 A3004 NOSIG=
201209170900 METAR MROC 170900Z 09003KT CAVOK 18/16 A3003 NOSIG=
201209171000 METAR MROC 171000Z 05004KT CAVOK 18/16 A3002 NOSIG=
201209171100 METAR MROC 171100Z 05002KT CAVOK 18/16 A3003 NOSIG=
201209171200 METAR MROC 171200Z 07002KT 9999 FEW010 BKN120 18/16 A3005 NOSIG=
201209171300 METAR MROC 171300Z 08002KT CAVOK 21/17 A3009 NOSIG=
201209171400 METAR MROC 171400Z 05003KT 9999 FEW035 BKN120 23/18 A3010 NOSIG=
201209171500 METAR MROC 171500Z 21002KT 9999 FEW035 BKN200 25/18 A3009 NOSIG=
201209171600 METAR MROC 171600Z 26005KT 9999 SCT035 BKN250 26/19 A3009 NOSIG=
201209171700 METAR MROC 171700Z 9999 SCT035 BKN250 27/20 A3007 NOSIG=
201209171800 METAR MROC 171800Z 23008KT 9999 -RA SCT025 BKN200 25/20 A3006 NOSIG=
201209171900 METAR MROC 171900Z 26005KT 9999 -RA SCT025 BKN150 21/20 A3005 NOSIG=
201209172000 METAR MROC 172000Z 27004KT 9999 SCT025 BKN120 24/19 A3002 RERA NOSIG=
201209172100 METAR MROC 172100Z 27003KT 9999 FEW025 SCT120 BKN200 25/20 A3002 NOSIG=
201209172200 METAR MROC 172200Z 23003KT 2500 RA BR SCT025 BKN200 25/20 A3000 NOSIG=
201209172300 METAR MROC 172300Z 22009KT 9999 VCTS FEW005 FEW010CB SCT015 BKN100 22/19 A3001 RERA NOSIG=
201209172356 METAR MROC 180000Z 29004KT 9999 FEW010 SCT100 BKN200 20/18 A3004 NOSIG=
201209180000 METAR MROC 180000Z 29004KT 9999 FEW010 SCT100 BKN200 20/18 A3004 NOSIG=
201209180100 METAR MROC 180100Z 15004KT 9999 FEW010 BKN250 20/18 A3004 NOSIG=
201209180200 METAR MROC 180200Z 07005KT 9999 FEW010 SCT250 20/18 A3006 NOSIG=
201209180300 METAR MROC 180300Z 13003KT 9999 FEW020 SCT250 20/18 A3008 NOSIG=
201209180400 METAR MROC 180400Z 05003KT 9999 FEW030 SCT250 19/18 A3009 NOSIG=
201209180500 METAR MROC 180500Z 02003KT 9999 FEW035 SCT100 20/17 A3010 NOSIG=
201209180600 METAR MROC 180600Z 09006KT 9999 FEW035 SCT100 19/17 A3006 NOSIG=
201209180700 METAR MROC 180700Z 06003KT CAVOK 19/17 A3004 NOSIG=
201209180800 METAR MROC 180800Z 03005KT CAVOK 19/16 A3002 NOSIG=
201209180900 METAR MROC 180900Z 00000KT CAVOK 18/16 A3003 NOSIG=
201209181000 METAR MROC 181000Z 07005KT CAVOK 18/16 A3005 NOSIG=
201209181100 METAR MROC 181100Z 07004KT CAVOK 17/15 A3004 NOSIG=
201209181200 METAR MROC 181200Z 08004KT CAVOK 19/16 A3005 NOSIG=
201209181300 METAR MROC 181300Z 06007KT CAVOK 20/16 A3007 NOSIG=
201209181400 METAR MROC 181400Z 11005KT CAVOK 23/17 A3008 NOSIG=
201209181500 METAR MROC 181500Z 15006KT 9999 FEW030 SCT250 26/17 A3011 BECMG 24006KT=
201209181600 METAR MROC 181600Z 26008KT 9999 FEW035 SCT250 26/19 A3011 NOSIG=
201209181700 METAR MROC 181700Z 27008KT 9999 FEW035 BKN200 27/20 A3009 NOSIG=
201209181800 METAR MROC 181800Z 24007KT 9999 FEW035 BKN200 26/19 A3006 NOSIG=
201209181900 METAR MROC 181900Z 22008KT 9999 FEW020TCU FEW035 BKN200 26/20 A3003 BECMG 8000 SHRA=
201209182000 METAR MROC 182000Z 25007KT 9999 VCSH SCT015TCU BKN035 25/20 A3001 BECMG 8000 SHRA=
201209182045 METAR MROC 182045Z 32010KT 9999 3000SW TSRA FEW15CB SCT035 OVC100 21/19 A3000 NOSIG=
201209182100 METAR MROC 182100Z 31009KT 9999 2000SW TSRA FEW015CB SCT035 OVC100 21/19 A3000 BECMG 2000=
201209182200 METAR MROC 182200Z 00000KT 9999 -RA SCT030 OVC100 21/19 A3002 RETS NOSIG=
201209182300 METAR MROC 182300Z 26003KT 9999 FEW030 BKN100 21/19 A3002 NOSIG=
201209190000 METAR MROC 190000Z 23004KT 9999 1000SW VCFG FEW001 SCT010 BKN120 20/18 A3002 BECMG 0500 FG VV///=
201209190100 METAR MROC 190100Z 26002KT 9999 FEW010 BKN120 20/18 A3003 BECMG 5000 BR=
201209190200 METAR MROC 190200Z 31002KT 9999 FEW020 SCT120 BKN250 20/18 A3005 NOSIG=
201209190300 METAR MROC 190300Z 21003KT 9999 VCFG FEW002 SCT020 BKN120 20/19 A3008=
201209190400 METAR MROC 190400Z 00000KT 5000 BR FEW002 BKN015 20/19 A3008=
201209190500 METAR MROC 190500Z 10003KT 9999 BCFG FEW035 SCT050 20/18 A3006 NOSIG=
201209190600 METAR MROC 190600Z 07005KT CAVOK 20/18 A3004 NOSIG=
201209190700 METAR MROC 190700Z 05005KT CAVOK 20/17 A3002 NOSIG=
201209190800 METAR MROC 190800Z 07005KT CAVOK 21/16 A3002 NOSIG=
201209190900 METAR MROC 190900Z 06006KT CAVOK 19/16 A3001 NOSIG=
201209191000 METAR MROC 191000Z 08004KT CAVOK 20/15 A3001 NOSIG=
201209191100 METAR MROC 191100Z 08004KT CAVOK 19/15 A3003 NOSIG=
201209191200 METAR MROC 191200Z 04005KT 9999 FEW030 BKN250 18/15 A3003 NOSIG=
201209191300 METAR MROC 191300Z 04002KT 9999 FEW030 SCT250 23/17 A3008 NOSIG=
201209191400 METAR MROC 191400Z 12003KT 9999 FEW030 24/16 A3008 NOSIG=
201209191500 METAR MROC 191500Z 09006KT 9999 FEW030 26/16 A3009 BECMG 26006KT=
201209191600 METAR MROC 191600Z 09004KT 9999 FEW030 27/15 A3007 BECMG 24007KT=
201209191700 METAR MROC 191700Z 24009KT 9999 SCT030 SCT250 27/19 A3004 NOSIG=
201209191800 METAR MROC 191800Z 24008KT 9999 SCT030 SCT250 26/19 A3001 NOSIG=
201209191900 METAR MROC 191900Z 23006KT 9999 SCT030 SCT250 26/20 A2999 NOSIG=
201209192000 METAR COR MROC 192000Z 23010KT 9999 FEW010TCU BKN030 26/20 A2996 BECMG TSRA=
201209192100 METAR MROC 192100Z 25008KT 9999 TSRA FEW015CB SCT030 BKN100 24/20 A2996=
201209192200 METAR MROC 192200Z 00000KT 5000 2000SW -TSRA FEW015CB SCT025 BKN100 22/18 A2997 NOSIG=
201209192300 METAR MROC 192300Z 30005KT 9999 -RA VCSH FEW020 SCT030 BKN100 21/19 A2999 RETS NOSIG=
201209200000 METAR MROC 200000Z 00000KT 9999 -RA FEW007 SCT020 BKN100 20/19 A3000 BECMG 5000 -RA BR=
201209200100 METAR MROC 200100Z 00000KT 9999 -RA FEW008 SCT020 BKN100 21/19 A3002 NOSIG=
201209200200 METAR MROC 200200Z 04003KT 9999 FEW010 SCT025 BKN120 21/19 A3002 NOSIG=
201209200300 METAR MROC 200300Z 05005KT 9999 FEW030 SCT120 21/19 A3003 NOSIG=
201209200400 METAR MROC 200400Z 08003KT 9999 BCFG FEW030 SCT120 21/18 A3002 NOSIG=
201209200500 METAR MROC 200500Z 23003KT 9999 BCFG FEW030 BKN250 20/19 A3001 NOSIG=
201209200600 METAR MROC 200600Z 06004KT 9999 FEW030 BKN250 20/18 A3000 NOSIG=
201209200700 METAR MROC 200700Z 04003KT 9999 FEW030 SCT250 19/17 A2999 NOSIG=
201209200800 METAR MROC 200800Z 06004KT 9999 FEW030 19/17 A2998 NOSIG=
201209200900 METAR MROC 200900Z 07004KT 9999 FEW030 19/17 A2996 NOSIG=
201209201000 METAR MROC 201000Z 08005KT 9999 FEW030 20/16 A2996 NOSIG=
201209201100 METAR MROC 201100Z 11006KT 9999 FEW035 20/16 A2997 NOSIG=
201209201200 METAR MROC 201200Z 06004KT 9999 FEW035 20/16 A2999 NOSIG=
201209201300 METAR MROC 201300Z 06004KT CAVOK 23/16 A3000 NOSIG=
201209201400 METAR MROC 201400Z 10005KT CAVOK 25/16 A3001 NOSIG=
201209201500 METAR MROC 201500Z 12005KT CAVOK 26/16 A3000 NOSIG=
201209201600 METAR MROC 201600Z 25009KT 9999 FEW040 26/19 A3000 NOSIG=
201209201700 METAR MROC 201700Z 26009KT 9999 FEW040 26/20 A2998 NOSIG=
201209201800 METAR MROC 201800Z 24009KT 9999 SCT040 26/21 A2996 NOSIG=
201209201900 METAR MROC 201900Z 24009KT 9999 FEW020TCU SCT035 26/21 A2992 BECMG 4000 SHRA=
201209202000 METAR MROC 202000Z 24009KT 9999 VCSH FEW015CB SCT025 27/21 A2991 BECMG 5000 -TSRA=
201209202010 METAR MROC 202010Z 23008KT 9999 4000E -TSRA FEW015CB SCT025 27/21 A2990 BECMG 3000=
201209202100 METAR MROC 202100Z 24008KT 9999 FEW020TCU SCT030 25/21 A2990 RETS NOSIG=
201209202200 METAR MROC 202200Z 24008KT 9999 FEW020TCU SCT030 BKN250 24/21 A2990 NOSIG=
201209202300 METAR MROC 202300Z 21005KT 9999 FEW010 SCT030 BKN250 23/21 A2992 NOSIG=
201209210000 METAR MROC 210000Z 24005KT 8000 VCTS VCSH FEW004 FEW015CB BKN020 22/21 A2993 BECMG 3000 -TSRA=
201209210100 METAR MROC 210100Z 25004KT 7000 1500SW BR VCTS SCT004 BKN010 22/20 A2995 BECMG 8000 -RA=
201209210200 METAR MROC 210200Z 25004KT 8000 4000SW VCFG SCT004 BKN012 21/20 A2998=
201209210300 METAR MROC 210300Z 26004KT 5000 BR SCT004 BKN020 21/20 A3000=
201209210400 METAR MROC 210400Z 27002KT 8000 VCFG SCT004 BKN020 21/20 A2999 BECMG 3000 BR BKN012=
201209210500 METAR MROC 210500Z 06006KT 9999 FEW020 BKN120 20/16 A2999 NOSIG=
201209210600 METAR MROC 210600Z 17002KT CAVOK 20/17 A2999 NOSIG=
201209210700 METAR MROC 210700Z 09002KT CAVOK 20/16 A2995 NOSIG=
201209210800 METAR MROC 210800Z 03005KT CAVOK 19/17 A2993 NOSIG=
201209210900 METAR MROC 210900Z 17002KT CAVOK 19/16 A2993 NOSIG=
201209211000 METAR MROC 211000Z 10002KT CAVOK 18/16 A2994 NOSIG=
201209211100 METAR MROC 211100Z 08004KT CAVOK 18/15 A2994 NOSIG=
201209211200 METAR MROC 211200Z 02005KT CAVOK 18/15 A2995 NOSIG=
201209211300 METAR MROC 211300Z 09005KT CAVOK 21/16 A2996 NOSIG=
201209211400 METAR MROC 211400Z 23002KT CAVOK 24/16 A2997 NOSIG=
201209211500 METAR MROC 211500Z 12007KT CAVOK 26/16 A2997 NOSIG=
201209211600 METAR MROC 211600Z 12007KT 9999 FEW035 27/17 A2996 BECMG 24005KT=
201209211700 METAR MROC 211700Z 25009KT 9999 FEW030 26/19 A2995 NOSIG=
201209211800 METAR MROC NIL=
201209211900 METAR MROC 211900Z 24010KT 9999 VCSH FEW025TCU SCT035 SCT250 26/20 A2989 BECMG -TSRA=
201209212000 METAR MROC 212000Z 13005KT 9000 2000SW TSRA FEW008CB FEW020 BKN040 21/18 A2987 BECMG 9999 BKN100=
201209212100 METAR MROC 212100Z 25003KT 9999 VCSH FEW010 SCT020TCU BKN100 21/19 A2991 BECMG 6000 SHRA=
201209212200 METAR MROC 212200Z VRB02KT 9999 4800SW -RA FEW012 SCT025 BKN080 21/19 A2990 NOSIG=
201209212300 METAR MROC 212300Z 27002KT 9999 VCSH FEW015 SCT035 BKN100 22/20 A2992 NOSIG=
201209220000 METAR MROC 220000Z 23003KT 9999 FEW025 SCT060 BKN160 22/20 A2994 NOSIG=
201209220100 METAR MROC 220100Z 06003KT 9999 FEW040 BKN180 21/18 A2995 NOSIG=
201209220200 METAR MROC 220200Z 26003KT 9999 FEW020 BKN150 20/19 A2994 BECMG 6000 BCFG=
201209220300 METAR MROC 220300Z 10003KT CAVOK 20/19 A2997 NOSIG=
201209220400 METAR MROC 220400Z 00000KT CAVOK 20/19 A2999 NOSIG=
201209220500 METAR MROC 220500Z 03003KT CAVOK 20/19 A2999 NOSIG=
201209220600 METAR MROC 220600Z 08003KT CAVOK 20/18 A2997 NOSIG=
201209220700 METAR MROC 220700Z 02004KT CAVOK 19/17 A2995 NOSIG=
201209220800 METAR MROC 220800Z 04005KT CAVOK 20/17 A2995 NOSIG=
201209220900 METAR MROC 220900Z 07003KT CAVOK 19/16 A2994 NOSIG=
201209221000 METAR MROC 221000Z 07004KT CAVOK 19/16 A2994 NOSIG=
201209221100 METAR MROC 221100Z 08003KT CAVOK 20/15 A2996 NOSIG=
201209221200 METAR MROC 221200Z 06005KT CAVOK 19/15 A2998 NOSIG=
201209221300 METAR MROC 221300Z 06004KT CAVOK 22/16 A2999 NOSIG=
201209221400 METAR MROC 221400Z 22003KT CAVOK 24/17 A3002 NOSIG=
201209221500 METAR MROC 221500Z 18003KT CAVOK 27/17 A3002 BECMG 24008KT=
201209221600 METAR MROC 221600Z 24007KT 9999 FEW030 SCT200 25/19 A3001 NOSIG=
201209221700 METAR MROC 221700Z 25008KT 9999 FEW020 FEW025TCU BKN200 25/19 A3000 NOSIG=
201209221800 METAR MROC 221800Z 23007KT 9999 FEW020 BKN150 24/20 A2999 NOSIG=
201209221900 METAR MROC 221900Z 25007KT 9999 FEW025 SCT030TCU BKN140 25/20 A2997 BECMG SHRA VCTS BKN035=
201209222000 METAR MROC 222000Z 20006KT 7000 2500SW +SHRA VCTS FEW010 SCT015CB BKN090 22/20 A2995 BECMG 4000 TSRA BKN020=
201209222100 METAR MROC 222100Z 23007KT 9999 4000N -RA VCSH SCT015 BKN100 23/20 A2994 NOSIG=
201209222200 METAR MROC 222200Z 25007KT 9999 3000N -RA BKN015 SCT100 22/20 A2995 BECMG RA=
201209222300 METAR MROC 222300Z 25006KT 9999 3000N -RA FEW005 SCT015 BKN100 21/19 A2998 BECMG 8000 RA VCFG=
201209222355 METAR MROC 230000Z 28007KT 9999 -RA FEW005 BKN012 20/19 A3000 BECMG 8000 RA VCFG=
201209230000 METAR MROC 230000Z 28007KT 9999 -RA FEW005 BKN012 20/19 A3000 BECMG 8000 RA VCFG=
201209230100 METAR MROC 230100Z 31004KT 9999 -DZ FEW010 BKN020 20/19 A3002 NOSIG=
201209230200 METAR MROC 230200Z 32002KT 9999 FEW015 BKN035 21/18 A3004 NOSIG=
201209230300 METAR MROC 230300Z 12002KT 9999 FEW020 BKN035 20/19 A3004 NOSIG=
201209230400 METAR MROC 230400Z 12003KT 9999 FEW025 BKN100 20/18 A3002 NOSIG=
201209230500 METAR MROC 230500Z 09003KT CAVOK 20/18 A3001 NOSIG=
201209230600 METAR MROC 230600Z 03006KT CAVOK 20/17 A2998 NOSIG=
201209230700 METAR MROC 230700Z 07003KT CAVOK 20/17 A2997 NOSIG=
201209230800 METAR MROC 230800Z 07006KT CAVOK 21/18 A2997 NOSIG=
201209230900 METAR MROC 230900Z 06005KT CAVOK 21/17 A2998 NOSIG=
201209231000 METAR MROC 231000Z 03002KT 9999 FEW040 SCT250 20/17 A2999 NOSIG=
201209231100 METAR MROC 231100Z 06003KT 9999 FEW040 BKN120 20/17 A3000 NOSIG=
201209231200 METAR MROC 231200Z 05004KT 9999 FEW040 BKN150 20/17 A3001 NOSIG=
201209231300 METAR MROC 231300Z 24003KT 9999 FEW030 SCT120 BKN200 22/18 A3003 NOSIG=
201209231400 METAR MROC 231400Z 28004KT 9999 FEW035 BKN120 24/18 A3005 NOSIG=
201209231500 METAR MROC 231500Z 26003KT 9999 FEW035 BKN250 24/19 A3004 NOSIG=
201209231600 METAR MROC 231600Z 28007KT 9999 SCT035 BKN250 25/19 A3004 NOSIG=
201209231700 METAR MROC 231700Z 24006KT 9999 SCT035 BKN250 26/19 A3003 NOSIG=
201209231800 METAR MROC 231800Z 23008KT 9999 FEW020TCU SCT035 BKN250 26/21 A3001 NOSIG=
201209231900 METAR MROC 231900Z 26009KT 9999 3000N -TSRA FEW010CB BKN020 24/21 A3000 NOSIG=
201209232000 METAR MROC 232000Z 24004KT 8000 2000N -SHRA FEW010 SCT020 BKN100 21/19 A2997 NOSIG=
201209232100 METAR MROC 232100Z 19007KT 8000 VCFG FEW001 SCT020 BKN100 21/19 A2999 RERA NOSIG=
201209232200 METAR MROC 232200Z 21003KT 8000 2000SW VCFG FEW001 SCT020 BKN100 20/19 A3000 NOSIG=
201209232300 METAR MROC 232300Z 06003KT 8000 3000SW VCFG FEW001 SCT020 BKN100 20/19 A3002 NOSIG=
201209240000 METAR MROC 240000Z 02005KT 9999 -RA FEW020 BKN100 20/19 A3003 NOSIG=
201209240100 METAR COR MROC 240100Z 02007KT CAVOK 21/19 A3002 NOSIG=
201209240200 METAR COR MROC 240200Z 06005KT CAVOK 21/18 A3003 NOSIG=
201209240300 METAR MROC 240300Z 07005KT CAVOK 20/17 A3003 NOSIG=
201209240400 METAR MROC 240400Z 06003KT CAVOK 21/17 A3002 NOSIG=
201209240500 METAR MROC 240500Z 10005KT CAVOK 21/16 A3001 NOSIG=
201209240600 METAR MROC 240600Z 07003KT CAVOK 21/16 A3001 NOSIG=
201209240700 METAR MROC 240700Z 17003KT CAVOK 19/16 A2999 NOSIG=
201209240800 METAR MROC 240800Z 18003KT CAVOK 19/16 A2998 NOSIG=
201209240900 METAR MROC 240900Z 08003KT CAVOK 18/16 A2998 NOSIG=
201209241000 METAR MROC 241000Z 05004KT CAVOK 18/15 A2998 NOSIG=
201209241100 METAR MROC 241100Z 04004KT CAVOK 18/16 A2999 NOSIG=
201209241200 METAR MROC 241200Z 04007KT CAVOK 20/16 A2999 NOSIG=
201209241300 METAR MROC 241300Z 06002KT 9999 FEW040 BKN250 22/17 A3001 NOSIG=
201209241400 METAR MROC 241400Z 10006KT CAVOK 24/17 A3002 BECMG 24006KT=
201209241500 METAR MROC 241500Z 08005KT 9999 SCT040 BKN250 26/18 A3004 BECMG 24006KT=
201209241600 METAR MROC 241600Z 07011KT 9999 SCT040 BKN250 25/17 A3003 NOSIG=
201209241700 METAR MROC 241700Z 08006KT 9999 SCT030 SCT250 25/17 A3002 BECMG 24006KT=
201209241800 METAR MROC 241800Z 24005KT 9999 SCT030 SCT250 26/19 A2999 NOSIG=
201209241900 METAR MROC 241900Z 12002KT 9999 SCT030 SCT250 28/19 A2995 NOSIG=
201209242000 METAR MROC 242000Z 24008KT 9999 SCT030 SCT250 25/19 A2993 NOSIG=
201209242100 METAR MROC 242100Z 25008KT 9999 FEW020TCU SCT035 BKN070 23/20 A2994 BECMG 6000 -SHRA=
201209242200 METAR MROC 242200Z 28005KT 9999 -RA FEW020 SCT035 BKN070 23/19 A2995 NOSIG=
201209242300 METAR MROC 242300Z 11005KT 9999 FEW020 SCT040 BKN070 22/17 A2995 NOSIG=
201209250000 METAR MROC 250000Z 09003KT 9999 FEW040 BKN100 22/17 A2997 NOSIG=
201209250100 METAR MROC 250100Z 22002KT 9999 FEW040 BKN080 21/18 A2997 NOSIG=
201209250200 METAR MROC 250200Z 31005KT 9999 FEW040 BKN100 21/19 A3000 NOSIG=
201209250300 METAR MROC 250300Z 00000KT 9999 FEW015 SCT250 20/19 A3002 NOSIG=
201209250400 METAR MROC 250400Z 07003KT 9999 FEW020 SCT250 19/17 A3004 NOSIG=
201209250500 METAR MROC 250500Z 07004KT CAVOK 19/16 A3003 NOSIG=
201209250600 METAR MROC 250600Z 06006KT CAVOK 19/16 A3001 NOSIG=
201209250700 METAR MROC 250700Z 06006KT CAVOK 18/15 A2999 NOSIG=
201209250800 METAR MROC 250800Z 06005KT CAVOK 18/15 A2998 NOSIG=
201209250900 METAR MROC 250900Z 07007KT CAVOK 19/15 A2997 NOSIG=
201209251000 METAR MROC 251000Z 05006KT CAVOK 18/15 A2997 NOSIG=
201209251100 METAR MROC 251100Z 06006KT CAVOK 19/15 A2997 NOSIG=
201209251200 METAR MROC 251200Z 08004KT 9999 FEW035 BKN250 20/15 A3000 NOSIG=
201209251300 METAR MROC 251300Z 10005KT CAVOK 22/15 A3001 NOSIG=
201209251400 METAR MROC 251400Z 11007KT CAVOK 24/17 A3005 NOSIG=
201209251500 METAR MROC 251500Z 12008KT CAVOK 25/17 A3004 NOSIG=
201209251600 METAR MROC 251600Z 13006KT 9999 FEW040 BKN300 27/16 A3004 BECMG 24006KT=
201209251700 METAR MROC 251700Z 14005KT 9999 SCT040 28/17 A3002 NOSIG=
201209251800 METAR MROC 251800Z 24008KT 9999 FEW025TCU SCT040 26/20 A3000 NOSIG=
201209251900 METAR MROC 251900Z 23009KT 9999 FEW025TCU SCT040 27/21 A2995 NOSIG=
201209252000 METAR MROC 252000Z 24010KT 9999 VCSH FEW015CB SCT025 26/20 A2992 BECMG 7000 -SHRA=
201209252100 METAR MROC 252100Z 22010KT 8000 -TSRA SCT010CB BKN015 23/21 A2993 BECMG 2000 +RA BKN010=
201209252200 METAR MROC 252200Z 25006KT 5000 -TSRA FEW008 SCT015CB OVC100 22/10 A2994 BECMG 2000 +RA BKN010=
201209252300 METAR MROC 252300Z 30004KT 9999 4000N -RA FEW005 SCT012 BKN100 22/20 A2996 BECMG RA BKN012=
201209260000 METAR MROC 260000Z 30002KT 9999 -RA FEW005 SCT020 BKN100 21/20 A2997 NOSIG=
201209260100 METAR MROC 260100Z 10002KT 9999 -RA SCT020 SCT100 21/20 A2997 BECMG 5000 BR=
201209260200 METAR MROC 260200Z 00000KT 9999 SCT020 SCT100 20/20 A3000 BECMG 5000 BR=
201209260300 METAR MROC 260300Z 09002KT 9999 FEW030 SCT120 20/19 A3002 NOSIG=
201209260400 METAR MROC 260400Z 05004KT CAVOK 20/18 A3000 NOSIG=
201209260500 METAR MROC 260500Z 03005KT CAVOK 19/17 A2998 NOSIG=
201209260600 METAR MROC 260600Z 03003KT CAVOK 19/17 A2998 NOSIG=
201209260700 METAR MROC 260700Z 04004KT CAVOK 19/17 A2997 NOSIG=
201209260800 METAR MROC 260800Z 05003KT CAVOK 18/17 A2995 NOSIG=
201209260900 METAR MROC 260900Z 04007KT CAVOK 18/16 A2995 NOSIG=
201209261000 METAR MROC 261000Z 03008KT CAVOK 19/16 A2996 NOSIG=
201209261100 METAR MROC 261100Z 05006KT CAVOK 19/16 A2997 NOSIG=
201209261200 METAR MROC 261200Z 05005KT CAVOK 19/16 A2998 NOSIG=
201209261300 METAR MROC 261300Z 09006KT CAVOK 23/16 A2999 NOSIG=
201209261400 METAR MROC 261400Z 13006KT 9999 FEW035 25/16 A3004 NOSIG=
201209261500 METAR MROC 261500Z 12007KT 9999 FEW035 26/16 A3004 NOSIG=
201209261600 METAR MROC 261600Z 09005KT 9999 FEW035 28/16 A3002 BECMG 24006KT=
201209261700 METAR MROC 261700Z 24010KT 9999 SCT030 26/20 A3001 NOSIG=
201209261800 METAR MROC 261800Z 24011KT 9999 SCT030 26/20 A2999 NOSIG=
201209261900 METAR MROC 261900Z 24009KT 9999 SCT020TCU 26/21 A2996 NOSIG=
201209262000 METAR MROC 262000Z 24010KT 9999 SCT020TCU 25/21 A2994 BECMG VCSH=
201209262100 METAR MROC 262100Z 24007KT 9000 4300NE SHRA VCTS FEW010 SCT018TCU BKN100 25/20 A2994 BECMG 5000 TSRA BKN020=
201209262200 METAR MROC 262200Z 21003KT 9999 4500SW -SHRA VCTS FEW009 FEW015TCU BKN150 22/18 A2996 NOSIG=
201209262300 METAR MROC 262300Z 22004KT 9000 3000SW FEW001 SCT004 BKN015 22/20 A2998 BECMG 5000 BR BKN008=
201209270000 METAR MROC 270000Z 24005KT 5000 1600SW BR FEW001 SCT004 BKN010 21/20 A3001 BECMG BKN008=
201209270100 METAR MROC 270100Z 24002KT 8000 2000SW VCFG FEW001 SCT006 BKN018 21/20 A3002 NOSIG=
201209270200 METAR MROC 270200Z VRB02KT 8000 2300SW VCFG FEW002 SCT030 BKN100 21/20 A3001 BECMG 9999=
201209270300 METAR MROC 270300Z 07002KT 9999 VCFG FEW015 SCT040 BKN120 21/19 A3002 NOSIG=
201209270400 METAR MROC 270400Z 04003KT 9999 FEW040 BKN120 20/19 A3001 NOSIG=
201209270500 METAR MROC 270500Z 06002KT CAVOK 21/18 A3002 NOSIG=
201209270600 METAR MROC 270600Z 02004KT CAVOK 20/18 A3000 NOSIG=
201209270700 METAR MROC 270700Z 00000KT CAVOK 19/17 A2998 NOSIG=
201209270800 METAR MROC 270800Z 06004KT CAVOK 19/17 A2998 NOSIG=
201209270900 METAR MROC 270900Z 04002KT CAVOK 18/16 A2998 NOSIG=
201209271000 METAR MROC 271000Z 07005KT CAVOK 18/16 A2998 NOSIG=
201209271100 METAR MROC 271100Z 07002KT CAVOK 19/16 A3000 NOSIG=
201209271200 METAR MROC 271200Z 04003KT CAVOK 18/16 A3002 NOSIG=
201209271300 METAR MROC 271300Z 02003KT CAVOK 22/17 A3004 NOSIG=
201209271400 METAR MROC 271400Z 25002KT CAVOK 25/17 A3003 NOSIG=
201209271500 METAR MROC 271500Z 24004KT 9999 FEW040 SCT300 25/19 A3005 NOSIG=
201209271600 METAR MROC 271600Z 26005KT 9999 FEW035 SCT300 26/18 A3004 NOSIG=
201209271700 METAR MROC 271700Z 23007KT 9999 SCT030 27/20 A3002 NOSIG=
201209271800 METAR MROC 271800Z 24008KT 9999 FEW025TCU SCT030 27/21 A2998 BECMG SHRA VCTS=
201209271900 METAR MROC 271900Z 23011KT 9999 VCSH FEW018 FEW025TCU SCT035 26/21 A2996 BECMG SHRA VCTS=
201209272000 METAR MROC 272000Z 10006KT 0500 +TSRA VV/// 18/17 A2998 BECMG 1500 -TSRA=
201209272100 METAR MROC 272100Z 07004KT 6000 2000N -TSRA FEW015CB SCT035 BKN100 18/17 A2996 NOSIG=
201209272156 METAR MROC 212200Z 14003KT 5000 2000N -TSRA FEW015CB SCT035 BKN100 19/18 A2994 NOSIG=
201209272200 METAR MROC 272200Z 14003KT 5000 2000N -TSRA FEW015CB SCT035 BKN100 19/18 A2994 NOSIG=
201209272300 METAR MROC 272300Z 05003KT 9999 -RA VCSH FEW015 SCT100 BKN200 19/18 A2995 RETS NOSIG=
201209272356 METAR MROC 280000Z 07004KT 9999 -RA VCFG FEW035 BKN100 19/18 A2996 NOSIG=
201209280000 METAR MROC 280000Z 07004KT 9999 -RA VCFG FEW035 BKN100 19/18 A2996 NOSIG=
201209280100 METAR MROC 280100Z 22004KT CAVOK 20/18 A2997 NOSIG=
201209280200 METAR MROC 280200Z 10001KT 9999 BCFG FEW060 BKN200 19/18 A3000 NOSIG=
201209280300 METAR MROC 280300Z 00000KT 9999 -RA FEW005 BKN100 20/18 A3002 NOSIG=
201209280400 METAR MROC 280400Z 09003KT 9999 -RA BKN120 19/18 A3002 NOSIG=
201209280500 METAR MROC 280500Z 06004KT 9999 -RA BKN120 20/18 A3001 NOSIG=
201209280600 METAR MROC 280600Z 07006KT 9999 -RA BKN120 20/17 A2997 NOSIG=
201209280700 METAR MROC 280700Z 09003KT 9999 -RA BKN120 19/11 A2994 NOSIG=
201209280800 METAR MROC 280800Z 09003KT CAVOK 19/17 A2992 NOSIG=
201209280900 METAR MROC 280900Z 06003KT CAVOK 18/16 A2992 NOSIG=
201209281000 METAR MROC NIL=
201209281100 METAR MROC 281100Z 06003KT CAVOK 17/15 A2997 NOSIG=
201209281200 METAR MROC 281200Z 07004KT 9999 FEW035 SCT250 17/15 A2998 NOSIG=
201209281300 METAR MROC 281300Z 05004KT CAVOK 22/17 A3005 NOSIG=
201209281400 METAR MROC 281400Z 07004KT CAVOK 24/17 A3004 NOSIG=
201209281440 METAR MROC 281440Z 23003KT CAVOK 25/18 A3004 NOSIG=
201209281500 METAR MROC 281500Z 19003KT 9999 FEW035 SCT250 25/17 A3004 NOSIG=
201209281600 METAR MROC 281600Z 20004KT 9999 FEW035 SCT250 26/17 A3004 NOSIG=
201209281700 METAR MROC 281700Z 24007KT 9999 SCT030 BKN200 27/16 A3002 NOSIG=
201209281800 METAR MROC 281800Z 23007KT 9999 SCT030 BKN200 27/19 A2998 NOSIG=
201209281900 METAR MROC 281900Z 25011KT 9999 SCT025 SCT250 27/19 A2996 NOSIG=
201209282000 METAR MROC 282000Z 25011KT 9999 VCSH FEW020TCU FEW035 SCT250 26/20 A2995 BECMG 8000 SHRA=
201209282100 METAR MROC 282100Z 29010KT 9999 -TS VCSH FEW010CB BKN030 25/19 A2995 BECMG 5000 TSRA=
201209282200 METAR MROC 282200Z 24010KT 9999 FEW010 BKN030 21/19 A2997 BECMG 5000 TSRA=
201209282300 METAR MROC 282300Z 26004KT 9999 SCT030 BKN120 21/18 A2998=
201209290000 METAR MROC 290000Z 30003KT 9999 SCT030 BKN120 21/18 A3000 NOSIG=
201209290100 METAR MROC 290100Z 12003KT 9999 FEW030 BKN120 21/19 A3000 NOSIG=
201209290200 METAR MROC 290200Z 09003KT CAVOK 21/19 A3002 NOSIG=
201209290300 METAR MROC 290300Z 05003KT CAVOK 21/18 A3002 NOSIG=
201209290400 METAR MROC 290400Z 04002KT CAVOK 20/18 A3003 NOSIG=
201209290500 METAR MROC 290500Z 00000KT CAVOK 19/17 A3003 NOSIG=
201209290600 METAR MROC 290600Z 25002KT 9999 FEW035 19/17 A3001 NOSIG=
201209290700 METAR MROC 290700Z 09005KT 9999 FEW030 18/16 A3000 NOSIG=
201209290800 METAR MROC 290800Z 08003KT CAVOK 18/17 A2998 NOSIG=
201209290900 METAR MROC 290900Z 05004KT CAVOK 18/16 A2997 NOSIG=
201209291000 METAR MROC 291000Z 06004KT CAVOK 18/16 A2997 NOSIG=
201209291100 METAR MROC 291100Z 08004KT CAVOK 17/15 A2999 NOSIG=
201209291200 METAR MROC 291200Z 08004KT CAVOK 18/16 A3001 NOSIG=
201209291300 METAR MROC 291300Z 08004KT CAVOK 21/17 A3002 NOSIG=
201209291400 METAR MROC 291400Z 09004KT CAVOK 23/17 A3002 BECMG 24006KT=
201209291500 METAR MROC 291500Z 00000KT CAVOK 26/17 A3004 NOSIG=
201209291540 METAR MROC 291540Z 23006KT 9999 FEW040 BKN250 26/17 A3003 NOSIG=
201209291600 METAR MROC 291600Z 25007KT 9999 FEW040 BKN250 26/18 A3003 NOSIG=
201209291700 METAR MROC 291700Z 25008KT 9999 FEW040 BKN250 26/19 A3000 NOSIG=
201209291800 METAR MROC 291800Z 24011KT 9999 SCT030 SCT250 26/19 A2997 NOSIG=
201209291900 METAR MROC 291900Z 24009KT 9999 FEW015 SCT030 26/19 A2994 NOSIG=
201209292000 METAR MROC 292000Z 20013KT 9999 VCSH FEW015TCU BKN030 25/19 A2993 BECMG TSRA=
201209292100 METAR MROC 292100Z 29005KT 8000 -RA VCTS FEW015CB BKN025 21/19 A2994 RMK VIS SE S UNLTD NOSIG=
201209292200 METAR MROC 292200Z 24005KT 5000 -RA BR FEW015CB BKN025 21/19 A2994 RETS NOSIG=
201209292201 METAR MROC 292201Z 22003KT 9999 SCT015 SCT090 27/24 A2993 REDZ=
201209292300 METAR MROC 292300Z 30004KT 9999 FEW025 SCT045 BKN100 21/19 A2993 NOSIG=
201209300000 METAR MROC 300000Z 05003KT 9999 FEW030 SCT070 BKN120 21/19 A2995 NOSIG=
201209300100 METAR MROC 300100Z 23002KT 9999 FEW030 BKN120 21/19 A2998 NOSIG=
201209300200 METAR MROC 300200Z 27003KT 9999 FEW030 BKN120 20/19 A3000 NOSIG=
201209300300 METAR MROC 300300Z 27002KT 9999 FEW020 BKN200 20/19 A3003 NOSIG=
201209300400 METAR MROC 300400Z 27003KT 9999 FEW010 SCT120 BKN200 20/19 A3004 NOSIG=
201209300500 METAR MROC 300500Z 02002KT 9999 FEW010 SCT120 BKN200 20/19 A3003 NOSIG=
201209300600 METAR MROC 300600Z 11001KT CAVOK 20/18 A3001 NOSIG=
201209300700 METAR MROC 300700Z 06002KT CAVOK 20/18 A2998 NOSIG=
201209300800 METAR MROC 300800Z 05003KT CAVOK 20/18 A2996 NOSIG=
201209300900 METAR MROC 300900Z 06004KT CAVOK 20/18 A2995 NOSIG=
201209301000 METAR MROC 301000Z 07004KT CAVOK 20/17 A2994 NOSIG=
201209301100 METAR MROC 301100Z 06005KT CAVOK 20/17 A2994 NOSIG=
201209301200 METAR MROC 301200Z 08004KT CAVOK 20/17 A2997 NOSIG=
201209301300 METAR MROC 301300Z 11004KT CAVOK 23/18 A2998 NOSIG=
201209301400 METAR MROC 301400Z 20004KT CAVOK 23/18 A3001 NOSIG=
201209301500 METAR MROC 301500Z 23007KT 9999 FEW030 SCT120 BKN250 24/19 A3002 NOSIG=
201209301600 METAR MROC 301600Z 25009KT 9999 FEW030 SCT100 SCT250 25/19 A3002 NOSIG=
201209301700 METAR MROC 301700Z 25007KT 9999 SCT030 SCT250 25/19 A2999 NOSIG=
201209301800 METAR MROC 301800Z 26007KT 9999 SCT020TCU SCT140 26/19 A2997 BECMG 8000 RA=
201209301900 METAR MROC 301900Z 26008KT 9999 SCT020TCU SCT120 26/19 A2995 NOSIG=
201209302000 METAR MROC 302000Z 22008KT 9999 RA SCT030 BKN250 26/20 A2992 NOSIG=
201209302100 METAR MROC 302100Z 24011KT 9999 SCT026 BKN250 22/21 A2991 NOSIG=
201209302200 METAR MROC 302200Z 25009KT 9999 SCT015 BKN250 22/20 A2992 NOSIG=
201209302300 METAR MROC 302300Z 28008KT 9999 FEW015 BKN250 21/19 A2995 NOSIG=
201210010000 METAR MROC 010000Z 27003KT 9999 FEW006 SCT100 20/18 A2996 NOSIG=
201210010100 METAR MROC 010100Z 27003KT 9999 -RA SCT007 BKN100 20/19 A2999 NOSIG=
201210010200 METAR MROC 010200Z 07002KT 9999 -RA FEW006 SCT015 BKN100 20/19 A3002 NOSIG=
201210010300 METAR MROC 010300Z 00000KT 9999 FEW035 BKN120 20/19 A3001 NOSIG=
201210010400 METAR MROC 010400Z 21002KT 9999 FEW035 BKN120 20/19 A3002 NOSIG=
201210010500 METAR MROC 010500Z 00000KT CAVOK 20/19 A3002 NOSIG=
201210010600 METAR MROC 010600Z 06003KT CAVOK 20/19 A2998 NOSIG=
201210010700 METAR MROC 010700Z 05009KT CAVOK 21/18 A2995 NOSIG=
201210010800 METAR MROC 010800Z 08003KT CAVOK 21/17 A2993 NOSIG=
201210010900 METAR MROC 010900Z 13002KT CAVOK 20/17 A2994 NOSIG=
201210011000 METAR MROC 011000Z 25001KT 9999 FEW002 SCT120 20/18 A2995 NOSIG=
201210011100 METAR MROC 011100Z 00000KT 9999 SCT001 SCT010 20/19 A2996 BECMG 3000 BR BKN010=
201210011200 METAR MROC 011200Z 00000KT 9999 VCFG FEW001 SCT010 BKN120 20/19 A2998 NOSIG=
201210011300 METAR MROC 011300Z VRB02KT 7000 3000W BCFG FEW005 BKN180 22/18 A3000 BECMG 25005KT=
201210011400 METAR MROC 011400Z 20002KT 9000 4000W BCFG FEW003 BKN130 23/18 A3003 BECMG 24005KT=
201210011500 METAR MROC 011500Z 23001KT 9999 FEW003 BKN110 24/17 A3004 NOSIG=
201210011600 METAR MROC 011600Z 23005KT 9999 FEW020 BKN110 23/20 A3004 NOSIG=
201210011700 METAR MROC 011700Z 20001KT 9999 FEW035 BKN120 26/18 A3001 NOSIG=
201210011800 METAR MROC 011800Z 21006KT 9999 FEW035 BKN130 26/19 A2998 NOSIG=
201210011900 METAR MROC 011900Z 25003KT 9999 FEW030 BKN130 28/19 A2995 NOSIG=
201210012000 METAR MROC 012000Z 24004KT 9999 FEW030 SCT200 29/18 A2992 NOSIG=
201210012100 METAR MROC 012100Z 25008KT 9999 FEW030 SCT200 27/19 A2990 NOSIG=
201210012200 METAR MROC 012200Z 22008KT 9999 -RA FEW030 SCT130 25/21 A2991 BECMG 6000 RA=
201210012300 METAR MROC 012300Z 22005KT 9999 -RA SCT020 BKN130 22/19 A2993 NOSIG=
201210020000 METAR MROC 020000Z 17002KT 9999 -RA SCT020 BKN130 22/19 A2995 NOSIG=
201210020100 METAR MROC 020100Z 31002KT 9999 -RA FEW030 SCT090 22/18 A2998 NOSIG=
201210020200 METAR MROC NIL=
201210020300 METAR MROC 020300Z 00000KT 9999 FEW025 SCT070 21/19 A3002 NOSIG=
201210020400 METAR MROC 020400Z 10002KT CAVOK 21/19 A3001 NOSIG=
201210020500 METAR MROC 020500Z 00000KT CAVOK 21/19 A3001 NOSIG=
201210020600 METAR MROC 020600Z 09003KT CAVOK 19/18 A3000 NOSIG=
201210020700 METAR MROC 020700Z 19003KT 9999 VCFG FEW007 BKN120 19/17 A2998 RMK VIS S SSW 8KMS BECMG 5000 BR=
201210020800 METAR MROC 020800Z 00000KT 9999 VCFG FEW005 BKN120 19/17 A2998 RMK VIS S SSW 8KMS NOSIG=
201210020900 METAR MROC 020900Z 06003KT 9999 FEW010 SCT120 20/17 A2997 NOSIG=
201210021000 METAR MROC 021000Z 03005KT CAVOK 19/17 A2998 NOSIG=
201210021100 METAR MROC 021100Z 07004KT CAVOK 19/16 A2999 NOSIG=
201210021200 METAR MROC 021200Z 06007KT CAVOK 19/16 A3000 NOSIG=
201210021300 METAR MROC 021300Z 05008KT CAVOK 22/17 A3001 NOSIG=
201210021400 METAR MROC 021400Z 09004KT CAVOK 25/17 A3003 NOSIG=
201210021500 METAR MROC 021500Z 09008KT 9999 FEW045 SCT300 27/17 A3004 NOSIG=
201210021600 METAR MROC 021600Z 09010KT 9999 FEW045 SCT300 28/18 A3002 NOSIG=
201210021700 METAR MROC 021700Z 07008KT 9999 FEW045 SCT300 28/17 A3001 NOSIG=
201210021800 METAR MROC 021800Z 12007KT 9999 SCT040 SCT250 29/16 A2998 BECMG 24006KT=
201210021900 METAR MROC 021900Z 24012KT 9999 FEW025TCU FEW035 SCT250 28/21 A2995 NOSIG=
201210022000 METAR MROC 022000Z 24011KT 9999 VCSH FEW018 SCT025TCU SCT250 26/21 A2995 BECMG SHRA VCTS=
201210022100 METAR MROC 022100Z 31006KT 9999 4500SW SHRA VCTS FEW010TCU SCT020CB BKN250 24/20 A2996 BECMG 3000 TSRA BKN010=
201210022200 METAR MROC 022200Z 23006KT 3500 1500SW BR FEW010 BKN020 22/21 A2998 RERA NOSIG=
201210022300 METAR MROC 022300Z 26006KT 5000 2000SW BR FEW010 SCT020 BKN100 22/21 A2997 BECMG BKN008=
201210022354 METAR MROC 030000Z 25004KT 8000 VCFG FEW010 BKN025 22/21 A3000 BECMG 5000 BR=
201210030000 METAR MROC 030000Z 25004KT 8000 VCFG FEW010 BKN025 22/21 A3000 BECMG 5000 BR=
201210030100 METAR MROC 030100Z 00000KT 9999 FEW010 BKN025 22/21 A3001 BECMG 5000 BR=
201210030200 METAR MROC 030200Z 25002KT 5000 BR FEW010 BKN025 21/20 A3003 BECMG 3000 BKN008=
201210030300 METAR MROC 030300Z 00000KT 9999 FEW006 SCT015 BKN100 21/19 A3004 NOSIG=
201210030400 METAR MROC NIL=
201210030500 METAR MROC 030500Z 10002KT 9999 FEW010 SCT020 BKN100 20/18 A3002 NOSIG=
201210030600 METAR MROC 030600Z 05003KT 9999 SCT030 BKN100 20/18 A3000 NOSIG=
201210030700 METAR MROC 030700Z 04002KT 9999 SCT030 BKN100 20/17 A2998 NOSIG=
201210030800 METAR MROC 030800Z 09003KT 9999 FEW030 SCT130 20/17 A2997 NOSIG=
201210030900 METAR MROC 030900Z 09008KT 9999 FEW030 SCT120 22/16 A2997 NOSIG=
201210031000 METAR MROC 031000Z 11008KT 9999 FEW030 SCT130 22/15 A2998 NOSIG=
201210031100 METAR MROC 031100Z 11007KT 9999 FEW030 SCT130 21/16 A2999 NOSIG=
201210031200 METAR MROC 031200Z 08006KT CAVOK 21/16 A3000 NOSIG=
201210031300 METAR MROC 031300Z 09004KT CAVOK 23/16 A3001 NOSIG=
201210031400 METAR MROC 031400Z 11007KT CAVOK 25/17 A3002 NOSIG=
201210031500 METAR MROC 031500Z 12006KT 9999 FEW045 SCT250 26/17 A3002 NOSIG=
201210031600 METAR MROC 031600Z 10010KT 9999 FEW045 SCT250 28/16 A3002 NOSIG=
201210031700 METAR MROC 031700Z 12006KT 9999 SCT045 SCT150 29/18 A3002 NOSIG=
201210031800 METAR MROC 031800Z 10007KT 9999 FEW020TCU SCT035 BKN120 28/17 A3000 BECMG 24006KT RA=
201210031900 METAR MROC 031900Z 09005KT 9999 VCSH FEW020TCU FEW030 BKN120 25/17 A2999 BECMG 24006KT RA=
201210032000 METAR MROC 032000Z 22005KT 9999 RA FEW005 SCT030 BKN120 24/20 A2997 NOSIG=
201210032100 METAR MROC 032100Z 14006KT 9999 SCT030 BKN120 23/18 A2997 RERA NOSIG=
201210032200 METAR MROC 032200Z 00000KT 9999 VCFG FEW030 BKN120 24/18 A2996 NOSIG=
201210032300 METAR MROC 032300Z 22004KT 9999 FEW030 BKN120 23/20 A2997 NOSIG=
201210040000 METAR MROC 040000Z 22002KT 9999 FEW030 BKN120 22/20 A3000 NOSIG=
201210040100 METAR MROC 040100Z 31002KT 9999 FEW035 BKN120 22/20 A3004 NOSIG=
201210040200 METAR MROC 040200Z 04004KT CAVOK 21/18 A3005 NOSIG=
201210040300 METAR MROC 040300Z 03004KT CAVOK 21/18 A3006 NOSIG=
201210040400 METAR MROC 040400Z 06007KT CAVOK 21/16 A3006 NOSIG=
201210040500 METAR MROC 040500Z 05005KT CAVOK 21/16 A3004 NOSIG=
201210040600 METAR MROC 040600Z 10007KT CAVOK 21/16 A3001 NOSIG=
201210040700 METAR MROC 040700Z 10006KT CAVOK 21/16 A2999 NOSIG=
201210040800 METAR MROC 040800Z 12006KT CAVOK 21/15 A2999 NOSIG=
201210040900 METAR MROC 040900Z 10007KT CAVOK 22/15 A2999 NOSIG=
201210041000 METAR MROC 041000Z 12006KT CAVOK 21/15 A3001 NOSIG=
201210041100 METAR MROC 041100Z 12007KT CAVOK 21/16 A3003 NOSIG=
201210041200 METAR MROC 041200Z 12008KT CAVOK 21/15 A3004 NOSIG=
201210041300 METAR MROC 041300Z 10006KT CAVOK 23/16 A3008 NOSIG=
201210041400 METAR MROC 041400Z 10007KT CAVOK 25/16 A3009 NOSIG=
201210041500 METAR MROC 041500Z 08008KT 9999 FEW040 SCT250 26/16 A3009 NOSIG=
201210041600 METAR MROC 041600Z 07010KT 9999 FEW040 SCT250 27/16 A3009 NOSIG=
201210041700 METAR MROC 041700Z 07010KT 9999 SCT030 SCT250 27/18 A3007 NOSIG=
201210041800 METAR MROC 041800Z 12009KT 9999 FEW035 BKN250 28/15 A2999 BECMG 24006KT=
201210041900 METAR COR MROC 041900Z 12009KT 9999 FEW035 BKN250 28/15 A2999 BECMG 24006KT=
201210042000 METAR MROC 042000Z 11006KT 9999 FEW035 SCT120 BKN250 30/13 A2995 BECMG 24006KT=
201210042100 METAR MROC 042100Z 24012KT 9999 FEW015 SCT120 BKN250 26/22 A2995 NOSIG=
201210042200 METAR MROC 042200Z 24009KT 8000 VCFG SCT006 SCT015 23/21 A2998 BECMG 5000 -RA BR=
201210042300 METAR MROC 042300Z 23010KT 8000 VCSH FEW006 BKN020 22/20 A3001 NOSIG=
201210050000 METAR MROC 050000Z 24005KT 8000 -RA VCFG FEW010 SCT025 BKN100 21/20 A3003 NOSIG=
201210050100 METAR MROC 050100Z 00000KT 9999 VCFG FEW010 BKN030 21/19 A3005 NOSIG=
201210050200 METAR MROC 050200Z 00000KT 9999 -RA FEW010 SCT025 BKN100 21/19 A3006 NOSIG=
201210050300 METAR MROC 050300Z 06002KT 9999 FEW010 SCT120 BKN200 21/18 A3008 NOSIG=
201210050400 METAR MROC 050400Z 11002KT 9999 FEW030 SCT120 BKN250 20/18 A3009 NOSIG=
201210050500 METAR MROC 050500Z 06004KT CAVOK 20/18 A3006 NOSIG=
201210050600 METAR MROC 050600Z 05006KT CAVOK 20/17 A3002 NOSIG=
201210050700 METAR MROC 050700Z 08006KT CAVOK 20/16 A2998 NOSIG=
201210050800 METAR MROC 050800Z 09002KT CAVOK 19/16 A2999 NOSIG=
201210050900 METAR MROC 050900Z 09006KT CAVOK 19/16 A2998 NOSIG=
201210051000 METAR MROC 051000Z 10006KT CAVOK 21/16 A2997 NOSIG=
201210051100 METAR MROC 051100Z 05010KT 9999 FEW035 SCT250 20/16 A2998 NOSIG=
201210051200 METAR MROC 051200Z 06004KT CAVOK 21/15 A2999 NOSIG=
201210051300 METAR MROC NIL=
201210051400 METAR MROC 051400Z 06005KT CAVOK 24/16 A3003 NOSIG=
201210051500 METAR MROC 051500Z 13007KT CAVOK 27/17 A3003 BECMG 24007KT=
201210051600 METAR MROC NIL=
201210051700 METAR MROC 051700Z 11007KT 9999 FEW035 SCT120 BKN250 29/17 A3000 BECMG 240007KT=
201210051800 METAR MROC 051800Z 24007KT 9999 SCT035 SCT120 26/19 A3000 NOSIG=
201210051900 METAR MROC 051900Z 22009KT 9999 FEW015 SCT030 BKN120 25/20 A2997 NOSIG=
201210052000 METAR MROC 052000Z 23008KT 9999 4000N -SHRA FEW015CB SCT025 BKN120 25/20 A2996 BECMG 4000 TSRA=
201210052100 METAR MROC 052100Z 13006KT 9999 3000NW FEW010 SCT020 OVC100 21/18 A2997 NOSIG=
201210052200 METAR MROC 052200Z 12005KT 9999 -RA BKN090 21/18 A2995 NOSIG=
201210052300 METAR MROC 052300Z 09004KT CAVOK 22/16 A2995 NOSIG=
201210060000 METAR MROC 060000Z 09004KT CAVOK 22/16 A2996 NOSIG=
201210060100 METAR MROC 060100Z 27005KT CAVOK 21/18 A2998 NOSIG=
201210060200 METAR MROC 060200Z 30002KT CAVOK 21/17 A3000 NOSIG=
201210060300 METAR MROC 060300Z 31003KT CAVOK 21/18 A3003 NOSIG=
201210060400 METAR MROC 060400Z 04003KT CAVOK 20/18 A3002 NOSIG=
201210060500 METAR MROC 060500Z 04005KT CAVOK 19/17 A3000 NOSIG=
201210060600 METAR MROC 060600Z 09004KT CAVOK 18/16 A2998 NOSIG=
201210060700 METAR MROC 060700Z 06005KT CAVOK 19/16 A2996 NOSIG=
201210060800 METAR MROC 060800Z 08005KT CAVOK 18/16 A2994 NOSIG=
201210060900 METAR MROC 060900Z 09004KT CAVOK 18/15 A2993 NOSIG=
201210061000 METAR MROC 061000Z 06004KT CAVOK 18/15 A2994 NOSIG=
201210061100 METAR MROC 061100Z 07005KT CAVOK 18/14 A2997 NOSIG=
201210061200 METAR MROC 061200Z 06005KT CAVOK 18/14 A2998 NOSIG=
201210061300 METAR MROC 061300Z 08004KT CAVOK 21/15 A2998 NOSIG=
201210061400 METAR MROC 061400Z 09006KT CAVOK 24/21 A2998 NOSIG=
201210061500 METAR MROC 061500Z 11004KT CAVOK 27/15 A2998 NOSIG=
201210061600 METAR MROC 061600Z 24008KT 9999 FEW040 SCT250 26/18 A2999 NOSIG=
201210061700 METAR MROC 061700Z 24009KT 9999 FEW040 SCT250 27/17 A2997 NOSIG=
201210061800 METAR MROC 061800Z 23008KT 9999 SCT035 SCT250 27/18 A2995 NOSIG=
201210061900 METAR MROC 061900Z 25009KT 9999 SCT030TCU SCT250 27/19 A2992 NOSIG=
201210062000 METAR MROC 062000Z 23011KT 9999 SCT025TCU SCT250 26/20 A2990 NOSIG=
201210062100 METAR MROC 062100Z 21005KT 9999 4800E SHRA VCTS FEW020TCU FEW022CB SCT040 BKN100 23/19 A2992 BECMG 7000 -TSRA=
201210062200 METAR MROC 062200Z 04005KT 9999 VCSH FEW018TCU FEW035 BKN180 22/19 A2990 NOSIG=
201210062300 METAR MROC 062300Z 09002KT 9999 FEW045 SCT060 BKN250 22/19 A2991 NOSIG=
201210070000 METAR MROC 070000Z 29003KT CAVOK 23/19 A2993 NOSIG=
201210070100 METAR MROC 070100Z 31003KT 9999 VCFG FEW012 BKN045 22/20 A2995 BECMG 5000 BR BKN015=
201210070200 METAR MROC 070200Z 23002KT 9999 4900W BCFG FEW012 BKN250 21/19 A2998 NOSIG=
201210070300 METAR MROC 070300Z 00000KT 9999 4000SW BCFG FEW004 SCT015 BKN250 21/20 A2998 BECMG 5000 BR=
201210070400 METAR MROC 070400Z 33002KT 9999 FEW007 SCT020 BKN250 21/19 A3000 NOSIG=
201210070500 METAR MROC 070500Z 02002KT 9999 VCFG SCT020 SCT140 BKN250 21/20 A2999 NOSIG=
201210070600 METAR MROC 070600Z 06003KT 9999 VCFG FEW010 BKN250 19/18 A2998 NOSIG=
201210070700 METAR MROC 070700Z 04004KT CAVOK 19/17 A2994 NOSIG=
201210070800 METAR MROC 070800Z 07005KT CAVOK 18/16 A2992 NOSIG=
201210070900 METAR MROC 070900Z 05003KT CAVOK 18/16 A2991 NOSIG=
201210071000 METAR MROC 071000Z 06006KT CAVOK 18/16 A2993 NOSIG=
201210071100 METAR MROC 071100Z 07003KT CAVOK 19/16 A2994 NOSIG=
201210071200 METAR MROC 071200Z 07004KT CAVOK 19/16 A2995 NOSIG=
201210071300 METAR MROC 071300Z 08004KT CAVOK 22/17 A2997 NOSIG=
201210071400 METAR MROC 071400Z 11007KT CAVOK 24/17 A2999 NOSIG=
201210071500 METAR MROC 071500Z 12006KT CAVOK 26/17 A2998 NOSIG=
201210071600 METAR MROC 071600Z 14006KT 9999 FEW045 BKN300 27/16 A3000 BECMG 24007KT=
201210071700 METAR MROC 071700Z 25008KT 9999 FEW045 BKN250 24/19 A2999 NOSIG=
201210071800 METAR MROC 071800Z 24007KT 9999 FEW030 BKN250 25/19 A2997 NOSIG=
201210071900 METAR MROC 071900Z 24009KT 9999 SCT030 BKN250 25/20 A2994 NOSIG=
201210072000 METAR MROC 072000Z 24009KT 9999 VCSH FEW015 SCT022TCU SCT250 24/20 A2993 BECMG SHRA BKN025=
201210072100 METAR MROC 072100Z 25008KT 9999 FEW010 BKN020TCU 22/20 A2992 BECMG SHRA=
201210072200 METAR COR MROC 072200Z 23007KT 9999 SHRA FEW010 SCT020 BKN100 22/20 A2993 NOSIG=
201210072300 METAR MROC 072300Z 26008KT 9000 SHRA FEW006 SCT020 BKN100 21/20 A2995 BECMG 5000 RA BR BKN020=
201210072356 METAR MROC 080000Z 24006KT 9999 FEW006 SCT020 BKN100 21/19 A2997 RESHRA NOSIG=
201210080000 METAR MROC 080000Z 24006KT 9999 FEW006 SCT020 BKN100 21/19 A2997 RESHRA NOSIG=
201210080100 METAR MROC 080100Z 24006KT 9999 FEW006 BKN020 20/19 A3000 NOSIG=
201210080200 METAR MROC 080200Z 24005KT 8000 1500SW -DZ VCFG SCT004 BKN020 20/19 A3003 NOSIG=
201210080300 METAR MROC 080300Z 32005KT 9999 FEW005 BKN100 20/14 A3004 NOSIG=
201210080400 METAR MROC 080400Z 03002KT 9999 FEW010 SCT030 20/19 A3002 NOSIG=
201210080500 METAR MROC 080500Z 17003KT 9999 FEW010 SCT030 20/18 A3000 NOSIG=
201210080600 METAR MROC 080600Z 03003KT 9999 FEW010 SCT030 20/18 A2998 BECMG=
201210080700 METAR MROC 080700Z 02003KT CAVOK 19/17 A2995 NOSIG=
201210080800 METAR MROC 080800Z 00000KT 9999 19/17 A2996 NOSIG=
201210080900 METAR MROC 080900Z 03004KT CAVOK 18/17 A2997 NOSIG=
201210081000 METAR MROC 081000Z 06002KT CAVOK 19/17 A2998 NOSIG=
201210081100 METAR MROC 081100Z 05003KT CAVOK 19/18 A2998 NOSIG=
201210081200 METAR MROC 081200Z 03002KT CAVOK 19/17 A3000 NOSIG=
201210081300 METAR MROC 081300Z 20003KT 9999 FEW015 BKN120 21/18 A3004 NOSIG=
201210081400 METAR MROC 081400Z 00000KT 9999 FEW015 SCT120 BKN200 22/18 A3004 NOSIG=
201210081500 METAR MROC 081500Z 19004KT 9999 FEW025 SCT120 BKN200 24/18 A3004 NOSIG=
201210081600 METAR MROC 081600Z 26006KT 9999 FEW025 SCT120 BKN200 24/19 A3005 NOSIG=
201210081700 METAR MROC 081700Z 25005KT 9999 SCT025TCU BKN200 24/19 A3002 NOSIG=
201210081800 METAR MROC 081800Z 24010KT 9999 SHRA SCT020TCU BKN200 24/20 A3000 BECMG 6000 TSRA=
201210081900 METAR MROC 081900Z 25008KT 5000 RA BR FEW006 SCT015 BKN100 22/20 A3000 RESH NOSIG=
201210082000 METAR MROC 082000Z 31004KT 5000 -RA BR BKN015 SCT100 20/18 A2997 NOSIG=
201210082100 METAR MROC 082100Z 03004KT 5000 -RA BR FEW002 SCT015 OVC100 20/18 A2997 NOSIG=
201210082200 METAR MROC 082200Z 23005KT 3000 -RA BR FEW001 SCT010 OVC100 20/19 A2997 BECMG 1000 BR=
201210082300 METAR MROC 082300Z 18002KT 8000 VCFG FEW005 SCT015 OVC100 20/19 A2999 NOSIG=
201210090000 METAR MROC 090000Z 00000KT 9999 FEW015 SCT035 BKN100 20/19 A3001 NOSIG=
201210090100 METAR MROC 090100Z 24002KT 9999 FEW015 SCT035 BKN100 20/19 A3004 NOSIG=
201210090200 METAR MROC 090200Z 22001KT 9999 FEW015 SCT035 BKN100 20/19 A3006 NOSIG=
201210090300 METAR MROC 090300Z 26001KT 9000 3600SW -RA BCFG FEW002 SCT015 BKN100 20/19 A3008 BECMG 5000 BR=
201210090400 METAR MROC 090400Z 00000KT 9999 4800SW -RA BCFG FEW012 BKN110 20/19 A3007 NOSIG=
201210090500 METAR MROC 090500Z VRB02KT 9000 4000SW DZ BCFG FEW005 BKN110 20/19 A3005 NOSIG=
201210090600 METAR MROC 090600Z 19001KT 9000 -DZ BCFG FEW005 BKN110 20/19 A3003 NOSIG=
201210090700 METAR MROC 090700Z 32001KT 8000 3000SW BCFG FEW015 BKN180 20/19 A3001 NOSIG=
201210090800 METAR MROC 090800Z 19002KT 0300 FG SCT001 BKN003 19/18 A2999 NOSIG=
201210090833 METAR MROC 090833Z VRB02KT 6000 1000SW BCFG SCT002 BKN250 19/18 A2999 BECMG 9000 VCFG=
201210090900 METAR MROC 090900Z 26002KT 7000 1200SW BCFG SCT002 SCT050 19/18 A2999 BECMG 0900 FG=
201210091000 METAR MROC 091000Z 09002KT 9999 4500SW BCFG FEW004 BKN060 19/18 A2999 NOSIG=
201210091100 METAR MROC 091100Z 03002KT 9999 4500SW BCFG FEW004 BKN060 19/18 A3002 NOSIG=
201210091200 METAR MROC 091200Z 02002KT 8000 3800SW BCFG FEW015 BKN035 19/18 A3004 NOSIG=
201210091300 METAR MROC 091300Z 10003KT 9999 VCFG FEW005 SCT030 BKN120 20/19 A3007 NOSIG=
201210091400 METAR MROC 091400Z 03003KT 9999 FEW030 BKN120 22/18 A3008 NOSIG=
201210091500 METAR MROC 091500Z 13002KT 9999 FEW030 BKN120 24/18 A3008 NOSIG=
201210091600 METAR MROC 091600Z 18002KT 9999 FEW030 BKN120 25/19 A3007 BECMG 24006KT=
201210091700 METAR MROC 091700Z 26005KT 9999 FEW030 BKN120 26/19 A3004 NOSIG=
201210091800 METAR MROC 091800Z 23006KT 9999 SCT030 BKN120 27/19 A3001 NOSIG=
201210091900 METAR MROC 091900Z 23007KT 9999 FEW010TCU SCT030 SCT120 26/19 A2999 NOSIG=
201210092000 METAR MROC 092000Z 23009KT 9999 SCT030 SCT120 25/20 A2998 NOSIG=
201210092100 METAR MROC 092100Z 25010KT 9999 FEW020TCU SCT035 BKN250 24/20 A2996 NOSIG=
201210092200 METAR MROC 092200Z 25008KT 9999 VCSH FEW015CB SCT025 BKN070 22/19 A2998 BECMG 5000 SHRA=
201210092300 METAR MROC 092300Z 23003KT 9999 VCSH FEW015CB BKN025 22/20 A3000 BECMG 5000 SHRA=
201210100000 METAR MROC 100000Z 24002KT 9999 -RA SCT030 BKN060 21/20 A3002 NOSIG=
201210100100 METAR MROC 100100Z 25003KT 9999 -RA SCT030 BKN070 21/19 A3005 NOSIG=
201210100200 METAR MROC 100200Z 28004KT 9999 4000SW BCFG FEW005 SCT030 BKN070 21/19 A3007 BECMG 5000 BR=
201210100300 METAR MROC 100300Z 28003KT 5000 -RA BR FEW005 SCT020 BKN050 20/19 A3009 BECMG 0800 FG BKN010=
201210100400 METAR MROC 100400Z 32002KT 9999 -DZ BCFG FEW005 SCT020 BKN080 20/19 A3007 NOSIG=
201210100500 METAR MROC 100500Z 00000KT 8000 VCFG FEW005 SCT020 BKN100 20/19 A3006 NOSIG=
201210100600 METAR MROC 100600Z 31002KT 9999 BCFG SCT035 BKN200 20/19 A3005 NOSIG=
201210100700 METAR MROC 100700Z 07003KT 9999 BCFG SCT035 BKN200 20/19 A3002 NOSIG=
201210100800 METAR MROC 100800Z 04003KT CAVOK 20/18 A2999 NOSIG=
201210100900 METAR MROC 100900Z 09003KT CAVOK 19/17 A2998 NOSIG=
201210101000 METAR MROC 101000Z 13004KT 9999 BCFG BKN120 19/17 A2998 NOSIG=
201210101100 METAR MROC 101100Z 20002KT 9999 BCFG FEW030 BKN120 19/17 A3001 NOSIG=
201210101200 METAR MROC 101200Z 15001KT 2000 BR SCT008 BKN120 19/18 A3003 NOSIG=
201210101300 METAR MROC 101300Z 10002KT 5000 2000SW BR FEW002 SCT030 BKN120 20/19 A3005 NOSIG=
201210101400 METAR MROC 101400Z 06002KT 8000 BCFG FEW006 BKN120 22/19 A3008 NOSIG=
201210101500 METAR MROC 101500Z 00000KT 9000 BCFG FEW006 SCT070 BKN120 22/19 A3009 BECMG 24005KT=
201210101600 METAR MROC 101600Z 25004KT 9999 BCFG FEW008 BKN120 22/19 A3010 NOSIG=
201210101700 METAR MROC 101700Z 26003KT 9000 -RA BCFG SCT008 BKN120 23/20 A3008 NOSIG=
201210101800 METAR MROC 101800Z 28002KT 9999 BCFG SCT015 BKN140 25/19 A3003 NOSIG=
201210101900 METAR MROC 101900Z 24004KT 9999 SCT030 BKN140 25/19 A2999 NOSIG=
201210102000 METAR MROC 102000Z 20002KT 9999 VCSH FEW025 SCT100 BKN200 25/19 A2996 BECMG 8000 -SHRA=
201210102100 METAR MROC 102100Z 27005KT 8000 -RA SCT010TCU BKN100 23/19 A2996 NOSIG=
201210102200 METAR MROC 102200Z 21004KT 9999 -RA SCT015 BKN100 23/21 A2997 NOSIG=
201210102300 METAR MROC 102300Z 22002KT 5000 BR FEW004 SCT015 BKN100 22/20 A2999 RERA NOSIG=
201210110000 METAR MROC 110000Z 00000KT 9999 FEW025 BKN100 21/19 A3000 NOSIG=
201210110100 METAR MROC 110100Z 10002KT 9999 FEW030 BKN100 21/18 A3003 NOSIG=
201210110200 METAR MROC 110200Z 12002KT 9999 FEW030 BKN120 21/18 A3005 NOSIG=
201210110300 METAR MROC 110300Z 07005KT 9999 VCFG FEW002 BKN120 21/17 A3006 NOSIG=
201210110400 METAR MROC 110400Z 06002KT 9999 VCFG FEW002 BKN120 21/17 A3007 NOSIG=
201210110500 METAR MROC 110500Z 04003KT 9999 VCFG FEW002 BKN120 21/18 A3005 NOSIG=
201210110600 METAR MROC 110600Z 23004KT 3000 BR FEW001 SCT005 BKN120 20/19 A3002 NOSIG=
201210110700 METAR MROC 110700Z 00000KT 0500 FG VV/// 20/19 A3000 NOSIG=
201210110800 METAR MROC 110800Z 00000KT 1000 BR FEW001 SCT005 20/19 A2999 BECMG 3000=
201210110900 METAR MROC 110900Z 06004KT 9999 FEW030 SCT120 19/18 A2997 NOSIG=
201210111000 METAR MROC 111000Z 07006KT CAVOK 20/16 A2997 NOSIG=
201210111100 METAR MROC 111100Z 07007KT 9999 FEW020 SCT250 20/16 A2996 NOSIG=
201210111200 METAR MROC 111200Z 12004KT 9999 FEW030 BKN250 21/17 A2999 NOSIG=
201210111300 METAR MROC 111300Z 12009KT 9999 FEW035 BKN250 23/17 A3001 NOSIG=
201210111400 METAR MROC 111400Z 11010KT 9999 FEW035 BKN250 23/17 A3003 NOSIG=
201210111500 METAR MROC 111500Z 11011KT 9999 FEW035 BKN250 25/17 A3005 NOSIG=
201210111600 METAR MROC 111600Z 08010KT 9999 FEW035 SCT110 27/17 A3003 NOSIG=
201210111700 METAR MROC 111700Z 09011KT 9999 SCT030 SCT110 28/16 A3001 NOSIG=
201210111800 METAR MROC 111800Z 13008KT 9999 SCT030 SCT110 27/17 A3000 NOSIG=
201210111900 METAR MROC 111900Z 10011KT 9999 -RA SCT030 BKN110 25/18 A2997 BECMG 6000=
201210112000 METAR MROC 112000Z 10007KT 9999 -RA SCT030 BKN110 26/16 A2996 NOSIG=
201210112100 METAR MROC 112100Z 12006KT 9999 FEW045 SCT070 BKN150 25/17 A2996 NOSIG=
201210112200 METAR MROC 112200Z 29007KT 9999 FEW045 SCT130 BKN200 23/19 A2997 NOSIG=
201210112300 METAR MROC 112300Z 31003KT 9999 FEW045 BKN130 22/19 A2999 NOSIG=
201210120000 METAR MROC 120000Z VRB02KT 9999 FEW045 BKN140 22/19 A3001 NOSIG=
201210120100 METAR MROC 120100Z 11006KT 9999 FEW035 BKN130 23/16 A3003 NOSIG=
201210120200 METAR MROC 120200Z 07002KT 9999 FEW035 BKN150 22/16 A3006 NOSIG=
201210120300 METAR MROC 120300Z 11003KT 9999 FEW035 SCT140 22/16 A3007 NOSIG=
201210120400 METAR MROC 120400Z 26002KT 9999 FEW035 SCT120 21/18 A3006 NOSIG=
201210120500 METAR MROC 120500Z 09004KT 9999 FEW035 BKN120 21/17 A3005 NOSIG=
201210120600 METAR MROC 120600Z 00000KT CAVOK 21/17 A3003 NOSIG=
201210120700 METAR MROC 120700Z 11008KT CAVOK 22/17 A3000 RMK BKN120=
201210120800 METAR MROC 120800Z 10006KT CAVOK 21/17 A2997 RMK BKN120=
201210120900 METAR MROC 120900Z 12004KT CAVOK 21/16 A2996 NOSIG=
201210121000 METAR MROC 121000Z 05002KT CAVOK 20/16 A2997 NOSIG=
201210121100 METAR MROC 121100Z 09005KT 9999 FEW030 SCT120 20/16 A2998 NOSIG=
201210121200 METAR MROC 121200Z 06005KT 9999 FEW040 BKN250 20/16 A2999 NOSIG=
201210121300 METAR MROC 121300Z 10009KT 9999 FEW040 SCT250 23/17 A3002 NOSIG=
201210121400 METAR MROC 121400Z 10009KT 9999 FEW045 25/16 A3002 NOSIG=
201210121500 METAR MROC 121500Z 09008KT 9999 FEW040 26/16 A3004 NOSIG=
201210121600 METAR MROC 121600Z 07010KT 9999 FEW040 28/16 A3004 NOSIG=
201210121700 METAR MROC 121700Z 09007KT 9999 FEW040 28/16 A3002 NOSIG=
201210121800 METAR MROC 121800Z 14006KT 9999 SCT045 29/16 A2999 BECMG 21006KT=
201210121900 METAR MROC 121900Z 26008KT 9999 FEW020TCU SCT040 25/20 A2997 BECMG SHRA=
201210122000 METAR MROC 122000Z 25008KT 9999 FEW025TCU FEW035 26/21 A2994 NOSIG=
201210122100 METAR MROC 122100Z 25012KT 9999 FEW020TCU SCT040 BKN250 25/21 A2994 BECMG RA=
201210122200 METAR MROC 122200Z 26011KT 2000 0500N +SHRA BR FEW005 BKN020TCU 21/19 A2997 NOSIG=
201210122300 METAR MROC 122300Z 27004KT 8000 2500N VCSH VCFG FEW005 SCT020 BKN100 20/19 A2999 NOSIG=
201210122352 METAR MROC 130000Z 11003KT 9999 FEW010 SCT020 BKN100 20/19 A3000 NOSIG=
201210130000 METAR MROC 130000Z 11003KT 9999 FEW010 SCT020 BKN100 20/19 A3000 NOSIG=
201210130100 METAR MROC 130100Z 08002KT 9999 FEW030 BKN250 20/19 A2999 NOSIG=
201210130200 METAR MROC 130200Z 10004KT 9999 FEW030 SCT250 20/19 A3000 NOSIG=
201210130300 METAR MROC 130300Z 07002KT 9999 FEW030 SCT250 20/18 A3001 NOSIG=
201210130400 METAR MROC 130400Z 03007KT CAVOK 20/17 A3003 NOSIG=
201210130500 METAR MROC 130500Z 06003KT CAVOK 19/17 A3003 NOSIG=
201210130600 METAR MROC NIL=
201210130700 METAR MROC 130700Z 09005KT CAVOK 20/16 A2999 NOSIG=
201210130800 METAR MROC 130800Z 07004KT CAVOK 20/16 A2997 NOSIG=
201210130900 METAR MROC 130900Z 07005KT CAVOK 20/16 A2997 NOSIG=
201210131000 METAR MROC 131000Z 06007KT CAVOK 18/16 A2998 NOSIG=
201210131100 METAR MROC 131100Z 06007KT CAVOK 19/16 A2999 NOSIG=
201210131200 METAR MROC 131200Z 06007KT CAVOK 20/16 A3000 NOSIG=
201210131300 METAR MROC 131300Z 06003KT CAVOK 23/17 A3003 NOSIG=
201210131400 METAR MROC 131400Z 06006KT 9999 FEW035 BKN200 24/17 A3003 NOSIG=
201210131500 METAR MROC 131500Z 12005KT 9999 FEW035 BKN200 26/17 A3003 BECMG 24006KT=
201210131600 METAR MROC 131600Z 11007KT 9999 SCT035 BKN200 27/17 A3001 BECMG 24006KT=
201210131656 METAR MROC 161700Z 26012KT 9999 SCT035 BKN200 24/19 A3000 NOSIG=
201210131700 METAR MROC 131700Z COR 26012KT 9999 SCT035 BKN200 24/19 A3000 NOSIG=
201210131800 METAR MROC 131800Z 25009KT 9999 SCT035 BKN200 25/20 A2997 NOSIG=
201210131900 METAR MROC 131900Z 22008KT 9999 SCT035 BKN200 26/20 A2994 NOSIG=
201210132000 METAR MROC 132000Z 25008KT 9999 FEW020TCU SCT035 BKN200 25/21 A2992 NOSIG=
201210132100 METAR MROC 132100Z 26009KT 9999 FEW010TCU SCT030 BKN200 25/21 A2991 NOSIG=
201210132200 METAR MROC 132200Z 25008KT 9999 FEW010 SCT030 BKN200 23/20 A2991 NOSIG=
201210132300 METAR MROC 132300Z 24005KT 8000 VCSH FEW010CB BKN030 22/20 A2995 BECMG RA=
201210140000 METAR MROC 140000Z 17002KT 9999 3000SW -RA FEW002 SCT030 BKN100 22/21 A2998 NOSIG=
201210140100 METAR MROC 140100Z 22005KT 8000 VCFG FEW001 SCT030 BKN100 20/19 A2999 BECMG 5000 BR=
201210140200 METAR MROC 140200Z 25005KT 3000 BR FEW001 SCT010 BKN100 20/19 A3002 BECMG 1000 BR=
201210140300 METAR MROC 140300Z 24001KT 3000 BR SCT001 BKN100 20/19 A3001 BECMG 2000 BR BKN010=
201210140400 METAR MROC 140400Z 07005KT 9999 VCFG FEW040 BKN180 20/18 A3001 NOSIG=
201210140500 METAR MROC 140500Z 06005KT 9999 VCFG FEW035 BKN180 20/17 A3000 NOSIG=
201210140600 METAR MROC 140600Z 15003KT 9999 3000S BCFG FEW100 SCT300 19/17 A3000 BECMG 24004KT 5000 BR=
201210140700 METAR MROC 140700Z 06001KT 9999 3500S BCFG FEW045 SCT250 18/17 A2997 NOSIG=
201210140800 METAR MROC 140800Z 06003KT 9999 BCFG FEW045 19/16 A2997 NOSIG=
201210140900 METAR MROC 140900Z 11001KT CAVOK 18/16 A2996 NOSIG=
201210141000 METAR MROC 141000Z 06003KT CAVOK 19/17 A2998 NOSIG=
201210141100 METAR MROC 141100Z 04003KT CAVOK 18/16 A2999 NOSIG=
201210141200 METAR MROC 141200Z 11004KT 9999 FEW045 SCT050 BKN250 19/17 A3001 NOSIG=
201210141300 METAR MROC 141300Z 09002KT 9999 FEW035 SCT080 BKN250 20/17 A3003 BECMG 23006KT=
201210141400 METAR MROC 141400Z 12002KT 9999 FEW030 SCT100 BKN250 22/18 A3004 BECMG 22006KT=
201210141500 METAR MROC 141500Z 26002KT 9999 FEW030 BKN250 26/18 A3005 NOSIG=
201210141600 METAR MROC 141600Z 24004KT 9999 FEW030 SCT120 BKN250 26/18 A3004 NOSIG=
201210141700 METAR MROC 141700Z 24007KT 9999 FEW030 SCT120 BKN250 24/20 A3001 NOSIG=
201210141800 METAR MROC 141800Z 24009KT 9999 FEW030 SCT120 BKN250 23/19 A2999 NOSIG=
201210141900 METAR MROC 141900Z 25007KT 9999 SCT030 BKN250 25/19 A2997 NOSIG=
201210142000 METAR MROC 142000Z 24010KT 9999 SCT030 BKN250 23/20 A2995 NOSIG=
201210142100 METAR MROC 142100Z 24008KT 9999 VCSH FEW010 SCT025 BKN200 22/20 A2995 NOSIG=
201210142200 METAR MROC 142200Z 25005KT 8000 3000SW SHRA FEW006 SCT015 BKN140 21/20 A2997 BECMG 5000=
201210142300 METAR MROC 142300Z 28005KT 5000 RA BR FEW002 SCT015 BKN100 20/19 A2998 NOSIG=
201210150000 METAR MROC 150000Z 25003KT 9000 -RA VCFG FEW002 SCT020 BKN100 20/19 A3000 NOSIG=
201210150100 METAR MROC 150100Z 19002KT 9999 DZ VCFG SCT010 BKN100 20/19 A3002 NOSIG=
201210150200 METAR MROC 150200Z 00000KT 9999 FEW020 BKN100 20/19 A3003 NOSIG=
201210150300 METAR MROC 150300Z 27002KT 9999 BCFG FEW020 BKN100 20/19 A3004 BECMG 5000 BR=
201210150400 METAR MROC 150400Z 28003KT 8000 VCFG FEW020 BKN100 20/19 A3004 BECMG 5000 BR=
201210150500 METAR MROC 150500Z 27001KT 8000 VCFG FEW010 BKN100 20/19 A3004 NOSIG=
201210150600 METAR MROC 150600Z 12003KT 4000 -RA BR SCT001 BKN100 20/19 A3001 NOSIG=
201210150700 METAR MROC 150700Z 07001KT CAVOK 19/19 A2997 NOSIG=
201210150800 METAR MROC 150800Z 04001KT 9999 BCFG FEW010 BKN120 19/18 A2994 NOSIG=
201210150900 METAR MROC 150900Z 32004KT 8000 VCFG FEW001 BKN120 19/18 A2995 BECMG 5000 BR=
201210151000 METAR MROC 151000Z 22002KT 1500 BR VV002 19/18 A2996 NOSIG=
201210151100 METAR MROC 151100Z 19001KT 1000 BR SCT002 BKN100 19/18 A2996 NOSIG=
201210151200 METAR MROC 151200Z 00000KT 2000 BR SCT002 BKN100 20/19 A2999 NOSIG=
201210151300 METAR MROC 151300Z 10002KT 9999 VCFG FEW002 SCT020 BKN120 20/19 A3002 NOSIG=
201210151400 METAR MROC 151400Z 00000KT 9999 SCT025 BKN120 23/18 A3004 NOSIG=
201210151500 METAR MROC 151500Z 00000KT 9999 SCT025 BKN120 26/19 A3003 BECMG 24007KT=
201210151600 METAR MROC 151600Z 25003KT 9999 FEW020TCU FEW030 SCT140 25/19 A3003 NOSIG=
201210151700 METAR MROC 151700Z 24007KT 9999 FEW020TCU SCT030 SCT250 25/19 A3000 NOSIG=
201210151800 METAR MROC 151800Z 24009KT 9999 VCSH FEW020TCU FEW030 BKN250 25/19 A2998 NOSIG=
201210151900 METAR MROC 151900Z 24007KT 9999 VCSH FEW015TCU SCT030 SCT250 25/19 A2995 BECMG 8000 SHRA=
201210152000 METAR MROC 152000Z 21009KT 9999 -SHRA VCSH SCT015TCU FEW030 SCT250 25/19 A2993 NOSIG=
201210152100 METAR MROC 152100Z 22010KT 9999 -RA SCT020TCU BKN100 22/20 A2991 NOSIG=
201210152200 METAR MROC 152200Z 20007KT 9999 -RA SCT015TCU SCT100 22/19 A2994 NOSIG=
201210152300 METAR MROC 152300Z 22006KT 9999 -DZ FEW006 SCT015 BKN120 21/19 A2996 NOSIG=
201210160000 METAR MROC 160000Z 26004KT 8000 -DZ VCFG FEW003 SCT015 BKN100 20/19 A2998 BECMG 5000 BR=
201210160100 METAR MROC 160100Z 24002KT 8000 -DZ VCFG FEW003 SCT015 BKN100 20/19 A3001 NOSIG=
201210160200 METAR MROC 160200Z 00000KT 9999 FEW005 SCT015 BKN100 21/19 A3002 REDZ NOSIG=
201210160300 METAR MROC 160300Z 09002KT 9999 FEW030 BKN100 20/19 A3002 NOSIG=
201210160400 METAR MROC 160400Z 20002KT CAVOK 20/18 A3001 NOSIG=
201210160500 METAR MROC 160500Z 26003KT 9999 VCFG FEW001 SCT120 19/18 A3001 BECMG 3000 BR=
201210160600 METAR MROC 160600Z 13002KT 9999 1000SW BR FEW001 SCT120 19/18 A3000 BECMG 3000 BR=
201210160700 METAR MROC 160700Z 00000KT 9999 VCFG FEW001 SCT120 19/18 A2998 NOSIG=
201210160800 METAR MROC 160800Z 00000KT 9999 VCFG FEW003 SCT120 19/18 A2997 NOSIG=
201210160900 METAR MROC 160900Z 11002KT 9999 VCFG FEW002 SCT120 18/17 A2994 NOSIG=
201210161000 METAR MROC 161000Z 05005KT 9999 VCFG FEW002 SCT120 18/16 A2994 NOSIG=
201210161100 METAR MROC 161100Z 05004KT CAVOK 17/15 A2996 NOSIG=
201210161200 METAR MROC 161200Z 07004KT CAVOK 17/15 A2998 NOSIG=
201210161300 METAR MROC 161300Z 00000KT CAVOK 21/17 A2999 NOSIG=
201210161400 METAR MROC 161400Z 09004KT CAVOK 25/18 A3004 NOSIG=
201210161500 METAR MROC 161500Z 13006KT 9999 FEW030 SCT130 26/17 A3001 NOSIG=
201210161600 METAR MROC 161600Z 21004KT 9999 FEW030 BKN130 27/17 A3000 NOSIG=
201210161700 METAR MROC 161700Z 26006KT 9999 FEW030 SCT130 27/19 A2998 NOSIG=
201210161800 METAR MROC 161800Z 25008KT 9999 SCT025 SCT130 27/20 A2995 NOSIG=
201210161900 METAR MROC 161900Z 24010KT 9999 SCT020 SCT130 26/21 A2993 NOSIG=
201210162000 METAR MROC NIL=
201210162100 METAR MROC 162100Z 19003KT 7000 2500S -RA FEW006 SCT060 BKN100 20/19 A2993 NOSIG=
201210162200 METAR MROC 162200Z 11003KT 9999 RA FEW018 SCT070 OVC130 20/19 A2995 NOSIG=
201210162300 METAR MROC 162300Z 04003KT 9999 -RA FEW040 BKN080 21/19 A2995 NOSIG=
201210170000 METAR MROC 170000Z 23003KT 9999 VCFG FEW035 OVC120 21/19 A2997 NOSIG=
201210170100 METAR MROC 170100Z 19002KT 9999 1000SW BCFG FEW030 BKN120 20/19 A2998 BECMG PRFG=
201210170200 METAR MROC 170200Z 07003KT 9999 4000S BCFG SCT080 BKN180 20/19 A3001 NOSIG=
201210170300 METAR MROC 170300Z 20003KT 9999 VCFG FEW015 BKN120 20/18 A3004 NOSIG=
201210170400 METAR MROC 170400Z 24003KT CAVOK 20/18 A3004 NOSIG=
201210170500 METAR MROC 170500Z 00000KT CAVOK 20/18 A3003 NOSIG=
201210170600 METAR MROC 170600Z 00000KT CAVOK 18/17 A3002 NOSIG=
201210170654 METAR MROC 270700Z 00000KT 9999 FEW020 SCT120 18/17 A3000 NOSIG=
201210170700 METAR MROC NIL=
201210170800 METAR MROC 170800Z 10003KT 9999 FEW015 SCT120 18/17 A2998 NOSIG=
201210170900 METAR MROC 170900Z 05004KT 9999 VCFG SCT020 BKN120 19/17 A2998 NOSIG=
201210171000 METAR MROC 171000Z 04005KT 9999 SCT020 BKN120 19/17 A2998 NOSIG=
201210171100 METAR MROC 171100Z 10002KT 9999 SCT020 BKN100 19/17 A3001 NOSIG=
201210171200 METAR MROC 171200Z 11003KT 9999 SCT025 BKN080 19/17 A3003 NOSIG=
201210171300 METAR MROC 171300Z 12003KT 9999 BKN045 20/17 A3004 NOSIG=
201210171400 METAR MROC 171400Z 11004KT 9999 FEW045 23/18 A3004 NOSIG=
201210171500 METAR MROC 171500Z 12002KT 9999 FEW030 26/17 A3004 BECMG 24006KT=
201210171600 METAR MROC 171600Z 24005KT 9999 FEW030 27/19 A3003 NOSIG=
201210171700 METAR MROC NIL=
201210171800 METAR MROC 171800Z 23007KT 9999 FEW020TCU FEW030TCU 26/19 A2999 BECMG SHRA=
201210171900 METAR MROC 171900Z 24008KT 9999 VCSH FEW020 FEW030TCU 26/20 A2996 NOSIG=
201210172000 METAR MROC 172000Z 23011KT 9999 VCSH FEW015 SCT025TCU 24/20 A2993 BECMG SHRA=
201210172100 METAR MROC 172100Z 23008KT 9999 2000NE TSRA FEW010CB BKN025 23/20 A2994 BECMG 2000 +TSRA BKN010=
201210172200 METAR MROC 172200Z 36007KT 0500 SHRA FG FEW002 BKN010 19/18 A2996 BECMG 5000 RA BR=
201210172300 METAR MROC 172300Z 11003KT 5000 RA BR FEW010 BKN025 18/17 A2997 NOSIG=
201210172354 METAR MROC 180000Z 08003KT -RA BCFG FEW015 BKN035 19/18 A2999 NOSIG=
201210172357 METAR MROC 180000Z 08003KT 9999 -RA BCFG FEW015 BKN035 19/18 A2999 NOSIG=
201210180000 METAR MROC 180000Z 08003KT 9999 -RA BCFG FEW015 BKN035 19/18 A2999 NOSIG=
201210180100 METAR MROC 180100Z 06002KT 9999 BCFG FEW015 BKN035 20/19 A3003 NOSIG=
201210180200 METAR MROC 180200Z 13002KT 9999 FEW010 BKN020 20/19 A3004 NOSIG=
201210180300 METAR MROC 180300Z 18002KT 8000 VCFG FEW002 SCT010 SCT100 20/19 A3004 NOSIG=
201210180400 METAR MROC 180400Z 24003KT 3000 BR FEW001 SCT010 BKN100 20/19 A3003 BECMG 2000 BR=
201210180500 METAR MROC 180500Z 22002KT 2000 BR FEW001 SCT008 BKN100 20/19 A3003 BECMG 1500 BR=
201210180600 METAR MROC 180600Z 15002KT 1500 BR FEW001 SCT007 BKN100 20/19 A3000 BECMG 0800 FG=
201210180700 METAR MROC 180700Z 00000KT 5000 BR FEW002 SCT010 BKN100 20/19 A2999 BECMG 6000=
201210180800 METAR MROC 180800Z 00000KT 8000 VCFG FEW002 SCT015 BKN100 20/19 A2998 NOSIG=
201210180900 METAR MROC 180900Z 10002KT 9999 BCFG FEW003 SCT015 BKN100 19/18 A2997 NOSIG=
201210181000 METAR MROC 181000Z 11002KT 9999 FEW020 SCT120 19/18 A2999 NOSIG=
201210181100 METAR MROC 181100Z 10002KT 9999 FEW025 SCT120 19/18 A3000 NOSIG=
201210181200 METAR MROC 181200Z 03003KT 9999 BKN040 20/18 A3001 NOSIG=
201210181300 METAR MROC 181300Z 13001KT 9999 FEW040 BKN100 21/18 A3004 NOSIG=
201210181400 METAR MROC 181400Z 10001KT 8000 VCFG FEW030 BKN120 23/18 A3005 NOSIG=
201210181500 METAR MROC 181500Z 19002KT 9999 FEW030 BKN120 25/18 A3006 NOSIG=
201210181600 METAR MROC 181600Z 26001KT 9999 SCT030 BKN150 27/18 A3005 NOSIG=
201210181700 METAR MROC 181700Z 24004KT 9999 SCT030 BKN150 27/19 A3002 NOSIG=
201210181800 METAR MROC 181800Z 24010KT 9999 SCT025 BKN250 26/19 A2999 NOSIG=
201210181900 METAR COR MROC 181900Z 25012KT 9999 VCSH SCT020TCU SCT150 25/20 A2996 NOSIG=
201210182000 METAR MROC 182000Z 25011KT 9999 SHRA FEW010 SCT020TCU BKN100 23/20 A2996 BECMG 5000=
201210182100 METAR MROC 182100Z 24008KT 8000 -RA VCFG FEW001 BKN030 21/19 A2995 BECMG 4000 BR=
201210182200 METAR MROC 182200Z 22007KT 8000 -RA VCFG FEW001 SCT020 BKN100 20/19 A2995 BECMG 4000 BR=
201210182300 METAR MROC 182300Z 24008KT 5000 BR FEW001 BKN030 20/19 A2998 BECMG 2000 BR=
201210190000 METAR MROC 190000Z 21003KT 5000 -RA FEW001 BKN030 20/19 A2999 BECMG 2000 BR=
201210190100 METAR MROC 190100Z 00000KT 8000 -RA FEW002 BKN030 20/19 A3002 NOSIG=
201210190200 METAR MROC 190200Z 10001KT 8000 -RA FEW002 SCT030 BKN100 20/19 A3003 NOSIG=
201210190300 METAR MROC 190300Z 10001KT 9000 RA VCFG FEW002 SCT030 BKN100 20/19 A3005 NOSIG=
201210190400 METAR MROC 190400Z 00000KT 9999 4000SW -DZ BCFG FEW002 SCT030 BKN080 20/19 A3005 NOSIG=
201210190500 METAR MROC 190500Z 22002KT 8000 3500SW BCFG FEW002 BKN060 20/19 A3003 BECMG 5000 PRFG=
201210190600 METAR MROC 190600Z 32001KT 9000 3500SW BCFG FEW004 SCT020 BKN100 20/19 A3002 NOSIG=
201210190700 METAR MROC NIL=
201210190800 METAR MROC 190800Z 00000KT 8000 2500SW DZ BCFG SCT002 BKN020 20/19 A2997 BECMG 5000 DZ BR=
201210190900 METAR MROC 190900Z 06002KT 9999 VCFG FEW020 BKN110 20/18 A2996 NOSIG=
201210191000 METAR MROC 191000Z 11003KT CAVOK 19/18 A2995 NOSIG=
201210191100 METAR MROC 191100Z 14002KT CAVOK 19/18 A2996 NOSIG=
201210191200 METAR MROC 191200Z 18003KT 9999 1500SW BCFG FEW001 BKN120 19/18 A2998 NOSIG=
201210191300 METAR MROC 191300Z 23005KT 3000 BR SCT001 BKN120 20/19 A3001 NOSIG=
201210191400 METAR MROC 191400Z 23002KT 5000 BR FEW001 SCT020 BKN120 22/19 A3002 NOSIG=
201210191500 METAR MROC 191500Z 00000KT 8000 VCFG FEW001 SCT020 BKN120 23/19 A3003 NOSIG=
201210191600 METAR MROC 191600Z 21002KT 9999 SCT020 BKN120 25/18 A3002 NOSIG=
201210191700 METAR MROC 191700Z 25006KT 9999 SCT020 BKN120 25/19 A3000 NOSIG=
201210191800 METAR MROC 191800Z 25006KT 9999 SCT020 BKN120 25/19 A2997 NOSIG=
201210191900 METAR MROC 191900Z 24009KT 9999 SCT030 BKN120 24/20 A2995 NOSIG=
201210192000 METAR MROC 192000Z 26010KT 9999 SCT020 SCT120 23/20 A2993 BECMG RA BR=
201210192100 METAR MROC 192100Z 25009KT 9999 SCT020 SCT080 23/20 A2992 BECMG 8000 RA=
201210192200 METAR MROC 192200Z 23006KT 9999 VCFG FEW006 SCT015TCU BKN100 22/19 A2993 BECMG 8000 RA=
201210192300 METAR MROC 192300Z 23006KT 0800 -RA FG SCT002 BKN010 20/19 A2995 NOSIG=
201210200000 METAR MROC 200000Z 25007KT 2000 DZ BR SCT002 BKN015 20/19 A2998 BECMG 4000=
201210200100 METAR MROC 200100Z 27005KT 4000 BR SCT002 BKN020 20/18 A3000 BECMG 9999=
201210200200 METAR MROC 200200Z 26003KT 4000 BR SCT002 BKN020 20/19 A3002 NOSIG=
201210200300 METAR MROC 200300Z 29002KT 3000 BR SCT002 BKN010 20/19 A3002 NOSIG=
201210200400 METAR MROC 200400Z 30001KT 1000 -DZ BR SCT001 BKN008 20/19 A3002 BECMG 0500 FG VV///=
201210200500 METAR MROC 200500Z 24001KT 0500 FG VV001 20/19 A3001 NOSIG=
201210200600 METAR MROC 200600Z 22001KT 0500 -DZ FG VV001 20/19 A3000 NOSIG=
201210200700 METAR MROC 200700Z 27002KT 1200 DZ BR SCT001 BKN012 20/19 A2998 BECMG 0500 FG=
201210200800 METAR MROC 200800Z 31002KT 3000 DZ BR FEW001 BKN020 20/19 A2998 NOSIG=
201210200900 METAR MROC 200900Z 00000KT 5000 -DZ BR FEW001 SCT008 BKN025 20/19 A2997 NOSIG=
201210201000 METAR MROC 201000Z 11001KT 9999 -DZ BCFG SCT008 BKN025 20/19 A2997 NOSIG=
201210201100 METAR MROC 201100Z 26002KT 8000 DZ VCFG SCT001 BKN020 20/19 A2998 NOSIG=
201210201200 METAR MROC 201200Z 06003KT 9999 FEW040 BKN100 20/19 A2999 REDZ NOSIG=
201210201300 METAR MROC 201300Z 20003KT 9999 VCFG FEW002 BKN250 24/19 A3001 NOSIG=
201210201400 METAR MROC 201400Z 24004KT 8000 VCFG FEW002 SCT025 SCT250 22/20 A2999 NOSIG=
201210201500 METAR MROC 201500Z 24004KT 9999 VCFG SCT030 SCT250 24/20 A3000 NOSIG=
201210201600 METAR MROC 201600Z 24005KT 9999 FEW020TCU FEW030 SCT250 25/20 A2999 NOSIG=
201210201700 METAR MROC 201700Z 24008KT 9999 FEW020TCU SCT035 25/20 A2997 NOSIG=
201210201800 METAR MROC 201800Z 24009KT 9999 VCSH FEW015TCU SCT030 SCT250 26/20 A2994 BECMG 8000 RA=
201210201900 METAR MROC 201900Z 24010KT 9999 VCSH SCT015TCU SCT030 25/20 A2991 BECMG 8000 RA=
201210202000 METAR MROC 202000Z 27008KT 7000 3000NW -SHRA SCT015TCU BKN030 23/19 A2989 BECMG 5000=
201210202100 METAR MROC 202100Z 27005KT 9999 SCT015TCU BKN100 22/20 A2989 BECMG 6000 RA=
201210202200 METAR MROC 202200Z 22007KT 5000 RA BR SCT010TCU OVC100 21/20 A2989 BECMG 3000=
201210202300 METAR MROC 202300Z 23007KT 8000 -RA FEW005 SCT010 OVC100 21/19 A2990 NOSIG=
201210210000 METAR MROC 210000Z 23004KT 3000 -RA BR FEW002 SCT007 OVC100 20/19 A2993 BECMG 2000=
201210210100 METAR MROC 210100Z 25003KT 5000 -RA BR FEW002 SCT008 OVC100 20/19 A2994 NOSIG=
201210210200 METAR MROC 210200Z 24003KT 5000 BR FEW003 SCT010 OVC100 21/19 A2997 RERA NOSIG=
201210210300 METAR MROC 210300Z 00000KT 5000 BR FEW002 BKN020 21/19 A2997 NOSIG=
201210210400 METAR MROC 210400Z 24004KT 3000 BR FEW002 BKN020 20/19 A2997 NOSIG=
201210210500 METAR MROC 210500Z 18002KT 3000 BR FEW002 BKN020 20/19 A2998 NOSIG=
201210210600 METAR MROC 210600Z 00000KT 5000 BR FEW001 SCT020 BKN100 20/19 A2997 NOSIG=
201210210700 METAR MROC 210700Z 23002KT 5000 BR FEW001 SCT020 BKN100 20/19 A2996 NOSIG=
201210210800 METAR MROC 210800Z 20001KT 0500 FG VV/// 20/19 A2994 NOSIG=
201210210900 METAR MROC 210900Z 12002KT 1300 BR SCT001 BKN015 20/19 A2993 NOSIG=
201210211000 METAR MROC 211000Z 06003KT 9999 3000SW BR FEW001 SCT120 20/19 A2994 NOSIG=
201210211100 METAR MROC 211100Z 26004KT 0300 FG VV/// 20/19 A2995 BECMG 1200 BR=
201210211200 METAR MROC 211200Z 22002KT 1500 BR FEW001 SCT015 20/19 A2998 NOSIG=
201210211300 METAR MROC 211300Z 25002KT 5000 BR FEW002 SCT010 BKN100 20/19 A3001 BECMG 7000=
201210211400 METAR MROC 211400Z 00000KT 5000 BR FEW003 SCT010 BKN100 21/20 A3003 BECMG 8000=
201210211500 METAR MROC 211500Z 23003KT 8000 FEW004 SCT015 BKN100 23/20 A3001 BECMG 9999=
201210211600 METAR MROC 211600Z 24003KT 9999 SCT015 BKN100 24/20 A3000 NOSIG=
201210211700 METAR MROC 211700Z 24004KT 9999 SCT015 BKN100 25/19 A2998 NOSIG=
201210211800 METAR MROC NIL=
201210211900 METAR MROC 211900Z 23007KT 9999 SCT020 BKN110 26/20 A2991 NOSIG=
201210212000 METAR MROC 212000Z 24012KT 9999 FEW010 SCT015 BKN110 24/21 A2989 BECMG 8000 VCSH=
201210212045 METAR MROC 212045Z 24008KT 2500 -TSRA FEW012CB BKN020 21/20 A2990 NOSIG=
201210212100 METAR MROC 212100Z 25006KT 2000 -TSRA BR FEW006 SCT012CB BKN025 21/19 A2989 NOSIG=
201210212200 METAR MROC 212200Z 21002KT 9000 3500NW -RA VCSH FEW005 FEW010TCU BKN020 21/20 A2988 NOSIG=
201210212300 METAR MROC 212300Z 17002KT 9000 3500NW VCSH SCT005 BKN020 21/20 A2991 BECMG 6000 BKN010=
201210220000 METAR MROC 220000Z 15001KT 9999 3500SW VCFG SCT002 BKN012 21/20 A2993 BECMG BKN080=
201210220100 METAR MROC 220100Z 20003KT 9000 2000SW BCFG SCT001 BKN010 21/20 A2994 BECMG 5000 BR=
201210220200 METAR MROC 220200Z 10002KT 9999 3500SW BCFG FEW001 SCT018 21/19 A2995 NOSIG=
201210220300 METAR MROC 220300Z 26002KT 8000 VCFG SCT002 BKN100 21/20 A2996 NOSIG=
201210220400 METAR MROC 220400Z 25004KT 3000 BR SCT002 BKN025 21/20 A2996 NOSIG=
201210220500 METAR MROC 220500Z 00000KT 8000 1500 BCFG SCT002 BKN025 21/20 A2995 NOSIG=
201210220600 METAR MROC 220600Z 00000KT 2000 RA BR SCT002 BKN015 21/20 A2994 NOSIG=
201210220700 METAR MROC 220700Z 00000KT 5000 BR FEW002 SCT020 BKN100 21/20 A2991 NOSIG=
201210220800 METAR MROC 220800Z 00000KT 9000 BR FEW002 BKN080 21/20 A2989 NOSIG=
201210220900 METAR COR MROC 220900Z 33003KT 9999 2000SW VCFG FEW002 SCT100 20/19 A2987 NOSIG=
201210221000 METAR MROC 221000Z 00000KT 9999 3000SW VCFG FEW010 20/19 A2989 NOSIG=
201210221100 METAR MROC 221100Z 00000KT 0500 FG VV/// 20/19 A2990 NOSIG=
201210221200 METAR MROC 221200Z 00000KT 0500 FG VV/// 20/19 A2994=
201210221300 METAR MROC 221300Z 06002KT 2500 BR FEW002 SCT010 21/20 A2995 BECMG 9999=
201210221400 METAR MROC 221400Z 08002KT 9999 FEW040 BKN250 24/19 A2994 NOSIG=
201210221500 METAR MROC 221500Z 25001KT 9999 FEW040 BKN250 26/19 A2996 NOSIG=
201210221600 METAR MROC 221600Z 26008KT 9999 SCT030 BKN250 25/19 A2996 NOSIG=
201210221700 METAR MROC 221700Z 24006KT 9999 SCT025 BKN250 25/20 A2993 NOSIG=
201210221800 METAR MROC 221800Z 24008KT 9999 SCT025 BKN250 26/20 A2990 NOSIG=
201210221900 METAR MROC 221900Z 24010KT 9000 -RA VCTS FEW015CB SCT030 BKN250 26/20 A2987 RMK VEL MAX VTO 16KT BECMG 5000 TSRA=
201210222000 METAR MROC 222000Z 23010KT 5000 RA BR FEW002 SCT010CB BKN020 22/20 A2985 BECMG 3000 TSRA=
201210222100 METAR MROC 222100Z 23007KT 0700 RA FG VV/// 21/20 A2986 BECMG 1500 RA BR=
201210222200 METAR MROC 222200Z 24005KT 3500 BR SCT003 BKN020 21/20 A2988 RERA BECMG 6000=
201210222300 METAR MROC 222300Z 25003KT 6000 2500N -RA BCFG FEW001 SCT005 BKN020 22/20 A2989 BECMG 3000 RA BR BKN006=
201210230000 METAR MROC 230000Z 11001KT 9999 4000N RA FEW003 BKN060 22/20 A2989 NOSIG=
201210230100 METAR MROC 230100Z 11001KT 9999 VCFG FEW005 SCT045 BKN150 21/20 A2991 RERA NOSIG=
201210230200 METAR MROC 230200Z 00000KT 9999 4000SW -RA BCFG FEW008 BKN130 21/19 A2994 NOSIG=
201210230300 METAR MROC 230300Z 27003KT 9999 BCFG FEW008 BKN100 21/20 A2995 NOSIG=
201210230400 METAR MROC 230400Z 27002KT 8000 VCFG SCT008 BKN100 21/20 A2994 NOSIG=
201210230500 METAR MROC 230500Z 13002KT 9999 4500SW BCFG SCT008 BKN250 20/19 A2993 NOSIG=
201210230600 METAR MROC 230600Z 14002KT 9999 BCFG FEW008 SCT150 BKN250 20/19 A2990 NOSIG=
201210230700 METAR MROC 230700Z 11003KT 9999 BCFG SCT120 BKN250 20/19 A2987 NOSIG=
201210230800 METAR MROC 230800Z 08002KT 9999 BCFG FEW020 SCT120 BKN250 20/19 A2986 NOSIG=
201210230900 METAR MROC 230900Z 09003KT 9999 FEW020 BKN120 20/18 A2986 NOSIG=
201210231000 METAR MROC 231000Z 07004KT 9999 FEW020 BKN120 20/18 A2986 NOSIG=
201210231100 METAR MROC 231100Z 11003KT 9999 FEW030 BKN120 19/18 A2987 NOSIG=
201210231200 METAR MROC 231200Z 08003KT CAVOK 19/18 A2988 NOSIG=
201210231300 METAR MROC 231300Z 06003KT 9999 FEW025 BKN200 22/18 A2989 NOSIG=
201210231355 METAR MROC 031400Z 05007KT 9999 FEW030 BKN100 23/17 A3005 NOSIG=
201210231400 METAR MROC 231400Z 25003KT 9999 SCT035 BKN200 24/20 A2991 NOSIG=
201210231500 METAR MROC 231500Z 24005KT 8000 SCT025 SCT200 23/19 A2992 NOSIG=
201210231600 METAR MROC 231600Z 24007KT 8000 SCT025 BKN200 24/20 A2991 NOSIG=
201210231700 METAR MROC 231700Z 25007KT 9999 BKN025 SCT200 25/20 A2989 NOSIG=
201210231800 METAR MROC 231800Z 23008KT 9999 SCT025 BKN200 26/20 A2985 NOSIG=
201210231900 METAR MROC 231900Z 23009KT 9999 4500NE TSRA FEW010TCU SCT020CB BKN200 26/21 A2982 BECMG 5000 BKN020=
201210232000 METAR MROC 232000Z 08006KT 5000 1000NW TSRA BR FEW010 BKN020CB 21/19 A2982 BECMG 2000=
201210232100 METAR MROC 232100Z 19006KT 2000 BR FEW001 SCT010 BKN030 20/19 A2984 NOSIG=
201210232200 METAR MROC 232200Z 23003KT 8000 VCFG FEW001 SCT020 BKN100 20/19 A2986 BECMG 2000 BR=
201210232300 METAR MROC 232300Z 06003KT 9999 VCFG FEW001 SCT020 BKN100 21/20 A2987 NOSIG=
201210240000 METAR MROC 240000Z 30003KT 9999 -RA VCFG FEW002 SCT020 OVC100 21/20 A2989 NOSIG=
201210240100 METAR MROC 240100Z 00000KT 9999 SCT020 BKN100 21/20 A2991 NOSIG=
201210240200 METAR MROC 240200Z 23002KT 9999 SCT020 BKN100 21/20 A2993 NOSIG=
201210240300 METAR MROC 240300Z 28001KT 9999 3500SW BCFG FEW004 BKN080 21/20 A2995 NOSIG=
201210240400 METAR MROC 240400Z 30001KT 9999 2500SW BCFG FEW004 SCT018 BKN060 21/20 A2995 NOSIG=
201210240500 METAR MROC 240500Z 00000KT 9000 2000SW BCFG FEW002 BKN018 21/20 A2994 NOSIG=
201210240600 METAR MROC 240600Z 00000KT 8000 1800SW BCFG FEW005 BKN020 21/20 A2992 BECMG 5000 BR=
201210240700 METAR MROC 240700Z 00000KT 5000 2000SW -DZ BR FEW001 BKN020 21/20 A2990 NOSIG=
201210240800 METAR MROC 240800Z 30002KT 5000 1500SW -DZ BR FEW001 SCT005 BKN025 21/20 A2989 NOSIG=
201210240900 METAR MROC 240900Z 25005KT 1500 0700SW +RA BR FEW002 SCT006 BKN015 20/19 A2989 BECMG 5000 RA BR=
201210241000 METAR MROC 241000Z 24003KT 3000 -RA BR FEW001 SCT015 BKN035 20/19 A2990 BECMG PRFG=
201210241100 METAR MROC 241100Z 24004KT 4000 DZ BR FEW005 BKN060 19/19 A2992 NOSIG=
201210241200 METAR MROC 241200Z 30004KT 9000 3500W -RA BCFG FEW004 SCT020 BKN050 20/19 A2995 BECMG BKN030=
201210241300 METAR MROC 241300Z 33005KT 9999 VCFG FEW001 SCT025 BKN080 20/19 A2996 NOSIG=
201210241400 METAR MROC 241400Z 21002KT 9999 FEW008 SCT025 BKN100 22/20 A2997 NOSIG=
201210241500 METAR MROC 241500Z 23005KT 9999 FEW008 SCT025 BKN100 23/19 A2998 NOSIG=
201210241600 METAR MROC 241600Z 22006KT 9999 SCT025 BKN100 24/19 A2996 NOSIG=
201210241700 METAR MROC 241700Z 27003KT 9999 -RA SCT025 BKN100 22/20 A2995 NOSIG=
201210241800 METAR MROC 241800Z 26011KT 9999 VCFG FEW002 SCT020 BKN100 22/20 A2992 BECMG 5000 -RA BR=
201210241900 METAR MROC 241900Z 27010KT 5000 -RA BR FEW002 SCT020 BKN100 20/19 A2991 NOSIG=
201210242000 METAR MROC 242000Z 28006KT 2000 -RA BR SCT001 BKN020 20/19 A2989 BECMG 1000=
201210242100 METAR MROC 242100Z 25006KT 2000 RA BR SCT002 BKN020 20/19 A2989 NOSIG=
201210242200 METAR MROC 242200Z 27004KT 5000 2000SW DZ BR SCT002 BKN100 20/19 A2990 NOSIG=
201210242300 METAR COR MROC 242300Z 33003KT 9999 3000SW VCFG SCT004 BKN080 20/19 A2991 NOSIG=
201210250000 METAR MROC 250000Z 28004KT 9999 -DZ VCFG SCT010 BKN100 20/19 A2993 NOSIG=
201210250100 METAR MROC 250100Z 31002KT 9999 SCT010 BKN100 20/19 A2993 NOSIG=
201210250200 METAR MROC 250200Z 00000KT 9999 FEW015 BKN100 20/19 A2994 NOSIG=
201210250300 METAR MROC 250300Z 28002KT 9999 FEW015 BKN100 20/19 A2996 NOSIG=
201210250400 METAR MROC 250400Z 31004KT 9999 FEW015 BKN100 20/19 A2997 NOSIG=
201210250500 METAR MROC 250500Z 28004KT 9999 FEW008 BKN025 20/19 A2997 BECMG 5000 BR BKN015=
201210250600 METAR MROC 250600Z 29004KT 9999 -RA FEW008 BKN025 19/18 A2997 BECMG 5000 RA BR BKN015=
201210250700 METAR MROC 250700Z 26004KT 5000 RA BR FEW005 BKN015 19/18 A2996 NOSIG=
201210250800 METAR MROC 250800Z 36003KT 9999 RA OVC100 19/18 A2994 NOSIG=
201210250900 METAR MROC 250900Z 03004KT 9999 FEW015 BKN100 19/18 A2993 RERA NOSIG=
201210251000 METAR MROC 251000Z 16002KT 9999 FEW015 BKN100 19/18 A2994 NOSIG=
201210251100 METAR MROC 251100Z 27002KT 9999 -DZ BCFG FEW020 BKN060 19/18 A2996 BECMG 5000 RA BR=
201210251200 METAR MROC 251200Z 29002KT 2000 -RA BR FEW002 SCT008 BKN100 19/18 A2998 NOSIG=
201210251300 METAR MROC 251300Z 28004KT 5000 DZ BR SCT004 BKN080 20/19 A3000 NOSIG=
201210251400 METAR MROC 251400Z 29003KT 9000 -DZ VCFG FEW008 SCT020 BKN120 20/19 A3002 NOSIG=
201210251500 METAR MROC 251500Z 25004KT 9999 SCT020 SCT140 22/19 A3003 NOSIG=
201210251600 METAR COR MROC 251600Z 27004KT 9999 SCT020 BKN200 23/18 A3001 NOSIG=
201210251700 METAR MROC 251700Z 24007KT 5000 2000SW RA FEW003 SCT020 BKN100 21/19 A2998 NOSIG=
201210251800 METAR COR MROC 251800Z 26006KT 1000 +RA BR SCT002 BKN080 20/19 A2997 BECMG 2500=
201210251900 METAR MROC 251900Z 25009KT 5000 2000SW RA BR SCT002 BKN015 20/19 A2995 NOSIG=
201210252000 METAR MROC 252000Z 26006KT 2000 RA BR SCT002 BKN015 19/19 A2995 NOSIG=
201210252100 METAR MROC 252100Z 33004KT 8000 3500SW -RA BCFG FEW001 SCT012 BKN090 19/19 A2994 NOSIG=
201210252200 METAR MROC 252200Z 02005KT 9999 -RA VCFG FEW006 OVC130 20/19 A2993 NOSIG=
201210252300 METAR MROC 252300Z 18001KT 9999 -RA VCFG FEW025 OVC130 20/18 A2992 NOSIG=
201210260000 METAR MROC 260000Z 20002KT 9999 VCFG BKN045 20/18 A2995 NOSIG=
201210260100 METAR MROC 260100Z 30001KT 9999 3000W BCFG FEW003 BKN080 20/18 A2997 NOSIG=
201210260200 METAR MROC 260200Z 33002KT 9999 BCFG FEW025 BKN080 20/19 A2999 NOSIG=
201210260300 METAR MROC 260300Z 12002KT 9999 FEW030 BKN100 19/18 A2999 NOSIG=
201210260400 METAR MROC 260400Z 09002KT CAVOK 19/18 A3000 NOSIG=
201210260500 METAR MROC 260500Z 04001KT CAVOK 19/18 A2999 NOSIG=
201210260600 METAR MROC 260600Z 00000KT CAVOK 19/17 A2997 NOSIG=
201210260700 METAR MROC 260700Z 03002KT CAVOK 19/17 A2995 NOSIG=
201210260800 METAR MROC 260800Z 00000KT CAVOK 18/17 A2994 NOSIG=
201210260900 METAR MROC 260900Z 10004KT CAVOK 18/17 A2992 NOSIG=
201210261000 METAR MROC 261000Z 08005KT CAVOK 18/16 A2993 NOSIG=
201210261100 METAR MROC 261100Z 05005KT CAVOK 19/17 A2994 NOSIG=
201210261200 METAR MROC 261200Z 09003KT CAVOK 19/17 A2997 NOSIG=
201210261300 METAR MROC 261300Z 10003KT 9999 FEW040 BKN080 20/17 A2999 BECMG 24006KT=
201210261400 METAR MROC 261400Z 24001KT 9999 FEW030 BKN080 22/18 A3002 NOSIG=
201210261500 METAR MROC 261500Z 26003KT 9999 FEW025 BKN080 22/18 A3003 NOSIG=
201210261600 METAR MROC 261600Z 27005KT 9999 FEW025 BKN100 24/19 A3003 NOSIG=
201210261700 METAR MROC 261700Z 26006KT 9999 SCT025 BKN100 24/19 A3000 NOSIG=
201210261800 METAR MROC 261800Z 25007KT 9999 BKN025 25/18 A2998 NOSIG=
201210261900 METAR MROC 261900Z 25009KT 9999 BKN025 25/20 A2995 NOSIG=
201210262000 METAR MROC 262000Z 22008KT 9999 VCSH FEW015TCU SCT025 25/20 A2992 NOSIG=
201210262100 METAR MROC 262100Z 20006KT 9999 VCSH FEW015TCU SCT025 24/20 A2992 NOSIG=
201210262200 METAR MROC 262200Z 23007KT 9999 VCSH FEW010 FEW018TCU SCT025 23/20 A2993 BECMG RA=
201210262300 METAR MROC 262300Z 25008KT 9999 -RA VCSH FEW008 FEW015TCU 21/20 A2994 NOSIG=
201210270000 METAR MROC 270000Z 25007KT 5000 2400SW BR SCT002 BKN009 21/19 A2995 NOSIG=
201210270100 METAR MROC 270100Z 25004KT 1500 0700W DZ BR BKN003 20/19 A2999 BECMG 3000 RA BR BKN015=
201210270110 METAR MROC 270110Z 27004KT 0800 -DZ FG VV/// 20/19 A2999 NOSIG=
201210270200 METAR MROC 270200Z 24002KT 2000 BR SCT002 BKN012 20/19 A3000 BECMG 5000 BR BKN012=
201210270300 METAR MROC 270300Z 24003KT 1000 BR SCT001 BKN008 20/19 A3001 NOSIG=
201210270400 METAR MROC 270400Z 00000KT 2000 BR SCT001 BKN010 20/19 A3001 NOSIG=
201210270500 METAR MROC 270500Z 00000KT 1500 BR SCT001 BKN010 20/19 A3000 NOSIG=
201210270600 METAR MROC 270600Z 26004KT 0200 FG VV/// 20/19 A2998 NOSIG=
201210270700 METAR MROC 270700Z 00000KT 0200 FG VV/// 20/19 A2997 NOSIG=
201210270800 METAR MROC 270800Z 02002KT 9999 3000W BCFG FEW002 SCT025 BKN100 20/19 A2995=
201210270900 METAR MROC 270900Z 28004KT 0800 FG OVC008 20/19 A2994 NOSIG=
201210271000 METAR MROC 271000Z 00000KT 0500 FG BKN008 19/18 A2993 NOSIG=
201210271100 METAR MROC 271100Z 16002KT 9999 VCFG FEW001 BKN120 19/18 A2993 NOSIG=
201210271200 METAR MROC 271200Z 27004KT 3000 0800SW BR FEW001 SCT120 19/18 A2995 NOSIG=
201210271300 METAR MROC 271300Z 29002KT 9999 3500SW BCFG FEW045 SCT120 23/20 A3000 NOSIG=
201210271400 METAR MROC 271400Z 13002KT 9999 FEW005 BKN120 25/17 A2998 NOSIG=
201210271500 METAR MROC 271500Z 12009KT 9999 FEW020 BKN130 25/17 A3000 NOSIG=
201210271600 METAR MROC 271600Z 20006KT 9999 FEW015 SCT030 28/19 A3000 NOSIG=
201210271700 METAR MROC 271700Z 24007KT 9999 FEW020 SCT050 25/20 A2997 NOSIG=
201210271800 METAR MROC 271800Z 24007KT 9999 FEW018TCU FEW025 SCT050 26/20 A2994 NOSIG=
201210271900 METAR MROC 271900Z 24009KT 9999 VCSH FEW018 FEW020TCU 26/21 A2992 NOSIG=
201210272000 METAR MROC 272000Z 24010KT 9999 FEW018 FEW020TCU 25/20 A2989 NOSIG=
201210272100 METAR MROC 272100Z 25008KT 9999 FEW020 BKN040 24/21 A2989 NOSIG=
201210272200 METAR MROC 272200Z 24006KT 9999 4500NE -SHRA FEW020TCU BKN035 23/20 A2990 BECMG 5000=
201210272300 METAR MROC 272300Z 26005KT 9999 SCT015 BKN250 22/20 A2992 NOSIG=
201210272357 METAR MROC 280000Z 00000KT 9999 FEW030 SCT100 22/20 A2994 NOSIG=
201210280000 METAR MROC 280000Z 00000KT 9999 FEW030 SCT100 22/20 A2994 NOSIG=
201210280100 METAR MROC 280100Z 09005KT 9999 FEW030 21/17 A2996 NOSIG=
201210280200 METAR MROC 280200Z 09003KT 9999 FEW030 21/15 A2998 NOSIG=
201210280300 METAR MROC 280300Z 07008KT CAVOK 21/15 A2999 NOSIG=
201210280400 METAR MROC 280400Z 06005KT CAVOK 21/16 A2999 NOSIG=
201210280500 METAR MROC 280500Z 05005KT CAVOK 21/15 A2999 NOSIG=
201210280600 METAR MROC 280600Z 06002KT CAVOK 20/17 A2997 NOSIG=
201210280700 METAR MROC 280700Z 06005KT CAVOK 20/16 A2995 NOSIG=
201210280800 METAR MROC 280800Z 05007KT CAVOK 20/15 A2993 NOSIG=
201210280900 METAR MROC 280900Z 06006KT CAVOK 20/15 A2994 NOSIG=
201210281000 METAR MROC 281000Z 04007KT CAVOK 19/15 A2994 NOSIG=
201210281100 METAR MROC 281100Z 04007KT CAVOK 19/15 A2995 NOSIG=
201210281200 METAR MROC 281200Z 04002KT CAVOK 20/15 A2998 NOSIG=
201210281300 METAR MROC 281300Z 00000KT 9999 FEW040 25/16 A2999 NOSIG=
201210281400 METAR MROC 281400Z 05005KT 9999 FEW035 25/15 A3002 NOSIG=
201210281500 METAR MROC 281500Z 09009KT 9999 FEW035 26/16 A3002 NOSIG=
201210281600 METAR MROC 281600Z 08008KT 9999 FEW035 26/16 A3001 NOSIG=
201210281700 METAR MROC 281700Z 08010G20KT 9999 SCT030 26/16 A3000 NOSIG=
201210281800 METAR MROC 281800Z 09010G20KT 9999 SCT030 26/16 A2997 NOSIG=
201210281900 METAR MROC 281900Z 10009KT 9999 FEW030 27/16 A2994 NOSIG=
201210282000 METAR MROC 282000Z 11008G18KT 9999 FEW030 SCT100 26/16 A2992 NOSIG=
201210282100 METAR MROC 282100Z 10014KT 9999 FEW030 SCT100 25/16 A2992 NOSIG=
201210282200 METAR MROC 282200Z 10016KT 9999 FEW030 SCT120 24/16 A2992 NOSIG=
201210282300 METAR MROC 282300Z 11009KT 9999 FEW030 SCT100 23/16 A2995 NOSIG=
201210290000 METAR MROC 290000Z 10007KT 9999 FEW030 SCT120 22/16 A2997 NOSIG=
201210290100 METAR MROC 290100Z 12006KT 9999 FEW030 21/16 A2999 NOSIG=
201210290200 METAR MROC 290200Z 10008G18KT 9999 FEW030 21/17 A3002 NOSIG=
201210290300 METAR MROC 290300Z 06008KT 9999 FEW045 21/16 A3002 NOSIG=
201210290400 METAR MROC 290400Z 09008KT CAVOK 21/15 A3002 NOSIG=
201210290500 METAR MROC 290500Z 06003KT CAVOK 20/15 A3002 NOSIG=
201210290600 METAR MROC 290600Z 08006KT CAVOK 20/14 A3001 NOSIG=
201210290700 METAR MROC 290700Z 09005KT CAVOK 20/14 A3000 NOSIG=
201210290800 METAR MROC 290800Z 04009KT CAVOK 19/14 A2999 NOSIG=
201210290900 METAR MROC 290900Z 03006KT CAVOK 18/14 A2998 NOSIG=
201210291000 METAR MROC 291000Z 09006KT CAVOK 20/14 A2997 NOSIG=
201210291100 METAR MROC 291100Z 06006KT CAVOK 19/14 A2999 NOSIG=
201210291200 METAR MROC 291200Z 07004KT CAVOK 18/14 A3001 NOSIG=
201210291300 METAR MROC 291300Z 04010KT CAVOK 22/14 A3002 NOSIG=
201210291400 METAR MROC 291400Z 07010KT CAVOK 24/16 A3004 NOSIG=
201210291500 METAR MROC 291500Z 10007KT CAVOK 24/17 A3007 NOSIG=
201210291600 METAR MROC 291600Z 09005KT 9999 FEW040 SCT100 26/17 A3005 NOSIG=
201210291700 METAR MROC 291700Z 25003KT 9999 SCT040 SCT100 26/16 A3003 NOSIG=
201210291800 METAR MROC 291800Z 10006KT 9999 SCT030 SCT100 25/17 A3001 NOSIG=
201210291900 METAR MROC 291900Z 10006KT 9999 SCT030 SCT100 24/15 A2999 NOSIG=
201210292000 METAR MROC 292000Z 13007KT 9999 SCT030 BKN100 24/16 A2997 NOSIG=
201210292100 METAR MROC 292100Z 10006KT 9999 SCT030 BKN100 24/16 A2998 NOSIG=
201210292200 METAR MROC 292200Z 12008KT 9999 FEW030 BKN100 23/16 A2999 NOSIG=
201210292300 METAR MROC 292300Z 11007KT 9999 FEW030 BKN100 23/16 A3000 NOSIG=
201210300000 METAR MROC 300000Z 11004KT 9999 FEW030 BKN100 21/16 A3002 NOSIG=
201210300100 METAR MROC 300100Z 09007KT 9999 FEW030 BKN100 22/16 A3005 NOSIG=
201210300200 METAR MROC 300200Z 12005KT 9999 FEW035 BKN120 22/15 A3007 NOSIG=
201210300300 METAR MROC 300300Z 08004KT 9999 FEW035 BKN120 21/16 A3008 NOSIG=
201210300400 METAR MROC 300400Z 09003KT CAVOK 21/16 A3009 NOSIG=
201210300500 METAR MROC 300500Z 07005KT CAVOK 20/16 A3007 NOSIG=
201210300600 METAR MROC 300600Z 06007KT CAVOK 20/15 A3004 NOSIG=
201210300700 METAR MROC 300700Z 04005KT CAVOK 19/15 A3002 NOSIG=
201210300800 METAR MROC 300800Z 06007KT CAVOK 19/14 A3002 NOSIG=
201210300900 METAR MROC 300900Z 07008KT CAVOK 21/15 A3001 NOSIG=
201210301000 METAR MROC 301000Z 03005KT CAVOK 19/14 A3001 NOSIG=
201210301100 METAR MROC 301100Z 07004KT CAVOK 20/14 A3001 NOSIG=
201210301200 METAR MROC 301200Z 09004KT 9999 FEW040 BKN250 20/14 A3004 NOSIG=
201210301300 METAR MROC 301300Z 11008KT 9999 FEW045 SCT250 20/15 A3004 NOSIG=
201210301400 METAR MROC NIL=
201210301500 METAR MROC 301500Z 09010KT 9999 FEW045 BKN250 26/15 A3009 NOSIG=
201210301600 METAR MROC 301600Z 08011KT 9999 FEW045 BKN250 26/15 A3008 NOSIG=
201210301700 METAR MROC 301700Z 10009KT 9999 FEW045 BKN250 27/15 A3004 NOSIG=
201210301800 METAR MROC 301800Z 10006KT 9999 SCT040 SCT250 27/16 A3003 NOSIG=
201210301900 METAR MROC 301900Z 10009KT 9999 FEW030 SCT060 SCT250 26/16 A3001 NOSIG=
201210302000 METAR MROC 302000Z 08009KT 9999 FEW030 SCT250 27/16 A2999 NOSIG=
201210302100 METAR MROC 302100Z 10008KT 9999 SCT030 SCT250 27/15 A2998 NOSIG=
201210302200 METAR MROC 302200Z 08010KT 9999 SCT025 SCT250 26/15 A2999 NOSIG=
201210302300 METAR MROC 302300Z 12006KT 9999 SCT020 SCT250 24/16 A3000 NOSIG=
201210310000 METAR MROC 310000Z 08005KT 9999 SCT025 SCT250 23/17 A3003 NOSIG=
201210310100 METAR MROC 310100Z 10003KT 9999 SCT020 SCT250 22/16 A3006 NOSIG=
201210310200 METAR MROC 310200Z 09007KT 9999 SCT020 SCT250 21/17 A3007 NOSIG=
201210310300 METAR MROC 310300Z 12002KT 9999 FEW020 SCT250 21/16 A3010 NOSIG=
201210310400 METAR MROC 310400Z 09003KT 9999 FEW020 SCT250 21/16 A3011 NOSIG=
201210310500 METAR MROC 310500Z 05002KT 9999 FEW020 SCT250 21/16 A3010 NOSIG=
201210310600 METAR MROC 310600Z 11005KT CAVOK 20/16 A3007 NOSIG=
201210310700 METAR MROC 310700Z 11002KT CAVOK 20/16 A3005 NOSIG=
201210310800 METAR MROC 310800Z 09006KT CAVOK 20/15 A3002 NOSIG=
201210310900 METAR MROC 310900Z 09010KT CAVOK 19/15 A3001 NOSIG=
201210311000 METAR MROC 311000Z 10013KT CAVOK 19/15 A3001 NOSIG=
201210311100 METAR MROC 311100Z 09014KT 9999 FEW025 SCT250 20/15 A3002 NOSIG=
201210311200 METAR MROC 311200Z 08008KT 9999 FEW025 SCT250 20/16 A3004 NOSIG=
201210311300 METAR MROC 311300Z 11007KT 9999 FEW030 SCT110 21/16 A3006 NOSIG=
201210311400 METAR MROC 311400Z 12004KT 9999 FEW030 SCT100 24/17 A3009 NOSIG=
201210311500 METAR MROC 311500Z 10006KT 9999 FEW030 BKN100 25/17 A3009 NOSIG=
201210311600 METAR MROC 311600Z 12006KT 9999 FEW030 BKN100 26/17 A3007 NOSIG=
201210311700 METAR MROC 311700Z 11010KT 9999 SCT030 BKN100 26/15 A3004 NOSIG=
201210311800 METAR MROC 311800Z 13008KT 9999 SCT030 BKN100 26/15 A3004 NOSIG=
201210311900 METAR MROC 311900Z 14008KT 9999 SCT025 BKN100 24/17 A3000 NOSIG=
201210312000 METAR MROC 312000Z 13005KT 9999 SCT025 BKN100 24/17 A2999 NOSIG=
201210312100 METAR MROC 312100Z 16007KT 9999 FEW018 SCT045 BKN170 23/17 A2999 BECMG 24006KT=
201210312200 METAR MROC 312200Z 13004KT 9999 -RA FEW015 SCT045 BKN150 23/17 A2999 BECMG 23005KT=
201210312300 METAR MROC 312300Z 09004KT 9999 -RA FEW018 SCT040 BKN130 22/16 A3001 NOSIG=
201211010000 METAR MROC 010000Z 11003KT 9999 SCT035 BKN110 21/16 A3003 NOSIG=
201211010100 METAR MROC 010100Z 08002KT 9999 SCT035 BKN250 20/18 A3004 NOSIG=
201211010200 METAR MROC 010200Z 07005KT 9999 FEW030 SCT100 BKN250 21/16 A3006 NOSIG=
201211010300 METAR MROC 010300Z 06004KT 9999 FEW030 BKN120 20/16 A3007 NOSIG=
201211010400 METAR MROC 010400Z 06002KT 9999 FEW030 SCT120 21/16 A3007 NOSIG=
201211010500 METAR MROC 010500Z 04006KT CAVOK 20/16 A3005 NOSIG=
201211010600 METAR MROC 010600Z 05007KT CAVOK 21/16 A3003 NOSIG=
201211010700 METAR MROC 010700Z 04005KT CAVOK 20/16 A3001 NOSIG=
201211010800 METAR MROC 010800Z 10006KT CAVOK 21/16 A2997 NOSIG=
201211010900 METAR COR MROC 010900Z 04003KT CAVOK 20/16 A2998 NOSIG=
201211011000 METAR MROC 011000Z 00000KT CAVOK 20/16 A2999 NOSIG=
201211011100 METAR MROC 011100Z 06002KT 9999 FEW030 SCT120 20/16 A3000 NOSIG=
201211011200 METAR MROC 011200Z 06003KT 9999 FEW025 SCT120 20/16 A3002 NOSIG=
201211011300 METAR MROC 011300Z 12009KT 9999 FEW030 22/16 A3003 NOSIG=
201211011400 METAR MROC 011400Z 10007KT 9999 FEW030 24/16 A3004 NOSIG=
201211011500 METAR MROC NIL=
201211011600 METAR MROC 011600Z 11008KT 9999 FEW035 27/17 A3004 NOSIG=
201211011700 METAR MROC 011700Z 12008KT 9999 FEW030 SCT110 28/16 A3002 NOSIG=
201211011800 METAR MROC 011800Z 25009KT 9999 VCSH FEW020TCU FEW030 BKN050 26/17 A3000 NOSIG=
201211011900 METAR MROC 011900Z 29006KT 9999 VCSH FEW020TCU SCT035 24/19 A2998 NOSIG=
201211012000 METAR MROC 012000Z 23006KT 9999 VCSH FEW018TCU FEW030 26/20 A2996 NOSIG=
201211012100 METAR MROC 012100Z 24009KT 9999 4000N SHRA FEW010TCU FEW020 SCT030 BKN200 23/20 A2996 NOSIG=
201211012200 METAR MROC 012200Z 23006KT 9999 VCSH FEW005 SCT010 BKN020 22/20 A2997 RESHRA NOSIG=
201211012300 METAR MROC 012300Z 22002KT 9999 FEW005 SCT010 BKN035 21/19 A2999 NOSIG=
201211012357 METAR MROC 020000Z 16001KT 9999 SCT010 BKN100 21/20 A3000 NOSIG=
201211020000 METAR MROC 020000Z 16001KT 9999 SCT010 BKN100 21/20 A3000 NOSIG=
201211020100 METAR MROC 020100Z 27003KT 9999 FEW035 SCT100 20/19 A3000 NOSIG=
201211020200 METAR MROC 020200Z 31003KT 9999 FEW035 BKN100 20/19 A3004 NOSIG=
201211020300 METAR MROC 020300Z 09002KT 9999 FEW035 SCT100 20/19 A3006 NOSIG=
201211020400 METAR MROC 020400Z 04003KT CAVOK 20/18 A3005 NOSIG=
201211020500 METAR MROC 020500Z 05008KT CAVOK 21/17 A3005 NOSIG=
201211020600 METAR MROC 020600Z 04004KT 9999 FEW030 SCT100 20/17 A3002 NOSIG=
201211020700 METAR MROC 020700Z 05005KT 9999 FEW030 SCT100 20/17 A3002 NOSIG=
201211020720 METAR MROC 020720Z 04004KT 9999 FEW030 SCT100 20/17 A3002 NOSIG=
201211020800 METAR MROC 020800Z 15004KT CAVOK 20/16 A2997 NOSIG=
201211020900 METAR MROC 020900Z 06005KT CAVOK 21/16 A2996 NOSIG=
201211021000 METAR MROC 021000Z 09003KT CAVOK 20/16 A2996 NOSIG=
201211021100 METAR MROC 021100Z 06006KT 9999 FEW035 20/16 A2997 NOSIG=
201211021200 METAR MROC 021200Z 05006KT CAVOK 21/16 A3000 NOSIG=
201211021300 METAR MROC 021300Z 13002KT 9999 FEW035 23/17 A3001 NOSIG=
201211021400 METAR MROC 021400Z 07007KT 9999 FEW035 SCT180 25/17 A3003 NOSIG=
201211021500 METAR MROC 021500Z 09008KT 9999 FEW035 26/17 A3004 NOSIG=
201211021600 METAR MROC 021600Z 12008G18KT 9999 FEW035 SCT100 26/17 A3002 NOSIG=
201211021700 METAR MROC 021700Z 12005KT 9999 FEW035 SCT045 BKN080 26/17 A3001 BECMG 24006KT=
201211021800 METAR MROC 021800Z 26008KT 9999 FEW020TCU SCT080 BKN250 24/20 A2998 NOSIG=
201211021900 METAR MROC 021900Z 25006KT 9999 SCT020TCU BKN035 24/20 A2996 NOSIG=
201211022000 METAR MROC 022000Z 24007KT 9999 -RA VCSH FEW015TCU SCT035 BKN100 22/21 A2994 NOSIG=
201211022100 METAR MROC 022100Z 21006KT 9999 VCSH VCFG FEW010 SCT025TCU BKN100 22/21 A2995 BECMG 5000 RA BR=
201211022200 METAR MROC 022200Z 24006KT 8000 2000NE -TSRA FEW006 SCT020CB BKN100 21/20 A2994 NOSIG=
201211022300 METAR MROC 022300Z 25005KT 4000 -RA BR SCT0002 BKN025 20/19 A2998 NOSIG=
201211030000 METAR MROC 030000Z 00000KT 3000 RA BR SCT0002 BKN020 20/19 A3000 NOSIG=
201211030100 METAR COR MROC 030100Z 29004KT 9999 FEW010 BKN120 20/19 A3001 RERA NOSIG=
201211030200 METAR MROC 030200Z 28003KT 9999 VCFG FEW002 SCT010 BKN100 20/19 A3002 NOSIG=
201211030300 METAR MROC 030300Z 11002KT 9999 4000N BCFG FEW002 BKN250 19/18 A3000 NOSIG=
201211030400 METAR MROC 030400Z 05004KT 9999 FEW025 SCT100 BKN250 20/18 A3000 NOSIG=
201211030500 METAR MROC 030500Z 06004KT CAVOK 20/17 A2999 NOSIG=
201211030600 METAR MROC 030600Z 13005KT 9999 FEW030 SCT130 20/17 A2998 NOSIG=
201211030700 METAR MROC 030700Z 03004KT 9999 FEW035 SCT130 20/17 A2997 NOSIG=
201211030800 METAR MROC 030800Z 12002KT 9999 SCT035 20/17 A2998 NOSIG=
201211030900 METAR MROC 030900Z 06005KT 9999 FEW040 19/17 A2996 NOSIG=
201211031000 METAR MROC 031000Z 05005KT 9999 FEW040 19/16 A2997 NOSIG=
201211031100 METAR MROC NIL=
201211031200 METAR MROC 031200Z 08005KT 9999 FEW030 SCT100 BKN250 19/16 A3001 NOSIG=
201211031300 METAR MROC 031300Z 07007KT 9999 FEW030 SCT090 BKN250 21/17 A3003 NOSIG=
201211031400 METAR MROC 031400Z 05007KT 9999 FEW030 BKN100 23/17 A3005 NOSIG=
201211031500 METAR MROC 031500Z 25006KT 9999 FEW035 SCT120 BKN250 23/18 A3008 NOSIG=
201211031600 METAR MROC 031600Z 26005KT 9999 FEW030 SCT120 BKN250 25/18 A3007=
201211031700 METAR MROC 031700Z 24006KT 9999 FEW030 SCT120 BKN250 25/19 A3005=
201211031800 METAR MROC 031800Z 26005KT 9999 FEW030 SCT120 BKN250 26/18 A3002 NOSIG=
201211031900 METAR MROC 031900Z 27002KT 9999 FEW030 SCT120 BKN250 26/18 A2998 NOSIG=
201211032000 METAR MROC 032000Z 29004KT 9999 SCT030 BKN250 25/18 A2995 NOSIG=
201211032100 METAR MROC 032100Z 07004KT 9999 3000SW +RA SCT020 BKN100 23/19 A2996 NOSIG=
201211032200 METAR COR MROC 032200Z 14002KT 9999 -RA FEW015 BKN100 21/19 A2998 RMK FEW070 VIS S 5KM NOSIG=
201211032300 METAR MROC 032300Z 07004KT 9999 BCFG FEW001 SCT060 BKN140 21/19 A2999 NOSIG=
201211040000 METAR MROC 040000Z 07005KT CAVOK 22/18 A2998 NOSIG=
201211040100 METAR MROC 040100Z 07006KT CAVOK 22/18 A2999 NOSIG=
201211040200 METAR MROC 040200Z 00000KT 9999 -RA FEW020 BKN100 21/19 A3001 NOSIG=
201211040300 METAR MROC 040300Z 09002KT 9999 -DZ FEW030 BKN100 20/19 A3002 NOSIG=
201211040400 METAR MROC 040400Z 06001KT 9999 FEW030 BKN100 20/19 A3002 NOSIG=
201211040500 METAR MROC 040500Z 07003KT CAVOK 20/17 A3000 NOSIG=
201211040600 METAR MROC 040600Z 08005KT CAVOK 21/17 A2999 NOSIG=
201211040700 METAR MROC 040700Z 09005KT 9999 -RA FEW035 SCT120 BKN200 21/17 A2998 NOSIG=
201211040800 METAR MROC 040800Z 06003KT 9999 FEW035 SCT120 BKN200 21/17 A2997 NOSIG=
201211040900 METAR MROC 040900Z 07002KT 9999 FEW035 SCT120 BKN200 21/17 A2997 NOSIG=
201211041000 METAR MROC 041000Z 06004KT 9999 FEW035 SCT120 20/16 A2998 NOSIG=
201211041100 METAR MROC 041100Z 07003KT 9999 FEW035 20/16 A2999 NOSIG=
201211041200 METAR MROC 041200Z 06005KT 9999 FEW035 19/16 A3000 NOSIG=
201211041300 METAR MROC 041300Z 06005KT 9999 FEW030 23/17 A3001 NOSIG=
201211041400 METAR MROC 041400Z 11008KT 9999 FEW030 24/17 A3003 NOSIG=
201211041500 METAR MROC 041500Z 12009KT 9999 FEW035 SCT250 25/17 A3005 NOSIG=
201211041600 METAR MROC 041600Z 12007KT 9999 SCT040 27/17 A3003 BECMG 24006KT=
201211041700 METAR MROC 041700Z 12006KT 9999 SCT035 28/17 A3001 BECMG 24006KT=
201211041800 METAR MROC 041800Z 09004KT 9999 SCT030 SCT140 27/17 A2999 BECMG 24006KT=
201211041900 METAR MROC 041900Z 11007KT 9999 FEW030 BKN250 28/17 A2996 NOSIG=
201211042000 METAR MROC 042000Z 11006KT 9999 FEW025TCU BKN200 27/16 A2994 NOSIG=
201211042100 METAR MROC 042100Z 14005KT 9999 SCT025TCU BKN200 27/17 A2992 NOSIG=
201211042200 METAR MROC 042200Z 23006KT 9999 -TS FEW015CB SCT025 BKN200 24/21 A2993 BECMG 3000 RA BKN010=
201211042300 METAR MROC 042300Z 24006KT 3000 BR FEW002 SCT010 BKN150 22/20 A2994 NOSIG=
201211050000 METAR MROC 050000Z 27003KT 3000 BR FEW002 SCT008 BKN120 22/20 A2996 NOSIG=
201211050100 METAR MROC 050100Z 24002KT 9999 BCFG SCT025 21/20 A3000 NOSIG=
201211050200 METAR MROC 050200Z 07004KT 9999 FEW030 22/18 A3001 NOSIG=
201211050300 METAR MROC 050300Z 07006KT CAVOK 22/16 A3001 NOSIG=
201211050400 METAR MROC 050400Z 07004KT CAVOK 22/17 A3000 NOSIG=
201211050500 METAR MROC 050500Z 06004KT CAVOK 22/16 A3000 NOSIG=
201211050600 METAR MROC 050600Z 07007KT CAVOK 21/16 A2998 NOSIG=
201211050700 METAR MROC 050700Z 06004KT CAVOK 20/17 A2997 NOSIG=
201211050800 METAR MROC 050800Z 06005KT CAVOK 19/16 A2996 NOSIG=
201211050900 METAR MROC 050900Z 06003KT CAVOK 19/16 A2994 NOSIG=
201211051000 METAR MROC 051000Z 05009KT CAVOK 19/16 A2994 NOSIG=
201211051100 METAR MROC 051100Z 03009KT CAVOK 19/15 A2995 NOSIG=
201211051152 METAR MROC 051152Z 06008KT CAVOK 20/16 A2996 NOSIG=
201211051200 METAR MROC 051200Z 06008KT CAVOK 20/16 A2996 NOSIG=
201211051300 METAR MROC 051300Z 09007KT 9999 FEW030 SCT250 23/16 A2997 NOSIG=
201211051400 METAR MROC 051400Z 11009KT 9999 FEW030 SCT250 24/16 A2999 NOSIG=
201211051500 METAR MROC 051500Z 11013KT 9999 FEW030 SCT250 26/16 A3001 NOSIG=
201211051600 METAR MROC 051600Z 11010KT 9999 FEW030 BKN250 27/16 A3001 NOSIG=
201211051700 METAR MROC 051700Z 09010KT 9999 FEW030 SCT270 27/16 A3000 NOSIG=
201211051800 METAR MROC 051800Z 10008KT 9999 SCT025TCU SCT250 28/16 A2997 BECMG 24006KT=
201211051900 METAR MROC 051900Z 14006KT 9999 SCT025TCU SCT250 29/19 A2994 NOSIG=
201211052000 METAR MROC 052000Z 22008KT 9999 SCT025 SCT250 28/21 A2992 NOSIG=
201211052100 METAR MROC 052100Z 25010KT 9999 VCSH FEW020TCU SCT035 26/21 A2992 NOSIG=
201211052200 METAR MROC 052200Z 25009KT 9999 VCSH FEW015 FEW020TCU BKN250 25/20 A2993 NOSIG=
201211052300 METAR MROC 052300Z 24006KT 9999 VCSH FEW020TCU FEW030 BKN250 23/21 A2995 NOSIG=
201211060000 METAR MROC 060000Z 26004KT 9999 4500NW BCFG FEW004 SCT012 BKN025 22/21 A2998 BECMG BKN010=
201211060100 METAR MROC 060100Z 27005KT 9999 4000SW -RA BCFG FEW004 SCT020 BKN070 22/20 A3000 NOSIG=
201211060200 METAR MROC 060200Z 28002KT 9999 FEW007 SCT070 BKN250 22/20 A3001 NOSIG=
201211060300 METAR MROC 060300Z 00000KT 9999 BCFG FEW002 SCT040 SCT120 22/20 A3002 NOSIG=
201211060400 METAR MROC 060400Z 00000KT CAVOK 21/19 A3001 NOSIG=
201211060500 METAR MROC 060500Z 07003KT CAVOK 21/18 A3000 NOSIG=
201211060600 METAR MROC 060600Z 33002KT CAVOK 20/18 A2998 NOSIG=
201211060700 METAR MROC 060700Z 08005KT CAVOK 20/16 A2997 NOSIG=
201211060800 METAR MROC 060800Z 07005KT CAVOK 20/16 A2996 NOSIG=
201211060900 METAR MROC 060900Z 05003KT CAVOK 19/16 A2995 NOSIG=
201211061000 METAR MROC 061000Z 06005KT CAVOK 20/16 A2993 NOSIG=
201211061100 METAR MROC 061100Z 060007KT CAVOK 20/16 A2996 NOSIG=
201211061200 METAR MROC 061200Z 06005KT CAVOK 20/15 A2998 NOSIG=
201211061300 METAR MROC 061300Z 08004KT CAVOK 23/16 A3001 NOSIG=
201211061400 METAR MROC 061400Z 11008KT CAVOK 24/16 A3001 NOSIG=
201211061500 METAR MROC 061500Z 10010KT 9999 FEW045 SCT300 25/16 A3001 NOSIG=
201211061600 METAR MROC 061600Z 13007KT 9999 FEW045 28/16 A3000 NOSIG=
201211061700 METAR MROC 061700Z 12005KT 9999 FEW030 SCT300 28/15 A2998 BECMG 23006KT=
201211061800 METAR MROC 061800Z 25007KT 9999 FEW030 SCT250 28/19 A2996 NOSIG=
201211061900 METAR MROC 061900Z 25009KT 9999 FEW020 FEW025TCU SCT045 26/20 A2995 NOSIG=
201211062000 METAR MROC 062000Z 25008KT 9999 FEW025 FEW030TCU SCT250 27/19 A2993 NOSIG=
201211062100 METAR MROC 062100Z 23009KT 9999 FEW020TCU SCT030 SCT250 26/21 A2992 BECMG 8000 -RA=
201211062200 METAR MROC 062200Z 23009KT 9999 4000N SHRA SCT020TCU SCT030 23/21 A2993 NOSIG=
201211062300 METAR MROC 062300Z 25007KT 5000 1000N -RA BR FEW005 SCT015 BKN100 22/20 A2996 RESH NOSIG=
201211062359 METAR MROC 070000Z 23005KT 9999 FEW005 SCT035 BKN100 20/19 A2997 NOSIG=
201211070000 METAR MROC 070000Z 23005KT 9999 FEW005 SCT035 BKN100 20/19 A2997 NOSIG=
201211070100 METAR MROC 070100Z 26005KT 8000 RA VCFG FEW005 SCT025 BKN060 21/19 A3000 NOSIG=
201211070200 METAR MROC 070200Z 09003KT 9999 -RA FEW035 SCT120 BKN200 20/19 A3002 NOSIG=
201211070300 METAR MROC 070300Z 00000KT 9999 FEW003 SCT030 BKN110 21/19 A3004 RERA BECMG 22006KT 3000 BR BKN010=
201211070400 METAR MROC 070400Z 08004KT 4000 RA FEW003 SCT030 BKN110 20/18 A3005 BECMG 3000 BKN010=
201211070500 METAR MROC 070500Z 07003KT 9999 -RA SCT030 BKN110 20/19 A3004 BECMG 5000 BR=
201211070600 METAR MROC 070600Z 06007KT 9999 -RA FEW030 BKN100 20/18 A3004 NOSIG=
201211070700 METAR MROC 070700Z 10004KT 9999 -RA FEW030 BKN100 19/18 A3000 NOSIG=
201211070800 METAR MROC 070800Z 06006KT 9999 FEW030 BKN100 20/18 A2997 RERA NOSIG=
201211070900 METAR MROC 070900Z 06005KT 9999 FEW030 BKN110 20/17 A2996 NOSIG=
201211071000 METAR MROC 071000Z 09005KT 9999 FEW030 BKN110 21/17 A2996 NOSIG=
201211071100 METAR MROC 071100Z 09006KT 9999 FEW030 BKN110 21/12 A2996 NOSIG=
201211071200 METAR MROC 071200Z 10010KT 9999 FEW030 BKN130 21/16 A2996 NOSIG=
201211071300 METAR MROC 071300Z 10012G22KT 9999 FEW030 SCT120 BKN200 23/17 A2998 NOSIG=
201211071400 METAR MROC 071400Z 09010G20KT 9999 FEW040 SCT120 SCT250 23/17 A3000 NOSIG=
201211071500 METAR MROC 071500Z 09011G21KT 9999 FEW040 SCT120 SCT250 25/16 A3001 NOSIG=
201211071600 METAR MROC 071600Z 09010G20KT 9999 FEW040 SCT120 27/16 A3001 NOSIG=
201211071700 METAR MROC 071700Z 08010KT 9999 FEW040 SCT120 26/16 A3000 NOSIG=
201211071800 METAR MROC 071800Z 09009KT 9999 SCT040 SCT120 27/16 A2996 NOSIG=
201211071900 METAR MROC 071900Z 10009KT 9999 BKN040 SCT120 27/16 A2993 NOSIG=
201211072000 METAR MROC 072000Z 09011KT 9999 BKN035 SCT120 26/18 A2993 NOSIG=
201211072100 METAR MROC 072100Z 28007KT 9999 VCFG FEW005 SCT020 BKN100 23/21 A2993 BECMG 5000 BR=
201211072200 METAR MROC 072200Z 21004KT 9999 VCFG FEW005 SCT020 BKN100 22/20 A2995 BECMG 5000 BR=
201211072300 METAR COR MROC 072300Z 27006KT 9999 VCFG FEW003 SCT020 BKN100 21/19 A2996 BECMG 5000 BR=
201211080000 METAR COR MROC 080000Z 28005KT 9999 VCFG FEW003 SCT030 BKN100 21/19 A2998 BECMG 5000 BR=
201211080100 METAR MROC 080100Z 00000KT 9999 FEW020 BKN120 20/19 A3001 NOSIG=
201211080200 METAR MROC 080200Z 08006KT 9999 FEW020 BKN120 21/17 A3004 NOSIG=
201211080300 METAR MROC 080300Z 10007KT 9999 FEW030 BKN130 21/17 A3004 NOSIG=
201211080400 METAR MROC 080400Z 10008KT 9999 FEW025 SCT130 BKN200 21/17 A3002 NOSIG=
201211080500 METAR MROC 080500Z 10011KT 9999 FEW025 BKN130 22/16 A3000 NOSIG=
201211080600 METAR MROC 080600Z 10010G20KT 9999 FEW025 SCT130 22/16 A2998 NOSIG=
201211080700 METAR MROC 080700Z 11009KT 9999 FEW020 21/17 A2997 NOSIG=
201211080800 METAR MROC 080800Z 10011KT CAVOK 21/16 A2995 NOSIG=
201211080900 METAR MROC 080900Z 09007KT 9999 FEW030 SCT140 22/16 A2996 NOSIG=
201211081000 METAR MROC 081000Z 10005KT CAVOK 21/17 A2997 NOSIG=
201211081100 METAR MROC 081100Z 11010KT CAVOK 21/16 A2998 NOSIG=
201211081200 METAR MROC 081200Z 06009KT 9999 FEW045 BKN130 21/16 A3000 NOSIG=
201211081300 METAR MROC 081300Z 07014KT 9999 FEW040 BKN120 21/17 A3004 NOSIG=
201211081400 METAR MROC 081400Z 08010KT 9999 FEW035 BKN130 22/17 A3005 NOSIG=
201211081500 METAR MROC 081500Z 11009KT 9999 FEW035 SCT130 25/18 A3004 NOSIG=
201211081600 METAR MROC 081600Z 10006KT 9999 FEW035 SCT120 27/18 A3003 NOSIG=
201211081700 METAR MROC 081700Z 12013KT 9999 SCT030 SCT120 27/18 A3002 NOSIG=
201211081800 METAR MROC 081800Z 10010KT 9999 SCT030 SCT120 27/18 A2998 NOSIG=
201211081900 METAR MROC 081900Z 10010KT 9999 SCT030 SCT120 28/17 A2995 NOSIG=
201211082000 METAR MROC 082000Z 11004KT 9999 SCT030 BKN120 26/18 A2993 NOSIG=
201211082100 METAR MROC 082100Z 08010KT 9999 DZ SCT030 SCT120 25/17 A2993 NOSIG=
201211082200 METAR MROC 082200Z 10005KT 9999 FEW020 SCT060 BKN120 25/17 A2993 NOSIG=
201211082300 METAR MROC 082300Z 14005KT 9999 FEW020 BKN120 24/17 A2994 NOSIG=
201211090000 METAR MROC 090000Z 12006KT 9999 FEW025 SCT120 22/17 A2995 NOSIG=
201211090100 METAR MROC 090100Z 10006KT 9999 FEW025 BKN120 22/17 A2998 NOSIG=
201211090200 METAR MROC 090200Z 06011KT 9999 RA SCT025 BKN100 21/18 A3000 NOSIG=
201211090300 METAR MROC 090300Z 08005KT 9999 FEW025 BKN100 21/16 A2999 RERA NOSIG=
201211090400 METAR MROC 090400Z 11010G20KT 9999 FEW025 BKN150 21/16 A2998 NOSIG=
201211090500 METAR MROC 090500Z 06008KT 9999 -RA FEW025 BKN150 21/17 A2998 NOSIG=
201211090600 METAR MROC 090600Z 10013KT 9999 FEW025 BKN150 21/17 A2996 NOSIG=
201211090700 METAR MROC 090700Z 10008G18KT 9999 -DZ FEW025 BKN150 21/17 A2993 NOSIG=
201211090800 METAR MROC 090800Z 06007KT 9999 -DZ FEW025 BKN150 21/17 A2992 NOSIG=
201211090900 METAR MROC 090900Z 07012KT 9999 FEW025 BKN150 21/17 A2992 NOSIG=
201211091000 METAR MROC 091000Z 09015KT 9999 FEW035 BKN120 21/17 A2994 NOSIG=
201211091100 METAR MROC 091100Z 09012KT 9999 FEW035 SCT120 21/17 A2995 NOSIG=
201211091200 METAR MROC 091200Z 10010KT 9999 -DZ VCSH FEW030 SCT050 BKN120 21/16 A2997 BECMG RA=
201211091300 METAR MROC 091300Z 07009KT 9999 RA FEW020 SCT060 BKN120 21/17 A2999 NOSIG=
201211091400 METAR MROC 091400Z 06008KT 9999 DZ FEW020 BKN100 22/18 A3002 RERA NOSIG=
201211091500 METAR MROC 091500Z 13005KT 9999 DZ FEW020 BKN120 22/18 A3002 NOSIG=
201211091600 METAR MROC 091600Z 05006KT 9999 -DZ FEW020 BKN120 21/17 A3002 NOSIG=
201211091700 METAR MROC 091700Z 07006KT 9999 -DZ FEW020 SCT120 BKN200 23/18 A2999 NOSIG=
201211091800 METAR MROC 091800Z 11005KT 9999 FEW020 SCT120 BKN200 24/18 A2996 NOSIG=
201211091900 METAR MROC 091900Z 12009KT 9999 FEW020 BKN200 24/17 A2993 NOSIG=
201211092000 METAR MROC 092000Z 09008KT 9999 FEW020 SCT060 BKN200 24/16 A2991 BECMG 8000 RA=
201211092100 METAR MROC 092100Z 13005KT 9999 -RA SCT025 BKN110 24/18 A2990 NOSIG=
201211092200 METAR MROC 092200Z 09007KT 9999 -RA SCT025 BKN120 24/17 A2991 NOSIG=
201211092300 METAR MROC 092300Z 10006KT 9999 -RA SCT025 BKN120 21/17 A2993 NOSIG=
201211100000 METAR MROC 100000Z 08005KT 9999 -RA SCT025 BKN100 21/17 A2995 NOSIG=
201211100100 METAR MROC 100100Z 10008KT 9999 SCT030 BKN120 21/17 A2998 RERA NOSIG=
201211100200 METAR MROC 100200Z 09008KT 9999 SCT030 SCT120 22/16 A3000 NOSIG=
201211100300 METAR MROC 100300Z 09008KT 9999 FEW030 SCT120 21/16 A3000 NOSIG=
201211100400 METAR MROC 100400Z 10010KT CAVOK 21/16 A2999 NOSIG=
201211100500 METAR MROC 100500Z 06005KT CAVOK 21/17 A2999 NOSIG=
201211100600 METAR MROC 100600Z 11006KT CAVOK 20/16 A2997 NOSIG=
201211100700 METAR MROC 100700Z 11005KT CAVOK 20/16 A2994 NOSIG=
201211100800 METAR MROC 100800Z 09003KT CAVOK 20/15 A2992 NOSIG=
201211100900 METAR MROC 100900Z 06012KT CAVOK 20/15 A2992 NOSIG=
201211101000 METAR MROC 101000Z 09014KT 9999 FEW030 SCT120 BKN250 20/15 A2993 NOSIG=
201211101100 METAR MROC 101100Z 10015KT 9999 FEW030 BKN110 21/15 A2991 NOSIG=
201211101200 METAR MROC 101200Z 10012KT 9999 FEW030 BKN110 21/15 A2993 NOSIG=
201211101300 METAR MROC 101300Z 08010KT 9999 FEW030 BKN110 22/16 A2995 NOSIG=
201211101400 METAR MROC 101400Z 10015G25KT 9999 FEW030 BKN110 24/16 A2995 NOSIG=
201211101500 METAR MROC 101500Z 09013G23KT 9999 FEW030 BKN110 25/17 A2999 NOSIG=
201211101600 METAR MROC 101600Z 08011G21KT 9999 FEW030 SCT110 26/15 A2999 NOSIG=
201211101700 METAR MROC 101700Z 10015KT 9999 FEW030 SCT250 27/14 A2996 NOSIG=
201211101800 METAR MROC 101800Z 11013KT 9999 FEW030 SCT250 27/15 A2995 NOSIG=
201211101900 METAR MROC 101900Z 08013KT 9999 FEW030 SCT250 28/14 A2993 NOSIG=
201211102000 METAR MROC 102000Z 08010KT 9999 FEW030 SCT120 28/15 A2992 NOSIG=
201211102100 METAR MROC 102100Z 07012KT 9999 VCSH SCT045 SCT070 26/15 A2992 NOSIG=
201211102200 METAR MROC 102200Z 07009KT 9999 SCT045 24/15 A2992 NOSIG=
201211102300 METAR MROC 102300Z 08010KT 9999 FEW045 SCT070 23/15 A2994 NOSIG=
201211110000 METAR MROC 110000Z 08008KT 9999 FEW045 22/15 A2996 NOSIG=
201211110100 METAR MROC 110100Z 11008KT 9999 FEW035 22/16 A2998 NOSIG=
201211110200 METAR MROC 110200Z 10010KT 9999 FEW040 22/16 A3000 NOSIG=
201211110300 METAR MROC 110300Z 09010G20KT CAVOK 21/16 A2999 NOSIG=
201211110400 METAR MROC 110400Z 11010KT CAVOK 22/16 A3000 NOSIG=
201211110500 METAR MROC 110500Z 11008KT CAVOK 22/16 A2998 NOSIG=
201211110600 METAR MROC 110600Z 11011G21KT CAVOK 22/16 A2995 NOSIG=
201211110700 METAR MROC 110700Z 11005KT CAVOK 22/16 A2995 RMK FEW140 NOSIG=
201211110800 METAR MROC 110800Z 08006KT CAVOK 22/16 A2994 RMK FEW140 NOSIG=
201211110900 METAR MROC 110900Z 08006KT CAVOK 22/15 A2993 NOSIG=
201211111000 METAR MROC 111000Z 10007KT CAVOK 22/14 A2993 NOSIG=
201211111100 METAR MROC 111100Z 04008KT CAVOK 21/15 A2996 NOSIG=
201211111200 METAR MROC 111200Z 05003KT CAVOK 20/15 A2997 NOSIG=
201211111300 METAR MROC 111300Z 06007KT CAVOK 23/16 A3000 NOSIG=
201211111400 METAR MROC 111400Z 11010KT CAVOK 25/15 A3001 NOSIG=
201211111500 METAR MROC 111500Z 11012G22KT CAVOK 26/16 A3001 NOSIG=
201211111600 METAR MROC 111600Z 10010G20KT 9999 FEW045 27/15 A3001 NOSIG=
201211111700 METAR MROC 111700Z 08010KT 9999 FEW045 SCT120 28/16 A3000 NOSIG=
201211111800 METAR MROC 111800Z 08011KT 9999 SCT045 28/16 A2997 NOSIG=
201211111900 METAR MROC 111900Z 10009KT 9999 SCT045 28/17 A2995 NOSIG=
201211112000 METAR MROC 112000Z 10008KT 9999 SCT045 SCT060 28/16 A2993 BECMG 22006KT=
201211112100 METAR MROC 112100Z 11008KT 9999 FEW030 SCT080 28/16 A2992 NOSIG=
201211112200 METAR MROC 112200Z 07006KT 9999 SCT030 SCT120 26/15 A2993 NOSIG=
201211112300 METAR MROC 112300Z 11004KT 9999 FEW020 SCT120 25/16 A2996 NOSIG=
201211120000 METAR MROC 120000Z 25006KT 5000 BR SCT003 BKN010 21/20 A2998 NOSIG=
201211120100 METAR MROC 120100Z 24002KT 8000 VCFG FEW003 SCT020 21/20 A3002 NOSIG=
201211120200 METAR MROC 120200Z 00000KT 7000 FEW004 SCT007 21/20 A3004 NOSIG=
201211120300 METAR MROC 120300Z 10002KT 8000 VCFG FEW003 SCT030 21/19 A3006 NOSIG=
201211120400 METAR MROC 120400Z 06002KT 9999 FEW004 SCT030 21/17 A3005 NOSIG=
201211120500 METAR MROC 120500Z 08004KT 9999 FEW030 21/17 A3004 NOSIG=
201211120600 METAR MROC 120600Z 07002KT 9999 FEW035 20/17 A3002 NOSIG=
201211120700 METAR MROC 120700Z 05005KT 9999 FEW035 20/16 A3000 NOSIG=
201211120800 METAR MROC 120800Z 10005KT 9999 FEW035 20/16 A2998 NOSIG=
201211120900 METAR MROC 120900Z 10006KT 9999 FEW035 20/16 A2997 NOSIG=
201211121000 METAR MROC 121000Z 04006KT 9999 FEW035 20/16 A2997 NOSIG=
201211121100 METAR MROC 121100Z 06007KT CAVOK 19/16 A2998 NOSIG=
201211121200 METAR MROC 121200Z 07003KT CAVOK 20/16 A3000 NOSIG=
201211121300 METAR MROC 121300Z 06006KT CAVOK 23/17 A3002 NOSIG=
201211121400 METAR MROC 121400Z 09007KT CAVOK 24/17 A3002 NOSIG=
201211121500 METAR MROC 121500Z 11008KT CAVOK 26/17 A3001 BECMG 24006KT=
201211121600 METAR MROC 121600Z 08006KT CAVOK 26/17 A3001 BECMG 24006KT=
201211121700 METAR MROC 121700Z 12005KT 9999 FEW040 SCT140 29/17 A2998 BECMG 24006KT=
201211121800 METAR MROC 121800Z 11008KT 9999 FEW040 SCT120 28/16 A2996 BECMG 24006KT=
201211121900 METAR MROC 121900Z 21005KT 9999 SCT030 BKN120 26/21 A2995 NOSIG=
201211122000 METAR MROC 122000Z 24007KT 9999 FEW025TCU SCT030 BKN250 26/21 A2993 NOSIG=
201211122100 METAR MROC 122100Z 25007KT 9999 FEW015TCU SCT030 BKN120 24/20 A2992 NOSIG=
201211122200 METAR MROC 122200Z 22007KT 9999 SCT030 SCT120 24/20 A2993 NOSIG=
201211122300 METAR MROC 122300Z 26006KT 9999 VCFG FEW005 SCT030 BKN120 22/21 A2993 NOSIG=
201211130000 METAR MROC 130000Z 25004KT 9999 VCFG FEW003 SCT030 BKN120 21/20 A2997 NOSIG=
201211130100 METAR COR MROC 130100Z 00000KT 9999 -RA VCFG FEW003 SCT030 BKN120 21/20 A3000 NOSIG=
201211130200 METAR MROC 130200Z 18003KT 9999 VCFG FEW003 SCT030 BKN100 20/19 A3002 NOSIG=
201211130300 METAR MROC 130300Z 00000KT 9999 FEW040 BKN120 21/19 A3004 NOSIG=
201211130400 METAR MROC 130400Z 08007KT 9999 FEW040 21/17 A3003 NOSIG=
201211130500 METAR MROC 130500Z 06005KT 9999 FEW040 21/17 A3002 NOSIG=
201211130600 METAR MROC 130600Z 06001KT 9999 FEW045 20/17 A3001 NOSIG=
201211130700 METAR MROC 130700Z 05007KT 9999 FEW045 21/17 A2998 NOSIG=
201211130800 METAR MROC 130800Z 03005KT CAVOK 20/17 A2996 NOSIG=
201211130900 METAR MROC 130900Z 05007KT 9999 FEW040 20/17 A2995 NOSIG=
201211131000 METAR MROC 131000Z 08005KT 9999 FEW040 20/17 A2996 NOSIG=
201211131100 METAR MROC 131100Z 03007KT 9999 FEW040 20/17 A2997 NOSIG=
201211131200 METAR MROC 131200Z 09006KT 9999 FEW045 SCT070 21/17 A2999 NOSIG=
201211131300 METAR MROC 131300Z 11007KT 9999 FEW045 23/17 A3001 NOSIG=
201211131400 METAR MROC 131400Z 10007KT 9999 FEW040 SCT100 24/18 A3004 NOSIG=
201211131500 METAR MROC 131500Z 12008KT 9999 FEW040 BKN100 25/17 A3004 NOSIG=
201211131600 METAR MROC 131600Z 07008KT 9999 FEW040 SCT100 26/17 A3003 NOSIG=
201211131700 METAR MROC 131700Z 07008KT 9999 SCT040 27/17 A3001 NOSIG=
201211131800 METAR MROC 131800Z 09007KT 9999 SCT040 28/18 A2998 NOSIG=
201211131900 METAR MROC 131900Z 08007KT 9999 BKN040 28/17 A2994 NOSIG=
201211132000 METAR MROC 132000Z 12005KT 9999 SCT030 BKN100 25/17 A2993 NOSIG=
201211132100 METAR MROC 132100Z 13006KT 9999 FEW025 BKN120 24/18 A2991 NOSIG=
201211132200 METAR MROC 132200Z 10004KT 9999 FEW025 SCT120 SCT200 24/18 A2993 NOSIG=
201211132300 METAR MROC 132300Z 11005KT 9999 FEW015 SCT060 SCT200 23/17 A2994 NOSIG=
201211140000 METAR MROC 140000Z 11006KT 9999 FEW020 BKN080 23/17 A2997 NOSIG=
201211140100 METAR MROC 140100Z 10006KT CAVOK 22/17 A2999 NOSIG=
201211140200 METAR MROC 140200Z 11004KT CAVOK 22/18 A3002 RMK FEW120 NOSIG=
201211140300 METAR MROC 140300Z 11005KT 9999 FEW030 BKN070 22/17 A3004 BECMG RA=
201211140400 METAR MROC 140400Z 08004KT 9999 SCT030 21/18 A3003 NOSIG=
201211140500 METAR MROC 140500Z 05005KT 9999 SCT030 SCT070 22/18 A3001 NOSIG=
201211140600 METAR MROC 140600Z 06003KT 9999 FEW030 SCT140 21/18 A2999 NOSIG=
201211140700 METAR MROC 140700Z 03004KT 9999 FEW030 21/19 A2997 NOSIG=
201211140800 METAR MROC 140800Z 10005KT 9999 FEW030 22/17 A2995 NOSIG=
201211140900 METAR MROC 140900Z 08005KT 9999 FEW030 SCT070 21/18 A2994 NOSIG=
201211141000 METAR MROC 141000Z 12002KT 9999 FEW030 SCT080 21/18 A2994 NOSIG=
201211141100 METAR MROC 141100Z 14004KT 9999 FEW030 BKN070 21/17 A2997 NOSIG=
201211141200 METAR MROC 141200Z 12002KT 9999 SCT030 BKN070 21/16 A3000 NOSIG=
201211141300 METAR MROC 141300Z 09002KT 9999 FEW020 SCT070 SCT250 22/17 A3002 NOSIG=
201211141400 METAR MROC 141400Z 12005KT 9999 FEW020 SCT120 SCT250 23/17 A3004 NOSIG=
201211141500 METAR MROC 141500Z 12007KT 9999 FEW035 SCT120 SCT200 24/17 A3004 NOSIG=
201211141600 METAR MROC 141600Z 10008KT 9999 SCT030 BKN250 24/17 A3003 NOSIG=
201211141700 METAR COR MROC 141700Z 09008KT 9999 SCT030 BKN200 25/16 A3002 NOSIG=
201211141800 METAR MROC 141800Z 10005KT 9999 FEW030 SCT070 SCT200 25/17 A3000 NOSIG=
201211141900 METAR MROC 141900Z 12008KT 9999 FEW030 SCT060 SCT200 25/16 A2997 NOSIG=
201211142000 METAR MROC 142000Z 13008KT 9999 SCT030 BKN250 25/16 A2995 NOSIG=
201211142100 METAR MROC 142100Z 18006KT 9999 SCT030 BKN120 25/16 A2995 NOSIG=
201211142200 METAR MROC 142200Z 11010KT 9999 SCT030 BKN120 23/16 A2996 NOSIG=
201211142300 METAR MROC 142300Z 13006KT 9999 SCT030 BKN100 22/16 A2997 NOSIG=
201211150000 METAR MROC 150000Z 10006KT 9999 SCT035 BKN100 21/16 A3000 NOSIG=
201211150100 METAR MROC 150100Z 09006KT 9999 -RA SCT035 BKN100 21/17 A3004 NOSIG=
201211150200 METAR MROC 150200Z 11004KT 9999 FEW035 BKN100 20/17 A3005 RERA NOSIG=
201211150300 METAR MROC 150300Z 20002KT 9999 FEW035 BKN100 20/16 A3005 NOSIG=
201211150400 METAR MROC 150400Z 12005KT 9999 FEW035 BKN100 19/14 A3005 NOSIG=
201211150500 METAR MROC 150500Z 18005KT 9999 FEW035 BKN100 20/13 A3005 NOSIG=
201211150600 METAR MROC 150600Z 08008KT 9999 FEW035 BKN120 19/13 A3003 NOSIG=
201211150700 METAR MROC 150700Z 10009KT CAVOK 20/14 A3001 NOSIG=
201211150800 METAR MROC 150800Z 10010KT CAVOK 20/14 A2998 NOSIG=
201211150900 METAR MROC 150900Z 09010KT CAVOK 19/14 A2997 NOSIG=
201211151000 METAR MROC 151000Z 10009KT CAVOK 20/14 A2997 NOSIG=
201211151100 METAR MROC 151100Z 09007KT CAVOK 20/15 A2999 NOSIG=
201211151200 METAR MROC 151200Z 07009KT CAVOK 20/15 A3001 NOSIG=
201211151300 METAR MROC 151300Z 10009KT 9999 FEW035 BKN250 21/16 A3004 NOSIG=
201211151400 METAR MROC 151400Z 11008KT 9999 FEW035 BKN250 22/16 A3006 NOSIG=
201211151500 METAR MROC 151500Z 10007KT 9999 FEW035 BKN250 23/16 A3005 NOSIG=
201211151600 METAR MROC 151600Z 11009KT 9999 FEW035 BKN250 24/16 A3005 NOSIG=
201211151700 METAR MROC 151700Z 10008KT 9999 FEW035 BKN250 25/16 A3003 NOSIG=
201211151800 METAR MROC 151800Z 11006KT 9999 FEW035 BKN250 25/16 A3001 NOSIG=
201211151900 METAR MROC 151900Z 10007KT 9999 FEW035 BKN250 25/16 A2999 NOSIG=
201211152000 METAR MROC 152000Z 09006KT 9999 FEW035 BKN250 25/16 A2997 NOSIG=
201211152100 METAR MROC 152100Z 08006KT 9999 FEW035 SCT250 26/16 A2996 NOSIG=
201211152200 METAR MROC 152200Z 10007KT 9999 FEW045 SCT300 26/15 A2996 NOSIG=
201211152300 METAR MROC 152300Z 15003KT 9999 FEW035 BKN200 23/15 A2999 NOSIG=
201211160000 METAR MROC 160000Z 10002KT 9999 FEW030 BKN200 21/15 A3001 NOSIG=
201211160100 METAR MROC 160100Z 07006KT CAVOK 20/15 A3003 NOSIG=
201211160200 METAR MROC 160200Z 08002KT 9999 FEW030 SCT200 20/14 A3006 NOSIG=
201211160300 METAR MROC 160300Z 07004KT CAVOK 19/14 A3006 NOSIG=
201211160400 METAR MROC 160400Z 07006KT CAVOK 19/15 A3006 NOSIG=
201211160500 METAR MROC 160500Z 05007KT CAVOK 18/13 A3004 NOSIG=
201211160600 METAR MROC 160600Z 06011KT CAVOK 19/13 A3003 NOSIG=
201211160700 METAR MROC 160700Z 07004KT CAVOK 18/12 A3002 RMK FEW100 NOSIG=
201211160800 METAR MROC 160800Z 11005KT CAVOK 18/12 A3001 RMK FEW100 NOSIG=
201211160900 METAR MROC 160900Z 07004KT CAVOK 18/11 A2999 NOSIG=
201211161000 METAR MROC 161000Z 07006KT CAVOK 18/11 A2999 NOSIG=
201211161100 METAR MROC 161100Z 07006KT CAVOK 17/11 A3000 NOSIG=
201211161200 METAR MROC 161200Z 07006KT CAVOK 16/10 A3002 NOSIG=
201211161300 METAR MROC 161300Z 08008KT CAVOK 20/12 A3004 NOSIG=
201211161400 METAR MROC 161400Z 06006KT CAVOK 23/13 A3005 NOSIG=
201211161500 METAR MROC 161500Z 09004KT CAVOK 26/13 A3005 NOSIG=
201211161600 METAR MROC 161600Z 11008KT CAVOK 26/13 A3004 NOSIG=
201211161700 METAR MROC 161700Z 14005KT 9999 FEW045 29/14 A3002 BECMG 22007KT=
201211161800 METAR MROC 161800Z 24008KT 9999 FEW035 SCT050 27/17 A2999 NOSIG=
201211161900 METAR MROC 161900Z 24009KT 9999 FEW030 SCT050 26/17 A2998 NOSIG=
201211162000 METAR MROC 162000Z 22007KT 9999 FEW030 BKN050 26/17 A2997 NOSIG=
201211162100 METAR MROC 162100Z 25008KT 9999 FEW025 SCT035 26/19 A2996 NOSIG=
201211162200 METAR MROC 162200Z 24006KT 9999 FEW025 SCT035 25/19 A2996 NOSIG=
201211162300 METAR MROC 162300Z 24006KT 9999 SCT025 SCT040 23/19 A2998 NOSIG=
201211170000 METAR MROC 170000Z 25005KT 9999 FEW035 BKN045 21/19 A3000 NOSIG=
201211170100 METAR MROC 170100Z 23004KT 9999 SCT030 21/19 A3003 NOSIG=
201211170200 METAR MROC 170200Z 11002KT 9999 FEW035 SCT060 21/18 A3004 NOSIG=
201211170300 METAR MROC 170300Z 10005KT 8000 -RA FEW035 BKN080 20/18 A3006 BECMG 22005KT 5000 BR=
201211170400 METAR MROC 170400Z 10005KT 9999 FEW035 SCT100 20/17 A3004 RERA NOSIG=
201211170500 METAR MROC 170500Z 10005KT 9999 FEW035 SCT100 21/17 A3004 NOSIG=
201211170600 METAR MROC 170600Z 09005KT 9999 FEW035 SCT100 21/17 A3002 NOSIG=
201211170700 METAR MROC 170700Z 11006KT 9999 FEW035 SCT100 21/17 A3001 NOSIG=
201211170800 METAR MROC 170800Z 12004KT 9999 FEW035 SCT100 21/17 A3000 NOSIG=
201211170900 METAR MROC 170900Z 10006KT 9999 -RA FEW035 BKN100 20/17 A2999 NOSIG=
201211171000 METAR MROC 171000Z 09004KT 9999 FEW035 BKN100 20/17 A3000 RERA NOSIG=
201211171100 METAR MROC 171100Z 10003KT 9999 FEW030 SCT100 21/17 A3001 NOSIG=
201211171200 METAR MROC 171200Z 08005KT 9999 FEW030 BKN100 21/17 A3003 NOSIG=
201211171300 METAR MROC 171300Z 08004KT 9999 FEW030 SCT080 21/17 A3005 NOSIG=
201211171400 METAR MROC 171400Z 10008KT 9999 FEW030 SCT070 24/18 A3006 NOSIG=
201211171500 METAR MROC 171500Z 12006KT 9999 FEW030 SCT070 25/18 A3006 NOSIG=
201211171600 METAR MROC 171600Z 13006KT 9999 FEW035 SCT050 25/18 A3006 NOSIG=
201211171700 METAR MROC 171700Z 22012KT 9999 FEW035 SCT050 26/16 A3005 NOSIG=
201211171800 METAR MROC 171800Z 25005KT 9999 FEW035 BKN050 26/17 A3003 NOSIG=
201211171900 METAR MROC 171900Z 21005KT 9999 -RA SCT035 BKN050 25/17 A3002 NOSIG=
201211172000 METAR MROC 172000Z 20006KT 9999 SCT035 BKN080 25/17 A3000 NOSIG=
201211172100 METAR MROC 172100Z 15006KT 9999 -RA FEW030 BKN090 22/18 A3001 NOSIG=
201211172200 METAR MROC 172200Z 10005KT 9999 FEW030 BKN100 23/17 A3000 NOSIG=
201211172300 METAR MROC 172300Z 10007KT 9999 FEW030 BKN100 21/17 A3002 NOSIG=
201211180000 METAR MROC 180000Z 03005KT 9999 FEW030 SCT100 22/15 A3003 NOSIG=
201211180100 METAR MROC 180100Z 10006KT 9999 FEW030 SCT100 21/16 A3006 NOSIG=
201211180200 METAR MROC 180200Z 09007KT 9999 FEW030 SCT120 21/16 A3008 NOSIG=
201211180300 METAR MROC 180300Z 100008KT 9999 FEW045 SCT070 21/16 A3009 NOSIG=
201211180400 METAR MROC 180400Z 05007KT 9999 FEW045 20/16 A3008 NOSIG=
201211180500 METAR MROC 180500Z 07007KT CAVOK 19/15 A3007 NOSIG=
201211180600 METAR MROC 180600Z 09006KT 9999 FEW040 SCT070 21/16 A3006 NOSIG=
201211180700 METAR MROC 180700Z 09009KT 9999 -RA DZ FEW025 BKN070 20/17 A3005 BECMG 7000 RA BKN035=
201211180800 METAR MROC 180800Z 09004KT 9999 FEW035 BKN070 20/17 A3003 NOSIG=
201211180900 METAR MROC 180900Z 08004KT 9999 FEW035 BKN080 19/17 A3002 NOSIG=
201211181000 METAR MROC 181000Z 18004KT 9999 FEW035 BKN100 19/16 A3004 NOSIG=
201211181100 METAR MROC 181100Z 17006KT 9999 FEW035 BKN100 17/13 A3004 NOSIG=
201211181200 METAR MROC 181200Z 11003KT 9999 FEW040 BKN130 18/14 A3006 NOSIG=
201211181300 METAR MROC 181300Z 04005KT 9999 FEW035 BKN110 19/15 A3007 NOSIG=
201211181400 METAR MROC 181400Z 11007KT 9999 FEW030 BKN090 20/13 A3009 NOSIG=
201211181500 METAR MROC 181500Z 09007KT 9999 FEW030 SCT100 BKN250 23/14 A3010 NOSIG=
201211181600 METAR MROC 181600Z 09010KT 9999 FEW035 BKN250 24/15 A3010 NOSIG=
201211181700 METAR MROC 181700Z 08009KT 9999 FEW035 BKN250 24/15 A3008 NOSIG=
201211181800 METAR MROC 181800Z 08009KT 9999 FEW035 SCT100 BKN250 23/15 A3006 NOSIG=
201211181900 METAR MROC 181900Z 09011KT 9999 FEW035 BKN250 23/15 A3004 NOSIG=
201211182000 METAR MROC 182000Z 11011G21KT 9999 FEW035 BKN250 23/15 A3002 NOSIG=
201211182100 METAR MROC 182100Z 11011KT 9999 FEW030 BKN250 22/14 A3001 NOSIG=
201211182200 METAR MROC 182200Z 11011G21KT 9999 FEW030 BKN250 21/15 A3000 NOSIG=
201211182300 METAR MROC 182300Z 06011KT 9999 FEW030 SCT140 SCT250 21/15 A3001 NOSIG=
201211190000 METAR MROC 190000Z 11012G23KT 9999 FEW025 SCT140 20/14 A3002 NOSIG=
201211190100 METAR MROC 190100Z 09009KT 9999 FEW025 SCT120 20/14 A3005 NOSIG=
201211190200 METAR MROC 190200Z 07007KT CAVOK 20/14 A3007 NOSIG=
201211190300 METAR MROC 190300Z 06010KT CAVOK 20/14 A3008 NOSIG=
201211190400 METAR MROC 190400Z 11006KT CAVOK 20/14 A3009 NOSIG=
201211190500 METAR MROC NIL=
201211190600 METAR MROC 190600Z 07008KT CAVOK 19/15 A3006 NOSIG=
201211190700 METAR MROC 190700Z 05008KT CAVOK 19/15 A3004 NOSIG=
201211190800 METAR MROC 190800Z 09010KT CAVOK 20/15 A3001 NOSIG=
201211190900 METAR MROC 190900Z 09009KT CAVOK 20/15 A3001 NOSIG=
201211191000 METAR MROC NIL=
201211191100 METAR MROC 191100Z 05006KT CAVOK 20/16 A3001 NOSIG=
201211191200 METAR MROC 191200Z 11005KT 9999 FEW025 SCT060 19/15 A3003 NOSIG=
201211191300 METAR MROC 191300Z 10006KT 9999 FEW040 21/16 A3004 NOSIG=
201211191400 METAR MROC 191400Z 31006KT 9999 FEW040 24/15 A3005 BECMG 10010KT=
201211191500 METAR MROC 191500Z 08008KT 9999 FEW040 24/15 A3005 NOSIG=
201211191600 METAR MROC 191600Z 09009KT 9999 FEW040 25/15 A3004 NOSIG=
201211191700 METAR MROC 191700Z 08010G20KT 9999 FEW030 24/15 A3003 NOSIG=
201211191800 METAR MROC 191800Z 12010G20KT 9999 SCT030 25/16 A2999 NOSIG=
201211191900 METAR MROC 191900Z 10009KT 9999 SCT030 SCT250 25/16 A2996 NOSIG=
201211192000 METAR MROC 192000Z 10011KT 9999 SCT030 SCT250 25/16 A2995 NOSIG=
201211192100 METAR MROC 192100Z 12012KT 9999 FEW030 SCT250 25/17 A2993 NOSIG=
201211192200 METAR MROC 192200Z 09009KT 9999 SCT030 SCT250 23/16 A2994 NOSIG=
201211192300 METAR MROC 192300Z 12005KT 9999 SCT030 SCT250 22/16 A2995 NOSIG=
201211200000 METAR MROC 200000Z 09006KT 9999 SCT030 SCT250 21/16 A2996 NOSIG=
201211200100 METAR MROC 200100Z 09010KT 9999 SCT030 21/16 A2997 NOSIG=
201211200200 METAR MROC 200200Z 10005KT 9999 SCT030 21/16 A2999 NOSIG=
201211200300 METAR MROC 200300Z 12004KT 9999 SCT030 21/16 A3000 NOSIG=
201211200400 METAR MROC 200400Z 08008KT 9999 SCT030 21/16 A2999 NOSIG=
201211200500 METAR MROC 200500Z 08004KT 9999 SCT030 21/17 A2998 NOSIG=
201211200600 METAR MROC 200600Z 11006KT 9999 SCT030 21/17 A2996 NOSIG=
201211200700 METAR MROC 200700Z 10006KT 9999 SCT030 21/17 A2995 NOSIG=
201211200800 METAR MROC 200800Z 06007KT 9999 -RA FEW030 SCT100 21/17 A2993 NOSIG=
201211200900 METAR MROC 200900Z 06008KT 9999 FEW030 SCT100 21/17 A2992 NOSIG=
201211201000 METAR MROC 201000Z 10006KT 9999 FEW030 SCT100 20/16 A2994 NOSIG=
201211201100 METAR MROC 201100Z 08008KT 9999 FEW030 SCT100 20/16 A2995 NOSIG=
201211201200 METAR MROC 201200Z 07005KT 9999 SCT030 BKN100 20/16 A2996 NOSIG=
201211201300 METAR MROC 201300Z 07005KT 9999 SCT030 BKN100 21/16 A2996 NOSIG=
201211201400 METAR MROC 201400Z 08009G19KT 9999 SCT030 BKN100 24/16 A2998 NOSIG=
201211201500 METAR MROC 201500Z 10008KT 9999 SCT030 BKN120 25/16 A2999 NOSIG=
201211201600 METAR MROC 201600Z 09008KT 9999 SCT030 BKN120 23/16 A2999 NOSIG=
201211201700 METAR MROC 201700Z 09006KT 9999 SCT030 BKN120 24/17 A2996 NOSIG=
201211201800 METAR MROC 201800Z 10010G20KT 9999 SCT030 BKN120 23/17 A2995 NOSIG=
201211201900 METAR MROC 201900Z 10008KT 9999 -RA SCT030 BKN120 22/18 A2993 NOSIG=
201211202000 METAR MROC 202000Z 08007KT 9999 SCT030 BKN120 23/17 A2991 NOSIG=
201211202100 METAR MROC 202100Z 12006KT 9999 FEW045 SCT070 BKN150 24/17 A2992 NOSIG=
201211202200 METAR MROC 202200Z 15005KT 9999 VCSH FEW035 BKN070 23/17 A2991 NOSIG=
201211202300 METAR MROC 202300Z 11007KT 9999 VCSH FEW030 BKN060 22/17 A2991 BECMG RA=
201211210000 METAR MROC 210000Z 12006KT 9999 -RA FEW025 BKN060 22/18 A2994 NOSIG=
201211210100 METAR MROC 210100Z 07005KT 9999 -RA FEW035 BKN080 21/18 A2996 NOSIG=
201211210200 METAR MROC 210200Z 06003KT 9999 FEW030 SCT070 BKN130 22/17 A2999 NOSIG=
201211210300 METAR COR MROC 210300Z 09003KT 9999 -DZ FEW025 BKN120 22/17 A3001 NOSIG=
201211210400 METAR MROC 210400Z 18002KT 9999 -DZ FEW025 BKN120 22/17 A3001 NOSIG=
201211210500 METAR MROC 210500Z 18002KT 9999 FEW025 BKN120 22/17 A3000 NOSIG=
201211210600 METAR MROC 210600Z 09005KT 9999 FEW030 BKN120 212/17 A2997 NOSIG=
201211210700 METAR MROC 210700Z 09009KT 9999 FEW030 BKN120 21/17 A2994 NOSIG=
201211210800 METAR MROC 210800Z 12004KT 9999 FEW030 BKN120 22/17 A2994 NOSIG=
201211210900 METAR MROC 210900Z 08005KT 9999 FEW030 BKN120 21/17 A2992 NOSIG=
201211211000 METAR MROC 211000Z 08004KT 9999 FEW025 BKN120 21/17 A2996 NOSIG=
201211211100 METAR MROC 211100Z 07006KT 9999 FEW025 BKN100 21/17 A2997 NOSIG=
201211211200 METAR MROC 211200Z 24003KT 9999 DZ FEW030 SCT120 BKN200 21/17 A2999 NOSIG=
201211211300 METAR MROC 211300Z 10003KT 9999 FEW040 SCT060 BKN100 21/17 A3002 NOSIG=
201211211400 METAR MROC 211400Z 14003KT 9999 FEW030 SCT030 BKN130 22/17 A3004 NOSIG=
201211211500 METAR MROC 211500Z 10005KT 9999 FEW045 SCT070 BKN140 23/18 A3003 NOSIG=
201211211600 METAR MROC 211600Z 09006KT 9999 FEW040 SCT070 BKN140 24/17 A3002 NOSIG=
201211211700 METAR MROC 211700Z 28005KT 9999 FEW040 SCT070 BKN180 25/17 A3000 NOSIG=
201211211800 METAR MROC 211800Z 18004KT 9999 FEW030 BKN080 26/17 A2999 NOSIG=
201211211900 METAR MROC 211900Z 20003KT 9999 FEW040 BKN150 25/18 A2996 NOSIG=
201211212000 METAR MROC 212000Z 09006KT 9999 VCSH FEW030 SCT080 BKN120 24/17 A2995 NOSIG=
201211212100 METAR MROC 212100Z 06005KT 9999 FEW030 SCT045 BKN120 24/17 A2995 NOSIG=
201211212200 METAR MROC 212200Z 08007KT 9999 FEW030 SCT060 BKN120 23/17 A2995 NOSIG=
201211212300 METAR MROC 212300Z 11007KT 9999 FEW030 SCT045 BKN100 22/17 A2997 NOSIG=
201211220000 METAR MROC 220000Z 10010KT 9999 FEW030 BKN080 21/16 A2999 NOSIG=
201211220100 METAR MROC 220100Z 09004KT 9999 FEW030 BKN080 21/16 A3002 NOSIG=
201211220200 METAR MROC 220200Z 09007KT 9999 FEW030 BKN080 21/17 A3004 NOSIG=
201211220300 METAR MROC 220300Z 11010KT 9999 FEW030 BKN090 21/16 A3004 NOSIG=
201211220400 METAR MROC 220400Z 11007KT 9999 -RA FEW030 BKN100 22/16 A3006 NOSIG=
201211220500 METAR MROC 220500Z 08005KT 9999 -RA FEW030 BKN100 20/17 A3006 NOSIG=
201211220600 METAR MROC 220600Z 08006KT 9999 -RA FEW030 BKN100 20/17 A3004 NOSIG=
201211220700 METAR MROC 220700Z 08003KT 9999 -RA FEW030 BKN100 19/16 A3002 NOSIG=
201211220800 METAR MROC 220800Z 14004KT 9999 FEW030 BKN100 18/15 A3000 NOSIG=
201211220900 METAR MROC 220900Z 12002KT 9999 FEW030 BKN100 18/14 A2999 NOSIG=
201211221000 METAR MROC 221000Z 06004KT 9999 FEW030 BKN100 18/14 A3000 NOSIG=
201211221100 METAR MROC 221100Z 06009KT 9999 FEW030 BKN130 19/15 A3001 NOSIG=
201211221200 METAR MROC 221200Z 09012KT 9999 FEW030 BKN130 19/15 A3003 NOSIG=
201211221300 METAR MROC 221300Z 09005KT 9999 FEW030 BKN130 20/15 A3006 NOSIG=
201211221400 METAR MROC 221400Z 12008KT 9999 FEW030 BKN130 22/16 A3007 NOSIG=
201211221500 METAR MROC 221500Z 10008KT 9999 FEW030 SCT080 BKN140 24/16 A3007 NOSIG=
201211221600 METAR MROC 221600Z 11009KT 9999 FEW030 SCT070 BKN140 23/15 A3007 NOSIG=
201211221700 METAR MROC 221700Z 12010KT 9999 FEW030 SCT050 BKN110 24/15 A3005 NOSIG=
201211221800 METAR MROC 221800Z 12009G19KT 9999 FEW030 SCT080 BKN120 24/16 A3003 NOSIG=
201211221900 METAR MROC 221900Z 09008G18KT 9999 FEW030 SCT080 BKN130 24/16 A3001 NOSIG=
201211222000 METAR MROC 222000Z 10009KT 9999 FEW030 SCT070 BKN130 24/16 A2999 NOSIG=
201211222100 METAR MROC 222100Z 15004KT 9999 FEW030 BKN100 23/17 A2999 NOSIG=
201211222200 METAR MROC 222200Z 13004KT 9999 FEW030 BKN100 22/16 A2999 NOSIG=
201211222300 METAR MROC 222300Z 18002KT 9999 FEW030 BKN100 22/15 A3002 NOSIG=
201211230000 METAR MROC 230000Z 13004KT 9999 FEW030 SCT100 BKN250 20/14 A3003 NOSIG=
201211230100 METAR MROC 230100Z 09002KT 9999 FEW030 SCT100 BKN200 21/14 A3005 NOSIG=
201211230200 METAR MROC 230200Z 13004KT 9999 FEW030 SCT100 BKN200 20/14 A3007 NOSIG=
201211230300 METAR MROC 230300Z 15004KT 9999 FEW030 BKN100 20/14 A3009 NOSIG=
201211230400 METAR MROC 230400Z 10007KT 9999 FEW030 BKN120 20/13 A3009 NOSIG=
201211230500 METAR MROC 230500Z 07007KT 9999 FEW035 BKN120 19/12 A3008 NOSIG=
201211230600 METAR MROC 230600Z 22004KT 9999 FEW040 BKN110 19/12 A3007 BECMG 09007KT=
201211230700 METAR MROC 230700Z 10010G21KT FEW035 BKN100 19/13 A3004 NOSIG=
201211230800 METAR MROC 230800Z 09011G23KT 9999 FEW035 BKN110 19/13 A3001 NOSIG=
201211230900 METAR MROC 230900Z 09009KT 9999 FEW035 BKN250 19/13 A3000 NOSIG=
201211231000 METAR MROC 231000Z 10013G25KT 9999 FEW030 SCT250 19/13 A3000 NOSIG=
201211231100 METAR MROC 231100Z 11012KT 9999 FEW030 SCT250 19/13 A3001 NOSIG=
201211231200 METAR MROC 231200Z 10008KT CAVOK 19/13 A3003 NOSIG=
201211231300 METAR MROC 231300Z 10010KT CAVOK 20/14 A3005 NOSIG=
201211231400 METAR MROC 231400Z 09010KT CAVOK 21/14 A3007 NOSIG=
201211231500 METAR MROC 231500Z 10009KT CAVOK 23/15 A3005 NOSIG=
201211231600 METAR MROC 231600Z 10011G21KT 9999 FEW040 SCT120 25/15 A3005 NOSIG=
201211231700 METAR MROC 231700Z 11011KT 9999 FEW040 SCT120 25/16 A3003 NOSIG=
201211231800 METAR MROC 231800Z 11009KT 9999 FEW040 SCT120 25/16 A3000 NOSIG=
201211231900 METAR MROC 231900Z 10006KT 9999 SCT030 27/16 A2997 NOSIG=
201211232000 METAR MROC 232000Z 20004KT 9999 SCT030 SCT120 26/15 A2996 NOSIG=
201211232100 METAR MROC 232100Z 10010G20KT 9999 SCT030 25/14 A2994 NOSIG=
201211232200 METAR MROC 232200Z 08005KT 9999 SCT030 SCT120 24/14 A2996 NOSIG=
201211232300 METAR MROC 232300Z 09010G20KT 9999 FEW025 SCT120 20/13 A2998 NOSIG=
201211240000 METAR MROC 240000Z 09006KT 9999 SCT020 SCT120 19/13 A3001 NOSIG=
201211240100 METAR MROC 240100Z 11010G20KT 9999 SCT025 SCT120 18/13 A3003 NOSIG=
201211240200 METAR MROC 240200Z 10011G21KT 9999 SCT030 SCT120 18/13 A3004 NOSIG=
201211240300 METAR MROC 240300Z 10011G22KT 9999 FEW035 18/13 A3005 NOSIG=
201211240400 METAR MROC 240400Z 10015KT 9999 FEW035 18/12 A3007 NOSIG=
201211240500 METAR MROC 240500Z 10011G22KT 9999 FEW035 18/12 A3006 NOSIG=
201211240600 METAR MROC 240600Z 09009G20KT CAVOK 18/13 A3005 NOSIG=
201211240700 METAR MROC 240700Z 09008KT CAVOK 18/12 A3002 NOSIG=
201211240800 METAR MROC 240800Z 10011KT CAVOK 18/13 A3000 NOSIG=
201211240900 METAR MROC 240900Z 07009KT CAVOK 18/13 A2999 NOSIG=
201211241000 METAR MROC 241000Z 05011KT CAVOK 17/13 A2999 NOSIG=
201211241100 METAR MROC 241100Z 06012KT CAVOK 17/12 A3001 NOSIG=
201211241200 METAR MROC 241200Z 08007KT 9999 FEW025 SCT130 17/12 A3003 NOSIG=
201211241300 METAR MROC 241300Z 07009KT FEW030 SCT120 18/12 A3006 NOSIG=
201211241400 METAR MROC 241400Z 09009KT 9999 FEW035 20/12 A3007 NOSIG=
201211241500 METAR MROC 241500Z 10008KT 9999 FEW030 22/13 A3007 NOSIG=
201211241600 METAR MROC 241600Z 10007KT 9999 FEW030 SCT120 22/14 A3006 NOSIG=
201211241700 METAR MROC 241700Z 11011G21KT 9999 FEW040 23/14 A3002 NOSIG=
201211241800 METAR MROC 241800Z 11012G23KT 9999 FEW030 SCT120 22/13 A3001 NOSIG=
201211241900 METAR MROC 241900Z 10010G20KT 9999 FEW030 BKN120 22/14 A2999 NOSIG=
201211242000 METAR MROC 242000Z 10014G27KT 9999 FEW030 BKN120 22/14 A2996 NOSIG=
201211242100 METAR MROC 242100Z 09014KT 9999 FEW030 SCT120 22/14 A2995 NOSIG=
201211242200 METAR MROC 242200Z 10010G20KT 9999 FEW030 SCT120 20/14 A2996 NOSIG=
201211242300 METAR MROC 242300Z 08007KT 9999 FEW030 BKN120 19/14 A2997 NOSIG=
201211250000 METAR MROC 250000Z 11011G25KT 9999 FEW030 BKN130 19/14 A2998 NOSIG=
201211250100 METAR MROC 250100Z 09015KT 9999 FEW030 SCT250 19/14 A3000 NOSIG=
201211250200 METAR MROC 250200Z 09010G20KT 9999 FEW030 SCT250 19/14 A3002 NOSIG=
201211250300 METAR MROC 250300Z 07012KT 9999 FEW030 SCT130 20/15 A3005 NOSIG=
201211250400 METAR MROC 250400Z 08010KT 9999 FEW030 SCT130 20/15 A3005 NOSIG=
201211250500 METAR MROC 250500Z 09007KT 9999 FEW030 SCT130 20/15 A3004 NOSIG=
201211250600 METAR MROC NIL=
201211250700 METAR MROC 250700Z 12004KT 9999 FEW030 SCT120 19/14 A3000 NOSIG=
201211250800 METAR MROC 250800Z 15004KT 9999 FEW030 BKN120 18/13 A2999 NOSIG=
201211250900 METAR MROC 250900Z 08008KT 9999 FEW030 BKN120 19/13 A2997 NOSIG=
201211251000 METAR MROC 251000Z 10010KT 9999 FEW030 BKN120 18/13 A2997 NOSIG=
201211251100 METAR MROC 251100Z 08010G20KT 9999 FEW030 BKN110 19/14 A2998 NOSIG=
201211251200 METAR MROC 251200Z 04012KT 9999 FEW030 BKN120 19/14 A2999 NOSIG=
201211251300 METAR MROC 251300Z 09010G21KT 9999 FEW030 BKN120 19/14 A3001 NOSIG=
201211251400 METAR MROC 251400Z 11010KT 9999 FEW030 BKN120 21/14 A3003 NOSIG=
201211251500 METAR MROC 251500Z 09012G23KT 9999 FEW030 BKN120 21/14 A3004 NOSIG=
201211251600 METAR MROC 251600Z 07013KT 9999 FEW030 BKN120 22/14 A3003 NOSIG=
201211251700 METAR MROC 251700Z 10013G25KT 9999 FEW030 BKN120 22/14 A3001 NOSIG=
201211251800 METAR MROC 251800Z 10014G27KT 9999 FEW030 SCT100 BKN200 22/15 A2998 NOSIG=
201211251900 METAR MROC 251900Z 11010G20KT 9999 FEW030 SCT100 BKN200 21/16 A2998 NOSIG=
201211252000 METAR MROC 252000Z 11010KT 9999 FEW020 BKN100 22/16 A2997 NOSIG=
201211252100 METAR MROC 252100Z 10006KT 9999 -RA FEW035 BKN100 21/16 A2996 NOSIG=
201211252200 METAR MROC 252200Z 15006KT FEW030 BKN110 21/16 A2996 NOSIG=
201211252300 METAR MROC 252300Z 14006KT 9999 -RA FEW030 BKN120 21/16 A2998 NOSIG=
201211260000 METAR MROC 260000Z 17004KT 9999 -RA FEW035 BKN130 20/15 A3000 NOSIG=
201211260100 METAR MROC 260100Z 06007KT 9999 RA FEW030 BKN100 20/16 A3003 NOSIG=
201211260200 METAR MROC 260200Z 09006KT 9999 RA FEW025 BKN100 19/16 A3004 NOSIG=
201211260300 METAR MROC 260300Z 09005KT 9999 FEW025 BKN120 20/16 A3006 RERA NOSIG=
201211260400 METAR MROC 260400Z 07007KT 9999 FEW020 BKN120 20/16 A3005 NOSIG=
201211260500 METAR MROC 260500Z 11005KT 9999 FEW025 BKN100 20/17 A3003 NOSIG=
201211260600 METAR MROC 260600Z 08005KT 9999 FEW030 BKN100 21/17 A3001 NOSIG=
201211260700 METAR MROC 260700Z 09006KT 9999 FEW030 BKN100 21/17 A2998 NOSIG=
201211260800 METAR MROC 260800Z 10006KT 9999 FEW030 BKN100 21/17 A2996 NOSIG=
201211260900 METAR MROC 260900Z 00000KT 9999 FEW030 BKN100 21/17 A2995 NOSIG=
201211261000 METAR MROC 261000Z 07004KT 9999 FEW030 BKN100 21/17 A2995 NOSIG=
201211261100 METAR MROC 261100Z 12006KT 9999 FEW025 BKN120 21/17 A2996 NOSIG=
201211261200 METAR MROC 261200Z 11009KT 9999 SCT030 SCT120 21/16 A3000 NOSIG=
201211261300 METAR MROC 261300Z 11005KT 9999 FEW030 BKN120 21/17 A3003 NOSIG=
201211261400 METAR MROC 261400Z 11008KT 9999 FEW040 BKN120 22/17 A3004 NOSIG=
201211261500 METAR MROC 261500Z 12008KT 9999 FEW040 BKN140 24/17 A3005 NOSIG=
201211261600 METAR MROC 261600Z 12010KT 9999 SCT040 BKN120 24/17 A3005 NOSIG=
201211261700 METAR MROC 261700Z 09010KT 9999 SCT040 BKN120 25/16 A3001 NOSIG=
201211261800 METAR MROC 261800Z 08008KT 9999 FEW035 SCT045 BKN120 24/17 A3000 NOSIG=
201211261900 METAR MROC 261900Z 13009KT 9999 FEW030 BKN060 24/17 A2998 NOSIG=
201211262000 METAR MROC 262000Z 12009KT 9999 FEW035 SCT045 SCT130 26/17 A2997 NOSIG=
201211262100 METAR MROC 262100Z 10007KT 9999 FEW035 SCT060 25/17 A2995 NOSIG=
201211262200 METAR MROC 262200Z 14004KT 9999 FEW035 SCT070 BKN250 25/17 A2996 BECMG 24005KT=
201211262300 METAR MROC 262300Z 26007KT 9999 SCT035 BKN045 22/19 A2998 BECMG RA=
201211270000 METAR MROC 270000Z 28004KT 9999 FEW030 BKN060 22/19 A3000 NOSIG=
201211270100 METAR MROC 270100Z 10002KT 9999 -RA SCT035 BKN060 21/19 A3002 NOSIG=
201211270200 METAR MROC 270200Z 11002KT 9999 SCT035 BKN080 21/19 A3002 NOSIG=
201211270300 METAR MROC 270300Z 10004KT 9999 SCT035 BKN090 21/19 A3002 NOSIG=
201211270400 METAR MROC 270400Z 08008KT 9999 FEW030 SCT100 22/17 A3003 NOSIG=
201211270500 METAR MROC 270500Z 11012KT 9999 FEW035 SCT120 22/17 A3003 NOSIG=
201211270600 METAR MROC 270600Z 05010KT 9999 FEW035 SCT120 21/17 A3001 NOSIG=
201211270700 METAR MROC 270700Z 08008KT 9999 FEW035 SCT120 21/17 A3000 NOSIG=
201211270800 METAR MROC 270800Z 06007KT 9999 FEW035 SCT120 20/17 A2998 NOSIG=
201211270900 METAR MROC 270900Z 02003KT 9999 FEW035 SCT120 20/17 A2998 NOSIG=
201211271000 METAR MROC 271000Z 06006KT 9999 FEW035 SCT120 19/16 A2997 NOSIG=
201211271100 METAR MROC 271100Z 03005KT 9999 FEW035 19/16 A3000 NOSIG=
201211271200 METAR MROC 271200Z 04006KT 9999 FEW035 19/16 A3000 NOSIG=
201211271300 METAR MROC 271300Z 03006KT CAVOK 23/17 A3002 NOSIG=
201211271400 METAR MROC 271400Z 10006KT CAVOK 25/17 A3004 NOSIG=
201211271500 METAR MROC 271500Z 11009KT CAVOK 26/17 A3004 NOSIG=
201211271600 METAR MROC 271600Z 11008KT 9999 SCT030 28/17 A3004 NOSIG=
201211271700 METAR MROC 271700Z 09007KT 9999 SCT035 28/16 A3003 NOSIG=
201211271800 METAR MROC 271800Z 11009KT 9999 FEW035 29/17 A3000 NOSIG=
201211271900 METAR MROC 271900Z 10007KT 9999 FEW030 SCT060 30/16 A2998 NOSIG=
201211272000 METAR MROC 272000Z 07009KT 9999 FEW030 SCT070 29/16 A2995 BECMG 24005KT=
201211272100 METAR MROC 272100Z 08007KT 9999 FEW030 SCT070 29/17 A2994 NOSIG=
201211272200 METAR MROC 272200Z 09007KT 9999 FEW030 27/17 A2995 NOSIG=
201211272300 METAR MROC 272300Z 10010KT 9999 FEW030 SCT250 26/17 A2996 NOSIG=
201211280000 METAR MROC 280000Z 10003KT 9999 FEW030 SCT250 24/18 A2998 NOSIG=
201211280100 METAR MROC 280100Z 31005KT 9999 FEW030 SCT250 23/20 A3001 NOSIG=
201211280200 METAR MROC 280200Z 23003KT 9999 FEW030 SCT250 22/19 A3003 NOSIG=
201211280300 METAR MROC 280300Z 25002KT 9999 4800W BCFG FEW004 SCT180 22/19 A3004 NOSIG=
201211280400 METAR MROC 280400Z 29003KT 9999 FEW035 BKN170 22/19 A3004 NOSIG=
201211280500 METAR MROC 280500Z 09005KT 9999 FEW040 SCT120 BKN190 22/18 A3002 NOSIG=
201211280600 METAR MROC 280600Z 07002KT 9999 FEW040 SCT100 BKN200 22/18 A3002 NOSIG=
201211280700 METAR MROC 280700Z 03005KT 9999 FEW040 SCT200 21/18 A3002 NOSIG=
201211280800 METAR MROC 280800Z 18002KT 9999 FEW040 20/18 A3001 NOSIG=
201211280900 METAR MROC 280900Z 03007KT 9999 FEW040 21/18 A3000 NOSIG=
201211281000 METAR MROC 281000Z 06005KT 9999 FEW045 SCT130 22/17 A3000 NOSIG=
201211281100 METAR MROC 281100Z 05006KT 9999 FEW035 21/17 A3002 NOSIG=
201211281200 METAR MROC 281200Z 06004KT 9999 FEW035 SCT060 21/18 A3004 NOSIG=
201211281300 METAR MROC 281300Z 09010G20KT 9999 FEW035 SCT060 BKN250 23/18 A3005 NOSIG=
201211281400 METAR MROC 281400Z 11008KT 9999 FEW035 SCT100 BKN250 24/15 A3007 NOSIG=
201211281500 METAR MROC 281500Z 11007G17KT CAVOK 25/16 A3006 NOSIG=
201211281600 METAR MROC 281600Z 20005KT 9999 FEW035 BKN200 26/18 A3008 NOSIG=
201211281700 METAR MROC 281700Z 10009G20KT 9999 SCT035 BKN200 26/18 A3004 NOSIG=
201211281800 METAR MROC 281800Z 08010KT 9999 SCT035 BKN200 26/18 A3002 NOSIG=
201211281900 METAR MROC 281900Z 12010KT 9999 VCSH BKN035 SCT250 25/17 A3001 NOSIG=
201211282000 METAR MROC 282000Z 06013G23KT 9999 SCT035 BKN250 27/16 A2998 NOSIG=
201211282100 METAR MROC 282100Z 09010G20KT 9999 BKN030 SCT250 25/15 A2998 NOSIG=
201211282200 METAR MROC 282200Z 12007KT 9999 FEW035 BKN180 24/16 A2999 NOSIG=
201211282300 METAR MROC 282300Z 13005KT 9999 FEW035 BKN200 23/16 A3002 NOSIG=
201211290000 METAR MROC 290000Z 11005KT 9999 FEW035 SCT120 SCT250 23/16 A3006 NOSIG=
201211290100 METAR MROC 290100Z 10006KT CAVOK 22/17 A3006 NOSIG=
201211290200 METAR MROC 290200Z 08008KT 9999 RA FEW020 BKN100 22/16 A3008 NOSIG=
201211290300 METAR MROC 290300Z 09013G23KT 9999 -RA FEW030 BKN100 21/16 A3009 NOSIG=
201211290400 METAR MROC 290400Z 11011G23KT 9999 -RA FEW030 BKN110 22/15 A3008 NOSIG=
201211290500 METAR MROC 290500Z 10010G20KT 9999 FEW030 BKN130 22/15 A3007 NOSIG=
201211290600 METAR MROC 290600Z 11012G22KT CAVOK 21/16 A3006 NOSIG=
201211290700 METAR MROC 290700Z 11008KT CAVOK 21/16 A3006 NOSIG=
201211290800 METAR MROC 290800Z 07008KT CAVOK 21/16 A3003 NOSIG=
201211290900 METAR MROC 290900Z 08010G20KT CAVOK 21/15 A3001 NOSIG=
201211291000 METAR MROC 291000Z 09013G24KT CAVOK 21/15 A2999 NOSIG=
201211291100 METAR MROC 291100Z 10015G25KT CAVOK 21/16 A3000 NOSIG=
201211291200 METAR MROC 291200Z 11013G25KT CAVOK 21/15 A2997 NOSIG=
201211291300 METAR MROC 291300Z 11014G24KT 9999 FEW040 BKN200 22/15 A3003 NOSIG=
201211291400 METAR COR MROC 291400Z 12013G27KT 9999 FEW040 BKN200 22/16 A3008 NOSIG=
201211291500 METAR MROC 291500Z 09008KT 9999 FEW040 SCT120 BKN200 23/16 A3009 NOSIG=
201211291600 METAR MROC 291600Z 07007KT 9999 SCT035 BKN200 24/16 A3008 NOSIG=
201211291700 METAR MROC 291700Z 08008KT 9999 SCT035 BKN200 25/16 A3006 NOSIG=
201211291800 METAR MROC 291800Z 09006KT 9999 FEW035 SCT120 BKN200 25/16 A3005 NOSIG=
201211291900 METAR MROC 291900Z 25005KT 9999 VCSH FEW035 SCT100 SCT200 23/17 A3004 NOSIG=
201211292000 METAR MROC 292000Z 14004KT 9999 VCSH SCT030 BKN100 23/17 A3002 NOSIG=
201211292100 METAR MROC 292100Z 14007KT 9999 -RA SCT030 BKN100 22/17 A3004 BECMG 5000 BR=
201211292200 METAR MROC 292200Z 08005KT 5000 -RA BR SCT030 OVC100 20/18 A3004 BECMG 3000 BR=
201211292300 METAR MROC 292300Z 08003KT 9999 -RA FEW030 OVC100 19/18 A3003 NOSIG=
201211300000 METAR MROC 300000Z 08005KT 9999 FEW030 BKN100 20/17 A3004 RERA NOSIG=
201211300100 METAR MROC 300100Z 07005KT 9999 FEW030 BKN100 20/18 A3008 NOSIG=
201211300200 METAR MROC 300200Z 09004KT 9999 FEW030 SCT100 20/17 A3008 NOSIG=
201211300300 METAR MROC 300300Z 07003KT 9999 FEW030 SCT100 20/17 A3009 NOSIG=
201211300400 METAR MROC 300400Z 11007KT 9999 FEW030 SCT100 21/17 A3009 NOSIG=
201211300500 METAR MROC 300500Z 08010KT 9999 FEW030 SCT100 21/17 A3008 NOSIG=
201211300600 METAR MROC 300600Z 04006KT 9999 FEW030 BKN100 21/17 A3006 NOSIG=
201211300700 METAR MROC 300700Z 13004KT 9999 FEW030 SCT100 21/17 A3003 NOSIG=
201211300800 METAR MROC 300800Z 11012KT 9999 FEW030 SCT100 21/17 A3002 NOSIG=
201211300900 METAR MROC 300900Z 08010KT 9999 FEW030 SCT100 21/16 A3002 NOSIG=
201211301000 METAR MROC 301000Z 04009KT 9999 FEW030 SCT100 BKN250 20/17 A3001 NOSIG=
201211301100 METAR MROC 301100Z 09009KT 9999 FEW030 SCT100 BKN250 21/16 A3002 NOSIG=
201211301200 METAR MROC 301200Z 08008G18KT 9999 FEW035 SCT120 BKN200 21/16 A3004 NOSIG=
201211301300 METAR MROC 301300Z 10010KT 9999 FEW035 SCT120 BKN200 21/15 A3004 NOSIG=
201211301400 METAR MROC 301400Z 10012KT 9999 FEW035 SCT120 BKN200 21/16 A3007 NOSIG=
201211301500 METAR MROC 301500Z 10009KT 9999 FEW035 SCT120 BKN200 22/16 A3008 NOSIG=
201211301600 METAR MROC 301600Z 09008KT 9999 FEW035 SCT120 BKN200 23/16 A3008 NOSIG=
201211301700 METAR MROC 301700Z 08010KT 9999 FEW035 SCT120 BKN200 24/16 A3007 NOSIG=
201211301800 METAR MROC 301800Z 09008KT 9999 FEW035 SCT120 BKN200 24/16 A3006 NOSIG=
201211301900 METAR MROC 301900Z 08008KT 9999 FEW035 SCT120 BKN200 24/16 A3004 NOSIG=
201211302000 METAR MROC 302000Z 12005KT 9999 FEW035 SCT120 BKN200 24/17 A3001 NOSIG=
201211302100 METAR MROC 302100Z 11006KT 9999 FEW040 BKN130 23/16 A3001 NOSIG=
201211302200 METAR MROC 302200Z 25004KT 9999 FEW015 BKN150 22/19 A3001 NOSIG=
201211302300 METAR MROC 302300Z 26005KT 9000 4300SW BCFG FEW002 SCT050 BKN160 21/19 A3002 BECMG 5000 BR=
201212010000 METAR MROC 010000Z 27003KT 9999 3000SW BCFG FEW002 SCT050 BKN200 20/19 A3004 NOSIG=
201212010100 METAR MROC 010100Z 31003KT 9999 4000SW BCFG FEW002 BKN200 20/19 A3006 NOSIG=
201212010200 METAR MROC 010200Z 00000KT 9999 VCFG FEW009 BKN250 19/18 A3007 NOSIG=
201212010300 METAR MROC 010300Z 06006KT CAVOK 19/15 A3007 NOSIG=
201212010400 METAR MROC 010400Z 05005KT CAVOK 20/15 A3007 RMK BKN130 NOSIG=
201212010500 METAR MROC 010500Z 11005KT CAVOK 20/15 A3005 RMK BKN130 NOSIG=
201212010600 METAR MROC 010600Z 10005KT CAVOK 20/15 A3003 NOSIG=
201212010700 METAR MROC 010700Z 06005KT CAVOK 19/14 A3002 RMK BKN130 NOSIG=
201212010800 METAR MROC 010800Z 08003KT CAVOK 20/14 A3001 RMK BKN130 NOSIG=
201212010900 METAR MROC 010900Z 00000KT CAVOK 19/15 A3000 NOSIG=
201212011000 METAR MROC 011000Z 00000KT CAVOK 18/15 A3001 NOSIG=
201212011100 METAR MROC 011100Z 06003KT CAVOK 19/14 A3002 NOSIG=
201212011200 METAR MROC 011200Z 07006KT CAVOK 20/14 A3004 RMK BKN120 NOSIG=
201212011300 METAR MROC 011300Z 11009KT CAVOK 21/14 A3006 NOSIG=
201212011400 METAR MROC 011400Z 10010KT CAVOK 22/14 A3008 NOSIG=
201212011500 METAR MROC 011500Z 11009KT CAVOK 24/14 A3008 NOSIG=
201212011600 METAR MROC 011600Z 12008KT CAVOK 25/13 A3008 NOSIG=
201212011700 METAR MROC 011700Z 10005KT CAVOK 26/13 A3006 NOSIG=
201212011800 METAR MROC 011800Z 11008KT CAVOK 26/14 A3003 BECMG 23007KT=
201212011900 METAR MROC 011900Z 12006KT CAVOK 27/15 A3001 BECMG 24008KT=
201212012000 METAR MROC 012000Z 12004KT 9999 FEW040 BKN070 27/15 A3000 BECMG 24008KT=
201212012100 METAR MROC 012100Z 24007KT 9999 FEW040 BKN100 23/19 A3000 NOSIG=
201212012200 METAR MROC 012200Z 24005KT 9999 SCT030 BKN120 24/20 A3001 NOSIG=
201212012300 METAR MROC 012300Z 23004KT 9999 FEW012 SCT030 BKN120 22/20 A3001 BECMG 8000 VCFG=
201212020000 METAR MROC 020000Z 22003KT 9999 VCFG FEW006 SCT025 21/20 A3002 NOSIG=
201212020100 METAR MROC 020100Z 25003KT 9999 SCT025 21/19 A3004 NOSIG=
201212020200 METAR MROC 020200Z 22003KT 9999 FEW025 21/18 A3006 NOSIG=
201212020300 METAR MROC 020300Z 23003KT 9999 FEW025 21/18 A3007 NOSIG=
201212020400 METAR MROC 020400Z 06008KT 9999 FEW025 SCT120 21/15 A3006 NOSIG=
201212020500 METAR MROC 020500Z 05010KT 9999 FEW025 SCT120 21/15 A3006 NOSIG=
201212020600 METAR MROC 020600Z 04008KT CAVOK 21/15 A3005 NOSIG=
201212020700 METAR MROC 020700Z 03005KT CAVOK 20/16 A3003 NOSIG=
201212020800 METAR MROC 020800Z 10004KT CAVOK 20/16 A3002 NOSIG=
201212020900 METAR MROC 020900Z 08004KT CAVOK 20/16 A3000 NOSIG=
201212021000 METAR MROC 021000Z 03005KT CAVOK 19/15 A3001 NOSIG=
201212021100 METAR MROC 021100Z 03005KT CAVOK 19/15 A3002 NOSIG=
201212021200 METAR MROC 021200Z 05007KT 9999 SCT035 20/15 A3005 NOSIG=
201212021300 METAR MROC 021300Z 03006KT 9999 FEW030 SCT070 BKN250 21/16 A3007 NOSIG=
201212021400 METAR MROC 021400Z 08005KT 9999 FEW030 BKN070 22/17 A3009 NOSIG=
201212021500 METAR MROC 021500Z 08005KT 9999 FEW035 SCT070 26/17 A3008 NOSIG=
201212021600 METAR MROC 021600Z 09009KT 9999 FEW035 SCT110 26/16 A3007 NOSIG=
201212021700 METAR MROC 021700Z 10009KT 9999 FEW035 SCT110 27/16 A3005 NOSIG=
201212021800 METAR MROC 021800Z 10007KT 9999 FEW035 BKN050 26/17 A3003 NOSIG=
201212021900 METAR MROC 021900Z 14006KT 9999 FEW035 SCT070 26/17 A3000 NOSIG=
201212022000 METAR MROC 022000Z 09008KT 9999 FEW030 SCT060 26/17 A2998 NOSIG=
201212022100 METAR MROC 022100Z 15008KT 9999 FEW030 SCT060 SCT120 25/16 A2996 NOSIG=
201212022200 METAR MROC 022200Z 30007KT 9999 SCT030 SCT060 25/16 A2998 NOSIG=
201212022300 METAR MROC 022300Z 16004KT 9999 FEW030 SCT060 BKN150 23/16 A2999 NOSIG=
201212022354 METAR MROC 030000Z 10008G18KT 9999 FEW030 BKN120 22/16 A3001 NOSIG=
201212030000 METAR MROC 030000Z 10008G18KT 9999 FEW030 BKN120 22/16 A3001 NOSIG=
201212030100 METAR MROC 030100Z 10008KT 9999 FEW030 SCT1202 21/16 A3003 NOSIG=
201212030200 METAR MROC 030200Z 09014KT 9999 FEW030 SCT120 21/16 A3006 NOSIG=
201212030300 METAR MROC 030300Z 05007KT 9999 FEW030 21/16 A3007 NOSIG=
201212030400 METAR MROC 030400Z 08003KT 9999 FEW030 SCT120 21/16 A3006 NOSIG=
201212030500 METAR MROC 030500Z 08004KT 9999 FEW030 SCT120 20/16 A3005 NOSIG=
201212030600 METAR MROC 030600Z 10006KT 9999 FEW030 SCT120 20/16 A3004 NOSIG=
201212030700 METAR MROC 030700Z 08005KT 9999 FEW030 SCT120 21/16 A3003 NOSIG=
201212030800 METAR MROC 030800Z 07005KT 9999 FEW030 SCT120 21/16 A3002 NOSIG=
201212030900 METAR MROC 030900Z 09006KT 9999 FEW030 BKN120 20/16 A3001 NOSIG=
201212031000 METAR MROC 031000Z 09006KT CAVOK 20/16 A3001 NOSIG=
201212031100 METAR MROC 031100Z 07005KT CAVOK 20/16 A3003 NOSIG=
201212031200 METAR MROC 031200Z 07004KT CAVOK 20/15 A3003 NOSIG=
201212031300 METAR MROC 031300Z 09012KT 9999 FEW040 SCT120 BKN200 22/15 A3005 NOSIG=
201212031400 METAR MROC 031400Z 11013KT 9999 FEW040 BKN120 23/15 A3007 NOSIG=
201212031500 METAR MROC 031500Z 10014KT 9999 FEW040 SCT120 BKN250 24/15 A3008 NOSIG=
201212031600 METAR MROC 031600Z 10010G20KT 9999 FEW040 BKN250 26/14 A3007 NOSIG=
201212031700 METAR MROC 031700Z 10010G20KT 9999 FEW040 BKN250 27/15 A3005 NOSIG=
201212031800 METAR MROC 031800Z 10010KT 9999 FEW040 BKN250 27/15 A3003 NOSIG=
201212031900 METAR MROC 031900Z 11011KT 9999 FEW035 SCT100 BKN250 27/16 A3000 NOSIG=
201212032000 METAR MROC 032000Z 11013KT 9999 SCT030 BKN200 26/15 A2998 NOSIG=
201212032100 METAR MROC 032100Z 09007KT 9999 FEW030 BKN200 25/16 A2997 NOSIG=
201212032200 METAR MROC 032200Z 10007KT 9999 SCT030 BKN250 25/16 A2997 NOSIG=
201212032300 METAR MROC 032300Z 11004KT 9999 SCT035 BKN250 24/16 A2999 NOSIG=
201212040000 METAR MROC 040000Z 12007KT 9999 SCT030 BKN120 22/16 A3001 NOSIG=
201212040100 METAR MROC 040100Z 06003KT 9999 SCT030 BKN100 23/16 A3004 NOSIG=
201212040200 METAR MROC 040200Z 00000KT 9999 FEW030 BKN120 21/17 A3006 NOSIG=
201212040300 METAR MROC 040300Z 12003KT CAVOK 20/14 A3006 NOSIG=
201212040400 METAR MROC 040400Z 15003KT CAVOK 20/14 A3006 NOSIG=
201212040500 METAR MROC 040500Z 07003KT CAVOK 18/15 A3005 NOSIG=
201212040600 METAR MROC 040600Z 07004KT CAVOK 18/15 A3003 NOSIG=
201212040700 METAR MROC 040700Z 09004KT CAVOK 20/14 A3002=
201212040800 METAR MROC 040800Z 06006KT CAVOK 17/14 A3001 NOSIG=
201212040900 METAR MROC 040900Z 06006KT CAVOK 19/13 A3000 NOSIG=
201212041000 METAR MROC 041000Z 04007KT CAVOK 19/13 A3000 NOSIG=
201212041100 METAR MROC 041100Z 06005KT CAVOK 18/13 A3002 NOSIG=
201212041200 METAR MROC 041200Z 05005KT CAVOK 19/13 A3003 NOSIG=
201212041300 METAR MROC 041300Z 08007KT CAVOK 22/13 A3006 NOSIG=
201212041400 METAR MROC 041400Z 07005KT CAVOK 24/14 A3008 NOSIG=
201212041500 METAR MROC 041500Z 12008KT CAVOK 25/14 A3008 NOSIG=
201212041600 METAR MROC 041600Z 13007KT CAVOK 27/14 A3007 NOSIG=
201212041700 METAR MROC 041700Z 13006KT CAVOK 28/14 A3005 NOSIG=
201212041800 METAR MROC 041800Z 24009KT 9999 SCT045 26/19 A3004 NOSIG=
201212041900 METAR MROC 041900Z 23010KT 9999 FEW025TCU FEW035 27/19 A3001 NOSIG=
201212042000 METAR MROC 042000Z 23009KT 9999 FEW020TCU FEW035 SCT250 27/19 A2999 BECMG RA=
201212042100 METAR MROC 042100Z 23009KT 9999 4000NE RA FEW020TCU SCT030 25/19 A2998 BECMG 7000 SHRA=
201212042200 METAR MROC 042200Z 17004KT 9000 3000S -TSRA VCSH FEW008 FEW015CB BKN100 21/19 A3000 NOSIG=
201212042300 METAR MROC 042300Z 08003KT 9999 VCSH SCT025 BKN240 21/19 A3000 NOSIG=
201212050000 METAR MROC 050000Z 27003KT 9999 FEW020 SCT100 BKN250 21/19 A3002 BECMG 5000 BR=
201212050100 METAR MROC 050100Z 28003KT 8000 DZ VCFG FEW003 SCT025 SCT100 21/19 A3006 BECMG 5000 BR=
201212050200 METAR MROC 050200Z 26004KT 5000 DZ BR FEW003 SCT020 BKN100 21/19 A3008 BECMG 3000 BR=
201212050300 METAR MROC 050300Z 15002KT 9999 FEW020 BKN100 20/18 A3009 REDZ NOSIG=
201212050400 METAR MROC 050400Z 12003KT 9999 FEW025 BKN100 20/18 A3009 NOSIG=
201212050500 METAR MROC 050500Z 07004KT 9999 FEW030 SCT120 20/17 A3008 NOSIG=
201212050600 METAR MROC 050600Z 09004KT 9999 FEW035 SCT120 20/17 A3007 NOSIG=
201212050700 METAR MROC 050700Z 08005KT 9999 FEW035 SCT120 19/17 A3004 NOSIG=
201212050800 METAR MROC 050800Z 08005KT 9999 FEW035 SCT120 20/16 A3002 NOSIG=
201212050900 METAR MROC 050900Z 07007KT 9999 FEW035 SCT120 20/16 A3000 NOSIG=
201212051000 METAR MROC 051000Z 10004KT 9999 FEW035 SCT120 20/16 A3001 NOSIG=
201212051100 METAR MROC 051100Z 07002KT 9999 FEW035 19/17 A3001 NOSIG=
201212051200 METAR MROC 051200Z 10003KT 9999 FEW025 SCT250 18/16 A3003 NOSIG=
201212051300 METAR MROC 051300Z 06007KT 9999 FEW030 SCT250 21/16 A3005 NOSIG=
201212051400 METAR MROC 051400Z 11012KT 9999 FEW030 SCT250 22/16 A3007 NOSIG=
201212051500 METAR MROC 051500Z 11011KT 9999 FEW030 SCT250 24/16 A3009 NOSIG=
201212051600 METAR MROC 051600Z 11008KT 9999 FEW030 SCT250 25/17 A3008 BECMG 24007KT=
201212051700 METAR MROC 051700Z 11011KT 9999 FEW030 SCT110 BKN250 26/17 A3005 BECMG 24007KT=
201212051800 METAR MROC 051800Z 11008KT 9999 FEW025TCU SCT100 BKN250 27/17 A3002 BECMG 24007KT=
201212051900 METAR MROC 051900Z 25006KT 9999 FEW030TCU SCT070 BKN250 24/19 A3000 BECMG SHRA=
201212052000 METAR MROC 052000Z 16005KT 9999 FEW025TCU SCT070 BKN250 26/18 A2998 BECMG SHRA=
201212052100 METAR MROC 052100Z 23009KT 9999 FEW025TCU SCT035 25/20 A2997 NOSIG=
201212052200 METAR MROC 052200Z 24006KT 9999 SCT030 BKN250 22/19 A2998 NOSIG=
201212052300 METAR MROC 052300Z 26007KT 5000 BR BKN008 SCT025 22/19 A2999 BECMG 9999=
201212060000 METAR MROC 060000Z 26005KT 9999 SCT012 BKN080 21/20 A3001 NOSIG=
201212060100 METAR MROC 060100Z 26004KT 9999 FEW010 BKN030 21/19 A3002 NOSIG=
201212060200 METAR MROC NIL=
201212060300 METAR MROC 060300Z 11007KT 9999 FEW015 BKN100 21/16 A3004 NOSIG=
201212060400 METAR MROC 060400Z 11006KT 9999 FEW020 BKN100 20/16 A3004 NOSIG=
201212060500 METAR MROC 060500Z 06010KT 9999 FEW020 BKN100 21/16 A3002 NOSIG=
201212060600 METAR MROC 060600Z 05006KT CAVOK 21/16 A3000 NOSIG=
201212060700 METAR MROC 060700Z 04006KT CAVOK 20/16 A2999 RMK BKN100 NOSIG=
201212060800 METAR MROC 060800Z 03006KT CAVOK 21/16 A2997 NOSIG=
201212060900 METAR MROC 060900Z 01009KT 9999 FEW030 20/16 A2995 NOSIG=
201212061000 METAR MROC 061000Z 05005KT 9999 FEW030 19/16 A2995 RMK FEW090 NOSIG=
201212061100 METAR MROC 061100Z 05004KT 9999 FEW025 SCT100 19/16 A2997 NOSIG=
201212061200 METAR MROC 061200Z 04004KT 9999 FEW030 BKN250 20/16 A2999 NOSIG=
201212061300 METAR MROC 061300Z 04005KT CAVOK 20/16 A3001 NOSIG=
201212061400 METAR MROC 061400Z 06005KT CAVOK 22/16 A3002 NOSIG=
201212061500 METAR MROC 061500Z 11004KT CAVOK 24/17 A3002 BECMG 24006KT=
201212061600 METAR MROC 061600Z 09007KT 9999 FEW040 SCT250 25/16 A3000 NOSIG=
201212061700 METAR MROC 061700Z 11007KT 9999 SCT035 27/16 A2999 BECMG 24006KT=
201212061800 METAR MROC 061800Z 11005KT 9999 BKN035 25/15 A2996 BECMG 24006KT=
201212061900 METAR MROC 061900Z 26006KT 9999 FEW025 BKN035 23/18 A2994 BECMG 8000 VCSH=
201212062000 METAR MROC 062000Z 29005KT 9999 SCT035 SCT250 25/17 A2992 NOSIG=
201212062100 METAR MROC 062100Z 24006KT 9999 SCT035 BKN060 24/18 A2991 NOSIG=
201212062200 METAR MROC 062200Z 29004KT 9999 FEW035 BKN080 25/17 A2991 NOSIG=
201212062300 METAR MROC 062300Z 13004KT 9999 FEW035 BKN100 23/16 A2992 NOSIG=
201212070000 METAR MROC 070000Z 10007KT 9999 FEW035 BKN100 22/15 A2994 NOSIG=
201212070100 METAR MROC 070100Z 11007KT 9999 FEW035 BKN070 21/16 A2996 NOSIG=
201212070200 METAR MROC 070200Z 10007KT 9999 FEW035 SCT070 21/16 A2998 NOSIG=
201212070300 METAR MROC 070300Z 05005KT 9999 FEW040 20/16 A2999 NOSIG=
201212070400 METAR MROC 070400Z 10009KT 9999 FEW040 20/16 A2998 NOSIG=
201212070500 METAR MROC 070500Z 09005KT 9999 FEW040 20/16 A2997 NOSIG=
201212070600 METAR MROC 070600Z 10004KT 9999 FEW040 20/16 A2996 NOSIG=
201212070700 METAR MROC 070700Z 10007KT 9999 FEW030 20/16 A2994 NOSIG=
201212070800 METAR MROC 070800Z 11005KT 9999 FEW040 20/16 A2992 NOSIG=
201212070900 METAR MROC 070900Z 10004KT 9999 FEW040 18/15 A2990 NOSIG=
201212071000 METAR MROC 071000Z 11007KT 9999 FEW040 20/16 A2992 NOSIG=
201212071100 METAR MROC 071100Z 06006KT 9999 FEW040 20/15 A2994 NOSIG=
201212071200 METAR MROC 071200Z 11002KT 9999 FEW035 SCT120 18/15 A2995 NOSIG=
201212071300 METAR MROC 071300Z 11008KT 9999 FEW035 SCT120 21/16 A2997 NOSIG=
201212071400 METAR MROC 071400Z 09007KT 9999 FEW030 SCT120 23/16 A2998 NOSIG=
201212071500 METAR MROC 071500Z 11009KT 9999 FEW030 SCT120 24/16 A2998 NOSIG=
201212071600 METAR MROC 071600Z 12011KT 9999 FEW030 25/16 A2997 NOSIG=
201212071700 METAR MROC 071700Z 12010KT 9999 FEW030 26/16 A2995 NOSIG=
201212071800 METAR MROC 071800Z 11010KT 9999 FEW030 SCT050 27/16 A2993 NOSIG=
201212071900 METAR MROC 071900Z 14005KT 9999 SCT035 SCT060 26/16 A2990 NOSIG=
201212072000 METAR MROC 072000Z 24008KT 9999 SCT030 SCT045 26/18 A2989 NOSIG=
201212072100 METAR MROC 072100Z 26007KT 9999 FEW030 SCT045 24/19 A2988 NOSIG=
201212072200 METAR MROC 072200Z 24004KT 9999 FEW030 SCT045 26/18 A2989 NOSIG=
201212072300 METAR MROC 072300Z 18005G15KT 9999 FEW030 SCT045 23/16 A2990 NOSIG=
201212072351 METAR MROC 080000Z 10004KT 9999 FEW030 SCT045 22/16 A2993 NOSIG=
201212080000 METAR MROC 080000Z 10004KT 9999 FEW030 SCT045 22/16 A2993 NOSIG=
201212080100 METAR MROC 080100Z 10005KT 9999 FEW030 SCT080 22/16 A2995 NOSIG=
201212080200 METAR MROC 080200Z 10011KT 9999 FEW030 21/16 A2998 NOSIG=
201212080300 METAR MROC 080300Z 06006KT CAVOK 20/16 A3000 NOSIG=
201212080400 METAR MROC 080400Z 08007KT CAVOK 21/16 A3000 NOSIG=
201212080500 METAR MROC 080500Z 07002KT CAVOK 20/16 A2999 NOSIG=
201212080600 METAR MROC 080600Z 02003KT 9999 FEW045 19/16 A2997 NOSIG=
201212080700 METAR MROC 080700Z 07007KT 9999 FEW040 19/16 A2995 NOSIG=
201212080800 METAR MROC 080800Z 09003KT 9999 FEW035 19/16 A2994 NOSIG=
201212080900 METAR MROC 080900Z 08004KT 9999 FEW040 20/16 A2993 NOSIG=
201212081000 METAR MROC 081000Z 03006KT CAVOK 19/16 A2994 NOSIG=
201212081100 METAR MROC 081100Z 07004KT CAVOK 19/16 A2995 NOSIG=
201212081200 METAR MROC 081200Z 14002KT 9999 FEW030 18/16 A2997 NOSIG=
201212081300 METAR MROC 081300Z 06002KT 9999 FEW030 SCT060 19/16 A2999 NOSIG=
201212081400 METAR MROC 081400Z 14003KT 9999 FEW030 SCT060 23/16 A3002 NOSIG=
201212081500 METAR MROC 081500Z 11006KT 9999 SCT030 24/16 A3002 NOSIG=
201212081600 METAR MROC 081600Z 13013KT 9999 BKN030 24/17 A3001 NOSIG=
201212081700 METAR MROC 081700Z 12007KT 9999 FEW030 BKN045 25/17 A2998 NOSIG=
201212081800 METAR MROC 081800Z 16008KT 9999 FEW030 BKN045 24/17 A2996 NOSIG=
201212081900 METAR MROC 081900Z 12007KT 9999 VCSH FEW030 SCT060 BKN100 24/17 A2994 NOSIG=
201212082000 METAR MROC 082000Z 13007KT 9999 FEW030 SCT060 BKN100 24/18 A2993 NOSIG=
201212082100 METAR MROC 082100Z 18004KT 9999 SCT035 SCT250 25/17 A2991 BECMG 22006KT=
201212082200 METAR MROC 082200Z 22006KT 9999 SCT035 SCT250 23/20 A2992 NOSIG=
201212082300 METAR MROC 082300Z 26007KT 9999 FEW005 SCT030 SCT250 22/20 A2995 BECMG 7000 BCFG=
201212090000 METAR MROC 090000Z 22003KT 7000 3000SW BCFG SCT002 BKN030 21/19 A2996 NOSIG=
201212090100 METAR MROC 090100Z 27002KT 9999 VCFG FEW015 BKN100 20/19 A2999 NOSIG=
201212090200 METAR MROC 090200Z 31002KT 9999 VCFG FEW030 20/18 A3001 NOSIG=
201212090300 METAR MROC 090300Z 00000KT 9999 FEW006 19/17 A3003 NOSIG=
201212090400 METAR MROC 090400Z 10002KT 9999 FEW015 19/17 A3002 NOSIG=
201212090500 METAR MROC 090500Z 08003KT 9999 FEW035 19/15 A3002 NOSIG=
201212090600 METAR MROC 090600Z 05005KT CAVOK 19/15 A3001 NOSIG=
201212090700 METAR MROC 090700Z 06004KT CAVOK 18/14 A3000 NOSIG=
201212090800 METAR MROC 090800Z 02004KT CAVOK 17/14 A2998 NOSIG=
201212090900 METAR MROC 090900Z 05007KT CAVOK 17/14 A2997 NOSIG=
201212091000 METAR MROC 091000Z 06005KT CAVOK 17/13 A2999 NOSIG=
201212091100 METAR MROC 091100Z 04008KT CAVOK 17/13 A3000 NOSIG=
201212091200 METAR MROC 091200Z 07005KT CAVOK 17/13 A3001 NOSIG=
201212091300 METAR MROC 091300Z 07006KT CAVOK 20/14 A3002 NOSIG=
201212091400 METAR MROC 091400Z 09007KT CAVOK 23/14 A3004 NOSIG=
201212091500 METAR MROC 091500Z 12008KT CAVOK 24/14 A3002 NOSIG=
201212091600 METAR MROC 091600Z 12010KT CAVOK 27/13 A3002 NOSIG=
201212091700 METAR MROC 091700Z 10009KT 9999 FEW045 28/14 A3000 NOSIG=
201212091800 METAR MROC 091800Z 13008KT 9999 FEW045 29/15 A2997 NOSIG=
201212091900 METAR MROC 091900Z 14007KT 9999 SCT045 29/15 A2995 NOSIG=
201212092000 METAR MROC 092000Z 14007KT 9999 SCT045 29/15 A2993 NOSIG=
201212092100 METAR MROC 092100Z 24010KT 9999 FEW035 SCT110 27/20 A2993 NOSIG=
201212092200 METAR MROC 092200Z 19007KT 9999 FEW035 SCT110 26/19 A2994 NOSIG=
201212092300 METAR MROC 092300Z 12012KT 9999 FEW035 SCT110 24/17 A2994 NOSIG=
201212100000 METAR MROC 100000Z 11008KT 9999 FEW035 23/16 A2996 NOSIG=
201212100100 METAR MROC 100100Z 10007KT 9999 FEW035 22/17 A2997 NOSIG=
201212100200 METAR MROC 100200Z 09004KT 9999 FEW035 22/17 A2999 NOSIG=
201212100300 METAR MROC 100300Z 07010KT 9999 FEW035 22/16 A2999 NOSIG=
201212100400 METAR MROC 100400Z 11010G20KT 9999 FEW035 22/16 A2999 NOSIG=
201212100500 METAR MROC 100500Z 12005G15KT 9999 FEW035 22/16 A2999 NOSIG=
201212100600 METAR MROC 100600Z 06011KT CAVOK 21/16 A2997 NOSIG=
201212100700 METAR MROC 100700Z 11002KT CAVOK 21/16 A2996 NOSIG=
201212100800 METAR MROC 100800Z 04005KT CAVOK 20/16 A2995 NOSIG=
201212100900 METAR MROC 100900Z 04005KT CAVOK 20/16 A2995 NOSIG=
201212101000 METAR MROC 101000Z 08003KT 9999 FEW035 20/16 A2994 NOSIG=
201212101100 METAR MROC 101100Z 25003KT 9999 FEW035 21/16 A2995 NOSIG=
201212101200 METAR MROC 101200Z 19003KT 9999 FEW040 21/16 A2997 NOSIG=
201212101300 METAR MROC 101300Z 24003KT 9999 FEW035 SCT110 23/17 A3000 NOSIG=
201212101400 METAR MROC 101400Z 08007KT 9999 FEW035 25/18 A3001 NOSIG=
201212101500 METAR MROC 101500Z 11010KT 9999 FEW035 26/17 A3000 NOSIG=
201212101600 METAR MROC 101600Z 11010KT 9999 FEW035 28/17 A2999 NOSIG=
201212101700 METAR MROC 101700Z 09010KT 9999 SCT035 29/17 A2998 NOSIG=
201212101800 METAR MROC 101800Z 08008KT 9999 SCT030 30/16 A2995 NOSIG=
201212101900 METAR MROC 101900Z 10007KT 9999 SCT030 29/16 A2991 NOSIG=
201212102000 METAR MROC 102000Z 22008KT 9999 FEW035 SCT100 29/20 A2989 NOSIG=
201212102100 METAR MROC 102100Z 24009KT 9999 FEW035 27/21 A2988 NOSIG=
201212102200 METAR MROC 102200Z 24010KT 9999 FEW035 25/21 A2989 NOSIG=
201212102300 METAR MROC 102300Z 25008KT 9999 SCT015 23/21 A2992 BECMG 8000 VCFG=
201212110000 METAR MROC 110000Z 26005KT 8000 VCFG BKN010 22/21 A2994 NOSIG=
201212110100 METAR MROC 110100Z 29002KT 8000 VCFG BKN010 22/21 A2997 NOSIG=
201212110200 METAR MROC 110200Z 08002KT 9999 VCFG FEW010 SCT020 22/20 A2998 NOSIG=
201212110300 METAR MROC 110300Z 09004KT 9999 VCFG FEW006 BKN100 22/18 A2999 NOSIG=
201212110400 METAR MROC 110400Z 14003KT 9999 FEW015 BKN120 22/17 A3000 NOSIG=
201212110500 METAR MROC 110500Z 27004KT 8000 3500SW BCFG SCT003 BKN120 20/19 A3000 NOSIG=
201212110600 METAR MROC 110600Z 06005KT CAVOK 21/17 A2997 NOSIG=
201212110650 METAR MROC 220700Z 10003KT CAVOK 20/17 A2996 NOSIG=
201212110700 METAR MROC 110700Z 10003KT CAVOK 20/17 A2996 NOSIG=
201212110800 METAR MROC 110800Z 06003KT CAVOK 20/17 A2993 NOSIG=
201212110900 METAR MROC 110900Z 06003KT CAVOK 21/17 A2992 NOSIG=
201212111000 METAR MROC 111000Z 04007KT CAVOK 20/16 A2999 NOSIG=
201212111100 METAR MROC 111100Z 03005KT 9999 FEW020 BKN100 20/16 A2995 NOSIG=
201212111200 METAR MROC 111200Z 07004KT 9999 FEW030 SCT250 21/17 A2995 NOSIG=
201212111300 METAR MROC 111300Z 06003KT CAVOK 23/17 A2997 NOSIG=
201212111400 METAR MROC 111400Z 11010KT CAVOK 25/17 A2999 NOSIG=
201212111500 METAR MROC 111500Z 10010KT 9999 FEW045 BKN250 26/17 A3000 NOSIG=
201212111600 METAR MROC 111600Z 10010KT 9999 FEW045 SCT300 28/16 A2999 NOSIG=
201212111700 METAR MROC 111700Z 07010KT 9999 FEW045 29/16 A2997 NOSIG=
201212111800 METAR MROC NIL=
201212120200 METAR MROC 120200Z 05002KT 9999 FEW035 SCT050 23/20 A3000 NOSIG=
201212120300 METAR MROC 120300Z 00000KT 9999 SCT035 22/20 A3002 NOSIG=
201212120400 METAR MROC 120400Z 00000KT 9999 SCT035 21/20 A3002 NOSIG=
201212120500 METAR MROC 120500Z 10004KT 9999 FEW040 22/17 A3002 NOSIG=
201212120600 METAR MROC 120600Z 05002KT 9999 SCT045 21/19 A3001 NOSIG=
201212120700 METAR MROC 120700Z 05003KT 9999 FEW045 21/18 A2998 NOSIG=
201212120800 METAR MROC 120800Z 05004KT 9999 FEW045 21/17 A2996 NOSIG=
201212120900 METAR MROC NIL=
201212121000 METAR MROC 121000Z 06004KT CAVOK 20/17 A2995 NOSIG=
201212121100 METAR MROC 121100Z 07004KT 9999 FEW030 21/16 A2996 NOSIG=
201212121200 METAR MROC 121200Z 09010KT 9999 FEW035 BKN250 21/15 A2997 NOSIG=
201212121300 METAR MROC 121300Z 11009KT 9999 FEW035 SCT300 23/15 A2998 NOSIG=
201212121400 METAR MROC 121400Z 11010KT 9999 FEW035 24/15 A3001 NOSIG=
201212121500 METAR MROC 121500Z 09010KT 9999 FEW035 SCT100 BKN300 26/16 A3002 NOSIG=
201212121600 METAR MROC 121600Z 09012KT 9999 FEW035 SCT120 27/16 A3002 NOSIG=
201212121700 METAR MROC 121700Z 10012KT 9999 FEW035 SCT120 27/15 A3000 NOSIG=
201212121800 METAR MROC 121800Z 10012KT 9999 FEW035 SCT120 26/15 A3000 NOSIG=
201212121900 METAR MROC 121900Z 11014G24KT 9999 FEW040 BKN250 27/12 A2997 NOSIG=
201212122000 METAR MROC 122000Z 08014G24KT 9999 FEW040 SCT120 BKN250 27/11 A2995 NOSIG=
201212122100 METAR MROC 122100Z 08012KT 9999 FEW040 SCT120 BKN250 26/12 A2995 NOSIG=
201212122200 METAR MROC 122200Z COR 11010G20KT 9999 FEW040 SCT120 BKN250 24/15 A2996 NOSIG=
201212122300 METAR MROC 122300Z 09009KT 9999 FEW040 BKN250 23/15 A2996 NOSIG=
201212122348 METAR MROC 130000Z 09008KT 9999 FEW040 BKN200 22/14 A2998 NOSIG=
201212122353 METAR MROC 130000Z 09008KT 9999 FEW040 BKN200 22/14 A2998 NOSIG=
201212130000 METAR MROC 130000Z 09008KT 9999 FEW040 BKN200 22/14 A2998 NOSIG=
201212130100 METAR MROC 130100Z 12012KT 9999 FEW040 BKN200 22/15 A3000 NOSIG=
201212130200 METAR MROC 130200Z 11005G15KT CAVOK 21/16 A3000 NOSIG=
201212130300 METAR MROC 130300Z 00000KT CAVOK 21/15 A3002 NOSIG=
201212130400 METAR MROC 130400Z 08008KT CAVOK 21/15 A3003 NOSIG=
201212130500 METAR MROC 130500Z 25003KT CAVOK 21/15 A3004 NOSIG=
201212130600 METAR MROC 130600Z 07003KT CAVOK 20/15 A3003 NOSIG=
201212130700 METAR MROC 130700Z 11008KT CAVOK 20/15 A3001 NOSIG=
201212130800 METAR MROC 130800Z 10005KT 9999 FEW045 SCT090 21/15 A3000 NOSIG=
201212130900 METAR MROC 130900Z 08005KT 9999 FEW040 SCT090 21/16 A2999 NOSIG=
201212131000 METAR MROC 131000Z 11008KT 9999 FEW040 SCT090 21/15 A2999 NOSIG=
201212131100 METAR MROC 131100Z 09007KT 9999 FEW040 BKN100 20/16 A2999 NOSIG=
201212131200 METAR MROC 131200Z 10010G20KT 9999 FEW040 BKN250 20/16 A3001 NOSIG=
201212131300 METAR MROC 131300Z 10013KT 9999 FEW035 BKN250 21/15 A3003 NOSIG=
201212131400 METAR MROC 131400Z 10010G20KT 9999 FEW035 BKN250 23/15 A3004 NOSIG=
201212131500 METAR MROC 131500Z 10011G22KT 9999 FEW035 BKN250 25/16 A3004 NOSIG=
201212131600 METAR MROC 131600Z 10012KT 9999 FEW030 SCT250 26/16 A3004 NOSIG=
201212131700 METAR MROC 131700Z 07013G24KT 9999 FEW030 SCT100 26/15 A3003 NOSIG=
201212131800 METAR MROC 131800Z 07015G25KT 9999 FEW030 SCT100 SCT250 26/15 A3002 NOSIG=
201212131900 METAR MROC 131900Z 10012G22KT 9999 FEW030 SCT100 SCT250 26/14 A2999 NOSIG=
201212132000 METAR MROC 132000Z 11011G21KT 9999 FEW030 SCT100 BKN250 26/14 A2998 NOSIG=
201212132100 METAR MROC 132100Z 11011KT 9999 FEW045 SCT080 26/14 A2996 NOSIG=
201212132200 METAR MROC 132200Z 13010G20KT 9999 FEW040 SCT250 24/15 A2997 NOSIG=
201212132300 METAR MROC 132300Z 11010G20KT 9999 FEW040 SCT250 23/15 A2998 NOSIG=
201212132349 METAR MROC 140000Z 11009KT 9999 FEW030 SCT100 22/15 A2999 NOSIG=
201212140000 METAR MROC 140000Z 11009KT 9999 FEW030 SCT100 22/15 A2999 NOSIG=
201212140100 METAR MROC 140100Z 10009G19KT CAVOK 21/15 A3001 NOSIG=
201212140200 METAR MROC 140200Z 11010G20KT CAVOK 21/15 A3004 NOSIG=
201212140300 METAR MROC 140300Z 08007KT CAVOK 21/15 A3005 NOSIG=
201212140400 METAR MROC 140400Z 11008KT CAVOK 21/14 A3006 NOSIG=
201212140500 METAR MROC 140500Z 07004KT CAVOK 20/14 A3006 NOSIG=
201212140600 METAR MROC 140600Z 06006KT CAVOK 19/14 A3004 NOSIG=
201212140700 METAR MROC 140700Z 03004KT CAVOK 18/14 A3002 NOSIG=
201212140800 METAR MROC 140800Z 03004KT CAVOK 18/13 A3001 NOSIG=
201212140900 METAR MROC 140900Z 07007KT CAVOK 18/14 A3000 NOSIG=
201212141000 METAR MROC 141000Z 04007KT CAVOK 17/12 A3001 NOSIG=
201212141100 METAR MROC 141100Z 09004KT CAVOK 17/13 A3002 NOSIG=
201212141200 METAR MROC 141200Z 06008KT CAVOK 17/13 A3002 NOSIG=
201212141300 METAR MROC 141300Z 06008KT CAVOK 20/13 A3004 NOSIG=
201212141400 METAR MROC 141400Z 08006KT CAVOK 23/14 A3005 NOSIG=
201212141500 METAR MROC 141500Z 12006KT CAVOK 26/14 A3006 NOSIG=
201212141600 METAR MROC 141600Z 11010KT CAVOK 26/14 A3005 NOSIG=
201212141700 METAR MROC 141700Z 11010KT 9999 FEW045 BKN250 27/14 A3004 NOSIG=
201212141800 METAR MROC 141800Z 11011KT 9999 SCT040 SCT250 28/15 A3001 NOSIG=
201212141900 METAR MROC 141900Z 11011KT 9999 FEW040 SCT250 27/15 A2998 NOSIG=
201212142000 METAR MROC 142000Z 12009KT 9999 VCSH FEW030 BKN060 26/16 A2997 NOSIG=
201212142100 METAR MROC 142100Z 12010G20KT 9999 SCT030 BKN080 25/17 A2996 NOSIG=
201212142200 METAR MROC 142200Z 11010KT 9999 SCT030 BKN080 24/16 A2997 NOSIG=
201212142300 METAR MROC 142300Z 11010KT 9999 SCT030 BKN080 23/16 A2998 NOSIG=
201212150000 METAR MROC 150000Z 11007KT 9999 SCT030 BKN080 22/16 A3000 NOSIG=
201212150100 METAR MROC 150100Z 10005KT 9999 DZ FEW002 SCT030 BKN080 20/17 A3003 NOSIG=
201212150200 METAR MROC 150200Z 10006KT 9999 DZ SCT030 SCT090 20/16 A3005 NOSIG=
201212150300 METAR COR MROC 150300Z 09006KT 9999 FEW020 SCT100 21/16 A3006 REDZ NOSIG=
201212150400 METAR MROC 150400Z 07003KT 9999 DZ FEW020 SCT100 20/17 A3006 NOSIG=
201212150500 METAR MROC 150500Z 10006KT 9999 FEW025 BKN110 20/16 A3004 NOSIG=
201212150600 METAR MROC 150600Z 06005KT 9999 FEW025 SCT120 20/16 A3002 NOSIG=
201212150700 METAR MROC 150700Z 07012KT 9999 FEW025 SCT120 20/16 A3000=
201212150800 METAR MROC 150800Z 06006KT 9999 FEW025 SCT120 20/16 A2998 NOSIG=
201212150900 METAR MROC 150900Z 11014KT 9999 FEW030 SCT120 20/16 A2997 NOSIG=
201212151000 METAR MROC 151000Z 10014KT 9999 FEW030 SCT100 20/15 A2997 NOSIG=
201212151100 METAR MROC 151100Z 09013KT 9999 FEW025 SCT100 20/16 A2997 NOSIG=
201212151200 METAR MROC 151200Z 08003KT 9999 FEW030 BKN080 21/16 A2998 NOSIG=
201212151300 METAR MROC 151300Z 11010KT 9999 FEW030 BKN090 22/16 A3000 NOSIG=
201212151400 METAR MROC 151400Z 10011G21KT 9999 FEW030 BKN090 24/17 A3002 NOSIG=
201212151500 METAR MROC 151500Z 11011KT 9999 FEW030 BKN100 25/17 A3001 NOSIG=
201212151600 METAR MROC 151600Z 11010KT 9999 FEW030 BKN090 25/17 A3002 NOSIG=
201212151700 METAR MROC 151700Z 12010KT 9999 FEW030 BKN090 25/16 A2999 NOSIG=
201212151800 METAR MROC 151800Z 10013KT 9999 FEW030 SCT090 27/16 A2996 NOSIG=
201212151900 METAR MROC 151900Z 11012G25KT 9999 FEW030 SCT100 28/16 A2993 NOSIG=
201212152000 METAR MROC 152000Z 13010KT 9999 FEW030 28/16 A2991 NOSIG=
201212152100 METAR MROC 152100Z 15010G20KT SCT035 28/16 A2991 BECMG 22006KT=
201212152200 METAR MROC 152200Z 13008KT 9999 SCT030 24/17 A2991 NOSIG=
201212152300 METAR MROC 152300Z 12007KT 9999 SCT030 23/16 A2993 NOSIG=
201212160000 METAR MROC 160000Z 13006KT 9999 FEW030 SCT090 22/16 A2996 NOSIG=
201212160100 METAR MROC 160100Z 12002KT 9999 FEW030 21/16 A2999 NOSIG=
201212160200 METAR MROC 160200Z 12003KT CAVOK 20/16 A3002 NOSIG=
201212160300 METAR MROC 160300Z 12003KT 9999 FEW015 SCT100 20/16 A3003 NOSIG=
201212160400 METAR MROC 160400Z 06004KT 9999 FEW020 SCT100 20/16 A3002 NOSIG=
201212160500 METAR MROC 160500Z 07007KT 9999 FEW020 SCT100 20/15 A3001 NOSIG=
201212160600 METAR MROC 160600Z 05006KT 9999 FEW020 SCT100 20/14 A3000 NOSIG=
201212160700 METAR MROC 160700Z 08003KT 9999 FEW030 SCT100 20/14 A2999 NOSIG=
201212160800 METAR MROC 160800Z 09006KT 9999 FEW030 SCT100 20/14 A2997 NOSIG=
201212160900 METAR MROC 160900Z 06015KT 9999 FEW030 SCT100 19/14 A2996 NOSIG=
201212161000 METAR MROC 161000Z 07003KT CAVOK 18/14 A2996 NOSIG=
201212161100 METAR MROC 161100Z 05005KT CAVOK 18/14 A2996 NOSIG=
201212161200 METAR MROC 161200Z 06005KT CAVOK 18/14 A2997 NOSIG=
201212161300 METAR MROC 161300Z 09006KT CAVOK 21/14 A3000 NOSIG=
201212161400 METAR MROC 161400Z 11008KT CAVOK 23/14 A3001 NOSIG=
201212161500 METAR MROC 161500Z 10010G20KT CAVOK 25/14 A3002 NOSIG=
201212161600 METAR MROC 161600Z 09009KT CAVOK 26/14 A3001 NOSIG=
201212161700 METAR MROC 161700Z 11008KT CAVOK 27/14 A2999 NOSIG=
201212161800 METAR MROC 161800Z 11008KT 9999 FEW040 28/13 A2996 NOSIG=
201212161900 METAR MROC 161900Z 11006KT 9999 FEW040 28/13 A2994 NOSIG=
201212162000 METAR MROC 162000Z 21006KT 9999 SCT035 27/17 A2992 NOSIG=
201212162100 METAR MROC 162100Z 13005KT 9999 FEW030 SCT050 26/16 A2991 NOSIG=
201212162200 METAR MROC 162200Z 21005KT 9999 FEW025 SCT050 26/18 A2992 NOSIG=
201212162300 METAR MROC 162300Z 20006KT 9999 FEW025 SCT050 23/19 A2993 NOSIG=
201212170000 METAR MROC 170000Z 13006KT 9999 FEW030 SCT060 22/16 A2994 NOSIG=
201212170100 METAR MROC 170100Z 09003KT 9999 FEW030 SCT040 22/17 A2997 NOSIG=
201212170200 METAR MROC 170200Z 10002KT 9999 FEW035 SCT050 20/16 A2999 NOSIG=
201212170300 METAR MROC 170300Z 00000KT 9999 FEW035 20/18 A3001 NOSIG=
201212170400 METAR MROC 170400Z 07004KT 9999 FEW035 19/17 A3001 NOSIG=
201212170500 METAR MROC 170500Z 07004KT CAVOK 20/16 A3002 NOSIG=
201212170600 METAR MROC 170600Z 06005KT CAVOK 19/16 A3000 NOSIG=
201212170700 METAR MROC 170700Z 05007KT CAVOK 19/15 A2998 NOSIG=
201212170800 METAR MROC 170800Z 06006KT CAVOK 19/15 A2997 NOSIG=
201212170900 METAR MROC 170900Z 07002KT CAVOK 18/15 A2996 NOSIG=
201212171000 METAR MROC 171000Z 07003KT CAVOK 18/14 A2997 NOSIG=
201212171100 METAR MROC 171100Z 06004KT CAVOK 18/14 A2998 NOSIG=
201212171200 METAR MROC 171200Z 07004KT 9999 FEW035 18/14 A3000 NOSIG=
201212171300 METAR MROC 171300Z 06007KT CAVOK 21/15 A3000 NOSIG=
201212171400 METAR MROC 171400Z 10007KT CAVOK 23/15 A3001 NOSIG=
201212171500 METAR MROC 171500Z 10010KT CAVOK 25/15 A3002 NOSIG=
201212171600 METAR MROC 171600Z 09009KT CAVOK 27/15 A3001 NOSIG=
201212171700 METAR MROC 171700Z 08007KT CAVOK 28/15 A2999 NOSIG=
201212171800 METAR MROC 171800Z 12008KT 9999 FEW040 28/15 A2996 NOSIG=
201212171900 METAR MROC 171900Z 10007KT 9999 FEW040 SCT070 28/15 A2994 NOSIG=
201212172000 METAR MROC 172000Z 23007KT 9999 FEW030 SCT060 27/17 A2993 NOSIG=
201212172100 METAR MROC 172100Z 25009KT 9999 FEW030 SCT060 26/20 A2991 NOSIG=
201212172200 METAR MROC 172200Z 24008KT 9999 SCT030 24/20 A2991 NOSIG=
201212172300 METAR MROC 172300Z 24008KT 9999 FEW020 BKN030 23/19 A2993 NOSIG=
201212172354 METAR MROC 180000Z 24007KT 9999 FEW030 SCT060 21/19 A2995 NOSIG=
201212180000 METAR MROC 180000Z 24007KT 9999 FEW030 SCT060 21/19 A2995 NOSIG=
201212180100 METAR MROC 180100Z 31003KT 9999 FEW030 SCT060 21/19 A2997 NOSIG=
201212180200 METAR MROC 180200Z 30003KT 9999 FEW030 SCT080 21/19 A2999 NOSIG=
201212180300 METAR MROC 180300Z 07003KT CAVOK 20/17 A3000 NOSIG=
201212180400 METAR MROC 180400Z 07003KT CAVOK 20/16 A3001 NOSIG=
201212180500 METAR MROC 180500Z 03005KT CAVOK 19/17 A3000 NOSIG=
201212180600 METAR MROC 180600Z 07003KT CAVOK 18/16 A2999 NOSIG=
201212180700 METAR MROC 180700Z 05005KT CAVOK 19/15 A2997 NOSIG=
201212180800 METAR MROC 180800Z 04008KT CAVOK 19/15 A2996 NOSIG=
201212180900 METAR MROC 180900Z 06006KT CAVOK 19/15 A2996 NOSIG=
201212181000 METAR MROC 181000Z 06004KT CAVOK 18/14 A2997 NOSIG=
201212181100 METAR MROC 181100Z 04004KT CAVOK 18/14 A2999 NOSIG=
201212181200 METAR MROC 181200Z 06006KT CAVOK 19/14 A2999 NOSIG=
201212181300 METAR MROC 181300Z 07006KT CAVOK 21/14 A3000 NOSIG=
201212181400 METAR MROC 181400Z 12009KT CAVOK 23/15 A3002 NOSIG=
201212181500 METAR MROC 181500Z 12010KT CAVOK 25/13 A3002 NOSIG=
201212181600 METAR MROC 181600Z 11008KT CAVOK 27/12 A3002 NOSIG=
201212181700 METAR MROC 181700Z 14007KT CAVOK 29/12 A3000 NOSIG=
201212181800 METAR MROC 181800Z 12005KT CAVOK 29/12 A2998 NOSIG=
201212181900 METAR MROC 181900Z 10005KT 9999 FEW045 28/12 A2995 NOSIG=
201212182000 METAR MROC 182000Z 23006KT 9999 SCT040 26/18 A2993 NOSIG=
201212182100 METAR MROC 182100Z 22008KT 9999 SCT040 27/18 A2991 NOSIG=
201212182200 METAR MROC 182200Z 24010KT 9999 FEW030 24/20 A2992 NOSIG=
201212182300 METAR MROC 182300Z 24007KT 9999 4500W VCSH FEW006 SCT015 22/19 A2994 NOSIG=
201212190000 METAR MROC 190000Z 25003KT 7000 3000SW FEW001 SCT015 21/19 A2995 BECMG 5000 BR=
201212190100 METAR MROC 190100Z 30004KT 7000 BCFG FEW001 SCT015 21/19 A2998 NOSIG=
201212190200 METAR MROC 190200Z 00000KT 6000 BCFG FEW001 SCT015 20/19 A2999 NOSIG=
201212190300 METAR MROC 190300Z 11003KT 9999 FEW015 SCT030 19/15 A3001 NOSIG=
201212190400 METAR MROC 190400Z 10003KT 9999 FEW030 19/15 A3001 NOSIG=
201212190500 METAR MROC 190500Z 13005KT CAVOK 19/14 A3000 NOSIG=
201212190600 METAR MROC 190600Z 11007KT CAVOK 20/14 A2999 NOSIG=
201212190700 METAR MROC 190700Z 11007KT CAVOK 20/14 A2998 NOSIG=
201212190800 METAR MROC 190800Z 11007KT CAVOK 20/14 A2997 NOSIG=
201212190900 METAR MROC 190900Z 10007KT CAVOK 19/14 A2997 NOSIG=
201212191000 METAR MROC 191000Z 10006KT CAVOK 19/14 A2996 NOSIG=
201212191100 METAR MROC 191100Z 11008KT CAVOK 19/13 A2996 NOSIG=
201212191200 METAR MROC 191200Z 11008KT CAVOK 19/13 A2997 NOSIG=
201212191300 METAR MROC 191300Z 12008KT CAVOK 22/14 A3000 NOSIG=
201212191400 METAR MROC 191400Z 11010KT CAVOK 24/13 A3001 NOSIG=
201212191500 METAR MROC 191500Z 10011KT CAVOK 25/12 A3000 NOSIG=
201212191600 METAR MROC 191600Z 09010KT CAVOK 26/12 A3000 NOSIG=
201212191700 METAR MROC 191700Z 11007KT CAVOK 27/13 A2999 NOSIG=
201212191800 METAR MROC 191800Z 10008KT 9999 FEW040 28/13 A2999 NOSIG=
201212191900 METAR MROC 191900Z 12008KT 9999 FEW035 28/12 A2994 NOSIG=
201212192000 METAR MROC 192000Z 08007KT 9999 FEW035 28/12 A2992 NOSIG=
201212192100 METAR MROC 192100Z 08007KT 9999 SCT035 28/12 A2991 NOSIG=
201212192200 METAR MROC 192200Z 22005KT 9999 SCT035 26/18 A2992 NOSIG=
201212192300 METAR MROC 192300Z 22006KT 9999 FEW030 SCT120 24/18 A2993 NOSIG=
201212200000 METAR MROC 200000Z 30005KT 9999 -DZ FEW015 SCT030 22/18 A2995 NOSIG=
201212200100 METAR MROC 200100Z 08009KT 9999 FEW020 SCT120 21/13 A2997 NOSIG=
201212200200 METAR MROC 200200Z 07005KT 9999 FEW035 SCT120 21/14 A2999 NOSIG=
201212200300 METAR MROC 200300Z 10008G18KT CAVOK 21/14 A3000 NOSIG=
201212200400 METAR MROC 200400Z 06010KT CAVOK 20/14 A3001 NOSIG=
201212200500 METAR MROC 200500Z 07013KT CAVOK 20/13 A3000 NOSIG=
201212200600 METAR MROC 200600Z 07007KT CAVOK 19/13 A2999 NOSIG=
201212200700 METAR MROC 200700Z 05005KT CAVOK 19/13 A2997 NOSIG=
201212200800 METAR MROC 200800Z 04006KT CAVOK 19/13 A2995 NOSIG=
201212200900 METAR MROC 200900Z 04011KT CAVOK 19/13 A2994 NOSIG=
201212201000 METAR MROC 201000Z 05007KT CAVOK 18/13 A2994 NOSIG=
201212201100 METAR MROC 201100Z 07007KT CAVOK 19/13 A2995 NOSIG=
201212201200 METAR MROC 201200Z 04008KT CAVOK 19/13 A2996 NOSIG=
201212201300 METAR MROC 201300Z 05008KT CAVOK 22/14 A2998 NOSIG=
201212201400 METAR MROC 201400Z 07010KT 9999 FEW045 24/13 A2999 NOSIG=
201212201500 METAR MROC 201500Z 10013KT CAVOK 25/16 A2999 NOSIG=
201212201600 METAR MROC 201600Z 10016KT 9999 FEW035 27/15 A3000 NOSIG=
201212201700 METAR MROC 201700Z 11015KT 9999 FEW035 27/15 A2998 NOSIG=
201212201800 METAR MROC 201800Z 09015KT 9999 FEW035 28/15 A2996 NOSIG=
201212201900 METAR MROC 201900Z 11017KT 9999 FEW035 SCT120 28/16 A2994 BECMG 24006KT=
201212202000 METAR MROC 202000Z 10016KT 9999 FEW035 SCT060 28/15 A2992 NOSIG=
201212202100 METAR MROC 202100Z 08010KT 9999 FEW030 SCT080 26/16 A2991 NOSIG=
201212202200 METAR MROC 202200Z 10011KT 9999 SCT030 SCT100 25/15 A2991 NOSIG=
201212202300 METAR MROC 202300Z 10006KT 9999 FEW035 SCT100 24/15 A2993 NOSIG=
201212210000 METAR MROC 210000Z 07007KT 9999 FEW035 SCT100 23/15 A2995 NOSIG=
201212210100 METAR MROC 210100Z 09004KT 9999 FEW035 22/16 A2997 NOSIG=
201212210200 METAR MROC 210200Z 07005KT CAVOK 22/16 A2999 NOSIG=
201212210300 METAR MROC 210300Z 06003KT CAVOK 22/17 A3000 NOSIG=
201212210400 METAR MROC 210400Z 31002KT 9999 FEW025 SCT120 21/17 A3001 NOSIG=
201212210500 METAR MROC 210500Z 07004KT 9999 FEW025 SCT120 22/15 A2999 NOSIG=
201212210600 METAR MROC 210600Z 08003KT 9999 FEW030 BKN140 21/16 A2998 NOSIG=
201212210700 METAR MROC 210700Z 09004KT 9999 FEW030 SCT140 22/16 A2996 NOSIG=
201212210800 METAR MROC 210800Z 10009KT 9999 FEW030 BKN130 22/15 A2995 NOSIG=
201212210900 METAR MROC 210900Z 11009KT 9999 FEW035 BKN140 21/16 A2994 NOSIG=
201212211000 METAR MROC 211000Z 11010KT 9999 FEW030 BKN140 21/16 A2999 NOSIG=
201212211100 METAR MROC 211100Z 11010G20KT 9999 FEW035 SCT120 21/16 A2999 NOSIG=
201212211200 METAR MROC 211200Z 11010G21KT 9999 FEW035 BKN120 21/16 A2996 NOSIG=
201212211300 METAR MROC 211300Z 11010G20KT CAVOK 22/16 A2998 NOSIG=
201212211400 METAR MROC 211400Z 10011KT CAVOK 25/15 A3002 NOSIG=
201212211500 METAR MROC 211500Z 10010G20KT 9999 FEW035 26/16 A3002 NOSIG=
201212211600 METAR MROC 211600Z 08008KT 9999 SCT035 SCT120 26/15 A3001 NOSIG=
201212211700 METAR MROC 211700Z 09012G23KT 9999 SCT035 SCT100 25/15 A3000 NOSIG=
201212211800 METAR MROC 211800Z 09014G26KT 9999 FEW035 26/15 A2996 NOSIG=
201212211900 METAR MROC 211900Z 10014G25KT 9999 FEW035 27/15 A2994 NOSIG=
201212212000 METAR MROC 212000Z 10011G21KT 9999 FEW035 SCT120 26/16 A2991 NOSIG=
201212212100 METAR MROC 212100Z 09011G21KT FEW035 SCT070 BKN100 26/16 A2990 NOSIG=
201212212200 METAR MROC 212200Z 08013G23KT 9999 FEW035 SCT100 24/15 A2992 NOSIG=
201212212300 METAR MROC 212300Z 10013G23KT 9999 FEW035 BKN080 23/15 A2993 NOSIG=
201212220000 METAR MROC 220000Z 07012G28KT 9999 FEW035 SCT140 23/13 A2995 NOSIG=
201212220100 METAR MROC 220100Z 08012G22KT 9999 FEW035 BKN140 22/14 A2997 NOSIG=
201212220200 METAR MROC 220200Z 10011KT 9999 FEW035 BKN140 22/15 A3000 NOSIG=
201212220300 METAR MROC 220300Z 09013G27KT 9999 FEW035 BKN120 22/14 A3001 NOSIG=
201212220400 METAR MROC 220400Z 07013G27KT 9999 FEW040 BKN130 22/15 A3003 NOSIG=
201212220500 METAR MROC 220500Z 08011G23KT 9999 FEW040 SCT130 22/14 A3001 NOSIG=
201212220600 METAR MROC 220600Z 08013G23KT 9999 FEW040 BKN130 22/15 A2999 NOSIG=
201212220700 METAR MROC 220700Z 09014G24KT 9999 FEW040 BKN130 21/15 A2997 NOSIG=
201212220800 METAR MROC 220800Z 08015G26KT 9999 FEW040 BKN130 21/15 A2995 NOSIG=
201212220900 METAR MROC 220900Z 08011G21KT 9999 FEW040 SCT130 21/14 A2993 NOSIG=
201212221000 METAR MROC 221000Z 08015G27KT 9999 FEW040 21/14 A2993 NOSIG=
201212221100 METAR MROC 221100Z 10012KT 9999 FEW030 20/14 A2995 NOSIG=
201212221200 METAR MROC 221200Z 10014G28KT 9999 FEW030 21/13 A2997 NOSIG=
201212221300 METAR MROC 221300Z 09014G25KT 9999 FEW030 21/14 A2999 NOSIG=
201212221400 METAR MROC 221400Z 09012G22KT 9999 FEW030 23/15 A3003 NOSIG=
201212221500 METAR MROC 221500Z 08015G28KT 9999 FEW030 24/15 A3003 NOSIG=
201212221600 METAR MROC 221600Z 08017G30KT 9999 FEW030 25/15 A3003 NOSIG=
201212221700 METAR MROC 221700Z 07021G32KT 9999 FEW030 25/13 A3001 NOSIG=
201212221800 METAR MROC 221800Z 08016G30KT 9999 FEW030 26/13 A2998 NOSIG=
201212221900 METAR MROC 221900Z 08018G30KT 9999 FEW030 26/12 A2996 NOSIG=
201212222000 METAR MROC 222000Z 07016G26KT 9999 FEW030 26/12 A2994 NOSIG=
201212222100 METAR MROC 222100Z 07015G26KT 9999 FEW030 26/13 A2995 NOSIG=
201212222200 METAR MROC 222200Z 07015G25KT 9999 FEW030 24/13 A2994 NOSIG=
201212222300 METAR MROC 222300Z 07011G21KT 9999 FEW030 23/11 A2995 NOSIG=
201212222353 METAR MROC 230000Z 08013G23KT 9999 FEW030 22/13 A2996 NOSIG=
201212230000 METAR MROC 230000Z 08013G23KT 9999 FEW030 22/13 A2996 NOSIG=
201212230100 METAR MROC 230100Z 09014G26KT 9999 FEW030 22/14 A2997 NOSIG=
201212230200 METAR MROC 230200Z 08015G25KT 9999 FEW030 21/14 A2999 NOSIG=
201212230300 METAR MROC 230300Z 08011KT 9999 FEW035 21/14 A3002 NOSIG=
201212230400 METAR MROC 230400Z 09015G26KT CAVOK 21/14 A3000 NOSIG=
201212230500 METAR MROC 230500Z 08017G31KT CAVOK 21/13 A2998 NOSIG=
201212230600 METAR MROC 230600Z 10016G30KT CAVOK 20/13 A2997 NOSIG=
201212230700 METAR MROC 230700Z 09016G27KT CAVOK 20/14 A2994 NOSIG=
201212230800 METAR MROC 230800Z 10014G28KT CAVOK 19/14 A2992 NOSIG=
201212230900 METAR MROC 230900Z 10014G24KT CAVOK 20/14 A2991 NOSIG=
201212231000 METAR MROC 231000Z 10013G23KT CAVOK 20/14 A2991 NOSIG=
201212231100 METAR MROC 231100Z 10014G26KT CAVOK 20/14 A2993 NOSIG=
201212231200 METAR MROC 231200Z 10007KT 9999 FEW035 20/15 A2994 NOSIG=
201212231300 METAR MROC 231300Z 10014G27KT 9999 FEW030 21/15 A2997 NOSIG=
201212231400 METAR MROC 231400Z 09015G25KT 9999 FEW030 22/15 A2998 NOSIG=
201212231500 METAR MROC 231500Z 09014G25KT 9999 FEW030 25/15 A2998 NOSIG=
201212231600 METAR MROC 231600Z 08017G27KT 9999 FEW035 25/16 A2996 NOSIG=
201212231700 METAR MROC 231700Z 09015G26KT 9999 FEW035 26/16 A2995 NOSIG=
201212231800 METAR MROC 231800Z 09014G25KT 9999 SCT035 26/16 A2994 NOSIG=
201212231900 METAR MROC 231900Z 09012G27KT 9999 SCT030 27/16 A2991 NOSIG=
201212232000 METAR MROC 232000Z 08013G23KT 9999 FEW030 SCT080 27/16 A2990 NOSIG=
201212232100 METAR MROC 232100Z 09010G21KT 9999 SCT030 SCT100 27/15 A2989 NOSIG=
201212232200 METAR MROC 232200Z 08012G22KT 9999 FEW035 BKN070 24/15 A2991 NOSIG=
201212232300 METAR MROC 232300Z 09011G22KT 9999 SCT035 23/15 A2992 NOSIG=
201212240000 METAR MROC 240000Z 10011G21KT 9999 FEW030 SCT070 21/16 A2993 NOSIG=
201212240100 METAR MROC 240100Z 08012G22KT 9999 FEW040 BKN120 21/15 A2996 NOSIG=
201212240200 METAR MROC 240200Z 08015G26KT 9999 FEW035 BKN120 21/14 A2997 NOSIG=
201212240300 METAR MROC 240300Z 09012G22KT 9999 FEW035 SCT130 21/15 A2999 NOSIG=
201212240400 METAR MROC 240400Z 07013G23KT 9999 FEW035 21/14 A2999 NOSIG=
201212240500 METAR MROC 240500Z 10012G22KT 9999 FEW035 20/15 A2998 NOSIG=
201212240600 METAR MROC 240600Z 09007G17KT CAVOK 20/15 A2998 NOSIG=
201212240700 METAR MROC 240700Z 09013KT CAVOK 20/15 A2995 NOSIG=
201212240800 METAR MROC 240800Z 09013G23KT CAVOK 20/15 A2993 NOSIG=
201212240900 METAR MROC 240900Z 10012G23KT CAVOK 20/14 A2991 NOSIG=
201212241000 METAR MROC 241000Z 10011KT CAVOK 20/14 A2993 NOSIG=
201212241100 METAR MROC 241100Z 10007KT CAVOK 20/13 A2994 NOSIG=
201212241200 METAR MROC 241200Z 10010G20KT 9999 FEW030 20/15 A2995 NOSIG=
201212241300 METAR MROC 241300Z 05007KT 9999 FEW030 SCT070 21/15 A2998 NOSIG=
201212241400 METAR MROC 241400Z 11011KT 9999 FEW030 SCT100 22/16 A3000 RMK VEL MAX VTO 18KT NOSIG=
201212241500 METAR MROC 241500Z 12010KT 9999 FEW030 SCT090 25/16 A2999 NOSIG=
201212241600 METAR MROC 241600Z 11010G20KT 9999 FEW040 SCT080 26/17 A2999 NOSIG=
201212241700 METAR MROC 241700Z 10010KT 9999 FEW035 SCT100 27/16 A2998 NOSIG=
201212241800 METAR MROC 241800Z 10012G22KT 9999 FEW045 SCT120 27/16 A2995 NOSIG=
201212241900 METAR MROC 241900Z 10013G23KT 9999 FEW045 SCT080 27/16 A2993 NOSIG=
201212242000 METAR MROC 242000Z 11010KT 9999 FEW045 SCT120 28/16 A2991 NOSIG=
201212242100 METAR MROC 242100Z 11010KT 9999 FEW020TCU SCT120 28/16 A2991 NOSIG=
201212242200 METAR MROC 242200Z 13006KT 9999 FEW020 27/16 A2991 BECMG 24007KT=
201212242300 METAR MROC 242300Z 13006KT 9999 FEW030 SCT070 BKN110 24/17 A2993 BECMG 22005KT=
201212250000 METAR MROC 250000Z 10007KT 9999 FEW025 BKN070 23/17 A2996 NOSIG=
201212250100 METAR MROC 250100Z 10006KT 9999 FEW025 BKN070 22/17 A2999 NOSIG=
201212250200 METAR MROC 250200Z 10005KT 9999 FEW030 SCT070 22/17 A3001 NOSIG=
201212250300 METAR MROC 250300Z 07010KT 9999 FEW030 SCT100 22/17 A3001 NOSIG=
201212250400 METAR MROC 250400Z 10008KT 9999 FEW030 BKN100 21/17 A3000 NOSIG=
201212250500 METAR MROC 250500Z 12011KT 9999 FEW030 SCT100 BKN200 22/17 A2998 NOSIG=
201212250600 METAR MROC 250600Z 11013KT 9999 FEW030 SCT100 BKN200 22/17 A2998 NOSIG=
201212250700 METAR MROC 250700Z 12008KT 9999 FEW030 SCT100 BKN200 22/17 A2996 NOSIG=
201212250800 METAR MROC 250800Z 09009KT 9999 FEW030 BKN200 21/17 A2993 NOSIG=
201212250900 METAR MROC 250900Z 11010KT 9999 FEW030 BKN150 22/17 A2991 NOSIG=
201212251000 METAR MROC 251000Z 08010KT 9999 FEW030 SCT150 21/17 A2992 NOSIG=
201212251100 METAR MROC 251100Z 11009KT 9999 FEW030 SCT120 21/17 A2992 NOSIG=
201212251200 METAR MROC 251200Z 09010KT 9999 FEW030 SCT045 BKN200 22/17 A2994 NOSIG=
201212251300 METAR MROC NIL=
201212251400 METAR MROC 251400Z 12003KT 9999 -RA FEW025 BKN130 22/18 A2996 RERA NOSIG=
201212251500 METAR MROC 251500Z 07004KT 9999 FEW030 SCT080 BKN200 25/18 A2999 NOSIG=
201212251600 METAR MROC 251600Z 11006KT 9999 FEW030 BKN075 24/18 A3000 NOSIG=
201212251700 METAR MROC 251700Z 12003KT 9999 FEW030 SCT080 BKN120 26/18 A2998 BECMG 25007KT=
201212251800 METAR MROC 251800Z 30009KT 9999 FEW030 SCT080 BKN120 27/18 A2997 NOSIG=
201212251900 METAR MROC 251900Z 12011KT 9999 FEW025 SCT120 25/18 A2995 NOSIG=
201212252000 METAR MROC 252000Z 13007KT 9999 FEW035 BKN100 25/17 A2992 BECMG 24006KT=
201212252100 METAR MROC 252100Z 24007KT 9999 VCSH FEW030 BKN100 25/19 A2992 BECMG 7000 -RA=
201212252200 METAR MROC 252200Z 14002KT 9999 VCSH SCT035 BKN120 23/18 A2993 NOSIG=
201212252300 METAR MROC 252300Z 11003KT 9999 -RA FEW040 BKN090 22/18 A2994 NOSIG=
201212260000 METAR MROC 260000Z 07004KT CAVOK 21/18 A2994 NOSIG=
201212260100 METAR MROC 260100Z 12004KT CAVOK 21/18 A2995 NOSIG=
201212260200 METAR MROC 260200Z 10005KT CAVOK 21/18 A2997 NOSIG=
201212260300 METAR MROC 260300Z 05007KT CAVOK 21/17 A2999 NOSIG=
201212260400 METAR MROC 260400Z 07003KT CAVOK 21/17 A2999 NOSIG=
201212260500 METAR MROC 260500Z 07003KT CAVOK 20/17 A2999 NOSIG=
201212260600 METAR MROC 260600Z 09004KT CAVOK 19/17 A2997 NOSIG=
201212260700 METAR MROC 260700Z 04007KT CAVOK 20/17 A2995 NOSIG=
201212260800 METAR MROC 260800Z 09004KT CAVOK 19/17 A2994 NOSIG=
201212260900 METAR MROC 260900Z 00000KT CAVOK 19/17 A2993 NOSIG=
201212261000 METAR MROC 261000Z 07004KT CAVOK 19/17 A2994 NOSIG=
201212261100 METAR MROC 261100Z 06004KT CAVOK 19/16 A2995 NOSIG=
201212261200 METAR MROC 261200Z 25002KT CAVOK 19/16 A2995 NOSIG=
201212261300 METAR MROC 261300Z 06004KT CAVOK 23/17 A2997 NOSIG=
201212261400 METAR MROC 261400Z 10006KT CAVOK 24/17 A2999 BECMG 24006KT=
201212261500 METAR MROC 261500Z 21005KT CAVOK 26/18 A3000 NOSIG=
201212261600 METAR MROC 261600Z 22005KT CAVOK 26/18 A3000 NOSIG=
201212261700 METAR MROC 261700Z 23008KT 9999 FEW040 SCT250 27/18 A2998 NOSIG=
201212261800 METAR MROC 261800Z 23007KT 9999 FEW040 BKN250 27/19 A2995 NOSIG=
201212261900 METAR MROC 261900Z 24010KT 9999 SCT040 BKN250 27/19 A2993 NOSIG=
201212262000 METAR MROC 262000Z 23008KT 9999 SCT035 BKN250 27/19 A2992 NOSIG=
201212262100 METAR MROC 262100Z 25010KT 9999 RA FEW020TCU BKN035 26/20 A2990 NOSIG=
201212262200 METAR MROC 262200Z 25005KT 9999 FEW025 SCT035 BKN250 24/20 A2991 RERA NOSIG=
201212262300 METAR MROC 262300Z 23005KT 9999 FEW010 SCT035 BKN250 23/20 A2991 NOSIG=
201212270000 METAR MROC 270000Z 20002KT 9999 FEW010 SCT035 BKN250 22/20 A2993 NOSIG=
201212270100 METAR MROC 270100Z 00000KT 9999 FEW015 SCT040 22/20 A2995 NOSIG=
201212270200 METAR MROC 270200Z 00000KT 9999 FEW020 SCT040 21/20 A2997 NOSIG=
201212270300 METAR MROC 270300Z 11003KT 9999 FEW040 21/18 A2998 NOSIG=
201212270400 METAR MROC 270400Z 07002KT 9999 FEW040 21/17 A2998 NOSIG=
201212270500 METAR MROC 270500Z 11002KT 9999 FEW040 21/17 A2997 NOSIG=
201212270600 METAR MROC 270600Z 06002KT 9999 FEW030 20/17 A2996 NOSIG=
201212270700 METAR MROC 270700Z 04003KT 9999 FEW030 SCT070 20/17 A2995 NOSIG=
201212270800 METAR MROC 270800Z 11005KT 9999 FEW030 SCT070 21/17 A2992 NOSIG=
201212270900 METAR MROC 270900Z 11005KT 9999 FEW030 SCT070 21/17 A2991 NOSIG=
201212271000 METAR MROC 271000Z 11005KT 9999 FEW030 SCT070 21/17 A2992 NOSIG=
201212271100 METAR MROC 271100Z 11004KT 9999 FEW030 SCT080 21/17 A2993 NOSIG=
201212271200 METAR MROC 271200Z 09005KT 9999 FEW030 BKN080 22/17 A2995 NOSIG=
201212271300 METAR MROC 271300Z 07006KT 9999 FEW030 BKN060 23/17 A2997 NOSIG=
201212271400 METAR MROC 271400Z 11007KT 9999 FEW030 SCT050 25/17 A2998 NOSIG=
201212271500 METAR MROC 271500Z 09008KT 9999 FEW030 BKN060 24/17 A2999 NOSIG=
201212271600 METAR MROC 271600Z 11008KT 9999 FEW030 SCT080 25/17 A2999 NOSIG=
201212271700 METAR MROC 271700Z 07012KT 9999 FEW030 28/15 A2997 NOSIG=
201212271800 METAR MROC 271800Z 07011KT 9999 FEW030 BKN080 27/16 A2995 NOSIG=
201212271900 METAR MROC 271900Z 07009KT 9999 FEW030 SCT050 27/15 A2993 NOSIG=
201212272000 METAR MROC 272000Z 08010KT 9999 FEW030 SCT050 28/15 A2989 NOSIG=
201212272100 METAR MROC 272100Z 08009KT 9999 FEW030 BKN120 27/16 A2988 NOSIG=
201212272200 METAR MROC 272200Z 08006KT 9999 FEW030 SCT050 BKN120 25/16 A2989 NOSIG=
201212272300 METAR MROC 272300Z 09005KT 9999 SCT030 BKN100 25/16 A2990 NOSIG=
201212272352 METAR MROC 280000Z 09005KT 9999 BKN030 SCT120 24/16 A2991 NOSIG=
201212280000 METAR MROC 280000Z 09005KT 9999 BKN030 SCT120 24/16 A2991 NOSIG=
201212280100 METAR MROC 280100Z 11007KT 9999 FEW030 BKN120 23/16 A2992 NOSIG=
201212280200 METAR MROC 280200Z 10010G20KT 9999 FEW030 23/16 A2994 NOSIG=
201212280300 METAR MROC 280300Z 08010G20KT 9999 SCT035 23/16 A2996 NOSIG=
201212280400 METAR MROC 280400Z 11007KT 9999 SCT035 23/16 A2997 NOSIG=
201212280500 METAR MROC 280500Z 07008KT 9999 FEW030 SCT100 22/17 A2994 NOSIG=
201212280600 METAR MROC 280600Z 12007KT CAVOK 22/16 A2994 NOSIG=
201212280700 METAR MROC 280700Z 13004KT CAVOK 22/16 A2992 NOSIG=
201212280800 METAR MROC 280800Z 14006KT CAVOK 21/16 A2990 NOSIG=
201212280900 METAR MROC 280900Z 11006KT CAVOK 22/15 A2989 NOSIG=
201212281000 METAR MROC 281000Z 11007KT CAVOK 22/16 A2990 NOSIG=
201212281100 METAR MROC 281100Z 09008KT CAVOK 21/16 A2991 NOSIG=
201212281200 METAR MROC 281200Z 12009KT CAVOK 21/16 A2992 NOSIG=
201212281300 METAR MROC 281300Z 12008KT CAVOK 22/16 A2995 NOSIG=
201212281400 METAR MROC 281400Z 13009KT 9999 FEW045 24/17 A2995 NOSIG=
201212281500 METAR MROC 281500Z 10010G20KT 9999 FEW045 SCT250 26/16 A2996 NOSIG=
201212281600 METAR MROC 281600Z 08012KT 9999 FEW030 BKN250 28/15 A2995 NOSIG=
201212281700 METAR MROC 281700Z 08010G20KT 9999 FEW035 BKN250 28/15 A2994 NOSIG=
201212281800 METAR MROC 281800Z 08009KT 9999 FEW030 SCT100 BKN250 28/16 A2993 NOSIG=
201212281900 METAR MROC 281900Z 12005G15KT 9999 FEW035 SCT100 BKN200 28/16 A2991 NOSIG=
201212282000 METAR MROC 282000Z 12005KT 9999 FEW035 SCT100 BKN200 28/15 A2990 NOSIG=
201212282100 METAR MROC 282100Z 11004KT 9999 FEW035 BKN200 29/16 A2987 BECMG 23005KT=
201212282200 METAR MROC 282200Z 06010KT 9999 SCT030 BKN230 26/16 A2989 NOSIG=
201212282300 METAR MROC 282300Z 07006KT 9999 SCT035 BKN200 25/16 A2990 NOSIG=
201212290000 METAR MROC 290000Z 10007KT 9999 FEW030 BKN080 23/17 A2992 NOSIG=
201212290100 METAR MROC 290100Z 06007KT CAVOK 23/17 A2993 NOSIG=
201212290200 METAR MROC 290200Z 06005KT 9999 -DZ FEW035 BKN060 23/17 A2994 NOSIG=
201212290300 METAR MROC 290300Z 07006KT 9999 DZ FEW030 BKN060 22/18 A2994 NOSIG=
201212290400 METAR MROC 290400Z 15003KT 9999 FEW030 SCT060 21/18 A2994 NOSIG=
201212290500 METAR MROC 290500Z 07004KT 9999 FEW030 SCT060 22/17 A2994 NOSIG=
201212290600 METAR MROC 290600Z 11007KT CAVOK 23/17 A2992 NOSIG=
201212290700 METAR MROC 290700Z 12008KT CAVOK 22/17 A2991 NOSIG=
201212290800 METAR MROC 290800Z 09006KT CAVOK 22/17 A2990 NOSIG=
201212290900 METAR MROC 290900Z 10007KT CAVOK 23/17 A2990 NOSIG=
201212291000 METAR MROC 291000Z 10008KT CAVOK 22/16 A2990 NOSIG=
201212291100 METAR MROC 291100Z 09009KT 9999 FEW030 BKN100 22/16 A2990 NOSIG=
201212291200 METAR MROC 291200Z 09011G22KT 9999 FEW030 SCT070 BKN120 23/16 A2992 NOSIG=
201212291300 METAR MROC 291300Z 08010G26KT 9999 FEW045 BKN200 22/16 A2995 NOSIG=
201212291400 METAR MROC 291400Z 10010KT 9999 FEW045 BKN180 23/16 A2998 NOSIG=
201212291500 METAR MROC 291500Z 09013G24KT 9999 FEW045 BKN200 24/16 A2999 NOSIG=
201212291600 METAR MROC 291600Z 08012KT 9999 FEW045 SCT130 BKN250 26/15 A2999 NOSIG=
201212291700 METAR MROC 291700Z 07012KT 9999 FEW045 BKN230 27/14 A2996 NOSIG=
201212291800 METAR MROC 291800Z 08014KT 9999 FEW045 BKN250 26/14 A2994 NOSIG=
201212291900 METAR MROC 291900Z 08012KT 9999 FEW040 BKN250 26/15 A2992 NOSIG=
201212292000 METAR MROC 292000Z 07014G24KT 9999 FEW040 BKN250 26/14 A2990 NOSIG=
201212292100 METAR MROC 292100Z 06015KT 9999 FEW040 BKN250 27/24 A2991 NOSIG=
201212292200 METAR MROC 292200Z 06014KT 9999 FEW040 BKN250 26/12 A2991 NOSIG=
201212292300 METAR MROC 292300Z 09012KT 9999 FEW040 BKN250 24/14 A2993 NOSIG=
201212300000 METAR MROC 300000Z 08010KT CAVOK 23/13 A2995 NOSIG=
201212300100 METAR MROC 300100Z 09010KT CAVOK 23/12 A2998 NOSIG=
201212300200 METAR MROC 300200Z 10008KT CAVOK 22/13 A3000 NOSIG=
201212300300 METAR MROC 300300Z 10010G20KT CAVOK 21/14 A3001 NOSIG=
201212300400 METAR MROC 300400Z 10009KT CAVOK 21/15 A3001 NOSIG=
201212300500 METAR MROC 300500Z 11011KT CAVOK 20/15 A3001 NOSIG=
201212300600 METAR MROC 300600Z 10010G20KT CAVOK 21/14 A2999 NOSIG=
201212300700 METAR MROC 300700Z 10010G20KT CAVOK 20/15 A2997 NOSIG=
201212300800 METAR MROC 300800Z 09011KT CAVOK 21/15 A2996 NOSIG=
201212300900 METAR MROC 300900Z 11010G20KT CAVOK 21/15 A2994 NOSIG=
201212301000 METAR MROC 301000Z 10012G22KT 9999 FEW035 SCT120 21/15 A2995 NOSIG=
201212301100 METAR MROC 301100Z 10011KT 9999 FEW035 21/15 A2997 NOSIG=
201212301200 METAR MROC 301200Z 09011KT 9999 VCSH FEW035 21/15 A2999 NOSIG=
201212301300 METAR MROC 301300Z 08011KT 9999 FEW035 21/16 A3001 NOSIG=
201212301400 METAR MROC 301400Z 07016G26KT 9999 FEW030 23/15 A3003 NOSIG=
201212301500 METAR MROC 301500Z 07018G28KT 9999 FEW030 24/13 A3004 NOSIG=
201212301600 METAR MROC 301600Z 06022G34KT 9999 FEW030 26/13 A3002 NOSIG=
201212301700 METAR MROC 301700Z 06026G40KT 9999 FEW030 27/13 A3001 NOSIG=
201212301800 METAR MROC 301800Z 07019G29KT 9999 FEW030 SCT250 27/12 A3000 NOSIG=
201212301900 METAR MROC 301900Z 07013G27KT 9999 SCT030 SCT080 27/13 A2999 NOSIG=
201212302000 METAR MROC 302000Z 07014G26KT 9999 SCT030 SCT080 25/13 A2997 NOSIG=
201212302100 METAR MROC 302100Z 06015G25KT 9999 SCT030 SCT080 25/14 A2997 NOSIG=
201212302200 METAR MROC 302200Z 07012G22KT 9999 FEW035 SCT100 24/14 A2998 NOSIG=
201212302300 METAR MROC 302300Z 08010G20KT 9999 FEW035 SCT100 23/15 A2999 NOSIG=
201212310000 METAR MROC 310000Z 06010G20KT 9999 FEW035 SCT100 23/14 A3000 NOSIG=
201212310100 METAR MROC 310100Z 07010G20KT 9999 FEW035 22/15 A3001 NOSIG=
201212310200 METAR MROC 310200Z 08009KT 9999 FEW035 21/15 A3004 NOSIG=
201212310300 METAR MROC 310300Z 06018G28KT 9999 FEW030 SCT070 22/14 A3002 NOSIG=
201212310400 METAR MROC 310400Z 07012G22KT CAVOK 22/14 A3004 NOSIG=
201212310500 METAR MROC 310500Z 07014G24KT CAVOK 22/13 A3003 NOSIG=
201212310600 METAR MROC 310600Z 10009KT CAVOK 21/14 A3001 NOSIG=
201212310700 METAR MROC 310700Z 11010G20KT CAVOK 21/14 A2998 NOSIG=
201212310800 METAR MROC 310800Z 09006KT 9999 FEW045 SCT250 20/13 A2999 NOSIG=
201212310900 METAR MROC 310900Z 10008KT 9999 FEW045 SCT250 21/13 A2999 NOSIG=
201212311000 METAR MROC 311000Z 10009KT 9999 FEW040 SCT250 21/13 A2999 NOSIG=
201212311100 METAR MROC 311100Z 09006KT CAVOK 20/13 A3000 NOSIG=
201212311200 METAR MROC 311200Z 10008KT 9999 FEW045 BKN250 20/13 A3003 NOSIG=
201212311300 METAR MROC 311300Z 08010KT CAVOK 22/13 A3003 NOSIG=
201212311400 METAR MROC 311400Z 08009KT CAVOK 24/13 A3005 NOSIG=
201212311500 METAR MROC 311500Z 10010KT CAVOK 26/13 A3004 NOSIG=
201212311600 METAR MROC 311600Z 08010G20KT CAVOK 27/11 A3002 NOSIG=
201212311700 METAR MROC 311700Z 07014G23KT CAVOK 27/12 A3003 NOSIG=
201212311800 METAR MROC 311800Z 09012G20KT 9999 FEW035 28/12 A3000 NOSIG=
201212311900 METAR MROC 311900Z 08010G20KT 9999 FEW040 28/11 A2998 NOSIG=
201212312000 METAR MROC 312000Z 06016G26KT 9999 FEW040 29/13 A2995 NOSIG=
201212312100 METAR MROC 312100Z 05015G25KT 9999 FEW040 28/11 A2995 NOSIG=
201212312200 METAR MROC 312200Z 04013KT 9999 FEW040 27/13 A2995 NOSIG=
201212312300 METAR MROC 312300Z 07008KT 9999 FEW040 25/13 A2996 NOSIG=
