201501010000 METAR MROC 010000Z 08010G20KT 9999 FEW035 23/16 A2998 NOSIG=
201501010100 METAR MROC 010100Z 08010G20KT 9999 FEW035 SCT120 23/15 A2998 NOSIG=
201501010200 METAR MROC 010200Z 09012G22KT 9999 FEW035 22/16 A3001 NOSIG=
201501010300 METAR MROC 010300Z 08014G24KT 9999 FEW035 22/16 A3001 NOSIG=
201501010400 METAR MROC 010400Z 08012G22KT 9999 FEW035 22/16 A3001 NOSIG=
201501010500 METAR MROC 010500Z 08013G23KT 9999 FEW035 22/15 A3000 NOSIG=
201501010600 METAR MROC 010600Z 09010KT 9999 FEW035 21/16 A2999 NOSIG=
201501010700 METAR MROC 010700Z 07016G26KT CAVOK 22/15 A2996 NOSIG=
201501010800 METAR MROC 010800Z 07016G27KT CAVOK 22/14 A2993 NOSIG=
201501010900 METAR MROC 010900Z 08013G26KT CAVOK 21/16 A2994 NOSIG=
201501011000 METAR MROC 011000Z 09009KT CAVOK 21/15 A2994 NOSIG=
201501011100 METAR MROC 011100Z 09009KT CAVOK 21/15 A2996 NOSIG=
201501011200 METAR COR MROC 011200Z 09011KT 9999 FEW030 SCT250 22/14 A2998 NOSIG=
201501011300 METAR MROC 011300Z 09015KT 9999 FEW030 SCT250 22/14 A3000 NOSIG=
201501011400 METAR MROC 011400Z 08010G20KT 9999 FEW030 BKN250 24/15 A3002 NOSIG=
201501011500 METAR MROC 011500Z 08015G25KT 9999 FEW030 BKN250 24/16 A3001 NOSIG=
201501011600 METAR MROC 011600Z 08018G28KT 9999 FEW030 BKN250 24/15 A3003 NOSIG=
201501011700 METAR MROC 011700Z 08015G25KT 9999 FEW030 SCT250 25/15 A3003 NOSIG=
201501011800 METAR MROC 011800Z 06019G30KT 9999 FEW030 BKN250 27/15 A2999 NOSIG=
201501011900 METAR MROC 011900Z 07018G29KT 9999 FEW030 SCT250 26/12 A2997 NOSIG=
201501012000 METAR MROC 012000Z 07018G29KT 9999 FEW040 27/09 A2994 NOSIG=
201501012100 METAR MROC 012100Z 07015G25KT CAVOK 26/10 A2993 NOSIG=
201501012200 METAR MROC 012200Z 07015G25KT CAVOK 25/12 A2993 NOSIG=
201501012300 METAR MROC 012300Z 07016G30KT CAVOK 23/12 A2993 NOSIG=
201501020000 METAR MROC 020000Z 08016G26KT CAVOK 22/13 A2993 NOSIG=
201501020100 METAR MROC 020100Z 08015G25KT CAVOK 22/13 A2996 NOSIG=
201501020200 METAR MROC 020200Z 08016G26KT CAVOK 21/14 A2998 NOSIG=
201501020300 METAR MROC 020300Z 09015G25KT CAVOK 20/14 A2999 NOSIG=
201501020400 METAR MROC 020400Z 09015G25KT CAVOK 21/14 A2999 NOSIG=
201501020500 METAR MROC 020500Z 09012G22KT CAVOK 20/14 A2998 NOSIG=
201501020600 METAR MROC 020600Z 09012G22KT CAVOK 20/15 A2997 NOSIG=
201501020700 METAR MROC 020700Z 08013KT CAVOK 21/13 A2994 NOSIG=
201501020800 METAR MROC 020800Z 08012KT CAVOK 20/14 A2994 NOSIG=
201501020900 METAR MROC 020900Z 08014G24KT CAVOK 20/14 A2992 NOSIG=
201501021000 METAR MROC 021000Z 07014G24KT CAVOK 21/13 A2993 NOSIG=
201501021100 METAR MROC 021100Z 10010G20KT CAVOK 20/14 A2996 NOSIG=
201501021200 METAR MROC 021200Z 09009G19KT CAVOK 20/14 A2998 NOSIG=
201501021300 METAR MROC 021300Z 07015G25KT 9999 FEW035 21/14 A2999 NOSIG=
201501021400 METAR MROC 021400Z 08015G26KT 9999 FEW035 23/14 A3000 NOSIG=
201501021500 METAR MROC 021500Z 07015G27KT 9999 FEW035 25/14 A3000 NOSIG=
201501021600 METAR MROC 021600Z 07016G26KT 9999 FEW035 26/13 A3001 NOSIG=
201501021700 METAR MROC 021700Z 07014KT 9999 FEW035 26/14 A2999 NOSIG=
201501021800 METAR MROC 021800Z 09017G29KT 9999 FEW035 26/14 A2996 NOSIG=
201501021900 METAR MROC 021900Z 09013G23KT 9999 FEW035 27/16 A2993 NOSIG=
201501022000 METAR MROC 022000Z 09015G25KT 9999 FEW035 SCT060 25/15 A2993 NOSIG=
201501022100 METAR MROC 022100Z 08013G26KT 9999 FEW035 SCT070 26/15 A2990 NOSIG=
201501022200 METAR MROC 022200Z 07012KT 9999 SCT030 SCT060 25/15 A2992 NOSIG=
201501022300 METAR MROC 022300Z 08010KT 9999 SCT030 SCT060 24/15 A2993 NOSIG=
201501030000 METAR MROC 030000Z 08010KT 9999 SCT035 22/15 A2994 NOSIG=
201501030100 METAR MROC 030100Z 08008KT 9999 FEW030 SCT070 22/15 A2996 NOSIG=
201501030200 METAR MROC 030200Z 09010KT 9999 FEW030 SCT070 22/15 A2998 NOSIG=
201501030300 METAR MROC 030300Z 10012KT 9999 FEW030 21/16 A2999 NOSIG=
201501030400 METAR MROC 030400Z 10015KT 9999 FEW030 21/16 A2999 NOSIG=
201501030500 METAR MROC 030500Z 09014KT 9999 FEW030 22/15 A2998 NOSIG=
201501030600 METAR MROC 030600Z 10014KT 9999 FEW030 22/16 A2997 NOSIG=
201501030700 METAR MROC 030700Z 08017KT 9999 FEW030 21/15 A2994 NOSIG=
201501030800 METAR MROC 030800Z 08013KT 9999 FEW030 21/15 A2993 NOSIG=
201501030900 METAR MROC 030900Z 06016KT 9999 FEW030 20/15 A2991 NOSIG=
201501031000 METAR MROC 031000Z 10016KT 9999 FEW030 20/15 A2992 NOSIG=
201501031100 METAR MROC 031100Z 08016KT 9999 FEW030 20/15 A2994 NOSIG=
201501031200 METAR MROC 031200Z 09010G20KT 9999 FEW030 20/16 A2997 NOSIG=
201501031300 METAR MROC 031300Z 070008KT 9999 FEW045 SCT250 22/15 A2999 NOSIG=
201501031400 METAR MROC 031400Z 09008KT 9999 FEW045 SCT250 25/15 A3000 NOSIG=
201501031500 METAR MROC 031500Z 09011KT CAVOK 27/14 A2999 NOSIG=
201501031600 METAR MROC 031600Z 09010G20KT CAVOK 28/14 A2999 NOSIG=
201501031700 METAR MROC 031700Z 08013G24KT 9999 FEW045 28/14 A2997 NOSIG=
201501031800 METAR MROC 031800Z 08014G25KT 9999 FEW045 29/13 A2994 NOSIG=
201501031900 METAR MROC 031900Z 09012KT 9999 FEW045 29/14 A2994 NOSIG=
201501032000 METAR MROC 032000Z 07012G22KT 9999 FEW045 29/14 A2992 NOSIG=
201501032100 METAR MROC 032100Z 07010G20KT 9999 FEW045 29/14 A2992 NOSIG=
201501032200 METAR MROC 032200Z 09010KT 9999 FEW045 28/15 A2992 NOSIG=
201501032300 METAR MROC 032300Z 07007KT CAVOK 26/16 A2994 NOSIG=
201501040000 METAR MROC 040000Z 10006KT CAVOK 23/17 A2996 NOSIG=
201501040100 METAR MROC 040100Z 08010KT CAVOK 22/16 A2998 NOSIG=
201501040200 METAR MROC 040200Z 07009KT CAVOK 23/16 A3001 NOSIG=
201501040300 METAR MROC 040300Z 07010KT CAVOK 22/15 A3002 NOSIG=
201501040400 METAR MROC 040400Z 07010KT CAVOK 22/15 A3003 NOSIG=
201501040500 METAR MROC 040500Z 07010KT CAVOK 22/16 A3001 NOSIG=
201501040600 METAR MROC 040600Z 11007KT CAVOK 21/16 A3000 NOSIG=
201501040700 METAR MROC 040700Z 10008KT CAVOK 21/16 A2999 NOSIG=
201501040800 METAR MROC 040800Z 11009KT CAVOK 21/15 A2997 NOSIG=
201501040900 METAR MROC 040900Z 11008KT CAVOK 21/16 A2997 NOSIG=
201501041000 METAR MROC 041000Z 09009KT CAVOK 21/16 A2997 NOSIG=
201501041100 METAR MROC 041100Z 09010G23KT CAVOK 22/15 A2998 NOSIG=
201501041200 METAR MROC 041200Z 09010G20KT CAVOK 21/16 A3000 NOSIG=
201501041300 METAR MROC 041300Z 10005KT 9999 FEW030 21/16 A3002 NOSIG=
201501041400 METAR MROC 041400Z 08012KT 9999 FEW030 25/15 A3003 NOSIG=
201501041500 METAR MROC 041500Z 07013KT 9999 FEW030 26/14 A3003 NOSIG=
201501041600 METAR MROC 041600Z 07012KT 9999 FEW030 26/15 A3003 NOSIG=
201501041700 METAR MROC 041700Z 08008KT 9999 FEW030 26/15 A3002 NOSIG=
201501041800 METAR MROC 041800Z 07013KT 9999 SCT030 28/15 A3000 NOSIG=
201501041900 METAR MROC 041900Z 07014G26KT 9999 SCT030 28/14 A2998 NOSIG=
201501042000 METAR MROC 042000Z 06013KT 9999 SCT030 29/15 A2995 NOSIG=
201501042100 METAR MROC 042100Z 07011G21KT 9999 FEW040 BKN080 27/16 A2995 NOSIG=
201501042200 METAR MROC 042200Z 06015G25KT 9999 FEW030 BKN080 26/14 A2997 NOSIG=
201501042300 METAR MROC 042300Z 07012KT 9999 FEW030 BKN080 24/14 A2999 NOSIG=
201501050000 METAR MROC 050000Z 10011G21KT 9999 SCT035 SCT100 22/15 A3001 NOSIG=
201501050100 METAR MROC 050100Z 09009G19KT 9999 SCT035 SCT100 22/16 A3002 NOSIG=
201501050200 METAR MROC 050200Z 09010KT 9999 SCT040 SCT200 22/16 A3004 NOSIG=
201501050300 METAR MROC 050300Z 09014G26KT 9999 SCT040 BKN250 22/15 A3003 NOSIG=
201501050400 METAR MROC 050400Z 10015G29KT 9999 FEW045 SCT120 22/16 A3004 NOSIG=
201501050500 METAR MROC 050500Z 10011G21KT 9999 FEW045 SCT130 BKN250 22/15 A3003 NOSIG=
201501050600 METAR MROC 050600Z 09011KT 9999 FEW040 SCT130 BKN250 21/15 A3003 NOSIG=
201501050700 METAR MROC 050700Z 10013G23KT 9999 FEW040 SCT130 BKN250 21/15 A3001 NOSIG=
201501050800 METAR MROC 050800Z 09014G24KT 9999 FEW040 SCT130 BKN250 21/15 A3000 NOSIG=
201501050900 METAR MROC 050900Z 09013G23KT 9999 FEW040 SCT090 21/15 A2999 NOSIG=
201501051000 METAR MROC 051000Z 09013G24KT 9999 FEW040 SCT120 21/15 A3001 NOSIG=
201501051100 METAR MROC 051100Z 08014G24KT 9999 FEW040 SCT100 22/15 A3002 NOSIG=
201501051200 METAR MROC 051200Z 09015G29KT 9999 FEW040 SCT250 21/15 A3002 NOSIG=
201501051300 METAR MROC 051300Z 07019G29KT 9999 FEW040 SCT250 23/13 A3003 NOSIG=
201501051400 METAR MROC 051400Z 08015G27KT 9999 FEW040 SCT250 24/15 A3006 NOSIG=
201501051500 METAR MROC 051500Z 07018G28KT 9999 FEW040 25/13 A3006 NOSIG=
201501051600 METAR MROC 051600Z 07019G34KT 9999 FEW040 26/14 A3005 NOSIG=
201501051700 METAR MROC 051700Z 07023G33KT 9999 FEW040 26/13 A3002 NOSIG=
201501051800 METAR MROC 051800Z 07022G33KT 9999 FEW045 27/13 A3000 NOSIG=
201501051900 METAR MROC 051900Z 06022G37KT 9999 FEW035 27/14 A2998 NOSIG=
201501052000 METAR MROC 052000Z 07020G30KT CAVOK 26/14 A2997 NOSIG=
201501052100 METAR MROC 052100Z 07021G31KT 9999 FEW040 BKN250 26/13 A2995 NOSIG=
201501052200 METAR MROC 052200Z 07018G30KT 9999 FEW040 BKN250 25/13 A2995 NOSIG=
201501052300 METAR MROC 052300Z 07017G27KT 9999 FEW040 BKN250 24/12 A2997 NOSIG=
201501052355 METAR MROC 060000Z 08015G28KT 9999 FEW040 BKN250 22/14 A3000 NOSIG=
201501060000 METAR MROC 060000Z 08015G28KT 9999 FEW040 BKN250 22/14 A3000 NOSIG=
201501060100 METAR MROC 060100Z 07018G29KT 9999 FEW040 SCT250 22/14 A3001 NOSIG=
201501060200 METAR MROC 060200Z 07015G26KT 9999 FEW040 22/14 A3001 NOSIG=
201501060300 METAR MROC 060300Z 09014G24KT 9999 FEW040 21/15 A3001 NOSIG=
201501060400 METAR MROC 060400Z 09010KT 9999 FEW030 SCT250 21/15 A3002 NOSIG=
201501060500 METAR MROC NIL=
201501060600 METAR MROC 060600Z 07014KT 9999 FEW030 22/14 A2998 NOSIG=
201501060700 METAR MROC 060700Z 07018G29KT 9999 FEW030 22/14 A2996 NOSIG=
201501060800 METAR MROC 060800Z 07016G27KT CAVOK 22/14 A2995 NOSIG=
201501060900 METAR MROC 060900Z 07016G28KT CAVOK 21/14 A2995 NOSIG=
201501061000 METAR MROC 061000Z 07022G34KT CAVOK 22/13 A2994 NOSIG=
201501061100 METAR MROC 061100Z 07021G33KT 9999 FEW030 22/12 A2995 NOSIG=
201501061200 METAR MROC 061200Z 08017G27KT 9999 FEW030 21/13 A2998 NOSIG=
201501061300 METAR MROC 061300Z 09015KT 9999 FEW030 21/14 A3000 NOSIG=
201501061400 METAR MROC 061400Z 08020G33KT 9999 FEW030 23/13 A3002 NOSIG=
201501061500 METAR MROC 061500Z 08015G27KT 9999 FEW030 25/13 A3002 NOSIG=
201501061600 METAR MROC 061600Z 07019G30KT 9999 FEW030 26/14 A3002 NOSIG=
201501061700 METAR MROC 061700Z 06024G38KT 9999 FEW030 27/12 A2999 NOSIG=
201501061800 METAR MROC 061800Z 07020G32KT 9999 FEW035 27/14 A2997 NOSIG=
201501061900 METAR MROC 061900Z 07020G32KT 9999 FEW040 27/14 A2995 NOSIG=
201501062000 METAR MROC 062000Z 07020G30KT 9999 FEW040 27/14 A2993 NOSIG=
201501062100 METAR MROC 062100Z 06020G33KT 9999 FEW035 26/15 A2992 NOSIG=
201501062200 METAR MROC 062200Z 07015G28KT 9999 FEW035 25/14 A2992 NOSIG=
201501062300 METAR MROC 062300Z 07019G31KT 9999 FEW035 24/13 A2992 NOSIG=
201501070000 METAR MROC 070000Z 07020G30KT 9999 FEW035 23/14 A2992 NOSIG=
201501070100 METAR MROC 070100Z 08020G37KT 9999 FEW035 23/15 A2994 NOSIG=
201501070200 METAR MROC 070200Z 08016G30KT 9999 FEW035 23/14 A2997 NOSIG=
201501070300 METAR MROC 070300Z 08013G23KT 9999 FEW035 22/15 A2997 NOSIG=
201501070400 METAR MROC 070400Z 08014G24KT 9999 FEW035 22/14 A2997 NOSIG=
201501070500 METAR MROC 070500Z 07016G27KT 9999 FEW035 22/13 A2997 NOSIG=
201501070600 METAR MROC 070600Z 07013G27KT CAVOK 22/12 A2997 NOSIG=
201501070700 METAR MROC 070700Z 09010G20KT 9999 FEW035 20/14 A2995 NOSIG=
201501070800 METAR MROC 070800Z 08014G24KT 9999 FEW035 21/13 A2995 NOSIG=
201501070900 METAR MROC 070900Z 10014G25KT 9999 FEW035 20/13 A2993 NOSIG=
201501071000 METAR MROC 071000Z 08014G24KT 9999 FEW035 20/13 A2996 NOSIG=
201501071100 METAR MROC 071100Z 09010KT 9999 FEW035 19/13 A2997 NOSIG=
201501071200 METAR MROC 071200Z 10010KT CAVOK 19/13 A2999 NOSIG=
201501071300 METAR MROC 071300Z 09012G22KT 9999 FEW035 20/13 A3001 NOSIG=
201501071400 METAR MROC 071400Z 09012G22KT 9999 FEW035 22/13 A3003 NOSIG=
201501071500 METAR MROC 071500Z 07015G26KT 9999 FEW035 24/13 A3002 NOSIG=
201501071600 METAR MROC 071600Z 07019G31KT 9999 FEW035 24/14 A3001 NOSIG=
201501071700 METAR MROC 071700Z 06017G27KT 9999 FEW035 25/14 A2998 NOSIG=
201501071800 METAR MROC 071800Z 07020G30KT 9999 FEW035 25/13 A2995 NOSIG=
201501071900 METAR MROC 071900Z 06023G35KT 9999 FEW035 26/12 A2992 NOSIG=
201501072000 METAR MROC 072000Z 06021G34KT 9999 FEW045 26/11 A2989 NOSIG=
201501072100 METAR MROC 072100Z 06023G33KT 9999 FEW045 26/21 A2988 NOSIG=
201501072200 METAR MROC 072200Z 07019G32KT 9999 FEW045 25/13 A2990 NOSIG=
201501072300 METAR MROC 072300Z 08020G30KT 9999 FEW045 22/15 A2991 NOSIG=
201501080000 METAR MROC 080000Z 08017G27KT 9999 FEW040 21/14 A2993 NOSIG=
201501080100 METAR MROC 080100Z 09015G25KT 9999 FEW040 21/15 A2996 NOSIG=
201501080200 METAR MROC 080200Z 09013G24KT 9999 FEW040 21/15 A2996 NOSIG=
201501080300 METAR MROC 080300Z 09014G24KT 9999 FEW040 SCT080 21/15 A2998 NOSIG=
201501080400 METAR MROC 080400Z 10014G25KT 9999 FEW035 21/16 A2998 NOSIG=
201501080500 METAR MROC 080500Z 10014G24KT 9999 FEW035 20/15 A2997 NOSIG=
201501080600 METAR MROC 080600Z 09011G21KT 9999 FEW035 21/14 A2997 NOSIG=
201501080700 METAR MROC 080700Z 09015G25KT 9999 FEW035 SCT120 20/15 A2995 NOSIG=
201501080800 METAR MROC 080800Z 09015G25KT 9999 FEW035 SCT120 21/13 A2994 NOSIG=
201501080900 METAR MROC 080900Z 10016G26KT 9999 FEW035 20/14 A2995 NOSIG=
201501081000 METAR MROC 081000Z 09017G27KT 9999 FEW035 19/13 A2997 NOSIG=
201501081100 METAR MROC 081100Z 08013G25KT 9999 FEW035 20/14 A2999 NOSIG=
201501081200 METAR MROC 081200Z 10016G26KT 9999 FEW030 20/13 A2999 NOSIG=
201501081300 METAR MROC 081300Z 10017G29KT 9999 FEW030 SCT140 20/14 A3003 NOSIG=
201501081400 METAR MROC 081400Z 08016G26KT 9999 FEW035 22/13 A3004 NOSIG=
201501081500 METAR MROC 081500Z 08020G35KT 9999 FEW035 23/13 A3003 NOSIG=
201501081600 METAR MROC 081600Z 09020G33KT 9999 FEW035 24/12 A3002 NOSIG=
201501081700 METAR MROC 081700Z 09020G37KT 9999 FEW040 25/11 A2999 NOSIG=
201501081800 METAR MROC 081800Z 08018G29KT 9999 FEW040 25/12 A2997 NOSIG=
201501081900 METAR MROC 081900Z 08019G33KT FEW040 26/12 A2994 NOSIG=
201501082000 METAR MROC 082000Z 08018G29KT 9999 FEW040 25/14 A2992 NOSIG=
201501082100 METAR MROC 082100Z 07021G33KT 9999 FEW035 24/11 A2992 NOSIG=
201501082200 METAR MROC 082200Z 07019G29KT 9999 FEW035 24/11 A2994 NOSIG=
201501082300 METAR MROC 082300Z 08017G28KT 9999 FEW035 22/13 A2996 NOSIG=
201501090000 METAR MROC 090000Z 09015G25KT 9999 FEW035 21/12 A2997 NOSIG=
201501090100 METAR MROC 090100Z 09016G28KT 9999 FEW035 20/13 A2998 NOSIG=
201501090200 METAR MROC 090200Z 09015G25KT 9999 FEW035 20/13 A2999 NOSIG=
201501090300 METAR MROC 090300Z 09014G24KT CAVOK 20/13 A2999 NOSIG=
201501090400 METAR MROC 090400Z 09015G27KT CAVOK 20/14 A2999 NOSIG=
201501090500 METAR MROC 090500Z 09013G23KT CAVOK 20/13 A2997 NOSIG=
201501090600 METAR MROC 090600Z 10013G24KT CAVOK 20/13 A2996 NOSIG=
201501090700 METAR MROC 090700Z 10016G29KT CAVOK 20/14 A2995 NOSIG=
201501090800 METAR MROC 090800Z 10016G26KT CAVOK 20/14 A2994 NOSIG=
201501090900 METAR MROC 090900Z 09015G25KT CAVOK 20/14 A2994 NOSIG=
201501091000 METAR MROC 091000Z 10012G22KT CAVOK 19/13 A2996 NOSIG=
201501091100 METAR MROC 091100Z 10015G25KT CAVOK 20/14 A2998 NOSIG=
201501091200 METAR MROC 091200Z 10014G24KT CAVOK 20/14 A2999 NOSIG=
201501091300 METAR MROC 091300Z 09016G29KT 9999 FEW035 BKN120 20/14 A3002 NOSIG=
201501091400 METAR MROC 091400Z 10015G25KT 9999 FEW035 BKN120 20/15 A3003 NOSIG=
201501091500 METAR MROC 091500Z 10016G27KT 9999 FEW035 BKN120 22/14 A3003 NOSIG=
201501091600 METAR MROC 091600Z 09018G30KT 9999 FEW035 SCT120 24/15 A3003 NOSIG=
201501091700 METAR MROC 091700Z 09019G30KT 9999 FEW035 SCT120 25/13 A3002 NOSIG=
201501091800 METAR MROC 091800Z 08015G25KT 9999 FEW035 26/12 A2999 NOSIG=
201501091900 METAR MROC 091900Z 09017G29KT 9999 FEW035 26/12 A2996 NOSIG=
201501092000 METAR MROC 092000Z 08017G28KT 9999 FEW035 25/14 A2996 NOSIG=
201501092100 METAR MROC 092100Z 08016G26KT 9999 FEW030 25/14 A2995 NOSIG=
201501092200 METAR MROC 092200Z 08014G24KT 9999 FEW030 24/12 A2995 NOSIG=
201501092300 METAR MROC 092300Z 09014G24KT 9999 FEW030 SCT250 23/13 A2996 NOSIG=
201501100000 METAR MROC 100000Z 10012G23KT 9999 FEW040 21/14 A2999 NOSIG=
201501100100 METAR MROC 100100Z 10011G21KT 9999 FEW040 20/14 A3002 NOSIG=
201501100200 METAR MROC 100200Z 10011G22KT 9999 FEW040 20/14 A3003 NOSIG=
201501100300 METAR MROC 100300Z 10010G20KT 9999 FEW040 20/14 A3003 NOSIG=
201501100400 METAR MROC 100400Z 09014G25KT 9999 FEW040 21/14 A3002 NOSIG=
201501100500 METAR MROC 100500Z 10012G22KT CAVOK 20/14 A3002 NOSIG=
201501100600 METAR MROC 100600Z 10014G24KT CAVOK 20/14 A3000 NOSIG=
201501100700 METAR MROC 100700Z 10013G23KT CAVOK 20/15 A2998 NOSIG=
201501100800 METAR MROC 100800Z 10013G23KT 9999 FEW045 20/15 A2997 NOSIG=
201501100900 METAR MROC 100900Z 10016G26KT CAVOK 21/13 A2995 NOSIG=
201501101000 METAR MROC 101000Z 10014G28KT CAVOK 20/14 A2996 NOSIG=
201501101100 METAR MROC 101100Z 09016G27KT CAVOK 20/15 A2997 NOSIG=
201501101200 METAR MROC 101200Z 09014G25KT 9999 FEW040 21/15 A2998 NOSIG=
201501101300 METAR MROC 101300Z 09017G29KT 9999 FEW040 21/15 A3001 NOSIG=
201501101400 METAR MROC 101400Z 09016G29KT 9999 FEW040 22/16 A3002 NOSIG=
201501101500 METAR MROC 101500Z 09017G27KT 9999 FEW030 24/16 A3003 NOSIG=
201501101600 METAR MROC 101600Z 11015G26KT 9999 FEW030 26/16 A3003 NOSIG=
201501101700 METAR MROC 101700Z 10017G27KT 9999 FEW035 27/15 A3001 NOSIG=
201501101800 METAR MROC 101800Z 09017G31KT 9999 SCT030 27/14 A3000 NOSIG=
201501101900 METAR MROC 101900Z 08015G25KT 9999 SCT030 27/14 A2997 NOSIG=
201501102000 METAR MROC 102000Z 07019G30KT 9999 FEW045 26/13 A2995 NOSIG=
201501102100 METAR MROC 102100Z 07011G21KT 9999 FEW045 25/13 A2996 NOSIG=
201501102200 METAR MROC 102200Z 07014G24KT 9999 FEW045 25/14 A2997 NOSIG=
201501102300 METAR MROC 102300Z 08014G24KT 9999 FEW040 24/14 A2998 NOSIG=
201501102349 METAR MROC 110000Z 09010G20KT 9999 FEW040 22/13 A3000 NOSIG=
201501110000 METAR MROC 110000Z 09010G20KT 9999 FEW040 22/13 A3000 NOSIG=
201501110100 METAR MROC 110100Z 09010G20KT 9999 FEW040 21/15 A3001 NOSIG=
201501110200 METAR MROC 110200Z 09010KT CAVOK 22/15 A3002 NOSIG=
201501110300 METAR MROC 110300Z 08010KT CAVOK 21/15 A3002 NOSIG=
201501110400 METAR MROC 110400Z 09012G22KT CAVOK 21/15 A3001 NOSIG=
201501110500 METAR MROC 110500Z 10012KT CAVOK 21/15 A3001 NOSIG=
201501110600 METAR MROC 110600Z 11015G25KT CAVOK 21/15 A2998 NOSIG=
201501110700 METAR MROC 110700Z 10016G26KT CAVOK 21/16 A2996 NOSIG=
201501110800 METAR MROC 110800Z 10016G26KT CAVOK 21/16 A2995 NOSIG=
201501110900 METAR MROC 110900Z 10018KT 9999 FEW030 21/16 A2993 NOSIG=
201501111000 METAR MROC 111000Z 10015G27KT 9999 FEW030 21/16 A2995 NOSIG=
201501111100 METAR MROC 111100Z 09013KT 9999 FEW030 21/16 A2997 NOSIG=
201501111200 METAR MROC 111200Z 09013KT 9999 FEW030 21/16 A2999 NOSIG=
201501111300 METAR MROC 111300Z 09010G20KT 9999 FEW030 22/16 A3002 NOSIG=
201501111400 METAR MROC 111400Z 09010G20KT 9999 FEW030 25/15 A3004 NOSIG=
201501111500 METAR MROC 111500Z 08011G21KT 9999 FEW030 26/14 A3004 NOSIG=
201501111553 METAR MROC 151600Z 07013G23KT 9999 FEW030 27/15 A3004 NOSIG=
201501111600 METAR MROC 111600Z 07013G23KT 9999 FEW030 27/15 A3004 NOSIG=
201501111700 METAR MROC 111700Z 07015G25KT 9999 FEW035 27/14 A3002 NOSIG=
201501111800 METAR MROC 111800Z 09014G24KT 9999 FEW035 28/15 A2998 NOSIG=
201501111900 METAR MROC 111900Z 10015G27KT 9999 FEW040 SCT250 27/16 A2995 NOSIG=
201501112000 METAR MROC 112000Z 09015G25KT 9999 FEW040 SCT250 27/16 A2994 NOSIG=
201501112100 METAR MROC 112100Z 08016G26KT 9999 FEW040 SCT300 27/15 A2993 NOSIG=
201501112200 METAR MROC 112200Z 06021G34KT 9999 FEW040 SCT300 26/15 A2992 NOSIG=
201501112300 METAR MROC 112300Z 08014G24KT 9999 FEW040 SCT300 24/16 A2994=
201501120000 METAR MROC 120000Z 09011G21KT 9999 FEW040 SCT300 23/16 A2997 NOSIG=
201501120100 METAR MROC 120100Z 09014G24KT 9999 FEW040 22/17 A2999 NOSIG=
201501120200 METAR MROC 120200Z 09013G27KT CAVOK 22/16 A3001 NOSIG=
201501120300 METAR MROC 120300Z 08012G22KT CAVOK 22/16 A3001 NOSIG=
201501120400 METAR MROC 120400Z 09014G24KT CAVOK 22/16 A3000 NOSIG=
201501120500 METAR MROC 120500Z 10014G24KT CAVOK 22/17 A3000 NOSIG=
201501120600 METAR MROC 120600Z 09012G22KT 9999 FEW030 22/17 A2999 NOSIG=
201501120700 METAR MROC 120700Z 09012G22KT 9999 FEW030 22/17 A2997 NOSIG=
201501120800 METAR MROC 120800Z 09013G23KT 9999 FEW030 22/16 A2996 NOSIG=
201501120900 METAR MROC 120900Z 09012G22KT 9999 FEW030 22/16 A2995 NOSIG=
201501121000 METAR MROC 121000Z 09013KT 9999 FEW030 22/16 A2996 BECMG 09015G25KT=
201501121100 METAR MROC 121100Z 09011KT 9999 FEW030 21/16 A2997 BECMG 09015G25KT=
201501121130 METAR MROC 121130Z 09014G24KT 9999 FEW030 22/16 A2997 NOSIG=
201501121200 METAR MROC 121200Z 09016G26KT 9999 FEW030 22/16 A2998 NOSIG=
201501121300 METAR MROC 121300Z 09015G25KT 9999 FEW030 23/15 A3001 NOSIG=
201501121400 METAR MROC 121400Z 09016G27KT 9999 FEW030 24/15 A3003 NOSIG=
201501121500 METAR MROC 121500Z 09016G26KT 9999 FEW030 25/15 A3003 NOSIG=
201501121600 METAR MROC 121600Z 08018G29KT 9999 FEW030 26/14 A3003 NOSIG=
201501121700 METAR MROC 121700Z 08018G29KT 9999 FEW030 27/14 A3001 NOSIG=
201501121800 METAR MROC 121800Z 07015G25KT 9999 FEW030 28/13 A2998 NOSIG=
201501121900 METAR MROC 121900Z 07016G26KT 9999 FEW030 29/13 A2994 NOSIG=
201501122000 METAR MROC 122000Z 07016G27KT 9999 FEW030 29/13 A2993 NOSIG=
201501122100 METAR MROC 122100Z 07014G24KT 9999 FEW045 28/13 A2992 NOSIG=
201501122200 METAR MROC 122200Z 07016G26KT 9999 FEW045 27/14 A2992 NOSIG=
201501122300 METAR MROC 122300Z 09009KT 9999 FEW045 26/14 A2994 NOSIG=
201501130000 METAR MROC 130000Z 09012G22KT 9999 FEW040 24/14 A2996 NOSIG=
201501130100 METAR MROC 130100Z 08007KT 9999 FEW040 23/15 A3000 NOSIG=
201501130200 METAR MROC 130200Z 10008KT CAVOK 22/16 A3001 NOSIG=
201501130300 METAR MROC 130300Z 11015KT CAVOK 22/16 A3001 NOSIG=
201501130400 METAR MROC 130400Z 08005KT CAVOK 21/16 A3000 NOSIG=
201501130500 METAR MROC 130500Z 06016KT CAVOK 22/16 A2999 NOSIG=
201501130600 METAR MROC 130600Z 01007KT CAVOK 20/16 A2999 NOSIG=
201501130700 METAR MROC 130700Z 04005KT CAVOK 20/16 A2997 NOSIG=
201501130800 METAR MROC 130800Z 05015KT CAVOK 21/16 A2996 NOSIG=
201501130900 METAR MROC 130900Z 04009KT CAVOK 20/16 A2995 NOSIG=
201501131000 METAR MROC 131000Z 05009KT CAVOK 21/16 A2996 NOSIG=
201501131100 METAR MROC 131100Z 05010KT 9999 FEW035 20/16 A2997 NOSIG=
201501131200 METAR MROC 131200Z 10016KT 9999 FEW035 SCT120 21/16 A2998 NOSIG=
201501131300 METAR MROC 131300Z 11010KT 9999 FEW040 SCT120 23/17 A3000 NOSIG=
201501131400 METAR MROC 131400Z 11010KT 9999 FEW045 SCT150 24/17 A3003 NOSIG=
201501131500 METAR MROC 131500Z 08015KT 9999 FEW035 26/16 A3004 NOSIG=
201501131600 METAR MROC 131600Z 09012G22KT 9999 FEW045 27/16 A3002 NOSIG=
201501131700 METAR MROC 131700Z 08012G22KT 9999 SCT045 28/15 A3001 NOSIG=
201501131800 METAR MROC 131800Z 09011KT 9999 SCT035 SCT150 29/16 A2999 NOSIG=
201501131900 METAR MROC 131900Z 08011KT 9999 SCT035 SCT250 29/15 A2995 NOSIG=
201501132000 METAR MROC 132000Z 08012KT 9999 SCT035 BKN250 29/16 A2994 NOSIG=
201501132100 METAR MROC 132100Z 08010KT 9999 SCT035 BKN250 28/15 A2994 NOSIG=
201501132200 METAR MROC 132200Z 10009KT 9999 -RA SCT030 BKN120 26/17 A2993 NOSIG=
201501132300 METAR MROC 132300Z 09007KT 9999 SCT030 BKN120 24/17 A2997 NOSIG=
201501140000 METAR MROC 140000Z 11008KT 9999 SCT030 BKN120 23/16 A2998 NOSIG=
201501140100 METAR MROC 140100Z 10008KT 9999 FEW030 SCT120 23/16 A2995 NOSIG=
201501140200 METAR MROC 140200Z 10012KT 9999 FEW030 SCT120 23/16 A3002 NOSIG=
201501140300 METAR MROC 140300Z 10014G24KT 9999 FEW030 23/16 A3003 NOSIG=
201501140400 METAR MROC 140400Z 09010KT CAVOK 22/16 A3002 NOSIG=
201501140500 METAR MROC 140500Z 09014G24KT CAVOK 22/16 A3000 NOSIG=
201501140600 METAR MROC 140600Z 08011G22KT CAVOK 22/16 A2999 NOSIG=
201501140700 METAR MROC 140700Z 10016KT CAVOK 22/16 A2996 NOSIG=
201501140800 METAR MROC 140800Z 10011KT 9999 FEW035 21/16 A2995 NOSIG=
201501140900 METAR MROC 140900Z 08013G23KT CAVOK 22/15 A2993 NOSIG=
201501141000 METAR MROC 141000Z 09012G22KT CAVOK 22/14 A2994 NOSIG=
201501141100 METAR MROC 141100Z 09013G23KT CAVOK 22/15 A2995 NOSIG=
201501141200 METAR MROC 141200Z 10014G24KT 9999 FEW030 21/15 A2997 NOSIG=
201501141300 METAR MROC 141300Z 10014KT 9999 FEW035 22/16 A2999 NOSIG=
201501141400 METAR MROC 141400Z 11014KT 9999 FEW035 23/16 A3003 NOSIG=
201501141500 METAR MROC 141500Z 08012G24KT 9999 FEW035 SCT250 25/15 A3003 NOSIG=
201501141600 METAR MROC 141600Z 10014G24KT 9999 FEW035 BKN250 26/15 A3002 NOSIG=
201501141700 METAR MROC 141700Z 08014G24KT 9999 FEW035 BKN250 27/14 A3000 NOSIG=
201501141800 METAR MROC 141800Z 09014G24KT 9999 FEW035 SCT250 28/15 A2998 NOSIG=
201501141900 METAR MROC 141900Z 09014G24KT 9999 FEW035 SCT250 27/15 A2997 NOSIG=
201501142000 METAR MROC 142000Z 10011G21KT 9999 FEW035 28/15 A2995 NOSIG=
201501142100 METAR MROC 142100Z 10013G23KT 9999 FEW045 27/14 A2994 NOSIG=
201501142200 METAR MROC 142200Z 11011G21KT 9999 FEW045 BKN200 25/15 A2994 NOSIG=
201501142300 METAR MROC 142300Z 10009G19KT 9999 FEW045 BKN200 24/15 A2996 NOSIG=
201501150000 METAR MROC 150000Z 10008KT 9999 FEW040 BKN200 23/16 A2997 NOSIG=
201501150100 METAR MROC 150100Z 04008KT 9999 FEW040 SCT200 22/16 A3000 NOSIG=
201501150200 METAR MROC 150200Z 08006KT 9999 FEW040 22/16 A3002 NOSIG=
201501150300 METAR MROC 150300Z 05005KT 9999 FEW040 21/15 A3004 NOSIG=
201501150400 METAR MROC 150400Z 03004KT 9999 FEW040 21/15 A3005 NOSIG=
201501150500 METAR MROC 150500Z 09008KT CAVOK 21/15 A3004 NOSIG=
201501150600 METAR MROC 150600Z 10006KT CAVOK 20/15 A3003 NOSIG=
201501150700 METAR MROC 150700Z 10007KT CAVOK 20/15 A3001 NOSIG=
201501150800 METAR MROC 150800Z 10008KT CAVOK 20/15 A2999 NOSIG=
201501150900 METAR MROC 150900Z 10009KT CAVOK 20/14 A2998 NOSIG=
201501151000 METAR MROC 151000Z 10009KT CAVOK 20/14 A2998 NOSIG=
201501151100 METAR MROC 151100Z 10009KT CAVOK 20/13 A2999 NOSIG=
201501151200 METAR MROC 151200Z 09006KT CAVOK 20/13 A3001 NOSIG=
201501151300 METAR MROC 151300Z 10009KT CAVOK 21/14 A3003 NOSIG=
201501151400 METAR MROC 151400Z 11008KT CAVOK 24/13 A3005 NOSIG=
201501151500 METAR MROC 151500Z 11009KT CAVOK 26/11 A3005 NOSIG=
201501151600 METAR MROC 151600Z 11008KT CAVOK 29/11 A3004 NOSIG=
201501151700 METAR MROC 151700Z 14007KT CAVOK 29/11 A3003 NOSIG=
201501151800 METAR MROC 151800Z 18005KT CAVOK 29/13 A3002 BECMG 24007KT=
201501151900 METAR MROC 151900Z 16005KT 9999 FEW045 BKN250 29/13 A2999 NOSIG=
201501152000 METAR MROC 152000Z 15005KT 9999 SCT045 BKN250 30/13 A2997 NOSIG=
201501152100 METAR MROC 152100Z 12010KT 9999 FEW045 SCT250 28/14 A2996 NOSIG=
201501152200 METAR MROC 152200Z 15009KT 9999 FEW045 SCT250 28/15 A2997 NOSIG=
201501152300 METAR MROC 152300Z 24013KT 9999 SCT045 BKN250 25/20 A2999 NOSIG=
201501152354 METAR MROC 160000Z 25010KT 9999 SCT035 22/19 A3002 NOSIG=
201501160000 METAR MROC 160000Z 25010KT 9999 SCT035 22/19 A3002 NOSIG=
201501160100 METAR MROC 160100Z 27006KT 9999 FEW035 21/19 A3004 NOSIG=
201501160200 METAR MROC 160200Z 08005KT 9999 FEW035 21/19 A3007 NOSIG=
201501160300 METAR MROC 160300Z 00000KT 9999 FEW035 22/18 A3008 NOSIG=
201501160400 METAR MROC 160400Z 07008KT 9999 FEW035 21/16 A3007 NOSIG=
201501160500 METAR MROC 160500Z 10011KT 9999 FEW035 21/16 A3005 NOSIG=
201501160600 METAR MROC 160600Z 10013KT 9999 FEW035 21/16 A3003 NOSIG=
201501160700 METAR MROC 160700Z 10015G25KT 9999 FEW035 21/16 A3001 NOSIG=
201501160800 METAR MROC 160800Z 11012G24KT 9999 FEW035 21/16 A3000 NOSIG=
201501160900 METAR MROC 160900Z 10012G22KT 9999 FEW035 21/16 A3000 NOSIG=
201501161000 METAR MROC 161000Z 11012G22KT 9999 FEW035 21/15 A3001 NOSIG=
201501161100 METAR MROC 161100Z 10014KT 9999 FEW035 21/15 A3001 NOSIG=
201501161200 METAR MROC 161200Z 10012G22KT CAVOK 21/14 A3002 NOSIG=
201501161300 METAR MROC 161300Z 10013G23KT CAVOK 23/13 A3003 NOSIG=
201501161400 METAR MROC 161400Z 09010G20KT CAVOK 25/13 A3006 NOSIG=
201501161500 METAR MROC 161500Z 09010G20KT CAVOK 26/13 A3007 NOSIG=
201501161600 METAR MROC 161600Z 08010G20KT 9999 FEW035 SCT250 28/14 A3007 NOSIG=
201501161700 METAR MROC 161700Z 06014G24KT 9999 FEW035 BKN200 27/15 A3007 NOSIG=
201501161800 METAR MROC 161800Z 06012G23KT 9999 FEW035 BKN100 28/15 A3004 NOSIG=
201501161900 METAR MROC 161900Z 07014G24KT 9999 FEW030 BKN100 28/14 A3001 NOSIG=
201501162000 METAR MROC 162000Z 05017G27KT 9999 FEW030 BKN100 27/14 A2999 NOSIG=
201501162100 METAR MROC 162100Z 07014KT 9999 FEW030 BKN060 26/14 A3000 NOSIG=
201501162200 METAR MROC 162200Z 08014G24KT 9999 SCT030 BKN060 23/13 A3002 NOSIG=
201501162300 METAR MROC 162300Z 08010G20KT 9999 SCT030 BKN060 23/13 A3003 NOSIG=
201501170000 METAR MROC 170000Z 10014G24KT 9999 SCT030 BKN070 22/15 A3002 NOSIG=
201501170100 METAR MROC 170100Z 10012G24KT 9999 SCT030 BKN070 21/14 A3007 NOSIG=
201501170200 METAR MROC 170200Z 11011G21KT 9999 FEW030 BKN080 21/15 A3008 NOSIG=
201501170300 METAR MROC 170300Z 10015G25KT 9999 SCT040 21/15 A3008 NOSIG=
201501170400 METAR MROC 170400Z 10014G24KT 9999 SCT040 21/15 A3009 NOSIG=
201501170500 METAR MROC 170500Z 11013G23KT 9999 SCT040 21/15 A3006 NOSIG=
201501170600 METAR MROC 170600Z 10014G24KT 9999 SCT040 21/15 A3006 NOSIG=
201501170700 METAR MROC 170700Z 10013G23KT 9999 FEW040 SCT080 21/16 A3004 NOSIG=
201501170800 METAR MROC 170800Z 08014G24KT 9999 FEW040 21/15 A3002 NOSIG=
201501170900 METAR MROC 170900Z 09011G21KT 9999 FEW040 21/14 A3004 NOSIG=
201501171000 METAR MROC 171000Z 09012G22KT 9999 FEW040 21/14 A3003 NOSIG=
201501171100 METAR MROC 171100Z 10010G20KT 9999 FEW040 20/13 A3002 NOSIG=
201501171200 METAR MROC 171200Z 09015G26KT 9999 FEW040 BKN150 20/12 A3004 NOSIG=
201501171300 METAR MROC 171300Z 09013G23KT 9999 FEW035 BKN260 21/13 A3006 NOSIG=
201501171400 METAR MROC 171400Z 09015G25KT 9999 FEW040 BKN250 22/13 A3009 NOSIG=
201501171500 METAR MROC 171500Z 09015KT 9999 FEW040 SCT130 BKN250 23/12 A3010 NOSIG=
201501171600 METAR MROC 171600Z 09015G25KT CAVOK 25/12 A3010 NOSIG=
201501171700 METAR MROC 171700Z 09012G23KT CAVOK 26/13 A3011 NOSIG=
201501171800 METAR MROC 171800Z 07014G25KT 9999 FEW040 SCT250 26/14 A3008 NOSIG=
201501171900 METAR MROC 171900Z 08012G22KT 9999 FEW040 SCT250 27/15 A3005 NOSIG=
201501172000 METAR MROC 172000Z 08013G23KT 9999 FEW040 SCT120 26/15 A3004 NOSIG=
201501172100 METAR MROC 172100Z 09011KT 9999 FEW035 SCT080 SCT250 27/14 A3003 NOSIG=
201501172200 METAR MROC 172200Z 09010KT 9999 FEW035 BKN200 25/14 A3003 NOSIG=
201501172300 METAR MROC 172300Z 10008KT 9999 FEW035 BKN200 23/15 A3005 NOSIG=
201501180000 METAR MROC 180000Z 12007KT 9999 FEW035 SCT070 BKN200 22/15 A3006 NOSIG=
201501180100 METAR MROC 180100Z 11006KT 9999 FEW040 SCT070 21/16 A3008 NOSIG=
201501180200 METAR MROC 180200Z 07005KT 9999 FEW040 SCT070 21/16 A3009 NOSIG=
201501180300 METAR MROC 180300Z 12004KT 9999 FEW040 SCT200 20/15 A3009 NOSIG=
201501180400 METAR MROC 180400Z 02011KT CAVOK 20/15 A3009 NOSIG=
201501180500 METAR MROC 180500Z 06008KT CAVOK 21/15 A3009 NOSIG=
201501180600 METAR MROC 180600Z 05015KT CAVOK 20/15 A3005 NOSIG=
201501180700 METAR MROC 180700Z 07015KT CAVOK 20/15 A3005 NOSIG=
201501180800 METAR MROC 180800Z 04009KT CAVOK 20/15 A3004 NOSIG=
201501180900 METAR MROC 180900Z 10017KT 9999 FEW030 20/15 A3003 NOSIG=
201501181000 METAR MROC 181000Z 10010G20KT 9999 FEW030 20/15 A3003 NOSIG=
201501181100 METAR MROC 181100Z 11010G20KT 9999 FEW030 20/15 A3006 NOSIG=
201501181200 METAR MROC 181200Z 11010G20KT 9999 FEW030 SCT250 20/15 A3008 NOSIG=
201501181300 METAR MROC 181300Z 10011G21KT 9999 FEW040 SCT250 21/15 A3008 NOSIG=
201501181400 METAR MROC 181400Z 11012G25KT 9999 FEW040 SCT250 23/16 A3010 NOSIG=
201501181500 METAR MROC 181500Z 11012G22KT 9999 FEW040 SCT120 SCT200 23/16 A3011 NOSIG=
201501181600 METAR MROC 181600Z 11013G24KT 9999 FEW035 SCT130 SCT200 24/15 A3011 NOSIG=
201501181700 METAR MROC 181700Z 11011G21KT 9999 FEW035 SCT130 SCT250 26/16 A3010 NOSIG=
201501181800 METAR MROC 181800Z 10012G22KT 9999 SCT030 BKN250 27/14 A3006 NOSIG=
201501181900 METAR MROC 181900Z 12012G22KT 9999 SCT030 BKN250 26/15 A3004 NOSIG=
201501182000 METAR MROC 182000Z 12011G21KT 9999 SCT030 BKN250 27/15 A3002 NOSIG=
201501182100 METAR MROC 182100Z 11011KT 9999 FEW035 BKN250 25/14 A3002 NOSIG=
201501182200 METAR MROC 182200Z 12013KT 9999 FEW035 BKN250 23/14 A3002 NOSIG=
201501182300 METAR MROC 182300Z 10011G21KT 9999 FEW035 BKN250 21/15 A3004 NOSIG=
201501190000 METAR MROC 190000Z 09012KT 9999 FEW035 SCT250 21/15 A3005 NOSIG=
201501190100 METAR MROC 190100Z 11010KT 9999 FEW035 SCT250 20/14 A3008 NOSIG=
201501190200 METAR MROC 190200Z 10012KT 9999 FEW035 SCT250 20/15 A3009 NOSIG=
201501190300 METAR MROC 190300Z 10010KT 9999 FEW035 20/14 A3010 NOSIG=
201501190400 METAR MROC 190400Z 08007KT 9999 FEW030 19/13 A3010 NOSIG=
201501190500 METAR MROC 190500Z 10010G20KT 9999 FEW030 19/14 A3008 NOSIG=
201501190600 METAR MROC 190600Z 11010KT CAVOK 19/14 A3007 NOSIG=
201501190700 METAR MROC 190700Z 06008KT CAVOK 19/15 A3005 NOSIG=
201501190800 METAR MROC 190800Z 05004KT CAVOK 20/15 A3003 NOSIG=
201501190900 METAR MROC 190900Z 10011G21KT CAVOK 20/15 A3002 NOSIG=
201501191000 METAR MROC 191000Z 10011G21KT CAVOK 20/15 A3002 NOSIG=
201501191100 METAR MROC 191100Z 06008KT CAVOK 20/15 A3003 NOSIG=
201501191200 METAR MROC 191200Z 10015G25KT 9999 FEW030 20/15 A3001 NOSIG=
201501191300 METAR MROC 191300Z 09010G20KT 9999 FEW030 21/14 A3006 NOSIG=
201501191400 METAR MROC 191400Z 10014KT 9999 FEW030 22/14 A3008 NOSIG=
201501191500 METAR MROC 191500Z 10011G21KT 9999 SCT030 SCT250 24/15 A3010 NOSIG=
201501191600 METAR MROC 191600Z 08013KT 9999 SCT030 SCT250 26/13 A3008 NOSIG=
201501191700 METAR MROC 191700Z 08014G24KT 9999 FEW030 27/12 A3006 NOSIG=
201501191800 METAR MROC 191800Z 07013G23KT 9999 FEW035 SCT120 26/14 A3003 NOSIG=
201501191900 METAR MROC 191900Z 08013KT 9999 SCT030 BKN110 26/15 A3000 NOSIG=
201501192000 METAR MROC 192000Z 10012G22KT 9999 FEW030 BKN100 26/15 A2999 NOSIG=
201501192100 METAR MROC 192100Z 08013KT 9999 FEW030 BKN100 23/15 A2998 NOSIG=
201501192200 METAR MROC 192200Z 10010KT 9999 FEW020 SCT100 24/15 A2998 NOSIG=
201501192300 METAR MROC 192300Z 08011G21KT 9999 FEW020 BKN200 23/15 A2998 NOSIG=
201501200000 METAR MROC 200000Z 08007KT 9999 SCT025 SCT200 22/16 A2999 NOSIG=
201501200100 METAR MROC 200100Z 10008KT 9999 SCT030 22/16 A3001 NOSIG=
201501200200 METAR MROC 200200Z 10010KT 9999 FEW030 21/16 A3002 NOSIG=
201501200300 METAR MROC 200300Z 11006KT 9999 FEW030 21/16 A3003 NOSIG=
201501200400 METAR MROC 200400Z 09006KT 9999 SCT030 21/16 A3003 NOSIG=
201501200500 METAR MROC 200500Z 07005KT 9999 FEW030 SCT070 21/16 A3003 NOSIG=
201501200600 METAR MROC 200600Z 09009KT 9999 SCT030 SCT080 21/17 A3001 NOSIG=
201501200700 METAR MROC 200700Z 10007KT 9999 DZ FEW030 BKN100 21/17 A2999 NOSIG=
201501200800 METAR MROC 200800Z 06005KT 9999 FEW030 BKN100 21/17 A2998 NOSIG=
201501200900 METAR MROC 200900Z 02005KT 9999 FEW030 BKN100 21/17 A2997 NOSIG=
201501201000 METAR MROC 201000Z 10008KT 9999 FEW030 BKN120 21/16 A2997 NOSIG=
201501201100 METAR MROC 201100Z 10009KT 9999 FEW030 SCT100 21/16 A2997 NOSIG=
201501201200 METAR MROC 201200Z 09010KT 9999 SCT030 SCT130 21/15 A2999 NOSIG=
201501201300 METAR MROC 201300Z 11009KT 9999 SCT030 SCT100 22/15 A3001 NOSIG=
201501201400 METAR MROC 201400Z 09008KT 9999 FEW030 SCT100 22/14 A3004 NOSIG=
201501201500 METAR MROC 201500Z 08012G22KT 9999 FEW030 BKN100 25/13 A3004 NOSIG=
201501201600 METAR MROC 201600Z 10013G23KT 9999 FEW040 BKN100 25/14 A3004 NOSIG=
201501201700 METAR MROC 201700Z 08015G25KT 9999 FEW045 SCT100 28/11 A3004 NOSIG=
201501201800 METAR MROC 201800Z 11008KT CAVOK 28/13 A3001 NOSIG=
201501201900 METAR MROC 201900Z 08010KT CAVOK 28/12 A2998 NOSIG=
201501202000 METAR MROC 202000Z 11010G20KT CAVOK 29/13 A2995 NOSIG=
201501202100 METAR MROC 202100Z 11015KT 9999 FEW035 SCT250 28/12 A2995 NOSIG=
201501202200 METAR MROC 202200Z 09016KT 9999 FEW035 SCT250 27/12 A2995 NOSIG=
201501202300 METAR MROC 202300Z 10010G20KT 9999 FEW035 SCT250 25/14 A2996 NOSIG=
201501202354 METAR MROC 210000Z 07010G20KT 9999 FEW035 SCT250 23/13 A2998 NOSIG=
201501210000 METAR MROC 210000Z 07010G20KT 9999 FEW035 SCT250 23/13 A2998 NOSIG=
201501210100 METAR MROC 210100Z 08010G20KT 9999 FEW035 23/12 A3000 NOSIG=
201501210200 METAR MROC 210200Z 07017KT 9999 FEW035 22/13 A3003 NOSIG=
201501210300 METAR MROC 210300Z 08010G20KT CAVOK 22/12 A3004 NOSIG=
201501210400 METAR MROC 210400Z 10008KT CAVOK 20/14 A3006 NOSIG=
201501210500 METAR MROC 210500Z 10010KT CAVOK 20/14 A3005 NOSIG=
201501210600 METAR MROC 210600Z 06006KT CAVOK 19/14 A3003 NOSIG=
201501210700 METAR MROC 210700Z 11007KT CAVOK 19/13 A3001 NOSIG=
201501210800 METAR MROC 210800Z 09007KT CAVOK 19/13 A2999 NOSIG=
201501210900 METAR MROC 210900Z 09007KT CAVOK 19/13 A2999 NOSIG=
201501211000 METAR MROC 211000Z 07007KT CAVOK 19/13 A2999 NOSIG=
201501211100 METAR MROC 211100Z 10010KT CAVOK 19/13 A2999 NOSIG=
201501211200 METAR MROC NIL=
201501211300 METAR MROC 211300Z 12010G20KT CAVOK 20/13 A3002 NOSIG=
201501211400 METAR MROC 211400Z 11013G23KT CAVOK 22/12 A3004 NOSIG=
201501211500 METAR MROC 211500Z 11010G20KT CAVOK 25/12 A3005 NOSIG=
201501211600 METAR MROC 211600Z 10012G22KT CAVOK 26/11 A3004 NOSIG=
201501211700 METAR MROC 211700Z 09015G25KT 9999 FEW035 BKN250 27/09 A3004 NOSIG=
201501211800 METAR MROC 211800Z 09018KT 9999 FEW035 BKN250 28/08 A3002 NOSIG=
201501211900 METAR MROC 211900Z 07011G21KT 9999 FEW040 BKN250 28/11 A3000 NOSIG=
201501212000 METAR MROC 212000Z 09017KT 9999 FEW040 BKN250 27/10 A2998 NOSIG=
201501212100 METAR MROC 212100Z 10007KT 9999 FEW030 BKN250 27/10 A2996 NOSIG=
201501212200 METAR MROC 212200Z 11010KT 9999 FEW030 BKN250 26/13 A2996 NOSIG=
201501212300 METAR MROC 212300Z 12007KT 9999 FEW030 BKN250 24/13 A2998 NOSIG=
201501220000 METAR MROC 220000Z 11008KT 9999 FEW030 SCT150 BKN250 22/13 A3000 NOSIG=
201501220100 METAR MROC 220100Z 09007KT CAVOK 22/13 A3003 NOSIG=
201501220200 METAR MROC 220200Z 08005KT CAVOK 21/13 A3006 NOSIG=
201501220300 METAR MROC 220300Z 08004KT CAVOK 20/14 A3007 NOSIG=
201501220400 METAR MROC 220400Z 10010KT CAVOK 20/14 A3007 NOSIG=
201501220500 METAR MROC 220500Z 11009KT CAVOK 20/14 A3006 NOSIG=
201501220600 METAR MROC 220600Z 04003KT CAVOK 20/12 A3005 NOSIG=
201501220700 METAR MROC 220700Z 10009KT CAVOK 20/13 A3003 NOSIG=
201501220800 METAR MROC 220800Z 11010G21KT CAVOK 20/13 A3001 NOSIG=
201501220900 METAR MROC 220900Z 11011KT CAVOK 20/13 A3000 NOSIG=
201501221000 METAR MROC 221000Z 09007KT CAVOK 20/13 A3001 NOSIG=
201501221100 METAR MROC 221100Z 10006KT CAVOK 19/14 A3002 NOSIG=
201501221200 METAR MROC 221200Z 10007KT CAVOK 20/14 A3004 NOSIG=
201501221300 METAR MROC 221300Z 08007KT CAVOK 20/14 A3007 NOSIG=
201501221400 METAR MROC 221400Z 11008KT CAVOK 21/13 A3009 NOSIG=
201501221500 METAR MROC 221500Z 12007KT CAVOK 23/12 A3010 NOSIG=
201501221600 METAR MROC 221600Z 12009KT CAVOK 26/11 A3010 NOSIG=
201501221700 METAR MROC 221700Z 09007KT CAVOK 27/11 A3008 NOSIG=
201501221800 METAR MROC 221800Z 10006KT CAVOK 27/11 A3006 NOSIG=
201501221900 METAR MROC 221900Z 12007KT 9999 FEW040 SCT150 BKN250 29/10 A3003 NOSIG=
201501222000 METAR MROC 222000Z 10008KT 9999 FEW040 SCT150 BKN250 26/12 A3001 NOSIG=
201501222100 METAR MROC 222100Z 10008KT 9999 FEW040 BKN200 26/13 A3001 NOSIG=
201501222200 METAR MROC 222200Z 22007KT 9999 FEW040 SCT140 BKN200 24/18 A3002 NOSIG=
201501222300 METAR MROC 222300Z 23007KT 9999 FEW040 SCT140 BKN200 23/18 A3003 NOSIG=
201501230000 METAR MROC 230000Z 12006KT 9999 FEW040 SCT120 SCT200 22/16 A3004 NOSIG=
201501230100 METAR MROC 230100Z 09010KT 9999 FEW040 SCT120 21/15 A3007 NOSIG=
201501230200 METAR MROC 230200Z 11008KT 9999 FEW040 SCT120 21/15 A3008 NOSIG=
201501230300 METAR MROC 230300Z 09007KT 9999 FEW040 21/15 A3010 NOSIG=
201501230400 METAR MROC 230400Z 10011KT 9999 FEW040 20/15 A3009 NOSIG=
201501230500 METAR MROC 230500Z 08009KT 9999 FEW040 20/15 A3008 NOSIG=
201501230600 METAR MROC 230600Z 05011KT 9999 FEW040 20/15 A3006 NOSIG=
201501230700 METAR MROC 230700Z 02006KT 9999 FEW040 20/15 A3005 NOSIG=
201501230800 METAR MROC 230800Z 08014KT 9999 FEW040 20/15 A3004 NOSIG=
201501230900 METAR MROC 230900Z 06012KT 9999 FEW040 20/15 A3002 NOSIG=
201501231000 METAR MROC 231000Z 07009KT 9999 FEW040 19/15 A3003 NOSIG=
201501231100 METAR MROC 231100Z 05009KT 9999 FEW040 18/15 A3004 NOSIG=
201501231200 METAR MROC 231200Z 07008KT 9999 FEW040 SCT250 19/15 A3005 NOSIG=
201501231300 METAR MROC 231300Z 07005KT 9999 FEW040 BKN250 20/15 A3006 NOSIG=
201501231400 METAR MROC 231400Z 09009KT CAVOK 23/15 A3008 NOSIG=
201501231500 METAR MROC 231500Z 08008KT CAVOK 25/15 A3008 NOSIG=
201501231600 METAR MROC 231600Z 11007KT 9999 FEW040 BKN250 27/15 A3007 NOSIG=
201501231700 METAR MROC 231700Z 09007KT 9999 FEW040 BKN250 28/15 A3006 NOSIG=
201501231800 METAR MROC 231800Z 13005KT 9999 FEW040 BKN250 28/15 A3004 BECMG 24005KT=
201501231900 METAR MROC 231900Z 15004KT 9999 SCT040 BKN250 29/15 A3000 BECMG 24005KT=
201501232000 METAR MROC 232000Z 22004KT 9999 FEW035 BKN200 28/15 A2998 NOSIG=
201501232100 METAR MROC 232100Z 25009KT 9999 FEW040 BKN200 27/17 A2997 NOSIG=
201501232200 METAR MROC 232200Z 27010KT 9999 SCT040 BKN250 25/18 A2997 NOSIG=
201501232300 METAR MROC 232300Z 23004KT 9999 SCT030 SCT250 24/17 A2999 NOSIG=
201501240000 METAR MROC 240000Z 25004KT 9999 SCT030 SCT250 22/17 A3000 NOSIG=
201501240100 METAR MROC 240100Z 22002KT 9999 FEW035 SCT250 21/17 A3002 NOSIG=
201501240200 METAR MROC 240200Z 00000KT 9999 FEW035 SCT250 21/17 A3004 NOSIG=
201501240300 METAR MROC 240300Z 04002KT CAVOK 21/17 A3005 NOSIG=
201501240400 METAR MROC 240400Z 07006KT 9999 FEW040 21/16 A3004 NOSIG=
201501240500 METAR MROC 240500Z 08007KT CAVOK 21/16 A3003 NOSIG=
201501240600 METAR MROC 240600Z 08004KT CAVOK 20/15 A3002 NOSIG=
201501240700 METAR MROC 240700Z 08007KT CAVOK 20/14 A3001 NOSIG=
201501240800 METAR MROC 240800Z 06003KT 9999 FEW040 19/14 A3000 NOSIG=
201501240900 METAR MROC 240900Z 09005KT 9999 FEW035 18/14 A2999 NOSIG=
201501241000 METAR MROC 241000Z 03006KT 9999 FEW035 19/14 A3000 NOSIG=
201501241100 METAR MROC 241100Z 08005KT 9999 FEW035 19/14 A3002 NOSIG=
201501241200 METAR MROC 241200Z 08007KT CAVOK 19/14 A3003 NOSIG=
201501241300 METAR MROC 241300Z 08010KT 9999 FEW035 SCT100 20/14 A3004 NOSIG=
201501241400 METAR MROC 241400Z 09010G20KT 9999 FEW035 SCT100 23/15 A3005 NOSIG=
201501241500 METAR MROC 241500Z 10012G23KT 9999 FEW035 24/15 A3005 NOSIG=
201501241600 METAR MROC 241600Z 09012G22KT 9999 FEW035 25/14 A3006 NOSIG=
201501241700 METAR MROC 241700Z 09015KT 9999 SCT035 26/14 A3005 NOSIG=
201501241800 METAR MROC 241800Z 08012G22KT 9999 SCT035 27/14 A3003 NOSIG=
201501241900 METAR MROC 241900Z 09011KT 9999 SCT035 29/13 A3000 NOSIG=
201501242000 METAR MROC 242000Z 08010G20KT 9999 SCT035 28/13 A2998 NOSIG=
201501242100 METAR MROC 242100Z 08012KT 9999 FEW040 27/13 A2996 NOSIG=
201501242200 METAR MROC 242200Z 06013KT 9999 FEW040 SCT250 27/13 A2996 NOSIG=
201501242300 METAR MROC 242300Z 09009KT 9999 FEW040 SCT250 25/14 A2997 NOSIG=
201501250000 METAR MROC 250000Z 10006KT 9999 SCT035 22/16 A3000 NOSIG=
201501250100 METAR MROC 250100Z 10010KT 9999 FEW035 21/15 A3001 NOSIG=
201501250200 METAR MROC 250200Z 12010KT 9999 FEW035 20/14 A3004 NOSIG=
201501250300 METAR MROC 250300Z 11007KT 9999 SCT035 20/14 A3006 NOSIG=
201501250400 METAR MROC 250400Z 11008KT 9999 FEW035 20/14 A3004 NOSIG=
201501250500 METAR MROC 250500Z 11009KT 9999 FEW040 19/14 A3002 NOSIG=
201501250600 METAR MROC 250600Z 09011KT 9999 FEW040 20/14 A3000 NOSIG=
201501250700 METAR MROC 250700Z 10013G25KT CAVOK 20/14 A2998 NOSIG=
201501250800 METAR MROC 250800Z 10008KT CAVOK 19/12 A2997 NOSIG=
201501250900 METAR MROC 250900Z 10009KT CAVOK 19/11 A2996 NOSIG=
201501251000 METAR MROC 251000Z 07007KT CAVOK 18/11 A2996 NOSIG=
201501251100 METAR MROC 251100Z COR 09009KT CAVOK 19/12 A2997 NOSIG=
201501251200 METAR MROC 251200Z 11010KT 9999 SCT040 19/13 A2998 NOSIG=
201501251300 METAR MROC 251300Z 11012G22KT 9999 FEW040 20/14 A3000 NOSIG=
201501251400 METAR MROC 251400Z 12011KT CAVOK 22/14 A3001 NOSIG=
201501251500 METAR MROC 251500Z 11013G23KT 9999 FEW045 24/14 A3003 NOSIG=
201501251600 METAR MROC 251600Z 08013G23KT 9999 FEW040 26/13 A3002 NOSIG=
201501251700 METAR MROC 251700Z 07015KT 9999 FEW040 SCT060 26/14 A3000 NOSIG=
201501251705 METAR MROC 251705Z 06016G26KT 9999 FEW040 SCT060 27/14 A3000 NOSIG=
201501251800 METAR MROC 251800Z 07014G24KT 9999 FEW035 SCT060 26/14 A2997 NOSIG=
201501251900 METAR MROC 251900Z 07014G25KT 9999 FEW035 27/14 A2995 NOSIG=
201501252000 METAR MROC 252000Z 09012KT 9999 FEW035 27/14 A2992 NOSIG=
201501252100 METAR MROC 252100Z 07010G20KT 9999 FEW035 27/14 A2993 NOSIG=
201501252200 METAR MROC 252200Z 07015G25KT 9999 FEW035 24/14 A2993 NOSIG=
201501252300 METAR MROC 252300Z 05013G23KT 9999 FEW035 24/13 A2994 NOSIG=
201501260000 METAR MROC 260000Z 07010G20KT 9999 FEW035 SCT250 22/13 A2995 NOSIG=
201501260100 METAR MROC 260100Z 07011G21KT 9999 FEW035 21/14 A2996 NOSIG=
201501260200 METAR MROC 260200Z 08010G20KT 9999 FEW035 21/13 A2998 NOSIG=
201501260300 METAR MROC 260300Z 09015G25KT 9999 FEW030 SCT250 21/13 A2999 NOSIG=
201501260400 METAR MROC 260400Z 10016G26KT 9999 FEW030 21/14 A2999 NOSIG=
201501260500 METAR MROC 260500Z 10015G26KT 9999 FEW030 20/14 A2998 NOSIG=
201501260600 METAR MROC 260600Z 10015G25KT 9999 FEW030 20/14 A2997 NOSIG=
201501260700 METAR MROC 260700Z 11012KT 9999 FEW030 20/14 A2997 NOSIG=
201501260800 METAR MROC 260800Z 11013KT CAVOK 19/14 A2996 NOSIG=
201501260900 METAR MROC 260900Z 11011G22KT CAVOK 19/13 A2996 NOSIG=
201501261000 METAR MROC 261000Z 10011KT CAVOK 19/13 A2997 NOSIG=
201501261100 METAR MROC 261100Z 10012G22KT CAVOK 19/13 A2998 NOSIG=
201501261200 METAR MROC 261200Z 10009KT CAVOK 19/13 A3000 NOSIG=
201501261300 METAR MROC 261300Z 11016KT CAVOK 20/14 A3003 NOSIG=
201501261400 METAR MROC 261400Z 10013G23KT CAVOK 22/14 A3004 NOSIG=
201501261500 METAR MROC 261500Z 10011G21KT CAVOK 24/13 A3005 NOSIG=
201501261600 METAR MROC 261600Z 11015G25KT 9999 FEW045 25/13 A3004 NOSIG=
201501261700 METAR MROC 261700Z 10016G26KT 9999 FEW045 25/14 A3003 NOSIG=
201501261800 METAR MROC 261800Z 09016G27KT 9999 FEW035 27/14 A3001 NOSIG=
201501261900 METAR MROC 261900Z 10017G30KT 9999 FEW035 26/13 A2999 NOSIG=
201501262000 METAR MROC 262000Z 09015G27KT 9999 FEW035 26/12 A2998 NOSIG=
201501262100 METAR MROC 262100Z 10015G25KT 9999 FEW030 25/12 A2996 NOSIG=
201501262200 METAR MROC 262200Z 08012G22KT 9999 FEW030 24/14 A2996 NOSIG=
201501262300 METAR MROC 262300Z 09015G25KT 9999 FEW030 23/15 A2997 NOSIG=
201501270000 METAR MROC 270000Z 09014G25KT 9999 FEW030 21/14 A2999 NOSIG=
201501270100 METAR MROC 270100Z 10013G23KT 9999 FEW030 21/13 A3001 NOSIG=
201501270200 METAR MROC 270200Z 09014G24KT 9999 FEW030 21/13 A3002 NOSIG=
201501270300 METAR MROC 270300Z 10013G23KT 9999 FEW030 20/14 A3005 NOSIG=
201501270400 METAR MROC 270400Z 12013G23KT CAVOK 20/14 A3004 NOSIG=
201501270500 METAR MROC 270500Z 10009KT 9999 FEW030 19/14 A3005 NOSIG=
201501270600 METAR MROC 270600Z 09007KT 9999 FEW030 19/14 A3004 NOSIG=
201501270700 METAR MROC 270700Z 09010G20KT CAVOK 20/14 A3002 NOSIG=
201501270800 METAR MROC 270800Z 08011G21KT CAVOK 20/13 A3001 NOSIG=
201501270857 METAR MROC 270857Z 09014G24KT CAVOK 20/13 A3000 NOSIG=
201501270900 METAR MROC 270900Z 09014G24KT CAVOK 20/13 A3000 NOSIG=
201501271000 METAR MROC 271000Z 09010G21KT CAVOK 20/13 A3001 NOSIG=
201501271100 METAR MROC 271100Z 09012G22KT CAVOK 19/13 A3002 NOSIG=
201501271200 METAR MROC 271200Z 10013KT CAVOK 19/13 A3003 NOSIG=
201501271300 METAR MROC 271300Z 09011G21KT CAVOK 20/13 A3006 NOSIG=
201501271400 METAR MROC 271400Z 07011G21KT CAVOK 23/13 A3007 NOSIG=
201501271500 METAR MROC 271500Z 09014G24KT CAVOK 24/14 A3007 NOSIG=
201501271600 METAR MROC 271600Z 09013G23KT CAVOK 26/14 A3006 NOSIG=
201501271700 METAR MROC 271700Z 08016G26KT 9999 FEW040 SCT080 26/14 A3004 NOSIG=
201501271800 METAR MROC 271800Z 07014G24KT 9999 FEW040 SCT100 27/14 A3003 NOSIG=
201501271900 METAR MROC 271900Z 08014G24KT 9999 FEW040 26/13 A3001 NOSIG=
201501272000 METAR MROC 272000Z 07015G25KT 9999 FEW040 26/14 A2998 NOSIG=
201501272100 METAR MROC 272100Z 09012G22KT 9999 FEW040 SCT140 25/14 A2998 NOSIG=
201501272200 METAR MROC 272200Z 09009KT 9999 FEW040 BKN120 24/15 A2998 NOSIG=
201501272300 METAR MROC 272300Z 08008KT 9999 FEW035 SCT080 SCT200 23/15 A2999 NOSIG=
201501280000 METAR MROC 280000Z 10010KT 9999 -DZ FEW030 BKN120 21/16 A3001 NOSIG=
201501280100 METAR MROC 280100Z 11008KT 9999 FEW030 BKN100 21/15 A3002 NOSIG=
201501280200 METAR MROC 280200Z 09007KT 9999 FEW035 BKN100 21/16 A3004 NOSIG=
201501280300 METAR MROC 280300Z 12004KT 9999 FEW035 BKN100 21/16 A3006 NOSIG=
201501280400 METAR MROC 280400Z 13007KT 9999 FEW030 SCT120 20/16 A3007 NOSIG=
201501280500 METAR MROC 280500Z 06009KT 9999 FEW030 SCT120 20/16 A3001 NOSIG=
201501280600 METAR MROC 280600Z 09014KT 9999 FEW030 BKN120 21/16 A3000 NOSIG=
201501280700 METAR MROC 280700Z 10010KT 9999 FEW030 BKN120 21/16 A2999 NOSIG=
201501280800 METAR MROC 280800Z 03006KT 9999 FEW030 BKN120 21/16 A2997 NOSIG=
201501280900 METAR MROC 280900Z 05012KT 9999 FEW030 SCT120 20/16 A2996 NOSIG=
201501281000 METAR MROC 281000Z 13016KT 9999 FEW030 21/16 A2996 NOSIG=
201501281100 METAR MROC 281100Z 10016KT 9999 FEW030 20/15 A2997 NOSIG=
201501281200 METAR MROC 281200Z 03006KT 9999 FEW020 SCT250 21/15 A2998 NOSIG=
201501281300 METAR MROC 281300Z 08010G20KT 9999 FEW030 21/14 A2998 NOSIG=
201501281400 METAR MROC 281400Z 07010G20KT 9999 SCT035 23/14 A3001 NOSIG=
201501281500 METAR MROC 281500Z 09017G28KT 9999 SCT040 24/14 A3001 NOSIG=
201501281600 METAR MROC 281600Z 08016G26KT 9999 SCT040 25/14 A3001 NOSIG=
201501281700 METAR MROC 281700Z 09019G29KT 9999 FEW040 25/15 A2998 NOSIG=
201501281800 METAR MROC 281800Z 08016G26KT 9999 FEW040 27/14 A2996 NOSIG=
201501281900 METAR MROC 281900Z 08017G27KT 9999 SCT035 26/14 A2995 NOSIG=
201501282000 METAR MROC 282000Z 08018G29KT 9999 SCT035 25/14 A2991 NOSIG=
201501282100 METAR MROC 282100Z 08018G28KT 9999 FEW030 26/14 A2990 NOSIG=
201501282200 METAR MROC 282200Z 08018KT 9999 FEW030 25/13 A2990 NOSIG=
201501282300 METAR MROC 282300Z 08017KT 9999 FEW030 23/14 A2991 NOSIG=
201501290000 METAR MROC 290000Z 09017G28KT 9999 FEW030 21/15 A2990 NOSIG=
201501290100 METAR MROC 290100Z 09012G32KT 9999 FEW030 20/15 A2992 NOSIG=
201501290200 METAR MROC 290200Z 10015G30KT 9999 FEW030 21/14 A2995 NOSIG=
201501290300 METAR MROC 290300Z 09018G28KT 9999 FEW030 21/15 A2996 NOSIG=
201501290400 METAR MROC 290400Z 10015G25KT 9999 FEW030 20/15 A2997 NOSIG=
201501290500 METAR MROC 290500Z 10016G30KT 9999 FEW030 20/15 A2996 NOSIG=
201501290600 METAR MROC 290600Z 10015G25KT 9999 FEW030 20/14 A2995 NOSIG=
201501290700 METAR MROC 290700Z 08013G24KT 9999 FEW030 21/15 A2994 NOSIG=
201501290800 METAR MROC 290800Z 09010G20KT 9999 FEW030 20/15 A2993 NOSIG=
201501290900 METAR MROC 290900Z 10014G25KT 9999 FEW030 20/14 A2991 NOSIG=
201501291000 METAR MROC 291000Z 09010G20KT 9999 FEW030 19/14 A2993 NOSIG=
201501291100 METAR MROC 291100Z 10013G23KT 9999 FEW030 20/14 A2993 NOSIG=
201501291200 METAR MROC 291200Z 08011G21KT 9999 FEW030 21/14 A2994 NOSIG=
201501291300 METAR MROC 291300Z 09015G25KT 9999 FEW030 21/15 A2995 NOSIG=
201501291400 METAR MROC 291400Z 09015G25KT 9999 FEW030 22/15 A2997 NOSIG=
201501291500 METAR MROC 291500Z 11015G25KT 9999 FEW030 24/15 A2998 NOSIG=
201501291600 METAR MROC 291600Z 11016KT 9999 FEW030 25/15 A2998 NOSIG=
201501291700 METAR MROC 291700Z 09016G28KT 9999 FEW030 26/15 A2996 NOSIG=
201501291800 METAR MROC 291800Z 10017KT 9999 SCT030 28/14 A2995 NOSIG=
201501291900 METAR MROC 291900Z 08015G25KT 9999 SCT030 27/15 A2994 NOSIG=
201501292000 METAR MROC 292000Z 09015KT 9999 SCT030 27/15 A2991 NOSIG=
201501292005 METAR MROC 292005Z 09012G23KT 9999 SCT030 27/15 A2991 NOSIG=
201501292100 METAR MROC 292100Z 08015G25KT 9999 SCT030 26/14 A2990 NOSIG=
201501292200 METAR MROC 292200Z 09015G25KT 9999 SCT025 25/15 A2989 NOSIG=
201501292300 METAR MROC 292300Z 09017G28KT 9999 SCT030 23/15 A2991 NOSIG=
201501300000 METAR MROC 300000Z 09014G28KT 9999 SCT030 21/15 A2992 NOSIG=
201501300100 METAR MROC 300100Z 09012G22KT 9999 FEW030 21/15 A2994 NOSIG=
201501300200 METAR MROC 300200Z 08010G20KT 9999 FEW030 21/15 A2997 NOSIG=
201501300300 METAR MROC 300300Z 09009KT 9999 SCT035 21/15 A2999 NOSIG=
201501300400 METAR MROC 300400Z 09014G25KT 9999 SCT035 21/15 A2998 NOSIG=
201501300500 METAR MROC 300500Z 11010KT 9999 SCT035 20/15 A2999 NOSIG=
201501300600 METAR MROC 300600Z 10011KT 9999 FEW035 SCT080 20/15 A2998 NOSIG=
201501300700 METAR MROC 300700Z 08012KT 9999 FEW035 SCT120 21/15 A2996 NOSIG=
201501300800 METAR MROC 300800Z 11007KT 9999 FEW035 SCT110 20/15 A2995 NOSIG=
201501300900 METAR MROC 300900Z 09006KT 9999 FEW035 SCT110 20/15 A2995 NOSIG=
201501301000 METAR MROC 301000Z 10010G20KT 9999 FEW035 SCT120 20/15 A2995 NOSIG=
201501301100 METAR MROC 301100Z 10012G23KT 9999 FEW035 SCT120 20/15 A2995 NOSIG=
201501301200 METAR MROC 301200Z 11011G21KT 9999 FEW040 SCT120 20/15 A2996 NOSIG=
201501301300 METAR MROC 301300Z 10012G22KT CAVOK 21/15 A2998 NOSIG=
201501301400 METAR MROC 301400Z 10011G22KT CAVOK 23/14 A3001 NOSIG=
201501301500 METAR MROC 301500Z 10017G27KT CAVOK 24/13 A3002 NOSIG=
201501301600 METAR MROC 301600Z 10016G26KT 9999 FEW040 25/13 A3002 NOSIG=
201501301700 METAR MROC 301700Z 09017G27KT 9999 FEW040 26/14 A3000 NOSIG=
201501301800 METAR MROC 301800Z 10016G26KT 9999 FEW040 26/15 A2999 NOSIG=
201501301900 METAR MROC 301900Z 09016G28KT 9999 FEW040 26/14 A2997 NOSIG=
201501302000 METAR MROC 302000Z 08015G25KT 9999 FEW035 27/13 A2995 NOSIG=
201501302100 METAR MROC 302100Z 08011G21KT 9999 FEW035 26/15 A2994 NOSIG=
201501302200 METAR MROC 302200Z 09015G26KT 9999 FEW035 24/14 A2994 NOSIG=
201501302300 METAR MROC 302300Z 09014G24KT 9999 FEW035 24/13 A2995 NOSIG=
201501302352 METAR MROC 310000Z 09010G20KT 9999 FEW035 22/13 A2997 NOSIG=
201501310000 METAR MROC 310000Z 09010G20KT 9999 FEW035 22/13 A2997 NOSIG=
201501310100 METAR MROC 310100Z 09011G21KT 9999 FEW035 21/14 A2999 NOSIG=
201501310200 METAR MROC 310200Z 09010G20KT 9999 FEW035 20/14 A3002 NOSIG=
201501310300 METAR MROC 310300Z 08014KT 9999 FEW035 20/13 A3003 NOSIG=
201501310400 METAR MROC 310400Z 08018KT 9999 FEW035 19/12 A3004 NOSIG=
201501310500 METAR MROC 310500Z 10014G24KT CAVOK 20/13 A3002 NOSIG=
201501310600 METAR MROC 310600Z 10015G25KT CAVOK 19/13 A3000 NOSIG=
201501310700 METAR MROC 310700Z 10014G24KT CAVOK 19/14 A2999 NOSIG=
201501310800 METAR MROC 310800Z 10014G24KT CAVOK 20/13 A2997 NOSIG=
201501310900 METAR MROC 310900Z 10012KT CAVOK 20/13 A2996 NOSIG=
201501311000 METAR MROC 311000Z 09013KT CAVOK 20/13 A2996 NOSIG=
201501311100 METAR MROC 311100Z 10014KT CAVOK 20/14 A2997 NOSIG=
201501311200 METAR MROC 311200Z 09014G24KT CAVOK 20/14 A2999 NOSIG=
201501311300 METAR MROC 311300Z 09015G27KT CAVOK 22/13 A3000 NOSIG=
201501311400 METAR MROC 311400Z 09016G27KT CAVOK 23/13 A3002 NOSIG=
201501311500 METAR MROC 311500Z 08017G27KT CAVOK 24/14 A3004 NOSIG=
201501311600 METAR MROC 311600Z 08015G25KT 9999 FEW045 25/13 A3004 NOSIG=
201501311700 METAR MROC 311700Z 08015G25KT 9999 FEW035 26/13 A3002 NOSIG=
201501311800 METAR MROC 311800Z 08012G22KT CAVOK 27/12 A3000 NOSIG=
201501311900 METAR MROC 311900Z 10018G30KT 9999 FEW045 26/14 A2998 NOSIG=
201501312000 METAR MROC 312000Z 08015G25KT 9999 FEW045 27/14 A2996 NOSIG=
201501312100 METAR MROC 312100Z 08018G30KT 9999 FEW040 26/13 A2995 NOSIG=
201501312200 METAR MROC 312200Z 09016G26KT 9999 FEW040 25/14 A2995 NOSIG=
201501312300 METAR MROC 312300Z 08013G23KT 9999 FEW040 23/15 A2997 NOSIG=
201502010000 METAR MROC 010000Z 08014G24KT CAVOK 21/14 A2998 NOSIG=
201502010100 METAR MROC 010100Z 07014G25KT CAVOK 21/13 A2998 NOSIG=
201502010200 METAR MROC 010200Z 09018G28KT CAVOK 21/13 A3001 NOSIG=
201502010300 METAR MROC 010300Z 10014G24KT CAVOK 20/14 A3002 NOSIG=
201502010400 METAR MROC 010400Z 10015G25KT CAVOK 20/13 A3002 NOSIG=
201502010500 METAR MROC 010500Z 10015G25KT CAVOK 20/13 A3002 NOSIG=
201502010600 METAR MROC 010600Z 10012G22KT CAVOK 20/12 A3000 NOSIG=
201502010700 METAR MROC 010700Z 11011G21KT CAVOK 20/12 A2998 NOSIG=
201502010800 METAR MROC 010800Z 11014G24KT CAVOK 20/12 A2996 NOSIG=
201502010900 METAR MROC 010900Z 10013G24KT CAVOK 20/12 A2995 NOSIG=
201502011000 METAR MROC 011000Z 10014G24KT CAVOK 20/12 A2995 NOSIG=
201502011100 METAR MROC 011100Z 10013G23KT CAVOK 20/13 A2997 NOSIG=
201502011200 METAR MROC 011200Z 10012G22KT CAVOK 21/13 A2998 NOSIG=
201502011300 METAR MROC 011300Z 11012G22KT CAVOK 21/14 A3002 NOSIG=
201502011400 METAR MROC 011400Z 11013G24KT CAVOK 23/14 A3004 NOSIG=
201502011500 METAR MROC 011500Z 09017G30KT CAVOK 24/14 A3005 NOSIG=
201502011600 METAR MROC 011600Z 09017G32KT CAVOK 25/14 A3005 NOSIG=
201502011700 METAR MROC 011700Z 09016G27KT CAVOK 27/13 A3002 NOSIG=
201502011800 METAR MROC 011800Z 09012G25KT CAVOK 28/14 A3000 NOSIG=
201502011900 METAR MROC 011900Z 10013G23KT CAVOK 27/14 A2997 NOSIG=
201502012000 METAR MROC 012000Z 09013G23KT 9999 FEW040 28/14 A2995 NOSIG=
201502012100 METAR MROC 012100Z 09011KT 9999 FEW040 28/13 A2994 NOSIG=
201502012200 METAR MROC 012200Z 08012G23KT 9999 FEW040 26/13 A2994 NOSIG=
201502012300 METAR MROC 012300Z 07009KT 9999 FEW040 25/13 A2995 NOSIG=
201502020000 METAR MROC 020000Z 07009KT 9999 FEW040 24/13 A2996 NOSIG=
201502020100 METAR MROC 020100Z 10005KT 9999 FEW040 22/15 A2998 NOSIG=
201502020200 METAR MROC 020200Z 11011KT 9999 FEW040 21/16 A2999 NOSIG=
201502020300 METAR MROC 020300Z 10010G20KT 9999 FEW040 22/15 A3000 NOSIG=
201502020400 METAR MROC 020400Z 11011G21KT 9999 FEW040 21/15 A2999 NOSIG=
201502020500 METAR MROC 020500Z 10016KT 9999 FEW040 21/15 A2999 NOSIG=
201502020600 METAR MROC 020600Z 08011KT 9999 FEW040 20/15 A2999 NOSIG=
201502020700 METAR MROC 020700Z 07009KT 9999 FEW040 20/14 A2997 NOSIG=
201502020800 METAR MROC 020800Z 09014KT 9999 FEW040 20/15 A2995 NOSIG=
201502020900 METAR MROC 020900Z 06011KT CAVOK 19/14 A2995 NOSIG=
201502021000 METAR MROC 021000Z 09008KT CAVOK 19/13 A2997 NOSIG=
201502021100 METAR MROC 021100Z 06009KT CAVOK 19/14 A2997 NOSIG=
201502021200 METAR MROC 021200Z 04004KT CAVOK 18/13 A2999 NOSIG=
201502021300 METAR MROC 021300Z 08007KT 9999 FEW045 21/14 A3001 NOSIG=
201502021400 METAR MROC 021400Z 11012G22KT 9999 FEW045 24/14 A3002 NOSIG=
201502021500 METAR MROC 021500Z 10014G24KT CAVOK 25/13 A3004 NOSIG=
201502021600 METAR MROC 021600Z 11010G20KT CAVOK 27/12 A3002 NOSIG=
201502021700 METAR MROC 021700Z 10010G22KT CAVOK 29/13 A3000 NOSIG=
201502021800 METAR MROC 021800Z 08013G23KT 9999 FEW045 29/14 A2999 NOSIG=
201502021900 METAR MROC 021900Z 08013G23KT 9999 FEW040 29/14 A2996 NOSIG=
201502022000 METAR MROC 022000Z 10013G21KT 9999 SCT035 29/15 A2994 NOSIG=
201502022100 METAR MROC 022100Z 08014KT 9999 SCT035 28/15 A2993 NOSIG=
201502022200 METAR MROC 022200Z 07012G22KT 9999 FEW035 27/15 A2994 NOSIG=
201502022300 METAR MROC 022300Z 08014G24KT 9999 FEW035 25/15 A2994 NOSIG=
201502030000 METAR MROC 030000Z 10015KT 9999 FEW035 23/16 A2996 NOSIG=
201502030100 METAR MROC 030100Z 09012KT 9999 FEW035 23/16 A2997 NOSIG=
201502030200 METAR MROC 030200Z 10014KT 9999 FEW035 22/16 A2999 NOSIG=
201502030300 METAR MROC 030300Z 09014G24KT 9999 FEW035 22/16 A3001 NOSIG=
201502030400 METAR MROC 030400Z 10014G24KT 9999 FEW035 22/16 A3001 NOSIG=
201502030500 METAR MROC 030500Z 10015G25KT 9999 FEW035 22/16 A3001 NOSIG=
201502030600 METAR MROC 030600Z 09014G25KT CAVOK 22/16 A3000 NOSIG=
201502030700 METAR MROC NIL=
201502030800 METAR MROC 030800Z 11012G22KT CAVOK 21/16 A2995 NOSIG=
201502030900 METAR MROC 030900Z 09011G21KT CAVOK 22/16 A2995 NOSIG=
201502031000 METAR MROC 031000Z 09010KT 9999 FEW035 21/15 A2995 NOSIG=
201502031100 METAR MROC 031100Z 11010G20KT CAVOK 21/15 A2996 NOSIG=
201502031200 METAR MROC 031200Z 11015G25KT 9999 FEW030 21/16 A2996 NOSIG=
201502031300 METAR MROC 031300Z 09013G23KT 9999 FEW035 22/16 A2999 NOSIG=
201502031400 METAR MROC 031400Z 10015G25KT 9999 FEW035 23/15 A3000 NOSIG=
201502031500 METAR MROC 031500Z 08017G29KT 9999 SCT035 25/15 A3002 NOSIG=
201502031600 METAR MROC 031600Z 08019G31KT 9999 SCT035 26/13 A3002 NOSIG=
201502031700 METAR MROC 031700Z 08018KT 9999 SCT035 27/12 A3001 NOSIG=
201502031800 METAR MROC 031800Z 08018G28KT 9999 FEW035 27/13 A2999 NOSIG=
201502031900 METAR MROC 031900Z 06020G30KT 9999 FEW035 28/12 A2996 NOSIG=
201502032000 METAR MROC 032000Z 07018G29KT 9999 FEW035 SCT250 26/14 A2994 NOSIG=
201502032100 METAR MROC 032100Z 08015G25KT 9999 FEW030 BKN200 27/14 A2993 NOSIG=
201502032200 METAR MROC 032200Z 09017G30KT 9999 FEW035 SCT200 25/15 A2993 NOSIG=
201502032300 METAR MROC 032300Z 09015G25KT 9999 FEW035 BKN200 23/15 A2993 NOSIG=
201502040000 METAR MROC 040000Z 09013G23KT 9999 FEW040 SCT200 22/15 A2993 NOSIG=
201502040100 METAR MROC 040100Z 10015G25KT 9999 FEW040 21/16 A2995 NOSIG=
201502040200 METAR MROC 040200Z 09015G25KT 9999 FEW040 21/15 A2997 NOSIG=
201502040300 METAR MROC 040300Z 09014G24KT 9999 FEW040 BKN100 21/15 A2999 NOSIG=
201502040400 METAR MROC 040400Z 10014G27KT 9999 FEW040 BKN100 21/15 A2999 NOSIG=
201502040500 METAR MROC 040500Z 10015G29KT 9999 FEW040 BKN100 21/16 A2998 NOSIG=
201502040600 METAR MROC 040600Z 10012G22KT 9999 FEW035 BKN100 21/16 A2998 NOSIG=
201502040700 METAR MROC 040700Z 11012G22KT 9999 FEW040 21/15 A2996 NOSIG=
201502040800 METAR MROC 040800Z 10012G24KT 9999 FEW040 SCT100 20/15 A2994 NOSIG=
201502040900 METAR MROC 040900Z 10016G27KT 9999 FEW040 BKN100 21/15 A2992 NOSIG=
201502041000 METAR MROC 041000Z 11010G20KT 9999 FEW040 SCT100 20/15 A2993 NOSIG=
201502041100 METAR MROC 041100Z 10013G23KT 9999 FEW040 SCT100 20/15 A2995 NOSIG=
201502041200 METAR MROC 041200Z 10011KT 9999 FEW040 SCT250 21/14 A2996 NOSIG=
201502041300 METAR MROC 041300Z 10014G24KT 9999 FEW035 21/14 A2997 NOSIG=
201502041400 METAR MROC 041400Z 10016G26KT CAVOK 23/15 A2998 NOSIG=
201502041500 METAR MROC 041500Z 11016G26KT CAVOK 24/14 A2999 NOSIG=
201502041600 METAR MROC 041600Z 09016G26KT 9999 FEW035 26/14 A3000 NOSIG=
201502041700 METAR MROC 041700Z 10013G24KT 9999 FEW035 27/13 A2999 NOSIG=
201502041800 METAR MROC 041800Z 08012G22KT 9999 FEW035 28/13 A2996 NOSIG=
201502041900 METAR MROC 041900Z 11011G22KT 9999 FEW035 SCT200 28/14 A2994 NOSIG=
201502042000 METAR MROC 042000Z 12011G22KT 9999 FEW035 28/14 A2992 NOSIG=
201502042100 METAR MROC 042100Z 11012G22KT 9999 FEW035 SCT200 27/15 A2990 NOSIG=
201502042200 METAR MROC 042200Z 11011KT 9999 FEW035 SCT200 25/16 A2990 NOSIG=
201502042300 METAR MROC 042300Z 11011G21KT 9999 FEW030 SCT200 24/16 A2991 NOSIG=
201502050000 METAR MROC 050000Z 11008KT 9999 FEW035 SCT200 22/16 A2993 NOSIG=
201502050100 METAR MROC 050100Z 10009KT CAVOK 21/16 A2994 NOSIG=
201502050200 METAR MROC 050200Z 09009KT CAVOK 22/15 A2995 NOSIG=
201502050300 METAR MROC 050300Z 07006KT CAVOK 22/15 A2996 NOSIG=
201502050400 METAR MROC NIL=
201502050500 METAR MROC 050500Z 07008KT CAVOK 21/16 A2998 NOSIG=
201502050600 METAR MROC 050600Z 07008KT CAVOK 21/16 A2997 NOSIG=
201502050700 METAR MROC 050700Z 03004KT CAVOK 19/15 A2997 NOSIG=
201502050800 METAR MROC 050800Z 08006KT CAVOK 20/15 A2995 NOSIG=
201502050900 METAR MROC 050900Z 08006KT CAVOK 20/15 A2995 NOSIG=
201502051000 METAR MROC 051000Z 07007KT CAVOK 20/15 A2996 NOSIG=
201502051100 METAR MROC 051100Z 08005KT CAVOK 19/15 A2998 NOSIG=
201502051200 METAR MROC 051200Z 05007KT 9999 FEW035 SCT250 19/14 A2998 NOSIG=
201502051300 METAR MROC 051300Z COR 09008KT 9999 FEW035 SCT250 22/15 A3000 NOSIG=
201502051400 METAR MROC 051400Z 10010KT CAVOK 23/15 A3001 NOSIG=
201502051500 METAR MROC 051500Z 10011KT CAVOK 26/14 A3001 NOSIG=
201502051600 METAR MROC 051600Z 09012KT CAVOK 28/13 A3001 NOSIG=
201502051700 METAR MROC 051700Z 09012KT CAVOK 29/14 A2999 NOSIG=
201502051800 METAR MROC 051800Z 09011G21KT 9999 FEW030 30/14 A2997 NOSIG=
201502051900 METAR MROC 051900Z 08011G21KT 9999 FEW030 29/15 A2996 NOSIG=
201502052000 METAR MROC 052000Z 10011KT 9999 FEW030 29/15 A2992 NOSIG=
201502052100 METAR MROC 052100Z 10011G22KT 9999 FEW035 28/16 A2992 NOSIG=
201502052200 METAR MROC 052200Z 10012G22KT 9999 FEW035 27/16 A2991 NOSIG=
201502052300 METAR MROC 052300Z 12009KT 9999 FEW035 SCT050 25/16 A2994 NOSIG=
201502060000 METAR MROC 060000Z 10010G20KT 9999 FEW035 SCT050 23/17 A2996 NOSIG=
201502060100 METAR MROC 060100Z 10008KT 9999 FEW035 22/16 A2997 NOSIG=
201502060200 METAR MROC 060200Z 08010KT 9999 FEW035 22/16 A3000 NOSIG=
201502060300 METAR MROC 060300Z 08008KT CAVOK 22/16 A3003 NOSIG=
201502060400 METAR MROC 060400Z 09003KT CAVOK 21/16 A3004 NOSIG=
201502060500 METAR MROC 060500Z 05011KT 9999 FEW035 21/16 A3004 NOSIG=
201502060600 METAR MROC 060600Z 09005KT 9999 FEW035 21/16 A3004 NOSIG=
201502060700 METAR MROC 060700Z 12003KT 9999 FEW035 20/15 A3003 NOSIG=
201502060800 METAR MROC 060800Z 05007KT 9999 FEW035 20/15 A3000 NOSIG=
201502060900 METAR MROC 060900Z 06003KT 9999 FEW035 20/15 A2999 NOSIG=
201502061000 METAR MROC 061000Z 06008KT 9999 FEW035 SCT080 20/15 A3001 NOSIG=
201502061100 METAR MROC 061100Z 08005KT 9999 FEW035 20/15 A3001 NOSIG=
201502061200 METAR MROC 061200Z 07008KT 9999 FEW035 SCT200 20/14 A3003 NOSIG=
201502061300 METAR MROC 061300Z 09012G22KT 9999 FEW035 SCT250 21/15 A3003 NOSIG=
201502061400 METAR MROC 061400Z 10015G26KT 9999 FEW035 SCT250 23/14 A3003 NOSIG=
201502061500 METAR MROC 061500Z 10016G26KT 9999 FEW035 24/15 A3005 NOSIG=
201502061600 METAR MROC 061600Z 09016G30KT 9999 FEW035 26/16 A3005 NOSIG=
201502061700 METAR MROC 061700Z 09014G25KT 9999 FEW035 27/16 A3003 NOSIG=
201502061800 METAR MROC 061800Z 09017G29KT 9999 FEW030 27/15 A3000 NOSIG=
201502061900 METAR MROC 061900Z 08016G28KT 9999 FEW030 27/15 A2998 NOSIG=
201502062000 METAR MROC 062000Z 08016G26KT 9999 FEW030 26/15 A2996 NOSIG=
201502062100 METAR MROC 062100Z 10017G27KT 9999 FEW040 BKN080 25/15 A2995 NOSIG=
201502062200 METAR MROC 062200Z 10014G24KT 9999 FEW035 BKN080 24/15 A2997 NOSIG=
201502062300 METAR MROC 062300Z 10014G24KT 9999 FEW040 BKN080 23/15 A2998 NOSIG=
201502070000 METAR MROC 070000Z 10014G28KT 9999 FEW040 BKN120 22/15 A3000 NOSIG=
201502070100 METAR MROC 070100Z 10011G21KT 9999 FEW040 BKN100 21/16 A3002 NOSIG=
201502070200 METAR MROC 070200Z 10013G23KT 9999 FEW040 BKN120 21/14 A3004 NOSIG=
201502070300 METAR MROC 070300Z 10013G23KT 9999 FEW035 SCT100 21/14 A3006 NOSIG=
201502070400 METAR MROC 070400Z 10012G22KT 9999 FEW035 SCT100 21/15 A3006 NOSIG=
201502070500 METAR MROC 070500Z 10011KT CAVOK 21/15 A3006 NOSIG=
201502070600 METAR MROC 070600Z 11010G20KT 9999 FEW030 21/15 A3004 NOSIG=
201502070700 METAR MROC 070700Z 10012G23KT 9999 FEW035 21/15 A3001 NOSIG=
201502070800 METAR MROC 070800Z 10012G22KT 9999 FEW035 21/15 A3000 NOSIG=
201502070900 METAR MROC 070900Z 11010G20KT 9999 FEW030 20/15 A2999 NOSIG=
201502071000 METAR MROC 071000Z 10012G24KT CAVOK 20/14 A2998 NOSIG=
201502071100 METAR MROC 071100Z 09008KT CAVOK 20/14 A3000 NOSIG=
201502071200 METAR MROC 071200Z 10010KT 9999 FEW030 SCT200 20/13 A3002 NOSIG=
201502071300 METAR MROC 071300Z 10010KT 9999 FEW040 BKN200 21/14 A3003 NOSIG=
201502071400 METAR MROC 071400Z 11012G22KT 9999 FEW045 BKN200 23/13 A3004 NOSIG=
201502071500 METAR MROC 071500Z 11013G23KT 9999 FEW045 BKN200 23/13 A3006 NOSIG=
201502071600 METAR MROC 071600Z 10013G23KT CAVOK 25/13 A3006 NOSIG=
201502071700 METAR MROC 071700Z 09013G23KT CAVOK 26/13 A3005 NOSIG=
201502071800 METAR MROC 071800Z 08011G22KT CAVOK 26/13 A3003 NOSIG=
201502071900 METAR MROC 071900Z 08010KT 9999 FEW045 BKN200 27/13 A3000 NOSIG=
201502072000 METAR MROC 072000Z 09010KT 9999 FEW035 BKN200 27/13 A2999 NOSIG=
201502072100 METAR MROC 072100Z 09012KT 9999 FEW035 SCT120 BKN220 27/13 A2997 NOSIG=
201502072200 METAR MROC 072200Z 09010KT 9999 FEW035 SCT110 OVC220 26/13 A2998 NOSIG=
201502072300 METAR MROC 072300Z 10008KT 9999 FEW035 OVC220 25/14 A2999 NOSIG=
201502080000 METAR MROC 080000Z 09010KT 9999 FEW035 SCT110 OVC200 23/15 A3002 NOSIG=
201502080100 METAR MROC 080100Z 08008KT 9999 FEW035 SCT110 22/16 A3004 NOSIG=
201502080200 METAR MROC 080200Z 07007KT 9999 FEW035 SCT110 21/16 A3007 NOSIG=
201502080300 METAR MROC 080300Z 10007KT 9999 FEW035 SCT110 21/16 A3008 NOSIG=
201502080400 METAR MROC 080400Z 08013KT 9999 FEW035 SCT120 21/15 A3008 NOSIG=
201502080500 METAR MROC 080500Z 08013KT 9999 FEW035 21/14 A3008 NOSIG=
201502080600 METAR MROC 080600Z 07014KT 9999 FEW035 20/14 A3007 NOSIG=
201502080700 METAR MROC 080700Z 10010G20KT 9999 FEW035 SCT120 20/15 A3004 NOSIG=
201502080800 METAR MROC 080800Z 10008G18KT 9999 FEW035 SCT120 20/13 A3003 NOSIG=
201502080900 METAR MROC 080900Z 09017KT 9999 FEW035 SCT120 20/14 A3003 NOSIG=
201502081000 METAR MROC 081000Z 09008G18KT 9999 FEW035 SCT120 20/13 A3001 NOSIG=
201502081100 METAR MROC 081100Z 09014KT 9999 FEW035 SCT120 19/14 A3003 NOSIG=
201502081200 METAR MROC 081200Z 09014KT 9999 FEW035 SCT100 19/13 A3004 NOSIG=
201502081300 METAR MROC 081300Z 11010KT CAVOK 20/14 A3007 NOSIG=
201502081400 METAR MROC 081400Z 09012KT CAVOK 23/14 A3008 NOSIG=
201502081500 METAR MROC 081500Z 11012KT CAVOK 23/13 A3009 NOSIG=
201502081600 METAR MROC 081600Z 10012KT CAVOK 24/13 A3009 NOSIG=
201502081700 METAR MROC 081700Z 10010KT CAVOK 25/14 A3008 NOSIG=
201502081800 METAR MROC 081800Z 09012KT 9999 FEW035 BKN200 26/13 A3006 NOSIG=
201502081900 METAR MROC 081900Z 09009KT 9999 FEW035 BKN200 27/14 A3002 NOSIG=
201502082000 METAR MROC 082000Z 09008KT 9999 FEW040 BKN250 27/13 A3000 NOSIG=
201502082100 METAR MROC 082100Z 14006KT 9999 VCSH SCT045 BKN200 26/14 A2999 NOSIG=
201502082200 METAR MROC 082200Z 24007KT 9999 SCT045 BKN200 23/18 A3000 NOSIG=
201502082300 METAR MROC 082300Z 22004KT 9999 4000SW FEW030 SCT060 BKN200 22/17 A3002 NOSIG=
201502090000 METAR MROC 090000Z 24005KT 9999 4000SW FEW045 BKN200 21/18 A3004 NOSIG=
201502090100 METAR MROC 090100Z 26003KT 9999 FEW045 BKN200 20/18 A3006 NOSIG=
201502090200 METAR MROC 090200Z 30003KT 9999 SCT020 SCT200 20/19 A3008 NOSIG=
201502090300 METAR MROC 090300Z 25003KT 9999 FEW030 BKN100 20/18 A3010 NOSIG=
201502090400 METAR MROC 090400Z 03003KT 9999 FEW025 BKN100 20/18 A3010 NOSIG=
201502090500 METAR MROC 090500Z VRB02KT 9999 FEW030 BKN100 18/20 A3009 NOSIG=
201502090600 METAR MROC 090600Z 08002KT 9999 FEW030 BKN100 20/18 A3007 NOSIG=
201502090700 METAR MROC 090700Z 26003KT 9999 FEW030 BKN100 20/18 A3006 NOSIG=
201502090800 METAR MROC 090800Z 30003KT 9999 SCT015 BKN100 20/18 A3005 NOSIG=
201502090900 METAR MROC 090900Z 11003KT 9999 SCT015 BKN100 19/18 A3004 NOSIG=
201502091000 METAR MROC 091000Z 01003KT 9999 -DZ SCT015 BKN100 20/18 A3003 NOSIG=
201502091100 METAR MROC 091100Z 15002KT 9999 DZ SCT015 BKN100 19/17 A3004 NOSIG=
201502091200 METAR MROC 091200Z COR 08004KT 9999 DZ SCT015 BKN100 19/17 A3005 NOSIG=
201502091300 METAR MROC 091300Z 34001KT 9999 3000SW FEW010 BKN060 20/17 A3008 NOSIG=
201502091400 METAR MROC 091400Z 10003KT 8000 3000SW FEW010 BKN060 20/18 A3010 BECMG 20006KT=
201502091500 METAR MROC 091500Z 11002KT 9999 3000SW FEW020 BKN100 23/18 A3010 NOSIG=
201502091600 METAR MROC 091600Z 20004KT 9999 3000SW FEW020 BKN100 26/17 A3008 NOSIG=
201502091700 METAR MROC 091700Z 23006KT 9999 FEW010 SCT030 BKN100 25/18 A3007 NOSIG=
201502091800 METAR MROC 091800Z 20006KT 9999 FEW020 BKN060 26/16 A3004 NOSIG=
201502091900 METAR MROC 091900Z 24007KT 9999 SCT030 SCT060 26/17 A3001 NOSIG=
201502092000 METAR MROC 092000Z 29004KT 9999 SCT030 SCT060 28/16 A2998 NOSIG=
201502092100 METAR MROC NIL=
201502092200 METAR MROC 092200Z 21007KT 9999 SCT030 BKN100 23/18 A2999 NOSIG=
201502092300 METAR MROC 092300Z 13005KT 9999 -DZ SCT030 BKN100 21/18 A3000 NOSIG=
201502100000 METAR MROC 100000Z 11004KT 9999 FEW030 BKN100 21/18 A3001 NOSIG=
201502100100 METAR MROC 100100Z 07004KT 9999 FEW030 SCT100 21/17 A3001 NOSIG=
201502100200 METAR MROC 100200Z 20003KT 9999 FEW030 SCT100 21/18 A3005 NOSIG=
201502100300 METAR MROC 100300Z 11002KT 9999 FEW030 SCT100 20/18 A3005 NOSIG=
201502100400 METAR MROC 100400Z 10003KT CAVOK 19/17 A3005 NOSIG=
201502100500 METAR MROC 100500Z 05005KT CAVOK 20/16 A3004 NOSIG=
201502100600 METAR MROC 100600Z 10002KT CAVOK 19/16 A3002 NOSIG=
201502100700 METAR MROC NIL=
201502100758 METAR MROC 100758Z 08003KT CAVOK 17/14 A2998 NOSIG=
201502100800 METAR MROC 100800Z 08003KT CAVOK 17/14 A2998 NOSIG=
201502100900 METAR MROC 100900Z 03003KT CAVOK 17/14 A2998 NOSIG=
201502101000 METAR MROC 101000Z 10003KT CAVOK 17/14 A2998 NOSIG=
201502101100 METAR MROC 101100Z 07005KT CAVOK 16/13 A3000 NOSIG=
201502101200 METAR MROC 101200Z 09005KT CAVOK 15/13 A3000 NOSIG=
201502101300 METAR MROC 101300Z 07004KT CAVOK 18/14 A3002 NOSIG=
201502101400 METAR MROC 101400Z 00000KT CAVOK 23/15 A3004 NOSIG=
201502101500 METAR MROC 101500Z 27003KT CAVOK 25/15 A3005 NOSIG=
201502101600 METAR MROC 101600Z 21004KT 9999 FEW040 27/14 A3004 NOSIG=
201502101700 METAR MROC 101700Z 21007KT 9999 FEW040 27/15 A3002 NOSIG=
201502101800 METAR MROC 101800Z 23007KT 9999 FEW040 29/16 A3000 NOSIG=
201502101900 METAR MROC 101900Z 23008KT 9999 BKN040 28/16 A2997=
201502102000 METAR MROC 102000Z 24013KT 9999 RA FEW030TCU SCT040 27/17 A2994 NOSIG=
201502102100 METAR MROC 102100Z 24008KT 9999 SHRA FEW020CB BKN035 25/18 A2993 RMK VIS N NE 6KMS BECMG 5000=
201502102200 METAR MROC 102200Z 08004KT 9999 FEW025TCU SCT040 BKN100 22/19 A2995 RESH NOSIG=
201502102300 METAR MROC 102300Z 21004KT 9999 FEW025 SCT045 BKN120 23/19 A2996 NOSIG=
201502110000 METAR MROC 110000Z 20003KT 9999 FEW030 BKN120 22/19 A2997 NOSIG=
201502110100 METAR MROC 110100Z 25005KT 9999 FEW035 SCT120 21/19 A2999 NOSIG=
201502110200 METAR MROC 110200Z 13002KT 9999 FEW035 SCT120 21/17 A3001 NOSIG=
201502110300 METAR MROC 110300Z 08004KT 9999 FEW035 19/17 A3002 NOSIG=
201502110400 METAR MROC 110400Z 08007KT CAVOK 20/12 A3002 NOSIG=
201502110500 METAR MROC 110500Z 08007KT CAVOK 20/12 A3002 NOSIG=
201502110600 METAR MROC 110600Z 08008KT CAVOK 20/12 A3002 NOSIG=
201502110700 METAR MROC 110700Z 07008KT CAVOK 20/12 A3002 NOSIG=
201502110800 METAR MROC 110800Z 07007KT CAVOK 20/12 A3002 NOSIG=
201502110900 METAR MROC 110900Z 04004KT CAVOK 16/13 A2999 NOSIG=
201502111000 METAR MROC 111000Z 07007KT CAVOK 18/13 A3000 NOSIG=
201502111100 METAR MROC 111100Z 09006KT CAVOK 19/12 A3001 NOSIG=
201502111200 METAR MROC 111200Z 09008KT CAVOK 18/12 A3002 NOSIG=
201502111300 METAR MROC 111300Z 09009KT CAVOK 20/13 A3004 NOSIG=
201502111400 METAR MROC 111400Z 10010KT CAVOK 22/13 A3006 NOSIG=
201502111500 METAR MROC 111500Z 10012G22KT CAVOK 24/12 A3006 A3006 NOSIG=
201502111600 METAR MROC 111600Z 11010KT CAVOK 26/12 A3005 NOSIG=
201502111700 METAR MROC 111700Z 10008KT CAVOK 28/12 A3003 NOSIG=
201502111800 METAR MROC 111800Z 08007KT 9999 FEW045 29/13 A3000 NOSIG=
201502111900 METAR MROC 111900Z 14004KT 9999 SCT040 28/13 A2998 BECMG 24007KT=
201502112000 METAR MROC 112000Z 21007KT 9999 FEW025TCU SCT040 28/16 A2996 NOSIG=
201502112100 METAR MROC 112100Z 23011KT 9999 RA FEW020TCU SCT040 27/19 A2995 NOSIG=
201502112200 METAR MROC 112200Z 22009KT 9999 SCT035 26/19 A2996 NOSIG=
201502112300 METAR MROC 112300Z 23006KT 9999 VCSH FEW015TCU SCT035 24/19 A2998 NOSIG=
201502120000 METAR MROC 120000Z 21003KT 9999 FEW015TCU SCT030 23/19 A2999 NOSIG=
201502120100 METAR MROC 120100Z 20004KT 9999 FEW035 SCT080 23/18 A3001 NOSIG=
201502120200 METAR MROC 120200Z 09003KT 9999 FEW035 SCT120 22/16 A3003 NOSIG=
201502120300 METAR MROC 120300Z 09009KT 9999 FEW035 SCT120 21/16 A3004 NOSIG=
201502120400 METAR MROC 120400Z 10005KT 9999 FEW035 21/16 A3005 NOSIG=
201502120500 METAR MROC 120500Z 08007KT CAVOK 20/16 A3004 NOSIG=
201502120600 METAR MROC 120600Z 09008KT CAVOK 21/16 A3003 NOSIG=
201502120700 METAR MROC 120700Z 09013KT CAVOK 21/16 A3001 NOSIG=
201502120800 METAR MROC 120800Z 06007KT CAVOK 20/16 A3000 NOSIG=
201502120900 METAR MROC 120900Z 05007KT CAVOK 20/16 A2999 NOSIG=
201502121000 METAR MROC 121000Z 07005KT CAVOK 19/16 A3000 NOSIG=
201502121100 METAR MROC 121100Z 06007KT CAVOK 19/16 A3002 NOSIG=
201502121200 METAR MROC 121200Z 08007KT 9999 FEW030 SCT250 19/15 A3005 NOSIG=
201502121300 METAR MROC 121300Z 07006KT 9999 FEW045 SCT250 21/16 A3006 NOSIG=
201502121400 METAR MROC 121400Z 09010KT CAVOK 23/16 A3007 NOSIG=
201502121500 METAR MROC 121500Z 11009KT 9999 FEW040 26/15 A3008 NOSIG=
201502121600 METAR MROC 121600Z 11010KT 9999 FEW045 27/15 A3007 NOSIG=
201502121700 METAR MROC 121700Z 09012KT 9999 FEW040 27/15 A3006 NOSIG=
201502121800 METAR MROC 121800Z 10012KT 9999 FEW040 28/15 A3003 NOSIG=
201502121900 METAR MROC 121900Z 10012KT 9999 SCT040 29/16 A3000 NOSIG=
201502122000 METAR MROC 122000Z 10010G20KT 9999 SCT040 29/16 A2998 NOSIG=
201502122100 METAR MROC 122100Z 10012KT 9999 SCT035 28/15 A2996 NOSIG=
201502122200 METAR MROC 122200Z 11010KT 9999 SCT035 27/16 A2997 NOSIG=
201502122300 METAR MROC 122300Z 11010KT 9999 SCT035 25/16 A2998 NOSIG=
201502130000 METAR MROC 130000Z 08010KT 9999 SCT035 24/16 A3000 NOSIG=
201502130100 METAR MROC 130100Z 07010KT 9999 SCT035 22/16 A3001 NOSIG=
201502130200 METAR MROC 130200Z 10011G21KT 9999 SCT035 22/16 A3003 NOSIG=
201502130300 METAR MROC 130300Z 08007KT CAVOK 22/16 A3004 NOSIG=
201502130400 METAR MROC 130400Z 09013KT CAVOK 21/15 A3004 NOSIG=
201502130500 METAR MROC 130500Z 10014G25KT CAVOK 21/16 A3002 NOSIG=
201502130600 METAR MROC 130600Z 10014G24KT CAVOK 21/15 A3001 NOSIG=
201502130700 METAR MROC 130700Z 10012G22KT CAVOK 21/15 A2999 NOSIG=
201502130800 METAR MROC 130800Z 10014KT CAVOK 21/15 A2997 NOSIG=
201502130900 METAR MROC 130900Z 10015G25KT CAVOK 21/15 A2997 NOSIG=
201502131000 METAR MROC 131000Z 10012G22KT CAVOK 21/15 A2998 NOSIG=
201502131100 METAR MROC 131100Z 09013G23KT CAVOK 21/15 A2999 NOSIG=
201502131200 METAR MROC 131200Z 09014KT CAVOK 21/15 A3001 NOSIG=
201502131300 METAR MROC 131300Z 10014G24KT 9999 FEW035 21/16 A3003 NOSIG=
201502131400 METAR MROC 131400Z 11012KT 9999 FEW035 23/15 A3005 NOSIG=
201502131500 METAR MROC 131500Z 09018G28KT 9999 FEW035 25/15 A3006 NOSIG=
201502131600 METAR MROC 131600Z 09015G25KT 9999 FEW025 26/15 A3007 NOSIG=
201502131700 METAR MROC 131700Z 08014G26KT 9999 FEW035 27/15 A3004 NOSIG=
201502131800 METAR MROC 131800Z 09014G24KT 9999 SCT035 26/14 A3004 NOSIG=
201502131900 METAR MROC 131900Z 09013G24KT 9999 SCT035 26/14 A3001 NOSIG=
201502132000 METAR MROC 132000Z 09016G26KT 9999 FEW030 SCT060 27/14 A2999 NOSIG=
201502132100 METAR MROC 132100Z 10016G27KT 9999 FEW030 25/14 A2998 NOSIG=
201502132200 METAR MROC 132200Z 10018G28KT 9999 FEW030 24/14 A2998 NOSIG=
201502132300 METAR MROC 132300Z 10020G31KT 9999 FEW030 22/14 A3000 NOSIG=
201502140000 METAR MROC 140000Z 10017G27KT 9999 FEW030 20/14 A3002 NOSIG=
201502140100 METAR MROC 140100Z 10018G28KT 9999 FEW030 20/14 A3004 NOSIG=
201502140200 METAR MROC 140200Z 09017G27KT 9999 FEW030 20/14 A3006 NOSIG=
201502140300 METAR MROC 140300Z 09016G27KT 9999 FEW030 20/14 A3007 NOSIG=
201502140400 METAR MROC 140400Z 10015G25KT 9999 FEW035 20/14 A3008 NOSIG=
201502140500 METAR MROC 140500Z 10018G31KT 9999 FEW035 20/14 A3006 NOSIG=
201502140600 METAR MROC 140600Z 10018G31KT 9999 FEW035 20/14 A3004 NOSIG=
201502140700 METAR MROC 140700Z 10017G29KT 9999 FEW035 19/14 A3003 NOSIG=
201502140800 METAR MROC 140800Z 10016G27KT 9999 FEW035 19/13 A3003 NOSIG=
201502140900 METAR MROC 140900Z 10015G25KT 9999 FEW035 19/14 A3002 NOSIG=
201502141000 METAR MROC 141000Z 10016G26KT 9999 FEW035 19/13 A3002 NOSIG=
201502141100 METAR MROC 141100Z 09018G30KT 9999 FEW035 18/13 A3003 NOSIG=
201502141200 METAR MROC 141200Z 09018G30KT 9999 FEW035 SCT250 19/11 A3004 NOSIG=
201502141300 METAR MROC 141300Z 10017G29KT 9999 FEW040 19/12 A3006 NOSIG=
201502141400 METAR MROC 141400Z 10018G30KT CAVOK 21/11 A3008 NOSIG=
201502141500 METAR MROC 141500Z 10020G30KT CAVOK 22/10 A3008 NOSIG=
201502141600 METAR MROC 141600Z 10018G33KT 9999 FEW040 BKN250 23/12 A3009 NOSIG=
201502141700 METAR MROC 141700Z 09017G28KT 9999 FEW040 25/12 A3008 NOSIG=
201502141800 METAR MROC 141800Z 08016G26KT 9999 FEW040 26/12 A3007 NOSIG=
201502141900 METAR MROC 141900Z 08014G24KT 9999 FEW040 27/13 A3004 NOSIG=
201502142000 METAR MROC 142000Z 08015G25KT 9999 FEW040 27/12 A3002 NOSIG=
201502142100 METAR MROC 142100Z 08013G23KT 9999 FEW040 26/14 A3000 NOSIG=
201502142200 METAR MROC 142200Z 08013G23KT 9999 FEW040 24/14 A3000 NOSIG=
201502142300 METAR MROC 142300Z 09014G24KT 9999 FEW040 22/14 A3000 NOSIG=
201502150000 METAR MROC 150000Z 09016G26KT 9999 FEW040 21/15 A3000 NOSIG=
201502150100 METAR MROC 150100Z 10011G21KT 9999 FEW040 20/14 A3004 NOSIG=
201502150200 METAR MROC 150200Z 11015G27KT 9999 FEW040 19/14 A3005 NOSIG=
201502150300 METAR MROC 150300Z 10011G21KT 9999 FEW040 19/14 A3008 NOSIG=
201502150400 METAR MROC 150400Z 11014G24KT 9999 FEW040 20/15 A3008 NOSIG=
201502150500 METAR MROC 150500Z 09016KT 9999 FEW040 20/15 A3007 NOSIG=
201502150600 METAR MROC 150600Z 10015G25KT 9999 FEW040 20/15 A3005 NOSIG=
201502150700 METAR MROC 150700Z 09017G28KT 9999 FEW040 19/15 A3003 NOSIG=
201502150800 METAR MROC 150800Z 09016G27KT 9999 FEW040 19/14 A3001 NOSIG=
201502150900 METAR MROC 150900Z 09014G25KT 9999 FEW040 19/14 A3000 NOSIG=
201502151000 METAR MROC 151000Z 09014G28KT 9999 FEW040 SCT070 19/14 A3001 NOSIG=
201502151100 METAR MROC 151100Z 10019G29KT 9999 FEW040 19/14 A3001 NOSIG=
201502151200 METAR MROC 151200Z 10018G31KT 9999 FEW035 19/14 A3003 NOSIG=
201502151300 METAR MROC 151300Z 10014G26KT 9999 FEW030 SCT200 21/15 A3006 NOSIG=
201502151400 METAR MROC 151400Z COR 09013KT 9999 FEW030 SCT250 25/15 A3007 NOSIG=
201502151500 METAR MROC 151500Z 08015KT 9999 FEW030 SCT250 25/16 A3007 NOSIG=
201502151600 METAR MROC 151600Z 08014G25KT 9999 SCT030 27/16 A3006 NOSIG=
201502151700 METAR MROC 151700Z 08015KT 9999 SCT030 28/15 A3004 NOSIG=
201502151800 METAR MROC 151800Z 07019KT 9999 SCT030 27/15 A3001 NOSIG=
201502151900 METAR MROC 151900Z 07015G25KT 9999 SCT030 28/15 A2998 NOSIG=
201502152000 METAR MROC 152000Z 08014KT 9999 SCT030 26/15 A2996 NOSIG=
201502152100 METAR MROC 152100Z 08014G27KT 9999 FEW030 SCT060 26/15 A2995 NOSIG=
201502152200 METAR MROC 152200Z 09014G24KT 9999 FEW030 26/15 A2995 NOSIG=
201502152300 METAR MROC 152300Z 09015G25KT 9999 SCT030 24/15 A2995 NOSIG=
201502160000 METAR MROC 160000Z 10013G23KT 9999 SCT030 22/16 A2998 NOSIG=
201502160100 METAR MROC 160100Z 11010G20KT 9999 FEW030 21/16 A3000 NOSIG=
201502160200 METAR MROC 160200Z 11010G20KT 9999 FEW030 21/15 A3002 NOSIG=
201502160300 METAR MROC 160300Z 10012KT 9999 FEW030 21/16 A3003 NOSIG=
201502160400 METAR MROC 160400Z 10012G22KT 9999 FEW030 21/16 A3002 NOSIG=
201502160500 METAR MROC 160500Z 11012G22KT 9999 FEW030 21/16 A3001 NOSIG=
201502160600 METAR MROC 160600Z 10011G21KT 9999 FEW030 21/16 A2999 NOSIG=
201502160700 METAR MROC 160700Z 09011G21KT 9999 FEW030 21/16 A2997 NOSIG=
201502160800 METAR MROC 160800Z 10011G21KT 9999 FEW030 21/16 A2995 NOSIG=
201502160900 METAR MROC 160900Z 10013G23KT 9999 FEW030 21/16 A2994 NOSIG=
201502161000 METAR MROC 161000Z 09013G23KT 9999 FEW030 21/16 A2993 NOSIG=
201502161100 METAR MROC 161100Z 10015G25KT 9999 FEW030 21/16 A2994 NOSIG=
201502161200 METAR MROC 161200Z 11011G23KT 9999 FEW030 21/16 A2996 NOSIG=
201502161300 METAR MROC 161300Z 10012G22KT 9999 FEW030 21/16 A2999 NOSIG=
201502161400 METAR MROC 161400Z 10011G22KT CAVOK 24/16 A3000 NOSIG=
201502161500 METAR MROC 161500Z 10012G22KT 9999 FEW030 26/16 A3003 NOSIG=
201502161600 METAR MROC 161600Z 09012G22KT 9999 SCT030 27/16 A3002 NOSIG=
201502161700 METAR MROC 161700Z 09015G25KT 9999 SCT030 27/16 A3001 NOSIG=
201502161800 METAR MROC 161800Z 10014G25KT 9999 SCT030 27/16 A2999 NOSIG=
201502161900 METAR MROC 161900Z 10015G27KT 9999 SCT030 28/16 A2997 NOSIG=
201502162000 METAR MROC 162000Z 10012G22KT 9999 FEW035 27/16 A2995 NOSIG=
201502162100 METAR MROC 162100Z 07014G24KT 9999 SCT035 27/16 A2994 NOSIG=
201502162200 METAR MROC 162200Z 08014G25KT FEW035 SCT250 25/15 A2992 NOSIG=
201502162300 METAR MROC 162300Z 08012G22KT 9999 FEW040 SCT250 24/14 A2995 NOSIG=
201502170000 METAR MROC 170000Z 08010KT 9999 FEW040 SCT250 23/14 A2996 NOSIG=
201502170100 METAR MROC 170100Z 10009KT 9999 FEW040 21/14 A2999 NOSIG=
201502170200 METAR MROC 170200Z 08009KT CAVOK 21/15 A3001 NOSIG=
201502170300 METAR MROC 170300Z 09009KT CAVOK 21/14 A3002 NOSIG=
201502170400 METAR MROC 170400Z 09010KT CAVOK 21/12 A3003 NOSIG=
201502170500 METAR MROC 170500Z 09011KT CAVOK 20/13 A3002 NOSIG=
201502170600 METAR MROC 170600Z 10012KT CAVOK 20/12 A3000 NOSIG=
201502170700 METAR MROC 170700Z 09011G21KT CAVOK 21/12 A2997 NOSIG=
201502170800 METAR MROC 170800Z 09012KT CAVOK 20/11 A2995 NOSIG=
201502170900 METAR MROC 170900Z 09009KT CAVOK 20/11 A2994 NOSIG=
201502171000 METAR MROC 171000Z 08011KT CAVOK 20/11 A2995 NOSIG=
201502171100 METAR MROC 171100Z 07005KT CAVOK 20/10 A2996 NOSIG=
201502171200 METAR MROC 171200Z 06007KT CAVOK 19/12 A2999 NOSIG=
201502171300 METAR MROC 171300Z 08008KT CAVOK 21/11 A3001 NOSIG=
201502171400 METAR MROC 171400Z 10009KT CAVOK 25/10 A3003 NOSIG=
201502171500 METAR MROC 171500Z 11012KT CAVOK 26/10 A3004 NOSIG=
201502171600 METAR MROC 171600Z 12009KT CAVOK 28/10 A3004 NOSIG=
201502171700 METAR MROC 171700Z 09010KT CAVOK 28/11 A3003 NOSIG=
201502171800 METAR MROC 171800Z 09009KT 9999 FEW040 BKN250 29/12 A3002 NOSIG=
201502171900 METAR MROC 171900Z 11007KT 9999 FEW040 BKN250 30/13 A2999 NOSIG=
201502172000 METAR MROC 172000Z COR 11006KT 9999 FEW040 BKN200 29/13 A2996 BECMG 23007KT=
201502172100 METAR MROC 172100Z 09004KT 9999 FEW040 BKN250 28/13 A2995 NOSIG=
201502172200 METAR MROC 172200Z 14005KT 9999 FEW040 BKN250 29/13 A2994 BECMG 24005KT=
201502172300 METAR MROC 172300Z 15005KT 9999 FEW040 BKN250 27/14 A2996 NOSIG=
201502180000 METAR MROC 180000Z 12004KT 9999 FEW040 BKN250 24/15 A2997 NOSIG=
201502180100 METAR MROC 180100Z 10010KT CAVOK 22/16 A2999 NOSIG=
201502180200 METAR MROC 180200Z 09010KT CAVOK 22/16 A3004 NOSIG=
201502180300 METAR MROC 180300Z 08005KT CAVOK 21/15 A3005 NOSIG=
201502180400 METAR MROC 180400Z 07007KT CAVOK 21/15 A3007 NOSIG=
201502180500 METAR MROC 180500Z 07006KT CAVOK 20/15 A3006 NOSIG=
201502180600 METAR MROC 180600Z 15002KT CAVOK 19/15 A3006 NOSIG=
201502180700 METAR MROC 180700Z 06005KT CAVOK 18/14 A3004 NOSIG=
201502180800 METAR MROC 180800Z 07005KT CAVOK 18/13 A3003 NOSIG=
201502180900 METAR MROC 180900Z 08005KT CAVOK 17/13 A3002 NOSIG=
201502181000 METAR MROC 181000Z 06006KT CAVOK 17/13 A3002 NOSIG=
201502181100 METAR MROC 181100Z 08006KT CAVOK 18/14 A3003 NOSIG=
201502181200 METAR MROC 181200Z 07005KT CAVOK 17/14 A3005 NOSIG=
201502181300 METAR MROC 181300Z 07007KT CAVOK 20/14 A3006 NOSIG=
201502181400 METAR MROC 181400Z 08010KT CAVOK 23/13 A3008 NOSIG=
201502181500 METAR MROC 181500Z 11009KT CAVOK 26/13 A3009 NOSIG=
201502181600 METAR MROC 181600Z 09014KT CAVOK 28/12 A3008 NOSIG=
201502181700 METAR MROC 181700Z 10008KT CAVOK 30/12 A3006 NOSIG=
201502181800 METAR MROC 181800Z 11008KT CAVOK 30/11 A3003 NOSIG=
201502181900 METAR MROC 181900Z 11007KT CAVOK 30/11 A3000 NOSIG=
201502182000 METAR MROC 182000Z 10016KT 9999 FEW035 BKN250 30/12 A2997 NOSIG=
201502182100 METAR MROC 182100Z 10011KT 9999 FEW045 BKN250 28/13 A2998 NOSIG=
201502182200 METAR MROC 182200Z 09011KT 9999 FEW045 BKN250 27/13 A2998 NOSIG=
201502182300 METAR MROC 182300Z 09011KT 9999 FEW045 BKN250 26/13 A3000 NOSIG=
201502190000 METAR MROC 190000Z 12005KT 9999 FEW045 BKN250 24/15 A3002 NOSIG=
201502190100 METAR MROC 190100Z 09007KT 9999 FEW040 SCT250 23/15 A3004 NOSIG=
201502190200 METAR MROC 190200Z 08006KT 9999 FEW040 SCT250 22/15 A3007 NOSIG=
201502190300 METAR MROC 190300Z 09006KT CAVOK 21/15 A3009 NOSIG=
201502190400 METAR MROC 190400Z 10003KT CAVOK 21/15 A3011 NOSIG=
201502190500 METAR MROC 190500Z 07007KT 9999 FEW040 21/15 A3011 NOSIG=
201502190600 METAR MROC 190600Z 05005KT 9999 FEW040 21/14 A3010 NOSIG=
201502190700 METAR MROC 190700Z 12006KT 9999 FEW040 20/13 A3008 NOSIG=
201502190800 METAR MROC 190800Z 10007KT CAVOK 21/10 A3006 NOSIG=
201502190900 METAR MROC 190900Z 10011G21KT CAVOK 21/11 A3005 NOSIG=
201502191000 METAR MROC 191000Z 09012G22KT CAVOK 20/11 A3003 NOSIG=
201502191100 METAR MROC 191100Z 08013G23KT CAVOK 20/11 A3002 NOSIG=
201502191200 METAR MROC 191200Z 09013G23KT CAVOK 20/11 A3003 NOSIG=
201502191300 METAR MROC 191300Z 09014G24KT CAVOK 21/11 A3005 NOSIG=
201502191400 METAR MROC 191400Z 08016G28KT CAVOK 23/10 A3007 NOSIG=
201502191500 METAR MROC 191500Z 08019G32KT CAVOK 25/10 A3008 NOSIG=
201502191600 METAR MROC 191600Z 08016G26KT CAVOK 27/09 A3008 NOSIG=
201502191700 METAR MROC 191700Z 09015G25KT CAVOK 28/06 A3006 NOSIG=
201502191800 METAR MROC 191800Z 08015G28KT CAVOK 29/06 A3003 NOSIG=
201502191900 METAR MROC 191900Z 08015G25KT CAVOK 29/04 A3001 NOSIG=
201502192000 METAR MROC 192000Z 09016G26KT CAVOK 28/08 A2998 NOSIG=
201502192100 METAR MROC 192100Z 07014G24KT 9999 FEW040 28/10 A2997 NOSIG=
201502192200 METAR MROC 192200Z 07015G25KT 9999 FEW040 27/10 A2997 NOSIG=
201502192300 METAR MROC 192300Z 07013G24KT 9999 FEW040 26/11 A2999 NOSIG=
201502200000 METAR MROC 200000Z 06014KT CAVOK 23/12 A3000 NOSIG=
201502200100 METAR MROC 200100Z 07010G20KT CAVOK 23/13 A3003 NOSIG=
201502200200 METAR MROC 200200Z 09007KT CAVOK 21/12 A3006 NOSIG=
201502200300 METAR MROC 200300Z 09007KT CAVOK 21/12 A3006 NOSIG=
201502200400 METAR MROC 200400Z 09007KT CAVOK 21/12 A3006 NOSIG=
201502200500 METAR MROC 200500Z 09008KT CAVOK 21/12 A3006 NOSIG=
201502200600 METAR MROC 200600Z 09007KT CAVOK 20/12 A3003 NOSIG=
201502200700 METAR MROC 200700Z 11012KT CAVOK 20/14 A3004 NOSIG=
201502200800 METAR MROC 200800Z 07008KT CAVOK 20/14 A3001 NOSIG=
201502200900 METAR MROC 200900Z 01008KT CAVOK 20/15 A2999 NOSIG=
201502201000 METAR MROC 201000Z 05008KT CAVOK 20/15 A2999 NOSIG=
201502201100 METAR MROC 201100Z 06011KT CAVOK 20/15 A3000 NOSIG=
201502201200 METAR MROC 201200Z 04006KT 9999 FEW040 20/15 A3001 NOSIG=
201502201300 METAR MROC 201300Z 35003KT 9999 FEW030 22/15 A3004 NOSIG=
201502201400 METAR MROC 201400Z 08009KT 9999 FEW030 23/16 A3005 NOSIG=
201502201500 METAR MROC 201500Z 10011KT 9999 FEW030 25/15 A3006 NOSIG=
201502201600 METAR MROC 201600Z 08013KT 9999 FEW030 27/15 A3006 NOSIG=
201502201700 METAR MROC 201700Z 10012KT 9999 SCT030 27/15 A3005 NOSIG=
201502201800 METAR MROC 201800Z 11010G20KT 9999 SCT030 BKN100 27/15 A3003 NOSIG=
201502201900 METAR MROC 201900Z 11012KT 9999 SCT030 BKN100 28/16 A3001 NOSIG=
201502202000 METAR MROC 202000Z 09011KT 9999 -DZ FEW030 BKN100 27/17 A2997 NOSIG=
201502202100 METAR MROC 202100Z 13009KT 9999 -DZ FEW030 BKN070 25/16 A2996 NOSIG=
201502202200 METAR MROC 202200Z 13006KT 9999 FEW030 SCT070 BKN120 24/16 A2995 NOSIG=
201502202300 METAR MROC 202300Z 10007KT 9999 FEW030 BKN100 23/16 A2997 NOSIG=
201502210000 METAR MROC 210000Z 11009KT 9999 FEW030 BKN100 23/16 A2998 NOSIG=
201502210100 METAR MROC 210100Z 11010G20KT 9999 FEW030 SCT100 22/16 A3000 NOSIG=
201502210200 METAR MROC 210200Z 11006KT 9999 FEW030 SCT100 21/16 A3003 NOSIG=
201502210300 METAR MROC 210300Z 10008G18KT 9999 FEW030 22/16 A3004 NOSIG=
201502210400 METAR MROC 210400Z 09011G21KT 9999 FEW030 22/15 A3003 NOSIG=
201502210500 METAR MROC 210500Z 09010G20KT 9999 FEW030 21/16 A3003 NOSIG=
201502210600 METAR MROC 210600Z 09008G18KT 9999 FEW030 21/16 A3003 NOSIG=
201502210700 METAR MROC 210700Z 08007KT 9999 FEW030 21/16 A3002 BECMG 08010G25KT=
201502210800 METAR MROC 210800Z 06009KT 9999 FEW030 21/16 A3000 BECMG 08010G20KT=
201502210900 METAR MROC 210900Z 06004KT 9999 FEW030 20/16 A2999 NOSIG=
201502211000 METAR MROC 211000Z 08007KT 9999 FEW030 20/16 A2998 NOSIG=
201502211100 METAR MROC 211100Z 06005KT 9999 FEW030 20/15 A2999 NOSIG=
201502211200 METAR MROC 211200Z 10010G20KT 9999 FEW030 20/15 A3000 NOSIG=
201502211300 METAR MROC 211300Z 09012G22KT 9999 FEW030 21/15 A3001 NOSIG=
201502211400 METAR MROC 211400Z 09012G22KT 9999 FEW030 24/15 A3003 NOSIG=
201502211500 METAR MROC 211500Z 09015G25KT 9999 FEW030 25/16 A3003 NOSIG=
201502211600 METAR MROC 211600Z 08015G25KT 9999 FEW030 26/15 A3004 NOSIG=
201502211700 METAR MROC 211700Z 07014G24KT 9999 FEW030 27/15 A3002 NOSIG=
201502211800 METAR MROC 211800Z 08013G24KT 9999 FEW030 28/14 A3000 NOSIG=
201502211900 METAR MROC 211900Z 08012G22KT 9999 FEW030 28/14 A2998 NOSIG=
201502212000 METAR MROC 212000Z 10010G20KT 9999 FEW030 29/14 A2996 NOSIG=
201502212100 METAR MROC 212100Z 12009KT 9999 FEW040 29/14 A2993 NOSIG=
201502212200 METAR MROC 212200Z 14008KT 9999 FEW040 27/15 A2993 NOSIG=
201502212300 METAR MROC 212300Z 10010KT 9999 FEW040 SCT080 25/16 A2995 NOSIG=
201502220000 METAR MROC 220000Z 10011G23KT 9999 FEW040 SCT080 23/15 A2997 NOSIG=
201502220100 METAR MROC 220100Z 11010G20KT 9999 FEW040 22/15 A2998 NOSIG=
201502220200 METAR MROC 220200Z 12011KT 9999 FEW035 22/15 A3000 NOSIG=
201502220300 METAR MROC 220300Z 12010G20KT 9999 FEW035 21/15 A3001 NOSIG=
201502220400 METAR MROC 220400Z 10011G21KT 9999 FEW035 20/15 A3002 NOSIG=
201502220500 METAR MROC 220500Z 10007KT 9999 FEW035 20/15 A3002 NOSIG=
201502220600 METAR MROC 220600Z 08008KT 9999 FEW030 20/15 A3001 NOSIG=
201502220700 METAR MROC 220700Z 09011KT 9999 FEW030 21/15 A2997 NOSIG=
201502220800 METAR MROC 220800Z 09011G21KT 9999 FEW030 21/15 A2996 NOSIG=
201502220900 METAR MROC 220900Z 09013KT 9999 FEW030 20/15 A2997 NOSIG=
201502221000 METAR MROC 221000Z 10011KT 9999 FEW030 20/15 A2995 NOSIG=
201502221100 METAR MROC 221100Z 10010G20KT 9999 FEW030 20/14 A2996 NOSIG=
201502221200 METAR MROC 221200Z 11008KT 9999 FEW030 20/14 A2998 NOSIG=
201502221300 METAR MROC 221300Z 10011KT 9999 FEW045 21/14 A3001 NOSIG=
201502221400 METAR MROC 221400Z 09016G26KT 9999 FEW045 23/14 A3000 NOSIG=
201502221500 METAR MROC 221500Z 08014G24KT 9999 FEW045 25/13 A3002 NOSIG=
201502221600 METAR MROC 221600Z 07016G27KT 9999 FEW040 26/14 A3002 NOSIG=
201502221700 METAR MROC 221700Z 07015G27KT 9999 FEW045 28/14 A3001 NOSIG=
201502221800 METAR MROC 221800Z 07018G28KT 9999 FEW040 28/11 A2998 NOSIG=
201502221900 METAR MROC 221900Z 06020G30KT 9999 FEW040 28/10 A2995 NOSIG=
201502222000 METAR MROC 222000Z 06020G30KT 9999 FEW035 29/09 A2993 NOSIG=
201502222100 METAR MROC 222100Z 07015G25KT 9999 FEW040 28/07 A2992 NOSIG=
201502222200 METAR MROC 222200Z 07016KT 9999 FEW040 26/09 A2993 NOSIG=
201502222300 METAR MROC 222300Z 07014KT 9999 FEW040 25/11 A2994 NOSIG=
201502230000 METAR MROC 230000Z 07010G20KT CAVOK 23/11 A2996 NOSIG=
201502230100 METAR MROC 230100Z 07015KT CAVOK 22/11 A2998 NOSIG=
201502230200 METAR MROC 230200Z 08015KT CAVOK 22/12 A2999 NOSIG=
201502230300 METAR MROC 230300Z 09013KT CAVOK 20/14 A3001 NOSIG=
201502230400 METAR MROC 230400Z 09011G21KT CAVOK 21/15 A3002 NOSIG=
201502230500 METAR MROC 230500Z 09011KT CAVOK 21/15 A3002 NOSIG=
201502230600 METAR MROC 230600Z 10012G22KT CAVOK 20/15 A3000 NOSIG=
201502230700 METAR MROC 230700Z 09012G22KT CAVOK 21/15 A2999 NOSIG=
201502230800 METAR MROC NIL=
201502230900 METAR MROC 230900Z 10015G25KT CAVOK 21/15 A2995 NOSIG=
201502231000 METAR MROC 231000Z 10016G27KT CAVOK 20/14 A2996 NOSIG=
201502231100 METAR MROC 231100Z 09013KT CAVOK 21/14 A2998 NOSIG=
201502231200 METAR MROC 231200Z 09011KT CAVOK 21/14 A3000 NOSIG=
201502231300 METAR MROC 231300Z 09014KT 9999 FEW040 23/14 A3001 NOSIG=
201502231400 METAR MROC 231400Z 09014G28KT 9999 FEW040 25/13 A3003 NOSIG=
201502231500 METAR MROC 231500Z 07017G29KT 9999 FEW040 26/11 A3004 NOSIG=
201502231600 METAR MROC 231600Z 07018G32KT 9999 FEW040 28/11 A3003 NOSIG=
201502231700 METAR MROC 231700Z 07022G34KT 9999 FEW040 27/10 A3003 NOSIG=
201502231800 METAR MROC 231800Z 07016G26KT 9999 FEW040 28/10 A3001 NOSIG=
201502231900 METAR MROC 231900Z 06019G32KT 9999 FEW040 29/10 A2999 NOSIG=
201502232000 METAR MROC 232000Z 05020G32KT 9999 FEW040 29/10 A2998 NOSIG=
201502232100 METAR MROC 232100Z 05020G30KT 9999 FEW045 28/11 A2997 NOSIG=
201502232200 METAR MROC 232200Z 06016KT 9999 FEW040 27/12 A2997 NOSIG=
201502232300 METAR MROC 232300Z 05017KT 9999 FEW040 26/11 A2997 NOSIG=
201502240000 METAR MROC 240000Z 05019KT 9999 FEW030 24/12 A2999 NOSIG=
201502240100 METAR MROC 240100Z 06016KT CAVOK 23/12 A3000 NOSIG=
201502240200 METAR MROC 240200Z 08011KT CAVOK 22/13 A3002 NOSIG=
201502240300 METAR MROC 240300Z 08012G19KT CAVOK 22/13 A3004 NOSIG=
201502240400 METAR MROC 240400Z 10011G21KT CAVOK 21/14 A3004 NOSIG=
201502240500 METAR MROC 240500Z 11011G21KT CAVOK 20/14 A3003 NOSIG=
201502240600 METAR MROC 240600Z 10011G21KT CAVOK 20/14 A3002 NOSIG=
201502240700 METAR MROC 240700Z 09010G20KT CAVOK 20/14 A3000 NOSIG=
201502240800 METAR MROC 240800Z 10011G21KT CAVOK 20/14 A2999 NOSIG=
201502240900 METAR MROC 240900Z 10010KT CAVOK 19/13 A2998 NOSIG=
201502241000 METAR MROC 241000Z 10010KT CAVOK 19/13 A2998 NOSIG=
201502241100 METAR MROC 241100Z 10011KT CAVOK 19/13 A2998 NOSIG=
201502241200 METAR MROC 241200Z 10011G21KT CAVOK 19/13 A3000 NOSIG=
201502241300 METAR MROC 241300Z 10014KT CAVOK 20/13 A3000 NOSIG=
201502241400 METAR MROC 241400Z 10014KT CAVOK 23/13 A3002 NOSIG=
201502241500 METAR MROC 241500Z 10014KT CAVOK 25/13 A3004 NOSIG=
201502241600 METAR MROC 241600Z 08013G23KT CAVOK 25/14 A3004 NOSIG=
201502241700 METAR MROC 241700Z 07014KT CAVOK 27/13 A3003 NOSIG=
201502241800 METAR MROC 241800Z 07015KT CAVOK 27/14 A3000 NOSIG=
201502241900 METAR MROC 241900Z 06013KT 9999 FEW040 28/13 A2998 NOSIG=
201502242000 METAR MROC 242000Z 06013KT 9999 FEW040 29/12 A2996 NOSIG=
201502242100 METAR MROC 242100Z 07010KT 9999 FEW040 28/12 A2995 NOSIG=
201502242200 METAR MROC 242200Z 08011KT 9999 FEW040 27/11 A2995 NOSIG=
201502242300 METAR MROC 242300Z 07008KT 9999 FEW040 27/10 A2996 NOSIG=
201502250000 METAR MROC 250000Z 10005KT 9999 FEW040 23/12 A2998 NOSIG=
201502250100 METAR MROC 250100Z 11006KT CAVOK 22/13 A3001 NOSIG=
201502250200 METAR MROC 250200Z 11006KT CAVOK 21/13 A3002 NOSIG=
201502250300 METAR MROC 250300Z 11008KT CAVOK 20/14 A3004 NOSIG=
201502250400 METAR MROC 250400Z 10007KT CAVOK 20/12 A3004 NOSIG=
201502250500 METAR MROC 250500Z 10007KT CAVOK 19/12 A3003 NOSIG=
201502250600 METAR MROC 250600Z 10008KT CAVOK 19/11 A3001 NOSIG=
201502250700 METAR MROC 270700Z 08008KT CAVOK 18/11 A2999 NOSIG=
201502250800 METAR MROC 250800Z 10008KT CAVOK 18/11 A2998 NOSIG=
201502250900 METAR MROC 250900Z 10010KT CAVOK 18/11 A2997 NOSIG=
201502251000 METAR MROC 251000Z 11007KT CAVOK 18/11 A2997 NOSIG=
201502251100 METAR MROC 251100Z 10006KT CAVOK 18/11 A2999 NOSIG=
201502251200 METAR MROC 251200Z 08007KT CAVOK 18/11 A3001 NOSIG=
201502251300 METAR MROC 251300Z 07006KT CAVOK 20/10 A3003 NOSIG=
201502251400 METAR MROC 251400Z 11007KT CAVOK 24/08 A3005 NOSIG=
201502251500 METAR MROC 251500Z 11009KT CAVOK 27/08 A3005 NOSIG=
201502251600 METAR MROC 251600Z 09008KT CAVOK 27/09 A3004 NOSIG=
201502251700 METAR MROC 251700Z 12008KT CAVOK 28/09 A3003 NOSIG=
201502251800 METAR MROC 251800Z 08008KT 9999 FEW040 29/09 A3000 NOSIG=
201502251900 METAR MROC 251900Z 09004KT 9999 FEW040 31/08 A2996 NOSIG=
201502252000 METAR MROC 252000Z 22009KT 9999 SCT040 28/13 A2994 NOSIG=
201502252100 METAR MROC 252100Z 26011KT 9999 FEW025 SCT040 28/15 A2993 NOSIG=
201502252200 METAR MROC 252200Z 25010KT 9999 VCSH FEW025TCU SCT040 28/15 A2993 NOSIG=
201502252300 METAR MROC 252300Z 17006KT 9999 -RA VCSH FEW020TCU BKN045 22/19 A2996 NOSIG=
201502260000 METAR MROC 260000Z 19004KT 9999 FEW030 BKN050 22/18 A2998 NOSIG=
201502260100 METAR MROC 260100Z 21004KT 9999 FEW030 BKN060 22/18 A3000 NOSIG=
201502260200 METAR MROC 260200Z 22003KT 9999 FEW030 SCT120 21/17 A3001 NOSIG=
201502260300 METAR MROC 260300Z VRB02KT 9999 FEW030 21/17 A3003 NOSIG=
201502260400 METAR MROC 260400Z 08004KT CAVOK 20/15 A3003 NOSIG=
201502260500 METAR MROC 260500Z 05006KT CAVOK 20/14 A3002 NOSIG=
201502260600 METAR MROC 260600Z 07005KT CAVOK 19/13 A3000 NOSIG=
201502260700 METAR MROC 260700Z 07004KT CAVOK 18/13 A2998 NOSIG=
201502260800 METAR MROC 260800Z 04009KT CAVOK 19/12 A2996 NOSIG=
201502260900 METAR MROC 260900Z 08003KT CAVOK 18/11 A2996 NOSIG=
201502261000 METAR MROC 261000Z 05004KT CAVOK 17/12 A2996 NOSIG=
201502261100 METAR MROC 261100Z 05005KT CAVOK 17/12 A2997 NOSIG=
201502261200 METAR MROC 261200Z 07006KT CAVOK 18/13 A2999 NOSIG=
201502261300 METAR MROC 261300Z 06005KT CAVOK 20/13 A3001 NOSIG=
201502261400 METAR MROC 261400Z 06005KT CAVOK 24/13 A3002 NOSIG=
201502261500 METAR MROC 261500Z 16002KT CAVOK 27/13 A3002 NOSIG=
201502261510 METAR MROC 261510Z 16002KT CAVOK 27/13 A3002 BECMG 24007KT=
201502261600 METAR MROC 261600Z 24004KT CAVOK 28/13 A3001 NOSIG=
201502261700 METAR MROC 261700Z 25004KT 9999 FEW040 30/13 A2999 NOSIG=
201502261800 METAR MROC 261800Z 28007KT 9999 FEW040 30/13 A2996 NOSIG=
201502261854 METAR MROC 161900Z 10017G29KT 9999 FEW035 27/14 A3000 NOSIG=
201502261900 METAR MROC 261900Z 25009KT 9999 FEW040 31/13 A2994 NOSIG=
201502262000 METAR MROC 262000Z 23008KT 9999 SCT035 31/13 A2991 NOSIG=
201502262100 METAR MROC 262100Z 28012KT 9999 SCT030 28/17 A2990 NOSIG=
201502262200 METAR MROC 262200Z 26008KT 9999 RA FEW010TCU BKN035 26/17 A2992 NOSIG=
201502262300 METAR MROC 262300Z 16005KT 9999 BKN030 24/17 A2994 NOSIG=
201502270000 METAR MROC 270000Z 12007KT 9999 BKN035 22/17 A2996 NOSIG=
201502270100 METAR MROC 270100Z 13005KT 9999 BKN035 22/17 A2998 NOSIG=
201502270200 METAR MROC 270200Z 09006KT 9999 BKN035 22/16 A3000 NOSIG=
201502270300 METAR MROC 270300Z 08007KT 9999 FEW035 SCT070 22/15 A3001 NOSIG=
201502270400 METAR MROC 270400Z 07008KT CAVOK 21/15 A3001 NOSIG=
201502270500 METAR MROC 270500Z 05006KT CAVOK 21/16 A3001 NOSIG=
201502270600 METAR MROC 270600Z 10009KT CAVOK 21/15 A2999 NOSIG=
201502270700 METAR MROC 270700Z 10008KT CAVOK 21/15 A2998 NOSIG=
201502270800 METAR MROC 270800Z 07007KT CAVOK 21/14 A2998 NOSIG=
201502270900 METAR MROC 270900Z 08007KT CAVOK 21/14 A2997 NOSIG=
201502271000 METAR MROC 271000Z 08005KT CAVOK 20/13 A2997 NOSIG=
201502271100 METAR MROC 271100Z 04007KT CAVOK 19/13 A2999 NOSIG=
201502271200 METAR MROC 271200Z 07005KT CAVOK 19/13 A3001 NOSIG=
201502271300 METAR MROC 271300Z 07008KT CAVOK 21/13 A3002 NOSIG=
201502271400 METAR MROC 271400Z 10009KT CAVOK 24/13 A3002 NOSIG=
201502271500 METAR MROC 271500Z 10011G21KT CAVOK 27/10 A3003 NOSIG=
201502271600 METAR MROC 271600Z 09010G20KT CAVOK 28/10 A3003 NOSIG=
201502271700 METAR MROC 271700Z 11010G20KT CAVOK 29/11 A3001 NOSIG=
201502271800 METAR MROC 271800Z 09013KT 9999 FEW045 29/12 A2998 NOSIG=
201502271900 METAR MROC 271900Z 09013G23KT 9999 FEW040 29/13 A2996 NOSIG=
201502272000 METAR MROC 272000Z 09013KT 9999 FEW040 29/13 A2993 NOSIG=
201502272100 METAR MROC 272100Z 08012KT 9999 FEW040 29/13 A2992 NOSIG=
201502272200 METAR MROC 272200Z 10010KT 9999 SCT040 28/14 A2992 NOSIG=
201502272300 METAR MROC 272300Z 10012KT 9999 FEW040 26/15 A2993 NOSIG=
201502280000 METAR MROC 280000Z 11011KT 9999 FEW040 23/16 A2994 NOSIG=
201502280100 METAR MROC 280100Z 10010KT 9999 FEW040 22/16 A2997 NOSIG=
201502280200 METAR MROC 280200Z 10012KT 9999 FEW040 22/16 A2999 NOSIG=
201502280300 METAR MROC 280300Z 10010G20KT CAVOK 21/16 A3001 NOSIG=
201502280400 METAR MROC 280400Z 10010G20KT CAVOK 21/16 A3001 NOSIG=
201502280500 METAR MROC 280500Z 10010G22KT CAVOK 21/16 A3001 NOSIG=
201502280600 METAR MROC 280600Z 10011G21KT CAVOK 21/16 A3000 NOSIG=
201502280700 METAR MROC 280700Z 09009KT CAVOK 21/16 A2999 NOSIG=
201502280800 METAR MROC 280800Z 09010KT CAVOK 21/15 A2998 NOSIG=
201502280900 METAR MROC 280900Z 09010G20KT CAVOK 21/15 A2997 NOSIG=
201502281000 METAR MROC 281000Z 10012G22KT CAVOK 21/15 A2998 NOSIG=
201502281100 METAR MROC 281100Z 09012G23KT CAVOK 21/16 A3000 NOSIG=
201502281200 METAR MROC 281200Z 09010KT 9999 FEW030 21/16 A3002 NOSIG=
201502281300 METAR MROC 281300Z 06010KT 9999 FEW030 SCT120 22/16 A3004 NOSIG=
201502281400 METAR MROC 281400Z 10014G27KT 9999 FEW030 SCT110 22/15 A3006 NOSIG=
201502281500 METAR MROC 281500Z 09018G30KT 9999 SCT030 25/14 A3007 NOSIG=
201502281600 METAR MROC 281600Z 09014G26KT 9999 SCT030 26/14 A3008 NOSIG=
201502281700 METAR MROC 281700Z 08015G26KT 9999 SCT030 26/13 A3001 NOSIG=
201502281800 METAR MROC 281800Z 09014G24KT 9999 SCT030 27/11 A3004 NOSIG=
201502281900 METAR MROC 281900Z 07014G24KT 9999 FEW035 27/12 A3003 NOSIG=
201502282000 METAR MROC 282000Z 08013G23KT 9999 FEW035 27/13 A3001 NOSIG=
201502282100 METAR MROC 282100Z 09014G24KT 9999 FEW035 26/12 A3000 NOSIG=
201502282200 METAR MROC 282200Z 09013G24KT 9999 FEW040 26/10 A3000 NOSIG=
201502282300 METAR MROC 282300Z 10014G24KT 9999 FEW040 24/12 A3001 NOSIG=
201503010000 METAR MROC 010000Z 09012KT 9999 FEW040 22/12 A3002 NOSIG=
201503010100 METAR MROC 010100Z 09011KT CAVOK 22/13 A3003 NOSIG=
201503010200 METAR MROC 010200Z 09013G23KT CAVOK 22/13 A3004 NOSIG=
201503010300 METAR MROC 010300Z 09013G25KT CAVOK 22/14 A3005 NOSIG=
201503010400 METAR MROC 010400Z 10013KT CAVOK 21/14 A3005 BECMG 10015G25KT=
201503010500 METAR MROC 010500Z 10016G26KT CAVOK 21/14 A3003 NOSIG=
201503010600 METAR MROC 010600Z 10013G23KT 9999 FEW040 21/15 A3002 NOSIG=
201503010700 METAR MROC 010700Z 10013KT 9999 FEW040 22/14 A3001 BECMG 09015G25KT=
201503010800 METAR MROC 010800Z 10014G24KT 9999 FEW040 21/15 A3000 NOSIG=
201503010900 METAR MROC 010900Z 10014G24KT 9999 FEW040 21/16 A3000 NOSIG=
201503011000 METAR MROC 011000Z 10014G24KT 9999 FEW040 21/15 A3000 NOSIG=
201503011100 METAR MROC 011100Z 10012G22KT 9999 FEW040 21/16 A3001 NOSIG=
201503011200 METAR MROC 011200Z 10013G23KT 9999 FEW040 21/13 A3003 NOSIG=
201503011300 METAR MROC 011300Z 09014KT 9999 FEW040 SCT080 23/15 A3004 NOSIG=
201503011400 METAR MROC 011400Z 09015G26KT 9999 FEW040 BKN100 23/16 A3007 NOSIG=
201503011500 METAR MROC 011500Z 09013G23KT 9999 -RA FEW040 BKN100 24/16 A3008 NOSIG=
201503011600 METAR MROC 011600Z 08015G26KT 9999 FEW035 BKN100 26/15 A3006 NOSIG=
201503011700 METAR MROC 011700Z 07016G28KT 9999 FEW035 BKN100 26/15 A3005 NOSIG=
201503011800 METAR MROC 011800Z 07019G30KT 9999 FEW030 BKN100 28/15 A3004 NOSIG=
201503011900 METAR MROC 011900Z 07016G26KT 9999 SCT030 BKN100 26/16 A3002 NOSIG=
201503012000 METAR MROC 012000Z 07017G29KT 9999 SCT030 BKN100 26/15 A3000 NOSIG=
201503012100 METAR MROC 012100Z 07016G28KT 9999 SCT030 BKN100 26/15 A2998 NOSIG=
201503012200 METAR MROC 012200Z 08015KT 9999 SCT030 BKN100 25/15 A2999 NOSIG=
201503012300 METAR MROC 012300Z 08013G23KT 9999 FEW030 SCT100 25/15 A3000 NOSIG=
201503020000 METAR MROC 020000Z 08011KT 9999 FEW030 SCT100 23/15 A3001 NOSIG=
201503020100 METAR MROC 020100Z 08016KT 9999 FEW030 23/15 A3001 NOSIG=
201503020200 METAR MROC 020200Z 09011G21KT 9999 FEW030 23/13 A3004 NOSIG=
201503020300 METAR MROC 020300Z 09011KT 9999 FEW035 22/14 A3006 NOSIG=
201503020400 METAR MROC 020400Z 11012G22KT 9999 FEW035 20/15 A3007 NOSIG=
201503020500 METAR MROC 020500Z 11017G30KT 9999 FEW035 20/15 A3004 NOSIG=
201503020600 METAR MROC 020600Z 10016G26KT 9999 FEW035 20/14 A3003 NOSIG=
201503020700 METAR MROC 020700Z 10016G26KT 9999 FEW035 20/14 A3002 NOSIG=
201503020800 METAR MROC 020800Z 10015G26KT 9999 FEW035 20/12 A3000 NOSIG=
201503020900 METAR MROC 020900Z 10017G27KT CAVOK 20/10 A2999 NOSIG=
201503021000 METAR MROC 021000Z 10017G27KT CAVOK 20/11 A2998 NOSIG=
201503021100 METAR MROC 021100Z 09016G26KT CAVOK 20/11 A2999 NOSIG=
201503021200 METAR MROC 021200Z 10014G24KT CAVOK 20/13 A3001 NOSIG=
201503021300 METAR MROC 021300Z 10014KT CAVOK 21/12 A3003 NOSIG=
201503021400 METAR MROC 021400Z 10016G26KT CAVOK 24/12 A3005 NOSIG=
201503021500 METAR MROC 021500Z 09019G29KT CAVOK 25/13 A3005 NOSIG=
201503021600 METAR MROC 021600Z 08019G29KT 9999 FEW030 26/13 A3006 NOSIG=
201503021700 METAR MROC 021700Z 08019G31KT 9999 FEW030 27/10 A3003 NOSIG=
201503021800 METAR MROC 021800Z 07016G26KT 9999 FEW030 27/12 A3001 NOSIG=
201503021900 METAR MROC 021900Z 09021G35KT 9999 FEW030 26/14 A2998 NOSIG=
201503022000 METAR MROC 022000Z 09017G30KT 9999 FEW030 27/12 A2997 NOSIG=
201503022100 METAR MROC 022100Z 07020G30KT 9999 FEW030 26/11 A2993 NOSIG=
201503022200 METAR MROC 022200Z 07016G26KT 9999 FEW030 26/12 A2993 NOSIG=
201503022300 METAR MROC 022300Z 08018G31KT 9999 FEW030 24/12 A2994 NOSIG=
201503030000 METAR MROC 030000Z 09016G26KT 9999 FEW030 22/13 A2996 NOSIG=
201503030100 METAR MROC 030100Z 08014G24KT 9999 FEW030 21/09 A2998 NOSIG=
201503030200 METAR MROC 030200Z 10018G28KT CAVOK 20/11 A3001 NOSIG=
201503030300 METAR MROC 030300Z 10014G24KT CAVOK 19/11 A3003 NOSIG=
201503030400 METAR MROC 030400Z 10016G27KT CAVOK 20/09 A3003 NOSIG=
201503030500 METAR MROC 030500Z 11015G25KT CAVOK 20/08 A3003 NOSIG=
201503030600 METAR MROC 030600Z 10013KT CAVOK 20/09 A3000 NOSIG=
201503030700 METAR MROC 030700Z 09012G22KT CAVOK 20/12 A2999 NOSIG=
201503030800 METAR MROC 030800Z 10014G24KT CAVOK 18/12 A2997 NOSIG=
201503030900 METAR MROC 030900Z 09016G26KT CAVOK 19/12 A2995 NOSIG=
201503031000 METAR MROC 031000Z 10014G25KT 9999 FEW045 18/13 A2994 NOSIG=
201503031100 METAR MROC 031100Z 11014G24KT 9999 FEW045 19/13 A2997 NOSIG=
201503031200 METAR MROC 031200Z 10012G22KT CAVOK 19/12 A2999 NOSIG=
201503031300 METAR MROC 031300Z 10014G24KT CAVOK 20/12 A2999 NOSIG=
201503031400 METAR MROC 031400Z 09016G26KT CAVOK 23/12 A3002 NOSIG=
201503031500 METAR MROC 031500Z 08018G31KT 9999 FEW030 24/11 A3003 NOSIG=
201503031600 METAR MROC 031600Z 07020G33KT 9999 FEW030 26/09 A3003 NOSIG=
201503031700 METAR MROC 031700Z 07019G32KT 9999 FEW030 27/07 A3001 NOSIG=
201503031800 METAR MROC 031800Z 07018G30KT 9999 FEW030 28/07 A2998 NOSIG=
201503031900 METAR MROC 031900Z 07017G30KT CAVOK 29/06 A2995 NOSIG=
201503032000 METAR MROC 032000Z 06019G29KT CAVOK 29/06 A2992 NOSIG=
201503032100 METAR MROC 032100Z 06016G26KT CAVOK 27/12 A2991 NOSIG=
201503032200 METAR MROC 032200Z 05015G25KT 9999 FEW040 26/14 A2992 NOSIG=
201503032300 METAR MROC 032300Z 07011G21KT 9999 FEW040 24/15 A2991 NOSIG=
201503040000 METAR MROC 040000Z 08014G24KT 9999 FEW035 21/14 A2993 NOSIG=
201503040100 METAR MROC 040100Z 07014G24KT 9999 FEW035 21/13 A2995 NOSIG=
201503040200 METAR MROC 040200Z 07010G20KT 9999 FEW040 21/13 A2997 NOSIG=
201503040300 METAR MROC 040300Z 08012G22KT 9999 FEW040 21/12 A2999 NOSIG=
201503040400 METAR MROC 040400Z 07017KT CAVOK 20/13 A2999 NOSIG=
201503040500 METAR MROC 040500Z 07019KT CAVOK 20/12 A2999 NOSIG=
201503040600 METAR MROC 040600Z 10014KT CAVOK 19/12 A2998 NOSIG=
201503040700 METAR MROC 040700Z 10014G23KT CAVOK 19/12 A2995 NOSIG=
201503040800 METAR MROC 040800Z 09012G22KT CAVOK 18/12 A2993 NOSIG=
201503040900 METAR MROC 040900Z 09010G20KT CAVOK 19/11 A2991 NOSIG=
201503041000 METAR MROC 041000Z 10011G21KT CAVOK 19/11 A2991 NOSIG=
201503041100 METAR MROC 041100Z 09011G21KT CAVOK 19/12 A2993 NOSIG=
201503041200 METAR MROC 041200Z 10011G21KT 9999 FEW030 SCT200 19/12 A2996 NOSIG=
201503041300 METAR MROC 041300Z 10010KT 9999 FEW045 BKN250 20/13 A3000 NOSIG=
201503041400 METAR MROC 041400Z 11010KT CAVOK 22/13 A3001 NOSIG=
201503041500 METAR MROC 041500Z 11011G21KT CAVOK 25/11 A3001 NOSIG=
201503041600 METAR MROC 041600Z 09011G21KT CAVOK 27/09 A3001 NOSIG=
201503041700 METAR MROC 041700Z 08011KT CAVOK 28/10 A2999 NOSIG=
201503041800 METAR MROC 041800Z 12009KT CAVOK 29/10 A2997 NOSIG=
201503041900 METAR MROC 041900Z 08010KT 9999 FEW045 BKN250 29/11 A2994 NOSIG=
201503042000 METAR MROC 042000Z 08010KT 9999 FEW045 SCT250 29/12 A2992 NOSIG=
201503042100 METAR MROC 042100Z 10010G20KT 9999 FEW045 SCT250 28/12 A2991 NOSIG=
201503042200 METAR MROC 042200Z 09012KT 9999 FEW045 27/12 A2991 NOSIG=
201503042300 METAR MROC 042300Z 10010KT 9999 FEW045 25/13 A2992 NOSIG=
201503050000 METAR MROC 050000Z 10010KT 9999 FEW040 23/13 A2994 NOSIG=
201503050100 METAR MROC 050100Z 11010G20KT 9999 FEW040 21/13 A2996 NOSIG=
201503050200 METAR MROC 050200Z 11014KT 9999 FEW040 21/14 A2997 NOSIG=
201503050300 METAR MROC 050300Z 11012KT CAVOK 21/14 A2999 NOSIG=
201503050400 METAR MROC 050400Z 10010G21KT CAVOK 20/13 A3000 NOSIG=
201503050500 METAR MROC 050500Z 10012G22KT CAVOK 20/13 A3000 NOSIG=
201503050600 METAR MROC 050600Z 10012G22KT CAVOK 20/13 A2998 NOSIG=
201503050700 METAR MROC 050700Z 10012G22KT CAVOK 19/13 A2996 NOSIG=
201503050800 METAR MROC 050800Z 10012G23KT CAVOK 19/13 A2993 NOSIG=
201503050900 METAR MROC 050900Z 10011G22KT CAVOK 19/13 A2993 NOSIG=
201503051000 METAR MROC 051000Z 09010G20KT CAVOK 19/12 A2994 NOSIG=
201503051100 METAR MROC 051100Z 09010G20KT CAVOK 19/12 A2994 NOSIG=
201503051200 METAR MROC 051200Z 10009KT CAVOK 19/11 A2997 NOSIG=
201503051300 METAR MROC 051300Z 11011KT CAVOK 21/11 A2999 NOSIG=
201503051400 METAR MROC 051400Z 11013KT CAVOK 25/10 A3000 NOSIG=
201503051500 METAR MROC NIL=
201503051600 METAR MROC 051600Z 08013G23KT CAVOK 27/11 A3000 NOSIG=
201503051700 METAR MROC 051700Z 09011KT CAVOK 29/12 A3000 NOSIG=
201503051800 METAR MROC 051800Z 10012KT CAVOK 29/12 A2997 NOSIG=
201503051900 METAR MROC 051900Z 10012KT CAVOK 30/13 A2995 NOSIG=
201503052000 METAR MROC 052000Z 10010KT 9999 FEW035 30/12 A2992 NOSIG=
201503052100 METAR MROC 052100Z 09012KT 9999 FEW040 29/13 A2990 NOSIG=
201503052200 METAR MROC 052200Z 10011KT 9999 FEW040 28/13 A2991 NOSIG=
201503052300 METAR MROC 052300Z 10010G20KT 9999 FEW035 26/14 A2993 NOSIG=
201503060000 METAR MROC 060000Z 10007KT 9999 FEW035 23/14 A2995 NOSIG=
201503060100 METAR MROC 060100Z 10008KT 9999 FEW035 22/15 A2998 NOSIG=
201503060200 METAR MROC 060200Z 10008KT 9999 FEW035 22/14 A3001 NOSIG=
201503060300 METAR MROC 060300Z 11009KT 9999 FEW035 21/12 A3003 NOSIG=
201503060400 METAR MROC 060400Z 10011KT CAVOK 20/13 A3003 NOSIG=
201503060500 METAR MROC 060500Z 11014G24KT CAVOK 20/14 A3001 NOSIG=
201503060600 METAR MROC 060600Z 10013G23KT CAVOK 20/14 A3000 NOSIG=
201503060700 METAR MROC 060700Z 09013G23KT CAVOK 20/13 A2998 NOSIG=
201503060800 METAR MROC 060800Z 09012KT CAVOK 20/14 A2997 NOSIG=
201503060900 METAR MROC 060900Z 10011G21KT CAVOK 20/14 A2997 NOSIG=
201503061000 METAR MROC 061000Z 09011KT CAVOK 20/13 A2996 NOSIG=
201503061100 METAR MROC 061100Z 08011KT CAVOK 21/13 A2997 NOSIG=
201503061200 METAR MROC 061200Z 07018G28KT 9999 FEW045 21/12 A2999 NOSIG=
201503061300 METAR MROC 061300Z 09011G22KT CAVOK 23/12 A3002 NOSIG=
201503061400 METAR MROC 061400Z COR 09014G26KT 9999 FEW045 24/12 A3003 NOSIG=
201503061500 METAR MROC 061500Z 07021KT 9999 FEW045 26/11 A3003 NOSIG=
201503061600 METAR MROC 061600Z 08018G28KT 9999 FEW045 28/09 A3003 NOSIG=
201503061700 METAR MROC 061700Z 07016G26KT CAVOK 30/08 A3001 NOSIG=
201503061800 METAR MROC 061800Z 06020G32KT CAVOK 29/09 A2999 NOSIG=
201503061900 METAR MROC 061900Z 07015G25KT CAVOK 30/10 A2997 NOSIG=
201503062000 METAR MROC 062000Z 06018G28KT 9999 FEW045 30/12 A2995 NOSIG=
201503062100 METAR MROC 062100Z 06018G31KT 9999 FEW040 29/12 A2994 NOSIG=
201503062200 METAR MROC 062200Z 06015G25KT CAVOK 29/11 A2992 NOSIG=
201503062300 METAR MROC 062300Z 06018G28KT CAVOK 25/13 A2993 NOSIG=
201503070000 METAR MROC 070000Z 07018G28KT CAVOK 24/13 A2994 NOSIG=
201503070100 METAR MROC 070100Z 07015G25KT CAVOK 24/13 A2996 NOSIG=
201503070200 METAR MROC 070200Z 07016G26KT CAVOK 23/13 A2999 NOSIG=
201503070300 METAR MROC 070300Z 08012KT CAVOK 22/13 A3002 NOSIG=
201503070400 METAR MROC 070400Z 07015KT CAVOK 22/13 A3002 NOSIG=
201503070500 METAR MROC 070500Z 07020G30KT CAVOK 22/12 A3001 NOSIG=
201503070600 METAR MROC 070600Z 08016G26KT CAVOK 22/11 A3000 NOSIG=
201503070700 METAR MROC 070700Z 09014G24KT CAVOK 21/12 A2998 NOSIG=
201503070800 METAR MROC 070800Z 08013KT CAVOK 21/14 A2998 NOSIG=
201503070900 METAR MROC 070900Z 08014G25KT CAVOK 20/13 A2998 NOSIG=
201503071000 METAR MROC 071000Z 10015G26KT CAVOK 20/12 A2998 NOSIG=
201503071100 METAR MROC 071100Z 10015G39KT CAVOK 20/12 A2996 NOSIG=
201503071200 METAR MROC 071200Z 10018G32KT 9999 FEW040 20/13 A2998 NOSIG=
201503071300 METAR MROC 071300Z 10016G26KT CAVOK 21/13 A3001 NOSIG=
201503071400 METAR MROC 071400Z 10014G24KT 9999 FEW040 23/13 A3001 NOSIG=
201503071500 METAR MROC 071500Z 08015G25KT 9999 FEW040 25/13 A3003 NOSIG=
201503071600 METAR MROC 071600Z 08018G28KT 9999 FEW040 25/12 A3004 NOSIG=
201503071700 METAR MROC 071700Z 08016G26KT 9999 FEW040 26/11 A3003 NOSIG=
201503071800 METAR MROC 071800Z 08017G27KT 9999 FEW040 26/12 A3001 NOSIG=
201503071900 METAR MROC 071900Z 08018G28KT 9999 FEW040 27/12 A2998 NOSIG=
201503072000 METAR MROC 072000Z 08019G29KT 9999 FEW040 26/10 A2995 NOSIG=
201503072100 METAR MROC 072100Z 08017G27KT 9999 FEW040 27/09 A2993 NOSIG=
201503072200 METAR MROC 072200Z 09017G27KT 9999 FEW040 SCT250 26/13 A2992 NOSIG=
201503072300 METAR MROC 072300Z 09018G29KT 9999 FEW040 SCT250 24/15 A2992 NOSIG=
201503072355 METAR MROC 080000Z 08018G28KT 9999 FEW035 SCT250 22/14 A2992 NOSIG=
201503080000 METAR MROC 080000Z 08018G28KT 9999 FEW035 SCT250 22/14 A2992 NOSIG=
201503080100 METAR MROC 080100Z 08020G30KT 9999 FEW035 21/14 A2995 NOSIG=
201503080200 METAR MROC 080200Z 08018G28KT 9999 FEW035 21/15 A2996 NOSIG=
201503080300 METAR MROC 080300Z 08016G26KT 9999 FEW035 21/15 A2999 NOSIG=
201503080400 METAR MROC 080400Z 08018G28KT 9999 FEW035 21/14 A2998 NOSIG=
201503080500 METAR MROC 080500Z 09016G26KT 9999 FEW035 20/14 A2997 NOSIG=
201503080600 METAR MROC 080600Z 09019G29KT 9999 FEW035 21/13 A2996 NOSIG=
201503080700 METAR MROC 080700Z 09020G34KT 9999 FEW035 21/14 A2993 NOSIG=
201503080800 METAR MROC 080800Z 08020G30KT 9999 FEW035 21/13 A2990 NOSIG=
201503080900 METAR MROC 080900Z 09017G27KT CAVOK 21/14 A2989 NOSIG=
201503081000 METAR MROC 081000Z 08020G30KT CAVOK 20/14 A2988 NOSIG=
201503081100 METAR MROC 081100Z 09017G28KT 9999 FEW035 20/15 A2989 NOSIG=
201503081200 METAR MROC 081200Z 09016G26KT 9999 FEW035 20/15 A2991 NOSIG=
201503081300 METAR MROC 081300Z 09017G27KT 9999 FEW035 22/15 A2994 NOSIG=
201503081400 METAR MROC 081400Z 08018G28KT 9999 FEW035 23/14 A2995 NOSIG=
201503081500 METAR MROC 081500Z 08020G31KT 9999 FEW035 25/14 A2995 NOSIG=
201503081600 METAR MROC 081600Z 08018G29KT 9999 FEW035 26/13 A2996 NOSIG=
201503081700 METAR MROC 081700Z 08021G36KT 9999 FEW035 25/13 A2995 NOSIG=
201503081800 METAR MROC 081800Z 07019G29KT 9999 FEW035 26/12 A2994 NOSIG=
201503081900 METAR MROC 081900Z 07019G31KT 9999 FEW045 27/12 A2991 NOSIG=
201503082000 METAR MROC 082000Z 07020G32KT 9999 FEW045 26/11 A2989 NOSIG=
201503082100 METAR MROC 082100Z 07019G31KT 9999 FEW045 26/11 A2987 NOSIG=
201503082200 METAR MROC 082200Z 07018G29KT 9999 FEW045 25/12 A2986 NOSIG=
201503082300 METAR MROC 082300Z 08020G30KT 9999 FEW045 24/13 A2987 NOSIG=
201503090000 METAR MROC 090000Z 08016G29KT 9999 FEW045 22/14 A2988 NOSIG=
201503090100 METAR MROC 090100Z 08017G28KT 9999 FEW045 21/14 A2989 NOSIG=
201503090200 METAR MROC 090200Z 09015G25KT 9999 FEW045 21/14 A2991 NOSIG=
201503090300 METAR MROC 090300Z 10015G25KT 9999 FEW045 20/14 A2992 NOSIG=
201503090400 METAR MROC 090400Z 10018G29KT CAVOK 20/14 A2993 NOSIG=
201503090500 METAR MROC 090500Z 10018G30KT CAVOK 20/14 A2991 NOSIG=
201503090600 METAR MROC 090600Z 10015G25KT CAVOK 21/14 A2989 NOSIG=
201503090700 METAR MROC 090700Z 10017G28KT CAVOK 20/14 A2988 NOSIG=
201503090800 METAR MROC 090800Z 10017G27KT CAVOK 20/14 A2987 NOSIG=
201503090900 METAR MROC 090900Z 09017G28KT CAVOK 20/14 A2986 NOSIG=
201503091000 METAR MROC 091000Z 10013G23KT CAVOK 20/14 A2987 NOSIG=
201503091100 METAR MROC 091100Z 10012KT CAVOK 21/14 A2988 BECMG 10020G30KT=
201503091200 METAR MROC 091200Z 10010G20KT CAVOK 21/14 A2989 NOSIG=
201503091300 METAR MROC 091300Z 10012G22KT CAVOK 21/14 A2991 NOSIG=
201503091400 METAR MROC 091400Z 10015G25KT 9999 FEW045 23/15 A2993 NOSIG=
201503091500 METAR MROC 091500Z 10018G31KT 9999 FEW045 26/14 A2993 NOSIG=
201503091600 METAR MROC 091600Z 11014G24KT 9999 FEW045 26/15 A2994 NOSIG=
201503091700 METAR MROC 091700Z 11012G24KT 9999 FEW040 28/15 A2994 NOSIG=
201503091800 METAR MROC 091800Z 10014G25KT 9999 FEW040 27/14 A2993 NOSIG=
201503091900 METAR MROC 091900Z 10014G24KT 9999 SCT040 27/13 A2991 NOSIG=
201503092000 METAR MROC 092000Z 09015KT 9999 FEW040 27/13 A2989 NOSIG=
201503092100 METAR MROC 092100Z 09014KT 9999 FEW035 26/13 A2987 NOSIG=
201503092200 METAR MROC 092200Z 08012G22KT 9999 FEW035 26/13 A2986 NOSIG=
201503092300 METAR MROC 092300Z 09017G27KT 9999 SCT035 24/14 A2987 NOSIG=
201503100000 METAR MROC 100000Z 11014G25KT 9999 FEW035 22/16 A2988 NOSIG=
201503100100 METAR MROC 100100Z 09013G24KT 9999 FEW035 21/16 A2991 NOSIG=
201503100200 METAR MROC 100200Z 11015G25KT 9999 FEW035 20/16 A2993 NOSIG=
201503100300 METAR MROC 100300Z 10015KT 9999 FEW035 21/15 A2996 NOSIG=
201503100400 METAR MROC 100400Z 11011G21KT 9999 FEW035 21/14 A2995 NOSIG=
201503100500 METAR MROC 100500Z 11014G26KT 9999 FEW035 20/15 A2994 NOSIG=
201503100600 METAR MROC 100600Z 11011G21KT 9999 FEW035 20/16 A2993 NOSIG=
201503100700 METAR MROC 100700Z 11014G26KT 9999 FEW035 21/15 A2990 NOSIG=
201503100800 METAR MROC 100800Z 11012G22KT 9999 FEW035 20/15 A2989 NOSIG=
201503100900 METAR MROC 100900Z 11011G21KT 9999 FEW035 20/16 A2989 NOSIG=
201503101000 METAR MROC 101000Z 12016KT 9999 FEW035 20/16 A2989 NOSIG=
201503101100 METAR MROC 101100Z 10014G26KT 9999 FEW035 21/16 A2989 NOSIG=
201503101200 METAR MROC 101200Z 10011G21KT 9999 FEW035 21/15 A2992 NOSIG=
201503101300 METAR MROC 101300Z 12011G21KT 9999 FEW035 22/15 A2994 NOSIG=
201503101400 METAR MROC 101400Z 10013KT 9999 FEW035 24/15 A2996 NOSIG=
201503101500 METAR MROC 101500Z 09015G25KT 9999 FEW035 27/15 A2996 NOSIG=
201503101600 METAR MROC 101600Z 09015G25KT 9999 FEW035 27/15 A2996 NOSIG=
201503101700 METAR MROC 101700Z 09014KT 9999 FEW035 28/14 A2995 NOSIG=
201503101800 METAR MROC 101800Z 08013G23KT 9999 FEW035 29/14 A2994 NOSIG=
201503101900 METAR MROC 101900Z 07014G24KT 9999 SCT035 29/13 A2992 NOSIG=
201503102000 METAR MROC 102000Z 10012G22KT 9999 SCT035 28/15 A2989 NOSIG=
201503102100 METAR MROC 102100Z 10010KT 9999 SCT035 29/16 A2987 NOSIG=
201503102200 METAR MROC 102200Z 08012KT 9999 FEW030 BKN060 27/16 A2988 NOSIG=
201503102300 METAR MROC 102300Z 08010KT 9999 SCT030 SCT120 25/16 A2989 NOSIG=
201503110000 METAR MROC 110000Z 10011KT 9999 SCT030 23/16 A2991 NOSIG=
201503110100 METAR MROC 110100Z 11007KT 9999 SCT030 22/16 A2993 NOSIG=
201503110200 METAR MROC 110200Z 11011KT 9999 FEW030 22/16 A2994 NOSIG=
201503110300 METAR MROC 110300Z 10012KT 9999 FEW035 22/16 A2995 NOSIG=
201503110400 METAR MROC 110400Z 10010G20KT 9999 FEW035 22/16 A2995 NOSIG=
201503110500 METAR MROC 110500Z 10009KT 9999 FEW035 22/16 A2995 NOSIG=
201503110600 METAR MROC 110600Z 09010KT 9999 FEW035 22/16 A2995 NOSIG=
201503110700 METAR COR MROC 110700Z 07012G22KT 9999 FEW035 20/15 A2993 NOSIG=
201503110709 METAR MROC 110709Z 07012G20KT 9999 FEW035 20/15 A2993 NOSIG=
201503110800 METAR MROC 110800Z 11009KT 9999 SCT035 21/16 A2993 NOSIG=
201503110900 METAR MROC 110900Z 11011G21KT 9999 SCT035 21/16 A2991 NOSIG=
201503111000 METAR MROC 111000Z 11009KT 9999 SCT035 21/16 A2993 NOSIG=
201503111100 METAR MROC 111100Z 11010G20KT 9999 SCT035 21/16 A2993 NOSIG=
201503111200 METAR MROC 111200Z 11011KT 9999 FEW035 SCT140 21/16 A2995 NOSIG=
201503111300 METAR MROC 111300Z 11011G22KT 9999 FEW030 23/16 A2997 NOSIG=
201503111400 METAR MROC 111400Z 11014G24KT 9999 FEW030 24/16 A2998 NOSIG=
201503111500 METAR MROC 111500Z 11012G22KT 9999 FEW045 27/15 A2998 NOSIG=
201503111600 METAR MROC 111600Z 08013G23KT 9999 FEW025 28/15 A2999 NOSIG=
201503111700 METAR MROC 111700Z 08012KT 9999 FEW025 29/16 A2997 NOSIG=
201503111705 METAR MROC 111705Z 09011G22KT 9999 FEW025 29/16 A2997 NOSIG=
201503111800 METAR MROC 111800Z 09015G25KT 9999 FEW035 SCT060 30/16 A2994 NOSIG=
201503111900 METAR MROC 111900Z 09016KT 9999 SCT035 29/16 A2992 NOSIG=
201503112000 METAR MROC 112000Z 08012G22KT 9999 SCT035 30/16 A2990 NOSIG=
201503112100 METAR MROC 112100Z 09015KT 9999 SCT030 29/16 A2987 NOSIG=
201503112200 METAR MROC 112200Z COR 10011G21KT 9999 SCT030 26/17 A2988 NOSIG=
201503112300 METAR MROC 112300Z 10011G21KT 9999 SCT030 26/17 A2988 NOSIG=
201503120000 METAR MROC 120000Z 11011G21KT 9999 SCT030 24/16 A2991 NOSIG=
201503120100 METAR MROC 120100Z 10008KT 9999 FEW030 23/15 A2995 NOSIG=
201503120200 METAR MROC 120200Z 11012G23KT 9999 FEW030 22/16 A2996 NOSIG=
201503120300 METAR MROC 120300Z 12009KT 9999 FEW030 22/16 A2998 NOSIG=
201503120400 METAR MROC 120400Z 11010KT 9999 FEW030 22/16 A2997 NOSIG=
201503120500 METAR MROC 120500Z 10012KT 9999 FEW030 23/16 A2998 NOSIG=
201503120600 METAR MROC 120600Z 12012KT 9999 FEW030 22/16 A2997 NOSIG=
201503120700 METAR MROC 120700Z 10013KT 9999 FEW030 22/16 A2994 NOSIG=
201503120800 METAR MROC 120800Z 10010G20KT 9999 FEW030 21/17 A2993 NOSIG=
201503120900 METAR MROC 120900Z 10013KT 9999 FEW030 22/16 A2992 NOSIG=
201503121000 METAR MROC 121000Z 10015G25KT 9999 FEW030 22/16 A2992 NOSIG=
201503121100 METAR MROC 121100Z 10014G25KT 9999 FEW030 22/17 A2992 NOSIG=
201503121200 METAR MROC 121200Z 10015G25KT 9999 FEW030 22/17 A2994 NOSIG=
201503121300 METAR MROC 121300Z 10012G22KT 9999 FEW035 23/17 A2997 NOSIG=
201503121400 METAR MROC 121400Z 11016G27KT 9999 FEW035 24/17 A2999 NOSIG=
201503121500 METAR MROC 121500Z 09014G24KT 9999 FEW035 27/16 A2999 NOSIG=
201503121600 METAR MROC 121600Z 09015G25KT 9999 FEW035 29/16 A2999 NOSIG=
201503121700 METAR MROC 121700Z 09018G29KT 9999 FEW035 28/16 A2997 NOSIG=
201503121800 METAR MROC 121800Z 10012G22KT 9999 FEW035 29/15 A2998 NOSIG=
201503121900 METAR MROC 121900Z 09012G22KT 9999 FEW035 29/15 A2998 NOSIG=
201503122000 METAR MROC 122000Z 10014G24KT 9999 FEW035 29/16 A2992 NOSIG=
201503122100 METAR MROC 122100Z 08014G24KT 9999 FEW030 SCT250 27/15 A2992 NOSIG=
201503122200 METAR MROC 122200Z 10015G25KT 5000 2000SW VA SCT020 SCT250 26/16 A2991 BECMG 2000=
201503122205 METAR MROC 122205Z 10015G25KT 0500 VA SCT015 BKN200 26/16 A2991 NOSIG=
201503122300 METAR MROC 122300Z 10011G21KT 9999 FEW030 SCT250 25/17 A2992 REVA NOSIG=
201503122356 METAR MROC 130000Z 11010G20KT 9999 FEW030 BKN250 23/17 A2995 NOSIG=
201503130000 METAR MROC 130000Z 11010G20KT 9999 FEW030 BKN250 23/17 A2995 NOSIG=
201503130100 METAR MROC 130100Z 07012KT 9999 FEW030 23/16 A2996 NOSIG=
201503130200 METAR MROC 130200Z 09012G22KT 9999 FEW030 23/16 A2997 NOSIG=
201503130300 METAR MROC 130300Z 08011KT 9999 FEW030 23/15 A2998 NOSIG=
201503130400 METAR MROC 130400Z 10011KT 9999 FEW030 22/16 A2997 NOSIG=
201503130500 METAR MROC 130500Z 09016G29KT 9999 FEW030 22/15 A2996 NOSIG=
201503130600 METAR MROC 130600Z 09014G24KT 9999 FEW030 22/15 A2995 NOSIG=
201503130700 METAR MROC 130700Z 09012G22KT 9999 FEW030 21/15 A2993 NOSIG=
201503130800 METAR MROC 130800Z 09015G25KT 9999 FEW040 21/14 A2992 NOSIG=
201503130900 METAR MROC 130900Z 09014G25KT CAVOK 21/14 A2991 NOSIG=
201503131000 METAR MROC 131000Z 10018G34KT CAVOK 21/13 A2990 NOSIG=
201503131100 METAR MROC 131100Z 10015G25KT CAVOK 20/14 A2991 NOSIG=
201503131200 METAR MROC 131200Z 10016G27KT 9999 FEW035 20/14 A2992 NOSIG=
201503131300 METAR MROC 131300Z 10016G26KT 9999 FEW035 21/14 A2995 NOSIG=
201503131400 METAR MROC 131400Z 10015G29KT 9999 FEW035 23/14 A2998 NOSIG=
201503131500 METAR MROC 131500Z 09016G26KT 9999 FEW040 24/14 A2999 NOSIG=
201503131600 METAR MROC 131600Z 09017G30KT 9999 FEW035 25/14 A2999 NOSIG=
201503131700 METAR MROC 131700Z 09015G25KT 9999 FEW040 27/13 A2997 NOSIG=
201503131800 METAR MROC 131800Z 08016G31KT 9999 FEW035 28/12 A2995 NOSIG=
201503131900 METAR MROC 131900Z 08017G27KT 9999 FEW035 28/13 A2992 NOSIG=
201503132000 METAR MROC 132000Z 07015G25KT 9999 FEW035 BKN250 28/12 A2990 NOSIG=
201503132100 METAR MROC 132100Z 07012G22KT 9999 FEW035 BKN250 28/12 A2989 NOSIG=
201503132200 METAR MROC 132200Z 08013G23KT 9999 FEW035 BKN250 26/13 A2990 NOSIG=
201503132300 METAR MROC 132300Z 08015G25KT 9999 FEW040 BKN200 24/13 A2990 NOSIG=
201503140000 METAR MROC 140000Z 09008KT 9999 FEW040 BKN250 23/14 A2992 NOSIG=
201503140100 METAR MROC 140100Z 10010G20KT 9999 FEW040 21/15 A2995 NOSIG=
201503140200 METAR MROC 140200Z 10012G23KT 9999 FEW040 21/15 A2997 NOSIG=
201503140300 METAR MROC 140300Z 10012KT 9999 FEW030 21/14 A2998 NOSIG=
201503140400 METAR MROC 140400Z 09013G24KT CAVOK 21/14 A2998 NOSIG=
201503140500 METAR MROC 140500Z 09013G24KT CAVOK 21/13 A2998 NOSIG=
201503140600 METAR MROC 140600Z 09010G20KT CAVOK 20/14 A2997 NOSIG=
201503140700 METAR MROC 140700Z 10011KT 9999 FEW030 20/15 A2996 NOSIG=
201503140800 METAR MROC 140800Z 11008KT 9999 FEW030 20/14 A2995 NOSIG=
201503140900 METAR MROC 140900Z 09010G20KT 9999 FEW030 20/14 A2994 NOSIG=
201503141000 METAR MROC 141000Z 10012G22KT 9999 FEW030 20/14 A2994 NOSIG=
201503141100 METAR MROC 141100Z 09010G20KT 9999 FEW030 20/14 A2995 NOSIG=
201503141200 METAR MROC 141200Z 07008KT 9999 FEW030 SCT200 20/14 A2997 NOSIG=
201503141300 METAR MROC 141300Z 10012G22KT 9999 FEW040 BKN250 20/14 A2999 NOSIG=
201503141400 METAR MROC 141400Z 11012G22KT 9999 FEW040 BKN200 22/13 A3000 NOSIG=
201503141500 METAR MROC 141500Z 11016G26KT 9999 FEW045 BKN200 25/11 A3000 NOSIG=
201503141600 METAR MROC 141600Z 10015G25KT CAVOK 26/12 A2999 NOSIG=
201503141700 METAR MROC 141700Z 09016G26KT CAVOK 27/09 A2997 NOSIG=
201503141800 METAR MROC 141800Z 08014G25KT 9999 FEW045 SCT250 28/09 A2995 NOSIG=
201503141900 METAR MROC 141900Z 08015KT 9999 FEW045 28/10 A2992 NOSIG=
201503142000 METAR MROC 142000Z 08012KT 9999 FEW045 SCT250 28/11 A2991 NOSIG=
201503142100 METAR MROC 142100Z 07012G22KT 9999 FEW045 BKN250 28/11 A2989 NOSIG=
201503142200 METAR MROC 142200Z 08012G22KT 9999 FEW040 SCT250 27/11 A2989 NOSIG=
201503142300 METAR MROC 142300Z 08009KT 9999 FEW040 BKN250 25/11 A2990 NOSIG=
201503150000 METAR MROC 150000Z 08010KT 9999 FEW040 BKN250 23/12 A2993 NOSIG=
201503150100 METAR MROC 150100Z 11009KT 9999 FEW040 BKN250 22/14 A2995 NOSIG=
201503150200 METAR MROC 150200Z 11009KT 9999 FEW040 21/15 A2999 NOSIG=
201503150300 METAR MROC 150300Z 09010KT 9999 FEW040 21/14 A3001 NOSIG=
201503150400 METAR MROC 150400Z 10010G20KT 9999 SCT040 21/11 A2999 NOSIG=
201503150500 METAR MROC 150500Z 10010G20KT 9999 FEW040 SCT100 21/13 A2998 NOSIG=
201503150600 METAR MROC 150600Z 10016KT 9999 FEW040 21/13 A2997 NOSIG=
201503150700 METAR MROC 150700Z 08015KT 9999 FEW040 20/12 A2997 NOSIG=
201503150800 METAR MROC 150800Z 06014KT 9999 FEW040 20/12 A2996 NOSIG=
201503150900 METAR MROC 150900Z 09007KT CAVOK 20/13 A2996 NOSIG=
201503151000 METAR MROC 151000Z 06014KT CAVOK 20/14 A2996 NOSIG=
201503151100 METAR MROC 151100Z 10017KT CAVOK 20/14 A2998 NOSIG=
201503151200 METAR MROC 151200Z 11011G21KT CAVOK 20/14 A2999 NOSIG=
201503151300 METAR MROC 151300Z 10014G24KT 9999 FEW040 BKN100 21/15 A3002 NOSIG=
201503151400 METAR MROC 151400Z 10013G23KT 9999 FEW040 OVC100 22/14 A3003 NOSIG=
201503151500 METAR MROC 151500Z 10011G21KT 9999 FEW040 SCT250 25/13 A3004 NOSIG=
201503151600 METAR MROC 151600Z 10015G25KT 9999 FEW040 27/13 A3003 NOSIG=
201503151700 METAR MROC 151700Z 09014G24KT 9999 FEW045 27/14 A3000 NOSIG=
201503151800 METAR MROC 151800Z 09013G23KT 9999 FEW040 28/14 A2999 WS R07 NOSIG=
201503151900 METAR MROC 151900Z 10012KT 9999 FEW045 29/13 A2997 WS R07 NOSIG=
201503152000 METAR MROC 152000Z 10012G22KT 9999 FEW040 29/13 A2995 NOSIG=
201503152100 METAR MROC 152100Z 10014KT 9999 FEW030 29/13 A2993 NOSIG=
201503152200 METAR MROC 152200Z 09010G20KT 9999 FEW030 28/13 A2992 NOSIG=
201503152300 METAR MROC 152300Z 09013KT 9999 FEW030 26/14 A2995 NOSIG=
201503160000 METAR MROC 160000Z 12010KT 9999 FEW030 SCT250 24/15 A2996 NOSIG=
201503160100 METAR MROC 160100Z 09012KT 9999 FEW035 23/16 A2998 NOSIG=
201503160200 METAR MROC 160200Z 09010G20KT 9999 FEW035 22/16 A3000 NOSIG=
201503160300 METAR MROC 160300Z 08009KT 9999 FEW035 22/16 A3001 NOSIG=
201503160400 METAR MROC 160400Z 08012G22KT 9999 FEW035 22/15 A3002 NOSIG=
201503160500 METAR MROC 160500Z 10011G21KT 9999 FEW035 21/16 A3002 NOSIG=
201503160600 METAR MROC 160600Z 10011G21KT 9999 FEW035 21/16 A2999 NOSIG=
201503160700 METAR MROC 160700Z 09012G22KT 9999 FEW035 21/16 A2998 NOSIG=
201503160800 METAR MROC 160800Z 10013G23KT 9999 FEW035 21/16 A2995 NOSIG=
201503160900 METAR MROC 160900Z 09014G24KT 9999 FEW035 21/16 A2995 NOSIG=
201503161000 METAR MROC 161000Z 09010KT 9999 FEW035 21/16 A2995 NOSIG=
201503161100 METAR MROC 161100Z 10016G26KT 9999 FEW035 21/16 A2996 NOSIG=
201503161200 METAR MROC 161200Z 07010G20KT 9999 FEW035 21/16 A3000 NOSIG=
201503161300 METAR MROC 161300Z 11013G23KT 9999 FEW035 23/15 A3000 NOSIG=
201503161400 METAR MROC 161400Z 11017G28KT 9999 FEW035 24/16 A3003 NOSIG=
201503161500 METAR MROC 161500Z 10015G25KT 9999 FEW035 SCT250 26/15 A3004 NOSIG=
201503161600 METAR MROC 161600Z 11014G24KT 9999 FEW035 SCT250 27/15 A3004 NOSIG=
201503161700 METAR MROC 161700Z 11014G24KT 9999 FEW035 SCT130 27/14 A3003 NOSIG=
201503161800 METAR MROC 161800Z 11013G23KT 9999 FEW035 SCT120 26/14 A3002 NOSIG=
201503161900 METAR MROC 161900Z 10017G29KT 9999 FEW035 27/14 A3000 NOSIG=
201503162000 METAR MROC 162000Z 11017G27KT 9999 FEW035 25/13 A2998 NOSIG=
201503162100 METAR MROC 162100Z 11016G26KT 9999 FEW035 SCT250 25/14 A2996 NOSIG=
201503162200 METAR MROC 162200Z 10017G28KT 9999 FEW035 SCT250 24/14 A2995 NOSIG=
201503162300 METAR MROC 162300Z 10014G26KT 9999 FEW035 SCT250 23/15 A2996 NOSIG=
201503170000 METAR MROC 170000Z 11014G24KT 9999 FEW035 SCT250 21/15 A2999 NOSIG=
201503170100 METAR MROC 170100Z 11015G28KT 9999 FEW030 20/14 A3002 NOSIG=
201503170200 METAR MROC 170200Z 11012G28KT 9999 FEW030 20/13 A3004 NOSIG=
201503170300 METAR MROC 170300Z 11011G21KT 9999 FEW030 20/13 A3005 NOSIG=
201503170400 METAR MROC 170400Z 09010G20KT 9999 FEW030 19/14 A3006 NOSIG=
201503170500 METAR MROC 170500Z 09011G21KT 9999 FEW030 20/14 A3005 NOSIG=
201503170600 METAR MROC 170600Z 08007G17KT 9999 FEW030 19/15 A3005 NOSIG=
201503170700 METAR MROC 170700Z 09011G22KT 9999 FEW030 19/14 A3003 NOSIG=
201503170800 METAR MROC 170800Z 08010G22KT 9999 FEW030 19/12 A3001 NOSIG=
201503170900 METAR MROC 170900Z 10009G19KT 9999 FEW030 19/13 A2999 NOSIG=
201503171000 METAR MROC 171000Z 10013G23KT 9999 FEW030 19/12 A2999 NOSIG=
201503171100 METAR MROC 171100Z 10017G29KT 9999 FEW030 20/12 A2999 NOSIG=
201503171200 METAR MROC 171200Z 10016G26KT CAVOK 20/12 A3001 NOSIG=
201503171300 METAR MROC 171300Z 10015KT CAVOK 20/12 A3004 NOSIG=
201503171400 METAR MROC 171400Z 10015G25KT CAVOK 21/11 A3005 NOSIG=
201503171500 METAR MROC 171500Z 11015G25KT CAVOK 23/11 A3006 NOSIG=
201503171600 METAR MROC 171600Z 10015G25KT CAVOK 24/10 A3008 NOSIG=
201503171700 METAR MROC 171700Z 09011G21KT CAVOK 25/10 A3006 NOSIG=
201503171800 METAR MROC 171800Z 08012G23KT CAVOK 26/09 A3004 NOSIG=
201503171900 METAR MROC 171900Z 09014G24KT CAVOK 27/10 A3003 NOSIG=
201503172000 METAR MROC NIL=
201503172100 METAR MROC 172100Z 09017KT CAVOK 27/10 A2999 NOSIG=
201503172200 METAR MROC 172200Z 09018KT 9999 FEW045 BKN200 26/12 A2999 NOSIG=
201503172300 METAR MROC 172300Z 08020KT 9999 FEW040 BKN200 24/07 A2999 NOSIG=
201503180000 METAR MROC 180000Z 07020KT 9999 FEW040 BKN200 22/10 A3000 NOSIG=
201503180100 METAR MROC 180100Z 11010G20KT 9999 FEW040 21/12 A3002 NOSIG=
201503180200 METAR MROC 180200Z 09015KT 9999 FEW040 20/11 A3003 NOSIG=
201503180300 METAR MROC 180300Z 10013G23KT CAVOK 20/11 A3005 NOSIG=
201503180400 METAR MROC 180400Z 10012G22KT CAVOK 20/11 A3006 NOSIG=
201503180500 METAR MROC 180500Z 10013KT CAVOK 20/09 A3006 NOSIG=
201503180600 METAR MROC 180600Z 10012KT CAVOK 21/06 A3004 NOSIG=
201503180700 METAR MROC 180700Z 10011KT CAVOK 20/07 A3001 NOSIG=
201503180800 METAR MROC 180800Z 09012KT CAVOK 20/07 A3000 NOSIG=
201503180900 METAR MROC 180900Z 10010KT CAVOK 20/06 A2999 NOSIG=
201503181000 METAR MROC 181000Z 09010KT CAVOK 20/08 A2998 NOSIG=
201503181100 METAR MROC 181100Z 10010G20KT CAVOK 19/09 A2999 NOSIG=
201503181200 METAR MROC 181200Z 10010G20KT CAVOK 19/09 A3002 NOSIG=
201503181300 METAR MROC 181300Z 11010G20KT CAVOK 20/09 A3004 NOSIG=
201503181400 METAR MROC 181400Z 10013G24KT CAVOK 22/09 A3005 NOSIG=
201503181500 METAR MROC 181500Z 10010G20KT CAVOK 25/08 A3007 NOSIG=
201503181600 METAR MROC 181600Z 09011G21KT CAVOK 26/09 A3007 NOSIG=
201503181700 METAR MROC 181700Z 09010G20KT CAVOK 27/09 A3006 NOSIG=
201503181800 METAR MROC 181800Z 09016KT 9999 FEW045 BKN200 27/10 A3004 NOSIG=
201503181900 METAR MROC 181900Z 10013KT 9999 FEW040 BKN250 28/10 A3001 NOSIG=
201503182000 METAR MROC 182000Z 11013KT 9999 FEW040 BKN250 28/10 A2998 NOSIG=
201503182100 METAR MROC 182100Z 15011KT 9999 SCT035 BKN250 29/11 A2996 NOSIG=
201503182200 METAR MROC 182200Z 20008KT 9999 FEW035 BKN200 29/17 A2997 NOSIG=
201503182300 METAR MROC 182300Z 19009KT 9999 FEW035 BKN200 25/17 A2998 NOSIG=
201503190000 METAR MROC 190000Z 17007KT 9999 SCT030 BKN200 23/18 A3001 NOSIG=
201503190100 METAR MROC 190100Z 12006KT 9999 SCT035 22/14 A3004 NOSIG=
201503190200 METAR MROC 190200Z 11011KT 9999 FEW035 21/15 A3006 NOSIG=
201503190300 METAR MROC 190300Z 08006KT 9999 FEW035 20/14 A3009 NOSIG=
201503190400 METAR MROC 190400Z 10007KT 9999 FEW035 20/13 A3010 NOSIG=
201503190500 METAR MROC 190500Z 09010KT 9999 FEW035 20/13 A3009 NOSIG=
201503190600 METAR MROC 190600Z 09008KT 9999 FEW035 20/13 A3007 NOSIG=
201503190700 METAR MROC 190700Z 08007KT 9999 FEW035 20/12 A3005 NOSIG=
201503190800 METAR MROC 190800Z 09007KT 9999 FEW035 19/12 A3004 NOSIG=
201503190900 METAR MROC 190900Z 08009KT 9999 FEW035 20/12 A3003 NOSIG=
201503191000 METAR MROC 191000Z 07007KT 9999 FEW035 20/11 A3003 NOSIG=
201503191100 METAR MROC 191100Z 08008KT 9999 FEW035 20/10 A3004 NOSIG=
201503191200 METAR MROC 191200Z 08007KT 9999 FEW035 SCT070 BKN250 20/10 A3006 NOSIG=
201503191300 METAR MROC 191300Z 08010G20KT CAVOK 21/10 A3008 NOSIG=
201503191400 METAR MROC 191400Z 09011KT CAVOK 23/10 A3009 NOSIG=
201503191500 METAR MROC 191500Z 10011KT 9999 FEW045 SCT070 26/10 A3010 NOSIG=
201503191600 METAR MROC 191600Z 10009KT 9999 FEW045 BKN070 27/11 A3010 NOSIG=
201503191700 METAR MROC 191700Z 09008KT 9999 SCT045 SCT070 27/11 A3008 NOSIG=
201503191800 METAR MROC 191800Z 09006KT 9999 SCT045 29/11 A3005 NOSIG=
201503191900 METAR MROC 191900Z 11008KT 9999 SCT045 28/12 A3002 NOSIG=
201503192000 METAR MROC 192000Z 13006KT 9999 SCT040 27/13 A3000 NOSIG=
201503192100 METAR MROC 192100Z 11004KT 9999 SCT035 26/13 A2998 NOSIG=
201503192200 METAR MROC 192200Z 12006KT 9999 BKN035 25/13 A2998 NOSIG=
201503192300 METAR MROC 192300Z 11009KT 9999 SCT040 SCT250 25/13 A2999 NOSIG=
201503200000 METAR MROC 200000Z 10008KT 9999 SCT040 SCT080 22/15 A3001 NOSIG=
201503200100 METAR MROC 200100Z 10006KT 9999 SCT035 22/14 A3004 NOSIG=
201503200200 METAR MROC 200200Z 11007KT 9999 SCT040 22/15 A3006 NOSIG=
201503200300 METAR MROC 200300Z 09014KT 9999 FEW035 BKN120 21/15 A3008 NOSIG=
201503200400 METAR MROC 200400Z 10012KT 9999 FEW035 SCT120 21/15 A3009 NOSIG=
201503200500 METAR MROC 200500Z 07007KT 9999 FEW035 20/15 A3010 NOSIG=
201503200600 METAR MROC 200600Z 07009KT 9999 FEW035 19/14 A3009 NOSIG=
201503200700 METAR MROC 200700Z 04010KT 9999 FEW035 18/14 A3007 NOSIG=
201503200800 METAR MROC 200800Z 06006KT 9999 FEW035 18/13 A3005 NOSIG=
201503200900 METAR MROC 200900Z 08012KT CAVOK 19/13 A3004 NOSIG=
201503201000 METAR MROC 201000Z 06010KT CAVOK 19/13 A3004 NOSIG=
201503201100 METAR MROC 201100Z 04010KT CAVOK 18/13 A3006 NOSIG=
201503201200 METAR MROC 201200Z 04012KT CAVOK 18/13 A3008 NOSIG=
201503201240 METAR MROC 201240Z 07008KT CAVOK 21/12 A3010 NOSIG=
201503201300 METAR MROC 201300Z 09008KT CAVOK 22/12 A3010 NOSIG=
201503201400 METAR MROC 201400Z 10010KT CAVOK 25/10 A3012 NOSIG=
201503201500 METAR MROC 201500Z 11012KT CAVOK 25/10 A3012 NOSIG=
201503201600 METAR MROC 201600Z 11009KT CAVOK 28/10 A3012 NOSIG=
201503201700 METAR MROC 201700Z 10008KT 9999 FEW045 29/10 A3010 NOSIG=
201503201800 METAR MROC 201800Z 19006KT 9999 SCT045 29/11 A3008 NOSIG=
201503201900 METAR MROC 201900Z 24009KT 9999 BKN045 30/14 A3005 NOSIG=
201503202000 METAR MROC 202000Z 25009KT 9999 -RA VCSH FEW030TCU BKN045 26/16 A3003 NOSIG=
201503202100 METAR MROC 202100Z 22010KT 9999 SCT030 BKN100 26/16 A3002 NOSIG=
201503202200 METAR MROC 202200Z 18010KT 9999 SCT030 BKN100 25/17 A3002 NOSIG=
201503202300 METAR MROC 202300Z 19004KT 9999 SCT030 SCT100 24/17 A3003 NOSIG=
201503210000 METAR MROC 210000Z 23003KT 9999 SCT030 BKN100 24/17 A3004 NOSIG=
201503210100 METAR MROC 210100Z 09007KT 9999 FEW030 BKN100 22/14 A3007 NOSIG=
201503210200 METAR MROC 210200Z 11005KT 9999 FEW030 SCT100 22/13 A3010 NOSIG=
201503210300 METAR MROC 210300Z 10009KT 9999 SCT040 21/14 A3013 NOSIG=
201503210400 METAR MROC 210400Z 09007KT CAVOK 20/13 A3014 NOSIG=
201503210500 METAR MROC 210500Z 07006KT CAVOK 20/13 A3013 NOSIG=
201503210600 METAR MROC 210600Z 08005KT CAVOK 20/13 A3011 NOSIG=
201503210700 METAR MROC 210700Z 06007KT CAVOK 19/13 A3009 NOSIG=
201503210800 METAR MROC 210800Z 06005KT CAVOK 18/12 A3007 NOSIG=
201503210900 METAR MROC 210900Z 05011KT CAVOK 19/12 A3006 NOSIG=
201503211000 METAR MROC 211000Z 03005KT CAVOK 18/11 A3006 NOSIG=
201503211100 METAR MROC 211100Z 02004KT CAVOK 17/11 A3007 NOSIG=
201503211200 METAR MROC 211200Z 06006KT CAVOK 18/12 A3009 NOSIG=
201503211300 METAR MROC 211300Z 06010KT CAVOK 21/11 A3011 NOSIG=
201503211400 METAR MROC 211400Z 10010KT CAVOK 25/10 A3012 NOSIG=
201503211500 METAR MROC 211500Z 10010KT CAVOK 26/09 A3013 NOSIG=
201503211600 METAR MROC 211600Z 10010KT CAVOK 28/11 A3012 NOSIG=
201503211700 METAR MROC 211700Z 11010KT CAVOK 29/11 A3011 NOSIG=
201503211800 METAR MROC 211800Z 11008KT 9999 SCT035 30/11 A3008 NOSIG=
201503211900 METAR MROC 211900Z 140009KT 9999 SCT035 28/12 A3005 NOSIG=
201503212000 METAR MROC 212000Z 23005KT 9999 SCT035 27/15 A3002 NOSIG=
201503212100 METAR MROC 212100Z 21012KT 9999 4000SW RA SCT030 BKN090 26/17 A3002 NOSIG=
201503212200 METAR MROC 212200Z 19005KT 9999 SCT030 BKN090 24/17 A3001 NOSIG=
201503212300 METAR MROC 212300Z 11010KT 9999 SCT030 BKN090 24/15 A3002 NOSIG=
201503220000 METAR MROC 220000Z 10008KT 9999 FEW030 BKN090 23/14 A3004 NOSIG=
201503220100 METAR MROC 220100Z 10008KT 9999 FEW030 SCT090 22/13 A3007 NOSIG=
201503220200 METAR MROC 220200Z 10009KT 9999 FEW030 22/11 A3008 NOSIG=
201503220300 METAR MROC 220300Z 11006KT CAVOK 21/13 A3010 NOSIG=
201503220400 METAR MROC 220400Z 10007KT 9999 FEW045 SCT100 21/12 A3011 NOSIG=
201503220500 METAR MROC 220500Z 07006KT 9999 FEW045 SCT120 21/10 A3011 NOSIG=
201503220600 METAR MROC 220600Z 08005KT CAVOK 21/09 A3009 NOSIG=
201503220700 METAR MROC 220700Z 07004KT CAVOK 20/09 A3007 NOSIG=
201503220800 METAR MROC 220800Z 07006KT CAVOK 19/09 A3005 NOSIG=
201503220900 METAR MROC 220900Z 05005KT CAVOK 18/09 A3005 NOSIG=
201503221000 METAR MROC 221000Z 07005KT CAVOK 19/09 A3005 NOSIG=
201503221100 METAR MROC 221100Z 07006KT CAVOK 19/09 A3006 NOSIG=
201503221200 METAR MROC 221200Z 07004KT CAVOK 18/10 A3008 NOSIG=
201503221300 METAR MROC 221300Z 09008KT CAVOK 25/09 A3010 NOSIG=
201503221400 METAR MROC 221400Z 09008KT CAVOK 25/09 A3010 NOSIG=
201503221500 METAR MROC 221500Z 10008KT CAVOK 28/09 A3010 NOSIG=
201503221600 METAR MROC 221600Z 10008KT CAVOK 29/09 A3010 NOSIG=
201503221700 METAR MROC 221700Z 25003KT 9999 FEW040 30/09 A3007 NOSIG=
201503221800 METAR MROC 221800Z 22010KT 9999 FEW040 30/11 A3005 NOSIG=
201503221900 METAR MROC 221900Z 24010KT 9999 SCT040 30/13 A3002 NOSIG=
201503222000 METAR MROC 222000Z 26010G20KT 9999 SCT040 28/16 A3000 NOSIG=
201503222100 METAR MROC 222100Z 20016KT 9999 VCSH FEW025TCU SCT040 25/19 A3000 NOSIG=
201503222200 METAR MROC 222200Z 18009KT 9999 BKN035 24/18 A3000 NOSIG=
201503222300 METAR MROC 222300Z 18006KT 9999 SCT035 24/18 A3001 NOSIG=
201503230000 METAR MROC 230000Z 20005KT 9999 SCT035 BKN250 23/18 A3004 NOSIG=
201503230100 METAR MROC 230100Z 17006KT 9999 BKN035 23/18 A3006 NOSIG=
201503230200 METAR MROC 230200Z 17009KT 9999 BKN035 22/17 A3009 NOSIG=
201503230300 METAR MROC 230300Z 12012KT 9999 FEW035 22/16 A3009 NOSIG=
201503230400 METAR MROC 230400Z 09008KT CAVOK 21/15 A3011 NOSIG=
201503230500 METAR MROC 230500Z 08008KT CAVOK 20/14 A3011 NOSIG=
201503230600 METAR MROC 230600Z 08007KT CAVOK 20/15 A3010 NOSIG=
201503230700 METAR MROC 230700Z 06006KT CAVOK 20/14 A3007 NOSIG=
201503230800 METAR MROC NIL=
201503230900 METAR MROC 230900Z 08005KT CAVOK 19/13 A3006 NOSIG=
201503231000 METAR MROC 231000Z 07005KT CAVOK 18/13 A3005 NOSIG=
201503231100 METAR MROC 231100Z 08006KT CAVOK 19/12 A3006 NOSIG=
201503231200 METAR MROC 231200Z 05010KT CAVOK 19/13 A3007 NOSIG=
201503231300 METAR MROC 231300Z 07014KT CAVOK 22/14 A3008 NOSIG=
201503231400 METAR MROC 231400Z 09014KT CAVOK 24/14 A3010 NOSIG=
201503231500 METAR MROC 231500Z 10015KT CAVOK 27/13 A3010 NOSIG=
201503231600 METAR MROC 231600Z 10014KT CAVOK 29/12 A3009 NOSIG=
201503231700 METAR MROC 231700Z 17011KT 9999 FEW045 30/12 A3007 BECMG 24008KT=
201503231800 METAR MROC 231800Z 25014KT 9999 FEW045 30/14 A3005 NOSIG=
201503231900 METAR MROC 231900Z 22017KT 9999 FEW045 30/15 A3003 NOSIG=
201503232000 METAR MROC 232000Z 24016KT 9999 SCT040 28/16 A3001 NOSIG=
201503232100 METAR MROC 232100Z 26010KT 9999 FEW020TCU BKN035 28/16 A3000 NOSIG=
201503232200 METAR MROC 232200Z 22010KT 9999 VCSH FEW015TCU BKN030 27/17 A3000 NOSIG=
201503232300 METAR MROC 232300Z 15004KT 9999 VCSH BKN030 25/17 A3002 NOSIG=
201503240000 METAR MROC 240000Z 11005KT 9999 -RA BKN030 23/17 A3003 NOSIG=
201503240100 METAR MROC 240100Z 17004KT 9999 BKN030 23/17 A3005 NOSIG=
201503240200 METAR MROC 240200Z 11005KT 9999 BKN035 23/16 A3007 NOSIG=
201503240300 METAR MROC 240300Z 10004KT 9999 BKN040 23/16 A3009 NOSIG=
201503240400 METAR MROC 240400Z 13003KT 9999 FEW040 21/15 A3010 NOSIG=
201503240500 METAR MROC 240500Z 11004KT 9999 FEW040 21/15 A3010 NOSIG=
201503240600 METAR MROC 240600Z 05004KT 9999 FEW040 21/15 A3010 NOSIG=
201503240700 METAR MROC 240700Z 09016KT 9999 FEW040 20/15 A3008 NOSIG=
201503240800 METAR MROC 240800Z 10015KT 9999 FEW040 21/12 A3006 NOSIG=
201503240900 METAR MROC 240900Z 09008KT 9999 FEW040 20/13 A3006 NOSIG=
201503241000 METAR MROC 241000Z 09012G22KT CAVOK 20/13 A3005 NOSIG=
201503241100 METAR MROC 241100Z 08009KT CAVOK 20/12 A3007 NOSIG=
201503241200 METAR MROC 241200Z 06007KT CAVOK 20/12 A3009 NOSIG=
201503241300 METAR MROC 241300Z 07006KT CAVOK 22/12 A3011 NOSIG=
201503241400 METAR MROC 241400Z 09008KT CAVOK 26/10 A3012 NOSIG=
201503241500 METAR MROC 241500Z 10009KT CAVOK 28/10 A3012 NOSIG=
201503241600 METAR MROC 241600Z 11010G20KT 9999 FEW045 29/09 A3011 NOSIG=
201503241700 METAR MROC 241700Z 12008KT 9999 FEW045 30/11 A3009 NOSIG=
201503241800 METAR MROC 241800Z 11010KT 9999 FEW045 30/13 A3007 NOSIG=
201503241900 METAR MROC 241900Z 09010KT 9999 FEW040 30/14 A3004 NOSIG=
201503242000 METAR MROC 242000Z 10008KT 9999 SCT040 30/14 A3002 NOSIG=
201503242100 METAR MROC 242100Z 12008KT 9999 SCT040 29/15 A3001 NOSIG=
201503242200 METAR MROC 242200Z 23007KT 9999 SCT040 27/18 A3001 NOSIG=
201503242300 METAR MROC 242300Z 16005KT 9999 BKN040 26/16 A3002 NOSIG=
201503250000 METAR MROC 250000Z 18005KT 9999 SCT040 SCT100 24/16 A3004 NOSIG=
201503250100 METAR MROC 250100Z 16005KT 9999 FEW040 22/16 A3005 NOSIG=
201503250200 METAR MROC 250200Z 09007KT 9999 FEW040 22/16 A3009 NOSIG=
201503250300 METAR MROC 250300Z 09007KT 9999 FEW040 21/15 A3010 NOSIG=
201503250400 METAR MROC 250400Z 08011KT 9999 FEW040 21/13 A3011 NOSIG=
201503250500 METAR MROC 250500Z 10014KT 9999 FEW040 20/13 A3011 NOSIG=
201503250600 METAR MROC 250600Z 11014KT 9999 FEW040 20/12 A3010 NOSIG=
201503250700 METAR MROC 250700Z 10014KT 9999 FEW040 20/13 A3009 NOSIG=
201503250800 METAR MROC 250800Z 09016KT 9999 FEW040 20/14 A3007 NOSIG=
201503250900 METAR MROC 250900Z 10017KT CAVOK 20/13 A3006 NOSIG=
201503251000 METAR MROC 251000Z 08016KT CAVOK 20/12 A3006 NOSIG=
201503251100 METAR MROC 251100Z 10014KT CAVOK 20/11 A3007 NOSIG=
201503251200 METAR MROC 251200Z 07014KT CAVOK 19/12 A3008 NOSIG=
201503251300 METAR MROC 251300Z 09009KT CAVOK 21/11 A3009 NOSIG=
201503251400 METAR MROC 251400Z 10012KT CAVOK 24/11 A3009 NOSIG=
201503251500 METAR MROC 251500Z 10012KT CAVOK 26/12 A3011 NOSIG=
201503251600 METAR MROC 251600Z 09007KT CAVOK 29/11 A3011 NOSIG=
201503251700 METAR MROC 251700Z 08004KT 9999 FEW040 29/10 A3009 NOSIG=
201503251800 METAR MROC 251800Z 09007KT 9999 FEW040 30/11 A3006 NOSIG=
201503251900 METAR MROC 251900Z 15004KT 9999 FEW040 30/12 A3004 NOSIG=
201503252000 METAR MROC 252000Z 18006KT 9999 SCT040 28/15 A3003 NOSIG=
201503252100 METAR MROC 252100Z 13008KT 9999 SCT040 30/14 A3001 NOSIG=
201503252200 METAR MROC 252200Z 10010KT 9999 SCT040 28/14 A3001 NOSIG=
201503252300 METAR MROC 252300Z 13005KT 9999 SCT040 26/14 A3002 NOSIG=
201503260000 METAR MROC 260000Z 14004KT 9999 SCT035 24/16 A3004 NOSIG=
201503260100 METAR MROC 260100Z 13007KT 9999 SCT035 23/15 A3005 NOSIG=
201503260200 METAR MROC 260200Z 08005KT 9999 FEW035 22/15 A3008 NOSIG=
201503260300 METAR MROC 260300Z 09008KT 9999 FEW035 22/15 A3009 NOSIG=
201503260400 METAR MROC 260400Z 09006KT 9999 FEW035 21/14 A3010 NOSIG=
201503260500 METAR MROC 260500Z 10008KT 9999 FEW035 21/14 A3009 NOSIG=
201503260600 METAR MROC 260600Z 08006KT CAVOK 20/13 A3008 NOSIG=
201503260700 METAR MROC 260700Z 09004KT CAVOK 19/13 A3006 NOSIG=
201503260800 METAR MROC 260800Z 07004KT CAVOK 17/13 A3005 NOSIG=
201503260900 METAR MROC 260900Z 06005KT CAVOK 17/12 A3004 NOSIG=
201503261000 METAR MROC 261000Z 06006KT CAVOK 18/12 A3005 NOSIG=
201503261100 METAR MROC 261100Z 07006KT CAVOK 18/13 A3004 NOSIG=
201503261200 METAR MROC 261200Z 06007KT CAVOK 18/12 A3006 NOSIG=
201503261300 METAR MROC 261300Z 09008KT CAVOK 22/13 A3009 NOSIG=
201503261400 METAR MROC 261400Z 10013KT CAVOK 24/13 A3010 NOSIG=
201503261500 METAR MROC 261500Z 10012KT CAVOK 25/11 A3010 NOSIG=
201503261600 METAR MROC 261600Z 09010G20KT CAVOK 26/11 A3010 NOSIG=
201503261700 METAR MROC 261700Z 09010KT CAVOK 28/11 A3008 NOSIG=
201503261800 METAR MROC 261800Z 10005KT CAVOK 30/10 A3005 NOSIG=
201503261900 METAR MROC 261900Z 05005KT CAVOK 30/08 A3001 NOSIG=
201503262000 METAR MROC 262000Z 09006KT CAVOK 31/10 A2998 NOSIG=
201503262100 METAR MROC 262100Z 17004KT 9999 SCT030 BKN200 29/16 A2997 NOSIG=
201503262200 METAR MROC 262200Z 26010KT 9999 SCT030 BKN200 28/14 A2997 NOSIG=
201503262300 METAR MROC 262300Z 15003KT 9999 FEW030 BKN200 28/14 A2999 NOSIG=
201503270000 METAR MROC 270000Z 17002KT CAVOK 25/15 A3000 NOSIG=
201503270100 METAR MROC 270100Z 12003KT CAVOK 23/15 A3001 NOSIG=
201503270200 METAR MROC 270200Z 10007KT CAVOK 22/15 A3003 NOSIG=
201503270300 METAR MROC 270300Z 08005KT CAVOK 21/14 A3005 NOSIG=
201503270400 METAR MROC 270400Z 08005KT CAVOK 20/14 A3006 NOSIG=
201503270500 METAR MROC 270500Z 07006KT CAVOK 19/14 A3006 NOSIG=
201503270600 METAR MROC 270600Z 06008KT CAVOK 18/13 A3004 NOSIG=
201503270700 METAR MROC 270700Z 08004KT CAVOK 18/12 A3003 NOSIG=
201503270800 METAR MROC 270800Z 07005KT CAVOK 17/12 A3002 NOSIG=
201503270900 METAR MROC 270900Z 06006KT CAVOK 17/11 A3002 NOSIG=
201503271000 METAR MROC 271000Z 06005KT CAVOK 15/09 A3003 NOSIG=
201503271100 METAR MROC 271100Z 07006KT CAVOK 16/09 A3004 NOSIG=
201503271200 METAR MROC 271200Z 07007KT CAVOK 16/09 A3005 NOSIG=
201503271300 METAR MROC 271300Z 09006KT CAVOK 18/08 A3007 NOSIG=
201503271400 METAR MROC 271400Z 13002KT CAVOK 25/08 A3007 BECMG 24007KT=
201503271500 METAR MROC 271500Z 06003KT CAVOK 27/06 A3008 BECMG 24007KT=
201503271600 METAR MROC 271600Z 24004KT CAVOK 29/07 A3006 NOSIG=
201503271700 METAR MROC 271700Z 22005KT CAVOK 30/07 A3004 NOSIG=
201503271800 METAR MROC 271800Z 24009KT CAVOK 30/10 A3001 NOSIG=
201503271900 METAR MROC 271900Z 21009KT 9999 FEW040 30/11 A2998 NOSIG=
201503272000 METAR MROC 272000Z 25011KT 9999 FEW040 30/14 A2997 NOSIG=
201503272100 METAR MROC 272100Z 27018KT 9999 SCT040 30/16 A2997 NOSIG=
201503272200 METAR MROC 272200Z 25018KT 9999 SCT040 28/15 A2997 NOSIG=
201503272300 METAR MROC 272300Z 24012KT 9999 BKN040 26/16 A2998 NOSIG=
201503280000 METAR MROC 280000Z 24009KT 9999 BKN040 24/17 A3001 NOSIG=
201503280100 METAR MROC 280100Z 22007KT 9999 SCT040 23/18 A3004 NOSIG=
201503280200 METAR MROC 280200Z 25003KT 9999 SCT040 22/17 A3006 NOSIG=
201503280300 METAR MROC 280300Z 00000KT 9999 FEW040 21/18 A3008 NOSIG=
201503280400 METAR MROC 280400Z 08003KT 9999 FEW040 21/17 A3009 NOSIG=
201503280500 METAR MROC 280500Z 07008KT CAVOK 21/16 A3008 NOSIG=
201503280600 METAR MROC 280600Z 08006KT CAVOK 21/15 A3008 NOSIG=
201503280700 METAR MROC 280700Z 05006KT CAVOK 20/14 A3006 NOSIG=
201503280800 METAR MROC 280800Z 07005KT CAVOK 19/15 A3005 NOSIG=
201503280900 METAR MROC 280900Z 07010KT CAVOK 20/15 A3004 NOSIG=
201503281000 METAR MROC 281000Z 06007KT CAVOK 20/14 A3005 NOSIG=
201503281100 METAR MROC 281100Z 10010KT CAVOK 21/15 A3007 NOSIG=
201503281200 METAR MROC 281200Z 10010KT CAVOK 20/14 A3008 NOSIG=
201503281300 METAR MROC 281300Z 10009KT CAVOK 22/14 A3010 NOSIG=
201503281400 METAR MROC 281400Z 11011KT CAVOK 26/13 A3012 NOSIG=
201503281500 METAR MROC 281500Z 12013G23KT CAVOK 28/11 A3012 NOSIG=
201503281600 METAR MROC 281600Z 11011KT CAVOK 29/11 A3011 NOSIG=
201503281700 METAR MROC 281700Z 10010G20KT CAVOK 30/12 A3009 NOSIG=
201503281800 METAR MROC 281800Z 08010G20KT 9999 FEW045 30/11 A3006 NOSIG=
201503281900 METAR MROC 281900Z 09011G21KT 9999 FEW045 30/12 A3004 NOSIG=
201503282000 METAR MROC 282000Z 09010KT 9999 FEW045 SCT250 30/12 A3000 NOSIG=
201503282100 METAR MROC 282100Z 10007KT 9999 FEW045 BKN250 30/12 A2999 NOSIG=
201503282200 METAR MROC 282200Z 11007KT 9999 FEW040 BKN250 29/14 A3000 NOSIG=
201503282300 METAR MROC 282300Z 11009KT 9999 FEW040 BKN250 26/15 A3002 NOSIG=
201503290000 METAR MROC 290000Z 10008KT 9999 FEW040 BKN250 24/16 A3004 NOSIG=
201503290100 METAR MROC 290100Z 11006KT 9999 FEW040 BKN200 23/16 A3007 NOSIG=
201503290200 METAR MROC 290200Z 07005KT 9999 FEW040 SCT200 23/12 A3010 NOSIG=
201503290300 METAR MROC 290300Z 10005KT 9999 FEW040 SCT200 23/14 A3012 NOSIG=
201503290400 METAR MROC 290400Z 10004KT 9999 FEW040 22/13 A3004 NOSIG=
201503290500 METAR MROC 290500Z 06008KT CAVOK 21/12 A3013 NOSIG=
201503290600 METAR MROC NIL=
201503290700 METAR MROC 290700Z 05007KT CAVOK 20/12 A3010 NOSIG=
201503290800 METAR MROC NIL=
201503290900 METAR MROC 290900Z 08006KT CAVOK 20/13 A3008 NOSIG=
201503291000 METAR MROC 291000Z 07006KT CAVOK 20/13 A3008 NOSIG=
201503291100 METAR MROC 291100Z 09009KT CAVOK 20/13 A3008 NOSIG=
201503291200 METAR MROC 291200Z 10011KT 9999 FEW030 SCT200 20/13 A3009 NOSIG=
201503291300 METAR MROC 291300Z 10010KT 9999 FEW035 22/14 A3012 NOSIG=
201503291400 METAR MROC 291400Z 11015G27KT 9999 FEW035 BKN250 24/14 A3013 WS R07 NOSIG=
201503291500 METAR MROC 291500Z 12014G25KT 9999 FEW040 BKN250 25/13 A3014 NOSIG=
201503291600 METAR MROC 291600Z 10012G23KT 9999 FEW040 BKN250 28/13 A3013 NOSIG=
201503291700 METAR MROC 291700Z 10013KT 9999 FEW045 SCT250 29/14 A3013 NOSIG=
201503291800 METAR MROC 291800Z 09010KT 9999 BKN045 29/14 A3011 NOSIG=
201503291900 METAR MROC 291900Z 10013KT 9999 SCT045 SCT080 28/15 A3008 NOSIG=
201503292000 METAR MROC 292000Z 09012KT 9999 VCSH SCT040 29/15 A3004 NOSIG=
201503292040 METAR MROC 292040Z 07013G23KT 9999 RA BKN045 26/16 A3003 NOSIG=
201503292100 METAR MROC 292100Z 08011KT 9999 BKN045 25/16 A3003 RERA NOSIG=
201503292200 METAR MROC 292200Z 10009KT 9999 BKN045 25/15 A3003 NOSIG=
201503292300 METAR MROC 292300Z 09005KT 9999 SCT045 BKN200 24/15 A3007 NOSIG=
201503300000 METAR MROC 300000Z 12008KT 9999 FEW030 BKN200 22/15 A3008 NOSIG=
201503300100 METAR MROC 300100Z 10007KT 9999 FEW030 BKN200 22/15 A3010 NOSIG=
201503300200 METAR MROC 300200Z 11009KT 9999 FEW030 BKN200 21/15 A3012 NOSIG=
201503300300 METAR MROC 300300Z 11007KT 9999 FEW030 BKN200 21/15 A3013 NOSIG=
201503300400 METAR MROC 300400Z 09013KT 9999 FEW030 21/15 A3015 NOSIG=
201503300500 METAR MROC 300500Z 09013KT 9999 FEW030 21/15 A3014 NOSIG=
201503300600 METAR MROC 300600Z 10015KT 9999 FEW030 21/15 A3012 NOSIG=
201503300700 METAR MROC 300700Z 03005KT 9999 FEW030 21/15 A3011 NOSIG=
201503300800 METAR MROC 300800Z 02005KT 9999 FEW030 20/15 A3008 NOSIG=
201503300900 METAR MROC 300900Z 07010KT 9999 FEW030 SCT100 20/15 A3007 NOSIG=
201503301000 METAR MROC 301000Z 05009KT CAVOK 20/15 A3006 NOSIG=
201503301100 METAR MROC 301100Z 07012KT CAVOK 20/15 A3007 NOSIG=
201503301200 METAR MROC 301200Z 08008KT CAVOK 20/15 A3008 NOSIG=
201503301300 METAR MROC 301300Z 09006KT CAVOK 22/14 A3009 NOSIG=
201503301400 METAR MROC 301400Z 09011KT 9999 FEW030 OVC200 23/14 A3011 NOSIG=
201503301500 METAR MROC 301500Z 10010KT 9999 FEW030 OVC200 24/14 A3012 NOSIG=
201503301600 METAR MROC 301600Z 10013G23KT 9999 FEW040 OVC150 25/14 A3011 NOSIG=
201503301700 METAR MROC 301700Z 10014G24KT 9999 FEW040 BKN200 26/14 A3010 NOSIG=
201503301800 METAR MROC 301800Z 11013G23KT 9999 FEW035 BKN200 27/14 A3008 NOSIG=
201503301900 METAR MROC 301900Z 11010KT 9999 FEW035 BKN200 29/15 A3004 NOSIG=
201503302000 METAR MROC 302000Z 11011G21KT 9999 FEW035 BKN200 27/15 A3002 NOSIG=
201503302100 METAR MROC 302100Z 10012KT 9999 FEW035 BKN230 26/15 A3001 NOSIG=
201503302200 METAR MROC 302200Z 10010G22KT 9999 FEW035 SCT100 BKN250 25/16 A3001 NOSIG=
201503302300 METAR MROC 302300Z 11010KT 9999 FEW035 BKN250 25/16 A3001 NOSIG=
201503310000 METAR MROC 310000Z 10008KT 9999 FEW035 BKN250 23/16 A3003 NOSIG=
201503310100 METAR MROC 310100Z 08010KT 9999 FEW035 SCT250 22/16 A3005 NOSIG=
201503310200 METAR MROC 310200Z 06010KT 9999 FEW035 22/16 A3007 NOSIG=
201503310300 METAR MROC 310300Z 09011G21KT 9999 FEW035 21/15 A3007 NOSIG=
201503310400 METAR MROC 310400Z 10010KT 9999 FEW030 21/15 A3009 NOSIG=
201503310500 METAR MROC 310500Z 10010G20KT 9999 FEW030 21/15 A3007 NOSIG=
201503310600 METAR MROC 310600Z 10010KT 9999 FEW035 21/15 A3006 NOSIG=
201503310700 METAR MROC 310700Z 11011G21KT 9999 FEW035 21/15 A3004 NOSIG=
201503310800 METAR MROC 310800Z 06006KT 9999 FEW035 20/16 A3002 NOSIG=
201503310900 METAR MROC 310900Z 04008KT 9999 FEW035 20/16 A3001 NOSIG=
201503311000 METAR MROC 311000Z 04006KT 9999 FEW035 19/15 A3001 NOSIG=
201503311100 METAR MROC 311100Z 07005KT 9999 FEW035 21/16 A3001 NOSIG=
201503311200 METAR MROC 311200Z 10006KT 9999 FEW035 SCT060 21/16 A3002 NOSIG=
201503311300 METAR MROC 311300Z 07008KT 9999 FEW035 SCT070 22/16 A3006 NOSIG=
201503311400 METAR MROC 311400Z 11013KT 9999 FEW035 SCT070 23/16 A3007 NOSIG=
201503311500 METAR MROC 311500Z 09013KT 9999 FEW035 BKN090 24/14 A3008 NOSIG=
201503311600 METAR MROC 311600Z 10013KT 9999 FEW035 SCT100 26/15 A3007 NOSIG=
201503311700 METAR MROC 311700Z 10014G24KT 9999 FEW035 SCT100 27/14 A3005 NOSIG=
201503311800 METAR MROC 311800Z 10012G23KT 9999 FEW030 SCT090 25/15 A3003 NOSIG=
201503311900 METAR MROC NIL=
201503312000 METAR MROC NIL=
201503312100 METAR MROC NIL=
201503312200 METAR MROC 312200Z 11014KT 9999 SCT030 BKN250 25/14 A2994 NOSIG=
201503312300 METAR MROC 312300Z 10011KT 9999 FEW030 SCT250 25/14 A2995 NOSIG=
201504010000 METAR MROC 010000Z 10012KT 9999 FEW030 SCT250 22/15 A2997 NOSIG=
201504010100 METAR MROC 010100Z 09006KT 9999 FEW030 21/15 A2999 NOSIG=
201504010200 METAR MROC 010200Z 07011KT 9999 FEW030 22/14 A3001 NOSIG=
201504010300 METAR MROC 010300Z 08013KT 9999 FEW030 22/14 A3002 NOSIG=
201504010400 METAR MROC 010400Z 08012KT 9999 FEW030 22/13 A3004 NOSIG=
201504010500 METAR MROC 010500Z 08010KT 9999 FEW030 22/13 A3004 NOSIG=
201504010600 METAR MROC 010600Z 10009KT 9999 FEW030 21/13 A3002 NOSIG=
201504010700 METAR MROC 010700Z 11011G21KT CAVOK 21/12 A3001 NOSIG=
201504010800 METAR MROC 010800Z 10009KT CAVOK 20/12 A3000 NOSIG=
201504010900 METAR MROC 010900Z 11010KT CAVOK 20/12 A3000 NOSIG=
201504011000 METAR MROC 011000Z 07006KT CAVOK 19/11 A3000 NOSIG=
201504011100 METAR MROC 011100Z 06006KT CAVOK 19/11 A3002 NOSIG=
201504011200 METAR MROC 011200Z 03007KT CAVOK 19/11 A3003 NOSIG=
201504011300 METAR MROC 011300Z 10010G20KT CAVOK 21/12 A3005 NOSIG=
201504011400 METAR MROC 011400Z 10017KT CAVOK 22/11 A3007 NOSIG=
201504011500 METAR MROC 011500Z 09018KT CAVOK 26/07 A3006 NOSIG=
201504011600 METAR MROC 011600Z 10010G20KT CAVOK 28/08 A3005 NOSIG=
201504011700 METAR MROC 011700Z 10010G20KT CAVOK 29/10 A3004 NOSIG=
201504011800 METAR MROC 011800Z 09010G20KT CAVOK 29/12 A3001 NOSIG=
201504011900 METAR MROC 011900Z 10013G23KT 9999 FEW045 SCT100 28/13 A2999 NOSIG=
201504012000 METAR MROC 012000Z 10010G20KT 9999 FEW040 SCT250 29/13 A2996 NOSIG=
201504012100 METAR MROC 012100Z 10009KT 9999 FEW040 BKN200 28/14 A2996 NOSIG=
201504012200 METAR MROC 012200Z 11010KT 9999 FEW040 BKN200 27/15 A2995 NOSIG=
201504012300 METAR MROC 012300Z 11007KT 9999 FEW040 BKN200 24/16 A2995 NOSIG=
201504020000 METAR MROC 020000Z 12007KT 9999 FEW040 SCT200 23/16 A2999 NOSIG=
201504020100 METAR MROC 020100Z 10008KT 9999 FEW040 22/15 A3000 NOSIG=
201504020200 METAR MROC 020200Z 09006KT 9999 FEW040 22/15 A3003 NOSIG=
201504020300 METAR MROC 020300Z 08005KT CAVOK 21/15 A3004 NOSIG=
201504020400 METAR MROC 020400Z 07008KT CAVOK 21/14 A3005 NOSIG=
201504020500 METAR MROC 020500Z 10006KT CAVOK 21/13 A3005 NOSIG=
201504020600 METAR MROC 020600Z 07009KT CAVOK 21/13 A3004 NOSIG=
201504020700 METAR MROC NIL=
201504020800 METAR MROC 020800Z 08008KT CAVOK 20/13 A3001 NOSIG=
201504020900 METAR MROC 020900Z 09008KT CAVOK 20/14 A3000 NOSIG=
201504021000 METAR MROC 021000Z 10008KT CAVOK 20/13 A3001 NOSIG=
201504021100 METAR MROC 021100Z 10010KT CAVOK 20/13 A3002 NOSIG=
201504021200 METAR MROC 021200Z 09012KT CAVOK 20/13 A3003 NOSIG=
201504021300 METAR MROC 021300Z 11010G20KT CAVOK 22/13 A3006 NOSIG=
201504021400 METAR MROC 021400Z 11012G22KT CAVOK 24/12 A3007 NOSIG=
201504021500 METAR MROC 021500Z 11013G23KT CAVOK 26/11 A3007 NOSIG=
201504021600 METAR MROC 021600Z 10012G23KT CAVOK 28/10 A3006 NOSIG=
201504021700 METAR MROC 021700Z 11010G20KT CAVOK 29/11 A3005 NOSIG=
201504021800 METAR MROC 021800Z 10016KT CAVOK 29/10 A3003 NOSIG=
201504021900 METAR MROC 021900Z 12010G20KT CAVOK 30/09 A3000 NOSIG=
201504022000 METAR MROC 022000Z 12017KT 9999 FEW045 31/10 A2997 NOSIG=
201504022100 METAR MROC 022100Z 11010KT 9999 FEW045 30/11 A2995 NOSIG=
201504022200 METAR MROC 022200Z 10009KT 9999 FEW045 29/12 A2995 NOSIG=
201504022300 METAR MROC 022300Z 10009KT 9999 FEW045 27/13 A2996 NOSIG=
201504030000 METAR MROC 030000Z 13006KT 9999 FEW040 24/13 A2999 NOSIG=
201504030100 METAR MROC 030100Z 11007KT 9999 FEW035 23/14 A3000 NOSIG=
201504030200 METAR MROC 030200Z 09010KT 9999 FEW035 22/13 A3002 NOSIG=
201504030300 METAR MROC 030300Z 10007KT CAVOK 22/11 A3004 NOSIG=
201504030400 METAR MROC 030400Z 09007KT CAVOK 22/11 A3005 NOSIG=
201504030500 METAR MROC 030500Z 08007KT CAVOK 21/12 A3006 NOSIG=
201504030600 METAR MROC 030600Z 07008KT CAVOK 21/12 A3003 NOSIG=
201504030700 METAR MROC 030700Z 04007KT CAVOK 20/12 A3001 NOSIG=
201504030800 METAR MROC 030800Z 07008KT CAVOK 20/12 A2999 NOSIG=
201504030900 METAR MROC 030900Z 11010KT CAVOK 20/12 A2999 NOSIG=
201504031000 METAR MROC 031000Z 10009KT CAVOK 20/13 A2999 NOSIG=
201504031100 METAR MROC 031100Z 09010G20KT CAVOK 20/13 A3000 NOSIG=
201504031200 METAR MROC 031200Z 11010KT CAVOK 20/13 A3000 NOSIG=
201504031300 METAR MROC 031300Z 11010KT CAVOK 22/14 A3002 NOSIG=
201504031400 METAR MROC 031400Z 11010G20KT CAVOK 24/14 A3003 NOSIG=
201504031500 METAR MROC 031500Z 10013G23KT 9999 FEW045 25/15 A3004 NOSIG=
201504031600 METAR MROC 031600Z 08014G24KT 9999 FEW040 27/13 A3004 NOSIG=
201504031700 METAR MROC 031700Z 08011G21KT 9999 FEW045 29/12 A3002 NOSIG=
201504031800 METAR MROC 031800Z 07011KT 9999 FEW045 29/12 A3000 NOSIG=
201504031900 METAR MROC 031900Z 12008KT 9999 FEW045 30/13 A2998 NOSIG=
201504032000 METAR MROC 032000Z 09010KT 9999 FEW045 30/12 A2995 NOSIG=
201504032100 METAR MROC 032100Z 11012G22KT 9999 SCT030 30/14 A2993 NOSIG=
201504032200 METAR MROC 032200Z 10011KT 9999 SCT030 28/14 A2993 NOSIG=
201504032300 METAR MROC 032300Z 12009KT 9999 SCT030 26/15 A2994 NOSIG=
201504040000 METAR MROC 040000Z 10009KT 9999 FEW030 23/15 A2996 NOSIG=
201504040100 METAR MROC 040100Z 10009G21KT 9999 FEW030 22/15 A2998 NOSIG=
201504040200 METAR MROC 040200Z 11008KT 9999 FEW030 22/15 A3000 NOSIG=
201504040300 METAR MROC 040300Z 08009G19KT 9999 FEW030 21/14 A3001 NOSIG=
201504040400 METAR MROC 040400Z 09011G21KT 9999 FEW030 21/15 A3002 NOSIG=
201504040500 METAR MROC 040500Z 10012G22KT 9999 FEW030 22/14 A3001 NOSIG=
201504040600 METAR MROC 040600Z 10014G26KT 9999 FEW030 22/13 A2998 NOSIG=
201504040700 METAR MROC 040700Z 10014G24KT CAVOK 22/13 A2996 NOSIG=
201504040800 METAR MROC 040800Z 09010G20KT CAVOK 22/13 A2994 NOSIG=
201504040900 METAR MROC 040900Z 10011G21KT CAVOK 21/13 A2993 NOSIG=
201504041000 METAR MROC 041000Z 10011G21KT CAVOK 21/12 A2993 NOSIG=
201504041100 METAR MROC 041100Z 10010G20KT CAVOK 21/12 A2993 NOSIG=
201504041200 METAR MROC 041200Z 10015KT CAVOK 20/12 A2996 NOSIG=
201504041300 METAR MROC 041300Z 08010KT CAVOK 24/12 A2997 NOSIG=
201504041400 METAR MROC 041400Z 10013G23KT CAVOK 26/12 A2999 NOSIG=
201504041500 METAR MROC 041500Z 10014G27KT CAVOK 27/12 A2999 NOSIG=
201504041600 METAR MROC 041600Z 09014G25KT CAVOK 28/12 A3000 NOSIG=
201504041700 METAR MROC 041700Z 09015G25KT CAVOK 29/12 A2999 NOSIG=
201504041800 METAR MROC 041800Z 08016G26KT 9999 FEW045 29/12 A2999 NOSIG=
201504041900 METAR MROC 041900Z 09015G25KT 9999 FEW045 29/15 A2995 NOSIG=
201504042000 METAR MROC 042000Z 09012KT 9999 FEW040 29/15 A2993 NOSIG=
201504042100 METAR MROC 042100Z 11012KT 9999 FEW040 29/14 A2991 NOSIG=
201504042200 METAR MROC 042200Z 10012KT 9999 FEW040 27/14 A2992 NOSIG=
201504042300 METAR MROC 042300Z 09015KT 9999 FEW040 25/14 A2992 NOSIG=
201504050000 METAR MROC 050000Z 10011KT 9999 FEW040 22/15 A2993 NOSIG=
201504050100 METAR MROC 050100Z 10010KT 9999 FEW040 22/16 A2996 NOSIG=
201504050200 METAR MROC 050200Z 09012KT 9999 FEW040 22/15 A2998 NOSIG=
201504050300 METAR MROC 050300Z 09011KT 9999 FEW040 22/15 A2997 NOSIG=
201504050400 METAR MROC 050400Z 10010G20KT 9999 FEW040 21/15 A2998 NOSIG=
201504050500 METAR MROC 050500Z 10014G24KT 9999 FEW035 21/16 A2997 NOSIG=
201504050600 METAR MROC 050600Z 10015G27KT 9999 FEW035 21/16 A2994 NOSIG=
201504050700 METAR MROC 050700Z 09011G21KT 9999 FEW040 22/16 A2994 NOSIG=
201504050800 METAR MROC 050800Z 10013G23KT 9999 FEW040 21/16 A2991 NOSIG=
201504050900 METAR MROC 050900Z 10017G30KT 9999 FEW040 21/16 A2990 NOSIG=
201504051000 METAR MROC 051000Z 09015G25KT 9999 FEW040 21/15 A2990 NOSIG=
201504051100 METAR MROC 051100Z 10014KT 9999 FEW040 21/15 A2992 NOSIG=
201504051200 METAR MROC 051200Z 08012G22KT 9999 FEW040 21/14 A2994 NOSIG=
201504051300 METAR MROC 091300Z 09015KT CAVOK 23/13 A2996 NOSIG=
201504051400 METAR MROC 051400Z 09015G25KT CAVOK 24/13 A2997 NOSIG=
201504051500 METAR MROC 051500Z 08015G25KT CAVOK 27/12 A2998 NOSIG=
201504051600 METAR MROC 051600Z 09017G27KT 9999 FEW040 27/12 A2999 NOSIG=
201504051700 METAR MROC 051700Z 07017G27KT 9999 FEW040 28/11 A2997 NOSIG=
201504051800 METAR MROC 051800Z 06020G34KT 9999 FEW040 29/10 A2994 NOSIG=
201504051900 METAR MROC 051900Z 07018KT 9999 FEW040 SCT120 29/11 A2992 NOSIG=
201504052000 METAR MROC 052000Z 06020G30KT 9999 FEW040 29/12 A2990 NOSIG=
201504052100 METAR MROC 052100Z 06017KT 9999 FEW040 30/11 A2989 NOSIG=
201504052200 METAR MROC 052200Z 07015G25KT 9999 FEW040 26/14 A2988 NOSIG=
201504052300 METAR MROC 052300Z 08010G20KT 9999 FEW040 26/12 A2990 NOSIG=
201504060000 METAR MROC 060000Z 08012KT 9999 FEW040 24/13 A2991 NOSIG=
201504060100 METAR MROC 060100Z 08012G22KT 9999 FEW040 23/13 A2993 NOSIG=
201504060200 METAR MROC 060200Z 10011KT CAVOK 22/14 A2995 NOSIG=
201504060300 METAR MROC 060300Z 10012G22KT CAVOK 21/14 A2997 NOSIG=
201504060400 METAR MROC 060400Z 10014KT CAVOK 21/14 A2998 NOSIG=
201504060500 METAR MROC 060500Z 09013KT CAVOK 21/13 A2997 NOSIG=
201504060600 METAR MROC 060600Z 10013KT CAVOK 21/14 A2996 NOSIG=
201504060700 METAR MROC 060700Z 09011G21KT CAVOK 21/13 A2994 NOSIG=
201504060800 METAR MROC 060800Z 10012KT CAVOK 20/14 A2991 NOSIG=
201504060900 METAR MROC 060900Z 10012G22KT CAVOK 20/14 A2992 NOSIG=
201504061000 METAR MROC 061000Z 10010KT CAVOK 20/13 A2992 NOSIG=
201504061100 METAR MROC 061100Z 09012KT CAVOK 21/12 A2993 NOSIG=
201504061200 METAR MROC 061200Z 10010KT CAVOK 21/13 A2995 NOSIG=
201504061300 METAR MROC 061300Z 10014KT 9999 FEW030 22/14 A2998 NOSIG=
201504061400 METAR MROC 061400Z 10012G22KT 9999 FEW030 25/13 A3000 NOSIG=
201504061500 METAR MROC 061500Z 08018G28KT 9999 FEW030 26/12 A3000 NOSIG=
201504061600 METAR MROC 061600Z 07017KT 9999 FEW030 27/10 A2998 NOSIG=
201504061700 METAR MROC 061700Z 07016KT 9999 FEW030 28/09 A2998 NOSIG=
201504061800 METAR MROC 061800Z 07014KT 9999 FEW030 29/10 A2996 NOSIG=
201504061900 METAR MROC 061900Z 06013KT 9999 FEW030 30/10 A2993 NOSIG=
201504062000 METAR MROC 062000Z 07012G22KT 9999 FEW035 30/12 A2991 NOSIG=
201504062100 METAR MROC 062100Z 09010G20KT 9999 FEW035 29/12 A2990 NOSIG=
201504062200 METAR MROC 062200Z 08012G23KT 9999 FEW035 27/14 A2990 NOSIG=
201504062300 METAR MROC 062300Z 09010G20KT 9999 FEW035 25/15 A2991 NOSIG=
201504062350 METAR MROC 070000Z 10011G21KT 9999 FEW030 22/15 A2992 NOSIG=
201504070000 METAR MROC 070000Z 10011G21KT 9999 FEW030 22/15 A2992 NOSIG=
201504070100 METAR MROC 070100Z 09010G20KT 9999 FEW030 21/14 A2995 NOSIG=
201504070200 METAR MROC 070200Z 09014KT 9999 FEW030 22/14 A2997 NOSIG=
201504070300 METAR MROC 070300Z 10010G20KT 9999 FEW030 21/14 A2997 NOSIG=
201504070400 METAR MROC 070400Z 11013KT 9999 FEW035 20/14 A2999 NOSIG=
201504070500 METAR MROC 070500Z 10010G20KT 9999 FEW035 21/13 A2998 NOSIG=
201504070600 METAR MROC 070600Z 09012KT 9999 FEW035 20/13 A2997 NOSIG=
201504070700 METAR MROC 070700Z 09013KT 9999 FEW035 20/13 A2994 NOSIG=
201504070800 METAR MROC 070800Z 10013KT 9999 FEW035 20/12 A2993 NOSIG=
201504070900 METAR MROC 070900Z 11013KT 9999 FEW035 20/13 A2993 NOSIG=
201504071000 METAR MROC 071000Z 10010G20KT 9999 FEW035 20/13 A2993 NOSIG=
201504071100 METAR MROC 071100Z 09010G20KT 9999 FEW035 20/12 A2994 NOSIG=
201504071200 METAR MROC 071200Z 09013KT 9999 FEW035 20/12 A2996 NOSIG=
201504071300 METAR MROC 071300Z 09012G22KT CAVOK 22/12 A2998 NOSIG=
201504071400 METAR MROC 071400Z 11012G22KT CAVOK 25/11 A2999 NOSIG=
201504071500 METAR MROC 071500Z 10010G20KT CAVOK 26/11 A3000 NOSIG=
201504071600 METAR MROC 071600Z 08010G20KT CAVOK 27/13 A3000 NOSIG=
201504071700 METAR MROC 071700Z 09012G22KT 9999 FEW035 28/14 A2998 NOSIG=
201504071800 METAR MROC 071800Z 10012G22KT 9999 FEW035 29/14 A2996 NOSIG=
201504071900 METAR MROC 071900Z 09014G25KT 9999 FEW035 28/14 A2995 NOSIG=
201504072000 METAR MROC 072000Z 09011G21KT 9999 FEW030 28/14 A2993 NOSIG=
201504072100 METAR MROC 072100Z 11012G22KT 9999 FEW030 28/14 A2992 NOSIG=
201504072200 METAR MROC 072200Z 10012G22KT 9999 FEW030 26/14 A2993 NOSIG=
201504072300 METAR MROC 072300Z 11011G21KT 9999 FEW030 24/13 A2993 NOSIG=
201504080000 METAR MROC 080000Z 11012G22KT 9999 FEW030 22/12 A2995 NOSIG=
201504080100 METAR MROC 080100Z 11011G21KT 9999 FEW030 21/13 A2997 NOSIG=
201504080200 METAR MROC 080200Z 11013G26KT 9999 FEW030 21/13 A2998 NOSIG=
201504080300 METAR MROC 080300Z 11010G20KT 9999 FEW030 21/13 A2999 NOSIG=
201504080400 METAR MROC 080400Z 10015KT CAVOK 21/13 A2999 NOSIG=
201504080500 METAR MROC 080500Z 10012G23KT CAVOK 21/13 A2999 NOSIG=
201504080600 METAR MROC 080600Z 09010KT CAVOK 21/13 A2998 NOSIG=
201504080700 METAR MROC 080700Z 10011KT CAVOK 21/12 A2996 NOSIG=
201504080800 METAR MROC 080800Z 10011G21KT CAVOK 20/13 A2995 NOSIG=
201504080900 METAR MROC 080900Z 10010KT CAVOK 20/13 A2994 NOSIG=
201504081000 METAR MROC 081000Z 11010G20KT 9999 FEW030 20/13 A2994 NOSIG=
201504081100 METAR MROC 081100Z 11012KT 9999 FEW030 20/14 A2996 NOSIG=
201504081200 METAR MROC 081200Z 10013G23KT 9999 FEW030 20/15 A2996 NOSIG=
201504081300 METAR MROC 081300Z 11011G21KT 9999 FEW035 22/14 A2998 NOSIG=
201504081400 METAR MROC 081400Z 10013G24KT 9999 FEW035 23/15 A3000 NOSIG=
201504081500 METAR MROC 081500Z 10014G24KT 9999 FEW035 SCT250 25/15 A3001 NOSIG=
201504081600 METAR MROC 081600Z COR 08015G25KT 9999 FEW035 BKN250 27/15 A2999 WS R07 NOSIG=
201504081700 METAR MROC 081700Z 10011G21KT 9999 FEW035 BKN200 28/15 A2997 NOSIG=
201504081800 METAR MROC 081800Z 09016G28KT 9999 FEW035 BKN250 28/15 A2996 NOSIG=
201504081900 METAR MROC 081900Z 10014G24KT 9999 FEW035 BKN250 28/15 A2993 NOSIG=
201504082000 METAR MROC 082000Z COR 10014KT 9999 FEW035 BKN250 28/15 A2991 NOSIG=
201504082100 METAR MROC 082100Z 11015KT 9999 SCT030 SCT250 27/16 A2990 NOSIG=
201504082200 METAR MROC 082200Z 10011G21KT 9999 SCT030 SCT250 27/15 A2989 NOSIG=
201504082300 METAR MROC 082300Z 10011KT 9999 SCT025 24/15 A2991 NOSIG=
201504090000 METAR MROC 090000Z 11011G21KT 9999 FEW030 22/16 A2993 NOSIG=
201504090100 METAR MROC 090100Z 10013KT 9999 FEW030 22/16 A2995 NOSIG=
201504090200 METAR MROC 090200Z 10012KT 9999 FEW030 22/16 A2996 NOSIG=
201504090300 METAR MROC 090300Z 10013G26KT 9999 FEW030 22/15 A2996 WS R07 NOSIG=
201504090400 METAR MROC 090400Z 10012G22KT 9999 FEW030 22/15 A2997 NOSIG=
201504090500 METAR MROC 090500Z 10011G21KT 9999 FEW030 21/15 A2996 NOSIG=
201504090600 METAR MROC 090600Z 08013G23KT 9999 FEW030 21/15 A2996 NOSIG=
201504090700 METAR MROC 090700Z 07012G22KT CAVOK 21/15 A2994 NOSIG=
201504090800 METAR MROC 090800Z 09010G20KT CAVOK 21/15 A2993 NOSIG=
201504090900 METAR MROC 090900Z 10013G23KT CAVOK 20/15 A2992 NOSIG=
201504091000 METAR MROC 091000Z 10014G25KT CAVOK 20/16 A2992 NOSIG=
201504091100 METAR MROC 091100Z 10012G22KT CAVOK 20/16 A2994 NOSIG=
201504091200 METAR MROC 091200Z 10010G20KT 9999 FEW025 20/15 A2996 NOSIG=
201504091300 METAR MROC 091300Z 10013G23KT 9999 FEW030 22/15 A2998 NOSIG=
201504091400 METAR MROC 091400Z 09015G25KT 9999 FEW030 24/15 A3001 NOSIG=
201504091500 METAR MROC 091500Z 08012G22KT 9999 FEW030 26/14 A3002 NOSIG=
201504091600 METAR MROC 091600Z 07014KT 9999 FEW030 27/12 A3001 NOSIG=
201504091700 METAR MROC 091700Z 06015G25KT 9999 FEW030 SCT250 29/12 A3001 NOSIG=
201504091800 METAR MROC 091800Z 08012KT 9999 FEW030 SCT250 30/13 A2998 NOSIG=
201504091900 METAR MROC 091900Z 06014KT 9999 FEW030 SCT250 30/12 A2996 NOSIG=
201504092000 METAR MROC 092000Z 07014KT 9999 FEW030 SCT250 30/11 A2993 NOSIG=
201504092100 METAR MROC 092100Z 07014KT 9999 FEW030 SCT250 29/14 A2992 NOSIG=
201504092200 METAR MROC 092200Z 06013KT 9999 FEW030 SCT250 29/13 A2991 NOSIG=
201504092300 METAR MROC 092300Z 07013KT 9999 FEW030 SCT250 26/14 A2992 NOSIG=
201504100000 METAR MROC 100000Z 08014KT 9999 FEW030 SCT250 23/15 A2994 NOSIG=
201504100100 METAR MROC 100100Z 07010KT 9999 FEW030 22/15 A2996 NOSIG=
201504100200 METAR MROC 100200Z 11010KT 9999 FEW030 22/16 A2997 NOSIG=
201504100300 METAR MROC 100300Z 11010KT 9999 FEW030 22/15 A2998 NOSIG=
201504100400 METAR MROC 100400Z 10014G26KT 9999 FEW035 22/16 A2996 NOSIG=
201504100500 METAR MROC 100500Z 10011G21KT 9999 FEW035 21/16 A2998 NOSIG=
201504100600 METAR MROC 100600Z 10012G22KT 9999 FEW035 21/15 A2997 NOSIG=
201504100700 METAR MROC 100700Z 10011G23KT 9999 FEW035 21/16 A2996 NOSIG=
201504100800 METAR MROC 100800Z 11012G23KT 9999 FEW035 21/15 A2995 NOSIG=
201504100900 METAR MROC 100900Z 11012G22KT 9999 FEW035 21/15 A2994 NOSIG=
201504101000 METAR MROC 101000Z 10010KT 9999 FEW035 21/15 A2994 NOSIG=
201504101100 METAR MROC 101100Z 10010G20KT 9999 FEW035 21/16 A2996 NOSIG=
201504101200 METAR MROC 101200Z 09011G21KT 9999 FEW030 BKN250 21/16 A2997 NOSIG=
201504101300 METAR MROC 101300Z 11013KT 9999 FEW035 23/16 A3000 NOSIG=
201504101400 METAR MROC 101400Z 10014G24KT 9999 FEW035 25/15 A3001 NOSIG=
201504101500 METAR MROC 101500Z 08013G23KT 9999 FEW035 26/16 A3002 NOSIG=
201504101600 METAR MROC 101600Z 09014KT 9999 FEW030 28/14 A3001 NOSIG=
201504101700 METAR MROC 101700Z 10012KT 9999 FEW030 28/15 A3000 NOSIG=
201504101800 METAR MROC 101800Z 10011KT 9999 FEW030 29/14 A2998 NOSIG=
201504101900 METAR MROC 101900Z 13010KT 9999 FEW030 28/15 A2996 NOSIG=
201504102000 METAR MROC 102000Z 08012KT 9999 SCT030TCU 27/15 A2994 NOSIG=
201504102100 METAR MROC 102100Z 12010KT 9999 FEW030TCU 28/15 A2993 NOSIG=
201504102200 METAR MROC 102200Z 09011KT 9999 FEW040 28/15 A2993 NOSIG=
201504102300 METAR MROC 102300Z 11009KT 9999 FEW040 26/15 A2993 NOSIG=
201504110000 METAR MROC 110000Z 10010G20KT 9999 FEW040 24/15 A2995 NOSIG=
201504110100 METAR MROC 110100Z 11011G21KT 9999 FEW040 23/15 A2997 NOSIG=
201504110200 METAR MROC 110200Z 08011G21KT 9999 FEW040 23/16 A2998 NOSIG=
201504110300 METAR MROC 110300Z 12009KT 9999 FEW040 22/16 A2999 NOSIG=
201504110400 METAR MROC 110400Z 11011KT 9999 FEW030 22/16 A3001 NOSIG=
201504110500 METAR MROC 110500Z 10012KT 9999 FEW030 22/16 A3000 NOSIG=
201504110600 METAR MROC 110600Z 11011G23KT 9999 FEW030 22/16 A2999 NOSIG=
201504110700 METAR MROC 110700Z 11011G21KT 9999 FEW030 22/16 A2998 NOSIG=
201504110800 METAR MROC 110800Z 09013KT 9999 FEW030 23/16 A2996 NOSIG=
201504110900 METAR MROC 110900Z 09013G23KT 9999 FEW030 23/14 A2996 NOSIG=
201504111000 METAR MROC 111000Z 08009KT 9999 FEW030 BKN080 22/14 A2997 NOSIG=
201504111100 METAR MROC 111100Z 10011KT 9999 FEW030 BKN080 22/15 A2997 NOSIG=
201504111200 METAR MROC 111200Z 10012G22KT 9999 FEW030 SCT080 22/15 A2998 NOSIG=
201504111300 METAR MROC 111300Z 12013G23KT 9999 FEW030 SCT100 23/15 A3001 NOSIG=
201504111400 METAR MROC 111400Z 11010G20KT 9999 FEW030 25/16 A3002 NOSIG=
201504111500 METAR MROC 111500Z 11013G23KT 9999 FEW035 27/16 A3002 NOSIG=
201504111600 METAR MROC 111600Z 11013G23KT 9999 FEW035 SCT100 29/15 A3002 NOSIG=
201504111700 METAR MROC 111700Z 10011G21KT 9999 FEW035 BKN100 27/16 A3002 NOSIG=
201504111800 METAR MROC 111800Z 09010G20KT 9999 SCT030 BKN100 26/16 A3001 NOSIG=
201504111900 METAR MROC 111900Z 09010G20KT 9999 FEW030 BKN100 28/15 A2998 NOSIG=
201504112000 METAR MROC 112000Z 08012G22KT 9999 FEW030 SCT100 27/15 A2996 NOSIG=
201504112100 METAR MROC 112100Z 10012G22KT 9999 SCT030 SCT100 27/14 A2995 NOSIG=
201504112200 METAR MROC 112200Z 10011KT 9999 SCT030 SCT100 26/15 A2995 NOSIG=
201504112300 METAR MROC 112300Z 10010KT 9999 SCT030 SCT100 25/15 A2996 NOSIG=
201504120000 METAR MROC 120000Z 11011KT 9999 SCT030 SCT100 23/16 A2997 NOSIG=
201504120100 METAR MROC 120100Z 11011KT 9999 FEW030 SCT100 23/15 A2999 NOSIG=
201504120200 METAR MROC 120200Z 11009KT 9999 FEW030 SCT100 23/16 A3001 NOSIG=
201504120300 METAR MROC 120300Z 11010G21KT 9999 FEW030 22/16 A3002 NOSIG=
201504120400 METAR MROC 120400Z 06004KT 9999 FEW030 22/16 A3003 NOSIG=
201504120500 METAR MROC 120500Z 04005KT 9999 FEW030 22/15 A3002 NOSIG=
201504120600 METAR MROC 120600Z 06006KT CAVOK 21/16 A3000 NOSIG=
201504120700 METAR MROC 120700Z 10010KT CAVOK 22/15 A2997 NOSIG=
201504120800 METAR MROC 120800Z 10010KT CAVOK 21/16 A2997 NOSIG=
201504120900 METAR MROC 120900Z 06004KT CAVOK 21/16 A2997 NOSIG=
201504121000 METAR MROC 121000Z 06007KT CAVOK 21/16 A2999 NOSIG=
201504121100 METAR MROC 121100Z 03006KT 9999 FEW030 SCT100 20/15 A2999 NOSIG=
201504121200 METAR MROC 121200Z 04006KT 9999 FEW030 BKN080 22/16 A3000 NOSIG=
201504121300 METAR MROC 121300Z 08017KT 9999 FEW035 BKN080 23/16 A3002 NOSIG=
201504121400 METAR MROC 121400Z 11011G21KT 9999 FEW035 24/15 A3004 NOSIG=
201504121500 METAR MROC 121500Z 11015G25KT 9999 FEW035 SCT100 26/15 A3004 NOSIG=
201504121600 METAR MROC 121600Z 10013G23KT CAVOK 26/15 A3003 NOSIG=
201504121700 METAR MROC 121700Z 09011G21KT 9999 FEW035 SCT100 27/15 A3003 NOSIG=
201504121800 METAR MROC 121800Z 10011G21KT 9999 FEW035 SCT100 29/15 A3002 NOSIG=
201504121900 METAR MROC 121900Z 11011G21KT 9999 SCT035 SCT100 28/16 A2999 NOSIG=
201504122000 METAR MROC 122000Z 10017KT 9999 FEW035 SCT100 BKN250 28/16 A2996 NOSIG=
201504122100 METAR MROC 122100Z 08010KT 9999 SCT040 SCT250 28/15 A2994 NOSIG=
201504122200 METAR MROC 122200Z 11009KT 9999 SCT040 BKN250 28/16 A2993 NOSIG=
201504122300 METAR MROC 122300Z 11010KT 9999 FEW040 SCT080 BKN250 26/15 A2995 NOSIG=
201504130000 METAR MROC 130000Z 11008KT 9999 FEW040 BKN250 25/15 A2996 NOSIG=
201504130100 METAR MROC 130100Z 11007KT 9999 FEW040 SCT250 24/17 A2999 NOSIG=
201504130200 METAR MROC 130200Z 09007KT 9999 FEW040 SCT250 24/17 A3001 NOSIG=
201504130300 METAR MROC 130300Z 11008KT CAVOK 23/17 A3002 NOSIG=
201504130400 METAR MROC 130400Z 10007KT CAVOK 23/17 A3005 NOSIG=
201504130500 METAR MROC 130500Z 06005KT CAVOK 22/17 A3006 NOSIG=
201504130600 METAR MROC 130600Z 08008KT CAVOK 22/17 A3004 NOSIG=
201504130700 METAR MROC 130700Z 08005KT CAVOK 22/17 A3002 NOSIG=
201504130800 METAR MROC 130800Z 07005KT CAVOK 21/16 A3001 NOSIG=
201504130900 METAR MROC 130900Z 06005KT CAVOK 21/16 A3001 NOSIG=
201504131000 METAR MROC 131000Z 07008KT 9999 FEW040 22/17 A3002 NOSIG=
201504131100 METAR MROC 131100Z 05009KT 9999 FEW030 SCT070 22/17 A3003 NOSIG=
201504131200 METAR MROC 131200Z 07009KT 9999 -RA FEW030 BKN070 21/17 A3006 NOSIG=
201504131300 METAR MROC 131300Z 09013G23KT 9999 DZ FEW035 BKN070 22/16 A3004 NOSIG=
201504131400 METAR MROC 131400Z 10014G24KT 9999 FEW035 BKN070 23/16 A3005 NOSIG=
201504131500 METAR MROC 131500Z 10015G25KT 9999 FEW035 BKN100 25/16 A3006 NOSIG=
201504131600 METAR MROC 131600Z 10013G23KT 9999 FEW035 BKN100 26/16 A3008 NOSIG=
201504131700 METAR MROC 131700Z 11014G24KT 9999 FEW035 BKN100 27/15 A3007 NOSIG=
201504131800 METAR MROC 131800Z 09015G25KT 9999 FEW035 BKN100 28/15 A3005 NOSIG=
201504131900 METAR MROC 131900Z 08010G20KT 9999 FEW035 BKN120 28/15 A3003 NOSIG=
201504132000 METAR MROC 132000Z 09012G22KT 9999 VCSH FEW020CB SCT035 BKN120 27/15 A3001 NOSIG=
201504132100 METAR MROC 132100Z 08011KT 9999 FEW035 BKN150 26/15 A3000 NOSIG=
201504132200 METAR MROC 132200Z 11009KT 9999 -RA FEW040 OVC100 25/17 A3000 NOSIG=
201504132300 METAR MROC 132300Z 10006KT 9999 FEW040 BKN100 25/16 A3000 NOSIG=
201504140000 METAR MROC 140000Z 06005KT 9999 FEW035 BKN250 24/17 A3003 NOSIG=
201504140100 METAR MROC 140100Z 15002KT 9999 SCT035 BKN250 23/17 A3004 NOSIG=
201504140200 METAR MROC 140200Z 14003KT 9999 FEW035 BKN250 23/16 A3007 NOSIG=
201504140300 METAR MROC 140300Z 10008KT 9999 FEW035 BKN250 23/16 A3008 NOSIG=
201504140400 METAR MROC 140400Z 04008KT CAVOK 22/16 A3009 NOSIG=
201504140500 METAR MROC 140500Z 11013KT CAVOK 22/17 A3008 NOSIG=
201504140600 METAR MROC 140600Z 07015KT CAVOK 22/16 A3006 NOSIG=
201504140700 METAR MROC 140700Z 08007KT CAVOK 22/16 A3004 NOSIG=
201504140800 METAR MROC 140800Z 08010KT CAVOK 21/16 A3001 NOSIG=
201504140900 METAR MROC 140900Z 10017KT CAVOK 21/16 A3000 NOSIG=
201504141000 METAR MROC 141000Z 04009KT CAVOK 21/16 A3002 NOSIG=
201504141100 METAR MROC 141100Z 04017KT CAVOK 22/16 A3002 NOSIG=
201504141200 METAR MROC 141200Z 09016KT 9999 FEW040 BKN250 22/16 A3003 NOSIG=
201504141300 METAR MROC 141300Z 10011KT 9999 FEW045 BKN150 23/16 A3005 NOSIG=
201504141400 METAR MROC 141400Z 09011G22KT 9999 FEW045 BKN150 25/17 A3006 NOSIG=
201504141500 METAR MROC 141500Z 10012G22KT 9999 FEW030 BKN150 26/16 A3008 NOSIG=
201504141600 METAR MROC 141600Z 09017G27KT 9999 SCT040 BKN150 27/15 A3008 NOSIG=
201504141700 METAR MROC 141700Z 11017G27KT 9999 SCT035 SCT150 28/16 A3009 NOSIG=
201504141800 METAR MROC 141800Z 09015G26KT 9999 SCT040 SCT200 29/14 A3006 NOSIG=
201504141900 METAR MROC 141900Z 08014KT 9999 SCT045 BKN200 29/14 A3002 NOSIG=
201504142000 METAR MROC 142000Z 09014KT 9999 FEW045 SCT100 BKN200 28/14 A3000 NOSIG=
201504142100 METAR MROC 142100Z 10010G20KT 9999 SCT045 BKN200 28/14 A2999 NOSIG=
201504142200 METAR MROC 142200Z 12010KT 9999 FEW045 SCT100 BKN200 27/15 A2998 NOSIG=
201504142300 METAR MROC 142300Z 10009KT 9999 FEW040 OVC200 26/14 A2998 NOSIG=
201504150000 METAR MROC 150000Z 10010KT 9999 FEW040 BKN200 25/16 A2999 NOSIG=
201504150100 METAR MROC 150100Z 11008KT CAVOK 24/16 A3001 NOSIG=
201504150200 METAR MROC 150200Z 10007KT CAVOK 23/16 A3003 NOSIG=
201504150300 METAR MROC 150300Z 11006KT 9999 FEW030 SCT100 23/16 A3005 NOSIG=
201504150400 METAR MROC 150400Z 11005KT 9999 FEW035 SCT120 23/17 A3007 NOSIG=
201504150500 METAR MROC 150500Z 04005KT 9999 FEW035 SCT120 21/17 A3006 NOSIG=
201504150600 METAR MROC 150600Z 02003KT 9999 FEW035 SCT120 20/16 A3003 NOSIG=
201504150700 METAR MROC 150700Z 03003KT CAVOK 19/16 A3001 NOSIG=
201504150800 METAR MROC 150800Z 10005KT CAVOK 20/16 A3000 NOSIG=
201504150900 METAR MROC 150900Z 05006KT CAVOK 20/16 A2998 NOSIG=
201504151000 METAR MROC 151000Z 05008KT CAVOK 21/16 A2999 NOSIG=
201504151100 METAR MROC 151100Z 04006KT CAVOK 21/16 A3000 NOSIG=
201504151200 METAR MROC 151200Z 04006KT CAVOK 21/16 A3000 NOSIG=
201504151300 METAR MROC 151300Z 10013KT 9999 FEW030 BKN080 24/16 A3003 NOSIG=
201504151400 METAR MROC 151400Z 11007KT 9999 FEW030 BKN080 24/16 A3005 NOSIG=
201504151500 METAR MROC 151500Z 08011KT 9999 FEW035 SCT090 27/16 A3006 NOSIG=
201504151600 METAR MROC 151600Z 10013KT 9999 FEW035 SCT120 28/16 A3006 NOSIG=
201504151700 METAR MROC 151700Z 07010KT 9999 FEW035 SCT120 29/15 A3006 NOSIG=
201504151800 METAR MROC 151800Z 09012KT 9999 FEW035 SCT120 30/16 A3003 NOSIG=
201504151900 METAR MROC 151900Z 09013KT 9999 FEW030 SCT120 30/15 A2999 NOSIG=
201504152000 METAR MROC 152000Z 09012KT 9999 FEW035 SCT220 29/15 A2996 NOSIG=
201504152100 METAR MROC 152100Z 10011KT 9999 SCT030 SCT100 27/16 A2997 NOSIG=
201504152200 METAR MROC 152200Z 13009KT 9999 SCT030 SCT100 25/16 A2996 NOSIG=
201504152300 METAR MROC 152300Z 08009KT 9999 FEW030 SCT100 BKN200 23/16 A2999 NOSIG=
201504160000 METAR MROC 160000Z 10009KT 9999 FEW030 SCT100 BKN200 23/16 A3001 NOSIG=
201504160100 METAR MROC 160100Z 08007KT 9999 FEW030 SCT100 22/17 A3003 NOSIG=
201504160200 METAR MROC 160200Z 10008KT 9999 FEW030 23/17 A3004 NOSIG=
201504160300 METAR MROC 160300Z 10010KT 9999 FEW035 22/17 A3006 NOSIG=
201504160400 METAR MROC 160400Z 10010G20KT 9999 FEW030 23/17 A3006 NOSIG=
201504160500 METAR MROC 160500Z 11011G21KT 9999 FEW030 22/17 A3005 NOSIG=
201504160600 METAR MROC 160600Z 10010KT 9999 FEW030 22/16 A3002 NOSIG=
201504160700 METAR MROC 160700Z 09013G23KT 9999 FEW030 22/15 A2999 NOSIG=
201504160800 METAR MROC 160800Z 10010KT 9999 FEW030 22/15 A2999 NOSIG=
201504160900 METAR MROC 160900Z 10013G23KT 9999 FEW030 22/15 A2997 NOSIG=
201504161000 METAR MROC 161000Z 10013G23KT 9999 FEW030 22/16 A2997 NOSIG=
201504161100 METAR MROC 161100Z 10011G21KT 9999 FEW030 22/16 A2999 NOSIG=
201504161200 METAR MROC 161200Z 10012G22KT 9999 FEW040 BKN250 22/16 A3000 NOSIG=
201504161300 METAR MROC 161300Z 09014G24KT 9999 FEW030 BKN250 23/16 A3002 NOSIG=
201504161400 METAR MROC 161400Z 08013KT 9999 FEW030 BKN250 25/15 A3004 NOSIG=
201504161500 METAR MROC 161500Z 08015KT 9999 FEW030 BKN250 26/15 A3006 NOSIG=
201504161600 METAR MROC 161600Z 09013KT 9999 FEW030 BKN250 27/14 A3006 NOSIG=
201504161700 METAR MROC 161700Z 08013KT 9999 FEW030 BKN250 29/14 A3005 NOSIG=
201504161800 METAR MROC 161800Z 09010G20KT 9999 SCT030 BKN250 29/13 A3003 NOSIG=
201504161900 METAR MROC 161900Z 09010KT 9999 SCT030 BKN250 29/14 A3001 NOSIG=
201504162000 METAR MROC 162000Z 08013KT 9999 SCT030 BKN250 28/15 A2998 NOSIG=
201504162100 METAR MROC 162100Z 10017KT 9999 SCT040 BKN200 28/13 A2997 NOSIG=
201504162200 METAR MROC 162200Z 11017KT 9999 FEW040 SCT100 BKN200 26/15 A2996 NOSIG=
201504162300 METAR MROC 162300Z 11010G20KT 9999 FEW040 SCT100 BKN200 25/15 A2997 NOSIG=
201504170000 METAR MROC 170000Z 10015KT 9999 SCT035 SCT100 24/15 A3002 NOSIG=
201504170100 METAR MROC 170100Z 11016KT 9999 FEW035 23/16 A3003 NOSIG=
201504170200 METAR MROC 170200Z 10011KT CAVOK 22/16 A3005 NOSIG=
201504170300 METAR MROC 170300Z 08013KT CAVOK 22/16 A3007 NOSIG=
201504170400 METAR MROC 170400Z 08005KT CAVOK 21/16 A3009 NOSIG=
201504170500 METAR MROC 170500Z 04010KT CAVOK 21/16 A3006 NOSIG=
201504170600 METAR MROC 170600Z 06005KT CAVOK 20/15 A3002 NOSIG=
201504170700 METAR MROC 170700Z 11010KT CAVOK 22/15 A3000 NOSIG=
201504170800 METAR MROC 170800Z 09010KT CAVOK 21/15 A3000 NOSIG=
201504170900 METAR MROC NIL=
201504171000 METAR MROC 171000Z 09010KT CAVOK 21/15 A2999 NOSIG=
201504171100 METAR MROC 171100Z 10008KT CAVOK 21/15 A3000 NOSIG=
201504171200 METAR MROC 171200Z 10006KT CAVOK 21/16 A3002 NOSIG=
201504171300 METAR MROC 171300Z 09010G20KT CAVOK 23/16 A3004 NOSIG=
201504171400 METAR MROC 171400Z 11010G20KT CAVOK 24/16 A3005 NOSIG=
201504171500 METAR MROC 171500Z 10010G20KT 9999 FEW035 BKN200 28/15 A3006 NOSIG=
201504171600 METAR MROC 171600Z 09010G20KT 9999 FEW035 BKN200 27/15 A3006 NOSIG=
201504171700 METAR MROC 171700Z 11017KT 9999 FEW035 BKN200 27/16 A3005 NOSIG=
201504171800 METAR MROC 171800Z 08010G20KT 9999 SCT035 BKN200 27/14 A3003 NOSIG=
201504171900 METAR MROC 171900Z 08010G20KT 9999 FEW035 BKN200 29/15 A3001 NOSIG=
201504172000 METAR MROC 172000Z 10015KT 9999 FEW045 SCT100 BKN200 30/15 A2998 NOSIG=
201504172100 METAR MROC 172100Z 09011KT 9999 FEW040 BKN250 28/15 A2997 NOSIG=
201504172200 METAR MROC 172200Z 09012G22KT 9999 FEW035 BKN250 26/15 A2996 NOSIG=
201504172300 METAR MROC 172300Z 10008KT 9999 FEW035 BKN250 25/15 A2997 NOSIG=
201504180000 METAR MROC 180000Z 11006KT 9999 FEW025 SCT060 24/15 A2999 NOSIG=
201504180100 METAR MROC 180100Z 11008KT 9999 FEW030 SCT070 23/16 A3001 NOSIG=
201504180200 METAR MROC 180200Z 11008G18KT 9999 FEW030 SCT250 23/16 A3003 NOSIG=
201504180300 METAR MROC 180300Z 03002KT CAVOK 22/16 A3005 NOSIG=
201504180400 METAR MROC 180400Z 07005KT CAVOK 22/16 A3006 NOSIG=
201504180500 METAR MROC 180500Z 05006KT CAVOK 21/15 A3004 NOSIG=
201504180600 METAR MROC 180600Z 06006KT CAVOK 21/15 A3003 NOSIG=
201504180700 METAR MROC 180700Z 09005KT CAVOK 21/16 A3001 NOSIG=
201504180800 METAR MROC 180800Z 08007KT CAVOK 21/15 A2999 NOSIG=
201504180900 METAR MROC 180900Z 06006KT CAVOK 21/15 A2999 NOSIG=
201504181000 METAR MROC 181000Z 07007KT CAVOK 21/15 A3000 NOSIG=
201504181100 METAR MROC 181100Z 08005KT CAVOK 20/15 A3001 NOSIG=
201504181200 METAR MROC 181200Z 06006KT 9999 FEW030 BKN250 20/15 A3003 NOSIG=
201504181300 METAR MROC 181300Z 10010KT CAVOK 23/15 A3004 NOSIG=
201504181400 METAR MROC 181400Z 10010KT CAVOK 25/15 A3006 NOSIG=
201504181500 METAR MROC 181500Z 10011KT CAVOK 26/15 A3006 NOSIG=
201504181600 METAR MROC 181600Z 10012KT 9999 FEW040 26/16 A3005 NOSIG=
201504181700 METAR MROC 181700Z 10010KT 9999 FEW040 30/14 A3004 NOSIG=
201504181800 METAR MROC 181800Z 10012KT 9999 FEW040 29/15 A3001 NOSIG=
201504181900 METAR MROC 181900Z 10010KT 9999 FEW040 30/15 A2998 NOSIG=
201504182000 METAR MROC 182000Z 11010KT 9999 FEW035TCU 30/15 A2995 NOSIG=
201504182100 METAR MROC 182100Z 11008KT 9999 4000SW RA FEW045TCU SCT080 30/15 A2993 BECMG 22006KT=
201504182200 METAR MROC 182200Z 24009KT 9999 FEW030 BKN080 27/18 A2994 NOSIG=
201504182300 METAR MROC 182300Z 16004KT 9999 SCT035 SCT200 26/16 A2995 BECMG 06007KT=
201504190000 METAR MROC 190000Z 12009KT 9999 SCT035 SCT200 25/17 A2995 NOSIG=
201504190100 METAR MROC 190100Z 09007KT 9999 FEW035 24/17 A2997 NOSIG=
201504190200 METAR MROC 190200Z 08007KT CAVOK 23/17 A2998 NOSIG=
201504190300 METAR MROC 190300Z 10008KT 9999 FEW035 23/17 A3000 NOSIG=
201504190400 METAR MROC 190400Z 08009KT 9999 FEW035 23/16 A3001 NOSIG=
201504190500 METAR MROC 190500Z 04007KT 9999 FEW035 21/15 A3001 NOSIG=
201504190600 METAR MROC 190600Z 08011KT 9999 FEW035 22/16 A2999 NOSIG=
201504190700 METAR MROC 190700Z 06006KT 9999 FEW035 21/16 A2998 NOSIG=
201504190800 METAR MROC 190800Z 02008KT 9999 FEW035 21/15 A2997 NOSIG=
201504190900 METAR MROC 190900Z 04007KT CAVOK 21/15 A2996 NOSIG=
201504191000 METAR MROC 191000Z 10007KT CAVOK 20/16 A2999 NOSIG=
201504191100 METAR MROC 191100Z 07004KT CAVOK 20/16 A2999 NOSIG=
201504191200 METAR MROC 191200Z 09011KT CAVOK 20/16 A3000 NOSIG=
201504191300 METAR MROC 191300Z 06005KT CAVOK 22/16 A3003 NOSIG=
201504191400 METAR MROC 191400Z 11010KT CAVOK 25/17 A3004 NOSIG=
201504191500 METAR MROC 191500Z 10009KT 9999 SCT035 28/16 A3004 NOSIG=
201504191600 METAR MROC 191600Z 13010KT 9999 SCT035 BKN250 28/16 A3003 NOSIG=
201504191700 METAR MROC 191700Z 09009KT SCT030 SCT250 29/15 A3003 NOSIG=
201504191800 METAR MROC 191800Z 10011KT 9999 SCT030 30/15 A3000 NOSIG=
201504191900 METAR MROC 191900Z 11010KT 9999 SCT045 29/15 A2995 NOSIG=
201504192000 METAR MROC 192000Z 10010G20KT 9999 SCT045 30/15 A2992 NOSIG=
201504192100 METAR MROC 192100Z 09008KT 9999 SCT9035TCU SCT140 31/15 A2990 NOSIG=
201504192200 METAR MROC 192200Z 23014KT 9999 SCT035 BKN160 26/17 A2991 NOSIG=
201504192300 METAR MROC 192300Z 25007KT 9999 SCT035 SCT130 25/19 A2992 NOSIG=
201504200000 METAR MROC 200000Z 25007KT 9999 SCT035 SCT120 24/19 A2994 NOSIG=
201504200100 METAR MROC 200100Z 30004KT 9999 FEW035 SCT120 23/20 A2996 NOSIG=
201504200200 METAR MROC 200200Z 10005KT 9999 FEW035 SCT120 23/18 A2998 NOSIG=
201504200300 METAR MROC 200300Z 08004KT 9999 FEW035 SCT120 23/17 A2999 NOSIG=
201504200400 METAR MROC 200400Z 08005KT CAVOK 22/17 A3001 NOSIG=
201504200500 METAR MROC 200500Z 06003KT CAVOK 21/17 A3001 NOSIG=
201504200600 METAR MROC 200600Z 06005KT CAVOK 21/17 A3000 NOSIG=
201504200700 METAR MROC 200700Z 07003KT CAVOK 22/17 A2999 NOSIG=
201504200800 METAR MROC 200800Z 06004KT 9999 FEW030 SCT100 22/16 A2997 NOSIG=
201504200900 METAR MROC 200900Z 06006KT 9999 FEW030 SCT070 22/17 A2996 NOSIG=
201504201000 METAR MROC 201000Z 08005KT 9999 FEW030 SCT070 22/16 A2997 NOSIG=
201504201100 METAR MROC 201100Z 07007KT 9999 FEW030 21/16 A2997 NOSIG=
201504201200 METAR MROC 201200Z 06006KT 9999 FEW030 SCT070 21/17 A2998 NOSIG=
201504201300 METAR MROC 201300Z 10007KT 9999 FEW030 SCT080 24/16 A3001 NOSIG=
201504201400 METAR MROC 201400Z 10012KT 9999 FEW030 BKN070 26/15 A3003 NOSIG=
201504201500 METAR MROC 201500Z 11008KT 9999 FEW035 BKN080 27/14 A3004 NOSIG=
201504201600 METAR MROC 201600Z 14006KT 9999 FEW035 BKN080 29/14 A3003 NOSIG=
201504201700 METAR MROC 201700Z 10005KT 9999 FEW035 SCT100 30/13 A3002 BECMG 24007KT=
201504201800 METAR MROC 201800Z 23010KT 9999 SCT030 BKN110 28/18 A3000 NOSIG=
201504201900 METAR MROC 201900Z 22008KT 9999 SCT030 BKN110 29/18 A2996 NOSIG=
201504202000 METAR MROC 202000Z 22009KT 9999 SCT030 BKN110 30/18 A2993 NOSIG=
201504202100 METAR MROC 202100Z 26011KT 9999 SCT030 BKN200 28/18 A2991 NOSIG=
201504202200 METAR MROC 202200Z 23010KT 9999 SCT030 BKN200 27/19 A2991 NOSIG=
201504202300 METAR MROC 202300Z 23009KT 9999 SCT030 BKN200 26/19 A2991 NOSIG=
201504210000 METAR MROC 210000Z 23007KT 9999 SCT030 SCT100 24/19 A2994 NOSIG=
201504210100 METAR MROC 210100Z 24007KT 9999 SCT030 SCT100 23/20 A2996 NOSIG=
201504210200 METAR MROC 210200Z 26003KT 9999 FEW030 SCT100 22/19 A2998 NOSIG=
201504210300 METAR MROC 210300Z 24002KT 9999 FEW030 21/19 A3000 NOSIG=
201504210400 METAR MROC 210400Z VRB02KT 9999 4000SW VCFG FEW030 21/19 A3002 NOSIG=
201504210500 METAR MROC 210500Z 06005KT CAVOK 21/16 A3002 NOSIG=
201504210600 METAR MROC 210600Z 08006KT CAVOK 22/16 A3000 NOSIG=
201504210700 METAR MROC 210700Z 03006KT CAVOK 20/15 A2998 NOSIG=
201504210800 METAR MROC 210800Z 36005KT CAVOK 20/15 A2998 NOSIG=
201504210900 METAR MROC 210900Z 07005KT CAVOK 20/14 A2998 NOSIG=
201504211000 METAR MROC 211000Z 06007KT CAVOK 20/13 A2998 NOSIG=
201504211100 METAR MROC 211100Z 04005KT CAVOK 18/11 A2999 NOSIG=
201504211200 METAR MROC 211200Z 07007KT CAVOK 21/13 A3001 NOSIG=
201504211300 METAR MROC 211300Z 08005KT CAVOK 24/13 A3003 NOSIG=
201504211400 METAR MROC 211400Z 10007KT CAVOK 26/13 A3004 NOSIG=
201504211500 METAR MROC 211500Z 13009KT CAVOK 28/12 A3005 NOSIG=
201504211600 METAR MROC 211600Z 11010KT CAVOK 30/11 A3005 NOSIG=
201504211700 METAR MROC 211700Z 10008KT CAVOK 30/12 A3002 NOSIG=
201504211800 METAR MROC 211800Z 11007KT 9999 FEW040 BKN250 32/12 A2999 NOSIG=
201504211900 METAR MROC 211900Z 24009KT 9999 FEW040 BKN250 29/18 A2996 NOSIG=
201504212000 METAR MROC 212000Z 24009KT 9999 FEW040 BKN200 28/19 A2994 NOSIG=
201504212100 METAR MROC 212100Z 22015KT 9999 FEW040 BKN200 26/20 A2993 NOSIG=
201504212200 METAR MROC 212200Z 22012KT 9999 FEW040 BKN200 26/19 A2992 NOSIG=
201504212300 METAR MROC 212300Z 24010KT 9999 FEW040 BKN200 25/19 A2993 NOSIG=
201504212351 METAR MROC 220000Z 26010G20KT 9999 2000NE RA SCT030 BKN100 24/20 A2994 NOSIG=
201504220000 METAR MROC 220000Z 26010G20KT 9999 2000NE RA SCT030 BKN100 24/20 A2994 NOSIG=
201504220100 METAR MROC 220100Z 08006KT 9999 FEW030 SCT100 22/20 A2996 RERA NOSIG=
201504220200 METAR MROC 220200Z 10005KT 9999 FEW030 22/17 A2996 NOSIG=
201504220300 METAR MROC 220300Z 04009KT 9999 FEW030 22/16 A3000 NOSIG=
201504220400 METAR MROC 220400Z 09004KT 9999 FEW030 21/16 A3000 NOSIG=
201504220500 METAR MROC 220500Z 04005KT 9999 FEW040 22/16 A3000 NOSIG=
201504220600 METAR MROC 220600Z 04005KT CAVOK 22/16 A3000 NOSIG=
201504220700 METAR MROC 220700Z 04005KT CAVOK 21/15 A2996 NOSIG=
201504220800 METAR MROC 220800Z 05007KT CAVOK 21/15 A2996 NOSIG=
201504220900 METAR MROC 220900Z 09007KT CAVOK 21/15 A2993 NOSIG=
201504221000 METAR MROC 221000Z 09006KT CAVOK 21/15 A2993 NOSIG=
201504221100 METAR MROC 221100Z 03008KT CAVOK 21/16 A2995 NOSIG=
201504221200 METAR MROC 221200Z 04007KT 9999 FEW035 BKN240 22/16 A2997 NOSIG=
201504221300 METAR MROC 221300Z 04010KT 9999 FEW040 BKN250 21/16 A2997 NOSIG=
201504221400 METAR MROC 221400Z 12012KT 9999 FEW040 BKN250 25/16 A3000 NOSIG=
201504221500 METAR MROC 221500Z 10011G21KT 9999 FEW040 SCT250 27/17 A3002 NOSIG=
201504221600 METAR MROC 221600Z 11010G20KT 9999 FEW040 SCT250 28/16 A3001 NOSIG=
201504221700 METAR MROC 221700Z 08015KT 9999 SCT035 SCT250 30/14 A3000 NOSIG=
201504221800 METAR MROC 221800Z 11012KT 9999 FEW035 SCT100 29/15 A2997 NOSIG=
201504221900 METAR MROC 221900Z 12009KT 9999 FEW035 BKN100 30/14 A2994 NOSIG=
201504222000 METAR MROC 222000Z 22011KT 9999 4000SW -RA SCT030 BKN100 27/20 A2994 NOSIG=
201504222100 METAR MROC 222100Z 24011KT 8000 VCSH FEW015TCU SCT025 BKN150 23/21 A2993 BECMG 5000 RA BR=
201504222200 METAR MROC 222200Z 26006KT 9999 VCSH FEW015TCU SCT025 BKN150 23/20 A2993 BECMG 5000 -RA BR=
201504222300 METAR MROC 222300Z 24002KT 9999 FEW025 SCT150 BKN250 23/20 A2993 NOSIG=
201504230000 METAR MROC 230000Z 00000KT 9999 FEW030 SCT150 BKN250 23/20 A2994 NOSIG=
201504230100 METAR MROC 230100Z 11007KT 9999 FEW035 SCT250 23/17 A2994 NOSIG=
201504230200 METAR MROC 230200Z 05010KT 9999 FEW035 SCT250 23/17 A2995 NOSIG=
201504230300 METAR MROC 230300Z 08007KT 9999 FEW035 24/16 A2996 NOSIG=
201504230400 METAR MROC 230400Z 09007KT CAVOK 23/16 A2997 NOSIG=
201504230500 METAR MROC 230500Z 11009KT CAVOK 23/17 A2997 NOSIG=
201504230600 METAR MROC 230600Z 06004KT CAVOK 22/17 A2996 NOSIG=
201504230700 METAR MROC 230700Z 03004KT CAVOK 22/16 A2995 NOSIG=
201504230800 METAR MROC 230800Z 09007KT CAVOK 22/16 A2994 NOSIG=
201504230900 METAR MROC 230900Z 11009KT CAVOK 22/16 A2993 NOSIG=
201504231000 METAR MROC 231000Z 11009KT CAVOK 22/16 A2994 NOSIG=
201504231100 METAR MROC 231100Z 10003KT CAVOK 22/17 A2996 NOSIG=
201504231200 METAR MROC 231200Z 07004KT 9999 FEW030 22/17 A2999 NOSIG=
201504231300 METAR MROC 231300Z 10008KT 9999 -RA FEW030 BKN080 23/16 A3001 NOSIG=
201504231400 METAR MROC 231400Z 10007KT 9999 -RA FEW035 BKN100 22/18 A3003 NOSIG=
201504231500 METAR MROC 231500Z 10010G20KT 9999 FEW030 BKN100 26/17 A3003 NOSIG=
201504231600 METAR MROC 231600Z COR 07013KT 9999 FEW030 SCT120 26/14 A3002 NOSIG=
201504231601 METAR MROC 231601Z COR 07013KT 9999 FEW030 SCT120 26/14 A3002 NOSIG=
201504231700 METAR MROC 231700Z 07015G25KT 9999 FEW030 BKN120 28/13 A3001 NOSIG=
201504231800 METAR MROC 231800Z 05006G26KT 9999 SCT030 SCT120 28/12 A2999 NOSIG=
201504231801 METAR MROC 231801Z COR 05016G26KT 9999 SCT030 SCT120 28/12 A2999 NOSIG=
201504231900 METAR MROC 231900Z 08014G24KT 9999 FEW030 SCT040 28/13 A2997 NOSIG=
201504232000 METAR MROC 232000Z 07013G23KT 9999 FEW030 SCT060 28/15 A2996 NOSIG=
201504232100 METAR MROC 232100Z 05015G25KT 9999 FEW040 29/12 A2994 NOSIG=
201504232200 METAR MROC 232200Z 06014KT 9999 FEW040 BKN250 28/12 A2993 NOSIG=
201504232300 METAR MROC 232300Z 06013KT 9999 FEW035 BKN250 26/12 A2995 NOSIG=
201504240000 METAR MROC 240000Z 07010KT 9999 VA FEW040 BKN250 24/12 A2996 NOSIG=
201504240100 METAR MROC 240100Z 10009KT 9999 VA FEW040 SCT250 23/14 A2996 NOSIG=
201504240200 METAR MROC 240200Z 10011G21KT 9999 VCVA FEW040 23/14 A2997 NOSIG=
201504240300 METAR MROC 240300Z 11009KT 9999 VCVA FEW040 22/14 A2998 NOSIG=
201504240400 METAR MROC 240400Z 08010KT CAVOK 21/14 A3000 NOSIG=
201504240500 METAR MROC 240500Z 08007KT CAVOK 21/14 A3001 NOSIG=
201504240600 METAR MROC 240600Z 05009KT CAVOK 19/13 A3000 NOSIG=
201504240700 METAR MROC 240700Z 04006KT CAVOK 18/12 A2999 NOSIG=
201504240800 METAR MROC 240800Z 08007KT CAVOK 17/11 A2999 NOSIG=
201504240900 METAR MROC 240900Z 07013KT CAVOK 19/13 A2998 NOSIG=
201504241000 METAR MROC 241000Z 06010KT CAVOK 19/13 A2999 NOSIG=
201504241100 METAR MROC 241100Z 08008KT CAVOK 19/14 A2999 NOSIG=
201504241200 METAR MROC 241200Z 06011KT CAVOK 19/13 A3001 NOSIG=
201504241300 METAR MROC 241300Z 06008KT 9999 VCVA FEW030 SCT250 23/14 A3002 NOSIG=
201504241400 METAR MROC 241400Z 11013G23KT 9999 VCVA FEW030 SCT250 24/14 A3003 NOSIG=
201504241500 METAR MROC 241500Z 09015KT 9999 VCVA FEW030 SCT250 26/14 A3004 NOSIG=
201504241600 METAR MROC 241600Z 09013G23KT 9999 FEW040 SCT250 27/13 A3002 NOSIG=
201504241700 METAR MROC 241700Z 10013KT 9999 FEW040 SCT250 28/13 A3001 NOSIG=
201504241800 METAR MROC 241800Z 10013G23KT 9999 FEW040 29/12 A3000 NOSIG=
201504241900 METAR MROC 241900Z 09011KT 9999 FEW040 30/12 A2998 NOSIG=
201504242000 METAR MROC 242000Z 10009KT 9999 FEW040 31/12 A2996 NOSIG=
201504242100 METAR MROC 242100Z 09010KT 9999 FEW040 SCT250 30/12 A2995 NOSIG=
201504242200 METAR MROC 242200Z 12007KT 9999 FEW040 BKN250 28/12 A2995 NOSIG=
201504242300 METAR MROC 242300Z 13007KT 9999 FEW040 BKN250 27/13 A2997 NOSIG=
201504250000 METAR MROC 250000Z 10010KT 9999 FEW040 SCT250 25/14 A2999 NOSIG=
201504250100 METAR MROC 250100Z 11006KT 9999 FEW040 23/15 A3001 NOSIG=
201504250200 METAR MROC 250200Z 10005KT 9999 FEW040 23/16 A3003 NOSIG=
201504250300 METAR MROC 250300Z 10007KT 9999 FEW040 22/16 A3005 NOSIG=
201504250400 METAR MROC 250400Z 09006KT 9999 SCT040 SCT150 22/15 A3006 NOSIG=
201504250500 METAR MROC 250500Z 08010KT 9999 FEW040 SCT150 21/14 A3006 NOSIG=
201504250600 METAR MROC 250600Z 09007KT CAVOK 21/14 A3004 NOSIG=
201504250700 METAR MROC 250700Z 08006KT CAVOK 21/14 A3003 NOSIG=
201504250800 METAR MROC 250800Z 07005KT CAVOK 21/14 A3001 NOSIG=
201504250900 METAR MROC 250900Z 06007KT CAVOK 19/14 A2999 NOSIG=
201504251000 METAR MROC 251000Z 07007KT CAVOK 19/14 A2999 NOSIG=
201504251100 METAR MROC 251100Z 04005KT CAVOK 18/13 A3000 NOSIG=
201504251200 METAR MROC 251200Z 06006KT CAVOK 19/13 A3002 NOSIG=
201504251300 METAR MROC 251300Z 07008KT CAVOK 21/14 A3003 NOSIG=
201504251400 METAR MROC 251400Z 08008KT CAVOK 23/14 A3005 NOSIG=
201504251500 METAR MROC 251500Z 09010KT CAVOK 26/13 A3004 NOSIG=
201504251600 METAR MROC 251600Z 09007KT CAVOK 27/13 A3003 NOSIG=
201504251700 METAR MROC 251700Z 17003KT CAVOK 28/12 A3002 BECMG 23007KT=
201504251800 METAR MROC 251800Z 21006KT CAVOK 28/14 A3001 NOSIG=
201504251900 METAR MROC 251900Z 09008KT 9999 FEW035 BKN250 28/14 A2998 NOSIG=
201504252000 METAR MROC 252000Z 24004KT 9999 FEW035 BKN250 29/13 A2996 NOSIG=
201504252100 METAR MROC 252100Z 27007KT 9999 SCT040 BKN200 28/16 A2994 NOSIG=
201504252200 METAR MROC 252200Z 22006KT 9999 SCT040 BKN200 28/16 A2994 NOSIG=
201504252300 METAR MROC 252300Z 25008KT 9999 FEW040 BKN200 25/17 A2995 NOSIG=
201504260000 METAR MROC 260000Z 24004KT 9999 FEW040 BKN200 24/17 A2998 NOSIG=
201504260100 METAR MROC 260100Z 25004KT 9999 FEW040 SCT200 23/18 A2999 NOSIG=
201504260200 METAR MROC 260200Z 09002KT 9999 FEW040 SCT200 23/18 A3000 NOSIG=
201504260300 METAR MROC 260300Z 08004KT CAVOK 22/17 A3001 NOSIG=
201504260400 METAR MROC 260400Z 06004KT CAVOK 22/17 A3002 NOSIG=
201504260500 METAR MROC 260500Z 08004KT CAVOK 21/16 A3001 NOSIG=
201504260600 METAR MROC 260600Z 07005KT CAVOK 21/16 A2997 NOSIG=
201504260700 METAR MROC 260700Z 06007KT CAVOK 21/16 A2995 NOSIG=
201504260800 METAR MROC 260800Z 06005KT CAVOK 21/16 A2993 NOSIG=
201504260900 METAR MROC 260900Z 07009KT CAVOK 21/16 A2992 NOSIG=
201504261000 METAR MROC 261000Z 06004KT CAVOK 20/16 A2993 NOSIG=
201504261100 METAR MROC 261100Z 06003KT CAVOK 19/16 A2994 NOSIG=
201504261200 METAR MROC 261200Z 09004KT CAVOK 20/16 A2996 NOSIG=
201504261300 METAR MROC 261300Z 10006KT CAVOK 23/16 A2999 NOSIG=
201504261400 METAR MROC 261400Z 09013KT CAVOK 24/16 A3000 NOSIG=
201504261500 METAR MROC 261500Z 10010KT CAVOK 27/15 A3001 NOSIG=
201504261600 METAR MROC 261600Z 12008KT CAVOK 28/14 A3000 NOSIG=
201504261700 METAR MROC 261700Z 16004KT 9999 FEW035 BKN250 ///// A2999 BECMG 25007KT=
201504261800 METAR MROC 261800Z 24006KT 9999 FEW040 BKN250 29/14 A2997 NOSIG=
201504261900 METAR MROC 261900Z 26008KT 9999 FEW040 BKN250 30/17 A2993 NOSIG=
201504262000 METAR MROC 262000Z 25008KT 9999 SCT040 BKN250 31/18 A2991 NOSIG=
201504262100 METAR MROC 262100Z 23013KT 9999 SCT035 BKN250 28/19 A2991 NOSIG=
201504262200 METAR MROC 262200Z 24012KT 9999 FEW025 SCT035 BKN250 26/20 A2991 NOSIG=
201504262300 METAR MROC 262300Z 23009KT 9999 FEW020 SCT080 BKN200 24/21 A2992 NOSIG=
201504270000 METAR MROC 270000Z 22006KT 9999 FEW020 SCT080 24/20 A2994 NOSIG=
201504270100 METAR MROC 270100Z 24005KT 9999 FEW020 BKN080 23/20 A2995 NOSIG=
201504270200 METAR MROC 270200Z 13004KT 9999 FEW030 SCT080 23/19 A2995 NOSIG=
201504270300 METAR MROC 270300Z 07006KT 9999 FEW030 SCT100 22/18 A2996 NOSIG=
201504270400 METAR MROC 270400Z 06005KT 9999 FEW030 SCT100 22/18 A2996 NOSIG=
201504270500 METAR MROC 270500Z 09003KT CAVOK 22/18 A2995 NOSIG=
201504270600 METAR MROC 270600Z 05004KT CAVOK 21/17 A2994 NOSIG=
201504270700 METAR MROC 270700Z 07003KT CAVOK 20/17 A2992 NOSIG=
201504270800 METAR MROC 270800Z 05004KT 9999 FEW035 20/17 A2992 NOSIG=
201504270900 METAR MROC 270900Z 11003KT 9999 FEW035 20/17 A2992 NOSIG=
201504271000 METAR MROC 271000Z 08003KT 9999 FEW035 21/17 A2992 NOSIG=
201504271100 METAR MROC 271100Z 07004KT 9999 FEW035 SCT100 21/17 A2994 NOSIG=
201504271200 METAR MROC 271200Z 07005KT 9999 FEW035 SCT100 21/17 A2995 NOSIG=
201504271300 METAR MROC 271300Z 09011KT CAVOK 24/17 A2996 NOSIG=
201504271400 METAR MROC 271400Z 10008KT CAVOK 27/16 A2997 NOSIG=
201504271500 METAR MROC 271500Z 27004KT 9999 FEW045 30/16 A2998 NOSIG=
201504271600 METAR MROC 271600Z 25012KT 9999 FEW045 30/17 A2998 NOSIG=
201504271700 METAR MROC 271700Z 24015KT 9999 FEW045 30/17 A2996 NOSIG=
201504271800 METAR MROC 271800Z 24017KT 9999 FEW040 31/18 A2994 NOSIG=
201504271900 METAR MROC 271900Z 24017KT 9999 SCT035 32/18 A2990 NOSIG=
201504272000 METAR MROC 272000Z 21015KT 8000 -SHRA VCTS FEW015CB SCT025TCU BKN100 28/20 A2989 BECMG 5000 SHRA=
201504272100 METAR MROC 272100Z 09003KT 9999 -DZ VCSH FEW015CB BKN120 24/22 A2991 RETSRA NOSIG=
201504272200 METAR MROC 272200Z 09004KT 9999 FEW030 SCT040 BKN120 24/21 A2990 NOSIG=
201504272300 METAR MROC 272300Z 09003KT 9999 FEW030 SCT045 BKN140 24/20 A2990 NOSIG=
201504280000 METAR MROC 280000Z 16002KT 9999 FEW030 SCT045 BKN250 24/20 A2993 NOSIG=
201504280100 METAR MROC 280100Z 26003KT 9999 FEW030 BKN070 24/21 A2994 NOSIG=
201504280200 METAR MROC 280200Z 25005KT 9999 SCT025 BKN100 24/21 A2994 NOSIG=
201504280300 METAR MROC 280300Z 23002KT 9999 SCT025 BKN100 23/22 A2995 NOSIG=
201504280400 METAR MROC 280400Z 25003KT 9999 FEW010 BKN030 23/21 A2997 NOSIG=
201504280500 METAR MROC 280500Z 22003KT 9999 FEW010 BKN030 23/21 A2996 NOSIG=
201504280600 METAR MROC 280600Z 00000KT 9999 FEW010 BKN030 23/20 A2995 NOSIG=
201504280700 METAR MROC 280700Z 00000KT 9999 FEW010 BKN030 23/20 A2994 NOSIG=
201504280800 METAR MROC 280800Z 10002KT 9999 FEW010 BKN030 22/20 A2992 NOSIG=
201504280900 METAR MROC 280900Z 340002KT 9999 FEW010 BKN030 22/20 A2992 NOSIG=
201504281000 METAR MROC 281000Z 05004KT 9999 SCT030 21/18 A2993 NOSIG=
201504281100 METAR MROC 281100Z 06003KT 9999 SCT030 21/18 A2993 NOSIG=
201504281200 METAR MROC 281200Z 07004KT 9999 FEW030 BKN250 20/18 A2994 NOSIG=
201504281300 METAR MROC 281300Z 03008KT 9999 FEW045 SCT250 24/18 A2996 RMK HZY NOSIG=
201504281400 METAR MROC 281400Z 09006KT 9999 FEW045 SCT250 27/18 A2996 NOSIG=
201504281500 METAR MROC 281500Z 13005KT 9999 FEW040 SCT250 29/17 A2996 NOSIG=
201504281501 METAR MROC 281501Z 13005KT 9999 FEW040 SCT250 28/17 A2996 BECMG 24006KT=
201504281538 METAR MROC 281538Z 13005KT 9999 FEW040 SCT250 28/17 A2996 NOSIG=
201504281600 METAR MROC 281600Z 10007KT 9999 FEW040 SCT250 31/16 A2995 NOSIG=
201504281700 METAR MROC 281700Z 26003KT 9999 FEW040 SCT250 32/15 A2993 BECMG 05005KT=
201504281800 METAR MROC 281800Z 22008KT 9999 SCT040 SCT250 32/18 A2990 NOSIG=
201504281900 METAR MROC 281900Z 24012KT 9999 SCT040 SCT250 31/21 A2987 NOSIG=
201504282000 METAR MROC 282000Z 23012KT 9999 SCT040TCU 31/21 A2985 NOSIG=
201504282100 METAR MROC 282100Z 24009KT 9999 -TSRA SCT030CB SCT040 29/21 A2985 BECMG RA=
201504282200 METAR MROC 282200Z 08006KT 9999 -RA SCT040TCU BKN100 23/18 A2985 RETSRA NOSIG=
201504282300 METAR MROC 282300Z 10003KT 9999 SCT040 BKN200 24/17 A2987 NOSIG=
201504290000 METAR MROC 290000Z 07005KT 9999 FEW045 BKN060 24/18 A2988 NOSIG=
201504290100 METAR MROC 290100Z 22003KT 9999 FEW045 BKN100 24/18 A2991 NOSIG=
201504290200 METAR MROC 290200Z 25004KT 9999 VCFG FEW045 BKN060 24/21 A2994 NOSIG=
201504290300 METAR MROC 290300Z 29003KT 9999 VCFG FEW030 BKN060 24/22 A2996 NOSIG=
201504290400 METAR MROC 290400Z COR 25006KT 8000 VCFG SCT015 BKN040 23/22 A2997 BECMG 5000 BR=
201504290500 METAR MROC 290500Z 28004KT 9999 BCFG FEW015 SCT040 BKN250 23/22 A2995 NOSIG=
201504290600 METAR MROC 290600Z 26004KT 9999 SCT040 BKN200 23/21 A2994 NOSIG=
201504290700 METAR MROC 290700Z 25005KT 9999 SCT040 BKN200 23/21 A2993 NOSIG=
201504290800 METAR MROC 290800Z 29002KT 9999 SCT040 BKN200 23/21 A2993 NOSIG=
201504290900 METAR MROC 290900Z 00000KT 9999 FEW040 BKN100 23/21 A2992 NOSIG=
201504291000 METAR MROC 291000Z VRB02KT 9999 BCFG FEW040 22/20 A2993 NOSIG=
201504291100 METAR MROC 291100Z 05006KT 9999 BCFG FEW040 21/20 A2993 NOSIG=
201504291200 METAR MROC 291200Z 06005KT 8000 VCFG SCT040 BKN250 22/20 A2994 NOSIG=
201504291300 METAR MROC 291300Z VRB02KT 8000 VCFG FEW040 OVC250 25/20 A2996 NOSIG=
201504291400 METAR MROC 291400Z 07002KT 8000 3500SW BCFG FEW040 BKN250 28/18 A2998 NOSIG=
201504291500 METAR MROC 291500Z 14003KT 8000 3500SW BCFG FEW040 SCT250 30/18 A2997 BECMG 23007KT=
201504291600 METAR MROC 291600Z 10005KT 8000 VCFG SCT045 SCT250 31/16 A2995 NOSIG=
201504291700 METAR MROC 291700Z VRB03KT 9999 SCT045 SCT250 33/14 A2993 NOSIG=
201504291800 METAR MROC 291800Z 22011KT 9999 FEW030TCU SCT045 SCT250 31/19 A2992 NOSIG=
201504291900 METAR MROC 291900Z 21012KT 9999 FEW030TCU SCT045 SCT060 29/20 A2989 NOSIG=
201504292000 METAR MROC 292000Z 27011KT 9999 4000W -TSRA VCSH FEW030CB BKN045 26/19 A2989 BECMG 5000=
201504292100 METAR MROC 292100Z 33004KT 9999 SCT030 OVC100 23/19 A2997 NOSIG=
201504292200 METAR MROC 292200Z 17003KT 8000 -RA SCT030 OVC110 23/20 A2990 NOSIG=
201504292300 METAR MROC 292300Z 00000KT 9999 SCT030 OVC110 24/20 A2993 NOSIG=
201504300000 METAR MROC 300000Z 27003KT 9999 SCT030 OVC120 24/20 A2994 NOSIG=
201504300100 METAR MROC 300100Z 29004KT 9999 SCT030 OVC120 23/20 A2997 NOSIG=
201504300200 METAR MROC 300200Z 33003KT 9999 FEW030 OVC120 23/20 A2998 NOSIG=
201504300300 METAR MROC 300300Z 00000KT 9000 VCFG FEW030 OVC120 23/20 A2999 NOSIG=
201504300400 METAR MROC 300400Z 13002KT 9999 FEW030 BKN120 23/19 A2998 NOSIG=
201504300500 METAR MROC 300500Z 06003KT 9999 FEW030 BKN120 23/20 A2997 NOSIG=
201504300600 METAR MROC 300600Z 23005KT 9999 FEW025 BKN120 22/20 A2997 BECMG 5000 BR=
201504300700 METAR MROC 300700Z 34003KT 9999 SCT025 BKN120 22/20 A2997 NOSIG=
201504300800 METAR MROC 300800Z 35002KT 9999 SCT030 BKN120 22/19 A2994 NOSIG=
201504300900 METAR MROC 300900Z 06003KT 9999 FEW030 SCT120 21/18 A2994 NOSIG=
201504301000 METAR MROC 301000Z 03004KT 9999 FEW030 SCT120 21/17 A2995 NOSIG=
201504301100 METAR MROC 301100Z 06005KT 9999 FEW035 SCT140 20/17 A2996 NOSIG=
201504301200 METAR MROC 301200Z 04006KT CAVOK 21/17 A2998 NOSIG=
201504301300 METAR MROC 301300Z 00000KT CAVOK 23/17 A3000 NOSIG=
201504301400 METAR MROC 301400Z 22003KT 8000 BCFG FEW030 BKN230 25/17 A3002 NOSIG=
201504301500 METAR MROC 301500Z 24005KT 9999 FEW030 BKN230 26/18 A3003 NOSIG=
201504301600 METAR MROC 301600Z 24005KT 9999 BCFG FEW030 BKN230 27/18 A3004 NOSIG=
201504301700 METAR MROC 301700Z 26009KT 9999 BCFG FEW030 BKN230 28/19 A3002 NOSIG=
201504301800 METAR MROC 301800Z 23010KT 9999 BCFG SCT030 BKN250 28/20 A3000 NOSIG=
201504301900 METAR MROC 301900Z 23013KT 9999 BCFG SCT030 BKN250 27/20 A2997 NOSIG=
201504302000 METAR MROC 302000Z 27005KT 9999 -RA SCT020TCU BKN130 22/18 A2996 BECMG 5000 TSRA=
201504302100 METAR MROC 302100Z 32006KT 9999 4000SW -RA SCT015 BKN100 22/19 A2995 NOSIG=
201504302200 METAR MROC 302200Z 22002KT 7000 BCFG SCT015 BKN100 22/19 A2994 BECMG 5000 BR=
201504302300 METAR MROC 302300Z 08004KT 9999 VCFG SCT025 BKN100 22/19 A2995 NOSIG=
201505010000 METAR MROC 010000Z 09009KT 9999 FEW035 SCT080 BKN140 22/18 A2998 NOSIG=
201505010100 METAR MROC 010100Z 07009KT 9999 SCT030 BKN100 23/16 A3000 NOSIG=
201505010200 METAR MROC 010200Z 10012G22KT 9999 SCT035 BKN100 23/16 A3002 NOSIG=
201505010300 METAR MROC 010300Z 10010KT CAVOK 23/15 A3003 NOSIG=
201505010400 METAR MROC 010400Z 05007KT CAVOK 23/16 A3005 NOSIG=
201505010500 METAR MROC 010500Z 06007KT CAVOK 23/14 A3004 NOSIG=
201505010600 METAR MROC 010600Z 05008KT CAVOK 23/14 A3001 NOSIG=
201505010700 METAR MROC 010700Z 08006KT CAVOK 23/14 A3000 NOSIG=
201505010800 METAR MROC 010800Z 07002KT CAVOK 22/14 A2998 NOSIG=
201505010900 METAR MROC 010900Z 07004KT CAVOK 21/14 A2996 NOSIG=
201505011000 METAR MROC 011000Z 06006KT CAVOK 22/14 A2994 NOSIG=
201505011100 METAR MROC 011100Z 05006KT CAVOK 23/14 A2994 NOSIG=
201505011200 METAR MROC 011200Z 09005KT CAVOK 24/13 A2997 NOSIG=
201505011300 METAR MROC 011300Z 07005KT CAVOK 25/14 A3001 NOSIG=
201505011400 METAR MROC 011400Z 11011KT CAVOK 27/14 A3003 NOSIG=
201505011500 METAR MROC 011500Z 08011G21KT CAVOK 28/13 A3003 NOSIG=
201505011600 METAR MROC 011600Z 08008KT 9999 FEW040 BKN250 30/14 A3002 WS R07 NOSIG=
201505011700 METAR MROC 011700Z 12007KT 9999 SCT040 BKN250 30/13 A3002 NOSIG=
201505011800 METAR MROC 011800Z 10007KT 9999 SCT045 BKN250 30/14 A3000 NOSIG=
201505011900 METAR MROC 011900Z 03005KT 9999 SCT025 BKN130 30/24 A2985=
201505012000 METAR MROC 012000Z 21009KT 9999 FEW040 SCT080 BKN200 27/20 A2996 BECMG SHRA=
201505012100 METAR MROC 012100Z 32015KT 4000 1500N TSRA FEW015CB SCT035 BKN100 24/18 A2996 BECMG 1500 RA BR=
201505012200 METAR MROC 012200Z 07005KT 9999 -RA FEW035 SCT100 BKN200 22/19 A2995 NOSIG=
201505012300 METAR MROC 012300Z 29007KT 9999 -RA FEW035 SCT060 BKN200 22/19 A2995 NOSIG=
201505012344 METAR MROC 020000Z 32012KT 9999 SCT030 BKN100 22/20 A2999 NOSIG=
201505020000 METAR MROC 020000Z 32012KT 9999 SCT030 BKN100 22/20 A2999 NOSIG=
201505020100 METAR MROC 020100Z 07004KT 9999 FEW030 BKN100 22/19 A3000 NOSIG=
201505020200 METAR MROC 020200Z 08005KT 9999 FEW030 SCT120 22/17 A3001 NOSIG=
201505020300 METAR MROC 020300Z 05005KT 9999 FEW030 BKN120 22/19 A3003 NOSIG=
201505020400 METAR MROC 020400Z 06013KT CAVOK 22/15 A2993 NOSIG=
201505020500 METAR MROC 020500Z 09016KT CAVOK 22/14 A2994 NOSIG=
201505020600 METAR MROC 020600Z 06006KT CAVOK 20/18 A3001 NOSIG=
201505020700 METAR MROC 020700Z 06006KT CAVOK 21/18 A2997 NOSIG=
201505020800 METAR MROC 020800Z 07005KT CAVOK 22/16 A2995 NOSIG=
201505020900 METAR MROC 020900Z 06010KT CAVOK 22/16 A2993 NOSIG=
201505021000 METAR MROC 021000Z 06013KT CAVOK 22/15 A2993 NOSIG=
201505021100 METAR MROC 021100Z 09016KT CAVOK 22/14 A2994 NOSIG=
201505021200 METAR MROC 021200Z 06016KT CAVOK 22/14 A2996 NOSIG=
201505021300 METAR MROC 021300Z 10010G21KT 9999 FEW040 BKN250 24/12 A2998 NOSIG=
201505021400 METAR MROC 021400Z 10011G21KT CAVOK 25/12 A3000 NOSIG=
201505021500 METAR MROC 021500Z 09017KT CAVOK 28/12 A3001 NOSIG=
201505021600 METAR MROC 021600Z 08011G22KT CAVOK 28/14 A3002 NOSIG=
201505021700 METAR MROC 021700Z 07012G22KT 9999 FEW045 BKN250 29/14 A3000 NOSIG=
201505021800 METAR MROC 021800Z 09015KT 9999 FEW045 BKN250 30/14 A2999 NOSIG=
201505021900 METAR MROC 021900Z 11015KT 9999 FEW025TCU FEW045 BKN250 31/14 A2995 BECMG 24007KT=
201505022000 METAR MROC 022000Z 11009KT 9999 FEW020TCU FEW035 SCT100 BKN250 29/15 A2994 BECMG 24007KT=
201505022100 METAR MROC 022100Z 23012KT 9999 VCSH FEW015CB BKN040 24/20 A2993 BECMG 3000 TSRA=
201505022200 METAR MROC 022200Z 27009KT 9999 FEW025 SCT040 BKN200 23/20 A2992 NOSIG=
201505022300 METAR MROC 022300Z 34005KT 9999 FEW035 SCT080 BKN250 24/19 A2993 NOSIG=
201505030000 METAR MROC 030000Z 23002KT 9999 FEW035 SCT045 BKN250 24/19 A2996 NOSIG=
201505030100 METAR MROC 030100Z 00000KT 9999 FEW045 BKN070 24/18 A2997 NOSIG=
201505030200 METAR MROC 030200Z 06004KT 9999 FEW045 BKN070 23/16 A2999 NOSIG=
201505030300 METAR MROC 030300Z 08003KT CAVOK 23/16 A3000 NOSIG=
201505030400 METAR MROC 030400Z 08004KT CAVOK 22/16 A2999 NOSIG=
201505030500 METAR MROC 030500Z 06004KT CAVOK 21/16 A2999 NOSIG=
201505030600 METAR MROC 030600Z 08005KT CAVOK 21/15 A2996 NOSIG=
201505030700 METAR MROC 030700Z 06007KT CAVOK 21/15 A2995 NOSIG=
201505030800 METAR MROC 030800Z 08007KT CAVOK 21/16 A2992 NOSIG=
201505030900 METAR MROC 030900Z 10008KT CAVOK 21/16 A2993 NOSIG=
201505031000 METAR MROC 031000Z 04007KT CAVOK 21/15 A2994 NOSIG=
201505031100 METAR MROC 031100Z 08006KT CAVOK 21/15 A2995 NOSIG=
201505031200 METAR MROC 031200Z 06007KT CAVOK 22/16 A2997 NOSIG=
201505031300 METAR MROC 031300Z 07008KT CAVOK 23/16 A2998 NOSIG=
201505031400 METAR MROC 031400Z 09010KT CAVOK 25/15 A3000 NOSIG=
201505031500 METAR MROC 031500Z 10011KT 9999 FEW040 27/17 A3000 NOSIG=
201505031600 METAR MROC 031600Z 10007KT 9999 FEW030 BKN050 27/17 A3001 NOSIG=
201505031700 METAR MROC 031700Z 10010KT 9999 FEW030 BKN050 26/16 A3001 NOSIG=
201505031800 METAR MROC 031800Z 11008KT 9999 FEW030 SCT120 28/16 A2999 NOSIG=
201505031900 METAR MROC 031900Z 11009KT 9999 FEW030 SCT140 30/14 A2996 NOSIG=
201505032000 METAR MROC 032000Z 11009KT 9999 FEW035 SCT250 30/14 A2993 NOSIG=
201505032100 METAR MROC 032100Z 10010KT 9999 FEW040 SCT250 29/14 A2992 NOSIG=
201505032200 METAR MROC 032200Z 11009KT 9999 SCT040 SCT250 28/14 A2991 NOSIG=
201505032300 METAR MROC 032300Z 11006KT 9999 SCT045 SCT250 26/16 A2993 NOSIG=
201505040000 METAR MROC 040000Z 21007KT 9999 -RA FEW040 BKN080 24/19 A2987 NOSIG=
201505040100 METAR MROC 040100Z 10003KT 9999 -DZ FEW040 BKN080 22/18 A2999 NOSIG=
201505040200 METAR MROC 040200Z 11008KT 9999 FEW040 22/16 A3001 NOSIG=
201505040300 METAR MROC 040300Z 06006KT 9999 FEW040 21/16 A3002 NOSIG=
201505040400 METAR MROC 040400Z 05013KT 9999 FEW040 21/15 A3003 NOSIG=
201505040500 METAR MROC 040500Z 08009KT CAVOK 21/15 A3003 NOSIG=
201505040600 METAR MROC 040600Z 04009KT CAVOK 20/14 A3002 NOSIG=
201505040700 METAR MROC 040700Z 07006KT CAVOK 21/15 A3000 NOSIG=
201505040800 METAR MROC 040800Z 04010KT CAVOK 20/15 A2998 NOSIG=
201505040900 METAR MROC 040900Z 07007KT CAVOK 20/14 A2997 NOSIG=
201505041000 METAR MROC 041000Z 06005KT CAVOK 19/14 A2998 NOSIG=
201505041100 METAR MROC 041100Z 04004KT CAVOK 19/14 A2998 NOSIG=
201505041200 METAR MROC 041200Z 06007KT CAVOK 19/13 A2999 NOSIG=
201505041300 METAR MROC 041300Z 08006KT CAVOK 22/15 A3000 NOSIG=
201505041400 METAR MROC 041400Z 10008KT CAVOK 26/15 A3001 NOSIG=
201505041500 METAR MROC 041500Z 11009KT CAVOK 28/15 A3000 NOSIG=
201505041600 METAR MROC 041600Z 12008KT 9999 FEW045 BKN250 29/14 A3001 NOSIG=
201505041700 METAR MROC 041700Z 13007KT 9999 SCT045 SCT250 31/13 A3001 NOSIG=
201505041800 METAR MROC 041800Z 23010KT 9999 SCT040 SCT100 28/17 A2999 NOSIG=
201505041900 METAR MROC 041900Z 25006KT 9999 4000N SHRA BKN045 27/19 A2998 NOSIG=
201505042000 METAR MROC 042000Z 28007KT 9999 4500SW RA SCT030 BKN100 23/20 A2997 NOSIG=
201505042100 METAR MROC 042100Z 24008KT 9999 SCT030 BKN110 25/19 A2997 NOSIG=
201505042200 METAR MROC 042200Z 25007KT 9999 SCT025 BKN110 24/19 A2996 NOSIG=
201505042300 METAR MROC 042300Z 25005KT 9999 SCT020TCU OVC100 23/19 A2997 NOSIG=
201505050000 METAR MROC 050000Z 24003KT 9999 SCT025 BKN100 22/20 A2999 NOSIG=
201505050100 METAR MROC 050100Z 08005KT 9999 VCVA SCT025 BKN100 22/17 A3001 NOSIG=
201505050200 METAR MROC 050200Z 08004KT 9999 VA SCT025 BKN100 22/16 A3002 NOSIG=
201505050300 METAR MROC 050300Z 07006KT 9999 VA SCT025 SCT110 21/16 A3004 NOSIG=
201505050400 METAR MROC 050400Z 08008KT 9999 FEW035 BKN250 22/16 A3004 NOSIG=
201505050500 METAR MROC 050500Z 09011G23KT 9999 FEW035 BKN250 21/16 A3004 NOSIG=
201505050600 METAR MROC 050600Z 06006KT 9999 VA FEW035 SCT250 21/16 A3002 BECMG 8000=
201505050700 METAR MROC NIL=
201505050702 METAR MROC 050702Z 06006KT 9999 VA FEW035 SCT250 21/16 A3002 BECMG 8000=
201505050800 METAR MROC 050800Z 07007KT 9999 VA FEW035 SCT250 21/16 A2999 NOSIG=
201505050900 METAR MROC 050900Z 06009KT 9999 VA FEW035 20/16 A2998 NOSIG=
201505051000 METAR MROC 051000Z 05008KT 9999 FEW035 BKN120 ///// A2998 NOSIG=
201505051100 METAR MROC 051100Z 03008KT 9999 FEW035 BKN060 21/13 A2999 NOSIG=
201505051200 METAR MROC 051200Z 04007KT 9999 FEW035 BKN060 21/13 A2999 NOSIG=
201505051300 METAR MROC 051300Z 11010KT 9999 SCT045 24/14 A3002 NOSIG=
201505051400 METAR MROC 051400Z 10010KT 9999 FEW040 SCT060 24/13 A3005 NOSIG=
201505051500 METAR MROC 051500Z 10013KT 9999 FEW040 SCT130 27/11 A3005 NOSIG=
201505051600 METAR MROC 051600Z 10010KT 9999 FEW040 SCT130 29/13 A3004 NOSIG=
201505051700 METAR MROC 051700Z 10010KT 9999 FEW045 SCT130 29/14 A3002 NOSIG=
201505051800 METAR MROC 051800Z 11008KT 9999 FEW040 SCT130 31/14 A3000 NOSIG=
201505051900 METAR MROC 051900Z 13010KT 9999 FEW040 SCT140 31/14 A2996 NOSIG=
201505052000 METAR MROC 052000Z 12007KT 9999 FEW040 SCT140 30/14 A2993 NOSIG=
201505052100 METAR MROC 052100Z 15005KT 9999 VCVA VCSH FEW020 SCT040 SCT250 28/15 A2993 BECMG 20006KT=
201505052200 METAR MROC 052200Z 21009KT 9999 VCVA SCT025 BKN080 26/20 A2994 NOSIG=
201505052300 METAR MROC 052300Z 23005KT 9999 FEW030 BKN120 26/19 A2996 NOSIG=
201505060000 METAR MROC 060000Z 22004KT 9999 SCT030 BKN120 25/19 A2997 NOSIG=
201505060100 METAR MROC 060100Z 12005KT 9999 SCT035 BKN120 24/17 A3000 NOSIG=
201505060200 METAR MROC 060200Z 09005KT 9999 SCT035 SCT120 24/17 A3001 NOSIG=
201505060300 METAR MROC 060300Z 08004KT 9999 SCT035 23/17 A3003 NOSIG=
201505060400 METAR MROC 060400Z 09005KT 9999 SCT035 22/18 A3003 NOSIG=
201505060500 METAR MROC 060500Z 08008KT 9999 FEW035 23/17 A3003 NOSIG=
201505060600 METAR MROC 060600Z 06006KT 9999 FEW035 22/17 A3000 NOSIG=
201505060700 METAR MROC 060700Z 07007KT 9999 FEW035 22/17 A2999 NOSIG=
201505060800 METAR MROC 060800Z 07006KT 9999 FEW035 22/17 A2998 NOSIG=
201505060900 METAR MROC 060900Z 03005KT 9999 FEW035 21/16 A2997 NOSIG=
201505061000 METAR MROC 061000Z 05007KT 9999 FEW035 21/16 A2998 NOSIG=
201505061100 METAR MROC 061100Z 07005KT 9999 FEW035 21/16 A2999 NOSIG=
201505061200 METAR MROC 061200Z 07005KT 9999 FEW035 22/15 A2999 NOSIG=
201505061300 METAR MROC 061300Z 07007KT CAVOK 24/15 A3001 NOSIG=
201505061400 METAR MROC 061400Z 09008KT CAVOK 27/15 A3002 NOSIG=
201505061500 METAR MROC 061500Z 09009KT CAVOK 28/15 A3003 NOSIG=
201505061600 METAR MROC 061600Z 10008KT 9999 FEW045 30/15 A3002 NOSIG=
201505061700 METAR MROC 061700Z 23006KT 9999 SCT040 29/16 A3000 NOSIG=
201505061800 METAR MROC 061800Z 24010KT 9999 SCT035 31/17 A2998 NOSIG=
201505061900 METAR MROC 061900Z 21008KT 9999 VCSH FEW020TCU SCT040 27/18 A2996 BECMG RA=
201505062000 METAR MROC 062000Z 25008KT 9999 VCSH FEW020TCU BKN040 25/19 A2995 NOSIG=
201505062100 METAR MROC 062100Z 23010KT 9999 SCT040 BKN100 23/19 A2995 NOSIG=
201505062200 METAR MROC 062200Z 30003KT 9999 FEW040 SCT100 BKN200 24/19 A2995 NOSIG=
201505062300 METAR MROC 062300Z 16006KT 8000 1500SW -RA FEW010 SCT025 BKN100 22/20 A2995 BECMG 5000 RA BR=
201505062354 METAR MROC 070000Z 10003KT 9999 SCT025 BKN100 23/21 A2997 NOSIG=
201505070000 METAR MROC 070000Z 10003KT 9999 SCT025 BKN100 23/21 A2997 NOSIG=
201505070100 METAR MROC 070100Z 20004KT 9999 SCT025 BKN100 23/21 A2999 NOSIG=
201505070200 METAR MROC 070200Z 23004KT 9999 SCT030 21/19 A3000 NOSIG=
201505070300 METAR MROC 070300Z 33006KT 9999 FEW030 SCT100 22/20 A3002 NOSIG=
201505070400 METAR MROC 070400Z 07006KT 9999 SCT030 BKN100 22/18 A3003 NOSIG=
201505070500 METAR MROC 070500Z 07004KT 9999 SCT030 BKN100 21/18 A3001 NOSIG=
201505070600 METAR MROC 070600Z 08008KT CAVOK 22/18 A2998 NOSIG=
201505070700 METAR MROC 070700Z 09008KT CAVOK 22/17 A2996 NOSIG=
201505070800 METAR MROC 070800Z 05009KT CAVOK 21/17 A2994 NOSIG=
201505070900 METAR MROC 070900Z 07006KT CAVOK 22/17 A2993 NOSIG=
201505071000 METAR MROC 071000Z 09005KT CAVOK 21/17 A2994 NOSIG=
201505071100 METAR MROC 071100Z 03006KT CAVOK 21/17 A2996 NOSIG=
201505071200 METAR MROC 071200Z 07003KT CAVOK 22/17 A2997 NOSIG=
201505071300 METAR MROC 071300Z 09013KT CAVOK 25/18 A2999 NOSIG=
201505071400 METAR MROC 071400Z 10012KT 9999 FEW035 27/18 A3000 NOSIG=
201505071500 METAR MROC 071500Z 11014KT 9999 FEW035 28/16 A3001 NOSIG=
201505071600 METAR MROC 071600Z 10015KT 9999 FEW035 29/17 A2999 NOSIG=
201505071700 METAR MROC 071700Z 10015KT 9999 FEW040 30/16 A2998 NOSIG=
201505071800 METAR MROC 071800Z 11010KT 9999 FEW040 32/15 A2995 BECMG 24008KT=
201505071900 METAR MROC 071900Z 24015KT 9999 FEW025TCU SCT035 29/19 A2993 NOSIG=
201505072000 METAR MROC 072000Z 24018KT 9999 -SHRA VCTS FEW015CB FEW025TCU SCT035 28/20 A2991 BECMG 5000 TSRA=
201505072100 METAR MROC 072100Z 04015KT 5000 2000N +TSRA SCT012CB BKN025 23/19 A2993 RMK VIS S SSW UNLTD BECMG 2000=
201505072200 METAR MROC 072200Z 08003KT 9999 -RA FEW020 SCT035 BKN100 21/20 A2995 RETS NOSIG=
201505072300 METAR MROC 072300Z 06003KT 9999 FEW030 BKN100 23/20 A2994 NOSIG=
201505080000 METAR MROC 080000Z 14002KT 9999 FEW030 SCT100 BKN200 23/20 A2995 NOSIG=
201505080100 METAR MROC 080100Z 08007KT 9999 FEW030 SCT250 23/19 A2998 NOSIG=
201505080200 METAR MROC 080200Z 08006KT 9999 FEW030 SCT250 23/18 A2999 NOSIG=
201505080300 METAR MROC 080300Z 11007KT CAVOK 22/18 A3000 NOSIG=
201505080400 METAR MROC 080400Z 06007KT CAVOK 22/18 A3000 NOSIG=
201505080500 METAR MROC 080500Z 08007KT CAVOK 22/18 A2999 NOSIG=
201505080600 METAR MROC 080600Z 06009KT CAVOK 22/18 A2997 NOSIG=
201505080700 METAR MROC 080700Z 03005KT CAVOK 22/17 A2996 NOSIG=
201505080800 METAR MROC 080800Z 05005KT CAVOK 21/18 A2994 NOSIG=
201505080900 METAR MROC 080900Z 10004KT CAVOK 20/18 A2993 NOSIG=
201505081000 METAR MROC 081000Z 06004KT CAVOK 21/18 A2993 NOSIG=
201505081100 METAR MROC 081100Z COR 06006KT 9999 FEW040 22/18 A2995 NOSIG=
201505081200 METAR MROC 081200Z 05005KT 9999 FEW040 SCT080 22/18 A2996 NOSIG=
201505081300 METAR MROC 081300Z 11009KT 9999 FEW030 24/18 A2998 NOSIG=
201505081400 METAR MROC 081400Z 09007KT 9999 SCT030 25/18 A3000 NOSIG=
201505081500 METAR MROC 081500Z 10008KT 9999 SCT030 SCT050 26/18 A2999 NOSIG=
201505081600 METAR MROC 081600Z 11009KT 9999 SCT030 SCT050 27/18 A2998=
201505081700 METAR MROC 081700Z 10009KT 9999 SCT030 SCT050 27/18 A2998 NOSIG=
201505081800 METAR MROC 081800Z 08009KT 9999 FEW030 SCT060 29/18 A2996 NOSIG=
201505081900 METAR MROC 081900Z 13005KT 9999 FEW030 SCT080 30/18 A2994 BECMG 23006KT=
201505082000 METAR MROC 082000Z 11006KT 9999 FEW030 SCT100 30/17 A2992 NOSIG=
201505082100 METAR MROC 082100Z 10007KT 9999 SCT030 SCT100 28/17 A2991 NOSIG=
201505082200 METAR MROC 082200Z 13005KT 9999 SCT030 SCT100 28/18 A2991 NOSIG=
201505082300 METAR MROC 082300Z 10009KT 9999 SCT025 SCT100 26/18 A2992 NOSIG=
201505090000 METAR MROC 090000Z 08003KT 9999 FEW025 BKN080 25/18 A2995 NOSIG=
201505090100 METAR MROC 090100Z 11007KT 9999 FEW045 SCT080 24/18 A2998 NOSIG=
201505090200 METAR MROC 090200Z 10006KT 9999 FEW045 SCT080 23/18 A2999 NOSIG=
201505090300 METAR MROC 090300Z 07003KT 9999 FEW045 23/18 A3001 NOSIG=
201505090400 METAR MROC 090400Z 08009KT 9999 FEW035 22/18 A3000 NOSIG=
201505090500 METAR MROC 090500Z 09007KT 9999 FEW035 22/17 A2998 NOSIG=
201505090600 METAR MROC 090600Z 08014KT 9999 FEW035 23/16 A2994 NOSIG=
201505090700 METAR MROC 090700Z 09010G20KT 9999 FEW035 23/17 A2993 NOSIG=
201505090800 METAR MROC 090800Z 10010G20KT 9999 FEW035 23/16 A2992 NOSIG=
201505090900 METAR MROC 090900Z 09010G20KT 9999 FEW035 22/16 A2992 NOSIG=
201505091000 METAR MROC 091000Z 04012KT 9999 FEW035 22/16 A2993 NOSIG=
201505091100 METAR MROC 091100Z 06013KT CAVOK 22/16 A2995 NOSIG=
201505091200 METAR MROC 091200Z 03012KT CAVOK 22/16 A2996 NOSIG=
201505091300 METAR MROC 091300Z 08006KT CAVOK 24/17 A2998 NOSIG=
201505091400 METAR MROC 091400Z 10012KT 9999 FEW045 SCT100 26/17 A2998 NOSIG=
201505091500 METAR MROC 091500Z 10014G24KT 9999 FEW025 BKN100 25/17 A2999 NOSIG=
201505091600 METAR MROC 091600Z 10012KT 9999 FEW030 BKN080 26/17 A2998 NOSIG=
201505091700 METAR MROC 091700Z 10011G21KT 9999 FEW025 BKN100 26/17 A2997 NOSIG=
201505091800 METAR MROC 091800Z 10015G25KT 9999 FEW040 BKN100 28/16 A2995 NOSIG=
201505091900 METAR MROC 091900Z 10013G23KT 9999 FEW035 SCT200 29/15 A2993 NOSIG=
201505092000 METAR MROC 092000Z 08011KT 9999 SCT035 30/15 A2991 NOSIG=
201505092100 METAR MROC 092100Z 10013KT 9999 SCT035 29/16 A2989 NOSIG=
201505092200 METAR MROC 092200Z 09013KT 9999 FEW035 28/16 A2990 NOSIG=
201505092300 METAR MROC 092300Z 10008KT 9999 FEW035 27/16 A2991 NOSIG=
201505100000 METAR MROC 100000Z 11010G20KT 9999 FEW035 SCT100 25/16 A2993 NOSIG=
201505100100 METAR MROC 100100Z 09010G20KT CAVOK 24/17 A2994 NOSIG=
201505100200 METAR MROC 100200Z 10012G23KT CAVOK 23/17 A2996 NOSIG=
201505100300 METAR MROC 100300Z 10011G21KT 9999 FEW035 23/17 A2999 NOSIG=
201505100400 METAR MROC 100400Z 10009KT 9999 FEW035 SCT070 23/15 A2999 NOSIG=
201505100500 METAR MROC 100500Z 11010KT 9999 FEW035 23/17 A2998 NOSIG=
201505100600 METAR MROC 100600Z 10008G18KT 9999 FEW030 SCT080 22/17 A2997 NOSIG=
201505100700 METAR MROC 100700Z 11010KT 9999 FEW030 22/17 A2996 NOSIG=
201505100800 METAR MROC 100800Z 10009KT CAVOK 22/17 A2994 NOSIG=
201505100900 METAR MROC 100900Z 10007KT CAVOK 22/17 A2993 NOSIG=
201505101000 METAR MROC 101000Z 10011G21KT CAVOK 22/17 A2992 NOSIG=
201505101100 METAR MROC 101100Z 11012G22KT 9999 FEW030 SCT250 22/17 A2992 NOSIG=
201505101200 METAR MROC 101200Z 10010G20KT 9999 FEW030 BKN250 22/17 A2993 NOSIG=
201505101300 METAR MROC 101300Z 11012KT 9999 FEW035 SCT250 25/17 A2995 NOSIG=
201505101400 METAR MROC 101400Z 09013KT 9999 FEW035 SCT250 26/17 A2994 NOSIG=
201505101500 METAR MROC 101500Z 09013G23KT 9999 FEW035 SCT250 28/16 A2994 NOSIG=
201505101600 METAR MROC 101600Z 07014KT 9999 FEW035 SCT250 29/16 A2995 NOSIG=
201505101700 METAR MROC 101700Z 08010G20KT 9999 SCT035 30/15 A2995 NOSIG=
201505101800 METAR MROC 101800Z 11012KT 9999 SCT035 30/17 A2994 NOSIG=
201505101900 METAR MROC 101900Z 10010KT 9999 SCT035 31/16 A2992 NOSIG=
201505102000 METAR MROC 102000Z 11009KT 9999 FEW030 SCT045 31/16 A2990 NOSIG=
201505102100 METAR MROC 102100Z 21004KT 9999 FEW035 SCT045 BKN100 25/18 A2990 NOSIG=
201505102200 METAR MROC 102200Z 32010KT 9999 -RA FEW035 SCT045 BKN100 24/19 A2992 NOSIG=
201505102300 METAR MROC 102300Z 14004KT 9999 FEW030 SCT100 BKN250 26/19 A2992 NOSIG=
201505102353 METAR MROC 110000Z 12008KT 9999 FEW030 SCT120 BKN250 25/18 A2995 NOSIG=
201505110000 METAR MROC 110000Z 12008KT 9999 FEW030 SCT120 BKN250 25/18 A2995 NOSIG=
201505110100 METAR MROC 110100Z 11012KT 9999 FEW030 SCT120 24/18 A2996 NOSIG=
201505110200 METAR MROC 110200Z 10010KT 9999 FEW030 SCT120 24/18 A2997 NOSIG=
201505110300 METAR MROC 110300Z 11013KT 9999 FEW030 24/18 A2998 NOSIG=
201505110400 METAR MROC 110400Z 10010G20KT 9999 FEW030 23/17 A2999 NOSIG=
201505110500 METAR MROC 110500Z 10008KT 9999 FEW040 23/17 A2998 NOSIG=
201505110600 METAR MROC 110600Z 07010KT 9999 FEW035 23/16 A2995 NOSIG=
201505110700 METAR MROC 110700Z 07005KT 9999 FEW040 22/17 A2999 NOSIG=
201505110800 METAR MROC 110800Z 09010G20KT 9999 FEW040 23/18 A2994 NOSIG=
201505110900 METAR MROC 110900Z 10009KT 9999 FEW040 23/16 A2993 NOSIG=
201505111000 METAR MROC 111000Z 11008KT CAVOK 23/16 A2991 NOSIG=
201505111100 METAR MROC 111100Z 10016G26KT CAVOK 23/17 A2991 NOSIG=
201505111200 METAR MROC 111200Z 09012G22KT 9999 FEW040 BKN110 23/17 A2993 NOSIG=
201505111300 METAR MROC 111300Z 10017G29KT 9999 FEW040 SCT120 23/17 A2994 NOSIG=
201505111400 METAR MROC 111400Z 09015G26KT 9999 FEW040 SCT120 26/17 A2996 NOSIG=
201505111500 METAR MROC 111500Z 10014G24KT 9999 FEW040 SCT140 28/16 A2996 NOSIG=
201505111600 METAR MROC 111600Z 07010G20KT 9999 FEW040 30/15 A2995 NOSIG=
201505111700 METAR MROC 111700Z 08010G20KT 9999 FEW045 30/16 A2995 NOSIG=
201505111800 METAR MROC 111800Z 07012G22KT 9999 FEW040 30/16 A2994 NOSIG=
201505111900 METAR MROC 111900Z 12010G20KT 9999 FEW035 31/16 A2992 NOSIG=
201505112000 METAR MROC 112000Z 09012G22KT 9999 SCT035 31/17 A2989 NOSIG=
201505112100 METAR MROC 112100Z COR 09010G20KT 9999 BKN035 28/17 A2989 NOSIG=
201505112200 METAR MROC 112200Z 09013KT 9999 FEW030 SCT100 BKN200 27/17 A2991 NOSIG=
201505112300 METAR MROC 112300Z 11013KT 9999 FEW030 SCT120 BKN250 26/17 A2992 NOSIG=
201505112355 METAR MROC 120000Z 09016KT 9999 FEW030 SCT120 BKN250 25/17 A2995 NOSIG=
201505120000 METAR MROC 120000Z 09016KT 9999 FEW030 SCT120 BKN250 25/17 A2995 NOSIG=
201505120100 METAR MROC 120100Z 10015KT 9999 FEW030 23/18 A2997 NOSIG=
201505120200 METAR MROC 120200Z 09017KT 9999 FEW030 23/18 A2997 NOSIG=
201505120300 METAR MROC 120300Z 10017KT 9999 FEW030 23/18 A2998 NOSIG=
201505120400 METAR MROC 120400Z 10012KT 9999 FEW030 24/17 A3000 NOSIG=
201505120500 METAR MROC 120500Z 09013KT CAVOK 23/18 A2996 NOSIG=
201505120600 METAR MROC 120600Z 11011G21KT CAVOK 23/17 A2995 NOSIG=
201505120700 METAR MROC 120700Z 11012G22KT CAVOK 23/17 A2993 NOSIG=
201505120800 METAR MROC 120800Z 10012G22KT CAVOK 24/17 A2990 NOSIG=
201505120900 METAR MROC 120900Z 03008KT CAVOK 23/18 A2990 NOSIG=
201505121000 METAR MROC 121000Z 06007KT CAVOK 23/18 A2990 NOSIG=
201505121100 METAR MROC 121100Z 09013G23KT CAVOK 23/18 A2991 NOSIG=
201505121200 METAR MROC 121200Z 08012G25KT 9999 FEW030 SCT250 23/18 A2993 NOSIG=
201505121300 METAR MROC 121300Z 10014G24KT 9999 FEW030 BKN250 25/18 A2994 NOSIG=
201505121400 METAR MROC 121400Z 11013G23KT 9999 FEW030 SCT250 26/18 A2997 NOSIG=
201505121500 METAR MROC 121500Z 10015G25KT 9999 FEW035 SCT250 27/17 A2997 NOSIG=
201505121600 METAR MROC 121600Z 08012G22KT 9999 FEW035 BKN250 28/17 A2998 NOSIG=
201505121700 METAR MROC 121700Z COR 10010G20KT 9999 FEW035 BKN250 30/17 A2996 NOSIG=
201505121800 METAR MROC 121800Z 10012G22KT 9999 SCT030 29/17 A2995 NOSIG=
201505121900 METAR MROC 121900Z 07010G20KT 9999 SCT030 BKN250 29/16 A2993 NOSIG=
201505122000 METAR MROC 122000Z 10010G20KT 9999 FEW030 SCT100 BKN250 28/18 A2990 NOSIG=
201505122100 METAR MROC 122100Z 09014G24KT 9999 FEW030 SCT080 29/17 A2990 NOSIG=
201505122200 METAR MROC 122200Z 10011G21KT 9999 FEW030 SCT110 29/16 A2990 NOSIG=
201505122300 METAR MROC 122300Z 08014G24KT 9999 FEW030 SCT080 BKN250 27/17 A2991 NOSIG=
201505130000 METAR MROC 130000Z 09012G22KT 9999 FEW030 BKN080 25/17 A2993 NOSIG=
201505130100 METAR MROC 130100Z 09012G24KT 9999 FEW030 BKN070 24/17 A2996 NOSIG=
201505130200 METAR MROC 130200Z 11011G22KT 9999 FEW030 BKN070 24/17 A2997 NOSIG=
201505130300 METAR MROC 130300Z 09012G22KT CAVOK 24/17 A2998 NOSIG=
201505130400 METAR MROC 130400Z 100111G21KT 9999 FEW030 SCT080 24/17 A2998 NOSIG=
201505130500 METAR MROC 130500Z 11014G26KT 9999 FEW030 SCT080 23/16 A2998 NOSIG=
201505130600 METAR MROC 130600Z 10014G24KT CAVOK 23/17 A2997 NOSIG=
201505130700 METAR MROC 130700Z 09010G20KT 9999 FEW035 23/16 A2995 NOSIG=
201505130800 METAR MROC 130800Z 11014G25KT CAVOK 23/17 A2992 NOSIG=
201505130900 METAR MROC 130900Z 10012G22KT CAVOK 22/17 A2993 NOSIG=
201505131000 METAR MROC 131000Z 11012G22KT CAVOK 22/17 A2992 NOSIG=
201505131100 METAR MROC NIL=
201505131200 METAR MROC 131200Z 12010G20KT 9999 FEW035 BKN200 23/18 A2995 NOSIG=
201505131300 METAR MROC 131300Z 10012G22KT 9999 FEW030 BKN200 24/18 A2998 NOSIG=
201505131400 METAR MROC 131400Z 09013G23KT 9999 FEW030 BKN200 26/17 A2998 NOSIG=
201505131500 METAR MROC 131500Z 09017KT 9999 FEW030 BKN200 27/17 A2997 NOSIG=
201505131600 METAR MROC 131600Z 09015G25KT 9999 FEW030 BKN200 27/17 A2997 NOSIG=
201505131700 METAR MROC 131700Z 09015G25KT 9999 FEW030 BKN200 29/17 A2994 NOSIG=
201505131800 METAR MROC 131800Z 08015G26KT 9999 FEW030 BKN200 30/17 A2993 NOSIG=
201505131900 METAR MROC 131900Z 11014G25KT 9999 FEW030 BKN230 30/18 A2992 NOSIG=
201505132000 METAR MROC 132000Z 07014G27KT 9999 FEW030 BKN250 30/16 A2990 NOSIG=
201505132100 METAR MROC 132100Z 10014G24KT 9999 SCT035 SCT250 29/17 A2990 NOSIG=
201505132200 METAR MROC 132200Z 08012G23KT 9999 SCT035 SCT100 27/17 A2991 NOSIG=
201505132300 METAR MROC 132300Z 09013G23KT 9999 FEW025 BKN080 25/17 A2992 NOSIG=
201505140000 METAR MROC 140000Z 09012G22KT 9999 FEW030 SCT200 24/17 A2993 NOSIG=
201505140100 METAR MROC 140100Z 11014KT 9999 FEW030 23/17 A2996 NOSIG=
201505140200 METAR MROC 140200Z 10013KT 9999 FEW030 23/17 A2997 NOSIG=
201505140300 METAR MROC 140300Z 10012KT 9999 FEW030 23/17 A2998 NOSIG=
201505140400 METAR MROC 140400Z 10013G27KT 9999 FEW030 22/17 A2998 NOSIG=
201505140500 METAR MROC 140500Z 11012G23KT 9999 FEW030 22/17 A2999 NOSIG=
201505140600 METAR MROC 140600Z 05011KT 9999 FEW030 SCT100 22/17 A2999 NOSIG=
201505140700 METAR MROC 140700Z 05014KT 9999 FEW030 22/17 A2996 NOSIG=
201505140800 METAR MROC 140800Z 05011KT 9999 FEW030 22/17 A2994 NOSIG=
201505140900 METAR MROC 140900Z 10010G20KT CAVOK 22/16 A2992 NOSIG=
201505141000 METAR MROC 141000Z 09010G20KT CAVOK 23/17 A2992 NOSIG=
201505141100 METAR MROC 141100Z 07010G20KT 9999 FEW035 22/17 A2993 NOSIG=
201505141200 METAR MROC 141200Z 08010G20KT 9999 FEW035 SCT250 22/17 A2994 NOSIG=
201505141300 METAR MROC 141300Z 09012G22KT 9999 SCT030 SCT250 24/17 A2996 NOSIG=
201505141400 METAR MROC 141400Z 10013G24KT 9999 SCT030 SCT250 24/17 A2997 NOSIG=
201505141500 METAR MROC 141500Z 10013G23KT 9999 SCT030 SCT150 27/17 A2998 NOSIG=
201505141600 METAR MROC 141600Z 10018G30KT 9999 FEW030 SCT120 26/17 A2999 NOSIG=
201505141700 METAR MROC 141700Z 10014G24KT 9999 FEW030 SCT120 28/17 A2998 NOSIG=
201505141800 METAR MROC 141800Z 09012G22KT 9999 FEW030 SCT120 28/16 A2998 NOSIG=
201505141900 METAR MROC 141900Z 09012KT 9999 FEW030 SCT120 29/15 A2996 NOSIG=
201505142000 METAR MROC 142000Z 09014KT 9999 FEW030 BKN130 28/15 A2995 NOSIG=
201505142100 METAR MROC 142100Z 09012G22KT 9999 SCT030 OVC130 26/15 A2996 NOSIG=
201505142200 METAR MROC 142200Z 07008KT 9999 FEW030 OVC140 27/16 A2995 NOSIG=
201505142300 METAR MROC 142300Z 08012KT 9999 FEW030 SCT130 OVC200 25/16 A2996 NOSIG=
201505150000 METAR MROC 150000Z 11007KT 9999 FEW030 BKN200 24/15 A2997 NOSIG=
201505150100 METAR MROC 150100Z 12012KT 9999 FEW030 BKN220 23/16 A2998 NOSIG=
201505150200 METAR MROC 150200Z 09010KT 9999 FEW030 23/16 A3001 NOSIG=
201505150300 METAR MROC 150300Z 03005KT 9999 FEW030 23/16 A3002 NOSIG=
201505150400 METAR MROC 150400Z 04006KT 9999 FEW030 23/17 A3002 NOSIG=
201505150500 METAR MROC 150500Z 08007KT 9999 FEW030 22/17 A3000 NOSIG=
201505150600 METAR MROC 150600Z 07008KT 9999 FEW030 22/17 A3001 NOSIG=
201505150700 METAR MROC 150700Z 08009KT 9999 FEW030 22/17 A3000 NOSIG=
201505150800 METAR MROC 150800Z 12007KT 9999 FEW030 22/16 A2997 NOSIG=
201505150900 METAR MROC 150900Z 11007KT 9999 FEW030 22/16 A2996 NOSIG=
201505151000 METAR MROC 151000Z 10008KT 9999 FEW040 22/16 A2996 NOSIG=
201505151100 METAR MROC 151100Z 10011KT 9999 FEW045 22/15 A2994 NOSIG=
201505151200 METAR MROC 151200Z 10011G21KT 9999 FEW035 BKN200 23/15 A2995 NOSIG=
201505151300 METAR MROC 151300Z 11011KT 9999 FEW045 BKN200 25/16 A2999 NOSIG=
201505151400 METAR MROC 151400Z 12011G21KT CAVOK 25/15 A3000 NOSIG=
201505151500 METAR MROC 151500Z 11011G21KT CAVOK 26/15 A3002 NOSIG=
201505151600 METAR MROC 151600Z 10010KT 9999 FEW045 BKN200 27/16 A3003 NOSIG=
201505151700 METAR MROC 151700Z 09009KT 9999 FEW030 SCT060 BKN200 26/17 A3004 NOSIG=
201505151800 METAR MROC 151800Z 09011KT 9999 FEW030 SCT060 BKN200 27/15 A3002 NOSIG=
201505151900 METAR MROC 151900Z 08012KT 9999 FEW045 BKN200 29/12 A2999 NOSIG=
201505152000 METAR MROC 152000Z 11015KT 9999 FEW045 BKN200 27/15 A2996 NOSIG=
201505152100 METAR MROC 152100Z 11010G20KT CAVOK 26/16 A2995 NOSIG=
201505152200 METAR MROC 152200Z 08012G22KT CAVOK 26/14 A2995 NOSIG=
201505152300 METAR MROC 152300Z 08009KT 9999 FEW040 SCT130 BKN200 25/15 A2996 NOSIG=
201505160000 METAR MROC 160000Z 14004KT 9999 FEW035 SCT120 SCT200 24/16 A2999 NOSIG=
201505160100 METAR MROC 160100Z 11007KT 9999 FEW035 BKN120 23/17 A3000 NOSIG=
201505160200 METAR MROC 160200Z 09008KT 9999 SCT035 22/17 A3004 NOSIG=
201505160300 METAR MROC 160300Z 07006KT 9999 SCT035 23/16 A3005 NOSIG=
201505160400 METAR MROC 160400Z 06010KT 9999 SCT035 22/17 A3007 NOSIG=
201505160500 METAR MROC 160500Z 06005KT 9999 FEW035 SCT080 23/17 A3006 NOSIG=
201505160600 METAR MROC 160600Z 05010KT CAVOK 22/17 A3003 NOSIG=
201505160700 METAR MROC 160700Z 08005KT CAVOK 22/17 A3002 NOSIG=
201505160800 METAR MROC 160800Z 09006KT CAVOK 22/17 A2999 NOSIG=
201505160900 METAR MROC 160900Z 08004KT CAVOK 21/16 A3000 NOSIG=
201505161000 METAR MROC 161000Z 09004KT CAVOK 21/16 A2999 NOSIG=
201505161100 METAR MROC 161100Z 08004KT CAVOK 20/16 A3000 NOSIG=
201505161200 METAR MROC 161200Z 07010KT 9999 FEW035 BKN250 21/16 A3000 NOSIG=
201505161300 METAR MROC 161300Z 07009KT 9999 FEW035 BKN120 23/16 A3002 NOSIG=
201505161400 METAR MROC 161400Z 09010G20KT 9999 FEW035 SCT120 25/17 A3003 NOSIG=
201505161500 METAR MROC 161500Z 10009KT 9999 FEW035 SCT120 28/16 A3004 NOSIG=
201505161600 METAR MROC 161600Z 10010KT 9999 FEW035 SCT120 30/16 A3004 NOSIG=
201505161700 METAR MROC 161700Z 11010KT 9999 FEW035 SCT060 SCT250 29/16 A3002 NOSIG=
201505161800 METAR MROC 161800Z 10006KT 9999 RA SCT040 BKN100 28/16 A3001 NOSIG=
201505161900 METAR MROC 161900Z 21010KT 7000 -TSRA FEW010CB SCT035 BKN100 22/20 A3000 NOSIG=
201505162000 METAR MROC 162000Z 13007KT 3000 RA BR SCT006 BKN020 20/19 A3003 RETS NOSIG=
201505162100 METAR MROC 162100Z 11012G23KT 9999 -RA FEW035 SCT100 BKN200 19/16 A3000 NOSIG=
201505162200 METAR MROC 162200Z 07010KT 9999 -RA SCT045 BKN100 19/16 A3003 NOSIG=
201505162300 METAR MROC 162300Z 06011KT 9999 -RA FEW045 SCT100 BKN200 19/16 A3005 NOSIG=
201505162354 METAR MROC 170000Z 07010KT 9999 -RA SCT100 BKN200 19/16 A3006 NOSIG=
201505170000 METAR MROC 170000Z 07010KT 9999 -RA SCT100 BKN200 19/16 A3006 NOSIG=
201505170100 METAR MROC 170100Z 09011KT 9999 -RA BKN100 19/16 A3008 NOSIG=
201505170200 METAR MROC 170200Z 15003KT 9999 -RA FEW030 BKN100 19/17 A3009 NOSIG=
201505170300 METAR MROC 170300Z 08005KT 9999 -RA FEW030 BKN100 18/17 A3009 NOSIG=
201505170400 METAR MROC 170400Z 07006KT 9999 -RA FEW045 BKN100 19/16 A3007 NOSIG=
201505170425 METAR MROC 170425Z 05007KT CAVOK 20/17 A3008 NOSIG=
201505170500 METAR MROC 170500Z 08006KT CAVOK 20/16 A3007 NOSIG=
201505170600 METAR MROC 170600Z 08006KT CAVOK 20/15 A3005 NOSIG=
201505170700 METAR MROC 170700Z 09008KT CAVOK 20/15 A3004 NOSIG=
201505170800 METAR MROC 170800Z 06007KT CAVOK 20/15 A3001 NOSIG=
201505170900 METAR MROC 170900Z 07006KT CAVOK 20/15 A2999 NOSIG=
201505171000 METAR MROC 171000Z 07010KT CAVOK 20/15 A2998 NOSIG=
201505171100 METAR MROC 171100Z 07005KT CAVOK 21/15 A3000 NOSIG=
201505171200 METAR MROC 171200Z 11008KT CAVOK 22/14 A3002 NOSIG=
201505171300 METAR MROC 171300Z 10015KT CAVOK 22/15 A3004 NOSIG=
201505171400 METAR MROC 171400Z 10017KT CAVOK 24/15 A3005 NOSIG=
201505171500 METAR MROC 171500Z 10010G20KT CAVOK 26/15 A3006 NOSIG=
201505171600 METAR MROC 171600Z 10010G20KT CAVOK 27/15 A3006 NOSIG=
201505171700 METAR MROC 171700Z 11017KT CAVOK 29/15 A3005 NOSIG=
201505171800 METAR MROC 171800Z 10012KT 9999 FEW045 SCT100 29/15 A3003 NOSIG=
201505171900 METAR MROC 171900Z 23008KT 9999 FEW035 SCT070 BKN260 29/17 A3002 NOSIG=
201505172000 METAR MROC 172000Z 08004KT 9999 4000SW RA FEW025TCU BKN080 27/16 A3001 BECMG 5000 TSRA=
201505172030 METAR MROC 172030Z 25010KT 9999 4000SW SHRA FEW015CB SCT035 BKN100 22/19 A3001 BECMG 5000 TSRA=
201505172100 METAR MROC 172100Z 25009KT 8000 -TSRA FEW015CB SCT030 BKN100 20/19 A3002 BECMG 5000 RA BR=
201505172200 METAR MROC 172200Z 32002KT 5000 -RA BR FEW004 SCT030 BKN100 20/19 A3004 RETS NOSIG=
201505172300 METAR MROC 172300Z 09002KT 9999 -RA DZ FEW020 SCT035 BKN120 21/20 A3005 NOSIG=
201505180000 METAR MROC 180000Z 09003KT 9999 -RA FEW045 SCT070 BKN140 21/20 A3005 NOSIG=
201505180100 METAR MROC 180100Z 05003KT 9999 -RA FEW045 BKN080 22/19 A3007 NOSIG=
201505180200 METAR MROC 180200Z 32003KT 9999 FEW040 BKN080 22/20 A3009 NOSIG=
201505180300 METAR MROC 180300Z 03005KT 9999 FEW040 BKN120 22/20 A3010 NOSIG=
201505180400 METAR MROC 180400Z 07004KT 9999 FEW035 BKN100 21/18 A3011 NOSIG=
201505180500 METAR MROC 180500Z 34002KT 9999 FEW035 BKN100 22/18 A3010 NOSIG=
201505180600 METAR MROC 180600Z 20002KT 9999 FEW035 BKN100 21/19 A3010 NOSIG=
201505180700 METAR MROC 180700Z 06005KT 9999 VA FEW035 BKN100 22/17 A3008 NOSIG=
201505180800 METAR MROC 180800Z 12003KT 9999 FEW035 BKN100 21/18 A3005 NOSIG=
201505180900 METAR MROC 180900Z 11006KT 9999 VA FEW035 BKN100 21/17 A3002 NOSIG=
201505181000 METAR MROC 181000Z 05005KT 9999 VA FEW035 SCT100 21/17 A3001 NOSIG=
201505181100 METAR COR MROC 181100Z 09010KT 9999 VA FEW030 BKN100 21/17 A3000 NOSIG=
201505181200 METAR MROC 181200Z 10012KT 9999 FEW035 SCT120 BKN200 22/16 A3002 NOSIG=
201505181300 METAR MROC 181300Z 11011KT 9999 FEW030 BKN100 23/16 A3006 NOSIG=
201505181400 METAR MROC 181400Z 09009KT 9999 FEW030 BKN100 24/15 A3008 NOSIG=
201505181500 METAR MROC 181500Z 10010KT 9999 FEW030 BKN100 25/14 A3009 NOSIG=
201505181600 METAR MROC 181600Z 09011KT 9999 FEW040 BKN100 26/12 A3009 NOSIG=
201505181700 METAR MROC 181700Z 10010KT 9999 FEW040 SCT140 BKN250 28/15 A3008 NOSIG=
201505181800 METAR MROC 181800Z 11007KT 9999 FEW040 BKN200 29/15 A3006 NOSIG=
201505181900 METAR MROC 181900Z 11009KT 9999 FEW040 BKN200 27/15 A3009 NOSIG=
201505182000 METAR MROC 182000Z 11006KT 9999 VCVA FEW035 BKN200 27/16 A3001 NOSIG=
201505182100 METAR MROC 182100Z 09010KT 9999 FEW035 BKN080 28/16 A3000 NOSIG=
201505182200 METAR MROC 182200Z 11008KT 9999 FEW035 BKN080 26/17 A2999 NOSIG=
201505182300 METAR MROC 182300Z 11010KT 9999 SCT035 BKN100 25/17 A2999 NOSIG=
201505190000 METAR MROC 190000Z 10010KT 9999 FEW035 SCT110 24/17 A3002 NOSIG=
201505190100 METAR MROC 190100Z 08007KT 9999 FEW035 SCT110 23/17 A3004 NOSIG=
201505190200 METAR MROC 190200Z 09006KT 9999 FEW035 SCT110 22/17 A3006 NOSIG=
201505190300 METAR MROC 190300Z 09011KT CAVOK 22/17 A3006 NOSIG=
201505190400 METAR MROC 190400Z 10013KT CAVOK 22/17 A3007 NOSIG=
201505190500 METAR MROC 190500Z 10014KT CAVOK 22/16 A3005 NOSIG=
201505190600 METAR MROC 190600Z 10017KT CAVOK 22/17 A3004 NOSIG=
201505190700 METAR MROC 190700Z 10017KT CAVOK 22/17 A3001 NOSIG=
201505190800 METAR MROC 190800Z 09016KT CAVOK 22/17 A2999 NOSIG=
201505190900 METAR MROC 190900Z 10014KT CAVOK 22/17 A2999 NOSIG=
201505191000 METAR MROC 191000Z 09010G20KT CAVOK 22/17 A2999 NOSIG=
201505191100 METAR MROC 191100Z 08012KT 9999 FEW035 BKN120 22/17 A3000 NOSIG=
201505191200 METAR MROC 191200Z 09011KT 9999 FEW035 SCT120 BKN250 23/17 A3001 NOSIG=
201505191300 METAR MROC 191300Z 09010KT 9999 FEW035 BKN250 25/18 A3002 NOSIG=
201505191400 METAR MROC 191400Z 11014G25KT 9999 FEW035 BKN250 25/17 A3003 NOSIG=
201505191500 METAR MROC 191500Z 09013G23KT 9999 FEW035 BKN250 27/17 A3003 NOSIG=
201505191600 METAR MROC 191600Z 12011G21KT 9999 FEW035 BKN250 26/17 A3005 NOSIG=
201505191700 METAR MROC 191700Z 10011KT 9999 FEW035 SCT120 BKN250 27/17 A3004 NOSIG=
201505191800 METAR MROC 191800Z 08010KT 9999 FEW035 SCT100 BKN230 28/17 A3003 NOSIG=
201505191900 METAR MROC 191900Z 12006KT 9999 FEW035 SCT110 OVC200 28/17 A3001 NOSIG=
201505192000 METAR MROC 192000Z 18007KT 9999 FEW035 SCT110 OVC200 26/18 A2999 BECMG 24007KT SHRA FEW020TCU=
201505192100 METAR MROC 192100Z 22006KT 9999 FEW030 SCT080 BKN200 24/20 A2999 NOSIG=
201505192200 METAR MROC 192200Z 27004KT 9999 4000SW -RA VCSH SCT030CB BKN200 23/20 A2999 BECMG SHRA=
201505192300 METAR MROC 192300Z VRB02KT 9999 4000SW -RA BCFG VCSH FEW030 SCT100 BKN200 22/20 A3001 NOSIG=
201505200000 METAR MROC 200000Z 06003KT 9999 -RA FEW040 OVC150 22/19 A3002 NOSIG=
201505200100 METAR MROC 200100Z 08004KT 9999 -RA FEW040 OVC150 21/19 A3004 NOSIG=
201505200200 METAR MROC 200200Z 07007KT 9999 FEW040 SCT150 22/18 A3004 NOSIG=
201505200300 METAR MROC 200300Z 06005KT CAVOK 21/18 A3005 NOSIG=
201505200400 METAR MROC 200400Z 04005KT CAVOK 21/19 A3004 NOSIG=
201505200500 METAR MROC 200500Z 09004KT CAVOK 20/18 A3003 NOSIG=
201505200600 METAR MROC 200600Z 07005KT CAVOK 22/18 A3002 NOSIG=
201505200700 METAR MROC 200700Z 10005KT CAVOK 22/18 A3000 NOSIG=
201505200800 METAR MROC 200800Z 09005KT CAVOK 21/18 A2999 NOSIG=
201505200900 METAR MROC 200900Z 05004KT CAVOK 20/18 A3000 NOSIG=
201505201000 METAR MROC 201000Z 05007KT CAVOK 21/18 A2998 NOSIG=
201505201100 METAR MROC 201100Z 09003KT CAVOK 20/17 A2999 NOSIG=
201505201200 METAR MROC 201200Z 05004KT CAVOK 20/17 A3000 NOSIG=
201505201300 METAR MROC 201300Z 08006KT CAVOK 23/17 A3002 NOSIG=
201505201400 METAR MROC 201400Z 11009KT CAVOK 26/17 A3000 NOSIG=
201505201500 METAR MROC 201500Z 10013KT 9999 FEW030 SCT150 27/17 A3002 NOSIG=
201505201600 METAR MROC 201600Z 10012G22KT 9999 FEW035 SCT150 28/18 A3002 NOSIG=
201505201700 METAR MROC 201700Z 11011KT 9999 FEW035 BKN150 29/18 A3001 NOSIG=
201505201800 METAR MROC 201800Z 11007KT 9999 SCT045 SCT150 30/18 A3000 NOSIG=
201505201900 METAR MROC 201900Z 03008KT 9999 4000SW SHRA VCTS SCT030CB BKN150 27/18 A3000 BECMG 5000 TSRA=
201505202000 METAR MROC 202000Z VRB02KT 9999 4000SW -RA VCSH SCT025 BKN150 23/19 A2998 NOSIG=
201505202100 METAR MROC 202100Z VRB02KT 9999 RA FEW010 SCT035 BKN100 22/19 A3000 NOSIG=
201505202200 METAR MROC 202200Z 08006KT 9999 -RA FEW040 OVC100 21/18 A2998 NOSIG=
201505202300 METAR MROC 202300Z 04004KT 9999 -RA FEW040 BKN100 21/18 A2999 NOSIG=
201505210000 METAR MROC 210000Z 11006KT 9999 FEW030 BKN130 21/18 A3001 NOSIG=
201505210100 METAR MROC 210100Z 10007KT CAVOK 22/17 A3003 NOSIG=
201505210200 METAR MROC 210200Z 06006KT CAVOK 21/17 A3005 NOSIG=
201505210300 METAR MROC 210300Z 08006KT CAVOK 21/17 A3006 NOSIG=
201505210400 METAR MROC 210400Z 08008KT CAVOK 22/17 A3007 NOSIG=
201505210500 METAR MROC 210500Z 04004KT CAVOK 21/17 A3006 NOSIG=
201505210600 METAR MROC 210600Z 06005KT CAVOK 21/17 A3004 NOSIG=
201505210700 METAR MROC 210700Z 07007KT CAVOK 22/17 A3000 NOSIG=
201505210800 METAR MROC 210800Z 07006KT CAVOK 22/17 A2998 NOSIG=
201505210900 METAR MROC 210900Z 07007KT CAVOK 22/16 A2997 NOSIG=
201505211000 METAR MROC 211000Z 10010G20KT CAVOK 22/17 A2997 NOSIG=
201505211100 METAR MROC 211100Z 09010G20KT CAVOK 22/17 A2998 NOSIG=
201505211200 METAR MROC 211200Z 10013G23KT 9999 FEW035 BKN120 22/16 A2999 NOSIG=
201505211300 METAR MROC 211300Z 10011G21KT CAVOK 23/17 A3002 NOSIG=
201505211400 METAR MROC 211400Z 10008KT CAVOK 24/17 A3004 NOSIG=
201505211500 METAR MROC 211500Z 11008KT CAVOK 26/17 A3005 NOSIG=
201505211600 METAR MROC 211600Z 11007KT 9999 FEW045 SCT120 SCT250 29/17 A3005 NOSIG=
201505211700 METAR MROC 211700Z 12006KT 9999 FEW045 BKN200 29/17 A3005 BECMG 24007KT=
201505211800 METAR COR MROC 211800Z 21010KT 9999 RA VCSH FEW015TCU SCT040 BKN200 28/19 A3004 BECMG 24007KT 5000 -TSRA SCT010CB=
201505211900 METAR MROC 211900Z 35008KT 9999 -RA VCSH FEW010TCU FEW030 BKN200 24/17 A3002 NOSIG=
201505212000 METAR MROC 212000Z VRB02KT 9999 VCSH FEW015TCU SCT030 BKN200 25/18 A3000 NOSIG=
201505212100 METAR MROC 212100Z 26009KT 9999 FEW035 SCT100 BKN200 25/18 A2999 NOSIG=
201505212200 METAR MROC 212200Z 23006KT 9999 FEW035 SCT100 BKN200 23/19 A2999 NOSIG=
201505212300 METAR MROC 212300Z 27004KT 9999 FEW035 SCT100 BKN200 24/18 A3001 NOSIG=
201505220000 METAR MROC 220000Z VRB02KT 9999 FEW035 BKN250 23/19 A3001 NOSIG=
201505220100 METAR MROC 220100Z 14004KT 9999 FEW035 SCT100 23/19 A3003 NOSIG=
201505220200 METAR MROC 220200Z 10010KT 9999 FEW030 BKN100 23/18 A3005 NOSIG=
201505220300 METAR MROC 220300Z 09013KT 9999 FEW030 BKN100 23/18 A3007 NOSIG=
201505220400 METAR MROC 220400Z 09005KT 9999 FEW030 23/17 A3007 NOSIG=
201505220500 METAR MROC 220500Z 08004KT 9999 FEW030 22/18 A3008 NOSIG=
201505220600 METAR MROC 220600Z 07004KT 9999 FEW030 22/18 A3007 NOSIG=
201505220700 METAR MROC 220700Z 08007KT 9999 FEW030 22/17 A3003 NOSIG=
201505220800 METAR MROC 220800Z 08006KT CAVOK 22/17 A2999 NOSIG=
201505220900 METAR MROC 220900Z 11011G21KT CAVOK 23/17 A2996 NOSIG=
201505221000 METAR MROC 221000Z 11012KT CAVOK 23/17 A2997 NOSIG=
201505221100 METAR MROC 221100Z 10010KT CAVOK 23/17 A2998 NOSIG=
201505221200 METAR MROC 221200Z 10011KT CAVOK 23/17 A3000 NOSIG=
201505221300 METAR MROC 221300Z 11012G24KT 9999 FEW035 24/18 A3004 NOSIG=
201505221400 METAR MROC 221400Z 11010G20KT 9999 FEW035 26/17 A3005 NOSIG=
201505221500 METAR MROC 221500Z COR 10010G20KT 9999 FEW035 28/16 A3006 NOSIG=
201505221600 METAR MROC 221600Z 12015KT 9999 FEW035 28/16 A3005 NOSIG=
201505221700 METAR MROC 221700Z 10015KT 9999 FEW035 SCT050 BKN250 30/16 A3004 NOSIG=
201505221800 METAR MROC 221800Z 11012KT 9999 FEW035 SCT100 BKN250 29/17 A3003 NOSIG=
201505221900 METAR MROC 221900Z 12011KT 9999 FEW035 BKN250 30/17 A3001 NOSIG=
201505222000 METAR MROC 222000Z 22012KT 9999 VCSH FEW025TCU FEW035 SCT100 BKN250 28/20 A2998 BECMG RA=
201505222100 METAR MROC 222100Z 19008KT 8000 VCTS VCSH SCT015CB BKN025 25/21 A2998 RMK VIS S UNLTD BECMG 5000 TSRA=
201505222200 METAR MROC 222200Z 03004KT 9999 -RA SCT030 BKN100 22/21 A2998 RETS NOSIG=
201505222300 METAR MROC 222300Z 07006KT 9999 -DZ SCT030 BKN100 23/19 A3000 NOSIG=
201505230000 METAR MROC 230000Z 10008KT 9999 FEW030 SCT120 BKN200 23/18 A3002 NOSIG=
201505230100 METAR MROC 230100Z 08004KT 9999 FEW030 SCT120 BKN220 24/17 A3004 NOSIG=
201505230200 METAR MROC 230200Z 07006KT 9999 FEW030 SCT120 BKN250 23/18 A3006 NOSIG=
201505230300 METAR MROC 230300Z 09007KT 9999 FEW030 SCT120 23/18 A3006 NOSIG=
201505230400 METAR MROC 230400Z 10009KT 9999 FEW030 SCT120 23/17 A3006 NOSIG=
201505230500 METAR MROC 230500Z 10010G20KT 9999 FEW030 23/17 A3004 NOSIG=
201505230600 METAR MROC 230600Z 10010G20KT 9999 FEW030 SCT120 24/17 A3003 NOSIG=
201505230700 METAR MROC 230700Z 08010G20KT 9999 FEW030 SCT120 23/16 A3002 NOSIG=
201505230800 METAR MROC 230800Z 11010KT 9999 FEW030 SCT120 22/17 A3001 NOSIG=
201505230900 METAR MROC 230900Z 11010G20KT 9999 FEW030 SCT120 22/17 A3000 NOSIG=
201505231000 METAR MROC 231000Z 10010KT 9999 FEW030 SCT129 23/17 A3001 NOSIG=
201505231100 METAR MROC 231100Z 09011G21KT 9999 FEW030 BKN120 23/16 A3003 NOSIG=
201505231200 METAR MROC 231200Z 10014G24KT 9999 FEW030 SCT120 BKN250 23/16 A3005 NOSIG=
201505231300 METAR MROC 231300Z 10014G24KT 9999 FEW030 SCT120 BKN250 23/16 A3005 NOSIG=
201505231400 METAR MROC 231400Z 08016G26KT 9999 FEW030 SCT140 BKN250 25/15 A3005 NOSIG=
201505231500 METAR MROC 231500Z 11013G24KT 9999 FEW030 SCT140 BKN250 26/16 A3008 NOSIG=
201505231600 METAR MROC 231600Z 09013G23KT 9999 FEW030 SCT140 27/16 A3009 NOSIG=
201505231700 METAR MROC 231700Z 07014G24KT 9999 FEW030 SCT140 28/15 A3008 NOSIG=
201505231800 METAR MROC 231800Z 05018G28KT 9999 FEW030 SCT250 28/16 A3005 NOSIG=
201505231900 METAR MROC 231900Z 07010KT 9999 FEW030 SCT045 BKN200 29/16 A3003 NOSIG=
201505232000 METAR MROC 232000Z 08009KT 9999 FEW030 SCT045 BKN200 27/16 A3001 NOSIG=
201505232100 METAR MROC 232100Z 09007KT 9999 FEW030 SCT050 BKN200 27/17 A2998 NOSIG=
201505232200 METAR MROC 232200Z 07007KT 9999 FEW030 SCT060 BKN200 26/17 A2998 NOSIG=
201505232300 METAR MROC 232300Z 10009KT 9999 FEW030 SCT060 BKN200 25/17 A3001 NOSIG=
201505240000 METAR MROC 240000Z 11010KT 9999 FEW030 SCT060 24/17 A3001 NOSIG=
201505240100 METAR MROC 240100Z 10010KT 9999 FEW030 SCT060 23/18 A3002 NOSIG=
201505240200 METAR MROC 240200Z 08005KT 9999 FEW030 SCT080 23/18 A3003 NOSIG=
201505240300 METAR MROC 240300Z 10004KT 9999 FEW030 SCT090 23/18 A3005 NOSIG=
201505240400 METAR MROC 240400Z 08009KT 9999 FEW030 SCT090 23/18 A3007 NOSIG=
201505240500 METAR MROC 240500Z 10012KT 9999 FEW030 SCT090 23/18 A3005 NOSIG=
201505240600 METAR MROC 240600Z 08012KT 9999 FEW030 23/18 A3004 NOSIG=
201505240700 METAR MROC 240700Z 08011KT CAVOK 23/18 A3000 NOSIG=
201505240800 METAR MROC 240800Z 02006KT CAVOK 22/18 A2999 NOSIG=
201505240900 METAR MROC 240900Z 11016KT 9999 -RA BKN100 22/18 A2999 NOSIG=
201505241000 METAR MROC 241000Z 04009KT 9999 FEW035 BKN100 21/18 A3000 NOSIG=
201505241100 METAR MROC 241100Z 09005KT 9999 FEW035 BKN100 22/18 A2998 NOSIG=
201505241200 METAR MROC 241200Z 12006KT 9999 FEW030 SCT100 BKN250 22/18 A2999=
201505241300 METAR MROC 241300Z 11006KT 9999 FEW030 SCT100 BKN200 23/18 A3001 NOSIG=
201505241400 METAR MROC 241400Z 09009KT 9999 FEW030 SCT100 BKN200 24/18 A3002 NOSIG=
201505241500 METAR MROC 241500Z 09010G20KT 9999 FEW030 BKN100 24/18 A3003 NOSIG=
201505241600 METAR MROC 241600Z 08011G21KT 9999 -RA VCSH FEW025TCU BKN100 24/18 A3005 BECMG RA=
201505241700 METAR MROC 241700Z 11007KT 9999 RA FEW025 OVC100 21/19 A3007 NOSIG=
201505241800 METAR MROC 241800Z 07007KT 9999 -RA FEW025 OVC150 21/19 A3006 NOSIG=
201505241900 METAR MROC 241900Z 09004KT 9999 -RA NSC 22/19 A3005 NOSIG=
201505242000 METAR MROC 242000Z 07005KT 9999 -RA NSC 21/18 A3003 NOSIG=
201505242100 METAR MROC 242100Z 04007KT CAVOK 22/18 A2998 NOSIG=
201505242200 METAR MROC 242200Z 10005KT CAVOK 23/18 A2997 NOSIG=
201505242300 METAR MROC 242300Z 05004KT 9999 FEW030 OVC150 23/17 A2997 NOSIG=
201505250000 METAR MROC 250000Z 11009KT 9999 FEW030 SCT150 BKN250 23/17 A2999 NOSIG=
201505250100 METAR MROC 250100Z 07007KT 9999 FEW040 SCT150 22/17 A3001 NOSIG=
201505250200 METAR MROC 250200Z 11007KT 9999 DZ VCSH FEW030 BKN100 22/18 A3005 NOSIG=
201505250300 METAR MROC 250300Z 08004KT 9999 RA FEW030 BKN100 20/19 A3007 NOSIG=
201505250400 METAR MROC NIL=
201505250500 METAR MROC 250500Z 07003KT 9999 -RA FEW030 OVC100 20/19 A3008 NOSIG=
201505250600 METAR MROC 250600Z 04007KT CAVOK 20/19 A3006 NOSIG=
201505250700 METAR MROC 250700Z 04003KT CAVOK 20/18 A3004 NOSIG=
201505250800 METAR MROC 250800Z 05007KT CAVOK 21/18 A3002 NOSIG=
201505250900 METAR MROC 250900Z 07006KT CAVOK 21/18 A3000 NOSIG=
201505251000 METAR MROC 251000Z 08006KT CAVOK 21/18 A2998 NOSIG=
201505251100 METAR MROC 251100Z 09007KT 9999 FEW040 SCT110 21/18 A2998 NOSIG=
201505251200 METAR MROC 251200Z 11009KT 9999 FEW040 SCT070 BKN120 21/17 A3001 NOSIG=
201505251300 METAR MROC 251300Z 10008KT 9999 FEW040 SCT120 SCT250 23/17 A3004 NOSIG=
201505251400 METAR MROC 251400Z 09008KT 9999 FEW045 SCT120 SCT250 24/18 A3004 NOSIG=
201505251500 METAR MROC 251500Z 09011KT CAVOK 25/18 A3005 NOSIG=
201505251600 METAR MROC 251600Z 09008KT 9999 FEW040 BKN250 27/18 A3004 NOSIG=
201505251700 METAR MROC 251700Z 12006KT 9999 FEW035 BKN140 29/18 A3002 BECMG 24006KT=
201505251800 METAR MROC 251800Z 16006KT 9999 SCT030 SCT120 28/20 A3001 BECMG 24006KT=
201505251900 METAR MROC 251900Z 21009KT 9999 VCSH FEW020TCU BKN035 28/20 A2999 NOSIG=
201505252000 METAR MROC 252000Z 30008KT 9999 -SHRA VCSH FEW015TCU BKN035 24/18 A2999 BECMG 5000=
201505252100 METAR MROC 252100Z 32006KT 9999 VCSH SCT030 BKN100 23/18 A2999 NOSIG=
201505252200 METAR MROC 252200Z VRB02KT 9999 -RA SCT030 BKN100 22/19 A2998 NOSIG=
201505252300 METAR MROC 252300Z 29003KT 9999 RA SCT030 BKN100 22/20 A3000 BECMG 10007KT=
201505260000 METAR MROC 260000Z 28002KT 9999 SCT035 BKN100 22/20 A3003 RERA BECMG 10007KT=
201505260100 METAR MROC 260100Z 07002KT 9999 SCT035 BKN100 22/20 A3002 NOSIG=
201505260200 METAR MROC 260200Z 00000KT 9999 FEW030 SCT120 22/19 A3004 NOSIG=
201505260300 METAR MROC 260300Z 32003KT 9999 FEW035 SCT120 21/19 A3006 NOSIG=
201505260400 METAR MROC 260400Z 08003KT 9999 FEW035 SCT120 21/19 A3006 NOSIG=
201505260500 METAR MROC 260500Z 10009KT CAVOK 22/17 A3003 NOSIG=
201505260600 METAR MROC 260600Z 11012KT CAVOK 22/16 A3001 NOSIG=
201505260700 METAR MROC 260700Z 11010KT CAVOK 22/16 A2999 NOSIG=
201505260800 METAR MROC 260800Z 12006KT CAVOK 22/16 A2998 NOSIG=
201505260900 METAR MROC 260900Z 03004KT CAVOK 21/16 A2998 NOSIG=
201505261000 METAR MROC 261000Z 02003KT CAVOK 19/16 A2999 NOSIG=
201505261100 METAR MROC 261100Z 07004KT CAVOK 20/17 A3000 NOSIG=
201505261200 METAR MROC 261200Z 02004KT 9999 FEW035 SCT250 20/16 A3001 NOSIG=
201505261300 METAR MROC 261300Z 05006KT 9999 FEW045 BKN250 23/17 A3004 NOSIG=
201505261400 METAR MROC 261400Z 10010KT 9999 FEW045 BKN250 25/18 A3003 NOSIG=
201505261500 METAR MROC 261500Z 11009KT 9999 FEW045 BKN250 27/17 A3003 NOSIG=
201505261600 METAR MROC 261600Z 10011G21KT 9999 FEW040 BKN250 27/17 A3003 NOSIG=
201505261700 METAR MROC 261700Z 11008KT 9999 SCT040 SCT250 28/17 A3003 BECMG 24007KT FEW020TCU=
201505261800 METAR MROC 261800Z 13006KT 9999 SCT040 BKN200 28/17 A3001 BECMG 24007KT FEW020TCU=
201505261900 METAR MROC 261900Z 24011KT 9999 SCT030 SCT200 26/21 A2998 NOSIG=
201505262000 METAR MROC 262000Z 22008KT 9999 -SHRA FEW020TCU SCT035 BKN100 25/21 A2999 NOSIG=
201505262100 METAR MROC 262100Z COR 09010KT 9999 -RA VCSH FEW025TCU FEW045 SCT100 BKN200 21/19 A2995 RESH NOSIG=
201505262200 METAR MROC 262200Z 22006KT 9999 FEW040 SCT080 BKN200 21/19 A2995 NOSIG=
201505262300 METAR MROC 262300Z 21003KT 9999 -RA FEW040 SCT080 BKN200 21/18 A2999 NOSIG=
201505270000 METAR MROC 270000Z 11006KT 9999 -RA FEW040 SCT080 BKN200 20/19 A3000 NOSIG=
201505270100 METAR MROC 270100Z 07009KT 9999 FEW040 BKN100 21/18 A3003 NOSIG=
201505270200 METAR MROC 270200Z 07004KT 9999 FEW040 SCT100 BKN200 21/19 A3003 NOSIG=
201505270300 METAR MROC 270300Z 04005KT 9999 FEW040 SCT250 21/18 A3004 NOSIG=
201505270400 METAR MROC 270400Z 35005KT 9999 FEW030 SCT150 20/18 A3005 NOSIG=
201505270500 METAR MROC 270500Z VRB02KT 9999 FEW040 SCT150 21/18 A3004 NOSIG=
201505270600 METAR MROC 270600Z 06002KT 9999 FEW035 21/17 A3002 NOSIG=
201505270700 METAR MROC 270700Z VRB02KT 9999 SCT035 21/18 A3000 NOSIG=
201505270800 METAR MROC 270800Z 10005KT 9999 FEW035 SCT070 20/18 A2999 NOSIG=
201505270900 METAR MROC 270900Z 02003KT 9999 FEW035 SCT070 20/18 A2999 NOSIG=
201505271000 METAR MROC 271000Z 11003KT 9999 FEW035 21/16 A2998 NOSIG=
201505271100 METAR MROC 271100Z 04007KT 9999 SCT030 21/17 A3000 NOSIG=
201505271200 METAR MROC 271200Z 04006KT 9999 FEW030 BKN250 22/17 A3002 NOSIG=
201505271300 METAR MROC 271300Z 10010G20KT 9999 FEW035 BKN250 23/17 A3003 NOSIG=
201505271400 METAR MROC 271400Z 09012G22KT 9999 FEW035 BKN250 24/17 A3003 NOSIG=
201505271500 METAR MROC 271500Z 11010G20KT 9999 FEW035 SCT250 26/17 A3003 NOSIG=
201505271600 METAR MROC 271600Z 09011G21KT 9999 FEW035 SCT250 27/17 A3002 NOSIG=
201505271700 METAR MROC 271700Z 10010G20KT 9999 FEW035 SCT200 27/17 A3001 NOSIG=
201505271800 METAR MROC 271800Z 09012G22KT 9999 FEW030 SCT250 28/18 A2999 NOSIG=
201505271855 METAR MROC 271855Z 10010G20KT 9999 FEW030 BKN250 28/16 A2997 NOSIG=
201505271900 METAR MROC 271900Z 10010G20KT 9999 FEW030 BKN250 28/16 A2997=
201505272000 METAR MROC 272000Z 11010G20KT 9999 SCT030 BKN200 28/17 A2995 NOSIG=
201505272100 METAR MROC 272100Z 11010G21KT 9999 SCT030 SCT250 26/17 A2993 NOSIG=
201505272200 METAR MROC 272200Z 11010G20KT 9999 BKN030 24/17 A2994 NOSIG=
201505272300 METAR MROC 272300Z 12007G17KT 9999 FEW025 BKN040 24/16 A2997 NOSIG=
201505280000 METAR MROC 280000Z 11009KT 9999 FEW025 BKN045 22/16 A2999 NOSIG=
201505280100 METAR MROC 280100Z 07005KT 9999 FEW030 BKN250 22/16 A3001 NOSIG=
201505280200 METAR MROC 280200Z 06006KT 9999 FEW030 BKN250 21/15 A3004 NOSIG=
201505280300 METAR MROC 280300Z 11007KT 9999 FEW030 SCT250 21/13 A3005 NOSIG=
201505280400 METAR MROC 280400Z 09008KT CAVOK 21/14 A3005 NOSIG=
201505280500 METAR MROC 280500Z 11007KT CAVOK 20/14 A3004 NOSIG=
201505280600 METAR MROC 280600Z 07006KT CAVOK 20/14 A3003 NOSIG=
201505280700 METAR MROC 280700Z 07007KT CAVOK 20/14 A3002 NOSIG=
201505280800 METAR MROC 280800Z 08008KT CAVOK 20/13 A3000 NOSIG=
201505280900 METAR MROC 280900Z 08007KT CAVOK 19/14 A2999 NOSIG=
201505281000 METAR MROC 281000Z 06008KT CAVOK 19/14 A2999 NOSIG=
201505281100 METAR MROC 281100Z 05004KT CAVOK 18/12 A3000 NOSIG=
201505281200 METAR MROC 281200Z 05011KT CAVOK 20/12 A3003 NOSIG=
201505281300 METAR MROC 281300Z 04011KT CAVOK 21/11 A3004 NOSIG=
201505281400 METAR MROC 281400Z 07008KT CAVOK 23/11 A3006 NOSIG=
201505281500 METAR MROC 281500Z 09011G21KT CAVOK 25/11 A3006 NOSIG=
201505281600 METAR MROC 281600Z 09012KT CAVOK 26/09 A3004 NOSIG=
201505281700 METAR MROC 281700Z 11008KT CAVOK 26/07 A3003 NOSIG=
201505281800 METAR MROC 281800Z 09005KT CAVOK 28/09 A3003 NOSIG=
201505281900 METAR MROC 281900Z 02004KT CAVOK 29/07 A2999 NOSIG=
201505282000 METAR MROC 182000Z 10010KT 9999 FEW045 BKN250 28/12 A2998 NOSIG=
201505282100 METAR MROC 282100Z 09010KT 9999 FEW045 BKN250 27/12 A2996 NOSIG=
201505282200 METAR MROC 282200Z 11010KT 9999 FEW045 BKN250 27/13 A2996 NOSIG=
201505282300 METAR MROC 282300Z 11008KT CAVOK 24/16 A2997 NOSIG=
201505290000 METAR MROC 290000Z 11010KT 9999 FEW045 SCT250 23/15 A3000 NOSIG=
201505290100 METAR MROC 290100Z 11010KT 9999 FEW045 SCT250 22/16 A3002 NOSIG=
201505290200 METAR MROC 290200Z 10011KT 9999 FEW045 SCT250 22/15 A3004 NOSIG=
201505290300 METAR MROC 290300Z 10008KT 9999 FEW045 SCT250 21/14 A3004 NOSIG=
201505290400 METAR MROC 290400Z 09016KT CAVOK 21/13 A3005 NOSIG=
201505290500 METAR MROC 290500Z 06009KT CAVOK 19/13 A3006 NOSIG=
201505290600 METAR MROC 290600Z 06011KT CAVOK 19/12 A3003 NOSIG=
201505290700 METAR MROC 290700Z 06014KT CAVOK 19/13 A3000 NOSIG=
201505290800 METAR MROC 290800Z 06008KT CAVOK 18/12 A2999 NOSIG=
201505290900 METAR MROC 290900Z 05007KT CAVOK 18/12 A2999 NOSIG=
201505291000 METAR MROC 291000Z 07008KT CAVOK 18/12 A2999 NOSIG=
201505291100 METAR MROC 291100Z 06006KT CAVOK 17/12 A3000 NOSIG=
201505291200 METAR MROC 291200Z 06008KT CAVOK 18/11 A3001 NOSIG=
201505291300 METAR MROC 291300Z 08005KT CAVOK 23/12 A3003 NOSIG=
201505291400 METAR MROC 291400Z 07006KT CAVOK 25/11 A3004 NOSIG=
201505291500 METAR MROC 291500Z 10009KT CAVOK 27/07 A3004 NOSIG=
201505291600 METAR MROC 291600Z 11010KT CAVOK 29/08 A3003 NOSIG=
201505291700 METAR MROC 291700Z 20004KT CAVOK 30/10 A3002 NOSIG=
201505291800 METAR MROC 291800Z 23008KT 9999 FEW040 SCT250 29/14 A3001 NOSIG=
201505291900 METAR MROC 291900Z 23011KT 9999 SCT035 28/15 A2999 NOSIG=
201505292000 METAR MROC 292000Z 20010KT 9999 SCT035 SCT250 26/17 A2997 NOSIG=
201505292100 METAR MROC 292100Z 19009KT 9999 BKN045 SCT200 24/19 A2997 NOSIG=
201505292200 METAR MROC 292200Z 20008KT 9999 SCT035 SCT200 24/18 A2997 NOSIG=
201505292300 METAR MROC 292300Z 21004KT 9999 VCSH SCT030 SCT200 23/18 A3000 NOSIG=
201505300000 METAR MROC 300000Z VRB01KT 9999 SCT030 BKN200 23/19 A3001 NOSIG=
201505300100 METAR MROC 300100Z 23001KT CAVOK 22/19 A3002 NOSIG=
201505300200 METAR MROC 300200Z 06004KT CAVOK 22/17 A3004 NOSIG=
201505300300 METAR MROC 300300Z 07004KT CAVOK 21/17 A3005 NOSIG=
201505300400 METAR MROC 300400Z 06005KT CAVOK 21/17 A3005 NOSIG=
201505300500 METAR MROC 300500Z 07005KT CAVOK 22/15 A3005 NOSIG=
201505300600 METAR MROC 300600Z 08005KT 9999 FEW045 BKN070 21/15 A3003 NOSIG=
201505300601 METAR MROC 300601Z 08005KT 9999 -RA FEW045 BKN070 21/15 A3003 NOSIG=
201505300700 METAR MROC 300700Z 09006KT CAVOK 21/16 A3000 NOSIG=
201505300800 METAR MROC 300800Z 08004KT CAVOK 21/16 A2999 NOSIG=
201505300900 METAR MROC 300900Z 06007KT CAVOK 21/15 A2997 NOSIG=
201505301000 METAR MROC 301000Z 06005KT CAVOK 21/15 A2997 NOSIG=
201505301100 METAR MROC 301100Z 08006KT CAVOK 21/15 A2998 NOSIG=
201505301200 METAR MROC 301200Z 09007KT CAVOK 21/15 A2999 NOSIG=
201505301300 METAR MROC 301300Z 07004KT CAVOK 23/16 A3002 NOSIG=
201505301400 METAR MROC 301400Z 07007KT CAVOK 26/16 A3002 NOSIG=
201505301500 METAR MROC 301500Z 10007KT 9999 FEW040 BKN250 27/15 A3002 NOSIG=
201505301600 METAR MROC 301600Z 10009KT 9999 FEW040 BKN250 29/15 A3001 NOSIG=
201505301700 METAR MROC 301700Z 13005KT 9999 BKN045 SCT250 30/14 A3000 BECMG 23008KT=
201505301800 METAR MROC 301800Z 26009KT 9999 BKN045 27/18 A2999 NOSIG=
201505301900 METAR MROC 301900Z 24007KT 9999 BKN045 28/18 A2997 NOSIG=
201505302000 METAR MROC 302000Z 22009KT 9999 BKN040 26/20 A2994 NOSIG=
201505302100 METAR MROC 302100Z 23006KT 9999 4000N TSRA VCSH 25/20 A2994 NOSIG=
201505302200 METAR MROC 302200Z 10007KT 8000 TSRA VCSH SCT020CB BKN030 23/18 A2994 BECMG 3000 +TSRA=
201505302300 METAR MROC 302300Z 16002KT 8000 3000SW -TSRA SCT020CB BKN060 20/19 A2996 BECMG 9999=
201505310000 METAR MROC 310000Z 27004KT 8000 3000SW -RA BCFG SCT020 BKN060 20/20 A2998 NOSIG=
201505310100 METAR MROC 310100Z 29002KT 8000 -RA BCFG SCT020 BKN060 21/20 A3001 NOSIG=
201505310200 METAR MROC 310200Z 09002KT 9999 -RA SCT020 BKN100 21/20 A3001 NOSIG=
201505310300 METAR MROC 310300Z 30003KT 9999 -RA SCT020 BKN100 21/20 A3002 NOSIG=
201505310400 METAR MROC 310400Z 15002KT 9999 SCT030 BKN100 21/20 A3002 NOSIG=
201505310500 METAR MROC 310500Z 06002KT 9999 SCT030 BKN100 21/20 A3001 NOSIG=
201505310600 METAR MROC 310600Z 07004KT 9999 FEW030 SCT120 21/18 A3000 NOSIG=
201505310700 METAR MROC 310700Z 06006KT 9999 FEW030 SCT120 20/18 A2999 NOSIG=
201505310800 METAR MROC 310800Z 06003KT CAVOK 20/17 A2996 NOSIG=
201505310900 METAR MROC 310900Z 07003KT CAVOK 19/17 A2996 NOSIG=
201505311000 METAR MROC 311000Z 07005KT CAVOK 20/17 A2996 NOSIG=
201505311100 METAR MROC 311100Z 07005KT CAVOK 19/17 A2997 NOSIG=
201505311200 METAR MROC 311200Z 07005KT 9999 FEW035 BKN250 20/17 A2999 NOSIG=
201505311300 METAR MROC 311300Z 05006KT 9999 FEW040 BKN250 23/18 A3001 NOSIG=
201505311400 METAR MROC 311400Z 07005KT 9999 FEW040 BKN250 25/18 A3001 NOSIG=
201505311500 METAR MROC 311500Z COR 11005KT 9999 FEW040 BKN250 27/17 A3003 NOSIG=
201505311600 METAR MROC 311600Z 12005KT 9999 FEW040 BKN250 28/17 A3002 NOSIG=
201505311700 METAR MROC 311700Z 13004KT 9999 FEW040 BKN250 28/17 A3001 BECMG 24007KT=
201505311800 METAR MROC 311800Z 21008KT 9999 SCT040 SCT250 29/19 A2999 NOSIG=
201505311900 METAR MROC 311900Z 22010KT 9999 FEW020TCU SCT040 SCT250 28/20 A2998 BECMG 5000 -TSRA FEW015CB=
201505312000 METAR MROC 312000Z 22011KT 9999 VCSH FEW015TCU SCT035 SCT100 25/20 A2997 NOSIG=
201505312100 METAR MROC 312100Z 25006KT 9999 VCSH FEW010TCU BKN030 24/20 A2996 BECMG RA=
201505312200 METAR MROC 312200Z 24004KT 9999 SCT020 BKN100 24/20 A2994 NOSIG=
201505312300 METAR MROC 312300Z 17002KT 9999 VCFG SCT020 BKN100 24/20 A2995 NOSIG=
201506010000 METAR MROC 010000Z VRB02KT 9999 SCT035 BKN200 23/20 A2996 NOSIG=
201506010100 METAR MROC 010100Z VRB02KT 9999 VCTS SCT035 BKN100 23/20 A2997 BECMG TSRA=
201506010200 METAR MROC 010200Z 22003KT 9999 VCFG SCT025 BKN100 23/20 A3002 NOSIG=
201506010300 METAR MROC 010300Z 26004KT 9999 4000SW BCFG SCT005 BKN030 22/21 A3003 BECMG 2000 BR=
201506010400 METAR MROC 010400Z VRB01KT 9999 VCFG SCT020 22/21 A3003 NOSIG=
201506010500 METAR MROC 010500Z 09004KT 9999 VCFG SCT030 BKN150 22/20 A3002 NOSIG=
201506010600 METAR MROC 010600Z 07008KT 9999 FEW030 BKN150 22/17 A3000 NOSIG=
201506010700 METAR MROC 010700Z 10007KT 9999 FEW035 BKN200 22/17 A2999 NOSIG=
201506010800 METAR MROC 010800Z 08007KT CAVOK 22/17 A2998 NOSIG=
201506010900 METAR MROC 010900Z 04008KT CAVOK 22/17 A2997 NOSIG=
201506011000 METAR MROC 011000Z 10003KT CAVOK 21/17 A2998 NOSIG=
201506011100 METAR MROC 011100Z 05009KT CAVOK 21/17 A2998 NOSIG=
201506011200 METAR MROC 011200Z 08005KT CAVOK 22/17 A3000 NOSIG=
201506011300 METAR MROC 011300Z 05006KT CAVOK 25/17 A3003 NOSIG=
201506011400 METAR MROC 011400Z 09010KT CAVOK 27/17 A3003 NOSIG=
201506011500 METAR MROC 011500Z 12009KT CAVOK 28/16 A3002 NOSIG=
201506011600 METAR MROC 011600Z 24011KT 9999 FEW045 SCT250 29/19 A3002 NOSIG=
201506011700 METAR MROC 011700Z 23012KT 9999 FEW045 SCT250 29/20 A3001 NOSIG=
201506011800 METAR MROC 011800Z 23014KT 9999 FEW025TCU SCT035 BKN250 29/20 A3001 NOSIG=
201506011900 METAR MROC 011900Z 23015KT 9999 SCT025TCU BKN250 26/21 A2997 NOSIG=
201506012000 METAR MROC 012000Z 25016KT 9999 SCT025TCU BKN250 27/21 A2994 NOSIG=
201506012100 METAR MROC 012100Z 27007KT 9999 VCTS VCSH FEW015CB SCT025 BKN140 27/20 A2992 BECMG 5000 TSRA=
201506012200 METAR MROC 012200Z 18006KT 2000 TSRA SCT012CB BKN025 22/21 A2994 BECMG 5000 RA BR=
201506012300 METAR MROC 012300Z 16002KT 5000 BR FEW005 SCT010 BKN020 22/22 A2995 RMK VIS E/S UNLTD BECMG RA=
201506020000 METAR MROC 020000Z 00000KT 9999 VCFG SCT010 BKN020 23/21 A2996 BECMG BKN010=
201506020100 METAR MROC 020100Z 00000KT 9999 FEW010 BKN025 23/21 A2998 BECMG BKN010=
201506020200 METAR MROC 020200Z 28003KT 9999 FEW030 BKN250 23/21 A2999 NOSIG=
201506020300 METAR MROC 020300Z 36002KT 9999 FEW030 BKN250 22/21 A2999 RMK HZY NOSIG=
201506020400 METAR MROC 020400Z 27003KT 5000 BR SCT002 BKN025 22/21 A3000 NOSIG=
201506020500 METAR MROC 020500Z VRB02KT 9999 4000SW BCFG SCT002 BKN025 22/21 A3000 NOSIG=
201506020600 METAR MROC 020600Z 00000KT 8000 3000SW BCFG SCT002 BKN025 22/21 A2999 NOSIG=
201506020700 METAR MROC 020700Z 02003KT 9999 FEW010 SCT030 21/20 A2996 NOSIG=
201506020800 METAR MROC 020800Z 00000KT 9999 FEW015 SCT030 21/20 A2996 NOSIG=
201506020900 METAR MROC 020900Z 10004KT 9999 FEW035 SCT250 20/19 A2995=
201506021000 METAR MROC 021000Z 03005KT CAVOK 21/18 A2995 NOSIG=
201506021100 METAR MROC 021100Z 09005KT 9999 FEW040 BKN250 21/18 A2997 NOSIG=
201506021200 METAR MROC 021200Z 06006KT CAVOK 21/18 A2999 NOSIG=
201506021300 METAR MROC 021300Z 09005KT CAVOK 24/19 A3000 NOSIG=
201506021400 METAR MROC 021400Z 10007KT CAVOK 25/19 A3001 NOSIG=
201506021500 METAR MROC 021500Z 09007KT CAVOK 27/19 A3001 NOSIG=
201506021600 METAR MROC 021600Z 18003KT 9999 FEW040 BKN250 30/18 A3000 BECMG 24008KT=
201506021700 METAR MROC 021700Z 25010KT 9999 SCT030 BKN250 28/21 A3000 NOSIG=
201506021800 METAR MROC 021800Z 24009KT 9999 FEW025TCU SCT035 BKN250 27/21 A2998 BECMG SHRA=
201506021900 METAR MROC 021900Z 24008KT 9999 FEW020TCU SCT030 BKN250 28/21 A2996 BECMG SHRA=
201506022000 METAR MROC 022000Z 19008KT 9999 -RA VCTS VCSH FEW015CB SCT030 BKN150 28/21 A2993 BECMG TSRA=
201506022100 METAR MROC 022100Z 21004KT 9999 VCTS VCSH FEW020CB SCT030 BKN100 26/21 A2992 BECMG 5000 RA=
201506022200 METAR MROC 022200Z 01003KT 9999 SCT020TCU BKN110 25/18 A2990 NOSIG=
201506022300 METAR MROC 022300Z 25005KT 9999 FEW035 BKN120 24/19 A2990 NOSIG=
201506030000 METAR MROC 030000Z 21004KT 9999 SCT035 BKN120 23/20 A2994 NOSIG=
201506030100 METAR MROC 030100Z 27004KT 9999 SCT035 BKN130 23/20 A2997 NOSIG=
201506030200 METAR MROC 030200Z 29004KT 9999 SCT035 BKN130 23/20 A2999 NOSIG=
201506030300 METAR MROC 030300Z 26005KT 9999 SCT030 BKN130 22/20 A3000 NOSIG=
201506030400 METAR MROC 030400Z 32008KT 9999 -RA FEW030 BKN100 22/21 A3000 NOSIG=
201506030500 METAR MROC 030500Z 20008KT 9999 FEW030 BKN100 22/20 A3000 NOSIG=
201506030600 METAR MROC 030600Z 06004KT 9999 FEW030 BKN100 22/20 A2998 NOSIG=
201506030700 METAR MROC 030700Z 08005KT CAVOK 22/20 A2997 NOSIG=
201506030800 METAR MROC 030800Z 08005KT CAVOK 22/20 A2995 NOSIG=
201506030900 METAR MROC 030900Z 02005KT CAVOK 23/19 A2994 NOSIG=
201506031000 METAR MROC 031000Z 12006KT CAVOK 21/20 A2994 NOSIG=
201506031100 METAR MROC 031100Z 07005KT CAVOK 21/20 A2995 NOSIG=
201506031200 METAR MROC 031200Z 04017KT CAVOK 22/18 A2994 NOSIG=
201506031300 METAR MROC 031300Z 09005KT CAVOK 24/18 A2995 NOSIG=
201506031400 METAR MROC 031400Z 09010KT CAVOK 26/18 A2995 NOSIG=
201506031500 METAR MROC 031500Z 11008KT CAVOK 28/18 A2996 NOSIG=
201506031600 METAR MROC 031600Z 11006KT CAVOK 29/17 A2995 NOSIG=
201506031700 METAR MROC 031700Z 24010KT CAVOK 29/21 A2993 NOSIG=
201506031800 METAR MROC 031800Z 22011KT 9999 SCT035 BKN250 29/21 A2994 NOSIG=
201506031900 METAR MROC 031900Z 23012KT 9999 SCT030TCU BKN250 26/20 A2993 NOSIG=
201506032000 METAR MROC 032000Z 26003KT 8000 TSRA SCT012CB BKN100 24/21 A2993 BECMG 5000=
201506032025 METAR MROC 032025Z 21008KT 8000 2000SW -SHRA SCT012CB BKN060 21/20 A2993 NOSIG=
201506032100 METAR MROC 032100Z 26007KT 8000 BCFG SCT010 BKN060 20/20 A2994 NOSIG=
201506032200 METAR MROC 032200Z VRB02KT 9999 4000N -RA VCTS VCFG FEW010 SCT060 BKN100 20/20 A2992 NOSIG=
201506032300 METAR MROC 032300Z 25002KT 9999 FEW010 SCT060 BKN100 21/20 A2995 NOSIG=
201506040000 METAR MROC 040000Z 21001KT 9999 FEW020 BKN150 21/20 A2995 NOSIG=
201506040100 METAR MROC 040100Z 00000KT 9999 -RA FEW045 BKN150 21/20 A2998 NOSIG=
201506040200 METAR MROC 040200Z 10003KT 9999 RA FEW045 BKN150 21/20 A3001 NOSIG=
201506040300 METAR MROC 040300Z 15003KT 9999 4000SW -DZ SCT045 BKN150 21/20 A3003 BECMG 5000 RA BR=
201506040400 METAR MROC 040400Z 13003KT 9999 -RA FEW045 BKN120 21/21 A3006 NOSIG=
201506040500 METAR MROC 040500Z 03003KT 9999 RA FEW045 BKN100 21/20 A3005 NOSIG=
201506040600 METAR MROC 040600Z 21003KT 9999 3000SW -RA FEW002 OVC100 21/20 A3001 RMK VIS RED TO SW DUE BR BECMG BCFG=
201506040700 METAR MROC 040700Z 10003KT 9999 4000SW BCFG FEW001 SCT120 BKN180 21/20 A2998 NOSIG=
201506040800 METAR MROC 040800Z 07004KT CAVOK 20/19 A2996 NOSIG=
201506040900 METAR MROC 040900Z 05008KT CAVOK 21/19 A2995 NOSIG=
201506041000 METAR MROC 041000Z 06006KT CAVOK 20/17 A2996 NOSIG=
201506041100 METAR MROC 041100Z 06006KT CAVOK 19/17 A2998 NOSIG=
201506041200 METAR MROC 041200Z 08003KT CAVOK 21/17 A3000 NOSIG=
201506041300 METAR MROC 041300Z 02004KT CAVOK 23/18 A3001 NOSIG=
201506041400 METAR MROC 041400Z 22003KT CAVOK 24/19 A3002 NOSIG=
201506041500 METAR MROC 041500Z 29003KT 9999 FEW045 BKN250 26/18 A3004 NOSIG=
201506041600 METAR MROC 041600Z 28004KT 9999 FEW045 BKN250 27/19 A3003 NOSIG=
201506041700 METAR MROC 041700Z 25007KT 9999 SCT045 BKN250 28/18 A3003 NOSIG=
201506041800 METAR MROC 041800Z 24008KT 9999 SCT030 BKN250 28/18 A3002 NOSIG=
201506041900 METAR MROC 041900Z 24009KT 9999 VCSH SCT030 BKN250 28/20 A3000 NOSIG=
201506042000 METAR MROC 042000Z 19007KT 5000 1000SW -TSRA SCT010CB BKN025 22/21 A2999 NOSIG=
201506042100 METAR MROC 042100Z 35003KT 7000 RA BCFG VCTS SCT010CB BKN030 22/21 A2997 NOSIG=
201506042200 METAR MROC 042200Z 02004KT 9999 FEW015CB FEW025 BKN100 20/20 A2997 RETS NOSIG=
201506042300 METAR MROC 042300Z 08003KT 9999 -RA FEW025 BKN100 21/20 A2998 NOSIG=
201506050000 METAR MROC 050000Z 08004KT CAVOK 21/20 A3000 NOSIG=
201506050100 METAR MROC 050100Z 00000KT CAVOK 21/20 A3002 NOSIG=
201506050200 METAR MROC 050200Z VRB02KT 9999 BCFG FEW040 BKN100 21/21 A3004 NOSIG=
201506050300 METAR MROC NIL=
201506050400 METAR MROC 050400Z 07003KT CAVOK 21/20 A3002 NOSIG=
201506050500 METAR MROC 050500Z 06007KT CAVOK 21/19 A2999 NOSIG=
201506050600 METAR MROC 050600Z 06007KT CAVOK 21/18 A2999 NOSIG=
201506050700 METAR MROC 050700Z 29003KT CAVOK 21/19 A3001 NOSIG=
201506050800 METAR MROC 050800Z 34002KT CAVOK 20/18 A3000 NOSIG=
201506050900 METAR MROC 050900Z 03004KT CAVOK 20/18 A2999 NOSIG=
201506051000 METAR MROC 051000Z 04004KT CAVOK 19/17 A2998 NOSIG=
201506051100 METAR MROC NIL=
201506051200 METAR MROC 051200Z 09005KT CAVOK 20/17 A2999 NOSIG=
201506051300 METAR MROC 051300Z 03006KT CAVOK 22/17 A3000 NOSIG=
201506051400 METAR MROC 051400Z 11007KT CAVOK 25/18 A3002 NOSIG=
201506051500 METAR MROC 051500Z 13007KT 9999 FEW045 SCT250 27/18 A3002 NOSIG=
201506051600 METAR MROC 051600Z 25007KT 9999 SCT040 25/20 A3003 NOSIG=
201506051700 METAR MROC 051700Z 24008KT 9999 SCT040 SCT250 26/20 A3003 NOSIG=
201506051800 METAR MROC 051800Z 25009KT 9999 FEW025TCU BKN040 27/20 A3002 BECMG 5000 -TSRA FEW015CB=
201506051900 METAR MROC 051900Z 24008KT 9999 VCSH FEW020TCU BKN040 26/21 A2999 BECMG 5000 -TSRA FEW015CB=
201506052000 METAR MROC 052000Z 24011KT 9999 VCSH FEW020TCU SCT035 SCT100 25/21 A2997 BECMG 5000 -TSRA FEW015CB=
201506052100 METAR MROC 052100Z 23012KT 0500 +TSRA FEW005 SCT010CB BKN020 21/20 A2998 NOSIG=
201506052130 METAR MROC 052130Z 22010KT 1500 0500NE TSRA FEW005 SCT10CB BKN020 20/19 A2997 NOSIG=
201506052200 METAR MROC 052200Z COR 32008KT 2500 -RA BR VCTS FEW010 FEW020CB SCT030 BKN100 20/19 A2998 RETS NOSIG=
201506052300 METAR MROC 052300Z 02004KT 2000 -RA BR FEW010 SCT030 BKN100 20/19 A2999 NOSIG=
201506052353 METAR MROC 060000Z 10006KT 9999 FEW045 SCT080 BKN200 20/20 A2998 NOSIG=
201506060000 METAR MROC 060000Z 10006KT 9999 FEW045 SCT080 BKN200 20/20 A2998 NOSIG=
201506060100 METAR MROC 060100Z 03006KT 9999 -RA BKN100 21/20 A3000 NOSIG=
201506060200 METAR MROC 060200Z 27007KT 9999 BCFG FEW025 BKN100 20/20 A3001 NOSIG=
201506060300 METAR MROC 060300Z 32008KT 9999 BCFG FEW025 20/19 A3002 NOSIG=
201506060400 METAR MROC 060400Z 06002KT 9999 FEW020 20/19 A3000 NOSIG=
201506060500 METAR MROC 060500Z 08005KT CAVOK 20/20 A3000 NOSIG=
201506060600 METAR MROC 060600Z 05006KT CAVOK 20/18 A2999 NOSIG=
201506060700 METAR MROC 060700Z 20003KT 9999 BCFG FEW035 20/18 A3000 NOSIG=
201506060800 METAR MROC 060800Z 05002KT CAVOK 20/18 A2998 NOSIG=
201506060900 METAR MROC 060900Z VRB02KT CAVOK 19/18 A2997 NOSIG=
201506061000 METAR MROC 061000Z 07005KT CAVOK 19/17 A2997 NOSIG=
201506061100 METAR MROC 061100Z 04007KT CAVOK 20/17 A2997 NOSIG=
201506061200 METAR MROC 061200Z 06005KT CAVOK 20/18 A2998 NOSIG=
201506061300 METAR MROC 061300Z 04006KT CAVOK 22/18 A3001 NOSIG=
201506061400 METAR MROC 061400Z 25005KT CAVOK 25/19 A3003 NOSIG=
201506061500 METAR MROC 061500Z 22007KT 9999 FEW035 BKN250 25/18 A3003 NOSIG=
201506061600 METAR MROC 061600Z 23008KT 9999 FEW035 BKN250 26/19 A3003 NOSIG=
201506061700 METAR MROC 061700Z 23010KT 9999 FEW035 BKN250 27/19 A3003 NOSIG=
201506061800 METAR MROC 061800Z 24012KT 9999 SCT030 BKN250 26/20 A3001 NOSIG=
201506061900 METAR MROC 061900Z 21015KT 9999 FEW025 SCT035 BKN250 27/19 A2998 NOSIG=
201506062000 METAR MROC 062000Z 24010KT 9999 VCTS VCSH FEW015CB SCT025TCU BKN100 25/20 A2996 BECMG TSRA=
201506062100 METAR MROC 062100Z 26007KT 9999 -RA VCTS VCSH FEW015CB SCT025 BKN080 24/20 A2995 RMK VIS E ENE 8KMS BECMG 5000 TSRA=
201506062200 METAR MROC 062200Z 30003KT 9999 -RA FEW015CB SCT025 BKN100 23/21 A2996 BECMG 5000 TSRA=
201506062300 METAR MROC 062300Z 03004KT 9999 -RA FEW015CB SCT030 BKN100 22/20 A2998 NOSIG=
201506070000 METAR MROC 070000Z 11003KT 9999 FEW010TCU SCT070 BKN140 22/20 A2999 RMK LOW CLDS SW WSW BECMG RA=
201506070100 METAR MROC 070100Z 05002KT 9999 FEW030 SCT070 BKN140 22/20 A3000 NOSIG=
201506070200 METAR MROC 070200Z 29003KT 9999 2000SW BCFG FEW002 SCT005 BKN140 21/21 A3002 NOSIG=
201506070300 METAR MROC 070300Z VRB02KT 9000 3500SW BCFG FEW004 SCT009 BKN140 21/20 A3003 NOSIG=
201506070400 METAR MROC 070400Z 05002KT 9999 BCFG FEW005 SCT010 SCT100 21/20 A3005 NOSIG=
201506070500 METAR MROC 070500Z 00000KT 9999 4000SW BCFG SCT005 BKN030 21/20 A3005 NOSIG=
201506070600 METAR MROC 070600Z 12003KT 9000 2000SW -DZ BCFG FEW002 SCT008 BKN100 20/19 A3004 BECMG 3000 BR=
201506070700 METAR MROC 070700Z 00000KT 9000 4000SW BCFG FEW010 SCT025 BKN100 21/19 A3002 NOSIG=
201506070800 METAR MROC 070800Z 06004KT 9999 FEW010 SCT035 BKN120 21/19 A3000 NOSIG=
201506070900 METAR MROC 070900Z 06003KT 9999 3000SW RA SCT015 BKN100 20/19 A3000 NOSIG=
201506071000 METAR MROC 071000Z 00000KT 9999 SCT020 BKN100 20/19 A2999 RERA NOSIG=
201506071100 METAR MROC 071100Z 05002KT CAVOK 20/19 A3000 NOSIG=
201506071200 METAR MROC 071200Z 00000KT CAVOK 20/19 A3001 NOSIG=
201506071300 METAR MROC 071300Z 12002KT CAVOK 22/19 A3003 NOSIG=
201506071400 METAR MROC 071400Z 25002KT CAVOK 25/19 A3004 NOSIG=
201506071500 METAR MROC 071500Z 24006KT 9999 FEW015 BKN250 24/20 A3005 NOSIG=
201506071600 METAR MROC 071600Z 22006KT 9999 FEW020 BKN250 26/20 A3004 NOSIG=
201506071700 METAR MROC 071700Z 23008KT 9999 FEW025 BKN250 26/20 A3003 NOSIG=
201506071800 METAR MROC 071800Z 24008KT 9999 -RA FEW020TCU SCT030 BKN120 25/20 A3001 BECMG SHRA=
201506071900 METAR MROC 071900Z 19002KT 9999 -RA VCSH FEW020TCU SCT030 BKN120 26/19 A2999 BECMG SHRA=
201506072000 METAR MROC 072000Z 26007KT 9999 VCSH FEW020TCU SCT030 BKN140 24/19 A2998 BECMG SHRA=
201506072100 METAR MROC 072100Z 16002KT 9999 FEW035 BKN120 25/19 A2996 NOSIG=
201506072200 METAR MROC 072200Z 30002KT 9999 FEW035 BKN120 26/19 A2995 NOSIG=
201506072300 METAR MROC 072300Z 29003KT 9999 FEW035 BKN130 26/18 A2996 NOSIG=
201506080000 METAR MROC 080000Z 21002KT 9999 FEW035 BKN130 24/20 A2998 NOSIG=
201506080100 METAR MROC 080100Z 23005KT 9999 FEW035 SCT120 23/20 A3001 NOSIG=
201506080200 METAR MROC 080200Z 02003KT 9999 -RA SCT030 BKN110 23/20 A3004 NOSIG=
201506080300 METAR MROC 080300Z 11010KT 9999 -RA FEW030 BKN100 20/18 A3004 NOSIG=
201506080400 METAR MROC 080400Z 04007KT CAVOK 21/18 A3005 NOSIG=
201506080500 METAR MROC 080500Z 11005KT CAVOK 21/17 A3006 NOSIG=
201506080600 METAR MROC 080600Z 29004KT CAVOK 21/18 A3005 NOSIG=
201506080700 METAR MROC 080700Z VRB02KT CAVOK 21/18 A3004 NOSIG=
201506080800 METAR MROC 080800Z 34006KT 9999 -RA BKN100 20/19 A3003 NOSIG=
201506080900 METAR MROC 080900Z 09004KT CAVOK 20/19 A3000 NOSIG=
201506081000 METAR MROC 081000Z 08003KT 9999 -RA BKN100 20/19 A2999 NOSIG=
201506081100 METAR MROC 081100Z 07007KT CAVOK 20/18 A3000 NOSIG=
201506081200 METAR MROC 081200Z 11005KT CAVOK 20/18 A3001 NOSIG=
201506081300 METAR MROC 081300Z 00000KT CAVOK 21/18 A3005 NOSIG=
201506081400 METAR MROC 081400Z 00000KT CAVOK 22/18 A3006 NOSIG=
201506081500 METAR MROC 081500Z 25004KT 9999 FEW030 BKN250 23/19 A3007 NOSIG=
201506081600 METAR MROC 081600Z 25007KT 9999 SCT030 BKN130 23/19 A3007 NOSIG=
201506081700 METAR MROC 081700Z 25007KT 9999 SCT030 BKN110 24/19 A3006 NOSIG=
201506081800 METAR MROC 081800Z 27005KT 9999 SCT030 BKN110 25/18 A3004 NOSIG=
201506081900 METAR MROC 081900Z 23004KT 9999 SCT030 BKN120 24/19 A3002 NOSIG=
201506082000 METAR MROC 082000Z 23004KT 9999 SCT030 BKN130 24/19 A3000 NOSIG=
201506082100 METAR MROC 082100Z 26004KT 9999 VCSH SCT030 BKN250 24/20 A2998 NOSIG=
201506082200 METAR MROC 082200Z 25004KT 9999 SCT025 BKN100 24/20 A2998 NOSIG=
201506082300 METAR MROC 082300Z 25005KT 9999 -DZ FEW008 SCT015 BKN100 23/20 A2999 BECMG RA=
201506090000 METAR MROC 090000Z 25005KT 9999 BCFG FEW002 SCT008 BKN020 22/21 A3001 BECMG 5000 BR BKN010=
201506090100 METAR MROC 090100Z 22006KT 9999 4000SW -RA BCFG SCT005 BKN020 21/20 A3003 BECMG 5000 BR=
201506090200 METAR MROC 090200Z 25006KT 4000 0500SW BR SCT002 BKN018 21/21 A3005 BECMG 0500 FG BKN008=
201506090300 METAR MROC 090300Z 26003KT 5000 1000SW BR SCT002 BKN025 21/21 A3007 NOSIG=
201506090400 METAR MROC 090400Z 27004KT 9999 4000SW BCFG FEW002 SCT005 21/20 A3007 NOSIG=
201506090500 METAR MROC 090500Z 29003KT 9999 BCFG FEW003 SCT025 21/20 A3006 NOSIG=
201506090600 METAR MROC 090600Z 25002KT 9999 BCFG FEW005 SCT020 20/19 A3004 NOSIG=
201506090700 METAR MROC 090700Z 22002KT 9999 SCT010 BKN025 20/19 A3003 NOSIG=
201506090800 METAR MROC 090800Z 33002KT 9999 SCT010 BKN025 20/20 A3003 NOSIG=
201506090900 METAR MROC 090900Z 23002KT 9999 -DZ VCFG SCT010 BKN025 21/19 A3001 NOSIG=
201506091000 METAR MROC 091000Z 28002KT 5000 2000SW -RA BR SCT002 SCT008 21/20 A3002 BECMG 2000 BR=
201506091100 METAR MROC 091100Z 27003KT 6000 3000SW BCFG SCT004 SCT012 20/19 A3002 BECMG 4000 BR=
201506091200 METAR MROC 091200Z 09004KT 9999 FEW020 BKN100 21/20 A3003 NOSIG=
201506091300 METAR MROC 091300Z 10003KT 9999 FEW020 OVC100 21/19 A3003 NOSIG=
201506091400 METAR MROC 091400Z 07004KT CAVOK 23/19 A3002 NOSIG=
201506091500 METAR MROC 091500Z 07006KT 9999 -RA BCFG FEW045 OVC100 25/19 A3001 NOSIG=
201506091600 METAR MROC 091600Z 25007KT 9999 4000N -RA BCFG FEW005 OVC100 22/21 A3001 NOSIG=
201506091700 METAR MROC 091700Z 25006KT 9999 FEW020 OVC100 25/21 A3001 NOSIG=
201506091800 METAR MROC 091800Z 25009KT 9999 SCT020 BKN150 26/20 A3000 NOSIG=
201506091900 METAR MROC 091900Z 23008KT 9999 BKN020 SCT100 25/20 A2999 NOSIG=
201506092000 METAR MROC 092000Z 24009KT 9999 BKN035 SCT100 25/20 A2997 NOSIG=
201506092100 METAR MROC 092100Z 24009KT 9999 VCSH BKN025 SCT100 24/20 A2996 NOSIG=
201506092200 METAR MROC 092200Z 24008KT 9999 VCSH FEW005 SCT025 BKN120 23/20 A2995 BECMG 5000 RA=
201506092300 METAR MROC 092300Z 24005KT 9999 RA FEW005 FEW010CB BKN025 22/20 A2997 NOSIG=
201506100000 METAR MROC 100000Z 32005KT 1200 SHRA SCT002 BKN015 21/20 A3000 RERA NOSIG=
201506100100 METAR MROC 100100Z VRB02KT 9999 SCT010 BKN030 20/19 A3002 RERA NOSIG=
201506100200 METAR MROC 100200Z 04003KT 9999 SCT020 BKN120 21/19 A3002 NOSIG=
201506100300 METAR MROC 100300Z 11002KT 9999 SCT030 BKN120 21/19 A3002 NOSIG=
201506100400 METAR MROC NIL=
201506100500 METAR MROC 100500Z 00000KT 9999 FEW004 SCT130 20/19 A3004 NOSIG=
201506100600 METAR MROC 100600Z 00000KT 2000 BR SCT001 20/19 A3003 BECMG 5000 BR=
201506100700 METAR MROC 100700Z 00000KT 8000 VCFG FEW003 SCT035 20/19 A3002 NOSIG=
201506100800 METAR MROC 100800Z 00000KT 8000 VCFG FEW003 SCT030 20/19 A3001 NOSIG=
201506100900 METAR MROC 100900Z 00000KT 8000 VCFG FEW003 BKN080 20/19 A3001 NOSIG=
201506101000 METAR MROC 101000Z 00000KT 8000 VCFG FEW003 BKN080 20/19 A3000 NOSIG=
201506101100 METAR MROC 101100Z 00000KT 8000 VCFG FEW003 BKN080 20/19 A3000 NOSIG=
201506101200 METAR MROC 101200Z 07002KT 9999 FEW003 BKN045 20/18 A3001 NOSIG=
201506101300 METAR MROC 101300Z 06004KT CAVOK 22/18 A3002 NOSIG=
201506101400 METAR MROC 101400Z 07004KT CAVOK 24/18 A3002 NOSIG=
201506101500 METAR MROC 101500Z VRB02KT CAVOK 27/18 A3003 BECMG 24007KT=
201506101600 METAR MROC 101600Z 24009KT 9999 SCT040 SCT250 25/20 A3003 NOSIG=
201506101700 METAR MROC 101700Z 25009KT 9999 VCSH FEW025TCU SCT040 BKN100 25/18 A3003 BECMG RA SCT015CB=
201506101800 METAR MROC 101800Z 26009KT 9999 VCSH FEW025TCU SCT035 BKN100 25/19 A3002 BECMG RA SCT015CB=
201506101900 METAR MROC 101900Z 27009KT 9999 VCSH FEW020TCU SCT035 SCT080 26/19 A2999 NOSIG=
201506102000 METAR MROC 102000Z 23008KT 9999 VCSH FEW020TCU BKN035 23/20 A2997 NOSIG=
201506102100 METAR MROC 102100Z 24008KT 4000 -RA FEW005 SCT015TCU BKN030 25/20 A2995 NOSIG=
201506102200 METAR MROC 102200Z 27013KT 9999 4500N FEW010 SCT020 BKN100 23/20 A2996 BECMG RA=
201506102300 METAR MROC 102300Z 30007KT 8000 3500SW VCSH FEW015 SCT025 BKN100 21/19 A2998 BECMG 2000 RA BR=
201506102354 METAR MROC 110000Z 33008KT 8000 -RA VCFG FEW015 SCT025 BKN100 21/20 A3001 BECMG 2000 RA BR=
201506110000 METAR MROC 110000Z 33008KT 8000 -RA VCFG FEW015 SCT025 BKN100 21/20 A3001 BECMG 2000 RA BR=
201506110100 METAR MROC 110100Z 11004KT 8000 RA VCFG SCT025 BKN100 21/20 A3001 NOSIG=
201506110200 METAR MROC 110200Z 06005KT 8000 -RA VCFG FEW025 BKN100 21/19 A3003 NOSIG=
201506110300 METAR MROC 110300Z 06010KT 9999 BCFG FEW030 SCT100 21/18 A3002 NOSIG=
201506110400 METAR MROC 110400Z 08002KT 9999 BCFG NSC 21/18 A3001 NOSIG=
201506110430 METAR MROC 110430Z 28003KT 9999 BCFG NSC 20/19 A3001 NOSIG=
201506110500 METAR MROC 110500Z 29003KT 9999 BCFG NSC 20/19 A3000 NOSIG=
201506110600 METAR MROC 110600Z 01004KT 9999 BCFG NSC 20/19 A2998 NOSIG=
201506110700 METAR MROC 110700Z 00000KT 9999 -DZ BCFG NSC 20/19 A2997 NOSIG=
201506110800 METAR MROC 110800Z 07001KT 9999 BCFG NSC 20/18 A2995 NOSIG=
201506110900 METAR MROC 110900Z 33002KT 9999 BCFG NSC 20/18 A2995 NOSIG=
201506111000 METAR MROC 111000Z 25003KT 9999 3000SW BCFG FEW001 BKN100 19/18 A2999 NOSIG=
201506111028 METAR MROC 111028Z 06002KT 9999 3000SW -RA BR SCT001 BKN100 20/19 A2999 NOSIG=
201506111100 METAR MROC 111100Z 08003KT 9999 BCFG FEW008 BKN100 19/18 A2999 NOSIG=
201506111200 METAR COR MROC 111200Z 05005KT 9999 VCFG FEW045 SCT100 21/18 A3000 NOSIG=
201506111300 METAR MROC 111300Z 07009KT CAVOK 23/17 A3001 BECMG 22006KT=
201506111400 METAR MROC 111400Z 10012KT CAVOK 24/18 A3002 BECMG 22006KT=
201506111500 METAR MROC 111500Z 10016KT CAVOK 26/18 A3002 NOSIG=
201506111600 METAR MROC 111600Z 10014KT CAVOK 26/17 A3000 NOSIG=
201506111700 METAR MROC 111700Z 10013KT 9999 FEW035 SCT120 BKN200 27/17 A2999 NOSIG=
201506111800 METAR MROC 111800Z 11013KT 9999 FEW045 SCT120 28/17 A2998 NOSIG=
201506111900 METAR MROC 111900Z 11013KT 9999 FEW025TCU BKN250 30/18 A2995 NOSIG=
201506112000 METAR MROC 112000Z 23016KT 9999 VCSH FEW020TCU SCT035 BKN100 25/21 A2994 BECMG RA=
201506112100 METAR MROC 112100Z 27009KT 9999 4000SW -TSRA FEW015CB SCT025 BKN080 21/20 A2995 BECMG 5000 RA BR=
201506112200 METAR MROC 112200Z 31005KT 9999 SCT015 BKN025 21/20 A2995 RETSRA NOSIG=
201506112300 METAR MROC 112300Z 30005KT 9999 FEW020 BKN030 22/19 A2997 NOSIG=
201506120000 METAR MROC 120000Z 29003KT 9999 FEW010 BKN030 22/19 A2998 NOSIG=
201506120100 METAR MROC 120100Z 26003KT 9999 FEW010 BKN035 21/19 A3001 BECMG BCFG=
201506120200 METAR MROC 120200Z 33002KT 9999 FEW015 SCT040 21/19 A3001 NOSIG=
201506120300 METAR MROC 120300Z 23002KT 9999 FEW020 SCT060 21/19 A3003 NOSIG=
201506120400 METAR MROC 120400Z 12003KT 9999 FEW025 SCT130 24/19 A3003 NOSIG=
201506120500 METAR MROC 120500Z 07003KT CAVOK 20/19 A3004 NOSIG=
201506120600 METAR MROC 120600Z 06004KT CAVOK 20/19 A3001 NOSIG=
201506120700 METAR MROC 120700Z 04004KT CAVOK 20/18 A2999 NOSIG=
201506120800 METAR MROC 120800Z 09003KT CAVOK 20/18 A2997 NOSIG=
201506120900 METAR MROC 120900Z 07003KT CAVOK 20/20 A2997 NOSIG=
201506121000 METAR MROC 121000Z 33002KT CAVOK 20/18 A2998 NOSIG=
201506121100 METAR MROC 121100Z 11003KT CAVOK 20/18 A3000 NOSIG=
201506121200 METAR MROC 121200Z COR 06003KT CAVOK 20/18 A3001 NOSIG=
201506121300 METAR MROC 121300Z 07005KT CAVOK 23/18 A3002 NOSIG=
201506121400 METAR MROC 121400Z 10005KT CAVOK 26/18 A3000 NOSIG=
201506121500 METAR MROC 121500Z 11006KT CAVOK 28/18 A3001 NOSIG=
201506121600 METAR MROC 121600Z 26008KT 9999 SCT040 27/19 A3001 NOSIG=
201506121700 METAR MROC 021700Z 23009KT 9999 FEW035TCU SCT300 27/20 A3001 NOSIG=
201506121800 METAR MROC 121800Z 24011KT 9999 VCSH FEW020CB SCT035 26/21 A2999 BECMG SHRA=
201506121900 METAR MROC 121900Z 23005KT 9999 VCTS VCSH SCT015CB SCT025 25/21 A2999 BECMG 5000 TSRA=
201506122000 METAR MROC 122000Z 32005KT 9999 3000N TSRA SCT015CB BKN025 22/20 A2999 BECMG 5000=
201506122100 METAR MROC 122100Z 08003KT 9999 -RA SCT030 BKN100 20/20 A3000 BECMG RA=
201506122200 METAR MROC 122200Z 08003KT 9999 FEW030 BKN100 21/20 A2999 NOSIG=
201506122300 METAR MROC 122300Z 07005KT 9999 -RA FEW030 BKN100 22/19 A3000 NOSIG=
201506130000 METAR MROC 130000Z 11006KT 9999 FEW030 BKN220 22/19 A2997 NOSIG=
201506130100 METAR MROC 130100Z 06005KT CAVOK 22/18 A2998 NOSIG=
201506130200 METAR MROC 130200Z 11002KT CAVOK 21/18 A2999 NOSIG=
201506130300 METAR MROC 130300Z 14002KT CAVOK 21/18 A3000 NOSIG=
201506130400 METAR MROC 130400Z 09006KT CAVOK 21/17 A3003 NOSIG=
201506130500 METAR MROC 130500Z 05006KT CAVOK 20/18 A3003 NOSIG=
201506130600 METAR MROC 130600Z 06007KT CAVOK 20/17 A3001 NOSIG=
201506130700 METAR MROC 130700Z 07008KT CAVOK 19/17 A2999 NOSIG=
201506130800 METAR MROC 130800Z 04007KT CAVOK 19/17 A2998 NOSIG=
201506130900 METAR MROC 130900Z 10006KT CAVOK 19/16 A2998 NOSIG=
201506131000 METAR MROC 131000Z 07007KT CAVOK 19/16 A2999 NOSIG=
201506131100 METAR MROC 131100Z 07006KT CAVOK 19/16 A2998 NOSIG=
201506131200 METAR MROC 131200Z 11005KT CAVOK 18/16 A3000 NOSIG=
201506131300 METAR MROC 131300Z 02003KT CAVOK 23/17 A3002 NOSIG=
201506131400 METAR MROC 131400Z 08004KT CAVOK 26/17 A3003 NOSIG=
201506131500 METAR MROC 131500Z 32004KT CAVOK 28/17 A3002 NOSIG=
201506131600 METAR MROC 131600Z 24007KT 9999 FEW040 SCT250 27/18 A3003 NOSIG=
201506131700 METAR MROC 131700Z 25007KT 9999 SCT040 BKN250 28/18 A3002 NOSIG=
201506131800 METAR MROC 131800Z 24010KT 9999 SCT035 BKN250 27/18 A3000 NOSIG=
201506131900 METAR MROC 131900Z 24010KT 9999 SCT030 BKN230 27/21 A2998 NOSIG=
201506132000 METAR MROC 132000Z 24010KT 9999 SCT030 BKN200 27/21 A2997 NOSIG=
201506132100 METAR MROC 132100Z 26011KT 9999 SCT030TCU SCT040 25/21 A2995 NOSIG=
201506132200 METAR MROC 132200Z 26007KT 9999 SCT030TCU BKN200 24/20 A2995 NOSIG=
201506132300 METAR MROC 132300Z 27005KT 9999 SCT030 BKN200 24/20 A2997 NOSIG=
201506140000 METAR MROC 140000Z 28004KT 9999 FEW010 BKN060 23/20 A2998 NOSIG=
201506140100 METAR MROC 140100Z 20001KT 9999 FEW010 SCT060 22/21 A3000 NOSIG=
201506140200 METAR MROC 140200Z 07003KT 9999 FEW030 SCT060 22/21 A3001 NOSIG=
201506140300 METAR MROC 140300Z 09003KT CAVOK 22/20 A3000 NOSIG=
201506140400 METAR MROC 140400Z 07003KT CAVOK 21/19 A3002 NOSIG=
201506140500 METAR MROC 140500Z 05005KT CAVOK 20/18 A3002 NOSIG=
201506140600 METAR MROC 140600Z 03004KT CAVOK 20/18 A3001 NOSIG=
201506140700 METAR MROC 140700Z 14003KT CAVOK 20/18 A3000 NOSIG=
201506140800 METAR MROC 140800Z 08004KT CAVOK 20/18 A2998 NOSIG=
201506140900 METAR MROC 140900Z 02004KT CAVOK 20/18 A2995 NOSIG=
201506141000 METAR MROC 141000Z 02005KT CAVOK 20/17 A2996 NOSIG=
201506141100 METAR MROC 141100Z 04006KT CAVOK 21/17 A2997 NOSIG=
201506141200 METAR MROC 141200Z 05005KT CAVOK 22/17 A2999 NOSIG=
201506141300 METAR MROC 141300Z 06007KT CAVOK 22/18 A2999 NOSIG=
201506141400 METAR MROC 141400Z 07006KT CAVOK 24/18 A3000 NOSIG=
201506141500 METAR MROC 141500Z 10009KT CAVOK 26/18 A3000 NOSIG=
201506141600 METAR MROC 141600Z 10012G22KT 9999 FEW040 BKN100 29/18 A3000 NOSIG=
201506141700 METAR MROC 141700Z 09014KT 9999 FEW040 BKN200 29/17 A2998 NOSIG=
201506141800 METAR MROC 141800Z 11013G24KT 9999 FEW040 BKN200 28/18 A2996 NOSIG=
201506141900 METAR MROC 141900Z 12009KT 9999 FEW030 BKN200 29/18 A2994 NOSIG=
201506142000 METAR MROC 142000Z 13011KT 9999 FEW030 BKN200 29/16 A2992 NOSIG=
201506142100 METAR MROC 142100Z 10010KT 9999 FEW030 BKN200 27/17 A2991 NOSIG=
201506142200 METAR MROC 142200Z 09008KT 9999 SCT040 SCT200 27/16 A2992 NOSIG=
201506142300 METAR MROC 142300Z 10009KT 9999 FEW045 SCT250 26/15 A2994 NOSIG=
201506150000 METAR MROC 150000Z 12007KT 9999 FEW045 25/15 A2994 NOSIG=
201506150100 METAR MROC 150100Z 09005KT CAVOK 23/16 A2998 NOSIG=
201506150200 METAR MROC 150200Z 06005KT CAVOK 22/16 A2999 NOSIG=
201506150300 METAR MROC 150300Z VRB02KT CAVOK 23/16 A3002 NOSIG=
201506150400 METAR MROC 150400Z 06007KT CAVOK 22/17 A3002 NOSIG=
201506150500 METAR MROC 150500Z 05006KT CAVOK 21/17 A3001 NOSIG=
201506150600 METAR MROC 150600Z 09007KT CAVOK 22/17 A3000 NOSIG=
201506150700 METAR MROC 150700Z 07006KT CAVOK 21/17 A2998 NOSIG=
201506150800 METAR MROC 150800Z 05009KT CAVOK 21/16 A2995 NOSIG=
201506150900 METAR MROC 150900Z 06007KT CAVOK 22/17 A2993 NOSIG=
201506151000 METAR MROC 151000Z 09008KT CAVOK 21/16 A2992 NOSIG=
201506151100 METAR MROC 151100Z 10013KT CAVOK 22/17 A2991 NOSIG=
201506151200 METAR MROC 151200Z 11010G20KT CAVOK 23/17 A2994 NOSIG=
201506151300 METAR MROC 151300Z 10009KT CAVOK 24/18 A2996 NOSIG=
201506151400 METAR MROC 151400Z 09007KT 9999 FEW045 SCT250 26/18 A2998 NOSIG=
201506151500 METAR MROC 151500Z 09008KT 9999 FEW045 SCT250 28/18 A3000 NOSIG=
201506151600 METAR MROC 151600Z 14005KT 9999 FEW045 SCT250 29/18 A2999 NOSIG=
201506151700 METAR MROC 151700Z 16006KT 9999 SCT040 SCT250 30/18 A2997 NOSIG=
201506151800 METAR MROC 151800Z 13004KT 9999 SCT040 BKN080 30/18 A2996 NOSIG=
201506151845 METAR MROC 151845Z 24004KT 9999 SCT035 BKN080 29/19 A2994 NOSIG=
201506151900 METAR MROC 151900Z 26007KT 9999 SCT035 BKN070 29/18 A2994 NOSIG=
201506152000 METAR MROC 152000Z 21005KT 9999 FEW030 SCT060 SCT250 29/21 A2992 NOSIG=
201506152100 METAR MROC 152100Z 09011KT 9999 FEW030 BKN250 28/18 A2989 NOSIG=
201506152200 METAR MROC 152200Z 25008KT 9999 VCSH FEW015TCU SCT030 BKN100 26/22 A2989 BECMG RA=
201506152300 METAR MROC 152300Z 10010G20KT 9999 FEW030 SCT080 BKN200 25/18 A2989 NOSIG=
201506160000 METAR MROC 160000Z 10015KT 9999 FEW030 SCT080 BKN250 25/18 A2991 NOSIG=
201506160100 METAR MROC 160100Z 08010G20KT 9999 FEW030 SCT080 24/18 A2993 NOSIG=
201506160200 METAR MROC 160200Z 10016KT 9999 FEW030 SCT080 23/18 A2995 NOSIG=
201506160300 METAR MROC 160300Z 09016KT 9999 FEW030 23/18 A2996 NOSIG=
201506160400 METAR MROC 160400Z 10012KT 9999 FEW030 23/17 A2997 NOSIG=
201506160500 METAR MROC 160500Z 09010KT 9999 FEW030 24/17 A2997 NOSIG=
201506160600 METAR MROC 160600Z 09009KT 9999 FEW030 23/17 A2996 NOSIG=
201506160700 METAR MROC 160700Z 10010KT 9999 FEW030 23/18 A2995 NOSIG=
201506160800 METAR COR MROC 160800Z 10009KT 9999 FEW030 23/18 A2994 NOSIG=
201506160900 METAR MROC 160900Z 10008KT 9999 FEW030 23/18 A2992 NOSIG=
201506161000 METAR MROC 161000Z 12006KT 9999 FEW030 22/18 A2992 NOSIG=
201506161100 METAR MROC 161100Z 12008KT 9999 FEW030 23/18 A2992 NOSIG=
201506161200 METAR MROC 161200Z 11009KT 9999 FEW040 BKN100 23/18 A2992 NOSIG=
201506161300 METAR MROC 161300Z 12012KT 9999 FEW035 BKN200 24/18 A2995 NOSIG=
201506161400 METAR MROC 161400Z 10017KT 9999 FEW035 BKN200 25/18 A2996 NOSIG=
201506161500 METAR MROC 161500Z 11015KT 9999 FEW035 BKN200 27/18 A2997 NOSIG=
201506161600 METAR MROC 161600Z 08010G20KT 9999 FEW035 BKN200 28/18 A2998 NOSIG=
201506161700 METAR MROC 161700Z 07010G20KT 9999 FEW035 BKN200 29/17 A2995 NOSIG=
201506161800 METAR MROC 161800Z 08013G23KT 9999 FEW035 BKN200 28/18 A2995 NOSIG=
201506161900 METAR MROC 161900Z 07010G20KT 9999 SCT030 BKN200 28/18 A2994 NOSIG=
201506162000 METAR MROC 162000Z 08010G20KT 9999 SCT030 BKN200 27/18 A2992 NOSIG=
201506162100 METAR MROC 162100Z 07013G23KT 9999 SCT035 BKN200 27/18 A2991 NOSIG=
201506162200 METAR MROC 162200Z 07011G21KT 9999 FEW035 SCT120 BKN200 26/17 A2991 NOSIG=
201506162300 METAR MROC 162300Z 07007KT 9999 FEW030 SCT060 BKN200 26/17 A2993 NOSIG=
201506170000 METAR MROC 170000Z 11008KT 9999 FEW030 BKN250 24/17 A2993 NOSIG=
201506170100 METAR MROC 170100Z 11010KT 9999 FEW030 BKN250 23/18 A2995 NOSIG=
201506170200 METAR MROC 170200Z 11010KT 9999 FEW030 BKN250 23/18 A2995 NOSIG=
201506170300 METAR MROC 170300Z 10012KT 9999 FEW030 BKN180 23/18 A2996 NOSIG=
201506170400 METAR MROC 170400Z 11010G20KT 9999 FEW030 SCT120 23/19 A2996 NOSIG=
201506170700 METAR MROC 170700Z 09006KT 9999 FEW030 24/18 A2995 NOSIG=
201506170800 METAR MROC 170800Z 08004KT 9999 FEW030 23/18 A2993 NOSIG=
201506171000 METAR MROC 171000Z 06003KT 9999 FEW030 22/18 A2991 NOSIG=
201506171100 METAR MROC 171100Z 10006KT 9999 FEW030 SCT120 23/18 A2992 NOSIG=
201506171200 METAR MROC 171200Z 08006KT 9999 FEW030 BKN200 23/18 A2994 NOSIG=
201506171300 METAR MROC 171300Z 04002KT 9999 FEW030 BKN200 24/19 A2995 NOSIG=
201506171400 METAR MROC 171400Z 07009KT 9999 FEW030 SCT070 BKN200 25/19 A2997 NOSIG=
201506171500 METAR MROC 171500Z 07016G26KT 9999 FEW030 SCT100 BKN200 27/18 A2996 NOSIG=
201506171600 METAR MROC 171600Z 11011G21KT 9999 -RA FEW030 SCT100 BKN200 24/19 A2995 NOSIG=
201506171700 METAR MROC 171700Z 09015G26KT 9999 SCT035 SCT070 27/19 A2995 NOSIG=
201506171800 METAR MROC 171800Z 09012G22KT 9999 FEW035 BKN250 28/17 A2994 NOSIG=
201506171900 METAR MROC 171900Z 07014KT 9999 FEW035 BKN250 28/16 A2992 NOSIG=
201506172000 METAR MROC 172000Z 08012KT 9999 FEW035 SCT120 BKN250 28/17 A2990 NOSIG=
201506172100 METAR MROC 172100Z 09011G22KT 9999 FEW035 SCT120 BKN250 28/17 A2989 NOSIG=
201506172200 METAR MROC 172200Z 11008KT 9999 FEW035 SCT120 BKN250 27/17 A2991 NOSIG=
201506172300 METAR MROC 172300Z 08007KT 9999 FEW035 SCT120 BKN250 26/18 A2992 NOSIG=
201506180000 METAR MROC 180000Z 12008KT 9999 FEW035 SCT120 BKN250 25/17 A2994 NOSIG=
201506180100 METAR MROC 180100Z 10007KT CAVOK 24/17 A2997 NOSIG=
201506180200 METAR MROC 180200Z 12005KT CAVOK 24/18 A2998 NOSIG=
201506180300 METAR MROC 180300Z 07003KT CAVOK 24/18 A2999 NOSIG=
201506180400 METAR MROC 180400Z 06004KT CAVOK 22/18 A3000 NOSIG=
201506180500 METAR MROC 180500Z 04005KT CAVOK 22/18 A3001 NOSIG=
201506180600 METAR MROC 180600Z 04007KT CAVOK 22/18 A2999 NOSIG=
201506180700 METAR MROC 180700Z 09004KT CAVOK 21/18 A2996 NOSIG=
201506180800 METAR MROC 180800Z 04008KT CAVOK 22/18 A2995 NOSIG=
201506180900 METAR MROC 180900Z 06010KT CAVOK 23/18 A2992 NOSIG=
201506181000 METAR MROC 181000Z 09013KT CAVOK 23/18 A2990 NOSIG=
201506181100 METAR MROC 181100Z 10010G20KT CAVOK 23/18 A2991 NOSIG=
201506181200 METAR MROC 181200Z 10015KT 9999 FEW045 SCT120 BKN200 23/18 A2994 NOSIG=
201506181300 METAR MROC 181300Z 12010KT 9999 FEW040 SCT130 BKN250 24/18 A2995 NOSIG=
201506181400 METAR MROC 181400Z 11011G23KT 9999 FEW040 SCT130 27/18 A2996 NOSIG=
201506181500 METAR MROC 181500Z 10010KT CAVOK 27/18 A2996 NOSIG=
201506181600 METAR MROC 181600Z 11009KT 9999 FEW040 SCT130 28/18 A2994 NOSIG=
201506181700 METAR MROC 181700Z 10012KT 9999 FEW040 30/18 A2994 NOSIG=
201506181800 METAR MROC 181800Z 10010KT 9999 FEW040 SCT230 31/18 A2993 NOSIG=
201506181900 METAR MROC 181900Z 09012KT 9999 SCT035 31/17 A2991 NOSIG=
201506182000 METAR MROC 182000Z 08012KT 9999 SCT035 31/16 A2989 NOSIG=
201506182100 METAR MROC 182100Z 11006KT 9999 -RA VCSH SCT030CB BKN100 25/20 A2990 NOSIG=
201506182200 METAR MROC 182200Z 11009KT 9999 FEW030 BKN100 25/19 A2988 NOSIG=
201506182300 METAR MROC 182300Z 10011G21KT 9999 FEW030 BKN100 25/18 A2987 NOSIG=
201506190000 METAR MROC 190000Z 09009KT 9999 FEW030 SCT100 BKN200 25/17 A2991 NOSIG=
201506190100 METAR MROC 190100Z 07010KT 9999 FEW030 24/17 A2992 NOSIG=
201506190200 METAR MROC 190200Z 09007KT 9999 FEW030 24/18 A2994 NOSIG=
201506190300 METAR MROC 190300Z 10006KT 9999 FEW030 24/17 A2996 NOSIG=
201506190400 METAR MROC 190400Z 08009KT CAVOK 24/17 A2995 NOSIG=
201506190500 METAR MROC 190500Z 08013KT CAVOK 24/17 A2995 NOSIG=
201506190600 METAR MROC 190600Z 08012KT CAVOK 24/17 A2994 NOSIG=
201506190700 METAR MROC 190700Z 08012KT CAVOK 24/17 A2992 NOSIG=
201506190800 METAR MROC 190800Z 09012KT CAVOK 23/18 A2991 NOSIG=
201506190900 METAR MROC 190900Z 09012G22KT CAVOK 24/17 A2990 NOSIG=
201506191000 METAR MROC 191000Z 09013KT 9999 FEW035 23/18 A2991 NOSIG=
201506191100 METAR MROC 191100Z 09013KT 9999 FEW035 24/17 A2990 NOSIG=
201506191200 METAR MROC 191200Z 09012G22KT 9999 FEW030 BKN200 24/17 A2994 NOSIG=
201506191300 METAR MROC 191300Z 10013KT 9999 FEW030 BKN200 24/18 A2995 NOSIG=
201506191400 METAR MROC 191400Z 09014KT 9999 FEW030 SCT100 26/18 A2996 NOSIG=
201506191500 METAR MROC 191500Z 10011KT 9999 FEW030 SCT100 28/18 A2994 NOSIG=
201506191600 METAR MROC 191600Z 09015KT 9999 FEW030 SCT100 BKN200 27/17 A2995 NOSIG=
201506191700 METAR MROC 191700Z 10012KT 9999 FEW045 29/17 A2994 NOSIG=
201506191800 METAR MROC 191800Z 09013G23KT 9999 FEW040 29/18 A2992 NOSIG=
201506191900 METAR MROC 191900Z 07011KT 9999 SCT040 30/18 A2991 NOSIG=
201506192000 METAR MROC 192000Z 07009KT 9999 SCT035 30/18 A2989 NOSIG=
201506192100 METAR MROC 192100Z 09008KT 9999 SCT040 SCT250 29/17 A2989 NOSIG=
201506192200 METAR MROC 192200Z 12003KT 9999 FEW030 SCT060 SCT100 28/18 A2990 NOSIG=
201506192300 METAR MROC 192300Z 20005KT 9999 FEW035 BKN200 26/21 A2992 NOSIG=
201506200000 METAR MROC 200000Z 32003KT 9999 FEW035 BKN200 24/21 A2993 NOSIG=
201506200100 METAR MROC 200100Z 11006KT 9999 FEW035 BKN250 24/18 A2993 NOSIG=
201506200200 METAR MROC 200200Z 12010G20KT CAVOK 24/19 A2996 NOSIG=
201506200300 METAR MROC 200300Z 07006KT CAVOK 24/19 A2999 NOSIG=
201506200400 METAR MROC 200400Z 03008KT CAVOK 23/19 A2998 NOSIG=
201506200500 METAR MROC 200500Z 09007KT CAVOK 23/18 A2998 NOSIG=
201506200600 METAR MROC 200600Z 06007KT 9999 SCT035 23/18 A3000 NOSIG=
201506200700 METAR MROC 200700Z 02006KT 9999 SCT035 23/18 A2997 NOSIG=
201506200800 METAR MROC 200800Z 05007KT 9999 SCT035 23/18 A2996 NOSIG=
201506200900 METAR MROC 200900Z 08007KT 9999 SCT035 23/18 A2997 NOSIG=
201506201000 METAR MROC 201000Z 04005KT 9999 -RA SCT035 23/18 A2994 BECMG RA=
201506201100 METAR MROC 201100Z 10011KT 9999 -RA FEW025 SCT035 BKN100 23/18 A2994 BECMG 10012G22KT RA=
201506201200 METAR MROC 201200Z 08010KT 9999 FEW035 BKN140 23/18 A2994 NOSIG=
201506201300 METAR MROC 201300Z 09009KT 9999 FEW035 BKN100 23/19 A2998 NOSIG=
201506201400 METAR MROC 201400Z 11009KT 9999 FEW035 OVC100 25/19 A2998 NOSIG=
201506201500 METAR MROC 201500Z 10013G23KT 9999 SCT040 BKN200 26/18 A3000 NOSIG=
201506201600 METAR MROC 201600Z 09012G22KT 9999 FEW040 SCT060 BKN200 27/18 A3000 NOSIG=
201506201700 METAR MROC 201700Z 09011KT 9999 FEW035 SCT120 BKN250 27/18 A3000 NOSIG=
201506201800 METAR MROC 201800Z 06010KT 9999 FEW035 BKN120 28/18 A2998 NOSIG=
201506201900 METAR MROC 201900Z 09009KT 9999 FEW040 BKN120 29/18 A2997 NOSIG=
201506202000 METAR MROC 202000Z 11014G24KT 9999 FEW035 BKN120 27/18 A2996 NOSIG=
201506202100 METAR MROC 202100Z 10010G20KT 9999 FEW035 BKN120 27/18 A2994 NOSIG=
201506202200 METAR MROC 202200Z 11010G20KT 9999 FEW035 BKN120 26/18 A2995 NOSIG=
201506202300 METAR MROC 202300Z 12011KT 9999 SCT030 BKN120 25/18 A2999 NOSIG=
201506210000 METAR MROC 210000Z 12011KT 9999 FEW030 SCT120 BKN250 24/18 A3000 NOSIG=
201506210100 METAR MROC 210100Z 10008KT 9999 FEW030 SCT150 24/18 A2999 NOSIG=
201506210200 METAR MROC 210200Z 07012KT 9999 FEW030 SCT100 24/18 A2999 NOSIG=
201506210300 METAR MROC 210300Z 11010G20KT 9999 FEW030 BKN100 24/18 A3003 NOSIG=
201506210400 METAR MROC 210400Z 09005KT 9999 FEW030 SCT100 23/18 A3003 NOSIG=
201506210500 METAR MROC 210500Z 07008KT 9999 FEW030 SCT100 23/18 A3002 NOSIG=
201506210600 METAR MROC 210600Z 10008KT 9999 -RA FEW030 SCT100 23/18 A3001 NOSIG=
201506210700 METAR MROC 210700Z 05008KT 9999 -DZ FEW030 SCT100 23/19 A3000 NOSIG=
201506210800 METAR MROC 210800Z 05007KT 9999 FEW030 SCT100 22/18 A3000 NOSIG=
201506210900 METAR MROC 210900Z 07003KT 9999 -RA FEW030 BKN100 22/19 A2999 NOSIG=
201506211000 METAR MROC 211000Z 08005KT 9999 VCTS FEW030 BKN100 22/18 A3000 NOSIG=
201506211100 METAR MROC 211100Z 03008KT 9999 4000SW RA FEW045 BKN100 20/18 A3001 NOSIG=
201506211200 METAR MROC 211200Z 08009KT 9999 -RA FEW045 BKN100 20/19 A3001 NOSIG=
201506211300 METAR MROC 211300Z 07009KT 9999 -RA BKN100 SCT200 21/18 A3001 NOSIG=
201506211400 METAR MROC 211400Z 10015KT 9999 -RA BKN100 SCT200 21/18 A3001 NOSIG=
201506211500 METAR MROC 211500Z 10013KT 9999 FEW045 BKN100 24/19 A3003 NOSIG=
201506211600 METAR MROC 211600Z 10016KT 9999 FEW045 BKN100 24/18 A3005 NOSIG=
201506211700 METAR MROC 211700Z 13015KT 9000 -RA FEW045 BKN100 22/19 A3007 NOSIG=
201506211800 METAR MROC 211800Z 10017KT 9999 -RA BKN100 SCT200 23/19 A3003 NOSIG=
201506211900 METAR MROC 211900Z 11011KT CAVOK 24/19 A3001 NOSIG=
201506212000 METAR MROC 212000Z 09009KT 9999 FEW030 BKN100 25/17 A3002 NOSIG=
201506212100 METAR MROC 212100Z 06004KT 9999 -RA NSC 23/18 A3001 NOSIG=
201506212200 METAR MROC 212200Z 08005KT 9999 -RA NSC 22/18 A3001 NOSIG=
201506212300 METAR MROC 212300Z 05005KT 9999 -RA NSC 21/18 A3000 NOSIG=
201506220000 METAR MROC 220000Z 09006KT 9999 -RA NSC 21/18 A3000 NOSIG=
201506220100 METAR MROC 220100Z 09007KT 9999 -RA NSC 21/18 A3001 NOSIG=
201506220200 METAR MROC 220200Z 10010KT 9999 -RA NSC 21/18 A3004 NOSIG=
201506220300 METAR MROC 220300Z 10010KT 9999 FEW035 BKN100 22/18 A3004 NOSIG=
201506220400 METAR MROC 220400Z 12006KT 9999 FEW035 BKN100 22/18 A3006 NOSIG=
201506220500 METAR MROC 220500Z 07005KT CAVOK 22/17 A3004 NOSIG=
201506220600 METAR MROC 220600Z 09008KT CAVOK 22/16 A3000 NOSIG=
201506220700 METAR MROC 220700Z 09010G20KT CAVOK 22/16 A2996 NOSIG=
201506220800 METAR MROC 220800Z 12012G22KT 9999 FEW030 SCT120 21/17 A2997 NOSIG=
201506220900 METAR MROC 220900Z 11010KT 9999 FEW035 SCT120 22/17 A2997 NOSIG=
201506221000 METAR MROC 221000Z 09013G23KT 9999 FEW035 SCT100 22/17 A2995 NOSIG=
201506221100 METAR MROC 221100Z 11009KT 9999 FEW035 SCT070 BKN250 22/17 A2995 NOSIG=
201506221200 METAR MROC 221200Z 10006KT 9999 FEW035 BKN250 22/17 A2999 NOSIG=
201506221300 METAR MROC 221300Z 11009KT 9999 FEW035 BKN270 24/18 A2999 NOSIG=
201506221400 METAR MROC 221400Z 10012G22KT 9999 FEW035 SCT200 25/18 A3000 NOSIG=
201506221500 METAR MROC 221500Z 09012G22KT 9999 FEW030 SCT120 BKN200 26/19 A3001 NOSIG=
201506221600 METAR MROC 221600Z 10012G22KT 9999 -RA FEW030 SCT120 BKN200 25/19 A2999 NOSIG=
201506221700 METAR MROC 221700Z 10011G21KT 9999 FEW030 SCT120 BKN250 28/18 A2997 NOSIG=
201506221800 METAR MROC 221800Z 08011G21KT 9999 -RA FEW030 SCT070 BKN140 25/18 A3000 NOSIG=
201506221900 METAR MROC 221900Z 10008KT 9999 -RA FEW030 BKN100 23/18 A2998 NOSIG=
201506222000 METAR MROC 222000Z 08010G20KT 9999 -RA FEW030 BKN100 23/17 A2998 NOSIG=
201506222100 METAR MROC 222100Z 09013KT 9999 -RA FEW030 BKN100 23/16 A2995 NOSIG=
201506222200 METAR MROC 222200Z 10012G23KT 9999 FEW030 BKN100 23/16 A2994 NOSIG=
201506222300 METAR MROC 222300Z 08013G23KT 9999 FEW030 BKN100 23/16 A2994 NOSIG=
201506230000 METAR MROC 230000Z 10012KT CAVOK 23/16 A2994 NOSIG=
201506230100 METAR MROC 230100Z 09010G20KT CAVOK 22/16 A2996 NOSIG=
201506230200 METAR MROC 230200Z 10012KT CAVOK 22/17 A2997 NOSIG=
201506230300 METAR MROC 230300Z 10013G23KT CAVOK 22/17 A2998 NOSIG=
201506230400 METAR MROC 230400Z 11012G22KT 9999 FEW045 SCT100 22/17 A3000 NOSIG=
201506230500 METAR MROC 230500Z 10012G22KT 9999 FEW035 SCT120 22/17 A3000 NOSIG=
201506230600 METAR MROC 230600Z 10014G24KT 9999 FEW035 22/17 A2998 NOSIG=
201506230700 METAR MROC 230700Z 10015G25KT 9999 FEW035 23/17 A2996 NOSIG=
201506230800 METAR MROC 230800Z 11011G21KT 9999 FEW035 22/17 A2995 NOSIG=
201506230900 METAR MROC 230900Z 10010G20KT 9999 FEW035 22/18 A2996 NOSIG=
201506231000 METAR MROC 231000Z 10017KT 9999 FEW035 22/17 A2995 NOSIG=
201506231100 METAR MROC 231100Z 11010G22KT 9999 FEW035 SCT120 22/18 A2996 NOSIG=
201506231200 METAR MROC 231200Z 11015KT 9999 FEW035 SCT120 BKN250 22/18 A2997 NOSIG=
201506231300 METAR MROC 231300Z 12012KT 9999 FEW035 SCT120 BKN250 23/18 A2998 NOSIG=
201506231400 METAR MROC 231400Z 10010G20KT 9999 FEW035 SCT120 BKN250 25/17 A2998 NOSIG=
201506231500 METAR MROC 231500Z 09010G20KT 9999 SCT035 BKN120 26/17 A3001 NOSIG=
201506231600 METAR MROC 231600Z 09012KT 9999 FEW030 SCT130 28/18 A3001 NOSIG=
201506231700 METAR MROC 231700Z 08011G21KT 9999 FEW030 SCT130 27/18 A3000 NOSIG=
201506231800 METAR MROC 231800Z 08012G22KT 9999 FEW030 SCT130 28/17 A2997 NOSIG=
201506231900 METAR MROC 231900Z 09016G26KT 9999 FEW030 SCT230 28/17 A2994 NOSIG=
201506232000 METAR MROC 232000Z 08013G23KT 9999 FEW030 SCT140 28/17 A2992 NOSIG=
201506232100 METAR MROC 232100Z 08013G23KT 9999 FEW035 SCT150 28/17 A2991 NOSIG=
201506232200 METAR MROC 232200Z 07013KT 9999 FEW035 SCT200 27/15 A2991 NOSIG=
201506232300 METAR MROC 232300Z 08012KT 9999 FEW035 BKN200 26/16 A2992 NOSIG=
201506240000 METAR MROC 240000Z 10008KT 9999 FEW030 BKN200 25/16 A2994 NOSIG=
201506240100 METAR MROC 240100Z 10010KT 9999 FEW030 23/17 A2994 NOSIG=
201506240200 METAR MROC 240200Z 11009KT 9999 FEW030 23/18 A2996 NOSIG=
201506240300 METAR MROC 240300Z 10013KT 9999 FEW030 23/18 A2997 NOSIG=
201506240400 METAR MROC 240400Z 09010G20KT 9999 FEW030 23/18 A2999 NOSIG=
201506240500 METAR MROC 240500Z 09013G23KT 9999 FEW0390 23/17 A2998 NOSIG=
201506240600 METAR MROC 240600Z 10014G25KT CAVOK 23/18 A2995 NOSIG=
201506240700 METAR MROC 240700Z 08014KT CAVOK 23/18 A2995 NOSIG=
201506240800 METAR MROC 240800Z 10010G21KT CAVOK 23/17 A2994 NOSIG=
201506240900 METAR MROC 240900Z 09013G23KT CAVOK 23/17 A2993 NOSIG=
201506241000 METAR MROC 241000Z 10011G21KT CAVOK 23/17 A2994 NOSIG=
201506241100 METAR MROC 241100Z 10011KT 9999 FEW030 SCT070 23/17 A2996 NOSIG=
201506241200 METAR MROC 241200Z 09010KT 9999 FEW030 23/17 A2996 NOSIG=
201506241300 METAR MROC 241300Z 10011G21KT 9999 FEW040 24/18 A2997 NOSIG=
201506241400 METAR MROC 241400Z 11011KT 9999 FEW040 SCT250 26/17 A2998 NOSIG=
201506241500 METAR MROC 241500Z 09014KT 9999 FEW030 SCT250 27/17 A2999 NOSIG=
201506241600 METAR MROC 241600Z 07011KT 9999 FEW030 29/17 A2998 NOSIG=
201506241700 METAR MROC 241700Z 08012KT 9999 FEW045 30/17 A2997 NOSIG=
201506241800 METAR MROC 241800Z 07010KT 9999 FEW035 31/17 A2996 NOSIG=
201506241900 METAR MROC 241900Z 07010KT 9999 FEW035 31/17 A2994 NOSIG=
201506242000 METAR MROC 242000Z 06014KT 9999 SCT035 31/18 A2992 NOSIG=
201506242100 METAR MROC 242100Z 07012KT 9999 SCT035 31/18 A2991 NOSIG=
201506242200 METAR MROC 242200Z 08011KT 9999 SCT035 30/18 A2991 NOSIG=
201506242300 METAR MROC 242300Z 07011KT 9999 SCT035 28/17 A2992 NOSIG=
201506250000 METAR MROC 250000Z 08007KT 9999 SCT030 26/17 A2995 NOSIG=
201506250100 METAR MROC 250100Z 10005KT 9999 FEW030 25/18 A2998 NOSIG=
201506250200 METAR MROC 250200Z 08004KT 9999 FEW030 24/19 A2999 NOSIG=
201506250300 METAR MROC 250300Z 09009KT 9999 BKN045 24/19 A3001 NOSIG=
201506250400 METAR MROC 250400Z 09010KT 9999 FEW030 SCT120 24/19 A2999 NOSIG=
201506250500 METAR MROC 250500Z 09010KT 9999 FEW030 SCT120 24/18 A2997 NOSIG=
201506250600 METAR MROC 250600Z 09013KT 9999 FEW030 SCT120 23/18 A2996 NOSIG=
201506250700 METAR MROC 250700Z 09014G25KT 9999 FEW030 SCT130 23/18 A2995 NOSIG=
201506250800 METAR MROC 250800Z 10013KT 9999 FEW030 SCT130 24/18 A2992 NOSIG=
201506250900 METAR MROC 250900Z 11010KT 9999 FEW030 23/18 A2992 NOSIG=
201506251000 METAR MROC 251000Z 10012KT 9999 FEW030 24/18 A2992 NOSIG=
201506251055 METAR MROC 251055Z 10011KT 9999 FEW030 23/18 A2993 NOSIG=
201506251100 METAR MROC 251100Z 10011KT 9999 FEW030 23/18 A2993 NOSIG=
201506251200 METAR MROC 251200Z 10012KT 9999 FEW030 SCT250 23/18 A2994 NOSIG=
201506251300 METAR MROC 251300Z 09012G22KT 9999 FEW040 SCT250 25/18 A2996 NOSIG=
201506251400 METAR MROC 251400Z 09014G25KT 9999 FEW035 SCT250 27/18 A2998 NOSIG=
201506251500 METAR MROC 251500Z 07010G20KT 9999 FEW035 SCT250 28/17 A2999 NOSIG=
201506251600 METAR MROC 251600Z 08010G20KT 9999 SCT035 28/18 A2999 NOSIG=
201506251700 METAR MROC 251700Z 08011G21KT 9999 SCT035 SCT250 29/18 A2999 NOSIG=
201506251800 METAR MROC 251800Z 07014KT 9999 SCT035 SCT250 29/17 A2997 NOSIG=
201506251900 METAR MROC 251900Z 08012G22KT 9999 FEW035 BKN250 29/17 A2995 NOSIG=
201506252000 METAR MROC 252000Z 08011KT 9999 FEW035 SCT080 BKN250 29/18 A2994 NOSIG=
201506252100 METAR MROC 252100Z 08013KT 9999 FEW035 BKN250 29/18 A2992 NOSIG=
201506252200 METAR MROC 252200Z 08017KT 9999 FEW035 BKN250 28/17 A2993 NOSIG=
201506252300 METAR MROC 252300Z 07014KT 9999 FEW035 BKN250 27/17 A2993 NOSIG=
201506252353 METAR MROC 260000Z 09011KT 9999 FEW035 BKN250 26/17 A2995 NOSIG=
201506260000 METAR MROC 260000Z 09011KT 9999 FEW035 BKN250 26/17 A2995 NOSIG=
201506260100 METAR MROC 260100Z 08015KT 9999 FEW035 24/18 A2997 NOSIG=
201506260200 METAR MROC 260200Z 10014KT 9999 FEW035 23/19 A2998 NOSIG=
201506260300 METAR MROC 260300Z 10017KT 9999 FEW035 23/18 A2998 NOSIG=
201506260400 METAR MROC 260400Z 09010KT 9999 FEW030 23/18 A2999 NOSIG=
201506260500 METAR MROC 260500Z 10008KT 9999 FEW030 23/18 A2998 NOSIG=
201506260600 METAR MROC 260600Z 08010G20KT 9999 FEW030 24/18 A2997 NOSIG=
201506260700 METAR MROC 260700Z 10010KT 9999 FEW030 23/18 A2995 NOSIG=
201506260800 METAR MROC 260800Z 07013KT 9999 FEW030 23/18 A2994 NOSIG=
201506260900 METAR MROC 260900Z 07013KT 9999 FEW030 24/18 A2993 NOSIG=
201506261000 METAR MROC 261000Z 08010KT 9999 FEW030 24/18 A2993 NOSIG=
201506261100 METAR MROC 261100Z 09009KT 9999 FEW030 24/18 A2994 NOSIG=
201506261200 METAR MROC 261200Z 11007KT 9999 SCT030 SCT100 23/18 A2997 NOSIG=
201506261300 METAR MROC 261300Z 08010G20KT 9999 FEW035 BKN250 25/18 A2999 NOSIG=
201506261400 METAR MROC 261400Z 09019KT 9999 FEW035 27/18 A3001 NOSIG=
201506261500 METAR MROC 261500Z 08018KT 9999 FEW040 BKN200 28/18 A3000 NOSIG=
201506261600 METAR MROC 261600Z 07010G20KT 9999 FEW040 BKN200 28/18 A2999 NOSIG=
201506261700 METAR MROC 261700Z 07011G21KT 9999 FEW035 SCT250 28/18 A2999 NOSIG=
201506261800 METAR MROC 261800Z 07010G20KT 9999 FEW035 SCT250 30/17 A2996 NOSIG=
201506261900 METAR MROC 261900Z 07010G20KT 9999 FEW045 30/18 A2995 NOSIG=
201506262000 METAR MROC 262000Z 06013G23KT 9999 FEW040 30/17 A2992 NOSIG=
201506262100 METAR MROC 262100Z 07010KT 9999 SCT035 BKN200 30/18 A2991 NOSIG=
201506262200 METAR MROC 262200Z 03012G23KT 9999 3000N RA VCTS FEW020CB SCT035 BKN050 22/20 A2994 NOSIG=
201506262300 METAR MROC 262300Z 12004KT 9999 -RA FEW030 SCT045 BKN070 22/20 A2995 NOSIG=
201506270000 METAR MROC 270000Z 10007KT 9999 -RA FEW030 SCT070 BKN120 23/19 A2993 NOSIG=
201506270100 METAR MROC 270100Z 07009G19KT 9999 FEW030 SCT070 BKN120 24/19 A2999 NOSIG=
201506270200 METAR MROC 270200Z 06005KT 9999 FEW030 BKN120 24/19 A3000 NOSIG=
201506270300 METAR MROC 270300Z 06008KT 9999 DZ FEW030 SCT070 BKN120 23/19 A3001 BECMG RA=
201506270400 METAR MROC 270400Z 08008KT 9999 DZ VCTS FEW030 BKN100 23/19 A3000 NOSIG=
201506270500 METAR MROC 270500Z 09005KT 9999 -RA FEW030 BKN100 23/19 A3000 NOSIG=
201506270600 METAR MROC 270600Z 35003KT 9999 -RA FEW035 BKN100 22/20 A2998 NOSIG=
201506270700 METAR MROC 270700Z 07005KT 9999 RA FEW030 SCT120 23/19 A2995 NOSIG=
201506270800 METAR MROC 270800Z 10011KT 9999 RA FEW030 BKN100 23/19 A2996 NOSIG=
201506270900 METAR MROC 270900Z 11003KT 9999 RA FEW025 BKN100 22/20 A2996 NOSIG=
201506271000 METAR MROC 271000Z 11008KT 9999 -RA FEW030 BKN100 21/19 A2994 NOSIG=
201506271100 METAR MROC 271100Z 09007KT 9999 FEW030 BKN100 23/18 A2995 NOSIG=
201506271200 METAR MROC 271200Z 11011KT 9999 -RA FEW020 BKN100 22/18 A2996 NOSIG=
201506271300 METAR MROC 271300Z 11012G22KT 9999 FEW030 BKN100 23/18 A2997 NOSIG=
201506271400 METAR MROC 271400Z 10016G27KT 9999 FEW030 BKN100 23/18 A2999 NOSIG=
201506271500 METAR MROC 271500Z 10010G20KT 9999 FEW030 BKN100 23/18 A3000 NOSIG=
201506271600 METAR MROC 271600Z 10010G20KT 9999 -RA SCT030 BKN120 24/19 A3000 NOSIG=
201506271700 METAR MROC 271700Z 10010G20KT 9999 -DZ FEW030 SCT070 BKN120 24/18 A3000 NOSIG=
201506271800 METAR MROC 271800Z 10010KT 9999 FEW030 SCT100 BKN170 24/19 A2998 NOSIG=
201506271900 METAR MROC 271900Z 11010KT 9999 FEW030 SCT080 BKN170 25/19 A2997 NOSIG=
201506272000 METAR MROC 272000Z 11007KT 9999 SCT030 BKN080 25/19 A2996 NOSIG=
201506272100 METAR MROC 272100Z 11008KT 9999 -RA SCT030 BKN120 23/19 A2994 NOSIG=
201506272200 METAR MROC 272200Z 10010KT 9999 SCT030 BKN120 25/18 A2993 NOSIG=
201506272300 METAR MROC 272300Z 10010KT 9999 SCT030 BKN120 24/19 A2995 NOSIG=
201506280000 METAR MROC 280000Z 11010KT 9999 FEW030 BKN110 23/18 A2997 NOSIG=
201506280100 METAR MROC 280100Z 12005KT 9999 FEW030 BKN110 24/18 A2999 NOSIG=
201506280200 METAR MROC 280200Z 12008KT 9999 SCT030 23/19 A3001 NOSIG=
201506280300 METAR MROC 280300Z 06005KT 9999 SCT030 23/19 A3001 NOSIG=
201506280400 METAR MROC 280400Z 07008KT 9999 FEW030 23/19 A3002 NOSIG=
201506280500 METAR MROC 280500Z 10013KT 9999 FEW030 23/19 A3002 NOSIG=
201506280600 METAR MROC 280600Z 09008KT 9999 FEW030 23/19 A3000 NOSIG=
201506280700 METAR MROC 280700Z 11014KT 9999 FEW030 23/18 A2999 NOSIG=
201506280800 METAR MROC 280800Z 09013KT 9999 FEW030 SCT100 23/18 A2997 NOSIG=
201506280900 METAR MROC 280900Z 09011KT 9999 FEW030 SCT100 23/18 A2997 NOSIG=
201506281000 METAR MROC 281000Z 10015KT 9999 FEW030 SCT100 23/18 A2997 NOSIG=
201506281100 METAR MROC 281100Z 10014KT 9999 FEW030 SCT100 23/18 A2998 NOSIG=
201506281200 METAR MROC 281200Z 10015KT 9999 FEW030 SCT100 BKN250 23/18 A2999 NOSIG=
201506281300 METAR MROC 281300Z 10007KT 9999 FEW025 SCT100 SCT200 23/18 A3002 NOSIG=
201506281400 METAR MROC 281400Z 10010KT 9999 FEW030 SCT100 BKN230 25/18 A3002 NOSIG=
201506281500 METAR MROC 281500Z 08010KT 9999 FEW030 SCT100 BKN250 26/18 A3003 NOSIG=
201506281600 METAR MROC 281600Z 09010KT 9999 SCT030 OVC230 27/18 A3003 NOSIG=
201506281700 METAR MROC 281700Z 07010KT 9999 FEW030 BKN250 29/17 A3000 NOSIG=
201506281800 METAR MROC 281800Z 06013KT 9999 FEW030 BKN250 29/17 A2998 NOSIG=
201506281900 METAR MROC 281900Z 06013KT 9999 FEW030 BKN250 29/17 A2997 NOSIG=
201506282000 METAR MROC 282000Z 07010KT 9999 SCT030 BKN250 29/17 A2995 NOSIG=
201506282100 METAR MROC 282100Z 07009KT 9999 SCT030 BKN250 29/18 A2993 NOSIG=
201506282200 METAR MROC 282200Z 08008KT 9999 SCT030 SCT060 27/17 A2995 NOSIG=
201506282300 METAR MROC 282300Z 10005KT 9999 FEW030 BKN200 26/18 A2997 NOSIG=
201506290000 METAR MROC 290000Z 13006KT 9999 FEW030 SCT060 BKN200 24/18 A2998 NOSIG=
201506290100 METAR MROC 290100Z 31003KT 9999 FEW030 SCT200 23/20 A2999 NOSIG=
201506290200 METAR MROC 290200Z 10004KT 9999 FEW030 SCT100 24/18 A3001 NOSIG=
201506290300 METAR MROC 290300Z VRB02KT 9999 FEW030 SCT200 23/19 A3003 NOSIG=
201506290400 METAR MROC NIL=
201506290500 METAR MROC 290500Z 00000KT 9999 FEW030 BKN120 23/20 A3006 NOSIG=
201506290600 METAR MROC 290600Z 01002KT 9999 -RA FEW030 BKN100 22/19 A3002 NOSIG=
201506290700 METAR MROC 290700Z 09005KT CAVOK 21/18 A3002 NOSIG=
201506290800 METAR MROC 290800Z 07005KT CAVOK 21/18 A2999 NOSIG=
201506290900 METAR MROC 290900Z 06005KT CAVOK 21/17 A2998 NOSIG=
201506291000 METAR MROC 291000Z 05010KT CAVOK 22/17 A2997 NOSIG=
201506291100 METAR MROC 291100Z 03007KT 9999 FEW030 BKN090 22/17 A2999 NOSIG=
201506291200 METAR MROC 291200Z 07006KT 9999 FEW030 SCT080 BKN120 22/18 A2999 NOSIG=
201506291300 METAR MROC 291300Z 10009KT 9999 FEW030 SCT090 BKN200 23/18 A2999 NOSIG=
201506291400 METAR MROC 291400Z 10011KT 9999 -DZ FEW030 BKN100 23/18 A3002 NOSIG=
201506291500 METAR MROC 291500Z 09009KT 9999 FEW045 SCT080 BKN140 24/18 A3004 NOSIG=
201506291600 METAR MROC 291600Z 07009KT 9999 FEW045 BKN120 27/18 A3003 NOSIG=
201506291700 METAR MROC 291700Z 08009KT 9999 FEW045 BKN120 27/17 A3002 NOSIG=
201506291800 METAR MROC 291800Z 08007KT 9999 FEW040 BKN120 28/18 A3001 NOSIG=
201506291900 METAR MROC 291900Z 08009KT 9999 FEW040 BKN120 28/17 A3000 NOSIG=
201506292000 METAR MROC 292000Z 09007KT 9999 FEW040 BKN120 28/18 A2998 NOSIG=
201506292100 METAR MROC 292100Z 09008KT 9999 FEW030 SCT120 SCT250 29/17 A2996 NOSIG=
201506292200 METAR MROC 292200Z 24007KT 9999 FEW040 BKN250 26/21 A2996 NOSIG=
201506292300 METAR MROC 292300Z 24007KT 9999 VCSH SCT035 BKN120 25/21 A2998 NOSIG=
201506300000 METAR MROC 300000Z 15003KT 9999 FEW035 BKN100 23/18 A2999 NOSIG=
201506300100 METAR MROC 300100Z 10006KT 9999 FEW035 BKN100 23/19 A3001 NOSIG=
201506300200 METAR MROC 300200Z 06003KT 9999 FEW035 BKN100 23/18 A3004 NOSIG=
201506300300 METAR MROC 300300Z 30004KT 9999 FEW035 BKN100 22/20 A3007 NOSIG=
201506300400 METAR MROC 300400Z 00000KT 9999 FEW035 BKN100 22/21 A3007 BECMG RA=
201506300500 METAR MROC 300500Z 20002KT 9999 FEW035 BKN100 22/20 A3008 BECMG 5000 BR=
201506300600 METAR MROC 300600Z 06005KT 9999 FEW035 BKN120 22/18 A3005 NOSIG=
201506300700 METAR MROC 300700Z 09010KT 9999 FEW035 BKN120 23/18 A3003 NOSIG=
201506300800 METAR MROC 300800Z 09010KT 9999 FEW035 BKN120 23/17 A2999 NOSIG=
201506300900 METAR MROC 300900Z 09010KT 9999 FEW035 BKN120 23/17 A2999 NOSIG=
201506301000 METAR MROC 301000Z 10010KT 9999 FEW035 BKN120 23/17 A2999 NOSIG=
201506301100 METAR MROC 301100Z 09007KT 9999 FEW035 BKN120 23/17 A2999 NOSIG=
201506301200 METAR MROC 301200Z 09008KT 9999 FEW035 BKN160 23/17 A2999 NOSIG=
201506301300 METAR MROC 301300Z 09008KT 9999 FEW030 BKN100 23/18 A3002 NOSIG=
201506301400 METAR MROC 301400Z 11009KT 9999 FEW035 BKN140 23/18 A3003 NOSIG=
201506301500 METAR MROC 301500Z 09015G27KT 9999 FEW035 BKN200 25/17 A3003 NOSIG=
201506301600 METAR MROC 301600Z 08017G27KT 9999 FEW045 BKN200 25/16 A3003 NOSIG=
201506301700 METAR MROC 301700Z COR 09014G24KT 9999 FEW040 SCT120 BKN200 25/17 A3002 WS R07 NOSIG=
201506301800 METAR MROC 301800Z 09017G27KT 9999 FEW040 SCT120 BKN200 25/16 A3001 NOSIG=
201506301900 METAR MROC 301900Z 07014KT 9999 FEW040 SCT120 BKN200 26/16 A2998 NOSIG=
201506302000 METAR MROC 302000Z 07013G23KT 9999 FEW035 BKN200 27/16 A2995 NOSIG=
201506302100 METAR MROC 302100Z 08014G25KT 9999 FEW035 BKN200 27/17 A2994 NOSIG=
201506302200 METAR MROC 302200Z 08010G20KT 9999 FEW030 BKN200 27/17 A2993 NOSIG=
201506302300 METAR MROC 302300Z 09013G23KT 9999 FEW030 BKN200 24/17 A2994 NOSIG=
201506302355 METAR MROC 010000Z 10011G22KT 9999 FEW030 BKN250 23/17 A2995 NOSIG=
201507010000 METAR MROC 010000Z 10011G22KT 9999 FEW030 BKN250 23/17 A2995 NOSIG=
201507010100 METAR MROC 010100Z 09011G21KT 9999 FEW030 SCT120 23/16 A2997 NOSIG=
201507010200 METAR MROC 010200Z 10010G20KT 9999 FEW030 BKN120 23/16 A2999 NOSIG=
201507010300 METAR MROC 010300Z 10010G24KT 9999 FEW030 BKN120 22/17 A3001 NOSIG=
201507010400 METAR MROC 010400Z 11013G23KT 9999 FEW030 BKN100 22/17 A3002 NOSIG=
201507010500 METAR MROC 010500Z 10012KT 9999 FEW030 BKN120 22/17 A3001 NOSIG=
201507010600 METAR MROC 010600Z 10012G22KT 9999 FEW030 BKN120 22/17 A3001 NOSIG=
201507010700 METAR MROC 010700Z 10010G20KT 9999 FEW030 BKN120 22/17 A2998 NOSIG=
201507010800 METAR MROC 010800Z 10016G27KT 9999 FEW030 BKN120 22/17 A2997 NOSIG=
201507010900 METAR MROC 010900Z 10013G23KT 9999 FEW030 BKN120 21/16 A2997 NOSIG=
201507011000 METAR MROC 011000Z 10015G25KT 9999 FEW030 BKN120 21/16 A2995 NOSIG=
201507011100 METAR MROC 011100Z 10014KT 9999 FEW030 BKN120 21/15 A2996 NOSIG=
201507011200 METAR MROC 011200Z 11010KT 9999 FEW030 SCT120 21/16 A2999 NOSIG=
201507011300 METAR MROC 011300Z 11012G22KT 9999 FEW030 SCT120 23/16 A2999 NOSIG=
201507011400 METAR MROC 011400Z 09012G22KT 9999 FEW035 25/16 A3001 NOSIG=
201507011500 METAR MROC 011500Z 08010G20KT 9999 FEW035 27/15 A3002 NOSIG=
201507011600 METAR MROC 011600Z 09010G20KT 9999 FEW035 27/16 A3001 NOSIG=
201507011700 METAR MROC 011700Z 10013G23KT 9999 FEW035 27/17 A2998 NOSIG=
201507011800 METAR MROC 011800Z 10013G23KT 9999 FEW035 27/17 A2999 NOSIG=
201507011900 METAR MROC 011900Z 09011G21KT 9999 FEW035 28/16 A2996 NOSIG=
201507012000 METAR MROC 012000Z 10014KT 9999 FEW035 30/16 A2995 NOSIG=
201507012100 METAR MROC 012100Z 10009G19KT 9999 FEW035 29/16 A2992 NOSIG=
201507012200 METAR MROC 012200Z COR 08009KT 9999 FEW035 29/16 A2992 NOSIG=
201507012300 METAR MROC 012300Z 09012KT 9999 FEW035 SCT250 27/17 A2992 NOSIG=
201507020000 METAR MROC 020000Z 09007KT 9999 FEW035 SCT070 25/18 A2993 NOSIG=
201507020100 METAR MROC 020100Z 08011KT 9999 FEW035 SCT100 23/18 A2995 NOSIG=
201507020200 METAR MROC 020200Z 09012G22KT 9999 FEW035 BKN120 23/18 A2997 NOSIG=
201507020300 METAR MROC 020300Z 10012KT 9999 FEW035 BKN120 23/17 A2997 NOSIG=
201507020400 METAR MROC 020400Z 09011KT 9999 FEW035 SCT120 23/17 A3000 NOSIG=
201507020500 METAR MROC 020500Z 09011KT 9999 FEW035 23/17 A2999 NOSIG=
201507020600 METAR MROC 020600Z 11009KT 9999 FEW035 22/17 A2997 NOSIG=
201507020700 METAR MROC 020700Z 09009KT 9999 FEW035 22/16 A2995 NOSIG=
201507020800 METAR MROC 020800Z 10011KT 9999 FEW035 22/17 A2994 NOSIG=
201507020900 METAR MROC 020900Z 10011KT 9999 FEW035 22/17 A2994 NOSIG=
201507021000 METAR MROC 021000Z 10014G25KT 9999 FEW035 22/17 A2995 NOSIG=
201507021100 METAR MROC 021100Z 10013G25KT 9999 FEW040 22/16 A2995 NOSIG=
201507021200 METAR MROC 021200Z 10014G24KT 9999 FEW045 22/16 A2996 NOSIG=
201507021300 METAR MROC 021300Z 10012G22KT CAVOK 24/16 A2997 NOSIG=
201507021400 METAR MROC 021400Z 09012G22KT CAVOK 25/16 A2998 NOSIG=
201507021500 METAR MROC 021500Z 09014G24KT CAVOK 27/16 A2998 NOSIG=
201507021600 METAR MROC 021600Z 08012G22KT CAVOK 29/16 A2997 NOSIG=
201507021700 METAR MROC 021700Z 08012G22KT 9999 FEW040 29/17 A2996 NOSIG=
201507021800 METAR MROC 021800Z 08013G23KT 9999 FEW040 29/17 A2995 NOSIG=
201507021900 METAR MROC 021900Z 07012G22KT 9999 FEW040 29/17 A2992 NOSIG=
201507022000 METAR MROC 022000Z 06017G27KT 9999 FEW040 30/17 A2990 NOSIG=
201507022100 METAR MROC 022100Z 05015G25KT 9999 SCT035 29/17 A2990 NOSIG=
201507022200 METAR MROC 022200Z 05012G22KT 9999 SCT035 29/16 A2989 NOSIG=
201507022300 METAR MROC 022300Z 07010KT 9999 FEW035 28/17 A2991 NOSIG=
201507030000 METAR MROC 030000Z 11005KT 9999 FEW035 25/17 A2992 NOSIG=
201507030100 METAR MROC 030100Z 10006KT 9999 FEW035 24/17 A2994 NOSIG=
201507030200 METAR MROC 030200Z 10008KT 9999 FEW030 23/18 A2995 NOSIG=
201507030300 METAR MROC 030300Z 10011KT 9999 FEW030 23/18 A2994 NOSIG=
201507030400 METAR MROC 030400Z 10010G20KT 9999 FEW030 23/18 A2996 NOSIG=
201507030500 METAR MROC 030500Z 10010G20KT 9999 FEW030 23/18 A2995 NOSIG=
201507030600 METAR MROC 030600Z 10010G20KT 9999 FEW030 SCT100 23/18 A2993 NOSIG=
201507030700 METAR MROC 030700Z 11016KT CAVOK 23/18 A2991 NOSIG=
201507030800 METAR MROC 030800Z 10010G20KT CAVOK 24/18 A2989 NOSIG=
201507030900 METAR MROC 030900Z 11010G20KT CAVOK 23/18 A2988 NOSIG=
201507031000 METAR MROC 031000Z 11014KT CAVOK 23/18 A2990 NOSIG=
201507031100 METAR MROC 031100Z 09013KT 9999 FEW030 SCT100 23/18 A2991 NOSIG=
201507031200 METAR MROC 031200Z 09011KT 9999 FEW030 23/18 A2992 NOSIG=
201507031300 METAR MROC 031300Z 11005KT 9999 SCT030 25/18 A2992 NOSIG=
201507031400 METAR MROC 031400Z 11010KT 9999 SCT030 25/18 A2992 NOSIG=
201507031500 METAR MROC 031500Z 08007KT 9999 SCT030 27/18 A2993 NOSIG=
201507031600 METAR MROC 031600Z 09012G22KT 9999 SCT030 28/18 A2992 NOSIG=
201507031700 METAR MROC 031700Z 09012G22KT 9999 SCT030 29/18 A2992 NOSIG=
201507031800 METAR MROC 031800Z 09010KT 9999 BKN030 27/18 A2992 NOSIG=
201507031900 METAR MROC 031900Z 08013G23KT 9999 SCT030 29/18 A2990 NOSIG=
201507032000 METAR MROC 032000Z 11010KT 9999 SCT030 28/18 A2989 NOSIG=
201507032100 METAR MROC 032100Z 07012KT 9999 SCT030 29/17 A2988 NOSIG=
201507032200 METAR MROC 032200Z 08011KT 9999 SCT030 28/17 A2988 NOSIG=
201507032300 METAR MROC 032300Z 09007KT 9999 FEW030 SCT060 26/17 A2990 NOSIG=
201507040000 METAR MROC 040000Z 09010G20KT 9999 SCT030 SCT250 24/17 A2990 NOSIG=
201507040100 METAR MROC 040100Z 09005KT 9999 FEW030 23/17 A2992 NOSIG=
201507040200 METAR MROC 040200Z 10011G22KT 9999 FEW030 23/17 A2991 NOSIG=
201507040300 METAR MROC 040300Z 10014G24KT 9999 FEW030 23/17 A2993 NOSIG=
201507040400 METAR MROC NIL=
201507040500 METAR MROC 040500Z 10012G22KT 9999 FEW035 23/18 A2994 NOSIG=
201507040600 METAR MROC 040600Z 09011KT 9999 FEW035 23/17 A2994 NOSIG=
201507040700 METAR MROC 040700Z 09013G23KT 9999 FEW035 23/16 A2993 NOSIG=
201507040800 METAR MROC 040800Z 08016G27KT 9999 FEW035 23/15 A2992 NOSIG=
201507040900 METAR MROC 040900Z 08014G24KT CAVOK 22/15 A2993 NOSIG=
201507041000 METAR MROC 041000Z 09014G25KT CAVOK 22/15 A2992 NOSIG=
201507041100 METAR MROC 041100Z 10014G26KT CAVOK 21/16 A2991 NOSIG=
201507041200 METAR MROC 041200Z 10015G25KT CAVOK 22/16 A2992 NOSIG=
201507041300 METAR MROC 041300Z 10015G27KT 9999 FEW045 BKN200 23/15 A2994 NOSIG=
201507041400 METAR MROC 041400Z 10014G28KT 9999 FEW040 BKN200 24/16 A2995 NOSIG=
201507041500 METAR MROC 041500Z 08014G24KT 9999 FEW045 SCT250 26/15 A2994 NOSIG=
201507041600 METAR MROC 041600Z 09019G30KT 9999 FEW045 SCT250 27/15 A2993 NOSIG=
201507041700 METAR MROC 041700Z 07014G24KT 9999 FEW045 BKN250 28/16 A2993 NOSIG=
201507041800 METAR MROC 041800Z 09015G25KT 9999 FEW035 SCT250 28/17 A2992 NOSIG=
201507041900 METAR MROC 041900Z 08015G25KT 9999 FEW035 SCT250 29/15 A2992 NOSIG=
201507042000 METAR MROC 042000Z 09016G26KT 9999 SCT035 SCT250 27/16 A2990 NOSIG=
201507042100 METAR MROC 042100Z 07009KT 9999 FEW035 BKN250 27/17 A2991 NOSIG=
201507042200 METAR MROC 042200Z 10008KT 9999 FEW035 SCT080 26/16 A2991 NOSIG=
201507042300 METAR MROC 042300Z 11010KT 9999 FEW035 SCT090 26/16 A2993 NOSIG=
201507050000 METAR MROC 050000Z 09010G20KT 9999 FEW035 BKN250 24/17 A2993 NOSIG=
201507050100 METAR MROC 050100Z 11010KT 9999 FEW035 23/17 A2995 NOSIG=
201507050200 METAR MROC 050200Z 11010KT 9999 FEW035 23/17 A2997 NOSIG=
201507050300 METAR MROC 050300Z 10010KT 9999 FEW035 23/17 A2998 NOSIG=
201507050400 METAR MROC 050400Z 10011KT 9999 FEW035 23/18 A2998 NOSIG=
201507050500 METAR MROC 050500Z 08010KT 9999 FEW035 23/18 A2997 NOSIG=
201507050600 METAR MROC 050600Z 11012KT 9999 FEW035 23/17 A2997 NOSIG=
201507050700 METAR MROC 050700Z 10012G22KT 9999 FEW035 23/17 A2998 NOSIG=
201507050800 METAR MROC 050800Z 11010KT 9999 FEW035 23/18 A2996 NOSIG=
201507050900 METAR MROC 050900Z 10010KT 9999 FEW035 23/18 A2995 NOSIG=
201507051000 METAR MROC 051000Z 07006KT 9999 FEW035 23/18 A2996 NOSIG=
201507051100 METAR MROC 051100Z 10010G20KT 9999 SCT035 23/18 A2997 NOSIG=
201507051200 METAR MROC 051200Z 11010KT 9999 SCT035 23/18 A2999 NOSIG=
201507051300 METAR MROC 051300Z 10010G20KT 9999 FEW040 BKN200 25/18 A3000 NOSIG=
201507051400 METAR MROC 051400Z 10014G24KT 9999 FEW040 BKN200 25/18 A2999 NOSIG=
201507051500 METAR MROC 051500Z 10014G25KT 9999 FEW040 BKN200 26/18 A3000 NOSIG=
201507051600 METAR MROC 051600Z 11012G23KT 9999 FEW035 BKN250 27/18 A3001 NOSIG=
201507051700 METAR MROC 051700Z 10011G22KT 9999 FEW035 BKN250 29/19 A3001 NOSIG=
201507051800 METAR MROC 051800Z 10011G21KT 9999 SCT035 BKN250 29/18 A3000 NOSIG=
201507051900 METAR MROC 051900Z 10010G20KT 9999 SCT035 BKN250 30/17 A2998 NOSIG=
201507052000 METAR MROC 052000Z 11009KT 9999 SCT035 BKN200 30/17 A2996 NOSIG=
201507052100 METAR MROC 052100Z 09008KT 9999 SCT030 BKN200 28/17 A2996 NOSIG=
201507052200 METAR MROC 052200Z 10006KT 9999 FEW025 SCT080 BKN200 26/17 A2995 BECMG RA=
201507052300 METAR MROC 052300Z 28007KT 9999 VCSH FEW025 SCT080 BKN200 24/20 A2999 NOSIG=
201507060000 METAR MROC 060000Z 12005KT 9999 FEW025 SCT250 24/20 A2999 NOSIG=
201507060100 METAR MROC 060100Z 12009KT 9999 FEW025 BKN100 23/19 A3001 NOSIG=
201507060200 METAR MROC 060200Z 09006KT 9999 FEW025 BKN100 22/20 A3002 NOSIG=
201507060300 METAR MROC 060300Z 07012KT 9999 FEW025 SCT100 22/18 A3003 NOSIG=
201507060400 METAR MROC 060400Z 04005KT 9999 FEW030 23/18 A3003 NOSIG=
201507060500 METAR MROC 060500Z 34005KT 9999 FEW030 22/18 A3001 NOSIG=
201507060600 METAR MROC 060600Z 10011KT 9999 FEW030 23/18 A3001 NOSIG=
201507060700 METAR MROC 060700Z 09010G20KT 9999 -RA FEW030 BKN100 23/18 A3002 NOSIG=
201507060800 METAR MROC 060800Z 09006KT 9999 -RA FEW030 BKN100 22/19 A3001 NOSIG=
201507060900 METAR MROC 060900Z 07005KT 9999 FEW030 BKN100 22/18 A2998 NOSIG=
201507061000 METAR MROC 061000Z 09007KT 9999 FEW030 BKN100 22/18 A2998 NOSIG=
201507061100 METAR MROC 061100Z 10010KT 9999 FEW040 BKN100 22/18 A2996 NOSIG=
201507061200 METAR MROC 061200Z 10011G21KT 9999 FEW035 BKN100 23/18 A2998 NOSIG=
201507061300 METAR MROC 061300Z 07015KT 9999 FEW035 SCT100 BKN200 23/18 A3000 NOSIG=
201507061400 METAR MROC 061400Z 10010G20KT 9999 -RA FEW035 BKN100 23/19 A3002 NOSIG=
201507061500 METAR MROC 061500Z 07009KT 8000 -RA VCFG FEW035 BKN100 21/19 A3004 NOSIG=
201507061600 METAR MROC 061600Z 10011KT 9999 -RA FEW035 BKN100 22/19 A3004 NOSIG=
201507061700 METAR MROC 061700Z 09014KT 9999 -RA FEW035 SCT100 BKN200 23/19 A3003 NOSIG=
201507061800 METAR MROC 061800Z 10012KT 9999 FEW035 SCT100 BKN200 24/19 A3001 NOSIG=
201507061900 METAR MROC 061900Z 11010G20KT 9999 FEW035 SCT100 BKN200 25/19 A2998 NOSIG=
201507062000 METAR MROC 062000Z 11016KT 9999 -RA FEW035 SCT100 BKN200 24/17 A2998 NOSIG=
201507062100 METAR MROC 062100Z 03005KT 9999 -RA SCT035 BKN070 22/19 A3000 NOSIG=
201507062200 METAR MROC 062200Z 11010KT 9999 FEW035 SCT070 BKN140 22/18 A2999 NOSIG=
201507062300 METAR MROC 062300Z 11009G19KT 9999 FEW035 BKN140 23/17 A2998 NOSIG=
201507070000 METAR MROC 070000Z 05003KT 9999 FEW035 BKN140 23/17 A3001 NOSIG=
201507070100 METAR MROC 070100Z 09009KT 9999 FEW035 SCT080 BKN120 22/18 A3003 NOSIG=
201507070200 METAR MROC 070200Z 04008KT 9999 FEW035 SCT100 BKN140 20/18 A3002 NOSIG=
201507070300 METAR MROC 070300Z 02002KT 9999 FEW040 SCT070 BKN180 20/18 A3006 NOSIG=
201507070400 METAR MROC 070400Z 06003KT 9999 -RA FEW035 SCT070 BKN140 20/18 A3007 NOSIG=
201507070500 METAR MROC 070500Z VRB02KT 9999 RA FEW030 BKN100 20/19 A3008 NOSIG=
201507070600 METAR MROC 070600Z VRB02KT 9999 RA FEW030 BKN100 20/19 A3005 NOSIG=
201507070700 METAR MROC 070700Z 14004KT 9999 RA FEW030 OVC100 19/19 A3004 NOSIG=
201507070800 METAR MROC 070800Z 02003KT 9999 RA FEW030 BKN100 20/19 A3002 NOSIG=
201507070900 METAR MROC 070900Z 12003KT 9999 FEW030 BKN100 19/19 A3000 RERA NOSIG=
201507071000 METAR MROC 071000Z 07003KT 9999 FEW030 BKN100 20/18 A3001 NOSIG=
201507071100 METAR MROC 071100Z 05006KT 9999 FEW035 BKN100 20/18 A3000 NOSIG=
201507071200 METAR MROC 071200Z 08005KT 9999 FEW040 SCT120 BKN180 20/18 A3000 NOSIG=
201507071300 METAR MROC 071300Z 08006KT 9999 FEW030 SCT120 BKN160 21/18 A3002 NOSIG=
201507071400 METAR MROC 071400Z 11010G20KT 9999 -RA FEW030 SCT120 BKN160 22/18 A3002 NOSIG=
201507071500 METAR MROC 071500Z 10010G20KT 9999 -RA FEW030 SCT100 BKN160 22/18 A3001 NOSIG=
201507071600 METAR MROC 071600Z 07007KT CAVOK 26/17 A3003 NOSIG=
201507071700 METAR MROC 071700Z 09005KT CAVOK 27/17 A3002 NOSIG=
201507071800 METAR MROC 071800Z 12006KT CAVOK 28/17 A3002 NOSIG=
201507071900 METAR MROC 071900Z 10012KT 9999 FEW030 BKN120 27/17 A3000 NOSIG=
201507072000 METAR MROC 072000Z 11007KT 9999 FEW030 SCT120 BKN200 27/17 A2998 NOSIG=
201507072100 METAR MROC 072100Z 11006KT 9999 FEW030 SCT120 BKN200 26/17 A2997 NOSIG=
201507072200 METAR MROC 072200Z 25010KT 9999 SCT030 BKN120 24/20 A2998 NOSIG=
201507072300 METAR MROC 072300Z 22005KT 9999 SCT030 BKN120 23/20 A2999 NOSIG=
201507080000 METAR MROC 080000Z 29003KT 9999 -RA SCT030 BKN120 22/20 A3002 BECMG RA=
201507080100 METAR MROC 080100Z 11002KT 9999 RA SCT020 OVC100 20/19 A3004 NOSIG=
201507080200 METAR MROC 080200Z 11003KT 9999 FEW020 BKN100 20/19 A3003 RERA BECMG RA=
201507080300 METAR MROC 080300Z 10010KT 9999 FEW030 BKN100 21/18 A3005 NOSIG=
201507080400 METAR MROC 080400Z 10011KT 9999 FEW030 BKN100 21/18 A3006 NOSIG=
201507080500 METAR MROC 080500Z 04009KT 9999 FEW030 BKN100 21/18 A3007 NOSIG=
201507080600 METAR MROC 080600Z 07006KT 9999 -RA FEW030 BKN100 21/18 A3006 NOSIG=
201507080700 METAR MROC 080700Z 05008KT 9999 -RA FEW030 BKN100 20/18 A3005 NOSIG=
201507080800 METAR MROC 080800Z 07008KT 9999 -RA FEW030 BKN100 20/18 A3003 NOSIG=
201507080900 METAR MROC 080900Z 07009KT 9999 FEW030 BKN100 20/18 A3001 NOSIG=
201507081000 METAR MROC 081000Z 06010KT 9999 -RA FEW030 BKN100 20/17 A3001 NOSIG=
201507081100 METAR MROC 081100Z 10007KT 9999 FEW030 BKN100 20/17 A3001 NOSIG=
201507081200 METAR MROC 081200Z 10014KT 9999 FEW030 SCT100 BKN200 20/16 A3001 NOSIG=
201507081300 METAR MROC 081300Z 08005KT 9999 FEW030 SCT080 BKN200 21/16 A3002 NOSIG=
201507081400 METAR MROC 081400Z 09008KT 9999 FEW030 BKN080 22/16 A3002 NOSIG=
201507081500 METAR MROC 081500Z 10011KT 9999 FEW040 BKN100 26/17 A3002 NOSIG=
201507081600 METAR MROC 081600Z 12010KT 9999 FEW040 BKN100 26/17 A3001 NOSIG=
201507081700 METAR MROC 081700Z 12010KT 9999 FEW040 SCT100 27/17 A3000 NOSIG=
201507081800 METAR MROC 081800Z 11010G20KT 9999 VCSH SCT030 SCT100 28/17 A2998 NOSIG=
201507081900 METAR MROC 081900Z 23012KT 9999 VCSH SCT030 SCT060 24/21 A2997 NOSIG=
201507082000 METAR MROC 082000Z 24007KT 9999 VCSH SCT030 BKN100 23/19 A2996 NOSIG=
201507082100 METAR MROC 082100Z 25005KT 9999 FEW010 SCT030 BKN100 22/20 A2996 NOSIG=
201507082200 METAR MROC 082200Z 20003KT 9999 FEW010 SCT030 BKN100 23/20 A2995 NOSIG=
201507082300 METAR MROC 082300Z 03005KT 9999 SCT030 BKN120 23/18 A2997 NOSIG=
201507090000 METAR MROC 090000Z 12004KT 8000 VCFG FEW002 SCT030 BKN120 22/18 A2999 NOSIG=
201507090100 METAR MROC 090100Z 10006KT 9999 -RA SCT030 BKN100 20/18 A3002 NOSIG=
201507090200 METAR MROC 090200Z 06006KT 9999 -RA FEW030 OVC100 20/18 A3001 NOSIG=
201507090300 METAR MROC 090300Z 07006KT 9999 FEW030 OVC100 20/18 A3000 RERA NOSIG=
201507090400 METAR MROC 090400Z 13006KT CAVOK 21/18 A3003 NOSIG=
201507090500 METAR MROC 090500Z 07005KT CAVOK 21/18 A3002 NOSIG=
201507090600 METAR MROC 090600Z 05004KT CAVOK 20/18 A3001 NOSIG=
201507090700 METAR MROC 090700Z 09006KT 9999 FEW035 SCT120 BKN180 21/17 A3000 NOSIG=
201507090800 METAR MROC 090800Z 06005KT 9999 FEW040 BKN200 20/17 A2998 NOSIG=
201507090900 METAR MROC NIL=
201507091000 METAR MROC 091000Z 04005KT CAVOK 20/17 A2996 NOSIG=
201507091100 METAR MROC 091100Z 11004KT CAVOK 20/17 A2998 NOSIG=
201507091200 METAR MROC 091200Z 03003KT CAVOK 20/17 A3000 NOSIG=
201507091300 METAR MROC 091300Z 05003KT CAVOK 21/17 A3002 NOSIG=
201507091400 METAR MROC 091400Z VRB02KT CAVOK 22/18 A3002 NOSIG=
201507091500 METAR MROC 091500Z 23003KT CAVOK 25/18 A3003 NOSIG=
201507091600 METAR MROC 091600Z 25003KT 9999 FEW045 BKN100 25/19 A3003 NOSIG=
201507091700 METAR MROC 091700Z VRB02KT 9999 FEW040 BKN150 28/19 A3001 NOSIG=
201507091800 METAR MROC 091800Z 23006KT 9999 FEW035 BKN150 26/19 A2999 NOSIG=
201507091900 METAR MROC 091900Z 19006KT 9999 3000S DZ FEW035 BKN100 24/20 A2997 NOSIG=
201507092000 METAR MROC 092000Z 20002KT 7000 3000S DZ VCTS FEW035 BKN100 22/19 A2996 NOSIG=
201507092100 METAR MROC 092100Z 00000KT 8000 -DZ BCFG FEW010 SCT025 BKN100 21/19 A2996 NOSIG=
201507092200 METAR MROC 092200Z 17003KT 8000 -DZ BCFG FEW006 SCT015 BKN100 21/19 A2996 NOSIG=
201507092300 METAR MROC 092300Z VRB02KT 5000 -DZ BR FEW006 SCT012 BKN100 21/20 A2997 NOSIG=
201507100000 METAR MROC 100000Z 09003KT 7000 -RA BCFG FEW008 SCT020 BKN100 21/20 A2997 NOSIG=
201507100100 METAR MROC 100100Z 10010KT 9999 FEW030 BKN100 21/18 A2998 NOSIG=
201507100200 METAR MROC 100200Z 11008KT 9999 FEW035 BKN100 21/18 A2998 NOSIG=
201507100300 METAR MROC 100300Z 05005KT 9999 FEW035 BKN100 21/18 A2999 NOSIG=
201507100400 METAR MROC 100400Z 06006KT CAVOK 21/18 A3000 NOSIG=
201507100500 METAR MROC 100500Z 05005KT CAVOK 21/18 A3000 NOSIG=
201507100600 METAR MROC 100600Z 07003KT CAVOK 21/18 A2999 NOSIG=
201507100700 METAR MROC 100700Z 08002KT CAVOK 21/18 A2998 NOSIG=
201507100800 METAR MROC 100800Z 07004KT CAVOK 21/17 A2996 NOSIG=
201507100900 METAR MROC 100900Z 06005KT CAVOK 20/17 A2995 NOSIG=
201507101000 METAR MROC 101000Z 05004KT CAVOK 21/17 A2994 NOSIG=
201507101100 METAR MROC 101100Z 06004KT CAVOK 20/17 A2995 NOSIG=
201507101200 METAR MROC 101200Z 06006KT CAVOK 21/17 A2997 NOSIG=
201507101300 METAR MROC 101300Z 07006KT 9999 FEW040 BKN120 23/17 A2999 NOSIG=
201507101400 METAR MROC 101400Z 10010KT 9999 FEW040 BKN120 25/17 A3000 NOSIG=
201507101500 METAR MROC 101500Z 09008KT 9999 FEW045 BKN120 26/18 A3002 NOSIG=
201507101600 METAR MROC 101600Z 09005KT 9999 FEW040 SCT120 SCT250 28/17 A3002 BECMG 24010KT=
201507101700 METAR MROC 101700Z 24009KT 9999 SCT035 BKN120 27/21 A3001 NOSIG=
201507101800 METAR MROC 101800Z 25009KT 9999 FEW020TCU SCT035 SCT250 27/20 A3000 NOSIG=
201507101900 METAR MROC 101900Z 21009KT 5000 -TSRA FEW008 SCT012CB BKN030 23/20 A2998 NOSIG=
201507102000 METAR MROC 102000Z VRB02KT 7000 -RA BCFG SCT015 BKN100 22/20 A2997 NOSIG=
201507102100 METAR MROC 102100Z 05005KT 8000 -RA VCFG FEW015 SCT030 BKN100 21/19 A2997 NOSIG=
201507102200 METAR MROC 102200Z 07004KT 8000 -RA VCFG FEW015 SCT030 BKN100 21/20 A2998 NOSIG=
201507102300 METAR MROC 102300Z 18004KT 1500 -RA BR FEW005 SCT020 BKN100 20/19 A3000 RESH NOSIG=
201507110000 METAR MROC 110000Z 06006KT 9999 -RA FEW030 BKN100 20/18 A3001 NOSIG=
201507110100 METAR MROC 110100Z 07004KT 9999 -RA FEW030 BKN100 20/18 A3001 NOSIG=
201507110200 METAR MROC 110200Z 09009KT 9999 -RA FEW030 BKN100 20/18 A3005 NOSIG=
201507110300 METAR MROC 110300Z 06011KT 9999 -DZ FEW030 BKN100 20/17 A3005 NOSIG=
201507110400 METAR MROC 110400Z 07007KT 9999 FEW030 BKN100 20/17 A3003 NOSIG=
201507110500 METAR MROC 110500Z 09010KT 9999 FEW030 BKN100 21/17 A3003 NOSIG=
201507110600 METAR MROC 110600Z 10008KT CAVOK 21/17 A3001 NOSIG=
201507110700 METAR MROC 110700Z 07006KT CAVOK 21/17 A2999 NOSIG=
201507110800 METAR MROC 110800Z 08006KT CAVOK 21/17 A2999 NOSIG=
201507110900 METAR MROC 110900Z 03004KT CAVOK 20/17 A2997 NOSIG=
201507111000 METAR MROC 111000Z 08006KT 9999 FEW030 SCT100 20/17 A2997 NOSIG=
201507111100 METAR MROC 111100Z 06007KT 9999 FEW030 SCT100 20/16 A2997 NOSIG=
201507111200 METAR MROC 111200Z 04006KT 9999 FEW030 SCT100 21/16 A3000 NOSIG=
201507111300 METAR MROC 111300Z 08016KT CAVOK 22/16 A3002 NOSIG=
201507111400 METAR MROC 111400Z 09015KT CAVOK 23/16 A3003 NOSIG=
201507111500 METAR MROC 111500Z 09015KT CAVOK 26/17 A3003 NOSIG=
201507111600 METAR MROC 111600Z 11017KT 9999 FEW045 BKN120 26/17 A3004 NOSIG=
201507111700 METAR MROC 111700Z 11016KT 9999 FEW035 BKN120 26/18 A3005 NOSIG=
201507111800 METAR MROC 111800Z 11017KT 9999 FEW030 BKN120 26/18 A3004 NOSIG=
201507111900 METAR MROC 111900Z 12014KT 9999 SCT030 SCT100 26/18 A3002 NOSIG=
201507112000 METAR MROC 112000Z 34008KT 9999 SCT030 BKN100 25/18 A3001 NOSIG=
201507112100 METAR MROC 112100Z 10007KT 9999 FEW030 SCT070 BKN120 27/17 A2999 NOSIG=
201507112200 METAR MROC 112200Z 10010G20KT 9999 -RA FEW030 FEW030 BKN100 24/18 A3000 NOSIG=
201507112300 METAR MROC 112300Z 09010G20KT 9999 DZ FEW030 SCT080 BKN120 21/18 A3001 NOSIG=
201507120000 METAR MROC 120000Z 10010G20KT 9999 FEW030 BKN120 21/18 A3003 NOSIG=
201507120100 METAR MROC 120100Z 10012G22KT 9999 -RA FEW030 BKN120 21/18 A3004 NOSIG=
201507120200 METAR MROC 120200Z 11010G20KT 9999 DZ FEW030 BKN120 22/17 A3007 NOSIG=
201507120300 METAR MROC 120300Z 11008KT CAVOK 22/17 A3009 NOSIG=
201507120400 METAR MROC 120400Z 02005KT CAVOK 22/17 A3010 NOSIG=
201507120500 METAR MROC 120500Z 06003KT CAVOK 22/17 A3011 NOSIG=
201507120600 METAR MROC 120600Z 08006KT CAVOK 21/17 A3008 NOSIG=
201507120700 METAR MROC 120700Z 06005KT CAVOK 21/17 A3005 NOSIG=
201507120800 METAR MROC 120800Z 03006KT 9999 FEW030 BKN120 22/17 A3005 NOSIG=
201507120900 METAR MROC 120900Z 07004KT 9999 RA FEW030 BKN100 21/17 A3003 NOSIG=
201507121000 METAR MROC 121000Z 05008KT 9999 RA FEW030 BKN100 20/18 A3003 NOSIG=
201507121100 METAR MROC 121100Z 06007KT 9999 RA FEW030 BKN100 20/18 A3004 NOSIG=
201507121200 METAR MROC 121200Z 07006KT 9999 RA FEW030 BKN100 20/18 A3008 NOSIG=
201507121300 METAR MROC 121300Z 04006KT 9999 -RA FEW030 BKN120 20/18 A3009 NOSIG=
201507121400 METAR MROC 121400Z 05004KT 9999 FEW030 SCT070 BKN140 21/18 A3009 NOSIG=
201507121500 METAR MROC 121500Z 11011G21KT 9999 FEW030 BKN060 22/17 A3007 NOSIG=
201507121600 METAR MROC 121600Z 12007KT 9999 FEW030 BKN060 24/17 A3007 NOSIG=
201507121700 METAR MROC 121700Z 10010KT 9999 FEW030 BKN070 25/16 A3007 NOSIG=
201507121800 METAR MROC 121800Z COR 11007KT 9999 FEW030 BKN070 26/17 A3006 NOSIG=
201507121900 METAR MROC 121900Z 11010KT 9999 FEW030 SCT050 BKN120 25/18 A3004 NOSIG=
201507122000 METAR MROC 122000Z 11010KT 9999 FEW030 SCT070 BKN120 24/17 A3002 NOSIG=
201507122100 METAR MROC 122100Z 11007KT 9999 SCT030 BKN080 26/17 A3000 NOSIG=
201507122200 METAR MROC 122200Z 10007KT 9999 SCT030 BKN070 24/17 A3001 NOSIG=
201507122300 METAR MROC 122300Z 11005KT 9999 SCT030 BKN070 24/17 A3001 NOSIG=
201507130000 METAR MROC 130000Z 10005KT 9999 SCT030 BKN100 23/17 A3003 NOSIG=
201507130100 METAR MROC 130100Z 11007KT 9999 FEW030 BKN100 22/20 A3005 NOSIG=
201507130200 METAR MROC 130200Z 10010KT 9999 FEW030 BKN100 21/17 A3006 NOSIG=
201507130300 METAR MROC 130300Z 06007KT 9999 FEW030 SCT100 21/17 A3007 NOSIG=
201507130400 METAR MROC 130400Z 08010KT 9999 FEW030 SCT100 21/17 A3009 NOSIG=
201507130500 METAR MROC 130500Z 10015KT 9999 FEW030 SCT100 21/17 A3009 NOSIG=
201507130600 METAR MROC 130600Z 11016KT CAVOK 21/16 A3007 NOSIG=
201507130700 METAR MROC 130700Z 04009KT CAVOK 21/16 A3005 NOSIG=
201507130800 METAR MROC 130800Z 03007KT CAVOK 21/16 A3003 NOSIG=
201507130900 METAR MROC 130900Z 36004KT CAVOK 21/17 A3003 NOSIG=
201507131000 METAR MROC 131000Z 06002KT CAVOK 20/17 A3003 NOSIG=
201507131100 METAR MROC 131100Z 11003KT CAVOK 20/17 A3003 NOSIG=
201507131200 METAR MROC 131200Z 09005KT CAVOK 20/17 A3004 NOSIG=
201507131300 METAR MROC 131300Z 10010KT CAVOK 21/16 A3005 NOSIG=
201507131400 METAR MROC 131400Z 07006KT CAVOK 22/17 A3006 NOSIG=
201507131500 METAR MROC 131500Z 10010KT 9999 FEW040 BKN100 25/17 A3005 NOSIG=
201507131600 METAR MROC 131600Z 09010KT 9999 FEW040 BKN100 26/17 A3005 NOSIG=
201507131700 METAR MROC 131700Z 09010KT 9999 FEW040 BKN100 26/17 A3004 NOSIG=
201507131800 METAR MROC 131800Z 13005KT 9999 FEW040 BKN120 28/17 A3002 BECMG 23005KT=
201507131900 METAR MROC 131900Z 23010KT 9999 SCT030 BKN120 26/19 A3001 NOSIG=
201507132000 METAR MROC 132000Z 24009KT 9999 SCT030 BKN130 26/20 A2999 NOSIG=
201507132100 METAR MROC 132100Z 24008KT 9999 FEW020 SCT030 BKN200 25/20 A2997 NOSIG=
201507132120 METAR MROC 132120Z 27008KT 9999 3000SW SHRA VCTS FEW020CB BKN030 25/20 A2997 NOSIG=
201507132200 METAR MROC 132200Z 17007KT 2000 TSRA FEW010CB BKN030 21/19 A2998 NOSIG=
201507132300 METAR MROC 132300Z 01003KT 4000 -TSRA FEW002 FEW010CB SCT030 BKN100 20/19 A3000 NOSIG=
201507132335 METAR MROC 132335Z VRB02KT 8000 -RA FEW002 SCT030 BKN100 20/20 A3000 NOSIG=
201507140000 METAR MROC 140000Z VRB02KT 8000 -DZ FEW002 SCT030 BKN100 20/20 A3000 NOSIG=
201507140100 METAR MROC 140100Z 08004KT 9999 FEW045 20/19 A2999 NOSIG=
201507140200 METAR MROC 140200Z VRB02KT 9999 FEW045 20/19 A3002 NOSIG=
201507140300 METAR MROC 140300Z 09002KT 9999 FEW045 20/19 A3003 NOSIG=
201507140400 METAR MROC 140400Z 05002KT CAVOK 20/19 A3005 NOSIG=
201507140500 METAR MROC 140500Z 07002KT CAVOK 20/18 A3004 NOSIG=
201507140600 METAR MROC 140600Z 04005KT CAVOK 20/18 A3002 NOSIG=
201507140700 METAR MROC 140700Z 06008KT CAVOK 20/18 A3002 NOSIG=
201507140800 METAR MROC 140800Z 06005KT CAVOK 20/18 A3000 NOSIG=
201507140900 METAR MROC 140900Z 07004KT CAVOK 20/18 A3000 NOSIG=
201507141000 METAR MROC 141000Z 09004KT CAVOK 20/18 A3002 NOSIG=
201507141100 METAR MROC 141100Z 06005KT CAVOK 20/18 A3003 NOSIG=
201507141200 METAR MROC 141200Z 07006KT CAVOK 21/17 A3003 NOSIG=
201507141300 METAR MROC 141300Z 05005KT CAVOK 22/18 A3005 NOSIG=
201507141400 METAR MROC 141400Z 09008KT CAVOK 23/18 A3006 NOSIG=
201507141500 METAR MROC 141500Z 08006KT 9999 FEW045 BKN100 25/18 A3006 NOSIG=
201507141600 METAR MROC 141600Z 10007KT 9999 FEW045 BKN100 26/18 A3006 NOSIG=
201507141700 METAR MROC 141700Z 10003KT 9999 FEW045 BKN100 27/18 A3005 NOSIG=
201507141800 METAR MROC 141800Z 24007KT 9999 FEW035 SCT100 BKN250 26/20 A3004 NOSIG=
201507141900 METAR MROC 141900Z 24008KT 9999 VCSH SCT030 BKN100 27/20 A3003 NOSIG=
201507142000 METAR MROC 142000Z 20008KT 9999 4000N -TSRA FEW005 SCT030CB BKN100 23/19 A3002 NOSIG=
201507142100 METAR MROC 142100Z 03004KT 9999 RA SCT010CB BKN100 21/18 A3001 NOSIG=
201507142200 METAR MROC 142200Z 11003KT 9999 SCT035 BKN100 22/19 A3000 RERA NOSIG=
201507142300 METAR MROC 142300Z 00000KT 9999 FEW030 BKN130 24/20 A3000 NOSIG=
201507150000 METAR MROC 150000Z VRB02KT 9999 FEW040 BKN130 23/19 A3002 NOSIG=
201507150100 METAR MROC 150100Z 11006KT 9999 FEW040 BKN120 23/18 A3004 NOSIG=
201507150200 METAR MROC 150200Z 10004KT CAVOK 22/17 A3006 NOSIG=
201507150300 METAR MROC 150300Z 08005KT CAVOK 22/17 A3005 NOSIG=
201507150400 METAR MROC 150400Z 11008KT CAVOK 22/17 A3009 NOSIG=
201507150500 METAR MROC 150500Z 05005KT CAVOK 22/17 A3008 NOSIG=
201507150600 METAR MROC 150600Z 09004KT 9999 FEW030 SCT200 22/17 A3007 NOSIG=
201507150700 METAR MROC 150700Z 07005KT 9999 FEW030 SCT200 21/17 A3003 NOSIG=
201507150800 METAR MROC 150800Z 05008KT 9999 FEW030 SCT200 21/17 A2999 NOSIG=
201507150900 METAR MROC 150900Z 06007KT 9999 FEW030 SCT200 22/17 A3000 NOSIG=
201507151000 METAR MROC 151000Z 10010G20KT 9999 FEW030 22/16 A2999 NOSIG=
201507151100 METAR MROC 151100Z 11010G20KT 9999 FEW030 SCT110 22/16 A2999 NOSIG=
201507151200 METAR MROC 151200Z 10010KT CAVOK 22/16 A2998 NOSIG=
201507151300 METAR MROC 151300Z 03004KT CAVOK 23/16 A3000 NOSIG=
201507151400 METAR MROC 151400Z 10010KT CAVOK 24/17 A3000 NOSIG=
201507151500 METAR MROC 151500Z 08012G22KT 9999 FEW045 SCT120 SCT250 25/17 A3001 NOSIG=
201507151600 METAR MROC 151600Z 09017G29KT 9999 FEW040 BKN130 25/16 A3003 NOSIG=
201507151700 METAR MROC 151700Z 08014G25KT 9999 FEW040 BKN200 26/16 A3003 NOSIG=
201507151800 METAR MROC 151800Z 09013G23KT 9999 FEW045 SCT130 BKN200 28/14 A3001 WS R07 NOSIG=
201507151900 METAR MROC 151900Z 10013G23KT CAVOK 28/11 A2999 NOSIG=
201507152000 METAR MROC 152000Z 09012G22KT CAVOK 28/15 A2998 NOSIG=
201507152100 METAR MROC 152100Z 10015KT CAVOK 28/16 A2997 NOSIG=
201507152200 METAR MROC 152200Z 09015KT 9999 FEW035 SCT120 BKN250 28/17 A2996 NOSIG=
201507152300 METAR MROC 152300Z 12010KT 9999 FEW040 BKN250 26/18 A2997 NOSIG=
201507160000 METAR MROC 160000Z 13011KT 9999 FEW040 SCT060 BKN120 24/18 A3000 NOSIG=
201507160100 METAR MROC 160100Z 13007KT 9999 FEW040 SCT060 24/18 A3002 NOSIG=
201507160200 METAR MROC 160200Z 07005KT 9999 FEW030 SCT060 23/18 A3003 NOSIG=
201507160300 METAR MROC 160300Z 07008KT 9999 FEW030 23/19 A3005 NOSIG=
201507160400 METAR MROC 160400Z 09004KT 9999 FEW030 22/17 A3006 NOSIG=
201507160500 METAR MROC 160500Z 21003KT 9999 BCFG FEW020 21/17 A3008 BECMG 5000 BR=
201507160600 METAR MROC 160600Z 03002KT 9999 VCFG FEW010 SCT100 21/18 A3007 NOSIG=
201507160700 METAR MROC 160700Z 00000KT 9999 BCFG FEW015 SCT100 21/18 A3006 NOSIG=
201507160800 METAR MROC 160800Z 10004KT CAVOK 20/18 A3002 NOSIG=
201507160900 METAR MROC 160900Z 07005KT CAVOK 20/17 A3002 NOSIG=
201507161000 METAR MROC 161000Z 06006KT CAVOK 20/17 A2999 NOSIG=
201507161100 METAR MROC 161100Z 06005KT CAVOK 21/16 A3000 NOSIG=
201507161200 METAR MROC 161200Z 03005KT CAVOK 20/16 A3000 NOSIG=
201507161300 METAR MROC 161300Z 07007KT CAVOK 23/16 A3003 BECMG 22006KT=
201507161400 METAR MROC 161400Z COR 12008KT CAVOK 25/17 A3005 BECMG 22006KT=
201507161500 METAR MROC 161500Z 11006KT CAVOK 27/17 A3004 BECMG 22006KT=
201507161600 METAR MROC 161600Z 11010KT CAVOK 27/16 A3003 NOSIG=
201507161700 METAR MROC 161700Z 21006KT CAVOK 29/17 A3002 NOSIG=
201507161800 METAR MROC 161800Z 24011KT CAVOK 27/18 A3001 NOSIG=
201507161900 METAR MROC 161900Z 24011KT 9999 FEW040 BKN200 27/20 A3000 NOSIG=
201507162000 METAR MROC 162000Z 25013KT 9999 FEW040 SCT080 BKN200 27/19 A2998 NOSIG=
201507162100 METAR MROC 162100Z 28005KT 9999 VCSH FEW015CB SCT040 BKN200 26/18 A2998 BECMG SHRA=
201507162200 METAR MROC 162200Z 27004KT 9999 VCSH FEW012CB SCT030 BKN140 25/19 A2998 BECMG RA=
201507162300 METAR MROC 162300Z 24008KT 9999 VCSH SCT010 FEW015CB BKN030 23/21 A2998 BECMG RA BKN015=
201507170000 METAR MROC 170000Z 15003KT 9999 VCTS VCSH FEW015CB SCT025 BKN100 21/20 A3000 RESH BECMG 5000 RA BR=
201507170100 METAR MROC 170100Z 07003KT 9999 FEW010 SCT030 BKN120 22/19 A3000 NOSIG=
201507170200 METAR MROC 170200Z 08005KT CAVOK 21/18 A3000 NOSIG=
201507170300 METAR MROC 170300Z 11009KT 9999 FEW040 22/18 A3003 NOSIG=
201507170400 METAR MROC 170400Z 04005KT 9999 FEW040 21/18 A3006 NOSIG=
201507170500 METAR MROC 170500Z VRB02KT CAVOK 20/17 A3006 NOSIG=
201507170600 METAR MROC 170600Z 09003KT CAVOK 20/19 A3005 NOSIG=
201507170700 METAR MROC 170700Z 00000KT 9999 FEW030 SCT120 20/19 A3006 NOSIG=
201507170800 METAR MROC 170800Z 04006KT CAVOK 20/18 A3003 NOSIG=
201507170900 METAR MROC 170900Z 07003KT CAVOK 20/18 A3001 NOSIG=
201507171000 METAR MROC 171000Z 05005KT CAVOK 20/18 A3000 NOSIG=
201507171100 METAR MROC 171100Z 05005KT CAVOK 20/17 A3001 NOSIG=
201507171200 METAR MROC 171200Z 08007KT 9999 FEW040 BKN200 21/17 A3002 NOSIG=
201507171300 METAR MROC 171300Z 11009KT CAVOK 22/17 A3001 NOSIG=
201507171400 METAR MROC 171400Z 10013G24KT CAVOK 23/18 A3002 NOSIG=
201507171500 METAR MROC 171500Z 11011G23KT CAVOK 24/18 A3002 NOSIG=
201507171600 METAR MROC 171600Z 11009G19KT 9999 SCT035 BKN200 25/18 A3005 NOSIG=
201507171700 METAR MROC 171700Z 09010KT 9999 SCT035 BKN200 25/18 A3005 NOSIG=
201507171800 METAR MROC 171800Z 10010G20KT 9999 FEW030 BKN200 26/18 A3002 BECMG 24007KT=
201507171900 METAR MROC NIL=
201507172000 METAR MROC 172000Z 10009KT 9999 FEW030 SCT120 26/18 A2998 NOSIG=
201507172100 METAR MROC 172100Z 15005KT 9999 FEW030 SCT120 BKN200 28/17 A2997 BECMG 234007KT=
201507172200 METAR MROC 172200Z 24009KT 9999 SCT030 BKN200 25/20 A2997 NOSIG=
201507172300 METAR MROC 172300Z 24007KT 9999 FEW010 SCT030 BKN100 24/21 A2998 NOSIG=
201507180000 METAR MROC 180000Z 23007KT 8000 -RA VCFG FEW005 SCT020 BKN100 22/21 A2999 NOSIG=
201507180100 METAR MROC 180100Z 24003KT 8000 -RA VCFG FEW005 SCT020 BKN100 21/20 A3002 NOSIG=
201507180200 METAR MROC 180200Z 23005KT 8000 2000SW VCFG FEW001 SCT010 BKN100 21/20 A3004 BECMG 3000 BR BKN010=
201507180300 METAR MROC 180300Z 23002KT 8000 2000SW -RA VCFG FEW001 SCT010 BKN100 21/20 A3006 BECMG 3000 BR BKN010=
201507180400 METAR MROC 180400Z 16004KT 8000 2000SW VCFG FEW001 SCT010 BKN100 21/20 A3006 NOSIG=
201507180500 METAR MROC 180500Z 25003KT 8000 2000SW -DZ VCFG FEW001 SCT010 BKN100 21/20 A3007 NOSIG=
201507180600 METAR MROC 180600Z 32004KT 9999 FEW030 SCT100 21/20 A3006 NOSIG=
201507180700 METAR MROC 180700Z 24004KT 9999 3000SW FEW010 SCT100 21/20 A3005 NOSIG=
201507180800 METAR MROC 180800Z 30006KT 9999 3000SW FEW001 SCT010 BKN100 21/19 A3004 NOSIG=
201507180900 METAR MROC 180900Z 24004KT 9999 FEW001 SCT010 20/19 A3002 NOSIG=
201507181000 METAR MROC 181000Z 01004KT 9999 FEW001 SCT010 20/19 A3003 NOSIG=
201507181100 METAR MROC 181100Z 33002KT 9999 FEW030 SCT100 20/20 A3002 NOSIG=
201507181200 METAR MROC 181200Z 07007KT 9999 BCFG FEW045 SCT100 BKN200 20/18 A3004 NOSIG=
201507181300 METAR MROC 181300Z 09003KT 9999 FEW040 SCT100 BKN200 22/19 A3006 NOSIG=
201507181400 METAR MROC 181400Z 07003KT 9999 FEW040 SCT100 BKN200 24/19 A3007 BECMG 24007KT=
201507181500 METAR MROC 181500Z 06002KT 9999 FEW040 SCT100 BKN200 25/18 A3009 BECMG 24007KT=
201507181600 METAR MROC 181600Z 24005KT 9999 FEW040 SCT100 BKN200 24/21 A3009 BECMG 24007KT=
201507181700 METAR MROC 181700Z 24004KT 9999 FEW040 BKN200 26/20 A3008 NOSIG=
201507181800 METAR MROC 181800Z 22007KT 9999 VCSH SCT030 BKN200 24/21 A3007 NOSIG=
201507181900 METAR MROC 181900Z 24008KT 8000 VCSH FEW005 SCT030 BKN120 24/21 A3005 NOSIG=
201507182000 METAR MROC 182000Z 15002KT 2000 TSRA FEW010CB SCT015 BKN100 20/20 A3005 NOSIG=
201507182100 METAR MROC 182100Z 07006KT 5000 RA BR SCT030 BKN100 20/19 A3005 RETS NOSIG=
201507182200 METAR MROC 182200Z 07008KT 9999 RA FEW002 OVC100 20/18 A3004 NOSIG=
201507182300 METAR MROC 182300Z 07007KT 9999 -DZ NSC 20/18 A3004 NOSIG=
201507190000 METAR MROC 190000Z 07005KT CAVOK 21/18 A3004 NOSIG=
201507190100 METAR MROC 190100Z 07006KT CAVOK 21/17 A3005 NOSIG=
201507190200 METAR MROC 190200Z 06004KT CAVOK 21/17 A3005 NOSIG=
201507190300 METAR MROC 190300Z 07007KT CAVOK 21/17 A3007 NOSIG=
201507190400 METAR MROC 190400Z 07004KT CAVOK 21/16 A3009 NOSIG=
201507190500 METAR MROC 190500Z 07007KT CAVOK 21/16 A3008 NOSIG=
201507190600 METAR MROC 190600Z 05006KT CAVOK 21/17 A3008 NOSIG=
201507190700 METAR MROC 190700Z 03006KT CAVOK 21/16 A3005 NOSIG=
201507190800 METAR MROC 190800Z 04006KT CAVOK 20/17 A3004 NOSIG=
201507190900 METAR MROC 190900Z 05008KT CAVOK 21/17 A3003 NOSIG=
201507191000 METAR MROC 191000Z 06007KT CAVOK 21/16 A3002 NOSIG=
201507191100 METAR MROC 191100Z 07007KT CAVOK 21/16 A3002 NOSIG=
201507191200 METAR MROC 191200Z 06006KT CAVOK 22/16 A3004 NOSIG=
201507191300 METAR MROC 191300Z 05007KT CAVOK 23/17 A3005 NOSIG=
201507191400 METAR MROC 191400Z 06010KT CAVOK 25/18 A3006 NOSIG=
201507191500 METAR MROC 191500Z 09008KT 9999 FEW045 BKN100 25/18 A3008 NOSIG=
201507191600 METAR MROC 191600Z 11009G19KT 9999 FEW045 BKN100 26/17 A3007 NOSIG=
201507191700 METAR MROC 191700Z 12009G19KT 9999 FEW045 BKN100 28/18 A3005 NOSIG=
201507191800 METAR MROC 191800Z 14009KT 9999 FEW020TCU SCT035 BKN150 29/18 A3004 NOSIG=
201507191900 METAR MROC 191900Z 13006KT 9999 SCT035 BKN060 29/17 A3003 BECMG 23007KT=
201507192000 METAR MROC 192000Z 22006KT 9999 SCT035 BKN060 28/20 A3002 NOSIG=
201507192100 METAR MROC 192100Z 27010KT 4000 SHRA SCT010CB BKN030 22/20 A3003 BECMG 2000 TSRA=
201507192200 METAR MROC 192200Z 17005KT 4000 RA VCTS FEW008CB BKN020 20/19 A3001 NOSIG=
201507192300 METAR MROC 192300Z 03007KT 7000 RA BKN100 23/18 A3006 NOSIG=
201507200000 METAR MROC 200000Z 10008KT 7000 RA BKN100 20/18 A3007 NOSIG=
201507200100 METAR MROC 200100Z 09009KT 9999 -RA BKN100 20/18 A3004 NOSIG=
201507200200 METAR MROC 200200Z 16007KT 9999 RA FEW020 BKN100 21/18 A3009 NOSIG=
201507200300 METAR MROC 200300Z 27002KT 9999 RA FEW020 BKN100 20/18 A3012 NOSIG=
201507200400 METAR MROC 200400Z 08004KT CAVOK 19/18 A3012 RERA NOSIG=
201507200500 METAR MROC 200500Z 35003KT CAVOK 20/18 A3009 NOSIG=
201507200600 METAR MROC 200600Z 09003KT CAVOK 19/18 A3009 NOSIG=
201507200700 METAR MROC 200700Z 00000KT CAVOK 19/18 A3006 NOSIG=
201507200800 METAR MROC 200800Z 04006KT CAVOK 19/17 A3004 NOSIG=
201507200900 METAR MROC 200900Z 05007KT CAVOK 20/17 A3002 NOSIG=
201507201000 METAR MROC 201000Z 02003KT CAVOK 20/17 A3002 NOSIG=
201507201100 METAR MROC 201100Z 00000KT 9999 FEW020 BKN080 19/17 A3004 BECMG 24007KT=
201507201200 METAR MROC 201200Z 03005KT CAVOK 20/17 A3005 NOSIG=
201507201300 METAR MROC 201300Z 01004KT 9999 FEW045 BKN120 21/17 A3008 NOSIG=
201507201400 METAR MROC 201400Z 03004KT 9999 FEW035 SCT120 SCT250 25/18 A3008 BECMG 24007KT=
201507201500 METAR MROC 201500Z 04004KT 9999 FEW030 SCT250 27/18 A3008 BECMG 24007KT=
201507201600 METAR MROC 201600Z 12009KT 9999 FEW030 SCT080 27/18 A3007 NOSIG=
201507201700 METAR MROC 201700Z 13007KT 9999 FEW030 SCT080 SCT250 26/17 A3005 BECMG 24007KT=
201507201800 METAR MROC 201800Z 11508KT 9999 BKN035 SCT250 24/16 A3005 NOSIG=
201507201900 METAR MROC 201900Z 12007KT 9999 FEW035 SCT070 SCT250 25/16 A3004 NOSIG=
201507202000 METAR MROC 202000Z 13007KT 9999 FEW025TCU FEW040 BKN250 27/16 A3003 NOSIG=
201507202100 METAR MROC 202100Z 12010KT 9999 FEW040 SCT100 26/16 A3002 NOSIG=
201507202200 METAR MROC 202200Z 12008KT 9999 FEW025TCU BKN040 25/16 A3003 NOSIG=
201507202300 METAR MROC 202300Z 14008KT 9999 FEW025TCU BKN040 25/16 A3004 NOSIG=
201507210000 METAR MROC 210000Z 16011KT 9999 FEW040 BKN250 24/13 A3004 NOSIG=
201507210100 METAR MROC 210100Z 08010KT 9999 FEW040 BKN250 21/14 A3004 NOSIG=
201507210200 METAR MROC 210200Z COR 10010G20KT 9999 FEW030 SCT250 21/11 A3005 NOSIG=
201507210300 METAR MROC 210300Z 08016KT 9999 FEW030 SCT250 21/12 A3007 NOSIG=
201507210400 METAR MROC 210400Z 06007KT 9999 FEW030 SCT250 20/12 A3008 NOSIG=
201507210500 METAR MROC 210500Z 11008KT CAVOK 21/13 A3007 NOSIG=
201507210600 METAR MROC 210600Z 07007KT CAVOK 20/12 A3007 NOSIG=
201507210700 METAR MROC 210700Z 07007KT CAVOK 20/11 A3004 NOSIG=
201507210800 METAR MROC 210800Z 06005KT CAVOK 19/10 A3002 NOSIG=
201507210900 METAR MROC 210900Z 07007KT CAVOK 19/10 A3001 NOSIG=
201507211000 METAR MROC 211000Z 07008KT CAVOK 19/10 A3001 NOSIG=
201507211100 METAR MROC 211100Z 04005KT CAVOK 16/10 A3002 NOSIG=
201507211200 METAR MROC 211200Z 07005KT CAVOK 18/11 A3002 NOSIG=
201507211300 METAR MROC 211300Z 04010G20KT CAVOK 22/10 A3004 NOSIG=
201507211400 METAR MROC 211400Z 10010G20KT CAVOK 24/12 A3003 NOSIG=
201507211500 METAR MROC 211500Z 10010G20KT CAVOK 25/11 A3004 NOSIG=
201507211600 METAR MROC 211600Z 10010G20KT CAVOK 26/12 A3004 NOSIG=
201507211700 METAR MROC 211700Z 11015KT CAVOK 27/13 A3003 NOSIG=
201507211800 METAR MROC 211800Z 11014KT 9999 FEW045 BKN250 28/13 A3003 NOSIG=
201507211900 METAR MROC 211900Z 12012KT 9999 FEW045 BKN250 29/15 A3000 NOSIG=
201507212000 METAR MROC 212000Z 23014KT 9999 FEW040 BKN250 27/19 A2999 NOSIG=
201507212100 METAR MROC 212100Z 24013KT 9999 FEW020TCU SCT035 BKN250 26/20 A2999 NOSIG=
201507212200 METAR MROC 212200Z 24011KT 9999 FEW015TCU SCT025 BKN250 24/20 A2999 BECMG RA=
201507212300 METAR MROC 212300Z 24008KT 9999 FEW015TCU SCT025 BKN070 22/20 A2999 BECMG RA=
201507220000 METAR MROC 220000Z 24004KT 9999 SCT015 BKN025 22/20 A3000 BECMG RA BKN012=
201507220100 METAR MROC 220100Z 25004KT 9999 SCT012 SCT025 21/20 A3002 NOSIG=
201507220200 METAR MROC 220200Z 28003KT 9999 VCFG FEW007 SCT012 21/20 A3004 NOSIG=
201507220300 METAR MROC 220300Z 23002KT 9999 4500NW BCFG FEW003 SCT250 20/19 A3007 NOSIG=
201507220400 METAR MROC 220400Z 33002KT 9999 4000SW BCFG SCT004 20/19 A3008 NOSIG=
201507220500 METAR MROC 220500Z 05006KT 9999 VCFG FEW005 SCT100 20/17 A3007 NOSIG=
201507220600 METAR MROC 220600Z 05007KT 9999 FEW008 SCT100 20/17 A3006 NOSIG=
201507220700 METAR MROC 220700Z 07005KT 9999 FEW030 SCT120 20/16 A3003 NOSIG=
201507220800 METAR MROC 220800Z 05003KT 9999 FEW030 SCT120 19/16 A3002 NOSIG=
201507220900 METAR MROC 220900Z 07003KT CAVOK 19/16 A3001 NOSIG=
201507221000 METAR MROC 221000Z 05002KT CAVOK 19/16 A3000 NOSIG=
201507221100 METAR MROC 221100Z 01002KT CAVOK 18/16 A3001 NOSIG=
201507221200 METAR MROC 221200Z 07005KT CAVOK 18/15 A3002 NOSIG=
201507221300 METAR MROC 221300Z 07007KT CAVOK 22/15 A3003 NOSIG=
201507221400 METAR MROC 221400Z 10006KT CAVOK 25/16 A3004 NOSIG=
201507221500 METAR MROC 221500Z 10014KT CAVOK 26/14 A3004 NOSIG=
201507221600 METAR MROC 221600Z 09011KT CAVOK 28/15 A3004 NOSIG=
201507221700 METAR MROC 221700Z 07010KT CAVOK 29/17 A3003 NOSIG=
201507221800 METAR MROC 221800Z 11007KT CAVOK 29/17 A3001 NOSIG=
201507221900 METAR MROC 221900Z 14006KT 9999 FEW040 SCT250 30/17 A2998 BECMG 24009KT=
201507222000 METAR MROC 222000Z 24013KT 9999 SCT030 SCT040 26/21 A2997 BECMG TSRA=
201507222100 METAR MROC 222100Z 24010KT 9999 SCT030 BKN080 25/21 A2998 BECMG RA=
201507222200 METAR MROC 222200Z 22010KT 9999 -RA SCT030 BKN080 23/21 A2998 BECMG RA=
201507222300 METAR MROC 222300Z 23007KT 4000 BR FEW005 SCT025 BKN080 22/21 A2999 BECMG BKN015=
201507230000 METAR MROC 230000Z 29006KT 9999 4000W BR FEW005 SCT025 BKN080 21/19 A3002 BECMG BKN015=
201507230100 METAR MROC 230100Z 29002KT 9999 FEW010 SCT025 21/19 A3003 BECMG BKN015=
201507230200 METAR MROC 230200Z 00000KT 9999 SCT025 BKN100 22/19 A3006 NOSIG=
201507230300 METAR MROC 230300Z 00000KT 9999 SCT025 BKN100 21/19 A3006 NOSIG=
201507230400 METAR MROC 230400Z VRB02KT 9999 FEW025 SCT100 21/19 A3008 NOSIG=
201507230500 METAR MROC 230500Z 25004KT 9999 BCFG FEW025 BKN100 21/20 A3009 NOSIG=
201507230600 METAR MROC 230600Z 24003KT 9999 BCFG FEW025 BKN100 21/20 A3007 NOSIG=
201507230700 METAR MROC 230700Z 33008KT 9999 FEW025 BKN100 21/20 A3006 NOSIG=
201507230800 METAR MROC 230800Z 30003KT 9999 SCT025 BKN100 20/19 A3004 NOSIG=
201507230900 METAR MROC 230900Z 27004KT 8000 0800SW SCT005 BKN100 20/20 A3004 NOSIG=
201507231000 METAR MROC 231000Z 30006KT 8000 1000SW SCT005 BKN100 20/20 A3004 NOSIG=
201507231100 METAR MROC 231100Z 00000KT 9999 BCFG FEW030 SCT100 20/19 A3003 NOSIG=
201507231200 METAR MROC 231200Z 09004KT CAVOK 19/19 A3005 NOSIG=
201507231300 METAR MROC 231300Z 07003KT 9999 BCFG NSC 21/18 A3006 NOSIG=
201507231400 METAR MROC 231400Z 02006KT CAVOK 23/17 A3006 NOSIG=
201507231500 METAR MROC 231500Z 08006KT CAVOK 24/17 A3007 NOSIG=
201507231600 METAR MROC 231600Z 10011KT 9999 -RA FEW035 BKN100 23/18 A3008 NOSIG=
201507231700 METAR MROC 231700Z 10012G22KT 9999 -RA FEW035 BKN100 22/18 A3008 NOSIG=
201507231800 METAR MROC 231800Z 08007KT 9999 -RA BKN100 22/19 A3007 NOSIG=
201507231900 METAR MROC 231900Z 06008KT CAVOK 23/18 A3002 NOSIG=
201507232000 METAR MROC 232000Z 09005KT CAVOK 25/18 A3000 NOSIG=
201507232100 METAR MROC 232100Z 13005KT CAVOK 25/15 A2999 NOSIG=
201507232200 METAR MROC 232200Z 18002KT CAVOK 26/19 A3000 NOSIG=
201507232300 METAR MROC 232300Z 26005KT CAVOK 23/19 A3001 NOSIG=
201507240000 METAR MROC 240000Z 26004KT 9999 -RA BKN100 22/19 A3002 NOSIG=
201507240100 METAR MROC 240100Z 26002KT CAVOK 22/20 A3004 NOSIG=
201507240200 METAR MROC 240200Z 13003KT CAVOK 21/20 A3005 NOSIG=
201507240300 METAR MROC 240300Z 09003KT CAVOK 21/18 A3006 NOSIG=
201507240400 METAR MROC 240400Z 02005KT CAVOK 21/18 A3006 NOSIG=
201507240500 METAR MROC 240500Z 06004KT CAVOK 20/17 A3004 NOSIG=
201507240600 METAR MROC 240600Z 08003KT CAVOK 20/16 A3001 NOSIG=
201507240700 METAR MROC 240700Z 07005KT 9999 -RA NSC 21/17 A3001 NOSIG=
201507240800 METAR MROC 240800Z 01005KT 9999 FEW040 BKN100 20/17 A3001 NOSIG=
201507240900 METAR MROC 240900Z 08004KT 9999 FEW040 BKN150 21/17 A3001 NOSIG=
201507241000 METAR MROC 241000Z 08010KT 9999 FEW040 BKN130 21/17 A3002 NOSIG=
201507241100 METAR MROC 241100Z 10010KT 9999 FEW045 BKN120 21/17 A3001 NOSIG=
201507241200 METAR MROC 241200Z 10010KT 9999 FEW030 SCT100 22/17 A3002 NOSIG=
201507241300 METAR MROC 241300Z 11010G20KT 9999 FEW030 BKN100 23/17 A3005 NOSIG=
201507241400 METAR MROC 241400Z 11010KT 9999 FEW030 BKN120 23/17 A3007 NOSIG=
201507241500 METAR MROC 241500Z 10012KT 9999 FEW030 BKN120 24/18 A3008 NOSIG=
201507241600 METAR MROC 241600Z 10012KT 9999 FEW030 BKN120 26/18 A3007 NOSIG=
201507241700 METAR MROC 241700Z 11013G23KT 9999 FEW030 BKN120 27/17 A3005 NOSIG=
201507241800 METAR MROC 241800Z 09010KT 9999 FEW030 SCT120 BKN250 29/15 A3003 NOSIG=
201507241900 METAR MROC 241900Z 10014KT 9999 FEW030 SCT120 BKN250 27/16 A3001 NOSIG=
201507242000 METAR MROC 242000Z 09014KT 9999 FEW030 SCT120 BKN250 26/16 A2999 NOSIG=
201507242100 METAR MROC 242100Z 09011G21KT 9999 FEW040 BKN200 26/16 A2997 NOSIG=
201507242200 METAR MROC 242200Z 08014KT 9999 FEW040 SCT120 BKN200 26/16 A2997 NOSIG=
201507242300 METAR MROC 242300Z 07010KT 9999 FEW035 BKN250 25/16 A2996 NOSIG=
201507250000 METAR MROC 250000Z 08011KT 9999 FEW035 BKN250 24/16 A2996 NOSIG=
201507250100 METAR MROC 250100Z 07011KT 9999 FEW035 BKN250 24/16 A2998 NOSIG=
201507250200 METAR MROC 250200Z 08011KT 9999 FEW035 BKN250 24/16 A2999 NOSIG=
201507250300 METAR MROC 250300Z 08013G23KT 9999 FEW035 BKN250 24/16 A2999 NOSIG=
201507250400 METAR MROC 250400Z 09010KT 9999 FEW035 SCT250 23/16 A2999 NOSIG=
201507250500 METAR MROC 250500Z 10012KT CAVOK 23/17 A2998 NOSIG=
201507250600 METAR MROC 250600Z 09014KT CAVOK 23/17 A2995 NOSIG=
201507250700 METAR MROC 250700Z 09013G23KT CAVOK 23/17 A2994 NOSIG=
201507250800 METAR MROC 250800Z 10016G26KT CAVOK 22/17 A2991 NOSIG=
201507250900 METAR MROC 250900Z 10012G22KT CAVOK 22/17 A2992 NOSIG=
201507251000 METAR MROC 251000Z 11013G23KT 9999 FEW030 22/16 A2993 NOSIG=
201507251100 METAR MROC 251100Z 10014KT 9999 FEW040 SCT130 22/17 A2993 BECMG 10015G25KT=
201507251200 METAR MROC 251200Z 11015G25KT 9999 FEW040 SCT130 22/17 A2996 NOSIG=
201507251300 METAR MROC 251300Z 10013G25KT 9999 FEW045 SCT250 24/18 A2997 NOSIG=
201507251400 METAR MROC 251400Z 10013G23KT 9999 FEW040 SCT080 26/18 A2999 NOSIG=
201507251500 METAR MROC 251500Z 10011KT 9999 SCT035 27/19 A2998 NOSIG=
201507251600 METAR MROC 251600Z 11010KT 9999 FEW035 SCT060 27/19 A2997 NOSIG=
201507251700 METAR MROC 251700Z 11014G24KT 9999 SCT035 27/18 A2996 NOSIG=
201507251800 METAR MROC 251800Z 09015G26KT 9999 FEW035 BKN060 27/18 A2995 NOSIG=
201507251900 METAR MROC 251900Z 09012KT 9999 FEW035 BKN060 27/18 A2994 NOSIG=
201507252000 METAR MROC 252000Z 07012G22KT 9999 SCT035 28/17 A2992 NOSIG=
201507252100 METAR MROC 252100Z 06010G20KT 9999 FEW040 SCT250 28/17 A2990 NOSIG=
201507252200 METAR MROC 252200Z 07011G21KT 9999 FEW040 SCT250 28/16 A2990 NOSIG=
201507252300 METAR MROC 252300Z 07011G21KT 9999 FEW040 SCT250 26/16 A2990 NOSIG=
201507252352 METAR MROC 260000Z 07014G24KT 9999 FEW040 SCT250 25/16 A2992 NOSIG=
201507260000 METAR MROC 260000Z 07014G24KT 9999 FEW040 SCT250 25/16 A2992 NOSIG=
201507260100 METAR MROC 260100Z 07011G21KT 9999 FEW030 24/16 A2993 NOSIG=
201507260200 METAR MROC 260200Z 08011G21KT 9999 FEW030 24/17 A2995 NOSIG=
201507260300 METAR MROC 260300Z 09012G22KT 9999 FEW030 23/17 A2997 NOSIG=
201507260400 METAR MROC 260400Z 09014KT CAVOK 23/17 A2998 NOSIG=
201507260500 METAR MROC 260500Z 09015G25KT CAVOK 23/16 A2997 NOSIG=
201507260600 METAR MROC 260600Z 10014G24KT CAVOK 23/16 A2995 NOSIG=
201507260700 METAR MROC 260700Z 09012G22KT CAVOK 22/16 A2992 NOSIG=
201507260800 METAR MROC 260800Z 10013G23KT CAVOK 22/17 A2991 NOSIG=
201507260900 METAR MROC 260900Z 09014G24KT CAVOK 22/17 A2989 NOSIG=
201507261000 METAR MROC 261000Z 10017G30KT CAVOK 22/17 A2989 NOSIG=
201507261100 METAR MROC 261100Z 10014G24KT CAVOK 22/17 A2991 NOSIG=
201507261200 METAR MROC 261200Z 10015G25KT 9999 FEW030 22/17 A2992 NOSIG=
201507261300 METAR MROC 261300Z 09015KT 9999 FEW030 24/17 A2994 NOSIG=
201507261400 METAR MROC 261400Z 09015KT 9999 FEW030 SCT250 25/17 A2995 NOSIG=
201507261500 METAR MROC 261500Z 10014G24KT 9999 FEW030 BKN250 25/17 A2996 NOSIG=
201507261600 METAR MROC 261600Z 09012KT 9999 FEW030 SCT250 27/16 A2997=
201507261700 METAR MROC 261700Z 09010G20KT 9999 FEW035 29/16 A2997 NOSIG=
201507261800 METAR MROC 261800Z 07013G23KT 9999 FEW035 BKN200 29/15 A2995 NOSIG=
201507261900 METAR MROC 261900Z 09010G20KT 9999 FEW035 BKN200 27/16 A2995 NOSIG=
201507262000 METAR MROC 262000Z 08011G21KT 9999 FEW035 BKN200 28/16 A2993 NOSIG=
201507262100 METAR MROC 262100Z 10010G20KT 9999 FEW035 BKN200 28/17 A2993 NOSIG=
201507262200 METAR MROC 262200Z 08011KT 9999 FEW035 SCT070 BKN200 26/17 A2993 NOSIG=
201507262300 METAR MROC 262300Z 11008KT 9999 FEW035 BKN200 25/17 A2994 NOSIG=
201507270000 METAR MROC 270000Z 10009KT 9999 FEW035 BKN200 24/18 A2997 NOSIG=
201507270100 METAR MROC 270100Z 09012KT CAVOK 23/18 A2997 NOSIG=
201507270200 METAR MROC 270200Z 05004KT CAVOK 22/17 A2998 NOSIG=
201507270300 METAR MROC 270300Z 09009KT 9999 FEW040 22/17 A2999 NOSIG=
201507270400 METAR MROC 270400Z 08009KT 9999 FEW035 22/17 A3000 NOSIG=
201507270500 METAR MROC 270500Z 03007KT 9999 FEW035 22/17 A2999 NOSIG=
201507270600 METAR MROC 270600Z 09007KT 9999 FEW040 22/17 A2998 NOSIG=
201507270700 METAR MROC 270700Z 05004KT 9999 FEW035 21/17 A2997 NOSIG=
201507270800 METAR MROC 270800Z 06005KT 9999 FEW035 21/17 A2996 NOSIG=
201507270900 METAR MROC 270900Z 09008KT 9999 FEW035 22/17 A2994 NOSIG=
201507271000 METAR MROC 271000Z 10012G22KT 9999 FEW035 21/17 A2993 NOSIG=
201507271100 METAR MROC 271100Z 10012G22KT 9999 FEW035 22/17 A2993 NOSIG=
201507271200 METAR MROC 271200Z 10014G24KT 9999 FEW035 SCT060 BKN250 22/17 A2993 NOSIG=
201507271300 METAR MROC 271300Z 10016G26KT 9999 FEW030 BKN250 23/17 A2995 NOSIG=
201507271400 METAR MROC 271400Z 10015G27KT 9999 FEW030 BKN250 24/17 A2998 NOSIG=
201507271500 METAR MROC 271500Z 10016G26KT 9999 FEW035 BKN250 25/16 A2998 NOSIG=
201507271600 METAR MROC 271600Z 10016G26KT 9999 FEW030 BKN250 26/16 A2997 NOSIG=
201507271700 METAR MROC 271700Z 08014G24KT 9999 FEW030 BKN250 28/16 A2998 NOSIG=
201507271800 METAR MROC 271800Z 08011KT 9999 SCT030 BKN250 28/16 A2998 NOSIG=
201507271900 METAR MROC 271900Z 11006KT 9999 SCT030 BKN250 27/17 A2996 NOSIG=
201507272000 METAR MROC 272000Z 08007KT 9999 SCT030 BKN250 27/17 A2994 NOSIG=
201507272100 METAR MROC 272100Z 08007KT 9999 FEW040 BKN250 28/17 A2993 NOSIG=
201507272200 METAR MROC 272200Z 10010KT 9999 FEW040 BKN250 27/17 A2992 NOSIG=
201507272300 METAR MROC 272300Z 10007KT 9999 FEW035 BKN250 26/16 A2992 NOSIG=
201507280000 METAR MROC 280000Z 11010KT 9999 FEW035 BKN250 25/16 A2993 NOSIG=
201507280100 METAR MROC 280100Z 07007KT 9999 FEW035 BKN250 23/17 A2996 NOSIG=
201507280200 METAR MROC 280200Z 09007KT 9999 FEW035 BKN250 23/17 A2997 NOSIG=
201507280300 METAR MROC 280300Z 08010KT 9999 FEW035 BKN250 22/17 A2998 NOSIG=
201507280400 METAR MROC 280400Z 09010G20KT 9999 FEW025 23/18 A2998 NOSIG=
201507280500 METAR MROC 280500Z 10017KT 9999 FEW025 23/17 A3000 NOSIG=
201507280600 METAR MROC 280600Z 11015KT 9999 FEW025 22/16 A2998 NOSIG=
201507280700 METAR MROC 280700Z 12015KT 9999 FEW025 22/16 A2997 NOSIG=
201507280800 METAR MROC 280800Z 04009KT 9999 FEW025 21/16 A2994 NOSIG=
201507280900 METAR MROC 280900Z 11016KT 9999 FEW025 22/16 A2993 NOSIG=
201507281000 METAR MROC 281000Z 11013KT 9999 FEW025 22/16 A2994 NOSIG=
201507281100 METAR MROC 281100Z 11013KT 9999 FEW025 22/17 A2994 NOSIG=
201507281200 METAR MROC 281200Z 10015KT 9999 FEW040 SCT250 22/17 A2997 NOSIG=
201507281300 METAR MROC 281300Z 10015KT 9999 FEW040 SCT250 24/18 A2996 NOSIG=
201507281400 METAR MROC 281400Z 10012KT 9999 FEW035 BKN250 25/18 A2997 NOSIG=
201507281500 METAR MROC 281500Z 10012KT 9999 FEW035 BKN250 26/18 A2998 NOSIG=
201507281600 METAR MROC 281600Z 08012G22KT 9999 -RA FEW035 SCT100 BKN250 25/18 A2998 NOSIG=
201507281700 METAR MROC 281700Z 08010KT 9999 SCT035 BKN250 28/18 A2998 NOSIG=
201507281800 METAR MROC 281800Z 09012KT 9999 SCT030 BKN250 28/16 A2995 NOSIG=
201507281900 METAR MROC 281900Z 08010KT 9999 SCT030 BKN250 27/17 A2994 NOSIG=
201507282000 METAR MROC 282000Z 10004KT 9999 SCT030 BKN250 25/19 A2992 NOSIG=
201507282100 METAR MROC 282100Z 09011KT 9999 FEW030 BKN100 25/17 A2990 NOSIG=
201507282200 METAR MROC 282200Z 07007KT 9999 FEW030 BKN100 25/17 A2992 NOSIG=
201507282300 METAR MROC 282300Z 09008KT 9999 FEW030 BKN100 24/17 A2994 NOSIG=
201507290000 METAR MROC 290000Z 11005KT 9999 FEW030 SCT100 BKN200 23/17 A2996 NOSIG=
201507290100 METAR MROC 290100Z 09008KT 9999 FEW030 BKN200 22/17 A2997 NOSIG=
201507290200 METAR MROC 290200Z 11008KT 9999 FEW030 BKN200 22/17 A2998 NOSIG=
201507290300 METAR MROC 290300Z 11008KT CAVOK 22/17 A2999 NOSIG=
201507290400 METAR MROC NIL=
201507290500 METAR MROC 290500Z 11010G20KT CAVOK 22/16 A3000 NOSIG=
201507290600 METAR MROC 290600Z 10013KT CAVOK 22/16 A3000 NOSIG=
201507290700 METAR MROC 290700Z 08007KT CAVOK 21/16 A2996 NOSIG=
201507290800 METAR MROC 290800Z 10014KT CAVOK 21/16 A2994 NOSIG=
201507290900 METAR MROC 290900Z 07007KT CAVOK 21/16 A2995 NOSIG=
201507291000 METAR MROC 291000Z 10009KT CAVOK 21/16 A2994 NOSIG=
201507291100 METAR MROC 291100Z 04003KT CAVOK 21/17 A2995 NOSIG=
201507291200 METAR MROC 291200Z 08006KT 9999 FEW035 BKN200 22/16 A2998 NOSIG=
201507291300 METAR MROC 291300Z 06006KT CAVOK 23/16 A2999 NOSIG=
201507291400 METAR MROC 291400Z 09008KT CAVOK 26/17 A3000 NOSIG=
201507291500 METAR MROC 291500Z 10008KT CAVOK 26/17 A3000 NOSIG=
201507291600 METAR MROC 291600Z 12008KT CAVOK 28/16 A2999 NOSIG=
201507291700 METAR MROC 291700Z 09007KT 9999 FEW040 BKN200 29/16 A2999 NOSIG=
201507291800 METAR MROC 291800Z 08007KT 9999 FEW040 BKN200 28/17 A2998 NOSIG=
201507291900 METAR MROC 291900Z 10006KT 9999 SCT040 BKN200 28/17 A2997 NOSIG=
201507292000 METAR MROC 292000Z 23009KT 9999 SCT030 SCT120 25/20 A2996 NOSIG=
201507292100 METAR MROC 292100Z 24010KT 9999 SCT030 SCT120 24/20 A2996 NOSIG=
201507292200 METAR MROC 292200Z 26003KT 8000 RA FEW010 SCT030 BKN100 23/21 A2996 NOSIG=
201507292300 METAR MROC 292300Z 29005KT 9999 BCFG FEW005 SCT030 BKN100 21/20 A2998 NOSIG=
201507300000 METAR MROC 300000Z 30003KT 9999 BCFG FEW005 SCT030 BKN100 21/20 A2998 NOSIG=
201507300100 METAR MROC 300100Z 34002KT 9999 FEW010 SCT030 BKN100 21/20 A3003 NOSIG=
201507300200 METAR MROC 300200Z 34002KT 9999 FEW010 SCT030 BKN100 21/20 A3003 NOSIG=
201507300300 METAR MROC 300300Z 00000KT 9999 FEW015 SCT030 BKN100 21/20 A3006 NOSIG=
201507300400 METAR MROC 300400Z 07002KT 9999 FEW030 SCT100 21/20 A3006 NOSIG=
201507300500 METAR MROC 300500Z 10003KT 9999 FEW030 SCT100 21/20 A3004 NOSIG=
201507300600 METAR MROC 300600Z 06005KT 9999 FEW030 SCT100 21/19 A3002 NOSIG=
201507300700 METAR MROC 300700Z 10008KT 9999 FEW030 SCT100 21/18 A3000 NOSIG=
201507300800 METAR MROC 300800Z 09007KT 9999 FEW030 SCT120 22/17 A2998 NOSIG=
201507300900 METAR MROC 300900Z 11010KT 9999 FEW030 SCT120 22/17 A2998 NOSIG=
201507301000 METAR MROC 301000Z 12006KT 9999 FEW030 SCT120 22/17 A2998 NOSIG=
201507301100 METAR MROC 301100Z 09007KT 9999 FEW030 SCT120 22/17 A2999 NOSIG=
201507301200 METAR MROC 301200Z 11008KT 9999 FEW030 SCT240 22/17 A3000 NOSIG=
201507301300 METAR MROC 301300Z 10010KT 9999 FEW040 SCT140 23/17 A3001 NOSIG=
201507301400 METAR MROC 301400Z 10012G22KT 9999 FEW035 SCT120 24/17 A3002 NOSIG=
201507301500 METAR MROC 301500Z 10010G20KT 9999 FEW035 BKN120 25/18 A3002 NOSIG=
201507301600 METAR MROC 301600Z 10012G22KT 9999 FEW035 BKN120 26/17 A3002 NOSIG=
201507301700 METAR MROC 301700Z 07011G22KT 9999 FEW035 SCT120 29/16 A3003 NOSIG=
201507301800 METAR MROC 301800Z 08012G22KT 9999 SCT035 SCT120 27/17 A3002 NOSIG=
201507301900 METAR MROC 301900Z 09016G26KT 9999 SCT030 BKN100 25/15 A3000 NOSIG=
201507302000 METAR MROC 302000Z COR 08017G31KT 9999 VCSH FEW035 SCT060 BKN100 24/14 A3001 NOSIG=
201507302100 METAR MROC 302100Z 08011G21KT 9999 FEW035 SCT100 BKN200 24/13 A3001 NOSIG=
201507302200 METAR MROC 302200Z 09010G20KT 9999 -DZ BKN100 23/12 A2998 NOSIG=
201507302300 METAR MROC 302300Z 11014KT CAVOK 23/12 A2998 NOSIG=
201507302353 METAR MROC 310000Z 11010KT CAVOK 23/13 A2999 NOSIG=
201507310000 METAR MROC 310000Z 11010KT CAVOK 23/13 A2999 NOSIG=
201507310100 METAR MROC 310100Z 03006KT CAVOK 23/13 A3001 NOSIG=
201507310200 METAR MROC 310200Z 10004KT CAVOK 23/13 A3004 NOSIG=
201507310300 METAR MROC 310300Z 11010G20KT CAVOK 22/14 A3004 NOSIG=
201507310400 METAR MROC 310400Z 11010KT CAVOK 22/14 A3006 NOSIG=
201507310500 METAR MROC 310500Z 10010KT CAVOK 21/16 A3005 NOSIG=
201507310600 METAR MROC 310600Z 08005KT CAVOK 21/16 A3003 NOSIG=
201507310700 METAR MROC 310700Z 34003KT CAVOK 20/16 A3003 NOSIG=
201507310800 METAR MROC 310800Z 03001KT CAVOK 19/16 A3000 NOSIG=
201507310900 METAR MROC 310900Z 09010KT CAVOK 22/14 A2998 NOSIG=
201507311000 METAR MROC 311000Z 09012KT CAVOK 21/14 A2999 NOSIG=
201507311100 METAR MROC 311100Z 10006KT CAVOK 20/15 A3000 NOSIG=
201507311200 METAR MROC 311200Z 11011KT CAVOK 21/15 A3001 NOSIG=
201507311300 METAR MROC 311300Z 10010G20KT CAVOK 21/15 A3003 NOSIG=
201507311400 METAR MROC 311400Z 11017KT 9999 FEW040 SCT120 BKN250 22/15 A3003 NOSIG=
201507311500 METAR MROC 311500Z 11011G21KT 9999 FEW040 BKN120 24/15 A3004 NOSIG=
201507311600 METAR MROC 311600Z 08011G21KT 9999 FEW040 SCT120 26/14 A3004 NOSIG=
201507311700 METAR MROC 311700Z 08011G21KT 9999 SCT040 27/15 A3004 NOSIG=
201507311800 METAR MROC 311800Z 09014G24KT 9999 SCT040 27/16 A3003 NOSIG=
201507311900 METAR MROC 311900Z 09016G26KT 9999 FEW035 SCT080 26/12 A3002 NOSIG=
201507312000 METAR MROC 312000Z 10010G20KT 9999 FEW035 SCT100 26/13 A2999 NOSIG=
201507312100 METAR MROC 312100Z 12010KT 9999 SCT045 BKN100 26/14 A2998 NOSIG=
201507312200 METAR MROC 312200Z 10009KT 9999 FEW045 BKN100 25/13 A2997 NOSIG=
201507312300 METAR MROC 312300Z 11016KT 9999 FEW045 BKN120 24/13 A2998 NOSIG=
201508010000 METAR MROC 010000Z 10010G20KT CAVOK 23/15 A2998 NOSIG=
201508010100 METAR MROC 010100Z 09009G19KT CAVOK 22/15 A2999 NOSIG=
201508010200 METAR MROC 010200Z 10010G20KT CAVOK 22/15 A3000 NOSIG=
201508010300 METAR MROC 010300Z 08009KT CAVOK 22/14 A3002 NOSIG=
201508010400 METAR MROC 010400Z 07006KT CAVOK 22/15 A3005 NOSIG=
201508010500 METAR MROC 010500Z 06005KT CAVOK 21/14 A3004 NOSIG=
201508010600 METAR MROC 010600Z 08008KT CAVOK 21/14 A3002 NOSIG=
201508010700 METAR MROC 010700Z 06006KT CAVOK 21/14 A3000 NOSIG=
201508010800 METAR MROC 010800Z 07006KT CAVOK 21/14 A2998 NOSIG=
201508010900 METAR MROC 010900Z 07007KT CAVOK 21/14 A2998 NOSIG=
201508011000 METAR MROC 011000Z 07005KT CAVOK 21/14 A2998 NOSIG=
201508011100 METAR MROC 011100Z 07005KT CAVOK 20/15 A2999 NOSIG=
201508011200 METAR MROC 011200Z 06007KT CAVOK 21/14 A2999 NOSIG=
201508011300 METAR MROC 011300Z 08003KT CAVOK 22/15 A3001 NOSIG=
201508011400 METAR MROC 011400Z 08004KT CAVOK 24/16 A3002 NOSIG=
201508011500 METAR MROC 011500Z 10009KT CAVOK 25/16 A3003 NOSIG=
201508011600 METAR MROC 011600Z 10007KT CAVOK 28/16 A3001 NOSIG=
201508011700 METAR MROC 011700Z 10009KT 9999 FEW040 SCT250 29/16 A3000 BECMG 24009KT=
201508011800 METAR MROC 011800Z 22006KT 9999 SCT040 30/18 A2999 NOSIG=
201508011900 METAR MROC 011900Z 24008KT 9999 FEW020TCU SCT045 27/18 A2999=
201508012000 METAR MROC 012000Z 22008KT 9999 FEW020TCU SCT040 28/20 A2996 BECMG SHRA=
201508012100 METAR MROC 012100Z 25011KT 9999 FEW020TCU SCT030 26/21 A2994 BECMG 5000 TSRA FEW010CB=
201508012200 METAR MROC 012200Z 222005KT 9999 -RA FEW008 SCT018 BKN100 21/19 A2995 NOSIG=
201508012300 METAR MROC 012300Z 20003KT 9999 FEW025 SCT035 BKN110 21/20 A2995 NOSIG=
201508020000 METAR MROC 020000Z 02003KT 9999 -RA FEW025 BKN110 22/21 A2997 NOSIG=
201508020100 METAR MROC 020100Z 34002KT 9999 FEW030 BKN120 22/20 A2997 NOSIG=
201508020200 METAR MROC 020200Z 07006KT 9999 FEW030 BKN120 22/18 A2998 NOSIG=
201508020300 METAR MROC 020300Z 09010KT 9999 FEW030 BKN120 22/17 A2999 NOSIG=
201508020400 METAR MROC 020400Z 10008KT 9999 FEW030 BKN120 22/18 A3001 NOSIG=
201508020500 METAR MROC 020500Z 07014KT 9999 FEW030 BKN120 22/18 A2999 NOSIG=
201508020600 METAR MROC 020600Z 11014KT 9999 FEW030 BKN120 22/17 A2998 NOSIG=
201508020700 METAR MROC 020700Z 05015KT 9999 FEW030 BKN120 22/18 A2996 NOSIG=
201508020800 METAR MROC 020800Z 08011KT 9999 FEW030 BKN120 22/17 A2994 NOSIG=
201508020900 METAR MROC 020900Z 05006KT 9999 FEW030 BKN120 22/17 A2993 NOSIG=
201508021000 METAR MROC 021000Z 11014KT 9999 FEW030 BKN120 22/17 A2992 NOSIG=
201508021100 METAR MROC 021100Z 09011KT 9999 FEW030 22/17 A2992 NOSIG=
201508021200 METAR MROC 021200Z 10013KT 9999 FEW035 22/17 A2994 NOSIG=
201508021300 METAR MROC 021300Z 11008KT 9999 FEW035 24/18 A2997 NOSIG=
201508021400 METAR MROC 021400Z 11007KT 9999 FEW035 SCT250 25/18 A2996 NOSIG=
201508021500 METAR MROC 021500Z 10011KT 9999 FEW035 SCT250 27/18 A2998 NOSIG=
201508021600 METAR MROC 021600Z 07012KT 9999 FEW035 SCT250 28/16 A2998 NOSIG=
201508021700 METAR MROC 021700Z 08012KT 9999 SCT035 28/17 A2996 NOSIG=
201508021800 METAR MROC 021800Z 08012KT 9999 SCT035 28/17 A2995 NOSIG=
201508021900 METAR MROC 021900Z 07012KT 9999 SCT035 30/16 A2992 NOSIG=
201508022000 METAR MROC 022000Z 06014KT SCT035 30/16 A2991 NOSIG=
201508022100 METAR MROC 022100Z 08009KT 9999 SCT035 SCT250 29/16 A2989 NOSIG=
201508022200 METAR MROC 022200Z 08008KT BKN035 28/15 A2989 NOSIG=
201508022300 METAR MROC 022300Z 13002KT 9999 FEW035 SCT200 27/18 A2991 NOSIG=
201508030000 METAR MROC 030000Z 09006KT 9999 FEW035 SCT200 25/17 A2991 NOSIG=
201508030100 METAR MROC 030100Z 07007KT CAVOK 24/17 A2992 NOSIG=
201508030200 METAR MROC 030200Z 09007KT CAVOK 24/17 A2993 NOSIG=
201508030300 METAR MROC 030300Z 09006KT CAVOK 23/17 A2994 NOSIG=
201508030400 METAR MROC 030400Z 10008KT CAVOK 23/17 A2997 NOSIG=
201508030500 METAR MROC 030500Z 12006KT CAVOK 23/17 A2996 NOSIG=
201508030600 METAR MROC 030600Z 02004KT 9999 FEW030 SCT120 22/17 A2996 NOSIG=
201508030700 METAR MROC 030700Z 08005KT 9999 FEW040 SCT120 23/18 A2994 NOSIG=
201508030800 METAR MROC 030800Z 11007KT 9999 FEW030 22/17 A2992 NOSIG=
201508030900 METAR MROC 030900Z 11009KT 9999 FEW030 22/18 A2991 NOSIG=
201508031000 METAR MROC 031000Z 11009KT 9999 FEW030 22/17 A2990 NOSIG=
201508031100 METAR MROC 031100Z 10010KT 9999 FEW030 22/17 A2992 NOSIG=
201508031200 METAR MROC 031200Z 10012KT 9999 FEW030 SCT060 23/17 A2993 NOSIG=
201508031300 METAR MROC 031300Z COR 11009KT 9999 FEW040 SCT250 24/17 A2994 NOSIG=
201508031400 METAR MROC 031400Z 08010G20KT 9999 FEW045 26/17 A2994 NOSIG=
201508031500 METAR MROC 031500Z 08013G24KT 9999 FEW045 27/17 A2995 NOSIG=
201508031600 METAR MROC 031600Z COR 10011KT 9999 FEW040 SCT250 28/17 A2993 NOSIG=
201508031700 METAR MROC 031700Z 09012G22KT 9999 FEW040 29/17 A2993 NOSIG=
201508031800 METAR MROC 031800Z 09010KT 9999 FEW040 29/17 A2992 NOSIG=
201508031900 METAR MROC 031900Z 08011G21KT 9999 FEW040 29/17 A2992 NOSIG=
201508032000 METAR MROC 032000Z 07013G23KT 9999 FEW040 29/16 A2989 NOSIG=
201508032100 METAR MROC 032100Z 07010G20KT 9999 FEW040 29/16 A2989 NOSIG=
201508032200 METAR MROC 032200Z 07010G20KT 9999 FEW035 SCT250 28/16 A2989 NOSIG=
201508032300 METAR MROC 032300Z 08011G21KT 9999 FEW035 SCT250 26/17 A2990 NOSIG=
201508040000 METAR MROC 040000Z 09010KT 9999 FEW035 SCT250 25/17 A2990 NOSIG=
201508040100 METAR MROC 040100Z 08012KT 9999 FEW035 24/17 A2992 NOSIG=
201508040200 METAR MROC 040200Z 07010G20KT CAVOK 24/17 A2994 NOSIG=
201508040300 METAR MROC 040300Z 08014G24KT CAVOK 23/18 A2995 NOSIG=
201508040400 METAR MROC 040400Z 10010G20KT CAVOK 23/18 A2996 NOSIG=
201508040500 METAR MROC 040500Z 10014KT CAVOK 23/18 A2996 NOSIG=
201508040600 METAR MROC 040600Z 11012KT CAVOK 23/18 A2994 NOSIG=
201508040700 METAR MROC 040700Z 10012KT 9999 FEW035 23/17 A2994 NOSIG=
201508040800 METAR MROC 040800Z 10014G24KT 9999 FEW035 22/17 A2992 NOSIG=
201508040900 METAR MROC 040900Z 09012KT 9999 FEW035 22/17 A2992 NOSIG=
201508041000 METAR MROC NIL=
201508041100 METAR MROC 041100Z 10013KT 9999 FEW030 22/17 A2993 NOSIG=
201508041200 METAR MROC 041200Z 11012G22KT 9999 FEW030 SCT250 22/17 A2994 NOSIG=
201508041300 METAR MROC 041300Z 10013G23KT 9999 FEW040 BKN250 23/17 A2995 NOSIG=
201508041400 METAR MROC 041400Z 10016G26KT 9999 FEW045 BKN250 25/18 A2995 NOSIG=
201508041500 METAR MROC 041500Z 08013G25KT 9999 FEW040 BKN250 26/17 A2998 NOSIG=
201508041600 METAR MROC 041600Z 10017G27KT 9999 FEW040 SCT250 27/18 A2996 NOSIG=
201508041700 METAR MROC 041700Z 11012G22KT 9999 BKN040 27/18 A2997 NOSIG=
201508041800 METAR MROC 041800Z 09012G22KT 9999 BKN035 28/18 A2996 NOSIG=
201508041900 METAR MROC 041900Z 10012KT 9999 SCT035 SCT250 27/18 A2994 NOSIG=
201508042000 METAR MROC 042000Z 09014G24KT 9999 SCT035 SCT250 27/18 A2992 NOSIG=
201508042100 METAR MROC 042100Z 10015KT 9999 FEW030 SCT250 26/18 A2993 NOSIG=
201508042200 METAR MROC 042200Z 08015KT 9999 FEW030 SCT250 26/17 A2991 NOSIG=
201508042300 METAR MROC 042300Z 10010G20KT 9999 FEW030 SCT250 25/18 A2991 NOSIG=
201508050000 METAR MROC 050000Z 09010G20KT 9999 FEW030 SCT140 25/17 A2992 NOSIG=
201508050100 METAR MROC 050100Z 09011G21KT 9999 FEW030 24/18 A2994 NOSIG=
201508050200 METAR MROC 050200Z 10011G21KT 9999 FEW030 23/17 A2995 NOSIG=
201508050300 METAR MROC 050300Z 10013G23KT 9999 FEW030 23/18 A2997 NOSIG=
201508050400 METAR MROC 050400Z 10013KT CAVOK 23/17 A2999 NOSIG=
201508050500 METAR MROC 050500Z 10012G22KT CAVOK 23/17 A2998 NOSIG=
201508050600 METAR MROC 050600Z 10013G23KT CAVOK 23/18 A2997 NOSIG=
201508050700 METAR MROC 050700Z 07010KT CAVOK 23/18 A2997 NOSIG=
201508050800 METAR MROC 050800Z 09010G20KT CAVOK 22/18 A2995 NOSIG=
201508050900 METAR MROC 050900Z 10012KT CAVOK 22/18 A2994 NOSIG=
201508051000 METAR MROC 051000Z 09012KT CAVOK 23/18 A2993 NOSIG=
201508051100 METAR MROC 051100Z 10011KT 9999 FEW030 23/18 A2994 NOSIG=
201508051200 METAR MROC 051200Z 09014KT 9999 FEW030 SCT250 23/18 A2996 NOSIG=
201508051300 METAR MROC 051300Z 09010G20KT 9999 FEW035 SCT250 25/17 A2996 NOSIG=
201508051400 METAR MROC 051400Z 10010G20KT 9999 FEW035 26/18 A2997 NOSIG=
201508051500 METAR MROC 051500Z 08014G25KT 9999 FEW035 SCT250 27/18 A2998 NOSIG=
201508051600 METAR MROC 051600Z 09013G23KT 9999 FEW035 SCT250 29/17 A2996 NOSIG=
201508051700 METAR MROC 051700Z 10012G22KT 9999 FEW035 SCT250 29/18 A2995 NOSIG=
201508051800 METAR MROC 051800Z 08018KT 9999 FEW035 SCT250 30/18 A2994 NOSIG=
201508051900 METAR MROC 051900Z 08018KT 9999 FEW035 SCT250 30/18 A2994 NOSIG=
201508052000 METAR MROC 052000Z 09017KT 9999 BKN035 28/17 A2992 NOSIG=
201508052100 METAR MROC 072100Z 07010G20KT 9999 FEW020TCU SCT030 27/17 A2991 NOSIG=
201508052200 METAR MROC 052200Z 08008KT 9999 FEW030 SCT040 28/17 A2990 NOSIG=
201508052300 METAR MROC 052300Z 09007KT 9999 FEW030 SCT045 28/18 A2991 NOSIG=
201508060000 METAR MROC 060000Z 09007KT 9999 FEW030 SCT070 BKN250 25/18 A2993 NOSIG=
201508060100 METAR MROC 060100Z 14004KT 9999 FEW030 SCT080 24/17 A2994 NOSIG=
201508060200 METAR MROC 060200Z 10008KT 9999 FEW030 SCT080 24/17 A2998 NOSIG=
201508060300 METAR MROC 060300Z 06008KT 9999 FEW035 SCT090 23/18 A2998 NOSIG=
201508060400 METAR MROC 060400Z 10009KT 9999 FEW035 SCT100 23/17 A2998 NOSIG=
201508060500 METAR MROC 060500Z 11010KT 9999 FEW035 SCT100 23/17 A2997 NOSIG=
201508060600 METAR MROC 060600Z 11009KT CAVOK 23/17 A2995 NOSIG=
201508060700 METAR MROC 060700Z 10012KT CAVOK 23/17 A2993 NOSIG=
201508060800 METAR MROC 060800Z 09008KT CAVOK 23/17 A2992 NOSIG=
201508060900 METAR MROC 060900Z 06004KT CAVOK 22/18 A2993 NOSIG=
201508061000 METAR MROC 061000Z VRB02KT CAVOK 22/17 A2995 NOSIG=
201508061100 METAR MROC 061100Z 10010KT CAVOK 22/18 A2993 NOSIG=
201508061200 METAR MROC 061200Z 10011G21KT 9999 FEW035 BKN200 23/18 A2993 NOSIG=
201508061300 METAR MROC 061300Z 10010G23KT 9999 FEW030 BKN200 25/18 A2995 NOSIG=
201508061400 METAR MROC 061400Z 10013G25KT 9999 FEW030 BKN250 26/18 A2996 NOSIG=
201508061500 METAR MROC 061500Z 10014G24KT 9999 FEW030 BKN200 26/18 A2997 NOSIG=
201508061600 METAR MROC 061600Z 10013G24KT 9999 SCT030 BKN200 27/18 A2997 NOSIG=
201508061700 METAR MROC 061700Z 07013G24KT 9999 SCT030 30/17 A2997 NOSIG=
201508061800 METAR MROC 061800Z 10011G21KT 9999 FEW030 SCT250 29/17 A2995 NOSIG=
201508061900 METAR MROC 061900Z 08010KT 9999 FEW030 SCT200 30/17 A2992 NOSIG=
201508062000 METAR MROC 062000Z 08013KT 9999 SCT030 SCT100 30/17 A2989 NOSIG=
201508062100 METAR MROC 062100Z 09013KT 9999 SCT030 BKN220 27/16 A2989 NOSIG=
201508062200 METAR MROC 062200Z 09012KT 9999 SCT030 BKN220 26/18 A2991 NOSIG=
201508062300 METAR MROC 062300Z 11008KT 9999 FEW030 SCT110 BKN240 25/18 A2990 NOSIG=
201508070000 METAR MROC 070000Z 11010KT 9999 FEW030 SCT110 BKN240 24/18 A2990 NOSIG=
201508070100 METAR MROC 070100Z 10011G21KT 9999 FEW030 BKN240 23/18 A2991 NOSIG=
201508070200 METAR MROC 070200Z 08010KT 9999 FEW030 BKN240 23/18 A2992 NOSIG=
201508070300 METAR MROC 070300Z 08010KT 9999 FEW030 SCT240 23/18 A2992 NOSIG=
201508070400 METAR MROC 070400Z 10010G20KT 9999 FEW030 23/18 A2997 NOSIG=
201508070500 METAR MROC 070500Z 11016KT 9999 FEW030 SCT100 23/18 A2998 NOSIG=
201508070600 METAR MROC 070600Z 09014KT 9999 FEW030 SCT100 23/17 A2996 NOSIG=
201508070700 METAR MROC 070700Z 11014KT 9999 FEW030 23/17 A2995 NOSIG=
201508070800 METAR MROC 070800Z 10013KT 9999 SCT030 23/17 A2997 NOSIG=
201508070900 METAR MROC 070900Z 10014KT 9999 FEW030 23/17 A2995 NOSIG=
201508071000 METAR MROC 071000Z 10015KT 9999 FEW030 22/17 A2995 NOSIG=
201508071100 METAR MROC 071100Z 10015KT 9999 FEW030 SCT100 BKN250 22/17 A2995 NOSIG=
201508071200 METAR MROC 071200Z 09011KT 9999 FEW030 SCT100 BKN200 22/17 A2996 NOSIG=
201508071300 METAR MROC 071300Z 09008KT 9999 FEW035 BKN240 23/17 A2997 NOSIG=
201508071400 METAR MROC 071400Z 11013KT 9999 FEW035 BKN250 25/17 A2998 NOSIG=
201508071500 METAR MROC 071500Z 11010KT 9999 FEW035 BKN250 26/18 A2999 NOSIG=
201508071600 METAR MROC 071600Z 12007KT 9999 FEW035 BKN250 29/18 A3000 NOSIG=
201508071700 METAR MROC 071700Z 16008KT 9999 FEW035 BKN250 30/17 A2998 NOSIG=
201508071800 METAR MROC 071800Z 25005KT 9999 SCT030 BKN250 28/20 A2994 NOSIG=
201508071900 METAR MROC 071900Z 34005KT 9999 BKN030 28/19 A2992 NOSIG=
201508072000 METAR MROC 072000Z 13004KT 9999 SCT030 BKN220 28/18 A2992 NOSIG=
201508072100 METAR MROC 072100Z 09010KT 9999 FEW030 BKN200 28/17 A2990 NOSIG=
201508072200 METAR MROC 072200Z 09010KT 9999 FEW030 BKN200 27/17 A2990 NOSIG=
201508072300 METAR MROC 072300Z 13005KT 9999 FEW030 SCT100 BKN200 26/17 A2991 NOSIG=
201508080000 METAR MROC 080000Z 12007KT 9999 FEW030 SCT100 24/18 A2994 NOSIG=
201508080100 METAR MROC 080100Z 09005KT 9999 FEW030 SCT100 24/18 A2998 NOSIG=
201508080200 METAR MROC 080200Z 00000KT 9999 FEW030 BKN100 23/19 A2999 NOSIG=
201508080300 METAR MROC 080300Z 09005KT 9999 FEW030 BKN120 23/18 A3000 NOSIG=
201508080400 METAR MROC 080400Z 09005KT 9999 FEW030 BKN120 23/18 A3000 NOSIG=
201508080500 METAR MROC 080500Z 10006KT 9999 FEW030 BKN120 23/18 A3001 NOSIG=
201508080600 METAR MROC 080600Z 06005KT CAVOK 22/18 A2998 NOSIG=
201508080700 METAR MROC 080700Z 09004KT 9999 FEW030 OVC160 22/18 A2998 NOSIG=
201508080800 METAR MROC 080800Z 11004KT 9999 FEW040 OVC190 22/17 A2999 NOSIG=
201508080900 METAR MROC 080900Z 02005KT 9999 FEW040 OVC140 21/18 A2998 NOSIG=
201508081000 METAR MROC 081000Z 00000KT CAVOK 22/17 A2998 NOSIG=
201508081100 METAR MROC 081100Z 00000KT CAVOK 21/18 A3000 NOSIG=
201508081200 METAR MROC 081200Z 05005KT CAVOK 21/18 A3000 NOSIG=
201508081300 METAR MROC 081300Z 03004KT CAVOK 24/18 A3002 NOSIG=
201508081400 METAR MROC 081400Z 10009KT CAVOK 25/17 A3001 NOSIG=
201508081500 METAR MROC 081500Z 10009KT 9999 FEW030 BKN200 25/18 A3001 NOSIG=
201508081600 METAR MROC 081600Z 08010KT 9999 FEW030 BKN200 28/17 A3002 NOSIG=
201508081700 METAR MROC 081700Z 10010KT 9999 FEW030 BKN200 29/17 A3002 NOSIG=
201508081800 METAR MROC 081800Z 13008KT 9999 FEW030 BKN250 29/17 A3001 NOSIG=
201508081900 METAR MROC 081900Z 20006KT 9999 FEW030 BKN250 30/20 A2999 NOSIG=
201508082000 METAR MROC 082000Z 24011KT 9999 SCT030 BKN250 27/21 A2998 NOSIG=
201508082100 METAR MROC 082100Z 23010KT 9999 FEW030 BKN045 27/21 A2996 NOSIG=
201508082120 METAR MROC 082120Z 24012KT 8000 3000E TSRA FEW010CB SCT020 BKN080 24/21 A2996 BECMG 5000=
201508082200 METAR MROC 082200Z VRB02KT 2000 TSRA FEW010CB SCT020 BKN045 21/19 A2996 BECMG 5000=
201508082300 METAR MROC 082300Z 02004KT 9999 VCSH SCT030 BKN060 21/20 A2999 RETSRA NOSIG=
201508090000 METAR MROC 090000Z 24003KT 7000 BCFG FEW005 BKN030 20/20 A2999 NOSIG=
201508090100 METAR MROC 090100Z 11002KT 9999 SCT030 21/20 A2999 NOSIG=
201508090200 METAR MROC 090200Z 08004KT 9999 SCT030 21/20 A3000 NOSIG=
201508090300 METAR MROC 090300Z 08003KT 9999 BCFG SCT030 22/19 A3003 NOSIG=
201508090400 METAR MROC 090400Z 28002KT 9999 4000W BR FEW002 SCT030 20/20 A3006 BECMG 3000 BR BKN010=
201508090500 METAR MROC 090500Z 03003KT 9999 SCT030 21/20 A3007 NOSIG=
201508090600 METAR MROC 090600Z 03003KT CAVOK 21/19 A3005 NOSIG=
201508090700 METAR MROC 090700Z 04005KT CAVOK 21/18 A3002 NOSIG=
201508090800 METAR MROC 090800Z 03006KT CAVOK 20/18 A2999 NOSIG=
201508090900 METAR MROC 090900Z 06002KT CAVOK 21/18 A2999 NOSIG=
201508091000 METAR MROC 091000Z 03002KT 9999 FEW040 20/18 A3002 NOSIG=
201508091100 METAR MROC 091100Z 00000KT 9999 FEW030 SCT250 19/18 A3002 NOSIG=
201508091200 METAR MROC 091200Z 020203KT 9999 FEW030 BKN250 19/17 A3001 NOSIG=
201508091300 METAR MROC 091300Z 06004KT 9999 FEW040 BKN150 22/18 A3003 NOSIG=
201508091400 METAR MROC 091400Z 09007KT 9999 FEW040 BKN150 23/18 A3003 NOSIG=
201508091500 METAR MROC 091500Z 06008KT 9999 -DZ FEW040 BKN100 24/19 A3004 NOSIG=
201508091600 METAR MROC 091600Z 06005KT 9999 FEW040 SCT100 BKN200 26/19 A3003 NOSIG=
201508091700 METAR MROC 091700Z 09012KT 9999 SCT040 SCT200 26/17 A3002 NOSIG=
201508091800 METAR MROC 091800Z 10009KT 9999 SCT040 SCT200 28/16 A2999 NOSIG=
201508091900 METAR MROC 091900Z 10010G20KT 9999 FEW020TCU SCT040 SCT200 29/17 A2996 NOSIG=
201508092000 METAR MROC 092000Z 13008G18KT 9999 VCSH FEW020TCU SCT040 SCT200 26/18 A2994 NOSIG=
201508092100 METAR MROC 092100Z 15013KT 9999 VCTS VCSH FEW015CB FEW025TCU SCT040 26/17 A2994 NOSIG=
201508092200 METAR MROC 092200Z 27010KT 9999 FEW015 SCT030 BKN200 23/20 A2996 NOSIG=
201508092300 METAR MROC 092300Z 22004KT 9999 FEW030 BKN200 23/20 A2998 NOSIG=
201508100000 METAR MROC 100000Z 27003KT 9999 FEW030 SCT100 BKN200 22/20 A2999 NOSIG=
201508100100 METAR MROC 100100Z 00000KT 9999 FEW030 SCT100 22/20 A3001 NOSIG=
201508100200 METAR MROC 100200Z 12003KT 9999 FEW030 SCT100 22/19 A3001 NOSIG=
201508100300 METAR MROC 100300Z 31007KT 9999 FEW030 SCT100 21/19 A3004 NOSIG=
201508100400 METAR MROC 100400Z 34003KT 9999 FEW030 SCT100 21/19 A3005 NOSIG=
201508100500 METAR MROC 100500Z 06003KT 9999 FEW030 SCT100 21/18 A3003 NOSIG=
201508100600 METAR MROC 100600Z 29003KT 9999 FEW035 SCT100 20/19 A3002 NOSIG=
201508100700 METAR MROC 100700Z 00000KT 9999 FEW035 SCT100 20/18 A3000 NOSIG=
201508100800 METAR MROC 100800Z 07001KT CAVOK 19/18 A2997 NOSIG=
201508100900 METAR MROC 100900Z 08002KT CAVOK 19/17 A2996 NOSIG=
201508101000 METAR MROC 101000Z 12003KT CAVOK 19/17 A2997 NOSIG=
201508101100 METAR MROC 101100Z 02004KT CAVOK 19/17 A2996 NOSIG=
201508101200 METAR MROC 101200Z 02007KT CAVOK 20/17 A2998 NOSIG=
201508101300 METAR MROC 101300Z 06010KT 9999 FEW035 SCT100 BKN200 22/17 A2999 NOSIG=
201508101400 METAR MROC 101400Z 08012KT 9999 FEW035 SCT100 BKN200 24/17 A3000 NOSIG=
201508101500 METAR MROC 101500Z 11016KT 9999 FEW035 SCT100 BKN200 25/17 A3000 NOSIG=
201508101600 METAR MROC 101600Z 12012KT 9999 FEW035 SCT100 BKN200 26/18 A3000 NOSIG=
201508101700 METAR MROC 101700Z 14012KT 9999 FEW035 SCT100 BKN200 27/17 A2999 NOSIG=
201508101800 METAR MROC 101800Z 25012KT 9999 FEW035 SCT100 BKN200 26/20 A2996 NOSIG=
201508101900 METAR MROC 101900Z 25011KT 9999 FEW035 SCT100 BKN200 26/20 A2993 NOSIG=
201508102000 METAR MROC 102000Z 25011KT 9999 FEW020TCU BKN030 25/20 A2991 BECMG RA=
201508102022 METAR MROC 102022Z 25009KT 9999 VCTS VCSH SCT015CB BKN025 25/20 A2990 BECMG 5000 TSRA=
201508102100 METAR MROC 102100Z 22006G16KT 0500 +TSRA VV/// 23/20 A2991 NOSIG=
201508102200 METAR MROC 102200Z 04002KT 9999 -RA VCSH FEW003 SCT010 BKN080 21/19 A2991 RETS RMK CB RASH DST WNW NW NOSIG=
201508102300 METAR MROC 102300Z 23003KT 9999 4000SW -RA BCFG FEW003 SCT010 BKN070 21/20 A2992 RMK LOW CLDS OVER APCH WS R07 BECMG 5000 BR=
201508110000 METAR MROC 110000Z 31003KT 9999 VCFG FEW004 SCT015 BKN100 21/20 A2994 NOSIG=
201508110100 METAR MROC 110100Z 31004KT 9999 4000SW BCFG FEW004 SCT010 BKN120 21/20 A2998 NOSIG=
201508110200 METAR MROC 110200Z 33003KT 9999 FEW010 SCT030 BKN120 21/20 A3000 NOSIG=
201508110300 METAR MROC 110300Z VRB02KT 9999 -RA FEW010 SCT030 21/20 A3003 NOSIG=
201508110400 METAR MROC 110400Z 22002KT 8000 BCFG FEW001 BKN010 20/20 A3004 NOSIG=
201508110500 METAR MROC 110500Z VRB02KT 9999 BCFG FEW001 BKN010 21/20 A3003 NOSIG=
201508110600 METAR MROC 110600Z VRB02KT 8000 BCFG FEW001 BKN010 20/20 A3002 NOSIG=
201508110700 METAR MROC 110700Z 00000KT 8000 BCFG FEW001 SCT010 20/20 A3000 NOSIG=
201508110800 METAR MROC 110800Z 00000KT 9999 FEW030 BKN100 20/20 A2998 NOSIG=
201508110900 METAR MROC 110900Z 01003KT 9999 BCFG FEW001 BKN100 20/20 A2998 NOSIG=
201508111000 METAR MROC 111000Z VRB02KT 9999 BCFG FEW001 BKN100 20/19 A2998 NOSIG=
201508111100 METAR MROC 111100Z 04006KT CAVOK 20/19 A2997 NOSIG=
201508111200 METAR MROC 111200Z 08006KT CAVOK 21/17 A2997 NOSIG=
201508111300 METAR MROC 111300Z 10007KT CAVOK 22/17 A3000 NOSIG=
201508111400 METAR MROC 111400Z 11007KT CAVOK 23/17 A3001 NOSIG=
201508111500 METAR MROC 111500Z 00000KT RA BR FEW002 SCT020 OVC100 20/20 A2998 NOSIG=
201508111600 METAR MROC 111600Z 12006KT CAVOK 26/17 A3002 BECMG 20006KT=
201508111700 METAR MROC 111700Z 22007KT 9999 FEW035 SCT150 27/18 A3000 NOSIG=
201508111800 METAR MROC 111800Z 26009KT 9999 SCT030 BKN170 27/19 A2998 NOSIG=
201508111900 METAR MROC 111900Z 24009KT 9999 VCSH FEW015CB SCT025 BKN170 27/19 A2996 BECMG TSRA=
201508112000 METAR MROC 112000Z 34009KT 3000 TSRA SCT012CB BKN025 22/18 A2996 RMK VIS E QUAD UNLTD BECMG 1500 BKN010=
201508112100 METAR MROC 112100Z 27004KT 8000 BCFG FEW003 BKN025 20/19 A2995 NOSIG=
201508112200 METAR MROC 112200Z 34004KT 5000 -RA BR FEW002 SCT020 OVC100 20/20 A2996 BECMG 3000 BKN010=
201508112300 METAR MROC 112300Z 00000KT 1500 RA BR FEW002 SCT020 OVC100 20/20 A2998 NOSIG=
201508120000 METAR MROC 120000Z 00000KT 1500 -RA BR FEW002 SCT020 OVC10O 20/20 A2998 NOSIG=
201508120100 METAR MROC 120100Z 00000KT 9999 -RA SCT025 OVC100 21/21 A3000 NOSIG=
201508120200 METAR MROC 120200Z 09007KT 9999 FEW025 BKN100 21/18 A3000 NOSIG=
201508120300 METAR MROC 120300Z 09005KT 9999 FEW030 SCT110 22/18 A3001 NOSIG=
201508120400 METAR MROC 120400Z 02010KT 9999 FEW030 SCT100 22/18 A3003 NOSIG=
201508120500 METAR MROC 120500Z 02006KT 9999 FEW030 SCT100 22/18 A3002 NOSIG=
201508120600 METAR MROC 120600Z 05009KT 9999 FEW030 SCT100 22/18 A3002 NOSIG=
201508120700 METAR MROC 120700Z 10015KT 9999 FEW030 SCT100 22/17 A3002 NOSIG=
201508120800 METAR MROC 120800Z 08012KT 9999 FEW030 SCT100 22/17 A2997 NOSIG=
201508120900 METAR MROC 120900Z 10007KT 9999 FEW030 SCT100 22/17 A2995 NOSIG=
201508121000 METAR MROC 121000Z 10015KT 9999 FEW030 22/17 A2994 NOSIG=
201508121100 METAR MROC 121100Z 10010G20KT 9999 FEW030 BKN120 22/17 A2995 NOSIG=
201508121200 METAR MROC 121200Z 10010G20KT 9999 FEW030 22/17 A2997 NOSIG=
201508121300 METAR MROC 121300Z 11010KT 9999 FEW030 BKN090 22/17 A2999 NOSIG=
201508121400 METAR MROC 121400Z 08011KT 9999 FEW030 BKN100 24/17 A3001 NOSIG=
201508121500 METAR MROC 121500Z 07011KT 9999 FEW030 BKN100 24/16 A3003 NOSIG=
201508121600 METAR MROC 121600Z 09010KT 9999 SCT030 BKN100 25/17 A3004 NOSIG=
201508121700 METAR MROC 121700Z 07014KT 9999 SCT030 BKN100 25/15 A3003 NOSIG=
201508121800 METAR MROC 121800Z 07010KT 9999 FEW030 BKN100 26/16 A3001 NOSIG=
201508121900 METAR MROC 121900Z 10010KT 9999 FEW035 SCT100 28/16 A2998 NOSIG=
201508122000 METAR MROC 122000Z 06012KT 9999 FEW035 SCT110 28/15 A2996 NOSIG=
201508122100 METAR MROC 122100Z 06012KT 9999 SCT030 28/15 A2995 NOSIG=
201508122200 METAR MROC 122200Z 07008KT 9999 SCT030 SCT100 27/15 A2995 NOSIG=
201508122300 METAR MROC 122300Z 09008KT 9999 SCT030 SCT100 25/16 A2997 NOSIG=
201508130000 METAR MROC 130000Z 10006KT 9999 FEW030 BKN100 24/17 A2999 NOSIG=
201508130100 METAR MROC 130100Z 11006KT CAVOK 23/17 A3000 NOSIG=
201508130200 METAR MROC 130200Z 09009KT CAVOK 23/16 A3000 NOSIG=
201508130300 METAR MROC 130300Z 09010KT CAVOK 23/15 A3001 NOSIG=
201508130400 METAR MROC 130400Z 10013G23KT CAVOK 23/15 A3002 NOSIG=
201508130500 METAR MROC 130500Z 08011G21KT CAVOK 23/15 A3001 NOSIG=
201508130600 METAR MROC 130600Z 08011G21KT CAVOK 23/15 A2998 NOSIG=
201508130700 METAR MROC 130700Z 09012G22KT CAVOK 22/15 A2998 NOSIG=
201508130800 METAR MROC 130800Z 10009KT CAVOK 22/15 A2996 NOSIG=
201508130900 METAR MROC 130900Z 10010KT CAVOK 21/15 A2996 NOSIG=
201508131000 METAR MROC 131000Z 08007KT CAVOK 21/15 A2998 NOSIG=
201508131100 METAR MROC 131100Z 05005KT CAVOK 20/15 A2998 NOSIG=
201508131200 METAR MROC 131200Z 04007KT CAVOK 21/15 A2999 NOSIG=
201508131300 METAR MROC 131300Z 03008KT CAVOK 22/15 A3001 NOSIG=
201508131400 METAR MROC 131400Z 11012G22KT CAVOK 28/12 A3001 NOSIG=
201508131500 METAR MROC 131500Z 10009KT CAVOK 27/12 A3001 NOSIG=
201508131600 METAR MROC 131600Z 11012G22KT CAVOK 28/12 A3001 NOSIG=
201508131700 METAR MROC 131700Z 10010KT CAVOK 28/14 A3000 NOSIG=
201508131800 METAR MROC 131800Z 10010KT 9999 FEW040 SCT250 29/14 A2998 NOSIG=
201508131900 METAR MROC 131900Z 12008KT 9999 FEW040 SCT250 30/15 A2996 NOSIG=
201508132000 METAR MROC 132000Z 17007KT 9999 FEW040 SCT250 31/15 A2995 BECMG 24007KT=
201508132100 METAR MROC 132100Z 21006KT 9999 SCT035 BKN250 28/20 A2994 NOSIG=
201508132200 METAR MROC 132200Z 14004KT 9999 SCT035 BKN250 29/16 A2994 NOSIG=
201508132300 METAR MROC 132300Z 24007KT 9999 FEW035 BKN200 25/20 A2995 NOSIG=
201508140000 METAR MROC 140000Z 26007KT 9999 VCSH SCT030 SCT250 23/21 A2999 NOSIG=
201508140100 METAR MROC 140100Z 25005KT 8000 BCFG SCT008 BKN030 22/21 A3001 NOSIG=
201508140200 METAR MROC 140200Z VRB02KT 9999 VCFG FEW008 BKN030 22/21 A3004 NOSIG=
201508140300 METAR MROC 140300Z VRB02KT 9999 SCT030 22/18 A3004 NOSIG=
201508140400 METAR MROC 140400Z 06004KT 9999 SCT030 22/17 A3005 NOSIG=
201508140500 METAR MROC 140500Z 06004KT CAVOK 22/16 A3006 NOSIG=
201508140600 METAR MROC 140600Z 10006KT CAVOK 22/16 A3005 NOSIG=
201508140700 METAR MROC 140700Z 07007KT CAVOK 22/15 A3005 NOSIG=
201508140800 METAR MROC 140800Z 09011KT 9999 FEW030 SCT100 21/16 A3000 NOSIG=
201508140900 METAR MROC 140900Z 06004KT 9999 FEW030 SCT100 21/15 A2998 NOSIG=
201508141000 METAR MROC 141000Z 07004KT CAVOK 20/16 A2999 NOSIG=
201508141100 METAR MROC 141100Z 09005KT CAVOK 19/16 A3000 NOSIG=
201508141200 METAR MROC 141200Z 08005KT 9999 FEW035 BKN200 20/16 A2999 NOSIG=
201508141300 METAR MROC 141300Z 10011G21KT 9999 FEW040 BKN200 22/15 A3000 NOSIG=
201508141400 METAR MROC 141400Z 11009KT 9999 FEW040 BKN200 23/16 A3003 NOSIG=
201508141500 METAR MROC 141500Z 10006KT 9999 FEW040 SCT080 SCT200 24/17 A3006 NOSIG=
201508141600 METAR MROC 141600Z 07006KT 9999 VCSH BKN030 SCT200 24/17 A3006 NOSIG=
201508141700 METAR MROC 141700Z 07008KT 4000 -SHRA SCT010CB BKN020 21/19 A3008 BECMG 9999=
201508141715 METAR MROC 141715Z 10006KT 9999 -DZ FEW040 SCT080 BKN200 21/18 A3006 NOSIG=
201508141800 METAR MROC 141800Z 10008KT 9999 -DZ FEW045 BKN130 24/19 A3003 NOSIG=
201508141900 METAR MROC 141900Z 11008KT 9999 FEW040 BKN120 27/18 A3000 BECMG 24007KT=
201508142000 METAR MROC 142000Z 09008KT 9999 FEW040 SCT060 BKN200 27/17 A2998 NOSIG=
201508142100 METAR MROC 142100Z 09008KT CAVOK 25/16 A2997 NOSIG=
201508142200 METAR MROC 142200Z 07009KT 9999 FEW035 BKN100 26/16 A2996 NOSIG=
201508142300 METAR MROC 142300Z 08009KT 9999 FEW030 BKN100 24/15 A2997 NOSIG=
201508150000 METAR MROC 150000Z 07011KT 9999 FEW030 BKN100 24/16 A2997 NOSIG=
201508150100 METAR MROC 150100Z 10010KT 9999 FEW030 BKN110 23/16 A2999 NOSIG=
201508150200 METAR MROC 150200Z 10013KT 9999 FEW030 BKN120 23/15 A3000 NOSIG=
201508150300 METAR MROC 150300Z 10006KT 9999 FEW030 SCT120 22/16 A3002 NOSIG=
201508150400 METAR MROC 150400Z 03002KT CAVOK 22/16 A3005 NOSIG=
201508150500 METAR MROC 150500Z 26002KT CAVOK 21/16 A3005 NOSIG=
201508150600 METAR MROC 150600Z 04003KT CAVOK 21/18 A3002 NOSIG=
201508150700 METAR MROC 150700Z 08006KT CAVOK 21/15 A3000 NOSIG=
201508150800 METAR MROC 150800Z 08007KT CAVOK 20/15 A2998 NOSIG=
201508150900 METAR MROC 150900Z 10009KT CAVOK 21/16 A2995 NOSIG=
201508151000 METAR MROC 151000Z 10014KT CAVOK 21/16 A2997 NOSIG=
201508151100 METAR MROC 151100Z 11010KT 9999 FEW030 BKN100 21/16 A2997 NOSIG=
201508151200 METAR MROC 151200Z 11009KT 9999 FEW030 BKN100 22/16 A2999 NOSIG=
201508151300 METAR MROC 151300Z 11015KT 9999 FEW030 BKN100 23/16 A3002 NOSIG=
201508151400 METAR MROC 151400Z 10009KT 9999 FEW030 BKN100 24/16 A3002 NOSIG=
201508151500 METAR MROC 151500Z 10010G20KT 9999 FEW030 BKN100 25/16 A3002 NOSIG=
201508151600 METAR MROC 151600Z 08010G20KT 9999 FEW030 SCT040 26/17 A3004 NOSIG=
201508151700 METAR MROC 151700Z 09012KT 9999 FEW030 SCT100 BKN200 26/17 A3004 NOSIG=
201508151800 METAR MROC 151800Z 07014KT 9999 FEW030 SCT100 BKN200 28/16 A3002 NOSIG=
201508151900 METAR MROC 151900Z 07010G20KT 9999 FEW030 SCT100 BKN200 29/16 A2999 NOSIG=
201508152000 METAR MROC 152000Z 08012KT 9999 VCSH FEW015TCU SCT025 BKN100 27/16 A2998 BECMG RA=
201508152100 METAR MROC 152100Z 13005KT 9999 FEW030 SCT060 BKN100 26/16 A2997 NOSIG=
201508152200 METAR MROC 152200Z 24010KT 9999 FEW007 SCT060 BKN100 22/20 A2998 NOSIG=
201508152300 METAR MROC 152300Z 29005KT 9999 -RA SCT006 BKN015 22/20 A3000 BECMG 5000 BR=
201508160000 METAR MROC 160000Z 33003KT 9999 FEW004 SCT015 BKN100 21/20 A3001 RERA NOSIG=
201508160100 METAR MROC 160100Z 00000KT 9999 SCT015 BKN100 22/20 A3002 NOSIG=
201508160200 METAR MROC 160200Z 32002KT 9999 FEW025 BKN100 21/20 A3004 NOSIG=
201508160300 METAR MROC 160300Z 03003KT CAVOK 21/19 A3003 NOSIG=
201508160400 METAR MROC 160400Z 05004KT CAVOK 21/18 A3005 NOSIG=
201508160500 METAR MROC 160500Z VRB02KT CAVOK 20/19 A3004 NOSIG=
201508160600 METAR MROC 160600Z 06004KT CAVOK 20/18 A3003 NOSIG=
201508160700 METAR MROC 160700Z 03003KT CAVOK 20/18 A3002 NOSIG=
201508160800 METAR MROC 160800Z 03005KT CAVOK 20/18 A3000 NOSIG=
201508160900 METAR MROC 160900Z 03007KT 9999 FEW035 21/18 A2999 NOSIG=
201508161000 METAR MROC 161000Z 04005KT 9999 FEW035 21/18 A2998 NOSIG=
201508161100 METAR MROC 161100Z 05006KT 9999 FEW035 21/18 A2999 NOSIG=
201508161200 METAR MROC 161200Z 06005KT 9999 FEW030 BKN250 21/18 A3000 NOSIG=
201508161300 METAR MROC 161300Z 05005KT CAVOK 23/18 A3001 NOSIG=
201508161400 METAR MROC 161400Z 10009KT CAVOK 25/18 A3002 NOSIG=
201508161500 METAR MROC 161500Z 11009KT 9999 FEW030 SCT140 BKN250 26/18 A3004 NOSIG=
201508161600 METAR MROC 161600Z 10012KT 9999 FEW030 SCT140 BKN250 26/18 A3004 NOSIG=
201508161700 METAR MROC 161700Z 09011KT 9999 SCT030 SCT060 26/17 A3005 NOSIG=
201508161800 METAR MROC 161800Z 13008KT 9999 FEW030 SCT070 BKN140 24/18 A3004 RERA NOSIG=
201508161900 METAR MROC 161900Z 11006KT 9999 -RA FEW030 SCT100 BKN140 23/18 A3004 NOSIG=
201508162000 METAR MROC 162000Z 09005KT 9999 -DZ NSC 24/16 A3002 RMK OVC140 NOSIG=
201508162100 METAR MROC 162100Z 07004KT CAVOK 25/16 A3000 NOSIG=
201508162200 METAR MROC 162200Z 07004KT 9999 -RA NSC 23/17 A3000 NOSIG=
201508162300 METAR MROC 162300Z 05007KT 9999 -RA NSC 23/18 A2999 NOSIG=
201508170000 METAR MROC 170000Z 08005KT CAVOK 21/18 A2998 NOSIG=
201508170100 METAR MROC 170100Z 10008KT CAVOK 22/16 A2998 NOSIG=
201508170200 METAR MROC 170200Z 10012KT CAVOK 22/16 A3001 NOSIG=
201508170300 METAR MROC 170300Z 10012KT CAVOK 22/15 A3002 NOSIG=
201508170400 METAR MROC 170400Z 09004KT CAVOK 21/15 A3004 NOSIG=
201508170500 METAR MROC 170500Z 07012KT CAVOK 21/15 A3004 NOSIG=
201508170600 METAR MROC 170600Z 01004KT CAVOK 20/16 A3003 NOSIG=
201508170700 METAR MROC 170700Z 06008KT CAVOK 19/15 A3002 NOSIG=
201508170800 METAR MROC 170800Z 05010KT CAVOK 20/16 A3000 NOSIG=
201508170900 METAR MROC 170900Z 08012KT CAVOK 21/15 A2998 NOSIG=
201508171000 METAR MROC 171000Z 11016KT CAVOK 21/15 A2998 NOSIG=
201508171100 METAR MROC 171100Z 11015KT CAVOK 21/16 A2998 NOSIG=
201508171200 METAR MROC 171200Z 11011G21KT 9999 FEW045 BKN250 21/15 A2999 NOSIG=
201508171300 METAR MROC 171300Z 11012KT 9999 FEW040 23/16 A3002 NOSIG=
201508171400 METAR MROC 171400Z 11010KT 9999 FEW040 26/17 A3003 NOSIG=
201508171500 METAR MROC 171500Z 08010KT 9999 SCT035 28/17 A3005 NOSIG=
201508171600 METAR MROC 171600Z 09013KT 9999 FEW035 SCT250 28/17 A3005 NOSIG=
201508171700 METAR MROC 171700Z 09012G22KT 9999 SCT035 SCT250 28/17 A3006 NOSIG=
201508171800 METAR MROC 171800Z 10013KT 9999 SCT030 BKN230 27/16 A3004 NOSIG=
201508171900 METAR MROC 171900Z 08010KT 9999 SCT030 BKN230 27/17 A3001 NOSIG=
201508172000 METAR MROC 172000Z 08010KT 9999 SCT030 BKN220 27/17 A3001 NOSIG=
201508172100 METAR MROC 172100Z 08010KT 9999 SCT030 BKN200 27/17 A3000 NOSIG=
201508172200 METAR MROC 172200Z 11006KT 9999 FEW030 SCT100 BKN200 26/17 A2999 NOSIG=
201508172300 METAR MROC 172300Z 13004KT 9999 FEW030 SCT100 BKN200 25/17 A2999 NOSIG=
201508180000 METAR MROC 180000Z 13004KT 9999 FEW030 SCT100 BKN200 24/17 A3000 NOSIG=
201508180100 METAR MROC 180100Z 12003KT CAVOK 23/17 A3001 NOSIG=
201508180200 METAR MROC 180200Z 02002KT CAVOK 22/20 A3002 NOSIG=
201508180300 METAR MROC 180300Z 05003KT CAVOK 22/18 A3004 NOSIG=
201508180400 METAR MROC 180400Z 09008KT CAVOK 22/17 A3004 NOSIG=
201508180500 METAR MROC 180500Z 11005KT CAVOK 22/17 A3003 NOSIG=
201508180600 METAR MROC 180600Z 09005KT CAVOK 22/16 A3001 NOSIG=
201508180700 METAR MROC 180700Z 07005KT CAVOK 21/16 A3000 NOSIG=
201508180800 METAR MROC 180800Z 09008KT CAVOK 22/16 A2999 NOSIG=
201508180900 METAR MROC 180900Z 05005KT CAVOK 22/16 A2999 NOSIG=
201508181000 METAR MROC 181000Z 30002KT CAVOK 21/16 A2998 NOSIG=
201508181100 METAR MROC 181100Z 35004KT CAVOK 21/17 A2999 NOSIG=
201508181200 METAR MROC 181200Z 10011KT CAVOK 22/17 A2999 NOSIG=
201508181300 METAR MROC 181300Z 12009KT 9999 FEW030 BKN120 23/17 A3002 NOSIG=
201508181400 METAR MROC 181400Z 11011KT 9999 FEW030 BKN120 25/18 A3003 NOSIG=
201508181500 METAR MROC 181500Z 08012G22KT 9999 FEW030 SCT120 BKN250 27/18 A3002 NOSIG=
201508181600 METAR MROC 181600Z 14008KT 9999 SCT030 BKN120 26/18 A3005 NOSIG=
201508181700 METAR MROC 181700Z 09010KT 9999 SCT030 BKN120 27/17 A3004 NOSIG=
201508181800 METAR MROC 181800Z 09010KT 9999 SCT030 BKN120 27/17 A3002 NOSIG=
201508181900 METAR MROC 181900Z 09008KT 9999 FEW030 SCT120 BKN250 28/17 A3000 NOSIG=
201508182000 METAR MROC 182000Z 07009KT 9999 FEW030 SCT120 BKN250 28/17 A2997 NOSIG=
201508182100 METAR MROC 182100Z 25009KT 9999 FEW035 SCT060 BKN250 25/21 A2996 NOSIG=
201508182200 METAR MROC 182200Z COR 27006KT 9999 SCT035 BKN250 25/21 A2996 NOSIG=
201508182300 METAR MROC 182300Z 25005KT 9999 SCT025 BKN250 24/20 A2998 NOSIG=
201508190000 METAR MROC 190000Z 26006KT 9999 FEW030 BKN250 23/20 A2997 NOSIG=
201508190100 METAR MROC 190100Z 19002KT 9999 SCT030 BKN250 23/19 A2999 NOSIG=
201508190200 METAR MROC 190200Z 26003KT 9999 FEW025 BKN200 22/19 A2999 NOSIG=
201508190300 METAR MROC 190300Z 06002KT 9999 SCT025 22/19 A3001 NOSIG=
201508190400 METAR MROC 190400Z 08010KT 9999 SCT030 23/18 A3000 NOSIG=
201508190500 METAR MROC 190500Z 02004KT 9999 SCT030 22/18 A3001 NOSIG=
201508190600 METAR MROC 190600Z 06004KT 9999 SCT030 21/18 A3000 NOSIG=
201508190700 METAR MROC 190700Z 28003KT 9999 FEW035 21/18 A2998 NOSIG=
201508190800 METAR MROC 190800Z 06004KT CAVOK 22/18 A2995 NOSIG=
201508190900 METAR MROC 190900Z 10010KT CAVOK 22/18 A2995 NOSIG=
201508191000 METAR MROC 191000Z 10010KT CAVOK 22/18 A2995 NOSIG=
201508191100 METAR MROC NIL=
201508191200 METAR MROC NIL=
201508191300 METAR MROC 191300Z 10012G22KT 9999 FEW030 BKN200 23/18 A2999 NOSIG=
201508191400 METAR MROC 191400Z 09012KT 9999 FEW035 BKN200 24/18 A3001 NOSIG=
201508191500 METAR MROC 191500Z 11009KT CAVOK 26/18 A3002 NOSIG=
201508191600 METAR MROC 191600Z 09010G20KT CAVOK 28/17 A3002 NOSIG=
201508191700 METAR MROC 191700Z 09008KT CAVOK 29/16 A3001 NOSIG=
201508191800 METAR MROC 191800Z 07011KT 9999 FEW035 BKN250 30/16 A3000 NOSIG=
201508191900 METAR MROC 191900Z 07011KT 9999 FEW035 SCT120 SCT250 30/16 A2997 NOSIG=
201508192000 METAR MROC 192000Z 07010KT 9999 FEW030 SCT250 30/16 A2994 NOSIG=
201508192100 METAR MROC 192100Z 08014KT 9999 FEW035 SCT120 BKN250 30/16 A2994 NOSIG=
201508192200 METAR MROC 192200Z 08009KT 9999 FEW035 SCT080 BKN200 29/16 A2994 NOSIG=
201508192300 METAR MROC 192300Z 25013KT 9999 FEW035 BKN200 25/21 A2994 NOSIG=
201508192359 METAR MROC 200000Z 25007KT 9999 BCFG SCT015 SCT200 23/21 A2995 NOSIG=
201508200000 METAR MROC 200000Z 25007KT 9999 BCFG SCT015 SCT200 23/21 A2995 NOSIG=
201508200100 METAR MROC 200100Z 19005KT 9999 4000SW VCFG SCT015 23/21 A2997 BECMG 5000 BR=
201508200200 METAR MROC 200200Z 25007KT 5000 2000SW BR FEW005 SCT015 22/21 A2998 NOSIG=
201508200300 METAR MROC 200300Z 36003KT 9999 FEW030 22/21 A2999 NOSIG=
201508200400 METAR MROC 200400Z 00000KT CAVOK 22/20 A2999 NOSIG=
201508200500 METAR MROC 200500Z 11008KT CAVOK 23/18 A3000 NOSIG=
201508200600 METAR MROC 200600Z 09006KT CAVOK 22/18 A2999 NOSIG=
201508200700 METAR MROC 200700Z 05004KT CAVOK 22/17 A2996 NOSIG=
201508200800 METAR MROC 200800Z 12004KT CAVOK 22/17 A2995 NOSIG=
201508200900 METAR MROC 200900Z 06006KT CAVOK 21/17 A2994 NOSIG=
201508201000 METAR MROC 201000Z 09006KT CAVOK 22/17 A2995 NOSIG=
201508201100 METAR MROC 201100Z 12008KT CAVOK 22/16 A2996 NOSIG=
201508201200 METAR MROC 201200Z 09009KT CAVOK 22/17 A2996 NOSIG=
201508201300 METAR MROC 201300Z 12015KT 9999 FEW035 SCT120 BKN200 23/17 A2999 NOSIG=
201508201400 METAR MROC 201400Z 11017KT 9999 FEW035 BKN200 24/17 A3001 NOSIG=
201508201500 METAR MROC 201500Z 11010G20KT 9999 FEW040 BKN250 26/16 A3000 NOSIG=
201508201600 METAR MROC 201600Z 10013G23KT 9999 FEW040 BKN200 28/16 A3001 NOSIG=
201508201700 METAR MROC 201700Z 09010G20KT 9999 FEW040 SCT120 BKN250 28/17 A3001 NOSIG=
201508201800 METAR MROC 201800Z 08010G20KT 9999 FEW035 SCT120 29/18 A2999 NOSIG=
201508201900 METAR MROC 201900Z 06014KT 9999 SCT035 29/17 A2997 NOSIG=
201508202000 METAR MROC 202000Z 07016KT 9999 SCT035 29/16 A2994 NOSIG=
201508202100 METAR MROC 202100Z 08009KT 9999 SCT030 SCT200 28/16 A2992 NOSIG=
201508202200 METAR MROC 202200Z 11006G16KT 9999 -RA SCT025 BKN060 27/17 A2994 NOSIG=
201508202300 METAR MROC 202300Z 06008KT 9999 FEW030 SCT080 BKN200 25/17 A2996 NOSIG=
201508210000 METAR MROC 210000Z 08010KT 9999 FEW030 SCT120 BKN1200 24/17 A2997 NOSIG=
201508210100 METAR MROC 210100Z 10005KT 9999 FEW030 SCT120 BKN200 23/17 A2997 NOSIG=
201508210200 METAR MROC 210200Z 09005KT CAVOK 22/18 A2998 NOSIG=
201508210300 METAR MROC 210300Z 09010KT 9999 FEW035 BKN250 22/18 A3000 NOSIG=
201508210400 METAR MROC 210400Z 09007KT 9999 SCT030 22/18 A3002 NOSIG=
201508210500 METAR MROC 210500Z 07003KT 9999 SCT035 22/18 A3003 NOSIG=
201508210600 METAR MROC 210600Z 05003KT 9999 SCT035 22/17 A3000 NOSIG=
201508210700 METAR MROC 210700Z 08006KT 9999 FEW035 22/18 A2999 NOSIG=
201508210800 METAR MROC 210800Z 08005KT 9999 FEW035 22/17 A2998 NOSIG=
201508210900 METAR MROC 210900Z VRB02KT 9999 FEW035 21/17 A2996 NOSIG=
201508211000 METAR MROC 211000Z 07006KT 9999 FEW035 21/17 A2997 NOSIG=
201508211100 METAR MROC 211100Z 07006KT 9999 FEW035 SCT250 21/17 A2997 NOSIG=
201508211200 METAR MROC 211200Z 10010KT 9999 FEW030 BKN200 22/17 A2997 NOSIG=
201508211300 METAR MROC 211300Z 10012G22KT 9999 FEW030 BKN200 23/18 A2998 NOSIG=
201508211400 METAR MROC 211400Z 09011G21KT 9999 FEW030 BKN200 26/18 A2999 NOSIG=
201508211500 METAR MROC 211500Z 08013G23KT 9999 FEW030 BKN220 27/17 A3001 NOSIG=
201508211600 METAR MROC 211600Z 08012G22KT 9999 SCT030 SCT250 27/16 A3001 NOSIG=
201508211700 METAR MROC 211700Z 07012KT 9999 SCT030 BKN250 28/16 A3000 NOSIG=
201508211800 METAR MROC 211800Z 08009KT 9999 SCT030 BKN200 26/18 A3000 NOSIG=
201508211900 METAR MROC 211900Z 08009KT 9999 FEW030 BKN200 27/17 A2997 NOSIG=
201508212000 METAR MROC 212000Z 08011G21KT 9999 FEW030 SCT080 BKN200 26/16 A2996 NOSIG=
201508212100 METAR MROC 212100Z 07011KT 9999 SCT030 BKN200 27/17 A2995 NOSIG=
201508212200 METAR MROC 212200Z 07010KT 9999 SCT030 BKN200 25/16 A2995 NOSIG=
201508212300 METAR MROC 212300Z 08010KT 9999 FEW030 OVC200 25/16 A2995 NOSIG=
201508220000 METAR MROC 220000Z 08010KT 9999 SCT030 BKN230 24/16 A2997 NOSIG=
201508220100 METAR MROC 220100Z 09010KT 9999 FEW030 BKN230 23/17 A2999 NOSIG=
201508220200 METAR MROC 220200Z 09010KT 9999 FEW030 SCT230 23/17 A3001 NOSIG=
201508220300 METAR MROC 220300Z 11006KT 9999 FEW035 SCT230 23/17 A3003 NOSIG=
201508220400 METAR MROC 220400Z 11013KT 9999 FEW030 SCT120 23/17 A3003 NOSIG=
201508220500 METAR MROC 220500Z 13012KT 9999 FEW030 SCT120 22/17 A3002 NOSIG=
201508220600 METAR MROC 220600Z 07007KT 9999 FEW030 22/17 A3001 NOSIG=
201508220700 METAR MROC 220700Z 03008KT CAVOK 22/16 A2996 NOSIG=
201508220800 METAR MROC 220800Z 02013KT CAVOK 22/17 A2995 NOSIG=
201508220900 METAR MROC 220900Z 35005KT CAVOK 21/17 A2996 NOSIG=
201508221000 METAR MROC 221000Z 05007KT 9999 FEW030 SCT100 21/17 A2999 NOSIG=
201508221100 METAR MROC 221100Z 09017KT 9999 FEW030 BKN120 22/16 A2998 NOSIG=
201508221200 METAR MROC 221200Z 11014KT CAVOK 22/16 A2997 NOSIG=
201508221300 METAR MROC 221300Z 10010KT CAVOK 24/17 A2999 NOSIG=
201508221400 METAR MROC 221400Z 11008KT CAVOK 26/17 A2999 NOSIG=
201508221500 METAR MROC 221500Z 10008KT 9999 FEW035 BKN250 27/17 A3001 NOSIG=
201508221600 METAR MROC 221600Z 13008KT 9999 FEW035 SCT250 29/16 A3002 NOSIG=
201508221700 METAR MROC 221700Z 24010KT 9999 SCT035 SCT250 27/19 A3000 NOSIG=
201508221800 METAR MROC 221800Z 24012KT 9999 -RA SCT030 SCT100 25/20 A2999 NOSIG=
201508221900 METAR MROC 221900Z 25012KT 9999 SCT030 SCT100 26/20 A2997 NOSIG=
201508222000 METAR MROC 222000Z 29009KT 9999 4000E -TSRA SCT020CB BKN100 25/20 A2995 BECMG 3000 +TSRA=
201508222100 METAR MROC 222100Z 19005KT 2000 RA BR FEW001 BKN030 22/21 A2997 NOSIG=
201508222200 METAR MROC 222200Z 17003KT 8000 VCFG FEW002 SCT030 BKN100 20/20 A2995 NOSIG=
201508222300 METAR MROC 222300Z 00000KT 9999 FEW030 BKN100 21/21 A2995 NOSIG=
201508230000 METAR MROC 230000Z 35003KT 9999 FEW030 BKN100 21/21 A2997 NOSIG=
201508230100 METAR MROC 230100Z 32002KT 9999 BCFG FEW030 BKN100 21/21 A2997 NOSIG=
201508230200 METAR MROC 230200Z 00000KT 9999 1000SW BR FEW001 SCT120 20/20 A2997 BECMG 3000 BR=
201508230300 METAR MROC 230300Z 00000KT 9999 1000SW BCFG FEW001 SCT120 20/20 A3000 BECMG 3000 BR=
201508230400 METAR MROC 230400Z 06003KT 9999 VCFG FEW030 SCT040 20/20 A3000 NOSIG=
201508230500 METAR MROC 230500Z 06003KT CAVOK 20/19 A2999 NOSIG=
201508230600 METAR MROC 230600Z 06004KT CAVOK 20/18 A2997 NOSIG=
201508230700 METAR MROC 230700Z 06006KT CAVOK 21/18 A2994 NOSIG=
201508230800 METAR MROC 230800Z 03003KT CAVOK 21/18 A2994 NOSIG=
201508230900 METAR MROC 230900Z 26003KT CAVOK 19/19 A2995 BECMG 5000 BR=
201508231000 METAR MROC 231000Z 00000KT CAVOK 19/19 A2995 NOSIG=
201508231100 METAR MROC 231100Z 03006KT CAVOK 19/17 A2995 NOSIG=
201508231200 METAR MROC 231200Z 05004KT CAVOK 20/17 A2996 NOSIG=
201508231300 METAR MROC 231300Z 04004KT CAVOK 24/18 A2998 NOSIG=
201508231400 METAR MROC 231400Z 08008KT CAVOK 25/18 A2999 NOSIG=
201508231500 METAR MROC 231500Z 09011G21KT 9999 FEW030 SCT250 26/18 A3000 NOSIG=
201508231600 METAR MROC 231600Z 11010G20KT 9999 FEW030 SCT250 27/18 A2999 NOSIG=
201508231700 METAR MROC 231700Z 10009KT 9999 FEW030 SCT250 29/19 A2997 NOSIG=
201508231800 METAR MROC 231800Z 10008KT 9999 SCT030 29/18 A2995 NOSIG=
201508231900 METAR MROC 231900Z 10008KT 9999 SCT030 28/18 A2993 NOSIG=
201508232000 METAR MROC NIL=
201508232100 METAR MROC 232100Z 24011KT 9999 FEW020TCU SCT035 SCT250 26/22 A2992 NOSIG=
201508232200 METAR MROC 232200Z 26006KT 9999 2000N -RA VCTS FEW010CB SCT025 BKN100 25/22 A2992 NOSIG=
201508232300 METAR MROC 232300Z 26007KT 9999 4000SW BCFG SCT008 BKN025 22/22 A2995 NOSIG=
201508240000 METAR MROC 240000Z 23003KT 5000 BR SCT008 BKN020 22/22 A2996 NOSIG=
201508240100 METAR MROC 240100Z 24002KT 2000 BR SCT005 BKN020 22/22 A2998 NOSIG=
201508240200 METAR MROC 240200Z VRB02KT 8000 VCFG SCT008 BKN035 22/22 A3000 NOSIG=
201508240300 METAR MROC 240300Z 11005KT 9999 SCT030 22/19 A3001 NOSIG=
201508240400 METAR MROC 240400Z 08005KT 9999 SCT030 22/18 A3002 NOSIG=
201508240500 METAR MROC 240500Z 12004KT 9999 FEW030 22/18 A3001 NOSIG=
201508240600 METAR MROC 240600Z 01004KT 9999 FEW030 22/18 A2998 NOSIG=
201508240700 METAR MROC 240700Z 01004KT CAVOK 20/18 A2999 NOSIG=
201508240800 METAR MROC 240800Z 08004KT CAVOK 21/17 A2995 NOSIG=
201508240900 METAR MROC 240900Z 05005KT CAVOK 21/17 A2993 NOSIG=
201508241000 METAR MROC 241000Z 00000KT CAVOK 19/17 A2994 NOSIG=
201508241100 METAR MROC 241100Z 11010KT 9999 FEW035 21/17 A2994 NOSIG=
201508241200 METAR MROC 241200Z 09008KT 9999 FEW035 SCT250 21/17 A2995 NOSIG=
201508241300 METAR MROC 241300Z 10010KT 9999 FEW035 SCT120 SCT250 23/17 A2997 NOSIG=
201508241400 METAR MROC 241400Z 10008KT 9999 FEW035 SCT130 SCT250 25/18 A2998 NOSIG=
201508241500 METAR MROC 241500Z 08012KT 9999 FEW035 SCT120 SCT250 26/16 A2998 NOSIG=
201508241600 METAR MROC 241600Z 07013G23KT 9999 FEW035 SCT120 27/17 A2997 NOSIG=
201508241700 METAR MROC 241700Z 06014G24KT 9999 FEW035 BKN080 27/17 A2997 NOSIG=
201508241800 METAR MROC 241800Z 07012G22KT 9999 BKN030 SCT200 26/16 A2997 NOSIG=
201508241900 METAR MROC 241900Z 07010G20KT 9999 -RA FEW030 BKN080 27/13 A2995 NOSIG=
201508242000 METAR MROC 242000Z 06013KT 9999 FEW030 BKN100 26/14 A2993 NOSIG=
201508242100 METAR MROC 242100Z 07010G20KT 9999 FEW030 BKN100 26/15 A2993 NOSIG=
201508242200 METAR MROC 242200Z 07016KT 9999 FEW030 BKN100 25/15 A2994 NOSIG=
201508242300 METAR MROC 242300Z 09012KT 9999 FEW030 SCT100 BKN200 24/15 A2994 NOSIG=
201508242355 METAR MROC 250000Z 09012KT 9999 FEW040 BKN120 23/14 A2996 NOSIG=
201508250000 METAR MROC 250000Z 09012KT 9999 FEW040 BKN120 23/14 A2996 NOSIG=
201508250100 METAR MROC 250100Z 07016KT 9999 FEW030 BKN120 23/13 A2998 NOSIG=
201508250200 METAR MROC 250200Z 08013KT 9999 FEW030 SCT120 BKN250 22/13 A3000 NOSIG=
201508250300 METAR MROC 250300Z 13008KT 9999 FEW030 SCT120 BKN250 21/14 A3002 NOSIG=
201508250400 METAR MROC 250400Z 10005KT CAVOK 21/14 A3004 NOSIG=
201508250500 METAR MROC 250500Z 09003KT CAVOK 20/13 A3004 NOSIG=
201508250600 METAR MROC 250600Z 08003KT CAVOK 19/14 A3002 NOSIG=
201508250700 METAR MROC 250700Z 04003KT CAVOK 18/13 A3002 NOSIG=
201508250800 METAR MROC 250800Z 08003KT CAVOK 17/12 A3000 NOSIG=
201508250900 METAR MROC 250900Z 05006KT CAVOK 17/11 A2999 NOSIG=
201508251000 METAR MROC 251000Z 02004KT CAVOK 18/12 A2999 NOSIG=
201508251100 METAR MROC 251100Z 05005KT CAVOK 20/12 A2999 NOSIG=
201508251200 METAR MROC 251200Z 04005KT CAVOK 19/12 A2999 NOSIG=
201508251300 METAR MROC 251300Z 10009KT CAVOK 22/09 A3001 NOSIG=
201508251400 METAR MROC 251400Z 12016KT CAVOK 24/11 A3001 NOSIG=
201508251500 METAR MROC 251500Z 10012G22KT 9999 FEW040 BKN200 25/10 A3002 NOSIG=
201508251600 METAR MROC 251600Z 10010G20KT 9999 FEW040 BKN200 26/11 A3000 NOSIG=
201508251700 METAR MROC 251700Z 10010G20KT 9999 FEW040 BKN200 27/12 A3000 NOSIG=
201508251800 METAR MROC 251800Z 10017KT 9999 FEW040 BKN200 27/14 A2999 NOSIG=
201508251900 METAR MROC 251900Z 10010G20KT 9999 FEW040 BKN200 27/15 A2997 NOSIG=
201508252000 METAR MROC 252000Z 11015KT 9999 FEW045 SCT150 BKN200 28/15 A2996 NOSIG=
201508252100 METAR MROC 252100Z 14005KT 9999 FEW025 SCT040 BKN250 27/16 A2995 BECMG 24006KT=
201508252200 METAR MROC 252200Z 16004KT 9999 FEW025 BKN040 26/16 A2997 BECMG 24006KT=
201508252300 METAR MROC 252300Z 22008KT 9999 FEW015 BKN030 24/19 A2997 NOSIG=
201508260000 METAR MROC 260000Z 25008KT 9999 VCSH FEW015CB SCT040 BKN170 21/20 A3000 RMK VIS N NE 8KMS BECMG RA=
201508260100 METAR MROC 260100Z 27006KT 9999 FEW006 SCT010 BKN020 21/20 A3002 BECMG RA=
201508260200 METAR MROC 260200Z 29004KT 9999 VCFG FEW007 BKN015 21/19 A3005 NOSIG=
201508260300 METAR MROC 260300Z 26003KT 9999 FEW007 SCT015 20/19 A3007 NOSIG=
201508260400 METAR MROC 260400Z 00000KT 9999 VCFG SCT010 BKN120 20/19 A3009 NOSIG=
201508260500 METAR MROC 260500Z 00000KT 9999 BCFG SCT010 BKN100 20/19 A3007 NOSIG=
201508260600 METAR MROC 260600Z 12002KT 9999 SCT015 SCT120 19/19 A3004 NOSIG=
201508260700 METAR MROC 260700Z 08004KT 9999 FEW030 SCT120 20/19 A3003 NOSIG=
201508260800 METAR MROC 260800Z 06005KT 9999 FEW030 SCT120 20/17 A3001 NOSIG=
201508260900 METAR MROC 260900Z 08003KT 9999 FEW025 BKN100 20/17 A3000 NOSIG=
201508261000 METAR MROC 261000Z 06009KT 9999 FEW025 BKN100 21/15 A3002 NOSIG=
201508261100 METAR MROC 261100Z 08008KT 9999 FEW030 BKN120 20/15 A3001 NOSIG=
201508261200 METAR MROC 261200Z 06007KT CAVOK 20/15 A3001 NOSIG=
201508261300 METAR MROC 261300Z 07006KT CAVOK 23/15 A3003 NOSIG=
201508261400 METAR MROC 261400Z 10008KT CAVOK 26/11 A3006 NOSIG=
201508261500 METAR MROC 261500Z 11009KT CAVOK 26/12 A3007 NOSIG=
201508261600 METAR MROC 261600Z 11010KT CAVOK 28/12 A3006 NOSIG=
201508261700 METAR MROC 261700Z 10010KT CAVOK 28/14 A3005 NOSIG=
201508261800 METAR MROC 261800Z 12005KT 9999 FEW045 SCT140 30/14 A3003 BECMG 24006KT=
201508261900 METAR MROC 261900Z 25008KT 9999 FEW045 BKN140 27/19 A3001 NOSIG=
201508262000 METAR MROC 262000Z 25007KT 9999 SCT040 SCT140 28/19 A2999 NOSIG=
201508262100 METAR MROC 262100Z 21007KT 9999 SCT035 BKN130 28/19 A2997 NOSIG=
201508262200 METAR MROC 262200Z 24008KT 9999 SCT035 BKN130 25/20 A2998 NOSIG=
201508262300 METAR MROC 262300Z 25005KT 9999 SCT035 BKN130 24/21 A2999 NOSIG=
201508270000 METAR MROC 270000Z 22005KT 9999 SCT035 SCT130 23/22 A3000 NOSIG=
201508270100 METAR MROC 270100Z 25006KT 9999 SCT030 SCT130 22/22 A3004 NOSIG=
201508270200 METAR MROC 270200Z 28003KT 8000 VCFG FEW002 SCT130 22/22 A3005 NOSIG=
201508270300 METAR MROC 270300Z 17003KT 5000 BR FEW002 SCT130 22/22 A3006 NOSIG=
201508270400 METAR MROC 270400Z 09008KT CAVOK 21/18 A3006 NOSIG=
201508270500 METAR MROC 270500Z VRB02KT 9999 FEW005 21/19 A3005 NOSIG=
201508270600 METAR MROC 270600Z 05003KT 9999 FEW020 BKN120 21/20 A3004 NOSIG=
201508270700 METAR MROC 270700Z 08007KT 9999 FEW020 SCT120 21/17 A3001 NOSIG=
201508270800 METAR MROC 270800Z 04009KT 9999 FEW020 SCT120 22/16 A3000 NOSIG=
201508270900 METAR MROC 270900Z 10017KT CAVOK 22/16 A2999 NOSIG=
201508271000 METAR MROC 271000Z 05011KT CAVOK 22/16 A2999 NOSIG=
201508271100 METAR MROC 271100Z 09013KT 9999 FEW030 21/17 A2999 NOSIG=
201508271200 METAR MROC 271200Z 07014KT 9999 FEW035 SCT250 22/17 A3001 NOSIG=
201508271300 METAR MROC 271300Z 11010KT 9999 FEW035 SCT130 23/17 A3001 NOSIG=
201508271400 METAR MROC 271400Z 11010KT 9999 SCT035 BKN120 24/27 A3004 NOSIG=
201508271500 METAR MROC 271500Z 11006KT 9999 FEW035 BKN120 27/18 A3005 NOSIG=
201508271600 METAR MROC 271600Z 10010KT 9999 FEW035 BKN120 27/17 A3006 NOSIG=
201508271700 METAR MROC 271700Z 08010KT 9999 FEW035 SCT130 27/16 A3006 NOSIG=
201508271800 METAR MROC 271800Z 07012KT 9999 FEW035 BKN130 28/17 A3003 NOSIG=
201508271900 METAR MROC 271900Z 07011KT 9999 FEW035 BKN130 29/16 A2999 NOSIG=
201508272000 METAR MROC 272000Z 09007KT 9999 FEW035 BKN130 29/16 A2998 NOSIG=
201508272100 METAR MROC 272100Z 10005KT 9999 FEW030 SCT120 BKN250 28/15 A2996 NOSIG=
201508272200 METAR MROC 272200Z 23008KT 9999 FEW030 SCT120 BKN250 25/22 A2996 NOSIG=
201508272300 METAR MROC 272300Z 24005KT 9999 FEW020 BKN250 23/21 A2997 NOSIG=
201508280000 METAR MROC 280000Z 23004KT 9999 2000SW BR FEW002 SCT250 23/21 A2998 NOSIG=
201508280100 METAR MROC 280100Z 19004KT 8000 VCFG SCT002 SCT250 22/22 A2999 BECMG 3000 BR=
201508280200 METAR MROC 280200Z 26003KT 9999 2000SW BR FEW002 22/20 A3000 BECMG 3000 BR=
201508280300 METAR MROC 280300Z 29002KT 9999 2000SW BR FEW002 21/21 A3002 BECMG 3000 BR=
201508280400 METAR MROC 280400Z 00000KT CAVOK 21/19 A3002 NOSIG=
201508280500 METAR MROC 280500Z 05003KT CAVOK 21/16 A3002 NOSIG=
201508280600 METAR MROC 280600Z 11006KT CAVOK 21/16 A3001 NOSIG=
201508280700 METAR MROC 280700Z 10007KT 9999 FEW030 21/16 A2999 NOSIG=
201508280800 METAR MROC 280800Z 05006KT 9999 FEW030 20/15 A2998 NOSIG=
201508280900 METAR MROC 280900Z 03005KT 9999 FEW030 20/15 A2996 NOSIG=
201508281000 METAR MROC 281000Z 07005KT CAVOK 21/15 A2996 NOSIG=
201508281100 METAR MROC 281100Z 07005KT CAVOK 19/15 A2998 NOSIG=
201508281200 METAR MROC 281200Z 10008KT CAVOK 21/15 A2998 NOSIG=
201508281300 METAR MROC 281300Z 10008KT CAVOK 23/15 A3000 NOSIG=
201508281400 METAR MROC 281400Z 11009KT CAVOK 25/15 A3000 NOSIG=
201508281500 METAR MROC 281500Z 11008KT CAVOK 27/14 A3000 NOSIG=
201508281600 METAR MROC 281600Z 10010KT CAVOK 29/13 A3000 NOSIG=
201508281700 METAR MROC 281700Z 11007KT 9999 FEW030 29/14 A2999 NOSIG=
201508281800 METAR MROC 281800Z 11007KT 9999 FEW030 29/14 A2999 NOSIG=
201508281900 METAR MROC 281900Z 23009KT 9999 SCT030 29/19 A2995 NOSIG=
201508282000 METAR MROC 282000Z 23010KT 9999 SCT030 28/20 A2993 NOSIG=
201508282100 METAR MROC 282100Z 24011KT 9999 SCT035 27/21 A2991 NOSIG=
201508282200 METAR MROC 282200Z 25010KT 9999 FEW035 SCT250 26/21 A2991 NOSIG=
201508282300 METAR MROC 282300Z 24007KT 9999 FEW030 SCT250 24/21 A2991 NOSIG=
201508290000 METAR MROC 290000Z 24005KT 9999 BKN025 23/21 A2993 NOSIG=
201508290100 METAR MROC 290100Z 22003KT 9999 4500SW BCFG SCT008 BKN025 23/21 A2994 BECMG 2000 BR=
201508290200 METAR MROC 290200Z 24002KT 9999 4000SW BCFG SCT008 BKN030 23/21 A2997 NOSIG=
201508290300 METAR MROC 290300Z 24004KT 7000 3000SW BCFG SCT006 SCT030 22/22 A2999 NOSIG=
201508290400 METAR MROC 290400Z 23002KT 9999 FEW030 22/21 A3000 NOSIG=
201508290500 METAR MROC 290500Z 00000KT 9999 FEW030 22/18 A3001 NOSIG=
201508290600 METAR MROC 290600Z 09005KT 9999 FEW030 22/16 A2999 NOSIG=
201508290700 METAR MROC 290700Z 10002KT 9999 FEW030 23/17 A2998 NOSIG=
201508290800 METAR MROC 290800Z 08004KT 9999 FEW030 22/17 A2995 NOSIG=
201508290900 METAR MROC 290900Z 08005KT 9999 FEW030 22/16 A2994 NOSIG=
201508291000 METAR MROC 291000Z 05004KT 9999 FEW030 21/16 A2996 NOSIG=
201508291100 METAR MROC 291100Z 11007KT 9999 FEW030 22/16 A2996 NOSIG=
201508291200 METAR MROC 291200Z 10009KT 9999 FEW030 SCT250 21/16 A2997 NOSIG=
201508291300 METAR MROC 291300Z 08007KT 9999 FEW035 BKN250 24/16 A3000 NOSIG=
201508291400 METAR MROC 291400Z 12006KT 9999 FEW040 BKN250 25/16 A3001 NOSIG=
201508291500 METAR MROC 291500Z 09010G20KT CAVOK 26/16 A3001 NOSIG=
201508291600 METAR MROC 291600Z 09010G20KT 9999 FEW045 BKN250 28/15 A3000 NOSIG=
201508291700 METAR MROC 291700Z 08010KT 9999 FEW040 BKN250 29/16 A2998 NOSIG=
201508291800 METAR MROC 291800Z 07012KT 9999 FEW040 BKN250 30/16 A2996 NOSIG=
201508291900 METAR MROC 291900Z 09011KT 9999 SCT035 BKN250 30/16 A2993 NOSIG=
201508292000 METAR MROC 292000Z 07008KT 9999 FEW035 SCT120 SCT250 30/17 A2992 NOSIG=
201508292100 METAR MROC 292100Z 11011G21KT 9999 FEW035 SCT100 BKN200 27/16 A2991 NOSIG=
201508292200 METAR MROC 292200Z 11010G20KT 9999 FEW035 BKN120 26/16 A2991 NOSIG=
201508292300 METAR MROC 292300Z 13010G20KT 9999 FEW035 BKN120 25/17 A2993 NOSIG=
201508292353 METAR MROC 300000Z 12015KT 9999 FEW035 SCT120 BKN250 24/16 A2995 NOSIG=
201508300000 METAR MROC 300000Z 12015KT 9999 FEW035 SCT120 BKN250 24/16 A2995 NOSIG=
201508300100 METAR MROC 300100Z 13012KT 9999 FEW035 SCT120 BKN250 23/17 A2999 NOSIG=
201508300200 METAR MROC 300200Z 07006KT 9999 FEW035 BKN250 23/17 A3001 NOSIG=
201508300300 METAR MROC 300300Z 06005KT 9999 FEW030 BKN200 22/17 A3002 NOSIG=
201508300400 METAR MROC 300400Z 07003KT CAVOK 22/17 A3003 NOSIG=
201508300500 METAR MROC 300500Z 03008KT CAVOK 22/17 A3003 NOSIG=
201508300600 METAR MROC 300600Z 09003KT CAVOK 21/17 A3002 NOSIG=
201508300700 METAR MROC 300700Z 04002KT CAVOK 21/17 A3001 NOSIG=
201508300800 METAR MROC 300800Z 11002KT CAVOK 20/17 A2999 NOSIG=
201508300900 METAR MROC 300900Z 34002KT CAVOK 20/17 A2997 NOSIG=
201508301000 METAR MROC 301000Z 00000KT CAVOK 19/17 A2996 NOSIG=
201508301100 METAR MROC 301100Z 05003KT CAVOK 19/17 A2997 NOSIG=
201508301200 METAR MROC 301200Z 05004KT CAVOK 21/17 A2997 NOSIG=
201508301300 METAR MROC 301300Z 06006KT 9999 FEW035 BKN250 23/18 A2998 NOSIG=
201508301400 METAR MROC 301400Z 09010G20KT 9999 FEW035 BKN250 26/17 A2999 NOSIG=
201508301500 METAR MROC 301500Z 13012KT 9999 FEW035 BKN250 28/18 A3002 NOSIG=
201508301600 METAR MROC 301600Z 19009KT 9999 FEW035 BKN250 29/17 A3002 NOSIG=
201508301700 METAR MROC 301700Z 24016KT 9999 SCT035 SCT250 27/20 A3002 NOSIG=
201508301800 METAR MROC 301800Z 25015KT 9999 SCT035 28/20 A3000 NOSIG=
201508301900 METAR MROC 301900Z 23012KT 9999 DZ FEW020TCU SCT035 27/21 A2998 NOSIG=
201508302000 METAR MROC 302000Z 26016KT 9999 VCSH FEW020TCU SCT035 BKN250 27/20 A2995 REDZ BECMG RA=
201508302100 METAR MROC 302100Z 17007KT 2000 TSRA SCT015CB BKN030 21/19 A2995 RMK VIS E SE UNL BECMG 5000=
201508302200 METAR MROC 302200Z 29004KT 9999 -TSRA FEW015CB SCT025 BKN070 21/21 A2996 NOSIG=
201508302300 METAR MROC 302300Z 07002KT 9999 FEW025 SCT120 BKN200 22/20 A2997 RETSRA NOSIG=
201508310000 METAR MROC 310000Z 09004KT 9999 FEW025 SCT120 BKN200 21/21 A2996 NOSIG=
201508310100 METAR MROC 310100Z 08003KT 9999 FEW030 BKN200 21/20 A2997 NOSIG=
201508310200 METAR MROC 310200Z 31002KT 9999 BCFG FEW030 BKN120 21/20 A3001 NOSIG=
201508310300 METAR MROC 310300Z 12003KT 9999 FEW030 BKN200 21/20 A3003 NOSIG=
201508310400 METAR MROC 310400Z 09002KT 9999 SCT030 21/18 A3005 NOSIG=
201508310500 METAR MROC 310500Z VRB02KT 9999 SCT030 20/19 A3005 NOSIG=
201508310600 METAR MROC 310600Z 01002KT 9999 FEW030 20/18 A3004 NOSIG=
201508310700 METAR MROC 310700Z 02005KT 9999 FEW030 19/18 A3003 NOSIG=
201508310800 METAR MROC 310800Z 06004KT 9999 FEW030 20/17 A3000 NOSIG=
201508310900 METAR MROC 310900Z 04004KT 9999 FEW030 20/17 A2999 NOSIG=
201508311000 METAR MROC 311000Z 07004KT 9999 FEW030 21/17 A2998 NOSIG=
201508311100 METAR MROC 311100Z 08003KT 9999 FEW030 SCT250 21/17 A2998 NOSIG=
201508311200 METAR MROC 311200Z 11006KT CAVOK 22/17 A3000 NOSIG=
201508311300 METAR MROC 311300Z 09007KT CAVOK 23/18 A3003 NOSIG=
201508311400 METAR MROC 311400Z 11007KT CAVOK 26/18 A3004 NOSIG=
201508311500 METAR MROC 311500Z 15004KT CAVOK 28/17 A3004 BECMG 24006KT=
201508311600 METAR MROC 311600Z 26008KT 9999 FEW040 SCT250 27/19 A3004 NOSIG=
201508311700 METAR MROC 311700Z 25009KT 9999 SCT035 27/20 A3004 NOSIG=
201508311800 METAR MROC 311800Z 24007KT 9999 FEW025TCU SCT035 27/21 A3003 NOSIG=
201508311900 METAR MROC 311900Z 23010KT 9999 VCSH FEW015CB SCT025 26/21 A3000 BECMG SHRA=
201508312000 METAR MROC 312000Z 25010KT 4000 1500NE +TSRA SCT012CB BKN025 24/21 A3001 BECMG 1000=
201508312100 METAR MROC 312100Z 02002KT 8000 -RA BCFG FEW002 SCT015 BKN045 21/21 A3001 NOSIG=
201508312200 METAR MROC 312200Z 01003KT 9999 FEW005 SCT030 BKN100 21/21 A3001 NOSIG=
201508312300 METAR MROC 312300Z 00000KT 9999 FEW010 SCT030 BKN110 21/21 A3001 NOSIG=
201509010000 METAR MROC 010000Z 00000KT 9999 -RA FEW008 SCT030 BKN110 21/21 A3002 NOSIG=
201509010100 METAR MROC 010100Z 00000KT 8000 -RA VCFG FEW005 SCT030 BKN110 22/21 A3004 NOSIG=
201509010200 METAR MROC 010200Z 10002KT 9999 FEW030 SCT110 21/21 A3006 NOSIG=
201509010300 METAR MROC 010300Z 06003KT 9999 FEW030 21/21 A3005 NOSIG=
201509010400 METAR MROC 010400Z 05006KT 9999 FEW030 21/19 A3008 NOSIG=
201509010500 METAR MROC 010500Z 05008KT 9999 FEW030 20/19 A3008 NOSIG=
201509010600 METAR MROC 010600Z 08007KT 9999 FEW030 21/18 A3005 NOSIG=
201509010700 METAR MROC 010700Z 06008KT 9999 FEW030 19/17 A3003 NOSIG=
201509010800 METAR MROC 010800Z 09014KT 9999 FEW030 22/18 A3002 NOSIG=
201509010900 METAR MROC 010900Z 10010KT 9999 FEW030 22/18 A3001 NOSIG=
201509011000 METAR MROC 011000Z 10010KT 9999 FEW030 22/18 A3001 NOSIG=
201509011100 METAR MROC 011100Z 03009KT CAVOK 21/17 A3000 NOSIG=
201509011200 METAR MROC 011200Z 07009KT CAVOK 21/17 A3002 NOSIG=
201509011300 METAR MROC 011300Z 07005KT CAVOK 24/18 A3002 NOSIG=
201509011400 METAR MROC 011400Z 11010KT CAVOK 25/18 A3004 NOSIG=
201509011500 METAR MROC 011500Z 09012G22KT 9999 FEW035 SCT130 27/17 A3006 NOSIG=
201509011600 METAR MROC 011600Z 08010KT 9999 FEW035 SCT230 28/17 A3006 NOSIG=
201509011700 METAR MROC 011700Z 11010KT 9999 FEW035 BKN230 27/18 A3006 NOSIG=
201509011800 METAR MROC 011800Z 05020G31KT 9999 SCT035 BKN230 27/15 A3005 NOSIG=
201509011900 METAR MROC 011900Z 08013G23KT 9999 SCT035 SCT130 25/16 A3005 NOSIG=
201509012000 METAR MROC 012000Z 10012KT CAVOK 25/16 A3002 NOSIG=
201509012100 METAR MROC 012100Z 10013G23KT CAVOK 27/14 A2998 NOSIG=
201509012200 METAR MROC NIL=
201509012300 METAR MROC 012300Z 16005KT CAVOK 27/14 A2995 NOSIG=
201509020000 METAR MROC 020000Z 25007KT 9999 2000SW BR FEW001 SCT005 BKN120 23/22 A3001 BECMG 3000 BR=
201509020100 METAR MROC 020100Z 26005KT 9999 SCT010 BKN120 22/22 A3004 BECMG 3000 BR=
201509020200 METAR MROC 020200Z 00000KT 9999 FEW010 BKN120 22/18 A3008 NOSIG=
201509020300 METAR MROC 020300Z 00000KT 9999 FEW010 BKN120 22/18 A3009 NOSIG=
201509020400 METAR MROC 020400Z 07004KT CAVOK 21/16 A3010 NOSIG=
201509020500 METAR MROC 020500Z 08006KT CAVOK 21/15 A3009 NOSIG=
201509020600 METAR MROC 020600Z 05007KT CAVOK 21/15 A3008 NOSIG=
201509020700 METAR MROC 020700Z 05008KT CAVOK 21/15 A3006 NOSIG=
201509020800 METAR MROC 020800Z 03006KT CAVOK 21/15 A3003 NOSIG=
201509020900 METAR MROC NIL=
201509021000 METAR MROC 021000Z VRB02KT CAVOK 21/15 A3003 NOSIG=
201509021100 METAR MROC 021100Z 13002KT CAVOK 20/16 A3004 NOSIG=
201509021200 METAR MROC 021200Z 06004KT CAVOK 20/16 A3003 NOSIG=
201509021300 METAR MROC 021300Z 04004KT CAVOK 22/16 A3004 NOSIG=
201509021400 METAR MROC 021400Z 09009KT CAVOK 24/16 A3007 NOSIG=
201509021500 METAR MROC 021500Z 10005KT CAVOK 24/17 A3007 NOSIG=
201509021600 METAR MROC 021600Z 09006KT 9999 -DZ FEW030 BKN100 26/18 A3008 NOSIG=
201509021700 METAR MROC 021700Z 10009KT 9999 FEW030 BKN100 27/17 A3006 NOSIG=
201509021800 METAR MROC 021800Z 10007KT 9999 SCT030 SCT100 28/17 A3005 NOSIG=
201509021900 METAR MROC 021900Z 07010KT 9999 SCT030 BKN100 26/17 A3001 NOSIG=
201509022000 METAR MROC 022000Z 11008KT 9999 FEW030 BKN100 24/15 A3001 NOSIG=
201509022100 METAR MROC 022100Z 27007KT 9999 4000SW RA FEW035 OVC100 21/19 A3004 NOSIG=
201509022200 METAR MROC 022200Z 06003KT 5000 RA BR SCT008 BKN100 20/19 A3002 NOSIG=
201509022300 METAR MROC 022300Z 08004KT 9999 RA FEW010 OVC100 20/19 A3000 NOSIG=
201509030000 METAR MROC 030000Z 16004KT 9999 -RA NSC 21/18 A3003 NOSIG=
201509030100 METAR MROC 030100Z 06005KT 9999 -DZ NSC 20/18 A3004 NOSIG=
201509030200 METAR MROC 030200Z 03006KT 9999 DZ BKN100 21/18 A3005 NOSIG=
201509030300 METAR MROC 030300Z 14003KT CAVOK 20/18 A3007 NOSIG=
201509030400 METAR MROC 030400Z 00000KT CAVOK 20/18 A3006 NOSIG=
201509030500 METAR MROC 030500Z 07005KT CAVOK 20/18 A3003 NOSIG=
201509030600 METAR MROC 030600Z 05004KT CAVOK 20/18 A3002 NOSIG=
201509030700 METAR MROC 030700Z 08003KT CAVOK 20/17 A3000 NOSIG=
201509030800 METAR MROC 030800Z 09004KT CAVOK 21/17 A2998 NOSIG=
201509030900 METAR MROC 030900Z 03006KT CAVOK 21/17 A2996 NOSIG=
201509031000 METAR MROC 031000Z 06005KT CAVOK 21/16 A2997 NOSIG=
201509031100 METAR MROC 031100Z 10008KT CAVOK 21/17 A2996 NOSIG=
201509031200 METAR MROC 031200Z 07005KT CAVOK 21/17 A2998 NOSIG=
201509031300 METAR MROC 031300Z 08004KT CAVOK 24/17 A3001 NOSIG=
201509031400 METAR MROC 031400Z 12005KT CAVOK 25/17 A3003 BECMG 24007KT=
201509031500 METAR MROC 031500Z 10008KT CAVOK 25/17 A3004 BECMG 24007KT=
201509031600 METAR MROC 031600Z COR 09007KT 9999 FEW040 BKN120 27/18 A3005 NOSIG=
201509031700 METAR MROC 031700Z COR 11008KT 9999 SCT035 SCT120 27/18 A3003 BECMG 24007KT=
201509031800 METAR MROC 031800Z 11009KT 9999 SCT035 SCT130 29/17 A3001 BECMG 24007KT=
201509031900 METAR MROC 031900Z COR 19004KT 9999 VCSH SCT030 BKN100 28/17 A3000 NOSIG=
201509032000 METAR MROC 032000Z 25007KT 9999 RA SCT030 BKN100 25/20 A2997 NOSIG=
201509032100 METAR MROC 032100Z 11012KT 9999 VCSH FEW015TCU FEW030 BKN100 23/18 A2996 RERA NOSIG=
201509032200 METAR MROC 032200Z 09008KT 9999 -RA FEW020 SCT030 BKN100 22/18 A2997 BECMG TSRA=
201509032300 METAR MROC 032300Z 10013KT 9999 -RA FEW030 BKN100 20/17 A2997 NOSIG=
201509040000 METAR MROC 040000Z 10013KT 9999 -DZ FEW060 SCT100 BKN200 21/17 A2998 NOSIG=
201509040100 METAR MROC 040100Z 12012KT CAVOK 21/16 A2998 NOSIG=
201509040200 METAR MROC 040200Z 09009KT CAVOK 21/16 A3001 NOSIG=
201509040300 METAR MROC 040300Z 31005KT CAVOK 20/16 A3004 NOSIG=
201509040400 METAR MROC 040400Z 02004KT CAVOK 19/16 A3005 NOSIG=
201509040500 METAR MROC 040500Z 06004KT CAVOK 19/16 A3004 NOSIG=
201509040600 METAR MROC 040600Z 07004KT CAVOK 18/16 A3002 NOSIG=
201509040700 METAR MROC 040700Z 07003KT CAVOK 18/16 A2999 NOSIG=
201509040800 METAR MROC 040800Z 07005KT CAVOK 19/16 A2997 NOSIG=
201509040900 METAR MROC 040900Z 09006KT CAVOK 18/16 A2995 NOSIG=
201509041000 METAR MROC 041000Z 06007KT CAVOK 18/15 A2996 NOSIG=
201509041100 METAR MROC 041100Z 08006KT CAVOK 20/16 A2998 NOSIG=
201509041200 METAR MROC 041200Z 19002KT CAVOK 22/16 A3000 NOSIG=
201509041300 METAR MROC 041300Z 10004KT CAVOK 23/17 A3002 NOSIG=
201509041400 METAR MROC 041400Z COR 07003KT CAVOK 26/17 A3005 BECMG 22006KT=
201509041500 METAR MROC 041500Z 26008KT CAVOK 25/17 A3006 NOSIG=
201509041600 METAR MROC 041600Z 27007KT 9999 FEW040 SCT120 BKN200 27/17 A3005 NOSIG=
201509041700 METAR MROC 041700Z 25009KT 9999 SCT035 BKN120 28/18 A3003 NOSIG=
201509041800 METAR MROC 041800Z 25009KT 9999 FEW025TCU SCT035 BKN120 27/18 A3001 NOSIG=
201509041900 METAR MROC 041900Z 24014KT 9999 FEW025TCU SCT035 BKN120 27/20 A2999 BECMG RA=
201509042000 METAR MROC 042000Z 24013KT 9999 FEW015 SCT030 BKN120 24/20 A2999 NOSIG=
201509042100 METAR MROC 042100Z 24006KT 9999 VCSH FEW015CB BKN120 24/20 A2998 NOSIG=
201509042200 METAR MROC 042200Z 22003KT 9999 FEW020 BKN120 24/20 A2997 BECMG RA=
201509042300 METAR MROC 042300Z 20004KT 9999 FEW020 SCT060 BKN140 24/20 A2999 NOSIG=
201509050000 METAR MROC 050000Z 28003KT 9999 FEW020 SCT070 BKN140 23/19 A3001 NOSIG=
201509050100 METAR MROC 050100Z 23003KT 9999 FEW020 SCT070 BKN140 22/20 A3002 NOSIG=
201509050200 METAR MROC 050200Z 24002KT 9999 BCFG FEW003 SCT015 BKN080 22/20 A3005 NOSIG=
201509050300 METAR MROC 050300Z 02002KT 9999 4000SW BCFG FEW003 BKN080 22/21 A3005 NOSIG=
201509050400 METAR MROC 050400Z 07003KT 9999 BCFG SCT010 BKN120 22/19 A3005 NOSIG=
201509050500 METAR MROC 050500Z 06006KT CAVOK 22/18 A3002 NOSIG=
201509050600 METAR MROC 050600Z 09004KT CAVOK 22/18 A3002 NOSIG=
201509050700 METAR MROC 050700Z 06003KT CAVOK 22/17 A3001 NOSIG=
201509050800 METAR MROC 050800Z 07004KT CAVOK 21/17 A2999 NOSIG=
201509050900 METAR MROC 050900Z 07004KT CAVOK 21/18 A2999 NOSIG=
201509051000 METAR MROC 051000Z 08003KT CAVOK 21/18 A3000 NOSIG=
201509051100 METAR MROC 051100Z 06004KT CAVOK 21/18 A3002 NOSIG=
201509051200 METAR MROC 051200Z 08004KT CAVOK 21/17 A3003 NOSIG=
201509051300 METAR MROC 051300Z 04004KT CAVOK 23/18 A3004 NOSIG=
201509051400 METAR MROC 051400Z 09008KT CAVOK 26/17 A3005 NOSIG=
201509051500 METAR MROC 051500Z 08010KT CAVOK 27/17 A3004 NOSIG=
201509051600 METAR MROC 051600Z 09010G20KT 9999 FEW030 SCT300 29/17 A3003 NOSIG=
201509051700 METAR MROC 051700Z 09009KT 9999 SCT035 29/17 A3002 NOSIG=
201509051800 METAR MROC 051800Z 09010KT 9999 SCT035 30/17 A3000 NOSIG=
201509051900 METAR MROC 051900Z 10010KT 9999 VCSH FEW020TCU SCT040 29/17 A2997 BECMG 20006KT=
201509052000 METAR MROC 052000Z 03010KT 9999 SCT040 SCT200 29/17 A2996 BECMG 20006KT=
201509052100 METAR MROC 052100Z 10012KT 9999 SCT035 BKN250 27/17 A2996 NOSIG=
201509052200 METAR MROC 052200Z 09011G21KT 9999 SCT035 SCT110 27/17 A2996 NOSIG=
201509052300 METAR MROC 052300Z 12004KT 9999 FEW035 SCT110 BKN220 25/17 A2998 NOSIG=
201509060000 METAR MROC 060000Z 10007KT 9999 FEW035 BKN120 24/17 A2999 NOSIG=
201509060100 METAR MROC 060100Z 11004KT CAVOK 23/17 A3003 NOSIG=
201509060200 METAR MROC 060200Z 08006KT CAVOK 23/17 A3002 NOSIG=
201509060300 METAR MROC 060300Z 08005KT CAVOK 23/16 A3004 NOSIG=
201509060400 METAR MROC 060400Z 06009KT 9999 FEW030 23/15 A3005 NOSIG=
201509060500 METAR MROC 060500Z 01006KT 9999 FEW030 23/16 A3004 NOSIG=
201509060600 METAR MROC 060600Z 07012KT CAVOK 22/16 A3002 NOSIG=
201509060700 METAR MROC 060700Z 03005KT CAVOK 21/16 A2999 NOSIG=
201509060800 METAR MROC 060800Z 34007KT CAVOK 20/16 A2997 NOSIG=
201509060900 METAR MROC 060900Z 09007KT CAVOK 19/16 A2999 NOSIG=
201509061000 METAR MROC 061000Z 04010KT CAVOK 20/16 A2997 NOSIG=
201509061100 METAR MROC 061100Z 07012KT CAVOK 21/16 A2999 NOSIG=
201509061200 METAR MROC 061200Z 09010G20KT 9999 FEW035 SCT140 BKN250 23/17 A3001 NOSIG=
201509061300 METAR MROC 061300Z 11010G22KT 9999 FEW035 BKN250 23/17 A3002 NOSIG=
201509061400 METAR MROC 061400Z 11010KT 9999 FEW035 BKN250 24/17 A3004 NOSIG=
201509061500 METAR MROC 061500Z 10013KT 9999 SCT035 BKN250 25/16 A3005 NOSIG=
201509061600 METAR MROC 061600Z 09010G20KT 9999 SCT035 BKN250 27/17 A3006 NOSIG=
201509061700 METAR MROC 061700Z 08012KT 9999 SCT035 BKN250 27/16 A3006 NOSIG=
201509061800 METAR MROC 061800Z 10012G22KT 9999 SCT035 SCT100 26/17 A3004 NOSIG=
201509061900 METAR MROC 061900Z 08008KT 9999 SCT035 BKN100 22/18 A3002 NOSIG=
201509062000 METAR MROC 062000Z 13006KT CAVOK 25/17 A2999 NOSIG=
201509062100 METAR MROC 062100Z 10009KT CAVOK 24/16 A2997 NOSIG=
201509062200 METAR MROC 062200Z 11008KT CAVOK 24/16 A2995 NOSIG=
201509062300 METAR MROC 062300Z 10013KT CAVOK 23/14 A2996 NOSIG=
201509070000 METAR MROC 070000Z 10009KT CAVOK 23/11 A2998 NOSIG=
201509070100 METAR MROC 070100Z 11008KT CAVOK 22/13 A3000 NOSIG=
201509070200 METAR MROC 070200Z 13006KT CAVOK 22/13 A3002 NOSIG=
201509070300 METAR MROC 070300Z 05004KT CAVOK 21/13 A3003 NOSIG=
201509070400 METAR MROC 070400Z 05005KT CAVOK 21/14 A3003 NOSIG=
201509070500 METAR MROC 070500Z 01003KT CAVOK 19/15 A3003 NOSIG=
201509070600 METAR MROC 070600Z 02004KT CAVOK 21/13 A3002 NOSIG=
201509070700 METAR MROC 070700Z 05004KT CAVOK 18/14 A3000 NOSIG=
201509070800 METAR MROC 070800Z 05004KT CAVOK 18/14 A2999 NOSIG=
201509070900 METAR MROC 070900Z 07005KT CAVOK 17/13 A2998 NOSIG=
201509071000 METAR MROC 071000Z 07008KT CAVOK 20/15 A2997 NOSIG=
201509071100 METAR MROC 071100Z 08006KT CAVOK 20/15 A2997 NOSIG=
201509071200 METAR MROC 071200Z 07007KT CAVOK 20/15 A2999 NOSIG=
201509071300 METAR MROC 071300Z 09007KT CAVOK 23/15 A3001 NOSIG=
201509071400 METAR MROC 071400Z 09008KT CAVOK 25/16 A3002 NOSIG=
201509071500 METAR MROC 071500Z 11010G22KT CAVOK 26/15 A3002 NOSIG=
201509071600 METAR MROC 071600Z 10010KT CAVOK 28/15 A3003 NOSIG=
201509071700 METAR MROC 071700Z 09010KT 9999 FEW040 SCT250 29/15 A3002 NOSIG=
201509071800 METAR MROC 071800Z 12006KT 9999 SCT040 SCT250 29/16 A3002 NOSIG=
201509071900 METAR MROC 071900Z 20006KT 9999 SCT040 SCT200 28/20 A2998 NOSIG=
201509072000 METAR MROC 072000Z 15004KT 9999 SCT040 BKN200 28/17 A2996 NOSIG=
201509072100 METAR MROC 072100Z 20007KT 9999 -RA FEW020TCU SCT030 BKN250 23/20 A2996 BECMG 5000 RA SCT015TCU=
201509072200 METAR MROC 072200Z 30004KT 9999 FEW010 SCT060 BKN120 24/17 A2997 NOSIG=
201509072300 METAR MROC 072300Z 26006KT 9999 4000NW -DZ FEW010 BKN100 22/20 A2997 NOSIG=
201509080000 METAR MROC 080000Z 29003KT 9999 DZ VCFG SCT010 BKN100 22/20 A2997 NOSIG=
201509080100 METAR MROC 080100Z 22004KT 9999 BCFG SCT010 BKN100 22/20 A3001 NOSIG=
201509080200 METAR MROC 080200Z 03003KT 8000 BCFG SCT010 BKN100 22/20 A3002 BECMG 5000 BR=
201509080300 METAR MROC 080300Z 10003KT 9999 3000SW BCFG SCT006 BKN100 22/19 A3005 NOSIG=
201509080349 METAR MROC 080349Z 08005KT 9999 FEW030 22/18 A3003 NOSIG=
201509080400 METAR MROC 080400Z 08005KT 9999 FEW030 22/18 A3003 NOSIG=
201509080500 METAR MROC 080500Z 11007KT CAVOK 22/17 A3000 NOSIG=
201509080600 METAR MROC 080600Z 09008KT CAVOK 22/17 A2999 NOSIG=
201509080700 METAR MROC 080700Z VRB02KT CAVOK 21/18 A2997 NOSIG=
201509080800 METAR MROC 080800Z 07005KT 9999 FEW030 22/17 A2995 NOSIG=
201509080900 METAR MROC 080900Z 05007KT CAVOK 22/17 A2993 NOSIG=
201509081000 METAR MROC 081000Z 11010KT CAVOK 22/18 A2994 NOSIG=
201509081100 METAR MROC 081100Z 02003KT CAVOK 21/17 A2995 NOSIG=
201509081200 METAR MROC 081200Z 10010KT 9999 FEW035 SCT100 22/17 A2997 NOSIG=
201509081300 METAR MROC 081300Z 10008KT 9999 FEW040 BKN250 24/18 A2996 NOSIG=
201509081400 METAR MROC 081400Z 10012G22KT 9999 FEW040 BKN250 25/18 A2997 NOSIG=
201509081500 METAR MROC 081500Z 10012KT 9999 FEW035 SCT250 27/18 A2998 NOSIG=
201509081600 METAR MROC 081600Z 11009KT 9999 SCT030 SCT250 28/18 A3000 NOSIG=
201509081700 METAR MROC 081700Z 09011G21KT 9999 SCT035 SCT250 28/17 A2999 NOSIG=
201509081800 METAR MROC 081800Z 08011KT 9999 3000SE RA SCT030 BKN100 26/18 A2997 NOSIG=
201509081900 METAR MROC 081900Z 09002KT 9999 -RA SCT025 BKN100 25/20 A2996 NOSIG=
201509082000 METAR MROC 082000Z 06010KT 9999 FEW030 SCT060 BKN100 27/16 A2992 NOSIG=
201509082100 METAR MROC 082100Z 09016KT 9999 -RA FEW045 SCT060 BKN100 24/15 A2993 NOSIG=
201509082200 METAR MROC 082200Z 11010G20KT CAVOK 22/15 A2989 NOSIG=
201509082300 METAR MROC 082300Z 12013KT CAVOK 23/15 A2989 NOSIG=
201509090000 METAR MROC 090000Z 10010G20KT CAVOK 23/16 A2992 NOSIG=
201509090100 METAR MROC 090100Z 10015KT CAVOK 22/16 A2995 NOSIG=
201509090200 METAR MROC 090200Z 11013KT 9999 FEW030 BKN200 22/17 A2998 NOSIG=
201509090300 METAR MROC 090300Z 11015KT 9999 FEW030 BKN120 22/17 A3001 NOSIG=
201509090400 METAR MROC 090400Z 11008G19KT CAVOK 22/16 A3002 NOSIG=
201509090500 METAR MROC 090500Z 11008KT CAVOK 22/16 A3001 NOSIG=
201509090600 METAR MROC NIL=
201509090700 METAR MROC 090700Z 11008KT CAVOK 23/17 A2997 NOSIG=
201509090800 METAR MROC 090800Z 11006KT CAVOK 22/16 A2995 NOSIG=
201509090900 METAR MROC 090900Z 08006KT CAVOK 22/16 A2992 NOSIG=
201509091000 METAR MROC 091000Z 10011KT CAVOK 22/17 A2991 NOSIG=
201509091100 METAR MROC 091100Z 11009KT CAVOK 22/17 A2992 NOSIG=
201509091200 METAR MROC 091200Z 10007KT CAVOK 22/17 A2996 NOSIG=
201509091300 METAR MROC 091300Z 04011KT CAVOK 24/17 A2998 NOSIG=
201509091400 METAR MROC 091400Z 09017KT CAVOK 25/17 A2997 NOSIG=
201509091500 METAR MROC 091500Z 13013KT CAVOK 28/17 A2998 NOSIG=
201509091600 METAR MROC 091600Z 10010G20KT 9999 FEW045 SCT250 29/17 A2997 NOSIG=
201509091700 METAR MROC 091700Z 12010KT 9999 SCT040 SCT250 31/16 A2996 NOSIG=
201509091800 METAR MROC 091800Z 22015KT 9999 -DZ VCSH FEW020TCU SCT030 26/20 A2995 BECMG RA=
201509091900 METAR MROC 091900Z 25008KT 9999 FEW020TCU BKN030 25/22 A2992 NOSIG=
201509092000 METAR MROC 092000Z 23010KT 9999 SHRA FEW020TCU SCT030 BKN100 26/21 A2990 NOSIG=
201509092100 METAR MROC 092100Z 24008KT 9999 FEW010 SCT015TCU BKN035 23/21 A2990 BECMG 5000 SHRA=
201509092200 METAR MROC 092200Z 24003KT 9999 -RA FEW015TCU SCT025 BKN070 22/21 A2991 BECMG 5000=
201509092300 METAR MROC 092300Z 29004KT 5000 BR FEW003 SCT010 BKN025 22/21 A2991 BECMG BKN010=
201509100000 METAR MROC 100000Z 33002KT 9999 BCFG FEW004 SCT020 BKN100 22/21 A2993 NOSIG=
201509100100 METAR MROC 100100Z 18003KT 9999 FEW030 BKN120 22/22 A//// NOSIG=
201509100101 METAR MROC 100101Z 18003KT 9999 FEW030 BKN120 22/22 A2994 NOSIG=
201509100200 METAR MROC 100200Z 07005KT 9999 FEW030 BKN120 22/18 A2997 NOSIG=
201509100300 METAR MROC 100300Z 09004KT 9999 FEW030 BKN200 22/18 A2999 NOSIG=
201509100400 METAR MROC 100400Z 05002KT 9999 SCT030 BKN200 22/18 A3003 NOSIG=
201509100500 METAR MROC 100500Z 30005KT 9999 BCFG SCT010 SCT035 20/20 A3003 NOSIG=
201509100600 METAR MROC 100600Z 31004KT 9999 BCFG SCT008 BKN020 20/20 A3004 NOSIG=
201509100700 METAR MROC 100700Z 26004KT 9999 -RA SCT010 BKN020 20/20 A3004 NOSIG=
201509100800 METAR MROC 100800Z 32005KT 9999 RA FEW010 BKN100 20/20 A3001 NOSIG=
201509100900 METAR MROC 100900Z 01003KT 9999 RA SCT010 BKN100 20/20 A3000 NOSIG=
201509101000 METAR MROC 101000Z 03006KT 9999 RA SCT010 BKN100 19/19 A2998 NOSIG=
201509101100 METAR MROC 101100Z 06005KT 9999 -RA FEW010 BKN100 19/18 A2997 NOSIG=
201509101200 METAR MROC 101200Z 07007KT 9999 -RA FEW010 OVC100 20/18 A2998 NOSIG=
201509101300 METAR MROC 101300Z 10008KT 9999 -RA NSC 19/16 A2999 RMK OVC100 NOSIG=
201509101400 METAR MROC NIL=
201509101500 METAR MROC 101500Z 10010KT CAVOK 21/17 A3000 NOSIG=
201509101600 METAR MROC 101600Z 08007KT CAVOK 23/16 A3001 NOSIG=
201509101700 METAR MROC 101700Z 08012KT CAVOK 24/16 A2999 NOSIG=
201509101800 METAR MROC 101800Z 10005KT CAVOK 26/16 A2999 NOSIG=
201509101900 METAR MROC 101900Z 07005KT CAVOK 27/16 A2997 NOSIG=
201509102000 METAR MROC 102000Z 21005KT 9999 FEW035 OVC150 26/19 A2996 NOSIG=
201509102100 METAR MROC 102100Z 23005KT 9999 FEW035 OVC160 25/19 A2997 NOSIG=
201509102200 METAR MROC 102200Z 27008KT 9999 FEW035 OVC150 23/19 A2999 NOSIG=
201509102300 METAR MROC 102300Z 27006KT 9999 FEW030 OVC150 22/19 A2999 NOSIG=
201509110000 METAR MROC 110000Z 25005KT 9999 SCT025 OVC130 21/19 A3000 NOSIG=
201509110100 METAR MROC 110100Z 24003KT 9999 SCT025 OVC130 21/19 A3002 NOSIG=
201509110200 METAR MROC 110200Z 00000KT 9999 SCT025 OVC140 22/19 A3005 NOSIG=
201509110300 METAR MROC 110300Z 00000KT 9999 SCT030 OVC140 21/19 A3007 NOSIG=
201509110400 METAR MROC 110400Z VRB02KT 9999 FEW030 BKN100 21/19 A3008 NOSIG=
201509110500 METAR MROC 110500Z 01004KT 9999 FEW030 BKN100 21/19 A3006 NOSIG=
201509110600 METAR MROC 110600Z 05004KT 9999 FEW030 20/18 A3004 NOSIG=
201509110700 METAR MROC 110700Z 05004KT CAVOK 19/18 A3001 NOSIG=
201509110800 METAR MROC 110800Z 06005KT CAVOK 20/17 A2999 NOSIG=
201509110900 METAR MROC 110900Z 06008KT CAVOK 20/18 A2997 NOSIG=
201509111000 METAR MROC 111000Z 07006KT CAVOK 20/18 A2997 NOSIG=
201509111100 METAR MROC 111100Z 08011KT CAVOK 21/18 A2999 NOSIG=
201509111200 METAR MROC 111200Z 07013KT CAVOK 21/18 A3000 NOSIG=
201509111300 METAR MROC 111300Z 11004KT CAVOK 22/18 A3003 NOSIG=
201509111400 METAR MROC 111400Z 23004KT 9999 FEW035 SCT130 25/19 A3006 NOSIG=
201509111500 METAR MROC 111500Z 29006KT 9999 FEW035 SCT130 26/18 A3006 NOSIG=
201509111600 METAR MROC 111600Z 08007KT 9999 FEW035 BKN220 27/18 A3007 NOSIG=
201509111700 METAR MROC 111700Z 10008KT 9999 SCT035 BKN230 27/17 A3006 NOSIG=
201509111800 METAR MROC 111800Z 12006KT 9999 SCT035 BKN250 27/18 A3003 NOSIG=
201509111900 METAR MROC 111900Z 14005KT 9999 SCT035 OVC220 28/18 A3001 NOSIG=
201509112000 METAR MROC 112000Z 24010KT 9999 FEW012TCU SCT030 BKN120 25/21 A3000 BECMG 5000 RA=
201509112100 METAR MROC 112100Z 29007KT 9999 -TS RA FEW005 FEW010CB BKN030 22/22 A3000 BECMG 3000 BR=
201509112200 METAR MROC 112200Z 18005KT 3000 -RA BR FEW002 SCT010 BKN030 20/20 A3003 NOSIG=
201509112300 METAR MROC 112300Z 07005KT 9999 -DZ SCT030 BKN100 20/20 A3002 NOSIG=
201509120000 METAR MROC 120000Z 09008KT 9999 FEW040 BKN100 20/19 A3000 NOSIG=
201509120100 METAR MROC 120100Z 10007KT 9999 -DZ BKN100 21/18 A3001 NOSIG=
201509120200 METAR MROC 120200Z 24005KT CAVOK 20/19 A3004 NOSIG=
201509120300 METAR MROC 120300Z 30004KT CAVOK 20/20 A3006 NOSIG=
201509120400 METAR MROC 120400Z 02002KT 9999 BCFG FEW007 SCT020 BKN060 20/20 A3007 NOSIG=
201509120500 METAR MROC 120500Z 11002KT 9999 SCT010 BKN020 20/20 A3005 NOSIG=
201509120600 METAR MROC 120600Z 10002KT 9999 FEW020 BKN100 20/20 A3004 NOSIG=
201509120700 METAR MROC 120700Z 06003KT 9999 FEW025 SCT100 20/18 A3001 NOSIG=
201509120800 METAR MROC 120800Z 06004KT CAVOK 19/18 A2999 NOSIG=
201509120900 METAR MROC 120900Z 03007KT CAVOK 19/17 A2998 NOSIG=
201509121000 METAR MROC NIL=
201509121100 METAR MROC 121100Z 03004KT CAVOK 19/17 A2999 NOSIG=
201509121200 METAR MROC 121200Z 06004KT CAVOK 20/16 A3000 NOSIG=
201509121300 METAR MROC 121300Z 09004KT CAVOK 22/17 A3001 NOSIG=
201509121400 METAR MROC 121400Z 24002KT CAVOK 26/17 A3004 NOSIG=
201509121500 METAR MROC 121500Z 24006KT CAVOK 25/18 A3005 NOSIG=
201509121600 METAR MROC 121600Z 24006KT 9999 FEW045 SCT250 26/19 A3004 NOSIG=
201509121700 METAR MROC 121700Z 25007KT 9999 FEW040 SCT080 26/19 A3002 NOSIG=
201509121800 METAR MROC 121800Z 24008KT 9999 VCSH BKN030 SCT100 25/20 A3000 BECMG 5000 SHRA=
201509121900 METAR MROC 121900Z 25009KT 9999 VCSH BKN030 SCT100 25/21 A2997 NOSIG=
201509122000 METAR MROC 122000Z 23010KT 9999 FEW035 SCT060 SCT100 25/19 A2995 NOSIG=
201509122100 METAR MROC 122100Z 25008KT 9999 SCT030 BKN100 24/20 A2993 NOSIG=
201509122200 METAR MROC 122200Z 25007KT 9999 FEW005 SCT030 BKN100 23/20 A2993 NOSIG=
201509122300 METAR MROC 122300Z 25005KT 9999 FEW010 SCT030 BKN100 22/20 A2995 NOSIG=
201509130000 METAR MROC 130000Z 23004KT 9999 FEW010 SCT030 BKN100 21/20 A2997 NOSIG=
201509130100 METAR MROC 130100Z 24003KT 9999 FEW010 SCT030 BKN100 21/21 A3000 NOSIG=
201509130200 METAR MROC 130200Z 23002KT 8000 -RA VCFG FEW005 SCT030 BKN100 21/21 A3003 NOSIG=
201509130300 METAR MROC 130300Z 19003KT 8000 -DZ VCFG FEW005 SCT030 BKN100 21/21 A3006 NOSIG=
201509130400 METAR MROC 130400Z VRB01KT 8000 -DZ VCFG FEW005 BKN030 20/20 A3006 NOSIG=
201509130500 METAR MROC 130500Z 07003KT 9999 FEW030 BKN110 20/20 A3005 NOSIG=
201509130600 METAR MROC 130600Z 07004KT 9999 FEW030 SCT110 21/20 A3004 NOSIG=
201509130700 METAR MROC 130700Z 07004KT 9999 FEW030 21/19 A3002 NOSIG=
201509130800 METAR MROC 130800Z 06005KT 9999 FEW030 20/18 A2999 NOSIG=
201509130900 METAR MROC 130900Z 07004KT CAVOK 20/17 A2997 NOSIG=
201509131000 METAR MROC 131000Z 07005KT CAVOK 20/17 A2997 NOSIG=
201509131100 METAR MROC 131100Z 03005KT CAVOK 19/17 A2998 NOSIG=
201509131200 METAR MROC 131200Z 07004KT CAVOK 19/17 A2999 NOSIG=
201509131300 METAR MROC 131300Z 06005KT CAVOK 23/17 A3001 NOSIG=
201509131400 METAR MROC 131400Z 07004KT CAVOK 26/18 A3002 BECMG 25010KT=
201509131500 METAR MROC 131500Z 15006KT 9999 FEW045 SCT180 27/19 A3004 NOSIG=
201509131600 METAR MROC 131600Z 25006KT 9999 FEW045 SCT250 27/20 A3003 NOSIG=
201509131700 METAR MROC 131700Z 24008KT 9999 FEW035 SCT060 SCT250 26/20 A3002 NOSIG=
201509131800 METAR MROC 131800Z 23009KT 9999 SCT035 SCT250 27/21 A3000 NOSIG=
201509131900 METAR MROC 131900Z 24007KT 9999 VCSH FEW020TCU SCT035 SCT250 27/21 A2997 NOSIG=
201509132000 METAR MROC 132000Z 26010KT 9999 3000NW -SHRA FEW015TCU BKN035 26/21 A2993 BECMG 5000 -TSRA FEW010CB=
201509132100 METAR MROC 132100Z 15007KT 8000 3000SW -TSRA FEW010 SCT015CB BKN080 22/22 A2992 NOSIG=
201509132200 METAR MROC 132200Z 33007KT 8000 3000SW -RA FEW015 SCT035 BKN100 21/21 A2993 RETS BECMG 06005KT=
201509132300 METAR MROC 132300Z 25004KT 8000 3000SW BCFG FEW015 SCT035 BKN100 21/21 A2994 NOSIG=
201509140000 METAR MROC 140000Z 31009KT 8000 3000SW -RA VCFG SCT030 BKN100 21/21 A2993 NOSIG=
201509140100 METAR MROC 140100Z 14003KT 8000 -RA VCFG FEW005 SCT030 BKN100 21/21 A2996 NOSIG=
201509140200 METAR MROC 140200Z 21004KT 8000 VCFG FEW005 SCT030 BKN100 21/20 A2999 NOSIG=
201509140300 METAR MROC 140300Z 01004KT 9999 FEW030 BKN100 21/20 A3000 NOSIG=
201509140400 METAR MROC 140400Z 12003KT 9999 FEW030 BKN100 21/20 A3000 NOSIG=
201509140500 METAR MROC 140500Z 06004KT CAVOK 20/19 A2998 NOSIG=
201509140600 METAR MROC 140600Z 08004KT CAVOK 19/19 A2996 NOSIG=
201509140700 METAR MROC 140700Z 06004KT CAVOK 20/18 A2995 NOSIG=
201509140800 METAR MROC 140800Z 06005KT CAVOK 21/18 A2995 NOSIG=
201509140900 METAR MROC 140900Z 05003KT CAVOK 21/18 A2995 NOSIG=
201509141000 METAR MROC 141000Z 02005KT CAVOK 21/18 A2995 NOSIG=
201509141100 METAR MROC 141100Z 01003KT CAVOK 20/17 A2997 NOSIG=
201509141200 METAR MROC 141200Z 05006KT CAVOK 21/17 A2999 NOSIG=
201509141300 METAR MROC 141300Z 06006KT CAVOK 22/18 A3001 NOSIG=
201509141400 METAR MROC 141400Z 12008KT CAVOK 24/18 A3003 NOSIG=
201509141500 METAR MROC 141500Z 11009KT CAVOK 25/18 A3004 NOSIG=
201509141600 METAR MROC 141600Z 09010KT 9999 FEW035 BKN200 26/18 A3005 NOSIG=
201509141700 METAR MROC 141700Z 10011KT 9999 FEW035 BKN100 25/18 A3004 NOSIG=
201509141800 METAR MROC 141800Z COR 11014KT 9999 FEW035 BKN200 24/18 A3002 NOSIG=
201509141900 METAR MROC 141900Z 10011KT 9999 FEW035 BKN200 25/18 A3000 NOSIG=
201509142000 METAR MROC 142000Z COR 10010KT 9999 FEW035 BKN200 25/17 A2997 BECMG 24006KT=
201509142100 METAR MROC 142100Z 11005KT CAVOK 26/18 A2995 NOSIG=
201509142200 METAR MROC 142200Z 09004KT CAVOK 26/17 A2995 NOSIG=
201509142300 METAR MROC 142300Z 13004KT 9999 FEW030 SCT150 BKN220 25/18 A2996 NOSIG=
201509150000 METAR MROC 150000Z 13003KT CAVOK 24/18 A2998 NOSIG=
201509150100 METAR MROC 150100Z 09006KT CAVOK 23/17 A3000 NOSIG=
201509150200 METAR MROC 150200Z 05002KT CAVOK 23/18 A3001 NOSIG=
201509150300 METAR MROC 150300Z 09004KT CAVOK 23/17 A3003 NOSIG=
201509150400 METAR MROC 150400Z 05003KT CAVOK 22/18 A3003 NOSIG=
201509150500 METAR MROC 150500Z 33003KT CAVOK 22/18 A3002 NOSIG=
201509150600 METAR MROC 150600Z 08006KT 9999 FEW035 22/17 A3001 NOSIG=
201509150700 METAR MROC 150700Z 10011KT 9999 FEW035 23/17 A3000 NOSIG=
201509150800 METAR MROC 150800Z 10007KT 9999 FEW035 22/17 A2999 NOSIG=
201509150900 METAR MROC 150900Z 04005KT 9999 FEW035 22/17 A2999 NOSIG=
201509151000 METAR MROC 151000Z 11008KT 9999 FEW035 22/17 A3000 NOSIG=
201509151100 METAR MROC 151100Z 07002KT 9999 FEW035 22/17 A3001 NOSIG=
201509151200 METAR MROC 151200Z 09008KT CAVOK 22/17 A3001 NOSIG=
201509151300 METAR MROC 151300Z 11009KT CAVOK 24/17 A3002 NOSIG=
201509151400 METAR MROC 151400Z 11008KT 9999 FEW040 SCT150 26/17 A3003 NOSIG=
201509151500 METAR MROC 151500Z 08009KT CAVOK 28/17 A3005 NOSIG=
201509151600 METAR MROC 151600Z 08009KT 9999 FEW040 BKN200 27/17 A3006 NOSIG=
201509151700 METAR MROC 151700Z 09007KT 9999 FEW040 BKN200 28/17 A3005 NOSIG=
201509151800 METAR MROC 151800Z 09006KT 9999 FEW040 BKN200 28/17 A3003 NOSIG=
201509151900 METAR MROC 151900Z 10004KT 9999 FEW040 BKN200 30/18 A3001 NOSIG=
201509152000 METAR MROC 152000Z 13004KT 9999 SCT035 SCT200 30/17 A2998 BECMG 22006KT=
201509152100 METAR MROC 152100Z 24008KT 9999 FEW025TCU SCT040 28/21 A2996 NOSIG=
201509152200 METAR MROC 152200Z 23008KT 9999 VCTS VCSH SCT015CB SCT035 24/21 A2997 BECMG RA=
201509152300 METAR MROC 152300Z 31004KT 9999 4000NW TSRA FEW015CB SCT045 BKN100 24/20 A3000 NOSIG=
201509160000 METAR MROC 160000Z 22002KT 9999 FEW020 SCT035 BKN120 22/20 A3000 RETSRA NOSIG=
201509160100 METAR MROC 160100Z 00000KT 9999 FEW003 SCT010 BKN120 23/21 A3002 BECMG 5000 BR=
201509160200 METAR MROC 160200Z 09002KT 9999 FEW020 SCT120 BKN250 22/22 A3002 NOSIG=
201509160300 METAR MROC 160300Z 06003KT 9999 FEW035 BKN250 22/20 A3004 NOSIG=
201509160400 METAR MROC 160400Z 07009KT 9999 FEW035 BKN250 22/18 A3005 NOSIG=
201509160500 METAR MROC 160500Z 05010KT 9999 FEW035 22/18 A3005 NOSIG=
201509160600 METAR MROC 160600Z 07004KT 9999 FEW035 21/18 A3005 NOSIG=
201509160700 METAR MROC 160700Z 31003KT 9999 FEW035 21/18 A3004 NOSIG=
201509160800 METAR MROC 160800Z 06009KT 9999 FEW035 21/17 A3001 NOSIG=
201509160900 METAR MROC 160900Z 04007KT 9999 FEW035 21/17 A3002 NOSIG=
201509161000 METAR MROC 161000Z 05015KT 9999 FEW035 SCT250 22/17 A3000 NOSIG=
201509161100 METAR MROC 161100Z 11016KT 9999 FEW035 22/17 A3001 NOSIG=
201509161200 METAR MROC 161200Z 10011G21KT 9999 FEW035 22/17 A3002 NOSIG=
201509161300 METAR MROC 161300Z 11010KT 9999 FEW035 24/18 A3003 NOSIG=
201509161400 METAR MROC 161400Z 10010G20KT 9999 FEW035 26/17 A3005 NOSIG=
201509161500 METAR MROC 161500Z 11012KT 9999 FEW035 27/17 A3004 NOSIG=
201509161600 METAR MROC 161600Z 09012KT 9999 FEW035 28/17 A3005 NOSIG=
201509161700 METAR MROC 161700Z 10012KT 9999 FEW035 29/17 A3005 NOSIG=
201509161800 METAR MROC 161800Z 10010KT 9999 SCT030TCU 30/17 A3003 NOSIG=
201509161900 METAR MROC 161900Z 10010KT 9999 SCT030TCU BKN120 28/17 A3000 NOSIG=
201509162000 METAR MROC 162000Z 12010KT 9999 FEW035 BKN230 27/17 A2998 NOSIG=
201509162100 METAR MROC 162100Z 11009KT 9999 SCT030 SCT200 29/17 A2997 NOSIG=
201509162200 METAR MROC 162200Z 11005KT 9999 SCT030 BKN200 28/16 A2996 NOSIG=
201509162300 METAR MROC 162300Z 09009KT 9999 FEW030 BKN200 26/17 A2996 NOSIG=
201509170000 METAR MROC 170000Z 22009KT 9999 FEW030 BKN120 23/21 A2997 NOSIG=
201509170100 METAR MROC 170100Z 26007KT 9999 2000SW BR FEW005 BKN120 23/22 A3000 NOSIG=
201509170200 METAR MROC 170200Z 30003KT 9999 2000SW BR FEW010 BKN120 22/22 A3003 NOSIG=
201509170300 METAR MROC 170300Z 00000KT 9999 FEW020 BKN120 23/20 A3004 NOSIG=
201509170400 METAR MROC 170400Z 07003KT CAVOK 22/17 A3005 NOSIG=
201509170500 METAR MROC 170500Z 06003KT CAVOK 21/17 A3004 NOSIG=
201509170600 METAR MROC 170600Z 09003KT CAVOK 21/17 A3001 NOSIG=
201509170700 METAR MROC 170700Z 07007KT CAVOK 21/16 A3000 NOSIG=
201509170800 METAR MROC 170800Z 08004KT CAVOK 20/16 A2999 NOSIG=
201509170900 METAR MROC 170900Z 09005KT CAVOK 19/16 A2997 NOSIG=
201509171000 METAR MROC 171000Z 07005KT CAVOK 20/15 A2997 NOSIG=
201509171100 METAR MROC 171100Z 08005KT CAVOK 20/16 A2998 NOSIG=
201509171200 METAR MROC 171200Z 07006KT CAVOK 22/16 A3000 NOSIG=
201509171300 METAR MROC 171300Z 08005KT CAVOK 22/16 A3001 NOSIG=
201509171400 METAR MROC 171400Z 08007KT CAVOK 25/17 A3001 NOSIG=
201509171500 METAR MROC 171500Z 11008KT CAVOK 26/17 A2999 NOSIG=
201509171600 METAR MROC 171600Z 10011KT CAVOK 28/17 A3000 NOSIG=
201509171700 METAR MROC 171700Z 10010KT 9999 FEW045 BKN250 28/17 A3000 NOSIG=
201509171800 METAR MROC 171800Z 25012KT 9999 FEW045 BKN120 27/20 A2999 NOSIG=
201509171900 METAR MROC 171900Z 22010KT 9999 FEW020TCU FEW045 SCT060 SCT200 26/20 A2996 NOSIG=
201509172000 METAR MROC 172000Z 23010KT 9999 VCSH FEW015TCU SCT040 BKN100 25/20 A2994 BECMG 5000 SHRA=
201509172100 METAR MROC 172100Z 34006KT 8000 -RA VCFG FEW005 SCT030 BKN100 23/18 A2995 NOSIG=
201509172200 METAR MROC 172200Z 11002KT 5000 -RA BR FEW002 SCT030 BKN100 20/20 A2995 NOSIG=
201509172300 METAR MROC 172300Z 02004KT 9999 FEW030 BKN100 21/19 A2993 NOSIG=
201509180000 METAR MROC 180000Z 08002KT CAVOK 22/19 A2993 NOSIG=
201509180100 METAR MROC 180100Z 04004KT CAVOK 22/20 A2995 NOSIG=
201509180200 METAR MROC 180200Z 27005KT CAVOK 21/19 A2999 NOSIG=
201509180300 METAR MROC 180300Z 27005KT 9999 FEW010 BKN100 20/20 A3001 NOSIG=
201509180400 METAR MROC 180400Z 00000KT 9999 FEW015 20/20 A3002 NOSIG=
201509180500 METAR MROC 180500Z VRB01KT 9999 SCT015 21/20 A3002 NOSIG=
201509180600 METAR MROC 180600Z VRB02KT 9999 FEW015 21/20 A3001 NOSIG=
201509180700 METAR MROC 180700Z VRB02KT 9999 FEW015 20/20 A2999 NOSIG=
201509180800 METAR MROC 180800Z 09003KT 9999 FEW015 20/20 A2997 NOSIG=
201509180900 METAR MROC 180900Z 08003KT CAVOK 20/19 A2995 NOSIG=
201509181000 METAR MROC 181000Z 04004KT CAVOK 20/19 A2995 NOSIG=
201509181100 METAR MROC 181100Z 06006KT CAVOK 20/17 A2995 NOSIG=
201509181200 METAR MROC 181200Z 07005KT CAVOK 20/17 A2995 NOSIG=
201509181300 METAR MROC 181300Z 08006KT CAVOK 23/18 A2997 NOSIG=
201509181400 METAR MROC 181400Z 16003KT CAVOK 23/19 A2998 BECMG 24007KT=
201509181500 METAR MROC 181500Z 22004KT 9999 FEW045 BKN250 26/19 A2998 NOSIG=
201509181600 METAR MROC 181600Z 24008KT 9999 FEW040 BKN250 26/19 A3000 NOSIG=
201509181700 METAR MROC 181700Z 24008KT 9999 FEW040 SCT250 27/20 A2998 NOSIG=
201509181800 METAR MROC 181800Z 24010KT 9999 FEW020TCU BKN040 27/20 A2997 NOSIG=
201509181900 METAR MROC 181900Z 25010KT 9999 FEW020TCU BKN040 27/21 A2994 NOSIG=
201509182000 METAR MROC 182000Z 24011KT 9999 VCSH FEW020TCU SCT040 SCT250 26/20 A2992 NOSIG=
201509182100 METAR MROC 182100Z 25011KT 9999 SCT020TCU BKN040 24/21 A2990 NOSIG=
201509182200 METAR MROC 182200Z COR 24010KT 9999 RA FEW015 SCT030 BKN250 23/22 A2990 NOSIG=
201509182300 METAR MROC 182300Z 24009KT 9999 FEW015 SCT030 BKN250 23/21 A2991 RERA NOSIG=
201509190000 METAR MROC 190000Z 24007KT 9999 FEW010 SCT025 BKN040 22/22 A2994 NOSIG=
201509190100 METAR MROC 190100Z 27010KT 9999 SCT015 BKN030 22/22 A2997 NOSIG=
201509190200 METAR MROC 190200Z 23003KT 2000 BR FEW001 SCT010 21/21 A2998 NOSIG=
201509190300 METAR MROC 190300Z 26004KT 9999 FEW005 SCT015 22/22 A2999 NOSIG=
201509190400 METAR MROC 190400Z 00000KT 9999 FEW005 SCT015 21/21 A2999 NOSIG=
201509190500 METAR MROC 190500Z 00000KT 9999 FEW005 SCT015 21/21 A2999 NOSIG=
201509190600 METAR MROC 190600Z 23003KT 2000 BR FEW001 SCT010 21/21 A2998 NOSIG=
201509190700 METAR MROC 190700Z 11001KT 8000 3500SW VCFG FEW001 SCT010 21/21 A2997 NOSIG=
201509190800 METAR MROC 190800Z 23001KT 5000 BR FEW001 SCT010 21/21 A2995 NOSIG=
201509190900 METAR MROC 190900Z 34002KT 9999 2000SW BR FEW001 SCT010 21/21 A2995 NOSIG=
201509191000 METAR MROC 191000Z 05002KT 9999 2000SW BR FEW001 SCT010 20/20 A2996 NOSIG=
201509191100 METAR MROC 191100Z 03002KT 9999 FEW020 19/18 A2996 NOSIG=
201509191200 METAR MROC 191200Z 04002KT 9999 FEW020 SCT120 19/18 A2999 NOSIG=
201509191300 METAR MROC 191300Z 12004KT 9999 FEW020 SCT100 21/18 A3000 NOSIG=
201509191400 METAR MROC 191400Z 12004KT 9999 FEW020 SCT250 25/19 A3001 BECMG 22006KT=
201509191500 METAR MROC 191500Z 25006KT 9999 FEW030 SCT250 27/19 A3002 NOSIG=
201509191600 METAR MROC 191600Z 24011KT 9999 FEW030 BKN250 27/21 A3001 NOSIG=
201509191700 METAR MROC 191700Z 22012KT 9999 FEW030 BKN250 27/20 A2999 NOSIG=
201509191800 METAR MROC 191800Z COR 25016KT 9999 FEW020TCU SCT030 28/21 A2997 NOSIG=
201509191900 METAR MROC 191900Z 24016KT 9999 VCSH FEW015CB FEW020TCU SCT030 27/21 A2995 BECMG TSRA=
201509192000 METAR MROC 192000Z 13013KT 2000 TSRA FEW005 SCT010CB BKN030 22/19 A2996 NOSIG=
201509192100 METAR MROC 192100Z 06004KT 8000 -TSRA FEW005 FEW015CB BKN100 20/20 A2991 NOSIG=
201509192200 METAR MROC 192200Z 06004KT 9999 -RA FEW010 OVC100 21/21 A2991 NOSIG=
201509192300 METAR MROC 192300Z 06005KT 9999 -RA FEW020 OVC100 20/19 A2993 NOSIG=
201509200000 METAR MROC 200000Z 04004KT 9999 -RA NSC 21/19 A2996 NOSIG=
201509200100 METAR MROC 200100Z 05004KT 9999 DZ NSC 21/19 A2996 NOSIG=
201509200200 METAR MROC 200200Z 00000KT 9999 4000S BCFG FEW002 BKN120 21/19 A2995 NOSIG=
201509200300 METAR MROC 200300Z 06003KT 9999 2000SW BCFG FEW001 SCT100 BKN200 20/19 A2996 NOSIG=
201509200400 METAR MROC 200400Z 05004KT CAVOK 20/18 A2996 NOSIG=
201509200500 METAR MROC 200500Z 01004KT CAVOK 20/18 A2997 NOSIG=
201509200600 METAR MROC 200600Z 06007KT CAVOK 21/17 A2997 NOSIG=
201509200700 METAR MROC 200700Z 04005KT CAVOK 20/17 A2995 NOSIG=
201509200800 METAR MROC 200800Z 06004KT CAVOK 21/18 A2995 NOSIG=
201509200900 METAR MROC 200900Z 10006KT CAVOK 21/18 A2995 NOSIG=
201509201000 METAR MROC 201000Z 03006KT CAVOK 20/18 A2997 NOSIG=
201509201100 METAR MROC 201100Z 05005KT 9999 FEW035 SCT120 SCT250 20/18 A2999 NOSIG=
201509201200 METAR MROC 201200Z 03005KT 9999 FEW040 SCT120 SCT250 21/18 A2999 NOSIG=
201509201300 METAR MROC 201300Z 06005KT CAVOK 23/18 A3001 NOSIG=
201509201400 METAR MROC 201400Z 06004KT CAVOK 24/18 A3002 NOSIG=
201509201500 METAR MROC 201500Z 11007KT CAVOK 27/18 A3002 NOSIG=
201509201600 METAR MROC 201600Z 12007KT CAVOK 28/18 A3002 BECMG 20007KT=
201509201700 METAR MROC 201700Z 13006KT 9999 FEW030 SCT250 30/18 A3000 BECMG 24009KT=
201509201800 METAR MROC 201800Z 22007KT 9999 FEW030 BKN250 28/21 A2997 NOSIG=
201509201900 METAR MROC 201900Z 24008KT 9999 FEW030 BKN250 28/22 A2995 NOSIG=
201509202000 METAR MROC 202000Z 23008KT 9999 FEW020TCU SCT030 28/22 A2992 NOSIG=
201509202100 METAR MROC 202100Z 25008KT 9999 FEW010 SCT020TCU 25/22 A2992 NOSIG=
201509202200 METAR MROC 202200Z 25006KT 9999 SCT015TCU SCT025 24/22 A2993 NOSIG=
201509202300 METAR MROC 202300Z 26006KT 8000 -RA SCT015 SCT025 24/22 A2994 NOSIG=
201509210000 METAR MROC 210000Z 24005KT 5000 BR FEW005 SCT020 23/23 A2995 BECMG 3000 BR=
201509210100 METAR MROC 210100Z 25002KT 5000 BR FEW004 SCT020 22/22 A2997 NOSIG=
201509210200 METAR MROC 210200Z 00000KT 8000 VCFG FEW005 SCT030 222/22 A2998 NOSIG=
201509210300 METAR MROC 210300Z 00000KT 9999 FEW030 22/22 A2998 NOSIG=
201509210400 METAR MROC 210400Z 31006KT 9999 FEW030 22/22 A3000 NOSIG=
201509210500 METAR MROC 210500Z 08006KT 9999 FEW030 21/21 A2999 NOSIG=
201509210600 METAR MROC 210600Z 07007KT 9999 FEW030 21/18 A2997 NOSIG=
201509210700 METAR MROC 210700Z 07009KT 9999 FEW030 21/18 A2995 NOSIG=
201509210800 METAR MROC 210800Z 09009KT CAVOK 21/17 A2992 NOSIG=
201509210900 METAR MROC 210900Z 08006KT CAVOK 20/17 A2992 NOSIG=
201509211000 METAR MROC 211000Z 10006KT CAVOK 21/17 A2993 NOSIG=
201509211100 METAR MROC 211100Z 08005KT CAVOK 21/17 A2993 NOSIG=
201509211200 METAR MROC 211200Z 09010KT CAVOK 21/17 A2995 NOSIG=
201509211300 METAR MROC 211300Z 10007KT CAVOK 24/18 A2998 NOSIG=
201509211400 METAR MROC 211400Z 10010KT CAVOK 25/17 A2999 NOSIG=
201509211500 METAR MROC 211500Z 13006KT 9999 FEW045 28/17 A2999 NOSIG=
201509211600 METAR MROC 211600Z 25007KT 9999 FEW040 SCT250 27/19 A2999 NOSIG=
201509211700 METAR MROC 211700Z 25010KT 9999 SCT035 SCT250 27/20 A2998 NOSIG=
201509211800 METAR MROC 211800Z 24009KT 9999 SCT030 SCT130 28/21 A2994 NOSIG=
201509211900 METAR MROC 211900Z 23009KT 9999 -RA SCT015TCU SCT030 26/21 A2998 BECMG RA=
201509212000 METAR MROC 212000Z 26006KT 5000 -RA SCT020 BKN100 22/21 A2988 NOSIG=
201509212100 METAR MROC 212100Z 23006KT 5000 BR FEW001 SCT010 BKN100 21/21 A2988 NOSIG=
201509212200 METAR MROC 212200Z 34004KT 3000 TS SHRA FEW010CB SCT020 BKN100 21/20 A2991 NOSIG=
201509212300 METAR MROC 212300Z 06003KT 8000 -TSRA FEW010CB SCT030 BKN100 20/20 A2989 NOSIG=
201509220000 METAR MROC 220000Z 02003KT 9999 -RA FEW010 SCT030 BKN100 21/20 A2992 NOSIG=
201509220100 METAR MROC 220100Z 32003KT 9999 -RA FEW030 BKN100 21/20 A2992 NOSIG=
201509220200 METAR MROC 220200Z 17001KT 9999 2000SW BR FEW001 BKN100 21/20 A2999 BECMG 3000 BR=
201509220300 METAR MROC 220300Z 17002KT 9999 FEW020 BKN100 21/20 A3001 NOSIG=
201509220400 METAR MROC 220400Z 04005KT 9999 SCT020 BKN100 21/20 A2997 NOSIG=
201509220500 METAR MROC 220500Z 35003KT 9999 FEW025 BKN120 20/19 A2995 NOSIG=
201509220600 METAR MROC 220600Z 06005KT CAVOK 21/18 A2992 NOSIG=
201509220700 METAR MROC 220700Z 07004KT CAVOK 20/18 A2989 NOSIG=
201509220800 METAR MROC 220800Z 01004KT CAVOK 20/18 A2990 NOSIG=
201509220900 METAR MROC 220900Z 36003KT CAVOK 19/19 A2990 NOSIG=
201509221000 METAR MROC 221000Z 08003KT CAVOK 19/19 A2991 NOSIG=
201509221100 METAR MROC 221100Z 06005KT CAVOK 18/17 A2993 NOSIG=
201509221200 METAR MROC 221200Z 04004KT CAVOK 19/17 A2994 NOSIG=
201509221300 METAR MROC 221300Z 08003KT 9999 FEW040 BKN250 23/18 A2997 BECMG 24006KT=
201509221400 METAR MROC 221400Z VRB02KT 9999 FEW035 SCT250 26/18 A2997 BECMG 24006KT=
201509221500 METAR MROC 221500Z 12004KT 9999 FEW035 SCT120 SCT250 26/18 A2997 NOSIG=
201509221600 METAR MROC 221600Z 10006KT 9999 FEW035 SCT120 28/18 A2997 NOSIG=
201509221700 METAR MROC 221700Z 11005KT 9999 FEW035 BKN120 28/18 A2996 NOSIG=
201509221800 METAR MROC 221800Z 25007KT 9999 SCT035 BKN120 28/18 A2993 NOSIG=
201509221900 METAR MROC 221900Z 24009KT 9999 SCT040 BKN140 27/20 A2990 NOSIG=
201509222000 METAR MROC 222000Z 24009KT 9999 VCSH FEW015TCU FEW035 BKN150 28/19 A2987 NOSIG=
201509222100 METAR MROC 222100Z 17006KT 8000 -TSRA FEW010CB SCT030 BKN100 22/19 A2988 BECMG 3000 BR=
201509222200 METAR MROC 222200Z 33003KT 8000 -RA FEW010 SCT030 BKN100 21/19 A2990 NOSIG=
201509222300 METAR MROC 222300Z 08002KT 9999 FEW010 SCT030 BKN100 22/19 A2990 NOSIG=
201509230000 METAR MROC 230000Z 09002KT 9999 FEW030 BKN100 22/20 A2992 NOSIG=
201509230100 METAR MROC 230100Z 18002KT 9999 FEW030 BKN100 22/20 A2997 NOSIG=
201509230200 METAR MROC 230200Z 10002KT 9999 -RA FEW030 BKN100 22/18 A2998 NOSIG=
201509230300 METAR MROC 230300Z 07007KT 9999 -RA FEW030 BKN100 21/18 A2999 NOSIG=
201509230400 METAR MROC 230400Z 05005KT 9999 -RA FEW030 BKN100 21/18 A2998 NOSIG=
201509230500 METAR MROC 230500Z 02002KT 9999 FEW030 BKN100 21/18 A2998 NOSIG=
201509230600 METAR MROC 230600Z 00000KT 9999 FEW030 BKN100 21/18 A2997 NOSIG=
201509230700 METAR MROC 230700Z 29004KT 9999 FEW030 SCT100 21/19 A2995 NOSIG=
201509230800 METAR MROC 230800Z 30003KT 9999 FEW030 SCT100 21/19 A2993 NOSIG=
201509230900 METAR MROC 230900Z 34002KT 9999 FEW030 SCT100 21/19 A2993 NOSIG=
201509231000 METAR MROC 231000Z 27003KT 5000 DZ BR FEW002 SCT020 BKN100 21/19 A2993 NOSIG=
201509231100 METAR MROC 231100Z 03003KT 8000 -DZ FEW004 SCT020 BKN100 21/19 A2994 NOSIG=
201509231200 METAR MROC 231200Z 11003KT 9999 SCT030 BKN120 20/19 A2995 NOSIG=
201509231300 METAR MROC 231300Z 08003KT 9999 FEW035 BKN140 21/19 A2995 NOSIG=
201509231400 METAR MROC 231400Z 09004KT 9999 FEW035 BKN250 25/19 A2997 NOSIG=
201509231500 METAR MROC 231500Z 11005KT 9999 FEW035 BKN250 27/17 A2998 BECMG 24006KT=
201509231600 METAR MROC 231600Z 23009KT 9999 SCT035 SCT200 25/20 A2999 NOSIG=
201509231700 METAR MROC 231700Z 21009KT 9999 -RA VCSH FEW015TCU BKN035 26/20 A2998 BECMG 5000 -TSRA FEW010CB=
201509231800 METAR MROC 231800Z 25011KT 9999 -RA BCFG FEW008 FEW015TCU SCT035 SCT100 23/20 A2996 BECMG 4000 BR=
201509231900 METAR MROC 231900Z 28008KT 9999 -RA VCSH SCT010 BKN025 23/20 A2994 BECMG 5000 RA BR=
201509232000 METAR MROC 232000Z 28004KT 9999 -RA VCSH SCT010 BKN100 23/20 A2992 NOSIG=
201509232100 METAR MROC 232100Z VRB02KT 9999 VCSH SCT010 BKN100 24/19 A2990 NOSIG=
201509232130 METAR MROC 232130Z 28003KT 8000 3000N RA BCFG FEW002 SCT010 BKN100 22/19 A2992 NOSIG=
201509232200 METAR MROC 232200Z 27005KT 8000 BCFG FEW002 SCT010 BKN100 22/20 A2992 RERA NOSIG=
201509232300 METAR MROC 232300Z 24004KT 7000 -DZ BCFG FEW001 SCT010 BKN080 21/19 A2994 BECMG 3000=
201509240000 METAR MROC 240000Z VRB02KT 9999 -RA BCFG FEW001 SCT010 BKN100 21/19 A2996 NOSIG=
201509240100 METAR MROC 240100Z 00000KT 9999 -DZ SCT010 BKN100 21/19 A2998 NOSIG=
201509240200 METAR MROC 240200Z 08002KT 9999 -DZ SCT030 BKN100 21/19 A3000 NOSIG=
201509240300 METAR MROC 240300Z 10003KT 9999 FEW030 SCT100 21/19 A2999 NOSIG=
201509240400 METAR MROC 240400Z 06002KT CAVOK 21/19 A2998 NOSIG=
201509240500 METAR MROC 240500Z 02003KT CAVOK 20/18 A2997 NOSIG=
201509240600 METAR MROC 240600Z 11002KT CAVOK 20/18 A2995 NOSIG=
201509240700 METAR MROC 240700Z 12002KT 9999 -DZ NSC 20/18 A2995 NOSIG=
201509240800 METAR MROC 240800Z VRB02KT 9999 BCFG NSC 20/18 A2993 NOSIG=
201509240900 METAR MROC 240900Z 33003KT 9999 BCFG BKN025 20/18 A2993 NOSIG=
201509241000 METAR MROC 241000Z 00000KT 9999 BCFG FEW010 SCT030 BKN100 20/18 A2994 NOSIG=
201509241100 METAR MROC 241100Z 11003KT 9999 FEW030 BKN100 19/18 A2996 NOSIG=
201509241200 METAR MROC 241200Z 07003KT 9999 FEW020 BKN100 20/18 A2997 NOSIG=
201509241300 METAR MROC 241300Z 08004KT CAVOK 21/18 A2999 NOSIG=
201509241400 METAR MROC 241400Z 11003KT CAVOK 23/18 A3001 NOSIG=
201509241500 METAR MROC 241500Z 22002KT 9999 FEW010 BKN120 25/19 A3002 NOSIG=
201509241600 METAR MROC 241600Z VRB02KT 9999 FEW035 BKN120 26/18 A3002 NOSIG=
201509241700 METAR MROC 241700Z VRB02KT 9999 FEW030 BKN120 29/18 A3000 NOSIG=
201509241800 METAR MROC 241800Z VRB02KT 9999 FEW015TCU SCT030 SCT120 30/17 A2996 NOSIG=
201509241900 METAR MROC 241900Z 24007KT 9999 VCSH FEW015TCU SCT030 28/19 A2992 NOSIG=
201509242000 METAR MROC 242000Z 20010KT 9999 VCSH FEW015TCU SCT030 SCT080 27/19 A2990 BECMG RA=
201509242100 METAR MROC 242100Z 22010KT 7000 3000SW RA FEW003 FEW015CB BKN025 23/21 A2991 BECMG 5000 BR=
201509242200 METAR MROC 242200Z 22008KT 7000 3000SW -RA SCT004 BKN020 21/20 A2990 BECMG 3000 BR=
201509242300 METAR MROC 242300Z 22002KT 9999 DZ VCSH FEW005 SCT020 BKN100 21/20 A2993 NOSIG=
201509250000 METAR MROC 250000Z 08003KT CAVOK 21/19 A2996 NOSIG=
201509250100 METAR MROC 250100Z 36004KT CAVOK 21/19 A2996 BECMG 20004KT=
201509250200 METAR MROC 250200Z 03005KT CAVOK 21/19 A2998 NOSIG=
201509250300 METAR MROC 250300Z 09003KT CAVOK 21/19 A2998 NOSIG=
201509250400 METAR MROC 250400Z 02004KT CAVOK 21/19 A3000 NOSIG=
201509250500 METAR MROC 250500Z 05003KT CAVOK 21/18 A3000 NOSIG=
201509250600 METAR MROC 250600Z 06004KT CAVOK 20/17 A2998 NOSIG=
201509250700 METAR MROC 250700Z 05007KT CAVOK 20/17 A2996 NOSIG=
201509250800 METAR MROC 250800Z 04006KT CAVOK 19/17 A2994 NOSIG=
201509250857 METAR MROC 260900Z 10006KT CAVOK 20/16 A2993 NOSIG=
201509250900 METAR MROC 250900Z 12002KT CAVOK 19/17 A2994 NOSIG=
201509251000 METAR MROC 251000Z COR 08003KT CAVOK 19/17 A2996 NOSIG=
201509251100 METAR MROC 251100Z COR 06004KT CAVOK 19/16 A2997 NOSIG=
201509251200 METAR MROC 251200Z 09004KT CAVOK 18/16 A2999 NOSIG=
201509251300 METAR MROC 251300Z 08003KT CAVOK 22/17 A2999 NOSIG=
201509251400 METAR MROC 251400Z 08002KT CAVOK 25/17 A3000 NOSIG=
201509251500 METAR MROC 251500Z 23008KT CAVOK 26/20 A3000 NOSIG=
201509251600 METAR MROC 251600Z 26008KT 9999 FEW040 SCT250 27/20 A3001 NOSIG=
201509251700 METAR MROC 251700Z 25008KT 9999 FEW040 SCT250 27/19 A2999 NOSIG=
201509251800 METAR MROC 251800Z 24009KT 9999 SCT030 SCT250 27/20 A2996 NOSIG=
201509251900 METAR MROC 251900Z 24009KT 9999 SCT030 SCT250 27/21 A2993 NOSIG=
201509252000 METAR MROC 252000Z 21010KT 9000 3500SW SHRA FEW010 SCT025TCU BKN090 24/21 A2991 BECMG 3000 TSRA BKN015CB=
201509252100 METAR MROC 252100Z 32004KT 8000 DZ VCTS VCSH FEW015CB SCT025 BKN060 22/20 A2990 NOSIG=
201509252200 METAR MROC 252200Z 01006KT 9999 -RA FEW010 SCT025 BKN100 21/19 A2992 NOSIG=
201509252300 METAR MROC 252300Z 09003KT 9999 -RA FEW020 OVC100 21/19 A2994 NOSIG=
201509260000 METAR MROC 260000Z 08003KT CAVOK 21/19 A2996 NOSIG=
201509260100 METAR MROC 260100Z 06003KT 9999 DZ NSC 22/19 A2998 NOSIG=
201509260200 METAR MROC 260200Z 04005KT CAVOK 22/19 A2999 NOSIG=
201509260300 METAR MROC 260300Z 13002KT 9999 DZ NSC 22/19 A3001 NOSIG=
201509260400 METAR MROC 260400Z 07002KT 9999 -RA NSC 21/19 A3003 NOSIG=
201509260500 METAR MROC 260500Z 08003KT 9999 -RA NSC 21/19 A3001 NOSIG=
201509260600 METAR MROC 260600Z 06003KT CAVOK 21/19 A3000 NOSIG=
201509260700 METAR MROC 260700Z 07005KT CAVOK 20/18 A2996 NOSIG=
201509260800 METAR MROC 260800Z 07006KT CAVOK 20/17 A2993 NOSIG=
201509260900 METAR MROC 260900Z 10006KT CAVOK 20/16 A2993 NOSIG=
201509261000 METAR MROC 261000Z 06003KT CAVOK 19/16 A2995 NOSIG=
201509261100 METAR MROC 261100Z 06005KT CAVOK 18/16 A2995 NOSIG=
201509261200 METAR MROC 261200Z 05005KT CAVOK 19/16 A2995 NOSIG=
201509261300 METAR MROC 261300Z 07003KT CAVOK 23/17 A3000 NOSIG=
201509261400 METAR MROC 261400Z 00000KT 9999 FEW040 26/18 A3001 NOSIG=
201509261500 METAR MROC 261500Z 23002KT 9999 FEW040 SCT240 27/19 A3002 NOSIG=
201509261600 METAR MROC 261600Z 36003KT 9999 FEW040 SCT250 29/17 A3001 NOSIG=
201509261700 METAR MROC 261700Z 25008KT 9999 SCT035 28/19 A2998 NOSIG=
201509261800 METAR MROC 261800Z 24010KT 9999 SCT035 28/20 A2996 NOSIG=
201509261900 METAR MROC 261900Z 23008KT 9999 FEW015CB SCT030 27/20 A2995 NOSIG=
201509262000 METAR MROC 262000Z 11007KT 8000 -TSRA SCT015CB BKN025 21/18 A2995 NOSIG=
201509262100 METAR MROC 262100Z 07002KT 9999 -RA FEW010 OVC100 21/19 A2994 NOSIG=
201509262200 METAR MROC 262200Z 09003KT 9999 -RA OVC100 21/19 A2995 NOSIG=
201509262300 METAR MROC 262300Z 09003KT 9999 -RA OVC100 21/19 A2996 NOSIG=
201509270000 METAR MROC 270000Z 00000KT CAVOK 21/19 A2996 NOSIG=
201509270100 METAR MROC 270100Z 00000KT CAVOK 21/20 A2998 NOSIG=
201509270200 METAR MROC 270200Z 03003KT CAVOK 21/19 A2999 NOSIG=
201509270300 METAR MROC 270300Z 14002KT CAVOK 21/19 A3001 NOSIG=
201509270400 METAR MROC 270400Z 05004KT CAVOK 20/18 A3001 NOSIG=
201509270500 METAR MROC 270500Z 09004KT CAVOK 20/18 A3000 NOSIG=
201509270600 METAR MROC 270600Z 07004KT CAVOK 19/17 A2999 NOSIG=
201509270700 METAR MROC 270700Z 08004KT CAVOK 19/17 A2998 NOSIG=
201509270800 METAR MROC 270800Z 06005KT CAVOK 19/17 A2996 NOSIG=
201509270900 METAR MROC 270900Z 09004KT CAVOK 19/16 A2997 NOSIG=
201509271000 METAR MROC 271000Z 08006KT CAVOK 18/16 A2999 NOSIG=
201509271100 METAR MROC 271100Z 060007KT CAVOK 18/16 A2998 NOSIG=
201509271200 METAR MROC 271200Z 06007KT CAVOK 19/16 A2998 NOSIG=
201509271300 METAR MROC 271300Z 06005KT CAVOK 22/18 A3001 NOSIG=
201509271400 METAR MROC 271400Z 14002KT CAVOK 25/19 A3004 BECMG 24006KT=
201509271500 METAR MROC 271500Z 27005KT 9999 FEW045 BKN250 25/18 A3004 NOSIG=
201509271600 METAR MROC 271600Z 24004KT 9999 FEW045 BKN250 27/18 A3003 NOSIG=
201509271700 METAR MROC 271700Z 26005KT 9999 FEW040 SCT250 28/18 A3000 NOSIG=
201509271800 METAR MROC 271800Z 21002KT 9999 FEW040 SCT250 29/18 A2996 NOSIG=
201509271900 METAR MROC 271900Z 28004KT 9999 FEW040 SCT250 31/18 A2992 NOSIG=
201509272000 METAR MROC 272000Z 25011KT 9999 FEW020TCU SCT040 30/20 A2988 NOSIG=
201509272100 METAR MROC 272100Z 21005KT 4000 -TSRA SCT008CB BKN020 24/22 A2989 NOSIG=
201509272200 METAR MROC 272200Z 21005KT 4000 -RA VCTS FEW008CB SCT025 BKN100 21/19 A2991 RETS NOSIG=
201509272300 METAR MROC 272300Z 01006KT 9999 SCT020 BKN100 21/19 A2992 NOSIG=
201509280000 METAR MROC 280000Z 26004KT 9999 SCT020 BKN100 21/19 A2995 NOSIG=
201509280100 METAR MROC 280100Z VRB02KT 9999 FEW020 BKN120 21/20 A2996 NOSIG=
201509280200 METAR MROC 280200Z 13002KT 9999 FEW025 BKN100 21/20 A2998 NOSIG=
201509280300 METAR MROC 280300Z 04004KT 9999 FEW035 BKN120 21/20 A3000 NOSIG=
201509280400 METAR MROC 280400Z 08004KT CAVOK 21/19 A2998 NOSIG=
201509280500 METAR MROC 280500Z 00000KT CAVOK 21/19 A2996 NOSIG=
201509280600 METAR MROC 280600Z 00000KT 9999 FEW003 BKN120 21/18 A2996 NOSIG=
201509280700 METAR MROC 280700Z 00000KT CAVOK 20/18 A2994 NOSIG=
201509280800 METAR MROC 280800Z 00000KT CAVOK 20/18 A2994 NOSIG=
201509280900 METAR MROC 280900Z 09003KT CAVOK 19/17 A2993 NOSIG=
201509281000 METAR MROC 281000Z 030305KT CAVOK 20/17 A2994 NOSIG=
201509281100 METAR MROC 281100Z 08004KT CAVOK 19/17 A2995 NOSIG=
201509281200 METAR MROC 281200Z 07005KT CAVOK 20/17 A2997 NOSIG=
201509281300 METAR MROC 281300Z COR 10004KT CAVOK 23/18 A2998 NOSIG=
201509281400 METAR MROC 281400Z 26004KT 9999 FEW040 BKN250 25/19 A3000 NOSIG=
201509281500 METAR MROC 281500Z 25005KT 9999 FEW040 BKN250 26/19 A3000 NOSIG=
201509281600 METAR MROC 281600Z 25005KT 9999 SCT035 BKN250 27/19 A3000 NOSIG=
201509281700 METAR MROC 281700Z 25007KT 9999 SCT035 SCT250 27/21 A2998 NOSIG=
201509281800 METAR MROC 281800Z 24007KT 9999 FEW020TCU SCT035 SCT250 28/21 A2995 NOSIG=
201509281900 METAR MROC 281900Z 25007KT 9999 FEW020TCU SCT035 SCT250 28/21 A2991 NOSIG=
201509282000 METAR MROC 282000Z 22006KT 9999 FEW020TCU BKN035 28/21 A2990 NOSIG=
201509282100 METAR MROC 282100Z 23013KT 9999 VCSH FEW020TCU SCT035 26/21 A2988 NOSIG=
201509282200 METAR MROC 282200Z 22009KT 1200 TSRA FEW005 SCT015CB BKN025 23/21 A2990 BECMG 0500 FG=
201509282300 METAR MROC 282300Z 19003KT 9999 FEW010 SCT025 BKN080 21/19 A2991 RETS NOSIG=
201509290000 METAR MROC 290000Z 02005KT 9999 FEW010 SCT025 BKN080 22/20 A2992 NOSIG=
201509290100 METAR MROC 290100Z 28005KT 9999 FEW010 BKN030 22/20 A2994 NOSIG=
201509290200 METAR MROC 290200Z VRB02KT 8000 VCFG SCT001 BKN020 22/20 A2997 NOSIG=
201509290300 METAR MROC 290300Z 14004KT 5000 BR FEW001 SCT025 BKN200 22/20 A2997 NOSIG=
201509290400 METAR MROC 290400Z 10002KT 3000 BR FEW001 SCT010 BKN100 21/20 A2998 NOSIG=
201509290500 METAR MROC 290500Z 02002KT 9999 2000SW BR FEW001 SCT010 BKN100 21/20 A2996 NOSIG=
201509290600 METAR MROC 290600Z 02006KT 9999 2000SW BR FEW001 SCT010 BKN100 20/19 A2995 NOSIG=
201509290700 METAR MROC 290700Z 10003KT 9999 2000SW VCFG FEW001 SCT010 20/18 A2995 NOSIG=
201509290800 METAR MROC 290800Z 06005KT CAVOK 19/17 A2993 NOSIG=
201509290900 METAR MROC 290900Z 06005KT CAVOK 19/17 A2992 NOSIG=
201509291000 METAR MROC 291000Z 07002KT CAVOK 19/16 A2992 NOSIG=
201509291100 METAR MROC 291100Z 36003KT CAVOK 18/16 A2994 NOSIG=
201509291200 METAR MROC 291200Z 07004KT CAVOK 19/16 A2995 NOSIG=
201509291300 METAR MROC 291300Z 08010KT CAVOK 23/17 A2996 NOSIG=
201509291400 METAR MROC 291400Z 09015KT CAVOK 25/17 A2998 NOSIG=
201509291500 METAR MROC 291500Z 13012KT CAVOK 27/17 A2999 NOSIG=
201509291600 METAR MROC 291600Z 15012KT CAVOK 29/17 A2999 NOSIG=
201509291700 METAR MROC 291700Z 25014KT 9999 SCT040 27/20 A2997 NOSIG=
201509291800 METAR MROC 291800Z 24012KT 9999 SCT035 28/21 A2994 NOSIG=
201509291900 METAR MROC 291900Z 24014KT 9999 SCT035 28/21 A2992 NOSIG=
201509292000 METAR MROC 292000Z 29009KT 9999 -RA FEW015CB SCT020TCU BKN100 26/22 A2991 RESH NOSIG=
201509292100 METAR MROC 292100Z 10003KT 9999 TSRA SCT015CB BKN100 23/20 A2989 RMK VIS S 6KMS NOSIG=
201509292200 METAR MROC 292200Z 12003KT 9999 FEW010 SCT025 BKN120 22/20 A2989 RETSRA NOSIG=
201509292300 METAR MROC 292300Z 36004KT 9999 FEW020 SCT120 BKN250 23/20 A2989 NOSIG=
201509300000 METAR MROC 300000Z 32003KT 9999 FEW020 SCT120 BKN250 23/20 A2991 NOSIG=
201509300100 METAR MROC 300100Z 21003KT 9999 4000SW BCFG FEW004 SCT010 BKN250 22/20 A2995 BECMG 5000 BR=
201509300200 METAR MROC 300200Z 31003KT 9999 FEW020 SCT120 BKN250 22/20 A2997 NOSIG=
201509300300 METAR MROC 300300Z 22002KT 9999 4000SW BCFG FEW002 SCT008 BKN120 22/20 A2999 NOSIG=
201509300400 METAR MROC 300400Z 07002KT 9999 4000SW BCFG SCT005 BKN100 21/20 A3001 NOSIG=
201509300500 METAR MROC 300500Z 27003KT 3000SW BCFG FEW002 BKN010 21/20 A3001 NOSIG=
201509300600 METAR MROC 300600Z 00000KT 9999 3000SW BCFG FEW015 SCT120 21/20 A2999 NOSIG=
201509300700 METAR MROC 300700Z 05003KT 9999 5000SW BCFG FEW030 SCT120 21/19 A2997 NOSIG=
201509300800 METAR MROC 300800Z 03003KT 9999 5000SW BCFG FEW035 SCT120 21/19 A2994 NOSIG=
201509300900 METAR MROC 300900Z 04006KT 9999 BCFG FEW020 BKN100 21/18 A2992 NOSIG=
201509301000 METAR MROC 301000Z 12003KT CAVOK 21/18 A2992 NOSIG=
201509301100 METAR MROC 301100Z 06002KT 9999 4000SW BCFG FEW010 SCT030 SCT250 20/17 A2996 NOSIG=
201509301200 METAR MROC 301200Z 06005KT 9999 FEW045 BKN250 20/17 A2996 NOSIG=
201509301300 METAR MROC 301300Z 06002KT CAVOK 23/18 A2998 NOSIG=
201509301400 METAR MROC 301400Z 20002KT 9999 FEW030 SCT250 27/19 A2999 NOSIG=
201509301500 METAR MROC 301500Z 11003KT 9999 FEW030 SCT300 28/18 A2999 BECMG 24007KT=
201509301600 METAR MROC 301600Z 12006KT 9999 FEW030 SCT300 28/17 A2999 BECMG 24007KT=
201509301700 METAR MROC 301700Z 24010KT 9999 SCT030 27/21 A2996 NOSIG=
201509301800 METAR MROC 301800Z 24009KT 9999 FEW020TCU SCT030 26/20 A2995 NOSIG=
201509301900 METAR MROC 301900Z 28009KT 1000 +TSRAGR SCT012CB BKN025 21/18 A2993=
201509302000 METAR MROC 302000Z 14002KT 9999 4000SW TSRA FEW015CB SCT030 BKN100 19/18 A2989 NOSIG=
201509302100 METAR MROC NIL=
201509302200 METAR MROC 302200Z 02004KT 9999 SCT030 BKN130 21/19 A2992 NOSIG=
201509302300 METAR MROC 302300Z 00000KT 9999 SCT030 BKN130 21/19 A2992 NOSIG=
201510010000 METAR MROC 010000Z 08003KT 9999 -RA SCT030 BKN120 21/19 A2991 NOSIG=
201510010100 METAR MROC 010100Z 06003KT CAVOK 21/19 A2992 NOSIG=
201510010200 METAR MROC 010200Z 23003KT 9999 FEW003 SCT130 20/19 A2996 NOSIG=
201510010237 METAR MROC 010237Z 22002KT 0200 FG VV/// 20/19 A2998 NOSIG=
201510010300 METAR MROC 010300Z 27003KT 2000 BR SCT002 SCT130 20/19 A2997 NOSIG=
201510010400 METAR MROC 010400Z 04003KT 8000 VCFG FEW030 BKN120 20/19 A2999 NOSIG=
201510010500 METAR MROC 010500Z 12004KT 9999 BCFG FEW030 BKN120 20/18 A3000 NOSIG=
201510010600 METAR MROC 010600Z 04005KT CAVOK 20/18 A2997 NOSIG=
201510010700 METAR MROC 010700Z 08005KT CAVOK 19/18 A2996 NOSIG=
201510010800 METAR MROC 010800Z 09003KT CAVOK 19/17 A2994 NOSIG=
201510010900 METAR MROC 010900Z 06006KT CAVOK 18/17 A2993 NOSIG=
201510011000 METAR MROC 011000Z 02003KT CAVOK 18/16 A2994 NOSIG=
201510011100 METAR MROC 011100Z 10005KT CAVOK 17/16 A2994 NOSIG=
201510011200 METAR MROC 011200Z 07005KT CAVOK 18/16 A2996 NOSIG=
201510011300 METAR MROC 011300Z 10003KT CAVOK 21/17 A3002 NOSIG=
201510011400 METAR MROC 011400Z 24002KT CAVOK 26/18 A3000 NOSIG=
201510011500 METAR MROC 011500Z 27003KT CAVOK 26/19 A3000 NOSIG=
201510011600 METAR MROC 011600Z 23007KT 9999 FEW035 SCT250 26/20 A2999 NOSIG=
201510011700 METAR MROC 011700Z 23008KT 9999 SCT035 SCT250 25/20 A2998 NOSIG=
201510011800 METAR MROC 011800Z 23007KT 9999 SCT030TCU SCT250 26/20 A2994 NOSIG=
201510011900 METAR MROC 011900Z 24010KT 9999 SCT030TCU SCT250 27/21 A2991 NOSIG=
201510012000 METAR MROC 012000Z 23009KT 9999 -RA FEW015TCU SCT025 27/20 A2990 NOSIG=
201510012100 METAR MROC 012100Z 35010KT 2000 TSRA FEW010CB BKN030 20/18 A2989 NOSIG=
201510012200 METAR MROC 012200Z 11001KT 9999 FEW030 BKN100 20/19 A2989 NOSIG=
201510012300 METAR MROC 012300Z 32003KT 9999 -RA FEW030 BKN100 20/19 A2989 NOSIG=
201510020000 METAR MROC 020000Z 24001KT 9999 -RA FEW030 BKN100 20/19 A2992 NOSIG=
201510020100 METAR MROC 020100Z 10002KT 8000 -RA VCFG FEW002 BKN100 20/19 A2992 NOSIG=
201510020200 METAR MROC 020200Z 00000KT 9999 BCFG FEW005 BKN100 20/19 A2996 NOSIG=
201510020300 METAR MROC 020300Z 00000KT 9999 2000SW BR FEW001 BKN100 20/19 A2997 NOSIG=
201510020400 METAR MROC 020400Z 31002KT 9999 VCFG FEW020 BKN100 20/19 A2994 NOSIG=
201510020500 METAR MROC 020500Z 03003KT CAVOK 20/19 A2998 NOSIG=
201510020600 METAR MROC 020600Z 11002KT CAVOK 20/19 A2996 NOSIG=
201510020700 METAR MROC 020700Z 01003KT CAVOK 20/19 A2993 NOSIG=
201510020800 METAR MROC 020800Z 04004KT CAVOK 20/18 A2991 NOSIG=
201510020900 METAR MROC 020900Z VRB02KT 7000 1500SW BCFG SCT001 BKN180 20/18 A2991 NOSIG=
201510021000 METAR MROC 021000Z 04003KT 7000 BCFG FEW002 BKN120 19/18 A2991 NOSIG=
201510021100 METAR MROC 021100Z 11003KT 5000 BR FEW002 BKN120 19/18 A2992 NOSIG=
201510021200 METAR MROC 021200Z 03004KT CAVOK 19/17 A2993 NOSIG=
201510021300 METAR MROC 021300Z 09001KT CAVOK 21/18 A2996 BECMG 24007KT=
201510021400 METAR MROC 021400Z 20002KT 9999 FEW040 24/18 A2998 NOSIG=
201510021500 METAR MROC NIL=
201510021600 METAR MROC 021600Z 27006KT 9999 SCT040 25/19 A2998 NOSIG=
201510021700 METAR MROC 021700Z 26007KT 9999 SCT040 26/19 A2996 NOSIG=
201510021800 METAR MROC 021800Z 24008KT 9999 SCT040 26/19 A2994 NOSIG=
201510021900 METAR MROC 021900Z 25010KT 9999 SCT040 27/20 A2991 NOSIG=
201510022000 METAR MROC 022000Z 24010KT 9999 BKN040 27/20 A2990 NOSIG=
201510022100 METAR MROC 022100Z 26012KT 9999 -RA FEW015TCU BKN035 25/20 A2988 NOSIG=
201510022200 METAR MROC 022200Z 25010KT 9999 VCSH SCT025 SCT100 23/20 A2991 NOSIG=
201510022300 METAR MROC 022300Z 26007KT 9999 SCT025 BKN200 22/19 A2992 NOSIG=
201510030000 METAR MROC 030000Z 26006KT 9999 BKN020 SCT200 21/19 A2994 NOSIG=
201510030100 METAR MROC 030100Z 31003KT 9999 BKN025 21/19 A2996 NOSIG=
201510030200 METAR MROC 030200Z 31003KT 9999 BKN030 21/19 A2998 NOSIG=
201510030300 METAR MROC 030300Z 28002KT 9999 4000SW BCFG FEW008 BKN020 21/19 A2998 NOSIG=
201510030400 METAR MROC 030400Z 00000KT 9999 SCT025 20/19 A2998 NOSIG=
201510030500 METAR MROC 030500Z 05003KT 9999 SCT025 20/18 A2996 NOSIG=
201510030600 METAR MROC 030600Z 03003KT 9999 SCT030 20/17 A2995 NOSIG=
201510030700 METAR MROC 030700Z 08004KT CAVOK 19/16 A2993 NOSIG=
201510030800 METAR MROC 030800Z 00000KT CAVOK 19/16 A2992 NOSIG=
201510030900 METAR MROC 030900Z 06003KT CAVOK 18/16 A2992 NOSIG=
201510031000 METAR MROC 031000Z 08003KT 9999 1500W BR SCT002 18/16 A2993 NOSIG=
201510031100 METAR MROC 031100Z 06002KT CAVOK 18/16 A2993 NOSIG=
201510031200 METAR MROC 031200Z 11003KT CAVOK 18/16 A2995 NOSIG=
201510031300 METAR MROC 031300Z 01003KT CAVOK 23/16 A2997 BECMG 24007KT=
201510031400 METAR MROC 031400Z 24005KT 9999 FEW045 SCT250 24/18 A2999 NOSIG=
201510031500 METAR MROC NIL=
201510031600 METAR MROC 031600Z 25004KT 9999 FEW035 26/18 A2998 NOSIG=
201510031700 METAR MROC 031700Z 24006KT 9999 SCT035 27/18 A2995 NOSIG=
201510031800 METAR MROC 031800Z 24008KT 9999 SCT030TCU 27/19 A2993 NOSIG=
201510031900 METAR MROC 031900Z 25012KT 9999 VCSH FEW020TCU SCT040 26/21 A2991 BECMG 5000 SHRA SCT010CB=
201510032000 METAR MROC 032000Z 23010KT 9999 -RA VCSH FEW010CB FEW020TCU SCT035 SCT200 26/20 A2990 BECMG 5000 -TSRA SCT010CB=
201510032100 METAR MROC 032100Z 25012KT 9999 -RA VCSH FEW010CB FEW020TCU SCT035 24/21 A2990 NOSIG=
201510032200 METAR MROC 032200Z 26010KT 9999 FEW020TCU BKN030 25/20 A2990 NOSIG=
201510032300 METAR MROC 032300Z 26013KT 9999 4500NE SHRA SCT015 BKN025 23/20 A2992 BECMG 4000 RA BR=
201510032357 METAR MROC 032357Z 22004KT 9999 DZ FEW005 SCT015 BKN025 22/20 A2995 NOSIG=
201510040000 METAR MROC 040000Z 22004KT 9999 DZ FEW005 SCT015 BKN025 22/20 A2995 NOSIG=
201510040100 METAR MROC 040100Z COR 25004KT 9999 FEW005 SCT015 BKN025 22/20 A2997 REDZ NOSIG=
201510040200 METAR MROC 040200Z VRB02KT 9999 BCFG FEW015 SCT030 22/20 A2999 NOSIG=
201510040300 METAR MROC 040300Z 20004KT 9999 BCFG FEW005 BKN030 21/20 A3002 BECMG 5000 BR=
201510040400 METAR MROC 040400Z 19001KT 9999 2000SW BR FEW001 SCT010 21/19 A3001 BECMG 5000 BR=
201510040500 METAR MROC 040500Z 00000KT 9999 2000SW BR FEW001 20/19 A3000 NOSIG=
201510040600 METAR MROC 040600Z 02001KT 1500 BR FEW001 SCT010 20/19 A2998 BECMG 5000=
201510040700 METAR MROC 040700Z 11002KT 9999 BCFG NSC 20/19 A2997 NOSIG=
201510040800 METAR MROC 040800Z 07004KT CAVOK 19/17 A2995 NOSIG=
201510040900 METAR MROC 040900Z 04004KT CAVOK 19/17 A2994 NOSIG=
201510041000 METAR MROC 041000Z 05005KT CAVOK 19/16 A2994 NOSIG=
201510041100 METAR MROC 041100Z 07005KT CAVOK 20/16 A2996 NOSIG=
201510041200 METAR MROC 041200Z 05006KT CAVOK 20/16 A2998 NOSIG=
201510041300 METAR MROC 041300Z 04012KT CAVOK 21/16 A2999 NOSIG=
201510041400 METAR MROC 041400Z 09008KT CAVOK 25/16 A3000 NOSIG=
201510041500 METAR MROC 041500Z 20007KT CAVOK 27/18 A3002 NOSIG=
201510041600 METAR MROC 041600Z 20009KT CAVOK 30/11 A3001 NOSIG=
201510041700 METAR MROC 041700Z 22010KT CAVOK 29/18 A3000 NOSIG=
201510041800 METAR MROC 041800Z 25011KT 9999 FEW045 BKN250 28/19 A2997 NOSIG=
201510041900 METAR MROC 041900Z 25012KT 9999 FEW045 BKN250 29/19 A2995 NOSIG=
201510042000 METAR MROC 042000Z 24015KT 9999 FEW025TCU FEW040 BKN250 28/20 A2994 NOSIG=
201510042100 METAR MROC 042100Z 24009KT 9999 FEW020TCU SCT030 27/20 A2993 NOSIG=
201510042200 METAR MROC 042200Z 23009KT 9999 VCSH FEW007 FEW015CB SCT030 BKN200 24/21 A2995 BECMG BKN020=
201510042300 METAR MROC 042300Z 23005KT 9999 -RA VCSH FEW005 FEW015CB BKN025 23/21 A2996 BECMG SHRA=
201510050000 METAR MROC 050000Z 12002KT 8000 3000SW -RA BCFG FEW004 SCT020 BKN070 22/21 A2998 BECMG 5000 BR=
201510050100 METAR MROC 050100Z 32002KT 9999 FEW010 SCT030 BKN120 22/21 A3000 NOSIG=
201510050200 METAR MROC 050200Z 11002KT 9999 BCFG FEW040 BKN120 22/20 A3001 NOSIG=
201510050300 METAR MROC 050300Z 04002KT 9999 BCFG FEW035 BKN180 22/20 A3002 NOSIG=
201510050400 METAR MROC 050400Z 06004KT CAVOK 22/19 A3002 NOSIG=
201510050500 METAR MROC 050500Z 04009KT CAVOK 22/18 A3001 NOSIG=
201510050600 METAR MROC 050600Z 07005KT CAVOK 22/17 A3001 NOSIG=
201510050700 METAR MROC 050700Z 02005KT CAVOK 21/17 A2999 NOSIG=
201510050800 METAR MROC 050800Z 03006KT CAVOK 20/16 A2998 NOSIG=
201510050900 METAR MROC 050900Z 07004KT CAVOK 21/16 A2997 NOSIG=
201510051000 METAR MROC 051000Z 06006KT CAVOK 20/16 A2998 NOSIG=
201510051100 METAR MROC 051100Z 02007KT CAVOK 21/16 A2999 NOSIG=
201510051200 METAR MROC 051200Z 04005KT CAVOK 22/16 A3000 NOSIG=
201510051300 METAR MROC 051300Z 03005KT CAVOK 23/17 A3002 NOSIG=
201510051400 METAR MROC 051400Z 10006KT CAVOK 26/17 A3002 NOSIG=
201510051500 METAR MROC 051500Z 11005KT CAVOK 27/17 A3002 NOSIG=
201510051600 METAR MROC 051600Z 23009KT CAVOK 26/20 A3003 NOSIG=
201510051700 METAR MROC 051700Z 24008KT 9999 FEW045 SCT300 28/21 A3003 NOSIG=
201510051800 METAR MROC 051800Z 24009KT 9999 FEW025TCU SCT040 BKN300 28/21 A3000 NOSIG=
201510051900 METAR MROC 051900Z 23009KT 9999 FEW020TCU SCT040 28/21 A2999 NOSIG=
201510052000 METAR MROC 052000Z 26007KT 9999 3000N +SHRA VCTS FEW020CB SCT035 26/21 A2997 BECMG 5000 TSRA=
201510052028 METAR MROC 052028Z 24005KT 9999 5000W -RA FEW015TCU SCT025 22/19 A2995 NOSIG=
201510052100 METAR MROC 052100Z 00000KT 9999 FEW010 SCT020TCU 22/20 A2993 NOSIG=
201510052200 METAR MROC 052200Z 25007KT 8000 VCFG FEW004 SCT020 23/21 A2995 BECMG 5000 BR=
201510052300 METAR MROC 052300Z 22003KT 8000 VCFG FEW008 SCT020 BKN140 23/21 A2997 BECMG 5000 BR=
201510060000 METAR MROC 060000Z 35003KT 9999 SCT020 BKN250 22/21 A2999 NOSIG=
201510060100 METAR MROC 060100Z 28002KT 9999 FEW006 SCT030 22/20 A3001 NOSIG=
201510060200 METAR MROC 060200Z 29003KT 8000 VCFG FEW003 SCT030 22/20 A3002 NOSIG=
201510060300 METAR MROC 060300Z 00000KT CAVOK 21/20 A3004 NOSIG=
201510060400 METAR MROC 060400Z 06004KT 9999 FEW030 BKN100 22/20 A3003 NOSIG=
201510060500 METAR MROC 060500Z 09011KT 9999 FEW030 BKN100 23/19 A3004 NOSIG=
201510060600 METAR MROC 060600Z 08009KT 9999 FEW030 SCT100 23/19 A3003 NOSIG=
201510060700 METAR MROC 060700Z 08011KT 9999 SCT030 23/18 A3001 NOSIG=
201510060800 METAR MROC 060800Z 09007KT 9999 FEW030 23/18 A2998 NOSIG=
201510060900 METAR MROC 060900Z 06008KT 9999 FEW030 SCT100 23/18 A2997 NOSIG=
201510061000 METAR MROC 061000Z 11003KT CAVOK 22/18 A2997 NOSIG=
201510061100 METAR MROC 061100Z 04004KT 9999 FEW035 22/18 A2999 NOSIG=
201510061200 METAR MROC 061200Z 10011KT 9999 FEW035 BKN200 22/17 A3001 NOSIG=
201510061300 METAR MROC 061300Z 07008KT 9999 FEW030 BKN250 24/18 A3002 NOSIG=
201510061400 METAR MROC 061400Z 12006KT 9999 FEW030 SCT120 BKN250 25/18 A3005 NOSIG=
201510061500 METAR MROC 061500Z 09011KT 9999 FEW030 BKN250 26/18 A3006 NOSIG=
201510061600 METAR MROC 061600Z 10009KT 9999 SCT030 BKN250 28/18 A3006 NOSIG=
201510061700 METAR MROC 061700Z 08007KT 9999 FEW035 SCT120 BKN250 28/18 A3004 NOSIG=
201510061800 METAR MROC NIL=
201510061900 METAR MROC 061900Z 23006KT 9999 SCT035 BKN140 28/21 A2999 NOSIG=
201510062000 METAR MROC NIL=
201510062100 METAR MROC 062100Z 24005KT 9999 SCT030 BKN200 26/21 A2998 NOSIG=
201510062200 METAR MROC 062200Z 24005KT 9999 SCT030 BKN200 25/21 A2997 NOSIG=
201510062300 METAR MROC 062300Z 26005KT 9999 SCT030 BKN200 24/21 A2998 NOSIG=
201510070000 METAR MROC 070000Z 28004KT 9999 FEW030 BKN200 23/21 A3001 NOSIG=
201510070100 METAR MROC 070100Z 22001KT 9999 FEW030 SCT200 23/21 A3003 NOSIG=
201510070200 METAR MROC 070200Z 10005KT 9999 FEW030 SCT120 23/18 A3005 NOSIG=
201510070300 METAR MROC 070300Z 05002KT CAVOK 23/18 A3008 NOSIG=
201510070400 METAR MROC 070400Z COR 04004KT 9999 -RA NSC 22/18 A3006 NOSIG=
201510070500 METAR MROC 070500Z 09003KT 9999 -DZ NSC 21/18 A3006 NOSIG=
201510070600 METAR MROC 070600Z 06004KT CAVOK 21/17 A3003 NOSIG=
201510070700 METAR MROC 070700Z 08005KT CAVOK 21/16 A3001 NOSIG=
201510070800 METAR MROC 070800Z 03004KT CAVOK 21/16 A3000 NOSIG=
201510070900 METAR MROC 070900Z 04006KT CAVOK 21/16 A2998 NOSIG=
201510071000 METAR MROC 071000Z 04006KT CAVOK 21/16 A2998 NOSIG=
201510071100 METAR MROC 071100Z 06005KT CAVOK 21/16 A2998 NOSIG=
201510071200 METAR MROC 071200Z 04006KT 9999 FEW045 BKN200 21/16 A3000 NOSIG=
201510071300 METAR MROC 071300Z 10005KT CAVOK 23/17 A3002 NOSIG=
201510071400 METAR MROC 071400Z 10007KT 9999 FEW040 BKN250 24/18 A3005 NOSIG=
201510071500 METAR MROC 071500Z 11007KT 9999 FEW040 BKN250 27/18 A3005 NOSIG=
201510071600 METAR MROC 071600Z 12006KT 9999 FEW040 BKN250 28/19 A3004 NOSIG=
201510071700 METAR MROC 071700Z 12005KT FEW040 BKN250 27/18 A2999 NOSIG=
201510071800 METAR MROC 071800Z 10009KT 9999 SCT030 BKN250 29/17 A2998 NOSIG=
201510071900 METAR MROC 071900Z 22010KT 9999 SCT030 BKN200 27/21 A2995 NOSIG=
201510072000 METAR MROC 072000Z 34012KT 9999 -TS RA FEW010CB BKN030 22/19 A2992 NOSIG=
201510072100 METAR MROC 072100Z 22005KT 9999 VCSH SCT025 BKN100 22/20 A2993 RETS NOSIG=
201510072200 METAR MROC 072200Z 27005KT 9999 VCSH FEW025 SCT080 BKN100 21/20 A2995 NOSIG=
201510072300 METAR MROC 072300Z 35002KT 9999 FEW025 SCT060 BKN100 22/19 A2997 NOSIG=
201510080000 METAR MROC 080000Z 06004KT 9999 FEW030 BKN100 22/18 A2998 NOSIG=
201510080100 METAR MROC 080100Z 08004KT 9999 FEW030 SCT100 22/17 A3002 NOSIG=
201510080200 METAR MROC 080200Z 11004KT 9999 FEW030 BKN100 22/17 A3006 NOSIG=
201510080300 METAR MROC 080300Z 03006KT 9999 FEW030 SCT120 22/17 A3007 NOSIG=
201510080400 METAR MROC 080400Z 06004KT 9999 FEW030 SCT120 22/18 A3007 NOSIG=
201510080500 METAR MROC 080500Z 04005KT 9999 FEW030 SCT120 22/18 A3005 NOSIG=
201510080600 METAR MROC 080600Z 08006KT CAVOK 22/17 A3002 NOSIG=
201510080700 METAR MROC 080700Z 09005KT CAVOK 21/18 A2999 NOSIG=
201510080800 METAR MROC 080800Z 07003KT CAVOK 21/17 A2996 NOSIG=
201510080900 METAR MROC 080900Z 10005KT CAVOK 22/17 A2995 NOSIG=
201510081000 METAR MROC 081000Z 08006KT CAVOK 22/17 A2995 NOSIG=
201510081100 METAR MROC 081100Z 07006KT CAVOK 21/17 A2996 NOSIG=
201510081200 METAR MROC 081200Z 09010KT CAVOK 22/17 A2998 NOSIG=
201510081300 METAR MROC 081300Z 09009KT CAVOK 23/17 A3000 NOSIG=
201510081400 METAR MROC 081400Z 09006KT CAVOK 24/17 A3002 NOSIG=
201510081500 METAR MROC 081500Z 10006KT CAVOK 24/17 A3003 NOSIG=
201510081600 METAR MROC 081600Z 10007KT 9999 FEW045 BKN130 25/18 A3002 NOSIG=
201510081700 METAR MROC 081700Z 23009KT 9999 FEW040 BKN250 27/19 A3000 NOSIG=
201510081800 METAR MROC 081800Z 25008KT 9999 FEW040 BKN250 27/19 A2998 NOSIG=
201510081900 METAR MROC 081900Z 24008KT 9999 FEW020TCU SCT030 SCT200 28/20 A2996 NOSIG=
201510082000 METAR MROC 082000Z 24006KT 9999 TSRA FEW015CB SCT030 SCT150 25/20 A2994 NOSIG=
201510082100 METAR MROC 082100Z 06006KT 9999 -DZ BKN030 SCT100 22/20 A2994 NOSIG=
201510082200 METAR MROC 082200Z 00000KT 9999 -DZ FEW030 SCT100 BKN200 23/20 A2996 NOSIG=
201510082300 METAR MROC 082300Z 27006KT 9999 FEW030 SCT120 BKN200 23/21 A2997 NOSIG=
201510090000 METAR MROC 090000Z 28003KT 9999 BCFG FEW030 BKN100 21/20 A2999 NOSIG=
201510090100 METAR MROC 090100Z 00000KT 9999 FEW030 BKN100 21/20 A3002 NOSIG=
201510090200 METAR MROC 090200Z 07003KT 9999 BKN030 21/19 A3004 NOSIG=
201510090300 METAR MROC 090300Z 33007KT 9999 FEW030 BKN100 21/20 A3006 NOSIG=
201510090400 METAR MROC 090400Z 09002KT 9999 FEW020 BKN100 21/19 A3006 NOSIG=
201510090500 METAR MROC 090500Z 09003KT 9999 FEW020 SCT100 21/19 A3005 NOSIG=
201510090600 METAR MROC 090600Z 08002KT 9999 FEW020 SCT100 21/19 A3002 NOSIG=
201510090700 METAR MROC 090700Z 01003KT 9999 FEW020 SCT100 21/19 A3000 NOSIG=
201510090800 METAR MROC 090800Z 05002KT 9999 FEW020 SCT100 21/18 A2998 NOSIG=
201510090900 METAR MROC 090900Z 03005KT CAVOK 20/18 A2997 NOSIG=
201510091000 METAR MROC 091000Z 04007KT CAVOK 20/17 A2997 NOSIG=
201510091100 METAR MROC 091100Z 07005KT CAVOK 20/17 A2998 NOSIG=
201510091200 METAR MROC 091200Z 06005KT 9999 FEW040 21/17 A3001 NOSIG=
201510091300 METAR MROC 091300Z 12010G20KT 9999 FEW040 SCT250 23/18 A3002 NOSIG=
201510091400 METAR MROC 091400Z 10010G20KT 9999 FEW040 SCT250 25/17 A3003 NOSIG=
201510091500 METAR MROC 091500Z 10010G20KT CAVOK 26/17 A3004 NOSIG=
201510091600 METAR MROC 091600Z 13011KT 9999 FEW040 SCT150 BKN250 28/16 A3004 NOSIG=
201510091700 METAR MROC 091700Z 10011KT 9999 FEW040 BKN200 28/17 A3003 NOSIG=
201510091800 METAR MROC 091800Z 08015KT 9999 FEW035 SCT120 BKN200 29/17 A2999 NOSIG=
201510091900 METAR MROC 091900Z 13010KT 9999 FEW035 BKN200 29/17 A2996 NOSIG=
201510092000 METAR MROC 092000Z 23013KT 9999 FEW035 BKN200 26/21 A2995 NOSIG=
201510092100 METAR MROC 092100Z 26007KT 9999 -RA VCSH FEW015CB SCT025 BKN200 24/21 A2994 BECMG 5000 TSRA BKN200=
201510092200 METAR MROC 092200Z 22005KT 5000 2000SW BR VCTS SCT003 FEW015CB BKN140 24/22 A2994 BECMG TSRA=
201510092300 METAR MROC 092300Z 18004KT 8000 VCSH FEW004 FEW012CB BKN025 22/20 A2998 NOSIG=
201510100000 METAR MROC 100000Z 29003KT 9999 FEW025 SCT120 BKN250 22/19 A2999 NOSIG=
201510100100 METAR MROC 100100Z 00000KT 9999 FEW030 SCT120 BKN250 22/19 A3002 NOSIG=
201510100200 METAR MROC 100200Z 02004KT 9999 BCFG FEW030 SCT070 BKN250 22/20 A3004 NOSIG=
201510100300 METAR MROC 100300Z 25003KT CAVOK 20/19 A3006 NOSIG=
201510100400 METAR MROC 100400Z 29002KT CAVOK 21/19 A3006 NOSIG=
201510100500 METAR MROC 100500Z 00000KT 9999 BCFG FEW010 BKN100 21/19 A3005 NOSIG=
201510100600 METAR MROC 100600Z 05002KT 9999 4000SW BCFG SCT010 BKN100 20/18 A3004 NOSIG=
201510100700 METAR MROC 100700Z 03003KT 9999 FEW035 20/18 A3000 NOSIG=
201510100800 METAR MROC 100800Z 04004KT CAVOK 20/17 A2999 NOSIG=
201510100900 METAR MROC 100900Z 06004KT CAVOK 19/17 A2999 NOSIG=
201510101000 METAR MROC 101000Z 06005KT CAVOK 19/16 A2999 NOSIG=
201510101100 METAR MROC 101100Z 04005KT CAVOK 19/16 A3000 NOSIG=
201510101200 METAR MROC 101200Z 10005KT 9999 FEW045 BKN250 21/17 A3001 NOSIG=
201510101300 METAR MROC 101300Z 08005KT CAVOK 22/17 A3003 NOSIG=
201510101400 METAR MROC 101400Z 11008KT CAVOK 23/18 A3005 NOSIG=
201510101500 METAR MROC 101500Z 10008KT CAVOK 25/18 A3005 NOSIG=
201510101600 METAR MROC 101600Z 09008KT 9999 FEW045 SCT120 BKN250 27/17 A3005 NOSIG=
201510101700 METAR MROC 101700Z 05012KT 9999 FEW045 SCT120 28/16 A3003 NOSIG=
201510101800 METAR MROC 101800Z 09009KT 9999 -DZ FEW040 BKN120 27/17 A3002 NOSIG=
201510101900 METAR MROC 101900Z 09007KT 9999 -DZ NSC 27/16 A2998 RMK BECMG 20006KT=
201510102000 METAR MROC 102000Z 12006KT 9999 FEW040 SCT100 BKN200 26/17 A2996 BECMG 20006KT=
201510102100 METAR MROC 102100Z 11006KT 9999 FEW035 BKN140 26/17 A2994 NOSIG=
201510102200 METAR MROC 102200Z 17006KT 9999 SCT030 BKN140 27/15 A2995 NOSIG=
201510102300 METAR MROC 102300Z 10005KT 9999 FEW035 BKN140 24/17 A2995 NOSIG=
201510110000 METAR MROC 110000Z 06005KT 9999 FEW035 BKN140 23/17 A2998 NOSIG=
201510110100 METAR MROC 110100Z 04007KT 9999 FEW040 SCT140 23/16 A3002 NOSIG=
201510110200 METAR MROC 110200Z 10004KT CAVOK 22/17 A3004 NOSIG=
201510110300 METAR MROC 110300Z 01003KT CAVOK 22/17 A3005 NOSIG=
201510110400 METAR MROC 110400Z 06004KT CAVOK 21/17 A3005 NOSIG=
201510110500 METAR MROC 110500Z 15005KT CAVOK 20/17 A3003 NOSIG=
201510110600 METAR MROC 110600Z 04005KT CAVOK 20/17 A3001 NOSIG=
201510110700 METAR MROC 110700Z 04004KT CAVOK 20/17 A3001 NOSIG=
201510110800 METAR MROC 110800Z 07004KT CAVOK 19/16 A2998 NOSIG=
201510110900 METAR MROC 110900Z 05005KT CAVOK 19/16 A2998 NOSIG=
201510111000 METAR MROC 111000Z 04009KT CAVOK 19/16 A2996 NOSIG=
201510111100 METAR MROC 111100Z 04005KT CAVOK 20/16 A2997 NOSIG=
201510111200 METAR MROC 111200Z 06011KT CAVOK 21/16 A2998 NOSIG=
201510111300 METAR MROC 111300Z 05007KT CAVOK 23/17 A2999 NOSIG=
201510111400 METAR MROC 111400Z 09009KT CAVOK 25/16 A3001 NOSIG=
201510111500 METAR MROC 111500Z 09010KT 9999 FEW035 BKN250 27/16 A3002 NOSIG=
201510111600 METAR MROC 111600Z 11008KT 9999 FEW035 BKN250 28/16 A3002 NOSIG=
201510111700 METAR MROC 111700Z 13007KT 9999 SCT035 BKN150 28/17 A3002 BECMG 23006KT=
201510111800 METAR MROC 111800Z 25011KT 9999 SCT035 BKN140 27/21 A2999 NOSIG=
201510111900 METAR MROC 111900Z 25011KT 9999 SCT030TCU BKN120 26/20 A2996 NOSIG=
201510112000 METAR MROC 112000Z 25007KT 5000 TSRA SCT010CB BKN025 25/20 A2996=
201510112100 METAR MROC 112100Z 21005KT 5000 -DZ BR FEW001 SCT010 BKN030 21/20 A2995=
201510112200 METAR MROC 112200Z 27005KT 2000 RA BR FEW001 BKN020 20/19 A2996 NOSIG=
201510112300 METAR MROC 112300Z 22004KT 4000 -RA BR FEW001 BKN020 20/19 A2996 NOSIG=
201510120000 METAR MROC 120000Z 03003KT 9999 -RA FEW030 BKN100 20/19 A2998 NOSIG=
201510120100 METAR MROC 120100Z 02002KT 9999 -RA FEW030 BKN100 21/19 A3001 NOSIG=
201510120200 METAR MROC 120200Z 09002KT 9999 -RA FEW030 BKN100 21/20 A3004 NOSIG=
201510120300 METAR MROC 120300Z 08002KT 9999 -RA FEW030 BKN100 21/20 A3005 NOSIG=
201510120400 METAR MROC 120400Z 06002KT 9999 4000S BCFG BKN100 20/19 A3004 NOSIG=
201510120500 METAR MROC 120500Z 18002KT 9999 2000SW BCFG FEW001 BKN100 20/19 A3002 BECMG 5000 BR=
201510120600 METAR MROC 120600Z 08001KT 4000 BR FEW001 SCT140 20/19 A3000 BECMG 9999=
201510120700 METAR MROC 120700Z 03003KT CAVOK 20/19 A2999 NOSIG=
201510120800 METAR MROC 120800Z 05003KT CAVOK 20/19 A2996 NOSIG=
201510120900 METAR MROC 120900Z 05003KT CAVOK 20/18 A2994 NOSIG=
201510121000 METAR MROC 121000Z 04003KT CAVOK 19/18 A2995 NOSIG=
201510121100 METAR MROC 121100Z 06005KT CAVOK 19/17 A2996 NOSIG=
201510121200 METAR MROC 121200Z 06003KT CAVOK 20/17 A2998 NOSIG=
201510121300 METAR MROC 121300Z 08002KT CAVOK 23/18 A3003 NOSIG=
201510121400 METAR MROC 121400Z 10006KT CAVOK 25/18 A3003 NOSIG=
201510121500 METAR MROC 121500Z 09004KT 9999 FEW040 SCT120 27/18 A3003 NOSIG=
201510121600 METAR MROC 121600Z 23008KT 9999 SCT040 SCT120 27/20 A3004 NOSIG=
201510121700 METAR MROC 121700Z 25009KT 9999 SCT040 SCT120 25/20 A3003 NOSIG=
201510121800 METAR MROC 121800Z 23010KT 9999 SCT040 BKN100 24/20 A3000 NOSIG=
201510121900 METAR MROC 121900Z 21009KT 9999 SCT040 BKN100 26/20 A2998 NOSIG=
201510122000 METAR MROC 122000Z 24009KT 9999 SCT040 SCT100 26/19 A2995 NOSIG=
201510122100 METAR MROC 122100Z 24009KT 9999 VCSH SCT025 BKN150 25/20 A2995 NOSIG=
201510122200 METAR MROC 122200Z 24008KT 9999 4000SW RA VCSH FEW010TCU SCT025 SCT100 23/20 A2996 BECMG 5000 -TSRA SCT010CB=
201510122300 METAR MROC 122300Z 24005KT 9999 VCSH FEW010 SCT030 BKN100 21/20 A2998 RERA NOSIG=
201510130000 METAR MROC 130000Z 21002KT 9999 4000SW BCFG SCT008 BKN025 21/20 A2998 NOSIG=
201510130100 METAR MROC 130100Z 18002KT 5000 BR SCT005 BKN020 21/20 A3000 NOSIG=
201510130200 METAR MROC 130200Z 35002KT 9999 BCFG SCT010 BKN100 21/20 A3003 NOSIG=
201510130300 METAR MROC 130300Z 06002KT 9999 BCFG SCT010 BKN100 21/19 A3005 NOSIG=
201510130400 METAR MROC 130400Z 00000KT 9999 BCFG FEW030 21/19 A3005 NOSIG=
201510130500 METAR MROC 130500Z 00000KT 1000 BR SCT002 20/19 A3004 NOSIG=
201510130600 METAR MROC 130600Z 09002KT 5000 BR SCT003 20/19 A3003 NOSIG=
201510130700 METAR MROC 130700Z 04004KT CAVOK 20/18 A2999 NOSIG=
201510130800 METAR MROC 130800Z 07004KT CAVOK 19/17 A2997 NOSIG=
201510130900 METAR MROC 130900Z 07004KT CAVOK 19/17 A2998 NOSIG=
201510131000 METAR MROC 131000Z 05005KT CAVOK 19/17 A2998 NOSIG=
201510131100 METAR MROC 131100Z 03004KT CAVOK 19/17 A3000 NOSIG=
201510131200 METAR MROC 131200Z 07004KT CAVOK 19/16 A3001 NOSIG=
201510131300 METAR MROC 131300Z 06004KT CAVOK 23/18 A3003 NOSIG=
201510131400 METAR MROC 131400Z 05003KT 9999 FEW030 26/17 A3004 BECMG 24007KT=
201510131500 METAR MROC 131500Z 18003KT 9999 FEW030 28/17 A3003 NOSIG=
201510131600 METAR MROC 131600Z 26006KT 9999 FEW030 28/19 A3003 NOSIG=
201510131700 METAR MROC 131700Z 24007KT 9999 SCT030 28/20 A3001 NOSIG=
201510131800 METAR MROC 131800Z 23009KT 9999 FEW020TCU SCT030 28/19 A2998 NOSIG=
201510131900 METAR MROC 131900Z 23008KT 9999 TSRA FEW015CB SCT030 26/20 A2996 NOSIG=
201510131935 METAR MROC 131935Z 23007KT 9999 VCSH FEW015TCU SCT030 SCT120 27/20 A2994 RETSRA=
201510132000 METAR MROC 132000Z 23007KT 9999 VCSH FEW015TCU SCT030 BKN120 27/20 A2994 NOSIG=
201510132100 METAR MROC 132100Z 33010KT 9999 2500N RA VCTS FEW015CB SCT020TCU BKN040 23/18 A2994 NOSIG=
201510132200 METAR MROC 132200Z 03007KT 9999 VCSH FEW015 SCT030 BKN100 23/19 A2994 RERA NOSIG=
201510132300 METAR MROC 132300Z 02005KT 9999 SCT030 BKN100 23/19 A2996 NOSIG=
201510132351 METAR MROC 140000Z 00000KT 9999 -DZ FEW030 BKN100 22/19 A2997 NOSIG=
201510140000 METAR MROC 140000Z 00000KT 9999 -DZ FEW030 BKN100 22/19 A2997 NOSIG=
201510140100 METAR MROC 140100Z 24009KT 5000 2000SW -RA BR FEW005 SCT020 BKN080 22/20 A3001 NOSIG=
201510140200 METAR MROC 140200Z 30007KT 5000 -RA BR FEW005 SCT020 BKN080 21/20 A3004 NOSIG=
201510140300 METAR MROC 140300Z 32009KT 8000 RA VCFG SCT015 BKN080 21/19 A3006 NOSIG=
201510140400 METAR MROC 140400Z 34003KT 9999 -RA SCT015 BKN100 20/19 A3007 NOSIG=
201510140500 METAR MROC 140500Z 13001KT 9999 -RA FEW020 OVC100 20/19 A3005 NOSIG=
201510140600 METAR MROC 140600Z 06001KT 9999 -RA FEW020 OVC100 20/19 A3003 NOSIG=
201510140700 METAR MROC 140700Z 23002KT 9999 -RA BCFG SCT010 BKN100 20/19 A3001 BECMG 5000 BR=
201510140800 METAR MROC 140800Z 11001KT 9999 BCFG FEW010 SCT100 20/19 A2998 NOSIG=
201510140900 METAR MROC 140900Z 12002KT 9999 BCFG FEW010 SCT100 20/19 A2997 NOSIG=
201510141000 METAR MROC 141000Z 07003KT CAVOK 20/18 A2995 NOSIG=
201510141100 METAR MROC 141100Z 06004KT CAVOK 19/17 A2994 NOSIG=
201510141200 METAR MROC 141200Z 02003KT CAVOK 19/17 A2997 NOSIG=
201510141300 METAR MROC 141300Z 03005KT CAVOK 23/18 A3004 BECMG 24006KT=
201510141400 METAR MROC 141400Z 33003KT 9999 FEW035 SCT250 25/19 A3003 NOSIG=
201510141500 METAR MROC 141500Z 26006KT 9999 FEW035 26/19 A3004 NOSIG=
201510141600 METAR MROC 141600Z 26006KT 9999 FEW035 27/19 A3003 NOSIG=
201510141700 METAR MROC 141700Z 23011KT 9999 SCT025TCU 28/20 A3000 NOSIG=
201510141800 METAR MROC 141800Z 25009KT 9999 VCSH SCT025TCU 29/19 A2998 NOSIG=
201510141900 METAR MROC 141900Z 19011KT 9999 FEW025TCU SCT100 26/19 A2995 NOSIG=
201510142000 METAR MROC 142000Z 20009KT 9999 VCSH FEW020TCU SCT030 BKN100 27/20 A2993 NOSIG=
201510142100 METAR MROC 142100Z 27004KT 9999 4000N SHRA FEW015CB BKN025 23/21 A2993 BECMG TSRA=
201510142200 METAR MROC 142200Z 33004KT VCSH FEW015CB SCT025 BKN120 23/21 A2993 RESH NOSIG=
201510142300 METAR MROC 142300Z 10004KT 5000 RA SCT015 BKN025 21/19 A2995 BECMG BKN010=
201510142345 METAR MROC 142345Z 02004KT 7000 -RA SCT025 BKN080 21/19 A2995 RMK VIS SE S UNLTD NOSIG=
201510150000 METAR MROC 150000Z 01002KT 9999 -RA FEW010 SCT025 BKN080 21/19 A2997 NOSIG=
201510150100 METAR MROC 150100Z 02003KT 9999 FEW010 SCT025 BKN100 21/19 A2999 NOSIG=
201510150200 METAR MROC 150200Z 31002KT 9999 -RA FEW010 SCT025 BKN100 21/20 A3001 NOSIG=
201510150300 METAR MROC 150300Z 27004KT 9999 VCFG SCT002 SCT010 21/20 A3003 BECMG 5000 BR BCFG=
201510150400 METAR MROC 150400Z 27003KT 9999 VCFG SCT002 SCT010 21/20 A3004 NOSIG=
201510150500 METAR MROC 150500Z 00000KT 9999 VCFG FEW005 BKN100 21/20 A3003 NOSIG=
201510150600 METAR MROC 150600Z 25003KT 9999 2000W VCFG SCT002 BKN010 21/20 A3002=
201510150700 METAR MROC 150700Z 26004KT 5000 2000W RA BR SCT002 BKN010 21/20 A3000 NOSIG=
201510150800 METAR MROC 150800Z 28004KT 3000 RA BR FEW001 SCT003 BKN010 21/20 A2998 NOSIG=
201510150900 METAR MROC 150900Z 32004KT 9999 FEW002 BKN120 20/19 A2997 NOSIG=
201510151000 METAR MROC 151000Z 09004KT 9999 FEW025 SCT120 20/19 A2995 NOSIG=
201510151100 METAR MROC 151100Z 07004KT 9999 FEW035 SCT120 20/19 A2993 NOSIG=
201510151200 METAR MROC 151200Z 07004KT CAVOK 21/19 A2995 NOSIG=
201510151300 METAR MROC 151300Z 07004KT CAVOK 23/19 A3001 NOSIG=
201510151400 METAR MROC 151400Z 10006KT CAVOK 25/19 A2999 NOSIG=
201510151500 METAR MROC 151500Z 16001KT CAVOK 28/18 A3000 BECMG 24008KT=
201510151600 METAR MROC 151600Z 24008KT 9999 FEW030 SCT250 27/19 A3000 NOSIG=
201510151700 METAR MROC 151700Z 25007KT 9999 FEW030 SCT250 27/20 A2998 NOSIG=
201510151800 METAR MROC 151800Z 24009KT 9999 FEW025TCU FEW030 SCT200 28/19 A2993 NOSIG=
201510151900 METAR MROC 151900Z 23009KT 9999 VCSH FEW025TCU SCT200 28/20 A2991 NOSIG=
201510152000 METAR MROC 152000Z 22011KT 9999 RA FEW015CB SCT025 BKN200 25/20 A2990 BECMG 5000 TSRA=
201510152100 METAR MROC 152100Z 25008KT 9999 -RA SCT025CB BKN110 24/20 A2989 BECMG RA=
201510152200 METAR MROC 152200Z 22005KT 9999 -RA SCT020CB BKN110 23/20 A2989 NOSIG=
201510152300 METAR MROC 152300Z 278004KT 9999 SCT025 BKN110 23/20 A2992 NOSIG=
201510160000 METAR MROC 160000Z 00000KT 9999 -RA SCT030 BKN110 23/20 A2994 NOSIG=
201510160100 METAR MROC 160100Z 25003KT 8000 VCFG FEW004 SCT030 BKN110 22/20 A2998 BECMG 5000 BKN010=
201510160200 METAR MROC 160200Z 23004KT 1500 -RA BR SCT002 BKN020 22/21 A3000 BECMG 3000=
201510160300 METAR MROC 160300Z 26004KT 3000 -RA BR FEW002 SCT025 OVC100 21/20 A3002 NOSIG=
201510160400 METAR MROC 160400Z 27004KT 3000 -RA BR FEW002 SCT010 BKN100 21/20 A3003 NOSIG=
201510160500 METAR MROC 160500Z 31004KT 4000 BR FEW002 SCT015 BKN100 21/20 A3002 NOSIG=
201510160600 METAR MROC 160600Z 29007KT 8000 VCFG FEW005 SCT015 BKN100 21/20 A3000 NOSIG=
201510160700 METAR MROC 160700Z 29004KT 5000 BR SCT005 BKN100 21/20 A2999 NOSIG=
201510160800 METAR MROC 160800Z 27007KT 8000 VCFG FEW005 SCT015 BKN100 21/19 A2997 NOSIG=
201510160900 METAR MROC 160900Z 31003KT 8000 VCFG SCT015 BKN100 21/20 A2996 NOSIG=
201510161000 METAR MROC 161000Z 08004KT 9999 FEW015 BKN100 21/19 A2995 NOSIG=
201510161100 METAR MROC 161100Z 08006KT 9999 FEW035 SCT120 20/19 A2993 NOSIG=
201510161200 METAR MROC 161200Z 07011KT CAVOK 21/19 A2994 NOSIG=
201510161300 METAR MROC 161300Z 10003KT CAVOK 24/19 A2997 NOSIG=
201510161400 METAR MROC 161400Z 25002KT CAVOK 26/19 A2999 NOSIG=
201510161500 METAR MROC 161500Z 26004KT CAVOK 25/20 A3001 NOSIG=
201510161600 METAR MROC 161600Z 26006KT 9999 FEW035 BKN150 26/21 A3002 NOSIG=
201510161700 METAR MROC 161700Z 24005KT 9999 FEW035 BKN130 25/20 A2998 NOSIG=
201510161800 METAR MROC 161800Z 25008KT 9999 SCT030 BKN100 26/21 A2996 NOSIG=
201510161900 METAR MROC 161900Z 24009KT 9999 SCT025 BKN100 26/21 A2993 NOSIG=
201510162000 METAR MROC 162000Z 25007KT 9999 SCT025TCU BKN100 25/21 A2990 NOSIG=
201510162100 METAR MROC 162100Z 24007KT 9999 VCSH SCT025TCU BKN100 25/21 A2989 BECMG SHRA=
201510162200 METAR MROC 162200Z 16004KT 8000 -RA FEW010 SCT030 BKN100 21/19 A2992 NOSIG=
201510162300 METAR MROC 162300Z 33003KT 9999 2000SW BR FEW002 SCT030 BKN100 21/19 A2994 NOSIG=
201510170000 METAR MROC 170000Z 33003KT 9999 2000SW BR FEW002 SCT030 BKN100 21/19 A2996 NOSIG=
201510170100 METAR MROC 170100Z 30002KT 9999 -DZ FEW020 BKN100 21/19 A2999 NOSIG=
201510170200 METAR MROC 170200Z 31002KT 9999 2000SW -RA BR FEW001 SCT020 BKN100 21/19 A3002 NOSIG=
201510170300 METAR MROC 170300Z 00000KT 9999 FEW020 BKN100 21/19 A3003 NOSIG=
201510170400 METAR MROC 170400Z 30001KT 9999 FEW003 SCT010 BKN080 21/19 A3003 NOSIG=
201510170500 METAR MROC 170500Z 28002KT 9999 4000SW BCFG FEW005 SCT010 BKN100 21/20 A3003 NOSIG=
201510170600 METAR MROC 170600Z 35002KT 9999 4000SW BCFG FEW005 SCT025 BKN100 21/19 A3002 NOSIG=
201510170700 METAR MROC 170700Z 00801KT 9999 BCFG FEW003 SCT010 BKN100 21/19 A2999 NOSIG=
201510170800 METAR MROC 170800Z 19002KT 0900 FG SCT001 SCT015 21/19 A2997 BECMG 3000 BR=
201510170900 METAR MROC 170900Z 23002KT 4000 1800SW BR BCFG BKN003 20/19 A2998 BECMG 0900 FG=
201510171000 METAR MROC 171000Z 22006KT 2000 DZ BR BKN001 20/19 A3000 BECMG BKN010=
201510171100 METAR MROC 171100Z 24004KT 2000 -RADZ BR SCT001 BKN010 20/19 A3001 NOSIG=
201510171200 METAR MROC 171200Z 21002KT 0800 FG VV/// 20/19 A3003 BECMG 3000 BR BKN020=
201510171300 METAR MROC 171300Z 16002KT 9999 BCFG FEW020 BKN100 20/19 A3005 NOSIG=
201510171400 METAR MROC 171400Z 08004KT 9999 FEW030 BKN100 22/19 A3006 NOSIG=
201510171500 METAR MROC 171500Z 09005KT 9999 FEW030 BKN100 24/19 A3006 NOSIG=
201510171600 METAR MROC 171600Z 09006KT 9999 FEW040 BKN100 25/19 A3005 NOSIG=
201510171700 METAR MROC 171700Z 11003KT 9999 FEW040 BKN120 26/18 A3002 NOSIG=
201510171800 METAR MROC 171800Z 24007KT 9999 FEW040 BKN120 27/20 A3001 NOSIG=
201510171900 METAR MROC 171900Z 24011KT 9999 SCT040 BKN120 26/21 A3000 NOSIG=
201510172000 METAR MROC 172000Z 22008KT 9999 SCT030 BKN100 24/20 A2997 NOSIG=
201510172100 METAR MROC 172100Z 24007KT 9999 FEW015TCU SCT030 BKN250 24/20 A2997 NOSIG=
201510172200 METAR MROC 172200Z 25009KT 9999 VCSH FEW015TCU SCT025 SCT250 22/20 A2998 NOSIG=
201510172300 METAR MROC 172300Z 25006KT 9999 FEW020 SCT120 SCT250 22/19 A2999 NOSIG=
201510180000 METAR MROC 180000Z 20002KT 9999 FEW020 BKN120 21/19 A3001 NOSIG=
201510180100 METAR MROC 180100Z 13002KT 9999 FEW025 BKN100 21/19 A3004 NOSIG=
201510180200 METAR MROC 180200Z 07003KT CAVOK 21/17 A3006 NOSIG=
201510180300 METAR MROC 180300Z 00000KT CAVOK 22/19 A3007 NOSIG=
201510180400 METAR MROC 180400Z 23003KT 9999 FEW006 BKN100 21/19 A3008 NOSIG=
201510180500 METAR MROC 180500Z 00000KT 9999 FEW025 BKN100 20/19 A3008 NOSIG=
201510180600 METAR MROC 180600Z 08001KT 9999 FEW025 BKN100 20/19 A3005 NOSIG=
201510180700 METAR MROC 180700Z 07003KT CAVOK 20/19 A3002 NOSIG=
201510180800 METAR MROC 180800Z 07005KT CAVOK 21/19 A2999 NOSIG=
201510180900 METAR MROC 180900Z 07006KT CAVOK 22/18 A2999 NOSIG=
201510181000 METAR MROC 181000Z 05007KT CAVOK 22/18 A3000 NOSIG=
201510181100 METAR MROC 181100Z 09004KT CAVOK 21/18 A2999 NOSIG=
201510181200 METAR MROC 181200Z 07004KT CAVOK 21/18 A3000 NOSIG=
201510181300 METAR MROC 181300Z COR 13004KT CAVOK 25/18 A3003 BECMG 24007KT=
201510181400 METAR MROC 181400Z 18005KT CAVOK 27/19 A3006 NOSIG=
201510181500 METAR MROC 181500Z 24008KT CAVOK 25/19 A3008 NOSIG=
201510181600 METAR MROC 181600Z 26009KT 9999 FEW040 BKN180 25/20 A3009 NOSIG=
201510181700 METAR MROC 181700Z 24008KT 9999 FEW035 BKN120 26/20 A3007 NOSIG=
201510181800 METAR MROC 181800Z 23008KT 9999 SCT035 SCT120 26/21 A3005 NOSIG=
201510181900 METAR MROC 181900Z 24008KT 9999 SCT035 BKN120 25/20 A3003 NOSIG=
201510182000 METAR MROC 182000Z 25008KT 9999 FEW020TCU SCT035 SCT120 25/21 A3001 NOSIG=
201510182100 METAR MROC 182100Z 24011KT 9999 VCSH FEW020TCU SCT035 BKN100 25/20 A3000 BECMG RA=
201510182200 METAR MROC 182200Z 25010KT 9999 -TSRA FEW015CB SCT020TCU BKN080 24/20 A3000 NOSIG=
201510182300 METAR MROC 182300Z 06005KT 5000 2000N TSRA FEW010CB SCT020 BKN080 22/19 A3002 NOSIG=
201510190000 METAR MROC 190000Z 29004KT 5000 2000SW TSRA BR FEW005 SCT010CB BKN050 20/19 A3006 NOSIG=
201510190100 METAR MROC 190100Z 00000KT 8000 -RA VCTS VCFG FEW005 SCT015 BKN100 20/19 A3008 RETS NOSIG=
201510190200 METAR MROC 190200Z 29005KT 9999 -RA BCFG SCT020 BKN100 21/20 A3010 NOSIG=
201510190300 METAR MROC 190300Z VRB02KT 9999 BCFG FEW030 BKN100 20/20 A3010 NOSIG=
201510190400 METAR MROC 190400Z 18001KT 9999 -DZ FEW020 BKN100 20/19 A3009 NOSIG=
201510190500 METAR MROC 190500Z 34002KT 9999 FEW020 BKN100 21/20 A3008 NOSIG=
201510190600 METAR MROC 190600Z 07003KT 9999 FEW020 SCT100 20/19 A3007 NOSIG=
201510190700 METAR MROC 190700Z 08003KT 9999 FEW020 SCT100 20/19 A3004 NOSIG=
201510190800 METAR MROC 190800Z 06005KT CAVOK 20/19 A3002 NOSIG=
201510190900 METAR MROC 190900Z 04005KT CAVOK 20/18 A3002 NOSIG=
201510191000 METAR MROC 191000Z 03004KT CAVOK 19/17 A3001 NOSIG=
201510191100 METAR MROC 191100Z 08004KT CAVOK 20/17 A3001 NOSIG=
201510191200 METAR MROC 191200Z 06005KT CAVOK 20/17 A3002 NOSIG=
201510191300 METAR MROC 191300Z 06009KT CAVOK 23/18 A3003 NOSIG=
201510191400 METAR MROC 191400Z 09008KT CAVOK 26/19 A3004 BECMG 22006KT=
201510191500 METAR MROC 191500Z 11016KT CAVOK 27/18 A3004 NOSIG=
201510191600 METAR MROC 191600Z 24011KT 9999 FEW035 SCT250 27/21 A3004 NOSIG=
201510191700 METAR MROC 191700Z 24013KT 9999 SCT035 SCT250 27/21 A3003 NOSIG=
201510191800 METAR MROC 191800Z 23014KT 9999 SCT035 SCT100 27/21 A3001 NOSIG=
201510191900 METAR MROC 191900Z 24013KT 9999 -SHRA FEW020TCU FEW030 SCT100 26/21 A2998 NOSIG=
201510192000 METAR MROC 192000Z 25010KT 9999 FEW020TCU SCT030 BKN100 26/21 A2997 NOSIG=
201510192100 METAR MROC 192100Z 24006KT 9999 -RA VCTS VCSH FEW010 FEW015CB SCT025 25/22 A2995 BECMG 5000 SHRA=
201510192200 METAR MROC 192200Z 22005KT 9999 -RA VCTS VCSH FEW010 FEW015CB SCT025 24/21 A2996 BECMG SHRA BKN025=
201510192300 METAR MROC 192300Z 23004KT 5000 2000N SHRA SCT015CB BKN025 23/21 A2997 NOSIG=
201510200000 METAR MROC 200000Z 25004KT 5000 2000E -RA BR FEW003 SCT006 BKN015 22/21 A2997 NOSIG=
201510200100 METAR MROC 200100Z 24002KT 7000 3000NW -DZ BCFG FEW003 SCT006 BKN015 22/21 A3000 NOSIG=
201510200200 METAR MROC 200200Z 34004KT 4000 RA BR FEW010 BKN025 22/21 A3002 BECMG 7000=
201510200300 METAR MROC 200300Z 26003KT 5000 TS BR SCT010CB BKN025 21/20 A3006 RERA BECMG 3000=
201510200400 METAR MROC 200400Z 32002KT 9999 BCFG SCT010 BKN100 21/20 A3004 RETS NOSIG=
201510200500 METAR MROC 200500Z 00000KT 9999 BCFG SCT010 BKN100 21/20 A3002 NOSIG=
201510200600 METAR MROC 200600Z 00000KT 9999 4000SW BCFG SCT010 SCT100 21/19 A3002 NOSIG=
201510200700 METAR MROC 200700Z 00000KT 0300 FG VV/// 20/19 A3002 NOSIG=
201510200800 METAR MROC 200800Z 06003KT 0300 FG VV/// 20/19 A2999 NOSIG=
201510200900 METAR MROC 200900Z 06005KT CAVOK 19/18 A2996 NOSIG=
201510201000 METAR MROC 201000Z 06007KT CAVOK 21/17 A2997 NOSIG=
201510201100 METAR MROC 201100Z 00000KT CAVOK 19/17 A2998 NOSIG=
201510201200 METAR MROC 201200Z 34004KT 9999 BCFG SCT008 BKN025 20/18 A3003 NOSIG=
201510201300 METAR MROC 201300Z 02004KT 9999 SCT010 SCT200 22/19 A3004 NOSIG=
201510201400 METAR MROC 201400Z 10003KT 9999 FEW020 BKN300 25/19 A3005 NOSIG=
201510201500 METAR MROC 201500Z 04004KT CAVOK 27/19 A3005 BECMG 20006KT=
201510201520 METAR MROC 301500Z 09005KT CAVOK 26/17 A3006 NOSIG=
201510201600 METAR MROC 201600Z 00604KT CAVOK 29/18 A3003 BECMG 20007KT=
201510201640 METAR MROC 201640Z 23010KT CAVOK 28/21 A3001 NOSIG=
201510201700 METAR MROC 201700Z 23010KT 9999 SCT050 BKN300 27/21 A3001 NOSIG=
201510201800 METAR MROC 201800Z 24011KT 9999 FEW020TCU SCT040 27/21 A2999 NOSIG=
201510201900 METAR MROC 201900Z 24008KT 9999 SHRA VCTS FEW015CB SCT015 25/21 A2996 BECMG TSRA=
201510201920 METAR MROC 201920Z 24006KT 9999 -TSRA SCT15CB SCT020 25/21 A2995 NOSIG=
201510202000 METAR MROC 202000Z 02004KT 5000 TSRA SCT020 BKN030 23/20 A2995 BECMG 3000=
201510202100 METAR MROC 202100Z 29006KT 5000 -RA BR FEW003 SCT0145 OVC100 22/20 A2994 BECMG BKN010=
201510202200 METAR MROC 202200Z 28005KT 8000 VCFG FEW003 SCT020 OVC100 22/20 A2995 NOSIG=
201510202300 METAR MROC 202300Z 31004KT 8000 VCFG FEW004 SCT025 OVC100 22/20 A2996 BECMG RA=
201510210000 METAR MROC 210000Z 31003KT 9999 FEW004 SCT025 BKN100 22/20 A2997 NOSIG=
201510210100 METAR MROC 210100Z 29003KT 9999 -RA SCT025 OVC100 22/20 A3000 NOSIG=
201510210200 METAR MROC 210200Z 00000KT 9999 -RA SCT025 OVC100 22/20 A3002 NOSIG=
201510210300 METAR MROC 210300Z 02002KT 9999 SCT025 OVC100 22/20 A3003 NOSIG=
201510210400 METAR MROC 210400Z 07003KT 9999 SCT025 BKN100 21/20 A3004 NOSIG=
201510210500 METAR MROC 210500Z VRB02KT 9999 SCT025 BKN100 21/20 A3004 NOSIG=
201510210600 METAR MROC 210600Z 10003KT 9999 FEW025 BKN100 21/20 A3002 NOSIG=
201510210700 METAR MROC 210700Z 04003KT 9999 FEW025 BKN100 21/19 A3000 NOSIG=
201510210800 METAR MROC 210800Z VRB02KT 9999 BCFG FEW025 BKN100 21/20 A2999 NOSIG=
201510210900 METAR MROC 210900Z 17003KT 9999 BCFG FEW001 SCT100 21/20 A2998 NOSIG=
201510211000 METAR MROC 211000Z VRB02KT 0500 FG VV/// 21/20 A3000 NOSIG=
201510211100 METAR MROC 211100Z 11004KT 9999 BCFG FEW001 SCT250 20/19 A2999 NOSIG=
201510211200 METAR MROC 211200Z 06004KT CAVOK 20/19 A3001 NOSIG=
201510211300 METAR MROC 211300Z 08006KT CAVOK 23/19 A3003 NOSIG=
201510211400 METAR MROC 211400Z 11005KT CAVOK 26/19 A3007 NOSIG=
201510211500 METAR MROC 211500Z 13003KT 9999 FEW035 SCT250 28/18 A3008 NOSIG=
201510211600 METAR MROC 211600Z 22010KT 9999 SCT035 SCT250 27/20 A3007 NOSIG=
201510211700 METAR MROC 211700Z 24010KT 9999 SCT035 SCT250 26/21 A3005 NOSIG=
201510211800 METAR MROC 211800Z 25012KT 9999 SCT030TCU SCT250 26/20 A3002 NOSIG=
201510211900 METAR MROC 211900Z 25008KT 9999 SCT025TCU BKN110 25/20 A2999 NOSIG=
201510212000 METAR MROC 212000Z 26008KT 8000 RA FEW010TCU SCT020 OVC100 24/21 A2997 NOSIG=
201510212100 METAR MROC 212100Z 25008KT 8000 VCFG FEW003 SCT020 OVC100 23/20 A2997 NOSIG=
201510212200 METAR MROC 212200Z 28004KT 8000 VCFG FEW003 SCT030 OVC100 23/20 A2999 NOSIG=
201510212300 METAR MROC 212300Z 25003KT 9999 3000N BR FEW003 SCT030 BKN100 23/20 A2998=
201510220000 METAR MROC 220000Z 00000KT 9999 SCT020 BKN100 23/20 A3000=
201510220100 METAR MROC 220100Z 12002KT 9999 DZ SCT020 BKN100 22/21 A3002=
201510220200 METAR MROC 220200Z 10006KT 9999 FEW020 BKN100 22/17 A3005=
201510220300 METAR MROC 220300Z 15002KT 9999 FEW030 SCT100 22/18 A3009=
201510220400 METAR MROC 220400Z 03004KT CAVOK 21/19 A3008 NOSIG=
201510220500 METAR MROC 220500Z 06003KT CAVOK 21/18 A3004 NOSIG=
201510220600 METAR MROC 220600Z 10004KT CAVOK 20/18 A3001 NOSIG=
201510220700 METAR MROC 220700Z 05005KT CAVOK 21/17 A2998 NOSIG=
201510220800 METAR MROC 220800Z 06005KT CAVOK 20/16 A2996 NOSIG=
201510220900 METAR MROC 220900Z 04005KT CAVOK 20/16 A2997 NOSIG=
201510221000 METAR MROC 221000Z 05005KT CAVOK 20/16 A2996 NOSIG=
201510221100 METAR MROC 221100Z 07005KT CAVOK 21/16 A2997 NOSIG=
201510221200 METAR MROC 221200Z 07006KT CAVOK 21/17 A2999 NOSIG=
201510221300 METAR MROC 221300Z 04006KT CAVOK 24/18 A3000 NOSIG=
201510221400 METAR MROC 221400Z 10008KT CAVOK 26/17 A3002 NOSIG=
201510221500 METAR MROC 221500Z 09010KT 9999 FEW040 27/18 A3005 NOSIG=
201510221600 METAR MROC 221600Z 09008KT 9999 FEW040 28/18 A3004 NOSIG=
201510221700 METAR MROC 221700Z 09009KT 9999 FEW030 SCT200 27/17 A3001 NOSIG=
201510221800 METAR MROC 221800Z 08008KT 9999 FEW030 BKN200 27/17 A2998 NOSIG=
201510221900 METAR MROC 221900Z 08004KT 9999 FEW030 BKN200 29/17 A2995 NOSIG=
201510222000 METAR MROC 222000Z 25009KT 9999 FEW030 BKN200 27/21 A2993 NOSIG=
201510222100 METAR MROC 222100Z 24010KT 9999 VCSH SCT030 BKN250 26/21 A2992 NOSIG=
201510222200 METAR MROC 222200Z 25008KT 8000 BKN030 SCT250 24/22 A2993 NOSIG=
201510222300 METAR MROC 222300Z 24006KT 6000 2800SW -TSRA BCFG SCT008CB BKN020 23/22 A2995 BECMG 3000 BR=
201510230000 METAR MROC 230000Z 16004KT 3000 TSRA SCT008CB BKN020 21/20 A2998 NOSIG=
201510230100 METAR MROC 230100Z 04003KT 9999 3000SW -RA SCT010 BKN030 22/20 A3000 NOSIG=
201510230200 METAR MROC 230200Z 14002KT 9999 -RA SCT010 BKN100 21/19 A3004 NOSIG=
201510230300 METAR MROC 230300Z 33003KT 9999 SCT010 BKN100 22/20 A3004 NOSIG=
201510230400 METAR MROC NIL=
201510230500 METAR MROC 230500Z 12003KT 3000 BR SCT001 SCT020 21/19 A3003 BECMG 5000 BR=
201510230600 METAR MROC 230600Z 09003KT 9999 4500W BCFG 20/19 A3001 NOSIG=
201510230700 METAR MROC 230700Z 08003KT 9999 FEW030 20/18 A2998 NOSIG=
201510230800 METAR MROC 230800Z 05004KT 9999 FEW035 19/17 A2996 NOSIG=
201510230900 METAR MROC 230900Z 06005KT 9999 FEW030 20/17 A2995 NOSIG=
201510230930 METAR MROC 230930Z 06005KT 9999 FEW030 20/17 A2995 NOSIG=
201510231005 METAR MROC 231005Z 05004KT 9999 FEW030 19/17 A2996 NOSIG=
201510231100 METAR MROC 231100Z 06004KT CAVOK 19/16 A2997 NOSIG=
201510231200 METAR MROC 231200Z 06004KT 9999 FEW040 20/17 A2998 NOSIG=
201510231300 METAR MROC 231300Z 07008KT CAVOK 24/18 A3002 NOSIG=
201510231400 METAR MROC 231400Z 22008KT CAVOK 25/19 A3002 NOSIG=
201510231500 METAR MROC 231500Z 24009KT 9999 FEW040 SCT250 25/19 A3002 NOSIG=
201510231600 METAR MROC 231600Z 25009KT 9999 SCT035 26/20 A3003 NOSIG=
201510231700 METAR MROC 231700Z 26011KT 9999 SCT035 27/20 A3000 NOSIG=
201510231800 METAR MROC 231800Z 24014KT 9999 BKN025TCU SCT250 27/21 A2997 NOSIG=
201510231900 METAR MROC 231900Z 24014KT 9999 VCSH FEW020TCU BKN035 26/21 A2994 NOSIG=
201510232000 METAR MROC 232000Z 26013KT 8000 3000SW -RA VCFG FEW005 SCT020TCU BKN035 22/21 A2994 NOSIG=
201510232100 METAR MROC 232100Z 35011KT 3000 TSRA FEW005 SCT010CB BKN025 21/19 A2995 NOSIG=
201510232200 METAR MROC 232200Z 33009KT 9999 FEW010 SCT020 BKN060 22/19 A2995 RETSRA NOSIG=
201510232300 METAR MROC 232300Z 33002KT 9999 FEW015 SCT030 BKN120 22/19 A2998 NOSIG=
201510232354 METAR MROC 240000Z 11002KT 9999 FEW003 SCT015 BKN100 22/20 A2999 BECMG 1500 BR=
201510240000 METAR MROC 240000Z 11002KT 9999 FEW003 SCT015 BKN100 22/20 A2999 BECMG 1500 BR=
201510240100 METAR MROC 240100Z 00000KT 9999 BCFG FEW005 SCT025 BKN100 22/20 A3001 NOSIG=
201510240200 METAR MROC 240200Z 25003KT 9999 BCFG FEW025 SCT120 21/20 A3003 NOSIG=
201510240300 METAR MROC 240300Z 07006KT CAVOK 21/19 A3003 NOSIG=
201510240400 METAR MROC 240400Z 06003KT CAVOK 21/19 A3002 NOSIG=
201510240500 METAR MROC 240500Z 02004KT CAVOK 20/18 A3003 NOSIG=
201510240600 METAR MROC 240600Z 11004KT CAVOK 20/18 A3002 NOSIG=
201510240700 METAR MROC 240700Z 06002KT CAVOK 20/18 A2999 NOSIG=
201510240800 METAR MROC 240800Z 09002KT CAVOK 20/18 A2997 NOSIG=
201510240900 METAR MROC 240900Z 06003KT CAVOK 21/19 A2997 NOSIG=
201510241000 METAR MROC 241000Z 05003KT CAVOK 21/19 A2996 NOSIG=
201510241100 METAR MROC 241100Z 05003KT CAVOK 20/18 A2997 NOSIG=
201510241200 METAR MROC 241200Z 05005KT CAVOK 20/17 A2999 NOSIG=
201510241300 METAR MROC 241300Z 12003KT CAVOK 22/19 A3002 BECMG 24006KT=
201510241400 METAR MROC 241400Z 23005KT CAVOK 25/19 A3004 NOSIG=
201510241500 METAR MROC 241500Z 24009KT 9999 FEW030 BKN200 24/20 A3004 NOSIG=
201510241600 METAR MROC 241600Z 21008KT 9999 FEW030 BKN200 26/20 A3004 NOSIG=
201510241700 METAR MROC 241700Z 24010KT 9999 FEW030 BKN200 26/20 A3002 NOSIG=
201510241800 METAR MROC 241800Z 25011KT 9999 FEW025TCU BKN200 26/20 A3000 NOSIG=
201510241900 METAR MROC 241900Z 32009KT 9000 VCTS VCFG FEW015CB FEW025TCU SCT120 BKN200 24/20 A2998 NOSIG=
201510242000 METAR MROC 242000Z 26007KT 9999 FEW015 SCT030 BKN100 24/20 A2995 NOSIG=
201510242100 METAR MROC 242100Z 23006KT 9999 RA VCSH FEW010TCU BKN025 23/21 A2994 BECMG SHRA=
201510242200 METAR MROC 242200Z 24007KT 9999 SHRA FEW009 SCT015TCU BKN030 22/20 A2995 NOSIG=
201510242300 METAR MROC 242300Z 27004KT 9999 RA VCTS FEW015 FEW020CB BKN100 22/20 A2997 BECMG SHRA=
201510250000 METAR MROC 250000Z 02002KT 9999 VCTS FEW015CB BKN080 22/20 A2999 NOSIG=
201510250100 METAR MROC 250100Z 08003KT 9999 4000SW RA FEW030 BKN080 21/20 A3001 NOSIG=
201510250200 METAR MROC 250200Z 00001KT 9999 4500SW -DZ BCFG NSC 22/20 A3003 NOSIG=
201510250300 METAR MROC 250300Z 24000KT 9999 3000SW BCFG FEW001 SCT015 BKN100 21/20 A3004 BECMG 5000 BR=
201510250400 METAR MROC 250400Z 00000KT 3000 1500SW BR SCT001 BKN020 21/20 A3004 NOSIG=
201510250500 METAR MROC 250500Z 00000KT 4000 1500SW BR SCT004 BKN100 21/20 A3002 NOSIG=
201510250600 METAR MROC 250600Z 00000KT 0800 FG VV/// 21/20 A3000 BECMG 07005KT 9999=
201510250700 METAR MROC 250700Z 06002KT 9999 4000SW BCFG FEW002 SCT120 21/19 A2997 NOSIG=
201510250752 METAR MROC 270800Z 01003KT 9999 4000SW BCFG FEW005 SCT250 20/18 A2995 NOSIG=
201510250800 METAR MROC NIL=
201510250900 METAR MROC 250900Z 02003KT 9999 4000SW BCFG SCT004 SCT100 20/18 A2995 NOSIG=
201510251000 METAR MROC 251000Z 09004KT 9999 BCFG SCT010 BKN100 19/17 A2997 NOSIG=
201510251100 METAR MROC 251100Z 06003KT 9999 BCFG SCT010 BKN100 20/18 A2999 NOSIG=
201510251200 METAR MROC 251200Z 04004KT 9999 4000SW BCFG SCT006 BKN020 20/18 A3002 NOSIG=
201510251300 METAR MROC 251300Z 11004KT 9999 FEW040 BKN250 22/19 A3003 NOSIG=
201510251400 METAR MROC 251400Z 08003KT 9999 FEW040 BKN250 25/19 A3006 BECMG 20006KT=
201510251500 METAR MROC 251500Z 09002KT 9999 FEW030 BKN250 27/18 A3006 BECMG 20007KT=
201510251600 METAR MROC 251600Z 26003KT 9999 SCT030 SCT250 27/19 A3005 NOSIG=
201510251700 METAR MROC 251700Z 25006KT 9999 SCT030 BKN250 27/19 A3002 NOSIG=
201510251800 METAR MROC 251800Z 24007KT 9999 FEW025TCU FEW045 BKN200 27/20 A2998 NOSIG=
201510251900 METAR MROC 251900Z 25007KT 9999 SCT025TCU SCT300 28/20 A2995 BECMG SHRA=
201510252000 METAR MROC 252000Z 22009KT 9999 4500SW VCSH BCFG SCT020TCU SCT300 28/21 A2993 BECMG SHRA=
201510252100 METAR MROC 252100Z 25007KT 8000 RA SCT020TCU SCT130 25/21 A2993 NOSIG=
201510252200 METAR MROC 252200Z 26008KT 2000 TSRA SCT015CB OVC100 22/21 A2996 NOSIG=
201510252300 METAR MROC 252300Z 24010KT 3000 -RA BR SCT015 OVC100 21/20 A2997 NOSIG=
201510260000 METAR MROC 260000Z 28005KT 5000 -RA BR SCT015 OVC100 21/20 A2999 NOSIG=
201510260100 METAR MROC 260100Z 29003KT 5000 -RA BR SCT015 OVC100 21/20 A3001 NOSIG=
201510260200 METAR MROC 260200Z 04004KT 8000 VCFG SCT020 OVC100 21/20 A3003 NOSIG=
201510260300 METAR MROC 260300Z 08002KT 9999 FEW030 BKN100 21/20 A3004 NOSIG=
201510260400 METAR MROC 260400Z 14003KT 9999 FEW030 BKN100 21/19 A3002 NOSIG=
201510260500 METAR MROC 260500Z VRB02KT 9999 FEW030 BKN100 21/19 A3002 NOSIG=
201510260600 METAR MROC 260600Z VRB02KT 9999 FEW001 BKN100 21/19 A3001 NOSIG=
201510260700 METAR MROC 260700Z 00000KT 9999 FEW001 BKN100 20/19 A2999 NOSIG=
201510260800 METAR MROC 260800Z 03003KT 9999 FEW030 BKN100 20/19 A3000 NOSIG=
201510260900 METAR MROC 260900Z 06006KT 9999 FEW030 BKN100 20/18 A2998 NOSIG=
201510261000 METAR MROC 261000Z 09003KT 9999 FEW030 BKN100 19/17 A2998 NOSIG=
201510261100 METAR MROC 261100Z 07005KT 9999 FEW030 SCT120 18/16 A2998 NOSIG=
201510261200 METAR MROC 261200Z 07007KT CAVOK 19/16 A3000 NOSIG=
201510261300 METAR MROC 261300Z 00000KT CAVOK 21/17 A3004 NOSIG=
201510261400 METAR MROC 261400Z 00000KT CAVOK 24/18 A3004 NOSIG=
201510261500 METAR MROC 261500Z 23005KT 9999 FEW035 BKN250 24/18 A3007 NOSIG=
201510261600 METAR MROC 261600Z 24005KT 9999 FEW035 BKN250 25/18 A3007 NOSIG=
201510261700 METAR MROC 261700Z 24005KT 9999 SCT035 BKN250 26/19 A3005 NOSIG=
201510261800 METAR MROC 261800Z 24008KT 9999 SCT030 BKN250 26/19 A3002 NOSIG=
201510261900 METAR MROC 261900Z 22008KT 9999 SCT030TCU BKN250 25/19 A3000 NOSIG=
201510262000 METAR MROC 262000Z 24010KT 9999 SCT030TCU BKN250 25/20 A2998 NOSIG=
201510262100 METAR MROC 262100Z 22010KT 9999 SCT030 BKN200 24/19 A2997 NOSIG=
201510262200 METAR MROC 262200Z 24010KT 9999 SCT030 BKN120 22/19 A2998 NOSIG=
201510262300 METAR MROC 262300Z 25010KT 9999 SCT030 BKN120 21/19 A3000 NOSIG=
201510270000 METAR MROC 270000Z 26008KT 9999 FEW030 BKN120 21/19 A3002 NOSIG=
201510270100 METAR MROC 270100Z 27004KT 9999 BCFG FEW005 BKN120 21/20 A3006 NOSIG=
201510270200 METAR MROC 270200Z 14001KT 9999 RA FEW030 BKN100 21/19 A3009 NOSIG=
201510270300 METAR MROC 270300Z 36002KT 9999 FEW030 BKN100 21/19 A3010 NOSIG=
201510270400 METAR MROC 270400Z 15002KT 9999 FEW010 BKN100 20/19 A3010 NOSIG=
201510270500 METAR MROC 270500Z 06001KT 9999 4000SW -DZ BCFG FEW008 BKN100 20/19 A3009 NOSIG=
201510270600 METAR MROC 270600Z 07003KT CAVOK 20/18 A3005 NOSIG=
201510270700 METAR MROC 270700Z 04003KT CAVOK 20/18 A3003 NOSIG=
201510270800 METAR MROC 270800Z 07003KT CAVOK 20/18 A3002 NOSIG=
201510270900 METAR MROC 270900Z 06005KT CAVOK 20/17 A3002 NOSIG=
201510271000 METAR MROC 271000Z 07005KT CAVOK 20/17 A3002 NOSIG=
201510271100 METAR MROC 271100Z 07006KT CAVOK 20/17 A3002 NOSIG=
201510271200 METAR MROC 271200Z 06006KT CAVOK 20/17 A3002 NOSIG=
201510271300 METAR MROC 271300Z 07007KT CAVOK 23/17 A3004 NOSIG=
201510271400 METAR MROC 271400Z 10010KT CAVOK 25/17 A3004 NOSIG=
201510271500 METAR MROC 271500Z 10008KT CAVOK 26/17 A3006 NOSIG=
201510271600 METAR MROC 271600Z 18006KT CAVOK 29/18 A3005 BECMG 24006KT=
201510271700 METAR MROC 271700Z 26010KT 9999 FEW045 27/20 A3003 NOSIG=
201510271800 METAR MROC 271800Z 25010KT 9999 VCSH FEW020TCU SCT035 27/21 A3001 NOSIG=
201510271900 METAR MROC 271900Z 24009KT 9999 VCSH FEW015CB SCT035 25/20 A2999 BECMG TSRA=
201510272000 METAR MROC 272000Z 24009KT 9999 4000NE -RA SCT010CB BKN030 23/21 A2998 NOSIG=
201510272100 METAR MROC 272100Z 24009KT 8000 -RA VCFG FEW003 BKN030 22/20 A2996 NOSIG=
201510272200 METAR MROC 272200Z 22008KT 3000 TS RA FEW002 FEW010CB BKN030 21/19 A2999 BECMG 1000=
201510272300 METAR MROC 272300Z 21002KT 3000 RA BR FEW002 BKN030 20/19 A3002 NOSIG=
201510280000 METAR MROC 280000Z 30003KT 5000 -RA BR FEW002 BKN030 21/19 A3004 NOSIG=
201510280100 METAR MROC 280100Z 35003KT 9999 -RA SCT030 BKN100 20/19 A3005 NOSIG=
201510280200 METAR MROC 280200Z 00000KT 9999 -RA FEW030 BKN100 20/19 A3005 NOSIG=
201510280300 METAR MROC 280300Z 29003KT CAVOK 20/19 A3006 NOSIG=
201510280400 METAR MROC 280400Z 00000KT CAVOK 20/18 A3007 NOSIG=
201510280500 METAR MROC 280500Z 12003KT CAVOK 19/18 A3007 NOSIG=
201510280600 METAR MROC 280600Z 07004KT CAVOK 19/18 A3007 NOSIG=
201510280700 METAR MROC 280700Z 07004KT CAVOK 19/17 A3004 NOSIG=
201510280800 METAR MROC 280800Z 06003KT CAVOK 19/17 A3002 NOSIG=
201510280900 METAR MROC 280900Z 06003KT CAVOK 18/16 A3001 NOSIG=
201510281000 METAR MROC 281000Z 06004KT CAVOK 18/16 A3001 NOSIG=
201510281100 METAR MROC 281100Z 09004KT CAVOK 17/16 A3002 NOSIG=
201510281200 METAR MROC 281200Z 08004KT CAVOK 18/16 A3004 NOSIG=
201510281300 METAR MROC 281300Z 02003KT CAVOK 23/17 A3008 NOSIG=
201510281400 METAR MROC 281400Z 26004KT CAVOK 24/18 A3010 NOSIG=
201510281500 METAR MROC 281500Z 24003KT FEW045 26/19 A3012 NOSIG=
201510281600 METAR MROC 281600Z 25007KT 9999 FEW040 25/19 A3010 NOSIG=
201510281700 METAR MROC 281700Z 24007KT 9999 SCT040 26/19 A3009 NOSIG=
201510281800 METAR MROC 281800Z 24008KT 9999 FEW020TCU SCT035 27/20 A3005 NOSIG=
201510281900 METAR MROC 281900Z 25009KT 9999 FEW015TCU SCT035 27/20 A3003 NOSIG=
201510282000 METAR MROC 282000Z 24011KT 9999 VCSH FEW010CB SCT035 26/20 A3000 BECMG RA=
201510282100 METAR MROC 282100Z 24010G20KT 8000 3000S SHRA FEW010CB SCT020TCU BKN035 23/20 A3000 BECMG 5000 -TSRA=
201510282200 METAR MROC 282200Z 21011KT 2000 -TSRA FEW005 SCT010CB BKN030 21/20 A3002 NOSIG=
201510282300 METAR MROC 282300Z 31004KT 9999 FEW015 SCT035 BKN100 21/20 A3003 NOSIG=
201510282353 METAR MROC 290000Z 03004KT 9999 FEW030 BKN100 21/19 A3002 NOSIG=
201510290000 METAR MROC 290000Z 03004KT 9999 FEW030 BKN100 21/19 A3002 NOSIG=
201510290100 METAR MROC 290100Z 00000KT 9999 FEW030 BKN100 21/18 A3005 NOSIG=
201510290200 METAR MROC 290200Z 07003KT 9999 FEW030 BKN100 21/19 A3009 NOSIG=
201510290300 METAR MROC 290300Z 04006KT 9999 FEW030 BKN100 21/19 A3009 NOSIG=
201510290400 METAR MROC 290400Z 23003KT CAVOK 21/19 A3010 NOSIG=
201510290500 METAR MROC 290500Z 12002KT 5000 BR FEW002 SCT120 20/19 A3008 NOSIG=
201510290600 METAR MROC 290600Z 08003KT CAVOK 20/19 A3007 NOSIG=
201510290700 METAR MROC 290700Z 01002KT CAVOK 19/18 A3003 NOSIG=
201510290800 METAR MROC 290800Z 08004KT CAVOK 19/17 A3002 NOSIG=
201510290900 METAR MROC 290900Z 00000KT CAVOK 18/16 A3002 NOSIG=
201510291000 METAR MROC 291000Z 07003KT CAVOK 18/16 A3002 NOSIG=
201510291100 METAR MROC 291100Z 04007KT CAVOK 18/16 A3002 NOSIG=
201510291200 METAR MROC 291200Z 07006KT CAVOK 19/15 A3004 NOSIG=
201510291300 METAR MROC 291300Z 07011KT CAVOK 22/16 A3005 NOSIG=
201510291400 METAR MROC 291400Z 09010KT CAVOK 25/17 A3006 NOSIG=
201510291500 METAR MROC 291500Z 15010KT CAVOK 28/18 A3007 BECMG 22006KT=
201510291600 METAR MROC 291600Z 14013KT 9999 FEW045 SCT250 29/16 A3007 BECMG 22006KT=
201510291700 METAR MROC 291700Z 26007KT 9999 FEW030TCU SCT250 30/17 A3007 NOSIG=
201510291800 METAR MROC 291800Z 18009KT 9999 VCSH FEW025TCU SCT250 26/20 A3004 NOSIG=
201510291900 METAR MROC 291900Z 18010KT 9999 FEW025TCU FEW035 SCT100 25/19 A3000 NOSIG=
201510292000 METAR MROC 292000Z 25012KT 9999 FEW035 SCT100 BKN250 26/21 A2999 NOSIG=
201510292100 METAR MROC 292100Z 25009KT 9999 VCSH FEW015CB SCT030 BKN200 24/21 A2999 BECMG 5000 TSRA=
201510292200 METAR MROC 292200Z 21008KT 9999 2500NW SHRA FEW004 SCT025 BKN100 21/29 A3001 RETS NOSIG=
201510292300 METAR MROC 292300Z 35005KT 9999 RA VCSH FEW008 FEW010CB SCT080 BKN200 21/19 A3001 NOSIG=
201510300000 METAR MROC 300000Z 23002KT 9999 FEW010 SCT100 BKN200 21/18 A3001 RERA NOSIG=
201510300100 METAR MROC 300100Z 03002KT CAVOK 21/29 A3004 NOSIG=
201510300200 METAR MROC 300200Z 01003KT CAVOK 21/19 A3006 NOSIG=
201510300300 METAR MROC 300300Z 01002KT CAVOK 21/18 A3008 NOSIG=
201510300400 METAR MROC 300400Z 10002KT CAVOK 20/18 A3007 NOSIG=
201510300500 METAR MROC 300500Z 08004KT CAVOK 19/18 A3006 NOSIG=
201510300600 METAR MROC 300600Z 04002KT CAVOK 20/17 A3005 NOSIG=
201510300700 METAR MROC 300700Z 05006KT CAVOK 20/17 A3002 NOSIG=
201510300800 METAR MROC 300800Z 05005KT CAVOK 19/17 A3000 NOSIG=
201510300900 METAR MROC 300900Z 03004KT CAVOK 19/16 A2999 NOSIG=
201510301000 METAR MROC 301000Z 03003KT CAVOK 20/16 A2999 NOSIG=
201510301100 METAR MROC 301100Z 01003KT CAVOK 20/16 A2999 NOSIG=
201510301200 METAR MROC 301200Z 31003KT CAVOK 20/17 A3002 NOSIG=
201510301300 METAR MROC 301300Z 21003KT CAVOK 25/17 A3005 NOSIG=
201510301400 METAR MROC 301400Z 04003KT CAVOK 25/17 A3006 NOSIG=
201510301500 METAR MROC 301500Z 09005KT CAVOK 26/17 A3006 NOSIG=
201510301600 METAR MROC 301600Z 12006KT CAVOK 27/16 A3006 BECMG 24006KT=
201510301700 METAR MROC 301700Z 22007KT 9999 SCT045 27/19 A3005 NOSIG=
201510301800 METAR MROC 301800Z 24009KT 9999 FEW020TCU BKN045 26/20 A3002 BECMG TSRA=
201510301900 METAR MROC 301900Z 03008KT 2000 TSRA SCT015CB BKN030 23/20 A3000 NOSIG=
201510302000 METAR MROC 302000Z 02002KT 9999 VCSH FEW012CB BKN025 22/20 A2999 NOSIG=
201510302100 METAR MROC 302100Z 19003KT 9999 4000SW VCSH BCFG SCT012 SCT040 22/19 A3000 NOSIG=
201510302200 METAR MROC 302200Z 24003KT 4500 2000NW -RA FEW010 OVC040 21/20 A3000 BECMG 3000 BR BKN010=
201510302300 METAR MROC 302300Z 26003KT 8000 3000SW SHRA BCFG FEW010 FEW015TCU BKN040 21/20 A3003 BECMG 1000 BR BKN005=
201510310000 METAR MROC 310000Z 28005KT 9999 3000NW -DZ BCFG FEW009 SCT025 BKN100 21/20 A3003 RESHRA NOSIG=
201510310100 METAR MROC 310100Z 00003KT 9999 4000SW BCFG FEW008 SCT050 BKN100 21/19 A3004 NOSIG=
201510310200 METAR MROC 310200Z 10003KT CAVOK 20/19 A3005 NOSIG=
201510310300 METAR MROC 310300Z 05003KT CAVOK 20/18 A3005 NOSIG=
201510310400 METAR MROC 310400Z 03003KT CAVOK 20/18 A3005 NOSIG=
201510310500 METAR MROC 310500Z 06004KT CAVOK 19/18 A3006 NOSIG=
201510310600 METAR MROC 310600Z 09004KT CAVOK 19/18 A3004 NOSIG=
201510310700 METAR MROC 310700Z 05006KT CAVOK 19/17 A3002 NOSIG=
201510310800 METAR MROC 310800Z 05008KT CAVOK 18/16 A3000 NOSIG=
201510310900 METAR MROC 310900Z 07007KT CAVOK 19/16 A2999 NOSIG=
201510311000 METAR MROC 311000Z 03010KT CAVOK 19/16 A3001 NOSIG=
201510311100 METAR MROC 311100Z 03008KT CAVOK 19/16 A3001 NOSIG=
201510311200 METAR MROC 311200Z 06011KT CAVOK 20/16 A3002 NOSIG=
201510311300 METAR MROC 311300Z 07007KT CAVOK 23/17 A3005 NOSIG=
201510311400 METAR MROC 311400Z 11008KT CAVOK 25/17 A3006 NOSIG=
201510311500 METAR MROC 311500Z 11009KT CAVOK 26/17 A3007 NOSIG=
201510311600 METAR MROC 311600Z 11007KT 9999 FEW045 BKN200 28/18 A3007 NOSIG=
201510311700 METAR MROC 311700Z 09011KT 9999 FEW035 SCT050 BKN250 27/17 A3005 NOSIG=
201510311800 METAR MROC 311800Z 10007KT 9999 FEW025 BKN250 28/18 A3001 NOSIG=
201510311900 METAR MROC 311900Z 14007KT 9999 FEW025TCU FEW025 BKN200 29/17 A2997 BECMG 24007KT=
201510312000 METAR MROC 312000Z 13006KT 9999 FEW023TCU FEW030 SCT070 BKN200 28/17 A2997 NOSIG=
201510312100 METAR MROC 312100Z 11007KT 9999 FEW030 BKN200 27/16 A2996 NOSIG=
201510312200 METAR MROC 312200Z 15006KT 9999 FEW030 BKN200 26/17 A2997 BECMG 24007KT=
201510312300 METAR MROC 312300Z 25007KT 9999 2000SW BR FEW001 BKN200 23/21 A2999 NOSIG=
201511010000 METAR MROC 010000Z 27003KT 9999 BCFG FEW010 BKN200 22/20 A3002 NOSIG=
201511010100 METAR MROC 010100Z 29004KT 9999 FEW010 BKN200 22/20 A3005 NOSIG=
201511010200 METAR MROC 010200Z 36002KT CAVOK 21/19 A3006 NOSIG=
201511010300 METAR MROC 010300Z 11002KT CAVOK 21/19 A3008 NOSIG=
201511010400 METAR MROC 010400Z 01002KT CAVOK 21/19 A3008 NOSIG=
201511010500 METAR MROC 010500Z 09003KT CAVOK 20/18 A3008 NOSIG=
201511010600 METAR MROC 010600Z 07002KT CAVOK 19/17 A3006 NOSIG=
201511010700 METAR MROC 010700Z 14004KT CAVOK 19/17 A3004 NOSIG=
201511010800 METAR MROC 010800Z 09004KT CAVOK 18/17 A3002 NOSIG=
201511010900 METAR MROC 010900Z 09004KT CAVOK 18/16 A3001 NOSIG=
201511011000 METAR MROC 011000Z 07004KT CAVOK 18/16 A3001 NOSIG=
201511011100 METAR MROC 011100Z 08005KT CAVOK 18/16 A3002 NOSIG=
201511011200 METAR MROC 011200Z 07006KT CAVOK 18/16 A3004 NOSIG=
201511011300 METAR MROC 011300Z 07004KT CAVOK 21/17 A3006 NOSIG=
201511011400 METAR MROC 011400Z 12002KT CAVOK 26/18 A3007 NOSIG=
201511011500 METAR MROC 011500Z 28002KT 9999 FEW040 BKN200 27/17 A3007 NOSIG=
201511011600 METAR MROC 011600Z 24007KT 9999 FEW040 BKN200 26/19 A3007=
201511011700 METAR MROC 011700Z 24007KT 9999 SCT040 BKN200 27/19 A3004 NOSIG=
201511011800 METAR MROC 011800Z 23009KT 9999 SCT030 BKN250 26/20 A3002 NOSIG=
201511011900 METAR MROC NIL=
201511012000 METAR MROC 012000Z 25010KT 9999 SCT030 BKN250 26/20 A2997=
201511012100 METAR MROC 012100Z 25007KT -RA VCSH FEW015TCU SCT030 SCT250 24/20 A2996 NOSIG=
201511012200 METAR MROC 012200Z 22007KT 9999 SCT030 SCT200 25/20 A2997 NOSIG=
201511012300 METAR MROC 012300Z 23007KT 9999 VCSH SCT025 SCT200 22/19 A2999 NOSIG=
201511020000 METAR MROC 020000Z 27005KT 9999 SCT025 SCT200 22/19 A3001 NOSIG=
201511020100 METAR MROC 020100Z 27003KT 9999 SCT025 SCT200 22/19 A3004 NOSIG=
201511020200 METAR MROC 020200Z 27003KT 9999 FEW020 BKN100 22/19 A3007 NOSIG=
201511020300 METAR MROC 020300Z 23001KT 9999 4500SW BCFG FEW010 BKN040 21/20 A3007 NOSIG=
201511020400 METAR MROC 020400Z 23001KT 9999 4500SW BCFG FEW010 BKN040 21/20 A3007 NOSIG=
201511020500 METAR MROC 020500Z 25001KT 9999 4500SW BCFG FEW008 BKN025 21/20 A3006 NOSIG=
201511020600 METAR MROC 020600Z 00000KT 9999 FEW008 SCT020 BKN100 21/19 A3004 NOSIG=
201511020700 METAR MROC 020700Z 03002KT 9999 4000SW BCFG FEW001 20/18 A3001 NOSIG=
201511020800 METAR MROC 020800Z 05002KT 9999 4000SW BCFG FEW003 SCT070 19/17 A3000 NOSIG=
201511020900 METAR MROC 020900Z 07004KT 9999 4000SW BCFG FEW005 SCT100 18/17 A3000 NOSIG=
201511021000 METAR MROC 021000Z 07003KT CAVOK 18/16 A3000 NOSIG=
201511021100 METAR MROC 021100Z 04006KT CAVOK 18/16 A3000 NOSIG=
201511021200 METAR MROC 021200Z 05005KT CAVOK 19/15 A3002 NOSIG=
201511021300 METAR MROC 021300Z 06004KT CAVOK 22/17 A3003 NOSIG=
201511021400 METAR MROC 021400Z 09005KT CAVOK 25/17 A3005 NOSIG=
201511021500 METAR MROC 021500Z 25004KT CAVOK 26/19 A3006 NOSIG=
201511021600 METAR MROC 021600Z 23008KT CAVOK 26/18 A3004 NOSIG=
201511021700 METAR MROC 021700Z 23008KT 9999 FEW040 26/19 A3002 NOSIG=
201511021800 METAR MROC 021800Z 24009KT 9999 SCT035 26/20 A3000 NOSIG=
201511021900 METAR MROC 021900Z 24009KT 9999 FEW020TCU SCT035 26/17 A2996 NOSIG=
201511022000 METAR MROC 022000Z 25008KT 9999 FEW020TCU SCT035 27/18 A2994 NOSIG=
201511022100 METAR MROC 022100Z 25014KT 9999 FEW020TCU SCT035 BKN100 26/21 A2993 NOSIG=
201511022200 METAR MROC 022200Z 24012KT 9999 FEW010 FEW020TCU SCT030 BKN200 23/21 A2994 NOSIG=
201511022300 METAR MROC 022300Z 25006KT 9999 3000N FEW015 SCT030 BKN200 23/21 A2997 BECMG 5000 BR=
201511030000 METAR MROC 030000Z 25005KT 8000 3000SW SHRA VCFG FEW005 SCT015 BKN030 22/21 A3001 NOSIG=
201511030100 METAR MROC 030100Z 17004KT 9999 -RA VCTS FEW005 FEW010CB SCT020 BKN100 21/20 A3003 NOSIG=
201511030200 METAR MROC 030200Z 28003KT 9999 -RA FEW015 SCT030 BKN100 21/20 A3005 NOSIG=
201511030300 METAR MROC 030300Z 28003KT 9999 BCFG SCT015 BKN100 21/20 A3005 NOSIG=
201511030400 METAR MROC 030400Z 28002KT 9999 BCFG FEW010 BKN100 21/20 A3005 NOSIG=
201511030500 METAR MROC 030500Z 29003KT 9999 FEW010 BKN100 21/19 A3004 NOSIG=
201511030600 METAR MROC 030600Z 00000KT 9999 FEW020 BKN100 20/19 A3002 NOSIG=
201511030700 METAR MROC 030700Z 10002KT 9999 FEW020 20/19 A2997 NOSIG=
201511030800 METAR MROC 030800Z 01004KT CAVOK 19/17 A2995 NOSIG=
201511030900 METAR MROC 030900Z 09004KT CAVOK 19/17 A2995 NOSIG=
201511031000 METAR MROC 031000Z 05005KT CAVOK 19/16 A2997 NOSIG=
201511031100 METAR MROC 031100Z 08004KT CAVOK 18/16 A2998 NOSIG=
201511031200 METAR MROC 031200Z 04004KT CAVOK 19/16 A3000 NOSIG=
201511031300 METAR MROC 031300Z 02005KT CAVOK 23/16 A3003 BECMG 24006KT=
201511031400 METAR MROC 031400Z 29005KT CAVOK 25/17 A3004 NOSIG=
201511031500 METAR MROC 031500Z 22003KT CAVOK 28/16 A3002 NOSIG=
201511031600 METAR MROC 031600Z 25011KT 9999 FEW045 BKN250 27/20 A3001 NOSIG=
201511031700 METAR MROC 031700Z 24012KT 9999 SCT040 BKN250 26/19 A3000 NOSIG=
201511031800 METAR MROC 031800Z 24015KT 9999 FEW040 BKN250 26/20 A2997 NOSIG=
201511031900 METAR MROC 031900Z 25011KT 9999 SCT030 BKN250 26/20 A2995 NOSIG=
201511032000 METAR MROC 032000Z 25010KT 9999 -TSRA FEW015CB SCT020TCU 23/21 A2992 RESH NOSIG=
201511032100 METAR MROC 032100Z VRB02KT 9999 FEW020TCU SCT040 SCT200 23/18 A2992 RETSRA NOSIG=
201511032200 METAR MROC 032200Z 22004KT 9999 FEW007 FEW020TCU BKN025 22/20 A2993 BECMG 5000 RA BKN015=
201511032300 METAR MROC 032300Z 25004KT 9000 FEW007 SCT015TCU BKN020 22/20 A2996 BECMG BKN010=
201511040000 METAR MROC 040000Z 24004KT 9999 FEW007 BKN020 22/20 A2998 NOSIG=
201511040100 METAR MROC 040100Z 26005KT 9999 -DZ BCFG FEW005 BKN020 21/20 A2999 NOSIG=
201511040200 METAR MROC 040200Z VRB02KT 9999 VCFG FEW005 BKN030 21/20 A3002 NOSIG=
201511040300 METAR MROC 040300Z VRB02KT 9999 4500SW -DZ VCFG FEW005 BKN020 21/19 A3004 NOSIG=
201511040400 METAR MROC 040400Z 01005KT 9999 4500SW BCFG SCT010 BKN100 21/19 A3003 NOSIG=
201511040500 METAR MROC 040500Z 18003KT 0800 FG VV/// 20/19 A3002 NOSIG=
201511040600 METAR MROC 040600Z 00000KT 1300 BR SCT005 20/19 A3001 NOSIG=
201511040700 METAR MROC 040700Z 00000KT 0800 FG VV/// 20/19 A3000 NOSIG=
201511040800 METAR MROC 040800Z 35003KT 0700 FG SCT001 BKN004 20/19 A2998 NOSIG=
201511040900 METAR MROC 040900Z 07003KT 9999 2000SW BCFG FEW002 SCT010 19/18 A2998 NOSIG=
201511041000 METAR MROC 041000Z 06003KT 9999 4000SW BCFG SCT010 18/16 A2998 NOSIG=
201511041100 METAR MROC 041100Z 04007KT 9999 FEW025 SCT120 19/16 A2998 NOSIG=
201511041200 METAR MROC 041200Z 07003KT 9999 FEW040 BKN200 19/16 A2999 NOSIG=
201511041300 METAR MROC 041300Z 05005KT CAVOK 22/17 A3001 NOSIG=
201511041400 METAR MROC 041400Z VRB02KT CAVOK 25/17 A3004 BECMG 24007KT=
201511041500 METAR MROC 041500Z 24006KT 9999 FEW035 SCT250 25/18 A3005 NOSIG=
201511041600 METAR MROC 041600Z 25004KT 9999 FEW035 SCT250 26/19 A3003 NOSIG=
201511041700 METAR MROC 041700Z 26006KT 9999 SCT045 SCT250 27/19 A3000 NOSIG=
201511041800 METAR MROC 041800Z 23008KT 9999 SCT040 SCT250 27/19 A2998 NOSIG=
201511041900 METAR MROC 041900Z 23009KT 9999 SCT030 SCT250 27/21 A2994 NOSIG=
201511042000 METAR MROC 042000Z 26010KT 9999 FEW015CB BKN030 26/21 A2993 RETS BECMG 5000 TSRA=
201511042100 METAR MROC 042100Z 23004KT 2500 -TSRA FEW010 SCT015CB 19/18 A2994 BECMG BKN010=
201511042200 METAR MROC 042200Z 35004KT 9999 3000SW -TSRA BCFG FEW010 FEW015CB BKN100 18/17 A2995 NOSIG=
201511042300 METAR MROC 042300Z 34002KT 8000 -RA BCFG FEW005 BKN045 19/17 A2998 NOSIG=
201511050000 METAR MROC 050000Z 13002KT 9999 2500SW -RA BKN015 18/17 A3000 NOSIG=
201511050100 METAR MROC 050100Z 07002KT 9999 3500NW -RA BCFG SCT045 BKN100 19/17 A3002 NOSIG=
201511050200 METAR MROC 050200Z 12002KT CAVOK 19/18 A3003 NOSIG=
201511050300 METAR MROC 050300Z 06004KT CAVOK 19/17 A3004 NOSIG=
201511050400 METAR MROC 050400Z 01004KT CAVOK 19/18 A3005 NOSIG=
201511050500 METAR MROC 050500Z 03005KT CAVOK 20/18 A3004 NOSIG=
201511050600 METAR MROC 050600Z 10004KT CAVOK 19/18 A3002 NOSIG=
201511050700 METAR MROC 050700Z 07004KT CAVOK 19/18 A3000 NOSIG=
201511050800 METAR MROC 050800Z 05006KT CAVOK 19/18 A2998 NOSIG=
201511050900 METAR MROC 050900Z 07005KT CAVOK 19/17 A2997 NOSIG=
201511051000 METAR MROC 051000Z 08005KT CAVOK 19/17 A2998 NOSIG=
201511051100 METAR MROC 051100Z 06005KT 9999 FEW035 SCT120 20/17 A2998 NOSIG=
201511051200 METAR MROC 051200Z 08007KT 9999 FEW035 BKN200 21/17 A2998 NOSIG=
201511051300 METAR MROC 051300Z 20002KT CAVOK 22/18 A3002 NOSIG=
201511051400 METAR MROC 051400Z 26004KT 9999 FEW030 BKN100 22/18 A3005 NOSIG=
201511051500 METAR MROC 051500Z 23005KT 9999 FEW030 BKN200 23/18 A3006 NOSIG=
201511051600 METAR MROC 051600Z 26004KT 9999 FEW040 25/19 A3005 NOSIG=
201511051700 METAR MROC 051700Z 24007KT 9999 SCT040 26/19 A3004 NOSIG=
201511051800 METAR MROC 051800Z 23008KT 9999 BKN045 27/20 A3001 NOSIG=
201511051900 METAR MROC 051900Z 23009KT 9999 RA VCSH SCT025TCU FEW040 SCT080 25/20 A2998 NOSIG=
201511052000 METAR MROC 052000Z 23009KT 9999 SHRA SCT020TCU BKN070 23/90 A2996 BECMG TSRA=
201511052100 METAR MROC 052100Z 22006KT 9999 RA FEW010TCU BKN030 23/20 A2996 BECMG TS=
201511052200 METAR MROC 052200Z 24006KT 9999 FEW010 SCT030 BKN100 22/19 A2997 NOSIG=
201511052300 METAR MROC 052300Z 26005KT 9999 FEW010 SCT030 BKN100 22/19 A2999 NOSIG=
201511060000 METAR MROC 060000Z 28004KT 9999 2000SW -RA BR FEW001 SCT020 BKN100 21/20 A3002 BECMG 5000=
201511060100 METAR MROC 060100Z 26007KT 5000 -RA BR FEW002 SCT020 BKN100 20/19 A3006 NOSIG=
201511060200 METAR MROC 060200Z 00000KT 3000 -RA BR FEW001 SCT010 BKN100 20/19 A3009 NOSIG=
201511060300 METAR MROC 060300Z 09003KT 9999 -RA FEW030 BKN100 20/19 A3009 NOSIG=
201511060400 METAR MROC 060400Z 00000KT 9999 -RA FEW030 BKN100 20/19 A3007 NOSIG=
201511060500 METAR MROC 060500Z 00000KT 9999 BCFG FEW001 SCT100 20/19 A3005 NOSIG=
201511060600 METAR MROC 060600Z VRB02KT 9999 4000SW BCFG FEW001 20/19 A3003 NOSIG=
201511060700 METAR MROC 060700Z 20002KT 9999 2000SW BCFG FEW009 SCT200 20/19 A3002 NOSIG=
201511060800 METAR MROC 060800Z 00000KT 0100 FG VV/// 19/18 A3001 BECMG 1000 BR=
201511060900 METAR MROC 060900Z 08004KT 9999 4500SW BCFG FEW020 19/18 A2999 NOSIG=
201511061000 METAR MROC 061000Z 10003KT CAVOK 18/17 A2998 NOSIG=
201511061100 METAR MROC 061100Z 05005KT CAVOK 18/16 A2998 NOSIG=
201511061200 METAR MROC 061200Z 08004KT CAVOK 18/16 A3001 NOSIG=
201511061300 METAR MROC 061300Z 06005KT CAVOK 20/17 A3006 NOSIG=
201511061400 METAR MROC 061400Z 11003KT CAVOK 24/18 A3007=
201511061500 METAR MROC 061500Z 22005KT 9999 FEW040 BKN200 25/18 A3008=
201511061600 METAR MROC 061600Z 23006KT 9999 FEW040 BKN200 25/19 A3007 NOSIG=
201511061700 METAR MROC 061700Z 24004KT 9999 FEW040 BKN200 26/18 A3004 NOSIG=
201511061800 METAR MROC 061800Z 23003KT 9999 SCT040 BKN200 26/19 A3000 NOSIG=
201511061900 METAR MROC 061900Z 23008KT 9999 SCT030 BKN200 26/20 A2997 NOSIG=
201511062000 METAR MROC 062000Z 22008KT 9999 SCT030 BKN200 27/20 A2993 NOSIG=
201511062100 METAR MROC 062100Z 26009KT 9999 -RA FEW015TCU BKN035 25/21 A2993 NOSIG=
201511062200 METAR MROC 062200Z 26007KT 9999 4000E RA FEW015TCU BKN030 24/21 A2994 BECMG 5000 -TSRA SCT010CB=
201511062300 METAR MROC 062300Z 10002KT 9999 -RA FEW008 SCT030 BKN100 22/21 A2997 RETS NOSIG=
201511070000 METAR MROC 070000Z VRB02KT 9999 -RA SCT010 BKN100 22/20 A2999 NOSIG=
201511070100 METAR MROC 070100Z VRB02KT 9999 3000SW BCFG SCT008 BKN030 22/20 A3001 NOSIG=
201511070200 METAR MROC 070200Z 35003KT 9999 4000SW BCFG SCT010 BKN030 22/20 A3002 NOSIG=
201511070300 METAR MROC 070300Z 28003KT 9999 3000SW BCFG SCT006 BKN030 21/20 A3004 NOSIG=
201511070400 METAR MROC 070400Z 27003KT 3000 BR SCT002 21/19 A3004 NOSIG=
201511070500 METAR MROC 070500Z 25003KT 9999 2000SW BCFG BKN010 21/19 A3004 NOSIG=
201511070600 METAR MROC 070600Z 01002KT 9999 FEW010 20/19 A3001 NOSIG=
201511070700 METAR MROC 070700Z 06003KT CAVOK 20/19 A2998 NOSIG=
201511070800 METAR MROC 070800Z 06004KT CAVOK 19/18 A2996 NOSIG=
201511070900 METAR MROC 070900Z 06005KT CAVOK 19/17 A2994 NOSIG=
201511071000 METAR MROC 071000Z 06005KT CAVOK 20/16 A2995 NOSIG=
201511071100 METAR MROC 071100Z 07007KT CAVOK 20/16 A2997 NOSIG=
201511071200 METAR MROC 071200Z 04008KT CAVOK 19/16 A2999 NOSIG=
201511071300 METAR MROC 071300Z 04005KT 9999 FEW045 BKN250 22/17 A3001 BECMG 24007KT=
201511071400 METAR MROC 071400Z 10004KT 9999 FEW045 BKN250 25/17 A3003 NOSIG=
201511071500 METAR MROC 071500Z 11006KT 9999 FEW045 BKN250 26/17 A3004 NOSIG=
201511071600 METAR MROC 071600Z 11006KT 9999 FEW045 BKN250 28/17 A3003 NOSIG=
201511071700 METAR MROC 071700Z 03003KT 9999 SCT040 BKN250 28/17 A3001 BECMG 24007KT=
201511071800 METAR MROC 071800Z 23005KT 9999 FEW035 SCT070 SCT250 27/20 A2998 NOSIG=
201511071900 METAR MROC 071900Z 26008KT 9999 FEW035 SCT070 SCT250 25/20 A2995 NOSIG=
201511072000 METAR MROC 072000Z 24007KT 9999 FEW015TCU SCT035 SCT250 27/21 A2991 NOSIG=
201511072100 METAR MROC 072100Z 24014KT 9999 FEW020 SCT035 BKN250 26/20 A2991 NOSIG=
201511072200 METAR MROC 072200Z 22012KT 9999 SCT030 BKN250 24/19 A2992 NOSIG=
201511072300 METAR MROC 072300Z 24011KT 9999 BKN030 SCT250 22/19 A2995 BECMG RA=
201511080000 METAR MROC 080000Z 30012KT 9999 BKN030 22/19 A2998 NOSIG=
201511080100 METAR MROC 080100Z 34004KT 9999 FEW030 BKN080 22/19 A3001 NOSIG=
201511080200 METAR MROC 080200Z 31004KT CAVOK 22/19 A3003 NOSIG=
201511080300 METAR MROC 080300Z 24004KT CAVOK 21/18 A3004 NOSIG=
201511080400 METAR MROC 080400Z 04003KT CAVOK 21/18 A3003 NOSIG=
201511080500 METAR MROC 080500Z 08005KT CAVOK 21/18 A3002 NOSIG=
201511080600 METAR MROC 080600Z 04005KT CAVOK 21/17 A2999 NOSIG=
201511080700 METAR MROC 080700Z 06003KT CAVOK 21/17 A2998 NOSIG=
201511080800 METAR MROC 080800Z 05009KT CAVOK 21/17 A2996 NOSIG=
201511080900 METAR MROC 080900Z 06005KT CAVOK 21/17 A2994 NOSIG=
201511081000 METAR MROC 081000Z 03004KT CAVOK 20/17 A2994 NOSIG=
201511081100 METAR MROC 081100Z 06005KT CAVOK 21/17 A2996 NOSIG=
201511081200 METAR MROC 081200Z 06007KT 9999 FEW030 BKN250 21/17 A2997 NOSIG=
201511081300 METAR MROC 081300Z 10010KT 9999 FEW030 BKN250 23/17 A3000 NOSIG=
201511081400 METAR MROC 081400Z 10015KT 9999 FEW030 BKN250 25/17 A3002 NOSIG=
201511081500 METAR MROC 081500Z 11016KT 9999 FEW030 BKN250 26/17 A3002 NOSIG=
201511081600 METAR MROC 081600Z 09010KT 9999 FEW030 SCT250 27/16 A3002 NOSIG=
201511081700 METAR MROC 081700Z 12008KT 9999 FEW030 28/17 A3000 NOSIG=
201511081800 METAR MROC 081800Z 12015KT 9999 FEW030 28/18 A2997 NOSIG=
201511081900 METAR MROC 081900Z 22011KT 9999 SCT030 27/20 A2994 NOSIG=
201511082000 METAR MROC 082000Z 23015KT 9999 FEW020TCU SCT030 25/21 A2992 NOSIG=
201511082100 METAR MROC 082100Z 24012KT 9999 4000SW TSRA FEW005 FEW015CB BKN030 23/21 A2993 BECMG BKN010=
201511082200 METAR MROC 082200Z 25007KT 3000 RA BR FEW001 SCT010 BKN020 21/20 A2994 RETS BECMG 1000 BKN005=
201511082300 METAR MROC 082300Z 22004KT 3000 TSRA BR FEW001 FEW010CB BKN020 21/20 A2996 BECMG BKN008=
201511090000 METAR MROC 090000Z 26005KT 7000 3000SW -RA FEW001 BKN010 21/20 A2997 REDZ NOSIG=
201511090100 METAR MROC 090100Z 00000KT 9999 BKN010 21/20 A2999 RERA NOSIG=
201511090200 METAR MROC 090200Z 28002KT 9999 BCFG FEW001 BKN010 21/20 A3002 NOSIG=
201511090300 METAR MROC 090300Z 00000KT 9999 4500SW BCFG FEW001 SCT010 21/20 A3003 NOSIG=
201511090400 METAR MROC 090400Z 00000KT 0500 FG VV/// 21/19 A3002 NOSIG=
201511090500 METAR MROC 090500Z 04002KT 9999 FEW010 BKN120 20/19 A3001 NOSIG=
201511090600 METAR MROC 090600Z 05006KT CAVOK 21/17 A2998 NOSIG=
201511090700 METAR MROC 090700Z 08008KT CAVOK 20/16 A2995 NOSIG=
201511090800 METAR MROC 090800Z 08005KT CAVOK 21/16 A2994 NOSIG=
201511090900 METAR MROC 090900Z 10006KT CAVOK 20/16 A2995 NOSIG=
201511091000 METAR MROC 091000Z 10004KT CAVOK 19/16 A2995 NOSIG=
201511091100 METAR MROC 091100Z 05004KT CAVOK 18/15 A2996 NOSIG=
201511091200 METAR MROC 091200Z 04009KT CAVOK 20/15 A2997 NOSIG=
201511091300 METAR MROC 091300Z VRB02KT CAVOK 21/16 A3001 NOSIG=
201511091400 METAR MROC 091400Z 06003KT CAVOK 25/16 A3003 NOSIG=
201511091500 METAR MROC 091500Z 10007KT CAVOK 26/16 A3003 NOSIG=
201511091600 METAR MROC 091600Z 10005KT CAVOK 28/16 A3001 BECMG 20006KT=
201511091700 METAR MROC 091700Z 23010KT 9999 FEW025 SCT120 28/19 A3001 NOSIG=
201511091800 METAR MROC 091800Z 24011KT 9999 SCT030 26/20 A2999 NOSIG=
201511091900 METAR MROC 091900Z 22008KT 9999 SCT030 27/21 A2997 NOSIG=
201511092000 METAR MROC 092000Z 22008KT 9999 SCT030 BKN250 26/20 A2995 NOSIG=
201511092100 METAR MROC 092100Z 22009KT 9999 FEW030 BKN250 25/20 A2994 NOSIG=
201511092200 METAR MROC 092200Z 24006KT 9999 FEW030 BKN250 23/20 A2994 NOSIG=
201511092300 METAR MROC 092300Z 27004KT 9999 FEW030 BKN250 23/20 A2995 NOSIG=
201511100000 METAR MROC 100000Z 26005KT 9999 FEW030 BKN250 22/19 A2998 NOSIG=
201511100100 METAR MROC 100100Z 33002KT 9999 FEW030 SCT250 22/19 A3001 NOSIG=
201511100200 METAR MROC 100200Z 28002KT 9999 FEW030 SCT250 22/19 A3003 NOSIG=
201511100300 METAR MROC 100300Z 31002KT 9999 SCT030 22/19 A3005 NOSIG=
201511100400 METAR MROC 100400Z 28004KT 9999 SCT030 22/20 A3005 NOSIG=
201511100500 METAR MROC 100500Z 29003KT 9999 FEW030 22/19 A3004 NOSIG=
201511100600 METAR MROC 100600Z 22004KT 9999 FEW030 21/19 A3003 NOSIG=
201511100700 METAR MROC 100700Z 03003KT 3000 BR SCT010 21/20 A3000 NOSIG=
201511100800 METAR MROC 100800Z 22003KT 0500 FG VV/// 21/20 A2999 NOSIG=
201511100900 METAR MROC 100900Z 20003KT 0500 FG VV/// 20/19 A2998 NOSIG=
201511101000 METAR MROC 101000Z COR 14003KT 9999 2000SW FEW001 SCT015 20/19 A2999 NOSIG=
201511101100 METAR MROC 101100Z 36004KT 9999 BCFG FEW001 BKN250 20/18 A2999 NOSIG=
201511101200 METAR MROC 101200Z 26004KT 9999 BCFG FEW001 BKN250 20/18 A3001 NOSIG=
201511101300 METAR MROC 101300Z 00000KT 8000 VCFG FEW002 BKN250 22/19 A3004 NOSIG=
201511101400 METAR MROC 101400Z 02002KT 9999 FEW030 SCT150 24/18 A3008 NOSIG=
201511101500 METAR MROC 101500Z 03003KT 9999 FEW030 SCT140 25/18 A3008 NOSIG=
201511101600 METAR MROC 101600Z 08004KT 9999 FEW035 BKN130 27/17 A3007 NOSIG=
201511101700 METAR MROC 101700Z 29002KT 9999 SCT030 BKN160 27/17 A3003 NOSIG=
201511101800 METAR MROC 101800Z 23010KT 9999 SCT030 SCT250 27/19 A2999 NOSIG=
201511101900 METAR MROC 101900Z 22011KT 9999 SCT030 SCT140 26/21 A2996 NOSIG=
201511102000 METAR MROC 102000Z 23011KT 9999 -RA SCT015TCU BKN030 23/20 A2995 NOSIG=
201511102100 METAR MROC 102100Z 25006KT 8000 -RA VCFG FEW002 BKN020 22/20 A2995 BECMG 5000 BR=
201511102200 METAR MROC 102200Z 01004KT 8000 SHRA FEW002 BKN020 20/19 A2997 BECMG 5000 BR=
201511102300 METAR MROC 102300Z 33003KT 5000 -RA BR FEW002 BKN020 20/19 A2998 NOSIG=
201511110000 METAR MROC 110000Z 08002KT 8000 -RA FEW005 SCT020 BKN100 21/20 A3000 NOSIG=
201511110100 METAR MROC 110100Z 12002KT 8000 -RA FEW005 SCT020 BKN100 20/19 A3003 NOSIG=
201511110200 METAR MROC 110200Z 07003KT 9999 -RA FEW030 BKN100 20/19 A3002 NOSIG=
201511110300 METAR MROC 110300Z 04003KT 9999 -RA FEW030 BKN100 21/19 A3003 NOSIG=
201511110400 METAR MROC 110400Z VRB02KT 9999 4000SW -RA FEW030 OVC100 20/19 A3003 NOSIG=
201511110500 METAR MROC 110500Z 07005KT 9999 -RA FEW030 BKN100 20/18 A3003 NOSIG=
201511110600 METAR MROC 110600Z 07006KT 9999 -DZ FEW030 BKN100 20/18 A3000 NOSIG=
201511110700 METAR MROC 110700Z 06008KT CAVOK 21/17 A2997 NOSIG=
201511110800 METAR MROC 110800Z 05007KT CAVOK 20/17 A2995 NOSIG=
201511110900 METAR MROC 110900Z 07003KT CAVOK 19/17 A2994 NOSIG=
201511111000 METAR MROC 111000Z 06006KT CAVOK 19/17 A2996 NOSIG=
201511111100 METAR MROC 111100Z 06006KT CAVOK 19/17 A2997 NOSIG=
201511111200 METAR MROC 111200Z 04007KT CAVOK 19/17 A2998 NOSIG=
201511111300 METAR MROC 111300Z 06005KT CAVOK 22/17 A2999 NOSIG=
201511111400 METAR MROC 111400Z 08004KT CAVOK 24/17 A3000 NOSIG=
201511111500 METAR MROC 111500Z 21004KT CAVOK 25/18 A3001 NOSIG=
201511111600 METAR MROC 111600Z 24006KT 9999 FEW040 25/19 A3001 NOSIG=
201511111700 METAR MROC 111700Z 24009KT 9999 SCT040 26/20 A2999 NOSIG=
201511111800 METAR MROC 111800Z 24008KT 9999 SCT040 26/21 A2997 NOSIG=
201511111900 METAR MROC 111900Z 23006KT 9999 VCSH FEW010TCU BKN030 25/20 A2994 BECMG SHRA=
201511112000 METAR MROC 112000Z 09007KT 9999 VCSH FEW010TCU BKN030 21/18 A2993 BECMG 5000 SHRA=
201511112100 METAR MROC 112100Z 10003KT 9999 4000SW -TSRA FEW008CB SCT030 BKN100 22/19 A2991 NOSIG=
201511112200 METAR MROC 112200Z 25006KT 5000 -RA BR FEW006 SCT025 BKN100 20/19 A2993 NOSIG=
201511112300 METAR MROC 112300Z 22002KT 4000 RA BR SCT004 BKN100 20/19 A2996 NOSIG=
201511120000 METAR MROC 120000Z 06002KT 5000 RA BR SCT004 BKN100 21/19 A2996 NOSIG=
201511120100 METAR MROC 120100Z 08002KT 5000 RA BR SCT004 BKN100 21/19 A2998 NOSIG=
201511120200 METAR MROC 120200Z 00000KT 9999 FEW008 SCT025 BKN100 21/19 A3001 RERA NOSIG=
201511120300 METAR MROC 120300Z 26002KT 1500 BR SCT004 BKN020 21/19 A3002 NOSIG=
201511120400 METAR MROC 120400Z 11002KT 2000 BR SCT002 BKN020 20/19 A3000 NOSIG=
201511120500 METAR MROC 120500Z 06003KT 9999 FEW025 20/19 A2998 NOSIG=
201511120600 METAR MROC 120600Z 04005KT CAVOK 20/18 A2997 NOSIG=
201511120700 METAR MROC 120700Z 05004KT CAVOK 19/17 A2996 NOSIG=
201511120800 METAR MROC 120800Z 05002KT CAVOK 19/17 A2995 NOSIG=
201511120900 METAR MROC 120900Z 03002KT CAVOK 18/17 A2994 NOSIG=
201511121000 METAR MROC 121000Z 05002KT CAVOK 18/16 A2995 NOSIG=
201511121100 METAR MROC 121100Z 08004KT CAVOK 18/17 A2996 NOSIG=
201511121200 METAR MROC 121200Z 08004KT CAVOK 18/16 A2998 NOSIG=
201511121300 METAR MROC 121300Z 08003KT CAVOK 21/17 A3000 NOSIG=
201511121400 METAR MROC 121400Z 07002KT 9999 FEW045 SCT250 24/17 A3003 BECMG 25007KT=
201511121500 METAR MROC 121500Z 27003KT 9999 FEW040 SCT120 25/18 A3003 NOSIG=
201511121600 METAR MROC 121600Z 25004KT 9999 FEW035 SCT250 26/19 A3003 NOSIG=
201511121700 METAR MROC 121700Z 26007KT 9999 SCT035 26/19 A3001 NOSIG=
201511121800 METAR MROC 121800Z 24009KT 9999 FEW025TCU SCT035 26/20 A2998 NOSIG=
201511121900 METAR MROC 121900Z COR 23009KT 9999 VCSH FEW015TCU SCT035 26/20 A2995 NOSIG=
201511122000 METAR MROC 122000Z 19005KT 9999 RA VCTS FEW010CB FEW020TCU SCT030 27/19 A2993 BECMG 5000 -TSRA=
201511122100 METAR MROC 122100Z 13008KT 9999 -RA FEW020TCU SCT080 BKN250 24/19 A2990 NOSIG=
201511122200 METAR MROC 122200Z 19003KT 9999 FEW020TCU FEW035 SCT080 25/20 A2990 NOSIG=
201511122300 METAR MROC 122300Z 23007KT 9999 FEW015 SCT025 BKN080 23/21 A2988 NOSIG=
201511122357 METAR MROC 130000Z 22005KT 9999 2000SW -RA FEW001 SCT010 BKN020 22/20 A2994 BECMG 2000 BR=
201511130000 METAR MROC 130000Z 22005KT 9999 2000SW -RA FEW001 SCT010 BKN020 22/20 A2994 BECMG 2000 BR=
201511130100 METAR MROC 130100Z 26007KT 5000 1500SW -RA BR FEW001 SCT010 BKN020 22/20 A2995 BECMG 2000=
201511130200 METAR MROC 130200Z 26004KT 5000 2000SW -RA BR FEW001 SCT010 BKN020 22/20 A2998 NOSIG=
201511130300 METAR MROC 130300Z 00000KT 9999 BCFG FEW030 BKN100 21/20 A2998 NOSIG=
201511130400 METAR MROC 130400Z 00000KT 9999 BCFG FEW020 BKN100 21/20 A2997 NOSIG=
201511130500 METAR MROC 130500Z 04001KT 9999 BCFG FEW020 BKN100 21/20 A2997 NOSIG=
201511130600 METAR MROC 130600Z 05002KT CAVOK 21/19 A2996 NOSIG=
201511130700 METAR MROC 130700Z 07004KT CAVOK 20/19 A2993 NOSIG=
201511130800 METAR MROC 130800Z 07005KT CAVOK 21/18 A2992 NOSIG=
201511130900 METAR MROC 130900Z 04006KT CAVOK 21/18 A2992 NOSIG=
201511131000 METAR MROC 131000Z 05005KT CAVOK 20/17 A2991 NOSIG=
201511131100 METAR MROC 131100Z 03003KT CAVOK 20/17 A2992 NOSIG=
201511131200 METAR MROC 131200Z 06004KT CAVOK 20/17 A2993 NOSIG=
201511131300 METAR MROC 131300Z 05008KT CAVOK 24/18 A2995 NOSIG=
201511131400 METAR MROC 131400Z 10012KT CAVOK 25/18 A2996 NOSIG=
201511131500 METAR MROC 131500Z 09012KT CAVOK 27/18 A2997 NOSIG=
201511131600 METAR MROC 131600Z 12007KT 9999 FEW035 BKN250 29/18 A2997 BECMG 22008KT=
201511131700 METAR MROC 131700Z 23012KT 9999 SCT030 BKN250 27/20 A2996 NOSIG=
201511131800 METAR MROC 131800Z 23009KT 9999 SCT030 SCT250 26/20 A2993 NOSIG=
201511131900 METAR MROC 131900Z 23012KT 9999 FEW020TCU SCT030 BKN250 27/21 A2989 NOSIG=
201511132000 METAR MROC 132000Z 24012KT 9999 SCT020TCU BKN250 27/21 A2987 NOSIG=
201511132100 METAR MROC 132100Z 30003KT 9000 SHRA FEW015CB SCT025 BKN100 24/20 A2987 BECMG 5000 TSRA=
201511132200 METAR MROC 132200Z 23005KT 9000 4000SW -DZ VCSH BCFG FEW010 BKN020 23/21 A2988 NOSIG=
201511132300 METAR MROC 132300Z 25004KT 9000 4000SW BCFG FEW010 SCT020 BKN035 22/21 A2990 BECMG BKN015=
201511140000 METAR MROC 140000Z 25003KT 9999 2000SW -DZ BCFG FEW010 BKN015 22/21 A2991 NOSIG=
201511140100 METAR MROC 140100Z 27003KT 9999 4500SW -DZ BCFG FEW001 BKN020 22/20 A2994 NOSIG=
201511140200 METAR MROC 140200Z 11001KT 9999 2000NW BCFG FEW010 SCT025 BKN100 22/20 A2996 NOSIG=
201511140300 METAR MROC 140300Z 25003KT 9999 2500W BCFG FEW010 SCT035 BKN100 22/20 A2998 NOSIG=
201511140400 METAR MROC 140400Z 07003KT 8000 2000SW BCFG SCT008 BKN100 21/18 A2997 NOSIG=
201511140500 METAR MROC 140500Z 04003KT CAVOK 21/19 A2994 NOSIG=
201511140600 METAR MROC 140600Z 05003KT CAVOK 21/18 A2993 NOSIG=
201511140700 METAR MROC 140700Z 05006KT CAVOK 21/18 A2992 NOSIG=
201511140800 METAR MROC 140800Z 04003KT CAVOK 20/18 A2991 NOSIG=
201511140900 METAR MROC 140900Z 07008KT CAVOK 21/17 A2990 NOSIG=
201511141000 METAR MROC 141000Z 08008KT CAVOK 21/17 A2991 NOSIG=
201511141100 METAR MROC 141100Z 05007KT CAVOK 21/17 A2991 NOSIG=
201511141200 METAR MROC 141200Z 04008KT CAVOK 21/17 A2993 NOSIG=
201511141300 METAR MROC 141300Z 06005KT CAVOK 24/18 A2995 NOSIG=
201511141400 METAR MROC 141400Z 05004KT 9999 FEW045 BKN180 26/18 A2998 BECMG 20006KT=
201511141500 METAR MROC 141500Z 09009KT 9999 FEW045 SCT250 27/18 A2997 NOSIG=
201511141600 METAR MROC 141600Z 11006KT 9999 FEW045 SCT250 28/18 A2997 NOSIG=
201511141700 METAR MROC 141700Z 09007KT 9999 FEW040 SCT250 28/18 A2995 NOSIG=
201511141800 METAR MROC 141800Z 10004KT 9999 SCT030 SCT090 28/18 A2993 BECMG 24008KT=
201511141900 METAR MROC 141900Z 23007KT 9999 SCT030 SCT090 26/21 A2992 NOSIG=
201511142000 METAR MROC 142000Z 24010KT 9999 FEW015CB SCT030 SCT100 26/22 A2988 BECMG SHRA=
201511142100 METAR MROC 142100Z 26008KT 9999 -RA SCT025 BKN100 25/21 A2998 BECMG 3000 TSRA BKN010=
201511142200 METAR MROC 142200Z 20008KT 2000 -TSRA SCT015CB BKN025 22/19 A2988 NOSIG=
201511142216 METAR MROC 142216Z 00000KT 8000 -TSRA SCT020CB BKN100 24/20 A2990 NOSIG=
201511142300 METAR MROC 142300Z 28002KT 9999 FEW030 SCT110 BKN250 22/19 A2991 NOSIG=
201511150000 METAR MROC 150000Z 02003KT 9999 SCT030 BKN100 22/20 A2993 NOSIG=
201511150100 METAR MROC 150100Z 11002KT 9999 FEW030 SCT120 22/20 A2996 NOSIG=
201511150200 METAR MROC 150200Z 00000KT 9999 -RA FEW030 BKN110 22/20 A2999 NOSIG=
201511150300 METAR MROC NIL=
201511150400 METAR MROC 150400Z 09004KT 9999 FEW030 BKN110 21/19 A2998 NOSIG=
201511150500 METAR MROC 150500Z 07006KT CAVOK 21/18 A2998 NOSIG=
201511150600 METAR MROC 150600Z 07011KT CAVOK 22/18 A2996 NOSIG=
201511150700 METAR MROC 150700Z 07013KT 9999 FEW030 SCT100 22/17 A2995 NOSIG=
201511150800 METAR MROC 150800Z 07011KT 9999 FEW030 SCT200 22/18 A2993 NOSIG=
201511150900 METAR MROC 150900Z 07010KT CAVOK 21/18 A2991 NOSIG=
201511151000 METAR MROC NIL=
201511151100 METAR MROC 151100Z 06010KT CAVOK 21/18 A2993 NOSIG=
201511151200 METAR MROC 151200Z 05008KT CAVOK 22/17 A2996 NOSIG=
201511151300 METAR MROC 151300Z 04008KT CAVOK 24/18 A2998 NOSIG=
201511151400 METAR MROC 151400Z 08006KT CAVOK 26/18 A2999 NOSIG=
201511151500 METAR MROC 151500Z 11004KT 9999 FEW035 28/18 A2999 NOSIG=
201511151600 METAR MROC 151600Z 13006KT 9999 FEW035 29/18 A2997 NOSIG=
201511151700 METAR MROC 151700Z 14005KT 9999 SCT030 28/18 A2997 NOSIG=
201511151800 METAR MROC 151800Z 25010KT 9999 BKN030 27/20 A2994 NOSIG=
201511151900 METAR MROC 151900Z 22010KT 9999 RA SCT025TCU BKN100 26/22 A2991 BECMG TS=
201511152000 METAR MROC 152000Z 02009KT 3000 -TSRA SCT015CB OVC100 20/19 A2991 NOSIG=
201511152100 METAR MROC 152100Z 12002KT 9999 SCT030 OVC100 21/20 A2990 NOSIG=
201511152200 METAR MROC 152200Z 17002KT 9999 SCT030 BKN100 21/20 A2990 NOSIG=
201511152300 METAR MROC 152300Z 00000KT 9999 SCT030 BKN100 21/20 A2991 NOSIG=
201511160000 METAR MROC 160000Z 00000KT 9999 SCT030 BKN100 21/20 A2994 NOSIG=
201511160100 METAR MROC 160100Z 18002KT 9999 FEW030 BKN100 21/20 A2996 NOSIG=
201511160200 METAR MROC 160200Z 00000KT 9999 FEW030 BKN100 21/20 A2998 NOSIG=
201511160300 METAR MROC 160300Z 02002KT 9999 FEW030 BKN100 22/20 A3000 NOSIG=
201511160400 METAR MROC 160400Z VRB02KT 9999 3000SW BCFG FEW005 SCT030 BKN100 21/20 A2999 NOSIG=
201511160500 METAR MROC 160500Z VRB02KT 9999 3000SW BCFG FEW005 SCT030 BKN100 21/20 A2998 NOSIG=
201511160600 METAR MROC 160600Z VRB02KT 9999 4500SW BCFG FEW005 BKN080 21/20 A2997 NOSIG=
201511160700 METAR MROC 160700Z 05003KT CAVOK 21/20 A2993 NOSIG=
201511160800 METAR MROC 160800Z VRB02KT 9999 2000SW BCFG FEW001 BKN100 21/19 A2991 NOSIG=
201511160900 METAR MROC 160900Z VRB02KT 9999 2500SW BCFG FEW010 BKN100 21/20 A2990 NOSIG=
201511161000 METAR MROC 161000Z 09002KT 9999 2500SW BCFG FEW001 BKN100 20/19 A2990 NOSIG=
201511161100 METAR MROC 161100Z 06000KT CAVOK 21/19 A2992 NOSIG=
201511161200 METAR MROC 161200Z 10003KT 9999 2500SW BCFG FEW001 SCT040 BKN100 21/19 A2995 NOSIG=
201511161300 METAR MROC 161300Z 10003KT CAVOK 22/19 A2997 NOSIG=
201511161400 METAR MROC 161400Z 20002KT CAVOK 25/19 A2999 NOSIG=
201511161500 METAR MROC 161500Z 24007KT 9999 FEW040 BKN200 25/20 A3000 NOSIG=
201511161600 METAR MROC 161600Z 25007KT 9999 SCT040 BKN200 26/20 A2999 NOSIG=
201511161700 METAR MROC 161700Z 25006KT 9999 SCT040 BKN200 26/20 A2996 NOSIG=
201511161800 METAR MROC 161800Z 24008KT 9999 SCT030 BKN200 27/20 A2992 NOSIG=
201511161900 METAR MROC 161900Z 23006KT 9999 SCT030 BKN200 26/20 A2990=
201511162000 METAR MROC 162000Z 24009KT 9999 SCT030 BKN200 27/20 A2987=
201511162100 METAR MROC 162100Z 25009KT 9999 4000NE -SHRA VCTS SCT010CB BKN030 24/21 A2986 BECMG 5000 TSRA=
201511162200 METAR MROC 162200Z 22008KT 5000 RA BR SCT006 BKN025 21/19 A2988 NOSIG=
201511162300 METAR MROC 162300Z 24003KT 4000 -TSRA FEW004 SCT008CB BKN025 21/20 A2989 NOSIG=
201511170000 METAR MROC 170000Z 00000KT 2000 TSRA FEW001 SCT008CB BKN020 20/19 A2990 NOSIG=
201511170100 METAR MROC 170100Z 05003KT 8000 SHRA SCT010 BKN030 21/20 A2992 NOSIG=
201511170200 METAR MROC 170200Z VRB02KT 9999 SCT015 BKN100 21/19 A2992 NOSIG=
201511170300 METAR MROC 170300Z 00000KT 9999 SCT015 BKN100 21/20 A2993 NOSIG=
201511170400 METAR MROC 170400Z 00000KT 8000 -RA SCT020 OVC100 21/20 A2994 NOSIG=
201511170500 METAR MROC 170500Z 00000KT 9999 -RA FEW020 OVC100 21/20 A2993 NOSIG=
201511170600 METAR MROC 170600Z 24002KT 9999 -RA FEW015 OVC100 21/19 A2991 NOSIG=
201511170700 METAR MROC 170700Z 29002KT 2000 BR SCT002 OVC100 21/20 A2989 NOSIG=
201511170800 METAR MROC 170800Z 30002KT 5000 -RA BR FEW002 OVC100 20/19 A2987 NOSIG=
201511170900 METAR MROC 170900Z 26002KT 5000 BR SCT010 OVC100 20/19 A2985 NOSIG=
201511171000 METAR MROC 171000Z 22002KT 3000 BR SCT003 OVC100 20/19 A2987=
201511171100 METAR MROC 171100Z 24002KT 3000 BR SCT003 OVC100 20/19 A2988 NOSIG=
201511171200 METAR MROC 171200Z 36004KT 8000 VCFG FEW002 SCT040 BKN100 20/19 A2989 NOSIG=
201511171300 METAR MROC 171300Z 09003KT 8000 BCFG SCT010 BKN250 23/20 A2993 NOSIG=
201511171400 METAR MROC 171400Z 12003KT 9999 FEW045 BKN250 25/20 A2991 BECMG 24007KT=
201511171500 METAR MROC 171500Z VRB02KT 9999 FEW040 BKN250 27/19 A2991 BECMG 24007KT=
201511171600 METAR MROC 171600Z VRB02KT 9999 FEW035 BKN250 29/18 A2990 BECMG 24007KT=
201511171700 METAR MROC 171700Z 24007KT 9999 FEW040 SCT250 28/19 A2988 NOSIG=
201511171800 METAR MROC 171800Z 24011KT 9999 FEW020TCU BKN035 26/21 A2987 BECMG 5000 -TSRA SCT010CB=
201511171900 METAR MROC 171900Z 25013KT 9999 VCSH FEW015TCU BKN035 24/21 A2985 BECMG 5000 -TSRA SCT010CB=
201511172000 METAR MROC 172000Z 24012KT 9999 VCSH FEW010TCU BKN035 24/21 A2985 BECMG 5000 -TSRA SCT010CB=
201511172100 METAR MROC 172100Z 28008KT 9999 -RA FEW005 SCT020TCU BKN035 23/21 A2985 NOSIG=
201511172200 METAR MROC 172200Z 32009KT 9999 FEW005 SCT015 BKN100 22/20 A2989 NOSIG=
201511172300 METAR MROC 172300Z 31008KT 9999 FEW005 SCT015 BKN100 22/19 A2987 NOSIG=
201511172354 METAR MROC 180000Z 29007KT 9999 FEW015 SCT030 BKN250 22/19 A2990 NOSIG=
201511180000 METAR MROC 180000Z 29007KT 9999 FEW015 SCT030 BKN250 22/19 A2990 NOSIG=
201511180100 METAR MROC 180100Z 26003KT 9999 SCT030 BKN250 22/19 A2990 NOSIG=
201511180200 METAR MROC 180200Z 01003KT 9999 FEW030 SCT120 21/19 A2994 NOSIG=
201511180300 METAR MROC 180300Z 24003KT 9999 FEW030 BKN120 21/19 A2996 NOSIG=
201511180400 METAR MROC 180400Z 00000KT 9999 FEW030 BKN100 21/19 A2997 NOSIG=
201511180500 METAR MROC 180500Z 28002KT 9999 FEW030 BKN100 21/19 A2994 NOSIG=
201511180600 METAR MROC 180600Z 07002KT CAVOK 20/18 A2991 NOSIG=
201511180700 METAR MROC 180700Z 06004KT CAVOK 20/18 A2990 NOSIG=
201511180800 METAR MROC 180800Z 01002KT CAVOK 20/17 A2989 NOSIG=
201511180900 METAR MROC 180900Z 03002KT CAVOK 20/17 A2988 NOSIG=
201511181000 METAR MROC 181000Z 05003KT CAVOK 19/17 A2988 NOSIG=
201511181100 METAR MROC 181100Z 07004KT CAVOK 19/17 A2989 NOSIG=
201511181200 METAR MROC 181200Z 09006KT CAVOK 20/17 A2990 NOSIG=
201511181300 METAR MROC 181300Z 02006KT CAVOK 22/18 A2994 BECMG 22006KT=
201511181400 METAR MROC 181400Z 24007KT CAVOK 21/19 A2998 NOSIG=
201511181500 METAR MROC 181500Z VRB02KT 9999 FEW035 BKN250 25/19 A2997 NOSIG=
201511181600 METAR MROC 181600Z 23005KT 9999 FEW035 BKN250 27/19 A2994 NOSIG=
201511181700 METAR MROC 181700Z 27005KT 9999 FEW035 BKN200 28/20 A2990 NOSIG=
201511181800 METAR MROC 181800Z 24010KT 9999 FEW035 SCT150 BKN250 27/19 A2988 NOSIG=
201511181900 METAR MROC 181900Z 24012KT 9999 SCT025TCU BKN250 26/20 A2986 NOSIG=
201511182000 METAR MROC 182000Z 25015KT 9999 VCSH FEW025TCU BKN035 24/21 A2986 BECMG 5000 RA=
201511182100 METAR MROC 182100Z 31004KT 1500 SHRA SCT015CB BKN020 21/19 A2985 BECMG 5000 RA BR=
201511182200 METAR MROC NIL=
201511182300 METAR MROC 182300Z 32005KT 7000 3000SW -DZ VCSH FEW005 BKN020 21/20 A2990 NOSIG=
201511190000 METAR MROC 190000Z VRB03KT 9000 4000SW -DZ FEW005 BKN020 21/20 A2992 NOSIG=
201511190100 METAR MROC 190100Z 00000KT 9999 FEW008 BKN020 21/20 A2993 NOSIG=
201511190200 METAR MROC 190200Z 18002KT 9999 FEW004 SCT025 BKN100 21/20 A2995 NOSIG=
201511190300 METAR MROC 190300Z 24001KT 9999 4000SW BCFG FEW005 SCT025 BKN070 21/20 A2996 BECMG BKN025=
201511190400 METAR MROC 190400Z 03005KT 9999 FEW030 SCT120 21/20 A2995 NOSIG=
201511190500 METAR MROC 190500Z 07005KT CAVOK 21/19 A2992 NOSIG=
201511190600 METAR MROC 190600Z 08006KT CAVOK 21/19 A2991 NOSIG=
201511190700 METAR MROC 190700Z 25003KT 9999 2000SW BCFG FEW002 SCT120 20/19 A2992 NOSIG=
201511190800 METAR MROC 190800Z 00000KT 9999 FEW002 SCT020 BKN100 20/19 A2992 NOSIG=
201511190900 METAR MROC 190900Z 35003KT 9999 BKN025 20/19 A2992 NOSIG=
201511191000 METAR MROC 191000Z 06004KT 9999 FEW025 21/19 A2993 NOSIG=
201511191100 METAR MROC 191100Z 07005KT 9999 FEW025 BKN250 20/18 A2993 NOSIG=
201511191200 METAR MROC 191200Z 03006KT CAVOK 20/18 A2995 NOSIG=
201511191300 METAR MROC 191300Z 16001KT 9999 FEW045 SCT250 23/19 A2998 NOSIG=
201511191400 METAR MROC 191400Z 20002KT 9999 FEW010 SCT045 BKN250 24/18 A3000 NOSIG=
201511191500 METAR MROC 191500Z 21004KT 9999 FEW030 SCT120 24/19 A3000 NOSIG=
201511191600 METAR MROC 191600Z 26002KT 9999 FEW030 BKN100 24/19 A3000 NOSIG=
201511191700 METAR MROC 191700Z 22004KT 9999 SCT030 BKN120 27/19 A2996 NOSIG=
201511191800 METAR MROC 191800Z 23006KT 9999 SCT030 BKN150 28/19 A2993 NOSIG=
201511191900 METAR MROC 191900Z 23007KT 9999 FEW020TCU SCT025 BKN180 27/20 A2990 NOSIG=
201511192000 METAR MROC 192000Z 25010KT 9999 VCSH FEW020TCU SCT030 BKN200 27/21 A2988 NOSIG=
201511192100 METAR MROC 192100Z 25010KT 9999 SCT020TCU BKN100 24/21 A2989 BECMG TSRA=
201511192200 METAR MROC 192200Z 25007KT 9999 SCT015TCU BKN100 23/21 A2989 NOSIG=
201511192300 METAR MROC 192300Z 25006KT 9999 FEW003 SCT030 BKN130 22/20 A2990 NOSIG=
201511200000 METAR MROC 200000Z 24003KT 9999 SCT030 BKN130 22/20 A2993 NOSIG=
201511200100 METAR MROC 200100Z 25002KT 9999 SCT030 BKN130 22/20 A2997 NOSIG=
201511200200 METAR MROC 200200Z 31003KT 9999 SCT030 SCT130 22/20 A2998 NOSIG=
201511200300 METAR MROC 200300Z 29002KT 9999 SCT025 SCT130 22/20 A2999 NOSIG=
201511200400 METAR MROC 200400Z 13002KT 9999 FEW025 SCT100 21/20 A2998 NOSIG=
201511200500 METAR MROC 200500Z 03003KT CAVOK 22/19 A2997 NOSIG=
201511200600 METAR MROC 200600Z 00000KT CAVOK 21/19 A2994 NOSIG=
201511200700 METAR MROC 200700Z 12002KT CAVOK 20/19 A2993 NOSIG=
201511200800 METAR MROC 200800Z 00000KT CAVOK 20/19 A2993 NOSIG=
201511200900 METAR MROC 200900Z 00000KT 9999 FEW020 SCT100 20/18 A2991 NOSIG=
201511201000 METAR MROC 201000Z 06003KT 9999 FEW015 SCT110 19/18 A2992 NOSIG=
201511201100 METAR MROC 201100Z 08003KT CAVOK 19/17 A2993 NOSIG=
201511201200 METAR MROC 201200Z 06003KT 9999 4000SW BCFG SCT010 BKN230 19/17 A2994 NOSIG=
201511201300 METAR MROC 201300Z 09003KT CAVOK 22/18 A2995 NOSIG=
201511201400 METAR MROC 201400Z 08004KT CAVOK 25/19 A2996 NOSIG=
201511201500 METAR MROC 201500Z 21002KT 9999 FEW035 28/19 A2996 NOSIG=
201511201600 METAR MROC 201600Z 22004KT 9999 SCT035 28/21 A2995 NOSIG=
201511201700 METAR MROC 201700Z 24009KT 9999 SCT035 27/20 A2994 NOSIG=
201511201800 METAR MROC 201800Z 22010KT 8000 -RA FEW010 BKN025 24/21 A2990 NOSIG=
201511201900 METAR MROC 201900Z 20006KT 5000 -TSRA BR SCT010CB BKN025 22/20 A2988 NOSIG=
201511202000 METAR MROC 202000Z 22005KT 9999 SCT030 BKN100 22/20 A2989 NOSIG=
201511202100 METAR MROC 202100Z 28003KT 8000 VCFG FEW001 SCT020 BKN100 22/20 A2988 NOSIG=
201511202200 METAR MROC 202200Z 32003KT 8000 -RA VCFG FEW001 SCT020 BKN100 21/19 A2989 NOSIG=
201511202300 METAR MROC 202300Z 03002KT 9999 -RA SCT030 OVC100 21/20 A2989 NOSIG=
201511210000 METAR MROC 210000Z 00000KT 9999 SCT030 BKN100 21/19 A2991 NOSIG=
201511210100 METAR MROC 210100Z 33001KT 9999 FEW030 BKN100 21/20 A2993 NOSIG=
201511210200 METAR MROC 210200Z 31001KT 9999 FEW030 BKN100 21/19 A2995 NOSIG=
201511210300 METAR MROC 210300Z 00000KT 9999 FEW030 BKN100 21/19 A2997 NOSIG=
201511210400 METAR MROC 210400Z VRB02KT 9999 -DZ FEW010 BKN100 21/19 A2997 NOSIG=
201511210500 METAR MROC 210500Z VRB02KT CAVOK 21/20 A2996 NOSIG=
201511210600 METAR MROC 210600Z VRB01KT 9999 4000SW -DZ FEW010 BKN100 21/19 A2995 NOSIG=
201511210700 METAR MROC 210700Z VRB01KT 9999 FEW010 BKN100 21/19 A2993 NOSIG=
201511210800 METAR MROC 210800Z 00000KT 9999 FEW020 BKN090 20/19 A2990 NOSIG=
201511210900 METAR MROC 210900Z 10002KT CAVOK 20/18 A2990 NOSIG=
201511211000 METAR MROC 211000Z 07003KT CAVOK 20/18 A2990 NOSIG=
201511211100 METAR MROC 211100Z 04005KT CAVOK 20/18 A2991 NOSIG=
201511211200 METAR MROC 211200Z 07004KT CAVOK 20/17 A2992 NOSIG=
201511211300 METAR MROC 211300Z 09002KT CAVOK 20/18 A2994 NOSIG=
201511211400 METAR MROC 211400Z 00000KT CAVOK 24/18 A2998 NOSIG=
201511211500 METAR MROC 211500Z 10002KT 9999 FEW040 SCT120 27/18 A2997 NOSIG=
201511211600 METAR MROC 211600Z 25005KT 9999 FEW040 SCT120 26/19 A2997 NOSIG=
201511211700 METAR MROC 211700Z 24008KT 9999 SCT030 27/20 A2995 NOSIG=
201511211800 METAR MROC 211800Z 22007KT 9999 VCSH FEW010TCU BKN030 26/20 A2992 NOSIG=
201511211900 METAR MROC 211900Z 23009KT 9999 FEW010TCU BKN030 25/21 A2989 NOSIG=
201511212000 METAR MROC 212000Z 24011KT 9999 VCSH FEW010TCU BKN030 23/20 A2989 NOSIG=
201511212100 METAR MROC 212100Z 24008KT 8000 RA SCT010TCU BKN025 21/20 A2989 BECMG 5000 BR=
201511212200 METAR MROC 212200Z 29003KT 9999 -RA SCT010 BKN100 22/20 A2990 NOSIG=
201511212300 METAR MROC 212300Z 29002KT 9999 -DZ FEW006 SCT015 BKN100 22/20 A2989 NOSIG=
201511220000 METAR MROC 220000Z 26004KT 9999 SCT010 BKN100 21/20 A2992 NOSIG=
201511220100 METAR MROC 220100Z 00000KT 9999 SCT010 SCT100 22/20 A2994 NOSIG=
201511220200 METAR MROC 220200Z 00000KT 9999 FEW010 SCT100 21/20 A2996 NOSIG=
201511220300 METAR MROC 220300Z 00000KT 9999 SCT010 BKN100 21/20 A2997 NOSIG=
201511220400 METAR MROC 220400Z 00000KT 9999 -RA FEW010 BKN100 21/20 A2997 NOSIG=
201511220500 METAR MROC 220500Z 00000KT 9999 -RA BKN100 21/20 A2995 NOSIG=
201511220600 METAR MROC 220600Z 18003KT 1000 BR SCT002 BKN100 21/20 A2995 NOSIG=
201511220700 METAR MROC 220700Z 00000KT 1200 BR SCT002 BKN100 21/20 A2994 NOSIG=
201511220800 METAR MROC 220800Z 00000KT 5000 BR FEW002 BKN100 21/19 A2992 NOSIG=
201511220900 METAR MROC 220900Z 02004KT CAVOK 20/19 A2991 NOSIG=
201511221000 METAR MROC 221000Z 09003KT CAVOK 20/18 A2990 NOSIG=
201511221100 METAR MROC 221100Z 05004KT CAVOK 20/18 A2991 NOSIG=
201511221200 METAR MROC 221200Z 02004KT CAVOK 20/18 A2991 NOSIG=
201511221300 METAR MROC 221300Z 07004KT CAVOK 21/18 A2994 NOSIG=
201511221400 METAR MROC 221400Z 08005KT 9999 FEW045 BKN250 24/19 A2998 NOSIG=
201511221500 METAR MROC 221500Z 23006KT 9999 FEW040 SCT060 SCT200 24/19 A3000 NOSIG=
201511221600 METAR MROC 221600Z 26006KT 9999 VCSH SCT025 BKN100 24/19 A3001 NOSIG=
201511221700 METAR MROC 221700Z 27002KT 9999 4000NE -RA SCT025 BKN100 23/19 A3000 NOSIG=
201511221800 METAR MROC 221800Z 03005KT 8000 -RA SCT020 BKN100 22/19 A2997 NOSIG=
201511221900 METAR MROC 221900Z 07003KT 9999 -RA FEW015 BKN100 21/20 A2994 NOSIG=
201511222000 METAR MROC 222000Z 03004KT 9999 FEW015 BKN100 23/20 A2993 NOSIG=
201511222100 METAR MROC 222100Z 34003KT 9999 FEW035 BKN100 24/20 A2991 NOSIG=
201511222200 METAR MROC 222200Z 24008KT 3000 1200SW BR FEW005 SCT020 BKN100 22/20 A2992 NOSIG=
201511222300 METAR MROC 222300Z 23003KT 1200 BR FEW005 SCT010 BKN100 22/20 A2993 BECMG 5000 BR=
201511222358 METAR MROC 230000Z VRB02KT 8000 1500SW VCFG FEW005 SCT025 BKN100 21/20 A2995 NOSIG=
201511230000 METAR MROC 230000Z VRB02KT 8000 1500SW VCFG FEW005 SCT025 BKN100 21/20 A2995 NOSIG=
201511230100 METAR MROC 230100Z 08006KT 9999 BCFG FEW025 BKN100 20/18 A2997 NOSIG=
201511230200 METAR MROC 230200Z 11005KT 9999 FEW025 BKN100 20/16 A2999 NOSIG=
201511230300 METAR MROC 230300Z 07006KT 9999 BKN030 20/16 A3000 NOSIG=
201511230400 METAR MROC 230400Z 07005KT CAVOK 20/16 A3000 NOSIG=
201511230500 METAR MROC 230500Z 07004KT CAVOK 19/15 A3000 NOSIG=
201511230600 METAR MROC 230600Z 07007KT CAVOK 20/15 A2998 NOSIG=
201511230700 METAR MROC 230700Z 06006KT CAVOK 19/16 A2995 NOSIG=
201511230800 METAR MROC 230800Z 06005KT CAVOK 19/15 A2994 NOSIG=
201511230900 METAR MROC 230900Z 06005KT CAVOK 19/16 A2994 NOSIG=
201511231000 METAR MROC 231000Z 07006KT CAVOK 19/16 A2993 NOSIG=
201511231100 METAR MROC 231100Z 07005KT CAVOK 19/16 A2994 NOSIG=
201511231200 METAR MROC 231200Z 05010KT CAVOK 20/16 A2996 NOSIG=
201511231300 METAR MROC 231300Z 08010KT CAVOK 22/16 A2999 NOSIG=
201511231400 METAR MROC 231400Z 10010KT CAVOK 25/17 A3001 NOSIG=
201511231500 METAR MROC 231500Z 09013KT 9999 FEW035 25/18 A3001 NOSIG=
201511231600 METAR MROC 231600Z 10012KT 9999 FEW035 SCT120 25/18 A3001 NOSIG=
201511231700 METAR MROC 231700Z 09012KT 9999 FEW030 SCT120 27/19 A2999 NOSIG=
201511231800 METAR MROC 231800Z 09014KT 9999 SCT030 27/17 A2996 NOSIG=
201511231900 METAR MROC 231900Z 10016KT 9999 FEW030 SCT250 27/16 A2993 NOSIG=
201511232000 METAR MROC 232000Z 11010G20KT 9999 FEW030 SCT120 27/17 A2991 NOSIG=
201511232100 METAR MROC 232100Z 10009KT 9999 SCT030 SCT140 25/17 A2990 NOSIG=
201511232200 METAR MROC 232200Z 10009G19KT 9999 SCT025 SCT140 23/15 A2991 NOSIG=
201511232300 METAR MROC 232300Z 09007KT 9999 SCT025 23/13 A2993 NOSIG=
201511240000 METAR MROC 240000Z 10006KT 9999 FEW025 SCT100 22/15 A2995 NOSIG=
201511240100 METAR MROC 240100Z 10007KT CAVOK 21/15 A2998 NOSIG=
201511240200 METAR MROC 240200Z 09008G18KT 9999 FEW040 SCT120 21/14 A3000 NOSIG=
201511240300 METAR MROC 240300Z 09007G17KT CAVOK 21/15 A3001 NOSIG=
201511240400 METAR MROC 240400Z 08007KT CAVOK 21/14 A3001 NOSIG=
201511240500 METAR MROC 240500Z 10008KT CAVOK 20/15 A3001 NOSIG=
201511240600 METAR MROC 240600Z 06005KT CAVOK 19/15 A3001 NOSIG=
201511240700 METAR MROC 240700Z 08006KT CAVOK 20/15 A2999 NOSIG=
201511240800 METAR MROC 240800Z 07007KT CAVOK 19/15 A2998 NOSIG=
201511240900 METAR MROC 240900Z 09009KT CAVOK 20/14 A2996 NOSIG=
201511241000 METAR MROC 241000Z 09008KT CAVOK 19/14 A2996 NOSIG=
201511241100 METAR MROC 241100Z 11006KT CAVOK 20/15 A2996 NOSIG=
201511241200 METAR MROC 241200Z 11005KT CAVOK 20/15 A2997 NOSIG=
201511241300 METAR MROC 241300Z 10008KT CAVOK 23/15 A2999 NOSIG=
201511241400 METAR MROC 241400Z 10010KT CAVOK 24/14 A3000 NOSIG=
201511241500 METAR MROC 241500Z 10012KT CAVOK 26/13 A3001 NOSIG=
201511241600 METAR MROC 241600Z 08012KT CAVOK 27/14 A3001 NOSIG=
201511241700 METAR MROC 241700Z 08011KT CAVOK 27/15 A2999 NOSIG=
201511241800 METAR MROC 241800Z 09010KT 9999 FEW030 SCT080 27/15 A2997 NOSIG=
201511241900 METAR MROC 241900Z 07010KT 9999 FEW030 BKN100 27/16 A2995 NOSIG=
201511242000 METAR MROC 242000Z 09009KT 9999 FEW030 SCT100 28/16 A2993 NOSIG=
201511242100 METAR MROC 242100Z 07012G22KT 9999 FEW030 BKN100 25/16 A2993 NOSIG=
201511242200 METAR MROC 242200Z 08011KT 9999 FEW030 BKN110 24/15 A2993 NOSIG=
201511242300 METAR MROC 242300Z 08012KT 9999 SCT035 23/15 A2995 NOSIG=
201511250000 METAR MROC 250000Z 10012KT 9999 SCT035 21/16 A2997 NOSIG=
201511250100 METAR MROC 250100Z 10010KT 9999 FEW035 21/15 A2998 NOSIG=
201511250200 METAR MROC 250200Z 11010KT 9999 FEW035 21/15 A3000 NOSIG=
201511250300 METAR MROC 250300Z 10010KT CAVOK 21/15 A3001 NOSIG=
201511250400 METAR MROC 250400Z 08013KT CAVOK 21/15 A3002 NOSIG=
201511250500 METAR MROC 250500Z 09016KT CAVOK 21/15 A3000 NOSIG=
201511250600 METAR MROC 250600Z 10016KT CAVOK 21/15 A2998 NOSIG=
201511250700 METAR MROC 250700Z 12012KT CAVOK 20/15 A2996 NOSIG=
201511250800 METAR MROC 250800Z 13011KT CAVOK 20/15 A2994 NOSIG=
201511250900 METAR MROC 250900Z 10016KT CAVOK 20/15 A2992 NOSIG=
201511251000 METAR MROC 251000Z 10010KT CAVOK 20/15 A2993 NOSIG=
201511251100 METAR MROC 251100Z 10009KT CAVOK 20/15 A2994 NOSIG=
201511251200 METAR MROC 251200Z 10012KT CAVOK 20/15 A2995 NOSIG=
201511251300 METAR MROC 251300Z 10010KT CAVOK 23/15 A2997 NOSIG=
201511251400 METAR MROC 251400Z 11010KT CAVOK 25/15 A2999 NOSIG=
201511251500 METAR MROC 251500Z 10012KT 9999 SCT045 27/16 A3001 NOSIG=
201511251600 METAR MROC 151600Z 10012KT 9999 FEW040 SCT080 26/16 A3001 NOSIG=
201511251700 METAR MROC 251700Z 09008KT 9999 -RA SCT035 BKN100 23/17 A3000 NOSIG=
201511251800 METAR MROC 251800Z 07004KT 9999 SCT035 BKN100 25/17 A2997 NOSIG=
201511251900 METAR MROC 251900Z 11006KT 9999 -RA SCT035 OVC100 24/18 A2996 NOSIG=
201511252000 METAR MROC 252000Z 06004KT 9999 -RA SCT030 OVC100 23/19 A2995 NOSIG=
201511252100 METAR MROC 252100Z 11006KT 9999 SCT030 OVC100 24/18 A2993 NOSIG=
201511252200 METAR MROC 252200Z 10007KT 9999 FEW030 BKN100 23/18 A2992 NOSIG=
201511252300 METAR MROC 252300Z 10009KT 9999 FEW030 BKN100 22/17 A2992 NOSIG=
201511260000 METAR MROC 260000Z 09006KT CAVOK 23/17 A2993 NOSIG=
201511260100 METAR MROC 260100Z 09013KT CAVOK 22/16 A2994 NOSIG=
201511260200 METAR MROC 260200Z 10007KT CAVOK 22/17 A2997 NOSIG=
201511260300 METAR MROC 260300Z 08010KT CAVOK 23/16 A2999 NOSIG=
201511260400 METAR MROC 260400Z 09009KT 9999 FEW040 SCT140 22/16 A2998 NOSIG=
201511260500 METAR MROC 260500Z 09013G28KT 9999 FEW030 SCT120 23/17 A2997 NOSIG=
201511260600 METAR MROC 260600Z 09013G24KT 9999 FEW030 SCT120 22/17 A2995 NOSIG=
201511260700 METAR MROC 260700Z 10010G20KT 9999 FEW030 22/17 A2994 NOSIG=
201511260800 METAR MROC 260800Z 10012G23KT 9999 FEW020 22/17 A2993 NOSIG=
201511260900 METAR MROC 260900Z 11010G21KT 9999 FEW030 22/17 A2993 NOSIG=
201511261000 METAR MROC 261000Z 11008KT 9999 FEW020 21/16 A2994 NOSIG=
201511261100 METAR MROC 261100Z 09011G22KT 9999 FEW020 22/16 A2996 NOSIG=
201511261200 METAR MROC 261200Z 09012G22KT 9999 FEW035 22/17 A2998 NOSIG=
201511261300 METAR MROC 261300Z 10011G22KT CAVOK 23/17 A3000 NOSIG=
201511261400 METAR MROC 261400Z 10011G21KT CAVOK 24/15 A3003 NOSIG=
201511261500 METAR MROC 261500Z 10012G22KT 9999 FEW040 SCT120 25/14 A3003 NOSIG=
201511261600 METAR MROC 261600Z 08012G22KT 9999 FEW040 SCT120 25/14 A3004 NOSIG=
201511261700 METAR MROC 261700Z 08013G24KT 9999 FEW040 BKN120 27/15 A3002 NOSIG=
201511261800 METAR MROC 261800Z 07012KT 9999 FEW040 BKN120 28/14 A3000=
201511261900 METAR MROC 261900Z 07014KT 9999 FEW040 SCT120 27/14 A2998 NOSIG=
201511262000 METAR MROC 262000Z 07013KT 9999 FEW040 SCT120 28/15 A2996 NOSIG=
201511262100 METAR MROC 262100Z 08011KT 9999 SCT040 27/16 A2994 NOSIG=
201511262200 METAR MROC 262200Z 09009KT 9999 FEW040 26/16 A2995 NOSIG=
201511262300 METAR MROC 262300Z 09010KT 9999 FEW035 25/15 A2994 NOSIG=
201511270000 METAR MROC 270000Z 12007KT 9999 FEW040 23/16 A2995 NOSIG=
201511270100 METAR MROC 270100Z 11010KT 9999 FEW040 22/17 A2997 NOSIG=
201511270200 METAR MROC 270200Z 11009KT CAVOK 22/16 A2998 NOSIG=
201511270300 METAR MROC 270300Z 10012G23KT CAVOK 22/16 A2999 NOSIG=
201511270400 METAR MROC 270400Z 11010G20KT CAVOK 22/17 A2999 NOSIG=
201511270500 METAR MROC 270500Z 10012KT CAVOK 22/17 A2998 NOSIG=
201511270600 METAR MROC 270600Z 09011G21KT CAVOK 22/17 A2998 NOSIG=
201511270700 METAR MROC 270700Z 07007KT CAVOK 22/17 A2995 NOSIG=
201511270800 METAR MROC 270800Z 09012KT CAVOK 23/16 A2994 NOSIG=
201511270900 METAR MROC 270900Z 10009KT CAVOK 22/17 A2993 NOSIG=
201511271000 METAR MROC 271000Z 10010KT 9999 FEW035 22/17 A2994 NOSIG=
201511271100 METAR MROC 271100Z 10010KT 9999 FEW035 21/16 A2996 NOSIG=
201511271200 METAR MROC 271200Z 10010KT 9999 FEW035 22/16 A2996 NOSIG=
201511271300 METAR MROC 271300Z 11009KT 9999 FEW040 23/16 A2999 NOSIG=
201511271400 METAR MROC 271400Z 09011KT 9999 FEW040 25/15 A3002 NOSIG=
201511271500 METAR MROC 271500Z 09013G23KT 9999 FEW045 25/16 A3002 NOSIG=
201511271600 METAR MROC 271600Z 09009KT 9999 FEW045 27/16 A3003 NOSIG=
201511271700 METAR MROC NIL=
201511271800 METAR MROC 271800Z 11008KT 9999 FEW035 28/16 A2998 NOSIG=
201511271900 METAR MROC 271900Z 12007KT 9999 FEW040 29/15 A2995 NOSIG=
201511272000 METAR MROC 272000Z 10007KT 9999 FEW040 29/16 A2992 NOSIG=
201511272100 METAR MROC 272100Z 11013KT 9999 FEW040 SCT120 28/17 A2990 NOSIG=
201511272200 METAR MROC 272200Z COR 13011KT 9999 FEW030 SCT100 28/17 A2991 NOSIG=
201511272300 METAR MROC 272300Z 15008KT 9999 FEW035 BKN100 25/17 A2992 NOSIG=
201511272353 METAR MROC 280000Z 12008KT 9999 FEW035 BKN100 23/17 A2995 NOSIG=
201511280000 METAR MROC 280000Z 12008KT 9999 FEW035 BKN100 23/17 A2995 NOSIG=
201511280100 METAR MROC 280100Z 08003KT 9999 FEW035 SCT100 23/19 A2998 NOSIG=
201511280200 METAR MROC 280200Z 10012KT 9999 FEW035 SCT100 22/17 A2999 NOSIG=
201511280300 METAR MROC 280300Z 09011KT 9999 FEW035 BKN120 22/17 A3000 NOSIG=
201511280400 METAR MROC 280400Z 06005KT CAVOK 22/16 A3000 NOSIG=
201511280500 METAR MROC 280500Z 07005KT CAVOK 21/15 A2999 NOSIG=
201511280600 METAR MROC 280600Z 08009KT CAVOK 21/15 A2998 NOSIG=
201511280700 METAR MROC 280700Z 05007KT CAVOK 20/15 A2996 NOSIG=
201511280800 METAR MROC 280800Z 04006KT CAVOK 20/15 A2994 NOSIG=
201511280900 METAR MROC 280900Z 03007KT CAVOK 20/15 A2994 NOSIG=
201511281000 METAR MROC 281000Z 06004KT CAVOK 21/15 A2994 NOSIG=
201511281100 METAR MROC 281100Z 04007KT CAVOK 20/15 A2994 NOSIG=
201511281200 METAR MROC 281200Z 06006KT CAVOK 20/15 A2996 NOSIG=
201511281300 METAR MROC 281300Z 09011KT CAVOK 23/16 A2998 NOSIG=
201511281400 METAR MROC 281400Z 10006KT CAVOK 24/16 A3000 NOSIG=
201511281500 METAR MROC 281500Z 10010G20KT CAVOK 25/16 A3001 NOSIG=
201511281600 METAR MROC 281600Z 09010G20KT 9999 FEW040 27/16 A3000 NOSIG=
201511281700 METAR MROC 281700Z 12015KT 9999 FEW035 SCT060 27/17 A2999 NOSIG=
201511281800 METAR MROC 281800Z 12010G20KT 9999 SCT035 27/17 A2995 NOSIG=
201511281900 METAR MROC 281900Z 10016KT 9999 FEW035 SCT060 26/17 A2994 NOSIG=
201511282000 METAR MROC 282000Z 11015KT 9999 FEW035 SCT250 27/16 A2991 NOSIG=
201511282100 METAR MROC 282100Z 11006KT 9999 FEW025 SCT100 26/14 A2990 NOSIG=
201511282200 METAR MROC 282200Z 10009G20KT 9999 FEW030 25/16 A2989 NOSIG=
201511282300 METAR MROC 282300Z 10010G20KT 9999 FEW030 23/15 A2990 NOSIG=
201511290000 METAR MROC 290000Z 09008KT 9999 FEW030 22/16 A2993 NOSIG=
201511290100 METAR MROC 290100Z 09010G20KT 9999 FEW030 22/16 A2996 NOSIG=
201511290200 METAR MROC 290200Z 09010G20KT 9999 FEW030 21/16 A2998 NOSIG=
201511290300 METAR MROC 290300Z 09009KT 9999 FEW030 21/16 A2999 NOSIG=
201511290400 METAR MROC 290400Z 10009KT CAVOK 22/16 A2999 NOSIG=
201511290500 METAR MROC 290500Z 08007KT CAVOK 21/16 A2998 NOSIG=
201511290600 METAR MROC 290600Z 07006KT CAVOK 21/16 A2998 NOSIG=
201511290700 METAR MROC 290700Z 08008KT CAVOK 21/15 A2996 NOSIG=
201511290800 METAR MROC 290800Z 09008KT CAVOK 21/15 A2994 NOSIG=
201511290900 METAR MROC 290900Z 04005KT CAVOK 20/15 A2994 NOSIG=
201511291000 METAR MROC 291000Z 04006KT CAVOK 19/15 A2993 NOSIG=
201511291100 METAR MROC 291100Z 04004KT CAVOK 21/15 A2994 NOSIG=
201511291200 METAR MROC 291200Z 02002KT CAVOK 18/14 A2995 NOSIG=
201511291300 METAR MROC 291300Z 05007KT 9999 FEW030 23/16 A2997 NOSIG=
201511291400 METAR MROC 291400Z 08010G20KT 9999 FEW030 24/16 A2998 NOSIG=
201511291500 METAR MROC 291500Z 09010G20KT 9999 FEW030 26/17 A2998 NOSIG=
201511291600 METAR MROC 291600Z 09010G20KT 9999 FEW030 27/17 A2996 NOSIG=
201511291700 METAR MROC 291700Z 10010G20KT 9999 FEW045 28/17 A2993 NOSIG=
201511291800 METAR MROC 291800Z 09011G21KT 9999 FEW030 28/16 A2990 NOSIG=
201511291900 METAR MROC 291900Z 09011G21KT 9999 FEW040 28/16 A2986 NOSIG=
201511292000 METAR MROC 292000Z 11010G20KT 9999 FEW040 28/16 A2984 NOSIG=
201511292100 METAR MROC 292100Z 09010G20KT 9999 FEW035 27/16 A2984 NOSIG=
201511292200 METAR MROC 292200Z 10008KT 9999 SCT035 26/16 A2984 NOSIG=
201511292300 METAR MROC 292300Z 10006KT 9999 SCT035 24/16 A2985 NOSIG=
201511300000 METAR MROC 300000Z 09004KT 9999 SCT035 22/16 A2987 NOSIG=
201511300100 METAR MROC 300100Z 08009KT 9999 SCT035 22/16 A2991 NOSIG=
201511300200 METAR MROC 300200Z 06008KT 9999 FEW035 21/16 A2993 NOSIG=
201511300300 METAR MROC 300300Z 08010KT 9999 FEW035 21/16 A2993 NOSIG=
201511300400 METAR MROC 300400Z 08012KT 9999 FEW035 21/16 A2995 NOSIG=
201511300500 METAR MROC 300500Z 10014KT 9999 FEW035 21/16 A2994 NOSIG=
201511300600 METAR MROC 300600Z 10010G20KT CAVOK 21/15 A2991 NOSIG=
201511300700 METAR MROC 300700Z 09012G22KT CAVOK 20/15 A2990 NOSIG=
201511300800 METAR MROC 300800Z 09011G21KT CAVOK 20/15 A2989 NOSIG=
201511300900 METAR MROC 300900Z 09012G22KT CAVOK 20/13 A2987 NOSIG=
201511301000 METAR MROC 301000Z 08012KT CAVOK 19/14 A2988 NOSIG=
201511301100 METAR MROC 301100Z 10014KT CAVOK 20/14 A2998 NOSIG=
201511301200 METAR MROC 301200Z 10010G23KT 9999 FEW040 20/15 A2991 NOSIG=
201511301300 METAR MROC 301300Z 10010G20KT 9999 FEW040 22/15 A2993 NOSIG=
201511301400 METAR MROC 301400Z 10011KT 9999 FEW040 23/16 A2995 NOSIG=
201511301500 METAR MROC 301500Z 09012G23KT 9999 FEW040 24/16 A2995 NOSIG=
201511301600 METAR MROC 301600Z 09013KT 9999 FEW040 25/16 A2994 NOSIG=
201511301700 METAR MROC 301700Z 11011G21KT 9999 FEW040 26/16 A2991 NOSIG=
201511301800 METAR MROC 301800Z 11010G23KT 9999 FEW040 27/16 A2990 NOSIG=
201511301900 METAR MROC 301900Z 11010KT 9999 FEW040 28/16 A2988 NOSIG=
201511302000 METAR MROC 302000Z 10010KT 9999 SCT040 28/16 A2986 NOSIG=
201511302100 METAR MROC 302100Z 10010KT 9999 SCT040 27/16 A2984 NOSIG=
201511302200 METAR MROC 302200Z 09011KT 9999 FEW040 SCT250 26/17 A2985 NOSIG=
201511302300 METAR MROC 302300Z 12007KT 9999 FEW040 SCT250 24/17 A2988 NOSIG=
201512010000 METAR MROC 010000Z 11007KT 9999 FEW040 23/17 A2990 NOSIG=
201512010100 METAR MROC 010100Z 08006KT CAVOK 22/17 A2992 NOSIG=
201512010200 METAR MROC 010200Z 06006KT CAVOK 22/17 A2994 NOSIG=
201512010300 METAR MROC 010300Z 03006KT CAVOK 22/17 A2995 NOSIG=
201512010400 METAR MROC 010400Z 07008KT CAVOK 22/17 A2995 NOSIG=
201512010500 METAR MROC 010500Z 06006KT 9999 FEW030 21/17 A2995 NOSIG=
201512010600 METAR MROC 010600Z 08002KT 9999 FEW030 19/16 A2994 NOSIG=
201512010700 METAR MROC 010700Z 07010KT 9999 FEW030 21/16 A2993 NOSIG=
201512010800 METAR MROC 010800Z 07008KT CAVOK 20/16 A2992 NOSIG=
201512010900 METAR MROC 010900Z 10007KT CAVOK 20/15 A2992 NOSIG=
201512011000 METAR MROC 011000Z 08006KT 9999 FEW030 19/14 A2993 NOSIG=
201512011100 METAR MROC 011100Z 07004KT 9999 FEW030 18/15 A2994 NOSIG=
201512011200 METAR MROC 011200Z 06008KT CAVOK 19/14 A2995 NOSIG=
201512011300 METAR MROC 011300Z 09008KT CAVOK 21/15 A2997 NOSIG=
201512011400 METAR MROC 011400Z 09011KT CAVOK 24/14 A2997 NOSIG=
201512011500 METAR MROC 011500Z 09012G22KT CAVOK 25/13 A2997 NOSIG=
201512011600 METAR MROC 011600Z 09011KT CAVOK 26/14 A2997 NOSIG=
201512011700 METAR MROC 011700Z 09009KT CAVOK 27/14 A2994 NOSIG=
201512011800 METAR MROC 011800Z 09009KT CAVOK 28/15 A2991 NOSIG=
201512011900 METAR MROC 011900Z 08007KT CAVOK 28/16 A2989 NOSIG=
201512012000 METAR MROC 012000Z 10008KT 9999 FEW040 29/15 A2988 NOSIG=
201512012100 METAR MROC 012100Z 09008KT 9999 FEW045 29/15 A2987 NOSIG=
201512012200 METAR MROC 012200Z 12004KT 9999 FEW045 28/15 A2987 NOSIG=
201512012300 METAR MROC 012300Z 09003KT 9999 FEW045 25/16 A2989 NOSIG=
201512020000 METAR MROC 020000Z VRB02KT CAVOK 23/16 A2991 NOSIG=
201512020100 METAR MROC 020100Z 09004KT CAVOK 22/15 A2995 NOSIG=
201512020200 METAR MROC 020200Z 07005KT CAVOK 21/16 A2996 NOSIG=
201512020300 METAR MROC 020300Z 07007KT CAVOK 21/16 A2997 NOSIG=
201512020400 METAR MROC 020400Z 06006KT CAVOK 20/15 A2997 NOSIG=
201512020500 METAR MROC 020500Z 05005KT CAVOK 19/15 A2994 NOSIG=
201512020600 METAR MROC 020600Z 06006KT CAVOK 19/15 A2994 NOSIG=
201512020700 METAR MROC 020700Z 05005KT CAVOK 17/12 A2993 NOSIG=
201512020800 METAR MROC 020800Z 06005KT CAVOK 16/11 A2992 NOSIG=
201512020900 METAR MROC 020900Z 05005KT CAVOK 16/11 A2992 NOSIG=
201512021000 METAR MROC 021000Z 07006KT CAVOK 15/11 A2993 NOSIG=
201512021100 METAR MROC 021100Z 07006KT CAVOK 16/11 A2994 NOSIG=
201512021200 METAR MROC 021200Z 10005KT CAVOK 16/12 A2995 NOSIG=
201512021300 METAR MROC 021300Z 06005KT CAVOK 21/14 A2998 NOSIG=
201512021400 METAR MROC 021400Z 08006KT CAVOK 24/15 A2999 NOSIG=
201512021500 METAR MROC 021500Z COR 09005KT CAVOK 26/14 A2999 NOSIG=
201512021600 METAR MROC 021600Z 10002KT CAVOK 29/12 A2998 NOSIG=
201512021700 METAR MROC 021700Z VRB02KT CAVOK 30/12 A2995 NOSIG=
201512021800 METAR MROC 021800Z 24007KT CAVOK 28/16 A2993 NOSIG=
201512021900 METAR MROC 021900Z 24007KT CAVOK 29/15 A2992 NOSIG=
201512022000 METAR MROC 022000Z 26009KT 9999 FEW045 28/18 A2989 NOSIG=
201512022100 METAR MROC 022100Z 24013KT 9999 FEW040 27/19 A2989 NOSIG=
201512022200 METAR MROC 022200Z 26010KT 9999 FEW035 SCT100 26/20 A2991 NOSIG=
201512022300 METAR MROC 022300Z 24010KT 9999 SCT035 23/20 A2993 NOSIG=
201512030000 METAR MROC 030000Z 21005KT 9999 BKN035 23/19 A2995 BECMG 06006KT=
201512030100 METAR MROC 030100Z 00000KT 9999 BKN035 23/18 A2998 NOSIG=
201512030200 METAR MROC 030200Z VRB02KT 9999 FEW035 22/18 A3000 NOSIG=
201512030300 METAR MROC 030300Z 27004KT 9999 FEW035 21/18 A3002 NOSIG=
201512030400 METAR MROC 030400Z 05002KT CAVOK 20/18 A3004 NOSIG=
201512030500 METAR MROC 030500Z 08003KT CAVOK 20/18 A3000 NOSIG=
201512030600 METAR MROC 030600Z 07005KT CAVOK 20/17 A3000 NOSIG=
201512030700 METAR MROC 030700Z 08005KT CAVOK 21/16 A2999 NOSIG=
201512030800 METAR MROC 030800Z 04003KT CAVOK 19/16 A2997 NOSIG=
201512030900 METAR MROC 030900Z 06004KT CAVOK 18/15 A2998 NOSIG=
201512031000 METAR MROC 031000Z 05005KT CAVOK 18/14 A2999 NOSIG=
201512031100 METAR MROC 031100Z 07005KT CAVOK 17/14 A3000 NOSIG=
201512031200 METAR MROC 031200Z 05008KT CAVOK 19/14 A3001 NOSIG=
201512031300 METAR MROC 031300Z 05008KT CAVOK 21/16 A3003 NOSIG=
201512031400 METAR MROC 031400Z 08005KT CAVOK 26/16 A3005 NOSIG=
201512031500 METAR MROC 031500Z 25004KT 9999 FEW040 27/16 A3005 NOSIG=
201512031600 METAR MROC 031600Z 11016KT 9999 FEW040 28/16 A3003 NOSIG=
201512031700 METAR MROC 031700Z 11012KT 9999 FEW045 29/16 A3001 NOSIG=
201512031800 METAR MROC 031800Z COR 12014KT 9999 FEW045 30/16 A2998 NOSIG=
201512031900 METAR MROC 031900Z 13011KT CAVOK 31/16 A2996 NOSIG=
201512032000 METAR MROC 032000Z 24011KT 9999 FEW040 SCT080 29/20 A2995 NOSIG=
201512032100 METAR MROC 032100Z 23008KT 9999 FEW040 BKN070 27/21 A2995 NOSIG=
201512032200 METAR MROC 032200Z 25007KT 9999 FEW040 SCT080 BKN200 26/21 A2997 NOSIG=
201512032300 METAR MROC 032300Z 25006KT 9999 VCSH FEW025 SCT120 BKN200 24/21 A2998 BECMG 10007KT=
201512040000 METAR MROC 040000Z 24002KT 9999 FEW025 BKN110 23/20 A3001 NOSIG=
201512040100 METAR MROC 040100Z 32003KT 9999 FEW025 BKN120 23/20 A3002 NOSIG=
201512040200 METAR MROC 040200Z 10007KT 9999 FEW025 BKN100 24/18 A3004 NOSIG=
201512040300 METAR MROC 040300Z 12003KT 9999 FEW025 BKN120 23/18 A3006 NOSIG=
201512040400 METAR MROC 040400Z 35005KT 9999 FEW035 SCT120 23/19 A3006 NOSIG=
201512040500 METAR MROC 040500Z VRB02KT 9999 FEW035 SCT120 23/18 A3004 NOSIG=
201512040600 METAR MROC 040600Z VRB02KT 9999 FEW035 SCT120 23/18 A3003 NOSIG=
201512040700 METAR MROC 040700Z 07005KT 9999 FEW035 SCT120 23/18 A3002 NOSIG=
201512040800 METAR MROC 040800Z 04007KT 9999 FEW035 SCT120 23/18 A2998 NOSIG=
201512040900 METAR MROC 040900Z 07003KT 9999 FEW035 SCT120 23/18 A2996 NOSIG=
201512041000 METAR MROC 041000Z 10011KT 9999 FEW035 SCT120 23/17 A2996 NOSIG=
201512041100 METAR MROC 041100Z 06002KT 9999 FEW030 22/17 A2999 NOSIG=
201512041200 METAR MROC 041200Z 07009KT 9999 FEW030 23/17 A3001 NOSIG=
201512041300 METAR MROC 041300Z 08009KT 9999 FEW030 24/18 A3004 NOSIG=
201512041400 METAR MROC 041400Z 11010KT 9999 FEW035 26/18 A3006 NOSIG=
201512041500 METAR MROC 041500Z 10013G23KT 9999 FEW045 27/17 A3006 NOSIG=
201512041600 METAR MROC 041600Z 10011G21KT 9999 FEW045 SCT200 30/16 A3006 NOSIG=
201512041700 METAR MROC 041700Z 08011G21KT 9999 FEW035 BKN200 30/16 A3004 NOSIG=
201512041800 METAR MROC 041800Z 08010G20KT 9999 SCT045 BKN200 30/16 A3002 NOSIG=
201512041900 METAR MROC 041900Z 08010G20KT 9999 SCT035 BKN180 28/17 A3001 NOSIG=
201512042000 METAR MROC 042000Z 11009KT 9999 FEW035 BKN100 27/17 A3000 NOSIG=
201512042100 METAR MROC 042100Z 10007KT CAVOK 25/17 A3000 NOSIG=
201512042200 METAR MROC 042200Z 09010KT CAVOK 25/16 A2998 NOSIG=
201512042300 METAR MROC 042300Z 09011G21KT 9999 FEW035 24/17 A2999 NOSIG=
201512050000 METAR MROC 050000Z 09008KT 9999 FEW035 24/17 A3001 NOSIG=
201512050100 METAR MROC 050100Z 09008KT 9999 FEW035 24/17 A3004 NOSIG=
201512050200 METAR MROC 050200Z 07005KT 9999 FEW035 24/17 A3006 NOSIG=
201512050300 METAR MROC 050300Z 00000KT 9999 FEW035 23/17 A3007 NOSIG=
201512050400 METAR MROC 050400Z 11008KT CAVOK 23/17 A3009 NOSIG=
201512050500 METAR MROC 050500Z 07012KT CAVOK 23/17 A3006 NOSIG=
201512050600 METAR MROC 050600Z 06013KT 9999 FEW030 SCT100 23/16 A3006 NOSIG=
201512050700 METAR MROC 050700Z 09011KT CAVOK 22/17 A3003 NOSIG=
201512050800 METAR MROC 050800Z 10010KT 9999 -RA FEW030 SCT100 21/17 A3001 NOSIG=
201512050900 METAR MROC 050900Z 08015KT 9999 FEW030 22/17 A3000 NOSIG=
201512051000 METAR MROC 051000Z 09009KT 9999 FEW030 SCT100 22/17 A3000 NOSIG=
201512051100 METAR MROC 051100Z 05015KT CAVOK 22/17 A3000 NOSIG=
201512051200 METAR MROC 051200Z 08014KT 9999 -DZ FEW040 SCT080 BKN200 22/17 A3004 BECMG RA=
201512051300 METAR MROC 051300Z 10013G24KT 9999 -RA FEW035 BKN100 22/17 A3005 NOSIG=
201512051400 METAR MROC 051400Z 10012G23KT 9999 FEW035 BKN110 23/17 A3008 NOSIG=
201512051500 METAR MROC 051500Z 09012G22KT 9999 FEW040 BKN110 24/15 A3008 NOSIG=
201512051600 METAR MROC 051600Z 09012G22KT 9999 FEW040 BKN110 25/14 A3006 NOSIG=
201512051700 METAR MROC 051700Z 11010KT 9999 FEW040 BKN120 26/14 A3002 NOSIG=
201512051800 METAR MROC 051800Z 10011G22KT 9999 FEW040 BKN120 28/14 A3000 NOSIG=
201512051900 METAR MROC 051900Z 06020G30KT 9999 FEW040 BKN120 28/15 A2999 NOSIG=
201512052000 METAR MROC 052000Z 07016KT 9999 FEW040 BKN120 28/15 A2997 NOSIG=
201512052100 METAR MROC 052100Z 07011G21KT 9999 FEW035 BKN120 26/16 A2996 NOSIG=
201512052200 METAR MROC 052200Z 07016G27KT 9999 FEW035 BKN120 25/15 A2996 NOSIG=
201512052300 METAR MROC 052300Z 07015G25KT 9999 FEW035 BKN080 25/16 A2996 NOSIG=
201512060000 METAR MROC 060000Z 07009KT 9999 FEW035 BKN080 24/16 A2999 NOSIG=
201512060100 METAR MROC 060100Z 07011G21KT 9999 FEW035 SCT080 24/16 A3001 NOSIG=
201512060200 METAR MROC 060200Z 08011KT 9999 FEW035 SCT120 24/16 A3002 NOSIG=
201512060300 METAR MROC 060300Z 08011KT 9999 FEW035 SCT120 23/16 A3003 NOSIG=
201512060400 METAR MROC 060400Z 10013G23KT 9999 FEW035 23/17 A3003 NOSIG=
201512060500 METAR MROC 060500Z 09011G21KT 9999 FEW040 BKN120 23/16 A3001 NOSIG=
201512060600 METAR MROC 060600Z 10013KT 9999 FEW045 BKN140 23/17 A2999 NOSIG=
201512060700 METAR MROC 060700Z 10010KT 9999 FEW030 SCT140 22/17 A2998 NOSIG=
201512060800 METAR MROC 060800Z 10010G20KT 9999 FEW040 SCT140 23/17 A2997 NOSIG=
201512060900 METAR MROC 060900Z 10009KT 9999 FEW035 BKN140 22/17 A2996 NOSIG=
201512061000 METAR MROC 061000Z 10012KT 9999 FEW030 BKN120 23/17 A2997 NOSIG=
201512061100 METAR MROC 061100Z 10011G21KT 9999 -RA FEW045 BKN080 22/17 A2996 NOSIG=
201512061200 METAR MROC 061200Z 10011G21KT 9999 -RA FEW040 BKN120 21/18 A2998 NOSIG=
201512061300 METAR MROC 061300Z 08011KT 9999 FEW040 BKN120 23/17 A3000 NOSIG=
201512061400 METAR MROC 061400Z 10011G21KT 9999 FEW040 BKN120 24/17 A3002 NOSIG=
201512061500 METAR MROC 061500Z 08013G23KT 9999 FEW030 BKN120 27/17 A3003 NOSIG=
201512061600 METAR MROC 061600Z 06014G26KT 9999 FEW030 BKN120 27/16 A3003 NOSIG=
201512061700 METAR MROC 061700Z 06014G24KT 9999 FEW030 BKN120 26/16 A3001 NOSIG=
201512061800 METAR MROC 061800Z 08013KT 9999 FEW030 BKN120 27/17 A2999 NOSIG=
201512061900 METAR MROC 061900Z 08011KT 9999 FEW030 BKN120 27/17 A2996 NOSIG=
201512062000 METAR MROC 062000Z 07013KT 9999 FEW030 SCT120 28/16 A2995 NOSIG=
201512062100 METAR MROC 062100Z 08010KT 9999 FEW030 SCT120 27/16 A2993 NOSIG=
201512062200 METAR MROC 062200Z 08010KT 9999 FEW030 SCT120 26/17 A2993 NOSIG=
201512062300 METAR MROC 062300Z 08009KT 9999 FEW030 BKN120 25/16 A2995 NOSIG=
201512070000 METAR MROC 070000Z 09006KT 9999 FEW030 SCT120 23/17 A2998 NOSIG=
201512070100 METAR MROC 070100Z 11008KT 9999 FEW030 SCT120 23/17 A3000 NOSIG=
201512070200 METAR MROC 070200Z 10010KT 9999 FEW030 SCT120 23/17 A3001 NOSIG=
201512070300 METAR MROC 070300Z 09009KT 9999 FEW035 22/17 A3001 NOSIG=
201512070400 METAR MROC 070400Z 10011G21KT 9999 FEW035 22/17 A3000 NOSIG=
201512070500 METAR MROC 070500Z 09012KT 9999 FEW035 22/16 A2998 NOSIG=
201512070600 METAR MROC 070600Z 09010KT 9999 FEW035 22/16 A2997 NOSIG=
201512070700 METAR MROC 070700Z 10010KT 9999 FEW035 22/16 A2995 NOSIG=
201512070800 METAR MROC 070800Z 09012KT 9999 FEW035 22/15 A2992 NOSIG=
201512070900 METAR MROC 070900Z 10013KT 9999 FEW035 22/14 A2990 NOSIG=
201512071000 METAR MROC 071000Z 09012KT 9999 FEW035 22/15 A2991 NOSIG=
201512071100 METAR MROC 071100Z 09014G24KT CAVOK 21/15 A2991 NOSIG=
201512071200 METAR MROC 071200Z 08013G23KT CAVOK 22/15 A2993 NOSIG=
201512071300 METAR MROC 071300Z 10013G24KT 9999 FEW045 23/16 A2996 NOSIG=
201512071400 METAR MROC 071400Z 11012KT 9999 FEW045 24/17 A2998 NOSIG=
201512071500 METAR MROC 071500Z 10012G22KT 9999 FEW035 27/17 A2999 NOSIG=
201512071600 METAR MROC 071600Z 11011G21KT 9999 FEW035 27/16 A2999 NOSIG=
201512071700 METAR MROC 071700Z 09011G21KT 9999 FEW035 28/17 A2998 NOSIG=
201512071800 METAR MROC 071800Z 08012G22KT 9999 FEW035 SCT250 28/16 A2995 NOSIG=
201512071900 METAR MROC 071900Z 08012G22KT 9999 FEW035 SCT250 28/15 A2991 NOSIG=
201512072000 METAR MROC 072000Z 08011KT 9999 SCT035 27/16 A2989 NOSIG=
201512072100 METAR MROC 072100Z 08011KT 9999 FEW035 27/15 A2989 NOSIG=
201512072200 METAR MROC 072200Z 08010KT 9999 FEW035 27/15 A2989 NOSIG=
201512072300 METAR MROC 072300Z 11007KT 9999 FEW035 25/16 A2991 NOSIG=
201512080000 METAR MROC 080000Z 09007KT 9999 FEW030 BKN100 23/17 A2994 NOSIG=
201512080100 METAR MROC 080100Z 08009KT 9999 FEW030 23/16 A2997 NOSIG=
201512080200 METAR MROC 080200Z 08010KT 9999 FEW025 22/16 A3001 NOSIG=
201512080300 METAR MROC 080300Z 10010G20KT 9999 FEW030 22/16 A3001 NOSIG=
201512080400 METAR MROC 080400Z 08007KT CAVOK 22/16 A3001 NOSIG=
201512080500 METAR MROC 080500Z 10011G21KT CAVOK 21/16 A2999 NOSIG=
201512080600 METAR MROC NIL=
201512080700 METAR MROC 080700Z 05010G20KT CAVOK 21/15 A2998 NOSIG=
201512080800 METAR MROC 080800Z 02007KT CAVOK 20/15 A2995 NOSIG=
201512080900 METAR MROC 080900Z 07006KT CAVOK 21/15 A2994 NOSIG=
201512081000 METAR MROC 081000Z 09007KT CAVOK 20/15 A2994 NOSIG=
201512081100 METAR MROC 081100Z 04008KT CAVOK 20/15 A2995 NOSIG=
201512081200 METAR MROC 081200Z 07006KT CAVOK 20/15 A2997 NOSIG=
201512081300 METAR MROC 081300Z 08002KT 9999 FEW040 BKN250 23/16 A2999 NOSIG=
201512081400 METAR MROC 081400Z 11010G20KT CAVOK 24/16 A2999 NOSIG=
201512081500 METAR MROC 081500Z 10010G20KT CAVOK 26/16 A3000 NOSIG=
201512081600 METAR MROC 081600Z 10011G21KT CAVOK 27/16 A3000 NOSIG=
201512081700 METAR MROC 081700Z 11009KT 9999 FEW030 29/16 A2998 NOSIG=
201512081800 METAR MROC 081800Z 10008KT 9999 FEW030 29/16 A2996 NOSIG=
201512081900 METAR MROC 081900Z 15005KT 9999 FEW030 SCT080 28/16 A2994 BECMG 26006KT=
201512082000 METAR MROC 082000Z 25009KT 9999 SCT035 27/20 A2992 NOSIG=
201512082100 METAR MROC 082100Z 23011KT 9999 FEW020CB SCT030 27/20 A2992 BECMG SHRA=
201512082200 METAR MROC 082200Z 34008KT 2000 TSRA SCT015CB BKN025 20/19 A2995 NOSIG=
201512082300 METAR MROC 082300Z 25002KT 9999 FEW010 SCT020 BKN100 20/19 A2998 RETSRA NOSIG=
201512090000 METAR MROC 090000Z 02003KT 9999 FEW030 BKN060 21/19 A2998 NOSIG=
201512090100 METAR MROC 090100Z 00000KT 9999 FEW030 SCT100 BKN200 21/19 A2999 NOSIG=
201512090200 METAR MROC 090200Z 05003KT 9999 FEW030 SCT100 BKN200 21/19 A3001 NOSIG=
201512090300 METAR MROC 090300Z VRB02KT 9999 BCFG FEW035 20/19 A3003 NOSIG=
201512090400 METAR MROC 090400Z 00000KT 9999 BCFG FEW030 20/19 A3005 NOSIG=
201512090500 METAR MROC 090500Z 11002KT 9999 FEW030 SCT120 20/18 A3004 NOSIG=
201512090600 METAR MROC 090600Z 06004KT 9999 FEW035 SCT120 19/18 A3002 NOSIG=
201512090700 METAR MROC 090700Z 05005KT CAVOK 20/18 A2997 NOSIG=
201512090800 METAR MROC 090800Z 07007KT CAVOK 21/17 A2996 NOSIG=
201512090900 METAR MROC 090900Z 07005KT CAVOK 20/17 A2995 NOSIG=
201512091000 METAR MROC 091000Z 05003KT CAVOK 19/16 A2996 NOSIG=
201512091100 METAR MROC 091100Z 10004KT CAVOK 21/17 A2996 NOSIG=
201512091200 METAR MROC 091200Z 10005KT CAVOK 21/17 A2999 NOSIG=
201512091300 METAR MROC 091300Z 08006KT CAVOK 23/17 A3002 NOSIG=
201512091400 METAR MROC 091400Z 03006KT CAVOK 24/17 A3003 BECMG 24006KT=
201512091500 METAR MROC 091500Z 09007KT CAVOK 26/18 A3003 NOSIG=
201512091600 METAR MROC 091600Z 09009KT 9999 FEW030 SCT070 28/18 A3004 NOSIG=
201512091700 METAR MROC 091700Z 18006KT 9999 SCT040 29/18 A3002 NOSIG=
201512091701 METAR MROC 091701Z 18006KT 9999 SCT040 29/18 A3002 BECMG 24006KT=
201512091800 METAR MROC NIL=
201512091900 METAR MROC 091900Z 27009KT 9999 FEW025TCU SCT040 27/19 A2997 BECMG SHRA=
201512092000 METAR MROC 092000Z 23010KT 9999 -RA VCSH FEW015CB BKN025 28/20 A2995 BECMG TSRA=
201512092100 METAR MROC 092100Z 31009KT 5000 TSRA SCT010CB BKN025 24/20 A2995 NOSIG=
201512092200 METAR MROC 092200Z 18004KT 9999 -RA SCT015 BKN100 20/19 A2995 NOSIG=
201512092300 METAR MROC 092300Z 03002KT 9999 SCT030 BKN140 21/20 A2996 NOSIG=
201512100000 METAR MROC 100000Z 00000KT 9999 FEW035 SCT140 21/20 A2996 NOSIG=
201512100100 METAR MROC 100100Z 08004KT 9999 FEW035 SCT140 22/19 A2999 NOSIG=
201512100200 METAR MROC 100200Z 06007KT 9999 FEW035 SCT140 21/19 A3001 NOSIG=
201512100300 METAR MROC 100300Z 08005KT 9999 FEW035 22/18 A3002 NOSIG=
201512100400 METAR MROC 100400Z 04010KT 9999 FEW030 22/18 A3001 NOSIG=
201512100500 METAR MROC 100500Z 04005KT CAVOK 21/18 A3000 NOSIG=
201512100600 METAR MROC 100600Z 06008KT CAVOK 21/18 A2998 NOSIG=
201512100700 METAR MROC 100700Z 09005KT 9999 FEW030 22/18 A2997 NOSIG=
201512100800 METAR MROC 100800Z 05002KT 9999 FEW025 20/17 A2996 NOSIG=
201512100900 METAR MROC 100900Z 05001KT 9999 FEW030 19/17 A2994 NOSIG=
201512101000 METAR MROC 101000Z 06003KT 9999 FEW030 21/17 A2996 NOSIG=
201512101100 METAR MROC 101100Z 04006KT 9999 FEW030 20/17 A2996 NOSIG=
201512101200 METAR MROC 101200Z 04006KT 9999 FEW035 21/17 A2998 NOSIG=
201512101300 METAR MROC 101300Z 05005KT 9999 FEW035 23/18 A3001 NOSIG=
201512101400 METAR MROC 101400Z 11008KT 9999 FEW035 25/17 A3003 NOSIG=
201512101500 METAR MROC 101500Z 10008KT 9999 FEW035 26/17 A3004 NOSIG=
201512101600 METAR MROC 101600Z 09005KT 9999 SCT035 27/17 A3005 NOSIG=
201512101700 METAR MROC 101700Z 11002KT 9999 SCT035 29/17 A3002 NOSIG=
201512101800 METAR MROC 101800Z 25010KT 9999 BKN035 27/20 A2999 NOSIG=
201512101900 METAR MROC 101900Z 23011KT 9999 SCT035 27/20 A2997 NOSIG=
201512102000 METAR MROC 102000Z 23010KT 9999 FEW010 BKN025 25/21 A2996 NOSIG=
201512102100 METAR MROC 102100Z 21008KT 9999 VCFG FEW001 BKN020 23/21 A2995 NOSIG=
201512102200 METAR MROC 102200Z 24007KT 3000 -RA BR FEW001 BKN020 22/20 A2996 NOSIG=
201512102300 METAR MROC 102300Z 15002KT 5000 -RA BR FEW001 BKN020 21/20 A2998 NOSIG=
201512110000 METAR MROC 110000Z 12002KT 9999 SCT020 BKN100 21/20 A2997 NOSIG=
201512110100 METAR MROC 110100Z 11002KT 9999 FEW020 BKN100 21/20 A2999 NOSIG=
201512110200 METAR MROC 110200Z 04005KT CAVOK 22/20 A2998 NOSIG=
201512110300 METAR MROC 110300Z 06005KT CAVOK 21/19 A3001 NOSIG=
201512110400 METAR MROC 110400Z 09006KT CAVOK 22/18 A3000 NOSIG=
201512110500 METAR MROC 110500Z 07006KT CAVOK 21/18 A3000 NOSIG=
201512110600 METAR MROC 110600Z 09004KT CAVOK 21/18 A2999 NOSIG=
201512110700 METAR MROC 110700Z 11003KT CAVOK 20/18 A2997 NOSIG=
201512110800 METAR MROC 110800Z 06004KT CAVOK 20/18 A2994 NOSIG=
201512110900 METAR MROC 110900Z 07006KT CAVOK 21/18 A2994 NOSIG=
201512111000 METAR MROC 111000Z 10004KT CAVOK 21/18 A2994 NOSIG=
201512111100 METAR MROC 111100Z 09007KT CAVOK 21/17 A2995 NOSIG=
201512111200 METAR MROC 111200Z 06002KT CAVOK 21/17 A2995 NOSIG=
201512111300 METAR MROC 111300Z 10009KT CAVOK 23/18 A2998 NOSIG=
201512111400 METAR MROC 111400Z 09011KT CAVOK 24/18 A3001 NOSIG=
201512111500 METAR MROC 111500Z 10010KT 9999 FEW040 26/18 A3001 NOSIG=
201512111600 METAR MROC 111600Z 10011KT 9999 FEW040 27/18 A3001 NOSIG=
201512111700 METAR MROC 111700Z 10010KT 9999 FEW040 27/18 A3001=
201512111800 METAR MROC 111800Z 10009KT 9999 SCT040 29/18 A2998 NOSIG=
201512111900 METAR MROC 111900Z 11008KT 9999 SCT040 29/18 A2994 NOSIG=
201512112000 METAR MROC 112000Z 12008KT 9999 SCT040 29/18 A2991 NOSIG=
201512112100 METAR MROC 112100Z 10007KT 9999 SCT040 28/18 A2990 NOSIG=
201512112200 METAR MROC 112200Z 12005KT 9999 FEW040 SCT200 26/17 A2991 NOSIG=
201512112300 METAR MROC 112300Z 12005KT 9999 FEW040 SCT250 26/17 A2992 NOSIG=
201512120000 METAR MROC 120000Z 12005KT 9999 FEW040 24/17 A2995 NOSIG=
201512120100 METAR MROC 120100Z 08004KT 9999 FEW040 23/19 A2996 NOSIG=
201512120200 METAR MROC 120200Z 06004KT 9999 FEW040 22/18 A2999 NOSIG=
201512120300 METAR MROC 120300Z 07003KT 9999 FEW040 22/18 A3001 NOSIG=
201512120400 METAR MROC 120400Z 08003KT 9999 FEW040 21/17 A3002 NOSIG=
201512120500 METAR MROC 120500Z 04002KT 9999 FEW040 21/17 A3001 NOSIG=
201512120600 METAR MROC 120600Z 07003KT CAVOK 21/17 A3001 NOSIG=
201512120700 METAR MROC 120700Z 07003KT CAVOK 21/17 A2997 NOSIG=
201512120800 METAR MROC 120800Z 06005KT CAVOK 21/16 A2996 NOSIG=
201512120900 METAR MROC 120900Z 08008KT CAVOK 21/16 A2995 NOSIG=
201512121000 METAR MROC 121000Z 04004KT CAVOK 20/16 A2995 NOSIG=
201512121100 METAR MROC 121100Z 10006KT CAVOK 21/16 A2994 NOSIG=
201512121200 METAR MROC 121200Z 10010KT CAVOK 21/16 A2995 NOSIG=
201512121300 METAR MROC 121300Z 12009KT 9999 FEW045 BKN250 23/16 A2997 NOSIG=
201512121400 METAR MROC 121400Z 10010KT CAVOK 24/16 A3000 NOSIG=
201512121500 METAR MROC 121500Z 10010KT CAVOK 26/16 A2999 NOSIG=
201512121600 METAR MROC 121600Z 11008KT CAVOK 28/16 A3000 NOSIG=
201512121700 METAR MROC 121700Z 10009KT CAVOK 28/16 A2999 NOSIG=
201512121800 METAR MROC 121800Z 12006KT CAVOK 29/16 A2997 NOSIG=
201512121900 METAR MROC 121900Z 10007KT 9999 FEW040 SCT250 30/17 A2994 NOSIG=
201512122000 METAR MROC 122000Z 09009KT 9999 FEW035 SCT250 29/16 A2992 NOSIG=
201512122100 METAR MROC 122100Z 10007KT 9999 FEW035 29/16 A2991 NOSIG=
201512122200 METAR MROC 122200Z 13005KT 9999 FEW035 28/17 A2990 BECMG 23006KT=
201512122300 METAR MROC 122300Z 15006KT 9999 4500SW FEW020 SCT070 24/17 A2991 NOSIG=
201512130000 METAR MROC 130000Z 12006KT 9999 4000SW SCT030 BKN080 23/17 A2994 NOSIG=
201512130100 METAR MROC 130100Z 09009KT 9999 FEW035 23/18 A2996 NOSIG=
201512130200 METAR MROC 130200Z 08006KT 9999 FEW030 22/18 A2998 NOSIG=
201512130300 METAR MROC 130300Z 08007KT 9999 FEW025 23/17 A3000 NOSIG=
201512130400 METAR MROC 130400Z 06004KT CAVOK 22/17 A3000 NOSIG=
201512130500 METAR MROC 130500Z 06003KT CAVOK 22/17 A3000 NOSIG=
201512130600 METAR MROC 130600Z 04006KT CAVOK 22/17 A2999 NOSIG=
201512130700 METAR MROC 130700Z 06005KT CAVOK 20/17 A2998 NOSIG=
201512130800 METAR MROC 130800Z 05005KT CAVOK 19/16 A2995 NOSIG=
201512130900 METAR MROC 130900Z 07005KT CAVOK 21/17 A2994 NOSIG=
201512131000 METAR MROC 131000Z 06008KT CAVOK 20/16 A2994 NOSIG=
201512131100 METAR MROC 131100Z 04006KT CAVOK 19/16 A2995 NOSIG=
201512131200 METAR MROC 131200Z 06007KT CAVOK 21/16 A2996 NOSIG=
201512131300 METAR MROC 131300Z 09007KT CAVOK 23/17 A2999 NOSIG=
201512131400 METAR MROC 131400Z 09009KT CAVOK 25/17 A3001 NOSIG=
201512131500 METAR MROC 131500Z 14006KT CAVOK 26/16 A3002 NOSIG=
201512131600 METAR MROC 131600Z 13005KT 9999 FEW040 SCT100 28/17 A3002 NOSIG=
201512131700 METAR MROC 131700Z 12004KT 9999 FEW035 29/17 A2999 NOSIG=
201512131800 METAR MROC 131800Z 25008KT 9999 SCT035 SCT100 27/19 A2996 NOSIG=
201512131900 METAR MROC 131900Z 23006KT 9999 FEW030TCU BKN045 27/20 A2994 BECMG RA=
201512132000 METAR MROC 132000Z 24004KT 9999 -RA FEW045 BKN060 23/21 A2993 NOSIG=
201512132100 METAR MROC 132100Z 31003KT 9999 -RA FEW025 SCT040 BKN070 23/20 A2992 NOSIG=
201512132200 METAR MROC 132200Z 21004KT 9999 FEW015 SCT025 BKN100 23/21 A2993 NOSIG=
201512132300 METAR MROC 132300Z 29004KT 9999 FEW015 SCT045 BKN200 22/20 A2995 NOSIG=
201512140000 METAR MROC 140000Z 34002KT 9999 FEW020 SCT045 BKN200 22/20 A2996 NOSIG=
201512140100 METAR MROC 140100Z 13002KT 9999 FEW025 SCT070 BKN250 22/20 A2998 NOSIG=
201512140200 METAR MROC 140200Z 05002KT 9999 FEW030 BKN070 22/20 A3000 NOSIG=
201512140300 METAR MROC 140300Z 04003KT 9999 FEW030 BKN070 23/19 A3002 NOSIG=
201512140400 METAR MROC 140400Z 10003KT CAVOK 22/18 A3001 NOSIG=
201512140500 METAR MROC 140500Z 00000KT CAVOK 21/17 A3001 NOSIG=
201512140600 METAR MROC 140600Z 09004KT CAVOK 21/17 A3000 NOSIG=
201512140700 METAR MROC 140700Z 03004KT CAVOK 20/17 A2999 NOSIG=
201512140800 METAR MROC 140800Z 00000KT CAVOK 19/17 A2997 NOSIG=
201512140900 METAR MROC 140900Z 04005KT CAVOK 19/17 A2995 NOSIG=
201512141000 METAR MROC 141000Z 08005KT CAVOK 19/17 A2994 NOSIG=
201512141100 METAR MROC 141100Z 07005KT CAVOK 20/16 A2995 NOSIG=
201512141200 METAR MROC 141200Z 07004KT CAVOK 19/16 A2996 NOSIG=
201512141300 METAR MROC 141300Z 07005KT CAVOK 22/17 A2998 NOSIG=
201512141400 METAR MROC 141400Z 07005KT CAVOK 22/17 A2998 NOSIG=
201512141401 METAR MROC 141401Z 10006KT CAVOK 25/17 A3001 NOSIG=
201512141500 METAR MROC 141500Z 11005KT CAVOK 26/17 A3002 NOSIG=
201512141600 METAR MROC 141600Z 11005KT CAVOK 28/16 A3001 BECMG 18006KT=
201512141700 METAR MROC 141700Z 23009KT 9999 FEW045 28/19 A2999 NOSIG=
201512141800 METAR MROC 141800Z 23009KT 9999 FEW040 27/20 A2997 NOSIG=
201512141900 METAR MROC 141900Z 25007KT 9999 SCT035 27/20 A2993 NOSIG=
201512142000 METAR MROC 142000Z 26005KT 9999 FEW025TCU SCT035 28/19 A2990 NOSIG=
201512142100 METAR MROC 142100Z 23008KT 9999 SCT030TCU 28/21 A2989 NOSIG=
201512142200 METAR MROC 142200Z 07004KT 9999 RA SCT025 BKN100 23/19 A2990 NOSIG=
201512142300 METAR MROC 142300Z 07002KT 9999 SCT025 SCT250 22/19 A2991 NOSIG=
201512150000 METAR MROC 150000Z 25004KT 9999 SCT025 23/20 A2994 NOSIG=
201512150100 METAR MROC 150100Z 24003KT 9999 SCT025 22/20 A2994 NOSIG=
201512150200 METAR MROC 150200Z 29003KT 9999 SCT025 22/20 A2999 NOSIG=
201512150300 METAR MROC 150300Z 00000KT 9999 SCT030 22/20 A3001 NOSIG=
201512150400 METAR MROC 150400Z 36002KT 9999 FEW001 BKN070 22/20 A3001 NOSIG=
201512150500 METAR MROC 150500Z VRB02KT 9999 FEW010 BKN140 22/19 A3002 NOSIG=
201512150600 METAR MROC 150600Z 00000KT 9999 FEW025 21/18 A3000 NOSIG=
201512150700 METAR MROC 150700Z 07004KT CAVOK 20/18 A2997 NOSIG=
201512150800 METAR MROC 150800Z 08004KT CAVOK 19/17 A2995 NOSIG=
201512150900 METAR MROC 150900Z 07004KT CAVOK 19/17 A2992 NOSIG=
201512151000 METAR MROC 151000Z 07006KT CAVOK 19/17 A2992 NOSIG=
201512151100 METAR MROC 151100Z 06005KT CAVOK 19/16 A2993 NOSIG=
201512151200 METAR MROC 151200Z 05006KT CAVOK 19/16 A2993 NOSIG=
201512151300 METAR MROC 151300Z 08005KT CAVOK 21/16 A2995 NOSIG=
201512151400 METAR MROC 151400Z 08006KT CAVOK 24/17 A2996 NOSIG=
201512151500 METAR MROC 151500Z 10007KT CAVOK 25/17 A2997 NOSIG=
201512151600 METAR MROC 151600Z 11006KT CAVOK 27/17 A2996 NOSIG=
201512151700 METAR MROC 151700Z 12006KT 9999 FEW045 BKN250 28/17 A2996 NOSIG=
201512151800 METAR MROC 151800Z 21010KT 9999 FEW045 SCT250 27/19 A2994 NOSIG=
201512151900 METAR MROC 151900Z 22008KT 9999 SCT040 SCT250 27/19 A2993 NOSIG=
201512152000 METAR MROC 152000Z 22010KT 9999 SCT035 SCT250 27/19 A2991 NOSIG=
201512152100 METAR MROC 152100Z 24009KT 9999 SCT030 BKN200 26/20 A2988 NOSIG=
201512152200 METAR MROC 152200Z 24008KT 9999 FEW015TCU SCT030 SCT200 24/20 A2989 BECMG RA=
201512152300 METAR MROC 152300Z 24007KT 9999 RA SCT010TCU BKN035 23/21 A2991 NOSIG=
201512160000 METAR MROC 160000Z 25005KT 9999 3000SW BCFG SCT008 BKN030 22/20 A2993 BECMG 5000 BR=
201512160100 METAR MROC 160100Z 27005KT 8000 2500SW BCFG SCT008 BKN025 22/20 A2994 BECMG 5000 BR=
201512160200 METAR MROC 160200Z 26003KT 8000 2500SW BCFG SCT008 BKN020 21/20 A2995 BECMG 5000 BR=
201512160300 METAR MROC 160300Z 24002KT 8000 2500SW BCFG SCT008 BKN020 21/20 A2998 NOSIG=
201512160400 METAR MROC 160400Z 00000KT 9999 VCFG FEW005 SCT015 21/20 A2998 NOSIG=
201512160500 METAR MROC 160500Z 11002KT 9999 SCT020 21/19 A2996 NOSIG=
201512160600 METAR MROC 160600Z 12002KT 9999 FEW020 SCT120 20/19 A2995 NOSIG=
201512160700 METAR MROC 160700Z 02003KT 9999 FEW020 SCT120 20/18 A2994 RMK VIS S SW W 7KMS DUE HZ NOSIG=
201512160800 METAR MROC 160800Z 11003KT 9000 4000SW FEW002 BKN025 19/18 A2993 NOSIG=
201512160900 METAR MROC 160900Z 05005KT CAVOK 20/17 A2993 NOSIG=
201512161000 METAR MROC 161000Z 08003KT CAVOK 19/16 A2993 NOSIG=
201512161100 METAR MROC 161100Z 09004KT CAVOK 18/16 A2994 NOSIG=
201512161200 METAR MROC 161200Z 06007KT CAVOK 18/15 A2994 NOSIG=
201512161300 METAR MROC 161300Z 06007KT CAVOK 21/15 A2997 NOSIG=
201512161400 METAR MROC 161400Z 10002KT CAVOK 25/17 A3000 NOSIG=
201512161500 METAR MROC 161500Z VRB02KT CAVOK 28/16 A3000 BECMG 24006KT=
201512161600 METAR MROC 161600Z 25006KT CAVOK 26/18 A2999 NOSIG=
201512161700 METAR MROC 161700Z 25006KT 9999 FEW045 27/19 A2997 NOSIG=
201512161800 METAR MROC 161800Z 24008KT 9999 FEW045 27/19 A2994 NOSIG=
201512161900 METAR MROC 161900Z 25009KT 9999 FEW045 27/20 A2992 NOSIG=
201512162000 METAR MROC 162000Z 24008KT 9999 FEW020TCU SCT040 27/20 A2989 NOSIG=
201512162100 METAR MROC 162100Z 02010KT 9999 VCSH FEW015TCU BKN030 24/17 A2989 NOSIG=
201512162200 METAR MROC 162200Z 20005KT 9999 FEW015TCU FEW030 SCT070 25/19 A2988 NOSIG=
201512162300 METAR MROC 162300Z 23004KT 8000 FEW020TCU SCT035 23/21 A2990 NOSIG=
201512170000 METAR MROC 170000Z 26005KT 8000 BCFG SCT010 SCT035 22/20 A2991 NOSIG=
201512170100 METAR MROC 170100Z 25003KT 9999 4000SW BCFG FEW010 SCT020 22/20 A2993 NOSIG=
201512170200 METAR MROC 170200Z 25003KT 9999 4000SW BCFG FEW010 SCT020 22/20 A2995 NOSIG=
201512170300 METAR MROC 170300Z 22002KT 9999 BCFG FEW015 SCT025 21/20 A2996 NOSIG=
201512170400 METAR MROC 170400Z 00000KT 5000 BR FEW003 SCT025 21/20 A2996 NOSIG=
201512170500 METAR MROC 170500Z 06003KT 9999 FEW003 21/18 A2994 NOSIG=
201512170600 METAR MROC NIL=
201512170700 METAR MROC 170700Z 04005KT CAVOK 20/17 A2991 NOSIG=
201512170800 METAR MROC 170800Z 04006KT CAVOK 20/16 A2989 NOSIG=
201512170900 METAR MROC 170900Z 06004KT CAVOK 18/15 A2989 NOSIG=
201512171000 METAR MROC 171000Z 06005KT CAVOK 18/15 A2989 NOSIG=
201512171100 METAR MROC 171100Z 05004KT CAVOK 18/15 A2990 NOSIG=
201512171200 METAR MROC 171200Z 06005KT CAVOK 18/14 A2992 NOSIG=
201512171300 METAR MROC 171300Z 08005KT 9999 FEW045 22/16 A2995 NOSIG=
201512171400 METAR MROC 171400Z 09006KT CAVOK 24/16 A2996 NOSIG=
201512171500 METAR MROC 171500Z 11010KT 9999 FEW045 26/16 A2996 BECMG 24007KT=
201512171600 METAR MROC 171600Z 10007KT 9999 FEW045 27/16 A2996 BECMG 24007KT=
201512171700 METAR MROC 171700Z 09006KT 9999 FEW045 28/16 A2994 BECMG 24007KT=
201512171800 METAR MROC 171800Z 26009KT 9999 SCT040 27/19 A2992 NOSIG=
201512171900 METAR MROC 171900Z 23006KT 9999 FEW040 SCT070 28/19 A2990 NOSIG=
201512172000 METAR MROC 172000Z 23006KT 9999 SCT040 29/20 A2987 NOSIG=
201512172100 METAR MROC 172100Z 23010KT 9999 4500SW SCT030 26/21 A2985 NOSIG=
201512172200 METAR MROC 172200Z 25007KT 9999 4500SW RA SCT030 25/21 A2986 NOSIG=
201512172300 METAR MROC 172300Z 23005KT 9000 4000SW RA FEW001 SCT025 23/21 A2988 BECMG 5000=
201512180000 METAR MROC 180000Z 24003KT 9000 3000SW -DZ FEW003 BKN025 22/21 A2990 RERA BECMG 5000 RA=
201512180100 METAR MROC 180100Z 10002KT 9999 2500SW FEW003 BKN040 22/20 A2992 NOSIG=
201512180200 METAR MROC 180200Z 09005KT 9999 FEW003 BKN070 22/16 A2995 NOSIG=
201512180300 METAR MROC 180300Z 10006KT 9999 FEW012 BKN100 23/16 A2997 NOSIG=
201512180400 METAR MROC 180400Z 07006KT 9999 FEW030 BKN100 22/16 A2997 NOSIG=
201512180500 METAR MROC 180500Z 09004KT CAVOK 22/16 A2997 NOSIG=
201512180600 METAR MROC 180600Z 08007KT CAVOK 22/15 A2996 NOSIG=
201512180700 METAR MROC 180700Z 05005KT CAVOK 21/15 A2995 NOSIG=
201512180800 METAR MROC 180800Z 05005KT CAVOK 21/14 A2994 NOSIG=
201512180900 METAR MROC 180900Z 06006KT CAVOK 20/14 A2994 NOSIG=
201512181000 METAR MROC 181000Z 08006KT CAVOK 20/15 A2993 NOSIG=
201512181100 METAR MROC 181100Z 04008KT CAVOK 20/15 A2994 NOSIG=
201512181200 METAR MROC 181200Z 06008KT CAVOK 20/14 A2995 NOSIG=
201512181300 METAR MROC 181300Z 07007KT CAVOK 22/15 A2997 NOSIG=
201512181400 METAR MROC 181400Z 08010G20KT CAVOK 24/15 A2999 NOSIG=
201512181500 METAR MROC 181500Z 09011G21KT CAVOK 26/13 A2998 NOSIG=
201512181600 METAR MROC 181600Z 10010G20KT CAVOK 27/13 A2998 NOSIG=
201512181700 METAR MROC 181700Z 10011G21KT CAVOK 28/14 A2996 NOSIG=
201512181800 METAR MROC 181800Z 10010KT CAVOK 28/15 A2994 NOSIG=
201512181900 METAR MROC 181900Z 09010KT CAVOK 29/15 A2991 NOSIG=
201512182000 METAR MROC 182000Z 10009KT 9999 FEW030 29/15 A2989 NOSIG=
201512182100 METAR MROC 182100Z 08009KT 9999 FEW040 28/15 A2989 NOSIG=
201512182200 METAR MROC 182200Z 09006KT 9999 FEW040 28/16 A2990 NOSIG=
201512182300 METAR MROC 182300Z 08007KT 9999 FEW035 25/15 A2993 NOSIG=
201512190000 METAR MROC 190000Z 11004KT 9999 FEW035 24/16 A2995 NOSIG=
201512190100 METAR MROC 190100Z 05004KT 9999 FEW040 23/16 A2999 NOSIG=
201512190200 METAR MROC 190200Z 09007KT 9999 FEW040 23/16 A3001 NOSIG=
201512190300 METAR MROC 190300Z 10009KT 9999 FEW045 23/14 A3002 NOSIG=
201512190400 METAR MROC 190400Z 10009KT CAVOK 22/14 A3002 NOSIG=
201512190500 METAR MROC 190500Z 10008KT CAVOK 22/14 A3001 NOSIG=
201512190600 METAR MROC 190600Z 10010KT CAVOK 22/15 A2999 NOSIG=
201512190700 METAR MROC 190700Z 09010KT CAVOK 22/15 A2997 NOSIG=
201512190800 METAR MROC 190800Z 10010KT CAVOK 22/16 A2995 NOSIG=
201512190900 METAR MROC 190900Z 10012G22KT CAVOK 22/16 A2994 NOSIG=
201512191000 METAR MROC 191000Z 09013G23KT CAVOK 22/16 A2995 NOSIG=
201512191100 METAR MROC 191100Z 09013G23KT CAVOK 22/16 A2996 NOSIG=
201512191200 METAR MROC 191200Z 10011KT 9999 FEW045 BKN250 22/16 A2996 NOSIG=
201512191300 METAR MROC 191300Z 10012KT CAVOK 23/16 A2997 NOSIG=
201512191400 METAR MROC 191400Z 09014G24KT CAVOK 25/16 A3000 NOSIG=
201512191500 METAR MROC 191500Z 06018G28KT 9999 FEW040 SCT200 27/15 A3002 NOSIG=
201512191600 METAR MROC 191600Z 06016G26KT 9999 FEW040 SCT200 28/15 A3001 NOSIG=
201512191700 METAR MROC 191700Z 07015G25KT 9999 FEW035 BKN250 28/16 A3001 NOSIG=
201512191800 METAR MROC 191800Z 07013G23KT 9999 FEW035 BKN250 28/16 A2997 NOSIG=
201512191900 METAR MROC 191900Z 08013G23KT 9999 FEW035 BKN250 28/15 A2995 NOSIG=
201512192000 METAR MROC 192000Z 06016G26KT 9999 FEW040 SCT120 BKN250 28/15 A2993 NOSIG=
201512192100 METAR MROC 192100Z 07014KT 9999 SCT035 BKN250 28/16 A2993 NOSIG=
201512192200 METAR MROC 192200Z 07012KT 9999 SCT035 SCT250 26/17 A2993 NOSIG=
201512192300 METAR MROC 192300Z 08009KT 9999 BKN030 25/16 A2995 NOSIG=
201512200000 METAR MROC 200000Z 14006KT 9999 -RA BKN030 22/19 A2998 NOSIG=
201512200100 METAR MROC 200100Z 11005KT 9999 FEW030 SCT100 22/118 A3001 NOSIG=
201512200200 METAR MROC 200200Z 11004KT 9999 FEW030 BKN100 21/18 A3003 NOSIG=
201512200300 METAR MROC 200300Z 10004KT 9999 FEW030 SCT100 21/18 A3003 NOSIG=
201512200400 METAR MROC 200400Z 10006KT 9999 FEW030 SCT100 21/18 A3001 NOSIG=
201512200500 METAR MROC 200500Z 08006KT 9999 FEW030 SCT120 21/17 A2999 NOSIG=
201512200600 METAR MROC 200600Z 07006KT 9999 FEW040 SCT100 22/17 A2998 NOSIG=
201512200700 METAR MROC 200700Z 07010KT 9999 FEW030 SCT120 22/17 A2996 NOSIG=
201512200800 METAR MROC 200800Z 08009KT 9999 FEW025 SCT120 23/17 A2995 NOSIG=
201512200900 METAR MROC 200900Z 09009KT 9999 FEW030 SCT100 23/17 A2993 NOSIG=
201512201000 METAR MROC 201000Z 09010KT 9999 FEW030 SCT100 22/17 A2995 NOSIG=
201512201100 METAR MROC 201100Z 09010G20KT 9999 FEW030 SCT100 22/17 A2996 NOSIG=
201512201200 METAR MROC 201200Z 08010KT 9999 FEW030 SCT100 23/16 A2998 NOSIG=
201512201300 METAR MROC 201300Z 07013KT 9999 FEW030 SCT100 24/16 A2999 NOSIG=
201512201400 METAR MROC 201400Z 07016G26KT 9999 FEW030 SCT090 25/15 A3001 NOSIG=
201512201500 METAR MROC 201500Z 07015G25KT 9999 FEW030 SCT100 25/16 A3002 NOSIG=
201512201600 METAR MROC 201600Z 06021G32KT 9999 FEW035 SCT080 27/16 A3001 NOSIG=
201512201700 METAR MROC 201700Z 06017G31KT 9999 FEW035 BKN100 26/15 A3001 NOSIG=
201512201800 METAR MROC 201800Z 06016G26KT 9999 FEW035 BKN090 26/16 A2999 NOSIG=
201512201900 METAR MROC 201900Z 07015KT 9999 FEW035 BKN100 25/16 A2997 NOSIG=
201512202000 METAR MROC 202000Z 07014G27KT 9999 -RA FEW035 BKN100 24/16 A2995 NOSIG=
201512202100 METAR MROC 202100Z 07010KT 9999 FEW030 BKN100 25/16 A2996 NOSIG=
201512202200 METAR MROC 202200Z 07013KT 9999 FEW030 BKN100 25/15 A2994 NOSIG=
201512202300 METAR MROC 202300Z 07012KT 9999 FEW030 BKN100 24/15 A2994 NOSIG=
201512210000 METAR MROC 210000Z 08014G24KT 9999 FEW030 BKN100 23/16 A2995 NOSIG=
201512210100 METAR MROC 210100Z 09009KT CAVOK 23/17 A2997 NOSIG=
201512210200 METAR MROC 210200Z 10008KT CAVOK 22/17 A3000 NOSIG=
201512210300 METAR MROC 210300Z 09011KT CAVOK 23/17 A3000 NOSIG=
201512210400 METAR MROC 210400Z 09011KT CAVOK 23/17 A3000 NOSIG=
201512210500 METAR MROC 210500Z 10013G25KT CAVOK 22/17 A2997 NOSIG=
201512210600 METAR MROC 210600Z 10009KT CAVOK 22/17 A2996 NOSIG=
201512210700 METAR MROC 210700Z 10012G22KT CAVOK 22/17 A2993 NOSIG=
201512210800 METAR MROC NIL=
201512210900 METAR MROC 210900Z 10012G25KT CAVOK 22/17 A2989 NOSIG=
201512211000 METAR MROC 211000Z 10014G28KT CAVOK 22/17 A2990 NOSIG=
201512211100 METAR MROC 211100Z 10012G22KT 9999 FEW040 22/17 A2991 NOSIG=
201512211200 METAR MROC 211200Z 10011G21KT 9999 FEW040 SCT250 22/17 A2994 NOSIG=
201512211300 METAR MROC 211300Z 11010G20KT 9999 FEW030 SCT250 23/17 A2994 NOSIG=
201512211400 METAR MROC 211400Z 11009KT 9999 FEW030 SCT250 24/17 A2997 NOSIG=
201512211500 METAR MROC 211500Z 10012G25KT 9999 FEW030 SCT250 26/18 A2998 NOSIG=
201512211600 METAR MROC 211600Z 08014G24KT 9999 FEW030 SCT250 26/17 A2997 NOSIG=
201512211700 METAR MROC 211700Z 09015G27KT 9999 SCT030 SCT250 27/17 A2995 NOSIG=
201512211800 METAR MROC 211800Z 08012G22KT 9999 BKN030 26/17 A2994 NOSIG=
201512211900 METAR MROC 211900Z 07012KT 9999 SCT030 SCT100 27/17 A2992 NOSIG=
201512212000 METAR MROC 212000Z 07010G20KT 9999 SCT030 SCT100 26/17 A2991 NOSIG=
201512212100 METAR MROC 212100Z 09010G20KT 9999 FEW040 SCT120 SCT250 26/16 A2990 NOSIG=
201512212200 METAR MROC 212200Z 09012G22KT 9999 FEW040 SCT250 26/16 A2989 NOSIG=
201512212300 METAR MROC 212300Z 10010G20KT 9999 FEW040 SCT250 24/17 A2990 NOSIG=
201512220000 METAR MROC 220000Z 10010KT 9999 FEW030 SCT250 23/17 A2990 NOSIG=
201512220100 METAR MROC 220100Z 11012G23KT CAVOK 22/17 A2992 NOSIG=
201512220200 METAR MROC 220200Z 10013G23KT 9999 FEW040 SCT250 22/17 A2995 NOSIG=
201512220300 METAR MROC 220300Z 10014G25KT 9999 FEW040 SCT250 22/17 A2994 NOSIG=
201512220400 METAR MROC 220400Z 10013G25KT 9999 FEW035 SCT250 22/17 A2994 NOSIG=
201512220500 METAR MROC 220500Z 10014KT 9999 FEW035 22/17 A2993 NOSIG=
201512220600 METAR MROC 220600Z 09011KT 9999 FEW035 22/17 A2993 NOSIG=
201512220700 METAR MROC NIL=
201512220800 METAR MROC 220800Z 09011G21KT 9999 FEW040 22/17 A2990 NOSIG=
201512220900 METAR MROC 220900Z 07008KT 9999 FEW040 22/17 A2989 NOSIG=
201512221000 METAR MROC 221000Z 09013KT 9999 FEW040 22/16 A2989 NOSIG=
201512221100 METAR MROC 221100Z 09012G22KT 9999 FEW040 22/15 A2990 NOSIG=
201512221200 METAR MROC 221200Z 11012KT 9999 FEW040 21/16 A2991 NOSIG=
201512221300 METAR MROC 221300Z 10014G25KT 9999 FEW035 SCT250 22/16 A2992 WS R07 NOSIG=
201512221400 METAR MROC 221400Z 10015G25KT 9999 FEW040 24/16 A2995 NOSIG=
201512221500 METAR MROC 221500Z COR 10012G25KT 9999 FEW045 25/16 A2994 WS R07 NOSIG=
201512221600 METAR MROC 221600Z 10015G26KT 9999 FEW045 26/16 A2994 WS R07 NOSIG=
201512221700 METAR MROC 221700Z 09015G25KT 9999 FEW040 27/16 A2992 NOSIG=
201512221800 METAR MROC 221800Z 09013G23KT 9999 FEW040 28/16 A2990 NOSIG=
201512221900 METAR MROC 221900Z 09011KT 9999 FEW040 28/17 A2987 NOSIG=
201512222000 METAR MROC 222000Z 09010KT 9999 FEW040 29/16 A2986 NOSIG=
201512222100 METAR MROC 222100Z 11008KT 9999 FEW040 29/16 A2985 NOSIG=
201512222200 METAR MROC 222200Z 11007KT 9999 FEW025 28/16 A2985 NOSIG=
201512222300 METAR MROC 222300Z 14005KT 9999 FEW020 SCT250 25/17 A2987 NOSIG=
201512230000 METAR MROC 230000Z 10008KT 9999 FEW020TCU 23/17 A2990 NOSIG=
201512230100 METAR MROC 230100Z 10007KT 9999 4500SW FEW015 SCT100 23/17 A2993 NOSIG=
201512230200 METAR MROC 230200Z 08005KT 9999 FEW025 22/17 A2995 NOSIG=
201512230300 METAR MROC 230300Z 10004KT 9999 FEW020 22/17 A2996 NOSIG=
201512230400 METAR MROC 230400Z 07006KT CAVOK 21/17 A2996 NOSIG=
201512230500 METAR MROC 230500Z 04007KT CAVOK 22/17 A2995 NOSIG=
201512230600 METAR MROC 230600Z 05005KT CAVOK 20/17 A2995 NOSIG=
201512230700 METAR MROC 230700Z 05005KT CAVOK 20/16 A2993 NOSIG=
201512230800 METAR MROC 230800Z 02005KT CAVOK 19/16 A2991 NOSIG=
201512230900 METAR MROC 230900Z 06005KT CAVOK 18/15 A2991 NOSIG=
201512231000 METAR MROC 231000Z 05005KT CAVOK 19/16 A2991 NOSIG=
201512231100 METAR MROC 231100Z 06005KT CAVOK 19/16 A2992 NOSIG=
201512231200 METAR MROC 231200Z 040007KT CAVOK 20/16 A2992 NOSIG=
201512231300 METAR MROC 231300Z 05008KT CAVOK 22/17 A2994 NOSIG=
201512231400 METAR MROC 231400Z 05004KT CAVOK 25/17 A2997 NOSIG=
201512231500 METAR MROC 231500Z 10005KT CAVOK 28/18 A2995 NOSIG=
201512231600 METAR MROC 231600Z 11007KT CAVOK 29/17 A2995 NOSIG=
201512231700 METAR MROC 231700Z 10008KT 9999 FEW040 29/17 A2993 NOSIG=
201512231800 METAR MROC 231800Z 12008KT 9999 FEW040 30/16 A2991 NOSIG=
201512231900 METAR MROC 231900Z 24009KT 9999 SCT035 28/19 A2988 NOSIG=
201512232000 METAR MROC 232000Z 24009KT 9999 FEW025TCU SCT035 28/20 A2987 NOSIG=
201512232100 METAR MROC 232100Z 22009KT 9999 BKN040 27/20 A2985 NOSIG=
201512232200 METAR MROC NIL=
201512232300 METAR MROC 232300Z 31004KT 9999 FEW025TCU FEW045 BKN200 25/19 A2987 BECMG 09009KT=
201512240000 METAR MROC 240000Z 22005KT 9999 SCT040 SCT140 23/12 A2989 BECMG 09006KT=
201512240100 METAR MROC 240100Z 16003KT 9999 4000SW FEW030 BKN250 23/18 A2991 NOSIG=
201512240200 METAR MROC 240200Z 00000KT 9999 4000SW FEW025 SCT090 22/20 A2994 NOSIG=
201512240300 METAR MROC 240300Z 00000KT 9999 4500SW FEW035 22/20 A2995 NOSIG=
201512240400 METAR MROC 240400Z 04006KT 9999 FEW040 23/18 A2995 NOSIG=
201512240500 METAR MROC 240500Z 08004KT 9999 FEW035 SCT250 22/17 A2994 NOSIG=
201512240600 METAR MROC 240600Z 04005KT 9999 FEW035 SCT080 22/17 A2993 NOSIG=
201512240700 METAR MROC 240700Z 10010KT 9999 FEW035 SCT100 23/17 A2993 NOSIG=
201512240800 METAR MROC 240800Z 10008KT 9999 FEW035 22/17 A2991 NOSIG=
201512240900 METAR MROC 240900Z 09009KT 9999 FEW035 22/17 A2990 NOSIG=
201512241000 METAR MROC 241000Z 10009KT 9999 FEW035 22/18 A2991 NOSIG=
201512241100 METAR MROC 241100Z 10010KT 9999 FEW035 22/17 A2993 NOSIG=
201512241200 METAR MROC 241200Z 10007KT 9999 FEW030 SCT250 22/17 A2993 NOSIG=
201512241300 METAR MROC 241300Z 10007KT 9999 FEW030 SCT140 23/17 A2996 NOSIG=
201512241400 METAR MROC 241400Z 10011G25KT 9999 FEW030 25/17 A2997 NOSIG=
201512241500 METAR MROC 241500Z 09014G24KT 9999 FEW030 26/16 A2998 NOSIG=
201512241600 METAR MROC 241600Z 09013G23KT 9999 FEW030 27/17 A2999 NOSIG=
201512241700 METAR MROC 241700Z 09009G20KT 9999 SCT030 27/17 A2998 NOSIG=
201512241800 METAR MROC 241800Z 08010G20KT 9999 SCT035 29/18 A2996 NOSIG=
201512241900 METAR MROC 241900Z 09007G17KT 9999 SCT035 31/17 A2993 NOSIG=
201512242000 METAR MROC 242000Z 08009KT 9999 SCT035 30/16 A2991 NOSIG=
201512242100 METAR MROC 242100Z 09010KT 9999 SCT035 29/16 A2990 NOSIG=
201512242200 METAR MROC 242200Z 09010KT 9999 SCT035 28/16 A2990 NOSIG=
201512242300 METAR MROC 242300Z 09005KT 9999 SCT035 25/17 A2991 NOSIG=
201512250000 METAR MROC 250000Z 08010KT 9999 SCT035 24/16 A2993 NOSIG=
201512250100 METAR MROC 250100Z 08008KT 9999 FEW035 24/16 A2995 NOSIG=
201512250200 METAR MROC 250200Z 08012KT 9999 FEW035 23/17 A2997 NOSIG=
201512250300 METAR MROC 250300Z 09011KT 9999 FEW035 23/17 A2998 NOSIG=
201512250400 METAR MROC 250400Z 09012KT 9999 FEW030 23/17 A2998 NOSIG=
201512250500 METAR MROC 250500Z 10012G22KT 9999 FEW030 23/17 A2996 NOSIG=
201512250600 METAR MROC 250600Z 10012G22KT 9999 FEW030 22/18 A2995 NOSIG=
201512250700 METAR MROC 250700Z 10012G22KT 9999 FEW030 23/17 A2994 NOSIG=
201512250800 METAR MROC 250800Z 09013KT 9999 FEW030 23/17 A2991 NOSIG=
201512250900 METAR MROC 250900Z 09012G22KT 9999 FEW035 23/16 A2991 NOSIG=
201512251000 METAR MROC 251000Z 09013G23KT 9999 FEW030 23/16 A2990 NOSIG=
201512251100 METAR MROC 251100Z 10013G23KT 9999 FEW025 22/17 A2991 NOSIG=
201512251200 METAR MROC 251200Z 10013G23KT 9999 FEW030 22/17 A2993 NOSIG=
201512251300 METAR MROC 251300Z 10012G22KT 9999 FEW035 23/17 A2995 NOSIG=
201512251400 METAR MROC 251400Z 10014KT 9999 FEW035 24/17 A2997 NOSIG=
201512251500 METAR MROC 251500Z 11010G20KT 9999 FEW035 26/16 A2998 NOSIG=
201512251600 METAR MROC 251600Z 09011KT 9999 FEW035 27/15 A2998 NOSIG=
201512251700 METAR MROC 251700Z 11012KT 9999 FEW035 28/16 A2996 NOSIG=
201512251800 METAR MROC 251800Z 09013KT 9999 FEW035 28/17 A2994 NOSIG=
201512251900 METAR MROC 251900Z 08012KT 9999 SCT035 28/17 A2992 NOSIG=
201512252000 METAR MROC 252000Z 08011KT 9999 SCT035 28/17 A2990 NOSIG=
201512252100 METAR MROC 252100Z 08010KT 9999 SCT035 28/17 A2989 NOSIG=
201512252200 METAR MROC 252200Z 08010KT 9999 SCT030 27/17 A2989 NOSIG=
201512252300 METAR MROC 252300Z 09010KT 9999 SCT030 24/17 A2989 NOSIG=
201512260000 METAR MROC 260000Z 10011KT 9999 FEW030 23/17 A2990 NOSIG=
201512260100 METAR MROC 260100Z 09011KT 9999 FEW030 23/16 A2992 NOSIG=
201512260200 METAR MROC 260200Z 10012KT 9999 FEW030 23/17 A2994 NOSIG=
201512260300 METAR MROC 260300Z 09011KT 9999 FEW030 23/17 A2996 NOSIG=
201512260400 METAR MROC 260400Z 09013G23KT 9999 FEW030 23/16 A2996 NOSIG=
201512260500 METAR MROC 260500Z 09011G21KT 9999 FEW030 23/16 A2994 NOSIG=
201512260600 METAR MROC 260600Z 10011G21KT CAVOK 22/16 A2993 NOSIG=
201512260700 METAR MROC 260700Z 11008KT CAVOK 22/17 A2991 NOSIG=
201512260800 METAR MROC 260800Z 10010G20KT 9999 FEW045 22/17 A2990 NOSIG=
201512260900 METAR MROC 260900Z 11007KT 9999 FEW045 22/17 A2989 NOSIG=
201512261000 METAR MROC 261000Z 11010G20KT 9999 FEW040 22/17 A2990 NOSIG=
201512261100 METAR MROC 261100Z 09012G22KT 9999 FEW035 23/17 A2991 NOSIG=
201512261200 METAR MROC 261200Z 09011G21KT 9999 SCT035 22/17 A2992 NOSIG=
201512261300 METAR MROC 261300Z 10010KT 9999 FEW030 22/17 A2994 NOSIG=
201512261400 METAR MROC 261400Z 11011KT 9999 FEW030 SCT120 25/17 A2997 NOSIG=
201512261500 METAR MROC 261500Z 09011KT 9999 SCT030 26/16 A2998 NOSIG=
201512261600 METAR MROC 261600Z 08014KT 9999 SCT030 26/17 A2999 NOSIG=
201512261700 METAR MROC 261700Z 08015KT 9999 SCT030 27/17 A2997 NOSIG=
201512261800 METAR MROC 261800Z 08015KT 9999 SCT030 27/16 A2995 NOSIG=
201512261900 METAR MROC 261900Z 08016KT 9999 SCT030 27/16 A2993 NOSIG=
201512262000 METAR MROC 262000Z 08015KT 9999 SCT030 27/15 A2991 NOSIG=
201512262100 METAR MROC 262100Z 09012G23KT 9999 FEW035 27/15 A2989 NOSIG=
201512262200 METAR MROC 262200Z 09012G22KT 9999 FEW035 26/15 A2988 NOSIG=
201512262300 METAR MROC 262300Z 08011G21KT 9999 FEW035 25/16 A2990 NOSIG=
201512270000 METAR MROC 270000Z 09011G21KT 9999 FEW035 23/16 A2990 NOSIG=
201512270100 METAR MROC 270100Z 10011G23KT 9999 FEW035 22/17 A2990 NOSIG=
201512270200 METAR MROC 270200Z 09011G21KT 9999 FEW035 22/17 A2993 NOSIG=
201512270300 METAR MROC 270300Z 10010G20KT 9999 FEW035 22/16 A2993 NOSIG=
201512270400 METAR MROC 270400Z 10012KT 9999 FEW035 22/17 A2994 NOSIG=
201512270500 METAR MROC 270500Z 10011KT 9999 FEW035 22/17 A2993 NOSIG=
201512270600 METAR MROC 270600Z 10012G22KT 9999 FEW035 22/17 A2992 NOSIG=
201512270700 METAR MROC 270700Z 10010KT 9999 FEW035 22/17 A2990 NOSIG=
201512270800 METAR MROC 270800Z 11010KT 9999 FEW035 21/17 A2988 NOSIG=
201512270900 METAR MROC 270900Z 11008KT 9999 FEW035 21/17 A2987 NOSIG=
201512271000 METAR MROC 271000Z 09010KT 9999 FEW035 22/16 A2988 NOSIG=
201512271100 METAR MROC 271100Z 09010G20KT 9999 FEW035 21/17 A2988 NOSIG=
201512271200 METAR MROC 271200Z 10010KT 9999 FEW035 SCT250 21/16 A2989 NOSIG=
201512271300 METAR MROC 271300Z 08008KT 9999 FEW040 BKN250 23/17 A2992 NOSIG=
201512271400 METAR MROC 271400Z 10011G21KT 9999 FEW045 BKN250 24/16 A2994 NOSIG=
201512271500 METAR MROC 271500Z 10010G20KT 9999 FEW040 BKN250 26/17 A2995 NOSIG=
201512271600 METAR MROC 271600Z 10010G20KT 9999 FEW040 BKN250 28/16 A2994 NOSIG=
201512271700 METAR MROC 271700Z 10010KT 9999 FEW040 BKN250 28/17 A2992 NOSIG=
201512271800 METAR MROC 271800Z 11009KT 9999 SCT030 SCT250 28/17 A2990 NOSIG=
201512271900 METAR MROC 271900Z 10010KT 9999 SCT035 27/17 A2987 NOSIG=
201512272000 METAR MROC 272000Z 10010KT 9999 SCT035 28/17 A2985 NOSIG=
201512272100 METAR MROC 272100Z 10009KT 9999 SCT040 27/17 A2983 NOSIG=
201512272200 METAR MROC 272200Z 11008KT 9999 FEW045 28/17 A2982 NOSIG=
201512272300 METAR MROC 272300Z 10008KT 9999 FEW035 SCT100 25/17 A2983 NOSIG=
201512280000 METAR MROC 280000Z 09009KT 9999 FEW040 23/17 A2985 NOSIG=
201512280100 METAR MROC 280100Z 09010KT 9999 FEW030 23/17 A2988 NOSIG=
201512280200 METAR MROC 280200Z 10011KT 9999 FEW030 22/17 A2990 NOSIG=
201512280300 METAR MROC 280300Z 08008KT 9999 FEW030 22/17 A2992 NOSIG=
201512280400 METAR MROC 280400Z 06006KT CAVOK 22/17 A2992 NOSIG=
201512280500 METAR MROC 280500Z 07006KT CAVOK 22/17 A2992 NOSIG=
201512280600 METAR MROC 280600Z 08007KT CAVOK 22/17 A2991 NOSIG=
201512280700 METAR MROC 280700Z 07007KT CAVOK 21/17 A2989 NOSIG=
201512280800 METAR MROC 280800Z 06008KT CAVOK 21/17 A2987 NOSIG=
201512280900 METAR MROC 280900Z 05008KT CAVOK 21/17 A2986 NOSIG=
201512281000 METAR MROC 281000Z 03007KT CAVOK 21/17 A2987 NOSIG=
201512281100 METAR MROC 281100Z 05007KT CAVOK 21/17 A2988 NOSIG=
201512281200 METAR MROC 281200Z 07007KT CAVOK 21/17 A2989 NOSIG=
201512281300 METAR MROC 281300Z 09010G20KT CAVOK 23/16 A2992 NOSIG=
201512281400 METAR MROC 281400Z 09010G20KT CAVOK 24/16 A2994 NOSIG=
201512281500 METAR MROC 281500Z 10010KT 9999 FEW035 26/17 A2996 NOSIG=
201512281600 METAR MROC 281600Z 09010G20KT CAVOK 27/16 A2995 NOSIG=
201512281700 METAR MROC 281700Z 10010KT 9999 FEW030 28/17 A2994 NOSIG=
201512281800 METAR MROC 281800Z 09008KT 9999 FEW035 29/17 A2992 NOSIG=
201512281900 METAR MROC 281900Z 10009KT 9999 FEW030 30/16 A2989 NOSIG=
201512282000 METAR MROC 282000Z 09008KT 9999 FEW030 30/16 A2986 NOSIG=
201512282100 METAR MROC 282100Z 10009G19KT 9999 FEW040 29/16 A2984 NOSIG=
201512282200 METAR MROC 282200Z 10008G18KT 9999 FEW040 28/17 A2985=
201512282300 METAR MROC 282300Z 11007G17KT 9999 FEW035 26/17 A2986 NOSIG=
201512290000 METAR MROC 290000Z 12007KT 9999 FEW035 30/17 A2994 NOSIG=
201512290100 METAR MROC 290100Z 10005G15KT 9999 FEW035 23/17 A2992 NOSIG=
201512290200 METAR MROC 290200Z 09005KT CAVOK 23/18 A2995 NOSIG=
201512290300 METAR MROC 290300Z 05004KT CAVOK 22/17 A2997 NOSIG=
201512290400 METAR MROC 290400Z 10003KT CAVOK 21/17 A2997 NOSIG=
201512290500 METAR MROC 290500Z 08006KT 9999 FEW030 21/17 A2998 NOSIG=
201512290600 METAR MROC 290600Z 09003KT 9999 FEW030 19/16 A2998 NOSIG=
201512290700 METAR MROC 290700Z 06007KT 9999 FEW035 21/16 A2997 NOSIG=
201512290800 METAR MROC 290800Z 07005KT 9999 FEW035 21/16 A2995 NOSIG=
201512290900 METAR MROC 290900Z 07006KT 9999 FEW035 21/16 A2995 NOSIG=
201512291000 METAR MROC 291000Z 07007KT 9999 FEW035 22/16 A2996 NOSIG=
201512291100 METAR MROC 291100Z 07004KT 9999 FEW035 20/15 A2997 NOSIG=
201512291200 METAR MROC 291200Z 09006KT 9999 FEW030 20/16 A2999 NOSIG=
201512291300 METAR MROC 291300Z 06006KT 9999 FEW030 22/16 A3001 NOSIG=
201512291400 METAR MROC 291400Z 10008KT 9999 FEW030 24/16 A3003 NOSIG=
201512291500 METAR MROC 291500Z 10009KT 9999 FEW030 26/16 A3005 NOSIG=
201512291600 METAR MROC 291600Z 10008G18KT 9999 FEW030 28/16 A3004 NOSIG=
201512291700 METAR MROC 291700Z 09009KT 9999 FEW035 29/17 A3002 NOSIG=
201512291800 METAR MROC 291800Z 11005KT 9999 FEW035 30/16 A2999 NOSIG=
201512291900 METAR MROC 291900Z 11006KT 9999 FEW035 30/17 A2996 NOSIG=
201512292000 METAR MROC NIL=
201512292100 METAR MROC 292100Z 09010KT 9999 FEW035 29/17 A2992 NOSIG=
201512292200 METAR MROC 292200Z 10008KT 9999 FEW035 SCT100 28/17 A2993 NOSIG=
201512292300 METAR MROC 292300Z 10006KT 9999 FEW035 SCT100 27/17 A2994 NOSIG=
201512300000 METAR MROC 300000Z 09009KT 9999 FEW035 SCT100 24/17 A2996 NOSIG=
201512300100 METAR MROC 300100Z 10006KT 9999 FEW035 SCT100 23/17 A2996 NOSIG=
201512300200 METAR MROC 300200Z 08007KT 9999 FEW035 22/17 A3001 NOSIG=
201512300300 METAR MROC 300300Z 11006KT 9999 FEW035 22/16 A3002 NOSIG=
201512300400 METAR MROC 300400Z 09011KT 9999 FEW030 23/16 A3003 NOSIG=
201512300500 METAR MROC 300500Z 09010KT 9999 FEW030 23/16 A3002 NOSIG=
201512300600 METAR MROC 300600Z 09008KT 9999 FEW030 22/17 A3001 NOSIG=
201512300700 METAR MROC 300700Z 10010KT 9999 FEW030 22/16 A2999 NOSIG=
201512300800 METAR MROC 300800Z 10011G21KT 9999 FEW030 22/16 A2996 NOSIG=
201512300900 METAR MROC 300900Z 10011G21KT 9999 FEW030 22/16 A2996 NOSIG=
201512301000 METAR MROC 301000Z 10012G22KT 9999 FEW030 22/17 A2997 NOSIG=
201512301100 METAR MROC 301100Z 11011G21KT 9999 FEW030 22/16 A2998 NOSIG=
201512301200 METAR MROC 301200Z 10012G22KT 9999 FEW030 22/16 A3000 NOSIG=
201512301300 METAR MROC 301300Z 09014KT 9999 SCT030 24/16 A3002 NOSIG=
201512301400 METAR MROC 301400Z 09015G25KT 9999 SCT030 25/16 A3003 NOSIG=
201512301500 METAR MROC 301500Z 08015G25KT 9999 SCT030 26/16 A3005 NOSIG=
201512301600 METAR MROC 301600Z 10011G22KT 9999 SCT030 28/16 A3004 NOSIG=
201512301700 METAR MROC 301700Z 07014KT 9999 SCT030 28/16 A3002 NOSIG=
201512301800 METAR MROC 301800Z 07014KT 9999 SCT030 29/16 A3000 NOSIG=
201512301900 METAR MROC 301900Z 07012G22KT 9999 SCT030 29/15 A2997 NOSIG=
201512302000 METAR MROC 302000Z 07014KT 9999 SCT030 29/15 A2993 NOSIG=
201512302100 METAR MROC 302100Z 07013KT 9999 SCT030 29/15 A2993 NOSIG=
201512302200 METAR MROC 302200Z 06014KT 9999 SCT030 28/15 A2993 NOSIG=
201512302300 METAR MROC 302300Z 07014KT 9999 SCT030 26/15 A2993 NOSIG=
201512310000 METAR MROC 310000Z 08011KT 9999 FEW030 24/15 A2994 NOSIG=
201512310100 METAR MROC 310100Z 08013KT 9999 FEW030 24/15 A2995 NOSIG=
201512310200 METAR MROC 310200Z 10013KT CAVOK 23/16 A2997 NOSIG=
201512310300 METAR MROC 310300Z 09013KT CAVOK 23/16 A2998 NOSIG=
201512310400 METAR MROC 310400Z 10012G24KT CAVOK 23/17 A2998 NOSIG=
201512310500 METAR MROC 310500Z 10013G23KT CAVOK 23/16 A2996 NOSIG=
201512310600 METAR MROC 310600Z 11011G21KT CAVOK 22/17 A2996 NOSIG=
201512310700 METAR MROC 310700Z 09012G22KT CAVOK 23/16 A2994 NOSIG=
201512310800 METAR MROC 310800Z 09012KT CAVOK 23/16 A2992 NOSIG=
201512310900 METAR MROC 310900Z 09012G24KT CAVOK 23/16 A2991 NOSIG=
201512311000 METAR MROC 311000Z 10013G23KT CAVOK 23/16 A2992 NOSIG=
201512311100 METAR MROC 311100Z 10011G21KT CAVOK 22/16 A2993 NOSIG=
201512311200 METAR MROC 311200Z 10014G24KT CAVOK 22/16 A2994 NOSIG=
201512311300 METAR MROC 311300Z 09011KT CAVOK 23/16 A2997 NOSIG=
201512311400 METAR MROC 311400Z 09013KT CAVOK 25/16 A2998 NOSIG=
201512311500 METAR MROC 311500Z 08016KT CAVOK 27/15 A2999 NOSIG=
201512311600 METAR MROC 311600Z 09015G25KT CAVOK 28/16 A2998 NOSIG=
201512311700 METAR MROC 311700Z 09016G26KT CAVOK 28/15 A2996 NOSIG=
201512311800 METAR MROC 311800Z 09016G26KT 9999 FEW045 28/15 A2994 NOSIG=
201512311900 METAR MROC 311900Z 08016G26KT 9999 FEW045 29/15 A2992 NOSIG=
201512312000 METAR MROC 312000Z 09017G30KT 9999 FEW045 29/15 A2989 NOSIG=
201512312100 METAR MROC 312100Z 08015KT 9999 FEW045 28/16 A2987 NOSIG=
201512312200 METAR MROC 312200Z 08013G24KT 9999 FEW040 28/15 A2988 NOSIG=
201512312300 METAR MROC 312300Z 08011G21KT 9999 FEW040 SCT080 26/17 A2990 NOSIG=
