201701010000 METAR MROC 010000Z 11009KT 9999 -DZ BKN030 23/16 A2998 NOSIG=
201701010100 METAR MROC 010100Z 11014KT 9999 FEW045 SCT110 22/16 A3000 NOSIG=
201701010200 METAR MROC 010200Z 11013KT 9999 FEW035 BKN110 22/17 A3001 NOSIG=
201701010300 METAR MROC 010300Z 11014KT 9999 FEW035 BKN110 22/16 A3001 NOSIG=
201701010400 METAR MROC 010400Z 11012G22KT CAVOK 22/16 A3001 NOSIG=
201701010500 METAR MROC 010500Z 11011G21KT CAVOK 22/16 A3000 NOSIG=
201701010600 METAR MROC 010600Z 11014KT CAVOK 22/16 A2999 NOSIG=
201701010700 METAR MROC 010700Z 11012G23KT CAVOK 22/17 A2996 NOSIG=
201701010800 METAR MROC 010800Z 12011G21KT CAVOK 21/16 A2995 NOSIG=
201701010900 METAR MROC 010900Z 12010KT CAVOK 21/16 A2995 NOSIG=
201701011000 METAR MROC 011000Z 12009KT CAVOK 21/16 A2996 NOSIG=
201701011100 METAR MROC 011100Z 12010KT CAVOK 21/16 A2996 NOSIG=
201701011200 METAR MROC 011200Z 11012G23KT CAVOK 22/15 A2997 NOSIG=
201701011300 METAR MROC 011300Z 12011G21KT 9999 FEW010 SCT200 22/16 A3000 NOSIG=
201701011400 METAR MROC 011400Z 12012KT 9999 FEW010 SCT200 24/16 A3002 NOSIG=
201701011500 METAR MROC 011500Z 10013KT 9999 FEW015 BKN200 26/15 A3003 NOSIG=
201701011600 METAR MROC 011600Z 09012G22KT 9999 FEW020 BKN200 26/16 A3003 NOSIG=
201701011700 METAR MROC 011700Z 09013KT 9999 FEW025 BKN230 28/17 A3001 NOSIG=
201701011800 METAR MROC 011800Z 11013G23KT 9999 FEW015 SCT045 28/17 A3000 NOSIG=
201701011900 METAR MROC 011900Z 10013KT 9999 FEW010 SCT045 27/16 A2998 NOSIG=
201701012000 METAR MROC 012000Z 08010G20KT 9999 FEW010 SCT045 BKN230 26/16 A2996 NOSIG=
201701012100 METAR MROC 012100Z 09010KT 9999 FEW040 SCT120 BKN250 26/17 A2995 NOSIG=
201701012200 METAR MROC 012200Z 12009KT 9999 FEW035 SCT050 26/18 A2996 NOSIG=
201701012300 METAR MROC 012300Z 12010G20KT 9999 4000E -DZ FEW035 BKN050 22/19 A2999 NOSIG=
201701012351 METAR MROC 020000Z 11006KT 9999 FEW035 BKN050 22/19 A3000 NOSIG=
201701020000 METAR MROC 020000Z 11006KT 9999 FEW035 BKN050 22/19 A3000 NOSIG=
201701020100 METAR MROC 020100Z 12005KT 9999 FEW035 21/18 A3001 NOSIG=
201701020200 METAR MROC 020200Z 10006KT 9999 FEW035 21/18 A3002 NOSIG=
201701020300 METAR MROC 020300Z 11007KT 9999 FEW035 21/17 A3004 NOSIG=
201701020400 METAR MROC 020400Z 10010KT 9999 FEW035 22/18 A3002 NOSIG=
201701020500 METAR MROC 020500Z 12010KT CAVOK 22/18 A3000 NOSIG=
201701020600 METAR MROC 020600Z 09013KT CAVOK 23/17 A2999 NOSIG=
201701020700 METAR MROC 020700Z 09010KT CAVOK 23/17 A2998 NOSIG=
201701020800 METAR MROC 020800Z 08013KT CAVOK 23/17 A2997 NOSIG=
201701020900 METAR MROC 020900Z 10012KT CAVOK 22/16 A2996 NOSIG=
201701021000 METAR MROC 021000Z 10012KT CAVOK 21/17 A2996 NOSIG=
201701021100 METAR MROC 021100Z 09015G25KT CAVOK 23/16 A2996 NOSIG=
201701021200 METAR MROC 021200Z 11010G20KT 9999 FEW035 SCT250 22/17 A2997 NOSIG=
201701021300 METAR MROC 021300Z 09014G29KT 9999 FEW035 BKN250 24/17 A2999 NOSIG=
201701021400 METAR MROC 021400Z 10016G26KT 9999 FEW035 SCT250 24/17 A3001 NOSIG=
201701021500 METAR MROC 021500Z 09014G25KT 9999 FEW035 SCT250 25/17 A3002 NOSIG=
201701021600 METAR MROC 021600Z 09015G26KT 9999 FEW035 SCT250 26/17 A3002 NOSIG=
201701021700 METAR MROC 021700Z 10013G23KT 9999 FEW035 28/17 A3001 NOSIG=
201701021800 METAR MROC 021800Z 10014G24KT 9999 FEW035 28/17 A2998 NOSIG=
201701021900 METAR MROC 021900Z 11016G26KT 9999 FEW035 SCT060 28/18 A2995 NOSIG=
201701022000 METAR MROC 022000Z 08014G26KT 9999 FEW035 SCT060 BKN200 28/17 A2993 NOSIG=
201701022100 METAR MROC 022100Z 08014KT 9999 FEW040 27/17 A2991 NOSIG=
201701022200 METAR MROC 022200Z 08015KT 9999 FEW040 26/17 A2992 NOSIG=
201701022300 METAR MROC 022300Z 08014KT 9999 FEW040 25/16 A2993 NOSIG=
201701030000 METAR MROC 030000Z 08011KT 9999 FEW040 23/16 A2994 NOSIG=
201701030100 METAR MROC 030100Z 10002KT 9999 FEW040 23/17 A2998 NOSIG=
201701030200 METAR MROC 030200Z 02003KT 9999 FEW040 22/16 A2999 NOSIG=
201701030300 METAR MROC 030300Z 08009KT CAVOK 22/15 A3000 NOSIG=
201701030400 METAR MROC 030400Z 06005KT 9999 FEW030 20/14 A2999 NOSIG=
201701030500 METAR MROC 030500Z 05003KT 9999 FEW025 20/14 A2997 NOSIG=
201701030600 METAR MROC 030600Z 11012G22KT 9999 FEW030 22/13 A2995 NOSIG=
201701030700 METAR MROC 030700Z 10010KT 9999 FEW040 21/13 A2994 NOSIG=
201701030800 METAR MROC 030800Z 10010KT CAVOK 21/14 A2992 NOSIG=
201701030900 METAR MROC 030900Z 11008KT CAVOK 21/13 A2992 NOSIG=
201701031000 METAR MROC 031000Z 05006KT 9999 FEW010 19/13 A2993 NOSIG=
201701031100 METAR MROC 031100Z 10008KT CAVOK 20/14 A2992 NOSIG=
201701031200 METAR MROC 031200Z 06007KT CAVOK 19/14 A2995 NOSIG=
201701031300 METAR MROC 031300Z 04007KT CAVOK 21/15 A2997 NOSIG=
201701031400 METAR MROC 031400Z 12005KT CAVOK 24/16 A2999 NOSIG=
201701031500 METAR MROC 031500Z 10011G21KT CAVOK 25/17 A3000 NOSIG=
201701031600 METAR MROC 031600Z 10010KT CAVOK 27/17 A2998 NOSIG=
201701031700 METAR MROC 031700Z 10014KT CAVOK 27/16 A2997 NOSIG=
201701031800 METAR MROC 031800Z 10014G24KT 9999 FEW040 27/16 A2995 NOSIG=
201701031900 METAR MROC 031900Z 11012KT 9999 FEW040 27/16 A2992 NOSIG=
201701032000 METAR MROC 032000Z 11013KT 9999 FEW040 27/16 A2991 NOSIG=
201701032100 METAR MROC 032100Z 11012KT CAVOK 27/15 A2989 NOSIG=
201701032200 METAR MROC 032200Z 11012KT CAVOK 26/15 A2989 NOSIG=
201701032300 METAR MROC 032300Z 10009KT CAVOK 25/15 A2990 RMK PLUMA DE CENIZA CDTE NE NOSIG=
201701040000 METAR MROC 040000Z 10009KT CAVOK 23/14 A2991 RMK PLUMA DE CENIZA VOLC NICA AL NE E NOSIG=
201701040100 METAR MROC 040100Z 09008KT CAVOK 22/13 A2994 NOSIG=
201701040200 METAR MROC 040200Z 08006KT CAVOK 21/14 A2996 NOSIG=
201701040300 METAR MROC 040300Z 02002KT CAVOK 20/12 A2998 NOSIG=
201701040400 METAR MROC 040400Z 11010G20KT CAVOK 21/14 A2998 NOSIG=
201701040500 METAR MROC 040500Z 10010G20KT CAVOK 20/15 A2996 NOSIG=
201701040600 METAR MROC 040600Z 11010G20KT CAVOK 21/14 A2995 NOSIG=
201701040700 METAR MROC 040700Z 11013KT CAVOK 21/14 A2993 NOSIG=
201701040800 METAR MROC 040800Z 07009KT CAVOK 20/14 A2992 NOSIG=
201701040900 METAR MROC 040900Z 11010G21KT CAVOK 20/14 A2992 NOSIG=
201701041000 METAR MROC 041000Z 12013G23KT CAVOK 20/14 A2991 NOSIG=
201701041100 METAR MROC 041100Z 12010G20KT CAVOK 20/13 A2992 NOSIG=
201701041200 METAR MROC 041200Z 12012G23KT 9999 VA NSC 20/12 A2993 NOSIG=
201701041300 METAR MROC 041300Z 05007KT 9999 VA NSC 21/12 A2997 NOSIG=
201701041400 METAR MROC 041400Z 04005KT 9999 VA NSC 23/14 A2998 NOSIG=
201701041500 METAR MROC 041500Z 12012KT 9999 VA NSC 25/15 A2997 NOSIG=
201701041600 METAR MROC 041600Z 11012G24KT 9999 VA NSC 27/13 A2997 NOSIG=
201701041700 METAR MROC 041700Z 12011G21KT 9999 VA NSC 29/13 A2995 NOSIG=
201701041800 METAR MROC 041800Z 12008KT CAVOK 30/13 A2993 RMK VOLCANIC ASH PLUME DIST TO SE S NOSIG=
201701041900 METAR MROC 041900Z 13009KT CAVOK 30/11 A2990 RMK VOLCANIC ASH PLUME DIST TO SE S NOSIG=
201701042000 METAR MROC 042000Z 24009KT CAVOK 29/19 A2989 NOSIG=
201701042100 METAR MROC 042100Z 21005KT 9999 FEW040 28/20 A2988 NOSIG=
201701042200 METAR MROC 042200Z 24009KT 9999 FEW040 SCT250 26/20 A2990 NOSIG=
201701042300 METAR MROC 042300Z 25008KT 9999 FEW040 24/21 A2991 NOSIG=
201701050000 METAR MROC 050000Z 26005KT 9999 FEW040 22/21 A2992 NOSIG=
201701050100 METAR MROC 050100Z 26004KT 9999 FEW040 21/20 A2995 NOSIG=
201701050200 METAR MROC 050200Z 09003KT CAVOK 21/17 A2998 NOSIG=
201701050300 METAR MROC 050300Z 11005KT CAVOK 21/15 A2998 NOSIG=
201701050400 METAR MROC 050400Z 07004KT CAVOK 20/15 A2999 NOSIG=
201701050500 METAR MROC 050500Z 09006KT CAVOK 20/15 A2998 NOSIG=
201701050600 METAR MROC 050600Z 11009KT CAVOK 20/15 A2996 NOSIG=
201701050700 METAR MROC NIL=
201701050800 METAR MROC 050800Z 11012KT CAVOK 21/15 A2993 NOSIG=
201701050900 METAR MROC 050900Z 11013KT CAVOK 20/15 A2991 NOSIG=
201701051000 METAR MROC 051000Z 11011KT CAVOK 20/14 A2992 NOSIG=
201701051100 METAR MROC 051100Z 12011KT CAVOK 20/15 A2993 NOSIG=
201701051200 METAR MROC 051200Z 11012KT CAVOK 21/15 A2994 NOSIG=
201701051300 METAR MROC 051300Z 11013KT CAVOK 20/15 A2996 NOSIG=
201701051400 METAR MROC 051400Z 11014KT CAVOK 24/16 A2999 NOSIG=
201701051500 METAR MROC 051500Z 10016KT 9999 VA NSC 25/15 A3000 NOSIG=
201701051600 METAR MROC 051600Z 09010G20KT CAVOK 27/15 A2999 NOSIG=
201701051700 METAR MROC 051700Z 08012G22KT CAVOK 27/15 A2996 NOSIG=
201701051800 METAR MROC 051800Z 08013KT 9999 FEW040 SCT250 28/15 A2995 NOSIG=
201701051900 METAR MROC 051900Z 07014G24KT 9999 FEW040 SCT250 29/16 A2992 NOSIG=
201701052000 METAR MROC 052000Z 08014KT 9999 FEW040 SCT250 27/17 A2989 NOSIG=
201701052100 METAR MROC 052100Z 11007KT 9999 FEW020 SCT200 28/17 A2988 NOSIG=
201701052200 METAR MROC 052200Z 11007KT 9999 SCT030 SCT120 27/17 A2990 BECMG 22006KT=
201701052300 METAR MROC 052300Z 12003KT 9999 4500SW FEW010 SCT100 25/17 A2992 BECMG 22006KT=
201701060000 METAR MROC 060000Z 25002KT 9999 4500SW FEW010 SCT030 BKN200 23/18 A2994 NOSIG=
201701060100 METAR MROC 060100Z 26006KT 9999 4000SW BCFG FEW030 22/21 A2995 NOSIG=
201701060200 METAR MROC 060200Z 33002KT 9999 4000SW BCFG FEW025 22/21 A2995 NOSIG=
201701060300 METAR MROC 060300Z 33002KT 9999 FEW030 22/21 A2995 NOSIG=
201701060400 METAR MROC 060400Z 09005KT 9999 FEW045 21/17 A3001 NOSIG=
201701060500 METAR MROC 060500Z 09005KT CAVOK 20/17 A3000 NOSIG=
201701060600 METAR MROC 060600Z 08003KT CAVOK 19/16 A2999 NOSIG=
201701060700 METAR MROC 060700Z 09004KT CAVOK 19/16 A2997 NOSIG=
201701060800 METAR MROC 060800Z 03007KT CAVOK 18/15 A2995 NOSIG=
201701060900 METAR MROC 060900Z 08006KT CAVOK 19/15 A2994 NOSIG=
201701061000 METAR MROC 061000Z 06006KT CAVOK 19/15 A2994 NOSIG=
201701061100 METAR MROC 061100Z 06005KT CAVOK 19/15 A2994 NOSIG=
201701061200 METAR MROC 061200Z 11010KT CAVOK 20/15 A2995 NOSIG=
201701061300 METAR MROC 061300Z 09007KT 9999 FEW010 21/15 A2998 NOSIG=
201701061400 METAR MROC 061400Z 11011G21KT 9999 FEW010 SCT150 23/15 A3000 NOSIG=
201701061500 METAR MROC 061500Z 11010G22KT 9999 VA FEW010 SCT150 BKN200 25/15 A3000 NOSIG=
201701061600 METAR MROC 061600Z 11010G20KT 9999 FEW010 SCT100 BKN200 26/14 A3000 REVA NOSIG=
201701061700 METAR MROC 061700Z 11008KT 9999 FEW010 BKN180 28/15 A2999 NOSIG=
201701061800 METAR MROC 061800Z 10008KT 9999 FEW045 BKN200 28/14 A2997 NOSIG=
201701061900 METAR MROC 061900Z 23004KT 9999 FEW020 BKN200 28/18 A2995 NOSIG=
201701062000 METAR MROC 062000Z 17007KT 9999 VA FEW020 SCT200 28/15 A2993 NOSIG=
201701062100 METAR MROC 062100Z 12006KT 9999 FEW040 SCT250 27/15 A2993 REVA NOSIG=
201701062200 METAR MROC 062200Z 25008KT 9999 FEW035 BKN200 25/20 A2994 NOSIG=
201701062300 METAR MROC 062300Z 23007KT 9999 FEW035 BKN200 24/20 A2995 NOSIG=
201701070000 METAR MROC 070000Z 23005KT 9999 FEW030 BKN200 22/20 A2997 NOSIG=
201701070100 METAR MROC 070100Z 27003KT 9999 FEW015 BKN200 21/20 A2999 NOSIG=
201701070200 METAR MROC 070200Z 10005KT 9999 FEW020 BKN200 21/18 A3001 NOSIG=
201701070300 METAR MROC 070300Z 06004KT 9999 FEW030 SCT200 20/15 A3002 NOSIG=
201701070400 METAR MROC NIL=
201701070500 METAR MROC NIL=
201701070600 METAR MROC NIL=
201701070700 METAR MROC NIL=
201701070800 METAR MROC NIL=
201701070900 METAR MROC NIL=
201701071000 METAR MROC NIL=
201701071100 METAR MROC NIL=
201701071200 METAR MROC 071200Z 11010KT CAVOK 20/14 A3001 NOSIG=
201701071300 METAR MROC 071300Z 07005KT CAVOK 21/14 A3006 NOSIG=
201701071400 METAR MROC 071400Z 11011KT CAVOK 24/14 A3007 NOSIG=
201701071500 METAR MROC 071500Z 12010G20KT VA NSC 26/13 A3007 NOSIG=
201701071600 METAR MROC 071600Z 12014G25KT 9999 VCVA NSC 27/14 A3006 NOSIG=
201701071700 METAR MROC 071700Z 11014G24KT CAVOK 27/15 A3003 NOSIG=
201701071800 METAR MROC 071800Z 10014KT CAVOK 27/14 A3002 NOSIG=
201701071900 METAR MROC 071900Z 09012KT 9999 FEW040 BKN250 28/14 A3000 NOSIG=
201701072000 METAR MROC 072000Z 10012KT 9999 FEW040 BKN250 28/14 A2997 NOSIG=
201701072100 METAR MROC 072100Z 08013KT 9999 FEW040 SCT300 29/13 A2996 NOSIG=
201701072200 METAR MROC 072200Z 08013KT 9999 FEW040 SCT300 27/14 A2996 NOSIG=
201701072300 METAR MROC 072300Z 09013KT 9999 FEW040 SCT300 25/15 A2997 NOSIG=
201701080000 METAR MROC 080000Z 11012KT 9999 FEW040 23/16 A3000 NOSIG=
201701080100 METAR MROC 080100Z 07011KT CAVOK 23/15 A3003 NOSIG=
201701080200 METAR MROC 080200Z 10011KT CAVOK 22/16 A3005 NOSIG=
201701080300 METAR MROC 080300Z 09015KT CAVOK 22/16 A3006 NOSIG=
201701080400 METAR MROC 080400Z COR 09013KT 9999 FEW030 22/16 A3008 BECMG 10015G26KT=
201701080500 METAR MROC 080500Z 10013KT 9999 FEW030 21/17 A3006 NOSIG=
201701080600 METAR MROC 080600Z 12015KT 9999 FEW030 21/16 A3004 NOSIG=
201701080700 METAR MROC 080700Z 11012KT 9999 SCT035 21/17 A3002 NOSIG=
201701080800 METAR MROC 080800Z 10011KT 9999 FEW035 SCT090 21/17 A3002 NOSIG=
201701080900 METAR MROC 080900Z 11015KT 9999 FEW040 SCT090 21/17 A2999 NOSIG=
201701081000 METAR MROC 081000Z 10011KT 9999 FEW040 SCT080 22/17 A3000 NOSIG=
201701081100 METAR MROC 081100Z 09011KT 9999 FEW035 BKN100 21/17 A3003 NOSIG=
201701081200 METAR MROC 081200Z 08013G23KT 9999 FEW030 SCT150 22/17 A3003 NOSIG=
201701081300 METAR MROC 081300Z 07011KT 9999 BKN040 22/16 A3006 NOSIG=
201701081400 METAR MROC 081400Z 09010KT 9999 SCT040 SCT100 22/18 A3008 NOSIG=
201701081500 METAR MROC 081500Z 08009KT 9999 -RA SCT030 BKN100 23/18 A3010 NOSIG=
201701081600 METAR MROC 081600Z 36002KT 9999 SCT030 BKN100 24/20 A3008 NOSIG=
201701081700 METAR MROC 081700Z 08008KT 9999 SCT030 BKN100 25/18 A3006 NOSIG=
201701081800 METAR MROC 081800Z 09009KT 9999 SCT030 BKN100 25/18 A3004 NOSIG=
201701081900 METAR MROC 081900Z 07018G28KT 9999 FEW030 BKN1200 26/17 A3002 NOSIG=
201701082000 METAR MROC 082000Z 08011G22KT 9999 FEW030 BKN120 25/17 A3000 NOSIG=
201701082100 METAR MROC 082100Z 10008KT 9999 FEW030 SCT120 25/17 A2999 NOSIG=
201701082200 METAR MROC 082200Z 12012G23KT 9999 FEW030 SCT120 25/17 A2996 NOSIG=
201701082300 METAR MROC 082300Z 09017G31KT 9999 -RA FEW030 BKN100 22/18 A3001 NOSIG=
201701090000 METAR MROC 090000Z 09012G23KT 9999 FEW030 BKN080 22/16 A3002 NOSIG=
201701090100 METAR MROC 090100Z 11012KT 9999 -RA FEW030 SCT050 21/17 A3004 NOSIG=
201701090200 METAR MROC 090200Z 11013G26KT 9999 FEW030 SCT080 22/17 A3003 NOSIG=
201701090300 METAR MROC 090300Z 09010G20KT 9999 -DZ FEW030 SCT090 22/17 A3007 NOSIG=
201701090400 METAR MROC 090400Z 09012G23KT 9999 FEW030 SCT120 22/16 A3006 NOSIG=
201701090500 METAR MROC 090500Z 11012G22KT 9999 -RA FEW030 BKN100 22/17 A3006 NOSIG=
201701090600 METAR MROC 090600Z 08016G26KT 9999 -DZ FEW030 SCT120 22/15 A3006 NOSIG=
201701090700 METAR MROC 090700Z 08015G28KT 9999 -DZ SCT030 21/15 A3005 NOSIG=
201701090800 METAR MROC 090800Z 10014G27KT 9999 -DZ SCT030 SCT100 21/16 A3003 NOSIG=
201701090900 METAR MROC 090900Z 09013G23KT 9999 SCT030 21/16 A3001 NOSIG=
201701091000 METAR MROC 091000Z 10013G23KT 9999 SCT030 21/15 A3002 NOSIG=
201701091100 METAR MROC 091100Z 07019G29KT 9999 FEW030 21/14 A3002 NOSIG=
201701091200 METAR MROC 091200Z 07018G30KT 9999 FEW030 21/12 A3003 NOSIG=
201701091300 METAR MROC 091300Z 10016G29KT 9999 FEW030 21/15 A3006 NOSIG=
201701091400 METAR MROC 091400Z 06024G35KT 9999 FEW035 23/13 A3007 NOSIG=
201701091500 METAR MROC 091500Z 07020G31KT 9999 FEW040 24/15 A3008 NOSIG=
201701091600 METAR MROC 091600Z 08021G32KT 9999 FEW035 SCT045 24/16 A3008 NOSIG=
201701091700 METAR MROC 091700Z 08022G35KT 9999 FEW045 25/15 A3006 NOSIG=
201701091800 METAR MROC 091800Z 07025G37KT 9999 FEW045 26/15 A3003 NOSIG=
201701091900 METAR MROC 091900Z 08026G36KT 9999 FEW040 25/15 A3000 NOSIG=
201701092000 METAR MROC 092000Z 08023G35KT 9999 FEW040 25/15 A2998 NOSIG=
201701092100 METAR MROC 092100Z 08023G37KT 9999 FEW040 25/15 A2996 NOSIG=
201701092200 METAR MROC 092200Z 09020G36KT 9999 FEW040 24/16 A2997 NOSIG=
201701092300 METAR MROC 092300Z 08020G30KT 9999 FEW040 23/15 A2997 NOSIG=
201701100000 METAR MROC 100000Z 09021G33KT 9999 SCT040 22/15 A2999 NOSIG=
201701100100 METAR MROC 100100Z 09019G31KT 9999 SCT040 21/16 A3001 NOSIG=
201701100200 METAR MROC 100200Z 08018G28KT 9999 SCT040 22/15 A3003 NOSIG=
201701100300 METAR MROC 100300Z 09020KT 9999 SCT040 21/15 A3004 NOSIG=
201701100400 METAR MROC 100400Z 09017G27KT 9999 SCT040 22/16 A3004 NOSIG=
201701100500 METAR MROC 100500Z 09017G27KT 9999 SCT040 21/16 A3001 NOSIG=
201701100600 METAR MROC 100600Z 09014G24KT 9999 FEW040 21/16 A3000 NOSIG=
201701100700 METAR MROC 100700Z 10016G26KT 9999 FEW040 21/15 A2997 NOSIG=
201701100800 METAR MROC 100800Z 10014G24KT 9999 FEW040 21/16 A2996 NOSIG=
201701100900 METAR MROC 100900Z 09015G27KT 9999 FEW040 21/16 A2996 NOSIG=
201701101000 METAR MROC 101000Z 09015KT 9999 FEW040 20/16 A2995 NOSIG=
201701101100 METAR MROC 101100Z 11016G26KT 9999 FEW040 20/16 A2995 NOSIG=
201701101200 METAR MROC 101200Z 09018G28KT 9999 FEW030 21/16 A2995 NOSIG=
201701101300 METAR MROC 101300Z 11020G30KT 9999 FEW040 21/16 A2997 NOSIG=
201701101400 METAR MROC 101400Z 10017G27KT 9999 FEW040 23/16 A3000 NOSIG=
201701101500 METAR MROC 101500Z 08020G32KT 9999 FEW040 25/16 A3001 NOSIG=
201701101600 METAR MROC 101600Z 07023G40KT 9999 FEW040 25/14 A3001 NOSIG=
201701101700 METAR MROC 101700Z 08022G33KT 9999 FEW040 26/16 A3000 NOSIG=
201701101800 METAR MROC 101800Z 08020G30KT 9999 FEW040 26/16 A2996 NOSIG=
201701101833 METAR MROC 101833Z 08020G30KT 9999 FEW040 26/16 A2996 NOSIG=
201701101900 METAR MROC 101900Z 09019G29KT 9999 FEW040 SCT100 27/16 A2994 NOSIG=
201701102000 METAR MROC 102000Z 09016G27KT 9999 FEW040 SCT100 26/16 A2994 NOSIG=
201701102100 METAR MROC 102100Z 07018G28KT 9999 FEW020 SCT110 25/16 A2992 NOSIG=
201701102200 METAR MROC 102200Z COR 08020G31KT 9999 -RA FEW020 BKN100 25/16 A2992 NOSIG=
201701102300 METAR MROC 102300Z COR 08014KT 9999 -DZ FEW015 BKN100 23/16 A2993 NOSIG=
201701110000 METAR MROC 110000Z 08015KT 9999 -DZ FEW010 BKN080 22/17 A2994 NOSIG=
201701110100 METAR MROC 110100Z 10012G22KT 9999 FEW020 BKN100 22/17 A2997 NOSIG=
201701110200 METAR MROC 110200Z 08015KT 9999 FEW020 BKN100 22/16 A3000 NOSIG=
201701110300 METAR MROC 110300Z 10014G24KT 9999 FEW030 BKN150 22/16 A3000 NOSIG=
201701110400 METAR MROC 110400Z 09013G27KT CAVOK 22/16 A3001 NOSIG=
201701110500 METAR MROC 110500Z 09017G27KT CAVOK 22/16 A2999 NOSIG=
201701110600 METAR MROC 110600Z 10017G27KT CAVOK 21/17 A3000 NOSIG=
201701110700 METAR MROC 110700Z 11014KT 9999 -RA NSC 22/16 A2997 NOSIG=
201701110800 METAR MROC 110800Z 11014G24KT CAVOK 21/16 A2995 NOSIG=
201701110900 METAR MROC 110900Z 11015G25KT CAVOK 21/16 A2994 NOSIG=
201701111000 METAR MROC 111000Z 10017KT CAVOK 21/15 A2993 NOSIG=
201701111100 METAR MROC 111100Z 11013G23KT CAVOK 21/16 A2994 NOSIG=
201701111200 METAR MROC 111200Z 11015G25KT CAVOK 20/15 A2996 NOSIG=
201701111300 METAR MROC 111300Z 11014G24KT 9999 FEW025 21/16 A3008 NOSIG=
201701111400 METAR MROC 111400Z 11015KT 9999 FEW025 23/16 A3000 NOSIG=
201701111500 METAR MROC 111500Z 09017G27KT 9999 FEW020 SCT200 25/16 A3001 NOSIG=
201701111600 METAR MROC 111600Z 10014KT 9999 FEW025 SCT250 27/16 A3000 NOSIG=
201701111700 METAR MROC 111700Z 09016G26KT 9999 FEW030 SCT250 27/16 A2999 NOSIG=
201701111800 METAR MROC 111800Z 08015G27KT 9999 FEW030 BKN250 27/16 A2997 NOSIG=
201701111900 METAR MROC 111900Z 07020G32KT 9999 FEW030 BKN300 28/16 A2994 NOSIG=
201701112000 METAR MROC 112000Z 08017G27KT 9999 FEW030 28/15 A2993 NOSIG=
201701112100 METAR MROC 112100Z 07016KT CAVOK 28/14 A2991 NOSIG=
201701112200 METAR MROC 112200Z 07016G26KT CAVOK 27/13 A2991 NOSIG=
201701112300 METAR MROC 112300Z 07014G24KT 9999 FEW045 25/14 A2993 NOSIG=
201701120000 METAR MROC 120000Z 08013KT 9999 FEW045 23/14 A2994 NOSIG=
201701120100 METAR MROC 120100Z 08011KT 9999 FEW040 22/14 A2996 NOSIG=
201701120200 METAR MROC 120200Z 08013G23KT 9999 FEW040 22/14 A2998 NOSIG=
201701120300 METAR MROC 120300Z 08016KT 9999 FEW040 22/15 A3000 NOSIG=
201701120400 METAR MROC 120400Z 11007KT 9999 FEW040 20/15 A3000 NOSIG=
201701120500 METAR MROC 120500Z 09011KT 9999 FEW040 21/16 A3000 NOSIG=
201701120600 METAR MROC 120600Z 10012KT 9999 FEW040 21/16 A2998 NOSIG=
201701120700 METAR MROC 120700Z 08017G27KT 9999 FEW040 22/15 A2995 NOSIG=
201701120800 METAR MROC 120800Z 10010G20KT CAVOK 22/15 A2995 NOSIG=
201701120900 METAR MROC 120900Z 11012KT CAVOK 21/15 A2993 NOSIG=
201701121000 METAR MROC 121000Z 10010G20KT CAVOK 21/15 A2995 NOSIG=
201701121100 METAR MROC 121100Z 11012KT CAVOK 21/15 A2995 NOSIG=
201701121200 METAR MROC 121200Z 11009KT 9999 FEW040 SCT130 21/15 A2996 NOSIG=
201701121300 METAR MROC 121300Z 11013KT 9999 FEW040 22/15 A3001 NOSIG=
201701121400 METAR MROC 121400Z 12010KT 9999 FEW045 24/15 A3002 NOSIG=
201701121500 METAR MROC 121500Z 11014G24KT 9999 FEW045 25/15 A3003 NOSIG=
201701121600 METAR MROC 121600Z 09011KT 9999 FEW045 27/15 A3002 NOSIG=
201701121700 METAR MROC 121700Z 08016G28KT 9999 FEW045 28/15 A3001 NOSIG=
201701121800 METAR MROC 121800Z 08015G25KT 9999 FEW045 28/15 A3000 NOSIG=
201701121900 METAR MROC 121900Z 07015G25KT 9999 FEW040 28/14 A2998 NOSIG=
201701122000 METAR MROC 122000Z 07015G25KT 9999 FEW040 28/15 A2997 NOSIG=
201701122100 METAR MROC 122100Z 06020G30KT 9999 FEW040 27/14 A2995 NOSIG=
201701122200 METAR MROC 122200Z 06021KT 9999 FEW040 26/14 A2995 NOSIG=
201701122300 METAR MROC 122300Z 06021KT 9999 FEW040 24/15 A2995 NOSIG=
201701130000 METAR MROC 130000Z 08012KT 9999 FEW040 22/16 A2997 NOSIG=
201701130100 METAR MROC 130100Z 09012KT 9999 FEW040 22/15 A2998 NOSIG=
201701130200 METAR MROC 130200Z 09009KT CAVOK 21/15 A3001 NOSIG=
201701130300 METAR MROC 130300Z 11012KT CAVOK 21/14 A3001 NOSIG=
201701130400 METAR MROC 130400Z 11013KT 9999 FEW030 21/14 A3001 NOSIG=
201701130500 METAR MROC 130500Z 11015KT 9999 FEW030 21/15 A3000 NOSIG=
201701130600 METAR MROC 130600Z 10013KT CAVOK 21/14 A2998 NOSIG=
201701130700 METAR MROC 130700Z 09014KT CAVOK 21/14 A2997 NOSIG=
201701130800 METAR MROC 130800Z 09012KT 9999 FEW020 21/14 A2996 NOSIG=
201701130900 METAR MROC 130900Z 09015KT CAVOK 21/14 A2997 NOSIG=
201701131000 METAR MROC 131000Z 09012KT CAVOK 21/15 A2998 NOSIG=
201701131100 METAR MROC 131100Z 10011KT CAVOK 20/15 A2998 NOSIG=
201701131200 METAR MROC 131200Z 10010G20KT 9999 FEW020 21/15 A2999 NOSIG=
201701131300 METAR MROC 131300Z 10014KT 9999 FEW030 21/16 A3002 NOSIG=
201701131400 METAR MROC 131400Z 11015KT 9999 FEW030 23/16 A3004 NOSIG=
201701131500 METAR MROC 131500Z 10012KT 9999 SCT030 24/16 A3005 NOSIG=
201701131600 METAR MROC 131600Z 07020KT 9999 SCT030 27/14 A3005 NOSIG=
201701131700 METAR MROC 131700Z 08018G29KT 9999 SCT030 27/15 A3003 NOSIG=
201701131800 METAR MROC 131800Z 09016G26KT 9999 SCT030 28/15 A3000 NOSIG=
201701131900 METAR MROC 131900Z 09014G24KT 9999 SCT030 27/16 A2998 NOSIG=
201701132000 METAR MROC 132000Z 09012KT 9999 SCT030 27/16 A2997 NOSIG=
201701132100 METAR MROC 132100Z 09015KT 9999 FEW030 BKN080 26/17 A2996 NOSIG=
201701132200 METAR MROC 132200Z 09012KT 9999 FEW030 BKN080 25/17 A2996 NOSIG=
201701132300 METAR MROC 132300Z 08010G21KT 9999 FEW030 24/16 A2999 NOSIG=
201701140000 METAR MROC 140000Z 09012G22KT 9999 FEW030 BKN080 23/16 A2999 NOSIG=
201701140100 METAR MROC 140100Z 12008KT CAVOK 22/16 A3002 NOSIG=
201701140200 METAR MROC 140200Z 10011KT CAVOK 22/17 A3004 NOSIG=
201701140300 METAR MROC 140300Z 08016KT CAVOK 22/15 A3004 NOSIG=
201701140400 METAR MROC 140400Z 10017G27KT 9999 FEW030 21/14 A3003 NOSIG=
201701140500 METAR MROC 140500Z 09020G31KT 9999 FEW030 21/13 A3001 NOSIG=
201701140600 METAR MROC 140600Z 08020G33KT 9999 FEW030 21/11 A3001 NOSIG=
201701140700 METAR MROC 140700Z 09019G30KT 9999 FEW040 20/12 A3000 NOSIG=
201701140800 METAR MROC 140800Z 11014G24KT 9999 FEW040 19/12 A2999 NOSIG=
201701140900 METAR MROC 140900Z 11015G25KT 9999 FEW035 19/12 A2997 NOSIG=
201701141000 METAR MROC 141000Z 11019G29KT 9999 FEW035 19/13 A2996 NOSIG=
201701141100 METAR MROC 141100Z 11014KT 9999 FEW035 19/13 A2997 NOSIG=
201701141200 METAR MROC 141200Z 11017G27KT 9999 FEW035 19/14 A2998 NOSIG=
201701141300 METAR MROC 141300Z 11019G29KT CAVOK 19/13 A3001 NOSIG=
201701141400 METAR MROC 141400Z 10017G30KT CAVOK 22/12 A3004 NOSIG=
201701141500 METAR MROC 141500Z 09019G34KT CAVOK 23/13 A3005 NOSIG=
201701141600 METAR MROC 141600Z 09020G30KT CAVOK 24/13 A3004 NOSIG=
201701141700 METAR MROC 141700Z 07021G32KT CAVOK 25/13 A3003 NOSIG=
201701141800 METAR MROC 141800Z 08018G28KT CAVOK 26/10 A3001 NOSIG=
201701141900 METAR MROC 141900Z 10019G29KT CAVOK 26/10 A2998 NOSIG=
201701142000 METAR MROC 142000Z 10017G30KT 9999 FEW035 25/14 A2996 NOSIG=
201701142100 METAR MROC 142100Z 11020G30KT 9999 SCT035 24/11 A2995 NOSIG=
201701142200 METAR MROC 142200Z 10019G29KT 9999 FEW035 23/12 A2995 NOSIG=
201701142300 METAR MROC 142300Z 11018G30KT 9999 FEW035 SCT250 22/12 A2995 NOSIG=
201701150000 METAR MROC 150000Z 11019G30KT 9999 FEW035 SCT250 20/13 A2997 NOSIG=
201701150100 METAR MROC 150100Z 10016G26KT 9999 FEW035 20/13 A3000 NOSIG=
201701150200 METAR MROC 150200Z 11016G26KT CAVOK 20/10 A3000 NOSIG=
201701150300 METAR MROC 150300Z 11016G26KT CAVOK 20/11 A3001 NOSIG=
201701150400 METAR MROC 150400Z 11015G25KT CAVOK 20/11 A3000 NOSIG=
201701150500 METAR MROC 150500Z 10013G23KT CAVOK 20/12 A2999 NOSIG=
201701150600 METAR MROC 150600Z 10012G22KT CAVOK 19/12 A2998 NOSIG=
201701150700 METAR MROC 150700Z 12012G22KT CAVOK 19/12 A2996=
201701150800 METAR MROC 150800Z 12013KT CAVOK 19/13 A2996=
201701150900 METAR MROC 150900Z 12014G24KT CAVOK 20/13 A2995 NOSIG=
201701151000 METAR MROC 151000Z 12011KT CAVOK 19/14 A2997 NOSIG=
201701151100 METAR MROC 151100Z 12014KT CAVOK 19/14 A2997 NOSIG=
201701151200 METAR MROC 151200Z 11012KT CAVOK 19/14 A2998 NOSIG=
201701151300 METAR MROC 151300Z 11011KT CAVOK 20/14 A3000 NOSIG=
201701151400 METAR MROC 151400Z 12013KT CAVOK 22/14 A3002 NOSIG=
201701151500 METAR MROC 151500Z 11016G26KT 9999 FEW035 BKN280 24/15 A3004 NOSIG=
201701151600 METAR MROC 151600Z 10020G30KT 9999 FEW035 BKN280 25/11 A3004 NOSIG=
201701151700 METAR MROC 151700Z 11014G24KT CAVOK 26/14 A3001 NOSIG=
201701151800 METAR MROC 151800Z 11015KT CAVOK 27/12 A2998 NOSIG=
201701151900 METAR MROC 151900Z 09015G25KT CAVOK 27/11 A2995 NOSIG=
201701152000 METAR MROC 152000Z 10014G24KT CAVOK 27/09 A2993 NOSIG=
201701152100 METAR MROC 152100Z 08015G26KT 9999 FEW040 27/13 A2992 NOSIG=
201701152200 METAR MROC 152200Z 08014KT 9999 FEW040 26/14 A2993 NOSIG=
201701152300 METAR MROC 152300Z 08015KT CAVOK 24/13 A2993 NOSIG=
201701160000 METAR MROC 160000Z 10014G24KT 9999 FEW040 22/13 A2994 NOSIG=
201701160100 METAR MROC 160100Z 10015G25KT 9999 FEW040 21/15 A2996 NOSIG=
201701160200 METAR MROC 160200Z 10018G29KT 9999 FEW040 21/15 A2997 NOSIG=
201701160300 METAR MROC 160300Z 10015G25KT 9999 FEW040 21/15 A2998 NOSIG=
201701160400 METAR MROC 160400Z 09014KT CAVOK 21/14 A2999 NOSIG=
201701160500 METAR MROC 160500Z 11015KT CAVOK 21/14 A2998 NOSIG=
201701160600 METAR MROC 160600Z 11014G24KT CAVOK 21/13 A2997 NOSIG=
201701160700 METAR MROC 160700Z 10015G25KT CAVOK 21/13 A2995 NOSIG=
201701160800 METAR MROC 160800Z 11011KT CAVOK 20/13 A2994 NOSIG=
201701160900 METAR MROC 160900Z 11013KT CAVOK 20/13 A2994 NOSIG=
201701161000 METAR MROC 161000Z 11014KT CAVOK 20/13 A2994 NOSIG=
201701161100 METAR MROC 161100Z 11014KT CAVOK 19/13 A2995 NOSIG=
201701161200 METAR MROC 161200Z 13010KT CAVOK 19/13 A2997 NOSIG=
201701161300 METAR MROC 161300Z 12010KT CAVOK 20/13 A3000 NOSIG=
201701161400 METAR MROC 161400Z 12013G23KT CAVOK 24/12 A3002 NOSIG=
201701161500 METAR MROC 161500Z 12013G23KT CAVOK 25/20 A3002 NOSIG=
201701161600 METAR MROC 161600Z 12012KT CAVOK 26/12 A3002 NOSIG=
201701161700 METAR MROC 161700Z 09010KT CAVOK 28/13 A3001 NOSIG=
201701161800 METAR MROC 161800Z 09012KT 9999 FEW045 28/13 A2998 NOSIG=
201701161900 METAR MROC 161900Z 08013KT CAVOK 28/13 A2995 NOSIG=
201701162000 METAR MROC 162000Z 08012KT CAVOK 28/12 A2992 NOSIG=
201701162100 METAR MROC 162100Z 07013G23KT 9999 FEW045 28/13 A2991 NOSIG=
201701162200 METAR MROC 162200Z 07010G20KT 9999 FEW040 26/14 A2992 NOSIG=
201701162300 METAR MROC 162300Z 07012KT 9999 FEW040 25/13 A2993 NOSIG=
201701170000 METAR MROC 170000Z 08013KT 9999 FEW040 22/13 A2995 NOSIG=
201701170100 METAR MROC 170100Z 08012KT CAVOK 22/13 A2997 NOSIG=
201701170200 METAR MROC 170200Z 12012KT CAVOK 21/14 A2999 NOSIG=
201701170300 METAR MROC 170300Z 11011KT CAVOK 20/14 A3001 NOSIG=
201701170400 METAR MROC 170400Z 10007KT CAVOK 20/14 A3002 NOSIG=
201701170500 METAR MROC 170500Z 03003KT CAVOK 19/15 A3002 NOSIG=
201701170600 METAR MROC 170600Z 04002KT CAVOK 19/14 A3001 NOSIG=
201701170700 METAR MROC 170700Z 06005KT CAVOK 19/14 A2998 NOSIG=
201701170800 METAR MROC 170800Z 03005KT CAVOK 18/14 A2997 NOSIG=
201701170900 METAR MROC 170900Z 08004KT CAVOK 19/14 A2996 NOSIG=
201701171000 METAR MROC 171000Z 08005KT CAVOK 18/13 A2997 NOSIG=
201701171100 METAR MROC 171100Z 07008KT CAVOK 18/14 A2999 NOSIG=
201701171200 METAR MROC 171200Z 05007KT CAVOK 17/13 A3000 NOSIG=
201701171300 METAR MROC 171300Z 07007KT CAVOK 20/14 A3002 NOSIG=
201701171400 METAR MROC 171400Z 13010KT CAVOK 23/14 A3003 NOSIG=
201701171500 METAR MROC 171500Z 11009KT CAVOK 26/12 A3004 NOSIG=
201701171600 METAR MROC 171600Z 09011KT CAVOK 27/13 A3003 NOSIG=
201701171700 METAR MROC 171700Z 12011KT CAVOK 28/14 A3002 NOSIG=
201701171800 METAR MROC 171800Z 13008KT CAVOK 27/15 A3000 NOSIG=
201701171900 METAR MROC 171900Z 09011G21KT 9999 FEW045 28/14 A2998 NOSIG=
201701172000 METAR MROC 172000Z 07015G25KT 9999 FEW040 28/14 A2995 NOSIG=
201701172100 METAR MROC 172100Z 07015KT 9999 FEW030 29/15 A2995 NOSIG=
201701172200 METAR MROC NIL=
201701172300 METAR MROC 172300Z 08011KT 9999 FEW030 25/15 A2997 NOSIG=
201701180000 METAR MROC 180000Z 09010G20KT 9999 FEW030 23/15 A2999 NOSIG=
201701180100 METAR MROC 180100Z 08014KT CAVOK 22/15 A3001 NOSIG=
201701180200 METAR MROC 180200Z 10010KT CAVOK 21/15 A3003 NOSIG=
201701180300 METAR MROC 180300Z 10012KT CAVOK 21/15 A3004 NOSIG=
201701180400 METAR MROC 180400Z 11013G23KT 9999 FEW010 21/15 A3005 NOSIG=
201701180500 METAR MROC 180500Z 11013KT CAVOK 21/14 A3005 NOSIG=
201701180600 METAR MROC 180600Z 10012KT CAVOK 21/14 A3003 NOSIG=
201701180700 METAR MROC 180700Z 11012KT CAVOK 21/14 A3001 NOSIG=
201701180800 METAR MROC 180800Z 10013KT 9999 FEW025 20/14 A3000 NOSIG=
201701180900 METAR MROC 180900Z 10013G23KT 9999 FEW020 20/14 A2999 NOSIG=
201701181000 METAR MROC 181000Z 10012KT 9999 FEW030 20/14 A2999 NOSIG=
201701181100 METAR MROC 181100Z 11014KT CAVOK 20/14 A3000 NOSIG=
201701181200 METAR MROC 181200Z 11014G24KT CAVOK 20/14 A3001 NOSIG=
201701181300 METAR MROC 181300Z 10013G23KT CAVOK 21/14 A3003 NOSIG=
201701181400 METAR MROC 181400Z 10014G24KT CAVOK 23/14 A3005 NOSIG=
201701181500 METAR MROC 181500Z 10014G24KT CAVOK 25/13 A3005 NOSIG=
201701181600 METAR MROC 181600Z 10015KT CAVOK 26/13 A3005 NOSIG=
201701181700 METAR MROC 181700Z 09014KT 9999 FEW040 27/13 A3004 NOSIG=
201701181800 METAR MROC 181800Z 08011KT 9999 FEW040 28/13 A3002 NOSIG=
201701181900 METAR MROC 181900Z 08013KT 9999 FEW040 29/12 A2998 NOSIG=
201701182000 METAR MROC 182000Z 07013KT 9999 FEW040 29/12 A2995 NOSIG=
201701182100 METAR MROC 182100Z 06015KT CAVOK 29/12 A2994 NOSIG=
201701182200 METAR MROC 182200Z 07012KT CAVOK 27/12 A2995 NOSIG=
201701182300 METAR MROC 182300Z 06017KT CAVOK 26/11 A2996 NOSIG=
201701190000 METAR MROC 190000Z 08010KT CAVOK 22/11 A2999 NOSIG=
201701190100 METAR MROC 190100Z 10006KT CAVOK 21/12 A3001 NOSIG=
201701190200 METAR MROC 190200Z 13007KT CAVOK 20/14 A3003 NOSIG=
201701190300 METAR MROC 190300Z 11011KT CAVOK 20/13 A3004 NOSIG=
201701190400 METAR MROC 190400Z 12009KT CAVOK 20/14 A3004 NOSIG=
201701190500 METAR MROC 190500Z 11010KT CAVOK 19/14 A3004 NOSIG=
201701190600 METAR MROC 190600Z 10011KT CAVOK 19/13 A3002 NOSIG=
201701190700 METAR MROC 190700Z 11011KT CAVOK 18/13 A2999 NOSIG=
201701190800 METAR MROC 190800Z 13003KT CAVOK 18/12 A2997 NOSIG=
201701190900 METAR MROC 190900Z 08005KT CAVOK 20/11 A2996 NOSIG=
201701191000 METAR MROC 191000Z 07008KT CAVOK 18/11 A2997 NOSIG=
201701191100 METAR MROC 191100Z 11008KT CAVOK 18/10 A2998 NOSIG=
201701191200 METAR MROC 191200Z 08006KT CAVOK 18/12 A3000 NOSIG=
201701191300 METAR MROC 191300Z 01003KT CAVOK 19/13 A3002 NOSIG=
201701191400 METAR MROC 191400Z 15007KT CAVOK 24/12 A3004 NOSIG=
201701191500 METAR MROC 191500Z 14009KT CAVOK 26/11 A3005 NOSIG=
201701191600 METAR MROC 191600Z 14008KT CAVOK 27/12 A3005=
201701191700 METAR MROC 191700Z 13006KT CAVOK 29/11 A3003 NOSIG=
201701191800 METAR MROC 191800Z 24010KT CAVOK 28/16 A3001 NOSIG=
201701191900 METAR MROC 191900Z 25009KT 9999 FEW045 28/17 A2997 NOSIG=
201701192000 METAR MROC 192000Z 24009KT 9999 FEW040 27/18 A2995 NOSIG=
201701192100 METAR MROC 192100Z 24010KT 9999 FEW025 27/18 A2994 NOSIG=
201701192200 METAR MROC 192200Z 24011KT 9999 SCT030 25/19 A2996 NOSIG=
201701192300 METAR MROC 192300Z 23007KT 9999 SCT030 23/19 A2997 NOSIG=
201701200000 METAR MROC 200000Z 23006KT 9999 BKN035 22/18 A3000 NOSIG=
201701200100 METAR MROC 200100Z 27002KT 9999 BKN025 21/18 A3003 BECMG 06006KT=
201701200200 METAR MROC 200200Z 05002KT 9999 FEW010 BKN030 21/18 A3005 NOSIG=
201701200300 METAR MROC 200300Z 09004KT CAVOK 21/17 A3006 NOSIG=
201701200400 METAR MROC 200400Z 08005KT CAVOK 20/17 A3006 NOSIG=
201701200500 METAR MROC 200500Z 06008KT CAVOK 20/16 A3005 NOSIG=
201701200600 METAR MROC 200600Z 06008KT CAVOK 19/16 A3003 NOSIG=
201701200700 METAR MROC 200700Z 05007KT CAVOK 19/15 A3001 NOSIG=
201701200800 METAR MROC 200800Z 08007KT CAVOK 19/15 A2999 NOSIG=
201701200900 METAR MROC 200900Z 09008KT CAVOK 19/14 A2998 NOSIG=
201701201000 METAR MROC 201000Z 04004KT CAVOK 18/14 A2999 NOSIG=
201701201100 METAR MROC 201100Z 07005KT CAVOK 16/13 A3000 NOSIG=
201701201200 METAR MROC 201200Z 15003KT CAVOK 17/14 A3003=
201701201300 METAR MROC 201300Z 06007KT CAVOK 18/13 A3005 NOSIG=
201701201400 METAR MROC 201400Z 11003KT CAVOK 22/15 A3007 NOSIG=
201701201500 METAR MROC 201500Z 09002KT CAVOK 25/15 A3008 BECMG 22006KT=
201701201600 METAR MROC 201600Z 06002KT CAVOK 26/14 A3007 NOSIG=
201701201700 METAR MROC 201700Z 25005KT CAVOK 27/16 A3005 NOSIG=
201701201800 METAR MROC 201800Z 26007KT 9999 FEW045 28/15 A3003 NOSIG=
201701201900 METAR MROC 201900Z 26010KT 9999 SCT045 28/17 A3001 NOSIG=
201701202000 METAR MROC 202000Z 24010KT 9999 SCT045 28/18 A2999 NOSIG=
201701202100 METAR MROC 202100Z 25010KT 9999 SCT035 27/19 A2998 NOSIG=
201701202200 METAR MROC 202200Z 24010KT 9999 FEW030 26/20 A2999 NOSIG=
201701202300 METAR MROC 202300Z 25011KT 9999 FEW025 23/19 A3001 NOSIG=
201701210000 METAR MROC 210000Z 25009KT 9999 SCT020 22/19 A3003 NOSIG=
201701210100 METAR MROC 210100Z 24005KT 9999 FEW010 BKN050 21/18 A3006 NOSIG=
201701210200 METAR MROC 210200Z 28003KT 9999 FEW020 BKN035 21/19 A3009 NOSIG=
201701210300 METAR MROC 210300Z 30002KT 9999 FEW010 BKN025 21/19 A3010 NOSIG=
201701210400 METAR MROC 210400Z 00000KT 9999 FEW015 SCT025 21/19 A3011 NOSIG=
201701210500 METAR MROC 210500Z 12003KT 9999 FEW015 19/18 A3011 NOSIG=
201701210600 METAR MROC 210600Z 06005KT CAVOK 18/16 A3009 NOSIG=
201701210700 METAR MROC 210700Z 07005KT CAVOK 18/16 A3007 NOSIG=
201701210800 METAR MROC 210800Z 06003KT CAVOK 17/15 A3006 NOSIG=
201701210900 METAR MROC 210900Z 07005KT CAVOK 17/14 A3005 NOSIG=
201701211000 METAR MROC 211000Z 06004KT CAVOK 17/14 A3006 NOSIG=
201701211100 METAR MROC 211100Z 08005KT 9999 FEW030 SCT070 17/14 A3008 NOSIG=
201701211200 METAR MROC 211200Z 07005KT CAVOK 18/15 A3009 NOSIG=
201701211300 METAR MROC 211300Z 08004KT CAVOK 19/15 A3011 NOSIG=
201701211400 METAR MROC 211400Z 08005KT CAVOK 23/15 A3012 NOSIG=
201701211500 METAR MROC 211500Z 11004KT CAVOK 26/15 A3013 BECMG 23006KT=
201701211600 METAR MROC 211600Z 18005KT CAVOK 27/15 A3012 BECMG 24008KT=
201701211700 METAR MROC 211700Z 25005KT CAVOK 28/12 A3010 NOSIG=
201701211800 METAR MROC 211800Z 26006KT CAVOK 29/12 A3007 NOSIG=
201701211900 METAR MROC 211900Z 26010KT 9999 FEW045 28/17 A3004 NOSIG=
201701212000 METAR MROC 212000Z 25012KT 9999 FEW045 27/18 A3002 NOSIG=
201701212100 METAR MROC 212100Z COR 24011KT CAVOK 28/19 A3000 NOSIG=
201701212200 METAR MROC 212200Z 24010KT 9999 FEW030 26/19 A3001 NOSIG=
201701212300 METAR MROC 212300Z 26009KT 9999 FEW030 BKN200 24/19 A3001 NOSIG=
201701220000 METAR MROC 220000Z 25007KT 9999 SCT030 22/19 A3003 NOSIG=
201701220100 METAR MROC 220100Z 25006KT 9999 SCT025 21/19 A3005 NOSIG=
201701220200 METAR MROC 220200Z 28002KT 9999 3000SW BCFG FEW005 BKN025 21/20 A3007 BECMG 07006KT=
201701220300 METAR MROC 220300Z 24002KT 9999 2000SW BCFG FEW009 SCT015 21/19 A3008 BECMG 07006KT=
201701220400 METAR MROC NIL=
201701220500 METAR MROC 220500Z 00000KT 8000 VCFG FEW006 SCT015 21/19 A3008 NOSIG=
201701220600 METAR MROC 220600Z 00000KT 9999 FEW006 SCT020 20/19 A3006 NOSIG=
201701220700 METAR MROC 220700Z 00000KT 9999 FEW008 SCT020 20/19 A3004 NOSIG=
201701220800 METAR MROC 220800Z 06004KT 9999 SCT020 19/16 A3003 NOSIG=
201701220900 METAR MROC 220900Z 04004KT 9999 SCT020 19/16 A3002 NOSIG=
201701221000 METAR MROC 221000Z 05005KT 9999 SCT020 19/16 A3002 NOSIG=
201701221100 METAR MROC 221100Z 09004KT 9999 SCT020 18/15 A3003 NOSIG=
201701221200 METAR MROC 221200Z 09004KT 9999 FEW030 18/16 A3004 NOSIG=
201701221300 METAR MROC 221300Z 06005KT 9999 FEW035 19/15 A3008 NOSIG=
201701221400 METAR MROC 221400Z VRB02KT 9999 FEW040 22/17 A3009 BECMG 24008KT=
201701221500 METAR MROC 221500Z VRB02KT 9999 FEW045 23/16 A3010 BECMG 27009KT=
201701221600 METAR MROC 221600Z 31004KT 9999 FEW045 25/16 A3009 NOSIG=
201701221700 METAR MROC 221700Z 25008KT 9999 FEW045 26/16 A3006 NOSIG=
201701221800 METAR MROC 221800Z 26008KT CAVOK 27/16 A3004 NOSIG=
201701221900 METAR MROC 221900Z 25010KT 9999 FEW045 27/16 A3001 NOSIG=
201701222000 METAR MROC 222000Z 25010KT 9999 FEW045 27/15 A2998 NOSIG=
201701222100 METAR MROC 222100Z 25011KT 9999 FEW040 27/15 A2997 NOSIG=
201701222200 METAR MROC 222200Z 26011KT 9999 FEW040 26/16 A2997 NOSIG=
201701222300 METAR MROC 222300Z 27010KT 9999 FEW040 24/17 A2999 NOSIG=
201701230000 METAR MROC 230000Z 24006KT 9999 FEW040 22/18 A3000 NOSIG=
201701230100 METAR MROC 230100Z 29003KT 9999 FEW040 20/18 A3002 NOSIG=
201701230200 METAR MROC 230200Z 31003KT CAVOK 20/18 A3004 NOSIG=
201701230300 METAR MROC 230300Z 00000KT 9999 FEW020 19/19 A3005 NOSIG=
201701230400 METAR MROC 230400Z VRB02KT 9999 2500SW BCFG FEW005 19/18 A3005 BECMG 06004KT=
201701230500 METAR MROC 230500Z 09003KT 9999 FEW015 18/17 A3003 NOSIG=
201701230600 METAR MROC 230600Z 04005KT CAVOK 18/15 A3002 NOSIG=
201701230700 METAR MROC 230700Z 09006KT CAVOK 16/14 A3002 NOSIG=
201701230800 METAR MROC 230800Z 08005KT CAVOK 16/14 A2999 NOSIG=
201701230900 METAR MROC 230900Z 07006KT CAVOK 16/13 A2998 NOSIG=
201701231000 METAR MROC 231000Z 07006KT CAVOK 15/12 A2999 NOSIG=
201701231100 METAR MROC 231100Z 07005KT CAVOK 14/10 A3000 NOSIG=
201701231200 METAR MROC 231200Z 09007KT CAVOK 14/08 A3001 NOSIG=
201701231300 METAR MROC 231300Z 10006KT CAVOK 16/09 A3005 NOSIG=
201701231400 METAR MROC 231400Z 10003KT CAVOK 21/09 A3007 NOSIG=
201701231500 METAR MROC 231500Z 17002KT CAVOK 25/12 A3008 NOSIG=
201701231600 METAR MROC 231600Z 20004KT CAVOK 26/11 A3007 NOSIG=
201701231700 METAR MROC 231700Z 24006KT CAVOK 27/11 A3006 NOSIG=
201701231800 METAR MROC 231800Z 24008KT 9999 FEW040 28/14 A3003 NOSIG=
201701231900 METAR MROC 231900Z 25010KT 9999 FEW040 28/15 A3000 NOSIG=
201701232000 METAR MROC 232000Z 25010KT 9999 FEW040 28/18 A2997 NOSIG=
201701232100 METAR MROC 232100Z 25011KT 9999 FEW045 27/19 A2997 NOSIG=
201701232200 METAR MROC 232200Z 25010KT 9999 FEW045 25/19 A2998 NOSIG=
201701232300 METAR MROC 232300Z 25007KT 9999 SCT040 23/19 A3000 NOSIG=
201701240000 METAR MROC 240000Z 28003KT 9999 SCT040 22/19 A3002 NOSIG=
201701240100 METAR MROC 240100Z 30004KT 9999 SCT040 21/20 A3004 NOSIG=
201701240200 METAR MROC 240200Z 19002KT 9999 FEW030 20/19 A3006 NOSIG=
201701240300 METAR MROC 240300Z 07005KT CAVOK 21/17 A3006 NOSIG=
201701240400 METAR MROC 240400Z 11007KT CAVOK 21/15 A3007 NOSIG=
201701240500 METAR MROC 240500Z 05006KT CAVOK 19/12 A3006 NOSIG=
201701240600 METAR MROC 240600Z 07010KT CAVOK 18/12 A3006 NOSIG=
201701240700 METAR MROC 240700Z 06006KT CAVOK 18/12 A3005 NOSIG=
201701240800 METAR MROC 240800Z 04007KT CAVOK 17/10 A3003 NOSIG=
201701240900 METAR MROC 240900Z 07007KT CAVOK 17/11 A3002 NOSIG=
201701241000 METAR MROC 241000Z 06007KT CAVOK 15/10 A3003 NOSIG=
201701241100 METAR MROC 241100Z 04008KT CAVOK 16/10 A3004 NOSIG=
201701241200 METAR MROC 241200Z 08008KT CAVOK 17/10 A3005 NOSIG=
201701241300 METAR MROC 241300Z 06008KT CAVOK 19/11 A3007 NOSIG=
201701241400 METAR MROC 241400Z 07004KT CAVOK 24/12 A3008 NOSIG=
201701241500 METAR MROC 241500Z 11010KT CAVOK 25/13 A3008 NOSIG=
201701241600 METAR MROC 241600Z 10013KT CAVOK 27/13 A3008 NOSIG=
201701241700 METAR MROC 241700Z 11008KT CAVOK 27/12 A3006 NOSIG=
201701241800 METAR MROC 241800Z 12008KT CAVOK 28/12 A3004 NOSIG=
201701241900 METAR MROC NIL=
201701242000 METAR MROC 242000Z 14007KT CAVOK 28/14 A2998 BECMG 24007KT=
201701242100 METAR MROC 242100Z 23009KT 9999 SCT030 27/19 A2997 NOSIG=
201701242200 METAR MROC 242200Z 25010KT 9999 SCT030 25/18 A2998 NOSIG=
201701242300 METAR MROC 242300Z 25007KT 9999 SCT030 24/18 A3000 NOSIG=
201701250000 METAR MROC 250000Z 26007KT 9999 SCT030 21/17 A3002 NOSIG=
201701250100 METAR MROC 250100Z 30002KT 9999 SCT030 21/18 A3004 NOSIG=
201701250200 METAR MROC 250200Z 11005KT 9999 FEW030 20/16 A3006 NOSIG=
201701250300 METAR MROC 250300Z 11009KT CAVOK 20/15 A3007 NOSIG=
201701250400 METAR MROC 250400Z 11012KT CAVOK 20/16 A3007 NOSIG=
201701250500 METAR MROC 250500Z 10011KT CAVOK 20/15 A3007 NOSIG=
201701250600 METAR MROC 250600Z 08009KT CAVOK 19/14 A3006 NOSIG=
201701250700 METAR MROC 250700Z 06007KT CAVOK 18/14 A3005 NOSIG=
201701250800 METAR MROC 250800Z 12007KT CAVOK 19/14 A3002 NOSIG=
201701250900 METAR MROC 250900Z 08006KT CAVOK 18/14 A3001 NOSIG=
201701251000 METAR MROC 251000Z 09004KT CAVOK 18/14 A3002 NOSIG=
201701251100 METAR MROC 251100Z 09005KT CAVOK 18/14 A3003 NOSIG=
201701251200 METAR MROC 251200Z 08004KT 9999 FEW030 17/13 A3004=
201701251300 METAR MROC 251300Z 09007KT CAVOK 19/14 A3006 NOSIG=
201701251400 METAR MROC 251400Z 12013KT CAVOK 22/14 A3007 NOSIG=
201701251500 METAR MROC 251500Z 11014KT 9999 FEW035 23/15 A3007 NOSIG=
201701251600 METAR MROC 251600Z 12014KT 9999 FEW035 25/15 A3008 NOSIG=
201701251700 METAR MROC 251700Z 11014KT 9999 FEW035 25/16 A3006 NOSIG=
201701251800 METAR MROC 251800Z 13010KT 9999 FEW035 27/14 A3003 NOSIG=
201701251900 METAR MROC 251900Z 13008KT 9999 FEW035 28/14 A3000 NOSIG=
201701252000 METAR MROC 252000Z 12008KT 9999 FEW035 28/14 A2997 NOSIG=
201701252100 METAR MROC 252100Z 11011KT 9999 FEW035 28/14 A2995 NOSIG=
201701252200 METAR MROC 252200Z 12011KT 9999 FEW030 27/15 A2994 NOSIG=
201701252300 METAR MROC 252300Z 12007KT 9999 FEW030 25/15 A2995 NOSIG=
201701260000 METAR MROC 260000Z 12008KT 9999 FEW030 22/16 A2997 NOSIG=
201701260100 METAR MROC 260100Z 12008KT 9999 FEW030 21/16 A3000 NOSIG=
201701260200 METAR MROC 260200Z 11009KT 9999 FEW025 21/15 A3003 NOSIG=
201701260300 METAR MROC 260300Z 10008KT 9999 FEW030 20/15 A3005 NOSIG=
201701260400 METAR MROC 260400Z 10011KT CAVOK 20/14 A3005 NOSIG=
201701260500 METAR MROC 260500Z 11012KT CAVOK 20/13 A3006 NOSIG=
201701260600 METAR MROC 260600Z 10011KT CAVOK 19/14 A3005 NOSIG=
201701260700 METAR MROC 260700Z 12008KT CAVOK 19/14 A3003 NOSIG=
201701260800 METAR MROC 260800Z 10011KT CAVOK 19/14 A3001 NOSIG=
201701260900 METAR MROC 260900Z 10011KT CAVOK 19/14 A3000 NOSIG=
201701261000 METAR MROC 261000Z 10012KT CAVOK 19/14 A3001 NOSIG=
201701261100 METAR MROC 261100Z 10007KT CAVOK 19/14 A3002 NOSIG=
201701261200 METAR MROC 261200Z 10008KT CAVOK 19/14 A3003 NOSIG=
201701261300 METAR MROC 261300Z 12012G22KT CAVOK 20/14 A3006 NOSIG=
201701261400 METAR MROC 261400Z 12010G20KT CAVOK 23/13 A3008 NOSIG=
201701261500 METAR MROC 261500Z 12010G20KT CAVOK 26/13 A3009 NOSIG=
201701261600 METAR MROC 261600Z 11012KT CAVOK 27/11 A3008 NOSIG=
201701261700 METAR MROC 261700Z 11012KT CAVOK 29/11 A3006 NOSIG=
201701261800 METAR MROC 261800Z 11009KT CAVOK 29/12 A3004 NOSIG=
201701261900 METAR MROC 261900Z 12009KT 9999 FEW030 30/12 A3002 NOSIG=
201701262000 METAR MROC 262000Z 10010KT 9999 FEW045 29/13 A2999 NOSIG=
201701262100 METAR MROC 262100Z 10008KT 9999 FEW045 29/14 A2998 NOSIG=
201701262157 MROC 270200Z 10011KT CAVOK 22/15 A3005 NOSIG=
201701262200 METAR MROC 262200Z 14005KT CAVOK 28/14 A2999 NOSIG=
201701262300 METAR MROC 262300Z 16004KT 9999 FEW045 27/15 A3000 NOSIG=
201701270000 METAR MROC 270000Z 11010KT CAVOK 25/14 A3001 NOSIG=
201701270100 METAR MROC 270100Z 09006KT CAVOK 23/14 A3003 NOSIG=
201701270200 METAR MROC 270200Z 10011KT CAVOK 22/15 A3005 NOSIG=
201701270300 METAR MROC 270300Z 09013KT CAVOK 22/14 A3006 NOSIG=
201701270400 METAR MROC 270400Z COR 09014G24KT CAVOK 22/15 A3002 NOSIG=
201701270500 METAR MROC 270500Z 12012KT CAVOK 22/14 A3005 NOSIG=
201701270600 METAR MROC 270600Z 12008KT CAVOK 21/15 A3004 NOSIG=
201701270700 METAR MROC 270700Z 08007KT CAVOK 21/15 A3002 NOSIG=
201701270800 METAR MROC NIL=
201701270900 METAR MROC NIL=
201701271000 METAR MROC NIL=
201701271100 METAR MROC 271100Z 07008KT CAVOK 19/14 A3002 NOSIG=
201701271200 METAR MROC 271200Z 05005KT CAVOK 19/14 A3002 NOSIG=
201701271300 METAR MROC 271300Z 08005KT CAVOK 21/14 A3005 NOSIG=
201701271400 METAR MROC 271400Z 13009KT CAVOK 24/15 A3006 NOSIG=
201701271500 METAR MROC 271500Z 10013KT CAVOK 27/15 A3007 NOSIG=
201701271600 METAR MROC 271600Z 10012G22KT CAVOK 27/15 A3007 NOSIG=
201701271700 METAR MROC 271700Z 10013KT 9999 FEW045 29/15 A3005 NOSIG=
201701271800 METAR MROC 271800Z 07014G24KT 9999 FEW045 29/15 A3002 NOSIG=
201701271900 METAR MROC 271900Z 07016KT 9999 FEW045 30/15 A2999 NOSIG=
201701272000 METAR MROC 272000Z 07017G27KT 9999 FEW045 30/15 A2996 NOSIG=
201701272100 METAR MROC 272100Z 11012KT 9999 FEW040 29/16 A2994 NOSIG=
201701272200 METAR MROC 272200Z 10009KT 9999 FEW040 28/16 A2995 NOSIG=
201701272300 METAR MROC 272300Z 08009KT 9999 FEW040 26/16 A2996 NOSIG=
201701280000 METAR MROC 280000Z 12008KT 9999 FEW040 24/16 A2997 NOSIG=
201701280100 METAR MROC 280100Z 11013G23KT CAVOK 24/15 A2998 NOSIG=
201701280200 METAR MROC 280200Z 11015G25KT CAVOK 23/16 A3000 NOSIG=
201701280300 METAR MROC 280300Z 11017G27KT CAVOK 22/16 A3002 NOSIG=
201701280400 METAR MROC NIL=
201701280500 METAR MROC 280500Z 10014KT CAVOK 22/16 A3002 NOSIG=
201701280600 METAR MROC 280600Z 10014KT CAVOK 22/14 A3000 NOSIG=
201701280700 METAR MROC 280700Z 11012KT CAVOK 22/15 A2999 NOSIG=
201701280800 METAR MROC 280800Z 11016KT CAVOK 22/14 A2998 NOSIG=
201701280900 METAR MROC 280900Z 11015KT 9999 FEW010 21/15 A2996 NOSIG=
201701281000 METAR MROC 281000Z 12012KT CAVOK 21/15 A2996 NOSIG=
201701281100 METAR MROC 281100Z 11012KT CAVOK 21/14 A2996 NOSIG=
201701281200 METAR MROC 281200Z 11011KT CAVOK 21/14 A2998 NOSIG=
201701281300 METAR MROC 281300Z 11009KT CAVOK 22/14 A3000 NOSIG=
201701281400 METAR MROC 281400Z 11018G32KT CAVOK 24/15 A3001 NOSIG=
201701281500 METAR MROC 281500Z 10018G28KT CAVOK 25/14 A3002 NOSIG=
201701281600 METAR MROC 281600Z 08020G30KT CAVOK 26/14 A3001 NOSIG=
201701281700 METAR MROC 281700Z 08019G29KT CAVOK 27/14 A3001 NOSIG=
201701281800 METAR MROC 281800Z 07017KT CAVOK 28/14 A2999 NOSIG=
201701281900 METAR MROC 281900Z 08017G27KT CAVOK 29/14 A2996 NOSIG=
201701282000 METAR MROC 282000Z 09013KT CAVOK 29/15 A2994 NOSIG=
201701282100 METAR MROC 282100Z 09013KT 9999 FEW040 28/15 A2992 NOSIG=
201701282200 METAR MROC 282200Z 09015G25KT 9999 FEW040 26/14 A2994 NOSIG=
201701282300 METAR MROC 282300Z 10014G24KT 9999 FEW040 24/13 A2995 NOSIG=
201701290000 METAR MROC 290000Z 11014G24KT 9999 FEW040 22/13 A2996 NOSIG=
201701290100 METAR MROC 290100Z 11014KT CAVOK 21/14 A2998 NOSIG=
201701290200 METAR MROC 290200Z 11014G24KT CAVOK 21/14 A3001 NOSIG=
201701290300 METAR MROC 290300Z 11014G24KT CAVOK 21/14 A3002 NOSIG=
201701290400 METAR MROC 290400Z 11013G23KT CAVOK 21/13 A3002 NOSIG=
201701290500 METAR MROC 290500Z 11012G22KT CAVOK 21/14 A3001 NOSIG=
201701290600 METAR MROC 290600Z 10010G20KT CAVOK 21/14 A3000 NOSIG=
201701290700 METAR MROC 290700Z 11015G25KT CAVOK 21/14 A2997 NOSIG=
201701290800 METAR MROC 290800Z 10015G25KT CAVOK 21/14 A2996 NOSIG=
201701290900 METAR MROC 290900Z 11017G27KT CAVOK 21/14 A2995 NOSIG=
201701291000 METAR MROC 291000Z 10014G24KT CAVOK 21/14 A2996 NOSIG=
201701291100 METAR MROC 291100Z 10015G25KT CAVOK 21/14 A2997 NOSIG=
201701291200 METAR MROC 291200Z 11015G25KT CAVOK 21/13 A2998 NOSIG=
201701291300 METAR MROC 291300Z 09015G28KT CAVOK 22/13 A3002 NOSIG=
201701291400 METAR MROC 291400Z 10015G27KT CAVOK 24/13 A3004 NOSIG=
201701291500 METAR MROC 291500Z 10018G29KT CAVOK 25/11 A3005 NOSIG=
201701291600 METAR MROC 291600Z 10019G30KT CAVOK 27/12 A3004 NOSIG=
201701291700 METAR MROC 291700Z 10016G26KT CAVOK 27/13 A3003 NOSIG=
201701291800 METAR MROC 291800Z 09015G25KT CAVOK 28/13 A3001 NOSIG=
201701291900 METAR MROC 291900Z 09013G23KT CAVOK 28/14 A2999 NOSIG=
201701292000 METAR MROC 292000Z 09016KT CAVOK 28/13 A2998 NOSIG=
201701292100 METAR MROC 292100Z 09014G24KT 9999 FEW045 28/13 A2998 NOSIG=
201701292200 METAR MROC 292200Z 09014G24KT 9999 FEW040 27/12 A2999 NOSIG=
201701292300 METAR MROC 292300Z 08014KT 9999 FEW040 26/12 A2999 NOSIG=
201701300000 METAR MROC 300000Z 11014KT CAVOK 23/15 A3001 NOSIG=
201701300100 METAR MROC 300100Z 10015KT CAVOK 22/15 A3002 NOSIG=
201701300200 METAR MROC 300200Z 11016G26KT CAVOK 21/15 A3004 NOSIG=
201701300300 METAR MROC 300300Z 09018G28KT CAVOK 22/15 A3005 NOSIG=
201701300400 METAR MROC 300400Z 11019KT CAVOK 21/15 A3006 BECMG 10020G30KT=
201701300500 METAR MROC 300500Z 10017G27KT CAVOK 21/15 A3005 NOSIG=
201701300600 METAR MROC 300600Z 11014KT CAVOK 21/13 A3005 NOSIG=
201701300700 METAR MROC 300700Z 11016KT CAVOK 20/13 A3005 NOSIG=
201701300800 METAR MROC 300800Z 11015G25KT CAVOK 21/13 A3001 NOSIG=
201701300900 METAR MROC 300900Z 11017G27KT CAVOK 20/13 A3000 NOSIG=
201701301000 METAR MROC 301000Z 11018KT CAVOK 21/13 A3001 BECMG 10020G30KT=
201701301100 METAR MROC 301100Z 10016G26KT CAVOK 21/14 A3002 NOSIG=
201701301200 METAR MROC 301200Z 11018G28KT 9999 FEW040 20/14 A3003 NOSIG=
201701301300 METAR MROC 301300Z 11017G28KT 9999 FEW030 22/14 A3007 NOSIG=
201701301400 METAR MROC 301400Z 10020G31KT CAVOK 23/12 A3007 NOSIG=
201701301500 METAR MROC 301500Z 09024G34KT CAVOK 24/12 A3006 NOSIG=
201701301600 METAR MROC 301600Z 09022G32KT CAVOK 25/11 A3006 NOSIG=
201701301700 METAR MROC 301700Z 09021G31KT 9999 FEW040 SCT250 25/15 A3005 NOSIG=
201701301800 METAR MROC 301800Z 09018G29KT 9999 FEW040 SCT250 27/15 A3005 NOSIG=
201701301900 METAR MROC 301900Z 09018G29KT 9999 FEW035 27/15 A3005 NOSIG=
201701302000 METAR MROC 302000Z 09018G29KT 9999 FEW035 26/16 A3000 NOSIG=
201701302100 METAR MROC 302100Z 08020G35KT 9999 FEW040 25/13 A2999 NOSIG=
201701302200 METAR MROC 302200Z COR 10017G28KT 9999 FEW045 SCT120 24/12 A3000 NOSIG=
201701302300 METAR MROC 302300Z 08017KT 9999 FEW045 23/12 A3002 NOSIG=
201701310000 METAR MROC 310000Z 10015G25KT 9999 FEW045 21/14 A3002 NOSIG=
201701310100 METAR MROC 310100Z 11016G26KT 9999 FEW030 20/14 A3004 NOSIG=
201701310200 METAR MROC 310200Z 11017G27KT 9999 FEW030 20/15 A3005 NOSIG=
201701310300 METAR MROC 310300Z 11016G26KT 9999 FEW040 20/15 A3007 NOSIG=
201701310400 METAR MROC 310400Z 11017G27KT CAVOK 21/16 A3006 NOSIG=
201701310500 METAR MROC 310500Z 11014G24KT CAVOK 20/16 A3006 NOSIG=
201701310600 METAR MROC 310600Z 11014KT CAVOK 20/16 A3004=
201701310700 METAR MROC 310700Z 11014G24KT CAVOK 20/16 A3002 NOSIG=
201701310800 METAR MROC 310800Z 11012G22KT CAVOK 20/16 A3001 NOSIG=
201701310900 METAR MROC 310900Z 10016G26KT CAVOK 20/16 A3000 NOSIG=
201701311000 METAR MROC 311000Z 11014G26KT CAVOK 20/16 A3000 NOSIG=
201701311100 METAR MROC NIL=
201701311200 METAR MROC 311200Z 10013G23KT CAVOK 20/15 A3002 NOSIG=
201701311300 METAR MROC 311300Z 10014G24KT CAVOK 21/15 A3005 NOSIG=
201701311400 METAR MROC 311400Z 10013KT CAVOK 24/15 A3007 NOSIG=
201701311500 METAR MROC 311500Z 11019G30KT 9999 FEW025 BKN200 25/15 A3007 NOSIG=
201701311600 METAR MROC 311600Z 10019G33KT 9999 FEW040 BKN200 25/16 A3006 NOSIG=
201701311700 METAR MROC 311700Z 10019G29KT 9999 FEW035 BKN170 26/16 A3003 NOSIG=
201701311800 METAR MROC 311800Z 10016G26KT 9999 FEW040 SCT180 26/15 A3001 NOSIG=
201701311900 METAR MROC 311900Z COR 10018G28KT 9999 FEW045 SCT200 27/15 A3000 NOSIG=
201701312000 METAR MROC 312000Z COR 10016G28KT 9999 FEW045 BKN200 27/13 A2998 NOSIG=
201701312100 METAR MROC 312100Z 10016G26KT CAVOK 25/14 A2996 NOSIG=
201701312200 METAR MROC 312200Z 09016G26KT 9999 FEW045 BKN160 24/15 A2997 NOSIG=
201701312300 METAR MROC 312300Z 09016G26KT 9999 FEW035 BKN160 24/16 A2998 NOSIG=
201701312359 METAR MROC 010000Z 09015G25KT 9999 FEW030 BKN180 22/16 A2999 NOSIG=
201702010000 METAR MROC 010000Z 09015G25KT 9999 FEW030 BKN180 22/16 A2999 NOSIG=
201702010100 METAR MROC 010100Z 09015G25KT 9999 FEW030 22/16 A3000 NOSIG=
201702010200 METAR MROC 010200Z 10014G24KT 9999 FEW030 21/16 A3001 NOSIG=
201702010300 METAR MROC 010300Z 11014KT 9999 FEW030 21/15 A3001 NOSIG=
201702010400 METAR MROC 010400Z 11015G25KT 9999 FEW035 21/15 A3001 NOSIG=
201702010500 METAR MROC 010500Z 11015G25KT CAVOK 21/16 A3001 NOSIG=
201702010600 METAR MROC 010600Z 11018KT CAVOK 21/15 A2999 NOSIG=
201702010700 METAR MROC 010700Z 11017G27KT CAVOK 21/14 A2996 NOSIG=
201702010800 METAR MROC 010800Z 11015KT CAVOK 21/16 A2997 NOSIG=
201702010900 METAR MROC 010900Z 11015G25KT CAVOK 20/16 A2997 NOSIG=
201702011000 METAR MROC 011000Z 10012KT CAVOK 20/16 A2999 NOSIG=
201702011100 METAR MROC 011100Z 11015KT CAVOK 20/16 A2999 NOSIG=
201702011200 METAR MROC 011200Z 11014G24KT 9999 FEW035 20/16 A2999 NOSIG=
201702011300 METAR MROC 011300Z 09013G26KT 9999 FEW035 22/15 A3001 NOSIG=
201702011400 METAR MROC 011400Z 11014G24KT 9999 FEW035 23/15 A3003 NOSIG=
201702011500 METAR MROC 011500Z 11015G28KT 9999 FEW040 24/15 A3005 NOSIG=
201702011600 METAR MROC 011600Z 10016G26KT 9999 FEW040 25/15 A3004 NOSIG=
201702011700 METAR MROC 011700Z 07017G28KT 9999 FEW040 27/16 A3003 NOSIG=
201702011800 METAR MROC 011800Z 09014G24KT 9999 FEW040 28/17 A3000 NOSIG=
201702011900 METAR MROC 011900Z 09014G26KT 9999 FEW035 SCT080 28/17 A2997 NOSIG=
201702012000 METAR MROC 012000Z 09015G26KT 9999 FEW035 27/16 A2994 NOSIG=
201702012100 METAR MROC 012100Z 09015G25KT 9999 FEW040 27/16 A2993 NOSIG=
201702012200 METAR MROC 012200Z 09016G26KT 9999 FEW040 26/16 A2994 NOSIG=
201702012300 METAR MROC 012300Z 09015G25KT 9999 FEW040 24/14 A2995 NOSIG=
201702020000 METAR MROC 020000Z 10012KT 9999 FEW040 SCT300 23/15 A2997 NOSIG=
201702020100 METAR MROC 020100Z 08012G22KT CAVOK 23/15 A2997 NOSIG=
201702020200 METAR MROC 020200Z 09016G31KT CAVOK 22/14 A2998 NOSIG=
201702020300 METAR MROC 020300Z 09014G24KT CAVOK 22/13 A2999 NOSIG=
201702020400 METAR MROC 020400Z 10013G23KT 9999 FEW030 21/14 A2999 NOSIG=
201702020500 METAR MROC 020500Z 11016KT CAVOK 21/13 A2998 NOSIG=
201702020600 METAR MROC 020600Z 11015KT CAVOK 20/14 A2998 NOSIG=
201702020700 METAR MROC 020700Z 11016KT CAVOK 21/13 A2996 NOSIG=
201702020800 METAR MROC 020800Z 11015G26KT CAVOK 20/14 A2995 NOSIG=
201702020900 METAR MROC 020900Z 10013G23KT CAVOK 20/14 A2995 NOSIG=
201702021000 METAR MROC 021000Z 11015KT CAVOK 20/14 A2995 NOSIG=
201702021100 METAR MROC 021100Z 10015G25KT CAVOK 20/14 A2996 NOSIG=
201702021200 METAR MROC 021200Z 11017G27KT CAVOK 20/14 A2997 NOSIG=
201702021300 METAR MROC 021300Z 11015G25KT CAVOK 21/13 A2999 NOSIG=
201702021400 METAR MROC 021400Z 11019G29KT CAVOK 23/13 A3001 NOSIG=
201702021500 METAR MROC 021500Z 11015G25KT 9999 FEW030 24/14 A3003 NOSIG=
201702021600 METAR MROC 021600Z 10018G28KT 9999 FEW030 24/15 A3003 NOSIG=
201702021700 METAR MROC 021700Z 11020G30KT 9999 FEW030 26/14 A3001 RMK VA E NOSIG=
201702021800 METAR MROC 021800Z 09016G26KT 9999 FEW030 27/13 A2999 NOSIG=
201702021900 METAR MROC 021900Z 08018G28KT 9999 FEW030 28/14 A2996 NOSIG=
201702022000 METAR MROC 022000Z 07018KT 9999 FEW030 27/14 A2995 NOSIG=
201702022100 METAR MROC 022100Z 08016KT CAVOK 27/13 A2994 NOSIG=
201702022200 METAR MROC 022200Z 08018G29KT CAVOK 26/13 A2994 NOSIG=
201702022300 METAR MROC 022300Z 09016G28KT CAVOK 24/11 A2995 NOSIG=
201702030000 METAR MROC 030000Z 10016G26KT CAVOK 22/12 A2996 NOSIG=
201702030100 METAR MROC 030100Z 10018G29KT CAVOK 21/15 A2997 NOSIG=
201702030200 METAR MROC 030200Z 11017G27KT CAVOK 21/14 A3000 NOSIG=
201702030300 METAR MROC 030300Z 10018G28KT CAVOK 21/14 A3000 NOSIG=
201702030400 METAR MROC 030400Z 09014G24KT CAVOK 22/12 A3000 NOSIG=
201702030500 METAR MROC 030500Z 10015G27KT CAVOK 21/13 A2999 NOSIG=
201702030600 METAR MROC 030600Z 10014G25KT CAVOK 21/14 A2997 NOSIG=
201702030700 METAR MROC 030700Z 11015G25KT CAVOK 21/14 A2996 NOSIG=
201702030800 METAR MROC 030800Z 10017G27KT CAVOK 21/14 A2993 NOSIG=
201702030900 METAR MROC 030900Z 11016G26KT CAVOK 21/14 A2994 NOSIG=
201702031000 METAR MROC 031000Z 11016G26KT CAVOK 21/14 A2995 NOSIG=
201702031100 METAR MROC 031100Z 10012G23KT CAVOK 20/14 A2996 NOSIG=
201702031200 METAR MROC 031200Z 10012G23KT CAVOK 21/13 A2998 NOSIG=
201702031300 METAR MROC 031300Z 10016KT CAVOK 22/13 A3000 NOSIG=
201702031400 METAR MROC 031400Z 10017KT CAVOK 24/14 A3001 NOSIG=
201702031500 METAR MROC 031500Z 10017KT CAVOK 26/13 A3003 NOSIG=
201702031600 METAR MROC 031600Z 10014G27KT CAVOK 27/12 A3003 NOSIG=
201702031700 METAR MROC 031700Z 09014KT CAVOK 28/13 A3002 NOSIG=
201702031800 METAR MROC 031800Z 08017G27KT CAVOK 28/15 A3000 NOSIG=
201702031900 METAR MROC 031900Z 08018KT CAVOK 28/15 A2997 NOSIG=
201702032000 METAR MROC 032000Z 09015KT 9999 FEW045 28/16 A2993 NOSIG=
201702032100 METAR MROC 032100Z 09016G26KT 9999 FEW045 27/15 A2992 NOSIG=
201702032200 METAR MROC 032200Z 10016G26KT 9999 FEW045 26/14 A2993 NOSIG=
201702032300 METAR MROC 032300Z 10013G23KT 9999 FEW045 24/15 A2996 NOSIG=
201702040000 METAR MROC 040000Z 09015KT 9999 FEW040 23/14 A2997 NOSIG=
201702040100 METAR MROC 040100Z 11017KT 9999 FEW040 22/16 A2999 NOSIG=
201702040200 METAR MROC 040200Z 11014KT 9999 FEW040 21/14 A3002 NOSIG=
201702040300 METAR MROC NIL=
201702040400 METAR MROC 040400Z 11014G24KT CAVOK 20/13 A3004 NOSIG=
201702040500 METAR MROC 040500Z 11015G26KT CAVOK 20/14 A3003 NOSIG=
201702040600 METAR MROC 040600Z 11014G26KT CAVOK 20/14 A3000 NOSIG=
201702040700 METAR MROC 040700Z 11013G23KT CAVOK 20/14 A2998 NOSIG=
201702040800 METAR MROC 040800Z 11014G24KT CAVOK 20/15 A2996 NOSIG=
201702040900 METAR MROC 040900Z 12014G28KT CAVOK 20/14 A2994 NOSIG=
201702041000 METAR MROC 041000Z 11017G27KT CAVOK 20/15 A2994 NOSIG=
201702041100 METAR MROC 041100Z 11015KT CAVOK 20/15 A2996 NOSIG=
201702041200 METAR MROC 041200Z 11016G27KT CAVOK 20/14 A2998 NOSIG=
201702041300 METAR MROC 041300Z 10014KT CAVOK 21/13 A3000 NOSIG=
201702041400 METAR MROC 041400Z 11016KT CAVOK 23/12 A3002 NOSIG=
201702041500 METAR MROC 041500Z 10018KT CAVOK 25/11 A3003 NOSIG=
201702041600 METAR MROC 041600Z 10015KT CAVOK 27/12 A3003 NOSIG=
201702041700 METAR MROC 041700Z 08016KT CAVOK 27/13 A3001 NOSIG=
201702041800 METAR MROC 041800Z 09014KT CAVOK 28/14 A2998 NOSIG=
201702041900 METAR MROC 041900Z 09013KT CAVOK 29/15 A2994 NOSIG=
201702042000 METAR MROC 042000Z 09014KT 9999 FEW045 29/16 A2991 NOSIG=
201702042100 METAR MROC 042100Z COR 09016KT 9999 FEW035 BKN200 27/16 A2988 NOSIG=
201702042200 METAR MROC 042200Z 10016G26KT 9999 FEW030 BKN200 25/16 A2988 NOSIG=
201702042300 METAR MROC 042300Z 10017KT 9999 FEW030 SCT150 24/17 A2989 NOSIG=
201702050000 METAR MROC 050000Z 12017KT 9999 FEW030 22/17 A2991 NOSIG=
201702050100 METAR MROC 050100Z 12016KT 9999 FEW025 22/16 A2993 NOSIG=
201702050200 METAR MROC 050200Z 10015G25KT 9999 FEW025 21/16 A2995 NOSIG=
201702050300 METAR MROC 050300Z 11016G26KT 9999 FEW030 21/16 A2996 NOSIG=
201702050400 METAR MROC 050400Z 11019G29KT CAVOK 21/16 A2997 NOSIG=
201702050500 METAR MROC 050500Z 12019G30KT CAVOK 21/16 A2995 NOSIG=
201702050600 METAR MROC 050600Z 11016G26KT CAVOK 21/16 A2995 NOSIG=
201702050700 METAR MROC 050700Z 11018G28KT CAVOK 22/17 A2993 NOSIG=
201702050800 METAR MROC 050800Z 12012G22KT CAVOK 22/17 A2992 NOSIG=
201702050900 METAR MROC 050900Z 11016G26KT CAVOK 21/17 A2991 NOSIG=
201702051000 METAR MROC 051000Z 11018G28KT CAVOK 21/17 A2992 NOSIG=
201702051100 METAR MROC 051100Z 10016G26KT CAVOK 22/17 A2993 NOSIG=
201702051200 METAR MROC 051200Z 10016G26KT CAVOK 21/17 A2994 NOSIG=
201702051300 METAR MROC 051300Z COR 11014G24KT 9999 FEW035 22/17 A2996 NOSIG=
201702051400 METAR MROC 051400Z 11018G31KT 9999 FEW030 24/17 A2998 NOSIG=
201702051500 METAR MROC 051500Z 09017G28KT 9999 FEW025 26/17 A3000 NOSIG=
201702051600 METAR MROC 051600Z 10019G29KT 9999 FEW040 26/17 A2999 NOSIG=
201702051700 METAR MROC 051700Z 10017G27KT 9999 FEW035 27/17 A2996 NOSIG=
201702051800 METAR MROC 051800Z 11017G29KT 9999 FEW030 28/18 A2993 NOSIG=
201702051900 METAR MROC 051900Z 10016G26KT 9999 SCT025 28/17 A2990 NOSIG=
201702052000 METAR MROC 052000Z 09015G28KT 9999 SCT035 29/17 A2989 NOSIG=
201702052100 METAR MROC 052100Z 09016G26KT 9999 SCT030 28/16 A2988 NOSIG=
201702052200 METAR MROC 052200Z 09015G25KT 9999 FEW035 SCT100 27/15 A2988 NOSIG=
201702052300 METAR MROC 052300Z 10015G25KT 9999 FEW035 25/17 A2989 NOSIG=
201702052354 METAR MROC 060000Z 10017G30KT 9999 FEW040 23/16 A2992 NOSIG=
201702060000 METAR MROC 060000Z 10017G30KT 9999 FEW040 23/16 A2992 NOSIG=
201702060100 METAR MROC 060100Z 10014G25KT CAVOK 22/16 A2994 NOSIG=
201702060200 METAR MROC 060200Z 10015G26KT CAVOK 22/17 A2995 NOSIG=
201702060300 METAR MROC 060300Z 10015G27KT CAVOK 22/17 A2997 NOSIG=
201702060400 METAR MROC 060400Z 11017G28KT CAVOK 21/16 A2997 NOSIG=
201702060500 METAR MROC 060500Z 11018G28KT CAVOK 21/16 A2996 NOSIG=
201702060600 METAR MROC 060600Z 11018G29KT CAVOK 22/15 A2995 NOSIG=
201702060700 METAR MROC 060700Z 11019G29KT CAVOK 21/16 A2993 NOSIG=
201702060800 METAR MROC 060800Z 11018G28KT CAVOK 21/16 A2992 NOSIG=
201702060900 METAR MROC 060900Z 10017KT CAVOK 21/16 A2992 NOSIG=
201702061000 METAR MROC 061000Z 10020G30KT CAVOK 21/16 A2992 NOSIG=
201702061100 METAR MROC 061100Z 10017G27KT CAVOK 21/16 A2994 NOSIG=
201702061200 METAR MROC 061200Z 10018G28KT 9999 FEW035 21/15 A2995 NOSIG=
201702061300 METAR MROC 061300Z 10015G25KT 9999 FEW030 22/16 A2998 NOSIG=
201702061400 METAR MROC 061400Z 11016G27KT 9999 FEW030 23/16 A2999 NOSIG=
201702061500 METAR MROC 061500Z 10021G31KT 9999 FEW030 25/15 A3000 NOSIG=
201702061600 METAR MROC 061600Z 09020G30KT 9999 FEW030 26/15 A2999 NOSIG=
201702061700 METAR MROC 061700Z 08020G34KT 9999 FEW030 28/15 A2997 NOSIG=
201702061800 METAR MROC 061800Z 09019G29KT 9999 FEW030 28/16 A2995 NOSIG=
201702061900 METAR MROC 061900Z 09015G25KT 9999 FEW030 28/17 A2992 NOSIG=
201702062000 METAR MROC 062000Z 10017G31KT 9999 FEW030 28/15 A2991 NOSIG=
201702062100 METAR MROC 062100Z 09016G28KT 9999 FEW035 27/16 A2989 NOSIG=
201702062200 METAR MROC 062200Z 08016G29KT 9999 FEW035 26/16 A2989 NOSIG=
201702062300 METAR MROC 062300Z 09015G28KT 9999 FEW040 25/15 A2991 NOSIG=
201702070000 METAR MROC 070000Z 09013G23KT 9999 FEW035 23/16 A2992 NOSIG=
201702070100 METAR MROC 070100Z 11013G23KT 9999 FEW035 23/16 A2993 NOSIG=
201702070200 METAR MROC 070200Z COR 10014G25KT CAVOK 22/17 A2995 NOSIG=
201702070259 METAR MROC 070259Z COR 09014G27KT CAVOK 22/16 A2996 NOSIG=
201702070300 METAR MROC 070300Z 09014G27KT CAVOK 22/16 A2996 NOSIG=
201702070400 METAR MROC 070400Z 11017G27KT CAVOK 22/16 A2996 NOSIG=
201702070500 METAR MROC 070500Z 11017G27KT CAVOK 22/17 A2996 NOSIG=
201702070600 METAR MROC 070600Z 11016G26KT CAVOK 21/17 A2995 NOSIG=
201702070700 METAR MROC 070700Z 11017G30KT 9999 FEW030 21/17 A2994 NOSIG=
201702070800 METAR MROC 070800Z 11015G27KT 9999 FEW030 21/17 A2992 NOSIG=
201702070900 METAR MROC 070900Z 11015G25KT 9999 FEW025 21/17 A2992 NOSIG=
201702071000 METAR MROC 071000Z 12013KT 9999 FEW025 21/16 A2993 NOSIG=
201702071100 METAR MROC 071100Z 11014G24KT 9999 FEW030 21/17 A2994 NOSIG=
201702071200 METAR MROC 071200Z 11012G22KT 9999 FEW030 21/17 A2995 NOSIG=
201702071300 METAR MROC 071300Z 10016G26KT 9999 FEW030 22/17 A2997 NOSIG=
201702071400 METAR MROC 071400Z 12014G24KT 9999 FEW030 24/17 A2999 NOSIG=
201702071500 METAR MROC 071500Z 11018G28KT 9999 FEW030 25/17 A3000 NOSIG=
201702071600 METAR MROC 071600Z 09017G27KT 9999 FEW030 26/16 A3000 NOSIG=
201702071700 METAR MROC 071700Z 08016G26KT 9999 FEW030 28/16 A2998 NOSIG=
201702071800 METAR MROC 071800Z 08015G25KT 9999 FEW030 28/16 A2996 NOSIG=
201702071900 METAR MROC 071900Z 09015G25KT 9999 FEW030 29/16 A2993 NOSIG=
201702072000 METAR MROC 072000Z 09016G26KT 9999 FEW030 28/17 A2989 NOSIG=
201702072100 METAR MROC 072100Z 09017G27KT CAVOK 28/17 A2987 NOSIG=
201702072200 METAR MROC 072200Z 09017G27KT CAVOK 28/17 A2987 NOSIG=
201702072300 METAR MROC 072300Z 09014KT CAVOK 26/17 A2988 NOSIG=
201702080000 METAR MROC 080000Z 10013KT CAVOK 24/16 A2989 NOSIG=
201702080100 METAR MROC 080100Z 12009KT CAVOK 23/16 A2992 NOSIG=
201702080200 METAR MROC 080200Z 10012KT CAVOK 23/14 A2994 NOSIG=
201702080300 METAR MROC 080300Z 11012KT CAVOK 22/15 A2995 NOSIG=
201702080400 METAR MROC 080400Z 11013G23KT CAVOK 21/15 A2996 NOSIG=
201702080500 METAR MROC 080500Z 11015G25KT CAVOK 21/15 A2996 NOSIG=
201702080600 METAR MROC 080600Z 10014G24KT CAVOK 21/15 A2996 NOSIG=
201702080700 METAR MROC 080700Z 11013G23KT CAVOK 21/15 A2994 NOSIG=
201702080800 METAR MROC 080800Z 11014KT CAVOK 21/15 A2992 NOSIG=
201702080900 METAR MROC 080900Z 10013G34KT CAVOK 21/16 A2992 NOSIG=
201702081000 METAR MROC 081000Z 10012G22KT CAVOK 20/15 A2992 NOSIG=
201702081100 METAR MROC 081100Z 11013G23KT CAVOK 20/16 A2994 NOSIG=
201702081200 METAR MROC 081200Z 11014G27KT 9999 FEW040 21/15 A2995 NOSIG=
201702081300 METAR MROC 081300Z 11015KT CAVOK 22/15 A2998 NOSIG=
201702081400 METAR MROC 081400Z 11013KT CAVOK 24/14 A2999 NOSIG=
201702081500 METAR MROC 081500Z 11016G28KT CAVOK 25/15 A3000 NOSIG=
201702081600 METAR MROC 081600Z 12011G23KT CAVOK 27/15 A2999 NOSIG=
201702081700 METAR MROC 081700Z 11014KT CAVOK 28/15 A2998 NOSIG=
201702081800 METAR MROC 081800Z 11013KT CAVOK 29/16 A2996 NOSIG=
201702081900 METAR MROC 081900Z 10012KT CAVOK 30/15 A2993 NOSIG=
201702082000 METAR MROC 082000Z 11011KT CAVOK 30/15 A2991 NOSIG=
201702082100 METAR MROC 082100Z 10010KT 9999 FEW040 SCT250 29/16 A2990 NOSIG=
201702082200 METAR MROC 082200Z 10010KT 9999 FEW040 SCT250 28/16 A2990 NOSIG=
201702082300 METAR MROC 082300Z 11010KT 9999 FEW040 SCT250 26/17 A2993 NOSIG=
201702090000 METAR MROC 090000Z 12008KT 9999 FEW040 SCT250 25/16 A2995 NOSIG=
201702090100 METAR MROC 090100Z 12009KT 9999 FEW040 23/17 A2997 NOSIG=
201702090200 METAR MROC 090200Z 11013KT 9999 FEW040 23/18 A2998 NOSIG=
201702090300 METAR MROC 090300Z 11010KT 9999 FEW040 22/18 A////=
201702090400 METAR MROC 090400Z 11011G22KT CAVOK 23/18 A3000 NOSIG=
201702090500 METAR MROC 090500Z 06005KT CAVOK 22/18 A3001 NOSIG=
201702090600 METAR MROC 090600Z 03009KT CAVOK 22/18 A3000 NOSIG=
201702090700 METAR MROC 090700Z 05004KT CAVOK 22/18 A2999 NOSIG=
201702090800 METAR MROC 090800Z 06006KT CAVOK 22/18 A2998 NOSIG=
201702090900 METAR MROC 090900Z 07005KT CAVOK 21/17 A2998 NOSIG=
201702091000 METAR MROC 091000Z 04008KT CAVOK 21/17 A2998 NOSIG=
201702091100 METAR MROC 091100Z 05008KT 9999 FEW030 21/17 A2998 NOSIG=
201702091200 METAR MROC 091200Z 10005KT 9999 FEW030 21/16 A3002 NOSIG=
201702091300 METAR MROC 091300Z 10012KT CAVOK 23/16 A3003 NOSIG=
201702091400 METAR MROC 091400Z 11015G25KT FEW040 25/16 A3004 NOSIG=
201702091500 METAR MROC 091500Z 11015G25KT 9999 FEW040 26/17 A3005 NOSIG=
201702091600 METAR MROC 091600Z 09014G24KT 9999 FEW040 27/16 A3005 NOSIG=
201702091700 METAR MROC 091700Z 10014G24KT 9999 FEW040 29/16 A3002 NOSIG=
201702091800 METAR MROC 091800Z 10015G25KT 9999 FEW040 29/16 A3000 NOSIG=
201702091900 METAR MROC 091900Z 09014KT 9999 FEW040 30/16 A2998 NOSIG=
201702092000 METAR MROC 092000Z 09014KT 9999 FEW040 30/15 A2996 NOSIG=
201702092100 METAR MROC 092100Z COR 09014KT 9999 FEW045 SCT170 29/16 A2995 NOSIG=
201702092200 METAR MROC 092200Z 07014KT 9999 FEW045 28/15 A2995 NOSIG=
201702092300 METAR MROC 092300Z 07014G25KT 9999 FEW045 27/16 A2996 NOSIG=
201702100000 METAR MROC 100000Z 09014G24KT 9999 FEW030 24/17 A2998 NOSIG=
201702100100 METAR MROC 100100Z 10010G20KT 9999 FEW030 23/17 A2999 NOSIG=
201702100200 METAR MROC 100200Z 11015G26KT 9999 FEW030 23/18 A2999 NOSIG=
201702100300 METAR MROC 100300Z 12015KT 9999 FEW030 22/18 A3004 NOSIG=
201702100400 METAR MROC 100400Z 10011G21KT CAVOK 23/17 A3005 NOSIG=
201702100500 METAR MROC 100500Z 10017KT CAVOK 23/18 A3004 NOSIG=
201702100600 METAR MROC 100600Z 09015G25KT CAVOK 23/17 A3005 NOSIG=
201702100700 METAR MROC NIL=
201702100900 METAR MROC 100900Z 07019G29KT CAVOK 23/15 A3002 NOSIG=
201702101000 METAR MROC 101000Z 07017KT CAVOK 22/15 A3004 NOSIG=
201702101100 METAR MROC 101100Z 07015KT CAVOK 22/15 A3005 NOSIG=
201702101200 METAR MROC 101200Z 10012KT CAVOK ///// A3007 NOSIG=
201702101300 METAR MROC 101300Z 09013G23KT 9999 FEW030 23/16 A3009 NOSIG=
201702101400 METAR MROC 101400Z 09013G30KT 9999 FEW030 25/16 A3010 NOSIG=
201702101500 METAR MROC 101500Z 09017G30KT 9999 FEW045 26/15 A3011 NOSIG=
201702101600 METAR MROC 101600Z 09019G30KT 9999 FEW035 27/15 A3009 NOSIG=
201702101700 METAR MROC 101700Z 08020G35KT 9999 FEW040 28/15 A3007 NOSIG=
201702101800 METAR MROC 101800Z 08023G36KT 9999 FEW045 28/15 A3004 NOSIG=
201702101900 METAR MROC 101900Z 07025KT 9999 FEW045 29/15 A3002 NOSIG=
201702102000 METAR MROC 102000Z 07023G36KT 9999 FEW040 28/14 A3001 NOSIG=
201702102100 METAR MROC 102100Z 07025G38KT 9999 FEW040 27/14 A2998 NOSIG=
201702102119 METAR MROC 102119Z 08025G38KT 9999 FEW040 27/14 A2998 NOSIG=
201702102135 METAR MROC 102135Z 08025G38KT 9999 FEW040 27/14 A2998 NOSIG=
201702102200 METAR MROC 102200Z 07025G37KT 9999 FEW040 26/15 A2999 NOSIG=
201702102300 METAR MROC 102300Z 08017G31KT 9999 FEW040 25/14 A3000 NOSIG=
201702102354 METAR MROC 110000Z 07011G32KT 9999 FEW040 23/15 A3001 NOSIG=
201702110000 METAR MROC 110000Z 07011G32KT 9999 FEW040 23/15 A3001 NOSIG=
201702110100 METAR MROC 110100Z 07023G34KT 9999 FEW040 23/14 A3003 NOSIG=
201702110200 METAR MROC 110200Z 07021G32KT CAVOK 22/14 A3004 NOSIG=
201702110300 METAR MROC 110300Z 07017G30KT CAVOK 22/14 A3005 NOSIG=
201702110400 METAR MROC 110400Z 08015G25KT CAVOK 22/13 A3006 NOSIG=
201702110500 METAR MROC 110500Z 08016G26KT CAVOK 22/13 A3005 NOSIG=
201702110600 METAR MROC 110600Z 07017KT CAVOK 22/12 A3000 NOSIG=
201702110700 METAR MROC 110700Z 07016G26KT CAVOK 22/12 A3001 NOSIG=
201702110800 METAR MROC 110800Z 08015G25KT CAVOK 21/13 A2999 NOSIG=
201702110900 METAR MROC 110900Z 09016KT CAVOK 20/13 A2998 NOSIG=
201702111000 METAR MROC 111000Z 09015KT CAVOK 20/11 A2998 NOSIG=
201702111100 METAR MROC 111100Z 10016KT CAVOK 19/11 A2999 NOSIG=
201702111200 METAR MROC 111200Z 08020G30KT CAVOK 22/08 A2999 NOSIG=
201702111300 METAR MROC 111300Z 07019G29KT CAVOK 22/08 A3003 NOSIG=
201702111400 METAR MROC 111400Z 07019G32KT CAVOK 25/10 A3004 NOSIG=
201702111500 METAR MROC 111500Z 08022G34KT CAVOK 26/09 A3005 NOSIG=
201702111600 METAR MROC 111600Z 07024G39KT CAVOK 27/08 A3004 NOSIG=
201702111700 METAR MROC 111700Z 07021G35KT CAVOK 28/09 A3003 NOSIG=
201702111800 METAR MROC 111800Z 07020G37KT CAVOK 27/09 A3002 NOSIG=
201702111900 METAR MROC 111900Z 07020G36KT CAVOK 28/10 A2998 NOSIG=
201702112000 METAR MROC 112000Z 07021G36KT CAVOK 27/11 A2996 NOSIG=
201702112100 METAR MROC 112100Z 08019G30KT CAVOK 27/10 A2995 NOSIG=
201702112200 METAR MROC 112200Z 07020G30KT CAVOK 25/09 A2996 NOSIG=
201702112300 METAR MROC 112300Z 07018G28KT CAVOK 24/09 A2996 NOSIG=
201702120000 METAR MROC 120000Z 07020G31KT CAVOK 22/08 A2998 NOSIG=
201702120100 METAR MROC 120100Z 09018G28KT CAVOK 22/10 A2999 NOSIG=
201702120200 METAR MROC 120200Z 09017G27KT CAVOK 21/09 A3001 NOSIG=
201702120300 METAR MROC 120300Z 10016G27KT CAVOK 20/11 A3004 NOSIG=
201702120400 METAR MROC 120400Z 10015G30KT CAVOK 20/12 A3005 NOSIG=
201702120500 METAR MROC 120500Z 10015G25KT CAVOK 19/13 A3004 NOSIG=
201702120600 METAR MROC 120600Z 10016G28KT CAVOK 19/13 A3001 NOSIG=
201702120700 METAR MROC 120700Z 10016G26KT CAVOK 19/12 A2999 NOSIG=
201702120800 METAR MROC 120800Z 10016G26KT CAVOK 18/10 A2998 NOSIG=
201702120900 METAR MROC 120900Z 10013G24KT CAVOK 19/09 A2997 NOSIG=
201702121000 METAR MROC 121000Z 12010G21KT CAVOK 19/10 A2998 NOSIG=
201702121100 METAR MROC 121100Z 09015G25KT CAVOK 20/10 A2999 NOSIG=
201702121200 METAR MROC 121200Z 11012KT CAVOK 19/12 A3000 NOSIG=
201702121300 METAR MROC 121300Z 10010G20KT CAVOK 20/12 A3001 NOSIG=
201702121400 METAR MROC 121400Z 12010KT CAVOK 23/12 A3003 NOSIG=
201702121500 METAR MROC 121500Z 09011KT CAVOK 26/10 A3004 NOSIG=
201702121600 METAR MROC 121600Z 10014G24KT CAVOK 26/12 A3004 NOSIG=
201702121700 METAR MROC 121700Z 10013G23KT CAVOK 27/14 A3003 NOSIG=
201702121800 METAR MROC 121800Z 08016KT 9999 FEW030 27/15 A3001 NOSIG=
201702121900 METAR MROC 121900Z 08012G22KT 9999 FEW030 27/16 A2998 NOSIG=
201702122000 METAR MROC 122000Z 11016G26KT 9999 FEW030 27/16 A2994 NOSIG=
201702122100 METAR MROC 122100Z 11014G27KT 9999 FEW030 27/16 A2994 NOSIG=
201702122200 METAR MROC 122200Z 09014G25KT 9999 FEW030 26/15 A2993 NOSIG=
201702122300 METAR MROC 122300Z 11014G24KT 9999 FEW035 24/15 A2995 NOSIG=
201702130000 METAR MROC 130000Z 11018KT 9999 FEW030 21/15 A2998 NOSIG=
201702130100 METAR MROC 130100Z 10016G26KT 9999 FEW030 21/14 A3000 NOSIG=
201702130200 METAR MROC 130200Z 11011KT CAVOK 20/14 A3002 NOSIG=
201702130300 METAR MROC 130300Z 11014KT CAVOK 20/15 A3003 NOSIG=
201702130400 METAR MROC 130400Z 12013G28KT 9999 FEW035 20/15 A3003 NOSIG=
201702130500 METAR MROC 130500Z 11012G24KT 9999 FEW035 20/15 A3003 NOSIG=
201702130600 METAR MROC 130600Z 11014G24KT 9999 FEW035 20/14 A3001 NOSIG=
201702130700 METAR MROC 130700Z 11011KT 9999 FEW035 20/14 A3000 NOSIG=
201702130800 METAR MROC 130800Z 11012G22KT 9999 FEW035 20/14 A2999 NOSIG=
201702130900 METAR MROC 130900Z 11011G22KT CAVOK 20/14 A2998 NOSIG=
201702131000 METAR MROC 131000Z 11014G24KT CAVOK 20/14 A2997 NOSIG=
201702131100 METAR MROC 131100Z 11012G22KT CAVOK 20/14 A2999 NOSIG=
201702131200 METAR MROC 131200Z 10010G20KT CAVOK 19/14 A3000 NOSIG=
201702131300 METAR MROC 131300Z 11010G20KT CAVOK 21/14 A3001 NOSIG=
201702131400 METAR MROC 131400Z 12014G24KT CAVOK 23/14 A3003 NOSIG=
201702131500 METAR MROC 131500Z 12016KT CAVOK 24/14 A3004 NOSIG=
201702131600 METAR MROC 131600Z 11012G24KT CAVOK 26/14 A3004 NOSIG=
201702131700 METAR MROC 131700Z 11013KT CAVOK 27/15 A3002 NOSIG=
201702131800 METAR MROC 131800Z 10013KT CAVOK 28/15 A3000 NOSIG=
201702131900 METAR MROC 131900Z 10012KT 9999 FEW040 28/14 A2997 NOSIG=
201702132000 METAR MROC 132000Z 10009KT 9999 FEW040 28/14 A2994 NOSIG=
201702132100 METAR MROC 132100Z 12010KT 9999 SCT040 29/14 A2993 NOSIG=
201702132200 METAR MROC 132200Z 13010KT 9999 FEW040 28/15 A2992 NOSIG=
201702132300 METAR MROC 132300Z 13007KT 9999 FEW035 SCT120 26/16 A2993 NOSIG=
201702140000 METAR MROC 140000Z 11011KT 9999 FEW035 23/16 A2995 NOSIG=
201702140100 METAR MROC 140100Z 11012KT CAVOK 22/16 A2999 NOSIG=
201702140200 METAR MROC 140200Z 11010KT CAVOK 22/16 A3000 NOSIG=
201702140300 METAR MROC 140300Z 11013KT CAVOK 21/16 A3001 NOSIG=
201702140400 METAR MROC 140400Z 09008KT CAVOK 20/15 A3003 NOSIG=
201702140500 METAR MROC 140500Z 11010KT CAVOK 20/15 A3002 NOSIG=
201702140600 METAR MROC 140600Z 08008KT CAVOK 20/15 A3001 NOSIG=
201702140700 METAR MROC 140700Z 06008KT CAVOK 19/15 A3000 NOSIG=
201702140800 METAR MROC 140800Z 06007KT CAVOK 18/15 A2999 NOSIG=
201702140900 METAR MROC 140900Z 07006KT CAVOK 17/14 A2999 NOSIG=
201702141000 METAR MROC 141000Z 07005KT CAVOK 18/13 A2999 NOSIG=
201702141100 METAR MROC 141100Z 06009KT CAVOK 18/13 A3000 NOSIG=
201702141200 METAR MROC 141200Z 08006KT 9999 FEW040 18/14 A3002 NOSIG=
201702141300 METAR MROC 141300Z 06011KT CAVOK 19/14 A3003 NOSIG=
201702141400 METAR MROC 141400Z 11008KT CAVOK 21/15 A3006 NOSIG=
201702141500 METAR MROC 141500Z 09007KT 9999 FEW040 SCT120 23/16 A3007 NOSIG=
201702141600 METAR MROC 141600Z 19004KT 9999 FEW040 26/15 A3007 NOSIG=
201702141700 METAR MROC 141700Z 26008KT 9999 SCT040 27/16 A3004 NOSIG=
201702141800 METAR MROC 141800Z 25007KT 9999 SCT040 29/15 A3001 NOSIG=
201702141900 METAR MROC 141900Z 25007KT 9999 SCT040 29/16 A2998 NOSIG=
201702142000 METAR MROC 142000Z 26010KT 9999 SCT040 29/17 A2995 NOSIG=
201702142100 METAR MROC 142100Z 26011KT 9999 BKN040 29/18 A2994 NOSIG=
201702142200 METAR MROC 142200Z 27010KT 9999 BKN035 26/17 A2996 NOSIG=
201702142300 METAR MROC 142300Z 24009KT 9999 BKN035 25/16 A2997 NOSIG=
201702150000 METAR MROC 150000Z 25007KT 9999 SCT035 23/17 A2999 NOSIG=
201702150100 METAR MROC 150100Z 25004KT 9999 BKN030 22/18 A3001 NOSIG=
201702150200 METAR MROC 150200Z VRBO2KT 9999 FEW025 21/17 A3002 BECMG 07006KT=
201702150300 METAR MROC 150300Z 18002KT 9999 FEW030 20/17 A3004 NOSIG=
201702150400 METAR MROC 150400Z 10003KT CAVOK 19/17 A3004 NOSIG=
201702150500 METAR MROC 150500Z 06004KT CAVOK 19/16 A3004 NOSIG=
201702150600 METAR MROC 150600Z 07008KT CAVOK 19/16 A3003 NOSIG=
201702150700 METAR MROC 150700Z 07008KT CAVOK 19/16 A3001 NOSIG=
201702150800 METAR MROC 150800Z 08005KT CAVOK 19/16 A3000 NOSIG=
201702150900 METAR MROC 150900Z 05006KT CAVOK 18/15 A3000 NOSIG=
201702151000 METAR MROC 151000Z 07007KT CAVOK 17/14 A3001 NOSIG=
201702151100 METAR MROC 151100Z 07005KT CAVOK 16/13 A3002 NOSIG=
201702151200 METAR MROC 151200Z 03005KT CAVOK 17/13 A3004 NOSIG=
201702151300 METAR MROC 151300Z 08005KT CAVOK 19/15 A3006 NOSIG=
201702151400 METAR MROC 151400Z 09004KT CAVOK 23/16 A3008 NOSIG=
201702151500 METAR MROC 151500Z VRB02KT CAVOK 25/15 A3008 BECMG 26007KT=
201702151600 METAR MROC 151600Z 28005KT 9999 FEW040 SCT200 27/15 A3009 NOSIG=
201702151700 METAR MROC 151700Z 27006KT 9999 FEW040 SCT200 28/15 A3007 NOSIG=
201702151800 METAR MROC 151800Z 26006KT 9999 FEW040 SCT200 29/15 A3004 NOSIG=
201702151900 METAR MROC 151900Z 25009KT 9999 FEW045 30/15 A3002 NOSIG=
201702152000 METAR MROC 152000Z 24009KT 9999 FEW035 30/17 A2999 NOSIG=
201702152100 METAR MROC 152100Z 23013KT 9999 FEW040 28/18 A2999 NOSIG=
201702152200 METAR MROC 152200Z 24009KT 9999 SCT040 26/16 A3000 NOSIG=
201702152300 METAR MROC 152300Z 25010KT 9999 FEW040 25/17 A3001 NOSIG=
201702152354 METAR MROC 160000Z 26006KT 9999 FEW035 23/18 A3002 NOSIG=
201702160000 METAR MROC 160000Z 26006KT 9999 FEW035 23/18 A3002 NOSIG=
201702160100 METAR MROC 160100Z 23006KT 9999 SCT035 22/18 A3005 NOSIG=
201702160200 METAR MROC 160200Z 26002KT 9999 FEW035 21/18 A3007 NOSIG=
201702160300 METAR MROC 160300Z 31003KT 9999 FEW035 21/19 A3009 NOSIG=
201702160400 METAR MROC 160400Z 13002KT 9999 FEW035 20/18 A3010 NOSIG=
201702160500 METAR MROC 160500Z 05003KT 9999 FEW035 19/17 A3009 NOSIG=
201702160600 METAR MROC 160600Z 05003KT CAVOK 29/26 A3008 NOSIG=
201702160700 METAR MROC 160700Z 00000KT CAVOK 19/15 A3007 NOSIG=
201702160800 METAR MROC 160800Z 05005KT CAVOK 18/15 A3006 NOSIG=
201702160900 METAR MROC 160900Z 07008KT CAVOK 17/14 A3005 NOSIG=
201702161000 METAR MROC 161000Z 05004KT CAVOK 17/14 A3006 NOSIG=
201702161100 METAR MROC 161100Z 07008KT CAVOK 18/14 A3007 NOSIG=
201702161200 METAR MROC 161200Z 06008KT CAVOK 18/14 A3008 NOSIG=
201702161300 METAR MROC 161300Z 07009KT CAVOK 20/15 A3010 NOSIG=
201702161400 METAR MROC 161400Z 07007KT CAVOK 24/15 A3011 NOSIG=
201702161500 METAR MROC 161500Z 12003KT CAVOK 27/14 A3013 BECMG 24008KT=
201702161600 METAR MROC 161600Z 27004KT 9999 FEW040 SCT250 28/14 A3013 NOSIG=
201702161700 METAR MROC 161700Z 26005KT 9999 FEW040 28/13 A3010 NOSIG=
201702161800 METAR MROC 161800Z 24010KT 9999 FEW040 30/14 A3007 NOSIG=
201702161900 METAR MROC 161900Z 24010G20KT 9999 FEW040 29/15 A3004 NOSIG=
201702162000 METAR MROC 162000Z 23015KT 9999 FEW040 30/16 A3001 NOSIG=
201702162100 METAR MROC 162100Z 25010KT 9999 FEW040 29/16 A3000 NOSIG=
201702162200 METAR MROC 162200Z 25009KT 9999 FEW040 28/15 A3000 NOSIG=
201702162300 METAR MROC 162300Z 25011KT 9999 FEW040 26/17 A3002 NOSIG=
201702170000 METAR MROC 170000Z 23006KT 9999 FEW040 24/17 A3004 NOSIG=
201702170100 METAR MROC 170100Z 23004KT 9999 FEW040 22/18 A3006 NOSIG=
201702170200 METAR MROC 170200Z 24002KT 9999 FEW040 21/19 A3009 NOSIG=
201702170300 METAR MROC 170300Z 24003KT 9999 FEW040 21/20 A3010 NOSIG=
201702170400 METAR MROC 170400Z 10004KT 9999 FEW025 SCT090 20/13 A3011 NOSIG=
201702170500 METAR MROC 170500Z 08006KT 9999 FEW035 20/13 A3011 NOSIG=
201702170600 METAR MROC 170600Z 09007KT 9999 FEW035 20/14 A3010 NOSIG=
201702170700 METAR MROC 170700Z 08007KT CAVOK 19/14 A3008 NOSIG=
201702170800 METAR MROC 170800Z 08008KT CAVOK 18/13 A3007 NOSIG=
201702170900 METAR MROC 170900Z 08008KT CAVOK 18/13 A3007 NOSIG=
201702171000 METAR MROC 171000Z 06007KT CAVOK 17/12 A3007 NOSIG=
201702171100 METAR MROC 171100Z 07007KT CAVOK 16/08 A3008 NOSIG=
201702171200 METAR MROC 171200Z 06008KT CAVOK 17/08 A3010 NOSIG=
201702171300 METAR MROC 171300Z 09006KT CAVOK 19/09 A3012 NOSIG=
201702171400 METAR MROC 171400Z 08006KT CAVOK 23/10 A3013 NOSIG=
201702171500 METAR MROC 171500Z 08005KT CAVOK 26/06 A3013 NOSIG=
201702171600 METAR MROC 171600Z 08004KT 9999 FEW040 27/14 A3013 NOSIG=
201702171700 METAR MROC 171700Z 23008KT 9999 FEW040 28/15 A3011 NOSIG=
201702171800 METAR MROC 171800Z 24009KT 9999 FEW040 29/15 A3008 NOSIG=
201702171900 METAR MROC 171900Z 23011KT 9999 FEW040 29/15 A3005 NOSIG=
201702172000 METAR MROC 172000Z 24013KT 9999 SCT040 27/19 A3002 NOSIG=
201702172100 METAR MROC 172100Z 25010KT 9999 FEW030 SCT070 25/16 A3004 NOSIG=
201702172200 METAR MROC 172200Z 24009KT 9999 -RA FEW030 BKN060 26/16 A3000 NOSIG=
201702172300 METAR MROC 172300Z 22007KT 9999 -DZ BKN045 23/18 A3002 NOSIG=
201702180000 METAR MROC 180000Z 16004KT 9999 BKN045 23/15 A3004 BECMG 10006KT=
201702180100 METAR MROC 180100Z 13005KT 9999 FEW045 BKN070 22/15 A3005 NOSIG=
201702180200 METAR MROC 180200Z 10007KT 9999 FEW040 SCT070 22/15 A3007 NOSIG=
201702180300 METAR MROC 180300Z 10009KT 9999 FEW040 BKN100 21/15 A3007 NOSIG=
201702180400 METAR MROC 180400Z 11007KT 9999 FEW030 SCT080 20/13 A3007 NOSIG=
201702180500 METAR MROC 180500Z 10007KT CAVOK 20/13 A3008 NOSIG=
201702180600 METAR MROC 180600Z 06009KT CAVOK 19/13 A3006 NOSIG=
201702180700 METAR MROC 180700Z 07008KT CAVOK 19/12 A3003 NOSIG=
201702180800 METAR MROC 180800Z 09004KT CAVOK 18/12 A3003 NOSIG=
201702180900 METAR MROC 180900Z 10009KT CAVOK 18/13 A3002 NOSIG=
201702181000 METAR MROC 181000Z 06008KT CAVOK 17/12 A3002 NOSIG=
201702181100 METAR MROC 181100Z 09004KT CAVOK 17/12 A3004 NOSIG=
201702181200 METAR MROC 181200Z 07006KT CAVOK 16/12 A3005 NOSIG=
201702181300 METAR MROC 181300Z COR 06005KT CAVOK 19/12 A3007 NOSIG=
201702181400 METAR MROC 181400Z 08007KT CAVOK 23/13 A3008 NOSIG=
201702181500 METAR MROC 181500Z 08005KT CAVOK 25/13 A3009 BECMG 24007KT=
201702181600 METAR MROC 181600Z 23003KT 9999 FEW045 26/12 A3008 NOSIG=
201702181700 METAR MROC 181700Z 27006KT 9999 FEW045 28/14 A3005 NOSIG=
201702181800 METAR MROC 181800Z 30006KT 9999 FEW045 29/15 A3003 NOSIG=
201702181900 METAR MROC 181900Z 23010KT 9999 FEW045 30/16 A3000 NOSIG=
201702182000 METAR MROC 182000Z 24013KT 9999 SCT040 27/17 A2997 NOSIG=
201702182100 METAR MROC 182100Z 25014KT 9999 SCT035 28/19 A2995 NOSIG=
201702182200 METAR MROC NIL=
201702182300 METAR MROC NIL=
201702190000 METAR MROC NIL=
201702190100 METAR MROC NIL=
201702190200 METAR MROC NIL=
201702190300 METAR MROC NIL=
201702190400 METAR MROC 190400Z 09009KT 9999 FEW030 SCT070 19/15 A3008 NOSIG=
201702190500 METAR MROC 190500Z 08008KT CAVOK 19/15 A3007 NOSIG=
201702190600 METAR MROC 190600Z 05006KT CAVOK 19/15 A3006 NOSIG=
201702190700 METAR MROC 190700Z 05008KT CAVOK 19/13 A3005 NOSIG=
201702190800 METAR MROC 190800Z 08005KT CAVOK 19/13 A3003 NOSIG=
201702190900 METAR MROC 190900Z 09008KT CAVOK 18/14 A3002 NOSIG=
201702191000 METAR MROC 191000Z 08007KT CAVOK 18/13 A3002 NOSIG=
201702191100 METAR MROC 191100Z 08006KT CAVOK 17/13 A3003 NOSIG=
201702191200 METAR MROC 191200Z 06007KT CAVOK 17/11 A3004 NOSIG=
201702191300 METAR MROC 191300Z 07007KT CAVOK 19/11 A3007 NOSIG=
201702191400 METAR MROC 191400Z 09008KT CAVOK 22/13 A3008 NOSIG=
201702191500 METAR MROC 191500Z 09010KT CAVOK 25/12 A3008 NOSIG=
201702191600 METAR MROC 191600Z 10010KT CAVOK 27/14 A3008 NOSIG=
201702191700 METAR MROC 191700Z 12007KT CAVOK 28/14 A3006 NOSIG=
201702191800 METAR MROC 191800Z 04004KT CAVOK 29/13 A3003 NOSIG=
201702191900 METAR MROC 191900Z 14007KT 9999 SCT045 29/14 A3000 NOSIG=
201702192000 METAR MROC 192000Z 17004KT 9999 SCT040 28/15 A2997 NOSIG=
201702192010 METAR MROC 192010Z 25007KT 9999 SCT040 27/16 A2997 NOSIG=
201702192100 METAR MROC 192100Z 19005KT 9999 SCT045 27/16 A2996 NOSIG=
201702192200 METAR MROC 192200Z 12007KT 9999 BKN040 25/16 A2996 NOSIG=
201702192300 METAR MROC 192300Z 12007KT 9999 BKN035 24/16 A2998 NOSIG=
201702200000 METAR MROC 200000Z 12009KT 9999 FEW030 BKN040 23/17 A3000 NOSIG=
201702200100 METAR MROC 200100Z 11009KT 9999 FEW010 BKN030 22/16 A3002 NOSIG=
201702200200 METAR MROC 200200Z 10009KT 9999 FEW010 BKN045 22/15 A3004 NOSIG=
201702200300 METAR MROC 200300Z 12006KT 9999 BKN025 21/14 A3006 NOSIG=
201702200400 METAR MROC 200400Z 12008KT 9999 FEW030 SCT070 21/14 A3007 NOSIG=
201702200500 METAR MROC 200500Z 11008KT 9999 FEW040 20/14 A3007 NOSIG=
201702200600 METAR MROC 200600Z 07006KT 9999 FEW040 20/15 A3006 NOSIG=
201702200700 METAR MROC 200700Z 05007KT 9999 FEW040 20/15 A3005 NOSIG=
201702200800 METAR MROC 200800Z 05008KT 9999 FEW040 20/15 A3003 NOSIG=
201702200900 METAR MROC 200900Z 05005KT 9999 FEW045 19/15 A3002 NOSIG=
201702201000 METAR MROC 201000Z 06005KT 9999 FEW045 19/15 A3002 NOSIG=
201702201100 METAR MROC 201100Z 06008KT CAVOK 20/15 A3004 NOSIG=
201702201200 METAR MROC 201200Z 07006KT CAVOK 19/15 A3006 NOSIG=
201702201300 METAR MROC 201300Z 07008KT CAVOK 21/16 A3008 NOSIG=
201702201400 METAR MROC 201400Z 10005KT CAVOK 24/16 A3009 NOSIG=
201702201500 METAR MROC 201500Z 10008KT CAVOK 27/15 A3008 NOSIG=
201702201600 METAR MROC 201600Z 11009KT CAVOK 29/15 A3007 NOSIG=
201702201700 METAR MROC 201700Z 25009KT 9999 SCT045 29/16 A3006 NOSIG=
201702201800 METAR MROC 201800Z 22008KT 9999 SCT040 27/16 A3003 NOSIG=
201702201900 METAR MROC 201900Z 23008KT 9999 BKN045 28/17 A3000 NOSIG=
201702202000 METAR MROC 202000Z 25008KT 9999 BKN040 27/18 A2998 NOSIG=
201702202100 METAR MROC 202100Z 25008KT 9999 BKN040 SCT100 27/18 A2997 NOSIG=
201702202200 METAR MROC 202200Z 24007KT 9999 BKN040 25/18 A2998 NOSIG=
201702202300 METAR MROC 202300Z 21004KT 9999 SCT040 BKN060 23/19 A3000 NOSIG=
201702202356 METAR MROC 210000Z VRB02KT 9999 FEW035 BKN040 23/19 A3002 NOSIG=
201702210000 METAR MROC 210000Z VRB02KT 9999 FEW035 BKN040 23/19 A3002 NOSIG=
201702210100 METAR MROC 210100Z 16003KT 9999 FEW035 BKN040 22/19 A3004 NOSIG=
201702210200 METAR MROC 210200Z 29003KT 9999 FEW035 BKN050 22/19 A3005 NOSIG=
201702210300 METAR MROC 210300Z 19003KT 9999 FEW035 SCT050 21/19 A3006 NOSIG=
201702210400 METAR MROC 210400Z 11004KT 9999 FEW035 21/17 A3007 NOSIG=
201702210500 METAR MROC 210500Z 11004KT CAVOK 20/17 A3007 NOSIG=
201702210600 METAR MROC 210600Z 09005KT CAVOK 20/16 A3006 NOSIG=
201702210700 METAR MROC 210700Z 08009KT CAVOK 20/16 A3004 NOSIG=
201702210800 METAR MROC 210800Z 10007KT CAVOK 21/17 A3002 NOSIG=
201702210900 METAR MROC 210900Z 09007KT CAVOK 21/16 A3001 NOSIG=
201702211000 METAR MROC 211000Z 07008KT CAVOK 20/16 A3002 NOSIG=
201702211100 METAR MROC 211100Z 07008KT CAVOK 20/16 A3002 NOSIG=
201702211200 METAR MROC 211200Z 06006KT CAVOK 20/16 A3003 NOSIG=
201702211300 METAR MROC 211300Z 09008KT CAVOK 21/15 A3005 NOSIG=
201702211400 METAR MROC 211400Z 08006KT CAVOK 25/16 A3006 NOSIG=
201702211500 METAR MROC 211500Z 18005KT CAVOK 26/15 A3008 BECMG 24007KT=
201702211600 METAR MROC 211600Z 25007KT 9999 FEW040 27/17 A3008 NOSIG=
201702211700 METAR MROC 211700Z 26008KT 9999 FEW040 29/17 A3006 NOSIG=
201702211800 METAR MROC 211800Z 24008KT 9999 FEW040 30/17 A3003 NOSIG=
201702211900 METAR MROC 211900Z 24010KT 9999 FEW040 30/17 A3000 NOSIG=
201702212000 METAR MROC 212000Z 22011KT 9999 FEW040 29/19 A2997 NOSIG=
201702212100 METAR MROC 212100Z 24011KT 9999 SCT040 28/20 A2995 NOSIG=
201702212200 METAR MROC 212200Z 24010G20KT 9999 FEW030 SCT040 28/20 A2996 NOSIG=
201702212300 METAR MROC 212300Z 24010KT 9999 FEW030 SCT040 25/18 A2997 NOSIG=
201702212356 METAR MROC 220000Z 17006KT 9999 SCT025 BKN035 24/20 A2999 NOSIG=
201702220000 METAR MROC 220000Z 17006KT 9999 SCT025 BKN035 24/20 A2999 NOSIG=
201702220100 METAR MROC 220100Z 21003KT 9999 FEW025 BKN040 23/19 A3001 NOSIG=
201702220200 METAR MROC 220200Z 25003KT 9999 FEW025 SCT040 22/19 A3003 NOSIG=
201702220300 METAR MROC 220300Z 11007KT CAVOK 22/17 A3003 NOSIG=
201702220400 METAR MROC 220400Z 01002KT 9999 FEW010 21/19 A3004 NOSIG=
201702220500 METAR MROC 220500Z 09004KT 9999 FEW015 20/17 A3003 NOSIG=
201702220600 METAR MROC 220600Z 09004KT CAVOK 20/16 A3002 NOSIG=
201702220700 METAR MROC 220700Z 08005KT CAVOK 19/16 A2999 NOSIG=
201702220800 METAR MROC 220800Z 07005KT CAVOK 19/15 A2998 NOSIG=
201702220900 METAR MROC 220900Z 07005KT CAVOK 18/15 A2997 NOSIG=
201702221000 METAR MROC 221000Z 05007KT CAVOK 18/15 A2998 NOSIG=
201702221100 METAR MROC 221100Z 07005KT CAVOK 18/14 A2999 NOSIG=
201702221200 METAR MROC 221200Z 07005KT CAVOK 18/14 A3001 NOSIG=
201702221300 METAR MROC 221300Z 11003KT CAVOK 19/14 A3002 NOSIG=
201702221400 METAR MROC 221400Z 09004KT CAVOK 22/15 A3003 NOSIG=
201702221500 METAR MROC 221500Z 26004KT CAVOK 25/17 A3004 NOSIG=
201702221600 METAR MROC 221600Z 24006KT CAVOK 26/17 A3004 NOSIG=
201702221700 METAR MROC 221700Z 24005KT 9999 FEW040 28/16 A3000 NOSIG=
201702221800 METAR MROC 221800Z 24007KT 9999 FEW040 28/14 A2998 NOSIG=
201702221900 METAR MROC 221900Z 26010KT 9999 FEW040 29/15 A2995 NOSIG=
201702222000 METAR MROC 222000Z 24008KT 9999 FEW040 29/16 A2993 NOSIG=
201702222100 METAR MROC 222100Z 25011KT 9999 FEW040 29/18 A2992 NOSIG=
201702222200 METAR MROC 222200Z 23012KT 9999 FEW040 28/18 A2992 NOSIG=
201702222300 METAR MROC 222300Z 25011KT 9999 FEW040 26/18 A2994 NOSIG=
201702230000 METAR MROC 230000Z 25008KT 9999 FEW040 23/19 A2996 NOSIG=
201702230100 METAR MROC 230100Z 27004KT 9999 FEW045 22/20 A2998 NOSIG=
201702230200 METAR MROC 230200Z VRB02KT 9999 VCFG FEW010 21/20 A3001 NOSIG=
201702230300 METAR MROC 230300Z 29004KT 9999 VCFG FEW005 SCT015 21/20 A3003 NOSIG=
201702230400 METAR MROC 230400Z 20002KT 9999 FEW005 SCT015 21/20 A3004 NOSIG=
201702230500 METAR MROC 230500Z 26002KT 9999 SCT005 21/20 A3004 NOSIG=
201702230600 METAR MROC 230600Z 17002KT 1000 BR FEW002 BKN005 21/20 A3002 NOSIG=
201702230625 METAR MROC 230625Z VRB01KT 9999 2000SW FEW002 BKN005 20/20 A3001 NOSIG=
201702230700 METAR MROC 230700Z 00000KT 9999 2000SW FEW002 BKN015 20/20 A3000 NOSIG=
201702230800 METAR MROC 230800Z VRB01KT 9999 BKN015 20/18 A2999 NOSIG=
201702230900 METAR MROC 230900Z 07003KT 9999 BKN015 19/17 A2997 NOSIG=
201702231000 METAR MROC 231000Z 08003KT 9999 BKN015 20/17 A2997 NOSIG=
201702231100 METAR MROC 231100Z 07003KT 9999 FEW035 19/16 A2998 NOSIG=
201702231200 METAR MROC 231200Z 08005KT CAVOK 18/15 A2999 NOSIG=
201702231300 METAR MROC 231300Z 07004KT CAVOK 20/15 A3001 NOSIG=
201702231400 METAR MROC 231400Z 10004KT CAVOK 23/17 A3002 BECMG 25007KT=
201702231500 METAR MROC 231500Z VRB02KT CAVOK 26/16 A3002 NOSIG=
201702231600 METAR MROC 231600Z 27003KT 9999 FEW045 27/16 A3001 NOSIG=
201702231700 METAR MROC 231700Z 24009KT 9999 FEW045 SCT250 29/15 A3000 NOSIG=
201702231800 METAR MROC 231800Z 26010KT 9999 FEW045 29/16 A2997 NOSIG=
201702231900 METAR MROC 231900Z 25012KT 9999 FEW045 29/16 A2995 NOSIG=
201702232000 METAR MROC 232000Z 25012KT 9999 FEW040 29/18 A2992 NOSIG=
201702232100 METAR MROC 232100Z 26013KT 9999 FEW040 SCT130 29/18 A2991 NOSIG=
201702232200 METAR MROC 232200Z 23010KT 9999 FEW040 27/19 A2991 NOSIG=
201702232300 METAR MROC 232300Z 25008KT 9999 FEW040 26/18 A2992 NOSIG=
201702240000 METAR MROC 240000Z 26009KT 9999 SCT040 23/18 A2994 NOSIG=
201702240100 METAR MROC 240100Z 27007KT 9999 SCT035 22/20 A2996 NOSIG=
201702240200 METAR MROC 240200Z 28004KT 9999 FEW010 SCT025 21/20 A2998 NOSIG=
201702240300 METAR MROC 240300Z 26004KT 9999 FEW010 SCT025 21/20 A3000 NOSIG=
201702240400 METAR MROC 240400Z 25002KT 9999 BKN030 21/19 A3001 NOSIG=
201702240500 METAR MROC 240500Z 16002KT 9999 SCT030 21/19 A3000 NOSIG=
201702240600 METAR MROC 240600Z 030002KT 9999 FEW005 SCT020 20/17 A2999 NOSIG=
201702240700 METAR MROC 240700Z 080004KT 9999 FEW020 18/17 A2996 NOSIG=
201702240800 METAR MROC 240800Z 08004KT CAVOK 19/16 A2995 NOSIG=
201702240900 METAR MROC 240900Z 00000KT 9999 FEW005 SCT020 19/16 A2996 NOSIG=
201702241000 METAR MROC 241000Z 09003KT 9999 FEW004 BKN020 19/16 A2997 NOSIG=
201702241100 METAR MROC 241100Z 07004KT 9999 FEW005 SCT020 20/16 A2999 NOSIG=
201702241200 METAR MROC 241200Z 11004KT 9999 FEW005 SCT030 19/16 A3000 NOSIG=
201702241300 METAR MROC 241300Z 07004KT CAVOK 21/16 A3002 NOSIG=
201702241400 METAR MROC 241400Z 11003KT CAVOK 24/18 A3003 NOSIG=
201702241500 METAR MROC 241500Z 260002KT CAVOK 25/17 A3004 NOSIG=
201702241600 METAR MROC 241600Z 28005KT CAVOK 27/17 A3004 NOSIG=
201702241700 METAR MROC 241700Z 26008KT 9999 FEW045 27/17 A3002 NOSIG=
201702241800 METAR MROC 241800Z 25010KT 9999 SCT045 28/17 A3000 NOSIG=
201702241900 METAR MROC 241900Z 23013KT 9999 SCT040 30/18 A2998 NOSIG=
201702242000 METAR MROC 242000Z 23011KT 9999 SCT035 29/19 A2995 NOSIG=
201702242100 METAR MROC 242100Z 24011KT 9999 FEW035 28/19 A2994 NOSIG=
201702242200 METAR MROC 242200Z 25011KT 9999 FEW035 28/19 A2993 NOSIG=
201702242300 METAR MROC 242300Z 26011KT 9999 FEW035 25/18 A2994 NOSIG=
201702250000 METAR MROC 250000Z 25008KT 9999 FEW030 BKN180 23/17 A2996 NOSIG=
201702250100 METAR MROC 250100Z 27005KT 9999 FEW020 BKN035 22/18 A2999 NOSIG=
201702250200 METAR MROC 250200Z 25004KT 9999 FEW015 SCT030 21/18 A3001 BECMG 10005KT=
201702250300 METAR MROC 250300Z 09002KT 9999 FEW020 21/17 A3002 NOSIG=
201702250400 METAR MROC 250400Z 07002KT 9999 FEW020 21/17 A3003 NOSIG=
201702250500 METAR MROC 250500Z 05005KT 9999 FEW025 19/16 A3000 NOSIG=
201702250600 METAR MROC 250600Z 06005KT CAVOK 19/15 A3001 NOSIG=
201702250700 METAR MROC 250700Z 06005KT CAVOK 18/14 A3000 NOSIG=
201702250800 METAR MROC 250800Z 07004KT CAVOK 18/15 A2999 NOSIG=
201702250900 METAR MROC 250900Z 06007KT CAVOK 17/14 A2998 NOSIG=
201702251000 METAR MROC 251000Z 06004KT CAVOK 18/14 A2988 NOSIG=
201702251100 METAR MROC 251100Z 06005KT CAVOK 17/14 A3000 NOSIG=
201702251200 METAR MROC 251200Z 05006KT CAVOK 17/14 A3002 NOSIG=
201702251300 METAR MROC 251300Z 06006KT CAVOK 20/15 A3004 NOSIG=
201702251400 METAR MROC 251400Z 13003KT CAVOK 24/16 A3005 BECMG 23006KT=
201702251500 METAR MROC 251500Z 22005KT CAVOK 26/17 A3006 NOSIG=
201702251600 METAR MROC 251600Z 25005KT CAVOK 26/17 A3005 NOSIG=
201702251700 METAR MROC 251700Z 25006KT 9999 FEW035 28/16 A3004 NOSIG=
201702251800 METAR MROC 251800Z 24009KT 9999 FEW035 29/17 A3001 NOSIG=
201702251900 METAR MROC 251900Z 23009KT 9999 FEW035 29/17 A2998 NOSIG=
201702252000 METAR MROC 252000Z 24010KT 9999 FEW030 30/17 A2996 NOSIG=
201702252100 METAR MROC 252100Z 25010G20KT 9999 FEW040 29/17 A2995 NOSIG=
201702252200 METAR MROC 252200Z 24012KT 9999 FEW040 28/17 A2994 NOSIG=
201702252300 METAR MROC 252300Z 25011KT 9999 FEW040 26/18 A2995 NOSIG=
201702252355 METAR MROC 260000Z 24008KT 9999 FEW035 SCT040 25/18 A2997 NOSIG=
201702260000 METAR MROC 260000Z 24008KT 9999 FEW035 SCT040 25/18 A2997 NOSIG=
201702260100 METAR MROC 260100Z 26003KT 9999 FEW035 23/17 A3000 NOSIG=
201702260200 METAR MROC 260200Z 31003KT 9999 SCT035 22/18 A3002 NOSIG=
201702260300 METAR MROC 260300Z 30003KT 9999 FEW035 22/18 A3003 NOSIG=
201702260400 METAR MROC 260400Z 10002KT 9999 FEW035 20/18 A3004 NOSIG=
201702260500 METAR MROC 260500Z 36002KT CAVOK 21/18 A3004 NOSIG=
201702260600 METAR MROC 260600Z 09005KT CAVOK 20/16 A3003 NOSIG=
201702260700 METAR MROC 260700Z 04007KT CAVOK 20/16 A3001 NOSIG=
201702260800 METAR MROC 260800Z 06008KT CAVOK 20/16 A3000 NOSIG=
201702260900 METAR MROC 260900Z 07006KT CAVOK 20/16 A3000 NOSIG=
201702261000 METAR MROC 261000Z 07008KT CAVOK 19/13 A3000 NOSIG=
201702261100 METAR MROC 261100Z 08004KT CAVOK 20/15 A3001 NOSIG=
201702261200 METAR MROC 261200Z 08005KT CAVOK 19/14 A3003 NOSIG=
201702261300 METAR MROC 261300Z 08005KT CAVOK 21/15 A3005 NOSIG=
201702261400 METAR MROC 261400Z 06004KT CAVOK 25/16 A3007 NOSIG=
201702261500 METAR MROC 261500Z 11012KT CAVOK 27/16 A3007 NOSIG=
201702261600 METAR MROC 261600Z 12012G22KT 9999 FEW040 SCT250 28/15 A3007 NOSIG=
201702261700 METAR MROC 261700Z 08010G20KT 9999 FEW040 SCT250 29/13 A3004 NOSIG=
201702261800 METAR MROC 261800Z 10010G21KT 9999 FEW045 BKN250 30/13 A3002 NOSIG=
201702261900 METAR MROC 261900Z 10013KT 9999 FEW045 SCT250 30/13 A2999 NOSIG=
201702262000 METAR MROC 262000Z 10010G20KT 9999 FEW045 SCT250 30/12 A2996 NOSIG=
201702262100 METAR MROC 262100Z 12010KT 9999 FEW040 30/13 A2993 NOSIG=
201702262200 METAR MROC 262200Z 10011KT 9999 FEW040 28/13 A2995 NOSIG=
201702262300 METAR MROC 262300Z 08011KT 9999 FEW040 26/11 A2997 NOSIG=
201702270000 METAR MROC 270000Z 11011KT 9999 FEW040 24/12 A2998 NOSIG=
201702270100 METAR MROC 270100Z 11011KT CAVOK 23/13 A3000 NOSIG=
201702270200 METAR MROC 270200Z 11011KT CAVOK 22/13 A3002 NOSIG=
201702270300 METAR MROC 270300Z 11010KT CAVOK 22/13 A3004 NOSIG=
201702270400 METAR MROC 270400Z 11010KT CAVOK 21/13 A3006 NOSIG=
201702270500 METAR MROC 270500Z 10009KT CAVOK 21/13 A3005 NOSIG=
201702270600 METAR MROC 270600Z 10008KT CAVOK 20/12 A3004 NOSIG=
201702270700 METAR MROC 270700Z 11010KT CAVOK 20/11 A3002 NOSIG=
201702270800 METAR MROC 270800Z 11011KT CAVOK 20/10 A3001 NOSIG=
201702270900 METAR MROC 270900Z 11009KT CAVOK 19/10 A3000 NOSIG=
201702271000 METAR MROC 271000Z 10011KT CAVOK 20/09 A3000 NOSIG=
201702271100 METAR MROC 271100Z 11008KT CAVOK 19/09 A3002 NOSIG=
201702271200 METAR MROC 271200Z 11009KT CAVOK 19/09 A3003 NOSIG=
201702271300 METAR MROC 271300Z 11010KT CAVOK 20/10 A3005 NOSIG=
201702271400 METAR MROC 271400Z 11013G23KT CAVOK 23/10 A3005 NOSIG=
201702271500 METAR MROC 271500Z 11015KT CAVOK 25/10 A3007 NOSIG=
201702271600 METAR MROC 271600Z 09013KT CAVOK 27/11 A3008 NOSIG=
201702271700 METAR MROC 271700Z 10010G20KT CAVOK 28/13 A3006 NOSIG=
201702271800 METAR MROC 271800Z 10011G21KT 9999 FEW040 29/13 A3003 NOSIG=
201702271900 METAR MROC 271900Z 10010G20KT 9999 FEW040 29/13 A3001 NOSIG=
201702272000 METAR MROC 272000Z 10012KT 9999 FEW040 29/13 A2998 NOSIG=
201702272100 METAR MROC 272100Z 10011KT 9999 FEW040 25/15 A3004 NOSIG=
201702272200 METAR MROC 272200Z 10012KT 9999 FEW040 27/14 A2997 NOSIG=
201702272300 METAR MROC 272300Z 11011KT 9999 FEW040 25/15 A2999 NOSIG=
201702272357 METAR MROC 280000Z 09013KT 9999 FEW030 23/15 A3000 NOSIG=
201702280000 METAR MROC 280000Z 09013KT 9999 FEW030 23/15 A3000 NOSIG=
201702280100 METAR MROC 280100Z 11010KT 9999 FEW030 21/15 A3003 NOSIG=
201702280200 METAR MROC 280200Z 11014G25KT 9999 FEW040 22/16 A3003 NOSIG=
201702280300 METAR MROC 280300Z 10014G24KT 9999 FEW040 21/15 A3006 NOSIG=
201702280400 METAR MROC 280400Z 08014G24KT 9999 FEW035 22/14 A3006 NOSIG=
201702280500 METAR MROC 280500Z 09013G24KT CAVOK 22/14 A3006 NOSIG=
201702280600 METAR MROC 280600Z 09013G23KT CAVOK 21/15 A3005 NOSIG=
201702280700 METAR MROC 280700Z 09014G24KT 9999 FEW035 21/15 A3002 NOSIG=
201702280800 METAR MROC 280800Z 10017G27KT CAVOK 21/14 A3001 NOSIG=
201702280900 METAR MROC 280900Z 10013G25KT CAVOK 21/13 A3000 NOSIG=
201702281000 METAR MROC 281000Z 09012G22KT CAVOK 21/12 A3001 NOSIG=
201702281100 METAR MROC 281100Z 10012G24KT CAVOK 21/10 A3001 NOSIG=
201702281200 METAR MROC 281200Z 11010G20KT CAVOK 20/11 A3003 NOSIG=
201702281300 METAR MROC 281300Z 11012KT CAVOK 22/11 A3005 NOSIG=
201702281400 METAR MROC 281400Z 11014KT CAVOK 24/12 A3006 NOSIG=
201702281500 METAR MROC 281500Z 12013KT CAVOK 25/12 A3007 NOSIG=
201702281600 METAR MROC 281600Z 09015G25KT CAVOK 28/10 A3008 NOSIG=
201702281700 METAR MROC 281700Z 10016G26KT CAVOK 28/11 A3005 NOSIG=
201702281800 METAR MROC 281800Z 09013KT CAVOK 29/13 A3003 NOSIG=
201702281900 METAR MROC 281900Z 07013G23KT CAVOK 30/15 A2999 NOSIG=
201702282000 METAR MROC 282000Z 08013KT 9999 FEW045 29/15 A2997 NOSIG=
201702282100 METAR MROC 282100Z 09014KT 9999 FEW045 28/15 A2996 NOSIG=
201702282200 METAR MROC 282200Z 09013G23KT 9999 FEW045 26/16 A2996 NOSIG=
201702282300 METAR MROC 282300Z 07015KT 9999 FEW040 25/15 A2996 NOSIG=
201703010000 METAR MROC 010000Z 10011KT 9999 FEW040 24/14 A2997 NOSIG=
201703010100 METAR MROC 010100Z 11012KT CAVOK 22/15 A2998 NOSIG=
201703010200 METAR MROC 010200Z 11013KT CAVOK 22/15 A3000 NOSIG=
201703010300 METAR MROC 010300Z 10014KT CAVOK 22/15 A3000 NOSIG=
201703010400 METAR MROC 010400Z 11014KT CAVOK 22/15 A3000 NOSIG=
201703010500 METAR MROC 010500Z 12014G24KT CAVOK 21/14 A3000 NOSIG=
201703010600 METAR MROC 010600Z 12011KT CAVOK 21/13 A2999 NOSIG=
201703010700 METAR MROC 010700Z 12010KT CAVOK 21/15 A2996 NOSIG=
201703010800 METAR MROC 010800Z 12010KT CAVOK 22/15 A2995 NOSIG=
201703010900 METAR MROC 010900Z 10012KT CAVOK 22/15 A2995 NOSIG=
201703011000 METAR MROC 011000Z 11013G23KT CAVOK 22/15 A2995 NOSIG=
201703011100 METAR MROC 011100Z 12010KT CAVOK 21/15 A2997 NOSIG=
201703011200 METAR MROC 011200Z 11011G21KT CAVOK 21/15 A2998 NOSIG=
201703011300 METAR MROC 011300Z 11013KT CAVOK 22/15 A3000 NOSIG=
201703011400 METAR MROC 011400Z 11015G25KT CAVOK 24/15 A3002 NOSIG=
201703011500 METAR MROC 011500Z 09014G24KT 9999 FEW040 26/16 A3003 NOSIG=
201703011600 METAR MROC 011600Z 09014G24KT 9999 FEW040 27/14 A3004 NOSIG=
201703011700 METAR MROC 011700Z 09016G26KT 9999 FEW040 28/14 A3002 NOSIG=
201703011800 METAR MROC 011800Z 08019G29KT 9999 FEW040 29/13 A3000 NOSIG=
201703011900 METAR MROC 011900Z 08015G25KT 9999 FEW040 30/13 A2997 NOSIG=
201703012000 METAR MROC 012000Z 07020KT 9999 FEW040 28/15 A2995 NOSIG=
201703012100 METAR MROC 012100Z 09014KT 9999 FEW040 28/15 A2993 NOSIG=
201703012200 METAR MROC 012200Z 08013G23KT 9999 FEW040 28/13 A2993 NOSIG=
201703012300 METAR MROC 012300Z 09014G25KT 9999 FEW040 26/13 A2994 NOSIG=
201703020000 METAR MROC 020000Z 09013KT 9999 FEW040 23/14 A2994 NOSIG=
201703020100 METAR MROC 020100Z COR 10011G21KT 9999 FEW030 22/14 A2997 NOSIG=
201703020200 METAR MROC 020200Z 10010G20KT 9999 FEW030 22/14 A2998 NOSIG=
201703020300 METAR MROC 020300Z 10015KT CAVOK 20/13 A2999 NOSIG=
201703020400 METAR MROC 020400Z 11013G23KT CAVOK 21/13 A2998 NOSIG=
201703020500 METAR MROC 020500Z 11015G26KT CAVOK 21/13 A2997 NOSIG=
201703020600 METAR MROC 020600Z 10010G20KT CAVOK 20/14 A2998 NOSIG=
201703020700 METAR MROC 020700Z 10008KT CAVOK 21/12 A2996 NOSIG=
201703020800 METAR MROC 020800Z 09009KT CAVOK 20/14 A2994 NOSIG=
201703020900 METAR MROC 020900Z 08007KT CAVOK 19/13 A2994 NOSIG=
201703021000 METAR MROC 021000Z 02003KT CAVOK 16/11 A2995 NOSIG=
201703021100 METAR MROC 021100Z 03005KT CAVOK 16/11 A2996 NOSIG=
201703021200 METAR MROC 021200Z 10007KT CAVOK 19/13 A2997 NOSIG=
201703021300 METAR MROC 021300Z 04004KT CAVOK 21/14 A2999 NOSIG=
201703021400 METAR MROC 021400Z 11014G25KT CAVOK 23/14 A3000 NOSIG=
201703021500 METAR MROC 021500Z 12016G28KT 9999 FEW045 SCT140 25/15 A3000 NOSIG=
201703021600 METAR MROC 021600Z 09016KT 9999 FEW030 SCT120 26/15 A3001 NOSIG=
201703021700 METAR MROC 021700Z 10014KT 9999 FEW030 SCT120 25/16 A3002 NOSIG=
201703021800 METAR MROC 021800Z 08017G27KT 9999 FEW045 27/15 A2999 NOSIG=
201703021900 METAR MROC 021900Z 10017G27KT 9999 FEW045 27/15 A2997 NOSIG=
201703022000 METAR MROC 022000Z 09018G30KT 9999 FEW045 28/14 A2993 NOSIG=
201703022100 METAR MROC 022100Z 09014G24KT 9999 FEW040 28/13 A2991 NOSIG=
201703022200 METAR MROC 022200Z 09014G24KT 9999 FEW040 26/14 A2993 NOSIG=
201703022300 METAR MROC 022300Z 09011G21KT 9999 FEW040 SCT080 24/13 A2995 NOSIG=
201703022353 METAR MROC 030000Z 09014G26KT 9999 FEW040 22/13 A2996 NOSIG=
201703030000 METAR MROC 030000Z 09014G26KT 9999 FEW040 22/13 A2996 NOSIG=
201703030100 METAR MROC 030100Z 11013G27KT CAVOK 21/14 A2998 NOSIG=
201703030200 METAR MROC 030200Z 11013G25KT CAVOK 21/14 A3001 NOSIG=
201703030300 METAR MROC 030300Z 10012G22KT CAVOK 20/14 A3003 NOSIG=
201703030400 METAR MROC 030400Z 09015G25KT CAVOK 20/15 A3003 NOSIG=
201703030500 METAR MROC 030500Z 08015G25KT CAVOK 20/14 A3002 NOSIG=
201703030600 METAR MROC 030600Z 09010G20KT CAVOK 20/14 A3002 NOSIG=
201703030700 METAR MROC 030700Z 10010G20KT CAVOK 20/14 A3000 NOSIG=
201703030800 METAR MROC 030800Z 09012KT CAVOK 20/14 A2999 NOSIG=
201703030900 METAR MROC 030900Z 10014KT CAVOK 20/14 A2997 NOSIG=
201703031000 METAR MROC 031000Z 09016KT CAVOK 20/14 A2999 NOSIG=
201703031100 METAR MROC 031100Z 10015KT CAVOK 20/13 A2999 NOSIG=
201703031200 METAR MROC 031200Z 08015KT CAVOK 20/13 A2999 NOSIG=
201703031300 METAR MROC 031300Z 10015KT CAVOK 21/13 A3001 NOSIG=
201703031400 METAR MROC 031400Z 09018G29KT CAVOK 24/13 A3003 NOSIG=
201703031500 METAR MROC 031500Z 08018KT CAVOK 24/14 A3005 NOSIG=
201703031600 METAR MROC 031600Z 08017G27KT 9999 FEW040 26/14 A3005 NOSIG=
201703031700 METAR MROC 031700Z 09019G29KT 9999 FEW040 26/14 A3000 NOSIG=
201703031800 METAR MROC 031800Z 08017G27KT 9999 FEW040 26/15 A3000 NOSIG=
201703031900 METAR MROC 031900Z 08022G34KT 9999 FEW040 25/15 A2999 NOSIG=
201703032000 METAR MROC 032000Z 08018G33KT 9999 FEW040 27/14 A2996 NOSIG=
201703032100 METAR MROC 032100Z 09023G33KT 9999 FEW045 26/13 A2993 NOSIG=
201703032200 METAR MROC 032200Z 09017G30KT 9999 FEW035 SCT120 26/14 A2994 NOSIG=
201703032300 METAR MROC 032300Z 09015G29KT 9999 FEW035 SCT200 24/14 A2996 NOSIG=
201703032354 METAR MROC 040000Z 10013G28KT 9999 FEW035 23/14 A2997 NOSIG=
201703040000 METAR MROC 040000Z 10013G28KT 9999 FEW035 23/14 A2997 NOSIG=
201703040100 METAR MROC 040100Z 11012G23KT CAVOK 21/15 A2998 NOSIG=
201703040200 METAR MROC 040200Z 11013G24KT CAVOK 22/14 A3000 NOSIG=
201703040300 METAR MROC 040300Z 10014G25KT CAVOK 21/14 A3001 NOSIG=
201703040400 METAR MROC 040400Z 11015G25KT 9999 FEW025 21/14 A3002 NOSIG=
201703040500 METAR MROC 040500Z 11017G31KT CAVOK 21/15 A3001 NOSIG=
201703040600 METAR MROC 040600Z 11019G32KT 9999 FEW025 21/16 A3000 NOSIG=
201703040700 METAR MROC 040700Z 11020G31KT 9999 FEW025 21/16 A2997 NOSIG=
201703040800 METAR MROC 040800Z 11019G33KT 9999 FEW030 21/16 A2997 NOSIG=
201703040900 METAR MROC 040900Z 11017G31KT 9999 FEW025 21/16 A2996 NOSIG=
201703041000 METAR MROC 041000Z 11017G27KT 9999 FEW025 21/16 A2995 NOSIG=
201703041100 METAR MROC 041100Z 11016G26KT 9999 FEW025 21/16 A2997 NOSIG=
201703041200 METAR MROC 041200Z 11014G24KT 9999 SCT030 21/16 A3000 NOSIG=
201703041300 METAR MROC 041300Z 10018G28KT 9999 FEW030 22/15 A3000 NOSIG=
201703041400 METAR MROC 041400Z 10017G29KT 9999 FEW030 24/15 A3001 NOSIG=
201703041500 METAR MROC 041500Z 08018G30KT 9999 FEW030 24/14 A3003 NOSIG=
201703041600 METAR MROC 041600Z 08020G30KT 9999 FEW030 25/13 A3003 NOSIG=
201703041700 METAR MROC 041700Z 07024G36KT 9999 FEW030 26/13 A3001 NOSIG=
201703041800 METAR MROC 041800Z 08023G33KT 9999 FEW030 26/13 A2999 NOSIG=
201703041900 METAR MROC 041900Z 08027G38KT 9999 FEW030 26/14 A2997 NOSIG=
201703042000 METAR MROC 042000Z 08022G34KT 9999 FEW030 26/13 A2994 NOSIG=
201703042100 METAR MROC 042100Z 08018G30KT 9999 FEW035 26/10 A2993 NOSIG=
201703042200 METAR MROC 042200Z 09020G32KT 9999 FEW035 24/14 A2993 NOSIG=
201703042300 METAR MROC 042300Z 08022G32KT 9999 FEW030 21/12 A2994 NOSIG=
201703042358 METAR MROC 050000Z 10015G27KT 9999 FEW040 21/13 A2996 NOSIG=
201703050000 METAR MROC 050000Z 10015G27KT 9999 FEW040 21/13 A2996 NOSIG=
201703050100 METAR MROC 050100Z 11018KT 9999 FEW040 21/14 A2996 NOSIG=
201703050200 METAR MROC 050200Z 11020G31KT 9999 FEW040 20/13 A2998 NOSIG=
201703050300 METAR MROC 050300Z 11019G30KT 9999 FEW040 20/13 A2999 NOSIG=
201703050400 METAR MROC 050400Z 10018G28KT CAVOK 20/14 A2998 NOSIG=
201703050500 METAR MROC 050500Z 11016G26KT CAVOK 19/14 A2998 NOSIG=
201703050600 METAR MROC 050600Z 10017KT CAVOK 20/14 A2996 NOSIG=
201703050700 METAR MROC 050700Z 10017G27KT CAVOK 20/14 A2995 NOSIG=
201703050800 METAR MROC 050800Z 11014G24KT CAVOK 19/13 A2993 NOSIG=
201703050900 METAR MROC 050900Z 11016G26KT CAVOK 19/13 A2993 NOSIG=
201703051000 METAR MROC 051000Z 11014G24KT CAVOK 20/12 A2994 NOSIG=
201703051100 METAR MROC 051100Z 11013KT CAVOK 19/13 A2995 NOSIG=
201703051200 METAR MROC 051200Z 11013G23KT CAVOK 19/13 A2997 NOSIG=
201703051300 METAR MROC 051300Z 10015G25KT CAVOK 21/13 A2998 NOSIG=
201703051400 METAR MROC 051400Z 10017G27KT CAVOK 23/13 A2999 NOSIG=
201703051500 METAR MROC 051500Z 09021G31KT 9999 FEW045 24/14 A3000 NOSIG=
201703051600 METAR MROC 051600Z 10020G30KT CAVOK 25/13 A3000 NOSIG=
201703051700 METAR MROC 051700Z 08020G31KT CAVOK 27/12 A2999 NOSIG=
201703051800 METAR MROC 051800Z 07022G33KT CAVOK 28/12 A2997 NOSIG=
201703051900 METAR MROC 051900Z 08018G28KT CAVOK 29/11 A2995 NOSIG=
201703052000 METAR MROC 052000Z 07019G29KT 9999 FEW045 29/11 A2992 NOSIG=
201703052100 METAR MROC 052100Z 08014G24KT 9999 FEW045 28/12 A2990 NOSIG=
201703052200 METAR MROC 052200Z 09016G26KT 9999 FEW045 26/14 A2990 NOSIG=
201703052300 METAR MROC 052300Z 08015KT 9999 FEW045 SCT250 25/15 A2992 NOSIG=
201703060000 METAR MROC 060000Z 11013G23KT 9999 FEW045 SCT250 22/15 A2993 NOSIG=
201703060100 METAR MROC 060100Z 10015G25KT 9999 FEW045 21/16 A2994 NOSIG=
201703060200 METAR MROC 060200Z 10010G20KT 9999 FEW040 22/15 A2997 NOSIG=
201703060300 METAR MROC 060300Z 11015KT 9999 FEW040 21/15 A2998 NOSIG=
201703060400 METAR MROC 060400Z 11017G27KT 9999 FEW035 21/14 A2998 NOSIG=
201703060500 METAR MROC 060500Z 11016G26KT 9999 FEW035 21/14 A2997 NOSIG=
201703060600 METAR MROC 060600Z 12017G30KT CAVOK 21/15 A2995 NOSIG=
201703060700 METAR MROC 060700Z 11019G31KT CAVOK 20/15 A2993 NOSIG=
201703060800 METAR MROC 060800Z 11015G31KT CAVOK 20/15 A2991 NOSIG=
201703060900 METAR MROC 060900Z 11017G29KT CAVOK 20/15 A2992 NOSIG=
201703061000 METAR MROC 061000Z 11016G26KT CAVOK 20/15 A2992 NOSIG=
201703061100 METAR MROC 061100Z 11015G25KT CAVOK 21/15 A2993 NOSIG=
201703061200 METAR MROC 061200Z 12015G30KT CAVOK 21/15 A2994 NOSIG=
201703061300 METAR MROC 061300Z 12916G26KT 9999 FEW040 SCT130 21/16 A2995 NOSIG=
201703061400 METAR MROC 061400Z 11016G27KT 9999 FEW040 23/16 A2996 NOSIG=
201703061500 METAR MROC 061500Z 12015G26KT 9999 FEW040 SCT130 25/17 A2998 NOSIG=
201703061600 METAR MROC 061600Z 12016G29KT 9999 FEW040 SCT130 27/17 A2998 NOSIG=
201703061700 METAR MROC 061700Z 10019G29KT 9999 FEW040 SCT130 28/16 A2997 NOSIG=
201703061800 METAR MROC 061800Z 10013G23KT 9999 FEW040 SCT130 26/16 A2998 NOSIG=
201703061900 METAR MROC 061900Z 10014G24KT 9999 SCT035 SCT120 26/16 A2995 NOSIG=
201703062000 METAR MROC 062000Z 10015G25KT 9999 SCT035 BKN120 25/16 A2992 NOSIG=
201703062100 METAR MROC 062100Z 09019G32KT 9999 SCT040 SCT060 26/15 A2991 NOSIG=
201703062200 METAR MROC 062200Z 10018G29KT 9999 FEW045 SCT120 24/14 A2991 NOSIG=
201703062300 METAR MROC 062300Z 11015KT 9999 FEW035 BKN100 24/12 A2992 NOSIG=
201703070000 METAR MROC 070000Z 11015KT 9999 FEW035 BKN100 23/14 A2994 NOSIG=
201703070100 METAR MROC 070100Z 11014KT 9999 FEW030 BKN100 22/15 A2997 NOSIG=
201703070200 METAR MROC 070200Z 10017G27KT 9999 FEW025 BKN120 22/15 A2997 NOSIG=
201703070300 METAR MROC 070300Z 10017G27KT 9999 FEW025 SCT140 22/16 A2999 NOSIG=
201703070400 METAR MROC 070400Z 10015G25KT 9999 FEW035 22/16 A2999 NOSIG=
201703070500 METAR MROC 070500Z 11019G29KT 9999 FEW035 22/16 A2998 NOSIG=
201703070600 METAR MROC 070600Z 11019G29KT 9999 FEW035 22/16 A2996 NOSIG=
201703070700 METAR MROC 070700Z 10017G27KT 9999 FEW040 21/15 A2994 NOSIG=
201703070800 METAR MROC 070800Z 10016G26KT 9999 FEW040 21/16 A2993 NOSIG=
201703070900 METAR MROC 070900Z 08018KT 9999 FEW045 22/15 A2994 NOSIG=
201703071000 METAR MROC 071000Z 10017G29KT 9999 FEW045 22/15 A2994 NOSIG=
201703071100 METAR MROC 071100Z 10017G27KT 9999 FEW045 SCT110 21/15 A2995 NOSIG=
201703071200 METAR MROC 071200Z 10018KT 9999 FEW045 SCT110 22/15 A2997 NOSIG=
201703071300 METAR MROC 071300Z 11019G30KT 9999 FEW020 22/16 A3000 NOSIG=
201703071400 METAR MROC 071400Z 11018KT CAVOK 24/15 A3002 NOSIG=
201703071500 METAR MROC 071500Z 10019G29KT 9999 FEW020 25/15 A3004 NOSIG=
201703071600 METAR MROC 071600Z 08020G30KT 9999 FEW020 27/15 A3005 WS R07 NOSIG=
201703071700 METAR MROC 071700Z 07020G30KT CAVOK 28/14 A3003 WS R07 NOSIG=
201703071800 METAR MROC 071800Z 08017KT 9999 FEW045 29/13 A3001 NOSIG=
201703071900 METAR MROC 071900Z 08017G28KT 9999 FEW045 SCT250 29/14 A2999 WS R07 NOSIG=
201703072000 METAR MROC 072000Z 08015KT 9999 FEW045 BKN250 29/14 A2997 WS R07 NOSIG=
201703072100 METAR MROC 072100Z 08014G26KT 9999 FEW035 BKN250 29/14 A2995=
201703072200 METAR MROC 072200Z 08013G23KT 9999 FEW035 SCT250 28/14 A2995=
201703072300 METAR MROC 072300Z 10012G22KT 9999 FEW035 SCT250 26/15 A2996=
201703072354 METAR MROC 080000Z 09013G23KT 9999 FEW035 SCT250 24/16 A2999=
201703080000 METAR MROC 080000Z 09013G23KT 9999 FEW035 SCT250 24/16 A2999=
201703080100 METAR MROC 080100Z 10010G20KT CAVOK 23/15 A3001=
201703080200 METAR MROC 080200Z 11013G23KT CAVOK 22/15 A3003=
201703080300 METAR MROC 080300Z 09016G26KT CAVOK 23/14 A3004=
201703080400 METAR MROC 080400Z 10016G26KT CAVOK 22/15 A3004 NOSIG=
201703080500 METAR MROC 080500Z 11018KT CAVOK 22/15 A3004 NOSIG=
201703080600 METAR MROC 080600Z 11017G27KT CAVOK 22/15 A3002 NOSIG=
201703080700 METAR MROC 080700Z 11015G25KT CAVOK 21/15 A3000 NOSIG=
201703080800 METAR MROC 080800Z 11015G25KT CAVOK 21/14 A2999 NOSIG=
201703080900 METAR MROC 080900Z 11018G28KT CAVOK 22/14 A2998 NOSIG=
201703081000 METAR MROC 081000Z 11014G24KT CAVOK 21/15 A2999 NOSIG=
201703081100 METAR MROC 081100Z 11014G25KT CAVOK 20/15 A3000 NOSIG=
201703081200 METAR MROC 081200Z 11015G25KT CAVOK 20/15 A3001 NOSIG=
201703081300 METAR MROC 081300Z 11015G25KT CAVOK 21/15 A3003 NOSIG=
201703081400 METAR MROC 081400Z 11016G29KT 9999 FEW040 24/14 A3005 NOSIG=
201703081500 METAR MROC 081500Z 11016G31KT 9999 FEW040 25/14 A3005 NOSIG=
201703081600 METAR MROC 081600Z 09019G31KT 9999 FEW040 27/13 A3005 NOSIG=
201703081700 METAR MROC 081700Z 09015G25KT 9999 FEW045 29/13 A3004 NOSIG=
201703081800 METAR MROC 081800Z 07019G34KT 9999 FEW045 29/13 A3001 NOSIG=
201703081900 METAR MROC 081900Z 06023G34KT 9999 FEW045 30/13 A3000 NOSIG=
201703082000 METAR MROC 082000Z 06024G34KT 9999 FEW045 29/14 A2996 NOSIG=
201703082100 METAR MROC 082100Z 07021KT 9999 FEW040 28/16 A2994 NOSIG=
201703082200 METAR MROC 082200Z 07017G29KT 9999 FEW040 27/16 A2993 NOSIG=
201703082300 METAR MROC 082300Z 08015G25KT 9999 FEW040 24/14 A2994 NOSIG=
201703090000 METAR MROC 090000Z 08017G30KT 9999 FEW040 23/14 A2994 NOSIG=
201703090100 METAR MROC 090100Z 08019G30KT 9999 FEW040 23/14 A2996 NOSIG=
201703090200 METAR MROC 090200Z 08019G29KT CAVOK 23/14 A2997 NOSIG=
201703090300 METAR MROC 090300Z 08018G30KT CAVOK 23/14 A2998 NOSIG=
201703090400 METAR MROC 090400Z 11013KT 9999 FEW025 21/15 A3000 NOSIG=
201703090500 METAR MROC 090500Z 10011G22KT CAVOK 22/14 A3000 NOSIG=
201703090600 METAR MROC 090600Z 11011G21KT CAVOK 21/14 A2999 NOSIG=
201703090700 METAR MROC 090700Z 11013KT CAVOK 21/14 A2997 NOSIG=
201703090800 METAR MROC 090800Z 11015KT CAVOK 21/14 A2995 NOSIG=
201703090900 METAR MROC 090900Z 11014KT 9999 FEW020 21/15 A2995 NOSIG=
201703091000 METAR MROC 091000Z 11013G23KT CAVOK 21/15 A2994 NOSIG=
201703091100 METAR MROC 091100Z 11019G33KT 9999 FEW020 21/15 A2995 NOSIG=
201703091200 METAR MROC 091200Z 11018G29KT 9999 FEW020 21/15 A2998 NOSIG=
201703091300 METAR MROC 091300Z 11019G34KT CAVOK 22/15 A3000 NOSIG=
201703091340 METAR MROC 091340Z 11017G27KT CAVOK 24/15 A3000 NOSIG=
201703091400 METAR MROC 091400Z 11017G27KT CAVOK 24/15 A3000 NOSIG=
201703091500 METAR MROC 091500Z 10019G30KT CAVOK 26/15 A3002 NOSIG=
201703091600 METAR MROC 091600Z 08018G28KT CAVOK 26/15 A3002 NOSIG=
201703091700 METAR MROC 091700Z 08020G30KT CAVOK 28/14 A3000 NOSIG=
201703091800 METAR MROC 091800Z 09015G25KT 9999 FEW040 28/15 A2998 NOSIG=
201703091900 METAR MROC 091900Z 07017KT 9999 FEW040 30/14 A2995 NOSIG=
201703092000 METAR MROC 092000Z 08014KT 9999 FEW040 30/13 A2992 NOSIG=
201703092100 METAR MROC 092100Z 07013KT 9999 FEW040 31/13 A2989 NOSIG=
201703092200 METAR MROC 092200Z 07011KT 9999 FEW040 29/14 A2990 NOSIG=
201703092300 METAR MROC 092300Z 07014KT 9999 FEW035 27/15 A2991 NOSIG=
201703100000 METAR MROC 100000Z 09012KT 9999 FEW035 24/15 A2992 NOSIG=
201703100100 METAR MROC 100100Z 12008KT 9999 FEW030 23/16 A2995 NOSIG=
201703100200 METAR MROC 100200Z 11010KT 9999 FEW030 22/16 A2997 NOSIG=
201703100300 METAR MROC 100300Z 11016KT 9999 FEW040 23/16 A2999 NOSIG=
201703100400 METAR MROC 100400Z 12012G22KT 9999 FEW040 22/17 A3000 NOSIG=
201703100500 METAR MROC 100500Z 10014G24KT CAVOK 22/15 A3000 NOSIG=
201703100600 METAR MROC 100600Z 11013G23KT CAVOK 21/16 A2998 NOSIG=
201703100700 METAR MROC 100700Z 11015G25KT CAVOK 21/16 A2995 NOSIG=
201703100800 METAR MROC 100800Z 12011KT CAVOK 21/16 A2994 NOSIG=
201703100900 METAR MROC 100900Z 12013G27KT CAVOK 21/16 A2994 NOSIG=
201703101000 METAR MROC 101000Z 11012G23KT CAVOK 21/16 A2995 NOSIG=
201703101100 METAR MROC 101100Z 11017G27KT 9999 FEW035 21/16 A2995 NOSIG=
201703101200 METAR MROC 101200Z 11014G27KT 9999 FEW035 21/16 A2998 NOSIG=
201703101300 METAR MROC 101300Z 10013KT 9999 FEW030 22/15 A3001 NOSIG=
201703101400 METAR MROC 101400Z 10016G28KT 9999 FEW040 SCT200 24/14 A3002 NOSIG=
201703101500 METAR MROC 101500Z 09016G26KT CAVOK 26/13 A3004 NOSIG=
201703101600 METAR MROC 101600Z 07019KT CAVOK 27/14 A3004 NOSIG=
201703101700 METAR MROC 101700Z 07017G27KT CAVOK 29/14 A3001 NOSIG=
201703101800 METAR MROC 101800Z 08015KT 9999 FEW045 29/15 A2998 NOSIG=
201703101900 METAR MROC 101900Z 07018G28KT 9999 FEW035 30/16 A2996 NOSIG=
201703102000 METAR MROC 102000Z 09013KT 9999 FEW035 30/15 A2994 NOSIG=
201703102100 METAR MROC 102100Z 09013KT 9999 FEW035 29/15 A2992 NOSIG=
201703102200 METAR MROC 102200Z 11010G20KT 9999 FEW035 SCT250 28/16 A2992 NOSIG=
201703102300 METAR MROC 102300Z 11011G21KT 9999 FEW035 SCT250 25/15 A2994 NOSIG=
201703110000 METAR MROC 110000Z 11013KT 9999 FEW035 23/16 A2995 NOSIG=
201703110100 METAR MROC 110100Z 10012KT 9999 FEW035 23/15 A2997 NOSIG=
201703110200 METAR MROC 110200Z 11013KT 9999 FEW035 22/16 A2999 NOSIG=
201703110300 METAR MROC 110300Z 10010G20KT CAVOK 22/14 A3000 NOSIG=
201703110400 METAR MROC 110400Z 11012KT CAVOK 22/14 A3001 NOSIG=
201703110500 METAR MROC 110500Z 11012KT CAVOK 22/14 A3001 NOSIG=
201703110600 METAR MROC 110600Z 09014G24KT CAVOK 22/14 A2999 NOSIG=
201703110700 METAR MROC 110700Z 11013G23KT CAVOK 21/15 A2996 NOSIG=
201703110800 METAR MROC 110800Z 10012KT CAVOK 21/14 A2996 NOSIG=
201703110900 METAR MROC 110900Z 10011KT CAVOK 21/14 A2996 NOSIG=
201703111000 METAR MROC 111000Z 11014G24KT CAVOK 20/14 A2995 NOSIG=
201703111100 METAR MROC 111100Z 12012G23KT CAVOK 20/14 A2997 NOSIG=
201703111200 METAR MROC 111200Z 12010KT CAVOK 20/13 A3000 NOSIG=
201703111300 METAR MROC 111300Z 11010G20KT CAVOK 22/14 A3002 NOSIG=
201703111400 METAR MROC 111400Z 13013G23KT CAVOK 24/14 A3003 NOSIG=
201703111500 METAR MROC 111500Z 13010G20KT CAVOK 27/15 A3006 NOSIG=
201703111600 METAR MROC 111600Z 11016KT CAVOK 28/14 A3006 NOSIG=
201703111700 METAR MROC 111700Z 10012KT CAVOK 29/15 A3004 NOSIG=
201703111800 METAR MROC 111800Z 13010G20KT 9999 FEW045 30/15 A3001 NOSIG=
201703111900 METAR MROC 111900Z 08012KT 9999 FEW045 31/14 A2999 NOSIG=
201703112000 METAR MROC 112000Z 14011KT 9999 SCT040 31/14 A2996 NOSIG=
201703112100 METAR MROC 112100Z 09008KT 9999 FEW045 30/14 A2994 NOSIG=
201703112200 METAR MROC 112200Z 14006KT 9999 FEW045 SCT200 28/15 A2994 NOSIG=
201703112300 METAR MROC 112300Z 25011KT 9999 FEW040 26/19 A2995 NOSIG=
201703120000 METAR MROC 120000Z 15005KT 9999 FEW035 24/17 A2996 NOSIG=
201703120100 METAR MROC 120100Z 10007KT 9999 SCT035 SCT130 24/17 A3000 NOSIG=
201703120200 METAR MROC 120200Z 10008KT CAVOK 23/17 A3002 NOSIG=
201703120300 METAR MROC 120300Z 11006KT 9999 FEW030 22/17 A3005 NOSIG=
201703120400 METAR MROC 120400Z 12003KT 9999 FEW030 SCT120 22/17 A3006 NOSIG=
201703120500 METAR MROC 120500Z 10008KT 9999 FEW030 22/17 A3005 NOSIG=
201703120600 METAR MROC 120600Z 11009KT 9999 FEW040 22/16 A3003 NOSIG=
201703120700 METAR MROC 120700Z 12011KT 9999 FEW040 21/16 A3000 NOSIG=
201703120800 METAR MROC 120800Z 11010KT CAVOK 21/16 A2999=
201703120900 METAR MROC 120900Z 11012KT CAVOK 21/16 A2998 NOSIG=
201703121000 METAR MROC 121000Z 12011KT CAVOK 21/16 A2998 NOSIG=
201703121100 METAR MROC 121100Z 11012G22KT CAVOK 21/16 A3000 NOSIG=
201703121200 METAR MROC 121200Z 11013KT CAVOK 21/15 A3000 NOSIG=
201703121300 METAR MROC 121300Z 12011G21KT CAVOK 22/15 A3002 NOSIG=
201703121400 METAR MROC 121400Z 11012KT CAVOK 25/14 A3003 NOSIG=
201703121500 METAR MROC 121500Z 11013KT CAVOK 27/14 A3003 NOSIG=
201703121600 METAR MROC 121600Z 11012KT CAVOK 28/15 A3002 NOSIG=
201703121700 METAR MROC 121700Z 11012G22KT CAVOK 30/15 A3000 NOSIG=
201703121800 METAR MROC 121800Z 09012G22KT 9999 FEW030 30/14 A2998 NOSIG=
201703121900 METAR MROC 121900Z 09010G21KT 9999 FEW030 31/13 A2995 NOSIG=
201703122000 METAR MROC 122000Z 10010KT 9999 FEW030 31/14 A2992 NOSIG=
201703122100 METAR MROC 122100Z 12015KT 9999 FEW035 SCT250 31/14 A2992 NOSIG=
201703122200 METAR MROC 122200Z 20011KT 9999 FEW035 SCT250 26/19 A2992 NOSIG=
201703122300 METAR MROC 122300Z 23010KT 9999 FEW035 SCT080 25/18 A2994 NOSIG=
201703122354 METAR MROC 130000Z 28010KT 9999 FEW035 SCT080 24/19 A2997 NOSIG=
201703130000 METAR MROC 130000Z 28010KT 9999 FEW035 SCT080 24/19 A2997 NOSIG=
201703130100 METAR MROC 130100Z 31002KT 9999 FEW035 SCT100 23/19 A3000 NOSIG=
201703130200 METAR MROC 130200Z 14004KT 9999 FEW035 23/16 A3002 NOSIG=
201703130300 METAR MROC 130300Z 12005KT 9999 FEW035 22/15 A3004 NOSIG=
201703130400 METAR MROC 130400Z 08007KT 9999 FEW035 21/15 A3004 NOSIG=
201703130500 METAR MROC 130500Z 09010KT CAVOK 22/14 A3003 NOSIG=
201703130600 METAR MROC 130600Z 13010KT CAVOK 22/15 A3002 NOSIG=
201703130700 METAR MROC 130700Z 11010G20KT CAVOK 21/15 A2999 NOSIG=
201703130800 METAR MROC 130800Z 07004KT CAVOK 20/15 A2998 NOSIG=
201703130900 METAR MROC 130900Z 03005KT CAVOK 20/14 A2997 NOSIG=
201703131000 METAR MROC 131000Z 09006KT CAVOK 20/15 A2996 NOSIG=
201703131100 METAR MROC 131100Z 10010G20KT CAVOK 20/14 A2996 NOSIG=
201703131200 METAR MROC 131200Z 10011G22KT CAVOK 20/14 A2996 NOSIG=
201703131300 METAR MROC 131300Z 07009KT CAVOK 21/14 A3000 NOSIG=
201703131400 METAR MROC 131400Z 11012G22KT CAVOK 24/12 A3000 NOSIG=
201703131500 METAR MROC 131500Z 11013KT CAVOK 27/13 A3001 NOSIG=
201703131600 METAR MROC 131600Z 11013KT CAVOK 29/11 A3000 NOSIG=
201703131700 METAR MROC 131700Z 11011KT CAVOK 30/12 A2998 NOSIG=
201703131800 METAR MROC 131800Z 11016KT CAVOK 31/13 A2996 NOSIG=
201703131900 METAR MROC 131900Z 11009KT 9999 FEW045 31/13 A2993 NOSIG=
201703132000 METAR MROC 132000Z 27007KT 9999 FEW035 29/18 A2991 NOSIG=
201703132100 METAR MROC 132100Z 24011KT 9999 SCT035 27/20 A2990 NOSIG=
201703132200 METAR MROC 132200Z 23009KT 9999 FEW045 SCT100 26/20 A2990 NOSIG=
201703132300 METAR MROC 132300Z 23010KT 9999 FEW040 SCT100 BKN200 26/20 A2992 NOSIG=
201703132356 METAR MROC 140000Z COR 26006KT 9999 FEW040 24/19 A2993 NOSIG=
201703140000 METAR MROC 140000Z COR 26006KT 9999 FEW040 24/19 A2993 NOSIG=
201703140100 METAR MROC 140100Z 12006KT 9999 SCT040 23/17 A2996 NOSIG=
201703140200 METAR MROC 140200Z 11012KT 9999 FEW040 23/17 A2999 NOSIG=
201703140300 METAR MROC 140300Z 11013KT CAVOK 22/16 A3001 NOSIG=
201703140400 METAR MROC 140400Z 11012KT 9999 FEW020 22/15 A3003 NOSIG=
201703140500 METAR MROC 140500Z 11012KT 9999 FEW030 21/15 A3003 NOSIG=
201703140600 METAR MROC 140600Z 11010KT 9999 FEW025 21/16 A3003 NOSIG=
201703140700 METAR MROC 140700Z 11010KT CAVOK 21/15 A3000 NOSIG=
201703140800 METAR MROC 140800Z 07005KT CAVOK 21/15 A3000 NOSIG=
201703140900 METAR MROC 140900Z 05008KT CAVOK 20/14 A3000 NOSIG=
201703141000 METAR MROC 141000Z 06008KT CAVOK 18/14 A3000 NOSIG=
201703141100 METAR MROC 141100Z 07007KT CAVOK 18/14 A3001 NOSIG=
201703141200 METAR MROC 141200Z 08005KT CAVOK 19/14 A3003 NOSIG=
201703141300 METAR MROC 141300Z 08007KT CAVOK 21/14 A3006 NOSIG=
201703141400 METAR MROC 141400Z 10007KT CAVOK 25/15 A3008 NOSIG=
201703141500 METAR MROC 141500Z 11011KT CAVOK 27/14 A3009 NOSIG=
201703141600 METAR MROC 141600Z 11012G22KT CAVOK 29/13 A3009 NOSIG=
201703141700 METAR MROC 141700Z 11011KT CAVOK 30/15 A3006 NOSIG=
201703141800 METAR MROC 141800Z 10013KT 9999 FEW040 30/15 A3004 NOSIG=
201703141900 METAR MROC 141900Z 12011KT 9999 FEW040 31/15 A3002 NOSIG=
201703142000 METAR MROC 142000Z 13010KT 9999 FEW040 31/15 A2999 NOSIG=
201703142100 METAR MROC 142100Z 10012KT 9999 VCSH FEW030TCU FEW040 SCT200 30/15 A2997 NOSIG=
201703142200 METAR MROC 142200Z 09009KT 9999 VCSH FEW025TCU FEW070 BKN200 27/16 A2997 NOSIG=
201703142300 METAR MROC 142300Z 09009KT 9999 FEW030 SCT180 26/16 A2999 NOSIG=
201703150000 METAR MROC 150000Z 11009KT 9999 FEW030 SCT060 24/16 A3001 NOSIG=
201703150100 METAR MROC 150100Z 10009KT CAVOK 23/16 A3003 NOSIG=
201703150200 METAR MROC 150200Z 11013KT CAVOK 23/16 A3005 NOSIG=
201703150300 METAR MROC 150300Z 10014G24KT 9999 FEW040 BKN180 23/16 A3006 NOSIG=
201703150400 METAR MROC 150400Z 09011G21KT CAVOK 23/15 A3006 NOSIG=
201703150500 METAR MROC 150500Z 11010G20KT CAVOK 22/16 A3006 NOSIG=
201703150600 METAR MROC 150600Z 10012G22KT CAVOK 22/16 A3004 NOSIG=
201703150700 METAR MROC 150700Z 11014G24KT 9999 FEW040 22/16 A3000 NOSIG=
201703150800 METAR MROC 150800Z 11013G24KT 9999 FEW040 21/16 A3000 NOSIG=
201703150900 METAR MROC 150900Z 12014G24KT CAVOK 22/16 A3001 NOSIG=
201703151000 METAR MROC 151000Z 10014G24KT 9999 FEW040 22/15 A3000 NOSIG=
201703151100 METAR MROC 151100Z 10014G24KT 9999 FEW040 22/16 A3001 NOSIG=
201703151200 METAR MROC 151200Z 12010G20KT 9999 FEW040 SCT250 21/16 A3003 NOSIG=
201703151300 METAR MROC 151300Z 11011KT 9999 FEW035 BKN220 22/16 A3006 NOSIG=
201703151400 METAR MROC 151400Z 09014KT 9999 FEW040 SCT250 25/16 A3007 NOSIG=
201703151500 METAR MROC 151500Z 10016G27KT 9999 FEW040 SCT250 26/15 A3009 NOSIG=
201703151600 METAR MROC 151600Z 11016G26KT 9999 FEW045 BKN250 27/15 A3010 NOSIG=
201703151700 METAR MROC 151700Z 07017KT 9999 FEW040 BKN250 28/15 A3008 NOSIG=
201703151800 METAR MROC 151800Z 09017G27KT 9999 FEW040 SCT070 28/16 A3006 NOSIG=
201703151900 METAR MROC 151900Z 08014KT 9999 FEW040 SCT060 28/14 A3004 NOSIG=
201703152000 METAR MROC 152000Z 07017KT 9999 FEW040 SCT100 28/14 A3002 NOSIG=
201703152100 METAR MROC 152100Z 07018KT 9999 FEW035 BKN250 28/15 A3000 NOSIG=
201703152200 METAR MROC 152200Z 08014KT 9999 FEW035 BKN250 27/14 A3000 NOSIG=
201703152300 METAR MROC 152300Z 07016KT 9999 FEW035 SCT250 26/14 A3003 NOSIG=
201703160000 METAR MROC 160000Z 07014KT 9999 FEW035 24/14 A3004 NOSIG=
201703160100 METAR MROC 160100Z 09012KT 9999 FEW035 23/13 A3006 NOSIG=
201703160200 METAR MROC 160200Z 10007KT 9999 FEW035 22/14 A3008 NOSIG=
201703160300 METAR MROC 160300Z 10013KT 9999 FEW035 22/14 A3009 NOSIG=
201703160400 METAR MROC 160400Z 10014KT CAVOK 21/14 A3009 NOSIG=
201703160500 METAR MROC 160500Z 11015KT CAVOK 21/15 A3009 NOSIG=
201703160600 METAR MROC 160600Z 11015KT CAVOK 21/14 A3006 NOSIG=
201703160700 METAR MROC 160700Z 12015KT CAVOK 21/14 A3003 NOSIG=
201703160800 METAR MROC 160800Z 11016KT CAVOK 21/14 A3003 NOSIG=
201703160900 METAR MROC 160900Z 11014KT CAVOK 21/14 A3002 NOSIG=
201703161000 METAR MROC 161000Z 12015KT CAVOK 21/14 A3002 NOSIG=
201703161100 METAR MROC 161100Z 11015KT CAVOK 21/14 A3004 NOSIG=
201703161200 METAR MROC 161200Z 11014KT CAVOK 22/14 A3004 NOSIG=
201703161300 METAR MROC 161300Z 12014KT CAVOK 23/14 A3005 NOSIG=
201703161400 METAR MROC 161400Z 11014G24KT CAVOK 24/15 A3007 NOSIG=
201703161500 METAR MROC 161500Z 11016G26KT CAVOK 25/15 A3007 NOSIG=
201703161600 METAR MROC 161600Z 10017G27KT CAVOK 27/15 A3008 NOSIG=
201703161700 METAR MROC 161700Z 09015G25KT CAVOK 28/14 A3006 NOSIG=
201703161800 METAR MROC 161800Z 09016G27KT 9999 FEW045 29/13 A3004 NOSIG=
201703161900 METAR MROC 161900Z 07014G24KT 9999 FEW045 30/13 A3002 NOSIG=
201703162000 METAR MROC 162000Z 09012G22KT 9999 FEW045 30/13 A3000 NOSIG=
201703162100 METAR MROC 162100Z 06013KT 9999 FEW020 SCT045 30/14 A2996 NOSIG=
201703162200 METAR MROC 162200Z 06016G26KT 9999 FEW045 SCT100 27/16 A2997 NOSIG=
201703162300 METAR MROC 162300Z 10012KT 9999 FEW035 SCT140 24/16 A2999 NOSIG=
201703170000 METAR MROC 170000Z 10016G26KT 9999 SCT045 BKN120 22/16 A3001 NOSIG=
201703170100 METAR MROC 170100Z 11014KT 9999 FEW030 BKN100 22/16 A3003 NOSIG=
201703170200 METAR MROC 170200Z 11014G24KT 9999 FEW030 BKN150 22/15 A3005 NOSIG=
201703170300 METAR MROC 170300Z 10015G25KT 9999 FEW030 22/14 A3007 NOSIG=
201703170400 METAR MROC 170400Z 09015KT 9999 FEW035 21/14 A3007 NOSIG=
201703170500 METAR MROC 170500Z 10015G25KT 9999 FEW040 21/14 A3006 NOSIG=
201703170600 METAR MROC 170600Z 09017KT 9999 FEW040 21/12 A3005 NOSIG=
201703170700 METAR MROC 170700Z 09016KT CAVOK 21/13 A3003 NOSIG=
201703170800 METAR MROC 170800Z 09015KT CAVOK 21/12 A3001 NOSIG=
201703170900 METAR MROC 170900Z 09016KT CAVOK 21/12 A3001 NOSIG=
201703171000 METAR MROC 171000Z 10012KT CAVOK 20/14 A3001 NOSIG=
201703171100 METAR MROC 171100Z 11013KT CAVOK 20/14 A3002 NOSIG=
201703171200 METAR MROC 171200Z 10015KT 9999 FEW045 BKN200 20/14 A3003 NOSIG=
201703171300 METAR MROC 171300Z 10014G24KT CAVOK 22/14 A3006 NOSIG=
201703171400 METAR MROC 171400Z 09017G31KT 9999 FEW040 SCT150 24/13 A3007 NOSIG=
201703171500 METAR MROC 171500Z 10018G30KT 9999 FEW045 SCT180 26/14 A3008 NOSIG=
201703171600 METAR MROC 171600Z 10018G28KT 9999 FEW035 SCT200 27/13 A3008 NOSIG=
201703171700 METAR MROC 171700Z 10019G34KT CAVOK 28/13 A3006 NOSIG=
201703171800 METAR MROC 171800Z 06020G30KT 9999 FEW045 BKN200 30/12 A3003 NOSIG=
201703171900 METAR MROC 171900Z 08017G27KT CAVOK 30/10 A3001 NOSIG=
201703172000 METAR MROC 172000Z 07016G26KT CAVOK 30/10 A2999 NOSIG=
201703172100 METAR MROC 172100Z 06017G27KT 9999 FEW040 29/13 A2998 NOSIG=
201703172200 METAR MROC 172200Z 08015G25KT 9999 FEW040 SCT250 28/14 A2998 NOSIG=
201703172300 METAR MROC 172300Z 09010G20KT 9999 SCT035 26/16 A3000 NOSIG=
201703172353 METAR MROC 180000Z 12013KT 9999 FEW035 23/16 A3001 NOSIG=
201703180000 METAR MROC 180000Z 12013KT 9999 FEW035 23/16 A3001 NOSIG=
201703180100 METAR MROC 180100Z 11010KT 9999 FEW035 22/16 A3003 NOSIG=
201703180200 METAR MROC 180200Z 09014G24KT CAVOK 23/15 A3003 NOSIG=
201703180300 METAR MROC 180300Z 10010KT CAVOK 22/16 A3006 NOSIG=
201703180400 METAR MROC 180400Z 12010KT CAVOK 21/16 A3007 NOSIG=
201703180500 METAR MROC 180500Z 11012KT CAVOK 21/16 A3007 NOSIG=
201703180600 METAR MROC 180600Z 11010G20KT CAVOK 21/16 A3004 NOSIG=
201703180700 METAR MROC 180700Z 11013KT CAVOK 21/17 A3001 NOSIG=
201703180800 METAR MROC 180800Z 10013KT CAVOK 21/17 A2999 NOSIG=
201703180900 METAR MROC 180900Z 11014KT CAVOK 21/17 A2999 NOSIG=
201703181000 METAR MROC 181000Z 11014KT CAVOK 21/16 A3000 NOSIG=
201703181100 METAR MROC 181100Z 12012KT CAVOK 21/16 A3001 NOSIG=
201703181200 METAR MROC 181200Z 12010KT 9999 FEW040 SCT100 21/17 A3004 NOSIG=
201703181300 METAR MROC 181300Z 12010G20KT 9999 FEW035 SCT100 23/17 A3006 NOSIG=
201703181400 METAR MROC 181400Z 08010G20KT 9999 FEW035 SCT100 24/16 A3008 NOSIG=
201703181500 METAR MROC 181500Z 08010G20KT 9999 FEW035 SCT100 26/16 A3008 NOSIG=
201703181600 METAR MROC 181600Z 08011G21KT 9999 FEW035 SCT100 28/16 A3008 NOSIG=
201703181700 METAR MROC 181700Z 07016G28KT 9999 SCT035 SCT100 27/14 A3008 NOSIG=
201703181800 METAR MROC 181800Z 08015G27KT 9999 FEW035 SCT100 27/15 A3005 NOSIG=
201703181900 METAR MROC 181900Z 08015G29KT 9999 FEW035 SCT100 28/15 A3002 NOSIG=
201703182000 METAR MROC 182000Z 07017G30KT 9999 FEW035 SCT100 30/14 A2999 NOSIG=
201703182100 METAR MROC 182100Z 07016G26KT 9999 FEW040 SCT100 29/13 A2997 NOSIG=
201703182200 METAR MROC 182200Z 07015G25KT 9999 FEW040 28/13 A2998 NOSIG=
201703182300 METAR MROC 182300Z 08013G23KT 9999 FEW040 26/14 A2999 NOSIG=
201703190000 METAR MROC 190000Z 07011G21KT CAVOK 24/14 A3000 NOSIG=
201703190100 METAR MROC 190100Z 08013G23KT CAVOK 23/14 A3002 NOSIG=
201703190200 METAR MROC 190200Z 10012KT CAVOK 23/14 A3003 NOSIG=
201703190300 METAR MROC 190300Z 11014KT CAVOK 22/15 A3003 NOSIG=
201703190400 METAR MROC 190400Z 10015G25KT CAVOK 22/15 A3004 NOSIG=
201703190500 METAR MROC 190500Z 11016G26KT CAVOK 21/16 A3005 NOSIG=
201703190600 METAR MROC 190600Z 11013G23KT CAVOK 21/16 A3004 NOSIG=
201703190700 METAR MROC 190700Z 12011G21KT 9999 FEW040 21/16 A3003 NOSIG=
201703190800 METAR MROC 190800Z 11011G21KT 9999 FEW025 21/15 A3002 NOSIG=
201703190900 METAR MROC 190900Z 11013KT 9999 FEW030 21/15 A3000 NOSIG=
201703191000 METAR MROC 191000Z 11015G25KT 9999 FEW025 20/15 A3001 NOSIG=
201703191100 METAR MROC 191100Z 11015G25KT 9999 FEW025 20/14 A3002 NOSIG=
201703191200 METAR MROC 191200Z 10015G26KT 9999 FEW030 20/14 A3004 NOSIG=
201703191300 METAR MROC 191300Z 10013G23KT CAVOK 22/15 A3006 NOSIG=
201703191400 METAR MROC 191400Z 10018G28KT CAVOK 23/14 A3007 NOSIG=
201703191500 METAR MROC 191500Z 08017G27KT CAVOK 25/13 A3008 NOSIG=
201703191600 METAR MROC 191600Z 08017G27KT CAVOK 27/13 A3007 NOSIG=
201703191700 METAR MROC 191700Z 08019G30KT CAVOK 28/12 A3006 NOSIG=
201703191800 METAR MROC 191800Z 08017G27KT CAVOK 29/10 A3003 NOSIG=
201703191900 METAR MROC 191900Z 07017G27KT CAVOK 29/10 A3001 NOSIG=
201703192000 METAR MROC 192000Z 06019G29KT CAVOK 30/10 A2998 NOSIG=
201703192100 METAR MROC 192100Z 07019G29KT 9999 FEW045 BKN250 30/11 A2997 NOSIG=
201703192200 METAR MROC 192200Z 09013KT 9999 FEW045 BKN200 27/13 A2998 NOSIG=
201703192300 METAR MROC 192300Z 09014KT 9999 FEW040 SCT200 26/13 A2999 NOSIG=
201703200000 METAR MROC 200000Z 10011KT 9999 FEW040 SCT200 23/14 A3002 NOSIG=
201703200100 METAR MROC 200100Z 11011KT 9999 FEW040 23/16 A3003 NOSIG=
201703200200 METAR MROC 200200Z 08012KT 9999 FEW035 22/15 A3006 NOSIG=
201703200300 METAR MROC 200300Z 08014KT 9999 FEW040 22/16 A3006 NOSIG=
201703200400 METAR MROC 200400Z 08012G22KT CAVOK 22/16 A3007 NOSIG=
201703200500 METAR MROC 200500Z 09015G25KT CAVOK 22/15 A3006 NOSIG=
201703200600 METAR MROC 200600Z 11011G21KT CAVOK 21/16 A3006 NOSIG=
201703200700 METAR MROC 200700Z 10014G24KT CAVOK 22/15 A3003 NOSIG=
201703200800 METAR MROC 200800Z 12010KT CAVOK 21/15 A3002 NOSIG=
201703200900 METAR MROC 200900Z 10012KT CAVOK 20/16 A3001 NOSIG=
201703201000 METAR MROC 201000Z 11012G22KT CAVOK 21/15 A3002 NOSIG=
201703201100 METAR MROC 201100Z 09010G20KT CAVOK 20/15 A3004 NOSIG=
201703201200 METAR MROC 201200Z 09010G20KT CAVOK 20/15 A3005 NOSIG=
201703201300 METAR MROC 201300Z 11014KT 9999 FEW040 22/15 A3006 NOSIG=
201703201400 METAR MROC 201400Z 11017G27KT CAVOK 23/15 A3007 NOSIG=
201703201500 METAR MROC 201500Z 10017G27KT CAVOK 25/13 A3008 NOSIG=
201703201600 METAR MROC 201600Z 09017G28KT CAVOK 27/12 A3008 NOSIG=
201703201700 METAR MROC 201700Z 08015G25KT CAVOK 29/13 A3006 NOSIG=
201703201800 METAR MROC 201800Z 09014KT 9999 FEW045 29/12 A3004 NOSIG=
201703201900 METAR MROC 201900Z 08014KT 9999 FEW045 30/13 A3002 NOSIG=
201703202000 METAR MROC 202000Z 08012KT 9999 FEW045 30/13 A2999 NOSIG=
201703202100 METAR MROC 202100Z 08014KT 9999 FEW040 30/13 A2998 NOSIG=
201703202200 METAR MROC 202200Z 08014KT 9999 FEW040 28/14 A2998 NOSIG=
201703202300 METAR MROC 202300Z 07014KT 9999 FEW040 27/14 A2999 NOSIG=
201703210000 METAR MROC 210000Z 07014KT 9999 FEW040 24/14 A3001 NOSIG=
201703210100 METAR MROC 210100Z 09013KT 9999 FEW040 23/15 A3002 NOSIG=
201703210200 METAR MROC 210200Z 10015KT CAVOK 22/16 A3003 NOSIG=
201703210300 METAR MROC 210300Z 11014KT CAVOK 22/16 A3005 NOSIG=
201703210400 METAR MROC 210400Z 10012G22KT CAVOK 22/16 A3005 NOSIG=
201703210500 METAR MROC 210500Z 06007KT CAVOK 21/16 A3006 NOSIG=
201703210600 METAR MROC 210600Z 06010KT CAVOK 21/16 A3005 NOSIG=
201703210700 METAR MROC 210700Z 06009KT CAVOK 20/17 A3003 NOSIG=
201703210800 METAR MROC 210800Z 05012KT CAVOK 21/17 A3001 NOSIG=
201703210900 METAR MROC 210900Z 10008KT CAVOK 21/16 A3001 NOSIG=
201703211000 METAR MROC 211000Z 10009KT CAVOK 21/17 A3002 NOSIG=
201703211100 METAR MROC 211100Z 10009KT 9999 FEW045 21/16 A3003 NOSIG=
201703211200 METAR MROC 211200Z 07006KT 9999 FEW040 21/16 A3005 NOSIG=
201703211300 METAR MROC 211300Z 10013KT 9999 SCT040 22/16 A3006 NOSIG=
201703211400 METAR MROC 211400Z 11012KT 9999 SCT040 25/17 A3008 NOSIG=
201703211500 METAR MROC 211500Z 11012KT 9999 FEW040 SCT100 27/17 A3008 NOSIG=
201703211600 METAR MROC 211600Z 11011G21KT 9999 FEW035 SCT120 28/17 A3005 NOSIG=
201703211700 METAR MROC 211700Z 11015G25KT 9999 FEW035 SCT150 29/16 A3004 NOSIG=
201703211800 METAR MROC 211800Z 12015KT 9999 FEW035 30/16 A3002 NOSIG=
201703211900 METAR MROC 211900Z 11013G23KT 9999 FEW035 SCT150 30/17 A2999 NOSIG=
201703212000 METAR MROC 212000Z 12015KT 9999 FEW035 BKN080 28/17 A2998 NOSIG=
201703212100 METAR MROC 212100Z 11013KT 9999 FEW030 BKN060 26/17 A2996 NOSIG=
201703212200 METAR MROC 212200Z 12010KT 9999 VCSH FEW030 BKN070 25/17 A2996 NOSIG=
201703212300 METAR MROC 212300Z 15008KT 9999 VCSH FEW020 BKN040 25/17 A2998 NOSIG=
201703220000 METAR MROC 220000Z 10010G20KT 9999 FEW020 BKN050 23/16 A2999 NOSIG=
201703220100 METAR MROC 220100Z 11012G22KT 9999 FEW025 BKN070 22/16 A3001 NOSIG=
201703220200 METAR MROC 220200Z 10012G22KT 9999 FEW020 SCT100 21/16 A3003 NOSIG=
201703220300 METAR MROC 220300Z 09010G20KT 9999 FEW025 SCT090 22/16 A3004 NOSIG=
201703220400 METAR MROC 220400Z 08007KT 9999 FEW025 SCT120 21/16 A3004 NOSIG=
201703220500 METAR MROC 220500Z 09010KT 9999 FEW030 SCT120 21/16 A3003 NOSIG=
201703220600 METAR MROC 220600Z 07009KT 9999 FEW020 BKN120 21/17 A3003 NOSIG=
201703220700 METAR MROC 220700Z 07006KT 9999 FEW025 BKN130 21/17 A3000 NOSIG=
201703220800 METAR MROC 220800Z 00808KT CAVOK 21/16 A2999 NOSIG=
201703220900 METAR MROC 220900Z 09011KT 9999 FEW035 SCT100 21/16 A2999 NOSIG=
201703221000 METAR MROC 221000Z 10005KT 9999 FEW035 SCT100 21/16 A2999 NOSIG=
201703221100 METAR MROC 221100Z 07009KT 9999 FEW040 20/16 A2999 NOSIG=
201703221200 METAR MROC 221200Z 06009KT 9999 FEW035 BKN100 21/16 A3001 NOSIG=
201703221300 METAR MROC 221300Z 05005KT 9999 FEW040 SCT110 23/17 A3002 NOSIG=
201703221400 METAR MROC 221400Z 11013G23KT 9999 FEW045 SCT130 25/17 A3003 NOSIG=
201703221500 METAR MROC 221500Z 11014G24KT 9999 FEW045 SCT200 26/17 A3003 NOSIG=
201703221600 METAR MROC 221600Z 14014G26KT 9999 FEW030 SCT100 27/16 A3002 NOSIG=
201703221700 METAR MROC 221700Z 14013G25KT 9999 FEW030 SCT140 27/17 A3001 NOSIG=
201703221800 METAR MROC 221800Z 10014G25KT 9999 SCT030 SCT100 28/16 A2999 NOSIG=
201703221900 METAR MROC 221900Z 11013G23KT 9999 SCT045 28/16 A2997 NOSIG=
201703222000 METAR MROC 222000Z 09013KT 9999 FEW035 SCT100 27/16 A2995 NOSIG=
201703222100 METAR MROC 222100Z 10013G23KT 9999 FEW035 BKN100 29/16 A2993 NOSIG=
201703222200 METAR MROC 222200Z 10010G20KT 9999 FEW035 SCT100 28/16 A2994 NOSIG=
201703222300 METAR MROC 222300Z 11011G21KT 9999 FEW035 SCT100 26/16 A2996 NOSIG=
201703222353 METAR MROC 230000Z 11011G21KT 9999 FEW030 SCT060 23/17 A2998 NOSIG=
201703230000 METAR MROC 230000Z 11011G21KT 9999 FEW030 SCT060 23/17 A2998 NOSIG=
201703230100 METAR MROC 230100Z 11011G21KT 9999 FEW030 SCT060 23/17 A2999 NOSIG=
201703230200 METAR MROC 230200Z 10010G20KT 9999 FEW030 SCT100 22/17 A3002 NOSIG=
201703230300 METAR MROC 230300Z 11013KT 9999 FEW030 22/17 A3003 NOSIG=
201703230400 METAR MROC 230400Z 11014KT 9999 FEW030 21/17 A3003 NOSIG=
201703230500 METAR MROC 230500Z 09010KT CAVOK 21/17 A3004 NOSIG=
201703230600 METAR MROC 230600Z 10010G20KT CAVOK 22/16 A3003 NOSIG=
201703230700 METAR MROC 230700Z 11010KT CAVOK 21/16 A3001 NOSIG=
201703230800 METAR MROC 230800Z 09009KT CAVOK 21/16 A3001 NOSIG=
201703230900 METAR MROC 230900Z 11012KT CAVOK 21/16 A2999 NOSIG=
201703231000 METAR MROC 231000Z 08007KT CAVOK 20/16 A3000 NOSIG=
201703231100 METAR MROC 231100Z 07010KT CAVOK 21/16 A3002 NOSIG=
201703231200 METAR MROC 231200Z 11008KT 9999 FEW035 BKN100 21/16 A3003 NOSIG=
201703231300 METAR MROC 231300Z 10012KT 9999 FEW030 BKN100 21/16 A3007 NOSIG=
201703231400 METAR MROC 231400Z 11011KT 9999 FEW030 SCT100 BKN250 23/16 A3008 NOSIG=
201703231500 METAR MROC 231500Z 11013G23KT 9999 FEW030 SCT100 25/16 A3008 NOSIG=
201703231600 METAR MROC 231600Z 10012G22KT 9999 FEW030 28/16 A3008 NOSIG=
201703231700 METAR MROC 231700Z 11010G20KT 9999 FEW035 28/16 A3006 NOSIG=
201703231800 METAR MROC 231800Z 11013G23KT 9999 FEW035 SCT060 27/16 A3003 NOSIG=
201703231900 METAR MROC 231900Z 12012G25KT 9999 FEW035 SCT060 29/17 A3000 NOSIG=
201703232000 METAR MROC 232000Z 12014G24KT 9999 FEW035 SCT120 27/16 A2998 NOSIG=
201703232100 METAR MROC 232100Z 11014G24KT 9999 FEW035 SCT120 27/15 A2997 NOSIG=
201703232200 METAR MROC 232200Z 11011G21KT 9999 FEW035 SCT120 26/16 A2998 NOSIG=
201703232300 METAR MROC 232300Z 13014G27KT 9999 FEW040 24/15 A2999 NOSIG=
201703240000 METAR MROC 240000Z 11014KT 9999 FEW040 22/16 A3001 NOSIG=
201703240100 METAR MROC 240100Z 10012KT 9999 FEW040 21/16 A3003 NOSIG=
201703240200 METAR MROC 240200Z 10013G23KT CAVOK 21/15 A3005 NOSIG=
201703240300 METAR MROC 240300Z 10013G23KT CAVOK 21/16 A3006 NOSIG=
201703240400 METAR MROC 240400Z 11015G26KT 9999 FEW035 21/16 A3007 NOSIG=
201703240500 METAR MROC 240500Z 11014G24KT 9999 FEW035 21/16 A3006 NOSIG=
201703240600 METAR MROC 240600Z 11014KT 9999 FEW035 20/16 A3005 NOSIG=
201703240700 METAR MROC 240700Z 10012KT 9999 FEW035 21/16 A3004 NOSIG=
201703240800 METAR MROC 240800Z 06010KT 9999 FEW025 BKN110 20/16 A3004 NOSIG=
201703240900 METAR MROC 240900Z 05008KT 9999 FEW030 BKN110 20/16 A3003 NOSIG=
201703241000 METAR MROC 241000Z 09009KT 9999 FEW025 SCT120 20/15 A3003 NOSIG=
201703241100 METAR MROC 241100Z 09005KT 9999 FEW020 19/15 A3004 NOSIG=
201703241200 METAR MROC 241200Z 09006KT 9999 FEW030 19/14 A3005 NOSIG=
201703241300 METAR MROC 241300Z 10011KT 9999 FEW030 21/14 A3007=
201703241400 METAR MROC 241400Z 10013KT 9999 FEW030 23/15 A3008=
201703241500 METAR MROC 241500Z 11014G28KT 9999 FEW030 25/15 A3008=
201703241600 METAR MROC 241600Z 11016G26KT 9999 FEW030 26/15 A3008=
201703241700 METAR MROC 241700Z 11014G24KT 9999 FEW030 27/16 A3007=
201703241800 METAR MROC 241800Z 11016G26KT 9999 FEW030 26/16 A3006=
201703241900 METAR MROC 241900Z 13016KT 9999 FEW030 28/16 A3001=
201703242000 METAR MROC 242000Z 12015G27KT 9999 SCT030 26/16 A3000=
201703242100 METAR MROC 242100Z 11015KT 9999 FEW030 BKN090 26/16 A2998 NOSIG=
201703242200 METAR MROC 242200Z 12013KT 9999 FEW025 SCT090 26/16 A2998 NOSIG=
201703242300 METAR MROC 242300Z 12013KT 9999 FEW025 24/17 A2998 NOSIG=
201703250000 METAR MROC 250000Z 11012G22KT 9999 FEW030 SCT090 23/17 A3000 NOSIG=
201703250100 METAR MROC 250100Z 11013KT 9999 FEW025 22/15 A3002 NOSIG=
201703250200 METAR MROC 250200Z 12013KT 9999 FEW035 SCT090 22/15 A3005 NOSIG=
201703250300 METAR MROC 250300Z 12011KT CAVOK 22/14 A3005 NOSIG=
201703250400 METAR MROC 250400Z 11011G21KT CAVOK 21/14 A3006 NOSIG=
201703250500 METAR MROC 250500Z 11010G20KT CAVOK 21/15 A3005 NOSIG=
201703250600 METAR MROC 250600Z 10013KT CAVOK 20/14 A3004 NOSIG=
201703250700 METAR MROC 250700Z 08007KT CAVOK 20/14 A3001 NOSIG=
201703250800 METAR MROC 250800Z 07010KT CAVOK 20/15 A3000 NOSIG=
201703250900 METAR MROC 250900Z 12010KT CAVOK 20/15 A2999 NOSIG=
201703251000 METAR MROC 251000Z 08012KT CAVOK 20/15 A3000 NOSIG=
201703251100 METAR MROC 251100Z 11013KT CAVOK 19/14 A3001 NOSIG=
201703251200 METAR MROC 251200Z 09013KT CAVOK 19/15 A3003 NOSIG=
201703251300 METAR MROC 251300Z 11011KT CAVOK 21/15 A3005 NOSIG=
201703251400 METAR MROC 251400Z 10010KT CAVOK 24/15 A3006 NOSIG=
201703251500 METAR MROC 251500Z 11012KT CAVOK 25/16 A3007 NOSIG=
201703251600 METAR MROC 251600Z 10012KT CAVOK 28/15 A3006 NOSIG=
201703251700 METAR MROC 251700Z 09012KT CAVOK 29/16 A3004 NOSIG=
201703251800 METAR MROC 251800Z 09013KT 9999 FEW045 29/16 A3002 NOSIG=
201703251900 METAR MROC 251900Z 11011KT 9999 FEW040 30/17 A2999 NOSIG=
201703252000 METAR MROC 252000Z 11008KT 9999 FEW045 31/16 A2996 NOSIG=
201703252100 METAR MROC 252100Z COR 12009KT CAVOK 30/16 A2993 NOSIG=
201703252200 METAR MROC 252200Z COR 11010KT 9999 SCT040 29/16 A2993 NOSIG=
201703252300 METAR MROC 252300Z 12010KT 9999 FEW030 26/17 A2995 NOSIG=
201703260000 METAR MROC 260000Z 12007KT 9999 FEW010 SCT250 24/17 A2997 NOSIG=
201703260100 METAR MROC 260100Z 12006KT CAVOK 23/17 A3000 NOSIG=
201703260200 METAR MROC 260200Z 11008KT CAVOK 22/17 A3002 NOSIG=
201703260300 METAR MROC 260300Z 09005KT 9999 FEW040 21/17 A3004 NOSIG=
201703260400 METAR MROC 260400Z 10008KT 9999 FEW040 21/17 A3004 NOSIG=
201703260500 METAR MROC 260500Z 09008KT CAVOK 21/17 A3005 NOSIG=
201703260600 METAR MROC 260600Z 10008KT CAVOK 21/16 A3003 NOSIG=
201703260700 METAR MROC 260700Z 07009KT CAVOK 20/16 A3001 NOSIG=
201703260800 METAR MROC 260800Z 07008KT CAVOK 20/16 A2999 NOSIG=
201703260900 METAR MROC 260900Z 07008KT CAVOK 20/16 A2998 NOSIG=
201703261000 METAR MROC 261000Z 06006KT CAVOK 20/15 A2999 NOSIG=
201703261100 METAR MROC 261100Z 08007KT CAVOK 20/15 A3000 NOSIG=
201703261200 METAR MROC 261200Z 10007KT CAVOK 20/15 A3001 NOSIG=
201703261300 METAR MROC 261300Z 10009KT CAVOK 23/15 A3003 NOSIG=
201703261400 METAR MROC 261400Z 11010KT CAVOK 25/15 A3005 NOSIG=
201703261500 METAR MROC 261500Z 10012KT CAVOK 27/16 A3005 NOSIG=
201703261600 METAR MROC 261600Z 10013KT CAVOK 28/16 A3005 NOSIG=
201703261700 METAR MROC 261700Z 13008KT 9999 FEW045 SCT250 30/15 A3004 NOSIG=
201703261800 METAR MROC 261800Z 20005KT 9999 SCT045 29/15 A3001 NOSIG=
201703261900 METAR MROC 261900Z 23010KT 9999 SCT045 30/17 A2998 NOSIG=
201703262000 METAR MROC 262000Z 27012KT 9999 SCT040 29/18 A2996 NOSIG=
201703262100 METAR MROC 262100Z 26012KT 9999 SCT035 29/18 A2994 NOSIG=
201703262200 METAR MROC 262200Z 24013KT 9999 BKN035 28/19 A2995 NOSIG=
201703262300 METAR MROC 262300Z 21008KT 9999 BKN035 27/18 A2996 NOSIG=
201703270000 METAR MROC 270000Z 17006KT 9999 BKN035 25/18 A2998 NOSIG=
201703270100 METAR MROC 270100Z 13005KT 9999 BKN035 24/17 A3001 NOSIG=
201703270200 METAR MROC 270200Z 15007KT 9999 SCT035 22/17 A3003 NOSIG=
201703270300 METAR MROC 270300Z 10007KT 9999 SCT035 21/16 A3005 NOSIG=
201703270400 METAR MROC 270400Z 10006KT 9999 SCT035 21/17 A3005 NOSIG=
201703270500 METAR MROC 270500Z 07009KT 9999 FEW035 21/17 A3005 NOSIG=
201703270600 METAR MROC 270600Z 07007KT 9999 FEW025 21/16 A3002 NOSIG=
201703270700 METAR MROC 270700Z 09008KT CAVOK 21/15 A3000 NOSIG=
201703270800 METAR MROC 270800Z 06006KT CAVOK 19/14 A2999 NOSIG=
201703270900 METAR MROC 270900Z 07009KT CAVOK 19/12 A2998 NOSIG=
201703271000 METAR MROC 271000Z 07008KT CAVOK 19/11 A2999 NOSIG=
201703271100 METAR MROC 271100Z 09008KT CAVOK 20/11 A2998 NOSIG=
201703271200 METAR MROC 271200Z 09009KT CAVOK 20/14 A3000 NOSIG=
201703271300 METAR MROC 271300Z 10012KT CAVOK 22/13 A3003 NOSIG=
201703271400 METAR MROC 271400Z 10012KT CAVOK 24/11 A3005 NOSIG=
201703271500 METAR MROC 271500Z 11011KT CAVOK 27/12 A3005 NOSIG=
201703271600 METAR MROC 271600Z 16006KT 9999 FEW040 28/13 A3005 NOSIG=
201703271700 METAR MROC 271700Z 24005KT 9999 FEW035 30/13 A3003 NOSIG=
201703271800 METAR MROC 271800Z 22007KT 9999 FEW045 29/14 A3000 NOSIG=
201703271900 METAR MROC 271900Z 22008KT 9999 FEW045 31/14 A2998 NOSIG=
201703272000 METAR MROC 272000Z 27011KT 9999 SCT045 29/17 A2994 NOSIG=
201703272100 METAR MROC 272100Z 24010G20KT 9999 SCT045 29/19 A2992 NOSIG=
201703272200 METAR MROC 272200Z 25014KT 9999 SCT045 28/19 A2992 NOSIG=
201703272300 METAR MROC 272300Z 25010KT 9999 FEW040 26/19 A2993 NOSIG=
201703272354 METAR MROC 280000Z 27010KT 9999 SCT035 25/17 A2995 NOSIG=
201703280000 METAR MROC 280000Z 27010KT 9999 SCT035 25/17 A2995 NOSIG=
201703280100 METAR MROC 280100Z 24004KT 9999 BKN035 24/17 A2997 NOSIG=
201703280200 METAR MROC 280200Z 25004KT 9999 SCT035 22/18 A2999 NOSIG=
201703280300 METAR MROC 280300Z 11005KT 9999 SCT035 21/14 A3002 NOSIG=
201703280400 METAR MROC 280400Z 09006KT 9999 SCT035 21/14 A3002 NOSIG=
201703280500 METAR MROC 280500Z 10007KT 9999 SCT035 21/13 A3002 NOSIG=
201703280600 METAR MROC 280600Z 07009KT CAVOK 21/12 A3001 NOSIG=
201703280700 METAR MROC 280700Z 08007KT CAVOK 21/13 A2999 NOSIG=
201703280800 METAR MROC 280800Z 07010KT CAVOK 21/12 A2998 NOSIG=
201703280900 METAR MROC 280900Z 07010KT CAVOK 20/11 A2998 NOSIG=
201703281000 METAR MROC 281000Z 05008KT CAVOK 19/11 A2998 NOSIG=
201703281100 METAR MROC 281100Z 05010KT CAVOK 19/11 A2999 NOSIG=
201703281200 METAR MROC 281200Z 06007KT CAVOK 19/11 A3001 NOSIG=
201703281300 METAR MROC 281300Z 08005KT CAVOK 22/12 A3004 NOSIG=
201703281400 METAR MROC 281400Z 09006KT CAVOK 25/13 A3005 NOSIG=
201703281500 METAR MROC 281500Z 11003KT CAVOK 28/13 A3005 NOSIG=
201703281600 METAR MROC 281600Z 26007KT CAVOK 28/14 A3004 NOSIG=
201703281700 METAR MROC 281700Z 28011KT CAVOK 29/14 A3002 NOSIG=
201703281800 METAR MROC 281800Z 24013KT CAVOK 31/14 A2999 NOSIG=
201703281900 METAR MROC 281900Z 26012KT 9999 SCT045 32/13 A2996 NOSIG=
201703282000 METAR MROC 282000Z 25010G20KT 9999 SCT040 31/15 A2994 NOSIG=
201703282100 METAR MROC 282100Z 24014KT 9999 FEW030 30/17 A2993 NOSIG=
201703282200 METAR MROC 282200Z 23012KT 9999 FEW030 SCT050 28/17 A2993 NOSIG=
201703282300 METAR MROC 282300Z 24009KT 9999 FEW040 SCT060 27/16 A2994 NOSIG=
201703290000 METAR MROC 290000Z 24007KT 9999 FEW040 25/16 A2996 NOSIG=
201703290100 METAR MROC 290100Z 24005KT 9999 FEW040 SCT070 23/17 A2998 NOSIG=
201703290200 METAR MROC 290200Z 22003KT 9999 FEW045 BKN070 23/17 A3002 NOSIG=
201703290300 METAR MROC 290300Z 26003KT CAVOK 22/17 A3003 NOSIG=
201703290400 METAR MROC 290400Z 08002KT CAVOK 21/17 A3004 NOSIG=
201703290500 METAR MROC 290500Z 09003KT CAVOK 20/17 A3003 NOSIG=
201703290600 METAR MROC 290600Z 09005KT CAVOK 19/16 A3002 NOSIG=
201703290700 METAR MROC 290700Z 08008KT CAVOK 21/15 A2999 NOSIG=
201703290800 METAR MROC 290800Z 08008KT CAVOK 21/13 A2997 NOSIG=
201703290900 METAR MROC 290900Z 06010KT CAVOK 20/13 A2997 NOSIG=
201703291000 METAR MROC 291000Z 06008KT CAVOK 20/13 A2997 NOSIG=
201703291100 METAR MROC 291100Z 08008KT CAVOK 20/13 A2998 NOSIG=
201703291200 METAR MROC 291200Z 06010KT CAVOK 20/13 A2999 NOSIG=
201703291300 METAR MROC 291300Z 04006KT CAVOK 21/14 A3001 NOSIG=
201703291400 METAR MROC 291400Z 11007KT CAVOK 25/14 A3002 NOSIG=
201703291500 METAR MROC 291500Z 12009KT CAVOK 28/15 A3003 NOSIG=
201703291600 METAR MROC 291600Z 09005KT CAVOK 29/12 A3002 BECMG 24007KT=
201703291700 METAR MROC 291700Z 24009KT 9999 FEW040 31/13 A3000 NOSIG=
201703291800 METAR MROC 291800Z 23007KT 9999 FEW035 31/12 A2998 NOSIG=
201703291900 METAR MROC 291900Z 24010KT 9999 FEW035 31/12 A2995 NOSIG=
201703292000 METAR MROC 292000Z 26010KT 9999 FEW030 31/14 A2993 NOSIG=
201703292100 METAR MROC 292100Z 24014KT 9999 FEW030 SCT080 30/15 A2993 NOSIG=
201703292200 METAR MROC 292200Z 24012KT 9999 SCT035 SCT080 29/16 A2993 NOSIG=
201703292300 METAR MROC 292300Z 25010KT 9999 SCT035 SCT080 28/17 A2994 NOSIG=
201703300000 METAR MROC 300000Z 25008KT 9999 FEW035 25/17 A2995 NOSIG=
201703300100 METAR MROC 300100Z 23008KT 9999 FEW035 23/20 A2998 NOSIG=
201703300200 METAR MROC 300200Z 00000KT 9999 FEW040 22/20 A3000 BECMG 10008KT=
201703300300 METAR MROC 300300Z 00000KT 9999 FEW040 21/20 A3002 NOSIG=
201703300400 METAR MROC 300400Z 21002KT 9000 FEW002 21/20 A3004 NOSIG=
201703300500 METAR MROC 300500Z 09002KT 9999 FEW010 21/20 A3004 NOSIG=
201703300600 METAR MROC 300600Z 07003KT 9999 FEW010 20/18 A3003 NOSIG=
201703300700 METAR MROC 300700Z 08004KT CAVOK 19/16 A3000 NOSIG=
201703300800 METAR MROC 300800Z 03004KT CAVOK 19/15 A2999 NOSIG=
201703300900 METAR MROC 300900Z 08004KT CAVOK 18/15 A2998 NOSIG=
201703301000 METAR MROC 301000Z 07003KT CAVOK 17/14 A2999 NOSIG=
201703301100 METAR MROC 301100Z 06005KT CAVOK 18/14 A3001 NOSIG=
201703301200 METAR MROC 301200Z 07008KT CAVOK 18/14 A3002 NOSIG=
201703301300 METAR MROC 301300Z 06010KT CAVOK 21/14 A3002 NOSIG=
201703301400 METAR MROC 301400Z 10006KT CAVOK 25/15 A3004 NOSIG=
201703301500 METAR MROC 301500Z VRB02KT CAVOK 27/11 A3005 BECMG 24007KT=
201703301600 METAR MROC 301600Z 25007KT CAVOK 29/07 A3004 NOSIG=
201703301700 METAR MROC 301700Z 22007KT 9999 FEW045 30/09 A3002 NOSIG=
201703301800 METAR MROC 301800Z 23007KT 9999 FEW045 30/11 A2999 NOSIG=
201703301900 METAR MROC 301900Z 25010KT 9999 FEW045 31/14 A2996 NOSIG=
201703302000 METAR MROC 302000Z 27010KT 9999 FEW045 31/14 A2995 NOSIG=
201703302100 METAR MROC 302100Z 26013KT 9999 FEW045 30/15 A2993 NOSIG=
201703302200 METAR MROC 302200Z 25012KT 9999 FEW045 29/16 A2993 NOSIG=
201703302300 METAR MROC 302300Z 24010KT 9999 FEW045 27/17 A2994 NOSIG=
201703310000 METAR MROC 310000Z 24010KT 9999 FEW040 24/18 A2994 NOSIG=
201703310100 METAR MROC 310100Z 23007KT CAVOK 23/19 A2998 NOSIG=
201703310200 METAR MROC 310200Z 27004KT CAVOK 22/18 A3000 NOSIG=
201703310300 METAR MROC 310300Z 34002KT CAVOK 22/18 A3002 NOSIG=
201703310400 METAR MROC 310400Z 17002KT CAVOK 21/18 A3004 NOSIG=
201703310500 METAR MROC 310500Z 05003KT CAVOK 20/18 A3004 NOSIG=
201703310600 METAR MROC 310600Z 06004KT 9999 BKN045 20/17 A3003 NOSIG=
201703310700 METAR MROC 310700Z 08002KT 9999 SCT045 21/17 A3001 NOSIG=
201703310800 METAR MROC 310800Z VRB02KT 9999 FEW045 20/17 A2999 NOSIG=
201703310900 METAR MROC 310900Z 05004KT 9999 1500SE BCFG FEW045 19/16 A2998 NOSIG=
201703311000 METAR MROC 311000Z VRB02KT 9999 FEW035 20/16 A2998 NOSIG=
201703311100 METAR MROC 311100Z 07004KT 9999 3000W FEW001 19/16 A3000 NOSIG=
201703311200 METAR MROC 311200Z 06004KT 9999 3000W FEW001 19/16 A3001 NOSIG=
201703311300 METAR MROC 311300Z 00000KT CAVOK 22/16 A3002 NOSIG=
201703311400 METAR MROC 311400Z 10005KT CAVOK 25/16 A3004 BECMG 23005KT=
201703311500 METAR MROC 311500Z 03006KT CAVOK 28/16 A3003 NOSIG=
201703311600 METAR MROC 311600Z 13009KT CAVOK 29/15 A3002 NOSIG=
201703311700 METAR MROC 311700Z 23005KT 9999 FEW045 31/15 A3001 NOSIG=
201703311800 METAR MROC 311800Z 24010KT 9999 SCT040 31/16 A2998 NOSIG=
201703311900 METAR MROC 311900Z 25012KT 9999 SCT040 30/18 A2996 NOSIG=
201703312000 METAR MROC 312000Z 22012KT 9999 SCT045 31/19 A2994 NOSIG=
201703312100 METAR MROC 312100Z 23013KT 9999 FEW040 29/19 A2993 NOSIG=
201703312200 METAR MROC 312200Z 23012KT 9999 SCT040 27/19 A2992 NOSIG=
201703312300 METAR MROC 312300Z 23010KT 9999 BKN035 25/20 A2994 NOSIG=
201704010000 METAR MROC 010000Z 25005KT 9999 BKN035 24/20 A2997 NOSIG=
201704010100 METAR MROC 010100Z COR 25003KT 9999 SCT025 23/19 A2999 NOSIG=
201704010200 METAR MROC 010200Z 28002KT 9999 FEW025 BKN040 22/20 A3002 BECMG 06004KT=
201704010300 METAR MROC 010300Z VRB02KT CAVOK 23/20 A3003 NOSIG=
201704010400 METAR MROC 010400Z 11003KT CAVOK 22/16 A3004 NOSIG=
201704010500 METAR MROC 010500Z 08006KT CAVOK 22/15 A3003 NOSIG=
201704010600 METAR MROC 010600Z 06006KT CAVOK 21/15 A3002 NOSIG=
201704010700 METAR MROC 010700Z 07006KT CAVOK 20/13 A3001 NOSIG=
201704010800 METAR MROC 010800Z 07006KT CAVOK 19/13 A3000 NOSIG=
201704010900 METAR MROC 010900Z 06007KT CAVOK 19/13 A3000 NOSIG=
201704011000 METAR MROC 011000Z 06005KT CAVOK 18/13 A3000 NOSIG=
201704011100 METAR MROC 011100Z 06003KT CAVOK 18/13 A3002 NOSIG=
201704011200 METAR MROC 011200Z 07006KT CAVOK 17/13 A3004 NOSIG=
201704011300 METAR MROC 011300Z COR 11004KT 9999 VA NSC 21/13 A3006 NOSIG=
201704011400 METAR MROC 011400Z 11007KT 9999 VA NSC 25/14 A3007 BECMG 23006KT=
201704011500 METAR MROC 011500Z 04006KT CAVOK 28/14 A3008 NOSIG=
201704011600 METAR MROC 011600Z 21002KT CAVOK 29/12 A3006 NOSIG=
201704011700 METAR MROC 011700Z 20007KT CAVOK 30/11 A3003 NOSIG=
201704011800 METAR MROC 011800Z 24008KT CAVOK 31/13 A3000 NOSIG=
201704011900 METAR MROC 011900Z 25011KT CAVOK 32/14 A2996 NOSIG=
201704012000 METAR MROC 012000Z 25012KT 9999 BKN035 30/18 A2995 NOSIG=
201704012100 METAR MROC 012100Z 22010KT 9999 FEW045 SCT080 28/18 A2994 NOSIG=
201704012200 METAR MROC 012200Z 13006KT 9999 FEW035 SCT060 28/17 A2995 NOSIG=
201704012300 METAR MROC 012300Z 14013KT 9999 FEW035 SCT060 26/18 A2996 NOSIG=
201704012356 METAR MROC 020000Z 10013KT 9999 FEW035 SCT060 25/17 A2998 NOSIG=
201704020000 METAR MROC 020000Z 10013KT 9999 FEW035 SCT060 25/17 A2998 NOSIG=
201704020100 METAR MROC 020100Z 09007KT 9999 FEW035 SCT060 24/18 A3000 NOSIG=
201704020200 METAR MROC 020200Z 09005KT 9999 FEW035 SCT080 24/18 A3002 NOSIG=
201704020300 METAR MROC 020300Z 08004KT 9999 FEW035 23/18 A3005 NOSIG=
201704020400 METAR MROC 020400Z 05007KT 9999 FEW035 23/18 A3005 NOSIG=
201704020500 METAR MROC 020500Z 08004KT 9999 FEW035 22/18 A3004 NOSIG=
201704020600 METAR MROC 020600Z 04004KT CAVOK 22/18 A3003 NOSIG=
201704020700 METAR MROC 020700Z 07007KT CAVOK 22/17 A3000 NOSIG=
201704020800 METAR MROC 020800Z 10009KT CAVOK 23/15 A2997 NOSIG=
201704020900 METAR MROC 020900Z 07010KT CAVOK 22/15 A2998 NOSIG=
201704021000 METAR MROC 021000Z 05003KT CAVOK 21/15 A2999 NOSIG=
201704021100 METAR MROC 021100Z 07006KT CAVOK 20/16 A2999 NOSIG=
201704021200 METAR MROC 021200Z 05008KT CAVOK 22/14 A3000 NOSIG=
201704021300 METAR MROC 021300Z 07010KT CAVOK 24/14 A3002 NOSIG=
201704021400 METAR MROC 021400Z 11011KT CAVOK 27/14 A3003 NOSIG=
201704021500 METAR MROC 021500Z 11008KT CAVOK 29/15 A3002 NOSIG=
201704021600 METAR MROC 021600Z 13008KT CAVOK 30/17 A3001 BECMG 24008KT=
201704021700 METAR MROC 021700Z 23010G20KT CAVOK 30/17 A3000 NOSIG=
201704021800 METAR MROC 021800Z 24012G22KT 9999 FEW035 SCT045 31/20 A2999 NOSIG=
201704021825 METAR MROC 021825Z 24011G21KT 9999 SHRA FEW025TCU SCT035 29/19 A2997 NOSIG=
201704021845 METAR MROC 021845Z COR 23012KT 4000 -TSRA FEW020CB BKN030 26/21 A2997 NOSIG=
201704021900 METAR MROC 021900Z 20012KT 1500 TSRA FEW015CB BKN030 24/21 A2997 NOSIG=
201704021925 METAR MROC 021925Z 04010KT 0800 TSRA FEW010CB BKN020 21/20 A2998 NOSIG=
201704022000 METAR MROC 022000Z 14006KT 0500 TSRA FEW010CB BKN020 21/20 A2998 NOSIG=
201704022012 METAR MROC 022012Z 15004KT 1800 -TSRA FEW015CB BKN035 21/21 A2998 NOSIG=
201704022040 METAR MROC 022040Z 18004KT 2500 RA BR VCTS FEW009 SCT025 BKN100 21/21 A2998 RETS NOSIG=
201704022100 METAR MROC 022100Z 09003KT 9000 2500SW RA FEW003 SCT020 BKN035 21/21 A2999 BECMG 9999=
201704022200 METAR MROC 022200Z 26003KT 9999 4900SW BCFG FEW003 SCT018 BKN030 21/20 A3000 RERA NOSIG=
201704022300 METAR MROC 022300Z 05009KT 9999 FEW025 SCT070 BKN100 22/21 A2999 NOSIG=
201704030000 METAR MROC 030000Z 13004KT CAVOK 22/19 A2998 NOSIG=
201704030100 METAR MROC 030100Z 05008KT CAVOK 22/20 A2997 NOSIG=
201704030200 METAR MROC 030200Z VRB02KT CAVOK 23/18 A2998 NOSIG=
201704030300 METAR MROC 030300Z 24003KT CAVOK 22/19 A3000 NOSIG=
201704030400 METAR MROC 030400Z 23005KT 9999 FEW015 BKN100 21/20 A3001 NOSIG=
201704030500 METAR MROC 030500Z 01002KT CAVOK 21/20 A3002 NOSIG=
201704030600 METAR MROC 030600Z 07004KT CAVOK 21/19 A3000 NOSIG=
201704030700 METAR MROC 030700Z 08006KT 9999 FEW025 21/18 A2999 NOSIG=
201704030800 METAR MROC 030800Z 00000KT CAVOK 21/18 A2997 NOSIG=
201704030900 METAR MROC 030900Z VRB02KT CAVOK 20/19 A2996 NOSIG=
201704031000 METAR MROC 031000Z 09003KT CAVOK 20/19 A2997 NOSIG=
201704031100 METAR MROC 031100Z 06003KT CAVOK 20/18 A2997 NOSIG=
201704031200 METAR MROC 031200Z 07003KT CAVOK 20/18 A3000 NOSIG=
201704031300 METAR MROC 031300Z 05005KT CAVOK 22/18 A3003 NOSIG=
201704031400 METAR MROC 031400Z 01003KT CAVOK 25/17 A3004 NOSIG=
201704031500 METAR MROC 031500Z 29003KT CAVOK 28/18 A3001 NOSIG=
201704031600 METAR MROC 031600Z 18006KT CAVOK 29/19 A3000 BECMG 24008KT=
201704031700 METAR MROC 031700Z 25005KT 9999 FEW040 30/19 A2999 NOSIG=
201704031800 METAR MROC 031800Z 24010KT 9999 FEW045 31/19 A2993 NOSIG=
201704031900 METAR MROC 031900Z 26011KT 9999 FEW040 30/20 A2990 NOSIG=
201704032000 METAR MROC 032000Z 26012KT 9999 FEW025 FEW030TCU 30/22 A2988 NOSIG=
201704032037 METAR MROC 032037Z 25012KT 9999 TSRA FEW018CB FEW030 30/21 A2986 BECMG 5000=
201704032100 METAR MROC 032100Z 24010KT 3000 0500S +TSRA FEW015CB FEW020 BKN025 28/21 A2987 BECMG 1000 BKN010=
201704032200 METAR MROC 032200Z 13004KT 9999 -RA FEW030 BKN100 21/20 A2989 RETSRA NOSIG=
201704032300 METAR MROC 032300Z 05003KT 9999 FEW030 BKN100 23/20 A2993 NOSIG=
201704040000 METAR MROC 040000Z 08005KT 9999 FEW040 BKN120 24/20 A2989 NOSIG=
201704040100 METAR MROC 040100Z 03003KT 9999 FEW040 BKN120 24/20 A2993 NOSIG=
201704040200 METAR MROC 040200Z 07006KT 9999 FEW040 SCT100 23/20 A2994 NOSIG=
201704040300 METAR MROC 040300Z 15005KT 9999 FEW035 22/20 A2994 NOSIG=
201704040400 METAR MROC 040400Z 10006KT 9999 FEW035 SCT060 23/19 A2996 NOSIG=
201704040500 METAR MROC 040500Z 11003KT 9999 FEW035 SCT060 23/19 A2996 NOSIG=
201704040600 METAR MROC 040600Z 02003KT 9999 FEW035 SCT060 22/20 A2995 NOSIG=
201704040700 METAR MROC 040700Z 07005KT 9999 FEW035 22/19 A2992 NOSIG=
201704040800 METAR MROC 040800Z 08005KT 9999 FEW035 22/18 A2992 NOSIG=
201704040900 METAR MROC 040900Z 07007KT CAVOK 21/18 A2991 NOSIG=
201704041000 METAR MROC 041000Z 05006KT CAVOK 21/18 A2991 NOSIG=
201704041100 METAR MROC 041100Z 05004KT CAVOK 21/18 A2993 NOSIG=
201704041200 METAR MROC 041200Z 10008KT CAVOK 22/18 A2994 NOSIG=
201704041300 METAR MROC 041300Z 11006KT 9999 FEW030 BKN250 24/18 A2997 NOSIG=
201704041400 METAR MROC 041400Z 11010KT 9999 FEW040 SCT250 26/18 A2998 BECMG 24007KT=
201704041500 METAR MROC 041500Z 12010KT 9999 FEW045 BKN250 27/18 A2999 NOSIG=
201704041600 METAR MROC 041600Z 10012KT 9999 FEW045 BKN250 29/17 A2998 NOSIG=
201704041700 METAR MROC 041700Z 11008KT 9999 FEW045 SCT220 30/16 A2999 NOSIG=
201704041800 METAR MROC 041800Z 15009KT 9999 FEW040 31/16 A2994 NOSIG=
201704041900 METAR MROC 041900Z 11007KT 9999 FEW035 31/16 A2990 NOSIG=
201704042000 METAR MROC 042000Z 13006KT 9999 FEW035 SCT130 32/16 A2987 NOSIG=
201704042100 METAR MROC 042100Z 21010KT 9999 SCT030 BKN120 28/21 A2987 NOSIG=
201704042200 METAR MROC 042200Z 17008KT 9999 FEW030 BKN120 27/18 A2989 NOSIG=
201704042300 METAR MROC 042300Z 28007KT 9999 FEW030 BKN120 24/19 A2992 NOSIG=
201704050000 METAR MROC 050000Z 00000KT 9999 FEW030 SCT120 23/20 A2994 NOSIG=
201704050100 METAR MROC 050100Z 11002KT CAVOK 23/20 A2996 NOSIG=
201704050200 METAR MROC 050200Z 10005KT CAVOK 24/18 A2998 NOSIG=
201704050300 METAR MROC 050300Z 11005KT CAVOK 23/18 A2998 NOSIG=
201704050400 METAR MROC 050400Z 11006KT CAVOK 23/16 A3000 NOSIG=
201704050500 METAR MROC 050500Z 12008KT CAVOK 23/16 A2999 NOSIG=
201704050600 METAR MROC 050600Z 11011KT CAVOK 23/17 A2997 NOSIG=
201704050700 METAR MROC 050700Z 12009KT CAVOK 22/17 A2995 NOSIG=
201704050800 METAR MROC 050800Z 10010KT CAVOK 22/17 A2994 NOSIG=
201704050900 METAR MROC 050900Z 10008KT CAVOK 21/17 A2993 NOSIG=
201704051000 METAR MROC 051000Z 07006KT CAVOK 21/16 A2995 NOSIG=
201704051100 METAR MROC 051100Z 07005KT CAVOK 21/16 A2996 NOSIG=
201704051200 METAR MROC 051200Z 12009KT CAVOK 22/16 A2997 NOSIG=
201704051300 METAR MROC 051300Z 12011KT CAVOK 23/16 A2999 NOSIG=
201704051400 METAR MROC 051400Z 12010KT CAVOK 24/17 A3002 NOSIG=
201704051500 METAR MROC 051500Z 11008KT CAVOK 26/17 A3001 NOSIG=
201704051600 METAR MROC 051600Z 11013KT CAVOK 28/17 A2999 NOSIG=
201704051700 METAR MROC 051700Z 09013KT CAVOK 28/16 A2998 NOSIG=
201704051800 METAR MROC 051800Z 09012KT CAVOK 29/15 A2997 NOSIG=
201704051900 METAR MROC 051900Z 10010KT CAVOK 30/16 A2994 NOSIG=
201704052000 METAR MROC 052000Z 12009KT CAVOK 30/16 A2992 NOSIG=
201704052100 METAR MROC 052100Z 09006KT CAVOK 30/15 A2991 NOSIG=
201704052200 METAR MROC 052200Z COR 08008KT 9999 FEW045 BKN180 29/14 A2990 NOSIG=
201704052300 METAR MROC 052300Z 08006KT 9999 FEW045 BKN180 27/15 A2992 NOSIG=
201704060000 METAR MROC 060000Z 08007KT 9999 FEW045 BKN130 26/14 A2994 NOSIG=
201704060100 METAR MROC 060100Z 11008KT 9999 FEW030 BKN140 24/16 A2997 NOSIG=
201704060200 METAR MROC 060200Z 09006KT CAVOK 23/16 A2999 NOSIG=
201704060300 METAR MROC 060300Z 09004KT 9999 FEW025 BKN160 23/16 A3001 NOSIG=
201704060400 METAR MROC 060400Z 07007KT 9999 FEW030 22/15 A3003 NOSIG=
201704060500 METAR MROC 060500Z 05006KT 9999 FEW040 22/16 A3005 NOSIG=
201704060600 METAR MROC 060600Z 08007KT 9999 FEW040 22/17 A3000 NOSIG=
201704060700 METAR MROC 060700Z 11008KT CAVOK 22/17 A2998 NOSIG=
201704060800 METAR MROC 060800Z 07009KT CAVOK 21/18 A2996 NOSIG=
201704060900 METAR MROC 060900Z 09007KT CAVOK 21/17 A2997 NOSIG=
201704061000 METAR MROC 061000Z 08006KT CAVOK 21/17 A2997 NOSIG=
201704061100 METAR MROC 061100Z 04009KT 9999 FEW040 22/18 A2999 NOSIG=
201704061200 METAR MROC 061200Z 09007KT 9999 FEW040 22/17 A3000 NOSIG=
201704061300 METAR MROC 061300Z 11010KT 9999 FEW025 24/18 A3002 NOSIG=
201704061400 METAR MROC 061400Z 11015G25KT 9999 FEW035 25/19 A3004 NOSIG=
201704061500 METAR MROC 061500Z 11017G28KT 9999 FEW040 26/18 A3004 NOSIG=
201704061600 METAR MROC 061600Z 12014G25KT 9999 FEW030 28/18 A3003 NOSIG=
201704061700 METAR MROC 061700Z 11015G29KT CAVOK 28/17 A3002 NOSIG=
201704061800 METAR MROC 061800Z 11013G24KT CAVOK 30/17 A2999 NOSIG=
201704061900 METAR MROC 061900Z 09010G20KT CAVOK 31/17 A2996 NOSIG=
201704062000 METAR MROC 062000Z 09012G22KT 9999 FEW045 30/17 A2994 NOSIG=
201704062100 METAR MROC 062100Z 09010G20KT 9999 FEW045 31/17 A2991 NOSIG=
201704062200 METAR MROC 062200Z 09010G20KT 9999 FEW045 30/18 A2991 NOSIG=
201704062300 METAR MROC 062300Z 10012KT 9999 FEW040 28/18 A2992 NOSIG=
201704062355 METAR MROC 070000Z 10013KT 9999 FEW040 26/18 A2994 NOSIG=
201704070000 METAR MROC 070000Z 10013KT 9999 FEW040 26/18 A2994 NOSIG=
201704070100 METAR MROC 070100Z 07008KT CAVOK 25/18 A2997 NOSIG=
201704070200 METAR MROC 070200Z 10010KT CAVOK 24/18 A2997 NOSIG=
201704070300 METAR MROC 070300Z 11011G21KT CAVOK 24/18 A3000 NOSIG=
201704070400 METAR MROC 070400Z 12014G24KT CAVOK 23/18 A3001 NOSIG=
201704070500 METAR MROC 070500Z 11012KT CAVOK 23/18 A3001 NOSIG=
201704070600 METAR MROC 070600Z 06006KT CAVOK 23/18 A3000 NOSIG=
201704070700 METAR MROC 070700Z 11013G23KT CAVOK 23/18 A2998 NOSIG=
201704070800 METAR MROC 070800Z 05009KT CAVOK 22/18 A2997 NOSIG=
201704070900 METAR MROC 070900Z 09010G20KT CAVOK 23/18 A2998 NOSIG=
201704071000 METAR MROC 071000Z 10010KT CAVOK 22/18 A2998 NOSIG=
201704071100 METAR MROC 071100Z 09008KT CAVOK 22/18 A3000 NOSIG=
201704071200 METAR MROC 071200Z 11014KT 9999 FEW030 SCT140 22/18 A2999 NOSIG=
201704071300 METAR MROC 071300Z 08013KT 9999 FEW030 24/18 A3002 NOSIG=
201704071400 METAR MROC 071400Z 11017G31KT 9999 FEW030 25/18 A3003 NOSIG=
201704071500 METAR MROC 071500Z 11015G25KT 9999 FEW035 26/18 A3003 NOSIG=
201704071600 METAR MROC 071600Z 10015G25KT 9999 FEW035 27/17 A3004 NOSIG=
201704071700 METAR MROC 071700Z 09015G25KT 9999 FEW035 28/16 A3004 NOSIG=
201704071800 METAR MROC 071800Z 10018G28KT 9999 FEW035 28/16 A3001 NOSIG=
201704071900 METAR MROC 071900Z 09015G26KT 9999 FEW035 30/16 A2997 NOSIG=
201704072000 METAR MROC 072000Z 09016G26KT 9999 FEW045 30/15 A2994 NOSIG=
201704072100 METAR MROC 072100Z 10017KT CAVOK 29/16 A2993 NOSIG=
201704072200 METAR MROC 072200Z 08011G22KT CAVOK 29/15 A2992 NOSIG=
201704072300 METAR MROC 072300Z 09014KT 9999 FEW045 26/15 A2993 NOSIG=
201704080000 METAR MROC 080000Z 10012KT 9999 FEW045 24/15 A2995 NOSIG=
201704080100 METAR MROC 080100Z 11014KT CAVOK 23/17 A2997 NOSIG=
201704080200 METAR MROC 080200Z 11012KT CAVOK 23/17 A2999 NOSIG=
201704080300 METAR MROC 080300Z 10011G24KT CAVOK 22/17 A3002 NOSIG=
201704080400 METAR MROC 080400Z 10012KT 9999 FEW030 22/17 A3003 NOSIG=
201704080500 METAR MROC 080500Z 10011G21KT 9999 FEW030 22/17 A3001 NOSIG=
201704080600 METAR MROC 080600Z 05007KT 9999 FEW025 22/18 A3000 NOSIG=
201704080700 METAR MROC 080700Z 06008KT 9999 FEW030 21/17 A2998 NOSIG=
201704080800 METAR MROC 080800Z 07010KT 9999 FEW035 21/17 A2998 NOSIG=
201704080900 METAR MROC 080900Z 11005KT 9999 SCT030 22/17 A2997 NOSIG=
201704081000 METAR MROC 081000Z 04007KT 9999 FEW030 21/17 A2997 NOSIG=
201704081100 METAR MROC 081100Z 08005KT 9999 FEW030 21/17 A2999 NOSIG=
201704081200 METAR MROC 081200Z 07005KT 9999 FEW045 BKN120 22/16 A2999 NOSIG=
201704081300 METAR MROC 081300Z 10011KT 9999 FEW045 22/16 A3001 NOSIG=
201704081400 METAR MROC 081400Z 10011G21KT 9999 FEW040 24/16 A3002 NOSIG=
201704081500 METAR MROC 081500Z 10016G28KT 9999 FEW045 SCT250 25/15 A3002 NOSIG=
201704081600 METAR MROC 081600Z 10017KT 9999 FEW045 26/14 A3001 NOSIG=
201704081700 METAR MROC 081700Z 10016G26KT 9999 FEW045 26/15 A3002 NOSIG=
201704081800 METAR MROC 081800Z 10017G30KT 9999 FEW045 26/15 A3001 NOSIG=
201704081900 METAR MROC 081900Z 11018G29KT 9999 FEW045 26/15 A2998 NOSIG=
201704082000 METAR MROC 082000Z 11017G29KT 9999 FEW045 SCT250 26/16 A2996 NOSIG=
201704082100 METAR MROC 082100Z 11016G26KT 9999 FEW040 BKN200 25/15 A2995 NOSIG=
201704082200 METAR MROC 082200Z 11017KT 9999 FEW040 SCT200 25/15 A2994 NOSIG=
201704082300 METAR MROC 082300Z 12015G25KT 9999 FEW035 BKN200 24/14 A2994 NOSIG=
201704090000 METAR MROC 090000Z 11013KT 9999 FEW040 BKN200 23/14 A2995 NOSIG=
201704090100 METAR MROC 090100Z 11014KT 9999 FEW040 BKN200 22/13 A2996 NOSIG=
201704090200 METAR MROC 090200Z 12012KT CAVOK 21/14 A3000 NOSIG=
201704090300 METAR MROC 090300Z 11011KT CAVOK 21/14 A3001 NOSIG=
201704090400 METAR MROC 090400Z 12010G20KT CAVOK 21/14 A3003 NOSIG=
201704090500 METAR MROC 090500Z 11010G20KT CAVOK 21/13 A3002 NOSIG=
201704090600 METAR MROC 090600Z 12012G22KT CAVOK 21/13 A3000 NOSIG=
201704090700 METAR MROC 090700Z 10010KT CAVOK 21/12 A2998 NOSIG=
201704090800 METAR MROC 090800Z 10009KT CAVOK 21/12 A2996 NOSIG=
201704090900 METAR MROC 090900Z 07009KT CAVOK 21/11 A2996 NOSIG=
201704091000 METAR MROC 091000Z 11010G20KT CAVOK 20/13 A2996 NOSIG=
201704091100 METAR MROC 091100Z 11010G20KT CAVOK 20/12 A2996 NOSIG=
201704091200 METAR MROC 091200Z 10010G20KT CAVOK 20/13 A2998 NOSIG=
201704091300 METAR MROC 091300Z 11008KT CAVOK 22/13 A3000 NOSIG=
201704091400 METAR MROC 091400Z 12011KT CAVOK 25/14 A3001 NOSIG=
201704091500 METAR MROC 091500Z 11013KT CAVOK 26/14 A3002 NOSIG=
201704091600 METAR MROC 091600Z 12011G21KT CAVOK 27/14 A3002 NOSIG=
201704091700 METAR MROC 091700Z 11013KT 9999 FEW045 BKN200 28/15 A3001 BECMG 24007KT=
201704091800 METAR MROC 091800Z 10013KT 9999 FEW040 BKN180 28/16 A2999 NOSIG=
201704091900 METAR MROC 091900Z 09012KT 9999 FEW035 BKN200 28/16 A2997 NOSIG=
201704092000 METAR MROC 092000Z 10013KT 9999 FEW030 SCT250 28/16 A2994 NOSIG=
201704092100 METAR MROC 092100Z 11012KT 9999 FEW035 SCT250 28/15 A2992 NOSIG=
201704092200 METAR MROC 092200Z 10015KT 9999 FEW035 SCT250 27/16 A2993 NOSIG=
201704092300 METAR MROC 092300Z 11013G23KT 9999 FEW035 BKN220 25/14 A2995 NOSIG=
201704100000 METAR MROC 100000Z 10015KT CAVOK 23/13 A2997 NOSIG=
201704100100 METAR MROC 100100Z 11014KT CAVOK 22/15 A2997 NOSIG=
201704100200 METAR MROC 100200Z 11013KT CAVOK 22/15 A3002 NOSIG=
201704100300 METAR MROC 100300Z 11012KT CAVOK 21/15 A3002 NOSIG=
201704100400 METAR MROC 100400Z 10016KT CAVOK 22/13 A3004 NOSIG=
201704100500 METAR MROC 100500Z 09011KT CAVOK 22/12 A3002 NOSIG=
201704100600 METAR MROC 100600Z 11012KT CAVOK 21/12 A3000 NOSIG=
201704100700 METAR MROC 100700Z 11011KT CAVOK 21/11 A2998 NOSIG=
201704100800 METAR MROC 100800Z 09009KT CAVOK 20/11 A2996 NOSIG=
201704100900 METAR MROC 100900Z 07008KT CAVOK 20/11 A2994 NOSIG=
201704101000 METAR MROC 101000Z 08009KT CAVOK 20/10 A2995 NOSIG=
201704101100 METAR MROC 101100Z 11010KT CAVOK 21/10 A2995 NOSIG=
201704101200 METAR MROC 101200Z 11010G20KT CAVOK 20/11 A2997 NOSIG=
201704101300 METAR MROC 101300Z 10009KT CAVOK 21/12 A3000 NOSIG=
201704101400 METAR MROC 101400Z 11010G20KT CAVOK 23/12 A3002 NOSIG=
201704101500 METAR MROC 101500Z 12012G22KT CAVOK 26/10 A3002 NOSIG=
201704101600 METAR MROC 101600Z 11915KT CAVOK 27/09 A3001 NOSIG=
201704101700 METAR MROC 101700Z 11012KT CAVOK 28/10 A3000 NOSIG=
201704101800 METAR MROC 101800Z 12010KT CAVOK 29/12 A2997 NOSIG=
201704101900 METAR MROC 101900Z 10012KT CAVOK 30/12 A2994 NOSIG=
201704102000 METAR MROC 102000Z 09012KT CAVOK 29/13 A2992 NOSIG=
201704102100 METAR MROC 102100Z 09012KT 9999 FEW045 29/14 A2991 NOSIG=
201704102200 METAR MROC 102200Z 10010G20KT 9999 FEW045 SCT200 28/14 A2990 NOSIG=
201704102300 METAR MROC 102300Z 11006KT 9999 SCT045 BKN220 27/15 A2991 NOSIG=
201704110000 METAR MROC 110000Z 12010KT 9999 FEW045 BKN250 24/16 A2994 NOSIG=
201704110100 METAR MROC 110100Z 10008KT 9999 FEW030 BKN120 23/16 A2997 NOSIG=
201704110200 METAR MROC 110200Z 12012KT 9999 FEW020 21/16 A2998 NOSIG=
201704110300 METAR MROC 110300Z 11011KT 9999 FEW025 21/16 A3001 NOSIG=
201704110400 METAR MROC 110400Z 11014KT 9999 FEW030 21/16 A3002 NOSIG=
201704110500 METAR MROC 110500Z 11013KT 9999 FEW040 21/15 A3001 NOSIG=
201704110600 METAR MROC 110600Z 11013G23KT 9999 FEW040 21/16 A2999 NOSIG=
201704110700 METAR MROC 110700Z 10016KT 9999 FEW040 21/15 A2996 NOSIG=
201704110800 METAR MROC 110800Z 12012G22KT 9999 FEW040 21/15 A2995 NOSIG=
201704110900 METAR MROC 110900Z 11013KT 9999 FEW040 BKN250 21/14 A2994 NOSIG=
201704111000 METAR MROC 111000Z 12012KT 9999 FEW045 BKN250 21/13 A2995 NOSIG=
201704111100 METAR MROC 111100Z 12013G23KT 9999 FEW045 BKN250 20/14 A2995 NOSIG=
201704111200 METAR MROC 111200Z 11012KT CAVOK 21/14 A2998 NOSIG=
201704111300 METAR MROC 111300Z 11011G21KT CAVOK 24/14 A3000 NOSIG=
201704111400 METAR MROC 111400Z COR 11013G23KT CAVOK 25/14 A3001 NOSIG=
201704111500 METAR MROC 111500Z 11014KT CAVOK 26/13 A3001 NOSIG=
201704111600 METAR MROC 111600Z 11013G23KT CAVOK 28/13 A3001 NOSIG=
201704111700 METAR MROC 111700Z 09012KT CAVOK 28/14 A3000 NOSIG=
201704111800 METAR MROC 111800Z 10009KT CAVOK 29/15 A2997 NOSIG=
201704111900 METAR MROC 111900Z 10010G20KT CAVOK 30/15 A2995 NOSIG=
201704112000 METAR MROC 112000Z 10011G22KT CAVOK 30/15 A2991 NOSIG=
201704112100 METAR MROC 112100Z 11010G20KT 9999 FEW040 29/15 A2990 NOSIG=
201704112200 METAR MROC 112200Z 09010G20KT 9999 FEW040 28/15 A2990 NOSIG=
201704112300 METAR MROC 112300Z 10014KT 9999 FEW040 26/14 A2991 NOSIG=
201704112355 METAR MROC 120000Z 11010G20KT 9999 FEW040 24/15 A2994 NOSIG=
201704120000 METAR MROC 120000Z 11010G20KT 9999 FEW040 24/15 A2994 NOSIG=
201704120100 METAR MROC 120100Z 11010G20KT CAVOK 23/15 A2996 NOSIG=
201704120200 METAR MROC 120200Z 10010G20KT CAVOK 22/13 A2997 NOSIG=
201704120300 METAR MROC 120300Z 11010G20KT CAVOK 22/13 A2999 NOSIG=
201704120400 METAR MROC 120400Z 11015KT CAVOK 22/13 A3000 NOSIG=
201704120500 METAR MROC 120500Z 11014KT CAVOK 21/13 A2999 NOSIG=
201704120600 METAR MROC 120600Z 11012KT CAVOK 21/14 A2996 NOSIG=
201704120700 METAR MROC 120700Z 11014G24KT CAVOK 21/13 A2995 NOSIG=
201704120800 METAR MROC 120800Z 11012G22KT CAVOK 21/13 A2993 NOSIG=
201704120900 METAR MROC 120900Z 12010G20KT CAVOK 20/13 A2992 NOSIG=
201704121000 METAR MROC 121000Z 12012KT CAVOK 21/14 A2992 NOSIG=
201704121100 METAR MROC 121100Z 11014KT CAVOK 20/14 A2994 NOSIG=
201704121200 METAR MROC 121200Z 11012KT CAVOK 20/14 A2995 NOSIG=
201704121300 METAR MROC 121300Z 11013KT CAVOK 23/14 A2998 NOSIG=
201704121400 METAR MROC 121400Z 11010G20KT CAVOK 26/14 A2999 NOSIG=
201704121500 METAR MROC 121500Z 10014G24KT CAVOK 27/13 A3000 NOSIG=
201704121600 METAR MROC 121600Z 10011G21KT CAVOK 28/14 A2999 NOSIG=
201704121700 METAR MROC 121700Z 11010G20KT CAVOK 29/15 A2998 NOSIG=
201704121800 METAR MROC 121800Z 10011G21KT CAVOK 30/15 A2995 NOSIG=
201704121900 METAR MROC 121900Z 10011G21KT 9999 FEW045 SCT250 30/15 A2992 NOSIG=
201704122000 METAR MROC 122000Z 10010G20KT 9999 FEW045 SCT250 30/15 A2990 NOSIG=
201704122100 METAR MROC 122100Z 08009KT 9999 FEW028 30/15 A2989 NOSIG=
201704122200 METAR MROC 122200Z 11010KT 9999 FEW028 28/16 A2989 NOSIG=
201704122300 METAR MROC 122300Z 12011KT 9999 FEW035 BKN250 26/17 A2991 NOSIG=
201704130000 METAR MROC 130000Z 09009KT 9999 FEW035 BKN250 24/16 A2994 NOSIG=
201704130100 METAR MROC 130100Z 12007KT 9999 FEW035 SCT050 23/16 A2996 NOSIG=
201704130200 METAR MROC 130200Z 11011KT 9999 FEW040 SCT080 BKN250 23/16 A2997 NOSIG=
201704130300 METAR MROC 130300Z 11013KT CAVOK 22/16 A2999 NOSIG=
201704130400 METAR MROC 130400Z 11014G26KT 9999 FEW025 22/16 A2999 NOSIG=
201704130500 METAR MROC 130500Z 11015G25KT 9999 FEW035 21/16 A2997 NOSIG=
201704130600 METAR MROC 130600Z 12016G28KT 9999 FEW035 22/15 A2995 NOSIG=
201704130700 METAR MROC 130700Z 11016G26KT CAVOK 21/15 A2994 NOSIG=
201704130800 METAR MROC 130800Z 11014G24KT CAVOK 21/16 A2992 NOSIG=
201704130900 METAR MROC 130900Z 11012G22KT CAVOK 21/16 A2992 NOSIG=
201704131000 METAR MROC 131000Z 11015G26KT CAVOK 21/16 A2992 NOSIG=
201704131100 METAR MROC 131100Z 11012G22KT CAVOK 21/15 A2994 NOSIG=
201704131200 METAR MROC 131200Z 08007KT CAVOK 21/16 A2996 NOSIG=
201704131300 METAR MROC 131300Z 11013G23KT CAVOK 23/16 A2996 NOSIG=
201704131400 METAR MROC 131400Z 11013G26KT CAVOK 25/15 A2998 NOSIG=
201704131500 METAR MROC 131500Z 11014G24KT CAVOK 26/16 A2998 NOSIG=
201704131600 METAR MROC 131600Z 10013KT CAVOK 28/16 A2998 NOSIG=
201704131700 METAR MROC 131700Z 10012G22KT CAVOK 29/16 A2996 NOSIG=
201704131800 METAR MROC 131800Z 10013KT 9999 FEW040 29/16 A2994 NOSIG=
201704131900 METAR MROC 131900Z 10015KT 9999 FEW040 30/16 A2991 NOSIG=
201704132000 METAR MROC 132000Z 10011KT 9999 FEW035 30/16 A2990 NOSIG=
201704132100 METAR MROC 132100Z 13010KT 9999 FEW035 30/17 A2988 NOSIG=
201704132200 METAR MROC 132200Z 12007KT 9999 FEW035 SCT070 28/17 A2989 NOSIG=
201704132300 METAR MROC 132300Z 14008KT 9999 FEW030 BKN070 27/17 A2990 NOSIG=
201704140000 METAR MROC 140000Z 10009KT 9999 FEW025 BKN060 25/18 A2994 NOSIG=
201704140100 METAR MROC 140100Z 11011KT 9999 FEW025 SCT060 23/17 A2995 NOSIG=
201704140200 METAR MROC 140200Z 09011KT 9999 FEW030 22/17 A2997 NOSIG=
201704140300 METAR MROC 140300Z 10015KT 9999 FEW035 22/17 A2997 NOSIG=
201704140400 METAR MROC 140400Z 10012G22KT CAVOK 22/17 A2998 NOSIG=
201704140500 METAR MROC 140500Z 11014G24KT CAVOK 22/17 A2999 NOSIG=
201704140600 METAR MROC 140600Z 11013G25KT CAVOK 22/17 A2997 NOSIG=
201704140700 METAR MROC 140700Z 10011G21KT CAVOK 21/17 A2995 NOSIG=
201704140800 METAR MROC 140800Z 10011G21KT CAVOK 21/17 A2994 NOSIG=
201704140900 METAR MROC 140900Z 11014G26KT CAVOK 21/17 A2992 NOSIG=
201704141000 METAR MROC 141000Z 10015G27KT CAVOK 21/17 A2991 NOSIG=
201704141100 METAR MROC 141100Z 11015G28KT CAVOK 22/17 A2992 NOSIG=
201704141200 METAR MROC 141200Z 11015G27KT CAVOK 22/17 A2994 NOSIG=
201704141300 METAR MROC 141300Z 11016G26KT 9999 FEW025 23/17 A2996 NOSIG=
201704141400 METAR MROC 141400Z 10014G24KT 9999 FEW035 25/17 A2998 NOSIG=
201704141500 METAR MROC 141500Z 11015KT 9999 FEW035 26/17 A2998 NOSIG=
201704141600 METAR MROC 141600Z 11014KT 9999 FEW030 27/17 A2999 NOSIG=
201704141700 METAR MROC 141700Z 13013KT 9999 FEW030 28/18 A2998 NOSIG=
201704141800 METAR MROC 141800Z 13012KT 9999 FEW025 SCT120 28/18 A2996 NOSIG=
201704141900 METAR MROC 141900Z 11015KT 9999 FEW025 SCT100 28/18 A2993 NOSIG=
201704142000 METAR MROC 142000Z 11014KT 9999 FEW025 SCT100 28/18 A2991 NOSIG=
201704142100 METAR MROC 142100Z 11014G26KT 9999 FEW025 BKN080 25/18 A2991 NOSIG=
201704142200 METAR MROC 142200Z 12015G25KT 9999 FEW025 BKN080 26/18 A2990 NOSIG=
201704142300 METAR MROC 142300Z 12013G24KT 9999 FEW025 SCT080 24/17 A2992 NOSIG=
201704150000 METAR MROC 150000Z 11012G22KT 9999 FEW030 SCT100 23/16 A2993 NOSIG=
201704150100 METAR MROC 150100Z 11012G22KT CAVOK 22/16 A2994 NOSIG=
201704150200 METAR MROC 150200Z 11015G25KT CAVOK 21/17 A2995 NOSIG=
201704150300 METAR MROC 150300Z 11015G25KT CAVOK 22/17 A2996 NOSIG=
201704150400 METAR MROC 150400Z 11014G24KT 9999 FEW035 22/17 A2998 NOSIG=
201704150500 METAR MROC 150500Z 11016KT 9999 FEW035 22/16 A2997 NOSIG=
201704150600 METAR MROC 150600Z 11014KT CAVOK 22/16 A2994 NOSIG=
201704150700 METAR MROC 150700Z 11014G24KT CAVOK 22/16 A2992 NOSIG=
201704150800 METAR MROC 150800Z 11015G25KT CAVOK 22/16 A2991 NOSIG=
201704150900 METAR MROC 150900Z 11013KT CAVOK 22/16 A2991 NOSIG=
201704151000 METAR MROC 151000Z 10013KT CAVOK 22/16 A2991 NOSIG=
201704151100 METAR MROC 151100Z 11016KT CAVOK 22/16 A2992 NOSIG=
201704151200 METAR MROC 151200Z 11014KT CAVOK 22/16 A2994 NOSIG=
201704151300 METAR MROC 151300Z 11014G24KT CAVOK 23/17 A2996 NOSIG=
201704151400 METAR MROC 151400Z 11015G25KT CAVOK 25/17 A2997 NOSIG=
201704151500 METAR MROC 151500Z 11014G24KT CAVOK 27/17 A2998 NOSIG=
201704151600 METAR MROC 151600Z 10014G24KT 9999 FEW035 28/17 A2998 NOSIG=
201704151700 METAR MROC 151700Z 08015KT 9999 FEW035 29/17 A2997 NOSIG=
201704151800 METAR MROC 151800Z 09014KT 9999 FEW035 30/18 A2996 NOSIG=
201704151900 METAR MROC 151900Z 10014G24KT 9999 FEW035 29/18 A2993 NOSIG=
201704152000 METAR MROC 152000Z 11015KT 9999 FEW035 30/18 A2999 NOSIG=
201704152100 METAR MROC 152100Z 09016G26KT 9999 FEW045 29/18 A2988 NOSIG=
201704152200 METAR MROC 152200Z 11014G24KT 9999 BKN040 27/19 A2989 NOSIG=
201704152300 METAR MROC 152300Z 10011G21KT 9999 FEW035 BKN160 26/19 A2989 NOSIG=
201704160000 METAR MROC 160000Z 10014G24KT 9999 FEW045 BKN200 24/17 A2992 NOSIG=
201704160100 METAR MROC 160100Z 12016G26KT 9999 FEW025 BKN200 23/18 A2993 NOSIG=
201704160200 METAR MROC 160200Z 11015G26KT 9999 FEW025 23/18 A2995 NOSIG=
201704160300 METAR MROC 160300Z 11015G26KT 9999 FEW025 23/17 A2997 NOSIG=
201704160400 METAR MROC 160400Z 11015KT CAVOK 22/17 A2998 NOSIG=
201704160500 METAR MROC 160500Z 12015G25KT CAVOK 22/17 A2997 NOSIG=
201704160600 METAR MROC NIL=
201704160700 METAR MROC 160700Z 11015G25KT CAVOK 22/17 A2994 NOSIG=
201704160800 METAR MROC 160800Z 11015KT CAVOK 22/18 A2993 NOSIG=
201704160900 METAR MROC NIL=
201704161000 METAR MROC 161000Z 07008KT CAVOK 22/17 A2994 NOSIG=
201704161100 METAR MROC 161100Z 05006KT 9999 FEW030 22/17 A2996 NOSIG=
201704161200 METAR MROC 161200Z COR 10010G20KT 9999 FEW030 SCT250 21/17 A2996 NOSIG=
201704161300 METAR MROC 161300Z 10013G26KT 9999 FEW040 23/18 A2997 NOSIG=
201704161400 METAR MROC 161400Z 10012G22KT 9999 FEW040 26/17 A3000 NOSIG=
201704161500 METAR MROC 161500Z 11017G27KT 9999 FEW040 27/17 A2999 NOSIG=
201704161600 METAR MROC 161600Z 11016G27KT 9999 FEW040 BKN250 28/18 A2998 NOSIG=
201704161700 METAR MROC 161700Z 11017G27KT 9999 FEW040 BKN300 29/18 A2998 NOSIG=
201704161800 METAR MROC 161800Z COR 11011G21KT 9999 SCT035 BKN300 29/18 A2999 NOSIG=
201704161900 METAR MROC 161900Z 11012G22KT 9999 FEW035 SCT100 28/18 A2996 WS R07 NOSIG=
201704162000 METAR MROC 162000Z 14011G21KT CAVOK 29/18 A2994 WS R07 NOSIG=
201704162100 METAR MROC 162100Z 12010G20KT 9999 FEW045 BKN200 28/18 A2993 NOSIG=
201704162200 METAR MROC 162200Z 13010G20KT 9999 FEW045 BKN200 27/18 A2993 NOSIG=
201704162300 METAR MROC 162300Z 12010G20KT 9999 FEW040 SCT080 BKN200 25/19 A2994 NOSIG=
201704162356 METAR MROC 170000Z 07010KT 9999 FEW035 SCT080 24/19 A2997 NOSIG=
201704170000 METAR MROC 170000Z 07010KT 9999 FEW035 SCT080 24/19 A2997 NOSIG=
201704170100 METAR MROC 170100Z VRB02KT CAVOK 24/18 A2999 NOSIG=
201704170200 METAR MROC 170200Z 02005KT CAVOK 24/18 A3000 NOSIG=
201704170300 METAR MROC 170300Z 12006KT CAVOK 23/18 A3001 NOSIG=
201704170400 METAR MROC 170400Z 12007KT CAVOK 22/18 A3002 NOSIG=
201704170500 METAR MROC 170500Z 09003KT CAVOK 22/18 A3002 NOSIG=
201704170600 METAR MROC 170600Z 06005KT CAVOK 22/18 A3000 NOSIG=
201704170700 METAR MROC 170700Z 10005KT CAVOK 21/17 A2998 NOSIG=
201704170800 METAR MROC 170800Z 09008KT CAVOK 22/17 A2996 NOSIG=
201704170900 METAR MROC 170900Z 07010KT CAVOK 21/17 A2995 NOSIG=
201704171000 METAR MROC 171000Z 05006KT CAVOK 21/17 A2996 NOSIG=
201704171100 METAR MROC 171100Z 05005KT CAVOK 19/16 A2997 NOSIG=
201704171200 METAR MROC 171200Z 07005KT CAVOK 21/17 A2998 NOSIG=
201704171300 METAR MROC 171300Z 08010KT 9999 FEW035 24/18 A3002 NOSIG=
201704171400 METAR MROC 171400Z 11011G21KT 9999 FEW035 25/17 A3002 NOSIG=
201704171500 METAR MROC 171500Z 10011G21KT 9999 FEW035 27/17 A3003 NOSIG=
201704171600 METAR MROC 171600Z 10015G25KT 9999 FEW040 28/18 A3001 NOSIG=
201704171700 METAR MROC 171700Z 11011G21KT 9999 FEW040 29/18 A2999 NOSIG=
201704171800 METAR MROC 171800Z 11014G24KT 9999 FEW040 29/19 A2997 NOSIG=
201704171900 METAR MROC 171900Z 11011G21KT 9999 FEW045 30/18 A2993 NOSIG=
201704172000 METAR MROC 172000Z 11013KT 9999 FEW040 SCT080 30/18 A2991 NOSIG=
201704172100 METAR MROC 172100Z 11010KT 9999 3000SW +SHRA VCTS FEW015CB SCT030 BKN100 29/18 A2989 BECMG 24008KT 5000 TSRA BKN015=
201704172200 METAR MROC 172200Z 13008KT 9999 4700W RA VCSH FEW020 SCT035 BKN100 23/20 A2993 RETS NOSIG=
201704172300 METAR MROC 172300Z 21007KT 9999 3000SW -RA BCFG FEW020 SCT035 BKN110 23/20 A2995 NOSIG=
201704180000 METAR MROC 180000Z 27006KT 9999 VCFG FEW030 SCT090 BKN110 21/20 A2999 NOSIG=
201704180100 METAR MROC 180100Z VRB02KT 9999 FEW030 BKN150 22/19 A2999 NOSIG=
201704180200 METAR MROC 180200Z 10004KT 9999 FEW030 BKN180 22/19 A3002 NOSIG=
201704180300 METAR MROC 180300Z 09003KT CAVOK 23/18 A3003 NOSIG=
201704180400 METAR MROC 180400Z 05006KT 9999 FEW025 BKN090 22/19 A3004 NOSIG=
201704180500 METAR MROC 180500Z VRB02KT 9999 FEW040 BKN140 21/19 A3002 NOSIG=
201704180600 METAR MROC 180600Z VRB02KT CAVOK 21/19 A2999 NOSIG=
201704180700 METAR MROC 180700Z VRB02KT CAVOK 21/19 A2997 NOSIG=
201704180800 METAR MROC 180800Z 04003KT CAVOK 21/18 A2996 NOSIG=
201704180900 METAR MROC 180900Z 07008KT CAVOK 21/17 A2995 NOSIG=
201704181000 METAR MROC 181000Z 06007KT CAVOK 21/17 A2995 NOSIG=
201704181100 METAR MROC 181100Z 07009KT CAVOK 21/16 A2997 NOSIG=
201704181200 METAR MROC 181200Z 09007KT CAVOK 21/16 A2999 NOSIG=
201704181300 METAR MROC 181300Z 08006KT CAVOK 24/17 A3002 NOSIG=
201704181400 METAR MROC 181400Z 10009KT CAVOK 26/17 A3002 NOSIG=
201704181500 METAR MROC 181500Z 20004KT CAVOK 28/18 A3004 NOSIG=
201704181600 METAR MROC 181600Z 26009KT 9999 FEW045 27/19 A3003 NOSIG=
201704181700 METAR MROC 181700Z 24010KT 9999 FEW045 28/20 A3001 NOSIG=
201704181800 METAR MROC 181800Z 22011KT 9999 FEW040 SCT250 28/19 A3000 NOSIG=
201704181900 METAR MROC 181900Z 24010KT 9999 FEW030 FEW035TCU 28/20 A2998 NOSIG=
201704182000 METAR MROC 182000Z 24011KT 9999 FEW028TCU SCT030 28/20 A2995 NOSIG=
201704182100 METAR MROC 182100Z 22010KT 9999 5000NW VCSH SCT025TCU SCT030 27/19 A2994 NOSIG=
201704182200 METAR MROC 182200Z 29006KT 9999 3000S RA FEW015 SCT025TCU SCT040 23/20 A2995 BECMG 06005KT=
201704182300 METAR MROC 182300Z 03006KT 8000 3000SW TSRA SCT020CB BKN040 22/19 A2996 NOSIG=
201704190000 METAR MROC 190000Z 00000KT 9999 -RA SCT030 SCT120 21/20 A2998 RETSRA NOSIG=
201704190100 METAR MROC 190100Z VRB02KT 9999 -DZ FEW020 BKN120 21/21 A3000 NOSIG=
201704190200 METAR MROC 190200Z 00000KT 9999 VCFG FEW010 SCT040 BKN200 22/21 A3004 NOSIG=
201704190300 METAR MROC 190300Z 00000KT 9999 FEW030 SCT060 22/20 A3006 NOSIG=
201704190400 METAR MROC 190400Z 02003KT 9999 FEW030 SCT060 21/20 A3006 NOSIG=
201704190500 METAR MROC 190500Z VRB02KT 9999 FEW030 SCT060 22/20 A3005 NOSIG=
201704190600 METAR MROC 190600Z 10003KT CAVOK 21/20 A3001 NOSIG=
201704190700 METAR MROC 190700Z 03004KT CAVOK 21/19 A2999 NOSIG=
201704190800 METAR MROC 190800Z 05004KT CAVOK 21/19 A2998 NOSIG=
201704190900 METAR MROC 190900Z 07005KT CAVOK 20/18 A2996 NOSIG=
201704191000 METAR MROC 191000Z 07006KT CAVOK 20/18 A2996 NOSIG=
201704191100 METAR MROC 191100Z 03007KT CAVOK 20/18 A2997 NOSIG=
201704191200 METAR MROC 191200Z 04003KT CAVOK 20/18 A2999 NOSIG=
201704191300 METAR MROC 191300Z 03006KT CAVOK 23/19 A3006 NOSIG=
201704191400 METAR MROC 191400Z 06003KT CAVOK 26/19 A3003 BECMG 24007KT=
201704191500 METAR MROC 191500Z 11003KT 9999 FEW045 27/18 A3003 NOSIG=
201704191600 METAR MROC 191600Z 25008KT 9999 FEW035 27/21 A3003 NOSIG=
201704191700 METAR MROC 191700Z 25007KT 9999 FEW035 SCT050 28/20 A3001 NOSIG=
201704191800 METAR MROC 191800Z 24010KT 9999 FEW025TCU SCT050 SCT200 29/20 A2999 NOSIG=
201704191900 METAR MROC 191900Z 25009KT 9999 TS FEW020CB BKN045 27/21 A2996 BECMG 5000=
201704192000 METAR MROC NIL=
201704192100 METAR MROC 192100Z 06006KT 9999 -RA FEW025 BKN100 20/19 A2997 NOSIG=
201704192200 METAR MROC 192200Z 13005KT 9999 -RA FEW025 OVC100 21/19 A2998 NOSIG=
201704192300 METAR MROC 192300Z 10007KT 9999 -RA FEW030 OVC120 20/19 A2998 NOSIG=
201704200000 METAR MROC 200000Z 08009KT 9999 -RA OVC130 20/19 A2999 NOSIG=
201704200100 METAR MROC 200100Z 07010KT CAVOK 21/18 A3002 NOSIG=
201704200200 METAR MROC 200200Z 08008KT CAVOK 20/18 A3003 NOSIG=
201704200300 METAR MROC 200300Z 10005KT CAVOK 21/18 A3004 NOSIG=
201704200400 METAR MROC 200400Z 13003KT CAVOK 21/18 A3005 NOSIG=
201704200500 METAR MROC 200500Z 30003KT CAVOK 20/18 A3005 NOSIG=
201704200600 METAR MROC 200600Z 36002KT CAVOK 20/18 A3005 NOSIG=
201704200700 METAR MROC 200700Z 29004KT CAVOK 20/19 A3003 NOSIG=
201704200800 METAR MROC 200800Z 34003KT 9999 FEW010 BKN200 20/19 A3002 NOSIG=
201704200900 METAR MROC 200900Z 14002KT 9999 FEW010 BKN200 19/19 A3001 NOSIG=
201704201000 METAR MROC 201000Z 11003KT 9999 FEW025 BKN200 19/18 A3001 NOSIG=
201704201100 METAR MROC 201100Z 09003KT 9999 SCT025 BKN040 20/18 A3002 NOSIG=
201704201200 METAR MROC 201200Z 08004KT 9999 SCT035 BKN070 20/18 A3003 NOSIG=
201704201300 METAR MROC 201300Z 10005KT 9999 FEW035 SCT120 SCT200 21/19 A3004 NOSIG=
201704201400 METAR MROC 201400Z 09005KT CAVOK 23/19 A3006 NOSIG=
201704201500 METAR MROC 201500Z 14003KT CAVOK 26/18 A3006 BECMG 23006KT=
201704201600 METAR MROC 201600Z 26007KT 9999 FEW045 SCT250 25/20 A3005 NOSIG=
201704201700 METAR MROC 201700Z 26009KT 9999 FEW040 26/19 A3005 NOSIG=
201704201800 METAR MROC 201800Z 26010KT 9999 FEW030 BKN250 27/20 A3003 NOSIG=
201704201900 METAR MROC 201900Z 26009KT 9999 FEW025TCU SCT028 BKN250 27/21 A3000 NOSIG=
201704202000 METAR MROC 202000Z 26010KT 9999 FEW025 BKN250 26/19 A2998 NOSIG=
201704202100 METAR MROC 202100Z 25008KT 9999 FEW030 BKN200 26/19 A2996 NOSIG=
201704202200 METAR MROC 202200Z 24008KT 9999 VCSH FEW035 SCT140 BKN200 25/20 A2995 NOSIG=
201704202300 METAR MROC 202300Z 24007KT 9999 BKN040 25/21 A2997 BECMG 5000 RA BR=
201704210000 METAR MROC 210000Z 23007KT 9999 FEW010 SCT040 BKN200 22/20 A3000 NOSIG=
201704210100 METAR MROC 210100Z 25004KT 9999 FEW010 21/20 A3001 NOSIG=
201704210200 METAR MROC 210200Z COR 29002KT 9999 FEW008 BKN100 21/20 A3002 NOSIG=
201704210300 METAR MROC 210300Z 12003KT CAVOK 21/20 A3003 NOSIG=
201704210400 METAR MROC 210400Z 00000KT 9999 FEW020 BKN200 21/20 A3004 NOSIG=
201704210500 METAR MROC 210500Z 00000KT 9999 FEW020 BKN200 20/20 A3002 NOSIG=
201704210600 METAR MROC 210600Z 00000KT CAVOK 20/20 A3001 NOSIG=
201704210700 METAR MROC 210700Z 04004KT CAVOK 20/18 A3001 NOSIG=
201704210800 METAR MROC 210800Z 00000KT CAVOK 20/18 A2997 NOSIG=
201704210900 METAR MROC 210900Z 06003KT CAVOK 20/17 A2998 NOSIG=
201704211000 METAR MROC 211000Z 05003KT CAVOK 18/17 A2999 NOSIG=
201704211100 METAR MROC 211100Z 07004KT CAVOK 18/17 A3000 NOSIG=
201704211200 METAR MROC 211200Z 07004KT 9999 FEW025 SCT200 19/17 A3001 NOSIG=
201704211300 METAR MROC 211300Z 05003KT CAVOK 22/18 A3001 BECMG 24006KT=
201704211400 METAR MROC 211400Z 09004KT CAVOK 25/18 A3003 BECMG 24006KT=
201704211500 METAR MROC 211500Z 21004KT 9999 FEW045 SCT200 26/20 A3002 NOSIG=
201704211600 METAR MROC 211600Z 24010KT 9999 4500SW NSC 27/20 A3001 NOSIG=
201704211700 METAR MROC 211700Z 24009KT 9999 FEW030 SCT200 27/20 A3000 NOSIG=
201704211800 METAR MROC 211800Z 25009KT 9999 FEW045 BKN250 28/20 A2997 NOSIG=
201704211900 METAR MROC 211900Z 23008KT 9999 FEW035 SCT250 BKN300 29/19 A2993 NOSIG=
201704212000 METAR MROC 212000Z 24012KT 9999 FEW040 BKN300 29/20 A2990 NOSIG=
201704212100 METAR MROC 212100Z 25012KT 9999 SCT035 SCT250 29/21 A2989 NOSIG=
201704212200 METAR MROC 212200Z 25012KT 9999 SCT035 SCT250 28/22 A2989 NOSIG=
201704212300 METAR MROC 212300Z 22007KT 9999 FEW020 SCT035 25/21 A2990 NOSIG=
201704220000 METAR MROC 220000Z 23008KT 9999 SCT020 SCT035 24/21 A2994 NOSIG=
201704220100 METAR MROC 220100Z 25008KT 9999 FEW010 SCT020 BKN035 23/22 A2996 NOSIG=
201704220200 METAR MROC 220200Z 26008KT 9999 FEW010 SCT020 BKN035 22/21 A2999 NOSIG=
201704220300 METAR MROC 220300Z 27003KT 9999 FEW010 BKN020 22/21 A3000 NOSIG=
201704220400 METAR MROC 220400Z 23002KT 9999 SCT010 BKN020 22/21 A3001 NOSIG=
201704220500 METAR MROC 220500Z 24002KT 9999 FEW010 BKN025 22/21 A3000 NOSIG=
201704220600 METAR MROC 220600Z VRB02KT 9999 FEW015 BKN025 22/21 A2998 NOSIG=
201704220700 METAR MROC 220700Z 18003KT 8000 VCFG SCT002 BKN010 21/21 A2996 BECMG 5000 BR=
201704220800 METAR MROC 220800Z 03004KT 9999 FEW015 21/19 A2994 NOSIG=
201704220900 METAR MROC 220900Z VRB02KT 9999 SCT010 20/19 A2993 NOSIG=
201704221000 METAR MROC 221000Z 05003KT CAVOK 19/18 A2994 NOSIG=
201704221100 METAR MROC 221100Z 09004KT CAVOK 19/17 A2996 NOSIG=
201704221200 METAR MROC 221200Z 05005KT CAVOK 20/17 A2997 NOSIG=
201704221300 METAR MROC 221300Z 10003KT CAVOK 22/18 A3000 BECMG 25010KT=
201704221400 METAR MROC 221400Z 27002KT 9000 NSC 24/19 A3001 NOSIG=
201704221500 METAR MROC 221500Z 27007KT 9000 FEW035 SCT200 26/19 A3001 NOSIG=
201704221600 METAR MROC 221600Z 25010KT 9999 FEW035 SCT250 27/20 A3001 NOSIG=
201704221700 METAR MROC 221700Z 24012KT 9999 FEW035 BKN250 28/21 A2999 NOSIG=
201704221800 METAR MROC 221800Z 24010KT 9999 FEW035 28/21 A2997 NOSIG=
201704221900 METAR MROC 221900Z 24010KT 9999 SCT035 29/21 A2993 NOSIG=
201704222000 METAR MROC 222000Z 24010G20KT 9999 SCT035 29/21 A2991 NOSIG=
201704222100 METAR MROC 222100Z 24010KT 9999 SCT040 29/22 A2990 NOSIG=
201704222200 METAR MROC 222200Z 25011KT 9999 SCT040 27/22 A2989 NOSIG=
201704222300 METAR MROC 222300Z 25010KT 9999 SCT040 25/22 A2991 NOSIG=
201704230000 METAR MROC 230000Z 25009KT 9999 BKN035 24/22 A2994 NOSIG=
201704230100 METAR MROC 230100Z 26006KT 9999 SCT010 BKN030 23/22 A2997 NOSIG=
201704230200 METAR MROC 230200Z 24006KT 9999 SCT010 BKN030 22/21 A2998 NOSIG=
201704230300 METAR MROC 230300Z 25003KT 9999 SCT010 BKN030 23/22 A3000 NOSIG=
201704230400 METAR MROC 230400Z 23003KT 9999 FEW010 BKN025 23/22 A3000 NOSIG=
201704230500 METAR MROC 230500Z 26002KT 9999 2000SW BCFG SCT001 BKN020 23/22 A2999 BECMG 5000 BR=
201704230600 METAR MROC 230600Z VRB02KT 9999 2500SW BCFG FEW001 BKN020 22/22 A2997 NOSIG=
201704230700 METAR MROC 230700Z 00000KT 9999 4500SW BCFG FEW001 SCT020 BKN050 22/22 A2995 NOSIG=
201704230800 METAR MROC 230800Z 24002KT 7000 2000SW BCFG SCT003 22/22 A2993 NOSIG=
201704230900 METAR MROC 230900Z 32003KT 5000 1500SW BR SCT003 BKN010 22/22 A2993 NOSIG=
201704231000 METAR MROC 231000Z 11003KT 9999 2500SW FEW005 SCT025 BKN030 21/20 A2994 NOSIG=
201704231100 METAR MROC 231100Z 05003KT 9999 3000SW VCFG NSC 21/19 A2996 NOSIG=
201704231200 METAR MROC 231200Z 07003KT 5000 2500SW BR NSC 21/19 A2997 NOSIG=
201704231300 METAR MROC 231300Z 05003KT 9999 2500SW NSC 23/19 A3000 BECMG 22006=
201704231400 METAR MROC 231400Z VRB02KT CAVOK 25/19 A3001 BECMG 22006KT=
201704231500 METAR MROC 231500Z 27005KT CAVOK 27/20 A3001 NOSIG=
201704231600 METAR MROC 231600Z 25007KT CAVOK 27/21 A3000 NOSIG=
201704231700 METAR MROC 231700Z 25009KT 9999 FEW030 28/21 A2999 NOSIG=
201704231800 METAR MROC 231800Z 24009KT 9999 FEW030 29/21 A2996 NOSIG=
201704231900 METAR MROC 231900Z 24010KT 9999 SCT030 30/21 A2993 NOSIG=
201704232000 METAR MROC 232000Z 24010KT 9999 SCT030 29/21 A2991 NOSIG=
201704232100 METAR MROC 232100Z 02009KT 9999 4000NE -TSRA SCT020CB BKN040 26/20 A2991 BECMG 5000=
201704232200 METAR MROC 232200Z 34005KT 9999 4000SE -TSRA SCT020CB BKN040 24/21 A2991 NOSIG=
201704232300 METAR MROC 232300Z 15004KT 9999 4000S -DZ VCSH FEW020TCU BKN040 22/20 A2994 RETSRA NOSIG=
201704240000 METAR MROC 240000Z 05005KT 9999 FEW015 SCT035 22/20 A2995 NOSIG=
201704240100 METAR MROC 240100Z 00000KT 9999 SCT015 SCT035 22/20 A2998 NOSIG=
201704240200 METAR MROC 240200Z VRB02KT 9999 FEW010 SCT035 23/21 A2998 NOSIG=
201704240300 METAR MROC 240300Z 11004KT 9999 FEW012 22/20 A3000 NOSIG=
201704240400 METAR MROC 240400Z 01004KT CAVOK 22/20 A3001 NOSIG=
201704240500 METAR MROC 240500Z 03007KT CAVOK 22/19 A3000 NOSIG=
201704240600 METAR MROC 240600Z 06006KT CAVOK 20/18 A2998 NOSIG=
201704240700 METAR MROC 240700Z 04006KT CAVOK 20/17 A2995 NOSIG=
201704240800 METAR MROC 240800Z 05006KT CAVOK 20/17 A2993 NOSIG=
201704240900 METAR MROC 240900Z 07007KT CAVOK 19/16 A2993 NOSIG=
201704241000 METAR MROC 241000Z 09005KT CAVOK 20/16 A2994 NOSIG=
201704241100 METAR MROC 241100Z 07005KT CAVOK 20/16 A2995 NOSIG=
201704241200 METAR MROC 241200Z 08006KT CAVOK 22/17 A2997 NOSIG=
201704241300 METAR MROC 241300Z 08005KT CAVOK 24/17 A3000 NOSIG=
201704241400 METAR MROC 241400Z 10011KT CAVOK 26/17 A3000 NOSIG=
201704241500 METAR MROC 241500Z 11010KT CAVOK 27/17 A3000 BECMG 24007KT=
201704241600 METAR MROC 241600Z 12010KT CAVOK 29/17 A2999 NOSIG=
201704241700 METAR MROC 241700Z 14004KT 9999 FEW045 30/17 A2998 NOSIG=
201704241800 METAR MROC 241800Z 24010KT 9999 FEW040 29/19 A2996 NOSIG=
201704241900 METAR MROC 241900Z 23011KT 9999 FEW035 30/21 A2993 NOSIG=
201704242000 METAR MROC 242000Z 23012KT 9999 FEW030TCU SCT045 29/21 A2990 NOSIG=
201704242100 METAR MROC 242100Z 24012KT 5000 -TSRA FEW005 BKN020 25/22 A2991 NOSIG=
201704242200 METAR MROC 242200Z 26010KT 5000 -RA BR FEW005 SCT015 OVC100 23/22 A2993 NOSIG=
201704242300 METAR MROC 242300Z 22002KT 8000 -TS SCT020CB OVC100 23/22 A2995 NOSIG=
201704250000 METAR MROC 250000Z 00000KT 3000 TSRA SCT015CB OVC100 21/20 A2998 NOSIG=
201704250100 METAR MROC 250100Z 24004KT 5000 -RA FEW005 SCT020 OVC100 21/20 A3000 NOSIG=
201704250200 METAR MROC 250200Z 35003KT 9999 SCT025 OVC100 21/21 A3001 NOSIG=
201704250300 METAR MROC 250300Z 00000KT 9999 SCT025 OVC100 21/20 A3002 NOSIG=
201704250400 METAR MROC 250400Z 09003KT CAVOK 21/20 A3003 NOSIG=
201704250500 METAR MROC 250500Z 05009KT CAVOK 22/19 A3004 NOSIG=
201704250600 METAR MROC 250600Z 07005KT CAVOK 21/18 A3000 NOSIG=
201704250700 METAR MROC 250700Z 07005KT CAVOK 22/18 A2998 NOSIG=
201704250800 METAR MROC 250800Z 09006KT CAVOK 22/18 A2997 NOSIG=
201704250900 METAR MROC 250900Z 05007KT CAVOK 20/17 A2995 NOSIG=
201704251000 METAR MROC 251000Z 04005KT CAVOK 20/17 A2994 NOSIG=
201704251100 METAR MROC 251100Z 07004KT CAVOK 20/17 A2994 NOSIG=
201704251200 METAR MROC 251200Z 05007KT CAVOK 21/17 A2997 NOSIG=
201704251300 METAR MROC 251300Z 11007KT CAVOK 23/17 A2999 NOSIG=
201704251400 METAR MROC 251400Z 14005KT CAVOK 26/17 A3002 BECMG 24006KT=
201704251500 METAR MROC 251500Z 24006KT CAVOK 26/19 A3002 NOSIG=
201704251600 METAR MROC 251600Z 26006KT CAVOK 27/20 A3003 NOSIG=
201704251700 METAR MROC 251700Z 23008KT 9999 FEW030 SCT240 28/21 A3002 NOSIG=
201704251800 METAR MROC 251800Z 24010KT 9999 SCT030 28/21 A3000 NOSIG=
201704251900 METAR MROC 251900Z 23009KT 9999 SCT030TCU 28/20 A2996 NOSIG=
201704252000 METAR MROC 252000Z 22011KT 8000 SCT020TCU BKN100 26/21 A2994 BECMG 5000 TSRA=
201704252100 METAR MROC 252100Z 25004KT 9999 4000SW -TS FEW015CB SCT040 BKN090 24/21 A2996 BECMG 5000 TSRA=
201704252200 METAR MROC 252200Z VRB02KT 9999 4500SW BKN020 23/20 A2994 RETS NOSIG=
201704252300 METAR MROC 252300Z VRB02KT 9999 4500SW FEW010 SCT100 BKN250 24/21 A2995 BECMG 5000 BR=
201704260000 METAR MROC 260000Z 25002KT 9999 4500SW FEW015 BKN040 23/20 A2997 BECMG 5000 BR=
201704260100 METAR MROC 260100Z 32003KT 9999 4500SW BKN030 23/20 A3000 NOSIG=
201704260105 METAR MROC 290100Z 31003KT 9999 VCFG FEW010 BKN040 23/22 A2998 NOSIG=
201704260200 METAR MROC 260200Z 00000KT 9999 4500SW BKN030 23/20 A3000 NOSIG=
201704260300 METAR MROC 260300Z 00000KT 9999 4500SW NSC 23/20 A3002 NOSIG=
201704260400 METAR MROC 260400Z 05003KT CAVOK 22/21 A3002 NOSIG=
201704260500 METAR MROC 260500Z 07003KT CAVOK 21/20 A3002 NOSIG=
201704260600 METAR MROC 260600Z COR 04003KT CAVOK 21/19 A3000 NOSIG=
201704260700 METAR MROC 260700Z 07004KT CAVOK 20/19 A2997 NOSIG=
201704260800 METAR MROC 260800Z 06005KT CAVOK 20/18 A2995 NOSIG=
201704260900 METAR MROC 260900Z 09003KT CAVOK 20/18 A2995 NOSIG=
201704261000 METAR MROC 261000Z 08004KT CAVOK 19/18 A2995 NOSIG=
201704261100 METAR MROC 261100Z 10005KT CAVOK 19/18 A2995 NOSIG=
201704261200 METAR MROC 261200Z 09005KT 8000 2000SW BCFG FEW010 SCT025 19/18 A2996 NOSIG=
201704261300 METAR MROC 261300Z 04005KT 9000 4500SW NSC 22/18 A2999 NOSIG=
201704261400 METAR MROC 261400Z 08002KT 8000 3000SW BKN250 25/19 A3000 BECMG 24006KT=
201704261500 METAR MROC 261500Z 26004KT 8000 3500SW NSC 26/20 A3000 NOSIG=
201704261600 METAR MROC 261600Z 22004KT 8000 2500SW BKN250 27/20 A3000 NOSIG=
201704261700 METAR MROC 261700Z COR 23008KT 9000 3000SW NSC 28/19 A2998 NOSIG=
201704261800 METAR MROC 261800Z 26010KT 9000 3500SW FEW035 BKN250 28/21 A2996 NOSIG=
201704261900 METAR MROC 261900Z 28010KT 9000 2500SW SCT030 BKN250 27/21 A2994 NOSIG=
201704262000 METAR MROC 262000Z 21005KT 6000 VCSH FEW015 SCT030 BKN100 25/22 A2993 NOSIG=
201704262100 METAR MROC 262100Z 21007KT 4000 1500SW -RA HZ FEW015 SCT030 BKN100 23/22 A2992 NOSIG=
201704262200 METAR MROC 262200Z 23008KT 1500 -RA BR FEW005 SCT010 BKN030 22/22 A2992 NOSIG=
201704262300 METAR MROC 262300Z 24006KT 1500 -RA BR FEW005 SCT010 BKN030 22/22 A2994 NOSIG=
201704262353 METAR MROC 270000Z 24005KT 4000 1500SW BR FEW005 SCT010 BKN030 22/21 A2996 NOSIG=
201704270000 METAR MROC 270000Z COR 24005KT 4000 1500SW RA BR FEW005 SCT010 BKN030 22/21 A2996 NOSIG=
201704270040 METAR MROC 270040Z 28005KT 9999 -RA BCFG FEW030 BKN040 22/21 A2997 NOSIG=
201704270100 METAR MROC 270100Z 28008KT 9999 BCFG SCT040 BKN100 22/21 A2998 NOSIG=
201704270200 METAR MROC 270200Z 30003KT 9999 -RA BCFG FEW020 SCT040 BKN100 22/21 A3001 NOSIG=
201704270300 METAR MROC 270300Z 00000KT 9999 FEW020 SCT040 BKN100 22/21 A3002 NOSIG=
201704270400 METAR MROC 270400Z 10002KT CAVOK 21/21 A3001 NOSIG=
201704270500 METAR MROC 270500Z 07002KT CAVOK 21/20 A3000 NOSIG=
201704270600 METAR MROC 270600Z 02002KT CAVOK 21/20 A3000 NOSIG=
201704270700 METAR MROC 270700Z 06004KT CAVOK 21/19 A2998 NOSIG=
201704270800 METAR MROC 270800Z 06004KT CAVOK 20/19 A2995 NOSIG=
201704270900 METAR MROC 270900Z 07004KT CAVOK 20/18 A2993 NOSIG=
201704271000 METAR MROC 271000Z 06005KT CAVOK 19/18 A2993 NOSIG=
201704271100 METAR MROC 271100Z 05002KT CAVOK 20/18 A2995 NOSIG=
201704271200 METAR MROC 271200Z 07003KT 8000 NSC 20/18 A2997 NOSIG=
201704271300 METAR MROC 271300Z VRB02KT 8000 NSC 22/19 A2999 NOSIG=
201704271400 METAR MROC 271400Z 12003KT 8000 NSC 24/20 A3001 BECMG 24007KT=
201704271500 METAR MROC 271500Z 24006KT 8000 FEW040 25/21 A3001 NOSIG=
201704271600 METAR MROC 271600Z 25005KT 8000 FEW040 27/21 A3000 NOSIG=
201704271700 METAR MROC 271700Z 24010KT 6000 FEW040 28/21 A2999 NOSIG=
201704271800 METAR MROC 271800Z 23010KT 5000 HZ FEW040 28/21 A2997 NOSIG=
201704271900 METAR MROC 271900Z 26015KT 6000 FEW040 28/22 A2994 NOSIG=
201704272000 METAR MROC 272000Z 25010KT 8000 FEW025 28/22 A2991 NOSIG=
201704272100 METAR MROC 272100Z 24012KT 8000 TS FEW010CB BKN030 28/23 A2989 BECMG 5000 -RA BR=
201704272200 METAR MROC 272200Z 27005KT 3000 TS RA FEW010CB BKN030 23/23 A2990 NOSIG=
201704272300 METAR MROC 272300Z 25005KT 2000 BR FEW001 SCT010 BKN030 23/23 A2990 NOSIG=
201704280000 METAR MROC 280000Z 24006KT 2000 BR SCT010 BKN020 23/22 A2993 NOSIG=
201704280100 METAR MROC 280100Z 27004KT 5000 BR FEW002 BKN030 22/21 A2999 NOSIG=
201704280200 METAR MROC 280200Z 28002KT 5000 BR FEW005 BKN030 22/21 A2996 NOSIG=
201704280300 METAR MROC 280300Z 00000KT 5000 BR FEW002 SCT010 BKN030 22/21 A2997 NOSIG=
201704280400 METAR MROC 280400Z 02003KT 9999 4000SW FEW002 SCT120 22/21 A2999 NOSIG=
201704280500 METAR MROC 280500Z 09006KT 9999 SCT100 21/19 A2998 NOSIG=
201704280600 METAR MROC 280600Z 07006KT CAVOK 21/17 A2995 NOSIG=
201704280700 METAR MROC 280700Z 07006KT CAVOK 21/17 A2994 NOSIG=
201704280800 METAR MROC 280800Z 07008KT CAVOK 21/16 A2993 NOSIG=
201704280900 METAR MROC 280900Z 09007KT CAVOK 21/16 A2994 NOSIG=
201704281000 METAR MROC 281000Z 07007KT CAVOK 21/16 A2994 NOSIG=
201704281100 METAR MROC 281100Z 04005KT CAVOK 20/17 A2997 NOSIG=
201704281200 METAR MROC 281200Z 07007KT CAVOK 21/17 A2996 NOSIG=
201704281300 METAR MROC 281300Z 06006KT CAVOK 22/17 A2998 NOSIG=
201704281400 METAR MROC 281400Z 12010KT CAVOK 24/18 A2997 NOSIG=
201704281500 METAR MROC 281500Z 13009KT CAVOK 27/18 A2997 NOSIG=
201704281600 METAR MROC 281600Z 13007KT CAVOK 30/18 A2997 NOSIG=
201704281700 METAR MROC 281700Z 12006KT 9999 FEW040 SCT200 31/19 A2995 NOSIG=
201704281800 METAR MROC 281800Z 25010KT 9999 FEW040 SCT200 29/22 A2994 NOSIG=
201704281900 METAR MROC 281900Z 25013KT 9999 SCT030 SCT200 29/22 A2992 NOSIG=
201704282000 METAR MROC 282000Z 25011KT 9999 SCT030 SCT200 28/23 A2991 NOSIG=
201704282100 METAR MROC 282100Z 23015KT 9999 4500N TSRA FEW015CB SCT030 SCT200 26/23 A2991 NOSIG=
201704282200 METAR MROC 282200Z 24009KT 5000 2000SW -TSRA BR FEW006 FEW015CB BKN030 24/23 A2992 NOSIG=
201704282300 METAR MROC 282300Z VRB02KT 9999 4500SW BCFG FEW008 SCT025 SCT200 23/22 A2994 RETSRA NOSIG=
201704290000 METAR MROC 290000Z 22004KT 5000 2000SW BR FEW006 SCT015 BKN030 23/22 A2996 NOSIG=
201704290100 METAR MROC 290100Z 30003KT 9999 VCFG FEW010 BKN040 23/22 A2998 NOSIG=
201704290200 METAR MROC 290200Z 01003KT 9999 FEW020 23/21 A3000 NOSIG=
201704290300 METAR MROC 290300Z 00000KT 9999 4500SW BCFG FEW010 SCT025 22/21 A3001 NOSIG=
201704290400 METAR MROC 290400Z 34004KT 8000 VCFG FEW010 SCT025 22/21 A3002 NOSIG=
201704290500 METAR MROC 290500Z 09003KT 5000 BR FEW010 21/21 A3002 NOSIG=
201704290600 METAR MROC 290600Z 05005KT 9999 FEW025 21/20 A3000 NOSIG=
201704290700 METAR MROC 290700Z 04005KT 9999 FEW025 21/19 A2999 NOSIG=
201704290800 METAR MROC 290800Z 07003KT CAVOK 21/19 A2998 NOSIG=
201704290900 METAR MROC 290900Z 03005KT 9999 FEW030 21/19 A2996 NOSIG=
201704291000 METAR MROC 291000Z 02004KT 9999 FEW030 20/18 A2998 NOSIG=
201704291100 METAR MROC 291100Z 06008KT 9999 FEW030 20/18 A2999 NOSIG=
201704291200 METAR MROC 291200Z 04006KT 9999 FEW030 SCT250 22/19 A2999 NOSIG=
201704291300 METAR MROC 291300Z 07005KT 9999 FEW030 BKN250 25/19 A3001 NOSIG=
201704291400 METAR MROC 291400Z 05003KT 9999 FEW035 BKN250 25/19 A3001 NOSIG=
201704291500 METAR MROC 291500Z 09012KT 9999 FEW045 BKN250 28/18 A3000 NOSIG=
201704291600 METAR MROC 291600Z 11012KT 9999 FEW040 BKN250 28/19 A2999 NOSIG=
201704291700 METAR MROC 291700Z 11010KT 9999 FEW035 SCT250 30/19 A2998 BECMG 20006KT=
201704291800 METAR MROC 291800Z 14007KT 9999 FEW035 SCT250 30/20 A2996 BECMG 24006KT=
201704291900 METAR MROC 291900Z 24013KT 9999 FEW020 SCT060 29/22 A2995 NOSIG=
201704292000 METAR MROC 292000Z 26010KT 9999 4500N -TSRA VCSH SCT020CB FEW025TCU 28/22 A2994 BECMG 5000=
201704292100 METAR MROC 292100Z 19010KT 8000 -RA SCT020 OVC100 22/21 A2995 NOSIG=
201704292200 METAR MROC 292200Z 33004KT 9999 SCT020 BKN120 22/21 A2996 NOSIG=
201704292300 METAR MROC 292300Z 00000KT 9999 SCT020 BKN100 22/21 A2999 BECMG 5000 BR=
201704300000 METAR MROC 300000Z 21005KT 9999 -RA SCT025 OVC100 22/21 A3001 NOSIG=
201704300100 METAR MROC 300100Z 02005KT 9999 FEW025 BKN100 22/21 A3002 NOSIG=
201704300200 METAR MROC 300200Z 24004KT CAVOK 21/20 A3004 NOSIG=
201704300300 METAR MROC 300300Z 00000KT CAVOK 21/20 A3005 NOSIG=
201704300400 METAR MROC 300400Z 07002KT CAVOK 21/20 A3005 NOSIG=
201704300500 METAR MROC 300500Z 04004KT CAVOK 21/20 A3005 NOSIG=
201704300600 METAR MROC 300600Z 03005KT CAVOK 21/20 A3004 NOSIG=
201704300700 METAR MROC 300700Z 07008KT CAVOK 21/19 A3000 NOSIG=
201704300800 METAR MROC 300800Z 08007KT CAVOK 20/18 A2997 NOSIG=
201704300900 METAR MROC 300900Z 11004KT CAVOK 21/18 A2995 NOSIG=
201704301000 METAR MROC 301000Z 07005KT CAVOK 21/18 A2997 NOSIG=
201704301100 METAR MROC 301100Z 11005KT CAVOK 20/18 A2997 NOSIG=
201704301200 METAR MROC 301200Z 05003KT CAVOK 20/17 A2999 NOSIG=
201704301300 METAR MROC 301300Z 07005KT CAVOK 24/19 A3002 NOSIG=
201704301400 METAR MROC 301400Z 11007KT CAVOK 25/19 A3003 NOSIG=
201704301500 METAR MROC 301500Z 10012G22KT CAVOK 27/19 A3001 NOSIG=
201704301600 METAR MROC 301600Z 11008KT CAVOK 28/19 A3001 NOSIG=
201704301700 METAR MROC 301700Z 15002KT CAVOK 29/19 A3001 BECMG 24006KT=
201704301800 METAR MROC 301800Z 23011KT 9999 SCT045 BKN200 28/22 A2999 NOSIG=
201704301900 METAR MROC 301900Z 24009KT 9999 FEW045 BKN200 27/22 A2997 NOSIG=
201704302000 METAR MROC 302000Z 24009KT 9999 SCT035 BKN200 28/22 A2996 NOSIG=
201704302100 METAR MROC 302100Z 25010KT 9999 SCT025TCU BKN220 27/22 A2995 NOSIG=
201704302200 METAR MROC 302200Z 26007KT 8000 -RA SCT020 OVC100 24/22 A2996 NOSIG=
201704302300 METAR MROC 302300Z 20003KT 5000 - TSRA BR SCT020 OVC100 22/21 A2998 BECMG 1000 BKN010=
201705010000 METAR MROC 010000Z 34004KT 8000 VCFG FEW010 SCT020 OVC100 22/21 A2999 NOSIG=
201705010100 METAR MROC 010100Z 00000KT 9999 SCT025 OVC100 23/21 A3001 NOSIG=
201705010200 METAR MROC 010200Z 23003KT 9999 FEW030 BKN100 22/21 A3003 NOSIG=
201705010300 METAR MROC 010300Z 25002KT 8000 VCFG FEW007 SCT030 OVC100 22/22 A3004 NOSIG=
201705010400 METAR MROC 010400Z 07003KT 9999 BCFG FEW004 SCT030 BKN100 22/22 A3005 NOSIG=
201705010500 METAR MROC 010500Z 00000KT 9999 BCFG FEW005 SCT030 22/21 A3005 NOSIG=
201705010600 METAR MROC 010600Z VRB02KT 5000 1500SW BR FEW002 BKN025 21/21 A3005 NOSIG=
201705010700 METAR MROC 010700Z 04004KT 8000 3000SW BCFG SCT002 BKN015 21/21 A3002 NOSIG=
201705010800 METAR MROC 010800Z 11003KT 9999 VCFG FEW010 SCT035 21/20 A3001 NOSIG=
201705010900 METAR MROC 010900Z 08003KT 9999 FEW010 SCT035 20/19 A3000 NOSIG=
201705011000 METAR MROC 011000Z 08003KT 9999 BKN040 20/19 A3002 NOSIG=
201705011100 METAR MROC 011100Z 09004KT 9999 FEW045 SCT250 19/18 A3002 NOSIG=
201705011200 METAR MROC 011200Z 07006KT CAVOK 20/18 A3002 NOSIG=
201705011300 METAR MROC 011300Z 08007KT CAVOK 22/18 A3003 NOSIG=
201705011400 METAR MROC 011400Z 04006KT CAVOK 26/19 A3003 NOSIG=
201705011500 METAR MROC 011500Z 09006KT 9999 FEW030 28/18 A3003 NOSIG=
201705011600 METAR MROC 011600Z 15005KT 9999 FEW040 29/18 A3002 BECMG 24006KT=
201705011700 METAR MROC 011700Z 25010KT 9999 FEW045 29/21 A3001 NOSIG=
201705011800 METAR MROC 011800Z 24010KT 9999 FEW045 28/22 A2998 NOSIG=
201705011900 METAR MROC 011900Z 24014KT 9999 FEW045 28/22 A2996 NOSIG=
201705012000 METAR MROC 012000Z COR 25013KT 9999 2500SW SHRA VCTS FEW020CB BKN030 25/22 A2996 BECMG 5000 TSRA FEW015CB=
201705012020 METAR MROC 012020Z 35010G21KT 5000 TSRA SCT015CB BKN030 23/20 A2996 BECMG 3000=
201705012035 METAR MROC 012035Z 02010G20KT 0500 +TSRA FEW005 SCT010CB BKN020 21/19 A2997 NOSIG=
201705012100 METAR MROC 012100Z 23007KT 3000 TSRA SCT015CB BKN030 20/19 A2995 NOSIG=
201705012110 METAR MROC 012110Z COR 13006KT 9999 4000SW -TSRA FEW015CB SCT035 BKN120 19/17 A2994 NOSIG=
201705012200 METAR MROC 012200Z 09004KT 9999 FEW035 SCT120 BKN200 20/19 A2996 NOSIG=
201705012300 METAR MROC 012300Z VRB02KT 8000 VCFG FEW020 SCT060 BKN100 21/20 A2997 NOSIG=
201705012356 METAR MROC 020000Z 03003KT 8000 VCFG SCT040 BKN100 23/21 A2998 NOSIG=
201705020000 METAR MROC 020000Z 03003KT 8000 VCFG SCT040 BKN100 23/21 A2998 NOSIG=
201705020100 METAR MROC 020100Z 20004KT 9999 FEW040 BKN100 22/21 A2999 NOSIG=
201705020200 METAR MROC 020200Z 31003KT 9999 FEW040 22/21 A3001 NOSIG=
201705020300 METAR MROC 020300Z 00000KT 9999 BKN040 21/21 A3003 NOSIG=
201705020400 METAR MROC 020400Z 05004KT CAVOK 21/20 A3002 NOSIG=
201705020500 METAR MROC 020500Z 04004KT CAVOK 21/20 A3001 NOSIG=
201705020600 METAR MROC 020600Z 03003KT CAVOK 21/19 A3000 NOSIG=
201705020700 METAR MROC 020700Z 02005KT CAVOK 20/19 A2999 NOSIG=
201705020800 METAR MROC 020800Z 04004KT CAVOK 20/19 A2997 NOSIG=
201705020900 METAR MROC 020900Z 04006KT CAVOK 20/18 A2997 NOSIG=
201705021000 METAR MROC 021000Z 05005KT CAVOK 21/18 A2997 NOSIG=
201705021100 METAR MROC 021100Z 08007KT CAVOK 21/17 A2998 NOSIG=
201705021200 METAR MROC 021200Z 09004KT 9999 FEW035 SCT120 21/18 A2999 NOSIG=
201705021300 METAR MROC 021300Z VRB03KT 9999 FEW040 SCT060 BKN200 23/19 A3005 NOSIG=
201705021400 METAR MROC 021400Z 27004KT 9999 FEW040 SCT060 BKN200 23/20 A3007 NOSIG=
201705021500 METAR MROC 021500Z 26005KT 9999 FEW040 SCT060 BKN120 23/20 A3008 NOSIG=
201705021600 METAR MROC 021600Z 25007KT 9999 FEW040 SCT060 BKN120 24/20 A3008 NOSIG=
201705021700 METAR MROC 021700Z 28003KT 9999 FEW040 SCT060 BKN120 25/21 A3005 NOSIG=
201705021800 METAR MROC 021800Z 27003KT 9999 FEW040 SCT120 BKN200 27/21 A3002 NOSIG=
201705021900 METAR MROC 021900Z 12006KT 9999 FEW040 SCT120 BKN200 28/19 A2998 NOSIG=
201705022000 METAR MROC 022000Z 11008KT 9999 FEW040 SCT120 BKN200 27/19 A2996 NOSIG=
201705022100 METAR MROC 022100Z 11010KT 9999 FEW040 BKN200 26/18 A2994 NOSIG=
201705022200 METAR MROC 022200Z 11011KT CAVOK 25/18 A2992 NOSIG=
201705022300 METAR MROC 022300Z 10006KT CAVOK 25/18 A2993 NOSIG=
201705030000 METAR MROC 030000Z 25006KT 9999 3000SW FEW001 BKN170 23/22 A2994 NOSIG=
201705030100 METAR MROC 030100Z 26006KT 1000 BR FEW001 BKN005 22/22 A2998 NOSIG=
201705030200 METAR MROC 030200Z 28003KT 8000 BCFG SCT005 BKN030 22/22 A2999 NOSIG=
201705030300 METAR MROC 030300Z 00000KT 8000 BCFG FEW005 BKN030 22/21 A3000 NOSIG=
201705030400 METAR MROC 030400Z 00003KT 9999 FEW010 BKN140 22/21 A3002 NOSIG=
201705030500 METAR MROC 030500Z 03003KT CAVOK 22/20 A2999 NOSIG=
201705030600 METAR MROC 030600Z 06004KT CAVOK 21/18 A2998 NOSIG=
201705030700 METAR MROC 030700Z 07003KT CAVOK 20/17 A2996 NOSIG=
201705030800 METAR MROC 030800Z 05004KT CAVOK 20/17 A2996 NOSIG=
201705030900 METAR MROC 030900Z 02005KT CAVOK 20/18 A2997 NOSIG=
201705031000 METAR MROC 031000Z 06007KT CAVOK 19/17 A2996 NOSIG=
201705031100 METAR MROC 031100Z 05009KT CAVOK 20/17 A2996 NOSIG=
201705031200 METAR MROC 031200Z 08007KT CAVOK 21/17 A2999 NOSIG=
201705031300 METAR MROC 031300Z 07004KT CAVOK 24/18 A3001 NOSIG=
201705031400 METAR MROC 031400Z 09009KT CAVOK 26/18 A3000 NOSIG=
201705031500 METAR MROC 031500Z 10007KT CAVOK 27/18 A3001 NOSIG=
201705031600 METAR MROC 031600Z 24008KT 9999 FEW040 FEW200 27/19 A3002 NOSIG=
201705031700 METAR MROC 031700Z 27007KT 9999 FEW040 28/21 A3000 NOSIG=
201705031800 METAR MROC 031800Z 23008KT 9999 SCT040 28/21 A2997 NOSIG=
201705031900 METAR MROC 031900Z 24009KT 9999 SCT040 BKN120 28/21 A2994 NOSIG=
201705032000 METAR MROC 032000Z 06012G28KT 2000 TS RA FEW010CB SCT030 BKN100 22/20 A2993 NOSIG=
201705032100 METAR MROC 032100Z 12003KT 9999 4200SW VCTS VCSH FEW010CB SCT025 BKN130 22/20 A2993 RETSRA NOSIG=
201705032200 METAR MROC 032200Z 22003KT 9999 SCT030 BKN130 22/20 A2993 NOSIG=
201705032300 METAR MROC 032300Z VRB02KT 9999 4800SW BCFG FEW006 SCT030 BKN130 22/21 A2995 NOSIG=
201705040000 METAR MROC 040000Z 00000KT 9999 -DZ VCFG FEW010 BKN045 22/20 A2997 NOSIG=
201705040100 METAR MROC 040100Z 00000KT 9999 FEW015 BKN060 22/21 A2997 NOSIG=
201705040200 METAR MROC 040200Z 00000KT 9999 VCFG FEW007 BKN060 22/21 A2999 NOSIG=
201705040300 METAR MROC 040300Z 27004KT 9999 4200SW BCFG FEW004 SCT040 BKN200 21/21 A3000 NOSIG=
201705040400 METAR MROC 040400Z 36004KT 9999 BCFG FEW040 21/21 A3000 NOSIG=
201705040500 METAR MROC 040500Z 06004KT 9999 BCFG FEW040 21/20 A2998 NOSIG=
201705040600 METAR MROC 040600Z 07005KT CAVOK 20/19 A2996 NOSIG=
201705040700 METAR MROC 040700Z 05007KT CAVOK 21/18 A2994 NOSIG=
201705040800 METAR MROC 040800Z 06006KT CAVOK 21/18 A2993 NOSIG=
201705040900 METAR MROC 040900Z 07009KT CAVOK 20/17 A2993 NOSIG=
201705041000 METAR MROC 041000Z 07003KT CAVOK 20/17 A2993 NOSIG=
201705041100 METAR MROC 041100Z 08005KT CAVOK 20/17 A2993 NOSIG=
201705041200 METAR MROC 041200Z 08004KT CAVOK 20/17 A2996 NOSIG=
201705041300 METAR MROC 041300Z 06006KT CAVOK 24/18 A2999 NOSIG=
201705041400 METAR MROC 041400Z 02004KT CAVOK 25/18 A2999 NOSIG=
201705041500 METAR MROC 041500Z 26005KT 9999 FEW045 26/20 A2999 NOSIG=
201705041600 METAR MROC 041600Z 25007KT 9999 FEW040 SCT250 27/21 A2998 NOSIG=
201705041700 METAR MROC 041700Z 26010KT 9999 FEW025 SCT250 27/22 A2997 NOSIG=
201705041800 METAR MROC 041800Z 25010KT 9999 FEW020TCU SCT040 28/22 A2996 BECMG 5000 TSRA SCT020CB=
201705041900 METAR MROC 041900Z 25010KT 9999 VCTS FEW015CB SCT035 26/22 A2993 BECMG 5000 TSRA SCT015CB=
201705042000 METAR MROC 042000Z 24011KT 9999 4000S SHRA VCTS FEW015CB SCT035 BKN140 25/21 A2991 NOSIG=
201705042100 METAR MROC 042100Z 21003KT 9999 -RA VCTS SCT025TCU OVC120 23/22 A2991 NOSIG=
201705042200 METAR MROC 042200Z 26008KT 9999 -RA SCT025 OVC120 22/21 A2991 NOSIG=
201705042300 METAR MROC 042300Z 27007KT 9999 -RA SCT025 OVC120 22/20 A2992 NOSIG=
201705050000 METAR MROC 050000Z 31003KT 9999 SCT020 OVC120 22/21 A2994 NOSIG=
201705050100 METAR MROC 050100Z 21002KT 9999 SCT020 OVC120 22/21 A2997 NOSIG=
201705050200 METAR MROC 050200Z 20002KT 8000 VCFG FEW010 OVC120 22/21 A3000 NOSIG=
201705050300 METAR MROC 050300Z 12002KT 8000 -RA VCFG FEW008 SCT020 OVC120 22/21 A3002 NOSIG=
201705050400 METAR MROC 050400Z 07005KT 9999 SCT040 BKN100 20/19 A3002 NOSIG=
201705050500 METAR MROC 050500Z 05005KT 9999 CAVOK 21/19 A3000 NOSIG=
201705050600 METAR MROC 050600Z 11007KT CAVOK 20/18 A2996 NOSIG=
201705050700 METAR MROC 050700Z 09005KT CAVOK 21/18 A2992 NOSIG=
201705050800 METAR MROC 050800Z 00000KT CAVOK 20/18 A2993 NOSIG=
201705050900 METAR MROC 050900Z 30002KT CAVOK 20/19 A2993 NOSIG=
201705051000 METAR MROC 051000Z 08005KT CAVOK 20/19 A2994 NOSIG=
201705051100 METAR MROC 051100Z 11006KT CAVOK 20/18 A2993 NOSIG=
201705051200 METAR MROC 051200Z 06004KT CAVOK 21/18 A2995 NOSIG=
201705051300 METAR MROC 051300Z 08004KT CAVOK 24/19 A2995 NOSIG=
201705051400 METAR MROC 051400Z 12003KT CAVOK 25/19 A2998 BECMG 24006KT=
201705051500 METAR MROC 051500Z 25008KT 9999 FEW045 25/21 A2999 NOSIG=
201705051600 METAR MROC 051600Z 24008KT 9999 FEW045 BKN200 24/21 A3000 NOSIG=
201705051700 METAR MROC 051700Z 25007KT 9999 FEW020 BKN200 25/21 A2999 NOSIG=
201705051800 METAR MROC 051800Z 26008KT 9999 FEW020TCU SCT030 BKN200 25/22 A2997 BECMG SHRA=
201705051900 METAR MROC 051900Z 26008KT 9999 4000SW FEW001 FEW020TCU SCT200 25/21 A2997 BECMG SHRA=
201705052000 METAR MROC 052000Z 25009KT 9999 4000SW -TS FEW001 FEW010CB SCT020 25/21 A2993 BECMG 5000 TSRA=
201705052100 METAR MROC 052100Z 24004KT 8000 2500SW VCSH FEW010 SCT020TCU BKN040 25/21 A2991 BECMG 5000 TSRA=
201705052200 METAR MROC 052200Z 18002KT 9000 2500SW FEW025 SCT040 BKN090 25/21 A2991 NOSIG=
201705052300 METAR MROC 052300Z 10006KT 9999 3000SW FEW030 SCT040 BKN140 24/20 A2993 NOSIG=
201705060000 METAR MROC 060000Z COR 10011G21KT 9999 VCSH FEW045 SCT060 BKN120 23/19 A2995 NOSIG=
201705060100 METAR MROC 060100Z 10011KT 9999 -DZ BKN040 22/20 A2998 NOSIG=
201705060200 METAR MROC 060200Z 09008KT 9999 -RA SCT040 BKN100 21/19 A3001 NOSIG=
201705060300 METAR MROC 060300Z 08007KT CAVOK 22/19 A3002 NOSIG=
201705060400 METAR MROC 060400Z 18004KT CAVOK 22/18 A3004 NOSIG=
201705060500 METAR MROC 060500Z 02003KT CAVOK 21/20 A3003 NOSIG=
201705060600 METAR MROC 060600Z 00000KT 9999 -DZ FEW010 BKN120 21/19 A2999 NOSIG=
201705060700 METAR MROC 060700Z 10003KT 9999 FEW040 BKN100 21/20 A2997 NOSIG=
201705060800 METAR MROC 060800Z 07003KT CAVOK 20/19 A2995 NOSIG=
201705060900 METAR MROC 060900Z 04004KT CAVOK 20/18 A2993 NOSIG=
201705061000 METAR MROC 061000Z COR 06004KT CAVOK 19/18 A2994 NOSIG=
201705061100 METAR MROC 061100Z 06005KT CAVOK 18/17 A2997 NOSIG=
201705061200 METAR MROC 061200Z 08003KT CAVOK 20/17 A2999 NOSIG=
201705061300 METAR MROC 061300Z 07004KT CAVOK 22/18 A3002 NOSIG=
201705061400 METAR MROC 061400Z 00000KT CAVOK 22/19 A3003 BECMG 24006KT=
201705061500 METAR MROC 061500Z 26003KT 9999 FEW025 BKN100 23/20 A3004 NOSIG=
201705061600 METAR MROC 061600Z 25006KT 9999 FEW045 BKN200 25/20 A3003 NOSIG=
201705061700 METAR MROC 061700Z 26007KT 9999 FEW045 BKN250 26/21 A3002 NOSIG=
201705061800 METAR MROC 061800Z 25008KT 9999 SCT035 BKN300 27/20 A3000 NOSIG=
201705061900 METAR MROC 061900Z 24011KT 9999 BKN030 27/21 A2997 NOSIG=
201705062000 METAR MROC 062000Z 23009KT 9999 SHRA FEW020TCU FEW035 BKN060 25/21 A2995 NOSIG=
201705062010 METAR MROC 062010Z 24007KT 9999 -TSRA FEW015CB FEW035 BKN060 24/22 A2994 BECMG 5000=
201705062100 METAR MROC 062100Z 27007KT 9999 VCTS VCSH FEW015CB SCT030 BKN060 23/21 A2994 BECMG 5000=
201705062200 METAR MROC 062200Z 22010G20KT 5000 +SHRA FEW005 SCT015 BKN030 22/20 A2995 NOSIG=
201705062248 METAR MROC 062248Z COR 32008KT 2000 RA BR FEW005 SCT010 BKN030 21/20 A2998 RESH NOSIG=
201705062300 METAR MROC 062300Z 27011KT 2000 RA BR FEW005 SCT010 BKN030 20/20 A2998 NOSIG=
201705062340 METAR MROC 062340Z 29005KT 5000 2000SW -RA BR FEW005 SCT010 BKN030 20/19 A2999 NOSIG=
201705062357 METAR MROC 070000Z 31004KT 5000 2000SW -RA BR FEW005 SCT030 BKN100 20/19 A3000 NOSIG=
201705070000 METAR MROC 070000Z 31004KT 5000 2000SW -RA BR FEW005 SCT030 BKN100 20/19 A3000 NOSIG=
201705070100 METAR MROC 070100Z 34010KT 5000 2000SW RA BR FEW005 SCT030 BKN100 20/19 A3003 NOSIG=
201705070200 METAR MROC 070200Z 35005KT 8000 3000SW -RA VCFG FEW005 SCT030 BKN100 20/19 A3004 NOSIG=
201705070300 METAR MROC 070300Z 11003KT 9999 -RA FEW030 BKN100 20/19 A3005 NOSIG=
201705070400 METAR MROC 070400Z 07005KT 9999 -DZ FEW030 BKN100 20/19 A3006 NOSIG=
201705070500 METAR MROC 070500Z 02005KT CAVOK 20/19 A3005 NOSIG=
201705070600 METAR MROC 070600Z VRB02KT CAVOK 20/19 A3003 NOSIG=
201705070700 METAR MROC 070700Z 00000KT 9999 BCFG FEW015 SCT120 20/19 A3000 NOSIG=
201705070800 METAR MROC 070800Z 10002KT CAVOK 20/19 A2998 NOSIG=
201705070900 METAR MROC 070900Z 07004KT CAVOK 19/18 A2995 NOSIG=
201705071000 METAR MROC 071000Z 08005KT CAVOK 19/18 A2995 NOSIG=
201705071100 METAR MROC 071100Z 03004KT CAVOK 19/18 A2997 NOSIG=
201705071200 METAR MROC 071200Z 00000KT CAVOK 19/18 A3000 NOSIG=
201705071300 METAR MROC 071300Z 05004KT CAVOK 22/19 A3004 NOSIG=
201705071400 METAR MROC 071400Z 07004KT CAVOK 25/19 A3005 NOSIG=
201705071500 METAR MROC 071500Z 09004KT CAVOK 27/18 A3005 NOSIG=
201705071600 METAR MROC 071600Z 13006KT 9999 FEW040 SCT150 BKN250 27/18 A3005 BECMG 24008KT=
201705071700 METAR MROC 071700Z 22007KT 9999 SCT040 SCT250 28/19 A3003 NOSIG=
201705071800 METAR MROC 071800Z 24011KT 9999 FEW025TCU SCT035 BKN060 27/22 A3000 NOSIG=
201705071900 METAR MROC 071900Z 22011KT 9999 4000N -TSRA FEW015CB SCT020TCU BKN060 24/21 A2995 BECMG 5000=
201705072000 METAR MROC 072000Z 26004KT 9999 4000N -TSRA FEW015CB SCT020 BKN060 23/20 A2995 NOSIG=
201705072100 METAR MROC 072100Z 27004KT 9999 SCT030 OVC100 21/20 A2995 NOSIG=
201705072200 METAR MROC 072200Z 00000KT 8000 -RA FEW005 SCT030 OVC100 21/20 A2995 NOSIG=
201705072300 METAR MROC 072300Z 10002KT 9999 -RA FEW005 SCT030 OVC100 21/20 A2994 NOSIG=
201705080000 METAR MROC 080000Z 06004KT 9999 -RA FEW030 OVC100 21/20 A2998 NOSIG=
201705080100 METAR MROC 080100Z 07005KT 9999 -RA OVC100 21/19 A2999 NOSIG=
201705080200 METAR MROC 080200Z 08003KT 9999 -RA OVC100 20/20 A3001 NOSIG=
201705080300 METAR MROC 080300Z 05003KT CAVOK 21/20 A3003 NOSIG=
201705080400 METAR MROC 080400Z 26002KT 9999 BCFG FEW025 BKN120 20/20 A3003 BECMG 05005KT=
201705080500 METAR MROC 080500Z 00000KT 9999 BCFG FEW025 BKN120 20/20 A3003 NOSIG=
201705080600 METAR MROC 080600Z 03003KT 9999 BCFG FEW025 BKN090 20/20 A3001 NOSIG=
201705080700 METAR MROC 080700Z 05002KT 9999 FEW025 BKN150 20/19 A2998 NOSIG=
201705080800 METAR MROC 080800Z 00000KT 9999 FEW035 BKN200 20/19 A2996 NOSIG=
201705080900 METAR MROC 080900Z 04003KT CAVOK 20/19 A2995 NOSIG=
201705081000 METAR MROC 081000Z 11003KT 9999 FEW020 BKN100 19/19 A2996 NOSIG=
201705081100 METAR MROC 081100Z 06003KT CAVOK 20/19 A2998 NOSIG=
201705081200 METAR MROC 081200Z 06004KT 9999 BCFG NSC 20/19 A2999 NOSIG=
201705081300 METAR MROC 081300Z 04005KT CAVOK 21/20 A3001 NOSIG=
201705081400 METAR MROC 081400Z 05004KT CAVOK 24/19 A3000 NOSIG=
201705081500 METAR MROC 081500Z 20006KT CAVOK 25/21 A3001 NOSIG=
201705081600 METAR MROC 081600Z 26008KT 9999 FEW030 SCT120 26/21 A3001 NOSIG=
201705081700 METAR MROC 081700Z 25008KT 9999 SCT030 27/21 A3001 NOSIG=
201705081800 METAR MROC 081800Z 25011KT 9999 SCT030 27/22 A2998 NOSIG=
201705081900 METAR MROC 081900Z 25010KT 9999 FEW010 BKN030 26/22 A2993 NOSIG=
201705082000 METAR MROC 082000Z 26009KT 9999 FEW010CB BKN030 24/21 A2992 NOSIG=
201705082100 METAR MROC 082100Z 25010KT 9999 4000SW RA VCTS FEW007 SCT010CB BKN030 22/20 A2990 NOSIG=
201705082200 METAR MROC NIL=
201705082300 METAR MROC NIL=
201705090000 METAR MROC NIL=
201705090100 METAR MROC 090100Z 30003KT 8000 3800SW -RA VCFG FEW008 BKN020 21/20 A2998 NOSIG=
201705090200 METAR MROC 090200Z 00000KT 9999 FEW008 BKN025 21/20 A3000 NOSIG=
201705090300 METAR MROC 090300Z 00000KT 9999 -DZ SCT020 BKN100 21/20 A3001 NOSIG=
201705090400 METAR MROC 090400Z 13003KT 9999 BCFG FEW030 BKN100 21/20 A3003 NOSIG=
201705090500 METAR MROC 090500Z 31003KT 9999 3000SW BCFG FEW002 SCT030 BKN100 21/20 A3003 NOSIG=
201705090530 METAR MROC 090530Z VRB02KT 3500 1500SW BR FEW002 SCT010 BKN030 21/20 A3003 NOSIG=
201705090600 METAR MROC 090600Z VRB02KT 1500 BR SCT002 BKN010 20/20 A3002 NOSIG=
201705090610 METAR MROC 090610Z VRB03KT 0800 FG SCT002 BKN010 20/20 A3001 NOSIG=
201705090627 METAR MROC 090627Z VRB03KT 1500 BR FEW002 SCT010 BKN030 20/20 A3001 NOSIG=
201705090700 METAR MROC 090700Z 26003KT 2000 BR FEW002 SCT010 BKN030 20/20 A3000 NOSIG=
201705090800 METAR MROC 090800Z 30003KT 0600 -RA FG FEW002 SCT010 BKN030 20/20 A2998 NOSIG=
201705090820 METAR MROC 090820Z 33003KT 5000 -RA BR FEW005 SCT030 BKN100 20/20 A2997 NOSIG=
201705090900 METAR MROC 090900Z 35003KT 9999 BCFG SCT010 BKN100 20/20 A2997 NOSIG=
201705091000 METAR MROC 091000Z 04003KT 9999 BCFG FEW010 BKN100 20/19 A2996 NOSIG=
201705091100 METAR MROC 091100Z 11003KT 9999 BCFG FEW010 SCT100 20/19 A2995 NOSIG=
201705091200 METAR MROC 091200Z 09005KT CAVOK 20/19 A2998 NOSIG=
201705091300 METAR MROC 091300Z 08005KT CAVOK 22/20 A3002 NOSIG=
201705091400 METAR MROC 091400Z 23005KT 9999 FEW035 BKN200 23/21 A3003 NOSIG=
201705091500 METAR MROC 091500Z 25003KT 9999 FEW030 BKN200 24/21 A3006 NOSIG=
201705091600 METAR MROC 091600Z 24007KT 9999 FEW025 BKN200 26/21 A3006 NOSIG=
201705091700 METAR MROC 091700Z 25009KT 9999 FEW020TCU SCT035 26/21 A3004 NOSIG=
201705091800 METAR MROC 091800Z 24008KT 9999 FEW020TCU SCT100 26/21 A3003 BECMG 5000 TSRA=
201705091900 METAR MROC 091900Z 25008KT 9999 FEW025 SCT100 25/21 A3000 NOSIG=
201705092000 METAR MROC 092000Z 26006KT 9999 FEW025 SCT100 27/20 A2999 NOSIG=
201705092100 METAR MROC 092100Z 24008KT 9999 SCT030 SCT250 26/21 A2996 NOSIG=
201705092200 METAR MROC 092200Z 25010KT 9999 SCT030 BKN130 24/21 A2994 NOSIG=
201705092300 METAR MROC 092300Z 25008KT 9999 FEW015 SCT025 BKN110 23/21 A2995 NOSIG=
201705100000 METAR MROC 100000Z 24007KT 9999 -RA SCT025 BKN110 22/21 A2998 NOSIG=
201705100100 METAR MROC 100100Z 24007KT 9999 -RA SCT025 BKN100 21/21 A3001 NOSIG=
201705100200 METAR MROC 100200Z 25002KT 9999 -RA FEW006 SCT025 OVC100 21/20 A3005 NOSIG=
201705100300 METAR MROC 100300Z 13002KT 9999 FEW007 SCT025 OVC100 21/20 A3007 NOSIG=
201705100400 METAR MROC 100400Z 06004KT 9999 RA OVC100 21/20 A3009 NOSIG=
201705100500 METAR MROC 100500Z 10004KT 9999 -RA OVC100 20/20 A3007 NOSIG=
201705100600 METAR MROC 100600Z 11007KT 9999 -RA OVC100 20/19 A3004 NOSIG=
201705100700 METAR MROC 100700Z 08006KT 9999 -RA OVC100 20/19 A3001 NOSIG=
201705100800 METAR MROC 100800Z 07005KT CAVOK 20/19 A2998 NOSIG=
201705100900 METAR MROC 100900Z 00000KT CAVOK 19/18 A2997 NOSIG=
201705101000 METAR MROC 101000Z 09003KT CAVOK 19/18 A2997 NOSIG=
201705101100 METAR MROC 101100Z 07004KT CAVOK 18/17 A2998 NOSIG=
201705101200 METAR MROC 101200Z 08005KT CAVOK 19/17 A3001 NOSIG=
201705101300 METAR MROC 101300Z 08005KT CAVOK 22/18 A3003 NOSIG=
201705101400 METAR MROC 101400Z 00000KT CAVOK 25/19 A3005 BECMG 24007KT=
201705101500 METAR MROC 101500Z 02002KT CAVOK 26/20 A3005 NOSIG=
201705101600 METAR MROC 101600Z 26004KT CAVOK 28/20 A3005 NOSIG=
201705101700 METAR MROC 101700Z 25007KT 9999 FEW035 SCT250 28/21 A3004 NOSIG=
201705101800 METAR MROC 101800Z 25008KT 9999 SCT030 BKN120 27/21 A3002 NOSIG=
201705101900 METAR MROC 101900Z 25009KT 9999 SCT030 BKN120 26/22 A3001 NOSIG=
201705102000 METAR MROC 102000Z 24010KT 9999 -RA VCTS SCT020 OVC100 24/23 A2998 BECMG 5000 -TSRA=
201705102100 METAR MROC 102100Z 21005KT 3000 TSRA FEW010CB SCT015 BKN100 23/22 A2997 BECMG 1200 BKN010=
201705102200 METAR MROC 102200Z 20002KT 2000 SHRA SCT005 BKN025 23/22 A2998 NOSIG=
201705102300 METAR MROC 102300Z 25004KT 5000 2000SW BCFG SCT035 BKN120 22/21 A2998 NOSIG=
201705110000 METAR MROC 110000Z 24003KT 0500 FG VV/// 22/21 A3001 NOSIG=
201705110100 METAR MROC 110100Z 00000KT 5000 2000SW BCFG BKN010 21/21 A3002 NOSIG=
201705110200 METAR MROC 110200Z 00000KT 4500 2000SW BR SCT001 SCT020 21/21 A3004 NOSIG=
201705110300 MROC 110300Z 09005KT 9999 FEW045 21/20 A3006 NOSIG=
201705110400 METAR MROC 110400Z 08005KT 9999 FEW040 21/19 A3007 NOSIG=
201705110500 METAR MROC 110500Z VRB02KT CAVOK 21/19 A3008 NOSIG=
201705110600 METAR MROC 110600Z 25003KT CAVOK 21/20 A3006 NOSIG=
201705110700 METAR MROC 110700Z 00000KT 9999 -RA FEW007 BKN140 21/20 A3005 NOSIG=
201705110800 METAR MROC 110800Z 09003KT 9999 FEW015 BKN160 20/20 A3001 NOSIG=
201705110900 METAR MROC 110900Z 08003KT CAVOK 20/19 A2998 NOSIG=
201705111000 METAR MROC 111000Z 09004KT 9999 FEW040 BKN200 20/19 A2999 NOSIG=
201705111100 METAR MROC 111100Z 03003KT 9999 FEW040 BKN250 19/19 A2999 NOSIG=
201705111200 METAR MROC 111200Z 03004KT 9999 FEW045 BKN250 20/19 A3000 NOSIG=
201705111300 METAR MROC 111300Z 00000KT CAVOK 21/19 A3002 NOSIG=
201705111400 METAR MROC 111400Z 23004KT 9999 FEW035 BKN100 23/21 A3003 NOSIG=
201705111500 METAR MROC 111500Z 25006KT 9999 FEW025 BKN050 24/21 A3004 NOSIG=
201705111600 METAR MROC 111600Z 25007KT 9999 BKN030 25/22 A3005 NOSIG=
201705111700 METAR MROC 111700Z 27008KT 9999 SCT030 SCT100 25/21 A3005 NOSIG=
201705111800 METAR MROC 111800Z 23008KT 9999 SCT030 SCT200 26/22 A3004 NOSIG=
201705111900 METAR MROC 111900Z 23010KT 9999 FEW030 BKN120 27/21 A3001 NOSIG=
201705112000 MROC 112000Z 23009KT 9999 SHRA FEW035 BKN120 26/21 A2998 NOSIG=
201705112100 METAR MROC 112100Z 27007KT 9999 2000SW -RA VCTS FEW010CB SCT030 BKN100 24/22 A2996 RESH NOSIG=
201705112200 METAR MROC 112200Z 26007KT 2000 RA BR FEW005 SCT010 BKN100 23/22 A2995 NOSIG=
201705112214 METAR MROC 112214Z 30005KT 1200 +RA BR FEW005 SCT010 BKN040 23/22 A2996 NOSIG=
201705112300 METAR MROC 112300Z 30004KT 5000 -RA BR FEW005 SCT040 BKN100 22/22 A2997 NOSIG=
201705112356 METAR MROC 120000Z 30003KT 9999 3000SW BCFG FEW005 SCT010 BKN025 22/22 A2998 NOSIG=
201705120000 METAR MROC 120000Z 30003KT 9999 3000SW BCFG FEW005 SCT010 BKN025 22/22 A2998 NOSIG=
201705120100 METAR MROC 120100Z VRB02KT 9999 BCFG SCT010 BKN035 22/21 A3000 NOSIG=
201705120200 METAR MROC 120200Z 26003KT 5000 BR FEW005 SCT010 BKN035 22/21 A3001 NOSIG=
201705120300 METAR MROC 120300Z VRB02KT 5000 BR FEW002 SCT005 BKN010 22/21 A3002 NOSIG=
201705120400 METAR MROC 120400Z 20002KT 9999 FEW010 BKN120 22/21 A3004 NOSIG=
201705120500 METAR MROC 120500Z 02003KT CAVOK 21/21 A3001 NOSIG=
201705120545 METAR MROC 120545Z 23004KT 0500 FG VV/// 22/21 A3003 NOSIG=
201705120600 METAR MROC 120600Z 25003KT 1500 BR SCT001 BKN010 21/21 A3002 NOSIG=
201705120700 METAR MROC 120700Z VRB02KT 5000 BR SCT002 BKN015 21/21 A3001 NOSIG=
201705120800 METAR MROC 120800Z VRB02KT 5000 BR FEW001 SCT010 21/21 A2998 NOSIG=
201705120843 METAR MROC 120843Z 31002KT 1200 BR VV/// 21/21 A2998 NOSIG=
201705120900 METAR MROC 120900Z VRB02KT 2000 BR VV002 21/20 A2998 NOSIG=
201705121000 METAR MROC 121000Z 00000KT 5000 BR FEW010 BKN120 20/20 A2997 NOSIG=
201705121100 METAR MROC 121100Z 00000KT 8000 VCFG FEW008 BKN120 20/20 A2999 NOSIG=
201705121200 METAR MROC 121200Z 09002KT 9999 FEW010 BKN120 20/20 A3000 NOSIG=
201705121300 METAR MROC 121300Z 26002KT 9999 BCFG FEW010 SCT100 BKN180 21/20 A3002 NOSIG=
201705121400 METAR MROC 121400Z 26004KT 8000 VCFG FEW010 SCT100 BKN180 23/21 A3004 NOSIG=
201705121500 METAR MROC 121500Z VRB02KT 8000 VCFG FEW010 SCT100 BKN180 24/21 A3005 NOSIG=
201705121600 METAR MROC 121600Z VRB02KT 9999 FEW025 BKN120 25/21 A3004 NOSIG=
201705121700 METAR MROC 121700Z 27006KT 9999 FEW035 BKN120 26/21 A3003 NOSIG=
201705121800 METAR MROC 121800Z 25009KT 9999 FEW010 SCT035 BKN120 25/22 A3002 NOSIG=
201705121836 METAR MROC 121836Z 25011KT 5000 2000SW -RA BR FEW005 SCT010 BKN035 23/22 A3000 NOSIG=
201705121900 METAR MROC 121900Z 23009KT 8000 2000SW VCFG FEW005 SCT010 BKN035 23/22 A3000 NOSIG=
201705122000 METAR MROC 122000Z 26009KT 8000 2000SW -TSRA FEW005 FEW010CB SCT015 BKN035 23/22 A2999 BECMG 5000=
201705122100 METAR MROC 122100Z COR 25004KT 5000 -RA BR FEW001 BKN030 22/21 A2998 NOSIG=
201705122200 METAR MROC 122200Z COR 28002KT 5000 -RA BR FEW001 BKN030 22/21 A2997 NOSIG=
201705122300 METAR MROC 122300Z 35002KT 8000 -RA FEW001 SCT030 BKN100 22/21 A2997 NOSIG=
201705130000 METAR MROC 130000Z 29002KT 5000 FEW002 SCT020 BKN100 22/21 A2999 NOSIG=
201705130100 METAR MROC 130100Z 00000KT 8000 VCFG FEW010 BKN100 22/21 A3000 NOSIG=
201705130200 METAR MROC 130200Z 00000KT 5000 FEW001 BKN100 22/21 A3001 NOSIG=
201705130300 METAR MROC 130300Z 02002KT 8000 VCFG FEW005 BKN100 22/21 A3002 NOSIG=
201705130345 METAR MROC 130345Z 26005KT 1500 BR SCT002 BKN100 21/21 A3003 NOSIG=
201705130400 METAR MROC 130400Z 27004KT 0100 FG VV/// 21/21 A3004 NOSIG=
201705130500 METAR MROC 130500Z 29003KT 1500 -DZ BR BKN005 21/21 A3003 BECMG 0500 FG=
201705130600 METAR MROC 130600Z 28003KT 1500 BR BKN006 21/21 A3002 NOSIG=
201705130700 METAR MROC 130700Z 00000KT 9999 2500SW BKN020 21/21 A3000 NOSIG=
201705130800 METAR MROC 130800Z 33004KT 9999 2000SW BCFG BKN030 21/21 A2998 NOSIG=
201705130900 METAR MROC 130900Z 35003KT 4000 1500SW -DZ BR BCFG FEW005 BKN020 21/21 A2997 NOSIG=
201705131000 METAR MROC 131000Z 00000KT 4000 1500SW RA BR BCFG FEW005 BKN020 21/20 A2999 NOSIG=
201705131100 METAR MROC 131100Z 20002KT 4000 1500SW RA BR BCFG FEW005 BKN020 21/20 A3000 NOSIG=
201705131200 METAR MROC 131200Z 09002KT 1500 RA BR BKN010 21/20 A3003 NOSIG=
201705131300 METAR MROC 131300Z 06004KT 5000 RA BR FEW003 SCT010 BKN025 20/20 A3004 NOSIG=
201705131400 METAR MROC 131400Z 14002KT 9999 4000SW -RA BCFG FEW005 SCT025 OVC100 21/20 A3006 NOSIG=
201705131500 METAR MROC 131500Z 26003KT 8000 2000 RA BCFG RA BR FEW002 SCT020 OVC100 20/20 A3008 BECMG 1500 BR=
201705131600 METAR MROC 131600Z 00000KT 5000 -RA BR FEW0012 SCT010 OVC100 21/20 A3008 BECMG 1500 BR=
201705131700 METAR MROC 131700Z 14005KT 8000 -RA VCFG FEW010 OVC100 21/21 A3005 NOSIG=
201705131800 METAR MROC 131800Z 05007KT 9999 BCFG FEW005 SCT100 BKN200 24/21 A3002 NOSIG=
201705131900 METAR MROC 131900Z 27007KT 9999 BCFG FEW002 BKN120 22/21 A3002 NOSIG=
201705132000 METAR MROC 132000Z 26006KT 9999 FEW010 BKN120 23/20 A3001 NOSIG=
201705132100 METAR MROC 132100Z 25007KT 9999 FEW006 SCT025 BKN100 23/20 A2999 NOSIG=
201705132200 METAR MROC 132200Z VRB02KT 9999 FEW020 SCT120 23/20 A2996 NOSIG=
201705132300 METAR MROC 132300Z VRB02KT 9999 FEW040 BKN250 22/20 A2995 NOSIG=
201705140000 METAR MROC 140000Z 27003KT 9999 FEW035 SCT100 22/20 A2998 NOSIG=
201705140100 METAR MROC 140100Z 31003KT 9999 FEW025 BKN120 21/20 A2998 NOSIG=
201705140200 METAR MROC 140200Z 25003KT 9999 FEW010 BKN090 21/20 A3000 NOSIG=
201705140300 METAR MROC 140300Z 00000KT 9999 FEW006 BKN090 21/21 A3002 NOSIG=
201705140400 METAR MROC 140400Z 13003KT 9999 FEW010 BKN050 21/20 A3002 NOSIG=
201705140500 METAR MROC 140500Z 01004KT 9999 FEW020 SCT050 21/20 A3003 NOSIG=
201705140600 METAR MROC 140600Z 14003KT CAVOK 21/20 A3001 NOSIG=
201705140700 METAR MROC 140700Z VRB01KT CAVOK 21/20 A3001 NOSIG=
201705140800 METAR MROC 140800Z VRB01KT 9000 NSC 21/20 A3000 NOSIG=
201705140900 METAR MROC 140900Z 13003KT CAVOK 21/20 A3000 NOSIG=
201705141000 METAR MROC 141000Z 07003KT CAVOK 21/20 A3000 NOSIG=
201705141100 METAR MROC 141100Z VRB02KT CAVOK 21/20 A3002 NOSIG=
201705141200 METAR MROC 141200Z VRB02KT 9999 1500E FEW010 SCT050 21/20 A3003 NOSIG=
201705141300 METAR MROC 141300Z 00000KT 9999 FEW010 SCT250 23/21 A3005 NOSIG=
201705141400 METAR MROC 141400Z 00000KT 9999 FEW040 25/20 A3006 NOSIG=
201705141500 METAR MROC 141500Z 23003KT 9999 FEW040 26/20 A3007 NOSIG=
201705141600 METAR MROC 141600Z 24007KT 9999 FEW040 SCT250 26/22 A3007 NOSIG=
201705141700 METAR MROC 141700Z 25010KT 9999 FEW035 SCT250 27/22 A3006 NOSIG=
201705141800 METAR MROC 141800Z 24012KT 9999 FEW020TCU FEW045 SCT250 27/22 A3004 BECMG 5000 TSRA SCT015CB=
201705141900 METAR MROC 141900Z 24009KT 9999 FEW015TCU SCT035 BKN100 26/22 A3002 NOSIG=
201705142000 METAR MROC 142000Z 24007KT 9999 FEW010 SCT040 25/22 A3000 NOSIG=
201705142100 METAR MROC 142100Z 26004KT 9999 SCT020 BKN120 24/22 A2998 NOSIG=
201705142200 METAR MROC 142200Z 27002KT 9999 FEW010 BKN120 25/22 A2997 NOSIG=
201705142300 METAR MROC 142300Z 25005KT 9999 SCT020 SCT250 25/22 A2997 NOSIG=
201705150000 METAR MROC 150000Z 26004KT 8000 VCFG FEW007 SCT250 23/22 A2996 BECMG 3000 BR=
201705150100 METAR MROC 150100Z 32003KT 5000 BR SCT008 22/22 A2999 BECMG 3000=
201705150200 METAR MROC 150200Z 25003KT 5000 BR FEW008 SCT020 23/22 A3001 NOSIG=
201705150300 METAR MROC 150300Z 28003KT 2000 BR FEW002 SCT015 22/22 A3002 NOSIG=
201705150400 METAR MROC 150400Z 00000KT 5000 BR FEW001 SCT010 BKN030 22/22 A3004 NOSIG=
201705150500 METAR MROC 150500Z 00000KT 5000 BR FEW001 SCT010 BKN030 23/22 A3006 NOSIG=
201705150600 METAR MROC 150600Z 30003KT 5000 BR FEW001 SCT010 BKN030 22/22 A3004 NOSIG=
201705150700 METAR MROC 150700Z 00000KT 5000 BR FEW001 BKN020 22/22 A3003 NOSIG=
201705150800 METAR MROC 150800Z 26002KT 4000 BR FEW001 BKN020 22/22 A3003 NOSIG=
201705150900 METAR MROC 150900Z 32003KT 5000 BR FEW001 SCT025 22/21 A3002 NOSIG=
201705151000 METAR MROC 151000Z 00000KT 5000 1200 BCFG SCT001 BKN015 22/21 A3002 NOSIG=
201705151100 METAR MROC 151100Z 32002KT 5000 BR FEW001 SCT010 22/21 A3002 NOSIG=
201705151200 METAR MROC 151200Z 00000KT 5000 BR FEW001 SCT030 BKN200 22/21 A3002 NOSIG=
201705151300 METAR MROC 151300Z 32002KT 8000 VCFG FEW005 BKN250 23/21 A3005 NOSIG=
201705151400 METAR MROC 151400Z 29004KT 9999 FEW020 BKN250 24/21 A3007 NOSIG=
201705151500 METAR MROC 151500Z 24005KT 9999 SCT020 BKN200 24/22 A3007 NOSIG=
201705151600 METAR MROC 151600Z 24004KT 9999 SCT020 BKN200 26/21 A3008 NOSIG=
201705151700 METAR MROC 151700Z 223006KT 9999 SCT025 BKN230 27/21 A3006 NOSIG=
201705151800 METAR MROC 151800Z 25008KT 9999 SCT025 BKN250 28/22 A3003 NOSIG=
201705151900 METAR MROC 151900Z 26010KT 9999 SCT020 SCT120 28/23 A3000 NOSIG=
201705152000 METAR MROC 152000Z 24010KT 9999 SCT020 BKN120 27/23 A2996 NOSIG=
201705152100 METAR MROC 152100Z 25009KT 9999 4000SW -DZ BCFG FEW010 BKN035 25/23 A2996 BECMG 5000 RA BKN010=
201705152200 METAR MROC 152200Z 26008KT 9999 2500SW BCFG BKN012 23/22 A2994 BECMG 3000 TSRA FEW010CB=
201705152300 METAR MROC 152300Z 23007KT 2000 RA BR BKN010 23/22 A2996 BECMG 1200 TSRA FEW010CB=
201705160000 METAR MROC 160000Z 26005KT 3000 -TSRA BR FEW008CB BKN010 22/22 A2999 BECMG 1200 BR=
201705160100 METAR MROC 160100Z 28003KT 9999 -DZ BCFG VCFG FEW004 SCT010 BKN025 22/22 A3000 NOSIG=
201705160200 METAR MROC 160200Z 24003KT 9999 2000SW BCFG SCT003 BKN020 22/22 A3002 BECMG 5000 BR BKN010=
201705160300 METAR MROC 160300Z 20003KT 0500 FG VV/// 22/22 A3004 NOSIG=
201705160400 METAR MROC 160400Z COR 24003KT 5000 1800SW -DZ BR SCT002 BKN015 22/21 A3005 NOSIG=
201705160500 METAR MROC 160500Z 00000KT 5000 2000SW BR FEW002 SCT020 BKN100 22/21 A3004 NOSIG=
201705160600 METAR MROC 160600Z 00000KT 3000 1200SW BR SCT002 BKN010 22/21 A3003 NOSIG=
201705160700 METAR MROC 160700Z 00000KT 8000 1800SW BCFG FEW003 SCT015 BKN100 21/21 A3002 NOSIG=
201705160800 METAR MROC 160800Z 00000KT 8000 BCFG FEW004 SCT015 BKN100 21/21 A3000 NOSIG=
201705160900 METAR MROC 160900Z VRB02KT 7000 2500SW BCFG FEW002 SCT020 BKN100 21/21 A2999 NOSIG=
201705161000 METAR MROC 161000Z VRB02KT 9999 3000SW BCFG FEW010 BKN180 21/21 A2998 NOSIG=
201705161100 METAR MROC 161100Z 00000KT 9999 4000SW FEW020 SCT110 21/21 A3001 NOSIG=
201705161200 METAR MROC 161200Z VRB02KT 9999 VCFG FEW025 SCT100 21/21 A3002 NOSIG=
201705161300 MROC 161300Z 22003KT 5000 2000SW BR SCT010 BKN020 22/21 A3006 BECMG 1500 BR BKN010=
201705161400 METAR MROC 161400Z 22003KT 5000 2000SW BR SCT010 BKN020 22/21 A3006 BECMG 1500 BR BKN010=
201705161500 METAR MROC 161500Z COR 31002KT 9999 FEW030 SCT200 26/21 A3005 NOSIG=
201705161600 METAR MROC 161600Z 24006KT 9999 FEW030 SCT200 BKN250 27/21 A3005 NOSIG=
201705161700 METAR MROC 161700Z 26008KT 9999 FEW030 SCT250 BKN300 28/22 A3005 NOSIG=
201705161800 METAR MROC 161800Z 24012KT 9999 RA SCT030 27/23 A3001 NOSIG=
201705161900 METAR MROC 161900Z 23008KT 9999 SCT030 SCT150 26/22 A2998 RERA NOSIG=
201705162000 METAR MROC 162000Z 25009KT 9999 SCT035 BKN180 26/21 A2996 NOSIG=
201705162100 METAR MROC 162100Z 25010KT 9999 -TSRA FEW010 FEW015CB SCT025 BKN100 25/22 A2994 NOSIG=
201705162200 METAR MROC 162200Z 26007KT 9999 FEW010 SCT025 BKN040 23/22 A2994 NOSIG=
201705162300 METAR MROC 162300Z 27006KT 9999 3000N VCSH FEW010 SCT015 BKN040 23/22 A2997 NOSIG=
201705162352 METAR MROC 170000Z 27003KT 9999 4000SW -RA FEW005 SCT010 BKN025 22/22 A2999 BECMG 5000 BR=
201705170000 METAR MROC 170000Z 27003KT 9999 4000SW -RA FEW005 SCT010 BKN025 22/22 A2999 BECMG 5000 BR=
201705170100 METAR MROC 170100Z 28003KT 9999 -RA BCFG FEW010 SCT025 BKN100 22/22 A3001 NOSIG=
201705170200 METAR MROC 170200Z 30002KT 9999 -RA BCFG FEW050 SCT020 BKN100 22/21 A3003 NOSIG=
201705170300 METAR MROC 170300Z 16002KT 9999 -RA BCFG FEW020 BKN100 22/21 A3004 NOSIG=
201705170400 METAR MROC 170400Z 00000KT CAVOK 21/21 A3004 NOSIG=
201705170500 METAR MROC 170500Z 22002KT 9999 FEW008 SCT250 22/21 A3005 NOSIG=
201705170600 METAR MROC 170600Z 00000KT 9999 SCT015 21/21 A3001 NOSIG=
201705170700 METAR MROC 170700Z 12002KT CAVOK 21/21 A2999 NOSIG=
201705170800 METAR MROC 170800Z 23003KT 9999 -RA SCT015 21/21 A2999 NOSIG=
201705170900 METAR MROC 170900Z 34002KT 9999 -RA FEW030 BKN110 21/21 A2998 NOSIG=
201705171000 METAR MROC 171000Z 00000KT 9999 FEW030 BKN120 21/21 A2999 NOSIG=
201705171100 METAR MROC 171100Z 00000KT 9999 FEW030 BKN120 21/21 A2999 NOSIG=
201705171200 METAR MROC 171200Z 10003KT 9999 FEW030 BKN120 21/21 A2999 NOSIG=
201705171300 METAR MROC 171300Z 07006KT CAVOK 23/21 A3001 NOSIG=
201705171400 METAR MROC 171400Z 14004KT 9999 FEW035 SCT120 25/20 A3003 NOSIG=
201705171500 METAR MROC 171500Z 25004KT 9999 FEW035 BKN120 27/20 A3005 NOSIG=
201705171600 METAR MROC 171600Z 25005KT 9999 FEW035 SCT120 27/21 A3004 NOSIG=
201705171700 METAR MROC 171700Z 24007KT 9999 VCSH FEW020TCU SCT030 BKN045 27/22 A3002 NOSIG=
201705171800 METAR MROC 171800Z 25010KT 9999 VCSH SCT020 BKN045 27/22 A3000 NOSIG=
201705171816 METAR MROC 171816Z 22011KT 9999 1000SW SHRA SCT020TCU BKN045 25/22 A2998 BECMG 5000 TSRA BKN020=
201705171900 METAR MROC 171900Z 25010KT 9999 -RA FEW015 SCT025 BKN100 23/22 A2998 RESH NOSIG=
201705172000 METAR MROC 172000Z 22010KT 9999 VCSH FEW015 SCT025 BKN060 24/22 A2996 NOSIG=
201705172100 METAR MROC 172100Z 25007KT 9999 FEW010 SCT030 BKN100 24/21 A2995 NOSIG=
201705172200 METAR MROC 172200Z 28005KT 9999 FEW010 SCT030 BKN100 23/21 A2996 NOSIG=
201705172300 METAR MROC 172300Z 27004KT 9999 -RA FEW010 SCT030 OVC100 22/21 A2997 NOSIG=
201705180000 METAR MROC 180000Z 00000KT 9999 SCT030 BKN100 22/21 A2998 NOSIG=
201705180100 METAR MROC 180100Z 10003KT 9999 SCT030 BKN100 21/21 A2999 NOSIG=
201705180200 METAR MROC 180200Z 06003KT 9999 FEW030 BKN100 22/21 A3001 NOSIG=
201705180300 METAR MROC 180300Z 36003KT CAVOK 22/21 A3001 NOSIG=
201705180400 METAR MROC 180400Z 09003KT CAVOK 25/24 A2986 NOSIG=
201705180500 MROC 180500Z 24002KT 1500 BR SCT002 21/21 A3000 NOSIG=
201705180600 METAR MROC 180600Z 00000KT 9999 BCFG FEW003 BKN090 21/21 A2999 NOSIG=
201705180700 METAR MROC 180700Z 00000KT 9999 BCFG FEW010 SCT160 21/20 A2998 NOSIG=
201705180800 METAR MROC 180800Z 08002KT 9999 FEW010 SCT200 20/20 A2995 NOSIG=
201705180900 METAR MROC 180900Z 07004KT 9999 4500SW BCFG NSC 20/19 A2993 NOSIG=
201705181000 METAR MROC 181000Z 07005KT CAVOK 19/18 A2994 NOSIG=
201705181100 METAR MROC 181100Z 06003KT CAVOK 19/17 A2994 NOSIG=
201705181200 METAR MROC 181200Z 08003KT CAVOK 20/18 A2996 NOSIG=
201705181300 METAR MROC 181300Z 06002KT CAVOK 23/18 A2999 BECMG 24007KT=
201705181400 METAR MROC 181400Z 00000KT CAVOK 24/20 A2999 BECMG 24007KT=
201705181500 METAR MROC 181500Z 28002KT 9999 FEW040 26/20 A3000 NOSIG=
201705181600 METAR MROC 181600Z 25007KT 9999 FEW040 27/20 A2999 NOSIG=
201705181700 METAR MROC 181700Z 24007KT 9999 FEW040 27/21 A2996 NOSIG=
201705181800 METAR MROC 181800Z 26009KT 9999 FEW040 27/23 A2995 NOSIG=
201705181900 METAR MROC 181900Z 25011KT 9999 FEW030 27/23 A2992 NOSIG=
201705182000 METAR MROC 182000Z 26011KT 9999 FEW015TCU BKN030 27/23 A2990 NOSIG=
201705182100 METAR MROC 182100Z 24010KT 8000 4200SW -RA VCTS SCT010CB SCT025 25/23 A2987 BECMG 5000 -TSRA=
201705182200 METAR MROC 182200Z 15006KT 7000 2000S -TSRA FEW005 SCT010CB BKN030 22/20 A2989 NOSIG=
201705182300 METAR MROC 182300Z COR 00000KT 9999 4200SW -RA BCFG FEW005 SCT035 BKN100 21/20 A2989 RETS NOSIG=
201705190000 METAR MROC 190000Z 00000KT 8000 3500SW -DZ VCFG FEW002 SCT035 BKN100 21/21 A2992 NOSIG=
201705190100 METAR MROC 190100Z 00000KT 9999 4200SW -DZ VCFG FEW006 SCT020 BKN100 22/21 A2994 NOSIG=
201705190200 METAR MROC 190200Z 00000KT 9999 4200SW DZ BCFG FEW002 SCT020 BKN100 22/21 A2996 NOSIG=
201705190300 METAR MROC 190300Z 00000KT 9999 FEW010 SCT030 BKN100 22/21 A2998 REDZ NOSIG=
201705190400 METAR MROC 190400Z 06006KT 9999 FEW030 SCT100 22/20 A2996 NOSIG=
201705190500 METAR MROC 190500Z 07005KT CAVOK 21/19 A2995 NOSIG=
201705190600 METAR MROC 190600Z 08003KT CAVOK 21/19 A2993 NOSIG=
201705190700 METAR MROC 190700Z 12004KT CAVOK 20/19 A2990 NOSIG=
201705190800 METAR MROC 190800Z VRB02KT 9999 FEW005 20/19 A2990 NOSIG=
201705190900 METAR MROC 190900Z 05005KT CAVOK 20/18 A2991 NOSIG=
201705191000 METAR MROC 191000Z 03003KT CAVOK 20/18 A2990 NOSIG=
201705191100 METAR MROC 191100Z 08006KT CAVOK 20/18 A2991 NOSIG=
201705191200 METAR MROC 191200Z 04004KT CAVOK 19/18 A2991 NOSIG=
201705191300 METAR MROC 191300Z VRB02KT CAVOK 23/19 A2994 BECMG 24007KT=
201705191400 METAR MROC 191400Z 32004KT CAVOK 24/19 A2995 NOSIG=
201705191500 METAR MROC 191500Z 27004KT 9999 FEW040 SCT250 25/21 A2994 NOSIG=
201705191600 METAR MROC 191600Z 27007KT 9999 FEW030 26/22 A2993 NOSIG=
201705191700 METAR MROC 191700Z 23007KT 9999 FEW030 27/22 A2990 NOSIG=
201705191800 METAR MROC 191800Z 27006KT 9999 SCT030 27/22 A2989 NOSIG=
201705191900 METAR MROC 191900Z 26009KT 9999 FEW020TCU SCT035 28/22 A2986 BECMG 5000 TSRA SCT020CB=
201705192000 METAR MROC 192000Z 24011KT 9999 VCSH FEW015TCU SCT035 28/23 A2983 NOSIG=
201705192100 METAR MROC 192100Z 19004KT 8000 -TSRA SCT015CB BKN030 23/21 A2985 BECMG 5000 TSRA=
201705192200 METAR MROC 192200Z 05012KT 2000 -TSRA SCT010CB BKN025 20/19 A2986 NOSIG=
201705192300 METAR MROC 192300Z 07005KT 9999 4000N RA FEW010 SCT035 BKN100 20/20 A2988 RETS NOSIG=
201705200000 METAR MROC 200000Z 09003KT 9999 -DZ SCT025 BKN100 20/20 A2988 RERA NOSIG=
201705200100 METAR MROC 200100Z 35004KT 9999 FEW025 BKN100 21/20 A2992 NOSIG=
201705200200 METAR MROC 200200Z 15004KT 9000 BCFG SCT025 BKN100 21/20 A2994 BECMG 5000 BR=
201705200300 METAR MROC 200300Z 02004KT CAVOK 21/20 A2995 NOSIG=
201705200400 METAR MROC 200400Z 06005KT CAVOK 21/19 A2994 NOSIG=
201705200500 METAR MROC 200500Z 07006KT CAVOK 21/19 A2994 NOSIG=
201705200600 METAR MROC 200600Z 07004KT CAVOK 20/18 A2992 NOSIG=
201705200700 METAR MROC 200700Z 06002KT CAVOK 20/18 A2991 NOSIG=
201705200800 METAR MROC 200800Z 08004KT CAVOK 19/19 A2989 NOSIG=
201705200900 METAR MROC 200900Z 04004KT CAVOK 19/18 A2987 NOSIG=
201705201000 METAR MROC 201000Z 05007KT CAVOK 19/17 A2987 NOSIG=
201705201100 METAR MROC 201100Z 07010KT CAVOK 21/18 A2988 NOSIG=
201705201200 METAR MROC 201200Z 04007KT CAVOK 21/18 A2989 NOSIG=
201705201300 METAR MROC 201300Z 00000KT 9999 FEW035 BKN250 22/19 A2994 BECMG 24006KT=
201705201400 METAR MROC 201400Z 10004KT 9999 FEW035 SCT250 25/19 A2996 BECMG 24006KT=
201705201500 METAR MROC 201500Z 08004KT 9999 FEW045 SCT250 27/20 A2995 NOSIG=
201705201600 METAR MROC 201600Z 11009KT 9999 FEW045 SCT250 28/19 A2992 NOSIG=
201705201700 METAR MROC 201700Z 11008KT 9999 SCT040 SCT250 29/19 A2992 NOSIG=
201705201800 METAR MROC 201800Z 12008KT 9999 SCT035 29/20 A2991 NOSIG=
201705201900 METAR MROC 201900Z 14007KT 9999 4500S VCTS FEW015CB FEW020TCU SCT035 28/20 A2989 NOSIG=
201705202000 METAR MROC 202000Z 24005KT 9999 VCTS FEW015CB SCT030 26/22 A2986 NOSIG=
201705202100 METAR MROC 202100Z 26006KT 9999 4500SW TSRA FEW015CB FEW020 BKN120 22/20 A2987 BECMG 5000 BR BKN010=
201705202200 METAR MROC 202200Z 18003KT 9999 2500SW -RA FEW025 BKN120 21/20 A2986 RETS NOSIG=
201705202300 METAR MROC 202300Z 07002KT 9999 3000SW BKN020 21/20 A2989 BECMG 5000 RA BKN015=
201705210000 METAR MROC 210000Z 05003KT 9999 2500SW -DZ BKN020 22/20 A2993 BECMG RA=
201705210100 METAR MROC 210100Z 26004KT 9999 -TSRA BKN030 21/21 A2995 BECMG 3000 RA BKN010=
201705210200 METAR MROC 210200Z 00000KT 9999 -RA FEW020 BKN035 21/21 A2998 RETS NOSIG=
201705210300 METAR MROC 210300Z 25003KT 9999 2000S -RA BCFG NSC 21/20 A3001 BECMG 3000 +RA BKN008=
201705210400 METAR MROC 210400Z 31003KT 5000 -RA BR SCT006 BKN025 21/21 A3003 BECMG 2000=
201705210500 METAR MROC 210500Z 32003KT 5000 -RA BR SCT006 BKN025 21/20 A3001 NOSIG=
201705210600 METAR MROC 210600Z 00000KT 5000 BR SCT006 BKN025 21/20 A2999 NOSIG=
201705210700 METAR MROC 210700Z 33003KT 9999 SCT005 BKN010 21/20 A2997 NOSIG=
201705210800 METAR MROC 210800Z 28003KT 9999 FEW010 BKN020 21/20 A2996 NOSIG=
201705210900 METAR MROC 210900Z VRB02KT 8000 BCFG SCT010 BKN025 20/20 A2996 NOSIG=
201705211000 METAR MROC 211000Z VRB02KT 8000 2000SW BCFG SCT008 BKN025 20/20 A2997 NOSIG=
201705211100 METAR MROC 211100Z 01003KT 8000 BCFG SCT008 BKN025 21/20 A2999 NOSIG=
201705211200 METAR MROC 211200Z 35003KT 8000 BCFG SCT010 BKN100 20/20 A3000 NOSIG=
201705211300 METAR MROC 211300Z 31003KT 8000 3500SW BCFG FEW001 SCT090 BKN100 21/21 A3002 NOSIG=
201705211400 METAR MROC 211400Z 29003KT 9999 4500SW BCFG FEW003 SCT120 BKN180 22/21 A3001 NOSIG=
201705211500 METAR MROC 211500Z 10003KT 9999 4500SW BCFG NSC 25/21 A3002 NOSIG=
201705211600 METAR MROC 211600Z 10003KT CAVOK 27/19 A3002 NOSIG=
201705211700 METAR MROC 211700Z 24008KT 9999 FEW045 BKN120 25/23 A3000 NOSIG=
201705211800 MROC 211800Z 23007KT 9999 SCT045 BKN120 27/21 A3000 NOSIG=
201705211900 METAR MROC 211900Z 19006KT 3500 TSRA FEW015CB FEW020 BKN100 26/22 A2998 NOSIG=
201705212000 METAR MROC 212000Z 20007KT 9999 4500S RA SCT040 BKN100 23/21 A2994 NOSIG=
201705212100 MROC 212100Z VRB02KT 3000 SHRA VCTS SCT020 BKN035 22/21 A2997 NOSIG=
201705212200 METAR MROC 212200Z 29003KT 3500 -RA BR SCT008 BKN060 21/21 A2998 NOSIG=
201705212300 METAR MROC 212300Z 33003KT 9999 4500NE -RA BCFG FEW008 BKN070 21/20 A2999 NOSIG=
201705220000 METAR MROC 220000Z 04002KT 9999 -RA BCFG FEW009 SCT090 BKN110 20/19 A3001 NOSIG=
201705220100 METAR MROC 220100Z 09003KT 9999 -DZ FEW040 BKN120 20/20 A3003 NOSIG=
201705220200 METAR MROC 220200Z 04004KT 9999 -DZ FEW040 BKN120 21/19 A3006 NOSIG=
201705220300 METAR MROC 220300Z 00000KT 9999 -DZ FEW002 BKN035 21/18 A3007 NOSIG=
201705220400 METAR MROC 220400Z 00000KT 9999 -DZ FEW015 BKN140 20/20 A3006 NOSIG=
201705220500 METAR MROC 220500Z 00000KT 9999 -DZ FEW020 SCT150 20/19 A3004 NOSIG=
201705220600 METAR MROC 220600Z 06004KT CAVOK 20/19 A3002 NOSIG=
201705220700 METAR MROC 220700Z 08004KT CAVOK 20/19 A3000 NOSIG=
201705220800 METAR MROC 220800Z 07006KT CAVOK 20/19 A2998 NOSIG=
201705220900 METAR MROC 220900Z 08004KT CAVOK 20/18 A2996 NOSIG=
201705221000 METAR MROC 221000Z 00000KT CAVOK 20/19 A2997 NOSIG=
201705221100 METAR MROC 221100Z 02003KT CAVOK 20/18 A2999 NOSIG=
201705221200 METAR MROC 221200Z 00000KT CAVOK 20/19 A3001 NOSIG=
201705221300 METAR MROC 221300Z 34003KT CAVOK 22/19 A3004 NOSIG=
201705221400 METAR MROC 221400Z 24004KT CAVOK 23/19 A3005 NOSIG=
201705221500 METAR MROC 221500Z 27005KT 9999 FEW040 SCT150 25/20 A3007 NOSIG=
201705221600 MROC 221600Z 25008KT 9999 FEW035 SCT120 26/21 A3008 NOSIG=
201705221700 METAR MROC 221700Z 25009KT 9999 FEW035 SCT120 26/21 A3005 NOSIG=
201705221800 METAR MROC 221800Z 27008KT 9999 VCSH FEW025TCU FEW035 SCT100 26/21 A3004 NOSIG=
201705221900 METAR MROC 221900Z 27006KT 9999 FEW020 SCT030 BKN100 24/22 A3001 NOSIG=
201705222000 METAR MROC 222000Z 25007KT 9999 -RA FEW010 SCT020 BKN030 23/22 A2998 NOSIG=
201705222100 METAR MROC 222100Z 24005KT 9999 BCFG FEW005 SCT020 BKN100 22/21 A2997 NOSIG=
201705222200 METAR MROC 222200Z 28004KT 9999 SCT020 BKN100 23/21 A2998 NOSIG=
201705222300 METAR MROC 222300Z 26002KT 9999 FEW005 SCT020 BKN100 23/21 A2998 NOSIG=
201705230000 METAR MROC 230000Z 17002KT 9999 SCT030 BKN100 22/21 A3000 NOSIG=
201705230100 METAR MROC 230100Z 00000KT 9999 SCT030 BKN100 22/21 A3002 NOSIG=
201705230200 METAR MROC 230200Z 07006KT 9999 FEW030 BKN100 22/20 A3004 NOSIG=
201705230300 METAR MROC 230300Z 07006KT 9999 FEW030 BKN100 22/20 A3005 NOSIG=
201705230400 METAR MROC 230400Z 08006KT CAVOK 22/19 A3007 NOSIG=
201705230500 METAR MROC 230500Z 13005KT CAVOK 22/19 A3006 NOSIG=
201705230600 METAR MROC 230600Z 11004KT 9999 FEW030 BKN060 22/18 A3005 NOSIG=
201705230700 METAR MROC 230700Z 02003KT CAVOK 22/18 A3000 NOSIG=
201705230800 METAR MROC 230800Z 26003KT 9999 2000SW BCFG FEW001 BKN030 21/20 A2997 BECMG 5000 BR BKN010=
201705230900 METAR MROC 230900Z 17002KT 2000 BR BKN002 21/20 A2996 NOSIG=
201705231000 METAR MROC 231000Z 00000KT 9999 2000SW BCFG FEW001 SCT005 20/20 A2997 NOSIG=
201705231100 METAR MROC 231100Z 07004KT 9999 3000SW BCFG FEW010 BKN100 20/20 A2996 NOSIG=
201705231200 METAR MROC 231200Z 10003KT CAVOK 20/19 A2997 NOSIG=
201705231300 METAR MROC 231300Z 36005KT CAVOK 21/19 A2999 BECMG 24007KT=
201705231400 METAR MROC 231400Z 03002KT CAVOK 26/18 A3000 BECMG 24007KT=
201705231500 METAR MROC 231500Z 11003KT CAVOK 28/19 A3002 NOSIG=
201705231600 METAR MROC 231600Z 24007KT CAVOK 27/20 A3000 NOSIG=
201705231700 METAR MROC 231700Z 26008KT 9999 FEW040 27/21 A3000 NOSIG=
201705231800 METAR MROC 231800Z 25010KT 9999 SCT040 28/21 A3000 NOSIG=
201705231900 METAR MROC 231900Z 23011KT 9999 SCT030 BKN070 28/22 A2997 NOSIG=
201705232000 METAR MROC 232000Z 25009KT 9999 BKN040 28/23 A2995 NOSIG=
201705232100 METAR MROC 232100Z 24010KT 9999 3000S TS VCSH FEW020CB SCT080 27/21 A2992 NOSIG=
201705232200 MROC 232200Z 22007KT 7000 2500S -RA BCFG VCTS FEW004 FEW015TCU BKN040 22/22 A2991 RETS NOSIG=
201705232300 METAR MROC 232300Z 22004KT 9000 4200N VCTS FEW010CB SCT025 BKN100 22/21 A2993 NOSIG=
201705240000 METAR MROC 240000Z 29003KT 9999 -RA FEW010 SCT030 BKN100 22/21 A2995 NOSIG=
201705240100 METAR MROC 240100Z 00000KT 9999 -RA FEW007 SCT025 BKN070 22/21 A2998 NOSIG=
201705240200 METAR MROC 240200Z 00000KT 9999 -DZ FEW008 BKN040 22/21 A3000 NOSIG=
201705240300 METAR MROC 240300Z VRB02KT 9999 FEW015 BKN040 22/21 A3000 NOSIG=
201705240400 METAR MROC 240400Z 36003KT 9999 SCT040 22/22 A3000 NOSIG=
201705240500 METAR MROC 240500Z 35003KT 9999 BCFG FEW005 SCT040 22/21 A3000 NOSIG=
201705240600 METAR MROC 240600Z 25003KT 9999 BCFG FEW005 22/21 A2999 NOSIG=
201705240610 METAR MROC 240610Z VRB01KT 9999 0500SW SCT001 22/21 A2998 NOSIG=
201705240620 METAR MROC 240620Z VRB01KT 0100 FG BKN001 21/21 A2998 NOSIG=
201705240635 METAR MROC 240635Z VRB01KT 6000 SCT001 21/21 A2997 NOSIG=
201705240700 METAR MROC 240700Z VRB02KT 9999 FEW001 21/21 A2997 NOSIG=
201705240800 METAR MROC 240800Z 07006KT 9999 FEW001 21/19 A2995 NOSIG=
201705240900 METAR MROC 240900Z 06006KT CAVOK 20/19 A2994 NOSIG=
201705241000 METAR MROC 241000Z 01004KT CAVOK 20/19 A2995 NOSIG=
201705241100 METAR MROC 241100Z 05007KT 9999 FEW030 SCT250 20/18 A2996 NOSIG=
201705241200 METAR MROC 241200Z 07008KT CAVOK 20/18 A2997 NOSIG=
201705241300 METAR MROC 241300Z 07010KT CAVOK 23/19 A2999 NOSIG=
201705241400 METAR MROC 241400Z 10005KT CAVOK 25/19 A3000 BECMG 25007KT=
201705241500 METAR MROC 241500Z 09006KT CAVOK 28/20 A2999 BECMG 25007KT=
201705241600 METAR MROC 241600Z 09004KT CAVOK 29/19 A2998 BECMG 25007KT=
201705241700 MROC 241700Z 25009KT 9999 FEW045 BKN200 27/21 A3000 NOSIG=
201705241800 METAR MROC 241800Z 24012KT 9999 FEW020 SCT045 28/23 A2997 NOSIG=
201705241900 METAR MROC 241900Z 24011KT 9999 FEW020 SCT040 27/23 A2996 NOSIG=
201705242000 METAR MROC 242000Z 24008KT 9999 -TSRA FEW010CB SCT040 BKN080 26/23 A2994 BECMG 5000=
201705242100 METAR MROC 242100Z 24005KT 9999 -RA FEW015CB BKN040 24/23 A2992 RETSRA NOSIG=
201705242200 METAR MROC 242200Z 26006KT 9999 4000NE -RA BCFG FEW015CB SCT035 SCT200 24/23 A2993 NOSIG=
201705242300 METAR MROC 242300Z 25006KT 9000 BCFG FEW010 SCT035 SCT200 24/23 A2993 BECMG 5000 BR=
201705250000 METAR MROC 250000Z 26006KT 5000 BR SCT008 BKN025 23/22 A2995 BECMG 1500 BKN010=
201705250100 METAR MROC 250100Z 24005KT 1500 0500W BR SCT005 BKN015 23/22 A2995 BECMG 0500 FG BKN005=
201705250200 METAR MROC 250200Z 24004KT 1500 BR SCT002 BKN015 23/22 A2997 BECMG 0500 FG BKN005=
201705250300 METAR MROC 250300Z 26003KT 5000 BR SCT008 BKN020 22/21 A3000 NOSIG=
201705250400 METAR MROC 250400Z 24003KT 8000 VCFG FEW005 BKN020 22/21 A3001 NOSIG=
201705250500 METAR MROC 250500Z 31003KT 8000 VCFG FEW005 BKN020 22/22 A3001 NOSIG=
201705250600 METAR MROC 250600Z 15002KT 5000 BR SCT005 BKN020 22/22 A2999 NOSIG=
201705250700 METAR MROC 250700Z 14002KT 4000 BR SCT005 BKN020 22/22 A2997 NOSIG=
201705250800 METAR MROC 250800Z 00000KT 4000 BR SCT005 BKN020 22/22 A2997 NOSIG=
201705250900 METAR MROC 250900Z 00000KT 4000 -RA BR FEW003 BKN020 22/22 A2995 NOSIG=
201705251000 METAR MROC 251000Z 01004KT 9999 4000SW -RA BCFG FEW001 SCT020 BKN110 22/22 A2995 NOSIG=
201705251100 METAR MROC 251100Z 16004KT 9999 1400SW BCFG FEW001 SCT020 22/21 A2995 NOSIG=
201705251200 METAR MROC 251200Z 05005KT 9999 BCFG FEW002 SCT030 BKN100 22/22 A2996 NOSIG=
201705251300 METAR MROC 251300Z 04004KT 9999 FEW040 BKN200 25/20 A2998 NOSIG=
201705251400 METAR MROC 251400Z 10008KT 9999 FEW040 SCT120 SCT200 25/20 A2998 NOSIG=
201705251500 METAR MROC 251500Z 11008KT 9999 FEW040 SCT120 SCT200 28/20 A2999 NOSIG=
201705251600 METAR MROC 251600Z 11012G22KT 9999 FEW040 SCT120 SCT200 28/20 A2999 NOSIG=
201705251700 METAR MROC 251700Z 08008KT 9999 FEW040 BKN200 29/20 A2998 NOSIG=
201705251800 METAR MROC 251800Z 11006KT 9999 FEW040 BKN200 30/21 A2995 BECMG 24006KT=
201705251900 METAR MROC 251900Z 25011KT 9999 FEW020TCU SCT040 SCT200 38/24 A2994 NOSIG=
201705252000 METAR MROC 252000Z 26011KT 9999 VCTS FEW015CB FEW020TCU SCT040 27/23 A2992 BECMG 5000 -TSRA=
201705252019 METAR MROC 252019Z 26010KT 9999 4000N TSRA FEW015CB FEW020TCU SCT025 BKN230 26/23 A2992 BECMG 5000=
201705252100 METAR MROC 252100Z 26008KT 6000 -RA VCTS FEW015CB FEW015TCU SCT020 24/23 A2991 NOSIG=
201705252200 METAR MROC 252200Z 22006KT 2000 BR VCTS BKN010 24/23 A2992 NOSIG=
201705252300 METAR MROC 252300Z 27006KT 7000 3500SW BCFG BKN010 24/23 A2993 NOSIG=
201705260000 METAR MROC 260000Z 28002KT 9000 4000SW BCFG BKN025 23/22 A2995 NOSIG=
201705260100 METAR MROC 260100Z 25003KT 9999 2000SW BCFG BKN010 23/23 A2998 BECMG 3000 BR=
201705260200 METAR MROC 260200Z 26003KT 9999 1500SW BCFG FEW010 SCT040 23/22 A2999 NOSIG=
201705260300 METAR MROC 260300Z 30002KT 9999 2000SW BCFG FEW002 SCT020 22/22 A3002 NOSIG=
201705260400 METAR MROC 260400Z 31003KT 8000 2000SW BCFG FEW002 SCT020 22/22 A3002 NOSIG=
201705260500 METAR MROC 260500Z 27003KT 8000 2000SW BCFG SCT002 BKN020 22/22 A3003 NOSIG=
201705260600 METAR MROC 260600Z 34003KT 9999 VCFG FEW008 SCT020 22/21 A3003 NOSIG=
201705260700 METAR MROC 260700Z 28003KT 9999 VCFG FEW008 SCT020 21/21 A3003 NOSIG=
201705260800 METAR MROC 260800Z 00000KT 9999 4200SW BCFG SCT005 BKN020 22/21 A3001 NOSIG=
201705260900 METAR MROC 260900Z 00000KT 9999 VCFG FEW006 BKN025 21/21 A3000 NOSIG=
201705261000 METAR MROC 261000Z 00000KT 9999 3500SW BCFG FEW005 SCT020 21/21 A3000 NOSIG=
201705261100 METAR MROC 261100Z 00000KT 9999 4000SW BCFG FEW005 SCT020 BKN060 22/21 A3002 NOSIG=
201705261200 METAR MROC 261200Z 00000KT 9999 4200SW FEW020 OVC200 22/20 A3003 NOSIG=
201705261300 METAR MROC 261300Z 06003KT 9999 FEW025 BKN200 23/21 A3005 NOSIG=
201705261400 METAR MROC 261400Z VRB01KT 9999 FEW020 BKN200 24/21 A3008 NOSIG=
201705261500 METAR MROC 261500Z 24004KT 9999 FEW020 BKN200 25/22 A3009 NOSIG=
201705261600 METAR MROC 261600Z 25006KT 9999 FEW020 SCT100 BKN200 25/22 A3009 NOSIG=
201705261700 METAR MROC 261700Z 24005KT 9000 FEW020 SCT100 BKN200 25/22 A3008 NOSIG=
201705261800 METAR MROC 261800Z 25006KT 9000 SCT020 BKN100 25/21 A3005 NOSIG=
201705261900 METAR MROC 261900Z 23007KT 9000 SCT020 BKN100 25/23 A3003 NOSIG=
201705262000 METAR MROC 262000Z 26005KT 9000 FEW010 SCT025 BKN100 25/22 A3001 NOSIG=
201705262100 METAR MROC 262100Z 25007KT 9000 FEW010 SCT025 BKN100 25/22 A2998 NOSIG=
201705262200 METAR MROC 262200Z 19003KT 6000 2500SW -RA FEW015 SCT040 BKN120 24/22 A2999 RETS NOSIG=
201705262300 METAR MROC 262300Z VRB01KT 7000 2500N FEW015 SCT120 BKN200 24/22 A3000 NOSIG=
201705262355 METAR MROC 270000Z 02004KT 9999 -RA FEW015 SCT100 BKN200 24/22 A3003 NOSIG=
201705270000 METAR MROC 270000Z 02004KT 9999 -RA FEW015 SCT100 BKN200 24/22 A3003 NOSIG=
201705270100 METAR MROC 270100Z 09007KT CAVOK 22/20 A3002 NOSIG=
201705270200 METAR MROC 270200Z 08006KT CAVOK 23/20 A3004 NOSIG=
201705270300 METAR MROC 270300Z 11013KT CAVOK 23/19 A3005 NOSIG=
201705270400 METAR MROC 270400Z 11010KT CAVOK 23/19 A3007 NOSIG=
201705270500 METAR MROC 270500Z 08006KT CAVOK 22/19 A3006 NOSIG=
201705270600 METAR MROC 270600Z 10012G24KT CAVOK 23/19 A3004 NOSIG=
201705270700 METAR MROC 270700Z 10010G20KT CAVOK 23/19 A3002 NOSIG=
201705270800 METAR MROC 270800Z 09007KT CAVOK 23/19 A3001 NOSIG=
201705270900 METAR MROC 270900Z 04006KT CAVOK 22/19 A2999 NOSIG=
201705271000 METAR MROC 271000Z 15005KT CAVOK 23/18 A3000 NOSIG=
201705271100 METAR MROC 271100Z 24003KT CAVOK 21/19 A3001 NOSIG=
201705271200 METAR MROC 271200Z 35003KT CAVOK 21/19 A3004 NOSIG=
201705271300 METAR MROC 271300Z 36002KT CAVOK 22/20 A3006 NOSIG=
201705271400 METAR MROC 271400Z 34005KT CAVOK 23/20 A3006 NOSIG=
201705271500 METAR MROC 271500Z 33005KT CAVOK 23/20 A3005 NOSIG=
201705271600 METAR MROC 271600Z 24006KT 9999 FEW035 SCT150 BKN200 26/21 A3005 NOSIG=
201705271700 METAR MROC 271700Z 25006KT 9999 FEW035 SCT045 BKN150 28/21 A3005 NOSIG=
201705271800 METAR MROC 271800Z 23007KT 9999 -RA FEW025TCU FEW035 SCT120 27/22 A3004 NOSIG=
201705271900 METAR MROC 271900Z 27007KT 9999 SCT035 SCT050 28/22 A3001 NOSIG=
201705272000 METAR MROC 272000Z 24006KT 9999 SCT035 SCT080 29/22 A3000 NOSIG=
201705272100 METAR MROC 272100Z 26012KT 9999 FEW010TCU SCT030 BKN100 25/23 A2999 NOSIG=
201705272200 METAR MROC 272200Z 25010KT 5000 -RA TS BR FEW002 FEW010CB SCT030 BKN100 24/23 A2999 NOSIG=
201705272300 METAR MROC 272300Z 26007KT 8000 -RA VCFG FEW002 SCT030 BKN100 22/22 A3001 RETSRA NOSIG=
201705280000 METAR MROC 280000Z 31004KT 9999 BCFG FEW002 SCT030 BKN100 22/21 A3002 NOSIG=
201705280100 METAR MROC 280100Z 29002KT 9999 FEW030 BKN100 22/21 A3005 NOSIG=
201705280200 METAR MROC 280200Z 27003KT 9999 FEW030 BKN100 22/21 A3006 NOSIG=
201705280300 METAR MROC 280300Z 33002KT 9999 BCFG FEW030 BKN100 22/21 A3006 NOSIG=
201705280400 METAR MROC 280400Z 09002KT 9999 BCFG NSC 21/21 A3005 NOSIG=
201705280500 METAR MROC 280500Z 32004KT 9999 BCFG FEW002 SCT012 21/21 A3005 NOSIG=
201705280600 METAR MROC 280600Z VRB02KT 9999 2500SW BCFG FEW001 SCT012 21/20 A3004 NOSIG=
201705280700 METAR MROC 280700Z 12003KT 9999 2500SW BCFG FEW001 BKN020 21/20 A3002 NOSIG=
201705280800 METAR MROC 280800Z 05006KT 9999 2500SW BCFG NSC 21/20 A3000 NOSIG=
201705280900 METAR MROC 280900Z 03006KT 9999 3500SW BCFG NSC 20/19 A2999 NOSIG=
201705281000 METAR MROC 281000Z VRB02KT 9999 2500SW BCFG FEW001 BKN045 21/19 A2998 NOSIG=
201705281100 METAR MROC 281100Z 05006KT 9999 4000SW BCFG FEW001 BKN045 21/19 A3001 NOSIG=
201705281200 METAR MROC 281200Z 04005KT CAVOK 22/19 A3002 NOSIG=
201705281300 METAR MROC 281300Z 12002KT CAVOK 23/20 A3003 BECMG 22006KT=
201705281400 METAR MROC 281400Z 10011KT 9999 FEW035 SCT120 BKN250 24/19 A3001 NOSIG=
201705281500 METAR MROC 281500Z 10012KT 9999 FEW035 SCT120 BKN250 25/18 A3003 NOSIG=
201705281600 METAR MROC 281600Z 10007KT 9999 FEW035 SCT120 BKN250 25/19 A3005 NOSIG=
201705281700 METAR MROC 281700Z 11006KT 9999 SCT030 BKN100 27/20 A3004 NOSIG=
201705281800 METAR MROC 281800Z 22007KT 9999 -RA SCT030 BKN100 25/22 A3003 NOSIG=
201705281900 METAR MROC 281900Z 23008KT 9999 SCT030 BKN100 25/21 A3001 NOSIG=
201705282000 METAR MROC 282000Z 26007KT 3000 SHRA TS FEW010CB BKN030 24/21 A3001 NOSIG=
201705282100 METAR MROC 282100Z 20006KT 8000 3000SW -TSRA VCFG FEW005 FEW010CB BKN100 21/21 A3002 NOSIG=
201705282200 METAR MROC 282200Z 00000KT 9999 4200SW -RA BCFG VCTS FEW003 FEW010CB BKN100 20/20 A3001 RETS NOSIG=
201705282300 METAR MROC 282300Z 34005KT 9999 VCFG FEW006 SCT030 BKN100 21/20 A3004 NOSIG=
201705290000 METAR MROC 290000Z VRB02KT 9999 -RA FEW015 SCT035 BKN090 21/20 A3006 NOSIG=
201705290100 METAR MROC 290100Z 04005KT 9999 -RA FEW020 BKN090 21/20 A3008 NOSIG=
201705290200 METAR MROC 290200Z 04005KT 9999 -RA NSC 21/20 A3010 NOSIG=
201705290300 METAR MROC 290300Z 08004KT 9999 -DZ NSC 20/20 A3009 NOSIG=
201705290400 METAR MROC 290400Z 08006KT CAVOK 21/19 A3007 NOSIG=
201705290500 METAR MROC 290500Z 08007KT CAVOK 21/19 A3005 NOSIG=
201705290600 METAR MROC 290600Z 03005KT CAVOK 21/19 A3003 NOSIG=
201705290700 METAR MROC 290700Z 12003KT CAVOK 21/19 A3001 NOSIG=
201705290800 METAR MROC 290800Z 11007KT CAVOK 21/18 A2999 NOSIG=
201705290900 METAR MROC 290900Z 08003KT CAVOK 20/18 A2999 NOSIG=
201705291000 METAR MROC 291000Z 05003KT CAVOK 20/18 A3002 NOSIG=
201705291100 METAR MROC 291100Z 08006KT CAVOK 19/17 A3002 NOSIG=
201705291200 METAR MROC 291200Z 07006KT CAVOK 20/18 A3003 NOSIG=
201705291300 METAR MROC 291300Z 06004KT CAVOK 22/19 A3005 NOSIG=
201705291400 METAR MROC 291400Z 11005KT 9999 FEW030 BKN200 24/19 A3006 BECMG 24007KT=
201705291500 METAR MROC 291500Z 10009KT 9999 FEW030 BKN160 25/19 A3007 BECMG 24007KT=
201705291600 METAR MROC 291600Z 12005KT 9999 FEW035 BKN160 26/19 A3004 NOSIG=
201705291700 METAR MROC 291700Z 24009KT 9999 FEW040 BKN160 27/20 A3007 NOSIG=
201705291800 METAR MROC 291800Z 25008KT 9999 FEW020 BKN200 26/22 A3006 NOSIG=
201705291900 METAR MROC 291900Z 25011KT 9999 FEW020TCU SCT050 26/22 A3004 NOSIG=
201705292000 METAR MROC 292000Z 25012KT 9999 VCTS VCSH FEW012CB FEW020TCU BKN100 25/22 A3002 BECMG 5000 TSRA SCT012CB=
201705292100 METAR MROC 292100Z 26009KT 9999 VCTS FEW015CB SCT035 BKN100 24/22 A3001 NOSIG=
201705292200 METAR MROC 292200Z 26006KT 9999 4000NE -TSRA FEW015CB BKN030 22/21 A3001 NOSIG=
201705292300 METAR MROC 292300Z 14003KT 5000 -TSRA SCT010CB BKN020 21/20 A3003 NOSIG=
201705300000 METAR MROC 300000Z 08003KT 5000 RA BR SCT008 BKN020 21/20 A3004 RETSRA NOSIG=
201705300100 METAR MROC 300100Z COR VRB02KT 7000 -RA VCTS SCT008CB BKN025 21/20 A3007 NOSIG=
201705300200 METAR MROC 300200Z VRB02KT 9999 -DZ FEW015 BKN100 21/21 A3007 NOSIG=
201705300300 METAR MROC 300300Z VRB02KT 9999 -DZ FEW015 BKN030 21/21 A3008 NOSIG=
201705300400 METAR MROC 300400Z 36003KT 9999 -RA BKN100 21/20 A3008 NOSIG=
201705300500 METAR MROC 300500Z 25002KT CAVOK 21/20 A3007 NOSIG=
201705300600 METAR MROC 300600Z 00000KT 3000 BR FEW001 BKN100 20/20 A3007 NOSIG=
201705300700 METAR MROC 300700Z 29003KT 3000 BR FEW001 BKN100 20/20 A3004 NOSIG=
201705300800 METAR MROC 300800Z 10002KT 5000 BR FEW001 BKN100 20/20 A3002 NOSIG=
201705300900 METAR MROC 300900Z 00000KT 9999 FEW020 BKN100 20/20 A3002 NOSIG=
201705301000 METAR MROC 301000Z 08005KT CAVOK 20/19 A3002 NOSIG=
201705301100 METAR MROC 301100Z 04007KT CAVOK 20/18 A3001 NOSIG=
201705301200 METAR MROC 301200Z 07005KT CAVOK 20/18 A3002 NOSIG=
201705301300 METAR MROC 301300Z 08004KT 9999 FEW035 SCT250 23/19 A3005 NOSIG=
201705301400 METAR MROC 301400Z 09004KT 9999 FEW035 SCT250 25/19 A3007 NOSIG=
201705301500 METAR MROC 301500Z 09003KT 9999 FEW035 SCT250 25/19 A3006 BECMG 24006KT=
201705301600 METAR MROC 301600Z VRB02KT 9999 FEW040 BKN250 27/20 A3006 BECMG 24006KT=
201705301700 METAR MROC 301700Z 15005KT 9999 FEW040 SCT120 SCT250 28/19 A3005 NOSIG=
201705301800 METAR MROC 301800Z 25009KT 9999 FEW040 SCT080 SCT200 27/22 A3003 NOSIG=
201705301900 METAR MROC 301900Z 25009KT 9999 VCSH FEW020TCU SCT040 SCT200 27/22 A3001 BECMG 5000 SHRA SCT015CB=
201705301928 METAR MROC 301928Z 25009KT 9999 3000NE SHRA FEW015TCU BKN030 26/22 A3000 NOSIG=
201705302000 METAR MROC 302000Z 24008KT 4000 SHRA VCTS FEW015CB FEW020TCU BKN030 23/22 A3000 BECMG TSRA=
201705302005 METAR MROC 302005Z 01009KT 0500 +TSRA BKN010CB 21/20 A3000 NOSIG=
201705302100 METAR MROC 302100Z 22005KT 5000 2000SW TSRA OVC009 21/20 A3002 NOSIG=
201705302200 METAR MROC 302200Z 13002KT 7000 2000SW BCFG FEW001 BKN015 21/20 A3003 NOSIG=
201705302300 METAR MROC 302300Z 19002KT 9999 4500SW BCFG FEW001 BKN040 21/21 A3005 NOSIG=
201705310000 METAR MROC 310000Z 11002KT 9000 4000SW BCFG SCT015 BKN025 21/20 A3006 BECMG RA=
201705310100 METAR MROC 310100Z 09003KT 9999 -RA FEW015 BKN080 21/20 A3006 NOSIG=
201705310200 METAR MROC 310200Z 16003KT 9999 FEW030 BKN120 21/20 A3007 NOSIG=
201705310300 METAR MROC 310300Z 04003KT 9999 FEW030 BKN120 21/21 A3008 NOSIG=
201705310400 METAR MROC 310400Z 06003KT CAVOK 21/20 A3006 NOSIG=
201705310500 METAR MROC 310500Z 00000KT CAVOK 21/20 A3006 NOSIG=
201705310600 METAR MROC 310600Z 24004KT 9999 3000W BCFG FEW005 BKN120 21/20 A3007 NOSIG=
201705310700 METAR MROC 310700Z 00000KT 9999 FEW015 BKN120 21/20 A3005 NOSIG=
201705310800 METAR MROC 310800Z 06004KT 9999 FEW015 SCT120 20/20 A3005 NOSIG=
201705310900 METAR MROC 310900Z 05004KT CAVOK 20/19 A3001 NOSIG=
201705311000 METAR MROC 311000Z 03006KT CAVOK 20/19 A3000 NOSIG=
201705311100 METAR MROC 311100Z 06004KT CAVOK 20/19 A3001 NOSIG=
201705311200 METAR MROC 311200Z 08004KT CAVOK 20/18 A3003 NOSIG=
201705311300 METAR MROC 311300Z VRB02KT CAVOK 23/19 A3006 NOSIG=
201705311400 METAR MROC 311400Z 18003KT CAVOK 24/19 A3006 NOSIG=
201705311500 METAR MROC 311500Z 11006KT CAVOK 27/20 A3006 NOSIG=
201705311600 METAR MROC 311600Z 13006KT 9999 FEW045 28/20 A3005 NOSIG=
201705311700 METAR MROC 311700Z 13004KT 9999 SCT045 29/19 A3003 BECMG 25006KT=
201705311800 METAR MROC 311800Z 24008KT 9999 BKN045 28/22 A3001 NOSIG=
201705311900 METAR MROC 311900Z 23011KT 9999 BKN030 27/23 A2998 NOSIG=
201705312000 METAR MROC 312000Z 27010KT 9999 4500SW VCTS BCFG FEW001 SCT030 BKN140 25/22 A2996 NOSIG=
201705312100 METAR MROC 312100Z 29004KT 3500 TSRA FEW010 SCT015CB BKN030 23/21 A2997 BECMG 1200 BKN008=
201705312200 METAR MROC 312200Z 24006KT 9999 3000SW -RA FEW005 SCT035 BKN100 21/20 A2998 RETS NOSIG=
201705312300 METAR MROC 312300Z 02003KT 9999 FEW005 SCT045 BKN100 21/20 A2999 NOSIG=
201706010000 METAR MROC 010000Z VRB02KT 9999 FEW040 SCT100 BKN200 22/21 A2999 NOSIG=
201706010100 METAR MROC 010100Z VRB02KT 9999 FEW040 BKN100 22/21 A3001 NOSIG=
201706010200 METAR MROC 010200Z 24002KT 0500 FG SCT001 21/21 A3002 NOSIG=
201706010300 METAR MROC 010300Z 32004KT 0500 FG SCT001 21/21 A3002 NOSIG=
201706010310 METAR MROC 010310Z 28004KT 0200 FG VV/// 21/21 A3005 NOSIG=
201706010338 METAR MROC 010338Z 33003KT 1000 BR SCT001 BKN010 21/21 A3005 NOSIG=
201706010400 METAR MROC 010400Z VRB02KT 1000 BR SCT002 BKN010 21/21 A3005 BECMG 05005KT 5000=
201706010500 METAR MROC 010500Z 07004KT 3000 BR SCT002 BKN020 21/20 A3005 NOSIG=
201706010600 METAR MROC 010600Z 10003KT 9999 BCFG SCT008 BKN025 20/20 A3002 NOSIG=
201706010700 METAR MROC 010700Z 05004KT CAVOK 20/19 A2999 NOSIG=
201706010800 METAR MROC 010800Z VRB02KT CAVOK 20/19 A2999 NOSIG=
201706010900 METAR MROC 010900Z VRB02KT CAVOK 20/19 A3000 NOSIG=
201706011000 METAR MROC 011000Z 03005KT 9999 -RA FEW040 BKN100 20/19 A3001 NOSIG=
201706011100 METAR MROC 011100Z 12004KT 9999 -DZ NSC 20/19 A3001 NOSIG=
201706011200 METAR MROC 011200Z 08003KT CAVOK 20/19 A3001 NOSIG=
201706011300 METAR MROC 011300Z 07005KT CAVOK 22/19 A3004 NOSIG=
201706011400 METAR MROC 011400Z 09005KT CAVOK 22/19 A3004 NOSIG=
201706011500 METAR MROC 011500Z 03006KT CAVOK 23/20 A3001 NOSIG=
201706011600 METAR MROC 011600Z 09003KT CAVOK 25/20 A3001 NOSIG=
201706011700 METAR MROC 011700Z 20003KT 9999 FEW040 SCT200 27/19 A3001 NOSIG=
201706011800 METAR MROC 011800Z 17007KT 9999 SCT045 28/19 A2999 NOSIG=
201706011900 METAR MROC 011900Z 22011KT 9999 FEW040 SCT100 27/22 A2998 NOSIG=
201706012000 METAR MROC 012000Z 25010KT 9999 SCT040 SCT100 26/21 A2995 NOSIG=
201706012100 METAR MROC 012100Z 25008KT 9999 SCT030 BKN120 25/21 A2995 NOSIG=
201706012200 METAR MROC 012200Z 23009KT 9999 -TS RA FEW010CB BKN030 24/22 A2995 BECMG 5000=
201706012300 METAR MROC 012300Z 23004KT 9999 2000SW -RA BCFG FEW002 SCT030 BKN100 23/22 A2995 BECMG 5000 -RA BR=
201706020000 METAR MROC 020000Z 32003KT 3000 BR FEW001 SCT010 BKN100 23/22 A2995 NOSIG=
201706020100 METAR MROC 020100Z 27003KT 8000 VCFG FEW002 SCT020 BKN100 22/21 A2996 NOSIG=
201706020200 METAR MROC 020200Z 34002KT 8000 VCFG FEW002 SCT020 BKN100 23/22 A2999 NOSIG=
201706020300 METAR MROC 020300Z 00000KT 8000 VCFG FEW002 SCT020 BKN100 22/22 A2998 NOSIG=
201706020400 METAR MROC 020400Z 10002KT 9999 VCFG NSC 22/21 A2998 NOSIG=
201706020500 METAR MROC 020500Z 01003KT 9999 FEW030 SCT110 21/20 A2998 NOSIG=
201706020600 METAR MROC 020600Z 12002KT 9999 1000S BCFG NSC 20/20 A2997 NOSIG=
201706020700 METAR MROC 020700Z 09004KT 1500 BR NSC 20/20 A2996 NOSIG=
201706020800 METAR MROC 020800Z 07002KT 2000 0900NE BR NSC 20/19 A2996 NOSIG=
201706020900 METAR MROC 020900Z 07003KT 9999 4500S BCFG NSC 19/18 A2995 NOSIG=
201706021000 METAR MROC 021000Z 06005KT 9000 2500SW BCFG NSC 19/18 A2996 NOSIG=
201706021100 METAR MROC 021100Z 09005KT 9999 4500SW BCFG NSC 19/18 A2997 NOSIG=
201706021200 METAR MROC 021200Z 07005KT 9999 4500SW BCFG NSC 20/18 A2999 NOSIG=
201706021300 METAR MROC 021300Z 07007KT CAVOK 23/19 A3000 NOSIG=
201706021400 METAR MROC 021400Z 18003KT CAVOK 25/20 A3003 NOSIG=
201706021500 METAR MROC 021500Z 27006KT CAVOK 25/20 A3003 NOSIG=
201706021600 METAR MROC 021600Z 27004KT 9999 FEW030 BKN200 26/21 A3004 NOSIG=
201706021700 METAR MROC 021700Z 18004KT 9999 FEW030 BKN200 28/21 A3001 NOSIG=
201706021800 METAR MROC 021800Z 13007KT 9999 FEW030 BKN200 28/20 A2999 NOSIG=
201706021900 METAR MROC 021900Z 15006KT 9999 FEW040 BKN200 29/20 A2996 NOSIG=
201706022000 METAR MROC 022000Z 25008KT 9999 FEW040 BKN200 26/22 A2993 NOSIG=
201706022100 METAR MROC 022100Z 26009KT 9999 FEW012 OVC200 26/23 A2992 NOSIG=
201706022200 METAR MROC 022200Z 26009KT 9000 FEW012 SCT025 BKN200 25/23 A2992 NOSIG=
201706022300 METAR MROC 022300Z 25006KT 4000 1800SW BR VCTS FEW003 FEW015CB BKN025 23/22 A2992 NOSIG=
201706030000 METAR MROC 030000Z 27007KT 3000 1200SW BR SCT003 BKN020 23/22 A2995 NOSIG=
201706030100 METAR MROC 030100Z 29004KT 5000 2000SW BR SCT002 BKN015 23/22 A2996 NOSIG=
201706030200 METAR MROC 030200Z 28003KT 7000 3000SW BCFG SCT002 BKN015 23/22 A2998 NOSIG=
201706030300 METAR MROC 030300Z 31003KT 7000 3000SW BCFG FEW007 SCT025 23/22 A2997 NOSIG=
201706030400 METAR MROC 030400Z 30003KT 4000 BR FEW005 SCT025 22/22 A2998 NOSIG=
201706030500 METAR MROC 030500Z VRB01KT 1500 BR FEW005 SCT025 22/21 A2997 NOSIG=
201706030600 METAR MROC 030600Z VRB02KT 9999 FEW005 21/21 A2995 NOSIG=
201706030700 METAR MROC 030700Z VRB02KT 9999 FEW005 21/21 A2994 NOSIG=
201706030800 METAR MROC 030800Z VRB01KT 9999 FEW005 21/20 A2994 NOSIG=
201706030900 METAR MROC 030900Z 01003KT 9999 FEW005 20/19 A2993 NOSIG=
201706031000 METAR MROC 031000Z 05004KT 9999 FEW005 20/19 A2993 NOSIG=
201706031100 METAR MROC 031100Z 25004KT 9999 FEW015 SCT200 20/19 A2995 NOSIG=
201706031200 METAR MROC 031200Z 10004KT 8000 VCFG FEW030 BKN200 20/19 A2997 NOSIG=
201706031300 METAR MROC 031300Z 06003KT 9999 VCFG FEW035 BKN200 21/20 A2999 NOSIG=
201706031400 METAR MROC 031400Z 34003KT 9999 FEW040 BKN200 24/20 A3000 NOSIG=
201706031500 METAR MROC 031500Z 29007KT 9999 FEW035 BKN180 25/21 A3002 NOSIG=
201706031600 METAR MROC 031600Z 22004KT 9999 FEW030 BKN180 25/20 A3002 NOSIG=
201706031700 METAR MROC 031700Z 28004KT 9999 FEW025 BKN180 26/21 A2999 NOSIG=
201706031800 METAR MROC 031800Z 26005KT 9000 FEW020 SCT050 BKN200 25/22 A2999 NOSIG=
201706031900 METAR MROC 031900Z 21003KT 9999 SCT025 BKN140 25/22 A2996 NOSIG=
201706032000 METAR MROC 032000Z 26007KT 6000 FEW010 SCT025 BKN200 24/22 A2994 NOSIG=
201706032100 METAR MROC 032100Z 27005KT 6000 SCT015 BKN100 25/22 A2995 NOSIG=
201706032200 METAR MROC 032200Z 23006KT 6000 SCT015 BKN200 23/23 A2993 NOSIG=
201706032300 METAR MROC 032300Z 25004KT 6000 2500SW BCFG FEW008 SCT020 BKN200 24/22 A2993 BECMG 5000 BR BKN010=
201706040000 METAR MROC 040000Z 26006KT 5000 BR SCT008 BKN100 23/22 A2993 BECMG 1500 BKN010=
201706040100 METAR MROC 040100Z 25002KT 5000 BR SCT008 BKN030 22/22 A2994 NOSIG=
201706040122 METAR MROC 040122Z VRB02KT 2000 BR SCT005 BKN015 22/22 A2995 NOSIG=
201706040200 METAR MROC 040200Z COR VRB02KT 5000 BR SCT008 BKN025 22/21 A2997 NOSIG=
201706040300 METAR MROC 040300Z 26003KT 3000 BR SCT008 BKN020 22/22 A2998 NOSIG=
201706040400 METAR MROC 040400Z 25003KT 3000 BR FEW001 SCT010 BKN030 22/22 A2997 NOSIG=
201706040500 METAR MROC 040500Z 08002KT 3000 BR SCT002 BKN020 22/21 A2996 NOSIG=
201706040600 METAR MROC 040600Z 36003KT 8000 VCFG FEW002 SCT030 22/21 A2995 NOSIG=
201706040700 METAR MROC 040700Z 08002KT 9999 FEW030 22/20 A2993 NOSIG=
201706040800 METAR MROC 040800Z 06002KT CAVOK 21/20 A2991 NOSIG=
201706040900 METAR MROC 040900Z 07006KT CAVOK 22/19 A2993 NOSIG=
201706041000 METAR MROC 041000Z 02005KT CAVOK 21/19 A2993 NOSIG=
201706041100 METAR MROC 041100Z 02005KT CAVOK 22/19 A2993 NOSIG=
201706041200 METAR MROC 041200Z 13004KT CAVOK 21/20 A2995 NOSIG=
201706041300 METAR MROC 041300Z 03004KT 9999 FEW035 BKN100 23/20 A2994 NOSIG=
201706041400 METAR MROC 041400Z 10011KT 9999 FEW035 BKN250 26/20 A2996 NOSIG=
201706041500 METAR MROC 041500Z 11014G25KT 9999 FEW035 BKN250 27/20 A2997 NOSIG=
201706041600 METAR MROC 041600Z 12010KT 9999 SCT035 27/20 A2997 NOSIG=
201706041700 METAR MROC 041700Z 11009KT 9999 SCT035 SCT150 28/20 A2995 NOSIG=
201706041800 METAR MROC 041800Z 11006KT 9999 SCT035 29/20 A2993 BECMG 25006KT=
201706041900 METAR MROC 041900Z 24011KT 9999 FEW020TCU SCT035 28/23 A2991 NOSIG=
201706042000 METAR MROC 042000Z 24011KT 9999 FEW020TCU SCT035 27/23 A2990 NOSIG=
201706042100 METAR MROC 042100Z 25011KT 9999 4000SW BCFG FEW001 BKN015 25/23 A2990 BECMG BKN010=
201706042200 METAR MROC 042200Z 26009KT 9999 4000SW BCFG FEW005 BKN030 24/22 A2991 NOSIG=
201706042300 METAR MROC 042300Z 26008KT 9999 2500SW BCFG FEW003 BKN025 24/22 A2992 NOSIG=
201706050000 METAR MROC 050000Z 28007KT 9999 4000SW BCFG FEW020 BKN025 23/22 A2993 NOSIG=
201706050100 METAR MROC 050100Z 27007KT 9999 BKN020 23/22 A2996 NOSIG=
201706050200 METAR MROC 050200Z 27007KT 9999 BKN015 22/22 A2998 NOSIG=
201706050300 METAR MROC 050300Z 28007KT 9999 FEW012 BKN015 22/21 A2999 NOSIG=
201706050400 METAR MROC 050400Z 35004KT 9999 FEW008 BKN030 22/21 A2997 NOSIG=
201706050500 METAR MROC 050500Z 14004KT 9999 FEW020 21/20 A2994 NOSIG=
201706050600 METAR MROC 050600Z 05003KT CAVOK 22/20 A2993 NOSIG=
201706050700 METAR MROC 050700Z 05010KT CAVOK 22/19 A2991 NOSIG=
201706050800 METAR MROC 050800Z 10007KT CAVOK 22/19 A2991 NOSIG=
201706050900 METAR MROC 050900Z 05006KT 9999 FEW040 21/19 A2991 NOSIG=
201706051000 METAR MROC 051000Z 35004KT 9999 FEW040 20/18 A2992 NOSIG=
201706051100 METAR MROC 051100Z 03005KT 9999 FEW035 20/18 A2992 NOSIG=
201706051200 METAR MROC 051200Z 04004KT 9999 FEW045 21/18 A2994 NOSIG=
201706051300 METAR MROC 051300Z 21003KT CAVOK 21/19 A2997 NOSIG=
201706051400 METAR MROC 051400Z 28003KT 9999 FEW045 BKN200 23/20 A2999 NOSIG=
201706051500 METAR MROC 051500Z 25006KT 9999 FEW045 26/21 A2998 NOSIG=
201706051600 METAR MROC 051600Z 24003KT 9999 FEW035 SCT100 26/20 A2999 NOSIG=
201706051700 METAR MROC 051700Z 25010KT 9999 SCT040 26/22 A2998 NOSIG=
201706051800 METAR MROC 051800Z 26009KT 9999 BKN045 27/22 A2997 NOSIG=
201706051900 METAR MROC 051900Z 24010KT 9999 VCSH FEW025TCU SCT035 28/22 A2994 NOSIG=
201706052000 METAR MROC 052000Z 26011KT 9999 4500SW TSRA FEW010 BKN015CB 25/23 A2992 BECMG 3000 BKN010=
201706052100 METAR MROC 052100Z 24007KT 3000 TSRA FEW005 SCT010CB BKN020 23/23 A2992 NOSIG=
201706052200 METAR MROC 052200Z COR 25012KT 8000 1500SW -RA VCFG FEW001 SCT010 BKN020 22/21 A2993 RETS BECMG 1500=
201706052300 METAR MROC 052300Z 24004KT 2500 BR FEW001 SCT005 BKN025 21/21 A2994 NOSIG=
201706052355 METAR MROC 060000Z 13003KT 9999 FEW010 SCT035 BKN100 21/21 A2997 NOSIG=
201706060000 METAR MROC 060000Z 13003KT 9999 FEW010 SCT035 BKN100 21/21 A2997 NOSIG=
201706060100 METAR MROC 060100Z 00000KT 9999 FEW035 BKN100 21/21 A2998 NOSIG=
201706060200 METAR MROC 060200Z 09002KT 9999 -RA NSC 21/21 A2999 NOSIG=
201706060300 METAR MROC 060300Z 00000KT 9999 FEW005 21/21 A2998 NOSIG=
201706060337 METAR MROC 060337Z 20003KT 0500 VV/// 21/20 A2996 NOSIG=
201706060400 METAR MROC 060400Z 13003KT 0500 FG OVC005 21/21 A2996 BECMG 5000 BR=
201706060427 METAR MROC 060427Z VRB02KT 9999 1000W BCFG SCT002 BKN120 21/21 A2998 NOSIG=
201706060500 METAR MROC 060500Z 27004KT 7000 2000SW BCFG SCT002 BKN120 21/21 A3001 BECMG 3000 BR=
201706060600 METAR MROC 060600Z 33003KT 9999 2000SW BCFG SCT005 BKN120 21/21 A3000 NOSIG=
201706060700 METAR MROC 060700Z 05003KT 9999 BCFG FEW010 SCT120 20/20 A2998 NOSIG=
201706060800 METAR MROC 060800Z 09004KT CAVOK 20/20 A2997 NOSIG=
201706060900 METAR MROC 060900Z VRB02KT 9999 SCT010 20/19 A2994 NOSIG=
201706061000 METAR MROC 061000Z 34004KT 9999 SCT010 SCT120 19/19 A2996 NOSIG=
201706061100 METAR MROC 061100Z 07005KT 9999 SCT010 BKN040 20/19 A2999 NOSIG=
201706061200 METAR MROC 061200Z 10005KT 9999 SCT015 BKN120 20/19 A2999 NOSIG=
201706061300 METAR MROC 061300Z 11005KT CAVOK 22/20 A3002 NOSIG=
201706061400 METAR MROC 061400Z 08005KT 9999 FEW040 BKN300 25/21 A3001 NOSIG=
201706061500 METAR MROC 061500Z 09003KT 9999 FEW040 BKN300 27/20 A3001 NOSIG=
201706061600 METAR MROC 061600Z 13010KT 9999 FEW040 BKN250 28/19 A2999 BECMG 24008KT=
201706061700 METAR MROC 061700Z 24008KT 9999 FEW040 BKN250 28/23 A2999 NOSIG=
201706061800 METAR MROC 061800Z 25011KT 9999 SCT040 SCT250 28/23 A2997 NOSIG=
201706061900 METAR MROC 061900Z 24008KT 9999 VCSH SCT025TCU SCT250 27/23 A2995 BECMG TSRA=
201706062000 METAR MROC 062000Z 26009KT 9999 3000N TSRA SCT015CB SCT100 25/22 A2995 BECMG 5000=
201706062100 METAR MROC 062100Z 25012KT 9999 2000SW -TSRA FEW010CB BKN020 21/20 A2994 NOSIG=
201706062200 METAR MROC 062200Z 04004KT 9999 SCT030 BKN100 24/21 A2997 NOSIG=
201706062300 METAR MROC 062300Z 00000KT 9999 -RA SCT030 BKN100 24/21 A2997 NOSIG=
201706070000 METAR MROC 070000Z 24002KT 9999 BCFG FEW030 SCT100 BKN200 23/22 A2997 NOSIG=
201706070100 METAR MROC 070100Z 00000KT 3000 BR FEW001 BKN030 22/22 A3000 NOSIG=
201706070200 METAR MROC 070200Z 30002KT 2000 BR FEW001 BKN010 22/22 A3002 NOSIG=
201706070300 METAR MROC 070300Z 29004KT 5000 BR FEW002 BKN030 22/22 A3005 NOSIG=
201706070400 METAR MROC 070400Z 33003KT 9999 2500SW BCFG FEW008 22/22 A3004 BECMG 3000 BR=
201706070500 METAR MROC 070500Z 00000KT 2000 BR FEW001 22/21 A3003 NOSIG=
201706070600 METAR MROC 070600Z 33002KT 9999 2000SW BCFG SCT002 21/21 A3002 BECMG 3000 BR=
201706070700 METAR MROC 070700Z 07003KT 9999 3000SW BCFG FEW020 BKN200 20/20 A3000 NOSIG=
201706070800 METAR MROC 070800Z 03004KT 9999 FEW020 BKN200 20/20 A3000 NOSIG=
201706070900 METAR MROC 070900Z 17002KT 9999 BKN020 20/20 A3000 NOSIG=
201706071000 METAR MROC 071000Z 29002KT 9999 2500SW -DZ BCFG BKN015 21/20 A3002 NOSIG=
201706071100 METAR MROC 071100Z 24006KT 5000 BR FEW001 SCT020 BKN100 20/20 A3001 BECMG 1000 BKN008=
201706071200 METAR MROC 071200Z 32005KT 1000 BR FEW001 BKN010 20/20 A3004 NOSIG=
201706071300 METAR MROC 071300Z 30003KT 9999 BCFG FEW005 BKN030 21/20 A3006 NOSIG=
201706071400 METAR MROC 071400Z 28002KT 9999 FEW005 BKN030 22/20 A3008 NOSIG=
201706071500 METAR MROC 071500Z 13002KT 9999 SCT030 25/20 A3011 NOSIG=
201706071600 METAR MROC 071600Z 26006KT 9999 SCT030 25/21 A3009 NOSIG=
201706071700 METAR MROC 071700Z 23006KT 9999 FEW030 25/21 A3007 NOSIG=
201706071800 METAR MROC 071800Z 26007KT 9999 SCT030 27/21 A3005 NOSIG=
201706071900 METAR MROC 071900Z 25006KT 9999 SCT030 SCT200 27/21 A3004 NOSIG=
201706072000 METAR MROC 072000Z 25006KT 9999 SCT030 SCT200 26/21 A3000 NOSIG=
201706072100 METAR MROC 072100Z 25003KT 9999 FEW020 SCT110 27/21 A2998 NOSIG=
201706072200 METAR MROC 072200Z 26007KT 9999 VCTS VCSH FEW015CB FEW020TCU BKN120 27/22 A2997 NOSIG=
201706072300 METAR MROC 072300Z 21003KT 9999 -TSRA FEW015CB FEW030 BKN120 25/22 A2998 NOSIG=
201706080000 METAR MROC 080000Z 07005KT 7000 3000SW TSRA FEW015CB SCT030 SCT080 22/21 A3000 BECMG 9999=
201706080100 METAR MROC 080100Z 00000KT 9999 FEW035 BKN140 21/21 A3001 RETSRA NOSIG=
201706080200 METAR MROC 080200Z 00000KT 9999 FEW030 BKN200 22/21 A3003 NOSIG=
201706080300 METAR MROC 080300Z 00000KT 9999 FEW040 SCT200 21/20 A3005 NOSIG=
201706080400 METAR MROC 080400Z 06005KT CAVOK 21/20 A3005 NOSIG=
201706080500 METAR MROC 080500Z 05005KT CAVOK 21/20 A3005 NOSIG=
201706080600 METAR MROC 080600Z 00000KT CAVOK 21/19 A3004 NOSIG=
201706080700 METAR MROC 080700Z VRB01KT CAVOK 21/19 A3003 NOSIG=
201706080800 METAR MROC 080800Z 03004KT CAVOK 21/19 A3001 NOSIG=
201706080900 METAR MROC 080900Z 05004KT CAVOK 21/20 A2999 NOSIG=
201706081000 METAR MROC 081000Z 07004KT 9999 SCT045 BKN100 21/20 A3000 NOSIG=
201706081100 METAR MROC 081100Z 07003KT 9999 SCT045 BKN100 21/20 A3001 NOSIG=
201706081200 METAR MROC 081200Z 00000KT 8000 VCFG BKN030 SCT100 22/20 A3004 NOSIG=
201706081230 METAR MROC 081230Z VRB02KT 0500 FG SCT001 BKN005 21/21 A3005 NOSIG=
201706081300 METAR MROC 081300Z 18003KT 0800 FG SCT001 BKN005 22/21 A3006 BECMG 1500 BR=
201706081340 METAR MROC 081340Z 25004KT 5000 1500SW BR SCT001 BKN015 22/21 A3007 NOSIG=
201706081400 METAR MROC 081400Z 23003KT 7000 2000SW BCFG SCT010 BKN025 22/21 A3008 NOSIG=
201706081500 METAR MROC 081500Z 26005KT 9999 SCT010 SCT030 25/21 A3008 NOSIG=
201706081600 METAR MROC 081600Z 27006KT 9999 SCT025 26/21 A3006 NOSIG=
201706081700 METAR MROC 081700Z 25006KT 9999 SCT025 SCT200 27/22 A3006 NOSIG=
201706081800 METAR MROC 081800Z 25006KT 9999 VCTS FEW015CB SCT025 SCT200 27/22 A3006 NOSIG=
201706081900 METAR MROC 081900Z 23007KT 9999 3000NE VCTS SCT015CB BKN030 24/22 A3001 BECMG 5000 TSRA=
201706081918 METAR MROC 081918Z 22006KT 9999 3000N -TSRA SCT010CB BKN030 24/22 A3001 BECMG 5000 TSRA=
201706082000 METAR MROC 082000Z 26007KT 5000 -SHRA SCT015TCU BKN030 23/22 A3000 RETSRA NOSIG=
201706082100 METAR MROC 082100Z 21003KT 6000 2500SW -TSRA FEW004 FEW015CB BKN030 22/22 A2998 BECMG 3000 BR=
201706082200 METAR MROC 082200Z 24005KT 5000 2000SW -DZ BR FEW002 SCT020 BKN100 22/21 A2998 RETSRA BECMG 3000 BKN010=
201706082300 METAR MROC 082300Z 29003KT 1500 TSRA BR FEW002 FEW009CB BKN020 21/20 A3001 BECMG 3000=
201706090000 METAR MROC 090000Z 07004KT 7000 2500SW -RA FEW010 BKN080 20/19 A3002 NOSIG=
201706090100 METAR MROC 090100Z 08003KT 9999 -RA FEW020 BKN100 20/20 A3003 NOSIG=
201706090200 MROC 090200Z 09003KT 9999 FEW040 BKN120 21/20 A3003 NOSIG=
201706090300 METAR MROC NIL=
201706090400 METAR MROC 090400Z 31003KT 9999 FEW020 BKN120 20/20 A3008=
201706090500 METAR MROC 090500Z 00000KT 9999 BCFG FEW010 SCT030 BKN1220 21/20 A3008=
201706090600 METAR MROC 090600Z 11003KT 9999 BCFG FEW010 SCT030 BKN120 20/20 A3006=
201706090700 METAR MROC 090700Z 09003KT 9999 FEW030 BKN200 20/19 A3003=
201706090800 METAR MROC 090800Z 05004KT CAVOK 20/19 A3000=
201706090900 METAR MROC 090900Z 06005KT CAVOK 20/19 A2999=
201706091000 METAR MROC 091000Z 08005KT CAVOK 19/18 A2998=
201706091100 METAR MROC 091100Z 07005KT CAVOK 19/18 A2999 NOSIG=
201706091200 METAR MROC 091200Z 09004KT CAVOK 19/18 A3001 NOSIG=
201706091300 METAR MROC 091300Z 06004KT CAVOK 21/19 A3004=
201706091400 METAR MROC 091400Z VRB02KT CAVOK 23/19 A3005 BECMG 24005KT=
201706091500 METAR MROC 091500Z 22003KT CAVOK 24/20 A3005 NOSIG=
201706091600 METAR MROC 091600Z 25006KT 9999 FEW045 SCT250 25/20 A3006 NOSIG=
201706091700 METAR MROC 091700Z 25009KT 9999 SCT035 26/21 A3006 NOSIG=
201706091800 METAR MROC 091800Z 24008KT 9999 SCT035 26/20 A3004 NOSIG=
201706091900 METAR MROC 091900Z 25009KT 9999 RA VCSH FEW015TCU SCT030 SCT250 26/21 A3001 BECMG -TSRA SCT010CB=
201706092000 METAR MROC 092000Z 26007KT 9999 FEW015TCU SCT035 26/22 A3000 RERA NOSIG=
201706092100 METAR MROC 092100Z 24012KT 9999 4000W SHRA FEW009TCU FEW018TCU SCT030 24/22 A2997 BECMG 5000=
201706092200 METAR MROC 092200Z 25013KT 2500 1200NE BR BCFG SCT003 BKN015 21/21 A2996 NOSIG=
201706092300 METAR MROC 092300Z 25009KT 0300 -RA FG VCTS BKN002 21/20 A2997 NOSIG=
201706100000 METAR MROC 100000Z 24006KT 8000 2500SW -RA BCFG SCT003 BKN015 21/20 A2998 NOSIG=
201706100100 METAR MROC 100100Z 09002KT 9999 4000SW -DZ BCFG OVC030 20/20 A2999 NOSIG=
201706100200 METAR MROC 100200Z 07003KT 9999 4500SW BCFG FEW010 BKN140 20/20 A3002 NOSIG=
201706100300 METAR MROC 100300Z 08003KT CAVOK 21/20 A3003 NOSIG=
201706100400 METAR MROC 100400Z 07007KT CAVOK 22/20 A3004 NOSIG=
201706100500 METAR MROC 100500Z 03006KT 9999 -RA FEW015 BKN100 22/20 A3004 NOSIG=
201706100600 METAR MROC 100600Z 24007KT 0100 -RA FG VV/// 20/20 A3002 BECMG 1200 BR=
201706100700 METAR MROC 100700Z 24006KT 0800 -RA FG BKN002 20/20 A3002 BECMG 1200 BR=
201706100800 METAR MROC 100800Z VRB02KT 5000 2000SW BR SCT002 BKN020 20/20 A3000 NOSIG=
201706100900 METAR MROC 100900Z 00000KT 8000 3500SW BCFG FEW003 SCT015 BKN120 20/20 A3001 NOSIG=
201706101000 METAR MROC 101000Z 00000KT 7000 3000SW -RA BCFG FEW002 SCT015 BKN100 20/20 A3000 NOSIG=
201706101100 METAR MROC 101100Z COR 24004KT 3000 1200SW -RA BR SCT002 BKN070 20/20 A3001 NOSIG=
201706101200 METAR MROC 101200Z 00000KT 4000 1500SW -DZ BR SCT002 BKN120 20/20 A3002 NOSIG=
201706101300 METAR MROC 101300Z 11002KT 9999 2000SW DZ BCFG FEW001 SCT100 BKN120 21/20 A3002 NOSIG=
201706101400 METAR MROC 101400Z 26006KT 9999 2000SW BCFG SCT003 BKN120 22/20 A3005 NOSIG=
201706101500 METAR MROC 101500Z 28007KT 9999 3000SW BCFG FEW004 SCT020 BKN130 23/21 A3006 NOSIG=
201706101600 METAR MROC 101600Z 26005KT 9999 FEW010 BKN020 23/21 A3007 NOSIG=
201706101700 METAR MROC 101700Z 25007KT 9999 FEW001 BKN020 24/21 A3006 NOSIG=
201706101800 METAR MROC 101800Z 24007KT 9999 FEW012 SCT040 BKN120 24/21 A3005 NOSIG=
201706101900 METAR MROC 101900Z 27005KT 9999 SCT020 SCT090 24/21 A3003 NOSIG=
201706102000 METAR MROC 102000Z 26008KT 9999 VCSH BKN020 25/21 A3001 NOSIG=
201706102100 METAR MROC 102100Z 24009KT 9999 FEW015 BKN020 24/22 A2999 NOSIG=
201706102200 METAR MROC 102200Z 27009KT 9000 SCT010 BKN015 22/21 A2999 BECMG 5000 BR=
201706102300 METAR MROC 102300Z COR 26009KT 5000 2000SW -RA BR SCT005 BKN010 21/21 A3000 BECMG 1500=
201706102354 METAR MROC 110000Z 27006KT 2500 -RA BR FEW005 SCT010 BKN020 21/21 A3001 NOSIG=
201706110000 METAR MROC 110000Z 27006KT 2500 -RA BR FEW005 SCT010 BKN020 21/21 A3001 NOSIG=
201706110100 METAR MROC 110100Z 24007KT 2000 RA BR FEW001 SCT010 BKN020 20/20 A3004 NOSIG=
201706110200 METAR MROC 110200Z 32004KT 8000 3500SW -RA VCFG FEW001 SCT020 BKN100 20/20 A3006 NOSIG=
201706110300 METAR MROC 110300Z 15003KT 9999 BCFG FEW001 SCT020 BKN100 20/20 A3006 NOSIG=
201706110400 METAR MROC 110400Z 13003KT 9999 FEW020 BKN120 20/20 A3008 NOSIG=
201706110500 METAR MROC 110500Z 09004KT CAVOK 20/20 A3006 NOSIG=
201706110600 METAR MROC 110600Z 09005KT CAVOK 20/20 A3004 NOSIG=
201706110700 METAR MROC 110700Z 07007KT CAVOK 21/19 A3001 NOSIG=
201706110800 METAR MROC 110800Z 10003KT CAVOK 21/19 A3001 NOSIG=
201706110900 METAR MROC 110900Z 24004KT 9999 BCFG SCT010 20/19 A3001 NOSIG=
201706110913 METAR MROC 110913Z 25005KT 0200 FG VV/// 20/20 A3001 NOSIG=
201706111000 METAR MROC 111000Z 26003KT 0200 FG VV/// 20/20 A3003 NOSIG=
201706111100 METAR MROC 111100Z 00000KT 1000 BR BKN005 20/20 A3003 NOSIG=
201706111200 METAR MROC 111200Z 07002KT 5000 BR SCT005 BKN015 20/20 A3005 NOSIG=
201706111300 METAR MROC 111300Z COR 10003KT 9999 3000N BCFG FEW025 SCT120 BKN200 20/20 A3006 NOSIG=
201706111400 METAR MROC 111400Z 07005KT 9999 FEW035 SCT080 BKN200 21/20 A3007 NOSIG=
201706111500 METAR MROC 111500Z 08005KT 9999 FEW035 OVC200 22/20 A3006 NOSIG=
201706111600 METAR MROC 111600Z 07005KT 9999 FEW040 OVC200 23/20 A3006 NOSIG=
201706111700 METAR MROC 111700Z 11010KT 9999 FEW040 SCT120 BKN200 24/20 A3007 NOSIG=
201706111800 METAR MROC 111800Z 12004KT 9999 FEW035 BKN200 25/21 A3007 NOSIG=
201706111900 METAR MROC 111900Z 12004KT 9999 FEW035 BKN200 26/21 A3005 NOSIG=
201706112000 METAR MROC 112000Z VRB02KT 9999 FEW035 BKN200 26/20 A3002 NOSIG=
201706112100 METAR MROC 112100Z 25008KT 9999 FEW020 BKN160 24/22 A3000 NOSIG=
201706112200 METAR MROC 112200Z 26007KT 9999 2000SW BCFG FEW002 SCT020 BKN200 23/22 A2999 NOSIG=
201706112300 METAR MROC 112300Z 23004KT 8000 VCFG FEW002 SCT010 BKN030 23/22 A2999 NOSIG=
201706120000 METAR MROC 120000Z 25004KT 3000 BR FEW002 SCT010 BKN030 22/22 A3001 NOSIG=
201706120100 METAR MROC 120100Z 25002KT 3000 BR FEW002 SCT010 BKN030 22/21 A3002 NOSIG=
201706120200 METAR MROC 120200Z 00000KT 5000 BR FEW001 SCT010 BKN030 22/21 A3003 NOSIG=
201706120300 METAR MROC 120300Z 00000KT 8000 VCFG FEW010 SCT030 BKN120 22/21 A3003 NOSIG=
201706120400 METAR MROC 120400Z 00000KT 6000 2000SW BCFG FEW001 BKN160 21/21 A3004 BECMG 3000 BR=
201706120500 METAR MROC 120500Z 07004KT 9999 2500SW BCFG NSC 21/20 A3004 NOSIG=
201706120600 METAR MROC 120600Z 10004KT CAVOK 21/19 A3001 NOSIG=
201706120700 METAR MROC 120700Z 08003KT CAVOK 20/19 A2999 NOSIG=
201706120800 METAR MROC 120800Z 07006KT CAVOK 21/18 A2999 NOSIG=
201706120900 METAR MROC 120900Z 06010KT CAVOK 20/18 A2998 NOSIG=
201706121000 METAR MROC 121000Z 04006KT CAVOK 20/18 A2998 NOSIG=
201706121100 METAR MROC 121100Z 08007KT CAVOK 21/18 A2999 NOSIG=
201706121200 METAR MROC 121200Z 08004KT CAVOK 21/18 A2999 NOSIG=
201706121300 METAR MROC 121300Z 07011KT CAVOK 22/18 A2998 NOSIG=
201706121400 METAR MROC 121400Z 10006KT CAVOK 24/18 A2998 NOSIG=
201706121500 METAR MROC 121500Z 11008KT CAVOK 25/19 A3001 NOSIG=
201706121600 METAR MROC 121600Z 10007KT 9999 FEW040 SCT200 28/19 A3002 NOSIG=
201706121700 METAR MROC 121700Z 10010KT 9999 FEW040 SCT200 29/19 A2999 NOSIG=
201706121800 METAR MROC 121800Z 10008KT 9999 FEW040 SCT200 29/19 A2998 NOSIG=
201706121900 METAR MROC 121900Z 14008KT 9999 FEW040 BKN200 29/19 A2996 NOSIG=
201706122000 METAR MROC 122000Z 22008KT 9999 FEW040 BKN200 26/23 A2993 NOSIG=
201706122100 MROC 122100Z COR 25010KT 9999 VCTS VCSH FEW015TCU SCT040 BKN120 25/23 A2992 NOSIG=
201706122200 METAR MROC 122200Z 23008KT 9999 4500N VCSH FEW015TCU SCT035 BKN120 25/22 A2992 NOSIG=
201706122300 METAR MROC 122300Z 26006KT 8000 2500SW RA BCFG FEW005 SCT030 BKN110 22/22 A2993 RETS NOSIG=
201706130000 METAR MROC 130000Z 12006KT 9999 FEW045 SCT140 SCT200 25/18 A2993 NOSIG=
201706130100 METAR MROC 130100Z VRB02KT 9999 FEW012 BKN140 22/21 A2996 NOSIG=
201706130200 METAR MROC 130200Z VRB02KT 9999 FEW015 BKN150 22/21 A2997 NOSIG=
201706130300 METAR MROC 130300Z 25004KT 9000 4000SW BCFG FEW005 SCT040 22/22 A2999 NOSIG=
201706130400 METAR MROC 130400Z 25005KT 9999 FEW015 BKN040 21/21 A3001 NOSIG=
201706130500 METAR MROC 130500Z 28005KT 9999 FEW015 BKN040 21/20 A3001 NOSIG=
201706130600 METAR MROC 130600Z 32004KT 9999 FEW005 BKN040 21/20 A2999 NOSIG=
201706130700 METAR MROC 130700Z 32002KT 9999 FEW005 BKN040 21/20 A2998 NOSIG=
201706130800 METAR MROC 130800Z VRB02KT 9999 FEW005 BKN040 21/20 A2997 NOSIG=
201706130900 METAR MROC 130900Z 33003KT 9999 FEW005 SCT015 BKN040 21/20 A2996 NOSIG=
201706131000 METAR MROC 131000Z 34003KT 9999 FEW015 21/20 A2995 NOSIG=
201706131100 METAR MROC 131100Z 10003KT CAVOK 20/19 A2996 NOSIG=
201706131200 METAR MROC 131200Z 02003KT 9999 FEW030 BKN150 20/18 A3000 NOSIG=
201706131300 METAR MROC 131300Z VRB02KT 9999 VCFG FEW010 BKN150 21/20 A3001 BECMG 24007KT=
201706131400 METAR MROC 131400Z 07003KT 9999 FEW030 BKN150 24/19 A3000 BECMG 24007KT=
201706131500 METAR MROC 131500Z VRB02KT 9999 FEW035 SCT150 26/20 A3001 BECMG 24007KT=
201706131600 METAR MROC 131600Z 09004KT 9999 FEW040 SCT150 27/19 A2999 NOSIG=
201706131700 METAR MROC 131700Z 10007KT 9999 FEW040 SCT120 28/18 A2998 NOSIG=
201706131800 METAR MROC 131800Z 12005KT 9999 FEW035 BKN130 27/19 A2995 NOSIG=
201706131900 METAR MROC 131900Z 12009KT 9999 SCT035 SCT200 26/18 A2994 NOSIG=
201706132000 METAR MROC 132000Z 11009KT 9999 SCT035 SCT200 25/18 A2994 NOSIG=
201706132100 METAR MROC 132100Z 12006KT 9999 FEW045 SCT140 SCT200 25/18 A2993 NOSIG=
201706132200 METAR MROC 132200Z 22008KT 9999 FEW040 SCT140 SCT200 24/22 A2993 NOSIG=
201706132300 METAR MROC 132300Z 27007KT 9999 VCFG FEW010 SCT040 BKN200 22/21 A2995 NOSIG=
201706140000 METAR MROC 140000Z VRB02KT 9999 BCFG FEW010 SCT060 BKN200 22/21 A2997 NOSIG=
201706140100 METAR MROC 140100Z 26003KT 9999 SCT020 BKN200 22/21 A2999 NOSIG=
201706140200 METAR MROC 140200Z 05006KT CAVOK 22/18 A3000 NOSIG=
201706140300 METAR MROC 140300Z 08006KT CAVOK 22/18 A3000 NOSIG=
201706140400 METAR MROC 140400Z 19002KT CAVOK 22/18 A3000 NOSIG=
201706140500 METAR MROC 140500Z 22004KT CAVOK 21/20 A3000 NOSIG=
201706140600 METAR MROC 140600Z 34003KT CAVOK 21/20 A2999 NOSIG=
201706140700 METAR MROC 140700Z 32003KT 9999 FEW010 BKN120 21/19 A2998 NOSIG=
201706140800 METAR MROC 140800Z 14002KT 9999 FEW010 BKN120 21/20 A2998 NOSIG=
201706140900 METAR MROC 140900Z 10004KT 9999 SCT020 BKN120 20/20 A2997 NOSIG=
201706141000 METAR MROC 141000Z 07006KT 9999 FEW025 SCT120 20/19 A2996 NOSIG=
201706141100 METAR MROC 141100Z 07006KT CAVOK 20/18 A2996 NOSIG=
201706141200 METAR MROC 141200Z 04006KT CAVOK 20/18 A2998 NOSIG=
201706141300 METAR MROC 141300Z 07003KT CAVOK 23/18 A3000 NOSIG=
201706141400 METAR MROC 141400Z 24005KT CAVOK 23/19 A3002 NOSIG=
201706141500 METAR MROC 141500Z 26007KT 9999 FEW030 SCT120 SCT250 24/19 A3002 NOSIG=
201706141600 METAR MROC 141600Z 24006KT 9999 SCT030 BKN120 25/19 A3002 NOSIG=
201706141700 METAR MROC 141700Z 25010KT 9999 SCT030 BKN120 24/21 A3002 NOSIG=
201706141800 METAR MROC 141800Z 28007KT 9999 FEW015TCU SCT030 SCT120 24/20 A3003 NOSIG=
201706141900 METAR MROC 141900Z 26008KT 9999 FEW015TCU BKN030 24/21 A3001 NOSIG=
201706142000 METAR MROC 142000Z 25010KT 9999 FEW015TCU BKN030 23/21 A2999 NOSIG=
201706142100 METAR MROC 142100Z 26008KT 9999 2500SW BKN010 21/21 A2998 BECMG 3000 BR=
201706142200 METAR MROC 142200Z 26005KT 9999 4000SW BCFG FEW008 BKN010 21/21 A2997 REDZ NOSIG=
201706142300 METAR MROC 142300Z 27005KT 9999 BKN009 21/20 A2999 NOSIG=
201706150000 METAR MROC 150000Z 27004KT 9999 OVC009 21/20 A3000 NOSIG=
201706150100 METAR MROC 150100Z 00000KT 9999 BKN015 21/20 A3002 BECMG 3000 BR=
201706150200 METAR MROC 150200Z 23002KT 9999 BKN015 21/20 A3004 BECMG 3000 BR=
201706150300 METAR MROC 150300Z 25002KT 9999 FEW015 BKN025 21/20 A3004 NOSIG=
201706150400 METAR MROC 150400Z 33003KT 9999 FEW008 SCT040 21/20 A3006 NOSIG=
201706150500 METAR MROC 150500Z 29003KT 9999 FEW010 BKN040 21/20 A3007 NOSIG=
201706150600 METAR MROC 150600Z 32003KT 9999 FEW010 BKN040 21/20 A3006 NOSIG=
201706150700 METAR MROC 150700Z 00000KT 9999 FEW015 BKN035 21/19 A3003 NOSIG=
201706150800 METAR MROC 150800Z 07004KT 9999 SCT015 BKN120 21/19 A2999=
201706150900 METAR MROC 150900Z 00000KT 9999 -DZ FEW015 BKN120 20/19 A2996 NOSIG=
201706151000 METAR MROC 151000Z 01004KT 9999 VCFG FEW002 BKN120 20/20 A2999 NOSIG=
201706151100 METAR MROC 151100Z 17003KT 8000 1200SW BCFG SCT002 SCT070 20/19 A3000 NOSIG=
201706151200 METAR MROC 151200Z VRB02KT 5000 2000SW BR FEW002 SCT020 BKN120 20/19 A3003 NOSIG=
201706151300 METAR MROC 151300Z 33003KT 9999 4500SW BCFG FEW005 BKN070 21/20 A3005 NOSIG=
201706151400 METAR MROC 151400Z 28002KT 9999 4500SW BCFG FEW001 BKN020 23/20 A3005 NOSIG=
201706151500 METAR MROC 151500Z 24004KT 9999 FEW020 BKN130 24/20 A3006 NOSIG=
201706151600 METAR MROC 151600Z VRB02KT 9999 FEW030 BKN250 26/21 A3004 NOSIG=
201706151700 METAR MROC 151700Z 25008KT 9999 VCSH SCT030 26/20 A3004 NOSIG=
201706151800 METAR MROC 151800Z 26009KT 9999 VCSH FEW020TCU FEW030 BKN300 26/21 A3003 BECMG SHRA=
201706151900 METAR MROC 151900Z 25008KT 9999 FEW010 SCT040 26/22 A3001 NOSIG=
201706152000 METAR MROC 152000Z 25011KT 9999 FEW010 BKN020 24/22 A2998 BECMG SHRA=
201706152100 METAR MROC 152100Z 25012KT 9000 SCT005 BKN020 23/22 A2998 BECMG 5000 BKN010=
201706152200 METAR MROC 152200Z 27010KT 7000 -RA SCT003 BKN010 22/21 A2999 BECMG 5000=
201706152300 METAR MROC 152300Z 26006KT 1500 -DZ BR SCT002 BKN010 21/21 A3000 BECMG 0600 FG BKN008=
201706160000 METAR MROC 160000Z 27009KT 2000 0600SW -RA BR SCT002 BKN010 21/21 A3003 BECMG 1500=
201706160100 METAR MROC 160100Z 26004KT 1200 -RA BR SCT001 BKN008 21/21 A3005 BECMG BKN006=
201706160200 MROC 160200Z 27003KT 6000 2000SW -RA BCFG SCT002 SCT015 BKN100 21/20 A3006 NOSIG=
201706160300 MROC 160300Z 26003KT 5000 1500SW -RA BCFG SCT001 SCT015 BKN100 21/21 A3007 BECMG 3000 BR=
201706160400 METAR MROC 160400Z 25004KT 1000 BR BKN005 21/20 A3008 BECMG 0500 FG VV///=
201706160500 METAR MROC 160500Z 25003KT 1200 0500W BR SCT001 BKN005 20/20 A3008 BECMG 0500 FG VV///=
201706160600 METAR MROC 160600Z 26003KT 1500 -DZ BR SCT001 BKN005 21/20 A3006 NOSIG=
201706160700 METAR MROC 160700Z 30003KT 5000 BR SCT002 BKN015 21/20 A3005 NOSIG=
201706160800 METAR MROC 160800Z 31003KT 4000 -RA BR FEW002 BKN020 20/20 A3003 NOSIG=
201706160900 METAR MROC 160900Z VRB02KT 3000 -DZ BR SCT002 BKN010 20/20 A3003 NOSIG=
201706161000 METAR MROC 161000Z 25004KT 1200 DZ BR BKN005 21/20 A3004 NOSIG=
201706161100 METAR MROC 161100Z 31004KT 5000 BR SCT005 BKN020 20/20 A3005 REDZ NOSIG=
201706161200 METAR MROC 161200Z 25004KT 5000 DZ BR FEW002 SCT010 BKN100 20/20 A3007 NOSIG=
201706161300 METAR MROC 161300Z 33004KT 9999 FEW010 BKN100 21/20 A3007 REDZ NOSIG=
201706161400 METAR MROC 161400Z 04003KT 9999 FEW015 BKN120 23/19 A3008 NOSIG=
201706161500 METAR MROC 161500Z 26003KT 9999 FEW025 SCT120 BKN200 25/19 A3008 NOSIG=
201706161600 METAR MROC 161600Z 29004KT 9999 FEW030 SCT120 BKN200 25/19 A3007 NOSIG=
201706161700 METAR MROC 161700Z 25003KT 9999 FEW030 BKN120 26/18 A3005 NOSIG=
201706161800 METAR MROC 161800Z 26005KT 9999 FEW030 BKN120 26/19 A3004 NOSIG=
201706161900 METAR MROC 161900Z 24008KT 9999 SCT035 BKN120 26/20 A3002 NOSIG=
201706162000 METAR MROC 162000Z 23005KT 9999 FEW035 BKN120 26/20 A3000 NOSIG=
201706162100 METAR MROC 162100Z 28005KT 9999 FEW030 BKN130 26/20 A2998 NOSIG=
201706162200 METAR MROC 162200Z 25008KT 9999 FEW030 BKN130 24/21 A2998 NOSIG=
201706162300 METAR MROC 162300Z 25008KT 9999 2000SW BCFG FEW002 SCT020 BKN100 22/21 A2999 NOSIG=
201706170000 METAR MROC 170000Z 27007KT 8000 VCFG FEW002 SCT020 BKN070 21/20 A2999 NOSIG=
201706170100 METAR MROC 170100Z 30004KT 9999 BCFG FEW005 SCT020 BKN070 21/20 A3002 NOSIG=
201706170200 METAR MROC 170200Z 02002KT 9999 FEW020 BKN120 21/20 A3004 NOSIG=
201706170300 METAR MROC 170300Z 10002KT 9999 FEW020 BKN120 21/20 A3004 NOSIG=
201706170400 METAR MROC 170400Z 26002KT 9999 FEW001 SCT120 21/20 A3004 NOSIG=
201706170500 METAR MROC 170500Z 00000KT 9999 CAVOK 20/20 A3004 NOSIG=
201706170600 METAR MROC 170600Z 15004KT 9999 FEW001 20/19 A3003 NOSIG=
201706170700 METAR MROC 170700Z 30002KT 9999 BCFG FEW001 SCT120 20/20 A3003 NOSIG=
201706170800 METAR MROC 170800Z 00000KT 9999 BCFG FEW001 BKN025 20/19 A3001 NOSIG=
201706170900 METAR MROC 170900Z 27006KT 5000 2000SW -DZ BR BKN003 20/19 A3002 BECMG 3000 BR=
201706170925 METAR MROC 170925Z VRB02KT 5000 2000SW -DZ BR SCT003 BKN005 20/19 A3002 NOSIG=
201706171000 METAR MROC 171000Z 08004KT 9999 -DZ FEW005 BKN060 20/19 A3000 NOSIG=
201706171100 METAR MROC 171100Z 14002KT 9999 FEW020 BKN120 20/19 A3002 NOSIG=
201706171200 METAR MROC 171200Z 05006KT 9999 BCFG FEW045 BKN140 21/19 A3002 NOSIG=
201706171300 METAR MROC 171300Z 09004KT CAVOK 21/19 A3001 BECMG 22006KT=
201706171400 METAR MROC 171400Z 11004KT CAVOK 24/19 A3002 BECMG 22006KT=
201706171500 METAR MROC 171500Z 24004KT 9999 FEW040 SCT140 BKN250 25/19 A3004 NOSIG=
201706171600 METAR MROC 171600Z 25008KT 9999 FEW040 SCT140 BKN250 26/21 A3004 NOSIG=
201706171700 METAR MROC 171700Z 24008KT 9999 SCT040 SCT250 26/21 A3003 NOSIG=
201706171800 METAR MROC 171800Z 24008KT 9999 SCT040 SCT120 26/21 A3002 NOSIG=
201706171900 METAR MROC 171900Z 26008KT 9999 FEW010 SCT030 BKN120 26/21 A2999 NOSIG=
201706172000 METAR MROC 172000Z 25011KT 9999 SCT030 BKN100 25/21 A2998 NOSIG=
201706172100 METAR MROC 172100Z 25008KT 9999 SCT020TCU SCT130 25/21 A2995 NOSIG=
201706172200 METAR MROC 172200Z 24011KT 5000 1500SW RA BR FEW004 SCT010 BKN080 22/21 A2997 NOSIG=
201706172300 METAR MROC 172300Z 28006KT 7000 3000SW -RA BCFG FEW002 SCT020 BKN090 21/21 A2998 NOSIG=
201706180000 METAR MROC 180000Z 31004KT 9999 -DZ VCFG FEW007 SCT040 BKN070 21/21 A2999 NOSIG=
201706180100 METAR MROC 180100Z 30004KT 9999 -RA VCFG FEW008 SCT030 BKN100 21/21 A3000 NOSIG=
201706180200 METAR MROC 180200Z 28004KT 9999 -RA VCFG FEW008 SCT025 BKN100 21/20 A3003 NOSIG=
201706180300 METAR MROC 180300Z 29005KT 9999 4500SW -RA BCFG FEW002 SCT020 BKN100 21/20 A3003 NOSIG=
201706180400 METAR MROC 180400Z 31003KT 9999 -RA BCFG FEW002 SCT015 BKN100 21/20 A3004 NOSIG=
201706180500 METAR MROC 180500Z 27005KT 8000 3000SW -RA VCFG FEW001 SCT010 BKN025 21/20 A3006 NOSIG=
201706180600 METAR MROC 180600Z 35005KT 8000 -RA VCFG FEW005 BKN030 19/19 A3007 NOSIG=
201706180700 METAR MROC 180700Z 01003KT 9999 -RA FEW005 BKN040 20/19 A3004 NOSIG=
201706180800 METAR MROC 180800Z 03004KT 9999 -RA FEW005 BKN040 20/19 A3001 NOSIG=
201706180900 METAR MROC 180900Z 08005KT 9999 -RA FEW025 BKN100 20/19 A2998 NOSIG=
201706181000 METAR MROC 181000Z 09006KT 9999 -RA FEW025 BKN100 20/19 A2995 NOSIG=
201706181100 METAR MROC 181100Z 09007KT 9999 -RA NSC 20/19 A2993 NOSIG=
201706181200 METAR MROC 181200Z VRB02KT CAVOK 20/19 A2994 NOSIG=
201706181300 METAR MROC 181300Z 03005KT CAVOK 21/19 A2996 NOSIG=
201706181400 METAR MROC 181400Z 24003KT CAVOK 23/20 A2999 NOSIG=
201706181500 METAR MROC 181500Z COR 24008KT 9999 FEW015 BKN140 23/20 A3002 NOSIG=
201706181600 METAR MROC 181600Z 25006KT 9999 FEW015 SCT140 24/20 A3002 NOSIG=
201706181700 METAR MROC 181700Z 24005KT 9999 SCT020 SCT150 25/20 A3000 NOSIG=
201706181800 METAR MROC 181800Z 26006KT 9999 SCT020 SCT160 26/20 A2999 NOSIG=
201706181900 METAR MROC 181900Z 25009KT 9999 FEW010 SCT020 BKN160 25/22 A2996 NOSIG=
201706182000 METAR MROC 182000Z 26008KT 9999 FEW015 BKN090 24/22 A2994 NOSIG=
201706182100 METAR MROC 182100Z 26007KT 9999 SCT030 BKN250 26/20 A2992 NOSIG=
201706182200 METAR MROC 182200Z 24009KT 9999 SCT030 SCT200 25/22 A2992 NOSIG=
201706182300 METAR MROC 182300Z 24009KT 9999 3500SW -RA BCFG SCT008 BKN020 22/21 A2995 BECMG 5000 BR BKN010=
201706190000 METAR MROC 190000Z 26003KT 5000 RA SCT015 BKN100 20/20 A2997 NOSIG=
201706190100 METAR MROC 190100Z 27002KT 7000 -RA SCT010 BKN025 21/21 A3000 NOSIG=
201706190200 METAR MROC 190200Z 01004KT 8000 -RA SCT010 BKN030 20/20 A3002 NOSIG=
201706190300 METAR MROC 190300Z 36006KT 5000 RA SCT010 BKN030 19/19 A3004 NOSIG=
201706190400 METAR MROC 190400Z 07004KT 9999 -RA SCT030 OVC100 20/19 A3005 NOSIG=
201706190500 METAR MROC 190500Z 10005KT 9999 FEW030 BKN100 20/19 A3003 NOSIG=
201706190600 METAR MROC 190600Z 05003KT CAVOK 20/19 A3002 NOSIG=
201706190700 METAR MROC 190700Z 07003KT CAVOK 20/19 A2999 NOSIG=
201706190800 METAR MROC 190800Z 09005KT CAVOK 20/19 A2997 NOSIG=
201706190900 METAR MROC 190900Z 08005KT CAVOK 20/19 A2994 NOSIG=
201706191000 METAR MROC 191000Z 10004KT CAVOK 20/18 A2994 NOSIG=
201706191100 METAR MROC 191100Z 10004KT CAVOK 19/18 A2994 NOSIG=
201706191200 METAR MROC 191200Z 08006KT CAVOK 20/18 A2996 NOSIG=
201706191300 METAR MROC 191300Z 23006KT CAVOK 20/19 A3000 NOSIG=
201706191400 METAR MROC 191400Z 23004KT 9999 FEW015 SCT120 BKN200 21/20 A3002 NOSIG=
201706191500 METAR MROC 191500Z 25005KT 9999 FEW015 SCT120 BKN200 22/20 A3003 NOSIG=
201706191600 METAR MROC 191600Z 28005KT 9999 FEW020 BKN200 25/20 A3000 NOSIG=
201706191700 METAR MROC 191700Z 24006KT 9999 FEW025 BKN200 26/20 A2999 NOSIG=
201706191800 METAR MROC 191800Z 25009KT 9999 FEW030 BKN250 26/20 A2998 NOSIG=
201706191900 METAR MROC 191900Z 24011KT 9999 FEW030 SCT250 26/22 A2997 NOSIG=
201706192000 METAR MROC 192000Z 26010KT 9999 VCTS FEW009 FEW015TCU BKN020 24/22 A2994 BECMG TSRA=
201706192100 METAR MROC 192100Z 24004KT 9999 VCTS BKN020 23/22 A2992 NOSIG=
201706192200 METAR MROC 192200Z 20004KT 9999 RA SCT010 BKN025 22/22 A2993 NOSIG=
201706192244 METAR MROC 192244Z 26002KT 5000 TSRA FEW001 SCT010 BKN100 22/22 A2994 NOSIG=
201706192300 METAR MROC 192300Z 00000KT 5000 TSRA FEW010 BKN100 22/22 A2995 BECMG 3000 BKN010=
201706200000 METAR MROC 200000Z 23003KT 9999 4000SW BCFG FEW008 BKN100 22/22 A2996 RETSRA BECMG 3000 BR BKN010=
201706200100 METAR MROC 200100Z 29004KT 9999 2000SW BCFG FEW001 BKN100 22/22 A2999 NOSIG=
201706200200 METAR MROC 200200Z 30003KT 2000 BR BKN007 21/21 A3002 NOSIG=
201706200300 METAR MROC 200300Z 29002KT 9999 2000SW BCFG BKN005 21/21 A3004 NOSIG=
201706200400 METAR MROC 200400Z 09003KT 9999 FEW010 BKN130 21/21 A3002 NOSIG=
201706200500 METAR MROC 200500Z 32003KT CAVOK 21/20 A3000 NOSIG=
201706200600 METAR MROC 200600Z 07003KT CAVOK 20/20 A2998 NOSIG=
201706200700 METAR MROC 200700Z 04005KT CAVOK 20/19 A2993 NOSIG=
201706200800 METAR MROC 200800Z 03004KT CAVOK 21/18 A2991 NOSIG=
201706200900 METAR MROC 200900Z 11003KT CAVOK 19/17 A2990 NOSIG=
201706201000 METAR MROC 201000Z 09007KT CAVOK 21/17 A2992 NOSIG=
201706201100 METAR MROC 201100Z 08007KT CAVOK 21/17 A2993 NOSIG=
201706201200 METAR MROC 201200Z 09005KT CAVOK 21/17 A2994 NOSIG=
201706201300 METAR MROC 201300Z 08007KT CAVOK 22/18 A2997 NOSIG=
201706201400 METAR MROC 201400Z 11003KT CAVOK 24/18 A2999 NOSIG=
201706201500 METAR MROC 201500Z 25005KT CAVOK 23/20 A3000 NOSIG=
201706201600 METAR MROC 201600Z 26004KT 9999 4500SW BCFG NSC 24/20 A3000 NOSIG=
201706201700 METAR MROC 201700Z 25005KT 9999 4500SW NSC 25/21 A2999 NOSIG=
201706201800 METAR MROC 201800Z 26007KT CAVOK 25/21 A2998 NOSIG=
201706201900 METAR MROC 201900Z 26007KT 9999 FEW030 SCT200 25/20 A2995 NOSIG=
201706202000 METAR MROC 202000Z 27006KT 9999 FEW030 BKN250 26/21 A2994 NOSIG=
201706202100 METAR MROC 202100Z 25010KT 9999 SCT025 BKN250 25/21 A2991 NOSIG=
201706202200 METAR MROC 202200Z 24007KT 9000 4000SW VCTS FEW015CB SCT025 BKN200 24/22 A2992 BECMG 5000=
201706202300 METAR MROC 202300Z 21010KT 4000 -RA BR FEW005 SCT015 BKN100 22/21 A2992 NOSIG=
201706202355 METAR MROC 210000Z 18004KT 1500 -TSRA BR FEW005 FEW010CB SCT015 BKN035 22/22 A2995 NOSIG=
201706202358 METAR MROC 210000Z COR 18004KT 1500 TSRA BR FEW005 FEW010CB SCT015 BKN035 22/22 A2995 NOSIG=
201706210000 METAR MROC 210000Z COR 18004KT 1500 TSRA BR FEW005 FEW010CB SCT015 BKN035 22/22 A2995 NOSIG=
201706210100 METAR MROC 210100Z 05004KT 9999 -RA FEW010 BKN120 21/20 A2997 RETS NOSIG=
201706210200 METAR MROC 210200Z 06004KT 9999 -RA NSC 21/21 A2998 NOSIG=
201706210300 METAR MROC 210300Z 06004KT 9999 -RA NSC 22/21 A2998 NOSIG=
201706210400 METAR MROC 210400Z 22003KT 9999 BCFG SCT010 BKN060 21/21 A2998 BECMG 5000 BR=
201706210500 METAR MROC 210500Z VRB02KT 5000 BR SCT005 BKN020 21/21 A3000 NOSIG=
201706210600 METAR MROC 210600Z 34004KT 5000 -RA BR FEW005 SCT010 BKN060 21/21 A2999 NOSIG=
201706210700 METAR MROC 210700Z 16003KT 5000 BR SCT020 BKN040 21/21 A2996 NOSIG=
201706210800 METAR MROC 210800Z 03002KT 8000 VCFG FEW020 BKN070 21/21 A2995 NOSIG=
201706210900 METAR MROC 210900Z 05003KT 9999 BCFG SCT010 BKN060 21/20 A2994 NOSIG=
201706211000 METAR MROC 211000Z VRB02KT 9999 BCFG SCT010 BKN060 21/21 A2994 NOSIG=
201706211100 METAR MROC 211100Z 10003KT 9999 2500SW BCFG SCT010 BKN040 20/20 A2993 NOSIG=
201706211200 METAR MROC 211200Z 08003KT CAVOK 20/20 A2994 NOSIG=
201706211300 METAR MROC 211300Z 07005KT CAVOK 21/19 A2997 NOSIG=
201706211400 METAR MROC 211400Z 08005KT CAVOK 22/19 A2998 NOSIG=
201706211500 METAR MROC 211500Z 10010KT CAVOK 24/20 A3000 NOSIG=
201706211600 METAR MROC 211600Z 10003KT 9999 FEW040 SCT120 BKN200 25/20 A3001 BECMG 20006KT=
201706211700 METAR MROC 211700Z 24005KT 9999 FEW035 SCT120 BKN200 25/21 A3000 NOSIG=
201706211800 METAR MROC 211800Z 26007KT 9999 SCT035 BKN200 24/22 A2998 NOSIG=
201706211900 METAR MROC 211900Z 23004KT 9999 VCSH FEW035 SCT120 BKN200 24/21 A2997 NOSIG=
201706212000 METAR MROC 212000Z 28006KT 9999 VCSH FEW020 SCT030 BKN100 24/22 A2995 BECMG 5000 RA=
201706212100 METAR MROC 212100Z 25007KT 5000 BR FEW001 SCT010 BKN030 24/22 A2993 NOSIG=
201706212200 METAR MROC 212200Z 26006KT 5000 BR FEW002 SCT030 BKN200 24/21 A2993 NOSIG=
201706212300 METAR MROC 212300Z 26008KT 5000 BR FEW005 BKN030 24/22 A2993 NOSIG=
201706220000 METAR MROC 220000Z 26008KT 8000 VCFG FEW005 SCT030 BKN200 22/21 A2995 NOSIG=
201706220100 METAR MROC 220100Z 32005KT 9999 FEW030 BKN200 21/21 A2997 NOSIG=
201706220200 METAR MROC 220200Z 32009KT 9999 FEW030 BKN200 21/20 A2998 NOSIG=
201706220300 METAR MROC 220300Z 31003KT 9999 FEW030 BKN100 22/20 A3000 NOSIG=
201706220400 METAR MROC 220400Z 26004KT 9999 FEW012 BKN030 21/21 A3001 NOSIG=
201706220500 METAR MROC 220500Z 33002KT 9999 FEW012 BKN040 21/20 A3002 NOSIG=
201706220600 METAR MROC 220600Z 04002KT 9999 FEW009 SCT030 21/20 A3001 NOSIG=
201706220700 METAR MROC 220700Z 12002KT 9999 SCT045 21/20 A2999 NOSIG=
201706220800 METAR MROC 220800Z 35003KT 9999 FEW003 SCT040 20/19 A2997 NOSIG=
201706220900 METAR MROC 220900Z 22003KT 9999 3000SW BCFG FEW003 BKN050 20/20 A2998 NOSIG=
201706221000 METAR MROC 221000Z 30005KT 9999 2000SW FEW010 BKN050 20/20 A2998 BECMG 3000 BR BKN010=
201706221100 METAR MROC 221100Z 07002KT 9999 FEW010 BKN100 20/19 A2995 NOSIG=
201706221200 METAR MROC 221200Z 15002KT CAVOK 20/20 A2999 NOSIG=
201706221300 METAR MROC 221300Z 03003KT CAVOK 21/20 A3001 NOSIG=
201706221400 METAR MROC 221400Z 00000KT CAVOK 23/20 A3003 NOSIG=
201706221500 METAR MROC 221500Z CAVOK 24/20 A3003 NOSIG=
201706221600 METAR MROC 221600Z 00000KT 9999 FEW040 SCT120 BKN200 25/19 A3003 NOSIG=
201706221700 METAR MROC 221700Z 00000KT 9999 FEW040 SCT120 BKN200 25/21 A3002 BECMG 22006KT=
201706221800 METAR MROC 221800Z 25007KT 9999 FEW040 BKN120 24/20 A3000 NOSIG=
201706221900 METAR MROC 221900Z 25006KT 9999 FEW030 BKN120 26/20 A2999 NOSIG=
201706222000 METAR MROC 222000Z 26006KT 9999 FEW030 BKN120 26/22 A2998 NOSIG=
201706222100 METAR MROC 222100Z 27009KT 9999 TS VCSH FEW012CB FEW025 BKN140 24/21 A2996 NOSIG=
201706222200 METAR MROC 222200Z COR 25005KT 9000 4000E TSRA FEW010CB SCT025 BKN060 23/22 A2997 BECMG 5000 SCT010CB=
201706222300 METAR MROC 222300Z 15005KT 7000 3000SW -RA BCFG FEW004 SCT010 BKN035 21/20 A2998 RETS NOSIG=
201706230000 METAR MROC 230000Z VRB02KT 9999 -RA FEW010 SCT030 BKN100 21/20 A3000 NOSIG=
201706230100 METAR MROC 230100Z 14003KT 9999 FEW025 BKN120 21/21 A2999 NOSIG=
201706230200 METAR MROC 230200Z 06003KT 9999 FEW020 BKN120 21/20 A2999 NOSIG=
201706230300 METAR MROC 230300Z 08003KT CAVOK 21/20 A2998 NOSIG=
201706230400 METAR MROC 230400Z 04005KT CAVOK 21/20 A3000 NOSIG=
201706230500 METAR MROC 230500Z 09007KT CAVOK 21/19 A3000 NOSIG=
201706230600 METAR MROC 230600Z 06007KT CAVOK 21/19 A2999 NOSIG=
201706230700 METAR MROC 230700Z 08006KT CAVOK 21/19 A2998 NOSIG=
201706230800 METAR MROC 230800Z 13003KT CAVOK 20/19 A2997 NOSIG=
201706230900 METAR MROC 230900Z 09005KT CAVOK 20/18 A2997 NOSIG=
201706231000 METAR MROC 231000Z 04007KT CAVOK 19/18 A2996 NOSIG=
201706231100 METAR MROC 231100Z 11003KT CAVOK 19/18 A2997 NOSIG=
201706231200 METAR MROC 231200Z 09003KT CAVOK 19/18 A2999 NOSIG=
201706231300 METAR MROC 231300Z VRB02KT CAVOK 22/19 A3000 BECMG 24005KT=
201706231400 METAR MROC 231400Z 25003KT CAVOK 23/20 A3001 NOSIG=
201706231500 METAR MROC 231500Z 26007KT 9999 FEW035 SCT250 24/20 A3001 NOSIG=
201706231600 METAR MROC 231600Z 26004KT 9999 FEW035 25/21 A3001 NOSIG=
201706231700 METAR MROC 231700Z 24008KT 9999 SCT030 26/21 A3001 NOSIG=
201706231800 METAR MROC 231800Z 25008KT 9999 FEW020TCU SCT035 26/22 A3000 NOSIG=
201706231900 METAR MROC 231900Z 23007KT 9999 FEW020TCU BKN040 26/22 A2998 NOSIG=
201706232000 METAR MROC 232000Z 26007KT 9999 FEW020TCU SCT040 26/22 A2996 NOSIG=
201706232100 METAR MROC 232100Z 25009KT 9999 SCT030 SCT250 27/22 A2993 NOSIG=
201706232200 METAR MROC 232200Z 26009KT 9999 FEW020 BKN035 24/22 A2993 NOSIG=
201706232300 METAR MROC 232300Z 24007KT 8000 BCFG SCT010 BKN025 23/22 A2994 BECMG 5000 BR=
201706240000 METAR MROC 240000Z 25003KT 5000 BR SCT005 BKN020 23/22 A2996 BECMG 3000 BKN010=
201706240100 METAR MROC 240100Z VRB02KT 7000 BCFG SCT008 BKN020 23/22 A2997 NOSIG=
201706240200 METAR MROC 240200Z VRB02KT 8000 BCFG SCT015 BKN035 23/22 A2998 NOSIG=
201706240300 METAR MROC 240300Z 28003KT 7000 BCFG SCT015 BKN030 22/22 A2998 NOSIG=
201706240400 METAR MROC 240400Z 28003KT 4000 BR FEW001 SCT010 BKN030 22/21 A3001 NOSIG=
201706240500 METAR MROC 240500Z 04003KT 8000 VCFG FEW001 FEW010 SCT030 21/21 A3002 NOSIG=
201706240600 METAR MROC 240600Z 34002KT 8000 VCFG FEW010 SCT030 21/20 A3000 NOSIG=
201706240700 METAR MROC 240700Z 12002KT 9999 FEW030 22/19 A2999 NOSIG=
201706240800 METAR MROC 240800Z 00000KT 9999 BCFG FEW030 21/19 A2997 NOSIG=
201706240900 METAR MROC 240900Z 24004KT 9999 BCFG FEW020 20/20 A2997 NOSIG=
201706241000 METAR MROC 241000Z 36003KT 3000 BR SCT002 20/20 A2997 NOSIG=
201706241100 METAR MROC 241100Z 03002KT 9999 FEW030 20/18 A2997 NOSIG=
201706241200 METAR MROC 241200Z 03003KT 9999 FEW030 SCT070 20/18 A2998 NOSIG=
201706241300 METAR MROC 241300Z 11006KT CAVOK 22/19 A3000 NOSIG=
201706241400 METAR MROC 241400Z 12007KT 9999 FEW040 BKN200 24/19 A3001 NOSIG=
201706241500 METAR MROC 241500Z 14008KT 9999 FEW040 SCT080 SCT200 25/20 A3001 NOSIG=
201706241600 METAR MROC 241600Z 12010KT 9999 SCT040 SCT200 26/20 A3002 NOSIG=
201706241700 METAR MROC 241700Z 12010KT 9999 SCT040 SCT200 28/20 A3001 NOSIG=
201706241800 MROC 241800Z 10009KT 9999 VCSH FEW030 BKN110 26/20 A3000 NOSIG=
201706241900 METAR MROC 241900Z 09009KT 9999 FEW035 BKN110 26/20 A2999 NOSIG=
201706242000 METAR MROC 242000Z 09007KT 9999 FEW035 SCT120 SCT250 27/19 A2996 NOSIG=
201706242100 METAR MROC 242100Z 24010KT 9999 4500SW SCT045 26/13 A2994 NOSIG=
201706242200 METAR MROC 242200Z 26009KT 9999 4500SW BKN010 23/23 A2994 NOSIG=
201706242300 METAR MROC 242300Z 25005KT 3000 -RA BR BKN009 23/22 A2995 NOSIG=
201706250000 METAR MROC 250000Z 22003KT 4500 2000SW BR SCT010TCU FEW010 23/22 A2998 NOSIG=
201706250100 METAR MROC 250100Z 27003KT 9999 2500SW BCFG FEW001 22/22 A2999 NOSIG=
201706250200 METAR MROC 250200Z 34002KT 9999 2000SW BCFG FEW001 SCT035 22/22 A3001 NOSIG=
201706250300 METAR MROC 250300Z 08002KT 9999 FEW045 21/21 A3002 NOSIG=
201706250400 METAR MROC NIL=
201706250500 METAR MROC 250500Z VRB02KT 9999 FEW040 21/20 A3003 NOSIG=
201706250600 METAR MROC 250600Z 09003KT 9999 FEW040 21/18 A3004 NOSIG=
201706250700 METAR MROC 250700Z VRB02KT CAVOK 20/18 A3001 NOSIG=
201706250800 METAR MROC 250800Z 11007KT CAVOK 21/17 A3001 NOSIG=
201706250900 METAR MROC 250900Z 04009KT CAVOK 21/17 A3000 NOSIG=
201706251000 METAR MROC 251000Z 10006KT CAVOK 20/17 A3001 NOSIG=
201706251100 METAR MROC 251100Z 05007KT CAVOK 20/17 A3000 NOSIG=
201706251200 METAR MROC 251200Z 07008KT CAVOK 20/17 A3000 NOSIG=
201706251300 METAR MROC 251300Z 07007KT CAVOK 23/18 A3001 NOSIG=
201706251400 METAR MROC 251400Z 11010G21KT CAVOK 25/18 A3002 NOSIG=
201706251500 METAR MROC 251500Z 11013G23KT 9999 FEW045 BKN250 26/19 A3003 NOSIG=
201706251600 METAR MROC 251600Z 12010G20KT 9999 FEW045 BKN250 28/18 A3003 NOSIG=
201706251700 METAR MROC 251700Z 09010G20KT 9999 FEW040 BKN250 29/17 A3001 NOSIG=
201706251800 METAR MROC 251800Z 09010G20KT 9999 FEW040 BKN250 29/17 A3001 NOSIG=
201706251900 METAR MROC 251900Z 11010G20KT 9999 FEW040 BKN250 30/18 A2998 NOSIG=
201706252000 METAR MROC 252000Z 13010KT 9999 FEW040 BKN250 30/18 A2996 NOSIG=
201706252100 METAR MROC 252100Z 23013KT 9999 FEW025TCU FEW040 BKN250 27/23 A2995 NOSIG=
201706252200 METAR MROC 252200Z 24013KT 9999 SCT040 BKN250 27/23 A2995 NOSIG=
201706252300 METAR MROC 252300Z 24011KT 9999 VCSH SCT035 BKN250 24/23 A2995 NOSIG=
201706252317 METAR MROC 252317Z 23007KT 9999 1000N -TSRA SCT015CB BKN250 24/23 A2996 BECMG 5000=
201706252327 METAR MROC 252327Z 29008KT 1000 SHRA SCT015CB BKN035 24/23 A2998 RETS NOSIG=
201706252340 METAR MROC 252340Z 20003KT 9999 1500 RA FEW005 SCT015 BKN035 22/22 A2998 RESH NOSIG=
201706252359 METAR MROC 260000Z 24006KT 9999 3000SW -RA FEW005 SCT015 BKN035 22/22 A2998 NOSIG=
201706260000 METAR MROC 260000Z 24006KT 9999 3000SW -RA FEW005 SCT015 BKN035 22/22 A2998 NOSIG=
201706260100 METAR MROC 260100Z 24005KT 9999 4000SW FEW005 SCT015 BKN035 22/22 A3001 NOSIG=
201706260200 METAR MROC 260200Z 20002KT 9999 FEW005 SCT015 22/22 A3002 NOSIG=
201706260300 METAR MROC 260300Z VRB02KT 8000 BCFG FEW010 BKN030 22/22 A3002 NOSIG=
201706260400 METAR MROC 260400Z 16003KT 9999 BKN035 22/21 A3004 NOSIG=
201706260500 METAR MROC 260500Z 28003KT CAVOK 22/19 A3005 NOSIG=
201706260600 METAR MROC 260600Z 21005KT 9999 2000SW BCFG SCT008 BKN025 21/21 A3006 BECMG 3000 BR=
201706260700 METAR MROC 260700Z 28005KT 9999 -RA NSC 20/20 A3004 NOSIG=
201706260800 METAR MROC 260800Z 01005KT 9999 SCT025 20/20 A3003 NOSIG=
201706260900 METAR MROC 260900Z 18003KT 9999 FEW030 20/20 A3001 NOSIG=
201706261000 METAR MROC 261000Z 06005KT CAVOK 20/19 A3000 NOSIG=
201706261100 METAR MROC 261100Z 08006KT CAVOK 21/19 A3000 NOSIG=
201706261200 METAR MROC 261200Z 06006KT CAVOK 21/18 A3002 NOSIG=
201706261300 METAR MROC 261300Z 10009KT CAVOK 22/18 A3004 NOSIG=
201706261400 METAR MROC 261400Z 09005KT CAVOK 22/18 A3004 NOSIG=
201706261500 METAR MROC 261500Z 07005KT CAVOK 23/19 A3005 NOSIG=
201706261600 METAR MROC 261600Z 23003KT CAVOK 23/20 A3005 NOSIG=
201706261700 METAR MROC 261700Z 30003KT 9999 FEW045 BKN120 26/20 A3002 NOSIG=
201706261800 METAR MROC 261800Z VRB03KT 9999 FEW045 SCT080 BKN150 28/19 A3000 NOSIG=
201706261900 METAR MROC 261900Z 19010KT 9999 FEW045 SCT080 BKN150 28/19 A2999 NOSIG=
201706262000 METAR MROC 262000Z 21009KT 9999 VCSH FEW025 SCT040 BKN120 25/22 A2998 NOSIG=
201706262100 METAR MROC 262100Z 23008KT 9999 VCSH FEW010 SCT030 BKN120 24/22 A2998 NOSIG=
201706262200 METAR MROC 262200Z 27006KT 9999 VCSH FEW010TCU SCT030 BKN100 24/22 A2997 NOSIG=
201706262300 METAR MROC 262300Z 25005KT 9999 FEW010 SCT030 BKN120 22/22 A2997 NOSIG=
201706270000 METAR MROC 270000Z 23002KT 9999 FEW005 BKN120 22/21 A3000 NOSIG=
201706270100 METAR MROC 270100Z 36004KT 9999 FEW030 BKN120 22/20 A3001 NOSIG=
201706270200 METAR MROC 270200Z 24002KT 9999 BCFG FEW030 BKN120 21/21 A3002 NOSIG=
201706270300 METAR MROC 270300Z 07004KT 9999 FEW030 BKN200 22/19 A3002 NOSIG=
201706270400 METAR MROC 270400Z 27003KT 9999 2500SW BCFG FEW005 BKN100 20/20 A3004 NOSIG=
201706270500 METAR MROC 270500Z 00000KT 9999 3500SW BCFG FEW001 SCT030 21/20 A3004 NOSIG=
201706270600 METAR MROC 270600Z 22003KT 5000 BR FEW002 BKN040 20/20 A3003 NOSIG=
201706270700 METAR MROC 270700Z 08002KT 9999 3000SW BCFG FEW007 SCT030 BKN150 20/20 A3002 NOSIG=
201706270800 METAR MROC 270800Z 01002KT 9999 FEW010 BKN060 21/20 A3001 NOSIG=
201706270900 METAR MROC 270900Z 12003KT 9999 2000SW -DZ BKN045 20/20 A3002 NOSIG=
201706271000 METAR MROC 271000Z 09004KT 9999 4000SW BCFG NSC 20/19 A3001 NOSIG=
201706271100 METAR MROC 271100Z 08005KT CAVOK 20/19 A2999 NOSIG=
201706271200 METAR MROC 271200Z 08004KT 9999 BCFG NSC 21/18 A3001 NOSIG=
201706271300 METAR MROC 271300Z 09002KT CAVOK 21/18 A3003 NOSIG=
201706271400 METAR MROC 271400Z 13005KT 9999 FEW040 SCT200 24/18 A3002 NOSIG=
201706271500 METAR MROC 271500Z 13009KT 9999 BKN040 25/18 A3003 NOSIG=
201706271600 METAR MROC 271600Z 11007KT 9999 BKN040 26/19 A3004 NOSIG=
201706271700 METAR MROC 271700Z 12005KT 9999 FEW020 BKN060 27/17 A3003 NOSIG=
201706271800 METAR MROC 271800Z 24010KT 9999 FEW020 BKN120 27/22 A3001 NOSIG=
201706271900 METAR MROC 271900Z 23010KT 9999 FEW010TCU SCT020 BKN100 25/22 A3000 NOSIG=
201706272000 METAR MROC 272000Z 25007KT 9999 FEW010TCU SCT030 BKN100 23/22 A2998 NOSIG=
201706272100 METAR MROC 272100Z 25007KT 9999 TS FEW006 FEW010CB BKN120 24/22 A2997 NOSIG=
201706272200 METAR MROC 272200Z 26006KT 9999 -DZ BCFG VCTS FEW004 FEW010CB BKN120 22/20 A2996 NOSIG=
201706272300 METAR MROC 272300Z 27006KT 5000 2000SW BR SCT002 BKN040 22/21 A2999 NOSIG=
201706280000 METAR MROC 280000Z 30004KT 8000 3500SW BCFG FEW002 SCT025 BKN060 21/21 A2999 NOSIG=
201706280100 METAR MROC 280100Z 27005KT 9999 4000SW BCFG FEW002 SCT025 BKN060 21/21 A3002 NOSIG=
201706280200 METAR MROC 280200Z 31004KT 9999 VCFG FEW010 BKN060 21/21 A3004 NOSIG=
201706280300 METAR MROC 280300Z 29003KT 9999 VCFG SCT010 BKN060 21/20 A3005 NOSIG=
201706280400 METAR MROC 280400Z VRB02KT 9999 FEW010 SCT025 21/20 A3005 NOSIG=
201706280500 METAR MROC 280500Z VRB02KT 9999 FEW005 SCT010 21/21 A3004 NOSIG=
201706280600 METAR MROC 280600Z 10004KT 9999 FEW025 20/20 A3000 NOSIG=
201706280700 METAR MROC 280700Z 02005KT 9999 FEW025 20/19 A2998 NOSIG=
201706280800 METAR MROC 280800Z 07003KT 9999 FEW025 20/19 A2997 NOSIG=
201706280900 METAR MROC 280900Z 03003KT 9999 FEW025 20/19 A2997 NOSIG=
201706281000 METAR MROC 281000Z VRB02KT 9999 SCT035 19/19 A2999 NOSIG=
201706281100 METAR MROC 281100Z 08003KT 9999 FEW035 SCT250 19/19 A3000 NOSIG=
201706281200 METAR MROC 281200Z 07005KT 9999 FEW035 BKN250 19/18 A2999 NOSIG=
201706281300 METAR MROC 281300Z 10007KT 9999 FEW035 SCT250 23/19 A3000 NOSIG=
201706281400 METAR MROC 281400Z 11006KT CAVOK 25/19 A3000 NOSIG=
201706281500 METAR MROC 281500Z 25009KT 9999 FEW035 BKN250 25/20 A3002 NOSIG=
201706281600 METAR MROC 281600Z 25007KT 9999 FEW030 BKN250 25/19 A3003 NOSIG=
201706281700 METAR MROC 281700Z 24008KT 9999 FEW020TCU SCT035 26/21 A3003 NOSIG=
201706281800 METAR MROC 281800Z 25009KT 9999 VCTS VCSH FEW015CB FEW020TCU SCT035 26/21 A3001 NOSIG=
201706281900 METAR MROC 281900Z 24006KT 9999 5000SE TS VCSH SCT015CB BKN030 25/21 A2999 BECMG 5000 -TSRA=
201706282000 METAR MROC 282000Z 02003KT 7000 2500SW -TSRA FEW010CB FEW020 BKN070 21/20 A2998 NOSIG=
201706282100 METAR MROC 282100Z 02004KT 9999 3000SW VCTS FEW010CB SCT025 SCT080 21/21 A2998 NOSIG=
201706282200 MROC 282200Z 22005KT 8000 -RA BCFG SCT010 BKN025 21/21 A2999 BECMG 5000 BR BKN010=
201706282300 METAR MROC 282300Z VRB02KT 5000 -RA BR SCT006 BKN020 21/21 A3000 NOSIG=
201706290000 METAR MROC 290000Z 04003KT 9999 -RA BCFG SCT010 BKN110 21/21 A3002 NOSIG=
201706290100 METAR MROC 290100Z VRB02KT 9999 -RA SCT030 BKN100 21/21 A3003 NOSIG=
201706290200 METAR MROC 290200Z 07003KT 5000 RA SCT015 BKN100 21/20 A3006 NOSIG=
201706290300 METAR MROC 290300Z 08003KT 7000 RA SCT015 BKN100 21/20 A3006 NOSIG=
201706290400 METAR MROC 290400Z 06006KT 9999 FEW040 BKN100 21/20 A3004 NOSIG=
201706290500 METAR MROC 290500Z 07006KT CAVOK 21/19 A3003 NOSIG=
201706290600 METAR MROC 290600Z 05005KT CAVOK 20/19 A3001 NOSIG=
201706290700 METAR MROC 290700Z 12004KT CAVOK 20/19 A3000 NOSIG=
201706290800 METAR MROC 290800Z 07002KT CAVOK 20/19 A3000 NOSIG=
201706290900 METAR MROC 290900Z 03006KT 9999 FEW040 SCT120 20/19 A2999 NOSIG=
201706291000 METAR MROC 291000Z 05009KT 9999 FEW040 BKN120 21/18 A2998 NOSIG=
201706291100 METAR MROC 291100Z 07006KT 9999 FEW040 BKN140 22/18 A2998 NOSIG=
201706291200 METAR MROC 291200Z 11008KT 9999 FEW040 BKN200 22/18 A2999 NOSIG=
201706291300 METAR MROC 291300Z 10010G20KT 9999 FEW040 SCT200 23/18 A3001 NOSIG=
201706291400 METAR MROC 291400Z 11013G26KT 9999 FEW040 SCT200 24/18 A3001 NOSIG=
201706291500 METAR MROC 291500Z 10014G26KT 9999 FEW040 SCT120 25/18 A3002 NOSIG=
201706291600 METAR MROC 291600Z 11012G22KT 9999 SCT040 SCT120 26/19 A3002 NOSIG=
201706291700 METAR MROC 291700Z 11009KT 9999 FEW040 BKN120 26/18 A3002 NOSIG=
201706291800 METAR MROC 291800Z 12010G20KT 9999 SCT035 BKN120 27/19 A3001 NOSIG=
201706291900 METAR MROC 291900Z 13008KT 9999 FEW040 BKN100 27/18 A2999 BECMG 24007KT=
201706292000 METAR MROC 292000Z 10009KT 9999 FEW040 BKN110 27/18 A2998 NOSIG=
201706292100 METAR MROC 292100Z 12007KT CAVOK 27/19 A2997 NOSIG=
201706292200 METAR MROC 292200Z 12004KT CAVOK 26/18 A2996 NOSIG=
201706292300 METAR MROC 292300Z 22003KT 9999 4500SW BCFG FEW010 BKN120 25/22 A2998 NOSIG=
201706300000 METAR MROC 300000Z 25005KT 9999 3000SW BCFG FEW001 BKN200 23/22 A2998 NOSIG=
201706300100 METAR MROC 300100Z 32004KT CAVOK 23/22 A3000 NOSIG=
201706300200 METAR MROC 300200Z 11006KT CAVOK 22/18 A2999 NOSIG=
201706300300 METAR MROC 300300Z 07008KT CAVOK 22/18 A2999 NOSIG=
201706300400 METAR MROC 300400Z 10004KT CAVOK 22/18 A2999 NOSIG=
201706300500 METAR MROC 300500Z VRB02KT CAVOK 22/18 A2999 NOSIG=
201706300600 METAR MROC 300600Z 12006KT 9999 FEW040 22/18 A2999 NOSIG=
201706300700 METAR MROC 300700Z VRB02KT 9999 FEW040 21/19 A2999 NOSIG=
201706300800 METAR MROC 300800Z 08006KT 9999 FEW040 21/18 A2997 NOSIG=
201706300900 METAR MROC 300900Z 07005KT 9999 FEW045 21/18 A2997 NOSIG=
201706301000 METAR MROC 301000Z 12008KT CAVOK 21/18 A2997 NOSIG=
201706301100 METAR MROC 301100Z 11008KT 9999 FEW040 21/18 A2997 NOSIG=
201706301200 METAR MROC 301200Z 06006KT CAVOK 21/18 A2998 NOSIG=
201706301300 METAR MROC 301300Z 08005KT CAVOK 22/18 A2999 NOSIG=
201706301400 METAR MROC 301400Z 36003KT CAVOK 25/18 A3001 NOSIG=
201706301500 METAR MROC 301500Z 26008KT CAVOK 25/19 A3002 NOSIG=
201706301600 METAR MROC 301600Z 26006KT 9999 FEW040 BKN250 26/20 A3004 NOSIG=
201706301700 METAR MROC 301700Z 26007KT 9999 SCT045 BKN300 27/21 A3003 NOSIG=
201706301800 METAR MROC 301800Z 27007KT 9999 SCT045 SCT350 27/21 A3000 NOSIG=
201706301900 METAR MROC 301900Z 25008KT 9999 FEW045 BKN300 27/22 A2996 NOSIG=
201706302000 METAR MROC 302000Z 25009KT 9999 SCT035 BKN250 28/22 A2999 NOSIG=
201706302100 METAR MROC 302100Z 25010KT 9999 FEW020 SCT035 BKN200 26/23 A2993 BECMG SHRA=
201706302200 METAR MROC 302200Z 25009KT 9999 SCT020 BKN035 24/23 A2995 NOSIG=
201706302300 METAR MROC 302300Z 24008KT 5000 2000SW BR FEW005 SCT010 BKN020 23/22 A2996 BECMG 3000 BKN010=
201706302334 METAR MROC 302334Z 25006KT 3000 1000SW BR FEW001 SCT005 BKN010 22/22 A2997 BECMG 1000=
201706302355 METAR MROC 010000Z 24006KT 1000 -DZ BR FEW001 SCT005 BKN010 22/22 A2998 BECMG 0600 FG=
201706302358 METAR MROC 010000Z 24006KT 1000 -DZ BR FEW001 SCT005 BKN010 22/22 A2998 BECMG 0600 FG=
201707010000 METAR MROC 010000Z 24006KT 1000 -DZ BR FEW001 SCT005 BKN010 22/22 A2998 BECMG 0600 FG=
201707010100 METAR MROC 010100Z 23005KT 0500 FG BKN001 22/22 A3001 NOSIG=
201707010200 METAR MROC 010200Z 25003KT 0500 FG VV001 21/21 A3002 NOSIG=
201707010300 METAR MROC 010300Z 25004KT 0800 FG VV002 21/21 A3004 NOSIG=
201707010400 METAR MROC 010400Z VRB02KT 5000 BR SCT005 BKN020 21/21 A3004 NOSIG=
201707010500 METAR MROC 010500Z VRB02KT 0200 FG VV/// 21/21 A3002 NOSIG=
201707010600 METAR MROC 010600Z VRB02KT 5000 BR SCT002 BKN020 21/21 A3000 BECMG 1500=
201707010700 METAR MROC 010700Z VRB02KT 7000 BCFG SCT003 20/20 A2999 NOSIG=
201707010800 METAR MROC 010800Z 01003KT 9999 BCFG NSC 19/19 A2997 NOSIG=
201707010900 METAR MROC 010900Z 00000KT CAVOK 19/18 A2997 NOSIG=
201707011000 METAR MROC 011000Z 05006KT CAVOK 19/18 A2996 NOSIG=
201707011100 METAR MROC 011100Z 15004KT CAVOK 19/18 A2996 NOSIG=
201707011120 METAR MROC 011120Z 06005KT CAVOK 20/18 A3000 NOSIG=
201707011200 METAR MROC NIL=
201707011300 METAR MROC 011300Z 02003KT CAVOK 20/18 A3002 NOSIG=
201707011400 METAR MROC 011400Z 30003KT CAVOK 21/19 A3004 NOSIG=
201707011500 METAR MROC 011500Z 04004KT CAVOK 23/19 A3004 NOSIG=
201707011600 METAR MROC 011600Z 08003KT 9999 FEW045 SCT120 BKN200 26/19 A3004 NOSIG=
201707011700 METAR MROC 011700Z 24008KT 9999 FEW045 SCT120 BKN200 25/21 A3005 NOSIG=
201707011800 METAR MROC 011800Z 26006KT 9999 FEW030 SCT100 BKN200 25/20 A3001 NOSIG=
201707011900 METAR MROC 011900Z 25005KT 9999 FEW030 SCT100 BKN200 26/21 A2999 NOSIG=
201707012000 MROC 012000Z 24006KT 9999 FEW030 SCT100 BKN200 25/21 A2997 NOSIG=
201707012100 METAR MROC NIL=
201707012200 METAR MROC NIL=
201707012300 METAR MROC NIL=
201707020000 METAR MROC NIL=
201707020100 METAR MROC 020100Z 13002KT 8000 VCFG FEW030 BKN100 22/22 A3000 NOSIG=
201707020200 METAR MROC 020200Z 07007KT 9999 FEW040 BKN100 23/20 A3001 NOSIG=
201707020300 METAR MROC 020300Z 09006KT CAVOK 22/19 A3003 NOSIG=
201707020400 METAR MROC 020400Z 10009KT 9999 FEW025 23/19 A3003 NOSIG=
201707020500 METAR MROC 020500Z 11008KT CAVOK 23/18 A3002 NOSIG=
201707020600 METAR MROC 020600Z 07006KT CAVOK 22/18 A3000 NOSIG=
201707020700 METAR MROC 020700Z 10004KT CAVOK 21/18 A2998 NOSIG=
201707020800 METAR MROC 020800Z 08005KT CAVOK 21/17 A2998 NOSIG=
201707020900 METAR MROC 020900Z 03003KT CAVOK 22/17 A2999 NOSIG=
201707021000 METAR MROC 021000Z 08005KT CAVOK 22/17 A2997 NOSIG=
201707021100 METAR MROC 021100Z 32003KT 9999 FEW045 BKN080 21/17 A3000 NOSIG=
201707021200 METAR MROC 021200Z 07004KT 010V070 9999 FEW045 BKN060 22/18 A3002 NOSIG=
201707021300 METAR MROC 021300Z 08005KT 9999 FEW035 BKN080 22/18 A3002 NOSIG=
201707021400 METAR MROC 021400Z 09005KT CAVOK 23/18 A3005 NOSIG=
201707021500 METAR MROC 021500Z 03005KT CAVOK 24/18 A3006 NOSIG=
201707021600 METAR MROC 021600Z 06007KT 9999 FEW040 BKN120 25/18 A3008 NOSIG=
201707021700 METAR MROC 021700Z 10007KT 9999 FEW030 BKN120 24/19 A3006 NOSIG=
201707021800 METAR MROC 021800Z 12013G26KT 9999 FEW030 BKN120 24/19 A3006 NOSIG=
201707021900 METAR MROC 021900Z 11008KT CAVOK 25/18 A3003 NOSIG=
201707022000 METAR MROC 022000Z 09004KT CAVOK 25/18 A2995 NOSIG=
201707022100 METAR MROC 022100Z 10003KT CAVOK 26/19 A2993 NOSIG=
201707022200 METAR MROC 022200Z 14005KT CAVOK 26/17 A2995 NOSIG=
201707022300 METAR MROC 022300Z 26008KT CAVOK 25/22 A2997 NOSIG=
201707030000 METAR MROC 030000Z 26005KT 9999 SCT020 SCT200 22/22 A2999 NOSIG=
201707030100 METAR MROC 030100Z 00000KT 8000 3000W VCFG FEW003 SCT015 22/22 A3002 NOSIG=
201707030200 METAR MROC 030200Z 11006KT 9999 FEW030 22/18 A3004 NOSIG=
201707030300 METAR MROC 030300Z 11007KT 9999 FEW030 22/17 A3007 NOSIG=
201707030400 METAR MROC 030400Z 08005KT CAVOK 21/17 A3007 NOSIG=
201707030500 METAR MROC 030500Z 08008KT CAVOK 20/17 A3006 NOSIG=
201707030600 METAR MROC 030600Z 08007KT CAVOK 20/16 A3004 NOSIG=
201707030700 METAR MROC 030700Z 06005KT CAVOK 20/16 A3000 NOSIG=
201707030800 METAR MROC 030800Z 05006KT CAVOK 19/16 A2998 NOSIG=
201707030900 METAR MROC 030900Z 07006KT CAVOK 21/16 A2998 NOSIG=
201707031000 METAR MROC 031000Z 06004KT CAVOK 18/16 A2999 NOSIG=
201707031100 METAR MROC 031100Z 04007KT CAVOK 19/16 A2999 NOSIG=
201707031200 METAR MROC 031200Z 08005KT CAVOK 20/16 A2999 NOSIG=
201707031300 METAR MROC 031300Z 09010KT CAVOK 21/17 A2998 NOSIG=
201707031400 METAR MROC 031400Z 12011KT CAVOK 23/17 A2999 NOSIG=
201707031500 METAR MROC 031500Z 13011KT CAVOK 25/18 A3002 NOSIG=
201707031600 METAR MROC 031600Z 12010KT CAVOK 26/19 A3001 NOSIG=
201707031700 METAR MROC 031700Z 13010KT CAVOK 28/19 A2999 NOSIG=
201707031800 METAR MROC 031800Z 11009KT 9999 FEW040 BKN250 29/18 A2997 NOSIG=
201707031900 METAR MROC 031900Z 26008KT 9999 SCT040 27/22 A2995 NOSIG=
201707032000 METAR MROC 032000Z 26011KT 9999 SCT040 SCT250 27/22 A2994 NOSIG=
201707032100 METAR MROC 032100Z 25010KT 9999 BKN035 SCT250 27/22 A2994 NOSIG=
201707032200 METAR MROC 032200Z 22008KT 9999 2000NE -TSRA SCT010CB BKN035 24/20 A2997 BECMG 3000 TSRA=
201707032300 MROC 032300Z 33006KT 9999 3000SW -RA VCTS FEW010CB SCT025 BKN100 20/19 A2999 RETSRA NOSIG=
201707040000 METAR MROC 040000Z 02003KT 9999 SCT020 BKN100 20/19 A3001 NOSIG=
201707040100 METAR MROC 040100Z 27003KT 9999 FEW025 BKN100 21/19 A3006 NOSIG=
201707040200 METAR MROC 040200Z 35003KT 9999 -DZ SCT020 BKN100 21/20 A3008 BECMG RA=
201707040300 METAR MROC 040300Z 16004KT 9999 -DZ SCT020 BKN100 20/20 A3006 NOSIG=
201707040400 METAR MROC 040400Z 07005KT CAVOK 21/20 A3003 NOSIG=
201707040500 METAR MROC 040500Z 07005KT CAVOK 21/20 A3002 NOSIG=
201707040600 METAR MROC 040600Z 12005KT CAVOK 22/19 A3000 NOSIG=
201707040700 METAR MROC 040700Z 08003KT 9999 VCFG FEW003 BKN200 20/20 A2999 NOSIG=
201707040800 METAR MROC 040800Z 06005KT CAVOK 20/19 A2998 NOSIG=
201707040900 METAR MROC 040900Z 01004KT CAVOK 20/18 A2998 NOSIG=
201707041000 METAR MROC 041000Z 00000KT CAVOK 19/18 A2998 NOSIG=
201707041100 METAR MROC 041100Z 08004KT CAVOK 19/18 A2999 NOSIG=
201707041200 METAR MROC 041200Z 01003KT CAVOK 19/18 A3000 NOSIG=
201707041300 METAR MROC 041300Z VRB02KT CAVOK 22/19 A3004 BECMG 24007KT=
201707041400 METAR MROC 041400Z 29004KT CAVOK 24/18 A3004 NOSIG=
201707041500 METAR MROC 041500Z 25007KT 9999 FEW045 SCT120 SCT250 24/20 A3004 NOSIG=
201707041600 METAR MROC 041600Z 25007KT 9999 FEW035 BKN120 25/20 A3003 NOSIG=
201707041700 METAR MROC 041700Z 26009KT 9999 SCT035 26/21 A3004=
201707041800 METAR MROC 041800Z 26008KT 9999 VCSH FEW015TCU BKN030 25/21 A3003 BECMG SHRA SCT010TCU=
201707041900 METAR MROC 041900Z 26009KT 9999 4000E -RA FEW008 SCT015 BKN025 24/22 A2999=
201707042000 METAR MROC 042000Z 24009KT 9999 VCSH SCT010TCU BKN025 24/21 A2997 BECMG 5000 -TSRA SCT010CB=
201707042100 METAR MROC 042100Z 19005KT 2500 TSRA FEW010CB BKN100 21/20 A2998 NOSIG=
201707042200 METAR MROC 042200Z 08005KT 9999 4500SW -RA BCFG FEW005 BKN140 20/20 A2999 RETS NOSIG=
201707042300 METAR MROC 042300Z 08006KT 9999 FEW030 BKN090 21/20 A2997 NOSIG=
201707050000 METAR MROC 050000Z 09005KT 9999 FEW025 BKN160 21/20 A2999 NOSIG=
201707050100 METAR MROC 050100Z 11009KT 9999 FEW020 SCT100 22/19 A3000 NOSIG=
201707050200 METAR MROC 050200Z 08008KT 9999 FEW020 22/19 A3000 NOSIG=
201707050300 METAR MROC 050300Z 11011G21KT 9999 FEW012 22/19 A3001 NOSIG=
201707050400 METAR MROC 050400Z 12010G20KT CAVOK 22/19 A3001 NOSIG=
201707050500 METAR MROC 050500Z 07005KT CAVOK 22/18 A3000 NOSIG=
201707050600 METAR MROC 050600Z 03005KT CAVOK 21/18 A2999 NOSIG=
201707050700 METAR MROC 050700Z 12003KT CAVOK 21/18 A2997 NOSIG=
201707050800 METAR MROC 050800Z 27003KT CAVOK 19/18 A2996 NOSIG=
201707050900 METAR MROC 050900Z 07006KT CAVOK 21/18 A2996 NOSIG=
201707051000 METAR MROC 051000Z 06003KT CAVOK 21/18 A2998 NOSIG=
201707051100 METAR MROC 051100Z 01002KT CAVOK 20/18 A2998 NOSIG=
201707051200 METAR MROC 051200Z 05005KT CAVOK 20/18 A2999 NOSIG=
201707051300 METAR MROC 051300Z 10003KT CAVOK 24/19 A3001 NOSIG=
201707051400 METAR MROC 051400Z 23007KT 9999 FEW045 SCT250 24/19 A3002 NOSIG=
201707051500 METAR MROC 051500Z 31006KT 9999 BKN040 24/19 A3006 NOSIG=
201707051600 METAR MROC 051600Z 29004KT 9999 SCT045 BKN250 25/20 A3005 NOSIG=
201707051700 METAR MROC 051700Z 26008KT 9999 BKN045 25/21 A3003 NOSIG=
201707051800 METAR MROC 051800Z 25007KT 9999 BKN035 25/21 A3002 NOSIG=
201707051900 METAR MROC 051900Z 26003KT 6000 SHRA FEW040 BKN100 24/21 A3002 NOSIG=
201707052000 METAR MROC 052000Z 14004KT 9999 FEW030 BKN100 22/21 A2998 NOSIG=
201707052100 METAR MROC 052100Z 13006KT 9999 FEW035 BKN120 23/19 A2999 NOSIG=
201707052200 METAR MROC 052200Z 10006KT CAVOK 23/19 A2998 NOSIG=
201707052300 METAR MROC 052300Z 09004KT CAVOK 23/19 A2997 NOSIG=
201707052356 METAR MROC 060000Z 15004KT 9999 FEW035 SCT080 BKN200 23/18 A2997 NOSIG=
201707060000 METAR MROC 060000Z 15004KT 9999 FEW035 SCT080 BKN200 23/18 A2997 NOSIG=
201707060100 METAR MROC 060100Z 11010KT 9999 FEW035 SCT120 BKN200 23/19 A2999 NOSIG=
201707060200 METAR MROC 060200Z 14012KT 9999 FEW035 BKN200 23/19 A3000 NOSIG=
201707060300 METAR MROC 060300Z 08005KT 9999 FEW035 BKN200 22/19 A3002 NOSIG=
201707060400 METAR MROC 060400Z 06004KT 9999 FEW035 SCT100 22/19 A3004 NOSIG=
201707060500 METAR MROC 060500Z 03005KT CAVOK 22/19 A3003 NOSIG=
201707060600 METAR MROC 060600Z 07005KT CAVOK 21/18 A3001 NOSIG=
201707060700 METAR MROC 060700Z 05006KT CAVOK 20/19 A3000 NOSIG=
201707060800 METAR MROC 060800Z COR 06006KT CAVOK 21/19 A2998 NOSIG=
201707060900 METAR MROC 060900Z 15006KT CAVOK 22/18 A2997 NOSIG=
201707061000 METAR MROC 061000Z 04003KT CAVOK 21/18 A2995 NOSIG=
201707061100 METAR MROC 061100Z 11010KT 9999 FEW040 22/18 A2995 NOSIG=
201707061200 METAR MROC 061200Z 12008KT 9999 FEW040 BKN250 22/18 A2996 NOSIG=
201707061300 MROC 061300Z 06005KT CAVOK 23/19 A2999 NOSIG=
201707061400 METAR MROC 061400Z 11011KT 9999 FEW045 BKN250 25/18 A3002 NOSIG=
201707061500 METAR MROC 061500Z 14007KT CAVOK 27/18 A3003 NOSIG=
201707061600 METAR MROC 061600Z 16008KT 9999 FEW045 SCT250 29/19 A3003 BECMG 23006KT=
201707061700 METAR MROC 061700Z 24012KT 9999 FEW045 27/21 A3002 NOSIG=
201707061800 METAR MROC 061800Z 24010KT 9999 FEW025TCU FEW035 27/20 A3001 NOSIG=
201707061900 METAR MROC 061900Z 25005KT 9999 VCSH FEW015CB FEW020TCU SCT035 27/20 A3001 BECMG TSRA=
201707062000 METAR MROC 062000Z 31004KT 9999 FEW020TCU FEW035 SCT250 28/22 A2996 RESHRA NOSIG=
201707062100 METAR MROC 062100Z 28003KT 9999 FEW010TCU SCT030 BKN120 27/21 A2992 NOSIG=
201707062200 METAR MROC 062200Z 25010KT 9999 SCT020 SCT100 26/24 A2991 NOSIG=
201707062300 METAR MROC 062300Z 27006KT 8000 -TSRA FEW001 FEW010CB BKN030 22/20 A2996 NOSIG=
201707070000 METAR MROC 070000Z 24007KT 8000 -RA VCFG FEW001 SCT030 BKN100 21/20 A2998 NOSIG=
201707070100 METAR MROC 070100Z 32003KT 9999 BCFG FEW005 SCT030 BKN100 20/20 A3002 NOSIG=
201707070200 METAR MROC 070200Z 21003KT 9999 BCFG FEW005 SCT030 BKN100 21/20 A3006 NOSIG=
201707070300 METAR MROC 070300Z 00000KT 9999 BCFG FEW010 SCT030 BKN100 21/20 A3007 NOSIG=
201707070400 METAR MROC 070400Z 16003KT 9999 BCFG FEW001 20/20 A3005 NOSIG=
201707070500 METAR MROC 070500Z 01003KT 9999 BCFG FEW001 21/20 A3004 NOSIG=
201707070600 METAR MROC 070600Z 03005KT 9999 BCFG FEW001 21/20 A3002 NOSIG=
201707070700 METAR MROC 070700Z 07006KT 9999 FEW001 21/19 A3000 NOSIG=
201707070800 METAR MROC 070800Z 22004KT 9999 FEW001 BKN090 20/20 A2999 NOSIG=
201707070900 METAR MROC 070900Z 25003KT 9999 FEW025 SCT080 20/20 A2999 NOSIG=
201707071000 METAR MROC 071000Z 33002KT CAVOK 20/20 A2999 NOSIG=
201707071100 METAR MROC 071100Z 05002KT CAVOK 20/19 A2998 NOSIG=
201707071200 METAR MROC 071200Z 03004KT CAVOK 20/19 A2999 NOSIG=
201707071300 METAR MROC 071300Z 05002KT CAVOK 21/20 A2999 NOSIG=
201707071400 METAR MROC 071400Z 13006KT 9999 FEW040 BKN130 25/19 A3002 NOSIG=
201707071500 METAR MROC 071500Z 13006KT 9999 FEW040 BKN130 26/19 A3002 NOSIG=
201707071600 METAR MROC 071600Z 26009KT 9999 FEW040 BKN130 24/21 A3002 NOSIG=
201707071700 METAR MROC 071700Z 26010KT 9999 FEW040 SCT130 25/22 A3003 NOSIG=
201707071800 METAR MROC 071800Z 26008KT 9999 SCT020 BKN060 26/22 A3000 NOSIG=
201707071900 METAR MROC 071900Z 24007KT 9999 -RA SCT020 BKN060 25/23 A2999 NOSIG=
201707072000 METAR MROC 072000Z 32005KT 9999 -TSRA SCT020 BKN100 22/20 A2998 NOSIG=
201707072100 METAR MROC 072100Z 06004KT 8000 RA FEW010 SCT025 OVC100 21/20 A2998 NOSIG=
201707072200 METAR MROC 072200Z 29004KT 5000 -RA FEW010 SCT025 OVC100 20/20 A2999 NOSIG=
201707072300 METAR MROC 072300Z 00000KT 8000 3000W -RA FEW003 SCT025 OVC100 21/20 A3000 NOSIG=
201707080000 METAR MROC 080000Z 35004KT 8000 -RA FEW006 OVC100 21/21 A3002 NOSIG=
201707080100 METAR MROC 080100Z 21003KT 9999 2000W -RA BR FEW002 OVC100 21/21 A3005 NOSIG=
201707080200 METAR MROC 080200Z 33002KT 8000 -RA FEW004 OVC100 21/21 A3007 NOSIG=
201707080300 METAR MROC 080300Z 24004KT 2000 BR SCT002 BKN100 21/21 A3008 NOSIG=
201707080400 METAR MROC 080400Z 03006KT 9999 FEW005 BKN100 21/21 A3005 NOSIG=
201707080500 METAR MROC 080500Z 08005KT CAVOK 20/20 A3004 NOSIG=
201707080600 METAR MROC 080600Z 08010KT CAVOK 21/19 A3003 NOSIG=
201707080700 METAR MROC 080700Z 10012KT CAVOK 21/18 A3000 NOSIG=
201707080800 METAR MROC 080800Z 05010KT CAVOK 21/18 A2999 NOSIG=
201707080900 METAR MROC 080900Z 07010KT CAVOK 20/17 A2998 NOSIG=
201707081000 METAR MROC 081000Z 08009KT CAVOK 21/17 A2997 NOSIG=
201707081100 METAR MROC 081100Z 11009KT CAVOK 21/17 A2998 NOSIG=
201707081200 METAR MROC 081200Z 11011G22KT 9999 FEW035 SCT180 BKN250 22/17 A2999 NOSIG=
201707081300 METAR MROC 081300Z 11010KT 9999 FEW035 SCT250 23/17 A3001 NOSIG=
201707081400 METAR MROC 081400Z 11013G24KT 9999 FEW035 SCT250 24/18 A3002 NOSIG=
201707081500 METAR MROC 081500Z 11012G22KT 9999 FEW035 SCT230 25/18 A3003 NOSIG=
201707081600 METAR MROC 081600Z 10011G22KT 9999 FEW035 SCT230 27/18 A3003 NOSIG=
201707081700 METAR MROC 081700Z 08013KT 9999 FEW035 BKN250 28/18 A3002 NOSIG=
201707081800 METAR MROC 081800Z 10009KT 9999 FEW035 BKN180 28/19 A3002 NOSIG=
201707081900 METAR MROC 081900Z 08010KT 9999 FEW035 BKN180 28/19 A3000 NOSIG=
201707082000 METAR MROC 082000Z 13006KT 9999 FEW035 BKN200 29/19 A2997 NOSIG=
201707082100 METAR MROC 082100Z 24008KT 9999 FEW045 BKN200 26/22 A2995 NOSIG=
201707082200 METAR MROC 082200Z 23008KT 9999 FEW010 SCT025 SCT110 24/23 A2996 BECMG 5000 BR=
201707082300 METAR MROC 082300Z 24006KT 7000 BCFG SCT008 BKN025 23/22 A2997 BECMG 5000 BR BKN015=
201707090000 METAR MROC 090000Z 27005KT 9999 BCFG SCT020 BKN110 22/21 A3000 NOSIG=
201707090100 METAR MROC 090100Z VRB02KT 9999 FEW030 BKN120 22/21 A3001 NOSIG=
201707090200 METAR MROC 090200Z 12004KT 9999 FEW040 SCT120 22/19 A3003 NOSIG=
201707090300 METAR MROC 090300Z 11004KT CAVOK 22/18 A3004 NOSIG=
201707090400 METAR MROC 090400Z 03002KT CAVOK 22/18 A3003 NOSIG=
201707090500 METAR MROC 090500Z 08006KT CAVOK 22/18 A3001 NOSIG=
201707090600 METAR MROC 090600Z 07006KT CAVOK 22/18 A2999 NOSIG=
201707090700 METAR MROC 090700Z 10007KT CAVOK 22/18 A2998 NOSIG=
201707090800 METAR MROC 090800Z 04003KT CAVOK 21/18 A2998 NOSIG=
201707090900 METAR MROC 090900Z 03005KT CAVOK 21/18 A2998 NOSIG=
201707091000 METAR MROC 091000Z 06004KT CAVOK 20/18 A2997 NOSIG=
201707091100 METAR MROC 091100Z 06007KT CAVOK 20/18 A2998 NOSIG=
201707091200 METAR MROC 091200Z 06007KT 9999 FEW030 BKN120 21/18 A2998 NOSIG=
201707091300 METAR MROC 091300Z 11009KT 9999 FEW040 SCT120 SCT250 23/19 A2999 NOSIG=
201707091400 METAR MROC 091400Z 10009KT 9999 FEW040 SCT120 SCT250 26/20 A3000 NOSIG=
201707091500 METAR MROC 091500Z 11009KT 9999 FEW040 BKN200 25/19 A3001 NOSIG=
201707091600 METAR MROC 091600Z 11006KT 9999 FEW040 BKN110 27/19 A3001 NOSIG=
201707091700 METAR MROC 091700Z 11009KT 9999 FEW040 BKN120 26/18 A3001 NOSIG=
201707091800 METAR MROC 091800Z 12008KT 9999 FEW040 BKN110 26/18 A2999 NOSIG=
201707091900 METAR MROC 091900Z 11007KT 9999 FEW040 SCT080 BKN200 27/17 A2996 NOSIG=
201707092000 METAR MROC 092000Z 12013G23KT CAVOK 26/16 A2995 NOSIG=
201707092100 METAR MROC 092100Z 11007KT CAVOK 25/18 A2994 NOSIG=
201707092200 METAR MROC 092200Z 10006KT CAVOK 24/18 A2990 NOSIG=
201707092300 METAR MROC 092300Z 28005KT 9999 FEW030 BKN120 25/19 A2992 NOSIG=
201707100000 METAR MROC 100000Z 13010G22KT 9999 FEW045 BKN120 24/18 A2993 NOSIG=
201707100100 METAR MROC 100100Z 08003KT 9999 FEW045 BKN140 23/18 A2998 NOSIG=
201707100200 METAR MROC 100200Z 08008KT 9999 FEW025 22/19 A2999 NOSIG=
201707100300 METAR MROC 100300Z 13008KT 9999 FEW030 SCT120 22/19 A3000 NOSIG=
201707100400 METAR MROC 100400Z 08003KT 9999 FEW030 SCT120 22/19 A3003 NOSIG=
201707100500 METAR MROC 100500Z 07004KT 9999 FEW030 SCT120 23/19 A3004 NOSIG=
201707100600 METAR MROC 100600Z 09006KT 9999 FEW030 SCT120 23/18 A3002 NOSIG=
201707100700 METAR MROC 100700Z 08004KT CAVOK 22/17 A2999 NOSIG=
201707100800 METAR MROC 100800Z VRB02KT 9999 -RA NSC 20/19 A2996 NOSIG=
201707100900 METAR MROC 100900Z 06006KT CAVOK 20/20 A2995 NOSIG=
201707101000 METAR MROC 101000Z 10005KT CAVOK 21/17 A2995 NOSIG=
201707101100 METAR MROC 101100Z 11006KT CAVOK 22/18 A2995 NOSIG=
201707101200 METAR MROC 101200Z 08006KT 9999 FEW035 SCT100 22/18 A2995 NOSIG=
201707101300 METAR MROC 101300Z 11012KT 9999 FEW030 SCT100 23/18 A2998 NOSIG=
201707101400 METAR MROC 101400Z 12013G23KT 9999 FEW045 SCT090 BKN140 23/19 A3000 NOSIG=
201707101500 METAR MROC 101500Z 12011G24KT 9999 FEW045 SCT070 BKN200 24/19 A3001 NOSIG=
201707101600 METAR MROC 101600Z 12013G27KT 9999 -DZ FEW045 SCT120 25/19 A3001 NOSIG=
201707101700 METAR MROC 101700Z 11010G20KT 9999 BKN040 25/19 A3001 NOSIG=
201707101800 METAR MROC 101800Z 10013G23KT 9999 FEW040 BKN100 26/18 A2999 NOSIG=
201707101900 METAR MROC 101900Z 13009KT 9999 FEW045 SCT100 BKN200 27/18 A2997 NOSIG=
201707102000 METAR MROC 102000Z 12011KT 9999 FEW030 BKN100 26/18 A2996 NOSIG=
201707102100 METAR MROC 102100Z 12010KT 9999 FEW035 BKN140 25/18 A2996 NOSIG=
201707102200 METAR MROC 102200Z 11009KT 9999 4500SW FEW010 BKN100 25/17 A2996 NOSIG=
201707102300 METAR MROC 102300Z 09004KT 9999 3000SW FEW005 BKN120 25/17 A2997 BECMG 24006KT=
201707110000 METAR MROC 110000Z 22004KT 9999 2500SW BCFG FEW001 BKN100 23/22 A3000 NOSIG=
201707110100 METAR MROC 110100Z 26005KT 9999 3000SW -DZ BCFG FEW001 SCT025 22/22 A3002 NOSIG=
201707110200 METAR MROC 110200Z 25004KT 9999 4000SW BCFG FEW001 BKN025 21/21 A3004 NOSIG=
201707110300 METAR MROC 110300Z 32003KT 9999 2000SW BCFG FEW001 BKN025 21/21 A3005 NOSIG=
201707110400 METAR MROC 110400Z 26003KT 9999 2500W BCFG SCT005 BKN025 21/21 A3006 NOSIG=
201707110500 METAR MROC 110500Z 08003KT CAVOK 21/20 A3003 NOSIG=
201707110600 METAR MROC 110600Z 07004KT CAVOK 21/20 A3001 NOSIG=
201707110700 METAR MROC 110700Z 05009KT CAVOK 22/18 A2996 NOSIG=
201707110800 METAR MROC 110800Z 06007KT CAVOK 22/18 A2994 NOSIG=
201707110900 METAR MROC 110900Z 29004KT CAVOK 21/20 A2996 NOSIG=
201707111000 METAR MROC 111000Z 30005KT CAVOK 20/20 A2997 NOSIG=
201707111100 METAR MROC 111100Z 35005KT CAVOK 21/20 A2999 NOSIG=
201707111200 METAR MROC 111200Z 16003KT 5000 1500SW BR FEW001 SCT015 BKN100 20/20 A3000 NOSIG=
201707111300 METAR MROC 111300Z 03004KT CAVOK 21/20 A3001 NOSIG=
201707111400 METAR MROC 111400Z 08004KT CAVOK 24/20 A3002 NOSIG=
201707111500 METAR MROC 111500Z 08004KT 9999 FEW045 BKN120 25/19 A3001 NOSIG=
201707111600 METAR MROC 111600Z 10010G20KT 9999 FEW045 BKN120 27/19 A3000 NOSIG=
201707111700 METAR MROC 111700Z 13006KT 9999 FEW035 BKN120 28/19 A2998 BECMG 23006KT=
201707111800 METAR MROC 111800Z 12010G20KT 9999 FEW035 BKN140 29/19 A2998 BECMG 23006KT=
201707111900 METAR MROC 111900Z 12005KT 9999 FEW020TCU FEW035 SCT050 28/18 A2995 BECMG SHRA=
201707112000 METAR MROC 112000Z 25008KT 8000 1200SW -TSRA FEW015CB FEW020TCU SCT035 23/22 A2995 BECMG 3000=
201707112100 METAR MROC 112100Z 24009KT 8000 2000SW -TSRA FEW002 FEW010CB SCT030 BKN100 22/21 A2995 BECMG 3000 -RA BR=
201707112200 METAR MROC 112200Z 12007KT 9999 2000SW -RA FEW002 SCT030 OVC100 21/20 A2996 NOSIG=
201707112300 METAR MROC 112300Z 10005KT 9999 FEW030 BKN100 21/19 A2997 NOSIG=
201707120000 METAR MROC 120000Z 10004KT CAVOK 21/19 A2996 NOSIG=
201707120100 METAR MROC 120100Z 19002KT CAVOK 21/19 A2998 NOSIG=
201707120200 METAR MROC 120200Z COR 25003KT CAVOK 20/20 A3000 NOSIG=
201707120300 METAR MROC 120300Z 25002KT CAVOK 20/20 A3002 NOSIG=
201707120400 METAR MROC 120400Z 03005KT CAVOK 21/20 A3003 NOSIG=
201707120500 METAR MROC 120500Z 11003KT CAVOK 20/20 A3000 NOSIG=
201707120600 METAR MROC 120600Z 05007KT CAVOK 21/19 A2997 NOSIG=
201707120700 METAR MROC 120700Z 08004KT CAVOK 21/18 A2996 NOSIG=
201707120800 METAR MROC 120800Z 32002KT CAVOK 20/19 A2996 NOSIG=
201707120900 METAR MROC 120900Z 27002KT CAVOK 20/19 A2995 NOSIG=
201707121000 METAR MROC 121000Z 35002KT 9999 FEW015 BKN050 20/19 A2997 NOSIG=
201707121100 METAR MROC 121100Z 33002KT 9999 FEW010 BKN020 20/19 A2999 NOSIG=
201707121200 METAR MROC 121200Z 08004KT 9999 SCT045 20/19 A2999 NOSIG=
201707121300 METAR MROC 121300Z 08006KT CAVOK 22/19 A3000 NOSIG=
201707121400 METAR MROC 121400Z 07006KT CAVOK 24/18 A3003 NOSIG=
201707121500 METAR MROC 121500Z 10003KT CAVOK 26/18 A3002 NOSIG=
201707121600 METAR MROC 121600Z 25008KT 9999 FEW040 SCT120 BKN250 26/19 A3002=
201707121700 METAR MROC 121700Z 25009KT 9999 SCT030 BKN250 26/20 A3003=
201707121800 METAR MROC 121800Z 25009KT 9999 VCSH FEW010TCU SCT030 BKN070 26/21 A3002 NOSIG=
201707121900 METAR MROC 121900Z 26010KT 9999 FEW010TCU SCT030 BKN070 24/22 A3000 NOSIG=
201707122000 METAR MROC 122000Z 25007KT 9999 VCSH FEW010 SCT030 BKN070 23/22 A2999 NOSIG=
201707122100 METAR MROC 122100Z 10004KT 9999 -RA SCT030 OVC100 21/21 A2998 NOSIG=
201707122200 METAR MROC 122200Z 08004KT 9999 -RA FEW030 OVC100 21/21 A2997 NOSIG=
201707122300 METAR MROC 122300Z 06004KT CAVOK 22/20 A2999 NOSIG=
201707130000 METAR MROC 130000Z 08004KT CAVOK 22/20 A2999 NOSIG=
201707130100 METAR MROC 130100Z 04006KT CAVOK 23/19 A3001 NOSIG=
201707130200 METAR MROC 130200Z 09004KT CAVOK 22/19 A3001 NOSIG=
201707130300 METAR MROC 130300Z 03005KT CAVOK 22/20 A3002 NOSIG=
201707130400 METAR MROC 130400Z 12004KT CAVOK 21/18 A3003 NOSIG=
201707130500 METAR MROC 130500Z 08004KT CAVOK 22/17 A3004 NOSIG=
201707130600 METAR MROC 130600Z 06004KT CAVOK 20/18 A3002 NOSIG=
201707130700 METAR MROC 130700Z 03004KT CAVOK 20/18 A3003 NOSIG=
201707130800 METAR MROC 130800Z 04004KT 9999 FEW040 19/18 A3001 NOSIG=
201707130900 METAR MROC 130900Z 03004KT CAVOK 18/17 A3001 NOSIG=
201707131000 METAR MROC 131000Z 05004KT CAVOK 18/17 A3001 NOSIG=
201707131100 METAR MROC 131100Z 04007KT 9999 FEW040 BKN120 19/17 A3001 NOSIG=
201707131200 METAR MROC 131200Z 09005KT 9999 FEW040 BKN120 20/17 A3003 NOSIG=
201707131300 METAR MROC 131300Z 05003KT 9999 FEW035 SCT140 22/18 A3005 NOSIG=
201707131400 METAR MROC 131400Z 07004KT 9999 FEW035 SCT120 23/19 A3006 BECMG 24007KT=
201707131500 METAR MROC 131500Z 16005KT 9999 FEW040 BKN120 25/19 A3008 NOSIG=
201707131600 METAR MROC 131600Z 14007KT 9999 FEW040 SCT140 27/19 A3008 BECMG 24007KT=
201707131700 METAR MROC 131700Z 24007KT 9999 FEW040 SCT140 25/21 A3007 NOSIG=
201707131800 METAR MROC 131800Z 25008KT 9999 FEW040 SCT120 27/22 A3007 NOSIG=
201707131900 METAR MROC 131900Z 24009KT 9999 FEW020TCU SCT040 28/23 A3000 NOSIG=
201707132000 METAR MROC 132000Z 24010KT 9999 VCTS FEW015CB SCT030 BKN120 25/23 A3001 NOSIG=
201707132100 METAR MROC 132100Z 24009KT 9999 3000SE -TSRA FEW010CB SCT020 BKN100 22/22 A3000 BECMG 5000 TSRA SCT010CB=
201707132200 METAR MROC 132200Z 04008KT 3000 1500SW -TSRA FEW001 SCT010CB BKN015 21/19 A2999 BECMG 5000=
201707132300 METAR MROC 132300Z VRB02KT 9999 FEW010 SCT035 BKN100 20/20 A3002 RETSRA NOSIG=
201707140000 METAR MROC 140000Z VRB02KT 9999 -RA VCSH FEW008 SCT025 BKN100 21/20 A3004 BECMG RA=
201707140100 METAR MROC 140100Z 01003KT 9999 RA SCT020 BKN100 21/20 A3006 NOSIG=
201707140200 METAR MROC 140200Z 07005KT CAVOK 21/20 A3008 NOSIG=
201707140300 METAR MROC 140300Z 07006KT CAVOK 21/20 A3007 NOSIG=
201707140400 METAR MROC 140400Z 06007KT CAVOK 22/19 A3007 NOSIG=
201707140500 METAR MROC 140500Z 07007KT CAVOK 21/18 A3006 NOSIG=
201707140600 METAR MROC 140600Z 05007KT CAVOK 21/18 A3007 NOSIG=
201707140700 METAR MROC 140700Z 08005KT CAVOK 21/18 A3004 NOSIG=
201707140800 METAR MROC 140800Z 06004KT CAVOK 21/18 A3002 NOSIG=
201707140900 METAR MROC 140900Z 09006KT CAVOK 22/18 A3000 NOSIG=
201707141000 METAR MROC 141000Z 11013KT CAVOK 21/18 A2999 NOSIG=
201707141100 METAR MROC 141100Z 11016KT CAVOK 22/18 A2999 NOSIG=
201707141200 METAR MROC 141200Z 11012KT CAVOK 22/18 A3001 NOSIG=
201707141300 METAR MROC 141300Z 11011G21KT 9999 FEW045 BKN250 23/18 A3004 NOSIG=
201707141400 METAR MROC 141400Z 12011G21KT CAVOK 23/18 A3005 NOSIG=
201707141500 METAR MROC 141500Z 11011KT 9999 FEW045 SCT120 SCT250 26/19 A3006 NOSIG=
201707141600 METAR MROC 141600Z 10008KT 9999 FEW040 SCT130 SCT250 27/19 A3006 NOSIG=
201707141700 METAR MROC 141700Z 08011G21KT 9999 FEW035 SCT130 SCT250 28/18 A3007 NOSIG=
201707141800 METAR MROC 141800Z 09008KT 9999 FEW035 BKN130 27/18 A3007 NOSIG=
201707141900 METAR MROC 141900Z 12009KT 9999 FEW035 BKN120 27/19 A3005 NOSIG=
201707142000 METAR MROC 142000Z 09009KT 9999 FEW035 SCT060 SCT200 27/17 A3003 NOSIG=
201707142100 METAR MROC 142100Z 13006KT 9999 FEW035 BKN120 29/18 A3004 NOSIG=
201707142200 METAR MROC 142200Z 25007KT 9999 SCT035 BKN120 25/22 A3002 NOSIG=
201707142300 METAR MROC 142300Z 27010KT 9999 SCT030 SCT250 23/22 A3004 A2988=
201707150000 METAR MROC 150000Z 25004KT 9999 SCT030 SCT250 22/21 A3004 NOSIG=
201707150100 METAR MROC 150100Z 00000KT 9999 SCT025 22/21 A3006 NOSIG=
201707150200 METAR MROC 150200Z 06003KT 9999 FEW030 21/20 A3006 NOSIG=
201707150300 METAR MROC 150300Z 10005KT CAVOK 22/19 A3007 NOSIG=
201707150400 METAR MROC 150400Z 09006KT CAVOK 23/17 A3008 NOSIG=
201707150500 METAR MROC 150500Z 11007KT CAVOK 22/17 A3008 NOSIG=
201707150600 METAR MROC 150600Z 26003KT 9999 FEW045 20/18 A3007 NOSIG=
201707150700 METAR MROC 150700Z 10003KT 9999 FEW045 19/17 A3006 NOSIG=
201707150800 METAR MROC 150800Z 05007KT CAVOK 20/17 A3004 NOSIG=
201707150900 METAR MROC 150900Z 07006KT CAVOK 21/16 A3003 NOSIG=
201707151000 METAR MROC 151000Z VRB02KT CAVOK 21/16 A3003 NOSIG=
201707151100 METAR MROC 151100Z 07003KT 9999 FEW040 BKN150 21/17 A3004 NOSIG=
201707151200 METAR MROC 151200Z 05008KT 9999 FEW040 BKN140 21/16 A3003 NOSIG=
201707151300 METAR MROC 151300Z 11010G20KT CAVOK 22/17 A3006 NOSIG=
201707151400 METAR MROC 151400Z 11010KT CAVOK 24/16 A3006 NOSIG=
201707151500 METAR MROC 151500Z 11014G24KT CAVOK 25/16 A3006 NOSIG=
201707151600 METAR MROC 151600Z 10010G20KT CAVOK 28/13 A3006 NOSIG=
201707151700 METAR MROC 151700Z 10011G21KT CAVOK 28/15 A3004 NOSIG=
201707151800 METAR MROC 151800Z 09011G21KT 9999 FEW040 SCT250 28/17 A3003 NOSIG=
201707151900 METAR MROC 151900Z 08013KT 9999 FEW035 SCT250 29/17 A3002 NOSIG=
201707152000 METAR MROC 152000Z 09010G20KT 9999 FEW035 BKN250 29/17 A3000 NOSIG=
201707152100 METAR MROC 152100Z 11006KT 9999 SCT045 BKN200 28/18 A2999 NOSIG=
201707152200 METAR MROC 152200Z 23010KT 9999 FEW010 SCT060 BKN200 24/21 A3000 NOSIG=
201707152300 METAR MROC 152300Z 26008KT 9999 FEW010 SCT060 BKN200 23/21 A3001 NOSIG=
201707152356 METAR MROC 160000Z 26004KT 9999 FEW010 SCT025 BKN250 22/21 A3002 NOSIG=
201707160000 METAR MROC 160000Z 26004KT 9999 FEW010 SCT025 BKN250 22/21 A3002 NOSIG=
201707160100 METAR MROC 160100Z 04003KT 9999 FEW030 22/20 A3002 NOSIG=
201707160200 METAR MROC 160200Z 06004KT CAVOK 22/20 A3001 NOSIG=
201707160300 METAR MROC 160300Z 24003KT CAVOK 21/20 A3003 NOSIG=
201707160400 METAR MROC 160400Z 25003KT 9000 3000SW BCFG FEW001 SCT015 BKN100 20/20 A3005 NOSIG=
201707160500 METAR MROC 160500Z VRB02KT 0500 FG VV/// 20/20 A3006 BECMG 3000=
201707160600 MROC 160600Z 09003KT 9999 1000SW BCFG SCT001 SCT015 19/19 A3005 NOSIG=
201707160700 METAR MROC 160700Z 07004KT 9999 SCT010 19/18 A3004 NOSIG=
201707160800 METAR MROC 160800Z 05003KT CAVOK 18/18 A3001 NOSIG=
201707160900 METAR MROC 160900Z 11004KT CAVOK 18/17 A3001 NOSIG=
201707161000 METAR MROC 161000Z 07004KT CAVOK 19/17 A3001 NOSIG=
201707161100 METAR MROC 161100Z 06005KT CAVOK 18/17 A3001 NOSIG=
201707161200 METAR MROC 161200Z 00000KT CAVOK 19/17 A3004 NOSIG=
201707161300 METAR MROC 161300Z 08003KT CAVOK 20/18 A3004 NOSIG=
201707161400 METAR MROC 161400Z 24003KT 9999 FEW040 SCT120 BKN250 22/19 A3005 NOSIG=
201707161500 METAR MROC 161500Z 31004KT 9999 FEW045 SCT120 BKN250 23/18 A3006 NOSIG=
201707161600 METAR MROC 161600Z 27004KT 9999 FEW040 BKN120 26/20 A3004 NOSIG=
201707161700 METAR MROC 161700Z 22004KT 9999 FEW040 SCT120 26/20 A3003 NOSIG=
201707161800 METAR MROC 161800Z 13006KT 9999 FEW040 SCT120 29/19 A3001 BECMG 22007KT=
201707161900 METAR MROC 161900Z 24006KT 9999 SCT040 SCT120 26/21 A3001 BECMG SHRA=
201707162000 METAR MROC 162000Z 24010KT 9999 SCT035 SCT120 26/23 A2997 NOSIG=
201707162100 METAR MROC 162100Z 24012KT 9999 SCT020 BKN120 22/21 A2996 NOSIG=
201707162200 METAR MROC 162200Z 26009KT 9999 FEW020 SCT120 BKN250 23/22 A2997 NOSIG=
201707162300 METAR MROC 162300Z 24005KT 9999 BCFG FEW005 SCT020 BKN100 22/21 A2997 NOSIG=
201707170000 METAR MROC 170000Z 24003KT 3000 BR FEW001 BKN020 22/21 A2998 NOSIG=
201707170100 METAR MROC 170100Z 23003KT 3000 BR FEW001 BKN020 22/21 A3000 NOSIG=
201707170200 METAR MROC 170200Z 23002KT 5000 BR FEW001 BKN020 22/21 A3000 NOSIG=
201707170300 METAR MROC 170300Z 26002KT 3000 BR FEW001 BKN020 21/21 A3001 NOSIG=
201707170400 METAR MROC 170400Z 23002KT 2000 BR SCT003 BKN015 21/21 A3002 NOSIG=
201707170500 METAR MROC 170500Z 00000KT 3000 BR FEW003 SCT015 BKN100 21/21 A3002 NOSIG=
201707170600 METAR MROC 170600Z 22002KT 3000 BR FEW003 SCT020 BKN100 21/21 A3000 NOSIG=
201707170700 METAR MROC 170700Z 11005KT CAVOK 20/20 A2998 NOSIG=
201707170800 METAR MROC 170800Z 06009KT CAVOK 20/18 A2995 NOSIG=
201707170900 METAR MROC 170900Z 09005KT CAVOK 20/18 A2995 NOSIG=
201707171000 METAR MROC 171000Z 07004KT CAVOK 20/18 A2994 NOSIG=
201707171100 METAR MROC 171100Z 05005KT CAVOK 20/18 A2994 NOSIG=
201707171200 METAR MROC 171200Z 10007KT CAVOK 23/18 A2997 NOSIG=
201707171300 METAR MROC 171300Z 10007KT CAVOK 23/18 A2997 NOSIG=
201707171400 METAR MROC 171400Z 12007KT CAVOK 24/18 A2999 NOSIG=
201707171500 METAR MROC 171500Z 15006KT CAVOK 27/18 A3001 NOSIG=
201707171600 METAR MROC 171600Z 26008KT 9999 FEW040 SCT200 26/20 A3000 NOSIG=
201707171700 METAR MROC 171700Z 25011KT 9999 FEW040 SCT200 27/22 A2998 NOSIG=
201707171800 METAR MROC 171800Z 26012KT 9999 SCT030 SCT200 26/21 A2995 NOSIG=
201707171900 METAR MROC 171900Z 22012KT 9999 SCT030 BKN120 26/22 A2994 NOSIG=
201707172000 METAR MROC 172000Z 23009KT 9999 SCT030 BKN100 25/21 A2994 NOSIG=
201707172100 METAR MROC 172100Z 22010KT 9999 TS VCSH FEW010CB FEW015TCU SCT030 24/21 A2993 NOSIG=
201707172200 METAR MROC 172200Z 24010KT 9999 4200SW -RA VCSH FEW005 FEW015TCU SCT025 BKN100 22/22 A2992 RETS BECMG 2000 BR=
201707172300 METAR MROC 172300Z 28004KT 0500 TSRA FG SCT002 SCT010CB BKN020 22/21 A2996 BECMG 5000 BR=
201707180000 METAR MROC 180000Z 23003KT 7000 2500SW -RA VCTS BCFG FEW002 FEW010CB BKN040 21/20 A2999 RETS NOSIG=
201707180100 METAR MROC 180100Z 22004KT 9999 4000SW BCFG FEW002 SCT010 BKN040 20/20 A3002 NOSIG=
201707180200 METAR MROC 180200Z 00000KT 9999 4200SW BCFG FEW005 SCT010 BKN040 21/20 A3003 NOSIG=
201707180300 METAR MROC 180300Z VRB02KT 9999 3000SW BCFG FEW003 SCT010 BKN040 21/21 A3004 NOSIG=
201707180400 METAR MROC 180400Z 33004KT 9999 BCFG FEW001 SCT010 BKN040 21/21 A3003 NOSIG=
201707180500 METAR MROC 180500Z VRB02KT 9999 BCFG FEW001 SCT010 BKN040 21/21 A3003 NOSIG=
201707180600 METAR MROC 180600Z 05006KT 9999 FEW030 SCT100 20/20 A2999 NOSIG=
201707180700 METAR MROC 180700Z 06008KT CAVOK 20/19 A2995 NOSIG=
201707180800 METAR MROC 180800Z 07005KT 9999 BCFG FEW040 SCT090 20/18 A2993 NOSIG=
201707180900 METAR MROC 180900Z 24003KT 0500 FG VV001 19/19 A2994 NOSIG=
201707181000 METAR MROC 181000Z VRB01KT 0500 FG VV001 19/19 A2995 NOSIG=
201707181100 METAR MROC 181100Z 04003KT 9999 4000SW BCFG FEW030 SCT250 19/19 A2995 NOSIG=
201707181200 METAR MROC 181200Z 09003KT 9999 BCFG FEW030 BKN250 19/19 A2998 NOSIG=
201707181300 METAR MROC 181300Z 02006KT 9999 VCFG FEW030 BKN200 21/19 A3001 NOSIG=
201707181400 METAR MROC 181400Z 11007KT CAVOK 24/19 A3001 NOSIG=
201707181500 METAR MROC 181500Z 13005KT 9999 FEW040 SCT130 BKN200 25/19 A3000 BECMG 24007KT=
201707181600 METAR MROC 181600Z 10011KT 9999 FEW030 SCT130 BKN200 26/19 A3001 NOSIG=
201707181700 METAR MROC 181700Z 11006KT 9999 SCT035 SCT130 26/19 A3002 NOSIG=
201707181800 METAR MROC 181800Z 09006KT 9999 FEW040 SCT130 27/20 A3000 NOSIG=
201707181900 METAR MROC 181900Z 11009KT 9999 SCT040 BKN120 26/19 A2998 NOSIG=
201707182000 METAR MROC 182000Z 11010KT 9999 SCT040 BKN100 27/18 A2997 NOSIG=
201707182100 METAR MROC 182100Z 08008KT 9999 FEW035 BKN200 26/18 A2995 NOSIG=
201707182200 METAR MROC 182200Z 09007KT 9999 FEW035 BKN200 26/18 A2993 NOSIG=
201707182300 METAR MROC 182300Z 09007KT 9999 FEW035 BKN200 25/18 A2995 NOSIG=
201707190000 METAR MROC 190000Z 12004KT 9999 FEW030 BKN200 24/16 A2998 NOSIG=
201707190100 METAR MROC 190100Z 12007KT CAVOK 23/17 A3001 NOSIG=
201707190200 METAR MROC 190200Z 13003KT CAVOK 22/18 A3003 NOSIG=
201707190300 METAR MROC 190300Z 10003KT CAVOK 21/18 A3003 NOSIG=
201707190400 METAR MROC 190400Z 09004KT CAVOK 21/17 A3003 NOSIG=
201707190500 METAR MROC 190500Z 08006KT CAVOK 21/17 A3003 NOSIG=
201707190600 METAR MROC 190600Z 12010KT CAVOK 22/17 A3000 NOSIG=
201707190700 METAR MROC 190700Z 11008KT CAVOK 22/17 A2999 NOSIG=
201707190800 METAR MROC 190800Z 11003KT CAVOK 20/17 A2999 NOSIG=
201707190900 METAR MROC 190900Z 06004KT CAVOK 20/17 A2999 NOSIG=
201707191000 METAR MROC 191000Z 17004KT CAVOK 19/17 A2997 NOSIG=
201707191100 METAR MROC 191100Z 02002KT CAVOK 20/18 A2999 NOSIG=
201707191200 METAR MROC 191200Z 13004KT CAVOK 19/18 A3000 NOSIG=
201707191300 METAR MROC 191300Z 00000KT 9999 FEW040 SCT120 SCT200 21/18 A3003 NOSIG=
201707191400 METAR MROC 191400Z 08005KT 9999 FEW035 BKN130 23/18 A3004 NOSIG=
201707191500 METAR MROC 191500Z 12007KT 9999 FEW035 SCT130 BKN200 26/19 A3004 NOSIG=
201707191600 METAR MROC 191600Z 11003KT 9999 FEW045 SCT130 BKN200 26/19 A3004 NOSIG=
201707191700 METAR MROC 191700Z 22006KT 9999 FEW040 SCT080 BKN200 25/20 A3004 NOSIG=
201707191800 METAR MROC 191800Z 24003KT 9999 FEW040 SCT080 SCT200 26/20 A3003 NOSIG=
201707191900 METAR MROC 191900Z 25005KT 9999 FEW040 SCT070 SCT200 26/21 A3001 NOSIG=
201707192000 METAR MROC 192000Z 24004KT 9999 VCSH FEW030 SCT100 SCT200 25/21 A3000 BECMG SHRA=
201707192100 METAR MROC 192100Z 19004KT 9999 -RA OVC100 23/21 A2995 NOSIG=
201707192200 METAR MROC 192200Z 25003KT 9999 FEW030 BKN100 23/21 A2997 NOSIG=
201707192300 METAR MROC 192300Z 26003KT 9999 FEW020 OVC100 23/22 A2997 NOSIG=
201707200000 METAR MROC 200000Z 17002KT 9999 FEW020 OVC100 23/22 A2999 NOSIG=
201707200100 METAR MROC 200100Z 07007KT CAVOK 22/19 A3001 NOSIG=
201707200200 METAR MROC 200200Z 09007KT CAVOK 22/18 A3003 NOSIG=
201707200300 METAR MROC 200300Z 10007KT CAVOK 22/18 A3003 NOSIG=
201707200400 METAR MROC 200400Z 12008KT CAVOK 22/18 A3003 NOSIG=
201707200500 METAR MROC 200500Z 12007KT 9999 FEW045 SCT140 22/18 A3002 NOSIG=
201707200600 METAR MROC 200600Z 13006KT 9999 FEW045 23/18 A3000 NOSIG=
201707200700 METAR MROC 200700Z 11004KT CAVOK 22/18 A2999 NOSIG=
201707200800 METAR MROC 200800Z 08004KT CAVOK 22/18 A2997 NOSIG=
201707200900 METAR MROC 200900Z 01004KT CAVOK 20/19 A2996 NOSIG=
201707201000 METAR MROC 201000Z 35003KT 9999 FEW045 20/18 A2996 NOSIG=
201707201100 METAR MROC 201100Z 33003KT 9999 FEW040 SCT120 20/19 A2998 NOSIG=
201707201200 METAR MROC 201200Z 31004KT 9999 FEW040 BKN200 20/19 A3001 NOSIG=
201707201300 METAR MROC NIL=
201707201400 METAR MROC NIL=
201707201500 METAR MROC 201500Z 26007KT 9999 FEW035 SCT140 24/21 A3004 NOSIG=
201707201600 METAR MROC 201600Z 27007KT 9999 FEW035 BKN090 24/21 A3004 NOSIG=
201707201700 METAR MROC 201700Z 26007KT 9999 FEW035 SCT100 26/22 A3003 NOSIG=
201707201800 METAR MROC 201800Z 24006KT 9999 SCT035 BKN100 26/22 A3002 NOSIG=
201707201900 METAR MROC 201900Z 23006KT 9999 FEW030 BKN100 26/23 A2999 NOSIG=
201707202000 METAR MROC 202000Z 27008KT 9999 SCT030 BKN180 27/23 A2994 NOSIG=
201707202100 METAR MROC 202100Z 25009KT 9999 FEW010 SCT030 BKN200 25/23 A2994 NOSIG=
201707202200 METAR MROC 202200Z 26009KT 8000 3000SW VCFG FEW005 SCT010 BKN020 23/22 A2995 BECMG 5000 BR=
201707202300 METAR MROC 202300Z 26007KT 5000 2000SW -RA BR FEW005 SCT010 BKN020 22/22 A2997 BECMG 2000=
201707202335 METAR MROC 210000Z 26006KT 1000 BR FEW001 SCT005 BKN010 22/22 A2999 BECMG 0500 FG=
201707210000 METAR MROC 210000Z 26006KT 1000 BR FEW001 SCT005 BKN010 22/22 A2999 BECMG 0500 FG=
201707210100 METAR MROC 210100Z COR 26007KT 0500 -RA FG SCT001 BKN005 21/21 A3001 NOSIG=
201707210200 METAR MROC 210200Z 27003KT 0800 FG SCT001 BKN005 21/21 A3003 NOSIG=
201707210300 METAR MROC 210300Z 24004KT 0500 FG VV002 21/21 A3003 NOSIG=
201707210400 METAR MROC 210400Z 24006KT 1800 BR SCT002 BKN015 21/21 A3005 NOSIG=
201707210500 METAR MROC 210500Z 31003KT 9999 3000SW BCFG SCT008 BKN025 21/21 A3004 NOSIG=
201707210600 METAR MROC 210600Z VRB02KT 9999 2500SW BCFG SCT005 BKN020 21/21 A3002 NOSIG=
201707210700 METAR MROC 210700Z 11003KT 9999 3000SW BCFG SCT005 BKN020 21/20 A2999 NOSIG=
201707210800 METAR MROC 210800Z 02004KT CAVOK 20/20 A2995 NOSIG=
201707210900 METAR MROC 210900Z VRB02KT CAVOK 20/20 A2996 NOSIG=
201707211000 METAR MROC 211000Z VRB02KT 0500 FG VV/// 20/19 A2997 NOSIG=
201707211100 METAR MROC 211100Z 05005KT 0800 FG VV005 20/19 A2996 NOSIG=
201707211200 METAR MROC 211200Z 05005KT CAVOK 19/19 A2997 NOSIG=
201707211300 METAR MROC 211300Z 09005KT CAVOK 22/19 A2999 NOSIG=
201707211400 METAR MROC 211400Z 22005KT 9999 FEW040 BKN250 23/21 A3003 NOSIG=
201707211500 METAR MROC 211500Z 26007KT 9999 SCT040 BKN250 24/20 A3004 NOSIG=
201707211600 METAR MROC 211600Z 24011KT 9999 FEW035 BKN250 25/22 A3006 NOSIG=
201707211700 METAR MROC 211700Z 25007KT 9999 FEW035 BKN250 25/21 A3004 NOSIG=
201707211800 METAR MROC 211800Z 34004KT 9999 FEW035 SCT100 BKN250 27/21 A3000 NOSIG=
201707211900 METAR MROC 211900Z 24011KT 9999 SCT035 BKN250 27/22 A2997 NOSIG=
201707212000 METAR MROC 212000Z 23012KT 9999 -RA FEW020 SCT030 BKN250 26/22 A2996 BECMG SHRA=
201707212100 METAR MROC 212100Z 16004KT 5000 2300SW +TSRA FEW003 FEW009CB BKN020 20/19 A2998 NOSIG=
201707212200 METAR MROC 212200Z 02006KT 9999 RA VCTS FEW006 SCT060 BKN100 20/19 A3000 NOSIG=
201707212300 METAR MROC 212300Z VRB02KT 9999 FEW035 SCT070 BKN150 20/20 A2999 NOSIG=
201707220000 METAR MROC 220000Z 20002KT 9999 -RA VCFG FEW030 BKN140 21/21 A2999 NOSIG=
201707220100 METAR MROC 220100Z 00000KT 9999 FEW030 BKN140 21/20 A3001 NOSIG=
201707220200 METAR MROC 220200Z 05010KT 9999 FEW030 BKN140 22/19 A3001 NOSIG=
201707220300 METAR MROC 220300Z 08007KT 9999 FEW030 BKN150 22/19 A3001 NOSIG=
201707220400 METAR MROC 220400Z 11007KT 9999 FEW030 SCT150 22/18 A3002 NOSIG=
201707220500 METAR MROC 220500Z 03008KT 9999 FEW030 SCT140 22/19 A3002 NOSIG=
201707220600 METAR MROC 220600Z 28005KT 9999 FEW030 20/20 A3001 NOSIG=
201707220700 METAR MROC 220700Z 10003KT CAVOK 21/19 A3000 NOSIG=
201707220800 METAR MROC 220800Z 08004KT CAVOK 20/19 A2998 NOSIG=
201707220900 METAR MROC 220900Z 09004KT 9999 SCT035 21/19 A2997 NOSIG=
201707221000 METAR MROC 221000Z 08005KT 9999 SCT035 21/19 A2996 NOSIG=
201707221100 METAR MROC 221100Z 11004KT 9999 SCT035 21/19 A2998 NOSIG=
201707221200 METAR MROC 221200Z 09005KT 9999 SCT030 21/18 A2999 NOSIG=
201707221300 METAR MROC 221300Z 11008KT 9999 FEW035 23/18 A2999 NOSIG=
201707221400 METAR MROC 221400Z 11010KT 9999 FEW035 24/18 A3000 NOSIG=
201707221500 METAR MROC 221500Z 12010G22KT 9999 SCT045 24/19 A3002 NOSIG=
201707221600 METAR MROC 221600Z 11010G20KT 9999 FEW040 26/17 A3003 NOSIG=
201707221700 METAR MROC 221700Z 12010G20KT 9999 FEW035 27/19 A3001 NOSIG=
201707221800 METAR MROC 221800Z 11009KT 9999 FEW030 28/18 A3000 NOSIG=
201707221900 METAR MROC 221900Z 11009KT 9999 FEW030 29/19 A2997 NOSIG=
201707222000 METAR MROC 222000Z 24007KT 9999 SCT030 27/23 A2997 NOSIG=
201707222100 METAR MROC 222100Z 25010KT 9999 FEW015TCU SCT030 27/23 A2995 NOSIG=
201707222200 METAR MROC 222200Z 24011KT 9999 4200SW -TSRA FEW008 FEW012CB SCT025 BKN060 24/22 A2994 BECMG 3000=
201707222300 METAR MROC 222300Z 31008KT 7000 2500SW -TSRA BCFG FEW004 FEW010CB SCT020 BKN070 22/21 A2998 NOSIG=
201707230000 METAR MROC 230000Z 24003KT 9999 4200SW BCFG FEW005 SCT020 22/22 A3001 BECMG 3000 BR=
201707230100 METAR MROC 230100Z COR 27003KT 5000 2000SW BR FEW002 BKN015 22/22 A3003 NOSIG=
201707230200 METAR MROC 230200Z VRB02KT 5000 1800SW BR FEW003 SCT012 22/22 A3003 NOSIG=
201707230300 METAR MROC 230300Z VRB02KT 1500 BR SCT002 BKN010 21/21 A3002 NOSIG=
201707230400 METAR MROC 230400Z 30003KT 9999 FEW001 21/21 A3003 NOSIG=
201707230500 METAR MROC 230500Z VRB02KT 9999 BCFG FEW001 21/21 A3000 NOSIG=
201707230600 METAR MROC 230600Z 05003KT 9999 FEW010 20/20 A2999 NOSIG=
201707230700 METAR MROC 230700Z 03003KT 9999 FEW020 20/20 A2998 NOSIG=
201707230800 METAR MROC 230800Z 07003KT 9999 FEW020 20/20 A2996 NOSIG=
201707230900 METAR MROC 230900Z 06004KT 9999 FEW020 19/19 A2993 NOSIG=
201707231000 METAR MROC 231000Z 07005KT 9999 FEW020 19/18 A2995 NOSIG=
201707231100 METAR MROC 231100Z 05005KT 9999 FEW020 19/18 A2995 NOSIG=
201707231200 METAR MROC 231200Z 05004KT 9999 FEW030 BKN250 20/18 A2995 NOSIG=
201707231300 METAR MROC 231300Z 07006KT CAVOK 22/19 A3001 NOSIG=
201707231400 METAR MROC 231400Z 10010KT CAVOK 24/19 A2998 NOSIG=
201707231500 METAR MROC 231500Z 12009KT 9999 FEW045 26/20 A2998 BECMG 24007KT=
201707231600 METAR MROC 231600Z 12007KT 9999 SCT040 26/20 A2998 NOSIG=
201707231700 METAR MROC 231700Z 13007KT 9999 FEW020 SCT040 25/20 A2999 BECMG 24007KT=
201707231800 METAR MROC 231800Z 11006KT 9999 FEW020TCU SCT040 28/20 A2996 NOSIG=
201707231900 METAR MROC 231900Z 12005KT 9999 FEW020 SCT035 29/20 A2993 NOSIG=
201707232000 METAR MROC 232000Z 03004KT 9999 -RA VCSH FEW018TCU SCT030 BKN100 27/22 A2994 NOSIG=
201707232100 METAR MROC 232100Z 10009KT 9999 VCSH FEW015TCU SCT035 SCT120 28/20 A2992 NOSIG=
201707232200 METAR MROC 232200Z 12007KT 9999 4500SW FEW015 SCT030 SCT120 26/19 A2992 BECMG 24006KT=
201707232300 METAR MROC 232300Z 26006KT 9999 3000SW FEW010 SCT030 SCT070 23/22 A2996 BECMG 5000 BR BKN015=
201707240000 METAR MROC 240000Z 26004KT 8000 2500SW BCFG FEW006 SCT015 BKN060 22/22 A2997 BECMG 5000 BR BKN015=
201707240100 METAR MROC 240100Z 26005KT 9999 2500SW BCFG SCT008 BKN020 22/22 A3000 NOSIG=
201707240200 METAR MROC 240200Z 27004KT 9999 3000SW BCFG SCT008 BKN020 22/21 A3001 NOSIG=
201707240300 METAR MROC 240300Z 25003KT 9999 SCT015 BKN035 21/21 A3002 NOSIG=
201707240400 METAR MROC 240400Z 26002KT 9999 3500SW BCFG SCT005 BKN015 21/21 A3003 BECMG 5000 BKN008=
201707240500 METAR MROC 240500Z 24002KT 9999 VCFG FEW004 SCT012 BKN025 21/21 A3002 NOSIG=
201707240600 METAR MROC 240600Z 09003KT 9999 SCT010 BKN110 21/21 A3000 NOSIG=
201707240700 METAR MROC 240700Z 06004KT CAVOK 21/20 A2997 NOSIG=
201707240800 METAR MROC 240800Z 10006KT CAVOK 22/19 A2995 NOSIG=
201707240900 METAR MROC 240900Z 04003KT CAVOK 21/19 A2994 NOSIG=
201707241000 METAR MROC 241000Z 23002KT 9999 FEW030 BKN250 21/18 A2995 NOSIG=
201707241100 METAR MROC 241100Z 02003KT CAVOK 20/18 A2996 NOSIG=
201707241200 METAR MROC 241200Z 04005KT CAVOK 20/18 A2998 NOSIG=
201707241300 METAR MROC 241300Z 03003KT 9999 FEW040 BKN250 21/18 A2999 NOSIG=
201707241400 METAR MROC 241400Z 34003KT 9999 FEW040 BKN200 22/20 A2999 NOSIG=
201707241500 METAR MROC 241500Z 12008KT 9999 FEW040 BKN200 26/19 A3000 NOSIG=
201707241600 METAR MROC 241600Z 09010G20KT 9999 FEW035 BKN200 27/19 A3000 NOSIG=
201707241700 METAR MROC 241700Z 08009KT 9999 SCT030 BKN200 27/19 A3000 NOSIG=
201707241800 METAR MROC 241800Z 09008KT 9999 SCT030 SCT110 28/19 A2998 NOSIG=
201707241900 METAR MROC 241900Z 25004KT 9999 SCT030 BKN200 26/22 A2997 NOSIG=
201707242000 METAR MROC 242000Z 07011KT 9999 SCT030 BKN140 27/18 A2995 NOSIG=
201707242100 METAR MROC 242100Z 36006KT 9999 SCT030 BKN130 27/18 A2996 NOSIG=
201707242200 METAR MROC 242200Z 24006KT 9999 FEW030 BKN200 25/23 A2994 NOSIG=
201707242300 METAR MROC 242300Z 13003KT 9999 FEW030 SCT120 OVC200 25/20 A2994 NOSIG=
201707250000 METAR MROC 250000Z 23004KT 9999 FEW030 SCT120 OVC200 22/22 A2996 NOSIG=
201707250100 METAR MROC 250100Z 33003KT 9999 FEW030 SCT200 21/21 A2998 NOSIG=
201707250200 METAR MROC 250200Z 21005KT 8000 VCFG FEW003 SCT120 21/21 A2999 NOSIG=
201707250300 METAR MROC 250300Z 13005KT CAVOK 22/19 A3000 NOSIG=
201707250400 METAR MROC 250400Z 07004KT CAVOK 22/19 A2999 NOSIG=
201707250500 METAR MROC 250500Z 11003KT CAVOK 22/19 A3001 NOSIG=
201707250600 METAR MROC 250600Z 10006KT 9999 FEW040 22/19 A2999 NOSIG=
201707250700 METAR MROC 250700Z COR 09008KT 9999 FEW040 22/19 A2996 NOSIG=
201707250800 METAR MROC 250800Z 11009KT 9999 FEW040 23/19 A2997 NOSIG=
201707250900 METAR MROC 250900Z 12005KT 9999 FEW040 22/18 A2996 NOSIG=
201707251000 METAR MROC 251000Z 09008KT 9999 FEW040 SCT140 23/18 A2994 NOSIG=
201707251100 METAR MROC 251100Z 12009KT 9999 FEW040 BKN120 23/18 A2996 NOSIG=
201707251200 METAR MROC 251200Z 10010G20KT 9999 -DZ FEW035 BKN110 23/19 A2996 NOSIG=
201707251300 METAR MROC 251300Z 13008KT 9999 -RA FEW035 BKN130 22/19 A2997 NOSIG=
201707251400 METAR MROC 251400Z 05010KT 9999 -RA FEW035 BKN120 22/20 A3001 NOSIG=
201707251500 METAR MROC 251500Z 11009KT CAVOK 22/19 A3002 NOSIG=
201707251600 METAR MROC 251600Z 12008KT 9999 -RA OVC120 23/20 A3000 NOSIG=
201707251700 METAR MROC 251700Z 11007KT 9999 -RA OVC120 23/20 A3000 NOSIG=
201707251800 METAR MROC 251800Z 10008KT CAVOK 25/20 A2997 NOSIG=
201707251900 METAR MROC 251900Z 11012KT CAVOK 26/19 A2994 NOSIG=
201707252000 METAR MROC 252000Z 12012KT 9999 FEW035 BKN250 26/20 A2994 NOSIG=
201707252100 METAR MROC 252100Z 10010KT 9999 FEW035 BKN100 27/19 A2993 NOSIG=
201707252200 METAR MROC 252200Z 10006KT 9999 FEW035 SCT120 BKN250 28/20 A2993 NOSIG=
201707252300 METAR MROC 252300Z 25006KT 9999 FEW035 BKN250 25/23 A2994 NOSIG=
201707260000 METAR MROC 260000Z 25005KT 9999 FEW015 SCT035 BKN250 23/22 A2997 NOSIG=
201707260100 METAR MROC 260100Z VRB02KT 9999 FEW035 BKN100 22/21 A2999 RESHRA NOSIG=
201707260200 METAR MROC 260200Z VRB02KT CAVOK 22/20 A2999 NOSIG=
201707260300 METAR MROC 260300Z 32003KT 9999 FEW035 BKN100 22/20 A3002 NOSIG=
201707260400 METAR MROC 260400Z 00000KT 9999 FEW035 SCT100 21/20 A3004 NOSIG=
201707260500 METAR MROC 260500Z 04004KT CAVOK 21/20 A3001 NOSIG=
201707260600 METAR MROC 260600Z 03007KT CAVOK 21/20 A3000 NOSIG=
201707260700 METAR MROC 260700Z 09003KT CAVOK 21/19 A2996 NOSIG=
201707260800 METAR MROC 260800Z 07008KT CAVOK 22/19 A2992 NOSIG=
201707260900 METAR MROC 260900Z 13009KT CAVOK 22/19 A2992 NOSIG=
201707261000 METAR MROC 261000Z 12010G20KT CAVOK 23/19 A2993 NOSIG=
201707261100 METAR MROC 261100Z 12009KT 9999 FEW035 SCT060 SCT250 23/18 A2993 NOSIG=
201707261200 METAR MROC 261200Z 11009KT 9999 FEW040 SCT120 SCT250 22/19 A2993 NOSIG=
201707261300 METAR MROC 261300Z 06006KT CAVOK 23/19 A2996 NOSIG=
201707261400 METAR MROC 261400Z 04003KT 9999 FEW035 SCT120 24/19 A2998 BECMG 24006KT=
201707261500 METAR MROC 261500Z VRB02KT 9999 FEW035 SCT120 25/19 A3000 NOSIG=
201707261600 METAR MROC 261600Z 08007KT 9999 FEW035 BKN120 28/18 A2999 NOSIG=
201707261700 METAR MROC 261700Z 12007KT 9999 FEW035 BKN120 27/18 A2997 NOSIG=
201707261800 METAR MROC 261800Z 11011G21KT 9999 FEW040 BKN150 27/18 A2996 NOSIG=
201707261900 METAR MROC 261900Z 11010G20KT 9999 FEW040 BKN150 27/18 A2995 NOSIG=
201707262000 METAR MROC 262000Z 10010G20KT 9999 FEW035 SCT150 BKN200 27/18 A2992 NOSIG=
201707262100 METAR MROC 262100Z 13008KT 9999 FEW010 BKN120 27/18 A2992 NOSIG=
201707262200 METAR MROC 262200Z 14004KT 9999 FEW045 BKN120 26/17 A2992 BECMG 22006KT=
201707262300 METAR MROC 262300Z 10002KT 9999 FEW040 SCT100 BKN120 25/18 A2995 BECMG 22006KT=
201707270000 METAR MROC 270000Z 26006KT 9999 4500SW BCFG FEW001 BKN120 22/21 A2997 NOSIG=
201707270100 METAR MROC 270100Z 32003KT 9999 FEW010 BKN080 22/22 A3000 NOSIG=
201707270200 METAR MROC 270200Z 27002KT 6000 2000SW SCT003 22/22 A3002 NOSIG=
201707270300 METAR MROC 270300Z 30003KT 9999 FEW008 BKN120 22/21 A3001 NOSIG=
201707270400 METAR MROC 270400Z 15002KT 8000 VCFG FEW003 SCT120 21/21 A3000 NOSIG=
201707270500 METAR MROC 270500Z 00000KT 8000 VCFG FEW003 SCT012 21/21 A3000 NOSIG=
201707270600 METAR MROC 270600Z 22002KT 8000 VCFG FEW004 SCT100 21/21 A2999 NOSIG=
201707270700 METAR MROC 270700Z 12004KT CAVOK 21/19 A2997 NOSIG=
201707270800 METAR MROC 270800Z 08006KT CAVOK 21/18 A2994 NOSIG=
201707270900 METAR MROC 270900Z 07008KT CAVOK 21/18 A2993 NOSIG=
201707271000 METAR MROC 271000Z 08004KT CAVOK 21/18 A2993 NOSIG=
201707271100 METAR MROC 271100Z 05010KT CAVOK 21/18 A2994 NOSIG=
201707271200 METAR MROC 271200Z 07007KT 9999 FEW035 SCT130 21/17 A2996 NOSIG=
201707271300 METAR MROC 271300Z 10008KT 9999 FEW045 24/18 A2998 NOSIG=
201707271400 METAR MROC 271400Z 11010KT 9999 FEW045 SCT250 25/18 A2998 NOSIG=
201707271500 METAR MROC 271500Z 11010G20KT 9999 FEW045 SCT250 26/18 A2998 NOSIG=
201707271600 METAR MROC 271600Z 11011KT CAVOK 27/18 A2998 NOSIG=
201707271700 METAR MROC 271700Z 14010KT 9999 FEW045 SCT300 29/19 A2996 NOSIG=
201707271800 METAR MROC 271800Z 10007KT 9999 FEW045 BKN300 30/19 A2995 NOSIG=
201707271900 METAR MROC 271900Z 24010KT 9999 FEW035 SCT090 27/22 A2993 NOSIG=
201707272000 METAR MROC 272000Z 25010KT 9999 FEW035 BKN045 26/22 A2992 NOSIG=
201707272100 METAR MROC 272100Z 23011KT 9999 4200SW -RA VCTS FEW010TCU SCT030 BKN070 25/23 A2991 BECMG 5000 TSRA=
201707272200 METAR MROC 272200Z 26009KT 9999 4200SW VCFG FEW004 SCT030 BKN110 24/23 A2993 RERA NOSIG=
201707272300 METAR MROC 272300Z 23006KT 9999 FEW010 SCT030 BKN200 24/22 A2994 NOSIG=
201707280000 METAR MROC 280000Z 26006KT 9000 4200SW BCFG FEW005 SCT010 BKN140 22/22 A2996 NOSIG=
201707280100 METAR MROC 280100Z 00000KT 9999 FEW020 BKN140 22/21 A2997 NOSIG=
201707280200 METAR MROC 280200Z 26004KT 9999 FEW035 BKN160 23/20 A2998 NOSIG=
201707280300 METAR MROC 280300Z VRB02KT CAVOK 23/19 A2999 NOSIG=
201707280400 METAR MROC 280400Z 10005KT 9999 FEW045 22/19 A2999 NOSIG=
201707280500 METAR MROC 280500Z 13006KT 9999 FEW045 23/19 A2999 BECMG 24006KT=
201707280600 METAR MROC 280600Z 09005KT 9999 FEW045 22/19 A2999 NOSIG=
201707280700 METAR MROC 280700Z 10007KT 9999 -RA FEW030 BKN100 21/20 A2997 NOSIG=
201707280800 METAR MROC 280800Z 09005KT CAVOK 21/20 A2995 NOSIG=
201707280900 METAR MROC 280900Z 07004KT 9999 -RA NSC 21/20 A2994 NOSIG=
201707281000 METAR MROC 281000Z 10011KT CAVOK 22/19 A2992 NOSIG=
201707281100 METAR MROC 281100Z 12010KT 9999 FEW040 SCT100 22/18 A2995 NOSIG=
201707281200 METAR MROC 281200Z 06005KT 9999 FEW035 SCT250 20/19 A2997 NOSIG=
201707281300 METAR MROC 281300Z 00000KT 9999 FEW035 BKN250 24/19 A2997 NOSIG=
201707281400 METAR MROC 281400Z 09010G21KT 9999 FEW030 SCT140 25/19 A3000 NOSIG=
201707281500 METAR MROC 281500Z 11005KT 9999 FEW035 SCT140 27/20 A2999 NOSIG=
201707281600 METAR MROC 281600Z 10009KT 9999 FEW030 SCT140 27/19 A2999 NOSIG=
201707281700 METAR MROC 281700Z 03009KT 9999 SCT040 SCT140 28/19 A2998 NOSIG=
201707281800 METAR MROC 281800Z 26007KT 9999 BKN040 27/21 A2994 NOSIG=
201707281900 METAR MROC 281900Z 22004KT 9999 VCSH FEW015TCU SCT040 BKN120 28/22 A2992 NOSIG=
201707282000 METAR MROC 282000Z 28007KT 9999 -DZ VCSH FEW006 FEW015TCU SCT030 BKN120 24/23 A2992 RERA NOSIG=
201707282100 METAR MROC 282100Z 28006KT 9999 VCFG FEW015 SCT035 BKN100 24/23 A2992 NOSIG=
201707282200 METAR MROC 282200Z 27005KT 9999 -RA FEW010 SCT030 BKN100 24/21 A2993 NOSIG=
201707282300 METAR MROC 282300Z 04005KT 9999 -RA FEW030 BKN100 22/20 A2995 NOSIG=
201707290000 METAR MROC 290000Z 08007KT 9999 FEW040 BKN100 23/20 A2996 NOSIG=
201707290100 METAR MROC 290100Z 10005KT 9999 -RA FEW040 BKN100 22/20 A2999 NOSIG=
201707290200 METAR MROC 290200Z 06004KT CAVOK 22/21 A3000 NOSIG=
201707290300 METAR MROC 290300Z 10003KT CAVOK 22/22 A3002 NOSIG=
201707290400 METAR MROC 290400Z 10006KT 9999 FEW025 SCT100 22/29 A3002 NOSIG=
201707290500 METAR MROC 290500Z 13007KT 9999 FEW025 SCT060 23/19 A3000 NOSIG=
201707290600 METAR MROC 290600Z 12002KT CAVOK 22/19 A2999 BECMG 24006KT=
201707290700 METAR MROC 290700Z 07004KT CAVOK 21/19 A2998 NOSIG=
201707290800 METAR MROC 290800Z 26003KT CAVOK 21/20 A2997 NOSIG=
201707290900 METAR MROC 290900Z 07003KT CAVOK 20/19 A2996 NOSIG=
201707291000 METAR MROC 291000Z 28003KT 050V270 9999 2000SW BCFG NSC 19/19 A2995 BECMG 5000 BR=
201707291100 METAR MROC 291100Z 03002KT 9999 3000SW BCFG FEW040 19/19 A2995 NOSIG=
201707291200 METAR MROC 291200Z 05008KT 9999 4500SW BCFG FEW045 SCT130 20/18 A2997 NOSIG=
201707291300 METAR MROC 291300Z 07005KT 9999 FEW040 BKN250 23/19 A2998 NOSIG=
201707291400 METAR MROC 291400Z 11007KT 9999 FEW040 SCT140 SCT250 25/19 A3001 NOSIG=
201707291500 METAR MROC 291500Z 12010KT CAVOK 25/18 A3002 NOSIG=
201707291600 METAR MROC 291600Z 11006KT 9999 FEW045 BKN120 26/19 A3003 BECMG 24006KT=
201707291700 METAR MROC 291700Z 25006KT 9999 FEW030 BKN120 26/21 A3002 NOSIG=
201707291800 METAR MROC 291800Z 25006KT 9999 SCT035 BKN130 26/21 A2999 NOSIG=
201707291900 METAR MROC 291900Z 24007KT 9999 SCT035 SCT130 27/21 A2996 NOSIG=
201707292000 METAR MROC 292000Z 26010KT 9999 RA FEW010TCU SCT030 SCT110 25/22 A2995 NOSIG=
201707292100 METAR MROC 292100Z 26011KT 9999 FEW015 SCT030 25/22 A2994 NOSIG=
201707292200 METAR MROC 292200Z 05004KT 5000 -RA VCTS FEW010 SCT020 BKN100 23/22 A2993 NOSIG=
201707292300 METAR MROC 292300Z 17004KT 5000 -TSRA FEW008 SCT020 OVC100 21/21 A2996 NOSIG=
201707300000 METAR MROC 300000Z 08004KT 9999 FEW004 OVC100 21/21 A3000 NOSIG=
201707300100 METAR MROC 300100Z 32002KT 5000 -RA BR FEW002 SCT010 OVC100 21/21 A3001 NOSIG=
201707300200 METAR MROC 300200Z 06008KT 9999 FEW004 SCT030 BKN100 21/21 A3000 NOSIG=
201707300300 METAR MROC 300300Z 16002KT CAVOK 21/20 A3001 NOSIG=
201707300400 METAR MROC 300400Z 08005KT CAVOK 22/18 A3002 NOSIG=
201707300500 METAR MROC 300500Z 10004KT CAVOK 21/19 A3003 NOSIG=
201707300600 METAR MROC 300600Z 09006KT CAVOK 21/18 A3002 NOSIG=
201707300700 METAR MROC 300700Z 04008KT CAVOK 21/18 A3000 NOSIG=
201707300800 METAR MROC 300800Z 07004KT CAVOK 20/18 A2999 NOSIG=
201707300900 METAR MROC 300900Z 04008KT CAVOK 20/17 A2999 NOSIG=
201707301000 METAR MROC 301000Z 04005KT CAVOK 20/17 A2998 NOSIG=
201707301100 METAR MROC 301100Z 05006KT CAVOK 21/18 A2999 NOSIG=
201707301200 METAR MROC 301200Z 06008KT 9999 FEW045 SCT150 BKN250 20/17 A3000 NOSIG=
201707301300 METAR MROC 301300Z 03007KT CAVOK 21/18 A3000 NOSIG=
201707301400 METAR MROC 301400Z 25003KT CAVOK 24/18 A3002 NOSIG=
201707301500 METAR MROC 301500Z 25007KT 9999 SCT045 BKN140 23/20 A3005 NOSIG=
201707301600 METAR MROC 301600Z 27004KT 9999 FEW045 BKN140 24/20 A3005 NOSIG=
201707301700 METAR MROC 301700Z 23003KT 9999 FEW040 BKN220 26/20 A3002 NOSIG=
201707301800 METAR MROC 301800Z 25007KT 9999 SCT035 BKN140 26/22 A3001 NOSIG=
201707301900 METAR MROC 301900Z 23008KT 9999 SCT035 BKN120 26/22 A3000 NOSIG=
201707302000 METAR MROC 302000Z 24011KT 9999 SCT030 BKN120 24/22 A2997 NOSIG=
201707302100 METAR MROC 302100Z 26007KT 9999 VCSH FEW010 SCT020 BKN035 23/22 A2996 BECMG SHRA BKN020=
201707302200 METAR MROC 302200Z 23009KT 3000 RA BR FEW001 SCT005 BKN015 22/22 A2997 NOSIG=
201707302300 METAR MROC 302300Z 23007KT 1000 TSRA FEW001 SCT010CB BKN015 20/20 A3001 NOSIG=
201707310000 METAR MROC 310000Z 04006KT 5000 -TSRA BR FEW005 FEW010CB SCT035 BKN100 20/20 A3005 NOSIG=
201707310100 METAR MROC 310100Z 11004KT 8000 -RA VCTS FEW010CB SCT035 BKN100 20/20 A3008 RETS NOSIG=
201707310200 METAR MROC 310200Z 04005KT 9999 -RA FEW020 BKN100 20/20 A3009 RETS NOSIG=
201707310300 METAR MROC 310300Z VRB02KT 9999 -RA FEW020 BKN100 20/20 A3009 NOSIG=
201707310400 METAR MROC 310400Z VRB02KT 9999 -DZ FEW030 BKN100 20/20 A3007 NOSIG=
201707310500 METAR MROC 310500Z 15003KT 9999 -DZ NSC 20/20 A3005 NOSIG=
201707310600 METAR MROC 310600Z 08003KT CAVOK 19/19 A3003 NOSIG=
201707310700 METAR MROC 310700Z 02002KT CAVOK 19/19 A3001 NOSIG=
201707310800 METAR MROC 310800Z 09003KT CAVOK 19/19 A2997 NOSIG=
201707310900 METAR MROC 310900Z 13003KT CAVOK 19/19 A2996 NOSIG=
201707311000 METAR MROC 311000Z 07005KT CAVOK 19/18 A2998 NOSIG=
201707311100 METAR MROC 311100Z 07007KT 9999 FEW045 SCT110 19/18 A2999 NOSIG=
201707311200 METAR MROC 311200Z 07005KT CAVOK 19/18 A2999 NOSIG=
201707311300 METAR MROC 311300Z 34003KT CAVOK 20/18 A3004 NOSIG=
201707311400 METAR MROC 311400Z 24003KT CAVOK 22/19 A3008 NOSIG=
201707311500 METAR MROC 311500Z 25003KT CAVOK 23/19 A3005 NOSIG=
201707311600 METAR MROC 311600Z 24004KT 9999 FEW035 SCT120 BKN250 24/19 A3006 NOSIG=
201707311700 METAR MROC 311700Z 25006KT 9999 FEW035 SCT120 BKN200 25/19 A3006 NOSIG=
201707311800 METAR MROC 311800Z 24008KT 9999 SCT030 BKN120 25/21 A3005 NOSIG=
201707311900 METAR MROC 311900Z 25009KT 9999 BKN030 BKN200 26/21 A3002 NOSIG=
201707312000 METAR MROC 312000Z 23007KT 9999 VCSH FEW020 SCT030 BKN100 26/21 A2999 NOSIG=
201707312100 METAR MROC 312100Z 27006KT 9000 4000SW -RA SCT012 BKN100 22/22 A3000 BECMG 5000 RA BR=
201707312200 METAR MROC 312200Z 28005KT 3000 1000SW TSRA BR FEW005 BKN020 22/22 A3001 NOSIG=
201707312300 METAR MROC 312300Z 35006KT 4500 2000SW -TSRA FEW010 BKN090 19/19 A3004 NOSIG=
201708010000 METAR MROC 010000Z 06004KT 9999 BKN020 19/19 A3006 NOSIG=
201708010100 METAR MROC 010100Z 12003KT 9999 FEW010 BKN080 19/19 A3005 NOSIG=
201708010200 METAR MROC 010200Z 08004KT CAVOK 19/19 A3006 NOSIG=
201708010300 METAR MROC 010300Z 07003KT CAVOK 20/19 A3008 NOSIG=
201708010400 METAR MROC 010400Z 35003KT CAVOK 19/19 A3007 NOSIG=
201708010500 METAR MROC 010500Z 34002KT CAVOK 20/19 A3009 NOSIG=
201708010600 METAR MROC 010600Z 11004KT CAVOK 19/19 A3007 NOSIG=
201708010700 METAR MROC NIL=
201708010800 METAR MROC NIL=
201708010900 METAR MROC NIL=
201708011000 METAR MROC NIL=
201708011100 METAR MROC NIL=
201708011200 METAR MROC 011200Z 09006KT CAVOK 20/18 A3003 NOSIG=
201708011300 METAR MROC 011300Z 08005KT CAVOK 22/19 A3008 NOSIG=
201708011400 METAR MROC 011400Z 11008KT CAVOK 24/19 A3007 NOSIG=
201708011500 METAR MROC 011500Z 09009KT CAVOK 25/18 A3006 NOSIG=
201708011600 METAR MROC 011600Z 12008KT 9999 FEW045 BKN200 26/19 A3007 NOSIG=
201708011700 METAR MROC 011700Z 12005KT 9999 FEW045 BKN200 27/19 A3005 NOSIG=
201708011800 METAR MROC 011800Z 14004KT CAVOK 28/19 A3004 NOSIG=
201708011900 METAR MROC 011900Z 24009KT 9999 FEW045 SCT220 26/23 A3001 NOSIG=
201708012000 METAR MROC 012000Z 24009KT 9999 4500SW BCFG FEW012 BKN080 26/23 A2999 BECMG 5000 SHRA=
201708012100 METAR MROC 012100Z 03008KT 9999 4200SW -TSRA BCFG FEW005 SCT010CB BKN040 23/20 A3000 BECMG 5000=
201708012200 METAR MROC 012200Z VRB02KT 9999 VCFG FEW005 SCT030 BKN200 20/19 A3001 RETSRA NOSIG=
201708012300 METAR MROC 012300Z 00000KT 9999 FEW010 SCT040 BKN150 21/19 A3003 NOSIG=
201708020000 METAR MROC 020000Z VRB02KT 9999 FEW040 BKN150 21/21 A3002 NOSIG=
201708020100 METAR MROC 020100Z 00000KT 9999 FEW040 BKN180 21/21 A3004 NOSIG=
201708020200 METAR MROC 020200Z 07004KT 9999 FEW040 BKN200 21/20 A3003 NOSIG=
201708020300 METAR MROC 020300Z 08005KT CAVOK 22/20 A3005 NOSIG=
201708020400 METAR MROC 020400Z 08008KT CAVOK 22/19 A3004 NOSIG=
201708020500 METAR MROC 020500Z 07005KT CAVOK 22/18 A3003 NOSIG=
201708020600 METAR MROC 020600Z 06007KT CAVOK 20/18 A3001 NOSIG=
201708020700 METAR MROC 020700Z 08007KT CAVOK 21/17 A3002 NOSIG=
201708020800 METAR MROC 020800Z 07009KT CAVOK 21/17 A3001 NOSIG=
201708020900 METAR MROC 020900Z 05007KT CAVOK 20/17 A3000 NOSIG=
201708021000 METAR MROC 021000Z 09004KT CAVOK 20/17 A3001 NOSIG=
201708021100 METAR MROC 021100Z 06005KT CAVOK 19/17 A3001 NOSIG=
201708021200 METAR MROC 021200Z 04009KT CAVOK 20/17 A3004 NOSIG=
201708021300 METAR MROC 021300Z 12008KT CAVOK 23/17 A3005 NOSIG=
201708021400 METAR MROC 021400Z 12011G21KT CAVOK 24/17 A3006 NOSIG=
201708021500 METAR MROC 021500Z 13009KT CAVOK 26/18 A3007 NOSIG=
201708021600 METAR MROC 021600Z 12007KT 9999 FEW045 BKN250 28/18 A3007 NOSIG=
201708021700 METAR MROC 021700Z 07010KT 9999 FEW045 BKN250 29/19 A3005 BECMG 24005KT=
201708021800 METAR MROC 021800Z 09008KT 9999 FEW040 BKN250 29/19 A3002 NOSIG=
201708021900 METAR MROC 021900Z 09009KT 9999 SCT040 BKN250 28/19 A3000 NOSIG=
201708022000 METAR MROC 022000Z 08012G22KT 9999 SCT035 SCT250 29/18 A2999 NOSIG=
201708022100 METAR MROC 022100Z 11010G20KT 9999 SCT035 SCT250 28/18 A2997 NOSIG=
201708022200 METAR MROC 022200Z 07012G22KT 9999 FEW035 BKN200 27/17 A2995 NOSIG=
201708022300 METAR MROC 022300Z 11010KT 9999 FEW035 BKN250 25/17 A2995 NOSIG=
201708030000 METAR MROC 030000Z 12010G20KT 9999 FEW035 SCT250 24/18 A2995 NOSIG=
201708030100 METAR MROC 030100Z 07010KT CAVOK 24/18 A2998 NOSIG=
201708030200 METAR MROC 030200Z 08009KT CAVOK 23/17 A3000 NOSIG=
201708030300 METAR MROC 030300Z 10009KT CAVOK 24/18 A3002 NOSIG=
201708030400 METAR MROC 030400Z 08011G21KT 9999 FEW030 23/18 A3002 NOSIG=
201708030500 METAR MROC 030500Z 09009KT 9999 FEW025 23/18 A3002 NOSIG=
201708030600 METAR MROC 030600Z 11006KT 9999 FEW025 23/17 A3001 NOSIG=
201708030700 METAR MROC 030700Z VRB02KT 9999 FEW035 21/18 A3000 NOSIG=
201708030800 METAR MROC 030800Z 07004KT CAVOK 21/18 A2999 NOSIG=
201708030900 METAR MROC 030900Z 03003KT CAVOK 20/17 A3000 NOSIG=
201708031000 METAR MROC 031000Z 04004KT CAVOK 19/17 A2998 NOSIG=
201708031100 METAR MROC 031100Z 04004KT CAVOK 20/17 A3000 NOSIG=
201708031200 METAR MROC 031200Z 07005KT CAVOK 21/18 A3002 NOSIG=
201708031300 METAR MROC 031300Z 11005KT CAVOK 23/18 A3004 NOSIG=
201708031400 METAR MROC 031400Z 12008KT CAVOK 26/17 A3005 NOSIG=
201708031500 METAR MROC 031500Z 12009KT CAVOK 27/18 A3006 NOSIG=
201708031600 METAR MROC 031600Z 10008KT 9999 FEW040 SCT120 27/19 A3005 NOSIG=
201708031700 METAR MROC 031700Z 11007KT 9999 FEW040 BKN110 27/20 A3006 NOSIG=
201708031800 METAR MROC 031800Z 12010KT 9999 FEW040 BKN110 28/18 A3000 NOSIG=
201708031900 METAR MROC 031900Z 11010G20KT 9999 FEW040 SCT080 28/19 A2999 NOSIG=
201708032000 METAR MROC 032000Z 13010G20KT 9999 FEW040 SCT080 28/20 A2998 NOSIG=
201708032100 METAR MROC 032100Z 08012KT 9999 SCT035 30/18 A2995 NOSIG=
201708032200 METAR MROC 032200Z 09010KT 9999 SCT035 27/18 A2995 NOSIG=
201708032300 METAR MROC 032300Z 23007KT 9999 SCT035 26/24 A2995 NOSIG=
201708040000 METAR MROC 040000Z 25008KT 8000 VCFG FEW003 SCT030 23/23 A2998 NOSIG=
201708040100 METAR MROC 040100Z 25007KT 8000 VCFG FEW003 BKN015 23/22 A3000 NOSIG=
201708040200 METAR MROC 040200Z 26003KT 5000 BR FEW003 BKN015 22/22 A3002 NOSIG=
201708040300 METAR MROC 040300Z 23003KT 5000 BR FEW003 BKN015 22/22 A3002 NOSIG=
201708040400 METAR MROC 040400Z COR VRB02KT 6000 2200SW BCFG FEW003 SCT015 22/22 A3004 NOSIG=
201708040500 METAR MROC 040500Z VRB02KT 8000 3500SW BCFG FEW006 SCT040 21/21 A3004 NOSIG=
201708040600 METAR MROC 040600Z 06003KT 9999 FEW040 21/21 A3002 NOSIG=
201708040700 METAR MROC 040700Z 03004KT 9999 FEW040 21/20 A3001 NOSIG=
201708040800 METAR MROC 040800Z 00000KT 9999 FEW040 20/19 A2999 NOSIG=
201708040900 METAR MROC 040900Z 04003KT 9999 FEW045 20/19 A2998 NOSIG=
201708041000 METAR MROC 041000Z 09003KT CAVOK 20/18 A2998 NOSIG=
201708041100 METAR MROC 041100Z 04004KT CAVOK 20/18 A2999 NOSIG=
201708041200 METAR MROC 041200Z 07003KT CAVOK 20/18 A3001 NOSIG=
201708041300 METAR MROC 041300Z 10004KT CAVOK 23/19 A3002 NOSIG=
201708041400 METAR MROC 041400Z 08003KT CAVOK 25/19 A3004 NOSIG=
201708041500 METAR MROC 041500Z 26005KT CAVOK 26/21 A3004 NOSIG=
201708041600 METAR MROC 041600Z 25007KT 9999 FEW035 27/21 A3003 NOSIG=
201708041700 METAR MROC 041700Z 24009KT 9999 SCT035 26/22 A3004 NOSIG=
201708041800 METAR MROC 041800Z 24010KT 9999 SCT035 27/23 A3003 NOSIG=
201708041900 METAR MROC 041900Z 25010G20KT 9999 SCT035 BKN100 27/23 A3000 NOSIG=
201708042000 METAR MROC 042000Z 22010KT 9999 -RA SCT030 BKN100 24/22 A2999 NOSIG=
201708042100 METAR MROC 042100Z 24010KT 9999 VCSH FEW020 SCT030 BKN100 24/21 A2998 NOSIG=
201708042200 METAR MROC 042200Z 25007KT 9999 4500SW -RA FEW015 SCT025 BKN100 23/21 A3000 NOSIG=
201708042300 METAR MROC 042300Z 29005KT 9999 FEW015 SCT025 BKN100 22/22 A3001 NOSIG=
201708050000 METAR MROC 050000Z 34003KT 9999 FEW015 SCT025 BKN200 22/21 A3002 NOSIG=
201708050100 METAR MROC 050100Z 00000KT 9999 FEW015 SCT025 BKN100 22/21 A3004 NOSIG=
201708050200 METAR MROC 050200Z VRB02KT 9999 FEW015 BKN025 22/21 A3006 NOSIG=
201708050300 METAR MROC 050300Z VRB02KT 9999 SCT025 BKN100 22/21 A3006 NOSIG=
201708050400 METAR MROC 050400Z 07005KT CAVOK 21/20 A3005 NOSIG=
201708050500 METAR MROC 050500Z 36004KT CAVOK 21/19 A3005 NOSIG=
201708050600 METAR MROC 050600Z VRB02KT CAVOK 20/19 A3004 NOSIG=
201708050700 METAR MROC 050700Z 07003KT CAVOK 20/19 A3003 NOSIG=
201708050800 METAR MROC 050800Z 10003KT CAVOK 19/18 A3001 NOSIG=
201708050900 METAR MROC 050900Z 08004KT CAVOK 19/18 A2999 NOSIG=
201708051000 METAR MROC 051000Z 06005KT CAVOK 19/18 A2998 NOSIG=
201708051100 METAR MROC 051100Z 09004KT CAVOK 19/18 A2998 NOSIG=
201708051200 METAR MROC 051200Z 13004KT CAVOK 19/18 A3001 NOSIG=
201708051300 METAR MROC 051300Z 13003KT CAVOK 21/19 A3003 BECMG 24006KT=
201708051400 METAR MROC 051400Z VRB02KT 9999 FEW035 SCT250 23/19 A3004 NOSIG=
201708051500 METAR MROC 051500Z VRB02KT 9999 FEW035 SCT250 25/19 A3003 NOSIG=
201708051600 METAR MROC 051600Z 26005KT 9999 FEW035 SCT250 27/20 A3002 NOSIG=
201708051700 METAR MROC 051700Z 25008KT 9999 FEW035 SCT250 28/20 A3002 NOSIG=
201708051800 METAR MROC 051800Z 24009KT 9999 -RA FEW035 SCT100 BKN250 26/21 A2998 NOSIG=
201708051900 METAR MROC 051900Z 26008KT 9999 -TSRA FEW020CB FEW030 BKN100 24/22 A2998 NOSIG=
201708052000 METAR MROC 052000Z 25009KT 8000 3000SW VCFG FEW010 SCT025 BKN100 23/22 A2995 RETSRA BECMG 5000 TSRA=
201708052100 METAR MROC 052100Z 22008KT 9000 3000SW -RA VCTS FEW015 BKN035 22/22 A2994 NOSIG=
201708052200 METAR MROC 052200Z 23007KT 9999 2000SW TSRA FEW012CB SCT020 BKN080 21/20 A2995 NOSIG=
201708052300 METAR MROC 052300Z 34004KT 5000 2000SW TSRA SCT020 OVC025 21/20 A3000 NOSIG=
201708060000 METAR MROC 060000Z 00004KT 9999 FEW010 BKN100 20/20 A3000 RETSRA NOSIG=
201708060100 METAR MROC 060100Z 15002KT 9999 FEW010 BKN090 20/20 A2999 NOSIG=
201708060200 METAR MROC 060200Z 05002KT CAVOK 20/20 A3001 NOSIG=
201708060300 METAR MROC 060300Z 00002KT CAVOK 21/20 A3003 NOSIG=
201708060400 METAR MROC 060400Z 13003KT CAVOK 20/20 A3003 NOSIG=
201708060500 METAR MROC 060500Z 11002KT CAVOK 20/20 A3004 NOSIG=
201708060600 METAR MROC 060600Z 01003KT CAVOK 20/19 A3002 NOSIG=
201708060700 METAR MROC 060700Z 12003KT CAVOK 19/19 A3000 NOSIG=
201708060800 METAR MROC 060800Z 03004KT CAVOK 19/19 A3000 NOSIG=
201708060900 METAR MROC 060900Z 10003KT CAVOK 19/19 A2999 NOSIG=
201708061000 METAR MROC 061000Z 07005KT CAVOK 20/19 A2998 NOSIG=
201708061100 METAR MROC 061100Z 08004KT CAVOK 19/19 A2996 NOSIG=
201708061200 METAR MROC 061200Z 08003KT CAVOK 19/19 A2996 NOSIG=
201708061300 METAR MROC 061300Z 00000KT 9999 FEW008 BKN200 21/20 A3000 NOSIG=
201708061400 METAR MROC 061400Z 04004KT 9999 FEW020 BKN200 23/19 A3000 NOSIG=
201708061500 METAR MROC 061500Z 30003KT 9999 FEW025 BKN200 24/19 A3001 BECMG 22007KT=
201708061600 METAR MROC 061600Z 23005KT 9999 FEW035 BKN220 25/20 A3000 NOSIG=
201708061700 METAR MROC 061700Z 26006KT 9999 FEW030 BKN250 26/20 A2999 NOSIG=
201708061800 METAR MROC 061800Z 24007KT 9999 FEW030 BKN250 26/21 A2998 NOSIG=
201708061900 METAR MROC 061900Z 24008KT 9999 SCT035 BKN300 27/21 A2995 NOSIG=
201708062000 METAR MROC 062000Z 24009KT 9999 FEW020TCU FEW025 BKN300 26/21 A2994 NOSIG=
201708062100 METAR MROC 062100Z 24010KT 9999 FEW015TCU FEW025 SCT100 26/22 A2992 NOSIG=
201708062200 METAR MROC 062200Z 24009KT 9999 FEW008 SCT015 BKN070 23/23 A2992 NOSIG=
201708062300 METAR MROC 062300Z 25008KT 8000 VCTS VCFG FEW005 FEW010CB BKN030 23/22 A2994 BECMG 5000 -TSRA=
201708070000 METAR MROC 070000Z 24005KT 5000 RA BR FEW004 BKN030 22/22 A2996 NOSIG=
201708070100 METAR MROC 070100Z 22005KT 8000 3500SW RA BCFG FEW002 BKN025 21/21 A2999 NOSIG=
201708070200 METAR MROC 070200Z 09003KT 9999 4200SW RA BCFG FEW003 BKN025 21/21 A3003 NOSIG=
201708070300 METAR MROC 070300Z 07007KT 9999 RA NSC 21/19 A3001 NOSIG=
201708070400 METAR MROC 070400Z 08005KT 9999 -RA NSC 20/19 A3001 NOSIG=
201708070500 METAR MROC 070500Z 05006KT CAVOK 21/20 A3001 NOSIG=
201708070600 METAR MROC 070600Z 00000KT 9999 -RA NSC 21/20 A3002 NOSIG=
201708070700 METAR MROC 070700Z 24004KT 9999 FEW020 20/20 A2998 NOSIG=
201708070800 METAR MROC 070800Z VRB01KT 9999 FEW020 20/20 A2998 NOSIG=
201708070900 METAR MROC 070900Z 07004KT 9999 FEW020 BKN120 20/20 A2998 NOSIG=
201708071000 METAR MROC 071000Z 08004KT CAVOK 21/20 A2998 NOSIG=
201708071100 METAR MROC 071100Z 04006KT CAVOK 21/20 A2998 NOSIG=
201708071200 METAR MROC 071200Z 23004KT CAVOK 20/20 A2999 NOSIG=
201708071300 METAR MROC 071300Z 07004KT CAVOK 22/20 A3000 NOSIG=
201708071400 METAR MROC 071400Z VRB02KT CAVOK 23/19 A3001 BECMG 24007KT=
201708071500 METAR MROC 071500Z 13003KT CAVOK 25/19 A3002 NOSIG=
201708071600 METAR MROC 071600Z 24004KT 9999 FEW045 SCT200 26/19 A3000 NOSIG=
201708071700 METAR MROC 071700Z 24007KT 9999 FEW045 BKN250 27/21 A3000 NOSIG=
201708071800 METAR MROC 071800Z 26008KT 9999 FEW025 BKN200 27/21 A2998 NOSIG=
201708071900 METAR MROC 071900Z 25009KT 9999 FEW020 BKN200 27/23 A2996 NOSIG=
201708072000 METAR MROC 072000Z 26011KT 9999 TS VCSH FEW010CB FEW015TCU SCT100 26/22 A2993 BECMG 5000 TSRA=
201708072100 METAR MROC 072100Z 21007KT 8000 -TSRA FEW008 SCT012CB SCT100 24/23 A2992 NOSIG=
201708072200 METAR MROC 072200Z VRB02KT 9999 4500N -RA VCSH FEW015TCU SCT025 BKN100 23/22 A2993 RETSRA NOSIG=
201708072300 METAR MROC 072300Z 10005KT 9999 2500SW -RA VCTS FEW010CB FEW025 BKN100 22/21 A2993 NOSIG=
201708080000 METAR MROC 080000Z 06003KT 9999 -DZ NSC 22/21 A2995 NOSIG=
201708080100 METAR MROC 080100Z 10003KT 9999 FEW025 BKN110 22/21 A2997 NOSIG=
201708080200 METAR MROC 080200Z VRB02KT CAVOK 22/21 A2999 NOSIG=
201708080300 METAR MROC 080300Z 08004KT CAVOK 23/20 A2999 NOSIG=
201708080400 METAR MROC 080400Z 07004KT 9999 FEW035 23/20 A2999 NOSIG=
201708080500 METAR MROC 080500Z 07004KT 9999 FEW030 22/20 A2999 NOSIG=
201708080600 METAR MROC 080600Z 04008KT CAVOK 22/19 A2997 NOSIG=
201708080700 METAR MROC 080700Z 07004KT 9999 4000S BCFG NSC 21/19 A2996 NOSIG=
201708080800 METAR MROC 080800Z 06007KT 9999 FEW030 20/19 A2993 NOSIG=
201708080900 METAR MROC 080900Z 02004KT CAVOK 20/19 A2993 NOSIG=
201708081000 METAR MROC 081000Z 08006KT CAVOK 20/18 A2994 NOSIG=
201708081100 METAR MROC 081100Z 06004KT 9999 FEW020 SCT090 20/18 A2996 NOSIG=
201708081200 METAR MROC 081200Z 04009KT 9999 FEW010 BKN020 21/18 A2997 NOSIG=
201708081300 METAR MROC 081300Z 05008KT CAVOK 23/19 A2997 NOSIG=
201708081400 METAR MROC 081400Z 06006KT CAVOK 24/19 A2998 BECMG 24006KT=
201708081500 METAR MROC 081500Z 14004KT 9999 FEW045 BKN200 26/19 A3000 BECMG 24006KT=
201708081600 METAR MROC 081600Z 10009KT 9999 FEW045 BKN200 28/18 A3000 NOSIG=
201708081700 METAR MROC 081700Z 12008KT 9999 FEW040 BKN200 27/17 A3000 NOSIG=
201708081800 METAR MROC 081800Z 14007KT CAVOK 28/19 A2996 NOSIG=
201708081900 METAR MROC 081900Z 25008KT 9999 FEW040 BKN200 27/23 A2994 NOSIG=
201708082000 METAR MROC 082000Z 23008KT 9999 FEW035 BKN200 26/23 A2991 NOSIG=
201708082100 METAR MROC 082100Z 24008KT 9999 SCT025 BKN100 26/23 A2991 NOSIG=
201708082200 METAR MROC 082200Z 25008KT 9999 FEW030 BKN200 25/23 A2992 NOSIG=
201708082300 METAR MROC 082300Z 28004KT 9999 FEW030 BKN200 23/23 A2992 NOSIG=
201708090000 METAR MROC 090000Z 25005KT 5000 BR FEW005 SCT015 23/23 A2993 NOSIG=
201708090100 METAR MROC NIL=
201708090200 MROC 090200Z 26005KT 5000 BR FEW002 SCT020 22/22 A3002 NOSIG=
201708090300 MROC 090300Z 20003KT 8000 VCFG FEW008 SCT020 22/22 A3004 NOSIG=
201708090400 METAR MROC 090400Z 27004KT 9999 VCFG FEW005 SCT040 21/21 A3005 NOSIG=
201708090500 METAR MROC 090500Z 03003KT 9999 FEW020 SCT200 22/21 A3004 NOSIG=
201708090600 METAR MROC 090600Z 25003KT 9999 FEW015 SCT040 21/21 A3002 NOSIG=
201708090700 METAR MROC 090700Z VRB02KT 9999 FEW012 SCT040 21/21 A3000 NOSIG=
201708090800 METAR MROC 090800Z 07003KT 9999 FEW020 21/20 A2997 NOSIG=
201708090900 METAR MROC 090900Z VRB02KT CAVOK 20/20 A2996 NOSIG=
201708091000 METAR MROC 091000Z 01006KT CAVOK 20/19 A2996 NOSIG=
201708091100 METAR MROC 091100Z VRB02KT CAVOK 20/18 A2996 NOSIG=
201708091200 METAR MROC 091200Z 07005KT CAVOK 20/18 A2996 NOSIG=
201708091300 MROC 091300Z 22002KT CAVOK 21/20 A3000 NOSIG=
201708091400 MROC 091400Z 35003KT CAVOK 21/20 A3002 NOSIG=
201708091500 MROC 091500Z 13002KT CAVOK 25/20 A3004 NOSIG=
201708091530 METAR MROC 091530Z 13002KT CAVOK 25/20 A3004 NOSIG=
201708091600 METAR MROC 091600Z 26002KT CAVOK 26/20 A3001 NOSIG=
201708091700 METAR MROC 091700Z 23006KT CAVOK 24/22 A3001 NOSIG=
201708091800 MROC 091800Z 24004KT 9999 FEW035 OVC200 25/21 A3001 NOSIG=
201708091900 METAR MROC 091900Z 24008KT 9999 SCT030 OVC180 25/22 A2999 NOSIG=
201708092000 METAR MROC 092000Z 24009KT 9999 SCT030 OVC160 25/22 A2998 NOSIG=
201708092100 METAR MROC 092100Z 25009KT 9999 FEW025 BKN200 24/22 A2997 NOSIG=
201708092200 METAR MROC 092200Z 23006KT 9999 4000N FEW025 SCT100 BKN200 23/21 A2997 BECMG 5000 BR=
201708092300 METAR MROC 092300Z 27008KT 9999 4000SW FEW010 SCT025 BKN100 23/22 A2999 BECMG 5000 BR=
201708100000 METAR MROC 100000Z 27008KT 8000 3000SW VCFG FEW010 SCT025 BKN100 22/22 A3002 NOSIG=
201708100100 METAR MROC 100100Z 29004KT 9999 -RA VCTS FEW015CB SCT025 BKN100 22/21 A3005 NOSIG=
201708100200 METAR MROC 100200Z 03004KT 9999 -RA FEW010 SCT025 BKN100 21/21 A3008 RETS NOSIG=
201708100300 METAR MROC 100300Z VRB02KT 9999 FEW015 BKN100 20/20 A3006 NOSIG=
201708100400 METAR MROC 100400Z 11003KT 9999 FEW025 BKN100 20/19 A3008 NOSIG=
201708100500 METAR MROC 100500Z 02003KT CAVOK 20/19 A3007 NOSIG=
201708100600 METAR MROC 100600Z 11005KT CAVOK 20/20 A3003 NOSIG=
201708100700 METAR MROC 100700Z 11004KT CAVOK 20/19 A3001 NOSIG=
201708100800 METAR MROC 100800Z 24002KT CAVOK 20/19 A3001 NOSIG=
201708100900 METAR MROC 100900Z 08003KT CAVOK 19/19 A3000 NOSIG=
201708101000 METAR MROC 101000Z 07004KT CAVOK 19/19 A3001 NOSIG=
201708101100 METAR MROC 101100Z 05003KT CAVOK 19/18 A3001 NOSIG=
201708101200 METAR MROC 101200Z 07004KT CAVOK 19/18 A3001 NOSIG=
201708101300 METAR MROC 101300Z 05004KT CAVOK 21/19 A3004 NOSIG=
201708101400 METAR MROC 101400Z 20004KT CAVOK 23/19 A3006 NOSIG=
201708101500 METAR MROC 101500Z 27005KT 9999 FEW040 SCT120 BKN200 24/20 A3009 NOSIG=
201708101600 METAR MROC 101600Z VRB02KT 9999 FEW040 SCT120 BKN200 26/20 A3008 NOSIG=
201708101700 METAR MROC 101700Z 21003KT 9999 FEW040 BKN200 26/20 A3007 NOSIG=
201708101800 METAR MROC 101800Z 10005KT 9999 FEW040 BKN200 28/19 A3002 NOSIG=
201708101900 METAR MROC 101900Z 21006KT 9999 FEW040 BKN200 28/18 A3001 NOSIG=
201708102000 METAR MROC 102000Z 25011KT 9999 FEW030 SCT040 BKN200 24/23 A2999 NOSIG=
201708102100 METAR MROC 102100Z 27008KT 9999 4500SW FEW015 SCT020 BKN200 25/23 A2998 NOSIG=
201708102200 METAR MROC 102200Z 26008KT 9999 4500SW BCFG FEW015TCU FEW020 BKN250 24/23 A2999 NOSIG=
201708102300 METAR MROC 102300Z 22006KT 9999 4500SW TS BCFG BKN020 22/22 A3000 RERA NOSIG=
201708110000 METAR MROC 110000Z 23004KT 9000 BCFG FEW010 BKN020 21/21 A3004 RETS NOSIG=
201708110100 METAR MROC 110100Z 00000KT 9999 3000SW BCFG FEW003 BKN010 21/21 A3005 NOSIG=
201708110200 METAR MROC 110200Z 00002KT 9999 VCFG FEW003 SCT010 BKN040 21/21 A3007 NOSIG=
201708110300 METAR MROC 110300Z 36002KT 9999 3000SW BCFG FEW001 BKN090 22/21 A3007 NOSIG=
201708110400 METAR MROC 110400Z 00000KT CAVOK 22/20 A3007 NOSIG=
201708110500 METAR MROC 110500Z 05004KT CAVOK 22/19 A3006 NOSIG=
201708110600 METAR MROC 110600Z 06003KT CAVOK 21/18 A3005 NOSIG=
201708110700 METAR MROC 110700Z 04004KT CAVOK 21/18 A3003 NOSIG=
201708110800 METAR MROC 110800Z 08005KT CAVOK 21/18 A3002 NOSIG=
201708110900 METAR MROC 110900Z 29005KT CAVOK 20/19 A3003 NOSIG=
201708111000 METAR MROC 111000Z 29005KT CAVOK 19/19 A3002 NOSIG=
201708111100 METAR MROC 111100Z 03004KT CAVOK 19/18 A3004 NOSIG=
201708111200 METAR MROC 111200Z 12003KT 9999 FEW035 SCT120 19/18 A3004 NOSIG=
201708111300 METAR MROC 111300Z 03004KT 9999 FEW040 BKN200 21/19 A3006 NOSIG=
201708111400 METAR MROC 111400Z 01003KT 9999 FEW035 BKN180 24/19 A3008 BECMG 22006KT=
201708111500 METAR MROC 111500Z 06004KT 9999 FEW040 BKN200 26/19 A3007 BECMG 22006KT=
201708111600 METAR MROC 111600Z 10009KT 9999 FEW040 SCT150 BKN250 26/19 A3005 NOSIG=
201708111700 METAR MROC 111700Z 12012G23KT CAVOK 27/19 A3002 NOSIG=
201708111800 METAR MROC 111800Z 12010G20KT CAVOK 28/19 A3001 NOSIG=
201708111900 METAR MROC 111900Z 12005KT 9999 FEW025 SCT250 30/19 A3000 NOSIG=
201708112000 METAR MROC 112000Z 25009KT 9999 FEW015 SCT030 BKN250 25/23 A2998 NOSIG=
201708112100 METAR MROC 112100Z 24009KT 9999 VCTS VCSH FEW010CB FEW015TCU SCT030 26/22 A2997 NOSIG=
201708112200 METAR MROC 112200Z 25008KT 9999 -RA VCFG FEW004 BKN030 23/22 A2997 BECMG 5000 BR=
201708112300 METAR MROC 112300Z 27006KT 8000 VCFG FEW004 SCT030 BKN100 22/20 A2999 NOSIG=
201708120000 METAR MROC 120000Z 32004KT 9999 4200SW BCFG FEW004 SCT015 BKN100 22/21 A3001 NOSIG=
201708120100 METAR MROC 120100Z 29004KT 9999 3800SW BCFG FEW004 SCT020 BKN140 21/21 A3002 NOSIG=
201708120200 METAR MROC 120200Z 00000KT 9999 VCFG FEW008 SCT040 21/21 A3004 NOSIG=
201708120300 METAR MROC 120300Z 29004KT 9999 2200SW BCFG SCT003 21/21 A3005 NOSIG=
201708120400 METAR MROC 120400Z 06003KT 9999 FEW005 20/20 A3005 NOSIG=
201708120500 METAR MROC 120500Z 06003KT CAVOK 21/19 A3004 NOSIG=
201708120600 METAR MROC 120600Z 10008KT CAVOK 22/17 A3001 NOSIG=
201708120700 METAR MROC 120700Z 11008KT CAVOK 22/17 A3000 NOSIG=
201708120800 METAR MROC 120800Z 06005KT 9999 FEW040 22/18 A3000 NOSIG=
201708120900 METAR MROC 120900Z 08007KT CAVOK 21/18 A2999 NOSIG=
201708121000 METAR MROC 121000Z 06005KT CAVOK 21/18 A3000 NOSIG=
201708121100 METAR MROC 121100Z 08003KT 9999 FEW040 BKN250 20/18 A2998 NOSIG=
201708121200 METAR MROC 121200Z 04007KT CAVOK 21/18 A2999 NOSIG=
201708121300 METAR MROC 121300Z 08008KT CAVOK 22/18 A3001 NOSIG=
201708121400 METAR MROC 121400Z 10007KT CAVOK 24/18 A3001 NOSIG=
201708121500 METAR MROC 121500Z 13006KT 9999 FEW040 SCT130 27/19 A3001 NOSIG=
201708121600 METAR MROC 121600Z 11010KT 9999 FEW040 SCT120 28/18 A3002 NOSIG=
201708121700 METAR MROC 121700Z 09009KT 9999 FEW035 SCT200 29/16 A3001 NOSIG=
201708121800 METAR MROC 121800Z 15006KT 9999 SCT035 SCT120 27/19 A2999 BECMG 24007KT=
201708121900 METAR MROC 121900Z 34004KT 9999 FEW030 SCT060 29/18 A2996 NOSIG=
201708122000 METAR MROC 122000Z 19006KT 9999 FEW020TCU FEW030 BKN120 28/17 A2996 NOSIG=
201708122100 METAR MROC 122100Z 24008KT 9999 FEW015 SCT040 BKN100 25/19 A2996 NOSIG=
201708122200 METAR MROC 122200Z 12008KT 9999 4200SW BCFG FEW008 SCT060 BKN130 22/20 A2996 NOSIG=
201708122300 METAR MROC 122300Z 25005KT 9999 FEW040 BKN120 22/20 A2998 NOSIG=
201708130000 METAR MROC 130000Z 27005KT 9999 VCFG FEW008 SCT015 BKN140 21/20 A2999 NOSIG=
201708130100 METAR MROC 130100Z 27003KT 9999 FEW015 SCT200 20/20 A3001 NOSIG=
201708130200 METAR MROC 130200Z 08004KT 9999 FEW015 SCT200 20/20 A3004 NOSIG=
201708130300 METAR MROC 130300Z 03004KT 9999 -RA NSC 21/20 A3006 NOSIG=
201708130400 METAR MROC 130400Z 03002KT CAVOK 21/19 A3004 NOSIG=
201708130500 METAR MROC 130500Z 23002KT CAVOK 20/20 A3003 NOSIG=
201708130600 METAR MROC 130600Z 16002KT 9999 FEW035 BKN090 20/20 A3001 NOSIG=
201708130700 METAR MROC 130700Z 10002KT CAVOK 20/19 A2999 NOSIG=
201708130800 METAR MROC 130800Z 07004KT 9999 FEW045 BKN140 20/19 A2997 NOSIG=
201708130900 METAR MROC 130900Z 07004KT CAVOK 20/18 A2996 NOSIG=
201708131000 METAR MROC 131000Z 07006KT CAVOK 20/18 A2995 NOSIG=
201708131100 METAR MROC 131100Z 05004KT CAVOK 21/17 A2996 NOSIG=
201708131200 METAR MROC 131200Z 22004KT CAVOK 20/19 A3000 NOSIG=
201708131300 METAR MROC 131300Z 26003KT 9999 3000SW RA NSC 20/19 A3003 NOSIG=
201708131400 METAR MROC 131400Z VRB02KT 9999 FEW025 BKN110 21/19 A3003 RERA NOSIG=
201708131500 METAR MROC 131500Z VRB02KT 9999 FEW035 BKN120 24/19 A3003 NOSIG=
201708131600 METAR MROC 131600Z 22003KT 9999 FEW040 BKN120 26/19 A3003 NOSIG=
201708131700 METAR MROC 131700Z 26006KT 9999 FEW035 SCT080 SCT200 26/21 A3002 NOSIG=
201708131800 METAR MROC 131800Z 25008KT 9999 SCT035 SCT120 26/21 A3000 NOSIG=
201708131900 METAR MROC 131900Z 25010KT 9999 BKN035 SCT080 26/21 A2998 NOSIG=
201708132000 METAR MROC 132000Z 24009KT 9999 FEW035 SCT080 BKN250 25/22 A2996 NOSIG=
201708132100 METAR MROC 132100Z 25010KT 9999 FEW010TCU SCT020 24/22 A2995 NOSIG=
201708132200 METAR MROC 132200Z 26008KT 9999 -RA SCT010TCU BKN100 23/22 A2996 NOSIG=
201708132300 METAR MROC 132300Z 26004KT 9999 SCT015 BKN120 22/22 A2995 NOSIG=
201708140000 METAR MROC 140000Z 26005KT 9999 SCT015 BKN120 22/21 A2997 NOSIG=
201708140100 METAR MROC 140100Z 00000KT 9999 FEW020 SCT120 22/21 A2999 NOSIG=
201708140200 METAR MROC 140200Z 00000KT 9999 FEW020 BKN100 21/21 A3002 NOSIG=
201708140300 METAR MROC 140300Z 11010KT 8000 -TSRA SCT020CB OVC100 21/19 A3005 NOSIG=
201708140400 METAR MROC 140400Z 06009KT CAVOK 21/20 A3002 RETSRA NOSIG=
201708140500 METAR MROC 140500Z 07006KT CAVOK 20/19 A3000 NOSIG=
201708140600 METAR MROC 140600Z 29004KT 9999 4500SW BCFG FEW004 20/20 A2999 NOSIG=
201708140700 METAR MROC 140700Z 11003KT 9999 4500SW BCFG FEW002 SCT200 19/19 A2998 NOSIG=
201708140800 METAR MROC 140800Z 09003KT 9999 4200SW BCFG FEW002 SCT200 19/19 A2997 NOSIG=
201708140900 METAR MROC 140900Z 04003KT 9999 FEW010 18/18 A2996 NOSIG=
201708141000 METAR MROC 141000Z 07003KT CAVOK 18/18 A2996 NOSIG=
201708141100 METAR MROC 141100Z 06006KT CAVOK 19/18 A2997 NOSIG=
201708141200 METAR MROC 141200Z 07005KT 9999 VCFG FEW005 SCT120 20/18 A2998 NOSIG=
201708141300 METAR MROC 141300Z 03005KT CAVOK 22/19 A2999 NOSIG=
201708141400 METAR MROC 141400Z 04003KT CAVOK 24/18 A3000 NOSIG=
201708141500 METAR MROC 141500Z 26004KT CAVOK 25/20 A3000 NOSIG=
201708141600 METAR MROC 141600Z 16007KT 9999 FEW035 28/19 A2998 NOSIG=
201708141700 METAR MROC 141700Z 25007KT 9999 SCT035 27/21 A2997 NOSIG=
201708141800 METAR MROC 141800Z 24009KT 9999 SCT035 28/22 A2996 NOSIG=
201708141900 METAR MROC 141900Z 26012KT 9999 SCT035 27/22 A2994 NOSIG=
201708142000 METAR MROC 142000Z 25011KT 9999 FEW025TCU SCT030 27/23 A2992 NOSIG=
201708142100 METAR MROC 142100Z 23011KT 8000 3500N -RA VCFG FEW010 FEW015TCU SCT025 BKN200 24/23 A2991 BECMG 5000=
201708142200 METAR MROC 142200Z 26007KT 8000 3000N VCFG FEW010 SCT020 BKN200 23/22 A2993 BECMG 5000 RA=
201708142300 METAR MROC 142300Z VRB02KT 8000 2500N VCFG FEW010 SCT015 BKN035 22/22 A2994 BECMG 5000 BR=
201708150000 METAR MROC 150000Z 23004KT 9999 4000N BCFG FEW010 SCT030 BKN200 22/22 A2994 NOSIG=
201708150100 METAR MROC 150100Z 28005KT 9999 BCFG FEW010 21/21 A2994 NOSIG=
201708150200 METAR MROC 150200Z 27003KT 5000 BR FEW001 SCT005 21/21 A2997 NOSIG=
201708150300 METAR MROC 150300Z VRB02KT 9999 BCFG FEW005 SCT040 21/21 A2999 NOSIG=
201708150400 METAR MROC 150400Z VRB02KT 2000 BR SCT001 BKN015 21/21 A3000 NOSIG=
201708150500 METAR MROC 150500Z VRB02KT 5000 BR SCT001 BKN020 21/21 A2999 NOSIG=
201708150600 METAR MROC 150600Z 06003KT 8000 BCFG SCT006 BKN025 20/20 A2997 NOSIG=
201708150700 METAR MROC 150700Z 05003KT 9999 FEW035 20/19 A2995 NOSIG=
201708150800 METAR MROC 150800Z 27003KT 9999 BCFG FEW015 20/19 A2994 NOSIG=
201708150900 METAR MROC 150900Z 06003KT 9999 FEW025 SCT060 19/19 A2993 NOSIG=
201708151000 METAR MROC 151000Z 07006KT CAVOK 21/19 A2993 NOSIG=
201708151100 METAR MROC 151100Z 09006KT CAVOK 21/19 A2994 NOSIG=
201708151200 METAR MROC 151200Z 10009KT 9999 FEW040 SCT060 22/18 A2995 NOSIG=
201708151300 METAR MROC 151300Z 12010G20KT 9999 FEW040 BKN250 23/18 A2997 NOSIG=
201708151400 METAR MROC 151400Z 10011G22KT 9999 FEW040 BKN250 25/18 A2997 NOSIG=
201708151500 METAR MROC 151500Z 10012G22KT 9999 FEW045 BKN250 27/18 A2998 NOSIG=
201708151600 METAR MROC 151600Z 10013G24KT 9999 FEW045 BKN250 28/18 A2998 NOSIG=
201708151700 METAR MROC 151700Z 11011G24KT CAVOK 28/18 A2997 NOSIG=
201708151800 METAR MROC 151800Z 11010G20KT CAVOK 28/19 A2996 NOSIG=
201708151900 METAR MROC 151900Z 12010KT 9999 FEW045 SCT070 BKN250 28/18 A2995 NOSIG=
201708152000 METAR MROC 152000Z 23010KT 9999 FEW045 SCT070 BKN250 26/22 A2994 NOSIG=
201708152100 METAR MROC 152100Z 22010KT 9999 FEW010 BKN200 26/21 A2992 NOSIG=
201708152200 METAR MROC 152200Z 28010KT 9999 FEW030 BKN250 25/21 A2995 NOSIG=
201708152300 METAR MROC 152300Z 25007KT 9999 FEW003 BKN010 24/22 A2997 NOSIG=
201708160000 METAR MROC 160000Z 28002KT 9999 SCT030 BKN070 22/21 A2997 NOSIG=
201708160100 METAR MROC 160100Z 15003KT 9999 SCT030 BKN080 22/21 A3000 NOSIG=
201708160200 METAR MROC 160200Z 00000KT 9999 FEW025 BKN140 22/20 A3000 NOSIG=
201708160300 METAR MROC 160300Z 21002KT 9999 FEW020 21/21 A3000 NOSIG=
201708160400 METAR MROC 160400Z 33003KT CAVOK 21/21 A3000 NOSIG=
201708160500 METAR MROC 160500Z 03002KT CAVOK 22/20 A2999 NOSIG=
201708160600 METAR MROC 160600Z 07005KT CAVOK 21/20 A2997 NOSIG=
201708160700 METAR MROC 160700Z 01004KT CAVOK 22/19 A2996 NOSIG=
201708160800 METAR MROC 160800Z 03004KT CAVOK 22/19 A2993 NOSIG=
201708160900 METAR MROC 160900Z 04012KT CAVOK 22/19 A2993 NOSIG=
201708161000 METAR MROC 161000Z 02003KT CAVOK 22/18 A2995 NOSIG=
201708161100 METAR MROC 161100Z 10007KT CAVOK 22/19 A3000 NOSIG=
201708161200 METAR MROC 161200Z 10007KT 9999 FEW035 SCT120 22/18 A3001 NOSIG=
201708161300 METAR MROC 161300Z 11011G21KT 9999 FEW040 BKN250 24/18 A3000 NOSIG=
201708161400 METAR MROC 161400Z 11012G23KT 9999 FEW040 SCT250 26/18 A3000 NOSIG=
201708161500 METAR MROC 161500Z 11011KT 9999 FEW040 SCT080 SCT250 27/18 A3002 NOSIG=
201708161600 METAR MROC 161600Z 13007KT 9999 FEW040 SCT200 27/19 A3001 NOSIG=
201708161700 METAR MROC 161700Z 10008KT 9999 FEW040 SCT060 SCT200 28/18 A3001 NOSIG=
201708161800 METAR MROC 161800Z 11007KT 9999 FEW040 BKN160 28/17 A3000 BECMG 22006KT=
201708161900 METAR MROC 161900Z 24009KT 9999 FEW040 BKN140 26/22 A2998 NOSIG=
201708162000 METAR MROC 162000Z 25008KT 9999 SCT040 BKN160 26/22 A2996 NOSIG=
201708162100 METAR MROC 162100Z 24006KT 9999 RA SCT020 BKN100 26/22 A2995 BECMG SHRA=
201708162200 METAR MROC 162200Z 21006KT 9999 FEW010 SCT045 BKN200 24/23 A2995 RERA NOSIG=
201708162300 METAR MROC 162300Z 25009KT 5000 2000SW BR FEW005 BKN010 22/22 A2998 BECMG 3000=
201708170000 METAR MROC 170000Z 27004KT 9000 2000SW BCFG BKN010 SCT180 22/22 A3000 NOSIG=
201708170100 METAR MROC 170100Z 26004KT 9000 VCFG BKN010 22/22 A3000 NOSIG=
201708170200 METAR MROC 170200Z 27002KT 9999 SCT010 22/21 A3003 NOSIG=
201708170300 METAR MROC 170300Z 05002KT 9999 FEW040 21/21 A3002 NOSIG=
201708170400 METAR MROC 170400Z VRB02KT 9999 FEW035 21/21 A3001 NOSIG=
201708170500 METAR MROC 170500Z 10010G20KT 9999 FEW035 22/19 A2999 NOSIG=
201708170600 METAR MROC 170600Z 10012KT 9999 FEW035 23/18 A2996 NOSIG=
201708170700 METAR MROC 170700Z 11012G22KT 9999 FEW035 23/18 A2994 NOSIG=
201708170800 METAR MROC 170800Z 10012G22KT 9999 FEW035 23/18 A2993 NOSIG=
201708170900 METAR MROC 170900Z 12011KT 9999 FEW035 23/18 A2992 NOSIG=
201708171000 METAR MROC 171000Z VRB02KT CAVOK 22/19 A2995 NOSIG=
201708171100 METAR MROC 171100Z 35003KT CAVOK 21/19 A2996 NOSIG=
201708171200 METAR MROC 171200Z 03003KT 9999 FEW035 OVC100 22/18 A2999 NOSIG=
201708171300 METAR MROC 171300Z 06007KT 9999 -DZ FEW030 BKN100 23/18 A3002 NOSIG=
201708171400 METAR MROC 171400Z 10010G20KT 9999 DZ FEW025 BKN120 22/17 A3003 NOSIG=
201708171500 METAR MROC 171500Z 12015G25KT 9999 FEW035 BKN120 23/17 A3002 NOSIG=
201708171600 METAR MROC 171600Z 12018G30KT 9999 FEW040 BKN120 24/16 A3000 NOSIG=
201708171700 METAR MROC 171700Z 10018G28KT 9999 FEW035 BKN120 26/15 A3000 NOSIG=
201708171800 METAR MROC 171800Z 12015G26KT 9999 FEW040 SCT120 27/16 A2997 NOSIG=
201708171900 METAR MROC 171900Z 11018G31KT 9999 FEW040 BKN200 28/16 A2994 NOSIG=
201708172000 METAR MROC 172000Z 10014KT 9999 FEW045 BKN200 27/16 A2994 NOSIG=
201708172100 METAR MROC 172100Z 10013G23KT CAVOK 28/13 A2992 NOSIG=
201708172200 METAR MROC 172200Z 12012G22KT CAVOK 26/15 A2991 NOSIG=
201708172300 METAR MROC 172300Z 11014G24KT 9999 FEW045 BKN120 25/16 A2993 NOSIG=
201708180000 METAR MROC 180000Z 10010G20KT 9999 FEW045 SCT120 BKN200 24/16 A2995 NOSIG=
201708180100 METAR MROC 180100Z 10010G20KT CAVOK 24/16 A2996 NOSIG=
201708180200 METAR MROC 180200Z 09011KT CAVOK 27/21 A2985 NOSIG=
201708180300 METAR MROC 180300Z 10007KT CAVOK 23/14 A2998 NOSIG=
201708180400 METAR MROC 180400Z 11010G20KT CAVOK 23/16 A2999 NOSIG=
201708180500 METAR MROC 180500Z 11010G20KT CAVOK 22/16 A2999 NOSIG=
201708180600 METAR MROC 180600Z 09008KT CAVOK 21/17 A2998 NOSIG=
201708180700 METAR MROC 180700Z 06004KT CAVOK 21/16 A2997 NOSIG=
201708180800 METAR MROC 180800Z 06006KT CAVOK 20/16 A2994 NOSIG=
201708180900 METAR MROC 180900Z 07005KT 9999 FEW025 20/17 A2994 NOSIG=
201708181000 METAR MROC 181000Z 07005KT CAVOK 20/17 A2996 NOSIG=
201708181100 METAR MROC 181100Z 07003KT CAVOK 20/17 A2996 NOSIG=
201708181200 METAR MROC 181200Z 04008KT CAVOK 21/17 A2996 NOSIG=
201708181300 METAR MROC 181300Z 11007KT CAVOK 22/17 A2999 NOSIG=
201708181400 METAR MROC 181400Z 05005KT CAVOK 24/18 A3001 NOSIG=
201708181500 MROC 181500Z 10007KT CAVOK 26/19 A3001 BECMG 27007KT=
201708181600 METAR MROC 181600Z 12007KT 9999 FEW040 BKN250 28/19 A2999 BECMG 27007KT=
201708181700 METAR MROC 181700Z 11004KT 9999 FEW040 SCT080 SCT250 28/19 A2998 BECMG 27007KT=
201708181800 METAR MROC 181800Z 26010KT 9999 SCT040 BKN110 26/21 A2998 NOSIG=
201708181900 METAR MROC 181900Z 25007KT 9999 SCT040 BKN110 26/22 A2997 NOSIG=
201708182000 METAR MROC 182000Z 25005KT 9999 SCT040 BKN200 27/22 A2994 NOSIG=
201708182100 METAR MROC 182100Z 24009KT 9999 -RA SCT030 BKN200 26/23 A2994 NOSIG=
201708182200 METAR MROC 182200Z 25011KT 8000 -RA VCFG SCT020 OVC100 23/23 A2994 NOSIG=
201708182300 METAR MROC 182300Z 25008KT 5000 BR FEW003 SCT012 OVC100 22/22 A2996 NOSIG=
201708190000 METAR MROC 190000Z 24005KT 3000 BR FEW002 SCT010 OVC100 22/22 A2998 NOSIG=
201708190100 METAR MROC 190100Z 25005KT 3000 -RA BR FEW002 SCT008 OVC100 22/22 A2999 NOSIG=
201708190200 METAR MROC 190200Z 20003KT 9999 FEW003 SCT020 OVC100 21/21 A3000 NOSIG=
201708190300 METAR MROC 190300Z 29003KT 9999 FEW006 SCT020 OVC100 22/22 A3002 NOSIG=
201708190400 METAR MROC 190400Z VRB02KT 9999 VCFG FEW005 SCT030 22/22 A3003 NOSIG=
201708190500 METAR MROC 190500Z 29003KT 9999 3500SW BCFG FEW002 SCT010 21/21 A3003 BECMG 5000 BR=
201708190600 METAR MROC 190600Z VRB02KT 8000 3500SW BCFG FEW004 SCT010 21/21 A3000 BECMG 5000 BR=
201708190700 METAR MROC 190700Z VRB02KT 9999 FEW010 SCT040 21/19 A2999 NOSIG=
201708190800 METAR MROC 190800Z 02004KT 9999 FEW040 21/20 A2995 NOSIG=
201708190900 METAR MROC 190900Z 03004KT 9999 FEW040 20/20 A2995 NOSIG=
201708191000 METAR MROC 191000Z 09005KT 9999 FEW040 20/19 A2993 NOSIG=
201708191100 METAR MROC 191100Z 10004KT 9999 FEW040 SCT120 20/19 A2995 NOSIG=
201708191200 METAR MROC 191200Z 09005KT 9999 4200N -RA FEW040 BKN120 20/19 A2996 NOSIG=
201708191300 METAR MROC 191300Z 07006KT 9999 FEW040 SCT130 21/20 A2996 NOSIG=
201708191400 METAR MROC 191400Z 05002KT 9999 FEW040 BKN250 25/20 A2997 NOSIG=
201708191500 METAR MROC 191500Z 09011G21KT 9999 FEW040 SCT250 26/19 A2997 NOSIG=
201708191600 METAR MROC 191600Z 12012KT 9999 FEW040 BKN250 27/19 A2997 NOSIG=
201708191700 METAR MROC 191700Z 14007KT 9999 SCT035 SCT120 28/19 A2996 NOSIG=
201708191800 METAR MROC 191800Z 12008KT 9999 SCT035 BKN120 26/20 A2995 NOSIG=
201708191900 METAR MROC 191900Z 16010KT 9999 SCT035 BKN120 25/20 A2993 BECMG 24006KT=
201708192000 METAR MROC 192000Z 01004KT 9999 SCT035 SCT120 26/20 A2991 NOSIG=
201708192100 METAR MROC 192100Z 27006KT 9999 SCT035 BKN250 27/21 A2987 NOSIG=
201708192200 METAR MROC 192200Z 25007KT 9999 FEW035 SCT050 BKN250 25/23 A2988 NOSIG=
201708192300 METAR MROC 192300Z 24006KT 8000 3500S -RA VCFG FEW005 SCT015 BKN035 24/23 A2988 BECMG 5000 BR=
201708200000 METAR MROC 200000Z VRB02KT 9999 3000N FEW005 SCT030 BKN200 23/23 A2991 NOSIG=
201708200100 METAR MROC 200100Z VRB02KT 9999 FEW030 23/22 A2993 NOSIG=
201708200200 METAR MROC 200200Z 08004KT 9999 FEW030 22/20 A2994 NOSIG=
201708200300 METAR MROC 200300Z 12010KT CAVOK 23/19 A2997 NOSIG=
201708200400 METAR MROC 200400Z 16004KT CAVOK 22/19 A2998 NOSIG=
201708200500 METAR MROC 200500Z 28004KT CAVOK 21/21 A2999 NOSIG=
201708200600 METAR MROC 200600Z 31003KT 9999 SCT025 21/21 A2998 NOSIG=
201708200700 METAR MROC 200700Z 28003KT 9999 FEW005 SCT015 BKN025 21/21 A2997 NOSIG=
201708200800 METAR MROC 200800Z 05004KT 9999 FEW005 SCT020 21/19 A2996 NOSIG=
201708200900 METAR MROC 200900Z 07003KT 9999 FEW010 SCT025 20/18 A2997 NOSIG=
201708201000 METAR MROC 201000Z 05004KT 9999 SCT025 19/18 A2996 NOSIG=
201708201100 METAR MROC 201100Z 04005KT 9999 SCT025 20/18 A2995 NOSIG=
201708201200 METAR MROC 201200Z VRB02KT 9999 BKN020 SCT250 19/19 A2997 NOSIG=
201708201300 METAR MROC 201300Z VRB02KT 9999 BKN020 21/19 A3000 NOSIG=
201708201400 METAR MROC 201400Z 00000KT 9999 FEW010 BKN020 22/20 A3002 BECMG 25006KT=
201708201500 METAR MROC 201500Z 28003KT 9999 FEW020 BKN030 23/20 A3002 NOSIG=
201708201600 METAR MROC 201600Z 25003KT 9999 SCT030 BKN250 25/20 A3002 NOSIG=
201708201700 METAR MROC 201700Z 25006KT 9999 SCT030 SCT250 25/20 A3000 NOSIG=
201708201800 METAR MROC 201800Z 27008KT 9999 SCT030 BKN200 26/20 A2998 NOSIG=
201708201900 METAR MROC 201900Z 25009KT 9999 VCSH SCT030 BKN200 26/21 A2995 NOSIG=
201708202000 METAR MROC 202000Z 25010KT 9999 -RA VCTS FEW015CB SCT025 BKN200 25/22 A2992 BECMG TSRA=
201708202100 METAR MROC 202100Z 26008KT 3000 TSRA SCT015 BKN060 22/22 A2992 NOSIG=
201708202200 METAR MROC 202200Z 21003KT 6000 2500SW -RA BCFG FEW001 SCT050 BKN060 21/21 A2995 NOSIG=
201708202300 METAR MROC 202300Z 25005KT 9999 2500SW BCFG FEW001 BKN015 20/20 A2996 NOSIG=
201708210000 METAR MROC 210000Z 00000KT 9999 3000SW BCFG VCSH FEW005 OVC035 20/20 A2999 NOSIG=
201708210100 METAR MROC 210100Z 08004KT 9999 FEW020 BKN100 21/20 A2999 NOSIG=
201708210200 METAR MROC 210200Z 04004KT CAVOK 21/21 A2999 NOSIG=
201708210300 METAR MROC 210300Z 04003KT CAVOK 21/20 A2998 NOSIG=
201708210400 METAR MROC 210400Z 21003KT 1500 BR SCT001 BKN100 20/20 A2998 NOSIG=
201708210500 METAR MROC 210500Z 31003KT 2000 BR SCT002 BKN100 20/20 A2999 NOSIG=
201708210600 METAR MROC 210600Z 32003KT 5000 BR SCT004 BKN100 20/20 A2998 NOSIG=
201708210700 METAR MROC 210700Z 35003KT 9999 SCT015 BKN100 20/20 A2999 NOSIG=
201708210800 METAR MROC 210800Z 08002KT 9999 SCT020 BKN100 20/20 A2997 NOSIG=
201708210900 METAR MROC 210900Z 09002KT 9999 SCT020 BKN100 20/20 A2996 NOSIG=
201708211000 METAR MROC 211000Z 05004KT 9999 SCT025 SCT100 19/19 A2996 NOSIG=
201708211100 METAR MROC 211100Z 07005KT 9999 FEW025 SCT100 19/18 A2996 NOSIG=
201708211200 METAR MROC 211200Z 10003KT CAVOK 19/18 A2996 NOSIG=
201708211300 METAR MROC 211300Z 11004KT CAVOK 22/19 A3003 BECMG 22006KT=
201708211400 METAR MROC 211400Z 30003KT 9999 FEW045 BKN200 24/18 A3003 NOSIG=
201708211500 METAR MROC 211500Z 25007KT 9999 FEW030 BKN130 24/20 A3004 NOSIG=
201708211600 METAR MROC 211600Z 24004KT 9999 FEW030 SCT200 24/20 A3004 NOSIG=
201708211700 METAR MROC 211700Z 25006KT 9999 FEW030 26/20 A3001 NOSIG=
201708211800 METAR MROC 211800Z 25007KT 9999 FEW040 28/21 A2999 NOSIG=
201708211900 METAR MROC 211900Z 26010KT 9999 SCT030 27/22 A2998 NOSIG=
201708212000 METAR MROC 212000Z 25008KT 9999 FEW025TCU SCT030 25/22 A2996 NOSIG=
201708212100 METAR MROC 212100Z 24011KT 8000 VCSH FEW005 SCT025 BKN100 25/22 A2995 BECMG 5000 TSRA=
201708212200 METAR MROC 212200Z 20003KT 5000 -TSRA FEW010CB BKN030 22/22 A2997 NOSIG=
201708212300 METAR MROC 212300Z 35004KT 9999 FEW005 SCT030 BKN100 21/20 A2999 NOSIG=
201708220000 METAR MROC 220000Z 04002KT 9999 SCT030 BKN100 22/21 A3001 NOSIG=
201708220100 METAR MROC 220100Z 07003KT 9999 FEW030 BKN100 21/21 A3002 NOSIG=
201708220200 METAR MROC 220200Z 34002KT 9999 FEW030 SCT100 21/21 A3003 NOSIG=
201708220300 METAR MROC 220300Z 08004KT CAVOK 21/19 A3003 NOSIG=
201708220400 METAR MROC 220400Z 05006KT CAVOK 21/19 A3005 NOSIG=
201708220500 METAR MROC 220500Z 07004KT CAVOK 21/18 A3004 NOSIG=
201708220600 METAR MROC 220600Z 04004KT CAVOK 20/18 A3003 NOSIG=
201708220700 METAR MROC 220700Z 07003KT CAVOK 19/18 A3002 NOSIG=
201708220800 METAR MROC 220800Z 07004KT CAVOK 19/18 A3001 NOSIG=
201708220900 METAR MROC 220900Z 08003KT CAVOK 19/17 A3001 NOSIG=
201708221000 METAR MROC 221000Z 09004KT CAVOK 18/17 A3001 NOSIG=
201708221100 METAR MROC 221100Z 08005KT CAVOK 18/17 A3001 NOSIG=
201708221200 METAR MROC 221200Z 06006KT CAVOK 18/16 A3001 NOSIG=
201708221300 METAR MROC 221300Z 03006KT CAVOK 21/17 A3003 NOSIG=
201708221400 METAR MROC 221400Z 03003KT CAVOK 25/18 A3003 BECMG 24007KT=
201708221500 METAR MROC 221500Z 07004KT CAVOK 27/18 A3003 BECMG 24007KT=
201708221600 METAR MROC 221600Z 12004KT CAVOK 28/18 A3003 BECMG 24007KT=
201708221700 METAR MROC 221700Z 26007KT 9999 FEW045 28/21 A3002 NOSIG=
201708221800 METAR MROC 221800Z 24010KT 9999 FEW040 27/21 A3000 NOSIG=
201708221900 METAR MROC 221900Z 24009KT 9999 FEW030TCU FEW035 27/22 A2999 NOSIG=
201708222000 METAR MROC 222000Z 26010KT 9999 -TSRA FEW020CB SCT025TCU SCT100 25/23 A2997 BECMG 5000=
201708222100 METAR MROC 222100Z 34004KT 3000 TSRA FEW010CB BKN030 22/20 A2997 NOSIG=
201708222200 METAR MROC 222200Z 24006KT 5000 BR FEW002 SCT010 BKN030 22/22 A2997 NOSIG=
201708222300 METAR MROC 222300Z 28003KT 5000 BR FEW002 SCT010 BKN030 22/22 A2996 NOSIG=
201708230000 METAR MROC 230000Z 30003KT 5000 BR FEW002 SCT010 BKN030 22/21 A2998 NOSIG=
201708230100 METAR MROC 230100Z 31003KT 8000 VCFG FEW005 SCT015 BKN030 22/21 A3000 NOSIG=
201708230200 METAR MROC 230200Z 26003KT 8000 VCFG FEW005 SCT015 BKN030 22/21 A3001 NOSIG=
201708230300 METAR MROC 230300Z 00000KT 8000 VCFG FEW010 SCT030 BKN100 22/22 A3002 NOSIG=
201708230400 METAR MROC 230400Z 10002KT 9000 VCFG NSC 21/21 A3002 NOSIG=
201708230500 METAR MROC 230500Z 05004KT 9999 FEW020 21/20 A3002 NOSIG=
201708230600 METAR MROC 230600Z 01004KT 9999 FEW025 20/20 A3000 NOSIG=
201708230700 METAR MROC 230700Z 02005KT 9999 BCFG FEW003 20/19 A2998 NOSIG=
201708230800 METAR MROC 230800Z 08005KT CAVOK 20/17 A2996 NOSIG=
201708230900 METAR MROC 230900Z 07005KT CAVOK 20/18 A2995 NOSIG=
201708231000 METAR MROC 231000Z 07006KT CAVOK 20/17 A2996 NOSIG=
201708231100 METAR MROC 231100Z 05006KT CAVOK 19/17 A2996 NOSIG=
201708231200 METAR MROC 231200Z 08007KT CAVOK 20/17 A2997 NOSIG=
201708231300 METAR MROC 231300Z 11006KT CAVOK 23/17 A2997 NOSIG=
201708231400 METAR MROC 231400Z 12005KT CAVOK 25/18 A2997 NOSIG=
201708231500 METAR MROC 231500Z 12009KT CAVOK 27/18 A2997 BECMG 26007KT=
201708231600 METAR MROC 231600Z 12006KT CAVOK 28/18 A2996 BECMG 26007KT=
201708231700 METAR MROC 231700Z 12004KT 9999 FEW045 BKN200 29/19 A2996 BECMG 26007KT=
201708231800 METAR MROC 231800Z 24012KT 9999 VCSH FEW025TCU SCT045 BKN200 26/22 A2995 NOSIG=
201708231900 METAR MROC 231900Z 24009KT 9999 -TS VCSH FEW015CB FEW030 BKN200 26/23 A2992 NOSIG=
201708232000 METAR MROC 232000Z 25006KT 9999 VCTS FEW012CB FEW020TCU BKN030 24/21 A2992 RETS BECMG 5000 TSRA BKN015CB=
201708232100 METAR MROC 232100Z 25008KT 2000 -TSRA FEW007CB SCT015 OVC100 21/21 A2993 NOSIG=
201708232200 METAR MROC 232200Z 23002KT 5000 BR FEW005 SCT015 OVC100 21/20 A2994 NOSIG=
201708232300 METAR MROC 232300Z 03004KT 9999 -RA SCT020 OVC100 22/21 A2993 NOSIG=
201708240000 METAR MROC 240000Z 12003KT CAVOK 21/21 A2991 NOSIG=
201708240100 METAR MROC 240100Z 04005KT CAVOK 22/20 A2993 NOSIG=
201708240200 METAR MROC 240200Z 21008KT 0500 FG SCT001 OVC100 21/20 A2997 NOSIG=
201708240300 METAR MROC 240300Z 34005KT CAVOK 20/20 A3000 NOSIG=
201708240400 METAR MROC 240400Z 00000KT 9999 FEW010 SCT100 BKN200 20/20 A3001 NOSIG=
201708240500 METAR MROC 240500Z 00000KT 9999 FEW010 SCT100 BKN200 20/20 A3002 NOSIG=
201708240600 METAR MROC 240600Z 35002KT 9999 FEW010 SCT030 BKN200 20/20 A2999 NOSIG=
201708240700 METAR MROC 240700Z 32002KT 9999 FEW010 SCT030 BKN200 20/20 A2996 NOSIG=
201708240800 METAR MROC 240800Z 25003KT 5000 -RA BR SCT005 BKN030 20/20 A2995 NOSIG=
201708240900 METAR MROC 240900Z 22002KT 5000 BR FEW003 SCT020 BKN100 20/20 A2999 NOSIG=
201708241000 METAR MROC 241000Z 25003KT 5000 -RA BR FEW003 SCT020 BKN100 19/19 A2994 NOSIG=
201708241100 METAR MROC 241100Z 00000KT 5000 BR FEW003 SCT020 BKN100 19/19 A2995 NOSIG=
201708241200 METAR MROC 241200Z 10003KT 8000 VCFG FEW005 SCT030 BKN100 19/19 A2994 NOSIG=
201708241300 METAR MROC 241300Z 08005KT CAVOK 20/20 A2996 NOSIG=
201708241400 METAR MROC 241400Z 10006KT CAVOK 22/20 A2997 NOSIG=
201708241500 METAR MROC 241500Z 12004KT CAVOK 25/20 A2999 NOSIG=
201708241600 METAR MROC 241600Z 26006KT 9999 FEW035 OVC130 25/20 A2999 NOSIG=
201708241700 METAR MROC 241700Z 24010KT 9999 SCT035 OVC130 25/20 A2999 NOSIG=
201708241800 METAR MROC 241800Z 24012KT 9999 SCT030 SCT130 BKN250 25/19 A2997 NOSIG=
201708241900 METAR MROC 241900Z 23008KT 9999 SCT030 BKN130 24/20 A2996 NOSIG=
201708242000 METAR MROC 242000Z 26004KT 8000 RA FEW010 SCT025 OVC100 22/21 A2993 NOSIG=
201708242100 METAR MROC 242100Z 31006KT 6000 -RA FEW010 SCT020 BKN035 20/19 A2993 NOSIG=
201708242200 METAR MROC 242200Z 00000KT 6000 -RA FEW010 SCT020 BKN035 20/20 A2993 NOSIG=
201708242300 METAR MROC 242300Z 12003KT 8000 -RA VCFG FEW010 SCT030 BKN100 20/20 A2995 NOSIG=
201708250000 METAR MROC 250000Z 07004KT 9999 -RA NSC 20/20 A2995 NOSIG=
201708250100 METAR MROC 250100Z 06005KT 9999 -RA NSC 20/20 A2997 NOSIG=
201708250200 METAR MROC 250200Z 00000KT CAVOK 20/20 A2998 NOSIG=
201708250300 METAR MROC 250300Z 31003KT 9999 FEW025 BKN120 20/20 A3000 NOSIG=
201708250400 METAR MROC 250400Z VRB02KT 9999 -DZ FEW020 BKN100 20/20 A3001 NOSIG=
201708250500 METAR MROC 250500Z VRB02KT 9999 -RA FEW020 BKN100 20/20 A2999 NOSIG=
201708250600 METAR MROC 250600Z 05005KT CAVOK 20/20 A2999 NOSIG=
201708250700 METAR MROC 250700Z 04006KT CAVOK 21/19 A2996 NOSIG=
201708250800 METAR MROC 250800Z 08004KT CAVOK 20/19 A2995 NOSIG=
201708250900 METAR MROC 250900Z 06007KT CAVOK 20/19 A2994 NOSIG=
201708251000 METAR MROC 251000Z 08005KT CAVOK 20/18 A2995 NOSIG=
201708251100 METAR MROC 251100Z 07005KT CAVOK 20/18 A2995 NOSIG=
201708251200 METAR MROC 251200Z 09004KT CAVOK 20/17 A2996 NOSIG=
201708251300 METAR MROC 251300Z VRB02KT CAVOK 21/18 A3000 NOSIG=
201708251400 METAR MROC 251400Z 25007KT 9999 FEW015 SCT120 22/20 A3003 NOSIG=
201708251500 METAR MROC 251500Z 27007KT 9999 SCT015 23/19 A3004 NOSIG=
201708251600 METAR MROC 251600Z 27005KT 9999 SCT020 25/20 A3004 NOSIG=
201708251700 METAR MROC 251700Z 27009KT 9999 SCT025 26/20 A3003 NOSIG=
201708251800 METAR MROC 251800Z 26010KT 9999 FEW025 SCT035 25/21 A3002 NOSIG=
201708251900 METAR MROC 251900Z 25010KT 9999 FEW025 SCT035 BKN120 26/21 A2999 NOSIG=
201708252000 METAR MROC 252000Z 23010KT 9999 VCTS FEW015CB FEW025 SCT035 BKN120 24/21 A2997 NOSIG=
201708252100 METAR MROC 252100Z 24007KT 9999 -RA VCTS FEW010CB FEW020 BKN100 23/21 A2996 BECMG 5000 TSRA=
201708252200 METAR MROC 252200Z 20002KT 5000 -TSRA FEW010CB BKN100 22/22 A2996 NOSIG=
201708252300 METAR MROC 252300Z 13005KT 4000 TSRA FEW045 OVC100 20/20 A3000 NOSIG=
201708260000 METAR MROC 260000Z 30005KT 6000 -RA VCTS FEW010TCU FEW010 SCT100 OVC120 20/20 A3004 NOSIG=
201708260100 METAR MROC 260100Z 07002KT 9999 -RA FEW010 BKN025 20/20 A3005 NOSIG=
201708260200 METAR MROC 260200Z 04006KT 9999 -DZ NSC 21/19 A3004 NOSIG=
201708260300 METAR MROC 260300Z 08006KT CAVOK 20/19 A3004 NOSIG=
201708260400 METAR MROC 260400Z 09008KT CAVOK 21/18 A3002 NOSIG=
201708260500 METAR MROC 260500Z 09006KT CAVOK 21/18 A3000 NOSIG=
201708260600 METAR MROC 260600Z 07007KT CAVOK 21/17 A2998 NOSIG=
201708260700 METAR MROC 260700Z 24006KT CAVOK 19/18 A2999 NOSIG=
201708260800 METAR MROC 260800Z 27004KT CAVOK 18/18 A2999 NOSIG=
201708260900 METAR MROC 260900Z 04003KT CAVOK 18/17 A2997 NOSIG=
201708261000 METAR MROC 261000Z 05006KT CAVOK 20/16 A2996 NOSIG=
201708261100 METAR MROC 261100Z 06003KT CAVOK 20/17 A2996 NOSIG=
201708261200 METAR MROC 261200Z 07002KT CAVOK 20/17 A2998 NOSIG=
201708261300 METAR MROC 261300Z 07008KT CAVOK 22/18 A3001 NOSIG=
201708261400 METAR MROC 261400Z 13011G21KT CAVOK 24/18 A3001 NOSIG=
201708261500 METAR MROC 261500Z 12012G22KT 9999 FEW045 BKN250 26/19 A3002 NOSIG=
201708261600 METAR MROC 261600Z 13007KT 9999 FEW045 27/19 A3002 NOSIG=
201708261700 METAR MROC 261700Z 13007KT 9999 FEW045 BKN250 28/17 A3001 NOSIG=
201708261800 METAR MROC 261800Z 10008KT 9999 BKN045 28/17 A2999 NOSIG=
201708261900 METAR MROC 261900Z 12006KT 9999 FEW010CB FEW030 BKN060 28/18 A2997 BECMG 22006KT=
201708262000 METAR MROC 262000Z 12008KT 9999 BKN045 26/19 A2995 BECMG 22006KT=
201708262100 METAR MROC 262100Z 10009KT 9999 VCTS FEW010TCU SCT030 BKN100 26/18 A2995 NOSIG=
201708262200 METAR MROC 262200Z 07002KT 9999 -RA SCT030 BKN100 23/22 A2998 NOSIG=
201708262300 METAR MROC 262300Z 02005KT 9999 FEW030 BKN100 22/21 A2996 NOSIG=
201708270000 METAR MROC 270000Z 32003KT CAVOK 23/20 A2996 NOSIG=
201708270100 METAR MROC 270100Z 27005KT 9999 FEW005 SCT100 BKN200 21/21 A3000 NOSIG=
201708270200 METAR MROC 270200Z 01002KT 9999 BCFG FEW004 SCT020 BKN200 21/21 A3002 NOSIG=
201708270300 METAR MROC 270300Z 07004KT 9999 FEW020 BKN200 20/20 A3002 NOSIG=
201708270400 METAR MROC 270400Z 07008KT CAVOK 21/18 A3001 NOSIG=
201708270500 METAR MROC 270500Z 12012G22KT CAVOK 22/17 A2999 NOSIG=
201708270600 METAR MROC 270600Z 12010G20KT CAVOK 21/17 A2998 NOSIG=
201708270700 METAR MROC 270700Z 12011KT CAVOK 21/17 A2995 NOSIG=
201708270800 METAR MROC 270800Z 11011KT CAVOK 21/17 A2994 NOSIG=
201708270900 METAR MROC 270900Z 11011G21KT CAVOK 21/17 A2992 NOSIG=
201708271000 METAR MROC 271000Z 10011G21KT CAVOK 21/17 A2994 NOSIG=
201708271100 METAR MROC 271100Z 11010G20KT CAVOK 21/17 A2994 NOSIG=
201708271200 METAR MROC 271200Z 11010G20KT CAVOK 22/17 A2995 NOSIG=
201708271300 METAR MROC 271300Z 12010KT CAVOK 23/18 A2996 NOSIG=
201708271400 METAR MROC 271400Z 10011KT CAVOK 26/17 A2998 NOSIG=
201708271500 METAR MROC 271500Z 09009KT CAVOK 27/18 A2997 NOSIG=
201708271600 METAR MROC 271600Z 11009KT 9999 FEW040 BKN250 28/16 A2998 NOSIG=
201708271700 METAR MROC 271700Z 06013KT 9999 FEW040 SCT250 29/17 A2998 NOSIG=
201708271800 METAR MROC 271800Z 09007KT 9999 FEW040 SCT250 29/16 A2996 NOSIG=
201708271900 METAR MROC 271900Z 10005KT 9999 SCT040 29/16 A2993 NOSIG=
201708272000 METAR MROC 272000Z 25008KT 9999 SCT030 SCT100 26/22 A2993 NOSIG=
201708272100 METAR MROC 272100Z 30005KT 9999 4500SW -RA FEW010 SCT030 SCT100 24/23 A2992 NOSIG=
201708272200 METAR MROC 272200Z 29004KT 9999 FEW040 BKN100 23/20 A2994 NOSIG=
201708272300 METAR MROC 272300Z 30005KT 9999 SCT020 BKN100 22/21 A2995 NOSIG=
201708280000 METAR MROC 280000Z 26003KT 9999 FEW020 BKN100 21/21 A2997 NOSIG=
201708280100 METAR MROC 280100Z 27005KT 9999 3500W BCFG FEW005 SCT025 21/21 A3000 BECMG 2000 BR BKN015=
201708280200 METAR MROC 280200Z 35003KT 9999 FEW020 SCT100 21/20 A3001 NOSIG=
201708280300 METAR MROC 280300Z VRB02KT 9999 FEW030 SCT100 21/20 A3000 NOSIG=
201708280400 METAR MROC 280400Z 09002KT CAVOK 21/20 A3001 NOSIG=
201708280500 METAR MROC 280500Z 00003KT 9999 FEW025 BKN100 21/20 A3001 NOSIG=
201708280600 METAR MROC 280600Z 11004KT 9999 FEW030 19/19 A2999 NOSIG=
201708280700 METAR MROC 280700Z 07005KT CAVOK 20/18 A2997 NOSIG=
201708280800 METAR MROC 280800Z 04005KT CAVOK 20/17 A2996 NOSIG=
201708280900 METAR MROC 280900Z 07004KT CAVOK 19/17 A2997 NOSIG=
201708281000 METAR MROC 281000Z 07005KT CAVOK 19/17 A2996 NOSIG=
201708281100 METAR MROC 281100Z 07006KT CAVOK 19/17 A2995 NOSIG=
201708281200 METAR MROC 281200Z 05005KT CAVOK 20/16 A2997 NOSIG=
201708281300 METAR MROC 281300Z 07007KT CAVOK 23/17 A2998 NOSIG=
201708281400 METAR MROC 281400Z 13007KT CAVOK 25/17 A2999 BECMG 24007KT=
201708281500 METAR MROC 281500Z 12010KT CAVOK 26/17 A3000 BECMG 24007KT=
201708281600 METAR MROC 281600Z 14005KT CAVOK 27/17 A3001 BECMG 24007KT=
201708281700 METAR MROC 281700Z 23009KT 9999 FEW040 BKN200 26/21 A3000 NOSIG=
201708281800 METAR MROC 281800Z 25009KT 9999 VCSH FEW025TCU SCT040 BKN200 26/21 A2998 NOSIG=
201708281900 METAR MROC 281900Z 25008KT 9999 VCSH FEW020TCU SCT035 BKN200 26/21 A2996 NOSIG=
201708282000 METAR MROC 282000Z 24014KT 9999 4800N RA FEW015TCU SCT035 SCT200 24/21 A2995 BECMG 5000 -TSRA SCT010CB=
201708282100 METAR MROC 282100Z 26010KT 9999 FEW010 SCT025 OVC100 23/21 A2995 BECMG RA=
201708282200 METAR MROC 282200Z 25007KT 9999 -RA FEW010CB SCT020 OVC100 23/22 A2994 BECMG TSRA=
201708282300 METAR MROC 282300Z 27012KT 3000 RA SCT008 BKN015 OVC100 21/20 A2998 BECMG TS=
201708290000 METAR MROC 290000Z 32004KT 5000 TSRA SCT015CB OVC100 20/19 A3001 NOSIG=
201708290100 METAR MROC 290100Z 00000KT 9999 -RA SCT020 OVC100 20/20 A3004 NOSIG=
201708290200 METAR MROC 290200Z 10002KT 9999 -RA SCT025 OVC100 20/20 A3004 NOSIG=
201708290300 METAR MROC 290300Z 09008KT CAVOK 20/20 A3005 NOSIG=
201708290400 METAR MROC 290400Z 35002KT 9999 FEW030 BKN100 20/20 A3007 NOSIG=
201708290500 METAR MROC 290500Z 03002KT 9999 FEW030 BKN100 20/20 A3007 NOSIG=
201708290600 METAR MROC 290600Z 00000KT CAVOK 20/20 A3004 NOSIG=
201708290700 METAR MROC 290700Z 00000KT 9999 BCFG FEW005 20/20 A3001 NOSIG=
201708290800 METAR MROC 290800Z 10003KT CAVOK 19/19 A2999 NOSIG=
201708290900 METAR MROC 290900Z 07004KT CAVOK 19/18 A2996 NOSIG=
201708291000 METAR MROC 291000Z 07006KT CAVOK 19/18 A2997 NOSIG=
201708291100 METAR MROC 291100Z 04007KT CAVOK 19/18 A2997 NOSIG=
201708291200 METAR MROC 291200Z 07005KT CAVOK 19/18 A2998 NOSIG=
201708291300 METAR MROC 291300Z 06006KT CAVOK 22/18 A3006 NOSIG=
201708291400 METAR MROC 291400Z 08002KT CAVOK 24/19 A3005 NOSIG=
201708291500 METAR MROC 291500Z 24007KT CAVOK 25/20 A3005 NOSIG=
201708291600 METAR MROC 291600Z 24007KT 9999 FEW040 BKN120 25/20 A3006 NOSIG=
201708291700 METAR MROC 291700Z 26007KT 9999 SCT035 BKN120 25/20 A3005 NOSIG=
201708291800 METAR MROC 291800Z 24008KT 9999 SCT025 BKN120 25/21 A3003 NOSIG=
201708291900 METAR MROC 291900Z 24009KT 9999 SCT020TCU SCT120 26/22 A2999 NOSIG=
201708292000 METAR MROC 292000Z 25009KT 9999 SCT015 BKN110 25/22 A2997 NOSIG=
201708292100 METAR MROC 292100Z 25010G20KT 6000 FEW005 SCT010 BKN020 21/20 A2997 NOSIG=
201708292200 METAR MROC 292200Z 25010KT 1000 -RA BR FEW001 SCT005 BKN012 20/20 A2997 BECMG 0600 FG=
201708292300 METAR MROC 292300Z 23004KT 2000 -TSRA BR FEW005 SCT010CB BKN020 20/20 A3000 NOSIG=
201708300000 METAR MROC 300000Z 21004KT 5000 TSRA FEW005 SCT010CB BKN020 20/20 A3002 NOSIG=
201708300100 METAR MROC 300100Z 15003KT 8000 RA VCFG FEW001 SCT010 BKN100 20/20 A3004 RETS NOSIG=
201708300200 METAR MROC 300200Z VRB02KT 9999 RA FEW010 BKN100 20/20 A3007 NOSIG=
201708300300 METAR MROC 300300Z 11003KT 9999 -RA NSC 20/20 A3008 NOSIG=
201708300400 METAR MROC 300400Z 07003KT 9999 RA NSC 20/20 A3009 NOSIG=
201708300500 METAR MROC 300500Z 04006KT CAVOK 21/19 A3006 RERA NOSIG=
201708300600 METAR MROC 300600Z 11005KT 9999 1500SW BCFG SCT001 BKN100 19/19 A3003 NOSIG=
201708300700 METAR MROC 300700Z 07007KT CAVOK 19/18 A2998 NOSIG=
201708300800 METAR MROC 300800Z 07007KT CAVOK 20/17 A2996 NOSIG=
201708300900 METAR MROC 300900Z 06005KT CAVOK 19/17 A2996 NOSIG=
201708301000 METAR MROC 301000Z 07005KT CAVOK 20/17 A2996 NOSIG=
201708301100 METAR MROC 301100Z 09005KT CAVOK 20/17 A2998 NOSIG=
201708301200 METAR MROC 301200Z VRB02KT CAVOK 19/18 A2999 NOSIG=
201708301300 METAR MROC 301300Z 30003KT CAVOK 21/18 A3003 NOSIG=
201708301400 METAR MROC 301400Z 27003KT CAVOK 22/19 A3004 NOSIG=
201708301500 METAR MROC 301500Z 25004KT 9999 FEW035 SCT250 23/19 A3003 NOSIG=
201708301600 METAR MROC 301600Z 24006KT 9999 FEW035 BKN250 24/20 A3004 NOSIG=
201708301700 METAR MROC 301700Z 26007KT 9999 FEW035 SCT250 26/21 A3003 NOSIG=
201708301800 METAR MROC 301800Z 25009KT 9999 SCT035 26/20 A3001 NOSIG=
201708301900 METAR MROC 301900Z 24008KT 9999 SCT030 SCT080 26/21 A2998 NOSIG=
201708302000 METAR MROC 302000Z 23010KT 9999 SCT030 BKN080 26/21 A2996 NOSIG=
201708302100 METAR MROC 302100Z 25011KT 9000 2500SW TSRA FEW010CB BKN010 25/22 A2995 BECMG 5000=
201708302200 METAR MROC 302200Z 29010KT 9999 4000SW TS BCFG BKN008 21/20 A2996 RERA NOSIG=
201708302300 METAR MROC 302300Z 34005KT 9999 4500SW BCFG VCSH FEW005 BKN080 21/20 A2998 NOSIG=
201708310000 METAR MROC 310000Z 27004KT 9999 3000SW -RA BCFG SCT010 BKN140 21/21 A3000 NOSIG=
201708310100 METAR MROC 310100Z 00000KT 6000 2500SW -RA VCTS FEW005 BKN100 20/20 A3003 NOSIG=
201708310200 METAR MROC 310200Z 03003KT 9999 FEW020 BKN100 20/20 A3005 NOSIG=
201708310300 METAR MROC 310300Z 10003KT 9999 FEW030 20/20 A3006 NOSIG=
201708310400 METAR MROC 310400Z 24003KT 9999 FEW030 20/20 A3005 BECMG 5000 BR=
201708310500 MROC 310500Z 24003KT 3000 BR FEW001 SCT015 20/20 A3003 NOSIG=
201708310600 MROC 310600Z 03005KT 9999 FEW001 SCT015 20/20 A2999 NOSIG=
201708310700 METAR MROC 310700Z 06005KT 9999 FEW030 19/19 A2995 NOSIG=
201708310800 METAR MROC 310800Z 07005KT 9999 FEW002 SCT050 19/19 A2993 NOSIG=
201708310900 METAR MROC 310900Z 09004KT 9999 FEW002 SCT050 19/19 A2994 NOSIG=
201708311000 METAR MROC 311000Z 08004KT 9999 FEW030 20/18 A2994 NOSIG=
201708311100 METAR MROC 311100Z 08008KT 9999 FEW030 21/18 A2999 NOSIG=
201708311200 METAR MROC 311200Z 07007KT 9999 FEW040 OVC120 21/18 A3000 NOSIG=
201708311300 METAR MROC 311300Z 07007KT 9999 FEW030 OVC120 22/19 A3003 NOSIG=
201708311400 METAR MROC 311400Z 05004KT 9999 -DZ FEW030 SCT090 BKN120 22/19 A3005 NOSIG=
201708311500 METAR MROC 311500Z 09002KT 9999 FEW030 BKN140 23/19 A3006 BECMG 22006KT=
201708311600 METAR MROC 311600Z 12007KT CAVOK 26/19 A3004 NOSIG=
201708311700 METAR MROC 311700Z 11007KT 9999 FEW035 BKN120 26/19 A3003 NOSIG=
201708311800 METAR MROC 311800Z 15006KT 9999 FEW040 BKN150 28/19 A3000 NOSIG=
201708311900 METAR MROC 311900Z 21007KT 9999 FEW045 SCT250 BKN350 28/21 A2996 NOSIG=
201708312000 METAR MROC 312000Z 24008KT 9999 FEW045 BKN120 27/22 A2994 NOSIG=
201708312100 METAR MROC 312100Z 25009KT 9999 SCT030 BKN120 26/22 A2993 NOSIG=
201708312200 METAR MROC 312200Z 24008KT 9999 SCT030 BKN120 24/23 A2993 NOSIG=
201708312300 METAR MROC 312300Z 25007KT 8000 -RA VCFG FEW004 SCT020 BKN100 22/22 A2995 NOSIG=
201709010000 METAR MROC 010000Z 27006KT 3000 -TS BR FEW001 FEW010CB BKN030 22/22 A2999 NOSIG=
201709010100 METAR MROC 010100Z 22002KT 8000 VCFG FEW001 SCT100 BKN200 22/22 A3001 NOSIG=
201709010200 METAR MROC 010200Z 30004KT 8000 VCFG FEW002 SCT020 BKN200 21/21 A3001 NOSIG=
201709010300 METAR MROC 010300Z 10005KT 9999 FEW020 BKN200 22/20 A3003 NOSIG=
201709010400 METAR MROC 010400Z 02003KT CAVOK 22/19 A3003 NOSIG=
201709010500 METAR MROC 010500Z 06007KT CAVOK 21/19 A3002 NOSIG=
201709010600 METAR MROC 010600Z 07004KT CAVOK 21/18 A3002 NOSIG=
201709010700 METAR MROC 010700Z 04005KT 9999 FEW040 21/18 A3001 NOSIG=
201709010800 METAR MROC 010800Z VRB02KT CAVOK 20/18 A2998 NOSIG=
201709010900 METAR MROC 010900Z 06004KT CAVOK 19/18 A2999 NOSIG=
201709011000 METAR MROC 011000Z 06007KT CAVOK 19/17 A3000 NOSIG=
201709011100 METAR MROC 011100Z VRB01KT CAVOK 19/17 A3001 NOSIG=
201709011200 METAR MROC 011200Z 02003KT CAVOK 19/17 A3003 NOSIG=
201709011300 METAR MROC 011300Z VRB02KT CAVOK 21/18 A3006 NOSIG=
201709011400 METAR MROC 011400Z VRB03KT CAVOK 24/18 A3008 NOSIG=
201709011500 METAR MROC 011500Z 23004KT 190V310 CAVOK 25/19 A3008 NOSIG=
201709011600 METAR MROC 011600Z 25006KT 180V130 9999 FEW040 27/20 A3007 NOSIG=
201709011700 METAR MROC 011700Z 25006KT 220V290 9999 SCT040 27/21 A3006 NOSIG=
201709011800 METAR MROC 011800Z 25009KT 210V270 9999 SCT040 27/21 A3004 NOSIG=
201709011900 METAR MROC 011900Z 24010KT 210V270 9999 SCT040 27/22 A3002 NOSIG=
201709012000 METAR MROC 012000Z 25011KT 9999 FEW020 BKN030 25/22 A3000 NOSIG=
201709012100 METAR MROC 012100Z 25010KT 9999 FEW020TCU BKN035 25/21 A2999 BECMG RA=
201709012200 METAR MROC 012200Z 25009KT 9999 VCSH FEW020TCU SCT035 25/22 A2998 NOSIG=
201709012300 METAR MROC 012300Z 26006KT 9999 VCSH FEW015TCU SCT030 SCT110 23/21 A3000 NOSIG=
201709020000 METAR MROC 020000Z 18003KT 130V200 9999 3000SW BCFG FEW008 SCT030 23/22 A3001 BECMG 5000 BR=
201709020100 METAR MROC 020100Z 23003KT 9000 2500SW BCFG FEW008 BKN020 22/22 A3003 BECMG 5000 BR=
201709020200 METAR MROC 020200Z VRB02KT 8000 1500SW BCFG SCT005 BKN015 22/22 A3005 BECMG 5000 BR=
201709020300 METAR MROC 020300Z VRB02KT 9000 2500SW BCFG SCT010 BKN020 22/22 A3006 NOSIG=
201709020400 METAR MROC 020400Z 00000KT 9999 FEW005 SCT020 21/21 A3006 NOSIG=
201709020500 METAR MROC 020500Z VRB02KT 9999 1000SW BR FEW001 SCT020 22/21 A3005 NOSIG=
201709020600 METAR MROC 020600Z VRB04KT 9999 FEW020 21/20 A3004 NOSIG=
201709020700 METAR MROC 020700Z 07006KT 020V100 CAVOK 21/18 A3003 NOSIG=
201709020800 METAR MROC 020800Z 06008KT CAVOK 21/18 A3001 NOSIG=
201709020900 METAR MROC 020900Z 07007KT CAVOK 20/18 A3000 NOSIG=
201709021000 METAR MROC 021000Z 03006KT CAVOK 20/17 A2999 NOSIG=
201709021100 METAR MROC 021100Z 02006KT CAVOK 20/17 A3000 NOSIG=
201709021200 METAR MROC 021200Z 02006KT CAVOK 21/17 A3003 NOSIG=
201709021300 METAR MROC 021300Z 10009KT CAVOK 23/18 A3005 NOSIG=
201709021400 MROC 021400Z 13008KT 080V180 CAVOK 26/19 A3005 BECMG 24007KT=
201709021500 METAR MROC 021500Z 12009KT 090V170 9999 FEW045 28/19 A3006 BECMG 24007KT=
201709021600 METAR MROC 021600Z 10008KT 040V150 CAVOK 29/19 A3006 BECMG 24007KT=
201709021700 METAR MROC 021700Z 24014KT 9999 SCT040 27/22 A3006 NOSIG=
201709021800 MROC 021800Z 24011KT 200V270 9999 VCTS FEW025TCU SCT040 27/22 A3004 NOSIG=
201709021805 METAR MROC 021805Z 24011KT 200V270 9999 4500NW TS FEW015CB FEW025TCU SCT040 27/22 A3004 BECMG 5000 TSRA SCT010CB=
201709021900 METAR MROC 021900Z 27010G20KT 230V310 9999 3500E RA FEW020TCU SCT040 SCT100 26/23 A3001 RETS NOSIG=
201709022000 METAR MROC 022000Z 22007KT 9999 FEW020TCU BKN035 26/22 A2999 RERA NOSIG=
201709022100 METAR MROC 022100Z 24010KT 9999 -TSRA SCT010CB BKN030 24/23 A2998 NOSIG=
201709022200 METAR MROC 022200Z 27008KT 8000 -TSRA SCT010CB BKN030 19/18 A3000 BECMG 5000=
201709022300 METAR MROC 022300Z 05008KT 9999 SCT035 BKN200 20/19 A3002 NOSIG=
201709030000 METAR MROC 030000Z 28003KT 9999 SCT020 BKN230 21/19 A3006 NOSIG=
201709030100 METAR MROC 030100Z 05006KT 9999 FEW035 BKN230 21/20 A3006 NOSIG=
201709030200 METAR MROC 030200Z 10006KT CAVOK 21/19 A3006 NOSIG=
201709030300 METAR MROC 030300Z 11004KT CAVOK 21/19 A3008 NOSIG=
201709030400 METAR MROC 030400Z VRB02KT 9999 FEW020 21/19 A3009 NOSIG=
201709030500 METAR MROC 030500Z 32002KT 9999 FEW020 21/19 A3008 NOSIG=
201709030600 METAR MROC 030600Z 07007KT 9999 FEW020 21/19 A3004 NOSIG=
201709030700 METAR MROC 030700Z 05007KT CAVOK 21/19 A2999 NOSIG=
201709030800 METAR MROC 030800Z 02006KT 9999 FEW040 20/18 A2995 NOSIG=
201709030900 METAR MROC 030900Z 06009KT CAVOK 22/18 A2997 NOSIG=
201709031000 METAR MROC 031000Z 31004KT 280V340 9999 FEW045 20/18 A3000 NOSIG=
201709031100 METAR MROC 031100Z 33004KT 280V020 9999 FEW030 SCT200 20/19 A3002 NOSIG=
201709031200 METAR MROC 031200Z 10003KT 010V130 9999 FEW030 BKN200 19/19 A3003 NOSIG=
201709031300 METAR MROC 031300Z VRB03KT 9999 FEW035 SCT120 21/19 A3004 NOSIG=
201709031400 METAR MROC 031400Z 24003KT 190V330 9999 FEW040 BKN330 23/20 A3007 NOSIG=
201709031500 METAR MROC 031500Z 24007KT 9999 FEW040 BKN120 23/21 A3007 NOSIG=
201709031600 METAR MROC 031600Z 25006KT 9999 SCT040 BKN160 25/21 A3006 NOSIG=
201709031700 METAR MROC 031700Z 25006KT 220V280 9999 SCT040 SCT250 27/21 A3005 NOSIG=
201709031800 METAR MROC 031800Z 25009KT 210V280 9999 SCT035 BKN250 27/21 A3003 NOSIG=
201709031900 METAR MROC 031900Z 23009KT 200V270 9999 SCT030 BKN250 26/22 A3000 NOSIG=
201709032000 METAR MROC 032000Z 25011KT 9999 FEW010 SCT025 BKN250 ///// A2999 NOSIG=
201709032100 METAR MROC 032100Z 26008KT 1500 -RA BR FEW005 FEW010CB SCT020 BKN035 22/22 A2998 RETS NOSIG=
201709032200 METAR MROC 032200Z 21004KT 8000 VCFG FEW010 SCT025 BKN100 22/22 A2999 NOSIG=
201709032300 METAR MROC 032300Z 24004KT 8000 VCFG FEW010 SCT035 BKN100 22/21 A3001 NOSIG=
201709040000 METAR MROC 040000Z 32004KT 8000 3500SW VCFG FEW005 SCT010 BKN100 21/21 A3003 NOSIG=
201709040100 METAR MROC 040100Z VRB02KT 9999 FEW030 SCT070 21/20 A3004 NOSIG=
201709040200 METAR MROC 040200Z 25005KT 9999 FEW030 BKN250 21/20 A3007 NOSIG=
201709040300 METAR MROC 040300Z 33004KT 9999 FEW001 SCT005 BKN035 21/20 A3009 NOSIG=
201709040400 METAR MROC 040400Z VRB02KT 8000 1500SW BCFG SCT005 BKN035 20/20 A3010 NOSIG=
201709040500 METAR MROC 040500Z VRB02KT 9999 SCT010 BKN100 20/20 A3016 NOSIG=
201709040600 METAR MROC 040600Z 36003KT CAVOK 20/19 A3003 NOSIG=
201709040700 METAR MROC 040700Z 09005KT CAVOK 21/19 A3002 NOSIG=
201709040800 METAR MROC 040800Z 06008KT CAVOK 20/18 A3002 NOSIG=
201709040900 METAR MROC 040900Z 07005KT CAVOK 20/18 A2999 NOSIG=
201709041000 METAR MROC 041000Z 04007KT 010V070 CAVOK 22/18 A3000 NOSIG=
201709041030 METAR MROC 041030Z 21003KT CAVOK 20/19 A3001 NOSIG=
201709041100 METAR MROC 041100Z 21003KT CAVOK 20/19 A3001 NOSIG=
201709041200 METAR MROC 041200Z 03003KT 010V100 CAVOK 20/18 A3001 NOSIG=
201709041300 METAR MROC 041300Z 03004KT 350V100 CAVOK 21/18 A3002 NOSIG=
201709041400 METAR MROC 041400Z 13004KT 110V230 CAVOK 25/19 A3004 NOSIG=
201709041500 METAR MROC 041500Z 10012G22KT 080V140 9999 FEW045 SCT250 27/18 A3004 NOSIG=
201709041600 METAR MROC 041600Z 13009KT 100V170 9999 FEW045 SCT250 28/19 A3004 NOSIG=
201709041700 METAR MROC 041700Z 13006KT 080V160 9999 FEW045 BKN250 28/19 A3005 NOSIG=
201709041800 METAR MROC 041800Z 26010KT 220V280 9999 FEW035 BKN250 26/22 A3003 NOSIG=
201709041900 METAR MROC 041900Z 25010KT 9999 FEW020 SCT030 BKN200 25/22 A3000 NOSIG=
201709042000 METAR MROC 042000Z 24010KT 9999 FEW015 SCT025 BKN060 25/22 A2998 NOSIG=
201709042100 METAR MROC 042100Z 24010KT 210V070 9999 4500SW BKN015 24/22 A2997 NOSIG=
201709042200 METAR MROC 042200Z 24011KT 2500 TSRA BR FEW003 FEW010CB FEW012TCU BKN012 21/21 A2999 BECMG 5000=
201709042300 METAR MROC 042300Z 36003KT 310V110 5000 TSRA BR BKN010 21/21 A3001 NOSIG=
201709050000 METAR MROC 050000Z 36003KT 9999 FEW010 SCT020 BKN025 22/21 A3001 RETSRA NOSIG=
201709050100 METAR MROC 050100Z VRB02KT 9999 FEW008 BKN025 22/21 A3003 NOSIG=
201709050200 METAR MROC 050200Z VRB02KT 9999 FEW015 BKN0150 22/21 A3006 NOSIG=
201709050300 METAR MROC 050300Z 31003KT 9999 3000S BCFG FEW020 22/21 A3007 NOSIG=
201709050400 METAR MROC 050400Z 00000KT 9999 FEW025 21/20 A3006 NOSIG=
201709050500 METAR MROC 050500Z 11005KT CAVOK 20/20 A3004 NOSIG=
201709050600 METAR MROC 050600Z 07006KT 050V110 CAVOK 21/19 A3001 NOSIG=
201709050700 METAR MROC 050700Z 09010KT CAVOK 21/18 A2998 NOSIG=
201709050800 METAR MROC 050800Z 07007KT CAVOK 21/18 A2998 NOSIG=
201709050900 METAR MROC 050900Z 10008KT CAVOK 21/17 A2996 NOSIG=
201709051000 METAR MROC 051000Z 08003KT 050V130 CAVOK 20/16 A3002 NOSIG=
201709051100 METAR MROC 051100Z 36004KT 9999 FEW010 SCT130 19/18 A3004 NOSIG=
201709051200 METAR MROC 051200Z 12004KT 080V150 9999 SCT040 20/18 A3007 NOSIG=
201709051300 METAR MROC 051300Z 06005KT 040V100 CAVOK 21/18 A3010 NOSIG=
201709051400 METAR MROC 051400Z 22008KT CAVOK 24/20 A3012 NOSIG=
201709051500 METAR MROC 051500Z 26005KT CAVOK 25/20 A3011 NOSIG=
201709051600 METAR MROC 051600Z 22006KT 180V280 CAVOK 26/20 A3009 NOSIG=
201709051700 METAR MROC 051700Z 27004KT 9999 FEW040 SCT200 28/20 A3007 NOSIG=
201709051800 METAR MROC 051800Z 24010KT 9999 VCSH FEW015TCU SCT030 26/21 A3006 NOSIG=
201709051900 METAR MROC 051900Z 23011KT 3000 TSRA FEW010CB BKN030 23/21 A3006 NOSIG=
201709052000 METAR MROC 052000Z 30007KT 9999 3000SW -RA SCT030 BKN100 21/19 A3006 NOSIG=
201709052100 METAR MROC 052100Z VRB02KT 9999 FEW010 SCT030 BKN100 21/19 A3006 RERA NOSIG=
201709052200 METAR MROC 052200Z 35003KT 9999 FEW030 BKN100 21/20 A3003 NOSIG=
201709052300 METAR MROC 052300Z 23003KT CAVOK 21/20 A2999 NOSIG=
201709060000 METAR MROC 060000Z VRB02KT 5000 BR FEW002 SCT010 BKN100 21/20 A3000 NOSIG=
201709060100 METAR MROC 060100Z VRB02KT 4000 BR FEW001 BKN020 20/20 A3000 NOSIG=
201709060200 METAR MROC 060200Z 09005KT 9999 VCFG NSC 20/20 A3001 NOSIG=
201709060300 METAR MROC 060300Z 04006KT CAVOK 20/19 A3001 NOSIG=
201709060400 METAR MROC 060400Z 07004KT CAVOK 20/18 A3002 NOSIG=
201709060500 METAR MROC 060500Z 07006KT CAVOK 20/18 A3002 NOSIG=
201709060600 METAR MROC 060600Z 09005KT CAVOK 19/17 A3002 NOSIG=
201709060700 METAR MROC 060700Z VRB02KT CAVOK 19/18 A3001 NOSIG=
201709060800 METAR MROC 060800Z VRB02KT CAVOK 18/16 A2999 NOSIG=
201709060900 METAR MROC 060900Z 04004KT CAVOK 18/17 A2999 NOSIG=
201709061000 METAR MROC 061000Z 03005KT CAVOK 18/17 A2998 NOSIG=
201709061100 METAR MROC 061100Z 08007KT 060V120 CAVOK 20/17 A2998 NOSIG=
201709061200 METAR MROC 061200Z 07008KT CAVOK 20/17 A2998 NOSIG=
201709061300 METAR MROC 061300Z 08006KT 030V110 CAVOK 23/18 A3001 NOSIG=
201709061400 METAR MROC 061400Z 11008KT 080V150 9999 FEW040 25/18 A3002 NOSIG=
201709061500 METAR MROC 061500Z 11007KT 070V140 CAVOK 27/19 A3003 BECMG 23007KT=
201709061600 METAR MROC 061600Z 25008KT CAVOK 26/21 A3003 NOSIG=
201709061700 METAR MROC 061700Z 25010KT 190V280 CAVOK 27/22 A3001 NOSIG=
201709061800 METAR MROC 061800Z 24010KT 9999 FEW030 BKN200 26/21 A3000 NOSIG=
201709061900 METAR MROC 061900Z 25012KT 9999 SCT030 26/21 A2997 NOSIG=
201709062000 METAR MROC 062000Z 25010KT 9999 TS FEW015CB FEW020TCU BKN035 25/22 A2996 BECMG 5000 TSRA=
201709062100 METAR MROC 062100Z 25011KT 8000 2000NE -TSRA SCT012CB BKN030 24/21 A2995 NOSIG=
201709062200 METAR MROC 062200Z 27007KT 240V320 5000 1300SW RA BR VCTS SCT004 BKN020 22/21 A2995 RETSRA NOSIG=
201709062300 METAR MROC 062300Z 26004KT 230V320 5000 -RA BR SCT004 BKN020 21/20 A2997 RERA NOSIG=
201709070000 METAR MROC 070000Z 23004KT 200V270 9999 4000SW BCFG FEW008 SCT025 SCT100 22/21 A3000 NOSIG=
201709070100 METAR MROC 070100Z 26008KT 3000 1400SW +DZ BR SCT002 BKN020 21/20 A3003 NOSIG=
201709070200 METAR MROC 070200Z VRB02KT 5000 BR SCT005 BKN025 20/20 A3006 REDZ NOSIG=
201709070300 METAR MROC 070300Z 35003KT 9999 SCT010 BKN100 21/20 A3008 NOSIG=
201709070400 METAR MROC 070400Z 27005KT 250V310 9999 BCFG FEW010 BKN030 21/20 A3008 NOSIG=
201709070500 METAR MROC 070500Z 33004KT 9999 FEW004 BKN080 21/20 A3008 NOSIG=
201709070600 METAR MROC 070600Z 04006KT 9999 FEW020 BKN250 21/20 A3004 NOSIG=
201709070700 METAR MROC 070700Z 13003KT 100V160 CAVOK 20/19 A3001 NOSIG=
201709070800 METAR MROC 070800Z 04006KT CAVOK 20/19 A3001 NOSIG=
201709070900 METAR MROC 070900Z 07003KT 9999 FEW030 20/19 A2999 NOSIG=
201709071000 METAR MROC 071000Z 08004KT 9999 FEW035 19/19 A2999 NOSIG=
201709071100 METAR MROC 071100Z 04004KT CAVOK 19/18 A2999 NOSIG=
201709071200 METAR MROC 071200Z 05008KT 9999 FEW030 SCT200 21/18 A3000 NOSIG=
201709071300 METAR MROC 071300Z 09006KT 070V130 CAVOK 22/19 A3002 NOSIG=
201709071400 METAR MROC 071400Z 10005KT 070V150 CAVOK 25/19 A3003 NOSIG=
201709071500 METAR MROC 071500Z 13006KT CAVOK 27/19 A3003 BECMG 24007KT=
201709071600 METAR MROC 071600Z 12009KT 090V160 9999 FEW045 BKN200 28/18 A3003 BECMG 24007KT=
201709071700 METAR MROC 071700Z 26007KT 220V300 9999 FEW045 BKN200 26/21 A3001 NOSIG=
201709071800 METAR MROC 071800Z 25011KT 220V280 9999 SCT045 BKN200 27/23 A2998 NOSIG=
201709071900 METAR MROC 071900Z 23009KT 200V270 9999 SCT040 BKN200 27/22 A2995 NOSIG=
201709072000 METAR MROC 072000Z 24010KT 9999 VCSH FEW020TCU SCT035 SCT110 25/23 A2994 RMK HZY BECMG SHRA=
201709072100 METAR MROC 072100Z 26008KT 220V290 9999 SCT020 BKN100 25/22 A2994 NOSIG=
201709072200 METAR MROC 072200Z 25007KT 210V280 9999 SCT015 OVC100 24/22 A2994 NOSIG=
201709072300 METAR MROC 072300Z 26007KT 9999 FEW010 SCT015 OVC100 23/22 A2995 NOSIG=
201709080000 METAR MROC 080000Z 27007KT 8000 -TSRA SCT010CB OVC100 22/22 A2996 NOSIG=
201709080100 METAR MROC 080100Z VRB05KT 9999 SCT010 OVC100 22/21 A2999 NOSIG=
201709080200 METAR MROC 080200Z 27006KT 240V300 9999 BKN015 OVC100 22/20 A3002 NOSIG=
201709080300 METAR MROC 080300Z 30004KT 260V340 9999 BKN015 OVC100 21/20 A3003 NOSIG=
201709080400 METAR MROC 080400Z 34003KT 9999 FEW015 BKN100 22/20 A3004 NOSIG=
201709080500 METAR MROC 080500Z 23002KT 9999 FEW015 BKN100 22/20 A3005 NOSIG=
201709080600 METAR MROC 080600Z 00000KT 9999 FEW010 BKN100 21/20 A3002 NOSIG=
201709080700 METAR MROC 080700Z 00000KT 9999 FEW010 BKN100 21/20 A3000 NOSIG=
201709080800 METAR MROC 080800Z 33003KT 9999 SCT015 BKN100 21/20 A3000 NOSIG=
201709080900 METAR MROC 080900Z 08003KT 9999 SCT015 SCT100 21/20 A2999 NOSIG=
201709081000 METAR MROC 081000Z 10003KT CAVOK 20/18 A2999 NOSIG=
201709081100 METAR MROC 081100Z 05006KT CAVOK 20/18 A2998 NOSIG=
201709081200 METAR MROC NIL=
201709081300 METAR MROC 081300Z 04004KT 010V080 CAVOK 23/18 A2999 NOSIG=
201709081400 METAR MROC 081400Z VRB04KT CAVOK 24/20 A3001 NOSIG=
201709081500 METAR MROC 081500Z 25008KT 220V280 CAVOK 24/20 A3000 NOSIG=
201709081600 METAR MROC 081600Z 26009KT 9999 FEW040 25/21 A3001 NOSIG=
201709081700 METAR MROC 081700Z 25010KT 9999 SCT040 25/21 A3000 NOSIG=
201709081800 METAR MROC 081800Z 25008KT 9999 SCT030 SCT130 25/21 A2997 NOSIG=
201709081900 METAR MROC 081900Z 25009KT 9999 SCT030 SCT130 26/21 A2994 NOSIG=
201709082000 METAR MROC 082000Z 24012KT 9999 SCT030 SCT130 25/22 A2992 NOSIG=
201709082100 METAR MROC 082100Z 31012KT 270V350 3000 -TSRA FEW015CB SCT025 SCT090 21/20 A2992 NOSIG=
201709082200 METAR MROC 082200Z 14003KT 090V180 5000 2200SW -RA BR SCT010 BKN035 21/20 A2994 RETS NOSIG=
201709082300 METAR MROC 082300Z 15003KT 110V180 5000 2000N -DZ BR SCT010 BKN030 21/20 A2994 NOSIG=
201709090000 METAR MROC 090000Z 06005KT 3000 +TSRA BR FEW004 FEW010CB OVC025 20/20 A2996 BECMG 5000=
201709090100 METAR MROC 090100Z VRB02KT 9000 -RA VCFG FEW010 SCT040 20/20 A2999 NOSIG=
201709090200 METAR MROC 090200Z 31003KT 250V020 9999 VCFG FEW005 SCT045 20/20 A3001 NOSIG=
201709090300 METAR MROC 090300Z 31004KT 9000 4200SW BCFG SCT004 20/20 A3001 NOSIG=
201709090400 METAR MROC 090400Z 00000KT 9999 SCT010 BKN110 20/19 A3002 NOSIG=
201709090500 METAR MROC 090500Z 06003KT CAVOK 20/19 A3001 NOSIG=
201709090600 METAR MROC 090600Z VRB02KT CAVOK 19/19 A2999 NOSIG=
201709090700 METAR MROC 090700Z VRB02KT 9999 FEW005 SCT015 BKN100 19/19 A2998 NOSIG=
201709090800 METAR MROC 090800Z 05004KT 9999 FEW030 SCT120 19/18 A2996 NOSIG=
201709090900 METAR MROC 090900Z 07005KT CAVOK 18/17 A2996 NOSIG=
201709091000 METAR MROC 091000Z 09004KT CAVOK 18/17 A2996 NOSIG=
201709091100 METAR MROC 091100Z 08005KT CAVOK 18/17 A2997 NOSIG=
201709091200 METAR MROC 091200Z 10003KT CAVOK 18/17 A2999 NOSIG=
201709091300 METAR MROC 091300Z 09003KT 9999 FEW035 BKN200 20/18 A3000 BECMG 22006KT=
201709091400 METAR MROC 091400Z VRB02KT 9999 FEW035 BKN200 23/18 A3002 BECMG 22006KT=
201709091500 METAR MROC 091500Z 23004KT 9999 FEW030 BKN250 23/19 A3002 NOSIG=
201709091600 METAR MROC 091600Z 24006KT 9999 FEW025 BKN250 25/19 A3002 NOSIG=
201709091700 METAR MROC 091700Z 25008KT 200V280 9999 FEW035 BKN250 25/20 A3000 NOSIG=
201709091800 METAR MROC 091800Z 23005KT 190V280 9999 FEW035 SCT080 BKN120 27/20 A2996 NOSIG=
201709091900 METAR MROC 091900Z 23010KT 180V250 9999 FEW035 BKN100 26/20 A2994 NOSIG=
201709092000 METAR MROC 092000Z 22008KT 9999 FEW035 SCT100 BKN250 26/19 A2992 NOSIG=
201709092100 METAR MROC 092100Z 24009KT 9999 SCT020 26/20 A2991 NOSIG=
201709092200 METAR MROC 092200Z 24011KT 9999 4500SW BCFG FEW015 BKN050 23/21 A2992 BECMG 5000 BR=
201709092300 METAR MROC 092300Z 26008KT 5000 TSRA BR FEW010CB SCT003 BKN015 21/21 A2995 BECMG 3000=
201709100000 METAR MROC 100000Z 24006KT 5000 RA FEW001 SCT045 BKN100 21/20 A2998 RETS NOSIG=
201709100100 METAR MROC 100100Z 11004KT 080V140 6000 RA FEW010 BKN030 18/17 A3002 NOSIG=
201709100200 METAR MROC 100200Z 08004KT 8000 RA SCT030 BKN100 18/18 A3002 NOSIG=
201709100300 METAR MROC 100300Z 07006KT CAVOK 18/16 A3002 RERA NOSIG=
201709100400 METAR MROC 100400Z 08006KT CAVOK 18/16 A3002 NOSIG=
201709100500 METAR MROC 100500Z VRB02KT CAVOK 19/17 A3002 NOSIG=
201709100600 METAR MROC 100600Z 12002KT CAVOK 19/17 A3001 NOSIG=
201709100700 METAR MROC 100700Z 10004KT 9999 SCT025 18/17 A2998 NOSIG=
201709100800 METAR MROC 100800Z 08004KT 9999 SCT025 19/18 A2997 NOSIG=
201709100900 METAR MROC 100900Z 07006KT CAVOK 19/17 A2996 NOSIG=
201709101000 METAR MROC 101000Z 04005KT CAVOK 19/17 A2998 NOSIG=
201709101100 METAR MROC 101100Z 08004KT 9999 SCT025 18/17 A3000 NOSIG=
201709101200 METAR MROC 101200Z 11005KT 9999 BKN035 18/17 A3000 NOSIG=
201709101300 METAR MROC 101300Z 11006KT CAVOK 20/17 A3002 NOSIG=
201709101400 METAR MROC 101400Z 09004KT 060V140 CAVOK 23/18 A3003 BECMG 22006KT=
201709101500 METAR MROC 101500Z 23003KT 9999 FEW045 SCT120 25/18 A3003 NOSIG=
201709101600 METAR MROC 101600Z 22006KT 180V260 9999 FEW045 BKN120 25/20 A3003 NOSIG=
201709101700 METAR MROC 101700Z 24009KT 9999 FEW030 BKN120 24/19 A3002 NOSIG=
201709101800 METAR MROC 101800Z 24012KT 9999 VCSH FEW025TCU SCT030 24/20 A2999 NOSIG=
201709101900 METAR MROC 101900Z 25009KT 9999 VCSH FEW040 BKN110 23/19 A2998 NOSIG=
201709102000 METAR MROC 102000Z 26008KT 240V300 9999 VCSH SCT020 BKN100 23/20 A2997 NOSIG=
201709102100 METAR MROC 102100Z 26010KT 220V290 9999 2000SW -RA FEW010 SCT030 BKN100 21/19 A2997 NOSIG=
201709102200 METAR MROC 102200Z 32005KT 290V020 9999 FEW010 SCT030 BKN100 21/19 A2997 NOSIG=
201709102300 METAR MROC 102300Z 33003KT 9999 FEW020 BKN100 21/19 A2998 NOSIG=
201709110000 METAR MROC 110000Z 25002KT 9999 SCT020 BKN100 21/20 A3000 NOSIG=
201709110100 METAR MROC 110100Z 25003KT 9999 SCT020 BKN100 21/20 A3001 NOSIG=
201709110200 METAR MROC 110200Z 25003KT 9999 SCT020 BKN100 21/20 A3001 NOSIG=
201709110300 METAR MROC 110300Z VRB02KT 8000 VCFG FEW002 SCT010 BKN100 21/20 A3004 NOSIG=
201709110400 METAR MROC 110400Z 23003KT 8000 VCFG FEW002 SCT010 20/20 A3005 NOSIG=
201709110500 METAR MROC 110500Z 29003KT 250V330 5000 BR FEW002 SCT010 20/20 A3005 NOSIG=
201709110600 METAR MROC 110600Z 29003KT 260V320 5000 BR FEW002 SCT020 20/20 A3004 NOSIG=
201709110700 METAR MROC 110700Z VRB02KT 8000 SCT002 BKN020 20/20 A3002 NOSIG=
201709110800 METAR MROC 110800Z 21001KT 5000 BR SCT002 BKN020 20/19 A3000 NOSIG=
201709110900 METAR MROC 110900Z 12003KT 9999 FEW005 SCT020 BKN120 20/19 A2999 NOSIG=
201709111000 METAR MROC 111000Z 05004KT CAVOK 20/19 A2999 NOSIG=
201709111100 METAR MROC 111100Z 00000KT CAVOK 20/19 A2999 NOSIG=
201709111200 METAR MROC 111200Z 10004KT CAVOK 19/19 A2999 NOSIG=
201709111300 METAR MROC 111300Z 14003KT 080V120 CAVOK 22/19 A3001 NOSIG=
201709111400 METAR MROC 111400Z 27006KT 230V320 CAVOK 22/19 A3004 NOSIG=
201709111500 MROC 111500Z 27003KT 210V360 9999 FEW035 SCT200 24/19 A3004 NOSIG=
201709111600 METAR MROC 111600Z 26009KT 220V280 9999 SCT035 24/20 A3005 NOSIG=
201709111700 METAR MROC 111700Z 25009KT 220V280 9999 SCT030 25/19 A3004 NOSIG=
201709111800 METAR MROC 111800Z 24009KT 200V280 9999 SCT030 26/20 A3001 NOSIG=
201709111900 METAR MROC 111900Z 25011KT 9999 BKN030 23/21 A3000 NOSIG=
201709112000 METAR MROC 112000Z 25011KT 9999 BKN030 23/21 A3000 NOSIG=
201709112100 METAR MROC 112100Z 28011KT 4000 1500SW +DZ BR FEW001 SCT008 OVC020 21/21 A2998 RESHRA NOSIG=
201709112200 METAR MROC 112200Z 27008KT 5000 RA BR SCT005 BKN020 20/20 A2999 NOSIG=
201709112300 METAR MROC 112300Z 26006KT 220V300 5000 BR SCT005 BKN020 20/20 A3000 RERA BECMG 1500=
201709120000 METAR MROC 120000Z VRB02KT 9999 FEW004 SCT015 BKN110 21/20 A3002 NOSIG=
201709120100 METAR MROC 120100Z 19004KT 5000 1500SW BR SCT002 BKN020 20/20 A3003 BECMG 3000 BKN010=
201709120200 MROC 120200Z 23003KT 5000 -DZ BR SCT002 BKN020 20/20 A3005 NOSIG=
201709120300 METAR MROC 120300Z 19003KT 7000 BCFG SCT006 BKN025 21/20 A3008 NOSIG=
201709120400 METAR MROC 120400Z VRB02KT 9999 VCFG BKN004 20/20 A3009 NOSIG=
201709120500 METAR MROC 120500Z 12003KT 9999 FEW045 20/19 A3007 NOSIG=
201709120600 METAR MROC 120600Z 03003KT CAVOK 20/19 A3005 NOSIG=
201709120700 METAR MROC 120700Z 07005KT CAVOK 20/19 A3002 NOSIG=
201709120800 METAR MROC 120800Z VRB02KT 9999 BCFG NSC 20/19 A3001 NOSIG=
201709120900 METAR MROC 120900Z 05003KT 9999 BCFG NSC 20/18 A3001 NOSIG=
201709121000 METAR MROC 121000Z 08006KT CAVOK 19/17 A3000 NOSIG=
201709121100 METAR MROC 121100Z 08007KT CAVOK 19/17 A3001 NOSIG=
201709121200 METAR MROC 121200Z 08006KT CAVOK 20/17 A3001 NOSIG=
201709121300 METAR MROC 121300Z 08005KT 060V120 CAVOK 21/18 A3004 NOSIG=
201709121400 METAR MROC 121400Z 24006KT 9999 FEW035 SCT250 21/19 A3006 NOSIG=
201709121500 METAR MROC 121500Z 23008KT 200V250 9999 FEW035 SCT250 23/20 A3006 NOSIG=
201709121600 METAR MROC 121600Z 24007KT 210V290 9999 FEW035 24/20 A3006 NOSIG=
201709121700 METAR MROC 121700Z 24008KT 200V280 9999 FEW035 25/20 A3003 NOSIG=
201709121800 METAR MROC 121800Z 24007KT 210V280 9999 FEW035 SCT200 26/20 A3001 NOSIG=
201709121900 METAR MROC 121900Z 24009KT 220V280 9999 FEW020TCU SCT035 25/20 A2999 NOSIG=
201709122000 METAR MROC 122000Z 24009KT 9999 RA VCTS VCSH FEW015TCU FEW030 BKN100 24/21 A2998 BECMG 5000 -TSRA FEW012CB=
201709122100 METAR MROC 122100Z 24008KT 9999 -RA VCTS SCT020CB OVC100 23/20 A2998 NOSIG=
201709122200 METAR MROC 122200Z 26008KT 9999 FEW015 SCT020 OVC100 22/20 A2998 BECMG RA=
201709122300 METAR MROC 122300Z 27005KT 240V300 9999 FEW010 SCT020 OVC100 22/20 A3000 BECMG RA=
201709130000 METAR MROC 130000Z 25006KT 9999 -RA FEW010 SCT020 OVC100 21/20 A3001 NOSIG=
201709130100 METAR MROC 130100Z VRB01KT 9999 FEW008 SCT015 OVC100 21/20 A3002 NOSIG=
201709130200 METAR MROC 130200Z 35004KT 310V030 9999 FEW010 SCT020 OVC100 22/20 A3004 NOSIG=
201709130300 METAR MROC 130300Z 16003KT 9999 SCT020 OVC100 21/20 A3005 NOSIG=
201709130400 METAR MROC 130400Z VRB02KT 9999 SCT020 BKN120 21/20 A3006 NOSIG=
201709130500 METAR MROC 130500Z VRB01KT 9999 FEW020 BKN120 21/20 A3005 NOSIG=
201709130600 METAR MROC 130600Z 09002KT CAVOK 21/20 A3004 NOSIG=
201709130700 METAR MROC 130700Z 06005KT 010V070 CAVOK 21/20 A3000 NOSIG=
201709130800 METAR MROC 130800Z 05004KT 010V100 CAVOK 20/18 A2999 NOSIG=
201709130900 METAR MROC 130900Z 04005KT CAVOK 21/18 A2999 NOSIG=
201709131000 METAR MROC 131000Z 08006KT CAVOK 21/18 A2999 NOSIG=
201709131100 METAR MROC 131100Z 02006KT CAVOK 20/17 A3000 NOSIG=
201709131200 METAR MROC 131200Z 02006KT 360V060 CAVOK 21/17 A3001 NOSIG=
201709131300 METAR MROC 131300Z 10007KT CAVOK 24/18 A3004 NOSIG=
201709131400 METAR MROC NIL=
201709131500 METAR MROC 131500Z 12009KT 090V160 CAVOK 27/18 A3004 BECMG 25007KT=
201709131600 METAR MROC 131600Z 13009KT 090V180 9999 FEW040 BKN250 28/18 A3006 NOSIG=
201709131700 METAR MROC 131700Z 24009KT 9999 FEW040 BKN250 26/21 A3005 NOSIG=
201709131800 METAR MROC 131800Z 26008KT 220V280 9999 SCT040 SCT250 27/22 A3003 NOSIG=
201709131900 METAR MROC 131900Z 25008KT 200V290 9999 SCT035 SCT250 27/22 A3000 NOSIG=
201709132000 METAR MROC 132000Z 24008KT 210V270 9999 SCT030 BKN250 26/22 A2999 NOSIG=
201709132100 METAR MROC 132100Z 24011KT 9999 SCT030 BKN250 26/22 A2998 NOSIG=
201709132200 METAR MROC 132200Z 25010KT 9999 FEW020 SCT030 BKN250 25/22 A2999 NOSIG=
201709132300 METAR MROC 132300Z 25008KT 9000 3000N -RA FEW015 SCT025 BKN050 23/22 A2999 NOSIG=
201709140000 METAR MROC 140000Z 27008KT 9999 FEW015 SCT030 23/22 A3001 NOSIG=
201709140100 METAR MROC 140100Z 26007KT 9999 FEW020 SCT045 22/21 A3003 NOSIG=
201709140200 METAR MROC 140200Z 27003KT 9999 FEW020 BKN045 22/21 A3005 NOSIG=
201709140300 METAR MROC 140300Z VRB02KT 9999 FEW020 BKN045 22/21 A3007 NOSIG=
201709140400 METAR MROC 140400Z VRB02KT 9999 SCT015 BKN110 22/21 A3007 NOSIG=
201709140500 METAR MROC 140500Z VRB02KT 9999 FEW010 SCT025 22/21 A3006 NOSIG=
201709140600 METAR MROC 140600Z 13003KT 9999 BCFG FEW010 SCT020 22/21 A3004 NOSIG=
201709140700 METAR MROC 140700Z 35003KT 9999 FEW010 SCT030 22/21 A3001 NOSIG=
201709140800 METAR MROC 140800Z VRB02KT CAVOK 21/19 A2999 NOSIG=
201709140900 METAR MROC 140900Z 04005KT 360V090 CAVOK 21/19 A2996 NOSIG=
201709141000 METAR MROC 141000Z 04005KT 010V080 CAVOK 22/18 A2999 NOSIG=
201709141100 METAR MROC 141100Z 34003KT CAVOK 21/18 A3000 NOSIG=
201709141200 METAR MROC 141200Z VRB02KT 9999 4500SW BCFG SCT010 BKN120 23/17 A3003 NOSIG=
201709141300 METAR MROC 141300Z VRB02KT CAVOK 23/18 A3005 NOSIG=
201709141400 METAR MROC 141400Z 25004KT CAVOK 23/19 A3007 NOSIG=
201709141500 METAR MROC 141500Z 26005KT 9999 FEW035 SCT120 BKN200 24/21 A3009 NOSIG=
201709141600 METAR MROC 141600Z 24004KT 9999 FEW035 BKN200 25/20 A3008 NOSIG=
201709141700 METAR MROC 141700Z 26007KT 9999 FEW035 BKN200 27/20 A3005 NOSIG=
201709141800 METAR MROC 141800Z 24008KT 200V270 9999 FEW025 SCT035 BKN200 27/21 A3002 NOSIG=
201709141900 METAR MROC 141900Z 26007KT 9999 1500NE TSRA FEW015CB BKN030 25/22 A2999 NOSIG=
201709142000 METAR MROC 142000Z 26003KT 140V310 9000 FEW005 SCT015 BKN030 24/23 A2997 RETSRA NOSIG=
201709142100 METAR MROC 142100Z 23008KT 5000 2000SW TSRA FEW010CB BKN015 22/20 A2998 BECMG 3000 BR=
201709142200 METAR MROC 142200Z 23006KT 170V280 1000 TSRA FEW010CB OVC015 20/20 A3001 NOSIG=
201709142300 METAR MROC 142300Z 32005KT 9999 4000SW -DZ BCFG BKN008 20/19 A3002 NOSIG=
201709150000 METAR MROC 150000Z 16004KT 9999 BKN025 20/19 A3004 NOSIG=
201709150100 METAR MROC 150100Z 09005KT 9999 FEW030 SCT120 20/19 A3004 NOSIG=
201709150200 METAR MROC 150200Z 08005KT CAVOK 20/19 A3005 NOSIG=
201709150300 METAR MROC 150300Z 07008KT CAVOK 21/19 A3004 NOSIG=
201709150400 METAR MROC 150400Z 06008KT CAVOK 22/19 A3001 NOSIG=
201709150500 METAR MROC 150500Z 10011KT CAVOK 23/18 A2998 NOSIG=
201709150600 METAR MROC 150600Z 13006KT 070V170 CAVOK 22/18 A2998 NOSIG=
201709150700 METAR MROC 150700Z 26008KT CAVOK 20/18 A3000 NOSIG=
201709150800 METAR MROC 150800Z 24008KT 9999 FEW010 BKN015 20/20 A2999 NOSIG=
201709150900 METAR MROC 150900Z 06005KT 9999 SCT010 20/19 A2998 NOSIG=
201709151000 METAR MROC 151000Z 07004KT CAVOK 19/18 A2999 NOSIG=
201709151100 METAR MROC 151100Z 09004KT CAVOK 20/18 A2999 NOSIG=
201709151200 METAR MROC 151200Z VRB02KT CAVOK 20/18 A3000 NOSIG=
201709151300 METAR MROC 151300Z COR 05004KT 360V090 CAVOK 22/19 A3004 NOSIG=
201709151400 METAR MROC 151400Z 11003KT CAVOK 23/19 A3004 BECMG 24007KT=
201709151500 METAR MROC 151500Z 11007KT 080V140 9999 FEW030 BKN160 25/20 A3003 BECMG 24007KT=
201709151600 METAR MROC 151600Z 16006KT 110V220 9999 FEW030 SCT200 BKN250 28/20 A3004 BECMG 24007KT=
201709151700 METAR MROC 151700Z 25011KT 9999 SCT045 SCT120 26/20 A3003 NOSIG=
201709151800 METAR MROC 151800Z 24010KT 200V270 9999 BKN045 26/22 A3001 NOSIG=
201709151900 METAR MROC 151900Z 26009KT 9999 BKN035 25/21 A3000 NOSIG=
201709152000 METAR MROC 152000Z 25007KT 9999 -RA FEW020 BKN050 23/22 A2997 NOSIG=
201709152100 METAR MROC 152100Z 24006KT 210V270 9999 FEW005 SCT030 BKN070 24/22 A2997 NOSIG=
201709152200 METAR MROC 152200Z 24007KT 200V290 9999 FEW010 SCT030 BKN070 24/22 A2996 NOSIG=
201709152300 METAR MROC 152300Z 26007KT 230V310 9999 BCFG FEW002 SCT030 BKN070 24/22 A2997 NOSIG=
201709160000 METAR MROC 160000Z 23002KT 9999 3000SW BCFG FEW002 SCT030 BKN070 23/22 A2999 NOSIG=
201709160100 METAR MROC 160100Z 29003KT 8000 VCFG FEW002 BKN030 22/22 A3001 NOSIG=
201709160200 METAR MROC 160200Z 02004KT 9999 2000SW VCFG FEW002 SCT030 22/21 A3002 NOSIG=
201709160300 METAR MROC 160300Z 08004KT 060V120 9999 FEW030 21/21 A3001 NOSIG=
201709160400 METAR MROC 160400Z 06007KT 060V090 SCT100 22/18 A3001 NOSIG=
201709160500 METAR MROC 160500Z 08008KT CAVOK 22/16 A3001 NOSIG=
201709160600 METAR MROC 160600Z 04006KT CAVOK 22/16 A3001 NOSIG=
201709160700 METAR MROC 160700Z 05004KT 010V080 CAVOK 20/16 A2999 NOSIG=
201709160800 METAR MROC 160800Z 04006KT 020V090 CAVOK 20/17 A2996 NOSIG=
201709160900 METAR MROC 160900Z 07006KT 020V080 CAVOK 18/16 A2994 NOSIG=
201709161000 METAR MROC 161000Z 04004KT 350V070 CAVOK 18/16 A2997 NOSIG=
201709161100 METAR MROC 161100Z 08007KT CAVOK 20/16 A2997 NOSIG=
201709161200 METAR MROC 161200Z 07004KT 030V130 CAVOK 20/16 A2999 NOSIG=
201709161300 METAR MROC 161300Z VRB01KT CAVOK 23/16 A3000 NOSIG=
201709161400 METAR MROC 161400Z 09006KT 060V120 CAVOK 25/18 A3001 NOSIG=
201709161500 METAR MROC 161500Z 13006KT 090V170 CAVOK 27/19 A3003 NOSIG=
201709161600 METAR MROC 161600Z 14008KT 120V180 9999 FEW040 SCT250 28/19 A3001 BECMG 24007KT NOSIG=
201709161700 METAR MROC 161700Z 25012KT 9999 SCT040 26/20 A3001 NOSIG=
201709161800 METAR MROC 161800Z 26010KT 9999 SCT030 26/21 A2998 NOSIG=
201709161900 METAR MROC 161900Z 25012KT 220V290 9999 RA FEW010 BKN030 25/21 A2994 BECMG 5000 SHRA=
201709162000 METAR MROC 162000Z 15008KT 120V190 9999 2000SW -TS VCSH FEW002 FEW010CB BKN030 21/20 A2995 NOSIG=
201709162100 METAR MROC 162100Z VRB02KT 9999 4500SW -DZ VCTS VCSH FEW006 FEW015CB SCT035 BKN100 22/20 A2994 RETS NOSIG=
201709162200 METAR MROC 162200Z 25011KT 5000 2000SW -RA BR SCT002 BKN015 21/20 A2995 NOSIG=
201709162300 METAR MROC 162300Z 25004KT 230V290 2000 0500SW -DZ BR SCT001 BKN015 21/20 A2998 BECMG 0800 FG BKN010=
201709170000 MROC 170000Z 22003KT 160V270 5000 RA BR SCT005 BKN0025 20/19 A3001 NOSIG=
201709170100 METAR MROC 170100Z VRB02KT 5000 RA BR SCT008 BKN025 19/18 A3004 BECMG 7000=
201709170200 METAR MROC 170200Z 05008KT 9999 -RA NSC 20/19 A3004 RERA NOSIG=
201709170300 METAR MROC 170300Z 10006KT CAVOK 20/18 A3004 NOSIG=
201709170400 METAR MROC 170400Z 09009KT CAVOK 21/18 A3001 NOSIG=
201709170500 METAR MROC 170500Z 05006KT CAVOK 21/19 A2998 NOSIG=
201709170600 METAR MROC 170600Z 19005KT 150V220 CAVOK 19/18 A2999 NOSIG=
201709170700 METAR MROC 170700Z 33003KT 290V360 CAVOK 19/18 A2997 NOSIG=
201709170800 METAR MROC 170800Z 00000KT 9999 FEW008 18/18 A2996 NOSIG=
201709170900 METAR MROC 170900Z 09003KT CAVOK 18/18 A2995 NOSIG=
201709171000 METAR MROC 171000Z 03003KT 9999 4500S BCFG NSC 18/17 A2996 NOSIG=
201709171100 METAR MROC 171100Z 07003KT CAVOK 17/17 A2997 NOSIG=
201709171200 METAR MROC 171200Z 05003KT CAVOK 18/17 A3000 NOSIG=
201709171300 METAR MROC 171300Z 04005KT CAVOK 21/18 A3002 NOSIG=
201709171400 METAR MROC 171400Z VRB02KT CAVOK 24/19 A3003 NOSIG=
201709171500 METAR MROC 171500Z 32003KT CAVOK 25/19 A3003 NOSIG=
201709171600 METAR MROC 171600Z 23006KT 200V260 9999 FEW045 SCT140 26/19 A3003 NOSIG=
201709171700 METAR MROC 171700Z 24010KT 210V270 9999 FEW040 BKN120 26/21 A3002 NOSIG=
201709171800 METAR MROC 171800Z 26009KT 9999 VCSH FEW020TCU BKN035 26/21 A3000 NOSIG=
201709171900 METAR MROC 171900Z 24010KT 9999 -SHRA VCTS FEW015CB FEW020TCU BKN030 25/21 A2997 BECMG 5000 TS=
201709172000 METAR MROC 172000Z 23007KT 190V250 5000 2000SW RA FEW015TCU BKN030 22/21 A2995 RESHRA BECMG TS=
201709172100 METAR MROC 172100Z 30005KT 260V330 9999 FEW005 SCT010 OVC100 22/21 A2995 NOSIG=
201709172200 METAR MROC 172200Z 32005KT 9999 -RA SCT020 OVC100 21/20 A2996 NOSIG=
201709172300 METAR MROC 172300Z 28004KT 240V320 5000 -RA FEW005 SCT010 OVC100 21/20 A2999 NOSIG=
201709180000 METAR MROC 180000Z 05008KT 9999 -RA FEW030 OVC100 21/20 A3001 NOSIG=
201709180100 METAR MROC 180100Z 36004KT 330V040 8000 -RA OVC100 20/18 A3003 NOSIG=
201709180200 METAR MROC 180200Z VRB02KT 9999 -RA OVC100 20/19 A3003 NOSIG=
201709180300 METAR MROC 180300Z 07004KT CAVOK 20/19 A3005 NOSIG=
201709180400 METAR MROC 180400Z 08006KT CAVOK 20/18 A3003 NOSIG=
201709180500 METAR MROC 180500Z 08008KT CAVOK 20/18 A3000 NOSIG=
201709180600 METAR MROC 180600Z 07009KT CAVOK 20/17 A2997 NOSIG=
201709180700 METAR MROC 180700Z 07007KT CAVOK 20/17 A2995 NOSIG=
201709180800 METAR MROC 180800Z 12002KT CAVOK 19/17 A2995 NOSIG=
201709180900 METAR MROC 180900Z 25004KT CAVOK 18/18 A2997 NOSIG=
201709181000 METAR MROC 181000Z 02004KT 9999 FEW003 18/18 A2998 NOSIG=
201709181100 METAR MROC 181100Z 10004KT 9999 FEW020 BKN120 18/17 A2999 NOSIG=
201709181200 METAR MROC 181200Z 09005KT CAVOK 19/18 A2999 NOSIG=
201709181300 METAR MROC 181300Z 08007KT CAVOK 20/18 A3001 NOSIG=
201709181400 METAR MROC 181400Z 07003KT 020V090 CAVOK 21/17 A3004 NOSIG=
201709181500 METAR MROC 181500Z 29005KT 9999 SCT045 BKN140 22/18 A3006 NOSIG=
201709181600 METAR MROC 181600Z 31003KT 270V340 9999 SCT040 BKN120 23/18 A3007 NOSIG=
201709181700 METAR MROC 181700Z 28004KT 250V330 9999 SCT035 OVC140 24/19 A3004 NOSIG=
201709181800 METAR MROC 181800Z 15003KT 9999 FEW035 BKN130 26/18 A3001 NOSIG=
201709181900 METAR MROC 181900Z VRB02KT CAVOK 27/19 A2997 NOSIG=
201709182000 METAR MROC 182000Z VRB02KT 9999 FEW040 BKN150 27/19 A2994 BECMG 24007KT=
201709182100 METAR MROC 182100Z 26011KT 9999 SCT015 BKN150 23/22 A2993 NOSIG=
201709182200 METAR MROC 182200Z 26009KT 9999 VCSH BKN020 23/22 A2994 NOSIG=
201709182300 METAR MROC 182300Z 26008KT 5000 -RA BR SCT008 BKN015 22/21 A2997 RESH BECMG 2000 BKN008=
201709190000 METAR MROC 190000Z 25007KT 8000 VCFG SCT008 BKN100 21/20 A3000 NOSIG=
201709190100 METAR MROC 190100Z 00000KT 9999 BCFG SCT025 BKN100 21/20 A3002 NOSIG=
201709190200 METAR MROC 190200Z VRB02KT 9999 -RA FEW035 BKN100 21/20 A3003 NOSIG=
201709190300 METAR MROC 190300Z 01003KT 9999 FEW035 BKN150 22/21 A3004 NOSIG=
201709190400 METAR MROC 190400Z VRB02KT CAVOK 22/20 A3004 NOSIG=
201709190500 METAR MROC 190500Z VRB02KT CAVOK 21/20 A3004 BECMG 5000 BR BKN010=
201709190600 METAR MROC 190600Z 00000KT 9999 1500SW BCFG SCT005 BKN015 21/20 A3002 NOSIG=
201709190700 METAR MROC 190700Z 10002KT 9999 1500SW BCFG SCT005 BKN015 20/20 A3001 NOSIG=
201709190800 METAR MROC 190800Z 11004KT 9999 SCT015 BKN025 20/19 A2997 NOSIG=
201709190900 METAR MROC 190900Z 03003KT 9999 SCT015 BKN025 21/19 A2996 NOSIG=
201709191000 METAR MROC 191000Z 00000KT 9999 SCT010 BKN060 20/19 A3000 NOSIG=
201709191100 MROC 191100Z VRB02KT 5000 2000SW BR SCT001 SCT012 20/19 A3001 BECMG 1500=
201709191200 METAR MROC 191200Z 09003KT 5000 1500SW BR FEW001 SCT010 BKN120 19/19 A3002 NOSIG=
201709191300 METAR MROC 191300Z 06003KT 010V090 9999 FEW010 BKN300 22/19 A3003 NOSIG=
201709191400 METAR MROC 191400Z VRB02KT 9999 FEW035 BKN250 24/20 A3005 NOSIG=
201709191500 METAR MROC 191500Z 24003KT 9999 FEW035 BKN250 25/20 A3006 NOSIG=
201709191600 METAR MROC 191600Z 25006KT 220V290 9999 FEW035 BKN250 26/20 A3006 NOSIG=
201709191700 METAR MROC 191700Z 24007KT 210V280 9999 FEW035 BKN200 26/19 A3004 NOSIG=
201709191800 METAR MROC 191800Z 25011KT 210V270 9999 FEW030 BKN200 26/20 A3001 NOSIG=
201709191900 METAR MROC 191900Z 25010KT 210V270 9999 SCT030 BKN150 26/22 A2997 NOSIG=
201709192000 METAR MROC 192000Z 28007KT 9999 3000S -RA FEW010 FEW015CB SCT020 BKN100 23/20 A2998 BECMG 5000 TSRA=
201709192100 METAR MROC 192100Z 32006KT 9000 4000SW -RA BCFG BKN010 22/21 A2996 NOSIG=
201709192200 METAR MROC 192200Z COR 25010KT 5000 TS BCFG FEW006CB FEW006 BKN010 21/21 A2999 NOSIG=
201709192300 METAR MROC 192300Z 23006KT 9999 TSRA VCFG FEW010 OVC040 21/21 A3002 BECMG 5000 BR=
201709200000 METAR MROC 200000Z COR 28004KT 9999 FEW005 OVC035 21/20 A3005 RETSRA NOSIG=
201709200100 METAR MROC 200100Z 32003KT 3000 SHRA OVC030 20/20 A3008 NOSIG=
201709200200 METAR MROC 200200Z 07005KT 9999 -RA FEW008 BKN050 20/19 A3009 NOSIG=
201709200300 METAR MROC 200300Z 10003KT 9999 -DZ FEW010 BKN050 20/19 A3011 NOSIG=
201709200400 METAR MROC 200400Z 05004KT 9999 -RA FEW035 OVC100 21/20 A3011 NOSIG=
201709200500 METAR MROC 200500Z 08005KT 9999 -RA FEW035 OVC100 20/14 A3008 NOSIG=
201709200600 METAR MROC 200600Z 09007KT 9999 -RA OVC100 20/19 A3002 NOSIG=
201709200700 METAR MROC 200700Z 33005KT 9999 -RA OVC100 29/19 A3001 NOSIG=
201709200800 METAR MROC 200800Z 10005KT 9999 -RA OVC100 20/18 A2999 NOSIG=
201709200900 METAR MROC 200900Z 10007KT CAVOK 20/18 A2998 NOSIG=
201709201000 METAR MROC 201000Z 06010KT CAVOK 20/18 A2998 NOSIG=
201709201100 METAR MROC 201100Z 13004KT CAVOK 19/18 A3000 NOSIG=
201709201200 METAR MROC 201200Z 25005KT CAVOK 19/18 A3002 NOSIG=
201709201300 METAR MROC 201300Z 03003KT CAVOK 21/18 A3004 NOSIG=
201709201400 METAR MROC 201400Z 12005KT 080V170 CAVOK 22/18 A3004 NOSIG=
201709201500 METAR MROC 201500Z 17003KT 090V260 CAVOK 25/18 A3005 BECMG 24007KT NOSIG=
201709201524 METAR MROC 201524Z 24005KT CAVOK 25/18 A3006 NOSIG=
201709201600 METAR MROC 201600Z 25007KT 210V290 9999 FEW035 BKN250 25/18 A3006 NOSIG=
201709201700 METAR MROC 201700Z 24006KT 200V300 9999 FEW035 SCT250 BKN300 26/21 A3003 NOSIG=
201709201800 METAR MROC 201800Z 26010KT 230V290 9999 FEW035 BKN250 26/20 A3002 NOSIG=
201709201900 METAR MROC 201900Z 27011KT 9999 SCT035 BKN200 26/21 A2999 NOSIG=
201709202000 METAR MROC 202000Z 25010KT 220V280 9999 SCT030 BKN200 27/22 A2996 NOSIG=
201709202100 METAR MROC 202100Z 24010KT 200V270 9999 SCT020 BKN200 26/21 A2995 NOSIG=
201709202200 METAR MROC 202200Z 22006KT 190V260 9999 FEW010TCU SCT030 BKN100 23/21 A2995 NOSIG=
201709202300 METAR MROC 202300Z 24007KT 8000 VCFG -RA FEW005 SCT030 BKN100 22/21 A2997 NOSIG=
201709210000 METAR MROC 210000Z 25008KT 3000 +RA FEW004 BKN030 22/21 A2999 NOSIG=
201709210100 METAR MROC 210100Z 22006KT 5000 RA FEW002 BKN020 21/20 A3002 NOSIG=
201709210200 METAR MROC 210200Z 24004KT 200V260 3000 TS RA FEW002 FEW010CB BKN030 20/20 A3006 NOSIG=
201709210300 METAR MROC 210300Z 25003KT 5000 RA FEW002 SCT030 OVC100 20/20 A3007 NOSIG=
201709210400 METAR MROC 210400Z 35003KT 320V020 8000 -RA FEW005 SCT025 BKN100 20/20 A3006 NOSIG=
201709210500 METAR MROC 210500Z VRB02KT 9999 FEW020 BKN100 21/20 A3006 NOSIG=
201709210600 METAR MROC 210600Z VRB02KT 9999 FEW020 BKN100 20/20 A3004 NOSIG=
201709210700 METAR MROC 210700Z 14003KT 9999 FEW020 SCT100 20/20 A3002 NOSIG=
201709210800 METAR MROC 210800Z 09001KT 9999 FEW030 20/20 A3000 NOSIG=
201709210900 METAR MROC 210900Z 07006KT 9999 FEW030 20/19 A2997 NOSIG=
201709211000 METAR MROC 211000Z 06005KT CAVOK 20/19 A2997 NOSIG=
201709211100 METAR MROC 211100Z 07007KT CAVOK 19/18 A2996 NOSIG=
201709211200 METAR MROC 211200Z 07006KT CAVOK 21/18 A2997 NOSIG=
201709211300 METAR MROC 211300Z 09004KT 060V130 CAVOK 23/19 A2999 NOSIG=
201709211400 METAR MROC 211400Z 10004KT 060V140 CAVOK 25/19 A3001 NOSIG=
201709211500 METAR MROC 211500Z 11007KT 080V170 9999 FEW040 SCT250 26/19 A3002 NOSIG=
201709211600 METAR MROC 211600Z 27007KT 230V310 9999 FEW040 SCT250 26/21 A3002 NOSIG=
201709211700 METAR MROC 211700Z 23011KT 210V270 9999 SCT040 SCT250 26/21 A3000 NOSIG=
201709211800 METAR MROC 211800Z 25009KT 210V280 9999 SCT030 BKN100 26/21 A2997 NOSIG=
201709211900 METAR MROC 211900Z 25011KT 9999 SCT030 BKN100 26/21 A2995 NOSIG=
201709212000 METAR MROC 212000Z 23010KT 190V260 9999 VCSH FEW010TCU SCT030 BKN100 26/22 A2993 NOSIG=
201709212100 METAR MROC 212100Z 23008KT 190V260 9999 VCSH FEW010TCU SCT030 BKN100 25/22 A2991 NOSIG=
201709212200 METAR MROC 212200Z 24010KT 210V280 9999 VCSH SCT030 BKN100 23/20 A2992 NOSIG=
201709212300 METAR MROC 212300Z 27008KT 220V310 9999 VCSH BKN035 SCT080 22/20 A2994 NOSIG=
201709220000 METAR MROC 220000Z 28007KT 240V320 9999 SCT030 BKN100 22/20 A2995 NOSIG=
201709220100 METAR MROC 220100Z 24004KT 200V290 9999 -DZ BCFG BKN035 21/20 A2997 BECMG 5000 BR BKN015=
201709220200 METAR MROC 220200Z VRB02KT 9999 BCFG SCT025 BKN100 21/20 A3000 NOSIG=
201709220300 METAR MROC 220300Z VRB02KT 3000 +RA BR FEW001 SCT015 BKN100 21/20 A3001 NOSIG=
201709220400 METAR MROC 220400Z 11004KT 9999 R07/0900N DZ FEW020 BKN060 21/20 A3002 RERA NOSIG=
201709220500 METAR MROC 220500Z 09003KT 9999 R07/0800N DZ FEW025 BKN100 20/20 A3001 NOSIG=
201709220600 METAR MROC 220600Z 06003KT CAVOK 21/20 A2999 REDZ NOSIG=
201709220700 METAR MROC 220700Z 09003KT CAVOK 20/19 A2996 NOSIG=
201709220800 METAR MROC 220800Z 00000KT CAVOK 20/19 A2995 NOSIG=
201709220900 METAR MROC 220900Z 25002KT 2000 BR FEW001 BKN140 20/20 A2996 NOSIG=
201709221000 METAR MROC 221000Z 13003KT 3000 R07/1400D BR FEW001 BKN100 20/20 A2996 NOSIG=
201709221100 METAR MROC 221100Z 09002KT 9999 3500SW BCFG FEW035 SCT070 20/19 A2996 NOSIG=
201709221200 METAR MROC 221200Z 09004KT 360V130 9999 FEW045 SCT200 20/19 A2996 NOSIG=
201709221300 METAR MROC 221300Z 13003KT 100V180 CAVOK 22/20 A2999 BECMG 24007KT=
201709221400 METAR MROC 221400Z VRB02KT CAVOK 24/20 A2999 BECMG 24007KT=
201709221427 METAR MROC 221427Z 22006KT 9999 FEW045 SCT250 25/20 A2999 NOSIG=
201709221500 METAR MROC 221500Z 24008KT 9999 FEW040 25/20 A3000 NOSIG=
201709221600 METAR MROC 221600Z 24006KT 9999 SCT035 26/21 A3000 NOSIG=
201709221700 METAR MROC 221700Z 24009KT 9999 SCT035 26/21 A2998 NOSIG=
201709221800 METAR MROC 221800Z 24010KT 9999 FEW020TCU BKN035 26/21 A2996 NOSIG=
201709221900 METAR MROC 221900Z 25006KT 200V290 9999 VCSH FEW015TCU BKN035 26/21 A2992 NOSIG=
201709222000 METAR MROC 222000Z 24009KT 210V290 9999 VCSH FEW015TCU SCT030 BKN250 25/22 A2991 NOSIG=
201709222100 METAR MROC 222100Z 23007KT 8000 -RA SCT020TCU OVC100 23/22 A2990 BECMG TSRA FEW015CB=
201709222200 METAR MROC 222200Z VRB02KT 9999 4000SW FEW005 SCT025 BKN100 23/20 A2990 NOSIG=
201709222300 METAR MROC 222300Z VRB02KT 5000 -RA BR FEW002 SCT020 BKN100 21/21 A2992 NOSIG=
201709230000 METAR MROC 230000Z 25003KT 8000 -DZ BCFG FEW004 SCT015 BKN100 21/21 A2995 NOSIG=
201709230100 METAR MROC 230100Z 35004KT 9999 -RA SCT025 BKN100 21/20 A2996 NOSIG=
201709230200 METAR MROC 230200Z 33003KT 9999 RA SCT025 BKN100 21/20 A3000 NOSIG=
201709230300 METAR MROC 230300Z 07005KT 020V120 9999 RA SCT025 BKN100 21/20 A3002 NOSIG=
201709230400 METAR MROC 230400Z VRB02KT 9999 -RA FEW030 OVC100 21/20 A3001 NOSIG=
201709230500 METAR MROC 230500Z 07006KT 9999 -RA FEW030 OVC100 21/20 A2999 NOSIG=
201709230600 METAR MROC 230600Z 06005KT CAVOK 21/20 A2994 NOSIG=
201709230700 METAR MROC 230700Z 02006KT CAVOK 20/19 A2993 NOSIG=
201709230800 METAR MROC 230800Z 19003KT 1000 BR SCT002 20/20 A2992 BECMG 5000=
201709230900 METAR MROC 230900Z VRB02KT 8000 VCFG FEW001 SCT010 20/20 A2992 NOSIG=
201709231000 METAR MROC 231000Z 35003KT 330V030 9999 FEW010 SCT030 20/19 A2992 NOSIG=
201709231100 METAR MROC 231100Z VRB02KT 9999 SCT030 20/19 A2994 NOSIG=
201709231200 METAR MROC 231200Z 08004KT 020V090 9999 FEW030 SCT250 19/18 A2995 NOSIG=
201709231300 METAR MROC 231300Z 08005KT 9999 FEW040 SCT250 22/19 A2997 NOSIG=
201709231400 METAR MROC 231400Z 11005KT CAVOK 24/19 A2998 NOSIG=
201709231500 METAR MROC 231500Z VRB02KT 9999 SCT045 SCT250 26/19 A2999 NOSIG=
201709231600 METAR MROC 231600Z 25006KT 9999 SCT040 SCT250 26/21 A3000 NOSIG=
201709231700 METAR MROC 231700Z 25011KT 210V270 9999 FEW035 SCT090 27/22 A2999 NOSIG=
201709231800 METAR MROC 231800Z 25009KT 220V280 9999 SCT035 26/22 A2996 NOSIG=
201709231900 METAR MROC 231900Z 24011KT 210V270 9999 SCT030TCU 26/22 A2993 NOSIG=
201709232000 METAR MROC 232000Z 25013KT 9999 BKN015TCU 23/21 A2993 NOSIG=
201709232100 METAR MROC 232100Z 25010KT 8000 -RA BKN015 SCT030 22/20 A2993 NOSIG=
201709232200 METAR MROC 232200Z VRB02KT 7000 FEW005 SCT010 BKN025 22/21 A2994 NOSIG=
201709232300 METAR MROC 232300Z 07003KT 9999 -RA FEW010 SCT025 BKN060 22/21 A2995 NOSIG=
201709240000 METAR MROC 240000Z 12004KT 9999 -RA FEW025 BKN100 21/20 A2996 NOSIG=
201709240100 METAR MROC 240100Z VRB02KT 9999 -RA FEW025 BKN100 21/20 A2999 NOSIG=
201709240200 METAR MROC 240200Z 09005KT CAVOK 21/20 A2999 NOSIG=
201709240300 METAR MROC 240300Z 00000KT CAVOK 21/20 A2999 NOSIG=
201709240400 METAR MROC 240400Z 27005KT 5000 1500SW BR SCT001 BKN015 21/20 A3002 NOSIG=
201709240500 METAR MROC 240500Z VRB02KT 9999 -RA SCT015 BKN100 21/20 A3002 NOSIG=
201709240600 METAR MROC 240600Z 29003KT 9999 SCT020 BKN100 21/20 A3002 NOSIG=
201709240700 METAR MROC 240700Z VRB02KT 9999 FEW010 BKN100 21/20 A2996 NOSIG=
201709240800 METAR MROC 240800Z 11005KT 9999 FEW035 BKN120 21/20 A2993 NOSIG=
201709240900 METAR MROC 240900Z VRB02KT 9999 -RA NSC 21/20 A2993 NOSIG=
201709241000 METAR MROC 241000Z VRB02KT 9999 -RA NSC 21/20 A2995 NOSIG=
201709241100 METAR MROC 241100Z VRB02KT CAVOK 21/20 A2995 NOSIG=
201709241200 METAR MROC 241200Z 11004KT 9999 BCFG FEW010 SCT060 BKN250 20/20 A2996 NOSIG=
201709241300 METAR MROC 241300Z 08004KT 9999 FEW010 SCT100 BKN250 22/20 A2998 NOSIG=
201709241400 METAR MROC 241400Z 27003KT 9999 FEW010 SCT100 BKN250 25/21 A3000 NOSIG=
201709241500 METAR MROC 241500Z 24008KT 9999 FEW035 SCT120 BKN250 24/21 A3001 NOSIG=
201709241600 METAR MROC 241600Z 24009KT 210V270 9999 FEW035 SCT120 BKN250 25/21 A3002 NOSIG=
201709241700 METAR MROC 241700Z 26013KT 9999 SCT020 SCT030 24/21 A3001 NOSIG=
201709241800 METAR MROC 241800Z 26010KT 230V290 9999 FEW010 BKN020 25/21 A2998 NOSIG=
201709241900 METAR MROC 241900Z 25013KT 9999 VCSH SCT015CB BKN025 24/21 A2995 BECMG TSRA=
201709242000 METAR MROC 242000Z 21007KT 1200 SHRA FEW001 SCT005 BKN012 20/20 A2997 NOSIG=
201709242100 METAR MROC 242100Z 01004KT 340V080 9000 3500SW RA BCFG FEW001 BKN120 20/20 A2996 BECMG 5000 TSRA=
201709242200 METAR MROC 242200Z 08004KT 9999 3000SW -RA FEW008 SCT100 BKN120 20/20 A2996 BECMG 5000 BR=
201709242300 METAR MROC 242300Z 07004KT 350V100 9999 3000SW FEW010 BKN100 21/19 A2998 NOSIG=
201709250000 METAR MROC 250000Z 02003KT CAVOK 21/20 A2999 NOSIG=
201709250100 METAR MROC 250100Z 07005KT CAVOK 21/20 A3000 NOSIG=
201709250200 METAR MROC 250200Z 09004KT 9999 -DZ NSC 21/20 A3000 NOSIG=
201709250300 METAR MROC 250300Z 08004KT 9999 -DZ NSC 21/19 A3000 NOSIG=
201709250400 METAR MROC 250400Z VRB02KT 9999 -RA FEW004 OVC100 20/20 A3001 NOSIG=
201709250500 METAR MROC 250500Z 25004KT 5000 BR SCT008 OVC100 20/20 A3002 NOSIG=
201709250600 METAR MROC 250600Z 00000KT 5000 BR SCT005 OVC100 20/20 A3001 NOSIG=
201709250700 METAR MROC 250700Z 04003KT 8000 VCFG SCT010 OVC100 20/19 A3000 NOSIG=
201709250800 METAR MROC 250800Z 07005KT CAVOK 19/18 A2999 NOSIG=
201709250900 METAR MROC 250900Z 09004KT CAVOK 19/17 A2998 NOSIG=
201709251000 METAR MROC 251000Z VRB02KT CAVOK 18/17 A2998 NOSIG=
201709251100 METAR MROC 251100Z 07007KT CAVOK 18/17 A2997 NOSIG=
201709251200 METAR MROC 251200Z 09006KT CAVOK 18/16 A2997 NOSIG=
201709251300 METAR MROC 251300Z 09005KT CAVOK 21/18 A2999 NOSIG=
201709251400 METAR MROC 251400Z 08003KT 030V150 CAVOK 24/18 A2999 BECMG 24007KT=
201709251500 METAR MROC 251500Z 27003KT CAVOK 26/19 A3000 NOSIG=
201709251600 METAR MROC 251600Z 26008KT 9999 FEW045 BKN200 25/20 A3001 NOSIG=
201709251700 METAR MROC 251700Z 25009KT 220V280 9999 FEW040 BKN250 26/20 A2999 NOSIG=
201709251800 METAR MROC 251800Z 24009KT 210V280 9999 VCSH VCTS SCT020CB FEW025TCU BKN250 25/21 A2996 BECMG SHRA=
201709251900 METAR MROC 251900Z 24008KT 210V280 9999 TS VCSH FEW015CB SCT020 24/21 A2996 BECMG 5000 TSRA=
201709252000 METAR MROC 252000Z 23007KT 9999 3000SW RA VCTS FEW015 SCT060 BKN100 23/21 A2993 NOSIG=
201709252100 METAR MROC 252100Z 22005KT 160V250 9999 FEW035 BKN100 23/21 A2992 NOSIG=
201709252200 METAR MROC 252200Z 25008KT 210V280 9999 FEW020TCU SCT035 BKN100 23/21 A2993 NOSIG=
201709252300 METAR MROC 252300Z 26007KT 240V320 9999 3000SW VCFG FEW002 SCT030 BKN100 22/21 A2995 BECMG 5000 BR=
201709260000 METAR MROC 260000Z 26007KT 9999 3000SW -RA BCFG FEW002 SCT020 BKN100 21/20 A2997 BECMG 5000 RA BR=
201709260100 METAR MROC 260100Z 29004KT 8000 2000SW -RA BCFG SCT005 BKN100 21/20 A3000 NOSIG=
201709260200 METAR MROC 260200Z 31003KT 280V340 9999 BCFG FEW005 BKN100 21/20 A3001 RERA NOSIG=
201709260300 METAR MROC 260300Z 26003KT 220V360 9999 BCFG FEW003 BKN100 21/20 A3002 NOSIG=
201709260400 METAR MROC 260400Z VRB02KT 9999 BCFG FEW005 SCT025 21/20 A3002 NOSIG=
201709260500 METAR MROC 260500Z VRB02KT 5000 1000NE BR FEW002 SCT025 21/20 A3002 NOSIG=
201709260600 METAR MROC 260600Z VRB02KT 5000 BR FEW005 SCT025 21/20 A3001 NOSIG=
201709260700 METAR MROC 260700Z 26002KT 8000 1000SW SCT002 SCT020 21/20 A2999 NOSIG=
201709260800 METAR MROC 260800Z 35002KT 9999 SCT002 21/20 A2997 NOSIG=
201709260900 METAR MROC 260900Z VRB02KT 9999 BCFG FEW010 BKN025 21/20 A2996 NOSIG=
201709261000 METAR MROC 261000Z 00000KT 9999 -RA BCFG FEW010 BKN025 21/20 A2995 NOSIG=
201709261100 METAR MROC 261100Z VRB02KT 9999 -RA NSC 20/20 A2996 NOSIG=
201709261200 METAR MROC 261200Z 07006KT CAVOK 20/20 A2995 NOSIG=
201709261300 METAR MROC 261300Z 07006KT CAVOK 20/20 A2996 NOSIG=
201709261400 METAR MROC 261400Z 09004KT 060V130 CAVOK 25/20 A2998 BECMG 25006KT=
201709261500 METAR MROC 261500Z 24003KT 180V280 CAVOK 26/21 A2998 NOSIG=
201709261600 MROC 261600Z 25006KT 9999 FEW040 BKN200 26/22 A2999 NOSIG=
201709261700 METAR MROC 261700Z 24010KT 9999 SCT040 BKN200 26/22 A2998 NOSIG=
201709261800 METAR MROC 261800Z 25012KT 9999 VCSH FEW020TCU BKN035 24/21 A2996 BECMG 5000 TSRA SCT015CB=
201709261900 METAR MROC 261900Z 24007KT 210V280 9999 RA VCTS VCSH FEW020TCU SCT030 BKN100 23/22 A2995 BECMG 5000 TSRA SCT015CB=
201709262000 METAR MROC 262000Z 24006KT 9999 -RA SCT030 BKN100 22/22 A2994 RERA NOSIG=
201709262100 METAR MROC 262100Z 30005KT 9999 -RA FEW010 SCT030 BKN100 22/21 A2993 NOSIG=
201709262200 METAR MROC 262200Z 31004KT 5000 -RA BR FEW002 SCT020 BKN100 22/20 A2994 BECMG 1500=
201709262300 METAR MROC 262300Z 28003KT 230V350 8000 DZ FEW002 SCT020 BKN100 22/21 A2995 NOSIG=
201709270000 METAR MROC 270000Z VRB02KT 9999 FEW030 BKN100 21/20 A2997 NOSIG=
201709270100 METAR MROC 270100Z VRB02KT CAVOK 21/20 A2998 NOSIG=
201709270200 METAR MROC 270200Z 02003KT 320V070 CAVOK 21/20 A2999 NOSIG=
201709270300 METAR MROC 270300Z 09003KT CAVOK 21/20 A3000 NOSIG=
201709270400 METAR MROC 270400Z VRB02KT CAVOK 21/19 A2999 NOSIG=
201709270500 METAR MROC 270500Z 08004KT 9999 4000S BCFG NSC 20/19 A2999 NOSIG=
201709270600 METAR MROC 270600Z 00000KT 9999 4000S BCFG FEW003 19/19 A2999 NOSIG=
201709270700 METAR MROC 270700Z VRB02KT 9999 R07/1800D BCFG FEW001 19/19 A2995 NOSIG=
201709270800 METAR MROC 270800Z 05003KT 9999 2500S BCFG FEW002 19/18 A2993 NOSIG=
201709270900 METAR MROC 270900Z 09003KT CAVOK 18/18 A2992 NOSIG=
201709271000 METAR MROC 271000Z 08004KT CAVOK 18/17 A2994 NOSIG=
201709271100 METAR MROC 271100Z 06004KT CAVOK 18/17 A2994 NOSIG=
201709271200 METAR MROC 271200Z 10004KT 9999 4500SW BCFG NSC 18/17 A2997 NOSIG=
201709271300 METAR MROC 271300Z 10003KT 9999 4800SW BCFG FEW001 BKN120 20/18 A2998 NOSIG=
201709271400 METAR MROC 271400Z VRB02KT CAVOK 22/18 A3001 BECMG 24005KT=
201709271500 METAR MROC 271500Z 27006KT CAVOK 24/19 A3002 NOSIG=
201709271600 METAR MROC 271600Z 26006KT 190V320 9999 FEW025 SCT140 25/19 A3001 NOSIG=
201709271700 METAR MROC 271700Z 25007KT 210V270 9999 FEW030 SCT180 26/20 A2998 NOSIG=
201709271800 METAR MROC 271800Z 25006KT 200V340 9999 FEW035 26/19 A2995 NOSIG=
201709271900 METAR MROC 271900Z 23007KT 180V280 9999 FEW035 27/21 A2991 NOSIG=
201709272000 METAR MROC 272000Z 26010KT 9999 FEW028TCU FEW035 27/21 A2989 NOSIG=
201709272100 METAR MROC 272100Z 21009KT 9999 RA FEW020TCU SCT025 BKN100 23/20 A2990 BECMG 5000=
201709272200 METAR MROC 272200Z 24007KT 9999 3000SW -RA FEW010 SCT020 BKN100 22/21 A2993 NOSIG=
201709272300 METAR MROC 272300Z 25005KT 220V320 5000 -RA BR SCT005 BKN015 21/21 A2994 NOSIG=
201709280000 METAR MROC 280000Z 17003KT 140V200 9999 -RA FEW010 SCT020 BKN100 21/21 A2997 NOSIG=
201709280100 METAR MROC 280100Z VRB02KT 9999 SCT020 BKN100 21/20 A3000 RERA NOSIG=
201709280200 METAR MROC 280200Z 11003KT CAVOK 21/20 A3001 NOSIG=
201709280300 METAR MROC 280300Z 06003KT CAVOK 21/20 A3001 NOSIG=
201709280400 METAR MROC 280400Z 24003KT 8000 3000SW BCFG FEW001 BKN120 21/20 A3001 BECMG 5000 BR=
201709280500 METAR MROC 280500Z VRB02KT 3000 R07/2000D BR BKN001 21/20 A2999 NOSIG=
201709280600 METAR MROC 280600Z 10003KT 5000 BR FEW005 BKN100 20/20 A2996 NOSIG=
201709280700 METAR MROC 280700Z 04003KT 360V060 9999 FEW010 SCT200 20/20 A2994 NOSIG=
201709280800 METAR MROC 280800Z 06007KT CAVOK 20/19 A2992 NOSIG=
201709280900 METAR MROC 280900Z 07003KT 040V100 CAVOK 19/18 A2992 NOSIG=
201709281000 METAR MROC 281000Z VRB02KT 5000 1200SW R07/0400N BR BKN001 19/18 A2993 NOSIG=
201709281100 METAR MROC 281100Z 05004KT 5000 1200SW R07/1900D BR SCT001 19/18 A2995 NOSIG=
201709281200 METAR MROC 281200Z 03003KT CAVOK 18/18 A2997 NOSIG=
201709281300 METAR MROC 281300Z VRB02KT CAVOK 21/19 A2999 NOSIG=
201709281400 METAR MROC 281400Z 25003KT 220V280 CAVOK 22/20 A3000 NOSIG=
201709281500 METAR MROC 281500Z 23004KT 190V270 9999 FEW035 BKN250 24/20 A3001 NOSIG=
201709281600 METAR MROC 281600Z 24005KT 200V330 9999 FEW035 BKN250 25/21 A3000 NOSIG=
201709281700 METAR MROC 281700Z 25004KT 170V300 9999 FEW035 BKN250 26/20 A2997 NOSIG=
201709281800 METAR MROC 281800Z 25009KT 210V270 9999 FEW035 BKN250 26/21 A2993 NOSIG=
201709281900 METAR MROC 281900Z 24010KT 210V270 9999 SCT030 BKN250 26/22 A2991 NOSIG=
201709282000 METAR MROC 282000Z 25010KT 9999 -RA VCTS FEW015CB SCT025 BKN200 25/22 A2988 BECMG 5000 RA=
201709282100 METAR MROC 282100Z 23008KT 9999 RA VCTS FEW015CB SCT025 BKN100 22/20 A2990 BECMG TSRA BKN025=
201709282200 METAR MROC 282200Z 28004KT 9999 3000N -RA FEW020 SCT030 BKN100 22/21 A2991 NOSIG=
201709282300 METAR MROC 282300Z 34003KT 300V020 9999 3000NW -RA FEW015 SCT030 BKN100 22/21 A2994 NOSIG=
201709290000 METAR MROC 290000Z 33003KT 300V020 9999 -RA FEW015 SCT025 BKN100 22/21 A2996 NOSIG=
201709290100 METAR MROC 290100Z VRB01KT 9999 -RA SCT030 OVC100 21/20 A2998 NOSIG=
201709290200 METAR MROC 290200Z VRB02KT CAVOK 22/21 A3000 RERA NOSIG=
201709290300 METAR MROC 290300Z 03003KT CAVOK 22/20 A2999 NOSIG=
201709290400 METAR MROC 290400Z VRB02KT 5000 BR SCT002 BKN100 21/20 A3000 BECMG 1500 BKN010=
201709290500 METAR MROC 290500Z 11003KT 9999 3000SW BCFG FEW002 BKN100 21/20 A2999 NOSIG=
201709290600 METAR MROC 290600Z VRB02KT 9999 BCFG FEW010 BKN100 21/20 A2998 NOSIG=
201709290700 METAR MROC 290700Z 08004KT 9999 FEW030 SCT100 20/20 A2996 NOSIG=
201709290800 METAR MROC 290800Z 00000KT 9999 FEW030 SCT100 20/20 A2995 NOSIG=
201709290900 METAR MROC 290900Z 07003KT CAVOK 20/19 A2994 NOSIG=
201709291000 METAR MROC 291000Z 08004KT CAVOK 19/18 A2992 NOSIG=
201709291100 METAR MROC 291100Z 07005KT CAVOK 19/17 A2994 NOSIG=
201709291200 METAR MROC 291200Z 06006KT CAVOK 19/18 A2995 NOSIG=
201709291300 METAR MROC 291300Z 10003KT 050V200 CAVOK 21/19 A2999 BECMG 22006KT=
201709291400 METAR MROC 291400Z 26007KT 230V290 9999 FEW035 BKN200 23/20 A3002 NOSIG=
201709291500 METAR MROC 291500Z 26009KT 9999 SCT030 BKN200 23/20 A3003 NOSIG=
201709291600 METAR MROC 291600Z 29005KT 230V340 9999 FEW020 SCT030 BKN200 24/20 A3002 NOSIG=
201709291700 METAR MROC 291700Z 24075KT 200V280 9999 FEW020 SCT030 BKN200 25/20 A2999 NOSIG=
201709291800 METAR MROC 291800Z 24006KT 190V330 9999 FEW030 SCT080 BKN200 26/20 A2995 NOSIG=
201709291900 METAR MROC 291900Z 25009KT 210V290 9999 SCT030 BKN200 26/22 A2993 NOSIG=
201709292000 METAR MROC 292000Z 23010KT 200V260 9999 SCT030 BKN200 26/22 A2990 NOSIG=
201709292100 METAR MROC 292100Z 24012KT 9999 4000SW VCSH FEW010TCU SCT030 BKN150 23/22 A2990 BECMG SHRA=
201709292200 METAR MROC 292200Z 25009KT 4000 1500SW TSRA FEW010CB BKN020 22/21 A2992 BECMG 3000=
201709292300 METAR MROC 292300Z 25007KT 6000 2000SW SHRA VCTS FEW005 FEW010CB SCT035 BKN050 21/21 A2993 NOSIG=
201709300000 METAR MROC 300000Z COR 26007KT 1500 TSRA FEW008CB BKN005 21/21 A2996 NOSIG=
201709300100 METAR MROC 300100Z 30003KT 270V340 5000 RA VCTS FEW008CB FEW010 OVC030 20/20 A3001 NOSIG=
201709300200 METAR MROC 300200Z VRB02KT 9999 -RA FEW025 OVC090 21/20 A3002 NOSIG=
201709300300 METAR MROC 300300Z 02003KT 9999 -DZ FEW030 OVC090 21/20 A3002 NOSIG=
201709300400 METAR MROC 300400Z 15002KT CAVOK 20/20 A2999 NOSIG=
201709300500 METAR MROC 300500Z VRB02KT 3000 BR SCT003 BKN100 20/20 A3000 NOSIG=
201709300600 METAR MROC 300600Z 02003KT 9999 FEW004 BKN100 20/19 A2999 NOSIG=
201709300700 METAR MROC 300700Z 11004KT CAVOK 19/19 A2997 NOSIG=
201709300800 METAR MROC 300800Z 04004KT CAVOK 19/19 A2996 NOSIG=
201709300900 METAR MROC 300900Z 08005KT CAVOK 19/18 A2995 NOSIG=
201709301000 METAR MROC 301000Z VRB02KT CAVOK 18/18 A2995 NOSIG=
201709301100 METAR MROC 301100Z 05005KT CAVOK 18/17 A2995 NOSIG=
201709301200 METAR MROC 301200Z 08006KT CAVOK 18/17 A2994 NOSIG=
201709301300 METAR MROC 301300Z 09007KT CAVOK 20/18 A2994 BECMG 22006KT=
201709301400 METAR MROC 301400Z 10004KT CAVOK 24/19 A2997 BECMG 22006KT=
201709301500 METAR MROC 301500Z 24009KT CAVOK 24/20 A3000 NOSIG=
201709301600 METAR MROC 301600Z 25011KT 9999 FEW030 BKN250 24/20 A3001 NOSIG=
201709301700 METAR MROC 301700Z 26010KT 9999 SCT025 BKN250 24/21 A2999 NOSIG=
201709301800 METAR MROC 301800Z 26007KT 190V280 9999 SCT025 25/20 A2995 NOSIG=
201709301900 METAR MROC 301900Z 22008KT 9999 SCT025TCU 25/21 A2993 NOSIG=
201709302000 METAR MROC 302000Z 22009KT 9999 VCSH SCT020TCU BKN035 25/21 A2990 BECMG 5000 SHRA=
201709302100 METAR MROC 302100Z 28004KT 9999 VCSH FEW015TCU SCT035 BKN070 25/19 A2990 BECMG 5000 SHRA=
201709302200 METAR MROC 302200Z 25010KT 9999 -RA VCSH FEW007 SCT15TCU BKN060 22/20 A2990 NOSIG=
201709302300 METAR MROC 302300Z 26008KT 230V290 9000 4200SW -RA BCFG SCT005 BKN020 21/21 A2993 BECMG 5000 BR=
201710010000 METAR MROC 010000Z 25007KT 210V280 9000 VCTS VCFG FEW003 FEW010CB BKN020 21/20 A2994 NOSIG=
201710010100 METAR MROC 010100Z 24005KT 5000 TSRA BR FEW003 FEW010CB BKN020 20/20 A2998 NOSIG=
201710010200 METAR MROC 010200Z VRB02KT 5000 RA BR FEW004 FEW010CB OVC035 20/20 A3000 RETS NOSIG=
201710010300 METAR MROC 010300Z COR 00000KT 7000 RA VCFG FEW005 SCT020 OVC040 20/20 A3002 NOSIG=
201710010400 METAR MROC 010400Z 00000KT 8000 -RA VCFG FEW005 SCT035 BKN100 20/20 A3002 NOSIG=
201710010500 METAR MROC 010500Z 02003KT 9999 BCFG FEW005 SCT015 BKN100 20/20 A2999 NOSIG=
201710010600 METAR MROC 010600Z 15003KT 9999 FEW030 BKN100 20/20 A2996 NOSIG=
201710010700 METAR MROC 010700Z 33003KT 9999 FEW030 20/19 A2994 NOSIG=
201710010800 METAR MROC 010800Z 29003KT 2000 SCT002 BKN015 20/19 A2993 NOSIG=
201710010900 METAR MROC 010900Z 00000KT 9999 BCFG FEW002 SCT015 BKN030 20/20 A2993 NOSIG=
201710011000 METAR MROC 011000Z 13003KT 9999 FEW030 SCT100 20/19 A2993 NOSIG=
201710011100 METAR MROC 011100Z 00000KT 9999 BCFG FEW002 BKN030 20/19 A2994 NOSIG=
201710011200 METAR MROC 011200Z VRB02KT 9999 BCFG FEW005 SCT010 BKN120 20/19 A2996 NOSIG=
201710011300 METAR MROC 011300Z 18003KT 9999 BCFG FEW005 SCT010 BKN120 20/19 A2998 NOSIG=
201710011400 METAR MROC 011400Z VRB02KT 9999 FEW007 SCT015 BKN120 22/19 A2999 NOSIG=
201710011500 METAR MROC 011500Z 25005KT 220V280 9999 SCT025 BKN100 22/20 A3001 NOSIG=
201710011600 METAR MROC 011600Z 27007KT 220V310 9999 SCT030 SCT100 24/20 A3000 NOSIG=
201710011700 METAR MROC 011700Z 23005KT 190V350 9999 SCT030 BKN200 24/19 A2997 NOSIG=
201710011800 METAR MROC 011800Z 25006KT 210V280 9999 SCT030 BKN200 26/20 A2994 NOSIG=
201710011900 METAR MROC 011900Z 26009KT 220V310 9999 FEW020TCU FEW030 BKN200 26/21 A2990 NOSIG=
201710012000 METAR MROC 012000Z 24011KT 9999 VCSH FEW020TCU SCT060 25/20 A2988 NOSIG=
201710012100 METAR MROC 012100Z 23008KT 9999 -RA BCFG VCSH FEW008 FEW015TCU SCT020 BKN100 23/21 A2987 NOSIG=
201710012200 METAR MROC 012200Z 22005KT 9999 RA SCT030 BKN100 21/21 A2988 NOSIG=
201710012300 METAR MROC 012300Z 21005KT 9999 -RA FEW005 SCT035 BKN100 21/20 A2989 RERA BECMG 3000 BR BKN015=
201710020000 METAR MROC 020000Z VRB02KT 9999 FEW010 BKN100 21/20 A2991 NOSIG=
201710020100 METAR MROC 020100Z 30004KT 9999 BCFG SCT010 BKN100 21/21 A2992 NOSIG=
201710020200 METAR MROC 020200Z VRB02KT 8000 RA SCT010 BKN100 20/20 A2995 NOSIG=
201710020300 METAR MROC 020300Z VRB02KT 9999 RA NSC 21/20 A2998 NOSIG=
201710020400 METAR MROC 020400Z 32003KT 9999 -RA FEW006 20/20 A2998 NOSIG=
201710020500 METAR MROC 020500Z 30003KT 260V340 9999 -RA BCFG FEW005 BKN050 21/20 A2999 NOSIG=
201710020600 METAR MROC 020600Z VRB02KT 9999 -RA VCFG FEW001 BKN100 20/20 A2997 NOSIG=
201710020700 METAR MROC 020700Z 26005KT 6000 +RA FEW001 BKN010 20/20 A2996 NOSIG=
201710020800 METAR MROC 020800Z VRB02KT 9999 RA BKN100 19/18 A2995 NOSIG=
201710020900 METAR MROC 020900Z 31002KT 4000 RA BR FEW005 BKN100 19/19 A2995 NOSIG=
201710021000 METAR MROC 021000Z 08003KT 9999 -RA FEW015 BKN100 19/19 A2994 NOSIG=
201710021100 METAR MROC 021100Z 10004KT 9999 -RA FEW010 BKN120 19/19 A2995 NOSIG=
201710021200 METAR MROC 021200Z 11005KT 9999 FEW025 BKN150 20/19 A2996 NOSIG=
201710021300 METAR MROC 021300Z 10004KT 9999 -RA FEW035 BKN100 20/19 A2998 NOSIG=
201710021400 METAR MROC 021400Z 07005KT CAVOK 21/19 A3000 NOSIG=
201710021500 METAR MROC 021500Z 16002KT 9999 FEW007 BKN150 23/20 A3000 BECMG 23006KT=
201710021600 METAR MROC 021600Z VRB02KT 9999 FEW020 BKN150 24/19 A2999 BECMG 23006KT=
201710021700 METAR MROC 021700Z 21003KT 180V260 CAVOK 24/20 A2998 NOSIG=
201710021800 METAR MROC 021800Z 24008KT 9999 FEW040 BKN120 24/19 A2997 NOSIG=
201710021900 METAR MROC 021900Z 24008KT 210V270 9999 SCT035 BKN120 25/20 A2994 NOSIG=
201710022000 METAR MROC 022000Z 25009KT 9999 SCT035 BKN120 24/21 A2992 NOSIG=
201710022100 METAR MROC 022100Z 24008KT 9999 SCT035 BKN120 23/20 A2990 NOSIG=
201710022200 METAR MROC 022200Z 25008KT 9999 SCT030 BKN120 22/20 A2990 NOSIG=
201710022300 METAR MROC 022300Z 23006KT 8000 RA SCT010 BKN020 21/20 A2992 BECMG BKN010=
201710030000 METAR MROC 030000Z 22006KT 5000 -RA BR FEW005 BKN010 21/20 A2995 NOSIG=
201710030100 METAR MROC 030100Z 22003KT 5000 -RA BR FEW005 BKN010 20/20 A2997 NOSIG=
201710030200 METAR MROC 030200Z 17003KT 1500 R07/1400D -RA BR SCT002 BKN010 20/20 A3000 BECMG 0800 FG=
201710030300 METAR MROC 030300Z VRB02KT 8000 -RA SCT025 BKN100 20/20 A3001 NOSIG=
201710030400 METAR MROC 030400Z 10003KT 9999 -RA NSC 20/20 A3002 NOSIG=
201710030500 METAR MROC 030500Z 26003KT 9999 4500SW BCFG FEW002 BKN100 20/20 A3001 NOSIG=
201710030600 METAR MROC 030600Z VRB02KT 3000 -RA BR SCT002 BKN015 20/20 A3001 NOSIG=
201710030700 METAR MROC 030700Z 00000KT 0600 R07/0700D -RA FG SCT001 BKN015 20/20 A2999 NOSIG=
201710030800 METAR MROC 030800Z VRB02KT 1000 R07/1200N -RA BR BKN002 20/20 A2997 NOSIG=
201710030900 METAR MROC 030900Z VRB02KT 8000 -RA VCFG SCT002 BKN020 20/20 A2997 NOSIG=
201710031000 METAR MROC 031000Z 08003KT 9999 -RA SCT035 BKN100 20/20 A2997 NOSIG=
201710031100 METAR MROC 031100Z VRB02KT 9999 -DZ NSC 20/20 A2997 NOSIG=
201710031200 METAR MROC 031200Z 10002KT 9999 VCFG FEW010 BKN120 20/20 A2997 NOSIG=
201710031300 METAR MROC 031300Z VRB02KT CAVOK 21/20 A2997 NOSIG=
201710031400 METAR MROC 031400Z 08003KT 9999 FEW005 BKN100 22/20 A2999 NOSIG=
201710031500 METAR MROC 031500Z VRB02KT 9999 FEW005 BKN100 22/21 A3000 BECMG 25006KT=
201710031600 METAR MROC 031600Z VRB02KT 9999 FEW007 OVC120 22/21 A3001 NOSIG=
201710031700 METAR MROC 031700Z VRB02KT 9999 FEW010 OVC120 23/21 A3000 NOSIG=
201710031800 METAR MROC 031800Z VRB01KT CAVOK 24/21 A2998 NOSIG=
201710031900 METAR MROC 031900Z 25005KT 9999 FEW035 BKN120 23/21 A2995 NOSIG=
201710032000 METAR MROC 032000Z 25004KT CAVOK 24/21 A2992 NOSIG=
201710032100 METAR MROC 032100Z 25009KT 220V280 8000 FEW025 BKN100 23/20 A2991 NOSIG=
201710032200 METAR MROC 032200Z 24009KT 8000 3500N FEW005 SCT010 BKN100 22/21 A2991 NOSIG=
201710032300 METAR MROC 032300Z 25007KT 2500 -RA BR SCT005 BKN010 21/21 A2994 NOSIG=
201710040000 METAR MROC 040000Z 29003KT 240V350 8000 -RA VCFG FEW002 SCT005 BKN025 21/20 A2996 BECMG 3000=
201710040100 METAR MROC 040100Z 22005KT 8000 BCFG FEW002 SCT020 BKN040 21/20 A2997 NOSIG=
201710040200 METAR MROC 040200Z 23007KT 0800 -RA FG SCT001 BKN008 21/20 A2999 NOSIG=
201710040300 METAR MROC 040300Z 24006KT 210V270 0800 -RA FG SCT001 BKN005 21/20 A3001 NOSIG=
201710040400 METAR MROC 040400Z 22006KT 3000 -RA BR SCT001 BKN020 20/19 A3001 NOSIG=
201710040500 METAR MROC 040500Z VRB02KT 9999 SCT015 BKN110 20/19 A3001 RERA NOSIG=
201710040600 METAR MROC 040600Z 28003KT 250V330 9999 FEW005 BKN020 20/19 A2999 BECMG 5000 BR BKN010=
201710040700 METAR MROC 040700Z VRB02KT 5000 BR FEW002 SCT010 BKN025 20/19 A2995 BECMG 1500 BR BKN010=
201710040800 METAR MROC 040800Z 00000KT 9999 FEW005 SCT010 BKN025 20/19 A2993 NOSIG=
201710040900 METAR MROC 040900Z VRB02KT 9999 SCT010 BKN025 20/19 A2991 NOSIG=
201710041000 METAR MROC 041000Z VRB02KT 9999 -DZ SCT020 BKN110 20/19 A2992 NOSIG=
201710041100 METAR MROC 041100Z VRB02KT 9999 SCT025 BKN110 20/19 A2993 NOSIG=
201710041200 METAR MROC 041200Z 12003KT 9999 BCFG SCT025 BKN120 20/19 A2995 NOSIG=
201710041300 METAR MROC 041300Z VRB02KT 9999 BCFG FEW008 SCT025 BKN100 21/20 A2996 NOSIG=
201710041400 METAR MROC 041400Z VRB02KT 9999 FEW010 BKN020 22/20 A2998 NOSIG=
201710041500 METAR MROC 041500Z 22003KT 9999 FEW010 SCT030 BKN200 23/20 A2998 NOSIG=
201710041600 METAR MROC 041600Z 24011KT 9999 FEW010 SCT025 BKN200 22/21 A2998 NOSIG=
201710041700 METAR MROC 041700Z 23009KT 8000 -RA BCFG FEW010 SCT020 BKN035 22/20 A2996 NOSIG=
201710041800 METAR MROC 041800Z 24008KT 9999 FEW010 SCT020 BKN035 22/20 A2994 NOSIG=
201710041900 METAR MROC 041900Z 25010KT 9999 VCSH SCT010 BKN020 22/20 A2990 NOSIG=
201710042000 METAR MROC 042000Z 26012KT 5000 0500SW RA BR SCT005 BKN010 21/20 A2989 BECMG 1000=
201710042100 METAR MROC 042100Z 23008KT 2000 -RA BR SCT002 BKN010 20/20 A2989 NOSIG=
201710042200 METAR MROC 042200Z 25010KT 210V280 0500 R07/0650D DZ FG OVC005 20/20 A2988 RERA NOSIG=
201710042300 METAR MROC 042300Z 23010KT 1500 RA BR FEW003 BKN008 20/20 A2989 NOSIG=
201710050000 METAR MROC 050000Z 22007KT 8000 1800SW RA BCFG OVC008 20/19 A2991 NOSIG=
201710050100 METAR MROC 050100Z 25007KT 4000 RA BR OVC008 20/20 A2992 NOSIG=
201710050200 METAR MROC 050200Z 24007KT 0500 +DZ FG OVC002 20/20 A2994 NOSIG=
201710050300 METAR MROC 050300Z 25009KT 2000 SHRA BR SCT002 OVC010 20/20 A2995 RERA NOSIG=
201710050400 MROC 050400Z 23006KT 2000 RA SCT010 OVC100 20/20 A2995=
201710050500 METAR MROC 050500Z 24006KT 9999 FEW002 SCT015 BKN030 19/19 A3003 RERA NOSIG=
201710050600 METAR MROC NIL=
201710050700 METAR MROC NIL=
201710050800 METAR MROC NIL=
201710050900 METAR MROC NIL=
201710051000 METAR MROC NIL=
201710051100 METAR MROC NIL=
201710051200 METAR MROC 051200Z 25003KT 2500 -RA BR FEW002 SCT010 OVC100 19/18 A2994 NOSIG=
201710051300 METAR MROC 051300Z 26005KT 3000 -RA BR FEW002 OVC015 19/19 A2996 NOSIG=
201710051400 METAR MROC 051400Z 24006KT 1500 RA DZ BR FEW002 BKN010 19/19 A2998 NOSIG=
201710051500 METAR MROC 051500Z 26008KT 2000 RA BR SCT002 BKN025 19/19 A3000 RESHRA NOSIG=
201710051600 METAR MROC 051600Z 24006KT 190V260 1800 -RA BR SCT005 BKN020 19/19 A3000 NOSIG=
201710051700 METAR MROC 051700Z 27006KT 6000 2500SW -RA BCFG BKN012 19/19 A2998 NOSIG=
201710051800 METAR MROC 051800Z 24009KT 2000 RA BR SCT002 BKN010 19/19 A2995 NOSIG=
201710051900 METAR MROC 051900Z 22009KT 2000 -RA BR BKN020 20/19 A2994 NOSIG=
201710052000 METAR MROC 052000Z 23007KT 3000 +RA BR FEW004 BKN025 19/18 A2992 NOSIG=
201710052100 METAR MROC 052100Z 27006KT 1200 RA BR SCT002 BKN010 19/19 A2992 BECMG 0600 FG=
201710052200 METAR MROC 052200Z 22008KT 180V250 7000 3000N -RA BCFG FEW002 SCT015 BKN030 18/18 A2994 NOSIG=
201710052300 METAR MROC 052300Z 22007KT 170V240 9999 4000N SCT020 BKN080 19/17 A2994 NOSIG=
201710060000 METAR MROC 060000Z 26005KT 220V300 9999 SCT035 BKN080 19/18 A2995 NOSIG=
201710060100 METAR MROC 060100Z 30005KT 270V360 9999 -RA SCT030 BKN080 19/18 A2997 NOSIG=
201710060200 METAR MROC 060200Z 31005KT 9999 -RA FEW004 SCT010 BKN080 19/18 A2999 NOSIG=
201710060300 METAR MROC 060300Z VRB02KT 8000 3500SW -RA BCFG SCT006 BKN015 19/19 A3001 NOSIG=
201710060400 METAR MROC 060400Z 28007KT 3000 +RA SCT005 BKN015 19/19 A3002 NOSIG=
201710060500 METAR MROC 060500Z 24006KT 9999 FEW002 SCT015 BKN030 19/19 A3003 RERA NOSIG=
201710060530 METAR MROC 060530Z 23003KT 5000 RA SCT005 BKN015 19/19 A3002 NOSIG=
201710060600 METAR MROC 060600Z 23008KT 200V260 9999 FEW005 SCT015 BKN200 19/19 A3002 RERA NOSIG=
201710060700 METAR MROC 060700Z 27003KT 9999 -RA BKN020 19/19 A2999 NOSIG=
201710060800 METAR MROC 060800Z 24004KT 210V270 9999 BKN020 19/18 A2998 NOSIG=
201710060900 METAR MROC 060900Z 25005KT 220V280 9999 FEW020 BKN040 19/18 A2998 NOSIG=
201710061000 METAR MROC 061000Z 31003KT 9999 FEW020 BKN040 19/18 A2998 NOSIG=
201710061100 METAR MROC 061100Z 28005KT 9999 FEW020 BKN040 19/18 A2998 NOSIG=
201710061200 METAR MROC 061200Z 28005KT 9999 FEW015 BKN030 19/18 A3001 NOSIG=
201710061300 METAR MROC 061300Z 29003KT 200V350 9999 FEW030 SCT120 21/19 A3003 NOSIG=
201710061400 METAR MROC 061400Z 31005KT 270V330 9999 FEW035 SCT120 21/19 A3005 NOSIG=
201710061500 METAR MROC 061500Z 26005KT 230V300 9999 FEW030 BKN120 22/19 A3007 NOSIG=
201710061600 METAR MROC 061600Z 25006KT 210V280 9999 SCT035 SCT120 23/19 A3007 NOSIG=
201710061700 METAR MROC 061700Z 20008KT 170V230 9999 FEW020 SCT040 24/19 A3005 NOSIG=
201710061800 METAR MROC 061800Z 22008KT 190V250 9999 SCT040 SCT140 25/19 A3002 NOSIG=
201710061900 METAR MROC 061900Z 22009KT 180V250 9999 SCT035 BKN200 25/18 A3001 NOSIG=
201710062000 METAR MROC 062000Z 21009KT 160V260 9999 SCT030 SCT200 25/18 A2999 NOSIG=
201710062100 METAR MROC 062100Z 22006KT 180V250 9999 FEW035 BKN140 25/18 A2998 NOSIG=
201710062200 METAR MROC 062200Z 21007KT 190V250 9999 FEW035 BKN120 24/18 A2999 NOSIG=
201710062300 METAR MROC 062300Z 25005KT 9999 SCT040 BKN120 23/19 A3001 NOSIG=
201710070000 METAR MROC 070000Z 31003KT CAVOK 22/19 A3002 NOSIG=
201710070100 METAR MROC 070100Z VRB02KT CAVOK 21/19 A3003 NOSIG=
201710070200 METAR MROC 070200Z VRB02KT CAVOK 21/19 A3005 NOSIG=
201710070300 METAR MROC 070300Z 06003KT 360V090 CAVOK 21/18 A3007 NOSIG=
201710070400 METAR MROC 070400Z 067005KT 350V100 CAVOK 20/17 A3006 NOSIG=
201710070500 METAR MROC 070500Z 07006KT CAVOK 20/16 A3006 NOSIG=
201710070600 METAR MROC 070600Z 08005KT CAVOK 19/17 A3004 NOSIG=
201710070700 METAR MROC 070700Z 07007KT CAVOK 19/16 A3002 NOSIG=
201710070800 METAR MROC 070800Z 09006KT CAVOK 17/16 A3001 NOSIG=
201710070900 METAR MROC 070900Z 08005KT CAVOK 17/15 A3000 NOSIG=
201710071000 METAR MROC 071000Z 07006KT CAVOK 17/15 A3001 NOSIG=
201710071100 METAR MROC 071100Z 06004KT CAVOK 18/15 A3001 NOSIG=
201710071200 METAR MROC 071200Z 06005KT CAVOK 18/16 A3004 NOSIG=
201710071300 METAR MROC 071300Z 11004KT CAVOK 19/16 A3005 NOSIG=
201710071400 METAR MROC 071400Z VRB02KT CAVOK 21/16 A3006 NOSIG=
201710071500 METAR MROC 071500Z 18003KT 130V220 CAVOK 24/17 A3007 BECMG 24007KT=
201710071600 METAR MROC 071600Z 23004KT 190V270 CAVOK 26/17 A3007 NOSIG=
201710071700 METAR MROC 071700Z 25008KT 210V280 CAVOK 27/17 A3004 NOSIG=
201710071800 METAR MROC 071800Z 25010KT CAVOK 27/20 A3003 NOSIG=
201710071900 METAR MROC 071900Z 25011KT CAVOK 27/21 A3001 NOSIG=
201710072000 METAR MROC 072000Z 26011KT 9999 FEW040 SCT250 26/21 A2999 NOSIG=
201710072100 METAR MROC 072100Z 25009KT 210V280 9999 FEW040 SCT120 25/21 A2999 NOSIG=
201710072200 METAR MROC 072200Z 25009KT 9999 SCT030 BKN100 24/21 A2999 NOSIG=
201710072300 METAR MROC 072300Z 25007KT 9999 FEW015 SCT025 BKN100 22/21 A3001 NOSIG=
201710080000 METAR MROC 080000Z 27006KT 9999 FEW006 SCT020 BKN100 22/21 A3003 NOSIG=
201710080100 METAR MROC 080100Z 24005KT 230V290 5000 BR FEW003 SCT010 BKN100 21/20 A3004 NOSIG=
201710080200 METAR MROC 080200Z 17002KT 8000 VCFG FEW005 SCT010 BKN100 21/20 A3006 NOSIG=
201710080300 METAR MROC 080300Z 27003KT 8000 VCFG FEW006 SCT015 BKN100 21/20 A3008 NOSIG=
201710080400 METAR MROC 080400Z 33003KT 8000 BCFG FEW001 SCT015 21/20 A3008 NOSIG=
201710080500 METAR MROC 080500Z 25004KT 5000 BR SCT002 BKN015 20/20 A3007 BECMG 3000=
201710080600 METAR MROC 080600Z VRB02KT 5000 2200SW BR SCT002 BKN020 20/20 A3005 NOSIG=
201710080700 METAR MROC 080700Z 36003KT 330V030 2200 1000E BR SCT002 SCT020 20/20 A3002 NOSIG=
201710080800 METAR MROC 080800Z 01004KT 350V070 6000 VCFG FEW005 SCT020 BKN100 20/20 A3002 NOSIG=
201710080900 METAR MROC 080900Z VRB02KT 9999 VCFG FEW005 SCT200 20/19 A3000 NOSIG=
201710081000 METAR MROC 081000Z VRB02KT 9999 VCFG FEW005 19/18 A3000 NOSIG=
201710081100 METAR MROC 081100Z 36003KT 300V060 9999 FEW040 SCT200 20/18 A3001 NOSIG=
201710081200 METAR MROC 081200Z 00000KT 9999 VCFG FEW035 BKN200 19/18 A3002 NOSIG=
201710081300 METAR MROC 081300Z 01004KT 9999 VCFG FEW035 BKN200 22/19 A3004 NOSIG=
201710081400 METAR MROC 081400Z 09004KT CAVOK 23/21 A3005 NOSIG=
201710081500 METAR MROC 081500Z 22005KT 150V270 CAVOK 25/21 A3006 NOSIG=
201710081600 METAR MROC 081600Z 26008KT 9999 FEW040 BKN110 25/21 A3006 NOSIG=
201710081700 METAR MROC 081700Z 24008KT 9999 SCT025 SCT250 25/22 A3003 NOSIG=
201710081800 METAR MROC 081800Z 24009KT 9999 FEW035 SCT140 26/22 A3001 NOSIG=
201710081900 METAR MROC 081900Z 26009KT 9999 SCT025 SCT120 25/22 A2998 NOSIG=
201710082000 METAR MROC 082000Z 26010KT 9999 SCT025 26/22 A2994 NOSIG=
201710082100 METAR MROC 082100Z 25010KT 9999 -TSRA FEW010CB SCT015 BKN030 24/22 A2992 BECMG TSRA=
201710082200 METAR MROC 082200Z 23011KT 1500 -TSRA BR FEW001 SCT005 BKN010CB 22/22 A2994 BECMG 0800 FG=
201710082300 METAR MROC 082300Z 13003KT 9000 FEW025 SCT080 BKN200 20/19 A2996 RETS NOSIG=
201710090000 METAR MROC 090000Z 19003KT 120V230 9999 FEW020 SCT100 BKN200 20/20 A2998 NOSIG=
201710090100 METAR MROC 090100Z 03006KT 9999 FEW020 21/19 A2999 NOSIG=
201710090200 METAR MROC 090200Z 12004KT CAVOK 20/19 A3001 NOSIG=
201710090300 METAR MROC 090300Z 05005KT CAVOK 21/19 A3001 NOSIG=
201710090400 METAR MROC 090400Z 07006KT CAVOK 21/19 A3000 NOSIG=
201710090500 METAR MROC 090500Z 06006KT CAVOK 21/18 A2999 NOSIG=
201710090600 METAR MROC 090600Z 08006KT CAVOK 21/18 A2998 NOSIG=
201710090700 METAR MROC 090700Z 08006KT CAVOK 21/18 A2996 NOSIG=
201710090800 METAR MROC 090800Z 06005KT CAVOK 19/17 A2996 NOSIG=
201710090900 METAR MROC 090900Z 31003KT 9999 4000SW BCFG SCT010 BKN120 19/18 A2995 NOSIG=
201710091000 METAR MROC 091000Z VRB02KT 0500 R07/0650D FG VV/// 19/19 A2995 NOSIG=
201710091045 METAR MROC 091045Z 04005KT 9999 3000SW R07/1400U BCFG SCT002 BKN120 19/18 A2995 NOSIG=
201710091100 METAR MROC 091100Z 03005KT 9999 3000SW BCFG SCT008 BKN120 19/18 A2995 NOSIG=
201710091200 METAR MROC 091200Z VRB02KT 9999 4000SW BCFG SCT010 BKN140 19/18 A2999 NOSIG=
201710091300 METAR MROC 091300Z 00000KT CAVOK 20/18 A3000 NOSIG=
201710091400 METAR MROC 091400Z 10003KT CAVOK 23/19 A3000 BECMG 22006KT=
201710091500 METAR MROC 091500Z 07011KT 040V110 CAVOK 25/16 A3002 BECMG 22006KT=
201710091600 METAR MROC 091600Z 13005KT 070V180 CAVOK 26/17 A3000 BECMG 22006KT=
201710091700 METAR MROC 091700Z VRB02KT CAVOK 28/18 A2998 NOSIG=
201710091800 METAR MROC 091800Z 26012KT CAVOK 26/21 A2995 NOSIG=
201710091900 METAR MROC 091900Z 26008KT 230V300 9999 VCSH FEW025TCU SCT035 BKN120 25/21 A2993 BECMG RA=
201710092000 METAR MROC 092000Z 24005KT 190V270 9999 VCSH FEW020TCU SCT100 BKN200 24/22 A2990 NOSIG=
201710092100 METAR MROC 092100Z 22007KT 190V250 9999 4500SW VCSH FEW020TCU SCT030 BKN100 22/19 A2990 BECMG 5000 TSRA=
201710092200 METAR MROC 092200Z 01008KT 340V050 9999 RA FEW001 BKN100 21/19 A2992 NOSIG=
201710092300 METAR MROC 092300Z 28003KT 230V330 9999 4500SW -DZ BCFG FEW002 BKN100 20/19 A2992 NOSIG=
201710100000 METAR MROC 100000Z 32003KT 9999 -RA NSC 20/19 A2993 NOSIG=
201710100100 METAR MROC 100100Z 15003KT CAVOK 20/19 A2996 NOSIG=
201710100200 METAR MROC 100200Z VRB02KT CAVOK 20/19 A2998 NOSIG=
201710100300 METAR MROC 100300Z 04004KT CAVOK 20/19 A2998 NOSIG=
201710100400 METAR MROC 100400Z 06003KT CAVOK 19/18 A2997 NOSIG=
201710100500 METAR MROC 100500Z 08004KT CAVOK 18/17 A2997 NOSIG=
201710100600 METAR MROC 100600Z 07004KT CAVOK 18/17 A2996 NOSIG=
201710100700 METAR MROC 100700Z 06004KT CAVOK 18/17 A2994 NOSIG=
201710100800 METAR MROC 100800Z 10006KT CAVOK 18/17 A2993 NOSIG=
201710100900 METAR MROC 100900Z 02003KT CAVOK 18/16 A2992 NOSIG=
201710101000 METAR MROC 101000Z 08004KT CAVOK 18/16 A2991 NOSIG=
201710101100 METAR MROC 101100Z 08005KT CAVOK 18/16 A2994 NOSIG=
201710101200 METAR MROC 101200Z 08007KT CAVOK 20/16 A2994 NOSIG=
201710101300 METAR MROC 101300Z 06006KT 030V090 CAVOK 22/18 A2998 NOSIG=
201710101400 METAR MROC 101400Z 08007KT CAVOK 24/17 A2998 NOSIG=
201710101500 METAR MROC 101500Z 24004KT 200V270 CAVOK 25/18 A2999 NOSIG=
201710101600 METAR MROC 101600Z 25007KT CAVOK 26/19 A2998 NOSIG=
201710101700 METAR MROC 101700Z 26009KT 9999 FEW040 BKN200 26/20 A2996 NOSIG=
201710101800 METAR MROC 101800Z 25009KT 210V310 9999 FEW045 BKN200 25/19 A2994 NOSIG=
201710101900 METAR MROC 101900Z 25007KT 200V300 9999 FEW040 BKN250 26/21 A2991 NOSIG=
201710102000 METAR MROC 102000Z 26008KT 230V300 9999 FEW035 27/20 A2988 NOSIG=
201710102100 METAR MROC 102100Z 23011KT 9999 TS VCSH FEW010TCU BKN030 25/21 A2986 BECMG TSRA=
201710102200 METAR MROC 102200Z 26005KT 220V300 8000 -TSRA FEW010CB SCT030 BKN070 19/18 A2991 NOSIG=
201710102300 METAR MROC 102300Z VRB02KT 9999 -RA SCT020 BKN080 19/18 A2993 RETSRA NOSIG=
201710110000 METAR MROC 110000Z 09005KT 9999 FEW020 SCT080 20/19 A2994 NOSIG=
201710110100 METAR MROC 110100Z 06004KT CAVOK 20/18 A2994 NOSIG=
201710110200 METAR MROC 110200Z VRB02KT CAVOK 20/19 A2996 NOSIG=
201710110300 METAR MROC 110300Z VRB02KT CAVOK 19/19 A2997 NOSIG=
201710110400 METAR MROC 110400Z 05004KT CAVOK 19/18 A2997 NOSIG=
201710110500 METAR MROC 110500Z 07004KT 030V100 CAVOK 19/187 A2996 NOSIG=
201710110600 METAR MROC 110600Z 08005KT CAVOK 19/18 A2995 NOSIG=
201710110700 METAR MROC 110700Z 09004KT CAVOK 18/17 A2992 NOSIG=
201710110800 METAR MROC 110800Z 08007KT CAVOK 18/16 A2991 NOSIG=
201710110900 METAR MROC 110900Z 05007KT CAVOK 18/16 A2991 NOSIG=
201710111000 METAR MROC 111000Z 06006KT CAVOK 18/17 A2992 NOSIG=
201710111100 METAR MROC 111100Z 07006KT CAVOK 18/16 A2993 NOSIG=
201710111200 METAR MROC 111200Z 06003KT CAVOK 18/17 A2995 NOSIG=
201710111300 METAR MROC 111300Z 07004KT CAVOK 20/17 A2997 NOSIG=
201710111400 METAR MROC 111400Z 12003KT CAVOK 24/18 A2998 BECMG 24007KT=
201710111500 METAR MROC 111500Z VRB02KT 9999 FEW040 BKN250 26/18 A2999 BECMG 24007KT=
201710111600 METAR MROC 111600Z 25007KT 210V290 9999 FEW040 BKN250 25/20 A2998 NOSIG=
201710111700 METAR MROC 111700Z 23007KT 200V260 9999 FEW040 BKN250 25/20 A2996 NOSIG=
201710111800 METAR MROC 111800Z 26008KT 220V310 9999 SCT035 BKN250 26/20 A2993 NOSIG=
201710111900 METAR MROC 111900Z 24009KT 200V280 9999 FEW025TCU FEW035 BKN250 27/20 A2991 NOSIG=
201710112000 METAR MROC 112000Z 25010KT 9999 FEW020TCU SCT030 BKN250 26/21 A2989 NOSIG=
201710112100 METAR MROC 112100Z 25011KT 9999 FEW015TCU SCT030 25/21 A2989 NOSIG=
201710112200 METAR MROC 112200Z 21007KT 9999 VCTS VCSH FEW015CB BKN030 24/21 A2990 NOSIG=
201710112300 METAR MROC 112300Z 26007KT 220V280 9999 VCTS VCSH FEW015CB BKN035 23/21 A2992 NOSIG=
201710120000 METAR MROC 120000Z 26006KT 230V290 9999 FEW008 OVC030 22/20 A2993 NOSIG=
201710120100 METAR MROC 120100Z 28005KT 240V320 9999 FEW008 OVC035 22/20 A2995 NOSIG=
201710120200 METAR MROC 120200Z 30005KT 280V350 9999 DZ FEW008 OVC035 22/20 A2998 NOSIG=
201710120300 METAR MROC 120300Z VRB02KT 9999 -DZ FEW008 OVC035 21/20 A2999 NOSIG=
201710120400 METAR MROC 120400Z 00000KT 9999 VCFG FEW004 BKN030 21/21 A2998 NOSIG=
201710120500 METAR MROC 120500Z 25003KT 9999 VCFG FEW006 SCT030 BKN120 21/20 A2997 BECMG 5000 BR=
201710120600 METAR MROC 120600Z VRB02KT 9999 3000S BCFG FEW003 SCT035 BKN120 21/20 A2996 BECMG 5000 BR=
201710120700 METAR MROC 120700Z 10002KT 9999 FEW003 20/19 A2994 NOSIG=
201710120800 METAR MROC 120800Z 05004KT CAVOK 20/18 A2992 NOSIG=
201710120900 METAR MROC 120900Z VRB02KT CAVOK 19/18 A2993 NOSIG=
201710121000 METAR MROC 121000Z 35003KT 300V070 CAVOK 19/18 A2993 NOSIG=
201710121100 METAR MROC 121100Z 00000KT 3400 BR FEW001 18/18 A2995 NOSIG=
201710121200 METAR MROC 121200Z 02003KT 9999 2000SW BCFG FEW001 BKN200 19/17 A2996 NOSIG=
201710121300 METAR MROC 121300Z 05004KT 9999 4000SW BCFG SCT005 BKN250 21/18 A2997=
201710121400 METAR MROC 121400Z 03005KT CAVOK 25/18 A2997 NOSIG=
201710121500 METAR MROC 121500Z VRB02KT CAVOK 26/20 A2997 BECMG 24007KT=
201710121600 METAR MROC 121600Z 25007KT 190V290 CAVOK 26/20 A2996 NOSIG=
201710121700 METAR MROC 121700Z 24008KT 210V290 9999 FEW045 BKN250 26/21 A2995 NOSIG=
201710121800 METAR MROC 121800Z 25009KT 190V280 9999 FEW025TCU FEW040 SCT250 27/21 A2992 NOSIG=
201710121900 METAR MROC 121900Z 26010KT 220V300 9999 FEW020TCU SCT035 SCT250 27/21 A2990 NOSIG=
201710122000 METAR MROC 122000Z 25009KT 9999 4500E VCTS FEW015CB BKN030 26/21 A2988 BECMG -TSRA=
201710122100 METAR MROC 122100Z 06004KT 5000 TSRA FEW010CB SCT020 BKN080 20/17 A2991 NOSIG=
201710122131 METAR MROC 122131Z 05004KT 9999 -RA VCTS FEW015CB SCT030 BKN080 20/19 A2989 RETSRA NOSIG=
201710122200 METAR MROC 122200Z VRB02KT 9999 -RA SCT035 BKN080 21/18 A2991 NOSIG=
201710122300 METAR MROC 122300Z 28005KT 230V320 9999 SCT040 BKN120 21/19 A2992 NOSIG=
201710130000 METAR MROC 130000Z 02003KT 340V070 9999 FEW040 BKN160 22/18 A2993 NOSIG=
201710130100 METAR MROC 130100Z 00000KT CAVOK 21/20 A2993 NOSIG=
201710130200 METAR MROC 130200Z 05003KT CAVOK 21/20 A2996 NOSIG=
201710130300 METAR MROC 130300Z 05007KT CAVOK 21/20 A2996 NOSIG=
201710130400 METAR MROC 130400Z 05007KT 010V070 CAVOK 21/19 A2997 NOSIG=
201710130500 METAR MROC 130500Z 08005KT CAVOK 22/18 A2997 NOSIG=
201710130600 METAR MROC 130600Z 01004KT 350V050 CAVOK 20/18 A2998 NOSIG=
201710130700 METAR MROC 130700Z VRB02KT CAVOK 19/18 A2995 NOSIG=
201710130800 METAR MROC 130800Z 04008KT CAVOK 19/17 A2993 NOSIG=
201710130900 METAR MROC 130900Z 07005KT CAVOK 20/17 A2992 NOSIG=
201710131000 METAR MROC 131000Z 07008KT CAVOK 21/17 A2992 NOSIG=
201710131100 METAR MROC 131100Z 08006KT CAVOK 20/17 A2994 NOSIG=
201710131200 METAR MROC 131200Z 04008KT CAVOK 21/17 A2995 NOSIG=
201710131300 METAR MROC 131300Z 06010KT CAVOK 22/17 A2997 NOSIG=
201710131400 METAR MROC 131400Z 09004KT 040V180 CAVOK 24/19 A2998 NOSIG=
201710131500 METAR MROC 131500Z 10011KT 9999 FEW040 SCT250 26/18 A2999 NOSIG=
201710131600 METAR MROC 131600Z 11011KT CAVOK 27/18 A2998 NOSIG=
201710131700 METAR MROC 131700Z 11007KT 070V170 9999 FEW040 SCT250 28/18 A2995 NOSIG=
201710131800 METAR MROC 131800Z 20010KT 120V250 9999 SCT035 BKN250 26/21 A2995 NOSIG=
201710131900 METAR MROC 131900Z 25009KT 220V280 9999 SCT030 BKN250 26/22 A2992 NOSIG=
201710132000 METAR MROC 132000Z 24009KT 210V270 9999 SCT030 SCT120 26/21 A2990 NOSIG=
201710132100 METAR MROC 132100Z 25008KT 9999 FEW025 SCT035 BKN200 25/22 A2991 NOSIG=
201710132200 METAR MROC 132200Z 26009KT 8000 2000N SHRA FEW005 FEW015TCU SCT020 BKN035 23/22 A2991 BECMG 3000 BKN010=
201710132300 METAR MROC 132300Z 26009KT 3000 1200SW BR FEW005 SCT010 BKN030 23/22 A2993 RESHRA BECMG BKN010=
201710140000 METAR MROC 140000Z 28003KT 250V310 9999 FEW005 SCT035 BKN200 22/21 A2994 BECMG 5000 BR=
201710140100 METAR MROC 140100Z 25003KT 220V290 9999 BCFG VCTS FEW005 FEW010CB SCT035 BKN200 22/21 A2997 BECMG 5000 BR=
201710140200 METAR MROC 140200Z 34003KT 310V030 9999 BCFG FEW005 SCT045 BKN200 22/21 A2999 BECMG 5000 BR=
201710140300 METAR MROC 140300Z 21003KT 9999 BCFG FEW005 SCT045 BKN200 22/21 A3000 BECMG 5000 BR=
201710140400 METAR MROC 140400Z 32002KT 9999 BCFG FEW004 SCT020 22/21 A3000 NOSIG=
201710140500 METAR MROC 140500Z 05005KT 9999 FEW020 22/20 A2999 NOSIG=
201710140600 METAR MROC 140600Z 03003KT CAVOK 21/20 A2997 NOSIG=
201710140700 METAR MROC 140700Z 03004KT 9999 FEW035 21/19 A2995 NOSIG=
201710140800 METAR MROC 140800Z 09005KT 060V120 CAVOK 22/19 A2993 NOSIG=
201710140900 METAR MROC 140900Z 11007KT 090V160 CAVOK 22/18 A2992 NOSIG=
201710141000 METAR MROC 141000Z 11010KT CAVOK 22/18 A2992 NOSIG=
201710141100 METAR MROC 141100Z 11010KT CAVOK 22/18 A2993 NOSIG=
201710141200 METAR MROC 141200Z 11008KT 070V130 9999 FEW030 SCT250 22/18 A2994 NOSIG=
201710141300 METAR MROC 141300Z 30004KT 270V020 9999 FEW040 BKN250 23/19 A2997 BECMG 24006KT=
201710141400 METAR MROC 141400Z 24006KT 9999 FEW035 SCT250 26/20 A3000 NOSIG=
201710141500 METAR MROC 141500Z 08010KT 9999 FEW035 SCT250 27/19 A3000 NOSIG=
201710141600 METAR MROC 141600Z 10009KT 9999 FEW040 BKN250 28/19 A3000 NOSIG=
201710141700 METAR MROC 141700Z 09011KT 9999 FEW030 SCT040 BKN200 27/18 A2999 NOSIG=
201710141800 METAR MROC 141800Z 24009KT 210V280 9999 FEW040 SCT080 BKN200 25/22 A2997 NOSIG=
201710141900 METAR MROC 141900Z 26009KT 220V310 9999 FEW030 SCT040 BKN200 25/22 A2994 NOSIG=
201710142000 METAR MROC 142000Z 26008KT 210V290 9999 FEW025 SCT040 BKN200 26/23 A2992 NOSIG=
201710142100 METAR MROC 142100Z 24009KT 9999 FEW015 SCT040 BKN200 26/23 A2991 NOSIG=
201710142200 METAR MROC 142200Z 26007KT 9999 4200SW BCFG FEW006 BKN040 24/22 A2991 BECMG 3000 BR=
201710142300 METAR MROC 142300Z 25007KT 3000 BR SCT004 BKN030 22/22 A2993 BECMG 1200=
201710150000 METAR MROC 150000Z 25005KT 4000 1800SW BR SCT003 BKN015 22/22 A2995 NOSIG=
201710150100 METAR MROC 150100Z VRB02KT 1500 BR SCT003 BKN015 22/21 A2997 NOSIG=
201710150200 METAR MROC 150200Z 24003KT 5000 2200SW BR FEW003 SCT020 BKN200 22/21 A2998 NOSIG=
201710150300 METAR MROC 150300Z VRB02KT 8000 3500SW BCFG FEW003 SCT030 21/21 A2999 NOSIG=
201710150400 METAR MROC 150400Z 25003KT 8000 2000SW BCFG FEW002 SCT015 BKN100 21/21 A2999 BECMG 3000 BR BKN010=
201710150500 METAR MROC 150500Z 10005KT CAVOK 23/19 A2997 NOSIG=
201710150600 METAR MROC 150600Z 10005KT CAVOK 23/19 A2997 NOSIG=
201710150700 METAR MROC 150700Z 08003KT CAVOK 23/18 A2994 NOSIG=
201710150800 METAR MROC NIL=
201710150900 METAR MROC 150900Z 03003KT CAVOK 21/18 A2992 NOSIG=
201710151000 METAR MROC 151000Z 10005KT CAVOK 21/18 A2993 NOSIG=
201710151100 METAR MROC 151100Z 04004KT CAVOK 21/18 A2994 NOSIG=
201710151200 METAR MROC 151200Z 08004KT CAVOK 21/17 A2995 NOSIG=
201710151300 METAR MROC 151300Z 08004KT 040V120 CAVOK 23/17 A2997 NOSIG=
201710151400 METAR MROC 151400Z 10007KT 070V140 CAVOK 24/18 A3000 NOSIG=
201710151500 METAR MROC 151500Z 11007KT 070V140 9999 FEW040 SCT200 BKN250 27/17 A3000 NOSIG=
201710151600 METAR MROC 151600Z 09010KT 9999 FEW030 BKN200 27/17 A3000 NOSIG=
201710151700 METAR MROC 151700Z 08011KT 9999 FEW045 BKN200 28/18 A2998 NOSIG=
201710151800 METAR MROC 151800Z 07011KT 9999 FEW045 SCT200 BKN250 29/18 A2995 NOSIG=
201710151900 METAR MROC 151900Z 09007KT 030V160 9999 FEW030 BKN300 29/17 A2992 BECMG 24007KT=
201710152000 METAR MROC 152000Z 23007KT 190V260 9999 4500SW BCFG BKN045 25/21 A2991 NOSIG=
201710152100 METAR MROC 152100Z 25009KT 9999 SCT020 BKN070 24/22 A2991 NOSIG=
201710152200 METAR MROC 152200Z COR 25009KT 9999 SCT020 BKN070 24/22 A2991 NOSIG=
201710152300 METAR MROC 152300Z 24006KT 9999 FEW010 SCT030 BKN070 23/22 A2993 NOSIG=
201710160000 METAR MROC 160000Z 27005KT 230V320 8000 VCFG FEW002 BKN030 22/22 A2994 NOSIG=
201710160100 METAR MROC 160100Z 28003KT 9999 3000SW BCFG FEW002 BKN030 22/21 A2997 NOSIG=
201710160200 METAR MROC 160200Z 24003KT 9999 2000SW BCFG FEW002 BKN030 22/21 A2998 NOSIG=
201710160300 METAR MROC 160300Z 03005KT 350V070 9999 FEW030 22/20 A3000 NOSIG=
201710160400 METAR MROC 160400Z 09003KT 060V140 CAVOK 22/19 A2999 NOSIG=
201710160500 METAR MROC 160500Z 09010KT CAVOK 23/18 A2998 NOSIG=
201710160600 METAR MROC 160600Z 11003KT 030V180 CAVOK 22/18 A2996 NOSIG=
201710160700 METAR MROC 160700Z 14006KT 090V170 CAVOK 22/18 A2994 NOSIG=
201710160800 METAR MROC 160800Z 08006KT 060V130 CAVOK 22/18 A2993 NOSIG=
201710160900 METAR MROC 160900Z 08006KT 050V120 CAVOK 21/18 A2993 NOSIG=
201710161000 METAR MROC 161000Z 05006KT 030V100 CAVOK 20/17 A2993 NOSIG=
201710161100 METAR MROC 161100Z 04010KT CAVOK 21/17 A2993 NOSIG=
201710161200 METAR MROC 161200Z 07005KT CAVOK 21/17 A2995 NOSIG=
201710161300 METAR MROC 161300Z 10007KT 050V140 CAVOK 24/18 A2997 NOSIG=
201710161400 METAR MROC 161400Z 11009KT 070V180 CAVOK 26/28 A2999 NOSIG=
201710161500 METAR MROC 161500Z 09009KT 070V130 CAVOK 28/18 A3000 NOSIG=
201710161600 METAR MROC 161600Z 10012KT 070V130 9999 FEW030 29/18 A2998 NOSIG=
201710161700 METAR MROC 161700Z 09009KT 050V150 9999 FEW030 30/19 A2995 NOSIG=
201710161800 METAR MROC 161800Z 09009KT 060V140 9999 FEW030 30/19 A2992 NOSIG=
201710161900 METAR MROC 161900Z 24014KT 9999 FEW030 27/23 A2990 NOSIG=
201710162000 METAR MROC 162000Z 25010KT 210V280 9999 SCT030 27/23 A2988 NOSIG=
201710162100 METAR MROC 162100Z 24009KT 9999 FEW015 SCT030 26/22 A2987 NOSIG=
201710162200 METAR MROC 162200Z 25007KT 220V290 9999 FEW010 SCT020 25/22 A2988 NOSIG=
201710162300 METAR MROC 162300Z 25006KT 9999 4500SW FEW003 SCT006 BKN010 23/22 A2991 BECMG 5000 BR=
201710170000 METAR MROC 170000Z 24004KT 210V270 9000 2000SW BCFG SCT003 BKN010 23/22 A2993 NOSIG=
201710170100 METAR MROC 170100Z VRB02KT 9999 2500SW BCFG FEW003 SCT018 22/22 A2995 NOSIG=
201710170200 METAR MROC 170200Z VRB02KT 9999 2000SW BCFG SCT003 22/22 A2997 NOSIG=
201710170300 METAR MROC 170300Z 06007KT 9999 BCFG FEW030 23/19 A2998 NOSIG=
201710170400 METAR MROC 170400Z 10006KT 9999 FEW035 BKN120 22/19 A2998 NOSIG=
201710170500 METAR MROC 170500Z 07005KT 9999 FEW025 22/18 A2996 NOSIG=
201710170600 METAR MROC 170600Z 11011KT 9999 FEW035 22/18 A2994 NOSIG=
201710170700 METAR MROC 170700Z 07006KT 050V110 9999 FEW025 22/18 A2994 NOSIG=
201710170800 METAR MROC 170800Z 12009KT 090V150 9999 FEW030 22/18 A2992 NOSIG=
201710170900 METAR MROC 170900Z 10011KT CAVOK 22/17 A2992 NOSIG=
201710171000 METAR MROC 171000Z 10012KT CAVOK 22/17 A2992 NOSIG=
201710171100 METAR MROC 171100Z 12010KT 090V170 CAVOK 22/17 A2993 NOSIG=
201710171200 METAR MROC 171200Z 05005KT 360V120 CAVOK 22/17 A2995 NOSIG=
201710171300 METAR MROC 171300Z 09010G21KT 050V130 CAVOK 24/17 A2997 NOSIG=
201710171400 METAR MROC 171400Z 13011KT 090V160 CAVOK 25/16 A2998 NOSIG=
201710171500 METAR MROC 171500Z 13009KT 090V180 CAVOK 26/17 A3001 NOSIG=
201710171600 METAR MROC 171600Z 12008KT 090V160 CAVOK 28/17 A3000 NOSIG=
201710171700 METAR MROC 171700Z 11008KT 090V160 9999 FEW045 SCT120 BKN200 28/17 A2997 NOSIG=
201710171800 METAR MROC 171800Z 13008KT 080V170 9999 FEW045 BKN200 28/17 A2995 NOSIG=
201710171900 METAR MROC 171900Z 12008KT 080V180 9999 FEW045 BKN200 27/18 A2994 NOSIG=
201710172000 METAR MROC 172000Z 14006KT 100V200 9999 FEW040 SCT070 BKN200 26/19 A2993 BECMG 24007KT=
201710172100 METAR MROC 172100Z 10006KT CAVOK 25/19 A2991 NOSIG=
201710172200 METAR MROC 172200Z 10003KT 070V140 CAVOK 25/18 A2988 NOSIG=
201710172300 METAR MROC 172300Z 16006KT 120V200 9999 FEW005 SCT120 OVC220 25/16 A2989 NOSIG=
201710180000 METAR MROC 180000Z 20007KT 170V240 CAVOK 23/21 A2992 NOSIG=
201710180100 METAR MROC 180100Z 32004KT 9999 SCT010 SCT120 22/21 A2996 NOSIG=
201710180200 METAR MROC 180200Z 28003KT 250V310 CAVOK 21/20 A2996 NOSIG=
201710180300 METAR MROC 180300Z 01003KT 320V080 CAVOK 22/21 A2996 NOSIG=
201710180400 METAR MROC 180400Z 04007KT CAVOK 21/18 A2998 NOSIG=
201710180500 METAR MROC 180500Z 03003KT CAVOK 21/17 A2998 NOSIG=
201710180600 METAR MROC 180600Z 08005KT CAVOK 20/17 A2995 NOSIG=
201710180700 METAR MROC 180700Z 08007KT CAVOK 20/17 A2993 NOSIG=
201710180800 METAR MROC 180800Z 08007KT CAVOK 21/16 A2992 NOSIG=
201710180900 METAR MROC 180900Z 08008KT CAVOK 21/17 A2991 NOSIG=
201710181000 METAR MROC 181000Z VRB03KT CAVOK 20/17 A2992 NOSIG=
201710181100 METAR MROC 181100Z 03003KT CAVOK 20/17 A2994 NOSIG=
201710181200 METAR MROC 181200Z 30004KT 270V340 CAVOK 20/17 A2997 NOSIG=
201710181300 METAR MROC 181300Z 09004KT 060V120 CAVOK 23/18 A2998 NOSIG=
201710181400 METAR MROC 181400Z VRB02KT CAVOK 27/19 A2999 NOSIG=
201710181500 METAR MROC 181500Z 10013KT CAVOK 27/19 A3002 NOSIG=
201710181600 METAR MROC 181600Z 11014KT CAVOK 26/19 A3002 NOSIG=
201710181700 METAR MROC 181700Z 11014KT 090V150 CAVOK 27/19 A2998 NOSIG=
201710181800 METAR MROC 181800Z 14008KT 090V240 CAVOK 30/19 A2992 NOSIG=
201710181900 METAR MROC 181900Z 21005KT 160V250 CAVOK 29/21 A2990 NOSIG=
201710182000 METAR MROC 182000Z 26009KT 180V310 9999 FEW010 SCT025 OVC230 26/23 A2990 NOSIG=
201710182100 METAR MROC 182100Z 26010KT 9999 SCT025 BKN100 25/22 A2990 NOSIG=
201710182200 METAR MROC 182200Z 25005KT 210V280 9999 FEW010 SCT025 BKN100 23/22 A2992 NOSIG=
201710182300 METAR MROC 182300Z 24004KT 200V280 9999 FEW010 SCT020 BKN100 23/22 A2993 NOSIG=
201710190000 METAR MROC 190000Z 26004KT 230V320 9999 SCT010 BKN020 23/22 A2995 NOSIG=
201710190100 METAR MROC 190100Z VRB02KT 9999 FEW010 SCT020 BKN045 23/21 A2997 NOSIG=
201710190200 METAR MROC 190200Z 21005KT 9999 FEW003 SCT015 22/21 A3000 NOSIG=
201710190300 METAR MROC 190300Z 10005KT 070V130 9999 FEW035 BKN200 22/20 A3001 NOSIG=
201710190400 METAR MROC 190400Z 23005KT 9999 BCFG FEW005 BKN200 21/21 A3001 BECMG 5000=
201710190500 METAR MROC 190500Z 00000KT 5000 BR SCT001 BKN200 21/21 A3001 NOSIG=
201710190600 METAR MROC 190600Z 00000KT CAVOK 21/20 A2999 NOSIG=
201710190700 METAR MROC 190700Z VRB02KT 9999 FEW035 BKN200 21/20 A2996 NOSIG=
201710190800 METAR MROC 190800Z 06004KT CAVOK 20/19 A2994 NOSIG=
201710190900 METAR MROC 190900Z 04004KT CAVOK 20/19 A2993 NOSIG=
201710191000 METAR MROC 191000Z 03007KT CAVOK 20/18 A2991 NOSIG=
201710191100 METAR MROC 191100Z 05006KT 020V100 FEW040 21/18 A2993 NOSIG=
201710191200 METAR MROC 191200Z 05005KT 020V090 CAVOK 21/18 A2995 NOSIG=
201710191300 METAR MROC 191300Z 11010KT 080V150 9999 FEW030 BKN200 24/19 A2997 NOSIG=
201710191400 METAR MROC 191400Z 11010KT 080V140 9999 FEW030 BKN200 24/19 A2999 NOSIG=
201710191500 METAR MROC 191500Z 10015KT 060V120 9999 FEW035 SCT080 BKN200 25/18 A3000 NOSIG=
201710191600 METAR MROC 191600Z 12011G21KT 090V160 9999 FEW040 SCT120 BKN200 25/18 A3000 NOSIG=
201710191700 METAR MROC 191700Z 12011G21KT 090V170 CAVOK 27/17 A2996 NOSIG=
201710191800 METAR MROC 191800Z 13010G20KT 090V160 CAVOK 27/16 A2995 NOSIG=
201710191900 METAR MROC 191900Z 16009KT 130V190 9999 FEW035 SCT120 BKN200 26/16 A2992 NOSIG=
201710192000 METAR MROC 192000Z 17008KT 140V200 CAVOK 27/17 A2990 BECMG 22006KT=
201710192100 METAR MROC 192100Z 24010KT 9999 FEW015 BKN120 24/22 A2989 NOSIG=
201710192200 METAR MROC 192200Z 25007KT 9999 FEW005 BKN015 23/21 A2993 BECMG 5000 BR=
201710192300 METAR MROC 192300Z 25005KT 9999 FEW010 BKN120 22/22 A2995 NOSIG=
201710200000 METAR MROC 200000Z 24008KT 240V310 9999 SCT005 BKN100 22/22 A2994 NOSIG=
201710200100 METAR MROC 200100Z 21003KT 9999 SCT004 SCT030 22/21 A2996 NOSIG=
201710200200 METAR MROC 200200Z 25004KT 7000 BKN010 22/21 A2999 BECMG 5000 BR=
201710200300 METAR MROC 200300Z 00000KT 8000 FEW002 BKN010 22/21 A2999 BECMG 5000 BR BKN005=
201710200400 METAR MROC 200400Z 04003KT 9999 SCT010 22/21 A2997 NOSIG=
201710200500 METAR MROC 200500Z 01003KT 310V110 CAVOK 22/21 A2996 NOSIG=
201710200600 METAR MROC 200600Z 08009KT 040V110 CAVOK 22/18 A2995 NOSIG=
201710200700 METAR MROC 200700Z 07007KT 040V100 CAVOK 21/18 A2993 NOSIG=
201710200800 METAR MROC 200800Z 06006KT 030V090 CAVOK 33/28 A2992 NOSIG=
201710200900 METAR MROC 200900Z 05005KT CAVOK 21/18 A2991 NOSIG=
201710201000 METAR MROC 201000Z 05005KT CAVOK 21/18 A2993 NOSIG=
201710201100 METAR MROC 201100Z 09005KT CAVOK 21/18 A2994 NOSIG=
201710201200 METAR MROC 201200Z 06010KT CAVOK 22/18 A2995 NOSIG=
201710201300 METAR MROC 201300Z 03007KT 360V060 CAVOK 23/18 A2997 NOSIG=
201710201400 METAR MROC 201400Z 07004KT 030V110 CAVOK 25/18 A2997 NOSIG=
201710201500 METAR MROC 201500Z 11010KT 080V170 CAVOK 27/19 A2997 NOSIG=
201710201600 METAR MROC 201600Z 25008KT 210V290 9999 FEW025 SCT060 26/20 A2998 NOSIG=
201710201700 METAR MROC 201700Z 25006KT 210V300 9999 FEW025 SCT060 26/21 A2995 NOSIG=
201710201800 METAR MROC 201800Z 23008KT 190V270 9999 SCT030 27/22 A2992 NOSIG=
201710201900 METAR MROC 201900Z 24011KT 9999 VCTS SCT030 27/22 A2990 NOSIG=
201710202000 METAR MROC 202000Z 03008KT 330V080 9999 -TS RA FEW010CB BKN030 23/18 A2989 NOSIG=
201710202100 METAR MROC 202100Z VRB02KT 9999 3000SW -TS SCT010CB FEW020TCU BKN300 21/19 A2988 RERA NOSIG=
201710202200 METAR MROC 202200Z VRB02KT 9999 FEW008 SCT010CB 21/19 A2989 NOSIG=
201710202300 METAR MROC 202300Z VRB02KT 9999 FEW003 FEW015CB SCT100 BKN200 22/19 A2990 NOSIG=
201710210000 METAR MROC 210000Z 24003KT 9999 FEW015 BKN060 21/20 A2991 NOSIG=
201710210100 METAR MROC 210100Z 00000KT 9999 FEW001 BKN050 21/20 A2994 NOSIG=
201710210200 METAR MROC 210200Z 00000KT 9999 FEW010 BKN045 21/20 A2996 NOSIG=
201710210300 METAR MROC 210300Z 00000KT 9999 FEW010 BKN040 21/20 A2997 NOSIG=
201710210400 METAR MROC 210400Z 18003KT 9999 -DZ FEW015 SCT040 21/20 A2997 NOSIG=
201710210500 METAR MROC 210500Z VRB02KT 9999 BKN040 21/20 A2997 NOSIG=
201710210600 METAR MROC 210600Z 00000KT 8000 2000E VCFG FEW002 BKN040 21/20 A2995 NOSIG=
201710210700 METAR MROC 210700Z 07003KT 030V090 9999 FEW010 SCT040 21/20 A2992 NOSIG=
201710210800 METAR MROC 210800Z VRB01KT 9999 FEW010 20/20 A2991 NOSIG=
201710210900 METAR MROC 210900Z VRB02KT 3000 BR FEW005 SCT010 BKN020 20/20 A2991 NOSIG=
201710211000 METAR MROC 211000Z VRB02KT 5000 BR FEW010 SCT020 21/20 A2990 NOSIG=
201710211100 METAR MROC 211100Z 09004KT 8000 VCFG FEW010 SCT250 20/19 A2992 NOSIG=
201710211200 METAR MROC 211200Z 06005KT CAVOK 20/19 A2994 NOSIG=
201710211300 METAR MROC 211300Z 07006KT CAVOK 22/18 A2997 NOSIG=
201710211400 METAR MROC 211400Z 07004KT CAVOK 24/19 A2998 NOSIG=
201710211500 METAR MROC 211500Z 26005KT 9999 FEW030 SCT060 BKN250 24/20 A3001 NOSIG=
201710211600 METAR MROC 211600Z 25006KT 220V320 9999 FEW030 SCT060 BKN200 25/21 A3000 NOSIG=
201710211700 METAR MROC 211700Z 24006KT 210V280 9999 FEW025 SCT050 BKN200 26/21 A2997 NOSIG=
201710211800 METAR MROC 211800Z 26007KT 220V300 9999 FEW025 FEW030TCU BKN250 27/21 A2993 NOSIG=
201710211900 METAR MROC 211900Z 25010KT 9999 FEW020 SCT030TCU SCT250 26/22 A2990 NOSIG=
201710212000 METAR MROC 212000Z 25010KT 9999 VCTS VCSH FEW015CB SCT025TCU SCT250 26/22 A2989 BECMG TSRA=
201710212100 METAR MROC 212100Z VRB02KT 3000 TSRA FEW002 FEW010CB BKN020 23/22 A2989 NOSIG=
201710212200 METAR MROC 212200Z 32003KT 280V030 8000 -RA FEW002 SCT020 BKN100 22/20 A2990 NOSIG=
201710212300 METAR MROC 212300Z 27004KT 230V320 5000 BR FEW002 SCT020 BKN100 22/21 A2992 NOSIG=
201710220000 METAR MROC 220000Z VRB02KT 5000 BR SCT001 BKN020 22/22 A2994 NOSIG=
201710220100 METAR MROC 220100Z 21003KT 3000 BR SCT001 BKN020 22/22 A2997 NOSIG=
201710220200 METAR MROC 220200Z VRB02KT 3000 -RA BR SCT001 BKN020 22/22 A2999 NOSIG=
201710220300 METAR MROC 220300Z 12003KT 080V160 8000 VCFG FEW001 SCT020 BKN100 22/21 A2999 NOSIG=
201710220400 METAR MROC 220400Z 01004KT 340V050 9999 FEW010 22/20 A3000 NOSIG=
201710220500 METAR MROC 220500Z 01003KT 9999 FEW025 22/20 A2998 NOSIG=
201710220600 METAR MROC 220600Z 03005KT 010V070 9999 FEW015 SCT090 21/20 A2996 NOSIG=
201710220700 METAR MROC 220700Z 14003KT 100V230 FEW002 21/20 A2993 NOSIG=
201710220800 METAR MROC 220800Z 21003KT CAVOK 20/20 A2993 NOSIG=
201710220900 METAR MROC 220900Z 06003KT 9999 FEW010 BKN045 20/19 A2993 NOSIG=
201710221000 METAR MROC 221000Z 06005KT CAVOK 20/19 A2994 NOSIG=
201710221100 METAR MROC 221100Z 06003KT 020V140 CAVOK 20/19 A2995 NOSIG=
201710221200 METAR MROC 221200Z 10004KT 070V140 CAVOK 20/19 A2997 NOSIG=
201710221300 METAR MROC 221300Z 09005KT CAVOK 23/19 A2998 NOSIG=
201710221400 METAR MROC 221400Z 22004KT CAVOK 23/20 A3001 NOSIG=
201710221500 METAR MROC 221500Z 26003KT 230V300 CAVOK 23/20 A3003 NOSIG=
201710221600 METAR MROC 221600Z VRB02KT 9999 FEW015 SCT060 BKN180 24/20 A3002 NOSIG=
201710221700 METAR MROC 221700Z 24005KT 190V280 9999 FEW015 BKN180 24/21 A3001 NOSIG=
201710221800 METAR MROC 221800Z 24004KT 190V300 9999 FEW025 BKN180 26/21 A2997 NOSIG=
201710221900 METAR MROC 221900Z 24009KT 220V280 9999 FEW020 FEW030TCU BKN200 25/22 A2994 NOSIG=
201710222000 METAR MROC 222000Z 25008KT 9999 FEW020TCU SCT020 25/22 A2991 NOSIG=
201710222100 METAR MROC 222100Z 23005KT 190V270 9999 SCT025 BKN250 25/21 A2990 NOSIG=
201710222200 METAR MROC 222200Z 21006KT 9999 SCT030 SCT130 24/21 A2992 NOSIG=
201710222300 METAR MROC 222300Z 26005KT 9999 FEW030 BKN250 23/21 A2993 NOSIG=
201710230000 METAR MROC 230000Z 26006KT 5000 BR SCT008 22/21 A2994 NOSIG=
201710230100 METAR MROC 230100Z 25004KT 9999 VCTS SCT008 22/21 A2997 NOSIG=
201710230200 METAR MROC 230200Z VRB03KT 8000 VCFG FEW007 SCT025 22/21 A3000 NOSIG=
201710230300 METAR MROC 230300Z 32003KT 8000 VCFG FEW005 SCT025 22/21 A3002 NOSIG=
201710230400 METAR MROC 230400Z 07004KT 9999 FEW020 SCT200 22/21 A2999 NOSIG=
201710230500 METAR MROC 230500Z 29006KT 9999 3000SW BCFG FEW003 BKN020 22/21 A3001 NOSIG=
201710230600 METAR MROC 230600Z 22003KT 3000 BR FEW001 BKN020 22/21 A2999 NOSIG=
201710230700 METAR MROC 230700Z VRB02KT 3000 -RA BR SCT002 BKN020 22/21 A2997 NOSIG=
201710230800 METAR MROC 230800Z VRB01KT 8000 VCFG FEW002 BKN025 21/21 A2994 NOSIG=
201710230900 METAR MROC NIL=
201710231000 METAR MROC 231000Z 28004KT 5000 BR FEW001 SCT010 BKN030 21/21 A2993 NOSIG=
201710231100 METAR MROC 231100Z 22003KT 5000 BR FEW001 SCT010 BKN030 21/21 A2995 NOSIG=
201710231200 METAR MROC 231200Z 00000KT 5000 BR FEW001 SCT010 BKN030 21/21 A2996 NOSIG=
201710231300 METAR MROC 231300Z 00000KT 6000 VCFG FEW002 BKN020 22/21 A2997 NOSIG=
201710231400 METAR MROC 231400Z 27003KT 230V330 9000 VCFG FEW007 SCT020 24/21 A3000 NOSIG=
201710231500 METAR MROC 231500Z VRB02KT 9000 FEW030 BKN200 26/21 A3000 NOSIG=
201710231600 METAR MROC 231600Z 25005KT 170V320 9999 FEW030 BKN200 26/21 A3000 NOSIG=
201710231700 METAR MROC 231700Z 25005KT 210V350 9999 VCTS FEW020CB FEW030 BKN180 27/22 A2996 NOSIG=
201710231800 METAR MROC 231800Z 24013KT 9999 VCTS VCSH FEW015CB SCT030 BKN100 24/22 A2993 NOSIG=
201710231900 METAR MROC 231900Z 22008KT 9999 4500N VCSH FEW010TCU FEW030 BKN100 24/22 A2991 NOSIG=
201710232000 METAR MROC 232000Z 24009KT 6000 VCFG FEW005 SCT020 BKN100 23/22 A2989 NOSIG=
201710232100 METAR MROC 232100Z 25008KT 220V280 5000 BR FEW005 SCT015 BKN030 23/22 A2989 BECMG BKN015=
201710232200 METAR MROC 232200Z 25008KT 5000 BR FEW005 SCT010 BKN025 22/22 A2991 BECMG 3000 RA BKN015=
201710232300 METAR MROC 232300Z 24006KT 3000 BR FEW002 SCT007 BKN020 21/21 A2992 BECMG 1200 RA BKN010=
201710240000 METAR MROC 240000Z 30003KT 240V350 8000 -RA VCTS VCFG FEW010 FEW015CB SCT025 BKN100 22/21 A2994 BECMG 5000 BR=
201710240100 METAR MROC 240100Z VRB02KT 8000 3000SW -RA VCFG FEW010 SCT025 BKN100 21/21 A2996 NOSIG=
201710240200 METAR MROC 240200Z VRB02KT 9999 BCFG FEW005 SCT010 BKN100 21/21 A2998 NOSIG=
201710240300 METAR MROC 240300Z 26003KT 240V320 9999 BCFG FEW010 SCT030 BKN100 21/20 A2998 BECMG 5000 BR BKN010=
201710240400 METAR MROC 240400Z VRB02KT 7000 2000W BCFG SCT002 SCT015 21/21 A2999 BECMG 5000 BR BKN010=
201710240500 METAR MROC 240500Z 30003KT 3000 R07/0650D BR BCFG SCT002 BKN120 21/20 A3000 NOSIG=
201710240600 METAR MROC 240600Z 36005KT 9000 3500W BCFG FEW003 SCT012 BKN170 21/20 A2996 NOSIG=
201710240700 METAR MROC 240700Z 19003KT 9000 4000NE BCFG FEW002 SCT040 BKN180 21/20 A2995 NOSIG=
201710240800 METAR MROC 240800Z VRB02KT 9999 BCFG FEW002 SCT040 BKN180 21/20 A2993 NOSIG=
201710240900 METAR MROC 240900Z 13003KT CAVOK 20/20 A2991 NOSIG=
201710241000 METAR MROC 241000Z 07003KT 9999 4000W BCFG FEW040 BKN200 20/20 A2992 NOSIG=
201710241100 METAR MROC 241100Z 05005KT 010V070 9999 FEW045 SCT060 BKN200 21/20 A2994 NOSIG=
201710241200 METAR MROC 241200Z 07002KT 9999 FEW025 BKN130 20/19 A2995 NOSIG=
201710241300 METAR MROC 241300Z VRB02KT 9999 BCFG FEW010 SCT040 BKN120 22/20 A2998 NOSIG=
201710241400 METAR MROC 241400Z 22004KT 170V250 8000 VCFG FEW025 SCT120 BKN200 23/21 A2999 NOSIG=
201710241500 METAR MROC 241500Z 30004KT 260V360 9999 SCT025 BKN200 24/20 A3001 NOSIG=
201710241600 METAR MROC 241600Z 26006KT 220V290 9999 SCT020 BKN200 25/21 A3000 NOSIG=
201710241700 METAR MROC 241700Z 27007KT 190V330 9999 BKN020 SCT200 25/21 A2998 NOSIG=
201710241800 METAR MROC 241800Z 24010KT 9999 FEW015 SCT025 BKN200 25/21 A2995 NOSIG=
201710241900 METAR MROC 241900Z 22009KT 9999 FEW015 SCT025 BKN200 25/21 A2992 NOSIG=
201710242000 METAR MROC 242000Z 21010KT 180V280 9999 SCT015 BKN025 23/20 A2991 NOSIG=
201710242100 METAR MROC 242100Z 25008KT 9999 BKN010 21/20 A2991 BECMG 5000 BR=
201710242200 METAR MROC 242200Z 27006KT 240V310 9999 VCSH BKN012 21/20 A2993 BECMG 5000 BR=
201710242300 METAR MROC 242300Z 35004KT 290V020 9999 VCSH FEW008 SCT030 BKN100 21/20 A2993 BECMG RA=
201710250000 METAR MROC 250000Z 27003KT 220V320 9999 FEW010 SCT020 BKN100 22/19 A2993 NOSIG=
201710250100 METAR MROC 250100Z VRB02KT 9999 FEW020 BKN100 21/20 A2995 NOSIG=
201710250200 METAR MROC 250200Z 00000KT CAVOK 21/20 A2998 NOSIG=
201710250300 METAR MROC 250300Z 20002KT 9999 SCT030 BKN110 21/20 A2999 NOSIG=
201710250400 METAR MROC 250400Z 00000KT 9999 FEW030 BKN100 21/20 A3000 NOSIG=
201710250500 METAR MROC 250500Z 22003KT 9999 VCFG FEW005 SCT030 BKN100 21/20 A3000 BECMG 5000 BR BKN015=
201710250600 METAR MROC 250600Z VRB02KT 5000 -RA BR SCT002 BKN030 20/20 A2998 NOSIG=
201710250700 METAR MROC 250700Z VRB02KT 7000 DZ VCFG FEW008 SCT030 BKN070 20/20 A2996 NOSIG=
201710250800 METAR MROC 250800Z 19003KT 7000 VCFG FEW005 SCT030 BKN100 20/20 A2994 NOSIG=
201710250900 METAR MROC 250900Z 03003KT 9000 VCFG FEW003 SCT030 BKN100 20/20 A2993 NOSIG=
201710251000 METAR MROC 251000Z 10005KT 9999 FEW030 BKN100 20/20 A2992 NOSIG=
201710251100 METAR MROC 251100Z 00000KT 9999 VCFG FEW005 SCT040 BKN100 20/20 A2995 NOSIG=
201710251200 METAR MROC 251200Z VRB02KT 9000 VCFG FEW003 SCT040 BKN070 21/20 A2997 NOSIG=
201710251300 METAR MROC 251300Z 28005KT 250V330 9999 SCT005 BKN030 21/20 A2999 NOSIG=
201710251400 METAR MROC 251400Z 25003KT 210V310 9999 BCFG SCT005 BKN030 21/20 A3001 NOSIG=
201710251500 METAR MROC 251500Z 26005KT 9999 SCT010 BKN030 21/20 A3003 NOSIG=
201710251600 METAR MROC 251600Z 30006KT 280V340 9999 FEW010 SCT030 BKN070 22/20 A3003 NOSIG=
201710251700 METAR MROC 251700Z 29007KT 250V340 5000 -RA VCFG FEW003 SCT020 BKN070 21/20 A3001 NOSIG=
201710251800 METAR MROC 251800Z 24007KT 8000 -RA VCFG FEW002 SCT010 BKN030 21/20 A2998 NOSIG=
201710251900 METAR MROC 251900Z 25005KT 160V290 8000 -RA VCFG FEW002 SCT010 BKN030 21/20 A2996 NOSIG=
201710252000 METAR MROC 252000Z 23006KT 210V270 8000 -DZ VCFG SCT007 BKN020 21/20 A2994 NOSIG=
201710252100 METAR MROC 252100Z 29007KT 9999 VCFG FEW010 BKN090 21/19 A2993 NOSIG=
201710252200 METAR MROC 252200Z 28005KT 9999 FEW012 BKN120 21/18 A2996 NOSIG=
201710252300 METAR MROC 252300Z 27005KT 220V340 9999 FEW010 BKN060 21/18 A2997 NOSIG=
201710260000 METAR MROC 260000Z 33005KT 290V020 9999 BKN012 21/19 A2998 NOSIG=
201710260100 METAR MROC 260100Z 31005KT 290V360 9999 SCT010 BKN140 20/19 A3000 NOSIG=
201710260200 METAR MROC 260200Z 33003KT 290V030 9999 -RA FEW009 BKN140 20/19 A3003 NOSIG=
201710260300 METAR MROC 260300Z VRB02KT 9999 -RA FEW009 SCT100 20/19 A3004 NOSIG=
201710260400 METAR MROC 260400Z 13004KT 090V150 CAVOK 20/19 A3002 NOSIG=
201710260500 METAR MROC 260500Z 11004KT 080V140 CAVOK 20/19 A3000 NOSIG=
201710260600 METAR MROC 260600Z VRB02KT CAVOK 20/19 A2998 NOSIG=
201710260700 METAR MROC 260700Z 06005KT CAVOK 20/18 A2994 NOSIG=
201710260800 METAR MROC 260800Z 10004KT CAVOK 19/17 A2992 NOSIG=
201710260900 METAR MROC 260900Z 03003KT CAVOK 19/18 A2993 NOSIG=
201710261000 METAR MROC 261000Z VRB02KT CAVOK 19/18 A2994 NOSIG=
201710261100 METAR MROC 261100Z 07004KT 9999 -RA NSC 19/18 A2996 NOSIG=
201710261200 METAR MROC 261200Z 09004KT CAVOK 19/18 A2998 NOSIG=
201710261300 METAR MROC 261300Z 09003KT CAVOK 21/18 A2999 NOSIG=
201710261400 METAR MROC 261400Z 00000KT 9999 FEW040 BKN070 23/18 A3001 NOSIG=
201710261500 METAR MROC 261500Z VRB02KT 9999 VCSH FEW030 BKN070 22/19 A3003 NOSIG=
201710261600 METAR MROC 261600Z 09004KT 060V150 9999 FEW030 BKN070 22/19 A3000 NOSIG=
201710261700 METAR MROC 261700Z 24009KT 160V280 9999 FEW040 BKN070 24/18 A2998 NOSIG=
201710261800 METAR MROC 261800Z 25007KT 210V280 9999 FEW040 BKN100 25/20 A2995 NOSIG=
201710261900 METAR MROC 261900Z 24009KT 210V280 9999 FEW030 BKN100 23/20 A2993 NOSIG=
201710262000 METAR MROC 262000Z 30003KT 250V350 9999 FEW030 BKN100 24/20 A2991 NOSIG=
201710262100 METAR MROC 262100Z 24007KT 9999 SCT020 BKN110 23/20 A2990 NOSIG=
201710262200 METAR MROC 262200Z 25007KT 5000 2000SW -RA BR SCT004 BKN015 21/20 A2992 NOSIG=
201710262210 METAR MROC 262210Z 24007KT 3000 RA BR SCT003 BKN015 21/20 A2992 NOSIG=
201710262300 METAR MROC 262300Z 23006KT 3000 RA BR SCT003 BKN015 20/19 A2995 NOSIG=
201710270000 METAR MROC 270000Z 21008KT 170V230 3500 +RA BR FEW003 SCT006 BKN020 19/19 A2998 NOSIG=
201710270100 METAR MROC 270100Z 03005KT 350V070 9999 -RA FEW006 BKN025 20/19 A3000 NOSIG=
201710270200 METAR MROC 270200Z 23005KT 9000 2500SW RA SCT003 BKN025 19/19 A3003 NOSIG=
201710270300 METAR MROC 270300Z 32004KT 250V010 9999 3000W -RA BCFG FEW004 BKN020 19/19 A3004 NOSIG=
201710270400 METAR MROC 270400Z VRB02KT 9999 DZ FEW005 BKN015 19/19 A3004 NOSIG=
201710270500 METAR MROC 270500Z 08004KT 9999 -DZ FEW009 BKN140 19/19 A3002 NOSIG=
201710270600 METAR MROC 270600Z 10003KT 9999 -RA NSC 19/19 A3000 NOSIG=
201710270700 METAR MROC 270700Z 09003KT 9999 -RA NSC 19/19 A2998 NOSIG=
201710270800 METAR MROC 270800Z 09004KT 9999 -RA NSC 19/19 A2997 NOSIG=
201710270900 METAR MROC 270900Z 07004KT 9999 -RA NSC 19/19 A2998 NOSIG=
201710271000 METAR MROC 271000Z 16003KT CAVOK 19/18 A2996 NOSIG=
201710271100 METAR MROC 271100Z 06004KT CAVOK 19/18 A2996 NOSIG=
201710271200 METAR MROC 271200Z 11004KT CAVOK 19/18 A2997 NOSIG=
201710271300 METAR MROC 271300Z 08003KT 9999 SCT030 BKN150 20/19 A2999 NOSIG=
201710271400 METAR MROC 271400Z 24004KT 130V260 9999 SCT035 BKN150 22/19 A3001 NOSIG=
201710271500 METAR MROC 271500Z 26003KT 220V350 5000 -RA BR FEW003 BKN030 21/20 A3003 NOSIG=
201710271600 METAR MROC 271600Z VRB02KT 5000 2000SW -RA BR FEW005 BKN030 22/20 A3003 NOSIG=
201710271700 METAR MROC 271700Z VRB02KT 4000 1500SW -RA BR FEW005 BKN030 22/20 A3001 NOSIG=
201710271800 METAR MROC 271800Z 26003KT 9999 FEW005 SCT030 BKN100 24/21 A2997 NOSIG=
201710271900 METAR MROC 271900Z 22007KT 9999 -DZ BKN040 24/21 A2994 NOSIG=
201710272000 METAR MROC 272000Z 26007KT 200V290 9999 SCT035 BKN200 24/21 A2992 NOSIG=
201710272100 METAR MROC 272100Z 25009KT 220V280 9999 FEW005 SCT020 BKN200 24/20 A2993 NOSIG=
201710272200 METAR MROC 272200Z 32010KT 3000 -RA BR SCT004 BKN020 19/18 A2999 NOSIG=
201710272300 METAR MROC 272300Z 36003KT 330V050 3000 -RA BR FEW005 BKN020 19/18 A3000 NOSIG=
201710280000 METAR MROC 280000Z 100004KT 9999 -RA BCFG FEW010 SCT020 OVC100 19/18 A3001 NOSIG=
201710280100 METAR MROC 280100Z 11006KT CAVOK 19/18 A3002 NOSIG=
201710280200 METAR MROC 280200Z 09007KT 9999 -RA NSC 20/18 A3003 NOSIG=
201710280300 METAR MROC 280300Z 10007KT CAVOK 20/18 A3003 NOSIG=
201710280400 METAR MROC 280400Z 09004KT 9999 -RA BCFG BKN045 20/18 A3003 NOSIG=
201710280500 METAR MROC 280500Z 22004KT 5000 -RA BR SCT002 BKN030 19/19 A3005 NOSIG=
201710280600 METAR MROC 280600Z 09004KT 060V120 8000 RA VCFG FEW010 BKN070 19/18 A3003 NOSIG=
201710280700 METAR MROC 280700Z 08004KT 9999 -RA NSC 19/18 A2999 NOSIG=
201710280800 METAR MROC 280800Z 07005KT 9999 -RA NSC 19/18 A2997 NOSIG=
201710280900 METAR MROC 280900Z 26004KT 220V360 9999 -RA BCFG FEW010 BKN100 19/18 A2999 BECMG 5000 BR=
201710281000 METAR MROC 281000Z VRB02KT 3000 -RA BR SCT002 BKN015 19/19 A3001 NOSIG=
201710281100 METAR MROC 281100Z 08006KT 9999 FEW035 OVC120 19/18 A3000 NOSIG=
201710281200 METAR MROC 281200Z 10005KT 9999 -RA NSC 19/18 A3002 NOSIG=
201710281300 METAR MROC 281300Z 30005KT 190V340 8000 2000E -RA VCFG FEW002 SCT010 BKN100 19/19 A3006 NOSIG=
201710281400 METAR MROC 281400Z 15003KT 110V200 SCT010 BKN100 20/19 A3007 NOSIG=
201710281500 METAR MROC 281500Z 15004KT 100V200 9999 FEW030 SCT100 BKN180 22/20 A3008 NOSIG=
201710281600 METAR MROC 281600Z 25005KT 210V290 9999 FEW030 BKN060 23/19 A3008 NOSIG=
201710281700 METAR MROC 281700Z 25007KT 9999 FEW030 BKN060 23/18 A3008 NOSIG=
201710281800 METAR MROC 281800Z 23008KT 9999 FEW035 SCT060 BKN140 23/18 A3005 NOSIG=
201710281900 METAR MROC 281900Z 24006KT 210V280 CAVOK 23/19 A3001 NOSIG=
201710282000 METAR MROC 282000Z 24007KT 200V270 CAVOK 24/20 A2999 NOSIG=
201710282100 METAR MROC 282100Z 22006KT CAVOK 23/18 A2999 NOSIG=
201710282200 METAR MROC 282200Z 25004KT CAVOK 23/19 A3001 NOSIG=
201710282300 METAR MROC 282300Z 32003KT CAVOK 23/18 A3002 NOSIG=
201710290000 METAR MROC 290000Z 34002KT CAVOK 23/18 A3002 NOSIG=
201710290100 METAR MROC 290100Z 19003KT CAVOK 21/20 A3005 NOSIG=
201710290200 METAR MROC 290200Z VRB01KT CAVOK 20/19 A3006 NOSIG=
201710290300 METAR MROC 290300Z VRB02KT 1000 BR SCT002 20/20 A3007 NOSIG=
201710290400 METAR MROC 290400Z 06003KT 020V080 CAVOK 19/19 A3005 NOSIG=
201710290500 METAR MROC 290500Z VRB02KT CAVOK 20/17 A3004 NOSIG=
201710290600 METAR MROC 290600Z 00000KT CAVOK 19/18 A3003 NOSIG=
201710290700 METAR MROC 290700Z 15002KT 9999 2000SW BCFG FEW002 BKN250 18/18 A3001 NOSIG=
201710290800 METAR MROC 290800Z VRB02KT 9999 BCFG FEW002 BKN250 18/18 A3002 NOSIG=
201710290900 METAR MROC 290900Z 10003KT CAVOK 18/18 A3001 NOSIG=
201710291000 METAR MROC 291000Z VRB02KT CAVOK 19/17 A3000 NOSIG=
201710291100 METAR MROC 291100Z VRB02KT CAVOK 18/16 A3002 NOSIG=
201710291200 METAR MROC 291200Z 10003KT CAVOK 18/17 A3006 NOSIG=
201710291300 METAR MROC 291300Z VRB02KT CAVOK 20/18 A3008 NOSIG=
201710291400 METAR MROC 291400Z VRB02KT CAVOK 23/18 A3008 BECMG 22006KT=
201710291500 METAR MROC 291500Z 24003KT 160V300 CAVOK 25/17 A3008 NOSIG=
201710291600 METAR MROC 291600Z 24007KT 220V280 CAVOK 25/20 A3007 NOSIG=
201710291700 METAR MROC 291700Z 24005KT 190V320 9999 FEW040 26/19 A3004 NOSIG=
201710291800 METAR MROC 291800Z 24010KT 200V280 9999 FEW040 SCT180 26/20 A3001 NOSIG=
201710291900 METAR MROC 291900Z 24009KT 210V270 9999 FEW025TCU FEW035 SCT180 27/22 A2998 NOSIG=
201710292000 METAR MROC 292000Z 25009KT 210V270 9999 FEW025TCU SCT035 BKN180 26/21 A2996 NOSIG=
201710292100 METAR MROC 292100Z 26010KT 9999 VCTS FEW015 FEW020CB FEW020TCU 24/21 A2997 NOSIG=
201710292200 METAR MROC 292200Z 27008KT 220V310 9999 RA VCTS SCT010 BKN035 20/19 A2998 NOSIG=
201710292300 METAR MROC 292300Z VRB02KT 9999 BKN012 22/20 A2999 NOSIG=
201710300000 METAR MROC 300000Z VRB02KT 9999 FEW015 BKN020 22/21 A3001 NOSIG=
201710300100 METAR MROC 300100Z 23004KT 9999 BKN010 21/21 A3004 NOSIG=
201710300200 METAR MROC 300200Z 26004KT 9000 VCFG FEW002 BKN100 21/21 A3007 NOSIG=
201710300300 METAR MROC 300300Z 25003KT 210V300 8000 BCFG OVC007 21/21 A3008 BECMG 3000 BR BKN005=
201710300400 METAR MROC 300400Z VRB02KT 8000 -RA VCFG FEW004 SCT015 BKN100 21/21 A3007 NOSIG=
201710300500 METAR MROC 300500Z VRB01KT 8000 VCFG FEW004 SCT100 21/20 A3005 NOSIG=
201710300600 METAR MROC 300600Z 24005KT 2000 BR SCT002 SCT100 21/20 A3004 NOSIG=
201710300700 METAR MROC 300700Z VRB02KT 9999 4000W BR FEW002 SCT110 20/20 A3003 NOSIG=
201710300800 METAR MROC 300800Z 08004KT CAVOK 19/19 A3000 NOSIG=
201710300900 METAR MROC 300900Z 06005KT CAVOK 19/17 A3000 NOSIG=
201710301000 METAR MROC 301000Z 04006KT CAVOK 19/17 A3001 NOSIG=
201710301100 METAR MROC 301100Z 08003KT CAVOK 19/17 A3002 NOSIG=
201710301200 METAR MROC 301200Z 05003KT 9999 FEW005 SCT250 19/17 A3004 NOSIG=
201710301300 METAR MROC 301300Z 04004KT 9999 FEW020 BKN200 20/17 A3003 BECMG 22006KT=
201710301400 METAR MROC 301400Z 27003KT CAVOK 23/18 A3005 NOSIG=
201710301500 METAR MROC 301500Z 29006KT 220V320 9999 4500SW BCFG FEW045 SCT250 25/18 A3007 NOSIG=
201710301600 METAR MROC 301600Z 29006KT 220V290 9999 VCFG FEW030 SCT035 BKN130 25/20 A3007 NOSIG=
201710301700 METAR MROC 301700Z 24006KT 210V280 9999 BKN045 24/20 A3004 BECMG RA=
201710301800 METAR MROC 301800Z 25006KT 9999 -RA VCFG FEW025 BKN090 23/20 A3002 NOSIG=
201710301900 METAR MROC 301900Z 24006KT 9999 FEW030 BKN140 24/20 A3000 NOSIG=
201710302000 METAR MROC 302000Z 25003KT 200V280 9999 SCT030 BKN120 24/20 A2997 NOSIG=
201710302100 METAR MROC 302100Z 24004KT 200V280 9999 SCT030 BKN120 24/20 A2997 NOSIG=
201710302200 METAR MROC 302200Z 21005KT 140V260 9999 VCSH SCT030 BKN100 23/22 A2997 NOSIG=
201710302300 METAR MROC 302300Z 27006KT 9999 FEW030 BKN100 21/20 A2999 NOSIG=
201710310000 METAR MROC 310000Z VRB02KT 9999 FEW002 SCT020 BKN100 21/21 A3000 NOSIG=
201710310100 METAR MROC 310100Z 23003KT 8000 VCFG FEW005 SCT020 BKN120 21/20 A3003 NOSIG=
201710310200 METAR MROC 310200Z 00000KT 8000 VCFG FEW004 SCT020 BKN120 21/20 A3005 NOSIG=
201710310300 METAR MROC 310300Z 00000KT 8000 VCFG FEW004 SCT020 BKN200 20/20 A3005 NOSIG=
201710310400 METAR MROC 310400Z 00000KT 8000 VCFG FEW004 SCT020 BKN200 21/20 A3007 NOSIG=
201710310500 METAR MROC 310500Z 09004KT CAVOK 20/19 A3004 NOSIG=
201710310600 METAR MROC 310600Z 07007KT CAVOK 20/18 A3001 NOSIG=
201710310700 METAR MROC 310700Z 07009KT CAVOK 21/18 A3000 NOSIG=
201710310800 METAR MROC 310800Z 10005KT CAVOK 19/17 A2998 NOSIG=
201710310900 METAR MROC 310900Z 02003KT 330V050 CAVOK 18/17 A2999 NOSIG=
201710311000 METAR MROC 311000Z 09004KT 060V120 CAVOK 20/17 A2998 NOSIG=
201710311100 METAR MROC 311100Z 05006KT CAVOK 18/16 A3000 NOSIG=
201710311200 METAR MROC 311200Z 05004KT 020V110 9999 FEW040 19/16 A3003 NOSIG=
201710311300 METAR MROC 311300Z 05005KT 010V070 9999 FEW040 21/18 A3004 NOSIG=
201710311400 METAR MROC 311400Z 10006KT 060V130 9999 FEW040 21/18 A3005 NOSIG=
201710311500 METAR MROC 311500Z 19006KT 9999 FEW040 25/19 A3006 NOSIG=
201710311600 METAR MROC 311600Z 24008KT 9999 SCT035 25/19 A3005 NOSIG=
201710311700 METAR MROC 311700Z 25007KT 220V310 9999 SCT030 26/19 A3003 NOSIG=
201710311800 METAR MROC 311800Z 23010KT 200V260 9999 FEW010TCU BKN030 25/21 A3000 NOSIG=
201710311900 METAR MROC 311900Z 34006KT 310V010 5000 -RA BR FEW001 SCT010 BKN030 22/21 A2999 NOSIG=
201710312000 METAR MROC 312000Z 28004KT 230V310 9999 VCTS FEW010CB SCT030 BKN100 22/21 A2996 NOSIG=
201710312100 METAR MROC 312100Z 24007KT 5000 0500SW -RA BR SCT002 BKN010 21/21 A2997 BECMG 0500 FG VV///=
201710312200 METAR MROC 312200Z 27005KT 240V330 4000 1500SW -RA BR FEW002 SCT020 BKN100 21/20 A2997 NOSIG=
201710312300 METAR MROC 312300Z 36004KT 340V060 9999 FEW025 BKN110 21/20 A2996 NOSIG=
201711010000 METAR MROC 010000Z 03006KT 9999 FEW025 BKN130 21/20 A2997 NOSIG=
201711010100 METAR MROC 010100Z 10003KT CAVOK 20/19 A2998 NOSIG=
201711010200 METAR MROC 010200Z 34003KT CAVOK 20/19 A3001 NOSIG=
201711010300 METAR MROC 010300Z 35003KT 300V050 CAVOK 20/19 A3001 NOSIG=
201711010400 METAR MROC 010400Z 06005KT 020V080 9999 FEW025 19/18 A3000 NOSIG=
201711010500 METAR MROC 010500Z 08005KT 9999 FEW020 19/17 A2999 NOSIG=
201711010600 METAR MROC 010600Z 04005KT 9999 FEW025 19/17 A2999 NOSIG=
201711010700 METAR MROC 010700Z 08004KT 9999 FEW025 SCT120 18/17 A2998 NOSIG=
201711010800 METAR MROC 010800Z 06004KT 9999 FEW030 18/16 A2996 NOSIG=
201711010900 METAR MROC 010900Z 04005KT 9999 FEW025 18/17 A2996 NOSIG=
201711011000 METAR MROC 011000Z 05006KT 010V100 9999 FEW025 18/17 A2997 NOSIG=
201711011100 METAR MROC 011100Z 05008KT 9999 FEW010 18/16 A2998 NOSIG=
201711011200 METAR MROC 011200Z 05008KT CAVOK 19/17 A2999 NOSIG=
201711011300 METAR MROC 011300Z 12004KT 090V180 CAVOK 23/18 A3002 NOSIG=
201711011400 METAR MROC 011400Z 13005KT 080V180 9999 FEW040 SCT250 24/18 A3002 BECMG 24007KT=
201711011500 METAR MROC 011500Z 13007KT 080V170 9999 FEW040 26/17 A3004 BECMG 24007KT=
201711011600 METAR MROC 011600Z 17005KT 100V220 9999 FEW040 28/17 A3004 NOSIG=
201711011700 METAR MROC 011700Z 24009KT 210V300 9999 SCT040 26/20 A3002 NOSIG=
201711011800 METAR MROC 011800Z 24010KT 210V270 9999 FEW025TCU BKN035 25/20 A3000 NOSIG=
201711011900 METAR MROC 011900Z 26008KT 220V320 9999 BKN035 26/20 A2996 NOSIG=
201711012000 METAR MROC 012000Z 26006KT 230V300 9999 FEW020TCU BKN035 26/21 A2994 NOSIG=
201711012100 METAR MROC 012100Z 24008KT 210V270 9999 FEW020 SCT035 25/21 A2992 NOSIG=
201711012200 METAR MROC 012200Z 24009KT 9999 -RA FEW012TCU BKN030 23/21 A2993 NOSIG=
201711012300 METAR MROC 012300Z 24005KT 4000 1500SW -RA BR FEW003 SCT010 BKN030 22/21 A2994 BECMG 1200 BKN010=
201711020000 METAR MROC 020000Z 22003KT 6000 2000SW BCFG FEW003 SCT010 BKN030 22/21 A2996 NOSIG=
201711020100 METAR MROC 020100Z 26005KT 2000 BR FEW002 SCT010 BKN025 21/21 A2997 NOSIG=
201711020200 METAR MROC 020200Z 26003KT 3000 BR FEW002 SCT010 BKN025 21/20 A3001 NOSIG=
201711020300 METAR MROC 020300Z 27004KT VCFG FEW002 SCT030 21/20 A3002 NOSIG=
201711020400 METAR MROC 020400Z 27003KT 5000 BR FEW001 SCT030 21/20 A3003 NOSIG=
201711020500 METAR MROC 020500Z 03004KT 360V060 8000 VCFG FEW010 SCT030 21/20 A3003 NOSIG=
201711020600 METAR MROC 020600Z 12003KT 010V180 8000 VCFG FEW001 SCT030 21/20 A3001 NOSIG=
201711020700 METAR MROC 020700Z 02004KT 360V060 9999 FEW010 20/19 A2998 NOSIG=
201711020800 METAR MROC 020800Z 05005KT 010V070 CAVOK 20/18 A2997 NOSIG=
201711020900 METAR MROC 020900Z 05004KT CAVOK 20/18 A2995 NOSIG=
201711021000 METAR MROC 021000Z 08007KT 040V120 CAVOK 21/17 A2995 NOSIG=
201711021100 METAR MROC 021100Z 10010KT CAVOK 22/17 A2998 NOSIG=
201711021200 METAR MROC 021200Z 10005KT 9999 FEW030 BKN200 20/17 A3000 NOSIG=
201711021300 METAR MROC 021300Z 12007KT 9999 FEW045 SCT130 23/18 A3003 NOSIG=
201711021400 METAR MROC 021400Z 13005KT CAVOK 24/18 A3003 NOSIG=
201711021500 METAR MROC 021500Z 11006KT CAVOK 25/18 A3003 NOSIG=
201711021600 METAR MROC 021600Z 09010KT 050V140 9999 FEW045 SCT130 27/18 A3005 NOSIG=
201711021700 METAR MROC 021700Z 11012KT 9999 FEW035 BKN130 26/18 A3002 NOSIG=
201711021800 METAR MROC 021800Z 08008KT 9999 -RA FEW040 BKN130 25/19 A3000 NOSIG=
201711021900 METAR MROC 021900Z 08009KT CAVOK 25/18 A2998 NOSIG=
201711022000 METAR MROC 022000Z 10009KT CAVOK 27/18 A2996 NOSIG=
201711022100 METAR MROC 022100Z 09009KT 060V120 9999 FEW030 SCT100 BKN200 25/19 A2995 NOSIG=
201711022200 METAR MROC 022200Z 13005KT 080V190 9999 FEW030 SCT100 BKN200 26/19 A2995 NOSIG=
201711022232 METAR MROC 022232Z 23008KT 210V270 9999 FEW010 SCT035 BKN200 23/21 A2996 NOSIG=
201711022300 METAR MROC 022300Z 27005KT 250V340 9999 FEW005 SCT035 BKN200 23/21 A2998 NOSIG=
201711030000 METAR MROC 030000Z 22003KT 190V270 9999 FEW005 SCT030 22/21 A2999 NOSIG=
201711030100 METAR MROC 030100Z 10003KT 9999 FEW030 22/20 A3000 NOSIG=
201711030200 METAR MROC 030200Z 00000KT 9999 FEW030 SCT180 22/21 A3001 NOSIG=
201711030300 METAR MROC 030300Z 01004KT CAVOK 22/21 A3002 NOSIG=
201711030400 METAR MROC 030400Z 09007KT 060V130 9999 FEW035 SCT120 22/18 A3000 NOSIG=
201711030500 METAR MROC 030500Z VRB02KT 9999 FEW035 SCT120 22/18 A2999 NOSIG=
201711030600 METAR MROC 030600Z 05004KT CAVOK 21/19 A3000 NOSIG=
201711030700 METAR MROC 030700Z 07004KT CAVOK 21/18 A2997 NOSIG=
201711030800 METAR MROC 030800Z VRB02KT CAVOK 22/18 A2996 NOSIG=
201711030900 METAR MROC 030900Z 11006KT 070V150 CAVOK 22/18 A2995 NOSIG=
201711031000 METAR MROC 031000Z 11005KT 070V160 CAVOK 22/18 A2998 NOSIG=
201711031100 METAR MROC 031100Z 03003KT 360V120 CAVOK 20/18 A2998 NOSIG=
201711031200 METAR MROC 031200Z VRB02KT 9999 FEW040 BKN250 21/18 A3000 NOSIG=
201711031300 METAR MROC 031300Z 12006KT 080V170 9999 FEW040 SCT250 24/19 A3001 NOSIG=
201711031400 METAR MROC 031400Z 13008KT 090V180 9999 FEW040 SCT250 26/19 A3003 NOSIG=
201711031500 METAR MROC 031500Z 11010KT 080V180 9999 FEW035 SCT120 27/18 A3005 NOSIG=
201711031600 METAR MROC 031600Z 11007KT 070V150 9999 SCT035 BKN200 28/18 A3003 NOSIG=
201711031700 METAR MROC 031700Z 25009KT 9999 FEW035 SCT045 BKN200 25/21 A3002 NOSIG=
201711031800 METAR MROC 031800Z 23008KT 210V270 9999 SCT040 BKN250 25/22 A3000 NOSIG=
201711031900 METAR MROC 031900Z 25010KT 210V270 9999 SCT040 BKN250 26/22 A2996 NOSIG=
201711032000 METAR MROC 032000Z 23010KT 9999 SCT040 BKN250 26/22 A2994 NOSIG=
201711032100 METAR MROC 032100Z 24012KT 9999 BKN010 25/22 A2993 BECMG RA=
201711032200 METAR MROC 032200Z 24009KT 9999 BKN010 24/22 A2995 NOSIG=
201711032300 METAR MROC 032300Z 24009KT 6000 BKN010 22/21 A2997 BECMG 3000 BR=
201711040000 METAR MROC 040000Z 25006KT 230V290 9999 OVC008 22/21 A2999 NOSIG=
201711040100 METAR MROC 040100Z 26005KT 240V320 7000 3000SW -RA BCFG OVC008 22/21 A3002 NOSIG=
201711040200 METAR MROC 040200Z VRB02KT 9999 VCFG FEW006 SCT100 21/20 A3004 NOSIG=
201711040300 METAR MROC 040300Z VRB02KT 9999 FEW010 21/20 A3004 NOSIG=
201711040400 METAR MROC 040400Z VRB02KT 9999 FEW030 21/20 A3003 NOSIG=
201711040500 METAR MROC 040500Z 09004KT CAVOK 21/20 A3002 NOSIG=
201711040600 METAR MROC 040600Z 06006KT 9999 -RA NSC 21/19 A3001 NOSIG=
201711040700 METAR MROC 040700Z 01004KT CAVOK 20/19 A2997 NOSIG=
201711040800 METAR MROC 040800Z 07004KT CAVOK 21/18 A2994 NOSIG=
201711040900 METAR MROC 040900Z 11006KT CAVOK 21/17 A2994 NOSIG=
201711041000 METAR MROC 041000Z 02005KT CAVOK 19/18 A2996 NOSIG=
201711041100 METAR MROC 041100Z 06006KT CAVOK 19/18 A2998 NOSIG=
201711041200 METAR MROC 041200Z 07005KT CAVOK 20/18 A2999 NOSIG=
201711041300 METAR MROC 041300Z 11009KT CAVOK 22/18 A3000 NOSIG=
201711041400 METAR MROC 041400Z 11007KT CAVOK 25/18 A3002 NOSIG=
201711041500 METAR MROC 041500Z 24005KT CAVOK 26/19 A3002 NOSIG=
201711041600 METAR MROC 041600Z 26010KT 9999 FEW045 BKN050 24/20 A3002 NOSIG=
201711041700 METAR MROC 041700Z 25008KT 9999 FEW035 BKN300 26/20 A3000 NOSIG=
201711041800 METAR MROC 041800Z 24008KT 9999 BKN045 25/19 A2997 NOSIG=
201711041900 METAR MROC 041900Z 25006KT 9999 3500SW RA BKN045 23/22 A2996 NOSIG=
201711042000 METAR MROC 042000Z 27007KT 9999 BKN045 23/22 A2996 RERA NOSIG=
201711042100 METAR MROC 042100Z 25005KT 220V280 9999 FEW020 SCT040 24/21 A2995 NOSIG=
201711042200 METAR MROC 042200Z 26005KT 230V290 9999 SCT015 BKN035 24/21 A2995 BECMG 5000 BR=
201711042300 METAR MROC 042300Z 25008KT 9999 4000SW BCFG FEW005 SCT015 BKN035 22/21 A2995 BECMG 5000 BR=
201711050000 METAR MROC 050000Z 25004KT 220V310 9999 -RA FEW015 SCT030 BKN100 21/20 A2997 NOSIG=
201711050100 METAR MROC 050100Z 28008KT 230V320 9999 -RA FEW003 SCT025 BKN040 21/20 A3000 NOSIG=
201711050200 METAR MROC 050200Z 19005KT 140V250 8000 -TSRA SCT002 BKN015 19/18 A3006 NOSIG=
201711050300 METAR MROC 050300Z 09008KT -RA FEW030 SCT040 BKN100 18/17 A3008 RETSRA NOSIG=
201711050400 METAR MROC 050400Z 08003KT CAVOK 19/17 A3006 NOSIG=
201711050500 METAR MROC 050500Z 10005KT CAVOK 19/17 A3006 NOSIG=
201711050600 METAR MROC 050600Z VRB02KT CAVOK 19/18 A3002 NOSIG=
201711050700 METAR MROC 050700Z 25004KT 190V320 CAVOK 19/17 A3000 NOSIG=
201711050800 METAR MROC 050800Z 05006KT 9999 FEW040 20/18 A2998 NOSIG=
201711050900 METAR MROC 050900Z 09006KT CAVOK 19/18 A2998 NOSIG=
201711051000 METAR MROC 051000Z 07009KT CAVOK 20/17 A2997 NOSIG=
201711051100 METAR MROC 051100Z 05008KT CAVOK 19/17 A2997 NOSIG=
201711051200 METAR MROC 051200Z 07006KT CAVOK 20/16 A2999 NOSIG=
201711051300 METAR MROC 051300Z 06005KT CAVOK 20/17 A3002 NOSIG=
201711051400 METAR MROC 051400Z 12004KT 050V190 CAVOK 25/19 A3004 BECMG 24008KT NOSIG=
201711051500 METAR MROC 051500Z 23008KT 9999 FEW040 SCT200 24/19 A3005 NOSIG=
201711051600 METAR MROC 051600Z 25009KT 9999 SCT040 BKN200 24/20 A3005 NOSIG=
201711051700 METAR MROC 051700Z 24009KT 210V280 9999 SCT040 SCT120 25/20 A3003 NOSIG=
201711051800 METAR MROC 051800Z 28006KT 240V320 9999 FEW010TCU BKN030 25/19 A3000 NOSIG=
201711051900 METAR MROC 051900Z 23006KT 190V260 9999 FEW010TCU SCT030 26/20 A2997 NOSIG=
201711052000 METAR MROC 052000Z 25007KT 220V280 9999 FEW010TCU SCT030 26/21 A2994 NOSIG=
201711052100 METAR MROC 052100Z 23006KT 200V260 9999 FEW020TCU SCT040 BKN100 25/21 A2994 NOSIG=
201711052200 METAR MROC 052200Z 22006KT 9999 FEW0040 BKN130 24/21 A2996 NOSIG=
201711052300 METAR MROC 052300Z 26006KT 9999 SCT015 BKN110 23/22 A2996 NOSIG=
201711052320 METAR MROC 052320Z 25006KT 0800 FG SCT001 BKN010 21/21 A2998 NOSIG=
201711052342 METAR MROC 052342Z 26006KT 220V280 1500 0500SW BR SCT001 BKN010 21/21 A2998 BECMG 3000=
201711060000 METAR MROC 060000Z 22005KT 1500 0500SW BR SCT001 BKN010 21/21 A2999 BECMG 3000=
201711060018 METAR MROC 060018Z 25006KT 0350 R07/0900U FG VV/// 21/21 A3000 NOSIG=
201711060100 METAR MROC 060100Z 26005KT 2500 1200SW BR SCT001 BKN015 21/20 A3002 NOSIG=
201711060200 METAR MROC 060200Z 26003KT 230V300 5000 2000SW BR SCT001 BKN020 21/20 A3005 NOSIG=
201711060300 METAR MROC 060300Z VRB02KT 5000 BR FEW001 SCT015 BKN120 21/20 A3007 NOSIG=
201711060400 METAR MROC 060400Z 20003KT 9999 VCFG FEW025 20/20 A3006 NOSIG=
201711060500 METAR MROC 060500Z 09006KT 060V120 9999 FEW035 21/18 A3004 NOSIG=
201711060600 METAR MROC 060600Z 04004KT 350V120 CAVOK 21/18 A3002 NOSIG=
201711060700 METAR MROC 060700Z VRB02KT CAVOK 20/18 A3000 NOSIG=
201711060800 METAR MROC 060800Z 09008KT CAVOK 21/17 A2998 NOSIG=
201711060900 METAR MROC 060900Z 18003KT 120V210 9999 4500S BCFG NSC 19/17 A2999 NOSIG=
201711061000 METAR MROC 061000Z VRB02KT CAVOK 18/16 A3000 NOSIG=
201711061100 METAR MROC 061100Z 05004KT 030V090 9999 4000S BCFG FEW045 18/16 A3000 NOSIG=
201711061200 METAR MROC 061200Z 04006KT 010V080 9999 4000S BCFG FEW002 19/16 A3001 NOSIG=
201711061300 METAR MROC 061300Z VRB02KT CAVOK 22/17 A3002 NOSIG=
201711061400 METAR MROC 061400Z 12005KT 060V190 CAVOK 25/18 A3003 NOSIG=
201711061500 METAR MROC 061500Z 12011KT 090V170 CAVOK 26/17 A3004 NOSIG=
201711061600 METAR MROC 061600Z 13010KT 098V160 9999 FEW045 SCT250 27/17 A3003 NOSIG=
201711061700 METAR MROC 061700Z 13008KT 090V170 9999 FEW040 28/15 A3002 NOSIG=
201711061800 METAR MROC 061800Z 26010KT 230V300 9999 SCT035 26/19 A2999 NOSIG=
201711061808 METAR MROC 161800Z COR 24008KT 9999 SCT030 SCT060 24/21 A3000 NOSIG=
201711061900 METAR MROC 061900Z 26011KT 9999 SCT035 26/21 A2997 NOSIG=
201711062000 METAR MROC 062000Z 24011KT 210V270 9999 FEW025TCU SCT035 26/22 A2995 NOSIG=
201711062100 METAR MROC 062100Z 25009KT 210V020 2000 TSRA FEW010CB BKN035 24/19 A2996 NOSIG=
201711062200 METAR MROC 062200Z 29003KT 240V320 9999 -RA VCTS SCT025 BKN120 21/20 A2994 NOSIG=
201711062300 METAR MROC 062300Z VRB02KT 8000 FEW004 SCT040 BKN100 21/20 A2996 NOSIG=
201711070000 METAR MROC 070000Z VRB02KT 9999 FEW030 BKN200 21/20 A2998 NOSIG=
201711070100 METAR MROC 070100Z VRB02KT 9999 SCT015 21/20 A3000 NOSIG=
201711070200 METAR MROC 070200Z VRB02KT 8000 VCFG FEW005 SCT015 21/20 A3003 NOSIG=
201711070300 METAR MROC 070300Z VRB02KT 8000 VCFG FEW008 22/20 A3004 NOSIG=
201711070400 METAR MROC 070400Z 10002KT 9999 BCFG FEW010 20/19 A3002 NOSIG=
201711070500 METAR MROC 070500Z VRB02KT CAVOK 20/19 A3002 NOSIG=
201711070600 METAR MROC 070600Z 04004KT 010V070 CAVOK 19/18 A3000 NOSIG=
201711070700 METAR MROC 070700Z 08005KT CAVOK 19/16 A2998 NOSIG=
201711070800 METAR MROC 070800Z 07009KT CAVOK 19/15 A2997 NOSIG=
201711070900 METAR MROC 070900Z 06008KT CAVOK 19/15 A2996 NOSIG=
201711071000 METAR MROC 071000Z 06009KT CAVOK 20/15 A2996 NOSIG=
201711071100 METAR MROC 071100Z 10009KT CAVOK 20/16 A2997 NOSIG=
201711071200 METAR MROC 071200Z 10007KT CAVOK 20/16 A2998 NOSIG=
201711071300 METAR MROC 071300Z 11008KT CAVOK 21/16 A3001 NOSIG=
201711071400 METAR MROC 071400Z 08007KT CAVOK 24/17 A3001 NOSIG=
201711071500 METAR MROC 071500Z 12007KT CAVOK 25/18 A3000 NOSIG=
201711071600 METAR MROC 071600Z 08014KT 050V110 CAVOK 28/18 A2999 NOSIG=
201711071700 METAR MROC 071700Z 08010KT 9999 SCT045 28/18 A2998 NOSIG=
201711071800 METAR MROC 071800Z 11005KT 9999 SCT045 SCT250 27/21 A2995 NOSIG=
201711071900 METAR MROC 071900Z 25011KT 9999 BKN040 26/21 A2993 NOSIG=
201711072000 MROC 072000Z 24009KT 9999 RA FEW020TCU SCT035 BKN250 25/21 A2989 NOSIG=
201711072100 MROC 072100Z 33006KT 260V010 9999 4000SW RA FEW015TCU FEW035 SCT100 22/21 A2990 NOSIG=
201711072200 MROC 072200Z 22006KT 190V250 7000 3000SW FEW005 SCT010 BKN035 22/22 A2991 RERA BECMG 3000 RA BR BKN010=
201711072300 MROC 072300Z 23004KT 3000 BR FEW002 SCT010 BKN030 22/21 A2994 BECMG BKN010=
201711080000 METAR MROC 080000Z 23006KT 9999 3000SW BCFG FEW002 BKN030 21/21 A2994 BECMG 3000 BKN010=
201711080100 METAR MROC 080100Z 23003KT 180V310 9999 3000SW BCFG FEW002 SCT030 BKN100 21/20 A2996 NOSIG=
201711080200 METAR MROC 080200Z VRB02KT 9999 FEW002 SCT100 21/20 A2998 NOSIG=
201711080300 METAR MROC 080300Z 35003KT 9999 FEW030 21/20 A2999 NOSIG=
201711080400 METAR MROC 080400Z 04004KT 9999 FEW040 SCT120 21/20 A2999 NOSIG=
201711080500 METAR MROC 080500Z 06005KT 020V100 CAVOK 21/17 A2997 NOSIG=
201711080600 METAR MROC 080600Z 05006KT 010V110 CAVOK 21/17 A2995 NOSIG=
201711080700 METAR MROC 080700Z 10003KT 360V150 CAVOK 20/18 A2993 NOSIG=
201711080800 METAR MROC 080800Z 06005KT 360V120 CAVOK 21/17 A2991 NOSIG=
201711080900 METAR MROC 080900Z 01007KT CAVOK 20/17 A2991 NOSIG=
201711081000 METAR MROC 081000Z 04008KT 360V080 CAVOK 19/17 A2990 NOSIG=
201711081100 METAR MROC 081100Z 09006KT 010V180 CAVOK 21/17 A2992 NOSIG=
201711081200 METAR MROC 081200Z 05008KT 020V110 9999 FEW040 BKN200 21/16 A2992 NOSIG=
201711081300 METAR MROC 081300Z 08008KT 050V110 9999 FEW040 BKN200 23/17 A2994 NOSIG=
201711081400 METAR MROC 081400Z 10010G20KT 070V130 9999 FEW040 BKN200 23/17 A2995 NOSIG=
201711081500 METAR MROC 081500Z 10011G21KT 070V150 9999 FEW040 BKN200 25/17 A2997 NOSIG=
201711081600 METAR MROC 081600Z 09011G21KT 9999 FEW035 BKN200 25/16 A2996 NOSIG=
201711081700 METAR MROC 081700Z 10010G20KT 9999 FEW040 BKN200 27/17 A2994 NOSIG=
201711081800 METAR MROC 081800Z 11010G20KT 9999 FEW040 BKN200 27/16 A2992 NOSIG=
201711081900 METAR MROC 081900Z 13010G20KT 9999 FEW040 BKN200 28/17 A2989 NOSIG=
201711082000 METAR MROC 082000Z 11010G20KT 090V150 9999 FEW040 BKN200 27/17 A2987 NOSIG=
201711082100 METAR MROC 082100Z 13008KT 090V160 9999 FEW025 SCT120 BKN200 26/17 A2987 NOSIG=
201711082200 METAR MROC 082200Z 15005KT 9999 FEW030 SCT080 BKN200 25/17 A2988 NOSIG=
201711082300 METAR MROC 082300Z 11006KT 080V140 9999 FEW025 SCT120 BKN200 24/17 A2989 NOSIG=
201711090000 METAR MROC 090000Z 16004KT 9999 FEW025 SCT200 22/17 A2992 NOSIG=
201711090100 METAR MROC 090100Z 11004KT 9999 FEW025 21/17 A2994 NOSIG=
201711090200 METAR MROC 090200Z 08005KT 040V130 9999 FEW045 22/16 A2996 NOSIG=
201711090300 METAR MROC 090300Z 09008KT 050V120 9999 FEW010 SCT035 BKN200 21/16 A2998 NOSIG=
201711090400 METAR MROC 090400Z 08009KT CAVOK 21/16 A2998 NOSIG=
201711090500 METAR MROC 090500Z 08007KT 040V100 CAVOK 21/16 A2996 NOSIG=
201711090600 METAR MROC 090600Z 07005KT CAVOK 20/16 A2994 NOSIG=
201711090700 METAR MROC 090700Z 05005KT 020V090 CAVOK 21/16 A2993 NOSIG=
201711090800 METAR MROC 090800Z 36006KT 330V060 CAVOK 20/16 A2993 NOSIG=
201711090900 METAR MROC 090900Z 09005KT CAVOK 20/17 A2992 NOSIG=
201711091000 METAR MROC 091000Z 05007KT 9999 SCT040 20/16 A2993 NOSIG=
201711091100 METAR MROC 091100Z VRB03KT 9999 FEW040 19/16 A2994 NOSIG=
201711091200 METAR MROC 091200Z 06003KT CAVOK 20/16 A2995 NOSIG=
201711091300 METAR MROC 091300Z 07008KT CAVOK 21/16 A2996 NOSIG=
201711091400 METAR MROC 091400Z 07008KT CAVOK 22/17 A2998 NOSIG=
201711091500 METAR MROC 091500Z 10008KT 070V140 CAVOK 24/17 A2999 NOSIG=
201711091600 METAR MROC 091600Z 10008KT 070V170 CAVOK 26/16 A2998 NOSIG=
201711091700 METAR MROC 091700Z 12005KT 070V230 CAVOK 27/17 A2994 NOSIG=
201711091800 METAR MROC 091800Z 25010KT CAVOK 26/19 A2992 NOSIG=
201711091900 METAR MROC 091900Z 24006KT 210V280 9999 BKN045 26/19 A2991 NOSIG=
201711092000 METAR MROC 092000Z 26012KT 230V290 9999 BKN040 26/19 A2990 BECMG RA=
201711092100 METAR MROC 092100Z 25008KT 9999 BKN040 23/20 A2990 NOSIG=
201711092200 METAR MROC 092200Z 23006KT 9999 FEW010 BKN040 22/20 A2991 NOSIG=
201711092300 METAR MROC 092300Z 25003KT 9999 4000N FEW020 BKN040 22/18 A2993 NOSIG=
201711100000 METAR MROC 100000Z 00000KT 9999 FEW020 BKN070 22/18 A2994 NOSIG=
201711100100 METAR MROC 100100Z 08004KT 9999 FEW020 BKN120 21/18 A2996 NOSIG=
201711100200 METAR MROC 100200Z 07007KT 9999 FEW030 SCT120 21/16 A2998 NOSIG=
201711100300 METAR MROC 100300Z 11008KT CAVOK 21/16 A2999 NOSIG=
201711100400 METAR MROC 100400Z 10004KT CAVOK 21/16 A2999 NOSIG=
201711100500 METAR MROC 100500Z 10006KT CAVOK 21/17 A2998 NOSIG=
201711100600 METAR MROC 100600Z 07009KT CAVOK 20/16 A2997 NOSIG=
201711100700 METAR MROC 100700Z 06007KT 020V090 CAVOK 20/16 A2995 NOSIG=
201711100800 METAR MROC 100800Z 05008KT CAVOK 18/15 A2993 NOSIG=
201711100900 METAR MROC 100900Z 04005KT CAVOK 18/15 A2993 NOSIG=
201711101000 METAR MROC 101000Z VRB02KT CAVOK 17/15 A2994 NOSIG=
201711101100 METAR MROC 101100Z 07005KT CAVOK 17/14 A2995 NOSIG=
201711101200 METAR MROC 101200Z 06007KT CAVOK 17/14 A2996 NOSIG=
201711101300 METAR MROC 101300Z 09006KT 060V120 CAVOK 21/16 A2997 NOSIG=
201711101400 METAR MROC 101400Z 10006KT 060V190 CAVOK 24/17 A2998 NOSIG=
201711101500 METAR MROC 101500Z 00000KT CAVOK 26/16 A2998 NOSIG=
201711101600 METAR MROC 101600Z VRB02KT CAVOK 28/16 A2996 NOSIG=
201711101700 METAR MROC 101700Z 24007KT 210V270 CAVOK 26/18 A2994 NOSIG=
201711101800 METAR MROC 101800Z 25007KT 200V280 9999 FEW040 SCT250 27/18 A2991 NOSIG=
201711101900 METAR MROC 101900Z 25010KT 9999 FEW040 SCT250 27/19 A2989 NOSIG=
201711102000 METAR MROC 102000Z 24011KT 210V270 9999 FEW030 SCT250 26/22 A2987 NOSIG=
201711102100 METAR MROC 102100Z 25010KT 9999 FEW030 SCT250 25/20 A2986 NOSIG=
201711102200 METAR MROC 102200Z 23008KT 9999 SCT030 BKN200 24/21 A2988 NOSIG=
201711102300 METAR MROC 102300Z 23008KT 8000 BCFG BKN018 22/21 A2990 BECMG 5000 BR=
201711110000 METAR MROC 110000Z 25005KT 9999 3000SW BCFG FEW005 BKN020 21/21 A2992 NOSIG=
201711110100 METAR MROC 110100Z 23005KT 210V270 9999 4000SW BCFG FEW005 BKN020 21/20 A2994 NOSIG=
201711110200 METAR MROC 110200Z VRB02KT 9999 BCFG BKN020 22/20 A2996 NOSIG=
201711110300 METAR MROC 110300Z VRB02KT 9999 BKN030 21/20 A2996 NOSIG=
201711110400 METAR MROC 110400Z 06005KT 030V110 9999 FEW030 BKN180 21/18 A2995 NOSIG=
201711110500 METAR MROC 110500Z 11005KT 9999 FEW035 20/18 A2995 NOSIG=
201711110600 METAR MROC 110600Z VRB02KT 9999 FEW035 20/17 A2993 NOSIG=
201711110700 METAR MROC 110700Z 16003KT 9999 FEW035 20/16 A2991 NOSIG=
201711110800 METAR MROC 110800Z 10004KT 9999 FEW030 19/16 A2990 NOSIG=
201711110900 METAR MROC 110900Z 06006KT 9999 FEW035 19/16 A2989 NOSIG=
201711111000 METAR MROC 111000Z 06006KT 020V090 CAVOK 19/16 A2991 NOSIG=
201711111100 METAR MROC 111100Z 06009KT 020V080 CAVOK 19/16 A2993 NOSIG=
201711111200 METAR MROC 111200Z 04006KT 010V070 CAVOK 18/16 A2994 NOSIG=
201711111300 METAR MROC 111300Z 05005KT CAVOK 20/16 A2996 NOSIG=
201711111400 METAR MROC 111400Z 08006KT 050V120 CAVOK 23/17 A2996 NOSIG=
201711111500 METAR MROC 111500Z 12006KT 070V170 CAVOK 26/17 A2996 BECMG 24007KT=
201711111600 METAR MROC 111600Z 12006KT 080V180 CAVOK 27/16 A2994 BECMG 24007KT=
201711111700 METAR MROC 111700Z 24011KT 220V280 9999 FEW040 SCT250 27/19 A2992 NOSIG=
201711111800 METAR MROC 111800Z 24007KT 200V300 9999 SCT040 SCT250 27/18 A2989 NOSIG=
201711111900 METAR MROC 111900Z 24009KT 200V260 9999 SCT040 SCT250 26/19 A2987 NOSIG=
201711112000 METAR MROC 112000Z 25008KT 200V280 9999 FEW025TCU SCT040 SCT250 27/20 A2986 NOSIG=
201711112100 METAR MROC 112100Z 24009KT 9999 SCT020TCU SCT035 25/21 A2984 NOSIG=
201711112200 METAR MROC 112200Z 24010KT 9999 FEW020 SCT030 24/21 A2986 NOSIG=
201711112300 METAR MROC 112300Z 21006KT 9999 SCT020 23/21 A2986 NOSIG=
201711120000 METAR MROC 120000Z 25005KT 9999 SCT020 22/21 A2989 NOSIG=
201711120100 METAR MROC 120100Z 33003KT 9999 -RA SCT015 BKN100 22/21 A2991 NOSIG=
201711120200 METAR MROC 120200Z 30002KT 9999 SCT015 BKN100 22/21 A2993 NOSIG=
201711120300 METAR MROC 120300Z 26003KT 8000 VCFG FEW004 SCT020 BKN100 21/21 A2994 NOSIG=
201711120400 METAR MROC 120400Z 13003KT 8000 VCFG FEW004 SCT020 BKN100 21/21 A2993 NOSIG=
201711120500 METAR MROC 120500Z VRB02KT 9999 FEW010 SCT030 BKN100 21/20 A2993 NOSIG=
201711120600 METAR MROC 120600Z 31003KT 270V340 9999 FEW005 BKN030 21/20 A2992 NOSIG=
201711120700 METAR MROC 120700Z VRB02KT 9999 FEW005 BKN025 20/19 A2990 NOSIG=
201711120800 METAR MROC 120800Z 07004KT 9999 SCT007 BKN020 20/19 A2989 NOSIG=
201711120900 METAR MROC 120900Z 08003KT 9999 SCT020 BKN070 20/18 A2988 NOSIG=
201711121000 METAR MROC 121000Z 08004KT CAVOK 19/18 A2989 NOSIG=
201711121100 METAR MROC 121100Z 08004KT CAVOK 19/17 A2991 NOSIG=
201711121200 METAR MROC 121200Z 09004KT CAVOK 18/17 A2992 NOSIG=
201711121300 METAR MROC 121300Z VRB02KT CAVOK 21/18 A2995 NOSIG=
201711121400 METAR MROC 121400Z VRB01KT CAVOK 22/18 A2996 NOSIG=
201711121500 METAR MROC 121500Z 24004KT 9999 SCT025 SCT250 23/19 A2997 NOSIG=
201711121600 METAR MROC 121600Z 26005KT 9999 SCT025 SCT250 24/19 A2996 NOSIG=
201711121700 METAR MROC 121700Z 24007KT 9999 SCT025 SCT250 26/20 A2995 NOSIG=
201711121800 METAR MROC 121800Z 24008KT 9999 SCT025 BKN250 26/21 A2993 NOSIG=
201711121900 METAR MROC 121900Z 23007KT 9999 BKN030 26/21 A2989 NOSIG=
201711122000 METAR MROC 122000Z 25009KT 9999 SCT020TCU 26/21 A2987 NOSIG=
201711122100 METAR MROC 122100Z 24008KT 210V280 9999 SCT035 BKN200 25/21 A2985 NOSIG=
201711122200 METAR MROC 122200Z 26009KT 9999 FEW010 SCT030 BKN200 24/22 A2986 NOSIG=
201711122300 METAR MROC 122300Z 27009KT 9999 FEW010 BKN020 23/21 A2988 NOSIG=
201711130000 METAR MROC 130000Z 25005KT 210V340 9999 -RA VCTS FEW002 SCT010 BKN035 22/21 A2991 NOSIG=
201711130100 METAR MROC 130100Z 23004KT 180V260 9999 SCT002 BKN010 21/21 A2994 NOSIG=
201711130200 METAR MROC 130200Z 23004KT 9999 -RA FEW002 SCT010 21/21 A2998 NOSIG=
201711130300 METAR MROC 130300Z 00000KT 9999 FEW005 SCT010 BKN025 21/21 A2996 NOSIG=
201711130400 METAR MROC 130400Z VRB02KT 9999 SCT030 21/21 A2996 NOSIG=
201711130500 METAR MROC 130500Z 09004KT 9999 FEW030 SCT060 21/20 A2995 NOSIG=
201711130600 METAR MROC 130600Z 10004KT 9999 FEW030 BKN110 21/20 A2995 NOSIG=
201711130700 METAR MROC 130700Z VRB02KT 9999 BCFG FEW004 SCT010 BKN110 21/20 A2993 BECMG 5000 BR BKN010=
201711130800 METAR MROC 130800Z 12002KT 5000 2000SW R07/0800N BR FEW001 SCT010 BKN110 21/20 A2991 NOSIG=
201711130900 METAR MROC 130900Z 10004KT 9999 3000SW BCFG SCT010 BKN110 20/20 A2991 NOSIG=
201711131000 METAR MROC 131000Z 09005KT 060V120 9999 FEW030 BKN110 21/19 A2991 NOSIG=
201711131100 METAR MROC 131100Z 09004KT 9999 FEW030 BKN110 21/18 A2991 NOSIG=
201711131200 METAR MROC 131200Z 07005KT CAVOK 20/19 A2991 NOSIG=
201711131300 METAR MROC 131300Z VRB02KT CAVOK 22/18 A2995 NOSIG=
201711131400 METAR MROC 131400Z 22003KT CAVOK 22/20 A2996 NOSIG=
201711131500 METAR MROC 131500Z 24005KT 200V320 CAVOK 24/21 A2997 NOSIG=
201711131600 METAR MROC 131600Z 26007KT 230V290 9999 FEW035 25/21 A2995 NOSIG=
201711131700 METAR MROC 131700Z 25009KT 210V290 9999 FEW035 25/20 A2994 NOSIG=
201711131800 METAR MROC 131800Z 24010KT 210V270 9999 SCT030 27/22 A2991 NOSIG=
201711131900 METAR MROC 131900Z 25010KT 210V280 9999 SCT030 27/22 A2989 NOSIG=
201711132000 METAR MROC 132000Z 25009KT 210V270 9999 FEW030 SCT200 26/22 A2986 NOSIG=
201711132100 METAR MROC 132100Z 25010KT 9999 3500SW BCFG FEW015 FEW020CB SCT050 25/21 A2985 NOSIG=
201711132200 METAR MROC 132200Z 25010KT 9999 4500NW RA BKN012 23/21 A2988 NOSIG=
201711132300 METAR MROC 132300Z 16003KT 9999 3000SW -RA SCT15CB BKN070 23/20 A2990 RETS NOSIG=
201711140000 METAR MROC 140000Z 25004KT 240V300 9999 FEW010 BKN060 22/20 A2991 NOSIG=
201711140100 METAR MROC 140100Z 27005KT 230V320 9000 BKN008 22/21 A2993 NOSIG=
201711140200 METAR MROC 140200Z 23003KT 190V270 9999 2000SW OVC005 22/21 A2998 NOSIG=
201711140300 METAR MROC 140300Z 27004KT 230V310 6000 -RA VCTS FEW001 OVC005 22/21 A3000 NOSIG=
201711140400 METAR MROC 140400Z 23003KT 200V260 5000 2000SW -RA FEW001 SCT008 OVC020 21/21 A2999 NOSIG=
201711140500 METAR MROC 140500Z 24004KT 3000 -RA BR SCT002 BKN010 21/21 A2997 NOSIG=
201711140600 METAR MROC 140600Z 25003KT 1500 BR SCT002 BKN010 21/21 A2996 NOSIG=
201711140700 METAR MROC 140700Z 29003KT 4000 RA BR FEW004 SCT020 OVC100 21/21 A2994 NOSIG=
201711140800 METAR MROC 140800Z 32005KT 9999 -RA SCT015 OVC100 21/21 A2994 NOSIG=
201711140900 METAR MROC 140900Z 35004KT 9999 -RA SCT015 OVC100 20/20 A2995 NOSIG=
201711141000 METAR MROC 141000Z 09002KT 9999 -RA OVC100 20/20 A2992 NOSIG=
201711141100 METAR MROC 141100Z 07003KT 050V130 8000 VCFG FEW003 OVC100 20/20 A2992 NOSIG=
201711141200 METAR MROC 141200Z 26003KT 5000 BR SCT002 OVC100 20/20 A2995 NOSIG=
201711141300 METAR MROC 141300Z VRB02KT 9999 FEW010 SCT020 OVC100 21/20 A2997 NOSIG=
201711141400 METAR MROC 141400Z VRB02KT 9999 VCFG FEW004 BKN025 22/20 A3000 NOSIG=
201711141500 METAR MROC 141500Z VRB02KT 9999 FEW008 BKN030 23/20 A3002 NOSIG=
201711141600 METAR MROC 141600Z 21003KT 150V300 9999 FEW005 SCT030 BKN180 24/21 A3000 NOSIG=
201711141700 METAR MROC 141700Z 25003KT 180V310 9999 FEW025 BKN250 25/20 A2998 NOSIG=
201711141800 METAR MROC 141800Z 26004KT 9999 FEW030 SCT200 BKN300 26/21 A2994 NOSIG=
201711141900 METAR MROC 141900Z 25006KT 210V300 9999 FEW030 BKN250 26/20 A2991 NOSIG=
201711142000 METAR MROC 142000Z 25008KT 220V300 9999 FEW025 BKN250 25/21 A2988 NOSIG=
201711142100 METAR MROC 142100Z 24009KT 9999 BCFG FEW004 BKN030 23/22 A2988 NOSIG=
201711142200 METAR MROC 142200Z 24006KT 9999 BCFG FEW004 BKN030 22/21 A2989 NOSIG=
201711142300 METAR MROC 142300Z 25005KT 7000 3500SW BCFG SCT004 BKN030 21/21 A2992 BECMG 5000 BR BKN010=
201711150000 METAR MROC 150000Z VRB02KT 9999 FEW006 BKN080 21/20 A2993 NOSIG=
201711150100 METAR MROC 150100Z VRB02KT 9999 FEW030 SCT100 21/20 A2996 NOSIG=
201711150200 METAR MROC 150200Z VRB02KT 9999 FEW030 BKN100 21/20 A2996 NOSIG=
201711150300 METAR MROC 150300Z 27004KT 230V330 CAVOK 21/20 A2997 NOSIG=
201711150400 METAR MROC 150400Z 24004KT 9999 FEW002 SCT010 BKN020 21/20 A2999 NOSIG=
201711150500 METAR MROC 150500Z 00000KT 9999 FEW002 SCT010 20/20 A2998 NOSIG=
201711150600 METAR MROC 150600Z VRB02KT 9999 FEW010 SCT020 20/20 A2995 NOSIG=
201711150700 METAR MROC 150700Z 25004KT 9999 FEW005 BKN020 20/20 A2993 NOSIG=
201711150800 METAR MROC 150800Z 25004KT 200V280 1500 BR FEW001 SCT005 BKN010 20/20 A2993 BECMG 0800 FG=
201711150900 METAR MROC 150900Z 26003KT 8000 VCFG FEW002 SCT010 BKN020 20/20 A2994 NOSIG=
201711151000 METAR MROC 151000Z VRB02KT 8000 VCFG SCT010 BKN020 20/20 A2995 NOSIG=
201711151100 METAR MROC 151100Z 00000KT 9999 FEW010 BKN020 21/20 A2996 NOSIG=
201711151200 METAR MROC 151200Z VRB02KT 8000 VCFG FEW002 SCT015 BKN030 21/20 A2998 NOSIG=
201711151300 METAR MROC 151300Z 14003KT 9999 FEW030 BKN070 21/20 A3000 NOSIG=
201711151400 METAR MROC 151400Z VRB02KT 9999 FEW030 BKN070 22/21 A3002 NOSIG=
201711151500 METAR MROC 151500Z 28004KT 240V350 9999 SCT020 BKN100 23/20 A3004 NOSIG=
201711151600 METAR MROC 151600Z 23005KT 200V260 9999 FEW040 BKN100 23/20 A3002 NOSIG=
201711151700 METAR MROC 151700Z 24007KT 210V270 9999 FEW030 BKN100 23/20 A3001 NOSIG=
201711151800 METAR MROC 151800Z 26007KT 230V290 9999 SCT030 BKN100 24/20 A2997 NOSIG=
201711151900 METAR MROC 151900Z 26011KT 9999 SCT030 BKN200 23/20 A2995 NOSIG=
201711152000 METAR MROC 152000Z 26008KT 230V290 9999 FEW007 SCT030 BKN200 22/21 A2995 NOSIG=
201711152100 METAR MROC 152100Z 25007KT 9999 FEW015 SCT030 BKN200 22/20 A2994 NOSIG=
201711152200 METAR MROC 152200Z 24003KT 210V290 9999 FEW015 BKN200 22/20 A2994 NOSIG=
201711152300 METAR MROC 152300Z 17003KT 140V200 9999 FEW005 SCT070 BKN200 22/20 A2995 NOSIG=
201711160000 METAR MROC 160000Z 27004KT 9999 4500SW BCFG FEW005 BKN200 21/20 A2998 NOSIG=
201711160100 METAR MROC 160100Z 18004KT 150V280 9999 4500SW BCFG FEW003 SCT120 20/20 A2998 BECMG 3000 BR=
201711160200 METAR MROC 160200Z VRB02KT 9999 VCFG FEW007 20/19 A3003 NOSIG=
201711160300 METAR MROC 160300Z 14003KT 100V180 9999 FEW035 20/19 A3004 NOSIG=
201711160400 METAR MROC 160400Z 33003KT CAVOK 20/19 A3004 NOSIG=
201711160500 METAR MROC 160500Z 15004KT 090V170 9999 3000SW BCFG NSC 20/19 A3004 NOSIG=
201711160600 METAR MROC 160600Z 08004KT CAVOK 19/18 A3001 NOSIG=
201711160700 METAR MROC 160700Z 08006KT 050V110 CAVOK 18/17 A2999 NOSIG=
201711160800 METAR MROC 160800Z 07005KT 050V110 CAVOK 19/17 A2996 NOSIG=
201711160900 METAR MROC 160900Z 09004KT 060V210 CAVOK 19/17 A2997 NOSIG=
201711161000 METAR MROC 161000Z VRB02KT CAVOK 18/17 A2999 NOSIG=
201711161100 METAR MROC 161100Z 12004KT 090V160 8000 VCFG FEW001 SCT006 18/18 A3000 NOSIG=
201711161200 METAR MROC 161200Z VRB02KT 9999 3000SW BCFG FEW010 SCT045 19/18 A3001 NOSIG=
201711161300 METAR MROC 161300Z VRB02KT 9999 VCFG FEW010 20/18 A3001 NOSIG=
201711161400 METAR MROC 161400Z 26005KT 9999 FEW040 22/18 A3003 NOSIG=
201711161500 METAR MROC 161500Z 26004KT 190V320 9999 FEW035 SCT100 24/20 A3004 NOSIG=
201711161600 METAR MROC 161600Z 24008KT 200V270 9999 FEW035 BKN090 25/19 A3003 NOSIG=
201711161700 METAR MROC 161700Z 24008KT 220V280 9999 SCT035 BKN090 23/20 A3003 NOSIG=
201711161800 METAR MROC 161800Z 24008KT 9999 FEW030 SCT060 24/21 A3000 NOSIG=
201711161900 METAR MROC 161900Z 20004KT 9999 -RA FEW015 SCT040 24/20 A2997 NOSIG=
201711162000 METAR MROC 162000Z 19004KT 140V210 9999 -DZ FEW020 SCT040 23/21 A2996 NOSIG=
201711162100 METAR MROC 162100Z 26005KT 200V340 9999 SCT025 BKN100 24/21 A2995 NOSIG=
201711162200 METAR MROC 162200Z 24008KT 9999 SCT025 BKN130 23/21 A2995 NOSIG=
201711162300 METAR MROC 162300Z 24005KT 9999 SCT020 SCT120 22/21 A2997 NOSIG=
201711170000 METAR MROC 170000Z 15005KT 5000 RA SCT020 BKN100 21/20 A3000 NOSIG=
201711170100 METAR MROC 170100Z 12003KT 080V170 9999 FEW020 SCT100 20/19 A3002 NOSIG=
201711170200 METAR MROC 170200Z 08007KT 050V110 CAVOK 21/17 A3005 NOSIG=
201711170300 METAR MROC 170300Z 11007KT 080V140 CAVOK 21/17 A3005 NOSIG=
201711170400 METAR MROC 170400Z 09008KT CAVOK 20/16 A3005 NOSIG=
201711170500 METAR MROC 170500Z 11008KT 080V140 CAVOK 21/16 A3004 NOSIG=
201711170600 METAR MROC 170600Z 09007KT 050V120 CAVOK 20/17 A3002 NOSIG=
201711170700 METAR MROC 170700Z 08008KT 050V120 CAVOK 21/15 A3000 NOSIG=
201711170800 METAR MROC 170800Z 07007KT 050V110 CAVOK 20/15 A2999 NOSIG=
201711170900 METAR MROC 170900Z 10005KT 080V150 CAVOK 20/15 A2999 NOSIG=
201711171000 METAR MROC 171000Z 06006KT 040V110 CAVOK 17/15 A2999 NOSIG=
201711171100 METAR MROC 171100Z 09008KT CAVOK 19/15 A3000 NOSIG=
201711171200 METAR MROC 171200Z 07007KT CAVOK 18/14 A3002 NOSIG=
201711171300 METAR MROC 171300Z 03005KT CAVOK 22/16 A3003 NOSIG=
201711171400 METAR MROC 171400Z 10011KT 070V130 CAVOK 23/16 A3006 NOSIG=
201711171500 METAR MROC 171500Z 10011KT 070V140 CAVOK 25/17 A3006 NOSIG=
201711171600 METAR MROC 171600Z 14009KT 080V180 CAVOK 25/17 A3005 NOSIG=
201711171700 METAR MROC 171700Z 12009KT 070V170 CAVOK 27/16 A3004 NOSIG=
201711171800 METAR MROC 171800Z 12008KT 090V180 9999 FEW040 SCT250 27/17 A3001 NOSIG=
201711171900 METAR MROC 171900Z VRB05KT 9999 SCT040 27/20 A2998 NOSIG=
201711172000 METAR MROC 172000Z 28006KT 240V320 9999 SCT030 25/20 A2995 NOSIG=
201711172100 METAR MROC 172100Z 25008KT 9999 SCT035 25/21 A2995 NOSIG=
201711172200 METAR MROC 172200Z 23009KT 9999 SCT035 23/20 A2996 NOSIG=
201711172300 METAR MROC 172300Z 22006KT 9999 SCT035 23/20 A2997 NOSIG=
201711180000 METAR MROC 180000Z 31004KT 250V350 9999 FEW030 21/20 A2998 NOSIG=
201711180100 METAR MROC 180100Z 15003KT 120V180 9999 FEW030 21/19 A3001 NOSIG=
201711180200 METAR MROC 180200Z 10003KT 060V130 9999 FEW030 20/15 A3003 NOSIG=
201711180300 METAR MROC 180300Z 07010KT 9999 FEW030 20/15 A3004 NOSIG=
201711180400 METAR MROC 180400Z 08006KT 060V120 CAVOK 20/13 A3004 NOSIG=
201711180500 METAR MROC 180500Z 08010KT 030V120 CAVOK 20/14 A3002 NOSIG=
201711180600 METAR MROC 180600Z 11010KT 080V160 CAVOK 20/14 A3000 NOSIG=
201711180700 METAR MROC 180700Z 06006KT 030V090 CAVOK 19/14 A2999 NOSIG=
201711180800 METAR MROC 180800Z 06005KT 030V090 CAVOK 18/14 A2999 NOSIG=
201711180900 METAR MROC 180900Z 05006KT 020V100 CAVOK 18/13 A2996 NOSIG=
201711181000 METAR MROC 181000Z 06007KT CAVOK 18/13 A2996 NOSIG=
201711181100 METAR MROC 181100Z 08007KT CAVOK 17/12 A2998 NOSIG=
201711181200 METAR MROC 181200Z 06005KT 010V110 CAVOK 18/13 A2999 NOSIG=
201711181300 METAR MROC 181300Z 08006KT CAVOK 20/14 A3001 NOSIG=
201711181400 METAR MROC 181400Z 07004KT 040V160 CAVOK 23/15 A3003 NOSIG=
201711181500 METAR MROC 181500Z 10007KT 050V130 CAVOK 25/15 A3003 NOSIG=
201711181600 METAR MROC 181600Z 11011KT CAVOK 26/15 A3001 NOSIG=
201711181700 METAR MROC 181700Z 11007KT 070V160 9999 FEW040 26/16 A2999 NOSIG=
201711181800 METAR MROC 181800Z 24009KT 210V290 CAVOK 27/18 A2996 NOSIG=
201711181900 METAR MROC 181900Z 24009KT CAVOK 26/18 A2993 NOSIG=
201711182000 METAR MROC 182000Z 25010KT 9999 FEW035 SCT040 26/19 A2991 NOSIG=
201711182100 METAR MROC 182100Z 25010KT 9999 FEW045 BKN250 25/19 A2991 NOSIG=
201711182200 METAR MROC 182200Z 25010KT 9999 SCT035 SCT250 23/20 A2991 NOSIG=
201711182300 METAR MROC 182300Z 24007KT 9999 SCT012 BKN100 22/20 A2992 NOSIG=
201711190000 METAR MROC 190000Z 22006KT 9999 FEW030 BKN060 21/19 A2995 NOSIG=
201711190100 METAR MROC 190100Z 09003KT 060V120 CAVOK 21/18 A2997 NOSIG=
201711190200 METAR MROC 190200Z VRB02KT CAVOK 21/19 A2999 NOSIG=
201711190300 METAR MROC 190300Z VRB02KT CAVOK 20/19 A3000 NOSIG=
201711190400 METAR MROC 190400Z 08007KT CAVOK 20/17 A3000 NOSIG=
201711190500 METAR MROC 190500Z 08006KT CAVOK 20/17 A3000 NOSIG=
201711190600 METAR MROC 190600Z 07007KT CAVOK 19/16 A2998 NOSIG=
201711190700 METAR MROC 190700Z 07006KT CAVOK 19/16 A2996 NOSIG=
201711190800 METAR MROC 190800Z 05007KT CAVOK 18/16 A2994 NOSIG=
201711190900 METAR MROC 190900Z 08005KT CAVOK 17/15 A2994 NOSIG=
201711191000 METAR MROC 191000Z 06005KT CAVOK 18/15 A2995 NOSIG=
201711191100 METAR MROC 191100Z 06007KT CAVOK 18/15 A2995 NOSIG=
201711191200 METAR MROC 191200Z 04010KT CAVOK 19/15 A2997 NOSIG=
201711191300 METAR MROC 191300Z 06008KT CAVOK 21/16 A2999 NOSIG=
201711191400 METAR MROC 191400Z 10009KT 060V130 CAVOK 23/16 A3001 NOSIG=
201711191500 METAR MROC 191500Z 10012KT 070V140 9999 FEW045 24/15 A3001 NOSIG=
201711191600 METAR MROC 191600Z 10010KT 080V150 CAVOK 26/16 A3000 NOSIG=
201711191700 METAR MROC 191700Z 10009KT 060V160 CAVOK 27/16 A3007 NOSIG=
201711191800 METAR MROC 191800Z 16006KT 090V220 9999 FEW035 27/16 A2995 NOSIG=
201711191900 METAR MROC 191900Z 25009KT 9999 FEW035 SCT250 26/20 A2992 NOSIG=
201711192000 METAR MROC 192000Z 23011KT 9999 VCSH SCT030 25/20 A2990 NOSIG=
201711192100 METAR MROC 192100Z 23009KT 9999 SCT020 BKN100 23/21 A2990 NOSIG=
201711192200 METAR MROC 192200Z 23007KT 9999 FEW010 BKN030 22/20 A2991 NOSIG=
201711192300 METAR MROC 192300Z 21004KT 180V260 9999 SCT010 BKN030 23/20 A2993 NOSIG=
201711200000 METAR MROC 200000Z 25005KT 9999 SCT010 BKN030 21/20 A2994 NOSIG=
201711200100 METAR MROC 200100Z 31003KT 270V340 9999 SCT010 BKN070 21/20 A2997 NOSIG=
201711200200 METAR MROC 200200Z VRB01KT 8000 VCFG SCT005 BKN020 20/20 A2999 NOSIG=
201711200300 METAR MROC 200300Z VRB01KT 9999 FEW005 BKN030 20/19 A3002 NOSIG=
201711200400 METAR MROC 200400Z 02005KT 9999 FEW030 19/19 A3003 NOSIG=
201711200500 METAR MROC 200500Z 03004KT 270V080 9999 FEW030 20/18 A3002 NOSIG=
201711200600 METAR MROC 200600Z 09005KT CAVOK 19/16 A3000 NOSIG=
201711200700 METAR MROC 200700Z 08006KT CAVOK 19/16 A2997 NOSIG=
201711200800 METAR MROC 200800Z 06004KT CAVOK 18/16 A2996 NOSIG=
201711200900 METAR MROC 200900Z 07007KT CAVOK 19/16 A2995 NOSIG=
201711201000 METAR MROC 201000Z 03004KT 010V110 CAVOK 19/16 A2995 NOSIG=
201711201100 METAR MROC 201100Z 06005KT CAVOK 18/16 A2996 NOSIG=
201711201200 METAR MROC 201200Z 06003KT 020V110 CAVOK 17/15 A2998 NOSIG=
201711201300 METAR MROC 201300Z 35003KT 310V050 9999 FEW045 SCT120 20/16 A3000 NOSIG=
201711201400 METAR MROC 201400Z 08004KT 050V130 CAVOK 23/17 A3002 NOSIG=
201711201500 METAR MROC 201500Z VRB02KT CAVOK 25/16 A3001 NOSIG=
201711201600 METAR MROC 201600Z 14010KT 090V190 9999 FEW045 27/17 A3000 NOSIG=
201711201700 METAR MROC 201700Z 11009KT 070V130 9999 FEW040 BKN080 26/17 A2998 NOSIG=
201711201800 METAR MROC 201800Z 13006KT 080V220 9999 FEW040 BKN080 27/18 A2996 NOSIG=
201711201900 METAR MROC 201900Z 24007KT 200V320 9999 FEW040 SCT060 25/20 A2993 NOSIG=
201711202000 METAR MROC 202000Z 23009KT 200V280 9999 SCT040 25/21 A2991 NOSIG=
201711202100 METAR MROC 202100Z 25010KT 210V290 9999 FEW010TCU BKN030 25/21 A2990 NOSIG=
201711202200 METAR MROC 202200Z 21006KT 3000 RA SCT010 BKN030 22/21 A2992 NOSIG=
201711202300 METAR MROC 202300Z 24005KT 3000 -RA BR FEW002 SCT020 BKN070 21/21 A2993 NOSIG=
201711210000 METAR MROC 210000Z 27003KT 210V330 5000 BR FEW002 SCT020 BKN070 21/20 A2995 NOSIG=
201711210100 METAR MROC 210100Z 16002KT 8000 VCFG FEW005 SCT030 BKN070 21/20 A2997 NOSIG=
201711210200 METAR MROC 210200Z 28003KT 9999 FEW030 BKN100 21/20 A2999 NOSIG=
201711210300 METAR MROC 210300Z 12006KT 090V170 9999 FEW030 BKN100 21/18 A3001 NOSIG=
201711210400 METAR MROC 210400Z 06004KT 030V090 CAVOK 21/17 A3000 NOSIG=
201711210500 METAR MROC 210500Z 07010KT 9999 FEW025 SCT050 21/17 A3000 NOSIG=
201711210600 METAR MROC 210600Z 10005KT 070V130 9999 FEW030 SCT120 20/17 A2999 NOSIG=
201711210700 METAR MROC 210700Z 08007KT 070V130 CAVOK 20/17 A2996 NOSIG=
201711210800 METAR MROC 210800Z 10004KT CAVOK 20/17 A2994 NOSIG=
201711210900 METAR MROC 210900Z 05007KT CAVOK 20/17 A2993 NOSIG=
201711211000 METAR MROC 211000Z 05006KT 9999 FEW030 19/17 A2994 NOSIG=
201711211100 METAR MROC 211100Z 05007KT CAVOK 19/17 A2995 NOSIG=
201711211200 METAR MROC 211200Z 06005KT 030V090 CAVOK 19/17 A2997 NOSIG=
201711211300 METAR MROC 211300Z 23003KT CAVOK 20/18 A3000 NOSIG=
201711211400 METAR MROC 211400Z 26005KT 200V290 CAVOK 21/18 A3002 NOSIG=
201711211500 METAR MROC 211500Z VRB02KT 9999 FEW040 BKN120 24/18 A3003 NOSIG=
201711211600 METAR MROC 211600Z 25006KT 200V310 9999 FEW040 SCT120 25/19 A3002 NOSIG=
201711211700 METAR MROC 211700Z 24007KT 200V270 9999 FEW035 BKN110 25/20 A3000 NOSIG=
201711211800 METAR MROC 211800Z 24010KT 210V270 9999 SCT035 SCT110 24/20 A2998 NOSIG=
201711211900 METAR MROC 211900Z 26010KT 9999 FEW020TCU BKN030 23/20 A2995 BECMG 5000 -TSRA SCT015CB=
201711212000 METAR MROC 212000Z 23008KT 9999 VCSH FEW020TCU BKN035 24/21 A2994 BECMG 5000 -TSRA SCT015CB=
201711212100 METAR MROC 212100Z 24008KT 9999 SCT015TCU BKN025 22/20 A2993 NOSIG=
201711212200 METAR MROC 212200Z 23006KT 9999 SCT010 BKN020 22/20 A2994 NOSIG=
201711212300 METAR MROC 212300Z 25007KT 230V290 8000 VCFG FEW005 SCT015 BKN025 21/21 A2995 BECMG 5000 BR BKN010=
201711220000 METAR MROC 220000Z 24006KT 8000 -RA VCFG FEW004 SCT015 OVC100 20/20 A2997 NOSIG=
201711220100 METAR MROC 220100Z 35003KT 290V030 5000 RA FEW010 SCT020 OVC100 20/20 A3001 NOSIG=
201711220200 METAR MROC 220200Z 32002KT 8000 -RA FEW005 SCT015 OVC100 20/20 A3003 NOSIG=
201711220300 METAR MROC 220300Z 31003KT 8000 -RA FEW005 SCT020 OVC100 20/20 A3004 NOSIG=
201711220400 METAR MROC 220400Z 15002KT 9999 SCT020 BKN100 20/20 A3002 NOSIG=
201711220500 METAR MROC 220500Z VRB02KT 9999 3000SW BCFG FEW002 SCT020 BKN100 20/20 A3002 NOSIG=
201711220600 METAR MROC 220600Z 31002KT 8000 VCFG FEW002 SCT020 BKN100 20/20 A3001 NOSIG=
201711220700 METAR MROC 220700Z 00000KT 9999 4000W BCFG FEW005 SCT020 BKN100 21/20 A2999 NOSIG=
201711220800 METAR MROC 220800Z 12003KT 8000 2000SW -RA BCFG FEW005 SCT020 BKN100 20/20 A2997 NOSIG=
201711220900 METAR MROC 220900Z 26003KT 230V340 9999 3000SW BCFG FEW002 SCT020 BKN100 20/20 A2997 NOSIG=
201711221000 METAR MROC 221000Z VRB02KT 8000 VCFG FEW002 SCT020 BKN100 20/20 A2998 NOSIG=
201711221100 METAR MROC 221100Z VRB02KT 8000 VCFG FEW002 SCT020 BKN100 20/19 A2999 NOSIG=
201711221200 METAR MROC 221200Z VRB02KT 9999 3000 BCFG FEW002 BKN100 20/20 A2999 NOSIG=
201711221300 METAR MROC 221300Z VRB02KT 8000 VCFG FEW007 BKN120 20/20 A3001 NOSIG=
201711221400 METAR MROC 221400Z 26003KT 220V300 9999 FEW004 BKN120 22/20 A3003 NOSIG=
201711221500 METAR MROC 221500Z 25006KT 9999 FEW015 BKN120 23/20 A3005 NOSIG=
201711221600 METAR MROC 221600Z 25005KT 9999 FEW020 BKN120 24/21 A3004 NOSIG=
201711221700 METAR MROC 221700Z 24005KT 210V280 9999 SCT015 BKN120 24/20 A3001 NOSIG=
201711221800 METAR MROC 221800Z 24006KT 9999 SCT020 BKN120 25/21 A2999 NOSIG=
201711221900 METAR MROC 221900Z 21004KT 150V240 9999 -RA SCT020 OVC110 24/19 A2997 NOSIG=
201711222000 METAR MROC 222000Z 28005KT 250V340 9999 -RA SCT015 OVC100 22/20 A2994 NOSIG=
201711222100 METAR MROC 222100Z 18004KT 140V200 2000 -RA BR FEW005 SCT010 BKN035 22/21 A2994 BECMG BKN010=
201711222200 METAR MROC 222200Z VRB02KT 9999 BCFG FEW005 SCT035 BKN100 22/21 A2995 NOSIG=
201711222300 METAR MROC 222300Z VRB02KT 8000 VCFG FEW005 SCT040 BKN100 22/21 A2996 NOSIG=
201711230000 METAR MROC 230000Z VRB02KT 8000 VCFG FEW002 SCT010 BKN100 22/21 A2998 NOSIG=
201711230100 METAR MROC 230100Z VRB02KT 9999 FEW002 SCT035 BKN100 21/21 A3000 NOSIG=
201711230200 METAR MROC 230200Z VRB02KT 9999 BCFG FEW035 BKN100 21/19 A3002 NOSIG=
201711230300 METAR MROC 230300Z 08003KT 040V120 9999 FEW035 BKN100 21/18 A3002 NOSIG=
201711230400 METAR MROC 230400Z 06007KT 9999 FEW035 BKN100 22/19 A3003 NOSIG=
201711230500 METAR MROC 230500Z VRB02KT 9999 FEW035 BKN100 22/18 A3002 NOSIG=
201711230600 METAR MROC 230600Z 03004KT 350V090 9999 -RA NSC 21/19 A3002 NOSIG=
201711230700 METAR MROC 230700Z 03005KT 350V060 9999 FEW030 BKN120 21/19 A2998 NOSIG=
201711230800 METAR MROC 230800Z 08005KT 9999 -RA NSC 21/18 A2997 NOSIG=
201711230900 METAR MROC 230900Z 10008KT 9999 -RA NSC 21/18 A2993 NOSIG=
201711231000 METAR MROC 231000Z COR 11007KT CAVOK 20/18 A2992 NOSIG=
201711231100 METAR MROC 231100Z 09007KT 070V130 CAVOK 21/17 A2996 NOSIG=
201711231200 METAR MROC 231200Z 09005KT 9999 FEW040 BKN120 20/18 A2996 NOSIG=
201711231300 METAR MROC 231300Z 08007KT 050V110 CAVOK 22/18 A2999 NOSIG=
201711231400 METAR MROC 231400Z 11010KT 080V140 9999 FEW040 SCT120 24/18 A3003 NOSIG=
201711231500 METAR MROC 231500Z 10010KT 9999 FEW040 SCT120 25/18 A3002 NOSIG=
201711231600 METAR MROC 231600Z 11009KT 9999 FEW040 BKN060 25/19 A3001 NOSIG=
201711231700 METAR MROC 231700Z 11006KT 080V140 9999 SCT035 BKN060 26/19 A2999 NOSIG=
201711231800 METAR MROC 231800Z 14006KT 090V220 9999 SCT040 BKN060 27/19 A2996 NOSIG=
201711231900 METAR MROC 231900Z 13008KT 080V180 9999 SCT040 BKN060 27/19 A2993 NOSIG=
201711232000 METAR MROC 232000Z 13005KT 070V180 9999 VCSH FEW025 SCT035 BKN045 25/19 A2992 NOSIG=
201711232100 METAR MROC 232100Z 12007KT 090V150 9999 2500SW BCFG VCSH FEW005 BKN030 24/18 A2992 NOSIG=
201711232200 METAR MROC 232200Z 12007KT 090V190 9999 VCSH FEW005 SCT035 OVC045 23/18 A2993 NOSIG=
201711232300 METAR COR MROC 232300Z 14004KT 080V190 9999 -RA FEW005 SCT030 BKN100 22/18 A2995 BECMG 22005KT=
201711240000 METAR MROC 240000Z 10007KT 070V150 9999 -RA FEW030 BKN120 21/18 A2997 NOSIG=
201711240100 METAR MROC 240100Z 08007KT 050V110 9999 FEW035 BKN100 21/18 A2998 NOSIG=
201711240200 METAR MROC 240200Z 12009KT 9999 FEW035 BKN120 22/17 A2999 NOSIG=
201711240300 METAR MROC 240300Z 10010KT CAVOK 21/18 A3000 NOSIG=
201711240400 METAR MROC 240400Z 11008KT CAVOK 21/17 A3000 NOSIG=
201711240500 METAR MROC 240500Z 08005KT CAVOK 21/17 A2994 NOSIG=
201711240600 METAR MROC NIL=
201711240700 METAR MROC 240700Z 07007KT CAVOK 21/18 A2998 NOSIG=
201711240800 METAR MROC 240800Z 08007KT CAVOK 21/18 A2995 NOSIG=
201711240900 METAR MROC 240900Z 05009KT CAVOK 21/18 A2994 NOSIG=
201711241000 METAR MROC 241000Z 07009KT CAVOK 21/18 A2993 NOSIG=
201711241100 METAR MROC 241100Z 03004KT CAVOK 20/18 A2996 NOSIG=
201711241200 METAR MROC 241200Z 04007KT 9999 FEW035 BKN120 21/18 A2997 NOSIG=
201711241300 METAR MROC 241300Z 11013KT 9999 FEW010 SCT200 BKN250 23/18 A2998 NOSIG=
201711241400 METAR MROC 241400Z 11015KT 9999 FEW045 SCT250 23/18 A3001 NOSIG=
201711241500 METAR MROC 241500Z 11012G22KT 9999 FEW045 SCT200 BKN250 25/18 A3002 NOSIG=
201711241600 METAR MROC 241600Z 12008KT 080V170 9999 FEW045 BKN200 25/18 A3002 NOSIG=
201711241700 METAR MROC 241700Z 10009KT 060V130 9999 FEW035 BKN100 26/18 A3000 NOSIG=
201711241800 METAR MROC 241800Z 12008KT 080V150 9999 VCSH FEW045 BKN060 25/18 A2998 NOSIG=
201711241900 METAR MROC 241900Z 15007KT 080V190 9999 SCT040 SCT120 26/19 A2996 NOSIG=
201711242000 METAR MROC 242000Z 26009KT 230V290 9999 VCSH FEW015 SCT035 BKN070 24/21 A2994 NOSIG=
201711242100 METAR MROC 242100Z 27006KT 240V320 9999 -RA FEW010 SCT030 BKN070 22/21 A2994 NOSIG=
201711242200 METAR MROC 242200Z 11010KT 080V150 9999 FEW030 BKN100 24/18 A2993 NOSIG=
201711242300 METAR MROC 242300Z 11010KT 9999 FEW030 BKN100 23/17 A2996 NOSIG=
201711250000 METAR MROC 250000Z 12008KT 080V160 FEW040 BKN100 22/17 A2997 NOSIG=
201711250100 METAR MROC 250100Z 32004KT 260V040 9999 FEW040 BKN120 22/20 A3000 NOSIG=
201711250200 METAR MROC 250200Z 03004KT 360V070 9999 FEW040 BKN120 22/20 A3002 NOSIG=
201711250300 METAR MROC 250300Z 07005KT 020V100 9999 FEW040 BKN120 22/18 A3004 NOSIG=
201711250400 METAR MROC 250400Z 09004KT 060V140 9999 FEW035 SCT080 21/18 A3004 NOSIG=
201711250500 METAR MROC 250500Z 08004KT 040V120 9999 FEW035 BKN080 21/19 A3003 NOSIG=
201711250600 METAR MROC 250600Z 09006KT 050V130 9999 FEW035 BKN100 20/18 A3000 NOSIG=
201711250700 METAR MROC 250700Z 05004KT 010V080 9999 FEW035 21/18 A2998 NOSIG=
201711250800 METAR MROC 250800Z 09006KT 060V120 9999 FEW035 21/18 A2997 NOSIG=
201711250900 METAR MROC 250900Z 13008KT 090V180 9999 FEW035 SCT100 21/18 A2996 NOSIG=
201711251000 METAR MROC 251000Z 06006KT 350V120 9999 FEW035 BKN100 22/18 A2997 NOSIG=
201711251100 METAR MROC 251100Z 04006KT 010V070 9999 FEW035 SCT100 22/18 A2999 NOSIG=
201711251200 METAR MROC 251200Z 08007KT 9999 FEW035 SCT100 BKN180 21/18 A2999 NOSIG=
201711251300 METAR MROC 251300Z 06006KT 9999 FEW030 BKN200 22/18 A3002 NOSIG=
201711251400 METAR MROC 251400Z 09009KT 060V120 9999 SCT030 BKN120 23/18 A3004 NOSIG=
201711251500 METAR MROC 251500Z 11008KT 070V160 9999 SCT030 BKN120 24/19 A3005 NOSIG=
201711251600 METAR MROC 251600Z 11009G19KT 9999 SCT030 BKN100 24/19 A3003 NOSIG=
201711251700 METAR MROC 251700Z 10009KT 080V140 9999 FEW030 BKN100 26/18 A3001 NOSIG=
201711251800 METAR MROC 251800Z 12007KT 080V170 9999 FEW030 BKN100 27/18 A2998 NOSIG=
201711251900 METAR MROC 251900Z 15005KT 070V190 9999 FEW030 BKN130 28/18 A2994 NOSIG=
201711252000 METAR MROC 252000Z 24009KT 210V270 9999 SCT030 BKN130 24/21 A2994 NOSIG=
201711252100 METAR MROC 252100Z 25008KT 9999 SCT035 BKN120 24/21 A2993 NOSIG=
201711252200 METAR MROC 252200Z 25010KT 220V280 9999 FEW020 BKN035 24/21 A2994 NOSIG=
201711252300 METAR MROC 252300Z 23005KT 190V260 9999 4000SW FEW015 SCT035 BKN100 22/21 A2996 RERA NOSIG=
201711260000 METAR MROC 260000Z 26005KT 240V320 9999 SCT025 BKN100 22/21 A2998 NOSIG=
201711260100 METAR MROC 260100Z 27003KT 230V360 9999 SCT030 21/20 A3000 NOSIG=
201711260200 METAR MROC 260200Z 02003KT CAVOK 21/20 A3001 NOSIG=
201711260300 METAR MROC 260300Z VRB02KT CAVOK 21/19 A3002 NOSIG=
201711260400 METAR MROC 260400Z 08004KT 9999 FEW035 21/18 A3001 NOSIG=
201711260500 METAR MROC 260500Z 34003KT 9999 SCT030 21/19 A3001 NOSIG=
201711260600 METAR MROC 260600Z 04004KT 9999 FEW030 20/18 A2999 NOSIG=
201711260700 METAR MROC 260700Z 10006KT 9999 FEW030 21/18 A2996 NOSIG=
201711260800 METAR MROC 260800Z 06006KT 9999 FEW025 21/18 A2995 NOSIG=
201711260900 METAR MROC 260900Z 08007KT 9999 SCT030 21/18 A2995 NOSIG=
201711261000 METAR MROC 261000Z 03008KT 9999 FEW030 20/18 A2994 NOSIG=
201711261100 METAR MROC 261100Z 06008KT 9999 FEW030 20/18 A2995 NOSIG=
201711261200 METAR MROC 261200Z 05004KT 9999 FEW045 20/18 A2997 NOSIG=
201711261300 METAR MROC 261300Z 09010G20KT 040V130 9999 FEW035 SCT180 22/18 A2998 NOSIG=
201711261400 METAR MROC 261400Z 11014G25KT 9999 FEW035 SCT150 BKN250 24/18 A3000 NOSIG=
201711261500 METAR MROC 261500Z 10013KT 9999 FEW040 BKN250 26/18 A3001 NOSIG=
201711261600 METAR MROC 261600Z 10013KT 070V140 9999 FEW040 SCT130 BKN250 26/18 A3001 NOSIG=
201711261700 METAR MROC 261700Z 11009KT 080V190 9999 FEW040 SCT120 BKN250 28/19 A2999 NOSIG=
201711261800 METAR MROC 261800Z 13009KT 080V160 9999 FEW040 BKN110 27/18 A2995 NOSIG=
201711261900 METAR MROC 261900Z 20006KT 140V270 9999 FEW040 BKN110 25/21 A2994 NOSIG=
201711262000 METAR MROC 262000Z 28008KT 250V330 9999 SCT030 BKN120 24/21 A2992 NOSIG=
201711262100 METAR MROC 262100Z 26007KT 9999 SCT030 24/22 A2991 NOSIG=
201711262200 METAR MROC 262200Z 23005KT 9999 SCT040 24/21 A2991 NOSIG=
201711262300 METAR MROC 262300Z 25006KT 9999 SCT040 23/21 A2993 NOSIG=
201711270000 METAR MROC 270000Z 24005KT 9999 -RA SCT025 22/21 A2995 NOSIG=
201711270100 METAR MROC 270100Z VRB02KT 9999 SCT030 21/21 A2997 NOSIG=
201711270200 METAR MROC 270200Z 17003KT 9999 SCT030 21/18 A2998 NOSIG=
201711270300 METAR MROC 270300Z 09006KT 9999 FEW040 22/18 A2999 NOSIG=
201711270400 METAR MROC 270400Z 02004KT 330V080 9999 SCT040 BKN0070 22/18 A2998 NOSIG=
201711270500 METAR MROC 270500Z 10005KT 060V130 9999 SCT040 BKN070 21/18 A2997 NOSIG=
201711270600 METAR MROC 270600Z 09007KT 9999 FEW040 BKN100 21/18 A2994 NOSIG=
201711270700 METAR MROC 270700Z 11004KT 070V150 9999 FEW030 SCT100 22/18 A2993 NOSIG=
201711270800 METAR MROC 270800Z 14004KT 090V170 CAVOK 21/18 A2993 NOSIG=
201711270900 METAR MROC 270900Z 08004KT CAVOK 20/18 A2991 NOSIG=
201711271000 METAR MROC 271000Z 05007KT 010V080 CAVOK 21/18 A2993 NOSIG=
201711271100 METAR MROC 271100Z 09006KT 070V130 CAVOK 20/17 A2994 NOSIG=
201711271200 METAR MROC 271200Z 09005KT 050V130 9999 FEW040 BKN120 20/17 A2994 NOSIG=
201711271300 METAR MROC 271300Z 11011KT 070V150 9999 FEW030 BKN120 21/17 A2997 NOSIG=
201711271400 METAR MROC 271400Z 10008KT CAVOK 22/17 A2999 NOSIG=
201711271500 METAR MROC 271500Z 10010KT 080V140 CAVOK 24/18 A2998 NOSIG=
201711271600 METAR MROC 271600Z 11013KT 080V140 9999 FEW040 BKN100 25/18 A2998 NOSIG=
201711271700 METAR MROC 271700Z 11011KT 080V150 9999 FEW035 BKN080 25/18 A2996 NOSIG=
201711271800 METAR MROC 271800Z 13010KT 090V180 9999 FEW035 BKN070 24/16 A2995 NOSIG=
201711271900 METAR MROC 271900Z 11013KT CAVOK 25/16 A2990 NOSIG=
201711272000 METAR MROC 272000Z 12011KT 090V150 CAVOK 25/16 A2988 NOSIG=
201711272100 METAR MROC 272100Z 13010KT 070V180 9999 FEW030 BKN150 24/17 A2988 NOSIG=
201711272200 METAR MROC 272200Z 12011KT 090V160 9999 FEW030 BKN150 24/18 A2989 NOSIG=
201711272300 METAR MROC 272300Z 11008KT 9999 FEW035 SCT060 23/17 A2991 NOSIG=
201711280000 METAR MROC 280000Z 10010G20KT 050V130 9999 FEW035 BKN060 22/17 A2993 NOSIG=
201711280100 METAR MROC 280100Z 08008KT 050V120 9999 FEW035 SCT100 22/18 A2995 NOSIG=
201711280200 METAR MROC 280200Z 08005KT 050V120 9999 FEW035 BKN100 22/17 A2997 NOSIG=
201711280300 METAR MROC 280300Z 07005KT 360V130 9999 FEW035 BKN100 21/17 A2999 NOSIG=
201711280400 METAR MROC 280400Z 10005KT 060V140 9999 FEW035 SCT120 21/17 A2999 NOSIG=
201711280500 METAR MROC 280500Z 10004KT 050V220 9999 FEW035 BKN120 21/17 A2998 NOSIG=
201711280600 METAR MROC 280600Z 12004KT 020V190 9999 FEW035 BKN120 22/17 A2997 NOSIG=
201711280700 METAR MROC 280700Z 04005KT 320V090 9999 FEW030 SCT120 22/17 A2995 NOSIG=
201711280800 METAR MROC 280800Z 13004KT 070V200 CAVOK 21/17 A2993 NOSIG=
201711280900 METAR MROC 280900Z VRB02KT 9999 FEW035 SCT120 21/17 A2992 NOSIG=
201711281000 METAR MROC 281000Z 14004KT 040V180 9999 FEW035 SCT120 20/16 A2994 NOSIG=
201711281100 METAR MROC 281100Z 13005KT 080V170 9999 FEW035 SCT120 20/16 A2995 NOSIG=
201711281200 METAR MROC 281200Z 06006KT 9999 FEW035 SCT120 19/17 A2996 NOSIG=
201711281300 METAR MROC 281300Z 06005KT 030V090 9999 FEW035 SCT120 21/17 A2999 NOSIG=
201711281400 METAR MROC 281400Z 00000KT 9999 FEW035 BKN120 22/18 A3001 NOSIG=
201711281500 METAR MROC 281500Z 10005KT 010V140 9999 FEW035 BKN120 23/18 A3002 NOSIG=
201711281600 METAR MROC 281600Z 12005KT 090V180 9999 -RA FEW030 SCT060 BKN120 23/19 A3002 NOSIG=
201711281700 METAR MROC 281700Z 10004KT 060V130 9999 -RA FEW030 SCT060 BKN120 22/19 A3001 NOSIG=
201711281800 METAR MROC 281800Z VRB02KT 9999 FEW030 SCT060 BKN120 24/19 A2998 NOSIG=
201711281900 METAR MROC 281900Z 12005KT 9999 FEW030 SCT060 BKN120 24/19 A2994 NOSIG=
201711282000 METAR MROC 282000Z 12010G20KT 9999 FEW030 SCT060 BKN120 24/18 A2992 NOSIG=
201711282100 METAR MROC 282100Z 11005KT 070V170 9999 FEW045 SCT050 BKN120 25/19 A2992 NOSIG=
201711282200 METAR MROC 282200Z 12006KT 070V160 9999 FEW035 BKN120 24/18 A2993 NOSIG=
201711282300 METAR MROC 282300Z 12006KT 070V140 9999 FEW010 BKN030 23/19 A2995 NOSIG=
201711290000 METAR MROC 290000Z 13006KT 090V150 9999 FEW030 22/18 A2996 NOSIG=
201711290100 METAR MROC 290100Z 09006KT 060V130 9999 FEW030 21/18 A2999 NOSIG=
201711290200 METAR MROC 290200Z 09006KT 050V120 9999 FEW030 BKN080 22/18 A3002 NOSIG=
201711290300 METAR MROC 290300Z 09006KT 060V120 9999 FEW030 22/19 A3001 NOSIG=
201711290400 METAR MROC 290400Z 12005KT 9999 FEW030 22/19 A3001 NOSIG=
201711290500 METAR MROC 290500Z 10007KT 9999 FEW030 21/19 A3001 NOSIG=
201711290600 METAR MROC 290600Z VRB02KT 9999 FEW020 21/19 A2999 NOSIG=
201711290700 METAR MROC 290700Z 01003KT 9999 FEW025 21/19 A2998 NOSIG=
201711290800 METAR MROC 290800Z 05005KT 9999 SCT030 21/19 A2996 NOSIG=
201711290900 METAR MROC 290900Z 05004KT 9999 -RA NSC 20/19 A2994 NOSIG=
201711291000 METAR MROC 291000Z 04006KT 9999 FEW020 21/19 A2994 NOSIG=
201711291100 METAR MROC 291100Z 08004KT 9999 FEW040 20/19 A2995 NOSIG=
201711291200 METAR MROC 291200Z 08006KT 9999 SCT030 21/19 A2996 NOSIG=
201711291300 METAR MROC 291300Z 09004KT 060V120 9999 BKN030 22/19 A3000 NOSIG=
201711291400 METAR MROC 291400Z 09006KT 060V120 9999 DZ SCT040 23/20 A3001 NOSIG=
201711291500 METAR MROC 291500Z 11008KT 070V140 9999 BKN045 24/20 A3001 REDZ NOSIG=
201711291600 METAR MROC 291600Z 10008KT 070V140 9999 DZ BKN030 24/19 A3001 NOSIG=
201711291700 METAR MROC 291700Z 13007KT 100V190 5000 -RA DZ FEW020 SCT060 BKN120 21/20 A3002 NOSIG=
201711291800 METAR MROC 291800Z 11009KT 070V140 9999 -DZ FEW010 BKN045 24/20 A2996 NOSIG=
201711291900 METAR MROC 291900Z 07010KT 050V110 9999 -DZ BKN030 24/19 A2994 NOSIG=
201711292000 METAR MROC 292000Z 09012G22KT 060V120 9999 -DZ FEW025 BKN0120 23/17 A2991 BECMG RA=
201711292100 METAR MROC 292100Z 11013KT 9999 -DZ SCT030 BKN070 23/17 A2992 BECMG RA=
201711292200 METAR MROC 292200Z 11012KT 9999 VCSH FEW030 BKN070 22/17 A2993 NOSIG=
201711292300 METAR MROC 292300Z 11011KT 9999 FEW030 BKN100 21/16 A2994 NOSIG=
201711300000 METAR MROC 300000Z 12009KT 090V150 9999 FEW030 SCT120 BKN250 21/16 A2996 NOSIG=
201711300100 METAR MROC 300100Z 12010KT 090V150 CAVOK 22/16 A2998 NOSIG=
201711300200 METAR MROC 300200Z 11010KT CAVOK 22/17 A3000 NOSIG=
201711300300 METAR MROC 300300Z 10014KT CAVOK 22/17 A3002 NOSIG=
201711300400 METAR MROC 300400Z 07010KT CAVOK 22/17 A3001 NOSIG=
201711300500 METAR MROC 300500Z 12005KT 070V160 CAVOK 21/17 A3001 NOSIG=
201711300600 METAR MROC 300600Z 12012KT 090V150 CAVOK 21/17 A2998 NOSIG=
201711300700 METAR MROC 300700Z 11009KT 070V170 9999 FEW045 21/17 A2998 NOSIG=
201711300800 METAR MROC 300800Z 03005KT 340V110 9999 FEW045 21/17 A2995 NOSIG=
201711300900 METAR MROC 300900Z 03005KT 350V090 9999 FEW040 20/17 A2995 NOSIG=
201711301000 METAR MROC 301000Z 05007KT 020V090 9999 FEW040 20/16 A2995 NOSIG=
201711301100 METAR MROC 301100Z 11011KT 080V140 9999 FEW040 21/16 A2996 NOSIG=
201711301200 METAR MROC 301200Z 03004KT 350V090 9999 FEW035 SCT250 20/17 A2998 NOSIG=
201711301300 METAR MROC 301300Z 08009KT 050V130 9999 FEW035 22/17 A2999 NOSIG=
201711301400 METAR MROC 301400Z 11015KT 9999 FEW035 24/17 A3001 NOSIG=
201711301500 METAR MROC 301500Z 11015KT 080V140 9999 FEW035 24/18 A3002 NOSIG=
201711301600 METAR MROC 301600Z 11013KT 080V170 9999 FEW040 25/18 A3002 NOSIG=
201711301700 METAR MROC 301700Z 09015G25KT 070V130 9999 FEW040 26/17 A2998 NOSIG=
201711301800 METAR MROC 301800Z 09013KT 070V130 9999 SCT040 SCT080 27/17 A2997 NOSIG=
201711301900 METAR MROC 301900Z 09014KT 9999 SCT040 BKN120 26/17 A2993 NOSIG=
201711302000 METAR MROC 302000Z 10010KT 9999 SCT040 BKN120 26/17 A2992 NOSIG=
201711302100 METAR MROC 302100Z 10010KT 9999 FEW035 BKN110 26/17 A2991 NOSIG=
201711302200 METAR MROC 302200Z 11012KT 080V140 9999 FEW035 BKN100 25/16 A2992 NOSIG=
201711302300 METAR MROC 302300Z 11011KT 9999 FEW035 BKN110 23/17 A2994 NOSIG=
201712010000 METAR MROC 010000Z 09007KT 9999 FEW035 SCT120 22/16 A2996 NOSIG=
201712010100 METAR MROC 010100Z 11004KT 070V150 9999 FEW040 SCT120 22/17 A2998 NOSIG=
201712010200 METAR MROC 010200Z 06007KT 9999 FEW040 BKN120 22/17 A3001 NOSIG=
201712010300 METAR MROC 010300Z 08006KT 9999 FEW040 BKN120 21/17 A3002 NOSIG=
201712010400 METAR MROC 010400Z 06005KT 030V100 9999 FEW025 BKN120 21/17 A3001 NOSIG=
201712010500 METAR MROC 010500Z 06006KT 010V100 9999 FEW025 SCT120 21/17 A2998 NOSIG=
201712010600 METAR MROC 010600Z 10012G23KT 060V140 9999 FEW035 21/16 A2995 NOSIG=
201712010700 METAR MROC 010700Z 05005KT 350V110 CAVOK 21/16 A2994 NOSIG=
201712010800 METAR MROC 010800Z 03004KT 9999 FEW020 21/16 A2994 NOSIG=
201712010900 METAR MROC 010900Z 06012KT 9999 FEW020 21/16 A2992 NOSIG=
201712011000 METAR MROC 011000Z 07004KT 010V150 9999 FEW020 21/17 A2993 NOSIG=
201712011100 METAR MROC 011100Z 07004KT 9999 FEW020 19/16 A2994 NOSIG=
201712011200 METAR MROC 011200Z 08005KT 020V160 CAVOK 20/16 A2997 NOSIG=
201712011300 METAR MROC 011300Z 10006KT 070V140 9999 FEW040 BKN120 21/16 A3000 NOSIG=
201712011400 METAR MROC 011400Z 09007KT 060V120 9999 FEW040 BKN120 22/16 A3002 NOSIG=
201712011500 METAR MROC 011500Z 09012KT 060V130 9999 FEW040 SCT120 24/17 A3002 NOSIG=
201712011600 METAR MROC 011600Z 10013KT 070V140 9999 FEW040 25/18 A3002 NOSIG=
201712011700 METAR MROC 011700Z 09015KT 060V120 9999 FEW040 SCT130 25/16 A3001 NOSIG=
201712011800 METAR MROC 011800Z 10017KT 070V130 9999 FEW040 SCT100 26/15 A2998 NOSIG=
201712011900 METAR MROC 011900Z 09016G26KT 050V130 CAVOK 26/15 A2995 NOSIG=
201712012000 METAR MROC 012000Z 09013KT 060V120 CAVOK 26/15 A2993 NOSIG=
201712012100 METAR MROC 012100Z 10016KT 070V140 CAVOK 26/13 A2992 NOSIG=
201712012200 METAR MROC 012200Z 10013KT CAVOK 25/12 A2991 NOSIG=
201712012300 METAR MROC 012300Z 10015KT 070V130 CAVOK 24/12 A2993 NOSIG=
201712020000 METAR MROC 020000Z 06007KT 040V100 CAVOK 22/12 A2995 NOSIG=
201712020100 METAR MROC 020100Z 05014KT 020V080 CAVOK 22/13 A2998 NOSIG=
201712020200 METAR MROC 020200Z 11005KT 060V160 CAVOK 21/13 A3001 NOSIG=
201712020300 METAR MROC 020300Z 06011KT 360V120 CAVOK 22/14 A3003 NOSIG=
201712020400 METAR MROC 020400Z 04005KT 010V080 CAVOK 19/11 A3002 NOSIG=
201712020500 METAR MROC 020500Z 09011KT 030V130 CAVOK 21/14 A3001 NOSIG=
201712020600 METAR MROC 020600Z 10010KT 060V130 CAVOK 20/14 A2999 NOSIG=
201712020700 METAR MROC 020700Z 06007KT CAVOK 20/13 A2997 NOSIG=
201712020800 METAR MROC 020800Z 05011KT CAVOK 20/12 A2994 NOSIG=
201712020900 METAR MROC 020900Z 05010G20KT 020V080 CAVOK 20/11 A2993 NOSIG=
201712021000 METAR MROC 021000Z 03007KT 350V110 CAVOK 20/11 A2993 NOSIG=
201712021100 METAR MROC 021100Z 07006KT CAVOK 19/11 A2994 NOSIG=
201712021200 METAR MROC 021200Z 08005KT 020V190 CAVOK 19/12 A2996 NOSIG=
201712021300 METAR MROC 021300Z 11007KT 050V180 CAVOK 21/13 A2999 NOSIG=
201712021400 METAR MROC 021400Z 08006KT 010V150 CAVOK 23/13 A3000 NOSIG=
201712021500 METAR MROC 021500Z 11014KT CAVOK 25/13 A3000 NOSIG=
201712021600 METAR MROC 021600Z 10014G24KT 070V150 CAVOK 27/13 A2999 NOSIG=
201712021700 METAR MROC 021700Z 11015KT 070V140 CAVOK 27/14 A2998 NOSIG=
201712021800 METAR MROC 021800Z 10015KT 070V130 CAVOK 27/16 A2996 NOSIG=
201712021900 METAR MROC 021900Z 08014KT CAVOK 27/14 A2994 NOSIG=
201712022000 METAR MROC 022000Z 08013KT CAVOK 27/15 A2992 NOSIG=
201712022100 METAR MROC 022100Z 07015KT CAVOK 26/13 A2991 NOSIG=
201712022200 METAR MROC 022200Z 07014KT 9999 FEW040 26/13 A2992 NOSIG=
201712022300 METAR MROC 022300Z 08011KT CAVOK 24/15 A2993 NOSIG=
201712030000 METAR MROC 030000Z 08011KT CAVOK 23/16 A2994 NOSIG=
201712030100 METAR MROC 030100Z 11011KT 080V140 CAVOK 22/16 A2995 NOSIG=
201712030200 METAR MROC 030200Z 09013KT 040V130 CAVOK 22/16 A2997 NOSIG=
201712030300 METAR MROC 030300Z 06007KT 020V130 CAVOK 21/15 A2998 NOSIG=
201712030301 METAR MROC 072200Z COR 23008KT 9999 4000SW -RA FEW005 SCT010 BKN020 22/21 A2990 BECMG 3000 BR BKN010=
201712030400 METAR MROC 030400Z 10009KT CAVOK 21/16 A2998 NOSIG=
201712030500 METAR MROC 030500Z 11012KT CAVOK 21/15 A2998 NOSIG=
201712030600 METAR MROC 030600Z 10005KT 050V180 CAVOK 20/15 A2996 NOSIG=
201712030700 METAR MROC 030700Z 10008KT 060V140 9999 SCT035 20/16 A2994 NOSIG=
201712030800 METAR MROC 030800Z 06004KT 030V130 CAVOK 20/16 A2992 NOSIG=
201712030900 METAR MROC 030900Z 05003KT 020V080 CAVOK 19/15 A2991 NOSIG=
201712031000 METAR MROC 031000Z 34003KT 310V040 9999 FEW035 19/15 A2991 NOSIG=
201712031100 METAR MROC 031100Z 03004KT 330V130 9999 FEW035 20/16 A2993 NOSIG=
201712031200 METAR MROC 031200Z 04005KT 360V100 9999 FEW035 SCT060 20/16 A2995 NOSIG=
201712031300 METAR MROC 031300Z 12005KT 9999 FEW035 SCT060 22/17 A2996 NOSIG=
201712031400 METAR MROC 031400Z 11014G24KT 9999 FEW035 SCT060 22/17 A2997 NOSIG=
201712031500 METAR MROC 031500Z 11012G22KT 9999 FEW035 24/17 A2997 NOSIG=
201712031600 METAR MROC 031600Z 08016G27KT 9999 FEW035 SCT250 26/17 A2997 NOSIG=
201712031700 METAR MROC 031700Z 11015G25KT 9999 FEW035 SCT060 26/17 A2994 NOSIG=
201712031800 METAR MROC 031800Z 10017G27KT 070V130 9999 FEW035 SCT060 25/17 A2993 NOSIG=
201712031900 METAR MROC 031900Z 09012G22KT 9999 FEW035 BKN060 26/17 A2989 NOSIG=
201712032000 METAR MROC 032000Z 09012KT 9999 FEW035 BKN060 25/16 A2988 NOSIG=
201712032100 METAR MROC 032100Z 09013KT 9999 FEW045 SCT090 26/16 A2986 NOSIG=
201712032200 METAR MROC 032200Z 12007KT 090V190 9999 FEW045 SCT090 25/16 A2987 NOSIG=
201712032300 METAR MROC 032300Z 08010KT 050V110 9999 SCT030 23/17 A2988 NOSIG=
201712040000 METAR MROC 040000Z 12009KT 100V160 9999 FEW030 22/16 A2989 NOSIG=
201712040100 METAR MROC 040100Z 11013KT 080V140 9999 FEW035 SCT140 21/15 A2992 NOSIG=
201712040200 METAR MROC 040200Z 11013KT 090V150 CAVOK 22/15 A2993 NOSIG=
201712040300 METAR MROC 040300Z 11015KT 9999 FEW030 21/16 A2995 NOSIG=
201712040400 METAR MROC 040400Z 11014KT CAVOK 21/16 A2995 NOSIG=
201712040500 METAR MROC 040500Z 09010KT CAVOK 21/16 A2994 NOSIG=
201712040600 METAR MROC 040600Z 11010G22KT CAVOK 21/16 A2994 NOSIG=
201712040700 METAR MROC 040700Z 11010KT 080V140 CAVOK 21/16 A2992 NOSIG=
201712040800 METAR MROC 040800Z 10012KT CAVOK 21/16 A2991 NOSIG=
201712040900 METAR MROC 040900Z 09007KT CAVOK 20/16 A2991 NOSIG=
201712041000 METAR MROC 041000Z 11013KT 090V150 CAVOK 21/16 A2991 NOSIG=
201712041100 METAR MROC 041100Z 10013KT CAVOK 21/16 A2993 NOSIG=
201712041200 METAR MROC 041200Z 10013KT CAVOK 21/16 A2994 NOSIG=
201712041300 METAR MROC 041300Z 11013KT 9999 FEW025 SCT090 22/17 A2996 NOSIG=
201712041400 METAR MROC 041400Z 11013G23KT 9999 FEW040 SCT100 24/17 A2998 NOSIG=
201712041500 METAR MROC 041500Z 11013G23KT 9999 FEW035 SCT120 24/17 A2998 NOSIG=
201712041600 METAR MROC 041600Z 09012G22KT 9999 FEW040 27/16 A2998 NOSIG=
201712041700 METAR MROC 041700Z 08016KT 050V110 9999 FEW025 27/16 A2996 NOSIG=
201712041800 METAR MROC 041800Z 08013G24KT 050V110 9999 FEW045 SCT350 28/16 A2993 NOSIG=
201712041900 METAR MROC 041900Z 07013KT 050V110 9999 FEW045 SCT300 28/17 A2990 NOSIG=
201712042000 METAR MROC 042000Z 07014KT 9999 SCT045 28/16 A2988 NOSIG=
201712042100 METAR MROC 042100Z 09011KT 9999 FEW030 SCT060 27/17 A2987 NOSIG=
201712042200 METAR MROC 042200Z 08009KT 9999 FEW030 BKN080 26/17 A2988 NOSIG=
201712042300 METAR MROC 042300Z 04006KT 360V090 9999 -RA FEW030 BKN080 24/19 A2991 NOSIG=
201712050000 METAR MROC 050000Z VRB02KT 9999 -RA FEW030 BKN080 21/18 A2993 NOSIG=
201712050100 METAR MROC 050100Z 12007KT 9999 -RA FEW030 BKN100 21/18 A2994 NOSIG=
201712050200 METAR MROC 050200Z 10010G23KT 050V130 9999 FEW040 BKN100 22/17 A2996 NOSIG=
201712050300 METAR MROC 050300Z 11011KT 9999 FEW040 SCT120 22/17 A2997 NOSIG=
201712050400 METAR MROC 050400Z 12008KT 9999 FEW035 SCT120 22/17 A2997 NOSIG=
201712050500 METAR MROC 050500Z 12011G21KT 090V160 9999 FEW035 SCT120 22/17 A2997 NOSIG=
201712050600 METAR MROC 050600Z 11013G23KT CAVOK 22/18 A2995 NOSIG=
201712050700 METAR MROC 050700Z 11010G20KT CAVOK 22/18 A2992 NOSIG=
201712050800 METAR MROC 050800Z 12007KT 090V170 9999 FEW035 BKN120 22/18 A2991 NOSIG=
201712050900 METAR MROC 050900Z 11010KT CAVOK 22/17 A2991 NOSIG=
201712051000 METAR MROC 051000Z 11013KT CAVOK 23/17 A2991 NOSIG=
201712051100 METAR MROC 051100Z 10014G24KT 9999 FEW040 BKN120 23/17 A2993 NOSIG=
201712051200 METAR MROC 051200Z 12011KT 080V150 CAVOK 22/18 A2994 NOSIG=
201712051300 METAR MROC 051300Z 09012KT 050V110 9999 FEW040 23/18 A2997 NOSIG=
201712051400 METAR MROC 051400Z 10015KT 9999 FEW040 25/18 A2999 NOSIG=
201712051500 METAR MROC 051500Z 10013G23KT 9999 FEW040 25/18 A2999 NOSIG=
201712051600 METAR MROC 051600Z 09015KT 060V130 9999 FEW040 SCT080 27/18 A2999 NOSIG=
201712051700 METAR MROC 051700Z 08011KT 050V110 9999 SCT040 SCT080 29/18 A2997 NOSIG=
201712051800 METAR MROC 051800Z 11008KT 060V160 9999 SCT040 BKN080 27/18 A2995 NOSIG=
201712051900 METAR MROC 051900Z 12009KT 070V160 9999 SCT040 BKN080 28/18 A2993 NOSIG=
201712052000 METAR MROC 052000Z 08009KT 040V130 9999 SCT040 BKN080 27/18 A2991 NOSIG=
201712052100 METAR MROC 052100Z 13005KT 090V160 9999 -RA FEW040 SCT080 25/19 A2990 NOSIG=
201712052200 METAR MROC 052200Z 23007KT 9999 4800SW -RA FEW010 SCT035 BKN110 23/22 A2993 NOSIG=
201712052300 METAR MROC 052300Z 27005KT 9999 4500SW BCFG FEW008 SCT025 BKN100 22/21 A2994 NOSIG=
201712060000 METAR MROC 060000Z VRB02KT 5000 RA SCT015 BKN100 22/21 A2997 NOSIG=
201712060100 METAR MROC 060100Z VRB02KT 9999 -RA NSC 21/20 A2997 NOSIG=
201712060200 METAR MROC 060200Z 11005KT CAVOK 21/20 A2997 RERA NOSIG=
201712060300 METAR MROC 060300Z 04006KT 360V080 CAVOK 22/19 A2997 NOSIG=
201712060400 METAR MROC 060400Z 07003KT 030V120 CAVOK 22/18 A2996 NOSIG=
201712060500 METAR MROC 060500Z 30003KT 220V350 CAVOK 21/18 A2996 NOSIG=
201712060600 METAR MROC 060600Z VRB02KT CAVOK 21/18 A2995 NOSIG=
201712060700 METAR MROC 060700Z 08008KT 9999 FEW020 21/18 A2993 NOSIG=
201712060800 METAR MROC 060800Z 11012KT 9999 FEW030 22/18 A2991 NOSIG=
201712060900 METAR MROC 060900Z 12006KT 090V180 CAVOK 22/17 A2990 NOSIG=
201712061000 METAR MROC 061000Z 08007KT 050V130 CAVOK 21/17 A2992 NOSIG=
201712061100 METAR MROC 061100Z 10014KT CAVOK 23/14 A2993 NOSIG=
201712061200 METAR MROC 061200Z 03004KT CAVOK 21/17 A2996 NOSIG=
201712061300 METAR MROC 061300Z 10009KT CAVOK 23/16 A2996 NOSIG=
201712061400 METAR MROC 061400Z 11012KT 090V150 CAVOK 25/17 A2995 NOSIG=
201712061500 METAR MROC 061500Z 11013KT 080V140 CAVOK 27/18 A2996 NOSIG=
201712061600 METAR MROC 061600Z 11009KT 090V150 CAVOK 29/18 A2993 NOSIG=
201712061700 METAR MROC 061700Z 16008KT 100V200 CAVOK 31/15 A2994 NOSIG=
201712061800 METAR MROC 061800Z 24013KT 9999 FEW040 27/20 A2993 NOSIG=
201712061900 METAR MROC 061900Z 24011KT 9999 FEW040 SCT080 27/22 A2992 NOSIG=
201712062000 METAR MROC 062000Z 25009KT 210V270 9999 FEW040 BKN070 26/22 A2991 NOSIG=
201712062100 METAR MROC 062100Z 25010KT 9999 FEW020TCU SCT035 24/21 A2991 NOSIG=
201712062200 METAR MROC 062200Z 24008KT 9999 FEW025 SCT035 24/22 A2990 NOSIG=
201712062300 METAR MROC 062300Z 25007KT 220V280 9999 FEW007 BKN025 23/21 A2993 NOSIG=
201712070000 METAR MROC 070000Z 28006KT 250V310 9999 FEW010 SCT030 22/21 A2996 NOSIG=
201712070100 METAR MROC 070100Z 18003KT 9999 FEW010 BKN025 22/20 A2997 NOSIG=
201712070200 METAR MROC 070200Z 28004KT 230V320 9999 SCT015 22/21 A3000 NOSIG=
201712070300 METAR MROC 070300Z VRB02KT 9999 FEW010 21/20 A3000 NOSIG=
201712070400 METAR MROC 070400Z 10002KT CAVOK 21/20 A2999 NOSIG=
201712070500 METAR MROC 070500Z VRB03KT CAVOK 21/20 A2998 NOSIG=
201712070600 METAR MROC 070600Z VRB02KT CAVOK 21/19 A2996 NOSIG=
201712070700 METAR MROC 070700Z VRB02KT CAVOK 19/18 A2995 NOSIG=
201712070800 METAR MROC 070800Z 10006KT CAVOK 18/18 A2994 NOSIG=
201712070900 METAR MROC 070900Z 06006KT CAVOK 19/18 A2994 NOSIG=
201712071000 METAR MROC 071000Z 07006KT CAVOK 20/17 A2993 NOSIG=
201712071100 METAR MROC 071100Z 05007KT CAVOK 20/18 A2994 NOSIG=
201712071200 METAR MROC 071200Z 05003KT CAVOK 19/17 A2996 NOSIG=
201712071300 METAR MROC 071300Z 35003KT 260V060 CAVOK 21/18 A2998 NOSIG=
201712071400 METAR MROC 071400Z 35003KT 200V320 CAVOK 23/18 A3000 NOSIG=
201712071500 METAR MROC 071500Z VRB02KT 9999 FEW035 25/18 A3000 NOSIG=
201712071600 METAR MROC 071600Z VRB03KT 9999 FEW035 26/18 A3000 NOSIG=
201712071700 METAR MROC 071700Z 24007KT 210V270 9999 SCT035 26/20 A2996 NOSIG=
201712071800 METAR MROC 071800Z 24011KT 210V280 9999 SCT030 26/21 A2994 NOSIG=
201712071900 METAR MROC 071900Z 25011KT 220V280 9999 FEW020 SCT030 25/21 A2991 NOSIG=
201712072000 METAR MROC 072000Z 25012KT 210V279 9999 FEW020 SCT030 24/21 A2991 NOSIG=
201712072100 METAR MROC 072100Z 25010KT 9999 SCT020 BKN030 23/21 A2991 NOSIG=
201712072200 METAR MROC 072200Z 23008KT 9999 4000 -RA FEW005 SCT010 BKN020 22/21 A2990 BECMG 3000 BR BKN010=
201712072300 METAR MROC 072300Z 25009KT 1500 BR FEW001 SCT010 BKN020 20/20 A2992 BECMG 5000=
201712080000 METAR MROC 080000Z 26008KT 240V320 8000 2000SW VCFG FEW005 SCT010 BKN020 20/20 A2994 NOSIG=
201712080100 METAR MROC 080100Z 28005KT 260V320 5000 RA FEW005 BKN020 21/20 A2997 NOSIG=
201712080200 METAR MROC 080200Z 27005KT 240V300 9999 FEW010 SCT020 BKN100 21/20 A2999 RERA NOSIG=
201712080300 METAR MROC 080300Z 32003KT 280V040 9999 FEW005 SCT020 BKN100 21/20 A3001 NOSIG=
201712080400 METAR MROC 080400Z VRB02KT 5000 BR SCT005 BKN020 21/20 A3001 NOSIG=
201712080500 METAR MROC 080500Z 00000KT 5000 BR SCT005 BKN020 21/20 A3001 NOSIG=
201712080600 METAR MROC 080600Z VRB02KT 9999 3000SW BCFG SCT015 BKN100 21/20 A2999 NOSIG=
201712080700 METAR MROC 080700Z 32002KT 9999 FEW030 21/20 A2997 NOSIG=
201712080800 METAR MROC 080800Z 25004KT 5000 BR FEW002 SCT015 BKN035 20/20 A2995 NOSIG=
201712080900 METAR MROC 080900Z 20002KT 4000 BR SCT005 BKN020 20/20 A2996 NOSIG=
201712081000 METAR MROC 081000Z 08003KT 3000 BR SCT005 BKN020 20/20 A2994 NOSIG=
201712081100 METAR MROC 081100Z VRB02KT 9999 3000SW BCFG FEW005 SCT015 BKN100 20/19 A2996 NOSIG=
201712081200 METAR MROC 081200Z VRB02KT 6000 2500SW BCFG FEW005 SCT010 BKN100 21/20 A2998 NOSIG=
201712081300 METAR MROC 081300Z VRB02KT 6000 2500SW RA BCFG FEW003 SCT010 BKN070 20/20 A3000 NOSIG=
201712081400 METAR MROC 081400Z 11002KT 9999 4500SW VCFG SCT015 BKN090 21/20 A3002 RERA NOSIG=
201712081500 METAR MROC 081500Z 00000KT 9999 VCFG FEW030 SCT100 24/20 A3002 NOSIG=
201712081600 METAR MROC 081600Z 26004KT 210V320 9999 FEW030 SCT100 25/19 A3001 NOSIG=
201712081700 METAR MROC 081700Z 24006KT 170V280 9999 SCT030 25/20 A2998 NOSIG=
201712081800 METAR MROC 081800Z 23008KT 190V260 9999 SCT025 26/21 A2996 NOSIG=
201712081900 METAR MROC 081900Z 25014KT 9999 SCT008 BKN100 23/21 A2994 NOSIG=
201712082000 METAR MROC 082000Z 22007KT 9999 VCSH FEW005 FEW015TCU BKN100 23/21 A2993 NOSIG=
201712082100 METAR MROC 082100Z 21004KT 9999 FEW020 BKN120 24/20 A2992 NOSIG=
201712082200 METAR MROC 082200Z 26006KT 170V320 9999 SCT025 24/20 A2992 NOSIG=
201712082300 METAR MROC 082300Z 25007KT 9999 4500SW FEW010TCU SCT012 SCT200 22/21 A2995 BECMG 5000 BR=
201712090000 METAR MROC 090000Z COR VRB02KT 9999 2500SW BCFG SCT008 SCT130 21/21 A2996 NOSIG=
201712090100 METAR MROC 090100Z 13003KT 9999 FEW010 SCT030 BKN100 21/20 A2997 NOSIG=
201712090200 METAR MROC 090200Z VRB02KT 9999 FEW025 21/20 A2999 NOSIG=
201712090300 METAR MROC 090300Z 29004KT 260V320 9000 3000SW BCFG FEW003 21/20 A3001 NOSIG=
201712090400 METAR MROC 090400Z VRB01KT 2000 SCT002 BKN004 20/20 A3002 NOSIG=
201712090500 METAR MROC 090500Z 23003KT 1500 BR BKN002 20/20 A3002 NOSIG=
201712090600 METAR MROC 090600Z 36003KT 330V040 5000 BR BKN005 20/20 A3001 NOSIG=
201712090700 METAR MROC 090700Z 00000KT 5000 BR FEW004 BKN015 21/20 A2999 NOSIG=
201712090800 METAR MROC 090800Z 16002KT 5000 BR BKN010 21/20 A2998 NOSIG=
201712090900 METAR MROC 090900Z 21002KT 5000 BR SCT004 BKN010 21/20 A2998 NOSIG=
201712091000 METAR MROC 091000Z 08003KT 040V110 8000 VCFG BKN010 20/20 A2998 NOSIG=
201712091100 METAR MROC 091100Z VRB02KT 8000 VCFG SCT012 BKN025 20/19 A3000 NOSIG=
201712091200 METAR MROC 091200Z 08003KT 9999 FEW004 BKN070 20/19 A3001 NOSIG=
201712091300 METAR MROC 091300Z 09003KT 9999 VCFG NSC 21/19 A3003 NOSIG=
201712091400 METAR MROC 091400Z 29003KT 9999 VCFG FEW030 SCT250 23/19 A3005 NOSIG=
201712091500 METAR MROC 091500Z 28004KT 220V360 9999 VCFG FEW035 BKN250 24/19 A3006 NOSIG=
201712091600 METAR MROC 091600Z 24006KT 200V270 9999 VCFG FEW030 BKN250 25/20 A3005 NOSIG=
201712091700 METAR MROC 091700Z 25008KT 200V280 9999 VCFG FEW030 BKN250 26/20 A3004 NOSIG=
201712091800 METAR MROC 091800Z 24009KT 210V280 9999 FEW030TCU FEW030 BKN250 26/21 A3001 NOSIG=
201712091900 METAR MROC 091900Z 24010KT 210V280 9999 FEW025 BKN030 25/21 A2998 NOSIG=
201712092000 METAR MROC 092000Z 34013KT 290V020 3000 R07/P2000N RA VCTS FEW015CB SCT030 BKN090 22/21 A2997 NOSIG=
201712092100 METAR MROC 092100Z 12003KT 080V180 9999 FEW030 BKN100 23/21 A2995 NOSIG=
201712092200 METAR MROC 092200Z VRB02KT 9999 FEW040 SCT100 25/19 A2997 NOSIG=
201712092300 METAR MROC 092300Z 24004KT 210V270 9999 FEW040 SCT120 23/21 A2998 NOSIG=
201712100000 METAR MROC 100000Z 10006KT 070V150 9999 FEW040 SCT120 22/19 A3000 NOSIG=
201712100100 METAR MROC 100100Z 12006KT 080V160 9999 FEW040 SCT100 22/19 A3002 NOSIG=
201712100200 METAR MROC 100200Z 09016KT 060V120 9999 FEW040 22/18 A3003 NOSIG=
201712100300 METAR MROC 100300Z 10014G24KT 9999 FEW040 22/18 A3006 NOSIG=
201712100400 METAR MROC 100400Z 08010G20KT 040V130 9999 FEW035 23/18 A3006 NOSIG=
201712100500 METAR MROC 100500Z 09004KT 9999 FEW035 22/17 A3007 NOSIG=
201712100600 METAR MROC 100600Z 22003KT 9999 FEW035 SCT120 21/16 A3004 NOSIG=
201712100700 METAR MROC 100700Z 08010KT 050V120 9999 FEW035 SCT120 22/16 A3002 NOSIG=
201712100800 METAR MROC 100800Z 03021G45KT 350V080 9999 FEW035 SCT120 23/14 A3002 NOSIG=
201712100900 METAR MROC 100900Z 15007KT 090V220 9999 FEW035 21/15 A3001 NOSIG=
201712101000 METAR MROC 101000Z 34006KT 9999 FEW035 22/14 A3000 NOSIG=
201712101100 METAR MROC 101100Z 19006KT 9999 FEW035 21/14 A3001 NOSIG=
201712101200 METAR MROC 101200Z 14010G20KT 050V200 9999 FEW035 SCT120 BKN200 20/14 A3003 NOSIG=
201712101300 METAR MROC 101300Z 10012G22KT 9999 FEW030 BKN100 21/15 A3007 NOSIG=
201712101400 METAR MROC 101400Z VRB07G17KT 9999 FEW030 SCT100 22/15 A3008 NOSIG=
201712101500 METAR MROC 101500Z 11015KT 070V150 9999 FEW030 SCT100 22/15 A3007 NOSIG=
201712101600 METAR MROC 101600Z 11009KT 060V180 9999 FEW030 SCT100 24/16 A3008 NOSIG=
201712101700 METAR MROC 101700Z 11016G30KT 080V170 9999 FEW030 SCT100 BKN250 22/15 A3006 NOSIG=
201712101800 METAR MROC 101800Z 12014G26KT 9999 FEW030 SCT120 BKN250 23/15 A3004 NOSIG=
201712101900 METAR MROC 101900Z 11017G29KT 9999 FEW030 BKN120 21/15 A3001 NOSIG=
201712102000 METAR MROC 102000Z 12016G29KT 070V200 9999 FEW030 BKN120 21/15 A3000 NOSIG=
201712102100 METAR MROC 102100Z 11017G27KT 070V150 9999 FEW040 BKN110 20/15 A3001 NOSIG=
201712102200 METAR MROC 102200Z 11012G26KT 050V160 9999 FEW040 BKN110 20/15 A3003 NOSIG=
201712102300 METAR MROC 102300Z 08010G20KT 9999 FEW035 BKN110 20/14 A3004 NOSIG=
201712110000 METAR MROC 110000Z 10011KT 9999 FEW035 BKN110 19/14 A3006 NOSIG=
201712110100 METAR MROC 110100Z 07009KT 030V110 9999 FEW035 BKN100 19/15 A3008 NOSIG=
201712110200 METAR MROC 110200Z 09015KT 9999 FEW035 BKN100 19/15 A3011 NOSIG=
201712110300 METAR MROC 110300Z 10014KT 9999 FEW035 SCT100 18/15 A3012 NOSIG=
201712110400 METAR MROC 110400Z 09011G21KT 030V150 9999 FEW030 BKN100 19/14 A3011 NOSIG=
201712110500 METAR MROC 110500Z 09011G22KT 040V140 9999 FEW012 BKN120 19/14 A3010 NOSIG=
201712110600 METAR MROC 110600Z 11010G20KT 060V170 9999 FEW015 BKN120 18/14 A3009 NOSIG=
201712110700 METAR MROC 110700Z 08008KT 040V120 9999 -RA FEW025 BKN120 18/14 A3007 NOSIG=
201712110800 METAR MROC 110800Z 10019G34KT 070V140 9999 FEW025 BKN120 18/13 A3003 NOSIG=
201712110900 METAR MROC 110900Z 10017G28KT 9999 FEW030 BKN120 18/14 A3003 NOSIG=
201712111000 METAR MROC 111000Z 09014G24KT 9999 FEW025 BKN120 18/13 A3005 NOSIG=
201712111100 METAR MROC 111100Z 08013KT 050V120 9999 FEW025 BKN120 18/14 A3006 NOSIG=
201712111200 METAR MROC 111200Z 08017G33KT 040V110 9999 SCT030 BKN120 19/12 A3008 NOSIG=
201712111300 METAR MROC 111300Z 09019G33KT 060V120 9999 FEW030 BKN110 18/13 A3008 NOSIG=
201712111400 METAR MROC 111400Z 10014G24KT 050V150 9999 FEW030 BKN120 19/12 A3011 NOSIG=
201712111500 METAR MROC 111500Z 11012G22KT 070V180 9999 FEW030 BKN110 19/13 A3012 NOSIG=
201712111600 METAR MROC 111600Z 10017G30KT 080V150 9999 FEW030 BKN120 21/13 A3008 NOSIG=
201712111700 METAR MROC 111700Z 10016G28KT 040V140 9999 FEW035 BKN120 20/13 A3007 NOSIG=
201712111800 METAR MROC 111800Z 11017G30KT 080V140 9999 FEW035 BKN120 19/13 A3004 NOSIG=
201712111900 METAR MROC 111900Z 09014G28KT 050V120 9999 FEW035 BKN120 20/14 A3000 NOSIG=
201712112000 METAR MROC 112000Z 10016G28KT 9999 FEW035 SCT120 BKN200 22/14 A2998 NOSIG=
201712112100 METAR MROC 112100Z 10011G22KT 060V140 9999 FEW035 SCT120 BKN200 20/14 A2997 NOSIG=
201712112200 METAR MROC 112200Z 10015G29KT 050V140 9999 FEW035 BKN120 21/15 A2999 NOSIG=
201712112300 METAR MROC 112300Z 10008KT 040V200 9999 FEW035 BKN180 20/15 A3002 NOSIG=
201712120000 METAR MROC 120000Z 02006KT 300V110 9999 FEW035 BKN200 20/15 A3004 NOSIG=
201712120100 METAR MROC 120100Z 07012KT CAVOK 19/15 A3006 NOSIG=
201712120200 METAR MROC 120200Z 07011KT CAVOK 19/15 A3008 NOSIG=
201712120300 METAR MROC 120300Z 06007KT CAVOK 19/15 A3010 NOSIG=
201712120400 METAR MROC 120400Z 12006KT 090V160 9999 FEW040 SCT120 19/15 A3011 NOSIG=
201712120500 METAR MROC 120500Z 10006KT 070V150 9999 FEW040 SCT120 19/14 A3010 NOSIG=
201712120600 METAR MROC 120600Z 07005KT 040V100 CAVOK 18/15 A3008 NOSIG=
201712120700 METAR MROC 120700Z 08006KT 050V110 CAVOK 18/14 A3005 NOSIG=
201712120800 METAR MROC 120800Z 12006KT 070V150 CAVOK 18/13 A3005 NOSIG=
201712120900 METAR MROC 120900Z 10009KT 070V140 CAVOK 18/13 A3003 NOSIG=
201712121000 METAR MROC 121000Z 11009KT 080V140 CAVOK 18/14 A3005 NOSIG=
201712121100 METAR MROC 121100Z 09011KT 060V140 CAVOK 18/14 A3007 NOSIG=
201712121200 METAR MROC 121200Z 07010KT 030V100 9999 FEW040 BKN120 18/14 A3007 NOSIG=
201712121300 METAR MROC 121300Z 13008KT 9999 FEW040 BKN120 18/13 A3009 NOSIG=
201712121400 METAR MROC 121400Z 08010KT 9999 FEW035 BKN120 19/14 A3012 NOSIG=
201712121500 METAR MROC 121500Z 07010KT 9999 FEW035 BKN120 21/14 A3012 NOSIG=
201712121600 METAR MROC 121600Z 06009KT 030V090 9999 FEW030 OVC120 20/14 A3011 NOSIG=
201712121700 METAR MROC 121700Z 06017KT 9999 -RA FEW030 SCT060 BKN120 21/15 A3007 NOSIG=
201712121800 METAR MROC 121800Z 09011KT 060V140 9999 FEW030 OVC120 21/15 A3004 NOSIG=
201712121900 METAR MROC 121900Z 10012KT 070V130 9999 FEW030 BKN120 22/15 A3001 NOSIG=
201712122000 METAR MROC 122000Z 09013KT 050V120 9999 FEW030 BKN130 21/14 A3000 NOSIG=
201712122100 METAR MROC 122100Z 10013G23KT 9999 FEW030 BKN120 21/14 A2998 NOSIG=
201712122200 METAR MROC 122200Z 12016G28KT 090V150 9999 FEW030 BKN120 21/14 A2998 NOSIG=
201712122300 METAR MROC 122300Z 11018G29KT 9999 FEW030 BKN120 20/14 A3001 NOSIG=
201712130000 METAR MROC 130000Z 11015G25KT 070V140 9999 FEW030 BKN120 19/14 A3004 NOSIG=
201712130100 METAR MROC 130100Z 11010G20KT 070V150 9999 FEW030 19/15 A3007 NOSIG=
201712130200 METAR MROC 130200Z 11010G20KT 070V150 9999 FEW030 19/15 A3008 NOSIG=
201712130300 METAR MROC 130300Z 11013G23KT 080V140 9999 FEW030 19/15 A3009 NOSIG=
201712130400 METAR MROC 130400Z 10012KT 070V130 CAVOK 20/15 A3008 NOSIG=
201712130500 METAR MROC 130500Z 07009KT 040V100 CAVOK 19/15 A3007 NOSIG=
201712130600 METAR MROC 130600Z 10013G24KT CAVOK 19/15 A3006 NOSIG=
201712130700 METAR MROC 130700Z 11010KT 070V140 CAVOK 19/14 A3004 NOSIG=
201712130800 METAR MROC 130800Z 09009KT 060V130 CAVOK 18/14 A3002 NOSIG=
201712130900 METAR MROC 130900Z 11012KT 070V150 CAVOK 18/14 A3002 NOSIG=
201712131000 METAR MROC 131000Z 10013G23KT CAVOK 18/14 A3004 NOSIG=
201712131100 METAR MROC 131100Z 08010G20KT CAVOK 18/14 A3004 NOSIG=
201712131200 METAR MROC 131200Z 10011KT 070V150 CAVOK 18/13 A3006 NOSIG=
201712131300 METAR MROC 131300Z 09007KT 040V120 9999 FEW035 BKN250 19/14 A3009 NOSIG=
201712131400 METAR MROC 131400Z COR 09011G22KT 050V120 9999 FEW035 BKN250 20/14 A3009 NOSIG=
201712131500 METAR MROC 131500Z 11011G21KT 080V140 9999 FEW030 BKN120 21/14 A3009 NOSIG=
201712131600 METAR MROC 131600Z 10010G20KT 060V130 9999 FEW030 BKN200 21/14 A3009 NOSIG=
201712131700 METAR MROC 131700Z 10007KT 020V140 9999 FEW030 BKN200 22/14 A3007 NOSIG=
201712131800 METAR MROC 131800Z 08010G20KT 040V110 9999 FEW030 SCT060 BKN200 22/14 A3004 NOSIG=
201712131900 METAR MROC 131900Z 07010G20KT 030V130 9999 FEW030 SCT060 BKN200 22/15 A3001 NOSIG=
201712132000 METAR MROC 132000Z 10013G23KT 070V130 9999 FEW030 BKN200 22/15 A2998 NOSIG=
201712132100 METAR MROC 132100Z 12015KT 090V160 9999 FEW025 SCT200 23/15 A2996 NOSIG=
201712132200 METAR MROC 132200Z 11012G22KT 080V140 9999 FEW025 21/14 A2997 NOSIG=
201712132300 METAR MROC 132300Z 12011G21KT 100V180 9999 FEW020 20/14 A2999 NOSIG=
201712140000 METAR MROC 140000Z 10011G21KT 070V130 9999 FEW020 19/15 A3000 NOSIG=
201712140100 METAR MROC 140100Z 08010G20KT 030V120 9999 FEW030 19/15 A3002 NOSIG=
201712140200 METAR MROC 140200Z 09011KT 060V140 9999 FEW030 18/14 A3005 NOSIG=
201712140300 METAR MROC 140300Z 10011KT 080V140 9999 FEW030 18/14 A3006 NOSIG=
201712140400 METAR MROC 140400Z 10010KT 070V130 9999 FEW030 19/14 A3006 NOSIG=
201712140500 METAR MROC 140500Z 10016G26KT CAVOK 18/14 A3004 NOSIG=
201712140600 METAR MROC 140600Z 11016KT CAVOK 18/14 A3002 NOSIG=
201712140700 METAR MROC 140700Z 11016KT CAVOK 18/15 A2998 NOSIG=
201712140800 METAR MROC 140800Z 11017KT CAVOK 19/15 A2995 NOSIG=
201712140900 METAR MROC 140900Z 11018KT CAVOK 19/15 A2994 NOSIG=
201712141000 METAR MROC 141000Z 11016G27KT CAVOK 19/15 A2994 NOSIG=
201712141100 METAR MROC 141100Z 11015KT 080V150 CAVOK 19/15 A2996 NOSIG=
201712141200 METAR MROC 141200Z 08008KT 040V140 9999 FEW030 19/15 A2999 NOSIG=
201712141300 METAR MROC 141300Z 11014KT 070V140 9999 FEW025 20/15 A3000 NOSIG=
201712141400 METAR MROC 141400Z 10009KT 060V130 9999 FEW030 21/15 A3003 NOSIG=
201712141500 METAR MROC 141500Z 11010KT 080V140 9999 FEW035 24/16 A3002 NOSIG=
201712141600 METAR MROC 141600Z 13014G24KT 090V170 9999 FEW040 25/16 A3001 NOSIG=
201712141700 METAR MROC 141700Z 12014KT 090V170 9999 FEW040 SCT200 26/17 A2999 NOSIG=
201712141800 METAR MROC 141800Z 12012G23KT 090V170 9999 FEW040 SCT200 27/18 A2997 NOSIG=
201712141900 METAR MROC 141900Z 10013KT 070V130 9999 FEW045 SCT220 28/17 A2995 NOSIG=
201712142000 METAR MROC 142000Z 09012KT 060V120 9999 FEW040 BKN220 28/16 A2993 NOSIG=
201712142100 METAR MROC 142100Z 10010KT 9999 FEW040 BKN250 27/17 A2991 NOSIG=
201712142200 METAR MROC 142200Z 10008KT 9999 FEW040 BKN250 27/17 A2993 NOSIG=
201712142300 METAR MROC 142300Z 13006KT 090V180 9999 FEW040 24/17 A2994 NOSIG=
201712150000 METAR MROC 150000Z 13004KT 080V180 9999 FEW040 22/17 A2996 NOSIG=
201712150100 METAR MROC 150100Z 26004KT 230V290 CAVOK 21/18 A2998 NOSIG=
201712150200 METAR MROC 150200Z 04005KT 340V130 CAVOK 21/18 A2999 NOSIG=
201712150300 METAR MROC 150300Z VRB04KT CAVOK 21/18 A3000 NOSIG=
201712150400 METAR MROC 150400Z 30005KT CAVOK 21/17 A3000 NOSIG=
201712150500 METAR MROC 150500Z 07005KT CAVOK 21/17 A2999 NOSIG=
201712150600 METAR MROC 150600Z VRB02KT CAVOK 21/17 A2998 NOSIG=
201712150700 METAR MROC 150700Z 05003KT 340V130 9999 FEW045 20/17 A2996 NOSIG=
201712150800 METAR MROC 150800Z 10005KT 9999 FEW045 21/17 A2995 NOSIG=
201712150900 METAR MROC 150900Z 11010G20KT 080V140 9999 FEW045 21/16 A2995 NOSIG=
201712151000 METAR MROC 151000Z 09014G24KT CAVOK 20/15 A2995 NOSIG=
201712151100 METAR MROC 151100Z 11010KT CAVOK 20/14 A2998 NOSIG=
201712151200 METAR MROC 151200Z 13010G20KT 100V160 CAVOK 19/14 A2998 NOSIG=
201712151300 METAR MROC 151300Z 11012KT CAVOK 21/13 A3001 NOSIG=
201712151400 METAR MROC 151400Z 12009KT 090V160 CAVOK 24/12 A3002 NOSIG=
201712151500 METAR MROC 151500Z 13008KT 090V170 CAVOK 25/15 A3003 NOSIG=
201712151600 METAR MROC 151600Z 11008KT 080V150 CAVOK 26/13 A3002 NOSIG=
201712151700 METAR MROC 151700Z 10010KT 070V170 CAVOK 27/15 A3001 NOSIG=
201712151800 METAR MROC 151800Z 10013KT 070V130 CAVOK 25/13 A2999 NOSIG=
201712151900 METAR MROC 151900Z 08017KT CAVOK 25/16 A2995 NOSIG=
201712152000 METAR MROC 152000Z 08014KT 9999 FEW040 BKN070 25/17 A2993 NOSIG=
201712152100 METAR MROC 152100Z 09015KT CAVOK 24/13 A2993 NOSIG=
201712152200 METAR MROC 152200Z 11011KT 070V130 9999 FEW045 24/15 A2994 NOSIG=
201712152300 METAR MROC 152300Z 11012KT 080V150 CAVOK 23/14 A2994 NOSIG=
201712160000 METAR MROC 160000Z 11012KT CAVOK 22/11 A2995 NOSIG=
201712160100 METAR MROC 160100Z 13007KT 080V180 CAVOK 21/13 A2998 NOSIG=
201712160200 METAR MROC 160200Z 10007KT 060V130 CAVOK 20/13 A2999 NOSIG=
201712160300 METAR MROC 160300Z 08006KT 040V120 CAVOK 20/13 A3000 NOSIG=
201712160400 METAR MROC 160400Z 10010KT 050V110 CAVOK 20/15 A3001 NOSIG=
201712160500 METAR MROC 160500Z 11009KT 070V130 CAVOK 20/15 A3000 NOSIG=
201712160600 METAR MROC 160600Z 12010KT 090V160 9999 FEW040 20/14 A2998 NOSIG=
201712160700 METAR MROC 160700Z 06004KT 020V110 CAVOK 20/14 A2998 NOSIG=
201712160800 METAR MROC 160800Z 11009KT CAVOK 20/14 A2996 NOSIG=
201712160900 METAR MROC 160900Z 11008KT CAVOK 20/15 A2996 NOSIG=
201712161000 METAR MROC 161000Z 08006KT CAVOK 19/15 A2996 NOSIG=
201712161100 METAR MROC 161100Z 12008KT CAVOK 20/15 A2996 NOSIG=
201712161200 METAR MROC 161200Z 11012KT 090V150 9999 SCT040 20/16 A2999 NOSIG=
201712161300 METAR MROC 161300Z 11015KT 9999 FEW040 21/16 A3001 NOSIG=
201712161400 METAR MROC 161400Z 11011KT 9999 FEW045 24/16 A3002 NOSIG=
201712161500 METAR MROC 161500Z 10014KT 070V130 9999 FEW045 27/15 A3002 NOSIG=
201712161600 METAR MROC 161600Z 09014G24KT 060V130 9999 FEW045 28/15 A3002 NOSIG=
201712161700 METAR MROC 161700Z 08014G24KT 050V110 9999 FEW045 28/16 A2999 NOSIG=
201712161800 METAR MROC 161800Z 07018G28KT 040V100 9999 SCT040 27/16 A2997 NOSIG=
201712161900 METAR MROC 161900Z 06022G32KT 9999 SCT040 28/14 A2995 NOSIG=
201712162000 METAR MROC 162000Z 07018KT 9999 FEW040 28/16 A2993 NOSIG=
201712162100 METAR MROC 162100Z 07016KT 9999 FEW040 26/17 A2992 NOSIG=
201712162200 METAR MROC 162200Z 09012KT 060V130 9999 FEW040 25/17 A2991 NOSIG=
201712162300 METAR MROC 162300Z 08019G29KT 9999 FEW040 24/15 A2991 NOSIG=
201712170000 METAR MROC 170000Z 10016KT CAVOK 23/15 A2993 NOSIG=
201712170100 METAR MROC 170100Z 09008KT 050V120 CAVOK 23/14 A2995 NOSIG=
201712170200 METAR MROC 170200Z 09015KT 060V120 CAVOK 22/16 A2997 NOSIG=
201712170300 METAR MROC 170300Z 09014KT 060V120 CAVOK 22/16 A2998 NOSIG=
201712170400 METAR MROC 170400Z 09012G23KT CAVOK 21/15 A2999 NOSIG=
201712170500 METAR MROC 170500Z 10009KT CAVOK 21/15 A2998 NOSIG=
201712170600 METAR MROC 170600Z 10014KT CAVOK 20/15 A2999 NOSIG=
201712170700 METAR MROC 170700Z 09017KT CAVOK 20/15 A2996 NOSIG=
201712170800 METAR MROC 170800Z 10014KT CAVOK 20/14 A2996 NOSIG=
201712170900 METAR MROC 170900Z 10012KT CAVOK 20/13 A2994 NOSIG=
201712171000 METAR MROC 171000Z 10012KT CAVOK 20/13 A2995 NOSIG=
201712171100 METAR MROC 171100Z 11012KT CAVOK 20/13 A2996 NOSIG=
201712171200 METAR MROC 171200Z 11010KT CAVOK 20/12 A2998 NOSIG=
201712171300 METAR MROC 171300Z 11013KT CAVOK 22/13 A3000 NOSIG=
201712171400 METAR MROC 171400Z 08013KT CAVOK 25/13 A3001 NOSIG=
201712171500 METAR MROC 171500Z 08016G31KT CAVOK 26/13 A3001 NOSIG=
201712171600 METAR MROC 171600Z 07021KT CAVOK 26/15 A3002 NOSIG=
201712171700 METAR MROC 171700Z 07020G33KT CAVOK 28/10 A2999 NOSIG=
201712171800 METAR MROC 171800Z 07018G28KT CAVOK 28/12 A2997 NOSIG=
201712171900 METAR MROC 171900Z 08017KT 050V110 CAVOK 29/14 A2994 NOSIG=
201712172000 METAR MROC 172000Z 07023G34KT CAVOK 28/14 A2992 NOSIG=
201712172100 METAR MROC 172100Z 07021G31KT 9999 FEW040 27/15 A2991 NOSIG=
201712172200 METAR MROC 172200Z 06016G26KT 9999 FEW035 SCT070 25/16 A2992 NOSIG=
201712172300 METAR MROC 172300Z 05015G25KT CAVOK 25/15 A2994 NOSIG=
201712180000 METAR MROC 180000Z 08010G20KT 050V110 CAVOK 23/15 A2995 NOSIG=
201712180100 METAR MROC 180100Z 07016G26KT CAVOK 23/14 A2996 NOSIG=
201712180200 METAR MROC 180200Z 07015G25KT 9999 FEW035 23/15 A2998 NOSIG=
201712180300 METAR MROC 180300Z 08012G22KT CAVOK 23/15 A2999 NOSIG=
201712180400 METAR MROC 180400Z 09013KT CAVOK 22/16 A2999 NOSIG=
201712180500 METAR MROC 180500Z 08014KT CAVOK 22/15 A2998 NOSIG=
201712180600 METAR MROC 180600Z 09012KT 060V120 CAVOK 21/15 A2998 NOSIG=
201712180700 METAR MROC 180700Z 10010KT CAVOK 21/15 A2996 NOSIG=
201712180800 METAR MROC 180800Z 09012KT CAVOK 21/16 A2994 NOSIG=
201712180900 METAR MROC 180900Z 08016KT CAVOK 21/16 A2994 NOSIG=
201712181000 METAR MROC 181000Z 08012KT CAVOK 22/15 A2995 NOSIG=
201712181100 METAR MROC 181100Z 10012KT CAVOK 21/16 A2996 NOSIG=
201712181200 METAR MROC 181200Z 12008KT 080V140 CAVOK 21/15 A2997 NOSIG=
201712181300 METAR MROC 181300Z 13007KT 090V170 9999 FEW045 SCT060 22/16 A3000 NOSIG=
201712181400 METAR MROC 181400Z 11011G21KT 9999 FEW045 SCT060 24/16 A3002 NOSIG=
201712181500 METAR MROC 181500Z 08011G21KT 040V100 9999 FEW045 25/17 A3002 NOSIG=
201712181600 METAR MROC 181600Z 07018G32KT 050V110 9999 FEW040 27/17 A3001 NOSIG=
201712181700 METAR MROC 181700Z 06022G32KT 9999 FEW045 28/15 A3000 NOSIG=
201712181800 METAR MROC 181800Z 09014G24KT 060V120 9999 FEW040 27/15 A2999 NOSIG=
201712181900 METAR MROC 181900Z 07020G30KT 040V110 CAVOK 28/14 A2997 NOSIG=
201712182000 METAR MROC 182000Z 07016G26KT CAVOK 27/13 A2995 NOSIG=
201712182100 METAR MROC 182100Z 07017KT 050V110 CAVOK 27/11 A2993 NOSIG=
201712182200 METAR MROC 182200Z 07016KT CAVOK 27/09 A2994 NOSIG=
201712182300 METAR MROC 182300Z 07014KT CAVOK 25/11 A2995 NOSIG=
201712190000 METAR MROC 190000Z 09009KT CAVOK 23/15 A2996 NOSIG=
201712190100 METAR MROC 190100Z 08014G24KT CAVOK 23/16 A2998 NOSIG=
201712190200 METAR MROC 190200Z 11010KT 080V140 CAVOK 22/17 A3001 NOSIG=
201712190300 METAR MROC 190300Z 10007KT 070V140 9999 FEW045 22/16 A3003 NOSIG=
201712190400 METAR MROC 190400Z 10010KT CAVOK 22/15 A3003 NOSIG=
201712190500 METAR MROC 190500Z 10010KT CAVOK 21/15 A3003 NOSIG=
201712190600 METAR MROC 190600Z 12009KT 090V150 CAVOK 21/14 A3001 NOSIG=
201712190700 METAR MROC 190700Z 10008KT 060V120 CAVOK 21/14 A2998 NOSIG=
201712190800 METAR MROC 190800Z 10009G20KT 070V130 CAVOK 21/15 A2996 NOSIG=
201712190900 METAR MROC 190900Z 09010KT 070V130 CAVOK 22/15 A2998 NOSIG=
201712191000 METAR MROC 191000Z 08008KT CAVOK 22/16 A2998 NOSIG=
201712191100 METAR MROC 191100Z 13006KT 070V170 CAVOK 21/15 A2998 NOSIG=
201712191200 METAR MROC 191200Z 10009KT CAVOK 21/15 A3000 NOSIG=
201712191300 METAR MROC 191300Z 08014KT CAVOK 23/15 A3001 NOSIG=
201712191400 METAR MROC 191400Z 09016KT CAVOK 24/15 A3003 NOSIG=
201712191500 METAR MROC 191500Z 09014KT 060V120 CAVOK 25/14 A3002 NOSIG=
201712191600 METAR MROC 191600Z 08017G28KT CAVOK 27/13 A3002 NOSIG=
201712191700 METAR MROC 191700Z 08019KT CAVOK 27/14 A3001 NOSIG=
201712191800 METAR MROC 191800Z 07021KT CAVOK 28/15 A2999 NOSIG=
201712191900 METAR MROC 191900Z 06021KT 9999 FEW040 28/15 A2996 NOSIG=
201712192000 METAR MROC 192000Z 05021KT 9999 FEW040 28/14 A2994 NOSIG=
201712192100 METAR MROC 192100Z 06020G30KT 9999 FEW045 27/15 A2992 NOSIG=
201712192200 METAR MROC 192200Z 06020KT 9999 FEW045 26/13 A2992 NOSIG=
201712192300 METAR MROC 192300Z 06018G28KT CAVOK 24/15 A2994 NOSIG=
201712200000 METAR MROC 200000Z 07013KT 9999 FEW045 23/15 A2996 NOSIG=
201712200100 METAR MROC 200100Z 07013KT CAVOK 23/16 A2998 NOSIG=
201712200200 METAR MROC 200200Z 09009KT CAVOK 22/16 A3001 NOSIG=
201712200300 METAR MROC 200300Z 09009KT 070V130 9999 FEW045 SCT070 22/17 A3002 NOSIG=
201712200400 METAR MROC 200400Z 11010G20KT 080V140 9999 FEW045 SCT070 22/17 A3002 NOSIG=
201712200500 METAR MROC 200500Z 12010G20KT 090V160 9999 FEW045 22/17 A3001 NOSIG=
201712200600 METAR MROC 200600Z 12010G20KT 080V160 9999 FEW045 22/16 A2999 NOSIG=
201712200700 METAR MROC 200700Z 11010KT 9999 FEW045 21/17 A2997 NOSIG=
201712200800 METAR MROC 200800Z 12010KT 9999 FEW045 22/16 A2997 NOSIG=
201712200900 METAR MROC 200900Z 11010G20KT 080V160 9999 FEW045 22/17 A2995 NOSIG=
201712201000 METAR MROC 201000Z 10009KT 9999 FEW045 21/16 A2997 NOSIG=
201712201100 METAR MROC 201100Z 12010G20KT 090V150 9999 FEW045 21/16 A2998 NOSIG=
201712201200 METAR MROC 201200Z 11010G20KT 9999 FEW045 21/16 A2998 NOSIG=
201712201300 METAR MROC 201300Z 12009KT 080V150 9999 FEW040 22/16 A2999 NOSIG=
201712201400 METAR MROC 201400Z 10011KT 070V130 9999 FEW040 24/16 A3001 NOSIG=
201712201500 METAR MROC 201500Z 09016KT 050V120 9999 FEW040 25/16 A3001 NOSIG=
201712201600 METAR MROC 201600Z 08012KT 050V120 9999 SCT035 24/16 A3003 NOSIG=
201712201700 METAR MROC 201700Z 10009KT 070V150 9999 FEW040 27/17 A3001 NOSIG=
201712201800 METAR MROC 201800Z 08015KT 9999 FEW040 27/16 A2998 NOSIG=
201712201900 METAR MROC 201900Z 08014KT 050V110 9999 FEW040 28/17 A2994 NOSIG=
201712202000 METAR MROC 202000Z 07014KT 050V110 9999 FEW040 27/17 A2992 NOSIG=
201712202100 METAR MROC 202100Z 06017KT 9999 FEW045 28/17 A2990 NOSIG=
201712202200 METAR MROC 202200Z 07015KT 9999 FEW045 26/16 A2990 NOSIG=
201712202300 METAR MROC 202300Z 07014KT 9999 FEW045 25/16 A2992 NOSIG=
201712210000 METAR MROC 210000Z 07013KT 9999 FEW045 SCT060 24/16 A2993 NOSIG=
201712210100 METAR MROC 210100Z 08011KT CAVOK 23/16 A2996 NOSIG=
201712210200 METAR MROC 210200Z 07013KT CAVOK 23/15 A2998 NOSIG=
201712210300 METAR MROC 210300Z 10006KT 080V140 CAVOK 22/15 A3000 NOSIG=
201712210400 METAR MROC 210400Z 09008KT CAVOK 21/16 A3000 NOSIG=
201712210500 METAR MROC 210500Z 08014KT CAVOK 22/16 A2998 NOSIG=
201712210600 METAR MROC 210600Z 07015KT 9999 FEW045 22/16 A2996 NOSIG=
201712210700 METAR MROC 210700Z 08020KT 9999 FEW040 22/15 A2994 NOSIG=
201712210800 METAR MROC 210800Z 09015KT 9999 FEW045 21/16 A2994 NOSIG=
201712210900 METAR MROC 210900Z 08017KT 9999 FEW045 21/16 A2993 NOSIG=
201712211000 METAR MROC 211000Z 08008KT CAVOK 21/15 A2994 NOSIG=
201712211100 METAR MROC 211100Z 07011KT CAVOK 21/16 A2995 NOSIG=
201712211200 METAR MROC 211200Z 08010KT 9999 FEW045 21/16 A2996 NOSIG=
201712211300 METAR MROC 211300Z 08015G25KT CAVOK 22/16 A2998 NOSIG=
201712211400 METAR MROC 211400Z 08018KT 9999 FEW040 24/16 A3001 NOSIG=
201712211500 METAR MROC 211500Z 07018G31KT 9999 FEW045 25/16 A3002 NOSIG=
201712211600 METAR MROC 211600Z 08018KT CAVOK 25/13 A3002 NOSIG=
201712211700 METAR MROC 211700Z 07023G35KT CAVOK 27/14 A3000 NOSIG=
201712211800 METAR MROC 211800Z 07020KT CAVOK 27/15 A2998 NOSIG=
201712211900 METAR MROC 211900Z 06021G31KT CAVOK 28/15 A2994 NOSIG=
201712212000 METAR MROC 212000Z 07018KT 9999 FEW045 27/14 A2992 NOSIG=
201712212100 METAR MROC 212100Z 06020G30KT CAVOK 27/15 A2992 NOSIG=
201712212200 METAR MROC 212200Z 07019KT CAVOK 25/16 A2993 NOSIG=
201712212300 METAR MROC 212300Z 10009KT 070V130 CAVOK 24/16 A2995 NOSIG=
201712220000 METAR MROC 220000Z 11009KT 080V140 CAVOK 22/15 A2997 NOSIG=
201712220100 METAR MROC 220100Z 11010KT 090V150 CAVOK 22/15 A2998 NOSIG=
201712220200 METAR MROC 220200Z 10009KT CAVOK 21/15 A3000 NOSIG=
201712220300 METAR MROC 220300Z 10008KT CAVOK 21/13 A3001 NOSIG=
201712220400 METAR MROC 220400Z 10006KT 070V130 CAVOK 20/14 A3000 NOSIG=
201712220500 METAR MROC 220500Z 11008KT CAVOK 20/14 A2999 NOSIG=
201712220600 METAR MROC 220600Z 11008KT 080V160 CAVOK 21/14 A2998 NOSIG=
201712220700 METAR MROC 220700Z 12007KT 080V150 CAVOK 21/13 A2997 NOSIG=
201712220800 METAR MROC 220800Z 11011KT CAVOK 21/13 A2995 NOSIG=
201712220900 METAR MROC 220900Z 11007KT 080V160 CAVOK 20/14 A2995 NOSIG=
201712221000 METAR MROC 221000Z 13008KT 090V160 CAVOK 20/14 A2995 NOSIG=
201712221100 METAR MROC 221100Z 11008KT 080V170 CAVOK 20/14 A2996 NOSIG=
201712221200 METAR MROC 221200Z 09010KT CAVOK 20/15 A2997 NOSIG=
201712221300 METAR MROC 221300Z 14005KT 100V180 CAVOK 21/15 A2999 NOSIG=
201712221400 METAR MROC 221400Z 10011KT 070V130 CAVOK 24/14 A3000 NOSIG=
201712221500 METAR MROC 221500Z 09013KT CAVOK 26/14 A3001 NOSIG=
201712221600 METAR MROC 221600Z 09013KT CAVOK 27/15 A3001 NOSIG=
201712221700 METAR MROC 221700Z 07012KT 040V120 CAVOK 28/15 A3000 NOSIG=
201712221800 METAR MROC 221800Z 08013KT 050V110 CAVOK 28/14 A2998 NOSIG=
201712221900 METAR MROC 221900Z 07014KT 050V120 28/13 A2995 NOSIG=
201712222000 METAR MROC 222000Z 07013KT CAVOK 28/12 A2994 NOSIG=
201712222100 METAR MROC 222100Z 08010G20KT 060V130 CAVOK 28/12 A2992 NOSIG=
201712222200 METAR MROC 222200Z 08011G21KT 9999 FEW040 27/13 A2993 NOSIG=
201712222300 METAR MROC 222300Z 08011KT 9999 FEW035 25/15 A2995 NOSIG=
201712230000 METAR MROC 230000Z 07007KT 030V110 9999 FEW035 24/16 A2996 NOSIG=
201712230100 METAR MROC 230100Z 32004KT 9999 FEW035 SCT100 22/19 A2998 NOSIG=
201712230200 METAR MROC 230200Z 06010G20KT 030V110 CAVOK 23/15 A3000 NOSIG=
201712230300 METAR MROC 230300Z 09010G20KT CAVOK 22/15 A3001 NOSIG=
201712230400 METAR MROC 230400Z 08013KT CAVOK 21/15 A3000 NOSIG=
201712230500 METAR MROC 230500Z 08010KT CAVOK 22/15 A2999 NOSIG=
201712230600 METAR MROC 230600Z 08015KT CAVOK 22/14 A2998 NOSIG=
201712230700 METAR MROC 230700Z 08015KT CAVOK 22/15 A2997 NOSIG=
201712230800 METAR MROC 230800Z 10015KT CAVOK 21/16 A2995 NOSIG=
201712230900 METAR MROC 230900Z 10012KT CAVOK 21/16 A2995 NOSIG=
201712231000 METAR MROC 231000Z 10012KT CAVOK 21/15 A2996 NOSIG=
201712231100 METAR MROC 231100Z 09012KT CAVOK 21/16 A2996 NOSIG=
201712231200 METAR MROC 231200Z 10014KT CAVOK 22/16 A2998 NOSIG=
201712231300 METAR MROC 231300Z 10012G22KT 9999 FEW040 22/16 A3000 NOSIG=
201712231400 METAR MROC 231400Z 10014G24KT 9999 FEW040 24/16 A3001 NOSIG=
201712231500 METAR MROC 231500Z 09014G24KT 060V120 9999 FEW045 26/15 A3003 NOSIG=
201712231600 METAR MROC 231600Z 09011G21KT 060V130 CAVOK 27/16 A3003 NOSIG=
201712231700 METAR MROC 231700Z 09011G21KT 050V130 9999 FEW045 28/14 A3001 NOSIG=
201712231800 METAR MROC 231800Z 10010G20KT 040V130 9999 FEW045 28/17 A2999 NOSIG=
201712231900 METAR MROC 231900Z 08010G20KT 050V110 9999 FEW045 27/17 A2997 NOSIG=
201712232000 METAR MROC 232000Z 07011G21KT 9999 FEW040 SCT080 27/16 A2994 NOSIG=
201712232100 METAR MROC 232100Z 07011G21KT 9999 FEW030 SCT060 25/16 A2993 NOSIG=
201712232200 METAR MROC 232200Z 08012G22KT 9999 FEW030 25/16 A2992 NOSIG=
201712232300 METAR MROC 232300Z 07015KT 9999 FEW030 24/15 A2994 NOSIG=
201712240000 METAR MROC 240000Z 13007KT 9999 FEW035 22/16 A2995 NOSIG=
201712240100 METAR MROC 240100Z 10008KT 050V130 9999 FEW035 22/16 A2998 NOSIG=
201712240200 METAR MROC 240200Z 11008KT 080V150 9999 FEW030 21/15 A3000 NOSIG=
201712240300 METAR MROC 240300Z 13012G23KT 110V180 9999 FEW045 21/15 A3001 NOSIG=
201712240400 METAR MROC 240400Z 11012KT CAVOK 21/14 A3003 NOSIG=
201712240500 METAR MROC 240500Z 10013KT CAVOK 20/14 A3003 NOSIG=
201712240600 METAR MROC 240600Z 11011KT CAVOK 20/14 A3002 NOSIG=
201712240700 METAR MROC 240700Z 07017KT CAVOK 21/13 A2999 NOSIG=
201712240800 METAR MROC 240800Z 08009KT CAVOK 20/14 A2997 NOSIG=
201712240900 METAR MROC 240900Z 08013KT CAVOK 20/15 A2996 NOSIG=
201712241000 METAR MROC 241000Z 10011KT CAVOK 20/14 A2996 NOSIG=
201712241100 METAR MROC 241100Z 09012KT CAVOK 20/14 A2997 NOSIG=
201712241200 METAR MROC 241200Z 09010KT 060V120 CAVOK 20/13 A2998 NOSIG=
201712241300 METAR MROC 241300Z 10010G20KT 070V140 CAVOK 21/14 A3001 NOSIG=
201712241400 METAR MROC 241400Z 09013G23KT CAVOK 24/12 A3001 NOSIG=
201712241500 METAR MROC 241500Z 10014KT CAVOK 25/12 A3003 NOSIG=
201712241600 METAR MROC 241600Z 08014KT CAVOK 26/11 A3004 NOSIG=
201712241700 METAR MROC 241700Z 08014KT 050V110 CAVOK 27/13 A3003 NOSIG=
201712241800 METAR MROC 241800Z 06020KT CAVOK 28/13 A3000 NOSIG=
201712241900 METAR MROC 241900Z 06019KT 9999 FEW045 27/15 A2997 NOSIG=
201712242000 METAR MROC 242000Z 05020KT 9999 FEW045 28/14 A2995 NOSIG=
201712242100 METAR MROC 242100Z 06018KT 9999 FEW045 SCT250 26/14 A2994 NOSIG=
201712242200 METAR MROC 242200Z 06015KT 9999 FEW045 SCT250 26/16 A2995 NOSIG=
201712242300 METAR MROC 242300Z 07013KT 9999 FEW010 SCT040 24/15 A2997 NOSIG=
201712250000 METAR MROC 250000Z 07011KT 9999 FEW030 23/15 A2999 NOSIG=
201712250100 METAR MROC 250100Z 09008KT 9999 FEW025 22/16 A3001 NOSIG=
201712250200 METAR MROC 250200Z 10009KT 9999 FEW030 22/16 A3004 NOSIG=
201712250300 METAR MROC 250300Z 11006KT 090V150 9999 FEW040 21/16 A3005 NOSIG=
201712250400 METAR MROC 250400Z 11010KT 9999 FEW040 22/16 A3005 NOSIG=
201712250500 METAR MROC 250500Z 11009KT CAVOK 21/16 A3004 NOSIG=
201712250600 METAR MROC 250600Z 11011KT 9999 FEW045 22/16 A3002 NOSIG=
201712250700 METAR MROC 250700Z 12009KT 080V140 9999 SCT045 22/16 A3000 NOSIG=
201712250800 METAR MROC 250800Z 12008KT 080V170 9999 FEW045 21/16 A2998 NOSIG=
201712250900 METAR MROC 250900Z 08012KT 9999 FEW045 21/15 A2997 NOSIG=
201712251000 METAR MROC 251000Z 10010G20KT 9999 FEW045 21/14 A2998 NOSIG=
201712251100 METAR MROC 251100Z 09011KT 9999 FEW040 21/15 A2999 NOSIG=
201712251200 METAR MROC 251200Z 10012G22KT 9999 FEW035 20/15 A3000 NOSIG=
201712251300 METAR MROC 251300Z 10016KT 9999 FEW040 21/16 A3002 NOSIG=
201712251400 METAR MROC 251400Z 10020G30KT 9999 FEW045 23/16 A3004 NOSIG=
201712251500 METAR MROC 251500Z 03019G32KT 9999 FEW045 24/15 A3006 NOSIG=
201712251600 METAR MROC 251600Z 08020G33KT 9999 FEW045 25/12 A3005 NOSIG=
201712251700 METAR MROC 251700Z 08019G29KT CAVOK 26/14 A3004 NOSIG=
201712251800 METAR MROC 251800Z 09021G31KT CAVOK 26/14 A3001 NOSIG=
201712251900 METAR MROC 251900Z 08017G27KT 060V130 CAVOK 27/13 A2998 NOSIG=
201712252000 METAR MROC 252000Z 09022G32KT CAVOK 26/12 A2996 NOSIG=
201712252100 METAR MROC 252100Z 08017G28KT CAVOK 27/13 A2995 NOSIG=
201712252200 METAR MROC 252200Z 07019G29KT CAVOK 26/12 A2996 NOSIG=
201712252300 METAR MROC 252300Z 08016G27KT CAVOK 24/11 A2998 NOSIG=
201712260000 METAR MROC 260000Z 09012KT CAVOK 23/12 A2999 NOSIG=
201712260100 METAR MROC 260100Z 10013KT 070V130 CAVOK 22/14 A3002 NOSIG=
201712260200 METAR MROC 260200Z 10011KT CAVOK 21/14 A3005 NOSIG=
201712260300 METAR MROC 260300Z 10011KT 080V140 CAVOK 21/14 A3006 NOSIG=
201712260400 METAR MROC 260400Z 09012KT CAVOK 21/14 A3005 NOSIG=
201712260500 METAR MROC 260500Z 09013KT CAVOK 21/14 A3004 NOSIG=
201712260600 METAR MROC 260600Z 11013KT CAVOK 21/14 A3003 NOSIG=
201712260700 METAR MROC 260700Z 10013KT CAVOK 21/14 A3001 NOSIG=
201712260800 METAR MROC 260800Z 10012KT CAVOK 21/13 A2999 NOSIG=
201712260900 METAR MROC 260900Z 10012KT CAVOK 20/14 A2999 NOSIG=
201712261000 METAR MROC 261000Z 10012KT CAVOK 20/14 A2999 NOSIG=
201712261100 METAR MROC 261100Z 11013KT CAVOK 20/14 A3001 NOSIG=
201712261200 METAR MROC 261200Z 11013KT CAVOK 20/14 A3002 NOSIG=
201712261300 METAR MROC 261300Z 11011KT CAVOK 21/14 A3004 NOSIG=
201712261400 METAR MROC 261400Z 10015KT CAVOK 23/14 A3004 NOSIG=
201712261500 METAR MROC 261500Z 09014KT CAVOK 25/13 A3006 NOSIG=
201712261600 METAR MROC 261600Z 07019G30KT CAVOK 25/17 A3007 NOSIG=
201712261700 METAR MROC 261700Z 09017G27KT 060V120 CAVOK 27/13 A3004 NOSIG=
201712261800 METAR MROC 261800Z 07017G27KT 050V110 CAVOK 27/14 A3003 NOSIG=
201712261900 METAR MROC 261900Z 08020KT CAVOK 27/14 A3000 NOSIG=
201712262000 METAR MROC 262000Z 07020KT 9999 FEW045 27/14 A2998 NOSIG=
201712262100 METAR MROC 262100Z 07019KT CAVOK 27/14 A2997 NOSIG=
201712262200 METAR MROC 262200Z 08016KT CAVOK 25/13 A2998 NOSIG=
201712262300 METAR MROC 262300Z 08013KT 040V120 CAVOK 24/13 A2999 NOSIG=
201712270000 METAR MROC 270000Z 00814KT CAVOK 22/13 A3001 NOSIG=
201712270100 METAR MROC 270100Z 10013KT CAVOK 22/13 A3002 NOSIG=
201712270200 METAR MROC 270200Z 09015KT CAVOK 21/14 A3004 NOSIG=
201712270300 METAR MROC 270300Z 09015KT CAVOK 21/14 A3005 NOSIG=
201712270400 METAR MROC 270400Z 10016KT CAVOK 20/14 A3004 NOSIG=
201712270500 METAR MROC 270500Z 10014G24KT CAVOK 20/14 A3003 NOSIG=
201712270600 METAR MROC 270600Z 10017G27KT CAVOK 20/14 A3002 NOSIG=
201712270700 METAR MROC 270700Z 10015G25KT CAVOK 20/13 A3000 NOSIG=
201712270800 METAR MROC 270800Z 10013G23KT CAVOK 20/13 A2998 NOSIG=
201712270900 METAR MROC 270900Z 10012G24KT 070V140 CAVOK 20/13 A2998 NOSIG=
201712271000 METAR MROC 271000Z 10013G24KT 070V140 CAVOK 20/14 A2999 NOSIG=
201712271100 METAR MROC 271100Z 11014G24KT CAVOK 20/14 A3000 NOSIG=
201712271200 METAR MROC 271200Z 11014G24KT CAVOK 20/14 A3001 NOSIG=
201712271300 METAR MROC 271300Z 11014G24KT CAVOK 21/15 A3003 NOSIG=
201712271400 METAR MROC 271400Z 11015G26KT CAVOK 23/14 A3005 NOSIG=
201712271500 METAR MROC 271500Z 10017KT CAVOK 25/13 A3006 NOSIG=
201712271600 METAR MROC 271600Z 09017G27KT 060V130 CAVOK 26/12 A3004 NOSIG=
201712271700 METAR MROC 271700Z 09018G31KT CAVOK 26/14 A3004 NOSIG=
201712271800 METAR MROC 271800Z 07017KT CAVOK 26/15 A3002 NOSIG=
201712271900 METAR MROC 271900Z 08017G28KT 050V110 CAVOK 26/15 A2999 NOSIG=
201712272000 METAR MROC 272000Z 08015G26KT CAVOK 27/14 A2997 NOSIG=
201712272100 METAR MROC 272100Z 07015G25KT 9999 FEW040 26/14 A2995 NOSIG=
201712272200 METAR MROC 272200Z 08014G24KT 9999 FEW040 25/14 A2995 NOSIG=
201712272300 METAR MROC 272300Z 07012G22KT 9999 FEW035 24/14 A2997 NOSIG=
201712280000 METAR MROC 280000Z 08011KT 9999 FEW035 22/14 A2998 NOSIG=
201712280100 METAR MROC 280100Z 07010G20KT CAVOK 22/14 A2999 NOSIG=
201712280200 METAR MROC 280200Z 08012G22KT 9999 FEW035 22/145 A3001 NOSIG=
201712280300 METAR MROC 280300Z 09010G20KT CAVOK 21/15 A3003 NOSIG=
201712280400 METAR MROC 280400Z 09015KT CAVOK 21/15 A3003 NOSIG=
201712280500 METAR MROC 280500Z 10013KT CAVOK 21/16 A3002 NOSIG=
201712280600 METAR MROC 280600Z 10015KT CAVOK 20/15 A3001 NOSIG=
201712280700 METAR MROC 280700Z 11014KT CAVOK 20/15 A3000 NOSIG=
201712280800 METAR MROC 280800Z 11015KT CAVOK 21/15 A2998 NOSIG=
201712280900 METAR MROC 280900Z 10014KT CAVOK 21/15 A2997 NOSIG=
201712281000 METAR MROC 281000Z 11016KT CAVOK 21/15 A2998 NOSIG=
201712281100 METAR MROC 281100Z 11016KT CAVOK 21/15 A2999 NOSIG=
201712281200 METAR MROC 281200Z 11013G23KT FEW045 20/15 A3001 NOSIG=
201712281300 METAR MROC 281300Z 11014G24KT 9999 FEW045 21/16 A3002 NOSIG=
201712281400 METAR MROC 281400Z 11012G22KT 070V140 CAVOK 23/15 A3003 NOSIG=
201712281500 METAR MROC 281500Z 12014G24KT 090V150 CAVOK 25/16 A3004 NOSIG=
201712281600 METAR MROC 281600Z 11012G22KT 9999 FEW045 27/16 A3003 NOSIG=
201712281700 METAR MROC 281700Z 09014G24KT 9999 FEW040 27/16 A3002 NOSIG=
201712281800 METAR MROC 281800Z COR 08016KT 050V110 9999 FEW040 27/15 A3000 NOSIG=
201712281900 METAR MROC 281900Z 09010KT 060V130 9999 FEW035 SCT060 27/15 A2998 NOSIG=
201712282000 METAR MROC 282000Z 08013KT 050V120 9999 FEW035 SCT080 28/15 A2996 NOSIG=
201712282100 METAR MROC 282100Z 07013G23KT 9999 FEW035 SCT080 25/16 A2996 NOSIG=
201712282200 METAR MROC 282200Z 08010KT 050V130 9999 FEW035 SCT080 26/16 A2996 NOSIG=
201712282300 METAR MROC 282300Z 08008KT 9999 FEW035 SCT080 24/15 A2998 NOSIG=
201712290000 METAR MROC 290000Z 12005KT 090V150 9999 FEW035 SCT080 23/16 A3000 NOSIG=
201712290100 METAR MROC 290100Z 12007KT 090V150 9999 FEW035 22/17 A3003 NOSIG=
201712290200 METAR MROC 290200Z 08006KT 9999 SCT045 21/17 A3005 NOSIG=
201712290300 METAR MROC 290300Z 11006KT 9999 FEW045 SCT120 21/17 A3006 NOSIG=
201712290400 METAR MROC 290400Z 09003KT 040V130 CAVOK 21/16 A3006 NOSIG=
201712290500 METAR MROC 290500Z 11004KT 090V150 CAVOK 20/16 A3006 NOSIG=
201712290600 METAR MROC 290600Z 09005KT 060V150 CAVOK 20/16 A3005 NOSIG=
201712290700 METAR MROC 290700Z 06004KT 360V120 CAVOK 19/16 A3003 NOSIG=
201712290800 METAR MROC 290800Z 06004KT 030V110 CAVOK 19/15 A3000 NOSIG=
201712290900 METAR MROC 290900Z 05005KT 020V110 CAVOK 19/15 A2999 NOSIG=
201712291000 METAR MROC 291000Z 03004KT 360V080 CAVOK 19/15 A3000 NOSIG=
201712291100 METAR MROC 291100Z 04007KT 010V070 CAVOK 19/15 A3001 NOSIG=
201712291200 METAR MROC 291200Z 07005KT CAVOK 18/15 A3002 NOSIG=
201712291300 METAR MROC 291300Z 03005KT CAVOK 19/14 A3004 NOSIG=
201712291400 METAR MROC 291400Z 04003KT CAVOK 22/15 A3007 NOSIG=
201712291500 METAR MROC 291500Z 06006KT CAVOK 25/15 A3006 NOSIG=
201712291600 METAR MROC 291600Z 12008KT 080V160 CAVOK 26/15 A3005 NOSIG=
201712291700 METAR MROC 291700Z 13010KT 090V170 9999 FEW045 SCT200 28/15 A3004 NOSIG=
201712291800 METAR MROC 291800Z 11006KT 070V190 9999 FEW045 SCT080 29/16 A3001 NOSIG=
201712291900 METAR MROC 291900Z 23009KT 170V270 9999 SCT040 SCT080 27/18 A2998 NOSIG=
201712292000 METAR MROC 292000Z 24010KT 200V270 9999 FEW030 SCT070 26/19 A2997 NOSIG=
201712292100 METAR MROC 292100Z 24011KT 210V280 9999 BKN040 26/19 A2995 NOSIG=
201712292200 METAR MROC 292200Z 24011KT 9999 SHRA FEW020TCU FEW020 BKN045 24/20 A2996 NOSIG=
201712292300 METAR MROC 292300Z 27004KT 9999 2500SW BCFG FEW010 BKN060 21/20 A2999 RESHRA NOSIG=
201712300000 METAR MROC 300000Z 00000KT 9999 2000SW BCFG SCT010 BKN020 21/20 A3002 NOSIG=
201712300100 METAR MROC 300100Z 22003KT 9999 VCFG SCT005 SCT010 21/21 A3004 NOSIG=
201712300200 METAR MROC 300200Z 20003KT 9999 VCFG FEW035 SCT120 21/20 A3005 NOSIG=
201712300300 METAR MROC 300300Z 13003KT 9999 SCT030 SCT120 20/19 A3007 NOSIG=
201712300400 METAR MROC 300400Z 07007KT 9999 FEW030 SCT120 20/18 A3007 NOSIG=
201712300500 METAR MROC 300500Z 05006KT 9999 FEW030 20/18 A3005 NOSIG=
201712300600 METAR MROC 300600Z 05004KT 9999 FEW030 BKN120 21/18 A3005 NOSIG=
201712300700 METAR MROC 300700Z 01003KT CAVOK 21/18 A3003 NOSIG=
201712300800 METAR MROC 300800Z 10008KT 070V130 CAVOK 21/17 A3000 NOSIG=
201712300900 METAR MROC 300900Z 11007KT 080V140 9999 FEW030 SCT120 22/17 A3000 NOSIG=
201712301000 METAR MROC 301000Z 09009KT 040V130 9999 FEW030 SCT120 21/17 A3001 NOSIG=
201712301100 METAR MROC 301100Z 06006KT 010V110 9999 FEW030 SCT120 21/17 A3002 NOSIG=
201712301200 METAR MROC 301200Z 07008KT 040V100 9999 FEW035 SCT120 21/18 A3003 NOSIG=
201712301300 METAR MROC 301300Z 07011KT 9999 FEW045 BKN070 22/17 A3006 NOSIG=
201712301400 METAR MROC 301400Z 10011KT 070V130 9999 BKN040 23/17 A3008 NOSIG=
201712301500 METAR MROC 301500Z 10010KT 070V140 9999 FEW045 BKN120 24/18 A3009 NOSIG=
201712301600 METAR MROC 301600Z 12010KT 080V170 9999 FEW045 SCT100 25/18 A3008 NOSIG=
201712301700 METAR MROC 301700Z 13010KT 080V180 9999 FEW045 BKN180 27/18 A3004 NOSIG=
201712301800 METAR MROC 301800Z COR 12011KT 080V150 9999 FEW045 BKN080 25/18 A3003 BECMG 26007KT=
201712301900 METAR MROC 301900Z 10009KT 9999 FEW030 SCT060 BKN100 25/17 A3001 BECMG 26007KT=
201712302000 METAR MROC 302000Z 11007KT 070V140 9999 SCT030 BKN090 25/18 A2999 NOSIG=
201712302100 METAR MROC 302100Z VRB02KT 9999 SCT035 BKN110 25/18 A2997 NOSIG=
201712302200 METAR MROC 302200Z VRB02KT 9999 SCT035 BKN110 26/17 A2997 NOSIG=
201712302300 METAR MROC 302300Z 10007KT 060V130 9999 FEW035 BKN110 24/16 A2998 NOSIG=
201712310000 METAR MROC 310000Z 10010KT 9999 FEW035 BKN120 23/18 A3000 NOSIG=
201712310100 METAR MROC 310100Z 09006KT 040V120 9999 FEW035 SCT120 22/17 A3005 NOSIG=
201712310200 METAR MROC 310200Z 09006KT 9999 FEW030 SCT100 22/17 A3006 NOSIG=
201712310300 METAR MROC 310300Z 02006KT CAVOK 21/17 A3009 NOSIG=
201712310400 METAR MROC 310400Z 06005KT 030V090 9999 -RA NSC 21/18 A3009 NOSIG=
201712310500 METAR MROC 310500Z 04005KT 010V080 CAVOK 20/18 A3008 NOSIG=
201712310600 METAR MROC 310600Z 05005KT 010V070 9999 FEW040 SCT140 22/17 A3007 NOSIG=
201712310700 METAR MROC 310700Z 06010KT 9999 FEW035 BKN140 21/17 A3005 NOSIG=
201712310800 METAR MROC 310800Z 08009KT 050V120 9999 FEW045 SCT120 21/17 A3001 NOSIG=
201712310900 METAR MROC 310900Z 09008KT 060V130 CAVOK 21/17 A3001 NOSIG=
201712311000 METAR MROC 311000Z 07005KT 030V160 CAVOK 21/17 A3003 NOSIG=
201712311100 METAR MROC 311100Z 04007KT 010V070 9999 -RA NSC 21/17 A3005 NOSIG=
201712311200 METAR MROC 311200Z 11008KT 070V130 9999 -RA FEW040 SCT090 BKN200 20/17 A3004 NOSIG=
201712311300 METAR MROC 311300Z 11012G22KT 050V140 9999 FEW035 BKN120 21/17 A3006 NOSIG=
201712311400 METAR MROC 311400Z VRB02KT 9999 FEW040 BKN120 23/18 A3009 NOSIG=
201712311500 METAR MROC 311500Z 11012KT 080V150 9999 FEW040 BKN120 24/17 A3010 NOSIG=
201712311600 METAR MROC 311600Z 08008KT 040V120 9999 FEW040 BKN120 25/18 A3010 NOSIG=
201712311700 METAR MROC 311700Z 08008KT 030V180 9999 FEW030 BKN110 26/18 A3009 NOSIG=
201712311800 METAR MROC 311800Z 10013G24KT 070V130 9999 SCT030 BKN110 27/17 A3004 NOSIG=
201712311900 METAR MROC 311900Z 12011KT 080V150 9999 SCT030 BKN100 25/16 A3002 NOSIG=
201712312000 METAR MROC 312000Z 11010KT 080V150 9999 FEW030 BKN120 25/17 A3001 NOSIG=
201712312100 METAR MROC 312100Z 10011KT 9999 FEW030 BKN140 25/15 A2999 NOSIG=
201712312200 METAR MROC 312200Z 08014KT 9999 FEW030 BKN120 23/16 A3001 NOSIG=
201712312300 METAR MROC 312300Z 11011KT 9999 -RA FEW030 BKN120 20/15 A3003 NOSIG=
