201801010000 METAR MROC 010000Z 12010KT CAVOK 21/13 A3005 NOSIG=
201801010100 METAR MROC 010100Z 10015KT CAVOK 22/14 A3007 NOSIG=
201801010200 METAR MROC 010200Z 10012KT CAVOK 22/13 A3010 NOSIG=
201801010300 METAR MROC 010300Z 11013KT CAVOK 22/13 A3010 NOSIG=
201801010400 METAR MROC 010400Z 12007KT CAVOK 21/15 A3011 NOSIG=
201801010500 METAR MROC 010500Z 11012KT CAVOK 21/15 A3008 NOSIG=
201801010600 METAR MROC 010600Z 11015KT CAVOK 21/15 A3005 NOSIG=
201801010700 METAR MROC 010700Z 11014G29KT CAVOK 21/15 A3003 NOSIG=
201801010800 METAR MROC 010800Z COR 11011G21KT 080V150 CAVOK 21/15 A3002 NOSIG=
201801010900 METAR MROC 010900Z 11012KT 070V140 CAVOK 21/15 A3003 NOSIG=
201801011000 METAR MROC 011000Z 11015KT 080V150 CAVOK 21/15 A3003 NOSIG=
201801011100 METAR MROC 011100Z 11011KT CAVOK 21/15 A3004 NOSIG=
201801011200 METAR MROC 011200Z 11017G27KT 9999 FEW035 SCT090 BKN250 21/15 A3005 NOSIG=
201801011300 METAR MROC 011300Z 08017KT CAVOK 22/11 A3008 NOSIG=
201801011400 METAR MROC 011400Z 10016KT CAVOK 22/13 A3010 NOSIG=
201801011500 METAR MROC 011500Z 11016KT CAVOK 23/12 A3011 NOSIG=
201801011600 METAR MROC 011600Z 10015KT CAVOK 24/13 A3010 NOSIG=
201801011700 METAR MROC 011700Z 09015KT CAVOK 25/13 A3008 NOSIG=
201801011800 METAR MROC 011800Z 07018KT CAVOK 26/14 A3005 NOSIG=
201801011900 METAR MROC 011900Z 08016G27KT CAVOK 25/14 A3002 NOSIG=
201801012000 METAR MROC 012000Z 08015G25KT CAVOK 25/13 A3000 NOSIG=
201801012100 METAR MROC 012100Z 08015KT CAVOK 26/13 A2999 NOSIG=
201801012200 METAR MROC 012200Z 07010G20KT 9999 FEW040 BKN120 25/13 A2999 NOSIG=
201801012300 METAR MROC 012300Z 06012G22KT 9999 FEW035 SCT120 24/13 A3001 NOSIG=
201801020000 METAR MROC 020000Z 07010G20KT 9999 FEW035 SCT120 22/13 A3002 NOSIG=
201801020100 METAR MROC 020100Z 11006KT 080V140 CAVOK 21/15 A3005 NOSIG=
201801020200 METAR MROC 020200Z 12010G20KT CAVOK 21/15 A3006 NOSIG=
201801020300 METAR MROC 020300Z 12010G20KT CAVOK 21/15 A3007 NOSIG=
201801020400 METAR MROC 020400Z 10014G24KT CAVOK 20/15 A3007 NOSIG=
201801020500 METAR MROC 020500Z 08015KT CAVOK 21/15 A3006 NOSIG=
201801020600 METAR MROC 020600Z 10014G24KT CAVOK 20/15 A3004 NOSIG=
201801020700 METAR MROC 020700Z 10015KT CAVOK 20/15 A3001 NOSIG=
201801020800 METAR MROC 020800Z 10013KT CAVOK 20/15 A2999 NOSIG=
201801020900 METAR MROC 020900Z 07010KT 020V110 CAVOK 20/15 A2998 NOSIG=
201801021000 METAR MROC 021000Z 10011KT 060V140 CAVOK 20/15 A2998 NOSIG=
201801021100 METAR MROC 021100Z 10014G24KT 070V130 CAVOK 20/15 A2999 NOSIG=
201801021200 METAR MROC 021200Z 10013KT 070V130 CAVOK 20/15 A3000 NOSIG=
201801021300 METAR MROC 021300Z 10010G20KT 050V130 9999 FEW035 21/15 A3002 NOSIG=
201801021400 METAR MROC 021400Z 10017G27KT 070V140 9999 FEW035 23/16 A3003 NOSIG=
201801021500 METAR MROC 021500Z 11018G28KT 080V140 9999 FEW035 24/16 A3003 NOSIG=
201801021600 METAR MROC 021600Z 09018G30KT 060V120 9999 FEW040 26/16 A3002 NOSIG=
201801021700 METAR MROC 021700Z 10018G29KT 9999 FEW035 26/17 A3002 NOSIG=
201801021800 METAR MROC 021800Z 10015G25KT 9999 FEW035 SCT250 26/17 A3000 NOSIG=
201801021900 METAR MROC 021900Z 11015G25KT 9999 FEW030 SCT070 26/17 A2997 NOSIG=
201801022000 METAR MROC 022000Z 10014G24KT 9999 FEW030 SCT050 BKN070 25/17 A2996 NOSIG=
201801022100 METAR MROC 022100Z 10014G24KT 9999 FEW030 BKN070 24/16 A2995 NOSIG=
201801022200 METAR MROC 022200Z 08010KT 9999 FEW020 BKN060 24/16 A2996 NOSIG=
201801022300 METAR MROC 022300Z 12010G20KT 9999 FEW025 SCT060 22/16 A2996 NOSIG=
201801030000 METAR MROC 030000Z 12009KT 9999 FEW025 BKN060 22/17 A2999 NOSIG=
201801030100 METAR MROC 030100Z 07005KT 9999 FEW030 BKN060 22/16 A3000 NOSIG=
201801030200 METAR MROC 030200Z 11008KT 090V150 9999 FEW035 SCT110 BKN250 21/16 A3001 NOSIG=
201801030300 METAR MROC 030300Z 09008KT 060V140 9999 FEW040 SCT160 21/16 A3001 NOSIG=
201801030400 METAR MROC 030400Z 11012KT CAVOK 21/16 A3001 NOSIG=
201801030500 METAR MROC 030500Z 06007KT CAVOK 20/15 A3002 NOSIG=
201801030600 METAR MROC 030600Z 08007G19KT 030V160 CAVOK 20/15 A2999 NOSIG=
201801030700 METAR MROC 030700Z 10008KT 050V140 CAVOK 20/16 A2998 NOSIG=
201801030800 METAR MROC 030800Z 09009KT CAVOK 20/16 A2994 NOSIG=
201801030900 METAR MROC 030900Z 06006KT CAVOK 20/15 A2992 NOSIG=
201801031000 METAR MROC 031000Z VRB03KT CAVOK 20/15 A2995 NOSIG=
201801031100 METAR MROC 031100Z 10005KT CAVOK 19/16 A2997 NOSIG=
201801031200 METAR MROC 031200Z 11008KT 9999 FEW030 20/16 A2997 NOSIG=
201801031300 METAR MROC 031300Z 09007KT 9999 FEW030 SCT130 BKN200 21/16 A3000 NOSIG=
201801031400 METAR MROC 031400Z VRB02KT 9999 FEW025 BKN140 23/17 A3003 NOSIG=
201801031500 METAR MROC 031500Z 13007KT 090V160 9999 FEW025 BKN090 23/17 A3004 NOSIG=
201801031600 METAR MROC 031600Z 11005KT 9999 DZ FEW025 BKN070 24/17 A3004 NOSIG=
201801031700 METAR MROC 031700Z 18003KT 130V230 9999 FEW035 BKN090 25/17 A3002 REDZ NOSIG=
201801031800 METAR MROC 031800Z 05007KT 340V130 9999 -RA FEW030 BKN090 24/17 A3000 NOSIG=
201801031900 METAR MROC 031900Z 23004KT 190V270 9999 SCT025 BKN070 23/18 A2998 NOSIG=
201801032000 METAR MROC 032000Z 20004KT 110V240 9999 FEW020 BKN050 23/19 A2996 NOSIG=
201801032100 METAR MROC 032100Z VRB02KT 9999 FEW030 BKN100 24/19 A2995 NOSIG=
201801032200 METAR MROC 032200Z 18004KT 150V220 9999 BKN035 23/17 A2994 NOSIG=
201801032300 METAR MROC 032300Z 17004KT 140V200 9999 BKN030 22/17 A2996 NOSIG=
201801040000 METAR MROC 040000Z 11004KT 040V160 9999 FEW030 BKN100 21/16 A2999 NOSIG=
201801040100 METAR MROC 040100Z 17009KT 130V220 9999 FEW035 BKN140 21/15 A3002 NOSIG=
201801040200 METAR MROC 040200Z 09012KT 9999 FEW030 BKN100 20/16 A3005 NOSIG=
201801040300 METAR MROC 040300Z 10010KT 9999 FEW025 BKN120 20/16 A3006 NOSIG=
201801040400 METAR MROC 040400Z 10010G20KT 070V180 9999 FEW030 BKN120 21/16 A3006 NOSIG=
201801040500 METAR MROC 040500Z 16006KT 120V190 9999 -DZ FEW030 BKN100 20/16 A3006 NOSIG=
201801040600 METAR MROC 040600Z 09004KT 9999 FEW030 BKN100 20/14 A3007 NOSIG=
201801040700 METAR MROC 040700Z 10013G23KT 060V140 9999 FEW040 20/14 A3003 NOSIG=
201801040800 METAR MROC 040800Z 10014KT 9999 FEW035 19/13 A3001 NOSIG=
201801040900 METAR MROC 040900Z 09015G25KT 9999 FEW035 18/13 A3000 NOSIG=
201801041000 METAR MROC 041000Z 10013G29KT 070V130 9999 FEW035 18/13 A3001 NOSIG=
201801041100 METAR MROC 041100Z 10012G22KT 070V180 9999 FEW035 SCT120 19/13 A3004 NOSIG=
201801041200 METAR MROC 041200Z 08011G22KT 020V120 9999 FEW035 SCT120 19/13 A3005 NOSIG=
201801041300 METAR MROC 041300Z 08013G23KT 060V130 9999 FEW035 BKN120 19/13 A3008 NOSIG=
201801041400 METAR MROC 041400Z 10012G22KT 070V130 9999 FEW030 SCT120 21/14 A3010 NOSIG=
201801041500 METAR MROC 041500Z 10017G27KT 070V130 9999 FEW040 BKN120 21/14 A3011 NOSIG=
201801041600 METAR MROC 041600Z 10017G27KT 9999 FEW035 BKN250 22/14 A3010 NOSIG=
201801041700 METAR MROC 041700Z 08018KT 9999 FEW030 BKN250 24/14 A3009 NOSIG=
201801041800 METAR MROC 041800Z 09018KT 9999 FEW035 BKN250 23/14 A3007 NOSIG=
201801041900 METAR MROC 041900Z 08013KT 9999 FEW035 BKN250 24/13 A3004 NOSIG=
201801042000 METAR MROC 042000Z 09017G27KT 9999 FEW035 BKN180 24/14 A3001 NOSIG=
201801042100 METAR MROC 042100Z 10017G30KT 9999 FEW030 BKN110 22/15 A3001 NOSIG=
201801042200 METAR MROC 042200Z 09012G24KT 9999 FEW035 BKN120 22/14 A3001 NOSIG=
201801042300 METAR MROC 042300Z 10011KT 9999 FEW035 BKN130 21/14 A3003 NOSIG=
201801050000 METAR MROC 050000Z 09010G20KT 050V150 9999 FEW030 BKN120 20/15 A3005 NOSIG=
201801050100 METAR MROC 050100Z 09015G26KT 9999 FEW030 BKN130 20/14 A3008 NOSIG=
201801050200 METAR MROC 050200Z 10014G26KT 9999 FEW030 BKN120 20/14 A3009 NOSIG=
201801050300 METAR MROC 050300Z 10015G30KT 9999 FEW025 BKN120 19/15 A3011 NOSIG=
201801050400 METAR MROC 050400Z 10015G25KT 9999 FEW025 SCT120 BKN180 20/14 A3011 NOSIG=
201801050500 METAR MROC 050500Z 09012KT 9999 FEW025 BKN180 20/15 A3010 NOSIG=
201801050600 METAR MROC 050600Z 09016KT 9999 FEW025 BKN160 19/15 A3008 NOSIG=
201801050700 METAR MROC 050700Z 10014G24KT 9999 FEW030 SCT140 20/14 A3006 NOSIG=
201801050800 METAR MROC 050800Z 09015G25KT 060V120 9999 FEW020 SCT140 BKN200 19/14 A3005 NOSIG=
201801050900 METAR MROC 050900Z 10016G26KT 070V130 9999 FEW025 BKN140 19/14 A3003 NOSIG=
201801051000 METAR MROC 051000Z 10013G23KT 9999 FEW025 BKN160 19/14 A3005 NOSIG=
201801051100 METAR MROC 051100Z 08010KT 9999 FEW025 BKN140 19/14 A3007 NOSIG=
201801051200 METAR MROC 051200Z 10009KT 070V130 9999 FEW020 BKN140 19/14 A3008 NOSIG=
201801051300 METAR MROC 051300Z 11006KT 060V160 9999 FEW030 BKN120 19/15 A3010 NOSIG=
201801051400 METAR MROC 051400Z 10012KT 080V140 9999 FEW035 BKN120 20/15 A3013 NOSIG=
201801051500 METAR MROC 051500Z 09009KT 060V130 9999 FEW035 BKN120 21/15 A3014 NOSIG=
201801051600 METAR MROC 051600Z 10012KT 060V130 9999 FEW045 BKN120 23/16 A3013 NOSIG=
201801051700 METAR MROC 051700Z 11016KT 070V140 9999 FEW040 BKN120 22/16 A3012 NOSIG=
201801051800 METAR MROC 051800Z 09013G25KT 060V130 9999 FEW040 BKN120 23/16 A3009 NOSIG=
201801051900 METAR MROC 051900Z 10014G24KT 070V130 9999 FEW035 BKN120 23/15 A3007 NOSIG=
201801052000 METAR MROC 052000Z 10012KT 080V140 9999 FEW030 BKN120 23/15 A3005 NOSIG=
201801052100 METAR MROC 052100Z 11013KT 080V140 SCT030 BKN120 23/16 A3003 NOSIG=
201801052200 METAR MROC 052200Z 11014G26KT 070V150 9999 FEW030 BKN120 22/16 A3003 NOSIG=
201801052300 METAR MROC 052300Z 10011G21KT 050V140 9999 FEW030 BKN120 21/16 A3004 NOSIG=
201801060000 METAR MROC 060000Z 10014KT 070V130 9999 FEW030 BKN120 20/16 A3005 NOSIG=
201801060100 METAR MROC 060100Z 10017G28KT CAVOK 20/15 A3006 NOSIG=
201801060200 METAR MROC 060200Z 09012KT 060V120 CAVOK 20/15 A3009 NOSIG=
201801060300 METAR MROC 060300Z 09012KT 060V130 CAVOK 20/16 A3011 NOSIG=
201801060400 METAR MROC 060400Z 09013KT 070V130 9999 FEW020 20/15 A3010 NOSIG=
201801060500 METAR MROC 060500Z 09010KT 050V130 9999 FEW030 20/15 A3008 NOSIG=
201801060600 METAR MROC 060600Z 19004KT 050V130 9999 FEW030 20/14 A3007 NOSIG=
201801060700 METAR MROC 060700Z 08015KT 9999 FEW025 19/14 A3005 NOSIG=
201801060800 METAR MROC 060800Z 11012G24KT 080V150 9999 FEW025 19/14 A3004 NOSIG=
201801060900 METAR MROC 060900Z 05007KT 010V110 9999 FEW025 19/14 A3003 NOSIG=
201801061000 METAR MROC 061000Z 08007KT 040V130 9999 FEW030 19/15 A3004 NOSIG=
201801061100 METAR MROC 061100Z 06008KT 9999 FEW030 19/15 A3004 NOSIG=
201801061200 METAR MROC 061200Z 07011KT 9999 FEW030 SCT200 19/15 A3006 NOSIG=
201801061300 METAR MROC 061300Z 04007KT 360V090 9999 FEW030 20/15 A3008 NOSIG=
201801061400 METAR MROC 061400Z 04009KT 300V090 9999 FEW030 22/16 A3009 NOSIG=
201801061500 METAR MROC 061500Z 08011KT 040V120 9999 FEW030 23/16 A3009 NOSIG=
201801061600 METAR MROC 061600Z 11017G28KT 9999 FEW030 24/16 A3008 NOSIG=
201801061700 METAR MROC 061700Z 10015KT 9999 FEW030 25/17 A3006 NOSIG=
201801061800 METAR MROC 061800Z 11017G29KT 080V150 9999 FEW030 25/17 A3004 NOSIG=
201801061900 METAR MROC 061900Z 10012G22KT 070V150 9999 FEW030 26/17 A3002 NOSIG=
201801062000 METAR MROC 062000Z 11014KT 080V160 9999 FEW030 26/17 A3001 NOSIG=
201801062100 METAR MROC 062100Z 17008KT 110V210 9999 SCT030 26/16 A2999 NOSIG=
201801062200 METAR MROC 062200Z 11010G20KT 080V140 9999 SCT030 SCT080 24/16 A3000 NOSIG=
201801062300 METAR MROC 062300Z 07012KT 030V130 9999 FEW030 SCT080 23/15 A3002 NOSIG=
201801070000 METAR MROC 070000Z 09013G23KT 9999 FEW030 SCT120 21/15 A3004 NOSIG=
201801070100 METAR MROC 070100Z 08012G22KT CAVOK 21/15 A3004 NOSIG=
201801070200 METAR MROC 070200Z 06008KT 020V120 9999 FEW030 SCT120 20/15 A3007 NOSIG=
201801070300 METAR MROC 070300Z 10014G24KT CAVOK 20/15 A3008 NOSIG=
201801070400 METAR MROC 070400Z 09011G23KT CAVOK 20/15 A3007 NOSIG=
201801070500 METAR MROC 070500Z 09014G24KT 060V130 CAVOK 20/15 A3005 NOSIG=
201801070600 METAR MROC 070600Z 09013KT CAVOK 20/15 A3003 NOSIG=
201801070700 METAR MROC 070700Z 10015G26KT 070V130 CAVOK 20/15 A3002 NOSIG=
201801070800 METAR MROC 070800Z 10008KT 060V150 CAVOK 20/15 A3000 NOSIG=
201801070900 METAR MROC 070900Z 05006KT 360V100 9999 FEW040 19/14 A3000 NOSIG=
201801071000 METAR MROC 071000Z 01007KT 310V110 9999 FEW040 18/12 A3002 NOSIG=
201801071100 METAR MROC 071100Z 07009KT 050V110 9999 FEW040 17/12 A3003 NOSIG=
201801071200 METAR MROC 071200Z 08013KT 9999 FEW040 18/13 A3004 NOSIG=
201801071300 METAR MROC 071300Z 07011G21KT 050V110 9999 FEW035 SCT250 19/13 A3005 NOSIG=
201801071400 METAR MROC 071400Z 09010G20KT 060V110 9999 FEW035 SCT250 21/14 A3007 NOSIG=
201801071500 METAR MROC 071500Z 11010G20KT 090V150 9999 FEW035 SCT250 21/14 A3008 NOSIG=
201801071600 METAR MROC 071600Z 06005KT 9999 FEW030 SCT250 24/14 A3008 NOSIG=
201801071700 METAR MROC 071700Z 12010G20KT 090V150 9999 FEW030 25/15 A3005 NOSIG=
201801071800 METAR MROC 071800Z 11012G22KT 080V150 9999 FEW030 SCT060 25/15 A3003 NOSIG=
201801071900 METAR MROC 071900Z 13011G23KT 090V180 9999 FEW030 SCT060 25/15 A3001 NOSIG=
201801072000 METAR MROC 072000Z 12015G25KT 9999 FEW030 SCT060 23/15 A2998 NOSIG=
201801072100 METAR MROC 072100Z 11010G20KT 9999 FEW040 SCT070 23/15 A2998 NOSIG=
201801072200 METAR MROC 072200Z 11011KT 080V150 9999 VCSH SCT035 23/16 A2998 NOSIG=
201801072300 METAR MROC 072300Z 10010KT 060V120 9999 VCSH FEW035 21/15 A2999 NOSIG=
201801080000 METAR MROC 080000Z 10010G20KT 060V180 9999 FEW025 BKN200 20/16 A3000 NOSIG=
201801080100 METAR MROC 080100Z 11009KT 070V140 9999 FEW025 20/16 A3002 NOSIG=
201801080200 METAR MROC 080200Z 11011KT 9999 FEW035 SCT120 21/16 A3004 NOSIG=
201801080300 METAR MROC 080300Z 11012KT 090V150 9999 FEW030 21/16 A3004 NOSIG=
201801080400 METAR MROC 080400Z 10010KT 070V130 9999 -RA NSC 20/17 A3004 NOSIG=
201801080500 METAR MROC 080500Z 10008KT 9999 -RA NSC 19/17 A3004 NOSIG=
201801080600 METAR MROC 080600Z 11006KT 080V140 9999 -RA NSC 19/17 A3004 NOSIG=
201801080700 METAR MROC 080700Z 03006KT 360V060 9999 -RA NSC 19/18 A3001 NOSIG=
201801080800 METAR MROC 080800Z 07004KT 040V110 9999 -RA NSC 20/17 A2997 NOSIG=
201801080900 METAR MROC 080900Z 08009KT 040V100 9999 -RA NSC 20/17 A2996 NOSIG=
201801081000 METAR MROC 081000Z 03004KT 010V070 CAVOK 20/17 A2996 NOSIG=
201801081100 METAR MROC 081100Z 08005KT CAVOK 20/16 A2997 NOSIG=
201801081200 METAR MROC 081200Z 07006KT 040V120 CAVOK 20/15 A2999 NOSIG=
201801081300 METAR MROC 081300Z 05007KT 020V080 CAVOK 21/16 A3002 NOSIG=
201801081400 METAR MROC 081400Z VRB02KT CAVOK 22/17 A3004 NOSIG=
201801081500 METAR MROC 081500Z 10008KT 070V140 CAVOK 24/16 A3005 NOSIG=
201801081600 METAR MROC 081600Z 11007KT 080V160 CAVOK 25/16 A3003 BECMG 22006KT=
201801081700 METAR MROC 081700Z 16006KT 090V200 9999 FEW045 27/15 A3002 BECMG 22006KT=
201801081800 METAR MROC 081800Z 25005KT 180V330 9999 FEW045 28/17 A2998 NOSIG=
201801081900 METAR MROC 081900Z 23004KT 190V320 9999 FEW040 28/17 A2995 NOSIG=
201801082000 METAR MROC 082000Z COR 24012KT 9999 VCSH FEW020TCU BKN040 25/19 A2994 NOSIG=
201801082100 METAR MROC 082100Z 24010KT 9999 -DZ SCT015TCU SCT020 24/20 A2994 BECMG RA=
201801082200 METAR MROC 082200Z 23008KT 190V260 9999 FEW020 BKN025 24/20 A2995 NOSIG=
201801082300 METAR MROC 082300Z 22007KT 9999 SHRA BKN020 23/20 A2996 NOSIG=
201801090000 METAR MROC 090000Z VRB02KT 9999 SCT012 BKN120 22/21 A2998 RETSRA NOSIG=
201801090100 METAR MROC 090100Z 09003KT 070V130 9999 SCT030 21/18 A3000 NOSIG=
201801090200 METAR MROC 090200Z 10006KT CAVOK 20/18 A3002 NOSIG=
201801090300 METAR MROC 090300Z 07008KT CAVOK 20/17 A3004 NOSIG=
201801090400 METAR MROC 090400Z 07006KT CAVOK 20/17 A3005 NOSIG=
201801090500 METAR MROC 090500Z 06005KT CAVOK 19/17 A3004 NOSIG=
201801090600 METAR MROC 090600Z 03006KT CAVOK 19/17 A3003 NOSIG=
201801090700 METAR MROC 090700Z 08007KT 040V100 CAVOK 19/16 A3001 NOSIG=
201801090800 METAR MROC 090800Z 04007KT CAVOK 19/16 A2998 NOSIG=
201801090900 METAR MROC 090900Z 08005KT 040V120 CAVOK 19/16 A2997 NOSIG=
201801091000 METAR MROC 091000Z 09010G20KT CAVOK 20/16 A2998 NOSIG=
201801091100 METAR MROC 091100Z 09010KT CAVOK 20/15 A2998 NOSIG=
201801091200 METAR MROC 091200Z 06010KT CAVOK 19/15 A2999 NOSIG=
201801091300 METAR MROC 091300Z 08007KT 050V110 CAVOK 21/15 A3000 NOSIG=
201801091400 METAR MROC 091400Z 08009KT 040V130 CAVOK 23/14 A3002 NOSIG=
201801091500 METAR MROC 091500Z 12011G21KT 080V140 CAVOK 25/13 A3004 NOSIG=
201801091600 METAR MROC 091600Z 11013KT 080V140 CAVOK 26/14 A3003 NOSIG=
201801091700 METAR MROC 091700Z 10015KT CAVOK 27/15 A3001 BECMG 24007KT=
201801091800 METAR MROC 091800Z 11010G20KT 070V150 CAVOK 27/15 A2999 BECMG 24007KT=
201801091900 METAR MROC 091900Z 12007KT 090V160 9999 FEW030 BKN120 27/16 A2996 BECMG 24007KT=
201801092000 METAR MROC 092000Z 26012KT 220V300 9999 SCT025 BKN100 26/19 A//// NOSIG=
201801092100 METAR MROC 092100Z 23009KT 9999 FEW020TCU SCT040 BKN200 25/20 A2995 BECMG 5000 SHRA=
201801092200 METAR MROC 092200Z 24009KT 9999 SCT035 BKN200 24/21 A2995 NOSIG=
201801092300 METAR MROC 092300Z 22007KT 9999 SCT035 BKN200 22/20 A2995 NOSIG=
201801100000 METAR MROC 100000Z 28004KT 240V320 9999 FEW035 SCT070 BKN200 21/20 A2997 NOSIG=
201801100100 METAR MROC 100100Z VRB02KT 7000 2000SW BCFG FEW005 SCT025 BKN200 21/20 A3000 NOSIG=
201801100200 METAR MROC 100200Z VRB02KT 8000 3000SW BCFG FEW004 SCT025 20/20 A3002 NOSIG=
201801100300 METAR MROC 100300Z 02003KT CAVOK 21/20 A3003 NOSIG=
201801100400 METAR MROC 100400Z 13004KT 060V230 CAVOK 21/18 A3003 NOSIG=
201801100500 METAR MROC 100500Z 25003KT 200V270 9999 4000SW BCFG FEW001 BKN200 20/19 A3002 NOSIG=
201801100600 METAR MROC 100600Z 27005KT 250V330 5000 R07/1300D -DZ BR SCT001 BKN015 20/20 A3002 NOSIG=
201801100700 METAR MROC 100700Z 01004KT 330V030 9000 3500SW BCFG FEW002 SCT015 BKN250 20/19 A3000 NOSIG=
201801100800 METAR MROC 100800Z 07004KT 9999 FEW010 BKN250 19/17 A2998 NOSIG=
201801100900 METAR MROC 100900Z 10005KT CAVOK 18/16 A2997 NOSIG=
201801101000 METAR MROC 101000Z 09006KT CAVOK 18/15 A2998 NOSIG=
201801101100 METAR MROC 101100Z 08011KT CAVOK 20/15 A2998 NOSIG=
201801101200 METAR MROC 101200Z 05006KT 020V090 19/14 A3000 NOSIG=
201801101300 METAR MROC 101300Z 07005KT CAVOK 20/15 A3001 NOSIG=
201801101400 METAR MROC 101400Z 06006KT CAVOK 23/15 A3004 NOSIG=
201801101500 METAR MROC 101500Z 06005KT 330V120 CAVOK 25/15 A3005 NOSIG=
201801101600 METAR MROC 101600Z 12007KT 070V170 CAVOK 27/16 A3004 BECMG 24007KT=
201801101700 METAR MROC 101700Z 23008KT 200V270 CAVOK 27/17 A3001 NOSIG=
201801101800 METAR MROC 101800Z 25010KT 220V290 9999 SCT045 SCT250 27/17 A3000 NOSIG=
201801101900 METAR MROC 101900Z 24009KT 200V300 9999 SCT040 26/18 A2997 NOSIG=
201801102000 METAR MROC 102000Z 23009KT 9999 SCT040 SCT200 26/19 A2994 NOSIG=
201801102100 METAR MROC 102100Z 24011KT 9999 SCT030 SCT250 25/20 A2994 NOSIG=
201801102200 METAR MROC 102200Z 26010KT 9999 SCT030 SCT250 24/20 A2994 NOSIG=
201801102300 METAR MROC 102300Z 25007KT 9999 SCT030 SCT120 23/20 A2995 NOSIG=
201801110000 METAR MROC 110000Z 25005KT 160V270 9999 RA SCT020 BKN100 21/20 A2997 NOSIG=
201801110100 METAR MROC 110100Z 02003KT 9999 -RA SCT020 BKN100 21/20 A3000 NOSIG=
201801110200 METAR MROC 110200Z VRB02KT CAVOK 21/18 A3001 NOSIG=
201801110300 METAR MROC 110300Z VRB02KT CAVOK 20/19 A3003 NOSIG=
201801110400 METAR MROC 110400Z 07006KT 9999 1500NW BCFG FEW010 20/17 A3002 NOSIG=
201801110500 METAR MROC 110500Z 08004KT 050V120 9999 FEW025 20/17 A3002 NOSIG=
201801110600 METAR MROC 110600Z 07006KT 9999 FEW020 20/17 A3000 NOSIG=
201801110700 METAR MROC 110700Z 05007KT 9999 FEW020 20/17 A2999 NOSIG=
201801110800 METAR MROC 110800Z 05002KT 9999 FEW025 19/17 A2998 NOSIG=
201801110900 METAR MROC 110900Z 03005KT CAVOK 18/17 A2998 NOSIG=
201801111000 METAR MROC 111000Z 06008KT CAVOK 18/16 A2998 NOSIG=
201801111100 METAR MROC 111100Z 06006KT 9999 FEW025 19/16 A2999 NOSIG=
201801111200 METAR MROC 111200Z 05007KT 9999 FEW045 19/16 A3000 NOSIG=
201801111300 METAR MROC 111300Z 06009KT CAVOK 20/17 A3002 NOSIG=
201801111400 METAR MROC 111400Z 12006KT 080V150 CAVOK 23/17 A3005 NOSIG=
201801111500 METAR MROC 111500Z 09008KT 060V130 CAVOK 25/18 A3006 NOSIG=
201801111600 METAR MROC 111600Z 11006KT 070V170 9999 FEW035 26/18 A3005 BECMG 24008KT=
201801111700 METAR MROC 111700Z VRB05KT 9999 FEW035 27/17 A3004 NOSIG=
201801111800 METAR MROC 111800Z 25009KT 220V280 9999 SCT035 26/19 A3001 NOSIG=
201801111900 METAR MROC 111900Z 22011KT 190V250 9999 SCT030 27/20 A2998 NOSIG=
201801112000 METAR MROC 112000Z 23011KT 210V280 9999 SCT030 26/19 A2995 NOSIG=
201801112100 METAR MROC 112100Z 24011KT 210V270 9999 FEW020 SCT030 25/20 A2995 NOSIG=
201801112200 METAR MROC 112200Z 23010KT 9000 VCTS FEW010CB SCT020 BKN035 23/20 A2996 BECMG RA=
201801112300 METAR MROC 112300Z 23009KT 8000 -TS VCSH FEW010CB SCT015 BKN025 22/20 A2997 BECMG 5000 RA=
201801120000 METAR MROC 120000Z 23007KT 9999 -DZ FEW005 SCT015 BKN025 21/20 A2999 RETS NOSIG=
201801120100 METAR MROC 120100Z 23005KT 200V260 8000 VCFG FEW005 SCT015 BKN025 21/20 A3002 NOSIG=
201801120200 METAR MROC 120200Z 24008KT 5000 BR FEW003 SCT008 BKN015 20/20 A3006 NOSIG=
201801120300 METAR MROC 120300Z 20004KT 8000 VCFG FEW005 SCT010 BKN020 20/20 A3007 NOSIG=
201801120400 METAR MROC 120400Z VRB02KT 9999 BCFG SCT008 BKN020 20/20 A3006 NOSIG=
201801120500 METAR MROC 120500Z VRB02KT 9999 FEW010 BKN025 20/20 A3006 NOSIG=
201801120600 METAR MROC 120600Z VRB02KT 9999 FEW010 BKN025 20/19 A3005 NOSIG=
201801120700 METAR MROC 120700Z 24005KT 220V280 9999 FEW010 BKN025 20/20 A3003 NOSIG=
201801120800 METAR MROC 120800Z VRB02KT 8000 FEW002 SCT010 BKN025 20/20 A3001 NOSIG=
201801120900 METAR MROC 120900Z VRB02KT 9999 SCT010 BKN025 20/19 A2999 NOSIG=
201801121000 METAR MROC 121000Z 00000KT 9999 SCT010 BKN025 20/20 A3000 NOSIG=
201801121100 METAR MROC 121100Z 00000KT CAVOK 20/19 A3001 NOSIG=
201801121200 METAR MROC 121200Z 02005KT 9999 FEW008 SCT030 BKN250 19/18 A3003 NOSIG=
201801121300 METAR MROC 121300Z 09006KT 9999 FEW002 BKN200 19/17 A3005 NOSIG=
201801121400 METAR MROC 121400Z 06006KT 030V130 9999 FEW030 BKN200 22/17 A3008 NOSIG=
201801121500 METAR MROC 121500Z 11003KT 060V210 9999 FEW035 BKN200 24/18 A3008 BECMG 25008KT=
201801121600 METAR MROC 121600Z 09010KT 060V140 9999 FEW035 BKN200 26/15 A3006 NOSIG=
201801121700 METAR MROC 121700Z 11009KT 080V160 9999 FEW035 BKN200 27/16 A3004 NOSIG=
201801121800 METAR MROC 121800Z 11011KT 070V150 9999 FEW040 BKN200 26/15 A3002 NOSIG=
201801121900 METAR MROC 121900Z 12010G20KT 090V150 9999 FEW035 SCT050 BKN200 26/16 A2999 NOSIG=
201801122000 METAR MROC 122000Z 09010KT 060V130 9999 FEW035 BKN200 27/16 A2996 NOSIG=
201801122100 METAR MROC 122100Z 10009KT 9999 FEW035 BKN200 26/15 A2996 NOSIG=
201801122200 METAR MROC 122200Z 11007KT 050V180 9999 FEW030 BKN200 27/15 A2996 NOSIG=
201801122300 METAR MROC 122300Z 12008KT 080V150 9999 FEW035 BKN200 25/14 A2997 NOSIG=
201801130000 METAR MROC 130000Z 28003KT 210V350 9999 FEW035 BKN200 23/18 A2999 NOSIG=
201801130100 METAR MROC 130100Z 10005KT 060V130 9999 FEW035 SCT200 22/15 A3002 NOSIG=
201801130200 METAR MROC 130200Z 07008KT 040V130 9999 FEW040 21/15 A3004 NOSIG=
201801130300 METAR MROC 130300Z 10011KT CAVOK 21/15 A3006 NOSIG=
201801130400 METAR MROC 130400Z 10010KT 080V140 CAVOK 21/15 A3007 NOSIG=
201801130500 METAR MROC 130500Z 08006KT 050V120 CAVOK 20/15 A3007 NOSIG=
201801130600 METAR MROC 130600Z 11010KT CAVOK 20/15 A3004 NOSIG=
201801130700 METAR MROC 130700Z 08008KT 050V120 CAVOK 20/15 A3002 NOSIG=
201801130800 METAR MROC 130800Z 09006KT 040V150 CAVOK 20/15 A3000 NOSIG=
201801130900 METAR MROC 130900Z 09006KT 040V150 CAVOK 20/14 A2999 NOSIG=
201801131000 METAR MROC 131000Z 11014KT CAVOK 20/15 A2999 NOSIG=
201801131100 METAR MROC 131100Z 09012KT CAVOK 20/15 A3000 NOSIG=
201801131200 METAR MROC 131200Z 09008KT 070V130 9999 SCT030 20/15 A3001 NOSIG=
201801131300 METAR MROC 131300Z 10011KT 9999 FEW030 20/16 A3003 NOSIG=
201801131400 METAR MROC 131400Z 10013KT 9999 FEW025 22/15 A3006 NOSIG=
201801131500 METAR MROC 131500Z 11015G25KT 9999 FEW025 SCT110 24/15 A3007 NOSIG=
201801131600 METAR MROC 131600Z 11013G23KT 070V130 9999 FEW030 SCT100 24/16 A3002 WS R07 NOSIG=
201801131700 METAR MROC 131700Z 10013G23KT 9999 FEW030 SCT100 26/15 A3005 WS R07 NOSIG=
201801131800 METAR MROC 131800Z 09016G26KT 050V110 9999 FEW030 SCT120 25/14 A3003 WS R07 NOSIG=
201801131900 METAR MROC 131900Z 09015KT 070V130 9999 FEW030 SCT110 26/15 A3001 WS R07 NOSIG=
201801132000 METAR MROC 132000Z COR 09018KT 9999 FEW030 BKN120 24/15 A2998 WS R07 NOSIG=
201801132100 METAR MROC 132100Z 09011G21KT 050V130 9999 FEW045 SCT080 25/15 A2998 NOSIG=
201801132200 METAR MROC 132200Z 10014KT 070V130 9999 FEW045 BKN090 25/14 A2999 NOSIG=
201801132300 METAR MROC 132300Z 12009KT 100V160 9999 SCT030 23/15 A3001 NOSIG=
201801140000 METAR MROC 140000Z 08008KT 040V110 9999 VCSH BKN030 21/16 A3003 NOSIG=
201801140100 METAR MROC 140100Z 08006KT 040V130 9999 SCT030 21/16 A3005 NOSIG=
201801140200 METAR MROC 140200Z 12005KT 060V170 9999 FEW030 BKN050 21/16 A3003 NOSIG=
201801140300 METAR MROC 140300Z VRB02KT 130V210 9999 FEW030 BKN050 21/16 A3010 NOSIG=
201801140400 METAR MROC 140400Z 09008KT 060V140 9999 FEW030 BKN100 20/17 A3009 NOSIG=
201801140500 METAR MROC 140500Z 10010KT 080V140 9999 FEW030 BKN100 20/17 A3007 NOSIG=
201801140600 METAR MROC 140600Z 10007KT 070V160 9999 FEW030 BKN100 21/17 A3005 NOSIG=
201801140700 METAR MROC 140700Z 10009KT 040V150 9999 FEW030 BKN100 20/17 A3002 NOSIG=
201801140800 METAR MROC 140800Z 08005KT 330V130 9999 FEW030 BKN100 21/17 A3000 NOSIG=
201801140900 METAR MROC 140900Z 14005KT 060V200 9999 -RA FEW030 BKN100 20/17 A3000 NOSIG=
201801141000 METAR MROC 141000Z 14010G20KT 080V220 9999 FEW030 SCT060 BKN100 20/16 A3000 NOSIG=
201801141100 METAR MROC 141100Z 08010G20KT 040V110 9999 FEW030 SCT060 BKN100 19/15 A3001 NOSIG=
201801141200 METAR MROC 141200Z 09010G20KT 050V130 9999 FEW030 SCT100 BKN250 19/14 A3002 NOSIG=
201801141300 METAR MROC 141300Z 10013G25KT 9999 FEW030 BKN110 19/13 A3006 NOSIG=
201801141400 METAR MROC 141400Z 10014G27KT 060V170 9999 FEW035 SCT120 19/13 A3008 WS R07 NOSIG=
201801141500 METAR MROC 141500Z 10014G31KT 050V170 9999 FEW030 21/14 A3008 WS R07 NOSIG=
201801141600 METAR MROC 141600Z 10018G30KT 070V150 9999 FEW030 21/14 A3008 WS R07 NOSIG=
201801141700 METAR MROC 141700Z 11016G31KT 070V170 9999 FEW040 23/14 A3005 WS R07 NOSIG=
201801141800 METAR MROC 141800Z 10014G26KT 020V130 9999 FEW030 24/15 A3003 WS R07 NOSIG=
201801141900 METAR MROC 141900Z 10016G32KT 060V140 9999 FEW030 25/15 A2999 WS R07 NOSIG=
201801142000 METAR MROC 142000Z 10017G34KT 080V160 9999 FEW030 23/15 A2996 WS R07 NOSIG=
201801142100 METAR MROC 142100Z 11017G30KT 070V150 9999 FEW035 23/15 A2995 NOSIG=
201801142200 METAR MROC 142200Z 11017KT 080V150 9999 FEW035 23/15 A2996 NOSIG=
201801142300 METAR MROC 142300Z 12013G23KT 060V150 9999 FEW035 21/15 A2998 NOSIG=
201801150000 METAR MROC 150000Z 07006KT 9999 FEW035 20/15 A3000 NOSIG=
201801150100 METAR MROC 150100Z 16005KT 140V210 9999 SCT035 21/16 A3002 NOSIG=
201801150200 METAR MROC 150200Z 16007KT 110V220 9999 SCT035 20/15 A3003 NOSIG=
201801150300 METAR MROC 150300Z 08004KT CAVOK 20/15 A3005 NOSIG=
201801150400 METAR MROC 150400Z 11010G20KT 070V150 9999 FEW040 SCT160 19/15 A3004 NOSIG=
201801150500 METAR MROC 150500Z 10010G20KT 070V150 9999 FEW040 SCT170 19/14 A3005 NOSIG=
201801150600 METAR MROC 150600Z 09011G21KT 040V150 9999 FEW040 SCT200 19/14 A3003 NOSIG=
201801150700 METAR MROC 150700Z 11011KT 030V160 9999 FEW035 SCT200 19/14 A3001 NOSIG=
201801150800 METAR MROC 150800Z 10012KT 060V120 9999 FEW035 19/14 A2999 NOSIG=
201801150900 METAR MROC 150900Z 12006KT 9999 FEW040 19/13 A2998 NOSIG=
201801151000 METAR MROC 151000Z 12012G23KT 080V210 CAVOK 18/14 A2997 NOSIG=
201801151100 METAR MROC 151100Z 12012G22KT 080V200 CAVOK 19/13 A2999 NOSIG=
201801151200 METAR MROC 151200Z 10012G22KT 040V170 9999 FEW030 18/13 A3001 NOSIG=
201801151300 METAR MROC 151300Z 09013G23KT 9999 FEW035 BKN250 20/14 A3002 NOSIG=
201801151400 METAR MROC 151400Z 11013KT 060V150 9999 FEW035 SCT250 21/14 A3004 NOSIG=
201801151500 METAR MROC 151500Z 11007KT 060V210 9999 SCT030 21/14 A3007 WS R07 NOSIG=
201801151600 METAR MROC 151600Z 12012G24KT 070V170 9999 FEW030 SCT250 22/13 A3005 WS R07 NOSIG=
201801151700 METAR MROC 151700Z 11013G23KT 070V150 9999 FEW030 SCT080 23/14 A3002 WS R07 NOSIG=
201801151800 METAR MROC 151800Z 11018G35KT 090V150 9999 FEW030 SCT120 21/14 A3001 WS R07 NOSIG=
201801151900 METAR MROC 151900Z 11015G30KT 080V160 9999 FEW030 SCT080 BKN200 21/14 A2997 WS R07 NOSIG=
201801152000 METAR MROC 152000Z 11018G29KT 9999 FEW030 SCT060 BKN200 23/15 A2994 WS R07 NOSIG=
201801152100 METAR MROC 152100Z 12015G25KT 060V160 9999 SCT030 BKN090 23/15 A2993 NOSIG=
201801152200 METAR MROC 152200Z 11012G24KT 070V160 9999 SCT025 BKN100 21/15 A2995 NOSIG=
201801152300 METAR MROC 152300Z 09013KT 050V120 9999 SCT025 SCT100 20/15 A2995 NOSIG=
201801160000 METAR MROC 160000Z 11015KT 9999 SCT030 SCT100 20/15 A2997 NOSIG=
201801160100 METAR MROC 160100Z 11012G23KT 070V160 9999 SCT030 20/16 A2998 NOSIG=
201801160200 METAR MROC 160200Z VRB06KT 9999 SCT030 21/16 A3002 NOSIG=
201801160300 METAR MROC 160300Z 08013KT 030V120 9999 SCT030 22/15 A3002 NOSIG=
201801160400 METAR MROC 160400Z VRB02KT 9999 FEW030 BKN140 21/16 A3004 NOSIG=
201801160500 METAR MROC 160500Z 11010G21KT 030V200 9999 FEW030 BKN150 20/16 A3002 NOSIG=
201801160600 METAR MROC 160600Z 10012G22KT 9999 FEW030 BKN200 20/16 A3000 NOSIG=
201801160700 METAR MROC 160700Z 10012G23KT 9999 FEW030 BKN200 20/15 A2998 NOSIG=
201801160800 METAR MROC 160800Z 12007KT 9999 FEW030 BKN200 20/15 A2997 NOSIG=
201801160900 METAR MROC 160900Z VRB02KT 9999 FEW030 BKN060 19/15 A2997 NOSIG=
201801161000 METAR MROC 161000Z 09007KT 070V130 9999 FEW030 SCT060 19/15 A2998 NOSIG=
201801161100 METAR MROC 161100Z 06005KT 030V100 9999 FEW030 SCT060 19/15 A2998 NOSIG=
201801161200 METAR MROC 161200Z VRB02KT 9999 VCSH FEW045 19/16 A3000 NOSIG=
201801161300 METAR MROC 161300Z VRB04KT 9999 VCSH FEW030 20/16 A3003 NOSIG=
201801161400 METAR MROC 161400Z 10010KT 9999 VCSH FEW030 BKN070 21/16 A3005 NOSIG=
201801161500 METAR MROC 161500Z 10009KT 9999 FEW030 BKN070 23/17 A3006 NOSIG=
201801161600 METAR MROC 161600Z 11014KT 9999 FEW030 SCT070 25/17 A3004 NOSIG=
201801161700 METAR MROC 161700Z 09016G26KT 060V120 9999 FEW030 SCT070 25/16 A3003 NOSIG=
201801161800 METAR MROC 161800Z 10014KT 060V130 9999 FEW030 SCT070 26/17 A3002 NOSIG=
201801161900 METAR MROC 161900Z 09014G24KT 9999 FEW030 BKN100 26/17 A2998 NOSIG=
201801162000 METAR MROC 162000Z 10011KT 060V140 9999 FEW030 BKN100 27/17 A2997 NOSIG=
201801162100 METAR MROC 162100Z 09012KT 070V130 9999 SCT030 BKN250 26/16 A2996 NOSIG=
201801162200 METAR MROC 162200Z 07010KT 040V100 9999 SCT030 BKN250 26/17 A2997 NOSIG=
201801162300 METAR MROC 162300Z 19004KT 150V250 9999 SCT030 BKN250 23/19 A2999 BECMG 24007KT=
201801170000 METAR MROC 170000Z 24005KT 190V330 9999 SCT030 21/19 A3000 NOSIG=
201801170100 METAR MROC 170100Z 24005KT 9999 -RA SCT030 20/20 A3004 NOSIG=
201801170200 METAR MROC 170200Z VRB03KT 9999 -RA SCT030 20/18 A3007 NOSIG=
201801170300 METAR MROC 170300Z 09006KT 9999 SCT030 20/18 A3008 NOSIG=
201801170400 METAR MROC 170400Z 12004KT 9999 FEW030 20/18 A3007 NOSIG=
201801170500 METAR MROC 170500Z 08004KT 9999 FEW030 20/17 A3006 NOSIG=
201801170600 METAR MROC 170600Z 06007KT CAVOK 20/17 A3004 NOSIG=
201801170700 METAR MROC 170700Z 09008KT 040V130 CAVOK 21/16 A3001 NOSIG=
201801170800 METAR MROC 170800Z 10017G27KT CAVOK 21/16 A2997 NOSIG=
201801170900 METAR MROC 170900Z 10015KT 060V120 CAVOK 21/17 A2997 NOSIG=
201801171000 METAR MROC 171000Z 10012KT 070V140 CAVOK 21/16 A2998 NOSIG=
201801171100 METAR MROC 171100Z 11016G26KT 9999 FEW035 21/16 A2998 NOSIG=
201801171200 METAR MROC 171200Z 10009KT 9999 FEW035 BKN120 21/16 A3002 NOSIG=
201801171300 METAR MROC 171300Z 09013KT 060V120 9999 FEW030 BKN120 23/17 A3003 NOSIG=
201801171400 METAR MROC 171400Z 11018KT 9999 FEW030 SCT120 23/16 A3005 NOSIG=
201801171500 METAR MROC 171500Z 11016G26KT 9999 FEW030 24/17 A3006 NOSIG=
201801171600 METAR MROC 171600Z 08016KT 9999 FEW030 SCT070 26/16 A3006 NOSIG=
201801171700 METAR MROC 171700Z 08013G25KT 050V120 9999 FEW030 BKN070 25/17 A3005 NOSIG=
201801171800 METAR MROC 171800Z 08017KT 9999 FEW030 SCT070 27/15 A3003 NOSIG=
201801171900 METAR MROC 171900Z 10014KT 070V130 9999 FEW030 SCT070 26/17 A3000 NOSIG=
201801172000 METAR MROC 172000Z 09017G27KT 070V130 9999 FEW030 BKN100 26/16 A2997 NOSIG=
201801172100 METAR MROC 172100Z 09012KT 050V130 9999 4000E RA FEW020 BKN070 24/16 A2997 NOSIG=
201801172200 METAR MROC 172200Z 09009KT 9999 -DZ FEW025 BKN090 22/16 A2997 RERA NOSIG=
201801172300 METAR MROC 172300Z 08012KT 9999 FEW030 BKN120 22/16 A2998 NOSIG=
201801180000 METAR MROC 180000Z 09016G26KT 9999 FEW030 BKN100 22/16 A3001 NOSIG=
201801180100 METAR MROC 180100Z COR 09015G25KT 9999 -RA FEW030 BKN090 21/16 A3002 NOSIG=
201801180200 METAR MROC 180200Z 12009KT 9999 -RA FEW030 BKN090 20/17 A3006 NOSIG=
201801180300 METAR MROC 180300Z 10009KT 070V130 9999 -RA FEW030 BKN100 20/16 A3006 NOSIG=
201801180400 METAR MROC 180400Z 10012KT CAVOK 20/17 A3006 NOSIG=
201801180500 METAR MROC 180500Z 11013KT CAVOK 20/16 A3005 NOSIG=
201801180600 METAR MROC 180600Z 09017KT CAVOK 21/16 A3003 NOSIG=
201801180700 METAR MROC 180700Z 09015G26KT CAVOK 21/16 A3002 NOSIG=
201801180800 METAR MROC 180800Z 11014KT CAVOK 21/16 A3000 NOSIG=
201801180900 METAR MROC 180900Z 11013KT CAVOK 20/16 A2998 NOSIG=
201801181000 METAR MROC 181000Z 10016KT CAVOK 20/16 A2998 NOSIG=
201801181100 METAR MROC 181100Z 11009KT CAVOK 20/16 A2999 NOSIG=
201801181200 METAR COR MROC 181200Z VRB04KT 9999 SCT030 20/16 A3001 NOSIG=
201801181300 METAR MROC 181300Z 05006KT 310V110 9999 FEW025 SCT060 BKN170 20/16 A3002 NOSIG=
201801181400 METAR MROC 181400Z 07008KT 350V120 9999 FEW020 SCT060 BKN200 22/16 A3005 NOSIG=
201801181500 METAR MROC 181500Z 11014G24KT 070V140 9999 FEW025 BKN200 23/17 A3004 NOSIG=
201801181600 METAR MROC 181600Z 10018G28KT 080V140 9999 FEW025 SCT200 24/16 A3004 NOSIG=
201801181700 METAR MROC 181700Z 11015G27KT 070V150 9999 FEW025 SCT120 23/16 A3004 NOSIG=
201801181800 METAR MROC 181800Z 12013G23KT 080V170 9999 FEW025 BKN120 23/16 A3001 NOSIG=
201801181900 METAR MROC 181900Z COR 11012G22KT 080V150 9999 FEW020 BKN120 25/17 A2998 NOSIG=
201801182000 METAR MROC 182000Z 10013G23KT 070V140 9999 FEW020 SCT100 BKN200 25/17 A2996 NOSIG=
201801182100 METAR MROC 182100Z COR 12011KT 080V160 9999 FEW030 BKN045 24/17 A2996 NOSIG=
201801182200 METAR MROC 182200Z 11010KT 070V160 9999 VCSH BKN035 24/16 A2995 BECMG RA=
201801182300 METAR MROC 182300Z 11008KT 080V140 9999 -RA FEW045 BKN120 22/18 A2996 NOSIG=
201801190000 METAR MROC 190000Z 12011KT 090V150 9999 FEW045 SCT120 21/17 A2998 NOSIG=
201801190100 METAR MROC 190100Z 09009KT 060V130 9999 FEW045 BKN120 22/16 A3001 NOSIG=
201801190200 METAR MROC 190200Z 10010KT 9999 FEW030 BKN120 21/17 A3003 NOSIG=
201801190300 METAR MROC 190300Z 11011KT 080V150 9999 FEW020 21/16 A3005 NOSIG=
201801190400 METAR MROC 190400Z 11008KT 070V130 9999 SCT040 21/16 A3007 NOSIG=
201801190500 METAR MROC 190500Z 10007KT 060V140 CAVOK 21/15 A3004 NOSIG=
201801190600 METAR MROC 190600Z 10015KT CAVOK 22/16 A3000 NOSIG=
201801190700 METAR MROC 190700Z 10009KT CAVOK 21/16 A2999 NOSIG=
201801190800 METAR MROC 190800Z 10011KT 9999 FEW040 21/16 A2996 NOSIG=
201801190900 METAR MROC 190900Z 10013KT 9999 FEW040 BKN100 21/16 A2995 NOSIG=
201801191000 METAR MROC 191000Z 11015KT 9999 FEW030 BKN100 21/16 A2995 NOSIG=
201801191100 METAR MROC 191100Z 05008KT 010V100 9999 FEW030 BKN100 20/17 A2991 NOSIG=
201801191200 METAR MROC 191200Z 10011KT 060V150 9999 FEW030 BKN100 21/16 A2999 NOSIG=
201801191300 METAR MROC 191300Z 10010G20KT 9999 FEW040 BKN060 21/16 A3002 NOSIG=
201801191400 METAR MROC 191400Z 11015G25KT 9999 FEW045 BKN080 22/16 A3004 NOSIG=
201801191500 METAR MROC 191500Z 10013G23KT 9999 FEW035 BKN110 23/17 A3005 NOSIG=
201801191600 METAR MROC 191600Z 10017G32KT 9999 FEW045 SCT120 26/16 A3003 NOSIG=
201801191700 METAR MROC 191700Z 10020G30KT 9999 FEW040 SCT100 26/16 A3001 NOSIG=
201801191800 METAR MROC 191800Z 10017G30KT 9999 FEW040 BKN110 25/16 A2999 NOSIG=
201801191900 METAR MROC 191900Z 08017G27KT 9999 FEW040 BKN110 27/16 A2996 NOSIG=
201801192000 METAR MROC 192000Z 10016KT 070V130 9999 FEW030 BKN100 25/16 A2994 NOSIG=
201801192100 METAR MROC 192100Z 08018G28KT 9999 FEW035 SCT120 25/16 A2992 NOSIG=
201801192200 METAR MROC 192200Z 09016G28KT 9999 FEW030 BKN120 24/15 A2990 NOSIG=
201801192300 METAR MROC 192300Z 10016G31KT 9999 FEW030 BKN110 23/16 A2992 NOSIG=
201801200000 METAR MROC 200000Z 08020G30KT 9999 RA FEW030 BKN110 23/15 A2993 NOSIG=
201801200100 METAR MROC 200100Z 08015KT 9999 FEW030 SCT120 23/15 A2996 RERA NOSIG=
201801200200 METAR MROC 200200Z 11011G21KT 080V140 9999 FEW030 SCT120 22/16 A2998 NOSIG=
201801200300 METAR MROC 200300Z 08007KT 9999 FEW030 SCT120 21/16 A3000 NOSIG=
201801200400 METAR MROC 200400Z 11013G23KT 080V150 9999 FEW030 SCT150 22/16 A2999 NOSIG=
201801200500 METAR MROC 200500Z 10013KT 9999 FEW030 21/16 A2997 NOSIG=
201801200600 METAR MROC 200600Z 10017G30KT 9999 FEW030 21/16 A2995 NOSIG=
201801200700 METAR MROC 200700Z 10014KT 9999 FEW040 21/16 A2994 NOSIG=
201801200800 METAR MROC 200800Z 10013KT CAVOK 21/16 A2993 NOSIG=
201801200900 METAR MROC 200900Z 11014G24KT CAVOK 21/16 A2994 NOSIG=
201801201000 METAR MROC 201000Z 11011KT CAVOK 21/16 A2994 NOSIG=
201801201100 METAR MROC 201100Z 11011KT CAVOK 21/16 A2995 NOSIG=
201801201200 METAR MROC 201200Z 11011KT 9999 FEW030 21/16 A2997 NOSIG=
201801201300 METAR MROC 201300Z 11013KT 080V150 9999 FEW035 SCT120 22/16 A2998 NOSIG=
201801201400 METAR MROC 201400Z 11011KT 9999 FEW035 SCT120 23/17 A3000 NOSIG=
201801201500 METAR MROC 201500Z 11015KT 9999 FEW035 SCT120 25/17 A3000 NOSIG=
201801201600 METAR MROC 201600Z 10015KT 9999 FEW040 SCT120 27/17 A3000 NOSIG=
201801201700 METAR MROC 201700Z 10013KT 9999 FEW040 SCT120 28/18 A2999 NOSIG=
201801201800 METAR COR MROC 201800Z 09016G29KT 070V140 9999 FEW040 SCT090 27/17 A2997 NOSIG=
201801201900 METAR MROC 201900Z 12012KT 080V150 CAVOK 29/17 A2992 NOSIG=
201801202000 METAR MROC 202000Z 09013KT 9999 FEW045 BKN120 28/15 A2990 NOSIG=
201801202100 METAR MROC 202100Z 07013KT 050V110 9999 FEW040 SCT120 28/16 A2989 NOSIG=
201801202200 METAR MROC 202200Z 09013KT 9999 FEW045 SCT120 27/16 A2989 NOSIG=
201801202300 METAR MROC 202300Z 08015KT 9999 FEW045 SCT230 26/16 A2991 NOSIG=
201801210000 METAR MROC 210000Z 08014KT 9999 SCT045 25/16 A2992 NOSIG=
201801210100 METAR MROC 210100Z 09008KT 9999 SCT045 23/17 A2994 NOSIG=
201801210200 METAR MROC 210200Z 29004KT 260V360 CAVOK 21/20 A2996 NOSIG=
201801210300 METAR MROC 210300Z 08008KT 050V110 CAVOK 23/17 A2998 NOSIG=
201801210400 METAR MROC 210400Z 11007KT 090V150 9999 FEW035 23/17 A2998 NOSIG=
201801210500 METAR MROC 210500Z VRB02KT 9999 FEW035 21/19 A2998 NOSIG=
201801210600 METAR MROC 210600Z 04005KT 350V090 9999 FEW035 21/18 A2996 NOSIG=
201801210700 METAR MROC 210700Z 33003KT 260V360 9999 FEW035 20/18 A2993 NOSIG=
201801210800 METAR MROC 210800Z 08007KT 060V120 9999 FEW035 21/18 A2991 NOSIG=
201801210900 METAR MROC 210900Z 02006KT 350V060 9999 SCT035 20/17 A2989 NOSIG=
201801211000 METAR MROC 211000Z 06004KT 9999 FEW035 22/18 A2989 NOSIG=
201801211100 METAR MROC 211100Z 09013KT 9999 FEW035 22/17 A2991 NOSIG=
201801211200 METAR MROC 211200Z 10012KT 9999 FEW030 BKN120 22/18 A2991 NOSIG=
201801211300 METAR MROC 211300Z 10012KT 9999 FEW030 SCT120 23/17 A2993 NOSIG=
201801211400 METAR MROC 211400Z 10013KT 070V130 9999 FEW030 25/18 A2995 NOSIG=
201801211500 METAR MROC 211500Z 10014KT 070V130 9999 SCT030 25/18 A2996 NOSIG=
201801211600 METAR MROC 211600Z 10014KT 060V120 9999 SCT030 27/18 A2996 NOSIG=
201801211700 METAR MROC 211700Z 08017KT 050V110 SCT030 SCT120 27/17 A2995 NOSIG=
201801211800 METAR MROC 211800Z 08015KT 9999 SCT030 SCT120 27/17 A2992 NOSIG=
201801211900 METAR MROC 211900Z 07016KT 9999 SCT030 27/17 A2990 NOSIG=
201801212000 METAR MROC 212000Z 06013KT 9999 BKN030 27/16 A2988 NOSIG=
201801212100 METAR MROC 212100Z 10012KT 070V140 9999 SCT030 BKN100 26/16 A2986 NOSIG=
201801212200 METAR MROC 212200Z 08012KT 9999 FEW030 BKN100 24/16 A2987 NOSIG=
201801212300 METAR MROC 212300Z 07015KT 9999 FEW030 BKN100 24/16 A2987 NOSIG=
201801220000 METAR MROC 220000Z 09014KT CAVOK 23/15 A2989 NOSIG=
201801220100 METAR MROC 220100Z 07018KT CAVOK 23/16 A2991 NOSIG=
201801220200 METAR MROC 220200Z 11015KT CAVOK 22/15 A2993 NOSIG=
201801220300 METAR MROC 220300Z 10016KT CAVOK 23/15 A2994 NOSIG=
201801220400 METAR MROC 220400Z 12012KT 090V150 CAVOK 21/15 A2995 NOSIG=
201801220500 METAR MROC 220500Z 100123KT CAVOK 21/15 A2994 NOSIG=
201801220600 METAR MROC 220600Z 10011KT CAVOK 21/14 A2992 NOSIG=
201801220700 METAR MROC 220700Z VRB02KT CAVOK 20/15 A2991 NOSIG=
201801220800 METAR MROC 220800Z 09007KT 050V120 CAVOK 20/15 A2989 NOSIG=
201801220900 METAR MROC 220900Z 05004KT CAVOK 18/13 A2988 NOSIG=
201801221000 METAR MROC 221000Z 05006KT 030V090 CAVOK 19/14 A2989 NOSIG=
201801221100 METAR MROC 221100Z 05007KT CAVOK 17/13 A2991 NOSIG=
201801221200 METAR MROC 221200Z 07010KT 040V100 CAVOK 19/13 A2993 NOSIG=
201801221300 METAR MROC 221300Z 06007KT 020V110 CAVOK 20/14 A2995 NOSIG=
201801221400 METAR MROC 221400Z 10012KT 070V130 CAVOK 22/14 A2997 NOSIG=
201801221500 METAR MROC 221500Z 11011KT 060V150 CAVOK 25/13 A2998 NOSIG=
201801221600 METAR MROC 221600Z 11012KT 090V150 CAVOK 26/13 A2996 NOSIG=
201801221700 METAR MROC 221700Z 10011KT CAVOK 27/14 A2995 NOSIG=
201801221800 METAR MROC 221800Z 10011KT 070V160 CAVOK 28/15 A2992 NOSIG=
201801221900 METAR MROC 221900Z 12008KT 090V180 CAVOK 29/15 A2989 NOSIG=
201801222000 METAR MROC 222000Z 12008KT 070V200 9999 FEW040 29/15 A2986 NOSIG=
201801222100 METAR MROC 222100Z VRB02KT 9999 FEW045 SCT140 28/19 A2985 NOSIG=
201801222200 METAR MROC 222200Z 10011KT 070V130 9999 FEW040 SCT140 27/17 A2985 NOSIG=
201801222300 METAR MROC 222300Z 11010G20KT 080V150 9999 VCTS FEW020TCU FEW030 BKN120 24/17 A2988 NOSIG=
201801230000 METAR MROC 230000Z 11010KT 090V150 9999 FEW040 BKN100 23/17 A2991 NOSIG=
201801230100 METAR MROC 230100Z 11017G30KT 070V130 9999 FEW040 BKN120 23/15 A2989 NOSIG=
201801230200 METAR MROC 230200Z 11014G26KT CAVOK 23/16 A2991 WS R07 NOSIG=
201801230300 METAR MROC 230300Z 11010G20KT 080V140 9999 FEW040 SCT160 22/16 A2994 WS R07 NOSIG=
201801230400 METAR MROC 230400Z 09011KT 040V130 CAVOK 22/17 A2995 NOSIG=
201801230500 METAR MROC 230500Z 11998KT 080V140 CAVOK 21/17 A2994 NOSIG=
201801230600 METAR MROC 230600Z 09006KT CAVOK 21/16 A2993 NOSIG=
201801230700 METAR MROC 230700Z 03005KT CAVOK 20/16 A2992 NOSIG=
201801230800 METAR MROC 230800Z 09005KT CAVOK 20/16 A2989 NOSIG=
201801230900 METAR MROC 230900Z 11011KT 080V140 CAVOK 20/16 A2988 NOSIG=
201801231000 METAR MROC 231000Z 10008KT 070V130 CAVOK 20/15 A2989 NOSIG=
201801231100 METAR MROC 231100Z 12012KT 090V160 CAVOK 21/16 A2988 NOSIG=
201801231200 METAR MROC 231200Z 13012KT 100V170 CAVOK 21/16 A2989 NOSIG=
201801231300 METAR MROC 231300Z 09008KT 050V130 CAVOK 22/16 A2992 NOSIG=
201801231400 METAR MROC 231400Z 12012G22KT 090V160 CAVOK 24/16 A2994 NOSIG=
201801231500 METAR MROC 231500Z 10013G23KT 080V140 9999 FEW045 26/16 A2995 NOSIG=
201801231600 METAR MROC 231600Z 11014G24KT CAVOK 27/16 A2995 NOSIG=
201801231700 METAR MROC 231700Z 10011G21KT 9999 FEW045 SCT100 28/16 A2994 NOSIG=
201801231800 METAR MROC 231800Z 10013KT 070V130 9999 FEW035 BKN100 28/15 A2992 NOSIG=
201801231900 METAR MROC 231900Z 12011KT 9999 FEW030 SCT060 BKN120 28/17 A2989 NOSIG=
201801232000 METAR MROC 232000Z 22005KT 160V270 9999 VCTS VCSH FEW020CB FEW030 BKN060 26/16 A2989 BECMG TSRA BKN030=
201801232100 METAR MROC 232100Z 22005KT 160V270 9999 VCTS VCSH FEW020CB FEW030 BKN060 26/16 A2989 BECMG TSRA BKN030=
201801232200 METAR MROC 232200Z 11012G22KT 080V140 9999 FEW035 SCT060 24/16 A2989 NOSIG=
201801232300 METAR MROC 232300Z 12016G26KT 9999 FEW035 SCT100 26/16 A2991 NOSIG=
201801240000 METAR MROC 240000Z 11016G28KT 9999 FEW045 BKN090 22/16 A2992 NOSIG=
201801240100 METAR MROC 240100Z 11018G28KT 9999 FEW045 BKN100 21/15 A2995 NOSIG=
201801240200 METAR MROC 240200Z 11017G27KT 9999 FEW025 BKN100 21/15 A2998 NOSIG=
201801240300 METAR MROC 240300Z 10016KT 070V130 CAVOK 22/15 A2998 NOSIG=
201801240400 METAR MROC 240400Z 10014G25KT CAVOK 22/15 A2996 NOSIG=
201801240500 METAR MROC 240500Z 10016G27KT CAVOK 23/14 A2994 NOSIG=
201801240600 METAR MROC 240600Z 11016KT CAVOK 22/15 A2993 NOSIG=
201801240700 METAR MROC 240700Z 11014KT CAVOK 21/15 A2992 NOSIG=
201801240800 METAR MROC 240800Z 11014KT CAVOK 21/15 A2989 NOSIG=
201801240900 METAR MROC 240900Z 11014KT CAVOK 21/15 A2989 NOSIG=
201801241000 METAR MROC 241000Z 10014KT CAVOK 21/16 A2990 NOSIG=
201801241100 METAR MROC 241100Z 10016KT CAVOK 21/16 A2992 NOSIG=
201801241200 METAR MROC 241200Z 10017KT 9999 FEW030 21/16 A2992 NOSIG=
201801241300 METAR MROC 241300Z 09017G30KT 9999 FEW045 BKN120 22/16 A2994 NOSIG=
201801241400 METAR MROC 241400Z 09017KT 070V130 9999 FEW040 BKN120 23/15 A2996 NOSIG=
201801241500 METAR MROC 091500Z 10010G20KT 9999 FEW040 BKN120 26/16 A2998 NOSIG=
201801241600 METAR MROC 241600Z 10013G27KT 070V130 9999 FEW040 SCT120 26/16 A2998 NOSIG=
201801241700 METAR MROC 241700Z 08016G27KT 9999 FEW045 SCT140 27/16 A2997 NOSIG=
201801241800 METAR MROC 241800Z 08018G28KT 9999 FEW045 BKN300 27/15 A2996 NOSIG=
201801241900 METAR MROC 241900Z 08016KT 9999 FEW045 SCT130 28/15 A2993 NOSIG=
201801242000 METAR MROC 242000Z 09017G29KT 9999 FEW045 SCT120 28/16 A2989 NOSIG=
201801242100 METAR MROC 242100Z 08017KT 050V110 9999 FEW030 SCT250 27/17 A2987 NOSIG=
201801242200 METAR MROC 242200Z 09017G27KT 9999 FEW030 SCT250 26/15 A2988 NOSIG=
201801242300 METAR MROC 242300Z 10016G28KT 070V130 9999 FEW030 24/15 A2990 NOSIG=
201801250000 METAR MROC 250000Z 10015KT 9999 FEW030 23/15 A2991 NOSIG=
201801250100 METAR MROC 250100Z 10016G26KT 9999 FEW030 23/15 A2993 NOSIG=
201801250200 METAR MROC 250200Z 10015KT 070V130 9999 FEW030 22/15 A2994 NOSIG=
201801250300 METAR MROC 250300Z 08013G26KT 9999 FEW030 SCT120 22/16 A2998 NOSIG=
201801250400 METAR MROC 250400Z 11016G26KT 9999 FEW040 21/16 A2998 NOSIG=
201801250500 METAR MROC 250500Z 10012G22KT 9999 FEW040 22/16 A2997 NOSIG=
201801250600 METAR MROC 250600Z 11013G23KT 9999 FEW040 SCT150 22/15 A2996 NOSIG=
201801250700 METAR MROC 250700Z 11014G24KT 9999 FEW040 SCT130 21/16 A2994 NOSIG=
201801250800 METAR MROC 250800Z 10016KT 9999 FEW040 BKN130 21/15 A2992 NOSIG=
201801250900 METAR MROC 250900Z 11018G31KT CAVOK 21/15 A2991 NOSIG=
201801251000 METAR MROC 251000Z 11018G30KT CAVOK 21/15 A2992 NOSIG=
201801251100 METAR MROC 251100Z 10019G29KT CAVOK 21/14 A2993 NOSIG=
201801251200 METAR MROC 251200Z 11017G27KT CAVOK 22/14 A2994 NOSIG=
201801251300 METAR MROC 251300Z 11018KT CAVOK 22/14 A2995 NOSIG=
201801251400 METAR MROC 251400Z 11018G28KT CAVOK 23/14 A2998 NOSIG=
201801251500 METAR MROC 251500Z 11019G30KT CAVOK 23/15 A3000 NOSIG=
201801251600 METAR MROC 251600Z 11017G27KT CAVOK 25/15 A2999 NOSIG=
201801251700 METAR MROC 251700Z 09021G31KT CAVOK 27/15 A2999 NOSIG=
201801251800 METAR MROC 251800Z 10016G26KT 070V130 9999 FEW035 SCT120 26/16 A2996 NOSIG=
201801251900 METAR MROC 251900Z 09020KT 9999 FEW035 27/16 A2993 NOSIG=
201801252000 METAR MROC 252000Z 09019G31KT 9999 FEW030 27/15 A2990 NOSIG=
201801252100 METAR MROC 252100Z 10018G32KT 9999 FEW030 26/14 A2989 NOSIG=
201801252200 METAR MROC 252200Z 10021KT 9999 FEW030 SCT120 25/12 A2990 NOSIG=
201801252300 METAR MROC 252300Z 11018KT 9999 FEW030 SCT120 24/14 A2992 NOSIG=
201801260000 METAR MROC 260000Z 11020KT CAVOK 22/15 A2994 NOSIG=
201801260100 METAR MROC 260100Z 11017KT CAVOK 22/15 A2995 NOSIG=
201801260200 METAR MROC 260200Z 11020KT CAVOK 22/15 A2996 NOSIG=
201801260300 METAR MROC 260300Z 10019KT CAVOK 22/14 A2997 NOSIG=
201801260400 METAR MROC 260400Z 10020KT CAVOK 21/14 A2998 NOSIG=
201801260500 METAR MROC 260500Z 10019KT CAVOK 22/15 A2997 NOSIG=
201801260600 METAR MROC 260600Z 10019KT 9999 FEW030 SCT100 22/15 A2998 NOSIG=
201801260700 METAR MROC 260700Z 10017KT 9999 FEW030 21/15 A2993 NOSIG=
201801260800 METAR MROC 260800Z 10018KT 9999 FEW030 21/15 A2992 NOSIG=
201801260900 METAR MROC 260900Z 10020KT 9999 FEW020 21/16 A2991 NOSIG=
201801261000 METAR MROC 261000Z 10020G31KT 9999 FEW030 21/15 A2991 NOSIG=
201801261100 METAR MROC 261100Z 10022G33KT 9999 FEW035 21/15 A2991 NOSIG=
201801261200 METAR MROC 261200Z 10020G30KT CAVOK 21/15 A2991 NOSIG=
201801261300 METAR MROC 261300Z 10019G29KT 080V140 CAVOK 21/15 A2996 NOSIG=
201801261400 METAR MROC 261400Z 11020KT CAVOK 23/15 A2997 NOSIG=
201801261500 METAR MROC 261500Z 10024G34KT CAVOK 25/15 A2999 NOSIG=
201801261600 METAR MROC 261600Z 09022KT CAVOK 26/14 A3000 NOSIG=
201801261700 METAR MROC 261700Z 09020G30KT CAVOK 27/15 A2998 NOSIG=
201801261800 METAR MROC 261800Z 09021G32KT CAVOK 27/13 A2995 NOSIG=
201801261900 METAR MROC 261900Z 09023G34KT CAVOK 27/11 A2992 NOSIG=
201801262000 METAR MROC 262000Z 09021KT CAVOK 27/13 A2990 NOSIG=
201801262100 METAR MROC 262100Z 08024KT 9999 FEW040 26/14 A2990 NOSIG=
201801262200 METAR MROC 262200Z 08020G32KT 9999 FEW040 26/15 A2988 NOSIG=
201801262300 METAR MROC 262300Z 09017KT 9999 FEW040 24/16 A2990 NOSIG=
201801270000 METAR MROC 270000Z 09015KT CAVOK 23/14 A2991 NOSIG=
201801270100 METAR MROC 270100Z 06017KT CAVOK 22/14 A2992 NOSIG=
201801270200 METAR MROC 270200Z 11019KT CAVOK 21/15 A2994 NOSIG=
201801270300 METAR MROC 270300Z 11019G29KT CAVOK 21/16 A2996 NOSIG=
201801270400 METAR MROC 270400Z 11017G28KT CAVOK 21/16 A2995 NOSIG=
201801270500 METAR MROC 270500Z 10019KT CAVOK 21/16 A2994 NOSIG=
201801270600 METAR MROC 270600Z 10018G28KT CAVOK 22/16 A2992 NOSIG=
201801270700 METAR MROC 270700Z 10016KT CAVOK 22/15 A2991 NOSIG=
201801270800 METAR MROC 270800Z 10017KT CAVOK 21/15 A2990 NOSIG=
201801270900 METAR MROC 270900Z 11015KT CAVOK 21/15 A2989 NOSIG=
201801271000 METAR MROC 271000Z 11016KT CAVOK 21/15 A2989 NOSIG=
201801271100 METAR MROC 271100Z 10019KT CAVOK 21/16 A2990 NOSIG=
201801271200 METAR MROC 271200Z 10017KT 9999 FEW035 21/15 A2990 NOSIG=
201801271300 METAR MROC 271300Z 11019G30KT 9999 FEW030 22/16 A2993 NOSIG=
201801271400 METAR MROC 271400Z 11016KT 9999 FEW030 23/16 A2996 NOSIG=
201801271500 METAR MROC 271500Z 11017KT 9999 FEW030 26/14 A2997 NOSIG=
201801271600 METAR MROC 271600Z 10018G30KT 9999 FEW030 27/14 A2996 NOSIG=
201801271700 METAR MROC 271700Z 08020G31KT 9999 FEW030 27/13 A2995 NOSIG=
201801271800 METAR MROC 271800Z 08019KT 9999 FEW030 28/13 A2993 NOSIG=
201801271900 METAR MROC 271900Z 08018KT 9999 FEW030 28/14 A2990 NOSIG=
201801272000 METAR MROC 272000Z 07017KT 9999 FEW040 28/15 A2986 NOSIG=
201801272100 METAR MROC 272100Z 07017G27KT 9999 FEW040 28/15 A2984 NOSIG=
201801272200 METAR MROC 272200Z 07016G29KT 9999 FEW040 27/15 A2984 NOSIG=
201801272300 METAR MROC 272300Z 07018KT 9999 FEW030 24/16 A2986 NOSIG=
201801280000 METAR MROC 280000Z 09011KT 060V120 9999 FEW030 23/14 A2989 NOSIG=
201801280100 METAR MROC 280100Z 11015KT 9999 FEW035 22/16 A2990 NOSIG=
201801280200 METAR MROC 280200Z 10016G27KT 9999 FEW040 22/14 A2991 NOSIG=
201801280300 METAR MROC 280300Z 10016G26KT CAVOK 22/13 A2994 NOSIG=
201801280400 METAR MROC 280400Z 11015KT CAVOK 22/13 A2994 NOSIG=
201801280500 METAR MROC 280500Z 11013KT CAVOK 22/13 A2993 NOSIG=
201801280600 METAR MROC 280600Z 11015KT CAVOK 20/14 A2991 NOSIG=
201801280700 METAR MROC 280700Z 11015KT CAVOK 21/14 A2990 NOSIG=
201801280800 METAR MROC 280800Z 11013G23KT CAVOK 20/14 A2988 NOSIG=
201801280900 METAR MROC 280900Z 11013KT CAVOK 20/14 A2987 NOSIG=
201801281000 METAR MROC 281000Z 12014KT 090V150 CAVOK 20/14 A2987 NOSIG=
201801281100 METAR MROC 281100Z 11015KT CAVOK 20/14 A2988 NOSIG=
201801281200 METAR MROC 281200Z 10014KT CAVOK 20/15 A2989 NOSIG=
201801281300 METAR MROC 281300Z 11016KT CAVOK 21/14 A2991 NOSIG=
201801281400 METAR MROC 281400Z 11017KT CAVOK 23/15 A2993 NOSIG=
201801281500 METAR MROC 281500Z 09018G30KT 070V130 CAVOK 25/15 A2993 NOSIG=
201801281600 METAR MROC 281600Z 09020G32KT 9999 FEW040 25/15 A2994 NOSIG=
201801281700 METAR MROC 281700Z 08018KT 9999 FEW040 27/14 A2993 NOSIG=
201801281800 METAR MROC 281800Z 09018KT 9999 FEW040 27/15 A2990 NOSIG=
201801281900 METAR MROC 281900Z 08016G27KT 050V110 9999 FEW040 28/15 A2987 NOSIG=
201801282000 METAR MROC 282000Z 09014G25KT 9999 FEW035 28/14 A2985 NOSIG=
201801282100 METAR MROC 282100Z 08016KT 9999 FEW045 SCT300 28/12 A2984 NOSIG=
201801282200 METAR MROC 282200Z 07018KT 050V110 CAVOK 27/16 A2983 NOSIG=
201801282300 METAR MROC 282300Z 08016G27KT CAVOK 25/15 A2983 NOSIG=
201801290000 METAR MROC 290000Z 09014G24KT 9999 FEW035 SCT300 23/16 A2984 NOSIG=
201801290100 METAR MROC 290100Z 08020G30KT 9999 FEW035 23/16 A2987 NOSIG=
201801290200 METAR MROC 290200Z 08013G23KT 9999 FEW030 22/16 A2990 NOSIG=
201801290300 METAR MROC 290300Z 09017KT 9999 FEW035 22/15 A2991 NOSIG=
201801290400 METAR MROC 290400Z 10018KT CAVOK 22/15 A2990 NOSIG=
201801290500 METAR MROC 290500Z 11015KT CAVOK 21/16 A2991 NOSIG=
201801290600 METAR MROC 290600Z 11015G25KT CAVOK 21/15 A2990 NOSIG=
201801290700 METAR MROC 290700Z 10014KT 060V130 CAVOK 21/16 A2988 NOSIG=
201801290800 METAR MROC 290800Z 06009KT 360V100 CAVOK 21/15 A2986 NOSIG=
201801290900 METAR MROC 290900Z 09008KT 050V130 CAVOK 20/15 A2985 NOSIG=
201801291000 METAR MROC 291000Z 08009KT 040V120 CAVOK 20/15 A2984 NOSIG=
201801291100 METAR MROC 291100Z 05010KT 010V110 CAVOK 20/15 A2985 NOSIG=
201801291200 METAR MROC 291200Z VRB06KT CAVOK 20/15 A2986 NOSIG=
201801291300 METAR MROC 291300Z 04004KT CAVOK 22/15 A2987 NOSIG=
201801291400 METAR MROC 291400Z 11019G29KT CAVOK 23/16 A2988 NOSIG=
201801291500 METAR MROC 291500Z 11018G33KT 9999 FEW045 24/16 A2990 NOSIG=
201801291600 METAR MROC 291600Z 11019G29KT CAVOK 27/16 A2991 NOSIG=
201801291700 METAR MROC 291700Z 11017G27KT 9999 FEW040 27/17 A2991 NOSIG=
201801291800 METAR MROC 291800Z 11017G30KT 9999 FEW045 28/17 A2988 NOSIG=
201801291900 METAR MROC 291900Z 10017G28KT 9999 FEW045 27/16 A2986 NOSIG=
201801292000 METAR MROC 292000Z 11019G30KT 080V140 FEW045 27/16 A2983 NOSIG=
201801292100 METAR MROC 292100Z COR 09018KT 060V120 9999 FEW045 27/16 A2982 NOSIG=
201801292200 METAR MROC 292200Z 09016KT 9999 FEW045 26/14 A2983 NOSIG=
201801292300 METAR MROC 292300Z 08014G29KT 9999 FEW045 25/15 A2983 NOSIG=
201801300000 METAR MROC 300000Z 09008KT 070V140 9999 FEW045 23/14 A2985 NOSIG=
201801300100 METAR MROC 300100Z 09013KT 9999 FEW035 22/16 A2986 NOSIG=
201801300200 METAR MROC 300200Z 10019G29KT 9999 FEW035 22/16 A2988 NOSIG=
201801300300 METAR MROC 300300Z 10018G29KT 070V130 CAVOK 22/16 A2989 NOSIG=
201801300400 METAR MROC 300400Z 10018G28KT 9999 FEW040 21/16 A2991 NOSIG=
201801300500 METAR MROC 300500Z 11017KT 9999 FEW040 21/16 A2991 NOSIG=
201801300600 METAR MROC 300600Z 10012G22KT 9999 FEW040 21/16 A2991 NOSIG=
201801300700 METAR MROC 300700Z 10017G27KT 9999 FEW040 21/17 A2988 NOSIG=
201801300800 METAR MROC 300800Z 11015G25KT 9999 FEW040 21/16 A2988 NOSIG=
201801300900 METAR MROC 300900Z 11017G27KT 9999 FEW035 21/17 A2985 NOSIG=
201801301000 METAR MROC 301000Z 10018G28KT 9999 FEW035 21/16 A2987 NOSIG=
201801301100 METAR MROC 301100Z 10017KT 9999 FEW035 21/16 A2988 NOSIG=
201801301200 METAR MROC 301200Z 10015G25KT 9999 FEW025 21/15 A2989 NOSIG=
201801301300 METAR MROC 301300Z 09018G29KT 050V120 9999 FEW030 22/14 A2990 NOSIG=
201801301400 METAR MROC 301400Z 09023G34KT 9999 FEW035 24/15 A2991 NOSIG=
201801301500 METAR MROC 301500Z 08022G32KT 9999 FEW040 25/14 A2995 NOSIG=
201801301600 METAR MROC 301600Z 08023G33KT 9999 FEW040 26/14 A2995 NOSIG=
201801301700 METAR MROC 301700Z 08020G30KT 9999 FEW045 27/12 A2992 NOSIG=
201801301800 METAR MROC 301800Z 08024G34KT CAVOK 27/15 A2991 NOSIG=
201801301900 METAR MROC 301900Z 08022KT 9999 FEW045 27/15 A2988 NOSIG=
201801302000 METAR MROC 302000Z 09024G35KT 9999 FEW045 27/14 A2985 NOSIG=
201801302100 METAR MROC 302100Z 08021G31KT CAVOK 27/15 A2983 NOSIG=
201801302200 METAR MROC 302200Z 09023G35KT CAVOK 26/14 A2983 NOSIG=
201801302300 METAR MROC 302300Z 08024G36KT CAVOK 25/14 A2983 NOSIG=
201801310000 METAR MROC 310000Z 08021G31KT CAVOK 23/15 A2985 NOSIG=
201801310100 METAR MROC 310100Z 08020G30KT CAVOK 23/15 A2987 NOSIG=
201801310200 METAR MROC 310200Z 08019G20KT CAVOK 23/16 A2989 NOSIG=
201801310300 METAR MROC 310300Z 09019KT CAVOK 22/16 A2992 NOSIG=
201801310400 METAR MROC 310400Z 10020G30KT 9999 FEW030 22/16 A2993 NOSIG=
201801310500 METAR MROC 310500Z 10017G27KT 9999 FEW030 22/16 A2993 NOSIG=
201801310600 METAR MROC 310600Z 09020KT CAVOK 23/15 A2991 NOSIG=
201801310700 METAR MROC 310700Z 09020G30KT CAVOK 22/16 A2990 NOSIG=
201801310800 METAR MROC 310800Z 09019KT CAVOK 22/16 A2988 NOSIG=
201801310900 METAR MROC 310900Z 08019KT 9999 FEW030 22/16 A2987 NOSIG=
201801311000 METAR MROC 311000Z 08017KT CAVOK 22/16 A2988 NOSIG=
201801311100 METAR MROC 311100Z 10013KT 9999 FEW030 21/16 A2989 NOSIG=
201801311200 METAR MROC 311200Z 10014KT 9999 FEW030 22/17 A2990 NOSIG=
201801311300 METAR MROC 311300Z 10015KT 9999 FEW030 22/17 A2991 NOSIG=
201801311400 METAR MROC 311400Z 10013KT 9999 FEW030 25/16 A2994 NOSIG=
201801311500 METAR MROC 311500Z 10018KT 9999 FEW030 26/17 A2994 NOSIG=
201801311600 METAR MROC 311600Z 08018G28KT 9999 FEW030 27/16 A2994 NOSIG=
201801311700 METAR MROC 311700Z 07023KT 9999 FEW030 SCT110 27/16 A2993 NOSIG=
201801311800 METAR MROC 311800Z 07018G29KT 050V130 9999 FEW030 SCT110 28/17 A2991 NOSIG=
201801311900 METAR MROC 311900Z 07025G38KT 9999 FEW030 SCT110 26/16 A2988 NOSIG=
201801312000 METAR MROC 312000Z 09023G33KT 9999 FEW030 SCT110 27/18 A2986 NOSIG=
201801312100 METAR MROC 312100Z 08018G28KT 050V120 9999 FEW030 BKN100 25/16 A2986 NOSIG=
201801312200 METAR MROC 312200Z 07022G32KT 9999 FEW030 BKN100 26/16 A2985 NOSIG=
201801312300 METAR MROC 312300Z 07015KT 9999 FEW030 BKN100 25/16 A2988 NOSIG=
201802010000 METAR MROC 010000Z 09012KT 070V130 9999 FEW030 SCT100 23/17 A2990 NOSIG=
201802010100 METAR MROC 010100Z 12010KT 100V160 9999 FEW030 SCT100 23/17 A2992 NOSIG=
201802010200 METAR MROC 010200Z 11013KT 9999 FEW030 SCT100 22/17 A2995 NOSIG=
201802010300 METAR MROC 010300Z 10014KT 9999 FEW030 23/16 A2995 NOSIG=
201802010400 METAR MROC 010400Z 09015KT 9999 FEW040 23/16 A2996 NOSIG=
201802010500 METAR MROC 010500Z 10013KT 9999 FEW040 22/16 A2995 NOSIG=
201802010600 METAR MROC 010600Z 09014G24KT 9999 FEW035 SCT060 23/16 A2995 NOSIG=
201802010700 METAR MROC 010700Z 10015KT 080V140 CAVOK 22/16 A2993 NOSIG=
201802010800 METAR MROC 010800Z 10017G27KT 9999 FEW035 22/17 A2991 NOSIG=
201802010900 METAR MROC 010900Z 11016KT 9999 FEW030 22/16 A2990 NOSIG=
201802011000 METAR MROC 011000Z 11013G24KT 9999 FEW030 22/16 A2991 NOSIG=
201802011100 METAR MROC 011100Z 10011KT 9999 FEW030 22/16 A2994 NOSIG=
201802011200 METAR MROC 011200Z 12010KT 9999 FEW035 SCT060 21/16 A2994 NOSIG=
201802011300 METAR MROC 011300Z 11012KT 080V140 9999 FEW030 SCT060 22/17 A2997 NOSIG=
201802011400 METAR MROC 011400Z 09012KT 060V120 9999 FEW040 24/16 A2999 NOSIG=
201802011500 METAR MROC 011500Z 10012KT 070V130 9999 FEW040 26/17 A3001 NOSIG=
201802011600 METAR MROC 011600Z 08016KT 050V110 9999 FEW040 27/16 A3001 NOSIG=
201802011700 METAR MROC 011700Z 08019KT 050V110 9999 FEW040 27/15 A2998 NOSIG=
201802011800 METAR MROC 011800Z 07018KT 050V110 9999 FEW040 27/16 A2997 NOSIG=
201802011900 METAR MROC 011900Z 08019KT 050V110 9999 FEW040 28/17 A2993 NOSIG=
201802012000 METAR MROC 012000Z 08019G30KT 050V110 9999 FEW040 28/16 A2992 NOSIG=
201802012100 METAR MROC 012100Z 07017G28KT 050V110 9999 FEW035 26/16 A2992 NOSIG=
201802012200 METAR MROC 012200Z 11017G27KT 9999 FEW040 SCT250 26/15 A2991 NOSIG=
201802012300 METAR MROC 012300Z 08015G26KT 9999 FEW040 SCT250 25/13 A2992 NOSIG=
201802020000 METAR MROC 020000Z 08019G30KT 9999 FEW045 23/15 A2993 NOSIG=
201802020100 METAR MROC 020100Z 08013G23KT CAVOK 23/14 A2996 NOSIG=
201802020200 METAR MROC 020200Z 09016KT CAVOK 23/15 A2997 NOSIG=
201802020300 METAR MROC 020300Z 08012KT CAVOK 22/15 A3000 NOSIG=
201802020400 METAR MROC 020400Z 10015KT CAVOK 21/16 A3000 NOSIG=
201802020500 METAR MROC 020500Z 11018G30KT CAVOK 21/16 A2998 NOSIG=
201802020600 METAR MROC 020600Z 11013KT CAVOK 21/15 A2999 NOSIG=
201802020700 METAR MROC 020700Z 11016G27KT CAVOK 21/15 A2996 NOSIG=
201802020800 METAR MROC 020800Z 11015KT CAVOK 21/15 A2996 NOSIG=
201802020900 METAR MROC 020900Z 10018G28KT CAVOK 21/16 A2996 NOSIG=
201802021000 METAR MROC 021000Z 11015KT 090V150 CAVOK 21/16 A2996 NOSIG=
201802021100 METAR MROC 021100Z 11017KT CAVOK 21/16 A2996 NOSIG=
201802021200 METAR MROC 021200Z 11016G27KT 9999 FEW030 21/16 A2999 NOSIG=
201802021300 METAR MROC 021300Z 11018KT 9999 FEW030 21/15 A3001 NOSIG=
201802021400 METAR MROC 021400Z 09017G27KT 9999 FEW030 24/14 A3003 NOSIG=
201802021500 METAR MROC 021500Z 09020G32KT 9999 FEW030 SCT250 25/14 A3002 NOSIG=
201802021600 METAR MROC 021600Z COR 09017G27KT 060V130 9999 FEW040 26/12 A3004 NOSIG=
201802021700 METAR MROC 021700Z 10020KT 070V130 9999 FEW045 27/11 A3002 NOSIG=
201802021800 METAR MROC 021800Z 10020G30KT 9999 FEW045 27/11 A2999 NOSIG=
201802021900 METAR MROC 021900Z 09019G29KT CAVOK 28/07 A2997 NOSIG=
201802022000 METAR MROC 022000Z COR 09019G29KT CAVOK 28/09 A2994 NOSIG=
201802022100 METAR MROC 022100Z 09017G28KT CAVOK 28/12 A2994 NOSIG=
201802022200 METAR MROC 022200Z 08019KT CAVOK 26/10 A2995 NOSIG=
201802022300 METAR MROC 022300Z 08020G30KT CAVOK 24/12 A2996 NOSIG=
201802030000 METAR MROC 030000Z 09018KT CAVOK 23/13 A2998 NOSIG=
201802030100 METAR MROC 030100Z 08021G31KT CAVOK 22/12 A2998 NOSIG=
201802030200 METAR MROC 030200Z 09020G32KT CAVOK 22/11 A3001 NOSIG=
201802030300 METAR MROC 030300Z 10019G30KT CAVOK 22/10 A3002 NOSIG=
201802030400 METAR MROC 030400Z 11016KT CAVOK 21/11 A3002 NOSIG=
201802030500 METAR MROC 030500Z 10015KT CAVOK 20/11 A3001 NOSIG=
201802030600 METAR MROC 030600Z 09017G28KT CAVOK 20/12 A2999 NOSIG=
201802030700 METAR MROC 030700Z 09011KT CAVOK 20/12 A2997 NOSIG=
201802030800 METAR MROC 030800Z 09004KT 020V120 CAVOK 20/12 A2996 NOSIG=
201802030900 METAR MROC 030900Z 09011KT 040V140 CAVOK 19/14 A2996 NOSIG=
201802031000 METAR MROC 031000Z 10013KT 070V140 CAVOK 19/13 A2996 NOSIG=
201802031100 METAR MROC 031100Z 11016G26KT CAVOK 19/13 A2996 NOSIG=
201802031200 METAR MROC 031200Z 11018G32KT CAVOK 19/11 A2998 NOSIG=
201802031300 METAR MROC 031300Z 12011KT CAVOK 21/12 A2999 NOSIG=
201802031400 METAR MROC 031400Z 11014G24KT CAVOK 23/14 A3001 NOSIG=
201802031500 METAR MROC 031500Z 12014G24KT 080V150 CAVOK 25/14 A3001 NOSIG=
201802031600 METAR MROC 031600Z 10019G29KT CAVOK 26/14 A3003 NOSIG=
201802031700 METAR MROC 031700Z 09019KT CAVOK 27/15 A3003 NOSIG=
201802031800 METAR MROC 031800Z 07018KT 050V110 9999 FEW045 27/15 A2998 NOSIG=
201802031900 METAR MROC 031900Z 07018KT 9999 FEW045 28/16 A2996 NOSIG=
201802032000 METAR MROC 032000Z 09017KT 9999 FEW045 27/16 A2994 NOSIG=
201802032100 METAR MROC 032100Z 08015KT 9999 FEW040 27/15 A2992 NOSIG=
201802032200 METAR MROC 032200Z 11014KT 080V150 9999 FEW040 26/16 A2993 NOSIG=
201802032300 METAR MROC 032300Z 10017KT 9999 SCT035 24/16 A2994 NOSIG=
201802040000 METAR MROC 040000Z 12013KT 9999 SCT035 22/15 A2996 NOSIG=
201802040100 METAR MROC 040100Z 10013KT 9999 FEW035 21/14 A2998 NOSIG=
201802040200 METAR MROC 040200Z 12009KT 9999 FEW035 21/12 A3001 NOSIG=
201802040300 METAR MROC 040300Z 12014G24KT 9999 FEW035 20/12 A3004 NOSIG=
201802040400 METAR MROC 040400Z 12015G25KT 090V150 9999 FEW040 19/11 A3002 NOSIG=
201802040500 METAR MROC 040500Z 11018G28KT 9999 FEW040 19/12 A3002 NOSIG=
201802040600 METAR MROC 040600Z 10017G27KT 9999 FEW040 19/11 A3001 NOSIG=
201802040700 METAR MROC 040700Z 11016KT CAVOK 19/10 A2999 NOSIG=
201802040800 METAR MROC 040800Z 10014KT CAVOK 18/11 A2997 NOSIG=
201802040900 METAR MROC 040900Z 11014KT CAVOK 18/10 A2997 NOSIG=
201802041000 METAR MROC 041000Z 11012KT CAVOK 18/09 A2997 NOSIG=
201802041100 METAR MROC 041100Z 11012KT 080V140 CAVOK 19/09 A2997 NOSIG=
201802041200 METAR MROC 041200Z 11009KT CAVOK 19/10 A2998 NOSIG=
201802041300 METAR MROC 041300Z 11009KT 070V130 CAVOK 21/20 A2999 NOSIG=
201802041400 METAR MROC 041400Z 10014G24KT CAVOK 24/10 A2999 NOSIG=
201802041500 METAR MROC 041500Z 10019G32KT 070V130 CAVOK 26/12 A2999 NOSIG=
201802041600 METAR MROC 041600Z 11018G28KT CAVOK 27/12 A3000 NOSIG=
201802041700 METAR MROC 041700Z 11016G26KT 090V150 CAVOK 28/13 A3000 NOSIG=
201802041800 METAR MROC 041800Z 10016KT 060V130 CAVOK 29/12 A2997 NOSIG=
201802041900 METAR MROC 041900Z 10016G26KT 080V150 CAVOK 30/14 A2995 NOSIG=
201802042000 METAR MROC 042000Z 10014KT CAVOK 29/14 A2993 NOSIG=
201802042100 METAR MROC 042100Z 09013KT 060V130 CAVOK 28/14 A2992 NOSIG=
201802042200 METAR MROC 042200Z 09012KT 060V120 CAVOK 28/14 A2992 NOSIG=
201802042300 METAR MROC 042300Z 08012KT CAVOK 26/15 A2993 NOSIG=
201802050000 METAR MROC 050000Z 09016KT CAVOK 23/14 A2995 NOSIG=
201802050100 METAR MROC 050100Z 09013KT CAVOK 22/15 A2996 NOSIG=
201802050200 METAR MROC 050200Z 09013KT CAVOK 21/13 A2999 NOSIG=
201802050300 METAR MROC 050300Z 09017KT CAVOK 22/13 A3001 NOSIG=
201802050400 METAR MROC 050400Z 10013KT CAVOK 21/14 A3002 NOSIG=
201802050500 METAR MROC 050500Z 05009KT 020V080 CAVOK 20/14 A3002 NOSIG=
201802050600 METAR MROC 050600Z 08011KT 050V110 CAVOK 20/14 A3000 NOSIG=
201802050700 METAR MROC 050700Z 09007KT 060V120 CAVOK 19/13 A2998 NOSIG=
201802050800 METAR MROC 050800Z 08009KT 040V100 CAVOK 18/13 A2997 NOSIG=
201802050900 METAR MROC 050900Z 11011KT 070V130 9999 FEW020 19/14 A2996 NOSIG=
201802051000 METAR MROC 051000Z 10008KT 9999 FEW030 18/13 A2997 NOSIG=
201802051100 METAR MROC 051100Z 10013KT 9999 FEW030 19/12 A2998 NOSIG=
201802051200 METAR MROC 051200Z 10015KT 070V140 CAVOK 19/11 A3001 NOSIG=
201802051300 METAR MROC 051300Z 11014KT CAVOK 19/12 A3004 NOSIG=
201802051400 METAR MROC 051400Z 11013KT 080V150 CAVOK 21/12 A3006 NOSIG=
201802051500 METAR MROC 051500Z 12017KT 090V170 CAVOK 23/11 A3005 NOSIG=
201802051600 METAR MROC 051600Z 11019G29KT CAVOK 25/12 A3006 NOSIG=
201802051700 METAR MROC 051700Z 10018KT 070V130 CAVOK 27/10 A3003 NOSIG=
201802051800 METAR MROC 051800Z 11018KT 080V140 CAVOK 28/06 A3001 NOSIG=
201802051900 METAR MROC 051900Z 09015KT 060V120 9999 VA NSC 29/11 A2999 NOSIG=
201802052000 METAR MROC 052000Z 09015KT 060V120 CAVOK 28/10 A2996 NOSIG=
201802052100 METAR MROC 052100Z 08016KT 9999 FEW040 28/12 A2995 NOSIG=
201802052200 METAR MROC 052200Z 07022KT 9999 FEW040 27/13 A2995 NOSIG=
201802052300 METAR MROC 052300Z 07018KT CAVOK 25/12 A2996 NOSIG=
201802060000 METAR MROC 060000Z 08014KT CAVOK 23/14 A2998 NOSIG=
201802060100 METAR MROC 060100Z 10015G25KT CAVOK 22/14 A3000 NOSIG=
201802060200 METAR MROC 060200Z 10015KT CAVOK 22/13 A3001 NOSIG=
201802060300 METAR MROC 060300Z 10012KT CAVOK 22/12 A3002 NOSIG=
201802060400 METAR MROC 060400Z 10017KT CAVOK 21/13 A3003 NOSIG=
201802060500 METAR MROC 060500Z 10018KT CAVOK 22/11 A3003 NOSIG=
201802060600 METAR MROC 060600Z 10012KT 070V130 CAVOK 21/12 A3001 NOSIG=
201802060700 METAR MROC 060700Z 11016KT CAVOK 20/12 A2998 NOSIG=
201802060800 METAR MROC 060800Z 10017KT CAVOK 20/13 A2997 NOSIG=
201802060900 METAR MROC 060900Z 10016G26KT CAVOK 21/11 A2996 NOSIG=
201802061000 METAR MROC 061000Z 10019KT CAVOK 20/13 A2996 NOSIG=
201802061100 METAR MROC 061100Z 10019G30KT CAVOK 20/13 A2997 NOSIG=
201802061200 METAR MROC 061200Z 10018KT CAVOK 20/14 A2999 NOSIG=
201802061300 METAR MROC 061300Z COR 10017KT CAVOK 21/14 A3001 NOSIG=
201802061400 METAR MROC 061400Z 10016KT CAVOK 23/14 A3005 NOSIG=
201802061500 METAR MROC 061500Z 11015KT 080V140 CAVOK 24/14 A3006 NOSIG=
201802061600 METAR MROC 061600Z 08019KT 9999 FEW040 26/12 A3005 NOSIG=
201802061700 METAR MROC 061700Z 09020KT 9999 FEW040 27/12 A3003 NOSIG=
201802061800 METAR MROC 061800Z 08018KT 9999 FEW040 28/14 A3001 NOSIG=
201802061900 METAR MROC 061900Z 08019KT 9999 FEW040 27/14 A2999 NOSIG=
201802062000 METAR MROC 062000Z 08019G29KT 9999 FEW040 27/14 A2996 NOSIG=
201802062100 METAR MROC 062100Z 09017KT 9999 FEW040 26/15 A2994 NOSIG=
201802062200 METAR MROC 062200Z 09018KT 9999 FEW045 25/16 A2994 NOSIG=
201802062300 METAR MROC 062300Z 09015KT 9999 FEW035 24/15 A2995 NOSIG=
201802070000 METAR MROC 070000Z 10014G24KT 9999 FEW030 21/14 A2997 NOSIG=
201802070100 METAR MROC 070100Z 09013KT 9999 FEW030 21/14 A2999 NOSIG=
201802070200 METAR MROC 070200Z 10013KT 9999 FEW040 21/13 A3002 NOSIG=
201802070300 METAR MROC 070300Z 09014G24KT CAVOK 21/13 A3002 NOSIG=
201802070400 METAR MROC 070400Z 10013KT CAVOK 20/13 A3004 NOSIG=
201802070500 METAR MROC 070500Z 10015G25KT CAVOK 20/13 A3003 NOSIG=
201802070600 METAR MROC 070600Z 11016KT CAVOK 20/13 A3003 NOSIG=
201802070700 METAR MROC 070700Z 11013KT CAVOK 20/13 A3001 NOSIG=
201802070800 METAR MROC 070800Z 12016KT 090V150 CAVOK 19/15 A2999 NOSIG=
201802070900 METAR MROC 070900Z 11016G26KT CAVOK 20/14 A2998 NOSIG=
201802071000 METAR MROC 071000Z 11013G23KT CAVOK 20/14 A2998 NOSIG=
201802071100 METAR MROC 071100Z 12014KT CAVOK 20/14 A2999 NOSIG=
201802071200 METAR MROC 071200Z 12011KT CAVOK 20/13 A3001 NOSIG=
201802071300 METAR MROC 071300Z 10015KT CAVOK 22/12 A3003 NOSIG=
201802071400 METAR MROC 071400Z 09015G25KT CAVOK 24/13 A3005 NOSIG=
201802071500 METAR MROC 071500Z 10016G28KT CAVOK 26/12 A3005 NOSIG=
201802071600 METAR MROC 071600Z 08017KT CAVOK 27/12 A3005 NOSIG=
201802071700 METAR MROC 071700Z 08015KT CAVOK 28/13 A3003 NOSIG=
201802071800 METAR MROC 071800Z 07020G30KT 9999 FEW045 28/14 A3000 NOSIG=
201802071900 METAR MROC 071900Z 06022G32KT 9999 FEW040 29/15 A2997 NOSIG=
201802072000 METAR MROC 072000Z 07019KT 9999 FEW040 28/15 A2995 NOSIG=
201802072100 METAR MROC 072100Z 07019G29KT 9999 FEW040 28/15 A2993 NOSIG=
201802072200 METAR MROC 072200Z 07019KT 9999 FEW040 SCT300 25/15 A2994 NOSIG=
201802072300 METAR MROC 072300Z 08017G27KT 9999 VA FEW040 SCT300 24/13 A2996 NOSIG=
201802080000 METAR MROC 080000Z 10013KT 9999 FEW040 SCT300 23/13 A2997 REVA NOSIG=
201802080100 METAR MROC 080100Z 11014G24KT 9999 FEW030 22/11 A2999 NOSIG=
201802080200 METAR MROC 080200Z 09014G24KT CAVOK 22/13 A3000 NOSIG=
201802080300 METAR MROC 080300Z 09018G30KT 9999 FEW045 21/13 A3002 NOSIG=
201802080400 METAR MROC 080400Z 10018KT CAVOK 22/11 A3002 NOSIG=
201802080500 METAR MROC 080500Z 11016G27KT CAVOK 21/13 A3001 NOSIG=
201802080600 METAR MROC 080600Z 11017G27KT CAVOK 21/13 A3001 NOSIG=
201802080700 METAR MROC 080700Z 11017G27KT 080V140 CAVOK 20/14 A2998 NOSIG=
201802080800 METAR MROC 080800Z 11016KT CAVOK 20/14 A2996 NOSIG=
201802080900 METAR MROC 080900Z 11015KT CAVOK 20/15 A2995 NOSIG=
201802081000 METAR MROC 081000Z 10019KT CAVOK 20/14 A2995 NOSIG=
201802081100 METAR MROC 081100Z 10016G27KT CAVOK 20/14 A2996 NOSIG=
201802081200 METAR MROC 081200Z 11018KT CAVOK 20/13 A2998 NOSIG=
201802081300 METAR MROC 081300Z 09017KT 9999 FEW035 21/13 A2999 NOSIG=
201802081400 METAR MROC 081400Z 09015KT 9999 FEW045 24/13 A3003 NOSIG=
201802081500 METAR MROC 081500Z 10018G29KT 9999 FEW045 24/14 A3003 NOSIG=
201802081600 METAR MROC 081600Z 09019G32KT CAVOK 26/14 A3004 NOSIG=
201802081700 METAR MROC 081700Z 08021G35KT 9999 FEW040 27/12 A3003 NOSIG=
201802081800 METAR MROC 081800Z 08020G30KT 050V110 CAVOK 27/11 A3000 NOSIG=
201802081900 METAR MROC 081900Z 07022G32KT 9999 FEW040 28/14 A2996 NOSIG=
201802082000 METAR MROC 082000Z 09022G32KT 9999 FEW040 26/16 A2994 NOSIG=
201802082100 METAR MROC 082100Z 08020G31KT 9999 FEW040 26/16 A2994 NOSIG=
201802082200 METAR MROC 082200Z 07023G34KT 050V110 9999 FEW040 SCT250 26/14 A2991 NOSIG=
201802082300 METAR MROC 082300Z 08022G32KT 9999 FEW040 24/14 A2992 NOSIG=
201802090000 METAR MROC 090000Z 10016G30KT 9999 FEW035 22/14 A2994 NOSIG=
201802090100 METAR MROC 090100Z 10016G26KT 9999 FEW030 22/12 A2995 NOSIG=
201802090200 METAR MROC 090200Z 10016KT 9999 FEW030 21/13 A2996 NOSIG=
201802090300 METAR MROC 090300Z 10017G29KT CAVOK 20/14 A2999 NOSIG=
201802090400 METAR MROC 090400Z 11017KT CAVOK 20/14 A2999 NOSIG=
201802090500 METAR MROC 090500Z 10018G28KT CAVOK 21/13 A2999 NOSIG=
201802090600 METAR MROC 090600Z 10018G29KT CAVOK 21/11 A2998 NOSIG=
201802090700 METAR MROC 090700Z 10016KT CAVOK 20/11 A2996 NOSIG=
201802090800 METAR MROC 090800Z 10016KT CAVOK 20/12 A2992 NOSIG=
201802090900 METAR MROC 090900Z 10019KT CAVOK 21/13 A2992 NOSIG=
201802091000 METAR MROC 091000Z 11013KT CAVOK 19/13 A2993 NOSIG=
201802091100 METAR MROC 091100Z 09015KT CAVOK 20/13 A2995 NOSIG=
201802091200 METAR MROC 091200Z 10015G25KT 9999 FEW045 19/14 A2997 NOSIG=
201802091300 METAR MROC 091300Z 10017G27KT 9999 FEW040 20/14 A3000 NOSIG=
201802091400 METAR MROC 091400Z 10018KT 9999 FEW045 22/13 A3000 NOSIG=
201802091500 METAR MROC 091500Z 09017G28KT CAVOK 25/14 A3001 NOSIG=
201802091600 METAR MROC 091600Z 09019G30KT CAVOK 27/11 A3000 NOSIG=
201802091700 METAR MROC 091700Z 08018G28KT 040V100 CAVOK 27/13 A2998 NOSIG=
201802091800 METAR MROC 091800Z 08013KT 050V120 CAVOK 28/13 A2995 NOSIG=
201802091900 METAR MROC 091900Z 06017G27KT CAVOK 29/14 A2993 NOSIG=
201802092000 METAR MROC 092000Z 07015G25KT 040V100 9999 FEW045 29/13 A2992 NOSIG=
201802092100 METAR MROC 092100Z 10012KT 9999 FEW045 28/14 A2990 NOSIG=
201802092200 METAR MROC 092200Z 09011KT 050V110 9999 FEW040 27/14 A2989 NOSIG=
201802092300 METAR MROC 092300Z 07012KT 040V100 9999 FEW040 26/15 A2991 NOSIG=
201802100000 METAR MROC 100000Z 07013KT 9999 FEW040 24/15 A2993 NOSIG=
201802100100 METAR MROC 100100Z 08010KT CAVOK 23/14 A2995 NOSIG=
201802100200 METAR MROC 100200Z 11007KT 080V150 22/15 A2998 NOSIG=
201802100300 METAR MROC 100300Z 12005KT CAVOK 21/15 A3000 NOSIG=
201802100400 METAR MROC 100400Z 11007KT 080V140 9999 FEW035 21/15 A3001 NOSIG=
201802100500 METAR MROC 100500Z 11009KT 080V140 CAVOK 21/15 A3001 NOSIG=
201802100600 METAR MROC 100600Z 09012KT CAVOK 21/15 A2999 NOSIG=
201802100700 METAR MROC 100700Z 10013KT CAVOK 21/16 A2996 NOSIG=
201802100800 METAR MROC 100800Z 08013KT 9999 FEW030 BKN070 21/16 A2995 NOSIG=
201802100900 METAR MROC 100900Z 08012KT 9999 BKN040 21/15 A2995 NOSIG=
201802101000 METAR MROC 101000Z 10014KT 9999 FEW040 BKN080 21/14 A2994 NOSIG=
201802101100 METAR MROC 101100Z 10014KT 9999 FEW040 BKN080 21/15 A2996 NOSIG=
201802101200 METAR MROC 101200Z 09016KT 9999 FEW025 SCT120 BKN250 21/15 A2997 NOSIG=
201802101300 METAR MROC 101300Z 11014KT 070V130 9999 FEW030 21/15 A3000 NOSIG=
201802101400 METAR MROC 101400Z 11018G29KT 9999 FEW030 23/16 A3000 NOSIG=
201802101500 METAR MROC 101500Z 09014KT 9999 FEW030 SCT100 24/16 A3003 NOSIG=
201802101600 METAR MROC 101600Z 10017KT 9999 SCT035 SCT100 25/16 A3003 NOSIG=
201802101700 METAR MROC 101700Z 10017KT 9999 FEW035 SCT100 25/16 A3001 NOSIG=
201802101800 METAR MROC 101800Z 09015KT 9999 FEW035 SCT100 26/17 A2999 NOSIG=
201802101900 METAR MROC 101900Z 08016G28KT 9999 FEW030 SCT070 26/15 A2996 NOSIG=
201802102000 METAR MROC 102000Z 10012KT 9999 FEW030 SCT070 26/15 A2993 NOSIG=
201802102100 METAR MROC 102100Z 10015KT 9999 FEW040 SCT070 26/15 A2992 NOSIG=
201802102200 METAR MROC 102200Z 10014KT 9999 FEW040 BKN070 24/15 A2994 NOSIG=
201802102300 METAR MROC 102300Z 10017KT 9999 FEW040 BKN100 23/15 A2995 NOSIG=
201802110000 METAR MROC 110000Z 12013G23KT 9999 FEW040 BKN100 22/14 A2996 NOSIG=
201802110100 METAR MROC 110100Z 11015KT 9999 FEW040 SCT100 22/15 A2999 NOSIG=
201802110200 METAR MROC 110200Z 11014KT CAVOK 21/15 A3001 NOSIG=
201802110300 METAR MROC 110300Z 11015G25KT CAVOK 21/16 A3002 NOSIG=
201802110400 METAR MROC 110400Z 11017KT CAVOK 21/15 A3003 NOSIG=
201802110500 METAR MROC 110500Z 12013KT CAVOK 21/15 A3002 NOSIG=
201802110600 METAR MROC 110600Z 11014KT CAVOK 21/15 A3000 NOSIG=
201802110700 METAR MROC 110700Z 11014KT CAVOK 21/15 A2998 NOSIG=
201802110800 METAR MROC 110800Z 11013KT CAVOK 20/14 A2996 NOSIG=
201802110900 METAR MROC 110900Z 10010KT CAVOK 21/15 A2997 NOSIG=
201802111000 METAR MROC 111000Z 09008KT CAVOK 20/14 A2997 NOSIG=
201802111100 METAR MROC 111100Z 11011KT CAVOK 20/15 A2998 NOSIG=
201802111200 METAR MROC 111200Z 11013KT 9999 FEW045 20/15 A3000 NOSIG=
201802111300 METAR MROC 111300Z 11012KT 090V150 CAVOK 21/15 A3002 NOSIG=
201802111400 METAR MROC 111400Z 10016G26KT 9999 FEW040 24/14 A3003 NOSIG=
201802111500 METAR MROC 111500Z 10017KT 9999 FEW040 25/14 A3004 NOSIG=
201802111600 METAR MROC 111600Z 10017G28KT 9999 FEW040 26/14 A3003 NOSIG=
201802111700 METAR MROC 111700Z 10015G25KT 080V150 9999 FEW040 28/15 A3002 NOSIG=
201802111800 METAR MROC 111800Z 09015KT 060V120 9999 FEW040 28/15 A3000 NOSIG=
201802111900 METAR MROC 111900Z 10014KT 070V130 9999 FEW040 29/15 A2996 NOSIG=
201802112000 METAR MROC 112000Z 10013KT 060V150 9999 FEW040 29/14 A2994 NOSIG=
201802112100 METAR MROC 112100Z 12011KT 080V150 9999 FEW040 28/15 A2992 NOSIG=
201802112200 METAR MROC 112200Z 10014KT 070V140 9999 FEW040 28/16 A2992 NOSIG=
201802112300 METAR MROC 112300Z 10013KT 9999 FEW040 25/15 A2994 NOSIG=
201802120000 METAR MROC 120000Z 10015G25KT 9999 FEW025 22/14 A2997 NOSIG=
201802120100 METAR MROC 120100Z 11014KT 9999 FEW025 22/14 A3000 NOSIG=
201802120200 METAR MROC 120200Z 12015KT 9999 FEW030 21/14 A3001 NOSIG=
201802120300 METAR MROC 120300Z 11016KT CAVOK 21/15 A3003 NOSIG=
201802120400 METAR MROC 120400Z 11015KT CAVOK 21/15 A3003 NOSIG=
201802120500 METAR MROC 120500Z 11015KT CAVOK 21/15 A3003 NOSIG=
201802120600 METAR MROC 120600Z 11013KT 080V140 CAVOK 21/15 A3001 NOSIG=
201802120700 METAR MROC 120700Z 11015KT CAVOK 21/14 A2999 NOSIG=
201802120800 METAR MROC 120800Z 11015G25KT CAVOK 21/14 A2997 NOSIG=
201802120900 METAR MROC 120900Z 10013KT CAVOK 21/15 A2997 NOSIG=
201802121000 METAR MROC 121000Z 09008KT CAVOK 20/14 A2998 NOSIG=
201802121100 METAR MROC 121100Z 03010KT 360V070 CAVOK 20/14 A2999 NOSIG=
201802121200 METAR MROC 121200Z 08009KT 040V110 CAVOK 20/14 A3000 NOSIG=
201802121300 METAR MROC 121300Z 09010KT 050V130 CAVOK 21/14 A3002 NOSIG=
201802121400 METAR MROC 121400Z 11012KT CAVOK 24/14 A3004 NOSIG=
201802121500 METAR MROC 121500Z 12012KT 080V150 CAVOK 26/14 A3004 NOSIG=
201802121600 METAR MROC 121600Z 10017KT 070V140 CAVOK 27/13 A3004 NOSIG=
201802121700 METAR MROC 121700Z 10014KT 070V130 CAVOK 28/13 A3003 NOSIG=
201802121800 METAR MROC 121800Z 10015KT 070V130 9999 FEW045 BKN250 28/13 A3000 NOSIG=
201802121900 METAR MROC 121900Z 10014G24KT 060V140 9999 FEW045 BKN250 29/13 A2997 NOSIG=
201802122000 METAR MROC 122000Z 09014G24KT 9999 FEW040 SCT140 BKN250 29/14 A2995 NOSIG=
201802122100 METAR MROC 122100Z 08014KT 9999 FEW045 SCT200 28/15 A2994 NOSIG=
201802122200 METAR MROC 122200Z 07015KT 9999 FEW040 BKN130 26/12 A2994 NOSIG=
201802122300 METAR MROC 122300Z 08020G31KT 9999 FEW030 SCT200 BKN230 24/15 A2996 NOSIG=
201802130000 METAR MROC 130000Z 10019G32KT 9999 FEW030 22/14 A2997 NOSIG=
201802130100 METAR MROC 130100Z 10020KT CAVOK 22/15 A3000 NOSIG=
201802130200 METAR MROC 130200Z 10015G25KT 9999 FEW030 22/15 A3003 NOSIG=
201802130300 METAR MROC 130300Z 10017G28KT 9999 FEW030 21/16 A3003 NOSIG=
201802130400 METAR MROC 130400Z 11014KT CAVOK 21/16 A3005 NOSIG=
201802130500 METAR MROC 130500Z 11020G31KT CAVOK 21/15 A3003 NOSIG=
201802130600 METAR MROC 130600Z 11017G27KT CAVOK 21/15 A3001 NOSIG=
201802130700 METAR MROC 130700Z 09018G30KT CAVOK 22/14 A2998 NOSIG=
201802130800 METAR MROC 130800Z 08017G32KT 9999 FEW040 22/13 A2999 NOSIG=
201802130900 METAR MROC 130900Z 08021G32KT 9999 FEW040 22/12 A2997 NOSIG=
201802131000 METAR MROC 131000Z 09021G31KT 9999 FEW040 21/13 A2999 NOSIG=
201802131100 METAR MROC 131100Z 08015G25KT 9999 FEW040 21/11 A3002 NOSIG=
201802131200 METAR MROC 131200Z 08012KT 040V110 9999 FEW040 21/12 A3004 NOSIG=
201802131300 METAR MROC 131300Z 08021G31KT CAVOK 21/14 A3006 NOSIG=
201802131400 METAR MROC 131400Z 08020KT 9999 FEW040 22/13 A3009 NOSIG=
201802131500 METAR MROC 131500Z 11014KT 9999 FEW045 SCT150 24/13 A3012 NOSIG=
201802131600 METAR MROC 131600Z 09017G27KT 060V120 9999 BKN035 24/13 A3012 NOSIG=
201802131700 METAR MROC 131700Z 10015KT 060V120 9999 BKN045 25/13 A3011 NOSIG=
201802131800 METAR MROC 131800Z 07019G29KT CAVOK 25/11 A3007 NOSIG=
201802131900 METAR MROC 131900Z 06019KT CAVOK 28/11 A3004 NOSIG=
201802132000 METAR MROC 132000Z 06023KT CAVOK 27/12 A3001 NOSIG=
201802132100 METAR MROC 132100Z 08015G27KT 050V110 CAVOK 26/14 A3000 NOSIG=
201802132200 METAR MROC 132200Z 07022G33KT CAVOK 26/14 A2999 NOSIG=
201802132300 METAR MROC 132300Z 07021G32KT 9999 FEW040 24/13 A2999 NOSIG=
201802132354 METAR MROC 140000Z 08017G27KT 9999 FEW040 22/13 A3000 NOSIG=
201802140000 METAR MROC 140000Z 08017G27KT 9999 FEW040 22/13 A3000 NOSIG=
201802140100 METAR MROC 140100Z 07020G30KT CAVOK 21/11 A3002 NOSIG=
201802140200 METAR MROC 140200Z 07018G28KT CAVOK 21/09 A3004 NOSIG=
201802140300 METAR MROC 140300Z 07024G34KT CAVOK 22/09 A3006 NOSIG=
201802140400 METAR MROC 140400Z 08022G33KT CAVOK 21/09 A3005 NOSIG=
201802140500 METAR MROC 140500Z 10016KT CAVOK 20/10 A3005 NOSIG=
201802140600 METAR MROC 140600Z 09020G30KT CAVOK 20/11 A3002 WS R07 NOSIG=
201802140700 METAR MROC 140700Z 07021G31KT CAVOK 21/11 A3000 WS R07 NOSIG=
201802140800 METAR MROC 140800Z 08021G31KT CAVOK 21/11 A2999 WS R07 NOSIG=
201802140900 METAR MROC 140900Z 09015G25KT CAVOK 19/12 A2999 WS R07 NOSIG=
201802141000 METAR MROC 141000Z 10020KT CAVOK 20/11 A3000 NOSIG=
201802141100 METAR MROC 141100Z 10021G31KT CAVOK 20/10 A3000 NOSIG=
201802141200 METAR MROC 141200Z 09016G26KT CAVOK 20/08 A3001 NOSIG=
201802141300 METAR MROC 141300Z 09017G27KT CAVOK 22/08 A3003 NOSIG=
201802141400 METAR MROC 141400Z 10020G30KT CAVOK 24/09 A3004 NOSIG=
201802141500 METAR MROC 141500Z 09020G31KT CAVOK 26/12 A3006 NOSIG=
201802141600 METAR MROC 141600Z 10017G27KT CAVOK 26/12 A3005 NOSIG=
201802141700 METAR MROC 141700Z 08021G31KT CAVOK 27/12 A3005 NOSIG=
201802141800 METAR MROC 141800Z 08021G31KT 9999 FEW040 27/12 A3003 NOSIG=
201802141900 METAR MROC 141900Z 09020G31KT 9999 FEW040 26/14 A3002 NOSIG=
201802142000 METAR MROC 142000Z 09020G30KT 060V120 9999 FEW040 27/14 A2999 NOSIG=
201802142100 METAR MROC 142100Z 09022KT 9999 FEW040 26/12 A2998 NOSIG=
201802142200 METAR MROC 142200Z 09021G32KT CAVOK 25/12 A2998 NOSIG=
201802142300 METAR MROC 142300Z 09024G34KT CAVOK 23/13 A2998 NOSIG=
201802150000 METAR MROC 150000Z 08021KT CAVOK 22/12 A3000 NOSIG=
201802150100 METAR MROC 150100Z 09019G29KT CAVOK 21/12 A3001 NOSIG=
201802150200 METAR MROC 150200Z 08017KT CAVOK 21/12 A3003 NOSIG=
201802150300 METAR MROC 150300Z 10018G28KT CAVOK 21/13 A3005 NOSIG=
201802150400 METAR MROC 150400Z 09017KT CAVOK 21/12 A3006 NOSIG=
201802150500 METAR MROC 150500Z 09016G26KT CAVOK 20/13 A3005 NOSIG=
201802150600 METAR MROC 150600Z 09016G26KT CAVOK 20/11 A3004 NOSIG=
201802150700 METAR MROC 150700Z 09019G32KT CAVOK 20/11 A3002 NOSIG=
201802150800 METAR MROC 150800Z 10018G28KT CAVOK 21/12 A3000 NOSIG=
201802150900 METAR MROC 150900Z 10014KT CAVOK 20/11 A2999 NOSIG=
201802151000 METAR MROC 151000Z 10017KT CAVOK 20/12 A2998 NOSIG=
201802151100 METAR MROC 151100Z 09016KT CAVOK 20/12 A2999 NOSIG=
201802151200 METAR MROC 151200Z 10020G31KT CAVOK 21/12 A2999 NOSIG=
201802151300 METAR MROC 151300Z 10018KT CAVOK 21/13 A3001 NOSIG=
201802151400 METAR MROC 151400Z 11021G31KT CAVOK 23/13 A3003 NOSIG=
201802151500 METAR MROC 151500Z 10019G30KT CAVOK 25/14 A3005 NOSIG=
201802151600 METAR MROC 151600Z 10020KT CAVOK 27/14 A3004 NOSIG=
201802151700 METAR MROC 151700Z 09020G32KT CAVOK 27/14 A3004 NOSIG=
201802151800 METAR MROC 151800Z 09021G31KT CAVOK 27/15 A3002 NOSIG=
201802151900 METAR MROC 151900Z 09018KT 9999 FEW040 27/15 A3000 NOSIG=
201802152000 METAR MROC 152000Z 09019KT 9999 FEW040 28/15 A2998 NOSIG=
201802152100 METAR MROC 152100Z 08021G32KT 9999 FEW040 25/15 A2996 NOSIG=
201802152200 METAR MROC 152200Z 08018KT 9999 FEW040 25/15 A2996 NOSIG=
201802152300 METAR MROC 152300Z 10021G32KT 9999 FEW040 24/15 A2996 NOSIG=
201802160000 METAR MROC 160000Z 10018KT 9999 FEW040 22/15 A2997 NOSIG=
201802160100 METAR MROC 160100Z 09019G30KT 9999 FEW030 22/15 A2999 NOSIG=
201802160200 METAR MROC 160200Z 10018KT 9999 FEW030 21/15 A3002 NOSIG=
201802160300 METAR MROC 160300Z 10016KT 9999 FEW030 21/15 A3003 NOSIG=
201802160400 METAR MROC 160400Z 09016G28KT 9999 FEW030 21/14 A3004 NOSIG=
201802160500 METAR MROC 160500Z 10014KT CAVOK 21/14 A3003 NOSIG=
201802160600 METAR MROC 160600Z 10019G29KT CAVOK 21/15 A3001 NOSIG=
201802160700 METAR MROC 160700Z 10015KT CAVOK 20/15 A3000 NOSIG=
201802160800 METAR MROC 160800Z 09013KT CAVOK 21/14 A2998 NOSIG=
201802160900 METAR MROC 160900Z 10010G20KT CAVOK 21/14 A2996 NOSIG=
201802161000 METAR MROC 161000Z 11013G23KT CAVOK 21/15 A2997 NOSIG=
201802161100 METAR MROC 161100Z 11015G25KT 9999 FEW035 21/15 A2999 NOSIG=
201802161200 METAR MROC 161200Z 11013G23KT 9999 FEW035 20/14 A3001 NOSIG=
201802161300 METAR MROC 161300Z 10017G30KT 9999 FEW030 21/15 A3003 NOSIG=
201802161400 METAR MROC 161400Z 11015KT 9999 FEW030 23/16 A3005 NOSIG=
201802161500 METAR MROC 161500Z COR 10018KT 9999 FEW030 25/16 A3006 NOSIG=
201802161600 METAR MROC 161600Z 08020G30KT 9999 FEW030 25/15 A3007 NOSIG=
201802161700 METAR MROC 161700Z 08018G29KT 060V130 9999 FEW030 27/16 A3005 NOSIG=
201802161800 METAR MROC 161800Z 10018KT 9999 FEW030 26/15 A3002 NOSIG=
201802161900 METAR MROC 161900Z 10019G29KT 070V130 9999 SCT030 27/16 A2998 NOSIG=
201802162000 METAR MROC 162000Z 10017G28KT 9999 SCT030 26/16 A2996 NOSIG=
201802162100 METAR MROC 162100Z 11016G26KT 080V140 9999 FEW030 SCT070 26/16 A2995 NOSIG=
201802162200 METAR MROC 162200Z 10019G29KT 9999 FEW025 SCT070 24/15 A2996 NOSIG=
201802162300 METAR MROC 162300Z 09018G31KT 9999 FEW025 23/15 A2997 NOSIG=
201802170000 METAR MROC 170000Z 12015KT 9999 FEW030 21/15 A2998 NOSIG=
201802170100 METAR MROC 170100Z 11018G28KT 9999 FEW030 21/15 A3001 NOSIG=
201802170200 METAR MROC 170200Z 10014KT 9999 FEW040 21/14 A3002 NOSIG=
201802170300 METAR MROC 170300Z 11017G27KT 9999 FEW040 20/15 A3002 NOSIG=
201802170400 METAR MROC 170400Z 11019G29KT CAVOK 21/15 A3003 NOSIG=
201802170500 METAR MROC 170500Z 10018G28KT CAVOK 21/15 A3003 NOSIG=
201802170600 METAR MROC 170600Z 10019KT CAVOK 21/16 A3001 NOSIG=
201802170700 METAR MROC 170700Z 11016KT CAVOK 21/16 A2999 NOSIG=
201802170800 METAR MROC 170800Z 11016KT CAVOK 21/16 A2997 NOSIG=
201802170900 METAR MROC 170900Z 11017KT CAVOK 21/15 A2997 NOSIG=
201802171000 METAR MROC 171000Z 11015KT CAVOK 21/16 A2998 NOSIG=
201802171100 METAR MROC 171100Z 11014KT CAVOK 21/16 A2999 NOSIG=
201802171200 METAR MROC 171200Z 11017G29KT 9999 FEW035 20/16 A3001 NOSIG=
201802171300 METAR MROC 171300Z 11019G29KT 9999 FEW030 SCT250 21/16 A3003 NOSIG=
201802171400 METAR MROC 171400Z 11017G28KT 9999 FEW035 SCT250 23/15 A3005 NOSIG=
201802171500 METAR MROC 171500Z 10018KT 9999 FEW035 SCT250 25/16 A3006 NOSIG=
201802171600 METAR MROC 171600Z 08018KT 9999 FEW035 SCT250 26/15 A3006 NOSIG=
201802171700 METAR MROC 171700Z 10018KT 070V130 9999 FEW020 SCT200 26/16 A3005 NOSIG=
201802171800 METAR MROC 171800Z 11019KT 9999 FEW020 SCT060 BKN200 25/16 A3004 NOSIG=
201802171900 METAR MROC 171900Z 09018G30KT 9999 FEW020 BKN200 26/16 A3001 NOSIG=
201802172000 METAR MROC 172000Z 10016KT 9999 FEW025 BKN180 27/16 A3000 NOSIG=
201802172100 METAR MROC 172100Z 11016G28KT 090V150 9999 FEW035 BKN120 26/16 A2998 NOSIG=
201802172200 METAR MROC 172200Z 11015G27KT 080V140 9999 FEW035 BKN130 24/16 A2998 NOSIG=
201802172300 METAR MROC 172300Z 11012KT 080V140 9999 FEW030 BKN200 23/15 A3000 NOSIG=
201802180000 METAR MROC 180000Z 11017G28KT 9999 FEW030 BKN150 21/15 A3002 NOSIG=
201802180100 METAR MROC 180100Z 11015KT 9999 FEW030 BKN150 21/15 A3002 NOSIG=
201802180200 METAR MROC 180200Z 11018G29KT 9999 FEW030 21/15 A3003 NOSIG=
201802180300 METAR MROC 180300Z 09011G21KT 050V130 9999 FEW030 21/15 A3005 NOSIG=
201802180400 METAR MROC 180400Z 10014KT 9999 FEW030 SCT120 20/14 A3005 NOSIG=
201802180500 METAR MROC 180500Z 11015G26KT 9999 FEW030 SCT120 20/14 A3005 NOSIG=
201802180600 METAR MROC 180600Z 10014KT 9999 FEW030 20/13 A3003 NOSIG=
201802180700 METAR MROC 180700Z 12015KT 9999 FEW030 20/14 A3000 NOSIG=
201802180800 METAR MROC 180800Z 11015G25KT 9999 FEW030 19/13 A2999 NOSIG=
201802180900 METAR MROC 180900Z 11012G22KT 9999 FEW030 19/12 A2999 NOSIG=
201802181000 METAR MROC 181000Z 10012KT 9999 FEW035 20/12 A2999 NOSIG=
201802181100 METAR MROC 181100Z 11015KT 9999 FEW035 20/13 A3000 NOSIG=
201802181200 METAR MROC 181200Z 11014G24KT 9999 FEW030 20/13 A3001 NOSIG=
201802181300 METAR MROC 181300Z 11016G28KT 9999 FEW040 21/13 A3003 NOSIG=
201802181400 METAR MROC 181400Z 11018G28KT 090V150 CAVOK 22/13 A3004 NOSIG=
201802181500 METAR MROC 181500Z 12017G31KT CAVOK 24/13 A3004 NOSIG=
201802181600 METAR MROC 181600Z 11017G29KT CAVOK 26/14 A3004 NOSIG=
201802181700 METAR MROC 181700Z 11019KT CAVOK 27/14 A3003 NOSIG=
201802181800 METAR MROC 181800Z 10017KT 070V130 9999 FEW035 28/15 A3000 NOSIG=
201802181900 METAR MROC 181900Z 10015G25KT 070V130 9999 FEW030 28/16 A2997 NOSIG=
201802182000 METAR MROC 182000Z 11015G25KT 9999 FEW045 27/16 A2996 NOSIG=
201802182100 METAR MROC 182100Z 10011G21KT 070V130 9999 FEW030 SCT250 27/15 A2995 NOSIG=
201802182200 METAR MROC 182200Z 10017G27KT 9999 FEW030 SCT250 25/14 A2996 NOSIG=
201802182300 METAR MROC 182300Z 10014G24KT 9999 FEW030 24/13 A2997 NOSIG=
201802190000 METAR MROC 190000Z 11013G23KT 9999 FEW035 22/14 A2998 NOSIG=
201802190100 METAR MROC 190100Z 11015G25KT 9999 FEW035 21/14 A2999 NOSIG=
201802190200 METAR MROC 190200Z 11016G26KT CAVOK 20/13 A3001 NOSIG=
201802190300 METAR MROC 190300Z 10019G30KT CAVOK 21/12 A3001 NOSIG=
201802190400 METAR MROC 190400Z 11020G32KT CAVOK 20/13 A3001 NOSIG=
201802190500 METAR MROC 190500Z 11016G26KT CAVOK 20/13 A3001 NOSIG=
201802190600 METAR MROC 190600Z 10018G28KT CAVOK 20/12 A2999 NOSIG=
201802190700 METAR MROC 190700Z 12017KT CAVOK 19/12 A2998 NOSIG=
201802190800 METAR MROC 190800Z 12016G26KT CAVOK 20/11 A2997 NOSIG=
201802190900 METAR MROC 190900Z 11015G25KT CAVOK 20/11 A2997 NOSIG=
201802191000 METAR MROC 191000Z 11013KT 080V140 CAVOK 20/11 A2996 NOSIG=
201802191100 METAR MROC 191100Z 11015KT 080V150 CAVOK 20/11 A2997 NOSIG=
201802191200 METAR MROC 191200Z 12011KT CAVOK 20/12 A2999 NOSIG=
201802191300 METAR MROC 191300Z 11010G20KT 080V140 CAVOK 22/13 A3001 NOSIG=
201802191400 METAR MROC 191400Z 10015G25KT 070V130 CAVOK 23/14 A3002 NOSIG=
201802191500 METAR MROC 191500Z 10016G26KT CAVOK 24/14 A3003 NOSIG=
201802191600 METAR MROC 191600Z 10017G27KT 9999 FEW035 26/15 A3003 NOSIG=
201802191700 METAR MROC 191700Z 09020G30KT 9999 FEW035 26/15 A3002 NOSIG=
201802191800 METAR MROC 191800Z 09019G29KT 060V120 9999 FEW040 27/13 A3001 NOSIG=
201802191900 METAR MROC 191900Z 10017G27KT 070V140 9999 FEW045 27/14 A2999 NOSIG=
201802192000 METAR MROC 192000Z 09015G25KT 060V120 CAVOK 28/13 A2997 NOSIG=
201802192100 METAR MROC 192100Z 09013G24KT 060V130 9999 FEW040 28/12 A2995 NOSIG=
201802192200 METAR MROC 192200Z 10017G27KT 9999 FEW040 27/14 A2995 NOSIG=
201802192300 METAR MROC 192300Z 10016KT CAVOK 25/15 A2996 NOSIG=
201802200000 METAR MROC 200000Z 08013KT CAVOK 23/14 A2997 NOSIG=
201802200100 METAR MROC 200100Z 08013KT CAVOK 22/14 A2999 NOSIG=
201802200200 METAR MROC 200200Z 09011KT CAVOK 22/14 A3001 NOSIG=
201802200300 METAR MROC 200300Z 08012KT CAVOK 21/14 A3003 NOSIG=
201802200400 METAR MROC 200400Z 10014G28KT 070V130 CAVOK 21/13 A3003 WS R07 NOSIG=
201802200500 METAR MROC 200500Z 10013G23KT CAVOK 20/14 A3001 WS R07 NOSIG=
201802200600 METAR MROC 200600Z 10014G24KT CAVOK 20/13 A3000 WS R07 NOSIG=
201802200700 METAR MROC 200700Z 10013G24KT CAVOK 20/12 A2999 WS R07 NOSIG=
201802200800 METAR MROC 200800Z 09012KT CAVOK 20/13 A2997 WS R07 NOSIG=
201802200900 METAR MROC 200900Z 11017G27KT 9999 FEW030 19/14 A2997 WS R07 NOSIG=
201802201000 METAR MROC 201000Z 10019G30KT 9999 FEW030 20/13 A2997 WS R07 NOSIG=
201802201100 METAR MROC 201100Z 10016KT CAVOK 19/13 A2998 WS R07 NOSIG=
201802201200 METAR MROC 201200Z 11016G29KT CAVOK 19/13 A3001 WS R07 NOSIG=
201802201300 METAR MROC 201300Z 10017G27KT CAVOK 21/11 A3003 NOSIG=
201802201400 METAR MROC 201400Z 11019KT CAVOK 23/10 A3004 NOSIG=
201802201500 METAR MROC 201500Z 11020KT CAVOK 25/08 A3006 NOSIG=
201802201600 METAR MROC 201600Z 10017KT 080V140 CAVOK 27/19 A3005 NOSIG=
201802201700 METAR MROC 201700Z 09016G26KT CAVOK 27/12 A3005 NOSIG=
201802201800 METAR MROC 201800Z 08018KT 040V110 CAVOK 27/14 A3004 NOSIG=
201802201900 METAR MROC 201900Z 08015KT 060V120 CAVOK 28/14 A3001 NOSIG=
201802202000 METAR MROC 202000Z 09016KT 060V130 CAVOK 27/15 A3000 NOSIG=
201802202100 METAR MROC 202100Z 09016KT 060V120 9999 FEW040 26/15 A2999 NOSIG=
201802202200 METAR MROC 202200Z 09018KT 9999 FEW040 25/13 A2999 NOSIG=
201802202300 METAR MROC 202300Z 08015KT 9999 FEW040 23/14 A3000 NOSIG=
201802210000 METAR MROC 210000Z 09014KT 9999 FEW040 22/14 A3002 NOSIG=
201802210100 METAR MROC 210100Z 11011KT 9999 FEW040 21/14 A3004 NOSIG=
201802210200 METAR MROC 210200Z 12013KT 9999 FEW030 20/15 A3006 NOSIG=
201802210300 METAR MROC 210300Z 11016KT 9999 FEW030 20/15 A3006 NOSIG=
201802210400 METAR MROC 210400Z 10013G23KT CAVOK 20/15 A3007 NOSIG=
201802210500 METAR MROC 210500Z 11015G25KT CAVOK 20/15 A3005 NOSIG=
201802210600 METAR MROC 210600Z 11012G22KT CAVOK 20/15 A3004 NOSIG=
201802210700 METAR MROC 210700Z 11016KT CAVOK 20/15 A3001 NOSIG=
201802210800 METAR MROC 210800Z 11013KT CAVOK 20/14 A3000 NOSIG=
201802210900 METAR MROC 210900Z 11015G25KT CAVOK 20/15 A2999 NOSIG=
201802211000 METAR MROC 211000Z 10014G24KT CAVOK 20/15 A3000 NOSIG=
201802211100 METAR MROC 211100Z 10013G23KT CAVOK 20/14 A3000 NOSIG=
201802211200 METAR MROC 211200Z 11014KT 9999 FEW030 20/14 A3002 NOSIG=
201802211300 METAR MROC 211300Z 11011KT 9999 FEW030 21/14 A3004 NOSIG=
201802211400 METAR MROC 211400Z 11016KT 9999 FEW030 22/15 A3006 NOSIG=
201802211500 METAR MROC 211500Z 10015G25KT 070V130 9999 FEW030 SCT070 24/14 A3007 NOSIG=
201802211600 METAR MROC 211600Z 11015G25KT 9999 FEW020 SCT050 24/16 A3009 NOSIG=
201802211700 METAR MROC 211700Z 11013KT 080V150 9999 FEW020 BKN050 25/15 A3007 NOSIG=
201802211800 METAR MROC 211800Z 09016KT 9999 FEW020 SCT050 26/16 A3005 NOSIG=
201802211900 METAR MROC 211900Z 09012KT 9999 FEW030 BKN070 26/15 A3003 NOSIG=
201802212000 METAR MROC 212000Z 09014KT 060V120 9999 FEW030 BKN070 25/15 A3000 NOSIG=
201802212100 METAR MROC 212100Z 08014KT 050V110 9999 FEW035 SCT070 26/14 A2999 NOSIG=
201802212200 METAR MROC 212200Z 08016KT 9999 FEW030 25/15 A2999 NOSIG=
201802212300 METAR MROC 212300Z 08014KT 9999 FEW035 23/15 A3001 NOSIG=
201802220000 METAR MROC 220000Z 10012KT 9999 FEW025 22/15 A3003 NOSIG=
201802220100 METAR MROC 220100Z 10010KT 060V130 9999 FEW025 SCT060 21/15 A3005 NOSIG=
201802220200 METAR MROC 220200Z 10012KT CAVOK 21/15 A3007 NOSIG=
201802220300 METAR MROC 220300Z 11013KT CAVOK 21/14 A3008 NOSIG=
201802220400 METAR MROC NIL=
201802220500 METAR MROC 220500Z 12010KT CAVOK 20/15 A3008 NOSIG=
201802220600 METAR MROC 220600Z 11010KT CAVOK 20/15 A3007 NOSIG=
201802220700 METAR MROC 220700Z 11013KT CAVOK 20/15 A3004 NOSIG=
201802220800 METAR MROC 220800Z 11009KT 060V140 CAVOK 20/15 A3002 NOSIG=
201802220900 METAR MROC 220900Z 11013KT CAVOK 21/15 A3002 NOSIG=
201802221000 METAR MROC 221000Z 09013G23KT CAVOK 21/13 A3003 NOSIG=
201802221100 METAR MROC 221100Z 10014KT CAVOK 20/14 A3004 NOSIG=
201802221200 METAR MROC 221200Z 10014G24KT 9999 FEW040 20/14 A3004 NOSIG=
201802221300 METAR MROC 221300Z 10013KT 9999 FEW040 21/14 A3007 NOSIG=
201802221400 METAR MROC 221400Z 10015G25KT 9999 FEW045 23/14 A3009 NOSIG=
201802221500 METAR MROC 221500Z 09020KT CAVOK 25/13 A3011 NOSIG=
201802221600 METAR MROC 221600Z 08020G32KT CAVOK 26/13 A3011 NOSIG=
201802221700 METAR MROC 221700Z 08020G32KT 050V110 CAVOK 28/13 A3009 NOSIG=
201802221800 METAR MROC 221800Z 07020G30KT 040V100 9999 FEW045 28/12 A3006 NOSIG=
201802221900 METAR MROC 221900Z 07019KT 9999 FEW045 29/12 A3003 NOSIG=
201802222000 METAR MROC 222000Z 06021KT 9999 FEW040 29/11 A3001 NOSIG=
201802222100 METAR MROC 222100Z 06016G26KT CAVOK 29/13 A2999 NOSIG=
201802222200 METAR MROC 222200Z 07017G27KT 9999 FEW045 27/14 A2998 NOSIG=
201802222300 METAR MROC 222300Z 07018G28KT 9999 FEW045 25/14 A2999 NOSIG=
201802230000 METAR MROC 230000Z 08014KT CAVOK 23/14 A3002 NOSIG=
201802230100 METAR MROC 230100Z 09011KT 9999 FEW030 22/14 A3004 NOSIG=
201802230200 METAR MROC 230200Z 09013KT 9999 FEW035 22/13 A3007 NOSIG=
201802230300 METAR MROC 230300Z 09012KT 9999 FEW035 21/14 A3008 NOSIG=
201802230400 METAR MROC 230400Z 09014KT 9999 FEW030 20/14 A3009 NOSIG=
201802230500 METAR MROC 230500Z 09016KT 9999 FEW030 21/14 A3009 NOSIG=
201802230600 METAR MROC 230600Z 09015KT CAVOK 21/14 A3006 NOSIG=
201802230700 METAR MROC 230700Z 10016G26KT CAVOK 20/14 A3004 NOSIG=
201802230800 METAR MROC 230800Z 10014KT CAVOK 20/14 A3004 NOSIG=
201802230900 METAR MROC 230900Z 10014KT CAVOK 20/14 A3003 NOSIG=
201802231000 METAR MROC 231000Z 10014KT CAVOK 20/14 A3003 NOSIG=
201802231100 METAR MROC 231100Z 10014KT CAVOK 20/14 A3005 NOSIG=
201802231200 METAR MROC 231200Z 10016KT CAVOK 20/14 A3008 NOSIG=
201802231300 METAR MROC 231300Z 10018KT CAVOK 21/13 A3009 NOSIG=
201802231400 METAR MROC 231400Z 10017G27KT CAVOK 23/13 A3011 NOSIG=
201802231500 METAR MROC 231500Z 10018G28KT CAVOK 24/11 A3011 NOSIG=
201802231600 METAR MROC 231600Z 09020KT CAVOK 26/10 A3010 NOSIG=
201802231700 METAR MROC 231700Z 10016G26KT 060V130 CAVOK 27/08 A3009 NOSIG=
201802231800 METAR MROC 231800Z 10015G26KT 060V130 CAVOK 27/10 A3006 NOSIG=
201802231900 METAR MROC 231900Z 09014G24KT 050V210 CAVOK 28/10 A3002 NOSIG=
201802232000 METAR MROC 232000Z 09012KT 060V130 9999 FEW045 28/10 A3000 NOSIG=
201802232100 METAR MROC 232100Z 08014G24KT 060V120 CAVOK 28/09 A2998 NOSIG=
201802232200 METAR MROC 232200Z 09010G20KT 070V130 CAVOK 27/10 A2998 NOSIG=
201802232300 METAR MROC 232300Z 09011KT 9999 FEW040 26/12 A3000 NOSIG=
201802240000 METAR MROC 240000Z 09010G20KT 9999 FEW040 23/13 A3001 NOSIG=
201802240100 METAR MROC 240100Z 08010G20KT 9999 FEW040 22/13 A3004 NOSIG=
201802240200 METAR MROC 240200Z 07014KT CAVOK 22/13 A3006 NOSIG=
201802240300 METAR MROC 240300Z 09011KT CAVOK 21/12 A3006 NOSIG=
201802240400 METAR MROC 240400Z 11012KT CAVOK 20/13 A3008 NOSIG=
201802240500 METAR MROC 240500Z 12012KT 090V160 CAVOK 20/13 A3006 NOSIG=
201802240600 METAR MROC 240600Z 11014KT CAVOK 20/14 A3005 NOSIG=
201802240700 METAR MROC 240700Z 11013KT CAVOK 20/14 A3004 NOSIG=
201802240800 METAR MROC 240800Z 11012KT CAVOK 19/13 A3002 NOSIG=
201802240900 METAR MROC 240900Z 10012KT CAVOK 19/13 A3000 NOSIG=
201802241000 METAR MROC 241000Z 11016KT CAVOK 19/13 A3000 NOSIG=
201802241100 METAR MROC 241100Z 11014KT CAVOK 19/13 A3000 NOSIG=
201802241200 METAR MROC 241200Z 10015KT CAVOK 19/13 A3001 NOSIG=
201802241300 METAR MROC 241300Z 11010G20KT CAVOK 20/13 A3004 NOSIG=
201802241400 METAR MROC 241400Z 12011G21KT CAVOK 23/12 A3006 NOSIG=
201802241500 METAR MROC 241500Z 12012G22KT CAVOK 25/11 A3007 NOSIG=
201802241600 METAR MROC 241600Z 09013G23KT 060V120 CAVOK 26/12 A3007 NOSIG=
201802241700 METAR MROC 241700Z 10010G20KT 080V140 CAVOK 28/12 A3006 NOSIG=
201802241800 METAR MROC 241800Z 09011KT 060V120 9999 FEW045 29/12 A3003 NOSIG=
201802241900 METAR MROC 241900Z 12008KT 060V180 9999 FEW045 29/11 A2999 NOSIG=
201802242000 METAR MROC 242000Z 25013KT 9999 FEW045 SCT080 28/13 A2996 NOSIG=
201802242100 METAR MROC 242100Z 21009KT 9999 -RA SCT030 BKN100 19/17 A2996 NOSIG=
201802242200 METAR MROC 242200Z 31007KT 270V330 9999 SCT025 BKN100 19/16 A3001 NOSIG=
201802242300 METAR MROC 242300Z 17004KT 140V200 9999 SCT030 BKN100 19/17 A3002 NOSIG=
201802250000 METAR MROC 250000Z 05006KT CAVOK 20/16 A3002 NOSIG=
201802250100 METAR MROC 250100Z 08006KT 050V110 CAVOK 20/15 A3004 NOSIG=
201802250200 METAR MROC 250200Z 10008KT CAVOK 20/14 A3007 NOSIG=
201802250300 METAR MROC 250300Z 11010KT CAVOK 20/15 A3008 NOSIG=
201802250400 METAR MROC 250400Z 10008KT 080V140 CAVOK 20/14 A3008 NOSIG=
201802250500 METAR MROC 250500Z 10010KT 070V130 CAVOK 20/14 A3008 NOSIG=
201802250600 METAR MROC 250600Z 11011KT CAVOK 20/14 A3007 NOSIG=
201802250700 METAR MROC 250700Z 11012KT CAVOK 20/14 A3005 NOSIG=
201802250800 METAR MROC 250800Z 08005KT CAVOK 19/14 A3002 NOSIG=
201802250900 METAR MROC 250900Z 09008KT CAVOK 19/14 A3001 NOSIG=
201802251000 METAR MROC 251000Z 09008KT CAVOK 19/14 A3002 NOSIG=
201802251100 METAR MROC 251100Z 07009KT 040V100 CAVOK 19/14 A3004 NOSIG=
201802251200 METAR MROC 251200Z 10012KT CAVOK 19/14 A3005 NOSIG=
201802251300 METAR MROC 251300Z 11012KT CAVOK 20/14 A3007 NOSIG=
201802251400 METAR MROC 251400Z 11011KT 080V150 CAVOK 23/14 A3008 NOSIG=
201802251500 METAR MROC 251500Z 11015KT 080V140 CAVOK 24/14 A3009 NOSIG=
201802251600 METAR MROC 251600Z 11015KT CAVOK 26/14 A3009 NOSIG=
201802251700 METAR MROC 251700Z 10013KT 070V130 CAVOK 27/14 A3007 NOSIG=
201802251800 METAR MROC 251800Z 11013KT 070V150 9999 FEW045 28/15 A3005 NOSIG=
201802251900 METAR MROC 251900Z 10011KT 060V130 9999 FEW045 28/14 A3001 NOSIG=
201802252000 METAR MROC 252000Z 10013KT 070V150 VCTS SCT030CB 27/14 A2997 NOSIG=
201802252100 METAR MROC 252100Z 25004KT 210V230 VCSH FEW030 OVC100 19/17 A3000 NOSIG=
201802252200 METAR MROC 252200Z 35005KT 320V050 -RA FEW030 OVC100 20/17 A3002 NOSIG=
201802252300 METAR MROC 252300Z 08005KT 9999 FEW030 BKN100 21/18 A3002 NOSIG=
201802260000 METAR MROC 260000Z 10007KT 070V130 9999 FEW030 SCT120 21/16 A3003 NOSIG=
201802260100 METAR MROC 260100Z 09006KT 060V130 9999 FEW030 20/15 A3005 NOSIG=
201802260200 METAR MROC 260200Z 11014KT 9999 FEW030 20/15 A3007 NOSIG=
201802260300 METAR MROC 260300Z 11010KT 080V140 9999 FEW030 20/15 A3008 NOSIG=
201802260400 METAR MROC 260400Z 11013G23KT CAVOK 20/14 A3008 NOSIG=
201802260500 METAR MROC 260500Z 11013G23KT CAVOK 20/14 A3006 NOSIG=
201802260600 METAR MROC 260600Z 08006KT 040V110 CAVOK 19/14 A3007 NOSIG=
201802260700 METAR MROC 260700Z 09010G20KT 060V120 CAVOK 19/15 A3005 NOSIG=
201802260800 METAR MROC 260800Z 11012G22KT CAVOK 19/14 A3003 NOSIG=
201802260900 METAR MROC 260900Z 11010G20KT CAVOK 19/14 A3002 NOSIG=
201802261000 METAR MROC 261000Z 07006KT CAVOK 19/14 A3002 NOSIG=
201802261100 METAR MROC 261100Z 07007KT 020V110 CAVOK 19/14 A3004 NOSIG=
201802261200 METAR COR MROC 261200Z 11012KT 9999 FEW035 19/14 A3006 NOSIG=
201802261300 METAR MROC 261300Z 11014KT 9999 FEW030 20/14 A3008 NOSIG=
201802261400 METAR MROC 261400Z 11014KT 9999 FEW030 22/15 A3009 NOSIG=
201802261500 METAR MROC 261500Z 11013G24KT 080V140 9999 FEW030 24/14 A3010 NOSIG=
201802261600 METAR MROC 261600Z 11013KT 070V130 9999 FEW030 25/15 A3010 NOSIG=
201802261700 METAR MROC 261700Z 11013KT 060V140 9999 FEW030 26/15 A3008 NOSIG=
201802261800 METAR MROC 261800Z VRB12KT 9999 SCT030 27/14 A3006 NOSIG=
201802261900 METAR MROC 261900Z 11014KT 080V140 9999 SCT030 27/15 A3003 NOSIG=
201802262000 METAR MROC 262000Z 11009KT 070V160 9999 SCT030 28/14 A3000 NOSIG=
201802262100 METAR MROC 262100Z COR 12010KT 080V160 9999 FEW025TCU FEW030 28/15 A2999 BECMG 19006KT=
201802262200 METAR MROC 262200Z 12011KT 080V150 9999 FEW025TCU SCT130 25/15 A3000 NOSIG=
201802262300 METAR MROC 262300Z 11010KT 070V150 9999 FEW025 24/15 A3001 NOSIG=
201802270000 METAR MROC 270000Z 11013KT 080V140 9999 FEW030 21/15 A3003 NOSIG=
201802270100 METAR MROC 270100Z 10012KT 9999 FEW030 21/15 A3005 NOSIG=
201802270200 METAR MROC 270200Z 10014KT CAVOK 21/15 A3007 NOSIG=
201802270300 METAR MROC 270300Z 10012KT CAVOK 20/14 A3008 NOSIG=
201802270400 METAR MROC 270400Z 00912KT CAVOK 20/13 A3008 NOSIG=
201802270500 METAR MROC 270500Z 10008KT CAVOK 20/14 A3008 NOSIG=
201802270600 METAR MROC 270600Z 08005KT 040V120 CAVOK 19/14 A3007 NOSIG=
201802270700 METAR MROC 270700Z 09006KT 040V140 CAVOK 20/14 A3005 NOSIG=
201802270800 METAR MROC 270800Z 11011KT 080V140 CAVOK 19/15 A3004 NOSIG=
201802270900 METAR MROC 270900Z 11009KT CAVOK 19/15 A3002 NOSIG=
201802271000 METAR MROC 271000Z 11009KT CAVOK 20/15 A3002 NOSIG=
201802271100 METAR MROC 271100Z 11011KT 080V140 CAVOK 19/15 A3003 NOSIG=
201802271200 METAR MROC 271200Z 10011KT 070V150 9999 FEW030 19/13 A3005 NOSIG=
201802271300 METAR MROC 271300Z 09010KT 060V120 9999 FEW030 20/13 A3008 NOSIG=
201802271400 METAR MROC 271400Z 09016G26KT 9999 FEW030 22/12 A3008 NOSIG=
201802271500 METAR MROC 271500Z 11016G26KT 080V140 9999 FEW045 24/13 A3010 NOSIG=
201802271600 METAR MROC 271600Z 10022G32KT 9999 FEW040 24/13 A3010 NOSIG=
201802271700 METAR MROC 271700Z 10016G26KT 070V130 9999 FEW040 26/14 A3008 NOSIG=
201802271800 METAR MROC 271800Z 09014G24KT 060V120 9999 SCT040 27/13 A3007 NOSIG=
201802271900 METAR MROC 271900Z 09017KT 060V120 9999 FEW045 26/13 A3004 NOSIG=
201802272000 METAR MROC 272000Z 09016KT 070V130 9999 FEW040 SCT200 27/12 A3001 NOSIG=
201802272100 METAR MROC 272100Z 09016KT 9999 FEW045 SCT300 26/13 A2999 NOSIG=
201802272200 METAR MROC 272200Z 09015G25KT 060V120 9999 FEW035 SCT300 25/14 A3000 NOSIG=
201802272300 METAR MROC 272300Z 10012KT 9999 FEW045 24/14 A3000 NOSIG=
201802280000 METAR MROC 280000Z 11011KT 9999 FEW035 22/13 A3002 NOSIG=
201802280100 METAR MROC 280100Z 11014G25KT 080V140 9999 FEW030 21/14 A3004 NOSIG=
201802280200 METAR MROC 280200Z 11014G24KT 9999 FEW030 20/14 A3006 NOSIG=
201802280300 METAR MROC 280300Z 11011KT 9999 FEW030 20/13 A3007 NOSIG=
201802280400 METAR MROC 280400Z 09018KT 9999 FEW030 19/13 A3007 NOSIG=
201802280500 METAR MROC 280500Z 11012KT CAVOK 20/13 A3007 NOSIG=
201802280600 METAR MROC 280600Z 11014KT CAVOK 19/13 A3005 NOSIG=
201802280700 METAR MROC 280700Z 12014KT CAVOK 19/13 A3003 NOSIG=
201802280800 METAR MROC 280800Z 11014KT CAVOK 19/13 A3001 NOSIG=
201802280900 METAR MROC 280900Z 11014KT CAVOK 19/13 A2999 NOSIG=
201802281000 METAR MROC 281000Z 11014KT CAVOK 18/12 A2999 NOSIG=
201802281100 METAR MROC 281100Z 11014KT CAVOK 18/12 A3000 NOSIG=
201802281200 METAR MROC 281200Z 11013KT CAVOK 18/12 A3001 NOSIG=
201802281300 METAR MROC 281300Z 12013G23KT CAVOK 19/11 A3003 NOSIG=
201802281400 METAR MROC 281400Z 12012KT CAVOK 22/11 A3006 NOSIG=
201802281500 METAR MROC 281500Z 11016G28KT 080V140 CAVOK 24/11 A3007 NOSIG=
201802281600 METAR MROC 281600Z 11016KT 9999 FEW030 26/10 A3007 NOSIG=
201802281700 METAR MROC 281700Z 10013KT CAVOK 27/11 A3005 NOSIG=
201802281800 METAR MROC 281800Z 10014G24KT 050V140 CAVOK 27/11 A3003 NOSIG=
201802281900 METAR MROC 281900Z 10013G25KT 060V150 CAVOK 27/11 A3000 NOSIG=
201802282000 METAR MROC 282000Z 09013G23KT 060V140 CAVOK 28/11 A2998 NOSIG=
201802282100 METAR MROC 282100Z 10014G24KT CAVOK 28/12 A2998 NOSIG=
201802282200 METAR MROC 282200Z 11015G25KT 060V130 CAVOK 26/12 A2998 NOSIG=
201802282300 METAR MROC 282300Z 11012G22KT 9999 FEW040 24/14 A2999 NOSIG=
201803010000 METAR MROC 010000Z 11010G20KT 9999 FEW040 22/14 A3000 NOSIG=
201803010100 METAR MROC 010100Z 11016KT 080V140 9999 FEW040 21/15 A3002 NOSIG=
201803010200 METAR MROC 010200Z 11016KT 9999 FEW040 21/15 A3003 NOSIG=
201803010300 METAR MROC 010300Z 10010G20KT 9999 FEW040 20/13 A3005 NOSIG=
201803010400 METAR MROC 010400Z 10012KT 9999 FEW040 20/13 A3006 NOSIG=
201803010500 METAR MROC 010500Z 10012KT CAVOK 20/12 A3005 NOSIG=
201803010600 METAR MROC 010600Z 11011KT CAVOK 19/13 A3003 NOSIG=
201803010700 METAR MROC 010700Z 09009KT CAVOK 19/12 A3002 NOSIG=
201803010800 METAR MROC 010800Z 09009KT CAVOK 19/12 A3000 NOSIG=
201803010900 METAR MROC 010900Z 09009KT CAVOK 18/12 A2999 NOSIG=
201803011000 METAR MROC 011000Z 10012KT CAVOK 18/12 A2999 NOSIG=
201803011100 METAR MROC 011100Z 10012KT CAVOK 18/11 A3000 NOSIG=
201803011200 METAR MROC 011200Z 10013KT CAVOK 18/11 A3002 NOSIG=
201803011300 METAR MROC 011300Z 11010G20KT CAVOK 20/11 A3003 NOSIG=
201803011400 METAR MROC 011400Z 11011G21KT 090V150 CAVOK 22/11 A3005 NOSIG=
201803011500 METAR MROC 011500Z 11013G23KT 070V140 CAVOK 25/10 A3006 NOSIG=
201803011600 METAR MROC 011600Z 12010G20KT 090V150 CAVOK 26/09 A3006 NOSIG=
201803011700 METAR MROC 011700Z 11010G20KT 070V170 CAVOK 28/10 A3004 NOSIG=
201803011800 METAR MROC 011800Z 09010G20KT 010V130 CAVOK 29/08 A3001 BECMG 24007KT=
201803011900 METAR MROC 011900Z 09007KT 360V130 CAVOK 29/08 A2999 BECMG 24007KT=
201803012000 METAR MROC 012000Z 24010G20KT 210V270 9999 FEW040 28/16 A2996 NOSIG=
201803012100 METAR MROC 012100Z 25010KT 210V280 9999 SCT040 27/15 A2995 NOSIG=
201803012200 METAR MROC 012200Z 24008KT 210V270 9999 SCT040 27/15 A2995 NOSIG=
201803012300 METAR MROC 012300Z 19010KT 160V230 9999 SCT035 26/15 A2997 NOSIG=
201803020000 METAR MROC 020000Z 12006KT 080V150 9999 FEW035 23/15 A2998 NOSIG=
201803020100 METAR MROC 020100Z 11011KT 9999 FEW030 22/15 A3001 NOSIG=
201803020200 METAR MROC 020200Z 11011KT CAVOK 21/13 A3003 NOSIG=
201803020300 METAR MROC 020300Z 11011KT CAVOK 20/13 A3005 NOSIG=
201803020400 METAR MROC 020400Z 10007KT 060V120 CAVOK 20/11 A3006 NOSIG=
201803020500 METAR MROC 020500Z 11010KT 080V140 CAVOK 21/11 A3005 NOSIG=
201803020600 METAR MROC 020600Z 11011KT CAVOK 20/10 A3004 NOSIG=
201803020700 METAR MROC 020700Z 11012KT CAVOK 20/10 A3003 NOSIG=
201803020800 METAR MROC 020800Z 11012KT CAVOK 19/11 A3002 NOSIG=
201803020900 METAR MROC 020900Z 11011KT CAVOK 19/11 A3001 NOSIG=
201803021000 METAR MROC 021000Z 11009KT 080V140 CAVOK 19/11 A3001 NOSIG=
201803021100 METAR MROC 021100Z 12012KT CAVOK 19/12 A3003 NOSIG=
201803021200 METAR MROC 021200Z 11010KT 090V150 CAVOK 19/13 A3004 NOSIG=
201803021300 METAR MROC 021300Z 11012KT 080V140 CAVOK 20/13 A3005 NOSIG=
201803021400 METAR MROC 021400Z 11015G25KT CAVOK 22/13 A3006 NOSIG=
201803021500 METAR MROC 021500Z 11016KT CAVOK 24/13 A3007 NOSIG=
201803021600 METAR MROC 021600Z 09014KT 060V130 CAVOK 26/13 A3006 NOSIG=
201803021700 METAR MROC 021700Z 07016KT 9999 FEW045 27/12 A3004 NOSIG=
201803021800 METAR MROC 021800Z 09015KT 9999 FEW040 27/13 A3003 NOSIG=
201803021900 METAR MROC 021900Z 10012G22KT 070V130 9999 FEW040 27/12 A3001 NOSIG=
201803022000 METAR MROC 022000Z 08013KT 040V120 9999 FEW040 28/11 A2997 NOSIG=
201803022100 METAR MROC 022100Z 07013KT 030V110 9999 FEW040 27/10 A2995 NOSIG=
201803022200 METAR MROC 022200Z 08011G24KT 050V130 9999 FEW040 27/11 A2995 NOSIG=
201803022300 METAR MROC 022300Z 07014KT 9999 FEW040 25/11 A2996 NOSIG=
201803030000 METAR MROC 030000Z 09008KT 9999 FEW040 23/12 A2998 NOSIG=
201803030100 METAR MROC 030100Z 11010KT CAVOK 21/14 A3000 NOSIG=
201803030200 METAR MROC 030200Z 09014KT CAVOK 21/13 A3002 NOSIG=
201803030300 METAR MROC 030300Z 09011KT CAVOK 20/13 A3004 NOSIG=
201803030400 METAR MROC 030400Z 08014G24KT CAVOK 21/13 A3005 NOSIG=
201803030500 METAR MROC 030500Z 10010G20KT CAVOK 20/12 A3004 NOSIG=
201803030600 METAR MROC 030600Z 11010KT CAVOK 19/12 A3002 NOSIG=
201803030700 METAR MROC 030700Z 10010KT CAVOK 19/13 A3000 NOSIG=
201803030800 METAR MROC 030800Z 11012KT CAVOK 20/14 A2998 NOSIG=
201803030900 METAR MROC 030900Z 08010KT 040V130 CAVOK 19/14 A2999 NOSIG=
201803031000 METAR MROC 031000Z 11013G23KT CAVOK 19/13 A2999 NOSIG=
201803031100 METAR MROC 031100Z 11013G23KT 9999 FEW035 19/14 A2999 NOSIG=
201803031200 METAR MROC 031200Z 11014G24KT 9999 FEW040 19/13 A3000 NOSIG=
201803031300 METAR MROC 031300Z 11014G24KT 9999 FEW040 20/13 A3002 NOSIG=
201803031400 METAR MROC 031400Z 11015G25KT 090V150 9999 FEW040 22/13 A3004 NOSIG=
201803031500 METAR MROC 031500Z 10018G28KT 070V130 CAVOK 24/11 A3006 NOSIG=
201803031600 METAR MROC 031600Z 09020G30KT CAVOK 25/10 A3005 NOSIG=
201803031700 METAR MROC 031700Z 09016KT 9999 FEW040 27/11 A3004 NOSIG=
201803031800 METAR MROC 031800Z 09015KT 060V120 9999 FEW040 27/12 A3002 NOSIG=
201803031900 METAR MROC 031900Z 09015G26KT 060V130 9999 FEW040 27/13 A2999 NOSIG=
201803032000 METAR MROC 032000Z 09013KT 060V120 9999 FEW040 28/13 A2997 NOSIG=
201803032100 METAR MROC 032100Z 09015KT 060V130 9999 FEW040 27/13 A2996 NOSIG=
201803032200 METAR MROC 032200Z 10016KT 9999 FEW035 25/13 A2996 NOSIG=
201803032300 METAR MROC 032300Z 11013G23KT 9999 FEW040 24/10 A2995 NOSIG=
201803040000 METAR MROC 040000Z 11016G27KT 9999 FEW040 22/08 A2996 NOSIG=
201803040100 METAR MROC 040100Z 11015KT CAVOK 21/12 A2999 NOSIG=
201803040200 METAR MROC 040200Z 11014G24KT CAVOK 21/11 A3001 NOSIG=
201803040300 METAR MROC 040300Z 10014KT CAVOK 21/10 A3001 NOSIG=
201803040400 METAR MROC 040400Z 10014KT 070V130 CAVOK 20/12 A3002 NOSIG=
201803040500 METAR MROC 040500Z 11016KT CAVOK 21/09 A3001 NOSIG=
201803040600 METAR MROC 040600Z 11016KT CAVOK 20/10 A2998 NOSIG=
201803040700 METAR MROC 040700Z 11016G29KT CAVOK 20/10 A2996 NOSIG=
201803040800 METAR MROC 040800Z 11012KT CAVOK 20/11 A2995 NOSIG=
201803040900 METAR MROC 040900Z 08007KT 050V110 CAVOK 19/11 A2996 NOSIG=
201803041000 METAR MROC 041000Z 07010KT 040V110 CAVOK 19/11 A2996 NOSIG=
201803041100 METAR MROC 041100Z 09022KT 040V120 CAVOK 19/11 A2998 NOSIG=
201803041200 METAR MROC 041200Z 11013KT CAVOK 19/11 A2998 NOSIG=
201803041300 METAR MROC 041300Z 11014G24KT CAVOK 20/11 A3001 NOSIG=
201803041400 METAR MROC 041400Z 12014KT CAVOK 23/10 A3003 NOSIG=
201803041500 METAR MROC 041500Z 11014G24KT 070V150 CAVOK 25/11 A3003 NOSIG=
201803041600 METAR MROC 041600Z 09018G28KT CAVOK 27/10 A3003 NOSIG=
201803041700 METAR MROC 041700Z 10014KT CAVOK 28/11 A3001 NOSIG=
201803041800 METAR MROC 041800Z 10016KT CAVOK 28/11 A2998 NOSIG=
201803041900 METAR MROC 041900Z 10012KT 060V140 CAVOK 29/13 A2996 NOSIG=
201803042000 METAR MROC 042000Z 09014KT 050V120 9999 FEW040 28/13 A2995 NOSIG=
201803042100 METAR MROC 042100Z 10013KT 050V130 CAVOK 28/13 A2993 NOSIG=
201803042200 METAR MROC 042200Z 10011KT 060V130 CAVOK 28/13 A2993 NOSIG=
201803042300 METAR MROC 042300Z 10010KT 060V120 CAVOK 26/13 A2994 NOSIG=
201803050000 METAR MROC 050000Z 12011KT 090V150 CAVOK 23/14 A2996 NOSIG=
201803050100 METAR MROC 050100Z 08009KT 9999 FEW020 22/14 A2998 NOSIG=
201803050200 METAR MROC 050200Z 09013KT 9999 FEW025 22/15 A3000 NOSIG=
201803050300 METAR MROC 050300Z 11012KT 9999 FEW030 21/15 A3001 NOSIG=
201803050400 METAR MROC 050400Z 08019KT 9999 FEW030 21/13 A3000 NOSIG=
201803050500 METAR MROC 050500Z 09017KT CAVOK 20/14 A3000 NOSIG=
201803050600 METAR MROC 050600Z 11014KT CAVOK 20/14 A2998 NOSIG=
201803050700 METAR MROC 050700Z 11013G25KT CAVOK 20/13 A2996 NOSIG=
201803050800 METAR MROC 050800Z 11011KT CAVOK 19/13 A2994 NOSIG=
201803050900 METAR MROC 050900Z 08012KT CAVOK 19/14 A2994 NOSIG=
201803051000 METAR MROC 051000Z 07006KT 050V110 CAVOK 19/13 A2995 NOSIG=
201803051100 METAR MROC 051100Z 08006KT CAVOK 19/13 A2995 NOSIG=
201803051200 METAR MROC 051200Z 07007KT 030V120 CAVOK 19/13 A2997 NOSIG=
201803051300 METAR MROC 051300Z 11011G23KT 070V140 CAVOK 20/13 A2998 NOSIG=
201803051400 METAR MROC 051400Z 11017G27KT CAVOK 21/13 A2999 NOSIG=
201803051500 METAR MROC 051500Z 11016G28KT CAVOK 24/13 A3001 NOSIG=
201803051600 METAR MROC 051600Z 10015G25KT 060V130 CAVOK 25/13 A3001 NOSIG=
201803051700 METAR MROC 051700Z 09016KT 070V150 CAVOK 26/13 A3000 NOSIG=
201803051800 METAR MROC 051800Z 10014G24KT 070V140 CAVOK 27/14 A2998 NOSIG=
201803051900 METAR MROC 051900Z 09015G25KT 060V130 9999 FEW045 27/14 A2995 NOSIG=
201803052000 METAR MROC 052000Z 09015G26KT 060V130 9999 FEW045 27/13 A2993 NOSIG=
201803052100 METAR MROC 052100Z 10011G21KT 070V130 9999 FEW045 27/14 A2991 NOSIG=
201803052200 METAR MROC 052200Z 11011G21KT 070V130 9999 FEW045 27/13 A2990 NOSIG=
201803052300 METAR MROC 052300Z 10013G23KT 9999 FEW040 26/13 A2991 NOSIG=
201803060000 METAR MROC 060000Z 09013KT 060V120 9999 FEW035 23/13 A2993 NOSIG=
201803060100 METAR MROC 060100Z 11010KT 080V150 9999 FEW035 22/13 A2995 NOSIG=
201803060200 METAR MROC 060200Z 09012KT 070V130 9999 FEW035 21/14 A2998 NOSIG=
201803060300 METAR MROC 060300Z 10008KT 9999 FEW035 20/15 A3000 NOSIG=
201803060400 METAR MROC 060400Z 07006KT 9999 FEW035 20/14 A3002 NOSIG=
201803060500 METAR MROC 060500Z 10005KT 070V170 CAVOK 20/15 A3001 NOSIG=
201803060600 METAR MROC 060600Z 08009KT CAVOK 19/15 A2999 NOSIG=
201803060700 METAR MROC 060700Z 05009KT 030V090 CAVOK 19/14 A2997 NOSIG=
201803060800 METAR MROC 060800Z 05007KT 010V100 CAVOK 19/15 A2995 NOSIG=
201803060900 METAR MROC 060900Z 09012KT 050V110 CAVOK 19/15 A2995 NOSIG=
201803061000 METAR MROC 061000Z 08008KT 050V110 9999 FEW040 19/14 A2996 NOSIG=
201803061100 METAR MROC 061100Z 08012KT CAVOK 19/14 A2997 NOSIG=
201803061200 METAR MROC 061200Z 07010KT 040V100 CAVOK 19/14 A2999 NOSIG=
201803061300 METAR MROC 061300Z 09010G21KT 090V110 CAVOK 20/14 A3001 NOSIG=
201803061400 METAR MROC 061400Z 10011G21KT 060V120 CAVOK 21/14 A3002 NOSIG=
201803061500 METAR MROC 061500Z 09013G23KT 9999 FEW035 23/13 A3003 NOSIG=
201803061600 METAR MROC 061600Z 10014KT 070V130 9999 FEW035 25/14 A3003 NOSIG=
201803061700 METAR MROC 061700Z 10010G20KT 070V130 CAVOK 26/14 A3001 NOSIG=
201803061800 METAR MROC 061800Z 09013KT 070V130 CAVOK 27/14 A2998 NOSIG=
201803061900 METAR MROC 061900Z 10011G21KT 070V130 CAVOK 28/14 A2995 NOSIG=
201803062000 METAR MROC 062000Z 11014G25KT 9999 FEW045 27/13 A2992 NOSIG=
201803062100 METAR MROC 062100Z 10013G23KT 070V130 9999 FEW040 27/13 A2991 NOSIG=
201803062200 METAR MROC 062200Z 10014KT 070V140 9999 SCT035 25/14 A2990 NOSIG=
201803062300 METAR MROC 062300Z 10015KT 9999 BKN035 24/15 A2992 NOSIG=
201803070000 METAR MROC 070000Z 10012KT 9999 BKN045 22/15 A2993 NOSIG=
201803070100 METAR MROC 070100Z 09012KT 9999 SCT045 21/15 A2996 NOSIG=
201803070200 METAR MROC 070200Z 09010KT 9999 SCT045 20/15 A2997 NOSIG=
201803070300 METAR MROC 070300Z 09010KT CAVOK 19/15 A2998 NOSIG=
201803070400 METAR MROC 070400Z 10006KT 040V140 CAVOK 19/15 A2999 NOSIG=
201803070500 METAR MROC 070500Z 07013KT CAVOK 19/14 A2999 NOSIG=
201803070600 METAR MROC 070600Z 06012KT CAVOK 19/13 A2997 NOSIG=
201803070700 METAR MROC 070700Z 07012KT CAVOK 18/13 A2995 NOSIG=
201803070800 METAR MROC 070800Z 07010KT CAVOK 18/13 A2994 NOSIG=
201803070900 METAR MROC 070900Z 07013KT CAVOK 18/12 A2994 NOSIG=
201803071000 METAR MROC 071000Z 06008KT 020V090 CAVOK 17/13 A2995 NOSIG=
201803071100 METAR MROC 071100Z 09013KT CAVOK 18/12 A2997 NOSIG=
201803071200 METAR MROC 071200Z 07007KT 020V100 CAVOK 18/12 A3000 NOSIG=
201803071300 METAR MROC 071300Z 11013KT CAVOK 20/13 A3001 NOSIG=
201803071400 METAR MROC 071400Z 10010G20KT 070V130 CAVOK 22/13 A3003 NOSIG=
201803071500 METAR MROC 071500Z 11015G25KT CAVOK 25/12 A3003 NOSIG=
201803071600 METAR MROC 071600Z 11017KT CAVOK 27/12 A3002 NOSIG=
201803071700 METAR MROC 071700Z 10017KT 070V130 CAVOK 28/13 A3001 NOSIG=
201803071800 METAR MROC 071800Z 10012KT CAVOK 28/14 A2998 NOSIG=
201803071900 METAR MROC 071900Z 10013KT 070V130 9999 FEW045 29/14 A2995 NOSIG=
201803072000 METAR MROC 072000Z 10013G23KT 060V130 9999 FEW045 28/15 A2993 NOSIG=
201803072100 METAR MROC 072100Z 10013G23KT 080V140 9999 FEW045 28/15 A2992 NOSIG=
201803072200 METAR MROC 072200Z 10014KT 060V130 CAVOK 27/15 A2991 NOSIG=
201803072300 METAR MROC 072300Z 10016KT 9999 FEW040 25/15 A2992 NOSIG=
201803080000 METAR MROC 080000Z 11014KT 080V140 9999 FEW040 21/15 A2993 NOSIG=
201803080100 METAR MROC 080100Z 10012KT CAVOK 21/16 A2997 NOSIG=
201803080200 METAR MROC 080200Z 10009KT 070V130 CAVOK 20/15 A2998 NOSIG=
201803080300 METAR MROC 080300Z 10014KT CAVOK 21/14 A3000 NOSIG=
201803080400 METAR MROC 080400Z 09010G20KT CAVOK 20/13 A3000 NOSIG=
201803080500 METAR MROC 080500Z 09012KT 050V120 CAVOK 20/13 A3000 NOSIG=
201803080600 METAR MROC 080600Z 08010G20KT 050V130 CAVOK 20/13 A3000 NOSIG=
201803080700 METAR MROC 080700Z 09008KT 060V120 CAVOK 19/14 A2998 NOSIG=
201803080800 METAR MROC 080800Z 11014KT 070V140 CAVOK 20/13 A2996 NOSIG=
201803080900 METAR MROC 080900Z 10015G25KT CAVOK 19/13 A2996 NOSIG=
201803081000 METAR MROC 081000Z 11013G23KT 080V150 CAVOK 19/13 A2997 NOSIG=
201803081100 METAR MROC 081100Z 10010G20KT CAVOK 20/13 A2998 NOSIG=
201803081200 METAR MROC 081200Z 09013KT CAVOK 20/13 A3000 NOSIG=
201803081300 METAR MROC 081300Z 10013KT CAVOK 22/13 A3002 NOSIG=
201803081400 METAR MROC 081400Z 11016KT CAVOK 24/13 A3002 NOSIG=
201803081500 METAR MROC 081500Z 09016KT 060V140 CAVOK 26/13 A3003 NOSIG=
201803081600 METAR MROC 081600Z 10016KT CAVOK 27/14 A3003 NOSIG=
201803081700 METAR MROC 081700Z 11018G28KT CAVOK 28/15 A3000 NOSIG=
201803081800 METAR MROC 081800Z 11017G27KT 090V150 9999 FEW045 29/16 A2998 NOSIG=
201803081900 METAR MROC 081900Z 10021G34KT 070V130 9999 FEW045 27/16 A2995 NOSIG=
201803082000 METAR MROC 082000Z 09021G32KT 9999 FEW040 28/16 A2994 NOSIG=
201803082100 METAR MROC 082100Z 09020G31KT CAVOK 27/14 A2992 NOSIG=
201803082200 METAR MROC 082200Z 09017G27KT CAVOK 27/14 A2993 NOSIG=
201803082300 METAR MROC 082300Z 09018KT 9999 FEW030 SCT150 25/16 A2994 NOSIG=
201803090000 METAR MROC 090000Z 10017KT 9999 FEW025 BKN150 23/17 A2995 NOSIG=
201803090100 METAR MROC 090100Z 11018G28KT 9999 FEW030 SCT150 22/17 A2996 NOSIG=
201803090200 METAR MROC 090200Z 11021G31KT 9999 FEW030 22/17 A2998 NOSIG=
201803090300 METAR MROC 090300Z 11015G25KT 9999 FEW025 22/17 A2999 NOSIG=
201803090400 METAR MROC 090400Z 11017KT CAVOK 22/17 A2999 NOSIG=
201803090500 METAR MROC 090500Z 11018G28KT CAVOK 22/17 A2998 NOSIG=
201803090600 METAR MROC 090600Z 11020G31KT CAVOK 22/17 A2996 NOSIG=
201803090700 METAR MROC 090700Z 11017KT CAVOK 22/17 A2994 NOSIG=
201803090800 METAR MROC 090800Z 10018KT CAVOK 22/17 A2993 NOSIG=
201803090900 METAR MROC 090900Z 11016G26KT CAVOK 22/17 A2993 NOSIG=
201803091000 METAR MROC 091000Z 11014KT CAVOK 21/17 A2994 NOSIG=
201803091100 METAR MROC 091100Z 11016KT CAVOK 22/17 A2994 NOSIG=
201803091200 METAR MROC 091200Z 11012KT CAVOK 22/17 A2997 NOSIG=
201803091300 METAR MROC 091300Z 10012KT 060V130 9999 FEW045 23/17 A2999 NOSIG=
201803091400 METAR MROC 091400Z 11015G25KT 070V140 9999 FEW035 24/17 A3000 NOSIG=
201803091500 METAR MROC 091500Z 11015G25KT 080V140 9999 FEW035 26/18 A3002 NOSIG=
201803091600 METAR MROC 091600Z 10018G28KT 9999 FEW035 28/18 A3001 NOSIG=
201803091700 METAR MROC 091700Z 11019G29KT 090V150 9999 FEW035 SCT070 28/17 A2999 NOSIG=
201803091800 METAR MROC 091800Z 10017KT 9999 FEW035 29/17 A2997 NOSIG=
201803091900 METAR MROC 091900Z 11017KT 9999 FEW035 SCT150 29/17 A2994 NOSIG=
201803092000 METAR MROC 092000Z 11018G28KT 090V150 9999 FEW035 28/17 A2991 NOSIG=
201803092100 METAR MROC 092100Z 09017G27KT 9999 FEW040 29/17 A2989 NOSIG=
201803092200 METAR MROC 092200Z COR 11016G26KT 060V140 9999 FEW035 27/17 A2989 NOSIG=
201803092300 METAR MROC 092300Z 11013G24KT 090V190 9999 FEW035 26/17 A2989 NOSIG=
201803100000 METAR MROC 100000Z 11016G26KT 080V150 9999 FEW035 23/17 A2992 NOSIG=
201803100100 METAR MROC 100100Z 11012G22KT 9999 FEW030 23/17 A2994 NOSIG=
201803100200 METAR MROC 100200Z 11018G28KT 9999 FEW030 22/17 A2995 NOSIG=
201803100300 METAR MROC 100300Z 11020G32KT 9999 FEW030 23/17 A2995 NOSIG=
201803100400 METAR MROC 100400Z 10020G30KT 9999 FEW030 23/17 A2996 NOSIG=
201803100500 METAR MROC 100500Z 10020G30KT 9999 FEW030 23/17 A2995 NOSIG=
201803100600 METAR MROC 100600Z 11018KT 9999 FEW030 22/18 A2994 NOSIG=
201803100700 METAR MROC 100700Z 11016KT 070V130 9999 FEW030 22/18 A2992 NOSIG=
201803100800 METAR MROC 100800Z 10018G28KT 9999 FEW030 22/18 A2990 NOSIG=
201803100900 METAR MROC 100900Z 10019KT 9999 FEW030 22/17 A2989 NOSIG=
201803101000 METAR MROC 101000Z 10015KT 9999 FEW030 21/17 A2991 NOSIG=
201803101100 METAR MROC 101100Z 10017KT 9999 FEW030 22/16 A2992 NOSIG=
201803101200 METAR MROC 101200Z 09019KT 9999 FEW030 22/16 A2994 NOSIG=
201803101300 METAR MROC 101300Z 08017G32KT 9999 FEW045 24/16 A2996 NOSIG=
201803101400 METAR MROC 101400Z 09019G29KT 9999 FEW035 24/16 A2998 NOSIG=
201803101500 METAR MROC 101500Z 10022G33KT 9999 FEW045 25/16 A2998 NOSIG=
201803101600 METAR MROC 101600Z 10020G30KT 9999 FEW045 27/16 A2999 NOSIG=
201803101700 METAR MROC 101700Z 09017G27KT CAVOK 28/17 A2996 NOSIG=
201803101800 METAR MROC 101800Z 11016G26KT 9999 FEW040 29/18 A2993 NOSIG=
201803101900 METAR MROC 101900Z 10015G25KT 9999 FEW040 30/18 A2990 NOSIG=
201803102000 METAR MROC 102000Z 12013KT 090V160 9999 FEW040 30/18 A2987 NOSIG=
201803102100 METAR MROC 102100Z 10014KT 060V150 9999 FEW035 29/17 A2986 NOSIG=
201803102200 METAR MROC 102200Z 09015KT 9999 FEW035 28/17 A2986 NOSIG=
201803102300 METAR MROC 102300Z 11013G23KT 9999 FEW035 27/17 A2986 NOSIG=
201803110000 METAR MROC 110000Z 12010G20KT 9999 FEW035 24/18 A2988 NOSIG=
201803110100 METAR MROC 110100Z 10010G20KT 9999 FEW035 24/18 A2991 NOSIG=
201803110200 METAR MROC 110200Z 11013KT 080V140 9999 FEW035 22/18 A2993 NOSIG=
201803110300 METAR MROC 110300Z 11014KT 9999 FEW035 22/18 A2994 NOSIG=
201803110400 METAR MROC 110400Z 11010KT 070V140 9999 FEW035 23/18 A2995 NOSIG=
201803110500 METAR MROC 110500Z 09007KT 050V120 9999 FEW035 23/17 A2993 NOSIG=
201803110600 METAR MROC 110600Z 10012G24KT 070V130 9999 FEW035 22/16 A2991 NOSIG=
201803110700 METAR MROC 110700Z 08008KT 030V130 9999 FEW035 22/16 A2989 NOSIG=
201803110800 METAR MROC 110800Z 10010G20KT 070V130 9999 FEW035 22/16 A2988 NOSIG=
201803110900 METAR MROC 110900Z 08010KT 040V110 9999 FEW035 22/17 A2989 NOSIG=
201803111000 METAR MROC 111000Z 06008KT 010V100 9999 FEW035 21/16 A2989 NOSIG=
201803111100 METAR MROC 111100Z 08009KT 040V120 9999 FEW035 22/16 A2990 NOSIG=
201803111200 METAR MROC 111200Z 07008KT 050V120 CAVOK 21/16 A2992 NOSIG=
201803111300 METAR MROC 111300Z 07012KT CAVOK 23/16 A2994 NOSIG=
201803111400 METAR MROC 111400Z 10010G20KT 060V150 CAVOK 25/16 A2997 NOSIG=
201803111500 METAR MROC 111500Z 11009KT 070V150 CAVOK 27/16 A2998 NOSIG=
201803111600 METAR MROC 111600Z COR 12008KT 060V190 CAVOK 29/15 A2997 BECMG 24007KT=
201803111700 METAR MROC 111700Z 23008KT 180V290 CAVOK 30/17 A2994 NOSIG=
201803111800 METAR MROC 111800Z 23012KT 170V280 CAVOK 30/17 A2992 NOSIG=
201803111900 METAR MROC 111900Z 22012KT 9999 FEW045 30/18 A2990 NOSIG=
201803112000 METAR MROC 112000Z 26015KT 230V300 9999 SCT040 29/19 A2989 NOSIG=
201803112100 METAR MROC 112100Z 25011KT 210V300 9999 FEW030 SCT045 29/19 A2987 NOSIG=
201803112200 METAR MROC 112200Z 25011KT 220V290 9999 FEW035 28/19 A2988 NOSIG=
201803112300 METAR MROC 112300Z 26009KT 9999 SCT035 27/19 A2990 NOSIG=
201803120000 METAR MROC 120000Z 20005KT 170V230 9999 SCT035 26/19 A2992 NOSIG=
201803120100 METAR MROC 120100Z 20007KT 200V260 9999 SCT035 24/19 A2994 NOSIG=
201803120200 METAR MROC 120200Z 32003KT 280V350 9999 FEW035 23/20 A2996 NOSIG=
201803120300 METAR MROC 120300Z 09006KT 9999 FEW035 23/18 A2998 NOSIG=
201803120400 METAR MROC 120400Z 09006KT 060V120 9999 FEW025 22/17 A2998 NOSIG=
201803120500 METAR MROC 120500Z 10005KT 9999 FEW030 21/16 A2997 NOSIG=
201803120600 METAR MROC 120600Z 10006KT 090V120 9999 FEW020 21/17 A2995 NOSIG=
201803120700 METAR MROC 120700Z 10009KT CAVOK 21/16 A2992 NOSIG=
201803120800 METAR MROC 120800Z 05008KT CAVOK 21/16 A2991 NOSIG=
201803120900 METAR MROC 120900Z 09006KT CAVOK 20/15 A2991 NOSIG=
201803121000 METAR MROC 121000Z 08009KT CAVOK 21/16 A2992 NOSIG=
201803121100 METAR MROC 121100Z 08007KT CAVOK 20/16 A2993 NOSIG=
201803121200 METAR MROC 121200Z 08008KT CAVOK 20/15 A2994 NOSIG=
201803121300 METAR MROC 121300Z 08009KT CAVOK 22/16 A2996 NOSIG=
201803121400 METAR MROC 121400Z 07009KT 050V110 CAVOK 24/16 A2999 NOSIG=
201803121500 METAR MROC 121500Z 11005KT 070V150 CAVOK 27/15 A3000 NOSIG=
201803121600 METAR MROC 121600Z VRB03KT CAVOK 28/15 A3000 BECMG 24007KT=
201803121619 METAR MROC 121619Z 26006KT 210V290 CAVOK 28/16 A2999 NOSIG=
201803121700 METAR MROC 121700Z 24006KT 200V290 CAVOK 28/16 A2997 NOSIG=
201803121800 METAR MROC 121800Z 27007KT 220V330 CAVOK 30/17 A2995 NOSIG=
201803121900 METAR MROC 121900Z 26009KT 200V320 9999 FEW040 30/18 A2992 NOSIG=
201803122000 METAR MROC 122000Z 25010KT 220V300 9999 SCT040 30/18 A2990 NOSIG=
201803122100 METAR MROC 122100Z 24011KT 200V270 9999 SCT040 BKN250 29/20 A2988 NOSIG=
201803122200 METAR MROC 122200Z 27011KT 230V290 9999 SCT030 BKN250 28/19 A2989 NOSIG=
201803122300 METAR MROC 122300Z 25008KT 9999 SCT030 BKN250 27/19 A2991 NOSIG=
201803130000 METAR MROC 130000Z 24005KT 9999 SCT040 BKN250 25/19 A2994 NOSIG=
201803130100 METAR MROC 130100Z VRB03KT 9999 SCT040 BKN200 24/19 A2996 NOSIG=
201803130200 METAR MROC 130200Z 24004KT 210V290 9999 SCT040 SCT200 23/19 A2998 NOSIG=
201803130300 METAR MROC 130300Z 09004KT CAVOK 23/19 A3000 NOSIG=
201803130400 METAR MROC 130400Z 10004KT CAVOK 22/18 A3000 NOSIG=
201803130500 METAR MROC 130500Z 10004KT 9999 FEW035 21/18 A3000 NOSIG=
201803130600 METAR MROC 130600Z 11007KT 070V160 9999 FEW035 21/17 A2999 NOSIG=
201803130700 METAR MROC 130700Z 08007KT CAVOK 21/16 A2997 NOSIG=
201803130800 METAR MROC 130800Z 08004KT 050V120 CAVOK 21/16 A2994 NOSIG=
201803130900 METAR MROC 130900Z 03007KT 9999 FEW035 21/16 A2995 NOSIG=
201803131000 METAR MROC 131000Z 06008KT 9999 FEW035 20/17 A2996 NOSIG=
201803131100 METAR MROC 131100Z 05004KT 030V090 9999 FEW035 20/15 A2999 NOSIG=
201803131200 METAR MROC 131200Z 09005KT 9999 FEW035 SCT250 21/16 A3002 NOSIG=
201803131300 METAR MROC 131300Z 11010KT 9999 FEW030 22/17 A3002 NOSIG=
201803131400 METAR MROC 131400Z 12011KT 070V160 9999 FEW030 24/17 A3002 NOSIG=
201803131500 METAR MROC 131500Z 09013KT 060V130 9999 FEW030 27/16 A3003 NOSIG=
201803131600 METAR MROC 131600Z 10014KT 070V140 9999 FEW030 27/16 A3003 NOSIG=
201803131700 METAR MROC 131700Z 09014KT 070V130 9999 FEW030 28/16 A3002 NOSIG=
201803131800 METAR MROC 131800Z 11013KT 070V140 9999 FEW030 29/15 A2999 NOSIG=
201803131900 METAR MROC 131900Z 09012KT 060V150 9999 SCT030 30/16 A2997 NOSIG=
201803132000 METAR MROC 132000Z 11012KT 080V150 9999 SCT030 29/17 A2994 NOSIG=
201803132100 METAR MROC 132100Z 12014KT 9999 FEW035 28/16 A2993 NOSIG=
201803132200 METAR MROC 132200Z 11013KT 080V140 9999 FEW035 28/16 A2994 NOSIG=
201803132300 METAR MROC 132300Z 12011KT 090V150 9999 FEW030 SCT200 27/17 A2994 NOSIG=
201803140000 METAR MROC 140000Z 11010KT 080V140 9999 FEW030 25/17 A2995 NOSIG=
201803140100 METAR MROC 140100Z 12011KT 9999 FEW030 23/17 A2998 NOSIG=
201803140200 METAR MROC 140200Z 11009KT 080V140 9999 FEW025 23/17 A3000 NOSIG=
201803140300 METAR MROC 140300Z 11010KT 080V150 9999 FEW030 22/17 A3002 NOSIG=
201803140400 METAR MROC 140400Z 08004KT CAVOK 22/17 A3003 NOSIG=
201803140500 METAR MROC 140500Z VRB07KT CAVOK 23/16 A3003 NOSIG=
201803140600 METAR MROC 140600Z 11010KT 070V140 CAVOK 22/16 A3001 NOSIG=
201803140700 METAR MROC 140700Z 08011KT CAVOK 23/16 A2999 NOSIG=
201803140800 METAR MROC 140800Z 10014KT CAVOK 22/16 A2997 NOSIG=
201803140900 METAR MROC 140900Z 11014KT CAVOK 22/16 A2997 NOSIG=
201803141000 METAR MROC 141000Z 11013KT CAVOK 22/16 A2998 NOSIG=
201803141100 METAR MROC 141100Z 10015KT CAVOK 22/16 A2999 NOSIG=
201803141200 METAR MROC 141200Z 11018KT CAVOK 22/16 A3001 NOSIG=
201803141300 METAR MROC 141300Z 10014KT 070V130 9999 FEW040 23/16 A3004 NOSIG=
201803141400 METAR MROC 141400Z 11014KT 9999 FEW040 SCT250 24/17 A3005 NOSIG=
201803141500 METAR MROC 141500Z 11018KT 9999 FEW035 SCT250 25/16 A3007 NOSIG=
201803141600 METAR MROC 141600Z 10017G28KT 070V130 9999 FEW040 27/16 A3006 NOSIG=
201803141700 METAR MROC 141700Z 11016G26KT 9999 FEW040 BKN200 28/16 A3004 NOSIG=
201803141800 METAR MROC 141800Z 11015G25KT 080V140 9999 FEW030 SCT120 29/17 A3001 NOSIG=
201803141900 METAR MROC 141900Z 09018KT 9999 FEW035 SCT110 28/17 A2999 NOSIG=
201803142000 METAR MROC 142000Z 12012KT 090V150 9999 FEW030 SCT100 BKN200 28/16 A2996 NOSIG=
201803142100 METAR MROC 142100Z 10012KT 9999 BKN030 27/17 A2996 NOSIG=
201803142200 METAR MROC 142200Z 11013KT 9999 BKN035 26/17 A2995 NOSIG=
201803142300 METAR MROC 142300Z 12012KT 090V150 9999 BKN030 24/17 A2998 NOSIG=
201803150000 METAR MROC 150000Z 11009KT 080V150 9999 FEW030 23/16 A3000 NOSIG=
201803150100 METAR MROC 150100Z 11012G22KT CAVOK 22/16 A3001 NOSIG=
201803150200 METAR MROC 150200Z 11011KT 9999 FEW030 21/16 A3004 NOSIG=
201803150300 METAR MROC 150300Z 09011G22KT 050V130 9999 FEW025 SCT140 21/15 A3004 NOSIG=
201803150400 METAR MROC 150400Z 07012KT CAVOK 21/15 A3005 NOSIG=
201803150500 METAR MROC 150500Z 10014KT 070V130 CAVOK 21/16 A3004 NOSIG=
201803150600 METAR MROC 150600Z 10016G26KT 060V130 CAVOK 21/15 A3002 NOSIG=
201803150700 METAR MROC 150700Z 10013KT 070V130 CAVOK 21/15 A2999 NOSIG=
201803150800 METAR MROC 150800Z 10013KT 070V130 CAVOK 21/15 A2999 NOSIG=
201803150900 METAR MROC 150900Z 10013KT CAVOK 21/15 A2999 NOSIG=
201803151000 METAR MROC 151000Z 09013KT CAVOK 20/14 A3000 NOSIG=
201803151100 METAR MROC 151100Z 10015KT CAVOK 20/14 A3001 NOSIG=
201803151200 METAR MROC 151200Z 10014KT CAVOK 21/14 A3001 NOSIG=
201803151300 METAR MROC 151300Z 10016G26KT CAVOK 22/14 A3004 NOSIG=
201803151400 METAR MROC 151400Z 11016G26KT CAVOK 24/14 A3005 NOSIG=
201803151500 METAR MROC 151500Z 10016G26KT 070V130 CAVOK 26/14 A3006 NOSIG=
201803151600 METAR MROC 151600Z 10020G30KT CAVOK 27/15 A3005 NOSIG=
201803151700 METAR MROC 151700Z 10021G31KT CAVOK 27/15 A3003 NOSIG=
201803151800 METAR MROC 151800Z 11020G32KT 080V140 9999 FEW045 28/16 A3001 NOSIG=
201803151900 METAR MROC 151900Z 08021KT CAVOK 28/15 A2999 NOSIG=
201803152000 METAR MROC 152000Z 09017KT CAVOK 28/15 A2997 NOSIG=
201803152100 METAR MROC 152100Z 09013G23KT 9999 FEW040 28/15 A2995 NOSIG=
201803152200 METAR MROC 152200Z 10010G20KT 080V140 9999 FEW035 27/16 A2994 NOSIG=
201803152300 METAR MROC 152300Z 09016KT 050V110 9999 FEW035 25/15 A2996 NOSIG=
201803160000 METAR MROC 160000Z 08015KT 9999 FEW030 24/15 A2997 NOSIG=
201803160100 METAR MROC 160100Z 09013KT 9999 FEW030 23/15 A2999 NOSIG=
201803160200 METAR MROC 160200Z 10014KT 9999 FEW030 23/16 A3001 NOSIG=
201803160300 METAR MROC 160300Z 10010KT 9999 FEW030 22/16 A3003 NOSIG=
201803160400 METAR MROC 160400Z 11013KT 9999 FEW030 22/15 A3004 NOSIG=
201803160500 METAR MROC 160500Z 09017KT 9999 FEW030 22/16 A3003 NOSIG=
201803160600 METAR MROC 160600Z 10014KT 080V140 9999 FEW030 22/16 A3001 NOSIG=
201803160700 METAR MROC 160700Z 09016KT 9999 FEW030 21/14 A2999 NOSIG=
201803160800 METAR MROC 160800Z 09018G29KT CAVOK 22/14 A2997 NOSIG=
201803160900 METAR MROC 160900Z 10019KT CAVOK 22/14 A2996 NOSIG=
201803161000 METAR MROC 161000Z 10018KT CAVOK 21/15 A2995 NOSIG=
201803161100 METAR MROC 161100Z 11019KT CAVOK 21/15 A2996 NOSIG=
201803161200 METAR MROC 161200Z 13015G25KT CAVOK 20/14 A2999 NOSIG=
201803161300 METAR MROC 161300Z 12015G27KT 080V140 CAVOK 21/14 A3001 NOSIG=
201803161400 METAR MROC 161400Z 11017G30KT 080V150 9999 FEW030 23/15 A3002 NOSIG=
201803161500 METAR MROC 161500Z 12016G26KT CAVOK 25/13 A3003 NOSIG=
201803161600 METAR COR MROC 161600Z 11014G24KT 090V150 CAVOK 27/13 A3003 WS R07 NOSIG=
201803161700 METAR MROC 161700Z 11016G28KT CAVOK 28/13 A3001 WS R07 NOSIG=
201803161800 METAR MROC 161800Z 10013G23KT CAVOK 29/13 A3000 WS R07 NOSIG=
201803161900 METAR MROC 161900Z 10016KT 060V150 CAVOK 30/13 A2998 NOSIG=
201803162000 METAR MROC 162000Z 11010G20KT 080V150 CAVOK 29/13 A2996 NOSIG=
201803162100 METAR MROC 162100Z 10012KT 060V130 9999 FEW045 29/13 A2994 NOSIG=
201803162200 METAR MROC 162200Z 10011KT 060V130 9999 FEW040 SCT250 29/13 A2994 NOSIG=
201803162300 METAR MROC 162300Z 08011KT 9999 FEW040 27/13 A2995 NOSIG=
201803170000 METAR MROC 170000Z 09013KT 9999 FEW035 SCT300 24/13 A2997 NOSIG=
201803170100 METAR MROC 170100Z 08010G20KT 9999 FEW040 23/14 A2999 NOSIG=
201803170200 METAR MROC 170200Z 09013KT CAVOK 23/14 A3001 NOSIG=
201803170300 METAR MROC 170300Z 09014KT CAVOK 22/14 A3003 NOSIG=
201803170400 METAR MROC 170400Z 08011KT 050V110 9999 FEW030 22/14 A3004 NOSIG=
201803170500 METAR MROC 170500Z 09009KT 9999 FEW030 21/14 A3003 NOSIG=
201803170600 METAR MROC 170600Z 11012KT 080V140 9999 FEW030 21/14 A3001 NOSIG=
201803170700 METAR MROC 170700Z 09012KT 070V140 CAVOK 21/14 A2999 NOSIG=
201803170800 METAR MROC 170800Z 09011KT 070V130 9999 FEW025 20/14 A2998 NOSIG=
201803170900 METAR MROC 170900Z 11012KT 9999 FEW025 20/14 A2997 NOSIG=
201803171000 METAR MROC 171000Z 10008KT 060V140 CAVOK 20/14 A2996 NOSIG=
201803171100 METAR MROC 171100Z 10013KT CAVOK 20/13 A2997 NOSIG=
201803171200 METAR MROC 171200Z 11011KT 070V140 CAVOK 20/14 A2998 NOSIG=
201803171300 METAR MROC 171300Z 11012KT CAVOK 21/14 A3002 NOSIG=
201803171400 METAR MROC 171400Z 12014KT CAVOK 24/14 A3004 NOSIG=
201803171500 METAR MROC 171500Z 10016KT 070V130 CAVOK 26/13 A3006 NOSIG=
201803171600 METAR MROC 171600Z 08012KT 060V120 CAVOK 27/13 A3006 NOSIG=
201803171700 METAR MROC 171700Z 09011KT 060V120 CAVOK 29/13 A3003 NOSIG=
201803171800 METAR MROC 171800Z 09012KT 050V120 9999 FEW040 BKN250 29/14 A3002 NOSIG=
201803171900 METAR MROC 171900Z 11012KT 080V150 9999 FEW040 BKN250 30/15 A2999 NOSIG=
201803172000 METAR MROC 172000Z 11011KT 070V140 9999 FEW040 BKN250 30/15 A2996 NOSIG=
201803172100 METAR MROC 172100Z 09010KT 030V130 9999 FEW035 29/15 A2994 NOSIG=
201803172200 METAR MROC 172200Z 11011KT 060V140 9999 FEW035 29/14 A2994 NOSIG=
201803172300 METAR MROC 172300Z 11011KT 9999 FEW035 SCT230 28/13 A2995 NOSIG=
201803180000 METAR MROC 180000Z 13008KT 100V170 9999 FEW035 BKN250 25/15 A2996 NOSIG=
201803180100 METAR MROC 180100Z 13009KT 100V170 9999 FEW035 SCT250 23/16 A2998 NOSIG=
201803180200 METAR MROC 180200Z 11007KT 080V140 CAVOK 22/16 A3001 NOSIG=
201803180300 METAR MROC 180300Z 10008KT CAVOK 22/16 A3003 NOSIG=
201803180400 METAR MROC 180400Z 11012KT 9999 FEW035 22/16 A3003 NOSIG=
201803180500 METAR MROC 180500Z 12012KT CAVOK 22/16 A3002 NOSIG=
201803180600 METAR MROC 180600Z 10010G20KT 9999 FEW035 21/15 A3001 NOSIG=
201803180700 METAR MROC 180700Z 11011KT CAVOK 21/15 A2997 NOSIG=
201803180800 METAR MROC 180800Z 11012KT CAVOK 21/15 A2996 NOSIG=
201803180900 METAR MROC 180900Z 11013KT CAVOK 21/15 A2997 NOSIG=
201803181000 METAR MROC 181000Z 09011KT CAVOK 21/14 A2996 NOSIG=
201803181100 METAR MROC 181100Z 11012KT CAVOK 20/14 A2997 NOSIG=
201803181200 METAR MROC 181200Z 08008KT 060V130 CAVOK 19/15 A2998 NOSIG=
201803181300 METAR MROC 181300Z 10011KT 080V150 CAVOK 22/15 A3000 NOSIG=
201803181400 METAR MROC 181400Z 10012KT 070V140 9999 FEW030 BKN250 24/16 A3001 NOSIG=
201803181500 METAR MROC 181500Z 11016KT 070V140 9999 FEW030 BKN250 25/15 A3003 NOSIG=
201803181600 METAR MROC 181600Z 10014KT 070V140 9999 FEW030 BKN250 27/14 A3003 NOSIG=
201803181700 METAR MROC 181700Z 11010KT 080V150 9999 FEW030 BKN250 28/14 A3002 NOSIG=
201803181800 METAR MROC 181800Z 12010KT 080V180 9999 FEW030 SCT250 29/15 A2998 NOSIG=
201803181900 METAR MROC 181900Z 10012KT 070V130 9999 FEW030 SCT250 29/14 A2994 NOSIG=
201803182000 METAR MROC 182000Z 09012KT 060V140 9999 FEW040 SCT250 30/14 A2992 NOSIG=
201803182100 METAR MROC 182100Z 11010KT 070V150 9999 FEW040 BKN250 30/14 A2990 NOSIG=
201803182200 METAR MROC 182200Z 11008KT 080V160 9999 FEW045 BKN200 28/15 A2989 NOSIG=
201803182300 METAR MROC 182300Z 14007KT 070V200 9999 FEW040 SCT200 26/15 A2990 NOSIG=
201803190000 METAR MROC 190000Z 15006KT 9999 FEW040 SCT200 25/15 A2992 NOSIG=
201803190100 METAR MROC 190100Z 11007KT 9999 FEW040 23/14 A2994 NOSIG=
201803190200 METAR MROC 190200Z 11008KT 9999 FEW040 22/16 A2995 NOSIG=
201803190300 METAR MROC 190300Z 12008KT CAVOK 22/16 A2996 NOSIG=
201803190400 METAR MROC 190400Z 12010KT 080V140 CAVOK 22/16 A2997 NOSIG=
201803190500 METAR MROC 190500Z 11012KT CAVOK 22/16 A2997 NOSIG=
201803190600 METAR MROC 190600Z 11012KT CAVOK 22/16 A2995 NOSIG=
201803190700 METAR MROC 190700Z 10012KT CAVOK 21/16 A2993 NOSIG=
201803190800 METAR MROC 190800Z 10011KT CAVOK 21/15 A2991 NOSIG=
201803190900 METAR MROC 190900Z 11011KT CAVOK 21/15 A2990 NOSIG=
201803191000 METAR MROC 191000Z 07007KT 030V130 CAVOK 20/15 A2991 NOSIG=
201803191100 METAR MROC 191100Z 11009KT 090V150 CAVOK 21/15 A2991 NOSIG=
201803191200 METAR MROC 191200Z 11010KT 9999 FEW035 BKN250 21/15 A2992 NOSIG=
201803191300 METAR MROC 191300Z 12011G21KT 9999 FEW035 BKN200 23/15 A2995 NOSIG=
201803191400 METAR MROC 191400Z 11013G23KT 9999 FEW045 BKN200 24/15 A2996 NOSIG=
201803191500 METAR MROC 191500Z 12011KT 090V160 CAVOK 27/14 A2997 NOSIG=
201803191600 METAR MROC 191600Z 13013G23KT 080V150 CAVOK 27/14 A2996 NOSIG=
201803191700 METAR MROC 191700Z 14010KT 9999 FEW045 29/14 A2995 NOSIG=
201803191800 METAR MROC 191800Z 11011G21KT 070V160 9999 FEW045 30/15 A2993 NOSIG=
201803191900 METAR MROC 191900Z 12010G20KT 070V180 9999 FEW045 SCT200 31/15 A2989 NOSIG=
201803192000 METAR MROC 192000Z 10010G20KT 9999 FEW045 SCT200 30/15 A2986 NOSIG=
201803192100 METAR MROC 192100Z 10010KT 070V160 9999 FEW045 30/15 A2985 NOSIG=
201803192200 METAR MROC 192200Z 16006KT 130V200 9999 FEW025TCU 30/15 A2985 NOSIG=
201803192300 METAR MROC 192300Z 20010KT 180V240 9999 FEW020 SCT060 25/20 A2987 NOSIG=
201803200000 METAR MROC 200000Z 20005KT 170V230 9999 FEW030 BKN180 24/18 A2989 BECMG 11010KT=
201803200100 METAR MROC 200100Z 17005KT 120V200 9999 FEW010 SCT100 23/17 A2991 BECMG 11010KT=
201803200200 METAR MROC 200200Z 12007KT 9999 FEW015 23/17 A2993 NOSIG=
201803200300 METAR MROC 200300Z 11005KT CAVOK 22/17 A2994 NOSIG=
201803200400 METAR MROC 200400Z 06008KT CAVOK 21/16 A2995 NOSIG=
201803200500 METAR MROC 200500Z 10005KT CAVOK 20/15 A2995 NOSIG=
201803200600 METAR MROC 200600Z 09005KT CAVOK 20/16 A2994 NOSIG=
201803200700 METAR MROC 200700Z 05005KT CAVOK 19/14 A2992 NOSIG=
201803200800 METAR MROC 200800Z 09007KT CAVOK 20/15 A2991 NOSIG=
201803200900 METAR MROC 200900Z 07008KT CAVOK 19/15 A2990 NOSIG=
201803201000 METAR MROC 201000Z 08007KT CAVOK 19/14 A2991 NOSIG=
201803201100 METAR MROC 201100Z 07010KT CAVOK 19/13 A2993 NOSIG=
201803201200 METAR MROC 201200Z 08010KT 9999 FEW030 SCT250 19/14 A2994 NOSIG=
201803201300 METAR MROC 201300Z 08009KT CAVOK 22/15 A2996 NOSIG=
201803201400 METAR MROC 201400Z 12008KT 090V160 9999 FEW040 25/15 A2997 NOSIG=
201803201500 METAR MROC 201500Z 12009KT 080V170 CAVOK 27/15 A2996 NOSIG=
201803201600 METAR MROC 201600Z 11009KT 070V150 CAVOK 28/15 A2996 BECMG 22006KT=
201803201700 METAR MROC 201700Z 11007KT CAVOK 30/15 A2994 BECMG 22006KT=
201803201800 METAR MROC 201800Z 21007KT 170V260 9999 FEW035 28/15 A2993 NOSIG=
201803201900 METAR MROC 201900Z 24009KT 9999 SCT040 28/17 A2990 NOSIG=
201803202000 METAR MROC 202000Z 25013KT 220V280 9999 FEW025TCU SCT045 29/18 A2989 NOSIG=
201803202100 METAR MROC 202100Z 25016KT 9999 SCT035 28/19 A2987 NOSIG=
201803202200 METAR MROC 202200Z 25010KT 9999 RA VCSH FEW020 FEW025TCU BKN060 26/17 A2988 NOSIG=
201803202300 METAR MROC 202300Z 13008KT 9999 VCSH FEW020TCU SCT035 BKN060 24/19 A2990 NOSIG=
201803210000 METAR MROC 210000Z VRB02KT 9999 FEW035 SCT100 24/18 A2992 NOSIG=
201803210100 METAR MROC 210100Z 07004KT 040V100 9999 SCT035 BKN100 23/18 A2994 NOSIG=
201803210200 METAR MROC 210200Z 10006KT 070V130 9999 FEW030 SCT100 23/18 A2995 NOSIG=
201803210300 METAR MROC 210300Z 11010KT 9999 FEW030 SCT180 22/18 A2996 NOSIG=
201803210400 METAR MROC 210400Z 07008KT 040V110 9999 FEW030 SCT200 22/17 A2996 NOSIG=
201803210500 METAR MROC 210500Z 12010G20KT 9999 FEW030 SCT180 21/15 A2996 NOSIG=
201803210600 METAR MROC 210600Z COR 11012KT 9999 FEW030 21/13 A2995 NOSIG=
201803210700 METAR MROC 210700Z 11011KT CAVOK 21/14 A2995 NOSIG=
201803210800 METAR MROC 210800Z 12013KT CAVOK 21/14 A2992 NOSIG=
201803210900 METAR MROC 210900Z 11015KT CAVOK 21/14 A2992 NOSIG=
201803211000 METAR MROC 211000Z 11011KT CAVOK 21/14 A2993 NOSIG=
201803211100 METAR MROC 211100Z 07006KT 020V110 CAVOK 21/13 A2994 NOSIG=
201803211200 METAR MROC 211200Z 05007KT CAVOK 20/14 A2997 NOSIG=
201803211300 METAR MROC 211300Z 07008KT 040V100 CAVOK 22/14 A3000 NOSIG=
201803211400 METAR MROC 211400Z 10009KT 080V150 CAVOK 25/12 A3001 NOSIG=
201803211500 METAR MROC 211500Z 11010G20KT 080V150 CAVOK 26/12 A3001 NOSIG=
201803211600 METAR MROC 211600Z 11010G20KT 090V150 CAVOK 27/14 A3001 NOSIG=
201803211700 METAR MROC 211700Z 10014G24KT 070V140 CAVOK 28/15 A3000 NOSIG=
201803211800 METAR MROC 211800Z 11013G23KT 9999 FEW045 28/15 A2998 NOSIG=
201803211900 METAR MROC 211900Z 09012G22KT 060V120 9999 FEW045 28/15 A2995 NOSIG=
201803212000 METAR MROC 212000Z 10014KT 070V130 9999 FEW040 29/15 A2993 NOSIG=
201803212100 METAR MROC 212100Z 08014KT 9999 FEW040 29/14 A2992 NOSIG=
201803212200 METAR MROC 212200Z 08015G25KT 9999 FEW040 28/13 A2991 NOSIG=
201803212300 METAR MROC 212300Z 07016KT 9999 FEW040 26/14 A2994 NOSIG=
201803220000 METAR MROC 220000Z 07016G27KT 9999 FEW040 25/13 A2995 NOSIG=
201803220100 METAR MROC 220100Z 08017KT CAVOK 23/14 A2997 NOSIG=
201803220200 METAR MROC 220200Z 09018KT CAVOK 23/14 A3000 NOSIG=
201803220300 METAR MROC 220300Z 10018KT CAVOK 22/14 A3001 NOSIG=
201803220400 METAR MROC 220400Z 10018G28KT 9999 FEW030 22/14 A3002 NOSIG=
201803220500 METAR MROC 220500Z 10017G29KT CAVOK 21/14 A3002 NOSIG=
201803220600 METAR MROC 220600Z 10016G26KT 9999 FEW030 21/15 A3001 NOSIG=
201803220700 METAR MROC 220700Z 11017G27KT 9999 FEW035 21/14 A2999 NOSIG=
201803220800 METAR MROC 220800Z 11016G27KT 9999 2000SW BCFG FEW030 21/14 A2997 NOSIG=
201803220900 METAR MROC 220900Z 11017G31KT 9999 2000SW BCFG NSC 21/14 A2998 NOSIG=
201803221000 METAR MROC 221000Z 11017G27KT CAVOK 21/13 A2999 NOSIG=
201803221100 METAR MROC 221100Z 11017G27KT CAVOK 20/13 A3000 NOSIG=
201803221200 METAR MROC 221200Z 11018G31KT CAVOK 20/13 A3002 NOSIG=
201803221300 METAR MROC 221300Z 11018G28KT CAVOK 21/14 A3004 NOSIG=
201803221400 METAR MROC 221400Z 11020G31KT CAVOK 23/13 A3006 NOSIG=
201803221500 METAR MROC 221500Z 11019G33KT CAVOK 24/12 A3008 NOSIG=
201803221600 METAR MROC 221600Z 10021G33KT CAVOK 26/12 A3008 NOSIG=
201803221700 METAR MROC 221700Z 08019G29KT CAVOK 26/13 A3006 NOSIG=
201803221800 METAR MROC 221800Z 08021G32KT 9999 FEW045 27/13 A3004 NOSIG=
201803221900 METAR MROC 221900Z 08021G32KT 9999 FEW040 SCT100 27/13 A3003 NOSIG=
201803222000 METAR MROC 222000Z 08020KT 050V110 9999 FEW045 27/14 A3000 NOSIG=
201803222100 METAR MROC 222100Z 07018G31KT 9999 FEW045 27/13 A2999 NOSIG=
201803222200 METAR MROC 222200Z 07021G31KT 9999 FEW045 SCT250 26/13 A3000 NOSIG=
201803222300 METAR MROC 222300Z 09017KT 9999 FEW040 SCT250 24/15 A3002 NOSIG=
201803230000 METAR MROC 230000Z 09017KT 9999 FEW040 SCT250 22/12 A3003 NOSIG=
201803230100 METAR MROC 230100Z 08017G29KT CAVOK 23/12 A3003 NOSIG=
201803230200 METAR MROC 230200Z 10016G30KT CAVOK 21/13 A3005 NOSIG=
201803230300 METAR MROC 230300Z 10017KT CAVOK 20/13 A3007 NOSIG=
201803230400 METAR MROC 230400Z 11019G30KT CAVOK 20/12 A3007 NOSIG=
201803230500 METAR MROC 230500Z 11020G30KT CAVOK 20/12 A3006 NOSIG=
201803230600 METAR MROC 230600Z 11020G30KT CAVOK 20/12 A3004 NOSIG=
201803230700 METAR MROC 230700Z 10020G33KT CAVOK 20/11 A3001 NOSIG=
201803230800 METAR MROC 230800Z 11020G30KT CAVOK 20/11 A3001 NOSIG=
201803230900 METAR MROC 230900Z 11019G29KT CAVOK 19/12 A3000 NOSIG=
201803231000 METAR MROC 231000Z 11019G30KT CAVOK 19/12 A3001 NOSIG=
201803231100 METAR MROC 231100Z 11018KT CAVOK 19/12 A3002 NOSIG=
201803231200 METAR MROC 231200Z 11018G28KT CAVOK 20/13 A3005 NOSIG=
201803231300 METAR MROC 231300Z 10018KT CAVOK 21/13 A3006 NOSIG=
201803231400 METAR MROC 231400Z 09018G29KT CAVOK 24/13 A3008 NOSIG=
201803231500 METAR MROC 231500Z 10018G30KT CAVOK 25/14 A3009 NOSIG=
201803231600 METAR MROC 231600Z 09017G30KT CAVOK 27/13 A3008 NOSIG=
201803231700 METAR MROC 231700Z 08022G33KT 9999 FEW045 27/13 A3006 NOSIG=
201803231800 METAR MROC 231800Z 08020G30KT 050V110 9999 FEW040 28/12 A3005 NOSIG=
201803231900 METAR MROC 231900Z 08020G30KT 050V110 CAVOK 28/11 A3002 NOSIG=
201803232000 METAR MROC 232000Z 07019G29KT 9999 FEW045 BKN200 28/11 A3001 NOSIG=
201803232100 METAR MROC 232100Z 07019G29KT 9999 FEW045 SCT120 28/11 A2999 NOSIG=
201803232200 METAR MROC 232200Z 07017G27KT 9999 FEW045 SCT120 28/12 A2998 NOSIG=
201803232300 METAR MROC 232300Z 08019KT 9999 FEW045 BKN120 25/14 A2999 NOSIG=
201803240000 METAR MROC 240000Z 07018G28KT 9999 FEW040 BKN100 24/14 A2999 NOSIG=
201803240100 METAR MROC 240100Z 09013G24KT 9999 FEW040 BKN150 23/13 A3001 NOSIG=
201803240200 METAR MROC 240200Z 10013KT 9999 FEW040 SCT150 22/14 A3004 NOSIG=
201803240300 METAR MROC 240300Z 10014KT CAVOK 22/15 A3005 NOSIG=
201803240400 METAR MROC 240400Z 09020G30KT CAVOK 21/14 A3005 NOSIG=
201803240500 METAR MROC 240500Z 10016G26KT CAVOK 21/14 A3005 NOSIG=
201803240600 METAR MROC 240600Z 11016KT CAVOK 21/14 A3004 NOSIG=
201803240700 METAR MROC 240700Z 11016KT CAVOK 20/14 A3002 NOSIG=
201803240800 METAR MROC 240800Z 09023KT CAVOK 21/14 A3000 NOSIG=
201803240900 METAR MROC 240900Z 11016G26KT CAVOK 20/14 A2999 NOSIG=
201803241000 METAR MROC 241000Z 09015KT CAVOK 21/13 A2998 NOSIG=
201803241100 METAR MROC 241100Z 11016KT CAVOK 20/14 A2998 NOSIG=
201803241200 METAR MROC 241200Z 11017KT CAVOK 20/14 A2999 NOSIG=
201803241300 METAR MROC 241300Z 09014G24KT CAVOK 22/15 A3002 NOSIG=
201803241400 METAR MROC 241400Z 11016KT 080V140 CAVOK 24/15 A3003 NOSIG=
201803241500 METAR MROC 241500Z 11015KT CAVOK 25/16 A3004 NOSIG=
201803241600 METAR MROC 241600Z 11017G27KT 9999 FEW045 27/16 A3003 NOSIG=
201803241700 METAR MROC 241700Z 11019G30KT 9999 FEW040 27/16 A3003 NOSIG=
201803241800 METAR MROC 241800Z 13019G29KT 9999 FEW040 27/17 A3000 NOSIG=
201803241900 METAR MROC 241900Z 11021G32KT 080V140 9999 FEW035 SCT070 27/16 A2999 NOSIG=
201803242000 METAR MROC 242000Z 12015G25KT 9999 FEW035 SCT080 26/16 A2996 NOSIG=
201803242100 METAR MROC 242100Z 11014G24KT 9999 BKN045 26/16 A2994 NOSIG=
201803242200 METAR MROC 242200Z 11016KT 070V130 9999 BKN030 25/16 A2994 NOSIG=
201803242300 METAR MROC 242300Z 11013KT 080V140 9999 BKN0310 23/16 A2995 NOSIG=
201803250000 METAR MROC 250000Z 11017G27KT 9999 FEW040 SCT120 BKN250 21/16 A2996 NOSIG=
201803250100 METAR MROC 250100Z 11015G26KT 9999 FEW040 21/15 A2997 NOSIG=
201803250200 METAR MROC 250200Z 09013KT 050V110 9999 FEW030 21/16 A2998 NOSIG=
201803250300 METAR MROC 250300Z 09016G26KT 9999 FEW035 21/16 A2999 NOSIG=
201803250400 METAR MROC 250400Z 11018G28KT 9999 FEW030 21/16 A2999 NOSIG=
201803250500 METAR MROC 250500Z 11014KT 9999 FEW030 21/16 A3000 NOSIG=
201803250600 METAR MROC 250600Z 10016KT 9999 FEW030 22/14 A2998 NOSIG=
201803250700 METAR MROC 250700Z 09015KT 9999 FEW030 22/15 A2996 NOSIG=
201803250800 METAR MROC 250800Z 09015KT 9999 FEW030 22/15 A2993 NOSIG=
201803250900 METAR MROC 250900Z 11013G23KT 9999 FEW030 21/14 A2993 NOSIG=
201803251000 METAR MROC 251000Z 10016KT 9999 FEW030 22/15 A2994 NOSIG=
201803251100 METAR MROC 251100Z 10018KT 9999 FEW030 22/15 A2995 NOSIG=
201803251200 METAR MROC 251200Z 11012KT 070V150 9999 FEW030 21/16 A2997 NOSIG=
201803251300 METAR MROC 251300Z 11015G26KT 9999 FEW045 22/16 A2999 NOSIG=
201803251400 METAR MROC 251400Z 11015G25KT 9999 FEW045 24/15 A3000 NOSIG=
201803251500 METAR MROC 251500Z 08018KT 9999 FEW045 26/15 A3002 NOSIG=
201803251600 METAR MROC 251600Z 08019G29KT 060V120 CAVOK 26/15 A3001 NOSIG=
201803251700 METAR MROC 251700Z 09015KT 9999 FEW045 27/15 A3000 NOSIG=
201803251800 METAR MROC 251800Z 10014KT 060V150 9999 FEW045 SCT250 28/14 A2998 NOSIG=
201803251900 METAR MROC 251900Z 09015KT 9999 FEW045 SCT250 28/15 A2996 NOSIG=
201803252000 METAR MROC 252000Z 09016KT 060V130 9999 FEW040 SCT200 28/15 A2993 NOSIG=
201803252100 METAR MROC 252100Z 10018G28KT 9999 FEW030 SCT200 27/15 A2992 NOSIG=
201803252200 METAR MROC 252200Z 09014G24KT 9999 FEW035 SCT200 26/14 A2992 NOSIG=
201803252300 METAR MROC 252300Z 11016G26KT 9999 FEW035 25/13 A2993 NOSIG=
201803260000 METAR MROC 260000Z 10019G29KT 9999 FEW035 22/15 A2994 NOSIG=
201803260100 METAR MROC 260100Z 11010G20KT 080V140 9999 FEW035 22/15 A2995 NOSIG=
201803260200 METAR MROC 260200Z 10014G24KT 9999 FEW035 22/14 A2997 NOSIG=
201803260300 METAR MROC 260300Z 11016G26KT CAVOK 21/14 A2998 NOSIG=
201803260400 METAR MROC 260400Z 11017G27KT CAVOK 22/13 A2999 NOSIG=
201803260500 METAR MROC 260500Z 11015G25KT CAVOK 21/14 A2998 NOSIG=
201803260600 METAR MROC 260600Z 10017KT CAVOK 21/14 A2996 NOSIG=
201803260700 METAR MROC 260700Z 11015KT CAVOK 21/13 A2993 NOSIG=
201803260800 METAR MROC 260800Z 11014G24KT CAVOK 21/12 A2992 NOSIG=
201803260900 METAR MROC 260900Z 11016KT CAVOK 20/13 A2992 NOSIG=
201803261000 METAR MROC 261000Z 11016G26KT CAVOK 20/12 A2993 NOSIG=
201803261100 METAR MROC 261100Z 11017G28KT CAVOK 21/12 A2994 NOSIG=
201803261200 METAR MROC 261200Z 11015G25KT CAVOK 21/13 A2997 NOSIG=
201803261300 METAR MROC 261300Z 11017G27KT CAVOK 22/13 A2999 NOSIG=
201803261400 METAR MROC 261400Z 11015G25KT CAVOK 24/13 A3000 NOSIG=
201803261500 METAR MROC 261500Z 11018G28KT CAVOK 26/13 A3001 NOSIG=
201803261600 METAR MROC 261600Z 09018KT 060V120 CAVOK 28/13 A3001 NOSIG=
201803261700 METAR MROC 261700Z 09016G26KT 060V120 CAVOK 28/15 A3000 NOSIG=
201803261800 METAR MROC 261800Z 09017G27KT CAVOK 29/13 A2998 NOSIG=
201803261900 METAR MROC 261900Z 08013G23KT 050V110 CAVOK 29/13 A2996 NOSIG=
201803262000 METAR MROC 262000Z 08014G24KT 060V120 CAVOK 30/12 A2993 NOSIG=
201803262100 METAR MROC 262100Z 08017KT CAVOK 29/12 A2991 NOSIG=
201803262200 METAR MROC 262200Z 08018KT CAVOK 28/12 A2991 NOSIG=
201803262300 METAR MROC 262300Z 09015KT CAVOK 26/12 A2993 NOSIG=
201803270000 METAR MROC 270000Z 09016KT CAVOK 24/12 A2994 NOSIG=
201803270100 METAR MROC 270100Z 10017KT CAVOK 23/13 A2995 NOSIG=
201803270200 METAR MROC 270200Z 10019KT CAVOK 22/14 A2997 NOSIG=
201803270300 METAR MROC 270300Z 11019KT CAVOK 22/14 A2998 NOSIG=
201803270400 METAR MROC 270400Z 11018G30KT 9999 FEW025 22/10 A2999 NOSIG=
201803270500 METAR MROC 270500Z 11017G27KT CAVOK 21/10 A2999 NOSIG=
201803270600 METAR MROC 270600Z 10018G30KT CAVOK 21/08 A2996 NOSIG=
201803270700 METAR MROC 270700Z 10016G26KT CAVOK 21/11 A2996 NOSIG=
201803270800 METAR MROC 270800Z 11014G24KT CAVOK 21/11 A2994 NOSIG=
201803270900 METAR MROC 270900Z 11013G24KT CAVOK 20/11 A2993 NOSIG=
201803271000 METAR MROC 271000Z 11017G27KT CAVOK 20/12 A2994 NOSIG=
201803271100 METAR MROC 271100Z 11017G27KT CAVOK 20/13 A2995 NOSIG=
201803271200 METAR MROC 271200Z 11019G29KT CAVOK 21/12 A2996 NOSIG=
201803271300 METAR MROC 271300Z 11016KT CAVOK 23/12 A2998 NOSIG=
201803271400 METAR MROC 271400Z 11017KT CAVOK 25/13 A3000 NOSIG=
201803271500 METAR MROC 271500Z 10016G26KT 060V120 CAVOK 28/13 A3002 NOSIG=
201803271600 METAR MROC 271600Z 08018KT CAVOK 29/14 A3000 NOSIG=
201803271700 METAR MROC 271700Z 10021G31KT CAVOK 29/15 A2998 NOSIG=
201803271800 METAR MROC 271800Z 09020G30KT 060V120 CAVOK 29/15 A2996 NOSIG=
201803271900 METAR MROC 271900Z 08018KT CAVOK 29/14 A2994 NOSIG=
201803272000 METAR MROC 272000Z 08019G29KT 9999 FEW045 28/17 A2992 NOSIG=
201803272100 METAR MROC 272100Z 08018G30KT 9999 FEW045 28/13 A2991 NOSIG=
201803272200 METAR MROC 272200Z 07016KT 9999 FEW045 27/12 A2990 NOSIG=
201803272300 METAR MROC 272300Z 08016KT 9999 FEW045 26/13 A2991 NOSIG=
201803280000 METAR MROC 280000Z 09015KT 9999 FEW045 23/13 A2993 NOSIG=
201803280100 METAR MROC 280100Z 10015KT 9999 FEW045 22/14 A2994 NOSIG=
201803280200 METAR MROC 280200Z 10018KT 9999 FEW045 22/13 A2996 NOSIG=
201803280300 METAR MROC 280300Z 10015G28KT CAVOK 21/14 A2998 NOSIG=
201803280400 METAR MROC 280400Z 11015G25KT CAVOK 22/13 A2997 NOSIG=
201803280500 METAR MROC 280500Z 11017G27KT CAVOK 22/11 A2997 NOSIG=
201803280600 METAR MROC 280600Z 11014G24KT CAVOK 21/14 A2995 NOSIG=
201803280700 METAR MROC 280700Z 11015G25KT CAVOK 20/14 A2993 NOSIG=
201803280800 METAR MROC 280800Z 09013G24KT 060V130 CAVOK 20/13 A2992 NOSIG=
201803280900 METAR MROC 280900Z 11013G23KT CAVOK 20/14 A2991 NOSIG=
201803281000 METAR MROC 281000Z 11017G28KT CAVOK 21/13 A2992 NOSIG=
201803281100 METAR MROC 281100Z 11017KT CAVOK 20/13 A2993 NOSIG=
201803281200 METAR MROC 281200Z 11017G27KT CAVOK 20/14 A2994 NOSIG=
201803281300 METAR MROC 281300Z 10020G31KT CAVOK 22/13 A2997 NOSIG=
201803281400 METAR MROC 281400Z 10017KT CAVOK 24/12 A2999 NOSIG=
201803281500 METAR MROC 281500Z 09019G31KT CAVOK 26/12 A2999 NOSIG=
201803281600 METAR MROC 281600Z 08016KT 050V110 CAVOK 27/13 A2999 NOSIG=
201803281700 METAR MROC 281700Z 08015KT 060V120 CAVOK 28/13 A2997 NOSIG=
201803281800 METAR MROC 281800Z 08014G24KT 050V130 CAVOK 30/12 A2995 NOSIG=
201803281900 METAR MROC 281900Z 10012G24KT 080V130 9999 FEW045 30/13 A2991 NOSIG=
201803282000 METAR MROC 282000Z 10013G24KT 070V130 9999 FEW045 29/13 A2989 NOSIG=
201803282100 METAR MROC 282100Z 10012G22KT 070V130 9999 FEW045 29/13 A2987 NOSIG=
201803282200 METAR MROC 282200Z 11011KT 060V140 9999 FEW045 29/13 A2987 NOSIG=
201803282300 METAR MROC 282300Z 10008KT 060V140 9999 FEW040 27/13 A2989 NOSIG=
201803290000 METAR MROC 290000Z 12009KT 9999 FEW040 24/14 A2992 NOSIG=
201803290100 METAR MROC 290100Z 12010KT 9999 FEW040 23/15 A2995 NOSIG=
201803290200 METAR MROC 290200Z 12008KT 9999 FEW045 22/14 A2996 NOSIG=
201803290300 METAR MROC 290300Z 08009KT 9999 FEW045 22/14 A2998 NOSIG=
201803290400 METAR MROC 290400Z 08011KT 060V120 CAVOK 22/13 A2999 NOSIG=
201803290500 METAR MROC 290500Z 08013KT CAVOK 22/13 A2999 NOSIG=
201803290600 METAR MROC 290600Z 09014KT CAVOK 22/13 A2998 NOSIG=
201803290700 METAR MROC 290700Z 10014KT CAVOK 21/13 A2996 NOSIG=
201803290800 METAR MROC 290800Z 12013KT CAVOK 20/14 A2994 NOSIG=
201803290900 METAR MROC 290900Z 11015KT CAVOK 20/13 A2993 NOSIG=
201803291000 METAR MROC 291000Z 11017G27KT CAVOK 20/13 A2993 NOSIG=
201803291100 METAR MROC 291100Z 11014KT CAVOK 20/13 A2995 NOSIG=
201803291200 METAR MROC 291200Z 11013KT CAVOK 20/13 A2996 NOSIG=
201803291300 METAR MROC 291300Z 10015KT CAVOK 22/13 A2998 NOSIG=
201803291400 METAR MROC 291400Z 10013G23KT 070V130 CAVOK 24/13 A3000 NOSIG=
201803291500 METAR MROC 291500Z 11015G25KT CAVOK 25/13 A3001 NOSIG=
201803291600 METAR MROC 291600Z 10013KT CAVOK 27/14 A3001 NOSIG=
201803291700 METAR MROC 291700Z 11011G21KT 070V140 CAVOK 29/14 A2998 NOSIG=
201803291800 METAR MROC 291800Z 09013KT 060V140 9999 FEW045 BKN200 29/14 A2996 NOSIG=
201803291900 METAR MROC 291900Z 10014KT 060V130 9999 FEW045 BKN200 30/15 A2993 NOSIG=
201803292000 METAR MROC 292000Z 09012KT 070V130 9999 FEW040 SCT110 30/14 A2992 NOSIG=
201803292100 METAR MROC 292100Z 14011KT 9999 -RA SCT030 SCT140 25/17 A2991 NOSIG=
201803292200 METAR MROC 292200Z 12008KT 080V160 9999 -RA FEW025 SCT050 27/16 A2992 NOSIG=
201803292300 METAR MROC 292300Z 10009KT 9999 FEW025 26/16 A2993 NOSIG=
201803300000 METAR MROC 300000Z 14007KT 100V190 9999 FEW045 24/16 A2996 NOSIG=
201803300100 METAR MROC 300100Z 11109KT 9999 FEW035 23/17 A2998 NOSIG=
201803300200 METAR MROC 300200Z 10009KT 9999 FEW035 23/17 A3000 NOSIG=
201803300300 METAR MROC 300300Z 10011KT CAVOK 22/17 A3001 NOSIG=
201803300400 METAR MROC 300400Z 10012KT CAVOK 22/17 A3003 NOSIG=
201803300500 METAR MROC 300500Z 10011KT CAVOK 22/16 A3003 NOSIG=
201803300600 METAR MROC 300600Z 10011KT CAVOK 21/16 A3001 NOSIG=
201803300700 METAR MROC 300700Z 11012KT CAVOK 21/16 A2999 NOSIG=
201803300800 METAR MROC 300800Z 10013KT CAVOK 21/16 A2997 NOSIG=
201803300900 METAR MROC 300900Z 03004KT 340V080 CAVOK 21/16 A2997 NOSIG=
201803301000 METAR MROC 301000Z 05006KT CAVOK 21/15 A2997 NOSIG=
201803301100 METAR MROC 301100Z 05007KT CAVOK 21/15 A2998 NOSIG=
201803301200 METAR MROC 301200Z 03003KT 350V060 CAVOK 20/14 A2999 NOSIG=
201803301300 METAR MROC 301300Z 11015G27KT CAVOK 22/16 A3001 NOSIG=
201803301400 METAR MROC 301400Z 11013G23KT CAVOK 25/17 A3003 NOSIG=
201803301500 METAR MROC 301500Z 11017G27KT CAVOK 25/17 A3003 NOSIG=
201803301600 METAR MROC 301600Z 11019G30KT 9999 FEW045 26/15 A3004 NOSIG=
201803301700 METAR MROC 301700Z 10015G25KT 9999 FEW045 27/15 A3004 NOSIG=
201803301800 METAR MROC 301800Z 11015G25KT 9999 FEW045 28/15 A3002 NOSIG=
201803301900 METAR MROC 301900Z 11016G26KT CAVOK 28/15 A3000 NOSIG=
201803302000 METAR MROC 302000Z 09017KT CAVOK 27/16 A2997 NOSIG=
201803302100 METAR MROC 302100Z 11015G25KT 9999 FEW040 28/16 A2994 NOSIG=
201803302200 METAR MROC 302200Z 12015G25KT 090V150 9999 FEW040 26/17 A2994 NOSIG=
201803302300 METAR MROC 302300Z 11015G25KT 9999 FEW035 24/16 A2994 NOSIG=
201803310000 METAR MROC 310000Z 11013G23KT 9999 FEW030 23/16 A2996 NOSIG=
201803310100 METAR MROC 310100Z 10010G20KT 9999 FEW030 22/16 A2998 NOSIG=
201803310200 METAR MROC 310200Z 11013G23KT 9999 FEW030 21/16 A3000 NOSIG=
201803310300 METAR MROC 310300Z 10015G27KT 9999 FEW030 21/16 A3003 NOSIG=
201803310400 METAR MROC 310400Z 07009KT 9999 FEW030 21/15 A3003 NOSIG=
201803310500 METAR MROC 310500Z 09013KT 9999 FEW035 20/15 A3003 NOSIG=
201803310600 METAR MROC 310600Z 09009KT 9999 FEW035 20/14 A3001 NOSIG=
201803310700 METAR MROC 310700Z 07009KT 9999 FEW040 20/14 A3000 NOSIG=
201803310800 METAR MROC 310800Z 08007KT 050V110 9999 FEW040 20/14 A3000 NOSIG=
201803310900 METAR MROC 310900Z 08007KT 050V120 9999 FEW040 20/14 A2999 NOSIG=
201803311000 METAR MROC 311000Z 09009KT 060V120 CAVOK 20/13 A2999 NOSIG=
201803311100 METAR MROC 311100Z 11014KT 080V140 CAVOK 20/13 A3002 NOSIG=
201803311200 METAR MROC 311200Z 10010G20KT 9999 FEW040 20/14 A3002 NOSIG=
201803311300 METAR MROC 311300Z 10014G24KT 070V140 9999 FEW035 21/14 A3003 NOSIG=
201803311400 METAR MROC 311400Z 11013G23KT 070V130 9999 FEW035 23/14 A3006 NOSIG=
201803311500 METAR MROC 311500Z 10016G27KT 070V130 9999 FEW035 25/13 A3006 NOSIG=
201803311600 METAR MROC 311600Z 10012G22KT 080V140 9999 FEW040 27/15 A3005 NOSIG=
201803311700 METAR MROC 311700Z 11015G25KT 080V140 9999 FEW040 26/13 A3004 NOSIG=
201803311800 METAR MROC 311800Z 11016G26KT 080V140 9999 FEW040 26/14 A3002 NOSIG=
201803311900 METAR MROC 311900Z 11016G26KT 9999 FEW045 27/13 A2999 NOSIG=
201803312000 METAR MROC 312000Z 11015G25KT 080V140 CAVOK 28/14 A2995 NOSIG=
201803312100 METAR MROC 312100Z 10018G30KT 060V120 9999 SCT040 27/15 A2994 NOSIG=
201803312200 METAR MROC 312200Z 10019KT 9999 SCT040 25/14 A2993 NOSIG=
201803312300 METAR MROC 312300Z 10015G28KT 9999 FEW040 SCT100 25/14 A2994 NOSIG=
201804010000 METAR MROC 010000Z 11016KT 9999 SCT040 22/14 A2996 NOSIG=
201804010100 METAR MROC 010100Z 10015KT 9999 FEW040 21/14 A2999 NOSIG=
201804010200 METAR MROC 010200Z 10015KT CAVOK 21/12 A3001 NOSIG=
201804010300 METAR MROC 010300Z 10014KT CAVOK 21/12 A3002 NOSIG=
201804010400 METAR MROC 010400Z 10011KT CAVOK 21/12 A3004 NOSIG=
201804010500 METAR MROC 010500Z 10012KT CAVOK 20/12 A3003 NOSIG=
201804010600 METAR MROC 010600Z 10012KT CAVOK 20/12 A3002 NOSIG=
201804010700 METAR MROC 010700Z 10008KT 040V180 CAVOK 20/11 A3001 NOSIG=
201804010800 METAR MROC 010800Z 11011KT CAVOK 19/11 A2998 NOSIG=
201804010900 METAR MROC 010900Z 11011KT CAVOK 19/11 A2997 NOSIG=
201804011000 METAR MROC 011000Z 10011KT CAVOK 20/10 A2997 NOSIG=
201804011100 METAR MROC 011100Z 10011KT 080V150 CAVOK 19/09 A2997 NOSIG=
201804011200 METAR MROC 011200Z 10011KT CAVOK 20/08 A3000 NOSIG=
201804011300 METAR MROC 011300Z 10015KT CAVOK 21/09 A3002 NOSIG=
201804011400 METAR MROC 011400Z 11015KT 080V140 CAVOK 24/10 A3003 NOSIG=
201804011500 METAR MROC 011500Z 09017KT 050V120 CAVOK 26/10 A3004 NOSIG=
201804011600 METAR MROC 011600Z 08018KT CAVOK 26/10 A3003 NOSIG=
201804011700 METAR MROC 011700Z 09013G24KT 050V130 CAVOK 28/10 A3003 NOSIG=
201804011800 METAR MROC 011800Z 07011KT 040V100 CAVOK 29/11 A3000 NOSIG=
201804011900 METAR MROC 011900Z 08011KT 050V110 9999 FEW045 29/12 A2996 NOSIG=
201804012000 METAR MROC 012000Z 13007KT 090V130 9999 FEW040 30/12 A2992 NOSIG=
201804012100 METAR MROC 012100Z 12009KT 080V170 9999 FEW040 30/12 A2990 NOSIG=
201804012200 METAR MROC 012200Z 12010KT 070V160 9999 FEW040 27/14 A2990 NOSIG=
201804012300 METAR MROC 012300Z 15007KT 110V190 9999 FEW040 26/14 A2992 NOSIG=
201804020000 METAR MROC 020000Z 11008KT 9999 SCT040 24/14 A2994 NOSIG=
201804020100 METAR MROC 020100Z 12010KT 9999 FEW040 22/14 A2996 NOSIG=
201804020200 METAR MROC 020200Z 09008KT 050V110 9999 FEW040 22/14 A2999 NOSIG=
201804020300 METAR MROC 020300Z 11013KT CAVOK 22/13 A3000 NOSIG=
201804020400 METAR MROC 020400Z 11011KT CAVOK 21/13 A3001 NOSIG=
201804020500 METAR MROC 020500Z 10010G20KT 080V150 CAVOK 21/12 A3001 NOSIG=
201804020600 METAR MROC 020600Z 11010G20KT 080V140 CAVOK 21/12 A3000 NOSIG=
201804020700 METAR MROC 020700Z 10010G20KT CAVOK 21/13 A2997 NOSIG=
201804020800 METAR MROC 020800Z 10014KT CAVOK 20/12 A2994 NOSIG=
201804020900 METAR MROC 020900Z 11010G20KT 080V140 CAVOK 20/11 A2994 NOSIG=
201804021000 METAR MROC 021000Z 07007KT CAVOK 19/11 A2995 NOSIG=
201804021100 METAR MROC 021100Z 05007KT CAVOK 18/11 A2996 NOSIG=
201804021200 METAR COR MROC 021200Z 06010KT CAVOK 19/11 A2996 NOSIG=
201804021300 METAR MROC 021300Z 09012KT CAVOK 22/12 A2998 NOSIG=
201804021400 METAR MROC 021400Z 10017KT 070V130 CAVOK 24/12 A3001 NOSIG=
201804021500 METAR MROC 021500Z 10014KT 080V150 CAVOK 26/13 A3001 NOSIG=
201804021600 METAR MROC 021600Z 11013KT CAVOK 27/13 A3001 NOSIG=
201804021700 METAR MROC 021700Z 10010KT 070V130 9999 FEW040 29/13 A2999 NOSIG=
201804021800 METAR MROC 021800Z 12009KT 060V160 9999 FEW040 29/13 A2996 BECMG 20006KT=
201804021900 METAR MROC 021900Z 11010KT 080V170 9999 FEW040 29/13 A2993 BECMG 22006KT=
201804022000 METAR MROC 022000Z 13010KT 070V190 9999 SCT040 29/13 A2991 NOSIG=
201804022100 METAR MROC 022100Z 13010KT 110V170 9999 FEW025TCU FEW045 29/14 A2990 NOSIG=
201804022200 METAR MROC 022200Z 12007KT 050V170 9999 FEW025TCU FEW045 27/14 A2989 NOSIG=
201804022300 METAR MROC 022300Z 12008KT 090V160 9999 VCSH FEW020TCU FEW040 26/15 A2992 NOSIG=
201804030000 METAR MROC 030000Z 17007KT 110V230 9999 FEW035 SCT120 24/17 A2995 BECMG 24005KT=
201804030100 METAR MROC 030100Z 11009KT 080V140 9999 FEW040 SCT120 23/15 A2997 NOSIG=
201804030200 METAR MROC 030200Z 10010KT 9999 FEW035 22/15 A2992 NOSIG=
201804030300 METAR MROC 030300Z 10008KT 9999 FEW035 SCT060 22/15 A3002 NOSIG=
201804030400 METAR MROC 030400Z 11007KT 9999 FEW040 22/15 A3003 NOSIG=
201804030500 METAR MROC 030500Z 10005KT 9999 FEW040 21/14 A3003 NOSIG=
201804030600 METAR MROC 030600Z 09005KT CAVOK 20/14 A3001 NOSIG=
201804030700 METAR MROC 030700Z 07006KT CAVOK 19/13 A2999 NOSIG=
201804030800 METAR MROC 030800Z 08006KT CAVOK 18/14 A2996 NOSIG=
201804030900 METAR MROC 030900Z 07007KT CAVOK 18/13 A2996 NOSIG=
201804031000 METAR MROC 031000Z 07008KT CAVOK 19/13 A2996 NOSIG=
201804031100 METAR MROC 031100Z 08006KT CAVOK 19/14 A2997 NOSIG=
201804031200 METAR MROC 031200Z 07010KT CAVOK 20/14 A2998 NOSIG=
201804031300 METAR MROC 031300Z 10010KT CAVOK 22/14 A2998 NOSIG=
201804031400 METAR MROC 031400Z 10012KT CAVOK 25/13 A3001 NOSIG=
201804031500 METAR MROC 031500Z 11010KT 080V140 CAVOK 27/13 A3002 NOSIG=
201804031600 METAR MROC 031600Z 11010KT 080V140 CAVOK 28/13 A3001 NOSIG=
201804031700 METAR MROC 031700Z 13007KT 060V200 9999 FEW045 31/12 A3000 NOSIG=
201804031800 METAR MROC 031800Z VRB04KT 9999 FEW045 30/12 A2997 NOSIG=
201804031900 METAR MROC 031900Z 25008KT 200V300 9999 FEW045 SCT080 30/16 A2994 NOSIG=
201804032000 METAR MROC 032000Z 25010KT 210V290 9999 FEW040 SCT060 29/16 A2992 NOSIG=
201804032100 METAR MROC 032100Z 18007KT 140V210 9999 FEW040 BKN060 28/15 A2991 NOSIG=
201804032200 METAR MROC 032200Z 15010KT 9999 -RA BKN060 26/16 A2992 NOSIG=
201804032300 METAR MROC 032300Z 16006KT 120V210 9999 SCT045 24/17 A2993 NOSIG=
201804040000 METAR MROC 040000Z 13008KT 110V170 CAVOK 23/17 A2995 NOSIG=
201804040100 METAR MROC 040100Z 12007KT 9999 FEW040 SCT060 22/17 A2997 NOSIG=
201804040200 METAR MROC 040200Z 09007KT 050V120 9999 FEW020 21/17 A3000 NOSIG=
201804040300 METAR MROC 040300Z 08006KT 050V110 9999 FEW040 21/16 A3002 NOSIG=
201804040400 METAR MROC 040400Z 08006KT CAVOK 21/16 A3003 NOSIG=
201804040500 METAR MROC 040500Z 08006KT CAVOK 21/16 A3002 NOSIG=
201804040600 METAR MROC 040600Z 08009KT CAVOK 21/15 A3000 NOSIG=
201804040700 METAR MROC 040700Z 09006KT CAVOK 20/15 A2999 NOSIG=
201804040800 METAR MROC 040800Z 09008KT CAVOK 19/15 A2998 NOSIG=
201804040900 METAR MROC 040900Z 08008KT CAVOK 19/15 A2997 NOSIG=
201804041000 METAR MROC 041000Z 07007KT CAVOK 19/14 A2996 NOSIG=
201804041100 METAR MROC 041100Z 06008KT CAVOK 18/13 A2999 NOSIG=
201804041200 METAR MROC 041200Z 07009KT CAVOK 18/12 A3000 NOSIG=
201804041300 METAR MROC 041300Z 07005KT CAVOK 22/12 A3003 NOSIG=
201804041400 METAR MROC 041400Z VRB02KT CAVOK 25/12 A3004 BECMG 24007KT=
201804041500 METAR MROC 041500Z 06004KT 350V150 CAVOK 28/10 A3003 BECMG 24007KT=
201804041600 METAR MROC 041600Z 26008KT 220V290 CAVOK 29/12 A3002 NOSIG=
201804041700 METAR MROC 041700Z VRB07KT 9999 FEW040 SCT160 29/12 A3000 NOSIG=
201804041800 METAR MROC 041800Z 24009KT 180V310 9999 FEW040 SCT180 31/15 A2998 NOSIG=
201804041900 METAR MROC 041900Z 23010KT 200V280 9999 FEW025TCU FEW030 BKN200 29/16 A2996 NOSIG=
201804042000 METAR MROC 042000Z 22009KT 9999 BKN035 27/18 A2994 NOSIG=
201804042100 METAR MROC 042100Z 23013KT 9999 SCT035 BKN200 27/19 A2993 NOSIG=
201804042200 METAR MROC 042200Z 25011KT 220V280 9999 FEW025 SCT035 BKN200 27/18 A2993 NOSIG=
201804042300 METAR MROC 042300Z 24010KT 210V270 9999 SCT035 BKN200 26/18 A2994 NOSIG=
201804050000 METAR MROC 050000Z 21007KT 170V240 9999 SCT035 BKN200 24/19 A2997 NOSIG=
201804050100 METAR MROC 050100Z 22007KT 9999 FEW020 SCT035 23/19 A2998 NOSIG=
201804050200 METAR MROC 050200Z 26006KT 220V290 9999 FEW035 SCT060 22/19 A3000 NOSIG=
201804050300 METAR MROC 050300Z 08004KT 9999 FEW035 22/19 A3003 NOSIG=
201804050400 METAR MROC 050400Z 10005KT 9999 FEW035 21/16 A3004 NOSIG=
201804050500 METAR MROC 050500Z 07007KT CAVOK 21/16 A3003 NOSIG=
201804050600 METAR MROC 050600Z 08009KT CAVOK 21/15 A3002 NOSIG=
201804050700 METAR MROC 050700Z 07010KT CAVOK 20/14 A3000 NOSIG=
201804050800 METAR MROC 050800Z 07004KT CAVOK 20/13 A3000 NOSIG=
201804050900 METAR MROC 050900Z 05003KT 9999 SCT015 19/14 A3000 NOSIG=
201804051000 METAR MROC 051000Z 10006KT 9999 FEW015 17/13 A3001 NOSIG=
201804051100 METAR MROC 051100Z 10008KT CAVOK 17/12 A3002 NOSIG=
201804051200 METAR MROC 051200Z 07007KT CAVOK 17/11 A3005 NOSIG=
201804051300 METAR MROC 051300Z 10005KT CAVOK 20/14 A3006 NOSIG=
201804051400 METAR MROC 051400Z 11007KT 080V140 CAVOK 23/15 A3007 NOSIG=
201804051500 METAR MROC 051500Z 11013KT 080V150 CAVOK 26/14 A3006 BECMG 22006KT=
201804051600 METAR MROC 051600Z 11010G20KT 080V150 CAVOK 28/12 A3005 BECMG 22006KT=
201804051700 METAR MROC 051700Z 09010KT 050V110 CAVOK 29/11 A3005 BECMG 22006KT=
201804051800 METAR MROC 051800Z 21006KT 160V260 9999 SCT045 29/13 A3001 NOSIG=
201804051900 METAR MROC 051900Z 23012KT 200V260 9999 FEW030 SCT045 29/18 A3000 NOSIG=
201804052000 METAR MROC 052000Z 23013KT 200V260 9999 -RA VCSH FEW020CB FEW025TCU SCT040 26/18 A2997 BECMG RA SCT025CB=
201804052100 METAR MROC 052100Z 24012KT 9999 VCSH BKN030TCU 23/19 A2998 BECMG RA=
201804052200 METAR MROC 052200Z 22006KT 9999 VCSH BKN030TCU 23/19 A2997 NOSIG=
201804052300 METAR MROC 052300Z 22005KT 190V160 9999 -RA SCT030 BKN100 22/19 A2998 NOSIG=
201804060000 METAR MROC 060000Z 30004KT 260V030 9999 BKN040 22/19 A2999 NOSIG=
201804060100 METAR MROC 060100Z 27005KT 240V330 9999 FEW040 BKN100 22/19 A3001 NOSIG=
201804060200 METAR MROC 060200Z VRB01KT 9999 -RA FEW040 BKN100 22/19 A3001 NOSIG=
201804060300 METAR MROC 060300Z 22002KT 9999 FEW040 BKN100 21/19 A3004 NOSIG=
201804060400 METAR MROC 060400Z 00000KT 9999 3500SW BCFG FEW002 SCT030 BKN060 21/19 A3005 NOSIG=
201804060500 METAR MROC 060500Z VRB01KT 9999 FEW020 BKN060 21/18 A3005 NOSIG=
201804060600 METAR MROC 060600Z 07003KT 020V110 9999 FEW030 SCT120 21/17 A3003 NOSIG=
201804060700 METAR MROC 060700Z 09006KT 9999 FEW030 BKN120 20/16 A3001 NOSIG=
201804060800 METAR MROC 060800Z 04005KT 9999 FEW025 SCT120 20/16 A3000 NOSIG=
201804060900 METAR MROC 060900Z 03004KT CAVOK 21/16 A3000 NOSIG=
201804061000 METAR MROC 061000Z 06007KT CAVOK 20/17 A3000 NOSIG=
201804061100 METAR MROC 061100Z 07007KT CAVOK 21/16 A3001 NOSIG=
201804061200 METAR MROC 061200Z 08003KT CAVOK 20/16 A3004 NOSIG=
201804061300 METAR MROC 061300Z 00000KT CAVOK 21/16 A3005 NOSIG=
201804061400 METAR MROC 061400Z 07005KT CAVOK 23/16 A3007 NOSIG=
201804061500 METAR MROC 061500Z 10006KT 070V160 CAVOK 25/16 A3007 NOSIG=
201804061600 METAR MROC 061600Z 13008KT 080V170 9999 FEW045 SCT250 27/14 A3006 NOSIG=
201804061700 METAR MROC 061700Z 21007KT 170V250 9999 FEW045 SCT250 27/17 A3004 NOSIG=
201804061800 METAR MROC 061800Z 22009KT 180V260 9999 BKN040 28/17 A3002 NOSIG=
201804061900 METAR MROC 061900Z 22011KT 180V250 9999 SCT040 27/18 A2999 NOSIG=
201804062000 METAR MROC 062000Z 22012KT 9999 SCT035 25/18 A2996 NOSIG=
201804062100 METAR MROC 062100Z 22009KT 9999 VCSH FEW020TCU BKN040 24/19 A2996 NOSIG=
201804062200 METAR MROC 062200Z 22006KT 190V270 9999 3000SW VCSH FEW010 BKN040 21/18 A2997 BECMG 5000 BR=
201804062300 METAR MROC 062300Z 19003KT 140V220 9999 4000E -DZ FEW020 BKN060 21/19 A2998 RERA NOSIG=
201804070000 METAR MROC 070000Z VRB02G12KT 9999 -RA FEW010 BKN050 21/18 A3001 NOSIG=
201804070100 METAR MROC 070100Z 24003KT 9999 -DZ FEW010 OVC050 21/19 A3003 NOSIG=
201804070200 METAR MROC 070200Z 24004KT 9999 -DZ FEW010 OVC050 20/19 A3005 NOSIG=
201804070300 METAR MROC 070300Z VRB02KT 9999 FEW010 OVC050 20/18 A3007 NOSIG=
201804070400 METAR MROC 070400Z 10008KT 9999 -DZ FEW035 BKN050 19/17 A3008 NOSIG=
201804070500 METAR MROC 070500Z 08006KT 9999 FEW035 BKN120 19/17 A3007 NOSIG=
201804070600 METAR MROC 070600Z 08004KT 9999 FEW035 BKN120 19/17 A3007 NOSIG=
201804070700 METAR MROC 070700Z 08005KT 9999 FEW035 BKN120 20/17 A3003 NOSIG=
201804070800 METAR MROC 070800Z 10004KT 060V120 9999 FEW035 BKN120 19/17 A3002 NOSIG=
201804070900 METAR MROC 070900Z 08004KT 9999 FEW035 SCT120 20/17 A3000 NOSIG=
201804071000 METAR MROC 071000Z 08004KT CAVOK 19/17 A3001 NOSIG=
201804071100 METAR MROC 071100Z 03003KT CAVOK 19/17 A3004 NOSIG=
201804071200 METAR MROC 071200Z 08004KT 030V090 CAVOK 19/17 A3004 NOSIG=
201804071300 METAR MROC 071300Z VRB02KT CAVOK 21/17 A3006 NOSIG=
201804071400 METAR MROC 071400Z 00000KT CAVOK 24/17 A3008 NOSIG=
201804071500 METAR MROC 071500Z 35003KT 280V040 CAVOK 25/17 A3007 NOSIG=
201804071600 METAR MROC 071600Z 24003KT CAVOK 27/16 A3004 NOSIG=
201804071700 METAR MROC 071700Z 25011KT 9999 FEW040 28/18 A3003 NOSIG=
201804071800 METAR MROC 071800Z 23013KT 200V260 9999 FEW030 SCT100 27/19 A3001 NOSIG=
201804071900 METAR MROC 071900Z 22010KT 190V260 9999 VCTS FEW020TCU SCT030 BKN080 29/19 A2997 NOSIG=
201804072000 METAR MROC 072000Z 17008KT 130V200 3000 RA VCTS FEW010CB SCT030 BKN070 22/18 A2999 BECMG 5000=
201804072100 METAR MROC 072100Z 15004KT 120V190 9999 4500N -TSRA FEW015CB SCT030 BKN100 22/19 A2998 NOSIG=
201804072200 METAR MROC 072200Z 04005KT 350V070 9999 -RA FEW020 SCT035 BKN070 22/19 A2998 RETS NOSIG=
201804072300 METAR MROC 072300Z 07003KT 030V120 9999 VCTS FEW015TCU BKN060 23/18 A2998 NOSIG=
201804080000 METAR MROC 080000Z 00000KT 9999 VCFG FEW020 SCT040 BKN100 22/19 A3000 NOSIG=
201804080100 METAR MROC 080100Z 22004KT 6000 2500SW -RA BCFG FEW003 SCT020 BKN060 21/20 A3003 NOSIG=
201804080200 METAR MROC 080200Z VRB01KT 8000 3500SW BCFG FEW004 SCT020 BKN070 20/19 A3004 NOSIG=
201804080300 METAR MROC 080300Z 08001KT 7000 3000SW BCFG FEW005 BKN060 20/19 A3004 NOSIG=
201804080400 METAR MROC 080400Z 30002KT 9999 BCFG SCT007 20/19 A3005 NOSIG=
201804080500 METAR MROC 080500Z 17003KT 5000 BR FEW006 20/19 A3003 NOSIG=
201804080600 METAR MROC 080600Z VRB02KT 5000 BR BKN010 20/19 A3002 NOSIG=
201804080700 METAR MROC 080700Z VRB02KT 8000 VCFG SCT007 20/19 A3000 NOSIG=
201804080800 METAR MROC 080800Z 10004KT CAVOK 18/17 A2998 NOSIG=
201804080900 METAR MROC 080900Z 07005KT CAVOK 18/16 A2998 NOSIG=
201804081000 METAR MROC 081000Z 09005KT CAVOK 17/15 A2999 NOSIG=
201804081100 METAR MROC 081100Z 08005KT CAVOK 18/15 A3001 NOSIG=
201804081200 METAR MROC 081200Z 08006KT CAVOK 18/15 A3002 NOSIG=
201804081300 METAR MROC 081300Z 09003KT CAVOK 20/16 A3005 NOSIG=
201804081400 METAR MROC 081400Z VRB01KT CAVOK 23/16 A3006 NOSIG=
201804081500 METAR MROC 081500Z VRB03KT CAVOK 24/18 A3006 NOSIG=
201804081600 METAR MROC 081600Z 28004KT 210V360 CAVOK 26/18 A3005 NOSIG=
201804081700 METAR MROC 081700Z 26007KT 210V330 9999 FEW045 27/18 A3005 NOSIG=
201804081800 METAR MROC 081800Z 24008KT 190V320 9999 FEW045 SCT120 28/18 A3000 NOSIG=
201804081900 METAR MROC 081900Z 26009KT 210V290 9999 FEW040 SCT110 28/18 A2996 NOSIG=
201804082000 METAR MROC 082000Z 30010KT 9999 FEW030 SCT060 BKN150 26/18 A2994 NOSIG=
201804082100 METAR MROC 082100Z 16004KT 110V230 9999 4500SW RA VCTS FEW025CB FEW035 BKN050 24/19 A2994 NOSIG=
201804082200 METAR MROC 082200Z 23005KT 200V270 9999 VCFG FEW015 SCT045 BKN100 23/20 A2994 RERA NOSIG=
201804082300 METAR MROC 082300Z 26004KT 210V330 9999 4500SW BCFG VCFG BKN045 23/20 A2996 NOSIG=
201804090000 METAR MROC 090000Z 28003KT 240V320 9999 2500SW BCFG VCFG SCT012 BKN045 23/20 A2996 NOSIG=
201804090100 METAR MROC 090100Z 24003KT 220V280 9999 FEW010 SCT015 BKN080 22/20 A2997 NOSIG=
201804090200 METAR MROC 090200Z VRB01KT 9999 FEW015 21/20 A2999 NOSIG=
201804090300 METAR MROC 090300Z 08006KT CAVOK 21/17 A3000 NOSIG=
201804090400 METAR MROC 090400Z 10004KT CAVOK 20/16 A3002 NOSIG=
201804090500 METAR MROC 090500Z 04008KT CAVOK 21/16 A3000 NOSIG=
201804090600 METAR MROC 090600Z 03004KT 360V100 CAVOK 21/16 A3000 NOSIG=
201804090700 METAR MROC 090700Z COR 04007KT 020V080 CAVOK 21/16 A2997 NOSIG=
201804090800 METAR MROC 090800Z 08006KT 060V130 CAVOK 20/15 A2996 NOSIG=
201804090900 METAR MROC 090900Z 05006KT 010V120 CAVOK 21/15 A2996 NOSIG=
201804091000 METAR MROC 091000Z 07003KT CAVOK 21/15 A2997 NOSIG=
201804091100 METAR MROC 091100Z 04005KT 010V070 CAVOK 19/14 A2999 NOSIG=
201804091200 METAR MROC 091200Z 03008KT 020V080 CAVOK 20/14 A3000 NOSIG=
201804091300 METAR MROC 091300Z 07004KT 360V130 CAVOK 22/15 A3003 NOSIG=
201804091400 METAR MROC 091400Z 24004KT 210V270 CAVOK 21/16 A3006 NOSIG=
201804091500 METAR MROC 091500Z 27003KT 210V310 CAVOK 23/16 A3007 NOSIG=
201804091600 METAR MROC 091600Z 26005KT 240V300 CAVOK 24/16 A3006 NOSIG=
201804091700 METAR MROC 091700Z 29006KT 240V330 CAVOK 25/17 A3004 NOSIG=
201804091800 METAR MROC 091800Z 30007KT 210V340 CAVOK 28/14 A3000 NOSIG=
201804091900 METAR MROC 091900Z 22009KT 170V250 CAVOK 28/17 A2998 NOSIG=
201804092000 METAR MROC 092000Z 26012KT 210V280 9999 FEW030TCU SCT160 28/18 A2996 NOSIG=
201804092100 METAR MROC 092100Z 21012KT 9999 VCSH FEW025TCU SCT040 BKN100 25/19 A2996 BECMG RA=
201804092200 METAR MROC 092200Z 23011KT 9999 SCT040 BKN200 23/19 A2997 NOSIG=
201804092300 METAR MROC 092300Z 26008KT 230V310 9999 FEW035 SCT060 BKN200 23/19 A2999 NOSIG=
201804100000 METAR MROC 100000Z VRB02KT 9999 BKN035 23/19 A3000 NOSIG=
201804100100 METAR MROC 100100Z 08006KT 9999 BKN035 23/19 A3003 NOSIG=
201804100200 METAR MROC 100200Z 12008KT 9999 FEW035 BKN100 23/17 A3003 NOSIG=
201804100300 METAR MROC 100300Z 11013KT 9999 FEW035 SCT100 22/16 A3005 NOSIG=
201804100400 METAR MROC 100400Z 10010KT 9999 FEW035 22/16 A3006 NOSIG=
201804100500 METAR MROC 100500Z COR 10008KT 060V130 9999 FEW035 22/16 A3006 NOSIG=
201804100600 METAR MROC 100600Z 06010KT CAVOK 21/16 A3005 NOSIG=
201804100700 METAR MROC 100700Z 05007KT CAVOK 21/16 A3003 NOSIG=
201804100800 METAR MROC 100800Z 07006KT 9999 FEW035 SCT100 21/16 A3002 NOSIG=
201804100900 METAR MROC 100900Z 07007KT 9999 FEW035 SCT100 20/16 A3002 NOSIG=
201804101000 METAR MROC 101000Z 08006KT CAVOK 21/17 A3002 NOSIG=
201804101100 METAR MROC 101100Z 06005KT 030V100 CAVOK 20/16 A3003 NOSIG=
201804101200 METAR MROC 101200Z 07006KT CAVOK 21/16 A3004 NOSIG=
201804101300 METAR MROC 101300Z 04008KT 9999 FEW035 22/16 A3006 NOSIG=
201804101400 METAR MROC 101400Z 07009KT 010V130 9999 FEW040 26/16 A3007 NOSIG=
201804101500 METAR MROC 101500Z 10011KT 060V130 9999 FEW040 27/16 A3008 NOSIG=
201804101600 METAR MROC 101600Z 11011KT 060V140 9999 FEW040 28/16 A3008 NOSIG=
201804101700 METAR MROC 101700Z 11012KT 070V140 9999 FEW040 29/17 A3007 NOSIG=
201804101800 METAR MROC 101800Z 11012KT 070V140 9999 SCT040 30/17 A3004 NOSIG=
201804101900 METAR MROC 101900Z 07013KT 9999 FEW040 SCT100 BKN250 28/16 A3002 NOSIG=
201804102000 METAR MROC 102000Z 08011KT 9999 4000SW -SHRA VCTS FEW020CB FEW025TCU FEW040 SCT060 27/16 A2998 BECMG 22006KT TSRA=
201804102100 METAR MROC 102100Z 22008KT 200V260 9999 VCTS VCSH FEW020CB BKN060 24/18 A2999 NOSIG=
201804102200 METAR MROC 102200Z 27007KT 250V310 9999 FEW030 BKN070 23/18 A3000 NOSIG=
201804102300 METAR MROC 102300Z 28005KT 230V320 9999 BKN045 23/19 A3001 NOSIG=
201804110000 METAR MROC 110000Z 30003KT 250V330 9999 FEW030 BKN060 22/19 A3003 NOSIG=
201804110100 METAR MROC 110100Z 27004KT 240V310 9999 FEW035 SCT080 22/19 A3004 NOSIG=
201804110200 METAR MROC 110200Z VRB02KT 9999 SCT030 21/18 A3006 NOSIG=
201804110300 METAR MROC 110300Z 33002KT 9999 SCT030 22/19 A3007 NOSIG=
201804110400 METAR MROC 110400Z 16002KT 9999 FEW020 21/19 A3008 NOSIG=
201804110500 METAR MROC 110500Z 12003KT 9999 R07/0800D BCFG FEW005 SCT025 21/17 A3006 NOSIG=
201804110600 METAR MROC 110600Z 09003KT 9999 BKN035 20/18 A3005 NOSIG=
201804110700 METAR MROC 110700Z VRB01KT 9999 BKN030 21/18 A3003 NOSIG=
201804110800 METAR MROC 110800Z 07007KT 9999 BKN045 21/16 A3001 NOSIG=
201804110900 METAR MROC 110900Z 07006KT CAVOK 21/16 A3001 NOSIG=
201804111000 METAR MROC 111000Z 11007KT CAVOK 21/16 A3001 NOSIG=
201804111100 METAR MROC 111100Z 08009KT CAVOK 21/15 A3002 NOSIG=
201804111200 METAR MROC 111200Z 04008KT CAVOK 21/15 A3005 NOSIG=
201804111300 METAR MROC 111300Z 12008KT 090V170 CAVOK 22/15 A3008 NOSIG=
201804111400 METAR MROC 111400Z 10008KT 070V130 CAVOK 24/15 A3009 NOSIG=
201804111500 METAR MROC 111500Z 12008KT 080V200 CAVOK 26/15 A3009 NOSIG=
201804111600 METAR MROC 111600Z 11010KT 070V140 9999 FEW045 BKN130 25/16 A3011 NOSIG=
201804111700 METAR MROC 111700Z 13010KT 100V180 9999 SCT045 OVC130 24/16 A3009 NOSIG=
201804111800 METAR MROC 111800Z 11013KT 080V140 9999 SCT045 OVC140 24/15 A3007 NOSIG=
201804111900 METAR MROC 111900Z 11010KT 080V140 9999 SCT040 OVC140 25/14 A3005 NOSIG=
201804112000 METAR MROC 112000Z 11010KT 020V150 9999 SCT045 OVC160 25/14 A3002 NOSIG=
201804112100 METAR MROC 112100Z 12013KT 090V160 9999 FEW040 BKN200 26/14 A3001 NOSIG=
201804112200 METAR MROC 112200Z 13012KT 100V170 9999 FEW040 BKN200 25/15 A3000 NOSIG=
201804112300 METAR MROC 112300Z 11013KT CAVOK 25/13 A3001 NOSIG=
201804120000 METAR MROC 120000Z 12012KT CAVOK 24/10 A3003 NOSIG=
201804120100 METAR MROC 120100Z 11010KT CAVOK 23/13 A3005 NOSIG=
201804120200 METAR MROC 120200Z 11009KT 080V140 CAVOK 22/14 A3007 NOSIG=
201804120300 METAR MROC 120300Z 10009KT CAVOK 22/14 A3008 NOSIG=
201804120400 METAR MROC 120400Z 10008KT 060V120 CAVOK 21/14 A3008 NOSIG=
201804120500 METAR MROC 120500Z 07007KT 010V100 CAVOK 22/13 A3007 NOSIG=
201804120600 METAR MROC 120600Z 08007KT CAVOK 20/13 A3005 NOSIG=
201804120700 METAR MROC 120700Z 07006KT CAVOK 19/12 A3003 NOSIG=
201804120800 METAR MROC 120800Z 09006KT CAVOK 19/13 A3002 NOSIG=
201804120900 METAR MROC 120900Z 05007KT CAVOK 18/13 A3000 NOSIG=
201804121000 METAR MROC 121000Z 05005KT 010V110 CAVOK 17/12 A3001 NOSIG=
201804121100 METAR MROC 121100Z 10008KT CAVOK 19/14 A3002 NOSIG=
201804121200 METAR MROC 121200Z 09008KT CAVOK 20/14 A3003 NOSIG=
201804121300 METAR MROC 121300Z 09009KT 060V140 CAVOK 22/15 A3005 NOSIG=
201804121400 METAR MROC 121400Z 10010KT 070V140 CAVOK 24/14 A3006 NOSIG=
201804121500 METAR MROC 121500Z 11007G17KT 080V180 CAVOK 26/13 A3006 NOSIG=
201804121600 METAR MROC 121600Z 12009KT 090V160 CAVOK 28/14 A3006 NOSIG=
201804121700 METAR MROC 121700Z 11009KT 060V160 9999 FEW045 28/14 A3005 BECMG 24007KT=
201804121800 METAR MROC 121800Z 11010KT 080V160 9999 SCT040 30/15 A3002 BECMG 24007KT=
201804121900 METAR MROC 121900Z 10010KT 070V150 9999 BKN040 28/14 A3000 NOSIG=
201804122000 METAR MROC 122000Z 21005KT 9999 SCT040 BKN080 28/17 A2997 NOSIG=
201804122100 METAR MROC 122100Z 19009KT 150V220 9999 FEW040 BKN080 26/19 A2996 NOSIG=
201804122200 METAR MROC 122200Z 29009KT 250V340 9999 TS VCSH FEW020CB SCT035 BKN060 24/19 A2997 NOSIG=
201804122300 METAR MROC 122300Z 11006KT 070V150 9999 VCTS FEW020CB FEW030 BKN080 23/16 A2998 RETS NOSIG=
201804130000 METAR MROC 130000Z 30006KT 270V030 9999 -RA FEW025 BKN070 22/18 A3003 NOSIG=
201804130100 METAR MROC 130100Z 10009KT 070V130 9999 FEW025 BKN130 22/16 A3006 NOSIG=
201804130200 METAR MROC 130200Z 08007KT 040V130 9999 FEW025 SCT130 22/16 A3005 NOSIG=
201804130300 METAR MROC 130300Z 09009KT 060V120 9999 FEW040 21/16 A3006 NOSIG=
201804130400 METAR MROC 130400Z 07009KT 050V110 CAVOK 21/16 A3007 NOSIG=
201804130500 METAR MROC 130500Z 08005KT 040V100 CAVOK 21/16 A3007 NOSIG=
201804130600 METAR MROC 130600Z 08007KT CAVOK 20/16 A3005 NOSIG=
201804130700 METAR MROC 130700Z 10007KT 080V140 CAVOK 21/16 A3004 NOSIG=
201804130800 METAR MROC 130800Z 06006KT CAVOK 20/16 A3002 NOSIG=
201804130900 METAR MROC 130900Z 02005KT CAVOK 19/16 A3000 NOSIG=
201804131000 METAR MROC 131000Z 08005KT CAVOK 21/16 A3000 NOSIG=
201804131100 METAR MROC 131100Z 08007KT CAVOK 20/16 A3001 NOSIG=
201804131200 METAR MROC 131200Z 07007KT 9999 FEW035 SCT250 20/16 A3002 NOSIG=
201804131300 METAR MROC 131300Z 09011KT 9999 FEW035 BKN220 23/17 A3003 NOSIG=
201804131400 METAR MROC 131400Z 10013G24KT 9999 FEW030 BKN220 25/17 A3004 NOSIG=
201804131500 METAR MROC 131500Z 10015KT 9999 FEW030 BKN220 26/17 A3005 NOSIG=
201804131600 METAR MROC 131600Z 11015G25KT 9999 FEW030 BKN200 27/17 A3005 NOSIG=
201804131700 METAR MROC 131700Z 12011KT 080V150 9999 FEW040 BKN180 27/17 A3004 NOSIG=
201804131800 METAR MROC 131800Z 11010KT 080V150 9999 FEW030 SCT080 27/17 A3002 BECMG 24007KT=
201804131900 METAR MROC 131900Z 14009KT 120V180 9999 VCTS FEW025CB FEW030 BKN080 26/17 A2998 BECMG 24007KT=
201804132000 METAR MROC 132000Z 16007KT 120V200 9999 VCTS VCSH FEW020CB FEW025 BKN080 26/17 A2997 BECMG TSRA=
201804132100 METAR MROC 132100Z 13012KT 100V160 9999 VCTS VCSH FEW020TCU FEW020 BKN040 24/17 A2996 NOSIG=
201804132200 METAR MROC 132200Z 32005KT 290V360 9999 4500SW BCFG SCT030 OVC070 23/19 A2997 NOSIG=
201804132300 METAR MROC 132300Z 15005KT 080V220 9999 BCFG FEW045 BKN120 24/15 A3000 NOSIG=
201804140000 METAR MROC 140000Z 05004KT 320V090 9999 BKN040 22/19 A3001 NOSIG=
201804140100 METAR MROC 140100Z 10006KT 9999 FEW015 SCT040 22/16 A3003 NOSIG=
201804140200 METAR MROC 140200Z 11008KT CAVOK 22/16 A3005 NOSIG=
201804140300 METAR MROC 140300Z 10007KT CAVOK 22/16 A3007 NOSIG=
201804140400 METAR MROC 140400Z 09005KT 060V130 CAVOK 21/16 A3007 NOSIG=
201804140500 MROC 140500Z 09005KT 030V140 CAVOK 21/16 A3006 NOSIG=
201804140600 MROC 140600Z 07008KT CAVOK 21/16 A3003 NOSIG=
201804140700 METAR MROC 140700Z 08006KT CAVOK 21/16 A3000 NOSIG=
201804140800 METAR MROC 140800Z 07005KT CAVOK 20/15 A2998 NOSIG=
201804140900 METAR MROC 140900Z VRB02KT CAVOK 19/15 A2998 NOSIG=
201804141000 METAR MROC 141000Z 08003KT CAVOK 18/15 A2999 NOSIG=
201804141100 METAR MROC 141100Z 09005KT CAVOK 18/15 A3000 NOSIG=
201804141200 METAR MROC 141200Z 08007KT CAVOK 18/15 A3003 NOSIG=
201804141300 METAR MROC 141300Z 10004KT CAVOK 21/16 A3004 NOSIG=
201804141400 METAR MROC 141400Z 11010KT 070V140 CAVOK 24/15 A3006 BECMG 24007KT=
201804141500 METAR MROC 141500Z 12009KT 070V160 CAVOK 26/15 A3005 NOSIG=
201804141600 METAR MROC 141600Z 12011KT 090V170 CAVOK 28/15 A3004 NOSIG=
201804141700 METAR MROC 141700Z VRB05KT 9999 FEW045 SCT150 28/17 A3003 NOSIG=
201804141800 METAR MROC 141800Z 22006KT 120V290 9999 FEW040TCU SCT050 28/17 A3000 NOSIG=
201804141900 METAR MROC 141900Z 25011KT 9999 FEW020TCU FEW025 BKN045 27/18 A2998 NOSIG=
201804142000 METAR MROC 142000Z 24010KT 9999 FEW045 SCT250 28/20 A2995 NOSIG=
201804142100 METAR MROC 142100Z 26013KT 220V290 9999 FEW025 SCT035 27/20 A2994 NOSIG=
201804142200 METAR MROC 142200Z 22012KT 9999 VCSH FEW020 BKN030 26/20 A2994 NOSIG=
201804142231 METAR MROC 142231Z 20008KT 9999 -TSRA FEW015CB BKN030 23/20 A2997 NOSIG=
201804142300 METAR MROC 142300Z 23006KT 9999 4500N -TSRA FEW015CB FEW020TCU BKN030 23/20 A2997 BECMG +TSRA=
201804150000 METAR MROC 150000Z VRB02KT 9999 -RA FEW015 BKN025 22/18 A2999 RETS BECMG 06006KT=
201804150100 METAR MROC 150100Z 06006KT 9999 -RA SCT025 BKN100 21/19 A3000 NOSIG=
201804150200 METAR MROC 150200Z VRB02KT 9999 FEW025 BKN045 22/20 A3002 NOSIG=
201804150300 METAR MROC 150300Z 00000KT 9999 FEW020 BKN045 21/19 A3005 NOSIG=
201804150400 METAR COR MROC 150400Z VRB02KT 9999 VCFG FEW020 21/20 A3006 NOSIG=
201804150500 METAR MROC 150500Z 12003KT 9999 4500W BCFG FEW010 20/20 A3006 NOSIG=
201804150600 METAR MROC 150600Z 36004KT 340V040 9999 VCFG FEW020 19/19 A3003 NOSIG=
201804150700 METAR MROC 150700Z 06005KT CAVOK 19/17 A3002 NOSIG=
201804150800 METAR MROC 150800Z 07005KT CAVOK 18/16 A3000 NOSIG=
201804150900 METAR MROC 150900Z 07006KT CAVOK 18/16 A3000 NOSIG=
201804151000 METAR MROC 151000Z 05007KT CAVOK 18/15 A3000 NOSIG=
201804151100 METAR MROC 151100Z 09007KT CAVOK 18/15 A3001 NOSIG=
201804151200 METAR MROC 151200Z 07010KT CAVOK 19/15 A3003 NOSIG=
201804151300 METAR MROC 151300Z 08005KT CAVOK 23/15 A3006 NOSIG=
201804151400 METAR MROC 151400Z 10009KT CAVOK 25/15 A3007 NOSIG=
201804151500 METAR MROC 151500Z 11007KT 060V140 CAVOK 27/15 A3007 NOSIG=
201804151600 METAR MROC 151600Z 14008KT 090V190 CAVOK 29/14 A3006 BECMG 23007KT=
201804151620 METAR MROC 151620Z 23007KT 180V280 CAVOK 29/16 A3006 NOSIG=
201804151700 METAR MROC 151700Z 26010KT 230V290 CAVOK 29/17 A3006 NOSIG=
201804151800 METAR MROC 151800Z 21010KT 170V250 9999 FEW045 30/18 A3004 NOSIG=
201804151900 METAR MROC 151900Z 25011KT 210V310 9999 FEW045 SCT250 29/18 A3002 NOSIG=
201804152000 METAR MROC 152000Z 23011KT 190V280 9999 FEW040 SCT250 29/20 A2998 NOSIG=
201804152100 METAR MROC 152100Z 23010KT 200V260 9999 BKN030 27/20 A2997 NOSIG=
201804152125 METAR MROC 152125Z 03006KT 9999 3000N -TSRA BKN020CB 21/20 A2997 NOSIG=
201804152200 METAR MROC 152200Z 33009KT 300V360 9999 BKN030 21/19 A2997 NOSIG=
201804152300 METAR MROC 152300Z 18005KT 9999 SCT030 BKN100 22/20 A2998 NOSIG=
201804160000 METAR MROC 160000Z VRB02KT 9999 SCT030 BKN080 23/20 A3002 NOSIG=
201804160100 METAR MROC 160100Z VRB02KT 9999 FEW030 SCT100 23/19 A3004 NOSIG=
201804160200 METAR MROC 160200Z 10006KT 9999 FEW030 SCT100 21/16 A3005 NOSIG=
201804160300 METAR MROC 160300Z 14006KT 9999 FEW030 SCT100 21/15 A3007 NOSIG=
201804160400 METAR MROC 160400Z 10010G20KT CAVOK 22/15 A3009 NOSIG=
201804160500 METAR MROC 160500Z 11012KT CAVOK 21/16 A3008 NOSIG=
201804160600 METAR MROC 160600Z 11009KT CAVOK 21/15 A3006 NOSIG=
201804160700 METAR MROC 160700Z 11006KT 070V160 CAVOK 21/14 A3006 NOSIG=
201804160800 METAR MROC 160800Z 08006KT CAVOK 18/14 A3005 NOSIG=
201804160900 METAR MROC 160900Z 10009KT 060V140 CAVOK 20/15 A3004 NOSIG=
201804161000 METAR MROC 161000Z 10010KT 060V170 CAVOK 21/13 A3003 NOSIG=
201804161100 METAR MROC 161100Z 06007KT 010V120 CAVOK 20/14 A3004 NOSIG=
201804161200 METAR MROC 161200Z 06009KT 030V090 CAVOK 21/14 A3005 NOSIG=
201804161300 METAR MROC 161300Z 08009KT 360V130 CAVOK 23/15 A3005 NOSIG=
201804161400 METAR MROC 161400Z 11015G27KT CAVOK 25/16 A3007 NOSIG=
201804161500 METAR MROC 161500Z 11010G20KT 060V130 CAVOK 27/15 A3007 NOSIG=
201804161600 METAR MROC 161600Z 09016G26KT 9999 FEW045 27/16 A3008 NOSIG=
201804161700 METAR MROC 161700Z 10016G26KT CAVOK 27/16 A3008 NOSIG=
201804161800 METAR MROC 161800Z 08013G23KT 9999 FEW045 28/15 A3006 NOSIG=
201804161900 METAR MROC 161900Z 08014KT 050V110 9999 FEW045 29/15 A3003 NOSIG=
201804162000 METAR MROC 162000Z 07018KT 9999 FEW045 29/15 A3000 NOSIG=
201804162100 METAR MROC 162100Z 09015KT 9999 FEW045 29/16 A2998 NOSIG=
201804162200 METAR MROC 162200Z 08012G22KT 9999 FEW045 27/16 A2998 NOSIG=
201804162300 METAR MROC 162300Z 09014KT 9999 FEW045 25/15 A2999 NOSIG=
201804170000 METAR MROC 170000Z 11013KT 080V140 9999 FEW040 23/16 A3000 NOSIG=
201804170100 METAR MROC 170100Z 10013KT CAVOK 22/16 A3003 NOSIG=
201804170200 METAR MROC 170200Z 10015KT CAVOK 22/16 A3005 NOSIG=
201804170300 METAR MROC 170300Z 10015KT 070V130 CAVOK 22/16 A3006 NOSIG=
201804170400 METAR MROC 170400Z 11012KT 080V140 CAVOK 22/16 A3007 NOSIG=
201804170500 METAR MROC 170500Z 08013KT 030V110 CAVOK 22/16 A3006 NOSIG=
201804170600 METAR MROC 170600Z 11014KT 080V140 CAVOK 22/16 A3004 NOSIG=
201804170700 METAR MROC 170700Z 10013G23KT CAVOK 22/16 A3003 NOSIG=
201804170800 METAR MROC 170800Z 11016KT CAVOK 22/16 A3000 NOSIG=
201804170900 METAR MROC 170900Z 11013G24KT 090V150 CAVOK 22/16 A2998 NOSIG=
201804171000 METAR MROC 171000Z 05007KT CAVOK 21/15 A2999 NOSIG=
201804171100 METAR MROC 171100Z 08009KT CAVOK 20/15 A3000 NOSIG=
201804171200 METAR MROC 171200Z 07006KT 030V100 9999 FEW035 21/17 A3002 NOSIG=
201804171300 METAR MROC 171300Z COR 06009KT 330V120 9999 FEW045 23/17 A3003 NOSIG=
201804171400 METAR MROC 171400Z 10016KT 070V130 9999 FEW045 24/17 A3004 NOSIG=
201804171500 METAR MROC 171500Z 11019G29KT 9999 FEW045 25/17 A3004 NOSIG=
201804171600 METAR MROC 171600Z 11017G27KT 9999 FEW040 27/17 A3004 NOSIG=
201804171700 METAR MROC 171700Z 10017KT 9999 FEW040 27/17 A3004 NOSIG=
201804171800 METAR MROC 171800Z 11019KT 9999 FEW040 27/16 A3001 NOSIG=
201804171900 METAR MROC 171900Z 10017G28KT 9999 SCT040 28/16 A2999 NOSIG=
201804172000 METAR MROC 172000Z 10015KT 9999 SCT040 27/17 A2998 NOSIG=
201804172100 METAR MROC 172100Z 11015KT 9999 FEW035 27/17 A2997 NOSIG=
201804172200 METAR MROC 172200Z 11015G25KT 080V150 9999 FEW025 26/17 A2996 NOSIG=
201804172300 METAR MROC 172300Z 11013G23KT 9999 FEW020 23/17 A2996 NOSIG=
201804180000 METAR MROC 180000Z 11012G22KT 9999 SCT020 23/15 A3000 NOSIG=
201804180100 METAR MROC 180100Z 11013KT 9999 FEW035 22/16 A3001 NOSIG=
201804180200 METAR MROC 180200Z 11011KT 080V140 9999 FEW045 22/16 A3003 NOSIG=
201804180300 METAR MROC 180300Z 10012KT 9999 FEW045 21/17 A3004 NOSIG=
201804180400 METAR MROC 180400Z 11009KT CAVOK 21/16 A3005 NOSIG=
201804180500 METAR MROC 180500Z 10008KT CAVOK 22/16 A3003 NOSIG=
201804180600 METAR MROC 180600Z 09009KT 050V110 CAVOK 21/16 A3003 NOSIG=
201804180700 METAR MROC 180700Z 07006KT 040V110 CAVOK 21/16 A3001 NOSIG=
201804180800 METAR MROC 180800Z 08004KT 050V140 CAVOK 21/16 A2998 NOSIG=
201804180900 METAR MROC 180900Z 11011KT CAVOK 21/15 A2996 NOSIG=
201804181000 METAR MROC 181000Z 09010KT CAVOK 21/15 A2997 NOSIG=
201804181100 METAR MROC 181100Z 07009KT 030V110 CAVOK 21/15 A2998 NOSIG=
201804181200 METAR MROC 181200Z 09010KT CAVOK 21/15 A3000 NOSIG=
201804181300 METAR MROC 181300Z 09010G20KT 050V120 CAVOK 22/15 A3001 NOSIG=
201804181400 METAR MROC 181400Z 11014G24KT CAVOK 24/15 A3002 NOSIG=
201804181500 METAR MROC 181500Z 11011G21KT 080V150 CAVOK 27/16 A3004 NOSIG=
201804181600 METAR MROC 181600Z 10012G22KT 070V130 9999 FEW045 27/16 A3003 NOSIG=
201804181700 METAR MROC 181700Z 10012G22KT 070V140 9999 FEW045 28/16 A3002 NOSIG=
201804181800 METAR MROC 181800Z 12011G21KT 080V160 9999 SCT045 29/16 A3000 NOSIG=
201804181900 METAR MROC 181900Z 11010G20KT 9999 FEW045 30/17 A2997 NOSIG=
201804182000 METAR MROC 182000Z 09012G22KT 060V120 9999 FEW045 29/16 A2995 NOSIG=
201804182100 METAR MROC 182100Z 10011KT 070V130 9999 FEW045 SCT250 29/16 A2994 NOSIG=
201804182200 METAR MROC 182200Z 10012KT 080V140 9999 FEW025TCU FEW040 SCT250 28/16 A2994 NOSIG=
201804182300 METAR MROC 182300Z 10014KT 090V150 9999 FEW020 BKN250 25/17 A2996 NOSIG=
201804190000 METAR MROC 190000Z 10010KT 040V140 9999 FEW030 SCT250 23/16 A2999 NOSIG=
201804190100 METAR MROC 190100Z 10010KT 070V130 9999 FEW020 SCT100 23/16 A3000 NOSIG=
201804190200 METAR MROC 190200Z 09008KT CAVOK 22/16 A3000 NOSIG=
201804190300 METAR MROC 190300Z 08004KT 040V120 CAVOK 21/17 A3003 NOSIG=
201804190400 METAR MROC 190400Z 10007KT 070V130 CAVOK 22/17 A3003 NOSIG=
201804190500 METAR MROC 190500Z 07007KT CAVOK 21/16 A3001 NOSIG=
201804190600 METAR MROC 190600Z 11017KT CAVOK 21/16 A2998 NOSIG=
201804190700 METAR MROC 190700Z 10016G26KT CAVOK 22/16 A2996 NOSIG=
201804190800 METAR MROC 190800Z 11015G25KT CAVOK 21/17 A2994 NOSIG=
201804190900 METAR MROC 190900Z 11016G26KT CAVOK 22/17 A2994 NOSIG=
201804191000 METAR MROC 191000Z 11012G23KT 080V140 CAVOK 22/17 A2995 NOSIG=
201804191100 METAR MROC 191100Z 08008KT 040V110 CAVOK 21/17 A2997 NOSIG=
201804191200 METAR MROC 191200Z 11013KT 070V130 9999 FEW040 22/17 A2997 NOSIG=
201804191300 METAR MROC 191300Z 12011G21KT 9999 FEW035 SCT200 23/17 A2999 NOSIG=
201804191400 METAR MROC 191400Z 12015G25KT 9999 FEW040 SCT250 25/18 A3002 NOSIG=
201804191500 METAR MROC 191500Z 11014G24KT 9999 FEW030 SCT200 26/18 A3003 NOSIG=
201804191600 METAR MROC 191600Z 11014G24KT 9999 SCT040 27/17 A3003 NOSIG=
201804191700 METAR MROC 191700Z 11010G20KT 9999 BKN045 27/17 A3004 NOSIG=
201804191800 METAR MROC 191800Z 12011KT 090V150 9999 BKN045 27/17 A3001 NOSIG=
201804191900 METAR MROC 191900Z 11013KT 080V140 9999 BKN035 28/17 A3000 NOSIG=
201804192000 METAR MROC 192000Z 11011KT 080V150 9999 FEW035 SCT070 28/17 A2998 NOSIG=
201804192100 METAR MROC 192100Z 12014KT 9999 SCT030 SCT060 28/17 A2996 NOSIG=
201804192200 METAR MROC 192200Z 11013KT 080V140 9999 FEW040 SCT200 26/17 A2997 NOSIG=
201804192300 METAR MROC 192300Z 11016KT 9999 FEW030 SCT120 BKN200 25/17 A2997 NOSIG=
201804200000 METAR MROC 200000Z 10014G24KT 9999 FEW030 SCT250 24/16 A2998 NOSIG=
201804200100 METAR MROC 200100Z 10013G23KT 9999 FEW030 SCT120 23/16 A3000 NOSIG=
201804200200 METAR MROC 200200Z 10014KT 9999 FEW030 23/16 A3001 NOSIG=
201804200300 METAR MROC 200300Z 10015G25KT 9999 FEW030 24/15 A3003 NOSIG=
201804200400 METAR MROC 200400Z 10014G24KT 9999 FEW035 22/16 A3004 NOSIG=
201804200500 METAR MROC 200500Z 10014G24KT CAVOK 22/16 A3002 NOSIG=
201804200600 METAR MROC 200600Z 10015G25KT CAVOK 22/16 A3000 NOSIG=
201804200700 METAR MROC 200700Z 09011G26KT 040V150 CAVOK 22/17 A2999 NOSIG=
201804200800 METAR MROC 200800Z 10011G21KT 070V130 CAVOK 22/16 A2996 NOSIG=
201804200900 METAR MROC 200900Z 10016G26KT CAVOK 22/17 A2995 NOSIG=
201804201000 METAR MROC 201000Z 10015G25KT CAVOK 21/17 A2996 NOSIG=
201804201100 METAR MROC 201100Z 11016G26KT 9999 FEW045 22/17 A2997 NOSIG=
201804201200 METAR MROC 201200Z 11020G32KT 9999 FEW040 SCT250 22/17 A2997 NOSIG=
201804201300 METAR MROC 201300Z 10020G30KT 080V140 9999 FEW035 BKN250 23/17 A2998 NOSIG=
201804201400 METAR MROC 201400Z 10018G28KT 9999 FEW040 SCT250 25/17 A3000 NOSIG=
201804201500 METAR MROC 201500Z 11019G29KT 9999 FEW040 26/17 A3000 NOSIG=
201804201600 METAR MROC 201600Z 10018G28KT 070V130 9999 FEW045 28/17 A3002 WS R07 NOSIG=
201804201700 METAR MROC 201700Z 09015G25KT 9999 FEW045 29/17 A3001 WS R07 NOSIG=
201804201800 METAR MROC 201800Z 08016G26KT 9999 FEW040 SCT060 30/16 A2999 WS R07 NOSIG=
201804201900 METAR MROC 201900Z 07016G26KT 9999 FEW040 SCT060 28/17 A2997 WS R07 NOSIG=
201804202000 METAR MROC 202000Z 08015KT 9999 FEW040 SCT080 29/17 A2994 WS R07 NOSIG=
201804202100 METAR MROC 202100Z 10011G21KT 070V130 9999 FEW045 SCT080 28/17 A2993 NOSIG=
201804202200 METAR MROC 202200Z 10014KT 9999 SCT040 BKN080 25/15 A2995 NOSIG=
201804202300 METAR MROC 202300Z 09016KT 060V120 9999 FEW035 SCT100 25/16 A2995 NOSIG=
201804210000 METAR MROC 210000Z 12013KT 9999 FEW035 24/16 A2997 NOSIG=
201804210100 METAR MROC 210100Z 12013KT CAVOK 23/16 A3000 NOSIG=
201804210200 METAR MROC 210200Z 11009KT 080V140 CAVOK 23/17 A3001 NOSIG=
201804210300 METAR MROC 210300Z 05005KT CAVOK 22/16 A3001 NOSIG=
201804210400 METAR MROC 210400Z 08009KT 050V110 CAVOK 23/16 A3001 NOSIG=
201804210500 METAR MROC 210500Z 11014G25KT 080V140 9999 FEW025 23/16 A3001 NOSIG=
201804210600 METAR MROC 210600Z 10011G21KT 050V120 CAVOK 23/16 A3000 NOSIG=
201804210700 METAR MROC 210700Z 07009KT 030V110 CAVOK 22/16 A2997 NOSIG=
201804210800 METAR MROC 210800Z 06007KT 010V110 CAVOK 22/17 A2995 NOSIG=
201804210900 METAR MROC 210900Z 07008KT 030V110 CAVOK 22/16 A2996 NOSIG=
201804211000 METAR MROC 211000Z 07010KT CAVOK 22/16 A2993 NOSIG=
201804211100 METAR MROC 211100Z 09012G24KT 060V130 CAVOK 23/17 A2995 NOSIG=
201804211200 METAR MROC 211200Z 10012G22KT 080V150 CAVOK 23/17 A2996 NOSIG=
201804211300 METAR MROC 211300Z COR 10014G27KT CAVOK 24/18 A2998 NOSIG=
201804211400 METAR MROC 211400Z 11016G29KT 9999 FEW045 26/18 A2998 NOSIG=
201804211500 METAR MROC 211500Z 11015KT 080V140 9999 FEW045 27/18 A2999 NOSIG=
201804211600 METAR MROC 211600Z 11014KT CAVOK 29/17 A2999 NOSIG=
201804211700 METAR MROC 211700Z 11010KT 060V150 CAVOK 30/16 A2999 NOSIG=
201804211800 METAR MROC 211800Z 13008KT 080V180 9999 FEW045 SCT100 32/16 A2996 NOSIG=
201804211900 METAR MROC 211900Z 21008KT 160V250 9999 VCTS FEW035 BKN070 29/19 A2994 NOSIG=
201804212000 METAR MROC 212000Z 22010KT 190V250 9999 VCTS FEW035 SCT080 BKN220 27/20 A2993 NOSIG=
201804212100 METAR MROC 212100Z 21006KT 180V250 9999 FEW040 BKN070 25/20 A2993 NOSIG=
201804212200 METAR MROC 212200Z VRB04KT 9999 FEW040 BKN100 24/21 A2993 NOSIG=
201804212300 METAR MROC 212300Z 17004KT 110V210 9999 FEW040 BKN100 24/21 A2994 NOSIG=
201804220000 METAR MROC 220000Z 16004KT 120V190 9999 FEW040 BKN100 24/18 A2996 NOSIG=
201804220100 METAR MROC 220100Z 10006KT 060V160 9999 FEW040 BKN100 24/19 A3000 NOSIG=
201804220200 METAR MROC 220200Z 11006KT 070V150 9999 FEW040 BKN120 23/18 A3002 NOSIG=
201804220300 METAR MROC 220300Z 07005KT 340V100 9999 FEW040 BKN120 23/19 A3003 NOSIG=
201804220400 METAR MROC 220400Z 08004KT 040V130 CAVOK 23/18 A3002 NOSIG=
201804220500 METAR MROC 220500Z 11012KT CAVOK 23/18 A3001 NOSIG=
201804220600 METAR MROC 220600Z 08008KT 060V120 CAVOK 23/17 A2999 NOSIG=
201804220700 METAR MROC 220700Z VRB02KT CAVOK 22/18 A2998 NOSIG=
201804220800 METAR MROC 220800Z 10010G20KT 060V120 CAVOK 23/18 A2996 NOSIG=
201804220900 METAR MROC 220900Z 08010G20KT 040V110 9999 FEW030 SCT120 23/17 A2994 NOSIG=
201804221000 METAR MROC 221000Z 11011G21KT 080V160 9999 FEW030 SCT120 23/17 A2995 NOSIG=
201804221100 METAR MROC 221100Z 02003KT 320V070 CAVOK 23/17 A2995 NOSIG=
201804221200 METAR MROC 221200Z 10010G20KT 070V140 9999 FEW030 SCT120 BKN200 23/17 A2997 NOSIG=
201804221300 METAR MROC 221300Z 10011KT 050V140 9999 FEW040 BKN120 24/18 A2999 NOSIG=
201804221400 METAR MROC 221400Z 11010KT 080V150 9999 FEW040 BKN140 25/18 A3001 NOSIG=
201804221500 METAR MROC 221500Z 11014KT 070V140 9999 FEW040 SCT140 BKN250 27/18 A3002 NOSIG=
201804221600 METAR MROC 221600Z 11012KT 080V150 9999 FEW040 BKN250 28/17 A3001 NOSIG=
201804221700 METAR MROC 221700Z 09010KT 060V130 9999 FEW040 BKN200 29/17 A3001 NOSIG=
201804221800 METAR MROC 221800Z 11013KT 080V150 9999 FEW040 BKN200 29/17 A2999 NOSIG=
201804221900 METAR MROC 221900Z 13010KT 090V160 9999 FEW040 BKN200 30/17 A2994 NOSIG=
201804222000 METAR MROC 222000Z 10010KT 070V150 9999 FEW040 BKN200 29/17 A2992 NOSIG=
201804222100 METAR MROC 222100Z 22006KT 180V260 9999 VCTS FEW020TCU FEW025 SCT110 27/21 A2991 NOSIG=
201804222200 METAR MROC 222200Z 22008KT 180V290 9999 VCTS VCSH FEW020TCU FEW025 SCT110 26/21 A2991 BECMG RA=
201804222300 METAR MROC 222300Z 29006KT 260V330 9999 FEW030 SCT060 26/20 A2993 NOSIG=
201804230000 METAR MROC 230000Z 10006KT 040V150 9999 FEW020 BKN050 23/19 A2996 RERA NOSIG=
201804230100 METAR MROC 230100Z 11009KT 9999 FEW025 BKN070 23/17 A2998 NOSIG=
201804230200 METAR COR MROC 230200Z 11012KT 9999 FEW030 SCT140 23/17 A2999 NOSIG=
201804230300 METAR MROC 230300Z 11011KT 9999 FEW035 SCT130 22/16 A3000 NOSIG=
201804230400 METAR MROC 230400Z 09007KT 050V140 CAVOK 22/17 A3003 NOSIG=
201804230500 METAR MROC 230500Z VRB07KT CAVOK 23/16 A3002 NOSIG=
201804230600 METAR MROC 230600Z 11009KT CAVOK 22/17 A3001 NOSIG=
201804230700 METAR MROC 230700Z 08006KT 050V110 CAVOK 22/17 A2998 NOSIG=
201804230800 METAR MROC 230800Z 08009KT 050V110 CAVOK 22/17 A2996 NOSIG=
201804230900 METAR MROC 230900Z 10010KT 070V130 CAVOK 21/16 A2997 NOSIG=
201804231000 METAR MROC 231000Z 08010KT 060V120 CAVOK 22/17 A2996 NOSIG=
201804231100 METAR MROC 231100Z 05006KT CAVOK 21/17 A2998 NOSIG=
201804231200 METAR MROC 231200Z 04010KT 9999 FEW035 SCT070 BKN200 21/17 A2999 NOSIG=
201804231300 METAR MROC 231300Z 09012G22KT 060V120 9999 FEW035 BKN200 23/18 A3000 NOSIG=
201804231400 METAR MROC 231400Z 10015G25KT 9999 FEW035 BKN200 24/18 A3001 NOSIG=
201804231500 METAR MROC 231500Z 11015KT 9999 FEW035 BKN200 25/18 A3001 NOSIG=
201804231600 METAR MROC 231600Z 12014G24KT 9999 FEW035 BKN200 26/19 A3002 NOSIG=
201804231700 METAR MROC 231700Z 10010G20KT 9999 FEW035 BKN250 29/18 A3000 NOSIG=
201804231800 METAR MROC 231800Z 13016G27KT 9999 FEW035 BKN200 28/18 A2998 NOSIG=
201804231900 METAR MROC 231900Z 09016KT 060V120 9999 FEW035 BKN200 29/16 A2997 NOSIG=
201804232000 METAR MROC 232000Z 11014KT 080V150 9999 FEW035 SCT180 29/16 A2995 NOSIG=
201804232100 METAR MROC 232100Z 10012KT 070V130 9999 FEW045 BKN200 28/16 A2995 NOSIG=
201804232200 METAR MROC 232200Z 09011KT 060V130 9999 FEW045 BKN230 27/15 A2995 NOSIG=
201804232300 METAR MROC 232300Z 11007KT CAVOK 27/15 A2996 NOSIG=
201804240000 METAR MROC 240000Z COR 11007KT CAVOK 25/16 A2998 NOSIG=
201804240100 METAR MROC 240100Z 34004KT CAVOK 24/21 A3000 NOSIG=
201804240200 METAR MROC 240200Z 11007KT 9999 FEW025 23/17 A3002 NOSIG=
201804240300 METAR MROC 240300Z 06008KT 360V100 CAVOK 24/17 A3002 NOSIG=
201804240400 METAR MROC 240400Z 10012G23KT 070V130 CAVOK 24/16 A3002 NOSIG=
201804240500 METAR MROC 240500Z 09014KT CAVOK 23/17 A3002 NOSIG=
201804240600 METAR MROC 240600Z 09015KT CAVOK 23/16 A3000 NOSIG=
201804240700 METAR MROC 240700Z 11010KT 080V150 CAVOK 22/16 A2997 NOSIG=
201804240800 METAR MROC 240800Z VRB02KT CAVOK 22/16 A2997 NOSIG=
201804240900 METAR MROC 240900Z 12009KT 080V150 CAVOK 22/16 A2996 NOSIG=
201804241000 METAR MROC 241000Z 10009KT 060V120 CAVOK 22/16 A2997 NOSIG=
201804241100 METAR MROC 241100Z 06007KT 020V100 CAVOK 22/16 A2999 NOSIG=
201804241200 METAR MROC 241200Z 06007KT 010V150 CAVOK 21/16 A3001 NOSIG=
201804241300 METAR MROC 241300Z 12009KT 090V150 CAVOK 22/17 A3005 NOSIG=
201804241400 METAR MROC 241400Z 09010KT 060V130 CAVOK 25/18 A3005 NOSIG=
201804241500 METAR MROC 241500Z 13013KT CAVOK 27/18 A3004 NOSIG=
201804241600 METAR MROC 241600Z 11014KT 090V160 CAVOK 28/17 A3005 NOSIG=
201804241700 METAR MROC 241700Z 14010KT 100V180 CAVOK 30/16 A3002 NOSIG=
201804241800 METAR MROC 241800Z 17006KT 100V260 9999 FEW045 BKN200 31/19 A2999 BECMG 24006KT=
201804241900 METAR MROC 241900Z 24007KT 9999 BKN045 27/20 A2998 NOSIG=
201804242000 METAR MROC 242000Z 07010KT 9999 VCSH SCT035TCU BKN040 28/16 A2997 NOSIG=
201804242100 METAR MROC 242100Z 07010G20KT 040V100 9999 VCTS FEW020CB FEW035 SCT060 BKN200 27/17 A2996 NOSIG=
201804242200 METAR MROC 242200Z VRB03KT 9999 FEW035 BKN200 25/19 A2996 NOSIG=
201804242300 METAR MROC 242300Z VRB04KT 9999 FEW035 BKN200 25/18 A2998 NOSIG=
201804250000 METAR MROC 250000Z 00000KT 9999 FEW035 SCT200 24/18 A2998 NOSIG=
201804250100 METAR MROC 250100Z 13008KT 100V160 9999 FEW035 BKN200 24/17 A3001 NOSIG=
201804250200 METAR MROC 250200Z 08008KT 050V110 9999 FEW035 SCT200 24/17 A3003 NOSIG=
201804250300 METAR MROC 250300Z 10005KT 050V160 9999 FEW035 23/17 A3005 NOSIG=
201804250400 METAR MROC 250400Z 07012KT 050V120 9999 FEW035 23/18 A3006 NOSIG=
201804250500 METAR MROC 250500Z 07004KT 350V120 9999 FEW035 23/17 A3005 NOSIG=
201804250600 METAR MROC 250600Z 05009KT 020V080 9999 FEW040 22/17 A3002 NOSIG=
201804250700 METAR MROC 250700Z 08012KT CAVOK 23/17 A2999 NOSIG=
201804250800 METAR MROC 250800Z 10010G21KT 060V130 CAVOK 22/17 A2997 NOSIG=
201804250900 METAR MROC 250900Z 11012KT 080V140 CAVOK 22/18 A2998 NOSIG=
201804251000 METAR MROC 251000Z 11006KT 070V160 CAVOK 22/17 A3000 NOSIG=
201804251100 METAR MROC 251100Z 06006KT 020V110 9999 FEW040 SCT090 23/18 A3002 NOSIG=
201804251200 METAR MROC 251200Z 06010KT 9999 FEW035 BKN200 23/17 A3002 NOSIG=
201804251300 METAR MROC 251300Z 08010KT 9999 FEW035 BKN200 23/18 A3004 NOSIG=
201804251400 METAR MROC 251400Z 11017G27KT 9999 FEW035 BKN200 24/18 A3004 NOSIG=
201804251500 METAR MROC 251500Z 10017G28KT 9999 FEW035 SCT120 BKN200 26/17 A3004 NOSIG=
201804251600 METAR MROC 251600Z 09018G28KT 9999 FEW035 SCT120 BKN200 27/17 A3005 NOSIG=
201804251700 METAR MROC 251700Z 10012G22KT 9999 FEW035 BKN250 29/17 A3002 NOSIG=
201804251800 METAR MROC 251800Z 10013KT 9999 FEW040 BKN200 29/17 A3001 NOSIG=
201804251900 METAR MROC 251900Z 10015KT 9999 FEW040 BKN150 28/16 A2998 NOSIG=
201804252000 METAR MROC 252000Z 10013KT 080V140 9999 FEW040 OVC150 28/16 A2998 NOSIG=
201804252100 METAR MROC 252100Z 11010KT 070V140 9999 FEW040 SCT130 OVC200 28/16 A2994 NOSIG=
201804252200 METAR MROC 252200Z 12010KT 090V150 9999 FEW040 SCT130 BKN250 28/16 A2993 NOSIG=
201804252300 METAR MROC 252300Z 21008KT 150V250 9999 FEW040 SCT070 BKN250 25/22 A2996 NOSIG=
201804260000 METAR MROC 260000Z 25009KT 9999 SCT035 23/21 A2998 NOSIG=
201804260100 METAR MROC 260100Z VRB02KT 320V060 9999 SCT013 SCT040 23/20 A3001 NOSIG=
201804260200 METAR MROC 260200Z 09007KT 060V120 9999 SCT030 SCT047 23/18 A3002 NOSIG=
201804260300 METAR MROC NIL=
201804260400 METAR MROC 260400Z 02004KT 350V090 9999 FEW035 22/20 A3005 NOSIG=
201804260500 METAR MROC 260500Z 06006KT 030V100 CAVOK 22/20 A3003 NOSIG=
201804260600 METAR MROC 260600Z 13003KT 070V170 9999 FEW030 22/18 A3002 NOSIG=
201804260700 METAR MROC 260700Z 10004KT CAVOK 21/18 A2999 NOSIG=
201804260800 METAR MROC 260800Z 10005KT CAVOK 20/18 A2997 NOSIG=
201804260900 METAR MROC 260900Z 05005KT 9999 FEW030 21/17 A2997 NOSIG=
201804261000 METAR MROC 261000Z 05008KT 9999 FEW030 21/17 A2996 NOSIG=
201804261100 METAR MROC 261100Z 06008KT CAVOK 21/17 A2998 NOSIG=
201804261200 METAR MROC 261200Z 09007KT 050V120 CAVOK 22/17 A2999 NOSIG=
201804261300 METAR MROC 261300Z 09012KT 060V130 CAVOK 24/17 A3001 NOSIG=
201804261400 METAR MROC 261400Z 10014G24KT 070V130 CAVOK 25/17 A3003 NOSIG=
201804261500 METAR MROC 261500Z 10013G23KT 070V130 9999 FEW045 SCT200 27/17 A3004 NOSIG=
201804261600 METAR MROC 261600Z 11015KT 080V140 9999 FEW045 BKN250 28/17 A3003 NOSIG=
201804261700 METAR MROC 261700Z 11011KT 080V140 9999 FEW045 SCT120 BKN250 28/17 A3003 NOSIG=
201804261800 METAR MROC 261800Z 13010KT 090V170 9999 FEW045 BKN250 29/17 A3001 NOSIG=
201804261900 METAR MROC 261900Z 22010KT 190V250 9999 SCT035 OVC230 28/20 A2998 NOSIG=
201804262000 METAR MROC 262000Z 21010KT 170V250 9999 FEW035 OVC230 27/20 A2996 NOSIG=
201804262100 METAR MROC 262100Z 23010KT 9999 FEW0040 OVC200 26/20 A2996 NOSIG=
201804262200 METAR MROC 262200Z 24008KT 220V280 9999 FEW0040 OVC200 25/20 A2996 NOSIG=
201804262300 METAR MROC 262300Z 24006KT 190V270 9999 SCT030 BKN200 24/21 A2997 NOSIG=
201804270000 METAR MROC 270000Z 25005KT 9999 BKN030 23/20 A2999 NOSIG=
201804270100 METAR MROC 270100Z 26004KT 210V320 9999 3000SW FEW010 BKN030 22/21 A3002 NOSIG=
201804270200 METAR MROC 270200Z VRB02KT 9999 3000SW FEW010 BKN030 22/20 A3001 NOSIG=
201804270300 METAR MROC 270300Z VRB02KT 9999 FEW005 SCT030 22/20 A3002 NOSIG=
201804270400 METAR MROC 270400Z VRB02KT 9999 FEW010 SCT030 21/20 A3003 NOSIG=
201804270500 METAR MROC 270500Z 00000KT 9000 SCT005 BKN012 21/20 A3002 NOSIG=
201804270600 METAR MROC 270600Z 00000KT 9999 FEW005 SCT012 21/20 A3001 NOSIG=
201804270700 METAR MROC 270700Z 05005KT 9999 FEW030 20/17 A2998 NOSIG=
201804270800 METAR MROC 270800Z 03006KT CAVOK 20/17 A2999 NOSIG=
201804270900 METAR MROC 270900Z 02004KT 350V080 CAVOK 19/16 A2998 NOSIG=
201804271000 METAR MROC 271000Z 09005KT CAVOK 18/16 A2996 NOSIG=
201804271100 METAR MROC 271100Z 08005KT CAVOK 20/15 A2997 NOSIG=
201804271200 METAR MROC 271200Z 05006KT 010V080 CAVOK 20/16 A2997 NOSIG=
201804271300 METAR MROC 271300Z 07006KT CAVOK 24/18 A2999 NOSIG=
201804271400 METAR MROC 271400Z 10013KT 060V130 9999 FEW040 BKN250 26/17 A3000 NOSIG=
201804271500 METAR MROC 271500Z 11011KT 080V140 CAVOK 27/17 A3001 NOSIG=
201804271600 METAR MROC 271600Z 11012KT 070V140 9999 FEW040 BKN250 29/17 A3001 NOSIG=
201804271700 METAR MROC 271700Z 10010KT 070V150 9999 FEW040 SCT100 BKN250 30/17 A2999 NOSIG=
201804271800 METAR MROC 271800Z 24011KT 210V280 9999 FEW025 SCT045 OVC200 27/20 A2998 NOSIG=
201804271900 METAR MROC 271900Z 25009KT 210V290 9999 SCT030 BKN200 27/20 A2996 NOSIG=
201804272000 METAR MROC 272000Z 25011KT 200V280 9999 SCT030 BKN100 27/21 A2994 NOSIG=
201804272100 METAR MROC 272100Z 06010G20KT 030V110 6000 -TSRA FEW015CB BKN040 20/16 A2997 NOSIG=
201804272200 METAR MROC 272200Z COR 10006KT 060V120 9000 -RA VCTS FEW015TCU BKN100 19/18 A2996 RETS NOSIG=
201804272300 METAR MROC 272300Z COR 02004KT 340V050 9999 FEW015 OVC130 21/18 A2996 NOSIG=
201804280000 METAR MROC 280000Z 30003KT 250V030 CAVOK 21/19 A2997 NOSIG=
201804280100 METAR MROC 280100Z 35004KT 330V050 CAVOK 21/19 A3002 NOSIG=
201804280200 METAR MROC 280200Z VRB02KT 9999 FEW012 BKN160 21/19 A3003 NOSIG=
201804280300 METAR MROC 280300Z 23002KT 9999 VCFG SCT010 BKN160 21/20 A3007 NOSIG=
201804280400 METAR MROC 280400Z 01003KT 330V030 9999 FEW020 OVC100 21/20 A3008 NOSIG=
201804280500 METAR MROC 280500Z 10003KT CAVOK 21/19 A3006 NOSIG=
201804280600 METAR MROC NIL=
201804280700 METAR MROC 280700Z 07003KT 010V090 CAVOK 20/19 A3000 NOSIG=
201804280800 METAR MROC 280800Z 05005KT CAVOK 20/18 A2999 NOSIG=
201804280900 METAR MROC 280900Z 03006KT CAVOK 20/18 A2998 NOSIG=
201804281000 METAR MROC 281000Z 07005KT CAVOK 20/17 A2997 NOSIG=
201804281100 METAR MROC 281100Z 07008KT CAVOK 19/16 A2998 NOSIG=
201804281200 METAR MROC 281200Z 07010KT CAVOK 21/16 A3000 NOSIG=
201804281300 METAR MROC 281300Z 09008KT CAVOK 23/17 A3003 NOSIG=
201804281400 METAR MROC 281400Z 14006KT 080V190 CAVOK 25/16 A3005 BECMG 24006KT=
201804281500 METAR MROC 281500Z 26008KT CAVOK 26/18 A3004 NOSIG=
201804281600 METAR MROC 281600Z 14008KT 090V210 CAVOK 30/15 A3003 NOSIG=
201804281700 METAR MROC 281700Z 11011KT CAVOK 30/12 A3002 NOSIG=
201804281800 METAR MROC 281800Z 18007KT 130V220 9999 FEW030TCU BKN200 30/18 A3001 NOSIG=
201804281900 METAR MROC 281900Z 23012KT 200V260 9999 4000SW RA FEW020TCU SCT040 29/20 A2998 BECMG 5000=
201804282000 METAR MROC 282000Z 24011KT 9999 FEW045 SCT250 28/20 A2995 RERA NOSIG=
201804282100 METAR MROC 282100Z 26010KT 230V310 9999 VCTS VCSH FEW020CB SCT025 27/19 A2994 BECMG 5000 TSRA=
201804282200 METAR MROC 282200Z 16007KT 130V190 9999 4500S -TSRA FEW009 FEW015CB SCT040 21/18 A2996 NOSIG=
201804282300 METAR MROC 282300Z VRB01KT 9999 -DZ FEW025 BKN140 21/17 A3000 RETSRA NOSIG=
201804290000 METAR MROC 290000Z 02003KT 350V110 9999 -RA NSC 22/18 A3001 NOSIG=
201804290100 METAR MROC 290100Z 01003KT 340V040 9999 -RA FEW040 BKN100 22/19 A3003 NOSIG=
201804290200 METAR MROC 290200Z 00000KT CAVOK 22/20 A3004 NOSIG=
201804290300 METAR MROC 290300Z 07004KT 9999 FEW010 SCT140 22/20 A3005 NOSIG=
201804290400 METAR MROC 290400Z 06008KT CAVOK 21/19 A3005 NOSIG=
201804290500 METAR MROC 290500Z 07007KT CAVOK 20/17 A3004 NOSIG=
201804290600 METAR MROC 290600Z 09012KT CAVOK 21/16 A3002 NOSIG=
201804290700 METAR MROC 290700Z 08010KT 060V120 CAVOK 21/16 A3001 NOSIG=
201804290800 METAR MROC 290800Z 08007KT 050V120 CAVOK 21/16 A3000 NOSIG=
201804290900 METAR MROC 290900Z 07008KT CAVOK 21/16 A2999 NOSIG=
201804291000 METAR MROC 291000Z 06005KT 360V100 CAVOK 20/15 A3000 NOSIG=
201804291100 METAR MROC 291100Z 09008KT CAVOK 21/16 A3001 NOSIG=
201804291200 METAR MROC 291200Z 01004KT 310V080 CAVOK 20/16 A3004 NOSIG=
201804291300 METAR MROC 291300Z 03006KT 350V070 CAVOK 23/16 A3005 NOSIG=
201804291400 METAR MROC 291400Z 11013KT 090V150 CAVOK 25/17 A3006 NOSIG=
201804291500 METAR MROC 291500Z 12011KT 090V150 CAVOK 27/18 A3005 NOSIG=
201804291600 METAR MROC 291600Z 10015KT 9999 FEW045 SCT300 28/17 A3006 NOSIG=
201804291700 METAR MROC 291700Z 09012KT 050V120 9999 SCT045 SCT300 30/16 A3004 NOSIG=
201804291800 METAR MROC 291800Z 11009KT 080V140 9999 BKN045 29/17 A3002 NOSIG=
201804291900 METAR MROC 291900Z 09010KT 060V120 9999 BKN045 29/17 A3000 NOSIG=
201804292000 METAR MROC 292000Z 09009KT 9999 FEW040 BKN100 29/18 A2998 NOSIG=
201804292100 METAR MROC 292100Z VRB03KT 9999 SCT040 BKN250 30/17 A2995 BECMG 23006KT=
201804292113 METAR MROC 292113Z 24012KT 9999 FEW025 SCT040 BKN250 26/22 A2996 NOSIG=
201804292200 METAR MROC 292200Z 24013G23KT 9999 FEW020 SCT030 BKN200 25/21 A2996 NOSIG=
201804292210 METAR MROC 292210Z 24014KT 9999 -TSRA FEW010CB FEW020 SCT030 BKN200 24/21 A2997 BECMG 5000=
201804292300 METAR MROC 292300Z 11008KT 9999 2500SE -TSRA FEW010 SCT015CB BKN025 22/18 A2999 NOSIG=
201804292315 METAR MROC 292315Z 10006KT 5000 TSRA FEW010 SCT015CB BKN025 20/19 A3000 NOSIG=
201804300000 METAR MROC 300000Z 06004KT 9999 4000SW -RA VCTS FEW015CB FEW030 SCT060 BKN100 20/19 A3002 RETS NOSIG=
201804300100 METAR MROC 300100Z 29004KT 240V330 9999 FEW030 BKN050 21/20 A3004 NOSIG=
201804300200 METAR MROC 300200Z 02003KT 9999 FEW030 BKN050 21/20 A3007 NOSIG=
201804300300 METAR MROC 300300Z VRB02KT 9999 FEW030 SCT050 BKN150 21/20 A3006 NOSIG=
201804300400 METAR MROC 300400Z 05004KT 340V090 9999 FEW035 BKN150 22/20 A3007 NOSIG=
201804300500 METAR MROC 300500Z 11003KT 9999 FEW030 BKN150 22/18 A3007 NOSIG=
201804300600 METAR MROC 300600Z 03003KT 360V070 9999 FEW030 SCT150 21/19 A3006 NOSIG=
201804300700 METAR MROC 300700Z COR 08004KT 030V130 9999 FEW040 SCT140 21/19 A3004 NOSIG=
201804300800 METAR MROC 300800Z 05004KT 020V090 CAVOK 21/18 A3001 NOSIG=
201804300900 METAR MROC 300900Z 06006KT 040V100 9999 FEW040 SCT150 21/18 A3000 NOSIG=
201804301000 METAR MROC 301000Z 05008KT 030V090 9999 FEW040 22/18 A2999 NOSIG=
201804301100 METAR MROC 301100Z 11014G24KT 9999 FEW035 SCT200 22/18 A2998 NOSIG=
201804301200 METAR MROC 301200Z 10010G20KT 9999 FEW040 BKN250 22/17 A2999 NOSIG=
201804301300 METAR MROC 301300Z 11010G20KT 050V150 9999 FEW040 BKN250 23/18 A3001 NOSIG=
201804301400 METAR MROC 301400Z 11013G24KT 080V140 9999 FEW040 SCT200 25/18 A3003 NOSIG=
201804301500 METAR MROC 301500Z 10010G20KT 070V140 9999 FEW035 SCT200 28/18 A3004 NOSIG=
201804301600 METAR MROC 301600Z 10010G20KT 050V140 9999 FEW035 SCT200 28/18 A3005 NOSIG=
201804301700 METAR MROC 301700Z 09010G20KT 060V120 9999 SCT035 SCT200 29/18 A3004 NOSIG=
201804301800 METAR MROC 301800Z 12007KT 070V170 9999 SCT035 BKN060 27/19 A3003 BECMG 22006KT RA=
201804301833 METAR MROC 301833Z 09009KT 5000 -RA FEW010 SCT025 BKN060 23/19 A3003 BECMG 22006KT=
201804301900 METAR MROC 301900Z VRB04KT 9999 FEW020 SCT030 BKN060 24/22 A3002 BECMG 22006KT RA=
201804302000 METAR MROC 302000Z VRB02KT 9999 FEW025 SCT035 BKN060 25/21 A3000 BECMG 25008KT=
201804302100 METAR MROC 302100Z 10004KT 060V150 9999 SCT030 BKN060 25/17 A3000 NOSIG=
201804302200 METAR MROC 302200Z VRB02KT 9999 FEW030 BKN060 24/19 A3001 NOSIG=
201804302300 METAR MROC 302300Z VRB05KT 9999 FEW030 BKN070 23/17 A3002 NOSIG=
201805010000 METAR MROC 010000Z 11010KT 070V140 9999 FEW030 BKN080 23/17 A3002 NOSIG=
201805010100 METAR MROC 010100Z 10009KT 9999 FEW030 SCT100 22/17 A3004 NOSIG=
201805010200 METAR MROC 010200Z 10009KT 060V120 CAVOK 23/16 A3005 NOSIG=
201805010300 METAR MROC 010300Z 10015KT CAVOK 22/16 A3007 NOSIG=
201805010400 METAR MROC 010400Z 10012KT CAVOK 22/16 A3007 NOSIG=
201805010500 METAR MROC 010500Z 11014KT 9999 FEW030 22/16 A3006 NOSIG=
201805010600 METAR MROC 010600Z 09011KT 060V120 9999 FEW030 SCT200 22/16 A3003 NOSIG=
201805010700 METAR MROC 010700Z 09011KT CAVOK 21/16 A3000 NOSIG=
201805010800 METAR MROC 010800Z 11014KT CAVOK 21/16 A2998 NOSIG=
201805010900 METAR MROC 010900Z 11018G30KT CAVOK 22/15 A2998 NOSIG=
201805011000 METAR MROC 011000Z 12014KT CAVOK 21/15 A2997 NOSIG=
201805011100 METAR MROC 011100Z 09010KT 060V130 CAVOK 21/16 A3001 NOSIG=
201805011200 METAR MROC 011200Z 09009KT 040V130 CAVOK 21/16 A3002 NOSIG=
201805011300 METAR MROC 011300Z 11011KT 080V150 CAVOK 23/16 A3005 NOSIG=
201805011400 METAR MROC 011400Z 11013KT CAVOK 25/16 A3006 NOSIG=
201805011500 METAR MROC 011500Z 11018KT 080V140 9999 FEW045 SCT250 26/15 A3006 NOSIG=
201805011600 METAR MROC 011600Z 10016G26KT 9999 FEW045 SCT200 27/15 A3006 NOSIG=
201805011700 METAR MROC 011700Z 09015KT 060V120 9999 FEW045 SCT250 28/14 A3006 NOSIG=
201805011800 METAR MROC 011800Z 07016KT 050V110 9999 FEW045 SCT250 29/14 A3005 NOSIG=
201805011900 METAR MROC 011900Z 10011KT 060V130 9999 FEW045 SCT250 29/15 A3003 NOSIG=
201805012000 METAR MROC 012000Z 08017KT 9999 FEW045 SCT250 29/14 A2999 NOSIG=
201805012100 METAR MROC 012100Z 08016KT 9999 FEW040 SCT250 29/13 A2998 NOSIG=
201805012200 METAR MROC 012200Z 08012KT 9999 FEW040 SCT250 29/13 A2997 NOSIG=
201805012300 METAR MROC 012300Z 07013KT 9999 FEW040 SCT250 27/12 A2997 NOSIG=
201805020000 METAR MROC 020000Z 08012KT 060V120 CAVOK 25/13 A3000 NOSIG=
201805020100 METAR MROC 020100Z 07011KT CAVOK 24/13 A3001 NOSIG=
201805020200 METAR MROC 020200Z 07005KT 020V110 CAVOK 23/13 A3003 NOSIG=
201805020300 METAR MROC 020300Z VRB04KT CAVOK 23/14 A3004 NOSIG=
201805020400 METAR MROC 020400Z 09010G20KT 060V120 CAVOK 23/14 A3005 NOSIG=
201805020500 METAR MROC 020500Z 10016G26KT CAVOK 22/14 A3004 NOSIG=
201805020600 METAR MROC 020600Z 11016G27KT 080V140 CAVOK 22/14 A3002 NOSIG=
201805020700 METAR MROC 020700Z 10012G22KT 080V140 CAVOK 22/14 A3002 NOSIG=
201805020800 METAR MROC 020800Z 11014G24KT CAVOK 21/14 A3001 NOSIG=
201805020900 METAR MROC 020900Z 11013G23KT CAVOK 21/15 A2999 NOSIG=
201805021000 METAR MROC 021000Z 12013KT CAVOK 20/14 A3000 NOSIG=
201805021100 METAR MROC 021100Z 11015KT CAVOK 21/14 A3002 NOSIG=
201805021200 METAR MROC 021200Z 11012G22KT CAVOK 21/14 A3001 NOSIG=
201805021300 METAR MROC 021300Z 11015KT CAVOK 22/14 A3002 NOSIG=
201805021400 METAR MROC 021400Z 11016G26KT CAVOK 24/15 A3005 NOSIG=
201805021500 METAR MROC 021500Z 11015KT 080V140 CAVOK 26/14 A3006 NOSIG=
201805021600 METAR MROC 021600Z 10012KT 060V140 CAVOK 28/13 A3006 NOSIG=
201805021700 METAR MROC 021700Z 09010G20KT 060V160 CAVOK 28/14 A3005 NOSIG=
201805021800 METAR MROC 021800Z 10012KT 060V140 9999 FEW040 29/15 A3004 NOSIG=
201805021900 METAR MROC 021900Z 10011KT 060V160 9999 FEW040 29/15 A3000 NOSIG=
201805022000 METAR MROC 022000Z 10010KT 070V130 9999 FEW040 30/15 A2998 NOSIG=
201805022100 METAR MROC 022100Z 11008KT 070V160 9999 FEW040 30/14 A2996 NOSIG=
201805022200 METAR MROC 022200Z 23012KT 190V260 9999 FEW030 27/21 A2995 BECMG 10008KT=
201805022300 METAR MROC 022300Z 23009KT 9999 FEW030 SCT250 25/20 A2997 NOSIG=
201805030000 METAR MROC 030000Z 24007KT 9999 FEW035 BKN250 24/20 A2998 NOSIG=
201805030100 METAR MROC 030100Z 34003KT 280V060 9999 FEW030 23/20 A2999 NOSIG=
201805030200 METAR MROC 030200Z 09005KT 050V120 9999 FEW040 23/16 A3000 NOSIG=
201805030300 METAR MROC 030300Z COR 09013KT 9999 FEW040 23/17 A3001 NOSIG=
201805030400 METAR MROC 030400Z 03005KT 9999 FEW045 22/16 A3002 NOSIG=
201805030500 METAR MROC 030500Z 06005KT CAVOK 21/16 A3003 NOSIG=
201805030600 METAR MROC 030600Z 09006KT CAVOK 22/16 A3002 NOSIG=
201805030700 METAR MROC 030700Z 09007KT CAVOK 21/16 A3001 NOSIG=
201805030800 METAR MROC 030800Z 08007KT 040V120 CAVOK 21/15 A3000 NOSIG=
201805030900 METAR MROC 030900Z 07009KT CAVOK 20/15 A2999 NOSIG=
201805031000 METAR MROC 031000Z 07010KT CAVOK 21/15 A3000 NOSIG=
201805031100 METAR MROC 031100Z 07009KT CAVOK 20/15 A3000 NOSIG=
201805031200 METAR MROC 031200Z 05008KT CAVOK 21/15 A3000 NOSIG=
201805031300 METAR MROC 031300Z 07006KT 040V100 CAVOK 23/16 A3002 NOSIG=
201805031400 METAR MROC 031400Z VRB04KT CAVOK 25/17 A3002 NOSIG=
201805031500 METAR MROC 031500Z 10016G26KT 060V130 CAVOK 27/18 A3003 NOSIG=
201805031600 METAR MROC 031600Z 11012G22KT 080V150 9999 FEW045 SCT250 28/18 A3003 NOSIG=
201805031700 METAR MROC 031700Z 10015G27KT 070V140 9999 FEW040 BKN250 29/18 A3002 NOSIG=
201805031800 METAR MROC 031800Z 11015KT 9999 FEW040 BKN220 28/17 A3001 NOSIG=
201805031900 METAR MROC 031900Z 11015G25KT 070V140 9999 FEW035 BKN200 29/17 A2999 NOSIG=
201805032000 METAR MROC 032000Z 11012KT 080V150 9999 FEW035 SCT070 27/17 A2997 NOSIG=
201805032100 METAR MROC 032100Z 11014KT 9999 VCTS FEW010CB SCT045 28/16 A2995 NOSIG=
201805032200 METAR MROC 032200Z 11011KT 070V130 9999 FEW045 BKN200 28/17 A2995 BECMG 24006KT=
201805032300 METAR MROC 032300Z 11011KT 9999 FEW030 26/16 A2997 NOSIG=
201805040000 METAR MROC 040000Z 11011KT 9999 FEW030 24/17 A2998 NOSIG=
201805040100 METAR MROC 040100Z 09009KT 040V130 CAVOK 23/18 A3001 NOSIG=
201805040200 METAR MROC 040200Z 09011KT 070V130 CAVOK 22/17 A3002 NOSIG=
201805040300 METAR MROC 040300Z 10010KT CAVOK 23/17 A3004 NOSIG=
201805040400 METAR MROC 040400Z 11011KT CAVOK 22/17 A3005 NOSIG=
201805040500 METAR MROC 040500Z 10009KT CAVOK 22/17 A3003 NOSIG=
201805040600 METAR MROC 040600Z 07006KT CAVOK 22/17 A3002 NOSIG=
201805040700 METAR MROC 040700Z 07006KT CAVOK 22/16 A2999 NOSIG=
201805040800 METAR MROC 040800Z 03006KT CAVOK 21/15 A2997 NOSIG=
201805040900 METAR MROC 040900Z 08007KT CAVOK 22/15 A2995 NOSIG=
201805041000 METAR MROC 041000Z 07007KT 040V100 CAVOK 20/15 A2996 NOSIG=
201805041100 METAR MROC 041100Z 03006KT CAVOK 20/15 A2996 NOSIG=
201805041200 METAR MROC 041200Z 07008KT 030V110 CAVOK 22/16 A2998 NOSIG=
201805041300 METAR MROC 041300Z 06005KT 360V130 CAVOK 23/16 A3001 NOSIG=
201805041400 METAR MROC 041400Z 10005KT 050V160 CAVOK 25/17 A3002 NOSIG=
201805041500 METAR MROC 041500Z 11011KT 080V140 CAVOK 27/16 A3000 NOSIG=
201805041600 METAR MROC 041600Z 09011KT 050V120 CAVOK 29/16 A2999 NOSIG=
201805041700 METAR MROC 041700Z 11012KT 060V130 CAVOK 29/16 A2998 NOSIG=
201805041800 METAR MROC 041800Z 12012KT 070V150 CAVOK 30/16 A2994 NOSIG=
201805041900 METAR MROC 041900Z 11011KT 070V160 9999 FEW045 BKN250 31/17 A2992 NOSIG=
201805042000 METAR MROC 042000Z 25006KT 190V330 9999 FEW025TCU FEW045 BKN250 29/19 A2991 NOSIG=
201805042100 METAR MROC 042100Z 23011KT 9999 FEW025TCU FEW040 SCT060 27/20 A2990 NOSIG=
201805042200 METAR MROC 042200Z 24011KT 9999 FEW025TCU FEW040 SCT060 27/19 A2990 NOSIG=
201805042300 METAR MROC 042300Z 25010KT 9999 FEW025 SCT040 26/19 A2992 NOSIG=
201805050000 METAR MROC 050000Z 24006KT 9999 VCSH FEW025 SCT035 24/20 A2995 NOSIG=
201805050100 METAR MROC 050100Z 12007KT 9999 FEW035 23/18 A2996 NOSIG=
201805050200 METAR MROC 050200Z 11008KT 9999 FEW035 23/17 A3000 NOSIG=
201805050300 METAR MROC 050300Z 10006KT 070V130 9999 FEW035 23/16 A3002 NOSIG=
201805050400 METAR MROC 050400Z 11006KT 9999 FEW035 23/17 A3003 NOSIG=
201805050500 METAR MROC 050500Z 07007KT 9999 FEW035 22/16 A3002 NOSIG=
201805050600 METAR MROC 050600Z 04005KT CAVOK 21/16 A3001 NOSIG=
201805050700 METAR MROC 050700Z 08005KT 050V110 CAVOK 21/16 A2999 NOSIG=
201805050800 METAR MROC 050800Z 07004KT CAVOK 20/15 A2997 NOSIG=
201805050900 METAR MROC 050900Z 07004KT CAVOK 19/15 A2996 NOSIG=
201805051000 METAR MROC 051000Z COR 07008KT CAVOK 19/14 A2996 NOSIG=
201805051100 METAR MROC 051100Z 07007KT CAVOK 19/13 A2995 NOSIG=
201805051200 METAR MROC 051200Z 06009KT CAVOK 21/13 A2996 NOSIG=
201805051300 METAR MROC 051300Z 07008KT CAVOK 24/12 A2998 NOSIG=
201805051400 METAR MROC 051400Z 23009KT CAVOK 26/14 A3000 NOSIG=
201805051500 METAR MROC 051500Z 22008KT CAVOK 26/16 A3001 NOSIG=
201805051600 METAR MROC 051600Z 23009KT 200V260 CAVOK 27/18 A2999 NOSIG=
201805051700 METAR MROC 051700Z 24009KT 170V300 9999 FEW040 27/18 A2999 NOSIG=
201805051800 METAR MROC 051800Z 24010KT 210V270 9999 FEW040 BKN200 28/19 A2998 NOSIG=
201805051900 METAR MROC 051900Z 24011KT 200V280 9999 SCT035 BKN200 28/20 A2996 NOSIG=
201805052000 METAR MROC 052000Z 24012KT 210V270 9999 FEW025TCU SCT035 28/20 A2994 NOSIG=
201805052100 METAR MROC 052100Z 23012KT 190V250 9999 SCT025TCU 27/20 A2993 NOSIG=
201805052200 METAR MROC 052200Z 22010KT 180V240 9999 SCT025TCU SCT250 24/20 A2994 NOSIG=
201805052300 METAR MROC 052300Z 22005KT 190V270 9999 SCT025 24/20 A2996 NOSIG=
201805060000 METAR MROC 060000Z 22005KT 9999 FEW020 SCT040 23/20 A2999 NOSIG=
201805060100 METAR MROC 060100Z 25004KT 9999 SCT025 22/20 A3002 NOSIG=
201805060200 METAR MROC 060200Z 16003KT 090V210 9999 SCT025 22/17 A3005 NOSIG=
201805060300 METAR MROC 060300Z VRB01KT 9999 SCT030 22/15 A3008 NOSIG=
201805060400 METAR MROC 060400Z VRB01KT CAVOK 22/16 A3009 NOSIG=
201805060500 METAR MROC 060500Z 07005KT 9999 FEW030 21/17 A3008 NOSIG=
201805060600 METAR MROC 060600Z 07003KT 010V020 CAVOK 21/18 A3006 NOSIG=
201805060700 METAR MROC 060700Z 07007KT CAVOK 20/16 A3003 NOSIG=
201805060800 METAR MROC 060800Z 04006KT 020V080 CAVOK 20/15 A3001 NOSIG=
201805060900 METAR MROC 060900Z 08007KT CAVOK 21/14 A2999 NOSIG=
201805061000 METAR MROC 061000Z 04008KT CAVOK 20/13 A3000 NOSIG=
201805061100 METAR MROC 061100Z VRB02KT CAVOK 20/13 A3004 NOSIG=
201805061200 METAR MROC 061200Z 07004KT CAVOK 18/14 A3006 NOSIG=
201805061300 METAR MROC 061300Z 03004KT CAVOK 22/15 A3007 NOSIG=
201805061400 METAR MROC 061400Z 03004KT 330V070 CAVOK 25/13 A3007 NOSIG=
201805061500 METAR MROC 061500Z VRB02KT CAVOK 28/13 A3006 NOSIG=
201805061600 METAR MROC 061600Z 21008KT 130V250 CAVOK 27/16 A3006 NOSIG=
201805061700 METAR MROC 061700Z 25011KT 200V270 CAVOK 28/18 A3005 NOSIG=
201805061800 METAR MROC 061800Z 25009KT 200V290 CAVOK 29/18 A3003 NOSIG=
201805061900 METAR MROC 061900Z 25011KT 210V270 9999 FEW040 29/17 A3000 NOSIG=
201805062000 METAR MROC 062000Z 26014KT 230V290 9999 SCT035 29/19 A2998 NOSIG=
201805062100 METAR MROC 062100Z 24011KT 210V270 9999 SCT030 28/20 A2998 NOSIG=
201805062200 METAR MROC 062200Z 23012KT 200V260 9999 SCT030 BKN060 27/20 A2997 NOSIG=
201805062300 METAR MROC 062300Z 22009KT 180V240 9999 SCT030 BKN060 25/20 A3001 NOSIG=
201805070000 METAR MROC 070000Z 20008KT 9999 VCSH SCT030 OVC060 24/19 A3004 NOSIG=
201805070100 METAR MROC 070100Z VRB03KT 9999 SCT030 OVC060 23/19 A3008 NOSIG=
201805070200 METAR MROC 070200Z 06004KT 050V090 9999 -RA SCT030 OVC060 22/19 A3011 NOSIG=
201805070300 METAR MROC 070300Z 11003KT 070V140 9999 FEW030 BKN100 21/19 A3010 NOSIG=
201805070400 METAR MROC 070400Z 02006KT 350V060 CAVOK 22/19 A3010 NOSIG=
201805070500 METAR MROC 070500Z 09006KT 050V120 CAVOK 22/18 A3009 NOSIG=
201805070600 METAR MROC 070600Z 05004KT 020V090 CAVOK 21/18 A3008 NOSIG=
201805070700 METAR MROC 070700Z 09007KT CAVOK 20/17 A3006 NOSIG=
201805070800 METAR MROC 070800Z 03006KT CAVOK 20/17 A3004 NOSIG=
201805070900 METAR MROC 070900Z 04008KT CAVOK 19/16 A3004 NOSIG=
201805071000 METAR MROC 071000Z 07006KT CAVOK 18/15 A3004 NOSIG=
201805071100 METAR MROC 071100Z 07007KT CAVOK 18/15 A3005 NOSIG=
201805071200 METAR MROC 071200Z 04009KT CAVOK 20/15 A3005 NOSIG=
201805071300 METAR MROC 071300Z 06007KT 030V100 CAVOK 23/16 A3008 NOSIG=
201805071400 METAR MROC 071400Z 01005KT 340V070 CAVOK 26/16 A3010 NOSIG=
201805071500 METAR MROC 071500Z VRB05KT CAVOK 28/15 A3010 NOSIG=
201805071600 METAR MROC 071600Z 16006KT 120V270 9999 FEW040 28/15 A3009 BECMG 24007KT=
201805071700 METAR MROC 071700Z 24007KT 170V310 9999 SCT040 29/17 A3008 NOSIG=
201805071800 METAR MROC 071800Z 23009KT 200V270 9999 SCT040 28/19 A3007 NOSIG=
201805071900 METAR MROC 071900Z 23008KT 180V280 9999 SCT040 29/18 A3003 NOSIG=
201805072000 METAR MROC 072000Z 25013KT 220V290 9999 VCTS FEW015TCU SCT030 29/19 A3000 NOSIG=
201805072100 METAR MROC 072100Z 23012G22KT 200V260 9999 3000E TSRA FEW015CB SCT030 25/20 A2999 NOSIG=
201805072200 METAR MROC 072200Z 10005KT 040V130 9999 VCSH FEW020TCU SCT040 21/20 A3002 NOSIG=
201805072300 METAR MROC 072300Z 09004KT 030V130 9999 FEW035 SCT120 22/19 A3003 NOSIG=
201805080000 METAR MROC 080000Z 10004KT 9999 FEW025 BKN120 22/19 A3004 NOSIG=
201805080100 METAR MROC 080100Z VRB01KT 9999 FEW030 SCT120 22/19 A3006 NOSIG=
201805080200 METAR MROC 080200Z 12005KT 070V150 9999 FEW035 SCT120 22/18 A3008 NOSIG=
201805080300 METAR MROC 080300Z 14003KT 100V190 9999 FEW030 BKN120 21/19 A3010 NOSIG=
201805080400 METAR MROC 080400Z 12005KT 9999 FEW040 21/17 A3011 NOSIG=
201805080500 METAR MROC 080500Z 09005KT CAVOK 21/17 A3010 NOSIG=
201805080600 METAR MROC 080600Z 08009KT CAVOK 21/16 A3008 NOSIG=
201805080700 METAR MROC 080700Z 09007KT CAVOK 21/16 A3005 NOSIG=
201805080800 METAR MROC 080800Z 08007KT CAVOK 21/14 A3002 NOSIG=
201805080900 METAR MROC 080900Z 10013KT CAVOK 21/16 A3002 NOSIG=
201805081000 METAR MROC 081000Z 09008KT 060V120 CAVOK 21/15 A3002 NOSIG=
201805081100 METAR MROC 081100Z 06008KT CAVOK 20/13 A3006 NOSIG=
201805081200 METAR MROC 081200Z 06006KT CAVOK 21/14 A3006 NOSIG=
201805081300 METAR MROC 081300Z 06008KT 360V160 CAVOK 22/15 A3008 NOSIG=
201805081400 METAR MROC 081400Z 10011G21KT CAVOK 24/16 A3009 NOSIG=
201805081500 METAR MROC 081500Z 10014KT 070V130 CAVOK 26/16 A3009 NOSIG=
201805081600 METAR MROC 081600Z 09014KT CAVOK 28/15 A3008 NOSIG=
201805081700 METAR MROC 081700Z 10013KT CAVOK 28/16 A3007 NOSIG=
201805081800 METAR MROC 081800Z 09012KT 060V130 CAVOK 30/15 A3005 NOSIG=
201805081900 METAR MROC 081900Z 12013KT 090V160 9999 FEW045 30/15 A3003 NOSIG=
201805082000 METAR MROC 082000Z 11008KT 070V160 9999 FEW045 29/16 A3000 NOSIG=
201805082100 METAR MROC 082100Z 24009KT 190V270 9999 VCTS FEW030CB BKN100 27/21 A3008 NOSIG=
201805082200 METAR COR MROC 082200Z 23010KT 200V260 9999 4000NW TSRA FEW020CB BKN030 25/20 A2999 NOSIG=
201805082300 METAR MROC 082300Z 20005KT 170V230 9999 4500NW RA BKN040 25/19 A3002 RETS NOSIG=
201805090000 METAR MROC 090000Z 32005KT 9999 4500SW -RA FEW020 SCT035 OVC050 23/19 A3004 RETS NOSIG=
201805090100 METAR MROC 090100Z VRB01KT 9999 FEW020 BKN060 22/20 A3006 NOSIG=
201805090200 METAR MROC 090200Z 26003KT 230V310 9999 3000SW PRFG BKN015 22/20 A3008 NOSIG=
201805090300 METAR MROC 090300Z 25003KT 200V340 FEW015 BKN100 22/21 A3010 NOSIG=
201805090400 METAR MROC 090400Z 00000KT 9999 3000SW BCFG FEW005 SCT030 BKN100 21/20 A3011 NOSIG=
201805090500 METAR MROC 090500Z 08004KT 9999 FEW030 BKN100 21/19 A3012 NOSIG=
201805090600 METAR MROC 090600Z 09005KT CAVOK 21/17 A3010 NOSIG=
201805090700 METAR MROC 090700Z 07007KT CAVOK 21/15 A3007 NOSIG=
201805090800 METAR MROC 090800Z 10009KT CAVOK 21/16 A3003 NOSIG=
201805090900 METAR MROC 090900Z 09008KT 060V120 CAVOK 21/16 A3001 NOSIG=
201805091000 METAR MROC 091000Z 07008KT 040V100 CAVOK 20/16 A3003 NOSIG=
201805091100 METAR MROC 091100Z 09010KT CAVOK 21/15 A3003 NOSIG=
201805091200 METAR MROC 091200Z 05008KT 030V090 CAVOK 22/14 A3004 NOSIG=
201805091300 METAR MROC 091300Z 05010KT 350V080 CAVOK 24/14 A3006 NOSIG=
201805091400 METAR MROC 091400Z 10011KT 070V130 CAVOK 26/14 A3007 NOSIG=
201805091500 METAR MROC 091500Z 10008KT 070V130 CAVOK 27/14 A3006 NOSIG=
201805091600 METAR MROC 091600Z VRB06KT CAVOK 29/14 A3006 BECMG 22006KT=
201805091700 METAR MROC 091700Z 24010KT 210V270 CAVOK 28/18 A3005 NOSIG=
201805091800 METAR MROC 091800Z 23013KT 190V260 9999 FEW040 28/19 A3003 NOSIG=
201805091900 METAR MROC 091900Z 24012KT 210V270 9999 FEW045 28/20 A3002 NOSIG=
201805092000 METAR MROC 092000Z 23014KT 9999 VCTS VCSH FEW020CB FEW040 27/19 A2999 NOSIG=
201805092013 METAR MROC 092013Z 03012KT 270V080 9999 2500NE TSRA FEW010CB SCT020 BKN040 23/16 A3002 BECMG 1500 BKN015=
201805092025 METAR MROC 092025Z 04016G28KT 360V080 3000 TSRA FEW010CB SCT020 BKN035 20/18 A3000 NOSIG=
201805092100 METAR MROC 092100Z 07008KT 360V120 9999 2500N -TSRA FEW010CB SCT035 BKN100 21/19 A3000 NOSIG=
201805092128 METAR MROC 092128Z 22005KT 190V290 9999 4000S -TSRA FEW010CB SCT035 BKN050 21/19 A2999 NOSIG=
201805092200 METAR MROC 092200Z VRB03KT 9999 -RA VCTS FEW010 FEW015CB SCT035 BKN060 20/19 A3000 RETS NOSIG=
201805092300 METAR MROC 092300Z 07003KT 050V110 9999 SCT040 BKN100 21/19 A3001 NOSIG=
201805100000 METAR MROC 100000Z VRB02KT 9999 FEW035 SCT060 BKN100 21/19 A3003 NOSIG=
201805100100 METAR MROC 100100Z VRB02KT 9999 FEW035 SCT100 21/20 A3005 NOSIG=
201805100200 METAR MROC 100200Z 03003KT 340V050 CAVOK 21/19 A3006 NOSIG=
201805100300 METAR MROC 100300Z 05003KT 010V100 CAVOK 20/18 A3008 NOSIG=
201805100400 METAR MROC 100400Z 06005KT CAVOK 19/17 A3009 NOSIG=
201805100500 METAR MROC 100500Z 05004KT 9999 FEW030 19/17 A3009 NOSIG=
201805100600 METAR MROC 100600Z 05005KT 9999 FEW030 19/17 A3007 NOSIG=
201805100700 METAR MROC 100700Z 04007KT CAVOK 19/16 A3005 NOSIG=
201805100800 METAR MROC 100800Z 06009KT CAVOK 18/15 A3000 NOSIG=
201805100900 METAR MROC 100900Z 06009KT CAVOK 18/14 A3002 NOSIG=
201805101000 METAR MROC 101000Z 09006KT CAVOK 18/14 A3003 NOSIG=
201805101100 METAR COR MROC 101100Z 05006KT CAVOK 18/14 A3004 NOSIG=
201805101200 METAR MROC 101200Z 03006KT CAVOK 18/14 A3005 NOSIG=
201805101300 METAR MROC 101300Z 02003KT 340V050 CAVOK 21/15 A3006 NOSIG=
201805101400 METAR MROC 101400Z 10005KT 070V160 CAVOK 25/15 A3007 BECMG 22006KT=
201805101500 METAR MROC 101500Z 08005KT CAVOK 26/15 A3008 BECMG 22006KT=
201805101600 METAR MROC 101600Z 24007KT CAVOK 28/14 A3007 NOSIG=
201805101700 METAR MROC 101700Z 23010KT CAVOK 28/18 A3006 NOSIG=
201805101800 METAR MROC 101800Z 25010G20KT CAVOK 27/20 A3004 NOSIG=
201805101900 METAR MROC 101900Z 24012KT 210V280 9999 FEW040 BKN200 27/20 A3003 NOSIG=
201805102000 METAR MROC 102000Z 26011KT 220V280 9999 VCSH FEW025TCU SCT035 BKN200 26/20 A3001 BECMG RA=
201805102100 METAR MROC 102100Z 22010KT 180V260 9999 4000NE -TSRA FEW015CB BKN035 24/20 A3001 BECMG 5000 BKN015=
201805102200 METAR MROC 102200Z VRB04KT 9999 -TSRA SCT030TCU 20/18 A3001 RETS NOSIG=
201805102300 METAR MROC 102300Z 18002KT 9999 FEW040 BKN120 21/18 A3001 NOSIG=
201805110000 METAR MROC 110000Z VRB03KT CAVOK 21/18 A3003 NOSIG=
201805110100 METAR MROC 110100Z 10004KT CAVOK 290/19 A3004 NOSIG=
201805110200 METAR MROC 110200Z VRB02KT CAVOK 21/19 A3005 NOSIG=
201805110300 METAR MROC 110300Z 04002KT CAVOK 21/19 A3007 NOSIG=
201805110400 METAR MROC 110400Z 03005KT 280V290 CAVOK 20/18 A3006 NOSIG=
201805110500 METAR MROC 110500Z 05006KT 020V090 CAVOK 20/17 A3005 NOSIG=
201805110600 METAR MROC 110600Z 06006KT CAVOK 19/16 A3004 NOSIG=
201805110700 METAR MROC 110700Z VRB01KT 9999 BCFG FEW010 18/16 A3004 NOSIG=
201805110800 METAR MROC 110800Z 03004KT 9999 FEW006 18/16 A3002 NOSIG=
201805110900 METAR MROC 110900Z 09004KT 9999 3000SW PRFG SCT005 16/15 A3001 NOSIG=
201805111000 METAR MROC 111000Z 05005KT CAVOK 17/15 A3002 NOSIG=
201805111100 METAR MROC 111100Z 05007KT CAVOK 17/14 A3003 NOSIG=
201805111200 METAR MROC 111200Z 04008KT CAVOK 18/15 A3004 NOSIG=
201805111300 METAR MROC 111300Z 06008KT 020V080 CAVOK 21/15 A3007 NOSIG=
201805111400 METAR MROC 111400Z 08007KT CAVOK 25/16 A3007 NOSIG=
201805111500 METAR MROC 111500Z 09008KT 060V130 CAVOK 27/15 A3006 BECMG 27007KT=
201805111600 METAR MROC 111600Z 11006KT 070V160 CAVOK 29/12 A3005 BECMG 27007KT=
201805111700 METAR MROC 111700Z 24011KT 9999 FEW045 SCT250 27/20 A3005 NOSIG=
201805111800 METAR MROC 111800Z 25012KT 210V280 9999 FEW040 26/20 A3003 NOSIG=
201805111900 METAR MROC 111900Z 25011KT 210V280 9999 FEW030 SCT045 26/20 A3001 NOSIG=
201805112000 METAR MROC 112000Z 24010KT 9999 FEW025TCU BKN045 25/20 A2999 NOSIG=
201805112100 METAR MROC 112100Z 22006KT 9999 -RA SCT025TCU BKN080 25/20 A2998 NOSIG=
201805112200 METAR MROC 112200Z VRB03KT 9999 FEW018 SCT040 25/20 A2997 NOSIG=
201805112300 METAR MROC 112300Z VRB02KT 9999 -RA VCTS SCT030 BKN080 25/20 A2999 NOSIG=
201805120000 METAR MROC 120000Z 24006KT 5000 -TSRA BR SCT020CB BKN060 23/22 A3000 NOSIG=
201805120100 METAR MROC 120100Z 26007KT 9999 FEW020 BKN060 21/21 A3002 RETSRA NOSIG=
201805120200 METAR MROC 120200Z VRB02KT 8000 VCFG FEW006 SCT030 21/21 A3003 NOSIG=
201805120300 METAR MROC 120300Z 22003KT 8000 VCFG FEW012 SCT030 21/20 A3003 NOSIG=
201805120400 METAR MROC 120400Z 21003KT 3000 BR SCT001 BKN012 21/20 A3005 NOSIG=
201805120500 METAR MROC 120500Z 00000KT 8000 3000 VCFG FEW002 SCT005 BKN015 21/20 A3004 NOSIG=
201805120600 METAR MROC 120600Z 00000KT 9999 4000SW BCFG FEW002 SCT015 BKN025 21/20 A3003 NOSIG=
201805120700 METAR MROC 120700Z 34003KT 320V040 9999 FEW025 SCT045 21/19 A3001 NOSIG=
201805120800 METAR MROC 120800Z 05003KT 010V080 CAVOK 20/19 A2999 NOSIG=
201805120900 METAR MROC 120900Z 03008KT CAVOK 20/18 A2999 NOSIG=
201805121000 METAR MROC 121000Z 09006KT CAVOK 20/17 A2999 NOSIG=
201805121100 METAR MROC 121100Z 09006KT 060V130 CAVOK 21/17 A2999 NOSIG=
201805121200 METAR MROC 121200Z 10010G20KT 9999 -RA FEW040 SCT100 BKN150 22/17 A3001 NOSIG=
201805121300 METAR MROC 121300Z 05008KT 9999 -DZ FEW040 BKN130 22/18 A3003 NOSIG=
201805121400 METAR MROC 121400Z 07006KT 9999 FEW030 BKN140 23/18 A3007 NOSIG=
201805121500 METAR MROC 121500Z 08005KT 040V160 9999 -DZ FEW030 BKN130 24/18 A3009 NOSIG=
201805121600 METAR MROC 121600Z 06009KT 9999 -RA FEW030 BKN130 24/19 A3008 NOSIG=
201805121700 METAR MROC 121700Z 10012KT 9999 FEW045 BKN130 24/18 A3005 NOSIG=
201805121800 METAR MROC 121800Z 10016G26KT 060V120 9999 FEW035 BKN130 25/18 A3002 NOSIG=
201805121900 METAR MROC 121900Z 09009KT 060V120 9999 -RA FEW035 OVC120 24/18 A3001 NOSIG=
201805122000 METAR MROC 122000Z 10012KT 070V130 9999 FEW035 OVC120 25/17 A2998 NOSIG=
201805122100 METAR MROC 122100Z 10009KT 9999 -RA FEW035 OVC120 26/18 A2997 NOSIG=
201805122200 METAR MROC 122200Z 11006KT 070V150 9999 FEW035 BKN120 26/18 A2996 NOSIG=
201805122300 METAR MROC 122300Z 23006KT 9999 FEW035 BKN100 24/20 A2997 NOSIG=
201805130000 METAR MROC 130000Z 13006KT 100V170 9999 FEW035 SCT120 BKN200 24/16 A2999 NOSIG=
201805130100 METAR MROC 130100Z VRB02KT 9999 SCT035 BKN200 23/20 A3002 NOSIG=
201805130200 METAR MROC 130200Z 09003KT 040V180 9999 FEW040 22/17 A3004 NOSIG=
201805130300 METAR MROC 130300Z 09005KT 9999 FEW040 21/17 A3006 NOSIG=
201805130400 METAR MROC 130400Z 08007KT CAVOK 22/17 A3006 NOSIG=
201805130500 METAR MROC 130500Z 07006KT CAVOK 21/17 A3004 NOSIG=
201805130600 METAR MROC 130600Z 08007KT CAVOK 22/17 A3001 NOSIG=
201805130700 METAR MROC 130700Z 06006KT 030V100 CAVOK 21/16 A2999 NOSIG=
201805130800 METAR MROC 130800Z 10009KT 050V120 CAVOK 22/16 A2997 NOSIG=
201805130900 METAR MROC 130900Z 08006KT 050V120 CAVOK 22/17 A2996 NOSIG=
201805131000 METAR MROC 131000Z 06007KT 020V090 CAVOK 22/17 A2996 NOSIG=
201805131100 METAR MROC 131100Z 08008KT 030V110 CAVOK 22/17 A2996 NOSIG=
201805131200 METAR MROC 131200Z 05006KT CAVOK 22/17 A2998 NOSIG=
201805131300 METAR MROC 131300Z 06007KT CAVOK 24/17 A3001 NOSIG=
201805131400 METAR MROC 131400Z COR 06005KT 010V160 9999 FEW045 26/17 A3002 BECMG 24009KT=
201805131500 METAR MROC 131500Z VRB03KT 9999 FEW040 BKN250 27/18 A3003 BECMG 24009KT=
201805131600 METAR MROC 131600Z 26008KT 230V290 9999 SCT040 SCT250 28/19 A3004 NOSIG=
201805131700 METAR MROC 131700Z 25011KT 220V290 9999 FEW030 SCT050 29/20 A3002 NOSIG=
201805131800 METAR MROC 131800Z 23010KT 200V260 9999 VCSH FEW020CB FEW030 BKN100 27/20 A2999 BECMG -TSRA BKN030=
201805131900 METAR MROC 131900Z 14007KT 120V200 7000 2000S TSRA FEW007 FEW010CB BKN040 20/19 A3001 NOSIG=
201805132000 METAR MROC 132000Z VRB02KT 9999 -RA FEW040 BKN120 20/18 A2998 NOSIG=
201805132100 METAR MROC 132100Z 20003KT 9999 3000SW SHRA PRFG FEW010 BKN100 21/19 A2998 RETSRA NOSIG=
201805132200 METAR MROC 132200Z 27003KT CAVOK 22/19 A2998 RESHRA NOSIG=
201805132300 METAR MROC 132300Z 27005KT 240V330 9999 FEW010 OVC160 21/20 A2998 NOSIG=
201805140000 METAR MROC 140000Z 30005KT 9999 FEW008 SCT090 OVC120 21/20 A3000 BECMG BKN010=
201805140100 METAR MROC 140100Z 33003KT 9999 FEW010 BKN120 21/20 A3001 NOSIG=
201805140200 METAR MROC 140200Z VRB01KT 9999 FEW010 BKN140 20/19 A3005 NOSIG=
201805140300 METAR MROC 140300Z 04003KT 350V080 CAVOK 20/19 A3006 NOSIG=
201805140400 METAR MROC 140400Z 06003KT CAVOK 20/18 A3007 NOSIG=
201805140500 METAR MROC 140500Z 02003KT CAVOK 19/18 A3007 NOSIG=
201805140600 METAR MROC 140600Z VRB02KT CAVOK 19/17 A3005 NOSIG=
201805140700 METAR MROC 140700Z 08005KT CAVOK 18/17 A3003 NOSIG=
201805140800 METAR MROC 140800Z 05004KT 9999 SCT020 19/17 A3001 NOSIG=
201805140900 METAR MROC 140900Z 06006KT 9999 SCT020 18/17 A3001 NOSIG=
201805141000 METAR MROC 141000Z 08003KT 9999 BKN030 18/17 A3000 NOSIG=
201805141100 METAR MROC 141100Z 07004KT 9999 SCT025 18/16 A3002 NOSIG=
201805141200 METAR MROC 141200Z 09004KT 9999 SCT025 BKN200 18/17 A3004 NOSIG=
201805141300 METAR MROC 141300Z 08003KT 050V110 9999 FEW030 BKN200 21/17 A3006 NOSIG=
201805141400 METAR MROC 141400Z VRB02KT 9999 FEW035 BKN200 23/18 A3007 BECMG 25008KT=
201805141500 METAR MROC 141500Z VRB02KT CAVOK 24/18 A3006 BECMG 25008KT=
201805141600 METAR MROC 141600Z VRB02KT 9999 FEW035 BKN160 25/18 A3005 NOSIG=
201805141700 METAR MROC 141700Z VRB04KT 9999 FEW040 BKN200 27/18 A3004 NOSIG=
201805141800 METAR MROC 141800Z VRB05KT 9999 FEW040 SCT180 28/19 A3000 NOSIG=
201805141900 METAR MROC 141900Z VRB03KT 9999 FEW040 SCT150 29/18 A2996 NOSIG=
201805142000 METAR MROC 142000Z 23011KT 9999 FEW035TCU SCT250 28/18 A2992 NOSIG=
201805142100 METAR MROC 142100Z 24011KT 200V270 9999 VCTS FEW020CB SCT040 BKN250 28/20 A2990 NOSIG=
201805142135 METAR COR MROC 142135Z 25009KT 200V270 9999 2500N -TSRA FEW015CB SCT035 BKN200 26/20 A2991 BECMG 5000 TSRA=
201805142200 METAR MROC 142200Z 35008KT 310V020 9999 3000N -TSRA SCT015CB BKN035 24/18 A2992 NOSIG=
201805142220 METAR MROC 142220Z VRB06G16KT 2000 +SHRA SCT015 BKN035 22/20 A2992 RETS NOSIG=
201805142235 METAR MROC 142235Z 35005KT 320V030 5000 RA FEW010 SCT015 BKN035 21/20 A2993 RESH NOSIG=
201805142300 METAR MROC 142300Z VRB03G16KT 8000 VCSH FEW010 SCT035 BKN100 21/20 A2993 RERA NOSIG=
201805150000 METAR MROC 150000Z 21003KT 9999 FEW020 BKN035 22/20 A2996 NOSIG=
201805150100 METAR MROC 150100Z 27004KT 220V300 9999 FEW020 BKN035 22/20 A2998 NOSIG=
201805150200 METAR MROC 150200Z 26005KT 9999 4000SW -RA FEW010 SCT015 BKN030 21/20 A3000 NOSIG=
201805150300 METAR MROC 150300Z VRB02KT 5000 -TSRA SCT010CB BKN020 21/20 A3003 NOSIG=
201805150400 METAR MROC 150400Z 17003KT 120V200 6000 -RA BCFG FEW004 SCT020 20/19 A3004 RETS NOSIG=
201805150500 METAR MROC 150500Z VRB02KT 9999 -RA SCT025 BKN070 20/20 A3003 NOSIG=
201805150600 METAR MROC 150600Z 33003KT 330V030 9999 VCFG FEW005 SCT025 BKN090 20/20 A3002 NOSIG=
201805150700 METAR MROC 150700Z 13002KT 9999 FEW025 BKN090 20/20 A3000 NOSIG=
201805150800 METAR MROC 150800Z 07003KT 9999 FEW040 BKN100 20/19 A2997 NOSIG=
201805150900 METAR MROC 150900Z 07004KT CAVOK 20/19 A2996 NOSIG=
201805151000 METAR MROC 151000Z 08004KT 030V130 CAVOK 20/19 A2995 NOSIG=
201805151100 METAR MROC 151100Z 09008KT CAVOK 20/18 A2996 NOSIG=
201805151200 METAR MROC 151200Z 10007KT CAVOK 20/18 A2997 NOSIG=
201805151300 METAR MROC 151300Z 07008KT 010V090 CAVOK 23/19 A2997 NOSIG=
201805151400 METAR MROC 151400Z 08005KT CAVOK 25/18 A2998 NOSIG=
201805151500 METAR MROC 151500Z 24013KT 200V270 CAVOK 23/20 A3001 NOSIG=
201805151600 METAR MROC 151600Z 27008KT 9999 FEW020 SCT045 BKN200 24/20 A3002 NOSIG=
201805151700 METAR MROC 151700Z 26008KT 220V290 9999 FEW020 SCT035 BKN200 25/20 A3001 NOSIG=
201805151800 METAR MROC 151800Z 23009KT 190V260 9999 SCT020 BKN035 25/20 A2999 NOSIG=
201805151900 METAR MROC 151900Z 25010KT 9999 FEW020 SCT035 BKN200 25/21 A2997 NOSIG=
201805152000 METAR MROC 152000Z 24011KT 210V270 9999 SCT020 BKN030 25/21 A2996 BECMG RA=
201805152100 METAR MROC 152100Z 25010KT 9999 -TSRA VCSH SCT010CB BKN025 23/20 A2995 NOSIG=
201805152200 METAR MROC 152200Z 26008KT 230V290 9999 VCSH SCT020 BKN110 23/20 A2994 NOSIG=
201805152300 METAR MROC 152300Z 27007KT 9999 VCTS SCT030 BKN120 23/20 A2994 NOSIG=
201805160000 METAR MROC 160000Z 29006KT 9999 FEW015 SCT100 23/19 A2995 NOSIG=
201805160100 METAR MROC 160100Z 25003KT 230V290 9999 FEW010 SCT100 22/20 A2998 NOSIG=
201805160200 METAR MROC 160200Z 14003KT 9999 FEW035 SCT120 21/21 A2999 NOSIG=
201805160300 METAR MROC 160300Z VRB02KT 9999 BKN040 21/20 A3001 NOSIG=
201805160400 METAR MROC 160400Z VRB02KT 9999 2500SW BCFG SCT005 OVC040 21/20 A3002 BECMG 5000 BR BKN010=
201805160500 METAR MROC 160500Z 05003KT 010V070 9999 FEW010 21/20 A3000 NOSIG=
201805160600 METAR MROC 160600Z 08004KT 340V100 CAVOK 20/19 A2998 NOSIG=
201805160700 METAR MROC 160700Z 06006KT CAVOK 20/18 A2996 NOSIG=
201805160800 METAR MROC 160800Z 35002KT CAVOK 19/18 A2994 NOSIG=
201805160900 METAR MROC 160900Z 11003KT CAVOK 19/18 A2994 NOSIG=
201805161000 METAR MROC 161000Z 10004KT 9999 4500SW BCFG FEW005 19/17 A2994 NOSIG=
201805161100 METAR MROC 161100Z 00000KT 9999 FEW005 18/17 A2995 NOSIG=
201805161200 METAR MROC 161200Z VRB02KT CAVOK 19/17 A2998 NOSIG=
201805161300 METAR MROC 161300Z 08004KT 050V110 21/18 A2999 NOSIG=
201805161400 METAR MROC 161400Z VRB02KT CAVOK 23/18 A2999 BECMG 25008KT=
201805161500 METAR MROC 161500Z VRB04KT CAVOK 25/17 A3000 NOSIG=
201805161600 METAR MROC 161600Z 23006KT 190V270 9999 FEW020 BKN200 25/19 A3000 NOSIG=
201805161700 METAR MROC 161700Z 25008KT 220V280 9999 FEW020 BKN200 25/20 A2999 NOSIG=
201805161800 METAR MROC 161800Z 24010KT 210V270 9999 SCT020 OVC200 26/20 A2998 NOSIG=
201805161900 METAR MROC 161900Z 24009KT 200V260 9999 VCTS SCT020TCU SCT110 25/21 A2996 NOSIG=
201805162000 METAR MROC 162000Z 22008KT 180V270 9999 SCT020 BKN110 27/21 A2994 NOSIG=
201805162100 METAR MROC 162100Z 23011KT 9999 VCTS VCSH FEW015CB SCT020TCU BKN100 25/21 A2992 BECMG 5000 -TSRA=
201805162200 METAR MROC 162200Z 22010KT 9999 VCSH FEW010 SCT020TCU BKN100 24/20 A2991 NOSIG=
201805162300 METAR MROC 162300Z 27009KT 250V310 9999 -TSRA FEW015CB SCT025 BKN100 23/20 A2994 BECMG 5000 RA BR=
201805170000 METAR MROC 170000Z 26006KT 230V310 5000 -RA BR VCTS SCT005 FEW010CB BKN030 22/21 A2998 NOSIG=
201805170100 METAR MROC 170100Z 36005KT 8000 RA SCT007 BKN025 21/20 A3000 NOSIG=
201805170200 METAR MROC 170200Z 04006KT 9999 -RA FEW010 BKN060 21/20 A3000 NOSIG=
201805170300 METAR MROC 170300Z 11004KT 9999 -RA FEW030 BKN120 21/20 A2998 NOSIG=
201805170400 METAR MROC 170400Z 03006KT 9999 -RA NSC 21/20 A2999 NOSIG=
201805170500 METAR MROC 170500Z 25005KT 8000 -RA VCFG FEW002 SCT030 BKN100 20/20 A3000 NOSIG=
201805170600 METAR MROC 170600Z 00000KT 8000 VCFG FEW005 SCT030 BKN100 20/20 A3000 NOSIG=
201805170700 METAR MROC 170700Z 00000KT 9999 SCT030 BKN100 20/20 A2999 NOSIG=
201805170800 METAR MROC 170800Z 04003KT 9999 SCT030 BKN100 21/20 A2997 NOSIG=
201805170900 METAR MROC 170900Z VRB02KT 9999 FEW030 BKN100 20/19 A2994 NOSIG=
201805171000 METAR MROC 171000Z 03004KT CAVOK 20/19 A2993 NOSIG=
201805171100 METAR MROC 171100Z 14003KT 100V170 CAVOK 19/18 A2996 NOSIG=
201805171120 METAR COR MROC 171120Z 20003KT 170V240 0800 -RA FG VV002 19/19 A2996 NOSIG=
201805171200 METAR MROC 171200Z 02004KT 1200 BR SCT002 BKN200 20/19 A2997 NOSIG=
201805171300 METAR MROC 171300Z 11003KT 070V140 5000 BR SCT002 BKN200 21/20 A2998 NOSIG=
201805171400 METAR MROC 171400Z VRB02KT 9999 FEW035 BKN250 24/19 A2999 NOSIG=
201805171500 METAR MROC 171500Z 27005KT 230V310 9999 FEW035 BKN250 26/20 A3000 NOSIG=
201805171600 METAR MROC 171600Z 23009KT 210V270 9999 FEW035 BKN200 26/21 A3000 NOSIG=
201805171700 METAR MROC 171700Z 25007KT 200V300 9999 FEW035 SCT160 27/21 A2998 NOSIG=
201805171800 METAR MROC 171800Z 24010KT 9999 FEW025TCU FEW035 BKN160 27/21 A2996 NOSIG=
201805171900 METAR MROC 171900Z 26013KT 240V300 9999 FEW015TCU FEW030 BKN140 26/22 A2993 NOSIG=
201805172000 METAR COR MROC 172000Z 25012KT 220V280 9999 VCTS FEW010 FEW015CB BKN045 25/22 A2991 BECMG TSRA=
201805172100 METAR MROC 172100Z 24009KT 8000 -RA VCTS FEW005 FEW010CB BKN015 23/21 A2992 RETS BECMG 5000=
201805172200 METAR MROC 172200Z 20005KT 170V260 9999 -SHRA VCTS FEW010CB BKN030 23/21 A2991 NOSIG=
201805172300 METAR MROC 172300Z 35004KT 9999 -RA SCT010 BKN035 23/19 A2993 NOSIG=
201805180000 METAR MROC 180000Z VRB04KT 9999 FEW005 SCT012 BKN100 23/20 A2996 NOSIG=
201805180100 METAR MROC 180100Z VRB02KT 9999 FEW025 BKN140 22/20 A2997 NOSIG=
201805180200 METAR MROC 180200Z VRB02KT CAVOK 22/20 A2999 NOSIG=
201805180300 METAR MROC 180300Z 11002KT 9999 -RA SCT015 BKN140 21/20 A3000 NOSIG=
201805180400 METAR MROC 180400Z 32003KT 290V050 CAVOK 22/20 A3000 NOSIG=
201805180500 METAR MROC 180500Z 09003KT 060V140 CAVOK 21/19 A2998 NOSIG=
201805180600 METAR MROC 180600Z 24004KT 9999 FEW002 21/20 A2997 NOSIG=
201805180700 METAR MROC 180700Z 19003KT 130V220 9000 4000SW BCFG BKN002 20/20 A2996 NOSIG=
201805180800 METAR MROC 180800Z VRB02KT 9999 BKN010 20/20 A2994 NOSIG=
201805180900 METAR MROC 180900Z 13002KT 9999 BKN010 21/20 A2995 NOSIG=
201805181000 METAR MROC 181000Z 10003KT 9999 BKN015 21/19 A2994 NOSIG=
201805181100 METAR MROC 181100Z 07005KT 9999 BKN025 21/19 A2995 NOSIG=
201805181200 METAR MROC 181200Z 07004KT 9999 FEW030 BKN080 21/18 A2996 NOSIG=
201805181300 METAR MROC 181300Z 10004KT 070V130 9999 FEW040 BKN200 22/19 A2996 NOSIG=
201805181400 METAR MROC 181400Z 15003KT 120V190 9999 FEW035 BKN200 24/19 A2998 NOSIG=
201805181500 METAR MROC 181500Z 24005KT 220V280 9999 FEW030 BKN200 26/19 A2999 NOSIG=
201805181600 METAR MROC 181600Z 23008KT 9999 SCT040 BKN200 25/21 A2999 NOSIG=
201805181700 METAR MROC 181700Z 23008KT 200V260 9999 FEW020 BKN200 25/21 A2999 NOSIG=
201805181800 METAR MROC 181800Z 23008KT 200V270 9999 SCT030 BKN200 25/21 A2998 NOSIG=
201805181900 METAR MROC 181900Z 27006KT 230V310 9999 FEW020 SCT035 BKN200 26/21 A2994 NOSIG=
201805182000 METAR MROC 182000Z 23010KT 9999 FEW020 BKN045 25/20 A2992 NOSIG=
201805182100 METAR MROC 182100Z 25011KT 9999 VCSH SCT025TCU SCT100 24/21 A2991 NOSIG=
201805182200 METAR MROC 182200Z 29006KT 200V320 9999 4500SW VCSH FEW015 BKN150 23/21 A2995 NOSIG=
201805182300 METAR MROC 182300Z 26006KT 9999 4000SW FEW012 BKN120 23/20 A2993 NOSIG=
201805190000 METAR MROC 190000Z 23005KT 210V270 9999 3000SW PRFG FEW008 SCT012 BKN160 22/21 A2995 NOSIG=
201805190100 METAR MROC 190100Z VRB01KT 9999 FEW007 22/21 A2997 NOSIG=
201805190200 METAR MROC 190200Z VRB02KT 9999 2500SW SCT005 22/21 A2999 NOSIG=
201805190300 METAR MROC 190300Z 23002KT 9999 4000SE FEW005 SCT030 21/21 A3000 NOSIG=
201805190400 METAR MROC 190400Z 00000KT 9999 FEW030 21/21 A3002 NOSIG=
201805190500 METAR MROC 190500Z VRB01KT 9999 3500SW VCFG FEW005 SCT030 21/21 A3001 NOSIG=
201805190600 METAR MROC 190600Z VRB02KT 9000 3500SW VCFG FEW003 BKN025 21/20 A2999 NOSIG=
201805190700 METAR MROC 190700Z 00000KT 5000 BR SCT008 OVC025 21/21 A2999 NOSIG=
201805190800 METAR MROC 190800Z 36003KT 330V070 7000 VCFG FEW010 BKN020 21/20 A2998 NOSIG=
201805190900 METAR MROC 190900Z 23002KT 8000 VCFG FEW008 BKN020 21/20 A2997 NOSIG=
201805191000 METAR MROC 191000Z 06003KT 010V100 9999 SCT020 21/20 A2996 NOSIG=
201805191100 METAR MROC 191100Z VRB02KT 9999 FEW010 BKN030 21/20 A2998 NOSIG=
201805191200 METAR MROC 191200Z 29003KT 8000 VCFG SCT010 BKN035 21/20 A3000 NOSIG=
201805191300 METAR MROC 191300Z 25003KT 230V300 9999 3000SW PRFG FEW003 BKN100 22/20 A3001 BECMG 5000 BR=
201805191400 METAR MROC 191400Z VRB01KT 9000 2500SW PRFG BKN010 22/20 A3003 NOSIG=
201805191424 METAR MROC 191424Z VRB01KT 9000 2500SW PRFG BKN010 22/20 A3003 NOSIG=
201805191500 METAR MROC 191500Z 26003KT 210V320 9999 2500SW PRFG VCFG FEW010 BKN100 23/21 A3003 NOSIG=
201805191600 METAR MROC 191600Z 26006KT 210V320 9999 VCFG BKN020 24/20 A3004 NOSIG=
201805191700 METAR MROC 191700Z 26008KT 9999 SCT020 BKN220 25/20 A3001 NOSIG=
201805191800 METAR MROC 191800Z 25009KT 9999 SCT020 BKN180 25/21 A3000 NOSIG=
201805191900 METAR MROC 191900Z 24007KT 210V170 9999 FEW020 BKN030 25/21 A2998 NOSIG=
201805192000 METAR MROC 192000Z 24008KT 190V270 9999 FEW030 BKN160 26/20 A2995 NOSIG=
201805192100 METAR MROC 192100Z 25010KT 210V270 9999 FEW025TCU SCT030 BKN200 25/20 A2994 NOSIG=
201805192200 METAR MROC 192200Z 23011KT 180V260 9999 SCT035 BKN250 26/20 A2993 NOSIG=
201805192300 METAR MROC 192300Z 26011KT 230V290 9999 SCT030 BKN200 24/20 A2995 NOSIG=
201805200000 METAR MROC 200000Z 28008KT 9999 FEW015 SCT025 BKN200 23/20 A2997 NOSIG=
201805200100 METAR MROC 200100Z 25005KT 9999 SCT015 BKN200 22/20 A3000 NOSIG=
201805200200 METAR MROC 200200Z 24003KT 190V330 9999 FEW015 SCT025 BKN040 22/20 A3001 NOSIG=
201805200300 METAR MROC 200300Z VRB02KT 9999 FEW010 SCT120 22/21 A3002 NOSIG=
201805200400 METAR MROC 200400Z 08004KT CAVOK 21/20 A3002 NOSIG=
201805200500 METAR MROC 200500Z 06006KT CAVOK 21/19 A3000 NOSIG=
201805200600 METAR MROC 200600Z VRB02KT CAVOK 21/19 A2999 NOSIG=
201805200700 METAR MROC 200700Z VRB02KT 9999 FEW002 SCT150 20/19 A2998 NOSIG=
201805200800 METAR MROC 200800Z 05002KT 9999 FEW002 SCT150 20/18 A2997 NOSIG=
201805200900 METAR MROC 200900Z 07003KT CAVOK 19/18 A2996 NOSIG=
201805201000 METAR MROC 201000Z 11004KT CAVOK 19/18 A2997 NOSIG=
201805201100 METAR MROC 201100Z 05005KT CAVOK 19/17 A2998 NOSIG=
201805201200 METAR MROC 201200Z 12003KT 9999 FEW030 BKN180 19/17 A3001 NOSIG=
201805201300 METAR MROC 201300Z 09003KT 9999 FEW010 BKN180 20/18 A3002 BECMG 22006KT=
201805201400 METAR MROC 201400Z 22006KT 9999 FEW025 SCT120 BKN200 22/18 A3003 NOSIG=
201805201500 METAR MROC 201500Z 28003KT 230V320 9999 FEW025 SCT050 BKN200 23/20 A3004 NOSIG=
201805201600 METAR MROC 201600Z 28005KT 240V350 9999 FEW025 SCT050 BKN200 24/19 A3004 NOSIG=
201805201700 METAR MROC 201700Z 27006KT 230V300 9999 FEW025 SCT045 BKN200 25/20 A3002 NOSIG=
201805201800 METAR MROC 201800Z 25005KT 210V300 9999 FEW025 SCT045 BKN200 26/20 A3000 NOSIG=
201805201900 METAR MROC 201900Z 26010KT 9999 FEW020 SCT035 BKN200 25/21 A2998 NOSIG=
201805202000 METAR MROC 202000Z 23010KT 9999 FEW020 SCT035 BKN200 25/20 A2996 BECMG RA=
201805202100 METAR MROC 202100Z 24009KT 9999 SCT030 BKN130 24/20 A2995 NOSIG=
201805202200 METAR MROC 202200Z 25009KT 9999 SCT030 BKN130 23/20 A2996 NOSIG=
201805202300 METAR MROC 202300Z 24005KT 9999 FEW020 BKN130 23/20 A2997 NOSIG=
201805210000 METAR MROC 210000Z 25006KT 230V290 9999 FEW030 SCT130 BKN200 22/20 A2999 NOSIG=
201805210100 METAR MROC 210100Z 26005KT 9999 VCTS SCT015 SCT130 21/20 A3000 NOSIG=
201805210200 METAR MROC 210200Z VRB02KT 9999 SCT010 BKN030 21/20 A3003 RETS NOSIG=
201805210300 METAR MROC 210300Z VRB01KT 9999 SCT020 21/20 A3003 NOSIG=
201805210400 METAR MROC 210400Z VRB02KT CAVOK 21/20 A3004 NOSIG=
201805210500 METAR MROC 210500Z 27004KT 9999 FEW003 21/20 A3003 NOSIG=
201805210600 METAR MROC 210600Z 00000KT 9999 2500SW BCFG FEW003 BKN005 21/20 A3001 BECMG 3000 BR=
201805210700 METAR MROC 210700Z 18002KT 9999 BCFG FEW003 BKN030 20/20 A2997 NOSIG=
201805210800 METAR MROC 210800Z 19002KT 9999 2000SW PRFG BCFG FEW001 20/20 A2995 NOSIG=
201805210900 METAR MROC 210900Z 30003KT 250V320 9999 2500SW PRFG BCFG FEW001 BKN003 20/20 A2994 NOSIG=
201805211000 METAR MROC 211000Z 00000KT 8000 1500SW PRFG FEW001 BKN003 20/20 A2994 NOSIG=
201805211100 METAR MROC 211100Z VRB02KT 9999 2000SW BCFG FEW002 BKN010 20/19 A2996 NOSIG=
201805211200 METAR MROC 211200Z 03003KT 330V060 9999 3000SW BCFG VCFG FEW005 BKN015 20/19 A2998 NOSIG=
201805211300 METAR MROC 211300Z 03004KT 9999 FEW025 BKN250 22/18 A3000 NOSIG=
201805211400 METAR MROC 211400Z VRB03KT 9999 SCT025 BKN250 24/19 A3000 NOSIG=
201805211500 METAR MROC 211500Z VRB03KT 9999 FEW025 SCT250 25/19 A3000 NOSIG=
201805211600 METAR MROC 211600Z 25007KT 220V340 9999 SCT025 26/20 A3000 NOSIG=
201805211700 METAR MROC 211700Z 24009KT 210V280 9999 SCT025 SCT120 26/20 A2998 NOSIG=
201805211800 METAR MROC 211800Z 23011KT 200V260 9999 VCTS SCT025TCU BKN120 27/21 A2997 NOSIG=
201805211900 METAR MROC 211900Z 31007KT 9999 4000SW SHRA VCTS SCT010CB SCT110 24/19 A2995 BECMG -TSRA=
201805212000 METAR MROC 212000Z 11003KT 070V140 9999 -TSRA SCT010CB OVC100 22/20 A2995 NOSIG=
201805212100 METAR MROC 212100Z 27005KT 240V300 5000 RA FEW002 BKN035 20/19 A2996 RETS NOSIG=
201805212200 METAR MROC 212200Z 34003KT 320V030 5000 BR FEW002 BKN035 20/19 A2995 RERA NOSIG=
201805212300 METAR MROC 212300Z 25003KT 200V010 5000 RA BR FEW002 SCT030 BKN100 21/19 A2996 NOSIG=
201805220000 METAR MROC 220000Z 07002KT 9999 -RA BCFG FEW005 BKN030 21/20 A2997 NOSIG=
201805220100 METAR MROC 220100Z VRB02KT 9999 -RA SCT025 OVC100 21/20 A2999 NOSIG=
201805220200 METAR MROC 220200Z 23001KT 9999 SCT020 OVC100 21/20 A3001 NOSIG=
201805220300 METAR MROC 220300Z 00000KT 9999 -RA FEW020 BKN100 21/20 A3002 NOSIG=
201805220400 METAR MROC 220400Z 33003KT CAVOK 21/20 A3002 NOSIG=
201805220500 METAR MROC 220500Z 22003KT 0800 FG VV002 21/20 A3002 NOSIG=
201805220600 METAR MROC 220600Z 24002KT 1500 BR SCT001 BKN012 20/20 A2999 NOSIG=
201805220635 METAR MROC 220635Z 28003KT 240V340 5000 BR FEW001 SCT012 BKN020 20/20 A2999 NOSIG=
201805220700 METAR MROC 220700Z 34002KT 8000 VCFG FEW001 SCT012 BKN020 20/20 A2997 NOSIG=
201805220800 METAR MROC 220800Z 33003KT 9999 BCFG FEW012 SCT020 BKN100 20/20 A2996 NOSIG=
201805220900 METAR MROC 220900Z 27002KT 9999 FEW020 SCT100 20/19 A2995 NOSIG=
201805221000 METAR MROC 221000Z VRB02KT 9999 FEW015 SCT100 20/19 A2996 NOSIG=
201805221100 METAR MROC 221100Z 00000KT 9999 BCFG FEW015 SCT100 20/19 A2996 NOSIG=
201805221200 METAR MROC 221200Z 12003KT 8000 BCFG FEW030 SCT120 BKN200 20/19 A2998 NOSIG=
201805221300 METAR MROC 221300Z 09003KT 060V130 CAVOK 21/20 A3000 NOSIG=
201805221400 METAR MROC 221400Z 14003KT 090V180 CAVOK 23/19 A3001 NOSIG=
201805221500 METAR MROC 221500Z 26003KT 200V350 9999 FEW040 BKN120 24/20 A3002 NOSIG=
201805221600 METAR MROC 221600Z 25005KT 190V310 9999 SCT040 BKN120 25/19 A3002 NOSIG=
201805221700 METAR MROC 221700Z 24007KT 9999 VCSH BKN030 25/21 A3000 NOSIG=
201805221800 METAR MROC 221800Z 23008KT 9999 -RA FEW015TCU BKN030 23/21 A2998 NOSIG=
201805221900 METAR MROC 221900Z 23006KT 9999 BKN030 24/21 A2997 NOSIG=
201805222000 METAR MROC 222000Z 25008KT 9999 FEW015TCU SCT030 BKN100 24/20 A2996 NOSIG=
201805222100 METAR MROC 222100Z 26008KT 9999 -DZ FEW005 SCT030 BKN120 23/21 A2994 RERA NOSIG=
201805222200 METAR MROC 222200Z 26004KT 9999 FEW005 SCT025 BKN140 22/21 A2994 NOSIG=
201805222300 METAR MROC 222300Z 27005KT 230V320 9999 VCFG SCT025 OVC150 22/20 A2996 NOSIG=
201805230000 METAR MROC 230000Z 23002KT 9999 -RA FEW025 OVC140 21/20 A2997 NOSIG=
201805230100 METAR MROC 230100Z 00000KT 9999 -DZ FEW025 BKN120 22/20 A3000 NOSIG=
201805230200 METAR MROC 230200Z VRB02KT 9999 FEW030 BKN140 22/20 A3001 NOSIG=
201805230300 METAR MROC 230300Z 08003KT 9999 FEW040 BKN180 22/19 A3002 NOSIG=
201805230400 METAR MROC 230400Z VRB01KT CAVOK 21/19 A3003 NOSIG=
201805230500 METAR MROC 230500Z 22002KT 1500 BR SCT003 20/20 A3004 NOSIG=
201805230600 METAR MROC 230600Z 04002KT 8000 SCT005 20/19 A3002 NOSIG=
201805230700 METAR MROC 230700Z VRB01KT 9999 SCT005 BKN010 20/19 A3000 NOSIG=
201805230800 METAR MROC 230800Z 12002KT 9999 SCT005 20/19 A2999 NOSIG=
201805230900 METAR MROC 230900Z 10004KT 9999 SCT008 20/19 A2998 NOSIG=
201805231000 METAR MROC 231000Z 11005KT 9999 FEW025 20/18 A2998 NOSIG=
201805231100 METAR MROC 231100Z 09005KT CAVOK 19/18 A2998 NOSIG=
201805231200 METAR MROC 231200Z 09004KT CAVOK 19/17 A2999 NOSIG=
201805231300 METAR MROC 231300Z 09004KT 060V120 CAVOK 20/17 A3002 NOSIG=
201805231400 METAR MROC 231400Z VRB03KT CAVOK 22/18 A3005 BECMG 25005KT=
201805231500 METAR MROC 231500Z 25006KT 210V290 9999 FEW030 24/19 A3007 NOSIG=
201805231600 METAR MROC 231600Z 25007KT 210V300 9999 FEW030 25/19 A3006 NOSIG=
201805231700 METAR MROC 231700Z 24009KT 190V290 9999 FEW025 26/20 A3004 NOSIG=
201805231800 METAR MROC 231800Z 25010KT 9999 SCT030 26/20 A3002 NOSIG=
201805231900 METAR MROC 231900Z 24009KT 210V280 9999 FEW020TCU SCT120 26/20 A3000 NOSIG=
201805232000 METAR MROC 232000Z 24011KT 9999 -RA VCSH FEW020TCU FEW040 SCT120 25/21 A2998 NOSIG=
201805232100 METAR MROC 232100Z 20008KT 150V230 9999 SHRA FEW010CB FEW015 BKN120 25/21 A2997 NOSIG=
201805232200 METAR MROC 232200Z 13003KT 090V170 9999 4500SW VCSH FEW010 SCT035 BKN120 23/19 A2998 RESHRA NOSIG=
201805232300 METAR MROC 232300Z 21004KT 190V250 9999 4500SW -DZ BCFG FEW010 BKN020 22/21 A3001 NOSIG=
201805240000 METAR MROC 240000Z 01004KT 300V030 9999 -RA SCT015 BKN100 21/20 A3003 NOSIG=
201805240100 METAR MROC 240100Z VRB02KT 9999 FEW010 BKN100 21/20 A3004 NOSIG=
201805240200 METAR MROC 240200Z VRB02KT 9999 FEW010 BKN100 21/20 A3007 NOSIG=
201805240300 METAR MROC 240300Z VRB01KT 9999 BCFG FEW005 BKN100 21/20 A3007 NOSIG=
201805240400 METAR MROC 240400Z 00000KT 9999 FEW020 BKN120 21/20 A3007 NOSIG=
201805240500 METAR MROC 240500Z 00000KT 9999 FEW020 BKN200 21/20 A3007 NOSIG=
201805240600 METAR MROC 240600Z 04003KT 010V070 9999 FEW020 BKN200 21/20 A3005 NOSIG=
201805240700 METAR MROC 240700Z 08003KT 9999 FEW025 20/19 A3002 NOSIG=
201805240800 METAR MROC 240800Z 09005KT CAVOK 20/19 A3001 NOSIG=
201805240900 METAR MROC 240900Z 03004KT CAVOK 20/19 A3000 NOSIG=
201805241000 METAR MROC 241000Z 00000KT CAVOK 20/19 A3000 NOSIG=
201805241100 METAR MROC 241100Z 13003KT 9999 2000SW BCFG FEW001 BKN200 20/19 A3000 NOSIG=
201805241200 METAR MROC 241200Z 07003KT 350V080 CAVOK 20/19 A3002 NOSIG=
201805241300 METAR MROC 241300Z VRB01KT CAVOK 22/19 A3004 NOSIG=
201805241400 METAR MROC 241400Z VRB02KT CAVOK 24/20 A3005 NOSIG=
201805241500 METAR MROC 241500Z VRB03KT CAVOK 25/20 A3006 BECMG 24008KT=
201805241600 METAR MROC 241600Z 24006KT 200V290 9999 FEW030 SCT250 26/19 A3006 NOSIG=
201805241700 METAR MROC 241700Z 25009KT 230V290 9999 SCT035 26/20 A3005 NOSIG=
201805241800 METAR MROC 241800Z 26011KT 9999 SCT030 26/21 A3003 NOSIG=
201805241900 METAR MROC 241900Z 25009KT 210V280 9999 FEW025TCU SCT035 27/21 A3001 NOSIG=
201805242000 METAR MROC 242000Z 25010KT 220V280 9999 4500SW RA VCTS SCT030 27/22 A2998 BECMG -TSRA=
201805242100 METAR MROC 242100Z 24012KT 9999 VCTS VCSH FEW015CB SCT025 BKN080 25/22 A2996 RERA BECMG TSRA=
201805242200 METAR MROC 242200Z 24008KT 8000 -TSRA FEW010 FEW015CB SCT025 BKN080 23/21 A2997 NOSIG=
201805242234 METAR MROC 242234Z 21010KT 1500 -TSRA FEW001 SCT010CB BKN020 21/20 A3004 NOSIG=
201805242235 METAR MROC 242235Z 26010KT 240V350 5000 2000N RA VCTS FEW010 SCT015CB BKN025 23/21 A3000 RETS BECMG TSRA=
201805242245 METAR MROC 242245Z 21010KT 1500 -TSRA FEW001 SCT010CB BKN020 21/20 A3004 NOSIG=
201805242300 METAR MROC 242300Z VRB04KT 0500 R07/2000D +TSRA FEW001 SCT010CB BKN015 20/20 A3004 NOSIG=
201805250000 METAR MROC 250000Z 02004KT 9999 -RA FEW015 SCT025 BKN080 20/20 A3005 NOSIG=
201805250100 METAR MROC 250100Z 11004KT 9999 -RA NSC 20/20 A3002 NOSIG=
201805250200 METAR MROC 250200Z 10009KT 070V150 9999 -RA NSC 21/19 A2998 NOSIG=
201805250300 METAR MROC 250300Z 34003KT 280V030 CAVOK 21/19 A3002 NOSIG=
201805250400 METAR MROC 250400Z VRB03KT 9999 FEW015 SCT040 BKN200 21/19 A3004 NOSIG=
201805250500 METAR MROC 250500Z 12004KT 9999 FEW030 SCT120 20/19 A3005 NOSIG=
201805250600 METAR MROC 250600Z 07005KT CAVOK 20/19 A3004 NOSIG=
201805250700 METAR MROC 250700Z 07006KT CAVOK 20/19 A3002 NOSIG=
201805250800 METAR MROC 250800Z 07007KT 9999 FEW040 20/17 A2999 NOSIG=
201805250900 METAR MROC 250900Z 06006KT 9999 FEW040 19/17 A2999 NOSIG=
201805251000 METAR MROC 251000Z 08006KT 9999 FEW040 18/17 A2999 NOSIG=
201805251100 METAR MROC 251100Z 08006KT CAVOK 18/16 A2998 NOSIG=
201805251200 METAR MROC 251200Z 08008KT CAVOK 19/16 A3000 NOSIG=
201805251300 METAR MROC 251300Z 08005KT 050V110 CAVOK 22/18 A3001 BECMG 22006KT=
201805251400 METAR MROC 251400Z 08004KT 050V130 CAVOK 25/19 A3002 BECMG 22006KT=
201805251500 METAR MROC 251500Z 25006KT 230V290 9999 FEW040 SCT250 26/20 A3002 NOSIG=
201805251600 METAR MROC 251600Z 25004KT 210V290 9999 FEW040 SCT250 27/19 A3000 NOSIG=
201805251700 METAR MROC 251700Z 24010KT 9999 FEW040 SCT250 27/19 A3000 NOSIG=
201805251800 METAR MROC 251800Z 24012KT 210V270 9999 FEW035 SCT250 27/21 A2998 NOSIG=
201805251900 METAR MROC 251900Z 26011KT 230V290 9999 VCTS FEW020CB FEW025 SCT035 27/22 A2995 NOSIG=
201805252000 METAR MROC 252000Z 26009KT 210V290 9999 -TS VCSH FEW020CB FEW025TCU SCT030 BKN100 27/22 A2992 BECMG 5000 TSRA=
201805252100 METAR MROC 252100Z 25010KT 9999 4000SW TSRA VCSH SCT020CB BKN100 23/21 A2992 NOSIG=
201805252200 METAR MROC 252200Z 27010KT 8000 3000SW -RA VCTS SCT002 BKN015 23/22 A2993 RETSRA BECMG 3000=
201805252300 METAR MROC 252300Z 31006KT 4000 -TSRA BR FEW002 SCT005 BKN020 22/21 A2994 NOSIG=
201805260000 METAR MROC 260000Z VRB03KT 9999 FEW005 SCT025 BKN100 22/20 A2995 NOSIG=
201805260100 METAR MROC 260100Z VRB01KT 9999 FEW030 BKN100 22/20 A2998 NOSIG=
201805260200 METAR MROC 260200Z 26005KT 9999 FEW005 BKN100 22/21 A3002 NOSIG=
201805260300 METAR MROC 260300Z VRB02KT 8000 -RA BR SCT008 BKN100 22/21 A3005 NOSIG=
201805260400 METAR MROC 260400Z 08007KT 9000 3500SW -RA NSC 20/19 A3005 NOSIG=
201805260500 METAR MROC 260500Z 06005KT 9999 -RA NSC 21/19 A3002 NOSIG=
201805260600 METAR MROC 260600Z 22006KT 9999 -RA FEW010 BKN100 20/19 A3001 NOSIG=
201805260700 METAR MROC 260700Z 26004KT 3000 1500SW -RA BR OVC002 20/19 A2999 NOSIG=
201805260800 METAR MROC 260800Z VRB02KT 9999 -RA VCFG FEW002 BKN100 20/19 A2996 NOSIG=
201805260900 METAR MROC 260900Z 08006KT 9999 -RA NSC 20/19 A2993 NOSIG=
201805261000 METAR MROC 261000Z 05008KT CAVOK 21/19 A2992 NOSIG=
201805261100 METAR MROC 261100Z 26006KT 0600 R07/0400D -RA FG SCT001 BKN005 20/19 A2996 NOSIG=
201805261119 METAR MROC 261119Z 34003KT 300V010 4000 1500SW BR SCT002 BKN100 20/19 A2997 NOSIG=
201805261200 METAR MROC 261200Z VRB01KT 9999 2000S PRFG FEW004 BKN200 20/19 A2999 NOSIG=
201805261300 METAR MROC 261300Z 10004KT 8000 VCFG FEW001 BKN200 21/20 A2999 NOSIG=
201805261400 METAR MROC 261400Z 15003KT 9999 FEW040 BKN200 24/19 A3001 NOSIG=
201805261500 METAR MROC 261500Z 26004KT 180V300 9999 FEW040 BKN140 25/19 A3002 NOSIG=
201805261600 METAR MROC 261600Z 28003KT 210V360 9999 FEW040 BKN120 25/19 A3001 NOSIG=
201805261700 METAR MROC 261700Z 25009KT 9999 FEW040 BKN120 26/19 A3000 NOSIG=
201805261800 METAR MROC 261800Z 24011KT 210V270 9999 SCT030 SCT120 26/20 A2998 NOSIG=
201805261835 METAR MROC 021000Z 07004KT 040V110 CAVOK 21/18 A2991 NOSIG=
201805261900 METAR MROC 261900Z 24013KT 9999 VCSH FEW010 BKN030 23/21 A2996 NOSIG=
201805262000 METAR MROC 262000Z 25013KT 9999 -RA FEW005 BKN030 22/21 A2995 NOSIG=
201805262100 METAR MROC 262100Z 24009KT 8000 -RA VCFG SCT004 BKN010 22/21 A2995 NOSIG=
201805262200 METAR MROC 262200Z 23007KT 190V250 5000 5000 -RA BR SCT002 BKN010 21/20 A2996 NOSIG=
201805262300 METAR MROC 262300Z 31003G16KT 260V350 9999 -RA FEW005 SCT015 OVC100 21/20 A2997 RERA NOSIG=
201805270000 METAR MROC 270000Z 09003KT 030V120 9999 -RA FEW025 OVC100 21/20 A2999 NOSIG=
201805270100 METAR MROC 270100Z 09003KT 9999 -RA NSC 21/20 A3001 RERA NOSIG=
201805270200 METAR MROC 270200Z 00000KT 9999 -RA NSC 21/20 A3002 NOSIG=
201805270300 METAR MROC 270300Z VRB02KT 9999 FEW002 OVC100 21/20 A3002 NOSIG=
201805270400 METAR MROC 270400Z 25003KT 230V290 9999 BCFG FEW025 BKN120 21/20 A3004 NOSIG=
201805270500 METAR MROC 270500Z 25003KT 9999 BCFG FEW005 SCT015 BKN025 20/20 A3005 NOSIG=
201805270600 METAR MROC 270600Z 23004KT 1500 -RA BR FEW001 SCT005 BKN015 20/20 A3004 NOSIG=
201805270700 METAR MROC 270700Z 00000KT 9999 BCFG FEW002 SCT015 BKN035 20/19 A3001 NOSIG=
201805270800 METAR MROC 270800Z 00000KT 9999 BCFG FEW002 SCT015 BKN035 20/20 A2998 NOSIG=
201805270900 METAR MROC 270900Z 08003KT 9999 FEW015 BKN120 20/20 A2997 NOSIG=
201805271000 METAR MROC 271000Z 09003KT 9999 FEW015 BKN120 20/19 A2997 NOSIG=
201805271100 METAR MROC 271100Z 07005KT CAVOK 20/19 A2996 NOSIG=
201805271200 METAR MROC 271200Z 07005KT CAVOK 21/19 A2997 NOSIG=
201805271300 METAR MROC 271300Z 10003KT CAVOK 21/20 A3000 NOSIG=
201805271400 METAR MROC 271400Z 08003KT 040V130 CAVOK 24/19 A3003 NOSIG=
201805271500 METAR MROC 271500Z 25007KT CAVOK 24/20 A3005 NOSIG=
201805271600 METAR MROC 271600Z 24008KT 210V270 9999 FEW040 BKN150 25/20 A3006 NOSIG=
201805271700 METAR MROC 271700Z 24007KT 9999 FEW040 BKN150 25/19 A3004 NOSIG=
201805271800 METAR MROC 271800Z 24007KT 9999 FEW040 BKN200 25/20 A3002 NOSIG=
201805271900 METAR MROC 271900Z 24008KT 210V290 9999 FEW040 BKN200 25/20 A3000 NOSIG=
201805272000 METAR MROC 272000Z 27010KT 240V300 9999 SCT040 BKN200 25/20 A2998 NOSIG=
201805272100 METAR MROC 272100Z 24010KT 200V260 9999 -RA VCSH FEW010TCU FEW015 SCT040 BKN100 24/20 A2997 NOSIG=
201805272200 METAR MROC 272200Z 25008KT 9000 -RA VCFG FEW004 BKN040 21/21 A2997 NOSIG=
201805272300 METAR MROC 272300Z 26007KT 9000 VCFG FEW004 SCT015 BKN040 21/20 A3000 NOSIG=
201805280000 METAR MROC 280000Z 25005KT 9000 -DZ VCFG FEW003 SCT015 BKN040 21/20 A3002 NOSIG=
201805280100 METAR MROC 280100Z 27004KT 7000 3000SW RA BCFG FEW002 SCT010 BKN040 21/20 A3005 NOSIG=
201805280200 METAR MROC 280200Z VRB01KT 8000 3500SW RA BCFG FEW002 SCT025 BKN100 21/20 A3006 NOSIG=
201805280300 METAR MROC 280300Z 09005KT 9999 RA FEW020 BKN120 21/20 A3007 NOSIG=
201805280400 METAR MROC 280400Z 09006KT 9999 -RA NSC 21/20 A3007 NOSIG=
201805280500 METAR MROC 280500Z 07007KT 9999 -RA NSC 21/20 A3006 NOSIG=
201805280600 METAR MROC 280600Z 04003KT 020V100 9999 -DZ NSC 21/19 A3002 NOSIG=
201805280700 METAR MROC 280700Z VRB02KT 9999 -DZ BCFG FEW002 BKN100 20/19 A3001 NOSIG=
201805280800 METAR MROC 280800Z VRB02KT 9999 -RA SCT002 BKN100 20/20 A3001 NOSIG=
201805280900 METAR MROC 280900Z 05003KT 9999 -RA FEW005 BKN100 20/19 A3000 NOSIG=
201805281000 METAR MROC 281000Z 09005KT 9999 -RA NSC 20/19 A3000 NOSIG=
201805281100 METAR MROC 281100Z 09004KT 9999 -RA NSC 20/19 A3000 NOSIG=
201805281200 METAR MROC 281200Z 07005KT 9999 -RA NSC 21/19 A3000 NOSIG=
201805281300 METAR MROC 281300Z 11004KT CAVOK 22/20 A3002 NOSIG=
201805281400 METAR MROC 281400Z 23003KT 190V260 CAVOK 24/21 A3004 NOSIG=
201805281500 METAR MROC 281500Z 25006KT 200V300 CAVOK 25/19 A3005 NOSIG=
201805281600 METAR MROC 281600Z 25007KT 220V290 9999 FEW030 SCT180 26/19 A3004 NOSIG=
201805281700 METAR MROC 281700Z 26007KT 230V290 9999 FEW030 BKN190 26/21 A3003 NOSIG=
201805281800 METAR MROC 281800Z 25009KT 220V280 9999 FEW035 BKN160 26/21 A3002 NOSIG=
201805281900 METAR MROC 281900Z 26009KT 9999 FEW030 BKN150 25/20 A3000 NOSIG=
201805282000 METAR MROC 282000Z 26011KT 9999 FEW010 SCT030 BKN180 25/22 A2998 NOSIG=
201805282100 METAR MROC 282100Z 29009KT 9999 VCSH BKN020 25/21 A2996 NOSIG=
201805282200 METAR MROC 282200Z 22007KT 9999 4500SW -RA VCTS SCT004 BKN010 22/21 A2998 NOSIG=
201805282300 METAR MROC 282300Z 25005KT 9999 4000SW BCFG FEW002 BKN100 21/21 A2999 NOSIG=
201805290000 METAR MROC 290000Z 28004KT 240V320 9999 4500SW -RA BCFG FEW004 SCT030 BKN100 21/20 A3002 NOSIG=
201805290100 METAR MROC 290100Z 27004KT 230V310 9999 BCFG FEW005 SCT015 BKN120 21/20 A3005 NOSIG=
201805290200 METAR MROC 290200Z 35004KT 9999 FEW010 21/20 A3007 NOSIG=
201805290300 METAR MROC 290300Z VRB01KT 9999 FEW010 BKN120 22/20 A3008 NOSIG=
201805290400 METAR MROC 290400Z 00000KT CAVOK 21/20 A3006 NOSIG=
201805290500 METAR MROC 290500Z VRB02KT CAVOK 21/20 A3003 NOSIG=
201805290600 METAR MROC 290600Z 23003KT CAVOK 21/20 A3003 NOSIG=
201805290700 METAR MROC 290700Z 26006KT 2800 -RA FEW001 BKN003 21/20 A3003 NOSIG=
201805290800 METAR MROC 290800Z 24003KT 200V270 4000 -RA BR OVC002 21/20 A3003 NOSIG=
201805290900 METAR MROC 290900Z 00000KT 8000 VCFG FEW003 BKN020 21/20 A2998 NOSIG=
201805291000 METAR MROC 291000Z 07004KT 9999 FEW010 SCT030 BKN100 21/20 A2998 NOSIG=
201805291100 METAR MROC 291100Z 34003KT CAVOK 21/19 A2999 NOSIG=
201805291200 METAR MROC 291200Z 14003KT 9999 FEW003 20/20 A3000 NOSIG=
201805291300 METAR MROC 291300Z 11003KT 080V140 9999 FEW010 BKN250 22/20 A3001 BECMG 22006KT=
201805291400 METAR MROC 291400Z 08007KT 060V120 9999 CAVOK 26/20 A3002 BECMG 22006KT=
201805291500 METAR MROC 291500Z VRB02KT 9999 FEW030 SCT250 27/20 A3003 BECMG 23007KT=
201805291600 METAR MROC 291600Z 23007KT 200V270 9999 FEW045 BKN250 26/20 A3003 NOSIG=
201805291700 METAR MROC 291700Z 25010KT 9999 FEW035 BKN250 27/21 A3003 NOSIG=
201805291800 METAR MROC 291800Z 24011KT 210V280 9999 FEW035 SCT300 26/22 A3000 NOSIG=
201805291900 METAR MROC 291900Z 23011KT 200V270 9999 VCTS FEW025CB FEW030 27/22 A2997 NOSIG=
201805292000 METAR MROC 292000Z 25011KT 210V280 9999 RA SCT020TCU 27/22 A2995 NOSIG=
201805292100 METAR MROC 292100Z 24012KT 9999 4000S -TSRA FEW010 FEW015CB SCT020 BKN030 24/21 A2993 NOSIG=
201805292200 METAR MROC 292200Z 10011KT 2000 TSRA BR FEW005 SCT010CB BKN025 20/19 A2997 NOSIG=
201805292215 METAR MROC 292215Z COR 10007KT 070V150 1000 R07/P2000N TSRA BR FEW005 SCT010CB BKN025 19/18 A2998 NOSIG=
201805292240 METAR MROC 292240Z COR 09004KT 050V110 3000 TSRA BR FEW005 SCT010CB BKN030 19/19 A2998 NOSIG=
201805292300 METAR MROC 292300Z 08003KT 030V120 5000 -TSRA BR FEW005 FEW010CB SCT020 BKN040 20/19 A3000 NOSIG=
201805300000 METAR MROC 300000Z 33003KT 280V010 8000 -TSRA FEW010CB SCT035 BKN100 20/20 A3004 NOSIG=
201805300100 METAR MROC 300100Z 12003KT 8000 RA VCFG FEW002 SCT020 BKN060 20/20 A3004 RETS NOSIG=
201805300200 METAR MROC 300200Z 08005KT 9999 -RA NSC 20/20 A3003 NOSIG=
201805300300 METAR MROC 300300Z 11003KT 9999 FEW005 OVC120 21/20 A3004 NOSIG=
201805300400 METAR MROC 300400Z 20004KT 160V230 6000 2500SW BCFG SCT002 BKN120 20/19 A3008 NOSIG=
201805300500 METAR MROC 300500Z 33003KT 280V010 9999 VCFG FEW008 BKN140 20/20 A3008 NOSIG=
201805300600 METAR MROC 300600Z 34003KT 9999 -DZ FEW008 SCT020 BKN140 21/20 A3007 NOSIG=
201805300700 METAR MROC 300700Z 13002KT 9999 FEW020 BKN140 20/20 A3003 NOSIG=
201805300800 METAR MROC 300800Z 08005KT CAVOK 20/20 A3001 NOSIG=
201805300900 METAR MROC 300900Z 09006KT CAVOK 20/19 A2998 NOSIG=
201805301000 METAR MROC 301000Z 08009KT CAVOK 21/19 A2996 NOSIG=
201805301100 METAR MROC 301100Z 06010KT CAVOK 20/18 A2994 NOSIG=
201805301200 METAR MROC 301200Z 09005KT CAVOK 21/17 A2996 NOSIG=
201805301300 METAR MROC 301300Z VRB02KT CAVOK 22/19 A2999 BECMG 22006KT=
201805301400 METAR MROC 301400Z 26004KT 210V330 CAVOK 23/19 A3001 NOSIG=
201805301500 METAR MROC 301500Z 28006KT 230V320 CAVOK 23/20 A3003 NOSIG=
201805301600 METAR MROC 301600Z 27007KT 240V300 CAVOK 25/20 A3002 NOSIG=
201805301700 METAR MROC 301700Z 24007KT 210V270 9999 FEW025 BKN150 26/20 A3002 NOSIG=
201805301800 METAR MROC 301800Z 23007KT 180V290 9999 FEW025 SCT160 26/19 A2999 NOSIG=
201805301900 METAR MROC 301900Z 27009KT 230V310 9999 FEW030 27/18 A2997 NOSIG=
201805302000 METAR MROC 302000Z 24007KT 190V280 9999 VCTS FEW025 SCT080 28/21 A2993 NOSIG=
201805302100 METAR MROC 302100Z 27009KT 9999 VCTS VCSH FEW015CB FEW020TCU SCT030 27/21 A2990 NOSIG=
201805302200 METAR MROC 302200Z 26009KT 9999 TSRA FEW015CB SCT025 BKN070 26/22 A2991 BECMG 5000 BKN020=
201805302300 METAR MROC 302300Z VRB04KT 5000 2000SW +TSRA FEW005 FEW010CB SCT015 BKN030 21/20 A2995 NOSIG=
201805310000 METAR MROC 310000Z 35004KT 290V060 9999 -RA VCTS FEW005 FEW010CB SCT015 BKN035 20/20 A2996 RETS NOSIG=
201805310100 METAR MROC 310100Z VRB02KT 9999 -RA VCTS FEW005 FEW010CB SCT035 BKN100 21/20 A2996 NOSIG=
201805310200 METAR MROC 310200Z 08005KT 9999 -RA FEW035 BKN100 20/19 A2997 NOSIG=
201805310300 METAR MROC 310300Z 05005KT 9999 FEW035 SCT100 BKN200 22/20 A2996 NOSIG=
201805310400 METAR MROC 310400Z 11007KT CAVOK 22/19 A2997 NOSIG=
201805310500 METAR MROC 310500Z 02004KT 320V090 CAVOK 22/19 A2998 NOSIG=
201805310600 METAR MROC 310600Z VRB02KT CAVOK 22/19 A2997 NOSIG=
201805310700 METAR MROC 310700Z 03003KT CAVOK 22/19 A2995 NOSIG=
201805310800 METAR MROC 310800Z VRB02KT CAVOK 20/19 A2994 NOSIG=
201805310900 METAR MROC 310900Z 08004KT 9999 FEW030 20/19 A2994 NOSIG=
201805311000 METAR MROC 311000Z 06003KT 020V080 CAVOK 20/18 A2995 NOSIG=
201805311100 METAR MROC 311100Z 07005KT 020V110 9999 FEW040 22/18 A2994 NOSIG=
201805311200 METAR MROC 311200Z 07005KT 030V150 CAVOK 22/19 A2994 NOSIG=
201805311300 METAR MROC 311300Z 11011KT 080V140 CAVOK 23/19 A2994 NOSIG=
201805311400 METAR MROC 311400Z VRB05KT CAVOK 26/20 A2994 NOSIG=
201805311500 METAR MROC 311500Z 23011KT 9999 FEW035 BKN150 24/20 A2997 NOSIG=
201805311600 METAR MROC 311600Z 25009KT 9999 SCT030 BKN200 24/21 A2998 NOSIG=
201805311700 METAR MROC 311700Z 25009KT 210V290 9999 SCT030 25/21 A2997 NOSIG=
201805311800 METAR MROC 311800Z 27008KT 240V310 9999 BKN030 27/22 A2995 NOSIG=
201805311900 METAR MROC 311900Z 24009KT 9999 VCSH FEW020TCU BKN030 26/22 A2993 NOSIG=
201805312000 METAR MROC 312000Z 24010KT 210V270 9999 -TSRA VCSH FEW015CB BKN025 26/21 A2991 NOSIG=
201805312100 METAR MROC 312100Z 24009KT 7000 2000N -TSRA FEW010CB BKN030 24/22 A2989 BECMG 5000 RA BR=
201805312200 METAR MROC 312200Z 32006KT 280V340 9999 3000SW -TSRA FEW010CB BKN030 22/21 A2989 NOSIG=
201805312300 METAR MROC 312300Z 22005KT 190V290 9999 VCTS FEW010 BKN030 22/21 A2991 RETS NOSIG=
201806010000 METAR MROC 010000Z 17003KT 110V260 9999 SCT030 BKN100 21/21 A2993 NOSIG=
201806010100 METAR MROC 010100Z 09006KT 070V130 9999 -RA FEW030 BKN100 21/20 A2995 NOSIG=
201806010200 METAR MROC 010200Z 10012KT 9999 -RA NSC 21/19 A2995 NOSIG=
201806010300 METAR MROC 010300Z 09012KT 9999 -RA NSC 21/19 A2992 NOSIG=
201806010400 METAR MROC 010400Z 24003KT 120V290 9999 4500SW BCFG FEW010 OVC120 20/20 A2994 BECMG 5000 BR=
201806010500 METAR MROC 010500Z 00000KT 9999 FEW030 BKN150 21/20 A2994 NOSIG=
201806010600 METAR MROC 010600Z 10005KT 9999 FEW030 SCT120 BKN180 21/20 A2993 NOSIG=
201806010700 METAR MROC 010700Z 00000KT 9999 FEW030 BKN120 21/19 A2992 NOSIG=
201806010800 METAR MROC 010800Z 03004KT 360V060 9999 SCT045 BKN120 21/19 A2992 NOSIG=
201806010900 METAR MROC 010900Z 10004KT CAVOK 20/19 A2990 NOSIG=
201806011000 METAR MROC 011000Z 07005KT CAVOK 22/18 A2991 NOSIG=
201806011100 METAR MROC 011100Z 07003KT 040V110 CAVOK 21/18 A2991 NOSIG=
201806011200 METAR MROC 011200Z 10007KT 060V140 CAVOK 22/18 A2993 NOSIG=
201806011300 METAR MROC 011300Z 11013KT CAVOK 23/19 A2996 NOSIG=
201806011400 METAR MROC 011400Z 11012KT 070V130 CAVOK 23/17 A2997 NOSIG=
201806011500 METAR MROC 011500Z 11016KT 9999 FEW040 BKN130 26/17 A2996 NOSIG=
201806011600 METAR MROC 011600Z 13012KT 090V170 9999 FEW040 SCT130 BKN300 27/19 A2996 NOSIG=
201806011700 METAR MROC 011700Z 12010KT 080V160 9999 FEW040 SCT300 28/19 A2995 NOSIG=
201806011800 METAR MROC 011800Z 14007KT 060V180 9999 FEW040 29/19 A2994 NOSIG=
201806011900 METAR MROC 011900Z 24010KT 210V280 9999 FEW040 28/22 A2991 NOSIG=
201806012000 METAR MROC 012000Z 24010KT 210V270 9999 SCT035 28/22 A2990 NOSIG=
201806012100 METAR COR MROC 012100Z 23010KT 190V260 9999 -TSRA VCTS VCSH FEW015CB FEW020 SCT080 27/22 A2990 NOSIG=
201806012200 METAR MROC 012200Z 03009KT 360V060 9999 -TSRA VCSH FEW015CB FEW020 SCT070 22/19 A2990 NOSIG=
201806012300 METAR MROC 012300Z 18004KT 9999 VCTS FEW020CB FEW040 SCT160 23/19 A2993 RETSRA NOSIG=
201806020000 METAR MROC 020000Z VRB01KT 9999 FEW045 BKN180 23/20 A2993 NOSIG=
201806020100 METAR MROC 020100Z 09003KT 050V140 9999 -RA FEW045 BKN120 22/20 A2995 NOSIG=
201806020200 METAR MROC 020200Z 07005KT 350V100 9999 FEW040 BKN100 23/20 A2997 RERA NOSIG=
201806020300 METAR MROC 020300Z 07010KT 030V100 9999 FEW045 22/18 A2996 NOSIG=
201806020400 METAR MROC 020400Z 11010KT CAVOK 23/18 A2998 NOSIG=
201806020500 METAR MROC 020500Z 10008KT 060V120 CAVOK 22/18 A2998 NOSIG=
201806020600 METAR MROC 020600Z 08005KT CAVOK 21/18 A2997 NOSIG=
201806020700 METAR MROC 020700Z 02003KT 330V080 CAVOK 21/18 A2996 NOSIG=
201806020800 METAR MROC 020800Z 09006KT 060V120 CAVOK 21/18 A2994 NOSIG=
201806020900 METAR MROC 020900Z 06007KT 9999 VCTS SCT250 21/18 A2991 NOSIG=
201806021000 METAR MROC 021000Z 07004KT 040V110 CAVOK 21/18 A2991 NOSIG=
201806021100 METAR MROC 021100Z 12008KT 090V170 9999 FEW025 22/18 A2992 NOSIG=
201806021200 METAR MROC 021200Z 09008KT 050V140 9999 FEW030 SCT240 22/18 A2993 NOSIG=
201806021300 METAR MROC 021300Z 09005KT 050V130 CAVOK 24/19 A2995 NOSIG=
201806021400 METAR MROC 021400Z 11009KT 080V140 CAVOK 26/19 A2995 NOSIG=
201806021500 METAR MROC 021500Z 10007KT 050V130 9999 FEW045 BKN200 28/18 A2997 NOSIG=
201806021600 METAR MROC 021600Z 12008KT 090V160 9999 FEW045 BKN250 28/19 A2998 NOSIG=
201806021700 METAR MROC 021700Z 24010KT 210V270 9999 FEW040 BKN200 27/21 A2996 NOSIG=
201806021800 METAR MROC 021800Z 25012KT 210V270 9999 SCT030 27/22 A2994 NOSIG=
201806021900 METAR MROC 021900Z 20008KT 180V250 6000 2000SW TSRA BKN020CB 22/20 A2995 NOSIG=
201806022000 METAR MROC 022000Z VRB02KT 9999 2000SW RA FEW012 BKN100 20/19 A2995 RETSRA NOSIG=
201806022100 METAR MROC 022100Z 17003KT 140V200 9999 FEW005 BKN090 20/19 A2997 RERA NOSIG=
201806022200 METAR COR MROC 022200Z VRB02KT 7000 3200SW -RA VCFG FEW003 SCT040 BKN090 20/19 A2998 NOSIG=
201806022300 METAR MROC 022300Z 08006KT 9999 -RA FEW012 BKN100 20/19 A2997 NOSIG=
201806030000 METAR MROC 030000Z 08007KT 050V110 9999 -RA FEW035 BKN110 21/19 A2996 NOSIG=
201806030100 METAR MROC 030100Z 09006KT 070V130 9999 -DZ NSC 21/19 A2997 NOSIG=
201806030200 METAR MROC 030200Z 08008KT CAVOK 22/19 A2998 NOSIG=
201806030300 METAR MROC 030300Z 04008KT CAVOK 21/18 A2998 NOSIG=
201806030400 METAR MROC 030400Z 08007KT CAVOK 21/18 A2998 NOSIG=
201806030500 METAR MROC 030500Z 08606KT 020V090 CAVOK 21/18 A2999 NOSIG=
201806030600 METAR MROC 030600Z 09007KT 050V130 CAVOK 21/18 A3000 NOSIG=
201806030700 METAR MROC 030700Z 05008KT CAVOK 21/17 A2998 NOSIG=
201806030800 METAR MROC 030800Z 06007KT 030V090 CAVOK 21/17 A2997 NOSIG=
201806030900 METAR MROC 030900Z 05008KT CAVOK 20/17 A2996 NOSIG=
201806031000 METAR MROC 031000Z 03007KT 010V070 CAVOK 20/17 A2997 NOSIG=
201806031100 METAR MROC 031100Z 02005KT CAVOK 20/16 A2997 NOSIG=
201806031200 METAR MROC 031200Z 07005KT CAVOK 21/17 A3000 NOSIG=
201806031300 METAR MROC 031300Z 05006KT 350V090 CAVOK 24/18 A3001 NOSIG=
201806031400 METAR MROC 031400Z 09008KT 060V130 CAVOK 26/18 A3002 NOSIG=
201806031500 METAR MROC 031500Z 10012KT 070V140 CAVOK 27/18 A3004 NOSIG=
201806031600 METAR MROC 031600Z 11008KT 070V160 CAVOK 28/19 A3003 NOSIG=
201806031700 METAR MROC 031700Z 12008KT 070V180 CAVOK 28/19 A3001 BECMG 24008KT=
201806031800 METAR MROC 031800Z 15006KT 080V230 CAVOK 30/20 A3001 BECMG 24008KT=
201806031900 METAR MROC 031900Z 24012KT 9999 FEW025TCU SCT030 28/22 A3000 NOSIG=
201806032000 METAR MROC 032000Z 22009KT 9999 -RA VCTS FEW010 SCT030 BKN100 23/20 A2999 BECMG TS=
201806032100 METAR MROC 032100Z 26007KT 230V310 9999 -RA VCTS FEW010 FEW015CB SCT025 BKN040 22/21 A3001 NOSIG=
201806032200 METAR MROC 032200Z 31003KT 250V040 8000 -RA VCFG FEW010 SCT025 BKN080 22/21 A3001 NOSIG=
201806032300 METAR MROC 032300Z 31003KT 9999 FEW010 BKN030 22/21 A3002 NOSIG=
201806040000 METAR MROC 040000Z 06004KT 030V090 9999 FEW015 SCT035 BKN100 23/21 A3004 NOSIG=
201806040100 METAR MROC 040100Z 08003KT 9999 FEW015 BKN120 22/21 A3006 NOSIG=
201806040200 METAR MROC 040200Z 08008KT CAVOK 22/19 A3006 NOSIG=
201806040300 METAR MROC 040300Z 05007KT 9999 -RA FEW035 BKN120 22/19 A3003 NOSIG=
201806040400 METAR MROC 040400Z 12008KT 090V150 CAVOK 22/18 A3004 NOSIG=
201806040500 METAR MROC 040500Z 10013G23KT 9999 FEW040 BKN150 23/19 A3006 NOSIG=
201806040600 METAR MROC 040600Z 08012KT 050V110 9999 FEW040 SCT200 23/19 A3005 NOSIG=
201806040700 METAR MROC 040700Z 09007KT 060V140 9999 FEW040 SCT200 22/19 A3003 NOSIG=
201806040800 METAR MROC 040800Z 07006KT CAVOK 22/19 A3003 NOSIG=
201806040900 METAR MROC 040900Z 02009KT CAVOK 22/19 A3001 NOSIG=
201806041000 METAR MROC 041000Z 07004KT CAVOK 20/18 A3001 NOSIG=
201806041100 METAR MROC 041100Z 10007KT CAVOK 21/18 A3002 NOSIG=
201806041200 METAR MROC 041200Z 04007KT 350V090 CAVOK 21/18 A3003 NOSIG=
201806041300 METAR MROC 041300Z 08007KT 9999 FEW035 SCT200 24/19 A3004 NOSIG=
201806041400 METAR MROC 041400Z 10010KT 070V140 CAVOK 25/19 A3005 NOSIG=
201806041500 METAR MROC 041500Z 11010G20KT 070V160 9999 FEW035 SCT200 27/19 A3005 NOSIG=
201806041600 METAR MROC 041600Z 11010G20KT 080V150 9999 FEW030 SCT060 BKN200 27/20 A3005 NOSIG=
201806041700 METAR MROC 041700Z 13010G20KT 080V160 9999 -RA FEW030 BKN060 26/20 A3006 NOSIG=
201806041800 METAR MROC 041800Z 14011KT 9999 VCTS VCSH FEW020CB FEW030 SCT060 BKN120 26/20 A3006 NOSIG=
201806041900 METAR MROC 041900Z 13008KT 090V180 9999 FEW040 BKN120 26/19 A3001 NOSIG=
201806042000 METAR MROC 042000Z 14006KT 080V190 9999 FEW010 SCT100 BKN180 27/19 A2996 BECMG 22006KT=
201806042100 METAR MROC 042100Z 26008KT 230V290 9999 FEW025 SCT140 OVC250 25/22 A2994 NOSIG=
201806042200 METAR MROC 042200Z 24009KT 9999 FEW005 SCT015 BKN150 23/21 A2997 BECMG 5000 BR=
201806042300 METAR MROC 042300Z 28007KT 9999 -RA FEW005 OVC025 22/21 A2998 BECMG 5000 BR=
201806050000 METAR MROC 050000Z VRB03KT 9999 2500SW -TSRA FEW020 OVC060 20/20 A3001 NOSIG=
201806050100 METAR MROC 050100Z 33003KT 260V010 9999 FEW030 SCT100 21/20 A3002 RETS NOSIG=
201806050200 METAR MROC 050200Z 07006KT 9999 SCT050 21/18 A3004 NOSIG=
201806050300 METAR MROC 050300Z 02003KT 320V080 CAVOK 21/19 A3007 NOSIG=
201806050400 METAR MROC 050400Z 02006KT CAVOK 22/18 A3006 NOSIG=
201806050500 METAR MROC 050500Z 05004KT CAVOK 21/19 A3006 NOSIG=
201806050600 METAR MROC 050600Z 08004KT CAVOK 22/18 A3003 NOSIG=
201806050700 METAR MROC 050700Z 07004KT 050V120 CAVOK 21/18 A3000 NOSIG=
201806050800 METAR MROC 050800Z 07007KT CAVOK 21/18 A2997 NOSIG=
201806050900 METAR MROC 050900Z 08009KT CAVOK 22/18 A2995 NOSIG=
201806051000 METAR MROC 051000Z 06006KT CAVOK 21/18 A2995 NOSIG=
201806051100 METAR MROC 051100Z 09007KT CAVOK 22/18 A2997 NOSIG=
201806051200 METAR MROC 051200Z 23003KT 200V260 CAVOK 21/18 A3000 NOSIG=
201806051300 METAR MROC 051300Z VRB02KT 9999 FEW040 SCT130 22/19 A3001 NOSIG=
201806051400 METAR MROC 051400Z 12012KT 9999 FEW040 SCT130 25/19 A3001 NOSIG=
201806051500 METAR MROC 051500Z 12011KT 090V150 9999 FEW040 SCT200 27/20 A3001 NOSIG=
201806051600 METAR MROC 051600Z 10010KT 9999 FEW040 BKN120 27/19 A3002 NOSIG=
201806051700 METAR MROC 051700Z 14010KT 100V170 9999 SCT040 BKN100 26/18 A3002 NOSIG=
201806051800 METAR MROC 051800Z 12007KT 090V170 9999 SCT040 BKN100 26/18 A2999 NOSIG=
201806051900 METAR MROC 051900Z 19006KT 140V220 9999 FEW040 BKN100 27/17 A2998 NOSIG=
201806052000 METAR MROC 052000Z 25010KT 9999 FEW006 SCT030 BKN100 23/22 A2996 NOSIG=
201806052100 METAR MROC 052100Z 27010KT 9999 -RA SCT005 BKN020 22/21 A2997 BECMG BKN010=
201806052200 METAR MROC 052200Z 26007KT 230V310 9999 SCT005 BKN050 23/21 A2996 NOSIG=
201806052300 METAR MROC 052300Z 25005KT 9999 SCT010 BKN150 22/21 A2997 NOSIG=
201806060000 METAR MROC 060000Z 31003KT 270V340 9000 4000NW BCFG FEW005 BKN140 22/21 A2997 NOSIG=
201806060100 METAR MROC 060100Z 14001KT 9000 4000SW FEW005 SCT130 BKN250 21/21 A2998 NOSIG=
201806060200 METAR MROC 060200Z VRB02KT 9000 4000SW FEW001 SCT035 BKN180 21/21 A2999 NOSIG=
201806060300 METAR MROC 060300Z 30003KT 250V320 5000 2400SW BR SCT002 SCT005 21/20 A3001 BECMG 3000=
201806060400 METAR MROC 060400Z 20003KT 160V230 3000 BR FEW002 SCT005 21/20 A3002 BECMG 1500=
201806060500 METAR MROC 060500Z VRB02KT 5000 2000SW BR SCT002 BKN005 21/20 A3001 NOSIG=
201806060600 METAR MROC 060600Z 00000KT 8000 3000SW VCFG FEW005 SCT010 21/20 A2999 NOSIG=
201806060700 METAR MROC 060700Z VRB02KT 2000 BR SCT002 BKN005 21/20 A2998 NOSIG=
201806060800 METAR MROC 060800Z 08003KT 9999 FEW005 SCT120 21/20 A2995 NOSIG=
201806060900 METAR MROC 060900Z 25003KT 9999 FEW005 OVC120 21/20 A2995 NOSIG=
201806061000 METAR MROC 061000Z VRB02KT 9999 BCFG FEW003 SCT012 OVC120 20/20 A2995 NOSIG=
201806061100 METAR MROC 061100Z 14002KT 9999 BCFG FEW003 SCT015 BKN120 20/20 A2996 NOSIG=
201806061200 METAR MROC 061200Z 00000KT 9999 3000SW BCFG FEW003 SCT035 BKN120 20/20 A2999 NOSIG=
201806061300 METAR MROC 061300Z VRB02KT 9999 BCFG FEW005 BKN100 22/20 A3008 NOSIG=
201806061400 METAR MROC 061400Z VRB02KT 9999 FEW005 BKN120 24/20 A3000 NOSIG=
201806061500 METAR MROC 061500Z 28005KT 250V310 9999 FEW015 BKN150 24/21 A3001 NOSIG=
201806061600 METAR MROC 061600Z VRB04KT 9999 FEW030 BKN130 26/20 A2999 NOSIG=
201806061700 METAR MROC 061700Z 11010KT 080V150 9999 FEW030 BKN130 27/20 A2997 NOSIG=
201806061800 METAR MROC 061800Z 12009KT 090V160 9999 FEW030 BKN130 27/20 A2996 NOSIG=
201806061900 METAR MROC 061900Z 13007KT 090V170 9999 FEW030 BKN100 27/20 A2993 NOSIG=
201806062000 METAR MROC 062000Z 11006KT 050V200 9999 FEW030 BKN100 27/20 A2991 NOSIG=
201806062100 METAR MROC 062100Z 26007KT 240V300 9999 -RA FEW015TCU FEW030 BKN060 25/22 A2991 NOSIG=
201806062200 METAR MROC 062200Z 09004KT 030V150 9999 -RA VCTS FEW010 FEW015CB BKN060 25/19 A2992 NOSIG=
201806062300 METAR MROC 062300Z VRB04KT 9999 FEW025 SCT060 BKN100 24/19 A2994 NOSIG=
201806070000 METAR MROC 070000Z 11010KT 9999 -RA FEW010 BKN120 24/18 A2995 NOSIG=
201806070100 METAR MROC 070100Z 12011KT 080V150 9999 -DZ NSC 23/18 A2996 NOSIG=
201806070200 METAR MROC 070200Z 12010KT 9999 FEW030 SCT110 23/18 A2998 NOSIG=
201806070300 METAR MROC 070300Z 07007KT 040V110 9999 -DZ NSC 22/18 A2999 NOSIG=
201806070400 METAR MROC 070400Z 09004KT 050V140 CAVOK 22/18 A2999 NOSIG=
201806070500 METAR MROC 070500Z 28003KT 240V320 9000 1500W BCFG SCT002 BKN150 21/21 A2999 NOSIG=
201806070600 METAR MROC 070600Z 01002KT 9000 2000SW BCFG SCT002 SCT140 21/20 A2998 NOSIG=
201806070700 METAR MROC 070700Z 03003KT 9000 3500SW SCT010 SCT130 21/19 A2995 NOSIG=
201806070800 METAR MROC 070800Z 08004KT 9999 4000W BCFG FEW010 SCT160 21/20 A2993 NOSIG=
201806070900 METAR MROC 070900Z 08004KT 9999 2500SW BCFG SCT010 SCT150 20/19 A2992 NOSIG=
201806071000 METAR MROC 071000Z 11004KT 080V140 9000 1500SW BR NSC 20/18 A2993 NOSIG=
201806071100 METAR MROC 071100Z 08004KT 9999 3500SW BR NSC 20/18 A2992 NOSIG=
201806071200 METAR MROC 071200Z 07007KT CAVOK 21/18 A2994 NOSIG=
201806071300 METAR MROC 071300Z 08007KT 9999 FEW025 BKN200 23/18 A2998 NOSIG=
201806071400 METAR MROC 071400Z 12006KT 090V160 CAVOK 25/18 A2999 NOSIG=
201806071500 METAR MROC 071500Z 21005KT 140V260 9999 FEW045 BKN130 25/20 A3001 NOSIG=
201806071600 METAR MROC 071600Z 25007KT 220V280 9999 FEW035 SCT130 25/21 A3000 NOSIG=
201806071700 METAR MROC 071700Z 23004KT 180V260 9999 FEW035 BKN130 25/20 A3000 NOSIG=
201806071800 METAR MROC 071800Z 25008KT 9999 FEW010TCU SCT050 BKN130 24/21 A2999 NOSIG=
201806071900 METAR MROC 071900Z 23004KT 200V260 9999 -RA VCTS FEW008 FEW010CB SCT040 BKN100 23/21 A2997 NOSIG=
201806072000 METAR MROC 072000Z 11003KT 9999 FEW010 BKN120 23/21 A2996 NOSIG=
201806072100 METAR MROC 072100Z VRB03KT 9000 -RA VCFG FEW010 BKN100 23/21 A2995 NOSIG=
201806072200 METAR MROC 072200Z 26004KT 5000 -RA BR FEW003 SCT060 BKN100 22/22 A2994 NOSIG=
201806072300 METAR MROC 072300Z 11006KT 9999 4000SW -RA BCFG FEW035 BKN110 22/20 A2996 NOSIG=
201806080000 METAR MROC 080000Z 08004KT 040V110 9999 FEW035 SCT140 22/20 A2994 NOSIG=
201806080100 METAR MROC 080100Z 12009KT 080V190 9999 FEW040 SCT130 23/19 A2996 NOSIG=
201806080200 METAR MROC 080200Z 09008KT 050V120 9999 FEW045 SCT140 23/18 A2999 NOSIG=
201806080300 METAR MROC 080300Z 12010KT 090V150 CAVOK 23/18 A3000 NOSIG=
201806080400 METAR MROC 080400Z 10009KT 060V130 CAVOK 23/18 A3001 NOSIG=
201806080500 METAR MROC 080500Z 12008KT 080V180 CAVOK 23/18 A3000 NOSIG=
201806080600 METAR MROC 080600Z 11014KT CAVOK 23/18 A2998 NOSIG=
201806080700 METAR MROC 080700Z 10005KT 070V140 CAVOK 22/18 A2997 NOSIG=
201806080800 METAR MROC 080800Z 12010KT 080V150 CAVOK 22/18 A2995 NOSIG=
201806080900 METAR MROC 080900Z 12010KT 090V150 CAVOK 22/18 A2994 NOSIG=
201806081000 METAR MROC 081000Z 10007KT 060V130 CAVOK 22/18 A2994 NOSIG=
201806081100 METAR MROC 081100Z 06005KT 030V120 9999 FEW030 SCT240 22/18 A2995 NOSIG=
201806081200 METAR MROC 081200Z 11012KT 9999 FEW030 SCT250 23/18 A2996 NOSIG=
201806081300 METAR MROC 081300Z 11011KT 9999 FEW030 SCT160 23/19 A2999 NOSIG=
201806081400 METAR MROC 081400Z 11010KT 070V130 9999 FEW030 25/19 A2999 NOSIG=
201806081500 METAR MROC 081500Z 11012KT 9999 FEW035 27/19 A3000 NOSIG=
201806081600 METAR MROC 081600Z 08014KT 9999 FEW030 28/18 A2998 NOSIG=
201806081700 METAR MROC 081700Z 07014G24KT 9999 FEW035 29/18 A2997 NOSIG=
201806081800 METAR MROC 081800Z 08011KT 9999 BKN045 29/18 A2996 NOSIG=
201806081900 METAR MROC 081900Z 09010KT 9999 FEW045 30/18 A2993 NOSIG=
201806082000 METAR MROC 082000Z 12009KT 090V170 9999 SCT040 30/18 A2990 NOSIG=
201806082100 METAR MROC 082100Z 23009KT 200V260 9999 FEW020 SCT035 BKN180 27/23 A2990 NOSIG=
201806082200 METAR MROC 082200Z 26011KT 9999 FEW015 BKN030 25/22 A2992 BECMG RA=
201806082300 METAR MROC 082300Z 14003KT 9999 FEW010 BKN120 24/23 A2994 NOSIG=
201806090000 METAR MROC 090000Z VRB02KT 9999 FEW010 BKN250 23/21 A2995 NOSIG=
201806090100 METAR MROC 090100Z 08005KT 050V110 9999 FEW035 23/19 A2997 NOSIG=
201806090200 METAR MROC 090200Z 35003KT 9999 FEW035 24/19 A2999 NOSIG=
201806090300 METAR MROC 090300Z VRB02KT 9999 FEW035 22/21 A3001 NOSIG=
201806090400 METAR MROC 090400Z VRB02KT 9999 FEW003 22/21 A3002 NOSIG=
201806090500 METAR MROC 090500Z 02003KT 340V060 9999 FEW010 22/21 A3002 NOSIG=
201806090600 METAR MROC 090600Z 36003KT 330V060 9999 FEW020 SCT120 22/20 A3001 NOSIG=
201806090700 METAR MROC 090700Z 02004KT 340V070 9999 FEW035 SCT110 21/20 A2997 NOSIG=
201806090800 METAR MROC 090800Z 13005KT 080V180 9999 FEW040 22/18 A2997 NOSIG=
201806090900 METAR MROC 090900Z 13008KT 090V160 9999 FEW040 22/18 A2994 NOSIG=
201806091000 METAR MROC 091000Z 06003KT 330V120 9999 FEW040 22/19 A2996 NOSIG=
201806091100 METAR MROC 091100Z 04004KT 360V130 9999 FEW040 21/19 A2995 NOSIG=
201806091200 METAR MROC 091200Z 10013G23KT 9999 FEW030 BKN200 23/18 A2995 NOSIG=
201806091300 METAR MROC 091300Z 11014G24KT 9999 FEW035 BKN200 23/18 A2997 NOSIG=
201806091400 METAR MROC 091400Z 12010G20KT 9999 FEW035 SCT100 BKN200 25/18 A2999 NOSIG=
201806091500 METAR MROC 091500Z 09010G20KT 050V120 9999 FEW035 BKN100 25/19 A3002 NOSIG=
201806091600 METAR MROC 091600Z 10013G23KT 060V120 9999 FEW035 SCT100 BKN200 27/19 A3003 NOSIG=
201806091700 METAR MROC 091700Z 10010G20KT 9999 FEW035 SCT100 BKN200 28/18 A3001 NOSIG=
201806091800 METAR MROC 091800Z 11013G23KT 070V140 9999 FEW035 SCT100 BKN200 27/18 A2999 NOSIG=
201806091900 METAR MROC 091900Z 11010G20KT CAVOK 28/18 A2997 NOSIG=
201806092000 METAR MROC 092000Z 12010G20KT CAVOK 28/18 A2995 NOSIG=
201806092100 METAR MROC 092100Z 13009KT 090V170 CAVOK 27/18 A2994 BECMG 20006KT=
201806092200 METAR MROC 092200Z 10012KT 070V130 9999 FEW040 SCT100 BKN180 26/18 A2995 NOSIG=
201806092300 METAR MROC 092300Z 06007KT 340V110 9999 SCT045 BKN180 27/18 A2997 NOSIG=
201806100000 METAR MROC 100000Z 09010KT 050V120 CAVOK 24/18 A2999 NOSIG=
201806100100 METAR MROC 100100Z 11011KT 080V140 9999 -RA NSC 23/18 A2998 NOSIG=
201806100200 METAR MROC 100200Z 10006KT 070V130 CAVOK 23/18 A3001 NOSIG=
201806100300 METAR MROC 100300Z 07004KT 360V100 CAVOK 23/18 A3002 NOSIG=
201806100400 METAR MROC 100400Z 10009KT 070V140 CAVOK 23/18 A3003 NOSIG=
201806100500 METAR MROC 100500Z 09008KT 050V120 9999 FEW010 SCT120 23/17 A3003 NOSIG=
201806100600 METAR MROC 100600Z 05004KT 010V080 CAVOK 22/18 A3000 NOSIG=
201806100700 METAR MROC 100700Z 08005KT 030V120 CAVOK 22/18 A2998 NOSIG=
201806100800 METAR MROC 100800Z 08005KT 9999 FEW009 22/18 A2998 NOSIG=
201806100900 METAR MROC 100900Z 05006KT CAVOK 21/18 A2997 NOSIG=
201806101000 METAR MROC 101000Z 06008KT CAVOK 21/18 A2998 NOSIG=
201806101100 METAR MROC 101100Z 07008KT CAVOK 21/18 A2997 NOSIG=
201806101200 METAR MROC 101200Z 08005KT CAVOK 22/18 A2997 NOSIG=
201806101300 METAR MROC 101300Z 08005KT 040V110 CAVOK 23/17 A2997 NOSIG=
201806101400 METAR MROC 101400Z 12008KT 090V180 CAVOK 24/17 A2999 NOSIG=
201806101500 METAR MROC 101500Z 18006KT 120V230 FEW045 BKN130 25/18 A3003 BECMG 23007KT=
201806101600 METAR MROC 101600Z 19007KT 160V270 9999 FEW040 BKN140 26/18 A3003 NOSIG=
201806101700 METAR MROC 101700Z 25010KT 9999 FEW025 BKN180 25/20 A3003 NOSIG=
201806101800 METAR MROC 101800Z 25008KT 190V290 9999 SCT025 27/21 A3002 NOSIG=
201806101900 METAR MROC 101900Z 21012KT 9999 VCSH SCT020 BKN100 25/20 A2999 NOSIG=
201806102000 METAR MROC 102000Z 23009KT 9999 -RA SCT020 BKN100 24/20 A2998 NOSIG=
201806102100 METAR MROC 102100Z 24007KT 9999 -RA SCT020 BKN100 23/20 A2998 NOSIG=
201806102200 METAR MROC 102200Z 26006KT 8000 -RA FEW005 SCT020 OVC100 21/20 A2998 NOSIG=
201806102300 METAR MROC 102300Z 25009KT 3000 RA BR FEW002 SCT010 BKN030 20/20 A3006 NOSIG=
201806110000 METAR MROC 110000Z VRB02KT 5000 -RA BR FEW002 SCT010 OVC030 20/20 A3003 NOSIG=
201806110100 METAR MROC 110100Z 00000KT 8000 -RA VCFG FEW005 SCT020 BKN100 20/20 A3005 NOSIG=
201806110200 METAR MROC 110200Z 08002KT 9999 -RA FEW030 OVC100 20/20 A3006 NOSIG=
201806110300 METAR MROC 110300Z 09004KT 9999 FEW030 BKN100 20/20 A3006 NOSIG=
201806110400 METAR MROC 110400Z 07004KT CAVOK 21/19 A3005 NOSIG=
201806110500 METAR MROC 110500Z 05005KT CAVOK 21/19 A3003 NOSIG=
201806110600 METAR MROC 110600Z 07005KT CAVOK 21/19 A3001 NOSIG=
201806110700 METAR MROC 110700Z 08005KT CAVOK 21/18 A2998 NOSIG=
201806110800 METAR MROC 110800Z 08004KT CAVOK 20/19 A2997 NOSIG=
201806110900 METAR MROC 110900Z 06006KT CAVOK 20/19 A2996 NOSIG=
201806111000 METAR MROC 111000Z VRB02KT CAVOK 20/19 A2996 NOSIG=
201806111100 METAR MROC 111100Z VRB01KT CAVOK 20/19 A2998 NOSIG=
201806111200 METAR MROC 111200Z 06004KT CAVOK 20/18 A2999 NOSIG=
201806111300 METAR MROC 111300Z 11013KT CAVOK 21/19 A3001 NOSIG=
201806111400 METAR MROC 111400Z 08003KT CAVOK 22/19 A3002 BECMG 24006KT=
201806111500 METAR MROC 111500Z VRB02KT CAVOK 23/19 A3003 NOSIG=
201806111600 METAR MROC 111600Z VRB02KT CAVOK 24/18 A3003 NOSIG=
201806111700 METAR MROC 111700Z 22004KT 170V270 9999 FEW040 BKN200 25/19 A3002 NOSIG=
201806111800 METAR MROC 111800Z 20006KT 150V230 9999 FEW040 BKN200 26/20 A3001 NOSIG=
201806111900 METAR MROC 111900Z 22008KT 190V260 9999 SCT030 BKN200 26/20 A2999 NOSIG=
201806112000 METAR MROC 112000Z 26009KT 9999 SCT030 BKN200 24/21 A2997 NOSIG=
201806112100 METAR MROC 112100Z 27008KT 9999 FEW012 BKN200 24/20 A2996 NOSIG=
201806112200 METAR MROC 112200Z 26008KT 9999 FEW015 SCT025 BKN150 24/19 A2997 NOSIG=
201806112300 METAR MROC 112300Z 23005KT 9999 FEW025 BKN180 23/20 A2997 NOSIG=
201806120000 METAR MROC 120000Z 27006KT 9999 SCT020 BKN150 22/20 A2999 NOSIG=
201806120100 METAR MROC 120100Z 26003KT 9999 SCT020 BKN150 21/20 A3001 NOSIG=
201806120200 METAR MROC 120200Z 27003KT 240V310 9999 FEW015 BKN100 22/20 A3003 NOSIG=
201806120300 METAR MROC 120300Z VRB01KT 9999 FEW020 BKN100 22/20 A3003 NOSIG=
201806120400 METAR MROC 120400Z 26003KT 240V310 9999 FEW005 SCT045 BKN200 22/20 A3005 NOSIG=
201806120500 METAR MROC 120500Z 12002KT 9999 FEW040 21/20 A3004 NOSIG=
201806120600 METAR MROC 120600Z 20001KT 9999 FEW040 21/20 A3002 NOSIG=
201806120700 METAR MROC 120700Z VRB01KT 9999 SCT005 21/20 A3000 NOSIG=
201806120800 METAR MROC 120800Z 17002KT 9999 FEW005 20/20 A2998 NOSIG=
201806120900 METAR MROC 120900Z 10002KT 8000 FEW002 SCT025 BKN250 20/20 A2998 NOSIG=
201806121000 METAR MROC 121000Z 05003KT 9999 SCT005 20/19 A2998 NOSIG=
201806121100 METAR MROC 121100Z 04004KT 9999 SCT010 20/19 A2999 NOSIG=
201806121200 METAR MROC 121200Z 11003KT 9000 3500SW BCFG FEW025 SCT200 20/19 A3001 NOSIG=
201806121300 METAR MROC 121300Z VRB01KT 9999 2500SW PRFG FEW008 BKN025 22/20 A3005 NOSIG=
201806121400 METAR MROC 121400Z VRB02KT 9999 3000SW BCFG FEW010 BKN025 22/19 A3005 NOSIG=
201806121500 METAR MROC 121500Z VRB02KT 9999 4000SW BCFG SCT025 BKN140 24/20 A3005 BECMG 22007KT=
201806121600 METAR MROC 121600Z 24005KT 9999 BKN025 25/20 A3005 NOSIG=
201806121700 METAR MROC 121700Z 26006KT 210V350 9999 SCT030 BKN200 25/20 A3005 NOSIG=
201806121800 METAR MROC 121800Z 25006KT 190V310 9999 SCT025 SCT100 26/20 A3003 NOSIG=
201806121900 METAR MROC 121900Z 24011KT 210V270 9999 SCT020TCU FEW025 27/21 A3000 BECMG RA=
201806122000 METAR MROC 122000Z 24010KT 9000 -RA BKN009 23/22 A2999 NOSIG=
201806122100 METAR MROC 122100Z 25009KT 9999 SCT010 BKN160 24/21 A2999 NOSIG=
201806122200 METAR MROC 122200Z 01004KT 320V050 9999 DZ VCSH FEW015TCU SCT020 BKN080 25/20 A2999 NOSIG=
201806122300 METAR MROC 122300Z 14004KT 090V210 9999 FEW012 SCT100 BKN140 23/21 A3000 NOSIG=
201806130000 METAR MROC 130000Z 09009KT CAVOK 22/19 A2997 NOSIG=
201806130100 METAR MROC 130100Z 06012KT CAVOK 23/19 A2997 NOSIG=
201806130200 METAR MROC 130200Z 19004KT CAVOK 21/20 A3001 NOSIG=
201806130300 METAR MROC 130300Z 19004KT 9999 FEW020 21/20 A3001 NOSIG=
201806130400 METAR MROC 130400Z 04004KT CAVOK 21/19 A3006 NOSIG=
201806130500 METAR MROC 130500Z 04006KT CAVOK 21/19 A3006 NOSIG=
201806130600 METAR MROC 130600Z 06009KT CAVOK 21/18 A3003 NOSIG=
201806130700 METAR MROC 130700Z 06009KT CAVOK 21/18 A3001 NOSIG=
201806130800 METAR MROC 130800Z 07006KT CAVOK 21/18 A3000 NOSIG=
201806130900 METAR MROC 130900Z 07007KT CAVOK 20/17 A2998 NOSIG=
201806131000 METAR MROC 131000Z 08007KT CAVOK 21/18 A2998 NOSIG=
201806131100 METAR MROC 131100Z 07007KT CAVOK 21/18 A2998 NOSIG=
201806131200 METAR MROC 131200Z 04003KT 330V130 CAVOK 22/18 A3000 NOSIG=
201806131300 METAR MROC 131300Z 10005KT 050V140 CAVOK 23/18 A3003 NOSIG=
201806131400 METAR MROC 131400Z 10304KT 080V210 CAVOK 25/19 A3005 BECMG 24007KT=
201806131500 METAR MROC 131500Z 16003KT 120V210 CAVOK 27/19 A3005 BECMG 24007KT=
201806131600 METAR MROC 131600Z VRB03KT CAVOK 28/19 A3004 NOSIG=
201806131700 METAR MROC 131700Z 23007KT 190V290 9999 FEW030 29/20 A3002 NOSIG=
201806131800 METAR MROC 131800Z 23010KT 210V270 9999 FEW040 27/21 A3001 NOSIG=
201806131900 METAR MROC 131900Z 24010KT 220V280 9999 FEW025TCU FEW040 28/21 A2999 NOSIG=
201806131934 METAR MROC 131934Z 24012KT 210V270 9999 TSRA SCT015CB 28/22 A2997 NOSIG=
201806132000 METAR MROC 132000Z 24012KT 200V270 9999 TS VCSH FEW015CB SCT030 BKN050 26/21 A2996 NOSIG=
201806132100 METAR MROC 132100Z 31008KT 280V340 0500 R07/2000D TSRA FEW005 SCT010CB BKN025 20/20 A2999 BECMG 1500 -TSRA=
201806132200 METAR MROC 132200Z 33003KT 310V010 8000 3000SW -RA VCTS FEW005 FEW015CB SCT030 BKN060 20/20 A2997 RETS NOSIG=
201806132300 METAR MROC 132300Z 35003KT 320V040 9999 BCFG FEW015 SCT030 BKN045 21/21 A2999 NOSIG=
201806140000 METAR MROC 140000Z 30005KT 9999 BCFG SCT015 BKN030 22/21 A3000 BECMG 5000 RA BR=
201806140100 METAR MROC 140100Z 27003KT 250V320 5000 -TSRA BR FEW005 FEW010CB SCT012 BKN020 22/21 A3003 NOSIG=
201806140200 METAR MROC 140200Z 07003KT 350V100 8000 -TSRA VCFG FEW005 FEW010CB SCT020 BKN035 21/21 A3006 NOSIG=
201806140300 METAR MROC 140300Z VRB02KT 8000 -RA VCTS VCFG FEW005 SCT030 BKN045 21/21 A3007 NOSIG=
201806140400 METAR MROC 140400Z 09004KT 7000 RA VCFG FEW004 BKN040 21/20 A3007 NOSIG=
201806140500 METAR MROC 140500Z 11004KT 9000 -RA VCFG FEW030 BKN100 21/20 A3007 NOSIG=
201806140600 METAR MROC 140600Z 06006KT 9000 -RA VCFG SCT030 BKN090 21/20 A3006 NOSIG=
201806140700 METAR MROC 140700Z 08005KT 9999 -RA FEW030 BKN100 21/20 A3002 NOSIG=
201806140800 METAR MROC 140800Z 10007KT 070V130 9999 -RA FEW040 BKN130 21/19 A2999 NOSIG=
201806140900 METAR MROC 140900Z 08010KT 9999 -DZ FEW040 BKN130 22/19 A2999 NOSIG=
201806141000 METAR MROC 141000Z 08008KT 050V120 9999 FEW040 SCT150 22/19 A2999 NOSIG=
201806141100 METAR MROC 141100Z 09011KT CAVOK 22/18 A2998 NOSIG=
201806141200 METAR MROC 141200Z 09003KT 050V170 CAVOK 22/19 A3000 NOSIG=
201806141300 METAR MROC 141300Z 25005KT 9999 FEW035 SCT120 BKN200 21/20 A3002 NOSIG=
201806141400 METAR MROC 141400Z 28003KT 9999 SCT020 BKN200 23/20 A3005 NOSIG=
201806141500 METAR MROC 141500Z 21003KT 9999 FEW030 SCT040 BKN200 25/20 A3005 NOSIG=
201806141600 METAR MROC 141600Z 11003KT 9999 FEW035 SCT120 BKN200 26/20 A3005 NOSIG=
201806141700 METAR MROC 141700Z 10009KT 9999 FEW045 BKN200 27/19 A3003 NOSIG=
201806141800 METAR MROC 141800Z 12007KT 080V170 9999 FEW035 SCT120 29/20 A3000 BECMG 25010KT=
201806141900 METAR MROC 141900Z 23011KT 200V260 9999 4000NE -TSRA FEW015CB BKN025 25/22 A2999 BECMG 5000 +TSRA=
201806142000 METAR MROC 142000Z 29006KT 240V330 5000 1800W +TSRA SCT009CB SCT020 BKN090 21/20 A3000 BECMG 9999=
201806142100 METAR MROC 142100Z 33003KT 290V030 9999 BCFG VCTS FEW005 BKN055 21/20 A2999 RETSRA NOSIG=
201806142200 METAR MROC 142200Z VRB01KT 9999 BCFG FEW010 BKN025 22/20 A2999 NOSIG=
201806142300 METAR MROC 142300Z VRB02KT 9999 FEW010 SCT060 BKN100 22/20 A2999 NOSIG=
201806150000 METAR MROC 150000Z 24005KT 9999 FEW005 SCT020 BKN150 21/20 A3003 NOSIG=
201806150100 METAR MROC 150100Z 30004KT 200V320 9999 FEW010 SCT025 BKN070 21/20 A3004 NOSIG=
201806150200 METAR MROC 150200Z 01003KT 9000 2500SW RA BCFG SCT010 OVC030 21/20 A3007 NOSIG=
201806150300 METAR MROC 150300Z 13003KT 9000 2500SW -RA BCFG SCT010 BKN100 21/20 A3008 NOSIG=
201806150400 METAR MROC 150400Z 07005KT CAVOK 21/20 A3007 NOSIG=
201806150500 METAR MROC 150500Z 07005KT CAVOK 22/20 A3006 NOSIG=
201806150600 METAR MROC 150600Z 11003KT 070V170 CAVOK 21/19 A3004 NOSIG=
201806150700 METAR MROC 150700Z 04002KT CAVOK 20/18 A3002 NOSIG=
201806150800 METAR MROC 150800Z VRB02KT CAVOK 20/18 A3001 NOSIG=
201806150900 METAR MROC 150900Z 10006KT CAVOK 19/18 A3000 NOSIG=
201806151000 METAR MROC 151000Z 07006KT CAVOK 19/18 A3000 NOSIG=
201806151100 METAR MROC 151100Z 04007KT CAVOK 19/17 A2999 NOSIG=
201806151200 METAR MROC 151200Z 07007KT CAVOK 20/17 A3000 NOSIG=
201806151300 METAR MROC 151300Z 08005KT CAVOK 22/18 A3002 NOSIG=
201806151400 METAR MROC 151400Z VRB02KT CAVOK 25/18 A3002 NOSIG=
201806151500 METAR MROC 151500Z 27006KT 240V300 CAVOK 25/19 A3004 NOSIG=
201806151600 METAR MROC 151600Z 26007KT 9999 FEW040 SCT250 26/19 A3002 NOSIG=
201806151700 METAR MROC 151700Z 24006KT 210V280 9999 FEW040 SCT250 27/20 A3002 NOSIG=
201806151800 METAR MROC 151800Z 24007KT 200V270 9999 FEW040 SCT250 27/20 A3000 NOSIG=
201806151900 METAR MROC 151900Z 24009KT 9999 SCT040 26/21 A2998 NOSIG=
201806151935 METAR MROC 151935Z 26011KT 9999 VCTS VCSH FEW010CB BKN030 26/21 A2998 NOSIG=
201806152000 METAR MROC 152000Z 25011KT 9999 -TS RA FEW010CB BKN030 24/21 A2997 BECMG 5000=
201806152100 METAR MROC 152100Z 11007KT 1500 TSRA BR SCT005 BKN020 20/18 A3001 BECMG 3000=
201806152200 METAR MROC 152200Z 08003KT 5000 2000SW -RA BCFG VCTS FEW005 BKN020 19/19 A3003 RETS NOSIG=
201806152300 METAR MROC 152300Z 00000KT 7000 2500SW -RA BCFG FEW005 SCT015 OVC080 20/19 A3001 NOSIG=
201806160000 METAR MROC 160000Z 13003KT 100V160 9999 -RA BCFG FEW005 SCT025 OVC100 20/19 A3001 NOSIG=
201806160100 METAR MROC 160100Z 05006KT 9999 -RA NSC 21/20 A3004 NOSIG=
201806160200 METAR MROC 160200Z 18002KT 9999 BCFG FEW035 BKN100 20/19 A3006 NOSIG=
201806160300 METAR MROC 160300Z VRB01KT 9000 FEW005 BKN100 20/19 A3008 NOSIG=
201806160400 METAR MROC 160400Z 05005KT CAVOK 21/20 A3006 NOSIG=
201806160500 METAR MROC 160500Z 12005KT 9999 -RA NSC 20/19 A3003 NOSIG=
201806160600 METAR MROC 160600Z 33003KT CAVOK 20/19 A3004 NOSIG=
201806160700 METAR MROC 160700Z 00000KT CAVOK 20/19 A3003 NOSIG=
201806160800 METAR MROC 160800Z 08004KT CAVOK 20/19 A3001 NOSIG=
201806160900 METAR MROC 160900Z 07005KT CAVOK 20/18 A3001 NOSIG=
201806161000 METAR MROC 161000Z 03004KT 350V060 CAVOK 20/18 A3000 NOSIG=
201806161100 METAR MROC 161100Z 09003KT CAVOK 19/18 A3001 NOSIG=
201806161200 METAR MROC 161200Z 06003KT 020V090 CAVOK 19/18 A3001 NOSIG=
201806161300 METAR MROC 161300Z 28003KT 220V320 CAVOK 22/19 A3004 NOSIG=
201806161400 METAR MROC 161400Z 23003KT 170V310 9999 FEW040 SCT200 23/18 A3007 NOSIG=
201806161500 METAR MROC 161500Z 10003KT 060V160 9999 FEW040 SCT200 25/19 A3007 NOSIG=
201806161600 METAR MROC 161600Z 13004KT 090V180 9999 FEW040 26/19 A3004 NOSIG=
201806161700 METAR MROC 161700Z 24012KT 9999 SCT040 26/21 A3003 NOSIG=
201806161800 METAR MROC 161800Z 24012KT 9999 FEW015TCU SCT040 25/21 A3003 NOSIG=
201806161900 METAR MROC 161900Z 24010KT 210V270 9999 VCSH FEW010 SCT030 24/21 A3001 NOSIG=
201806162000 METAR MROC 162000Z 25010KT 210V280 9999 BKN030 25/21 A3000 NOSIG=
201806162100 METAR MROC 162100Z 27008KT 9999 FEW010 SCT020 BKN040 24/21 A2998 NOSIG=
201806162200 METAR MROC 162200Z 24005KT 210V270 9999 -RA VCSH FEW015 SCT050 BKN120 23/21 A2997 NOSIG=
201806162300 METAR MROC 162300Z 25006KT 9999 -TSRA FEW008 FEW012CB BKN100 23/21 A2999 NOSIG=
201806170000 METAR MROC 170000Z 21003KT 9000 4000N BCFG SCT005 SCT015 22/21 A3001 NOSIG=
201806170100 METAR MROC 170100Z 28004KT 9999 4000NW BCFG VCTS SCT002 SCT008 22/21 A3004 NOSIG=
201806170200 METAR MROC 170200Z VRB01KT 9999 4500W BCFG FEW003 SCT025 BKN110 22/21 A3005 NOSIG=
201806170300 METAR MROC 170300Z 30004KT 270V330 9999 3000SW BCFG FEW008 BKN150 22/21 A3002 NOSIG=
201806170400 METAR MROC 170400Z 09003KT 5000 2000SW BR SCT001 BKN050 21/21 A3003 NOSIG=
201806170500 METAR MROC 170500Z 07004KT 9999 FEW040 22/21 A3005 NOSIG=
201806170600 METAR MROC 170600Z 06005KT 040V100 CAVOK 21/19 A3002 NOSIG=
201806170700 METAR MROC 170700Z 08004KT 040V120 CAVOK 22/19 A3001 NOSIG=
201806170800 METAR MROC 170800Z 28003KT 210V310 CAVOK 21/20 A3002 NOSIG=
201806170900 METAR MROC 170900Z 26004KT 240V310 7000 2000SW BCFG SCT002 BKN030 20/20 A3001 NOSIG=
201806171000 METAR MROC 171000Z VRB01KT 7000 2000SW BCFG SCT005 20/20 A3000 NOSIG=
201806171100 METAR MROC 171100Z VRB02KT 9999 2000SW BCFG SCT005 20/19 A3001 NOSIG=
201806171200 METAR MROC 171200Z VRB01KT 9999 2000SW BCFG FEW005 BKN020 20/18 A3003 NOSIG=
201806171300 METAR MROC 171300Z 07005KT CAVOK 20/18 A3005 NOSIG=
201806171400 METAR MROC 171400Z 03004KT 340V110 CAVOK 23/18 A3005 NOSIG=
201806171500 METAR MROC 171500Z 05004KT 350V120 CAVOK 25/19 A3007 NOSIG=
201806171600 METAR MROC 171600Z 15004KT 100V230 9999 FEW030 BKN250 28/19 A3005 BECMG 24007KT=
201806171700 METAR MROC 171700Z VRB04KT 9999 FEW040 28/21 A3004 NOSIG=
201806171800 METAR MROC 171800Z 25011KT 9999 FEW025 SCT040 26/21 A3004 NOSIG=
201806171900 METAR MROC 171900Z 23010KT 190V270 9999 VCSH FEW025TCU SCT035 27/21 A3002 BECMG RA=
201806172000 METAR MROC 172000Z 25008KT 9999 4500NW RA VCTS FEW018TCU SCT025 BKN100 24/22 A3001 NOSIG=
201806172100 METAR MROC 172100Z 22005KT 9999 2000SW RA VCTS SCT006 BKN015 23/22 A3000 NOSIG=
201806172200 METAR MROC 172200Z 22006KT 5000 2000SW SHRA BR SCT002 BKN025 23/22 A2999 NOSIG=
201806172300 METAR MROC 172300Z 24004KT 7000 3000SW PRFG FEW002 SCT035 BKN120 23/22 A3001 NOSIG=
201806180000 METAR MROC 180000Z 26003KT 5000 2000SW BR FEW002 SCT010 BKN130 22/22 A3004 NOSIG=
201806180100 METAR MROC 180100Z 30003KT 9999 FEW005 22/21 A3005 NOSIG=
201806180200 METAR MROC 180200Z 04003KT 9999 FEW015 22/20 A3005 NOSIG=
201806180300 METAR MROC 180300Z 08006KT 9999 FEW030 22/20 A3004 NOSIG=
201806180400 METAR MROC 180400Z 05006KT 010V120 CAVOK 21/18 A3003 NOSIG=
201806180500 METAR MROC 180500Z 10010KT CAVOK 22/18 A3004 NOSIG=
201806180600 METAR MROC 180600Z 12009KT 090V160 CAVOK 23/18 A3003 NOSIG=
201806180700 METAR MROC 180700Z 09005KT 060V130 CAVOK 22/18 A3003 NOSIG=
201806180800 METAR MROC 180800Z 08008KT CAVOK 22/18 A3001 NOSIG=
201806180900 METAR MROC 180900Z 06005KT 020V100 CAVOK 21/17 A3001 NOSIG=
201806181000 METAR MROC 181000Z 07006KT CAVOK 21/17 A3001 NOSIG=
201806181100 METAR MROC 181100Z 06009KT CAVOK 21/17 A3002 NOSIG=
201806181200 METAR MROC 181200Z 07008KT CAVOK 21/17 A3004 NOSIG=
201806181300 METAR MROC 181300Z 07005KT 010V120 CAVOK 23/18 A3005 NOSIG=
201806181400 METAR MROC 181400Z 10011KT 070V130 CAVOK 25/19 A3004 NOSIG=
201806181500 METAR MROC 181500Z 10012KT 080V160 CAVOK 27/18 A3004 NOSIG=
201806181600 METAR MROC 181600Z 10014KT CAVOK 28/19 A3004 NOSIG=
201806181700 METAR MROC 181700Z 09014KT 060V130 9999 FEW045 BKN200 29/19 A3002 NOSIG=
201806181800 METAR MROC 181800Z 09015KT 9999 SCT045 BKN200 27/19 A3001 NOSIG=
201806181900 METAR MROC 181900Z 10012KT 080V140 9999 SCT045 BKN250 28/19 A3000 NOSIG=
201806182000 METAR MROC 182000Z 10011KT 070V130 9999 FEW020TCU SCT045 29/18 A3000 NOSIG=
201806182100 METAR MROC 182100Z 08012KT 9999 FEW020 SCT030 BKN200 28/17 A2998 NOSIG=
201806182200 METAR MROC 182200Z 12008KT 080V170 9999 VCTS FEW020CB SCT030 BKN060 27/18 A3000 NOSIG=
201806182300 METAR MROC 182300Z 05006KT 9999 FEW030 SCT060 BKN200 25/20 A3001 NOSIG=
201806190000 METAR MROC 190000Z 36003KT 290V090 9999 FEW040 SCT100 BKN200 24/20 A3003 NOSIG=
201806190100 METAR MROC 190100Z 21006KT 9999 SCT045 BKN100 23/20 A3007 NOSIG=
201806190200 METAR MROC 190200Z 27005KT 240V300 9999 FEW040 BKN200 22/20 A3007 NOSIG=
201806190300 METAR MROC 190300Z 34004KT 320V030 9999 FEW040 SCT100 22/20 A3009 NOSIG=
201806190400 METAR MROC 190400Z VRB01KT 9999 BKN040 22/20 A3009 NOSIG=
201806190500 METAR MROC 190500Z 15002KT CAVOK 21/20 A3008 NOSIG=
201806190600 METAR MROC 190600Z 22003KT 9999 SCT025 BKN250 21/20 A3007 NOSIG=
201806190700 METAR MROC 190700Z 03002KT 9999 FEW010 BKN025 21/20 A3006 NOSIG=
201806190800 METAR MROC 190800Z 01003KT 9999 FEW020 21/19 A3004 NOSIG=
201806190900 METAR MROC 190900Z 12004KT 080V150 CAVOK 20/19 A3001 NOSIG=
201806191000 METAR MROC 191000Z VRB03KT CAVOK 20/19 A3001 NOSIG=
201806191100 METAR MROC 191100Z 30006KT 7000 1800SW PRFG FEW003 SCT017 BKN150 20/19 A3003 NOSIG=
201806191200 METAR MROC 191200Z VRB02KT 0800 R07/1200U FG VV/// 20/20 A3005 BECMG 1500 BR=
201806191300 METAR MROC 191300Z 07005KT 030V090 8000 VCFG FEW005 SCT100 BKN200 20/20 A3006 NOSIG=
201806191400 METAR MROC 191400Z 08004KT 9999 BCFG FEW020 SCT100 BKN200 22/19 A3006 BECMG 22006KT=
201806191500 METAR MROC 191500Z 25004KT 220V300 9999 BCFG FEW020 SCT100 BKN200 24/21 A3007 NOSIG=
201806191600 METAR MROC 191600Z 24005KT 190V310 8000 VCFG FEW020 SCT100 BKN200 24/20 A3008 NOSIG=
201806191700 METAR MROC 191700Z 23004KT 8000 VCFG FEW020 SCT100 BKN200 25/20 A3006 NOSIG=
201806191800 METAR MROC 191800Z VRB02KT 9999 FEW035 SCT100 BKN200 25/20 A3006 NOSIG=
201806191900 METAR MROC 191900Z 27006KT 230V310 9999 TS FEW020CB SCT030 BKN120 26/21 A3004 BECMG 5000 TSRA=
201806192000 METAR MROC 192000Z 32008KT 250V010 9999 3000N TS FEW015CB SCT020 BKN045 22/20 A3004 RERA NOSIG=
201806192100 METAR MROC 192100Z 34004KT 310V040 9999 -RA BKN010 21/20 A3003 NOSIG=
201806192200 METAR MROC 192200Z VRB02KT 9999 FEW020 BKN100 22/20 A3000 NOSIG=
201806192300 METAR MROC 192300Z 09003KT 060V120 CAVOK 23/21 A3001 NOSIG=
201806200000 METAR MROC 200000Z 23005KT 180V260 9999 2500SW FEW001 BKN150 22/21 A3003 NOSIG=
201806200100 METAR MROC 200100Z 26006KT 9999 2000SW BCFG VCTS FEW001 BKN060 21/21 A3006 NOSIG=
201806200200 METAR MROC 200200Z 26005KT 230V300 9999 FEW005 BKN030 21/20 A3008 NOSIG=
201806200300 METAR MROC 200300Z 28004KT 240V350 9999 2000SW SCT001 BKN035 21/20 A3008 NOSIG=
201806200400 METAR MROC 200400Z 11004KT 020V130 9999 FEW010 BKN090 20/20 A3008 NOSIG=
201806200500 METAR MROC 200500Z 09004KT CAVOK 20/20 A3005 NOSIG=
201806200600 METAR MROC 200600Z 01015G25KT CAVOK 20/19 A3004 NOSIG=
201806200700 METAR MROC 200700Z 10005KT CAVOK 19/19 A3003 NOSIG=
201806200800 METAR MROC 200800Z 06005KT CAVOK 19/17 A3002 NOSIG=
201806200900 METAR MROC 200900Z 08005KT CAVOK 19/17 A3002 NOSIG=
201806201000 METAR MROC 201000Z 07006KT CAVOK 19/17 A3002 NOSIG=
201806201100 METAR MROC 201100Z 03003KT 010V080 CAVOK 19/17 A3003 NOSIG=
201806201200 METAR MROC 201200Z 14003KT 9999 4500SW PRFG NSC 20/18 A3008 NOSIG=
201806201300 METAR MROC 201300Z VRB02KT 9999 3000SW BCFG NSC 21/18 A3008 BECMG 24007KT=
201806201400 METAR MROC 201400Z VRB02KT CAVOK 23/18 A3008 BECMG 24007KT=
201806201500 METAR MROC 201500Z VRB02KT CAVOK 24/19 A3008 NOSIG=
201806201600 METAR MROC 201600Z 23003KT 130V280 CAVOK 26/19 A3007 NOSIG=
201806201700 METAR MROC 201700Z 23009KT 180V280 9999 VCSH FEW025TCU SCT150 27/20 A3006 NOSIG=
201806201800 METAR MROC 201800Z 24008KT 200V280 9999 VCSH FEW020TCU SCT150 26/20 A3004 NOSIG=
201806201900 METAR MROC 201900Z 25010KT 210V290 9999 VCTS FEW020TCU SCT180 27/21 A3002 NOSIG=
201806202000 METAR MROC 202000Z 24009KT 210V270 9999 FEW020TCU FEW025 SCT100 26/21 A3000 NOSIG=
201806202100 METAR MROC 202100Z 23011KT 200V260 9999 FEW010TCU SCT030 24/20 A2998 NOSIG=
201806202200 METAR MROC 202200Z 25012KT 220V280 9999 VCTS SCT006 BKN030 22/21 A3000 NOSIG=
201806202300 METAR MROC 202300Z 10010KT 050V150 8000 -TSRA SCT005 OVC030 20/17 A3003 NOSIG=
201806210000 METAR MROC 210000Z 09004KT 070V140 8000 -TSRA FEW010CB SCT030 BKN100 19/18 A3007 NOSIG=
201806210100 METAR MROC 210100Z 07004KT 8000 -RA FEW030 OVC100 20/19 A3008 NOSIG=
201806210200 METAR MROC 210200Z 07008KT 9999 -RA FEW030 OVC100 20/19 A3009 NOSIG=
201806210300 METAR MROC 210300Z 11004KT 9999 -RA OVC100 20/17 A3010 NOSIG=
201806210400 METAR MROC 210400Z 02004KT 320V070 9999 -RA NSC 20/18 A3009 NOSIG=
201806210500 METAR MROC 210500Z VRB02KT CAVOK 19/17 A3010 NOSIG=
201806210600 METAR MROC 210600Z VRB02KT CAVOK 19/17 A3010 NOSIG=
201806210700 METAR MROC 210700Z 08005KT CAVOK 19/17 A3007 NOSIG=
201806210800 METAR MROC 210800Z 08007KT CAVOK 19/17 A3004 NOSIG=
201806210900 METAR MROC 210900Z 08007KT CAVOK 19/17 A3003 NOSIG=
201806211000 METAR MROC 211000Z 08005KT CAVOK 18/16 A3002 NOSIG=
201806211100 METAR MROC 211100Z 07005KT CAVOK 18/15 A3002 NOSIG=
201806211200 METAR MROC 211200Z 07003KT 040V100 CAVOK 19/15 A3003 NOSIG=
201806211300 METAR MROC 211300Z 09005KT 070V130 CAVOK 22/16 A3006 NOSIG=
201806211400 METAR MROC 211400Z 03005KT CAVOK 25/15 A3006 NOSIG=
201806211500 METAR MROC 211500Z VRB03KT CAVOK 27/16 A3007 BECMG 23006KT=
201806211600 METAR MROC 211600Z 22007KT 150V260 CAVOK 27/18 A3006 BECMG 23006KT=
201806211700 METAR MROC 211700Z 24010KT CAVOK 28/19 A3006 NOSIG=
201806211800 METAR MROC 211800Z 25010KT 9999 FEW040 27/20 A3005 NOSIG=
201806211900 METAR MROC 211900Z 24010KT 210V280 9999 FEW040 26/21 A3002 NOSIG=
201806212000 METAR MROC 212000Z 25012KT 9999 SCT030 26/21 A3001 NOSIG=
201806212100 METAR MROC 212100Z 26012KT 9999 VCTS VCSH SCT015 SCT020CB 25/21 A2999 BECMG RA=
201806212200 METAR MROC 212200Z 26009KT 9999 -TSRA FEW015 SCT020CB 24/21 A2999 NOSIG=
201806212300 METAR MROC 212300Z 23007KT 9999 -RA FEW010 SCT015 BKN060 23/21 A3000 NOSIG=
201806220000 METAR MROC 220000Z 25006KT 9999 VCFG FEW010 BKN200 22/21 A3002 NOSIG=
201806220035 METAR MROC 220035Z 26006KT 9999 BCFG FEW004 BKN015 22/21 A3002 NOSIG=
201806220100 METAR MROC 220100Z 25006KT 9000 3000SW BCFG SCT003 BKN008 22/21 A3002 BECMG 5000=
201806220200 METAR MROC 220200Z 00000KT 9999 4000SW BCFG SCT004 BKN020 22/22 A3004 NOSIG=
201806220300 METAR MROC 220300Z VRB01KT 9999 VCFG FEW009 SCT110 BKN250 22/21 A3003 NOSIG=
201806220400 METAR MROC 220400Z 29003KT 9999 VCFG FEW003 21/21 A3004 NOSIG=
201806220500 METAR MROC 220500Z 23004KT 190V250 9999 2000SW BCFG FEW001 21/20 A3004 NOSIG=
201806220600 METAR MROC 220600Z VRB02KT 3500 BR FEW001 BKN006 21/20 A3004 NOSIG=
201806220700 METAR MROC 220700Z 29005KT 9999 3000SW BCFG FEW001 BKN006 21/20 A3003 NOSIG=
201806220800 METAR MROC 220800Z 36003KT 9999 3000SW FEW001 BKN006 20/20 A3001 NOSIG=
201806220900 METAR MROC 220900Z 06004KT CAVOK 20/18 A3001 NOSIG=
201806221000 METAR MROC 221000Z 04007KT CAVOK 20/18 A3000 NOSIG=
201806221100 METAR MROC 221100Z 18003KT 110V240 CAVOK 20/18 A3002 NOSIG=
201806221200 METAR MROC 221200Z 32005KT 210V350 CAVOK 20/18 A3005 NOSIG=
201806221300 METAR MROC 221300Z VRB02KT 9999 FEW010 BKN250 20/19 A3006 NOSIG=
201806221400 METAR MROC 221400Z VRB02KT CAVOK 24/19 A3004 NOSIG=
201806221500 METAR MROC 221500Z 16005KT 090V220 CAVOK 27/18 A3005 BECMG 25008KT=
201806221600 METAR MROC 221600Z 25010KT CAVOK 25/20 A3004 NOSIG=
201806221700 METAR MROC 221700Z 24006KT 200V290 9999 FEW040 27/22 A3005 NOSIG=
201806221800 METAR MROC 221800Z 25009KT 200V270 9999 FEW025TCU SCT040 26/22 A3004 NOSIG=
201806221900 METAR MROC 221900Z 25009KT 210V280 9999 FEW020TCU FEW035 27/21 A3002 NOSIG=
201806222000 METAR MROC 222000Z 25011KT 220V280 9999 FEW020TCU SCT030 27/22 A3000 NOSIG=
201806222100 METAR MROC 222100Z 23011KT 200V270 9999 BKN020 26/22 A2998 NOSIG=
201806222200 METAR MROC 222200Z 25009KT 9999 -TSRA FEW010 FEW020CB OVC020 24/22 A2997 NOSIG=
201806222232 METAR MROC 222232Z 25006KT 230V310 5000 TSRA OVC010 23/22 A2998 NOSIG=
201806222300 METAR MROC 222300Z 02003KT 340V060 9999 -RA VCTS BKN010 22/21 A2999 NOSIG=
201806230000 METAR MROC 230000Z VRB02KT 9999 FEW010 SCT045 BKN100 22/21 A2999 RETSRA NOSIG=
201806230100 METAR MROC 230100Z 24003KT 9999 FEW005 SCT020 BKN120 22/21 A3001 NOSIG=
201806230200 METAR MROC 230200Z 00000KT 9999 SCT020 22/21 A3002 NOSIG=
201806230300 METAR MROC 230300Z 09004KT 030V130 9999 FEW010 22/18 A3003 NOSIG=
201806230400 METAR MROC 230400Z 08006KT CAVOK 21/19 A3003 NOSIG=
201806230500 METAR MROC 230500Z 07004KT CAVOK 20/18 A3003 NOSIG=
201806230600 METAR MROC 230600Z 06007KT CAVOK 21/17 A3002 NOSIG=
201806230700 METAR MROC 230700Z 07007KT CAVOK 21/17 A3000 NOSIG=
201806230800 METAR MROC 230800Z 08006KT CAVOK 20/17 A2997 NOSIG=
201806230900 METAR MROC 230900Z 04004KT CAVOK 19/17 A2996 NOSIG=
201806231000 METAR MROC 231000Z 05007KT CAVOK 20/17 A2997 NOSIG=
201806231100 METAR MROC 231100Z 07008KT CAVOK 20/17 A2998 NOSIG=
201806231200 METAR MROC 231200Z 08006KT CAVOK 20/17 A2999 NOSIG=
201806231300 METAR MROC 231300Z 09008KT CAVOK 22/18 A3003 NOSIG=
201806231400 METAR MROC 231400Z 10007KT 9999 -RA NSC 20/18 A3003 NOSIG=
201806231500 METAR MROC 231500Z 12009KT 9999 -RA NSC 21/18 A3006 NOSIG=
201806231600 METAR MROC 231600Z 24006KT 9999 FEW025 BKN120 23/19 A3002 NOSIG=
201806231700 METAR MROC 231700Z 21006KT 9999 FEW030 SCT060 24/20 A3003 NOSIG=
201806231800 METAR MROC 231800Z VRB02KT CAVOK 24/19 A3002 NOSIG=
201806231900 METAR MROC 231900Z VRB03KT CAVOK 25/19 A2999 NOSIG=
201806232000 METAR MROC 232000Z 24004KT 160V320 9999 SCT040 26/19 A2997 NOSIG=
201806232100 METAR MROC 232100Z 28005KT 240V320 9999 FEW035 SCT045 BKN200 26/19 A2994 NOSIG=
201806232200 METAR MROC 232200Z 26006KT 210V310 9999 SCT040 BKN200 27/20 A2994 NOSIG=
201806232300 METAR MROC 232300Z 24007KT 9999 FEW040 BKN200 25/21 A2995 NOSIG=
201806240000 METAR MROC 240000Z 25007KT 8000 3500N VCFG SCT005 BKN010 23/22 A2997 BECMG 5000 BR=
201806240100 METAR MROC 240100Z 26005KT 230V360 8000 -TSRA FEW005 SCT010CB BKN020 22/22 A2998 NOSIG=
201806240200 METAR MROC 240200Z 20003KT 130V250 9999 -RA FEW005 SCT020 BKN120 22/21 A3002 RETS NOSIG=
201806240300 METAR MROC 240300Z 10004KT 060V130 9999 FEW030 BKN200 21/19 A3004 NOSIG=
201806240400 METAR MROC 240400Z 10005KT 060V120 9999 SCT045 20/18 A3004 NOSIG=
201806240500 METAR MROC 240500Z 09004KT 9999 FEW047 BKN200 20/18 A3004 NOSIG=
201806240600 METAR MROC 240600Z 06005KT 010V080 9999 FEW040 20/18 A3002 NOSIG=
201806240700 METAR MROC 240700Z 03003KT 050V120 9999 SCT045 20/18 A3001 NOSIG=
201806240800 METAR MROC 240800Z 23003KT 9999 BKN045 20/18 A2999 NOSIG=
201806240900 METAR MROC 240900Z 30004KT 9999 FEW005 SCT070 20/19 A2999 NOSIG=
201806241000 METAR MROC 241000Z 07004KT 9999 FEW018 SCT150 19/19 A2998 NOSIG=
201806241100 METAR MROC 241100Z 36007KT 9999 FEW015 SCT150 19/19 A2994 NOSIG=
201806241200 METAR MROC 241200Z 17008KT 9999 FEW020 BKN120 20/19 A2999 NOSIG=
201806241300 METAR MROC 241300Z 29006KT 240V320 9999 FEW015 SCT050 BKN180 20/19 A3003 NOSIG=
201806241400 METAR MROC 241400Z 32005KT 280V030 9999 FEW015 SCT045 BKN180 22/19 A3003 NOSIG=
201806241500 METAR MROC 241500Z VRB03KT 9999 FEW015 SCT050 BKN180 23/19 A3005 NOSIG=
201806241600 METAR MROC 241600Z 09004KT 050V110 9999 FEW045 BKN200 25/19 A3002 NOSIG=
201806241700 METAR MROC 241700Z VRB03KT 9999 FEW035 BKN180 27/18 A2999 NOSIG=
201806241800 METAR MROC 241800Z 08010KT 9999 SCT030 BKN180 26/19 A2998 NOSIG=
201806241900 METAR MROC 241900Z 08010G20KT 040V130 9999 FEW030 SCT100 BKN180 28/19 A2996 NOSIG=
201806242000 METAR MROC 242000Z 08013KT 9999 FEW035 SCT100 BKN200 28/18 A2994 NOSIG=
201806242100 METAR MROC 242100Z 14008KT 110V180 9999 FEW035 BKN230 27/18 A2992 NOSIG=
201806242200 METAR MROC 242200Z 24012KT 9999 SCT008 BKN019 24/22 A2994 NOSIG=
201806242300 METAR MROC 242300Z 25009KT 210V280 9999 FEW010 SCT020 23/21 A2997 BECMG RA=
201806242356 METAR MROC 250000Z 29006KT 9999 FEW010 SCT025 BKN250 22/20 A2998 NOSIG=
201806250000 METAR MROC 250000Z 29006KT 9999 FEW010 SCT025 BKN250 22/20 A2998 NOSIG=
201806250100 METAR MROC 250100Z 32004KT 9999 FEW030 BKN250 21/19 A3000 NOSIG=
201806250200 METAR MROC 250200Z VRB02KT 9999 VCTS SCT030 22/20 A3000 NOSIG=
201806250300 METAR MROC 250300Z 02005KT 9999 FEW030 21/19 A3002 NOSIG=
201806250400 METAR MROC 250400Z 03005KT 9999 FEW025 SCT200 21/19 A3002 NOSIG=
201806250500 METAR MROC 250500Z 09009KT CAVOK 23/18 A2999 NOSIG=
201806250600 METAR MROC 250600Z 09008KT CAVOK 23/18 A2999 NOSIG=
201806250700 METAR MROC 250700Z 11011KT CAVOK 23/18 A2995 NOSIG=
201806250800 METAR MROC 250800Z 12013KT 080V150 CAVOK 23/18 A2994 NOSIG=
201806250900 METAR MROC 250900Z 11011KT CAVOK 22/17 A2995 NOSIG=
201806251000 METAR MROC 251000Z 09010KT 060V130 CAVOK 22/18 A2995 NOSIG=
201806251100 METAR MROC 251100Z 11014KT 090V150 9999 FEW025 SCT100 22/17 A2995 NOSIG=
201806251200 METAR MROC 251200Z 06007KT 020V100 9999 FEW030 BKN180 21/17 A3000 NOSIG=
201806251300 METAR MROC 251300Z 13007KT 090V180 9999 FEW040 SCT100 21/18 A3000 NOSIG=
201806251400 METAR MROC 251400Z 36004KT 330V070 CAVOK 23/17 A3004 NOSIG=
201806251500 METAR MROC 251500Z 29004KT 250V340 9999 FEW040 SCT130 24/19 A3004 NOSIG=
201806251600 METAR MROC 251600Z 25004KT 220V320 9999 FEW040 24/19 A3002 NOSIG=
201806251700 METAR MROC 251700Z 29004KT 220V340 9999 SCT045 26/19 A3001 NOSIG=
201806251800 METAR MROC 251800Z 10010KT 060V130 9999 SCT045 SCT150 27/18 A2999 NOSIG=
201806251900 METAR MROC 251900Z 07013KT 9999 FEW045 BKN100 27/17 A2998 NOSIG=
201806252000 METAR MROC 252000Z 09008KT 060V120 9999 -RA FEW045 BKN100 26/18 A2996 NOSIG=
201806252100 METAR MROC 252100Z 13009KT 090V190 9999 SCT040 BKN100 26/17 A2997 NOSIG=
201806252200 METAR MROC 252200Z 13012G22KT 100V160 9999 FEW040 BKN100 25/15 A2998 NOSIG=
201806252300 METAR MROC 252300Z 12006KT 090V150 9999 3000SW BCFG FEW003 BKN100 24/14 A2997 BECMG 5000 BR=
201806260000 METAR MROC 260000Z 26008KT 240V300 8000 VCFG SCT003 BKN100 21/20 A2997 BECMG 3000 BR=
201806260100 METAR MROC 260100Z 26005KT 230V290 8000 VCFG SCT003 BKN100 21/20 A2997 NOSIG=
201806260200 METAR MROC 260200Z 00000KT 8000 VCFG FEW003 SCT030 BKN100 20/19 A2998 NOSIG=
201806260300 METAR MROC 260300Z 20003KT 9999 BCFG FEW010 SCT100 20/20 A3001 NOSIG=
201806260400 METAR MROC 260400Z 05004KT 9999 FEW030 SCT120 21/19 A3003 NOSIG=
201806260500 METAR MROC 260500Z 07005KT 9999 FEW030 SCT120 20/17 A3002 NOSIG=
201806260600 METAR MROC 260600Z 06007KT CAVOK 20/16 A3000 NOSIG=
201806260700 METAR MROC 260700Z 04003KT 360V100 CAVOK 20/16 A2999 NOSIG=
201806260800 METAR MROC 260800Z 04008KT CAVOK 20/16 A2998 NOSIG=
201806260900 METAR MROC 260900Z 06007KT 020V100 CAVOK 20/16 A2996 NOSIG=
201806261000 METAR MROC 261000Z 04009KT CAVOK 20/15 A2994 NOSIG=
201806261100 METAR MROC 261100Z 06007KT CAVOK 20/15 A2995 NOSIG=
201806261200 METAR MROC 261200Z 01003KT 340V070 CAVOK 20/15 A2998 NOSIG=
201806261300 METAR MROC 261300Z 09003KT 050V130 CAVOK 22/16 A3001 NOSIG=
201806261400 METAR MROC 261400Z 24005KT 210V280 CAVOK 22/18 A3004 NOSIG=
201806261500 METAR MROC 261500Z VRB03KT CAVOK 24/17 A3005 NOSIG=
201806261600 METAR MROC 261600Z VRB05KT 9999 FEW040 SCT120 BKN250 25/18 A3003 NOSIG=
201806261700 METAR MROC 261700Z 26007KT 210V320 9999 FEW040 BKN250 27/19 A3003 NOSIG=
201806261800 METAR MROC 261800Z 24010KT 9999 FEW040 SCT100 25/19 A3001 NOSIG=
201806261900 METAR MROC 261900Z 26011KT 230V290 9999 SCT030 26/20 A2999 NOSIG=
201806262000 METAR MROC 262000Z 24012KT 9999 -RA FEW005 SCT030 BKN100 23/21 A2996 NOSIG=
201806262100 METAR MROC 262100Z 21008KT 180V240 9999 4500NW -TSRA FEW007CB SCT030 BKN100 22/20 A2998 NOSIG=
201806262200 METAR MROC 262200Z 27009KT 9999 -RA FEW007 SCT028 BKN070 21/20 A2999 NOSIG=
201806262300 METAR MROC 262300Z 24003KT 210V270 9999 SCT006 BKN015 20/19 A2999 BECMG 5000 RA BR=
201806270000 METAR MROC 270000Z 16003KT 130V190 9999 RA FEW009 SCT020 BKN050 21/19 A3001 NOSIG=
201806270100 METAR MROC 270100Z 00000KT 9999 -RA FEW020 OVC100 20/20 A3003 NOSIG=
201806270200 METAR MROC 270200Z VRB02KT 9999 4500SW -RA BCFG FEW008 BKN110 20/20 A3004 NOSIG=
201806270300 METAR MROC 270300Z 19003KT 9000 2500SW -RA BCFG FEW002 SCT005 BKN020 20/19 A3006 BECMG 5000 BKN010=
201806270400 METAR MROC 270400Z 00000KT 9999 2500SW -RA BCFG FEW001 SCT020 BKN035 20/20 A3005 NOSIG=
201806270500 METAR MROC 270500Z 10004KT 7000 BCFG FEW020 BKN160 20/19 A3003 NOSIG=
201806270600 METAR MROC 270600Z 11003KT 080V160 CAVOK 20/19 A3001 NOSIG=
201806270700 METAR MROC 270700Z 07007KT CAVOK 20/19 A2998 NOSIG=
201806270800 METAR MROC 270800Z 06007KT CAVOK 21/19 A2998 NOSIG=
201806270900 METAR MROC 270900Z 05009KT CAVOK 21/18 A2997 NOSIG=
201806271000 METAR MROC 271000Z 08004KT 060V120 9999 VCTS BKN065 21/18 A2998 NOSIG=
201806271100 METAR MROC 271100Z 02005KT CAVOK 20/19 A2998 NOSIG=
201806271200 METAR MROC 271200Z 09005KT 060V130 9999 SCT025 SCT080 21/18 A2999 NOSIG=
201806271300 METAR MROC 271300Z 08005KT 020V140 9999 FEW045 SCT080 22/19 A2999 NOSIG=
201806271400 METAR MROC 271400Z 10013KT 070V130 9999 FEW045 24/18 A2999 NOSIG=
201806271500 METAR MROC 271500Z 10017KT CAVOK 25/18 A3000 NOSIG=
201806271600 METAR MROC 271600Z 12013G23KT 090V170 9999 FEW040 SCT250 26/18 A3001 NOSIG=
201806271700 METAR MROC 271700Z 09013KT 050V120 9999 FEW040 BKN250 26/18 A3000 NOSIG=
201806271800 METAR MROC 271800Z 12010KT 080V150 9999 FEW040 SCT120 BKN250 27/18 A2999 NOSIG=
201806271900 METAR MROC 271900Z 08009KT 9999 FEW045 SCT120 BKN250 27/18 A2998 NOSIG=
201806272000 METAR MROC 272000Z 09010KT 9999 FEW045 BKN250 27/17 A2996 NOSIG=
201806272100 METAR MROC 272100Z 11009KT 080V140 9999 FEW045 BKN120 27/17 A2995 NOSIG=
201806272200 METAR MROC 272200Z 11008KT 080V160 9999 FEW010 BKN120 26/18 A2994 NOSIG=
201806272300 METAR MROC 272300Z 13005KT 080V200 9999 FEW045 BKN120 25/17 A2996 NOSIG=
201806280000 METAR MROC 280000Z 25006KT 210V290 9999 FEW035 BKN160 22/20 A2997 NOSIG=
201806280100 METAR MROC 280100Z VRB04KT 9999 FEW005 SCT120 21/20 A3000 NOSIG=
201806280200 METAR MROC 280200Z VRB02KT 210V290 9999 SCT030 22/20 A3001 NOSIG=
201806280300 METAR MROC 280300Z VRB02KT 9999 FEW030 SCT140 21/20 A3002 NOSIG=
201806280400 METAR MROC 280400Z 11006KT CAVOK 21/17 A3003 NOSIG=
201806280500 METAR MROC 280500Z 12008KT CAVOK 22/17 A3003 NOSIG=
201806280600 METAR MROC 280600Z VRB02KT CAVOK 21/17 A3003 NOSIG=
201806280700 METAR MROC 280700Z 22003KT CAVOK 20/18 A3004 NOSIG=
201806280800 METAR MROC 280800Z 36002KT CAVOK 20/19 A3001 NOSIG=
201806280900 METAR MROC 280900Z 33007KT CAVOK 20/18 A3000 NOSIG=
201806281000 METAR MROC 281000Z 09003KT CAVOK 20/18 A3000 NOSIG=
201806281100 METAR MROC 281100Z 02006KT CAVOK 20/18 A3001 NOSIG=
201806281200 METAR MROC 281200Z 03004KT 9999 FEW030 BKN120 21/17 A3001 NOSIG=
201806281300 METAR MROC 281300Z 06005KT 030V100 9999 FEW040 BKN120 22/18 A3000 NOSIG=
201806281400 METAR MROC 281400Z 10006KT 070V190 CAVOK 23/18 A3001 NOSIG=
201806281500 METAR MROC 281500Z 10007KT 070V150 9999 FEW045 BKN100 24/18 A3003 NOSIG=
201806281600 METAR MROC 281600Z 12008KT 080V150 9999 FEW040 BKN140 26/19 A3002 NOSIG=
201806281700 METAR MROC 281700Z 11009KT 080V160 9999 FEW040 SCT140 27/18 A3002 NOSIG=
201806281800 METAR MROC 281800Z 07011KT 040V110 9999 FEW045 BKN180 28/17 A3001 NOSIG=
201806281900 METAR MROC 281900Z 11005KT 070V170 9999 FEW045 BKN180 28/18 A2998 NOSIG=
201806282000 METAR MROC 282000Z 08007KT 050V110 9999 SCT040 BKN120 28/17 A2996 BECMG 22006KT=
201806282100 METAR MROC 282100Z 26006KT 210V290 9999 VCSH FEW020 SCT035 BKN120 24/21 A2997 NOSIG=
201806282200 METAR MROC 282200Z 23006KT 160V270 9999 FEW020 SCT035 BKN100 24/21 A2996 NOSIG=
201806282300 METAR MROC 282300Z VRB03KT 2500 -RA BR FEW005 SCT020 BKN035 22/21 A2999 NOSIG=
201806290000 METAR MROC 290000Z 12003KT 060V210 1500 RA BR FEW005 SCT010 BKN035 20/20 A3002 NOSIG=
201806290100 METAR MROC 290100Z 11005KT 9999 -RA FEW035 OVC120 21/19 A3001 NOSIG=
201806290200 METAR MROC 290200Z 12007KT 9999 FEW035 BKN120 21/18 A3002 NOSIG=
201806290300 METAR MROC 290300Z 12007KT 090V150 9999 FEW035 BKN120 21/17 A3006 NOSIG=
201806290400 METAR MROC 290400Z 09003KT 060V130 9999 -RA NSC 21/17 A3007 NOSIG=
201806290500 METAR MROC 290500Z 05003KT 330V120 9999 FEW045 BKN150 21/19 A3008 NOSIG=
201806290600 METAR MROC 290600Z 10004KT 060V160 9999 -RA SCT048 BKN180 21/18 A3007 NOSIG=
201806290700 METAR MROC 290700Z 10007KT 060V130 9999 -RA SCT040 BKN180 20/18 A3005 NOSIG=
201806290800 METAR MROC 290800Z 10008KT 9999 FEW040 SCT150 21/17 A3000 NOSIG=
201806290900 METAR MROC 290900Z 12009KT 9999 -RA NSC 21/17 A3001 NOSIG=
201806290910 METAR MROC 290910Z 12007KT CAVOK 21/17 A2999 NOSIG=
201806291000 METAR MROC 291000Z 12007KT CAVOK 21/17 A2999 NOSIG=
201806291100 METAR MROC 291100Z VRB02KT 9999 BCFG NSC 20/17 A3001 NOSIG=
201806291200 METAR MROC 291200Z 33005KT 300V010 9999 BCFG FEW045 SCT140 19/17 A3004 NOSIG=
201806291300 METAR MROC 291300Z 33006KT 310V010 9999 BCFG FEW035 SCT100 BKN250 21/18 A3004 NOSIG=
201806291400 METAR MROC 291400Z 05003KT 9999 FEW035 SCT100 BKN250 24/19 A3005 NOSIG=
201806291500 METAR MROC 291500Z 09010G20KT 9999 FEW035 SCT100 BKN250 25/18 A3005 NOSIG=
201806291600 METAR MROC 291600Z 07010G20KT 040V100 9999 FEW040 BKN200 27/17 A3005 NOSIG=
201806291700 METAR MROC 291700Z 07013G23KT 9999 FEW040 SCT070 BKN200 28/17 A3005 NOSIG=
201806291800 METAR MROC 291800Z 08010G20KT 050V110 9999 FEW045 BKN200 27/17 A3002 NOSIG=
201806291900 METAR MROC 291900Z 09010G20KT 060V120 9999 SCT045 BKN200 28/17 A3000 NOSIG=
201806292000 METAR MROC 292000Z 28004KT 9999 FEW025 SCT035 BKN100 24/21 A3000 BECMG RA=
201806292100 METAR MROC 292100Z 16005KT 120V190 9999 VCTS SCT050 OVC100 24/18 A2998 NOSIG=
201806292200 METAR MROC 292200Z 10009KT 9999 2500SW BCFG VCTS SCT040 OVC100 24/17 A2998 NOSIG=
201806292300 METAR MROC 292300Z 10007KT 070V130 9999 VCTS SCT035 OVC100 23/17 A3000 NOSIG=
201806300000 METAR MROC 300000Z 09009KT 060V130 CAVOK 23/17 A3000 NOSIG=
201806300100 METAR MROC 300100Z 12007KT 080V170 CAVOK 23/16 A3002 NOSIG=
201806300200 METAR MROC 300200Z 11009KT CAVOK 22/17 A3004 NOSIG=
201806300300 METAR MROC 300300Z VRB02KT CAVOK 21/18 A3005 NOSIG=
201806300400 METAR MROC 300400Z VRB04KT 9999 FEW030 BKN120 22/17 A3005 NOSIG=
201806300500 METAR MROC 300500Z 09006KT 9999 FEW030 OVC090 22/17 A3007 NOSIG=
201806300600 METAR MROC 300600Z VRB03KT 9999 FEW030 OVC140 22/17 A3003 NOSIG=
201806300700 METAR MROC 300700Z 11013KT 080V140 CAVOK 22/17 A3001 NOSIG=
201806300800 METAR MROC 300800Z 11010KT 9999 FEW025 BKN100 22/16 A2999 NOSIG=
201806300900 METAR MROC 300900Z 11012KT 090V150 CAVOK 22/17 A2998 NOSIG=
201806301000 METAR MROC 301000Z 10013KT CAVOK 22/17 A3000 NOSIG=
201806301100 METAR MROC 301100Z 11013KT CAVOK 22/17 A2999 NOSIG=
201806301200 METAR MROC 301200Z 11013KT 9999 FEW045 BKN100 22/17 A3001 NOSIG=
201806301300 METAR MROC 301300Z 11010KT 080V140 9999 FEW030 SCT060 BKN140 22/17 A3002 NOSIG=
201806301400 METAR MROC 301400Z 11012KT CAVOK 24/17 A3001 NOSIG=
201806301500 METAR MROC 301500Z 10010KT CAVOK 26/16 A3002 NOSIG=
201806301600 METAR MROC 301600Z 09010KT 050V140 9999 FEW045 27/17 A3003 NOSIG=
201806301700 METAR MROC 301700Z 12009KT 090V150 CAVOK 25/17 A3003 NOSIG=
201806301800 METAR MROC 301800Z 13008KT 080V170 9999 FEW045 28/18 A3001 NOSIG=
201806301900 METAR MROC 301900Z 13008KT 100V160 9999 FEW035 BKN070 27/17 A2999 NOSIG=
201806302000 METAR MROC 302000Z 09006KT 010V140 9999 SCT030 SCT085 28/17 A2998 NOSIG=
201806302100 METAR MROC 302100Z 22006KT 9999 VCSH SCT030 BKN100 23/20 A2997 NOSIG=
201806302200 METAR MROC 302200Z 22006KT 9999 -RA FEW004 SCT030 BKN100 21/20 A3000 NOSIG=
201806302300 METAR MROC 302300Z 36005KT 330V030 9999 BCFG FEW005 BKN100 21/20 A3000 NOSIG=
201807010000 METAR MROC 010000Z 08006KT 9999 FEW030 BKN100 21/19 A3000 NOSIG=
201807010100 METAR MROC 010100Z 06008KT CAVOK 22/18 A3001 NOSIG=
201807010200 METAR MROC 010200Z 04004KT 350V130 CAVOK 22/18 A3004 NOSIG=
201807010300 METAR MROC 010300Z 36003KT 320V050 CAVOK 21/17 A3004 NOSIG=
201807010400 METAR MROC 010400Z 10006KT CAVOK 21/17 A3004 NOSIG=
201807010500 METAR MROC 010500Z 07006KT CAVOK 21/17 A3002 NOSIG=
201807010600 METAR MROC 010600Z 06007KT CAVOK 22/17 A3000 NOSIG=
201807010700 METAR MROC 010700Z 25005KT CAVOK 20/17 A2999 NOSIG=
201807010800 METAR MROC 010800Z 29003KT 260V320 CAVOK 20/18 A3000 NOSIG=
201807010900 METAR MROC 010900Z VRB02KT CAVOK 19/18 A3000 NOSIG=
201807011000 METAR MROC 011000Z 05004KT CAVOK 19/18 A2999 NOSIG=
201807011100 METAR MROC 011100Z 36003KT 320V040 CAVOK 19/11 A2999 NOSIG=
201807011200 METAR MROC 011200Z 01004KT 9999 FEW045 SCT150 19/17 A3002 NOSIG=
201807011300 METAR MROC 011300Z VRB03KT 9999 FEW040 22/17 A3001 NOSIG=
201807011400 METAR MROC 011400Z 12009KT 090V160 9999 FEW040 24/18 A3001 NOSIG=
201807011500 METAR MROC 011500Z 12008KT 090V170 9999 FEW040 27/18 A2999 NOSIG=
201807011600 METAR MROC 011600Z 06014KT 9999 FEW040 28/17 A3000 NOSIG=
201807011700 METAR MROC 011700Z 07013KT 9999 FEW040 28/16 A2999 NOSIG=
201807011800 METAR MROC 011800Z 07011KT 040V110 9999 FEW040 29/17 A2998 NOSIG=
201807011900 METAR MROC 011900Z 07013KT 040V110 9999 FEW040 28/17 A2996 NOSIG=
201807012000 METAR MROC 012000Z 36003KT 320V050 9999 FEW010TCU SCT040 21/17 A3004 NOSIG=
201807012100 METAR MROC 012100Z 10011KT 9999 FEW040 BKN090 25/17 A2997 NOSIG=
201807012200 METAR COR MROC 012200Z 10010KT 080V170 CAVOK 24/17 A2996 NOSIG=
201807012300 METAR MROC 012300Z 10014KT CAVOK 24/17 A2995 NOSIG=
201807020000 METAR MROC 020000Z 12010KT 090V150 CAVOK 23/17 A2999 NOSIG=
201807020100 METAR MROC 020100Z 10011KT CAVOK 23/18 A3002 NOSIG=
201807020200 METAR MROC 020200Z 11009KT 9999 FEW042 BKN200 23/18 A3005 NOSIG=
201807020300 METAR MROC 020300Z 12009KT 080V150 CAVOK 22/17 A3005 NOSIG=
201807020400 METAR MROC 020400Z 12008KT 090V160 CAVOK 22/15 A3006 NOSIG=
201807020500 METAR MROC 020500Z 11009KT 070V130 CAVOK 21/16 A3004 NOSIG=
201807020600 METAR MROC 020600Z 12009KT 080V150 CAVOK 21/16 A3002 NOSIG=
201807020700 METAR MROC 020700Z 09012KT 060V130 CAVOK 22/16 A3000 NOSIG=
201807020800 METAR MROC 020800Z 10012KT 070V130 CAVOK 23/16 A2996 NOSIG=
201807020900 METAR MROC 020900Z 11009KT 080V140 CAVOK 22/16 A2995 NOSIG=
201807021000 METAR MROC 021000Z 12012KT 090V150 CAVOK 22/17 A2995 NOSIG=
201807021100 METAR MROC 021100Z 12011KT 090V140 CAVOK 21/16 A2996 NOSIG=
201807021200 METAR MROC 021200Z 11012KT 090V150 CAVOK 22/17 A2997 NOSIG=
201807021300 METAR MROC 021300Z 12009KT 090V150 CAVOK 23/18 A2999 NOSIG=
201807021400 METAR MROC 021400Z 12009KT 090V150 9999 FEW035 BKN180 24/18 A3001 NOSIG=
201807021500 METAR MROC 021500Z 09009KT 9999 FEW040 SCT190 26/17 A3001 NOSIG=
201807021600 METAR MROC 021600Z 08006KT 9999 FEW040 SCT060 26/16 A3002 NOSIG=
201807021700 METAR MROC 021700Z 26007KT 230V300 9999 DZ FEW030 BKN060 24/20 A3003 BECMG RA=
201807021800 METAR MROC 021800Z 15005KT 090V210 9999 -RA FEW025 SCT045 BKN060 22/19 A3002 BECMG RA=
201807021900 METAR MROC 021900Z VRB04KT 9999 FEW010 SCT050 BKN110 23/19 A2999 NOSIG=
201807022000 METAR MROC 022000Z 24010KT 8000 3500W BCFG FEW002 SCT005 BKN020 20/19 A3000 NOSIG=
201807022100 METAR MROC 022100Z VRB02KT 9999 FEW010 BKN070 22/20 A2997 NOSIG=
201807022200 METAR MROC 022200Z 26006KT 9999 4500SW BCFG FEW005 BKN100 22/20 A2998 NOSIG=
201807022300 METAR MROC 022300Z 26005KT 200V360 9999 4000SW BCFG FEW005 BKN120 21/20 A2998 NOSIG=
201807030000 METAR MROC 030000Z 15003KT 060V220 9999 FEW003 SCT120 BKN150 20/18 A2999 NOSIG=
201807030100 METAR MROC 030100Z 11013G25KT CAVOK 22/15 A2998 NOSIG=
201807030200 METAR MROC 030200Z 11015KT CAVOK 23/14 A2997 NOSIG=
201807030300 METAR MROC 030300Z 09010G20KT 050V130 CAVOK 22/14 A2999 NOSIG=
201807030400 METAR MROC 030400Z 08008KT 050V120 CAVOK 22/14 A3000 NOSIG=
201807030500 METAR MROC 030500Z 11008KT 080V160 CAVOK 21/16 A3000 NOSIG=
201807030600 METAR MROC 030600Z 11013KT CAVOK 21/15 A2998 NOSIG=
201807030700 METAR MROC 030700Z 09009KT 040V130 CAVOK 21/15 A2995 NOSIG=
201807030800 METAR MROC 030800Z 10010KT CAVOK 21/16 A2993 NOSIG=
201807030900 METAR MROC 030900Z 11013KT CAVOK 21/16 A2993 NOSIG=
201807031000 METAR MROC 031000Z 12012KT 080V150 CAVOK 21/16 A2993 NOSIG=
201807031100 METAR MROC 031100Z 08006KT 020V140 CAVOK 21/16 A2994 NOSIG=
201807031200 METAR MROC 031200Z 04009KT CAVOK 21/16 A2996 NOSIG=
201807031300 METAR MROC 031300Z 35003KT 290V030 CAVOK 21/17 A2999 NOSIG=
201807031400 METAR MROC 031400Z 32006KT 300V030 CAVOK 23/17 A3000 NOSIG=
201807031500 METAR MROC 031500Z 25008KT 220V280 CAVOK 24/18 A3000 NOSIG=
201807031600 METAR MROC 031600Z 23007KT 200V260 CAVOK 25/19 A3000 NOSIG=
201807031700 METAR MROC 031700Z 24009KT 210V280 9999 FEW035 SCT200 25/19 A2999 NOSIG=
201807031800 METAR MROC 031800Z COR 25010KT 210V280 9999 SCT035 SCT200 25/20 A2998 NOSIG=
201807031900 METAR MROC 031900Z 24011KT 220V280 9999 SCT045 25/20 A2996 NOSIG=
201807032000 METAR MROC 032000Z 25010KT 9999 BKN030 26/20 A2995 NOSIG=
201807032100 METAR MROC 032100Z 21007KT 9999 -RA FEW015 SCT025 BKN035 24/21 A2994 NOSIG=
201807032200 METAR MROC 032200Z 22005KT 9999 SCT040 BKN060 24/20 A2994 NOSIG=
201807032300 METAR MROC 032300Z 26006KT 9999 FEW010 SCT030 BKN060 22/21 A2994 NOSIG=
201807040000 METAR MROC 040000Z 25006KT 9999 SCT035 BKN250 22/21 A2996 NOSIG=
201807040100 METAR MROC 040100Z 00000KT 9999 FEW035 21/20 A2996 NOSIG=
201807040200 METAR MROC 040200Z 11003KT CAVOK 21/19 A2996 NOSIG=
201807040300 METAR MROC 040300Z 11003KT CAVOK 21/17 A2997 NOSIG=
201807040400 METAR MROC 040400Z 07006KT 040V130 CAVOK 21/17 A2997 NOSIG=
201807040500 METAR MROC 040500Z 08006KT CAVOK 21/18 A2998 NOSIG=
201807040600 METAR MROC 040600Z 05008KT CAVOK 21/17 A2997 NOSIG=
201807040700 METAR MROC 040700Z 06009KT 020V080 CAVOK 20/17 A2995 NOSIG=
201807040800 METAR MROC 040800Z 08007KT CAVOK 20/17 A2993 NOSIG=
201807040900 METAR MROC 040900Z 07006KT CAVOK 20/17 A2993 NOSIG=
201807041000 METAR MROC 041000Z 06006KT CAVOK 19/17 A2993 NOSIG=
201807041100 METAR MROC 041100Z 06005KT 040V100 CAVOK 20/17 A2994 NOSIG=
201807041200 METAR MROC 041200Z 06006KT CAVOK 20/17 A2997 NOSIG=
201807041300 METAR MROC 041300Z 05003KT 010V090 9999 FEW035 22/18 A2997 NOSIG=
201807041400 METAR MROC 041400Z 05003KT 010V110 9999 FEW035 24/18 A2998 BECMG 24006KT=
201807041500 METAR MROC 041500Z 22004KT 9999 FEW040 26/19 A2998 NOSIG=
201807041600 METAR MROC 041600Z 24008KT 210V270 9999 SCT035 26/19 A2997 NOSIG=
201807041700 METAR MROC 041700Z 25010KT 200V270 9999 FEW025 SCT035 26/21 A2997 NOSIG=
201807041800 METAR MROC 041800Z 24009KT 210V270 9999 FEW020 SCT030 26/21 A2996 NOSIG=
201807041900 METAR MROC 041900Z 26011KT 9999 VCSH FEW015CB FEW020TCU SCT030 25/21 A2995 BECMG TSRA=
201807042000 METAR MROC 042000Z 24008KT 210V290 9999 -RA VCTS VCSH FEW013 SCT015CB BKN080 24/21 A2995 BECMG 5000 TSRA BKN020=
201807042100 METAR MROC 042100Z 24009KT 9999 2500SW -TSRA BCFG SCT005CB OVC030 23/21 A2993 NOSIG=
201807042200 METAR MROC 042200Z 23007KT 4000 -RA BR SCT002 SCT010 OVC040 22/21 A2993 NOSIG=
201807042300 METAR MROC 042300Z 22006KT 5000 2000SW TS BR FEW005CB SCT005 OVC030 22/21 A2994 RERA NOSIG=
201807050000 METAR MROC 050000Z 23005KT 200V260 3000 BR RA SCT002 OVC025 21/20 A2997 RETS NOSIG=
201807050100 METAR MROC 050100Z 19003KT 160V220 9999 -TSRA FEW005 SCT020 OVC060 21/21 A3000 NOSIG=
201807050200 METAR MROC 050200Z 03003KT 340V070 9999 VCTS NSC 21/20 A2998 RERA NOSIG=
201807050300 METAR MROC 050300Z 07007KT 030V110 CAVOK 21/19 A2998 NOSIG=
201807050400 METAR MROC 050400Z COR 07007KT 070V130 9999 FEW030 21/19 A2999 NOSIG=
201807050500 METAR MROC 050500Z 36005KT 360V040 9999 FEW025 BKN060 21/19 A3000 NOSIG=
201807050600 METAR MROC 050600Z VRB02KT 9999 FEW030 20/19 A2998 NOSIG=
201807050700 METAR MROC 050700Z 30003KT 260V030 9999 FEW030 20/18 A2995 NOSIG=
201807050800 METAR MROC 050800Z 06006KT CAVOK 20/18 A2994 NOSIG=
201807050900 METAR MROC 050900Z 06005KT 340V120 CAVOK 21/17 A2992 NOSIG=
201807051000 METAR MROC 051000Z 04006KT 010V070 CAVOK 21/18 A2994 NOSIG=
201807051100 METAR MROC 051100Z 06004KT 030V090 CAVOK 20/18 A2994 NOSIG=
201807051200 METAR MROC 051200Z 05006KT 020V080 9999 BKN045 21/18 A2997 NOSIG=
201807051300 METAR MROC 051300Z 07003KT 040V100 CAVOK 22/19 A2998 NOSIG=
201807051400 METAR MROC 051400Z 04007KT 360V080 CAVOK 25/18 A2998 NOSIG=
201807051500 METAR MROC 051500Z 11006KT 070V160 9999 BKN040 26/19 A3000 NOSIG=
201807051600 METAR MROC 051600Z VRB05KT 9999 FEW035 BKN090 26/20 A2999 BECMG 24006KT=
201807051700 METAR MROC 051700Z 08003KT 030V130 9999 FEW035 SCT100 27/19 A2997 NOSIG=
201807051800 METAR MROC 051800Z 23010KT 220V280 9999 SCT030 SCT050 27/21 A2995 NOSIG=
201807051900 METAR MROC 051900Z 25011KT 220V280 9999 VCTS SCT020CB SCT060 25/22 A2995 NOSIG=
201807052000 METAR MROC 052000Z 27009KT 9999 TSRA SCT015CB BKN030 24/21 A2993 NOSIG=
201807052100 METAR MROC 052100Z 12004KT 080V170 9999 2000SW -TSRA FEW010CB BKN030 22/21 A2993 NOSIG=
201807052200 METAR MROC 052200Z 23005KT 8000 VCFG FEW003 SCT030 BKN100 22/22 A2993 RETSRA NOSIG=
201807052300 METAR MROC 052300Z 23004KT 210V270 3000 BR FEW002 SCT020 BKN040 22/21 A2994 NOSIG=
201807060000 METAR MROC 060000Z VRB03KT 8000 VCFG FEW002 SCT030 BKN100 22/21 A2995 NOSIG=
201807060100 METAR MROC 060100Z 28003KT 8000 VCFG FEW005 BKN060 22/21 A2997 NOSIG=
201807060200 METAR MROC 060200Z 13006KT CAVOK 22/18 A2998 NOSIG=
201807060300 METAR MROC 060300Z 09009KT 030V130 CAVOK 22/18 A2998 NOSIG=
201807060400 METAR MROC 060400Z 07005KT 360V110 CAVOK 22/17 A2999 NOSIG=
201807060500 METAR MROC 060500Z 08006KT 050V110 CAVOK 21/18 A2999 NOSIG=
201807060600 METAR MROC 060600Z VRB02KT CAVOK 22/17 A2998 NOSIG=
201807060700 METAR MROC 060700Z 06008KT 030V090 CAVOK 22/17 A2994 NOSIG=
201807060800 METAR MROC 060800Z VRB02KT CAVOK 21/17 A2995 NOSIG=
201807060900 METAR MROC 060900Z 06008KT 030V100 CAVOK 21/17 A2995 NOSIG=
201807061000 METAR MROC 061000Z 13006KT 090V170 CAVOK 22/18 A2995 NOSIG=
201807061100 METAR MROC 061100Z 03006KT CAVOK 22/18 A2997 NOSIG=
201807061200 METAR MROC 061200Z 07004KT 350V120 9999 FEW035 SCT050 BKN200 22/18 A3000 NOSIG=
201807061300 METAR MROC 061300Z 31005KT 9999 FEW040 BKN070 22/19 A3000 NOSIG=
201807061400 METAR MROC 061400Z 10003KT 040V120 9999 FEW040 BKN070 24/19 A3001 NOSIG=
201807061500 METAR MROC 061500Z 11008KT 090V150 9999 -RA FEW040 BKN100 22/19 A2998 NOSIG=
201807061600 METAR MROC 061600Z 11005KT 070V150 CAVOK 23/19 A2996 NOSIG=
201807061700 METAR MROC 061700Z 07007KT 040V120 CAVOK 25/18 A2999 NOSIG=
201807061800 METAR MROC 061800Z 11010KT 080V160 9999 FEW040 SCT140 27/18 A2998 NOSIG=
201807061900 METAR MROC 061900Z 15005KT 090V220 9999 FEW040 SCT200 28/18 A2996 NOSIG=
201807062000 METAR MROC 062000Z 28009KT 250V230 9999 SCT030 BKN100 26/20 A2995 NOSIG=
201807062100 METAR MROC 062100Z 21007KT 9999 SCT030 BKN110 26/21 A2994 NOSIG=
201807062200 METAR MROC 062200Z 24011KT 9999 SCT025 BKN100 24/21 A2993 NOSIG=
201807062300 METAR MROC 062300Z 22005KT 190V250 9999 -RA SCT025 OVC100 22/20 A2997 NOSIG=
201807070000 METAR MROC 070000Z VRB03KT 9999 FEW030 BKN100 22/20 A2998 NOSIG=
201807070100 METAR MROC 070100Z 32003KT 9999 FEW030 BKN100 21/21 A3000 NOSIG=
201807070200 METAR MROC 070200Z VRB02KT CAVOK 21/20 A3001 NOSIG=
201807070300 METAR MROC 070300Z 09006KT CAVOK 21/17 A3002 NOSIG=
201807070400 METAR MROC 070400Z 11010KT 080V140 CAVOK 22/17 A3000 NOSIG=
201807070500 METAR MROC 070500Z 12010G20KT 080V140 CAVOK 22/17 A2998 NOSIG=
201807070600 METAR MROC 070600Z 10011KT 070V130 CAVOK 22/17 A2996 NOSIG=
201807070700 METAR MROC 070700Z 11013G23KT 9999 FEW040 22/17 A2994 NOSIG=
201807070800 METAR MROC 070800Z 11015KT 9999 FEW040 22/17 A2993 NOSIG=
201807070900 METAR MROC 070900Z 11012G22KT 9999 FEW040 SCT150 22/18 A2993 NOSIG=
201807071000 METAR MROC 071000Z 07009KT CAVOK 22/18 A2994 NOSIG=
201807071100 METAR MROC 071100Z 07009KT CAVOK 21/18 A2996 NOSIG=
201807071200 METAR MROC 071200Z 11014KT 9999 FEW035 SCT100 SCT200 22/18 A2997 NOSIG=
201807071300 METAR MROC 071300Z 11012KT 080V140 9999 FEW030 BKN250 22/18 A2998 NOSIG=
201807071400 METAR MROC 071400Z 11015KT 070V130 CAVOK 23/18 A2999 NOSIG=
201807071500 METAR MROC 071500Z 11014G24KT 9999 FEW030 SCT250 25/18 A3000 NOSIG=
201807071600 METAR MROC 071600Z 12014KT 9999 FEW030 SCT100 25/18 A3000 NOSIG=
201807071700 METAR MROC 071700Z 11013KT 080V140 9999 SCT030 SCT100 26/18 A3000 NOSIG=
201807071800 METAR MROC 071800Z 11011KT 080V140 9999 SCT030 BKN100 24/17 A3000 NOSIG=
201807071900 METAR MROC 071900Z 11014KT 9999 -RA FEW030 OVC100 23/17 A3000 NOSIG=
201807072000 METAR MROC 072000Z 12010KT 090V150 9999 -RA VCTS SCT030 OVC100 24/18 A2999 NOSIG=
201807072100 METAR MROC 072100Z 11012G22KT 080V150 9999 FEW030 BKN130 24/16 A2998 NOSIG=
201807072200 METAR MROC 072200Z 11015G25KT 080V140 9999 FEW035 SCT130 BKN220 24/16 A2996 NOSIG=
201807072300 METAR MROC 072300Z 11014G24KT 9999 FEW040 BKN140 23/16 A2997 NOSIG=
201807080000 METAR MROC 080000Z 11014G24KT 9999 FEW045 BKN140 23/16 A2997 NOSIG=
201807080100 METAR MROC 080100Z 10016G26KT 080V140 9999 FEW045 SCT140 22/17 A2998 NOSIG=
201807080200 METAR MROC 080200Z 11014G24KT CAVOK 22/16 A2998 WS R07 NOSIG=
201807080300 METAR MROC 080300Z 10018G28KT 070V130 CAVOK 22/16 A3000 WS R07 NOSIG=
201807080400 METAR MROC 080400Z 10016KT CAVOK 22/17 A2999 NOSIG=
201807080500 METAR MROC 080500Z 10015G25KT CAVOK 21/17 A2999 NOSIG=
201807080600 METAR MROC 080600Z 11015G25KT CAVOK 22/17 A2997 NOSIG=
201807080700 METAR MROC 080700Z 10012KT CAVOK 21/17 A2996 NOSIG=
201807080800 METAR MROC 080800Z 10017G27KT CAVOK 22/17 A2995 NOSIG=
201807080900 METAR MROC 080900Z 06006KT 350V120 CAVOK 21/17 A2995 NOSIG=
201807081000 METAR MROC 081000Z 08008KT 040V140 CAVOK 21/17 A2995 NOSIG=
201807081100 METAR MROC 081100Z 12012KT CAVOK 21/17 A2995 NOSIG=
201807081200 METAR MROC 081200Z 07003KT 360V160 9999 FEW040 BKN200 21/17 A2998 NOSIG=
201807081300 METAR MROC 081300Z 12011KT 090V160 9999 FEW030 BKN160 22/17 A3000 NOSIG=
201807081400 METAR MROC 081400Z 12012G22KT 090V150 9999 FEW030 BKN160 24/18 A3001 NOSIG=
201807081500 METAR MROC 081500Z 11015G25KT 080V140 9999 FEW025 BKN200 25/19 A3001 NOSIG=
201807081600 METAR MROC 081600Z 10014G24KT 9999 FEW030 BKN200 26/18 A3001 NOSIG=
201807081700 METAR MROC 081700Z 09019G30KT 9999 FEW030 BKN180 27/18 A2999 NOSIG=
201807081800 METAR MROC 081800Z 09016G26KT 060V120 9999 FEW030 BKN160 27/18 A2998 NOSIG=
201807081900 METAR MROC 081900Z 10015G25KT 070V130 9999 FEW030 BKN160 28/18 A2996 NOSIG=
201807082000 METAR MROC 082000Z 09016G27KT 9999 FEW030 BKN200 27/17 A2995 NOSIG=
201807082100 METAR MROC 082100Z 09013G23KT 9999 FEW030 SCT060 BKN250 26/17 A2994 NOSIG=
201807082200 METAR MROC 082200Z 11012G22KT 070V130 9999 FEW035 SCT060 BKN250 26/16 A2993 NOSIG=
201807082300 METAR MROC 082300Z 08012KT 050V120 9999 FEW035 SCT250 26/16 A2995 NOSIG=
201807090000 METAR MROC 090000Z 08010G20KT 9999 FEW040 SCT250 25/16 A2997 NOSIG=
201807090100 METAR MROC 090100Z 09010G20KT 070V130 9999 FEW035 23/17 A3000 NOSIG=
201807090200 METAR MROC 090200Z 09010G20KT 9999 FEW035 23/17 A3000 NOSIG=
201807090300 METAR MROC 090300Z 08010G20KT 050V110 9999 FEW035 23/17 A3002 NOSIG=
201807090400 METAR MROC 090400Z 09011KT 040V120 CAVOK 22/17 A3002 NOSIG=
201807090500 METAR MROC 090500Z 11012KT CAVOK 23/16 A3002 NOSIG=
201807090600 METAR MROC 090600Z 12009KT 090V150 CAVOK 22/16 A3001 NOSIG=
201807090700 METAR MROC 090700Z 12011KT 080V150 CAVOK 22/17 A2999 NOSIG=
201807090800 METAR MROC 090800Z 11011KT CAVOK 21/26 A2997 NOSIG=
201807090900 METAR MROC 090900Z 09009KT 040V130 CAVOK 21/17 A2996 NOSIG=
201807091000 METAR MROC 091000Z 06008KT 020V090 CAVOK 21/16 A2996 NOSIG=
201807091100 METAR MROC 091100Z 06006KT 010V100 CAVOK 21/15 A2997 NOSIG=
201807091200 METAR MROC 091200Z 07007KT CAVOK 21/16 A2999 NOSIG=
201807091300 METAR MROC 091300Z 10010G20KT 050V130 CAVOK 23/17 A3001 NOSIG=
201807091400 METAR MROC 091400Z 10011G21KT CAVOK 24/17 A3003 NOSIG=
201807091500 METAR MROC 091500Z 10010G20KT 080V140 CAVOK 26/18 A3002 NOSIG=
201807091600 METAR MROC 091600Z 10015G26KT 9999 FEW045 SCT200 27/19 A3003 NOSIG=
201807091700 METAR MROC 091700Z 10010G20KT 9999 FEW040 SCT200 26/18 A3003 NOSIG=
201807091800 METAR MROC 091800Z 09010G20KT 9999 FEW035 SCT060 27/18 A3002 NOSIG=
201807091900 METAR MROC 091900Z 09012KT 060V130 9999 FEW035 SCT080 BKN200 26/18 A3000 NOSIG=
201807092000 METAR MROC 092000Z 07010G20KT 9999 FEW035 SCT080 BKN200 27/17 A2998 NOSIG=
201807092100 METAR MROC 092100Z 06011KT 9999 FEW040 BKN100 28/17 A2996 NOSIG=
201807092200 METAR MROC 092200Z 09006G16KT 050V140 9999 FEW035 BKN100 27/17 A2996 NOSIG=
201807092300 METAR MROC 092300Z 11007KT 090V150 9999 FEW025 BKN100 26/18 A2998 NOSIG=
201807100000 METAR MROC 100000Z 10007KT 070V130 9999 TS FEW020CB SCT040 SCT200 24/18 A2999 NOSIG=
201807100100 METAR MROC 100100Z 11007KT CAVOK 24/18 A3001 RETS NOSIG=
201807100200 METAR MROC 100200Z 07006KT 020V150 9999 VCTS FEW025 23/18 A3002 NOSIG=
201807100300 METAR MROC 100300Z 09007KT 070V130 9999 FEW020 22/18 A3002 NOSIG=
201807100400 METAR MROC 100400Z 04006KT 320V100 9999 FEW030 22/19 A3003 NOSIG=
201807100500 METAR MROC 100500Z 07008KT 030V130 9999 FEW035 22/17 A3003 NOSIG=
201807100600 METAR MROC 100600Z 11014G24KT 9999 FEW035 22/17 A3001 NOSIG=
201807100700 METAR MROC 100700Z 08008KT 030V120 9999 FEW040 22/17 A2998 NOSIG=
201807100800 METAR MROC 100800Z VRB06KT 9999 FEW040 SCT120 22/17 A2997 NOSIG=
201807100900 METAR MROC 100900Z 09011KT 060V120 9999 FEW040 SCT120 22/17 A2994 NOSIG=
201807101000 METAR MROC 101000Z 10015G25KT CAVOK 22/17 A2994 NOSIG=
201807101100 METAR MROC 101100Z 10017G27KT CAVOK 22/17 A2996 NOSIG=
201807101200 METAR MROC 101200Z 11014G24KT 080V140 9999 RA FEW040 SCT080 BKN140 22/17 A2998 NOSIG=
201807101300 METAR MROC 101300Z 10012G25KT 020V140 9999 FEW030 BKN130 22/17 A2999 RERA NOSIG=
201807101400 METAR MROC 101400Z 11015G27KT 090V150 9999 FEW030 OVC150 23/17 A2999 NOSIG=
201807101500 METAR MROC 101500Z 12012G22KT 090V160 9999 SCT030 OVC100 24/18 A3004 NOSIG=
201807101600 METAR MROC 101600Z 12006KT 080V160 9999 -RA VCSH FEW020 SCT060 BKN100 22/19 A3004 NOSIG=
201807101700 METAR MROC 101700Z 11010G20KT 9999 -RA VCSH NSC 22/18 A3004 NOSIG=
201807101800 METAR MROC 101800Z 11010G20KT 090V150 9999 -RA FEW020 SCT090 OVC200 24/18 A3001 NOSIG=
201807101900 METAR MROC 101900Z 11013G23KT 9999 FEW035 SCT150 BKN200 25/19 A2999 NOSIG=
201807102000 METAR MROC 102000Z 09011G21KT CAVOK 28/17 A2996 NOSIG=
201807102100 METAR MROC 102100Z 08013KT 050V120 FEW040 BKN200 27/15 A2994 NOSIG=
201807102200 METAR MROC 102200Z 11009KT 070V160 9999 FEW040 SCT070 BKN200 26/15 A2996 NOSIG=
201807102300 METAR MROC 102300Z 11010KT 070V140 CAVOK 25/18 A2996 NOSIG=
201807110000 METAR MROC 110000Z 11006KT CAVOK 24/16 A2999 NOSIG=
201807110100 METAR MROC 110100Z 05007KT CAVOK 24/16 A3001 NOSIG=
201807110200 METAR MROC 110200Z 06007KT CAVOK 23/17 A3001 NOSIG=
201807110300 METAR MROC 110300Z 09012KT CAVOK 23/18 A3001 NOSIG=
201807110400 METAR MROC 110400Z 09010G20KT 080V140 CAVOK 22/18 A3000 NOSIG=
201807110500 METAR MROC 110500Z 12010G20KT 100V140 CAVOK 22/17 A3001 NOSIG=
201807110600 METAR MROC 110600Z 07005KT 030V120 9999 FEW035 SCT120 22/16 A3000 NOSIG=
201807110700 METAR MROC 110700Z 10010G20KT 060V130 9999 FEW035 22/17 A2997 NOSIG=
201807110800 METAR MROC 110800Z 07010KT 030V100 9999 FEW035 SCT150 22/16 A2997 NOSIG=
201807110900 METAR MROC 110900Z 08010G20KT 050V120 CAVOK 22/17 A2996 NOSIG=
201807111000 METAR MROC 111000Z 09009KT 070V140 CAVOK 21/17 A2996 NOSIG=
201807111100 METAR MROC 111100Z 09004KT 030V160 CAVOK 22/17 A2997 NOSIG=
201807111200 METAR MROC 111200Z 06010KT CAVOK 22/17 A2997 NOSIG=
201807111300 METAR MROC 111300Z 08004KT 040V100 9999 VCSH FEW030 BKN070 22/17 A3000 NOSIG=
201807111400 METAR MROC 111400Z VRB02KT 9999 -RA FEW030 BKN070 20/18 A3003 NOSIG=
201807111500 METAR MROC 111500Z 36006KT 330V040 9999 FEW040 SCT120 BKN250 22/19 A3003 NOSIG=
201807111600 METAR MROC 111600Z VRB06KT 9999 FEW040 SCT120 BKN250 24/19 A3003 BECMG 24006KT=
201807111700 METAR MROC 111700Z 11008KT 080V150 9999 FEW040 BKN150 25/19 A3002 NOSIG=
201807111800 METAR MROC 111800Z 12008KT 070V160 9999 BKN120 24/18 A3000 NOSIG=
201807111900 METAR MROC 111900Z 12007KT 080V160 9999 FEW040 BKN100 23/19 A3000 NOSIG=
201807112000 METAR MROC 112000Z 08004KT 030V110 CAVOK 25/18 A3000 NOSIG=
201807112100 METAR MROC 112100Z 24007KT 9999 -RA OVC100 23/20 A2998 NOSIG=
201807112200 METAR MROC 112200Z 27003KT 210V340 9999 -RA NSC 23/21 A2995 NOSIG=
201807112300 METAR MROC 112300Z VRB02KT CAVOK 23/20 A2995 NOSIG=
201807120000 METAR MROC 120000Z 09006KT 050V110 CAVOK 23/18 A2993 NOSIG=
201807120100 METAR MROC 120100Z 11009KT 080V150 CAVOK 23/17 A2994 NOSIG=
201807120200 METAR MROC 120200Z 11011KT 090V150 CAVOK 23/16 A2996 NOSIG=
201807120300 METAR MROC 120300Z 12010KT CAVOK 23/16 A2998 NOSIG=
201807120400 METAR MROC 120400Z 12011G21KT CAVOK 22/16 A3000 NOSIG=
201807120500 METAR MROC 120500Z 11012KT CAVOK 22/16 A3001 NOSIG=
201807120600 METAR MROC 120600Z 12010KT 080V150 CAVOK 22/17 A3000 NOSIG=
201807120700 METAR MROC 120700Z 12010KT 100V170 CAVOK 22/17 A2999 NOSIG=
201807120800 METAR MROC 120800Z 10007KT 040V160 CAVOK 22/17 A2997 NOSIG=
201807120900 METAR MROC 120900Z 08007KT 060V120 CAVOK 20/16 A2995 NOSIG=
201807121000 METAR MROC 121000Z 12007KT 090V170 CAVOK 21/17 A2996 NOSIG=
201807121100 METAR MROC 121100Z 36003KT 320V020 9999 FEW045 19/16 A2997 NOSIG=
201807121200 METAR MROC 121200Z 02003KT 340V080 9999 FEW040 19/17 A2999 NOSIG=
201807121300 METAR MROC 121300Z VRB01KT CAVOK 22/17 A3001 NOSIG=
201807121400 METAR MROC 121400Z 26004KT 220V310 CAVOK 23/18 A3002 NOSIG=
201807121500 METAR MROC 121500Z VRB02KT CAVOK 25/19 A3001 NOSIG=
201807121600 METAR MROC 121600Z 11008KT 070V170 CAVOK 28/18 A3000 NOSIG=
201807121700 METAR MROC 121700Z 16006KT 080V200 9999 SCT040 28/18 A3000 NOSIG=
201807121800 METAR MROC 121800Z 25011KT 9999 SCT035 26/21 A2998 NOSIG=
201807121900 METAR MROC 121900Z 25009KT 210V280 9999 SCT030 26/21 A2998 NOSIG=
201807122000 METAR MROC 122000Z 24010KT 9999 FEW025 SCT035 26/21 A2996 NOSIG=
201807122100 METAR MROC 122100Z 25008KT 5000 RA BR FEW008 BKN035 23/22 A2996 NOSIG=
201807122200 METAR MROC 122200Z 24003KT 200V300 9999 4500N VCFG FEW005 SCT030 BKN070 23/21 A2996 NOSIG=
201807122300 METAR MROC 122300Z VRB02KT 9999 VCFG FEW007 SCT015 BKN140 23/22 A2997 NOSIG=
201807130000 METAR MROC 130000Z 25004KT 9000 4000N VCFG FEW004 SCT015 BKN140 22/21 A2998 NOSIG=
201807130100 METAR MROC 130100Z 25004KT 4000 1800SW BR SCT002 BKN020 22/21 A3001 BECMG BKN010=
201807130133 METAR MROC 130133Z 25004KT 250V320 1200 R07/0550D BR BKN010 22/21 A3002 NOSIG=
201807130200 METAR MROC 130200Z 27003KT 8000 3500SW BCFG SCT002 SCT030 21/21 A3003 NOSIG=
201807130300 METAR MROC 130300Z 12004KT 080V150 9999 FEW035 21/21 A3003 NOSIG=
201807130400 METAR MROC 130400Z 10008KT CAVOK 22/18 A3004 NOSIG=
201807130500 METAR MROC 130500Z 10012KT CAVOK 22/18 A3003 NOSIG=
201807130600 METAR MROC 130600Z 11010KT 080V140 CAVOK 22/18 A3003 NOSIG=
201807130700 METAR MROC 130700Z VRB02KT CAVOK 21/18 A3001 NOSIG=
201807130800 METAR MROC 130800Z 09006KT 040V120 CAVOK 22/18 A2999 NOSIG=
201807130900 METAR MROC 130900Z 10006KT 050V130 9999 FEW040 BKN100 22/18 A2996 NOSIG=
201807131000 METAR MROC 131000Z 11005KT 070V150 9999 FEW040 SCT100 21/17 A2994 NOSIG=
201807131100 METAR MROC 131100Z 10006KT 040V130 9999 FEW040 22/17 A2995 NOSIG=
201807131200 METAR MROC 131200Z 11010KT 080V150 9999 FEW040 SCT100 22/18 A2998 NOSIG=
201807131300 METAR MROC 131300Z 11008KT 080V140 9999 FEW035 BKN100 22/18 A2999 NOSIG=
201807131400 METAR MROC 131400Z 11014KT 9999 FEW040 BKN160 25/18 A2999 NOSIG=
201807131500 METAR MROC 131500Z 10011KT 080V140 9999 FEW040 SCT150 26/18 A3000 NOSIG=
201807131600 METAR MROC 131600Z 09014G24KT 9999 FEW035 BKN180 27/18 A3000 NOSIG=
201807131700 METAR MROC 131700Z 09012KT 9999 FEW045 SCT160 28/19 A3000 NOSIG=
201807131800 METAR MROC 131800Z 07012KT 9999 SCT040 SCT160 28/19 A2999 NOSIG=
201807131900 METAR MROC 131900Z 07012KT 9999 FEW040 BKN090 26/18 A3000 BECMG RA=
201807132000 METAR MROC 132000Z 07011KT 040V120 9999 FEW035 BKN130 21/18 A2997 NOSIG=
201807132100 METAR MROC 132100Z 09011G21KT 050V110 9999 FEW035 SCT060 BKN200 26/18 A2995 NOSIG=
201807132200 METAR MROC 132200Z 08011G21KT 050V110 9999 FEW030 SCT080 BKN200 25/17 A2996 NOSIG=
201807132300 METAR MROC 132300Z 10007KT 9999 VCSH SCT030 BKN080 24/18 A2997 BECMG RA=
201807140000 METAR MROC 140000Z 10004KT 020V140 9999 SCT030 BKN060 22/19 A2999 BECMG RA=
201807140100 METAR MROC 140100Z 27003KT 200V320 9999 FEW030 SCT080 22/20 A3000 NOSIG=
201807140200 METAR MROC 140200Z 09004KT 9999 -RA FEW035 SCT080 21/19 A3001 NOSIG=
201807140300 METAR MROC 140300Z 09005KT 050V120 9999 FEW035 SCT050 BKN160 22/19 A3003 NOSIG=
201807140333 METAR MROC 140333Z 09010KT 9999 RA FEW035 OVC140 20/19 A3006 NOSIG=
201807140400 METAR MROC 140400Z 09010KT 5000 RA FEW035 OVC100 19/18 A3008 NOSIG=
201807140500 METAR MROC 140500Z 08012KT 8000 +RA FEW030 OVC100 19/18 A3008 NOSIG=
201807140600 METAR MROC 140600Z 12004KT 080V170 9999 -RA NSC 18/17 A3003 NOSIG=
201807140700 METAR MROC 140700Z 08010KT 050V110 8000 RA FEW030 OVC100 19/18 A3005 NOSIG=
201807140800 METAR MROC 140800Z 07006KT 9999 -RA NSC 19/18 A3000 NOSIG=
201807140900 METAR MROC 140900Z 07008KT CAVOK 20/17 A2996 NOSIG=
201807141000 METAR MROC 141000Z VRB05KT 9999 -RA NSC 20/17 A2995 NOSIG=
201807141100 METAR MROC 141100Z 07009KT 030V100 CAVOK 21/18 A2996 NOSIG=
201807141200 METAR MROC 141200Z 11008KT 9999 -RA FEW030 OVC100 20/18 A2999 NOSIG=
201807141300 METAR MROC 141300Z 12007KT 070V150 9999 4000SW -RA FEW015 SCT030 BKN100 20/19 A3002 NOSIG=
201807141400 METAR MROC 141400Z 06008KT 9999 -RA FEW040 SCT090 BKN150 21/19 A3002 NOSIG=
201807141500 METAR MROC 141500Z 10011G21KT 9999 FEW035 SCT100 BKN180 24/19 A3001 NOSIG=
201807141600 METAR MROC 141600Z 10010G20KT 9999 FEW040 SCT100 BKN140 24/19 A2999 NOSIG=
201807141700 METAR MROC 141700Z 09011G23KT 9999 FEW030 SCT070 BKN100 24/18 A3000 BECMG RA=
201807141800 METAR MROC 141800Z 11010G20KT 080V140 9999 FEW040 SCT070 BKN100 23/19 A3001 BECMG RA=
201807141900 METAR MROC 141900Z 13006KT 080V190 9999 FEW035 SCT100 BKN180 24/19 A2999 NOSIG=
201807142000 METAR MROC 142000Z 02004KT 300V060 9999 FEW035 SCT150 BKN200 25/20 A2998 NOSIG=
201807142100 METAR MROC 142100Z 08008KT 9999 FEW035 SCT080 BKN200 26/18 A2996 NOSIG=
201807142200 METAR MROC 142200Z 25009KT 9999 SCT045 SCT100 25/20 A2995 NOSIG=
201807142300 METAR MROC 142300Z 25007KT 230V290 9999 BKN035 24/20 A2998 NOSIG=
201807150000 METAR MROC 150000Z 26007KT 9999 FEW025 SCT140 23/21 A2998 NOSIG=
201807150100 METAR MROC 150100Z VRB02KT 9999 -RA FEW010 BKN100 22/21 A2999 NOSIG=
201807150200 METAR MROC 150200Z VRB02KT 9999 3000SW -RA BCFG NSC 21/21 A3000 NOSIG=
201807150300 METAR MROC 150300Z 08007KT 9000 2500SW RA BCFG FEW001 OVC100 21/19 A3004 NOSIG=
201807150400 METAR MROC 150400Z 08005KT 060V130 9999 RA VCTS NSC 20/19 A3005 NOSIG=
201807150500 METAR MROC 150500Z 08006KT 9999 -DZ NSC 20/18 A3003 RERA NOSIG=
201807150600 METAR MROC 150600Z 10008KT 9999 FEW020 OVC160 21/18 A3001 NOSIG=
201807150700 METAR MROC 150700Z 10006KT 060V140 CAVOK 21/18 A3000 NOSIG=
201807150800 METAR MROC 150800Z 09008KT 9999 -RA NSC 20/18 A2998 NOSIG=
201807150900 METAR MROC 150900Z 08009KT 9999 -RA NSC 20/18 A2996 NOSIG=
201807151000 METAR MROC 151000Z 08013KT CAVOK 21/17 A2995 NOSIG=
201807151100 METAR MROC 151100Z 11011KT CAVOK 21/17 A2994 NOSIG=
201807151200 METAR MROC 151200Z 11010KT CAVOK 22/17 A2997 NOSIG=
201807151300 METAR MROC 151300Z 12008KT 090V170 CAVOK 23/17 A2998 NOSIG=
201807151400 METAR MROC 151400Z 11009KT 090V150 CAVOK 24/18 A2999 NOSIG=
201807151500 METAR MROC 151500Z 10010KT 9999 FEW045 SCT090 BKN200 26/19 A3001 NOSIG=
201807151600 METAR MROC 151600Z 11010KT 070V140 9999 FEW035 SCT180 26/19 A3000 NOSIG=
201807151700 METAR MROC 151700Z 09012KT 9999 SCT035 SCT100 27/19 A2999 NOSIG=
201807151800 METAR MROC 151800Z 08010KT 050V110 9999 SCT030 SCT100 28/19 A2999 NOSIG=
201807151900 METAR MROC 151900Z 10011KT 070V140 9999 SCT035 29/20 A2995 NOSIG=
201807152000 METAR MROC 152000Z 07011G21KT 020V100 CAVOK 28/18 A2994 NOSIG=
201807152100 METAR MROC 152100Z 09009KT 9999 FEW040 BKN080 27/19 A2993 NOSIG=
201807152200 METAR MROC 152200Z 06010KT 9999 FEW040 BKN080 27/18 A2991 NOSIG=
201807152300 METAR MROC 152300Z 10004KT 060V140 9999 FEW040 BKN100 26/19 A2993 NOSIG=
201807160000 METAR MROC 160000Z 12008KT 090V150 9999 FEW040 BKN100 24/18 A2996 NOSIG=
201807160100 METAR MROC 160100Z 10006KT 080V140 8000 RA SCT040 BKN100 23/19 A2999 NOSIG=
201807160200 METAR MROC 160200Z 04008KT 020V080 9999 -RA VCTS FEW030 BKN100 22/19 A3001 NOSIG=
201807160300 METAR MROC 160300Z 11012KT 070V130 CAVOK 22/19 A3000 NOSIG=
201807160400 METAR MROC 160400Z 11015G28KT 9999 -RA FEW035 BKN100 22/18 A3002 NOSIG=
201807160500 METAR MROC 160500Z 09012G22KT 9999 -RA FEW035 BKN100 22/19 A3001 NOSIG=
201807160600 METAR MROC 160600Z 09016G27KT 070V130 CAVOK 22/18 A2998 NOSIG=
201807160700 METAR MROC 160700Z 08010G20KT 050V110 9999 -RA NSC 22/18 A2998 NOSIG=
201807160800 METAR MROC 160800Z 11016G29KT 080V140 CAVOK 22/18 A2993 NOSIG=
201807160900 METAR MROC 160900Z 12010G23KT 090V180 9999 FEW035 SCT200 22/18 A2994 NOSIG=
201807161000 METAR MROC 161000Z 05007KT 330V110 CAVOK 22/18 A2998 NOSIG=
201807161100 METAR MROC 161100Z 11010KT 080V150 CAVOK 22/18 A2999 NOSIG=
201807161200 METAR MROC 161200Z 13005KT 090V170 9999 FEW035 SCT050 BKN120 21/19 A2999 NOSIG=
201807161300 METAR MROC 161300Z 12007KT 080V150 9999 -RA FEW030 OVC100 21/19 A3002 NOSIG=
201807161400 METAR MROC 161400Z 10009KT 9999 SCT030 BKN100 22/19 A3002 NOSIG=
201807161500 METAR MROC 161500Z 09017KT 9999 FEW030 BKN120 23/17 A3000 NOSIG=
201807161600 METAR MROC 161600Z 09014KT 9999 FEW030 BKN120 25/17 A3001 NOSIG=
201807161700 METAR MROC 161700Z 13010G21KT 9999 FEW040 SCT120 BKN250 26/17 A3003 NOSIG=
201807161800 METAR MROC 161800Z 08009KT 020V120 9999 FEW040 SCT120 BKN250 26/17 A3003 NOSIG=
201807161900 METAR MROC 161900Z 07013G25KT 050V110 9999 FEW040 SCT120 BKN250 26/17 A3002 NOSIG=
201807162000 METAR MROC 162000Z 08005KT 040V150 9999 FEW040 BKN200 27/17 A2999 NOSIG=
201807162100 METAR MROC 162100Z 09009KT 070V130 9999 FEW035 BKN200 27/17 A2999 NOSIG=
201807162200 METAR MROC 162200Z 08008KT 060V120 FEW040 BKN200 26/18 A2999 NOSIG=
201807162300 METAR MROC 162300Z 10006KT 050V170 CAVOK 25/17 A3002 NOSIG=
201807170000 METAR MROC 170000Z 09006KT 9999 -RA NSC 22/17 A3005 NOSIG=
201807170100 METAR MROC 170100Z 07008KT 040V100 9999 -RA NSC 22/18 A3002 NOSIG=
201807170200 METAR MROC 170200Z 07010KT 050V110 9999 -RA NSC 21/17 A3002 NOSIG=
201807170300 METAR MROC 170300Z 10009KT 050V140 CAVOK 21/17 A3004 NOSIG=
201807170400 METAR MROC 170400Z 12010G20KT 090V160 CAVOK 22/16 A3007 NOSIG=
201807170500 METAR MROC 170500Z 11010KT 070V140 CAVOK 22/16 A3004 NOSIG=
201807170600 METAR MROC 170600Z 11008KT 060V170 CAVOK 22/16 A3003 NOSIG=
201807170700 METAR MROC 170700Z 12010KT 090V170 CAVOK 22/17 A3002 NOSIG=
201807170800 METAR MROC 170800Z 11011KT 9999 FEW040 23/17 A3002 NOSIG=
201807170900 METAR MROC 170900Z 13007KT 080V180 9999 VCTS NSC 22/17 A3001 NOSIG=
201807171000 METAR MROC 171000Z 12011KT 9999 FEW020 22/17 A3001 NOSIG=
201807171100 METAR MROC 171100Z 10011KT 070V130 9999 FEW020 22/18 A3000 NOSIG=
201807171200 METAR MROC 171200Z 11012KT 080V140 9999 VCTS FEW035 21/18 A3003 NOSIG=
201807171300 METAR MROC 171300Z 11011KT 080V140 CAVOK 23/18 A3005 NOSIG=
201807171400 METAR MROC 171400Z 10008KT 070V150 9999 FEW035 SCT250 25/19 A3007 NOSIG=
201807171500 METAR MROC 171500Z 13007KT 080V180 9999 FEW035 SCT250 26/19 A3008 NOSIG=
201807171600 METAR MROC 171600Z 12008KT 080V150 9999 SCT035 25/19 A3008 NOSIG=
201807171700 METAR MROC 171700Z 10009KT 060V170 9999 SCT035 SCT250 27/18 A3007 NOSIG=
201807171800 METAR MROC 171800Z 11008KT 060V160 9999 FEW035 SCT120 28/18 A3005 NOSIG=
201807171900 METAR MROC 171900Z 11008KT 060V170 9999 SCT035 SCT120 28/18 A3003 NOSIG=
201807172000 METAR MROC 172000Z 11010KT 9999 FEW040 27/19 A3001 NOSIG=
201807172100 METAR MROC 172100Z COR 09011KT 060V120 9999 FEW045 SCT080 BKN200 28/17 A3000 NOSIG=
201807172200 METAR MROC 172200Z 09012KT 9999 FEW045 BKN200 26/17 A2999 NOSIG=
201807172300 METAR MROC 172300Z 08012KT 9999 SCT045 SCT130 26/17 A3000 NOSIG=
201807180000 METAR MROC 180000Z 12007KT 080V160 9999 FEW045 24/18 A3003 NOSIG=
201807180100 METAR MROC 180100Z 11009KT 080V140 9999 SCT030 23/18 A3003 NOSIG=
201807180200 METAR MROC 180200Z 10007KT 080V140 9999 FEW030 SCT100 23/18 A3004 NOSIG=
201807180300 METAR MROC 180300Z 10010KT 9999 FEW030 23/18 A3004 NOSIG=
201807180400 METAR MROC 180400Z 12008KT 090V150 9999 FEW040 SCT140 23/18 A3004 NOSIG=
201807180500 METAR MROC 180500Z 10011KT 090V150 9999 FEW040 SCT140 23/18 A3003 NOSIG=
201807180600 METAR MROC 180600Z 11010KT 080V140 CAVOK 23/18 A3003 NOSIG=
201807180700 METAR MROC 180700Z 11010KT 070V150 CAVOK 23/18 A3000 NOSIG=
201807180800 METAR MROC 180800Z 10006KT 060V150 CAVOK 22/18 A2999 NOSIG=
201807180900 METAR MROC 180900Z 11013KT CAVOK 22/19 A2998 NOSIG=
201807181000 METAR MROC 181000Z 11014KT 080V140 CAVOK 22/18 A2999 NOSIG=
201807181100 METAR MROC 181100Z 10016KT CAVOK 22/18 A3000 NOSIG=
201807181200 METAR MROC 181200Z 10013KT 070V140 CAVOK 23/18 A2999 NOSIG=
201807181300 MROC 181300Z 11015KT 9999 FEW030 SCT120 BKN250 23/18 A3001 NOSIG=
201807181400 METAR MROC 181400Z 11014KT 080V140 9999 FEW040 BKN200 23/18 A3002 NOSIG=
201807181500 METAR MROC 181500Z 11014KT CAVOK 24/18 A3001 NOSIG=
201807181600 METAR MROC 181600Z 12011KT 080V160 9999 FEW045 BKN120 25/18 A3001 NOSIG=
201807181700 METAR MROC 181700Z 08017G28KT 9999 FEW045 SCT180 28/18 A3000 NOSIG=
201807181800 METAR MROC 181800Z 09011KT 060V120 9999 FEW045 29/19 A2998 NOSIG=
201807181900 METAR MROC 181900Z 10011G21KT 070V130 9999 FEW045 SCT100 27/18 A2997 NOSIG=
201807182000 METAR MROC 182000Z 09012KT 9999 FEW010TCU SCT045 BKN100 27/18 A2996 NOSIG=
201807182100 METAR MROC 182100Z 10012KT 9999 FEW030 SCT060 BKN100 27/18 A2995 NOSIG=
201807182200 METAR MROC 182200Z 08007KT 020V110 9999 VCSH FEW030 SCT060 BKN100 26/18 A2995 NOSIG=
201807182300 METAR MROC 182300Z 33006KT 9999 4000W -RA FEW030 SCT060 BKN160 24/21 A2996 NOSIG=
201807190000 METAR MROC 190000Z 19004KT 090V220 8000 3000N RA VCFG SCT010 BKN100 22/21 A3000 NOSIG=
201807190100 METAR MROC 190100Z 07005KT 9999 RA NSC 21/19 A3001 NOSIG=
201807190200 METAR MROC 190200Z 04006KT CAVOK 21/19 A3002 RERA NOSIG=
201807190300 METAR MROC 190300Z VRB02KT CAVOK 21/19 A3004 NOSIG=
201807190400 METAR MROC 190400Z 08005KT CAVOK 20/18 A3005 NOSIG=
201807190500 METAR MROC 190500Z 08003KT 040V120 CAVOK 20/18 A3003 NOSIG=
201807190600 METAR MROC 190600Z 08007KT CAVOK 21/18 A2999 NOSIG=
201807190700 METAR MROC 190700Z 09010KT CAVOK 22/18 A2994 NOSIG=
201807190800 METAR MROC 190800Z 10013KT CAVOK 22/18 A2999 NOSIG=
201807190900 METAR MROC 190900Z 10015KT CAVOK 22/18 A2992 NOSIG=
201807191000 METAR MROC 191000Z 10013KT CAVOK 22/18 A2992 NOSIG=
201807191100 METAR MROC 191100Z 09010KT 060V120 CAVOK 22/17 A2993 NOSIG=
201807191200 METAR MROC 191200Z 09011KT 9999 FEW030 SCT120 22/16 A2995 NOSIG=
201807191300 METAR MROC 191300Z 12010G20KT 090V150 9999 FEW035 BKN120 23/17 A2998 NOSIG=
201807191400 METAR MROC 191400Z 11010G20KT 9999 FEW040 SCT120 23/18 A3000 NOSIG=
201807191500 METAR MROC 191500Z 10010G20KT 9999 FEW040 SCT200 25/17 A3000 NOSIG=
201807191600 METAR MROC 191600Z 08015G29KT 9999 FEW040 SCT200 27/17 A3001 NOSIG=
201807191700 METAR MROC 191700Z 07017G28KT CAVOK 28/18 A3000 NOSIG=
201807191800 METAR MROC 191800Z 07015G30KT 9999 FEW040 SCT200 28/16 A2999 NOSIG=
201807191900 METAR MROC 191900Z 06023G33KT 9999 FEW040 BKN200 29/16 A2996 NOSIG=
201807192000 METAR MROC 192000Z 07019G32KT 040V100 9999 FEW040 BKN200 29/17 A2993 NOSIG=
201807192100 METAR MROC 192100Z 07020G30KT CAVOK 28/17 A2992 NOSIG=
201807192200 METAR MROC 192200Z 08014G24KT 050V110 CAVOK 26/16 A2992 NOSIG=
201807192300 METAR MROC 192300Z 08013G23KT 050V110 CAVOK 25/16 A2994 NOSIG=
201807200000 METAR MROC 200000Z 09011KT 9999 FEW045 SCT250 24/16 A2996 NOSIG=
201807200100 METAR MROC 200100Z 11006KT 080V150 CAVOK 23/18 A2997 NOSIG=
201807200200 METAR MROC 200200Z 09008KT 070V130 9999 FEW035 SCT100 23/18 A2998 NOSIG=
201807200300 METAR MROC 200300Z 09010KT CAVOK 23/18 A2998 NOSIG=
201807200400 METAR MROC 200400Z 09007KT 060V120 9999 FEW030 BKN045 22/18 A3000 NOSIG=
201807200500 METAR MROC 200500Z 09006KT 050V140 9999 FEW045 22/18 A2999 NOSIG=
201807200600 METAR MROC 200600Z 03005KT 050V140 9999 FEW020 22/18 A2998 NOSIG=
201807200700 METAR MROC 200700Z 11010G22KT 9999 FEW025 22/17 A2996 NOSIG=
201807200800 METAR MROC 200800Z 11007KT 070V140 9999 FEW030 BKN120 22/17 A2995 NOSIG=
201807200900 METAR MROC 200900Z 10009KT 070V150 9999 FEW035 22/17 A2995 NOSIG=
201807201000 METAR MROC 201000Z 09008KT 060V120 9999 -RA FEW035 SCT070 22/17 A2995 NOSIG=
201807201100 METAR MROC 201100Z 08009KT 050V130 9999 FEW040 BKN120 22/17 A2995 NOSIG=
201807201200 METAR MROC 201200Z 08011KT 050V110 9999 BKN045 22/17 A2996 NOSIG=
201807201300 METAR MROC 201300Z 10010G20KT 9999 FEW035 SCT100 OVC220 23/18 A2996 NOSIG=
201807201400 METAR MROC 201400Z 11011G21KT 070V130 9999 FEW035 BKN130 23/17 A2998 NOSIG=
201807201500 METAR MROC 201500Z 10013KT 9999 -RA FEW035 BKN090 22/18 A3000 NOSIG=
201807201600 METAR MROC 201600Z 08014G24KT 050V110 9999 FEW040 BKN130 25/17 A3000 NOSIG=
201807201700 METAR MROC 201700Z 09009KT 9999 -RA FEW035 SCT070 OVC110 24/17 A3000 NOSIG=
201807201800 METAR MROC 201800Z 11009KT 080V140 9999 -RA FEW025 BKN130 25/17 A2998 NOSIG=
201807201900 METAR MROC 201900Z 11013G23KT CAVOK 25/17 A2995 NOSIG=
201807202000 METAR MROC 202000Z 11011G22KT 080V150 9999 -RA FEW040 BKN120 24/17 A2995 NOSIG=
201807202100 METAR MROC 202100Z 110009KT 060V160 9999 FEW030 BKN120 25/18 A2993 NOSIG=
201807202200 METAR MROC 202200Z VRB05KT 9999 FEW030 BKN120 26/18 A2993 NOSIG=
201807202300 METAR MROC 202300Z 10010KT 9999 FEW030 BKN120 24/18 A2995 NOSIG=
201807210000 METAR MROC 210000Z 12007KT 9999 -RA FEW040 BKN120 21/19 A2996 NOSIG=
201807210100 METAR MROC 210100Z 12006KT 9999 -RA BKN100 21/17 A3000 NOSIG=
201807210200 METAR MROC 210200Z 06007KT 030V090 9999 -RA BKN100 21/18 A3002 NOSIG=
201807210300 METAR MROC 210300Z 10005KT CAVOK 20/18 A3002 NOSIG=
201807210400 METAR MROC 210400Z 09010KT 060V120 CAVOK 21/18 A3001 NOSIG=
201807210500 METAR MROC 210500Z 10010KT 070V130 CAVOK 21/18 A3000 NOSIG=
201807210600 METAR MROC 210600Z VRB02KT 9999 FEW030 21/18 A3001 NOSIG=
201807210700 METAR MROC 210700Z 04006KT 360V090 CAVOK 21/18 A2997 NOSIG=
201807210800 METAR MROC 210800Z 03006KT 360V070 CAVOK 21/18 A2992 NOSIG=
201807210900 METAR MROC 210900Z 07012KT 040V100 CAVOK 22/16 A2991 NOSIG=
201807211000 METAR MROC 211000Z 13010G20KT 100V160 CAVOK 23/16 A2992 NOSIG=
201807211100 METAR MROC 211100Z 07010G20KT 350V160 9999 FEW035 BKN120 22/17 A2995 NOSIG=
201807211200 METAR MROC 211200Z 12010G20KT 9999 FEW035 BKN120 22/18 A2994 NOSIG=
201807211300 METAR MROC 211300Z 11013G23KT 080V140 9999 FEW030 SCT120 23/18 A2996 NOSIG=
201807211400 METAR MROC 211400Z 11015KT 9999 FEW030 BKN140 23/18 A2997 NOSIG=
201807211500 METAR MROC 211500Z 12012KT 090V150 9999 FEW030 BKN140 24/19 A3000 NOSIG=
201807211600 METAR MROC 211600Z 11012KT 9999 SCT030 BKN100 25/19 A3001 NOSIG=
201807211700 METAR MROC 211700Z 11006KT 080V140 9999 FEW040 BKN100 25/19 A3000 NOSIG=
201807211800 METAR MROC 211800Z 19006KT 140V230 9999 FEW040 BKN120 27/21 A2997 BECMG 24006KT=
201807211900 METAR MROC 211900Z 25009KT 210V280 9999 FEW030 BKN120 27/22 A2995 NOSIG=
201807212000 METAR MROC 212000Z 25006KT 220V310 9999 FEW030 BKN120 26/21 A2992 NOSIG=
201807212100 METAR MROC 212100Z 25006KT 210V280 9999 -RA VCTS SCT030 BKN100 26/21 A2992 NOSIG=
201807212200 METAR MROC 212200Z 11010KT 070V150 9999 -RA VCTS SCT030 OVC100 22/18 A2995 NOSIG=
201807212300 METAR MROC 212300Z 10011KT 9999 -RA FEW030 OVC100 20/17 A2995 NOSIG=
201807220000 METAR MROC 220000Z 08005KT 050V130 9999 -RA NSC 21/17 A2994 NOSIG=
201807220100 METAR MROC 220100Z 13010KT 090V170 CAVOK 22/18 A2994 NOSIG=
201807220200 METAR MROC 220200Z 10010KT 070V130 CAVOK 23/17 A3000 NOSIG=
201807220300 METAR MROC 220300Z 08007KT CAVOK 22/18 A3001 NOSIG=
201807220400 METAR MROC 220400Z 08006KT 060V120 CAVOK 22/18 A3000 NOSIG=
201807220500 METAR MROC 220500Z 11009KT 090V150 CAVOK 22/18 A3001 NOSIG=
201807220600 METAR MROC 220600Z 11009KT 070V140 CAVOK 22/18 A2999 NOSIG=
201807220700 METAR MROC 220700Z 12009KT 090V160 CAVOK 22/18 A2997 NOSIG=
201807220800 METAR MROC 220800Z VRB03KT 9999 SCT045 22/18 A2997 NOSIG=
201807220900 METAR MROC 220900Z VRB02KT CAVOK 20/18 A2997 NOSIG=
201807221000 METAR MROC 221000Z VRB02KT 9999 -RA FEW045 BKN100 20/18 A2997 NOSIG=
201807221100 METAR MROC 221100Z 10007KT 9999 FEW030 BKN100 20/18 A2998 NOSIG=
201807221200 METAR MROC 221200Z 09009KT 9999 -RA SCT045 21/18 A2996 NOSIG=
201807221300 METAR MROC 221300Z 10013KT 9999 FEW035 SCT100 22/18 A2995 NOSIG=
201807221400 METAR MROC 221400Z 10014KT 080V160 9999 FEW035 BKN100 24/19 A2999 NOSIG=
201807221500 METAR MROC 221500Z 08010KT 050V120 9999 FEW035 SCT100 26/18 A3000 NOSIG=
201807221600 METAR MROC 221600Z 10008KT 9999 FEW045 BKN130 26/18 A2998 NOSIG=
201807221700 METAR MROC 221700Z 06015KT 9999 FEW040 BKN130 27/18 A2998 NOSIG=
201807221800 METAR MROC 221800Z 07012KT 040V110 9999 SCT035 SCT130 28/18 A2997 NOSIG=
201807221900 METAR MROC 221900Z 08008KT 040V110 9999 SCT035 BKN130 28/19 A2994 NOSIG=
201807222000 METAR MROC 222000Z 07008KT 030V120 9999 SCT035 SCT130 28/18 A2994 NOSIG=
201807222100 METAR MROC 222100Z 26010KT 9999 FEW010 BKN045 25/22 A2994 NOSIG=
201807222200 METAR MROC 222200Z 26010KT 9999 VCTS FEW010CB FEW015TCU SCT015 24/22 A2995 NOSIG=
201807222300 METAR MROC 222300Z 25005KT 9999 FEW010 BKN120 23/21 A2996 NOSIG=
201807230000 METAR MROC 230000Z 25003KT 9999 BCFG FEW005 BKN035 22/21 A2997 NOSIG=
201807230100 METAR MROC 230100Z 29004KT 270V350 9999 BCFG FEW005 SCT020 BKN140 22/21 A3000 NOSIG=
201807230200 METAR MROC 230200Z 22003KT 150V280 9999 BCFG FEW005 SCT040 22/21 A3000 BECMG RA=
201807230300 METAR MROC 230300Z 01003KT 9999 FEW005 BKN100 22/21 A3003 NOSIG=
201807230400 METAR MROC 230400Z 11004KT CAVOK 21/20 A3003 NOSIG=
201807230500 METAR MROC 230500Z 11008KT CAVOK 22/18 A3004 NOSIG=
201807230600 METAR MROC 230600Z 12006KT 080V150 9999 FEW040 BKN200 22/18 A3002 NOSIG=
201807230700 METAR MROC 230700Z 31004KT 9999 FEW030 BKN200 21/20 A3000 NOSIG=
201807230800 METAR MROC 230800Z VRB02KT 9999 FEW010 BKN120 20/20 A3000 NOSIG=
201807230900 METAR MROC 230900Z 11002KT 9999 -RA FEW040 BKN100 20/20 A2997 NOSIG=
201807231000 METAR MROC 231000Z VRB02KT 9999 FEW040 BKN100 20/20 A2999 NOSIG=
201807231100 METAR MROC 231100Z 05005KT 360V100 9999 -RA FEW040 BKN100 21/19 A3001 NOSIG=
201807231200 METAR MROC 231200Z 07006KT 040V100 9999 -RA FEW040 BKN100 21/19 A3000 NOSIG=
201807231300 METAR MROC 231300Z 11009KT 070V140 CAVOK 22/18 A3001 NOSIG=
201807231400 METAR MROC 231400Z 11007KT CAVOK 23/19 A3002 NOSIG=
201807231500 METAR MROC 231500Z 11008KT CAVOK 24/19 A3003 NOSIG=
201807231600 METAR MROC 231600Z 12008KT 080V160 9999 FEW045 BKN130 25/19 A3004 NOSIG=
201807231700 METAR MROC 231700Z 08012KT 050V110 CAVOK 27/18 A3003 NOSIG=
201807231800 METAR MROC 231800Z 07015KT 9999 SCT045 28/17 A3001 NOSIG=
201807231900 METAR MROC 231900Z 08014KT 9999 SCT045 28/18 A3000 NOSIG=
201807232000 METAR MROC 232000Z 08012KT 9999 BKN045 27/17 A2999 NOSIG=
201807232100 METAR MROC 232100Z 09011G21KT 9999 FEW030 SCT040 BKN100 28/17 A2998 NOSIG=
201807232200 METAR MROC 232200Z 10013G23KT 9999 SCT040 BKN100 25/17 A2998 NOSIG=
201807232300 METAR MROC 232300Z 12010G20KT 080V150 9999 FEW040 SCT100 BKN180 24/18 A3000 NOSIG=
201807240000 METAR MROC 240000Z 09010KT 060V120 9999 FEW045 BKN100 23/17 A3001 NOSIG=
201807240100 METAR MROC 240100Z 04003KT 360V080 CAVOK 23/19 A3004 NOSIG=
201807240200 METAR MROC 240200Z 09008KT CAVOK 23/17 A3006 NOSIG=
201807240300 METAR MROC 240300Z 25006KT 9999 FEW002 SCT050 BKN120 21/20 A3008 NOSIG=
201807240400 METAR MROC 240400Z VRB02KT CAVOK 21/20 A3009 NOSIG=
201807240500 METAR MROC 240500Z 00000KT CAVOK 21/20 A3009 NOSIG=
201807240600 METAR MROC 240600Z 35003KT 310V080 CAVOK 21/19 A3006 NOSIG=
201807240700 METAR MROC 240700Z 33004KT 310V010 CAVOK 20/18 A3006 NOSIG=
201807240800 METAR MROC 240800Z VRB01KT CAVOK 21/18 A3004 NOSIG=
201807240900 METAR MROC 240900Z VRB01KT CAVOK 21/17 A3003 NOSIG=
201807241000 METAR MROC 241000Z 03005KT CAVOK 20/18 A3004 NOSIG=
201807241100 METAR MROC 241100Z 04004KT 020V090 CAVOK 20/17 A3002 NOSIG=
201807241200 METAR MROC 241200Z 11012KT CAVOK 22/17 A3002 NOSIG=
201807241300 METAR MROC 241300Z 12012G23KT 090V150 9999 FEW040 SCT180 BKN250 23/17 A3004 NOSIG=
201807241400 METAR MROC 241400Z 11014G24KT CAVOK 24/17 A3005 NOSIG=
201807241500 METAR MROC 241500Z 11013G24KT CAVOK 26/16 A3006 NOSIG=
201807241600 METAR MROC 241600Z 09011G21KT 060V120 9999 FEW040 BKN200 27/17 A3006 NOSIG=
201807241700 METAR MROC 241700Z 07015G25KT 9999 FEW040 BKN200 28/16 A3007 NOSIG=
201807241800 METAR MROC 241800Z 07012G22KT 9999 FEW040 SCT160 BKN200 29/17 A3004 NOSIG=
201807241900 METAR MROC 241900Z 08010G21KT 060V130 9999 FEW040 SCT160 BKN200 29/16 A3003 NOSIG=
201807242000 METAR MROC 242000Z 07012G22KT 030V110 9999 FEW045 OVC200 30/17 A3000 NOSIG=
201807242100 METAR MROC 242100Z 05013KT 9999 FEW045 BKN200 30/17 A2999 NOSIG=
201807242200 METAR MROC 242200Z VRB06G16KT 9999 FEW035 SCT180 BKN230 28/16 A3000 BECMG 25006KT=
201807242300 METAR MROC 242300Z 23010KT 9999 FEW020 OVC200 24/22 A3001 NOSIG=
201807250000 METAR MROC 250000Z 26008KT 9999 BKN015 23/22 A3003 BECMG 5000 BR=
201807250100 METAR MROC 250100Z 26005KT 8000 2500SW -RA SCT002 OVC040 22/21 A3004 NOSIG=
201807250200 METAR MROC 250200Z 18003KT 150V210 9000 3000SW FEW002 SCT050 22/21 A3005 NOSIG=
201807250300 METAR MROC 250300Z 25002KT 8000 2500SW FEW001 SCT080 21/21 A3006 NOSIG=
201807250400 METAR MROC 250400Z 10007KT CAVOK 22/18 A3007 NOSIG=
201807250500 METAR MROC 250500Z 10009KT CAVOK 22/17 A3006 NOSIG=
201807250600 METAR MROC 250600Z 10009KT CAVOK 22/17 A3004 NOSIG=
201807250700 METAR MROC 250700Z 02003KT 330V070 CAVOK 22/17 A3005 NOSIG=
201807250800 METAR MROC 250800Z VRB02KT CAVOK 20/17 A3003 NOSIG=
201807250900 METAR MROC 250900Z 09007KT CAVOK 21/17 A3001 NOSIG=
201807251000 METAR MROC 251000Z 12012KT 080V150 CAVOK 22/17 A3001 NOSIG=
201807251100 METAR MROC 251100Z 11010KT 080V140 CAVOK 22/17 A3002 NOSIG=
201807251200 METAR MROC 251200Z 11010KT 070V130 CAVOK 21/17 A3004 NOSIG=
201807251300 METAR MROC 251300Z 10010KT CAVOK 23/18 A3005 NOSIG=
201807251400 METAR MROC 251400Z 09012KT 9999 FEW045 SCT200 25/17 A3006 NOSIG=
201807251500 METAR MROC 251500Z 08013KT 9999 FEW015 SCT250 26/17 A3005 NOSIG=
201807251600 METAR MROC 251600Z 07014KT CAVOK 27/17 A3004 NOSIG=
201807251700 METAR MROC 251700Z 10011KT 070V130 9999 SCT045 27/18 A3003 NOSIG=
201807251800 METAR MROC 251800Z 09009KT 060V140 9999 FEW045 SCT200 29/18 A3001 NOSIG=
201807251900 METAR MROC 251900Z 13007KT 080V180 9999 FEW030 SCT060 BKN100 28/18 A3000 NOSIG=
201807252000 METAR MROC 252000Z 07009KT 8000 VCFG -RA FEW015 SCT045 OVC100 23/19 A2998 NOSIG=
201807252100 METAR MROC 252100Z 12005KT 080V170 9999 FEW030 BKN100 24/19 A2998 NOSIG=
201807252200 METAR MROC 252200Z 25006KT 200V300 9999 FEW030 BKN100 23/21 A2998 NOSIG=
201807252300 METAR MROC 252300Z 31004KT 280V360 9999 FEW030 BKN100 23/21 A3000 NOSIG=
201807260000 METAR MROC 260000Z VRB03KT 9999 RA SCT030 BKN100 22/21 A3002 NOSIG=
201807260100 METAR MROC 260100Z 10004KT 9999 -RA SCT030 BKN100 22/20 A3003 RERA NOSIG=
201807260200 METAR MROC 260200Z 10003KT 050V140 9999 FEW030 BKN100 22/19 A3006 NOSIG=
201807260300 METAR MROC 260300Z 06006KT 8000 +RA FEW030 BKN100 21/20 A3009 NOSIG=
201807260400 METAR MROC 260400Z 04004KT 9999 FEW030 BKN100 21/20 A3009 RERA NOSIG=
201807260500 METAR MROC 260500Z 31003KT 9999 FEW010 SCT030 BKN100 21/20 A3009 NOSIG=
201807260600 METAR MROC 260600Z 31003KT 250V350 9999 FEW010 SCT030 BKN100 21/20 A3007 NOSIG=
201807260700 METAR MROC 260700Z VRB02KT 5000 BR FEW002 SCT010 BKN030 21/20 A3006 NOSIG=
201807260800 METAR MROC 260800Z 00000KT 9999 FEW002 SCT020 BKN120 20/20 A3001 NOSIG=
201807260900 METAR MROC 260900Z 01003KT 9999 FEW020 SCT045 BKN200 20/20 A3000 NOSIG=
201807261000 METAR MROC 261000Z 08003KT CAVOK 20/19 A2999 NOSIG=
201807261100 METAR MROC 261100Z VRB02KT CAVOK 21/19 A3001 NOSIG=
201807261200 METAR MROC 261200Z 05003KT 9999 FEW040 BKN120 20/19 A3002 NOSIG=
201807261300 METAR MROC 261300Z 04008KT CAVOK 21/19 A3003 NOSIG=
201807261400 METAR MROC 261400Z 15003KT 060V250 CAVOK 22/20 A3005 NOSIG=
201807261500 METAR MROC 261500Z 24005KT 200V270 CAVOK 23/20 A3007 NOSIG=
201807261600 METAR MROC 261600Z 26005KT 220V310 9999 FEW030 BKN140 23/20 A3008 NOSIG=
201807261700 METAR MROC 261700Z VRB02KT 8000 -TSRA SCT030 OVC100 23/21 A3008 NOSIG=
201807261800 METAR MROC 261800Z 10006KT 080V150 9999 FEW035 OVC100 22/20 A3005 NOSIG=
201807261900 METAR MROC 261900Z 10006KT 070V140 9999 FEW035 BKN100 24/18 A3002 NOSIG=
201807262000 METAR MROC 262000Z 09011KT 9999 FEW035 OVC120 25/18 A3000 NOSIG=
201807262100 METAR MROC 262100Z 06010KT 020V110 9999 FEW030 BKN120 26/16 A3000 NOSIG=
201807262200 METAR MROC 262200Z 08008KT 9999 FEW040 BKN120 26/17 A2999 NOSIG=
201807262300 METAR MROC 262300Z 08009KT 9999 FEW040 BKN120 25/17 A3000 NOSIG=
201807270000 METAR MROC 270000Z 11007KT 080V140 9999 FEW040 BKN150 24/18 A3001 NOSIG=
201807270100 METAR MROC 270100Z 12008KT 080V160 CAVOK 23/18 A3001 NOSIG=
201807270200 METAR MROC 270200Z 10005KT 050V150 CAVOK 23/18 A3003 NOSIG=
201807270300 METAR MROC 270300Z 09008KT 060V120 CAVOK 23/17 A3005 NOSIG=
201807270400 METAR MROC 270400Z 05004KT CAVOK 22/17 A3007 NOSIG=
201807270500 METAR MROC 270500Z 04006KT 9999 FEW040 BKN140 22/18 A3009 NOSIG=
201807270600 METAR MROC 270600Z 07007KT 9999 -RA SCT040 BKN130 21/19 A3007 NOSIG=
201807270700 METAR MROC 270700Z 03007KT 9999 FEW040 20/19 A3004 NOSIG=
201807270800 METAR MROC 270800Z 07007KT 9999 FEW040 20/18 A3002 NOSIG=
201807270900 METAR MROC 270900Z 12007KT CAVOK 21/18 A3000 NOSIG=
201807271000 METAR MROC 271000Z 05005KT 340V140 CAVOK 21/18 A2999 NOSIG=
201807271100 METAR MROC 271100Z 07008KT 040V110 CAVOK 22/18 A2999 NOSIG=
201807271200 METAR MROC 271200Z 06005KT 010V110 CAVOK 22/18 A3001 NOSIG=
201807271300 METAR MROC 271300Z 05005KT 010V100 CAVOK 22/18 A3003 NOSIG=
201807271400 METAR MROC 271400Z 11010KT 070V150 CAVOK 23/18 A3004 NOSIG=
201807271500 METAR MROC 271500Z 11009KT 080V160 CAVOK 24/18 A3006 NOSIG=
201807271600 METAR MROC 271600Z 11009KT 090V150 CAVOK 25/19 A3005 BECMG 24007KT=
201807271700 METAR MROC 271700Z 09009KT 9999 -RA SCT030 OVC110 22/19 A3007 NOSIG=
201807271800 METAR MROC 271800Z 04005KT 010V080 9999 -RA SCT030 OVC100 22/19 A3007 NOSIG=
201807271900 METAR MROC 271900Z 02003KT 310V120 9999 -RA FEW035 OVC110 22/19 A3005 NOSIG=
201807272000 METAR MROC 272000Z VRB02KT 9999 SCT040 OVC120 23/19 A3002 NOSIG=
201807272100 METAR MROC 272100Z 13005KT 070V180 CAVOK 23/17 A3002 BECMG 25006KT=
201807272200 METAR MROC 272200Z 11005KT 088V140 9999 FEW045 SCT100 BKN140 24/17 A3001 NOSIG=
201807272300 METAR MROC 272300Z COR 15004KT 110V200 9999 4500SW BCFG FEW005 SCT100 BKN120 24/17 A3003 NOSIG=
201807280000 METAR MROC 280000Z 21003KT 170V250 9999 BCFG FEW005 SCT035 BKN100 23/19 A3005 NOSIG=
201807280100 METAR MROC 280100Z 32003KT 9999 FEW030 BKN120 22/20 A3007 NOSIG=
201807280200 METAR MROC 280200Z 12003KT 9999 FEW030 BKN100 21/20 A3008 NOSIG=
201807280300 METAR MROC 280300Z COR 10006KT 050V140 9999 FEW025 BKN120 22/17 A3006 NOSIG=
201807280400 METAR MROC 280400Z 10008KT CAVOK 22/17 A3006 NOSIG=
201807280500 METAR MROC 280500Z 09008KT 060V120 CAVOK 22/17 A3005 NOSIG=
201807280600 METAR MROC 280600Z 05005KT 010V100 CAVOK 22/16 A3004 NOSIG=
201807280700 METAR MROC 280700Z 09008KT 060V120 CAVOK 22/16 A3003 NOSIG=
201807280800 METAR MROC 280800Z VRB01KT CAVOK 22/16 A3003 NOSIG=
201807280900 METAR MROC 280900Z 09007KT 060V130 CAVOK 21/17 A3002 NOSIG=
201807281000 METAR MROC 281000Z VRB02KT CAVOK 20/17 A3003 NOSIG=
201807281100 METAR MROC 281100Z 07005KT CAVOK 20/16 A3003 NOSIG=
201807281200 METAR MROC 281200Z 05007KT 010V090 CAVOK 20/16 A3004 NOSIG=
201807281300 METAR MROC 281300Z 08004KT CAVOK 20/16 A3007 NOSIG=
201807281400 METAR MROC 281400Z 08005KT 050V110 CAVOK 22/17 A3008 NOSIG=
201807281500 METAR MROC 281500Z VRB02KT CAVOK 24/17 A3009 BECMG 24006KT=
201807281600 METAR MROC 281600Z 10007KT 070V130 CAVOK 24/18 A3009 NOSIG=
201807281700 METAR MROC 281700Z VRB03KT CAVOK 26/20 A3007 NOSIG=
201807281800 METAR MROC 281800Z VRB02KT 9999 FEW045 SCT120 BKN150 25/19 A3006 NOSIG=
201807281900 METAR MROC 281900Z 25004KT 240V300 9999 FEW045 BKN120 25/20 A3004 NOSIG=
201807282000 METAR MROC 282000Z 26006KT 240V300 9999 -RA FEW045 BKN140 24/20 A3003 NOSIG=
201807282100 METAR MROC 282100Z 25005KT 200V300 9999 FEW035 SCT050 BKN120 24/20 A3002 NOSIG=
201807282200 METAR MROC 282200Z 26007KT 9999 FEW010 SCT030 BKN120 23/21 A3001 NOSIG=
201807282300 METAR MROC 282300Z 25007KT 5000 BR FEW005 SCT010 BKN120 22/21 A3002 NOSIG=
201807290000 METAR MROC 290000Z 24005KT 3000 BR FEW005 SCT010 BKN025 21/21 A3004 BECMG 1500=
201807290100 METAR MROC 290100Z 23003KT 5000 2000SW BR FEW001 SCT005 BKN015 21/21 A3005 NOSIG=
201807290200 METAR MROC 290200Z VRB02KT 8000 VCFG FEW001 SCT005 BKN160 21/20 A3006 NOSIG=
201807290300 METAR MROC 290300Z 35003KT 320V070 9999 4000SW BCFG SCT010 BKN200 21/20 A3007 NOSIG=
201807290400 METAR MROC 290400Z VRB02KT 8000 VCFG FEW012 21/20 A3008 NOSIG=
201807290500 METAR MROC 290500Z 06003KT 030V090 CAVOK 21/20 A3007 NOSIG=
201807290600 METAR MROC 290600Z 10005KT CAVOK 21/18 A3006 NOSIG=
201807290700 METAR MROC 290700Z 07006KT CAVOK 21/17 A3004 NOSIG=
201807290800 METAR MROC 290800Z 07008KT CAVOK 20/18 A3001 NOSIG=
201807290900 METAR MROC 290900Z 06009KT CAVOK 21/17 A3001 NOSIG=
201807291000 METAR MROC 291000Z 08005KT CAVOK 21/17 A3001 NOSIG=
201807291100 METAR MROC 291100Z 08005KT 050V110 CAVOK 20/17 A3003 NOSIG=
201807291200 METAR MROC 291200Z 06005KT 9999 FEW035 20/17 A3002 NOSIG=
201807291300 METAR MROC 291300Z 07006KT 040V100 9999 FEW040 SCT120 23/18 A3003 NOSIG=
201807291400 METAR MROC 291400Z 12007KT 060V190 9999 FEW040 BKN120 24/18 A3005 NOSIG=
201807291500 METAR MROC 291500Z 11009KT 080V140 9999 FEW035 BKN120 25/18 A3005 NOSIG=
201807291600 METAR MROC 291600Z 09010G20KT 050V130 9999 FEW040 SCT120 27/18 A3004 NOSIG=
201807291700 METAR MROC 291700Z 10011KT 9999 FEW035 SCT060 28/18 A3003 NOSIG=
201807291800 METAR MROC 291800Z 09008KT 050V120 CAVOK 27/19 A3001 NOSIG=
201807291900 METAR MROC 291900Z 13006KT 9999 FEW045 SCT200 29/19 A2998 BECMG 22008KT=
201807292000 METAR MROC 292000Z 23013KT 9999 RA VCTS FEW015CB SCT025 BKN060 24/21 A2997 NOSIG=
201807292100 METAR MROC 292100Z 23010KT 190V270 9000 3000NW -TSRA BCFG SCT015CB BKN060 22/20 A2998 NOSIG=
201807292200 METAR MROC 292200Z 32005KT 280V340 9000 2500SW BCFG FEW001 SCT020 OVC070 21/20 A2997 NOSIG=
201807292300 METAR MROC 292300Z VRB02KT 9999 FEW010 SCT150 22/19 A2997 NOSIG=
201807300000 METAR MROC 300000Z VRB02KT 9999 FEW035 BKN180 22/19 A3000 NOSIG=
201807300100 METAR MROC 300100Z 25005KT 220V280 9999 BCFG FEW001 BKN170 21/20 A3004 NOSIG=
201807300200 METAR MROC 300200Z VRB03KT 9999 BCFG FEW001 BKN200 21/20 A3007 NOSIG=
201807300300 METAR MROC 300300Z 36003KT 320V050 9000 3000W BCFG FEW001 SCT010 BKN070 21/20 A3008 NOSIG=
201807300400 METAR MROC 300400Z 08005KT CAVOK 20/19 A3008 NOSIG=
201807300500 METAR MROC 300500Z 07007KT CAVOK 21/18 A3007 NOSIG=
201807300600 METAR MROC 300600Z 07007KT CAVOK 21/18 A3006 NOSIG=
201807300700 METAR MROC 300700Z 09005KT CAVOK 21/17 A3005 NOSIG=
201807300800 METAR MROC 300800Z 06005KT CAVOK 21/17 A3003 NOSIG=
201807300900 METAR MROC 300900Z COR VRB02KT 9999 VCTS FEW045 SCT100 20/18 A3004 NOSIG=
201807301000 METAR MROC 301000Z 00000KT CAVOK 20/17 A3004 NOSIG=
201807301100 METAR MROC 301100Z VRB02KT CAVOK 19/18 A3004 NOSIG=
201807301200 METAR MROC 301200Z 07003KT CAVOK 20/17 A3005 NOSIG=
201807301300 METAR MROC 301300Z 03004KT 360V070 CAVOK 21/18 A3005 NOSIG=
201807301400 METAR MROC 301400Z 08005KT CAVOK 23/18 A3005 NOSIG=
201807301500 METAR MROC 301500Z 34003KT 310V050 9999 FEW040 BKN120 24/18 A3006 BECMG 23007KT=
201807301600 METAR MROC 301600Z 11013KT 090V150 9999 FEW040 SCT100 BKN180 26/18 A3005 NOSIG=
201807301700 METAR MROC 301700Z 10011KT 9999 FEW045 BKN200 27/19 A3004 NOSIG=
201807301800 METAR MROC 301800Z 09013KT 060V120 9999 FEW045 SCT130 OVC200 27/18 A3003 NOSIG=
201807301900 METAR MROC 301900Z 09011KT 9999 FEW045 OVC120 26/17 A3002 NOSIG=
201807302000 METAR MROC 302000Z 10012KT 9999 FEW040 OVC130 26/17 A3000 NOSIG=
201807302100 METAR MROC 302100Z 10017KT CAVOK 23/16 A3000 NOSIG=
201807302200 METAR MROC 302200Z 10014KT 080V140 CAVOK 23/16 A2997 NOSIG=
201807302300 METAR MROC 302300Z 12012KT 080V150 9999 -RA BKN120 23/17 A2996 NOSIG=
201807310000 METAR MROC 310000Z 10011KT 070V140 CAVOK 24/15 A2998 NOSIG=
201807310100 METAR MROC 310100Z 11005KT 060V160 9999 -RA NSC 22/15 A3002 NOSIG=
201807310200 METAR MROC 310200Z 05006KT 360V080 CAVOK 22/16 A3004 NOSIG=
201807310300 METAR MROC 310300Z VRB02KT CAVOK 21/17 A3004 NOSIG=
201807310400 METAR MROC 310400Z 00000KT CAVOK 20/18 A3003 NOSIG=
201807310500 METAR MROC 310500Z 12005KT CAVOK 19/17 A3004 NOSIG=
201807310600 METAR MROC 310600Z 10006KT CAVOK 19/17 A3004 NOSIG=
201807310700 METAR MROC 310700Z 10005KT 070V130 CAVOK 20/16 A3002 NOSIG=
201807310800 METAR MROC 310800Z 04010KT CAVOK 21/16 A2998 NOSIG=
201807310900 METAR MROC 310900Z 07007KT CAVOK 21/16 A2997 NOSIG=
201807311000 METAR MROC 311000Z VRB01KT CAVOK 21/15 A2998 NOSIG=
201807311100 METAR MROC 311100Z 24004KT CAVOK 21/15 A3000 NOSIG=
201807311200 METAR MROC 311200Z 00000KT 9999 FEW040 BKN120 20/16 A3002 NOSIG=
201807311300 METAR MROC 311300Z VRB02KT 9999 FEW045 SCT120 22/17 A3005 NOSIG=
201807311400 METAR MROC 311400Z 14007KT 100V190 9999 FEW045 SCT120 24/17 A3004 NOSIG=
201807311500 METAR MROC 311500Z 14008KT 100V170 9999 FEW045 BKN120 24/17 A3004 NOSIG=
201807311600 METAR MROC 311600Z 12010KT 080V170 CAVOK 27/18 A3004 NOSIG=
201807311700 METAR MROC 311700Z 12007KT 070V160 9999 FEW040 28/19 A3002 NOSIG=
201807311800 METAR MROC 311800Z 24012KT 9999 SCT040 26/20 A3002 NOSIG=
201807311900 METAR MROC 311900Z 26009KT 9999 BKN040 25/21 A3001 NOSIG=
201807312000 METAR MROC 312000Z 25008KT 210V270 9999 SCT030 BKN070 25/21 A3000 NOSIG=
201807312100 METAR MROC 312100Z 24011KT 9999 VCTS FEW006 SCT010 SCT025TCU 23/22 A2999 RERA BECMG RA=
201807312200 METAR MROC 312200Z 26007KT 230V290 9999 VCFG SCT006 SCT015 22/20 A2998 BECMG RA=
201807312300 METAR MROC 312300Z 31005KT 9999 VCFG FEW008 SCT020 BKN110 22/20 A2998 NOSIG=
201808010000 METAR MROC 010000Z 24006KT 9999 FEW007 SCT010 BKN015 21/20 A3000 BECMG 3000 BR BKN010=
201808010100 METAR MROC 010100Z VRB02KT 9999 FEW012 BKN025 21/20 A3002 BECMG RA=
201808010200 METAR MROC 010200Z 15003KT 9999 FEW007 BKN015 20/20 A3002 NOSIG=
201808010300 METAR MROC 010300Z 12003KT 9999 SCT045 20/19 A3002 NOSIG=
201808010400 METAR MROC 010400Z VRB02KT 9999 FEW025 SCT200 20/19 A3003 NOSIG=
201808010500 METAR MROC 010500Z 36002KT 9999 FEW025 21/19 A3003 NOSIG=
201808010600 METAR MROC 010600Z 36003KT 320V030 9999 FEW025 20/18 A3002 NOSIG=
201808010700 METAR MROC 010700Z 08005KT 9999 FEW025 21/18 A3001 NOSIG=
201808010800 METAR MROC 010800Z 29003KT 9999 FEW001 19/19 A3000 NOSIG=
201808010900 METAR MROC 010900Z 32003KT 280V010 8000 FEW001 BKN090 19/19 A2999 NOSIG=
201808011000 METAR MROC 011000Z VRB01KT 2500 BR SCT001 BKN090 19/19 A2999 NOSIG=
201808011100 METAR MROC 011100Z VRB02KT 9000 2500SW BCFG FEW001 BKN100 19/18 A3000 NOSIG=
201808011200 METAR MROC 011200Z VRB03KT 9999 -RA NSC 20/18 A3001 NOSIG=
201808011300 METAR MROC 011300Z 18003KT 130V200 CAVOK 20/18 A3002 NOSIG=
201808011400 METAR MROC 011400Z 24004KT 210V270 CAVOK 21/19 A3004 NOSIG=
201808011500 METAR MROC 011500Z 24005KT 190V280 CAVOK 22/19 A3005 NOSIG=
201808011600 METAR MROC 011600Z 25005KT 180V300 9999 SCT030 SCT250 24/19 A3005 NOSIG=
201808011700 METAR MROC 011700Z 26007KT 230V290 9999 SCT030 BKN250 25/20 A3004 NOSIG=
201808011800 METAR MROC 011800Z 25006KT 200V330 9999 SCT030 26/20 A3001 NOSIG=
201808011900 METAR MROC 011900Z 24007KT 170V290 9999 SCT030 27/19 A2997 NOSIG=
201808012000 METAR MROC 012000Z 24009KT 9999 RA VCTS SCT025 25/21 A2995 BECMG 5000 TSRA BKN030=
201808012100 METAR MROC 012100Z COR 36004KT 320V040 9999 4000SW -TSRA FEW020CB BKN040 20/18 A2997 NOSIG=
201808012200 METAR MROC 012200Z 27005KT 240V350 9999 FEW005 BKN050 20/18 A2997 RETSRA NOSIG=
201808012300 METAR MROC 012300Z 05004KT 030V090 9999 DZ BKN045 20/19 A3001 NOSIG=
201808020000 METAR MROC 020000Z 09007KT 060V120 9999 -RA NSC 20/19 A3000 NOSIG=
201808020100 METAR MROC 020100Z 07013KT 9999 FEW030 SCT120 BKN170 21/18 A2999 NOSIG=
201808020200 METAR MROC 020200Z 11009KT 080V150 9999 FEW030 SCT120 BKN150 21/18 A3000 NOSIG=
201808020300 METAR MROC 020300Z 09007KT 9999 -RA NSC 21/18 A3001 NOSIG=
201808020400 METAR MROC 020400Z 08004KT CAVOK 20/18 A2999 NOSIG=
201808020500 METAR MROC 020500Z 00000KT CAVOK 19/18 A2998 NOSIG=
201808020600 METAR MROC 020600Z 22004KT 9999 BCFG FEW015 SCT200 19/18 A2997 BECMG 5000 BR=
201808020700 METAR MROC 020700Z 35004KT 7000 BCFG SCT002 BKN020 19/19 A2998 NOSIG=
201808020800 METAR MROC 020800Z 10004KT 9999 VCFG FEW010 BKN035 19/18 A2998 NOSIG=
201808020900 METAR MROC 020900Z 03009KT 9999 FEW030 SCT050 20/18 A2996 NOSIG=
201808021000 METAR MROC 021000Z 07006KT CAVOK 19/18 A2995 NOSIG=
201808021100 METAR MROC 021100Z 04008KT CAVOK 20/17 A2996 NOSIG=
201808021200 METAR MROC 021200Z VRB02KT CAVOK 21/17 A2999 NOSIG=
201808021300 METAR MROC 021300Z 04004KT CAVOK 21/18 A2999 NOSIG=
201808021400 METAR MROC 021400Z VRB02KT CAVOK 24/18 A2999 BECMG 24006KT=
201808021500 METAR MROC 021500Z 24007KT CAVOK 25/20 A2999 NOSIG=
201808021600 METAR MROC 021600Z 26009KT 9999 FEW030 BKN250 24/18 A3001 NOSIG=
201808021700 METAR MROC 021700Z 24011KT 9999 SCT040 25/20 A3000 NOSIG=
201808021800 METAR MROC 021800Z 23009KT 9999 SCT045 24/19 A2999 NOSIG=
201808021900 METAR MROC 021900Z 25009KT 190V280 9999 VCTS FEW020CB BKN030 25/19 A2997 BECMG RA=
201808022000 METAR MROC 022000Z 22009KT 9999 FEW020 SCT030 25/20 A2995 NOSIG=
201808022100 METAR MROC 022100Z 22008KT 200V260 9999 VCSH FEW020 SCT030 BKN100 23/20 A2995 BECMG SHRA=
201808022200 METAR MROC 022200Z 21006KT 9999 -TSRA FEW010CB SCT020 BKN100 22/19 A2997 BECMG 5000=
201808022300 METAR MROC 022300Z 00000KT 5000 2000N RA BR FEW010 SCT020 BKN030 21/20 A2999 RETS NOSIG=
201808030000 METAR MROC 030000Z VRB02KT 5000 2000SW -TSRA BR FEW005 FEW010CB SCT020 BKN030 19/19 A3003 NOSIG=
201808030100 METAR MROC 030100Z 04005KT 9999 -RA NSC 20/19 A3002 RETS NOSIG=
201808030200 METAR MROC 030200Z 00000KT 9999 -RA NSC 20/19 A3003 NOSIG=
201808030300 METAR MROC 030300Z 26005KT 240V300 9999 FEW002 OVC100 19/19 A3004 BECMG 5000 BR=
201808030400 METAR MROC 030400Z VRB01KT 8000 VCFG FEW004 BKN100 19/19 A3005 NOSIG=
201808030500 METAR MROC 030500Z 08003KT 8000 VCFG FEW006 BKN100 19/19 A3005 NOSIG=
201808030600 METAR MROC 030600Z 04003KT 350V060 9999 FEW020 SCT120 19/19 A3004 NOSIG=
201808030700 METAR MROC 030700Z 10005KT CAVOK 18/18 A3001 NOSIG=
201808030800 METAR MROC 030800Z 08005KT CAVOK 18/17 A3001 NOSIG=
201808030900 METAR MROC 030900Z 07006KT CAVOK 18/16 A3001 NOSIG=
201808031000 METAR MROC 031000Z 10005KT CAVOK 17/16 A2999 NOSIG=
201808031100 METAR MROC 031100Z 03003KT 360V060 CAVOK 18/16 A3001 NOSIG=
201808031200 METAR MROC 031200Z 07005KT CAVOK 19/16 A3003 NOSIG=
201808031300 METAR MROC 031300Z 11005KT CAVOK 19/17 A3005 NOSIG=
201808031400 METAR MROC 031400Z 08003KT 050V110 CAVOK 20/18 A3005 NOSIG=
201808031500 METAR MROC 031500Z 06003KT CAVOK 23/19 A3005 BECMG 24006KT=
201808031600 METAR MROC 031600Z 09005KT 050V130 9999 FEW045 BKN120 26/19 A3004 NOSIG=
201808031700 METAR MROC 031700Z 13005KT 080V180 9999 FEW040 BKN120 26/18 A3003 NOSIG=
201808031800 METAR MROC 031800Z 25008KT 220V290 9999 FEW035 SCT120 BKN180 26/21 A3001 NOSIG=
201808031900 METAR MROC 031900Z 24007KT 200V280 9999 FEW035 SCT120 BKN180 25/21 A3000 NOSIG=
201808032000 METAR MROC 032000Z 24008KT 9999 FEW035 SCT040 BKN120 24/21 A2998 NOSIG=
201808032100 METAR MROC 032100Z 27008KT 9999 SCT020TCU BKN100 25/20 A2996 BECMG -TSRA=
201808032200 METAR MROC 032200Z 08008KT 050V110 9999 TSRA SCT020CB SCT045 23/18 A2995 BECMG 5000=
201808032300 METAR MROC 032300Z 35003KT 300V060 9999 FEW015 SCT080 BKN240 22/19 A2997 NOSIG=
201808040000 METAR MROC 040000Z 21004KT 9000 1500SW BCFG FEW001 SCT120 BKN230 22/22 A2999 NOSIG=
201808040100 METAR MROC 040100Z 25005KT 8000 1500SW BCFG FEW001 SCT015 BKN100 22/21 A3002 BECMG 5000=
201808040200 METAR MROC 040200Z VRB02KT 5000 1500SW BR SCT001 BKN045 21/21 A3003 NOSIG=
201808040300 METAR MROC 040300Z 24004KT 210V270 2000 BR SCT001 BKN010 21/21 A3005 NOSIG=
201808040400 METAR MROC 040400Z VRB02KT 6000 BCFG FEW002 BKN015 21/21 A3006 NOSIG=
201808040500 METAR MROC 040500Z 25002KT 6000 BCFG FEW002 BKN010 21/20 A3006 NOSIG=
201808040600 METAR MROC 040600Z VRB01KT 0100 R07/P2000N FG BKN001 21/20 A3003 NOSIG=
201808040700 METAR MROC 040700Z 01003KT 340V040 9999 FEW020 20/20 A3001 NOSIG=
201808040800 METAR MROC 040800Z 04005KT 350V090 9999 FEW005 20/19 A2999 NOSIG=
201808040900 METAR MROC 040900Z 07003KT 010V130 9999 BCFG FEW003 20/18 A2998 NOSIG=
201808041000 METAR MROC 041000Z 07004KT 9999 FEW003 SCT180 19/18 A2998 NOSIG=
201808041100 METAR MROC 041100Z 05005KT CAVOK 20/18 A2999 NOSIG=
201808041200 METAR MROC 041200Z 06006KT 040V100 CAVOK 19/17 A3000 NOSIG=
201808041300 METAR MROC 041300Z 08006KT 060V140 CAVOK 22/19 A3001 NOSIG=
201808041400 METAR MROC 041400Z VRB02KT CAVOK 25/18 A3003 NOSIG=
201808041500 METAR MROC 041500Z 27005KT 240V320 CAVOK 25/19 A3004 NOSIG=
201808041600 METAR MROC 041600Z 27006KT 220V330 CAVOK 25/19 A3003 NOSIG=
201808041700 METAR MROC 041700Z 24009KT 200V270 9999 SCT025 SCT180 26/21 A3003 NOSIG=
201808041800 METAR MROC 041800Z 24009KT 9999 VCTS FEW020 SCT080 BKN250 26/21 A3001 NOSIG=
201808041900 METAR MROC 041900Z 24005KT 180V340 3000 -TSRA FEW015CB BKN030 24/21 A3001 NOSIG=
201808042000 METAR MROC 042000Z 22003KT 190V250 9999 FEW010 BKN100 24/22 A2998 A2998 NOSIG=
201808042100 METAR MROC 042100Z 24009KT 230V290 8000 VCFG FEW005 SCT020 BKN070 23/22 A2996 BECMG 5000 BR BKN015=
201808042200 METAR MROC 042200Z 23006KT 190V260 9999 BCFG FEW005 SCT020 BKN070 23/22 A2996 NOSIG=
201808042300 METAR MROC 042300Z 23006KT 200V260 8000 VCFG FEW005 BKN030 22/21 A2997 NOSIG=
201808050000 METAR MROC 050000Z 24003KT 280V300 3000 -RA BR SCT004 BKN020 21/21 A3000 NOSIG=
201808050100 METAR MROC 050100Z 35003KT 8000 VCFG FEW004 SCT030 BKN100 22/21 A3002 NOSIG=
201808050200 METAR MROC 050200Z 08003KT 9999 FEW040 BKN120 21/21 A3003 NOSIG=
201808050300 METAR MROC 050300Z 10005KT 080V140 CAVOK 21/18 A3002 NOSIG=
201808050400 METAR MROC 050400Z 10010KT CAVOK 22/17 A3001 NOSIG=
201808050500 METAR MROC 050500Z 10010G20KT CAVOK 22/17 A2998 NOSIG=
201808050600 METAR MROC 050600Z 10014G24KT CAVOK 22/17 A2996 NOSIG=
201808050700 METAR MROC 050700Z 10016G26KT CAVOK 23/17 A2993 NOSIG=
201808050800 METAR MROC 050800Z 10014G25KT 070V140 CAVOK 23/17 A2992 NOSIG=
201808050900 METAR MROC 050900Z 10011G22KT CAVOK 23/17 A2992 NOSIG=
201808051000 METAR MROC 051000Z 10014G24KT CAVOK 22/18 A2992 NOSIG=
201808051100 METAR MROC 051100Z 11013KT 080V140 CAVOK 23/17 A2993 NOSIG=
201808051200 METAR MROC 051200Z 10013G23KT 9999 FEW035 BKN180 22/18 A2995 NOSIG=
201808051300 METAR MROC 051300Z 11013KT 080V140 9999 FEW030 SCT240 24/18 A2997 NOSIG=
201808051400 METAR MROC 051400Z 11013KT 9999 SCT030 25/19 A3000 NOSIG=
201808051500 METAR MROC 051500Z 08010KT 050V120 9999 SCT030 26/19 A3000 NOSIG=
201808051600 METAR MROC 051600Z 09011KT 050V120 9999 SCT030 27/19 A3001 NOSIG=
201808051700 METAR MROC 051700Z 07015KT 9999 SCT030 28/17 A3000 NOSIG=
201808051800 METAR MROC 051800Z 08014KT 050V120 9999 SCT030 27/17 A2999 NOSIG=
201808051900 METAR MROC 051900Z 07016KT 030V090 9999 FEW030 28/17 A2997 NOSIG=
201808052000 METAR MROC 052000Z 08013KT 9999 FEW040 28/16 A2994 NOSIG=
201808052100 METAR MROC 052100Z 07016G27KT CAVOK 28/16 A2993 NOSIG=
201808052200 METAR MROC 052200Z 08011KT CAVOK 27/17 A2993 NOSIG=
201808052300 METAR MROC 052300Z 07015KT CAVOK 26/14 A2993 NOSIG=
201808060000 METAR MROC 060000Z 08008KT 050V110 CAVOK 24/17 A2994 NOSIG=
201808060100 METAR MROC 060100Z 11006KT 080V140 CAVOK 23/16 A2997 NOSIG=
201808060200 METAR MROC 060200Z 08008KT CAVOK 22/16 A2998 NOSIG=
201808060300 METAR MROC 060300Z 12005KT CAVOK 21/16 A3000 NOSIG=
201808060400 METAR MROC 060400Z 10008KT CAVOK 22/16 A3000 NOSIG=
201808060500 METAR MROC 060500Z VRB02KT CAVOK 21/16 A3000 NOSIG=
201808060600 METAR MROC 060600Z 10008KT 070V130 CAVOK 21/17 A2997 NOSIG=
201808060700 METAR MROC 060700Z 11009KT 080V140 CAVOK 21/17 A2995 NOSIG=
201808060800 METAR MROC 060800Z 12009KT 090V170 CAVOK 21/16 A2993 NOSIG=
201808060900 METAR MROC 060900Z 12009KT 090V160 CAVOK 21/16 A2993 NOSIG=
201808061000 METAR MROC 061000Z 11009KT CAVOK 21/16 A2992 NOSIG=
201808061100 METAR MROC 061100Z 12011KT 080V150 CAVOK 21/16 A2993 NOSIG=
201808061200 METAR MROC 061200Z 12010KT 090V150 CAVOK 21/16 A2994 NOSIG=
201808061300 METAR MROC 061300Z 13011KT 100V180 CAVOK 22/17 A2995 NOSIG=
201808061400 METAR MROC 061400Z 12012KT 090V170 CAVOK 24/17 A2998 NOSIG=
201808061500 METAR MROC 061500Z 10013G23KT 070V130 CAVOK 25/17 A3000 NOSIG=
201808061600 METAR MROC 061600Z 11008KT 070V150 CAVOK 26/18 A3001 NOSIG=
201808061700 METAR MROC 061700Z 12010KT 090V150 CAVOK 25/17 A2999 NOSIG=
201808061800 METAR MROC 061800Z 13008KT 090V180 CAVOK 28/18 A2995 NOSIG=
201808061900 METAR MROC 061900Z 12006KT 080V190 CAVOK 30/17 A2991 NOSIG=
201808062000 METAR MROC 062000Z 08010KT 050V110 9999 FEW035 BKN130 29/18 A2990 NOSIG=
201808062100 METAR MROC 062100Z VRB05KT 9999 FEW020 SCT045 BKN120 28/17 A2989 NOSIG=
201808062200 METAR MROC 062200Z COR 26009KT 9999 3000SW BCFG BKN015 23/22 A2991 NOSIG=
201808062300 METAR MROC 062300Z 25006KT 220V290 9999 4500SW BKN009 22/21 A2993 NOSIG=
201808070000 METAR MROC 070000Z 25006KT 9999 3000SW VCTS OVC005 22/21 A2996 NOSIG=
201808070100 METAR MROC 070100Z 19003KT 9999 4000SW VCTS FEW010 BKN060 22/21 A2995 NOSIG=
201808070200 METAR MROC 070200Z 27007KT 220V300 9999 4500SW BCFG FEW010 BKN080 22/21 A2997 NOSIG=
201808070300 METAR MROC 070300Z 24004KT 9999 FEW006 SCT030 BKN120 21/20 A2990 NOSIG=
201808070400 METAR MROC 070400Z 04004KT 350V080 9999 FEW040 BKN060 22/20 A2999 NOSIG=
201808070500 METAR MROC 070500Z 07003KT 030V100 9999 FEW040 SCT060 22/19 A2999 NOSIG=
201808070600 METAR MROC 070600Z 11007KT 080V160 9999 FEW040 SCT060 22/19 A2998 NOSIG=
201808070700 METAR MROC 070700Z 08005KT 050V140 CAVOK 22/18 A2995 NOSIG=
201808070800 METAR MROC 070800Z 10008KT 070V130 CAVOK 22/18 A2996 NOSIG=
201808070900 METAR MROC 070900Z 08008KT 050V110 CAVOK 21/19 A2999 NOSIG=
201808071000 METAR MROC 071000Z 13008KT 100V170 CAVOK 22/18 A2993 NOSIG=
201808071100 METAR MROC 071100Z 11009KT 040V140 9999 FEW030 BKN200 22/18 A2992 NOSIG=
201808071200 METAR MROC 071200Z 13010KT 090V160 9999 FEW030 BKN200 22/18 A2997 NOSIG=
201808071300 METAR MROC 071300Z 08007KT 040V110 CAVOK 23/18 A2998 NOSIG=
201808071400 METAR MROC 071400Z 11014KT 9999 DZ FEW030 BKN120 23/18 A3000 NOSIG=
201808071500 METAR MROC 071500Z 10010G21KT 060V140 9999 -RA FEW030 BKN120 23/19 A2998 NOSIG=
201808071600 METAR MROC 071600Z 12009KT 090V160 9999 FEW030 SCT060 BKN140 26/17 A2999 NOSIG=
201808071700 METAR MROC 071700Z 09010KT 070V130 9999 FEW045 BKN150 26/16 A2999 NOSIG=
201808071800 METAR MROC 071800Z 11008KT 070V150 9999 FEW035 BKN180 28/17 A2995 NOSIG=
201808071900 METAR MROC 071900Z 11012KT 080V140 CAVOK 28/17 A2995 NOSIG=
201808072000 METAR MROC 072000Z 11010KT 070V140 9999 FEW040 BKN160 29/17 A2992 NOSIG=
201808072100 METAR MROC 072100Z 09007KT 050V140 9999 FEW030 SCT040 BKN160 28/18 A2993 NOSIG=
201808072200 METAR MROC 072200Z 21005KT 140V250 9999 FEW035 BKN200 25/22 A2991 NOSIG=
201808072300 METAR MROC 072300Z 28008KT 9999 FEW035 BKN200 25/22 A2991 NOSIG=
201808080000 METAR MROC 080000Z 25004KT 9999 FEW010 SCT045 23/22 A2995 NOSIG=
201808080100 METAR MROC 080100Z 23006KT 9999 FEW005 SCT045 22/22 A2996 NOSIG=
201808080200 METAR MROC 080200Z 30003KT 9999 FEW045 23/22 A2997 NOSIG=
201808080300 METAR MROC 080300Z 23004KT 9999 FEW035 22/21 A2998 NOSIG=
201808080400 METAR MROC 080400Z 04003KT 310V110 CAVOK 22/19 A2999 NOSIG=
201808080500 METAR MROC 080500Z 06007KT 030V120 CAVOK 23/18 A2998 NOSIG=
201808080600 METAR MROC 080600Z VRB02KT CAVOK 23/18 A2998 NOSIG=
201808080700 METAR MROC 080700Z 07004KT 360V140 CAVOK 22/18 A2995 NOSIG=
201808080800 METAR MROC 080800Z 05005KT 010V090 CAVOK 22/18 A2994 NOSIG=
201808080900 METAR MROC 080900Z 06008KT 010V130 CAVOK 23/18 A2993 NOSIG=
201808081000 METAR MROC 081000Z 12005KT 050V170 CAVOK 22/18 A2994 NOSIG=
201808081100 METAR MROC 081100Z 10008G18KT 070V130 CAVOK 23/18 A2994 NOSIG=
201808081200 METAR MROC 081200Z 11011KT CAVOK 23/18 A2995 NOSIG=
201808081300 METAR MROC 081300Z 12012G23KT 9999 FEW040 BKN200 24/18 A2997 NOSIG=
201808081400 METAR MROC 081400Z 10010G20KT 060V130 9999 FEW040 BKN200 25/19 A2996 NOSIG=
201808081500 METAR MROC 081500Z 11015G25KT 9999 FEW040 BKN200 27/18 A2997 NOSIG=
201808081600 METAR MROC 081600Z 10014G25KT 070V140 9999 FEW035 BKN200 28/19 A2998 WS R07 NOSIG=
201808081700 METAR MROC 081700Z 12010G20KT 080V180 9999 FEW035 SCT060 BKN200 28/19 A2998 WS R07 NOSIG=
201808081800 METAR MROC 081800Z 11012KT 050V150 9999 FEW035 SCT060 BKN200 28/18 A2998 WS R07 NOSIG=
201808081900 METAR MROC 081900Z 03007KT 310V070 9999 FEW035 SCT100 BKN200 28/19 A2994 NOSIG=
201808082000 METAR MROC 082000Z 09010KT 9999 FEW030 SCT100 BKN200 28/19 A2994 NOSIG=
201808082100 METAR MROC 082100Z 11009KT 070V150 9999 -RA SCT035 BKN120 27/20 A2992 NOSIG=
201808082200 METAR MROC 082200Z 11010KT 070V160 9999 -RA VCTS FEW035 BKN200 27/19 A2993 NOSIG=
201808082300 METAR MROC 082300Z 09011KT 060V130 9999 FEW035 OVC150 26/18 A2993 NOSIG=
201808090000 METAR MROC 090000Z 10010KT 9999 FEW035 SCT250 25/18 A2993 NOSIG=
201808090100 METAR MROC 090100Z 08004KT 040V160 CAVOK 24/18 A2996 NOSIG=
201808090200 METAR MROC 090200Z 10007KT CAVOK 24/18 A2998 NOSIG=
201808090300 METAR MROC 090300Z 09012KT CAVOK 24/18 A2999 NOSIG=
201808090400 METAR MROC 090400Z 10011KT CAVOK 23/19 A3001 NOSIG=
201808090500 METAR MROC 090500Z 10007KT 070V130 CAVOK 24/19 A3001 NOSIG=
201808090600 METAR MROC 090600Z 08004KT 040V130 CAVOK 23/18 A3000 NOSIG=
201808090700 METAR MROC 090700Z 06006KT CAVOK 22/18 A2996 NOSIG=
201808090800 METAR MROC 090800Z 12006KT 070V180 CAVOK 23/18 A2994 NOSIG=
201808090900 METAR MROC 090900Z 11004KT CAVOK 23/18 A2993 NOSIG=
201808091000 METAR MROC 091000Z 10013KT CAVOK 23/18 A2993 NOSIG=
201808091100 METAR MROC 091100Z 10014G24KT CAVOK 23/18 A2993 NOSIG=
201808091200 METAR MROC 091200Z 11008KT CAVOK 23/18 A2995 NOSIG=
201808091300 METAR MROC 091300Z 12005KT 070V170 CAVOK 24/18 A2998 NOSIG=
201808091400 METAR MROC 091400Z 12008KT 090V150 CAVOK 25/18 A2999 NOSIG=
201808091500 METAR MROC 091500Z 11012KT 9999 FEW035 OVC200 27/18 A3001 NOSIG=
201808091600 METAR MROC 091600Z 14007KT 100V170 9999 FEW035 OVC200 27/18 A3002 BECMG 24008KT=
201808091700 METAR MROC 091700Z 08009KT 9999 FEW045 OVC200 28/18 A3001 BECMG 24008KT=
201808091800 METAR MROC 091800Z 24006KT 190V290 9999 SCT030 OVC200 27/20 A3001 NOSIG=
201808091900 METAR MROC 091900Z 25008KT 210V280 9999 SCT040 OVC150 26/21 A2998 NOSIG=
201808092000 METAR MROC 092000Z 24009KT 9999 SCT020 BKN250 26/22 A2998 NOSIG=
201808092100 METAR MROC 092100Z 26009KT 9999 SCT020 BKN060 25/22 A2995 NOSIG=
201808092200 METAR MROC 092200Z 23006KT 210V270 9999 SCT020 BKN060 24/22 A2995 NOSIG=
201808092300 METAR MROC 092300Z 18004KT 110V220 9999 3000SW -TSRA FEW010CB SCT020 BKN100 21/20 A2998 NOSIG=
201808100000 METAR MROC 100000Z 27006KT 3000 -RA BR SCT001 BKN020 21/21 A3002 RETSRA NOSIG=
201808100100 METAR MROC 100100Z VRB02KT 8000 VCFG FEW020 BKN060 21/20 A3004 NOSIG=
201808100200 METAR MROC 100200Z VRB02KT 9999 FEW040 BKN100 21/20 A3007 NOSIG=
201808100300 METAR MROC 100300Z 34004KT 310V010 9999 -RA FEW040 BKN100 21/20 A3008 NOSIG=
201808100400 METAR MROC 100400Z 13003KT 9999 FEW010 SCT020 BKN100 21/20 A3001 NOSIG=
201808100500 METAR MROC 100500Z 11008KT 080V150 9999 FEW020 BKN200 22/20 A3003 NOSIG=
201808100600 METAR MROC 100600Z 12007KT 080V160 9999 FEW020 SCT120 BKN200 22/19 A3001 NOSIG=
201808100700 METAR MROC 100700Z 11011KT 070V140 9999 FEW030 SCT200 23/19 A3000 NOSIG=
201808100800 METAR MROC 100800Z 11011KT 9999 FEW030 SCT200 22/19 A2999 NOSIG=
201808100900 METAR MROC 100900Z 04003KT 340V130 9999 FEW030 22/19 A2999 NOSIG=
201808101000 METAR MROC 101000Z 11007KT 080V150 CAVOK 22/19 A2998 NOSIG=
201808101100 METAR MROC 101100Z 12009KT 090V150 CAVOK 22/18 A2997 NOSIG=
201808101200 METAR MROC 101200Z 11010KT 080V150 9999 FEW030 SCT100 BKN200 23/18 A3000 NOSIG=
201808101300 METAR MROC 101300Z 10007KT 070V130 9999 FEW030 BKN140 23/18 A3001 NOSIG=
201808101400 METAR MROC 101400Z 07005KT 030V100 9999 FEW030 SCT160 24/19 A3002 NOSIG=
201808101500 METAR MROC 101500Z 08015KT CAVOK 25/18 A3002 NOSIG=
201808101600 METAR MROC 101600Z 08015KT CAVOK 27/18 A3002 NOSIG=
201808101700 METAR MROC 101700Z 08013KT 050V110 9999 FEW040 SCT120 29/18 A3003 NOSIG=
201808101800 METAR MROC 101800Z 09008KT 060V120 9999 SCT040 BKN100 27/19 A3002 NOSIG=
201808101900 METAR MROC 101900Z 06016KT 9999 SCT040 BKN100 27/17 A2999 NOSIG=
201808102000 METAR MROC 102000Z 10005KT 060V160 9999 SCT040 BKN100 26/18 A2999 NOSIG=
201808102100 METAR MROC 102100Z 10008KT 080V150 9999 SCT045 OVC110 25/17 A2999 NOSIG=
201808102200 METAR MROC 102200Z 09007KT CAVOK 25/17 A2998 NOSIG=
201808102300 METAR MROC 102300Z 08009KT 040V100 CAVOK 25/17 A3000 NOSIG=
201808110000 METAR MROC 110000Z 09009KT CAVOK 24/16 A3000 NOSIG=
201808110100 METAR MROC 110100Z 09011KT CAVOK 24/17 A3000 NOSIG=
201808110200 METAR MROC 110200Z 08015KT CAVOK 23/17 A2999 NOSIG=
201808110300 METAR MROC 110300Z 11015KT CAVOK 23/18 A3000 NOSIG=
201808110400 METAR MROC 110400Z 12011KT 090V150 CAVOK 23/18 A3002 NOSIG=
201808110500 METAR MROC 110500Z VRB05KT CAVOK 22/18 A3003 NOSIG=
201808110600 METAR MROC 110600Z 02004KT 350V060 9999 FEW030 22/18 A3002 NOSIG=
201808110700 METAR MROC 110700Z 07006KT CAVOK 22/18 A3001 NOSIG=
201808110800 METAR MROC 110800Z 02004KT CAVOK 21/18 A2999 NOSIG=
201808110900 METAR MROC 110900Z VRB02KT CAVOK 21/18 A2997 NOSIG=
201808111000 METAR MROC 111000Z 08004KT FEW040 SCT100 BKN230 20/18 A3001 NOSIG=
201808111100 METAR MROC 111100Z 06010KT 9999 -RA VCTS FEW045 BKN090 20/19 A3001 NOSIG=
201808111200 METAR MROC 111200Z 09007KT 030V130 9999 -RA FEW001 OVC120 21/18 A3003 NOSIG=
201808111300 METAR MROC 111300Z 04007KT 360V080 9999 -RA OVC120 20/18 A3001 RETSRA NOSIG=
201808111400 METAR MROC 111400Z 03006KT 330V140 9999 -RA BKN120 22/18 A3006 NOSIG=
201808111500 METAR MROC 111500Z 10011KT 070V130 9999 -RA FEW045 BKN120 22/19 A3006 NOSIG=
201808111600 METAR MROC 111600Z 10015KT 070V130 CAVOK 23/18 A3006 NOSIG=
201808111700 METAR MROC 111700Z 08011KT 9999 -RA FEW045 OVC120 23/19 A3007 NOSIG=
201808111800 METAR MROC 111800Z 10008KT 9999 -RA FEW045 OVC120 23/18 A3003 NOSIG=
201808111900 METAR MROC 111900Z 12006KT 070V150 CAVOK 24/18 A3001 NOSIG=
201808112000 METAR MROC 112000Z 11013KT 080V150 CAVOK 26/18 A2998 NOSIG=
201808112100 METAR MROC 112100Z 12012KT 090V160 CAVOK 25/18 A2998 NOSIG=
201808112200 METAR MROC 112200Z 12011KT 090V150 9999 FEW045 BKN120 24/18 A2998 NOSIG=
201808112300 METAR MROC 112300Z 10010KT 9999 FEW045 BKN120 24/18 A2998 NOSIG=
201808120000 METAR MROC 120000Z 11009KT 080V140 9999 FEW040 SCT180 23/18 A2999 NOSIG=
201808120100 METAR MROC 120100Z 11009KT CAVOK 23/18 A3001 NOSIG=
201808120200 METAR MROC 120200Z 11008KT CAVOK 23/18 A3002 NOSIG=
201808120300 METAR MROC 120300Z 14004KT 080V190 CAVOK 22/18 A3005 NOSIG=
201808120400 METAR MROC 120400Z 07005KT 050V110 CAVOK 21/18 A3007 NOSIG=
201808120500 METAR MROC 120500Z 06005KT 030V090 CAVOK 21/18 A3004 NOSIG=
201808120600 METAR MROC 120600Z 06006KT CAVOK 22/18 A3003 NOSIG=
201808120700 METAR MROC 120700Z 07004KT 040V100 CAVOK 21/17 A3003 NOSIG=
201808120800 METAR MROC 120800Z 07007KT CAVOK 21/18 A3001 NOSIG=
201808120900 METAR MROC 120900Z 09004KT 050V120 CAVOK 21/17 A3001 NOSIG=
201808121000 METAR MROC 121000Z 12006KT 070V150 CAVOK 21/17 A3000 NOSIG=
201808121100 METAR MROC 121100Z 02003KT 340V140 CAVOK 20/17 A3001 NOSIG=
201808121200 METAR MROC 121200Z 10012KT CAVOK 22/17 A3001 NOSIG=
201808121300 METAR MROC 121300Z 11014KT CAVOK 23/18 A3002 NOSIG=
201808121400 METAR MROC 121400Z 12011KT 090V150 9999 FEW035 25/18 A3004 NOSIG=
201808121500 METAR MROC 121500Z 08011KT 050V110 CAVOK 27/18 A3006 NOSIG=
201808121600 METAR MROC 121600Z 07014KT 9999 SCT040 SCT100 26/16 A3008 NOSIG=
201808121700 METAR MROC 121700Z 09012KT 060V120 CAVOK 27/18 A3006 NOSIG=
201808121800 METAR MROC 121800Z 08011KT CAVOK 26/17 A3002 NOSIG=
201808121900 METAR MROC 121900Z 07009KT CAVOK 28/17 A3000 NOSIG=
201808122000 METAR MROC 122000Z 07012KT 9999 FEW045 SCT250 28/17 A3000 NOSIG=
201808122100 METAR MROC 122100Z 08010G20KT 9999 FEW040 SCT060 BKN250 28/18 A2995 NOSIG=
201808122200 METAR MROC 122200Z 07012KT 9999 FEW040 SCT160 BKN200 28/17 A2997 NOSIG=
201808122300 METAR MROC 122300Z 11004KT 050V150 9999 FEW040 SCT160 BKN200 26/17 A3000 NOSIG=
201808122315 METAR MROC 122315Z 24006KT 180V300 9999 FEW035 SCT060 BKN200 24/22 A3000 NOSIG=
201808130000 METAR MROC 130000Z 25008KT 9999 FEW010 SCT045 BKN200 23/21 A3000 NOSIG=
201808130100 METAR MROC 130100Z 29003KT 260V330 9999 FEW035 BKN200 23/21 A3001 NOSIG=
201808130200 METAR MROC 130200Z VRB02KT 9999 FEW010 22/21 A3005 NOSIG=
201808130300 METAR MROC 130300Z VRB02KT 9999 FEW010 22/18 A3006 NOSIG=
201808130400 METAR MROC 130400Z VRB05KT CAVOK 22/18 A3004 NOSIG=
201808130500 METAR MROC 130500Z 11009KT 090V150 CAVOK 22/18 A3004 NOSIG=
201808130600 METAR MROC 130600Z 27005KT 230V320 CAVOK 20/18 A3005 NOSIG=
201808130700 METAR MROC 130700Z VRB02KT CAVOK 20/18 A3003 NOSIG=
201808130800 METAR MROC 130800Z 08006KT CAVOK 19/18 A3001 NOSIG=
201808130900 METAR MROC 130900Z 05004KT 020V080 CAVOK 20/18 A3000 NOSIG=
201808131000 METAR MROC 131000Z 03007KT CAVOK 21/17 A3000 NOSIG=
201808131100 METAR MROC 131100Z 08005KT 040V130 CAVOK 21/17 A3001 NOSIG=
201808131200 METAR MROC 131200Z 02003KT 350V080 CAVOK 20/17 A3000 NOSIG=
201808131300 METAR MROC 131300Z 09007KT 050V120 CAVOK 22/18 A3000 NOSIG=
201808131400 METAR MROC 131400Z 03003KT 330V090 9999 FEW040 SCT120 BKN200 24/19 A3002 NOSIG=
201808131500 METAR MROC 131500Z 10011G21KT 9999 FEW040 BKN200 27/18 A3001 NOSIG=
201808131600 METAR MROC 131600Z 10010G20KT 070V140 9999 FEW045 BKN200 28/17 A3002 NOSIG=
201808131700 METAR MROC 131700Z 09009KT 060V130 9999 SCT030 BKN060 26/17 A3003 NOSIG=
201808131800 METAR MROC 131800Z 07009KT 040V100 9999 FEW040 BKN140 28/18 A3001 NOSIG=
201808131900 METAR MROC 131900Z 15005KT 9999 FEW020 SCT035 BKN100 27/20 A3001 NOSIG=
201808132000 METAR MROC 132000Z 23004KT 9999 FEW045 SCT100 BKN200 25/21 A2998 NOSIG=
201808132100 METAR MROC 132100Z 25008KT 9999 -RA SCT030 BKN100 24/21 A2997 NOSIG=
201808132200 METAR MROC 132200Z 26009KT 9000 3000SW BCFG FEW001 SCT050 BKN200 23/21 A2997 NOSIG=
201808132300 METAR MROC 132300Z 25005KT 180V290 7000 2000SW -RA BCFG FEW001 SCT005 BKN015 22/21 A3000 BECMG 5000 RA BR=
201808140000 METAR MROC 140000Z 25004KT 5000 2000SW BR FEW001 SCT005 OVC080 21/21 A3001 NOSIG=
201808140100 METAR MROC 140100Z 28005KT 230V310 5000 2000SW -RA BCFG FEW001 OVC008 21/20 A3004 NOSIG=
201808140200 METAR MROC 140200Z 31003KT 260V340 9000 3000SW -RA BCFG FEW004 SCT015 OVC100 21/20 A3007 NOSIG=
201808140300 METAR MROC 140300Z VRB02KT 9999 FEW004 BKN100 21/20 A3008 NOSIG=
201808140400 METAR MROC 140400Z 06006KT 030V090 CAVOK 20/20 A3008 NOSIG=
201808140500 METAR MROC 140500Z 06002KT CAVOK 21/19 A3008 NOSIG=
201808140600 METAR MROC 140600Z 03004KT 350V050 CAVOK 21/19 A3007 NOSIG=
201808140700 METAR MROC 140700Z 09007KT CAVOK 20/17 A3004 NOSIG=
201808140800 METAR MROC 140800Z COR 07009KT CAVOK 21/17 A3001 NOSIG=
201808140900 METAR MROC 140900Z 05008KT CAVOK 21/17 A2999 NOSIG=
201808141000 METAR MROC 141000Z 05006KT 010V070 CAVOK 21/16 A2998 NOSIG=
201808141100 METAR MROC 141100Z 09005KT 060V130 CAVOK 21/17 A2998 NOSIG=
201808141200 METAR MROC 141200Z 07009KT 020V110 CAVOK 21/16 A2998 NOSIG=
201808141300 METAR MROC 141300Z 11012KT CAVOK 24/17 A2998 NOSIG=
201808141400 METAR MROC 141400Z 11015KT CAVOK 24/17 A2999 NOSIG=
201808141500 METAR MROC 141500Z 11008KT 070V150 CAVOK 26/18 A3001 NOSIG=
201808141600 METAR COR MROC 141600Z 24009KT 180V270 9999 FEW040 BKN110 25/19 A3002 NOSIG=
201808141700 METAR MROC 141700Z 25009KT 9999 FEW020TCU SCT035 BKN130 24/20 A3003 NOSIG=
201808141800 METAR MROC 141800Z 13007KT 090V170 9000 3000SW FEW004 SCT030 BKN080 21/18 A3003 RESH NOSIG=
201808141900 METAR MROC 141900Z 01004KT 350V060 9999 FEW035 SCT070 BKN110 22/20 A3000 RESH WS R07 NOSIG=
201808142000 METAR MROC 142000Z 12008KT 090V170 9999 FEW035 BKN120 23/18 A2999 WS R07 NOSIG=
201808142100 METAR MROC 142100Z 12009KT 9999 FEW040 BKN100 23/17 A2998 NOSIG=
201808142200 METAR MROC 142200Z 11012KT 090V150 9999 FEW040 BKN100 23/17 A2997 NOSIG=
201808142300 METAR MROC 142300Z 11013KT CAVOK 22/16 A2999 NOSIG=
201808150000 METAR MROC 150000Z VRB05KT CAVOK 22/16 A3000 NOSIG=
201808150100 METAR MROC 150100Z 06008KT CAVOK 22/15 A3001 NOSIG=
201808150200 METAR MROC 150200Z 10006KT 060V120 CAVOK 21/16 A3002 NOSIG=
201808150300 METAR MROC 150300Z 07004KT 040V120 CAVOK 21/15 A3003 NOSIG=
201808150400 METAR MROC 150400Z 06003KT 020V090 CAVOK 21/15 A3005 NOSIG=
201808150500 METAR MROC 150500Z 05007KT 010V080 CAVOK 20/14 A3004 NOSIG=
201808150600 METAR MROC 150600Z 05003KT 350V080 CAVOK 20/13 A3003 NOSIG=
201808150700 METAR MROC 150700Z 10006KT 050V130 CAVOK 20/14 A3001 NOSIG=
201808150800 METAR MROC 150800Z 02007KT CAVOK 19/13 A2998 NOSIG=
201808150900 METAR MROC 150900Z 05006KT CAVOK 19/14 A2997 NOSIG=
201808151000 METAR MROC 151000Z 08009KT CAVOK 19/14 A2997 NOSIG=
201808151100 METAR MROC 151100Z 07006KT CAVOK 19/13 A2999 NOSIG=
201808151200 METAR MROC 151200Z 05006KT 020V100 CAVOK 19/14 A3000 NOSIG=
201808151300 METAR MROC 151300Z 08008G19KT 060V130 CAVOK 22/15 A3002 NOSIG=
201808151400 METAR MROC 151400Z 12011KT CAVOK 23/14 A3003 NOSIG=
201808151500 METAR MROC 151500Z 11012KT CAVOK 24/14 A3003 NOSIG=
201808151600 METAR MROC 151600Z 12011KT 080V150 CAVOK 25/14 A3003 NOSIG=
201808151700 METAR MROC 151700Z 13009KT 090V170 CAVOK 27/14 A3003 NOSIG=
201808151800 METAR MROC 151800Z 15005KT 070V200 9999 FEW040 SCT200 28/16 A3002 NOSIG=
201808151900 METAR MROC 151900Z 25010KT 210V280 9999 SCT040 SCT200 27/19 A3000 NOSIG=
201808152000 METAR MROC 152000Z 25010KT 9999 SCT040 26/19 A2998 NOSIG=
201808152100 METAR MROC 152100Z 25010KT 9999 BKN040 25/20 A2997 BECMG RA=
201808152200 METAR MROC 152200Z 24007KT 9999 -TSRA FEW015CB BKN030 23/21 A2997 NOSIG=
201808152300 METAR MROC 152300Z 27005KT 240V300 9999 -RA SCT020 BKN100 22/20 A2999 RETSRA NOSIG=
201808160000 METAR MROC 160000Z 18003KT 150V220 8000 -RA VCFG SCT015 BKN100 21/20 A3002 BECMG 5000 BR=
201808160100 METAR MROC 160100Z 35003KT 300V060 CAVOK 21/19 A3003 NOSIG=
201808160200 METAR MROC 160200Z VRB02KT CAVOK 21/19 A3004 NOSIG=
201808160300 METAR MROC 160300Z 18003KT CAVOK 20/20 A3004 NOSIG=
201808160400 METAR MROC 160400Z VRB01KT 8000 3000W FEW002 SCT150 BKN200 20/19 A3006 NOSIG=
201808160500 METAR MROC 160500Z 12003KT 090V160 CAVOK 20/19 A3005 NOSIG=
201808160600 METAR MROC 160600Z 04003KT 8000 FEW002 19/18 A3005 NOSIG=
201808160700 METAR MROC 160700Z 08005KT 050V110 CAVOK 20/17 A3002 NOSIG=
201808160800 METAR MROC 160800Z 08007KT CAVOK 19/16 A3001 NOSIG=
201808160900 METAR MROC 160900Z 08006KT CAVOK 19/16 A3000 NOSIG=
201808161000 METAR MROC 161000Z 03004KT CAVOK 18/16 A3002 NOSIG=
201808161100 METAR MROC 161100Z 07006KT CAVOK 19/16 A3002 NOSIG=
201808161200 METAR MROC 161200Z 04006KT CAVOK 19/16 A3003 NOSIG=
201808161300 METAR MROC 161300Z 07007KT CAVOK 21/16 A3004 NOSIG=
201808161400 METAR MROC 161400Z 01003KT 340V060 CAVOK 24/17 A3005 NOSIG=
201808161500 METAR MROC 161500Z 31004KT 260V340 CAVOK 26/17 A3006 NOSIG=
201808161600 METAR MROC 161600Z 21005KT 170V250 CAVOK 26/18 A3006 NOSIG=
201808161700 METAR MROC 161700Z 25009KT 9999 FEW045 SCT250 26/19 A3006 NOSIG=
201808161800 METAR MROC 161800Z 25010KT 210V280 9999 SCT045TCU SCT250 26/20 A3005 NOSIG=
201808161900 METAR MROC 161900Z 24009KT 210V280 9999 SCT035TCU 26/20 A3002 NOSIG=
201808162000 METAR MROC 162000Z 20007KT 170V230 8000 -TSRA BKN030CB 23/20 A3001 BECMG 5000=
201808162100 METAR MROC 162100Z 25007KT 9999 2500SW -TSRA FEW005CB FEW005TCU SCT005 BKN025 21/20 A3002 NOSIG=
201808162200 METAR MROC 162200Z 32004KT 290V010 9999 2500SW -RA OVC010 20/19 A3005 NOSIG=
201808162300 METAR MROC 162300Z 09005KT 9999 -RA FEW006 SCT030 BKN120 20/19 A3005 NOSIG=
201808170000 METAR MROC 170000Z 09007KT 9999 FEW010 OVC120 21/20 A3005 RERA NOSIG=
201808170100 METAR MROC 170100Z 08006KT 030V120 9999 -RA NSC 21/19 A3006 NOSIG=
201808170200 METAR MROC 170200Z 07007KT 040V100 9999 -RA FEW030 BKN120 21/19 A3008 NOSIG=
201808170300 METAR MROC 170300Z 08007KT 9999 FEW030 BKN120 21/19 A3007 NOSIG=
201808170400 METAR MROC 170400Z 11010KT 080V140 CAVOK 22/18 A3008 NOSIG=
201808170500 METAR MROC 170500Z 07005KT 020V130 CAVOK 22/17 A3010 NOSIG=
201808170600 METAR MROC 170600Z VRB02KT CAVOK 20/18 A3009 NOSIG=
201808170700 METAR MROC 170700Z VRB02KT CAVOK 20/19 A3008 NOSIG=
201808170800 METAR MROC 170800Z 07002KT CAVOK 20/19 A3006 NOSIG=
201808170900 METAR MROC 170900Z 05005KT CAVOK 20/18 A3004 NOSIG=
201808171000 METAR MROC 171000Z 06004KT CAVOK 20/17 A3005 NOSIG=
201808171100 METAR MROC 171100Z 05008KT CAVOK 20/17 A3006 NOSIG=
201808171200 METAR MROC 171200Z 08006KT CAVOK 21/17 A3006 NOSIG=
201808171300 METAR MROC 171300Z 11008KT 080V140 CAVOK 23/16 A3007 NOSIG=
201808171400 METAR MROC 171400Z 12008KT 080V170 CAVOK 25/17 A3007 NOSIG=
201808171500 METAR MROC 171500Z 12009KT CAVOK 27/17 A3007 BECMG 24007KT=
201808171600 METAR MROC 171600Z 13008KT 080V190 CAVOK 28/17 A3007 BECMG 24007KT=
201808171700 METAR MROC 171700Z 24011KT CAVOK 26/21 A3007 NOSIG=
201808171800 METAR MROC 171800Z 25009KT 210V290 9999 FEW045 26/21 A3006 NOSIG=
201808171900 METAR MROC 171900Z 25007KT 190V270 9999 FEW020 BKN035 26/21 A3004 NOSIG=
201808172000 METAR MROC 172000Z 25007KT 220V310 9999 FEW025 BKN045 27/21 A3001 NOSIG=
201808172100 METAR MROC 172100Z 26011KT 220V290 9999 FEW025 BKN045 27/22 A3001 NOSIG=
201808172200 METAR MROC 172200Z 22010KT 9999 -TSRA SCT015CB BKN030 24/22 A3001 NOSIG=
201808172300 METAR MROC 172300Z 26006KT 210V360 9999 FEW010 SCT025 22/20 A3003 RETSRA NOSIG=
201808180000 METAR MROC 180000Z 22003KT 180V260 8000 VCFG SCT005 BKN010 22/21 A3005 NOSIG=
201808180100 METAR MROC 180100Z VRB02KT 8000 VCFG FEW005 SCT025 BKN060 22/21 A3007 NOSIG=
201808180200 METAR MROC 180200Z 28003KT 9999 FEW005 SCT025 BKN060 22/21 A3009 NOSIG=
201808180300 METAR MROC 180300Z 12008KT 080V140 9999 FEW025 BKN060 23/18 A3009 NOSIG=
201808180400 METAR MROC 180400Z 12008KT CAVOK 23/18 A3009 NOSIG=
201808180500 METAR MROC 180500Z 10007KT CAVOK 22/17 A3008 NOSIG=
201808180600 METAR MROC 180600Z 10006KT 060V160 CAVOK 22/18 A3005 NOSIG=
201808180700 METAR MROC 180700Z 09006KT 030V150 CAVOK 22/17 A3007 NOSIG=
201808180800 METAR MROC 180800Z 06007KT CAVOK 20/17 A3003 NOSIG=
201808180900 METAR MROC 180900Z 13007KT 090V160 CAVOK 21/17 A3002 NOSIG=
201808181000 METAR MROC 181000Z 12010KT 080V140 CAVOK 22/17 A3001 NOSIG=
201808181100 METAR MROC 181100Z 11012KT CAVOK 22/17 A3001 NOSIG=
201808181200 METAR MROC 181200Z 11010KT CAVOK 22/17 A3004 NOSIG=
201808181300 METAR MROC 181300Z 10010G20KT 080V140 9999 FEW035 BKN250 24/17 A3007 NOSIG=
201808181400 METAR MROC 181400Z 11010G20KT 080V140 9999 FEW040 BKN250 25/17 A3006 NOSIG=
201808181500 METAR MROC 181500Z 10015G25KT 070V130 9999 FEW040 SCT250 26/17 A3006 NOSIG=
201808181600 METAR MROC 181600Z 09015G28KT 9999 FEW040 27/17 A3005 NOSIG=
201808181700 METAR MROC 181700Z 08013G23KT 060V120 9999 FEW040 28/17 A3005 NOSIG=
201808181800 METAR MROC 181800Z 09012G22KT 9999 FEW040 SCT060 29/18 A3003 NOSIG=
201808181900 METAR MROC 181900Z 07015G25KT 9999 FEW040 SCT060 BKN250 28/18 A3001 NOSIG=
201808182000 METAR MROC 182000Z 09010G20KT 060V120 9999 FEW045 SCT060 BKN250 28/17 A2999 NOSIG=
201808182100 METAR MROC 182100Z 12012G22KT 090V150 9999 FEW035 SCT200 28/18 A2996 NOSIG=
201808182200 METAR MROC 182200Z 11010KT 070V150 9999 FEW045 SCT180 28/17 A2996 NOSIG=
201808182300 METAR MROC 182300Z 11010KT 080V140 9999 FEW045 SCT200 26/17 A2998 NOSIG=
201808190000 METAR MROC 190000Z 11010KT 070V140 9999 SCT045 24/17 A2999 NOSIG=
201808190100 METAR MROC 190100Z 11010KT CAVOK 23/17 A3002 NOSIG=
201808190200 METAR MROC 190200Z 12011KT CAVOK 23/17 A3002 NOSIG=
201808190300 METAR MROC 190300Z 11010G20KT CAVOK 23/18 A3004 NOSIG=
201808190400 METAR MROC 190400Z 09012KT CAVOK 23/16 A3004 NOSIG=
201808190500 METAR MROC 190500Z 14006KT 100V170 9999 FEW035 22/16 A3005 NOSIG=
201808190600 METAR MROC 190600Z 07003KT 030V120 CAVOK 22/16 A3003 NOSIG=
201808190700 METAR MROC 190700Z 00000KT CAVOK 20/15 A3001 NOSIG=
201808190800 METAR MROC 190800Z 04006KT 360V070 CAVOK 20/15 A2999 NOSIG=
201808190900 METAR MROC 190900Z 07007KT CAVOK 20/15 A2998 NOSIG=
201808191000 METAR MROC 191000Z 04006KT CAVOK 20/15 A2999 NOSIG=
201808191100 METAR MROC 191100Z 07008KT CAVOK 20/15 A3000 NOSIG=
201808191200 METAR MROC 191200Z 08007KT CAVOK 20/16 A3001 NOSIG=
201808191300 METAR MROC 191300Z 09008KT CAVOK 22/16 A3003 NOSIG=
201808191400 METAR MROC 191400Z 07008KT 010V140 CAVOK 26/16 A3002 NOSIG=
201808191500 METAR MROC 191500Z 12013G24KT CAVOK 26/16 A3002 NOSIG=
201808191600 METAR MROC 191600Z 11013KT CAVOK 28/16 A3002 NOSIG=
201808191700 METAR MROC 191700Z 08014KT 050V120 9999 FEW035 28/17 A3002 NOSIG=
201808191800 METAR MROC 191800Z 08010KT 060V120 9999 FEW040 SCT090 BKN200 28/17 A3002 NOSIG=
201808191900 METAR MROC 191900Z 10009KT 060V140 9999 FEW020TCU SCT050 BKN180 30/18 A2998 BECMG 23007KT=
201808192000 METAR MROC 192000Z 23015KT 9999 -SHRA FEW020TCU SCT040 BKN200 25/19 A2998 NOSIG=
201808192100 METAR MROC 192100Z 24008KT 9999 -RA SCT040 BKN070 22/20 A2999 NOSIG=
201808192200 METAR MROC 192200Z 30006KT 9999 FEW040 BKN100 21/20 A3000 NOSIG=
201808192300 METAR MROC 192300Z VRB02KT 9999 FEW040 BKN100 21/19 A3000 NOSIG=
201808200000 METAR MROC 200000Z 11002KT 9999 FEW030 BKN120 22/20 A3001 NOSIG=
201808200100 METAR MROC 200100Z 33003KT CAVOK 22/20 A3004 NOSIG=
201808200200 METAR MROC 200200Z VRB01KT CAVOK 21/20 A3005 NOSIG=
201808200300 METAR MROC 200300Z 02003KT CAVOK 21/19 A3004 NOSIG=
201808200400 METAR MROC 200400Z 02004KT CAVOK 21/18 A3003 NOSIG=
201808200500 METAR MROC 200500Z 07004KT CAVOK 21/18 A3003 NOSIG=
201808200600 METAR MROC 200600Z 11010G20KT 080V140 CAVOK 22/18 A3001 NOSIG=
201808200700 METAR MROC 200700Z 11010G20KT 9999 FEW030 22/18 A2999 NOSIG=
201808200800 METAR MROC 200800Z 12010KT 080V140 CAVOK 22/17 A2998 NOSIG=
201808200900 METAR MROC 200900Z 07003KT 030V100 CAVOK 21/17 A2997 NOSIG=
201808201000 METAR MROC 201000Z 04005KT 020V080 9999 FEW030 20/17 A2997 NOSIG=
201808201100 METAR MROC 201100Z 04004KT 010V090 9999 FEW030 20/17 A2998 NOSIG=
201808201200 METAR MROC 201200Z 10010G20KT 030V180 9999 FEW035 BKN200 21/17 A3001 NOSIG=
201808201300 METAR MROC 201300Z 07007KT 9999 FEW035 BKN200 22/18 A3002 NOSIG=
201808201400 METAR MROC 201400Z 11008KT 070V150 9999 FEW035 BKN200 24/18 A3004 NOSIG=
201808201500 METAR MROC 201500Z 12008KT 090V190 9999 FEW035 BKN200 26/19 A3004 NOSIG=
201808201600 METAR MROC 201600Z 13009KT 090V170 9999 FEW040 BKN200 27/18 A3005 NOSIG=
201808201700 METAR MROC 201700Z 25005KT 160V300 9999 FEW040 BKN200 26/20 A3003 NOSIG=
201808201800 METAR MROC 201800Z 26008KT 210V310 9999 FEW035 BKN200 27/20 A3001 NOSIG=
201808201900 METAR MROC 201900Z 25010KT 9999 FEW035 SCT060 BKN200 26/20 A2999 NOSIG=
201808202000 METAR MROC NIL=
201808202100 METAR MROC 202100Z 22010KT 9999 -RA VCTS SCT030 OVC110 26/21 A2996 NOSIG=
201808202200 METAR MROC 202200Z 25009KT 9999 SCT010 BKN030 24/22 A2997 RETSRA NOSIG=
201808202300 METAR MROC 202300Z 30006KT 220V330 9999 SCT030 OVC110 23/20 A2998 NOSIG=
201808210000 METAR MROC 210000Z 23002KT 9999 FEW030 SCT250 23/21 A2999 NOSIG=
201808210100 METAR MROC 210100Z 06007KT 030V120 CAVOK 23/19 A3000 NOSIG=
201808210200 METAR MROC 210200Z 11008KT CAVOK 23/19 A3001 NOSIG=
201808210300 METAR MROC 210300Z 10010KT CAVOK 23/19 A3002 NOSIG=
201808210400 METAR MROC 210400Z 09010KT 9999 FEW035 23/18 A3004 NOSIG=
201808210500 METAR MROC 210500Z 12006KT 090V150 9999 FEW030 22/18 A3003 NOSIG=
201808210600 METAR MROC 210600Z 11010KT 9999 FEW035 22/18 A3003 NOSIG=
201808210700 METAR MROC 210700Z 12009KT 9999 FEW040 22/18 A3001 NOSIG=
201808210800 METAR MROC 210800Z 07005KT 040V100 9999 FEW040 21/18 A3001 NOSIG=
201808210900 METAR MROC 210900Z 07003KT 360V140 9999 FEW040 21/17 A3000 NOSIG=
201808211000 METAR MROC 211000Z 07005KT CAVOK 20/17 A2999 NOSIG=
201808211100 METAR MROC 211100Z 06005KT 9999 VCTS NSC 20/17 A3000 NOSIG=
201808211200 METAR MROC 211200Z 05004KT 350V090 9999 FEW045 SCT200 21/17 A3001 NOSIG=
201808211300 METAR MROC 211300Z 07006KT 030V100 9999 FEW035 BKN160 22/18 A3002 NOSIG=
201808211400 METAR MROC 211400Z 12008KT 9999 FEW035 BKN200 23/18 A3003 NOSIG=
201808211500 METAR MROC 211500Z 11012KT 9999 FEW040 BKN250 26/19 A3004 NOSIG=
201808211600 METAR MROC 211600Z 09014KT 9999 SCT035 SCT250 27/18 A3003 NOSIG=
201808211700 METAR MROC 211700Z 09013KT 9999 SCT040 27/18 A3004 NOSIG=
201808211800 METAR MROC 211800Z 10009KT 070V140 9999 SCT045 28/19 A3002 NOSIG=
201808211900 METAR MROC 211900Z 07011KT 9999 VCTS FEW040 SCT250 29/18 A2999 NOSIG=
201808212000 METAR MROC 212000Z 07012KT 040V100 9999 SCT040 28/18 A2997 NOSIG=
201808212100 METAR MROC 212100Z 08010KT CAVOK 27/18 A2996 NOSIG=
201808212200 METAR MROC 212200Z 07010KT 9999 FEW045 BKN140 27/18 A2996 NOSIG=
201808212300 METAR MROC 212300Z 12005KT 090V170 9999 FEW035 BKN200 26/19 A2998 NOSIG=
201808220000 METAR MROC 220000Z 09005KT 070V140 9999 FEW030 SCT200 25/18 A2998 NOSIG=
201808220100 METAR MROC 220100Z 09005KT 070V140 9999 FEW030 24/19 A3001 NOSIG=
201808220200 METAR MROC 220200Z COR 12007KT 9999 FEW030 24/18 A3002 NOSIG=
201808220300 METAR MROC 220300Z 08008KT 9999 FEW030 23/18 A3005 NOSIG=
201808220400 METAR MROC 220400Z 10009KT 060V130 CAVOK 23/18 A3005 NOSIG=
201808220500 METAR MROC 220500Z 09009KT CAVOK 24/18 A3003 NOSIG=
201808220600 METAR MROC 220600Z 13004KT 040V170 CAVOK 22/18 A2999 NOSIG=
201808220700 METAR MROC 220700Z 12007KT CAVOK 23/18 A3000 NOSIG=
201808220800 METAR MROC 220800Z 11006KT 070V190 9999 -RA VCTS FEW020CB FEW040 BKN120 23/18 A3000 NOSIG=
201808220900 METAR MROC 220900Z 06004KT 9999 FEW040 BKN120 21/19 A2999 NOSIG=
201808221000 METAR MROC 221000Z 11009KT 080V140 CAVOK 23/18 A2998 NOSIG=
201808221100 METAR MROC 221100Z 08007KT 050V120 CAVOK 23/17 A2998 NOSIG=
201808221200 METAR MROC 221200Z 07010KT 9999 FEW040 SCT250 23/17 A2999 NOSIG=
201808221300 METAR MROC 221300Z 10010KT 080V140 9999 FEW040 24/18 A3002 NOSIG=
201808221400 METAR MROC 221400Z 12010KT 090V150 9999 FEW045 SCT100 BKN200 25/18 A3002 NOSIG=
201808221500 METAR MROC 221500Z 08015KT 050V120 9999 FEW045 27/16 A3004 NOSIG=
201808221600 METAR MROC 221600Z 06017G28KT 030V110 CAVOK 28/16 A3002 NOSIG=
201808221700 METAR MROC 221700Z 07019G34KT CAVOK 28/17 A3002 NOSIG=
201808221800 METAR MROC 221800Z 06022KT CAVOK 29/16 A3000 NOSIG=
201808221900 METAR MROC 221900Z 07017G27KT 9999 FEW045 29/15 A2998 NOSIG=
201808222000 METAR MROC 222000Z 09015KT 050V120 CAVOK 29/16 A2996 NOSIG=
201808222100 METAR MROC 222100Z 07014G24KT 9999 FEW045 SCT200 29/15 A2995 NOSIG=
201808222200 METAR MROC 222200Z 07014KT 040V100 9999 FEW040 SCT200 28/15 A2995 NOSIG=
201808222300 METAR MROC 222300Z 06016KT 040V100 9999 FEW040 BKN200 27/15 A2996 NOSIG=
201808230000 METAR MROC 230000Z 12006KT CAVOK 24/16 A2999 NOSIG=
201808230100 METAR MROC 230100Z 13005KT 100V180 CAVOK 23/17 A3000 NOSIG=
201808230200 METAR MROC 230200Z 09003KT 050V130 9999 TSRA FEW008 BKN100 23/17 A3003 NOSIG=
201808230300 METAR MROC 230300Z 04010KT 8000 RA BKN040 20/19 A3007 RETS BECMG 5000=
201808230400 METAR MROC 230400Z 03005KT CAVOK 20/18 A3005 RERA NOSIG=
201808230500 METAR MROC 230500Z 08006KT CAVOK 20/18 A3002 NOSIG=
201808230600 METAR MROC 230600Z 12010KT 090V150 CAVOK 21/18 A3000 NOSIG=
201808230700 METAR MROC 230700Z 12011KT 110V160 CAVOK 22/17 A2998 NOSIG=
201808230800 METAR MROC 230800Z 05006KT 350V100 CAVOK 21/18 A2999 NOSIG=
201808230900 METAR MROC 230900Z 09006KT 060V120 CAVOK 21/18 A2998 NOSIG=
201808231000 METAR MROC 231000Z 06009KT 9999 -RA BKN100 21/18 A2998 NOSIG=
201808231100 METAR MROC 231100Z 06005KT 020V100 CAVOK 21/18 A2999 NOSIG=
201808231200 METAR MROC 231200Z 07003KT 350V130 CAVOK 21/18 A3001 NOSIG=
201808231300 METAR MROC 231300Z 12010KT 090V150 9999 FEW040 BKN120 22/18 A3002 NOSIG=
201808231400 METAR MROC 231400Z 11012G22KT 9999 FEW040 SCT120 BKN200 24/18 A3003 NOSIG=
201808231500 METAR MROC 231500Z 11010G20KT 9999 FEW035 BKN120 24/18 A3005 NOSIG=
201808231600 METAR MROC 231600Z 12012KT 090V150 9999 FEW035 SCT120 BKN200 26/18 A3007 NOSIG=
201808231700 METAR MROC 231700Z 12010G20KT 090V150 9999 SCT035 BKN120 25/18 A3005 NOSIG=
201808231800 METAR MROC 231800Z 13012KT 100V170 9999 SCT035 BKN120 27/19 A3002 NOSIG=
201808231900 METAR MROC 231900Z 04009KT 9999 VCTS FEW020CB SCT035 BKN100 26/19 A3001 BECMG 20006KT RA=
201808232000 METAR MROC 232000Z VRB02KT 9999 FEW035 SCT060 BKN120 26/19 A2998 NOSIG=
201808232100 METAR MROC 232100Z 09009KT 9999 FEW035 SCT130 OVC200 26/15 A2996 NOSIG=
201808232200 METAR MROC 232200Z 11007KT 9999 -RA FEW035 SCT050 OVC100 25/16 A2995 NOSIG=
201808232300 METAR MROC 232300Z 12010KT 090V150 9999 -RA FEW025 OVC100 24/17 A2995 NOSIG=
201808240000 METAR MROC 240000Z VRB02KT 9000 3000SW BCFG FEW001 OVC100 24/17 A2998 NOSIG=
201808240100 METAR MROC 240100Z VRB03KT CAVOK 23/16 A2997 NOSIG=
201808240200 METAR MROC 240200Z 27005KT 220V340 9000 2500SW BCFG FEW002 BKN200 21/20 A3001 NOSIG=
201808240300 METAR MROC 240300Z 34003KT 280V040 9000 2000SW BCFG FEW001 SCT200 21/20 A3004 NOSIG=
201808240400 METAR MROC 240400Z 02005KT 340V050 9999 CAVOK 20/19 A3005 NOSIG=
201808240500 METAR MROC 240500Z 03007KT 360V060 CAVOK 21/17 A3002 NOSIG=
201808240600 METAR MROC 240600Z VRB02KT 9999 BCFG FEW002 21/17 A3000 NOSIG=
201808240700 METAR MROC 240700Z COR 29003KT 240V350 0100 R07/0900U FG VV002 19/19 A2998 NOSIG=
201808240800 METAR MROC 240800Z 01003KT 330V030 2000 BR OVC003 19/19 A2997 NOSIG=
201808240900 METAR MROC 240900Z 07006KT 9999 FEW020 BKN120 19/18 A2996 NOSIG=
201808241000 METAR MROC 241000Z 05006KT 9999 FEW030 BKN120 19/17 A2994 NOSIG=
201808241100 METAR MROC 241100Z 07007KT CAVOK 20/17 A2995 NOSIG=
201808241200 METAR MROC 241200Z 08008KT 040V140 FEW045 BKN200 20/16 A2995 NOSIG=
201808241300 METAR MROC 241300Z 10013KT 9999 FEW045 OVC150 22/17 A2996 NOSIG=
201808241400 METAR MROC 241400Z 11013KT CAVOK 23/17 A3000 NOSIG=
201808241500 METAR MROC 241500Z 09011KT 060V120 CAVOK 25/18 A3002 NOSIG=
201808241600 METAR MROC 241600Z 11008KT 070V150 9999 FEW045 BKN090 27/18 A3001 NOSIG=
201808241700 METAR MROC 241700Z 14008KT 090V190 9999 FEW035 SCT090 28/18 A2999 NOSIG=
201808241800 METAR MROC 241800Z 12009KT 080V160 9999 FEW045 SCT100 29/18 A2996 NOSIG=
201808241900 METAR MROC 241900Z 21007KT 180V240 9999 VCSH FEW020 SCT070 26/21 A2994 NOSIG=
201808242000 METAR MROC 242000Z 25013KT 9999 VCSH VCTS FEW015 SCT050 BKN170 23/21 A2994 NOSIG=
201808242100 METAR MROC 242100Z 24009KT 9999 SCT010 BKN040 23/21 A2993 NOSIG=
201808242200 METAR MROC 242200Z 11008KT 060V150 R07/1300U +TSRA FEW010CB BKN030 20/19 A2994 NOSIG=
201808242300 METAR MROC 242300Z VRB04KT 9999 -TSRA FEW015CB SCT040 BKN100 20/20 A2997 NOSIG=
201808250000 METAR MROC 250000Z 34004KT 9999 FEW040 OVC100 20/20 A2999 NOSIG=
201808250100 METAR MROC 250100Z 04007KT 020V080 9999 -RA NSC 21/19 A2999 NOSIG=
201808250200 METAR MROC 250200Z 07007KT 9999 -RA NSC 21/18 A3000 NOSIG=
201808250300 METAR MROC 250300Z 27003KT 220V350 9999 -RA NSC 20/19 A3002 NOSIG=
201808250400 METAR MROC 250400Z 05008KT CAVOK 20/19 A3002 NOSIG=
201808250500 METAR MROC 250500Z 14004KT CAVOK 20/18 A3000 NOSIG=
201808250600 METAR MROC 250600Z 10006KT 070V130 CAVOK 20/18 A3000 NOSIG=
201808250700 METAR MROC 250700Z 11006KT 060V140 CAVOK 20/18 A2998 NOSIG=
201808250800 METAR MROC 250800Z 03004KT CAVOK 20/17 A2997 NOSIG=
201808250900 METAR MROC 250900Z 04005KT CAVOK 20/17 A2997 NOSIG=
201808251000 METAR MROC 251000Z 07004KT 010V110 CAVOK 19/16 A2999 NOSIG=
201808251100 METAR MROC 251100Z 05006KT CAVOK 18/16 A3000 NOSIG=
201808251200 METAR MROC 251200Z 07004KT CAVOK 18/16 A3000 NOSIG=
201808251300 METAR MROC 251300Z 08007KT CAVOK 22/18 A3002 NOSIG=
201808251400 METAR MROC 251400Z 10009KT CAVOK 24/17 A3003 NOSIG=
201808251500 METAR MROC 251500Z 10007KT CAVOK 26/18 A3002 NOSIG=
201808251600 METAR MROC 251600Z 12005KT 070V180 CAVOK 28/17 A3001 NOSIG=
201808251700 METAR MROC 251700Z VRB05KT 9999 FEW040 28/21 A3001 NOSIG=
201808251800 METAR MROC 251800Z 24011KT 9999 SCT040 27/21 A2999 NOSIG=
201808251900 METAR MROC 251900Z 23013KT 200V260 9999 SCT040 26/21 A2997 NOSIG=
201808252000 METAR MROC 252000Z 26010KT 240V300 9999 -TS SCT030 BKN070 25/21 A2997 NOSIG=
201808252100 METAR MROC 252100Z 24011KT 9999 -TSRA SCT025CB BKN100 20/19 A2996 NOSIG=
201808252200 METAR MROC 252200Z VRB02KT 9999 SCT020 BKN100 21/19 A2997 RETSRA NOSIG=
201808252300 METAR MROC 252300Z 06002KT 9999 FEW030 BKN110 21/20 A2998 NOSIG=
201808260000 METAR MROC 260000Z VRB02KT 9999 FEW047 21/19 A3000 NOSIG=
201808260100 METAR MROC 260100Z 10003KT 020V150 CAVOK 21/20 A3002 NOSIG=
201808260200 METAR MROC 260200Z VRB02KT CAVOK 21/20 A3005 NOSIG=
201808260300 METAR MROC 260300Z VRB02KT CAVOK 21/20 A3007 NOSIG=
201808260400 METAR MROC 260400Z 02004KT 360V060 CAVOK 21/19 A3006 NOSIG=
201808260500 METAR MROC 260500Z 07006KT 030V090 CAVOK 22/18 A3004 NOSIG=
201808260600 METAR MROC 260600Z 10010KT 060V130 9999 FEW040 22/18 A3000 NOSIG=
201808260700 METAR MROC 260700Z 11013G24KT 080V140 9999 FEW030 22/18 A2997 NOSIG=
201808260800 METAR MROC 260800Z 11013KT 9999 FEW030 22/18 A2997 NOSIG=
201808260900 METAR MROC 260900Z 11013KT CAVOK 22/17 A2996 NOSIG=
201808261000 METAR MROC 261000Z 09004KT 030V130 9999 VCTS BKN045 22/16 A2997 NOSIG=
201808261100 METAR MROC 261100Z 07011KT 9999 SCT035 22/18 A2998 NOSIG=
201808261200 METAR MROC 261200Z 06007KT CAVOK 21/18 A2998 NOSIG=
201808261300 METAR MROC 261300Z 08006KT 040V120 CAVOK 23/18 A3001 NOSIG=
201808261400 METAR MROC 261400Z 11008KT 060V150 CAVOK 25/19 A3001 NOSIG=
201808261500 METAR MROC 261500Z 31005KT 260V030 9999 SCT040 26/19 A3003 NOSIG=
201808261600 METAR MROC 261600Z 24005KT 9999 SCT040 SCT100 25/20 A3004 NOSIG=
201808261700 METAR MROC 261700Z 25007KT 220V280 9999 SCT040 SCT100 25/20 A3003 NOSIG=
201808261800 METAR MROC 261800Z 10012KT 5000 -RA VCTS SCT025CB BKN100 22/18 A3004 NOSIG=
201808261900 METAR MROC 261900Z 24009KT 9999 SCT035 BKN100 21/19 A3001 RETSRA NOSIG=
201808262000 METAR MROC 262000Z 28005KT 240V340 9999 SCT035 BKN100 21/20 A2998 NOSIG=
201808262100 METAR MROC 262100Z 02003KT 330V050 9999 FEW040 BKN120 21/20 A2998 NOSIG=
201808262200 METAR MROC 262200Z 10009KT 9999 FEW045 BKN140 23/17 A2997 NOSIG=
201808262300 METAR MROC 262300Z 10009KT CAVOK 23/16 A2998 NOSIG=
201808270000 METAR MROC 270000Z 07006KT CAVOK 22/17 A2998 NOSIG=
201808270100 METAR MROC 270100Z 07008KT CAVOK 22/16 A2997 NOSIG=
201808270200 METAR MROC 270200Z 09003KT 040V150 CAVOK 22/16 A2997 NOSIG=
201808270300 METAR MROC 270300Z 07008KT CAVOK 22/16 A2998 NOSIG=
201808270400 METAR MROC NIL=
201808270500 METAR MROC NIL=
201808270600 METAR MROC NIL=
201808270700 METAR MROC 270700Z 08008KT 050V110 CAVOK 21/17 A2999 NOSIG=
201808270800 METAR MROC 270800Z 05010KT 030V090 CAVOK 21/16 A2996 NOSIG=
201808270900 METAR MROC 270900Z 07007KT 040V100 CAVOK 20/16 A2996 NOSIG=
201808271000 METAR MROC 271000Z 04008KT CAVOK 21/16 A2998 NOSIG=
201808271100 METAR MROC 271100Z 06010KT CAVOK 20/16 A2998 NOSIG=
201808271200 METAR MROC 271200Z 03006KT 360V060 CAVOK 20/16 A2999 NOSIG=
201808271300 METAR MROC 271300Z VRB02KT CAVOK 21/16 A3002 NOSIG=
201808271400 METAR MROC 271400Z VRB02KT CAVOK 22/17 A3002 NOSIG=
201808271500 METAR MROC 271500Z 08006KT 040V110 9999 FEW040 SCT110 24/18 A3003 NOSIG=
201808271600 METAR MROC 271600Z 11006KT 080V150 9999 FEW040 SCT120 25/18 A3004 NOSIG=
201808271700 METAR MROC 271700Z 27004KT 220V340 9999 FEW035 BKN140 25/19 A3005 NOSIG=
201808271800 METAR MROC 271800Z 27007KT 250V310 9999 FEW035 SCT110 24/19 A3003 NOSIG=
201808271900 METAR MROC 271900Z 25007KT 220V280 9999 FEW035 SCT130 24/19 A2999 NOSIG=
201808272000 METAR MROC 272000Z 24007KT 180V300 9999 VCSH FEW025TCU FEW060 SCT130 26/20 A2997 BECMG SHRA=
201808272100 METAR MROC 272100Z 22009KT 9999 FEW025 SCT035 BKN100 24/20 A2997 NOSIG=
201808272200 METAR MROC 272200Z 25009KT 210V280 9999 FEW020 SCT035 BKN100 23/20 A2997 NOSIG=
201808272300 METAR MROC 272300Z 25007KT 9999 FEW010 SCT020 BKN035 21/20 A2998 NOSIG=
201808280000 METAR MROC 280000Z VRB02KT 9999 FEW035 SCT100 BKN200 21/20 A2999 NOSIG=
201808280100 METAR MROC 280100Z VRB02KT 9999 FEW020 BKN200 21/20 A2998 NOSIG=
201808280200 METAR MROC 280200Z VRB02KT 9999 FEW020 21/20 A3000 NOSIG=
201808280300 METAR MROC 280300Z 04004KT 010V080 CAVOK 21/19 A3001 NOSIG=
201808280400 METAR MROC 280400Z VRB02KT CAVOK 21/19 A3002 NOSIG=
201808280500 METAR MROC 280500Z 07004KT CAVOK 21/18 A3002 NOSIG=
201808280600 METAR MROC 280600Z 03006KT CAVOK 20/18 A3001 NOSIG=
201808280700 METAR MROC 280700Z 19002KT CAVOK 19/17 A3000 NOSIG=
201808280800 METAR MROC 280800Z 04004KT CAVOK 19/17 A2998 NOSIG=
201808280900 METAR MROC 280900Z 03002KT CAVOK 18/17 A2998 NOSIG=
201808281000 METAR MROC 281000Z 07004KT CAVOK 18/17 A2998 NOSIG=
201808281100 METAR MROC 281100Z 07007KT CAVOK 19/17 A2998 NOSIG=
201808281200 METAR MROC 281200Z 07006KT CAVOK 18/16 A2998 NOSIG=
201808281300 METAR MROC 281300Z 08006KT 9999 FEW040 BKN250 22/18 A3000 NOSIG=
201808281400 METAR MROC 281400Z 11005KT 010V160 9999 FEW035 BKN250 25/18 A3001 NOSIG=
201808281500 METAR MROC 281500Z 13009KT 090V160 9999 FEW035 BKN250 26/18 A3002 NOSIG=
201808281600 METAR MROC 281600Z 08011KT 020V120 9999 SCT035 BKN100 26/17 A3003 NOSIG=
201808281700 METAR MROC 281700Z 05012G26KT 9999 FEW035 SCT045 BKN100 25/15 A3003 NOSIG=
201808281800 METAR MROC 281800Z 09014G24KT 9999 FEW035 SCT045 BKN100 25/17 A2999 NOSIG=
201808281900 METAR MROC 281900Z 12013KT 090V150 9999 FEW045 SCT060 BKN100 26/17 A2997 NOSIG=
201808282000 METAR MROC 282000Z 13010G20KT 080V180 9999 FEW035 SCT100 BKN200 26/17 A2997 NOSIG=
201808282100 METAR MROC 282100Z 11011KT 070V140 9999 SCT040 OVC120 25/18 A2995 NOSIG=
201808282200 METAR MROC 282200Z 12009KT 080V150 9999 FEW001 SCT045 OVC110 24/18 A2995 NOSIG=
201808282300 METAR MROC 282300Z 11007KT 080V140 9999 SCT045 BKN130 24/17 A2996 NOSIG=
201808290000 METAR MROC 290000Z 10006KT 060V140 9999 SCT045 23/17 A2998 NOSIG=
201808290100 METAR MROC 290100Z 11006KT 070V140 9999 VCTS FEW045 22/17 A3001 NOSIG=
201808290200 METAR MROC 290200Z 13003KT 090V210 CAVOK 21/18 A3003 NOSIG=
201808290300 METAR MROC 290300Z VRB02KT CAVOK 21/18 A3005 NOSIG=
201808290400 METAR MROC 290400Z VRB02KT CAVOK 21/19 A3007 NOSIG=
201808290500 METAR MROC 290500Z 09003KT CAVOK 20/18 A3004 NOSIG=
201808290600 METAR MROC 290600Z 05005KT CAVOK 20/18 A3003 NOSIG=
201808290700 METAR MROC 290700Z 05003KT 360V080 CAVOK 20/18 A3001 NOSIG=
201808290800 METAR MROC 290800Z 05005KT CAVOK 20/17 A3000 NOSIG=
201808290900 METAR MROC 290900Z 05005KT 9999 FEW040 SCT180 21/17 A2999 NOSIG=
201808291000 METAR MROC 291000Z 04007KT 9999 FEW040 21/17 A2999 NOSIG=
201808291100 METAR MROC 291100Z 07007KT 9999 FEW040 21/17 A2998 NOSIG=
201808291200 METAR MROC 291200Z 08005KT 9999 FEW040 20/17 A3000 NOSIG=
201808291300 METAR MROC 291300Z 02006KT 360V070 9999 FEW035 22/18 A3001 NOSIG=
201808291400 METAR MROC 291400Z 10012KT 070V130 CAVOK 25/18 A3001 NOSIG=
201808291500 METAR MROC 291500Z 08015G25KT 9999 FEW035 27/18 A3002 NOSIG=
201808291600 METAR MROC 291600Z 09012KT 070V130 9999 FEW035 SCT200 28/18 A3003 NOSIG=
201808291700 METAR MROC 291700Z 08014G24KT 050V110 9999 SCT045 BKN180 28/18 A3002 NOSIG=
201808291800 METAR MROC 291800Z 08011KT 050V110 9999 FEW045 BKN200 28/18 A3000 NOSIG=
201808291900 METAR MROC 291900Z 06014KT 9999 FEW040 BKN200 28/18 A2998 NOSIG=
201808292000 METAR MROC 292000Z 07010KT 030V100 9999 FEW040 BKN200 28/17 A2996 NOSIG=
201808292100 METAR MROC 292100Z 09013KT 9999 SCT040 BKN100 27/16 A2995 NOSIG=
201808292200 METAR MROC 292200Z 10009KT 070V130 9999 FEW040 BKN100 26/17 A2995 NOSIG=
201808292300 METAR MROC 292300Z 09007KT 9999 FEW040 BKN120 25/17 A2998 NOSIG=
201808300000 METAR MROC 300000Z 11006KT 060V180 9999 FEW040 BKN120 23/18 A2999 NOSIG=
201808300100 METAR MROC 300100Z 11011KT 9999 FEW040 BKN120 22/18 A2999 NOSIG=
201808300200 METAR MROC 300200Z 08006KT 050V110 CAVOK 22/18 A3001 NOSIG=
201808300300 METAR MROC 300300Z 07007KT 050V110 CAVOK 22/17 A3003 NOSIG=
201808300400 METAR MROC 300400Z 12008KT 090V160 CAVOK 22/17 A3003 NOSIG=
201808300500 METAR MROC 300500Z 10006KT 040V140 CAVOK 22/17 A3003 NOSIG=
201808300600 METAR MROC 300600Z 33003KT 280V010 CAVOK 21/18 A3001 NOSIG=
201808300700 METAR MROC 300700Z VRB02KT CAVOK 21/18 A3001 NOSIG=
201808300800 METAR MROC 300800Z 07005KT 030V130 CAVOK 20/17 A2999 NOSIG=
201808300900 METAR MROC 300900Z 10008KT 070V140 CAVOK 21/18 A2998 NOSIG=
201808301000 METAR MROC 301000Z 06006KT 010V090 CAVOK 22/17 A2997 NOSIG=
201808301100 METAR MROC 301100Z VRB02KT CAVOK 20/17 A2996 NOSIG=
201808301200 METAR MROC 301200Z 06005KT CAVOK 19/17 A3000 NOSIG=
201808301300 METAR MROC 301300Z 02004KT 360V060 9999 FEW040 BKN120 21/17 A3003 NOSIG=
201808301400 METAR MROC 301400Z 08007KT 9999 FEW040 BKN120 22/18 A3002 NOSIG=
201808301500 METAR MROC 301500Z 11014KT 9999 FEW040 BKN150 25/18 A3001 NOSIG=
201808301600 METAR MROC 301600Z 11015KT 9999 FEW040 BKN120 25/17 A3003 NOSIG=
201808301700 METAR MROC 301700Z 10011KT 9999 FEW040 BKN120 25/17 A3002 NOSIG=
201808301800 METAR MROC 301800Z 11015G25KT 9999 FEW040 BKN120 24/18 A3000 NOSIG=
201808301900 METAR MROC 301900Z 11014KT 090V150 9999 FEW040 BKN120 24/18 A2999 BECMG -RA=
201808302000 METAR MROC 302000Z 11012KT 9999 FEW040 BKN120 24/18 A2998 NOSIG=
201808302100 METAR MROC 302100Z 11012KT CAVOK 25/17 A2994 NOSIG=
201808302200 METAR MROC 302200Z 099003KT 040V130 CAVOK 25/17 A2993 NOSIG=
201808302300 METAR MROC 302300Z 24007KT 9999 SCT007 OVC140 22/21 A2994 NOSIG=
201808310000 METAR MROC 310000Z VRB02KT CAVOK 22/21 A2996 NOSIG=
201808310100 METAR MROC 310100Z 29003KT 250V320 CAVOK 22/21 A2998 NOSIG=
201808310200 METAR MROC 310200Z 26005KT 9999 FEW006 OVC140 21/21 A2999 NOSIG=
201808310300 METAR MROC 310300Z 22006KT 8000 VCFG SCT006 OVC140 21/20 A3000 NOSIG=
201808310400 METAR MROC 310400Z VRB01KT 8000 2000SW BCFG FEW001 SCT010 21/20 A3000 NOSIG=
201808310500 METAR MROC 310500Z 10006KT 9999 FEW015 19/16 A2999 NOSIG=
201808310600 METAR MROC 310600Z 08007KT CAVOK 20/16 A2998 NOSIG=
201808310700 METAR MROC 310700Z 04008KT CAVOK 19/16 A2996 NOSIG=
201808310800 METAR MROC 310800Z 07006KT CAVOK 19/15 A2996 NOSIG=
201808310900 METAR MROC 310900Z 07006KT 040V100 CAVOK 20/14 A2995 NOSIG=
201808311000 METAR MROC 311000Z 05007KT 020V090 CAVOK 20/15 A2995 NOSIG=
201808311100 METAR MROC 311100Z 06009KT CAVOK 20/15 A2997 NOSIG=
201808311200 METAR MROC 311200Z 09007KT 060V130 CAVOK 21/15 A2998 NOSIG=
201808311300 METAR MROC 311300Z 07004KT 040V110 CAVOK 21/15 A3000 NOSIG=
201808311400 METAR MROC 311400Z VRB02KT CAVOK 22/16 A3003 NOSIG=
201808311500 METAR MROC 311500Z 23003KT 200V260 CAVOK 22/17 A3004 NOSIG=
201808311600 METAR MROC 311600Z 27006KT 240V330 CAVOK 22/17 A3006 NOSIG=
201808311700 METAR MROC 311700Z 27006KT 230V320 CAVOK 23/19 A3004 NOSIG=
201808311800 METAR MROC 311800Z 27004KT 190V330 CAVOK 23/19 A3001 NOSIG=
201808311900 METAR MROC 311900Z VRB02KT CAVOK 25/18 A2997 NOSIG=
201808312000 METAR MROC 312000Z VRB02KT CAVOK 25/19 A2995 NOSIG=
201808312100 METAR MROC 312100Z 24003KT 180V260 CAVOK 25/19 A2994 NOSIG=
201808312200 METAR MROC 312200Z 25005KT 220V280 9999 FEW040 OVC130 23/21 A2994 NOSIG=
201808312300 METAR MROC 312300Z 23004KT 9999 FEW008 BKN130 22/20 A2994 NOSIG=
201809010000 METAR MROC 010000Z 29003KT 210V360 8000 BCFG FEW003 BKN160 21/20 A2996 BECMG 5000=
201809010100 METAR MROC 010100Z VRB04KT 9000 VCFG FEW005 BKN160 21/20 A2997 NOSIG=
201809010200 METAR MROC 010200Z VRB02KT 9999 VCFG FEW008 SCT170 21/20 A2998 NOSIG=
201809010300 METAR MROC 010300Z VRB01KT 9999 FEW010 SCT180 21/18 A2999 NOSIG=
201809010400 METAR MROC 010400Z VRB02KT CAVOK 20/19 A2999 NOSIG=
201809010500 METAR MROC 010500Z VRB02KT 9999 FEW010 SCT200 20/18 A2999 NOSIG=
201809010600 METAR MROC 010600Z VRB02KT 8000 VCFG FEW005 SCT020 20/19 A2999 NOSIG=
201809010700 METAR MROC 010700Z VRB02KT 8000 VCFG SCT004 BKN025 20/19 A2998 NOSIG=
201809010800 METAR MROC 010800Z VRB01KT 8000 VCFG SCT005 BKN025 20/19 A2996 NOSIG=
201809010900 METAR MROC 010900Z 00000KT 9999 SCT025 19/18 A2995 NOSIG=
201809011000 METAR MROC 011000Z 12004KT 9999 FEW020 19/18 A2995 NOSIG=
201809011100 METAR MROC 011100Z 28004KT 240V330 9999 FEW010 19/18 A2998 NOSIG=
201809011200 METAR MROC 011200Z 10004KT 9999 FEW010 18/17 A3000 NOSIG=
201809011300 METAR MROC 011300Z VRB02KT 7000 VCFG FEW002 SCT250 20/19 A3002 NOSIG=
201809011400 METAR MROC 011400Z 09004KT 050V140 CAVOK 22/19 A3001 NOSIG=
201809011500 METAR MROC 011500Z 18004KT 120V270 CAVOK 26/18 A3001 BECMG 25006KT=
201809011600 METAR MROC 011600Z 24010KT CAVOK 27/21 A3001 NOSIG=
201809011700 METAR MROC 011700Z 25010KT 210V280 9999 FEW040 BKN250 26/20 A3001 NOSIG=
201809011800 METAR COR MROC 011800Z 25010KT 220V280 9999 FEW020 SCT200 26/22 A2999 NOSIG=
201809011900 METAR MROC 011900Z 25011G21KT 210V280 9999 VCTS FEW020TCU SCT070 26/21 A2996 BECMG RA=
201809012000 METAR MROC NIL=
201809012100 METAR MROC 012100Z VRB02KT 9999 FEW015 SCT035 BKN100 23/20 A2995 RETSRA NOSIG=
201809012200 METAR MROC 012200Z 22004KT 9999 FEW015 SCT025 BKN200 23/21 A2994 NOSIG=
201809012300 METAR MROC 012300Z 27005KT 240V310 8000 3000N VCFG FEW005 SCT015 BKN100 22/21 A2995 BECMG 5000 BR BKN015=
201809020000 METAR MROC 020000Z 25003KT 220V280 9999 -RA FEW010 SCT040 BKN100 21/21 A2998 NOSIG=
201809020100 METAR MROC 020100Z 24002KT 9999 -RA FEW005 SCT010 BKN100 21/20 A2999 NOSIG=
201809020200 METAR MROC 020200Z 18003KT 9999 FEW005 SCT015 BKN100 21/21 A3001 NOSIG=
201809020300 METAR MROC 020300Z VRB02KT 9999 FEW002 SCT015 BKN100 21/21 A3003 NOSIG=
201809020400 METAR MROC 020400Z 05003KT 010V080 CAVOK 21/20 A3001 NOSIG=
201809020500 METAR MROC 020500Z 04003KT CAVOK 21/20 A2999 NOSIG=
201809020600 METAR MROC 020600Z 04005KT 360V080 CAVOK 21/18 A2995 NOSIG=
201809020700 METAR MROC 020700Z 07009KT CAVOK 22/17 A2993 NOSIG=
201809020800 METAR MROC 020800Z 10009KT 070V130 CAVOK 22/18 A2992 NOSIG=
201809020900 METAR MROC 020900Z VRB04KT CAVOK 20/18 A2994 NOSIG=
201809021000 METAR MROC 021000Z 05007KT CAVOK 20/18 A2995 NOSIG=
201809021100 METAR MROC 021100Z 05006KT 030V090 CAVOK 19/17 A2995 NOSIG=
201809021200 METAR MROC 021200Z 08008KT CAVOK 20/17 A2995 NOSIG=
201809021300 METAR MROC 021300Z 07008KT 040V110 CAVOK 22/18 A2997 NOSIG=
201809021400 METAR MROC 021400Z 13012KT 100V160 CAVOK 25/18 A2997 NOSIG=
201809021500 METAR MROC 021500Z 25006KT CAVOK 25/20 A2999 NOSIG=
201809021600 METAR MROC 021600Z 26008KT 230V300 CAVOK 25/20 A2999 NOSIG=
201809021700 METAR MROC 021700Z 23005KT 200V270 9999 FEW035 BKN200 25/20 A2999 NOSIG=
201809021800 METAR MROC 021800Z 24006KT 200V260 9999 SCT035 BKN050 25/20 A2997 NOSIG=
201809021900 METAR MROC 021900Z 24005KT 210V270 9999 FEW025 SCT035 BKN050 24/20 A2994 NOSIG=
201809022000 METAR MROC 022000Z 19006KT 110V230 9999 4000SW -SHRA FEW015 SCT025 BKN045 23/21 A2993 BECMG 2000 SHRA=
201809022100 METAR MROC 022100Z 25006KT 9000 2500SW FEW001 OVC140 23/22 A2992 NOSIG=
201809022200 METAR MROC 022200Z 25008KT 9000 3500W FEW001 SCT015 BKN100 22/21 A2993 BECMG BKN015=
201809022300 METAR MROC 022300Z VRB04KT 9999 FEW001 SCT020 BKN150 21/20 A2994 NOSIG=
201809030000 METAR MROC 030000Z 02004KT 9999 FEW010 BKN130 22/20 A2993 NOSIG=
201809030100 METAR MROC 030100Z VRB02KT CAVOK 21/20 A2992 NOSIG=
201809030200 METAR MROC 030200Z 29003KT 210V330 CAVOK 21/20 A2994 NOSIG=
201809030300 METAR MROC 030300Z 27004KT 7000 2500SW BCFG FEW001 SCT015 BKN050 20/20 A2998 NOSIG=
201809030400 METAR MROC 030400Z 03004KT 360V060 9999 SCT015 21/20 A2999 NOSIG=
201809030500 METAR MROC 030500Z 07003KT 9999 FEW020 21/19 A2998 NOSIG=
201809030600 METAR MROC 030600Z VRB01KT 9999 FEW040 20/19 A2996 NOSIG=
201809030700 METAR MROC 030700Z 04005KT 9999 FEW040 20/18 A2994 NOSIG=
201809030800 METAR MROC 030800Z 02004KT 360V060 9999 SCT035 19/18 A2994 NOSIG=
201809030900 METAR MROC 030900Z 06009KT CAVOK 20/17 A2993 NOSIG=
201809031000 METAR MROC 031000Z 09003KT 070V150 CAVOK 19/17 A2994 NOSIG=
201809031100 METAR MROC 031100Z 05006KT 9999 FEW040 SCT130 20/16 A2995 NOSIG=
201809031200 METAR MROC 031200Z 06003KT CAVOK 19/17 A2997 NOSIG=
201809031300 METAR MROC 031300Z 03004KT 010V070 CAVOK 21/17 A2999 NOSIG=
201809031400 METAR MROC 031400Z 10004KT 060V130 CAVOK 23/19 A2999 BECMG 22006KT=
201809031500 METAR MROC 031500Z VRB02KT CAVOK 25/18 A3000 BECMG 22006KT=
201809031600 METAR MROC 031600Z VRB03KT CAVOK 27/19 A3000 BECMG 22006KT=
201809031700 METAR MROC 031700Z 24008KT 220V280 9999 FEW045 27/20 A2999 NOSIG=
201809031800 METAR MROC 031800Z 23010KT 200V260 9999 FEW025TCU SCT045 27/19 A2996 NOSIG=
201809031900 METAR MROC 031900Z 23011KT 9999 -TSRA FEW025CB BKN045 25/19 A2994 BECMG 5000 TSRA=
201809032000 METAR MROC 032000Z 25004KT 220V280 9999 TS FEW010 BKN015 23/22 A2991 RETSRA NOSIG=
201809032100 METAR MROC 032100Z 23004KT 180V290 8000 VCFG FEW005 SCT020 BKN070 24/22 A2991 NOSIG=
201809032200 METAR MROC 032200Z 23005KT 9999 FEW010 SCT030 BKN070 21/19 A2992 NOSIG=
201809032300 METAR MROC 032300Z VRB04KT 9999 FEW010 SCT030 BKN100 22/20 A2995 NOSIG=
201809040000 METAR MROC 040000Z 09004KT 9999 -RA FEW030 BKN100 22/20 A2995 NOSIG=
201809040100 METAR MROC 040100Z 08004KT CAVOK 22/18 A2994 NOSIG=
201809040200 METAR MROC 040200Z 24003KT CAVOK 20/19 A2994 NOSIG=
201809040300 METAR MROC 040300Z VRB02KT CAVOK 20/19 A2995 NOSIG=
201809040400 METAR MROC 040400Z 06006KT CAVOK 21/18 A2996 NOSIG=
201809040500 METAR MROC 040500Z 35003KT 330V030 CAVOK 20/18 A2995 NOSIG=
201809040600 METAR MROC 040600Z 05007KT 010V070 CAVOK 21/17 A2995 NOSIG=
201809040700 METAR MROC 040700Z 02005KT CAVOK 20/18 A2994 NOSIG=
201809040800 METAR MROC 040800Z 05006KT CAVOK 20/18 A2993 NOSIG=
201809040900 METAR MROC 040900Z 04003KT CAVOK 20/18 A2992 NOSIG=
201809041000 METAR MROC 041000Z VRB02KT CAVOK 19/17 A2993 NOSIG=
201809041100 METAR MROC 041100Z 04007KT CAVOK 19/17 A2993 NOSIG=
201809041200 METAR MROC 041200Z 03003KT 9999 FEW035 BKN200 20/17 A2996 NOSIG=
201809041300 METAR MROC 041300Z VRB02KT CAVOK 22/18 A2999 NOSIG=
201809041400 METAR MROC 041400Z 10007KT 060V140 9999 FEW040 BKN100 24/18 A3001 NOSIG=
201809041500 METAR MROC 041500Z 09010KT 9999 FEW030 SCT100 26/18 A3000 NOSIG=
201809041600 METAR MROC 041600Z 10010KT 070V140 9999 FEW030 SCT120 27/17 A2999 NOSIG=
201809041700 METAR MROC 041700Z 08010KT 050V120 9999 FEW040 SCT120 28/16 A2998 NOSIG=
201809041800 METAR MROC 041800Z 09012KT 9999 SCT040 28/16 A2995 NOSIG=
201809041900 METAR MROC 041900Z 12011KT 070V170 9999 SCT040 29/18 A2992 NOSIG=
201809042000 METAR MROC 042000Z 12009KT 080V160 9999 SCT040 28/18 A2990 NOSIG=
201809042100 METAR MROC 042100Z 05011KT 9999 FEW025 SCT120 26/21 A2990 NOSIG=
201809042200 METAR MROC 042200Z 250008KT 210V270 9999 SCT020 25/21 A2992 NOSIG=
201809042300 METAR MROC 042300Z 250008KT 9999 FEW010 SCT040 23/22 A2994 NOSIG=
201809050000 METAR MROC 050000Z 25006KT 8000 VCFG SCT006 SCT030 22/22 A2996 BECMG 5000 BR=
201809050100 METAR MROC 050100Z 23004KT 190V260 9999 FEW004 SCT020 22/21 A2999 NOSIG=
201809050200 METAR MROC 050200Z VRB02KT 9999 FEW006 SCT020 22/21 A3000 NOSIG=
201809050300 METAR MROC 050300Z 33003KT 290V040 9999 SCT010 22/21 A3001 NOSIG=
201809050400 METAR MROC 050400Z 26007KT 230V290 9999 FEW005 BKN070 21/20 A3003 NOSIG=
201809050500 METAR MROC 050500Z 29004KT 9999 FEW008 SCT020 21/20 A3002 NOSIG=
201809050600 METAR MROC 050600Z 33002KT 9999 FEW005 SCT020 21/20 A3000 NOSIG=
201809050700 METAR MROC 050700Z 07003KT 9999 FEW005 SCT020 21/20 A2997 NOSIG=
201809050800 METAR MROC 050800Z 05008KT CAVOK 21/19 A2994 NOSIG=
201809050900 METAR MROC 050900Z 06009KT CAVOK 21/18 A2991 NOSIG=
201809051000 METAR MROC 051000Z 07011KT CAVOK 21/17 A2992 NOSIG=
201809051100 METAR MROC 051100Z 08007KT CAVOK 21/17 A2992 NOSIG=
201809051200 METAR MROC 051200Z 09010KT 070V130 CAVOK 22/17 A2994 NOSIG=
201809051300 METAR MROC 051300Z 07005KT 040V100 22/17 A2998 NOSIG=
201809051400 METAR MROC 051400Z 11008KT 080V140 CAVOK 23/18 A3000 NOSIG=
201809051500 METAR MROC 051500Z 12008KT 090V170 CAVOK 25/18 A3001 NOSIG=
201809051600 METAR MROC 051600Z 12007KT 080V170 9999 FEW045 BKN130 26/17 A3001 NOSIG=
201809051700 METAR MROC 051700Z VRB04KT 9999 SCT045 SCT200 27/20 A3000 NOSIG=
201809051800 METAR MROC 051800Z 26008KT 220V290 9999 -RA SCT040 26/20 A2997 NOSIG=
201809051900 METAR MROC 051900Z 27006KT 240V310 9999 SCT030 SCT140 26/20 A2993 NOSIG=
201809052000 METAR MROC 052000Z 24015KT 9999 -RA VCTS SCT010CB BKN030 24/21 A2992 BECMG RA=
201809052100 METAR MROC 052100Z COR 24004KT 190V280 1200 R07/2000D +SHRA VCTS FEW004 FEW010CB OVC015 21/21 A2994 RETS NOSIG=
201809052200 METAR MROC 052200Z 24008KT 210V270 5000 -RA BR SCT003 BKN030 21/21 A2995 NOSIG=
201809052300 METAR MROC 052300Z 22006KT 7000 -RA VCFG FEW003 SCT025 21/20 A2997 NOSIG=
201809060000 METAR MROC 060000Z VRB01KT 6000 RA VCFG FEW003 SCT010 BKN030 21/20 A3000 NOSIG=
201809060100 METAR MROC 060100Z 09007KT 070V130 9999 -RA VCTS SCT030 BKN080 20/19 A3002 NOSIG=
201809060200 METAR MROC 060200Z 09003KT 040V130 CAVOK 20/18 A3004 NOSIG=
201809060300 METAR MROC 060300Z VRB02KT CAVOK 20/19 A3006 NOSIG=
201809060400 METAR MROC 060400Z 09005KT 050V120 CAVOK 20/18 A3006 NOSIG=
201809060500 METAR MROC 060500Z 05006KT CAVOK 20/17 A3004 NOSIG=
201809060600 METAR MROC 060600Z 09006KT CAVOK 20/17 A3003 NOSIG=
201809060700 METAR MROC 060700Z VRB02KT CAVOK 20/17 A3001 NOSIG=
201809060800 METAR MROC 060800Z 09005KT CAVOK 18/17 A2999 NOSIG=
201809060900 METAR MROC 060900Z 02003KT 350V050 CAVOK 18/17 A2998 NOSIG=
201809061000 METAR MROC 061000Z 08004KT 050V110 CAVOK 18/16 A2999 NOSIG=
201809061100 METAR MROC 061100Z 03004KT CAVOK 18/16 A2999 NOSIG=
201809061200 METAR MROC 061200Z 07007KT CAVOK 19/16 A3000 NOSIG=
201809061300 METAR MROC 061300Z 04005KT 020V080 CAVOK 22/17 A3001 NOSIG=
201809061400 METAR MROC 061400Z 12010KT 080V150 CAVOK 24/17 A3002 NOSIG=
201809061500 METAR MROC 061500Z 11011KT 080V150 9999 FEW040 26/18 A3002 NOSIG=
201809061600 METAR MROC 061600Z COR 13006KT 090V190 9999 FEW045 27/17 A3003 BECMG 23007KT=
201809061700 METAR MROC 061700Z 25011KT 9999 FEW025 25/20 A3002 NOSIG=
201809061800 METAR MROC 061800Z 25011KT 210V280 9999 FEW020TCU SCT040 26/21 A3000 NOSIG=
201809061900 METAR MROC 061900Z 26010KT 9999 VCTS VCSH FEW020CB SCT035 25/21 A2998 BECMG 5000 TSRA=
201809062000 METAR MROC 062000Z 13004KT 080V180 5000 2200SW TSRA BR SCT010CB BKN050 19/18 A2998 BECMG 9999=
201809062100 METAR MROC 062100Z 08006KT 9999 2500SW -RA VCTS FEW005 SCT040 BKN100 19/18 A2997 RETSRA NOSIG=
201809062200 METAR MROC 062200Z 08003KT 060V120 9999 3000SW -RA FEW005 SCT040 BKN100 20/18 A2997 NOSIG=
201809062300 METAR MROC 062300Z VRB02KT 9999 -RA FEW040 BKN120 21/19 A2999 NOSIG=
201809070000 METAR MROC 070000Z 11003KT 9999 FEW040 BKN140 20/20 A3000 NOSIG=
201809070100 METAR MROC 070100Z 32003KT CAVOK 20/20 A3003 NOSIG=
201809070200 METAR MROC 070200Z VRB02KT CAVOK 21/20 A3004 NOSIG=
201809070300 METAR MROC 070300Z 03005KT CAVOK 21/19 A3006 NOSIG=
201809070400 METAR MROC 070400Z VRB02KT 9999 FEW006 20/19 A3007 NOSIG=
201809070500 METAR MROC 070500Z 32003KT 290V020 8000 VCFG FEW005 20/19 A3006 NOSIG=
201809070600 METAR MROC 070600Z 05006KT CAVOK 20/18 A3004 NOSIG=
201809070700 METAR MROC 070700Z 10004KT CAVOK 19/18 A3002 NOSIG=
201809070800 METAR MROC 070800Z 05005KT CAVOK 19/17 A3000 NOSIG=
201809070900 METAR MROC 070900Z 07006KT CAVOK 18/17 A2999 NOSIG=
201809071000 METAR MROC 071000Z 07006KT CAVOK 18/17 A2997 NOSIG=
201809071100 METAR MROC 071100Z 06004KT 030V120 CAVOK 18/16 A2998 NOSIG=
201809071200 METAR MROC 071200Z VRB02KT CAVOK 18/16 A2999 NOSIG=
201809071300 METAR MROC 071300Z 14004KT 100V180 CAVOK 20/18 A3002 NOSIG=
201809071400 METAR MROC 071400Z 21003KT 160V280 CAVOK 23/18 A3005 NOSIG=
201809071500 METAR MROC 071500Z 25005KT 210V300 CAVOK 24/19 A3004 NOSIG=
201809071600 METAR MROC 071600Z 23008KT 9999 FEW045 BKN200 24/19 A3005 NOSIG=
201809071700 METAR MROC 071700Z 25010KT 210V290 9999 FEW045 BKN200 25/20 A3004 NOSIG=
201809071800 METAR MROC 071800Z 26009KT 230V300 9999 BKN035 SCT200 25/20 A3002 NOSIG=
201809071900 METAR MROC 071900Z 23010KT 9999 VCTS FEW020CB SCT035 BKN200 25/20 A2999 BECMG 5000 TSRA=
201809072000 METAR MROC 072000Z 24008KT 210V290 9999 VCTS FEW020CB SCT030 BKN100 25/21 A2997 BECMG 5000 TSRA=
201809072100 METAR MROC 072100Z 15004KT 110V220 5000 2000SW -RA BR VCTS SCT001 BKN045 21/20 A2997 NOSIG=
201809072200 METAR MROC 072200Z 26005KT 170V330 9999 -RA SCT010 BKN050 22/21 A2995 NOSIG=
201809072300 METAR MROC 072300Z 21005KT 170V230 5000 2000SW -TSRA BR FEW001 SCT020 BKN060 21/20 A2997 BECMG 1500 RA=
201809080000 METAR MROC 080000Z 21004KT 170V260 5000 2000SW -RA BR FEW001 SCT010 BKN020 21/20 A3000 RETS NOSIG=
201809080100 METAR MROC 080100Z 07004KT 8000 -RA SCT020 BKN080 20/20 A3001 NOSIG=
201809080200 METAR MROC 080200Z 25003KT 9999 -RA FEW015 SCT025 BKN080 21/20 A3004 NOSIG=
201809080300 METAR MROC 080300Z VRB02KT 9999 FEW001 SCT020 21/20 A3006 NOSIG=
201809080400 METAR MROC NIL=
201809080500 METAR MROC 080500Z 00000KT 7000 2500S BCFG FEW001 20/20 A3004 NOSIG=
201809080600 METAR MROC 080600Z 30002KT 8000 VCFG FEW005 SCT030 20/20 A3002 NOSIG=
201809080700 METAR MROC 080700Z 02002KT 9999 FEW010 BKN030 20/19 A2999 NOSIG=
201809080800 METAR MROC 080800Z 09005KT 9999 FEW025 BKN180 20/19 A2996 NOSIG=
201809080900 METAR MROC 080900Z 05004KT CAVOK 20/19 A2995 NOSIG=
201809081000 METAR MROC 081000Z 03004KT 9999 SCT030 19/18 A2996 NOSIG=
201809081100 METAR MROC 081100Z 13003KT 100V160 9999 FEW025 BKN090 19/19 A2997 NOSIG=
201809081200 METAR MROC 081200Z 10003KT 9999 FEW035 SCT120 19/19 A2999 NOSIG=
201809081300 METAR MROC 081300Z 08005KT CAVOK 22/19 A3000 NOSIG=
201809081400 METAR MROC 081400Z 11003KT 050V130 CAVOK 24/18 A3001 BECMG 24007KT=
201809081500 METAR MROC 081500Z VRB02KT CAVOK 26/18 A3001 BECMG 24007KT=
201809081600 METAR MROC 081600Z 25012KT 9999 -RA FEW010 SCT045 BKN100 23/20 A3002 NOSIG=
201809081700 METAR MROC 081700Z 25010KT 9999 -RA FEW010 BKN080 23/19 A3002 NOSIG=
201809081800 METAR MROC 081800Z 27009KT 9000 -RA SCT007 BKN020 21/20 A3001 BECMG 5000 RA BR=
201809081900 METAR MROC 081900Z 27006KT 240V300 9999 -RA SCT010 BKN100 21/19 A3000 NOSIG=
201809082000 METAR MROC 082000Z 24004KT 200V280 9999 FEW010 BKN130 22/20 A2997 NOSIG=
201809082100 METAR MROC 082100Z 25007KT 9999 FEW010 SCT040 BKN100 23/19 A2996 NOSIG=
201809082200 METAR MROC 082200Z 26006KT 220V290 9999 FEW010 SCT040 BKN100 22/20 A2997 NOSIG=
201809082300 METAR MROC 082300Z 32004KT 270V340 3000 +RA BR FEW002 BKN030 20/20 A2998 NOSIG=
201809090000 METAR MROC 090000Z 06004KT 030V130 9999 -RA FEW030 OVC100 21/20 A2998 NOSIG=
201809090100 METAR MROC 090100Z 08005KT CAVOK 21/20 A2998 NOSIG=
201809090200 METAR MROC 090200Z 07005KT CAVOK 21/19 A2997 NOSIG=
201809090300 METAR MROC 090300Z 04009KT 9999 -RA NSC 21/20 A3000 NOSIG=
201809090400 METAR MROC 090400Z 13003KT 090V160 CAVOK 21/19 A3002 NOSIG=
201809090500 METAR MROC 090500Z VRB02KT CAVOK 20/19 A3001 NOSIG=
201809090600 METAR MROC 090600Z 25005KT 9999 FEW015 BKN150 20/19 A3001 NOSIG=
201809090700 METAR MROC 090700Z 33004KT 9999 FEW015 SCT150 20/19 A2999 NOSIG=
201809090800 METAR MROC 090800Z 09003KT 9999 FEW015 BKN180 19/19 A2996 NOSIG=
201809090900 METAR MROC 090900Z 08005KT CAVOK 19/18 A2995 NOSIG=
201809091000 METAR MROC 091000Z 08005KT CAVOK 20/18 A2995 NOSIG=
201809091100 METAR MROC 091100Z 04005KT CAVOK 19/17 A2997 NOSIG=
201809091200 METAR MROC 091200Z 08003KT 050V140 1800 BR BKN002 18/18 A2999 BECMG 5000=
201809091300 METAR MROC 091300Z 03004KT 9999 FEW015 SCT040 BKN120 19/18 A3002 NOSIG=
201809091400 METAR MROC 091400Z VRB03KT 9999 SCT030 BKN200 22/18 A3003 NOSIG=
201809091500 METAR MROC 091500Z VRB02KT 9999 FEW030 BKN200 23/19 A3003 NOSIG=
201809091600 METAR MROC 091600Z VRB02KT CAVOK 24/19 A3001 NOSIG=
201809091700 METAR MROC 091700Z 26006KT 210V310 9999 FEW040 BKN200 25/19 A3000 NOSIG=
201809091800 METAR MROC 091800Z 25008KT 200V290 9999 FEW040 BKN200 27/20 A2998 NOSIG=
201809091900 METAR MROC 091900Z 24010KT 210V280 9999 SCT040 SCT200 26/21 A2996 NOSIG=
201809092000 METAR MROC 092000Z 23009KT 200V260 9999 SCT015 BKN040 24/21 A2994 NOSIG=
201809092100 METAR MROC 092100Z 22007KT 180V240 9999 FEW020 BKN110 23/20 A2993 BECMG RA=
201809092200 METAR MROC 092200Z 26009KT 9999 SCT008 BKN015 22/21 A2992 NOSIG=
201809092300 METAR MROC 092300Z 31005KT 9999 FEW010 SCT025 22/21 A2994 NOSIG=
201809100000 METAR MROC 100000Z 31004KT 280V040 9999 -RA FEW010 SCT020 22/21 A2997 NOSIG=
201809100100 METAR MROC 100100Z 36004KT 9999 RA SCT010 BKN025 22/21 A3001 NOSIG=
201809100200 METAR MROC 100200Z VRB02KT 9999 -RA SCT020 BKN100 21/20 A3003 NOSIG=
201809100300 METAR MROC 100300Z 16003KT 9999 -RA FEW035 BKN100 21/20 A3004 NOSIG=
201809100400 METAR MROC 100400Z 10003KT 9999 FEW025 BKN200 20/20 A3004 NOSIG=
201809100500 METAR MROC 100500Z 04005KT 9999 SCT020 BKN200 21/20 A3004 BECMG BKN015=
201809100600 METAR MROC 100600Z 06003KT 9999 FEW020 BKN170 20/19 A3002 NOSIG=
201809100700 METAR MROC 100700Z 08006KT CAVOK 19/18 A2999 NOSIG=
201809100800 METAR MROC 100800Z 08005KT CAVOK 19/18 A2996 NOSIG=
201809100900 METAR MROC 100900Z 08006KT CAVOK 20/18 A2993 NOSIG=
201809101000 METAR MROC 101000Z 10003KT 060V190 CAVOK 20/18 A2995 NOSIG=
201809101100 METAR MROC 101100Z VRB02KT CAVOK 19/18 A2998 NOSIG=
201809101200 METAR MROC 101200Z 05004KT CAVOK 19/18 A3000 NOSIG=
201809101300 METAR MROC 101300Z 10003KT 070V130 CAVOK 21/19 A3002 NOSIG=
201809101400 METAR MROC 101400Z VRB02KT CAVOK 24/19 A3003 NOSIG=
201809101500 METAR MROC 101500Z VRB03KT CAVOK 25/19 A3003 NOSIG=
201809101600 METAR MROC 101600Z 26008KT 230V300 CAVOK 25/21 A3003 NOSIG=
201809101700 METAR MROC 101700Z 24009KT 9999 SCT030 26/21 A3002 NOSIG=
201809101800 METAR MROC 101800Z 25009KT 9999 SCT025 25/21 A3000 NOSIG=
201809101900 METAR MROC 101900Z 24009KT 210V270 9999 SCT025 26/21 A2996 NOSIG=
201809102000 METAR MROC 102000Z 23009KT 9999 -RA VCTS SCT020 BKN130 24/21 A2995 NOSIG=
201809102100 METAR MROC 102100Z 03006KT 360V080 7000 3200S -TSRA VCFG FEW006 SCT015CB BKN040 22/20 A2998 NOSIG=
201809102200 METAR MROC 102200Z 31004KT 260V030 6000 2800SW -TSRA VCFG FEW007 FEW015CB BKN070 20/19 A2999 NOSIG=
201809102300 METAR MROC 102300Z 10005KT 9999 FEW010 BKN110 20/19 A2997 NOSIG=
201809110000 METAR MROC 110000Z 34004KT 310V050 9999 -RA FEW008 BKN130 21/20 A2997 NOSIG=
201809110100 METAR MROC 110100Z 13002KT CAVOK 20/20 A2999 NOSIG=
201809110200 METAR MROC 110200Z VRB02KT CAVOK 21/20 A3003 NOSIG=
201809110300 METAR MROC 110300Z 05003KT 360V110 CAVOK 21/19 A3003 NOSIG=
201809110400 METAR MROC 110400Z VRB02KT CAVOK 20/19 A3004 NOSIG=
201809110500 METAR MROC 110500Z 02003KT CAVOK 19/18 A3004 NOSIG=
201809110600 METAR MROC 110600Z 36005KT CAVOK 19/18 A3003 NOSIG=
201809110700 METAR MROC 110700Z 05007KT CAVOK 19/17 A3001 NOSIG=
201809110800 METAR MROC 110800Z 05005KT CAVOK 19/17 A2999 NOSIG=
201809110900 METAR MROC 110900Z 07008KT CAVOK 19/17 A2997 NOSIG=
201809111000 METAR MROC 111000Z VRB03KT CAVOK 18/17 A2999 NOSIG=
201809111100 METAR MROC 111100Z VRB02KT CAVOK 18/17 A3000 NOSIG=
201809111200 METAR MROC 111200Z 06006KT CAVOK 18/17 A3002 NOSIG=
201809111300 METAR COR MROC 111300Z 09006KT 050V110 CAVOK 22/19 A3002 NOSIG=
201809111400 METAR MROC 111400Z 09004KT 030V150 CAVOK 25/18 A3005 BECMG 24008KT=
201809111500 METAR MROC 111500Z 10011KT 070V150 CAVOK 26/19 A3004 NOSIG=
201809111600 METAR MROC 111600Z 11008KT 060V160 9999 FEW035 27/18 A3004 NOSIG=
201809111700 METAR MROC 111700Z 25011KT 9999 FEW040 26/21 A3003 NOSIG=
201809111800 METAR MROC 111800Z 25008KT 180V310 9999 FEW025TCU FEW040 27/22 A3001 NOSIG=
201809111900 METAR MROC 111900Z 23008KT 190V270 7000 -RA FEW020TCU FEW030 SCT110 25/22 A2998 NOSIG=
201809112000 METAR MROC 112000Z 26011KT 9999 VCTS VCSH FEW015CB FEW020 SCT060 25/23 A2998 RETSRA NOSIG=
201809112100 METAR MROC 112100Z 33005KT 280V040 9999 4000SW -TSRA SCT010CB BKN200 22/20 A2994 NOSIG=
201809112200 METAR MROC 112200Z 00000KT 8000 3000SW -TSRA VCFG SCT010CB BKN020 22/21 A2996 BECMG 5000 BR=
201809112300 METAR MROC 112300Z 25004KT 8000 -TS VCFG FEW005 FEW010CB SCT015 BKN025 22/21 A2997 RERA BECMG BKN010=
201809120000 METAR MROC 120000Z VRB02KT 8000 -RA VCFG FEW005 SCT010 BKN020 22/21 A3000 RETS NOSIG=
201809120100 METAR MROC 120100Z 07003KT 8000 VCFG FEW015 SCT100 21/21 A3000 NOSIG=
201809120200 METAR MROC 120200Z 00000KT 9999 FEW002 SCT025 21/21 A3003 NOSIG=
201809120300 METAR MROC 120300Z 06003KT 030V090 CAVOK 21/20 A3004 NOSIG=
201809120400 METAR MROC 120400Z 05004KT 9999 SCT030 21/20 A3005 NOSIG=
201809120500 METAR MROC 120500Z 06004KT 020V090 CAVOK 20/19 A3004 NOSIG=
201809120600 METAR MROC 120600Z 04004KT CAVOK 20/18 A3002 NOSIG=
201809120700 METAR MROC 120700Z 11004KT CAVOK 19/18 A3001 NOSIG=
201809120800 METAR MROC 120800Z 06004KT CAVOK 18/18 A2999 NOSIG=
201809120900 METAR MROC 120900Z 10005KT CAVOK 18/17 A2998 NOSIG=
201809121000 METAR MROC 121000Z 05004KT CAVOK 18/17 A2999 NOSIG=
201809121100 METAR MROC 121100Z 06005KT CAVOK 19/17 A2999 NOSIG=
201809121200 METAR MROC 121200Z 10005KT CAVOK 18/17 A3000 NOSIG=
201809121300 METAR MROC 121300Z 07003KT 030V090 CAVOK 21/18 A3002 NOSIG=
201809121400 METAR MROC 121400Z 08005KT 050V110 CAVOK 24/19 A3002 NOSIG=
201809121500 METAR MROC 121500Z 13007KT 090V190 CAVOK 27/19 A3002 BECMG 24006KT=
201809121600 METAR MROC 121600Z 09011KT 060V140 CAVOK 28/18 A3001 NOSIG=
201809121700 METAR MROC 121700Z 11007KT 060V180 9999 SCT035 29/18 A3000 NOSIG=
201809121800 METAR MROC 121800Z 13006KT 120V200 9999 FEW035 SCT060 29/17 A2998 BECMG 23007KT=
201809121900 METAR MROC 121900Z 25012KT 9999 SCT030 26/23 A2995 NOSIG=
201809122000 METAR MROC 122000Z 25011KT 9999 3000N -TSRA FEW012 FEW15CB BKN030 24/22 A2995 BECMG 5000=
201809122100 METAR MROC 122100Z 20006KT 120V230 9999 2500SW -TSRA BCFG FEW007 FEW010CB BKN025 21/18 A2995 BECMG 5000 BR=
201809122200 METAR MROC 122200Z 11005KT 9999 FEW005 BKN040 20/19 A2995 RETSRA NOSIG=
201809122300 METAR MROC NIL=
201809130000 METAR MROC 130000Z 34003KT 290V030 9999 FEW015 21/19 A2996 NOSIG=
201809130100 METAR MROC 130100Z 29003KT 9999 BKN025 21/20 A3000 NOSIG=
201809130200 METAR MROC NIL=
201809130300 METAR MROC NIL=
201809130400 METAR MROC 130400Z 12003KT 070V160 CAVOK 21/18 A3002 NOSIG=
201809130500 METAR MROC 130500Z 06004KT 010V100 CAVOK 21/18 A3002 NOSIG=
201809130600 METAR MROC 130600Z VRB02KT CAVOK 19/17 A3002 NOSIG=
201809130700 METAR MROC 130700Z 03003KT CAVOK 19/17 A3000 NOSIG=
201809130800 METAR MROC 130800Z 07003KT 9999 FEW030 18/17 A2999 NOSIG=
201809130900 METAR MROC 130900Z 09004KT 9999 FEW030 17/16 A2998 NOSIG=
201809131000 METAR MROC 131000Z 07006KT CAVOK 17/15 A2998 NOSIG=
201809131100 METAR MROC 131100Z 10003KT CAVOK 17/16 A2997 NOSIG=
201809131200 METAR MROC 131200Z 07008KT CAVOK 18/15 A2999 NOSIG=
201809131300 METAR MROC 131300Z 08005KT 010V100 CAVOK 21/16 A3000 NOSIG=
201809131400 METAR MROC 131400Z 05005KT 360V100 CAVOK 23/15 A3001 NOSIG=
201809131500 METAR MROC 131500Z 20003KT 120V250 CAVOK 26/16 A3001 NOSIG=
201809131600 METAR MROC 131600Z 24008KT CAVOK 26/18 A3001 NOSIG=
201809131700 METAR MROC 131700Z 24008KT 210V280 CAVOK 26/19 A3001 NOSIG=
201809131800 METAR MROC 131800Z 25007KT 210V320 9999 FEW045 27/19 A2999 NOSIG=
201809131900 METAR MROC 131900Z 26008KT 210V290 9999 FEW030 27/19 A2996 NOSIG=
201809132000 METAR MROC 132000Z 25009KT 210V270 9999 FEW025TCU FEW040 26/20 A2999 NOSIG=
201809132100 METAR MROC 132100Z 22008KT 180V240 9999 FEW010TCU SCT030 BKN100 25/22 A2991 BECMG SHRA=
201809132200 METAR MROC 132200Z 24009KT 9999 FEW010TCU SCT030 BKN070 25/22 A2992 BECMG SHRA=
201809132300 METAR MROC 132300Z 23009KT 9999 SCT030 BKN070 23/21 A2994 NOSIG=
201809140000 METAR MROC 140000Z 25008KT 9999 SCT030 BKN070 22/21 A2996 NOSIG=
201809140100 METAR MROC 140100Z 30004KT 280V340 9999 FEW030 SCT070 22/20 A2998 NOSIG=
201809140200 METAR MROC 140200Z VRB02KT 9999 FEW030 SCT070 22/20 A3000 NOSIG=
201809140300 METAR MROC 140300Z VRB03KT 9999 FEW030 SCT070 22/17 A3001 NOSIG=
201809140400 METAR MROC 140400Z 05003KT 9999 FEW035 21/20 A3003 NOSIG=
201809140500 METAR MROC 140500Z 00000KT 9999 SCT035 22/20 A3003 NOSIG=
201809140600 METAR MROC 140600Z VRB02KT 9999 BKN040 21/20 A3001 NOSIG=
201809140700 METAR MROC 140700Z 08003KT 9999 FEW040 21/18 A2999 NOSIG=
201809140800 METAR MROC 140800Z 06004KT CAVOK 20/19 A2997 NOSIG=
201809140900 METAR MROC 140900Z 09003KT 060V120 CAVOK 19/18 A2997 NOSIG=
201809141000 METAR MROC 141000Z 10004KT CAVOK 18/17 A2998 NOSIG=
201809141100 METAR MROC 141100Z 09003KT CAVOK 18/17 A2999 NOSIG=
201809141200 METAR MROC 141200Z 09005KT CAVOK 18/17 A3001 NOSIG=
201809141300 METAR MROC 141300Z 07004KT CAVOK 21/18 A3001 NOSIG=
201809141400 METAR MROC 141400Z 11003KT 060V160 CAVOK 23/19 A3002 NOSIG=
201809141500 METAR MROC 141500Z VRB02KT CAVOK 26/18 A3002 NOSIG=
201809141600 METAR MROC 141600Z VRB05KT 9999 FEW040 SCT120 27/18 A3002 BECMG 24007KT=
201809141700 METAR MROC 141700Z 13005KT 090V120 9999 FEW040 BKN120 27/18 A3000 BECMG 24007KT=
201809141800 METAR MROC 141800Z 12005KT 070V160 9999 SCT040 SCT120 28/18 A2997 NOSIG=
201809141900 METAR MROC 141900Z 13006KT 070V200 9999 SCT040 BKN100 27/18 A2994 BECMG 24007KT=
201809142000 METAR MROC 142000Z 23012KT 200V270 9999 SCT040 BKN100 25/22 A2993 NOSIG=
201809142100 METAR MROC 142100Z 24012KT 9999 -TSRA SCT010CB BKN015 22/21 A2992 NOSIG=
201809142200 METAR MROC 142200Z 01004KT 320V050 5000 TSRA SCT010CB BKN020 21/20 A2994 NOSIG=
201809142300 METAR MROC 142300Z VRB02KT 9999 FEW007 SCT015 BKN020 21/20 A2996 RETSRA NOSIG=
201809150000 METAR MROC 150000Z 31004KT 9999 SCT007 BKN020 21/20 A2996 NOSIG=
201809150100 METAR MROC 150100Z 16002KT 8000 -RA SCT020 OVC100 21/20 A2999 NOSIG=
201809150200 METAR MROC 150200Z 12003KT 090V160 9999 -RA SCT010 OVC100 21/20 A3002 NOSIG=
201809150300 METAR MROC 150300Z VRB01KT 9999 -RA SCT020 OVC100 21/20 A3003 NOSIG=
201809150400 METAR MROC 150400Z VRB01KT 9999 FEW008 BKN100 20/20 A3002 NOSIG=
201809150500 METAR MROC 150500Z 16003KT 0500 R07/P2000N FG NSC 20/20 A3002 NOSIG=
201809150600 METAR MROC 150600Z VRB02KT CAVOK 20/19 A3001 NOSIG=
201809150700 METAR MROC 150700Z 03004KT 9999 FEW003 19/19 A2998 NOSIG=
201809150800 METAR MROC 150800Z 08004KT 030V140 9999 FEW020 SCT040 19/18 A2997 NOSIG=
201809150900 METAR MROC 150900Z 11004KT CAVOK 19/18 A2997 NOSIG=
201809151000 METAR MROC 151000Z 09005KT CAVOK 19/18 A2997 NOSIG=
201809151100 METAR MROC 151100Z 09006KT CAVOK 19/17 A2997 NOSIG=
201809151200 METAR MROC 151200Z 07007KT CAVOK 19/17 A2997 NOSIG=
201809151300 METAR MROC 151300Z 07007KT CAVOK 21/17 A3001 NOSIG=
201809151400 METAR MROC 151400Z 08004KT CAVOK 24/18 A3002 NOSIG=
201809151500 METAR MROC 151500Z VRB02KT CAVOK 26/17 A3002 NOSIG=
201809151600 METAR MROC 151600Z VRB02KT CAVOK 28/17 A3001 NOSIG=
201809151700 METAR MROC 151700Z 06003KT 350V140 CAVOK 29/19 A2998 NOSIG=
201809151800 METAR MROC 151800Z 23011KT 9999 SCT045 27/22 A2996 NOSIG=
201809151900 METAR MROC 151900Z 24017KT 9999 -TSRA SCT025CB 25/22 A2993 BECMG 5000=
201809152000 METAR MROC 152000Z 36007KT 300V040 5000 TSRA BKN010CB 22/18 A2995 NOSIG=
201809152100 METAR MROC 152100Z 20006KT 170V250 9000 4200SW -TSRA VCFG FEW005 SCT010CB BKN060 20/19 A2994 NOSIG=
201809152200 METAR MROC 152200Z 08005KT 9999 FEW012 BKN100 21/19 A2993 NOSIG=
201809152300 METAR MROC 152300Z VRB02KT CAVOK 21/19 A2995 NOSIG=
201809160000 METAR MROC 160000Z 34003KT 310V030 9000 -RA VCFG FEW040 BKN100 21/20 A2997 NOSIG=
201809160100 METAR MROC 160100Z 19002KT CAVOK 21/20 A2999 NOSIG=
201809160200 METAR MROC 160200Z 18002KT 8000 1500SW R07/1200D BCFG SCT003 20/20 A3001 NOSIG=
201809160300 METAR MROC 160300Z 09004KT 8000 VCFG FEW003 19/19 A3001 NOSIG=
201809160400 METAR MROC 160400Z 01006KT CAVOK 19/18 A3001 NOSIG=
201809160500 METAR MROC 160500Z 08004KT CAVOK 19/18 A3001 NOSIG=
201809160600 METAR MROC 160600Z 07003KT 360V150 CAVOK 19/18 A2999 NOSIG=
201809160700 METAR MROC 160700Z VRB02KT CAVOK 18/17 A2998 NOSIG=
201809160800 METAR MROC 160800Z 07004KT CAVOK 18/17 A2996 NOSIG=
201809160900 METAR MROC 160900Z VRB02KT CAVOK 18/16 A2995 NOSIG=
201809161000 METAR MROC 161000Z 08005KT CAVOK 17/16 A2995 NOSIG=
201809161100 METAR MROC 161100Z 05006KT CAVOK 17/16 A2997 NOSIG=
201809161200 METAR MROC 161200Z 08009KT CAVOK 19/15 A2997 NOSIG=
201809161300 METAR MROC 161300Z 06008KT CAVOK 21/16 A3000 NOSIG=
201809161400 METAR MROC 161400Z 10007KT 050V140 CAVOK 25/18 A3000 NOSIG=
201809161500 METAR MROC 161500Z 12006KT 070V190 CAVOK 27/18 A3000 BECMG 24005KT=
201809161600 METAR MROC 161600Z 25010KT 9999 FEW045 25/20 A3000 NOSIG=
201809161700 METAR MROC 161700Z 24008KT 9999 FEW045 26/20 A2998 NOSIG=
201809161800 METAR MROC 161800Z 26009KT 9999 FEW025 26/20 A2995 NOSIG=
201809161900 METAR MROC 161900Z 23009KT 200V270 9999 FEW025 SCT045 27/21 A2993 NOSIG=
201809162000 METAR COR MROC 162000Z 24011KT 210V270 9999 FEW020 SCT040 26/22 A2991 NOSIG=
201809162100 METAR MROC 162100Z 25013KT 9999 VCTS FEW015CB SCT025 BKN070 26/22 A2990 BECMG -TSRA=
201809162200 METAR MROC 162200Z 24009KT 200V270 3000 -TSRA BR FEW010 SCT015CB BKN025 22/22 A2992 NOSIG=
201809162300 METAR MROC 162300Z 22007KT 5000 1000SW SHRA BR FEW005 SCT010 BKN020 20/19 A2994 NOSIG=
201809170000 METAR MROC 170000Z 34004KT 300V020 9999 FEW010 SCT035 21/20 A2996 RESHRA NOSIG=
201809170100 METAR MROC 170100Z VRB02KT 9999 FEW010 SCT035 BKN100 21/20 A2999 NOSIG=
201809170200 METAR MROC 170200Z 16003KT 130V190 9999 FEW035 21/20 A3002 NOSIG=
201809170300 METAR MROC 170300Z VRB02KT 9999 FEW035 BKN060 21/20 A3003 NOSIG=
201809170400 METAR MROC 170400Z VRB02KT 9999 FEW030 SCT060 21/20 A3004 NOSIG=
201809170500 METAR MROC 170500Z 10004KT 050V130 9999 FEW045 20/20 A3002 NOSIG=
201809170600 METAR MROC 170600Z 09004KT 9999 FEW045 20/19 A2999 NOSIG=
201809170700 METAR MROC 170700Z 05004KT CAVOK 20/18 A2997 NOSIG=
201809170800 METAR MROC 170800Z 03005KT CAVOK 20/18 A2996 NOSIG=
201809170900 METAR MROC 170900Z 08004KT 010V120 CAVOK 21/17 A2995 NOSIG=
201809171000 METAR MROC 171000Z 08006KT CAVOK 19/17 A2996 NOSIG=
201809171100 METAR MROC 171100Z 09005KT CAVOK 19/17 A2996 NOSIG=
201809171200 METAR MROC 171200Z 03004KT 360V060 CAVOK 19/17 A2997 NOSIG=
201809171300 METAR MROC 171300Z 06005KT 020V090 CAVOK 21/18 A2999 NOSIG=
201809171400 METAR MROC 171400Z 33003KT 270V040 CAVOK 24/18 A2999 NOSIG=
201809171500 METAR MROC 171500Z 10010KT 070V140 CAVOK 26/18 A2999 NOSIG=
201809171600 METAR MROC 171600Z 22009KT 190V250 CAVOK 26/20 A2999 NOSIG=
201809171700 METAR MROC 171700Z 25011KT 220V290 9999 SCT030 25/21 A2999 NOSIG=
201809171800 METAR MROC 171800Z 25007KT 200V290 9999 FEW020TCU SCT030 26/21 A2996 NOSIG=
201809171900 METAR MROC 171900Z 25007KT 210V310 9999 VCTS FEW020TCU SCT030 26/20 A2993 BECMG TSRA=
201809172000 METAR MROC 172000Z 24011KT 9999 2500SW -RA VCTS VCSH FEW010CB SCT025 21/19 A2990 NOSIG=
201809172100 METAR MROC 172100Z 24004KT 200V320 9999 FEW020TCU FEW025 25/22 A2990 NOSIG=
201809172200 METAR MROC 172200Z 25009KT 9999 TSRA FEW015TCU FEW015 SCT030CB 23/22 A2990 NOSIG=
201809172300 METAR MROC 172300Z 22007KT 9000 4000SW TSRA BCFG FEW005 SCT010CB BKN060 22/20 A2992 BECMG 3000 BR=
201809180000 METAR MROC 180000Z 30005KT 200V330 9999 +TSRA FEW005 BKN20CB 21/20 A2995 NOSIG=
201809180100 METAR MROC 180100Z VRB02KT 9999 -TSRA FEW005 SCT030 BKN100 21/20 A2997 NOSIG=
201809180200 METAR MROC 180200Z COR 25005KT 9999 4000S BCFG FEW002 BKN030 21/20 A2999 BECMG 3000 BR=
201809180300 METAR MROC 180300Z 33003KT 270V360 5000 BR OVC010 21/20 A3001 NOSIG=
201809180400 METAR MROC 180400Z VRB02KT 9000 VCFG FEW030 SCT100 21/20 A3002 NOSIG=
201809180500 METAR MROC 180500Z 10004KT 060V130 9999 FEW030 BKN130 21/19 A3001 NOSIG=
201809180600 METAR MROC 180600Z 07008KT 9999 FEW030 BKN100 22/17 A2999 NOSIG=
201809180700 METAR MROC NIL=
201809180800 METAR MROC NIL=
201809180900 METAR MROC 180900Z 09005KT 9999 -DZ NSC 20/19 A2996 NOSIG=
201809181000 METAR MROC 181000Z 07010KT CAVOK 21/17 A2992 NOSIG=
201809181100 METAR MROC 181100Z 10011KT 9999 FEW045 SCT150 22/16 A2992 NOSIG=
201809181200 METAR MROC 181200Z 22009KT 190V250 3000 1000SW R07/1400D -DZ BR SCT001 20/19 A2998 NOSIG=
201809181300 METAR MROC 181300Z 28005KT 230V320 9999 2000SW BCFG SCT003 BKN120 20/20 A3001 NOSIG=
201809181400 METAR MROC 181400Z 29003KT 210V310 9999 SCT025 BKN140 21/19 A3003 NOSIG=
201809181500 METAR MROC 181500Z VRB02KT 9999 FEW010 BKN140 23/18 A3003 BECMG 27008KT=
201809181600 METAR MROC 181600Z VRB02KT 9999 FEW045 BKN200 25/19 A3002 BECMG 27008KT=
201809181700 METAR MROC 181700Z 12009KT CAVOK 27/17 A2998 NOSIG=
201809181800 METAR MROC 181800Z 13006KT 080V190 9999 FEW035 BKN200 28/18 A2996 NOSIG=
201809181900 METAR MROC 181900Z 24012KT 9999 FEW020 BKN200 26/21 A2993 NOSIG=
201809182000 METAR MROC 182000Z 26012KT 9999 SCT030 SCT180 25/22 A2991 NOSIG=
201809182100 METAR MROC 182100Z 26010KT 9999 SCT030 SCT120 25/22 A2989 NOSIG=
201809182200 METAR MROC 182200Z 25009KT 210V280 9999 SCT030 SCT120 24/22 A2988 NOSIG=
201809182300 METAR MROC 182300Z 25009KT 8000 VCFG FEW005 BKN030 22/21 A2990 NOSIG=
201809190000 METAR MROC 190000Z 24007KT 8000 VCFG FEW003 BKN030 22/21 A2991 NOSIG=
201809190100 METAR MROC 190100Z 23006KT 5000 -RA BR FEW002 BKN020 22/21 A2993 NOSIG=
201809190200 METAR MROC 190200Z VRB03KT 5000 +RA FEW002 BKN020 21/21 A2996 NOSIG=
201809190300 METAR MROC 190300Z 31003KT 260V010 9999 FEW003 BKN030 21/21 A2998 RERA NOSIG=
201809190400 METAR MROC 190400Z 02003KT 9999 FEW005 BKN045 21/21 A2998 NOSIG=
201809190500 METAR MROC 190500Z 08006KT 050V110 9999 SCT045 22/19 A2996 NOSIG=
201809190600 METAR MROC 190600Z 06005KT CAVOK 21/18 A2994 NOSIG=
201809190700 METAR MROC 190700Z 08007KT CAVOK 20/17 A2993 NOSIG=
201809190800 METAR MROC 190800Z 05005KT CAVOK 20/18 A2991 NOSIG=
201809190900 METAR MROC 190900Z 06009KT 040V100 CAVOK 21/17 A2991 NOSIG=
201809191000 METAR MROC 191000Z 07006KT 030V130 CAVOK 21/17 A2992 NOSIG=
201809191100 METAR MROC 191100Z 03007KT CAVOK 21/17 A2994 NOSIG=
201809191200 METAR MROC 191200Z 04006KT 360V070 CAVOK 20/17 A2995 NOSIG=
201809191300 METAR MROC 191300Z 06009KT CAVOK 22/17 A2994 NOSIG=
201809191400 METAR MROC 191400Z 10007KT 060V130 CAVOK 24/18 A2995 NOSIG=
201809191500 METAR MROC 191500Z 15005KT 100V210 CAVOK 28/18 A2995 NOSIG=
201809191600 METAR MROC 191600Z 250011KT 220V280 9999 FEW040 SCT250 25/19 A2998 NOSIG=
201809191700 METAR MROC 191700Z 25006KT 230V290 9999 FEW040 SCT200 27/20 A2996 NOSIG=
201809191800 METAR MROC 191800Z 21004KT 190V290 9999 SCT040 SCT100 26/20 A2995 NOSIG=
201809191900 METAR MROC 191900Z 12004KT 090V170 9999 FEW040 BKN100 27/19 A2992 NOSIG=
201809192000 METAR MROC 192000Z 16005KT 110V190 9999 FEW040 BKN100 28/18 A2989 NOSIG=
201809192100 METAR MROC 192100Z 24012KT 9999 SCT040 BKN120 25/22 A2988 NOSIG=
201809192200 METAR MROC 192200Z 23009KT 9999 FEW020 SCT040 BKN130 24/21 A2989 NOSIG=
201809192300 METAR MROC 192300Z 24006KT 200V300 8000 RA FEW010 SCT030 OVC100 23/22 A2991 BECMG BKN020=
201809200000 METAR MROC 200000Z 27004KT 240V300 9999 FEW006 SCT025 OVC100 22/21 A2993 RERA NOSIG=
201809200100 METAR MROC 200100Z VRB02KT 9999 FEW005 SCT020 OVC100 22/21 A2995 NOSIG=
201809200200 METAR MROC 200200Z VRB02KT 9999 SCT020 BKN100 22/21 A2995 NOSIG=
201809200300 METAR MROC 200300Z VRB02KT 9999 SCT010 BKN100 22/21 A2997 NOSIG=
201809200400 METAR MROC 200400Z 28003KT 250V350 9999 VCFG FEW005 22/21 A2999 NOSIG=
201809200500 METAR MROC 200500Z 10002KT 9999 FEW008 21/20 A2996 NOSIG=
201809200600 METAR MROC 200600Z 08004KT CAVOK 21/20 A2995 NOSIG=
201809200700 METAR MROC 200700Z 07005KT CAVOK 21/20 A2991 NOSIG=
201809200800 METAR MROC 200800Z 06003KT 350V100 CAVOK 21/19 A2990 NOSIG=
201809200900 METAR MROC 200900Z 08005KT 050V110 CAVOK 21/18 A2990 NOSIG=
201809201000 METAR MROC 201000Z 07006KT CAVOK 21/18 A2990 NOSIG=
201809201100 METAR MROC 201100Z 06005KT 030V110 CAVOK 21/17 A2991 NOSIG=
201809201200 METAR MROC 201200Z VRB02KT CAVOK 21/18 A2993 NOSIG=
201809201300 METAR MROC 201300Z 28006KT 240V010 CAVOK 21/19 A2996 NOSIG=
201809201400 METAR MROC 201400Z 27003KT 240V320 CAVOK 22/20 A2999 NOSIG=
201809201500 METAR MROC 201500Z 29003KT 210V350 CAVOK 23/20 A2999 NOSIG=
201809201600 METAR MROC 201600Z 28004KT 230V350 9999 SCT020 BKN180 24/21 A2998 NOSIG=
201809201700 METAR MROC 201700Z VRB03KT 9999 FEW020 BKN180 25/20 A2997 NOSIG=
201809201800 METAR MROC 201800Z 25006KT 210V290 9999 FEW030 BKN180 25/21 A2995 NOSIG=
201809201900 METAR MROC 201900Z 25007KT 200V290 9999 SCT025 BKN140 26/21 A2991 NOSIG=
201809202000 METAR MROC 202000Z 23009KT 9999 SCT020 OVC140 24/21 A2989 NOSIG=
201809202100 METAR MROC 202100Z 25009KT 200V280 9999 FEW008 SCT015 BKN100 24/22 A2990 BECMG RA BKN020=
201809202200 METAR MROC 202200Z 26007KT 230V320 9999 FEW015 BKN140 23/21 A2990 NOSIG=
201809202300 METAR MROC 202300Z 27007KT 9999 VCFG FEW006 BKN100 22/21 A2993 NOSIG=
201809210000 METAR MROC 210000Z 29004KT 9999 VCFG SCT010 BKN050 22/20 A2995 NOSIG=
201809210100 METAR MROC 210100Z VRB02KT 9999 FEW010 BKN040 22/21 A2997 NOSIG=
201809210200 METAR MROC 210200Z 20003KT 9999 FEW015 BKN050 22/21 A2999 NOSIG=
201809210300 METAR MROC 210300Z 02003KT 340V050 9999 -RA FEW030 BKN080 22/20 A2999 NOSIG=
201809210400 METAR MROC 210400Z VRB02KT 9999 FEW040 BKN120 22/21 A2999 NOSIG=
201809210500 METAR MROC 210500Z VRB02KT CAVOK 21/20 A2999 NOSIG=
201809210600 METAR MROC 210600Z 09004KT 030V130 CAVOK 21/20 A2996 NOSIG=
201809210700 METAR MROC 210700Z 08005KT CAVOK 21/19 A2992 NOSIG=
201809210800 METAR MROC 210800Z 08006KT 060V140 CAVOK 22/19 A2991 NOSIG=
201809210900 METAR MROC 210900Z 11012KT CAVOK 23/18 A2990 NOSIG=
201809211000 METAR MROC 211000Z 11011KT 080V150 CAVOK 23/18 A2990 NOSIG=
201809211100 METAR MROC 211100Z 12008KT 100V160 CAVOK 22/18 A2991 NOSIG=
201809211200 METAR MROC 211200Z COR 08006KT 030V120 9999 FEW030 SCT200 22/18 A2993 NOSIG=
201809211300 METAR MROC 211300Z 05006KT 020V090 CAVOK 23/19 A2997 NOSIG=
201809211400 METAR MROC 211400Z 05008KT 020V080 CAVOK 24/20 A2998 NOSIG=
201809211500 METAR MROC 211500Z 13005KT 050V180 9999 FEW040 BKN200 26/19 A2999 NOSIG=
201809211600 METAR MROC 211600Z COR 26006KT 230V290 9999 FEW035 SCT050 25/21 A3000 NOSIG=
201809211700 METAR MROC 211700Z VRB02KT 9999 FEW025 SCT060 25/19 A2999 RERA NOSIG=
201809211800 METAR MROC 211800Z 10005KT 080V170 9999 -RA FEW030 BKN110 27/19 A2995 NOSIG=
201809211900 METAR MROC 211900Z 13006KT 090V170 9999 FEW030 BKN180 27/19 A2992 NOSIG=
201809212000 METAR MROC 212000Z 16006KT 130V190 9999 FEW025 SCT080 27/18 A2990 NOSIG=
201809212100 METAR MROC 212100Z 25011KT 9999 SCT010 BKN025 24/22 A2990 BECMG 5000 RA=
201809212200 METAR MROC 212200Z 25008KT 9999 SCT010 BKN025 23/21 A2991 NOSIG=
201809212300 METAR MROC 212300Z 25007KT 8000 VCFG FEW005 SCT010 BKN020 22/21 A2993 NOSIG=
201809212355 METAR MROC 220000Z 25005KT 200V270 5000 SHRA BR FEW002 SCT005 BKN012 22/21 A2995 BECMG 3000=
201809220000 METAR MROC 220000Z 25005KT 200V270 5000 SHRA BR FEW002 SCT005 BKN012 22/21 A2995 BECMG 3000=
201809220100 METAR MROC 220100Z VRB02KT 9999 FEW005 SCT040 BKN100 21/21 A2997 RETSRA NOSIG=
201809220200 METAR MROC 220200Z 04010KT 010V070 9999 FEW040 22/21 A2997 NOSIG=
201809220300 METAR MROC 220300Z 25005KT 9999 FEW002 21/20 A2999 BECMG 5000 BR=
201809220400 METAR MROC 220400Z 35003KT 310V030 5000 BR FEW002 SCT020 21/21 A2999 NOSIG=
201809220500 METAR MROC 220500Z 12004KT 5000 BR FEW004 SCT020 21/20 A2997 NOSIG=
201809220600 METAR MROC 220600Z 07005KT CAVOK 21/20 A2994 NOSIG=
201809220700 METAR MROC 220700Z 07006KT 040V120 CAVOK 21/19 A2992 NOSIG=
201809220800 METAR MROC 220800Z 05007KT CAVOK 21/18 A2992 NOSIG=
201809220900 METAR MROC 220900Z VRB04KT CAVOK 21/18 A2990 NOSIG=
201809221000 METAR MROC 221000Z 36003KT 300V070 CAVOK 21/18 A2991 NOSIG=
201809221100 METAR MROC 221100Z 01005KT CAVOK 19/18 A2993 NOSIG=
201809221200 METAR MROC 221200Z 05006KT CAVOK 20/18 A2992 NOSIG=
201809221300 METAR MROC 221300Z 05004KT 010V100 CAVOK 23/18 A2994 NOSIG=
201809221400 METAR MROC 221400Z 25007KT CAVOK 23/20 A2997 NOSIG=
201809221500 METAR MROC 221500Z 25007KT 220V290 CAVOK 24/20 A2999 NOSIG=
201809221600 METAR MROC 221600Z 23006KT 200V270 9999 FEW030 25/20 A3000 NOSIG=
201809221700 METAR MROC 221700Z 23007G17KT 190V320 9999 FEW020 SCT030 26/21 A2997 NOSIG=
201809221800 METAR MROC 221800Z 25007KT 210V280 9999 SCT025TCU 27/22 A2994 NOSIG=
201809221900 METAR MROC 221900Z 24012KT 9999 SCT025TCU 26/22 A2990 NOSIG=
201809222000 METAR MROC 222000Z 24011KT 9999 -TSRA SCT015CB BKN025TCU 25/22 A2989 BECMG 5000 TSRA=
201809222100 METAR MROC 222100Z 32008KT 280V030 5000 -TSRA FEW020CB SCT030 OVC040 21/18 A2991 NOSIG=
201809222200 METAR MROC 222200Z VRB02KT 9999 RA FEW005 OVC080 20/18 A2991 NOSIG=
201809222300 METAR MROC 222300Z 23003KT 170V300 9999 -RA FEW005 BKN040 20/19 A2994 NOSIG=
201809230000 METAR MROC 230000Z 13004KT CAVOK 20/19 A2993 NOSIG=
201809230100 METAR MROC 230100Z 11003KT 090V150 CAVOK 20/19 A2994 NOSIG=
201809230200 METAR MROC 230200Z 12002KT 9999 FEW030 BKN140 20/19 A2996 NOSIG=
201809230300 METAR MROC 230300Z 01004KT 9999 FEW003 BKN150 21/17 A2997 NOSIG=
201809230400 METAR MROC 230400Z 07005KT 9999 FEW045 BKN180 21/20 A2996 NOSIG=
201809230500 METAR MROC 230500Z 07006KT CAVOK 22/19 A2993 NOSIG=
201809230600 METAR MROC 230600Z 06008KT CAVOK 22/19 A2992 NOSIG=
201809230700 METAR MROC 230700Z 08006KT 040V140 CAVOK 22/19 A2992 NOSIG=
201809230800 METAR MROC 230800Z 29005KT CAVOK 21/19 A2989 NOSIG=
201809230900 METAR MROC 230900Z 28004KT CAVOK 20/19 A2988 NOSIG=
201809231000 METAR MROC 231000Z 06004KT 9999 FEW008 19/18 A2989 NOSIG=
201809231100 METAR MROC 231100Z 06005KT 9999 FEW020 18/17 A2992 NOSIG=
201809231200 METAR MROC 231200Z 05007KT 9999 FEW040 SCT250 19/17 A2992 NOSIG=
201809231300 METAR MROC 231300Z 07007KT CAVOK 22/18 A2992 NOSIG=
201809231400 METAR MROC 231400Z VRB04KT CAVOK 25/18 A2994 BECMG 22006KT=
201809231500 METAR MROC 231500Z 11004KT CAVOK 27/19 A2996 NOSIG=
201809231600 METAR MROC 231600Z 12009KT 070V170 9999 FEW045 27/18 A2997 NOSIG=
201809231700 METAR MROC 231700Z 12009G19KT 080V170 9999 BKN040 27/19 A2995 NOSIG=
201809231800 METAR MROC 231800Z 11014G24KT 9999 SCT030 BKN045 25/17 A2992 NOSIG=
201809231900 METAR MROC 231900Z 09012KT 060V130 9999 FEW030 BKN060 26/18 A2991 NOSIG=
201809232000 METAR MROC 232000Z 12009KT 090V160 9999 SCT030 BKN045 24/18 A2990 NOSIG=
201809232100 METAR MROC 232100Z 13007KT 090V170 9999 SCT030 BKN100 24/18 A2988 NOSIG=
201809232200 METAR MROC 232200Z 11012KT 080V150 9999 FEW040 BKN100 24/18 A2987 NOSIG=
201809232300 METAR MROC 232300Z 11013KT 9999 FEW040 OVC120 23/19 A2988 NOSIG=
201809240000 METAR MROC 240000Z 13011KT 100V160 9999 FEW040 BKN120 23/18 A2990 NOSIG=
201809240100 METAR MROC 240100Z 08006KT 050V130 9999 FEW040 BKN120 23/18 A2993 NOSIG=
201809240200 METAR MROC 240200Z 10007KT 060V140 CAVOK 23/18 A2994 NOSIG=
201809240300 METAR MROC 240300Z 03006KT 350V090 CAVOK 23/19 A2996 NOSIG=
201809240400 METAR MROC 240400Z 06006KT CAVOK 22/18 A2995 NOSIG=
201809240500 METAR MROC 240500Z 34003KT 320V030 CAVOK 22/18 A2995 NOSIG=
201809240600 METAR MROC 240600Z 26003KT 230V290 9999 -DZ NSC 21/19 A2995 NOSIG=
201809240700 METAR MROC 240700Z 06005KT CAVOK 20/19 A2994 NOSIG=
201809240800 METAR MROC 240800Z 10004KT CAVOK 20/19 A2993 NOSIG=
201809240900 METAR MROC 240900Z 05004KT CAVOK 20/18 A2991 NOSIG=
201809241000 METAR MROC 241000Z 06007KT CAVOK 20/17 A2991 NOSIG=
201809241100 METAR MROC 241100Z 07008KT CAVOK 21/16 A2991 NOSIG=
201809241200 METAR MROC 241200Z 07006KT CAVOK 20/17 A2992 NOSIG=
201809241300 METAR MROC 241300Z 08007KT CAVOK 22/17 A2994 NOSIG=
201809241400 METAR MROC 241400Z 04007KT 010V110 CAVOK 24/17 A2997 NOSIG=
201809241500 METAR MROC 241500Z 09007KT CAVOK 25/18 A2999 NOSIG=
201809241600 METAR MROC 241600Z 10007KT 040V130 CAVOK 26/17 A2998 NOSIG=
201809241700 METAR MROC 241700Z 11009KT 070V140 9999 FEW040 SCT140 28/18 A2995 NOSIG=
201809241800 METAR MROC 241800Z 16006KT 120V200 9999 FEW040 BKN150 28/18 A2994 NOSIG=
201809241900 METAR MROC 241900Z 13005KT 080V160 9999 SCT040 BKN150 28/18 A2991 NOSIG=
201809242000 METAR MROC 242000Z 11008KT 070V160 9999 SCT040 BKN120 28/18 A2987 NOSIG=
201809242100 METAR MROC 242100Z 25013KT 9999 VCTS SCT010CB BKN030 23/20 A2988 BECMG 5000 TSRA=
201809242200 METAR MROC 242200Z 22006KT 9999 -RA SCT010 BKN030 21/28 A2991 RETS NOSIG=
201809242300 METAR MROC 242300Z VRB01KT 9999 SCT007 OVC100 21/21 A2993 NOSIG=
201809250000 METAR MROC 250000Z 17003KT 120V210 9999 -RA SCT015 OVC100 21/20 A2996 NOSIG=
201809250100 METAR MROC 250100Z VRB02KT 9999 -RA SCT010 OVC100 21/20 A2998 NOSIG=
201809250200 METAR MROC 250200Z 03006KT CAVOK 21/20 A2998 NOSIG=
201809250300 METAR MROC 250300Z 08005KT 010V120 CAVOK 21/19 A2999 NOSIG=
201809250400 METAR MROC 250400Z 03005KT 350V060 9999 -RA NSC 21/19 A3000 NOSIG=
201809250500 METAR MROC 250500Z VRB02KT CAVOK 20/19 A2997 NOSIG=
201809250600 METAR MROC 250600Z 00000KT CAVOK 20/19 A2995 NOSIG=
201809250700 METAR MROC 250700Z 12004KT CAVOK 20/19 A2995 NOSIG=
201809250800 METAR MROC 250800Z 07007KT CAVOK 22/17 A2992 NOSIG=
201809250900 METAR MROC 250900Z 05007KT 9999 FEW030 BKN160 21/17 A2992 NOSIG=
201809251000 METAR MROC 251000Z 14004KT 110V180 CAVOK 21/17 A2991 NOSIG=
201809251100 METAR MROC 251100Z 08006KT CAVOK 21/16 A2992 NOSIG=
201809251200 METAR MROC 251200Z VRB02KT CAVOK 22/16 A2994 NOSIG=
201809251300 METAR MROC 251300Z 07005KT 030V100 CAVOK 23/17 A2996 NOSIG=
201809251400 METAR MROC 251400Z 11011KT CAVOK 24/16 A2997 NOSIG=
201809251500 METAR MROC 251500Z 10010G20KT 070V140 CAVOK 25/17 A2998 NOSIG=
201809251600 METAR MROC 251600Z 10011KT 070V140 CAVOK 25/17 A3000 NOSIG=
201809251700 METAR MROC 251700Z 12006KT 090V170 CAVOK 25/17 A3001 NOSIG=
201809251800 METAR MROC 251800Z 14006KT 110V200 9999 FEW040 BKN100 25/17 A2999 NOSIG=
201809251900 METAR MROC 251900Z 15003KT 100V190 9999 FEW030 BKN120 25/17 A2997 NOSIG=
201809252000 METAR MROC 252000Z 24006KT 200V270 9999 FEW005 SCT025 BKN130 24/21 A2994 NOSIG=
201809252100 METAR MROC 252100Z 25005KT 210V270 9999 FEW010 BKN110 23/21 A2993 NOSIG=
201809252200 METAR MROC 252200Z VRB02KT 9999 FEW010 BKN120 23/20 A2993 NOSIG=
201809252300 METAR MROC 252300Z VRB02KT 9999 VCFG FEW010 BKN120 22/20 A2993 NOSIG=
201809260000 METAR MROC 260000Z 23003KT 200V260 9999 VCFG FEW003 BKN130 21/21 A2994 NOSIG=
201809260100 METAR MROC 260100Z VRB02KT 9000 VCFG SCT005 SCT120 21/21 A2998 NOSIG=
201809260200 METAR MROC 260200Z 15003KT 110V180 9999 FEW005 SCT090 21/20 A3001 NOSIG=
201809260300 METAR MROC 260300Z 03003KT 330V070 9999 FEW006 BKN200 22/21 A3002 NOSIG=
201809260400 METAR MROC 260400Z 24004KT 200V300 9999 FEW004 BKN200 21/20 A3001 NOSIG=
201809260500 METAR MROC 260500Z 02003KT 340V070 9999 BCFG FEW002 BKN200 21/20 A2999 NOSIG=
201809260600 METAR MROC 260600Z 00000KT 9999 BCFG FEW005 BKN200 21/20 A2997 NOSIG=
201809260700 METAR MROC 260700Z VRB02KT 9999 BCFG FEW004 BKN200 20/19 A2996 NOSIG=
201809260800 METAR MROC 260800Z 07004KT 020V100 CAVOK 20/18 A2995 NOSIG=
201809260900 METAR MROC 260900Z 08006KT CAVOK 20/18 A2993 NOSIG=
201809261000 METAR MROC 261000Z 07007KT 040V100 CAVOK 22/17 A2992 NOSIG=
201809261100 METAR MROC 261100Z 07008KT CAVOK 22/17 A2994 NOSIG=
201809261200 METAR MROC 261200Z 08009KT CAVOK 22/17 A2996 NOSIG=
201809261300 METAR MROC 261300Z 05005KT 330V090 CAVOK 23/17 A2999 NOSIG=
201809261400 METAR MROC 261400Z 11011G21KT 090V150 CAVOK 25/18 A3000 NOSIG=
201809261500 METAR MROC 261500Z 11010KT 080V140 CAVOK 26/18 A3002 NOSIG=
201809261600 METAR MROC 261600Z 11007KT 080V150 9999 VCTS NSC 26/18 A3002 NOSIG=
201809261700 METAR MROC 261700Z VRB05KT 080V150 CAVOK 28/19 A3000 BECMG 23007KT=
201809261800 METAR MROC 261800Z 24012KT 9999 FEW020TCU SCT030 26/22 A2997 NOSIG=
201809261900 METAR MROC 261900Z 25008KT 200V290 9999 4800NE -TSRA FEW015CB SCT025 26/20 A2995 BECMG 5000=
201809262000 METAR MROC 262000Z 14005KT 070V190 9999 3500SW TSRA FEW008CB SCT015 BKN100 20/19 A2993 NOSIG=
201809262031 METAR MROC 262031Z 07004KT 040V100 9999 VCTS VCSH FEW010CB FEW040 BKN110 21/19 A2993 RETSRA NOSIG=
201809262100 METAR MROC 262100Z 07005KT 9999 -RA FEW030 BKN110 22/20 A2992 NOSIG=
201809262200 METAR MROC 262200Z 10005KT 070V140 9999 -RA VCTS FEW010CB FEW030 BKN100 22/20 A2992 NOSIG=
201809262300 METAR MROC 262300Z 11006KT 080V150 9999 FEW030 BKN070 22/19 A2994 NOSIG=
201809270000 METAR MROC 270000Z 11006KT 080V140 9999 -DZ FEW040 BKN070 22/18 A2996 BECMG RA=
201809270100 METAR MROC 270100Z 10008KT 9999 -RA FEW020 SCT040 BKN100 21/18 A2997 NOSIG=
201809270200 METAR MROC 270200Z 10012KT 9999 FEW020 BKN100 22/17 A3000 NOSIG=
201809270300 METAR MROC 270300Z 07007KT 010V120 9999 -RA FEW020 BKN100 21/17 A3003 NOSIG=
201809270400 METAR MROC 270400Z 11012KT CAVOK 21/17 A3004 NOSIG=
201809270500 METAR MROC 270500Z 09010KT 9999 -RA NSC 22/17 A3001 NOSIG=
201809270600 METAR MROC 270600Z 09010KT 9999 -RA NSC 21/17 A2997 NOSIG=
201809270700 METAR MROC 270700Z VRB02KT CAVOK 21/17 A2995 NOSIG=
201809270800 METAR MROC 270800Z 26004KT CAVOK 19/18 A2994 NOSIG=
201809270900 METAR MROC 270900Z 19003KT 100V250 CAVOK 20/18 A2994 NOSIG=
201809271000 METAR MROC 271000Z 04002KT CAVOK 19/18 A2995 NOSIG=
201809271100 METAR MROC 271100Z 06004KT 030V090 CAVOK 18/17 A2995 NOSIG=
201809271200 METAR MROC 271200Z 07007KT CAVOK 20/16 A2995 NOSIG=
201809271300 METAR MROC 271300Z 12011KT 090V150 CAVOK 22/16 A2995 NOSIG=
201809271400 METAR MROC 271400Z 11013KT 090V150 CAVOK 23/16 A2997 NOSIG=
201809271500 METAR MROC 271500Z 10013G23KT 070V130 CAVOK 25/17 A2999 NOSIG=
201809271600 METAR MROC 271600Z 11012KT 070V140 CAVOK 27/16 A2999 NOSIG=
201809271700 METAR MROC 271700Z 13006KT 080V190 CAVOK 29/18 A2997 BECMG 20006KT=
201809271800 METAR MROC 271800Z 22007KT 180V250 9999 FEW020TCU SCT030 27/21 A2995 NOSIG=
201809271900 METAR MROC 271900Z 23008KT 200V260 9999 -RA VCSH FEW020TCU SCT035 24/20 A2993 BECMG SHRA=
201809272000 METAR MROC 272000Z 23008KT 9999 -RA SCT020TCU FEW040 25/20 A2990 BECMG SHRA=
201809272100 METAR MROC 272100Z 28007KT 9999 3000SW -RA BCFG FEW010 SCT020 BKN080 22/20 A2990 BECMG 5000 BR=
201809272112 METAR MROC 272112Z 23008KT 5000 BR FEW005 BKN010 21/20 A2991 NOSIG=
201809272200 METAR MROC 272200Z 24006KT 6000 BCFG OVC008 21/20 A2992 NOSIG=
201809272300 METAR MROC 272300Z 23007KT 7000 BCFG OVC010 20/20 A2994 NOSIG=
201809280000 METAR MROC 280000Z COR VRB02KT 2000 +RA BKN010 20/19 A2997 NOSIG=
201809280100 METAR MROC 280100Z 36003KT 9999 4500S -RA BCFG FEW006 BKN100 19/19 A2999 NOSIG=
201809280200 METAR MROC 280200Z 34003KT 9999 FEW002 SCT010 BKN140 20/19 A3002 NOSIG=
201809280300 METAR MROC 280300Z VRB01KT 9999 FEW010 BKN150 20/18 A3003 NOSIG=
201809280400 METAR MROC 280400Z 21003KT 190V250 9999 FEW008 BKN170 19/19 A3004 NOSIG=
201809280500 METAR MROC 280500Z VRB03KT 9999 FEW020 SCT130 19/18 A3003 NOSIG=
201809280600 METAR MROC 280600Z 09004KT 9000 FEW015 SCT100 19/18 A3001 NOSIG=
201809280700 METAR MROC 280700Z 07003KT CAVOK 19/18 A2999 NOSIG=
201809280800 METAR MROC 280800Z 09006KT CAVOK 18/18 A2996 NOSIG=
201809280900 METAR MROC 280900Z 06005KT CAVOK 18/17 A2995 NOSIG=
201809281000 METAR MROC 281000Z 07006KT CAVOK 18/16 A2995 NOSIG=
201809281100 METAR MROC 281100Z 07007KT CAVOK 18/16 A2996 NOSIG=
201809281200 METAR MROC 281200Z 08008KT CAVOK 19/16 A2998 NOSIG=
201809281300 METAR MROC 281300Z 10005KT CAVOK 21/17 A3000 NOSIG=
201809281400 METAR MROC 281400Z 07003KT 040V120 CAVOK 24/18 A3002 NOSIG=
201809281500 METAR MROC 281500Z 03003KT 320V090 CAVOK 25/18 A3001 NOSIG=
201809281600 METAR MROC 281600Z VRB03KT CAVOK 27/18 A3001 BECMG 24007KT=
201809281700 METAR MROC 281700Z 24010KT 210V270 9999 FEW045 BKN200 26/21 A2998 NOSIG=
201809281800 METAR MROC 281800Z 24011KT 9999 VCSH SCT020TCU BKN200 25/21 A2997 NOSIG=
201809281900 METAR MROC 281900Z 22010KT 190V250 9999 VCSH FEW010CB FEW020TCU SCT200 25/21 A2994 NOSIG=
201809282000 METAR MROC 282000Z 24010KT 200V260 9999 VCSH SCT010 BKN060 24/21 A2993 NOSIG=
201809282100 METAR MROC 282100Z 26010KT 9999 VCSH SCT004 BKN030 21/20 A2993 NOSIG=
201809282200 METAR MROC 282200Z 26004KT 9999 FEW005 SCT030 BKN070 21/20 A2993 NOSIG=
201809282300 METAR MROC 282300Z VRB02KT 9999 FEW005 SCT030 BKN070 21/19 A2994 NOSIG=
201809290000 METAR MROC 290000Z 20003KT 9999 FEW005 BKN030 21/19 A2997 NOSIG=
201809290100 METAR MROC 290100Z 13003KT 080V180 9999 FEW005 BKN030 21/20 A2999 NOSIG=
201809290200 METAR MROC 290200Z 07003KT 040V100 9999 -RA FEW030 OVC100 19/19 A3002 NOSIG=
201809290300 METAR MROC 290300Z 02003KT 9999 -RA FEW030 OVC100 20/19 A3004 NOSIG=
201809290400 METAR MROC 290400Z 00000KT 9999 -RA NSC 20/19 A3004 NOSIG=
201809290500 METAR MROC 290500Z 09003KT 9999 -RA NSC 20/19 A3003 NOSIG=
201809290600 METAR MROC 290600Z 08004KT 9999 -RA NSC 20/19 A3002 NOSIG=
201809290700 METAR MROC 290700Z 08005KT CAVOK 20/19 A2998 NOSIG=
201809290800 METAR MROC 290800Z 04006KT CAVOK 20/19 A2995 NOSIG=
201809290900 METAR MROC 290900Z 07005KT CAVOK 20/19 A2994 NOSIG=
201809291000 METAR MROC 291000Z 05005KT CAVOK 20/19 A2995 NOSIG=
201809291100 METAR MROC 291100Z 07008KT CAVOK 20/18 A2996 NOSIG=
201809291200 METAR MROC 291200Z 05003KT 010V090 9999 FEW030 BKN120 20/18 A2998 NOSIG=
201809291300 METAR MROC 291300Z 07009KT CAVOK 22/19 A3002 NOSIG=
201809291400 METAR MROC 291400Z 10009KT 070V130 CAVOK 25/18 A3001 NOSIG=
201809291500 METAR MROC 291500Z 11012KT 080V140 CAVOK 25/19 A3000 NOSIG=
201809291600 METAR MROC 291600Z 10010KT 070V140 9999 FEW030 27/19 A2999 NOSIG=
201809291700 METAR MROC 291700Z 11012KT 9999 FEW030 28/19 A2996 NOSIG=
201809291800 METAR MROC 291800Z 12012KT 090V160 9999 FEW10TCU SCT040 27/19 A2993 NOSIG=
201809291900 METAR MROC 291900Z 16008KT 110V220 9999 FEW10TCU BKN040 27/19 A2992 BECMG 24008KT=
201809292000 METAR MROC 292000Z 24007KT 9999 SCT040 BKN070 24/21 A2990 NOSIG=
201809292100 METAR MROC 292100Z 25006KT 9999 VCTS SCT010 BKN030 22/22 A2991 NOSIG=
201809292200 METAR MROC 292200Z 23003KT 190V260 9999 SCT010 BKN030 22/21 A2992 NOSIG=
201809292300 METAR MROC 292300Z 13003KT 080V180 5000 RA FEW007 SCT030 OVC100 21/20 A2994 NOSIG=
201809300000 METAR MROC 300000Z VRB02KT 9999 RA VCTS SCT030 OVC100 21/20 A2995 NOSIG=
201809300100 METAR MROC 300100Z 28003KT 180V340 5000 -RA BR FEW005 SCT030 OVC100 21/21 A2998 NOSIG=
201809300200 METAR MROC 300200Z VRB02KT 9999 FEW001 SCT030 OVC100 21/20 A3000 NOSIG=
201809300300 METAR MROC 300300Z 27003KT 5000 BR FEW001 SCT030 OVC100 21/21 A3002 NOSIG=
201809300400 METAR MROC 300400Z VRB01KT 9999 VCFG FEW002 BKN010 21/20 A3001 NOSIG=
201809300500 METAR MROC 300500Z 05004KT 9999 VCFG FEW010 BKN020 21/20 A2999 NOSIG=
201809300600 METAR MROC 300600Z 05005KT CAVOK 22/19 A2993 NOSIG=
201809300700 METAR MROC NIL=
201809300800 METAR MROC 300800Z 08005KT 040V120 CAVOK 22/17 A2991 NOSIG=
201809300900 METAR MROC 300900Z 10004KT 070V130 CAVOK 19/18 A2991 NOSIG=
201809301000 METAR MROC 301000Z 07008KT CAVOK 20/17 A2993 NOSIG=
201809301100 METAR MROC 301100Z 04008KT 9999 FEW035 20/17 A2995 NOSIG=
201809301200 METAR MROC 301200Z 05012KT CAVOK 21/18 A2995 NOSIG=
201809301300 METAR MROC 301300Z 09005KT 040V150 CAVOK 22/18 A2998 NOSIG=
201809301400 METAR MROC 301400Z 11006KT CAVOK 23/18 A2999 NOSIG=
201809301500 METAR MROC 301500Z 10006KT 060V140 CAVOK 25/19 A3000 NOSIG=
201809301600 METAR MROC 301600Z 10008KT 080V150 9999 FEW045 26/18 A3001 NOSIG=
201809301700 METAR MROC 301700Z 07004KT 030V160 9999 FEW045 BKN130 27/18 A2997 NOSIG=
201809301800 METAR MROC 301800Z 24011KT 9999 SCT030TCU BKN250 26/21 A2994 NOSIG=
201809301900 METAR MROC 301900Z 22011KT 190V250 9999 SCT030TCU BKN250 25/21 A2992 NOSIG=
201809302000 METAR MROC 302000Z 25011KT 9999 -TSRA FEW010CB BKN025 25/21 A2990 NOSIG=
201809302100 METAR MROC 302100Z 27007KT 240V330 9999 4000N -RA VCTS FEW005 FEW010CB BKN020 23/21 A2990 BECMG 5000 RA=
201809302200 METAR MROC 302200Z 21004KT 5000 2000SW -TSRA BR FEW003 FEW010CB BKN025 21/20 A2992 NOSIG=
201809302300 METAR MROC 302300Z 08003KT 8000 -RA VCTS VCFG FEW005 FEW015CB SCT030 BKN070 21/20 A2994 NOSIG=
201810010000 METAR MROC 010000Z VRB02KT 7000 RA FEW007 SCT015 BKN060 20/20 A2996 NOSIG=
201810010100 METAR MROC 010100Z VRB01KT 9000 RA FEW015 BKN100 21/20 A2998 NOSIG=
201810010200 METAR MROC 010200Z VRB02KT 9999 -RA FEW010 BKN100 21/20 A3000 NOSIG=
201810010300 METAR MROC 010300Z VRB02KT CAVOK 21/20 A3002 NOSIG=
201810010400 METAR MROC 010400Z 07006KT CAVOK 21/20 A3002 NOSIG=
201810010500 METAR MROC 010500Z 07008KT 9999 -RA NSC 21/19 A3000 NOSIG=
201810010600 METAR MROC 010600Z 09005KT 9999 -RA NSC 20/19 A2997 NOSIG=
201810010700 METAR MROC 010700Z 03006KT 9999 -RA NSC 21/19 A2994 NOSIG=
201810010800 METAR MROC 010800Z 12004KT 9999 -RA NSC 20/19 A2992 NOSIG=
201810010900 METAR MROC 010900Z 34003KT CAVOK 20/19 A2993 NOSIG=
201810011000 METAR MROC 011000Z 35003KT CAVOK 20/19 A2994 NOSIG=
201810011100 METAR MROC 011100Z 36003KT 300V040 CAVOK 19/18 A2996 NOSIG=
201810011200 METAR MROC 011200Z 10004KT 060V130 9999 FEW040 19/18 A2997 NOSIG=
201810011300 METAR MROC 011300Z 10004KT CAVOK 21/19 A2999 NOSIG=
201810011400 METAR MROC 011400Z 07007KT 9999 FEW040 SCT130 24/19 A3001 NOSIG=
201810011500 METAR MROC 011500Z 10007KT 070V130 9999 FEW040 BKN130 25/18 A3000 NOSIG=
201810011600 METAR MROC 011600Z 12004KT 060V200 9999 FEW040 SCT120 28/18 A2999 BECMG 24008KT=
201810011700 METAR MROC 011700Z 23008KT 9999 FEW030 SCT120 26/21 A2997 NOSIG=
201810011800 METAR MROC 011800Z 24012KT 9999 FEW020 BKN120 25/20 A2995 NOSIG=
201810011900 METAR MROC 011900Z 24008KT 200V260 9999 FEW015TCU FEW025 SCT100 25/20 A2993 BECMG TSRA=
201810012000 METAR MROC 012000Z 28010KT 240V300 9999 -RA FEW008 SCT025 BKN100 23/22 A2993 NOSIG=
201810012100 METAR MROC 012100Z 31007KT 9999 FEW010 SCT020 BKN045 22/20 A2992 NOSIG=
201810012200 METAR MROC 012200Z 27006KT 240V310 9999 FEW010 SCT020 BKN045 22/20 A2994 NOSIG=
201810012300 METAR MROC 012300Z 32003KT 290V360 1500 -RA BR FEW005 SCT010 BKN020 21/20 A2995 NOSIG=
201810020000 METAR MROC 020000Z 35004KT 3000 RA BR FEW005 SCT015 BKN030 20/20 A2998 NOSIG=
201810020100 METAR MROC 020100Z 34004KT 9999 FEW015 BKN100 20/19 A2999 RERA NOSIG=
201810020200 METAR MROC 020200Z 34002KT 9999 FEW015 BKN100 21/19 A3000 NOSIG=
201810020300 METAR MROC 020300Z 15003KT 9999 FEW025 SCT120 20/19 A3001 NOSIG=
201810020400 METAR MROC 020400Z 08003KT CAVOK 20/19 A3001 NOSIG=
201810020500 METAR MROC 020500Z 07005KT CAVOK 21/19 A3000 NOSIG=
201810020600 METAR MROC 020600Z 02003KT 350V050 20/18 A2998 NOSIG=
201810020700 METAR MROC 020700Z 07003KT CAVOK 20/18 A2995 NOSIG=
201810020800 METAR MROC 020800Z 09004KT CAVOK 19/18 A2993 NOSIG=
201810020900 METAR MROC 020900Z 03003KT CAVOK 19/18 A2994 NOSIG=
201810021000 METAR MROC 021000Z 09005KT CAVOK 19/18 A2992 NOSIG=
201810021100 METAR MROC 021100Z 07005KT CAVOK 19/17 A2993 NOSIG=
201810021200 METAR MROC 021200Z 07004KT CAVOK 19/17 A2995 NOSIG=
201810021300 METAR MROC 021300Z VRB02KT 9999 SCT045 BKN200 21/18 A2998 NOSIG=
201810021400 METAR MROC 021400Z VRB02KT 9999 SCT045 22/19 A2999 NOSIG=
201810021500 METAR MROC 021500Z 25005KT 180V320 9999 FEW020 24/18 A3000 NOSIG=
201810021600 METAR MROC 021600Z 23007KT 200V280 9999 SCT025 24/20 A3000 NOSIG=
201810021700 METAR MROC 021700Z 24008KT 200V280 9999 FEW020TCU SCT030 25/20 A2999 NOSIG=
201810021800 METAR MROC 021800Z 23013KT 200V260 9999 FEW015 BKN035 24/21 A2996 NOSIG=
201810021900 METAR MROC 021900Z 24010KT 190V280 9999 VCSH FEW020 SCT050 BKN110 25/21 A2993 NOSIG=
201810022000 METAR MROC 022000Z 26011KT 9999 FEW015 SCT070 BKN120 24/20 A2990 NOSIG=
201810022100 METAR MROC 022100Z 25010KT 9999 SCT020 SCT0200 24/20 A2989 NOSIG=
201810022200 METAR MROC 022200Z 24009KT 210V270 9999 RA FEW020TCU BKN025 22/21 A2991 NOSIG=
201810022300 METAR MROC 022300Z 26005KT 9999 OVC010 22/21 A2993 RERA BECMG 5000 RA BR=
201810030000 METAR MROC 030000Z 26005KT 230V290 9999 BKN012 22/20 A2995 NOSIG=
201810030100 METAR MROC 030100Z 26004KT 9999 BKN015 22/20 A2997 NOSIG=
201810030200 METAR MROC 030200Z 24003KT 9999 -RA FEW008 BKN035 21/20 A2998 NOSIG=
201810030300 METAR MROC 030300Z 28003KT 220V330 9999 SCT012 OVC015 21/20 A2999 NOSIG=
201810030400 METAR MROC 030400Z VRB02KT 9999 SCT012 BKN020 21/20 A2999 NOSIG=
201810030500 METAR MROC 030500Z VRB02KT 9999 FEW009 BKN030 21/20 A2999 NOSIG=
201810030600 METAR MROC 030600Z VRB02KT 8000 3500SW -DZ BCFG SCT003 OVC015 21/20 A2997 NOSIG=
201810030700 METAR MROC 030700Z 31003KT 9999 FEW007 BKN015 21/20 A2994 RERA NOSIG=
201810030800 METAR MROC 030800Z 31003KT 9999 SCT010 BKN030 21/20 A2992 NOSIG=
201810030900 METAR MROC 030900Z 28003KT 9000 -DZ SCT008 BKN025 20/20 A2992 NOSIG=
201810031000 METAR MROC 031000Z VRB02KT 9999 FEW008 SCT025 20/20 A2992 NOSIG=
201810031100 METAR MROC 031100Z VRB03KT 6000 RA SCT006 OVC015 20/20 A2994 NOSIG=
201810031200 METAR MROC 031200Z VRB05KT 9999 -RA FEW002 SCT010 20/20 A2995 NOSIG=
201810031300 METAR MROC 031300Z 30004KT 9999 3000SW -RA BCFG OVC007 20/19 A2997 NOSIG=
201810031400 METAR MROC 031400Z 32005KT 290V350 9999 FEW005 BKN100 21/20 A2998 NOSIG=
201810031500 METAR MROC 031500Z 25008KT 9999 FEW010 BKN100 22/19 A3000 NOSIG=
201810031600 METAR MROC 031600Z 27006KT 230V300 9999 BKN020 23/20 A2999 NOSIG=
201810031700 METAR MROC 031700Z 29005KT 220V020 9999 BKN030 24/20 A2998 NOSIG=
201810031800 METAR MROC 031800Z 25009KT 220V290 9999 SCT030 BKN100 25/21 A2994 NOSIG=
201810031900 METAR MROC 031900Z 25011KT 9999 BKN025 25/19 A2993 NOSIG=
201810032000 METAR MROC 032000Z 24011KT 9999 BKN025 24/20 A2990 NOSIG=
201810032100 METAR MROC 032100Z 23009KT 200V260 9999 SCT020 BKN120 24/20 A2988 NOSIG=
201810032200 METAR MROC 032200Z 25010KT 9999 SCT030 BKN100 23/19 A2989 NOSIG=
201810032300 METAR MROC 032300Z 27008KT 9999 SCT030 BKN100 22/19 A2991 NOSIG=
201810040000 METAR MROC 040000Z 28007KT 250V300 9999 FEW030 OVC100 21/19 A2992 NOSIG=
201810040100 METAR MROC 040100Z 30005KT 9999 FEW010 SCT030 BKN100 21/19 A2995 NOSIG=
201810040200 METAR MROC 040200Z 31005KT 9999 FEW010 SCT030 BKN100 21/19 A2997 NOSIG=
201810040300 METAR MROC 040300Z 28004KT 9999 SCT030 BKN100 21/19 A2998 NOSIG=
201810040400 METAR MROC 040400Z 25003KT 9999 FEW030 BKN100 20/19 A2999 NOSIG=
201810040500 METAR MROC 040500Z 31003KT 9999 FEW020 BKN100 20/19 A2998 NOSIG=
201810040600 METAR MROC 040600Z 34003KT 9999 FEW020 BKN040 20/19 A2996 NOSIG=
201810040700 METAR MROC 040700Z 25002KT 9999 -DZ SCT020 BKN040 20/19 A2994 BECMG RA=
201810040800 METAR MROC 040800Z 18003KT 9999 FEW020 BKN040 20/19 A2991 NOSIG=
201810040900 METAR MROC 040900Z 00000KT 9999 FEW005 BKN040 20/19 A2991 NOSIG=
201810041000 METAR MROC 041000Z 35005KT 9999 -RA SCT005 BKN025 20/19 A2992 NOSIG=
201810041100 METAR MROC 041100Z VRB02KT 9999 -RA SCT025 BKN100 20/19 A2993 NOSIG=
201810041200 METAR MROC 041200Z 24003KT 2500 -RA BR SCT005 BKN030 20/20 A2995 NOSIG=
201810041300 METAR MROC 041300Z 28003KT 8000 -RA VCFG SCT003 BKN030 20/20 A2997 NOSIG=
201810041400 METAR MROC 041400Z VRB02KT 8000 -RA VCFG FEW005 SCT030 BKN100 21/20 A2999 NOSIG=
201810041500 METAR MROC 041500Z VRB02KT 8000 -RA VCFG FEW006 SCT030 BKN100 21/20 A3000 NOSIG=
201810041600 METAR MROC 041600Z 26006KT 9999 BCFG FEW006 SCT030 BKN100 22/21 A3000 NOSIG=
201810041700 METAR MROC 041700Z 29004KT 8000 -RA VCFG FEW005 SCT030 BKN100 21/20 A2998 NOSIG=
201810041800 METAR MROC 041800Z 28006KT 3000 RA BR FEW001 BKN030 20/20 A2996 NOSIG=
201810041900 METAR MROC 041900Z 26006KT 240V310 3000 -RA BR FEW001 BKN030 20/20 A2995 NOSIG=
201810042000 METAR MROC 042000Z 30006KT 5000 -RA BR FEW001 BKN030 20/20 A2992 NOSIG=
201810042100 METAR MROC 042100Z 36006KT 9999 -RA FEW010 SCT030 OVC100 20/20 A2990 NOSIG=
201810042200 METAR MROC 042200Z 27004KT 240V310 9999 -RA FEW010 SCT030 OVC100 21/20 A2990 NOSIG=
201810042300 METAR MROC 042300Z 27005KT 240V300 9999 -RA FEW007 SCT025 OVC100 20/19 A2990 NOSIG=
201810050000 METAR MROC 050000Z 31004KT 270V350 8000 -RA FEW006 SCT030 OVC100 20/20 A2991 NOSIG=
201810050100 METAR MROC 050100Z 31007KT 5000 -RA FEW010 SCT030 OVC100 20/19 A2995 NOSIG=
201810050200 METAR MROC 050200Z 28005KT 9999 -RA FEW010 OVC100 19/19 A2999 NOSIG=
201810050300 METAR MROC 050300Z VRB04KT 9999 -RA FEW010 OVC100 19/19 A3001 NOSIG=
201810050400 METAR MROC 050400Z 33004KT 280V010 9999 VCFG SCT007 BKN020 19/19 A2999 NOSIG=
201810050500 METAR MROC 050500Z 32004KT 290V030 9999 VCFG FEW010 BKN100 19/18 A2999 NOSIG=
201810050600 METAR MROC 050600Z 27004KT 230V310 9999 4000S BCFG FEW001 BKN020 19/18 A2998 NOSIG=
201810050700 METAR MROC 050700Z 10003KT 9999 FEW015 BKN160 19/18 A2994 NOSIG=
201810050800 METAR MROC 050800Z 10004KT CAVOK 19/18 A2992 NOSIG=
201810050900 METAR MROC 050900Z 13002KT CAVOK 19/18 A2992 NOSIG=
201810051000 METAR MROC 051000Z 35002KT CAVOK 19/18 A2994 NOSIG=
201810051100 METAR MROC 051100Z 34003KT 320V030 CAVOK 19/18 A2996 NOSIG=
201810051200 METAR MROC 051200Z 14003KT 9999 2000SW BCFG FEW010 BKN025 19/18 A2997 NOSIG=
201810051300 METAR MROC 051300Z 22003KT 9999 4200SW -RA BCFG SCT015 BKN025 20/19 A3000 NOSIG=
201810051400 METAR MROC 051400Z 01003KT 330V060 5000 -RA BR FEW003 SCT015 BKN045 19/19 A3002 NOSIG=
201810051500 METAR MROC 051500Z VRB01KT 9000 4200SW -RA BCFG FEW004 BKN040 20/19 A3003 NOSIG=
201810051600 METAR MROC 051600Z 25005KT 9999 SCT007 BKN030 20/19 A3003 NOSIG=
201810051700 METAR COR MROC 051700Z 31005KT 250V010 5000 -RA BR SCT008 BKN015 20/20 A3002 NOSIG=
201810051800 METAR MROC 051800Z 27006KT 5000 -RA BR SCT005 OVC015 20/20 A3000 NOSIG=
201810051900 METAR MROC 051900Z 24005KT 200V320 9999 -RA VCFG SCT007 BKNO60 21/20 A2998 NOSIG=
201810052000 METAR MROC 052000Z 24007KT 190V270 5000 -RA BR SCT005 BKNO40 20/19 A2998 NOSIG=
201810052100 METAR MROC 052100Z 23010KT 8000 -RA VCFG SCT010 OVC100 19/18 A2997 NOSIG=
201810052200 METAR MROC 052200Z 26008KT 230V290 8000 -RA VCFG SCT010 BKN100 19/18 A3000 NOSIG=
201810052300 METAR MROC 052300Z 30010G20KT 190V360 9999 FEW007 BKN100 19/18 A3001 NOSIG=
201810060000 METAR MROC 060000Z 36004KT 330V040 9999 FEW010 BKN100 19/18 A3001 NOSIG=
201810060100 METAR MROC 060100Z VRB01KT CAVOK 19/17 A3001 NOSIG=
201810060200 METAR MROC 060200Z 11003KT CAVOK 18/18 A3003 NOSIG=
201810060300 METAR MROC 060300Z VRB02KT CAVOK 18/17 A3004 NOSIG=
201810060400 METAR MROC 060400Z 03003KT CAVOK 18/17 A3006 NOSIG=
201810060500 METAR MROC 060500Z 33003KT 9999 FEW010 BKN120 18/17 A3006 NOSIG=
201810060600 METAR MROC 060600Z 09003KT CAVOK 18/17 A3004 NOSIG=
201810060700 METAR MROC 060700Z 10005KT CAVOK 18/17 A3001 NOSIG=
201810060800 METAR MROC 060800Z 08004KT CAVOK 18/17 A2999 NOSIG=
201810060900 METAR MROC 060900Z 05002KT CAVOK 18/17 A2999 NOSIG=
201810061000 METAR MROC 061000Z 10004KT CAVOK 17/16 A2999 NOSIG=
201810061100 METAR MROC 061100Z 09005KT CAVOK 17/16 A3000 NOSIG=
201810061200 METAR MROC 061200Z COR 08004KT CAVOK 18/16 A3003 NOSIG=
201810061300 METAR MROC 061300Z 08004KT CAVOK 18/16 A3007 NOSIG=
201810061400 METAR MROC 061400Z VRB02KT 9999 FEW020 BKN140 21/17 A3009 NOSIG=
201810061500 METAR MROC 061500Z VRB01KT 9999 FEW020 BKN160 22/17 A3009 BECMG 24007KT=
201810061600 METAR MROC 061600Z 19003KT 100V250 9999 FEW025 BKN140 23/18 A3009 NOSIG=
201810061700 METAR MROC 061700Z 24006KT 180V300 9999 SCT030 24/18 A3006 NOSIG=
201810061800 METAR MROC 061800Z 21008KT 190V260 9999 FEW030 SCT200 25/18 A3004 NOSIG=
201810061900 METAR MROC 061900Z 26009KT 230V290 9999 FEW030 SCT200 25/18 A3001 NOSIG=
201810062000 METAR MROC 062000Z 26007KT 230V310 9999 FEW035 26/17 A2999 NOSIG=
201810062100 METAR MROC 062100Z 24008KT 190V290 9999 SCT035 26/21 A2998 NOSIG=
201810062200 METAR MROC 062200Z 25010KT 230V300 9999 FEW025 SCT250 23/21 A2998 NOSIG=
201810062300 METAR MROC 062300Z 25009KT 9999 SCT015 BKN250 21/20 A3000 NOSIG=
201810070000 METAR MROC 070000Z 26007KT 8000 VCFG FEW002 SCT005 BKN015 20/20 A3001 NOSIG=
201810070100 METAR MROC 070100Z 24005KT 8000 3000SW VCFG FEW002 SCT005 BKN010 20/20 A3004 NOSIG=
201810070200 METAR MROC 070200Z 23003KT 8000 3000SW VCFG FEW002 SCT005 BKN010 20/19 A3006 NOSIG=
201810070300 METAR MROC 070300Z 25003KT 8000 VCFG FEW002 SCT010 20/19 A3007 NOSIG=
201810070400 METAR MROC 070400Z VRB01KT 9999 SCT015 BKN100 20/19 A3007 NOSIG=
201810070500 METAR MROC 070500Z 22002KT 9999 SCT015 BKN100 19/19 A3006 NOSIG=
201810070600 METAR MROC 070600Z 22002KT 3000 BR SCT002 BKN100 19/19 A3005 NOSIG=
201810070700 METAR MROC 070700Z VRB02KT 8000 VCFG SCT007 BKN100 18/18 A3004 NOSIG=
201810070800 METAR MROC 070800Z 08003KT 9999 SCT007 BKN100 18/17 A3002 NOSIG=
201810070900 METAR MROC 070900Z 07006KT 9999 SCT020 BKN100 18/16 A3001 NOSIG=
201810071000 METAR MROC 071000Z 08005KT CAVOK 18/16 A3000 NOSIG=
201810071100 METAR MROC 071100Z 07005KT CAVOK 17/15 A3002 NOSIG=
201810071200 METAR MROC 071200Z 08004KT CAVOK 16/14 A3003 NOSIG=
201810071300 METAR MROC 071300Z 08006KT CAVOK 19/14 A3005 NOSIG=
201810071400 METAR MROC 071400Z 20004KT CAVOK 23/16 A3006 NOSIG=
201810071500 METAR MROC 071500Z 24003KT 180V340 CAVOK 24/16 A3007 NOSIG=
201810071600 METAR MROC 071600Z 23004KT CAVOK 25/17 A3006 NOSIG=
201810071700 METAR MROC 071700Z 24006KT 200V270 CAVOK 26/19 A3004 NOSIG=
201810071800 METAR MROC 071800Z 24009KT 200V280 9999 FEW040 26/19 A3002 NOSIG=
201810071900 METAR MROC 071900Z 25009KT 210V290 CAVOK 26/20 A2999 NOSIG=
201810072000 METAR MROC 072000Z 24010KT 220V280 9999 FEW040 26/21 A2997 NOSIG=
201810072100 METAR MROC 072100Z 26010KT 230V290 9999 FEW020 25/21 A2996 NOSIG=
201810072200 METAR MROC 072200Z 26008KT 230V300 9999 FEW020 SCT200 25/20 A2995 NOSIG=
201810072300 METAR MROC 072300Z 25008KT 230V300 9999 BKN012 22/21 A2996 NOSIG=
201810080000 METAR MROC 080000Z 28005KT 240V300 9999 VCFG FEW005 SCT008 BKN020 22/21 A2998 BECMG 5000 BR=
201810080100 METAR MROC 080100Z 27004KT 240V310 9999 BKN005 21/20 A3000 NOSIG=
201810080200 METAR MROC 080200Z VRB01KT 9999 OVC009 21/20 A3002 BECMG 5000 BR=
201810080300 METAR MROC 080300Z 25003KT 9999 FEW005 OVC012 21/21 A3003 NOSIG=
201810080400 METAR MROC 080400Z 25003KT 9000 FEW003 SCT010 BKNO25 21/20 A3004 NOSIG=
201810080500 METAR MROC 080500Z 25003KT 8000 BCFG FEW004 SCT010 BKNO30 21/20 A3002 NOSIG=
201810080600 METAR MROC 080600Z 24003KT 5000 BR SCT002 BKN025 21/20 A3001 NOSIG=
201810080700 METAR MROC 080700Z 25005KT 0350 R07/0400D FG VV001 21/20 A2999 NOSIG=
201810080800 METAR MROC 080800Z 24005KT 2000 R07/1300U BR OVC002 20/20 A2999 NOSIG=
201810080900 METAR MROC 080900Z 24003KT 5000 BR SCT002 20/20 A2998 NOSIG=
201810081000 METAR MROC 081000Z 00000KT 3000 R07/1300D BR BKN002 20/20 A2998 NOSIG=
201810081100 METAR MROC 081100Z VRB01KT 6000 2800SW BCFG FEW002 SCT010 20/20 A3000 NOSIG=
201810081200 METAR MROC 081200Z VRB02KT 9999 VCFG FEW004 SCT020 BKN040 20/19 A3002 NOSIG=
201810081300 METAR MROC 081300Z 09004KT 050V130 9999 BKN025 22/19 A3004 NOSIG=
201810081400 METAR MROC 081400Z VRB02KT 9999 FEW045 23/18 A3005 BECMG 24008KT=
201810081500 METAR MROC 081500Z VRB02KT 9999 SCT025 24/18 A3006 BECMG 24008KT=
201810081600 METAR MROC 081600Z 28007KT 240V320 9999 SCT030 25/19 A3005 NOSIG=
201810081700 METAR MROC 081700Z 25009KT 190V280 9999 SCT045 25/20 A3003 NOSIG=
201810081800 METAR MROC 081800Z 25011KT 230V290 9999 FEW025 SCT250 26/19 A3001 NOSIG=
201810081900 METAR MROC 081900Z 25011KT 210V280 9999 FEW020TCU FEW030 26/21 A2999 NOSIG=
201810082000 METAR MROC 082000Z 23012KT 9999 FEW010 SCT020TCU 24/21 A2996 NOSIG=
201810082100 METAR MROC 082100Z 24010KT 8000 -RA VCFG FEW005 SCT030 BKN100 22/21 A2996 NOSIG=
201810082200 METAR MROC 082200Z 25007KT 8000 -RA VCFG FEW005 SCT030 BKN100 21/21 A2997 NOSIG=
201810082300 METAR MROC 082300Z 25005KT 5000 BR FEW002 SCT010 BKN030 21/20 A3000 NOSIG=
201810090000 METAR MROC 090000Z 22005KT 5000 BR FEW001 SCT010 BKN030 21/20 A3001 NOSIG=
201810090100 METAR MROC 090100Z 25003KT 220V280 5000 -RA BR FEW001 SCT010 BKN030 21/20 A3003 NOSIG=
201810090200 METAR MROC 090200Z 24003KT 5000 -RA BR FEW001 SCT010 BKN030 21/20 A3004 NOSIG=
201810090300 METAR MROC 090300Z 24003KT 3000 BR FEW001 SCT005 BKN030 21/20 A3006 NOSIG=
201810090400 METAR MROC 090400Z 25003KT 5000 2000SW BR FEW002 SCT005 BKN015 21/20 A3007 NOSIG=
201810090500 METAR MROC 090500Z 25004KT 1500 R07/1100U BR SCT002 BKN005 20/20 A3006 BECMG 3000 BKN010=
201810090600 METAR MROC 090600Z 28004KT 0800 R07/1000U FG VV001 20/20 A3005 NOSIG=
201810090700 METAR MROC 090700Z VRB02KT 1200 BR SCT002 BKN005 20/20 A3002 NOSIG=
201810090800 METAR MROC 090800Z 26004KT 1200 BR SCT002 BKN005 20/20 A3001 NOSIG=
201810090900 METAR MROC 090900Z 00000KT 5000 -DZ BR FEW002 SCT005 BKN010 20/20 A3000 NOSIG=
201810091000 METAR MROC 091000Z 00000KT 7000 3000SW -DZ BCFG SCT004 BKN015 20/19 A3000 NOSIG=
201810091100 METAR MROC 091100Z 03003KT 9999 3000SW BCFG FEW004 SCT020 19/18 A3000 NOSIG=
201810091200 METAR MROC 091200Z 00000KT 9999 3000SW BCFG SCT004 BKN020 19/18 A3001 BECMG 5000 BR=
201810091300 METAR MROC 091300Z VRB02KT 3000 R07/0225D BR SCT001 BKN030 20/19 A3004 BECMG 0800 FG=
201810091400 METAR MROC 091400Z 260054KT 1300 R07/1400U BR SCT002 BKN010 20/20 A3005 BECMG 5000 BR=
201810091500 METAR MROC 091500Z 24003KT 8000 VCFG FEW002 SCT010 BKN030 20/20 A3007 NOSIG=
201810091600 METAR MROC 091600Z 26006KT 9999 FEW010 SCT030 23/20 A3007 NOSIG=
201810091700 METAR MROC 091700Z 23007KT 200V270 9999 SCT030 25/20 A3005 NOSIG=
201810091800 METAR MROC 091800Z 24008KT 190V270 9999 BKN030 25/19 A3003 NOSIG=
201810091900 METAR MROC 091900Z 24008KT 210V270 9999 BKN030 25/19 A3001 NOSIG=
201810092000 METAR MROC 092000Z 25009KT 180V270 9999 BKN030 26/20 A2999 NOSIG=
201810092100 METAR MROC 092100Z 25009KT 210V280 9999 SCT015TCU SCT110 24/21 A2998 NOSIG=
201810092200 METAR MROC 092200Z 26009KT 9999 -TSRA SCT010CB BKN020 23/21 A2998 BECMG 5000 RA=
201810092300 METAR MROC 092300Z 28003KT 240V020 8000 -RA SCT005 BKN015 22/20 A2999 NOSIG=
201810100000 METAR MROC 100000Z 24004KT 5000 BR SCT005 BKN020 21/20 A3001 NOSIG=
201810100100 METAR MROC 100100Z 23005KT 5000 BR SCT004 BKN020 21/20 A3005 NOSIG=
201810100200 METAR MROC 100200Z 26004KT 230V320 0500 FG FEW001 BKN006 21/20 A3006 BECMG 1500 BR=
201810100300 METAR MROC 100300Z 23003KT 200V280 5000 -RA BR SCT003 BKN010 21/20 A3007 NOSIG=
201810100400 METAR MROC 100400Z 24003KT 3500 BR SCT001 BKN005 21/20 A3008 NOSIG=
201810100500 METAR MROC 100500Z 26003KT 4500 2000SW BR SCT001 BKN004 21/20 A3007 NOSIG=
201810100600 METAR MROC 100600Z 25005KT 1500 R07/1000U BR OVC002 20/20 A3005 NOSIG=
201810100700 METAR MROC 100700Z 36003KT 250V050 2000 BR BKN002 19/19 A3003 NOSIG=
201810100800 METAR MROC 100800Z 05004KT 9999 VCFG BKN004 20/17 A3001 NOSIG=
201810100900 METAR MROC 100900Z VRB02KT 9999 VCFG FEW005 OVC025 19/17 A3000 NOSIG=
201810101000 METAR MROC 101000Z 06004KT 9999 VCFG FEW015 SCT030 19/17 A3000 NOSIG=
201810101100 METAR MROC 101100Z 07005KT 9999 VCFG FEW015 SCT030 19/17 A3001 NOSIG=
201810101200 METAR MROC 101200Z 03006KT CAVOK 20/17 A3002 NOSIG=
201810101300 METAR MROC 101300Z 06004KT 040V110 CAVOK 21/17 A3003 NOSIG=
201810101400 METAR MROC 101400Z 03004KT 350V080 CAVOK 23/18 A3004 NOSIG=
201810101500 METAR MROC 101500Z VRB04KT CAVOK 25/17 A3004 NOSIG=
201810101600 METAR MROC 101600Z 23010KT CAVOK 24/20 A3005 NOSIG=
201810101700 METAR MROC 101700Z 26009KT 230V300 9999 FEW025 25/20 A3004 NOSIG=
201810101800 METAR MROC 101800Z 25010KT 9999 BKN025 25/20 A3003 NOSIG=
201810101900 METAR MROC 101900Z 24010KT 210V290 9999 SCT025 26/21 A3001 NOSIG=
201810102000 METAR MROC 102000Z 24011KT 9999 BKN030 25/21 A2998 NOSIG=
201810102100 METAR MROC 102100Z 25010KT 210V270 9999 -RA FEW015 SCT030 24/21 A2996 NOSIG=
201810102200 METAR MROC 102200Z 24009KT 9999 FEW006 SCT040 23/21 A2998 NOSIG=
201810102300 METAR MROC 102300Z 24006KT 9999 FEW007 SCT030 22/20 A2999 NOSIG=
201810110000 METAR MROC 110000Z 26004KT 9000 VCFG SCT006 BKN025 22/20 A3001 BECMG 5000 RA BR=
201810110100 METAR MROC 110100Z 22004KT 9000 4200SW BCFG SCT006 BKN020 21/20 A3004 NOSIG=
201810110200 METAR MROC 110200Z 28003KT 250V330 9000 4200SW BCFG SCT006 BKN020 21/20 A3006 NOSIG=
201810110300 METAR MROC 110300Z 29003KT 240V320 9999 FEW009 BKN025 22/20 A3007 NOSIG=
201810110400 METAR MROC 110400Z 26003KT 200V310 8000 VCFG FEW005 BKN020 21/20 A3006 NOSIG=
201810110500 METAR MROC 110500Z 30004KT 9999 BCFG FEW005 BKN020 21/20 A3005 NOSIG=
201810110600 METAR MROC 110600Z VRB02KT 9999 3000SW BCFG FEW002 BKN020 21/20 A3004 NOSIG=
201810110700 METAR MROC 110700Z 27004KT 5000 2000SW R07/0500D BR SCT004 BKN025 21/20 A3002 NOSIG=
201810110800 METAR MROC 110800Z 00000KT 9999 BCFG FEW007 BKN030 20/20 A3000 NOSIG=
201810110900 METAR MROC 110900Z 08003KT 9999 FEW030 19/19 A2999 NOSIG=
201810111000 METAR MROC 111000Z 02004KT 9999 FEW030 19/18 A2999 NOSIG=
201810111100 METAR MROC 111100Z 07003KT 020V100 9999 FEW020 19/18 A3001 NOSIG=
201810111200 METAR MROC 111200Z 07003KT 9999 FEW020 SCT250 19/17 A3001 NOSIG=
201810111300 METAR MROC 111300Z VRB02KT 9999 FEW020 SCT250 22/18 A3003 NOSIG=
201810111400 METAR MROC 111400Z 25004KT 200V300 9999 FEW020 SCT250 24/19 A3004 NOSIG=
201810111500 METAR MROC 111500Z 26006KT 230V290 9999 FEW030 SCT250 24/20 A3005 NOSIG=
201810111600 METAR MROC 111600Z 24008KT 210V280 9999 FEW020 SCT070 26/20 A3004 NOSIG=
201810111700 METAR MROC 111700Z 24009KT 200V270 9999 FEW025 SCT080 26/21 A3002 NOSIG=
201810111800 METAR MROC 111800Z 24013KT 9999 -RA FEW012 SCT045 24/21 A3000 NOSIG=
201810111900 METAR MROC 111900Z 22007KT 170V270 5000 -RA VCTS FEW004 FEW010CB BKN040 23/22 A2998 NOSIG=
201810112000 METAR MROC 112000Z 23007KT 190V260 9000 VCFG FEW006 SCT040 24/22 A2996 NOSIG=
201810112100 METAR MROC 112100Z 24007KT 220V280 8000 VCFG SCT010 BKN015 23/22 A2995 NOSIG=
201810112200 METAR MROC 112200Z 24007KT 5000 BR SCT005 BKN010 22/21 A2994 NOSIG=
201810112300 METAR MROC 112300Z 23005KT 1000 R07/P2000N BR FEW001 SCT005 BKN010 22/21 A2997 BECMG 0800 FG=
201810120000 METAR MROC 120000Z 22005KT 0500 -RA FG VV002 21/21 A2999 NOSIG=
201810120100 METAR MROC 120100Z 08005KT 050V120 5000 1000SW +RA BR VCTS FEW001 SCT005 BKN010 20/19 A3004 NOSIG=
201810120200 METAR MROC 120200Z 08007KT 9999 RA FEW030 BKN100 20/19 A3006 RETS NOSIG=
201810120300 METAR MROC 120300Z 07006KT 9999 -RA FEW010 BKN100 20/18 A3005 NOSIG=
201810120400 METAR MROC 120400Z VRB02KT 9999 -RA SCT010 BKN020 20/19 A3008 NOSIG=
201810120500 METAR MROC 120500Z VRB02KT 9999 SCT010 OVC100 21/19 A3006 NOSIG=
201810120600 METAR MROC 120600Z VRB01KT 9999 -RA SCT015 OVC100 20/19 A3005 NOSIG=
201810120700 METAR MROC 120700Z 06003KT 9999 -RA SCT015 OVC100 20/19 A3003 NOSIG=
201810120800 METAR MROC 120800Z 34002KT 9999 -RA FEW025 OVC100 20/19 A3001 NOSIG=
201810120900 METAR MROC 120900Z VRB02KT 8000 -DZ FEW010 OVC100 20/19 A3000 NOSIG=
201810121000 METAR MROC 121000Z 09002KT 8000 VCFG FEW020 OVC100 20/19 A3000 NOSIG=
201810121100 METAR MROC 121100Z VRB01KT 5000 BR FEW002 SCT010 OVC100 20/19 A3002 NOSIG=
201810121200 METAR MROC 121200Z VRB02KT 5000 BR FEW006 SCT015 OVC110 20/19 A3003 NOSIG=
201810121300 METAR MROC 121300Z VRB02KT 8000 3000SW BCFG FEW001 SCT030 OVC100 21/20 A3006 NOSIG=
201810121400 METAR MROC 121400Z VRB02KT 8000 3000SW BCFG FEW001 SCT020 BKN100 23/20 A3006 NOSIG=
201810121500 METAR MROC 121500Z VRB03KT 8000 FEW005 SCT025 23/19 A3007 NOSIG=
201810121600 METAR MROC 121600Z 23008KT 8000 FEW015 BKN200 24/21 A3006 NOSIG=
201810121700 METAR MROC 121700Z 25009KT 220V290 8000 SCT015 BKN200 24/21 A3006 NOSIG=
201810121800 METAR MROC 121800Z 26010KT 8000 -RA VCTS SCT015 BKN100 23/20 A3003 NOSIG=
201810121900 METAR MROC 121900Z 26008KT 7000 2500W -RA VCTS FEW005 SCT030 BKN100 21/20 A3002 NOSIG=
201810122000 METAR MROC 122000Z 25007KT 5000 -RA BR FEW001 SCT015 OVC060 21/20 A2999 NOSIG=
201810122100 METAR MROC 122100Z 25008KT 2000 -RA BR BKN005 21/20 A2998 NOSIG=
201810122200 METAR MROC 122200Z 35004KT 3000 RA BR FEW005 OVC010 20/19 A2999 NOSIG=
201810122300 METAR MROC 122300Z 01004KT 350V050 9999 4500SW -RA BCFG FEW008 BKN050 20/19 A2999 NOSIG=
201810130000 METAR MROC 130000Z 14003KT 9999 -RA FEW010 BKN040 20/19 A3001 NOSIG=
201810130100 METAR MROC 130100Z 00000KT 9999 R07/P2000N -DZ FEW007 BKN030 20/20 A3004 NOSIG=
201810130200 METAR MROC 130200Z 25004KT 210V290 9999 VCFG FEW003 BKN008 20/20 A3006 BECMG 5000 BR=
201810130300 METAR MROC 130300Z VRB02KT 9999 FEW007 BKN011 20/19 A3006 NOSIG=
201810130400 METAR MROC 130400Z VRB01KT 9999 FEW012 SCT100 20/19 A3006 NOSIG=
201810130500 METAR MROC 130500Z 35003KT 270V050 9999 FEW006 BKN100 20/19 A3006 NOSIG=
201810130600 METAR MROC 130600Z VRB02KT 7000 -RA BCFG SCT002 BKN100 20/19 A3003 BECMG 5000 BR=
201810130700 METAR MROC 130700Z VRB02KT 9000 -RA VCFG SCT004 BKN020 20/19 A3003 NOSIG=
201810130800 METAR MROC 130800Z 32002KT 9000 FEW007 SCT040 20/19 A3003 NOSIG=
201810130900 METAR MROC 130900Z 11001KT 9999 -RA FEW020 BKN100 20/19 A3000 NOSIG=
201810131000 METAR MROC 131000Z 10003KT 9999 FEW015 BKN100 19/19 A3000 NOSIG=
201810131100 METAR MROC 131100Z VRB01KT 9999 FEW020 BKN100 19/19 A3000 NOSIG=
201810131200 METAR MROC 131200Z 36003KT 320V060 9999 VCFG FEW005 BKN100 20/19 A3002 NOSIG=
201810131300 METAR MROC 131300Z 12004KT 090V150 9999 3000SW BCFG NSC 21/20 A3003 BECMG 22004KT=
201810131400 METAR MROC 131400Z VRB02KT 9999 4000SW BCFG FEW010 BKN120 22/19 A3006 BECMG 22004KT=
201810131500 METAR MROC 131500Z 25007KT 9999 4000SW BCFG FEW005 BKN030 21/20 A3009 BECMG BKN010=
201810131600 METAR MROC 131600Z 27003KT 220V320 9999 FEW010 SCT025 21/20 A3008 NOSIG=
201810131700 METAR MROC 131700Z VRB03KT 9999 FEW030 BKN130 24/20 A3004 NOSIG=
201810131800 METAR MROC 131800Z 23008KT 200V280 9999 FEW035 BKN160 25/20 A3001 NOSIG=
201810131900 METAR MROC 131900Z 21011KT 180V250 9999 SCT040 24/20 A3000 NOSIG=
201810132000 METAR MROC 132000Z 24010KT 9999 FEW020 SCT035 24/20 A2998 NOSIG=
201810132100 METAR MROC 132100Z 30006KT 200V360 9999 3000SW RA SCT020 BKN100 21/19 A2997 NOSIG=
201810132200 METAR MROC 132200Z 32005KT 260V070 9999 3000SW -RA BCFG FEW002 SCT020 BKN100 20/19 A2999 RERA NOSIG=
201810132300 METAR MROC 132300Z VRB02KT 9999 3000SW BCFG FEW003 SCT020 BKN100 21/19 A3000 NOSIG=
201810140000 METAR MROC 140000Z 29003KT 8000 RA VCFG FEW003 BKN030 20/19 A3002 NOSIG=
201810140100 METAR MROC 140100Z VRB02KT 9999 FEW010 BKN040 21/19 A3003 RERA NOSIG=
201810140200 METAR MROC 140200Z 15004KT 9999 2000SW BCFG FEW001 SCT010 BKN040 20/19 A3005 NOSIG=
201810140300 METAR MROC 140300Z 11003KT 9999 SCT040 19/19 A3005 NOSIG=
201810140400 METAR MROC 140400Z 05003KT CAVOK 20/19 A3005 NOSIG=
201810140500 METAR MROC 140500Z 00000KT CAVOK 20/19 A3004 NOSIG=
201810140600 METAR MROC 140600Z 22003KT 1500 BR SCT001 BKN030 19/19 A3003 NOSIG=
201810140700 METAR MROC 140700Z 34002KT 5000 -DZ BR SCT002 BKN030 19/19 A3002 NOSIG=
201810140800 METAR MROC 140800Z 00000KT 8000 VCFG SCT006 BKN080 19/19 A3000 NOSIG=
201810140900 METAR MROC 140900Z VRB02KT 8000 VCFG FEW002 SCT006 BKN080 19/19 A2999 NOSIG=
201810141000 METAR MROC 141000Z 00000KT 8000 VCFG FEW002 SCT006 BKN080 19/19 A3000 NOSIG=
201810141100 METAR MROC 141100Z VRB02KT 8000 VCFG SCT020 BKN080 20/19 A3002 NOSIG=
201810141200 METAR MROC 141200Z 00000KT 9999 BCFG FEW010 SCT040 BKN080 20/19 A3003 NOSIG=
201810141300 METAR MROC 141300Z VRB02KT 9999 FEW020 SCT080 21/19 A3004 NOSIG=
201810141400 METAR MROC 141400Z 26003KT 200V320 9999 FEW020 SCT120 22/19 A3006 NOSIG=
201810141500 METAR MROC 141500Z 28006KT 220V300 9999 SCT030 23/19 A3007 NOSIG=
201810141600 METAR MROC 141600Z 24008KT 9999 SCT030 24/20 A3007 NOSIG=
201810141700 METAR MROC 141700Z 23010KT 9999 SCT030 BKN070 23/20 A3004 NOSIG=
201810141800 METAR MROC 141800Z 25009KT 220V280 9999 SCT030 BKN070 24/21 A3001 NOSIG=
201810141900 METAR MROC 141900Z 23008KT 200V270 9999 BKN035 24/20 A2999 NOSIG=
201810142000 METAR MROC 142000Z 25009KT 9999 SCT030 BKN100 24/21 A2996 NOSIG=
201810142100 METAR MROC 142100Z 25010KT 9999 SCT020 SCT030 23/21 A2994 NOSIG=
201810142200 METAR MROC 142200Z 26009KT 9999 SCT010 BKN020 22/20 A2994 NOSIG=
201810142300 METAR MROC 142300Z 24005KT 3000 RA BR SCT003 BKN015 21/20 A2997 BECMG 1500=
201810150000 METAR MROC 150000Z 24004KT 8000 VCFG SCT006 BKN020 21/20 A2999 RERA NOSIG=
201810150100 METAR MROC 150100Z 23004KT 200V260 8000 DZ SCT005 BKN015 20/20 A3001 NOSIG=
201810150200 METAR MROC 150200Z 24004KT 5000 RA SCT015 OVC100 20/19 A3004 NOSIG=
201810150300 METAR MROC 150300Z 27005KT 8000 -RA SCT005 OVC100 20/19 A3005 NOSIG=
201810150400 METAR MROC 150400Z 27004KT 240V300 3000 -RA BKN005 20/19 A3006 NOSIG=
201810150500 METAR MROC 150500Z 29003KT 9999 OVC010 20/19 A3004 NOSIG=
201810150600 METAR MROC NIL=
201810150700 METAR MROC 150700Z VRB01KT 9999 FEW005 BKN010 20/19 A2998 NOSIG=
201810150800 METAR MROC 150800Z 23002KT 9999 3000S BCFG FEW003 OVC010 20/19 A2998 NOSIG=
201810150900 METAR MROC 150900Z VRB02KT 9999 FEW001 OVC010 20/19 A2997 NOSIG=
201810151000 METAR MROC 151000Z 11003KT 090V160 9999 SCT010 BKN025 20/19 A2996 NOSIG=
201810151100 METAR MROC 151100Z 17002KT 9999 FEW020 SCT035 20/19 A2998 NOSIG=
201810151200 METAR MROC 151200Z 33002KT 9999 4500SW BCFG FEW005 OVC015 20/20 A3000 NOSIG=
201810151300 METAR MROC 151300Z 34003KT 310V030 9999 SCT008 BKN030 21/19 A3001 NOSIG=
201810151400 METAR MROC 151400Z 30003KT 210V010 9999 SCT015 23/20 A3002 NOSIG=
201810151500 METAR MROC 151500Z 28007KT 240V300 9999 SCT015 BKN140 23/20 A3003 NOSIG=
201810151600 METAR MROC 151600Z 25007KT 219V289 9999 SCT015 BKN130 23/21 A3003 NOSIG=
201810151700 METAR MROC 151700Z 25006KT 210V300 9999 SCT015 BKN120 23/20 A3001 NOSIG=
201810151800 METAR MROC 151800Z 23009KT 200V260 9999 FEW015 BKN120 25/21 A2998 NOSIG=
201810151900 METAR MROC 151900Z 26010KT 220V290 9999 -RA SCT010 BKN020 22/21 A2996 NOSIG=
201810152000 METAR MROC 152000Z 25010KT 9999 -RA SCT005 OVC100 21/20 A2994 NOSIG=
201810152100 METAR MROC 152100Z 26009KT 3000 RA BR SCT003 BKN020 20/20 A2993 NOSIG=
201810152200 METAR MROC 152200Z 28005KT 250V330 5000 BR SCT002 OVC015 20/20 A2994 RERA NOSIG=
201810152300 METAR MROC 152300Z 32003KT 270V340 6000 2800SW BCFG BKN004 OVC015 20/20 A2996 NOSIG=
201810160000 METAR MROC 160000Z 26007KT 1500 RA BR BKN003 OVC015 20/20 A2997 NOSIG=
201810160100 METAR MROC 160100Z 26005KT 6000 2500SW RA BCFG SCT002 OVC020 20/20 A2999 NOSIG=
201810160200 METAR MROC 160200Z 29004KT 5000 -RA BR SCT001 OVC015 20/19 A3002 NOSIG=
201810160300 METAR MROC 160300Z 28004KT 260V330 5000 -RA BR SCT003 OVC020 20/19 A3003 NOSIG=
201810160400 METAR MROC 160400Z VRB02KT 9999 FEW010 SCT040 OVC070 20/19 A3003 NOSIG=
201810160500 METAR MROC 160500Z 15002KT 120V180 9999 SCT040 BKN070 20/19 A3002 NOSIG=
201810160600 METAR MROC 160600Z 00000KT 9999 BCFG FEW005 SCT040 BKN070 20/19 A2999 NOSIG=
201810160700 METAR MROC 160700Z 20003KT 160V250 9999 2000SW BCFG SCT003 OVC070 20/19 A2998 NOSIG=
201810160800 METAR MROC 160800Z VRB01KT 9999 BCFG FEW003 BKN070 20/19 A2997 NOSIG=
201810160900 METAR MROC 160900Z 01002KT CAVOK 20/19 A2995 NOSIG=
201810161000 METAR MROC 161000Z 22003KT 3000 BR FEW0012 BKN100 20/19 A2996 NOSIG=
201810161100 METAR MROC 161100Z 00000KT 5000 BR FEW001 BKN030 20/19 A2998 NOSIG=
201810161200 METAR MROC 161200Z 05003KT 8000 VCFG FEW002 SCT030 BKN100 20/19 A2999 NOSIG=
201810161300 METAR MROC 161300Z 00000KT 9999 4000SW BCFG FEW002 BKN120 21/20 A3000 NOSIG=
201810161400 METAR MROC 161400Z 27003KT 5000 2200SW -RA BR SCT003 BKN070 20/20 A3003 NOSIG=
201810161500 METAR MROC 161500Z VRB02KT 8000 VCFG FEW010 SCT070 22/20 A3003 NOSIG=
201810161600 METAR MROC 161600Z 24008KT 9999 VCFG FEW008 BKN070 22/20 A3004 BECMG BKN020=
201810161700 METAR MROC 161700Z 25005KT 210V290 9999 FEW007 SCT030 22/20 A3001 NOSIG=
201810161800 METAR MROC 161800Z 25007KT 9999 FEW005 BKN020 22/21 A2999 BECMG RA=
201810161900 METAR MROC 161900Z 23007KT 9999 SCT007 BKN025 22/20 A2996 NOSIG=
201810162000 METAR MROC 162000Z 24006KT 210V270 9999 4000N -RA BCFG FEW004 SCT010 BKN030 21/20 A2994 BECMG 5000=
201810162100 METAR MROC 162100Z 20005KT 9999 4000N -RA BCFG FEW005 BKN015 21/20 A2993 NOSIG=
201810162200 METAR MROC 162200Z 25005KT 8000 3500N -RA VCFG FEW005 SCT010 BKN015 20/20 A2994 BECMG 5000 BR=
201810162300 METAR MROC 162300Z 29003KT 8000 VCFG SCT007 BKN012 20/19 A2996 NOSIG=
201810170000 METAR MROC 170000Z 28004KT 240V300 9999 BCFG SCT007 BKN012 20/20 A2998 NOSIG=
201810170100 METAR MROC 170100Z 25005KT 5000 -RA BR FEW002 SCT007 BKN012 19/19 A2999 NOSIG=
201810170200 METAR MROC 170200Z 28003KT 190V310 3000 DZ BR FEW001 SCT005 BKN012 19/19 A3002 NOSIG=
201810170300 METAR MROC 170300Z VRB02KT 9999 -RA BCFG SCT007 BKN012 20/19 A3003 NOSIG=
201810170400 METAR MROC 170400Z VRB02KT 9999 -RA SCT010 BKN020 20/19 A3003 NOSIG=
201810170500 METAR MROC 170500Z 10003KT 070V130 9999 -RA SCT015 OVC100 20/19 A3002 NOSIG=
201810170600 METAR MROC 170600Z 13002KT CAVOK 20/19 A3001 NOSIG=
201810170700 METAR MROC 170700Z 06004KT CAVOK 20/19 A2998 NOSIG=
201810170800 METAR MROC 170800Z 07003KT CAVOK 20/19 A2996 NOSIG=
201810170900 METAR MROC 170900Z 07003KT CAVOK 20/19 A2994 NOSIG=
201810171000 METAR MROC 171000Z 20001KT 1200 -RA BR SCT002 BKN100 19/19 A2994 NOSIG=
201810171100 METAR MROC 171100Z VRB01KT 2400 -RA BR SCT003 OVC100 19/19 A2997 NOSIG=
201810171200 METAR MROC 171200Z VRB02KT 1200 -RA BR BKN002 19/19 A3000 NOSIG=
201810171300 METAR MROC 171300Z 29004KT 1500 BR FEW001 SCT002 BKN008 19/19 A3002 BECMG 3000=
201810171400 METAR MROC 171400Z VRB02KT 7000 1500SW BCFG FEW001 SCT010 BKN020 20/19 A3003 NOSIG=
201810171500 METAR MROC 171500Z 20003KT 130V260 8000 2000W BCFG FEW001 SCT015 OVC030 21/20 A3005 NOSIG=
201810171600 METAR MROC 171600Z 23005KT 190V250 9999 FEW015 BKN100 22/20 A3005 NOSIG=
201810171700 METAR MROC 171700Z 22005KT 150V310 9999 FEW020 BKN100 23/20 A3002 NOSIG=
201810171800 METAR MROC 171800Z 24008KT 210V270 9999 FEW016 SCT025 BKN100 23/19 A3000 NOSIG=
201810171900 METAR MROC 171900Z 25008KT 9999 VCSH FEW015 SCT025 BKN100 23/20 A2997 BECMG SHRA=
201810172000 METAR MROC 172000Z 25007KT 9999 FEW008 SCT020 BKN090 22/20 A2996 BECMG SHRA BKN020=
201810172100 METAR MROC 172100Z 23007KT 9999 3000SW BCFG BKN010 21/20 A2996 BECMG 5000 BR=
201810172200 METAR MROC 172200Z 26005KT 4000 RA BR BKN010 20/20 A2996 NOSIG=
201810172300 METAR MROC 172300Z 25004KT 3000 BR OVC012 20/19 A2999 RERA NOSIG=
201810180000 METAR MROC 180000Z VRB02KT 6000 RA FEW004 BKN040 20/19 A3002 NOSIG=
201810180100 METAR MROC 180100Z 14003KT 9999 -RA FEW001 BKN060 20/19 A3003 NOSIG=
201810180200 METAR MROC 180200Z 10004KT 9999 4000S -RA BCFG FEW001 OVC060 19/18 A3005 NOSIG=
201810180300 METAR MROC 180300Z 34003KT 9999 -RA FEW010 BKN100 19/19 A3008 NOSIG=
201810180400 METAR MROC 180400Z 09005KT 9999 -RA NSC 19/19 A3005 NOSIG=
201810180500 METAR MROC 180500Z 09004KT CAVOK 19/19 A3003 NOSIG=
201810180600 METAR MROC 180600Z 28003KT CAVOK 19/18 A3001 NOSIG=
201810180700 METAR MROC 180700Z VRB02KT 9999 FEW008 BKN110 19/18 A2999 NOSIG=
201810180800 METAR MROC 180800Z 00000KT 9999 FEW006 BKN120 19/18 A2998 NOSIG=
201810180900 METAR MROC 180900Z 16004KT 0500 FG BKN001 19/18 A2998 NOSIG=
201810181000 METAR MROC 181000Z 03003KT 9999 FEW006 BKN120 19/18 A2999 NOSIG=
201810181100 METAR MROC 181100Z 08004KT 9999 FEW010 BKN120 19/18 A3000 NOSIG=
201810181200 METAR MROC 181200Z 07005KT CAVOK 19/18 A3001 NOSIG=
201810181300 METAR MROC 181300Z 07004KT 030V140 9999 FEW003 BKN100 21/18 A3004 NOSIG=
201810181400 METAR MROC 181400Z 08004KT 040V110 9999 2500SW FEW002 BKN120 22/18 A3006 NOSIG=
201810181500 METAR MROC 181500Z 09006KT 050V130 CAVOK 23/18 A3006 NOSIG=
201810181600 METAR MROC 181600Z 14003KT 050V220 CAVOK 25/18 A3005 NOSIG=
201810181700 METAR MROC 181700Z 24009KT 9999 FEW040 BKN140 25/21 A3002 NOSIG=
201810181800 METAR MROC 181800Z 27006KT 230V300 9999 FEW020TCU BKN100 24/20 A3001 NOSIG=
201810181900 METAR MROC 181900Z VRB02KT 9999 FEW045 BKN160 26/21 A2998 NOSIG=
201810182000 METAR MROC 182000Z 09006KT 9999 FEW040 SCT140 27/19 A2994 NOSIG=
201810182100 METAR MROC 182100Z 10009KT CAVOK 26/18 A2993 NOSIG=
201810182200 METAR MROC 182200Z 25009KT 5000 BR FEW001 BKN020 22/21 A2994 NOSIG=
201810182300 METAR MROC 182300Z 23008KT 8000 VCFG VCTS SCT002 BKN010 21/21 A2998 NOSIG=
201810190000 METAR MROC 190000Z 26003KT 9999 BCFG SCT002 BKN020 21/20 A3001 NOSIG=
201810190100 METAR MROC 190100Z VRB02KT 9999 3000SW BCFG SCT005 BKN020 21/20 A3004 NOSIG=
201810190200 METAR MROC 190200Z VRB02KT 9999 FEW005 SCT020 BKN100 22/20 A3006 NOSIG=
201810190300 METAR MROC 190300Z 00000KT 9999 FEW005 SCT030 BKN100 21/20 A3007 NOSIG=
201810190400 METAR MROC 190400Z 00000KT 9999 FEW030 BKN100 21/20 A3007 NOSIG=
201810190500 METAR MROC 190500Z 33003KT 9999 FEW015 BKN140 21/20 A3006 NOSIG=
201810190600 METAR MROC 190600Z 07003KT 030V110 9999 FEW015 BKN140 21/20 A3003 NOSIG=
201810190700 METAR MROC 190700Z 07004KT CAVOK 20/18 A3000 NOSIG=
201810190800 METAR MROC 190800Z 08006KT CAVOK 20/17 A2997 NOSIG=
201810190900 METAR MROC 190900Z 10007KT CAVOK 21/17 A2996 NOSIG=
201810191000 METAR MROC 191000Z 04007KT CAVOK 20/17 A2997 NOSIG=
201810191100 METAR MROC 191100Z 06009KT CAVOK 19/17 A2997 NOSIG=
201810191200 METAR MROC 191200Z 07006KT CAVOK 20/17 A2999 NOSIG=
201810191300 METAR MROC 191300Z VRB03KT CAVOK 23/18 A3001 NOSIG=
201810191400 METAR MROC 191400Z 25006KT CAVOK 23/19 A3004 NOSIG=
201810191500 METAR MROC 191500Z 17007KT 100V240 CAVOK 27/18 A3004 NOSIG=
201810191600 METAR MROC 191600Z VRB04KT CAVOK 28/17 A3005 NOSIG=
201810191700 METAR MROC 191700Z 25008KT 210V280 CAVOK 27/21 A3002 NOSIG=
201810191800 METAR MROC 191800Z 25009KT 210V280 9999 SCT030 26/21 A2999 NOSIG=
201810191900 METAR MROC 191900Z 24010KT 9999 FEW020 SCT050 BKN100 25/21 A2996 NOSIG=
201810192000 METAR MROC 192000Z 25009KT 9999 -TSRA SCT015 BKN080 25/21 A2993 NOSIG=
201810192100 METAR MROC 192100Z 35005KT 300V010 -RA VCTS FEW020 SCT025 23/19 A2993 NOSIG=
201810192200 METAR MROC 192200Z 25004KT 9999 -RA VCTS FEW007 SCT020 22/21 A2994 NOSIG=
201810192300 METAR MROC 192300Z VRB02KT 5000 -RA BR SCT005 BKN010 22/21 A2996 NOSIG=
201810200000 METAR MROC 200000Z VRB02KT 8000 VCFG SCT008 BKN100 22/21 A2998 NOSIG=
201810200100 METAR MROC 200100Z 28004KT 240V300 8000 VCFG FEW008 BKN100 22/21 A2999 NOSIG=
201810200200 METAR MROC 200200Z 24004KT 210V290 5000 BR SCT002 BKN100 21/21 A3002 NOSIG=
201810200300 METAR MROC 200300Z 02003KT 350V050 5000 BR FEW004 21/21 A3002 NOSIG=
201810200400 METAR MROC 200400Z 04004KT 010V070 9999 1000S BCFG FEW001 BKN100 21/20 A3002 NOSIG=
201810200500 METAR MROC 200500Z 15003KT 110V180 9999 2000S BCFG FEW002 BKN180 20/19 A3000 NOSIG=
201810200600 METAR MROC 200600Z 36002KT 9999 2000SW BCFG FEW001 19/19 A2998 NOSIG=
201810200700 METAR MROC 200700Z 03004KT CAVOK 19/18 A2994 NOSIG=
201810200800 METAR MROC NIL=
201810200900 METAR MROC 200900Z 03004KT 360V080 CAVOK 19/17 A2993 NOSIG=
201810201000 METAR MROC 201000Z 07008KT CAVOK 20/17 A2993 NOSIG=
201810201100 METAR MROC 201100Z 02006KT 350V050 CAVOK 20/17 A2996 NOSIG=
201810201200 METAR MROC 201200Z 04008KT 010V080 9999 FEW045 21/17 A2997 NOSIG=
201810201300 METAR MROC 201300Z 06011KT 030V090 CAVOK 22/18 A2999 NOSIG=
201810201400 METAR MROC 201400Z 11009KT CAVOK 24/18 A3001 NOSIG=
201810201500 METAR MROC 201500Z 07007KT CAVOK 25/19 A3002 NOSIG=
201810201600 METAR MROC 201600Z 07007KT 030V130 9999 FEW045 SCT120 27/19 A3000 NOSIG=
201810201700 METAR MROC 201700Z 13007KT 090V170 9999 FEW045 SCT120 27/18 A2998 NOSIG=
201810201800 METAR MROC 201800Z 25007KT 9999 RA SCT040 BKN100 25/20 A2995 NOSIG=
201810201900 METAR MROC 201900Z 29003KT 230V020 9999 -RA SCT035 BKN100 22/21 A2994 NOSIG=
201810202000 METAR MROC 202000Z 12004KT 080V170 9999 -RA SCT030 OVC120 23/21 A2991 NOSIG=
201810202100 METAR MROC 202100Z 13006KT 090V170 9999 VCTS FEW015CB SCT030 BKN100 24/19 A2991 NOSIG=
201810202200 METAR MROC 202200Z 11006KT 070V150 9999 FEW008 BKN110 23/19 A2991 NOSIG=
201810202300 METAR MROC 202300Z 06003KT 350V140 9999 FEW007 BKN100 22/19 A2991 RERA NOSIG=
201810210000 METAR MROC 210000Z 08006KT CAVOK 22/19 A2993 NOSIG=
201810210100 METAR MROC 210100Z 24003KT 200V270 9999 FEW002 SCT120 21/20 A2995 NOSIG=
201810210200 METAR MROC 210200Z 10006KT 9999 FEW040 21/18 A2998 NOSIG=
201810210300 METAR MROC 210300Z 11008KT 080V140 CAVOK 21/18 A2999 NOSIG=
201810210400 METAR MROC 210400Z 08009KT CAVOK 22/18 A2999 NOSIG=
201810210500 METAR MROC 210500Z VRB04KT CAVOK 21/18 A2998 NOSIG=
201810210600 METAR MROC 210600Z 10007KT 060V130 9999 FEW040 21/17 A2996 NOSIG=
201810210700 METAR MROC 210700Z 02006KT CAVOK 20/18 A2995 NOSIG=
201810210800 METAR MROC 210800Z 03006KT 010V070 CAVOK 20/17 A2994 NOSIG=
201810210900 METAR MROC 210900Z 03008KT CAVOK 20/17 A2994 NOSIG=
201810211000 METAR MROC 211000Z 07007KT 040V100 CAVOK 20/17 A2994 NOSIG=
201810211100 METAR MROC 211100Z 08005KT CAVOK 20/17 A2995 NOSIG=
201810211200 METAR MROC 211200Z 05010KT CAVOK 20/17 A2998 NOSIG=
201810211300 METAR MROC 211300Z 10005KT 360V150 CAVOK 23/18 A3000 NOSIG=
201810211400 METAR MROC 211400Z 09009KT 060V120 9999 FEW025 24/18 A3001 NOSIG=
201810211500 METAR MROC 211500Z 11011KT 080V140 9999 FEW030 26/18 A3001 NOSIG=
201810211600 METAR MROC 211600Z 11010KT 070V150 9999 FEW030 SCT050 26/19 A3000 NOSIG=
201810211700 METAR MROC 211700Z 11009KT 070V140 9999 FEW020 BKN060 25/17 A2998 NOSIG=
201810211800 METAR MROC 211800Z 12008KT 080V170 9999 FEW025 SCT060 BKN200 26/17 A2995 NOSIG=
201810211900 METAR MROC 211900Z 11010KT 090V150 9999 FEW035 SCT070 25/17 A2992 NOSIG=
201810212000 METAR MROC 212000Z 12011G21KT 090V160 9999 FEW035 SCT070 24/15 A2991 NOSIG=
201810212100 METAR MROC 212100Z 12010G20KT 9999 FEW035 SCT060 BKN120 23/17 A2992 NOSIG=
201810212200 METAR MROC 212200Z 12010G20KT 090V150 CAVOK 23/16 A2992 NOSIG=
201810212300 METAR MROC 212300Z 11010G20KT CAVOK 22/16 A2993 NOSIG=
201810220000 METAR MROC 220000Z 12012KT CAVOK 22/16 A2995 NOSIG=
201810220100 METAR MROC 220100Z 11009KT CAVOK 22/16 A2998 NOSIG=
201810220200 METAR MROC 220200Z 11010KT 070V150 CAVOK 22/16 A3000 NOSIG=
201810220300 METAR MROC 220300Z 10012KT 070V130 CAVOK 21/16 A3000 NOSIG=
201810220400 METAR MROC 220400Z 11007KT 080V150 CAVOK 21/16 A3001 NOSIG=
201810220500 METAR MROC 220500Z 08005KT 040V120 CAVOK 21/16 A3000 NOSIG=
201810220600 METAR MROC 220600Z VRB02KT CAVOK 21/16 A2999 NOSIG=
201810220700 METAR MROC 220700Z 05005KT 020V130 CAVOK 20/17 A2997 NOSIG=
201810220800 METAR MROC 220800Z VRB02KT CAVOK 20/17 A2995 NOSIG=
201810220900 METAR MROC 220900Z VRB02KT CAVOK 18/16 A2995 NOSIG=
201810221000 METAR MROC 221000Z 06005KT CAVOK 18/16 A2995 NOSIG=
201810221100 METAR MROC 221100Z 08004KT 040V130 CAVOK 20/16 A2996 NOSIG=
201810221200 METAR MROC 221200Z 06006KT 020V090 CAVOK 20/16 A2999 NOSIG=
201810221300 METAR MROC 221300Z 10012KT 060V130 CAVOK 22/17 A3000 NOSIG=
201810221400 METAR MROC 221400Z 10011G21KT 080V150 CAVOK 24/17 A3002 NOSIG=
201810221500 METAR MROC 221500Z 10010G23KT CAVOK 26/17 A3003 NOSIG=
201810221600 METAR MROC 221600Z 11013G23KT CAVOK 26/17 A3003 NOSIG=
201810221700 METAR MROC 221700Z 11010G20KT 080V140 9999 FEW045 27/18 A3000 NOSIG=
201810221800 METAR MROC 221800Z 10010G20KT 080V140 9999 FEW045 SCT060 27/17 A2998 NOSIG=
201810221900 METAR MROC 221900Z 12007KT 080V180 9999 SCT045 27/20 A2996 BECMG 22008KT=
201810222000 METAR MROC 222000Z 24008KT 210V300 9999 SCT035 BKN060 25/21 A2993 BECMG RA=
201810222100 METAR MROC 222100Z 24010KT 210V270 9999 2500SW RA BCFG FEW005CB FEW020 SCT040 23/21 A2993 NOSIG=
201810222200 METAR MROC 222200Z 25008KT 9999 4500SW BCFG FEW005 SCT120 21/20 A2996 RERA NOSIG=
201810222300 METAR MROC 222300Z 26006KT 5000 BR BKN005 21/20 A2999 NOSIG=
201810230000 METAR MROC 230000Z VRB02KT 9999 FEW010 BKN170 21/19 A3000 NOSIG=
201810230100 METAR MROC 230100Z 04004KT 340V060 CAVOK 22/20 A3002 NOSIG=
201810230200 METAR MROC 230200Z 06005KT CAVOK 21/18 A3004 NOSIG=
201810230300 METAR MROC 230300Z 08004KT 050V110 CAVOK 21/17 A3004 NOSIG=
201810230400 METAR MROC 230400Z 08007KT CAVOK 21/17 A3004 NOSIG=
201810230500 METAR MROC 230500Z 12007KT 080V150 CAVOK 21/16 A3003 NOSIG=
201810230600 METAR MROC 230600Z 04005KT 010V070 CAVOK 20/16 A3002 NOSIG=
201810230700 METAR MROC 230700Z 06006KT CAVOK 19/16 A2999 NOSIG=
201810230800 METAR MROC 230800Z 05007KT CAVOK 19/15 A2998 NOSIG=
201810230900 METAR MROC 230900Z 06005KT CAVOK 20/15 A2998 NOSIG=
201810231000 METAR MROC 231000Z 08007KT 040V110 CAVOK 19/15 A2998 NOSIG=
201810231100 METAR MROC 231100Z 06009KT CAVOK 18/15 A2999 NOSIG=
201810231200 METAR MROC 231200Z 06006KT 010V100 CAVOK 19/15 A3001 NOSIG=
201810231300 METAR MROC 231300Z 07006KT 040V110 CAVOK 21/15 A3002 NOSIG=
201810231400 METAR MROC 231400Z 11009KT 080V150 CAVOK 24/17 A3003 NOSIG=
201810231500 METAR MROC 231500Z 11012KT 080V150 CAVOK 26/17 A3003 NOSIG=
201810231600 METAR MROC 231600Z 10013KT CAVOK 27/16 A3002 NOSIG=
201810231700 METAR MROC 231700Z 10012KT 070V150 CAVOK 28/17 A3000 NOSIG=
201810231800 METAR MROC 231800Z 10010KT 070V160 9999 FEW040 28/17 A2998 NOSIG=
201810231900 METAR MROC 231900Z 23011KT 190V260 9999 SCT045 26/22 A2996 NOSIG=
201810232000 METAR MROC 232000Z 23008KT 200V260 9999 FEW025 BKN030 27/22 A2995 NOSIG=
201810232100 METAR MROC 232100Z 25012KT 210V280 9999 SCT030 SCT060 24/21 A2994 NOSIG=
201810232200 METAR MROC 232200Z 26011KT 230V290 9999 FEW005 BKN040 23/21 A2996 NOSIG=
201810232300 METAR MROC 232300Z 26006KT 9999 BCFG SCT005 BKN040 22/21 A2996 NOSIG=
201810240000 METAR MROC 240000Z 28004KT 230V320 9999 BCFG SCT005 BKN030 22/21 A2998 NOSIG=
201810240100 METAR MROC 240100Z 00000KT 9999 BCFG FEW005 BKN030 22/20 A3001 NOSIG=
201810240200 METAR MROC 240200Z 34003KT 9999 SCT040 22/20 A3003 NOSIG=
201810240300 METAR MROC 240300Z VRB02KT 9999 FEW040 SCT120 21/20 A3005 NOSIG=
201810240400 METAR MROC 240400Z 00000KT 9999 FEW045 21/19 A3005 NOSIG=
201810240500 METAR MROC 240500Z VRB02KT 9999 FEW045 20/19 A3004 NOSIG=
201810240600 METAR MROC 240600Z VRB02KT 9999 FEW025 20/20 A3002 NOSIG=
201810240700 METAR MROC 240700Z 09004KT 9999 FEW025 SCT100 20/19 A3001 NOSIG=
201810240800 METAR MROC 240800Z 08008KT CAVOK 21/17 A2999 NOSIG=
201810240900 METAR MROC 240900Z 06005KT CAVOK 20/18 A2998 NOSIG=
201810241000 METAR MROC 241000Z 03005KT CAVOK 20/17 A2999 NOSIG=
201810241100 METAR MROC 241100Z 08005KT CAVOK 19/17 A3000 NOSIG=
201810241200 METAR MROC 241200Z VRB02KT CAVOK 20/17 A3003 NOSIG=
201810241300 METAR MROC 241300Z 02005KT CAVOK 21/18 A3004 NOSIG=
201810241400 METAR MROC 241400Z 04003KT 330V120 CAVOK 24/18 A3004 NOSIG=
201810241500 METAR MROC 241500Z 10011KT 080V160 CAVOK 26/17 A3005 NOSIG=
201810241600 METAR MROC 241600Z 12009KT 070V150 CAVOK 27/17 A3003 BECMG 24007KT=
201810241700 METAR MROC 241700Z 11007KT 060V170 CAVOK 28/18 A3001 NOSIG=
201810241800 METAR MROC 241800Z 24009KT 9999 BKN030 25/20 A2999 NOSIG=
201810241900 METAR MROC 241900Z 25007KT 9999 BKN030 26/21 A2997 NOSIG=
201810242000 METAR MROC 242000Z 23009KT 9999 FEW010TCU BKN030 23/21 A2995 NOSIG=
201810242100 METAR MROC 242100Z 26009KT 9999 -TSRA SCT015CB SCT120 24/21 A2994 NOSIG=
201810242200 METAR MROC 242200Z 25008KT 8000 -TSRA SCT010CB OVC100 23/21 A2994 BECMG 5000 BR=
201810242300 METAR MROC 242300Z 23006KT 3000 -RA BR SCT003 BKN020 21/21 A2996 NOSIG=
201810250000 METAR MROC 250000Z 24003KT 200V280 5000 -RA BR SCT006 OVC100 21/21 A2998 NOSIG=
201810250100 METAR MROC 250100Z 26004KT 5000 BR FEW004 SCT015 OVC100 21/21 A3000 NOSIG=
201810250200 METAR MROC 250200Z 24004KT 2000 BR SCT002 OVC100 21/21 A3004 NOSIG=
201810250300 METAR MROC 250300Z 28004KT 5000 BR SCT005 OVC100 21/21 A3005 NOSIG=
201810250400 METAR MROC 250400Z 16003KT 110V180 3500 BR SCT003 21/20 A3004 NOSIG=
201810250500 METAR MROC 250500Z 00000KT 9999 FEW030 21/20 A3001 NOSIG=
201810250600 METAR MROC 250600Z 03006KT CAVOK 21/19 A2997 NOSIG=
201810250700 METAR MROC NIL=
201810250800 METAR MROC 250800Z 29003KT 260V320 9999 FEW010 BKN120 20/19 A2996 NOSIG=
201810250900 METAR MROC 250900Z 35003KT 300V030 9999 FEW001 SCT120 20/19 A2996 NOSIG=
201810251000 METAR MROC 251000Z 08004KT CAVOK 19/18 A2995 NOSIG=
201810251100 METAR MROC 251100Z 09004KT CAVOK 19/18 A2997 NOSIG=
201810251200 METAR MROC 251200Z 03003KT CAVOK 19/18 A2998 NOSIG=
201810251300 METAR MROC 251300Z VRB02KT CAVOK 22/18 A2999 NOSIG=
201810251400 METAR MROC 251400Z VRB01KT CAVOK 24/19 A3000 NOSIG=
201810251500 METAR MROC 251500Z 24007KT 210V280 CAVOK 24/20 A3003 NOSIG=
201810251600 METAR MROC 251600Z 26003KT 200V300 9999 SCT035 SCT250 25/19 A3002 NOSIG=
201810251700 METAR MROC 251700Z 19003KT 130V300 9999 SCT035 BKN250 26/19 A2999 NOSIG=
201810251800 METAR MROC 251800Z 27006KT 220V320 9999 SCT030 BKN130 25/20 A2995 NOSIG=
201810251900 METAR MROC 251900Z 24006KT 220V280 9999 SCT030 BKN120 25/21 A2993 NOSIG=
201810252000 METAR MROC 252000Z 26006KT 9999 BKN030 25/22 A2991 NOSIG=
201810252100 METAR MROC 252100Z 15006KT 100V210 9999 FEW020 BKN070 24/19 A2991 NOSIG=
201810252200 METAR MROC 252200Z 24007KT 9999 FEW005 SCT035 BKN070 23/22 A2992 NOSIG=
201810252300 METAR MROC 252300Z 26004KT 200V280 9999 FEW004 BKN120 22/20 A2993 NOSIG=
201810260000 METAR MROC 260000Z 24005KT 210V270 5000 2200S BR SCT002 BKN035 21/21 A2994 BECMG 3000=
201810260100 METAR MROC 260100Z VRB02KT 5000 BR SCT002 BKN015 21/21 A2997 NOSIG=
201810260200 METAR MROC 260200Z VRB02KT 8000 3000S BCFG FEW001 SCT015 21/21 A2999 NOSIG=
201810260300 METAR MROC 260300Z VRB01KT 9999 VCFG FEW005 SCT020 BKN130 21/20 A3000 NOSIG=
201810260400 METAR MROC 260400Z VRB01KT CAVOK 21/20 A2998 NOSIG=
201810260500 METAR MROC 260500Z 22003KT 0500 FG VV/// 21/20 A2999 NOSIG=
201810260600 METAR MROC 260600Z 26002KT 5000 BR SCT002 BKN010 20/20 A2999 NOSIG=
201810260700 METAR MROC 260700Z VRB02KT 5000 BR SCT005 BKN010 20/20 A2996 NOSIG=
201810260800 METAR MROC 260800Z VRB02KT 9999 BCFG FEW005 SCT020 20/20 A2993 NOSIG=
201810260900 METAR MROC 260900Z 04005KT CAVOK 20/19 A2994 NOSIG=
201810261000 METAR MROC 261000Z 09006KT CAVOK 20/18 A2993 NOSIG=
201810261100 METAR MROC 261100Z 05006KT 020V080 CAVOK 20/17 A2993 NOSIG=
201810261200 METAR MROC 261200Z 09006KT CAVOK 21/17 A2996 NOSIG=
201810261300 METAR MROC 261300Z 04006KT CAVOK 23/18 A2997 NOSIG=
201810261400 METAR MROC 261400Z 23006KT 200V260 CAVOK 23/20 A2999 NOSIG=
201810261500 METAR MROC 261500Z 25007KT 210V290 9999 FEW025 24/20 A3000 NOSIG=
201810261600 METAR MROC 261600Z 24008KT 9999 FEW030 SCT060 25/21 A3000 NOSIG=
201810261700 METAR MROC 261700Z 25007KT 9999 -DZ SCT040 BKN100 24/21 A2999 NOSIG=
201810261800 METAR MROC 261800Z 25005KT 9999 FEW040 SCT060 BKN120 25/20 A2994 NOSIG=
201810261900 METAR MROC 261900Z 25005KT 210V320 9999 FEW035 SCT060 25/21 A2992 BECMG SHRA=
201810262000 METAR MROC 262000Z 25011KT 9999 FEW007 SCT015 BKN060 24/22 A2989 NOSIG=
201810262100 METAR MROC 262100Z 26009KT 9999 FEW005 SCT010 BKN015 23/12 A2989 BECMG RA=
201810262133 METAR MROC 262133Z 25007KT 9999 TSRA FEW005 FEW010CB SCT015 BKN030 23/22 A2989 BECMG 1500 BKN015=
201810262200 METAR MROC 262200Z 25008KT 9999 3000SW -RA FEW005 FEW010CB SCT030 BKN080 21/20 A2990 RETS NOSIG=
201810262300 METAR MROC 262300Z 27007KT 230V310 8000 3000SW -RA VCTS VCFG FEW002 SCT010 BKN030 21/21 A2993 BECMG 5000 BR=
201810270000 METAR MROC 270000Z VRB02KT 9999 SCT010 BKN020 21/20 A2995 NOSIG=
201810270100 METAR MROC 270100Z 00000KT 9999 FEW010 BKN040 21/20 A2998 NOSIG=
201810270200 METAR MROC 270200Z 00000KT 9999 FEW025 SCT040 BKN150 21/20 A3000 NOSIG=
201810270300 METAR MROC 270300Z 00000KT 9999 FEW040 BKN200 21/20 A3001 NOSIG=
201810270400 METAR MROC 270400Z 08004KT 050V110 CAVOK 21/20 A3000 NOSIG=
201810270500 METAR MROC 270500Z 04003KT 360V060 CAVOK 20/19 A2999 NOSIG=
201810270600 METAR MROC 270600Z 07006KT CAVOK 20/18 A2996 NOSIG=
201810270700 METAR MROC 270700Z 04004KT CAVOK 20/18 A2995 NOSIG=
201810270800 METAR MROC 270800Z 06006KT CAVOK 20/17 A2994 NOSIG=
201810270900 METAR MROC 270900Z 07006KT CAVOK 20/17 A2994 NOSIG=
201810271000 METAR MROC 271000Z 10004KT 050V140 CAVOK 19/17 A2995 NOSIG=
201810271100 METAR MROC 271100Z 06006KT CAVOK 20/19 A2996 NOSIG=
201810271200 METAR MROC 271200Z 11008KT CAVOK 21/18 A2997 NOSIG=
201810271300 METAR MROC 271300Z 11007KT CAVOK 22/18 A2999 NOSIG=
201810271400 METAR MROC 271400Z 27003KT 220V320 CAVOK 22/18 A3002 NOSIG=
201810271500 METAR MROC 271500Z 26004KT CAVOK 24/19 A3004 NOSIG=
201810271600 METAR MROC 271600Z 25006KT 9999 FEW040 BKN120 26/17 A3002 NOSIG=
201810271700 METAR MROC 271700Z 25009KT 220V280 9999 FEW040 SCT120 25/20 A3000 NOSIG=
201810271800 METAR MROC 271800Z 26006KT 230V330 9999 FEW040 BKN120 25/21 A2997 NOSIG=
201810271900 METAR MROC 271900Z 23007KT 190V260 9999 SCT040 BKN120 24/21 A2995 NOSIG=
201810272000 METAR MROC 272000Z 24010KT 210V280 9999 FEW008 FEW020CB SCT035 BKN060 24/22 A2995 BECMG TSRA=
201810272100 METAR MROC 272100Z 23006KT 9999 2000SW BCFG BKN010 22/21 A2995 BECMG 5000 BR=
201810272200 METAR MROC 272200Z 30005KT 240V350 9999 2000SW -RA BCFG SCT010 22/21 A2995 NOSIG=
201810272300 METAR MROC 272300Z 24004KT 4000 1500SW -RA BR SCT002 21/21 A2997 BECMG 2000 BR=
201810280000 METAR MROC 280000Z VRB02KT 9999 FEW004 BKN100 21/20 A2999 NOSIG=
201810280100 METAR MROC 280100Z VRB03KT 9999 FEW002 SCT045 22/19 A3002 NOSIG=
201810280200 METAR MROC 280200Z 07003KT 010V120 9999 SCT045 22/18 A3004 NOSIG=
201810280300 METAR MROC 280300Z 08009KT CAVOK 22/17 A3005 NOSIG=
201810280400 METAR MROC 280400Z 01004KT 340V040 CAVOK 21/17 A3005 NOSIG=
201810280500 METAR MROC 280500Z 08003KT 040V160 CAVOK 22/17 A3004 NOSIG=
201810280600 METAR MROC 280600Z 07006KT CAVOK 21/17 A3002 NOSIG=
201810280700 METAR MROC 280700Z 09008KT 050V140 9999 FEW040 BKN200 22/17 A2998 NOSIG=
201810280800 METAR MROC NIL=
201810280900 METAR MROC 280900Z VRB06KT 9999 FEW040 BKN200 22/18 A2997 NOSIG=
201810281000 METAR MROC 281000Z 05007KT 010V090 CAVOK 22/18 A2996 NOSIG=
201810281100 METAR MROC 281100Z 11002KT 9999 FEW040 SCT200 22/18 A2998 NOSIG=
201810281200 METAR MROC 281200Z 11012KT 9999 FEW040 SCT130 21/18 A3000 NOSIG=
201810281300 METAR MROC 281300Z 03003KT 340V120 CAVOK 22/18 A3002 NOSIG=
201810281400 METAR MROC 281400Z 11010KT 080V160 9999 FEW040 SCT060 BKN130 23/19 A3003 NOSIG=
201810281500 METAR MROC 281500Z 11011KT 9999 SCT030 BKN130 24/19 A3003 NOSIG=
201810281600 METAR MROC 281600Z 10009KT 080V140 9999 FEW035 BKN070 25/19 A3003 NOSIG=
201810281700 METAR MROC 281700Z 12008KT 070V180 9999 FEW030 BKN120 25/19 A3000 NOSIG=
201810281800 METAR MROC 281800Z 07008KT 040V100 9999 FEW030 BKN045 23/19 A3000 NOSIG=
201810281900 METAR MROC 281900Z 09014KT 9999 -RA FEW030 BKN120 23/18 A2996 NOSIG=
201810282000 METAR MROC 282000Z 08009KT 020V110 9999 FEW045 BKN100 25/17 A2995 NOSIG=
201810282100 METAR MROC 282100Z 09013KT 9999 FEW040 BKN100 25/16 A2994 NOSIG=
201810282200 METAR MROC 282200Z 08012KT 9999 FEW040 BKN100 24/16 A2995 NOSIG=
201810282300 METAR MROC 282300Z 09014KT 9999 FEW040 BKN100 24/17 A2996 NOSIG=
201810290000 METAR MROC 290000Z 11012KT CAVOK 23/18 A2996 NOSIG=
201810290100 METAR MROC 290100Z 11010KT 080V140 CAVOK 22/17 A2999 NOSIG=
201810290200 METAR MROC 290200Z 11012KT CAVOK 22/17 A2999 NOSIG=
201810290300 METAR MROC 290300Z 11014KT 080V140 CAVOK 22/17 A3000 NOSIG=
201810290400 METAR MROC 290400Z 11011KT CAVOK 22/17 A3002 NOSIG=
201810290500 METAR MROC 290500Z 11014KT CAVOK 22/17 A3000 NOSIG=
201810290600 METAR MROC 290600Z 11010G20KT 080V140 CAVOK 22/17 A2997 NOSIG=
201810290700 METAR MROC 290700Z 12010G20KT CAVOK 22/18 A2998 NOSIG=
201810290800 METAR MROC 290800Z 06003KT 020V120 9999 FEW035 SCT120 22/18 A2997 NOSIG=
201810290900 METAR MROC 290900Z 11013KT 9999 FEW035 22/18 A2997 NOSIG=
201810291000 METAR MROC 291000Z 11009KT CAVOK 22/18 A2997 NOSIG=
201810291100 METAR MROC 291100Z 12012KT 9999 FEW040 SCT130 22/17 A2998 NOSIG=
201810291200 METAR MROC 291200Z 12009KT 9999 FEW040 SCT100 BKN200 22/17 A2999 NOSIG=
201810291300 METAR MROC 291300Z 13009KT 090V170 9999 FEW030 BKN120 23/18 A3001 NOSIG=
201810291400 METAR MROC 291400Z 12008KT 090V150 9999 FEW030 BKN120 24/18 A3002 NOSIG=
201810291500 METAR MROC 291500Z 11011KT 9999 FEW030 BKN100 24/19 A3004 NOSIG=
201810291600 METAR MROC 291600Z 13009KT 100V160 9999 FEW040 BKN100 25/19 A3003 NOSIG=
201810291700 METAR MROC 291700Z 12010KT 9999 -RA FEW040 BKN100 24/19 A3001 NOSIG=
201810291800 METAR MROC 291800Z 13007KT 090V190 9999 FEW040 BKN100 24/20 A2999 NOSIG=
201810291900 METAR MROC 291900Z 09012KT 070V130 9999 -RA SCT030 BKN100 24/19 A2997 NOSIG=
201810292000 METAR MROC 292000Z 11012KT 090V150 9999 SCT040 BKN100 25/17 A2994 NOSIG=
201810292100 METAR MROC 292100Z 12012KT 090V150 9999 FEW040 BKN130 25/17 A2992 NOSIG=
201810292200 METAR MROC 292200Z 12010KT 090V150 9999 FEW040 BKN130 24/16 A2994 NOSIG=
201810292300 METAR MROC 292300Z 09010KT CAVOK 23/16 A2997 NOSIG=
201810300000 METAR MROC 300000Z 10007KT CAVOK 22/15 A2998 NOSIG=
201810300100 METAR MROC 300100Z 12006KT CAVOK 21/16 A2999 NOSIG=
201810300200 METAR MROC 300200Z 11011KT CAVOK 22/16 A3001 NOSIG=
201810300300 METAR MROC 300300Z 10012KT CAVOK 22/16 A3003 NOSIG=
201810300400 METAR MROC 300400Z 09013KT CAVOK 22/16 A3002 NOSIG=
201810300500 METAR MROC 300500Z COR 11008KT 080V140 9999 FEW030 SCT100 22/16 A3001 NOSIG=
201810300600 METAR MROC 300600Z 12011KT CAVOK 21/16 A2999 NOSIG=
201810300700 METAR MROC 300700Z 11011KT CAVOK 20/16 A2997 NOSIG=
201810300800 METAR MROC 300800Z 11009KT 080V140 CAVOK 20/16 A2996 NOSIG=
201810300900 METAR MROC 300900Z 10005KT 050V140 CAVOK 20/15 A2996 NOSIG=
201810301000 METAR MROC 301000Z VRB03KT CAVOK 20/15 A2996 NOSIG=
201810301100 METAR MROC 301100Z 03006KT 340V120 CAVOK 18/15 A2996 NOSIG=
201810301200 METAR MROC 301200Z 11010KT 070V130 CAVOK 21/15 A2997 NOSIG=
201810301300 METAR MROC 301300Z VRB10G20KT CAVOK 23/16 A2997 NOSIG=
201810301400 METAR MROC 301400Z 11011KT 060V160 CAVOK 25/17 A3000 NOSIG=
201810301500 METAR MROC 301500Z 12013KT CAVOK 26/17 A3001 NOSIG=
201810301600 METAR MROC 301600Z 08013KT 050V130 CAVOK 28/17 A3001 NOSIG=
201810301700 METAR MROC 301700Z 09013KT 060V120 CAVOK 28/17 A2999 NOSIG=
201810301800 METAR MROC 301800Z 08014KT 050V110 CAVOK 28/16 A2997 NOSIG=
201810301900 METAR MROC 301900Z 08010KT 050V120 CAVOK 29/16 A2995 NOSIG=
201810302000 METAR MROC 302000Z 23010KT 9999 SCT040 26/21 A2995 NOSIG=
201810302100 METAR MROC 302100Z 25010KT 9999 FEW025 SCT200 25/21 A2994 NOSIG=
201810302200 METAR MROC 302200Z 24008KT 9999 FEW008 SCT025 24/21 A2995 NOSIG=
201810302300 METAR MROC 302300Z 25008KT 9999 FEW007 SCT020 22/21 A2997 NOSIG=
201810310000 METAR MROC 310000Z 26003KT 230V300 9999 FEW005 BKN020 22/21 A2999 NOSIG=
201810310100 METAR MROC 310100Z 26005KT 9999 FEW004 BKN020 22/21 A3002 NOSIG=
201810310200 METAR MROC 310200Z VRB02KT 9999 FEW007 SCT015 22/21 A3003 NOSIG=
201810310300 METAR MROC 310300Z 07006KT 030V090 9999 FEW010 21/18 A3003 NOSIG=
201810310400 METAR MROC 310400Z 07005KT CAVOK 21/17 A3003 NOSIG=
201810310500 METAR MROC 310500Z 06004KT CAVOK 21/17 A3002 NOSIG=
201810310600 METAR MROC 310600Z 07008KT 030V110 CAVOK 22/16 A3000 NOSIG=
201810310700 METAR MROC 310700Z 04003KT 010V070 CAVOK 20/16 A2998 NOSIG=
201810310800 METAR MROC 310800Z 05008KT CAVOK 20/16 A2997 NOSIG=
201810310900 METAR MROC 310900Z 05007KT CAVOK 19/15 A2997 NOSIG=
201810311000 METAR MROC 311000Z 05009KT CAVOK 20/15 A2998 NOSIG=
201810311100 METAR MROC 311100Z 06009KT CAVOK 19/15 A2999 NOSIG=
201810311200 METAR MROC 311200Z 11009KT CAVOK 20/15 A3001 NOSIG=
201810311300 METAR MROC 311300Z 11010KT 080V140 CAVOK 23/14 A3002 NOSIG=
201810311400 METAR MROC 311400Z 12009KT 090V150 CAVOK 25/15 A3003 NOSIG=
201810311500 METAR MROC 311500Z 12009KT 090V160 CAVOK 26/15 A3004 NOSIG=
201810311600 METAR MROC 311600Z 13009KT 090V180 CAVOK 27/15 A3004 NOSIG=
201810311700 METAR MROC 311700Z 26008KT 210V300 CAVOK 25/20 A3004 NOSIG=
201810311800 METAR MROC 311800Z 24009KT 9999 FEW030 BKN200 25/20 A3000 NOSIG=
201810311900 METAR MROC 311900Z 25009KT 210V280 9999 FEW015 BKN180 25/21 A2998 NOSIG=
201810312000 METAR MROC 312000Z 24010KT 9999 FEW015 SCT040 BKN180 24/21 A2997 NOSIG=
201810312100 METAR MROC 312100Z 24007KT 9999 FEW020 SCT030 BKN200 24/21 A2995 NOSIG=
201810312200 METAR MROC 312200Z 25007KT 220V290 9999 FEW015 SCT025 BKN200 23/21 A2996 NOSIG=
201810312300 METAR MROC 312300Z 26004KT 230V310 9999 FEW010 SCT025 BKN200 22/21 A2998 NOSIG=
201811010000 METAR MROC 010000Z VRB02KT 9999 FEW010 SCT035 22/21 A2999 NOSIG=
201811010100 METAR MROC 010100Z VRB02KT 9999 FEW010 BKN035 22/20 A3001 NOSIG=
201811010200 METAR MROC 010200Z 00000KT 9999 SCT035 22/21 A3003 NOSIG=
201811010300 METAR MROC 010300Z 03004KT 350V080 9999 FEW035 SCT045 22/20 A3003 NOSIG=
201811010400 METAR MROC 010400Z 08005KT 060V120 9999 FEW040 22/17 A3003 NOSIG=
201811010500 METAR MROC 010500Z 08006KT 9999 FEW035 21/17 A3002 NOSIG=
201811010600 METAR MROC 010600Z 06008KT 020V090 CAVOK 21/17 A3000 NOSIG=
201811010700 METAR MROC 010700Z 08008KT CAVOK 20/16 A2997 NOSIG=
201811010800 METAR MROC 010800Z VRB03KT CAVOK 19/16 A2997 NOSIG=
201811010900 METAR MROC 010900Z VRB02KT 9999 FEW003 18/17 A2997 NOSIG=
201811011000 METAR MROC 011000Z VRB02KT 9999 0500SW R07/0500N PRFG SCT003 18/17 A2998 NOSIG=
201811011100 METAR MROC 011100Z 06006KT 040V100 CAVOK 19/16 A2999 NOSIG=
201811011200 METAR MROC 011200Z 06007KT CAVOK 19/16 A3001 NOSIG=
201811011300 METAR MROC 011300Z 07006KT 040V100 CAVOK 22/17 A3002 NOSIG=
201811011400 METAR MROC 011400Z 11007KT 080V150 CAVOK 24/17 A3003 BECMG 22006KT=
201811011500 METAR MROC 011500Z 22006KT CAVOK 25/18 A3004 NOSIG=
201811011600 METAR MROC 011600Z 25010KT 210V280 CAVOK 26/18 A3004 NOSIG=
201811011700 METAR MROC 011700Z 25008KT 9999 SCT040 26/20 A3002 NOSIG=
201811011800 METAR MROC 011800Z 24008KT 210V270 9999 FEW030 SCT040 26/20 A2999 NOSIG=
201811011900 METAR MROC 011900Z 25009KT 220V290 9999 SCT035 27/20 A2996 NOSIG=
201811012000 METAR MROC 012000Z 24010KT 210V280 9999 FEW025 SCT035 27/20 A2994 NOSIG=
201811012100 METAR MROC 012100Z 23009KT 200V260 3000 SHRA FEW015TCU SCT025 26/21 A2993 BECMG 5000=
201811012200 METAR MROC 012200Z 20005KT 170V230 9999 4500SW BCFG VCFG FEW009 BKN025 23/22 A2995 RETSRA NOSIG=
201811012300 METAR MROC 012300Z 08003KT 050V110 9999 BKN030 22/21 A2997 NOSIG=
201811020000 METAR MROC 020000Z 24005KT 210V300 9999 VCFG FEW010 BKN030 22/21 A2999 NOSIG=
201811020100 METAR MROC 020100Z 25007KT 6000 BCFG FEW004 BKN007 21/21 A3003 NOSIG=
201811020200 METAR MROC 020200Z 35005KT 6000 BCFG BKN002 21/21 A3004 NOSIG=
201811020300 METAR MROC 020300Z 20003KT 4000 BR FEW002 BKN140 21/20 A3003 BECMG 1500=
201811020400 METAR MROC 020400Z 27004KT 260V320 8000 2000SW R07/1500D BCFG FEW001 BKN150 21/20 A3003 NOSIG=
201811020500 METAR MROC 020500Z 22005KT 0150 FG VV001 20/20 A3004 NOSIG=
201811020600 METAR MROC 020600Z 06006KT 6000 2000SW BCFG SCT002 20/20 A3000 NOSIG=
201811020700 METAR MROC 020700Z 06003KT 8000 3000S BCFG SCT005 20/20 A2999 NOSIG=
201811020800 METAR MROC 020800Z 05004KT 9999 4000S BCFG SCT005 20/20 A2995 NOSIG=
201811020900 METAR MROC 020900Z 06008KT CAVOK 19/18 A2994 NOSIG=
201811021000 METAR MROC 021000Z 07006KT CAVOK 20/17 A2997 NOSIG=
201811021100 METAR MROC 021100Z 09003KT 360V150 CAVOK 19/18 A3000 NOSIG=
201811021200 METAR MROC 021200Z 04005KT 350V130 CAVOK 19/17 A3001 NOSIG=
201811021300 METAR MROC 021300Z VRB04KT CAVOK 21/17 A3003 NOSIG=
201811021400 METAR MROC 021400Z 33003KT 270V030 CAVOK 24/18 A3005 NOSIG=
201811021500 METAR MROC 021500Z VRB03KT CAVOK 26/18 A3005 BECMG 22006KT=
201811021600 METAR MROC 021600Z 28006KT 230V350 9999 FEW040 26/20 A3003 NOSIG=
201811021700 METAR MROC 021700Z 24009KT 9999 FEW040 26/20 A3001 NOSIG=
201811021800 METAR MROC 021800Z 25008KT 210V290 9999 SCT020 BKN035 25/21 A2999 BECMG RA=
201811021900 METAR MROC 021900Z VRB01KT 9999 -TSRA FEW015CB BKN025 22/19 A2999 NOSIG=
201811022000 METAR MROC 022000Z 10007KT 9999 -RA FEW010 SCT020 OVC090 22/20 A2996 RETSRA NOSIG=
201811022100 METAR MROC 022100Z 10013KT 9999 -RA SCT035 BKN100 22/19 A2993 NOSIG=
201811022200 METAR MROC 022200Z 09006KT 050V150 9999 FEW035 BKN120 22/18 A2994 NOSIG=
201811022300 METAR MROC 022300Z 07004KT 040V110 CAVOK 23/17 A2994 NOSIG=
201811030000 METAR MROC 030000Z 09005KT CAVOK 22/17 A2994 NOSIG=
201811030100 METAR MROC 030100Z 05006KT 020V090 CAVOK 22/17 A2996 NOSIG=
201811030200 METAR MROC 030200Z 11005KT 060V140 CAVOK 22/17 A2999 NOSIG=
201811030300 METAR MROC 030300Z 08004KT 020V140 CAVOK 22/16 A3001 NOSIG=
201811030400 METAR MROC 030400Z 29003KT 240V330 CAVOK 20/17 A3001 NOSIG=
201811030500 METAR MROC 030500Z VRB02KT CAVOK 20/17 A3001 NOSIG=
201811030600 METAR MROC 030600Z VRB02KT CAVOK 19/17 A3000 NOSIG=
201811030700 METAR MROC 030700Z 08003KT 050V110 CAVOK 18/16 A2997 NOSIG=
201811030800 METAR MROC 030800Z 06005KT CAVOK 18/16 A2995 NOSIG=
201811030900 METAR MROC 030900Z 08006KT CAVOK 18/16 A2995 NOSIG=
201811031000 METAR MROC 031000Z 08006KT CAVOK 17/16 A2995 NOSIG=
201811031100 METAR MROC 031100Z 04006KT CAVOK 18/16 A2995 NOSIG=
201811031200 METAR MROC 031200Z 10003KT 020V140 CAVOK 20/16 A2999 NOSIG=
201811031300 METAR MROC 031300Z 02005KT CAVOK 21/17 A3000 NOSIG=
201811031400 METAR MROC 031400Z 12007KT 080V180 CAVOK 24/17 A3002 NOSIG=
201811031500 METAR MROC 031500Z 12010KT 100V170 CAVOK 26/18 A3002 NOSIG=
201811031600 METAR MROC 031600Z VRB05KT 9999 FEW040 27/17 A3001 NOSIG=
201811031700 METAR MROC 031700Z 25013KT 9999 SCT030 BKN060 25/20 A2999 NOSIG=
201811031800 METAR MROC 031800Z 25009KT 9999 FEW030 BKN060 25/21 A2998 NOSIG=
201811031900 METAR MROC 031900Z 23008KT 200V270 9999 FEW030 BKN100 25/21 A2995 NOSIG=
201811032000 METAR MROC 032000Z 25011KT 220V280 9999 BKN030 25/22 A2992 NOSIG=
201811032100 METAR MROC 032100Z 23009KT 9999 -RA SCT010 BKN025 24/21 A2991 NOSIG=
201811032200 METAR MROC 032200Z 27006KT 230V300 9999 RA VCTS SCT010 OVC100 23/22 A2993 BECMG 5000 BR=
201811032300 METAR MROC 032300Z 25005KT 230V290 9999 SCT006 BKN020 22/21 A2995 RERA NOSIG=
201811040000 METAR MROC 040000Z 23003KT 9999 SCT010 BKN020 21/20 A2996 NOSIG=
201811040100 METAR MROC 040100Z 25003KT 8000 VCFG SCT007 BKN015 21/21 A3001 BECMG 5000 BR=
201811040200 METAR MROC 040200Z 28004KT 9999 SCT005 BKN015 21/20 A3004 NOSIG=
201811040300 METAR MROC 040300Z 28003KT 250V310 9999 SCT006 BKN015 21/20 A3005 NOSIG=
201811040400 METAR MROC 040400Z 30005KT 9999 FEW010 BKN070 21/20 A3005 NOSIG=
201811040500 METAR MROC 040500Z 27002KT 9999 VCFG FEW002 BKN010 21/20 A3004 NOSIG=
201811040600 METAR MROC 040600Z VRB01KT 9999 3000S BCFG FEW015 20/19 A3001 NOSIG=
201811040700 METAR MROC 040700Z 07004KT 9999 VCFG FEW012 20/19 A3000 NOSIG=
201811040800 METAR MROC 040800Z 08004KT 9999 FEW002 20/19 A2999 NOSIG=
201811040900 METAR MROC 040900Z 08004KT CAVOK 19/18 A2998 NOSIG=
201811041000 METAR MROC 041000Z 04003KT CAVOK 19/17 A2997 NOSIG=
201811041100 METAR MROC 041100Z 03003KT CAVOK 18/17 A2998 NOSIG=
201811041200 METAR MROC 041200Z 05004KT 330V070 CAVOK 19/17 A3001 NOSIG=
201811041300 METAR MROC 041300Z 11004KT CAVOK 20/18 A3004 NOSIG=
201811041400 METAR MROC 041400Z 10006KT 070V140 22/18 A3006 NOSIG=
201811041500 METAR MROC 041500Z 03004KT 340V080 CAVOK 24/18 A3006 NOSIG=
201811041600 METAR MROC 041600Z 23006KT 180V310 9999 FEW040 SCT250 26/20 A3006 NOSIG=
201811041700 METAR MROC 041700Z 23009KT 200V260 9999 FEW040 SCT250 24/19 A3004 NOSIG=
201811041800 METAR MROC 041800Z 25009KT 9999 SCT025 25/20 A3001 NOSIG=
201811041900 METAR MROC 041900Z 24011KT 9999 SCT025 25/20 A2998 NOSIG=
201811042000 METAR MROC 042000Z 25012KT 9999 BKN012 22/20 A2994 BECMG RA=
201811042100 METAR MROC 042100Z 25009KT 1500 TSRA BR SCT003 SCT010CB BKN015 20/20 A2995 NOSIG=
201811042200 METAR MROC 042200Z 22007KT 5000 2200SW -RA BR SCT003 BKN030 20/20 A2995 NOSIG=
201811042300 METAR COR MROC 042300Z 25003KT 230V290 8000 -RA VCFG FEW004 SCT012 BKN030 20/19 A2997 NOSIG=
201811050000 METAR MROC 050000Z 01003KT 9999 -RA FEW006 SCT015 BKN030 20/20 A3000 NOSIG=
201811050100 METAR MROC 050100Z 00000KT 9999 SCT010 BKN035 20/19 A3003 NOSIG=
201811050200 METAR MROC 050200Z VRB02KT 9999 4500S -RA BCFG SCT006 BKN020 20/19 A3005 NOSIG=
201811050300 METAR MROC 050300Z VRB03KT 9999 4500S -RA BCFG FEW003 SCT011 BKN030 20/19 A3008 NOSIG=
201811050400 METAR MROC 050400Z 27003KT 240V320 6000 +RA SCT0051 BKN020 20/19 A3008 NOSIG=
201811050500 METAR MROC 050500Z 03002KT 9999 -RA SCT004 BKN030 20/19 A3007 RERA NOSIG=
201811050600 METAR MROC 050600Z 09005KT 9999 BKN030 20/19 A3005 NOSIG=
201811050700 METAR MROC 050700Z 08010KT 9999 -RA NSC 19/18 A3001 NOSIG=
201811050800 METAR MROC 050800Z 10010KT 9999 -RA NSC 20/18 A2997 NOSIG=
201811050900 METAR MROC 050900Z 10008KT CAVOK 21/18 A2996 NOSIG=
201811051000 METAR MROC 051000Z 10008KT CAVOK 21/18 A2996 NOSIG=
201811051100 METAR MROC 051100Z 07007KT CAVOK 21/18 A2997 NOSIG=
201811051200 METAR MROC 051200Z 14003KT 090V220 9999 FEW030 SCT100 BKN200 21/18 A3000 NOSIG=
201811051300 METAR MROC 051300Z 25004KT 9999 3500NW BCFG FEW001 BKN090 20/19 A3003 NOSIG=
201811051400 METAR MROC 051400Z 25006KT 9999 FEW020 SCT090 22/19 A3004 NOSIG=
201811051500 METAR MROC 051500Z 27005KT 220V330 9999 FEW020 SCT040 24/19 A3005 NOSIG=
201811051600 METAR MROC 051600Z 25008KT 220V280 9999 FEW020 BKN120 24/20 A3004 NOSIG=
201811051700 METAR MROC 051700Z 25007KT 9999 FEW015 SCT045 BKN120 25/20 A3002 NOSIG=
201811051800 METAR MROC 051800Z 25010KT 9999 FEW015 BKN070 24/21 A2999 NOSIG=
201811051900 METAR MROC 051900Z 26007KT 9999 FEW012 BKN050 23/21 A2997 BECMG SHRA=
201811052000 METAR MROC 052000Z 26006KT 220V300 9999 -DZ SCT015 BKN060 24/21 A2994 NOSIG=
201811052100 METAR MROC 052100Z 24007KT 210V270 9999 SCT015 BKN035 23/21 A2992 NOSIG=
201811052200 METAR MROC 052200Z 23008KT 9999 FEW010 SCT015 BKN035 22/21 A2993 NOSIG=
201811052300 METAR MROC 052300Z 25008KT 220V280 5000 -RA BR FEW001 SCT005 BKN010 21/20 A2995 BECMG 3000=
201811060000 METAR MROC 060000Z 30004KT 9999 FEW005 SCT015 BKN030 21/20 A2996 NOSIG=
201811060100 METAR MROC 060100Z VRB02KT 9999 FEW005 SCT015 BKN030 21/20 A3000 NOSIG=
201811060200 METAR MROC 060200Z 03003KT 9999 FEW010 SCT040 21/19 A3002 NOSIG=
201811060300 METAR MROC 060300Z VRB02KT 9999 FEW040 21/19 A3003 NOSIG=
201811060400 METAR MROC 060400Z 07004KT 040V110 CAVOK 21/18 A3002 NOSIG=
201811060500 METAR MROC 060500Z 04004KT 360V110 CAVOK 20/18 A3000 NOSIG=
201811060600 METAR MROC 060600Z 07004KT 040V100 CAVOK 20/17 A2999 NOSIG=
201811060700 METAR MROC 060700Z 06006KT 020V100 CAVOK 20/17 A2997 NOSIG=
201811060800 METAR MROC 060800Z 07009KT CAVOK 20/16 A2995 NOSIG=
201811060900 METAR MROC 060900Z 06008KT CAVOK 19/16 A2994 NOSIG=
201811061000 METAR MROC 061000Z 05008KT CAVOK 19/16 A2995 NOSIG=
201811061100 METAR MROC 061100Z 09004KT CAVOK 19/16 A2996 NOSIG=
201811061200 METAR MROC 061200Z 07005KT CAVOK 18/16 A2998 NOSIG=
201811061300 METAR MROC 061300Z 06005KT 360V110 9999 FEW040 22/17 A3001 NOSIG=
201811061400 METAR MROC 061400Z 10009KT 050V150 9999 VCVA FEW040 23/18 A3003 NOSIG=
201811061500 METAR MROC 061500Z 12010KT 070V180 9999 VCVA FEW040 25/18 A3003 NOSIG=
201811061600 METAR MROC 061600Z 11009KT 070V150 9999 VCVA FEW040 26/18 A3002 NOSIG=
201811061700 METAR MROC 061700Z 13005KT 9999 VCVA FEW040 28/19 A2999 BECMG 25007KT=
201811061800 METAR MROC 061800Z 25007KT 210V300 9999 SCT040 26/20 A2996 NOSIG=
201811061900 METAR MROC 061900Z 24006KT 210V270 9999 FEW040 SCT060 27/21 A2993 NOSIG=
201811062000 METAR MROC 062000Z 25008KT 200V270 9999 FEW045 27/21 A2990 NOSIG=
201811062100 METAR MROC 062100Z 24012KT 9999 FEW020TCU SCT030 25/21 A2988 NOSIG=
201811062200 METAR MROC 062200Z 25009KT 6000 R07/P2000N BCFG BKN010 23/22 A2989 BECMG 3000 BR=
201811062300 METAR MROC 062300Z 25007KT 3000 BR BKN008 22/21 A2991 NOSIG=
201811070000 METAR MROC 070000Z 26005KT 1000 RA BKN010 21/21 A2993 NOSIG=
201811070100 METAR MROC 070100Z 24003KT 210V300 9999 FEW003 BKN010 21/21 A2995 NOSIG=
201811070200 METAR MROC 070200Z COR 30004KT 240V030 9999 3000SW BCFG FEW001 BKN010 21/21 A2997 NOSIG=
201811070300 METAR MROC 070300Z 32003KT 280V360 9999 SCT004 BKN080 21/20 A2998 NOSIG=
201811070400 METAR MROC 070400Z 07006KT CAVOK 20/18 A2998 NOSIG=
201811070500 METAR MROC 070500Z 08007KT CAVOK 20/18 A2997 NOSIG=
201811070600 METAR MROC 070600Z 06008KT CAVOK 20/19 A2995 NOSIG=
201811070700 METAR MROC 070700Z 06003KT 9999 FEW015 20/18 A2993 NOSIG=
201811070800 METAR MROC 070800Z 05006KT CAVOK 19/17 A2992 NOSIG=
201811070900 METAR MROC 070900Z 05004KT CAVOK 19/17 A2991 NOSIG=
201811071000 METAR MROC 071000Z 04005KT CAVOK 19/16 A2992 NOSIG=
201811071100 METAR MROC 071100Z 09009KT 060V120 CAVOK 20/16 A2993 NOSIG=
201811071200 METAR MROC 071200Z 07005KT CAVOK 20/16 A2995 NOSIG=
201811071300 METAR MROC 071300Z VRB04KT CAVOK 22/17 A2998 NOSIG=
201811071400 METAR MROC 071400Z 07010KT 020V130 CAVOK 24/17 A2999 NOSIG=
201811071500 METAR MROC 071500Z 11011KT 080V150 CAVOK 25/17 A2999 NOSIG=
201811071600 METAR MROC 071600Z 11008KT 080V150 CAVOK 27/18 A2997 NOSIG=
201811071700 METAR MROC 071700Z 24011KT 210V070 9999 FEW045 26/20 A2995 NOSIG=
201811071800 METAR MROC 071800Z 25012KT 210V270 9999 FEW045 26/21 A2997 NOSIG=
201811071900 METAR MROC 071900Z 24010KT 210V270 9999 FEW045 26/21 A2990 NOSIG=
201811072000 METAR MROC 072000Z 26011KT 230V290 9999 FEW025 26/22 A2988 NOSIG=
201811072100 METAR MROC 072100Z 25010KT 9999 FEW020 25/21 A2987 NOSIG=
201811072200 METAR MROC 072200Z 24008KT 9999 FEW020 24/21 A2987 NOSIG=
201811072300 METAR MROC 072300Z 24008KT 8000 VCFG SCT005 BKN020 22/21 A2990 NOSIG=
201811080000 METAR MROC 080000Z 26005KT 8000 2000SW VCFG SCT004 BKN020 22/21 A2992 NOSIG=
201811080100 METAR MROC 080100Z 28004KT 9999 2000SW BCFG FEW001 SCT004 BKN020 22/21 A2994 NOSIG=
201811080200 METAR MROC 080200Z VRB02KT 9999 2000SW BCFG FEW001 SCT004 BKN020 21/21 A2996 NOSIG=
201811080300 METAR MROC 080300Z VRB02KT 8000 2000SW VCFG FEW001 BKN010 21/21 A2997 NOSIG=
201811080400 METAR MROC 080400Z VRB02KT 2000 BR FEW001 SCT005 BKN010 21/21 A2997 NOSIG=
201811080500 METAR MROC 080500Z VRB02KT 1500 BR FEW001 SCT003 21/20 A2996 BECMG 5000=
201811080600 METAR MROC 080600Z 00000KT 1500 BR SCT001 20/20 A2994 NOSIG=
201811080700 METAR MROC 080700Z 02004KT 350V090 9999 FEW035 20/18 A2993 NOSIG=
201811080800 METAR MROC 080800Z 36003KT 320V050 9999 FEW035 19/18 A2992 NOSIG=
201811080900 METAR MROC 080900Z 07004KT 360V130 9999 FEW035 20/17 A2991 NOSIG=
201811081000 METAR MROC 081000Z 11008KT 070V140 9999 FEW035 20/17 A2991 NOSIG=
201811081100 METAR MROC 081100Z 05006KT CAVOK 20/16 A2994 NOSIG=
201811081200 METAR MROC 081200Z 07005KT 030V100 CAVOK 21/17 A2995 NOSIG=
201811081300 METAR MROC 081300Z 11009KT 060V140 CAVOK 22/17 A2998 NOSIG=
201811081400 METAR MROC 081400Z 11010KT 080V150 CAVOK 24/17 A2999 NOSIG=
201811081500 METAR MROC 081500Z 11009KT CAVOK 26/17 A3000 NOSIG=
201811081600 METAR MROC 081600Z 11008KT 070V150 9999 27/17 A2999 NOSIG=
201811081700 METAR MROC 081700Z 13006KT 080V200 9999 FEW040 29/17 A2997 NOSIG=
201811081800 METAR MROC 081800Z 25009KT 9999 SCT030 26/21 A2995 NOSIG=
201811081900 METAR MROC 081900Z 25008KT 220V290 9999 BKN030 26/22 A2992 NOSIG=
201811082000 METAR MROC 082000Z 25007KT 190V290 9999 SCT030 SCT060 26/21 A2990 NOSIG=
201811082100 METAR MROC 082100Z 25010KT 9999 -RA BKN025 24/22 A2989 NOSIG=
201811082200 METAR MROC 082200Z 22006KT 190V150 9999 SCT010 24/22 A2991 NOSIG=
201811082300 METAR MROC 082300Z 25009KT 9999 SCT006 BKN015 22/21 A2993 NOSIG=
201811090000 METAR MROC 090000Z 25006KT 9999 SCT005 BKN010 22/21 A2995 NOSIG=
201811090100 METAR MROC 090100Z VRB03KT 9999 SCT005 BKN010 22/21 A2998 NOSIG=
201811090200 METAR MROC 090200Z 26003KT 5000 BR SCT005 BKN010 21/21 A3001 NOSIG=
201811090300 METAR MROC 090300Z VRB03KT 8000 VCFG SCT010 BKN015 21/21 A3002 NOSIG=
201811090400 METAR MROC 090400Z 00000KT 9999 4500S BCFG FEW005 21/20 A3002 NOSIG=
201811090500 METAR MROC 090500Z 03005KT 9999 BCFG FEW005 21/18 A3001 NOSIG=
201811090600 METAR MROC 090600Z 06004KT CAVOK 20/18 A2999 NOSIG=
201811090700 METAR MROC 090700Z 05006KT 030V090 CAVOK 20/17 A2996 NOSIG=
201811090800 METAR MROC NIL=
201811090900 METAR MROC 090900Z 06008KT CAVOK 20/16 A2996 NOSIG=
201811091000 METAR MROC 091000Z 03007KT CAVOK 20/16 A2996 NOSIG=
201811091100 METAR MROC 091100Z 08006KT CAVOK 20/16 A2997 NOSIG=
201811091200 METAR MROC 091200Z 07010KT CAVOK 20/16 A2998 NOSIG=
201811091300 METAR MROC 091300Z 05007KT 020V090 CAVOK 22/17 A2999 NOSIG=
201811091400 METAR MROC 091400Z 11005KT 040V140 CAVOK 25/18 A3000 NOSIG=
201811091500 METAR MROC 091500Z 24006KT 220V280 9999 VA NSC 25/19 A3002 NOSIG=
201811091600 METAR MROC 091600Z 24007KT 210V270 CAVOK 25/19 A3001 NOSIG=
201811091700 METAR MROC 091700Z 26007KT 9999 FEW040 26/20 A2998 NOSIG=
201811091800 METAR MROC 091800Z 27006KT 220V310 9999 SCT040 27/19 A2996 NOSIG=
201811091900 METAR MROC 091900Z 25010KT 9999 SCT035 26/20 A2994 NOSIG=
201811092000 METAR MROC 092000Z 25011KT 220V280 9999 BKN030 27/21 A2992 NOSIG=
201811092100 METAR MROC 092100Z 25012KT 9999 FEW015 SCT020 BKN060 26/22 A2991 NOSIG=
201811092200 METAR MROC 092200Z 27011KT 6000 RA FEW007 SCT010 BKN025 23/22 A2992 NOSIG=
201811092300 METAR MROC 092300Z 22006KT 7000 3200SW -RA FEW004 SCT010 BKN030 22/22 A2995 NOSIG=
201811100000 METAR MROC 100000Z 28003KT 240V350 7000 3000S -RA BCFG SCT002 BKN025 22/21 A2995 NOSIG=
201811100100 METAR MROC 100100Z VRB02KT 9000 -RA FEW006 SCT020 BKN060 22/20 A3000 NOSIG=
201811100200 METAR MROC 100200Z 35003KT 310V040 9999 FEW020 SCT050 22/21 A3002 NOSIG=
201811100300 METAR MROC 100300Z 02003KT 350V070 9999 FEW015 22/21 A3002 NOSIG=
201811100400 METAR MROC 100400Z VRB01KT CAVOK 21/20 A3001 NOSIG=
201811100500 METAR MROC 100500Z 06003KT 030V120 CAVOK 20/19 A3001 NOSIG=
201811100600 METAR MROC 100600Z 09006KT CAVOK 20/18 A3000 NOSIG=
201811100700 METAR MROC 100700Z 04005KT 020V080 CAVOK 20/17 A2998 NOSIG=
201811100800 METAR MROC 100800Z 08006KT CAVOK 20/17 A2997 NOSIG=
201811100900 METAR MROC 100900Z 07005KT 090V100 CAVOK 19/17 A2996 NOSIG=
201811101000 METAR MROC 101000Z 08005KT 040V100 CAVOK 20/16 A2997 NOSIG=
201811101100 METAR MROC 101100Z 07008KT CAVOK 20/16 A2997 NOSIG=
201811101200 METAR MROC 101200Z 10009KT 030V100 CAVOK 20/16 A2999 NOSIG=
201811101300 METAR MROC 101300Z 07007KT 030V110 CAVOK 22/17 A3001 NOSIG=
201811101400 METAR MROC 101400Z 11010G20KT 080V140 CAVOK 24/17 A3002 NOSIG=
201811101500 METAR MROC 101500Z 11013G23KT 9999 FEW045 25/18 A3002 NOSIG=
201811101600 METAR MROC 101600Z 12012KT 9999 FEW045 27/18 A3002 NOSIG=
201811101700 METAR MROC 101700Z 10011KT 9999 FEW040 SCT060 27/18 A3000 NOSIG=
201811101800 METAR MROC 101800Z 11010KT 9999 FEW030 SCT080 28/19 A2997 NOSIG=
201811101900 METAR MROC 101900Z 04008KT 010V080 9999 -DZ FEW025 BKN080 26/19 A2995 NOSIG=
201811102000 METAR MROC 102000Z 03010KT 350V060 9999 4200N RA FEW020 BKN050 23/20 A2994 NOSIG=
201811102100 METAR MROC 102100Z 34003KT 240V040 9999 SCT035 BKN060 25/20 A2992 NOSIG=
201811102200 METAR MROC 102200Z 11008KT 070V170 9999 FEW030 SCT060 BKN120 25/18 A2993 NOSIG=
201811102300 METAR MROC 102300Z 14005KT 090V180 9999 FEW030 SCT120 BKN200 24/18 A2994 NOSIG=
201811110000 METAR MROC 110000Z 10006KT 050V130 9999 FEW030 BKN120 23/18 A2996 NOSIG=
201811110100 METAR MROC 110100Z 11010KT 090V150 9999 FEW030 SCT120 23/18 A2998 NOSIG=
201811110200 METAR MROC 110200Z 12013KT 100V160 9999 FEW030 SCT150 22/18 A2998 NOSIG=
201811110300 METAR MROC 110300Z 11013G23KT 9999 FEW030 23/18 A2999 NOSIG=
201811110400 METAR MROC 110400Z 10015KT CAVOK 23/18 A2998 NOSIG=
201811110500 METAR MROC 110500Z 11012KT CAVOK 22/18 A2996 NOSIG=
201811110600 METAR MROC 110600Z 11015KT CAVOK 22/18 A2995 NOSIG=
201811110700 METAR MROC 110700Z 11012KT CAVOK 22/18 A2993 NOSIG=
201811110800 METAR MROC 110800Z 11013KT CAVOK 22/18 A2991 NOSIG=
201811110900 METAR MROC 110900Z 12009KT 090V150 CAVOK 22/18 A2992 NOSIG=
201811111000 METAR MROC 111000Z 35004KT CAVOK 20/17 A2993 NOSIG=
201811111100 METAR MROC 111100Z 03007KT 360V060 CAVOK 20/17 A2994 NOSIG=
201811111200 METAR MROC 111200Z 01006KT CAVOK 20/17 A2995 NOSIG=
201811111300 METAR MROC 111300Z 04004KT 9999 VCVA FEW040 23/18 A2997 NOSIG=
201811111400 METAR MROC 111400Z 11010G20KT 9999 FEW040 25/19 A2998 NOSIG=
201811111500 METAR MROC 111500Z 09012KT 9999 FEW040 BKN070 26/19 A2999 NOSIG=
201811111600 METAR MROC 111600Z 07010G20KT 030V110 9999 FEW035 SCT070 BKN100 26/19 A2998 NOSIG=
201811111700 METAR MROC 111700Z 05010G20KT 010V090 9999 FEW035 SCT060 BKN100 27/19 A2997 NOSIG=
201811111800 METAR MROC 111800Z 09012KT 9999 FEW035 BKN050 27/19 A2994 NOSIG=
201811111900 METAR MROC 111900Z 08010G20KT 050V110 9999 FEW035 SCT050 BKN150 28/18 A2990 NOSIG=
201811112000 METAR MROC 112000Z 09010KT 9999 FEW035 SCT050 BKN150 27/18 A2988 NOSIG=
201811112100 METAR MROC 112100Z 17003KT 080V240 9999 FEW020 BKN040 26/19 A2988 BECMG 23006KT=
201811112200 METAR MROC 112200Z 12006KT 100V160 9999 4500SW BCFG FEW010 BKN040 24/19 A2990 NOSIG=
201811112300 METAR MROC 112300Z 07009KT 030V110 9999 FEW040 BKN120 25/18 A2990 NOSIG=
201811120000 METAR MROC 120000Z 08006KT 020V130 9999 FEW030 BKN140 24/19 A2992 NOSIG=
201811120100 METAR MROC 120100Z 11004KT 060V160 9999 FEW030 BKN140 24/17 A2995 NOSIG=
201811120200 METAR MROC 120200Z 29005KT 210V010 9999 FEW030 BKN170 22/20 A2998 NOSIG=
201811120300 METAR MROC 120300Z 06003KT 010V130 9999 FEW030 BKN180 22/20 A2999 NOSIG=
201811120400 METAR MROC 120400Z 11006KT 080V140 9999 -RA FEW030 SCT140 22/19 A2998 NOSIG=
201811120500 METAR MROC 120500Z 11010KT 9999 FEW040 SCT150 23/19 A2995 NOSIG=
201811120600 METAR MROC 120600Z 11012G22KT 9999 FEW040 SCT150 23/18 A2994 NOSIG=
201811120700 METAR MROC 120700Z 11010G20KT CAVOK 23/18 A2993 NOSIG=
201811120800 METAR MROC 120800Z 11011KT 9999 FEW040 SCT130 23/18 A2991 NOSIG=
201811120900 METAR MROC 120900Z 11011KT 9999 FEW040 SCT130 23/18 A2990 NOSIG=
201811121000 METAR MROC 121000Z 10010KT 070V130 9999 FEW040 SCT140 22/19 A2991 NOSIG=
201811121100 METAR MROC 121100Z 11013G23KT 080V140 9999 FEW040 SCT140 23/18 A2993 NOSIG=
201811121200 METAR MROC 121200Z 11013KT 9999 FEW030 SCT120 23/18 A2994 NOSIG=
201811121300 METAR MROC 121300Z 13012KT 9999 FEW045 SCT120 23/19 A2994 NOSIG=
201811121400 METAR MROC 121400Z 11010KT 9999 SCT040 24/19 A2998 NOSIG=
201811121500 METAR MROC 121500Z 08013KT 050V110 9999 FEW045 SCT120 27/19 A2998 NOSIG=
201811121600 METAR MROC 121600Z 08013KT 9999 FEW040 SCT120 27/18 A2998 NOSIG=
201811121700 METAR MROC 121700Z 10012KT 070V130 9999 BKN030 26/18 A2997 NOSIG=
201811121800 METAR MROC 121800Z 10012KT 9999 BKN035 27/19 A2994 NOSIG=
201811121900 METAR MROC 121900Z 07013G23KT 9999 BKN030 26/18 A2992 NOSIG=
201811122000 METAR MROC 122000Z 08010KT 9999 FEW030 BKN050 26/18 A2989 NOSIG=
201811122100 METAR MROC 122100Z 10011KT 070V130 9999 FEW030 BKN120 25/18 A2990 NOSIG=
201811122200 METAR MROC 122200Z 09011KT 9999 FEW030 BKN120 25/18 A2990 NOSIG=
201811122300 METAR MROC 122300Z 11011KT CAVOK 24/18 A2992 NOSIG=
201811130000 METAR MROC 130000Z 10011KT CAVOK 23/17 A2993 NOSIG=
201811130100 METAR MROC 130100Z 04007KT CAVOK 23/17 A2995 NOSIG=
201811130200 METAR MROC 130200Z 09005KT 030V140 CAVOK 22/18 A2998 NOSIG=
201811130300 METAR MROC 130300Z 10010KT 070V130 CAVOK 23/17 A2998 NOSIG=
201811130400 METAR MROC 130400Z 11010G20KT CAVOK 23/17 A2999 NOSIG=
201811130500 METAR MROC 130500Z 13010KT 090V160 CAVOK 22/17 A3000 NOSIG=
201811130600 METAR MROC 130600Z 03005KT CAVOK 21/17 A2999 NOSIG=
201811130700 METAR MROC 130700Z 04005KT 010V080 CAVOK 20/17 A2997 NOSIG=
201811130800 METAR MROC 130800Z 07008KT CAVOK 21/17 A2997 NOSIG=
201811130900 METAR MROC 130900Z 05008KT CAVOK 21/17 A2995 NOSIG=
201811131000 METAR MROC 131000Z 04005KT CAVOK 21/17 A2998 NOSIG=
201811131100 METAR MROC 131100Z 06009KT CAVOK 20/16 A2998 NOSIG=
201811131200 METAR MROC 131200Z 06006KT 020V100 CAVOK 21/17 A3000 NOSIG=
201811131300 METAR MROC 131300Z 07006KT 050V110 CAVOK 23/17 A3001 NOSIG=
201811131400 METAR MROC 131400Z 08008KT 050V110 CAVOK 25/17 A3001 NOSIG=
201811131500 METAR MROC 131500Z 12009KT 090V150 CAVOK 27/16 A3001 NOSIG=
201811131600 METAR MROC 131600Z 10011KT 070V140 CAVOK 28/16 A3000 NOSIG=
201811131700 METAR MROC 131700Z 10015KT 080V140 CAVOK 28/17 A2997 NOSIG=
201811131800 METAR MROC 131800Z 10010KT 070V140 9999 FEW040 29/17 A2995 NOSIG=
201811131900 METAR MROC 131900Z 11008KT 080V140 9999 SCT040 SCT070 28/18 A2994 NOSIG=
201811132000 METAR MROC 132000Z 24011KT 9999 SCT040 BKN070 27/22 A2993 NOSIG=
201811132100 METAR MROC 132100Z VRB04KT 9999 -TSRA SCT010CB BKN030 21/18 A2995 NOSIG=
201811132200 METAR MROC 132200Z 27005KT 9999 -RA VCTS FEW030 BKN080 22/19 A2995 NOSIG=
201811132300 METAR MROC 132300Z 08007KT 9999 -RA NSC 21/20 A2996 NOSIG=
201811140000 METAR MROC 140000Z 07005KT 9999 -RA NSC 21/19 A2997 NOSIG=
201811140100 METAR MROC 140100Z 05006KT 9999 -RA NSC 22/18 A3001 NOSIG=
201811140200 METAR MROC 140200Z 10011KT 9999 -RA NSC 22/18 A3002 NOSIG=
201811140300 METAR MROC 140300Z 12010KT 9999 -RA NSC 22/18 A3003 NOSIG=
201811140400 METAR MROC 140400Z 34004KT 270V060 CAVOK 21/18 A3003 NOSIG=
201811140500 METAR MROC 140500Z 31002KT CAVOK 21/19 A3002 NOSIG=
201811140600 METAR MROC 140600Z 01002KT 310V050 CAVOK 20/19 A3000 NOSIG=
201811140700 METAR MROC 140700Z 02003KT 9999 FEW013 20/19 A2999 NOSIG=
201811140800 METAR MROC 140800Z 07004KT 030V100 9999 FEW020 21/18 A2997 NOSIG=
201811140900 METAR MROC 140900Z COR 06005KT 020V100 CAVOK 21/18 A2996 NOSIG=
201811141000 METAR MROC 141000Z 07009KT CAVOK 21/18 A2998 NOSIG=
201811141100 METAR MROC 141100Z 11008KT CAVOK 21/18 A2999 NOSIG=
201811141200 METAR MROC 141200Z 11010KT 080V140 9999 FEW045 SCT080 BKN120 22/18 A3000 NOSIG=
201811141300 METAR MROC 141300Z 09009KT 040V120 9999 FEW040 BKN100 23/19 A3001 NOSIG=
201811141400 METAR MROC 141400Z 11013KT CAVOK 24/19 A3000 NOSIG=
201811141500 METAR MROC 141500Z 12008KT 080V170 CAVOK 24/18 A3000 NOSIG=
201811141600 METAR MROC 141600Z 09012KT CAVOK 26/17 A3001 NOSIG=
201811141700 METAR MROC 141700Z 08012KT 050V110 CAVOK 27/18 A2999 NOSIG=
201811141800 METAR MROC 141800Z 08014KT 050V110 CAVOK 29/18 A2998 NOSIG=
201811141900 METAR MROC 141900Z 08012KT 9999 SCT045 28/17 A2995 NOSIG=
201811142000 METAR MROC 142000Z 09008KT 9999 SCT045 27/17 A2992 NOSIG=
201811142100 METAR MROC 142100Z 10011KT 070V140 7000 3000N RA BCFG FEW010 BKN040 21/20 A2993 NOSIG=
201811142200 METAR MROC 142200Z COR 13007KT 100V170 9999 VCTS FEW010CB SCT040 BKN130 22/19 A2994 RERA NOSIG=
201811142300 METAR MROC 142300Z 09007KT 030V160 9999 FEW035 BKN120 22/19 A2996 NOSIG=
201811150000 METAR MROC 150000Z 06003KT 340V100 9999 FEW040 BKN130 22/19 A2997 NOSIG=
201811150100 METAR MROC 150100Z VRB02KT 9999 FEW040 BKN140 21/19 A3000 NOSIG=
201811150200 METAR MROC 150200Z 08005KT 9999 FEW045 BKN140 22/18 A3001 NOSIG=
201811150300 METAR MROC 150300Z 12008KT 100V160 9999 FEW040 SCT120 22/18 A3002 NOSIG=
201811150400 METAR MROC 150400Z 07003KT 360V130 CAVOK 22/18 A3003 NOSIG=
201811150500 METAR MROC 150500Z 09006KT 060V120 CAVOK 22/17 A3002 NOSIG=
201811150600 METAR MROC 150600Z 12009KT CAVOK 22/17 A3001 NOSIG=
201811150700 METAR MROC 150700Z 10008KT CAVOK 21/18 A2999 NOSIG=
201811150800 METAR MROC 150800Z 12008KT CAVOK 21/18 A2996 NOSIG=
201811150900 METAR MROC 150900Z 11008KT CAVOK 21/17 A2995 NOSIG=
201811151000 METAR MROC 151000Z 07007KT CAVOK 21/18 A2996 NOSIG=
201811151100 METAR MROC 151100Z 11009KT 080V140 CAVOK 21/18 A2996 NOSIG=
201811151200 METAR MROC 151200Z 11010KT 9999 FEW030 SCT130 21/18 A2998 NOSIG=
201811151300 METAR MROC 151300Z 11013KT 9999 FEW035 SCT130 23/18 A2998 NOSIG=
201811151400 METAR MROC 151400Z 11014KT 9999 FEW045 SCT130 25/19 A3001 NOSIG=
201811151500 METAR MROC 151500Z 10015G25KT 070V130 9999 FEW040 SCT060 26/18 A3002 NOSIG=
201811151600 METAR MROC 151600Z 11013G23KT 9999 FEW030 BKN100 25/19 A3002 NOSIG=
201811151700 METAR MROC 151700Z 11011G21KT 9999 FEW030 BKN130 26/18 A3000 NOSIG=
201811151800 METAR MROC 151800Z 10011KT 060V140 9999 FEW030 SCT080 27/19 A2997 NOSIG=
201811151900 METAR MROC 151900Z 11013KT 080V140 9999 FEW025 BKN070 26/18 A2996 NOSIG=
201811152000 METAR MROC 152000Z 10010KT 9999 FEW020 SCT060 25/18 A2994 NOSIG=
201811152100 METAR MROC 152100Z 09011G21KT 9999 SCT035 SCT100 26/17 A2993 NOSIG=
201811152200 METAR MROC 152200Z 10010G20KT 070V130 9999 SCT035 SCT120 26/17 A2993 NOSIG=
201811152300 METAR MROC 152300Z 08010G20KT 9999 SCT035 BKN120 25/17 A2994 NOSIG=
201811160000 METAR MROC 160000Z 10010KT 9999 FEW035 BKN120 23/17 A2997 NOSIG=
201811160100 METAR MROC 160100Z 12010G20KT 9999 FEW035 BKN140 23/17 A2998 NOSIG=
201811160200 METAR MROC 160200Z 10010G20KT 9999 FEW035 BKN140 23/17 A3002 NOSIG=
201811160300 METAR MROC 160300Z 08008KT 9999 FEW035 SCT140 23/17 A3003 NOSIG=
201811160400 METAR MROC 160400Z 05006KT CAVOK 22/17 A3002 NOSIG=
201811160500 METAR MROC 160500Z 09006KT 050V130 CAVOK 21/18 A3001 NOSIG=
201811160600 METAR MROC 160600Z 11012KT CAVOK 22/18 A2999 NOSIG=
201811160700 METAR MROC 160700Z 10009KT 060V150 CAVOK 21/17 A2997 NOSIG=
201811160800 METAR MROC 160800Z 11011KT CAVOK 22/18 A2993 NOSIG=
201811160900 METAR MROC 160900Z 12011KT CAVOK 22/18 A2995 NOSIG=
201811161000 METAR MROC 161000Z 12011KT 090V150 CAVOK 22/18 A2993 NOSIG=
201811161100 METAR MROC 161100Z 11011KT CAVOK 22/17 A2995 NOSIG=
201811161200 METAR MROC 161200Z 10015KT CAVOK 23/17 A2998 NOSIG=
201811161300 METAR MROC 161300Z 11011G21KT 9999 FEW040 SCT100 BKN200 23/17 A3000 NOSIG=
201811161400 METAR MROC 161400Z 09010G20KT 9999 FEW040 BKN200 25/17 A3001 NOSIG=
201811161500 METAR MROC 161500Z 11013G23KT 080V150 9999 FEW045 SCT100 BKN200 27/18 A3002 NOSIG=
201811161600 METAR MROC 161600Z 12010G20KT 090V150 9999 FEW035 SCT060 BKN120 26/18 A3001 NOSIG=
201811161700 METAR MROC 161700Z 11012G23KT 9999 FEW030 BKN045 26/18 A2999 NOSIG=
201811161800 METAR MROC 161800Z 10010G20KT 9999 SCT035 BKN060 26/18 A2997 NOSIG=
201811161900 METAR MROC 161900Z 11010G20KT 9999 SCT035 BKN200 27/18 A2994 NOSIG=
201811162000 METAR MROC 162000Z 08010G20KT 9999 SCT030 BKN045 26/18 A2993 NOSIG=
201811162100 METAR MROC 162100Z 09010KT 9999 FEW030 SCT080 26/18 A2991 NOSIG=
201811162200 METAR MROC 162200Z 12009KT 090V170 9999 SCT045 SCT120 26/17 A2991 NOSIG=
201811162300 METAR MROC 162300Z 08009KT 9999 SCT035 SCT120 24/17 A2993 NOSIG=
201811170000 METAR MROC 170000Z 31004KT 260V040 9999 FEW030 SCT120 23/21 A2995 NOSIG=
201811170100 METAR MROC 170100Z 10003KT 050V170 9999 FEW030 22/18 A2997 NOSIG=
201811170200 METAR MROC 170200Z 11010KT CAVOK 22/18 A2998 NOSIG=
201811170300 METAR MROC 170300Z 11011KT 9999 FEW030 22/18 A2998 NOSIG=
201811170400 METAR MROC 170400Z 11011KT 080V140 9999 FEW040 22/18 A2999 NOSIG=
201811170500 METAR MROC 170500Z 11007KT 9999 FEW035 22/18 A2998 NOSIG=
201811170600 METAR MROC 170600Z 09009KT 9999 FEW035 23/17 A2996 NOSIG=
201811170700 METAR MROC 170700Z 12010KT 090V150 CAVOK 22/18 A2995 NOSIG=
201811170800 METAR MROC 170800Z 11012KT CAVOK 22/18 A2993 NOSIG=
201811170900 METAR MROC 170900Z 06004KT 020V100 CAVOK 22/18 A2993 NOSIG=
201811171000 METAR MROC 171000Z 08010KT 050V120 CAVOK 22/18 A2994 NOSIG=
201811171100 METAR MROC 171100Z 09008KT 030V130 9999 FEW040 22/18 A2996 NOSIG=
201811171200 METAR MROC 171200Z 07008KT 040V100 9999 FEW045 SCT120 22/18 A2998 NOSIG=
201811171300 METAR MROC 171300Z 11011KT 090V160 9999 FEW045 24/18 A3000 NOSIG=
201811171400 METAR MROC 171400Z 12008KT 100V160 9999 FEW040 SCT130 25/19 A3002 NOSIG=
201811171500 METAR MROC 171500Z 09013KT 100V160 9999 SCT045 26/18 A3002 NOSIG=
201811171600 METAR MROC 171600Z 10011KT 070V130 9999 SCT045 27/19 A3001 NOSIG=
201811171700 METAR MROC 171700Z 08012KT 050V110 9999 SCT045 28/18 A2998 NOSIG=
201811171800 METAR MROC 171800Z 09011KT 060V120 9999 SCT040 27/18 A2995 NOSIG=
201811171900 METAR MROC 171900Z 08012KT 9999 FEW045 29/18 A2992 NOSIG=
201811172000 METAR MROC 172000Z 09009KT 9999 FEW040 29/17 A2990 NOSIG=
201811172100 METAR MROC 172100Z 07010KT 040V110 9999 FEW030 BKN100 28/19 A2990 NOSIG=
201811172200 METAR MROC 172200Z 11007KT 9999 FEW030 BKN100 25/19 A2991 NOSIG=
201811172300 METAR MROC 172300Z 12004KT 100V160 9999 FEW040 BKN100 24/19 A2993 NOSIG=
201811180000 METAR MROC 180000Z 10007KT 9999 FEW040 SCT100 23/18 A2994 NOSIG=
201811180100 METAR MROC 180100Z 06007KT 010V080 9999 -RA FEW040 BKN100 22/20 A2998 NOSIG=
201811180200 METAR MROC 180200Z 07003KT CAVOK 22/20 A2998 NOSIG=
201811180300 METAR MROC 180300Z 10009KT 070V130 CAVOK 22/19 A2998 NOSIG=
201811180400 METAR MROC 180400Z 11010G20KT CAVOK 23/18 A2997 NOSIG=
201811180500 METAR MROC 180500Z 10010G20KT CAVOK 23/18 A2997 NOSIG=
201811180600 METAR MROC 180600Z 10015G25KT CAVOK 23/18 A2996 NOSIG=
201811180700 METAR MROC 180700Z 09008KT 020V150 CAVOK 22/18 A2994 NOSIG=
201811180800 METAR MROC 180800Z 09010G20KT 060V120 CAVOK 22/17 A2993 NOSIG=
201811180900 METAR MROC 180900Z 10010G20KT CAVOK 22/17 A2992 NOSIG=
201811181000 METAR MROC 181000Z 10013KT CAVOK 23/17 A2993 NOSIG=
201811181100 METAR MROC 181100Z 11012KT 9999 FEW045 22/18 A2994 NOSIG=
201811181200 METAR MROC 181200Z 11013KT 9999 FEW035 SCT250 22/18 A2997 NOSIG=
201811181300 METAR MROC 181300Z 12011KT 090V160 9999 FEW040 SCT200 24/19 A2999 NOSIG=
201811181400 METAR MROC 181400Z 09010KT 050V120 9999 FEW030 BKN200 24/19 A3001 NOSIG=
201811181500 METAR MROC 181500Z 11012KT 9999 -RA FEW030 BKN100 24/19 A3002 NOSIG=
201811181600 METAR MROC 181600Z 11013KT 9999 FEW030 SCT100 BKN200 24/18 A3001 NOSIG=
201811181700 METAR MROC 181700Z 12015KT 9999 FEW040 BKN200 27/17 A2999 NOSIG=
201811181800 METAR MROC 181800Z 12013KT 9999 FEW040 BKN200 26/17 A2997 NOSIG=
201811181900 METAR MROC 181900Z 11015G25KT 9999 FEW040 BKN150 27/16 A2995 NOSIG=
201811182000 METAR MROC 182000Z 09009KT 9999 FEW040 BKN120 27/16 A2994 NOSIG=
201811182100 METAR MROC 182100Z 11010KT 070V150 CAVOK 27/17 A2993 NOSIG=
201811182200 METAR MROC 182200Z 10008KT CAVOK 26/16 A2993 NOSIG=
201811182300 METAR MROC 182300Z 09010KT CAVOK 25/16 A2994 NOSIG=
201811190000 METAR MROC 190000Z 09011KT CAVOK 24/16 A2996 NOSIG=
201811190100 METAR MROC 190100Z 08010KT 040V110 CAVOK 23/17 A2997 NOSIG=
201811190200 METAR MROC 190200Z 06010KT 020V090 CAVOK 23/17 A2999 NOSIG=
201811190300 METAR MROC 190300Z 07006KT 030V130 CAVOK 22/16 A3000 NOSIG=
201811190400 METAR MROC 190400Z 09009KT 040V120 CAVOK 22/17 A2997 NOSIG=
201811190500 METAR MROC 190500Z 10011KT CAVOK 23/16 A2996 NOSIG=
201811190600 METAR MROC 190600Z 11017KT CAVOK 22/17 A2993 NOSIG=
201811190700 METAR MROC NIL=
201811190800 METAR MROC 190800Z VRB04KT CAVOK 22/18 A2992 NOSIG=
201811190900 METAR MROC 190900Z 07005KT 030V120 CAVOK 21/17 A2992 NOSIG=
201811191000 METAR MROC 191000Z 04006KT 320V100 CAVOK 20/17 A2994 NOSIG=
201811191100 METAR MROC 191100Z 03004KT 320V070 CAVOK 20/17 A2996 NOSIG=
201811191200 METAR MROC 191200Z 05004KT 360V090 CAVOK 20/17 A2997 NOSIG=
201811191300 METAR MROC 191300Z 09006KT 050V120 CAVOK 23/18 A2998 NOSIG=
201811191400 METAR MROC 191400Z 07004KT 350V160 CAVOK 24/19 A3001 NOSIG=
201811191500 METAR MROC 191500Z 08015KT 9999 FEW040 SCT250 27/18 A3001 NOSIG=
201811191600 METAR MROC 191600Z 11014KT 080V140 9999 FEW040 SCT250 27/19 A3001 NOSIG=
201811191700 METAR MROC 191700Z 11011KT 060V140 9999 FEW040 SCT250 27/19 A2999 NOSIG=
201811191800 METAR MROC 191800Z 14012KT 110V180 9999 -RA SCT040 BKN120 26/19 A2997 BECMG 5000 RA=
201811191900 METAR MROC 191900Z 10004KT 9999 -RA FEW040 OVC120 24/20 A2995 NOSIG=
201811192000 METAR MROC 192000Z VRB02KT 9999 -RA NSC 24/20 A2993 NOSIG=
201811192100 METAR MROC 192100Z 12008KT 090V150 9999 -RA FEW025 BKN100 22/20 A2992 NOSIG=
201811192200 METAR MROC 192200Z 10007KT 080V140 9999 -RA FEW035 BKN120 23/19 A2994 NOSIG=
201811192300 METAR MROC 192300Z 09011KT 060V120 CAVOK 23/18 A2995 NOSIG=
201811200000 METAR MROC 200000Z 10008KT CAVOK 23/18 A2995 NOSIG=
201811200100 METAR MROC 200100Z 08004KT CAVOK 22/19 A2999 NOSIG=
201811200200 METAR MROC 200200Z 08005KT 360V130 FEW045 SCT200 23/19 A3002 NOSIG=
201811200300 METAR MROC 200300Z 11006KT 360V130 CAVOK 22/19 A3002 NOSIG=
201811200400 METAR MROC 200400Z 11006KT 9999 BKN040 22/18 A3001 NOSIG=
201811200500 METAR MROC 200500Z 11004KT 9999 SCT040 22/18 A3000 NOSIG=
201811200600 METAR MROC 200600Z 10007KT 070V140 9999 SCT040 22/19 A2999 NOSIG=
201811200700 METAR MROC 200700Z 07004KT 350V140 9999 FEW040 22/18 A2996 NOSIG=
201811200800 METAR MROC 200800Z 11011KT 9999 FEW040 22/18 A2994 NOSIG=
201811200900 METAR MROC 200900Z 09012KT CAVOK 24/17 A2992 NOSIG=
201811201000 METAR MROC 201000Z 09009KT CAVOK 22/17 A2993 NOSIG=
201811201100 METAR MROC 201100Z 11014KT CAVOK 22/18 A2995 NOSIG=
201811201200 METAR MROC 201200Z 11012KT 9999 FEW030 BKN200 22/17 A2995 NOSIG=
201811201300 METAR MROC 201300Z 11015KT 9999 FEW045 BKN200 23/18 A2998 NOSIG=
201811201400 METAR MROC 201400Z 10016KT CAVOK 24/18 A2999 NOSIG=
201811201500 METAR MROC 201500Z 12010G20KT 090V150 CAVOK 24/19 A3002 NOSIG=
201811201600 METAR MROC 201600Z 11013KT 070V140 CAVOK 24/19 A3003 NOSIG=
201811201700 METAR MROC 201700Z 11012KT 9999 FEW035 OVC100 24/19 A3001 NOSIG=
201811201800 METAR MROC 201800Z 11015KT 9999 SCT045 OVC140 24/18 A2999 NOSIG=
201811201900 METAR MROC 201900Z 11011KT 9999 FEW035 SCT070 BKN130 25/17 A2996 NOSIG=
201811202000 METAR MROC 202000Z 11010KT 090V150 9999 FEW035 BKN130 25/18 A2994 NOSIG=
201811202100 METAR MROC 202100Z 11012KT 9999 FEW035 SCT060 BKN120 24/18 A2994 NOSIG=
201811202200 METAR MROC 202200Z 10010G20KT 9999 FEW035 SCT060 BKN120 24/18 A2995 NOSIG=
201811202300 METAR MROC 202300Z 11012KT 9999 FEW035 SCT060 BKN140 23/18 A2996 NOSIG=
201811210000 METAR MROC 210000Z 11013G23KT 9999 FEW035 BKN140 23/17 A2996 NOSIG=
201811210100 METAR MROC 210100Z 07010G20KT 050V110 9999 FEW035 SCT140 23/18 A2999 NOSIG=
201811210200 METAR MROC 210200Z 12014KT 090V150 CAVOK 23/18 A3002 NOSIG=
201811210300 METAR MROC 210300Z 11010KT 080V140 CAVOK 22/18 A3004 NOSIG=
201811210400 METAR MROC 210400Z 10004KT 030V160 CAVOK 22/18 A3005 NOSIG=
201811210500 METAR MROC 210500Z VRB04KT CAVOK 22/18 A3003 NOSIG=
201811210600 METAR MROC 210600Z 05005KT CAVOK 22/18 A3003 NOSIG=
201811210700 METAR MROC 210700Z 03005KT CAVOK 21/17 A2998 NOSIG=
201811210800 METAR MROC 210800Z 05006KT 020V100 CAVOK 22/18 A2998 NOSIG=
201811210900 METAR MROC 210900Z 08007KT CAVOK 22/18 A2996 NOSIG=
201811211000 METAR MROC 211000Z 07006KT CAVOK 21/18 A2998 NOSIG=
201811211100 METAR MROC 211100Z 06004KT 9999 -RA SCT045 21/18 A3002 NOSIG=
201811211200 METAR MROC 211200Z 03007KT 360V060 9999 -RA SCT040 OVC120 20/19 A3003 NOSIG=
201811211300 METAR MROC 211300Z 08008KT 040V130 9999 SCT035 BKN100 22/19 A3005 NOSIG=
201811211400 METAR MROC 211400Z 11010G20KT 9999 FEW035 BKN120 23/18 A3006 NOSIG=
201811211500 METAR MROC 211500Z 10011G21KT 9999 FEW040 SCT080 BKN120 25/19 A3007 NOSIG=
201811211600 METAR MROC 211600Z 10011G21KT 9999 FEW035 SCT080 BKN120 25/18 A3008 NOSIG=
201811211700 METAR MROC 211700Z 11010G20KT 090V150 9999 -RA FEW035 SCT050 BKN120 23/18 A3007 NOSIG=
201811211800 METAR MROC 211800Z 12010KT 090V160 9999 FEW035 SCT060 BKN120 24/19 A3002 NOSIG=
201811211900 METAR MROC 211900Z 12010KT 090V170 9999 -RA FEW035 SCT050 BKN120 23/19 A3001 NOSIG=
201811212000 METAR MROC 212000Z 11007KT 9999 -RA FEW035 SCT050 BKN120 23/20 A2997 NOSIG=
201811212100 METAR MROC 212100Z VRB04KT 9999 FEW035 BKN120 23/19 A2997 NOSIG=
201811212200 METAR MROC 212200Z VRB02KT 9999 BKN035 23/19 A2997 NOSIG=
201811212300 METAR MROC 212300Z VRB02KT 9999 4500SW -RA OVC030 22/19 A2999 NOSIG=
201811220000 METAR MROC 220000Z VRB01KT 9999 SCT030 BKN130 22/19 A3001 NOSIG=
201811220100 METAR MROC 220100Z 12004KT 9999 FEW025 BKN050 22/19 A3004 NOSIG=
201811220200 METAR MROC 220200Z VRB02KT 9999 SCT020 21/20 A3007 NOSIG=
201811220300 METAR MROC 220300Z 02003KT 350V080 9999 SCT025 BKN160 21/20 A3008 NOSIG=
201811220400 METAR MROC 220400Z VRB02KT 9999 FEW045 BKN190 21/20 A3007 NOSIG=
201811220500 METAR MROC 220500Z VRB02KT 9999 FEW040 BKN170 21/20 A3006 NOSIG=
201811220600 METAR MROC 220600Z VRB03KT 9999 FEW040 SCT150 OVC230 21/19 A3004 NOSIG=
201811220700 METAR MROC 220700Z 36004KT 9999 SCT045 21/19 A3003 NOSIG=
201811220800 METAR MROC 220800Z 06004KT 9999 SCT045 21/19 A3001 NOSIG=
201811220900 METAR MROC 220900Z 08003KT 9999 BKN040 21/19 A3001 NOSIG=
201811221000 METAR MROC 221000Z VRB02KT 9999 FEW035 20/19 A3000 NOSIG=
201811221100 METAR MROC 221100Z 04005KT 350V100 CAVOK 20/18 A3000 NOSIG=
201811221200 METAR MROC 221200Z 04007KT CAVOK 21/18 A3001 NOSIG=
201811221300 METAR MROC 221300Z 02004KT 320V060 9999 FEW035 23/18 A3004 NOSIG=
201811221400 METAR MROC 221400Z 10010KT 340V150 CAVOK 24/19 A3006 NOSIG=
201811221500 METAR MROC 221500Z 11010G20KT 080V160 9999 FEW045 26/18 A3007 NOSIG=
201811221600 METAR MROC 221600Z 11008KT 070V170 9999 FEW035 28/17 A3005 NOSIG=
201811221700 METAR MROC 221700Z 12007KT 060V170 CAVOK 29/18 A3003 NOSIG=
201811221800 METAR MROC 221800Z 13008KT 080V190 9999 FEW045 29/18 A2999 BECMG 22006KT=
201811221900 METAR MROC 221900Z 21009KT 170V250 9999 FEW045 28/22 A2997 NOSIG=
201811222000 METAR MROC 222000Z 24012KT 9999 BKN040 26/22 A2995 NOSIG=
201811222100 METAR MROC 222100Z 24009KT 9999 -TS VCSH FEW010CB BKN040 25/22 A2995 NOSIG=
201811222200 METAR MROC 222200Z 36003KT 310V070 9999 BCFG FEW005 SCT030 BKN100 22/21 A2996 NOSIG=
201811222300 METAR MROC 222300Z VRB02KT 9999 BCFG FEW005 SCT040 BKN100 22/21 A2999 NOSIG=
201811230000 METAR MROC 230000Z 07003KT 360V140 9999 FEW040 BKN120 23/19 A3000 NOSIG=
201811230100 METAR MROC 230100Z 07006KT 9999 FEW040 BKN120 22/19 A3002 NOSIG=
201811230200 METAR MROC 230200Z VRB02KT CAVOK 22/19 A3004 NOSIG=
201811230300 METAR MROC 230300Z 11007KT 080V140 CAVOK 22/18 A3005 NOSIG=
201811230400 METAR MROC 230400Z 03007KT 9999 FEW035 BKN120 22/19 A3005 NOSIG=
201811230500 METAR MROC 230500Z 16007KT 9999 FEW035 BKN120 22/19 A3004 NOSIG=
201811230600 METAR MROC 230600Z 11010G20KT 080V140 9999 FEW035 BKN120 22/18 A3000 NOSIG=
201811230700 METAR MROC 230700Z 05004KT 360V130 9999 FEW035 21/18 A2998 NOSIG=
201811230800 METAR MROC 230800Z 07007KT 020V110 9999 FEW035 22/18 A2996 NOSIG=
201811230900 METAR MROC 230900Z 05010G22KT 030V090 CAVOK 22/17 A2994 NOSIG=
201811231000 METAR MROC 231000Z 11013G23KT CAVOK 22/17 A2996 NOSIG=
201811231100 METAR MROC 231100Z 11013G23KT 9999 FEW035 BKN120 22/17 A2998 NOSIG=
201811231200 METAR MROC 231200Z 09013G25KT 9999 FEW035 BKN120 23/16 A2999 NOSIG=
201811231300 METAR MROC 231300Z 10012KT CAVOK 23/16 A3001 NOSIG=
201811231400 METAR MROC 231400Z 12011KT 090V150 CAVOK 25/16 A3003 NOSIG=
201811231500 METAR MROC 231500Z 10013KT 070V130 CAVOK 26/16 A3004 NOSIG=
201811231600 METAR MROC 231600Z 10014KT 070V130 CAVOK 27/15 A3003 NOSIG=
201811231700 METAR MROC 231700Z 08012KT 9999 FEW040 28/16 A3002 NOSIG=
201811231800 METAR MROC 231800Z 09011KT 060V140 9999 FEW040 28/17 A2998 NOSIG=
201811231900 METAR MROC 231900Z 11009KT 070V170 9999 FEW040 28/16 A2995 NOSIG=
201811232000 METAR MROC 232000Z 08010KT 050V120 9999 SCT040 28/16 A2993 NOSIG=
201811232100 METAR MROC 232100Z 11007KT 060V150 9999 SCT040 28/16 A2991 NOSIG=
201811232200 METAR MROC 232200Z 09010KT 9999 SCT040 27/16 A2992 NOSIG=
201811232300 METAR MROC 232300Z 11009KT 9999 SCT040 25/16 A2994 NOSIG=
201811240000 METAR MROC 240000Z 06007KT 030V090 9999 FEW040 24/17 A2996 NOSIG=
201811240100 METAR MROC 240100Z 08005KT 050V110 CAVOK 23/17 A2998 NOSIG=
201811240200 METAR MROC 240200Z 05005KT 360V080 CAVOK 22/17 A3000 NOSIG=
201811240300 METAR MROC 240300Z 05005KT CAVOK 22/16 A3002 NOSIG=
201811240400 METAR MROC 240400Z 09007KT CAVOK 21/16 A3001 NOSIG=
201811240500 METAR MROC 240500Z 07009KT CAVOK 20/16 A3000 NOSIG=
201811240600 METAR MROC 240600Z 06007KT CAVOK 19/15 A2999 NOSIG=
201811240700 METAR MROC 240700Z 06006KT CAVOK 19/15 A2997 NOSIG=
201811240800 METAR MROC 240800Z 06008KT CAVOK 19/15 A2995 NOSIG=
201811240900 METAR MROC 240900Z 07007KT CAVOK 19/15 A2994 NOSIG=
201811241000 METAR MROC 241000Z 08007KT CAVOK 19/15 A2994 NOSIG=
201811241100 METAR MROC 241100Z 06007KT CAVOK 19/14 A2995 NOSIG=
201811241200 METAR MROC 241200Z 06007KT 020V090 CAVOK 20/14 A2997 NOSIG=
201811241300 METAR MROC 241300Z 03007KT 010V080 CAVOK 21/15 A2999 NOSIG=
201811241400 METAR MROC 241400Z 09007KT 030V160 CAVOK 24/15 A3000 NOSIG=
201811241500 METAR MROC 241500Z 12012KT 090V150 CAVOK 26/16 A3000 NOSIG=
201811241600 METAR MROC 241600Z 11011KT 080V140 CAVOK 27/16 A3000 NOSIG=
201811241700 METAR MROC 241700Z 12007KT 070V160 CAVOK 28/17 A2997 NOSIG=
201811241800 METAR MROC 241800Z 24008KT 190V260 9999 SCT040 26/19 A2993 NOSIG=
201811241900 METAR MROC 241900Z 25010KT 9999 SCT040 27/20 A2991 NOSIG=
201811242000 METAR MROC 242000Z 25008KT 9999 SCT040 26/21 A2989 NOSIG=
201811242100 METAR MROC 242100Z 23009KT 9999 FEW025 SCT045 26/21 A2988 NOSIG=
201811242200 METAR MROC 242200Z 23009KT 9999 RA FEW010 SCT030 26/22 A2988 NOSIG=
201811242300 METAR MROC 242300Z 24007KT 9999 -RA FEW005 SCT035 SCT085 23/21 A2990 NOSIG=
201811250000 METAR MROC 250000Z 27005KT 250V310 9999 FEW003 SCT025 BKN050 22/21 A2993 NOSIG=
201811250100 METAR MROC 250100Z VRB01KT 8000 FEW005 SCT015 BKN050 22/21 A2995 NOSIG=
201811250200 METAR MROC 250200Z VRB02KT 9999 FEW010 22/21 A2997 NOSIG=
201811250300 METAR MROC 250300Z VRB02KT CAVOK 22/21 A2998 NOSIG=
201811250400 METAR MROC 250400Z 06003KT 030V090 CAVOK 21/18 A2999 NOSIG=
201811250500 METAR MROC 250500Z 05005KT 010V100 CAVOK 20/17 A2998 NOSIG=
201811250600 METAR MROC 250600Z 04003KT 360V070 CAVOK 20/17 A2998 NOSIG=
201811250700 METAR MROC 250700Z 06005KT 040V100 CAVOK 19/17 A2996 NOSIG=
201811250800 METAR MROC 250800Z 07004KT CAVOK 18/17 A2994 NOSIG=
201811250900 METAR MROC 250900Z 07005KT 030V110 CAVOK 18/16 A2993 NOSIG=
201811251000 METAR MROC 251000Z 05008KT CAVOK 18/16 A2994 NOSIG=
201811251100 METAR MROC 251100Z 06009KT CAVOK 19/16 A2995 NOSIG=
201811251200 METAR MROC 251200Z 05005KT CAVOK 18/16 A2996 NOSIG=
201811251300 METAR MROC 251300Z 10007KT 050V130 CAVOK 22/16 A2999 NOSIG=
201811251400 METAR MROC 251400Z 12012KT 090V150 CAVOK 23/17 A3001 NOSIG=
201811251500 METAR MROC 251500Z 12010G20KT 9999 VCVA NSC 26/17 A3000 NOSIG=
201811251600 METAR MROC 251600Z 11014KT 9999 VCVA NSC 27/17 A2999 NOSIG=
201811251700 METAR MROC 251700Z 09011KT 9999 VCVA FEW030 28/16 A2998 NOSIG=
201811251800 METAR MROC 251800Z 09012G22KT 9999 VCVA FEW030 SCT260 28/16 A2995 NOSIG=
201811251900 METAR MROC 251900Z 08010KT 050V130 9999 FEW030 SCT260 28/16 A2994 NOSIG=
201811252000 METAR MROC 252000Z 09007KT 050V140 9999 FEW030 SCT260 29/17 A2991 NOSIG=
201811252100 METAR MROC 252100Z 34004KT 9999 SCT035 27/17 A2991 NOSIG=
201811252200 METAR MROC 252200Z 16006KT 9999 FEW035 SCT250 27/17 A2991 NOSIG=
201811252300 METAR MROC 252300Z 26008KT 220V280 9999 FEW035 SCT250 23/21 A2993 NOSIG=
201811252357 METAR MROC 260000Z 31005KT 9999 FEW035 22/21 A2995 NOSIG=
201811260000 METAR MROC 260000Z 31005KT 9999 FEW035 22/21 A2995 NOSIG=
201811260100 METAR MROC 260100Z 16003KT 9999 FEW035 22/19 A2998 NOSIG=
201811260200 METAR MROC 260200Z 05003KT 320V110 9999 FEW002 21/20 A3001 NOSIG=
201811260300 METAR MROC 260300Z 06004KT 010V120 CAVOK 21/19 A3002 NOSIG=
201811260400 METAR MROC 260400Z 07006KT 020V090 CAVOK 21/16 A3002 NOSIG=
201811260500 METAR MROC 260500Z 07006KT CAVOK 20/15 A3001 NOSIG=
201811260600 METAR MROC 260600Z 18004KT 130V220 CAVOK 20/16 A3000 NOSIG=
201811260700 METAR MROC 260700Z 09009KT 060V120 CAVOK 20/16 A2998 NOSIG=
201811260800 METAR MROC 260800Z 11010KT CAVOK 20/16 A2996 NOSIG=
201811260900 METAR MROC 260900Z 09009KT CAVOK 20/15 A2995 NOSIG=
201811261000 METAR MROC 261000Z 09006KT CAVOK 19/15 A2997 NOSIG=
201811261100 METAR MROC 261100Z 06006KT CAVOK 19/15 A2999 NOSIG=
201811261200 METAR MROC 261200Z 09009KT CAVOK 19/15 A3000 NOSIG=
201811261300 METAR MROC 261300Z 07006KT 030V090 CAVOK 22/15 A3003 NOSIG=
201811261400 METAR MROC 261400Z 10010G20KT 080V150 CAVOK 24/17 A3003 NOSIG=
201811261500 METAR MROC 261500Z 10012G22KT 070V130 CAVOK 25/16 A3003 NOSIG=
201811261600 METAR MROC 261600Z 12010G20KT 090V150 9999 FEW045 26/17 A3002 NOSIG=
201811261700 METAR MROC 261700Z 11010G20KT 080V140 9999 FEW040 27/17 A3001 NOSIG=
201811261800 METAR MROC 261800Z 11010G20KT 070V190 9999 FEW040 28/17 A2998 NOSIG=
201811261900 METAR MROC 261900Z 11010G20KT 070V150 9999 FEW040 28/17 A2996 NOSIG=
201811262000 METAR MROC 262000Z 14010G20KT 100V200 9999 SCT040 28/18 A2994 NOSIG=
201811262100 METAR MROC 262100Z 22010KT 200V260 9999 FEW020TCU FEW045 26/21 A2994 NOSIG=
201811262200 METAR MROC 262200Z 25010KT 9999 FEW025 24/22 A2995 NOSIG=
201811262300 METAR MROC 262300Z 25007KT 9999 4500SW SCT012 23/21 A2996 NOSIG=
201811270000 METAR MROC 270000Z 25005KT 9999 3000SW SCT003 22/21 A2998 NOSIG=
201811270100 METAR MROC 270100Z 19004KT 160V220 9999 SCT005 BKN015 22/21 A3002 BECMG 10010KT=
201811270200 METAR MROC 270200Z 08006KT 9999 FEW020 22/17 A3004 NOSIG=
201811270300 METAR MROC 270300Z VRB02KT CAVOK 21/20 A3005 NOSIG=
201811270400 METAR MROC 270400Z 08007KT CAVOK 20/15 A3004 NOSIG=
201811270500 METAR MROC 270500Z 06006KT 020V090 CAVOK 20/15 A3002 NOSIG=
201811270600 METAR MROC 270600Z 06005KT CAVOK 20/14 A3001 NOSIG=
201811270700 METAR MROC 270700Z 08007KT CAVOK 20/14 A3000 NOSIG=
201811270800 METAR MROC 270800Z 07009KT CAVOK 19/14 A2997 NOSIG=
201811270900 METAR MROC 270900Z 06007KT CAVOK 18/13 A2997 NOSIG=
201811271000 METAR MROC 271000Z 05008KT CAVOK 18/13 A2997 NOSIG=
201811271100 METAR MROC 271100Z 06006KT 030V100 9999 FEW040 19/12 A2999 NOSIG=
201811271200 METAR MROC 271200Z 06009KT 040V130 CAVOK 19/12 A3000 NOSIG=
201811271300 METAR MROC 271300Z 09008KT CAVOK 20/13 A3002 NOSIG=
201811271400 METAR MROC 271400Z 11007KT 060V140 CAVOK 23/14 A3003 NOSIG=
201811271500 METAR MROC 271500Z VRB04KT CAVOK 26/13 A3003 BECMG 26006KT=
201811271600 METAR MROC 271600Z 27006KT 230V300 CAVOK 26/17 A3003 NOSIG=
201811271700 METAR MROC 271700Z 29006KT 260V340 CAVOK 26/16 A3001 NOSIG=
201811271800 METAR MROC 271800Z 24008KT 210V290 CAVOK 27/18 A2997 NOSIG=
201811271900 METAR MROC 271900Z 24009KT CAVOK 27/17 A2994 NOSIG=
201811272000 METAR MROC 272000Z 26009KT 230V290 9999 BKN045 26/19 A2994 NOSIG=
201811272100 METAR MROC 272100Z 25011KT 9999 BKN040 25/20 A2993 NOSIG=
201811272200 METAR MROC 272200Z 25011KT 9999 SCT010 BKN030 23/21 A2994 NOSIG=
201811272300 METAR MROC 272300Z 25007KT 9999 -TS VCSH FEW010CB SCT015 BKN030 22/21 A2997 NOSIG=
201811280000 METAR MROC 280000Z 27006KT 230V330 8000 RA VCFG SCT005 BKN030 21/21 A2998 NOSIG=
201811280100 METAR MROC 280100Z VRB02KT 8000 -RA VCFG FEW002 SCT030 BKN100 21/20 A3001 NOSIG=
201811280200 METAR MROC 280200Z VRB02KT 9999 BCFG FEW005 SCT030 BKN100 21/21 A3003 NOSIG=
201811280300 METAR MROC 280300Z 11007KT 9999 FEW030 BKN100 21/19 A3003 NOSIG=
201811280400 METAR MROC 280400Z 07008KT 010V130 CAVOK 21/19 A3002 NOSIG=
201811280500 METAR MROC 280500Z 04006KT 010V070 CAVOK 21/19 A3001 NOSIG=
201811280600 METAR MROC 280600Z 09005KT 050V140 CAVOK 20/18 A2999 NOSIG=
201811280700 METAR MROC 280700Z 05006KT 020V080 CAVOK 21/18 A2998 NOSIG=
201811280800 METAR MROC 280800Z 06005KT CAVOK 21/18 A2997 NOSIG=
201811280900 METAR MROC 280900Z 07008KT CAVOK 20/17 A2995 NOSIG=
201811281000 METAR MROC 281000Z 07004KT 050V110 CAVOK 20/17 A2997 NOSIG=
201811281100 METAR MROC 281100Z VRB02KT CAVOK 20/17 A2998 NOSIG=
201811281200 METAR MROC 281200Z 08007KT 9999 FEW035 20/17 A3000 NOSIG=
201811281300 METAR MROC 281300Z 11005KT 9999 FEW035 21/18 A3001 NOSIG=
201811281400 METAR MROC 281400Z 10003KT 040V190 CAVOK 25/18 A3002 NOSIG=
201811281500 METAR MROC 281500Z 13005KT 090V220 9999 FEW040 26/18 A3003 NOSIG=
201811281600 METAR MROC 281600Z 24007KT 210V280 9999 SCT040 25/20 A3002 NOSIG=
201811281700 METAR MROC 281700Z 24005KT 200V270 9999 SCT040 25/20 A3000 NOSIG=
201811281800 METAR MROC 281800Z 24007KT 190V280 9999 SCT040 26/20 A2997 NOSIG=
201811281900 METAR MROC 281900Z 25009KT 9999 SCT040 26/21 A2994 NOSIG=
201811282000 METAR MROC 282000Z 23010KT 9999 BKN040 26/21 A2992 NOSIG=
201811282100 METAR MROC 282100Z 24013KT 9999 -TSRA SCT010CB BKN025 24/22 A2992 NOSIG=
201811282200 METAR MROC 282200Z 24008KT 150V300 8000 -TSRA SCT010CB BKN020 22/21 A2993 NOSIG=
201811282300 METAR MROC 282300Z 23003KT 210V270 9999 -RA SCT010 BKN100 21/20 A2995 NOSIG=
201811290000 METAR MROC 290000Z VRB01KT 9999 SCT025 21/20 A2996 NOSIG=
201811290100 METAR MROC 290100Z 04003KT 020V100 9999 SCT030 22/20 A2999 NOSIG=
201811290200 METAR MROC 290200Z 30003KT 270V330 9999 SCT025 22/20 A3001 NOSIG=
201811290300 METAR MROC 290300Z VRB02KT 9999 FEW040 21/20 A3003 NOSIG=
201811290400 METAR MROC 290400Z VRB02KT 9999 BKN030 21/20 A3002 NOSIG=
201811290500 METAR MROC 290500Z 08004KT 040V100 CAVOK 21/19 A3001 NOSIG=
201811290600 METAR MROC 290600Z 08007KT CAVOK 20/19 A3000 NOSIG=
201811290700 METAR MROC 290700Z VRB02KT CAVOK 19/19 A2999 NOSIG=
201811290800 METAR MROC 290800Z 07005KT 9999 FEW005 19/19 A2998 NOSIG=
201811290900 METAR MROC 290900Z 08005KT 9999 FEW040 19/17 A2997 NOSIG=
201811291000 METAR MROC 291000Z 07007KT CAVOK 20/17 A2998 NOSIG=
201811291100 METAR MROC 291100Z 08005KT 040V120 9999 FEW040 21/17 A3000 NOSIG=
201811291200 METAR MROC 291200Z 06007KT 040V100 9999 FEW030 BKN120 20/17 A3002 NOSIG=
201811291300 METAR MROC 291300Z 09003KT 060V130 9999 FEW040 SCT250 22/17 A3003 NOSIG=
201811291400 METAR MROC 291400Z 12006KT 080V180 9999 FEW035 24/19 A3006 NOSIG=
201811291500 METAR MROC 291500Z 10009KT 080V150 9999 FEW045 25/17 A3008 NOSIG=
201811291600 METAR MROC 291600Z 12010KT 090V150 9999 FEW045 25/17 A3006 NOSIG=
201811291700 METAR MROC 291700Z 12010KT 090V160 9999 FEW040 SCT100 26/18 A3004 NOSIG=
201811291800 METAR MROC 291800Z 12011KT 090V160 9999 FEW040 26/18 A3002 NOSIG=
201811291900 METAR MROC 291900Z 12010KT 070V160 9999 FEW040 26/18 A2999 NOSIG=
201811292000 METAR MROC 292000Z 14007KT 100V190 9999 BKN040 25/18 A2999 BECMG 24009KT=
201811292100 METAR MROC 292100Z 19005KT 140V250 9999 FEW030 BKN070 23/19 A2998 BECMG 25007KT=
201811292200 METAR MROC 292200Z 24008KT 9999 FEW005 SCT035 BKN070 22/20 A2999 BECMG RA=
201811292300 METAR MROC 292300Z 31004KT 230V360 9999 FEW008 BKN100 22/20 A3000 NOSIG=
201811300000 METAR MROC 300000Z 08003KT 020V120 9999 FEW025 SCT100 21/20 A3002 NOSIG=
201811300100 METAR MROC 300100Z 06005KT 9999 FEW030 SCT200 22/17 A3005 NOSIG=
201811300200 METAR MROC 300200Z 09004KT 040V120 9999 FEW030 21/18 A3006 NOSIG=
201811300300 METAR MROC 300300Z 08003KT 040V110 9999 FEW040 22/18 A3007 NOSIG=
201811300400 METAR MROC 300400Z VRB01KT 9999 BCFG FEW001 SCT020 20/19 A3008 NOSIG=
201811300500 METAR MROC 300500Z VRB02KT 2000 BR BKN003 19/19 A3007 NOSIG=
201811300600 METAR MROC 300600Z 05004KT 8000 VCFG FEW001 SCT010 19/19 A3006 NOSIG=
201811300700 METAR MROC 300700Z 10005KT 9999 FEW020 18/18 A3003 NOSIG=
201811300800 METAR MROC 300800Z 07004KT 9999 FEW025 18/17 A3002 NOSIG=
201811300900 METAR MROC 300900Z 06007KT CAVOK 20/17 A3001 NOSIG=
201811301000 METAR MROC 301000Z 08005KT 040V120 CAVOK 18/16 A3002 NOSIG=
201811301100 METAR MROC 301100Z 07008KT CAVOK 19/17 A3003 NOSIG=
201811301200 METAR MROC 301200Z 06009KT 030V090 CAVOK 20/16 A3003 NOSIG=
201811301300 METAR MROC 301300Z 07009KT CAVOK 22/17 A3006 NOSIG=
201811301400 METAR MROC 301400Z 09008KT 060V120 CAVOK 24/18 A3007 NOSIG=
201811301500 METAR MROC 301500Z 11010KT 080V140 9999 FEW035 25/18 A3009 NOSIG=
201811301600 METAR MROC 301600Z 11011KT 080V150 9999 FEW035 26/18 A3007 NOSIG=
201811301700 METAR MROC 301700Z 12009KT 090V160 9999 FEW040 SCT200 27/18 A3005 NOSIG=
201811301800 METAR MROC 301800Z 13009KT 080V170 9999 FEW040 SCT200 28/18 A3002 NOSIG=
201811301900 METAR MROC 301900Z 23006KT 9999 FEW020 SCT050 25/21 A3000 NOSIG=
201811302000 METAR MROC 302000Z 21006KT 9999 FEW020TCU FEW030 SCT070 26/21 A2998 NOSIG=
201811302100 METAR MROC 302100Z 14010KT 9999 FEW035 SCT070 28/20 A2996 NOSIG=
201811302200 METAR MROC 302200Z 25010KT 9999 FEW010 BKN035 22/21 A2998 NOSIG=
201811302300 METAR MROC 302300Z 25007KT 8000 VCFG SCT005 BKN010 22/21 A2999 BECMG 5000 BR=
201812010000 METAR MROC 010000Z 26004KT 240V310 9999 FEW002 SCT005 BKN035 22/21 A3002 NOSIG=
201812010100 METAR MROC 010100Z 28004KT 9999 FEW002 SCT005 21/21 A3003 NOSIG=
201812010200 METAR MROC 010200Z 28003KT 250V350 9999 FEW002 SCT005 21/20 A3005 NOSIG=
201812010300 METAR MROC 010300Z 00000KT 9999 FEW002 20/20 A3007 NOSIG=
201812010400 METAR MROC 010400Z VRB02KT CAVOK 20/20 A3007 NOSIG=
201812010500 METAR MROC 010500Z 08006KT CAVOK 20/17 A3006 NOSIG=
201812010600 METAR MROC 010600Z 08006KT CAVOK 20/17 A3006 NOSIG=
201812010700 METAR MROC 010700Z 07006KT CAVOK 19/16 A3001 NOSIG=
201812010800 METAR MROC 010800Z 06007KT CAVOK 18/15 A2998 NOSIG=
201812010900 METAR MROC 010900Z 04004KT 360V070 CAVOK 18/15 A2998 NOSIG=
201812011000 METAR MROC 011000Z 06005KT CAVOK 18/15 A2998 NOSIG=
201812011100 METAR MROC 011100Z 07006KT CAVOK 19/16 A2999 NOSIG=
201812011200 METAR MROC 011200Z 09007KT CAVOK 19/16 A3000 NOSIG=
201812011300 METAR MROC 011300Z 08007KT 050V110 CAVOK 21/17 A3002 NOSIG=
201812011400 METAR MROC 011400Z 08008KT 040V120 CAVOK 24/18 A3004 NOSIG=
201812011500 METAR MROC 011500Z 10009KT 060V150 CAVOK 25/17 A3003 NOSIG=
201812011600 METAR MROC 011600Z 11010KT 090V150 CAVOK 27/18 A3003 NOSIG=
201812011700 METAR MROC 011700Z 12009KT 070V180 9999 SCT045 27/18 A3001 BECMG 25005KT=
201812011800 METAR MROC 011800Z 18007KT 130V250 9999 SCT025 26/20 A2999 NOSIG=
201812011900 METAR MROC 011900Z 25007KT 9999 BKN040 25/20 A2996 NOSIG=
201812012000 METAR MROC 012000Z 25007KT 9999 BKN045 25/20 A2994 NOSIG=
201812012100 METAR MROC 012100Z 26008KT 230V300 9999 FEW020 SCT030 25/21 A2993 NOSIG=
201812012200 METAR MROC 012200Z 24009KT 9999 SCT030 SCT250 25/21 A2993 NOSIG=
201812012300 METAR MROC 012300Z 22006KT 190V250 9999 FEW010 SCT025 22/21 A2995 NOSIG=
201812020000 METAR MROC 020000Z 23005KT 9999 3000SW FEW001 SCT003 BKN010 22/21 A2997 BECMG 5000 BR=
201812020100 METAR MROC 020100Z 24004KT 9999 3000SW FEW001 SCT003 BKN010 21/21 A3000 NOSIG=
201812020200 METAR MROC 020200Z 26004KT 9999 4000SW FEW002 SCT010 BKN060 21/20 A3002 NOSIG=
201812020300 METAR MROC 020300Z VRB02KT CAVOK 21/20 A3003 NOSIG=
201812020400 METAR MROC 020400Z VRB01KT 9999 FEW002 20/20 A3003 NOSIG=
201812020500 METAR MROC 020500Z VRB02KT CAVOK 20/19 A3003 NOSIG=
201812020600 METAR MROC 020600Z 09003KT CAVOK 19/18 A3002 NOSIG=
201812020700 METAR MROC 020700Z 04005KT CAVOK 19/17 A3000 NOSIG=
201812020800 METAR MROC 020800Z 09004KT CAVOK 18/16 A2998 NOSIG=
201812020900 METAR MROC 020900Z 04005KT CAVOK 18/15 A2997 NOSIG=
201812021000 METAR MROC 021000Z 09005KT CAVOK 18/15 A2999 NOSIG=
201812021100 METAR MROC 021100Z 04006KT CAVOK 18/15 A2999 NOSIG=
201812021200 METAR MROC 021200Z 09005KT 060V130 CAVOK 18/15 A3001 NOSIG=
201812021300 METAR MROC 021300Z 07003KT CAVOK 20/16 A3003 NOSIG=
201812021400 METAR MROC 021400Z 07004KT 020V110 CAVOK 23/17 A3004 NOSIG=
201812021500 METAR MROC 021500Z 14005KT 090V200 CAVOK 26/16 A3004 BECMG 24008KT=
201812021600 METAR MROC 021600Z 26008KT 230V310 CAVOK 26/19 A3003 NOSIG=
201812021700 METAR MROC 021700Z 22009KT CAVOK 26/120 A3001 NOSIG=
201812021800 METAR MROC 021800Z COR 23008KT 200V270 9999 FEW045 26/20 A2999 NOSIG=
201812021900 METAR MROC 021900Z 24009KT 9999 FEW030 26/20 A2995 NOSIG=
201812022000 METAR MROC 022000Z 24011KT 9999 SCT035 26/21 A2993 NOSIG=
201812022100 METAR MROC 022100Z 25011KT 9999 SCT030 25/21 A2992 NOSIG=
201812022200 METAR MROC 022200Z 24010KT 9999 SCT030 24/21 A2993 NOSIG=
201812022300 METAR MROC 022300Z 23007KT 9999 BCFG FEW005 SCT020 22/21 A2995 BECMG 5000 BR=
201812030000 METAR MROC 030000Z 25007KT 230V290 8000 VCFG SCT003 BKN020 22/21 A2997 BECMG 5000 BR=
201812030100 METAR MROC 030100Z VRB03KT 8000 -RA VCFG SCT002 BKN020 21/21 A2999 NOSIG=
201812030200 METAR MROC 030200Z 23007KT 5000 BR FEW002 BKN020 21/21 A3001 NOSIG=
201812030300 METAR MROC 030300Z 22004KT 1000 BR SCT002 BKN010 20/20 A3004 NOSIG=
201812030400 METAR MROC 030400Z 00000KT 2500 BR FEW002 SCT005 BKN010 20/20 A3003 NOSIG=
201812030500 METAR MROC 030500Z VRB02KT 1600 BR SCT001 BKN010 20/19 A3002 NOSIG=
201812030600 METAR MROC 030600Z 00000KT 2500 BR FEW002 SCT005 20/19 A3002 NOSIG=
201812030700 METAR MROC 030700Z COR 08004KT 9999 4500SW FEW002 19/18 A2998 NOSIG=
201812030800 METAR MROC 030800Z 09004KT 9999 FEW002 18/17 A2997 NOSIG=
201812030900 METAR MROC 030900Z 07005KT 9999 FEW015 18/17 A2996 NOSIG=
201812031000 METAR MROC 031000Z 08006KT CAVOK 18/16 A2997 NOSIG=
201812031100 METAR MROC 031100Z 07008KT CAVOK 19/16 A2998 NOSIG=
201812031200 METAR MROC 031200Z 10008KT CAVOK 19/16 A3000 NOSIG=
201812031300 METAR MROC 031300Z 04007KT CAVOK 21/16 A3002 NOSIG=
201812031400 METAR MROC 031400Z 11009KT 080V140 CAVOK 23/17 A3003 NOSIG=
201812031500 METAR MROC 031500Z 11012KT 090V180 CAVOK 25/18 A3003 NOSIG=
201812031600 METAR MROC 031600Z 11012KT 080V140 9999 FEW045 26/17 A3003 NOSIG=
201812031700 METAR MROC 031700Z 11012KT 090V160 9999 FEW040 27/16 A3001 NOSIG=
201812031800 METAR MROC 031800Z 12012KT 090V160 9999 SCT040 27/17 A2999 NOSIG=
201812031900 METAR MROC 031900Z 13007KT 090V170 9999 SCT030 27/17 A2996 NOSIG=
201812032000 METAR MROC 032000Z 12007KT 070V220 9999 SCT030 SCT100 27/17 A2993 BECMG 24007KT=
201812032100 METAR MROC NIL=
201812032200 METAR MROC 032200Z 24010KT 9999 FEW040 SCT110 23/21 A2995 NOSIG=
201812032300 METAR MROC 032300Z 24009KT 5000 BR SCT006 BKN015 21/21 A2996 BECMG 3000 BKN008=
201812040000 METAR MROC 040000Z 24006KT 5000 BR SCT006 BKN015 21/20 A2999 NOSIG=
201812040100 METAR MROC 040100Z 25005KT 5000 BR SCT004 BKN010 20/21 A3002 NOSIG=
201812040200 METAR MROC 040200Z 26003KT 230V290 8000 VCFG SCT005 BKN015 20/20 A3005 NOSIG=
201812040300 METAR MROC 040300Z VRB02KT CAVOK 21/20 A3005 NOSIG=
201812040400 METAR MROC 040400Z 06003KT 030V090 CAVOK 21/20 A3003 NOSIG=
201812040500 METAR MROC 040500Z VRB02KT CAVOK 21/16 A3003 NOSIG=
201812040600 METAR MROC 040600Z 01003KT CAVOK 20/19 A3002 NOSIG=
201812040700 METAR MROC 040700Z VRB02KT CAVOK 19/16 A3000 NOSIG=
201812040800 METAR MROC 040800Z 07007KT CAVOK 19/15 A2999 NOSIG=
201812040900 METAR MROC 040900Z 07007KT CAVOK 19/15 A2997 NOSIG=
201812041000 METAR MROC 041000Z 08007KT CAVOK 19/15 A2997 NOSIG=
201812041100 METAR MROC 041100Z 05006KT 020V110 CAVOK 19/15 A2998 NOSIG=
201812041200 METAR MROC 041200Z 08008KT CAVOK 20/15 A3000 NOSIG=
201812041300 METAR MROC 041300Z 05006KT 010V090 CAVOK 22/15 A3001 NOSIG=
201812041400 METAR MROC 041400Z 10008KT 060V140 CAVOK 24/16 A3004 NOSIG=
201812041500 METAR MROC 041500Z 10010KT 080V140 CAVOK 25/15 A3003 NOSIG=
201812041600 METAR MROC 041600Z 10011KT 070V140 CAVOK 26/17 A3002 NOSIG=
201812041700 METAR MROC 041700Z 11012KT CAVOK 27/17 A3001 NOSIG=
201812041800 METAR MROC 041800Z 09012KT 050V120 9999 FEW040 SCT120 27/15 A2998 NOSIG=
201812041900 METAR MROC 041900Z 11012KT 070V140 9999 FEW040 SCT120 27/15 A2995 NOSIG=
201812042000 METAR MROC 042000Z 10009KT 070V130 9999 FEW045 BKN120 27/15 A2994 NOSIG=
201812042100 METAR MROC 042100Z 09011KT 9999 FEW020 SCT060 26/16 A2993 NOSIG=
201812042200 METAR MROC 042200Z 11011G22KT 9999 SCT040 BKN100 24/15 A2995 NOSIG=
201812042300 METAR MROC 042300Z 11014KT 9999 SCT035 23/16 A2996 NOSIG=
201812050000 METAR MROC 050000Z 11010G20KT 080V140 9999 FEW040 22/16 A2998 NOSIG=
201812050100 METAR MROC 050100Z 10010KT 060V140 9999 FEW040 22/15 A3001 NOSIG=
201812050200 METAR MROC 050200Z 10012KT CAVOK 22/14 A3002 NOSIG=
201812050300 METAR MROC 050300Z 11012KT CAVOK 21/15 A3004 NOSIG=
201812050400 METAR MROC 050400Z 10010KT CAVOK 21/15 A3005 NOSIG=
201812050500 METAR MROC 050500Z 09012KT 060V120 CAVOK 21/16 A3005 NOSIG=
201812050600 METAR MROC 050600Z 07010KT CAVOK 20/15 A3003 NOSIG=
201812050700 METAR MROC 050700Z 10009KT 050V150 CAVOK 20/15 A3001 NOSIG=
201812050800 METAR MROC 050800Z 08005KT 030V140 CAVOK 20/15 A2998 NOSIG=
201812050900 METAR MROC 050900Z 11014KT CAVOK 20/14 A2996 NOSIG=
201812051000 METAR MROC 051000Z 11013KT CAVOK 20/14 A2997 NOSIG=
201812051100 METAR MROC 051100Z 11015KT CAVOK 20/14 A2998 NOSIG=
201812051200 METAR MROC 051200Z 11018KT CAVOK 20/15 A2999 NOSIG=
201812051300 METAR MROC 051300Z 10016G26KT CAVOK 22/15 A3002 NOSIG=
201812051400 METAR MROC 051400Z 11017G27KT CAVOK 24/15 A3004 NOSIG=
201812051500 METAR MROC 051500Z 11012G22KT 090V150 CAVOK 25/15 A3005 NOSIG=
201812051600 METAR MROC 051600Z 10014G24KT CAVOK 27/15 A3004 NOSIG=
201812051700 METAR MROC 051700Z 08014KT CAVOK 27/14 A3003 NOSIG=
201812051800 METAR MROC 051800Z 07012KT 040V100 CAVOK 28/14 A3000 NOSIG=
201812051900 METAR MROC 051900Z 07015KT 9999 FEW045 28/15 A2998 NOSIG=
201812052000 METAR MROC 052000Z 07017KT 9999 FEW045 28/14 A2996 NOSIG=
201812052100 METAR MROC 052100Z 06011G21KT 9999 FEW035 BKN080 27/16 A2996 NOSIG=
201812052200 METAR MROC 052200Z 05012G22KT 9999 FEW035 BKN080 25/15 A2997 NOSIG=
201812052300 METAR MROC 052300Z 07013G23KT 9999 FEW035 SCT250 24/14 A2998 NOSIG=
201812060000 METAR MROC 060000Z 10007KT 070V140 9999 FEW035 22/16 A3000 NOSIG=
201812060100 METAR MROC 060100Z 07009KT 030V140 9999 FEW035 22/14 A3002 NOSIG=
201812060200 METAR MROC 060200Z 10010G20KT 070V130 CAVOK 22/15 A3005 NOSIG=
201812060300 METAR MROC 060300Z 14006KT 060V200 CAVOK 21/14 A3005 NOSIG=
201812060400 METAR MROC 060400Z 10009KT CAVOK 21/15 A3006 NOSIG=
201812060500 METAR MROC 060500Z VRB07KT CAVOK 20/15 A3005 NOSIG=
201812060600 METAR MROC 060600Z 10011G22KT 070V130 21/15 A3004 NOSIG=
201812060700 METAR MROC 060700Z 11012KT 080V140 21/15 A3002 NOSIG=
201812060800 METAR MROC 060800Z 11014KT CAVOK 20/15 A3000 NOSIG=
201812060900 METAR MROC 060900Z 11013KT CAVOK 20/14 A2999 NOSIG=
201812061000 METAR MROC 061000Z 10015KT CAVOK 20/15 A2999 NOSIG=
201812061100 METAR MROC 061100Z 11013KT CAVOK 20/14 A3000 NOSIG=
201812061200 METAR MROC 061200Z 10014KT CAVOK 20/14 A3001 NOSIG=
201812061300 METAR MROC 061300Z 11014G24KT CAVOK 21/15 A3004 NOSIG=
201812061400 METAR MROC 061400Z 10014G25KT CAVOK 23/14 A3006 NOSIG=
201812061500 METAR MROC 061500Z 10014G24KT CAVOK 25/14 A3007 NOSIG=
201812061600 METAR MROC 061600Z 09011G21KT 060V120 CAVOK 26/13 A3008 NOSIG=
201812061700 METAR MROC 061700Z 08010G20KT 050V120 CAVOK 27/14 A3005 NOSIG=
201812061800 METAR MROC 061800Z 07014G24KT CAVOK 28/15 A3003 NOSIG=
201812061900 METAR MROC 061900Z 08011G21KT 060V120 9999 FEW035 SCT060 26/16 A3001 NOSIG=
201812062000 METAR MROC 062000Z 09011G21KT 060V120 9999 FEW040 SCT060 26/16 A2999 NOSIG=
201812062100 METAR MROC 062100Z 07015KT 9999 SCT040 BKN120 26/15 A2999 NOSIG=
201812062200 METAR MROC 062200Z 07013G23KT 9999 BKN040 24/16 A2999 NOSIG=
201812062300 METAR MROC 062300Z 10011KT 070V130 9999 FEW045 23/16 A2999 NOSIG=
201812070000 METAR MROC 070000Z 09008KT 9999 FEW030 22/16 A3001 NOSIG=
201812070100 METAR MROC 070100Z 10010KT 070V130 CAVOK 22/16 A3004 NOSIG=
201812070200 METAR MROC 070200Z 11009KT 070V130 9999 FEW030 22/16 A3006 NOSIG=
201812070300 METAR MROC 070300Z 11012KT 9999 FEW025 22/16 A3008 NOSIG=
201812070400 METAR MROC 070400Z 10011KT 9999 FEW030 21/16 A3007 NOSIG=
201812070500 METAR MROC 070500Z 35005KT 280V050 CAVOK 20/16 A3006 NOSIG=
201812070600 METAR MROC 070600Z VRB02KT CAVOK 19/16 A3005 NOSIG=
201812070700 METAR MROC 070700Z 03004KT CAVOK 19/16 A3003 NOSIG=
201812070800 METAR MROC 070800Z 35004KT 310V020 CAVOK 19/16 A3002 NOSIG=
201812070900 METAR MROC 070900Z 05004KT 010V100 9999 FEW045 SCT100 20/16 A3001 NOSIG=
201812071000 METAR MROC 071000Z 12009KT CAVOK 21/16 A3001 NOSIG=
201812071100 METAR MROC 071100Z 10010G20KT 9999 FEW045 SCT120 22/16 A3002 NOSIG=
201812071200 METAR MROC 071200Z 11010G20KT 080V150 9999 FEW040 SCT130 22/16 A3004 NOSIG=
201812071300 METAR MROC 071300Z 11008KT 070V180 CAVOK 23/16 A3006 NOSIG=
201812071400 METAR MROC 071400Z 36008KT 330V040 9999 FEW045 25/17 A3008 NOSIG=
201812071500 METAR MROC 071500Z 08014G24KT CAVOK 27/14 A3009 NOSIG=
201812071600 METAR MROC 071600Z 09014G24KT CAVOK 28/13 A3009 NOSIG=
201812071700 METAR MROC 071700Z 08014KT 060V130 CAVOK 28/11 A3007 NOSIG=
201812071800 METAR MROC 071800Z 11013KT 080V140 CAVOK 28/12 A3004 NOSIG=
201812071900 METAR MROC 071900Z 11010KT 060V140 9999 FEW040 28/13 A3002 NOSIG=
201812072000 METAR MROC 072000Z 10012G22KT 060V140 9999 FEW030 28/14 A3000 NOSIG=
201812072100 METAR MROC 072100Z 13006KT 070V210 9999 FEW030 28/14 A2999 NOSIG=
201812072200 METAR MROC 072200Z 08009KT 050V110 9999 FEW030 27/14 A3000 NOSIG=
201812072300 METAR MROC 072300Z 24005KT 190V280 9999 FEW020 22/21 A3001 NOSIG=
201812080000 METAR MROC 080000Z 23006KT 150V250 9999 FEW020 21/20 A3003 NOSIG=
201812080100 METAR MROC 080100Z 26004KT 230V300 9999 2000SW BCFG SCT002 21/20 A3005 NOSIG=
201812080200 METAR MROC 080200Z 12005KT CAVOK 21/17 A3007 NOSIG=
201812080300 METAR MROC 080300Z 10007KT CAVOK 23/15 A3008 NOSIG=
201812080400 METAR MROC 080400Z 12005KT 090V150 CAVOK 21/16 A3008 NOSIG=
201812080500 METAR MROC 080500Z 11006KT CAVOK 20/16 A3007 NOSIG=
201812080600 METAR MROC 080600Z 12007KT 090V150 CAVOK 21/16 A3005 NOSIG=
201812080700 METAR MROC 080700Z 13008KT 080V170 9999 FEW045 20/16 A3004 NOSIG=
201812080800 METAR MROC 080800Z 11009KT 9999 FEW045 20/16 A3003 NOSIG=
201812080900 METAR MROC 080900Z 10010KT CAVOK 20/16 A3002 NOSIG=
201812081000 METAR MROC 081000Z 10012KT CAVOK 20/15 A3002 NOSIG=
201812081100 METAR MROC 081100Z 13011KT 090V160 CAVOK 20/15 A3004 NOSIG=
201812081200 METAR MROC 081200Z 12012KT 080V150 CAVOK 20/15 A3005 NOSIG=
201812081300 METAR MROC 081300Z 12010KT 090V150 CAVOK 22/15 A3007 NOSIG=
201812081400 METAR MROC 081400Z 11012KT 090V150 CAVOK 24/15 A3008 NOSIG=
201812081500 METAR MROC 081500Z 11014KT 080V140 CAVOK 25/15 A3009 NOSIG=
201812081600 METAR MROC 081600Z 10013KT 070V140 CAVOK 26/14 A3010 NOSIG=
201812081700 METAR MROC 081700Z 09011G21KT 050V140 9999 FEW040 28/16 A3007 NOSIG=
201812081800 METAR MROC 081800Z 09012KT 030V120 9999 FEW040 27/17 A3004 NOSIG=
201812081900 METAR MROC 081900Z 11009KT 080V180 9999 SCT040 28/16 A3002 NOSIG=
201812082000 METAR MROC 082000Z 10009KT 070V150 9999 SCT040 28/15 A2999 NOSIG=
201812082100 METAR MROC 082100Z 13008KT 090V190 9999 FEW040 28/16 A2998 BECMG 24007KT=
201812082200 METAR MROC 082200Z 25011KT 9999 SCT035 25/21 A2998 NOSIG=
201812082300 METAR MROC 082300Z 24008KT 9999 FEW040 23/20 A2999 NOSIG=
201812090000 METAR MROC 090000Z 13007KT 090V190 9999 FEW045 23/17 A3001 NOSIG=
201812090100 METAR MROC 090100Z 36003KT CAVOK 21/19 A3004 NOSIG=
201812090200 METAR MROC 090200Z 07006KT 040V100 CAVOK 21/17 A3005 NOSIG=
201812090300 METAR MROC 090300Z 08008KT 050V110 CAVOK 21/16 A3006 NOSIG=
201812090400 METAR MROC 090400Z 06009KT 9999 FEW025 21/15 A3005 NOSIG=
201812090500 METAR MROC 090500Z 06007KT 020V080 CAVOK 22/14 A3005 NOSIG=
201812090600 METAR MROC 090600Z 07004KT 010V120 CAVOK 21/14 A3004 NOSIG=
201812090700 METAR MROC 090700Z 12008KT 080V160 9999 FEW025 21/15 A3001 NOSIG=
201812090800 METAR MROC 090800Z 07006KT 050V110 CAVOK 20/15 A3000 NOSIG=
201812090900 METAR MROC 090900Z 03005KT CAVOK 19/15 A3000 NOSIG=
201812091000 METAR MROC 091000Z 06010KT CAVOK 20/14 A3001 NOSIG=
201812091100 METAR MROC 091100Z 09008KT CAVOK 20/16 A3002 NOSIG=
201812091200 METAR MROC 091200Z 06009KT CAVOK 20/15 A3003 NOSIG=
201812091300 METAR MROC 091300Z 09009KT 060V130 CAVOK 21/16 A3006 NOSIG=
201812091400 METAR MROC 091400Z 10013KT 060V130 CAVOK 23/17 A3008 NOSIG=
201812091500 METAR MROC 091500Z 11014KT 080V150 CAVOK 25/17 A3007 NOSIG=
201812091600 METAR MROC 091600Z 10015KT 070V130 CAVOK 25/18 A3007 NOSIG=
201812091700 METAR MROC 091700Z 11014KT 070V130 CAVOK 26/17 A3004 NOSIG=
201812091800 METAR MROC 091800Z 11016KT 9999 FEW040 26/17 A3002 NOSIG=
201812091900 METAR MROC 091900Z 11015KT 080V150 9999 FEW040 27/18 A2998 NOSIG=
201812092000 METAR MROC 092000Z 11014KT 080V140 9999 FEW040 27/17 A2995 NOSIG=
201812092100 METAR MROC 092100Z 10015G25KT 9999 FEW035 SCT060 25/17 A2994 NOSIG=
201812092200 METAR MROC 092200Z 10016G26KT 070V130 9999 FEW030 25/17 A2995 NOSIG=
201812092300 METAR MROC 092300Z 11014G24KT 9999 FEW025 22/16 A2996 NOSIG=
201812100000 METAR MROC 100000Z 11012G22KT 9999 FEW025 22/15 A2998 NOSIG=
201812100100 METAR MROC 100100Z 11013G23KT 9999 FEW035 22/15 A3001 NOSIG=
201812100200 METAR MROC 100200Z 12012KT 9999 FEW040 21/15 A3003 NOSIG=
201812100300 METAR MROC 100300Z 11013KT 9999 FEW040 21/15 A3004 NOSIG=
201812100400 METAR MROC 100400Z 11015KT CAVOK 21/15 A3004 NOSIG=
201812100500 METAR MROC 100500Z 12013KT CAVOK 21/14 A3003 NOSIG=
201812100600 METAR MROC 100600Z 12011KT 090V190 CAVOK 21/15 A3002 NOSIG=
201812100700 METAR MROC 100700Z 11014G24KT CAVOK 20/16 A3000 NOSIG=
201812100800 METAR MROC 100800Z 11013KT CAVOK 20/15 A2999 NOSIG=
201812100900 METAR MROC 100900Z 10011KT 060V130 CAVOK 20/16 A2998 NOSIG=
201812101000 METAR MROC 101000Z 11013KT CAVOK 20/15 A2999 NOSIG=
201812101100 METAR MROC 101100Z 09009KT 060V120 CAVOK 20/15 A3001 NOSIG=
201812101200 METAR MROC 101200Z COR 09009KT 060V120 9999 FEW030 21/15 A3001 NOSIG=
201812101300 METAR MROC 101300Z 12011KT 080V160 9999 FEW025 21/15 A3004 NOSIG=
201812101400 METAR MROC 101400Z 11015KT 9999 FEW025 23/16 A3006 NOSIG=
201812101500 METAR MROC 101500Z 11015G25KT 9999 FEW025 24/16 A3006 NOSIG=
201812101600 METAR MROC 101600Z 11017G27KT 9999 FEW030 25/17 A3006 NOSIG=
201812101700 METAR MROC 101700Z 10017KT 9999 FEW025 SCT060 26/16 A3005 NOSIG=
201812101800 METAR MROC 101800Z 12015G25KT 090V150 9999 FEW025 SCT060 26/17 A3002 NOSIG=
201812101900 METAR MROC 101900Z 12013G23KT 080V150 9999 FEW030 SCT070 26/17 A3000 NOSIG=
201812102000 METAR MROC 102000Z 10012KT 9999 FEW030 SCT100 25/17 A2998 NOSIG=
201812102100 METAR MROC 102100Z 12014G26KT 090V170 9999 FEW035 SCT060 24/17 A2998 NOSIG=
201812102200 METAR MROC 102200Z 10012G24KT 070V130 9999 FEW035 25/16 A2999 NOSIG=
201812102300 METAR MROC 102300Z 09010G20KT 9999 FEW035 SCT060 24/17 A2999 NOSIG=
201812110000 METAR MROC 110000Z 08010KT 040V150 9999 FEW035 SCT060 22/18 A3001 NOSIG=
201812110100 METAR MROC 110100Z 10011G21KT 070V120 9999 FEW035 SCT080 22/17 A3002 NOSIG=
201812110200 METAR MROC 110200Z 09013G23KT 9999 FEW035 22/17 A3005 NOSIG=
201812110300 METAR MROC 110300Z 09013KT 9999 FEW035 21/16 A3007 NOSIG=
201812110400 METAR MROC 110400Z 11016KT CAVOK 21/17 A3004 NOSIG=
201812110500 METAR MROC 110500Z 11017KT CAVOK 22/17 A3004 NOSIG=
201812110600 METAR MROC 110600Z 11019G34KT CAVOK 21/17 A3002 NOSIG=
201812110700 METAR MROC 110700Z 10016KT CAVOK 21/16 A3002 NOSIG=
201812110800 METAR MROC 110800Z 08016G27KT CAVOK 21/15 A3001 NOSIG=
201812110900 METAR MROC 110900Z 12013KT 090V150 CAVOK 20/15 A3002 NOSIG=
201812111000 METAR MROC 111000Z 11011KT CAVOK 20/15 A3003 NOSIG=
201812111100 METAR MROC 111100Z 11014KT 080V140 CAVOK 20/15 A3004 NOSIG=
201812111200 METAR MROC 111200Z 11016KT CAVOK 20/14 A3004 NOSIG=
201812111300 METAR MROC 111300Z 11017G27KT 080V140 CAVOK 21/13 A3005 NOSIG=
201812111400 METAR MROC 111400Z 11014G29KT 070V140 9999 VCVA NSC 23/13 A3007 NOSIG=
201812111500 METAR MROC 111500Z 10014G29KT 070V130 CAVOK 25/13 A3008 NOSIG=
201812111600 METAR MROC 111600Z 10018G30KT 9999 FEW045 25/16 A3007 NOSIG=
201812111700 METAR MROC 111700Z 11018G33KT 090V150 9999 FEW045 25/17 A3005 NOSIG=
201812111800 METAR MROC 111800Z 10019G31KT 070V130 9999 FEW040 25/15 A3005 NOSIG=
201812111900 METAR MROC 111900Z 08019G29KT 9999 FEW040 26/13 A3002 NOSIG=
201812112000 METAR MROC 112000Z 07022G34KT 9999 FEW040 26/14 A3000 NOSIG=
201812112100 METAR MROC 112100Z 08018G30KT 9999 FEW045 25/15 A2999 NOSIG=
201812112200 METAR MROC 112200Z 08019G31KT 9999 FEW045 24/15 A3001 NOSIG=
201812112300 METAR MROC 112300Z 08016G26KT 9999 FEW045 23/13 A3002 NOSIG=
201812120000 METAR MROC 120000Z 10014G26KT 9999 FEW045 22/13 A3004 NOSIG=
201812120100 METAR MROC 120100Z 10018G28KT CAVOK 21/13 A3006 NOSIG=
201812120200 METAR MROC 120200Z 11016KT CAVOK 20/14 A3008 NOSIG=
201812120300 METAR MROC 120300Z 11015G27KT CAVOK 20/14 A3009 NOSIG=
201812120400 METAR MROC 120400Z 11017KT CAVOK 20/15 A3009 NOSIG=
201812120500 METAR MROC 120500Z 11017G27KT CAVOK 21/14 A3008 NOSIG=
201812120600 METAR MROC 120600Z 10015G25KT CAVOK 20/14 A3005 NOSIG=
201812120700 METAR MROC 120700Z 10017G27KT CAVOK 20/12 A3002 NOSIG=
201812120800 METAR MROC 120800Z 11016KT CAVOK 20/13 A3000 NOSIG=
201812120900 METAR MROC 120900Z 11015G25KT CAVOK 20/12 A2999 NOSIG=
201812121000 METAR MROC 121000Z 10014G24KT CAVOK 20/10 A3000 NOSIG=
201812121100 METAR MROC 121100Z 12014G24KT CAVOK 20/09 A3002 NOSIG=
201812121200 METAR MROC 121200Z 10015KT CAVOK 20/09 A3003 NOSIG=
201812121300 METAR MROC 121300Z 11015G29KT 9999 VCVA NSC 21/08 A3006 NOSIG=
201812121400 METAR MROC 121400Z 11015G25KT 9999 VCVA NSC 23/09 A3007 NOSIG=
201812121500 METAR MROC 121500Z 11015G25KT CAVOK 26/11 A3008 NOSIG=
201812121600 METAR MROC 121600Z 11015G25KT 070V160 CAVOK 27/10 A3007 NOSIG=
201812121700 METAR MROC 121700Z 10015G25KT CAVOK 28/10 A3005 NOSIG=
201812121800 METAR MROC 121800Z 11012G22KT 070V160 CAVOK 28/13 A3002 NOSIG=
201812121900 METAR MROC 121900Z 08015G25KT CAVOK 27/15 A3000 NOSIG=
201812122000 METAR MROC 122000Z 09012G23KT 9999 FEW045 27/14 A2998 NOSIG=
201812122100 METAR MROC 122100Z 10012KT 070V130 9999 FEW040 27/15 A2998 NOSIG=
201812122200 METAR MROC 122200Z 10013KT 070V130 9999 FEW040 26/15 A2998 NOSIG=
201812122300 METAR MROC 122300Z 08012KT 9999 FEW040 24/14 A2999 NOSIG=
201812130000 METAR MROC 130000Z 11006KT CAVOK 22/14 A3001 NOSIG=
201812130100 METAR MROC 130100Z 10011KT CAVOK 22/14 A3003 NOSIG=
201812130200 METAR MROC 130200Z 11015KT CAVOK 21/13 A3005 NOSIG=
201812130300 METAR MROC 130300Z 11010G20KT 080V140 CAVOK 21/12 A3005 NOSIG=
201812130400 METAR MROC 130400Z 11010G20KT CAVOK 21/12 A3005 NOSIG=
201812130500 METAR MROC 130500Z 10010G20KT CAVOK 21/11 A3004 NOSIG=
201812130600 METAR MROC 130600Z 05011KT CAVOK 20/10 A3003 NOSIG=
201812130700 METAR MROC 130700Z 07012KT CAVOK 20/12 A3000 NOSIG=
201812130800 METAR MROC 130800Z 07010G20KT 040V110 CAVOK 20/12 A2999 NOSIG=
201812130900 METAR MROC 130900Z 08008KT 360V140 CAVOK 19/10 A2999 NOSIG=
201812131000 METAR MROC 131000Z 05010G20KT 030V090 CAVOK 19/11 A2999 NOSIG=
201812131100 METAR MROC 131100Z 08009KT CAVOK 19/09 A3000 NOSIG=
201812131200 METAR MROC 131200Z 06012KT CAVOK 19/10 A3001 NOSIG=
201812131300 METAR MROC 131300Z 07011KT CAVOK 21/11 A3004 NOSIG=
201812131400 METAR MROC 131400Z 10012KT 060V120 CAVOK 23/10 A3005 NOSIG=
201812131500 METAR MROC 131500Z 11012KT 080V150 CAVOK 25/11 A3006 NOSIG=
201812131600 METAR MROC 131600Z 10012KT 070V140 CAVOK 26/10 A3006 NOSIG=
201812131700 METAR MROC 131700Z 12009KT 090V170 CAVOK 28/10 A3004 NOSIG=
201812131800 METAR MROC 131800Z 10009KT 060V150 CAVOK 28/12 A3002 BECMG 23007KT=
201812131900 METAR MROC 131900Z 13007KT 070V200 CAVOK 29/12 A3000 NOSIG=
201812132000 METAR MROC 132000Z 23007KT 180V300 9999 FEW040 28/18 A2998 NOSIG=
201812132100 METAR MROC 132100Z 25010KT 9999 FEW040 27/18 A2997 NOSIG=
201812132200 METAR MROC 132200Z 25010KT 220V280 9999 SCT030 25/19 A2999 NOSIG=
201812132300 METAR MROC 132300Z 23007KT 9999 FEW015 SCT030 23/19 A3001 NOSIG=
201812140000 METAR MROC 140000Z 26005KT 9999 FEW040 22/20 A3002 NOSIG=
201812140100 METAR MROC 140100Z VRB02KT CAVOK 21/19 A3003 NOSIG=
201812140200 METAR MROC 140200Z 08007KT CAVOK 21/17 A3005 NOSIG=
201812140300 METAR MROC 140300Z 08010KT CAVOK 22/16 A3006 NOSIG=
201812140400 METAR MROC 140400Z 09003KT 060V120 CAVOK 21/16 A3007 NOSIG=
201812140500 METAR MROC 140500Z 07006KT CAVOK 21/16 A3006 NOSIG=
201812140600 METAR MROC 140600Z 06006KT CAVOK 21/16 A3005 NOSIG=
201812140700 METAR MROC 140700Z 03005KT CAVOK 19/16 A3003 NOSIG=
201812140800 METAR MROC 140800Z VRB02KT CAVOK 19/16 A3002 NOSIG=
201812140900 METAR MROC 140900Z 06004KT CAVOK 19/16 A3002 NOSIG=
201812141000 METAR MROC 141000Z 06009KT 9999 FEW030 19/16 A3001 NOSIG=
201812141100 METAR MROC 141100Z 04007KT 9999 FEW030 19/16 A3002 NOSIG=
201812141200 METAR MROC 141200Z 06008KT 9999 FEW030 20/16 A3003 NOSIG=
201812141300 METAR MROC 141300Z 06007KT 030V090 CAVOK 22/17 A3005 NOSIG=
201812141400 METAR MROC 141400Z 11011KT 070V130 CAVOK 24/17 A3007 NOSIG=
201812141500 METAR MROC 141500Z 11008KT 070V160 CAVOK 26/17 A3007 NOSIG=
201812141600 METAR MROC 141600Z 10006KT 070V160 CAVOK 27/17 A3006 NOSIG=
201812141700 METAR MROC 141700Z 22005KT 180V330 CAVOK 28/17 A3004 NOSIG=
201812141800 METAR MROC 141800Z 24011KT 9999 FEW040 27/19 A3002 NOSIG=
201812141900 METAR MROC 141900Z 25012KT 210V280 9999 SCT035 27/20 A3000 NOSIG=
201812142000 METAR MROC 142000Z 26011KT 210V290 9999 BKN030 26/20 A2999 NOSIG=
201812142100 METAR MROC 142100Z 24011KT 9999 VCSH FEW015TCU BKN040 24/21 A2999 NOSIG=
201812142200 METAR MROC 142200Z 24005KT 9999 -RA FEW012 SCT020 BKN050 24/20 A3000 NOSIG=
201812142300 METAR MROC 142300Z 19003KT 080V230 9999 SCT020 BKN100 23/19 A3001 NOSIG=
201812150000 METAR MROC 150000Z 24003KT 220V280 9999 FEW010 SCT030 BKN100 22/20 A3002 NOSIG=
201812150100 METAR MROC 150100Z 23002KT 9999 FEW009 SCT025 BKN070 22/20 A3005 NOSIG=
201812150200 METAR MROC 150200Z 09004KT 9999 SCT020 BKN070 22/20 A3006 NOSIG=
201812150300 METAR MROC 150300Z VRB01KT 9999 FEW020 SCT060 22/20 A3007 NOSIG=
201812150400 METAR MROC 150400Z 07005KT 020V090 CAVOK 22/19 A3007 NOSIG=
201812150500 METAR MROC 150500Z 06005KT 030V090 CAVOK 22/18 A3007 NOSIG=
201812150600 METAR MROC 150600Z 06006KT CAVOK 20/17 A3005 NOSIG=
201812150700 METAR MROC 150700Z 04007KT CAVOK 21/17 A3003 NOSIG=
201812150800 METAR MROC 150800Z 08008KT CAVOK 20/17 A3001 NOSIG=
201812150900 METAR MROC 150900Z 06007KT 020V090 CAVOK 21/17 A3001 NOSIG=
201812151000 METAR MROC 151000Z 07006KT CAVOK 21/17 A3001 NOSIG=
201812151100 METAR MROC 151100Z 04005KT 330V110 CAVOK 21/17 A3003 NOSIG=
201812151200 METAR MROC 151200Z 11010KT 9999 FEW030 21/17 A3004 NOSIG=
201812151300 METAR MROC 151300Z 12012G22KT 9999 FEW035 SCT100 22/17 A3006 NOSIG=
201812151400 METAR MROC 151400Z 11014G24KT 9999 FEW040 SCT120 23/17 A3009 NOSIG=
201812151500 METAR MROC 151500Z 11014G24KT 9999 FEW040 25/16 A3008 NOSIG=
201812151600 METAR MROC 151600Z 09017G28KT CAVOK 26/15 A3008 NOSIG=
201812151700 METAR MROC 151700Z 08016G30KT CAVOK 27/14 A3005 NOSIG=
201812151800 METAR MROC 151800Z 10017G27KT CAVOK 28/14 A3002 NOSIG=
201812151900 METAR MROC 151900Z 09019G29KT CAVOK 28/13 A2999 NOSIG=
201812152000 METAR MROC 152000Z 09016G29KT 9999 FEW045 28/14 A2997 NOSIG=
201812152100 METAR MROC 152100Z 08017G27KT 050V110 9999 FEW045 27/14 A2996 NOSIG=
201812152200 METAR MROC 152200Z 08015G25KT 9999 FEW040 27/14 A2996 NOSIG=
201812152300 METAR MROC 152300Z 08017G27KT 9999 FEW035 25/13 A2998 NOSIG=
201812160000 METAR MROC 160000Z 07015G25KT 9999 FEW035 24/14 A3000 NOSIG=
201812160100 METAR MROC 160100Z 08013G23KT 9999 FEW040 23/14 A3002 NOSIG=
201812160200 METAR MROC 160200Z 09017G28KT CAVOK 23/15 A3004 NOSIG=
201812160300 METAR MROC 160300Z 09016G26KT CAVOK 22/15 A3007 NOSIG=
201812160400 METAR MROC 160400Z 10017KT CAVOK 22/16 A3007 NOSIG=
201812160500 METAR MROC 160500Z 10017KT CAVOK 22/16 A3005 NOSIG=
201812160600 METAR MROC 160600Z 11017G27KT 080V140 CAVOK 22/15 A3003 NOSIG=
201812160700 METAR MROC 160700Z 10019KT CAVOK 21/16 A3002 NOSIG=
201812160800 METAR MROC 160800Z 09018G28KT CAVOK 21/16 A3001 NOSIG=
201812160900 METAR MROC 160900Z 09018KT CAVOK 22/15 A2999 NOSIG=
201812161000 METAR MROC 161000Z 09015KT CAVOK 21/15 A3001 NOSIG=
201812161100 METAR MROC 161100Z 09020G30KT CAVOK 21/15 A3002 NOSIG=
201812161200 METAR MROC 161200Z 10016KT CAVOK 20/15 A3004 NOSIG=
201812161300 METAR MROC 161300Z 10017G27KT 9999 FEW040 21/15 A3006 NOSIG=
201812161400 METAR MROC 161400Z 10019G29KT 9999 FEW040 24/15 A3008 NOSIG=
201812161500 METAR MROC 161500Z 09021G31KT CAVOK 25/14 A3008 NOSIG=
201812161600 METAR MROC 161600Z 09019G29KT 9999 VCVA FEW040 26/14 A3008 NOSIG=
201812161700 METAR MROC 161700Z 08022G32KT CAVOK 26/14 A3005 NOSIG=
201812161800 METAR MROC 161800Z 08019G33KT 050V110 9999 FEW040 27/15 A3003 NOSIG=
201812161900 METAR MROC 161900Z 07022G32KT 9999 FEW040 27/15 A3000 NOSIG=
201812162000 METAR MROC 162000Z 06024G34KT 9999 FEW040 27/15 A2998 NOSIG=
201812162100 METAR MROC 162100Z 06021G32KT 9999 VCVA NSC 27/15 A2997 NOSIG=
201812162200 METAR MROC 162200Z 05024KT 9999 VCVA NSC 26/16 A2997 NOSIG=
201812162300 METAR MROC 162300Z 07020KT 9999 VCVA NSC 25/15 A2998 NOSIG=
201812170000 METAR MROC 170000Z 08016G26KT CAVOK 23/15 A2999 NOSIG=
201812170100 METAR MROC 170100Z 09013KT 060V130 CAVOK 23/14 A3002 NOSIG=
201812170200 METAR MROC 170200Z 09015G25KT CAVOK 22/15 A3004 NOSIG=
201812170300 METAR MROC 170300Z 09016G27KT CAVOK 22/15 A3005 NOSIG=
201812170400 METAR MROC 170400Z 10015KT CAVOK 22/15 A3004 NOSIG=
201812170500 METAR MROC 170500Z 10014KT CAVOK 21/15 A3004 NOSIG=
201812170600 METAR MROC 170600Z 10015KT CAVOK 21/15 A3002 NOSIG=
201812170700 METAR MROC 170700Z 10013KT CAVOK 21/14 A3000 NOSIG=
201812170800 METAR MROC 170800Z 09012KT CAVOK 21/14 A2998 NOSIG=
201812170900 METAR MROC 170900Z 10011G21KT CAVOK 22/13 A2997 NOSIG=
201812171000 METAR MROC 171000Z 10014G24KT CAVOK 22/12 A2999 NOSIG=
201812171100 METAR MROC 171100Z 10014KT CAVOK 21/13 A3001 NOSIG=
201812171200 METAR MROC 171200Z 10013KT CAVOK 21/14 A3003 NOSIG=
201812171300 METAR MROC 171300Z 11014KT CAVOK 22/14 A3005 NOSIG=
201812171400 METAR MROC 171400Z 11017G27KT CAVOK 23/15 A3009 NOSIG=
201812171500 METAR MROC 171500Z 10017KT CAVOK 25/14 A3009 NOSIG=
201812171600 METAR MROC 171600Z 09016G26KT CAVOK 26/13 A3008 NOSIG=
201812171700 METAR MROC 171700Z 08016G26KT CAVOK 26/13 A3006 NOSIG=
201812171800 METAR MROC 171800Z 10014G24KT CAVOK 28/13 A3004 NOSIG=
201812171900 METAR MROC 171900Z 08014KT CAVOK 27/13 A3000 NOSIG=
201812172000 METAR MROC 172000Z 08012G22KT 030V110 CAVOK 27/13 A2998 NOSIG=
201812172100 METAR MROC 172100Z 10011KT 060V140 CAVOK 27/14 A2997 NOSIG=
201812172200 METAR MROC 172200Z 11011KT 090V150 CAVOK 26/15 A2998 NOSIG=
201812172300 METAR MROC 172300Z 11012KT 070V140 9999 FEW030 SCT250 24/15 A2999 NOSIG=
201812180000 METAR MROC 180000Z 11012KT CAVOK 22/16 A3001 NOSIG=
201812180100 METAR MROC 180100Z 11009KT 070V140 CAVOK 21/16 A3003 NOSIG=
201812180200 METAR MROC 180200Z 10012KT CAVOK 21/15 A3006 NOSIG=
201812180300 METAR MROC 180300Z 07010KT CAVOK 21/13 A3006 NOSIG=
201812180400 METAR MROC 180400Z 08013G23KT CAVOK 22/13 A3006 NOSIG=
201812180500 METAR MROC 180500Z 10016G26KT CAVOK 21/13 A3005 NOSIG=
201812180600 METAR MROC 180600Z 11015G25KT CAVOK 21/13 A3003 NOSIG=
201812180700 METAR MROC 180700Z 11015G25KT CAVOK 20/13 A3000 NOSIG=
201812180800 METAR MROC 180800Z 10014G24KT 080V140 CAVOK 20/13 A2998 NOSIG=
201812180900 METAR MROC 180900Z 11011G21KT 080V140 CAVOK 20/13 A2997 NOSIG=
201812181000 METAR MROC 181000Z 11013KT CAVOK 19/12 A2998 NOSIG=
201812181100 METAR MROC 181100Z 09012KT 050V120 CAVOK 19/12 A2999 NOSIG=
201812181200 METAR MROC 181200Z 08010KT 040V120 CAVOK 19/12 A3001 NOSIG=
201812181300 METAR MROC 181300Z 09011KT CAVOK 20/12 A3004 NOSIG=
201812181400 METAR MROC 181400Z 11014KT CAVOK 23/11 A3006 NOSIG=
201812181500 METAR MROC 181500Z 11013KT 090V150 CAVOK 25/11 A3005 NOSIG=
201812181600 METAR MROC 181600Z 11016KT CAVOK 26/11 A3004 NOSIG=
201812181700 METAR MROC 181700Z 10012KT 070V130 CAVOK 28/12 A3002 NOSIG=
201812181800 METAR MROC 181800Z 09014KT 060V120 CAVOK 27/12 A3000 NOSIG=
201812181900 METAR MROC 181900Z 11011KT 080V140 CAVOK 28/14 A2997 NOSIG=
201812182000 METAR MROC 182000Z 11012KT CAVOK 28/13 A2995 NOSIG=
201812182100 METAR MROC 182100Z 10007KT 060V160 CAVOK 28/14 A2994 NOSIG=
201812182200 METAR MROC 182200Z 22006KT 180V250 CAVOK 26/18 A2995 NOSIG=
201812182300 METAR MROC 182300Z 25009KT CAVOK 23/18 A2996 NOSIG=
201812190000 METAR MROC 190000Z 25005KT CAVOK 21/18 A2998 NOSIG=
201812190100 METAR MROC 190100Z 11005KT 070V140 CAVOK 21/17 A3000 NOSIG=
201812190200 METAR MROC 190200Z 08007KT CAVOK 21/16 A3000 NOSIG=
201812190300 METAR MROC 190300Z 07008KT CAVOK 21/15 A3003 NOSIG=
201812190400 METAR MROC 190400Z 10011KT CAVOK 21/14 A3002 NOSIG=
201812190500 METAR MROC 190500Z 10011KT CAVOK 21/14 A3001 NOSIG=
201812190600 METAR MROC 190600Z 09010KT CAVOK 21/13 A3001 NOSIG=
201812190700 METAR MROC 190700Z 10011KT CAVOK 21/12 A2998 NOSIG=
201812190800 METAR MROC 190800Z 10010KT CAVOK 20/12 A2996 NOSIG=
201812190900 METAR MROC 190900Z 10010KT CAVOK 20/12 A2997 NOSIG=
201812191000 METAR MROC 191000Z 05006KT 020V080 CAVOK 18/11 A2998 NOSIG=
201812191100 METAR MROC 191100Z 10008KT 070V130 CAVOK 19/12 A2999 NOSIG=
201812191200 METAR COR MROC 191200Z 07005KT CAVOK 18/12 A3001 NOSIG=
201812191300 METAR COR MROC 191300Z 08007KT 040V110 CAVOK 20/12 A3003 NOSIG=
201812191400 METAR MROC 191400Z 10009KT CAVOK 23/12 A3004 NOSIG=
201812191500 METAR MROC 191500Z 11009KT 070V130 CAVOK 26/11 A3003 NOSIG=
201812191600 METAR MROC 191600Z 13008KT 070V180 CAVOK 27/09 A3002 NOSIG=
201812191700 METAR MROC 191700Z 25010KT 200V310 CAVOK 26/16 A3001 NOSIG=
201812191800 METAR MROC 191800Z 25010KT 210V270 CAVOK 26/18 A2999 NOSIG=
201812191900 METAR MROC 191900Z 26011KT 230V300 9999 FEW030 27/19 A2997 NOSIG=
201812192000 METAR MROC 192000Z 25012KT 220V290 9999 SCT030 26/19 A2995 NOSIG=
201812192100 METAR MROC 192100Z 24010KT 210V290 9999 FEW020 25/19 A2994 NOSIG=
201812192200 METAR MROC 192200Z 24009KT 9999 FEW025 24/18 A2994 NOSIG=
201812192300 METAR MROC 192300Z 24007KT 9999 FEW025 SCT200 22/18 A2996 NOSIG=
201812200000 METAR MROC 200000Z 00000KT 9999 FEW020 SCT060 21/18 A2997 NOSIG=
201812200100 METAR MROC 200100Z VRB01KT 9999 FEW020 SCT070 21/17 A3000 NOSIG=
201812200200 METAR MROC 200200Z 12002KT 9999 FEW030 20/18 A3001 NOSIG=
201812200300 METAR MROC 200300Z 35001KT 9999 FEW030 21/18 A3002 NOSIG=
201812200400 METAR MROC 200400Z 13002KT CAVOK 19/18 A3002 NOSIG=
201812200500 METAR MROC 200500Z 36003G16KT 300V070 CAVOK 20/17 A3003 NOSIG=
201812200600 METAR MROC 200600Z 07003KT 9999 FEW030 18/17 A3002 NOSIG=
201812200700 METAR MROC 200700Z 05004KT 9999 SCT030 19/17 A3000 NOSIG=
201812200800 METAR MROC 200800Z 07007KT 9999 SCT030 19/16 A2998 NOSIG=
201812200900 METAR MROC 200900Z 08006KT 9999 FEW030 19/16 A2997 NOSIG=
201812201000 METAR MROC 201000Z 09007KT 9999 FEW030 18/16 A2998 NOSIG=
201812201100 METAR MROC 201100Z 03003KT 350V060 9999 SCT030 19/16 A3001 NOSIG=
201812201200 METAR MROC 201200Z 09005KT 9999 SCT030 17/15 A3002 NOSIG=
201812201300 METAR MROC 201300Z 08005KT CAVOK 19/16 A3005 NOSIG=
201812201400 METAR MROC 201400Z 12005KT 080V150 CAVOK 22/17 A3006 NOSIG=
201812201500 METAR MROC 201500Z VRB02KT CAVOK 25/16 A3006 BECMG 24008KT=
201812201600 METAR MROC 201600Z 25005KT 200V280 CAVOK 26/16 A3006 NOSIG=
201812201700 METAR MROC 201700Z VRB05KT CAVOK 27/15 A3004 NOSIG=
201812201800 METAR MROC 201800Z 24008KT 200V300 9999 FEW045 27/13 A3000 NOSIG=
201812201900 METAR MROC 201900Z 23010KT 200V270 9999 FEW045 27/17 A2997 NOSIG=
201812202000 METAR MROC 202000Z 24012KT 220V280 9999 FEW045 SCT250 26/18 A2995 NOSIG=
201812202100 METAR MROC 202100Z 25010KT 9999 FEW045 26/17 A2994 NOSIG=
201812202200 METAR MROC 202200Z 25011KT 9999 FEW035 25/19 A2996 NOSIG=
201812202300 METAR MROC 202300Z 25008KT 9999 FEW035 BKN065 24/19 A2998 NOSIG=
201812210000 METAR MROC 210000Z 25007KT 220V320 9999 FEW025 BKN060 23/19 A3000 NOSIG=
201812210100 METAR MROC 210100Z 21001KT CAVOK 22/18 A3002 NOSIG=
201812210200 METAR MROC 210200Z VRB01KT CAVOK 21/18 A3003 NOSIG=
201812210300 METAR MROC 210300Z VRB02KT CAVOK 21/18 A3004 NOSIG=
201812210400 METAR MROC 210400Z 19002KT CAVOK 20/18 A3004 NOSIG=
201812210500 METAR MROC 210500Z 02003KT CAVOK 20/17 A3004 NOSIG=
201812210600 METAR MROC 210600Z 00000KT CAVOK 19/17 A3002 NOSIG=
201812210700 METAR MROC 210700Z 06005KT CAVOK 19/16 A3000 NOSIG=
201812210800 METAR MROC 210800Z 06005KT 350V100 CAVOK 20/16 A2997 NOSIG=
201812210900 METAR MROC 210900Z 09007KT CAVOK 21/16 A2997 NOSIG=
201812211000 METAR MROC 211000Z 08005KT CAVOK 19/15 A2998 NOSIG=
201812211100 METAR MROC 211100Z VRB03KT CAVOK 20/16 A2999 NOSIG=
201812211200 METAR MROC 211200Z 07010KT 9999 FEW035 21/15 A3000 NOSIG=
201812211300 METAR MROC 211300Z 11013G23KT CAVOK 23/16 A3001 NOSIG=
201812211400 METAR MROC 211400Z 11012KT CAVOK 25/15 A3004 NOSIG=
201812211500 METAR MROC 211500Z 10016KT CAVOK 26/14 A3005 NOSIG=
201812211600 METAR MROC 211600Z 09016KT 060V120 CAVOK 28/15 A3004 NOSIG=
201812211700 METAR MROC 211700Z 08019G29KT 9999 FEW045 27/15 A3003 NOSIG=
201812211800 METAR MROC 211800Z 07020G31KT 9999 FEW045 28/14 A3001 NOSIG=
201812211900 METAR MROC 211900Z 05020KT 9999 FEW045 SCT065 28/13 A2999 NOSIG=
201812212000 METAR MROC 212000Z 07020KT 9999 FEW045 27/14 A2997 NOSIG=
201812212100 METAR MROC 212100Z 05024G34KT CAVOK 27/14 A2996 NOSIG=
201812212200 METAR MROC 212200Z 05018KT CAVOK 25/15 A2998 NOSIG=
201812212300 METAR MROC 212300Z 08016G26KT CAVOK 23/15 A2998 NOSIG=
201812220000 METAR MROC 220000Z 09021G31KT CAVOK 22/15 A2999 NOSIG=
201812220100 METAR MROC 220100Z 09020G30KT 9999 FEW035 22/15 A3002 NOSIG=
201812220200 METAR MROC 220200Z 09016G27KT 9999 SCT040 21/16 A3001 NOSIG=
201812220300 METAR MROC 220300Z 10011G21KT 070V140 9999 DZ SCT040 21/17 A3003 NOSIG=
201812220400 METAR MROC 220400Z COR 09010G20KT 360V130 9999 SCT040 21/16 A3003 REDZ NOSIG=
201812220500 METAR MROC 220500Z 10010KT 070V150 9999 FEW040 SCT080 20/16 A3002 NOSIG=
201812220600 METAR MROC 220600Z VRB05KT 9999 FEW020 SCT070 20/16 A3001 NOSIG=
201812220700 METAR MROC 220700Z 21005KT 100V270 9999 FEW020 SCT060 20/16 A2999 NOSIG=
201812220800 METAR MROC 220800Z VRB05KT 9999 SCT030 20/16 A2996 NOSIG=
201812220900 METAR MROC 220900Z 10010G20KT 9999 FEW030 20/15 A2994 NOSIG=
201812221000 METAR MROC 221000Z 10013G26KT 070V150 9999 FEW025 19/15 A2994 NOSIG=
201812221100 METAR MROC 221100Z 08019G32KT 050V110 9999 FEW025 22/14 A2994 NOSIG=
201812221200 METAR MROC 221200Z COR 07021G31KT 9999 FEW020 22/14 A2996 NOSIG=
201812221300 METAR MROC 221300Z 11020G30KT 9999 FEW040 20/14 A3000 NOSIG=
201812221400 METAR MROC 221400Z 10016G26KT 9999 FEW040 21/15 A3002 NOSIG=
201812221500 METAR MROC 221500Z 10016KT 9999 FEW044 23/15 A3002 NOSIG=
201812221600 METAR MROC 221600Z 10013G23KT 9999 FEW045 24/16 A3002 NOSIG=
201812221700 METAR MROC 221700Z 09016KT 360V120 9999 SCT040 26/16 A3000 NOSIG=
201812221800 METAR MROC 221800Z 09013G25KT 040V140 9999 FEW040 27/17 A2998 NOSIG=
201812221900 METAR MROC 221900Z 09015KT 9999 SCT035 25/17 A2996 NOSIG=
201812222000 METAR MROC 222000Z 07019G30KT 9999 SCT035 26/16 A2995 NOSIG=
201812222100 METAR MROC 222100Z 07015KT 9999 SCT040 BKN100 24/16 A2994 NOSIG=
201812222200 METAR MROC 222200Z 08018G28KT 9999 SCT040 SCT100 24/15 A2995 NOSIG=
201812222300 METAR MROC 222300Z 06023KT 9999 FEW040 SCT100 23/15 A2996 NOSIG=
201812230000 METAR MROC 230000Z 08016KT 9999 FEW040 SCT100 23/15 A2996 NOSIG=
201812230100 METAR MROC 230100Z 08014KT 9999 FEW040 SCT070 22/15 A2998 NOSIG=
201812230200 METAR MROC 230200Z 09012KT 9999 FEW040 SCT070 22/15 A3001 NOSIG=
201812230300 METAR MROC 230300Z 11010KT 9999 FEW040 SCT070 21/16 A3003 NOSIG=
201812230400 METAR MROC 230400Z 09014KT 9999 FEW045 21/16 A3002 NOSIG=
201812230500 METAR MROC 230500Z 09013KT CAVOK 22/15 A3000 NOSIG=
201812230600 METAR MROC 230600Z 11012KT CAVOK 21/16 A3000 NOSIG=
201812230700 METAR MROC 230700Z 08019G29KT 9999 FEW045 22/15 A2997 NOSIG=
201812230800 METAR MROC 230800Z 09016KT 9999 FEW045 22/15 A2997 NOSIG=
201812230900 METAR MROC 230900Z 10012KT CAVOK 21/15 A2996 NOSIG=
201812231000 METAR MROC 231000Z 08012KT 050V110 CAVOK 22/13 A2996 NOSIG=
201812231100 METAR MROC 231100Z 08015G28KT CAVOK 21/13 A2997 NOSIG=
201812231200 METAR MROC 231200Z 08018KT 9999 FEW045 21/14 A2997 NOSIG=
201812231300 METAR MROC 231300Z 08021G32KT CAVOK 22/13 A3000 NOSIG=
201812231400 METAR MROC 231400Z 08023KT CAVOK 23/13 A3002 NOSIG=
201812231500 METAR MROC 231500Z 09022G33KT CAVOK 23/15 A3004 NOSIG=
201812231600 METAR MROC 231600Z 09020KT 060V120 CAVOK 26/11 A3003 NOSIG=
201812231700 METAR MROC 231700Z 08022KT 050V110 CAVOK 26/12 A3001 NOSIG=
201812231800 METAR MROC 231800Z 08019G30KT CAVOK 26/13 A2999 NOSIG=
201812231900 METAR MROC 231900Z 07019G30KT CAVOK 27/13 A2995 NOSIG=
201812232000 METAR MROC 232000Z 06026KT 9999 FEW040 25/15 A2993 NOSIG=
201812232100 METAR MROC 232100Z 07022G33KT 9999 FEW040 25/12 A2993 NOSIG=
201812232200 METAR MROC 232200Z 07021G31KT CAVOK 24/09 A2993 NOSIG=
201812232300 METAR MROC 232300Z 10013KT 070V130 CAVOK 22/11 A2996 NOSIG=
201812240000 METAR MROC 240000Z 11016KT CAVOK 21/13 A2996 NOSIG=
201812240100 METAR MROC 240100Z 11016KT CAVOK 20/13 A2998 NOSIG=
201812240200 METAR MROC 240200Z 11014KT CAVOK 20/13 A3001 NOSIG=
201812240300 METAR MROC 240300Z 11015G25KT CAVOK 20/14 A3003 NOSIG=
201812240400 METAR MROC 240400Z 09018KT CAVOK 20/13 A3001 NOSIG=
201812240500 METAR MROC 240500Z 10017G28KT CAVOK 20/13 A3000 NOSIG=
201812240600 METAR MROC 240600Z 10014G26KT CAVOK 19/13 A2996 NOSIG=
201812240700 METAR MROC 240700Z 10016KT CAVOK 19/13 A2997 NOSIG=
201812240800 METAR MROC 240800Z 10014G24KT CAVOK 19/12 A2995 NOSIG=
201812240900 METAR MROC 240900Z 10015KT CAVOK 19/13 A2995 NOSIG=
201812241000 METAR MROC 241000Z 11016KT CAVOK 19/13 A2995 NOSIG=
201812241100 METAR MROC 241100Z 10016KT CAVOK 20/13 A2996 NOSIG=
201812241200 METAR MROC 241200Z 10017KT CAVOK 20/13 A2997 NOSIG=
201812241300 METAR MROC 241300Z 11019KT CAVOK 21/14 A2999 NOSIG=
201812241400 METAR MROC 241400Z 10019G29KT CAVOK 22/15 A3001 NOSIG=
201812241500 METAR MROC 241500Z 10020G30KT CAVOK 24/14 A3001 NOSIG=
201812241600 METAR MROC 241600Z 08018G28KT CAVOK 25/14 A3001 NOSIG=
201812241700 METAR MROC 241700Z 09014KT 060V120 CAVOK 26/15 A2998 NOSIG=
201812241800 METAR MROC 241800Z 09015G26KT 050V140 CAVOK 27/15 A2996 NOSIG=
201812241900 METAR MROC 241900Z 10014KT 070V130 CAVOK 27/16 A2994 NOSIG=
201812242000 METAR MROC 242000Z 10015G26KT 070V130 CAVOK 27/15 A2992 NOSIG=
201812242100 METAR MROC 242100Z 08015KT CAVOK 27/13 A2990 NOSIG=
201812242200 METAR MROC 242200Z 08014KT 9999 FEW045 26/15 A2991 NOSIG=
201812242300 METAR MROC 242300Z 10015KT 9999 FEW045 24/17 A2991 NOSIG=
201812250000 METAR MROC 250000Z 09017G27KT 9999 FEW040 22/17 A2992 NOSIG=
201812250100 METAR MROC 250100Z 09014KT 9999 FEW040 22/16 A2994 NOSIG=
201812250200 METAR MROC 250200Z 10014G24KT 9999 FEW040 22/15 A2996 NOSIG=
201812250300 METAR MROC 250300Z 08014G24KT 9999 FEW040 22/15 A2996 NOSIG=
201812250400 METAR MROC 250400Z 10019KT CAVOK 22/15 A2995 NOSIG=
201812250500 METAR MROC 250500Z 10020G30KT CAVOK 22/15 A2994 NOSIG=
201812250600 METAR MROC 250600Z 10018KT CAVOK 22/14 A2993 NOSIG=
201812250700 METAR MROC 250700Z 10017KT CAVOK 22/14 A2991 NOSIG=
201812250800 METAR MROC 250800Z 10016KT CAVOK 21/15 A2990 NOSIG=
201812250900 METAR MROC 250900Z 11016KT CAVOK 21/15 A2989 NOSIG=
201812251000 METAR MROC 251000Z 10018KT CAVOK 21/15 A2990 NOSIG=
201812251100 METAR MROC 251100Z 10018G28KT CAVOK 21/16 A2990 NOSIG=
201812251200 METAR MROC 251200Z 11017KT CAVOK 21/16 A2992 NOSIG=
201812251300 METAR MROC 251300Z 11017G27KT 9999 FEW035 21/16 A2996 NOSIG=
201812251400 METAR MROC 251400Z 10019G30KT 9999 FEW035 23/14 A2998 NOSIG=
201812251500 METAR MROC 251500Z 10017G27KT 9999 FEW045 24/14 A2997 NOSIG=
201812251600 METAR MROC 251600Z 08017G27KT 9999 FEW045 25/14 A2996 NOSIG=
201812251700 METAR MROC 251700Z 09017G27KT CAVOK 27/15 A2996 NOSIG=
201812251800 METAR MROC 251800Z 08019G30KT 9999 FEW040 27/15 A2993 NOSIG=
201812251900 METAR MROC 251900Z 08018G31KT 9999 FEW040 26/16 A2991 NOSIG=
201812252000 METAR MROC 252000Z 08015G25KT 9999 FEW035 26/16 A2988 NOSIG=
201812252100 METAR MROC 252100Z 08016KT 060V120 9999 FEW045 26/16 A2988 NOSIG=
201812252200 METAR MROC 252200Z 07018KT 9999 FEW045 24/15 A2990 NOSIG=
201812252300 METAR MROC 252300Z 08016G27KT 9999 FEW045 23/14 A2991 NOSIG=
201812260000 METAR MROC 260000Z 08017G27KT CAVOK 22/14 A2992 NOSIG=
201812260100 METAR MROC 260100Z 09020KT CAVOK 22/15 A2993 NOSIG=
201812260200 METAR MROC 260200Z 10018G28KT CAVOK 21/15 A2995 NOSIG=
201812260300 METAR MROC 260300Z 09020KT CAVOK 22/15 A2995 NOSIG=
201812260400 METAR MROC 260400Z 10018KT CAVOK 21/15 A2995 NOSIG=
201812260500 METAR MROC 260500Z 10019G30KT CAVOK 21/16 A2993 NOSIG=
201812260600 METAR MROC 260600Z 10017KT CAVOK 21/16 A2992 NOSIG=
201812260700 METAR MROC 260700Z 10018G30KT CAVOK 21/16 A2991 NOSIG=
201812260800 METAR MROC 260800Z 10019KT CAVOK 21/15 A2990 NOSIG=
201812260900 METAR MROC 260900Z 09015KT CAVOK 20/15 A2989 NOSIG=
201812261000 METAR MROC 261000Z 09020G32KT CAVOK 20/16 A2990 NOSIG=
201812261100 METAR MROC 261100Z 10021G33KT CAVOK 20/13 A2992 NOSIG=
201812261200 METAR MROC 261200Z 09016KT 9999 FEW035 21/114 A2995 NOSIG=
201812261300 METAR MROC 261300Z 11017KT CAVOK 21/14 A2997 NOSIG=
201812261400 METAR MROC 261400Z 10017KT CAVOK 23/14 A2998 NOSIG=
201812261500 METAR MROC 261500Z 10017G27KT CAVOK 24/14 A2997 NOSIG=
201812261600 METAR MROC 261600Z 11019G30KT CAVOK 25/14 A2996 NOSIG=
201812261700 METAR MROC 261700Z 09021G33KT 060V120 CAVOK 27/13 A2994 NOSIG=
201812261800 METAR MROC 261800Z 09019G29KT CAVOK 27/13 A2992 NOSIG=
201812261900 METAR MROC 261900Z 09017KT CAVOK 28/13 A2989 NOSIG=
201812262000 METAR MROC 262000Z 09016G26KT CAVOK 28/12 A2987 NOSIG=
201812262100 METAR MROC 262100Z 09015G25KT 9999 FEW045 27/14 A2987 NOSIG=
201812262200 METAR MROC 262200Z 09013G23KT 9999 FEW045 25/15 A2988 NOSIG=
201812262300 METAR MROC 262300Z 09015G25KT CAVOK 23/15 A2989 NOSIG=
201812270000 METAR MROC 270000Z 08016G26KT 9999 FEW045 22/14 A2991 NOSIG=
201812270100 METAR MROC 270100Z 10019G29KT 9999 FEW040 22/13 A2991 NOSIG=
201812270200 METAR MROC 270200Z 10019G31KT CAVOK 22/12 A2992 NOSIG=
201812270300 METAR MROC 270300Z 10016G26KT CAVOK 22/12 A2993 NOSIG=
201812270400 METAR MROC 270400Z 09017G28KT 9999 FEW040 22/12 A2993 NOSIG=
201812270500 METAR MROC 270500Z 10013G23KT CAVOK 21/12 A2992 NOSIG=
201812270600 METAR MROC 270600Z 11014KT CAVOK 21/12 A2991 NOSIG=
201812270700 METAR MROC 270700Z 10015G25KT CAVOK 21/13 A2991 NOSIG=
201812270800 METAR MROC 270800Z 11016G26KT CAVOK 21/13 A2990 NOSIG=
201812270900 METAR MROC 270900Z 11018G29KT CAVOK 21/13 A2990 NOSIG=
201812271000 METAR MROC 271000Z 10014G24KT 070V130 CAVOK 20/13 A2990 NOSIG=
201812271100 METAR MROC 271100Z 10013KT CAVOK 20/13 A2992 NOSIG=
201812271200 METAR MROC 271200Z 11013G24KT 080V140 CAVOK 20/13 A2994 NOSIG=
201812271300 METAR MROC 271300Z 11014G24KT CAVOK 21/13 A2996 NOSIG=
201812271400 METAR MROC 271400Z 11015G25KT CAVOK 23/14 A2996 NOSIG=
201812271500 METAR MROC 271500Z 11015KT 080V140 CAVOK 24/15 A2997 NOSIG=
201812271600 METAR MROC 271600Z 09015G31KT CAVOK 25/14 A2996 NOSIG=
201812271700 METAR MROC 271700Z 11014G24KT 080V150 CAVOK 26/14 A2994 NOSIG=
201812271800 METAR MROC 271800Z 11011G21KT 070V140 CAVOK 27/14 A2992 NOSIG=
201812271900 METAR MROC 271900Z 11015KT 9999 FEW040 27/15 A2990 NOSIG=
201812272000 METAR MROC 272000Z 11013KT 070V140 9999 FEW030 27/16 A2989 NOSIG=
201812272100 METAR MROC 272100Z 10015KT 9999 FEW040 26/16 A2988 NOSIG=
201812272200 METAR MROC 272200Z 11014KT 9999 FEW040 25/15 A2990 NOSIG=
201812272300 METAR MROC 272300Z 11012KT 9999 FEW040 23/15 A2992 NOSIG=
201812280000 METAR MROC 280000Z 12010KT 090V150 9999 FEW040 22/16 A2993 NOSIG=
201812280100 METAR MROC 280100Z 10008KT CAVOK 21/15 A2995 NOSIG=
201812280200 METAR MROC 280200Z 10014KT CAVOK 21/16 A2996 NOSIG=
201812280300 METAR MROC 280300Z 09009KT 050V120 CAVOK 21/16 A2997 NOSIG=
201812280400 METAR MROC 280400Z 09009KT 050V130 CAVOK 21/15 A2996 NOSIG=
201812280500 METAR MROC 280500Z 07008KT 050V110 CAVOK 20/15 A2995 NOSIG=
201812280600 METAR MROC 280600Z 08008KT 050V110 CAVOK 20/15 A2994 NOSIG=
201812280700 METAR MROC 280700Z 10010KT 070V130 9999 FEW045 20/14 A2993 NOSIG=
201812280800 METAR MROC 280800Z 09012KT 9999 FEW045 20/14 A2992 NOSIG=
201812280900 METAR MROC 280900Z 10013KT CAVOK 20/14 A2992 NOSIG=
201812281000 METAR MROC 281000Z 09009G19KT 030V140 CAVOK 20/14 A2993 NOSIG=
201812281100 METAR MROC 281100Z 09008KT 040V140 CAVOK 19/14 A2995 NOSIG=
201812281200 METAR MROC 281200Z 10010KT CAVOK 20/13 A2996 NOSIG=
201812281300 METAR MROC 281300Z 11011KT 080V140 CAVOK 22/13 A2997 NOSIG=
201812281400 METAR MROC 281400Z 11013KT 090V150 CAVOK 24/14 A2999 NOSIG=
201812281500 METAR MROC 281500Z 11011KT 090V150 CAVOK 26/14 A3000 NOSIG=
201812281600 METAR MROC 281600Z 11013KT CAVOK 26/14 A2999 NOSIG=
201812281700 METAR MROC 281700Z 10013KT 060V130 CAVOK 27/15 A2997 NOSIG=
201812281800 METAR MROC 281800Z 08013KT 050V110 CAVOK 28/15 A2995 NOSIG=
201812281900 METAR MROC 281900Z 08017KT 9999 FEW040 27/15 A2993 NOSIG=
201812282000 METAR MROC 282000Z 09015KT 9999 FEW040 27/14 A2991 NOSIG=
201812282100 METAR MROC 282100Z 09014G24KT 9999 FEW035 27/14 A2990 NOSIG=
201812282200 METAR MROC 282200Z 08017KT 9999 FEW035 26/17 A2991 NOSIG=
201812282300 METAR MROC 282300Z 08015KT CAVOK 25/15 A2992 NOSIG=
201812290000 METAR MROC 290000Z 09012KT CAVOK 23/16 A2993 NOSIG=
201812290100 METAR MROC 290100Z 11009KT CAVOK 22/16 A2995 NOSIG=
201812290200 METAR MROC 290200Z 08013KT CAVOK 22/15 A2996 NOSIG=
201812290300 METAR MROC 290300Z 09015KT CAVOK 22/15 A2997 NOSIG=
201812290400 METAR MROC 290400Z 10015G25KT CAVOK 22/15 A2996 NOSIG=
201812290500 METAR MROC 290500Z 12010KT 090V150 CAVOK 21/15 A2995 NOSIG=
201812290600 METAR MROC 290600Z 12011KT CAVOK 21/16 A2996 NOSIG=
201812290700 METAR MROC 290700Z 11016KT CAVOK 21/16 A2992 NOSIG=
201812290800 METAR MROC 290800Z 11016KT CAVOK 21/15 A2991 NOSIG=
201812290900 METAR MROC 290900Z 11014KT CAVOK 21/16 A2992 NOSIG=
201812291000 METAR MROC 291000Z 10012KT 9999 FEW040 20/16 A2993 NOSIG=
201812291100 METAR MROC 291100Z 11013KT 9999 FEW040 20/15 A2996 NOSIG=
201812291200 METAR MROC 291200Z 12012KT 090V150 9999 FEW040 21/16 A2998 NOSIG=
201812291300 METAR MROC 291300Z 09016KT 9999 SCT030 21/16 A2999 NOSIG=
201812291400 METAR MROC 291400Z 10015G26KT 9999 SCT030 21/16 A3000 NOSIG=
201812291500 METAR MROC 291500Z 08018KT 9999 SCT030 24/17 A3000 NOSIG=
201812291600 METAR MROC 291600Z 09014KT 060V130 9999 SCT035 27/15 A3000 NOSIG=
201812291700 METAR MROC 291700Z 10015KT 070V140 9999 FEW040 28/15 A2997 NOSIG=
201812291800 METAR MROC 291800Z 08015G27KT 050V110 9999 FEW040 28/13 A2996 NOSIG=
201812291900 METAR MROC 291900Z 08015KT 050V120 9999 FEW040 28/13 A2993 NOSIG=
201812292000 METAR MROC 292000Z 06017KT 9999 FEW040 29/14 A2991 NOSIG=
201812292100 METAR MROC 292100Z 08011G22KT 050V120 9999 FEW040 28/13 A2991 NOSIG=
201812292200 METAR MROC 292200Z 08012KT 9999 FEW035 27/15 A2992 NOSIG=
201812292300 METAR MROC 292300Z 07016KT 9999 FEW030 25/14 A2994 NOSIG=
201812300000 METAR MROC 300000Z 09012KT 9999 FEW030 23/15 A2996 NOSIG=
201812300100 METAR MROC 300100Z 07016KT 9999 FEW035 23/15 A2997 NOSIG=
201812300200 METAR MROC 300200Z 07015G25KT 9999 FEW035 22/15 A2998 NOSIG=
201812300300 METAR MROC 300300Z 08019KT 9999 FEW040 22/16 A2999 NOSIG=
201812300400 METAR MROC 300400Z 09016KT CAVOK 21/15 A2995 NOSIG=
201812300500 METAR MROC 300500Z 09016KT CAVOK 21/15 A2995 NOSIG=
201812300600 METAR MROC 300600Z 10011KT CAVOK 21/15 A2995 NOSIG=
201812300700 METAR MROC 300700Z 09014KT CAVOK 21/15 A2994 NOSIG=
201812300800 METAR MROC 300800Z 10013KT CAVOK 21/15 A2992 NOSIG=
201812300900 METAR MROC 300900Z 09016KT CAVOK 21/15 A2991 NOSIG=
201812301000 METAR MROC 301000Z 10016KT CAVOK 21/15 A2993 NOSIG=
201812301100 METAR MROC 301100Z 10013KT CAVOK 21/14 A2995 NOSIG=
201812301200 METAR MROC 301200Z 10010KT CAVOK 21/14 A2996 NOSIG=
201812301300 METAR MROC 301300Z 09016KT CAVOK 22/15 A2997 NOSIG=
201812301400 METAR MROC 301400Z 08016G26KT CAVOK 25/14 A2998 NOSIG=
201812301500 METAR MROC 301500Z 08017G27KT CAVOK 26/14 A2998 NOSIG=
201812301600 METAR MROC 301600Z 10017G30KT 060V120 9999 FEW045 27/15 A2997 NOSIG=
201812301700 METAR MROC 301700Z COR 09020G30KT 9999 FEW045 28/15 A2994 WS R07 NOSIG=
201812301800 METAR MROC 301800Z 09018G28KT 9999 FEW045 28/14 A2994 WS R07 NOSIG=
201812301900 METAR MROC 301900Z 09012KT CAVOK 28/14 A2989 WS R07 NOSIG=
201812302000 METAR MROC 302000Z 10014KT CAVOK 28/15 A2989 WS R07 NOSIG=
201812302100 METAR MROC 302100Z 10012KT 070V130 CAVOK 28/15 A2989 WS R07 NOSIG=
201812302200 METAR MROC 302200Z 11011KT 070V140 CAVOK 27/15 A2990 WS R07 NOSIG=
201812302300 METAR MROC 302300Z 09012KT 060V120 9999 FEW045 25/15 A2992 WS R07 NOSIG=
201812310000 METAR MROC 310000Z 11011G21KT 9999 FEW045 22/16 A2994 NOSIG=
201812310100 METAR MROC 310100Z 11013KT CAVOK 22/15 A2995 NOSIG=
201812310200 METAR MROC 310200Z 11013KT CAVOK 21/14 A2996 NOSIG=
201812310300 METAR MROC 310300Z 11013KT CAVOK 21/14 A2997 NOSIG=
201812310400 METAR MROC 310400Z 10013KT CAVOK 21/14 A2997 NOSIG=
201812310500 METAR MROC 310500Z 09010G22KT 040V120 CAVOK 20/13 A2997 NOSIG=
201812310600 METAR MROC 310600Z 09010G21KT 040V130 CAVOK 20/14 A2996 NOSIG=
201812310700 METAR MROC 310700Z 11018G29KT CAVOK 20/14 A2994 NOSIG=
201812310800 METAR MROC 310800Z 11017KT CAVOK 20/15 A2992 NOSIG=
201812310900 METAR MROC 310900Z 10016KT CAVOK 20/14 A2992 NOSIG=
201812311000 METAR MROC 311000Z 10015KT CAVOK 20/14 A2993 NOSIG=
201812311100 METAR MROC 311100Z 10019G29KT CAVOK 20/14 A2995 NOSIG=
201812311200 METAR MROC 311200Z 10018G30KT CAVOK 20/14 A2996 NOSIG=
201812311300 METAR MROC 311300Z 11018G29KT CAVOK 21/13 A2997 NOSIG=
201812311400 METAR MROC 311400Z 11017G29KT 080V140 CAVOK 23/12 A2997 NOSIG=
201812311500 METAR MROC 311500Z 10017KT CAVOK 25/12 A2997 NOSIG=
201812311600 METAR MROC 311600Z 09019G29KT CAVOK 26/11 A2996 NOSIG=
201812311700 METAR MROC 311700Z 09020KT 060V120 CAVOK 27/12 A2993 NOSIG=
201812311800 METAR MROC 311800Z 08017KT 050V110 CAVOK 28/11 A2990 NOSIG=
201812311900 METAR MROC 311900Z 08018G28KT CAVOK 28/11 A2987 NOSIG=
201812312000 METAR MROC 312000Z 08015KT 050V110 CAVOK 28/11 A2986 NOSIG=
201812312100 METAR MROC 312100Z 08016G26KT 050V110 CAVOK 27/12 A2986 NOSIG=
201812312200 METAR MROC 312200Z 08016G26KT CAVOK 27/12 A2987 NOSIG=
201812312300 METAR MROC 312300Z 09013G24KT 060V120 9999 FEW040 25/12 A2988 NOSIG=
