202001010000 METAR MROC 010000Z 08013KT 9999 FEW035 BKN200 23/15 A2999 NOSIG=
202001010100 METAR MROC 010100Z 13006KT CAVOK 21/16 A3001 NOSIG=
202001010200 METAR MROC 010200Z 08009G19KT 050V120 CAVOK 21/16 A3005 NOSIG=
202001010300 METAR MROC 010300Z 06008G18KT CAVOK 22/13 A3006 NOSIG=
202001010400 METAR MROC 010400Z 10009KT 070V130 CAVOK 21/14 A3006 NOSIG=
202001010500 METAR MROC 010500Z VRB02KT CAVOK 20/13 A3005 NOSIG=
202001010600 METAR MROC 010600Z 09012G22KT CAVOK 21/13 A3001 NOSIG=
202001010700 METAR MROC 010700Z 11010KT 060V140 CAVOK 21/14 A2999 NOSIG=
202001010800 METAR MROC 010800Z 11012KT CAVOK 21/14 A2997 NOSIG=
202001010900 METAR MROC 010900Z 11011KT 080V140 CAVOK 20/14 A2995 NOSIG=
202001011000 METAR MROC 011000Z 11010KT 080V150 CAVOK 20/14 A2996 NOSIG=
202001011100 METAR MROC 011100Z 08006KT 020V130 CAVOK 20/14 A2998 NOSIG=
202001011200 METAR MROC 011200Z 07004KT 050V130 CAVOK 20/13 A3000 NOSIG=
202001011300 METAR MROC 011300Z 09008KT 030V130 CAVOK 21/14 A3002 NOSIG=
202001011400 METAR MROC 011400Z 11007G17KT 060V150 CAVOK 23/15 A3004 NOSIG=
202001011500 METAR MROC 011500Z 12010G20KT 070V150 CAVOK 26/13 A3004 NOSIG=
202001011600 METAR MROC 011600Z 13010G20KT 090V180 CAVOK 27/13 A3004 NOSIG=
202001011700 METAR MROC 011700Z 10015KT 070V170 CAVOK 28/14 A3003 NOSIG=
202001011800 METAR MROC 011800Z 13008G18KT 080V160 CAVOK 28/15 A3000 NOSIG=
202001011900 METAR MROC 011900Z 12012KT 090V170 CAVOK 28/16 A2998 NOSIG=
202001012000 METAR MROC 012000Z 22007KT 170V300 9999 FEW045 SCT060 BKN180 27/19 A2995 NOSIG=
202001012100 METAR MROC 012100Z VRB04KT CAVOK 26/20 A2994 NOSIG=
202001012200 METAR MROC 012200Z 23008KT 190V260 CAVOK 24/20 A2994 NOSIG=
202001012300 METAR MROC 012300Z 24007KT 210V270 9999 FEW010 23/21 A2995 NOSIG=
202001020000 METAR MROC 020000Z VRB06KT 9999 FEW006 22/20 A2997 NOSIG=
202001020100 METAR MROC 020100Z VRB02KT 9999 FEW007 21/20 A2999 NOSIG=
202001020200 METAR MROC 020200Z COR VRB01KT CAVOK 21/20 A3002 NOSIG=
202001020300 METAR MROC 020300Z 08007KT CAVOK 21/16 A3003 NOSIG=
202001020400 METAR MROC 020400Z 08008KT CAVOK 22/16 A3003 NOSIG=
202001020500 METAR MROC 020500Z 09009KT CAVOK 21/15 A3002 NOSIG=
202001020600 METAR MROC 020600Z 03006KT 9999 FEW045 SCT200 20/16 A3001 NOSIG=
202001020700 METAR MROC 020700Z 07005KT 030V100 9999 FEW045 SCT200 21/16 A2999 NOSIG=
202001020800 METAR MROC 020800Z 09007KT 060V120 9999 FEW040 BKN065 21/16 A2996 NOSIG=
202001020900 METAR MROC 020900Z 09006KT 050V120 9999 FEW045 21/15 A2995 NOSIG=
202001021000 METAR MROC 021000Z 08009KT 060V120 CAVOK 21/15 A2996 NOSIG=
202001021100 METAR MROC 021100Z 08007KT 040V110 CAVOK 21/15 A2998 NOSIG=
202001021200 METAR MROC 021200Z 07007KT CAVOK 21/14 A3000 NOSIG=
202001021300 METAR MROC 021300Z 09010KT CAVOK 21/13 A3002 NOSIG=
202001021400 METAR MROC 021400Z 09007KT 040V140 CAVOK 23/14 A3004 NOSIG=
202001021500 METAR MROC 021500Z 10010KT 080V150 CAVOK 24/14 A3005 NOSIG=
202001021600 METAR MROC 021600Z 10009KT 070V140 CAVOK 27/15 A3004 NOSIG=
202001021700 METAR MROC 021700Z 12007KT 080V180 CAVOK 27/15 A3004 NOSIG=
202001021800 METAR MROC 021800Z 25004KT 180V240 CAVOK 28/17 A3000 NOSIG=
202001021900 METAR MROC 021900Z VRB05KT CAVOK 27/18 A2997 NOSIG=
202001021923 METAR MROC 021923Z 23010KT 200V260 CAVOK 26/19 A2996 NOSIG=
202001022000 METAR MROC 022000Z 23010KT 9999 BKN045 24/20 A2996 NOSIG=
202001022100 METAR MROC 022100Z 24006KT 9999 SCT040 BKN200 23/20 A2996 NOSIG=
202001022200 METAR MROC 022200Z 22006KT 9999 BKN025 SCT200 23/20 A2998 NOSIG=
202001022300 METAR MROC 022300Z 28003KT 9999 SCT035 BKN200 23/20 A2998 NOSIG=
202001030000 METAR MROC 030000Z 23005KT 190V250 9999 SCT035 BKN200 22/20 A3000 BECMG 09007KT=
202001030100 METAR MROC 030100Z 29005KT 260V330 9999 FEW035 SCT120 22/20 A3003 NOSIG=
202001030200 METAR MROC 030200Z 20003KT 160V240 9999 FEW030 SCT120 21/19 A3005 NOSIG=
202001030300 METAR MROC 030300Z VRB02KT 9999 FEW035 SCT120 22/19 A3006 NOSIG=
202001030400 METAR MROC 030400Z 07004KT 010V130 CAVOK 22/17 A3007 NOSIG=
202001030500 METAR MROC 030500Z VRB02KT 9999 FEW035 SCT100 21/17 A3006 NOSIG=
202001030600 METAR MROC 030600Z 12005KT 080V150 9999 FEW035 BKN100 21/17 A3004 NOSIG=
202001030700 METAR MROC 030700Z 09008KT CAVOK 21/16 A3002 NOSIG=
202001030800 METAR MROC 030800Z 08007KT CAVOK 21/16 A3000 NOSIG=
202001030900 METAR MROC 030900Z 07003KT 030V110 CAVOK 20/17 A3000 NOSIG=
202001031000 METAR MROC 031000Z 07004KT CAVOK 20/16 A3001 NOSIG=
202001031100 METAR MROC 031100Z 07005KT CAVOK 19/16 A3003 NOSIG=
202001031200 METAR MROC 031200Z 08005KT CAVOK 19/16 A3005 NOSIG=
202001031300 METAR MROC 031300Z 07006KT CAVOK 20/16 A3007 NOSIG=
202001031400 METAR MROC 031400Z 07008KT CAVOK 23/16 A3009 NOSIG=
202001031500 METAR MROC 031500Z 10008KT 070V150 CAVOK 25/17 A3010 NOSIG=
202001031600 METAR MROC 031600Z 09005KT 050V200 CAVOK 27/17 A3009 NOSIG=
202001031700 METAR MROC 031700Z VRB04KT 9999 FEW048 28/17 A3007 NOSIG=
202001031800 METAR MROC 031800Z 25010KT 9999 SCT045 28/19 A3005 NOSIG=
202001031900 METAR MROC 031900Z 23010KT 190V250 9999 SCT045 28/19 A3002 NOSIG=
202001032000 METAR MROC 032000Z 22010KT 190V250 9999 SCT040 28/20 A3000 NOSIG=
202001032100 METAR MROC 032100Z 25011KT 220V280 9999 FEW025 SCT040 BKN060 27/20 A3000 NOSIG=
202001032200 METAR MROC 032200Z 25009KT 9999 FEW020 BKN030 25/20 A3001 NOSIG=
202001032300 METAR MROC 032300Z 23008KT 9999 SCT018 BKN035 24/21 A3003 NOSIG=
202001040000 METAR MROC 040000Z 24005KT 9999 FEW015 SCT040 23/20 A3004 NOSIG=
202001040100 METAR MROC 040100Z 24004KT 210V280 9999 SCT008 SCT015 22/21 A3008 NOSIG=
202001040200 METAR MROC 040200Z VRB02KT 9999 FEW015 SCT045 22/21 A3010 NOSIG=
202001040300 METAR MROC 040300Z VRB03KT CAVOK 21/20 A3011 BECMG 07005KT=
202001040400 METAR MROC 040400Z 11007KT CAVOK 21/18 A3011 NOSIG=
202001040500 METAR MROC 040500Z 08007KT CAVOK 21/18 A3010 NOSIG=
202001040600 METAR MROC 040600Z 04006KT 010V070 CAVOK 21/17 A3008 NOSIG=
202001040700 METAR MROC 040700Z VRB02KT CAVOK 20/17 A3006 NOSIG=
202001040800 METAR MROC 040800Z 08006KT CAVOK 20/16 A3005 NOSIG=
202001040900 METAR MROC NIL=
202001041000 METAR MROC NIL=
202001041100 METAR MROC 041100Z 07006KT 020V110 CAVOK 21/15 A3008 NOSIG=
202001041200 METAR MROC 041200Z 04007KT 010V080 CAVOK 21/15 A3009 NOSIG=
202001041300 METAR MROC 041300Z 04007KT CAVOK 22/15 A3012 NOSIG=
202001041400 METAR MROC 041400Z 08007KT CAVOK 25/15 A3014 NOSIG=
202001041500 METAR MROC 041500Z 11010KT 070V140 CAVOK 27/16 A3013 NOSIG=
202001041600 METAR MROC 041600Z 11009KT 070V190 CAVOK 28/16 A3012 NOSIG=
202001041700 METAR MROC 041700Z 11011KT 080V150 9999 FEW035 28/16 A3010 NOSIG=
202001041800 METAR MROC 041800Z 09012G22KT 060V120 9999 FEW040 28/16 A3008 NOSIG=
202001041900 METAR MROC 041900Z 11011KT 070V150 9999 FEW040 28/16 A3006 NOSIG=
202001042000 METAR MROC 042000Z 09012KT 050V130 9999 FEW030 29/16 A3003 NOSIG=
202001042100 METAR MROC 042100Z 09011G21KT 050V120 9999 SCT045 29/16 A3002 NOSIG=
202001042200 METAR MROC 042200Z 10013KT 070V130 9999 FEW045 28/15 A3003 NOSIG=
202001042300 METAR MROC 042300Z 08012KT 050V110 9999 FEW045 26/15 A3004 NOSIG=
202001050000 METAR MROC 050000Z 11008KT 070V130 9999 FEW045 24/16 A3007 NOSIG=
202001050100 METAR MROC 050100Z 06009KT 010V100 CAVOK 23/16 A3009 NOSIG=
202001050200 METAR MROC 050200Z 08013KT 050V110 CAVOK 23/15 A3012 NOSIG=
202001050300 METAR MROC 050300Z 09009KT 060V130 CAVOK 21/16 A3013 NOSIG=
202001050400 METAR MROC 050400Z 11009KT 090V160 CAVOK 21/16 A3013 NOSIG=
202001050500 METAR MROC 050500Z 10010G20KT 050V170 CAVOK 22/16 A3013 NOSIG=
202001050600 METAR MROC 050600Z 10017G27KT CAVOK 21/15 A3012 NOSIG=
202001050700 METAR MROC 050700Z 11015G26KT 080V140 CAVOK 21/16 A3010 NOSIG=
202001050800 METAR MROC 050800Z 11014KT CAVOK 21/15 A3009 NOSIG=
202001050900 METAR MROC 050900Z 10015KT CAVOK 21/15 A3007 NOSIG=
202001051000 METAR MROC 051000Z 10016G30KT CAVOK 21/16 A3007 NOSIG=
202001051100 METAR MROC 051100Z 10020G30KT CAVOK 21/16 A3007 NOSIG=
202001051200 METAR MROC 051200Z 10019G29KT CAVOK 21/16 A3009 NOSIG=
202001051300 METAR MROC 051300Z 10021G31KT 9999 FEW045 21/16 A3012 NOSIG=
202001051400 METAR MROC 051400Z 10025G38KT 9999 FEW045 23/15 A3014 NOSIG=
202001051500 METAR MROC 051500Z 10024G37KT 9999 FEW045 24/14 A3014 NOSIG=
202001051600 METAR MROC 051600Z 08022G33KT 9999 FEW045 26/11 A3014 NOSIG=
202001051700 METAR MROC 051700Z 08019G32KT 9999 FEW010 28/09 A3011 NOSIG=
202001051800 METAR MROC 051800Z 08018KT 9999 FEW015 28/09 A3008 NOSIG=
202001051900 METAR MROC 051900Z 09015G25KT 050V120 CAVOK 29/08 A3004 NOSIG=
202001052000 METAR MROC 052000Z 11016KT 080V140 CAVOK 29/11 A3003 NOSIG=
202001052100 METAR MROC 052100Z 08014KT 9999 FEW045 28/13 A3003 NOSIG=
202001052200 METAR MROC 052200Z 09018KT 9999 FEW045 26/15 A3003 NOSIG=
202001052300 METAR MROC 052300Z 10013KT 070V130 9999 FEW040 25/16 A3004 NOSIG=
202001060000 METAR MROC 060000Z 08007KT 010V150 9999 SCT040 24/17 A3006 NOSIG=
202001060100 METAR MROC 060100Z 08011KT 9999 SCT040 24/17 A3009 NOSIG=
202001060200 METAR MROC 060200Z 08006KT 050V120 9999 FEW040 22/17 A3011 NOSIG=
202001060300 METAR MROC 060300Z 08010KT 9999 SCT040 22/18 A3012 NOSIG=
202001060400 METAR MROC 060400Z 10009KT 060V130 9999 FEW040 SCT110 22/18 A3011 NOSIG=
202001060500 METAR MROC 060500Z 11007KT 060V140 9999 FEW035 SCT060 22/17 A3010 NOSIG=
202001060600 METAR MROC 060600Z 11010KT 080V140 9999 FEW035 22/17 A3007 NOSIG=
202001060700 METAR MROC 060700Z 08016KT 9999 FEW045 22/13 A3006 NOSIG=
202001060800 METAR MROC 060800Z 09011KT CAVOK 22/13 A3004 NOSIG=
202001060900 METAR MROC 060900Z 09010KT CAVOK 22/14 A3002 NOSIG=
202001061000 METAR MROC 061000Z 10017KT CAVOK 22/14 A3002 NOSIG=
202001061100 METAR MROC 061100Z 09017KT CAVOK 22/14 A3002 NOSIG=
202001061200 METAR MROC 061200Z 09015KT CAVOK 22/14 A3003 NOSIG=
202001061300 METAR MROC 061300Z 08015KT CAVOK 23/14 A3006 NOSIG=
202001061400 METAR MROC 061400Z 09017KT CAVOK 25/14 A3007 NOSIG=
202001061500 METAR MROC 061500Z 08017G27KT CAVOK 27/14 A3007 NOSIG=
202001061600 METAR MROC 061600Z 07021G34KT CAVOK 28/14 A3007 NOSIG=
202001061700 METAR MROC 061700Z 08020G30KT CAVOK 29/14 A3005 NOSIG=
202001061800 METAR MROC 061800Z 08019G29KT 040V100 CAVOK 28/15 A3003 NOSIG=
202001061900 METAR MROC 061900Z 08018KT CAVOK 28/15 A3003 NOSIG=
202001062000 METAR MROC 062000Z 07018G30KT CAVOK 28/15 A2997 NOSIG=
202001062100 METAR MROC 062100Z 07019KT 040V100 CAVOK 27/15 A2997 NOSIG=
202001062200 METAR MROC 062200Z 06021G31KT CAVOK 26/15 A2998 NOSIG=
202001062300 METAR MROC 062300Z 08015G26KT CAVOK 24/15 A3000 NOSIG=
202001070000 METAR MROC 070000Z 09015KT CAVOK 23/15 A3002 NOSIG=
202001070100 METAR MROC 070100Z 09015KT CAVOK 22/14 A3003 NOSIG=
202001070200 METAR MROC 070200Z 10012G24KT CAVOK 21/14 A3005 NOSIG=
202001070300 METAR MROC 070300Z 11013G23KT CAVOK 21/14 A3006 NOSIG=
202001070400 METAR MROC 070400Z 09012KT CAVOK 21/13 A3006 NOSIG=
202001070500 METAR MROC 070500Z 11012KT CAVOK 21/13 A3006 NOSIG=
202001070600 METAR MROC 070600Z 11011KT CAVOK 21/13 A3005 NOSIG=
202001070700 METAR MROC 070700Z 11014KT CAVOK 21/13 A3003 NOSIG=
202001070800 METAR MROC 070800Z 12013KT 100V160 CAVOK 20/14 A3001 NOSIG=
202001070900 METAR MROC 070900Z 12013KT 090V150 CAVOK 20/13 A3000 NOSIG=
202001071000 METAR MROC 071000Z 12013KT 090V150 CAVOK 20/13 A3000 NOSIG=
202001071100 METAR MROC 071100Z 11014KT CAVOK 20/13 A3001 NOSIG=
202001071200 METAR MROC 071200Z 11017KT CAVOK 20/13 A3001 NOSIG=
202001071300 METAR MROC 071300Z 12013KT 090V150 CAVOK 21/13 A3004 NOSIG=
202001071400 METAR MROC 071400Z 11016G26KT CAVOK 23/14 A3007 NOSIG=
202001071500 METAR MROC 071500Z 11016G26KT CAVOK 24/15 A3008 NOSIG=
202001071600 METAR MROC 071600Z 09019G29KT CAVOK 25/13 A3008 NOSIG=
202001071700 METAR MROC 071700Z 09020G30KT CAVOK 26/12 A3007 NOSIG=
202001071800 METAR MROC 071800Z 07020G33KT 040V110 CAVOK 27/11 A3004 NOSIG=
202001071900 METAR MROC 071900Z 06022KT CAVOK 28/12 A3002 NOSIG=
202001072000 METAR MROC 072000Z 06020G30KT CAVOK 28/10 A3000 NOSIG=
202001072100 METAR MROC 072100Z 06020KT CAVOK 27/12 A2999 NOSIG=
202001072200 METAR MROC 072200Z 07019KT CAVOK 26/13 A2999 NOSIG=
202001072300 METAR MROC 072300Z 07015KT CAVOK 24/13 A3000 NOSIG=
202001080000 METAR MROC 080000Z 08015KT CAVOK 23/13 A3002 NOSIG=
202001080100 METAR MROC 080100Z 08017KT CAVOK 22/12 A3004 NOSIG=
202001080200 METAR MROC 080200Z 10015KT CAVOK 22/12 A3005 NOSIG=
202001080300 METAR MROC 080300Z 09016KT CAVOK 21/14 A3006 NOSIG=
202001080400 METAR MROC 080400Z 09018KT CAVOK 21/15 A3005 NOSIG=
202001080500 METAR MROC 080500Z 11020G30KT CAVOK 21/15 A3004 NOSIG=
202001080600 METAR MROC 080600Z 09021G31KT CAVOK 22/15 A3004 NOSIG=
202001080700 METAR MROC 080700Z 09019G30KT CAVOK 22/15 A3002 NOSIG=
202001080800 METAR MROC 080800Z 09023G34KT 9999 FEW045 22/14 A3000 NOSIG=
202001080900 METAR MROC 080900Z 09017G27KT 9999 FEW045 22/13 A3000 NOSIG=
202001081000 METAR MROC 081000Z 09016G27KT CAVOK 21/11 A3000 NOSIG=
202001081100 METAR MROC 081100Z 09015G25KT CAVOK 21/13 A3001 NOSIG=
202001081200 METAR MROC 081200Z 10014KT CAVOK 21/11 A3002 NOSIG=
202001081300 METAR MROC 081300Z 10016KT CAVOK 21/13 A3004 NOSIG=
202001081400 METAR MROC 081400Z 10013KT CAVOK 23/14 A3006 NOSIG=
202001081500 METAR MROC 081500Z 08023G35KT CAVOK 25/14 A3006 NOSIG=
202001081600 METAR MROC 081600Z 07025G37KT CAVOK 25/15 A3007 NOSIG=
202001081700 METAR MROC 081700Z 07025G35KT 9999 FEW045 27/14 A3004 NOSIG=
202001081800 METAR MROC 081800Z 07026KT 9999 FEW045 27/15 A3003 NOSIG=
202001081900 METAR MROC 081900Z 08017KT 9999 FEW045 SCT120 26/15 A2999 NOSIG=
202001082000 METAR MROC 082000Z 07016KT 050V110 9999 FEW045 SCT140 26/16 A2998 NOSIG=
202001082100 METAR MROC 082100Z 08015G25KT 9999 FEW040 25/16 A2996 NOSIG=
202001082200 METAR MROC 082200Z 10013G23KT 9999 FEW045 24/17 A2996 NOSIG=
202001082300 METAR MROC 082300Z 10013G23KT 9999 FEW045 24/17 A2995 NOSIG=
202001090000 METAR MROC 090000Z 09015KT 9999 FEW040 23/16 A2997 NOSIG=
202001090100 METAR MROC 090100Z 09016KT 9999 FEW035 23/16 A2999 NOSIG=
202001090200 METAR MROC 090200Z 10014G26KT 9999 FEW035 23/17 A3001 NOSIG=
202001090300 METAR MROC 090300Z 10011KT 070V140 9999 FEW040 22/17 A3003 NOSIG=
202001090400 METAR MROC 090400Z 10011G21KT 9999 FEW040 22/17 A3004 NOSIG=
202001090500 METAR MROC 090500Z 08010G20KT 9999 FEW040 22/16 A3004 NOSIG=
202001090600 METAR MROC 090600Z 10010G20KT CAVOK 22/16 A3002 NOSIG=
202001090700 METAR MROC 090700Z 09015G25KT CAVOK 22/17 A2999 NOSIG=
202001090800 METAR MROC 090800Z 08017G27KT CAVOK 23/15 A2998 NOSIG=
202001090900 METAR MROC 090900Z 10017G27KT CAVOK 22/16 A2999 NOSIG=
202001091000 METAR MROC 091000Z 09013KT 070V130 CAVOK 22/15 A2998 NOSIG=
202001091100 METAR MROC 091100Z 10014G24KT CAVOK 21/15 A2997 NOSIG=
202001091200 METAR MROC 091200Z 09017G27KT CAVOK 22/15 A2998 NOSIG=
202001091300 METAR MROC 091300Z 09015G25KT CAVOK 23/15 A3001 NOSIG=
202001091400 METAR MROC 091400Z 08018G28KT CAVOK 25/15 A3004 NOSIG=
202001091500 METAR MROC 091500Z 09021G31KT 9999 FEW045 25/15 A3004 NOSIG=
202001091600 METAR MROC 091600Z 08023G35KT 9999 FEW045 26/15 A3005 NOSIG=
202001091700 METAR MROC 091700Z 08020G30KT 050V110 9999 FEW045 27/14 A3002 NOSIG=
202001091800 METAR MROC 091800Z 08021G31KT 9999 FEW045 27/15 A3000 NOSIG=
202001091900 METAR MROC 091900Z 06023G34KT 9999 FEW045 28/14 A2997 NOSIG=
202001092000 METAR MROC 092000Z 06025G35KT 9999 FEW045 28/15 A2994 NOSIG=
202001092100 METAR MROC 092100Z 07023G36KT 9999 FEW045 28/12 A2994 NOSIG=
202001092200 METAR MROC 092200Z 07024G35KT 9999 FEW045 26/14 A2994 NOSIG=
202001092300 METAR MROC 092300Z 08019G29KT CAVOK 25/13 A2994 NOSIG=
202001100000 METAR MROC 100000Z 08015KT CAVOK 23/13 A2995 NOSIG=
202001100100 METAR MROC 100100Z 08014KT CAVOK 23/13 A2996 NOSIG=
202001100200 METAR MROC 100200Z 09015KT CAVOK 22/14 A2996 NOSIG=
202001100300 METAR MROC 100300Z 09014KT CAVOK 21/14 A2997 NOSIG=
202001100400 METAR MROC 100400Z 09017KT CAVOK 21/13 A2997 NOSIG=
202001100500 METAR MROC 100500Z 09016KT CAVOK 21/12 A2997 NOSIG=
202001100600 METAR MROC 100600Z 09016G28KT CAVOK 21/13 A2995 NOSIG=
202001100700 METAR MROC 100700Z 09016KT CAVOK 21/14 A2993 NOSIG=
202001100800 METAR MROC 100800Z 09014KT CAVOK 20/15 A2992 NOSIG=
202001100900 METAR MROC 100900Z 10014G24KT CAVOK 21/14 A2992 NOSIG=
202001101000 METAR MROC 101000Z 10013KT CAVOK 20/14 A2992 NOSIG=
202001101100 METAR MROC 101100Z 11012KT CAVOK 20/14 A2993 NOSIG=
202001101200 METAR MROC 101200Z 11010KT 080V140 CAVOK 20/14 A2993 NOSIG=
202001101300 METAR MROC 101300Z 10013KT CAVOK 22/14 A2996 NOSIG=
202001101400 METAR MROC 101400Z 09013KT CAVOK 23/13 A2998 NOSIG=
202001101500 METAR MROC 101500Z 10014KT CAVOK 26/11 A2999 RWY07 NOSIG=
202001101600 METAR MROC 101600Z 08017G27KT 060V120 CAVOK 27/13 A2998 WS R07 NOSIG=
202001101700 METAR MROC 101700Z 09019KT CAVOK 27/13 A2996 WS R07 NOSIG=
202001101800 METAR MROC 101800Z 09017G30KT 060V120 9999 FEW020 28/12 A2993 WS R07 NOSIG=
202001101900 METAR MROC 101900Z 08020KT 9999 FEW020 27/13 A2991 WS R07 NOSIG=
202001102000 METAR MROC 102000Z 07023KT 9999 FEW045 27/14 A2989 WS R07 NOSIG=
202001102100 METAR MROC 102100Z COR 07019KT 9999 FEW045 27/15 A2987 NOSIG=
202001102200 METAR MROC 102200Z 06024KT 9999 FEW040 27/15 A2986 NOSIG=
202001102300 METAR MROC 102300Z 07018KT 9999 FEW040 25/16 A2987 NOSIG=
202001110000 METAR MROC 110000Z 08016KT 9999 FEW040 23/15 A2988 NOSIG=
202001110100 METAR MROC 110100Z 08014KT 9999 FEW040 22/16 A2991 NOSIG=
202001110200 METAR MROC 110200Z 09013KT 9999 FEW040 22/16 A2994 NOSIG=
202001110300 METAR MROC 110300Z 09015KT 9999 FEW040 22/16 A2995 NOSIG=
202001110400 METAR MROC 110400Z 10013KT CAVOK 22/15 A2995 NOSIG=
202001110500 METAR MROC 110500Z 09017KT CAVOK 22/15 A2995 NOSIG=
202001110600 METAR MROC 110600Z 10013KT CAVOK 22/15 A2994 NOSIG=
202001110700 METAR MROC 110700Z 09013G23KT CAVOK 22/15 A2993 NOSIG=
202001110800 METAR MROC 110800Z 08013KT CAVOK 21/15 A2992 NOSIG=
202001110900 METAR MROC 110900Z 09013KT CAVOK 22/15 A2992 NOSIG=
202001111000 METAR MROC 111000Z 11010KT CAVOK 21/15 A2992 NOSIG=
202001111100 METAR MROC 111100Z 11013KT CAVOK 21/15 A2992 NOSIG=
202001111200 METAR MROC 111200Z 11014G24KT CAVOK 21/16 A2993 NOSIG=
202001111300 METAR MROC 111300Z 10012G22KT 070V140 CAVOK 22/15 A2996 NOSIG=
202001111400 METAR MROC 111400Z 11013G23KT 080V140 CAVOK 23/15 A2997 NOSIG=
202001111500 METAR MROC 111500Z 11017G29KT CAVOK 25/15 A2997 NOSIG=
202001111600 METAR MROC 111600Z 11016G26KT 080V150 CAVOK 27/15 A2997 NOSIG=
202001111700 METAR MROC 111700Z 11015KT 080V140 CAVOK 28/16 A2996 NOSIG=
202001111800 METAR MROC 111800Z 10012KT 070V150 CAVOK 29/15 A2994 NOSIG=
202001111900 METAR MROC 111900Z 10012KT CAVOK 29/16 A2991 NOSIG=
202001112000 METAR MROC 112000Z 10013G23KT 060V140 CAVOK 29/15 A2988 NOSIG=
202001112100 METAR MROC 112100Z 09011KT 070V150 CAVOK 29/16 A2987 NOSIG=
202001112200 METAR MROC 112200Z 09011KT 060V150 CAVOK 29/16 A2988 NOSIG=
202001112300 METAR MROC 112300Z 06009KT 360V110 CAVOK 28/16 A2990 NOSIG=
202001120000 METAR MROC 120000Z VRB02KT CAVOK 24/19 A2993 NOSIG=
202001120100 METAR MROC 120100Z VRB03KT CAVOK 23/18 A2997 NOSIG=
202001120200 METAR MROC 120200Z 11010KT 070V130 CAVOK 22/16 A3000 NOSIG=
202001120300 METAR MROC 120300Z 11010G20KT CAVOK 22/16 A3001 NOSIG=
202001120400 METAR MROC 120400Z COR 09009KT 040V130 CAVOK 22/16 A3001 NOSIG=
202001120500 METAR MROC 120500Z 11013G26KT 080V140 CAVOK 22/16 A2988 NOSIG=
202001120600 METAR MROC 120600Z 11016G28KT CAVOK 22/17 A2997 NOSIG=
202001120700 METAR MROC 120700Z 11015G25KT 9999 FEW040 22/17 A2995 NOSIG=
202001120800 METAR MROC 120800Z 10013G23KT 060V130 9999 FEW040 22/17 A2993 NOSIG=
202001120900 METAR MROC 120900Z 11017KT 9999 FEW040 22/17 A2992 NOSIG=
202001121000 METAR MROC 121000Z 11016G26KT 9999 FEW040 22/17 A2993 NOSIG=
202001121100 METAR MROC 121100Z 11017KT 9999 FEW040 22/16 A2993 NOSIG=
202001121200 METAR MROC 121200Z 11017KT 9999 FEW040 22/17 A2995 NOSIG=
202001121300 METAR MROC 121300Z 11014G24KT 9999 FEW040 22/16 A2997 NOSIG=
202001121400 METAR MROC 121400Z 10017G29KT 9999 FEW040 24/17 A3000 NOSIG=
202001121500 METAR MROC 121500Z 08017G28KT 060V120 9999 FEW045 26/17 A3001 NOSIG=
202001121600 METAR MROC 121600Z 09020G30KT 9999 FEW045 26/17 A3002 NOSIG=
202001121700 METAR MROC 121700Z 09019G30KT 9999 FEW040 27/17 A3000 NOSIG=
202001121800 METAR MROC 121800Z 07023G34KT 9999 FEW040 27/16 A2997 NOSIG=
202001121900 METAR MROC 121900Z 07023G33KT 9999 FEW040 28/16 A2994 NOSIG=
202001122000 METAR MROC 122000Z 07020KT 9999 FEW040 28/16 A2991 NOSIG=
202001122100 METAR MROC 122100Z 07021KT 9999 FEW040 27/15 A2990 NOSIG=
202001122200 METAR MROC 122200Z 07022G33KT 9999 FEW040 26/15 A2990 NOSIG=
202001122300 METAR MROC 122300Z 07022KT 9999 FEW040 25/15 A2991 NOSIG=
202001130000 METAR MROC 130000Z 08019KT CAVOK 24/15 A2992 NOSIG=
202001130100 METAR MROC 130100Z 08016KT CAVOK 23/16 A2996 NOSIG=
202001130200 METAR MROC 130200Z 09008KT CAVOK 22/17 A2999 NOSIG=
202001130300 METAR MROC 130300Z 10010KT 070V140 CAVOK 23/16 A3000 NOSIG=
202001130400 METAR MROC 130400Z 09011KT 9999 FEW040 22/17 A2999 NOSIG=
202001130500 METAR MROC 130500Z 10012KT 9999 FEW040 SCT100 22/16 A3000 NOSIG=
202001130600 METAR MROC 130600Z 10014G24KT 060V130 9999 FEW040 SCT100 22/16 A2999 NOSIG=
202001130700 METAR MROC 130700Z 10014G24KT 9999 FEW045 22/16 A2998 NOSIG=
202001130800 METAR MROC 130800Z 10011KT 9999 FEW040 SCT100 22/16 A2996 NOSIG=
202001130900 METAR MROC 130900Z 11015G25KT 9999 FEW040 SCT100 22/15 A2997 NOSIG=
202001131000 METAR MROC 131000Z 08020KT CAVOK 21/15 A2995 NOSIG=
202001131100 METAR MROC 131100Z 08022G32KT CAVOK 21/15 A2995 NOSIG=
202001131200 METAR MROC 131200Z 08019G29KT 9999 FEW040 SCT100 21/15 A2996 NOSIG=
202001131300 METAR MROC NIL=
202001131400 METAR MROC 131400Z 10015G27KT 9999 FEW040 SCT120 23/15 A2999 NOSIG=
202001131500 METAR MROC 131500Z 08023G33KT 9999 FEW040 25/14 A3002 NOSIG=
202001131600 METAR MROC 131600Z 09018G29KT 060V120 9999 FEW040 SCT110 26/14 A3001 NOSIG=
202001131700 METAR MROC 131700Z 10021KT 9999 FEW040 SCT120 27/14 A2999 NOSIG=
202001131800 METAR MROC 131800Z 08019KT CAVOK 28/14 A2996 NOSIG=
202001131900 METAR MROC 131900Z 10021KT CAVOK 27/13 A2995 NOSIG=
202001132000 METAR MROC 132000Z 10018G28KT 070V130 CAVOK 27/15 A2993 NOSIG=
202001132100 METAR MROC 132100Z 09019G29KT CAVOK 26/15 A2991 NOSIG=
202001132200 METAR MROC 132200Z 10017G29KT 9999 FEW045 BKN110 26/15 A2991 NOSIG=
202001132300 METAR MROC 132300Z 10014KT CAVOK 24/15 A2993 NOSIG=
202001140000 METAR MROC 140000Z 10018G28KT CAVOK 22/16 A2994 NOSIG=
202001140100 METAR MROC 140100Z 09015KT CAVOK 22/16 A2996 NOSIG=
202001140200 METAR MROC 140200Z 11015KT CAVOK 23/16 A2999 NOSIG=
202001140300 METAR MROC 140300Z 10017G29KT CAVOK 22/16 A2999 NOSIG=
202001140400 METAR MROC 140400Z 09015KT CAVOK 22/16 A3000 NOSIG=
202001140500 METAR MROC 140500Z 10013KT CAVOK 22/16 A3000 NOSIG=
202001140600 METAR MROC 140600Z 09016KT CAVOK 22/15 A2997 NOSIG=
202001140700 METAR MROC 140700Z 10018KT CAVOK 22/16 A2995 NOSIG=
202001140800 METAR MROC 140800Z 08017G27KT CAVOK 23/15 A2993 NOSIG=
202001140900 METAR MROC 140900Z 09018G28KT CAVOK 22/15 A2993 NOSIG=
202001141000 METAR MROC 141000Z 09019G29KT CAVOK 22/16 A2994 NOSIG=
202001141100 METAR MROC 141100Z 10016G26KT CAVOK 21/16 A2996 NOSIG=
202001141200 METAR MROC 141200Z 09017KT 9999 FEW040 22/15 A2997 NOSIG=
202001141300 METAR MROC 141300Z 09016KT CAVOK 22/15 A3001 NOSIG=
202001141400 METAR MROC 141400Z 10015G25KT 9999 FEW040 23/15 A3004 NOSIG=
202001141500 METAR MROC 141500Z 09015KT 9999 FEW048 25/15 A3004 NOSIG=
202001141600 METAR MROC 141600Z 07020KT 9999 FEW045 26/15 A3003 NOSIG=
202001141700 METAR MROC 141700Z 06028KT 9999 FEW048 27/14 A2999 NOSIG=
202001141800 METAR MROC 141800Z 07026G37KT 9999 FEW035 27/16 A2995 NOSIG=
202001141900 METAR MROC 141900Z 07026G40KT 9999 FEW045 27/12 A2992 NOSIG=
202001142000 METAR MROC 142000Z 06024G34KT 9999 FEW040 27/15 A2989 NOSIG=
202001142100 METAR MROC 142100Z 07027G42KT 9999 FEW040 26/14 A2987 NOSIG=
202001142200 METAR MROC 142200Z 08023G35KT 9999 FEW040 25/14 A2987 NOSIG=
202001142300 METAR MROC 142300Z 09017G27KT 9999 FEW040 24/15 A2988 NOSIG=
202001150000 METAR MROC 150000Z 08015G25KT 9999 FEW040 23/15 A2990 NOSIG=
202001150100 METAR MROC 150100Z 09015KT CAVOK 22/15 A2993 NOSIG=
202001150200 METAR MROC 150200Z 10012KT 9999 FEW020 22/15 A2995 NOSIG=
202001150300 METAR MROC 150300Z 09012KT 9999 FEW020 22/15 A2997 NOSIG=
202001150400 METAR MROC 150400Z 11013G23KT CAVOK 21/16 A2997 NOSIG=
202001150500 METAR MROC 150500Z 10015G25KT 360V120 CAVOK 21/16 A2996 NOSIG=
202001150600 METAR MROC 150600Z 10016G26KT CAVOK 22/16 A2994 NOSIG=
202001150700 METAR MROC 150700Z 10016KT CAVOK 21/16 A2994 NOSIG=
202001150800 METAR MROC 150800Z 09016KT CAVOK 21/15 A2992 NOSIG=
202001150900 METAR MROC 150900Z 09019G29KT CAVOK 21/15 A2992 NOSIG=
202001151000 METAR MROC 151000Z 09018KT CAVOK 21/15 A2991 NOSIG=
202001151100 METAR MROC 151100Z 08021G31KT CAVOK 22/14 A2991 NOSIG=
202001151200 METAR MROC 151200Z 08021KT CAVOK 21/14 A2992 NOSIG=
202001151300 METAR MROC 151300Z 08019KT CAVOK 23/14 A2994 NOSIG=
202001151400 METAR MROC 151400Z 08019KT CAVOK 25/14 A2997 NOSIG=
202001151500 METAR MROC 151500Z 08018G28KT CAVOK 26/15 A2999 NOSIG=
202001151600 METAR MROC 151600Z 07021G35KT CAVOK 26/15 A2999 NOSIG=
202001151700 METAR MROC 151700Z 07025G35KT 9999 FEW025 SCT100 27/15 A2996 NOSIG=
202001151800 METAR MROC 151800Z 08021KT 9999 FEW035 SCT100 26/14 A2995 NOSIG=
202001151900 METAR MROC 151900Z 09017KT 9999 FEW045 BKN100 26/15 A2993 NOSIG=
202001152000 METAR MROC 152000Z 09018KT 9999 FEW040 BKN100 27/15 A2992 NOSIG=
202001152100 METAR MROC 152100Z 09015KT 050V120 9999 FEW040 SCT120 26/14 A2991 NOSIG=
202001152200 METAR MROC 152200Z 09017G27KT 9999 FEW040 26/14 A2990 NOSIG=
202001152300 METAR MROC 152300Z 09017G27KT 9999 FEW045 24/14 A2991 NOSIG=
202001160000 METAR MROC 160000Z 09015G25KT 9999 FEW040 23/14 A2992 NOSIG=
202001160100 METAR MROC 160100Z 10018G28KT CAVOK 22/14 A2994 NOSIG=
202001160200 METAR MROC 160200Z 09019G29KT CAVOK 22/15 A2997 NOSIG=
202001160300 METAR MROC 160300Z 10016G26KT CAVOK 22/15 A2998 NOSIG=
202001160400 METAR MROC 160400Z 10017G27KT CAVOK 22/15 A2999 NOSIG=
202001160500 METAR MROC 160500Z 10016G28KT CAVOK 21/15 A2998 NOSIG=
202001160600 METAR MROC 160600Z 10018G30KT CAVOK 22/14 A2997 NOSIG=
202001160700 METAR MROC 160700Z 10016KT CAVOK 21/15 A2993 NOSIG=
202001160800 METAR MROC 160800Z 10015KT CAVOK 21/14 A2992 NOSIG=
202001160900 METAR MROC 160900Z 11014KT CAVOK 20/14 A2991 NOSIG=
202001161000 METAR MROC 161000Z 10013KT CAVOK 21/14 A2991 NOSIG=
202001161100 METAR MROC 161100Z 10012G23KT CAVOK 21/14 A2993 NOSIG=
202001161200 METAR MROC 161200Z 11015G25KT CAVOK 21/15 A2995 NOSIG=
202001161300 METAR MROC 161300Z 10017G27KT CAVOK 23/14 A2997 NOSIG=
202001161400 METAR MROC 161400Z 11016G28KT CAVOK 23/15 A2999 NOSIG=
202001161500 METAR MROC 161500Z 10020G33KT CAVOK 25/15 A3001 NOSIG=
202001161600 METAR MROC 161600Z 10021G33KT CAVOK 26/15 A3001 NOSIG=
202001161700 METAR MROC 161700Z 10018G28KT CAVOK 27/14 A2999 NOSIG=
202001161800 METAR MROC 161800Z 09016G26KT 9999 FEW045 28/15 A2996 NOSIG=
202001161900 METAR MROC 161900Z 09017KT 050V110 9999 FEW040 28/16 A2994 NOSIG=
202001162000 METAR MROC 162000Z 09016G27KT 9999 FEW040 28/15 A2992 NOSIG=
202001162100 METAR MROC 162100Z 08015G25KT 9999 FEW040 28/16 A2990 NOSIG=
202001162200 METAR MROC 162200Z 09017KT 9999 FEW040 27/16 A2991 NOSIG=
202001162300 METAR MROC 162300Z 08015G25KT 9999 FEW040 26/16 A2991 NOSIG=
202001170000 METAR MROC 170000Z 08018G28KT CAVOK 24/15 A2992 NOSIG=
202001170100 METAR MROC 170100Z 08017G27KT CAVOK 24/15 A2993 NOSIG=
202001170200 METAR MROC 170200Z 08019G30KT CAVOK 24/15 A2995 NOSIG=
202001170300 METAR MROC 170300Z 09018G28KT CAVOK 23/16 A2997 NOSIG=
202001170400 METAR MROC 170400Z 08016KT CAVOK 23/16 A2997 NOSIG=
202001170500 METAR MROC 170500Z 08019KT CAVOK 23/18 A2996 NOSIG=
202001170600 METAR MROC 170600Z 09014G24KT CAVOK 23/16 A2995 NOSIG=
202001170700 METAR MROC 170700Z 09019G29KT 9999 FEW035 23/16 A2992 NOSIG=
202001170800 METAR MROC 170800Z 09017KT 9999 FEW035 23/17 A2991 NOSIG=
202001170900 METAR MROC 170900Z 10016G26KT 9999 FEW035 22/17 A2990 NOSIG=
202001171000 METAR MROC 171000Z 10014KT CAVOK 23/17 A2991 NOSIG=
202001171100 METAR MROC 171100Z 09013KT CAVOK 23/16 A2992 NOSIG=
202001171200 METAR MROC 171200Z 10016KT 9999 FEW035 22/17 A2992 NOSIG=
202001171300 METAR MROC 171300Z 08019G30KT 9999 FEW045 24/17 A2995 NOSIG=
202001171400 METAR MROC 171400Z 08020KT 9999 FEW045 25/17 A2998 NOSIG=
202001171500 METAR MROC 171500Z 08018G28KT 9999 FEW045 26/17 A2997 NOSIG=
202001171600 METAR MROC 171600Z 08019KT 060V120 9999 FEW045 28/17 A2998 NOSIG=
202001171700 METAR MROC 171700Z 08019KT 050V110 CAVOK 27/16 A2997 NOSIG=
202001171800 METAR MROC 171800Z 09016KT 060V130 9999 FEW045 SCT100 28/17 A2994 NOSIG=
202001171900 METAR MROC 171900Z 09012KT 060V120 9999 FEW045 SCT100 28/17 A2992 NOSIG=
202001172000 METAR MROC 172000Z 08022G33KT 9999 FEW045 28/16 A2989 NOSIG=
202001172100 METAR MROC 172100Z 08021G31KT 9999 FEW045 28/16 A2987 NOSIG=
202001172200 METAR MROC 172200Z 08020G33KT 9999 FEW045 28/16 A2986 NOSIG=
202001172300 METAR MROC 172300Z 09020KT 9999 FEW045 26/16 A2988 WS R07 NOSIG=
202001180000 METAR MROC 180000Z 09016KT 9999 FEW045 24/17 A2989 NOSIG=
202001180100 METAR MROC 180100Z 10018KT CAVOK 24/17 A2991 NOSIG=
202001180200 METAR MROC 180200Z 09018G28KT CAVOK 24/17 A2993 NOSIG=
202001180300 METAR MROC 180300Z 08021G35KT CAVOK 25/15 A2995 NOSIG=
202001180400 METAR MROC 180400Z 09017KT 9999 FEW040 24/17 A2997 NOSIG=
202001180500 METAR MROC 180500Z 09017G27KT 9999 FEW040 23/17 A2995 NOSIG=
202001180600 METAR MROC 180600Z 10013KT 9999 FEW040 23/17 A2994 NOSIG=
202001180700 METAR MROC 180700Z 09011KT 9999 FEW040 24/16 A2993 NOSIG=
202001180800 METAR MROC 180800Z 08015G25KT 9999 FEW040 24/16 A2990 NOSIG=
202001180900 METAR MROC 180900Z 08015G25KT 9999 FEW040 24/16 A2989 NOSIG=
202001181000 METAR MROC 181000Z 10015G25KT 9999 FEW040 23/16 A2990 NOSIG=
202001181100 METAR MROC 181100Z 09014KT 9999 FEW040 23/16 A2992 NOSIG=
202001181200 METAR MROC 181200Z 09013G23KT 9999 FEW040 SCT120 23/16 A2993 NOSIG=
202001181300 METAR MROC 181300Z 09018G31KT 9999 FEW040 SCT130 24/17 A2995 NOSIG=
202001181400 METAR MROC 181400Z 09016KT 060V130 9999 FEW040 SCT130 25/17 A2998 NOSIG=
202001181500 METAR MROC 181500Z 10016KT 9999 FEW040 SCT130 27/17 A3000 NOSIG=
202001181600 METAR MROC 181600Z 09018KT 9999 FEW040 SCT130 27/18 A2999 NOSIG=
202001181700 METAR MROC 181700Z 07022G31KT 9999 FEW045 SCT130 27/17 A2999 NOSIG=
202001181800 METAR MROC 181800Z 08016KT 050V110 9999 FEW040 SCT130 29/18 A2995 NOSIG=
202001181900 METAR MROC 181900Z 09016KT 9999 FEW040 SCT130 28/18 A2993 NOSIG=
202001182000 METAR MROC 182000Z 08020KT 9999 FEW040 SCT130 28/16 A2990 NOSIG=
202001182100 METAR MROC 182100Z 08020G30KT 9999 FEW040 SCT120 26/17 A2988 NOSIG=
202001182200 METAR MROC 182200Z 09018G30KT 9999 FEW045 SCT110 25/17 A2989 NOSIG=
202001182300 METAR MROC 182300Z 09018KT 9999 FEW045 BKN110 25/17 A2991 NOSIG=
202001190000 METAR MROC 190000Z 09015KT 9999 FEW048 SCT110 24/17 A2992 NOSIG=
202001190100 METAR MROC 190100Z 10015G25KT CAVOK 23/17 A2994 NOSIG=
202001190200 METAR MROC 190200Z 10016G26KT 080V140 CAVOK 23/18 A2995 NOSIG=
202001190300 METAR MROC 190300Z 10016G26KT CAVOK 23/17 A2996 NOSIG=
202001190400 METAR MROC 190400Z 11016G26KT CAVOK 23/17 A2996 NOSIG=
202001190500 METAR MROC 190500Z 11017G29KT CAVOK 22/17 A2996 NOSIG=
202001190600 METAR MROC 190600Z 11016G26KT CAVOK 23/17 A2994 NOSIG=
202001190700 METAR MROC 190700Z 11015G25KT CAVOK 23/18 A2993 NOSIG=
202001190800 METAR MROC 190800Z 11017KT CAVOK 23/17 A2991 WS R07 NOSIG=
202001190900 METAR MROC 190900Z 11012G22KT 080V140 CAVOK 22/17 A2990 WS R07 NOSIG=
202001191000 METAR MROC 191000Z 10014G25KT CAVOK 22/17 A2991 WS R07 NOSIG=
202001191100 METAR MROC 191100Z 11012KT CAVOK 22/17 A2992 WS R07 NOSIG=
202001191200 METAR MROC 191200Z 08011G23KT 050V110 9999 FEW040 SCT090 22/17 A2993 NOSIG=
202001191300 METAR MROC 191300Z 11014G24KT 9999 FEW040 BKN090 23/18 A2995 NOSIG=
202001191400 METAR MROC 191400Z 10015KT 9999 FEW035 SCT090 25/18 A2998 NOSIG=
202001191500 METAR MROC 191500Z 09014G26KT 060V120 9999 FEW035 BKN090 27/18 A2999 WS R07 NOSIG=
202001191600 METAR MROC 191600Z 10014G26KT 070V140 9999 FEW040 SCT100 27/17 A2999 WS R07 NOSIG=
202001191700 METAR MROC 191700Z 10015G30KT 070V130 9999 FEW035 BKN090 28/17 A2998 WS R07 NOSIG=
202001191800 METAR MROC 191800Z 10013G24KT 9999 FEW035 SCT080 29/18 A2996 WS R07 NOSIG=
202001191900 METAR MROC 191900Z 09019KT 060V120 9999 FEW040 BKN080 28/16 A2993 NOSIG=
202001192000 METAR MROC 192000Z 11017KT 9999 FEW040 BKN090 26/17 A2991 NOSIG=
202001192100 METAR MROC 192100Z 10013G23KT 9999 FEW040 BKN100 25/17 A2991 NOSIG=
202001192200 METAR MROC 192200Z 10014KT 9999 -RA FEW040 BKN080 25/17 A2993 NOSIG=
202001192300 METAR MROC 192300Z 11014G24KT 9999 FEW040 OVC100 24/17 A2994 NOSIG=
202001200000 METAR MROC 200000Z 11015KT 9999 FEW040 BKN100 24/17 A2996 NOSIG=
202001200100 METAR MROC 200100Z 10015KT 9999 FEW040 BKN100 23/18 A2997 NOSIG=
202001200200 METAR MROC 200200Z 11015KT 9999 FEW040 BKN100 23/18 A2999 NOSIG=
202001200300 METAR MROC 200300Z 11016KT 9999 FEW040 BKN100 23/18 A3001 NOSIG=
202001200400 METAR MROC 200400Z 11014KT 9999 FEW040 BKN110 23/18 A3002 NOSIG=
202001200500 METAR MROC 200500Z 09011G21KT 060V130 9999 FEW045 BKN110 23/17 A3001 NOSIG=
202001200600 METAR MROC 200600Z 08011KT 050V130 CAVOK 23/17 A3000 NOSIG=
202001200700 METAR MROC 200700Z 11014KT 090V150 CAVOK 23/17 A2998 NOSIG=
202001200800 METAR MROC 200800Z 09009KT 060V140 CAVOK 23/17 A2996 NOSIG=
202001200900 METAR MROC 200900Z 05005G17KT 340V110 CAVOK 23/17 A2995 NOSIG=
202001201000 METAR MROC 201000Z 04006KT 360V110 CAVOK 22/17 A2995 NOSIG=
202001201100 METAR MROC 201100Z 07008KT 030V120 CAVOK 22/17 A2997 NOSIG=
202001201200 METAR MROC 201200Z 12011KT 080V170 CAVOK 23/17 A2998 NOSIG=
202001201300 METAR MROC 201300Z 10007KT 9999 FEW030 SCT060 BKN100 23/18 A3001 NOSIG=
202001201400 METAR MROC 201400Z 06008KT 010V100 9999 FEW030 SCT060 BKN100 24/18 A3004 NOSIG=
202001201500 METAR MROC 201500Z 08013G23KT 050V120 9999 FEW030 BKN100 24/17 A3005 NOSIG=
202001201600 METAR MROC 201600Z 09019G32KT 9999 FEW030 BKN080 25/15 A3006 NOSIG=
202001201700 METAR MROC 201700Z 09017KT 9999 FEW030 BKN100 25/15 A3005 NOSIG=
202001201800 METAR MROC 201800Z 09017G27KT 9999 FEW030 SCT130 28/16 A3001 NOSIG=
202001201900 METAR MROC 201900Z 09015G27KT 070V130 9999 FEW030 SCT100 27/16 A2998 NOSIG=
202001202000 METAR MROC 202000Z 11014G26KT 080V150 9999 FEW030 SCT100 BKN200 27/15 A2997 NOSIG=
202001202100 METAR MROC 202100Z 12014G25KT 080V150 9999 FEW040 SCT080 27/17 A2996 NOSIG=
202001202200 METAR MROC 202200Z 09017KT 9999 FEW035 BKN080 24/15 A2997 NOSIG=
202001202300 METAR MROC 202300Z 08016G26KT 9999 FEW035 SCT080 24/15 A2999 NOSIG=
202001210000 METAR MROC 210000Z 11017KT 9999 FEW035 SCT080 23/16 A3000 NOSIG=
202001210100 METAR MROC 210100Z 11015G27KT 070V130 9999 FEW040 SCT080 22/17 A3001 NOSIG=
202001210200 METAR MROC 210200Z 11015KT 9999 FEW040 SCT080 22/17 A3003 NOSIG=
202001210300 METAR MROC 210300Z 10016G26KT 9999 FEW040 SCT080 22/16 A3005 NOSIG=
202001210400 METAR MROC 210400Z 11014KT 9999 FEW045 BKN110 22/17 A3005 NOSIG=
202001210500 METAR MROC 210500Z 11014KT 090V150 9999 FEW040 SCT100 BKN200 22/17 A3005 NOSIG=
202001210600 METAR MROC 210600Z 11014KT 080V140 9999 FEW035 SCT110 BKN220 22/17 A3004 NOSIG=
202001210700 METAR MROC 210700Z 08011KT 050V120 9999 FEW035 BKN220 22/17 A3003 NOSIG=
202001210800 METAR MROC 210800Z 10012KT 9999 FEW040 BKN220 22/17 A3001 NOSIG=
202001210900 METAR MROC 210900Z 09008KT 060V140 9999 FEW035 BKN250 21/16 A2999 NOSIG=
202001211000 METAR MROC 211000Z 10010KT 070V140 9999 FEW035 BKN200 21/16 A2999 NOSIG=
202001211100 METAR MROC 211100Z 08010KT 050V110 9999 FEW035 BKN200 22/16 A3000 NOSIG=
202001211200 METAR MROC 211200Z 10011KT 9999 FEW030 OVC200 22/17 A3002 NOSIG=
202001211240 METAR MROC 211240Z 07008KT 040V160 9999 DZ FEW035 SCT070 BKN200 22/17 A3006 NOSIG=
202001211300 METAR MROC 211300Z 07006KT 360V120 9999 RA BKN035 SCT200 22/17 A3006 REDZ NOSIG=
202001211400 METAR MROC 211400Z 10012KT 9999 FEW040 OVC120 22/17 A3007 RERA NOSIG=
202001211500 METAR MROC 211500Z 10012KT 9999 FEW005 OVC200 24/17 A3008 NOSIG=
202001211600 METAR MROC 211600Z 11013KT 9999 FEW040 OVC200 25/17 A3008 NOSIG=
202001211700 METAR MROC 211700Z 10010KT 9999 SCT045 OVC200 26/17 A3005 NOSIG=
202001211800 METAR MROC 211800Z 12009KT 9999 SCT040 OVC200 28/17 A3003 NOSIG=
202001211900 METAR MROC 211900Z 11013KT 9999 SCT040 OVC200 26/17 A3001 NOSIG=
202001212000 METAR MROC 212000Z 11010KT 090V150 9999 SCT040 OVC200 26/17 A2999 NOSIG=
202001212100 METAR MROC 212100Z 11009KT 070V150 9999 SCT040 BKN200 25/17 A2998 NOSIG=
202001212200 METAR MROC 212200Z 10008KT 070V130 9999 SCT035 BKN120 24/17 A2999 NOSIG=
202001212300 METAR MROC 212300Z 10008KT 070V140 9999 BKN040 23/17 A3000 NOSIG=
202001220000 METAR MROC 220000Z 10008KT 060V130 CAVOK 22/16 A3002 NOSIG=
202001220100 METAR MROC 220100Z 11005KT 070V160 CAVOK 21/16 A3005 NOSIG=
202001220200 METAR MROC 220200Z 10010KT CAVOK 21/15 A3007 NOSIG=
202001220300 METAR MROC 220300Z 10012KT CAVOK 21/15 A3008 NOSIG=
202001220400 METAR MROC 220400Z 08007KT 060V130 9999 FEW040 21/15 A3010 NOSIG=
202001220500 METAR MROC 220500Z VRB04KT 9999 FEW040 20/15 A3009 NOSIG=
202001220600 METAR MROC 220600Z 05004KT 360V090 9999 FEW040 20/15 A3009 NOSIG=
202001220700 METAR MROC 220700Z 11006KT 9999 FEW040 SCT100 20/15 A3006 NOSIG=
202001220800 METAR MROC 220800Z 12007KT 070V150 9999 FEW040 BKN100 20/14 A3004 NOSIG=
202001220900 METAR MROC 220900Z 07009KT 9999 FEW040 20/14 A3004 NOSIG=
202001221000 METAR MROC 221000Z 09009KT 060V120 9999 FEW040 20/15 A3003 NOSIG=
202001221100 METAR MROC 221100Z 05009KT CAVOK 21/14 A3004 NOSIG=
202001221200 METAR MROC 221200Z 07009KT CAVOK 20/15 A3006 NOSIG=
202001221300 METAR MROC 221300Z 12006KT 080V150 CAVOK 20/15 A3007 NOSIG=
202001221400 METAR MROC 221400Z 11010KT 080V160 CAVOK 21/15 A3010 NOSIG=
202001221500 METAR MROC 221500Z 11012KT CAVOK 23/15 A3011 NOSIG=
202001221600 METAR MROC 221600Z 11012KT 060V130 9999 FEW030 25/15 A3009 NOSIG=
202001221700 METAR MROC 221700Z 12014G24KT 090V170 9999 FEW040 BKN180 25/15 A3007 NOSIG=
202001221800 METAR MROC 221800Z 11013G24KT 090V150 CAVOK 23/14 A3004 NOSIG=
202001221900 METAR MROC 221900Z 10016KT 9999 FEW035 BKN200 25/15 A3002 NOSIG=
202001222000 METAR MROC 222000Z 10016KT 9999 FEW040 BKN120 24/15 A2998 NOSIG=
202001222100 METAR MROC 222100Z 11016G30KT 070V130 CAVOK 24/15 A2995 NOSIG=
202001222200 METAR MROC 222200Z 11015KT 080V140 9999 FEW045 SCT140 BKN220 22/15 A2997 NOSIG=
202001222300 METAR MROC 222300Z 11017G29KT 080V150 9999 FEW040 BKN120 22/14 A2997 NOSIG=
202001230000 METAR MROC 230000Z 11014KT 9999 FEW040 BKN120 21/14 A3000 NOSIG=
202001230100 METAR MROC 230100Z 10014KT 070V130 CAVOK 20/14 A3003 NOSIG=
202001230200 METAR MROC 230200Z 09011KT 060V120 CAVOK 20/15 A3006 NOSIG=
202001230300 METAR MROC 230300Z 09012KT CAVOK 20/15 A3008 NOSIG=
202001230400 METAR MROC 230400Z 08009KT CAVOK 20/15 A3009 NOSIG=
202001230500 METAR MROC 230500Z 08008KT 9999 FEW030 20/15 A3008 NOSIG=
202001230600 METAR MROC 230600Z 09007G19KT 060V130 CAVOK 20/15 A3006 NOSIG=
202001230700 METAR MROC 230700Z 09007KT 070V130 CAVOK 20/15 A3004 NOSIG=
202001230800 METAR MROC 230800Z 07008KT CAVOK 20/16 A3002 NOSIG=
202001230900 METAR MROC 230900Z 07007KT 9999 FEW030 19/15 A3001 NOSIG=
202001231000 METAR MROC 231000Z 04007KT CAVOK 19/15 A3000 NOSIG=
202001231100 METAR MROC 231100Z 05007KT CAVOK 19/15 A3001 NOSIG=
202001231200 METAR MROC 231200Z 07008KT 9999 FEW035 SCT100 20/16 A3002 NOSIG=
202001231300 METAR MROC 231300Z 06007KT 030V090 CAVOK 20/16 A3005 NOSIG=
202001231400 METAR MROC 231400Z 07010KT CAVOK 23/16 A3006 NOSIG=
202001231500 METAR MROC 231500Z 10010KT 070V140 CAVOK 25/16 A3007 NOSIG=
202001231600 METAR MROC 231600Z 09012KT 050V120 CAVOK 26/17 A3006 NOSIG=
202001231700 METAR MROC 231700Z 11009KT 060V180 CAVOK 28/17 A3004 NOSIG=
202001231800 METAR MROC 231800Z 12006KT 050V200 CAVOK 29/16 A3001 BECMG 25007KT=
202001231900 METAR MROC 231900Z VRB04KT 9999 SCT045 BKN180 29/16 A2998 NOSIG=
202001232000 METAR MROC 232000Z 24014KT 210V280 9999 SCT045 BKN180 28/18 A2995 NOSIG=
202001232100 METAR MROC 232100Z 25011KT 9999 FEW025TCU SCT035 BKN150 27/18 A2995 NOSIG=
202001232200 METAR MROC 232200Z 24012KT 9999 SCT030 BKN120 26/19 A2996 NOSIG=
202001232300 METAR MROC 232300Z 22007KT 090V250 9999 SCT030 SCT140 24/20 A2998 NOSIG=
202001240000 METAR MROC 240000Z 23004KT 190V250 9999 FEW015 SCT025 BKN150 23/20 A2998 NOSIG=
202001240100 METAR MROC 240100Z 25005KT 210V350 9999 FEW020 BKN150 23/20 A3000 NOSIG=
202001240200 METAR MROC 240200Z 15003KT 070V230 9999 FEW020 SCT040 23/18 A3004 NOSIG=
202001240300 METAR MROC 240300Z 15003KT 090V190 9999 FEW040 22/18 A3006 NOSIG=
202001240400 METAR MROC 240400Z 13003KT CAVOK 21/17 A3006 NOSIG=
202001240500 METAR MROC 240500Z VRB02KT CAVOK 20/18 A3005 NOSIG=
202001240600 METAR MROC 240600Z 10004KT CAVOK 19/17 A3004 NOSIG=
202001240700 METAR MROC 240700Z 08004KT CAVOK 18/16 A3002 NOSIG=
202001240800 METAR MROC 240800Z 06005KT CAVOK 18/14 A3001 NOSIG=
202001240900 METAR MROC 240900Z 07006KT CAVOK 17/14 A3000 NOSIG=
202001241000 METAR MROC 241000Z 07006KT CAVOK 18/15 A3000 NOSIG=
202001241100 METAR MROC 241100Z 05008KT CAVOK 18/14 A3001 NOSIG=
202001241200 METAR MROC 241200Z 06006KT CAVOK 17/13 A3004 NOSIG=
202001241300 METAR MROC 241300Z 07007KT CAVOK 20/15 A3005 NOSIG=
202001241400 METAR MROC 241400Z 10012KT CAVOK 23/16 A3006 NOSIG=
202001241500 METAR MROC 241500Z 10012KT CAVOK 25/16 A3008 NOSIG=
202001241600 METAR MROC 241600Z 11010KT 070V170 CAVOK 27/17 A3008 NOSIG=
202001241700 METAR MROC 241700Z 13010KT 090V170 9999 FEW040 28/17 A3007 NOSIG=
202001241800 METAR MROC 241800Z 14008KT 080V210 9999 FEW035 29/17 A3003 NOSIG=
202001241900 METAR MROC 241900Z VRB05KT 9999 FEW035 29/17 A3001 BECMG 24008KT=
202001242000 METAR MROC 242000Z 12004KT 070V190 9999 SCT040 28/17 A2998 NOSIG=
202001242100 METAR MROC 242100Z 26008KT 210V340 9999 FEW045 29/18 A2996 NOSIG=
202001242200 METAR MROC 242200Z 25009KT 220V290 9999 FEW035 28/19 A2996 NOSIG=
202001242300 METAR MROC 242300Z 27008KT 210V010 9999 SCT040 26/19 A2998 NOSIG=
202001250000 METAR MROC 250000Z 24005KT 210V300 9999 FEW030 23/18 A3001 NOSIG=
202001250100 METAR MROC 250100Z 20003KT 120V260 9999 FEW030 22/18 A3003 NOSIG=
202001250200 METAR MROC 250200Z VRB02KT 9999 FEW030 SCT050 22/18 A3006 NOSIG=
202001250300 METAR MROC 250300Z 08005KT 050V120 CAVOK 22/17 A3008 NOSIG=
202001250400 METAR MROC 250400Z 09003KT 070V130 CAVOK 21/18 A3009 NOSIG=
202001250500 METAR MROC 250500Z VRB02KT CAVOK 21/17 A3008 NOSIG=
202001250600 METAR MROC 250600Z 09006KT CAVOK 21/17 A3007 NOSIG=
202001250700 METAR MROC 250700Z 12006KT 090V150 CAVOK 20/16 A3006 NOSIG=
202001250800 METAR MROC 250800Z 10004KT 050V140 CAVOK 19/16 A3005 NOSIG=
202001250900 METAR MROC 250900Z VRB03KT CAVOK 19/16 A3004 NOSIG=
202001251000 METAR MROC 251000Z 07004KT CAVOK 19/15 A3004 NOSIG=
202001251100 METAR MROC 251100Z 09007KT 060V120 CAVOK 20/15 A3004 NOSIG=
202001251200 METAR MROC 251200Z 10005KT 040V130 9999 FEW045 19/15 A3006 NOSIG=
202001251300 METAR MROC 251300Z 11011KT 9999 FEW040 20/15 A3008 NOSIG=
202001251400 METAR MROC 251400Z 11012G22KT 080V150 9999 FEW040 23/16 A3011 NOSIG=
202001251500 METAR MROC 251500Z 11014KT 080V140 9999 FEW040 24/16 A3011 NOSIG=
202001251600 METAR MROC 251600Z 11014KT 080V160 9999 FEW040 25/16 A3011 NOSIG=
202001251700 METAR MROC 251700Z 13012KT 090V180 9999 FEW040 27/15 A3008 NOSIG=
202001251800 METAR MROC 251800Z 10014KT 9999 FEW040 27/15 A3005 NOSIG=
202001251900 METAR MROC 251900Z 10013KT 070V130 9999 FEW040 27/15 A3002 NOSIG=
202001252000 METAR MROC 252000Z 09013KT 9999 FEW040 28/15 A2999 NOSIG=
202001252100 METAR MROC 252100Z 10011KT 070V140 9999 FEW035 28/15 A2999 NOSIG=
202001252200 METAR MROC 252200Z 10011KT 9999 FEW035 26/15 A3000 NOSIG=
202001252300 METAR MROC 252300Z 11008KT 9999 FEW030 SCT060 25/15 A3001 NOSIG=
202001260000 METAR MROC 260000Z 11009KT 9999 FEW025 BKN060 22/16 A3003 NOSIG=
202001260100 METAR MROC 260100Z 09008KT 050V120 9999 FEW020 BKN060 22/15 A3007 NOSIG=
202001260200 METAR MROC 260200Z 11010KT 080V140 9999 FEW020 SCT060 21/15 A3009 NOSIG=
202001260300 METAR MROC 260300Z 10011KT 080V140 9999 FEW015 21/15 A3010 NOSIG=
202001260400 METAR MROC 260400Z 10009KT CAVOK 20/15 A3011 NOSIG=
202001260500 METAR MROC 260500Z 08008KT 050V110 CAVOK 20/15 A3010 NOSIG=
202001260600 METAR MROC 260600Z 08012KT 9999 FEW040 20/15 A3010 NOSIG=
202001260700 METAR MROC 260700Z 08009KT 050V120 9999 FEW045 20/14 A3008 NOSIG=
202001260800 METAR MROC 260800Z 07010KT 030V120 CAVOK 19/14 A3006 NOSIG=
202001260900 METAR MROC 260900Z 08008KT 040V120 CAVOK 20/13 A3005 NOSIG=
202001261000 METAR MROC 261000Z 04008KT CAVOK 19/13 A3005 NOSIG=
202001261100 METAR MROC 261100Z 07009KT 030V110 CAVOK 20/12 A3007 NOSIG=
202001261200 METAR MROC 261200Z 06008KT CAVOK 18/12 A3008 NOSIG=
202001261300 METAR MROC 261300Z 05008KT CAVOK 20/13 A3009 NOSIG=
202001261400 METAR MROC 261400Z 08007KT 050V120 CAVOK 21/14 A3010 NOSIG=
202001261500 METAR MROC 261500Z 11012G22KT 090V160 CAVOK 25/14 A3011 NOSIG=
202001261600 METAR MROC 261600Z 11012G23KT 070V150 CAVOK 27/14 A3010 NOSIG=
202001261700 METAR MROC 261700Z 11013KT 070V150 CAVOK 28/14 A3008 NOSIG=
202001261800 METAR MROC 261800Z 11009KT 070V160 CAVOK 29/15 A3005 NOSIG=
202001261900 METAR MROC 261900Z 13009KT CAVOK 30/15 A3003 NOSIG=
202001262000 METAR MROC 262000Z 28008KT 9999 SCT045 28/17 A3001 NOSIG=
202001262100 METAR MROC 262100Z COR 26012KT 230V290 9999 SCT030 28/18 A2999 NOSIG=
202001262200 METAR MROC 262200Z 26009KT 230V300 9999 FEW045 26/18 A3000 NOSIG=
202001262300 METAR MROC 262300Z 29008KT 9999 SCT030 25/18 A3001 NOSIG=
202001270000 METAR MROC 270000Z 28007KT 9999 OVC030 24/18 A3003 NOSIG=
202001270100 METAR MROC 270100Z 26004KT 9999 OVC025 23/18 A3005 NOSIG=
202001270200 METAR MROC 270200Z 27004KT 220V300 9999 FEW015 SCT020 BKN025 22/17 A3008 NOSIG=
202001270300 METAR MROC 270300Z 26003KT 230V290 9999 BKN030 22/18 A3009 NOSIG=
202001270400 METAR MROC 270400Z 26003KT 230V310 9999 BKN030 22/18 A3010 NOSIG=
202001270500 METAR MROC 270500Z 28003KT 250V310 9999 BKN030 22/18 A3009 NOSIG=
202001270600 METAR MROC 270600Z VRB01KT 9999 BKN040 21/18 A3008 NOSIG=
202001270700 METAR MROC 270700Z 24003KT 9999 BKN035 21/18 A3006 NOSIG=
202001270800 METAR MROC 270800Z 32003KT 9999 FEW020 SCT040 21/18 A3004 NOSIG=
202001270900 METAR MROC 270900Z VRB02KT 9999 BKN030 21/18 A3003 NOSIG=
202001271000 METAR MROC 271000Z 16001KT 9999 FEW015 SCT030 21/18 A3001 NOSIG=
202001271100 METAR MROC 271100Z 15003KT 9999 FEW045 SCT060 20/19 A3005 NOSIG=
202001271200 METAR MROC 271200Z 09003KT 9999 FEW030 SCT100 19/18 A3007 NOSIG=
202001271300 METAR MROC 271300Z 05006KT CAVOK 21/18 A3008 NOSIG=
202001271400 METAR MROC 271400Z VRB02KT 9999 BKN045 23/18 A3011 NOSIG=
202001271500 METAR MROC 271500Z VRB02KT 9999 BKN045 24/18 A3012 NOSIG=
202001271600 METAR MROC 271600Z VRB02KT 9999 BKN045 24/17 A3011 NOSIG=
202001271700 METAR MROC 271700Z 27005KT 210V350 9999 BKN045 26/17 A3010 NOSIG=
202001271800 METAR MROC 271800Z 28004KT 230V350 9999 FEW030 BKN045 26/18 A3008 NOSIG=
202001271900 METAR MROC 271900Z VRB04KT 9999 BKN045 27/17 A3005 NOSIG=
202001272000 METAR MROC 272000Z 20006KT 140V260 9999 FEW040 BKN045 27/18 A3002 NOSIG=
202001272100 METAR MROC 272100Z 24010KT 200V280 9999 SCT045 BKN100 27/19 A3000 NOSIG=
202001272200 METAR MROC 272200Z 24013KT 9999 SCT040 25/20 A3000 NOSIG=
202001272300 METAR MROC 272300Z 23008KT 9999 FEW015 SCT045 23/20 A3003 NOSIG=
202001280000 METAR MROC 280000Z 21005KT 170V240 9999 FEW010 BKN030 22/20 A3006 NOSIG=
202001280100 METAR MROC 280100Z VRB02KT 9999 -RA FEW010 BKN035 21/20 A3007 NOSIG=
202001280200 METAR MROC 280200Z VRB02KT 9999 FEW010 BKN030 21/20 A3009 NOSIG=
202001280300 METAR MROC 280300Z VRB02KT 9999 FEW030 BKN045 21/20 A3010 NOSIG=
202001280400 METAR MROC 280400Z 07003KT 9999 4000S VCFG FEW030 SCT045 21/19 A3011 NOSIG=
202001280500 METAR MROC 280500Z 07005KT 9999 FEW030 SCT060 21/19 A3009 NOSIG=
202001280600 METAR MROC 280600Z 16003KT CAVOK 21/19 A3008 NOSIG=
202001280700 METAR MROC 280700Z 12002KT CAVOK 20/19 A3004 NOSIG=
202001280800 METAR MROC 280800Z VRB01KT CAVOK 20/19 A3003 NOSIG=
202001280900 METAR MROC 280900Z VRB02KT CAVOK 20/19 A3003 NOSIG=
202001281000 METAR MROC 281000Z 11003KT 090V150 9999 FEW045 BKN100 20/19 A3003 NOSIG=
202001281100 METAR MROC 281100Z VRB02KT CAVOK 21/18 A3004 NOSIG=
202001281200 METAR MROC 281200Z 05003KT CAVOK 20/19 A3005 NOSIG=
202001281300 METAR MROC 281300Z 07002KT CAVOK 20/18 A3007 NOSIG=
202001281400 METAR MROC 281400Z 00000KT CAVOK 21/19 A3009 TEMPO VRB03KT=
202001281500 METAR MROC 281500Z VRB02KT CAVOK 23/18 A3009 NOSIG=
202001281600 METAR MROC 281600Z VRB03KT CAVOK 26/18 A3007 NOSIG=
202001281700 METAR MROC 281700Z VRB02KT CAVOK 28/17 A3005 NOSIG=
202001281800 METAR MROC 281800Z 24010KT 210V270 9999 SCT035 BKN080 28/18 A3002 NOSIG=
202001281900 METAR MROC 281900Z 26012KT 9999 SCT030 BKN080 26/20 A2999 NOSIG=
202001282000 METAR MROC 282000Z 23010KT 9999 SCT030 BKN090 26/20 A2998 NOSIG=
202001282100 METAR MROC 282100Z 16006KT 110V190 9999 -SHRA FEW012 FEW020TCU SCT030 BKN100 23/21 A2998 NOSIG=
202001282200 METAR MROC 282200Z 22004KT 170V250 9999 FEW010 SCT020 BKN100 23/21 A2998 NOSIG=
202001282300 METAR MROC 282300Z 26005KT 230V290 9999 4500SW -RA FEW008 SCT020 BKN080 22/21 A2999 NOSIG=
202001290000 METAR MROC NIL=
202001290100 METAR MROC NIL=
202001290200 METAR MROC NIL=
202001290300 METAR MROC 290300Z 26003KT 240V320 9999 FEW006 SCT010 BKN020 21/20 A3005 NOSIG=
202001290400 METAR MROC 290400Z 25003KT 9999 SCT010 OVC020 21/20 A3008 NOSIG=
202001290500 METAR MROC 290500Z VRB02KT 9999 SCT015 OVC015 21/20 A3006 NOSIG=
202001290600 METAR MROC 290600Z 09003KT 9999 FEW020 BKN080 21/20 A3005 NOSIG=
202001290700 METAR MROC 290700Z 07002KT 9999 FEW020 21/20 A3003 NOSIG=
202001290800 METAR MROC 290800Z 05003KT 360V070 20/19 A3001 NOSIG=
202001290900 METAR MROC 290900Z 36002KT CAVOK 20/18 A3001 NOSIG=
202001291000 METAR MROC 291000Z 09004KT CAVOK 20/19 A3000 NOSIG=
202001291100 METAR MROC 291100Z VRB02KT CAVOK 20/19 A3003 NOSIG=
202001291200 METAR MROC 291200Z VRB02KT CAVOK 20/19 A3006 NOSIG=
202001291300 METAR MROC 291300Z VRB02KT 9999 -RA FEW040 BKN130 20/19 A3007 NOSIG=
202001291400 METAR MROC 291400Z VRB02KT 9999 -RA FEW040 OVC130 20/19 A3009 NOSIG=
202001291500 METAR MROC 291500Z 07007KT 9999 VCFG FEW025 BKN130 22/20 A3010 NOSIG=
202001291600 METAR MROC 291600Z 08003KT 360V140 9999 FEW035 BKN140 25/19 A3009 NOSIG=
202001291700 METAR MROC 291700Z 36003KT 310V030 CAVOK 26/18 A3007 NOSIG=
202001291800 METAR MROC 291800Z 23005KT 200V280 CAVOK 27/20 A3004 NOSIG=
202001291900 METAR MROC 291900Z 23010KT 200V270 9999 FEW030 BKN150 26/21 A3001 NOSIG=
202001292000 METAR MROC 292000Z 25009KT 220V280 9999 VCTS FEW015TCU SCT020 BKN150 25/20 A3000 TEMPO SHRA=
202001292100 METAR MROC 292100Z 25009KT 9999 FEW010 SCT030 BKN150 24/20 A2998 NOSIG=
202001292200 METAR MROC 292200Z 24006KT 9999 FEW005 SCT015 BKN040 23/21 A2999 NOSIG=
202001292300 METAR MROC 292300Z 17003KT 120V200 9999 SCT010 BKN150 23/21 A2998 NOSIG=
202001300000 METAR MROC 300000Z 20003KT 9999 FEW035 BKN150 22/21 A3000 NOSIG=
202001300100 METAR MROC 300100Z 27003KT 210V310 9999 FEW010 SCT030 BKN060 22/21 A3001 NOSIG=
202001300200 METAR MROC 300200Z 25005KT 9999 FEW005 SCT030 BKN060 22/21 A3004 NOSIG=
202001300300 METAR MROC 300300Z VRB02KT 8000 1500SW -RA BCFG SCT002 OVC050 21/21 A3004 NOSIG=
202001300400 METAR MROC 300400Z VRB01KT 9999 FEW004 BKN020 22/21 A3004 TEMPO 5000 BR=
202001300500 METAR MROC 300500Z 23003KT 3000 BR FEW002 SCT015 21/21 A3003 NOSIG=
202001300600 METAR MROC 300600Z VRB02KT 3000 BR FEW002 BKN040 21/20 A3003 NOSIG=
202001300700 METAR MROC 300700Z VRB01KT 1200 BR SCT002 BKN035 21/20 A3001 BECMG 3000=
202001300800 METAR MROC 300800Z 06005KT 5000 BR FEW003 BKN035 20/19 A2999 NOSIG=
202001300900 METAR MROC 300900Z 08004KT CAVOK 20/18 A2997 NOSIG=
202001301000 METAR MROC 301000Z 08004KT CAVOK 20/18 A2998 NOSIG=
202001301100 METAR MROC 301100Z 07003KT CAVOK 19/17 A3000 NOSIG=
202001301200 METAR MROC 301200Z 06006KT CAVOK 19/17 A3001 NOSIG=
202001301300 METAR MROC 301300Z 08004KT 040V120 CAVOK 19/17 A3003 NOSIG=
202001301400 METAR MROC 301400Z VRB04KT CAVOK 24/18 A3005 BECMG 25007KT=
202001301500 METAR MROC 301500Z 22004KT 140V290 CAVOK 25/18 A3006 NOSIG=
202001301600 METAR MROC 301600Z 23006KT 190V330 CAVOK 27/19 A3005 NOSIG=
202001301700 METAR MROC 301700Z 24008KT 180V270 9999 FEW030 28/19 A3003 NOSIG=
202001301800 METAR MROC 301800Z 24011KT 210V280 9999 SCT030 28/20 A3001 NOSIG=
202001301900 METAR MROC 301900Z 23011KT 200V280 9999 SCT030 28/20 A2999 NOSIG=
202001302000 METAR MROC 302000Z 23011KT 200V260 9999 FEW030TCU SCT080 28/20 A2997 NOSIG=
202001302100 METAR MROC 302100Z 22011KT 9999 SCT035 SCT180 27/21 A2996 NOSIG=
202001302200 METAR MROC 302200Z 24008KT 9999 FEW020 SCT035 27/20 A2996 NOSIG=
202001302300 METAR MROC 302300Z 24009KT 9999 FEW030 25/20 A2997 NOSIG=
202001310000 METAR MROC 310000Z 24005KT 9999 SCT020 23/20 A2999 NOSIG=
202001310100 METAR MROC 310100Z 24004KT 9999 BKN025 23/21 A3001 NOSIG=
202001310200 METAR MROC 310200Z VRB02KT 9999 SCT025 22/21 A3003 BECMG 10005KT=
202001310300 METAR MROC 310300Z 08005KT 040V110 9999 SCT025 21/17 A3004 NOSIG=
202001310400 METAR MROC 310400Z 08006KT CAVOK 20/14 A3004 NOSIG=
202001310500 METAR MROC 310500Z 11005KT CAVOK 20/15 A3003 NOSIG=
202001310600 METAR MROC 310600Z 08007KT CAVOK 19/15 A3002 NOSIG=
202001310700 METAR MROC 310700Z 09010KT CAVOK 20/15 A2999 NOSIG=
202001310800 METAR MROC 310800Z 10009KT CAVOK 19/15 A2997 NOSIG=
202001310900 METAR MROC 310900Z 08008KT CAVOK 19/14 A2998 NOSIG=
202001311000 METAR MROC 311000Z 07013KT CAVOK 16/10 A2998 NOSIG=
202001311100 METAR MROC 311100Z 07013KT CAVOK 16/11 A2998 NOSIG=
202001311200 METAR MROC 311200Z 07008KT 040V100 CAVOK 18/13 A3000 NOSIG=
202001311300 METAR MROC 311300Z 08008KT CAVOK 20/14 A3002 NOSIG=
202001311400 METAR MROC 311400Z 09011KT 060V120 CAVOK 23/14 A3005 NOSIG=
202001311500 METAR MROC 311500Z 10012KT CAVOK 25/13 A3006 NOSIG=
202001311600 METAR MROC 311600Z 10011KT CAVOK 26/14 A3004 NOSIG=
202001311700 METAR MROC 311700Z 11011KT 060V130 CAVOK 28/14 A3004 NOSIG=
202001311800 METAR MROC 311800Z 10011KT 070V140 CAVOK 28/14 A3000 NOSIG=
202001311900 METAR MROC 311900Z 09011KT CAVOK 29/14 A2998 NOSIG=
202001312000 METAR MROC 312000Z 12009KT 9999 FEW045 29/14 A2997 TEMPO 23007KT=
202001312100 METAR MROC 312100Z 13008KT 080V170 9999 FEW045 29/15 A2996 NOSIG=
202001312200 METAR MROC 312200Z 14006KT 070V120 9999 FEW045 28/16 A2996 NOSIG=
202001312300 METAR MROC 312300Z 15006KT 090V190 9999 FEW030 26/16 A2997 NOSIG=
202002010000 METAR MROC 010000Z 22005KT 9999 FEW020 24/20 A3000 NOSIG=
202002010100 METAR MROC 010100Z 13006KT 100V160 9999 FEW020 23/17 A3002 NOSIG=
202002010200 METAR MROC 010200Z 11004KT 070V140 CAVOK 22/17 A3003 NOSIG=
202002010300 METAR MROC 010300Z 09005KT 9999 FEW020 21/16 A3005 NOSIG=
202002010400 METAR MROC 010400Z 10004KT CAVOK 20/16 A3005 NOSIG=
202002010500 METAR MROC 010500Z 07007KT CAVOK 20/15 A3003 NOSIG=
202002010600 METAR MROC 010600Z VRB02KT CAVOK 19/16 A3002 NOSIG=
202002010700 METAR MROC 010700Z 06008KT 9999 FEW010 19/15 A3002 NOSIG=
202002010800 METAR MROC 010800Z 07006KT 9999 FEW010 19/15 A3001 NOSIG=
202002010900 METAR MROC 010900Z 06008KT 9999 FEW040 18/15 A3001 NOSIG=
202002011000 METAR MROC 011000Z 08009KT 9999 SCT045 19/14 A3002 NOSIG=
202002011100 METAR MROC 011100Z 08009KT 9999 SCT045 19/14 A3003 NOSIG=
202002011200 METAR MROC 011200Z 07008KT CAVOK 19/14 A3004 NOSIG=
202002011300 METAR MROC 011300Z 07008KT CAVOK 21/15 A3008 NOSIG=
202002011400 METAR MROC 011400Z 11011KT CAVOK 23/15 A3010 NOSIG=
202002011500 METAR MROC 011500Z 11013KT CAVOK 25/14 A3010 NOSIG=
202002011600 METAR MROC 011600Z 10009KT 080V140 CAVOK 27/14 A3009 NOSIG=
202002011700 METAR MROC 011700Z 12009KT 060V180 CAVOK 29/15 A3005 NOSIG=
202002011800 METAR MROC 011800Z 10010KT 070V140 CAVOK 30/15 A3002 NOSIG=
202002011900 METAR MROC 011900Z 11007KT 070V190 CAVOK 30/15 A3000 NOSIG=
202002012000 METAR MROC 012000Z 23010KT 190V270 9999 SCT045 29/17 A2998 NOSIG=
202002012100 METAR MROC 012100Z 29006KT 250V220 9999 SCT040 BKN100 26/18 A2998 NOSIG=
202002012200 METAR MROC 012200Z 25006KT 200V300 9999 SCT040 BKN100 26/18 A2999 NOSIG=
202002012300 METAR MROC 012300Z 12009KT 090V150 9999 SCT040 25/17 A3000 NOSIG=
202002020000 METAR MROC 020000Z 11007KT 070V170 9999 SCT040 23/17 A3002 NOSIG=
202002020100 METAR MROC 020100Z 10006KT 060V140 9999 FEW040 SCT110 23/17 A3004 NOSIG=
202002020200 METAR MROC 020200Z 10005KT 070V160 CAVOK 22/16 A3007 NOSIG=
202002020300 METAR MROC 020300Z 08007KT CAVOK 22/16 A3009 NOSIG=
202002020400 METAR MROC 020400Z 07013KT 040V100 9999 FEW030 22/16 A3009 NOSIG=
202002020500 METAR MROC 020500Z 09015KT 9999 FEW025 22/16 A3007 NOSIG=
202002020600 METAR MROC 020600Z 09012G22KT 060V120 9999 FEW030 22/16 A3006 NOSIG=
202002020700 METAR MROC 020700Z 09014KT 9999 FEW030 22/15 A3004 NOSIG=
202002020800 METAR MROC 020800Z 11016KT 9999 FEW030 22/15 A3002 NOSIG=
202002020900 METAR MROC 020900Z 07011KT 040V110 9999 FEW035 22/16 A3001 NOSIG=
202002021000 METAR MROC 021000Z 10015KT CAVOK 22/16 A3001 NOSIG=
202002021100 METAR MROC 021100Z 09015G25KT 050V120 CAVOK 22/16 A3002 NOSIG=
202002021200 METAR MROC 021200Z 10017KT 9999 FEW030 21/16 A3004 NOSIG=
202002021300 METAR MROC 021300Z 10020G31KT 9999 FEW040 SCT120 22/16 A3006 NOSIG=
202002021400 METAR MROC 021400Z 10021KT 9999 FEW040 24/17 A3002 NOSIG=
202002021500 METAR MROC 021500Z 09023G35KT 9999 FEW045 25/17 A3008 NOSIG=
202002021600 METAR MROC 021600Z 10023KT 9999 FEW045 25/17 A3007 NOSIG=
202002021700 METAR MROC 021700Z 10020G31KT 9999 FEW045 27/18 A3005 NOSIG=
202002021800 METAR MROC 021800Z 10026G41KT 9999 FEW045 27/17 A3002 NOSIG=
202002021900 METAR MROC 021900Z 10020G35KT 9999 FEW045 SCT140 28/17 A2999 NOSIG=
202002022000 METAR MROC 022000Z 11020G32KT 9999 FEW040 SCT140 26/17 A2998 NOSIG=
202002022100 METAR MROC 022100Z 10016G28KT 070V130 9999 FEW035 BKN120 27/18 A2997 NOSIG=
202002022200 METAR MROC 022200Z 09017G28KT 9999 FEW035 BKN120 25/17 A2997 NOSIG=
202002022300 METAR MROC 022300Z 10017G27KT 9999 FEW035 SCT120 BKN200 24/17 A2998 NOSIG=
202002030000 METAR MROC 030000Z 08018G28KT 9999 FEW035 SCT100 23/16 A2999 NOSIG=
202002030100 METAR MROC 030100Z 10013G23KT 9999 FEW035 SCT100 23/16 A3001 NOSIG=
202002030200 METAR MROC 030200Z 08017G27KT 9999 FEW035 BKN100 23/16 A3003 NOSIG=
202002030300 METAR MROC 030300Z 10015KT 9999 FEW035 SCT180 22/16 A3005 NOSIG=
202002030400 METAR MROC 030400Z 08019G30KT 060V120 9999 FEW045 22/16 A3004 WS R07 NOSIG=
202002030500 METAR MROC 030500Z 09016G29KT 9999 FEW030 22/16 A3002 WS R07 NOSIG=
202002030600 METAR MROC 030600Z 10011G21KT CAVOK 21/16 A3000 WS R07 NOSIG=
202002030700 METAR MROC 030700Z 10013KT CAVOK 21/16 A2998 WS R07 NOSIG=
202002030800 METAR MROC 030800Z 10013G26KT CAVOK 22/16 A2996 WS R07 NOSIG=
202002030900 METAR MROC 030900Z 11016KT CAVOK 22/16 A2995 WS R07 NOSIG=
202002031000 METAR MROC 031000Z 11016G26KT 070V140 CAVOK 22/14 A2996 WS R07 NOSIG=
202002031100 METAR MROC 031100Z 12015G25KT CAVOK 21/15 A2998 WS R07 NOSIG=
202002031200 METAR MROC 031200Z 11015KT CAVOK 21/15 A3001 WS R07 NOSIG=
202002031300 METAR MROC 031300Z 10015G25KT 9999 FEW035 22/15 A3003 NOSIG=
202002031400 METAR MROC 031400Z 11019G30KT 9999 FEW040 23/15 A3006 NOSIG=
202002031500 METAR MROC 031500Z 11015G28KT 9999 FEW040 25/14 A3008 NOSIG=
202002031600 METAR MROC 031600Z 09017G27KT 9999 FEW045 26/15 A3008 NOSIG=
202002031700 METAR MROC 031700Z 10018G29KT 070V130 9999 FEW045 26/15 A3006 NOSIG=
202002031800 METAR MROC 031800Z 09021G33KT CAVOK 26/15 A3005 NOSIG=
202002031900 METAR MROC 031900Z 09017G27KT 060V120 9999 FEW040 BKN250 28/15 A3003 NOSIG=
202002032000 METAR MROC 032000Z 09014G24KT 9999 FEW045 SCT060 BKN250 26/17 A3000 NOSIG=
202002032100 METAR MROC 032100Z 07018KT 9999 SCT030 BKN250 27/16 A2998 NOSIG=
202002032200 METAR MROC 032200Z 08014G24KT 9999 FEW030 SCT050 BKN250 25/15 A3000 NOSIG=
202002032300 METAR MROC 032300Z 08014KT 9999 FEW030 BKN250 24/16 A3000 NOSIG=
202002040000 METAR MROC 040000Z 09009KT 050V110 9999 FEW030 SCT250 23/15 A3001 NOSIG=
202002040100 METAR MROC 040100Z 11011KT 090V160 9999 FEW020 SCT250 22/15 A3003 NOSIG=
202002040200 METAR MROC 040200Z 08013KT 9999 FEW020 SCT250 22/15 A3004 NOSIG=
202002040300 METAR MROC 040300Z 09015KT CAVOK 22/14 A3006 NOSIG=
202002040400 METAR MROC 040400Z 10013KT 080V140 22/14 A3006 NOSIG=
202002040500 METAR MROC 040500Z 11012KT CAVOK 21/14 A3004 NOSIG=
202002040600 METAR MROC 040600Z 11012KT CAVOK 21/14 A3004 NOSIG=
202002040700 METAR MROC 040700Z 10013KT CAVOK 22/14 A3002 NOSIG=
202002040800 METAR MROC 040800Z 10011KT 070V130 CAVOK 21/15 A3000 NOSIG=
202002040900 METAR MROC 040900Z 07009KT 050V110 CAVOK 20/15 A3001 NOSIG=
202002041000 METAR MROC 041000Z 08006KT 050V120 CAVOK 20/15 A3001 NOSIG=
202002041100 METAR MROC 041100Z 09011KT CAVOK 21/15 A3001 NOSIG=
202002041200 METAR MROC 041200Z 11010KT 070V140 CAVOK 20/16 A3002 NOSIG=
202002041300 METAR MROC 041300Z 11010KT 9999 FEW020 SCT250 21/16 A3005 NOSIG=
202002041400 METAR MROC 041400Z 11011KT 090V150 9999 FEW020 SCT250 24/16 A3007 NOSIG=
202002041500 METAR MROC 041500Z 12013G23KT 090V150 9999 FEW020 SCT250 25/15 A3007 NOSIG=
202002041600 METAR MROC 041600Z 12011KT 090V150 CAVOK 27/15 A3007 NOSIG=
202002041700 METAR MROC 041700Z 12012KT 080V150 CAVOK 28/15 A3005 NOSIG=
202002041800 METAR MROC 041800Z 14011G22KT 110V180 9999 FEW020 SCT200 28/16 A3002 NOSIG=
202002041900 METAR MROC 041900Z 12012KT 080V150 9999 FEW030 29/16 A2999 NOSIG=
202002042000 METAR MROC 042000Z 12013G23KT 080V170 9999 FEW040 29/16 A2997 NOSIG=
202002042100 METAR MROC 042100Z 11014KT 080V150 9999 FEW035 28/16 A2996 NOSIG=
202002042200 METAR MROC 042200Z 11013KT 090V160 9999 FEW030 28/16 A2997 NOSIG=
202002042300 METAR MROC 042300Z 10010KT 060V140 9999 FEW035 27/15 A2997 NOSIG=
202002050000 METAR MROC 050000Z 12011KT 9999 FEW030 SCT250 24/17 A2999 NOSIG=
202002050100 METAR MROC 050100Z 11011KT 9999 FEW030 23/17 A3001 NOSIG=
202002050200 METAR MROC 050200Z 12012KT 9999 FEW030 22/17 A3003 NOSIG=
202002050300 METAR MROC 050300Z 11010KT 080V140 9999 FEW030 22/16 A3005 NOSIG=
202002050400 METAR MROC 050400Z 11013KT 9999 FEW030 22/16 A3007 NOSIG=
202002050500 METAR MROC 050500Z 12010KT 090V150 CAVOK 22/15 A3006 NOSIG=
202002050600 METAR MROC 050600Z 12014KT CAVOK 22/15 A3003 NOSIG=
202002050700 METAR MROC 050700Z 12012G23KT CAVOK 22/16 A3000 NOSIG=
202002050800 METAR MROC 050800Z 11011G21KT 060V140 CAVOK 21/16 A2999 NOSIG=
202002050900 METAR MROC 050900Z 10008G18KT CAVOK 21/16 A2998 NOSIG=
202002051000 METAR MROC 051000Z 10012G24KT 080V140 9999 FEW030 21/16 A2998 NOSIG=
202002051100 METAR MROC 051100Z 10010G20KT 9999 FEW030 21/15 A3000 NOSIG=
202002051200 METAR MROC 051200Z 11010G20KT 9999 FEW035 21/15 A3001 NOSIG=
202002051300 METAR MROC 051300Z 10010KT 9999 FEW030 22/15 A3003 NOSIG=
202002051400 METAR MROC 051400Z 10013KT 9999 FEW035 24/16 A3005 NOSIG=
202002051500 METAR MROC 051500Z 11012KT 9999 FEW035 SCT250 26/15 A3006 NOSIG=
202002051600 METAR MROC 051600Z 11011KT 9999 FEW040 SCT250 27/16 A3006 NOSIG=
202002051700 METAR MROC 051700Z 10013KT 9999 FEW040 28/15 A3003 NOSIG=
202002051800 METAR MROC 051800Z 12011KT CAVOK 29/16 A2999 NOSIG=
202002051900 METAR MROC 051900Z 09011KT CAVOK 30/16 A2996 NOSIG=
202002052000 METAR MROC 052000Z 11010KT 080V140 9999 FEW045 30/15 A2992 NOSIG=
202002052100 METAR MROC 052100Z COR 12009KT 080V160 9999 FEW045 30/16 A2990 NOSIG=
202002052200 METAR MROC 052200Z 11011KT 090V150 9999 FEW045 28/17 A2990 NOSIG=
202002052300 METAR MROC 052300Z 11010KT 070V140 9999 FEW040 26/17 A2991 NOSIG=
202002060000 METAR MROC 060000Z 12006KT 080V150 9999 FEW035 24/17 A2993 NOSIG=
202002060100 METAR MROC 060100Z 08008KT 050V110 9999 FEW020 23/17 A2995 NOSIG=
202002060200 METAR MROC 060200Z 11009KT CAVOK 22/17 A2998 NOSIG=
202002060300 METAR MROC 060300Z 11011KT CAVOK 22/16 A3000 NOSIG=
202002060400 METAR MROC 060400Z 09009KT CAVOK 22/15 A3000 NOSIG=
202002060500 METAR MROC 060500Z 08010KT CAVOK 21/15 A3000 NOSIG=
202002060600 METAR MROC 060600Z 09008KT CAVOK 21/15 A2999 NOSIG=
202002060700 METAR MROC 060700Z 07006KT CAVOK 20/15 A2998 NOSIG=
202002060800 METAR MROC 060800Z 07009KT CAVOK 20/15 A2995 NOSIG=
202002060900 METAR MROC 060900Z 06011KT CAVOK 19/14 A2994 NOSIG=
202002061000 METAR MROC 061000Z COR 07009KT CAVOK 19/14 A2994 NOSIG=
202002061100 METAR MROC 061100Z 07009KT CAVOK 18/14 A2996 NOSIG=
202002061200 METAR MROC 061200Z 07008KT CAVOK 18/13 A2997 NOSIG=
202002061300 METAR MROC 061300Z 08009KT CAVOK 20/14 A3000 NOSIG=
202002061400 METAR MROC 061400Z 09008KT 060V130 CAVOK 24/15 A3002 NOSIG=
202002061500 METAR MROC 061500Z 10007KT 080V150 CAVOK 26/14 A3003 NOSIG=
202002061600 METAR MROC 061600Z 29004KT 230V020 CAVOK 28/15 A3003 NOSIG=
202002061700 METAR MROC 061700Z 26008KT 200V330 CAVOK 30/16 A3001 NOSIG=
202002061800 METAR MROC 061800Z 26007KT 200V310 CAVOK 29/16 A2998 NOSIG=
202002061900 METAR MROC 061900Z 23011KT 180V270 9999 FEW045 30/16 A2995 NOSIG=
202002062000 METAR MROC 062000Z 23012KT CAVOK 29/16 A2992 NOSIG=
202002062100 METAR MROC 062100Z 24013KT 9999 FEW045 29/17 A2991 NOSIG=
202002062200 METAR MROC 062200Z 23010KT CAVOK 28/17 A2991 NOSIG=
202002062300 METAR MROC 062300Z 23005KT 190V250 9999 FEW045 26/18 A2993 NOSIG=
202002070000 METAR MROC 070000Z 16003KT 090V200 9999 SCT045 25/18 A2995 NOSIG=
202002070100 METAR MROC 070100Z 10007KT CAVOK 23/17 A2995 NOSIG=
202002070200 METAR MROC 070200Z 09010KT CAVOK 23/17 A2997 NOSIG=
202002070300 METAR MROC 070300Z 07009KT CAVOK 22/17 A2998 NOSIG=
202002070400 METAR MROC 070400Z 08007KT CAVOK 22/17 A2998 NOSIG=
202002070500 METAR MROC 070500Z 07007KT CAVOK 22/16 A2998 NOSIG=
202002070600 METAR MROC 070600Z 07006KT CAVOK 21/16 A2997 NOSIG=
202002070700 METAR MROC 070700Z 08006KT 060V150 CAVOK 20/15 A2995 NOSIG=
202002070800 METAR MROC 070800Z 05004KT 020V080 CAVOK 19/14 A2995 NOSIG=
202002070900 METAR MROC 070900Z 05003KT CAVOK 19/14 A2995 NOSIG=
202002071000 METAR MROC 071000Z 09005KT CAVOK 17/14 A2996 NOSIG=
202002071100 METAR MROC 071100Z 08006KT CAVOK 18/14 A2998 NOSIG=
202002071200 METAR MROC 071200Z 09006KT CAVOK 17/13 A3000 NOSIG=
202002071300 METAR MROC 071300Z 09006KT CAVOK 19/14 A3002 NOSIG=
202002071400 METAR MROC 071400Z 09003KT 060V120 CAVOK 23/15 A3004 NOSIG=
202002071500 METAR MROC 071500Z VRB03KT CAVOK 26/16 A3006 NOSIG=
202002071600 METAR MROC 071600Z 25006KT 210V300 CAVOK 27/15 A3006 NOSIG=
202002071700 METAR MROC 071700Z VRB06KT CAVOK 29/16 A3004 NOSIG=
202002071800 METAR MROC 071800Z VRB07KT CAVOK 30/16 A3001 NOSIG=
202002071900 METAR MROC 071900Z 25011KT 220V300 9999 FEW045 30/18 A2998 NOSIG=
202002072000 METAR MROC 072000Z 26012KT 230V300 9999 SCT045 29/19 A2996 NOSIG=
202002072100 METAR MROC 072100Z 23013KT 190V260 9999 BKN035 28/20 A2995 NOSIG=
202002072200 METAR MROC 072200Z 25015KT 230V290 9999 FEW025 SCT035 28/19 A2995 NOSIG=
202002072300 METAR MROC 072300Z 15007KT 120V190 9999 4000SW -RA SCT025 BKN045 24/21 A2998 NOSIG=
202002080000 METAR MROC 080000Z 21005KT 9000 SCT025 BKN045 24/21 A2998 NOSIG=
202002080100 METAR MROC 080100Z 26003KT 9000 FEW025 SCT035 22/21 A3002 NOSIG=
202002080200 METAR MROC 080200Z VRB02KT 9999 FEW010 22/21 A3004 NOSIG=
202002080300 METAR MROC 080300Z 08006KT 9999 FEW025 21/20 A3006 NOSIG=
202002080400 METAR MROC 080400Z 06006KT 020V090 CAVOK 22/17 A3008 NOSIG=
202002080500 METAR MROC 080500Z 06008KT CAVOK 21/17 A3007 NOSIG=
202002080600 METAR MROC 080600Z 10010KT CAVOK 21/17 A3006 NOSIG=
202002080700 METAR MROC 080700Z 06007KT CAVOK 20/15 A3004 NOSIG=
202002080800 METAR MROC 080800Z 09007KT CAVOK 20/16 A3003 NOSIG=
202002080900 METAR MROC 080900Z 06008KT CAVOK 19/16 A3004 NOSIG=
202002081000 METAR MROC 081000Z 07009KT CAVOK 18/14 A3004 NOSIG=
202002081100 METAR MROC 081100Z 09010KT CAVOK 19/16 A3006 NOSIG=
202002081200 METAR MROC 081200Z 10010KT CAVOK 20/15 A3007 NOSIG=
202002081300 METAR MROC 081300Z 10013KT CAVOK 20/15 A3009 NOSIG=
202002081400 METAR MROC 081400Z 11010G20KT 9999 FEW040 22/15 A3010 NOSIG=
202002081500 METAR MROC 081500Z 10012G22KT CAVOK 25/14 A3011 NOSIG=
202002081600 METAR MROC 081600Z 10011G21KT CAVOK 26/14 A3011 NOSIG=
202002081700 METAR MROC 081700Z 09013G23KT 060V120 CAVOK 27/15 A3009 NOSIG=
202002081800 METAR MROC 081800Z 10015G26KT 080V140 CAVOK 28/15 A3006 NOSIG=
202002081900 METAR MROC 081900Z 10012G22KT 050V130 9999 FEW040 29/15 A3004 NOSIG=
202002082000 METAR MROC 082000Z 09011G21KT 060V130 9999 FEW040 29/14 A3001 NOSIG=
202002082100 METAR MROC 082100Z 09014KT 9999 FEW040 29/14 A2999 NOSIG=
202002082200 METAR MROC 082200Z 08015KT 9999 FEW040 28/13 A2999 NOSIG=
202002082300 METAR MROC 082300Z 11012KT 9999 FEW035 26/15 A3000 NOSIG=
202002090000 METAR MROC 090000Z 11011KT 9999 FEW040 23/16 A3001 NOSIG=
202002090100 METAR MROC 090100Z 10013G23KT 9999 FEW020 22/16 A3004 NOSIG=
202002090200 METAR MROC 090200Z 11014KT 9999 FEW020 22/15 A3006 NOSIG=
202002090300 METAR MROC 090300Z 11015G26KT CAVOK 22/15 A3007 NOSIG=
202002090400 METAR MROC 090400Z 11015KT 080V140 CAVOK 21/16 A3008 NOSIG=
202002090500 METAR MROC 090500Z 12012KT CAVOK 21/16 A3008 NOSIG=
202002090600 METAR MROC 090600Z 11016KT CAVOK 21/16 A3007 NOSIG=
202002090700 METAR MROC 090700Z 11014KT CAVOK 21/14 A3005 NOSIG=
202002090800 METAR MROC 090800Z 10014KT CAVOK 21/14 A3004 NOSIG=
202002090900 METAR MROC 090900Z 11015KT CAVOK 21/14 A3003 NOSIG=
202002091000 METAR MROC 091000Z 11014KT CAVOK 20/15 A3003 NOSIG=
202002091100 METAR MROC 091100Z 11016KT CAVOK 20/14 A3005 NOSIG=
202002091200 METAR MROC 091200Z 09013KT 9999 FEW040 20/13 A3008 NOSIG=
202002091300 METAR MROC 091300Z 10014G24KT 9999 FEW045 21/12 A3009 NOSIG=
202002091400 METAR MROC 091400Z 11016KT CAVOK 22/13 A3010 NOSIG=
202002091500 METAR MROC 091500Z 08020G30KT CAVOK 24/08 A3010 NOSIG=
202002091600 METAR MROC 091600Z 10016KT CAVOK 25/11 A3010 NOSIG=
202002091700 METAR MROC 091700Z 08017G28KT 9999 FEW045 26/13 A3008 NOSIG=
202002091800 METAR MROC 091800Z 09018G28KT 9999 FEW040 27/12 A3006 NOSIG=
202002091900 METAR MROC 091900Z 09017KT 050V110 9999 FEW040 27/12 A3003 NOSIG=
202002092000 METAR MROC 092000Z 09019G29KT 060V120 9999 FEW040 27/11 A3000 NOSIG=
202002092100 METAR MROC 092100Z 09015G25KT CAVOK 27/11 A2998 NOSIG=
202002092200 METAR MROC 092200Z 09018G29KT CAVOK 25/13 A2997 NOSIG=
202002092300 METAR MROC 092300Z 09018KT CAVOK 24/13 A2998 NOSIG=
202002100000 METAR MROC 100000Z 10017KT 9999 FEW045 22/12 A2999 NOSIG=
202002100100 METAR MROC 100100Z 10016KT 9999 FEW045 22/09 A3000 NOSIG=
202002100200 METAR MROC 100200Z 11017KT CAVOK 21/11 A3002 NOSIG=
202002100300 METAR MROC 100300Z 10019G31KT CAVOK 21/10 A3003 NOSIG=
202002100400 METAR MROC 100400Z 10017G27KT CAVOK 21/12 A3003 NOSIG=
202002100500 METAR MROC 100500Z 10017G28KT CAVOK 20/11 A3003 NOSIG=
202002100600 METAR MROC 100600Z 10014G24KT CAVOK 20/10 A3003 NOSIG=
202002100700 METAR MROC 100700Z 10016G27KT CAVOK 20/07 A3000 NOSIG=
202002100800 METAR MROC 100800Z 11016G29KT CAVOK 21/06 A2998 NOSIG=
202002100900 METAR MROC 100900Z 11016G26KT CAVOK 21/08 A2996 NOSIG=
202002101000 METAR MROC 101000Z 10014G24KT CAVOK 20/09 A2995 NOSIG=
202002101100 METAR MROC 101100Z 102012G22KT CAVOK 21/10 A2996 NOSIG=
202002101200 METAR MROC 101200Z 10013G23KT CAVOK 21/11 A2997 NOSIG=
202002101300 METAR MROC 101300Z 10014G24KT CAVOK 21/11 A2998 NOSIG=
202002101400 METAR MROC 101400Z 10014G25KT CAVOK 25/11 A3000 NOSIG=
202002101500 METAR MROC 101500Z 11014G27KT CAVOK 27/10 A3001 NOSIG=
202002101600 METAR MROC 101600Z 08015G26KT CAVOK 28/11 A3002 NOSIG=
202002101700 METAR MROC 101700Z 09015G25KT 060V140 CAVOK 29/12 A3000 NOSIG=
202002101800 METAR MROC 101800Z 07015G25KT 050V130 CAVOK 29/13 A2998 NOSIG=
202002101900 METAR MROC 101900Z 07015G28KT 040V110 CAVOK 30/14 A2995 NOSIG=
202002102000 METAR MROC 102000Z 07015G25KT 040V100 CAVOK 29/13 A2993 NOSIG=
202002102100 METAR MROC 102100Z 07016KT 040V100 CAVOK 29/15 A2991 NOSIG=
202002102200 METAR MROC 102200Z 07017KT CAVOK 29/14 A2991 NOSIG=
202002102300 METAR MROC 102300Z 07019KT 9999 FEW040 27/14 A2992 NOSIG=
202002110000 METAR MROC 110000Z 07017KT 9999 FEW040 25/14 A2993 NOSIG=
202002110100 METAR MROC 110100Z 07017KT CAVOK 24/13 A2995 NOSIG=
202002110200 METAR MROC 110200Z 09015KT CAVOK 23/14 A2997 NOSIG=
202002110300 METAR MROC 110300Z 10012KT CAVOK 22/14 A3000 NOSIG=
202002110400 METAR MROC 110400Z 09015KT CAVOK 22/14 A3000 NOSIG=
202002110500 METAR MROC 110500Z 09014KT CAVOK 22/14 A3000 NOSIG=
202002110600 METAR MROC 110600Z 09012KT CAVOK 22/14 A2999 NOSIG=
202002110700 METAR MROC 110700Z 10014KT CAVOK 21/14 A2997 NOSIG=
202002110800 METAR MROC 110800Z 10014KT CAVOK 21/14 A2996 NOSIG=
202002110900 METAR MROC 110900Z 10013KT CAVOK 21/13 A2995 NOSIG=
202002111000 METAR MROC 111000Z 10015KT CAVOK 21/14 A2995 NOSIG=
202002111100 METAR MROC 111100Z 12011KT CAVOK 20/14 A2998 NOSIG=
202002111200 METAR MROC 111200Z 11012KT CAVOK 20/15 A2999 NOSIG=
202002111300 METAR MROC 111300Z 11015G25KT CAVOK 22/15 A3001 NOSIG=
202002111400 METAR MROC 111400Z 11015KT CAVOK 23/16 A3003 NOSIG=
202002111500 METAR MROC 111500Z 11017KT CAVOK 25/15 A3003 NOSIG=
202002111600 METAR MROC 111600Z 08017G27KT 060V120 CAVOK 26/15 A3004 NOSIG=
202002111700 METAR MROC 111700Z 09015G25KT 050V140 CAVOK 27/15 A3001 NOSIG=
202002111800 METAR MROC 111800Z 10015G25KT 060V130 CAVOK 27/15 A3000 NOSIG=
202002111900 METAR MROC 111900Z 10014G26KT 070V130 CAVOK 28/14 A2998 NOSIG=
202002112000 METAR MROC 112000Z 09014G24KT 070V140 CAVOK 27/15 A2995 NOSIG=
202002112100 METAR MROC 112100Z 09014KT 060V120 CAVOK 27/15 A2994 NOSIG=
202002112200 METAR MROC 112200Z 10015KT 080V140 CAVOK 27/15 A2993 NOSIG=
202002112300 METAR MROC 112300Z 11015G25KT CAVOK 25/15 A2995 NOSIG=
202002120000 METAR MROC 120000Z 10012KT 080V140 CAVOK 23/16 A2995 NOSIG=
202002120100 METAR MROC 120100Z 11013KT CAVOK 22/16 A2997 NOSIG=
202002120200 METAR MROC 120200Z 11012KT 080V140 CAVOK 22/16 A2997 NOSIG=
202002120300 METAR MROC 120300Z 11014KT 080V150 CAVOK 22/17 A3000 NOSIG=
202002120400 METAR MROC 120400Z 10015KT 080V140 CAVOK 22/17 A3001 NOSIG=
202002120500 METAR MROC 120500Z 11014KT 9999 FEW035 22/16 A3001 NOSIG=
202002120600 METAR MROC 120600Z 11012KT 9999 FEW040 22/16 A2999 NOSIG=
202002120700 METAR MROC 120700Z 10012KT 9999 FEW040 22/17 A2998 NOSIG=
202002120800 METAR MROC 120800Z 10015KT 080V140 9999 FEW040 21/17 A2996 NOSIG=
202002120900 METAR MROC 120900Z 11014KT 9999 FEW035 21/17 A2994 NOSIG=
202002121000 METAR MROC 121000Z 10016KT 9999 FEW030 21/17 A2995 NOSIG=
202002121100 METAR MROC 121100Z 10017KT 9999 FEW030 21/16 A2996 NOSIG=
202002121200 METAR MROC 121200Z 10016KT 9999 FEW030 21/16 A2997 NOSIG=
202002121300 METAR MROC 121300Z 11011KT 090V150 9999 FEW035 22/17 A2999 NOSIG=
202002121400 METAR MROC 121400Z 11015KT CAVOK 24/17 A3000 NOSIG=
202002121500 METAR MROC 121500Z 10019G31KT CAVOK 25/17 A3001 NOSIG=
202002121600 METAR MROC 121600Z 10018KT CAVOK 27/17 A3002 NOSIG=
202002121700 METAR MROC 121700Z 10017KT 070V130 CAVOK 27/16 A3000 NOSIG=
202002121800 METAR MROC 121800Z 11015G25KT 080V140 CAVOK 28/17 A2997 NOSIG=
202002121900 METAR MROC 121900Z 11016KT 090V150 9999 FEW040 28/17 A2994 NOSIG=
202002122000 METAR MROC 122000Z 10018KT 9999 FEW040 29/17 A2992 NOSIG=
202002122100 METAR MROC 122100Z 11014G24KT 080V140 9999 FEW035 28/16 A2992 NOSIG=
202002122200 METAR MROC 122200Z 10013G23KT 9999 FEW035 27/16 A2992 NOSIG=
202002122300 METAR MROC 122300Z 11015G25KT 9999 FEW035 24/15 A2993 NOSIG=
202002130000 METAR MROC 130000Z 11013G23KT 080V140 9999 FEW035 22/15 A2994 NOSIG=
202002130100 METAR MROC 130100Z 11018G30KT 9999 FEW035 22/16 A2996 NOSIG=
202002130200 METAR MROC 130200Z 11015G25KT 9999 FEW035 22/16 A2998 NOSIG=
202002130300 METAR MROC 130300Z 11013G23KT 9999 FEW035 22/16 A2999 NOSIG=
202002130400 METAR MROC 130400Z 11015KT 080V140 CAVOK 21/16 A3000 NOSIG=
202002130500 METAR MROC 130500Z 11012KT CAVOK 21/16 A3000 NOSIG=
202002130600 METAR MROC 130600Z 10014G25KT CAVOK 21/16 A2998 NOSIG=
202002130700 METAR MROC 130700Z 11014KT CAVOK 21/16 A2995 NOSIG=
202002130800 METAR MROC 130800Z 11014G24KT 070V130 CAVOK 20/17 A2994 NOSIG=
202002130900 METAR MROC 130900Z 10014KT CAVOK 20/16 A2993 NOSIG=
202002131000 METAR MROC 131000Z 11016G26KT CAVOK 21/16 A2993 NOSIG=
202002131100 METAR MROC 131100Z 11016KT CAVOK 21/16 A2994 NOSIG=
202002131200 METAR MROC 131200Z 11014G25KT CAVOK 21/16 A2996 NOSIG=
202002131300 METAR MROC 131300Z 10016KT CAVOK 22/16 A2998 NOSIG=
202002131400 METAR MROC 131400Z 10016G26KT CAVOK 25/15 A2999 NOSIG=
202002131500 METAR MROC 131500Z 10017G29KT CAVOK 25/15 A3000 NOSIG=
202002131600 METAR MROC 131600Z 11019G29KT 080V140 CAVOK 27/15 A3000 NOSIG=
202002131700 METAR MROC 131700Z 10018G28KT 060V130 CAVOK 28/15 A2998 NOSIG=
202002131800 METAR MROC 131800Z 10015G25KT 070V140 CAVOK 30/16 A2995 NOSIG=
202002131900 METAR MROC 131900Z 09013G23KT CAVOK 31/16 A2993 NOSIG=
202002132000 METAR MROC 132000Z 10014G24KT 060V130 9999 FEW040 31/16 A2990 NOSIG=
202002132100 METAR MROC 132100Z 10012KT 070V170 9999 FEW045 30/15 A2988 NOSIG=
202002132200 METAR MROC 132200Z 09013KT 060V120 9999 FEW040 29/16 A2988 NOSIG=
202002132300 METAR MROC 132300Z 09009KT 9999 FEW040 28/15 A2991 NOSIG=
202002140000 METAR MROC 140000Z 12008KT 090V150 9999 FEW040 25/17 A2993 NOSIG=
202002140100 METAR MROC 140100Z 09010KT 060V120 CAVOK 23/18 A2995 NOSIG=
202002140200 METAR MROC 140200Z 11007KT CAVOK 23/17 A2997 NOSIG=
202002140300 METAR MROC 140300Z VRB04KT CAVOK 22/17 A2999 NOSIG=
202002140400 METAR MROC 140400Z 08013KT CAVOK 23/16 A2999 NOSIG=
202002140500 METAR MROC 140500Z 08014KT CAVOK 23/16 A2999 NOSIG=
202002140600 METAR MROC 140600Z 08015KT 050V110 23/16 A2998 NOSIG=
202002140700 METAR MROC 140700Z 11016KT CAVOK 22/16 A2997 NOSIG=
202002140800 METAR MROC 140800Z 09014KT CAVOK 22/16 A2996 NOSIG=
202002140900 METAR MROC 140900Z 10015G25KT CAVOK 22/17 A2995 NOSIG=
202002141000 METAR MROC 141000Z 10013KT CAVOK 22/16 A2995 NOSIG=
202002141100 METAR MROC 141100Z 11018G29KT CAVOK 22/16 A2996 NOSIG=
202002141200 METAR MROC 141200Z 11018KT 9999 FEW040 22/16 A2997 NOSIG=
202002141300 METAR MROC 141300Z 10019KT 9999 FEW040 22/17 A2999 NOSIG=
202002141400 METAR MROC 141400Z 11021G32KT 9999 FEW040 23/17 A3001 NOSIG=
202002141500 METAR MROC 141500Z 10021G31KT 9999 FEW040 24/17 A3001 NOSIG=
202002141600 METAR MROC 141600Z 09023G35KT 9999 FEW040 26/16 A3001 NOSIG=
202002141700 METAR MROC 141700Z 09022G32KT 9999 FEW040 26/16 A2999 NOSIG=
202002141800 METAR MROC 141800Z 09021G31KT 9999 FEW040 27/15 A2997 NOSIG=
202002141900 METAR MROC 141900Z 09023KT 9999 FEW040 26/15 A2996 NOSIG=
202002142000 METAR MROC 142000Z 09020KT 9999 FEW040 26/15 A2994 NOSIG=
202002142100 METAR MROC 142100Z 10021G31KT 9999 FEW035 26/15 A2993 NOSIG=
202002142200 METAR MROC 142200Z 10023G33KT 9999 FEW030 25/15 A2993 NOSIG=
202002142300 METAR MROC 142300Z 09018G29KT 9999 FEW030 24/14 A2993 NOSIG=
202002150000 METAR MROC 150000Z 11019G31KT 9999 FEW030 22/14 A2994 NOSIG=
202002150100 METAR MROC 150100Z 11018KT 9999 FEW030 21/14 A2997 NOSIG=
202002150200 METAR MROC 150200Z 10020G32KT 9999 FEW030 22/13 A2999 NOSIG=
202002150300 METAR MROC 150300Z 10017KT 9999 FEW030 21/14 A3001 NOSIG=
202002150400 METAR MROC 150400Z 10015G28KT CAVOK 22/14 A3002 NOSIG=
202002150500 METAR MROC 150500Z 10018G28KT CAVOK 21/13 A3000 NOSIG=
202002150600 METAR MROC 150600Z 10018G28KT CAVOK 21/14 A2998 NOSIG=
202002150700 METAR MROC 150700Z 10019G29KT CAVOK 22/13 A2995 NOSIG=
202002150800 METAR MROC 150800Z 10018G28KT CAVOK 22/13 A2995 NOSIG=
202002150900 METAR MROC 150900Z 09020G30KT CAVOK 21/14 A2995 NOSIG=
202002151000 METAR MROC 151000Z 10019G29KT CAVOK 21/14 A2994 NOSIG=
202002151100 METAR MROC 151100Z 10020KT CAVOK 21/14 A2995 NOSIG=
202002151200 METAR MROC 151200Z 10021G31KT CAVOK 21/14 A2997 NOSIG=
202002151300 METAR MROC 151300Z 10018G29KT CAVOK 22/14 A3000 NOSIG=
202002151400 METAR MROC 151400Z 10022KT CAVOK 24/13 A3001 NOSIG=
202002151500 METAR MROC 151500Z 09024G36KT CAVOK 26/13 A3003 NOSIG=
202002151600 METAR MROC 151600Z 10020G30KT CAVOK 27/14 A3003 NOSIG=
202002151700 METAR MROC 151700Z 08022G33KT CAVOK 27/14 A3002 NOSIG=
202002151800 METAR MROC 151800Z 07024KT CAVOK 28/13 A2998 NOSIG=
202002151900 METAR MROC 151900Z 08021G31KT 9999 FEW045 28/13 A2996 WS R07 NOSIG=
202002152000 METAR MROC 152000Z 07024KT CAVOK 28/14 A2993 WS R07 NOSIG=
202002152100 METAR MROC 152100Z 07019G34KT CAVOK 28/14 A2992 WS R07 NOSIG=
202002152200 METAR MROC 152200Z 06026G36KT 9999 FEW045 28/14 A2992 WS R07 NOSIG=
202002152300 METAR MROC 152300Z 09020G32KT CAVOK 25/16 A2991 WS R07 NOSIG=
202002160000 METAR MROC 160000Z 09015G26KT CAVOK 23/16 A2993 NOSIG=
202002160100 METAR MROC 160100Z 09017G27KT CAVOK 22/15 A2995 NOSIG=
202002160200 METAR MROC 160200Z 09018G29KT CAVOK 22/16 A2997 NOSIG=
202002160300 METAR MROC 160300Z 10020G30KT 9999 FEW030 22/16 A2998 NOSIG=
202002160400 METAR MROC 160400Z 09020KT 9999 FEW020 22/15 A2999 NOSIG=
202002160500 METAR MROC 160500Z 10019G29KT 9999 FEW020 22/16 A2997 NOSIG=
202002160600 METAR MROC 160600Z 09020G31KT 9999 FEW020 22/15 A2996 NOSIG=
202002160700 METAR MROC 160700Z 10019G32KT 9999 FEW020 21/16 A2993 NOSIG=
202002160800 METAR MROC 160800Z 10018G29KT 9999 FEW020 21/15 A2992 NOSIG=
202002160900 METAR MROC 160900Z 10019G30KT 9999 FEW020 21/16 A2992 NOSIG=
202002161000 METAR MROC 161000Z 10017KT 9999 FEW020 21/14 A2992 NOSIG=
202002161100 METAR MROC 161100Z 11016KT 9999 FEW020 20/15 A2992 NOSIG=
202002161200 METAR MROC 161200Z 11019G30KT 9999 FEW040 21/15 A2993 NOSIG=
202002161300 METAR MROC 161300Z 10020G30KT CAVOK 22/16 A2995 NOSIG=
202002161400 METAR MROC 161400Z 11015KT CAVOK 24/16 A2998 NOSIG=
202002161500 METAR MROC 161500Z 09019G30KT CAVOK 25/16 A3000 NOSIG=
202002161600 METAR MROC 161600Z 08020G30KT 9999 FEW045 26/15 A2998 NOSIG=
202002161700 METAR MROC 161700Z 08022G33KT 9999 FEW045 27/15 A2996 NOSIG=
202002161800 METAR MROC 161800Z 08018G31KT CAVOK 28/15 A2994 NOSIG=
202002161900 METAR MROC 161900Z 09017G28KT CAVOK 28/15 A2992 NOSIG=
202002162000 METAR MROC 162000Z 10015G25KT CAVOK 28/15 A2989 NOSIG=
202002162100 METAR MROC 162100Z 10012G22KT 070V130 9999 FEW040 28/15 A2988 NOSIG=
202002162200 METAR MROC 162200Z 11015G25KT 060V130 9999 FEW040 26/15 A2988 NOSIG=
202002162300 METAR MROC 162300Z 11017G27KT 9999 FEW040 24/15 A2989 NOSIG=
202002170000 METAR MROC 170000Z 11017G27KT 9999 FEW040 22/15 A2990 NOSIG=
202002170100 METAR MROC 170100Z 11016KT CAVOK 21/15 A2991 NOSIG=
202002170200 METAR MROC 170200Z 10019G29KT CAVOK 21/14 A2994 NOSIG=
202002170300 METAR MROC 170300Z 09019G30KT CAVOK 21/14 A2994 NOSIG=
202002170400 METAR MROC 170400Z 10016G27KT CAVOK 22/13 A2995 NOSIG=
202002170500 METAR MROC 170500Z 10013KT CAVOK 21/14 A2994 NOSIG=
202002170600 METAR MROC 170600Z 10016KT CAVOK 21/14 A2993 NOSIG=
202002170700 METAR MROC 170700Z 10017G27KT CAVOK 21/14 A2991 NOSIG=
202002170800 METAR MROC 170800Z 10017KT CAVOK 21/13 A2989 NOSIG=
202002170900 METAR MROC 170900Z 09019G29KT CAVOK 21/14 A2987 NOSIG=
202002171000 METAR MROC 171000Z 10018KT 9999 FEW035 21/14 A2988 NOSIG=
202002171100 METAR MROC 171100Z 09018G29KT CAVOK 21/14 A2989 NOSIG=
202002171200 METAR MROC 171200Z 10018KT CAVOK 21/14 A2990 NOSIG=
202002171300 METAR MROC 171300Z 09019KT 070V130 CAVOK 22/14 A2993 NOSIG=
202002171400 METAR MROC 171400Z 10015KT CAVOK 23/15 A2993 NOSIG=
202002171500 METAR MROC 171500Z 11020G32KT CAVOK 25/15 A2995 NOSIG=
202002171600 METAR MROC 171600Z 10020G30KT CAVOK 26/16 A2995 NOSIG=
202002171700 METAR MROC 171700Z 10021G31KT 070V130 9999 FEW045 27/16 A2993 NOSIG=
202002171800 METAR MROC 171800Z 08019KT 9999 FEW045 28/16 A2991 NOSIG=
202002171900 METAR MROC 171900Z 09019G29KT 9999 FEW045 28/16 A2987 NOSIG=
202002172000 MROC 172000Z 11019G31KT 070V140 9999 FU FEW045 28/17 A2984 NOSIG=
202002172100 METAR MROC 172100Z 10024G37KT 9999 FEW045 27/16 A2983 NOSIG=
202002172200 METAR MROC 172200Z 10022KT 9999 FEW045 26/16 A2984 NOSIG=
202002172300 METAR MROC 172300Z 10020G34KT 9999 FEW045 25/15 A2985 NOSIG=
202002180000 METAR MROC 180000Z 10017KT 9999 FEW045 24/15 A2988 NOSIG=
202002180100 METAR MROC 180100Z 09016G26KT 9999 FEW045 24/15 A2989 NOSIG=
202002180200 METAR MROC 180200Z 10020G30K CAVOK 23/15 A2990 NOSIG=
202002180300 METAR MROC 180300Z 10020G30K CAVOK 23/15 A2994 NOSIG=
202002180400 METAR MROC 180400Z 10016KT CAVOK 22/15 A2995 NOSIG=
202002180500 METAR MROC 180500Z 10017G27KT CAVOK 22/16 A2994 NOSIG=
202002180600 METAR MROC 180600Z 11018G28KT CAVOK 22/16 A2992 NOSIG=
202002180700 METAR MROC 180700Z 10017G27KT CAVOK 22/16 A2989 NOSIG=
202002180800 METAR MROC 180800Z 10018G28KT CAVOK 22/16 A2988 NOSIG=
202002180900 METAR MROC 180900Z 10020G31KT CAVOK 22/16 A2987 NOSIG=
202002181000 METAR MROC 181000Z 10020G30KT CAVOK 22/16 A2988 NOSIG=
202002181100 METAR MROC 181100Z 10019G29KT CAVOK 22/16 A2989 NOSIG=
202002181200 METAR MROC 181200Z 10020G31KT CAVOK 21/16 A2992 NOSIG=
202002181300 METAR MROC 181300Z 10022G32KT 9999 FEW040 23/16 A2993 NOSIG=
202002181400 METAR MROC 181400Z 09020G30KT 9999 FEW035 25/16 A2994 NOSIG=
202002181500 METAR MROC 181500Z 10020G30KT 9999 FEW035 26/17 A2997 NOSIG=
202002181600 METAR MROC 181600Z 09021G33KT 9999 FEW035 27/16 A2996 NOSIG=
202002181700 METAR MROC 181700Z 08026G37KT 9999 FEW035 28/16 A2994 NOSIG=
202002181800 METAR MROC 181800Z 08022G36KT 9999 FEW035 28/16 A2992 NOSIG=
202002181900 METAR MROC 181900Z 07027G40KT 9999 FEW035 28/15 A2990 NOSIG=
202002182000 METAR MROC 182000Z 08022G34KT 9999 FEW035 29/16 A2987 NOSIG=
202002182100 METAR MROC 182100Z 08026G37KT 9999 FEW030 SCT200 28/15 A2985 NOSIG=
202002182200 METAR MROC 182200Z 09020G34KT 9999 FEW030 SCT200 27/15 A2985 NOSIG=
202002182300 METAR MROC 182300Z 08024KT 9999 FEW030 SCT200 26/15 A2987 NOSIG=
202002190000 METAR MROC 190000Z 09021G31KT 9999 FEW030 24/16 A2988 NOSIG=
202002190100 METAR MROC 190100Z 09020G31KT 9999 FEW030 23/17 A2990 NOSIG=
202002190200 METAR MROC 190200Z 09020KT 9999 FEW030 23/17 A2994 NOSIG=
202002190300 METAR MROC 190300Z 09021G31KT 9999 FEW030 23/16 A2995 NOSIG=
202002190400 METAR MROC 190400Z 10021G33KT 9999 FEW040 24/15 A2996 NOSIG=
202002190500 METAR MROC 190500Z 09017KT 9999 FEW045 22/16 A2996 NOSIG=
202002190600 METAR MROC 190600Z 09020G30KT CAVOK 22/16 A2994 NOSIG=
202002190700 METAR MROC 190700Z 10016KT CAVOK 23/15 A2992 NOSIG=
202002190800 METAR MROC 190800Z 10019KT CAVOK 23/15 A2990 NOSIG=
202002190900 METAR MROC 190900Z 10017G30KT CAVOK 22/15 A2991 NOSIG=
202002191000 METAR MROC 191000Z 10020G31KT CAVOK 22/15 A2991 NOSIG=
202002191100 METAR MROC 191100Z 10017KT CAVOK 22/15 A2993 NOSIG=
202002191200 METAR MROC 191200Z 09018KT CAVOK 22/15 A2995 NOSIG=
202002191300 METAR MROC 191300Z 10020G30KT 9999 FEW030 23/16 A2997 NOSIG=
202002191400 METAR MROC 191400Z 10019G32KT 070V130 9999 FEW030 24/16 A2999 NOSIG=
202002191500 METAR MROC 191500Z 10021G33KT 9999 FEW030 25/16 A3001 NOSIG=
202002191600 METAR MROC 191600Z 09020KT 9999 FEW030 27/15 A3002 NOSIG=
202002191700 METAR MROC 191700Z 09022G35KT 9999 FEW030 29/15 A3000 NOSIG=
202002191800 METAR MROC 191800Z 10022G34KT 9999 FEW030 28/17 A2998 NOSIG=
202002191900 METAR MROC 191900Z 10021G32KT 9999 FEW030 29/16 A2996 NOSIG=
202002192000 METAR MROC 192000Z 08025G35KT 9999 FEW040 29/14 A2993 NOSIG=
202002192100 METAR MROC 192100Z 08022G35KT 9999 FEW035 29/16 A2991 NOSIG=
202002192200 METAR MROC 192200Z 07023G33KT 9999 FEW035 29/16 A2991 NOSIG=
202002192300 METAR MROC 192300Z 08020G30KT 9999 FEW030 27/16 A2992 NOSIG=
202002200000 METAR MROC 200000Z 10021G33KT 9999 FEW040 25/18 A2992 NOSIG=
202002200100 METAR MROC 200100Z 09021KT 9999 FEW040 25/17 A2995 NOSIG=
202002200200 METAR MROC 200200Z 09019G29KT 9999 FEW040 24/17 A2999 NOSIG=
202002200300 METAR MROC 200300Z 09019G29KT 9999 FEW030 23/17 A2999 NOSIG=
202002200400 METAR MROC 200400Z 09019G31KT 9999 FEW030 23/17 A2999 NOSIG=
202002200500 METAR MROC 200500Z 10018G32KT 9999 FEW030 23/17 A2999 NOSIG=
202002200600 METAR MROC 200600Z 09020G30KT CAVOK 23/17 A2998 NOSIG=
202002200700 METAR MROC 200700Z 10020G32KT CAVOK 22/17 A2996 NOSIG=
202002200800 METAR MROC 200800Z 10021G33KT 9999 FEW030 22/16 A2994 NOSIG=
202002200900 METAR MROC 200900Z 10018G30KT 9999 FEW030 22/16 A2994 NOSIG=
202002201000 METAR MROC 201000Z 09022G35KT 9999 FEW030 22/16 A2993 NOSIG=
202002201100 METAR MROC 201100Z 09020G30KT 9999 FEW030 22/15 A2994 NOSIG=
202002201200 METAR MROC 201200Z 09020G30KT 9999 FEW030 22/16 A2996 NOSIG=
202002201300 METAR MROC 201300Z 10021G32KT 9999 FEW045 23/16 A2997 NOSIG=
202002201400 METAR MROC 201400Z 10019G31KT 9999 FEW045 SCT200 24/16 A2999 NOSIG=
202002201500 METAR MROC 201500Z 10022G34KT 9999 FEW040 BKN200 25/16 A3000 NOSIG=
202002201600 METAR MROC 201600Z 10021G32KT 9999 FEW040 SCT200 26/17 A3002 NOSIG=
202002201700 METAR MROC 201700Z 10021G31KT CAVOK 21/17 A3001 NOSIG=
202002201800 METAR MROC 201800Z 10019G34KT CAVOK 28/17 A2997 NOSIG=
202002201900 METAR MROC 201900Z 09017G27KT 060V120 9999 FEW040 BKN200 29/16 A2996 NOSIG=
202002202000 METAR MROC 202000Z 10015G25KT 9999 FEW040 BKN160 28/17 A2994 NOSIG=
202002202100 METAR MROC 202100Z 09013KT 9999 FEW035 BKN100 28/16 A2993 NOSIG=
202002202200 METAR MROC 202200Z 11014KT 9999 SCT030 SCT200 27/17 A2993 NOSIG=
202002202300 METAR MROC 202300Z 11014KT 9999 SCT030 SCT200 25/17 A2994 NOSIG=
202002210000 METAR MROC 210000Z 10009G20KT 9999 FEW030 SCT250 24/17 A2996 NOSIG=
202002210100 METAR MROC 210100Z 09009KT 050V120 9999 FEW030 23/17 A2998 NOSIG=
202002210200 METAR MROC 210200Z 06005KT 350V100 9999 FEW030 22/17 A3002 NOSIG=
202002210300 METAR MROC 210300Z 08008KT 040V120 9999 FEW030 23/18 A3004 NOSIG=
202002210400 METAR MROC 210400Z 05005KT 010V120 9999 FEW030 22/18 A3005 NOSIG=
202002210500 METAR MROC 210500Z 09010KT 060V120 9999 FEW020 22/18 A3005 NOSIG=
202002210600 METAR MROC 210600Z 04008KT 010V170 CAVOK 22/17 A3004 NOSIG=
202002210700 METAR MROC 210700Z 06007KT 010V130 9999 FEW020 22/17 A3002 NOSIG=
202002210800 METAR MROC 210800Z 03003KT 360V090 9999 FEW020 21/17 A3001 NOSIG=
202002210900 METAR MROC 210900Z 04006KT 9999 FEW035 20/17 A3000 NOSIG=
202002211000 METAR MROC 211000Z 26003KT 200V210 9999 FEW030 21/17 A3000 NOSIG=
202002211100 METAR MROC 211100Z VRB02KT 9999 FEW045 20/17 A3002 NOSIG=
202002211200 METAR MROC 211200Z 08007KT 050V140 9999 FEW045 21/16 A3004 NOSIG=
202002211300 METAR MROC 211300Z 09006KT 060V150 9999 FEW035 22/16 A3005 NOSIG=
202002211400 METAR MROC 211400Z 10019G30KT 9999 FEW030 SCT200 24/15 A3006 NOSIG=
202002211500 METAR MROC 211500Z 11022G33KT 9999 FEW040 BKN200 25/15 A3007 NOSIG=
202002211600 METAR MROC 211600Z 11018G28KT 9999 FEW045 SCT200 26/16 A3007 NOSIG=
202002211700 METAR MROC 211700Z 09018KT 9999 FEW040 27/16 A3006 NOSIG=
202002211800 METAR MROC 211800Z 09020G31KT 070V140 9999 FEW040 27/14 A3006 NOSIG=
202002211900 METAR MROC 211900Z 10019G33KT 9999 FEW045 28/14 A3002 NOSIG=
202002212000 METAR MROC 212000Z 09016G27KT 020V120 9999 FEW045 28/14 A3001 NOSIG=
202002212100 METAR MROC 212100Z 08016KT 050V110 9999 FEW040 26/16 A2999 NOSIG=
202002212200 METAR MROC 212200Z 11014KT 080V140 9999 FEW030 26/17 A2999 NOSIG=
202002212300 METAR MROC 212300Z 10014G24KT 080V140 9999 FEW030 SCT060 25/16 A2999 NOSIG=
202002220000 METAR MROC 220000Z 08012KT 9999 FEW030 SCT060 24/16 A3001 NOSIG=
202002220100 METAR MROC 220100Z 09014G24KT 060V120 9999 FEW030 SCT060 22/16 A3004 NOSIG=
202002220200 METAR MROC 220200Z 10009KT 070V140 9999 FEW030 22/16 A3008 NOSIG=
202002220300 METAR MROC 220300Z 11009KT 9999 FEW030 21/16 A3009 NOSIG=
202002220400 METAR MROC 220400Z 07008KT 030V110 9999 DZ FEW025 21/16 A3011 NOSIG=
202002220500 METAR MROC 220500Z 06010KT 9999 FEW025 21/14 A3010 NOSIG=
202002220600 METAR MROC 220600Z 10013KT 060V130 9999 FEW025 21/12 A3006 NOSIG=
202002220700 METAR MROC 220700Z 09014G24KT 9999 FEW030 21/11 A3004 NOSIG=
202002220800 METAR MROC 220800Z 11019G31KT 9999 FEW030 21/13 A3002 NOSIG=
202002220900 METAR MROC 220900Z 11020KT 9999 FEW030 20/13 A3002 NOSIG=
202002221000 METAR MROC 221000Z 11019G29KT CAVOK 21/12 A3003 NOSIG=
202002221100 METAR MROC 221100Z 11017KT CAVOK 20/13 A3005 NOSIG=
202002221200 METAR MROC 221200Z 11020KT CAVOK 20/13 A3002 NOSIG=
202002221300 METAR MROC 221300Z 10016KT CAVOK 21/13 A3009 NOSIG=
202002221400 METAR MROC 221400Z 11019G29KT CAVOK 23/13 A3010 NOSIG=
202002221500 METAR MROC 221500Z 09019G29KT 070V130 CAVOK 26/13 A3011 NOSIG=
202002221600 METAR MROC 221600Z 08020G34KT CAVOK 26/12 A3011 NOSIG=
202002221700 METAR MROC 221700Z 09017KT 060V120 CAVOK 28/12 A3010 NOSIG=
202002221800 METAR MROC 221800Z 08019KT CAVOK 28/12 A3007 NOSIG=
202002221900 METAR MROC 221900Z 08021KT CAVOK 28/12 A3005 NOSIG=
202002222000 METAR MROC 222000Z 08018KT 9999 FEW045 28/12 A3003 NOSIG=
202002222100 METAR MROC 222100Z 07020G30KT 9999 FEW045 28/13 A3001 NOSIG=
202002222200 METAR MROC 222200Z 08017G29KT 9999 FEW040 27/14 A3002 NOSIG=
202002222300 METAR MROC 222300Z 07018G28KT 9999 FEW040 25/13 A3002 NOSIG=
202002230000 METAR MROC 230000Z 08018G29KT 9999 FEW040 23/13 A3003 NOSIG=
202002230100 METAR MROC 230100Z 09016G28KT 9999 FEW040 22/13 A3006 NOSIG=
202002230200 METAR MROC 230200Z 11011G24KT 080V140 CAVOK 21/13 A3008 NOSIG=
202002230300 METAR MROC 230300Z 10015G26KT CAVOK 22/12 A3010 NOSIG=
202002230400 METAR MROC 230400Z 10014G25KT CAVOK 20/12 A3010 NOSIG=
202002230500 METAR MROC 230500Z COR 11016G30KT CAVOK 20/12 A3008 NOSIG=
202002230600 METAR MROC 230600Z 11015G29KT CAVOK 21/10 A3007 NOSIG=
202002230700 METAR MROC 230700Z 10015G27KT CAVOK 20/10 A3003 NOSIG=
202002230800 METAR MROC 230800Z 11017G27KT CAVOK 21/08 A3001 NOSIG=
202002230900 METAR MROC 230900Z 11017G28KT CAVOK 21/08 A3000 NOSIG=
202002231000 METAR MROC 231000Z 11015G25KT CAVOK 21/08 A3001 NOSIG=
202002231100 METAR MROC 231100Z 11016G26KT CAVOK 20/09 A3002 NOSIG=
202002231200 METAR MROC 231200Z 11014G25KT CAVOK 20/08 A3004 NOSIG=
202002231300 METAR MROC 231300Z 11020G30KT CAVOK 21/09 A3005 NOSIG=
202002231400 METAR MROC 231400Z 11019G34KT CAVOK 24/08 A3005 NOSIG=
202002231500 METAR MROC 231500Z 11020G32KT CAVOK 25/09 A3007 NOSIG=
202002231600 METAR MROC 231600Z 11018G28KT 080V140 CAVOK 27/08 A3007 NOSIG=
202002231700 METAR MROC 231700Z 11013G23KT 080V140 CAVOK 28/07 A3005 NOSIG=
202002231800 METAR MROC 231800Z 10011G21KT 070V150 CAVOK 30/09 A3004 NOSIG=
202002231900 METAR MROC 231900Z 11015G26KT 070V140 CAVOK 30/04 A3001 NOSIG=
202002232000 METAR MROC 232000Z 10013G23KT 070V140 CAVOK 30/07 A2998 NOSIG=
202002232100 METAR MROC 232100Z 09013G23KT 060V130 9999 FEW030 29/08 A2996 NOSIG=
202002232200 METAR MROC 232200Z 09013KT 060V120 9999 FEW020 28/10 A2997 NOSIG=
202002232300 METAR MROC 232300Z 08011KT CAVOK 27/10 A2998 NOSIG=
202002240000 METAR MROC 240000Z 08009KT 050V110 CAVOK 24/11 A3000 NOSIG=
202002240100 METAR MROC 240100Z 11011KT CAVOK 22/12 A3001 NOSIG=
202002240200 METAR MROC 240200Z 11013KT 090V150 CAVOK 21/14 A3003 NOSIG=
202002240300 METAR MROC 240300Z 10015G26KT CAVOK 21/12 A3005 NOSIG=
202002240400 METAR MROC 240400Z 10015KT CAVOK 21/14 A3006 NOSIG=
202002240500 METAR MROC 240500Z 11012KT 080V140 CAVOK 21/14 A3006 NOSIG=
202002240600 METAR MROC 240600Z 11014KT CAVOK 20/14 A3004 NOSIG=
202002240700 METAR MROC 240700Z 10011KT 080V140 CAVOK 19/13 A3002 NOSIG=
202002240800 METAR MROC 240800Z 10010KT CAVOK 19/13 A3000 NOSIG=
202002240900 METAR MROC 240900Z 09010KT CAVOK 19/12 A2998 NOSIG=
202002241000 METAR MROC 241000Z 10011KT CAVOK 19/12 A2998 NOSIG=
202002241100 METAR MROC 241100Z 06007KT 030V090 CAVOK 19/12 A3000 NOSIG=
202002241200 METAR MROC 241200Z 04010KT CAVOK 19/13 A3003 NOSIG=
202002241300 METAR MROC 241300Z 04008KT 020V080 CAVOK 21/13 A3004 NOSIG=
202002241400 METAR MROC 241400Z 11013KT CAVOK 24/12 A3004 NOSIG=
202002241500 METAR MROC 241500Z 11012KT 080V140 CAVOK 26/12 A3005 NOSIG=
202002241600 METAR MROC 241600Z 11010KT 080V150 CAVOK 28/12 A3006 NOSIG=
202002241700 METAR MROC 241700Z 11012KT 070V150 CAVOK 29/13 A3002 NOSIG=
202002241800 METAR MROC 241800Z 13008KT 080V190 9999 FEW040 31/11 A3000 BECMG 24008KT=
202002241900 METAR MROC 241900Z 26013KT 220V290 9999 FEW030 31/15 A2998 NOSIG=
202002242000 METAR MROC 242000Z 26011KT 230V300 9999 FEW040 29/16 A2996 NOSIG=
202002242100 METAR MROC 242100Z 27010KT 240V310 9999 FEW045 28/17 A2995 NOSIG=
202002242200 METAR MROC 242200Z 27010KT 9999 FEW040 27/18 A2995 NOSIG=
202002242300 METAR MROC 242300Z 28009KT 9999 SCT040 25/18 A2996 NOSIG=
202002250000 METAR MROC 250000Z 27008KT 9999 BKN040 25/18 A2998 NOSIG=
202002250100 METAR MROC 250100Z 24005KT 9999 BKN040 23/18 A3000 NOSIG=
202002250200 METAR MROC 250200Z 27004KT 9999 FEW020 BKN030 22/18 A3003 NOSIG=
202002250300 METAR MROC 250300Z VRB01KT 8000 VCFG FEW040 21/18 A3004 NOSIG=
202002250400 METAR MROC 250400Z 17003KT CAVOK 21/18 A3004 NOSIG=
202002250500 METAR MROC 250500Z 00000KT 9999 SCT020 21/18 A3005 NOSIG=
202002250600 METAR MROC 250600Z 09003KT 9999 BKN020 20/18 A3004 NOSIG=
202002250700 METAR MROC 250700Z 04005KT 9999 BKN020 21/17 A3002 NOSIG=
202002250800 METAR MROC 250800Z VRB02KT 9999 BKN020 20/17 A3001 NOSIG=
202002250900 METAR MROC 250900Z 09003KT 9999 SCT030 20/16 A3000 NOSIG=
202002251000 METAR MROC 251000Z 11004KT 9999 FEW030 SCT050 19/16 A3000 NOSIG=
202002251100 METAR MROC 251100Z 08005KT CAVOK 20/16 A2999 NOSIG=
202002251200 METAR MROC 251200Z 08004KT CAVOK 19/16 A3001 NOSIG=
202002251300 METAR MROC 251300Z 10005KT CAVOK 21/16 A3003 NOSIG=
202002251400 METAR MROC 251400Z 11006KT 080V140 9999 4000W NSC 24/16 A3005 NOSIG=
202002251500 METAR MROC 251500Z 23005KT 140V300 9999 FEW040 25/17 A3007 NOSIG=
202002251600 METAR MROC 251600Z 22005KT 9999 FEW040 27/16 A3008 NOSIG=
202002251700 METAR MROC 251700Z 23008KT 180V280 9999 SCT040 27/16 A3006 NOSIG=
202002251800 METAR MROC 251800Z 23010KT 180V280 9999 SCT040 29/17 A3004 NOSIG=
202002251900 METAR MROC 251900Z 24009KT 200V270 9999 SCT040 28/17 A3001 NOSIG=
202002252000 METAR MROC 252000Z 24010KT 190V300 9999 FEW040 30/18 A2998 NOSIG=
202002252100 METAR MROC 252100Z 25013KT 9999 FEW040 28/17 A2997 NOSIG=
202002252200 METAR MROC 252200Z 25013KT 220V280 9999 FEW040 28/17 A2997 NOSIG=
202002252300 METAR MROC 252300Z 25012KT 230V290 9999 SCT045 26/16 A2998 NOSIG=
202002260000 METAR MROC 260000Z 23007KT 9999 FEW040 26/16 A3000 NOSIG=
202002260100 METAR MROC 260100Z 25005KT 220V280 9999 FEW040 23/17 A3001 NOSIG=
202002260200 METAR MROC 260200Z VRB01KT CAVOK 23/18 A3003 NOSIG=
202002260300 METAR MROC 260300Z 22003KT CAVOK 21/18 A3005 NOSIG=
202002260400 METAR MROC 260400Z VRB01KT CAVOK 21/19 A3005 NOSIG=
202002260500 METAR MROC 260500Z 07004KT CAVOK 20/16 A3004 NOSIG=
202002260600 METAR MROC 260600Z 07004KT CAVOK 20/15 A3004 NOSIG=
202002260700 METAR MROC 260700Z 06006KT CAVOK 19/14 A3001 NOSIG=
202002260800 METAR MROC 260800Z COR 06003KT CAVOK 18/12 A3001 NOSIG=
202002260900 METAR MROC 260900Z COR 05007KT CAVOK 19/13 A3001 NOSIG=
202002261000 METAR MROC 261000Z COR 08005KT CAVOK 18/13 A3001 NOSIG=
202002261100 METAR MROC 261100Z 06009KT CAVOK 18/13 A3002 NOSIG=
202002261200 METAR MROC 261200Z 07006KT CAVOK 19/13 A3004 NOSIG=
202002261300 METAR MROC 261300Z 08007KT CAVOK 20/13 A3006 NOSIG=
202002261400 METAR MROC 261400Z 08007KT 080V120 CAVOK 24/15 A3008 NOSIG=
202002261500 METAR MROC 261500Z VRB03KT CAVOK 27/14 A3010 BECMG 25007KT=
202002261600 METAR MROC NIL=
202002261606 METAR MROC 261606Z VRB04KT CAVOK 28/13 A3010 BECMG 25007KT=
202002261700 METAR MROC 261700Z 24009KT 210V270 CAVOK 30/15 A3008 NOSIG=
202002261800 METAR MROC 261800Z 25009KT 170V300 CAVOK 30/14 A3005 NOSIG=
202002261900 METAR MROC 261900Z 24009KT 200V280 9999 FEW045 31/16 A3003 NOSIG=
202002262000 METAR MROC 262000Z 24012KT 210V270 9999 FEW040 30/17 A3001 NOSIG=
202002262100 METAR MROC 262100Z 25014KT 9999 FEW045 29/17 A2999 NOSIG=
202002262200 METAR MROC 262200Z 24013KT 210V280 9999 FEW045 SCT140 28/18 A3000 NOSIG=
202002262300 METAR MROC 262300Z 24011KT 9999 FEW035 BKN140 27/18 A3001 NOSIG=
202002270000 METAR MROC 270000Z 23009KT 9999 FEW045 BKN150 24/19 A3002 NOSIG=
202002270100 METAR MROC 270100Z 24007KT CAVOK 23/20 A3005 NOSIG=
202002270200 METAR MROC 270200Z 24005KT 9999 FEW008 22/21 A3008 NOSIG=
202002270300 METAR MROC 270300Z 30004KT 260V330 9999 FEW010 22/21 A3010 NOSIG=
202002270400 METAR MROC 270400Z 22004KT 9999 VCFG FEW005 SCT015 22/21 A3010 NOSIG=
202002270500 METAR MROC 270500Z VRB02KT 9999 4000W BCFG SCT004 SCT012 22/21 A3010 TEMPO 5000=
202002270600 METAR MROC 270600Z 00000KT 9999 VCFG FEW005 SCT025 21/21 A3009 NOSIG=
202002270700 METAR MROC 270700Z 00000KT 9999 FEW005 21/21 A3006 NOSIG=
202002270800 METAR MROC 270800Z VRB02KT 9999 4000SW FEW015 21/20 A3005 NOSIG=
202002270900 METAR MROC 270900Z VRB02KT 9999 3000SW BCFG FEW004 SCT010 21/19 A3004 NOSIG=
202002271000 METAR MROC 271000Z 05005KT 9999 4000SW VCFG FEW010 21/18 A3003 NOSIG=
202002271100 METAR MROC 271100Z 10005KT 9999 4000SW VCFG FEW015 20/18 A3004 NOSIG=
202002271200 METAR MROC 271200Z 10005KT CAVOK 21/17 A3005 NOSIG=
202002271300 METAR MROC 271300Z 09007KT CAVOK 23/17 A3007 NOSIG=
202002271400 METAR MROC 271400Z 11006KT 080V140 CAVOK 26/17 A3008 NOSIG=
202002271500 METAR MROC 271500Z 12010KT 080V170 CAVOK 27/16 A3008 NOSIG=
202002271600 METAR MROC 271600Z 12013G23KT 090V150 CAVOK 29/14 A3008 NOSIG=
202002271700 METAR MROC 271700Z 12012KT 090V150 CAVOK 31/13 A3006 NOSIG=
202002271800 METAR MROC 271800Z 10010KT 020V150 9999 FEW045 SCT250 32/13 A3002 NOSIG=
202002271900 METAR MROC 271900Z VRB06KT 9999 SCT045 SCT250 30/13 A3002 NOSIG=
202002272000 METAR MROC 272000Z 03012G29KT 9999 SCT045 SCT250 31/11 A3001 NOSIG=
202002272100 METAR MROC 272100Z 07014G24KT 040V110 9999 SCT045 30/12 A3000 WS R07 NOSIG=
202002272200 METAR MROC 272200Z 09013G23KT 050V120 9999 FEW045 29/14 A3000 WS R07 NOSIG=
202002272300 METAR MROC 272300Z 08012G22KT 9999 FEW035 27/15 A3001 WS R07 NOSIG=
202002280000 METAR MROC 280000Z 09013G26KT 070V140 9999 FEW035 24/16 A3003 WS R07 NOSIG=
202002280100 METAR MROC 280100Z 10012G22KT 9999 FEW030 23/15 A3005 WS R07 NOSIG=
202002280200 METAR MROC 280200Z 11011G21KT CAVOK 22/14 A3008 WS R07 NOSIG=
202002280300 METAR MROC 280300Z 09014G27KT CAVOK 23/14 A3008 WS R07 NOSIG=
202002280400 METAR MROC 280400Z 09015G26KT 060V120 CAVOK 22/14 A3009 NOSIG=
202002280500 METAR MROC 280500Z 10014G29KT CAVOK 22/14 A3008 NOSIG=
202002280600 METAR MROC 280600Z 10017G32KT CAVOK 22/14 A3006 NOSIG=
202002280700 METAR MROC 280700Z 10014G24KT 080V140 CAVOK 22/14 A3005 NOSIG=
202002280800 METAR MROC 280800Z 10014G27KT CAVOK 21/14 A3002 NOSIG=
202002280900 METAR MROC 280900Z 10020G30KT CAVOK 22/14 A3002 NOSIG=
202002281000 METAR MROC 281000Z 11016G28KT CAVOK 22/15 A3002 NOSIG=
202002281100 METAR MROC 281100Z 10014G24KT CAVOK 21/15 A3003 NOSIG=
202002281200 METAR MROC 281200Z 10018G32KT CAVOK 21/16 A3004 NOSIG=
202002281300 METAR MROC 281300Z 10018G29KT 9999 FEW040 22/16 A3006 NOSIG=
202002281400 METAR MROC 281400Z 09019G33KT 9999 FEW040 24/13 A3008 NOSIG=
202002281500 METAR MROC 281500Z 09021G35KT 9999 FEW045 25/14 A3010 NOSIG=
202002281600 METAR MROC 281600Z 08021G31KT CAVOK 26/13 A3009 NOSIG=
202002281700 METAR MROC 281700Z 08020G32KT 9999 FEW040 28/13 A3008 NOSIG=
202002281800 METAR MROC 281800Z 08020G30KT 9999 FEW040 28/13 A3006 NOSIG=
202002281900 METAR MROC 281900Z 07023G34KT 9999 FEW045 28/14 A3004 NOSIG=
202002282000 METAR MROC 282000Z 07023G33KT 9999 FEW045 28/13 A3002 NOSIG=
202002282100 METAR MROC 282100Z 07022G35KT 9999 FEW045 28/13 A3000 NOSIG=
202002282200 METAR MROC 282200Z 06024KT 9999 FEW045 27/13 A3000 NOSIG=
202002282300 METAR MROC 282300Z 07021KT 9999 FEW045 25/13 A3001 NOSIG=
202002290000 METAR MROC 290000Z 08019G32KT 9999 FEW045 23/14 A3002 NOSIG=
202002290100 METAR MROC 290100Z 08016KT CAVOK 23/13 A3004 NOSIG=
202002290200 METAR MROC 290200Z 09019KT CAVOK 22/14 A3007 NOSIG=
202002290300 METAR MROC 290300Z 09017G28KT 9999 FEW030 22/15 A3009 NOSIG=
202002290400 METAR MROC 290400Z 10016KT 070V130 CAVOK 21/15 A3008 NOSIG=
202002290500 METAR MROC 290500Z 11019KT CAVOK 21/16 A3007 NOSIG=
202002290600 METAR MROC 290600Z 11018G28KT CAVOK 21/17 A3006 NOSIG=
202002290700 METAR MROC 290700Z 11019G31KT CAVOK 21/16 A3006 NOSIG=
202002290800 METAR MROC 290800Z 10019KT CAVOK 21/16 A3004 NOSIG=
202002290900 METAR MROC 290900Z 10021G31KT CAVOK 21/16 A3002 NOSIG=
202002291000 METAR MROC 291000Z 10018KT CAVOK 22/16 A3004 NOSIG=
202002291100 METAR MROC 291100Z 10019G29KT CAVOK 21/16 A3004 NOSIG=
202002291200 METAR MROC 291200Z 10016KT 9999 FEW045 21/14 A3006 NOSIG=
202002291300 METAR MROC 291300Z 09019KT 9999 FEW040 23/15 A3009 NOSIG=
202002291400 METAR MROC 291400Z 09019KT 9999 FEW040 24/15 A3011 NOSIG=
202002291500 METAR MROC 291500Z 08022G32KT 9999 FEW030 25/14 A3011 NOSIG=
202002291600 METAR MROC 291600Z 07025G36KT 9999 FEW030 26/13 A3011 NOSIG=
202002291700 METAR MROC 291700Z 07027G38KT 9999 FEW040 27/12 A3009 NOSIG=
202002291800 METAR MROC 291800Z 07025G36KT 9999 FEW030 28/13 A3007 NOSIG=
202002291900 METAR MROC 291900Z 08023G37KT 9999 FEW030 28/13 A3004 NOSIG=
202002292000 METAR MROC 292000Z 07025G35KT 9999 FEW030 28/14 A3002 NOSIG=
202002292100 METAR MROC 292100Z 08024G36KT 9999 FEW045 27/16 A2998 NOSIG=
202002292200 METAR MROC 292200Z 08024G37KT 9999 FEW045 25/15 A3000 NOSIG=
202002292300 METAR MROC 292300Z 08022G32KT 9999 FEW045 25/15 A3001 NOSIG=
202003010000 METAR MROC 010000Z 09020G30KT 9999 FEW045 23/14 A3002 NOSIG=
202003010100 METAR MROC 010100Z 07021KT 9999 FEW045 23/14 A3005 NOSIG=
202003010200 METAR MROC 010200Z 09020G30KT CAVOK 23/14 A3006 NOSIG=
202003010300 METAR MROC 010300Z 10016G26KT 9999 FEW035 22/15 A3008 NOSIG=
202003010400 METAR MROC 010400Z 10015G30KT CAVOK 21/15 A3008 NOSIG=
202003010500 METAR MROC 010500Z 10015G27KT CAVOK 21/15 A3007 NOSIG=
202003010600 METAR MROC 010600Z 10013G23KT CAVOK 21/15 A3005 NOSIG=
202003010700 METAR MROC 010700Z 10016G26KT CAVOK 21/15 A3002 NOSIG=
202003010800 METAR MROC 010800Z 10015G25KT CAVOK 21/16 A3001 NOSIG=
202003010900 METAR MROC 010900Z 10018G28KT CAVOK 21/16 A3000 NOSIG=
202003011000 METAR MROC 011000Z 10016G26KT CAVOK 21/15 A3000 NOSIG=
202003011100 METAR MROC 011100Z 10017G27KT CAVOK 22/14 A3000 NOSIG=
202003011200 METAR MROC 011200Z 11016G26KT CAVOK 21/14 A3001 NOSIG=
202003011300 METAR MROC 011300Z 11015G25KT 080V140 CAVOK 23/13 A3004 NOSIG=
202003011400 METAR MROC 011400Z 11017G27KT 090V170 CAVOK 25/13 A3005 NOSIG=
202003011500 METAR MROC 011500Z 11016G27KT CAVOK 27/14 A3007 NOSIG=
202003011600 METAR MROC 011600Z 11018G28KT CAVOK 28/14 A3007 NOSIG=
202003011700 METAR MROC 011700Z 10015KT CAVOK 28/14 A3007 NOSIG=
202003011800 METAR MROC 011800Z 08015KT CAVOK 29/15 A3005 NOSIG=
202003011900 METAR MROC 011900Z 08018KT 9999 FEW045 29/15 A3003 NOSIG=
202003012000 METAR MROC 012000Z 08016KT CAVOK 28/15 A3000 NOSIG=
202003012100 METAR MROC 012100Z 08017G27KT 9999 FEW040 28/15 A2998 NOSIG=
202003012200 METAR MROC 012200Z 08016G27KT CAVOK 27/14 A2998 NOSIG=
202003012300 METAR MROC 012300Z 07018G28KT 9999 FEW040 25/14 A2999 NOSIG=
202003020000 METAR MROC 020000Z 07015G27KT 9999 FEW035 24/14 A3000 NOSIG=
202003020100 METAR MROC 020100Z 09014KT 9999 FEW035 23/14 A3002 NOSIG=
202003020200 METAR MROC 020200Z 10014KT CAVOK 22/13 A3002 NOSIG=
202003020300 METAR MROC 020300Z 10017KT CAVOK 21/11 A3004 NOSIG=
202003020400 METAR MROC 020400Z 11018G29KT CAVOK 21/13 A3003 NOSIG=
202003020500 METAR MROC 020500Z 11017G27KT CAVOK 21/13 A3003 NOSIG=
202003020600 METAR MROC 020600Z 11017KT CAVOK 21/12 A3001 NOSIG=
202003020700 METAR MROC 020700Z 11016G26KT CAVOK 20/12 A3000 NOSIG=
202003020800 METAR MROC 020800Z 12014G24KT 090V150 CAVOK 20/13 A2999 NOSIG=
202003020900 METAR MROC 020900Z 11015G25KT CAVOK 20/12 A2997 NOSIG=
202003021000 METAR MROC 021000Z 12013KT CAVOK 20/11 A2995 NOSIG=
202003021100 METAR MROC 021100Z 10015KT CAVOK 20/12 A2999 NOSIG=
202003021200 METAR MROC 021200Z 07009KT 030V120 CAVOK 19/11 A3001 NOSIG=
202003021300 METAR MROC 021300Z 10011G25KT 070V150 CAVOK 21/11 A3002 NOSIG=
202003021400 METAR MROC 021400Z 12014G24KT CAVOK 24/11 A3003 NOSIG=
202003021500 METAR MROC 021500Z 12016G26KT CAVOK 26/10 A3004 NOSIG=
202003021600 METAR MROC 021600Z 11014KT CAVOK 28/09 A3005 NOSIG=
202003021700 METAR MROC 021700Z 12012KT 090V150 CAVOK 30/11 A3002 NOSIG=
202003021800 METAR MROC 021800Z 10013KT 070V140 CAVOK 29/11 A2999 NOSIG=
202003021900 METAR MROC 021900Z 11011KT 070V150 9999 FEW040 31/11 A2996 NOSIG=
202003022000 METAR MROC 022000Z 12010KT 080V180 9999 FEW040 30/13 A2994 NOSIG=
202003022100 METAR MROC 022100Z 12009KT 070V190 9999 SCT040 29/15 A2993 NOSIG=
202003022200 METAR MROC 022200Z 11006KT 050V170 9999 SCT040 28/15 A2993 NOSIG=
202003022300 METAR MROC 022300Z 12007KT 090V160 9999 SCT040 26/15 A2995 NOSIG=
202003030000 METAR MROC 030000Z 13005KT 080V180 9999 SCT040 24/16 A2997 NOSIG=
202003030100 METAR MROC 030100Z 11010KT 080V140 9999 FEW040 23/16 A2998 NOSIG=
202003030200 METAR MROC 030200Z 08010KT 9999 FEW040 22/16 A3002 NOSIG=
202003030300 METAR MROC 030300Z 09008KT 040V110 9999 FEW040 22/16 A3003 NOSIG=
202003030400 METAR MROC 030400Z 11009KT CAVOK 22/16 A3003 NOSIG=
202003030500 METAR MROC 030500Z 09010KT 9999 FEW015 22/16 A3003 NOSIG=
202003030600 METAR MROC 030600Z 09009KT CAVOK 21/16 A3001 NOSIG=
202003030700 METAR MROC 030700Z 07005KT CAVOK 20/15 A2998 NOSIG=
202003030800 METAR MROC 030800Z 06009KT CAVOK 20/14 A2996 NOSIG=
202003030900 METAR MROC 030900Z 07007KT 030V090 CAVOK 19/13 A2996 NOSIG=
202003031000 METAR MROC 031000Z 03006KT CAVOK 19/13 A2996 NOSIG=
202003031100 METAR MROC 031100Z 07011KT CAVOK 19/13 A2997 NOSIG=
202003031200 METAR MROC 031200Z 06013KT CAVOK 19/13 A2998 NOSIG=
202003031300 METAR MROC 031300Z 07009KT 030V110 CAVOK 22/13 A3000 NOSIG=
202003031400 METAR MROC 031400Z 06009KT 060V140 CAVOK 25/14 A3002 NOSIG=
202003031500 METAR MROC 031500Z 12010KT 080V170 CAVOK 28/14 A3003 NOSIG=
202003031600 METAR MROC 031600Z 11009KT 080V160 CAVOK 30/14 A3003 NOSIG=
202003031700 METAR MROC 031700Z 11010KT 070V150 CAVOK 31/14 A3000 NOSIG=
202003031800 METAR MROC 031800Z 11010KT 070V160 9999 FEW045 31/14 A2998 NOSIG=
202003031900 METAR MROC 031900Z 10000KT 040V190 9999 SCT045 30/16 A2996 NOSIG=
202003032000 METAR MROC 032000Z 22005KT 130V280 9999 FEW040 30/18 A2994 NOSIG=
202003032100 METAR MROC 032100Z 11010G20KT 070V150 9999 SCT040 29/16 A2992 NOSIG=
202003032200 METAR MROC 032200Z 11010G20KT 070V140 9999 FEW040 28/17 A2992 NOSIG=
202003032300 METAR MROC 032300Z 11012G22KT 080V140 9999 FEW040 26/16 A2994 NOSIG=
202003040000 METAR MROC 040000Z 11010G20KT 9999 FEW035 25/17 A2995 NOSIG=
202003040100 METAR MROC 040100Z 11010G23KT 090V150 9999 FEW035 24/17 A2997 NOSIG=
202003040200 METAR MROC 040200Z 11015KT 9999 FEW035 23/17 A3000 NOSIG=
202003040300 METAR MROC 040300Z 09014KT 9999 FEW035 23/17 A3001 NOSIG=
202003040400 METAR MROC 040400Z 08006KT 060V120 CAVOK 23/16 A3002 NOSIG=
202003040500 METAR MROC 040500Z 06008KT CAVOK 23/16 A3001 NOSIG=
202003040600 METAR MROC 040600Z 07007KT CAVOK 21/15 A2999 NOSIG=
202003040700 METAR MROC 040700Z 07010KT CAVOK 21/16 A2997 NOSIG=
202003040800 METAR MROC 040800Z 08005KT CAVOK 21/16 A2997 NOSIG=
202003040900 METAR MROC 040900Z 09009KT CAVOK 21/15 A2996 NOSIG=
202003041000 METAR MROC 041000Z 09009KT CAVOK 20/15 A2997 NOSIG=
202003041100 METAR MROC 041100Z 08009KT CAVOK 21/15 A2998 NOSIG=
202003041200 METAR MROC 041200Z 10009KT CAVOK 21/15 A3001 NOSIG=
202003041300 METAR MROC 041300Z 05009KT CAVOK 22/15 A3003 NOSIG=
202003041400 METAR MROC 041400Z 09010KT 060V130 CAVOK 25/15 A3004 NOSIG=
202003041500 METAR MROC 041500Z 12010G20KT 080V170 CAVOK 27/15 A3005 NOSIG=
202003041600 METAR MROC 041600Z 10014KT 060V140 CAVOK 28/15 A3005 NOSIG=
202003041700 METAR MROC 041700Z 11011KT 060V190 CAVOK 30/15 A3003 NOSIG=
202003041800 METAR MROC 041800Z 11011KT 060V170 9999 FEW045 30/15 A3000 NOSIG=
202003041900 METAR MROC 041900Z 10015KT 050V140 9999 FEW045 31/16 A2997 NOSIG=
202003042000 METAR MROC 042000Z 23005KT 160V310 9999 SCT045 28/18 A2995 NOSIG=
202003042100 METAR MROC 042100Z 27011KT 240V310 9999 SCT040 29/18 A2994 NOSIG=
202003042200 METAR MROC 042200Z 26009KT 230V290 9999 SCT040 28/18 A2994 NOSIG=
202003042300 METAR MROC 042300Z 25007KT 200V290 9999 FEW035 27/18 A2996 NOSIG=
202003050000 METAR MROC 050000Z 12006KT CAVOK 25/17 A2997 NOSIG=
202003050100 METAR MROC 050100Z 10007KT 070V140 CAVOK 24/17 A2998 NOSIG=
202003050200 METAR MROC 050200Z 09011KT CAVOK 23/17 A2999 NOSIG=
202003050300 METAR MROC 050300Z 08009KT 050V120 CAVOK 23/16 A3000 NOSIG=
202003050400 METAR MROC 050400Z 09012KT CAVOK 23/16 A3001 NOSIG=
202003050500 METAR MROC 050500Z 09011KT CAVOK 22/15 A3001 NOSIG=
202003050600 METAR MROC 050600Z 07012KT CAVOK 22/15 A2999 NOSIG=
202003050700 METAR MROC 050700Z 06010KT CAVOK 19/14 A2997 NOSIG=
202003050800 METAR MROC 050800Z 07011KT CAVOK 19/14 A2996 NOSIG=
202003050900 METAR MROC NIL=
202003051000 METAR MROC NIL=
202003051100 METAR MROC NIL=
202003051200 METAR MROC NIL=
202003051300 METAR MROC 051300Z 09012KT 050V120 CAVOK 22/14 A3004 NOSIG=
202003051400 METAR MROC 051400Z 10019G30KT CAVOK 24/14 A3005 NOSIG=
202003051500 METAR MROC 051500Z 10017G28KT 070V130 CAVOK 26/14 A3006 NOSIG=
202003051600 METAR MROC 051600Z 12017G27KT 090V150 CAVOK 27/15 A3005 NOSIG=
202003051700 METAR MROC 051700Z 10012G22KT 060V130 CAVOK 29/16 A3004 NOSIG=
202003051800 METAR MROC 051800Z 10014KT 070V130 CAVOK 30/15 A3001 NOSIG=
202003051900 METAR MROC 051900Z 10016G26KT CAVOK 30/14 A2999 NOSIG=
202003052000 METAR MROC 052000Z 11015KT 080V140 CAVOK 31/14 A2995 NOSIG=
202003052100 METAR MROC 052100Z 10015G25KT 070V130 CAVOK 30/15 A2994 NOSIG=
202003052200 METAR MROC 052200Z 09017KT 070V130 CAVOK 29/15 A2994 NOSIG=
202003052300 METAR MROC 052300Z 09012G22KT CAVOK 27/15 A2997 NOSIG=
202003060000 METAR MROC 060000Z 10013G23KT CAVOK 25/15 A2998 NOSIG=
202003060100 METAR MROC 060100Z 08011KT CAVOK 24/15 A3002 NOSIG=
202003060200 METAR MROC 060200Z 08014KT CAVOK 23/14 A3004 NOSIG=
202003060300 METAR MROC 060300Z 07013KT CAVOK 23/15 A3004 NOSIG=
202003060400 METAR MROC 060400Z 07012G22KT CAVOK 22/14 A3005 NOSIG=
202003060500 METAR MROC 060500Z 07010G20KT 040V100 CAVOK 21/14 A3005 NOSIG=
202003060600 METAR MROC 060600Z 07010G20KT 030V100 CAVOK 21/14 A3005 NOSIG=
202003060700 METAR MROC 060700Z 06012KT 030V090 CAVOK 20/13 A3002 NOSIG=
202003060800 METAR MROC 060800Z 08011G21KT 050V120 CAVOK 21/14 A3001 NOSIG=
202003060900 METAR MROC 060900Z 09015KT 060V130 CAVOK 20/14 A3000 NOSIG=
202003061000 METAR MROC 061000Z 07011KT 050V110 CAVOK 20/14 A3000 NOSIG=
202003061100 METAR MROC 061100Z 07007KT 030V130 CAVOK 20/14 A3003 NOSIG=
202003061200 METAR MROC 061200Z 04010KT 010V070 CAVOK 20/13 A3004 NOSIG=
202003061300 METAR MROC 061300Z 23009KT CAVOK 22/14 A3006 NOSIG=
202003061400 METAR MROC 061400Z 11017KT CAVOK 23/15 A3008 NOSIG=
202003061500 METAR MROC 061500Z 10021G31KT CAVOK 25/14 A3008 NOSIG=
202003061600 METAR MROC 061600Z 08021KT 9999 FEW045 26/14 A3007 NOSIG=
202003061700 METAR MROC 061700Z 09017KT 9999 FEW045 28/15 A3005 NOSIG=
202003061800 METAR MROC 061800Z 09017KT CAVOK 28/13 A3003 NOSIG=
202003061900 METAR MROC 061900Z 09016KT 060V130 CAVOK 29/14 A3001 NOSIG=
202003062000 METAR MROC 062000Z 09017G27KT 9999 FEW045 28/13 A2999 NOSIG=
202003062100 METAR MROC 062100Z 08017G27KT 050V110 CAVOK 29/14 A2996 NOSIG=
202003062200 METAR MROC 062200Z 08019G31KT CAVOK 27/14 A2997 NOSIG=
202003062300 METAR MROC 062300Z 08018G30KT CAVOK 26/14 A2997 NOSIG=
202003070000 METAR MROC 070000Z 10015G25KT CAVOK 22/16 A2998 NOSIG=
202003070100 METAR MROC 070100Z 09018G32KT CAVOK 23/15 A2999 NOSIG=
202003070200 METAR MROC 070200Z 09018G28KT 9999 FEW030 23/16 A3003 NOSIG=
202003070300 METAR MROC 070300Z 10015G26KT 9999 FEW020 22/16 A3005 NOSIG=
202003070400 METAR MROC 070400Z 10012G27KT 060V130 CAVOK 21/15 A3005 NOSIG=
202003070500 METAR MROC 070500Z 09014KT 070V130 CAVOK 21/15 A3005 NOSIG=
202003070600 METAR MROC 070600Z 09017KT CAVOK 21/15 A3004 NOSIG=
202003070700 METAR MROC 070700Z 09010G20KT 060V120 9999 FEW040 22/13 A3002 NOSIG=
202003070800 METAR MROC 070800Z 09009KT 060V120 9999 FEW040 21/14 A3000 NOSIG=
202003070900 METAR MROC 070900Z 10018KT CAVOK 21/14 A2998 NOSIG=
202003071000 METAR MROC 071000Z 10017KT CAVOK 21/14 A2999 NOSIG=
202003071100 METAR MROC 071100Z 11017KT CAVOK 20/14 A2999 NOSIG=
202003071200 METAR MROC 071200Z 10015KT CAVOK 20/14 A3002 NOSIG=
202003071300 METAR MROC 071300Z 09019G30KT CAVOK 22/14 A3005 NOSIG=
202003071400 METAR MROC 071400Z 09021G32KT CAVOK 24/14 A3006 NOSIG=
202003071500 METAR MROC 071500Z 09025G37KT CAVOK 26/13 A3005 NOSIG=
202003071600 METAR MROC 071600Z 08026G39KT CAVOK 25/15 A3007 NOSIG=
202003071700 METAR MROC 071700Z 08025G36KT CAVOK 26/12 A3004 NOSIG=
202003071800 METAR MROC 071800Z 08023G34KT 050V110 9999 FEW045 27/14 A3002 NOSIG=
202003071900 METAR MROC 071900Z 08024G37KT CAVOK 27/14 A2999 NOSIG=
202003072000 METAR MROC 072000Z 08022G33KT 050V110 CAVOK 27/14 A2997 NOSIG=
202003072100 METAR MROC 072100Z 08021KT CAVOK 27/15 A2994 NOSIG=
202003072200 METAR MROC 072200Z 08021G31KT CAVOK 26/12 A2994 NOSIG=
202003072300 METAR MROC 072300Z 08021KT CAVOK 24/13 A2996 NOSIG=
202003080000 METAR MROC 080000Z 10015KT 9999 FEW040 23/14 A2998 NOSIG=
202003080100 METAR MROC 080100Z 08018KT 050V110 9999 FEW040 23/15 A3000 NOSIG=
202003080200 METAR MROC 080200Z 09018KT 9999 FEW040 22/14 A3004 NOSIG=
202003080300 METAR MROC 080300Z 09017G27KT CAVOK 22/13 A3007 NOSIG=
202003080400 METAR MROC 080400Z 10015KT 9999 FEW040 22/13 A3007 NOSIG=
202003080500 METAR MROC 080500Z 11016KT CAVOK 21/14 A3006 NOSIG=
202003080600 METAR MROC 080600Z 11014KT 080V140 CAVOK 21/14 A3004 NOSIG=
202003080700 METAR MROC 080700Z 11017KT CAVOK 21/14 A3001 NOSIG=
202003080800 METAR MROC 080800Z 10016KT CAVOK 21/14 A2999 NOSIG=
202003080900 METAR MROC 080900Z 11018KT CAVOK 21/14 A2999 NOSIG=
202003081000 METAR MROC 081000Z 10014G24KT CAVOK 21/14 A2999 NOSIG=
202003081100 METAR MROC 081100Z 11017KT CAVOK 21/14 A3000 NOSIG=
202003081200 METAR MROC 081200Z 10017KT 9999 FEW045 21/14 A3002 NOSIG=
202003081300 METAR MROC 081300Z 09016G27KT CAVOK 22/14 A3003 NOSIG=
202003081400 METAR MROC 081400Z 10019KT CAVOK 24/13 A3005 NOSIG=
202003081500 METAR MROC 081500Z 09017G31KT CAVOK 26/13 A3004 NOSIG=
202003081600 METAR MROC 081600Z 08022KT CAVOK 26/14 A3005 NOSIG=
202003081700 METAR MROC 081700Z 08024G35KT 9999 FEW045 27/14 A3004 NOSIG=
202003081800 METAR MROC 081800Z 08022G34KT 9999 FEW045 27/14 A3002 NOSIG=
202003081900 METAR MROC 081900Z 08021G32KT 9999 FEW045 27/13 A3000 NOSIG=
202003082000 METAR MROC 082000Z 09021G35KT 9999 FEW040 26/13 A2997 NOSIG=
202003082100 METAR MROC 082100Z 09022G35KT 9999 FEW040 26/13 A2995 NOSIG=
202003082200 METAR MROC 082200Z 08019G29KT 9999 FEW040 26/13 A2995 NOSIG=
202003082300 METAR MROC 082300Z 09019G29KT 9999 FEW040 24/14 A2997 NOSIG=
202003090000 METAR MROC 090000Z 09018G30KT 9999 FEW035 23/14 A2998 NOSIG=
202003090100 METAR MROC 090100Z 07022G33KT 9999 FEW035 22/14 A3000 NOSIG=
202003090200 METAR MROC 090200Z 08017G30KT 9999 FEW035 22/14 A3002 NOSIG=
202003090300 METAR MROC 090300Z 10016G26KT CAVOK 21/14 A3005 NOSIG=
202003090400 METAR MROC 090400Z 10018G28KT CAVOK 21/14 A3006 NOSIG=
202003090500 METAR MROC 090500Z 10018G28KT CAVOK 21/13 A3005 NOSIG=
202003090600 METAR MROC 090600Z 10018G29KT CAVOK 21/13 A3003 NOSIG=
202003090700 METAR MROC 090700Z 10018G28KT CAVOK 21/13 A3001 NOSIG=
202003090800 METAR MROC 090800Z 10017G27KT CAVOK 21/13 A2999 NOSIG=
202003090900 METAR MROC 090900Z 10015G25KT CAVOK 21/13 A2999 NOSIG=
202003091000 METAR MROC 091000Z 10020G33KT CAVOK 21/14 A2999 NOSIG=
202003091100 METAR MROC 091100Z 09015KT CAVOK 21/13 A3001 NOSIG=
202003091200 METAR MROC 091200Z 10017G27KT CAVOK 20/13 A3003 NOSIG=
202003091300 METAR MROC 091300Z 10017G31KT CAVOK 22/11 A3005 NOSIG=
202003091400 METAR MROC 091400Z 10020G30KT CAVOK 24/10 A3006 NOSIG=
202003091500 METAR MROC 091500Z 10021G33KT CAVOK 26/11 A3007 NOSIG=
202003091600 METAR MROC 091600Z 09022G34KT CAVOK 27/11 A3007 NOSIG=
202003091700 METAR MROC 091700Z 09018G30KT CAVOK 29/12 A3006 NOSIG=
202003091800 METAR MROC 091800Z 08022G32KT CAVOK 29/11 A3003 NOSIG=
202003091900 METAR MROC 091900Z 08022G32KT CAVOK 29/12 A3002 NOSIG=
202003092000 METAR MROC 092000Z 09019G31KT 060V120 CAVOK 29/14 A2999 NOSIG=
202003092100 METAR MROC 092100Z 08021G33KT CAVOK 29/13 A2996 NOSIG=
202003092200 METAR MROC 092200Z 07018G28KT CAVOK 29/09 A2996 NOSIG=
202003092300 METAR MROC 092300Z 06027KT CAVOK 26/12 A2998 NOSIG=
202003100000 METAR MROC 100000Z 07018G29KT 9999 FEW030 24/13 A2999 NOSIG=
202003100100 METAR MROC 100100Z 10014KT CAVOK 23/13 A3002 NOSIG=
202003100200 METAR MROC 100200Z 11014KT CAVOK 22/12 A3004 NOSIG=
202003100300 METAR MROC 100300Z 11016KT CAVOK 21/13 A3006 NOSIG=
202003100400 METAR MROC 100400Z 10019KT CAVOK 22/13 A3006 NOSIG=
202003100500 METAR MROC 100500Z 10021G31KT CAVOK 21/13 A3006 NOSIG=
202003100600 METAR MROC 100600Z 10020KT CAVOK 21/13 A3004 NOSIG=
202003100700 METAR MROC 100700Z 10020G30KT CAVOK 22/12 A3002 NOSIG=
202003100800 METAR MROC 100800Z 10018G28KT CAVOK 21/15 A3001 NOSIG=
202003100900 METAR MROC 100900Z 11019KT CAVOK 21/15 A3001 NOSIG=
202003101000 METAR MROC 101000Z 10017KT CAVOK 21/15 A3002 NOSIG=
202003101100 METAR MROC 101100Z 11018G28KT CAVOK 20/15 A3002 NOSIG=
202003101200 METAR MROC 101200Z 10016G26KT CAVOK 21/15 A3003 NOSIG=
202003101300 METAR MROC 101300Z 10016G26KT CAVOK 22/13 A3006 NOSIG=
202003101400 METAR MROC 101400Z 10020G30KT CAVOK 24/13 A3007 NOSIG=
202003101500 METAR MROC 101500Z 09018KT CAVOK 27/12 A3010 NOSIG=
202003101600 METAR MROC 101600Z 06023KT CAVOK 29/05 A3010 NOSIG=
202003101700 METAR MROC 101700Z 07020G30KT CAVOK 29/12 A3009 NOSIG=
202003101800 METAR MROC 101800Z 08018G28KT 9999 FEW045 29/12 A3008 NOSIG=
202003101900 METAR MROC 101900Z 08020KT 9999 FEW045 29/12 A3005 NOSIG=
202003102000 METAR MROC 102000Z 06021KT 9999 FEW030 30/12 A3001 NOSIG=
202003102100 METAR MROC 102100Z 06019KT 9999 FEW030 29/11 A2999 NOSIG=
202003102200 METAR MROC 102200Z 06020KT 9999 FEW030 29/12 A2999 NOSIG=
202003102300 METAR MROC 102300Z 06022G32KT 9999 FEW030 26/12 A3000 NOSIG=
202003110000 METAR MROC 110000Z 07015G25KT 9999 FEW040 24/13 A3001 NOSIG=
202003110100 METAR MROC 110100Z 09011KT 9999 FEW040 23/14 A3002 NOSIG=
202003110200 METAR MROC 110200Z 11012KT 9999 FEW030 23/15 A3003 NOSIG=
202003110300 METAR MROC 110300Z 11016G26KT 9999 FEW040 22/15 A3004 NOSIG=
202003110400 METAR MROC 110400Z 11016G26KT CAVOK 22/14 A3004 NOSIG=
202003110500 METAR MROC 110500Z 11015G25KT CAVOK 22/14 A3004 NOSIG=
202003110600 METAR MROC 110600Z 12012G22KT CAVOK 21/15 A3003 NOSIG=
202003110700 METAR MROC 110700Z 12018G29KT CAVOK 21/15 A2999 NOSIG=
202003110800 METAR MROC 110800Z 12015G30KT 090V150 CAVOK 21/14 A2997 NOSIG=
202003110900 METAR MROC 110900Z 12012G22KT CAVOK 20/14 A2998 NOSIG=
202003111000 METAR MROC 111000Z 11012KT CAVOK 20/14 A2999 NOSIG=
202003111100 METAR MROC 111100Z 12013G23KT CAVOK 20/14 A2999 NOSIG=
202003111200 METAR MROC 111200Z 10010G21KT 9999 FEW045 22/14 A3002 NOSIG=
202003111300 METAR MROC 111300Z 11016KT CAVOK 22/15 A3004 NOSIG=
202003111400 METAR MROC 111400Z 12015KT CAVOK 24/15 A3005 NOSIG=
202003111500 METAR MROC 111500Z 11017G27KT 9999 FEW045 26/14 A3006 NOSIG=
202003111600 METAR MROC 111600Z 09017KT 9999 FEW045 27/14 A3006 NOSIG=
202003111700 METAR MROC 111700Z 09016KT 050V130 9999 FEW045 29/14 A3005 NOSIG=
202003111800 METAR MROC 111800Z 10014KT 070V130 9999 FEW045 29/15 A3002 NOSIG=
202003111900 METAR MROC 111900Z 09012KT 040V120 9999 FEW045 30/16 A2998 NOSIG=
202003112000 METAR MROC 112000Z 09011KT 060V140 9999 FEW045 29/15 A2994 NOSIG=
202003112100 METAR MROC 112100Z 07019KT 9999 FEW045 29/12 A2999 NOSIG=
202003112200 METAR MROC 112200Z 07017G27KT CAVOK 28/13 A2992 NOSIG=
202003112300 METAR MROC 112300Z 06016KT 9999 FEW045 27/13 A2993 NOSIG=
202003120000 METAR MROC 120000Z 07013KT 9999 FEW045 25/12 A2995 NOSIG=
202003120100 METAR MROC 120100Z 08014G24KT 9999 FEW035 23/13 A2996 NOSIG=
202003120200 METAR MROC 120200Z 08014G24KT CAVOK 22/15 A2998 NOSIG=
202003120300 METAR MROC 120300Z 09016G27KT CAVOK 23/13 A2999 NOSIG=
202003120400 METAR MROC 120400Z 10014G24KT CAVOK 21/15 A2999 NOSIG=
202003120500 METAR MROC 120500Z 11016KT CAVOK 22/15 A2998 NOSIG=
202003120600 METAR MROC 120600Z 11017KT CAVOK 21/15 A2996 NOSIG=
202003120700 METAR MROC 120700Z 10013G24KT 060V130 9999 FEW045 21/15 A2995 NOSIG=
202003120800 METAR MROC 120800Z 11017G27KT 080V140 9999 FEW045 21/16 A2993 NOSIG=
202003120900 METAR MROC 120900Z 11015KT 080V140 CAVOK 21/15 A2995 NOSIG=
202003121000 METAR MROC 121000Z 10014KT CAVOK 22/14 A2992 NOSIG=
202003121100 METAR MROC 121100Z 10014KT CAVOK 21/14 A2993 NOSIG=
202003121200 METAR MROC 121200Z 10015KT 9999 FEW045 21/14 A2994 NOSIG=
202003121300 METAR MROC 121300Z 10014KT CAVOK 22/15 A2995 NOSIG=
202003121400 METAR MROC 121400Z 11017KT CAVOK 24/15 A2997 NOSIG=
202003121500 METAR MROC 121500Z 11020KT 9999 FEW040 25/15 A2999 NOSIG=
202003121600 METAR MROC 121600Z 11018G29KT 9999 FEW040 27/15 A2999 NOSIG=
202003121700 METAR MROC 121700Z 10016KT 9999 FEW035 27/15 A2998 NOSIG=
202003121800 METAR MROC 121800Z 11013KT 080V150 9999 FEW030 28/15 A2997 NOSIG=
202003121900 METAR MROC 121900Z 09014KT 060V120 9999 SCT030 29/15 A2993 NOSIG=
202003122000 METAR MROC 122000Z 09014KT 9999 SCT030 28/15 A2992 NOSIG=
202003122100 METAR MROC 122100Z 11015KT 9999 FEW040 28/15 A2990 NOSIG=
202003122200 METAR MROC 122200Z 10016KT 9999 FEW040 27/15 A2990 NOSIG=
202003122300 METAR MROC 122300Z 09014KT 9999 FEW045 25/16 A2993 NOSIG=
202003130000 METAR MROC 130000Z 11014KT 080V140 9999 FEW045 23/16 A2994 NOSIG=
202003130100 METAR MROC 130100Z 11012KT CAVOK 22/16 A2996 NOSIG=
202003130200 METAR MROC 130200Z 10010KT 070V140 23/15 A2999 NOSIG=
202003130300 METAR MROC 130300Z 11014KT CAVOK 22/15 A3001 NOSIG=
202003130400 METAR MROC 130400Z 11014KT 080V150 9999 FEW040 22/16 A3002 NOSIG=
202003130500 METAR MROC 130500Z 11014KT 9999 FEW030 21/16 A3003 NOSIG=
202003130600 METAR MROC 130600Z 10015KT 9999 FEW030 21/15 A3002 NOSIG=
202003130700 METAR MROC 130700Z 10014KT 9999 FEW035 21/16 A2999 NOSIG=
202003130800 METAR MROC 130800Z 08009KT 9999 FEW035 21/16 A2999 NOSIG=
202003130900 METAR MROC 130900Z 11008KT 9999 FEW035 21/15 A2999 NOSIG=
202003131000 METAR MROC 131000Z 08009KT CAVOK 21/15 A3000 NOSIG=
202003131100 METAR MROC 131100Z 07010KT 040V100 CAVOK 20/15 A3000 NOSIG=
202003131200 METAR MROC 131200Z 10013KT 080V140 CAVOK 21/15 A3001 NOSIG=
202003131300 METAR MROC 131300Z 11016G26KT CAVOK 22/15 A3004 NOSIG=
202003131400 METAR MROC 131400Z 10016KT CAVOK 23/15 A3005 NOSIG=
202003131500 METAR MROC 131500Z 11012KT 070V140 CAVOK 26/15 A3006 NOSIG=
202003131600 METAR MROC 131600Z 11014KT 080V140 CAVOK 27/16 A3006 NOSIG=
202003131700 METAR MROC 131700Z 10014KT 060V120 CAVOK 28/15 A3005 NOSIG=
202003131800 METAR MROC 131800Z 10010KT 050V150 9999 FEW045 30/15 A3003 NOSIG=
202003131900 METAR MROC 131900Z 12008KT 060V120 9999 SCT045 30/15 A3000 TEMPO 22008KT=
202003132000 METAR MROC 132000Z 13009KT 100V170 9999 SCT040 SCT250 29/15 A2998 NOSIG=
202003132100 METAR MROC 132100Z 14009G19KT 030V200 9999 SCT040 BKN250 30/16 A2996 NOSIG=
202003132200 METAR MROC 132200Z 11008G18KT 080V160 9999 FEW040 SCT250 29/16 A2996 NOSIG=
202003132300 METAR MROC 132300Z 13013KT 100V160 9999 FEW035 SCT250 27/16 A2997 NOSIG=
202003140000 METAR MROC 140000Z 11011G21KT 080V140 9999 FEW035 23/16 A2999 NOSIG=
202003140100 METAR MROC 140100Z 10013G23KT 070V130 CAVOK 22/16 A3001 NOSIG=
202003140200 METAR MROC 140200Z 10012G25KT 9999 FEW035 22/16 A3005 NOSIG=
202003140300 METAR MROC 140300Z 12010G20KT 9999 FEW035 22/16 A3007 NOSIG=
202003140400 METAR MROC 140400Z 11012KT CAVOK 21/16 A3008 NOSIG=
202003140500 METAR MROC 140500Z 11014G24KT CAVOK 21/16 A3007 NOSIG=
202003140600 METAR MROC 140600Z 11014G24KT CAVOK 21/16 A3005 NOSIG=
202003140700 METAR MROC 140700Z 11013G24KT 080V140 CAVOK 21/16 A3004 NOSIG=
202003140800 METAR MROC 140800Z 10012KT CAVOK 21/16 A3003 NOSIG=
202003140900 METAR MROC 140900Z 11014KT CAVOK 21/16 A3003 NOSIG=
202003141000 METAR MROC 141000Z 10014KT CAVOK 21/16 A3003 NOSIG=
202003141100 METAR MROC 141100Z 11014G24KT CAVOK 21/16 A3004 NOSIG=
202003141200 METAR MROC 141200Z 11016G246KT CAVOK 22/15 A3006 NOSIG=
202003141300 METAR MROC 141300Z 09016G26KT 9999 FEW035 23/15 A3009 NOSIG=
202003141400 METAR MROC 141400Z 11016G26KT 9999 FEW035 24/15 A3010 NOSIG=
202003141500 METAR MROC 141500Z 11017G30KT 9999 FEW035 27/15 A3011 NOSIG=
202003141600 METAR MROC 141600Z 09016G26KT 9999 FEW045 28/15 A3011 NOSIG=
202003141700 METAR MROC 141700Z 09015G26KT 060V120 9999 FEW040 28/15 A3010 NOSIG=
202003141800 METAR MROC 141800Z 10014G24KT 070V140 9999 FEW045 30/14 A3008 NOSIG=
202003141900 METAR MROC 141900Z 10013G23KT 060V130 9999 FEW040 30/15 A3005 NOSIG=
202003142000 METAR MROC 142000Z 09010G20KT 050V130 9999 FEW045 30/14 A3002 NOSIG=
202003142100 METAR MROC 142100Z 10011KT 050V150 9999 FEW035 30/14 A2999 NOSIG=
202003142200 METAR MROC 142200Z 11011KT 080V150 9999 FEW040 29/15 A3000 NOSIG=
202003142300 METAR MROC 142300Z 11009G19KT 080V140 9999 FEW035 27/16 A3001 NOSIG=
202003150000 METAR MROC 150000Z 10011KT 9999 FEW035 25/15 A3003 NOSIG=
202003150100 METAR MROC 150100Z 11009KT 080V140 CAVOK 23/15 A3005 NOSIG=
202003150200 METAR MROC 150200Z 11015G25KT 080V140 CAVOK 22/16 A3007 NOSIG=
202003150300 METAR MROC 150300Z 11014KT CAVOK 22/15 A3009 NOSIG=
202003150400 METAR MROC 150400Z 11016KT CAVOK 22/15 A3008 NOSIG=
202003150500 METAR MROC 150500Z 11017G27KT CAVOK 21/15 A3007 NOSIG=
202003150600 METAR MROC 150600Z 10015KT CAVOK 22/13 A3006 NOSIG=
202003150700 METAR MROC 150700Z 11011KT 080V150 CAVOK 21/13 A3005 NOSIG=
202003150800 METAR MROC 150800Z 09010KT 050V130 CAVOK 21/14 A3003 NOSIG=
202003150900 METAR MROC 150900Z 11013G23KT CAVOK 21/14 A3001 NOSIG=
202003151000 METAR MROC 151000Z 11014KT CAVOK 21/13 A3002 NOSIG=
202003151100 METAR MROC 151100Z 11015KT CAVOK 2/13 A3002 NOSIG=
202003151200 METAR MROC 151200Z 11011KT 080V140 CAVOK 22/13 A3005 NOSIG=
202003151300 METAR MROC 151300Z COR 10015KT 080V140 CAVOK 23/13 A3007 NOSIG=
202003151400 METAR MROC 151400Z 10016KT CAVOK 25/13 A3010 NOSIG=
202003151500 METAR MROC 151500Z 08015G25KT CAVOK 26/13 A3011 NOSIG=
202003151600 METAR MROC 151600Z 07018G28KT 9999 FEW045 27/13 A3011 NOSIG=
202003151700 METAR MROC 151700Z 07017G27KT 050V110 9999 FEW030 29/14 A3008 NOSIG=
202003151800 METAR MROC 151800Z 08015G25KT 050V110 9999 FEW045 29/14 A3006 NOSIG=
202003151900 METAR MROC 151900Z 08014KT 040V100 9999 FEW045 31/13 A3002 NOSIG=
202003152000 METAR MROC 152000Z 09014KT 9999 FEW045 29/14 A2999 NOSIG=
202003152100 METAR MROC 152100Z 08012KT 060V120 9999 FEW045 30/14 A2997 NOSIG=
202003152200 METAR MROC 152200Z 10014KT 070V130 9999 FEW045 28/15 A2998 NOSIG=
202003152300 METAR MROC 152300Z 10015KT 9999 FEW030 26/15 A3000 NOSIG=
202003160000 METAR MROC 160000Z 11013KT 9999 FEW030 23/16 A3001 NOSIG=
202003160100 METAR MROC 160100Z 11017KT 9999 FEW030 22/16 A3003 NOSIG=
202003160200 METAR MROC 160200Z 09018KT 9999 FEW030 22/15 A3006 NOSIG=
202003160300 METAR MROC 160300Z 08016G26KT 9999 FEW030 22/14 A3008 NOSIG=
202003160400 METAR MROC 160400Z 09012G22KT CAVOK 22/14 A3008 NOSIG=
202003160500 METAR MROC 160500Z 09015G25KT CAVOK 21/14 A3006 NOSIG=
202003160600 METAR MROC 160600Z 11012G22KT CAVOK 21/14 A3005 NOSIG=
202003160700 METAR MROC 160700Z 11014G24KT CAVOK 21/14 A3002 NOSIG=
202003160800 METAR MROC 160800Z 11016G26KT CAVOK 21/14 A3000 NOSIG=
202003160900 METAR MROC 160900Z 11017G29KT CAVOK 21/14 A2999 NOSIG=
202003161000 METAR MROC 161000Z 10019KT 9999 FEW035 21/14 A2999 NOSIG=
202003161100 METAR MROC 161100Z 10018KT 9999 FEW035 21/15 A3001 NOSIG=
202003161200 METAR MROC 161200Z 11016G28KT 9999 FEW035 21/16 A3002 NOSIG=
202003161300 METAR MROC 161300Z 11017KT 9999 FEW035 21/16 A3005 NOSIG=
202003161400 METAR MROC 161400Z 10018G31KT 9999 FEW035 22/15 A3007 NOSIG=
202003161500 METAR MROC 161500Z 11021G32KT 9999 FEW040 24/14 A3007 NOSIG=
202003161600 METAR MROC 161600Z 11021G31KT 9999 FEW045 25/13 A3008 NOSIG=
202003161700 METAR MROC 161700Z 09017KT 060V120 CAVOK 27/13 A3006 NOSIG=
202003161800 METAR MROC 161800Z 10017G31KT 070V140 9999 FEW045 28/14 A3004 NOSIG=
202003161900 METAR MROC 161900Z 11015G26KT 070V160 9999 FEW040 28/14 A3002 NOSIG=
202003162000 METAR MROC 162000Z 10016G26KT 9999 FEW045 27/15 A3000 NOSIG=
202003162100 METAR MROC 162100Z 10015G27KT 9999 FEW040 27/14 A2999 NOSIG=
202003162200 METAR MROC 162200Z 10014G25KT 070V140 CAVOK 27/14 A2999 NOSIG=
202003162300 METAR MROC 162300Z 08015G25KT CAVOK 26/14 A3000 NOSIG=
202003170000 METAR MROC 170000Z 08014G24KT CAVOK 24/15 A3001 NOSIG=
202003170100 METAR MROC 170100Z 09014G25KT 9999 FEW035 22/15 A3003 NOSIG=
202003170200 METAR MROC 170200Z COR 09016G26KT 9999 FEW020 22/15 A3006 NOSIG=
202003170300 METAR MROC 170300Z 10017G31KT CAVOK 22/15 A3006 NOSIG=
202003170400 METAR MROC 170400Z 09015KT CAVOK 22/15 A3006 NOSIG=
202003170500 METAR MROC 170500Z 11012KT CAVOK 21/15 A3006 NOSIG=
202003170600 METAR MROC 170600Z 10011KT CAVOK 21/14 A3005 NOSIG=
202003170700 METAR MROC 170700Z 10013G23KT 060V140 CAVOK 21/14 A3003 NOSIG=
202003170800 METAR MROC 170800Z 11014G24KT 080V140 CAVOK 21/13 A3000 NOSIG=
202003170900 METAR MROC 170900Z 11013KT CAVOK 21/13 A3001 NOSIG=
202003171000 METAR MROC 171000Z 10012KT 080V140 CAVOK 21/12 A3001 NOSIG=
202003171100 METAR MROC 171100Z 10012G22KT CAVOK 21/13 A3002 NOSIG=
202003171200 METAR MROC 171200Z 10013KT 080V140 CAVOK 21/13 A3004 NOSIG=
202003171300 METAR MROC 171300Z 11012KT CAVOK 22/14 A3006 NOSIG=
202003171400 METAR MROC 171400Z 10015KT CAVOK 24/14 A3008 NOSIG=
202003171500 METAR MROC 171500Z 11018G28KT CAVOK 25/14 A3010 NOSIG=
202003171600 METAR MROC 171600Z 08017KT CAVOK 27/14 A3010 NOSIG=
202003171700 METAR MROC 171700Z 08015KT 050V110 9999 FEW045 29/13 A3007 NOSIG=
202003171800 METAR MROC 171800Z 09014G24KT 050V140 9999 FEW045 29/14 A3004 NOSIG=
202003171900 METAR MROC 171900Z 11013KT 070V130 9999 FEW045 29/14 A3001 NOSIG=
202003172000 METAR MROC 172000Z 08017KT 9999 FEW045 29/13 A2999 NOSIG=
202003172100 METAR MROC 172100Z 09016KT 060V130 9999 FEW045 29/14 A2997 NOSIG=
202003172200 METAR MROC 172200Z 09015KT 9999 FEW045 28/14 A2998 NOSIG=
202003172300 METAR MROC 172300Z 09012KT 9999 FEW045 27/13 A3000 NOSIG=
202003180000 METAR MROC 180000Z 11011KT CAVOK 24/15 A3002 NOSIG=
202003180100 METAR MROC 180100Z 11013G23KT CAVOK 23/16 A3004 NOSIG=
202003180200 METAR MROC 180200Z 12010KT 080V150 CAVOK 22/16 A3007 NOSIG=
202003180300 METAR MROC 180300Z 11011KT 080V150 CAVOK 22/15 A3004 NOSIG=
202003180400 METAR MROC 180400Z 11011KT 9999 FEW035 21/15 A3010 NOSIG=
202003180500 METAR MROC 180500Z 11010KT 090V150 9999 FEW040 21/14 A3010 NOSIG=
202003180600 METAR MROC 180600Z 10013KT CAVOK 21/13 A3007 NOSIG=
202003180700 METAR MROC 180700Z 10012KT CAVOK 20/13 A3005 NOSIG=
202003180800 METAR MROC 180800Z 10015KT CAVOK 21/13 A3002 NOSIG=
202003180900 METAR MROC 180900Z 10015KT CAVOK 20/12 A3002 NOSIG=
202003181000 METAR MROC 181000Z 10011KT 080V140 CAVOK 20/12 A3002 NOSIG=
202003181100 METAR MROC 181100Z 10013KT CAVOK 20/12 A3004 NOSIG=
202003181200 METAR MROC 181200Z 11014KT CAVOK 20/13 A3006 NOSIG=
202003181300 METAR MROC 181300Z 11015KT CAVOK 21/14 A3008 NOSIG=
202003181400 METAR MROC 181400Z 11014KT CAVOK 23/14 A3010 NOSIG=
202003181500 METAR MROC 181500Z 10017KT CAVOK 25/13 A3010 NOSIG=
202003181600 METAR MROC 181600Z 07018KT 050V110 CAVOK 27/13 A3009 NOSIG=
202003181700 METAR MROC 181700Z 08016KT CAVOK 28/14 A3007 NOSIG=
202003181800 METAR MROC 181800Z 07016KT 050V120 9999 FEW045 29/14 A3005 NOSIG=
202003181900 METAR MROC 181900Z 09015KT 050V120 9999 FEW045 28/13 A3002 NOSIG=
202003182000 METAR MROC 182000Z 07017G27KT 050V110 9999 FEW045 29/13 A2999 NOSIG=
202003182100 METAR MROC 182100Z 08015G25KT 050V120 9999 FEW045 29/13 A2999 NOSIG=
202003182200 METAR MROC 182200Z 07016G26KT 040V100 9999 FEW045 28/13 A2998 NOSIG=
202003182300 METAR MROC 182300Z 07016G30KT 9999 FEW040 26/12 A3000 NOSIG=
202003190000 METAR MROC 190000Z 07017G27KT 9999 FEW040 24/13 A3002 NOSIG=
202003190100 METAR MROC 190100Z 08013G23KT 9999 FEW040 23/13 A3005 NOSIG=
202003190200 METAR MROC 190200Z 09017G27KT 9999 FEW035 22/13 A3007 NOSIG=
202003190300 METAR MROC 190300Z 09016G26KT CAVOK 21/13 A3008 NOSIG=
202003190400 METAR MROC 190400Z 10014G24KT CAVOK 21/13 A3009 NOSIG=
202003190500 METAR MROC 190500Z 10016G26KT CAVOK 21/14 A3008 NOSIG=
202003190600 METAR MROC 190600Z 10012G22KT CAVOK 21/14 A3006 NOSIG=
202003190700 METAR MROC 190700Z 11015G25KT CAVOK 21/14 A3003 NOSIG=
202003190800 METAR MROC 190800Z 09015G25KT CAVOK 21/14 A3002 NOSIG=
202003190900 METAR MROC 190900Z 10112G22KT CAVOK 21/14 A3003 NOSIG=
202003191000 METAR MROC 191000Z 10014G24KT CAVOK 21/14 A3004 NOSIG=
202003191100 METAR MROC 191100Z 10013KT 080V140 CAVOK 20/14 A3005 NOSIG=
202003191200 METAR MROC 191200Z 10012G24KT CAVOK 20/13 A3006 NOSIG=
202003191300 METAR MROC 191300Z 10014G24KT CAVOK 22/12 A3007 NOSIG=
202003191400 METAR MROC 191400Z 11012G22KT CAVOK 25/11 A3010 NOSIG=
202003191500 METAR MROC 191500Z 10011G21KT 070V130 CAVOK 27/12 A3011 NOSIG=
202003191600 METAR MROC 191600Z 08016G26KT CAVOK 28/13 A3012 NOSIG=
202003191700 METAR MROC 191700Z 07011G22KT 040V110 CAVOK 28/12 A3010 NOSIG=
202003191800 METAR MROC 191800Z 08012G22KT 050V120 CAVOK 29/12 A3008 NOSIG=
202003191900 METAR MROC 191900Z 08012G22KT 050V120 9999 FEW045 29/13 A3004 NOSIG=
202003192000 METAR MROC 192000Z 08014G24KT 050V110 CAVOK 30/12 A3001 NOSIG=
202003192100 METAR MROC 192100Z 06015KT 9999 FEW045 30/11 A2999 NOSIG=
202003192200 METAR MROC 192200Z 06014KT 9999 FEW045 30/11 A2999 NOSIG=
202003192300 METAR MROC 192300Z 10008KT 070V130 9999 FEW045 28/12 A3001 NOSIG=
202003200000 METAR MROC 200000Z 12007KT 100V160 9999 FEW045 25/15 A3003 NOSIG=
202003200100 METAR MROC 200100Z 11010KT 080V140 CAVOK 23/16 A3007 NOSIG=
202003200200 METAR MROC 200200Z 11009KT 080V140 9999 FEW045 22/15 A3010 NOSIG=
202003200300 METAR MROC 200300Z 09010KT 9999 FEW045 22/16 A3013 NOSIG=
202003200400 METAR MROC 200400Z 10012KT CAVOK 22/15 A3014 NOSIG=
202003200500 METAR MROC 200500Z 12012KT 090V150 CAVOK 21/14 A3014 NOSIG=
202003200600 METAR MROC 200600Z 11013G24KT 080V140 CAVOK 21/15 A3013 NOSIG=
202003200700 METAR MROC 200700Z 13013KT CAVOK 21/14 A3012 NOSIG=
202003200800 METAR MROC 200800Z 11012KT CAVOK 21/14 A3011 NOSIG=
202003200900 METAR MROC 200900Z 11010KT 080V150 CAVOK 20/14 A3010 NOSIG=
202003201000 METAR MROC 201000Z 10009KT 050V140 CAVOK 20/14 A3009 NOSIG=
202003201100 METAR MROC 201100Z 12010KT CAVOK 20/14 A3010 NOSIG=
202003201200 METAR MROC 201200Z 12012KT CAVOK 20/14 A3011 NOSIG=
202003201300 METAR MROC 201300Z 12012G22KT 100V170 CAVOK 22/14 A3013 NOSIG=
202003201400 METAR MROC 201400Z 11014G24KT 9999 FEW045 24/14 A3015 NOSIG=
202003201500 METAR MROC 201500Z 10014KT 9999 FEW045 SCT100 25/13 A3017 NOSIG=
202003201600 METAR MROC 201600Z 09014G24KT CAVOK 26/14 A3016 NOSIG=
202003201700 METAR MROC 201700Z 08012KT 050V110 CAVOK 27/14 A3014 NOSIG=
202003201800 METAR MROC 201800Z 09011KT 060V120 CAVOK 27/15 A3012 NOSIG=
202003201900 METAR MROC 201900Z 09012KT 050V120 9999 FEW045 28/13 A3008 NOSIG=
202003202000 METAR MROC 202000Z 08011KT 050V130 9999 FEW045 29/13 A3005 NOSIG=
202003202100 METAR MROC 202100Z 10010KT 050V150 9999 FEW045 29/13 A3003 NOSIG=
202003202200 METAR MROC 202200Z 10011KT 060V120 9999 FEW045 28/13 A3003 NOSIG=
202003202300 METAR MROC 202300Z 10012G22KT 070V130 9999 FEW040 26/15 A3004 NOSIG=
202003210000 METAR MROC 210000Z 12008KT 090V150 9999 FEW040 24/15 A3005 NOSIG=
202003210100 METAR MROC 210100Z 11012KT 9999 FEW040 23/15 A3008 NOSIG=
202003210200 METAR MROC 210200Z 11011KT CAVOK 22/13 A3011 NOSIG=
202003210300 METAR MROC 210300Z 10012KT CAVOK 22/13 A3012 NOSIG=
202003210400 METAR MROC 210400Z 09010G20KT CAVOK 21/14 A3013 NOSIG=
202003210500 METAR MROC 210500Z 09015G26KT CAVOK 22/13 A3012 NOSIG=
202003210600 METAR MROC 210600Z 09012G22KT CAVOK 21/13 A3010 NOSIG=
202003210700 METAR MROC 210700Z 10010G20KT CAVOK 21/13 A3008 NOSIG=
202003210800 METAR MROC 210800Z 11010G20KT CAVOK 20/13 A3006 NOSIG=
202003210900 METAR MROC 210900Z 11011G21KT CAVOK 20/13 A3005 NOSIG=
202003211000 METAR MROC 211000Z 11013KT CAVOK 20/13 A3005 NOSIG=
202003211100 METAR MROC 211100Z 11012KT CAVOK 20/14 A3007 NOSIG=
202003211200 METAR MROC 211200Z 11014G24KT CAVOK 20/13 A3008 NOSIG=
202003211300 METAR MROC 211300Z 11014KT CAVOK 22/14 A3010 NOSIG=
202003211400 METAR MROC 211400Z 11013KT CAVOK 25/14 A3012 NOSIG=
202003211500 METAR MROC 211500Z 10019G29KT CAVOK 26/13 A3011 NOSIG=
202003211600 METAR MROC 211600Z 09019KT CAVOK 26/14 A3011 NOSIG=
202003211700 METAR MROC 211700Z 09019KT CAVOK 26/14 A3010 NOSIG=
202003211800 METAR MROC 211800Z 07023KT 9999 FEW045 27/13 A3007 NOSIG=
202003211900 METAR MROC 211900Z 07020KT 050V110 9999 FEW045 28/13 A3004 NOSIG=
202003212000 METAR MROC 212000Z 07022KT CAVOK 27/12 A3001 NOSIG=
202003212100 METAR MROC 212100Z 07022G32KT CAVOK 28/12 A2999 NOSIG=
202003212200 METAR MROC 212200Z 07022G33KT CAVOK 27/12 A2999 NOSIG=
202003212300 METAR MROC 212300Z 08017KT CAVOK 25/13 A3000 NOSIG=
202003220000 METAR MROC 220000Z COR 08018G28KT CAVOK 23/13 A3001 NOSIG=
202003220100 METAR MROC 220100Z 08018KT CAVOK 23/13 A3002 NOSIG=
202003220200 METAR MROC 220200Z 08018KT CAVOK 22/13 A3004 NOSIG=
202003220300 METAR MROC 220300Z 09016G26KT CAVOK 22/13 A3005 NOSIG=
202003220400 METAR MROC 220400Z 10011KT CAVOK 20/13 A3006 NOSIG=
202003220500 METAR MROC 220500Z 10016KT CAVOK 21/13 A3006 NOSIG=
202003220600 METAR MROC 220600Z 10015KT CAVOK 21/14 A3003 NOSIG=
202003220700 METAR MROC 220700Z 09016G26KT CAVOK 21/13 A3000 NOSIG=
202003220800 METAR MROC 220800Z 10015G26KT CAVOK 20/13 A2998 NOSIG=
202003220900 METAR MROC 220900Z 10015KT CAVOK 20/13 A2998 NOSIG=
202003221000 METAR MROC 221000Z COR 10013KT CAVOK 20/12 A2998 NOSIG=
202003221100 METAR MROC 221100Z 12013KT CAVOK 20/13 A3000 NOSIG=
202003221110 METAR MROC 221110Z 12013KT CAVOK 20/13 A3000 NOSIG=
202003221200 METAR MROC 221200Z COR 11011KT CAVOK 20/12 A3003 NOSIG=
202003221300 METAR MROC 221300Z 13010G20KT CAVOK 22/13 A3004 NOSIG=
202003221400 METAR MROC 221400Z 11014KT CAVOK 25/11 A3006 NOSIG=
202003221500 METAR MROC 221500Z 11013KT 090V150 CAVOK 27/11 A3007 NOSIG=
202003221600 METAR MROC 221600Z 09012G22KT 060V120 CAVOK 28/08 A3007 NOSIG=
202003221700 METAR MROC 221700Z 07018G28KT 020V100 CAVOK 28/10 A3006 NOSIG=
202003221800 METAR MROC 221800Z 07017G30KT 040V100 CAVOK 29/11 A3004 NOSIG=
202003221900 METAR MROC 221900Z 06018G28KT 040V100 CAVOK 29/12 A3000 NOSIG=
202003222000 METAR MROC 222000Z 07018KT 040V100 CAVOK 29/12 A2997 NOSIG=
202003222100 METAR MROC 222100Z 08016KT 050V110 9999 FEW045 29/13 A2996 NOSIG=
202003222200 METAR MROC 222200Z 07017KT 9999 FEW045 28/12 A2996 NOSIG=
202003222300 METAR MROC 222300Z 07016G26KT CAVOK 26/13 A2998 NOSIG=
202003230000 METAR MROC 230000Z 07015KT CAVOK 24/12 A3000 NOSIG=
202003230100 METAR MROC 230100Z 08013KT CAVOK 23/12 A3003 NOSIG=
202003230200 METAR MROC 230200Z 08013KT CAVOK 23/13 A3006 NOSIG=
202003230300 METAR MROC 230300Z 10009KT 080V140 CAVOK 22/14 A3008 NOSIG=
202003230400 METAR MROC 230400Z 10012KT CAVOK 22/14 A3008 NOSIG=
202003230500 METAR MROC 230500Z 12014KT CAVOK 21/15 A3007 NOSIG=
202003230600 METAR MROC 230600Z 11014KT CAVOK 21/15 A3008 NOSIG=
202003230700 METAR MROC 230700Z 11018KT CAVOK 21/14 A3006 NOSIG=
202003230800 METAR MROC 230800Z 12015KT CAVOK 21/15 A3004 NOSIG=
202003230900 METAR MROC 230900Z 12013KT 090V150 CAVOK 21/15 A3004 NOSIG=
202003231000 METAR MROC 231000Z 10015KT CAVOK 20/14 A3005 NOSIG=
202003231100 METAR MROC 231100Z 11014KT CAVOK 20/14 A3006 NOSIG=
202003231200 METAR MROC 231200Z 11014KT 9999 FEW035 20/14 A3008 NOSIG=
202003231300 METAR MROC 231300Z 11015KT CAVOK 22/15 A3010 NOSIG=
202003231400 METAR MROC 231400Z 11019KT 9999 FEW040 23/15 A3012 NOSIG=
202003231500 METAR MROC 231500Z 10018KT 070V130 9999 FEW040 25/13 A3013 NOSIG=
202003231600 METAR MROC 231600Z 09019KT 9999 FEW045 26/12 A3012 NOSIG=
202003231700 METAR MROC 231700Z 10014G24KT 060V130 CAVOK 28/12 A3010 NOSIG=
202003231800 METAR MROC 231800Z 08014G24KT 060V130 CAVOK 28/13 A3007 NOSIG=
202003231900 METAR MROC 231900Z 10015KT 080V150 9999 FEW045 28/12 A3006 NOSIG=
202003232000 METAR MROC 232000Z 11015KT 070V130 9999 FEW045 28/14 A3003 NOSIG=
202003232100 METAR MROC 232100Z 10013G23KT 060V130 9999 FEW040 28/14 A3002 NOSIG=
202003232200 METAR MROC 232200Z 10012G22KT 9999 FEW040 27/15 A3001 NOSIG=
202003232300 METAR MROC 232300Z 11014G24KT 9999 FEW045 25/13 A3003 NOSIG=
202003240000 METAR MROC 240000Z 11012G23KT 9999 FEW040 23/16 A3005 NOSIG=
202003240100 METAR MROC 240100Z 11010G20KT 9999 FEW035 22/14 A3007 NOSIG=
202003240200 METAR MROC 240200Z 10010G20KT 9999 FEW035 22/15 A3009 NOSIG=
202003240300 METAR MROC 240300Z 09010G20KT 9999 FEW035 22/14 A3010 NOSIG=
202003240400 METAR MROC 240400Z 11013G27KT 9999 FEW025 21/15 A3011 NOSIG=
202003240500 METAR MROC 240500Z 11013KT CAVOK 21/15 A3011 NOSIG=
202003240600 METAR MROC 240600Z 11013KT 080V140 CAVOK 21/15 A3009 NOSIG=
202003240700 METAR MROC 240700Z 11013G27KT CAVOK 21/15 A3007 NOSIG=
202003240800 METAR MROC 240800Z 11014G24KT CAVOK 21/15 A3005 NOSIG=
202003240900 METAR MROC 240900Z 11012G22KT CAVOK 20/15 A3004 NOSIG=
202003241000 METAR MROC 241000Z 11013G23KT CAVOK 21/14 A3004 NOSIG=
202003241100 METAR MROC 241100Z 11014KT 080V140 CAVOK 21/14 A3005 NOSIG=
202003241200 METAR MROC 241200Z 10012G22KT CAVOK 21/14 A3007 NOSIG=
202003241300 METAR MROC 241300Z 11012G23KT 9999 FEW040 23/15 A3009 NOSIG=
202003241400 METAR MROC 241400Z 11016G28KT 9999 FEW040 24/15 A3010 NOSIG=
202003241500 METAR MROC 241500Z 10017KT 9999 FEW040 26/14 A3011 NOSIG=
202003241600 METAR MROC 241600Z 10013G23KT 060V140 CAVOK 27/14 A3011 NOSIG=
202003241700 METAR MROC 241700Z 11013G23KT 070V180 9999 FEW045 28/14 A3009 NOSIG=
202003241800 METAR MROC 241800Z 11016KT 070V150 9999 FEW045 28/14 A3006 NOSIG=
202003241900 METAR MROC 241900Z 10014KT 070V150 9999 FEW040 29/15 A3003 NOSIG=
202003242000 METAR MROC 242000Z 11010G20KT 080V160 9999 FEW035 SCT080 28/15 A3000 NOSIG=
202003242100 METAR MROC 242100Z 10013KT 9999 FEW035 SCT090 27/15 A2999 NOSIG=
202003242200 METAR MROC 242200Z 11011KT 9999 FEW035 SCT100 25/15 A3000 NOSIG=
202003242300 METAR MROC 242300Z 09010KT 9999 FEW035 SCT050 BKN120 25/15 A3001 NOSIG=
202003250000 METAR MROC 250000Z 09010KT 9999 FEW035 SCT100 23/15 A3002 NOSIG=
202003250100 METAR MROC 250100Z 10012KT 9999 FEW020 SCT100 23/15 A3003 NOSIG=
202003250200 METAR MROC 250200Z 11011KT 9999 FEW020 SCT100 22/15 A3005 NOSIG=
202003250300 METAR MROC 250300Z 10011KT 9999 FEW020 22/14 A3006 NOSIG=
202003250400 METAR MROC 250400Z 11014G24KT 9999 FEW030 21/15 A3006 NOSIG=
202003250500 METAR MROC 250500Z 11014KT CAVOK 21/14 A3005 NOSIG=
202003250600 METAR MROC 250600Z 11013KT CAVOK 21/14 A3004 NOSIG=
202003250700 METAR MROC 250700Z 09009KT 050V120 CAVOK 21/14 A3002 NOSIG=
202003250800 METAR MROC 250800Z 11011KT 080V140 CAVOK 21/14 A3000 NOSIG=
202003250900 METAR MROC 250900Z 11016G26KT CAVOK 21/14 A2999 NOSIG=
202003251000 METAR MROC 251000Z 11016KT CAVOK 21/14 A2999 NOSIG=
202003251100 METAR MROC 251100Z 11014G24KT 080V140 CAVOK 20/14 A2999 NOSIG=
202003251200 METAR MROC 251200Z 12015KT CAVOK 20/13 A3000 NOSIG=
202003251300 METAR MROC 251300Z 11014G24KT CAVOK 22/13 A3002 NOSIG=
202003251400 METAR MROC 251400Z 12011KT CAVOK 24/13 A3004 NOSIG=
202003251500 METAR MROC 251500Z 13012KT 100V170 CAVOK 27/12 A3004 NOSIG=
202003251600 METAR MROC 251600Z 11011KT 080V150 CAVOK 28/12 A3004 NOSIG=
202003251700 METAR MROC 251700Z 10011KT 070V160 CAVOK 29/13 A3002 NOSIG=
202003251800 METAR MROC 251800Z 11013KT 070V150 9999 FEW045 29/14 A3000 NOSIG=
202003251900 METAR MROC 251900Z 11011KT 070V150 9999 FEW045 30/13 A2997 NOSIG=
202003252000 METAR MROC 252000Z 13009KT 070V190 9999 FEW045 31/15 A2994 NOSIG=
202003252100 METAR MROC 252100Z 14007KT 110V190 9999 VCSH FEW020TCU FEW045 29/15 A2993 NOSIG=
202003252200 METAR MROC 252200Z 21010KT 180V240 9999 VCSH FEW020TCU FEW035 SCT040 26/19 A2994 NOSIG=
202003252300 METAR MROC 252300Z 22009KT 9999 SCT040 25/18 A2995 NOSIG=
202003260000 METAR MROC 260000Z 20006KT 9999 SCT035 24/18 A2997 NOSIG=
202003260100 METAR MROC 260100Z 05003KT 9999 SCT030 24/17 A2998 NOSIG=
202003260200 METAR MROC 260200Z 09009KT 9999 FEW035 23/17 A3000 NOSIG=
202003260300 METAR MROC 260300Z 10005KT 9999 FEW035 22/17 A3001 NOSIG=
202003260400 METAR MROC 260400Z 09007KT 9999 FEW035 22/14 A3002 NOSIG=
202003260500 METAR MROC 260500Z 11013G23KT 9999 FEW035 22/15 A3001 NOSIG=
202003260600 METAR MROC 260600Z 12011G21KT 080V140 CAVOK 21/15 A2999 NOSIG=
202003260700 METAR MROC 260700Z 08008G18KT 050V110 CAVOK 21/15 A2998 NOSIG=
202003260800 METAR MROC 260800Z 05013KT CAVOK 21/15 A2996 NOSIG=
202003260900 METAR MROC 260900Z 08013KT CAVOK 21/15 A2996 NOSIG=
202003261000 METAR MROC 261000Z 05013KT CAVOK 21/15 A2995 NOSIG=
202003261100 METAR MROC 261100Z 05008KT CAVOK 20/15 A2996 NOSIG=
202003261200 METAR MROC 261200Z 07005KT 040V110 CAVOK 21/16 A2998 NOSIG=
202003261300 METAR MROC 261300Z 10012KT 070V130 CAVOK 23/16 A3001 NOSIG=
202003261400 METAR MROC 261400Z 10014KT 9999 FEW035 24/16 A3002 NOSIG=
202003261500 METAR MROC 261500Z 11012KT 080V140 9999 FEW040 26/16 A3002 NOSIG=
202003261600 METAR MROC 261600Z 12011G23KT 080V150 9999 FEW040 28/15 A3002 NOSIG=
202003261700 METAR MROC 261700Z 10012KT 070V130 CAVOK 29/15 A3000 NOSIG=
202003261800 METAR MROC 261800Z 10010KT 060V150 CAVOK 30/14 A2998 NOSIG=
202003261900 METAR MROC 261900Z 11009KT 070V160 CAVOK 31/15 A2995 NOSIG=
202003262000 METAR MROC 262000Z 12007KT 080V170 9999 SCT045 30/14 A2993 NOSIG=
202003262100 METAR MROC 262100Z 19008KT 150V230 9999 BKN030 28/18 A2992 BECMG 25008KT=
202003262200 METAR MROC 262200Z 18007KT 130V220 9999 SCT035 27/16 A2991 NOSIG=
202003262300 METAR MROC 262300Z 12011G21KT 090V150 9999 SCT035 25/17 A2991 NOSIG=
202003270000 METAR MROC 270000Z 09011KT 9999 FEW035 24/17 A2994 NOSIG=
202003270100 METAR MROC 270100Z 10008KT 9999 SCT040 23/16 A2996 NOSIG=
202003270200 METAR MROC 270200Z 11007KT CAVOK 22/16 A2998 NOSIG=
202003270300 METAR MROC 270300Z 11011KT 080V140 CAVOK 22/16 A2999 NOSIG=
202003270400 METAR MROC 270400Z 10013KT CAVOK 22/16 A2999 NOSIG=
202003270500 METAR MROC 270500Z 10008KT CAVOK 21/14 A2999 NOSIG=
202003270600 METAR MROC 270600Z 08007KT CAVOK 21/13 A2997 NOSIG=
202003270700 METAR MROC 270700Z 07008KT 9999 FEW030 21/14 A2995 NOSIG=
202003270800 METAR MROC 270800Z 10008KT 060V130 9999 FEW030 21/13 A2994 NOSIG=
202003270900 METAR MROC 270900Z 08006KT 030V120 CAVOK 21/13 A2994 NOSIG=
202003271000 METAR MROC 271000Z 09010KT 070V140 CAVOK 21/11 A2993 NOSIG=
202003271100 METAR MROC 271100Z 10012KT 070V130 CAVOK 20/13 A2993 NOSIG=
202003271200 METAR MROC 271200Z 10007KT 020V140 CAVOK 21/12 A2995 NOSIG=
202003271300 METAR MROC 271300Z 10016G27KT 9999 FEW040 23/08 A2996 NOSIG=
202003271400 METAR MROC 271400Z 11016KT CAVOK 24/13 A2999 NOSIG=
202003271500 METAR MROC 271500Z 11015KT 080V140 CAVOK 26/13 A2999 NOSIG=
202003271600 METAR MROC 271600Z 10015KT 070V140 CAVOK 29/11 A2999 NOSIG=
202003271700 METAR MROC 271700Z 12012KT 080V160 CAVOK 30/12 A2998 NOSIG=
202003271800 METAR MROC 271800Z 10012KT 070V140 CAVOK 30/13 A2995 NOSIG=
202003271900 METAR MROC 271900Z 10012KT 070V130 CAVOK 31/14 A2993 NOSIG=
202003272000 METAR MROC 272000Z 13008KT 080V180 CAVOK 31/13 A2991 NOSIG=
202003272100 METAR MROC 272100Z 11010KT 070V170 9999 FEW045 29/14 A2989 NOSIG=
202003272200 METAR MROC 272200Z 11010KT 080V140 9999 FEW045 28/15 A2988 NOSIG=
202003272300 METAR MROC 272300Z 11011KT 070V130 9999 FEW045 27/15 A2989 NOSIG=
202003280000 METAR MROC 280000Z 11012KT 070V130 CAVOK 25/16 A2991 NOSIG=
202003280100 METAR MROC 280100Z 10011KT CAVOK 23/16 A2995 NOSIG=
202003280200 METAR MROC 280200Z 11011KT CAVOK 23/15 A2996 NOSIG=
202003280300 METAR MROC 280300Z 09007KT 060V120 CAVOK 22/14 A2998 NOSIG=
202003280400 METAR MROC 280400Z 06009KT CAVOK 22/13 A2999 NOSIG=
202003280500 METAR MROC 280500Z 10012KT CAVOK 22/13 A2997 NOSIG=
202003280600 METAR MROC 280600Z 10014KT CAVOK 22/14 A2996 NOSIG=
202003280700 METAR MROC 280700Z 11011KT 080V140 CAVOK 21/13 A2993 NOSIG=
202003280800 METAR MROC 280800Z 04009KT CAVOK 20/12 A2992 NOSIG=
202003280900 METAR MROC 280900Z 02005KT CAVOK 19/11 A2993 NOSIG=
202003281000 METAR MROC 281000Z 04007KT 010V080 CAVOK 19/12 A2993 NOSIG=
202003281100 METAR MROC 281100Z 11010KT CAVOK 20/12 A2994 NOSIG=
202003281200 METAR MROC 281200Z 07011KT CAVOK 20/13 A2997 NOSIG=
202003281300 METAR MROC 281300Z 10009KT 060V150 CAVOK 23/13 A2997 NOSIG=
202003281400 METAR MROC 281400Z 12011KT 090V150 CAVOK 25/13 A3000 NOSIG=
202003281500 METAR MROC 281500Z 11013KT CAVOK 27/13 A3000 NOSIG=
202003281600 METAR MROC 281600Z 12011KT 090V180 CAVOK 29/13 A3000 NOSIG=
202003281700 METAR MROC 281700Z 13010KT 060V170 CAVOK 29/14 A2999 NOSIG=
202003281800 METAR MROC 281800Z 10010KT 040V160 CAVOK 30/13 A2996 NOSIG=
202003281900 METAR MROC 281900Z 10010KT 060V150 9999 FEW045 30/14 A2992 NOSIG=
202003282000 METAR MROC 282000Z 12008KT 080V180 9999 SCT045 31/15 A2990 NOSIG=
202003282100 METAR MROC 282100Z 13010G20KT 080V170 CAVOK 30/14 A2988 NOSIG=
202003282200 METAR MROC 282200Z 11007G17KT 070V150 9999 FEW045 29/14 A2988 NOSIG=
202003282300 METAR MROC 282300Z 14009KT 090V190 9999 FEW040 SCT100 28/15 A2989 NOSIG=
202003290000 METAR MROC 290000Z 12012KT 090V150 9999 FEW040 BKN090 25/17 A2992 NOSIG=
202003290100 METAR MROC 290100Z 08009KT 9999 FEW035 BKN070 22/17 A2995 NOSIG=
202003290200 METAR MROC 290200Z 11010G20KT 9999 FEW035 SCT050 23/17 A2997 NOSIG=
202003290300 METAR MROC 290300Z 09009G19KT 9999 FEW035 23/17 A2999 NOSIG=
202003290400 METAR MROC 290400Z 09012G23KT 9999 FEW030 23/16 A3001 NOSIG=
202003290500 METAR MROC 290500Z 09015G25KT 9999 FEW035 23/16 A2998 NOSIG=
202003290600 METAR MROC 290600Z 10013KT CAVOK 22/15 A2997 NOSIG=
202003290700 METAR MROC 290700Z 11012KT CAVOK 22/16 A2995 NOSIG=
202003290800 METAR MROC 290800Z 10015KT CAVOK 22/16 A2993 NOSIG=
202003290900 METAR MROC 290900Z 10011G24KT 080V140 CAVOK 21/16 A2994 NOSIG=
202003291000 METAR MROC 291000Z 10010G20KT CAVOK 21/16 A2995 NOSIG=
202003291100 METAR MROC 291100Z 11007KT 070V150 CAVOK 21/16 A2996 NOSIG=
202003291200 METAR MROC 291200Z 08008KT 040V110 CAVOK 21/16 A2998 NOSIG=
202003291300 METAR MROC 291300Z 11012G22KT 9999 FEW035 22/16 A2999 NOSIG=
202003291400 METAR MROC 291400Z 10014G24KT 080V140 9999 FEW035 24/16 A3002 NOSIG=
202003291500 METAR MROC 291500Z 09014G24KT 9999 FEW035 25/14 A3003 NOSIG=
202003291600 METAR MROC 291600Z 11014G24KT 080V140 9999 SCT040 26/14 A3004 NOSIG=
202003291700 METAR MROC 291700Z 09014G24KT 070V130 9999 SCT040 27/14 A3003 NOSIG=
202003291800 METAR MROC 291800Z 10013G23KT 060V140 9999 FEW045 27/15 A3001 NOSIG=
202003291900 METAR MROC 291900Z 11013G24KT 060V150 CAVOK 28/14 A2998 NOSIG=
202003292000 METAR MROC 292000Z 09013G28KT 060V130 CAVOK 29/15 A2995 NOSIG=
202003292100 METAR MROC 292100Z 09014KT 060V130 9999 FEW040 28/15 A2994 NOSIG=
202003292200 METAR MROC 292200Z 10013KT 080V150 9999 SCT040 27/15 A2993 NOSIG=
202003292300 METAR MROC 292300Z 11014KT 9999 SCT035 25/15 A2995 NOSIG=
202003300000 METAR MROC 300000Z 11014KT 9999 FEW035 SCT070 23/16 A2997 NOSIG=
202003300100 METAR MROC 300100Z 11013KT 9999 FEW040 23/15 A3000 NOSIG=
202003300200 METAR MROC 300200Z 11010KT 080V140 9999 FEW040 22/15 A3002 NOSIG=
202003300300 METAR MROC 300300Z 11013KT 9999 FEW040 22/15 A3005 NOSIG=
202003300400 METAR MROC 300400Z 11013KT CAVOK 22/15 A3005 NOSIG=
202003300500 METAR MROC 300500Z 11011KT CAVOK 22/15 A3004 NOSIG=
202003300600 METAR MROC 300600Z 11013G23KT CAVOK 22/15 A3003 NOSIG=
202003300700 METAR MROC 300700Z 11013KT CAVOK 21/15 A3000 NOSIG=
202003300800 METAR MROC 300800Z 11012KT CAVOK 22/14 A2998 NOSIG=
202003300900 METAR MROC 300900Z 11010KT 080V140 CAVOK 21/15 A2998 NOSIG=
202003301000 METAR MROC 301000Z 11012KT CAVOK 21/14 A2998 NOSIG=
202003301100 METAR MROC 301100Z 10011KT 070V130 CAVOK 21/14 A2999 NOSIG=
202003301200 METAR MROC 301200Z 10010KT 070V130 CAVOK 21/14 A3001 NOSIG=
202003301300 METAR MROC 301300Z 11012KT CAVOK 23/14 A3003 NOSIG=
202003301400 METAR MROC 301400Z 11014G24KT CAVOK 25/14 A3004 NOSIG=
202003301500 METAR MROC 301500Z 12014KT 090V150 CAVOK 27/14 A3004 NOSIG=
202003301600 METAR MROC 301600Z 10015G25KT 070V130 CAVOK 28/13 A3004 NOSIG=
202003301700 METAR MROC 301700Z 11011G21KT 060V150 9999 FEW035 29/12 A3002 NOSIG=
202003301800 METAR MROC 301800Z 10014G26KT 9999 FEW030 30/13 A2999 NOSIG=
202003301900 METAR MROC 301900Z 09014KT 060V140 9999 FEW030 30/13 A2996 NOSIG=
202003302000 METAR MROC 302000Z 09014G24KT 9999 FEW030 29/14 A2994 NOSIG=
202003302100 METAR MROC 302100Z 12011KT 080V140 9999 FEW040 28/15 A2992 NOSIG=
202003302200 METAR MROC 302200Z 10011KT 070V140 9999 FEW045 29/15 A2991 NOSIG=
202003302300 METAR MROC 302300Z 12010KT 9999 FEW040 27/16 A2993 NOSIG=
202003310000 METAR MROC 310000Z 11010KT 9999 FEW035 25/16 A2996 NOSIG=
202003310100 METAR MROC 310100Z 11010KT 090V150 9999 FEW040 23/17 A2997 NOSIG=
202003310200 METAR MROC 310200Z 08013KT 9999 FEW040 23/16 A2999 NOSIG=
202003310300 METAR MROC 310300Z 09012KT 070V130 9999 FEW040 23/16 A3000 NOSIG=
202003310400 METAR MROC 310400Z 07013KT 040V140 CAVOK 22/16 A3002 NOSIG=
202003310500 METAR MROC 310500Z 10012G22KT CAVOK 22/16 A3000 NOSIG=
202003310600 METAR MROC 310600Z 08010G20KT 9999 FEW035 22/16 A2999 NOSIG=
202003310700 METAR MROC 310700Z 07011KT 9999 FEW035 21/16 A2997 NOSIG=
202003310800 METAR MROC 310800Z 04011KT 9999 FEW035 21/16 A2996 NOSIG=
202003310900 METAR MROC 310900Z 07010KT 9999 FEW035 21/16 A2995 NOSIG=
202003311000 METAR MROC 311000Z 05007KT 9999 FEW035 20/15 A2996 NOSIG=
202003311100 METAR MROC 311100Z 09007KT 9999 FEW035 20/15 A2997 NOSIG=
202003311200 METAR MROC 311200Z 10010G20KT 060V130 CAVOK 22/15 A2997 NOSIG=
202003311300 METAR MROC 311300Z 11011KT 070V140 CAVOK 23/15 A2999 NOSIG=
202003311400 METAR MROC 311400Z 11013KT 080V140 CAVOK 25/14 A3001 NOSIG=
202003311500 METAR MROC 311500Z 11014KT 070V140 CAVOK 26/14 A3001 NOSIG=
202003311600 METAR MROC 311600Z 10012KT 080V140 CAVOK 29/14 A3001 NOSIG=
202003311700 METAR MROC 311700Z 10011KT 060V130 CAVOK 30/13 A2999 NOSIG=
202003311800 METAR MROC 311800Z 10011KT 060V130 CAVOK 30/12 A2997 BECMG 24006KT=
202003311900 METAR MROC 311900Z 10009KT 080V150 CAVOK 31/12 A2994 NOSIG=
202003312000 METAR MROC 312000Z 12010KT 090V150 9999 FEW025TCU FEW040 31/12 A2991 TEMPO 26006KT=
202003312100 METAR MROC 312100Z 11009KT 080V150 9999 VCTS SCT025CB SCT030 29/15 A2990 NOSIG=
202003312200 METAR MROC 312200Z 21012KT 9999 SHRA VCTS SCT025CB BKN120 21/18 A2993 NOSIG=
202003312300 METAR MROC 312300Z 17007KT 9999 FEW030 BKN120 23/20 A2994 NOSIG=
202004010000 METAR MROC 010000Z 19005KT 100V230 CAVOK 23/19 A2997 NOSIG=
202004010100 METAR MROC 010100Z 06006KT 030V100 CAVOK 24/19 A2998 NOSIG=
202004010200 METAR MROC 010200Z 10004KT 060V130 CAVOK 23/18 A2999 NOSIG=
202004010300 METAR MROC 010300Z 10006KT CAVOK 22/17 A3001 NOSIG=
202004010400 METAR MROC 010400Z 07005KT CAVOK 22/17 A3001 NOSIG=
202004010500 METAR MROC 010500Z 07007KT CAVOK 22/17 A3000 NOSIG=
202004010600 METAR MROC 010600Z 08003KT 060V120 CAVOK 21/17 A2998 NOSIG=
202004010700 METAR MROC 010700Z 10004KT CAVOK 21/17 A2995 NOSIG=
202004010800 METAR MROC 010800Z 05005KT CAVOK 19/16 A2993 NOSIG=
202004010900 METAR MROC 010900Z 05006KT CAVOK 19/15 A2992 NOSIG=
202004011000 METAR MROC 011000Z 07007KT CAVOK 19/14 A2992 NOSIG=
202004011100 METAR MROC 011100Z 05006KT CAVOK 19/14 A2994 NOSIG=
202004011200 METAR MROC 011200Z 06006KT CAVOK 17/14 A2997 NOSIG=
202004011300 METAR MROC 011300Z 03004KT CAVOK 21/15 A2999 NOSIG=
202004011400 METAR MROC 011400Z 05004KT 350V150 CAVOK 25/16 A3000 NOSIG=
202004011500 METAR MROC 011500Z VRB03KT CAVOK 27/17 A3001 BECMG 24008KT=
202004011600 METAR MROC 011600Z 28007KT 230V350 9999 FEW045 28/17 A3001 NOSIG=
202004011700 METAR MROC 011700Z 25008KT 200V230 CAVOK 29/18 A3000 NOSIG=
202004011800 METAR MROC 011800Z 24011KT 200V290 9999 FEW040 30/19 A2998 NOSIG=
202004011900 METAR MROC 011900Z 23011KT 200V270 9999 BKN045 29/19 A2996 NOSIG=
202004012000 METAR MROC 012000Z 25010KT 210V290 9999 SCT035 BKN045 30/20 A2993 BECMG TSRA=
202004012100 METAR MROC 012100Z 24011KT 9999 SCT030 27/20 A2993 NOSIG=
202004012200 METAR MROC 012200Z 09007KT 050V140 9999 RA BKN020TCU 22/17 A2996 NOSIG=
202004012300 METAR MROC 012300Z VRB03KT 9999 -RA FEW040 BKN100 21/17 A2997 NOSIG=
202004020000 METAR MROC 020000Z 05003KT CAVOK 22/19 A2997 NOSIG=
202004020100 METAR MROC 020100Z 08003KT CAVOK 22/19 A2999 NOSIG=
202004020200 METAR MROC 020200Z 10004KT CAVOK 21/19 A3000 NOSIG=
202004020300 METAR MROC 020300Z 11004KT CAVOK 21/19 A3002 NOSIG=
202004020400 METAR MROC 020400Z 07004KT CAVOK 21/19 A3003 NOSIG=
202004020500 METAR MROC 020500Z 07004KT CAVOK 20/18 A3002 NOSIG=
202004020600 METAR MROC 020600Z 10007KT CAVOK 19/16 A3002 NOSIG=
202004020700 METAR MROC 020700Z 09006KT CAVOK 18/16 A3000 NOSIG=
202004020800 METAR MROC 020800Z 08006KT CAVOK 18/16 A2998 NOSIG=
202004020900 METAR MROC 020900Z 07006KT CAVOK 19/15 A2998 NOSIG=
202004021000 METAR MROC 021000Z 05006KT CAVOK 18/14 A2998 NOSIG=
202004021100 METAR MROC 021100Z 08006KT CAVOK 18/13 A2999 NOSIG=
202004021200 METAR MROC 021200Z 08005KT CAVOK 19/16 A3001 NOSIG=
202004021300 METAR MROC 021300Z 07006KT CAVOK 21/16 A3002 NOSIG=
202004021400 METAR MROC 021400Z 09009KT 070V130 CAVOK 23/16 A3004 NOSIG=
202004021500 METAR MROC 021500Z 10007KT 050V220 CAVOK 26/15 A3004 NOSIG=
202004021600 METAR MROC 021600Z 22008KT 190V250 CAVOK 27/17 A3003 NOSIG=
202004021700 METAR MROC 021700Z 23010KT 200V260 CAVOK 29/15 A3002 NOSIG=
202004021800 METAR MROC 021800Z 23007KT 170V290 CAVOK 29/16 A2999 NOSIG=
202004021900 METAR MROC 021900Z 24007KT 180V320 CAVOK 30/17 A2996 NOSIG=
202004022000 METAR MROC 022000Z 25011KT 210V290 9999 SCT045 BKN250 30/18 A2993 NOSIG=
202004022100 METAR MROC 022100Z 24014KT 210V280 9999 SCT045 BKN250 28/19 A2992 NOSIG=
202004022200 METAR MROC 022200Z 22013KT 9999 SCT035 BKN250 28/20 A2993 NOSIG=
202004022300 METAR MROC 022300Z 23011KT 9999 SCT035 BKN250 26/21 A2994 NOSIG=
202004030000 METAR MROC 030000Z 21007KT 9999 FEW025 BKN040 25/21 A2997 NOSIG=
202004030100 METAR MROC 030100Z 22007KT 190V250 9999 SCT025 24/21 A2999 NOSIG=
202004030200 METAR MROC 030200Z 22004KT 9999 FEW010 SCT025 BKN200 23/21 A3001 NOSIG=
202004030300 METAR MROC 030300Z VRB02KT 9999 FEW010 SCT025 22/21 A3002 NOSIG=
202004030400 METAR MROC 030400Z 00000KT 9999 FEW020 BKN200 22/21 A3001 NOSIG=
202004030500 METAR MROC 030500Z 07005KT 9999 FEW030 BKN200 22/19 A3000 NOSIG=
202004030600 METAR MROC 030600Z 07004KT 050V110 9999 FEW030 BKN200 21/17 A2998 NOSIG=
202004030700 METAR MROC 030700Z 08003KT 060V140 CAVOK 21/17 A2997 NOSIG=
202004030800 METAR MROC 030800Z 10005KT CAVOK 20/16 A2994 NOSIG=
202004030900 METAR MROC 030900Z 09007KT CAVOK 20/15 A2993 NOSIG=
202004031000 METAR MROC 031000Z 07009KT CAVOK 19/14 A2995 NOSIG=
202004031100 METAR MROC 031100Z 08008KT CAVOK 19/15 A2997 NOSIG=
202004031200 METAR MROC 031200Z 08008KT CAVOK 20/14 A2999 NOSIG=
202004031300 METAR MROC 031300Z 09012KT CAVOK 22/14 A3001 NOSIG=
202004031400 METAR MROC 031400Z 08010KT CAVOK 24/14 A3003 NOSIG=
202004031500 METAR MROC 031500Z 11008KT 070V130 CAVOK 27/13 A3003 NOSIG=
202004031600 METAR MROC 031600Z 30003KT 9999 FEW045 29/12 A3002 NOSIG=
202004031700 METAR MROC 031700Z 25010KT 190V290 9999 FEW045 SCT150 31/12 A3000 NOSIG=
202004031800 METAR MROC 031800Z 24012KT 210V290 9999 FEW045 BKN150 31/17 A2997 NOSIG=
202004031900 METAR MROC 031900Z 24014KT 200V290 9999 FEW040 SCT200 31/17 A2994 NOSIG=
202004032000 METAR MROC 032000Z 27015KT 9999 SCT040 BKN200 31/18 A2991 NOSIG=
202004032100 METAR MROC 032100Z 25011KT 210V290 9999 FEW035 SCT045 30/20 A2988 NOSIG=
202004032200 METAR MROC 032200Z 21011KT 170V260 9999 -RA FEW030 BKN045 26/21 A2990 NOSIG=
202004032300 METAR MROC 032300Z 19007KT 150V210 9999 SCT030 BKN200 26/21 A2992 NOSIG=
202004040000 METAR MROC 040000Z 19006KT 160V220 9999 FEW030 SCT045 24/21 A2994 NOSIG=
202004040100 METAR MROC 040100Z 23006KT 9999 BKN020 24/21 A2997 NOSIG=
202004040200 METAR MROC 040200Z 25005KT 9999 FEW020 23/21 A2997 NOSIG=
202004040300 METAR MROC 040300Z 17004KT CAVOK 22/20 A2998 NOSIG=
202004040400 METAR MROC 040400Z 09005KT CAVOK 22/19 A2999 NOSIG=
202004040500 METAR MROC 040500Z 07011KT CAVOK 23/18 A2997 NOSIG=
202004040600 METAR MROC 040600Z 08007KT CAVOK 22/17 A2996 NOSIG=
202004040700 METAR MROC 040700Z 07006KT CAVOK 21/16 A2993 NOSIG=
202004040800 METAR MROC 040800Z 06009KT CAVOK 20/15 A2991 NOSIG=
202004040900 METAR MROC 040900Z 07008KT CAVOK 20/15 A2991 NOSIG=
202004041000 METAR MROC 041000Z 06007KT CAVOK 19/16 A2991 NOSIG=
202004041100 METAR MROC 041100Z 06006KT CAVOK 19/15 A2993 NOSIG=
202004041200 METAR MROC 041200Z 08005KT CAVOK 19/15 A2993 NOSIG=
202004041300 METAR MROC 041300Z 08008KT CAVOK 23/16 A2998 NOSIG=
202004041400 METAR MROC 041400Z 10008KT 070V150 CAVOK 26/16 A3000 NOSIG=
202004041500 METAR MROC 041500Z 10010KT 080V140 CAVOK 27/15 A3000 NOSIG=
202004041600 METAR MROC 041600Z 08007KT 040V150 CAVOK 29/15 A2999 NOSIG=
202004041700 METAR MROC 041700Z VRB06G17KT CAVOK 31/14 A2997 NOSIG=
202004041800 METAR MROC 041800Z 13006KT 030V200 9999 FEW045 32/15 A2994 NOSIG=
202004041900 METAR MROC 041900Z VRB06KT 9999 FEW045 33/15 A2992 NOSIG=
202004042000 METAR MROC 042000Z 18008KT 120V220 9999 FEW045 31/16 A2989 NOSIG=
202004042100 METAR MROC 042100Z 23011KT 210V280 9999 SCT045 30/19 A2987 NOSIG=
202004042200 METAR MROC 042200Z 23008KT 190V270 9999 SCT045 29/19 A2987 NOSIG=
202004042300 METAR MROC 042300Z 23009KT 9999 SCT040 28/20 A2988 NOSIG=
202004050000 METAR MROC 050000Z 24009KT 9999 FEW030 SCT035 26/20 A2992 NOSIG=
202004050100 METAR MROC 050100Z 22004KT 180V250 9999 FEW045 24/21 A2995 NOSIG=
202004050200 METAR MROC 050200Z 16005KT 130V190 CAVOK 24/17 A2997 NOSIG=
202004050300 METAR MROC 050300Z 11004KT CAVOK 23/17 A2998 NOSIG=
202004050400 METAR MROC 050400Z 09004KT CAVOK 22/18 A2999 NOSIG=
202004050500 METAR MROC 050500Z 08007KT CAVOK 21/17 A2999 NOSIG=
202004050600 METAR MROC 050600Z 08008KT 9999 FEW035 22/17 A2997 NOSIG=
202004050700 METAR MROC 050700Z 08008KT 060V120 CAVOK 22/17 A2994 NOSIG=
202004050800 METAR MROC 050800Z 09010KT CAVOK 22/16 A2993 NOSIG=
202004050900 METAR MROC 050900Z 06006KT CAVOK 21/16 A2993 NOSIG=
202004051000 METAR MROC 051000Z 09007G17KT 060V120 CAVOK 21/16 A2994 NOSIG=
202004051100 METAR MROC 051100Z 06009KT 030V090 CAVOK 20/15 A2996 NOSIG=
202004051200 METAR MROC 051200Z 07010KT CAVOK 19/15 A2997 NOSIG=
202004051300 METAR MROC 051300Z 07006KT CAVOK 23/16 A3000 NOSIG=
202004051400 METAR MROC 051400Z 09009KT CAVOK 26/16 A3002 NOSIG=
202004051500 METAR MROC 051500Z 08008KT CAVOK 27/15 A3003 NOSIG=
202004051600 METAR MROC 051600Z 11007KT CAVOK 30/14 A3002 NOSIG=
202004051700 METAR MROC 051700Z 12005KT CAVOK 21/12 A2999 NOSIG=
202004051800 METAR MROC 051800Z 27009KT CAVOK 32/14 A2996 NOSIG=
202004051900 METAR MROC 051900Z 24013KT CAVOK 32/16 A2994 NOSIG=
202004052000 METAR MROC 052000Z 25014KT 9999 SCT045 32/20 A2992 NOSIG=
202004052100 METAR MROC 052100Z 23012KT 210V270 9999 FEW030TCU FEW035 30/20 A2991 NOSIG=
202004052200 METAR MROC 052200Z 24012KT 210V270 9999 VCSH FEW025TCU FEW035 29/20 A2991 NOSIG=
202004052300 METAR MROC 052300Z 24009KT 200V260 9999 FEW040 27/19 A2993 NOSIG=
202004060000 METAR MROC 060000Z 22008KT 9999 SCT035 26/20 A2995 NOSIG=
202004060100 METAR MROC 060100Z 26003KT 200V310 9999 BKN030 25/19 A2997 NOSIG=
202004060200 METAR MROC 060200Z 32003KT 280V340 9999 FEW030 25/19 A3000 NOSIG=
202004060300 METAR MROC 060300Z 07005KT 040V100 9999 FEW030 23/16 A3002 NOSIG=
202004060400 METAR MROC 060400Z 10005KT 080V140 9999 FEW035 23/15 A3003 NOSIG=
202004060500 METAR MROC 060500Z 09007KT 050V120 CAVOK 23/16 A3002 NOSIG=
202004060600 METAR MROC 060600Z 10010KT 070V140 CAVOK 23/17 A3000 NOSIG=
202004060700 METAR MROC 060700Z 08009KT 050V110 CAVOK 23/16 A3000 NOSIG=
202004060800 METAR MROC 060800Z 08007KT 040V110 CAVOK 22/17 A2998 NOSIG=
202004060900 METAR MROC 060900Z 07008KT 050V110 CAVOK 22/17 A2997 NOSIG=
202004061000 METAR MROC 061000Z 07009KT 9999 FEW035 22/17 A2997 NOSIG=
202004061100 METAR MROC 061100Z 04008KT 9999 FEW035 22/17 A2998 NOSIG=
202004061200 METAR MROC 061200Z 03008KT 010V070 9999 FEW040 22/17 A3000 NOSIG=
202004061300 METAR MROC 061300Z 09010KT 9999 FEW045 24/18 A3001 NOSIG=
202004061400 METAR MROC 061400Z 10012KT CAVOK 26/18 A3003 NOSIG=
202004061500 METAR MROC 061500Z 12011KT CAVOK 28/18 A3003 NOSIG=
202004061600 METAR MROC 061600Z 13012KT 9999 FEW045 31/14 A3001 NOSIG=
202004061700 METAR MROC 061700Z 15012KT 090V200 9999 FEW045 32/13 A3001 NOSIG=
202004061800 METAR MROC 061800Z 12011KT 070V160 9999 FEW045 32/12 A2999 NOSIG=
202004061900 METAR MROC 061900Z 19009KT 110V240 9999 FEW045 31/19 A2996 NOSIG=
202004062000 METAR MROC 062000Z 21011KT 9999 FEW045 31/19 A2996 NOSIG=
202004062100 METAR MROC 062100Z 24012KT 210V270 9999 FEW035 30/20 A2995 NOSIG=
202004062200 METAR MROC 062200Z 24010KT 9999 SCT030 29/21 A2995 NOSIG=
202004062300 METAR MROC 062300Z 24011KT 9999 SCT030 27/21 A2996 NOSIG=
202004070000 METAR MROC 070000Z 16010KT 9999 FEW030 26/17 A2998 NOSIG=
202004070100 METAR MROC 070100Z 12006KT 9999 FEW045 26/18 A3000 NOSIG=
202004070200 METAR MROC 070200Z 10007KT 070V130 CAVOK 24/18 A3002 NOSIG=
202004070300 METAR MROC 070300Z 09010KT 9999 FEW045 SCT200 24/18 A3003 NOSIG=
202004070400 METAR MROC 070400Z 08012KT CAVOK 25/18 A3005 NOSIG=
202004070500 METAR MROC 070500Z 07012KT CAVOK 25/17 A3003 NOSIG=
202004070600 METAR MROC 070600Z 08017KT CAVOK 24/18 A3001 NOSIG=
202004070700 METAR MROC 070700Z 09013KT 9999 FEW020 24/18 A3000 NOSIG=
202004070800 METAR MROC 070800Z 08018KT 9999 FEW020 24/18 A2998 NOSIG=
202004070900 METAR MROC 070900Z 10011KT 9999 FEW020 24/18 A2998 NOSIG=
202004071000 METAR MROC 071000Z 10012KT 080V140 9999 FEW020 23/17 A2998 NOSIG=
202004071100 METAR MROC 071100Z 11015KT 9999 FEW030 24/18 A3000 NOSIG=
202004071200 METAR MROC 071200Z 11011KT 090V150 9999 FEW045 24/17 A3002 NOSIG=
202004071300 METAR MROC 071300Z 09010KT 050V130 9999 FEW040 25/18 A3004 NOSIG=
202004071400 METAR MROC 071400Z 08015KT 050V110 9999 FEW040 28/17 A3006 NOSIG=
202004071500 METAR MROC 071500Z 09019KT 060V120 9999 FEW040 29/17 A3007 NOSIG=
202004071600 METAR MROC 071600Z 10016KT CAVOK 28/16 A3007 NOSIG=
202004071700 METAR MROC 071700Z 07022KT CAVOK 30/15 A3006 NOSIG=
202004071800 METAR MROC 071800Z 08021G31KT 9999 FEW035 31/15 A3003 NOSIG=
202004071900 METAR MROC 071900Z 07022G32KT 9999 FEW045 31/16 A3000 NOSIG=
202004072000 METAR MROC 072000Z 08018KT 050V110 9999 FEW045 30/16 A2999 NOSIG=
202004072100 METAR MROC 072100Z 07018G30KT 050V120 9999 FEW040 31/15 A2996 NOSIG=
202004072200 METAR MROC 072200Z 06026G36KT 9999 FEW040 30/15 A2994 NOSIG=
202004072300 METAR MROC 072300Z 06021G31KT 9999 FEW035 28/16 A2995 NOSIG=
202004080000 METAR MROC 080000Z 06020G30KT 9999 FEW035 26/16 A2998 NOSIG=
202004080100 METAR MROC 080100Z 07015G25KT 9999 FEW035 25/17 A3000 NOSIG=
202004080200 METAR MROC 080200Z 08012G22KT CAVOK 24/16 A3001 NOSIG=
202004080300 METAR MROC 080300Z 10013G23KT CAVOK 23/16 A3003 NOSIG=
202004080400 METAR MROC 080400Z 11017KT CAVOK 23/16 A3004 NOSIG=
202004080500 METAR MROC 080500Z 10017G28KT CAVOK 23/16 A3002 NOSIG=
202004080600 METAR MROC 080600Z 12014KT CAVOK 22/16 A3001 NOSIG=
202004080700 METAR MROC 080700Z 12010KT CAVOK 22/16 A2998 NOSIG=
202004080800 METAR MROC 080800Z 13010KT 100V170 CAVOK 22/16 A2997 NOSIG=
202004080900 METAR MROC 080900Z 10010KT 080V140 CAVOK 22/16 A2996 NOSIG=
202004081000 METAR MROC 081000Z 12010KT 090V150 CAVOK 22/16 A2996 NOSIG=
202004081100 METAR MROC 081100Z 11011KT 080V140 CAVOK 22/16 A2997 NOSIG=
202004081200 METAR MROC 081200Z 12010KT 090V150 9999 FEW045 22/17 A2998 NOSIG=
202004081300 METAR MROC 081300Z 11012G23KT 080V140 9999 FEW035 24/17 A3000 NOSIG=
202004081400 METAR MROC 081400Z 09010G20KT 9999 FEW035 SCT250 27/17 A3003 NOSIG=
202004081500 METAR MROC 081500Z 09014G24KT 060V120 9999 FEW035 SCT250 28/17 A3003 NOSIG=
202004081600 METAR MROC 081600Z 08014G24KT 9999 FEW035 SCT250 30/17 A3003 NOSIG=
202004081700 METAR MROC 081700Z 07013G23KT 9999 FEW035 SCT250 31/16 A3003 NOSIG=
202004081800 METAR MROC 081800Z 08014G27KT 9999 FEW040 BKN250 31/16 A3001 NOSIG=
202004081900 METAR MROC 081900Z 06018G28KT 9999 FEW045 BKN250 32/16 A2998 NOSIG=
202004082000 METAR MROC 082000Z 05014G24KT 020V090 9999 FEW045 BKN200 33/15 A2994 NOSIG=
202004082100 METAR MROC 082100Z 08014KT 050V110 9999 FEW045 BKN200 31/15 A2993 NOSIG=
202004082200 METAR MROC 082200Z 08011KT 050V110 9999 FEW045 BKN200 30/15 A2993 NOSIG=
202004082300 METAR MROC 082300Z 09009KT 060V130 9999 FEW045 BKN200 29/15 A2995 NOSIG=
202004090000 METAR MROC 090000Z 08010KT 050V110 9999 FEW040 BKN200 27/15 A2996 NOSIG=
202004090100 METAR MROC 090100Z 08010KT 9999 FEW040 BKN200 26/15 A2998 NOSIG=
202004090200 METAR MROC 090200Z 08011KT 9999 FEW035 BKN200 25/16 A3000 NOSIG=
202004090300 METAR MROC 090300Z 09012KT 9999 FEW035 BKN200 25/16 A3002 NOSIG=
202004090400 METAR MROC 090400Z 10011KT 9999 FEW040 SCT200 24/17 A3003 NOSIG=
202004090500 METAR MROC 090500Z 11011KT 9999 FEW040 23/17 A3003 NOSIG=
202004090600 METAR MROC 090600Z 11011KT 080V140 9999 FEW035 SCT250 23/17 A3001 NOSIG=
202004090700 METAR MROC 090700Z 11012KT 9999 FEW040 23/17 A3000 NOSIG=
202004090800 METAR MROC 090800Z 11013KT CAVOK 23/17 A2998 NOSIG=
202004090900 METAR MROC 090900Z 10010KT CAVOK 22/16 A2997 NOSIG=
202004091000 METAR MROC 091000Z 12008KT CAVOK 22/16 A2997 NOSIG=
202004091100 METAR MROC 091100Z 12007KT 040V150 CAVOK 21/16 A2997 NOSIG=
202004091200 METAR MROC 091200Z 10010KT CAVOK 22/16 A2999 NOSIG=
202004091300 METAR MROC 091300Z 10010KT CAVOK 24/16 A3000 NOSIG=
202004091400 METAR MROC 091400Z 13009KT 100V180 CAVOK 27/15 A3003 NOSIG=
202004091500 METAR MROC 091500Z 11008KT 050V180 CAVOK 29/15 A3003 NOSIG=
202004091600 METAR MROC 091600Z 10012KT 060V140 CAVOK 30/16 A3001 NOSIG=
202004091700 METAR MROC 091700Z 12011KT 080V180 CAVOK 31/16 A3000 NOSIG=
202004091800 METAR MROC 091800Z 11010G20KT 050V160 CAVOK 31/16 A2998 NOSIG=
202004091900 METAR MROC 091900Z 09012KT 060V120 9999 FEW045 SCT250 31/16 A2994 NOSIG=
202004092000 METAR MROC 092000Z 10011KT 9999 FEW045 BKN250 31/16 A2993 NOSIG=
202004092100 METAR MROC 092100Z 14006KT 9999 FEW045 BKN200 31/17 A2991 NOSIG=
202004092200 METAR MROC 092200Z 28008KT 9999 FEW045 BKN200 29/19 A2991 NOSIG=
202004092300 METAR MROC 092300Z 21008KT 9999 FEW040 OVC200 28/19 A2992 NOSIG=
202004100000 METAR MROC 100000Z 26007KT 230V300 9999 FEW035 BKN200 26/20 A2994 NOSIG=
202004100100 METAR MROC 100100Z 26005KT 230V310 9999 FEW035 BKN200 25/20 A2996 NOSIG=
202004100200 METAR MROC 100200Z 10005KT 9999 FEW040 SCT200 24/18 A2999 NOSIG=
202004100300 METAR MROC 100300Z 11003KT 9999 FEW035 SCT080 24/18 A3001 NOSIG=
202004100400 METAR MROC 100400Z 10006KT 9999 FEW035 SCT060 24/19 A3002 NOSIG=
202004100500 METAR MROC 100500Z 11007KT 070V130 9999 FEW035 SCT060 24/18 A3002 NOSIG=
202004100600 METAR MROC 100600Z 09006KT 9999 FEW035 23/18 A3001 NOSIG=
202004100700 METAR MROC 100700Z 07009KT CAVOK 23/18 A2999 NOSIG=
202004100800 METAR MROC 100800Z 07011KT CAVOK 23/18 A2997 NOSIG=
202004100900 METAR MROC 100900Z 08012KT 050V110 CAVOK 23/18 A2997 NOSIG=
202004101000 METAR MROC 101000Z 06007KT CAVOK 22/17 A2997 NOSIG=
202004101100 METAR MROC 101100Z 10012KT 050V120 9999 FEW035 22/18 A2997 NOSIG=
202004101200 METAR MROC 101200Z 10012KT 9999 FEW035 BKN200 23/17 A2997 NOSIG=
202004101300 METAR MROC 101300Z 08008KT 040V120 9999 FEW035 SCT080 25/18 A2999 NOSIG=
202004101400 METAR MROC 101400Z 11014KT 9999 FEW035 SCT080 BKN200 26/17 A3001 NOSIG=
202004101500 METAR MROC 101500Z 09016KT 9999 FEW040 BKN200 27/18 A3001 NOSIG=
202004101600 METAR MROC 101600Z 11013KT 9999 FEW045 BKN200 28/17 A3001 NOSIG=
202004101700 METAR MROC 101700Z 11013G25KT 080V150 9999 FEW045 BKN200 29/17 A3000 NOSIG=
202004101800 METAR MROC 101800Z 11011KT 160V160 9999 FEW045 BKN250 30/16 A2998 NOSIG=
202004101900 METAR MROC 101900Z 11012KT 070V140 CAVOK 31/16 A2995 NOSIG=
202004102000 METAR MROC 102000Z 11012KT 080V140 CAVOK 31/16 A2993 NOSIG=
202004102100 METAR MROC 102100Z 11012KT 070V170 9999 FEW040 BKN200 31/16 A2991 NOSIG=
202004102200 METAR MROC 102200Z 11010KT 070V140 9999 FEW040 BKN200 30/17 A2990 NOSIG=
202004102300 METAR MROC 102300Z 20006KT 170V240 9999 FEW040 BKN200 28/20 A2993 NOSIG=
202004110000 METAR MROC 110000Z 22007KT 9999 FEW040 BKN200 26/21 A2996 NOSIG=
202004110100 METAR MROC 110100Z 22004KT 190V250 9999 FEW040 SCT250 24/21 A2998 NOSIG=
202004110200 METAR MROC 110200Z 25004KT CAVOK 23/22 A2998 NOSIG=
202004110300 METAR MROC 110300Z 15004KT CAVOK 23/19 A3002 NOSIG=
202004110400 METAR MROC 110400Z 10004KT CAVOK 23/19 A3004 NOSIG=
202004110500 METAR MROC 110500Z 05009KT CAVOK 23/19 A3003 NOSIG=
202004110600 METAR MROC 110600Z 12004KT 070V180 CAVOK 22/17 A3002 NOSIG=
202004110700 METAR MROC 110700Z 09003KT CAVOK 21/17 A3001 NOSIG=
202004110800 METAR MROC 110800Z 08005KT 9999 FEW040 21/16 A2999 NOSIG=
202004110900 METAR MROC 110900Z 07006KT 9999 SCT035 21/16 A2998 NOSIG=
202004111000 METAR MROC 111000Z 08007KT CAVOK 21/16 A3000 NOSIG=
202004111100 METAR MROC 111100Z 08009KT CAVOK 21/16 A3001 NOSIG=
202004111200 METAR MROC 111200Z 07008KT 040V100 CAVOK 21/16 A3003 NOSIG=
202004111300 METAR MROC 111300Z 08008KT 060V120 CAVOK 24/16 A3004 NOSIG=
202004111400 METAR MROC 111400Z 11012KT 080V140 CAVOK 25/16 A3004 NOSIG=
202004111500 METAR MROC 111500Z 11010KT 080V170 CAVOK 27/16 A3003 NOSIG=
202004111600 METAR MROC 111600Z 10009KT 040V140 CAVOK 29/17 A3003 NOSIG=
202004111700 METAR MROC 111700Z 10012KT 060V130 CAVOK 30/16 A3002 NOSIG=
202004111800 METAR MROC 111800Z 11010KT 060V180 CAVOK 31/15 A2999 NOSIG=
202004111900 METAR MROC 111900Z 09010KT 030V140 CAVOK 32/15 A2996 NOSIG=
202004112000 METAR MROC 112000Z 10011KT 060V150 9999 FEW045 SCT250 32/15 A2994 NOSIG=
202004112100 METAR MROC 112100Z 12008KT 080V170 9999 FEW035 32/16 A2993 BECMG 22006KT=
202004112200 METAR MROC 112200Z 15006KT 090V210 9999 FEW035 31/16 A2994 TEMPO 22008KT=
202004112300 METAR MROC 112300Z 21009KT 180V250 9999 FEW030TCU 28/21 A2996 NOSIG=
202004120000 METAR MROC 120000Z 21006KT 190V250 9999 FEW040 25/21 A2998 NOSIG=
202004120100 METAR MROC 120100Z 21005KT 160V290 9999 FEW030 25/18 A3000 NOSIG=
202004120200 METAR MROC 120200Z 06006KT 010V110 CAVOK 24/20 A3002 NOSIG=
202004120300 METAR MROC 120300Z 10008KT CAVOK 24/17 A3004 NOSIG=
202004120400 METAR MROC 120400Z 08004KT CAVOK 23/17 A3005 NOSIG=
202004120500 METAR MROC 120500Z 10005KT 070V130 CAVOK 23/17 A3005 NOSIG=
202004120600 METAR MROC 120600Z 11008KT CAVOK 23/17 A3002 NOSIG=
202004120700 METAR MROC 120700Z 09006KT 050V120 CAVOK 22/17 A3001 NOSIG=
202004120800 METAR MROC 120800Z 07008KT CAVOK 22/16 A3000 NOSIG=
202004120900 METAR MROC 120900Z 08010KT CAVOK 22/16 A2998 NOSIG=
202004121000 METAR MROC 121000Z 09009KT CAVOK 22/16 A3001 NOSIG=
202004121100 METAR MROC 121100Z 08007KT CAVOK 21/17 A3004 NOSIG=
202004121200 METAR MROC 121200Z 05009KT CAVOK 22/17 A3005 NOSIG=
202004121300 METAR MROC 121300Z 05006KT 020V100 CAVOK 24/16 A3007 NOSIG=
202004121400 METAR MROC 121400Z 11009KT 080V140 CAVOK 27/16 A3008 NOSIG=
202004121500 METAR MROC 121500Z 13008KT 090V190 CAVOK 28/16 A3009 NOSIG=
202004121600 METAR MROC 121600Z 24005G18KT CAVOK 31/15 A3007 NOSIG=
202004121700 METAR MROC 121700Z 25009KT 220V280 9999 SCT045 BKN200 30/18 A3006 NOSIG=
202004121800 METAR MROC 121800Z 24010KT 9999 BKN045 SCT200 28/19 A3005 NOSIG=
202004121900 METAR MROC 121900Z 24009KT 190V280 9999 BKN045 SCT200 29/19 A3002 NOSIG=
202004122000 METAR MROC 122000Z 25007KT 210V300 9999 SCT045 BKN200 29/19 A3000 NOSIG=
202004122100 METAR MROC 122100Z 25014KT 9999 FEW035 BKN045 27/20 A2999 NOSIG=
202004122200 METAR MROC 122200Z 27009KT 1000 RA BR FEW010 SCT025 BKN035 24/20 A3000 BECMG 5000=
202004122300 METAR MROC 122300Z 26007KT 9999 1500SW FEW005 SCT025 BKN045 22/21 A3003 RETSRA NOSIG=
202004130000 METAR MROC 130000Z 31003KT 200V340 9999 FEW010 SCT035 BKN100 22/21 A3006 NOSIG=
202004130100 METAR MROC 130100Z 16003KT 9999 FEW035 SCT100 22/21 A3007 NOSIG=
202004130200 METAR MROC 130200Z 00000KT 9999 FEW010 SCT035 BKN100 22/21 A3009 NOSIG=
202004130300 METAR MROC 130300Z 00000KT 9999 FEW010 SCT035 BKN100 22/21 A3013 NOSIG=
202004130400 METAR MROC 130400Z 17001KT CAVOK 22/21 A3013 NOSIG=
202004130500 METAR MROC 130500Z 00000KT 9999 FEW010 BKN100 22/21 A3013 NOSIG=
202004130600 METAR MROC 130600Z 27003KT 220V300 9999 SCT005 BKN070 22/21 A3013 NOSIG=
202004130700 METAR MROC 130700Z VRB02KT 9999 FEW005 SCT030 BKN080 22/21 A3011 NOSIG=
202004130800 METAR MROC 130800Z 09001KT 9999 FEW025 BKN120 22/21 A3009 NOSIG=
202004130900 METAR MROC 130900Z 09003KT 9999 FEW025 BKN120 21/21 A3006 NOSIG=
202004131000 METAR MROC 131000Z 22003KT 9999 FEW030 BKN120 22/21 A3007 NOSIG=
202004131100 METAR MROC 131100Z 33003KT 9999 FEW030 SCT120 21/20 A3008 NOSIG=
202004131200 METAR MROC 131200Z 09005KT 9999 FEW020 BKN100 21/20 A3007 NOSIG=
202004131300 METAR MROC 131300Z 10010KT CAVOK 22/19 A3009 NOSIG=
202004131400 METAR MROC 131400Z 20005KT 120V240 CAVOK 25/21 A3010 NOSIG=
202004131500 METAR MROC 131500Z 23005KT 180V310 9999 FEW040 BKN200 27/20 A3009 NOSIG=
202004131600 METAR MROC 131600Z 26008KT 200V300 9999 FEW040 BKN200 28/19 A3008 NOSIG=
202004131700 METAR MROC 131700Z 25008KT 190V300 9999 SCT040 SCT200 29/20 A3007 NOSIG=
202004131800 METAR MROC 131800Z 24009KT 210V280 9999 SCT040 BKN100 28/21 A3005 NOSIG=
202004131900 METAR MROC 131900Z 22015KT 9999 FEW020 SCT035 BKN100 26/21 A3003 NOSIG=
202004132000 METAR MROC 132000Z 05010KT 020V080 1000 TSRA FEW010 SCT015CB BKN025 21/20 A3004 NOSIG=
202004132100 METAR MROC 132100Z 12004KT 4000 1500SW -RA BR FEW010 BKN030 21/20 A3003 NOSIG=
202004132200 METAR MROC 132200Z VRB01KT 9999 2500SW BCFG FEW007 SCT030 BKN060 21/21 A3002 NOSIG=
202004132300 METAR MROC 132300Z VRB02KT 9999 FEW010 BKN030 22/21 A3004 NOSIG=
202004140000 METAR MROC 140000Z VRB02KT 9999 SCT015 BKN060 23/21 A3005 NOSIG=
202004140100 METAR MROC 140100Z VRB01KT 9999 FEW015 SCT030 BKN060 22/21 A3007 NOSIG=
202004140200 METAR MROC 140200Z COR VRB02KT 6000 1000W BCFG FEW002 SCT010 BKN060 22/21 A3009 NOSIG=
202004140300 METAR MROC 140300Z VRB01KT 9999 2000W BCFG FEW005 SCT035 22/21 A3010 NOSIG=
202004140400 METAR MROC 140400Z VRB01KT 9999 4500SW BCFG FEW001 BKN100 22/21 A3010 TEMPO 5000 BR=
202004140500 METAR MROC 140500Z VRB02KT 9999 BCFG FEW001 SCT100 22/21 A3011 NOSIG=
202004140600 METAR MROC 140600Z 07005KT 9999 -DZ SCT100 22/20 A3008 NOSIG=
202004140700 METAR MROC 140700Z 04007KT 9999 FEW025 SCT100 22/20 A3007 NOSIG=
202004140800 METAR MROC 140800Z 09007KT 9999 FEW030 SCT100 22/19 A3003 NOSIG=
202004140900 METAR MROC 140900Z 05003KT 310V100 9999 FEW020 SCT120 22/19 A3001 NOSIG=
202004141000 METAR MROC 141000Z 28003KT 220V310 9999 FEW035 BKN100 21/20 A3005 NOSIG=
202004141100 METAR MROC 141100Z 31003KT 280V340 5000 BR SCT003 BKN010 21/20 A3006 NOSIG=
202004141200 METAR MROC 141200Z VRB02KT 8000 VCFG FEW001 SCT030 SCT100 21/20 A3007 NOSIG=
202004141300 METAR MROC 141300Z 34003KT 9999 FEW045 SCT090 BKN250 23/20 A3008 NOSIG=
202004141400 METAR MROC 141400Z 10008KT 070V130 9999 FEW045 SCT200 27/19 A3009 NOSIG=
202004141500 METAR MROC 141500Z 09013KT 060V120 9999 FEW045 28/18 A3008 NOSIG=
202004141600 METAR MROC 141600Z 10011KT 070V130 9999 FEW045 SCT080 28/17 A3007 NOSIG=
202004141700 METAR MROC 141700Z 08012KT 040V110 9999 FEW045 30/16 A3006 NOSIG=
202004141800 METAR MROC 141800Z 08013KT 9999 FEW045 30/16 A3004 NOSIG=
202004141900 METAR MROC 141900Z 09008KT 050V170 9999 FEW045 31/15 A3000 NOSIG=
202004142000 METAR MROC 142000Z 09008KT 060V130 9999 FEW045 SCT100 31/17 A2997 NOSIG=
202004142100 METAR MROC 142100Z 10011KT 9999 VCSH FEW020TCU SCT040 SCT100 29/17 A2996 NOSIG=
202004142200 METAR MROC 142200Z 08010KT 9999 FEW040 SCT100 29/17 A2996 NOSIG=
202004142300 METAR MROC 142300Z 11008KT 9999 FEW035 SCT100 28/17 A2997 NOSIG=
202004150000 METAR MROC 150000Z 14006KT 100V200 9999 FEW040 SCT100 26/18 A2999 NOSIG=
202004150100 METAR MROC 150100Z 11007KT 8000 BCFG FEW040 24/18 A3002 NOSIG=
202004150200 METAR MROC 150200Z 11005KT 9999 FEW045 23/19 A3004 NOSIG=
202004150300 METAR MROC 150300Z VRB02KT 9999 FEW040 23/18 A3007 NOSIG=
202004150400 METAR MROC 150400Z 32003KT 280V010 CAVOK 22/21 A3007 NOSIG=
202004150500 METAR MROC 150500Z 08004KT CAVOK 22/19 A3005 NOSIG=
202004150600 METAR MROC 150600Z 06010KT CAVOK 23/18 A3003 NOSIG=
202004150700 METAR MROC 150700Z 08004KT 050V110 CAVOK 22/18 A3000 NOSIG=
202004150800 METAR MROC 150800Z 11007KT 090V150 CAVOK 22/17 A3000 NOSIG=
202004150900 METAR MROC 150900Z 04004KT CAVOK 21/17 A3000 NOSIG=
202004151000 METAR MROC 151000Z 06007KT CAVOK 20/17 A3000 NOSIG=
202004151100 METAR MROC 151100Z 06005KT CAVOK 21/17 A3001 NOSIG=
202004151200 METAR MROC 151200Z 05006KT 9999 FEW040 20/17 A3002 NOSIG=
202004151300 METAR MROC 151300Z 06006KT CAVOK 23/18 A3004 NOSIG=
202004151400 METAR MROC 151400Z 01004KT 280V070 CAVOK 26/18 A3006 NOSIG=
202004151500 METAR MROC 151500Z 10009KT 060V180 CAVOK 28/19 A3005 NOSIG=
202004151600 METAR MROC 151600Z 13008KT CAVOK 28/19 A3004 NOSIG=
202004151700 METAR MROC 151700Z 14005KT 9999 FEW040 SCT080 28/18 A3005 NOSIG=
202004151800 METAR MROC 151800Z 17005KT 9999 FEW040 SCT070 29/19 A3002 NOSIG=
202004151900 METAR MROC 151900Z 23010KT 9999 BKN045 28/20 A2998 NOSIG=
202004152000 METAR MROC 152000Z 31007KT 9999 VCSH FEW020TCU SCT040 26/20 A2996 NOSIG=
202004152100 METAR MROC 152100Z 20007KT 150V250 9999 4500SW RA BCFG FEW007 SCT030 BKN035 25/21 A2996 NOSIG=
202004152200 METAR MROC 152200Z 26008KT 9999 FEW007 BKN040 25/21 A2996 RERA NOSIG=
202004152300 METAR MROC 152300Z 27008KT 9999 FEW010 BKN040 24/21 A2996 NOSIG=
202004160000 METAR MROC 160000Z 21004KT 140V270 9999 FEW010 BKN040 24/18 A2999 NOSIG=
202004160100 METAR MROC 160100Z 32005KT 280V350 9999 SCT030 23/21 A3001 NOSIG=
202004160200 METAR MROC 160200Z 31004KT 280V340 9999 BKN030 22/20 A3003 NOSIG=
202004160300 METAR MROC 160300Z 33003KT 9999 BKN025 22/20 A3005 NOSIG=
202004160400 METAR MROC 160400Z 03003KT 9999 -DZ BKN025 22/20 A3007 NOSIG=
202004160500 METAR MROC 160500Z VRB02KT 9999 FEW025 22/19 A3005 NOSIG=
202004160600 METAR MROC 160600Z 01005KT 340V040 9999 -DZ BKN020 21/19 A3003 NOSIG=
202004160700 METAR MROC 160700Z 00000KT 9999 SCT030 21/19 A3002 NOSIG=
202004160800 METAR MROC 160800Z 06003KT 9999 SCT035 22/19 A3001 NOSIG=
202004160900 METAR MROC 160900Z 20003KT 100V250 9999 SCT035 21/19 A3001 NOSIG=
202004161000 METAR MROC 161000Z 35003KT 300V010 9999 SCT045 21/19 A3002 NOSIG=
202004161100 METAR MROC 161100Z 08006KT 9999 FEW035 BKN080 22/18 A3004 NOSIG=
202004161200 METAR MROC 161200Z 11006KT 060V150 9999 FEW035 SCT200 22/18 A3005 NOSIG=
202004161300 METAR MROC 161300Z 11011KT 9999 FEW045 BKN200 24/17 A3007 NOSIG=
202004161400 METAR MROC 161400Z 12011KT 090V150 CAVOK 25/17 A3009 NOSIG=
202004161500 METAR MROC 161500Z 10011KT 070V130 9999 FEW045 BKN200 28/15 A3009 NOSIG=
202004161600 METAR MROC 161600Z 08012KT 050V110 9999 FEW045 BKN200 28/16 A3010 NOSIG=
202004161700 METAR MROC 161700Z 07012G22KT 050V120 9999 FEW040 SCT200 29/16 A3008 NOSIG=
202004161800 METAR MROC 161800Z 08013KT 050V120 9999 FEW045 30/15 A3004 NOSIG=
202004161900 METAR MROC 161900Z 08011KT 9999 FEW045 31/16 A3000 NOSIG=
202004162000 METAR MROC 162000Z 07011G21KT 9999 FEW040 30/15 A2998 NOSIG=
202004162100 METAR MROC 162100Z 09012KT 060V120 9999 FEW045 30/16 A2998 NOSIG=
202004162200 METAR MROC 162200Z 08013KT 050V110 9999 FEW045 29/14 A2997 NOSIG=
202004162300 METAR MROC 162300Z 08010KT 9999 FEW045 28/14 A2999 NOSIG=
202004170000 METAR MROC 170000Z 10008KT 070V130 9999 FEW045 25/16 A3001 NOSIG=
202004170100 METAR MROC 170100Z 10008KT 070V130 CAVOK 24/15 A3003 NOSIG=
202004170200 METAR MROC 170200Z 09008KT 050V110 CAVOK 23/14 A3006 NOSIG=
202004170300 METAR MROC 170300Z 10011KT 060V130 CAVOK 22/16 A3007 NOSIG=
202004170400 METAR MROC 170400Z 12007KT 090V160 CAVOK 22/15 A3009 NOSIG=
202004170500 METAR MROC 170500Z 04003KT CAVOK 21/14 A3009 NOSIG=
202004170600 METAR MROC 170600Z 08007KT CAVOK 21/15 A3008 NOSIG=
202004170700 METAR MROC 170700Z 04007KT CAVOK 20/14 A3006 NOSIG=
202004170800 METAR MROC 170800Z 05007KT 030V100 CAVOK 20/15 A3004 NOSIG=
202004170900 METAR MROC 170900Z 10009KT CAVOK 21/15 A3004 NOSIG=
202004171000 METAR MROC 171000Z 10011KT CAVOK 21/15 A3005 NOSIG=
202004171100 METAR MROC 171100Z 10011KT CAVOK 20/14 A3005 NOSIG=
202004171200 METAR MROC 171200Z 11012KT CAVOK 21/14 A3006 NOSIG=
202004171300 METAR MROC 171300Z 11011KT CAVOK 23/15 A3008 NOSIG=
202004171400 METAR MROC 171400Z 12013KT CAVOK 25/14 A3010 NOSIG=
202004171500 METAR MROC 171500Z 10013KT 070V130 CAVOK 27/13 A3010 NOSIG=
202004171600 METAR MROC 171600Z 10014KT 080V140 CAVOK 28/14 A3009 NOSIG=
202004171700 METAR MROC 171700Z 11013KT 080V140 CAVOK 29/14 A3008 NOSIG=
202004171800 METAR MROC 171800Z 10013KT 070V140 CAVOK 29/15 A3007 NOSIG=
202004171900 METAR MROC 171900Z 10011G22KT 070V160 CAVOK 30/15 A3004 NOSIG=
202004172000 METAR MROC 172000Z 13010KT 100V180 CAVOK 30/16 A3001 NOSIG=
202004172100 METAR MROC 172100Z 10011KT 060V140 9999 FEW035 SCT070 29/16 A3000 NOSIG=
202004172200 METAR MROC 172200Z 09008KT 050V110 9999 FEW035TCU 29/17 A3000 NOSIG=
202004172300 METAR MROC 172300Z 10009KT 9999 FEW035 26/17 A3002 NOSIG=
202004180000 METAR MROC 180000Z 09010KT 9999 FEW035 25/16 A3003 NOSIG=
202004180100 METAR MROC 180100Z 11008KT 9999 FEW035 23/17 A3006 NOSIG=
202004180200 METAR MROC 180200Z 11008KT 070V140 9999 FEW035 22/17 A3007 NOSIG=
202004180300 METAR MROC 180300Z 11006KT 080V140 9999 FEW035 22/16 A3009 NOSIG=
202004180400 METAR MROC 180400Z 08006KT CAVOK 21/17 A3010 NOSIG=
202004180500 METAR MROC 180500Z 11008KT CAVOK 21/15 A3010 NOSIG=
202004180600 METAR MROC 180600Z 11011KT CAVOK 21/15 A3008 NOSIG=
202004180700 METAR MROC 180700Z 11014G24KT CAVOK 21/16 A3007 NOSIG=
202004180800 METAR MROC 180800Z 11012KT CAVOK 21/15 A3006 NOSIG=
202004180900 METAR MROC 180900Z 12009KT CAVOK 21/15 A3005 NOSIG=
202004181000 METAR MROC 181000Z 04006KT CAVOK 21/16 A3007 NOSIG=
202004181100 METAR MROC 181100Z 08007KT CAVOK 20/15 A3008 NOSIG=
202004181200 METAR MROC 181200Z 09008KT CAVOK 21/15 A3008 NOSIG=
202004181300 METAR MROC 181300Z 08013KT 050V110 CAVOK 23/16 A3010 NOSIG=
202004181400 METAR MROC 181400Z 09014KT 060V120 CAVOK 25/15 A3011 NOSIG=
202004181500 METAR MROC 181500Z 11010G20KT 080V140 CAVOK 26/15 A3011 NOSIG=
202004181600 METAR MROC 181600Z 11012G22KT 080V160 CAVOK 28/13 A3009 NOSIG=
202004181700 METAR MROC 181700Z 12010G20KT 080V160 CAVOK 29/14 A3008 NOSIG=
202004181800 METAR MROC 181800Z 14013KT 070V170 CAVOK 30/14 A3005 NOSIG=
202004181900 METAR MROC 181900Z 17006KT 100V250 CAVOK 30/13 A3002 TEMPO 25008KT=
202004182000 METAR MROC 182000Z 23008KT 100V280 CAVOK 30/17 A2999 NOSIG=
202004182100 METAR MROC 182100Z 24011KT 210V270 9999 FEW035 SCT080 29/18 A2998 NOSIG=
202004182200 METAR MROC 182200Z 22010KT 190V260 9999 FEW045 BKN080 28/18 A2998 NOSIG=
202004182300 METAR MROC 182300Z 22008KT 180V240 9999 FEW045 SCT080 27/19 A2999 NOSIG=
202004190000 METAR MROC 190000Z 17004KT 080V210 9999 SCT045 25/17 A3002 NOSIG=
202004190100 METAR MROC 190100Z 18005KT 140V220 CAVOK 24/17 A3003 NOSIG=
202004190200 METAR MROC 190200Z 14005KT 100V170 CAVOK 23/18 A3005 NOSIG=
202004190300 METAR MROC 190300Z 08006KT 050V110 CAVOK 23/18 A3008 NOSIG=
202004190400 METAR MROC 190400Z VRB02KT CAVOK 22/19 A3009 NOSIG=
202004190500 METAR MROC 190500Z 09005KT 9999 FEW040 21/18 A3010 NOSIG=
202004190600 METAR MROC 190600Z 08005KT 9999 FEW035 21/18 A3007 NOSIG=
202004190700 METAR MROC 190700Z 10005KT 9999 FEW045 21/17 A3006 NOSIG=
202004190800 METAR MROC 190800Z 08007KT CAVOK 21/17 A3004 NOSIG=
202004190900 METAR MROC 190900Z 07007KT CAVOK 20/17 A3003 NOSIG=
202004191000 METAR MROC 191000Z 06007KT CAVOK 20/16 A3003 NOSIG=
202004191100 METAR MROC 191100Z 07005KT CAVOK 19/16 A3004 NOSIG=
202004191200 METAR MROC 191200Z 07005KT 9999 FEW048 20/16 A3006 NOSIG=
202004191300 METAR MROC 191300Z 08008KT 050V110 9999 FEW045 23/16 A3008 NOSIG=
202004191400 METAR MROC 191400Z 11010KT 9999 FEW045 25/15 A3008 NOSIG=
202004191500 METAR MROC 191500Z 11008KT 080V140 9999 FEW045 28/15 A3009 NOSIG=
202004191600 METAR MROC 191600Z 24006KT 190V290 9999 FEW045 28/18 A3008 NOSIG=
202004191700 METAR MROC 191700Z 26005KT 220V320 9999 SCT040 29/17 A3007 NOSIG=
202004191800 METAR MROC 191800Z 22011KT 190V260 9999 SCT040 29/19 A3004 NOSIG=
202004191900 METAR MROC 191900Z 22012KT 9999 SCT040 28/20 A3001 NOSIG=
202004192000 METAR MROC 192000Z 23012KT 200V260 9999 -RA FEW020TCU SCT040 28/20 A2998 NOSIG=
202004192100 METAR MROC 192100Z 08007KT 020V140 2000 SHRA SCT020CB BKN030 22/20 A2998 TEMPO TSRA=
202004192200 METAR MROC 192200Z 06005KT 9999 -RA FEW020 BKN025 22/21 A2998 NOSIG=
202004192300 METAR MROC 192300Z 36003KT 9999 FEW020 BKN030 22/21 A2999 NOSIG=
202004200000 METAR MROC 200000Z VRB02KT 9999 4000S RA BKN020 21/21 A3001 NOSIG=
202004200100 METAR MROC 200100Z 01003KT 340V090 9999 -RA BKN020 21/21 A3003 NOSIG=
202004200200 METAR MROC 200200Z VRB02KT 9999 -RA BKN020 21/21 A3004 NOSIG=
202004200300 METAR MROC 200300Z VRB02KT 9999 BCFG FEW015 BKN035 21/21 A3006 NOSIG=
202004200400 METAR MROC 200400Z VRB02KT 9999 BCFG FEW015 SCT035 22/21 A3007 NOSIG=
202004200500 METAR MROC 200500Z 00000KT 9999 BCFG FEW015 21/21 A3006 NOSIG=
202004200600 METAR MROC 200600Z VRB02KT 8000 3000SW VCFG SCT010 BKN025 21/21 A3005 NOSIG=
202004200700 METAR MROC 200700Z 09003KT 9999 BCFG FEW010 BKN025 21/21 A3003 NOSIG=
202004200800 METAR MROC 200800Z 00000KT 9999 BCFG FEW005 SCT010 BKN025 21/21 A3002 NOSIG=
202004200900 METAR MROC 200900Z 00000KT 9999 3000SW BCFG SCT010 BKN025 21/21 A3001 NOSIG=
202004201000 METAR MROC 201000Z VRB02KT 9999 FEW010 SCT030 20/20 A3001 NOSIG=
202004201100 METAR MROC 201100Z 07005KT CAVOK 20/19 A3002 NOSIG=
202004201200 METAR MROC 201200Z 06007KT CAVOK 20/18 A3004 NOSIG=
202004201300 METAR MROC 201300Z 07006KT CAVOK 22/19 A3006 NOSIG=
202004201400 METAR MROC 201400Z 10003KT 040V160 CAVOK 25/19 A3008 BECMG 25005KT=
202004201500 METAR MROC 201500Z VRB02KT 9999 FEW045 27/18 A3008 NOSIG=
202004201600 METAR MROC 201600Z 26004KT 9999 FEW045 28/19 A3007 NOSIG=
202004201700 METAR MROC 201700Z 27006KT 230V320 9999 FEW045 28/17 A3007 NOSIG=
202004201800 METAR MROC 201800Z 25007KT 210V280 9999 FEW040 29/17 A3005 NOSIG=
202004201900 METAR MROC 201900Z 26012KT 230V290 9999 SCT040 30/19 A3001 NOSIG=
202004202000 METAR MROC 202000Z 24014KT 9999 SCT040 30/20 A2997 NOSIG=
202004202100 METAR MROC 202100Z 25007KT 9999 SHRA VCTS FEW020CB SCT035 27/19 A2999 NOSIG=
202004202200 METAR MROC 202200Z 10008KT 9999 RA BKN035 24/19 A2998 RESHRA NOSIG=
202004202300 METAR MROC 202300Z 09009KT 9999 FEW015 SCT035 24/19 A2998 RERA NOSIG=
202004210000 METAR MROC 210000Z 09006KT 9999 FEW030 SCT045 24/19 A3000 NOSIG=
202004210100 METAR MROC 210100Z 08003KT 060V120 9999 SCT035 23/19 A3003 NOSIG=
202004210200 METAR MROC 210200Z 11002KT 9999 FEW010 23/20 A3005 NOSIG=
202004210300 METAR MROC 210300Z 11002KT 9999 FEW005 22/19 A3007 NOSIG=
202004210400 METAR MROC 210400Z VRB02KT 9999 FEW005 SCT020 22/20 A3008 NOSIG=
202004210500 METAR MROC 210500Z 07006KT 9999 FEW005 SCT015 21/18 A3007 NOSIG=
202004210600 METAR MROC 210600Z 08004KT CAVOK 21/18 A3004 NOSIG=
202004210700 METAR MROC 210700Z 09004KT CAVOK 20/17 A3003 NOSIG=
202004210800 METAR MROC 210800Z 04004KT 010V080 9999 FEW005 20/17 A3002 NOSIG=
202004210900 METAR MROC 210900Z 08004KT 9999 FEW005 BKN030 20/17 A3002 NOSIG=
202004211000 METAR MROC 211000Z 10005KT 9999 SCT015 19/17 A3003 NOSIG=
202004211100 METAR MROC 211100Z 06008KT CAVOK 20/17 A3004 NOSIG=
202004211200 METAR MROC 211200Z 07006KT CAVOK 20/17 A3004 NOSIG=
202004211300 METAR MROC 211300Z VRB02KT CAVOK 23/18 A3005 NOSIG=
202004211400 METAR MROC 211400Z 17003KT 110V220 CAVOK 25/18 A3007 BECMG 24006KT=
202004211500 METAR MROC 211500Z 25007KT 210V280 9999 FEW025 25/19 A3008 NOSIG=
202004211600 METAR MROC 211600Z 24006KT 200V270 9999 FEW030 27/19 A3009 NOSIG=
202004211700 METAR MROC 211700Z 26009KT 220V310 9999 SCT030 27/20 A3008 NOSIG=
202004211800 METAR MROC 211800Z 25011KT 9999 SCT030 28/20 A3006 NOSIG=
202004211900 METAR MROC 211900Z 23011KT 200V280 9999 FEW025TCU SCT030 28/20 A3003 NOSIG=
202004212000 METAR MROC 212000Z COR 25012KT 210V270 9999 TS SCT020CB BKN070 27/21 A3000 BECMG 5000 TSRA=
202004212100 METAR MROC 212100Z 01010KT 310V050 9999 -RA VCTS SCT015 FEW018TCU BKN050 24/21 A3000 RETSRA NOSIG=
202004212200 METAR MROC 212200Z 21006KT 9999 4500SW RA VCTS FEW002 FEW030CB SCT120 23/20 A3000 NOSIG=
202004212300 METAR MROC 212300Z 17003KT 130V200 9999 FEW008 SCT025 24/21 A3000 RERA NOSIG=
202004220000 METAR MROC 220000Z VRB02KT 9999 FEW002 SCT045 24/21 A3003 NOSIG=
202004220100 METAR MROC 220100Z 27003KT 230V300 9999 FEW002 SCT045 23/21 A3005 NOSIG=
202004220200 METAR MROC 220200Z 24005KT 9999 FEW002 BKN025 23/22 A3006 NOSIG=
202004220300 METAR MROC 220300Z 25003KT 220V280 9999 FEW004 BKN020 22/22 A3008 TEMPO 5000 BR=
202004220400 METAR MROC 220400Z VRB02KT 9999 SCT005 22/21 A3008 NOSIG=
202004220500 METAR MROC 220500Z 21003KT 170V230 9999 SCT005 22/19 A3007 NOSIG=
202004220600 METAR MROC 220600Z 00000KT 9999 VCFG BKN005 21/20 A3006 NOSIG=
202004220700 METAR MROC 220700Z VRB02KT 9999 VCFG SCT005 21/21 A3004 NOSIG=
202004220800 METAR MROC 220800Z 07003KT 9999 SCT005 20/20 A3003 NOSIG=
202004220900 METAR MROC 220900Z VRB01KT 9999 FEW007 20/20 A3002 NOSIG=
202004221000 METAR MROC 221000Z 04005KT 9999 VCFG SCT006 BKN008 20/20 A3003 NOSIG=
202004221100 METAR MROC 221100Z 04003KT 9999 4000W VCFG BKN008 20/20 A3005 NOSIG=
202004221200 METAR MROC 221200Z 05003KT 9999 4000SW VCFG FEW007 20/20 A3007 NOSIG=
202004221300 METAR MROC 221300Z 08003KT 9999 4000W VCFG FEW007 21/21 A3009 NOSIG=
202004221400 METAR MROC 221400Z VRB03KT 9999 VCFG FEW040 SCT200 24/19 A3009 NOSIG=
202004221500 METAR MROC 221500Z 03005KT 9999 FEW045 BKN250 27/17 A3008 NOSIG=
202004221600 METAR MROC 221600Z 10012KT 070V130 9999 FEW045 BKN250 29/16 A3008 NOSIG=
202004221700 METAR MROC 221700Z 09014KT 060V120 9999 FEW045 BKN250 29/15 A3005 NOSIG=
202004221800 METAR MROC 221800Z 11009KT 080V150 9999 FEW035 BKN250 30/16 A3003 NOSIG=
202004221900 METAR MROC 221900Z 12008KT 070V160 9999 FEW035 BKN250 30/16 A3000 NOSIG=
202004222000 METAR MROC 222000Z 10009KT 040V150 9999 FEW035 BKN250 31/15 A2998 NOSIG=
202004222100 METAR MROC 222100Z 20010G20KT 200V290 9999 SCT040 BKN200 28/20 A2996 NOSIG=
202004222200 METAR MROC 222200Z 24011KT 9999 FEW040 BKN200 27/21 A2996 NOSIG=
202004222300 METAR MROC 222300Z 24010KT 9999 FEW040 BKN200 26/21 A2997 NOSIG=
202004230000 METAR MROC 230000Z 25008KT 9999 FEW015 SCT040 BKN200 24/21 A3000 NOSIG=
202004230100 METAR MROC 230100Z 24006KT 9999 FEW015 23/21 A3001 NOSIG=
202004230200 METAR MROC 230200Z 25005KT 9999 FEW010 SCT030 22/22 A3004 NOSIG=
202004230300 METAR MROC 230300Z 01003KT 9999 FEW010 23/23 A3005 NOSIG=
202004230400 METAR MROC 230400Z 08006KT CAVOK 22/18 A3006 NOSIG=
202004230500 METAR MROC 230500Z 06005KT 030V090 CAVOK 22/17 A3005 NOSIG=
202004230600 METAR MROC 230600Z 10008KT CAVOK 21/17 A3003 NOSIG=
202004230700 METAR MROC 230700Z 07009KT CAVOK 21/15 A3002 NOSIG=
202004230800 METAR MROC 230800Z 05005KT CAVOK 21/14 A3000 NOSIG=
202004230900 METAR MROC 230900Z 06010KT CAVOK 20/12 A2999 NOSIG=
202004231000 METAR MROC 231000Z 06008KT CAVOK 20/12 A3000 NOSIG=
202004231100 METAR MROC 231100Z 08008KT CAVOK 19/12 A3001 NOSIG=
202004231200 METAR MROC 231200Z 08006KT CAVOK 20/13 A3002 NOSIG=
202004231300 METAR MROC 231300Z 11006KT CAVOK 24/15 A3004 NOSIG=
202004231400 METAR MROC 231400Z 10012KT 060V150 CAVOK 26/16 A3005 NOSIG=
202004231500 METAR MROC 231500Z 13009KT 070V170 CAVOK 27/16 A3006 NOSIG=
202004231600 METAR MROC 231600Z 20006KT 110V260 9999 FEW045 BKN200 28/17 A3006 NOSIG=
202004231700 METAR MROC 231700Z 24010KT 190V280 9999 FEW045 BKN200 28/19 A3005 NOSIG=
202004231800 METAR MROC 231800Z 23013KT 210V280 9999 SCT040 SCT200 28/19 A3003 NOSIG=
202004231900 METAR MROC 231900Z 25013KT 9999 FEW025 SCT040 BKN100 27/22 A3000 NOSIG=
202004232000 METAR MROC 232000Z 24011KT 9999 FEW025 SCT040 BKN100 26/21 A2998 NOSIG=
202004232100 METAR MROC 232100Z 23011KT 9999 VCSH SCT015TCU BKN080 24/21 A2998 NOSIG=
202004232200 METAR MROC 232200Z 26009KT 9999 BCFG SCT020 BKN060 22/20 A2998 NOSIG=
202004232300 METAR MROC 232300Z 31006KT 240V330 9999 BCFG FEW003 BKN020 22/20 A2999 NOSIG=
202004240000 METAR MROC 240000Z 30003KT 240V340 9999 BCFG FEW003 OVC040 22/20 A3001 NOSIG=
202004240100 METAR MROC 240100Z 31003KT 9999 BKN030 23/19 A3003 NOSIG=
202004240200 METAR MROC 240200Z 29004KT 9999 FEW003 BKN030 23/20 A3005 NOSIG=
202004240300 METAR MROC 240300Z VRB01KT 9999 SCT030 23/20 A3006 NOSIG=
202004240400 METAR MROC 240400Z 17002KT 9999 FEW005 SCT030 22/20 A3005 NOSIG=
202004240500 METAR MROC 240500Z VRB01KT 9999 FEW012 BKN040 22/20 A3006 NOSIG=
202004240600 METAR MROC 240600Z 34003KT 300V010 9999 FEW040 SCT130 23/20 A3003 TEMPO BCFG=
202004240700 METAR MROC 240700Z 07004KT CAVOK 22/20 A3000 NOSIG=
202004240800 METAR MROC 240800Z 28004KT CAVOK 22/20 A2998 NOSIG=
202004240900 METAR MROC 240900Z VRB02KT 9999 FEW001 SCT120 21/21 A2998 TEMPO BCFG=
202004241000 METAR MROC 241000Z 16002KT 9999 FEW002 BKN100 21/21 A3000 NOSIG=
202004241100 METAR MROC 241100Z 08003KT 9999 FEW002 BKN100 21/21 A3000 NOSIG=
202004241200 METAR MROC 241200Z 07007KT 9999 FEW045 BKN060 23/18 A3001 NOSIG=
202004241300 METAR MROC 241300Z 10005KT 9999 FEW045 SCT070 BKN090 24/17 A3004 NOSIG=
202004241400 METAR MROC 241400Z VRB04KT CAVOK 26/20 A3005 NOSIG=
202004241500 METAR MROC 241500Z 25007KT 200V270 CAVOK 25/20 A3006 NOSIG=
202004241600 METAR MROC 241600Z 24009KT 220V280 9999 FEW030 26/20 A3006 NOSIG=
202004241700 METAR MROC 241700Z 25010KT 210V290 9999 SCT020 27/21 A3005 NOSIG=
202004241800 METAR MROC 241800Z 25011KT 9999 SCT020TCU 27/21 A3004 NOSIG=
202004241900 METAR MROC 241900Z 25010KT 220V280 9999 SCT020TCU BKN045 28/21 A3000 NOSIG=
202004242000 METAR MROC 242000Z 25015KT 8000 -RA VCTS FEW020CB SCT035 OVC050 25/21 A2997 NOSIG=
202004242013 METAR MROC 242013Z 25009KT 3000 1000SW TSRA FEW015CB BKN015 OVC030 24/22 A2998 NOSIG=
202004242100 METAR MROC 242100Z 22005KT 130V270 4000 TSRA FEW002 BKN010CB 22/22 A2997 TEMPO 5000=
202004242200 METAR MROC 242200Z VRB02KT 5000 -RA BCFG BKN003 22/22 A2997 NOSIG=
202004242300 METAR MROC 242300Z 18004KT 9000 -RA BCFG FEW006 BKN008 22/22 A2998 NOSIG=
202004250000 METAR MROC 250000Z 21003KT 9000 VCFG SCT005 SCT020 BKN100 22/22 A3001 NOSIG=
202004250100 METAR MROC 250100Z 04004KT 9000 VCFG FEW005 SCT020 BKN100 22/22 A3002 NOSIG=
202004250200 METAR MROC 250200Z 06006KT CAVOK 22/22 A3002 NOSIG=
202004250300 METAR MROC 250300Z 03003KT CAVOK 21/17 A3003 NOSIG=
202004250400 METAR MROC 250400Z 04007KT 020V090 CAVOK 22/17 A3004 NOSIG=
202004250500 METAR MROC 250500Z 05007KT CAVOK 21/16 A3001 NOSIG=
202004250600 METAR MROC 250600Z 05003KT 020V080 CAVOK 21/16 A2999 NOSIG=
202004250700 METAR MROC 250700Z 00000KT CAVOK 20/16 A2999 NOSIG=
202004250800 METAR MROC 250800Z 00000KT CAVOK 20/17 A2997 NOSIG=
202004250900 METAR MROC 250900Z 03003KT CAVOK 19/17 A2996 NOSIG=
202004251000 METAR MROC 251000Z 36003KT 320V050 9999 4500SW FEW015 19/17 A2999 NOSIG=
202004251100 METAR MROC 251100Z VRB02KT 9999 FEW015 19/19 A3002 NOSIG=
202004251200 METAR MROC 251200Z 09005KT 9999 FEW040 BKN200 19/17 A3003 NOSIG=
202004251300 METAR MROC 251300Z 08004KT CAVOK 20/18 A3004 NOSIG=
202004251400 METAR MROC 251400Z VRB03KT CAVOK 24/17 A3006 NOSIG=
202004251500 METAR MROC 251500Z VRB02KT CAVOK 26/17 A3006 BECMG 25004KT=
202004251600 METAR MROC 251600Z 25007KT CAVOK 26/20 A3005 NOSIG=
202004251700 METAR MROC 251700Z 25007KT CAVOK 27/20 A3005 NOSIG=
202004251800 METAR MROC 251800Z 25006KT 200V290 CAVOK 28/21 A3003 NOSIG=
202004251900 METAR MROC 251900Z 25010KT CAVOK 27/20 A3001 NOSIG=
202004252000 METAR MROC 252000Z 25008KT 9999 FEW020TCU FEW045 28/20 A2998 NOSIG=
202004252100 METAR MROC 252100Z 24010KT 210V270 9999 4500SW DZ FEW030 BKN045 28/22 A2996 NOSIG=
202004252200 METAR MROC 252200Z 23010KT 9999 FEW040 26/22 A2996 REDZ NOSIG=
202004252300 METAR MROC 252300Z 25008KT 9999 SCT040 25/21 A2998 NOSIG=
202004260000 METAR MROC 260000Z 25006KT 9999 4500SW BCFG SCT013 BKN035 24/22 A3000 NOSIG=
202004260100 METAR MROC 260100Z 24003KT 9999 FEW008 SCT020 23/22 A3002 NOSIG=
202004260200 METAR MROC 260200Z 33002KT 9999 FEW004 SCT008 23/22 A3003 NOSIG=
202004260300 METAR MROC 260300Z 17004KT 100V240 9999 FEW008 22/22 A3005 NOSIG=
202004260400 METAR MROC 260400Z 04005KT 010V070 9999 FEW008 23/16 A3004 NOSIG=
202004260500 METAR MROC 260500Z 04005KT 350V080 9999 FEW005 23/17 A3003 NOSIG=
202004260600 METAR MROC 260600Z 11010KT 9999 FEW005 23/17 A3002 NOSIG=
202004260700 METAR MROC 260700Z 11007KT 080V140 9999 FEW005 22/17 A3001 NOSIG=
202004260800 METAR MROC 260800Z 11007KT 9999 FEW005 22/17 A3000 NOSIG=
202004260900 METAR MROC 260900Z 12009KT 090V150 9999 FEW020 22/17 A2999 NOSIG=
202004261000 METAR MROC 261000Z 10008KT 9999 FEW020 21/17 A3000 NOSIG=
202004261100 METAR MROC 261100Z 10012KT 9999 FEW035 22/17 A3001 NOSIG=
202004261200 METAR MROC 261200Z 10009KT 9999 FEW030 BKN250 22/17 A3003 NOSIG=
202004261300 METAR MROC 261300Z 11011KT CAVOK 23/13 A3006 NOSIG=
202004261400 METAR MROC 261400Z 11011KT 070V150 CAVOK 25/17 A3006 NOSIG=
202004261500 METAR MROC 261500Z 07018KT 9999 FEW045 27/15 A3006 NOSIG=
202004261600 METAR MROC 261600Z 07018KT CAVOK 28/15 A3005 NOSIG=
202004261700 METAR MROC 261700Z 07017KT 050V110 9999 FEW045 29/15 A3004 NOSIG=
202004261800 METAR MROC 261800Z 07016KT 9999 FEW045 29/16 A3002 NOSIG=
202004261900 METAR MROC 261900Z 00818G28KT 9999 FEW045 SCT200 27/15 A3001 NOSIG=
202004262000 METAR MROC 262000Z 06018KT CAVOK 30/13 A2997 NOSIG=
202004262100 METAR MROC 262100Z 06019KT 9999 FEW045 BKN200 29/15 A2996 NOSIG=
202004262200 METAR MROC 262200Z 06015KT 9999 FEW045 SCT200 29/15 A2995 NOSIG=
202004262300 METAR MROC 262300Z 08011KT 9999 FEW045 26/16 A2996 NOSIG=
202004270000 METAR MROC 270000Z 11009KT 9999 FEW040 SCT200 25/16 A2998 NOSIG=
202004270100 METAR MROC 270100Z 11009KT CAVOK 24/16 A3000 NOSIG=
202004270200 METAR MROC 270200Z 12006KT 090V150 CAVOK 23/17 A3002 NOSIG=
202004270300 METAR MROC 270300Z 12011KT 080V150 CAVOK 23/17 A3003 NOSIG=
202004270400 METAR MROC 270400Z 11008KT 9999 FEW045 22/16 A3005 NOSIG=
202004270500 METAR MROC 270500Z 09007KT 050V120 CAVOK 22/17 A3005 NOSIG=
202004270600 METAR MROC 270600Z 11011KT 080V140 CAVOK 22/16 A3004 NOSIG=
202004270700 METAR MROC 270700Z 08010KT 060V120 CAVOK 22/17 A3000 NOSIG=
202004270800 METAR MROC 270800Z 08008KT CAVOK 21/16 A3000 NOSIG=
202004270900 METAR MROC 270900Z 08007KT 060V120 CAVOK 21/16 A3000 NOSIG=
202004271000 METAR MROC 271000Z 11006KT 080V170 9999 FEW040 21/16 A3002 NOSIG=
202004271100 METAR MROC 271100Z 08005KT 9999 FEW040 20/16 A3003 NOSIG=
202004271200 METAR MROC 271200Z 08007KT 9999 FEW040 BKN140 22/16 A3004 NOSIG=
202004271300 METAR MROC 271300Z COR 12009KT 080V150 9999 FEW045 OVC180 22/16 A3007 NOSIG=
202004271400 METAR MROC 271400Z 09014KT 9999 SCT045 OVC180 22/17 A3008 NOSIG=
202004271500 METAR MROC 271500Z 10010KT 070V140 9999 SCT045 OVC180 24/18 A3008 NOSIG=
202004271600 METAR MROC 271600Z 12012KT 100V170 9999 SCT045 OVC200 25/17 A3007 NOSIG=
202004271700 METAR MROC 271700Z 10014KT 9999 SCT045 OVC200 26/18 A3006 NOSIG=
202004271800 METAR MROC 271800Z 10016KT 080V140 9999 FEW045 OVC200 26/17 A3004 NOSIG=
202004271900 METAR MROC 271900Z 09016KT 9999 FEW045 OVC200 26/17 A3002 NOSIG=
202004272000 METAR MROC 272000Z 09013G23KT 9999 FEW045 OVC200 27/17 A3000 NOSIG=
202004272100 METAR MROC 272100Z 11012G22KT 9999 FEW035 SCT100 BKN200 26/18 A3000 NOSIG=
202004272200 METAR MROC 272200Z 12011G21KT 9999 FEW030 SCT100 BKN200 25/18 A2999 NOSIG=
202004272300 METAR MROC 272300Z 10010G20KT 9999 FEW030 SCT080 BKN200 25/17 A3000 NOSIG=
202004280000 METAR MROC 280000Z 08010G20KT 9999 SCT035 BKN250 24/17 A3001 NOSIG=
202004280100 METAR MROC 280100Z 10014KT 070V130 9999 FEW035 SCT250 23/17 A3003 NOSIG=
202004280200 METAR MROC 280200Z 10012G22KT 070V130 9999 FEW035 23/18 A3004 NOSIG=
202004280300 METAR MROC 280300Z 10013KT 060V140 9999 FEW035 23/18 A3005 NOSIG=
202004280400 METAR MROC 280400Z 10010KT 070V130 CAVOK 23/18 A3006 NOSIG=
202004280500 METAR MROC 280500Z 09006KT 060V120 CAVOK 22/18 A3005 NOSIG=
202004280600 METAR MROC 280600Z 11012KT 080V140 9999 FEW040 22/18 A3004 NOSIG=
202004280700 METAR MROC 280700Z 05006KT 360V100 9999 FEW040 SCT120 22/18 A3002 NOSIG=
202004280800 METAR MROC 280800Z 09007KT 050V150 CAVOK 22/17 A3000 NOSIG=
202004280900 METAR MROC 280900Z 11007KT 080V160 CAVOK 22/18 A3000 NOSIG=
202004281000 METAR MROC 281000Z 10006KT 070V140 CAVOK 21/18 A3001 NOSIG=
202004281100 METAR MROC 281100Z 07005KT 030V100 9999 FEW035 SCT110 21/18 A3002 NOSIG=
202004281200 METAR MROC 281200Z 35003KT 270V070 9999 FEW035 BKN110 22/17 A3003 NOSIG=
202004281300 METAR MROC 281300Z 13011KT 9999 -DZ FEW025 OVC080 22/18 A3005 NOSIG=
202004281400 METAR MROC 281400Z 11012G22KT 070V140 9999 -DZ FEW025 BKN080 23/18 A3006 NOSIG=
202004281500 METAR MROC 281500Z 09011G21KT 070V130 9999 FEW035 SCT060 BKN100 25/18 A3006 NOSIG=
202004281600 METAR MROC 281600Z 11013G27KT 9999 FEW035 BKN100 25/18 A3006 NOSIG=
202004281700 METAR MROC 281700Z 11014G24KT 9999 FEW035 BKN100 25/18 A3006 NOSIG=
202004281800 METAR MROC 281800Z 10016G26KT 9999 FEW030 SCT070 BKN100 25/18 A3004 NOSIG=
202004281900 METAR MROC 281900Z 11014G24KT 9999 FEW030 SCT070 BKN100 25/17 A3001 NOSIG=
202004282000 METAR MROC 282000Z 12014G25KT 9999 FEW030 SCT070 BKN100 25/17 A2998 NOSIG=
202004282100 METAR MROC 282100Z 12013G25KT 9999 FEW030 SCT070 BKN100 25/17 A2998 NOSIG=
202004282200 METAR MROC 282200Z 12012KT 9999 FEW040 OVC100 24/17 A2998 NOSIG=
202004282300 METAR MROC 282300Z 13012KT 9999 FEW040 BKN080 24/16 A2999 NOSIG=
202004290000 METAR MROC 290000Z 12011KT 9999 FEW040 BKN100 23/16 A3002 NOSIG=
202004290100 METAR MROC 290100Z 10011KT 9999 FEW040 BKN120 22/16 A3003 NOSIG=
202004290200 METAR MROC 290200Z COR 09011KT 050V120 CAVOK 22/16 A3004 NOSIG=
202004290300 METAR MROC 290300Z 09010KT CAVOK 22/16 A3005 NOSIG=
202004290400 METAR MROC 290400Z 07010KT CAVOK 22/16 A3005 NOSIG=
202004290500 METAR MROC 290500Z 09012KT CAVOK 21/16 A3004 NOSIG=
202004290600 METAR MROC 290600Z 08004KT 050V110 CAVOK 21/15 A3003 NOSIG=
202004290700 METAR MROC 290700Z 09007KT CAVOK 21/16 A3002 NOSIG=
202004290800 METAR MROC 290800Z 07008KT CAVOK 21/15 A2999 NOSIG=
202004290900 METAR MROC 290900Z 07009KT CAVOK 21/15 A2998 NOSIG=
202004291000 METAR MROC 291000Z 05007KT 020V080 CAVOK 21/15 A2999 NOSIG=
202004291100 METAR MROC 291100Z 09008KT CAVOK 22/15 A2999 NOSIG=
202004291200 METAR MROC 291200Z 07009KT 050V110 CAVOK 21/15 A3000 NOSIG=
202004291300 METAR MROC 291300Z 08005KT 040V120 CAVOK 24/16 A3002 NOSIG=
202004291400 METAR MROC 291400Z 11011KT 080V140 CAVOK 25/16 A3005 NOSIG=
202004291500 METAR MROC 291500Z 11010KT 080V140 CAVOK 26/16 A3005 NOSIG=
202004291600 METAR MROC 291600Z 11006KT 040V170 CAVOK 28/16 A3003 NOSIG=
202004291700 METAR MROC 291700Z 14008KT 080V190 9999 FEW045 BKN060 29/17 A3002 BECMG 25010KT=
202004291800 METAR MROC 291800Z 25008KT 200V290 9999 FEW020TCU BKN060 29/18 A3001 RERA NOSIG=
202004291900 METAR MROC 291900Z 22007KT 190V260 8000 SHRA VCTS FEW020TCU BKN040 25/21 A2999 NOSIG=
202004292000 METAR MROC 292000Z 20006KT 9999 4500SW RA VCTS FEW020CB SCT030 BKN100 22/22 A2999 NOSIG=
202004292100 METAR MROC 292100Z 19004KT 160V220 8000 -RA FEW004 BKN014 OVC017 21/21 A2999 NOSIG=
202004292200 METAR MROC 292200Z 10005KT 5000 RA BR FEW009 BKN030 OVC100 21/21 A2999 NOSIG=
202004292300 METAR MROC 292300Z 08005KT 9999 -RA FEW045 OVC100 21/21 A2998 NOSIG=
202004300000 METAR MROC 300000Z 07004KT 9999 FEW040 SCT200 21/19 A3001 NOSIG=
202004300100 METAR MROC 300100Z 09006KT 060V130 CAVOK 21/19 A3002 NOSIG=
202004300200 METAR MROC 300200Z 06007KT CAVOK 21/19 A3004 NOSIG=
202004300300 METAR MROC 300300Z 10006KT CAVOK 21/18 A3004 NOSIG=
202004300400 METAR MROC 300400Z 08006KT CAVOK 21/18 A3005 NOSIG=
202004300500 METAR MROC 300500Z 07007KT CAVOK 21/18 A3005 NOSIG=
202004300600 METAR MROC 300600Z 09003KT CAVOK 20/18 A3004 NOSIG=
202004300700 METAR MROC 300700Z 05004KT CAVOK 20/18 A3003 NOSIG=
202004300800 METAR MROC 300800Z 08004KT CAVOK 20/18 A3002 NOSIG=
202004300900 METAR MROC 300900Z 04006KT 9999 -RA NSC 20/18 A3001 NOSIG=
202004301000 METAR MROC 301000Z 08005KT 9999 -DZ NSC 20/18 A3000 NOSIG=
202004301100 METAR MROC 301100Z 09004KT 9999 -RA NSC 21/18 A3002 NOSIG=
202004301200 METAR MROC 301200Z 07005KT CAVOK 21/19 A3002 NOSIG=
202004301300 METAR MROC 301300Z 08004KT 050V110 CAVOK 22/19 A3005 NOSIG=
202004301400 METAR MROC 301400Z 10007KT 070V130 9999 FEW040 BKN120 24/19 A3008 NOSIG=
202004301500 METAR MROC 301500Z 10008KT 080V140 CAVOK 25/19 A3008 NOSIG=
202004301600 METAR MROC 301600Z 12006KT 090V170 9999 FEW040 BKN120 25/19 A3006 NOSIG=
202004301700 METAR MROC 301700Z 13004KT 080V200 9999 FEW040 BKN120 27/20 A3004 NOSIG=
202004301800 METAR MROC 301800Z 23007KT 200V260 9999 FEW040 BKN200 26/21 A3003 NOSIG=
202004301900 METAR MROC 301900Z 25007KT 210V280 9999 FEW030 BKN200 27/21 A3000 NOSIG=
202004302000 METAR MROC 302000Z 24010KT 210V270 9999 SCT025 BKN200 27/21 A2997 NOSIG=
202004302100 METAR MROC 302100Z 22008KT 190V260 9999 RA BKN030 SCT200 25/21 A2996 TEMPO 5000=
202004302200 METAR MROC 302200Z 24004KT 210V270 9999 -TSRA SCT020CB BKN030 24/22 A2997 NOSIG=
202004302300 METAR MROC 302300Z 06003KT 350V100 9999 -RA BKN025 21/19 A2999 RETSRA NOSIG=
202005010000 METAR MROC 010000Z 36003KT 330V030 9999 FEW020 SCT080 BKN200 22/20 A3002 NOSIG=
202005010100 METAR MROC 010100Z 08005KT CAVOK 22/21 A3000 NOSIG=
202005010200 METAR MROC 010200Z 11004KT 080V150 CAVOK 22/19 A3003 NOSIG=
202005010300 METAR MROC 010300Z 09007KT CAVOK 22/19 A3005 NOSIG=
202005010400 METAR MROC 010400Z 09007KT 9999 FEW030 BKN180 22/18 A3006 NOSIG=
202005010500 METAR MROC 010500Z 08006KT CAVOK 21/19 A3004 NOSIG=
202005010600 METAR MROC 010600Z 09005KT CAVOK 21/19 A3002 NOSIG=
202005010700 METAR MROC 010700Z 05006KT CAVOK 21/18 A3002 NOSIG=
202005010800 METAR MROC 010800Z 05006KT 360V080 CAVOK 20/18 A2999 NOSIG=
202005010900 METAR MROC 010900Z 05005KT CAVOK 20/18 A3000 NOSIG=
202005011000 METAR MROC 011000Z 10007KT 070V130 CAVOK 21/18 A3000 NOSIG=
202005011100 METAR MROC 011100Z 09010KT 060V130 CAVOK 21/17 A3001 NOSIG=
202005011200 METAR MROC 011200Z 07011KT CAVOK 21/17 A3002 NOSIG=
202005011300 METAR MROC 011300Z 06006KT 030V120 CAVOK 22/17 A3005 NOSIG=
202005011400 METAR MROC 011400Z 08005KT 040V120 CAVOK 22/17 A3008 NOSIG=
202005011500 METAR MROC 011500Z 08010KT CAVOK 23/17 A3008 NOSIG=
202005011600 METAR MROC 011600Z 11010KT 070V140 CAVOK 24/17 A3009 NOSIG=
202005011700 METAR MROC 011700Z 09009KT 060V120 CAVOK 26/16 A3007 NOSIG=
202005011800 METAR MROC 011800Z 08008KT 050V120 CAVOK 27/17 A3005 NOSIG=
202005011900 METAR MROC 011900Z 11004KT 060V190 9999 SCT040 BKN250 28/18 A3003 TEMPO 25007KT=
202005012000 METAR MROC 012000Z 25009KT 9999 BKN045 25/20 A3000 NOSIG=
202005012100 METAR MROC 012100Z 25007KT 9999 SCT045 OVC120 25/20 A2999 NOSIG=
202005012200 METAR MROC 012200Z 26005KT 230V290 9999 BKN045 24/20 A2999 NOSIG=
202005012300 METAR MROC 012300Z 25004KT 220V330 9999 BKN045 23/21 A3001 NOSIG=
202005020000 METAR MROC 020000Z 24005KT 9999 BKN030 23/22 A3004 NOSIG=
202005020100 METAR MROC 020100Z VRB01KT 9999 SCT035 OVC120 23/22 A3005 NOSIG=
202005020200 METAR MROC 020200Z 09006KT 070V130 9999 FEW035 SCT120 22/19 A3007 NOSIG=
202005020300 METAR MROC 020300Z 06005KT 330V130 9999 FEW035 SCT120 22/18 A3007 NOSIG=
202005020400 METAR MROC 020400Z 11012G23KT 9999 FEW035 SCT120 22/18 A3007 NOSIG=
202005020500 METAR MROC 020500Z 06004KT 9999 FEW035 SCT120 22/19 A3007 NOSIG=
202005020600 METAR MROC 020600Z 10012KT 070V140 9999 FEW035 SCT120 22/19 A3004 NOSIG=
202005020700 METAR MROC 020700Z 10015KT 9999 FEW035 23/19 A3002 NOSIG=
202005020800 METAR MROC 020800Z 06011KT 9999 FEW035 22/19 A3001 NOSIG=
202005020900 METAR MROC 020900Z 10012KT 9999 FEW035 22/18 A3000 NOSIG=
202005021000 METAR MROC 021000Z 08004KT 9999 FEW035 22/18 A3003 NOSIG=
202005021100 METAR MROC 021100Z 08008KT 050V110 9999 FEW035 22/17 A3004 NOSIG=
202005021200 METAR MROC 021200Z 09009KT 060V120 9999 FEW035 SCT250 21/16 A3005 NOSIG=
202005021300 METAR MROC 021300Z 09005KT 060V130 9999 FEW040 BKN250 23/15 A3007 NOSIG=
202005021400 METAR MROC 021400Z 12012KT 9999 FEW040 SCT140 25/16 A3008 NOSIG=
202005021500 METAR MROC 021500Z 11013G23KT 9999 FEW045 SCT180 26/16 A3008 NOSIG=
202005021600 METAR MROC 021600Z 12016G28KT 090V150 9999 FEW045 26/16 A3008 NOSIG=
202005021700 METAR MROC 021700Z 11017KT CAVOK 27/17 A3007 NOSIG=
202005021800 METAR MROC 021800Z 12015G25KT 090V150 9999 FEW045 27/18 A3005 NOSIG=
202005021900 METAR MROC 021900Z 12016KT 090V150 9999 FEW045 27/17 A3002 NOSIG=
202005022000 METAR MROC 022000Z 10017G27KT 070V130 9999 FEW045 27/18 A3000 NOSIG=
202005022100 METAR MROC 022100Z 11018G28KT 360V130 9999 FEW040 SCT120 27/17 A2999 NOSIG=
202005022200 METAR MROC 022200Z 12013G23KT 090V150 9999 FEW035 BKN200 26/18 A2999 NOSIG=
202005022300 METAR MROC 022300Z 12015G25KT 9999 FEW040 BKN200 25/18 A3000 NOSIG=
202005030000 METAR MROC 030000Z 11013G23KT 080V140 9999 FEW040 SCT200 24/18 A3002 NOSIG=
202005030100 METAR MROC 030100Z 11011G24KT 9999 FEW040 23/18 A3004 NOSIG=
202005030200 METAR MROC 030200Z 11010G24KT 070V150 9999 FEW040 23/18 A3006 NOSIG=
202005030300 METAR MROC 030300Z 09010G20KT 9999 FEW040 22/18 A3007 NOSIG=
202005030400 METAR MROC 030400Z 06010G22KT CAVOK 23/17 A3006 NOSIG=
202005030500 METAR MROC 030500Z 10011G26KT 070V140 CAVOK 22/17 A3004 NOSIG=
202005030600 METAR MROC 030600Z 04010KT 010V080 CAVOK 22/17 A3002 NOSIG=
202005030700 METAR MROC 030700Z 10015G27KT CAVOK 22/17 A3000 NOSIG=
202005030800 METAR MROC 030800Z 11013G25KT 070V130 CAVOK 22/17 A2999 NOSIG=
202005030900 METAR MROC 030900Z 12013G23KT CAVOK 22/17 A2998 NOSIG=
202005031000 METAR MROC 031000Z 11015G25KT CAVOK 22/17 A2999 NOSIG=
202005031100 METAR MROC 031100Z 11012G22KT 080V140 CAVOK 22/17 A3000 NOSIG=
202005031200 METAR MROC 031200Z 11012G23KT CAVOK 22/17 A3002 NOSIG=
202005031300 METAR MROC 031300Z 09013KT 9999 FEW035 23/17 A3004 NOSIG=
202005031400 METAR MROC 031400Z 11014G24KT 070V150 9999 FEW035 25/17 A3004 NOSIG=
202005031500 METAR MROC 031500Z 09016G31KT 9999 FEW040 25/17 A3005 NOSIG=
202005031600 METAR MROC 031600Z 10012G22KT 9999 FEW045 28/16 A3004 NOSIG=
202005031700 METAR MROC 031700Z 11012G22KT 090V180 9999 FEW040 28/16 A3003 NOSIG=
202005031800 METAR MROC 031800Z 10011G21KT 9999 FEW045 BKN250 29/16 A3001 NOSIG=
202005031900 METAR MROC 031900Z 12007G17KT 090V160 9999 FEW045 BKN250 29/17 A2998 NOSIG=
202005032000 METAR MROC 032000Z 13011G21KT 080V180 9999 FEW045 BKN200 29/17 A2995 NOSIG=
202005032100 METAR MROC 032100Z 13010KT 100V160 9999 FEW040 BKN250 29/17 A2993 NOSIG=
202005032200 METAR MROC 032200Z 11010KT 080V150 9999 FEW040 BKN200 28/18 A2993 NOSIG=
202005032300 METAR MROC 032300Z 11010KT 9999 FEW035 BKN200 26/18 A2994 NOSIG=
202005040000 METAR MROC 040000Z 14008KT 9999 FEW035 BKN200 24/18 A2996 NOSIG=
202005040100 METAR MROC 040100Z 11011KT 060V140 9999 FEW035 SCT200 23/18 A2999 NOSIG=
202005040200 METAR MROC 040200Z 11011KT 070V150 9999 FEW035 BKN200 23/18 A2999 NOSIG=
202005040300 METAR MROC 040300Z 11011KT 9999 FEW030 SCT200 22/18 A3000 NOSIG=
202005040400 METAR MROC 040400Z 11011KT CAVOK 22/17 A3002 NOSIG=
202005040500 METAR MROC 040500Z 11011KT 070V140 CAVOK 22/17 A3001 NOSIG=
202005040600 METAR MROC 040600Z 08008KT CAVOK 22/17 A2999 NOSIG=
202005040700 METAR MROC 040700Z 08006KT 030V120 CAVOK 21/18 A2998 NOSIG=
202005040800 METAR MROC 040800Z 08008KT 030V120 CAVOK 21/18 A2996 NOSIG=
202005040900 METAR MROC 040900Z 07007KT CAVOK 21/17 A2995 NOSIG=
202005041000 METAR MROC 041000Z 07011KT CAVOK 22/18 A2995 NOSIG=
202005041100 METAR MROC 041100Z 10008KT 070V130 CAVOK 21/18 A2996 NOSIG=
202005041200 METAR MROC 041200Z 10011KT 070V130 9999 FEW040 BKN250 22/18 A2996 NOSIG=
202005041300 METAR MROC 041300Z 10014G24KT 080V140 9999 FEW025 BKN200 24/18 A2998 NOSIG=
202005041400 METAR MROC 041400Z 10016KT 9999 FEW025 SCT150 BKN250 25/18 A3000 NOSIG=
202005041500 METAR MROC 041500Z 10016KT 070V140 9999 FEW025 SCT180 BKN200 25/18 A3001 NOSIG=
202005041600 METAR MROC 041600Z 10015KT 9999 FEW025 BKN200 26/18 A2999 NOSIG=
202005041700 METAR MROC 041700Z 12012KT 080V150 9999 FEW030 BKN250 28/18 A2998 NOSIG=
202005041800 METAR MROC 041800Z 11012KT 9999 FEW025 BKN200 28/17 A2997 NOSIG=
202005041900 METAR MROC 041900Z 11010KT 080V150 9999 FEW040 BKN250 28/18 A2995 NOSIG=
202005042000 METAR MROC 042000Z 10010KT 070V130 9999 FEW035 BKN250 29/18 A2992 NOSIG=
202005042100 METAR MROC 042100Z 13008KT 090V180 9999 FEW035 SCT200 28/18 A2991 NOSIG=
202005042200 METAR MROC 042200Z 12010KT 080V140 9999 SCT035 BKN200 27/18 A2991 NOSIG=
202005042300 METAR MROC 042300Z 11012KT 9999 SCT040 BKN200 25/18 A2992 NOSIG=
202005050000 METAR MROC 050000Z 11011KT 080V140 9999 FEW035 BKN250 25/17 A2995 NOSIG=
202005050100 METAR MROC 050100Z 11009KT 9999 FEW035 BKN250 23/17 A2997 NOSIG=
202005050200 METAR MROC 050200Z 11009KT 080V140 9999 FEW040 SCT250 23/18 A2999 NOSIG=
202005050300 METAR MROC 050300Z 10009KT 080V140 9999 FEW040 SCT250 23/18 A3000 NOSIG=
202005050400 METAR MROC 050400Z 10008G18KT 070V140 CAVOK 23/18 A2999 NOSIG=
202005050500 METAR MROC 050500Z 11013G26KT CAVOK 22/18 A2998 NOSIG=
202005050600 METAR MROC 050600Z 10010G24KT 070V140 CAVOK 22/18 A2998 NOSIG=
202005050700 METAR MROC 050700Z 10010G22KT CAVOK 22/17 A2995 NOSIG=
202005050800 METAR MROC 050800Z 10010G20KT CAVOK 22/17 A2993 NOSIG=
202005050900 METAR MROC 050900Z 07013KT 050V110 CAVOK 22/17 A2993 NOSIG=
202005051000 METAR MROC 051000Z 08010KT 9999 FEW035 22/17 A2993 NOSIG=
202005051100 METAR MROC 051100Z 07004KT 010V130 9999 FEW035 21/17 A2994 NOSIG=
202005051200 METAR MROC 051200Z 05010KT 9999 FEW030 OVC200 22/17 A2995 NOSIG=
202005051300 METAR MROC 051300Z 10010KT 9999 FEW040 OVC200 24/17 A2997 NOSIG=
202005051400 METAR MROC 051400Z 09011KT 060V120 9999 FEW045 OVC200 25/17 A3000 NOSIG=
202005051500 METAR MROC 051500Z 09014KT 9999 FEW045 BKN200 26/17 A3001 NOSIG=
202005051600 METAR MROC 051600Z 11015KT CAVOK 27/17 A3000 NOSIG=
202005051700 METAR MROC 051700Z 11010KT 080V150 9999 FEW045 SCT100 BKN200 28/17 A2999 NOSIG=
202005051800 METAR MROC 051800Z 11010KT 070V170 CAVOK 29/18 A2996 NOSIG=
202005051900 METAR MROC 051900Z 12009KT 090V190 9999 FEW045 BKN200 29/18 A2994 NOSIG=
202005052000 METAR MROC 052000Z 24009KT 210V270 9999 FEW025TCU SCT045 BKN200 27/21 A2992 NOSIG=
202005052100 METAR MROC 052100Z 22010KT 9999 4500SW BCFG FEW013 BKN035 26/22 A2993 NOSIG=
202005052143 METAR MROC 052143Z 20009KT 170V230 9999 4500SW TSRA SCT020CB BKN035 25/20 A2994 NOSIG=
202005052200 METAR MROC 052200Z 22009KT 190V250 9999 4500SW TSRA FEW025CB SCT030 BKN035 24/19 A2995 NOSIG=
202005052300 METAR MROC 052300Z 36005KT 9999 4500SW BCFG VCTS FEW010 SCT030 BKN045 23/19 A2994 RERA NOSIG=
202005060000 METAR MROC 060000Z VRB02KT 9999 FEW030 BKN090 23/19 A2998 NOSIG=
202005060100 METAR MROC 060100Z VRB02KT 9999 FEW040 BKN100 23/20 A3000 NOSIG=
202005060200 METAR MROC 060200Z 30004KT CAVOK 22/21 A3003 NOSIG=
202005060300 METAR MROC 060300Z VRB02KT CAVOK 22/20 A3005 NOSIG=
202005060400 METAR MROC 060400Z 08002KT CAVOK 22/20 A3005 NOSIG=
202005060500 METAR MROC 060500Z 08004KT CAVOK 22/18 A3003 NOSIG=
202005060600 METAR MROC 060600Z 08007KT CAVOK 23/17 A3000 NOSIG=
202005060700 METAR MROC 060700Z 07009KT CAVOK 23/17 A2998 NOSIG=
202005060800 METAR MROC 060800Z 09008KT CAVOK 23/17 A2997 NOSIG=
202005060900 METAR MROC 060900Z 09007KT CAVOK 23/17 A2996 NOSIG=
202005061000 METAR MROC 061000Z 06006KT 020V080 CAVOK 22/17 A2997 NOSIG=
202005061100 METAR MROC 061100Z 07009KT 040V100 CAVOK 22/17 A2999 NOSIG=
202005061200 METAR MROC 061200Z 09009KT 060V120 CAVOK 22/17 A2998 NOSIG=
202005061300 METAR MROC 061300Z 04008KT 010V080 CAVOK 23/17 A2999 NOSIG=
202005061400 METAR MROC 061400Z 10012KT 070V130 CAVOK 25/17 A3000 NOSIG=
202005061500 METAR MROC 061500Z 11016KT 080V140 CAVOK 26/17 A3000 NOSIG=
202005061600 METAR MROC 061600Z 10013KT CAVOK 28/17 A2999 NOSIG=
202005061700 METAR MROC 061700Z 09012KT CAVOK 29/17 A2999 NOSIG=
202005061800 METAR MROC 061800Z 07015KT 9999 FEW045 SCT140 29/17 A2997 NOSIG=
202005061900 METAR MROC 061900Z 07014KT 040V100 9999 FEW045 SCT160 30/17 A2994 NOSIG=
202005062000 METAR MROC 062000Z 08014KT 050V110 9999 FEW045 SCT200 30/18 A2992 NOSIG=
202005062100 METAR MROC 062100Z 08014KT 040V100 9999 FEW045 SCT240 29/16 A2991 NOSIG=
202005062200 METAR MROC 062200Z 09009KT 060V130 9999 SCT045 SCT230 28/18 A2991 NOSIG=
202005062300 METAR MROC 062300Z 11008KT 9999 SCT045 BKN230 27/18 A2993 NOSIG=
202005070000 METAR MROC 070000Z 23008KT 9999 FEW045 SCT150 24/22 A2995 NOSIG=
202005070100 METAR MROC 070100Z 31005KT 9999 FEW045 SCT150 24/22 A2999 NOSIG=
202005070200 METAR MROC 070200Z 32003KT 9999 FEW040 SCT140 23/22 A3001 NOSIG=
202005070300 METAR MROC 070300Z VRB02KT 9999 FEW040 SCT140 23/23 A3002 NOSIG=
202005070400 METAR MROC 070400Z VRB01KT 9999 FEW010 SCT140 23/22 A3002 NOSIG=
202005070500 METAR MROC 070500Z 17003KT 130V230 9999 FEW040 SCT140 22/22 A3002 NOSIG=
202005070600 METAR MROC 070600Z 33004KT CAVOK 23/21 A2999 NOSIG=
202005070700 METAR MROC 070700Z 31004KT CAVOK 22/20 A2997 NOSIG=
202005070800 METAR MROC 070800Z 04007KT CAVOK 24/19 A2995 NOSIG=
202005070900 METAR MROC 070900Z 10010KT 9999 FEW040 SCT160 23/19 A2995 NOSIG=
202005071000 METAR MROC 071000Z 09007KT 9999 FEW040 SCT160 23/19 A2996 NOSIG=
202005071100 METAR MROC 071100Z 06006KT 9999 FEW035 SCT100 23/18 A2998 NOSIG=
202005071200 METAR MROC 071200Z 09009KT 9999 FEW040 SCT100 23/19 A2998 NOSIG=
202005071300 METAR MROC 071300Z 11010KT 080V150 9999 SCT045 SCT140 25/16 A3000 NOSIG=
202005071400 METAR MROC 071400Z 11013KT 080V150 9999 SCT045 SCT140 26/18 A3002 NOSIG=
202005071500 METAR MROC 071500Z 11012KT 080V150 CAVOK 28/18 A3001 NOSIG=
202005071600 METAR MROC 071600Z 12013KT 090V170 CAVOK 29/18 A3001 NOSIG=
202005071700 METAR MROC 071700Z 09014KT 060V120 CAVOK 30/18 A3000 NOSIG=
202005071800 METAR MROC 071800Z 11012KT 070V150 9999 FEW045 BKN150 30/19 A2999 NOSIG=
202005071900 METAR MROC 071900Z 13011KT 100V160 9999 FEW045 BKN140 30/19 A2997 NOSIG=
202005072000 METAR MROC 072000Z 24010KT 190V260 9999 SCT040 BKN120 27/22 A2995 NOSIG=
202005072100 METAR MROC 072100Z 13004KT 9999 FEW010 FEW015CB SCT035 BKN070 24/21 A2996 NOSIG=
202005072200 METAR MROC 072200Z 11006KT 9999 -RA VCTS FEW015CB FEW025 SCT045 BKN070 24/20 A2998 RETS NOSIG=
202005072300 METAR MROC 072300Z 07006KT 020V100 9999 -RA FEW025 SCT070 BKN100 23/22 A2999 NOSIG=
202005080000 METAR MROC 080000Z 10008KT CAVOK 22/20 A2998 NOSIG=
202005080100 METAR MROC 080100Z 09011G21KT 070V130 CAVOK 24/19 A2997 NOSIG=
202005080200 METAR MROC 080200Z 06008KT 010V110 CAVOK 23/19 A2998 NOSIG=
202005080300 METAR MROC 080300Z 06003KT 9999 FEW035 SCT120 BKN200 22/20 A3000 NOSIG=
202005080400 METAR MROC 080400Z 09006KT 060V120 9999 FEW035 BKN140 23/19 A3002 NOSIG=
202005080500 METAR MROC 080500Z 01005KT 9999 FEW035 SCT140 BKN200 23/19 A3003 NOSIG=
202005080600 METAR MROC 080600Z 09006KT 9999 FEW035 BKN200 23/19 A3000 NOSIG=
202005080700 METAR MROC 080700Z 10007KT 010V140 CAVOK 23/19 A2998 NOSIG=
202005080800 METAR MROC 080800Z 04006KT 020V080 CAVOK 22/19 A2998 NOSIG=
202005080900 METAR MROC 080900Z 05003KT 330V130 CAVOK 21/19 A2997 NOSIG=
202005081000 METAR MROC 081000Z 05003KT 360V100 CAVOK 22/19 A2998 NOSIG=
202005081100 METAR MROC 081100Z 04004KT 010V070 9999 FEW040 21/19 A2998 NOSIG=
202005081200 METAR MROC 081200Z 04004KT 360V090 9999 FEW040 SCT250 22/19 A2998 NOSIG=
202005081300 METAR MROC 081300Z 06012KT 9999 FEW035 SCT250 25/19 A2998 NOSIG=
202005081400 METAR MROC 081400Z 12013G23KT 090V160 9999 FEW035 SCT120 BKN250 25/18 A3000 NOSIG=
202005081500 METAR MROC 081500Z 11015G25KT 9999 FEW035 SCT120 BKN250 27/18 A3002 NOSIG=
202005081600 METAR MROC 081600Z 10013G23KT 9999 SCT045 BKN120 27/19 A3003 NOSIG=
202005081700 METAR MROC 081700Z 12011G21KT 090V160 CAVOK 27/19 A3002 NOSIG=
202005081800 METAR MROC 081800Z 13010G20KT 100V170 9999 FEW035 SCT060 BKN120 27/19 A3000 NOSIG=
202005081900 METAR MROC 081900Z 12012KT 090V160 9999 FEW035 SCT060 BKN120 27/18 A2999 NOSIG=
202005082000 METAR MROC 082000Z 10013KT 070V130 9999 FEW035 SCT060 BKN120 27/19 A2996 NOSIG=
202005082100 METAR MROC 082100Z 11009KT 080V160 9999 FEW040 BKN060 26/18 A2997 NOSIG=
202005082200 METAR MROC 082200Z 11009KT 080V140 9999 FEW040 SCT060 BKN130 25/19 A2995 NOSIG=
202005082300 METAR MROC 082300Z 11010KT 9999 FEW040 SCT060 BKN150 25/19 A2997 NOSIG=
202005090000 METAR MROC 090000Z 10007KT 9999 FEW035 BKN150 24/19 A2998 NOSIG=
202005090100 METAR MROC 090100Z 12005KT 080V150 9999 FEW035 BKN160 24/18 A2999 NOSIG=
202005090200 METAR MROC 090200Z 12006KT 090V150 9999 FEW035 BKN200 23/19 A3002 NOSIG=
202005090300 METAR MROC 090300Z 36003KT 330V050 9999 FEW035 BKN200 23/20 A3003 NOSIG=
202005090400 METAR MROC 090400Z 06003KT 030V090 CAVOK 23/19 A3003 NOSIG=
202005090500 METAR MROC 090500Z 09004KT 060V120 CAVOK 21/19 A3003 NOSIG=
202005090600 METAR MROC 090600Z 08004KT 040V120 CAVOK 23/19 A3001 NOSIG=
202005090700 METAR MROC 090700Z 07007KT CAVOK 23/19 A2999 NOSIG=
202005090800 METAR MROC 090800Z 06003KT CAVOK 22/18 A2999 NOSIG=
202005090900 METAR MROC 090900Z VRB02KT CAVOK 21/20 A2998 NOSIG=
202005091000 METAR MROC 091000Z 05004KT 010V070 9999 VCTS NSC 21/19 A2999 NOSIG=
202005091100 METAR MROC 091100Z VRB02KT CAVOK 21/18 A3000 NOSIG=
202005091200 METAR MROC 091200Z 07005KT CAVOK 21/19 A3000 NOSIG=
202005091300 METAR MROC 091300Z 06006KT CAVOK 24/19 A3002 NOSIG=
202005091400 METAR MROC 091400Z 03003KT 330V080 9999 FEW045 BKN200 25/19 A3004 NOSIG=
202005091500 METAR MROC 091500Z 26007KT 230V290 9999 FEW040 BKN200 26/21 A3002 NOSIG=
202005091600 METAR MROC 091600Z 23008KT 210V270 9999 FEW040 BKN150 26/20 A3005 NOSIG=
202005091700 METAR MROC 091700Z VRB02KT 9999 FEW035 BKN200 27/21 A3003 NOSIG=
202005091800 METAR MROC 091800Z 10008KT 060V150 9999 FEW040 BKN200 30/20 A3000 NOSIG=
202005091900 METAR MROC 091900Z 14007KT 090V190 9999 FEW040 SCT140 BKN200 30/21 A2997 NOSIG=
202005092000 METAR MROC 092000Z 23007KT 200V280 9999 FEW040 SCT140 29/22 A2995 NOSIG=
202005092100 METAR MROC 092100Z 23011KT 9999 SCT030 BKN250 27/23 A2994 NOSIG=
202005092200 METAR MROC 092200Z 24012KT 9999 SCT020TCU SCT250 25/23 A2993 NOSIG=
202005092300 METAR MROC 092300Z 25005KT 230V300 3000 TSRA FEW008 SCT014CB BKN025 25/23 A2995 NOSIG=
202005100000 METAR MROC 100000Z 11004KT 090V150 9999 -TSRA FEW005 FEW015CB SCT100 22/22 A3000 TEMPO -RA=
202005100100 METAR MROC 100100Z 09005KT 9999 -RA FEW010 23/23 A2998 RETSRA NOSIG=
202005100200 METAR MROC 100200Z 04004KT 320V080 9999 FEW010 SCT100 24/22 A2998 NOSIG=
202005100300 METAR MROC 100300Z VRB02KT 9999 FEW010 SCT100 BKN200 24/20 A3001 NOSIG=
202005100400 METAR MROC 100400Z 10004KT 070V170 9999 FEW025 BKN200 23/20 A3004 NOSIG=
202005100500 METAR MROC 100500Z 08003KT 340V140 CAVOK 23/22 A3003 NOSIG=
202005100600 METAR MROC 100600Z 08006KT 9999 FEW025 SCT200 23/20 A3002 NOSIG=
202005100700 METAR MROC 100700Z 03004KT 360V080 CAVOK 23/20 A3000 NOSIG=
202005100800 METAR MROC 100800Z 03005KT CAVOK 22/20 A3000 NOSIG=
202005100900 METAR MROC 100900Z VRB02KT CAVOK 22/20 A3001 NOSIG=
202005101000 METAR MROC 101000Z 12003KT 090V170 CAVOK 21/20 A2999 NOSIG=
202005101100 METAR MROC 101100Z 03005KT CAVOK 21/19 A3000 NOSIG=
202005101200 METAR MROC 101200Z 13003KT 9999 FEW010 SCT120 22/20 A3002 NOSIG=
202005101300 METAR MROC 101300Z VRB02KT 9999 FEW010 23/20 A3005 NOSIG=
202005101400 METAR MROC 101400Z 04006KT 9999 FEW045 BKN300 25/20 A3006 NOSIG=
202005101500 METAR MROC 101500Z 09005KT 050V110 9999 FEW040 BKN300 28/19 A3005 NOSIG=
202005101600 METAR MROC 101600Z 11008KT 080V150 9999 FEW045 SCT250 29/20 A3004 NOSIG=
202005101700 METAR MROC 101700Z VRB03KT 9999 SCT045 SCT080 30/21 A3002 TEMPO 22008=
202005101800 METAR MROC 101800Z VRB03KT 9999 SCT045 SCT080 30/21 A3002 TEMPO 22008=
202005101900 METAR MROC 101900Z 24012KT 9999 -RA VCTS FEW020CB BKN045 SCT200 27/23 A3000 TEMPO RA=
202005102000 METAR MROC 102000Z 27005KT 240V360 9999 TSRA BKN008CB SCT015 24/21 A3000 NOSIG=
202005102100 METAR MROC 102100Z 01004KT 9999 FEW015 SCT120 BKN200 25/21 A2995 RETSRA NOSIG=
202005102200 METAR MROC 102200Z VRB02KT 9999 FEW035 BKN070 24/23 A2996 NOSIG=
202005102300 METAR MROC 102300Z 06004KT 010V150 CAVOK 25/22 A2997 NOSIG=
202005110000 METAR MROC 110000Z 17004KT 130V190 9999 FEW035 BKN200 24/20 A2999 NOSIG=
202005110100 METAR MROC 110100Z 11003KT 060V180 CAVOK 24/20 A3001 NOSIG=
202005110200 METAR MROC 110200Z VRB02KT CAVOK 23/21 A3004 NOSIG=
202005110300 METAR MROC 110300Z 36003KT 340V040 9999 FEW025 SCT200 23/21 A3006 NOSIG=
202005110400 METAR MROC 110400Z 14003KT 100V230 9999 FEW004 22/22 A3005 NOSIG=
202005110500 METAR MROC 110500Z VRB02KT 9999 FEW005 22/22 A3005 NOSIG=
202005110600 METAR MROC 110600Z 09004KT CAVOK 21/21 A3004 NOSIG=
202005110700 METAR MROC 110700Z 04006KT CAVOK 22/20 A3001 NOSIG=
202005110800 METAR MROC 110800Z 10006KT 070V140 9999 VCTS NSC 22/19 A2999 NOSIG=
202005110900 METAR MROC 110900Z 08007KT 070V140 CAVOK 22/19 A2996 NOSIG=
202005111000 METAR MROC 111000Z 10007KT 070V150 CAVOK 23/19 A2996 NOSIG=
202005111100 METAR MROC 111100Z 12003KT 080V180 CAVOK 22/18 A2999 NOSIG=
202005111200 METAR MROC 111200Z 06006KT 360V120 CAVOK 22/18 A3002 NOSIG=
202005111300 METAR MROC 111300Z VRB04KT CAVOK 24/19 A3005 NOSIG=
202005111400 METAR MROC 111400Z 08004KT CAVOK 26/19 A3005 NOSIG=
202005111500 METAR MROC 111500Z VRB03KT 9999 FEW040 BKN200 26/19 A3006 BECMG 24006KT=
202005111600 METAR MROC 111600Z 10012KT 070V130 CAVOK 27/19 A3005 NOSIG=
202005111700 METAR MROC 111700Z 11010KT 070V150 CAVOK 27/19 A3005 NOSIG=
202005111800 METAR MROC 111800Z 09010KT 040V140 9999 FEW040 BKN200 29/19 A3002 NOSIG=
202005111900 METAR MROC 111900Z 11008KT 060V160 9999 SCT040 BKN200 28/19 A3001 NOSIG=
202005112000 METAR MROC 112000Z 11013KT 9999 SCT040 BKN100 27/19 A2999 NOSIG=
202005112100 METAR MROC 112100Z 08013KT 9999 FEW045 BKN140 27/18 A2997 NOSIG=
202005112200 METAR MROC 112200Z 12009KT 080V150 CAVOK 26/20 A2997 NOSIG=
202005112300 METAR MROC 112300Z 10007KT CAVOK 26/18 A2998 NOSIG=
202005120000 METAR MROC 120000Z 11009KT 080V140 CAVOK 25/19 A3001 NOSIG=
202005120100 METAR MROC 120100Z 12009KT 080V180 CAVOK 25/19 A3003 NOSIG=
202005120200 METAR MROC 120200Z 11008KT 080V160 CAVOK 24/19 A3005 NOSIG=
202005120300 METAR MROC 120300Z 11006KT CAVOK 24/19 A3008 NOSIG=
202005120400 METAR MROC 120400Z 11009KT CAVOK 24/19 A3010 NOSIG=
202005120500 METAR MROC 120500Z 09007KT 9999 FEW045 SCT080 24/19 A3009 NOSIG=
202005120600 METAR MROC 120600Z 08009KT CAVOK 24/19 A3006 NOSIG=
202005120700 METAR MROC 120700Z 05005KT 360V150 CAVOK 23/19 A3005 NOSIG=
202005120800 METAR MROC 120800Z 10009KT CAVOK 23/18 A3003 NOSIG=
202005120900 METAR MROC 120900Z 10008KT CAVOK 23/18 A3003 NOSIG=
202005121000 METAR MROC 121000Z 08007KT 050V110 CAVOK 22/18 A3000 NOSIG=
202005121100 METAR MROC 121100Z 06008KT CAVOK 22/18 A3000 NOSIG=
202005121200 METAR MROC 121200Z 04005KT CAVOK 23/18 A3001 NOSIG=
202005121300 METAR MROC 121300Z 07007KT CAVOK 24/18 A3003 NOSIG=
202005121400 METAR MROC 121400Z 09009KT 050V120 CAVOK 25/19 A3005 NOSIG=
202005121500 METAR MROC 121500Z 11009KT 050V160 CAVOK 27/18 A3005 NOSIG=
202005121600 METAR MROC 121600Z 11011KT 070V130 CAVOK 28/18 A3006 NOSIG=
202005121700 METAR MROC 121700Z 09010KT 060V120 CAVOK 30/18 A3005 NOSIG=
202005121800 METAR MROC 121800Z 11010KT 060V150 CAVOK 30/18 A3002 NOSIG=
202005121900 METAR MROC 121900Z 12008KT 090V170 CAVOK 29/18 A3000 NOSIG=
202005122000 METAR MROC 122000Z 12006KT 030V180 9999 SCT045 BKN130 29/18 A2999 NOSIG=
202005122100 METAR MROC 122100Z 23009KT 9999 SCT045 BKN120 27/23 A2997 NOSIG=
202005122200 METAR MROC 122200Z 23011KT 9999 FEW045 SCT120 BKN200 26/23 A2998 NOSIG=
202005122300 METAR MROC 122300Z 23011KT 9999 SCT045 BKN200 24/22 A3000 NOSIG=
202005130000 METAR MROC 130000Z 27009KT 9999 SCT010 BKN200 23/21 A3003 NOSIG=
202005130100 METAR MROC 130100Z 30006KT 9999 SCT010 BKN035 23/21 A3005 NOSIG=
202005130200 METAR MROC 130200Z 32006KT 9999 FEW015 BKN040 23/21 A3006 NOSIG=
202005130300 METAR MROC 130300Z 00000KT 9999 FEW015 BKN040 23/21 A3009 NOSIG=
202005130400 METAR MROC 130400Z VRB02KT CAVOK 22/20 A3008 NOSIG=
202005130500 METAR MROC 130500Z VRB021KT 9999 FEW045 23/20 A3007 NOSIG=
202005130600 METAR MROC 130600Z 05004KT CAVOK 22/20 A3004 NOSIG=
202005130700 METAR MROC 130700Z 03005KT CAVOK 22/19 A3001 NOSIG=
202005130800 METAR MROC NIL=
202005130900 METAR MROC 130900Z VRB02KT CAVOK 21/18 A2998 NOSIG=
202005131000 METAR MROC 131000Z 36003KT 340V060 CAVOK 21/18 A2998 NOSIG=
202005131100 METAR MROC 131100Z 04004KT 010V090 9999 FEW040 20/17 A3002 NOSIG=
202005131200 METAR MROC 131200Z 36005KT 270V050 9999 FEW045 20/18 A3003 NOSIG=
202005131300 METAR MROC 131300Z 35005KT 320V030 9999 FEW040 BKN200 24/18 A3004 NOSIG=
202005131400 METAR MROC 131400Z 10013KT 070V140 9999 FEW045 BKN200 27/18 A3004 NOSIG=
202005131500 METAR MROC 131500Z 12011G21KT 060V170 CAVOK 28/18 A3005 NOSIG=
202005131600 METAR MROC 131600Z 09010G20KT 060V130 CAVOK 28/17 A3004 NOSIG=
202005131700 METAR MROC 131700Z 09010G20KT 060V120 9999 FEW040 BKN200 30/17 A3003 NOSIG=
202005131800 METAR MROC 131800Z 15007G17KT 100V210 9999 SCT045 BKN200 30/17 A3002 BECMG 24010KT=
202005131900 METAR MROC 131900Z 26016KT 230V300 9999 FEW045 BKN200 27/23 A2999 NOSIG=
202005132000 METAR MROC 132000Z 24015KT 9999 FEW030 BKN200 26/22 A2999 NOSIG=
202005132100 METAR MROC 132100Z 24012KT 9999 SCT020CB SCT030 26/21 A2998 NOSIG=
202005132200 METAR MROC 132200Z 25008KT 9999 SCT020 SCT200 25/22 A2998 NOSIG=
202005132300 METAR MROC 132300Z COR 24007KT 210V270 9999 SCT020 BKN200 24/22 A2999 NOSIG=
202005140000 METAR MROC 140000Z 23003KT 9999 FEW010 SCT020 BKN200 23/21 A3000 NOSIG=
202005140100 METAR MROC 140100Z 24004KT 9999 FEW030 SCT045 23/21 A3003 NOSIG=
202005140200 METAR MROC 140200Z 29005KT 9999 SCT020 23/21 A3004 NOSIG=
202005140300 METAR MROC 140300Z 31004KT 9999 FEW005 22/20 A3006 NOSIG=
202005140400 METAR MROC 140400Z 32003KT 9999 FEW025 SCT100 22/20 A3006 NOSIG=
202005140500 METAR MROC 140500Z VRB02KT CAVOK 21/20 A3006 NOSIG=
202005140600 METAR MROC 140600Z 05004KT CAVOK 21/20 A3003 NOSIG=
202005140700 METAR MROC 140700Z VRB01KT 9999 SCT020 21/20 A3001 NOSIG=
202005140800 METAR MROC 140800Z VRB01KT 9999 SCT020 21/20 A3000 NOSIG=
202005140900 METAR MROC 140900Z 08003KT 9999 SCT025 21/19 A2998 NOSIG=
202005141000 METAR MROC 141000Z 08004KT 9999 SCT045 21/18 A2999 NOSIG=
202005141100 METAR MROC 141100Z 04007KT CAVOK 21/18 A3000 NOSIG=
202005141200 METAR MROC 141200Z VRB02KT CAVOK 21/18 A3003 NOSIG=
202005141300 METAR MROC 141300Z 06008KT CAVOK 24/18 A3004 NOSIG=
202005141400 METAR MROC 141400Z VRB03KT CAVOK 26/18 A3006 NOSIG=
202005141500 METAR MROC 141500Z 24008KT 9999 FEW045 SCT080 25/20 A3006 NOSIG=
202005141600 METAR MROC 141600Z 24009KT 9999 FEW020 SCT050 BKN200 25/20 A3006 NOSIG=
202005141700 METAR MROC 141700Z 26009KT 9999 FEW020 26/21 A3004 NOSIG=
202005141800 METAR MROC 141800Z 24010KT 9999 SCT020TCU 27/21 A3002 NOSIG=
202005141900 METAR MROC 141900Z 10007KT 070V140 9999 FEW015 SCT035 OVC100 22/21 A3002 RETSRA NOSIG=
202005142000 METAR MROC 142000Z 05003KT 010V120 9999 FEW045 SCT070 BKN100 24/21 A3001 NOSIG=
202005142100 METAR MROC 142100Z 25005KT 9999 BCFG FEW002 BKN090 23/20 A2999 NOSIG=
202005142200 METAR MROC 142200Z 18005KT 130V230 9999 FEW025 BKN090 25/21 A2998 NOSIG=
202005142300 METAR MROC 142300Z 13005KT 090V160 9999 FEW020TCU FEW030 BKN100 25/20 A2998 NOSIG=
202005150000 METAR MROC 150000Z 14003KT 100V170 9999 FEW025 SCT100 25/20 A2999 NOSIG=
202005150100 METAR MROC 150100Z 11006KT CAVOK 23/19 A2999 NOSIG=
202005150200 METAR MROC 150200Z 05005KT 010V090 9999 FEW005 BKN050 24/19 A3001 NOSIG=
202005150300 METAR MROC 150300Z 09004KT CAVOK 23/19 A3002 NOSIG=
202005150400 METAR MROC 150400Z 05006KT CAVOK 23/19 A3003 NOSIG=
202005150500 METAR MROC 150500Z 22003KT 190V360 0500 FG VV001 21/21 A3004 NOSIG=
202005150600 METAR MROC 150600Z 00000KT 1500 BR SCT001 BKN010 21/21 A3002 NOSIG=
202005150700 METAR MROC 150700Z 27003KT 9999 SCT002 21/21 A3000 NOSIG=
202005150800 METAR MROC 150800Z VRB02KT 8000 SCT002 20/20 A2998 NOSIG=
202005150900 METAR MROC 150900Z 00000KT 9999 SCT002 20/20 A2998 NOSIG=
202005151000 METAR MROC 151000Z VRB02KT 9999 FEW003 19/19 A2998 NOSIG=
202005151100 METAR MROC 151100Z 06006KT 9999 FEW002 20/17 A2999 NOSIG=
202005151200 METAR MROC 151200Z 03005KT 340V090 9999 FEW005 21/17 A3000 NOSIG=
202005151300 METAR MROC 151300Z VRB02KT CAVOK 24/18 A3002 NOSIG=
202005151400 METAR MROC 151400Z VRB02KT CAVOK 26/19 A3003 BECMG 28005KT=
202005151500 METAR MROC 151500Z 13008KT 080V180 CAVOK 28/18 A3002 NOSIG=
202005151600 METAR MROC 151600Z 25009KT 210V280 CAVOK 27/20 A3001 NOSIG=
202005151700 METAR MROC 151700Z 24010KT 210V270 9999 FEW040 28/22 A3000 NOSIG=
202005151800 METAR MROC 151800Z 25011KT 200V270 9999 BKN025 28/21 A2998 NOSIG=
202005151900 METAR MROC 151900Z 23011KT 190V270 9999 BKN035 27/21 A2996 NOSIG=
202005152000 METAR MROC 152000Z 25013KT 9999 TSRA SCT020CB SCT025 28/22 A2993 TEMPO 5000=
202005152100 METAR MROC 152100Z COR 03005KT 350V080 9999 4000SW TSRA FEW025 SCT030CB BKN100 21/18 A2994 NOSIG=
202005152200 METAR MROC 152200Z 15004KT 110V200 9999 VCTS SCT030 BKN100 21/19 A2994 RERA NOSIG=
202005152300 METAR MROC 152300Z VRB02KT 9999 FEW020 SCT040 BKN100 22/19 A2995 NOSIG=
202005160000 METAR MROC 160000Z VRB02KT 9999 FEW010 OVC025 23/19 A2997 NOSIG=
202005160100 METAR MROC 160100Z VRB02KT 9999 OVC020 22/20 A2998 NOSIG=
202005160200 METAR MROC 160200Z 05003KT 9999 FEW020 SCT025 22/21 A2998 NOSIG=
202005160300 METAR MROC 160300Z 04004KT CAVOK 22/21 A2998 NOSIG=
202005160400 METAR MROC 160400Z COR VRB04KT 9999 FEW020 22/20 A2999 NOSIG=
202005160500 METAR MROC 160500Z VRB01KT 0300 FG VV/// 20/20 A2999 NOSIG=
202005160600 METAR MROC 160600Z 07004KT 9999 FEW005 20/20 A2998 NOSIG=
202005160700 METAR MROC 160700Z VRB02KT 9999 BKN005 20/20 A2997 NOSIG=
202005160800 METAR MROC 160800Z VRB02KT 9999 BKN005 21/21 A2996 NOSIG=
202005160900 METAR MROC 160900Z 05004KT 9999 FEW005 BKN040 21/21 A2996 NOSIG=
202005161000 METAR MROC 161000Z VRB02KT 9999 BKN040 21/21 A2996 NOSIG=
202005161100 METAR MROC 161100Z 05002KT 9999 FEW040 21/21 A2996 NOSIG=
202005161200 METAR MROC 161200Z 04006KT 9999 FEW040 22/19 A2998 NOSIG=
202005161300 METAR MROC 161300Z 06007KT 9999 FEW040 24/19 A2999 NOSIG=
202005161400 METAR MROC 161400Z 10005KT 060V140 9999 FEW040 26/19 A3001 NOSIG=
202005161500 METAR MROC 161500Z 12008KT 080V170 CAVOK 28/18 A3002 NOSIG=
202005161600 METAR MROC 161600Z 08009KT 060V120 CAVOK 29/18 A3000 NOSIG=
202005161700 METAR MROC 161700Z 12007KT 070V170 CAVOK 30/18 A2999 BECMG 25007KT=
202005161800 METAR MROC 161800Z 24010KT 200V270 9999 FEW030 SCT060 28/22 A2997 NOSIG=
202005161900 METAR MROC 161900Z 23012KT 190V260 9999 FEW020TCU 28/22 A2994 NOSIG=
202005162000 METAR MROC 162000Z 26011KT 230V320 9999 FEW020CB FEW045 BKN060 26/21 A2995 TEMPO 5000 TSRA SCT020CB=
202005162100 METAR MROC 162100Z 20005KT 130V240 9999 -TSRA SCT020CV OVC100 22/22 A2996 NOSIG=
202005162200 METAR MROC 162200Z 12003KT 080V170 9999 -RA SCT030 OVC100 21/21 A2994 RETSRA NOSIG=
202005162300 METAR MROC 162300Z VRB02KT 9999 SCT040 OVC120 22/22 A2994 NOSIG=
202005170000 METAR MROC 170000Z 26003KT 230V300 CAVOK 22/22 A2996 NOSIG=
202005170100 METAR MROC 170100Z VRB02KT CAVOK 22/22 A2998 NOSIG=
202005170200 METAR MROC 170200Z 09003KT CAVOK 21/21 A2999 NOSIG=
202005170300 METAR MROC 170300Z 09002KT CAVOK 21/21 A2999 NOSIG=
202005170400 METAR MROC 170400Z 34003KT CAVOK 21/21 A3001 NOSIG=
202005170500 METAR MROC 170500Z 10003KT 060V120 CAVOK 21/21 A3001 NOSIG=
202005170600 METAR MROC 170600Z 09004KT CAVOK 20/20 A2999 NOSIG=
202005170700 METAR MROC 170700Z 03006KT CAVOK 20/20 A2997 NOSIG=
202005170800 METAR MROC 170800Z 04007KT CAVOK 21/20 A2996 NOSIG=
202005170900 METAR MROC 170900Z 07006KT CAVOK 22/18 A2994 NOSIG=
202005171000 METAR MROC 171000Z 08006KT 020V100 CAVOK 22/19 A2994 NOSIG=
202005171100 METAR MROC 171100Z 04007KT CAVOK 21/18 A2995 NOSIG=
202005171200 METAR MROC 171200Z 06006KT CAVOK 22/18 A2998 NOSIG=
202005171300 METAR MROC 171300Z 12003KT 080V170 CAVOK 24/18 A2997 NOSIG=
202005171400 METAR MROC 171400Z VRB02KT CAVOK 26/19 A3000 BECMG 24007KT=
202005171500 METAR MROC 171500Z VRB03KT CAVOK 28/19 A3001 NOSIG=
202005171600 METAR MROC 171600Z VRB04KT CAVOK 29/19 A3002 NOSIG=
202005171700 METAR MROC 171700Z 27008KT 240V320 9999 SCT045 29/21 A3001 NOSIG=
202005171800 METAR MROC 171800Z 25006KT 200V320 9999 SCT045 29/21 A2999 NOSIG=
202005171900 METAR MROC 171900Z 23012KT 9999 -RA VCTS BKN040 28/22 A2996 NOSIG=
202005172000 METAR MROC 172000Z 25011KT 9999 -TSRA SCT020CB BKN040 28/23 A2993 TEMPO 5000 +TSRA=
202005172100 METAR MROC 172100Z 22003KT 8000 TSRA FEW005 SCT015CB BKN025 21/19 A2994 NOSIG=
202005172200 METAR MROC 172200Z 04006KT 9999 -RA FEW002 SCT035 BKN060 22/21 A2997 RETSRA NOSIG=
202005172300 METAR MROC 172300Z 03007KT 320V090 9999 VCTS FEW005 SCT060 BKN100 24/18 A2998 NOSIG=
202005180000 METAR MROC 180000Z 04009KT CAVOK 23/19 A2999 NOSIG=
202005180100 METAR MROC 180100Z 05009KT 360V080 CAVOK 22/19 A2998 NOSIG=
202005180200 METAR MROC 180200Z 24003KT 210V270 CAVOK 22/20 A3000 NOSIG=
202005180300 METAR MROC 180300Z 07004KT 040V140 CAVOK 22/20 A3002 NOSIG=
202005180400 METAR MROC 180400Z 06004KT CAVOK 21/19 A3002 NOSIG=
202005180500 METAR MROC 180500Z VRB02KT CAVOK 21/19 A3002 NOSIG=
202005180600 METAR MROC 180600Z VRB01KT CAVOK 20/20 A3000 NOSIG=
202005180700 METAR MROC 180700Z 02004KT CAVOK 20/20 A3000 NOSIG=
202005180800 METAR MROC 180800Z 11004KT 070V140 9999 BKN030 20/20 A2999 NOSIG=
202005180900 METAR MROC 180900Z 09004KT 9999 FEW020 SCT040 21/20 A2998 NOSIG=
202005181000 METAR MROC 181000Z 09005KT 9999 FEW030 BKN070 21/19 A2999 NOSIG=
202005181100 METAR MROC 181100Z 09005KT 9999 FEW030 SCT070 21/19 A3000 NOSIG=
202005181200 METAR MROC 181200Z 02005KT 9999 FEW035 SCT200 21/19 A3001 NOSIG=
202005181300 METAR MROC 181300Z 07006KT 050V110 CAVOK 24/19 A3002 NOSIG=
202005181400 METAR MROC 181400Z 11010KT 050V160 CAVOK 26/19 A3002 NOSIG=
202005181500 METAR MROC 181500Z 11009KT 080V170 CAVOK 27/19 A3002 NOSIG=
202005181600 METAR MROC 181600Z 08008KT 050V110 9999 FEW040 SCT150 BKN200 28/19 A3003 NOSIG=
202005181700 METAR MROC 181700Z 25011KT 9999 SCT045 BKN200 27/22 A3002 NOSIG=
202005181800 METAR MROC 181800Z 24007KT 9999 -SHRA VCTS FEW020CB SCT040 BKN060 27/22 A3001 TEMPO TSRA=
202005181900 METAR MROC 181900Z 28004KT 210V010 9999 -TSRA SCT015CB BKN035 25/22 A2999 NOSIG=
202005182000 METAR MROC 182000Z 35004KT 250V010 9999 -TSRA FEW015CB SCT040 BKN070 23/21 A2998 NOSIG=
202005182100 METAR MROC 182100Z 16004KT 090V220 5000 -TSRA FEW015CB SCT040 BKN070 22/22 A2998 NOSIG=
202005182200 METAR MROC 182200Z 01004KT 350V050 9999 -RA FEW002 BKN100 22/22 A2997 NOSIG=
202005182300 METAR MROC 182300Z 24004KT 200V270 9999 3000SW BCFG FEW002 BKN120 22/22 A2998 NOSIG=
202005190000 METAR MROC 190000Z 13003KT 9999 2500SW BCFG FEW003 SCT010 BKN120 22/22 A3000 NOSIG=
202005190100 METAR MROC 190100Z 32003KT 290V350 9999 FEW035 BKN130 22/22 A3005 NOSIG=
202005190200 METAR MROC 190200Z 33004KT 9999 FEW010 SCT035 BKN140 22/22 A3008 NOSIG=
202005190300 METAR MROC 190300Z 33003KT 9999 -RA FEW005 SCT015 BKN150 22/22 A3006 NOSIG=
202005190400 METAR MROC 190400Z 10003KT 9999 FEW030 OVC100 21/21 A3004 NOSIG=
202005190500 METAR MROC 190500Z 08004KT CAVOK 22/22 A3004 NOSIG=
202005190600 METAR MROC 190600Z 28004KT 250V320 9999 FEW010 BKN100 21/21 A3002 NOSIG=
202005190700 METAR MROC 190700Z 21003KT 180V240 0500 FG VV001 21/21 A3001 NOSIG=
202005190800 METAR MROC 190800Z 23003KT 190V260 0500 FG VV002 21/21 A3000 NOSIG=
202005190900 METAR MROC 190900Z VRB02KT 1200 BR FEW002 BKN005 21/21 A2999 NOSIG=
202005191000 METAR MROC 191000Z 06003KT 9999 FEW002 SCT045 BKN110 21/21 A3001 NOSIG=
202005191100 METAR MROC 191100Z 04005KT 9999 FEW045 SCT120 21/21 A3000 NOSIG=
202005191200 METAR MROC 191200Z 06007KT 010V090 9999 FEW006 BKN120 22/21 A3001 NOSIG=
202005191300 METAR MROC 191300Z 09005KT 060V130 9999 FEW006 BKN120 23/20 A3003 NOSIG=
202005191400 METAR MROC 191400Z 23005KT CAVOK 23/21 A3005 NOSIG=
202005191500 METAR MROC 191500Z 27006KT 9999 FEW035 BKN200 24/21 A3005 NOSIG=
202005191600 METAR MROC 191600Z 25007KT 9999 FEW020 BKN200 25/22 A3005 NOSIG=
202005191700 METAR MROC 191700Z 26007KT 230V290 9999 SCT020 BKN180 25/22 A3004 NOSIG=
202005191800 METAR MROC 191800Z 25006KT 210V290 9999 SCT015 SCT030 25/21 A3002 NOSIG=
202005191900 METAR MROC 191900Z 23008KT 210V270 9999 SCT015 SCT025 25/22 A2999 NOSIG=
202005192000 METAR MROC 192000Z 24006KT 200V290 9999 SCT020 SCT040 26/21 A2996 NOSIG=
202005192100 METAR MROC 192100Z 24006KT 210V280 9999 FEW020TCU SCT025 BKN200 26/20 A2994 NOSIG=
202005192200 METAR MROC 192200Z 12004KT 030V170 9999 DZ BKN035 SCT200 26/21 A2994 NOSIG=
202005192300 METAR MROC 192300Z 08005KT 050V110 9999 FEW040 SCT100 BKN200 25/19 A2995 REDZ NOSIG=
202005200000 METAR MROC 200000Z VRB02KT 9999 FEW030 BKN100 24/19 A2998 NOSIG=
202005200100 METAR MROC 200100Z 24005KT 9999 FEW005 SCT100 23/23 A3000 NOSIG=
202005200200 METAR MROC 200200Z 26003KT 240V300 8000 BCFG BKN004 23/23 A3003 NOSIG=
202005200300 METAR MROC 200300Z 25004KT 9999 1500W -RA BCFG SCT003 BKN030 23/23 A3005 NOSIG=
202005200400 METAR MROC 200400Z 27004KT 9999 BCFG FEW002 SCT015 BKN100 22/22 A3006 NOSIG=
202005200500 METAR MROC 200500Z 25003KT 220V280 9999 BCFG SCT002 BKN025 22/22 A3006 NOSIG=
202005200600 METAR MROC 200600Z 25004KT 9999 BCFG SCT002 BKN025 22/22 A3004 NOSIG=
202005200700 METAR MROC 200700Z 26003KT 9999 FEW005 SCT015 BKN025 22/22 A3001 NOSIG=
202005200800 METAR MROC 200800Z 26003KT 9999 BCFG SCT005 BKN015 22/22 A3000 NOSIG=
202005200900 METAR MROC 200900Z 23003KT 9999 BCFG FEW005 BKN015 21/21 A2999 NOSIG=
202005201000 METAR MROC 201000Z 35002KT 9999 FEW005 SCT015 BKN035 21/21 A2999 NOSIG=
202005201100 METAR MROC 201100Z 09003KT 9999 FEW005 SCT015 BKN100 21/21 A3000 NOSIG=
202005201200 METAR MROC 201200Z 09003KT CAVOK 21/21 A3001 NOSIG=
202005201300 METAR MROC 201300Z 06004KT 9999 FEW002 SCT090 23/21 A3002 NOSIG=
202005201400 METAR MROC 201400Z 25004KT 200V300 9999 FEW010 BKN090 24/21 A3003 NOSIG=
202005201500 METAR MROC 201500Z VRB03KT 9999 FEW015 BKN100 25/21 A3004 NOSIG=
202005201600 METAR MROC 201600Z 24005KT 200V290 9999 FEW035 BKN100 26/22 A3004 NOSIG=
202005201700 METAR MROC 201700Z 25009KT 220V280 9999 FEW020TCU SCT035 SCT060 26/22 A3003 NOSIG=
202005201800 METAR MROC 201800Z 23009KT 200V260 9999 DZ FEW020TCU SCT040 SCT090 27/22 A3001 NOSIG=
202005201900 METAR MROC 201900Z 24013KT 9999 3000SW SHRA BKN020TCU 27/22 A2999 NOSIG=
202005201943 METAR MROC 201943Z 24011KT 9999 3000S RA BKN020 SCT100 25/23 A2997 RESHRA NOSIG=
202005202000 METAR MROC 202000Z 20005KT 150V260 9999 -RA SCT020TCU SCT035 SCT100 24/23 A2997 NOSIG=
202005202100 METAR MROC 202100Z 23008KT 210V270 9999 SHRA BKN015TCU 25/22 A2995 TEMPO 5000=
202005202200 METAR MROC 202200Z 26007KT 230V290 9999 FEW010 SCT015 BKN200 24/22 A2995 RESHRA NOSIG=
202005202300 METAR MROC 202300Z 25006KT 9999 -RA BKN008 SCT015 23/22 A2996 NOSIG=
202005210000 METAR MROC 210000Z 24006KT 8000 TS BKN005 SCT010CB 22/22 A2998 TEMPO TSRA=
202005210100 METAR MROC 210100Z 22005KT 8000 RA BKN004 SCT010 21/21 A3001 NOSIG=
202005210200 METAR MROC 210200Z VRB02KT 5000 -RA BR SCT001 BKN003 21/21 A3002 NOSIG=
202005210300 METAR MROC 210300Z 11003KT 9999 SCT010 BKN200 22/22 A3002 NOSIG=
202005210400 METAR MROC 210400Z 08004KT CAVOK 21/21 A3003 NOSIG=
202005210500 METAR MROC 210500Z 36003KT 350V050 9999 FEW020 22/22 A3003 NOSIG=
202005210600 METAR MROC 210600Z 13002KT 9999 FEW020 21/21 A2999 NOSIG=
202005210700 METAR MROC 210700Z 24003KT 200V270 0500 FG FEW001 BKN004 21/21 A2999 NOSIG=
202005210800 METAR MROC 210800Z 00000KT 0500 FG SCT001 BKN020 21/21 A2997 NOSIG=
202005210900 METAR MROC 210900Z 12003KT 090V170 0500 FG SCT001 21/21 A2996 NOSIG=
202005211000 METAR MROC 211000Z 36003KT 7000 FG FEW003 SCT010 20/20 A2998 NOSIG=
202005211100 METAR MROC 211100Z 10004KT CAVOK 20/20 A2998 NOSIG=
202005211200 METAR MROC 211200Z VRB02KT CAVOK 20/20 A3003 NOSIG=
202005211300 METAR MROC 211300Z 06004KT 9999 -DZ BCFG FEW035 BKN120 22/22 A3003 NOSIG=
202005211400 METAR MROC 211400Z 11003KT 9999 FEW015 BKN140 23/22 A3002 NOSIG=
202005211500 METAR MROC 211500Z 11004KT CAVOK 26/21 A3001 NOSIG=
202005211600 METAR MROC 211600Z 24005KT 200V280 9999 FEW040 SCT140 28/22 A3001 NOSIG=
202005211700 METAR MROC 211700Z 25011KT 9999 FEW030 SCT090 27/22 A3002 NOSIG=
202005211800 METAR MROC 211800Z 26010KT 200V290 9999 SCT030 27/22 A3001 NOSIG=
202005211900 METAR MROC 211900Z 24010KT 210V270 9999 VCSH FEW020TCU SCT030 27/22 A2999 NOSIG=
202005212000 METAR MROC 212000Z 25010KT 210V270 9999 -RA FEW020TCU SCT030 BKN120 25/22 A2998 NOSIG=
202005212100 METAR MROC 212100Z 13007KT 090V200 9999 BKN020TCU 24/20 A2997 TEMPO RA=
202005212200 METAR MROC 212200Z 10005KT 080V140 9999 -TSRA BKN020CB OVC100 22/22 A2998 NOSIG=
202005212300 METAR MROC 212300Z 10005KT 9999 SCT015 BKN020 22/22 A3000 RETSRA NOSIG=
202005220000 METAR MROC 220000Z 03003KT 320V070 5000 -RA BR FEW010 SCT015 BKN020 21/21 A3002 TEMPO 3000=
202005220100 METAR MROC 220100Z 07005KT 9999 -RA FEW010 BKN020 21/21 A3004 NOSIG=
202005220200 METAR MROC 220200Z 10003KT CAVOK 21/21 A3004 NOSIG=
202005220300 METAR MROC 220300Z 03006KT CAVOK 22/22 A3004 NOSIG=
202005220400 METAR MROC NIL=
202005220500 METAR MROC NIL=
202005220600 METAR MROC NIL=
202005220700 METAR MROC NIL=
202005220800 METAR MROC NIL=
202005220900 METAR MROC NIL=
202005221000 METAR MROC NIL=
202005221100 METAR MROC NIL=
202005221200 METAR MROC 221200Z 07006KT CAVOK 20/19 A3001 NOSIG=
202005221300 METAR MROC 221300Z 07004KT CAVOK 23/20 A3001 NOSIG=
202005221400 METAR MROC 221400Z 08006KT 050V110 CAVOK 26/20 A3003 BECMG 24008KT=
202005221500 METAR MROC 221500Z 12006KT 070V160 9999 FEW045 BKN160 28/20 A3003 BECMG 24008KT=
202005221600 METAR MROC 221600Z 12006KT 080V170 9999 FEW045 SCT160 29/20 A3003 NOSIG=
202005221700 METAR MROC 221700Z 14007KT 090V190 9999 FEW045 30/20 A3001 NOSIG=
202005221800 METAR MROC 221800Z 13007KT 080V200 9999 FEW045 30/20 A2999 NOSIG=
202005221900 METAR MROC 221900Z 24010KT 210V270 9999 FEW035 SCT045 29/22 A2996 NOSIG=
202005222000 METAR MROC 222000Z 22007KT 160V260 9999 -TSRA FEW015CB SCT025 BKN100 24/20 A2997 TEMPO 5000=
202005222100 METAR MROC 222100Z 07005KT 040V100 9999 -TSRA SCT015CB BKN025 20/20 A2999 NOSIG=
202005222200 METAR MROC 222200Z 08007KT 9999 -TSRA SCT025CB BKN045 21/21 A2996 RETSRA NOSIG=
202005222300 METAR MROC 222300Z 00000KT 9999 -RA FEW030 BKN100 22/22 A2997 RETSRA NOSIG=
202005230000 METAR MROC 230000Z 19003KT 9999 -RA SCT040 BKN100 22/22 A3001 NOSIG=
202005230100 METAR MROC 230100Z 02003KT 350V060 9999 FEW025 BKN100 22/22 A3003 NOSIG=
202005230200 METAR MROC 230200Z 12004KT 9999 FEW020 BKN100 21/21 A3004 NOSIG=
202005230300 METAR MROC 230300Z 14003KT CAVOK 21/21 A3006 NOSIG=
202005230400 METAR MROC 230400Z 02003KT 350V050 9999 FEW020 BKN150 21/21 A3007 NOSIG=
202005230500 METAR MROC 230500Z 11004KT CAVOK 21/21 A3005 NOSIG=
202005230600 METAR MROC 230600Z VRB01KT 9999 FEW020 BKN025 20/20 A3003 NOSIG=
202005230700 METAR MROC 230700Z 03005KT 9999 SCT020 BKN025 21/21 A3002 NOSIG=
202005230800 METAR MROC 230800Z 10003KT 9999 BKN020 20/20 A3000 NOSIG=
202005230900 METAR MROC 230900Z 10003KT 9999 SCT020 BKN025 20/20 A3001 NOSIG=
202005231000 METAR MROC 231000Z 03004KT 9999 BKN020 21/21 A3001 NOSIG=
202005231100 METAR MROC 231100Z 09005KT 9999 SCT025 20/20 A3000 NOSIG=
202005231200 METAR MROC 231200Z 09007KT 9999 FEW025 21/21 A3002 NOSIG=
202005231300 METAR MROC 231300Z 09007KT CAVOK 24/21 A3004 NOSIG=
202005231400 METAR MROC 231400Z 09004KT 050V140 9999 FEW040 SCT200 25/19 A3005 NOSIG=
202005231500 METAR MROC 231500Z 20003KT 9999 FEW040 SCT200 27/20 A3005 NOSIG=
202005231600 METAR MROC 231600Z 22008KT 180V270 9999 FEW035 BKN200 27/21 A3006 NOSIG=
202005231700 METAR MROC 231700Z 25009KT 190V340 9999 FEW035 BKN200 27/20 A3004 NOSIG=
202005231800 METAR MROC 231800Z 23008KT 190V280 9999 FEW035 BKN200 28/22 A3001 NOSIG=
202005231900 METAR MROC 231900Z 25009KT 9999 FEW030 SCT250 28/22 A2999 NOSIG=
202005232000 METAR MROC 232000Z 23008KT 200V260 9999 SCT030 BKN200 28/22 A2996 NOSIG=
202005232100 METAR MROC 232100Z 25010KT 9999 SCT030 SCT200 28/22 A2994 NOSIG=
202005232200 METAR MROC 232200Z 27011KT 9999 FEW020TCU BKN025 26/23 A2994 NOSIG=
202005232300 METAR MROC 232300Z 24008KT 9999 VCTS SCT015CB SCT020 25/23 A2996 TEMPO TSRA=
202005240000 METAR MROC 240000Z 26007KT 240V300 9999 TS SCT008 SCT015CB BKN018 24/24 A2999 TEMPO 5000=
202005240100 METAR MROC 240100Z 24004KT 9999 -RA FEW005 BKN020 23/23 A2999 RETS NOSIG=
202005240200 METAR MROC 240200Z 24004KT 9999 SCT005 BKN020 23/23 A3000 NOSIG=
202005240300 METAR MROC 240300Z 24003KT 9999 BKN010 22/22 A3002 NOSIG=
202005240400 METAR MROC 240400Z 18003KT 130V230 9999 BKN015 22/22 A3003 NOSIG=
202005240500 METAR MROC 240500Z VRB02KT 9999 BKN010 22/22 A3004 NOSIG=
202005240600 METAR MROC 240600Z VRB02KT 9999 BKN010 22/22 A3002 NOSIG=
202005240700 METAR MROC 240700Z 00000KT 9999 OVC009 22/22 A3001 NOSIG=
202005240800 METAR MROC 240800Z 11002KT 9999 FEW015 SCT120 22/22 A2998 NOSIG=
202005240900 METAR MROC 240900Z VRB02 9999 FEW040 SCT130 22/22 A2997 NOSIG=
202005241000 METAR MROC 241000Z 03003KT CAVOK 22/21 A2997 NOSIG=
202005241100 METAR MROC 241100Z 25003KT 9999 FEW006 BKN045 22/22 A2999 NOSIG=
202005241200 METAR MROC 241200Z 01002KT 9999 FEW004 22/22 A3001 NOSIG=
202005241300 METAR MROC 241300Z 01003KT 320V090 9999 FEW005 24/21 A3002 NOSIG=
202005241400 METAR MROC 241400Z 23006KT CAVOK 25/21 A3002 NOSIG=
202005241500 METAR MROC 241500Z 24006KT 200V280 CAVOK 26/22 A3003 NOSIG=
202005241600 METAR MROC 241600Z 25007KT 220V280 9999 FEW020 SCT100 28/22 A3002 NOSIG=
202005241700 METAR MROC 241700Z 25009KT 190V290 9999 FEW025 28/23 A3000 NOSIG=
202005241800 METAR MROC 241800Z 24010KT 210V270 9999 FEW020TCU SCT030 BKN200 28/23 A2998 NOSIG=
202005241900 METAR MROC 241900Z 25011KT 220V280 9999 TS FEW020CB SCT035 28/23 A2996 NOSIG=
202005242000 METAR MROC 242000Z 07008KT 340V110 9999 -TSRA FEW015CB SCT030 BKN090 26/19 A2996 NOSIG=
202005242024 METAR MROC 242024Z 15007KT 100V230 9999 -TSRA FEW021CB BKN030 24/19 A2995 BECMG TSRA=
202005242035 METAR MROC 242035Z 14006KT 090V190 4000 TSRA FEW020CB BKN025 22/21 A2996 NOSIG=
202005242100 METAR MROC 242100Z 12003KT 060V180 9999 4000S -TSRA FEW015CB SCT035 BKN100 22/20 A2995 NOSIG=
202005242200 METAR MROC 242200Z 09005KT 050V140 9999 VCTS FEW015CB FEW030 OVC100 23/20 A2993 RETSRA NOSIG=
202005242300 METAR MROC 242300Z VRB02KT 9999 SCT001 SCT045 21/21 A2997 NOSIG=
202005250000 METAR MROC 250000Z 33003KT 290V360 9999 FEW001 BKN100 21/21 A2996 NOSIG=
202005250100 METAR MROC 250100Z 14004KT 110V180 9999 FEW035 BKN100 21/21 A2997 NOSIG=
202005250200 METAR MROC 250200Z 14003KT 080V180 9999 FEW045 BKN100 22/22 A2997 NOSIG=
202005250300 METAR MROC 250300Z 32003KT CAVOK 22/22 A2998 NOSIG=
202005250400 METAR MROC 250400Z 11003KT 9999 BCFG FEW035 21/21 A3000 NOSIG=
202005250500 METAR MROC 250500Z 02003KT 9999 BKN035 21/21 A3000 NOSIG=
202005250600 METAR MROC 250600Z VRB02KT 9999 BKN035 22/22 A2999 NOSIG=
202005250700 METAR MROC 250700Z 08003KT 9999 BKN035 21/21 A2996 NOSIG=
202005250800 METAR MROC 250800Z 08003KT 9999 FEW025 BKN035 22/22 A2994 NOSIG=
202005250900 METAR MROC 250900Z VRB02KT 9999 FEW025 BKN035 22/22 A2994 NOSIG=
202005251000 METAR MROC 251000Z 06004KT 9999 SCT040 BKN100 22/21 A2995 NOSIG=
202005251100 METAR MROC 251100Z 06007KT CAVOK 21/20 A2995 NOSIG=
202005251200 METAR MROC 251200Z VRB02KT CAVOK 21/20 A2997 NOSIG=
202005251300 METAR MROC 251300Z VRB02KT 9999 4000SW FEW020 SCT200 25/20 A3001 NOSIG=
202005251400 METAR MROC 251400Z VRB02KT 9999 FEW030 SCT250 26/20 A3000 NOSIG=
202005251500 METAR MROC 251500Z VRB02KT 9999 FEW035 BKN250 27/21 A3000 NOSIG=
202005251600 METAR MROC 251600Z 25006KT 210V300 9999 FEW020 BKN200 27/22 A3000 NOSIG=
202005251700 METAR MROC 251700Z 25010KT 210V270 9999 FEW025 BKN200 26/23 A3000 NOSIG=
202005251800 METAR MROC 251800Z 26008KT 220V300 9999 SCT030 BKN200 26/22 A2998 NOSIG=
202005251900 METAR MROC 251900Z 24007KT 9999 TS FEW020CB SCT035 SCT200 26/22 A2996 NOSIG=
202005252000 METAR MROC 252000Z 23009KT 9999 4000N -TSRA FEW010 BKN20CB 25/23 A2994 NOSIG=
202005252100 METAR MROC 252100Z 33003KT 260V030 9999 RA FEW013 SCT020 BKN100 25/21 A2994 RESHRA NOSIG=
202005252200 METAR MROC 252200Z 24006KT 9999 -RA VCTS FEW009 SCT012 BKN040 24/22 A2995 NOSIG=
202005252300 METAR MROC 252300Z 20007KT 5000 -TSRA BR OVC009CB 22/22 A2997 NOSIG=
202005260000 METAR MROC 260000Z 01003KT 9999 RA FEW035 BKN100 22/22 A2997 NOSIG=
202005260100 METAR MROC 260100Z VRB02KT 8000 -RA FEW010 BKN040 22/22 A3000 NOSIG=
202005260200 METAR MROC 260200Z 28003KT 250V310 9999 -RA BKN007 22/22 A3001 NOSIG=
202005260300 METAR MROC 260300Z 01003KT 320V060 9999 BCFG FEW003 BKN020 22/22 A3001 NOSIG=
202005260400 METAR MROC 260400Z 12003KT 090V160 9999 FEW020 22/22 A3001 NOSIG=
202005260500 METAR MROC 260500Z 12003KT 9999 FEW020 22/22 A3000 NOSIG=
202005260600 METAR MROC 260600Z 11003KT 080V140 9999 FEW020 21/21 A2999 NOSIG=
202005260700 METAR MROC 260700Z 07003KT 9999 FEW020 22/22 A2998 NOSIG=
202005260800 METAR MROC 260800Z 22003KT 9999 FEW003 21/21 A2996 NOSIG=
202005260900 METAR MROC 260900Z 05004KT CAVOK 21/21 A2995 NOSIG=
202005261000 METAR MROC 261000Z 05004KT CAVOK 21/21 A2994 NOSIG=
202005261100 METAR MROC 261100Z VRB02KT CAVOK 21/21 A2995 NOSIG=
202005261200 METAR MROC 261200Z VRB02KT 9999 BCFG FEW003 BKN200 22/22 A2999 NOSIG=
202005261300 METAR MROC 261300Z VRB02KT 9999 FEW015 SCT100 24/22 A3001 NOSIG=
202005261400 METAR MROC 261400Z VRB02KT 9999 FEW015 SCT200 26/21 A3001 NOSIG=
202005261500 METAR MROC 261500Z 24007KT 200V270 9999 FEW020 SCT200 25/22 A2999 NOSIG=
202005261600 METAR MROC 261600Z 24006KT 200V270 CAVOK 27/22 A3000 NOSIG=
202005261700 METAR MROC 261700Z 24007KT 200V260 9999 FEW040 SCT200 28/22 A2999 NOSIG=
202005261800 METAR MROC 261800Z 25007KT 220V280 9999 FEW045 SCT200 28/22 A2997 NOSIG=
202005261900 METAR MROC 261900Z 24008KT 9999 SCT030 SCT200 28/24 A2994 TEMPO 5000 TSRA SCT020CB=
202005262000 METAR MROC 262000Z 26011KT 9999 -RA VCTS SCT020TCU SCT200 25/23 A2993 TEMPO 3000 TSRA SCT020CB=
202005262100 METAR MROC 262100Z 29006KT 240V040 8000 -TSRA SCT025CB OVC100 22/22 A2994 TEMPO 5000 RA BR=
202005262200 METAR MROC 262200Z VRB02KT 9999 SCT015 OVC100 21/21 A2994 RETSRA NOSIG=
202005262300 METAR MROC 262300Z VRB02KT 9999 SCT010 BKN020 22/22 A2997 NOSIG=
202005270000 METAR MROC 270000Z 31003KT 5000 -TSRA BR FEW010CB SCT025 OVC100 22/22 A2998 NOSIG=
202005270100 METAR MROC 270100Z 14004KT 9999 -RA FEW030 OVC100 22/22 A2997 RETSRA NOSIG=
202005270200 METAR MROC 270200Z 07006KT CAVOK 22/22 A3001 NOSIG=
202005270300 METAR MROC 270300Z VRB02KT CAVOK 21/21 A3002 NOSIG=
202005270400 METAR MROC 270400Z 31003KT 280V360 9999 4000SW R07/1100D FEW001 BKN200 21/21 A3005 NOSIG=
202005270500 METAR MROC 270500Z VRB02KT 4000 BR BKN001 22/22 A3005 NOSIG=
202005270600 METAR MROC 270600Z 02002KT 6000 BCFG FEW001 BKN020 21/21 A3003 NOSIG=
202005270700 METAR MROC 270700Z 09004KT 9999 FEW020 SCT250 21/21 A2999 NOSIG=
202005270800 METAR MROC 270800Z 10005KT CAVOK 21/21 A2996 NOSIG=
202005270900 METAR MROC 270900Z 08006KT CAVOK 22/21 A2996 NOSIG=
202005271000 METAR MROC 271000Z 07008KT CAVOK 22/20 A2994 NOSIG=
202005271100 METAR MROC 271100Z 06005KT CAVOK 22/19 A2995 NOSIG=
202005271200 METAR MROC 271200Z 03008KT CAVOK 22/19 A2997 NOSIG=
202005271300 METAR MROC 271300Z 03008KT CAVOK 22/19 A2997 NOSIG=
202005271400 METAR MROC 271400Z 25005KT 9999 SCT030 23/21 A3004 NOSIG=
202005271500 METAR MROC 271500Z 27004KT 230V330 9999 BKN030 25/21 A3003 NOSIG=
202005271600 METAR MROC 271600Z 07003KT 020V140 9999 FEW030 BKN250 27/20 A3001 NOSIG=
202005271700 METAR MROC 271700Z 15006KT 110V200 9999 FEW040 BKN250 29/19 A3002 NOSIG=
202005271800 METAR MROC 271800Z 22011KT 9999 SCT030 BKN250 27/23 A3001 NOSIG=
202005271900 METAR MROC 271900Z 23008KT 9999 SCT030 BKN120 24/22 A2994 NOSIG=
202005272000 METAR MROC 272000Z 26012KT 9999 BKN025 23/21 A2998 NOSIG=
202005272100 METAR MROC 272100Z 30007KT 250V340 9999 VCTS VCSH SCT015CB BKN025 25/21 A2998 NOSIG=
202005272200 METAR MROC 272200Z 25006KT 3000 -RA BR FEW005 SCT015 BKN045 22/21 A2998 RETS NOSIG=
202005272300 METAR MROC 272300Z 21004KT 150V270 4500 -TSRA FEW005 SCT015 BKN025 21/21 A3002 NOSIG=
202005280000 METAR MROC 280000Z 03006KT 9999 FEW015 SCT025 BKN040 21/21 A3003 RETSRA NOSIG=
202005280100 METAR MROC 280100Z 09004KT CAVOK 21/21 A3003 NOSIG=
202005280200 METAR MROC 280200Z 09008KT 9999 -RA NSC 21/21 A3009 NOSIG=
202005280300 METAR MROC 280300Z 08008KT 9999 -RA NSC 20/20 A3009 NOSIG=
202005280400 METAR MROC 280400Z 05004KT 9999 -RA NSC 20/19 A3005 NOSIG=
202005280500 METAR MROC 280500Z 08007KT CAVOK 20/19 A3003 NOSIG=
202005280600 METAR MROC 280600Z 09009KT CAVOK 21/16 A3001 NOSIG=
202005280700 METAR MROC 280700Z 08008KT CAVOK 21/16 A2999 NOSIG=
202005280800 METAR MROC 280800Z 07003KT 030V110 CAVOK 21/17 A3000 NOSIG=
202005280900 METAR MROC 280900Z VRB02KT CAVOK 20/17 A3002 NOSIG=
202005281000 METAR MROC 281000Z 05003KT CAVOK 19/17 A3001 NOSIG=
202005281100 METAR MROC 281100Z 05005KT CAVOK 19/17 A3001 NOSIG=
202005281200 METAR MROC 281200Z 03004KT CAVOK 19/16 A3004 NOSIG=
202005281300 METAR MROC 281300Z 07004KT 040V160 CAVOK 22/17 A3004 NOSIG=
202005281400 METAR MROC 281400Z 13003KT 080V200 CAVOK 25/19 A3003 BECMG 25006KT=
202005281500 METAR MROC 281500Z 25006KT CAVOK 25/18 A3004 NOSIG=
202005281600 METAR MROC 281600Z 26006KT 230V290 9999 FEW040 BKN150 25/19 A3004 NOSIG=
202005281700 METAR MROC 281700Z 25008KT 220V280 9999 FEW035 BKN150 25/20 A3004 NOSIG=
202005281800 METAR MROC 281800Z 24006KT 200V290 9999 SCT035 BKN150 26/21 A3002 NOSIG=
202005281900 METAR MROC 281900Z 23006KT 9999 VCSH FEW020 SCT035 BKN100 24/21 A3000 NOSIG=
202005282000 METAR MROC 282000Z 23006KT 190V250 9999 SCT010 BKN070 23/21 A3000 TEMPO RA=
202005282100 METAR MROC 282100Z 22008KT 180V250 7000 -RA VCTS FEW015 SCT025 BKN070 22/22 A2998 NOSIG=
202005282200 METAR MROC 282200Z 31006KT 260V340 5000 -RA SCT005 BKN025 21/21 A3000 NOSIG=
202005282300 METAR MROC 282300Z 27005KT 7000 -RA FEW005 SCT020 BKN060 21/21 A3002 NOSIG=
202005290000 METAR MROC 290000Z 30003KT 8000 -RA FEW005 SCT020 BKN060 21/21 A3004 NOSIG=
202005290100 METAR MROC 290100Z 25002KT 9999 -RA FEW010 SCT040 BKN100 20/20 A3005 NOSIG=
202005290200 METAR MROC 290200Z 12002KT 9999 -RA FEW010 SCT060 BKN100 21/21 A3007 NOSIG=
202005290300 METAR MROC 290300Z 09004KT 9999 -RA NSC 20/20 A3008 NOSIG=
202005290400 METAR MROC 290400Z 08004KT CAVOK 20/20 A3009 NOSIG=
202005290500 METAR MROC 290500Z 06007KT CAVOK 21/20 A3008 NOSIG=
202005290600 METAR MROC 290600Z 07006KT CAVOK 21/20 A3005 NOSIG=
202005290700 METAR MROC 290700Z 08005KT CAVOK 21/19 A3002 NOSIG=
202005290800 METAR MROC 290800Z VRB02KT CAVOK 20/20 A3000 NOSIG=
202005290900 METAR MROC 290900Z 25003KT CAVOK 20/20 A3001 NOSIG=
202005291000 METAR MROC 291000Z 33003KT CAVOK 20/20 A3001 NOSIG=
202005291100 METAR MROC 291100Z 15003KT CAVOK 19/19 A3002 NOSIG=
202005291200 METAR MROC 291200Z 10003KT CAVOK 20/20 A3004 NOSIG=
202005291300 METAR MROC 291300Z 02002KT 9999 SCT020 BKN100 21/20 A3007 NOSIG=
202005291400 METAR MROC 291400Z VRB02KT 9999 BKN020 22/20 A3008 NOSIG=
202005291500 METAR MROC 291500Z 30004KT 270V340 9999 FEW005 BKN020 23/20 A3008 NOSIG=
202005291600 METAR MROC 291600Z 29005KT 230V330 9999 BKN025 24/20 A3007 NOSIG=
202005291700 METAR MROC 291700Z 25006KT 210V310 9999 VCSH BKN020 25/20 A3006 NOSIG=
202005291800 METAR MROC 291800Z 25007KT 9999 BKN020 SCT080 24/21 A3004 NOSIG=
202005291900 METAR MROC 291900Z 25007KT 220V290 9999 BKN015 SCT080 24/22 A3002 RERA NOSIG=
202005292000 METAR MROC 292000Z 26008KT 230V290 9999 SCT015 SCT100 25/22 A2999 NOSIG=
202005292100 METAR MROC 292100Z 26009KT 9999 FEW015 BKN025 25/21 A2998 NOSIG=
202005292200 METAR MROC 292200Z 26006KT 230V290 9999 RA BKN004 22/22 A3000 NOSIG=
202005292300 METAR MROC 292300Z 27005KT 9999 -RA SCT010 BKN100 22/22 A3001 NOSIG=
202005300000 METAR MROC 300000Z 26005KT 230V290 9999 -RA FEW008 SCT010 BKN100 22/22 A3003 NOSIG=
202005300100 METAR MROC 300100Z 27004KT 9999 +DZ FEW005 BKN015 21/21 A3005 NOSIG=
202005300200 METAR MROC 300200Z 29003KT 250V320 9999 -DZ FEW001 BKN020 22/22 A3007 NOSIG=
202005300300 METAR MROC 300300Z 30003KT 9999 -RA FEW005 SCT015 BKN100 22/22 A3009 NOSIG=
202005300400 METAR MROC 300400Z VRB02KT 9999 -RA BCFG FEW005 SCT020 BKN100 21/21 A3009 NOSIG=
202005300500 METAR MROC 300500Z 25003KT 3000 BR FEW002 SCT010 BKN020 21/21 A3008 NOSIG=
202005300600 METAR MROC 300600Z 00000KT 3000 BR SCT002 BKN010 21/21 A3006 NOSIG=
202005300700 METAR MROC 300700Z VRB02KT 1500 BR SCT002 BKN010 21/21 A3004 NOSIG=
202005300800 METAR MROC 300800Z 27005KT 240V310 3000 -RA BR SCT002 BKN010 21/21 A3004 NOSIG=
202005300900 METAR MROC 300900Z 31003KT 290V350 8000 VCFG FEW002 SCT005 BKN020 20/20 A3004 NOSIG=
202005301000 METAR MROC 301000Z 29003KT 9999 VCFG FEW008 BKN020 20/20 A3004 NOSIG=
202005301100 METAR MROC 301100Z VRB01KT 9999 VCFG FEW008 SCT020 BKN100 20/20 A3004 NOSIG=
202005301200 METAR MROC 301200Z VRB02KT 9999 FEW010 SCT020 BKN045 20/20 A3005 NOSIG=
202005301300 METAR MROC 301300Z 24002KT 9999 FEW008 SCT020 BKN100 22/21 A3007 NOSIG=
202005301400 METAR MROC 301400Z 25003KT 190V300 9999 SCT020 BKN100 22/21 A3008 NOSIG=
202005301500 METAR MROC 301500Z VRB03KT 9999 FEW010 SCT025 BKN090 24/19 A3008 NOSIG=
202005301600 METAR MROC 301600Z 26004KT 210V310 9999 FEW030 SCT025 BKN200 25/20 A3007 NOSIG=
202005301700 METAR MROC 301700Z 25006KT 200V280 9999 FEW030 BKN200 25/20 A3006 NOSIG=
202005301800 METAR MROC 301800Z 24008KT 9999 FEW035 SCT090 BKN200 26/21 A3004 NOSIG=
202005301900 METAR MROC 301900Z 28008KT 9999 FEW020TCU FEW035 BKN200 25/20 A3002 NOSIG=
202005302000 METAR MROC 302000Z 21008KT 190V250 9999 RA FEW020TCU FEW030 BKN140 25/21 A3000 NOSIG=
202005302100 METAR MROC 302100Z 20007KT 9999 -RA FEW025TCU BKN100 23/20 A2999 NOSIG=
202005302200 METAR MROC 302200Z 23005KT 9999 -RA FEW015 BKN100 23/20 A3000 NOSIG=
202005302300 METAR MROC 302300Z 22003KT 190V250 9999 FEW015 SCT030 BKN120 22/20 A3002 NOSIG=
202005310000 METAR MROC 310000Z 27004KT 9999 RA FEW010 SCT030 BKN100 22/20 A3005 BECMG BKN010=
202005310100 METAR MROC 310100Z 28004KT 9999 SCT005 BKN010 22/22 A3006 RERA NOSIG=
202005310200 METAR MROC 310200Z VRB02KT 9999 BCFG SCT004 SCT030 21/21 A3009 NOSIG=
202005310300 METAR MROC 310300Z 00000KT 9999 FEW015 SCT030 21/21 A3010 NOSIG=
202005310400 METAR MROC 310400Z 29003KT 9999 FEW005 BKN100 21/21 A3011 NOSIG=
202005310500 METAR MROC 310500Z 24004KT 9999 FEW002 SCT005 OVC015 21/21 A3012 NOSIG=
202005310600 METAR MROC 310600Z 27003KT 9999 BKN005 21/21 A3010 NOSIG=
202005310700 METAR MROC 310700Z 25003KT 9999 FEW002 BKN007 21/21 A3008 NOSIG=
202005310800 METAR MROC 310800Z 26006KT 3000 BR FEW001 BKN005 20/20 A3007 NOSIG=
202005310900 METAR MROC 310900Z 35003KT 310V050 FEW002 BKN200 20/20 A3005 NOSIG=
202005311000 METAR MROC 311000Z 09004KT CAVOK 20/20 A3004 NOSIG=
202005311100 METAR MROC 311100Z 07005KT CAVOK 20/20 A3003 NOSIG=
202005311200 METAR MROC 311200Z VRB02KT CAVOK 21/21 A3006 NOSIG=
202005311300 METAR MROC 311300Z 23003KT 9999 VCFG SCT002 BKN130 21/21 A3008 NOSIG=
202005311400 METAR MROC 311400Z 27004KT 230V290 9999 FEW005 BKN200 22/21 A3010 NOSIG=
202005311500 METAR MROC 311500Z 25004KT 200V300 9999 SCT015 BKN200 24/20 A3011 NOSIG=
202005311600 METAR MROC 311600Z 26004KT 220V290 9999 FEW025 SCT200 25/20 A3010 NOSIG=
202005311700 METAR MROC 311700Z 25006KT 210V300 9999 FEW030 BKN200 26/19 A3009 NOSIG=
202005311800 METAR MROC 311800Z 26010KT 220V300 9999 FEW030 BKN180 26/20 A3007 NOSIG=
202005311900 METAR MROC 311900Z 24008KT 200V270 9999 VCSH FEW020TCU SCT030 BKN180 26/21 A3005 NOSIG=
202005312000 METAR MROC 312000Z 22008KT 9999 FEW015TCU SCT025 BKN100 24/21 A3004 NOSIG=
202005312100 METAR MROC 312100Z 22008KT 8000 -TSRA FEW010CB SCT020 OVC100 20/20 A3004 NOSIG=
202005312200 METAR MROC 312200Z 25008KT 5000 -RA BR FEW004 SCT010 OVC100 21/21 A3004 NOSIG=
202005312300 METAR MROC 312300Z 23003KT 9999 -RA FEW004 SCT020 OVC100 21/21 A3003 NOSIG=
202006010000 METAR MROC 010000Z VRB02KT 9999 -RA FEW005 SCT025 OVC110 21/21 A3005 NOSIG=
202006010100 METAR MROC 010100Z VRB02KT 9999 FEW006 OVC110 21/21 A3007 NOSIG=
202006010200 METAR MROC 010200Z 07003KT CAVOK 21/21 A3009 NOSIG=
202006010300 METAR MROC 010300Z 09004KT CAVOK 21/21 A3010 NOSIG=
202006010400 METAR MROC 010400Z 26003KT 9999 FEW001 BKN200 21/21 A3011 NOSIG=
202006010500 METAR MROC 010500Z 19003KT 0500 FG FEW001 SCT003 20/20 A3010 NOSIG=
202006010600 METAR MROC 010600Z VRB02KT 0500 R07/P2000N FG FEW001 SCT003 20/20 A3010 NOSIG=
202006010700 METAR MROC 010700Z 05003KT 9999 4000SW FEW002 20/20 A3006 NOSIG=
202006010800 METAR MROC 010800Z 08003KT 040V110 9999 4000SW FEW001 SCT200 20/20 A3003 NOSIG=
202006010900 METAR MROC 010900Z 01003KT 340V050 9999 FEW001 SCT200 20/19 A3002 NOSIG=
202006011000 METAR MROC 011000Z 30003KT 260V330 1500 BR SCT001 BKN010 20/20 A3003 TEMPO 0800 FG=
202006011100 METAR MROC 011100Z VRB02KT 9999 1500SW BCFG SCT001 BKN080 19/19 A3004 NOSIG=
202006011200 METAR MROC 011200Z VRB02KT CAVOK 19/19 A3006 NOSIG=
202006011300 METAR MROC 011300Z VRB02KT 9999 FEW002 SCT100 22/19 A3008 NOSIG=
202006011400 METAR MROC 011400Z 24004KT 200V270 CAVOK 24/20 A3008 NOSIG=
202006011500 METAR MROC 011500Z 24009KT 9999 FEW040 24/21 A3009 NOSIG=
202006011600 METAR MROC 011600Z 25009KT 210V270 9999 FEW030 25/21 A3010 NOSIG=
202006011700 METAR MROC 011700Z 25006KT 210V290 9999 FEW020 BKN030 26/20 A3008 NOSIG=
202006011800 METAR MROC 011800Z 23006KT 210V270 9999 -RA FEW023TCU SCT030 25/21 A3006 NOSIG=
202006011900 METAR MROC 011900Z 25009KT 9999 -RA VCTS FEW015TCU SCT030 SCT090 25/21 A3004 NOSIG=
202006012000 METAR MROC 012000Z 27006KT 250V320 4000 RA FEW00CB SCT015 OVC030 24/22 A3002 RESHRA TEMPO 3000 TSRA=
202006012100 METAR MROC 012100Z 25007KT 220V290 9999 SCT006 BKN015 22/22 A3000 RERA NOSIG=
202006012200 METAR MROC 012200Z 25008KT 9999 BKN007 22/22 A3001 TEMPO RA=
202006012300 METAR MROC 012300Z 20005KT 170V240 5000 -TSRA SCT010CB OVC100 21/21 A3002 TEMPO 3000=
202006020000 METAR MROC 020000Z 26007KT 5000 -RA BR FEW004 SCT010 OVC100 21/21 A3005 RETSRA TEMPO 3000 BKN015=
202006020100 METAR MROC 020100Z 24003KT 5000 -RA BR SCT004 OVC100 20/20 A3008 RETSRA TEMPO 3000 BR BKN015=
202006020200 METAR MROC 020200Z VRB02KT 1500 BR SCT002 BKN010 20/20 A3010 NOSIG=
202006020300 METAR MROC 020300Z 21003KT 150V240 1000 BR VV002 20/20 A3011 NOSIG=
202006020400 METAR MROC 020400Z 26003KT 0200 FG VV002 20/20 A3012 NOSIG=
202006020500 METAR MROC 020500Z VRB01KT 1000 R07/1500U BR SCT002 OVC004 20/20 A3010 NOSIG=
202006020600 METAR MROC 020600Z 00000KT 9999 2000SW BCFG OVC002 20/20 A3008 TEMPO 5000 BR=
202006020700 METAR MROC 020700Z VRB02KT 9999 FEW007 20/20 A3004 NOSIG=
202006020800 METAR MROC 020800Z 04004KT 9999 4500S BCFG FEW002 20/20 A3002 NOSIG=
202006020900 METAR MROC 020900Z VRB01KT 0100 FG VV001 19/19 A3001 NOSIG=
202006021000 METAR MROC 021000Z VRB02KT 0300 R07/1800U FG VV002 20/20 A3001 NOSIG=
202006021100 METAR MROC 021100Z 08004KT 9999 FEW002 19/19 A3001 NOSIG=
202006021200 METAR MROC 021200Z 03005KT 360V060 CAVOK 19/19 A3003 NOSIG=
202006021300 METAR MROC 021300Z 06008KT 9999 VCFG FEW045 22/20 A3005 NOSIG=
202006021400 METAR MROC 021400Z 10006KT CAVOK 24/19 A3007 NOSIG=
202006021500 METAR MROC 021500Z 35004KT 320V030 CAVOK 25/19 A3007 NOSIG=
202006021600 METAR MROC 021600Z 26006KT 230V290 9999 FEW040 BKN200 25/20 A3007 NOSIG=
202006021700 METAR MROC 021700Z 27005KT 200V290 9999 FEW030 BKN200 26/21 A3006 NOSIG=
202006021800 METAR MROC 021800Z 26006KT 230V300 9999 VCSH FEW020TCU FEW030 SCT180 27/20 A3004 BECMG TSRA=
202006021900 METAR MROC 021900Z 24006KT 200V270 9999 VCSH VCTS FEW020TCU FEW035 SCT130 26/21 A3002 NOSIG=
202006022000 METAR MROC 022000Z 12008KT 090V170 9999 1800SW TSRA FEW010CB SCT020 OVC100 21/21 A3000 NOSIG=
202006022100 METAR MROC 022100Z 22005KT 150V280 9999 2000SW -TSRA FEW015CB OVC100 21/21 A2999 NOSIG=
202006022200 METAR MROC 022200Z 34005KT 310V010 9999 FEW005 SCT035 OVC100 21/21 A3000 NOSIG=
202006022300 METAR MROC 022300Z 28004KT 9999 FEW005 BKN100 21/21 A3002 NOSIG=
202006030000 METAR MROC 030000Z 01003KT 9999 FEW005 SCT090 OVC200 21/21 A3002 NOSIG=
202006030100 METAR MROC 030100Z VRB02KT CAVOK 21/21 A3004 NOSIG=
202006030200 METAR MROC 030200Z 27003KT 9999 FEW020 OVC100 21/21 A3007 NOSIG=
202006030235 METAR MROC 030235Z VRB02KT 4000 BR OVC005 21/21 A3009 NOSIG=
202006030300 METAR MROC 030300Z 26003KT 230V320 4000 BR OVC010 21/21 A3010 NOSIG=
202006030400 METAR MROC 030400Z VRB02KT 9999 FEW010 BKN100 21/21 A3009 NOSIG=
202006030500 METAR MROC 030500Z VRB01KT 9999 FEW015 BKN100 21/21 A3008 NOSIG=
202006030600 METAR MROC 030600Z 35003KT 9999 FEW020 SCT100 21/21 A3005 NOSIG=
202006030700 METAR MROC 030700Z 12003KT CAVOK 21/21 A3002 NOSIG=
202006030800 METAR MROC 030800Z 02003KT CAVOK 20/20 A3000 NOSIG=
202006030900 METAR MROC 030900Z 10003KT 070V130 CAVOK 20/20 A2998 NOSIG=
202006031000 METAR MROC 031000Z 04003KT CAVOK 29/20 A2998 NOSIG=
202006031100 METAR MROC 031100Z 21002KT CAVOK 20/20 A2998 NOSIG=
202006031200 METAR MROC 031200Z 08004KT 9999 FEW008 BKN100 20/20 A2998 NOSIG=
202006031300 METAR MROC 031300Z VRB02KT CAVOK 22/20 A3000 NOSIG=
202006031400 METAR MROC 031400Z VRB01KT 9999 FEW001 25/21 A3001 BECMG 24009KT=
202006031500 METAR MROC 031500Z 27005KT 240V300 9999 FEW040 SCT200 25/21 A3002 NOSIG=
202006031600 METAR MROC 031600Z 25009KT 220V280 9999 FEW020 SCT100 BKN200 25/21 A3002 NOSIG=
202006031700 METAR MROC 031700Z 24007KT 220V290 9999 SCT020 BKN160 25/22 A3002 NOSIG=
202006031800 METAR MROC 031800Z 24008KT 9999 VCTS BKN040 25/21 A2999 NOSIG=
202006031900 METAR MROC 031900Z 23012KT 9999 -RA BKN030 23/22 A2997 NOSIG=
202006032000 METAR MROC 032000Z 24009KT 9999 BKN025 24/22 A2995 NOSIG=
202006032100 METAR MROC 032100Z 25010KT 9999 2000SW -RA SCT005 OVC080 22/22 A2994 NOSIG=
202006032122 METAR MROC 032122Z 24007KT 220V280 9999 -TSRA FEW020CB BKN005 21/21 A2995 NOSIG=
202006032200 METAR MROC 032200Z 25006KT 220V280 9000 4000N -RA VCTS FEW015CB SCT005 BKN090 21/21 A2996 RETS NOSIG=
202006032300 METAR MROC 032300Z 36004KT 5000 -RA BR FEW010 OVC070 21/21 A2999 NOSIG=
202006040000 METAR MROC 040000Z 03005KT 9999 -RA FEW005 OVC100 20/20 A2999 NOSIG=
202006040100 METAR MROC 040100Z 09003KT 030V130 9999 -RA FEW005 OVC120 20/20 A3001 NOSIG=
202006040200 METAR MROC 040200Z 06003KT 020V080 CAVOK 20/20 A3002 RERA NOSIG=
202006040300 METAR MROC 040300Z 03003KT CAVOK 20/20 A3003 NOSIG=
202006040400 METAR MROC 040400Z 07003KT CAVOK 20/20 A3001 NOSIG=
202006040500 METAR MROC 040500Z 07003KT CAVOK 20/20 A3000 NOSIG=
202006040600 METAR MROC 040600Z 01003KT CAVOK 20/20 A3001 NOSIG=
202006040700 METAR MROC 040700Z 10003KT 050V150 CAVOK 20/20 A2999 NOSIG=
202006040800 METAR MROC 040800Z 06003KT CAVOK 20/20 A2997 NOSIG=
202006040900 METAR MROC 040900Z 06004KT CAVOK 20/20 A2995 NOSIG=
202006041000 METAR MROC 041000Z 07003KT CAVOK 20/20 A2996 NOSIG=
202006041100 METAR MROC 041100Z 08004KT CAVOK 20/19 A2996 NOSIG=
202006041200 METAR MROC 041200Z 10005KT CAVOK 19/19 A2998 NOSIG=
202006041300 METAR MROC 041300Z 00000KT 9999 FEW001 SCT100 22/19 A3001 NOSIG=
202006041400 METAR MROC 041400Z 16003KT 100V210 9999 SCT020 SCT110 23/21 A3002 BECMG 24009KT=
202006041500 METAR MROC 041500Z 26005KT 190V310 9999 BKN040 24/20 A3003 NOSIG=
202006041600 METAR MROC 041600Z 23005KT 180V270 9999 SCT030 OVC090 24/19 A3004 NOSIG=
202006041700 METAR MROC 041700Z 26007KT 220V310 9999 SCT020 BKN090 25/20 A3003 NOSIG=
202006041800 METAR MROC 041800Z 25008KT 9999 BKN030 25/20 A3000 NOSIG=
202006041900 METAR MROC 041900Z 26011KT 220V280 9999 BKN025 25/21 A2998 NOSIG=
202006042000 METAR MROC 042000Z 26012KT 9999 BKN010 24/21 A2995 NOSIG=
202006042100 METAR MROC 042100Z 26010KT 5000 2000SW RA SCT008 BKN015 22/22 A2995 NOSIG=
202006042107 METAR MROC 042107Z 25010KT 2000 +RA BKN008 21/21 A2995 NOSIG=
202006042200 METAR MROC 042200Z 26006KT 2000 RA OVC010 21/21 A2996 NOSIG=
202006042300 METAR MROC 042300Z 25006KT 2000 +RA OVC005 21/21 A2997 NOSIG=
202006050000 METAR MROC 050000Z 24003KT 200V260 8000 4000SW R07/P2000N BCFG BKN008 21/21 A2999 RERA NOSIG=
202006050100 METAR MROC 050100Z 19002KT 9999 3000SW BCFG BKN008 21/21 A3002 NOSIG=
202006050200 METAR MROC 050200Z 08002KT 9999 OVC030 21/21 A3002 NOSIG=
202006050300 METAR MROC 050300Z 10004KT CAVOK 21/21 A3001 NOSIG=
202006050400 METAR MROC 050400Z 08005KT CAVOK 21/21 A3002 NOSIG=
202006050500 METAR MROC 050500Z VRB02KT CAVOK 21/21 A3002 NOSIG=
202006050600 METAR MROC 050600Z 08003KT CAVOK 20/20 A3003 NOSIG=
202006050700 METAR MROC 050700Z VRB02KT 3000 BR OVC004 20/20 A3002 NOSIG=
202006050800 METAR MROC 050800Z 27003KT 3000 BR BKN003 20/20 A3001 NOSIG=
202006050900 METAR MROC 050900Z VRB01KT 9999 -DZ SCT005 OVC015 20/20 A3001 NOSIG=
202006051000 METAR MROC 051000Z VRB02KT 9999 FEW005 SCT030 20/20 A3001 NOSIG=
202006051100 METAR MROC 051100Z 07002KT CAVOK 20/20 A3002 NOSIG=
202006051200 METAR MROC 051200Z 05005KT CAVOK 20/20 A3004 NOSIG=
202006051300 METAR MROC 051300Z VRB02KT 9999 FEW007 21/21 A3006 NOSIG=
202006051400 METAR MROC 051400Z VRB03KT CAVOK 25/20 A3006 NOSIG=
202006051500 METAR MROC 051500Z 10007KT 070V140 CAVOK 26/19 A3006 NOSIG=
202006051600 METAR MROC 051600Z 08004KT 050V150 CAVOK 27/19 A3005 NOSIG=
202006051700 METAR MROC 051700Z 22007KT 190V250 CAVOK 27/21 A3004 NOSIG=
202006051800 METAR MROC 051800Z 25010KT 9999 FEW045 BKN130 26/22 A3003 NOSIG=
202006051900 METAR MROC 051900Z 25013KT 9999 SCT030 BKN120 25/22 A3001 NOSIG=
202006052000 METAR MROC 052000Z 25009KT 9999 BKN015TCU 24/22 A3001 NOSIG=
202006052100 METAR MROC 052100Z 24011KT 200V260 9999 4500SW BCFG SCT008 BKN025 24/21 A3000 TEMPO RA=
202006052200 METAR MROC 052200Z 19003KT 160V230 5000 RA BCFG SCT006 BKN020 22/22 A3001 NOSIG=
202006052300 METAR MROC 052300Z VRB02KT 9000 -RA BCFG FEW007 SCT020 OVC100 22/22 A3003 NOSIG=
202006060000 METAR MROC 060000Z VRB01KT 9999 -RA FEW005 SCT020 BKN060 22/22 A3005 NOSIG=
202006060100 METAR MROC 060100Z VRB02KT 9999 FEW007 BKN060 22/22 A3007 NOSIG=
202006060200 METAR MROC 060200Z 33002KT 9999 -RA BCFG SCT008 OVC020 22/22 A3009 NOSIG=
202006060300 METAR MROC 060300Z 09005KT 9999 R07/1000N -RA VCFG FEW007 OVC100 21/21 A3009 NOSIG=
202006060400 METAR MROC 060400Z 10006KT CAVOK 21/21 A3009 NOSIG=
202006060500 METAR MROC 060500Z VRB01KT CAVOK 21/21 A3007 NOSIG=
202006060600 METAR MROC 060600Z VRB02KT 8000 VCFG FEW001 BKN040 21/21 A3006 NOSIG=
202006060700 METAR MROC 060700Z VRB02KT 9000 VCFG FEW001 BKN090 21/21 A3002 NOSIG=
202006060800 METAR MROC 060800Z VRB01KT 3000 BCFG BKN001 OVC010 21/21 A3003 NOSIG=
202006060900 METAR MROC 060900Z 00000KT 7000 3000SW BCFG FEW002 BKN010 21/21 A3003 NOSIG=
202006061000 METAR MROC 061000Z VRB02KT 9999 4500SW BCFG FEW005 BKN020 21/21 A3002 NOSIG=
202006061100 METAR MROC 061100Z 08004KT CAVOK 20/20 A3001 NOSIG=
202006061200 METAR MROC 061200Z 05005KT 020V080 CAVOK 21/21 A3002 NOSIG=
202006061300 METAR MROC 061300Z 09004KT 070V140 CAVOK 22/20 A3004 NOSIG=
202006061400 METAR MROC 061400Z 19004KT 120V250 CAVOK 25/20 A3005 NOSIG=
202006061500 METAR MROC 061500Z 13006KT 080V180 CAVOK 27/19 A3006 NOSIG=
202006061600 METAR MROC 061600Z 24007KT 210V280 9999 FEW045 SCT250 26/21 A3007 NOSIG=
202006061700 METAR MROC 061700Z 25008KT 220V230 9999 FEW035 SCT250 26/21 A3007 NOSIG=
202006061800 METAR MROC 061800Z 25009KT 220V280 9999 SCT025TCU 27/22 A3005 NOSIG=
202006061900 METAR MROC 061900Z 25009KT 210V280 9999 BKN020TCU 24/22 A3004 NOSIG=
202006062000 METAR MROC 062000Z 23010KT 9999 -TSRA FEW010CB SCT020 24/23 A3001 NOSIG=
202006062100 METAR MROC 062100Z 25005KT 230V290 5000 -TSRA FEW015CB SCT040 BKN070 22/22 A3002 NOSIG=
202006062200 METAR MROC 062200Z 00000KT -TSRA FEW005 FEW015CB SCT040 BKN120 22/22 A3002 NOSIG=
202006062300 METAR MROC 062300Z 10003KT 070V130 9999 VCTS FEW005 FEW015CB SCT025 BKN120 22/22 A3001 RETSRA NOSIG=
202006070000 METAR MROC 070000Z 07005KT 9999 FEW045 OVC120 22/22 A3004 NOSIG=
202006070100 METAR MROC 070100Z VRB02KT 9999 BCFG FEW045 OVC120 22/22 A3006 NOSIG=
202006070200 METAR MROC 070200Z 34003KT 9999 BCFG FEW045 OVC120 22/22 A3009 NOSIG=
202006070300 METAR MROC 070300Z 10003KT 9999 -RA BCFG FEW045 OVC120 22/22 A3008 NOSIG=
202006070400 METAR MROC 070400Z VRB02KT 9999 4500S BCFG FEW002 OVC090 21/21 A3007 NOSIG=
202006070500 METAR MROC 070500Z 31003KT 9999 4500SE BCFG FEW002 SCT100 21/21 A3008 NOSIG=
202006070600 METAR MROC 070600Z 04005KT 9999 FEW010 21/21 A3009 NOSIG=
202006070700 METAR MROC 070700Z 12003KT CAVOK 21/21 A3008 NOSIG=
202006070800 METAR MROC 070800Z 09005KT CAVOK 21/21 A3005 NOSIG=
202006070900 METAR MROC 070900Z 05006KT CAVOK 20/20 A3004 NOSIG=
202006071000 METAR MROC 071000Z 06006KT CAVOK 20/19 A3003 NOSIG=
202006071100 METAR MROC 071100Z 05004KT CAVOK 20/18 A3007 NOSIG=
202006071200 METAR MROC 071200Z 06007KT CAVOK 20/19 A3006 NOSIG=
202006071300 METAR MROC 071300Z 08009KT CAVOK 22/18 A3006 NOSIG=
202006071400 METAR MROC 071400Z 07004KT 020V110 CAVOK 24/19 A3006 NOSIG=
202006071500 METAR MROC 071500Z 24006KT CAVOK 25/21 A3007 NOSIG=
202006071600 METAR MROC 071600Z 23009KT 190V260 9999 FEW045 BKN200 25/21 A3008 NOSIG=
202006071700 METAR MROC 071700Z 26009KT 220V300 9999 FEW040 BKN200 26/21 A3007 NOSIG=
202006071800 METAR MROC 071800Z VRB05KT 9999 SCT040 SCT200 27/21 A3004 NOSIG=
202006071900 METAR MROC 071900Z 24005KT 120V290 9999 SCT040 29/20 A3001 NOSIG=
202006072000 METAR MROC 072000Z 24007KT 200V270 9999 FEW020TCU SCT040 29/21 A2998 NOSIG=
202006072100 METAR MROC 072100Z 27008KT 230V290 9999 VCTS FEW020CB SCT040 BKN250 29/21 A2996 NOSIG=
202006072200 METAR MROC 072200Z 23008KT 9999 -TSRA FEW015CB SCT035 BKN200 25/19 A2995 NOSIG=
202006072300 METAR MROC 072300Z 23014KT 9999 3000N -TSRA FEW005 SCT010CB BKN015 23/22 A2998 NOSIG=
202006080000 METAR MROC 080000Z 08009G19KT 040V130 4000 +TSRA FEW005 SCT010CB BKN015 20/20 A3004 NOSIG=
202006080100 METAR MROC 080100Z 11004KT 060V180 9999 -RA NSC 21/21 A3003 NOSIG=
202006080200 METAR MROC 080200Z 06006KT 020V090 CAVOK 21/21 A3001 NOSIG=
202006080300 METAR MROC 080300Z 04004KT 330V080 CAVOK 21/19 A3004 NOSIG=
202006080400 METAR MROC 080400Z 10004KT CAVOK 20/20 A3007 NOSIG=
202006080500 METAR MROC 080500Z 09006KT CAVOK 19/19 A3004 NOSIG=
202006080600 METAR MROC 080600Z 04006KT 020V080 CAVOK 20/19 A3001 NOSIG=
202006080700 METAR MROC 080700Z 08008KT CAVOK 22/20 A3001 NOSIG=
202006080800 METAR MROC 080800Z 10007KT CAVOK 21/19 A3000 NOSIG=
202006080900 METAR MROC 080900Z 35003KT 280V050 CAVOK 20/18 A3000 NOSIG=
202006081000 METAR MROC 081000Z 03003KT CAVOK 19/17 A2999 NOSIG=
202006081100 METAR MROC 081100Z 03003KT CAVOK 19/18 A3003 NOSIG=
202006081200 METAR MROC 081200Z 03003KT 9999 SCT040 20/18 A3004 NOSIG=
202006081300 METAR MROC 081300Z 05005KT 9999 FEW040 BKN200 23/19 A3005 NOSIG=
202006081400 METAR MROC 081400Z 02003KT 350V070 CAVOK 24/20 A3004 NOSIG=
202006081500 METAR MROC 081500Z 25008KT 210V270 9999 FEW030 BKN200 25/22 A3007 NOSIG=
202006081600 METAR MROC 081600Z 25010KT 9999 FEW020 BKN200 26/21 A3007 NOSIG=
202006081700 METAR MROC 081700Z 26009KT 220V290 9999 SCT020 26/21 A3005 NOSIG=
202006081800 METAR MROC 081800Z VRB04KT 9999 FEW020 BKN250 27/21 A3002 NOSIG=
202006081900 METAR MROC 081900Z 26007KT 230V290 9999 SCT030 SCT250 29/22 A2999 NOSIG=
202006082000 METAR MROC 082000Z 25006KT 200V290 9999 SCT040 29/22 A2997 NOSIG=
202006082100 METAR MROC 082100Z 25010KT 220V280 9999 BKN040 OVC210 27/23 A2996 NOSIG=
202006082200 METAR MROC 082200Z 23011KT 9999 BKN030 25/23 A2996 NOSIG=
202006082300 METAR MROC 082300Z 25008KT 9999 OVC015 23/23 A2997 NOSIG=
202006090000 METAR MROC 090000Z 25007KT 7000 OVC001 23/23 A2998 NOSIG=
202006090100 METAR MROC 090100Z 25007KT 7000 BCFG BKN001 22/22 A3002 NOSIG=
202006090200 METAR MROC 090200Z 26004KT 230V310 9999 SCT005 BKN015 22/22 A3003 NOSIG=
202006090300 METAR MROC 090300Z VRB02KT 9999 BKN015 22/22 A3004 NOSIG=
202006090400 METAR MROC 090400Z 15003KT 9999 FEW020 22/22 A3004 NOSIG=
202006090500 METAR MROC 090500Z 03003KT 9999 FEW020 22/22 A3004 NOSIG=
202006090600 METAR MROC 090600Z 26004KT 8000 1500SW VCFG FEW002 BKN020 21/21 A3005 NOSIG=
202006090700 METAR MROC 090700Z 15003KT 9999 3000SW BCFG FEW020 21/21 A3003 NOSIG=
202006090800 METAR MROC 090800Z 07003KT 5000 BR FEW002 BKN010 21/21 A3000 NOSIG=
202006090900 METAR MROC 090900Z VRB02KT 9999 BCFG FEW020 20/20 A2998 NOSIG=
202006091000 METAR MROC 091000Z VRB02KT CAVOK 20/19 A2998 NOSIG=
202006091100 METAR MROC 091100Z 03006KT 010V090 9999 FEW030 20/19 A2998 NOSIG=
202006091200 METAR MROC 091200Z 04008KT 9999 FEW040 OVC200 21/19 A2998 NOSIG=
202006091300 METAR MROC 091300Z 03006KT 350V110 9999 FEW040 OVC200 23/19 A3001 NOSIG=
202006091400 METAR MROC 091400Z VRB04KT 9999 FEW040 BKN200 25/20 A3003 BECMG 25007KT=
202006091500 METAR MROC 091500Z 01006KT 320V120 9999 FEW040 BKN250 27/19 A3003 NOSIG=
202006091600 METAR MROC 091600Z 09006KT 060V140 9999 FEW040 BKN250 29/18 A3002 NOSIG=
202006091700 METAR MROC 091700Z 21005KT 090V260 9999 FEW040 BKN250 28/21 A3000 NOSIG=
202006091800 METAR MROC 091800Z 24010KT 9999 SCT035 BKN250 27/22 A3001 NOSIG=
202006091900 METAR MROC 091900Z 23009KT 200V270 9999 FEW040 BKN200 27/22 A3000 NOSIG=
202006092000 METAR MROC 092000Z 22011KT 9999 VCTS FEW020CB SCT030 BKN200 25/21 A2999 NOSIG=
202006092100 METAR MROC 092100Z 25010KT 9999 -TSRA SCT010CB BKN015 OVC020 23/22 A3000 TEMPO 5000 TSRA=
202006092200 METAR MROC 092200Z 01004KT 8000 FEW010 BKN035 21/21 A3001 NOSIG=
202006092300 METAR MROC 092300Z 23008KT 270V270 8000 -RA VCTS BKN015 21/21 A3001 NOSIG=
202006100000 METAR MROC 100000Z 30007KT 8000 -RA OVC015 20/20 A3003 NOSIG=
202006100100 METAR MROC 100100Z 05006KT 030V110 9999 -RA SCT015 BKN045 20/20 A3006 NOSIG=
202006100200 METAR MROC 100200Z 08008KT CAVOK 20/20 A3005 NOSIG=
202006100300 METAR MROC 100300Z 07008KT CAVOK 21/20 A3005 NOSIG=
202006100400 METAR MROC 100400Z 08007KT CAVOK 21/19 A3006 NOSIG=
202006100500 METAR MROC 100500Z VRB02KT CAVOK 21/20 A3007 NOSIG=
202006100600 METAR MROC 100600Z 33004KT CAVOK 20/20 A3007 NOSIG=
202006100700 METAR MROC 100700Z VRB02KT 9999 SCT020 20/19 A3003 NOSIG=
202006100800 METAR MROC 100800Z 08004KT 9999 FEW020 19/19 A3001 NOSIG=
202006100900 METAR MROC 100900Z 08005KT CAVOK 20/19 A3001 NOSIG=
202006101000 METAR MROC 101000Z 07005KT CAVOK 19/18 A3002 NOSIG=
202006101100 METAR MROC 101100Z 09006KT CAVOK 18/18 A3002 NOSIG=
202006101200 METAR MROC 101200Z 07005KT CAVOK 19/18 A3003 NOSIG=
202006101300 METAR MROC 101300Z VRB02KT CAVOK 22/19 A3004 NOSIG=
202006101400 METAR MROC 101400Z 23003KT 200V260 CAVOK 23/20 A3006 NOSIG=
202006101500 METAR MROC 101500Z 25003KT 160V230 CAVOK 24/19 A3008 NOSIG=
202006101600 METAR MROC 101600Z 25005KT 170V300 CAVOK 25/20 A3007 NOSIG=
202006101700 METAR MROC 101700Z 24007KT 220V280 9999 FEW045 BKN180 26/19 A3005 NOSIG=
202006101800 METAR MROC 101800Z 24007KT 200V290 CAVOK 26/21 A3003 NOSIG=
202006101900 METAR MROC NIL=
202006102000 METAR MROC 102000Z 27010KT 9999 RA VCTS SCT015CB BKN045 24/22 A3000 NOSIG=
202006102100 METAR MROC 102100Z 20011KT 3000 RA BR SCT010 OVC100 21/21 A3002 NOSIG=
202006102200 METAR MROC 102200Z 05004KT 360V080 9999 FEW010 BKN100 21/20 A3001 RETSRA NOSIG=
202006102300 METAR MROC 102300Z 10004KT 9999 SCT030 BKN100 21/21 A3002 NOSIG=
202006110000 METAR MROC 110000Z 08004KT 9999 -RA FEW045 OVC120 21/20 A3004 NOSIG=
202006110100 METAR MROC 110100Z 24005KT CAVOK 21/21 A3006 NOSIG=
202006110200 METAR MROC 110200Z 34003KT 9999 FEW008 SCT030 OVC100 21/21 A3009 NOSIG=
202006110300 METAR MROC 110300Z VRB02KT 9999 FEW010 OVC120 21/21 A3010 NOSIG=
202006110400 METAR MROC 110400Z 35004KT 9999 FEW008 SCT100 20/20 A3011 NOSIG=
202006110500 METAR MROC 110500Z VRB01KT 9999 FEW008 SCT200 20/20 A3010 NOSIG=
202006110600 METAR MROC 110600Z VRB02KT 9999 FEW008 BKN100 20/20 A3010 NOSIG=
202006110700 METAR MROC 110700Z 33002KT 9999 SCT005 BKN100 20/20 A3008 NOSIG=
202006110800 METAR MROC 110800Z VRB02KT 9999 SCT005 BKN090 20/20 A3005 NOSIG=
202006110900 METAR MROC 110900Z 10006KT CAVOK 19/19 A3005 NOSIG=
202006111000 METAR MROC 111000Z 07005KT CAVOK 20/20 A3004 NOSIG=
202006111100 METAR MROC 111100Z 05007KT CAVOK 20/20 A3003 NOSIG=
202006111200 METAR MROC 111200Z 06006KT CAVOK 20/19 A3004 NOSIG=
202006111300 METAR MROC 111300Z 07004KT 030V110 CAVOK 23/19 A3006 NOSIG=
202006111400 METAR MROC 111400Z 13005KT 080V170 CAVOK 25/19 A3007 NOSIG=
202006111500 METAR MROC 111500Z VRB03KT 9999 FEW040 26/18 A3007 NOSIG=
202006111600 METAR MROC 111600Z 17005KT 060V230 9999 SCT035 27/18 A3006 BECMG 24007KT=
202006111700 METAR MROC 111700Z 24008KT 210V280 9999 FEW035 25/21 A3005 NOSIG=
202006111800 METAR MROC 111800Z 24011KT 9999 FEW030TCU FEW045 27/22 A3002 BECMG TSRA=
202006111900 METAR MROC 111900Z 23010KT 200V260 9999 -SHRA VCTS FEW020CB FEW030TCU 26/22 A3000 TEMPO TS=
202006112000 METAR MROC 112000Z 11005KT 050V140 9999 4800S TSRA VCSH FEW010CB SCT025 BKN090 22/18 A3001 NOSIG=
202006112100 METAR MROC 112100Z 12006KT 100V160 9999 FEW030 BKN140 22/19 A2998 RETSRA NOSIG=
202006112200 METAR MROC 112200Z 09007KT 050V110 9999 -RA FEW040 OVC160 23/18 A2999 NOSIG=
202006112300 METAR MROC 112300Z 12004KT 070V170 9999 FEW035 BKN160 22/19 A3001 NOSIG=
202006120000 METAR MROC 120000Z 07007KT 9999 FEW040 SCT160 23/19 A3002 NOSIG=
202006120100 METAR MROC 120100Z 10005KT 9999 -RA FEW045 BKN160 22/19 A3005 NOSIG=
202006120200 METAR MROC 120200Z 13010KT 090V160 9999 -RA FEW045 BKN160 21/18 A3006 NOSIG=
202006120300 METAR MROC 120300Z 10007KT 070V140 CAVOK 21/18 A3007 NOSIG=
202006120400 METAR MROC 120400Z 10008KT CAVOK 21/18 A3007 NOSIG=
202006120500 METAR MROC 120500Z 11006KT 070V150 CAVOK 22/18 A3007 NOSIG=
202006120600 METAR MROC 120600Z 09003KT 030V150 CAVOK 21/17 A3005 NOSIG=
202006120700 METAR MROC 120700Z 02003KT 350V070 CAVOK 19/17 A3004 NOSIG=
202006120800 METAR MROC 120800Z 06003KT CAVOK 18/17 A3002 NOSIG=
202006120900 METAR MROC 120900Z 08005KT CAVOK 18/17 A3001 NOSIG=
202006121000 METAR MROC 121000Z 03005KT CAVOK 18/16 A3001 NOSIG=
202006121100 METAR MROC 121100Z 07006KT CAVOK 19/16 A3002 NOSIG=
202006121200 METAR MROC 121200Z 08006KT CAVOK 18/16 A3003 NOSIG=
202006121300 METAR MROC 121300Z 07005KT CAVOK 22/17 A3003 NOSIG=
202006121400 METAR MROC 121400Z VRB02KT CAVOK 24/17 A3005 NOSIG=
202006121500 METAR MROC 121500Z 25009KT CAVOK 24/19 A3005 NOSIG=
202006121600 METAR MROC 121600Z 26007KT 230V310 9999 FEW030 25/19 A3006 NOSIG=
202006121700 METAR MROC 121700Z 25007KT 200V300 9999 FEW025 26/20 A3004 NOSIG=
202006121800 METAR MROC 121800Z 23006KT 190V290 9999 FEW020TCU SCT035 26/20 A3002 NOSIG=
202006121900 METAR MROC 121900Z 25009KT 220V290 9999 FEW025TCU SCT035 26/19 A2999 NOSIG=
202006122000 METAR MROC 122000Z 25012KT 9999 VCSH FEW020TCU SCT030 27/21 A2996 BECMG TSRA=
202006122100 METAR MROC 122100Z 21008KT 180V240 9999 FEW015TCU SCT200 25/21 A2994 NOSIG=
202006122200 METAR MROC 122200Z 26009KT 9999 VCSH BKN010 23/22 A2995 NOSIG=
202006122300 METAR MROC 122300Z 22007KT 180V240 8000 3000SW -RA VCTS FEW010CB SCT015 BKN030 22/22 A2996 NOSIG=
202006130000 METAR MROC 130000Z 22006KT 180V240 9999 -RA SCT005 BKN035 21/21 A2998 NOSIG=
202006130100 METAR MROC 130100Z 28005KT 9999 SCT002 SCT035 21/21 A3002 NOSIG=
202006130200 METAR MROC 130200Z 33004KT 9999 -RA FEW005 SCT010 BKN040 21/21 A3004 NOSIG=
202006130300 METAR MROC 130300Z 04004KT 9999 -RA SCT005 20/20 A3004 NOSIG=
202006130400 METAR MROC 130400Z 06006KT 9999 FEW040 SCT140 21/21 A3003 NOSIG=
202006130500 METAR MROC 130500Z 17003KT 110V210 CAVOK 20/20 A3001 NOSIG=
202006130600 METAR MROC 130600Z VRB02KT 9999 FEW002 SCT100 20/20 A2998 TEMPO BCFG=
202006130700 METAR MROC 130700Z VRB02KT 8000 BCFG FEW001 SCT010 BKN030 20/20 A2998 TEMPO 3000 RA BR BKN010=
202006130800 METAR MROC 130800Z 03003KT 9999 FEW005 SCT010 BKN030 20/20 A2997 TEMPO 3000 BR BKN010=
202006130900 METAR MROC 130900Z VRB02KT 9999 FEW004 OVC035 20/20 A2996 TEMPO BCFG=
202006131000 METAR MROC 131000Z 07003KT 9999 FEW035 SCT100 20/20 A2996 NOSIG=
202006131100 METAR MROC 131100Z 06004KT 020V080 CAVOK 20/20 A2996 NOSIG=
202006131200 METAR MROC 131200Z VRB03KT 9999 FEW001 BKN200 20/20 A2999 NOSIG=
202006131300 METAR MROC 131300Z VRB02KT 9999 FEW005 BKN100 22/21 A3000 NOSIG=
202006131400 METAR MROC 131400Z 18004KT 140V200 9999 FEW010 BKN100 22/20 A3000 NOSIG=
202006131500 METAR MROC 131500Z 23005T 180V260 9999 FEW020 BKN080 23/21 A3001 NOSIG=
202006131600 METAR MROC 131600Z 24005KT 220V280 9999 SCT025 BKN080 23/20 A3001 NOSIG=
202006131700 METAR MROC 131700Z 22006KT 170V260 9999 -DZ FEW010 SCT030 23/20 A3001 NOSIG=
202006131800 METAR MROC 131800Z 25005KT 200V280 9999 BKN030 25/20 A2999 NOSIG=
202006131900 METAR MROC 131900Z 24010KT 210V270 9999 FEW010 BKN020 25/22 A2996 NOSIG=
202006132000 METAR MROC 132000Z 25010KT 9999 FEW008 BKN030 23/21 A2995 NOSIG=
202006132100 METAR MROC 132100Z 25011KT 9999 -RA BKN010 22/21 A2994 NOSIG=
202006132200 METAR MROC 132200Z 24009KT 9999 -RA SCT003 BKN010 21/21 A2995 NOSIG=
202006132300 METAR MROC 132300Z 21005KT 180V240 5000 -RA SCT002 OVC015 21/21 A2997 NOSIG=
202006140000 METAR MROC 140000Z 25005KT 220V280 9999 -RA FEW002 OVC010 21/21 A2999 NOSIG=
202006140100 METAR MROC 140100Z 31003KT 9999 -RA FEW003 SCT010 OVC100 21/21 A3001 NOSIG=
202006140200 METAR MROC 140200Z 35003KT 320V020 8000 -RA FEW004 OVC020 20/20 A3003 NOSIG=
202006140300 METAR MROC 140300Z VRB02KT 9999 -RA FEW005 OVC020 20/20 A3004 NOSIG=
202006140400 METAR MROC 140400Z VRB02KT 9999 -RA FEW002 OVC100 20/20 A3005 NOSIG=
202006140500 METAR MROC 140500Z 24004KT 9999 -RA BCFG FEW020 BKN100 20/20 A3002 NOSIG=
202006140600 METAR MROC 140600Z 21003KT 1500 BR SCT002 BKN100 20/20 A2999 NOSIG=
202006140700 METAR MROC 140700Z VRB02KT 1500 BR BKN002 20/20 A2998 NOSIG=
202006140800 METAR MROC 140800Z 00000KT 8000 3000SW VCFG SCT002 BKN015 20/20 A2995 NOSIG=
202006140900 METAR MROC 140900Z 25004KT 210V330 8000 3000SW VCFG SCT002 BKN010 20/20 A2996 NOSIG=
202006141000 METAR MROC 141000Z 00000KT 8000 OVC003 20/20 A2998 NOSIG=
202006141100 METAR MROC 141100Z VRB01KT 9999 3000E BCFG SCT002 BKN008 20/20 A3000 NOSIG=
202006141200 METAR MROC 141200Z 06003KT 350V080 9999 FEW010 BKN035 20/20 A3001 NOSIG=
202006141300 METAR MROC 141300Z 36003KT 9999 FEW005 BKN100 21/20 A3002 NOSIG=
202006141400 METAR MROC 141400Z 21003KT 160V280 9999 FEW007 SCT100 22/21 A3004 NOSIG=
202006141500 METAR MROC 141500Z VRB01KT 9999 FEW040 SCT100 24/20 A3004 NOSIG=
202006141600 METAR MROC 141600Z 25005KT 190V300 9999 FEW040 26/20 A3003 NOSIG=
202006141700 METAR MROC 141700Z 24006KT 190V280 9999 FEW040 27/20 A3002 NOSIG=
202006141800 METAR MROC 141800Z 26010KT 230V290 9999 SCT045 26/21 A3001 NOSIG=
202006141900 METAR MROC 141900Z 24012KT 9999 VCTS SCT015CB 27/22 A2997 NOSIG=
202006142000 METAR MROC 142000Z 25007KT 220V280 9999 VCTS FEW010CB SCT030 BKN080 26/22 A2996 TEMPO -TSRA=
202006142100 METAR MROC 142100Z 25006KT 9999 -RA VCTS SCT015 SCT020CB BKN100 24/22 A2995 NOSIG=
202006142200 METAR MROC 142200Z 25011KT 9999 OVC015 24/22 A2994 NOSIG=
202006142300 METAR MROC 142300Z 24007KT 9999 SCT005 OVC010 22/22 A2996 NOSIG=
202006150000 METAR MROC 150000Z 27006KT 9999 4500SW BCFG OVC007 22/22 A2999 TEMPO 5000 BR=
202006150100 METAR MROC 150100Z 22003KT 9999 BCFG OVC003 22/22 A3000 NOSIG=
202006150200 METAR MROC 150200Z COR VRB02KT 9999 4000SW BR OVC003 22/22 A3000 NOSIG=
202006150300 METAR MROC 150300Z 24004KT 9999 4000SW BCFG FEW002 BKN020 22/22 A3001 NOSIG=
202006150400 METAR MROC 150400Z 25005KT 3000 BR FEW001 SCT005 OVC010 22/22 A3002 NOSIG=
202006150500 METAR MROC 150500Z VRB01KT 8000 2000SW BCFG FEW002 OVC010 21/21 A3001 NOSIG=
202006150600 METAR MROC 150600Z VRB02KT 8000 2000SW BCFG OVC005 21/21 A3000 NOSIG=
202006150700 METAR MROC 150700Z VRB02KT 9999 FEW002 SCT010 21/21 A2997 NOSIG=
202006150800 METAR MROC 150800Z VRB02KT 9999 FEW002 SCT010 21/21 A2996 NOSIG=
202006150900 METAR MROC 150900Z 29003KT CAVOK 21/21 A2994 NOSIG=
202006151000 METAR MROC 151000Z 25004KT 4000 BR SCT002 21/21 A2997 NOSIG=
202006151100 METAR MROC 151100Z VRB02KT 6000 SCT001 OVC020 21/21 A3000 NOSIG=
202006151200 METAR MROC 151200Z 06003KT 020V100 9999 FEW030 OVC180 21/21 A3001 NOSIG=
202006151300 METAR MROC 151300Z 11003KT 080V150 9999 FEW035 BKN150 22/21 A3003 NOSIG=
202006151400 METAR MROC 151400Z VRB02KT 9999 FEW035 BKN250 25/20 A3003 NOSIG=
202006151500 METAR MROC 151500Z VRB02KT 9999 FEW040 BKN250 27/21 A3003 NOSIG=
202006151600 METAR MROC 151600Z 15005KT 080V210 9999 FEW040 BKN230 28/20 A3003 BECMG 24006KT=
202006151700 METAR MROC 151700Z 24010KT 210V270 9999 -RA BKN035 26/22 A3002 NOSIG=
202006151800 METAR MROC 151800Z 26009KT 9999 -TSRA FEW010CB BKN025 25/22 A3002 TEMPO 5000=
202006151900 METAR MROC 151900Z 25009KT 9999 -RA VCTS SCT010 BKN020 23/22 A3001 RETSRA NOSIG=
202006152000 METAR MROC 152000Z 25007KT 220V280 9999 -RA SCT010 OVC100 22/22 A3001 RETSRA NOSIG=
202006152100 METAR MROC 152100Z 35003KT 9999 -RA BCFG FEW002 BKN010 22/21 A3002 NOSIG=
202006152200 METAR MROC 152200Z 08006KT 9999 -RA FEW015 BKN100 21/21 A3001 NOSIG=
202006152300 METAR MROC 152300Z 09005KT CAVOK 22/21 A3003 NOSIG=
202006160000 METAR MROC 160000Z 09007KT CAVOK 22/20 A2999 NOSIG=
202006160100 METAR MROC 160100Z 07005KT 9999 BCFG NSC 22/20 A2998 NOSIG=
202006160200 METAR MROC 160200Z 23004KT 9999 4000S BCFG FEW001 OVC160 21/21 A2999 TEMPO 5000 BR=
202006160300 METAR MROC 160300Z 26005KT 220V280 1000 R07/0650U FG OVC002 21/21 A3001 NOSIG=
202006160400 METAR MROC 160400Z 23005KT 3000 -RA BR OVC001 21/21 A3004 NOSIG=
202006160500 METAR MROC 160500Z 34004KT 8000 4000W SCT002 BKN020 21/21 A3005 NOSIG=
202006160600 METAR MROC 160600Z 12003KT 9000 FEW010 BKN020 21/21 A3003 NOSIG=
202006160700 METAR MROC 160700Z 12004KT 9999 FEW015 BKN025 21/21 A3002 NOSIG=
202006160800 METAR MROC 160800Z 09005KT 9999 BKN025 21/20 A3000 NOSIG=
202006160900 METAR MROC 160900Z 08005KT CAVOK 21/19 A3000 NOSIG=
202006161000 METAR MROC 161000Z 07008KT CAVOK 21/18 A3000 NOSIG=
202006161100 METAR MROC 161100Z 07008KT CAVOK 21/18 A3000 NOSIG=
202006161200 METAR MROC 161200Z VRB02KT CAVOK 21/18 A3002 NOSIG=
202006161300 METAR MROC 161300Z 06003KT 030V100 CAVOK 23/19 A3002 NOSIG=
202006161400 METAR MROC 161400Z VRB02KT CAVOK 25/19 A3003 NOSIG=
202006161500 METAR MROC 161500Z 26006KT 230V310 CAVOK 24/20 A3005 NOSIG=
202006161600 METAR MROC 161600Z 25007KT 200V300 FEW025 SCT200 25/20 A3006 NOSIG=
202006161700 METAR MROC 161700Z 24008KT 200V270 9999 FEW035 BKN200 25/21 A3005 NOSIG=
202006161800 METAR MROC 161800Z 24009KT 210V270 9999 BKN030 26/21 A3003 NOSIG=
202006161900 METAR MROC 161900Z 25007KT 220V280 9999 FEW020TCU SCT080 26/21 A3001 BECMG SHRA SCT020TCU=
202006162000 METAR MROC 162000Z 24009KT 200V260 9999 VCTS SCT030 SCT080 25/22 A3000 TEMPO TSRA FEW020CB=
202006162100 METAR MROC 162100Z 25007KT 9999 VCSH FEW020 SCT035 BKN120 24/24 A2997 NOSIG=
202006162200 METAR MROC 162200Z 25005KT 210V280 9999 VCTS VCSH FEW010CB SCT030 BKN100 23/23 A2998 TEMPO TSRA=
202006162300 METAR MROC 162300Z 27005KT 240V310 8000 3000NW TSRA FEW005 SCT010CB BKN035 22/22 A3002 BECMG BKN010=
202006170000 METAR MROC 170000Z 07004KT 040V110 8000 3000NW -RA VCFG FEW010 SCT035 BKN100 22/22 A3003 RETSRA NOSIG=
202006170100 METAR MROC 170100Z 07003KT 9999 -RA NSC 21/21 A3006 NOSIG=
202006170200 METAR MROC 170200Z VRB02KT 9999 -RA NSC 21/21 A3008 NOSIG=
202006170300 METAR MROC 170300Z 00000KT 9999 -RA NSC 21/21 A3010 NOSIG=
202006170400 METAR MROC 170400Z 03004KT 9999 -RA FEW008 BKN100 21/21 A3009 NOSIG=
202006170500 METAR MROC 170500Z 10006KT CAVOK 20/20 A3005 NOSIG=
202006170600 METAR MROC 170600Z 08009KT CAVOK 21/20 A3002 NOSIG=
202006170700 METAR MROC 170700Z 08011KT CAVOK 21/19 A2999 NOSIG=
202006170800 METAR MROC 170800Z 08008KT CAVOK 21/18 A2997 NOSIG=
202006170900 METAR MROC 170900Z 07006KT CAVOK 20/18 A2997 NOSIG=
202006171000 METAR MROC 171000Z VRB02KT CAVOK 20/19 A3000 NOSIG=
202006171100 METAR MROC 171100Z 34004KT CAVOK 19/19 A3002 NOSIG=
202006171200 METAR MROC 171200Z 12003KT 090V150 9999 FEW010 BKN060 19/19 A3004 NOSIG=
202006171300 METAR MROC 171300Z 09003KT 070V130 CAVOK 22/19 A3006 NOSIG=
202006171400 METAR MROC 171400Z 12003KT 090V170 CAVOK 23/19 A3007 NOSIG=
202006171500 METAR MROC 171500Z VRB02KT CAVOK 25/19 A3008 NOSIG=
202006171600 METAR MROC 171600Z VRB03KT 9999 FEW040 BKN200 25/19 A3007 NOSIG=
202006171700 METAR MROC 171700Z 28004KT 240V050 9999 FEW045 BKN200 26/19 A3004 NOSIG=
202006171800 METAR MROC 171800Z 25008KT 210V290 9999 FEW040 BKN200 27/20 A3004 NOSIG=
202006171900 METAR MROC 171900Z 23008KT 200V290 9999 FEW020TCU SCT100 BKN200 27/22 A3002 NOSIG=
202006172000 METAR MROC 172000Z 23006KT 9999 -RA VCTS FEW020CB BKN030 24/22 A3001 RETS NOSIG=
202006172100 METAR MROC 172100Z 00000KT 9999 FEW010 SCT100 BKN200 23/23 A2999 NOSIG=
202006172200 METAR MROC 172200Z 26005KT 220V300 9999 SCT010 BKN100 24/22 A2999 NOSIG=
202006172300 METAR MROC 172300Z 23005KT 9999 SCT010 BKN100 23/23 A3000 NOSIG=
202006180000 METAR MROC 180000Z 25003KT 9999 FEW010 SCT070 BKN200 22/22 A3001 NOSIG=
202006180100 METAR MROC 180100Z VRB02KT 9999 FEW010 SCT070 22/22 A3001 NOSIG=
202006180200 METAR MROC 180200Z 00000KT 9999 BCFG FEW010 SCT020 22/22 A3004 NOSIG=
202006180300 METAR MROC 180300Z 04004KT 9999 FEW035 22/21 A3003 NOSIG=
202006180400 METAR MROC 180400Z 08009KT CAVOK 23/20 A3003 NOSIG=
202006180500 METAR MROC 180500Z 09007KT 070V130 CAVOK 22/20 A3002 NOSIG=
202006180600 METAR MROC 180600Z 07010KT CAVOK 23/19 A2998 NOSIG=
202006180700 METAR MROC 180700Z COR 03006KT 360V060 CAVOK 23/19 A2998 NOSIG=
202006180800 METAR MROC 180800Z 09007KT 050V120 CAVOK 23/19 A2997 NOSIG=
202006180900 METAR MROC 180900Z 12006KT 080V160 CAVOK 22/19 A2996 NOSIG=
202006181000 METAR MROC 181000Z 01004KT 330V110 CAVOK 23/19 A2997 NOSIG=
202006181100 METAR MROC 181100Z 09004KT 360V170 9999 FEW035 BKN180 22/19 A2997 NOSIG=
202006181200 METAR MROC 181200Z 33004KT 290V050 9999 FEW035 BKN200 22/19 A2999 NOSIG=
202006181300 METAR MROC 181300Z VRB02KT 9999 FEW035 BKN200 23/20 A3002 NOSIG=
202006181400 METAR MROC 181400Z 31003KT 9999 FEW035 BKN200 22/19 A3004 NOSIG=
202006181500 METAR MROC 181500Z 26003KT 210V310 9999 FEW040 BKN200 24/20 A3003 NOSIG=
202006181600 METAR MROC 181600Z 09004KT 040V120 9999 FEW010 SCT140 BKN200 25/19 A3001 NOSIG=
202006181700 METAR MROC 181700Z 11004KT 060V180 9999 FEW040 BKN200 27/19 A3002 NOSIG=
202006181800 METAR MROC 181800Z 24007KT 200V270 9999 SCT040 BKN200 26/21 A3002 NOSIG=
202006181900 METAR MROC 181900Z 26007KT 230V290 9999 SCT040 BKN200 26/21 A3000 NOSIG=
202006182000 METAR MROC 182000Z 25006KT 9999 BKN035 25/22 A2997 NOSIG=
202006182100 METAR MROC 182100Z 25009KT 9999 FEW020 SCT030 BKN100 26/22 A2996 NOSIG=
202006182200 METAR MROC 182200Z 25009KT 9999 FEW005 SCT015 25/22 A2997 NOSIG=
202006182300 METAR MROC 182300Z 25009KT 9999 BKN010 23/22 A2998 NOSIG=
202006190000 METAR MROC 190000Z 25006KT 9999 SCT005 BKN015 22/22 A2997 NOSIG=
202006190100 METAR MROC 190100Z 29003KT 250V340 9999 SCT005 BKN030 22/22 A2998 NOSIG=
202006190200 METAR MROC 190200Z 26003KT 9999 SCT005 BKN030 22/22 A3000 NOSIG=
202006190300 METAR MROC 190300Z VRB02KT 9999 SCT003 BKN015 22/22 A3002 NOSIG=
202006190400 METAR MROC 190400Z 26003KT 9999 FEW015 21/21 A3002 NOSIG=
202006190500 METAR MROC 190500Z 00000KT 9999 BCFG FEW015 21/21 A3003 NOSIG=
202006190600 METAR MROC 190600Z 03005KT 9999 FEW025 20/20 A3000 NOSIG=
202006190700 METAR MROC 190700Z 05007KT CAVOK 20/19 A2998 NOSIG=
202006190800 METAR MROC 190800Z 04003KT 360V130 CAVOK 20/19 A2998 NOSIG=
202006190900 METAR MROC 190900Z VRB02KT CAVOK 20/18 A2996 NOSIG=
202006191000 METAR MROC 191000Z VRB01KT 9999 BCFG 19/19 A2998 NOSIG=
202006191100 METAR MROC 191100Z VRB02KT 9999 BCFG NSC 20/20 A2998 NOSIG=
202006191200 METAR MROC 191200Z 07003KT CAVOK 19/19 A3001 NOSIG=
202006191300 METAR MROC 191300Z 05006KT CAVOK 21/19 A3001 NOSIG=
202006191400 METAR MROC 191400Z 04007KT CAVOK 22/19 A3001 NOSIG=
202006191500 METAR MROC 191500Z VRB02KT CAVOK 24/19 A3003 NOSIG=
202006191600 METAR MROC 191600Z 25006KT 180V290 CAVOK 26/20 A3002 NOSIG=
202006191700 METAR MROC 191700Z 23007KT 160V290 9999 SCT040 BKN200 27/20 A3001 NOSIG=
202006191800 METAR MROC 191800Z 25009KT 220V280 9999 SCT045 SCT250 27/21 A3000 NOSIG=
202006191900 METAR MROC 191900Z 24009KT 9999 -RA BKN045 26/21 A2999 NOSIG=
202006192000 METAR MROC 192000Z 25010KT 220V280 9999 SCT035 26/22 A2997 NOSIG=
202006192100 METAR MROC 192100Z 26011KT 9999 -RA BKN020 24/22 A2997 NOSIG=
202006192200 METAR MROC 192200Z 24011KT 8000 -RA OVC009 22/22 A2996 TEMPO 3000=
202006192300 METAR MROC 192300Z 24007KT 9999 FEW010 BKN025 22/21 A2998 NOSIG=
202006200000 METAR MROC 200000Z VRB02KT 9999 FEW010 SCT030 BKN090 22/22 A2999 NOSIG=
202006200100 METAR MROC 200100Z VRB01KT 9999 FEW010 SCT070 22/22 A3000 NOSIG=
202006200200 METAR MROC 200200Z VRB01KT 9999 FEW010 BKN080 22/22 A3004 NOSIG=
202006200300 METAR MROC 200300Z 31004KT 9999 3000W SCT001 BKN010 BKN025 21/21 A3005 NOSIG=
202006200400 METAR MROC 200400Z 31003KT 270V330 9999 FEW010 BKN150 21/21 A3007 NOSIG=
202006200500 METAR MROC 200500Z 34003KT 320V030 9999 FEW005 21/21 A3005 NOSIG=
202006200600 METAR MROC 200600Z 06004KT 030V090 CAVOK 21/21 A3001 NOSIG=
202006200700 METAR MROC 200700Z 05007KT 9999 FEW020 22/20 A2998 NOSIG=
202006200800 METAR MROC 200800Z 03007KT 9999 FEW020 23/18 A2995 NOSIG=
202006200900 METAR MROC 200900Z 10014G24KT CAVOK 23/17 A2994 NOSIG=
202006201000 METAR MROC 201000Z 08007KT 050V120 CAVOK 22/17 A2994 NOSIG=
202006201100 METAR MROC 201100Z 10003KT 050V150 CAVOK 22/17 A2995 NOSIG=
202006201200 METAR MROC 201200Z 09004KT 020V150 CAVOK 22/17 A2998 NOSIG=
202006201300 METAR MROC 201300Z 03004KT 340V080 CAVOK 21/18 A2999 NOSIG=
202006201400 METAR MROC 201400Z 36004KT 340V040 CAVOK 22/18 A3001 NOSIG=
202006201500 METAR MROC 201500Z VRB02KT 9999 -RA FEW040 BKN120 22/19 A3004 NOSIG=
202006201600 METAR MROC 201600Z VRB02KT 9999 -RA SCT040 BKN100 22/20 A3004 NOSIG=
202006201700 METAR MROC 201700Z 15003KT 070V210 9999 -RA BKN045 22/20 A3005 NOSIG=
202006201800 METAR MROC 201800Z 09003KT 060V140 9999 -RA FEW040 OVC100 22/20 A3003 NOSIG=
202006201900 METAR MROC 201900Z 08003KT 010V180 9999 FEW040 OVC120 23/20 A3001 NOSIG=
202006202000 METAR MROC 202000Z 25005KT 9999 SCT035 BKN100 23/21 A2999 NOSIG=
202006202100 METAR MROC 202100Z COR 25005KT 9999 6000N BCFG FEW008 SCT035 BKN100 23/20 A2997 NOSIG=
202006202200 METAR MROC 202200Z 26004KT 9999 6000N BCFG FEW010 BKN130 23/21 A2997 NOSIG=
202006202300 METAR MROC 202300Z 22003KT 180V240 9999 6000NW BCFG FEW010 BKN120 22/22 A2998 NOSIG=
202006210000 METAR MROC 210000Z 22004KT 6000 -DZ BCFG FEW003 SCT030 BKN100 21/21 A3000 NOSIG=
202006210100 METAR MROC 210100Z VRB02KT 9000 BCFG FEW010 BKN100 21/21 A3001 NOSIG=
202006210200 METAR MROC 210200Z 36002KT 9999 BCFG FEW010 BKN100 21/21 A3001 NOSIG=
202006210300 METAR MROC 210300Z 04004KT 9999 FEW010 BKN100 21/21 A3001 NOSIG=
202006210400 METAR MROC 210400Z 02006KT 9999 FEW002 SCT100 21/21 A3001 NOSIG=
202006210500 METAR MROC 210500Z 11003KT CAVOK 20/20 A3001 NOSIG=
202006210600 METAR MROC 210600Z 08004KT CAVOK 21/20 A3002 NOSIG=
202006210700 METAR MROC 210700Z 05005KT 010V080 CAVOK 21/19 A3000 NOSIG=
202006210800 METAR MROC 210800Z 06008KT 030V170 CAVOK 20/18 A2999 NOSIG=
202006210900 METAR MROC 210900Z 08005KT CAVOK 21/17 A2997 NOSIG=
202006211000 METAR MROC 211000Z 07006KT CAVOK 19/18 A2998 NOSIG=
202006211100 METAR MROC 211100Z 05009KT 030V090 CAVOK 21/17 A2999 NOSIG=
202006211200 METAR MROC 211200Z 06007KT CAVOK 21/18 A2997 NOSIG=
202006211300 METAR MROC 211300Z 04006KT CAVOK 23/18 A2998 NOSIG=
202006211400 METAR MROC 211400Z 22005KT CAVOK 24/18 A3003 NOSIG=
202006211500 METAR MROC 211500Z 27004KT CAVOK 23/19 A3005 NOSIG=
202006211600 METAR MROC 211600Z 22003KT 9999 FEW040 SCT070 BKN200 25/20 A3003 NOSIG=
202006211700 METAR MROC 211700Z 27005KT 210V360 9999 FEW040 SCT070 BKN200 27/20 A3003 NOSIG=
202006211800 METAR MROC 211800Z 24007KT 200V290 9999 FEW035 SCT060 BKN200 27/21 A3002 NOSIG=
202006211900 METAR MROC 211900Z 23008KT 200V260 9999 VCSH BKN035 SCT100 27/22 A2999 BECMG SHRA=
202006212000 METAR MROC 212000Z 22007KT 5000 TSRA FEW005 SCT015CB BKN030 23/23 A2999 NOSIG=
202006212100 METAR MROC 212100Z 33004KT 260V010 9999 FEW010 BKN120 23/23 A2997 NOSIG=
202006212200 METAR MROC 212200Z VRB02KT 9999 FEW020 BKN120 24/21 A2997 BECMG TSRA FEW015CB=
202006212300 METAR MROC 212300Z 16006KT 080V200 9999 FEW008 BKN120 23/22 A2997 NOSIG=
202006220000 METAR MROC 220000Z 16005KT 110V210 9999 FEW005 SCT050 BKN120 22/21 A3000 TEMPO RA=
202006220100 METAR MROC 220100Z 11008KT 070V140 9999 -RA FEW020 BKN110 23/18 A3000 NOSIG=
202006220200 METAR MROC 220200Z 10005KT 070V130 9999 -RA FEW030 BKN100 21/20 A2998 NOSIG=
202006220300 METAR MROC 220300Z 07007KT 9999 -RA FEW030 BKN100 22/19 A2998 NOSIG=
202006220400 METAR MROC 220400Z 07004KT CAVOK 22/18 A2999 NOSIG=
202006220500 METAR MROC 220500Z 08008KT 040V120 CAVOK 22/19 A3001 NOSIG=
202006220600 METAR MROC 220600Z 12009KT 080V150 CAVOK 22/18 A3000 NOSIG=
202006220700 METAR MROC 220700Z 09006KT 040V120 9999 -RA NSC 22/18 A3001 NOSIG=
202006220800 METAR MROC 220800Z 09005KT 060V120 CAVOK 22/19 A3000 NOSIG=
202006220900 METAR MROC 220900Z 05007KT 350V070 CAVOK 22/19 A2999 NOSIG=
202006221000 METAR MROC 221000Z 07005KT CAVOK 21/18 A2998 NOSIG=
202006221100 METAR MROC 221100Z 05007KT CAVOK 21/18 A2999 NOSIG=
202006221200 METAR MROC 221200Z 04004KT 350V080 CAVOK 21/18 A3000 NOSIG=
202006221300 METAR MROC 221300Z VRB02KT 9999 FEW045 SCT150 25/19 A3002 NOSIG=
202006221400 METAR MROC 221400Z 25003KT 190V310 9999 FEW045 SCT150 23/20 A3003 NOSIG=
202006221500 METAR MROC 221500Z 29006KT 250V320 9999 FEW035 SCT150 25/20 A3004 NOSIG=
202006221600 METAR MROC 221600Z 24008KT 210V280 9999 FEW035 SCT200 26/20 A3003 NOSIG=
202006221700 METAR MROC 221700Z 25004KT 9999 FEW035 SCT200 28/21 A3002 NOSIG=
202006221800 METAR MROC 221800Z 22007KT 9999 SCT045 SCT200 28/22 A3001 NOSIG=
202006221900 METAR MROC 221900Z 24008KT 9999 SCT045 BKN200 27/23 A2999 NOSIG=
202006222000 METAR MROC 222000Z 25010KT 9999 FEW035 SCT045 BKN200 27/23 A2997 NOSIG=
202006222100 METAR MROC 222100Z 23009KT 9999 -DZ FEW015TCU SCT060 BKN200 24/22 A2997 NOSIG=
202006222200 METAR MROC 222200Z 24007KT 210V280 9999 SCT010 SCT030 24/22 A2998 NOSIG=
202006222300 METAR MROC 222300Z 25004KT 180V270 9999 SCT005 SCT020 23/23 A2999 NOSIG=
202006230000 METAR MROC 230000Z 24004KT 220V280 8000 3000SW BCFG SCT005 23/23 A2999 NOSIG=
202006230100 METAR MROC 230100Z 25003KT 7000 SCT003 BKN010 22/22 A3000 NOSIG=
202006230200 METAR MROC 230200Z 27005KT 9000 FEW002 SCT015 BKN060 22/22 A3000 NOSIG=
202006230300 METAR MROC 230300Z VRB02KT CAVOK 22/22 A3000 NOSIG=
202006230400 METAR MROC 230400Z 11011KT 070V140 9999 FEW035 23/19 A2999 NOSIG=
202006230500 METAR MROC 230500Z 10012KT 080V140 9999 FEW040 24/19 A2999 NOSIG=
202006230600 METAR MROC 230600Z 12011KT 080V150 CAVOK 23/19 A2996 NOSIG=
202006230700 METAR MROC 230700Z 06003KT 010V120 CAVOK 22/19 A2995 NOSIG=
202006230800 METAR MROC 230800Z VRB02KT CAVOK 22/19 A2996 NOSIG=
202006230900 METAR MROC 230900Z 11008KT 080V160 CAVOK 22/18 A2994 NOSIG=
202006231000 METAR MROC 231000Z 02005KT 320V090 CAVOK 21/18 A2996 NOSIG=
202006231100 METAR MROC 231100Z 07007KT 9999 FEW040 22/19 A2996 NOSIG=
202006231200 METAR MROC 231200Z 07006KT CAVOK 22/18 A2996 NOSIG=
202006231300 METAR MROC 231300Z 12010KT 070V160 CAVOK 22/18 A2997 NOSIG=
202006231400 METAR MROC 231400Z 12010KT 090V150 9999 FEW040 BKN120 23/19 A2999 NOSIG=
202006231500 METAR MROC 231500Z 12007KT 090V160 9999 VCSH FEW045 BKN080 24/19 A3000 NOSIG=
202006231600 METAR MROC 231600Z 05006KT 010V090 9999 VCSH SCT045 BKN090 25/19 A3000 NOSIG=
202006231700 METAR MROC 231700Z 08005KT 9999 BKN045 26/20 A2998 NOSIG=
202006231800 METAR MROC 231800Z VRB02KT 9999 SCT045 SCT180 29/21 A2995 BECMG 25009KT=
202006231900 METAR MROC 231900Z 14006KT 080V190 9999 SCT040 SCT180 28/19 A2992 NOSIG=
202006232000 METAR MROC 232000Z 18005KT 150V210 9999 SCT045 SCT190 27/20 A2990 NOSIG=
202006232100 METAR MROC 232100Z 26011KT 9999 BKN015 26/23 A2990 NOSIG=
202006232200 METAR MROC 232200Z 26010KT 9999 FEW005 BKN015 24/23 A2992 NOSIG=
202006232300 METAR MROC 232300Z COR 24010KT 5000 -RA VCTS FEW015CB SCT003 OVC020 22/22 A2994 NOSIG=
202006240000 METAR MROC 240000Z 25009KT 5000 -TSRA BR FEW015CB SCT002 OVC020 22/22 A2997 NOSIG=
202006240100 METAR MROC 240100Z 28005KT 9999 -DZ FEW002 OVC020 22/22 A3000 RETS NOSIG=
202006240200 METAR MROC 240200Z 27005KT 9999 -DZ FEW002 OVC015 21/21 A3002 NOSIG=
202006240300 METAR MROC 240300Z VRB02KT 9999 SCT015 21/21 A3003 NOSIG=
202006240400 METAR MROC 240400Z 35003KT 9999 SCT025 21/21 A3003 NOSIG=
202006240500 METAR MROC 240500Z 12003KT 9999 FEW025 21/21 A3001 NOSIG=
202006240600 METAR MROC 240600Z 05004KT 020V090 CAVOK 21/21 A2998 NOSIG=
202006240700 METAR MROC 240700Z 06007KT CAVOK 20/20 A2995 NOSIG=
202006240800 METAR MROC 240800Z 05005KT 360V080 CAVOK 21/20 A2995 NOSIG=
202006240900 METAR MROC 240900Z 06009KT CAVOK 21/19 A2994 NOSIG=
202006241000 METAR MROC 241000Z 07007KT 040V110 CAVOK 22/18 A2994 NOSIG=
202006241100 METAR MROC 241100Z 10007KT 070V150 CAVOK 22/18 A2993 NOSIG=
202006241200 METAR MROC 241200Z 11009KT 080V140 CAVOK 22/18 A2995 NOSIG=
202006241300 METAR MROC 241300Z 11009KT 080V140 CAVOK 23/18 A2998 NOSIG=
202006241400 METAR MROC 241400Z 12011KT 090V150 CAVOK 25/19 A2997 NOSIG=
202006241500 METAR MROC 241500Z 12010KT 090V160 CAVOK 26/19 A2998 NOSIG=
202006241600 METAR MROC 241600Z 10013KT 9999 FEW045 SCT180 26/18 A2999 NOSIG=
202006241700 METAR MROC 241700Z 09011KT 060V120 9999 SCT035 BKN180 27/18 A2998 NOSIG=
202006241800 METAR MROC 241800Z 09007KT 9999 SCT045 BKN090 27/20 A2998 NOSIG=
202006241900 METAR MROC 241900Z 12007KT 060V170 CAVOK 27/19 A2995 NOSIG=
202006242000 METAR MROC 242000Z 11007KT 070V170 CAVOK 29/18 A2992 NOSIG=
202006242100 METAR MROC 242100Z 25008KT 220V300 9999 FEW020 BKN120 26/22 A2991 NOSIG=
202006242200 METAR MROC 242200Z 23008KT 9999 FEW006 SCT030 BKN120 23/23 A2992 NOSIG=
202006242300 METAR MROC 242300Z 24006KT 200V280 9999 4500SW BCFG SCT005 BKN160 23/23 A2994 NOSIG=
202006250000 METAR MROC 250000Z 25005KT 9999 4500SW BCFG BKN006 22/22 A2996 TEMPO 5000 BR=
202006250100 METAR MROC 250100Z 23003KT 9999 BKN005 22/22 A2998 NOSIG=
202006250200 METAR MROC 250200Z 00000KT 9999 4500S BCFG FEW002 BKN007 22/22 A2999 NOSIG=
202006250300 METAR MROC 250300Z 23004KT 9999 4500S BCFG FEW002 BKN180 21/21 A3001 NOSIG=
202006250400 METAR MROC 250400Z VRB02KT 7000 2000SW BCFG SCT001 SCT005 21/21 A3002 NOSIG=
202006250500 METAR MROC 250500Z VRB02KT 5000 BR BKN004 21/21 A3001 NOSIG=
202006250600 METAR MROC 250600Z 03004KT CAVOK 21/21 A2999 NOSIG=
202006250700 METAR MROC 250700Z 02003KT CAVOK 21/20 A2997 NOSIG=
202006250800 METAR MROC 250800Z 04003KT 350V130 9999 FEW020 21/19 A2997 NOSIG=
202006250900 METAR MROC 250900Z 36004KT 330V030 CAVOK 21/19 A2997 NOSIG=
202006251000 METAR MROC 251000Z 05006KT 010V090 CAVOK 21/18 A2997 NOSIG=
202006251100 METAR MROC 251100Z VRB03KT CAVOK 22/18 A2997 NOSIG=
202006251200 METAR MROC 251200Z VRB01KT CAVOK 20/18 A2999 NOSIG=
202006251300 METAR MROC 251300Z 11006KT 070V140 CAVOK 24/19 A2999 NOSIG=
202006251400 METAR MROC 251400Z 09009KT 9999 FEW045 BKN200 25/18 A3000 NOSIG=
202006251500 METAR MROC 251500Z 09011KT 9999 FEW040 BKN200 24/17 A3001 NOSIG=
202006251600 METAR MROC 251600Z 07014KT 9999 FEW045 BKN200 26/16 A3002 NOSIG=
202006251700 METAR MROC 251700Z 07015KT CAVOK 26/15 A3001 NOSIG=
202006251800 METAR MROC 251800Z 07018KT CAVOK 28/14 A3000 NOSIG=
202006251900 METAR MROC 251900Z 07015KT CAVOK 29/15 A2998 NOSIG=
202006252000 METAR MROC 252000Z 06020KT CAVOK 29/14 A2996 NOSIG=
202006252100 METAR MROC 252100Z 07014G24KT 040V100 CAVOK 29/14 A2997 NOSIG=
202006252200 METAR MROC 252200Z 07015KT 040V100 CAVOK 28/15 A2994 NOSIG=
202006252300 METAR MROC 252300Z 06013KT 020V100 CAVOK 27/16 A2995 NOSIG=
202006260000 METAR MROC 260000Z 06010KT 9999 4500SW DU NSC 25/15 A2997 NOSIG=
202006260100 METAR MROC 260100Z 14004KT 100V170 CAVOK 23/17 A2999 NOSIG=
202006260200 METAR MROC 260200Z 09006KT 060V150 CAVOK 23/18 A3001 NOSIG=
202006260300 METAR MROC 260300Z 12006KT 060V160 CAVOK 23/18 A3002 NOSIG=
202006260400 METAR MROC 260400Z 05005KT CAVOK 22/18 A3003 NOSIG=
202006260500 METAR MROC 260500Z 05005KT 020V080 CAVOK 22/18 A3002 NOSIG=
202006260600 METAR MROC 260600Z 11009KT 070V150 CAVOK 22/18 A3001 NOSIG=
202006260700 METAR MROC 260700Z 11008KT 090V150 CAVOK 22/17 A2999 NOSIG=
202006260800 METAR MROC 260800Z 11012KT 090V150 CAVOK 22/18 A2998 NOSIG=
202006260900 METAR MROC 260900Z 09012KT CAVOK 22/17 A2996 NOSIG=
202006261000 METAR MROC 261000Z 11011KT CAVOK 22/17 A2994 NOSIG=
202006261100 METAR MROC 261100Z 11017G27KT CAVOK 22/17 A2995 NOSIG=
202006261200 METAR MROC 261200Z 11016G26KT CAVOK 22/17 A2995 NOSIG=
202006261300 METAR MROC 261300Z 11011KT 070V160 CAVOK 23/17 A2999 NOSIG=
202006261400 METAR MROC 261400Z 10017G27KT CAVOK 24/17 A3003 NOSIG=
202006261500 METAR MROC 261500Z 09010G20KT 9999 FEW045 SCT090 SCT250 24/17 A3004 NOSIG=
202006261600 METAR MROC 261600Z 12012KT 080V150 CAVOK 25/17 A3002 NOSIG=
202006261700 METAR MROC 261700Z 10012KT 050V140 9999 FEW045 SCT160 SCT250 28/17 A3000 NOSIG=
202006261800 METAR MROC 261800Z 07015KT 050V110 9999 FEW040 SCT160 SCT250 29/18 A3000 NOSIG=
202006261900 METAR MROC 261900Z 06016KT 9999 FEW040 SCT160 SCT250 28/17 A3000 NOSIG=
202006262000 METAR MROC 262000Z 09006KT 060V130 9999 -RA FEW040 SCT080 OVC100 23/20 A2999 NOSIG=
202006262100 METAR MROC 262100Z 12006KT 090V160 9999 FEW040 BKN120 23/19 A2996 NOSIG=
202006262200 METAR MROC 262200Z 11009KT CAVOK 24/17 A2997 NOSIG=
202006262300 METAR MROC 262300Z 12005KT 080V150 CAVOK 24/18 A2998 NOSIG=
202006270000 METAR MROC 270000Z 07006KT CAVOK 23/16 A2998 NOSIG=
202006270100 METAR MROC 270100Z 10014KT CAVOK 23/16 A3000 NOSIG=
202006270200 METAR MROC 270200Z 10011KT CAVOK 22/17 A3001 NOSIG=
202006270300 METAR MROC 270300Z 11014KT CAVOK 22/17 A3001 NOSIG=
202006270400 METAR MROC 270400Z 11010KT 080V140 CAVOK 22/17 A3001 NOSIG=
202006270500 METAR MROC 270500Z 05005KT 030V090 CAVOK 22/17 A3001 NOSIG=
202006270600 METAR MROC 270600Z 07003KT 350V100 CAVOK 22/17 A2999 NOSIG=
202006270700 METAR MROC 270700Z VRB03KT CAVOK 28/18 A2998 NOSIG=
202006270800 METAR MROC 270800Z VRB02KT CAVOK 21/18 A2996 NOSIG=
202006270900 METAR MROC 270900Z VRB02KT CAVOK 20/18 A2995 NOSIG=
202006271000 METAR MROC 271000Z 36003KT 290V090 CAVOK 20/20 A2995 NOSIG=
202006271100 METAR MROC 271100Z 01003KT 320V080 CAVOK 19/18 A2996 NOSIG=
202006271200 METAR MROC 271200Z 03004KT 330V060 9999 FEW007 OVC140 20/18 A2998 NOSIG=
202006271300 METAR MROC 271300Z 11004KT 070V160 9999 FEW005 OVC140 21/18 A2999 NOSIG=
202006271400 METAR MROC 271400Z 21003KT 9999 -RA NSC 21/20 A3000 NOSIG=
202006271500 METAR MROC 271500Z 24003KT 170V310 CAVOK 22/19 A3002 NOSIG=
202006271600 METAR MROC 271600Z VRB03KT CAVOK 24/19 A3000 NOSIG=
202006271700 METAR MROC 271700Z 25008KT 9999 FEW035 BKN120 24/20 A2999 NOSIG=
202006271800 METAR MROC 271800Z 26007KT 220V290 9999 FEW025 BKN035 24/20 A2999 NOSIG=
202006271900 METAR MROC 271900Z 27005KT 9999 -DZ SCT035 BKN140 25/20 A2998 NOSIG=
202006272000 METAR MROC 272000Z 24003KT 190V290 9999 SCT035 BKN150 24/20 A2995 NOSIG=
202006272100 METAR MROC 272100Z 25007KT 9999 FEW020 SCT035 BKN120 24/21 A2994 NOSIG=
202006272200 METAR MROC 272200Z 25006KT 220V280 9999 FEW010 SCT025 BKN120 23/21 A2997 NOSIG=
202006272300 METAR MROC 272300Z 21006KT 180V240 8000 3000NW -RA VCFG FEW005 SCT015 BKN045 22/21 A2995 BECMG 5000 BR=
202006280000 METAR MROC 280000Z 14006KT 090V170 5000 TSRA FEW005 SCT015CB BKN025 20/20 A2998 NOSIG=
202006280100 METAR MROC 280100Z 01004KT 9999 -RA VCTS FEW015CB OVC045 21/21 A3000 RETSRA NOSIG=
202006280200 METAR MROC 280200Z 10006KT 9999 -RA NSC 20/20 A3001 NOSIG=
202006280300 METAR MROC 280300Z 08006KT 9999 -RA FEW030 OVC120 21/20 A3002 NOSIG=
202006280400 METAR MROC 280400Z 06007KT 040V100 9999 FEW030 OVC120 21/19 A3002 NOSIG=
202006280500 METAR MROC 280500Z 08007KT 050V120 9999 FEW030 BKN120 21/19 A3000 NOSIG=
202006280600 METAR MROC 280600Z 10006KT 050V130 CAVOK 21/19 A2997 NOSIG=
202006280700 METAR MROC 280700Z 10011KT CAVOK 22/18 A2995 NOSIG=
202006280800 METAR MROC 280800Z 10011KT CAVOK 21/18 A2993 NOSIG=
202006280900 METAR MROC 280900Z 11007KT 090V160 CAVOK 22/17 A2993 NOSIG=
202006281000 METAR MROC 281000Z VRB02KT CAVOK 21/17 A2992 NOSIG=
202006281100 METAR MROC 281100Z VRB03KT CAVOK 20/18 A2995 NOSIG=
202006281200 METAR MROC 281200Z 02003KT CAVOK 20/18 A2997 NOSIG=
202006281300 METAR MROC 281300Z 10003KT 060V150 CAVOK 23/18 A2999 NOSIG=
202006281400 METAR MROC 281400Z 13008KT 090V160 CAVOK 24/18 A2999 NOSIG=
202006281500 METAR MROC 281500Z 11007KT 080V150 CAVOK 25/18 A3000 NOSIG=
202006281600 METAR MROC 281600Z 11006KT 070V160 FEW045 SCT150 BKN200 27/18 A3000 NOSIG=
202006281700 METAR MROC 281700Z 25008KT FEW030 BKN130 26/20 A2999 NOSIG=
202006281800 METAR MROC 281800Z 26006KT 9999 BKN045 25/20 A2999 NOSIG=
202006281900 METAR MROC 281900Z 25003KT 190V290 9999 FEW030 SCT060 BKN100 26/21 A2995 NOSIG=
202006282000 METAR MROC 282000Z 23008KT 9999 RA FEW025 BKN100 25/21 A2993 NOSIG=
202006282100 METAR MROC 282100Z 28009KT 240V300 9999 VCTS FEW004 SCT045 23/21 A2993 RERA NOSIG=
202006282200 METAR MROC 282200Z 28006KT 9999 -RA VCTS FEW003 BKN020 OVC030 21/21 A2995 NOSIG=
202006282300 METAR MROC 282300Z 26003KT 230V290 8000 4000W -RA FEW003 SCT010 BKN035 21/21 A2996 NOSIG=
202006290000 METAR MROC NIL=
202006290100 METAR MROC NIL=
202006290200 METAR MROC NIL=
202006290300 METAR MROC NIL=
202006290400 METAR MROC 290400Z 04003KT 360V080 CAVOK 22/20 A3001 NOSIG=
202006290500 METAR MROC 290500Z VRB02KT CAVOK 21/21 A3000 NOSIG=
202006290600 METAR MROC 290600Z 00000KT 9999 BCFG NSC 20/20 A3000 NOSIG=
202006290700 METAR MROC 290700Z VRB02KT 9999 BCFG FEW025 SCT120 21/21 A2998 NOSIG=
202006290800 METAR MROC 290800Z VRB02KT 9999 BCFG FEW025 SCT120 20/20 A2998 NOSIG=
202006290900 METAR MROC 290900Z 04005KT 010V070 9999 BCFG NSC 20/20 A2996 NOSIG=
202006291000 METAR MROC 291000Z VRB02KT CAVOK 20/20 A2995 NOSIG=
202006291100 METAR MROC 291100Z 09003KT CAVOK 21/19 A2996 NOSIG=
202006291200 METAR MROC 291200Z 24004KT 9999 BCFG NSC 20/20 A3000 NOSIG=
202006291300 METAR MROC 291300Z VRB02KT CAVOK 21/21 A3003 NOSIG=
202006291400 METAR MROC 291400Z VRB02KT CAVOK 22/21 A3004 NOSIG=
202006291500 METAR MROC 291500Z 26004KT 230V290 9999 FEW010 BKN130 23/20 A3005 NOSIG=
202006291600 METAR MROC 291600Z 24003KT 180V300 9999 FEW015 BKN130 23/20 A3005 NOSIG=
202006291700 METAR MROC 291700Z 26004KT 190V290 9999 SCT025 25/20 A3003 NOSIG=
202006291800 METAR MROC 291800Z 25004KT 180V320 9999 SCT030 27/20 A3000 NOSIG=
202006291900 METAR MROC 291900Z 25007KT 9999 FEW030 SCT250 27/22 A2996 NOSIG=
202006292000 METAR MROC 292000Z 26011KT 9999 FEW025TCU SCT035 BKN250 27/22 A2995 NOSIG=
202006292100 METAR MROC 292100Z 24010KT 210V270 4000 TSRA SCT025CB BKN030 24/23 A2994 NOSIG=
202006292200 METAR MROC 292200Z VRB03KT 1000 R07/1200D +TSRA FEW005 BKN010CB 20/20 A2997 NOSIG=
202006292300 METAR MROC 292300Z 03004KT 9999 -RA VCTS FEW005 BKN080 20/20 A2997 RETSRA NOSIG=
202006300000 METAR MROC 300000Z VRB01KT 9999 -RA FEW025 SCT050 OVC090 21/21 A2999 NOSIG=
202006300100 METAR MROC 300100Z 27003KT 9999 FEW045 BKN200 21/21 A3000 NOSIG=
202006300200 METAR MROC 300200Z 16003KT 120V190 9999 2000W SCT001 BKN090 21/21 A3002 NOSIG=
202006300300 METAR MROC 300300Z 04003KT 9999 FEW040 BKN090 21/21 A3003 NOSIG=
202006300400 METAR MROC 300400Z 06003KT CAVOK 21/21 A3002 NOSIG=
202006300500 METAR MROC 300500Z 08005KT CAVOK 21/20 A3002 NOSIG=
202006300600 METAR MROC 300600Z 02005KT 350V060 CAVOK 21/20 A3002 NOSIG=
202006300700 METAR MROC 300700Z 01003KT 9999 -RA FEW010 BKN100 21/19 A3000 NOSIG=
202006300800 METAR MROC 300800Z 07007KT 9999 FEW010 BKN100 20/19 A2997 NOSIG=
202006300900 METAR MROC 300900Z 05007KT 020V080 CAVOK 21/19 A2995 NOSIG=
202006301000 METAR MROC 301000Z VRB02KT CAVOK 21/18 A2994 NOSIG=
202006301100 METAR MROC 301100Z 05008KT 020V110 CAVOK 21/18 A2997 NOSIG=
202006301200 METAR MROC 301200Z 06008KT 030V100 9999 FEW045 BKN100 21/18 A2998 NOSIG=
202006301300 METAR MROC 301300Z 09003KT 040V130 CAVOK 22/18 A3000 NOSIG=
202006301400 METAR MROC 301400Z 10013KT CAVOK 23/17 A3001 NOSIG=
202006301500 METAR MROC 301500Z 00911KT 060V120 CAVOK 25/17 A3001 NOSIG=
202006301600 METAR MROC 301600Z 11009KT 060V160 CAVOK 26/18 A3000 NOSIG=
202006301700 METAR MROC 301700Z 11009KT 060V160 CAVOK 28/18 A2998 NOSIG=
202006301800 METAR MROC 301800Z 11010KT 060V180 CAVOK 28/17 A2997 NOSIG=
202006301900 METAR MROC 301900Z 10008KT 060V130 9999 FEW030TCU FEW045 BKN130 28/17 A2996 NOSIG=
202006302000 METAR MROC 302000Z 21007KT 130V260 9999 RA FEW015 SCT025 BKN120 25/22 A2995 NOSIG=
202006302100 METAR MROC 302100Z 12008KT 080V190 9999 4000NE RA VCTS FEW010CB BKN040 23/20 A2995 NOSIG=
202006302200 METAR MROC 302200Z 33004KT 300V020 9999 -TSRA FEW015CB BKN060 20/19 A2995 NOSIG=
202006302300 METAR MROC 302300Z VRB03KT 9999 -RA FEW045 BKN100 20/20 A2997 RETS NOSIG=
202007010000 METAR MROC 010000Z VRB02KT 9999 RA NSC 21/20 A2998 NOSIG=
202007010100 METAR MROC 010100Z 13004KT 090V170 9999 -RA NSC 21/19 A3000 NOSIG=
202007010200 METAR MROC 010200Z 06005KT 340V100 9999 -RA NSC 21/19 A3001 NOSIG=
202007010300 METAR MROC 010300Z 13003KT 070V190 9999 FEW030 BKN120 22/18 A3003 NOSIG=
202007010400 METAR MROC 010400Z 28003KT 9999 -RA NSC 20/18 A3004 NOSIG=
202007010500 METAR MROC 010500Z 35003KT CAVOK 20/18 A3003 NOSIG=
202007010600 METAR MROC 010600Z VRB02KT CAVOK 20/18 A3002 NOSIG=
202007010700 METAR MROC 010700Z 22001KT CAVOK 19/18 A3002 NOSIG=
202007010800 METAR MROC 010800Z 16003KT CAVOK 19/19 A3000 NOSIG=
202007010900 METAR MROC 010900Z VRB01KT 9999 FEW010 BKN100 19/19 A2999 NOSIG=
202007011000 METAR MROC 011000Z 07004KT CAVOK 19/19 A2998 NOSIG=
202007011100 METAR MROC 011100Z 04006KT CAVOK 20/18 A2997 NOSIG=
202007011200 METAR MROC 011200Z 05008KT CAVOK 20/18 A2997 NOSIG=
202007011300 METAR MROC 011300Z 07006KT CAVOK 21/18 A2996 NOSIG=
202007011400 METAR MROC 011400Z 10005KT 060V130 9999 FEW040 SCT120 BKN150 23/17 A2998 NOSIG=
202007011500 METAR MROC 011500Z 11012G22KT 090V150 9999 FEW040 SCT120 BKN200 24/16 A2999 NOSIG=
202007011600 METAR MROC 011600Z 10015G26KT 9999 FEW040 SCT150 26/16 A2999 NOSIG=
202007011700 METAR MROC 011700Z 10010G20KT 9999 FEW040 BKN150 27/17 A3000 NOSIG=
202007011800 METAR MROC 011800Z 10014KT 050V140 9999 FEW045 BKN150 27/17 A2998 NOSIG=
202007011900 METAR MROC 011900Z 13013KT 090V170 9999 SCT045 BKN150 28/17 A2997 NOSIG=
202007012000 METAR MROC 012000Z 24013KT 9999 FEW025TCU SCT045 BKN100 24/22 A2995 NOSIG=
202007012100 METAR MROC 012100Z COR 24010KT 9999 VCFG FEW005 SCT015 BKN040 22/22 A2994 TEMPO BKN010=
202007012200 METAR MROC 012200Z 27007KT 240V320 9000 -RA VCFG FEW002 BKN010 21/21 A2996 NOSIG=
202007012300 METAR MROC 012300Z 32004KT 280V360 7000 -RA BCFG FEW007 BKN015 20/20 A2998 TEMPO BKN010=
202007020000 METAR MROC 020000Z VRB02KT 5000 -RA BR FEW010 BKN040 20/20 A2999 NOSIG=
202007020100 METAR MROC 020100Z 13002KT 9999 FEW015 SCT060 BKN120 20/20 A3001 NOSIG=
202007020200 METAR MROC 020200Z VRB02KT 9999 FEW020 BKN120 20/20 A3002 NOSIG=
202007020300 METAR MROC 020300Z 32002KT 9999 FEW002 BKN120 20/20 A3003 NOSIG=
202007020400 METAR MROC 020400Z 00000KT CAVOK 20/20 A3003 NOSIG=
202007020500 METAR MROC 020500Z 08004KT CAVOK 20/20 A3002 NOSIG=
202007020600 METAR MROC 020600Z 08004KT CAVOK 19/19 A3000 NOSIG=
202007020700 METAR MROC 020700Z 06005KT CAVOK 19/19 A2998 NOSIG=
202007020800 METAR MROC 020800Z 07005KT CAVOK 19/18 A2997 NOSIG=
202007020900 METAR MROC 020900Z 09007KT CAVOK 20/17 A2997 NOSIG=
202007021000 METAR MROC 021000Z 07007KT CAVOK 19/17 A2996 NOSIG=
202007021100 METAR MROC 021100Z 06007KT CAVOK 19/17 A2997 NOSIG=
202007021200 METAR MROC 021200Z 04005KT CAVOK 19/17 A2998 NOSIG=
202007021300 METAR MROC 021300Z 10007KT CAVOK 23/18 A2999 NOSIG=
202007021400 METAR MROC 021400Z 09013KT CAVOK 25/18 A3000 NOSIG=
202007021500 METAR MROC 021500Z 11010KT 070V160 CAVOK 26/18 A3002 NOSIG=
202007021600 METAR MROC 021600Z 24004KT CAVOK 26/19 A3002 NOSIG=
202007021700 METAR MROC 021700Z 23009KT 9999 FEW045 SCT060 BKN200 27/21 A3000 NOSIG=
202007021800 METAR MROC 021800Z 25013KT 220V280 9999 FEW035 SCT060 BKN200 26/21 A3000 NOSIG=
202007021900 METAR MROC 021900Z 24012KT 9999 VCSH SCT025 BKN080 25/22 A2998 TEMPO SHRA=
202007022000 METAR MROC 022000Z 21006KT 180V240 5000 TSRA SCT015CB BKN025 23/20 A2998 NOSIG=
202007022100 METAR MROC 022100Z 31004KT 250V010 9999 -RA BKN020 21/21 A2998 RETS NOSIG=
202007022200 METAR MROC 022200Z 36003KT 330V030 9999 -RA VCTS FEW020CB SCT025 OVC100 21/21 A2997 NOSIG=
202007022300 METAR MROC 022300Z 11003KT 9999 -RA FEW010 SCT060 BKN120 21/21 A2997 NOSIG=
202007030000 METAR MROC 030000Z 17002KT 9999 FEW015 SCT120 BKN200 21/21 A3000 NOSIG=
202007030100 METAR MROC 030100Z VRB02KT 6000 FEW002 BKN120 21/21 A3002 NOSIG=
202007030200 METAR MROC 030200Z VRB01KT 7000 -RA SCT002 BKN030 21/21 A3003 NOSIG=
202007030300 METAR MROC 030300Z COR VRB02KT 9000 -RA FEW020 BKN180 21/21 A3003 NOSIG=
202007030400 METAR MROC 030400Z 02003KT 9000 FEW030 BKN120 21/21 A3004 NOSIG=
202007030500 METAR MROC 030500Z 05004KT 9999 FEW025 BKN200 21/20 A3003 NOSIG=
202007030600 METAR MROC 030600Z 08005KT 9999 FEW035 20/20 A3000 NOSIG=
202007030700 METAR MROC 030700Z 08007KT 9999 FEW035 20/19 A2999 NOSIG=
202007030800 METAR MROC 030800Z 06008KT 030V090 9999 FEW035 21/19 A2996 NOSIG=
202007030900 METAR MROC 030900Z 05008KT 9999 FEW035 21/19 A2994 NOSIG=
202007031000 METAR MROC 031000Z 05004KT 030V090 CAVOK 21/19 A2995 NOSIG=
202007031100 METAR MROC 031100Z 26005KT 230V290 CAVOK 21/19 A2997 NOSIG=
202007031200 METAR MROC 031200Z VRB02KT 9999 FEW010 BKN200 20/20 A2997 NOSIG=
202007031300 METAR MROC 031300Z 05004KT 360V100 9999 FEW010 SCT130 22/19 A2998 NOSIG=
202007031400 METAR MROC 031400Z 06004KT 330V110 CAVOK 24/19 A2999 NOSIG=
202007031500 METAR MROC 031500Z 27005KT 230V300 9999 FEW040 BKN110 25/20 A3000 NOSIG=
202007031600 METAR MROC 031600Z VRB05KT 9999 SCT045 SCT090 27/19 A3000 NOSIG=
202007031700 METAR MROC 031700Z VRB04KT 9999 BKN045 27/20 A2998 NOSIG=
202007031800 METAR MROC 031800Z 23007KT 190V270 9999 SCT045 BKN100 26/21 A2997 NOSIG=
202007031900 METAR MROC 031900Z 25010KT 9999 BKN030 26/21 A2994 NOSIG=
202007032000 METAR MROC 032000Z 24009KT 9999 BKN020 25/22 A2993 NOSIG=
202007032044 METAR MROC 032044Z 26010KT 230V360 3000 TSRA FEW015CB SCT005 BKN020 23/23 A2992 NOSIG=
202007032100 METAR MROC 032100Z 25013KT 9000 1500SW +TSRA FEW015CB OVC020 21/21 A2991 NOSIG=
202007032200 METAR MROC 032200Z 25008KT 9999 2000SW FEW001 SCT035 OVC080 21/21 A2993 RETSRA NOSIG=
202007032300 METAR MROC 032300Z 33004KT 8000 2000SW -RA FEW001 SCT020 OVC100 21/21 A2993 NOSIG=
202007040000 METAR MROC 040000Z VRB03KT 9999 2000SW FEW001 SCT020 OVC100 21/21 A2996 NOSIG=
202007040100 METAR MROC 040100Z 24005KT 210V320 2000 -DZ FG FEW001 SCT010 OVC100 21/21 A3000 NOSIG=
202007040200 METAR MROC 040200Z 26003KT 240V320 9999 FEW002 SCT010 OVC045 21/21 A3003 NOSIG=
202007040300 METAR MROC 040300Z 08004KT 050V110 9999 FEW002 SCT045 21/21 A3002 NOSIG=
202007040400 METAR MROC 040400Z 07007KT CAVOK 21/20 A3003 NOSIG=
202007040500 METAR MROC 040500Z 05006KT CAVOK 21/20 A3002 NOSIG=
202007040600 METAR MROC 040600Z 10003KT CAVOK 20/20 A3000 NOSIG=
202007040700 METAR MROC 040700Z 06007KT CAVOK 21/19 A2997 NOSIG=
202007040800 METAR MROC 040800Z 06009KT CAVOK 21/19 A2994 NOSIG=
202007040900 METAR MROC 040900Z 06008KT 030V090 CAVOK 21/18 A2994 NOSIG=
202007041000 METAR MROC 041000Z 10004KT 050V170 CAVOK 22/18 A2995 NOSIG=
202007041100 METAR MROC 041100Z 26004KT 230V300 CAVOK 21/18 A2996 NOSIG=
202007041200 METAR MROC 041200Z 00000KT 9999 FEW035 SCT200 21/18 A2997 NOSIG=
202007041300 METAR MROC 041300Z 02004KT CAVOK 22/19 A2998 NOSIG=
202007041400 METAR MROC 041400Z VRB04KT 9999 FEW045 BKN200 25/20 A2998 BECMG 25008KT=
202007041500 METAR MROC 041500Z 12008KT 080V150 9999 SCT040 BKN200 26/19 A3000 NOSIG=
202007041600 METAR MROC 041600Z 11008KT 080V150 9999 BKN030 27/20 A3000 NOSIG=
202007041700 METAR MROC 041700Z 24006KT 180V270 9999 BKN040 26/21 A3002 NOSIG=
202007041800 METAR MROC 041800Z 25009KT 220V290 9999 BKN045 OVC090 25/21 A3001 NOSIG=
202007041900 METAR MROC 041900Z 25010KT 9999 BKN035 OVC090 25/21 A2999 NOSIG=
202007042000 METAR MROC 042000Z 26009KT 9999 SCT015 BKN020 24/22 A2997 NOSIG=
202007042100 METAR MROC 042100Z 23007KT 200V260 9999 SHRA FEW010 SCT020TCU BKN030 24/21 A2996 NOSIG=
202007042200 METAR MROC 042200Z 17006KT 120V230 9999 4500SE +RA SCT012 OVC035 22/21 A2996 NOSIG=
202007042300 METAR MROC 042300Z 24003KT 220V290 9999 4500SW BCFG FEW005 OVC030 21/21 A2999 RERA NOSIG=
202007050000 METAR MROC 050000Z 26004KT 5000 BR OVC005 21/21 A3001 TEMPO 3000=
202007050100 METAR MROC 050100Z 01003KT 9999 FEW006 BKN020 21/21 A3003 NOSIG=
202007050200 METAR MROC 050200Z 31003KT 9999 BCFG FEW005 BKN120 21/21 A3002 NOSIG=
202007050300 METAR MROC 050300Z 29003KT 250V320 9999 FEW008 SCT030 BKN160 21/21 A3004 NOSIG=
202007050400 METAR MROC 050400Z VRB02KT 9999 SCT020 21/21 A3006 NOSIG=
202007050500 METAR MROC 050500Z VRB02KT 9999 SCT020 21/21 A3006 NOSIG=
202007050600 METAR MROC 050600Z 09003KT 9999 FEW010 21/21 A3003 NOSIG=
202007050700 METAR MROC 050700Z 05004KT CAVOK 20/20 A3002 NOSIG=
202007050800 METAR MROC 050800Z 12003KT 080V130 9999 FEW010 19/19 A2999 NOSIG=
202007050900 METAR MROC 050900Z 08004KT CAVOK 19/19 A2998 NOSIG=
202007051000 METAR MROC 051000Z 08005KT CAVOK 18/18 A2998 NOSIG=
202007051100 METAR MROC 051100Z 08007KT CAVOK 19/18 A2998 NOSIG=
202007051200 METAR MROC 051200Z 07007KT CAVOK 19/17 A3000 NOSIG=
202007051300 METAR MROC 051300Z VRB02KT CAVOK 22/18 A3002 NOSIG=
202007051400 METAR MROC 051400Z 04004KT 330V090 CAVOK 24/18 A3003 NOSIG=
202007051500 METAR MROC 051500Z VRB03KT CAVOK 26/17 A3004 BECMG 24006KT=
202007051600 METAR MROC 051600Z 13008KT 090V170 CAVOK 27/17 A3003 NOSIG=
202007051700 METAR MROC 051700Z 11008KT 070V160 CAVOK 29/18 A3001 NOSIG=
202007051800 METAR MROC 051800Z 23011KT CAVOK 28/21 A2998 NOSIG=
202007051900 METAR MROC 051900Z 24012KT 210V270 9999 SCT030 BKN200 26/22 A2997 BECMG BKN020TCU=
202007052000 METAR MROC 052000Z 25011KT 9999 FEW015TCU BKN035 25/22 A2996 BECMG TSRA=
202007052100 METAR MROC 052100Z 25009KT 9999 OVC010 23/22 A2996 TEMPO 5000 TSRA=
202007052200 METAR MROC 052200Z 24006KT 9999 4500SW SHRA SCT005 OVC020 22/22 A2996 NOSIG=
202007052300 METAR MROC 052300Z 25005KT 9999 VCTS FEW007 BKN010 22/22 A2997 RESHRA NOSIG=
202007060000 METAR MROC 060000Z 22003KT 9999 4500SW BCFG SCT004 OVC010 22/22 A2998 TEMPO 5000 BR=
202007060100 METAR MROC 060100Z 24003KT 200V260 9999 OVC010 21/21 A3000 NOSIG=
202007060200 METAR MROC 060200Z 24005KT 9999 VCFG OVC003 21/21 A3001 NOSIG=
202007060300 METAR MROC 060300Z 24004KT 0500 R07/1400D FG OVC001 21/21 A3003 NOSIG=
202007060400 METAR MROC 060400Z VRB01KT 1500 BR OVC002 21/21 A3003 NOSIG=
202007060500 METAR MROC 060500Z 25002KT 7000 SCT005 BKN200 21/21 A3004 NOSIG=
202007060600 METAR MROC 060600Z 11003KT 9000 SCT015 BKN200 20/20 A3002 NOSIG=
202007060700 METAR MROC 060700Z 08002KT 7000 0500W R07/0600N BCFG SCT008 BKN070 20/20 A3002 NOSIG=
202007060800 METAR MROC 060800Z 05004KT 9999 BKN015 20/20 A3000 NOSIG=
202007060900 METAR MROC 060900Z VRB02KT 9999 FEW035 SCT160 20/20 A3000 NOSIG=
202007061000 METAR MROC 061000Z 05004KT 340V090 9999 FEW035 SCT100 19/19 A2999 NOSIG=
202007061100 METAR MROC 061100Z 02007KT 9999 FEW040 BKN100 20/19 A2999 NOSIG=
202007061200 METAR MROC 061200Z 12007KT 090V150 9999 SCT040 SCT100 21/18 A3001 NOSIG=
202007061300 METAR MROC 061300Z 11008KT 9999 FEW035 SCT120 24/19 A3002 NOSIG=
202007061400 METAR MROC 061400Z 10008KT 070V140 9999 FEW040 SCT200 26/18 A3004 NOSIG=
202007061500 METAR MROC 061500Z 08010G20KT 9999 FEW045 SCT200 26/17 A3005 NOSIG=
202007061600 METAR MROC 061600Z 06013KT 040V100 CAVOK 28/17 A3005 NOSIG=
202007061700 METAR MROC 061700Z 08011KT 050V110 9999 FEW045 BKN200 28/17 A3004 NOSIG=
202007061800 METAR MROC 061800Z 06010KT 030V090 9999 FEW035 BKN200 29/17 A3003 NOSIG=
202007061900 METAR MROC 061900Z 24011KT 210V270 9999 FEW025 SCT200 26/22 A3002 NOSIG=
202007062000 METAR MROC 062000Z 25011KT 9999 FEW018TCU SCT025 25/22 A3001 BECMG SHRA=
202007062100 METAR MROC 062100Z 24009KT 9999 BKN010 SCT025 23/22 A3000 BECMG 5000 RA BR=
202007062200 METAR MROC 062200Z 23006KT 200V260 9999 BKN010 SCT025 23/22 A3000 NOSIG=
202007062300 METAR MROC 062300Z 25007KT 8000 3000W VCFG BKN010 SCT025 22/22 A3002 BECMG 5000 BR=
202007070000 METAR MROC 070000Z 25004KT 5000 2000W BR BKN010 SCT025 22/22 A3003 BECMG 3000=
202007070100 METAR MROC 070100Z 28003KT 240V310 8000 3000W VCFG FEW005 SCT010 BKN025 22/22 A3005 NOSIG=
202007070200 METAR MROC 070200Z VRB02KT 9999 FEW010 SCT025 21/21 A3004 NOSIG=
202007070300 METAR MROC 070300Z 01003KT 9999 FEW025 21/21 A3004 NOSIG=
202007070400 METAR MROC 070400Z 08010KT CAVOK 22/17 A3004 NOSIG=
202007070500 METAR MROC 070500Z 11008KT 080V140 CAVOK 22/18 A3004 NOSIG=
202007070600 METAR MROC 070600Z 11009KT CAVOK 22/17 A3002 NOSIG=
202007070700 METAR MROC 070700Z 11011KT CAVOK 22/17 A3001 NOSIG=
202007070800 METAR MROC 070800Z 11011KT CAVOK 22/17 A3000 NOSIG=
202007070900 METAR MROC 070900Z 11010KT 070V130 CAVOK 21/17 A3000 NOSIG=
202007071000 METAR MROC 071000Z 11013KT CAVOK 22/16 A2999 NOSIG=
202007071100 METAR MROC 071100Z 11012KT CAVOK 21/17 A3000 NOSIG=
202007071200 METAR MROC 071200Z 11012KT CAVOK 22/17 A3001 NOSIG=
202007071300 METAR MROC 071300Z 12014KT CAVOK 23/17 A3002 NOSIG=
202007071400 METAR MROC 071400Z 11013KT 9999 FEW020 BKN250 24/17 A3003 NOSIG=
202007071500 METAR MROC 071500Z 09014KT 9999 FEW020 BKN200 25/17 A3004 NOSIG=
202007071600 METAR MROC 071600Z 08013KT 9999 FEW020 27/17 A3005 NOSIG=
202007071700 METAR MROC 071700Z 09012KT 040V120 9999 FEW020 SCT050 28/17 A3004 NOSIG=
202007071800 METAR MROC 071800Z 09013KT 060V120 9999 FEW040 BKN060 27/17 A3003 NOSIG=
202007071900 METAR MROC 071900Z 08011KT 9999 BKN045 28/17 A3001 NOSIG=
202007072000 METAR MROC 072000Z 12007KT 9999 SCT045 28/18 A2999 NOSIG=
202007072100 METAR MROC 072100Z 08009KT 9999 FEW045 SCT060 28/18 A2997 NOSIG=
202007072200 METAR MROC 072200Z 03005KT 330V110 9999 SCT035 BKN060 27/18 A2998 NOSIG=
202007072300 METAR MROC 072300Z 27004KT 180V350 9999 FEW035 SCT060 BKN250 25/21 A2998 NOSIG=
202007080000 METAR MROC 080000Z 27007KT 9999 FEW035 BKN250 23/21 A2999 NOSIG=
202007080100 METAR MROC 080100Z 00000KT 9999 FEW010 22/22 A3002 NOSIG=
202007080200 METAR MROC 080200Z 10006KT 060V130 9999 FEW035 23/19 A3003 NOSIG=
202007080300 METAR MROC 080300Z 10010KT 9999 FEW035 22/17 A3004 NOSIG=
202007080400 METAR MROC 080400Z 12009KT 090V150 9999 FEW035 22/16 A3005 NOSIG=
202007080500 METAR MROC 080500Z 01003KT 350V070 9999 FEW035 SCT170 22/16 A3005 NOSIG=
202007080600 METAR MROC 080600Z 09004KT CAVOK 22/17 A3004 NOSIG=
202007080700 METAR MROC 080700Z 03006KT 010V070 CAVOK 21/17 A3002 NOSIG=
202007080800 METAR MROC 080800Z 10009KT 070V140 CAVOK 22/16 A2999 NOSIG=
202007080900 METAR MROC 080900Z 11013KT CAVOK 22/16 A2998 NOSIG=
202007081000 METAR MROC 081000Z 11011G21KT CAVOK 22/17 A2997 NOSIG=
202007081100 METAR MROC 081100Z 11008KT CAVOK 22/16 A2998 NOSIG=
202007081200 METAR MROC 081200Z 12011KT CAVOK 22/17 A2998 NOSIG=
202007081300 METAR MROC 081300Z 12010KT 080V140 CAVOK 23/17 A2999 NOSIG=
202007081400 METAR MROC 081400Z 11012KT 9999 -RA NSC 22/17 A3002 NOSIG=
202007081500 METAR MROC 081500Z 10010KT CAVOK 22/17 A3003 NOSIG=
202007081600 METAR MROC 081600Z 11014KT CAVOK 22/16 A3003 NOSIG=
202007081700 METAR MROC 081700Z 12010KT 090V150 CAVOK 23/16 A3003 NOSIG=
202007081800 METAR MROC 081800Z 10008KT CAVOK 24/17 A2999 NOSIG=
202007081900 METAR MROC 081900Z 13006KT 090V190 CAVOK 27/17 A2998 NOSIG=
202007082000 METAR MROC 082000Z 25008KT CAVOK 25/19 A2997 NOSIG=
202007082100 METAR MROC 082100Z 25007KT 9999 FEW030 SCT045 OVC100 24/20 A2996 NOSIG=
202007082200 METAR MROC 082200Z 24004KT 200V280 9999 SCT040 BKN100 24/20 A2995 NOSIG=
202007082300 METAR MROC 082300Z 25006KT 9999 SCT045 BKN090 24/21 A2994 NOSIG=
202007090000 METAR MROC 090000Z 24005KT 200V260 9999 FEW020 SCT045 BKN110 22/22 A2995 NOSIG=
202007090100 METAR MROC 090100Z 22003KT 190V250 8000 5000W FEW001 BKN100 22/22 A2998 NOSIG=
202007090200 METAR MROC 090200Z 00000KT 9999 FEW040 SCT120 21/21 A3000 NOSIG=
202007090300 METAR MROC 090300Z 12006KT CAVOK 22/18 A3001 NOSIG=
202007090400 METAR MROC 090400Z 10007KT CAVOK 22/17 A3001 NOSIG=
202007090500 METAR MROC 090500Z 08005KT CAVOK 21/17 A3000 NOSIG=
202007090600 METAR MROC 090600Z 10008KT CAVOK 21/17 A2997 NOSIG=
202007090700 METAR MROC 090700Z 12007KT 090V160 CAVOK 21/17 A2995 NOSIG=
202007090800 METAR MROC 090800Z 11009KT CAVOK 22/17 A2993 NOSIG=
202007090900 METAR MROC 090900Z 05006KT 020V090 CAVOK 21/17 A2994 NOSIG=
202007091000 METAR MROC 091000Z 05008KT CAVOK 20/16 A2994 NOSIG=
202007091100 METAR MROC 091100Z 05007KT CAVOK 20/17 A2996 NOSIG=
202007091200 METAR MROC 091200Z 03009KT CAVOK 20/16 A2997 NOSIG=
202007091300 METAR MROC 091300Z 06006KT 020V080 CAVOK 22/17 A2998 NOSIG=
202007091400 METAR MROC 091400Z 04007KT 010V070 CAVOK 23/17 A2998 NOSIG=
202007091500 METAR MROC 091500Z 11010KT 080V160 CAVOK 25/18 A2999 NOSIG=
202007091600 METAR MROC 091600Z 10011KT 070V140 CAVOK 26/17 A2998 NOSIG=
202007091700 METAR MROC 091700Z 12007KT 080V190 9999 FEW040 BKN120 27/18 A2999 NOSIG=
202007091800 METAR MROC 091800Z 24011KT 9999 SCT035 BKN120 25/21 A2999 NOSIG=
202007091900 METAR MROC 091900Z 23009KT 9999 FEW030 OVC110 24/21 A2997 NOSIG=
202007092000 METAR MROC 092000Z 25008KT 9999 -RA SCT030 OVC110 22/21 A2996 NOSIG=
202007092100 METAR MROC 092100Z 22005KT 180V260 9999 -RA SCT005 BKN020 22/22 A2995 NOSIG=
202007092200 METAR MROC 092200Z 25005KT 9999 SCT030 BKN080 23/20 A2995 NOSIG=
202007092300 METAR MROC 092300Z 24005KT 9999 FEW015 BKN030 BKN090 22/21 A2996 NOSIG=
202007100000 METAR MROC 100000Z 24006KT 9999 SCT005 BKN030 21/21 A2997 NOSIG=
202007100100 METAR MROC 100100Z 25005KT 8000 6000W BKN004 21/21 A2999 NOSIG=
202007100200 METAR MROC 100200Z VRB02KT 9000 -DZ SCT005 BKN010 21/21 A3000 NOSIG=
202007100300 METAR MROC 100300Z 02003KT 330V050 9999 FEW002 SCT015 21/21 A3001 NOSIG=
202007100400 METAR MROC 100400Z 33002KT 9999 FEW008 BKN140 21/21 A3002 NOSIG=
202007100500 METAR MROC 100500Z 23003KT 9999 1800SW BCFG FEW001 SCT004 BKN120 21/21 A3004 TEMPO 3000=
202007100600 METAR MROC 100600Z 00000KT 3000 BR BCFG SCT002 BKN120 21/21 A3002 BECMG 5000=
202007100700 METAR MROC 100700Z 11002KT 5000 1800SW BR SCT002 SCT007 21/21 A3001 NOSIG=
202007100800 METAR MROC 100800Z VRB02KT 9999 3500W BCFG FEW001 SCT150 BKN200 20/20 A3000 NOSIG=
202007100900 METAR MROC 100900Z 04004KT 9999 4000W BCFG FEW004 BKN200 20/20 A2999 NOSIG=
202007101000 METAR MROC 101000Z VRB01KT 9999 4800W BCFG FEW004 SCT130 20/20 A3000 NOSIG=
202007101100 METAR MROC 101100Z 05005KT 9999 VCFG FEW006 SCT100 20/19 A3000 NOSIG=
202007101200 METAR MROC 101200Z 13003KT 9999 VCFG NSC 20/19 A3002 NOSIG=
202007101300 METAR MROC 101300Z 07004KT 040V120 CAVOK 21/19 A3004 NOSIG=
202007101400 METAR MROC 101400Z 35003KT 320V040 CAVOK 24/19 A3004 NOSIG=
202007101500 METAR MROC 101500Z VRB04KT CAVOK 26/19 A3004 NOSIG=
202007101600 METAR MROC 101600Z 26006KT 200V300 9999 SCT040 26/20 A3004 NOSIG=
202007101700 METAR MROC 101700Z 24008KT 200V270 9999 BKN035 25/21 A3004 NOSIG=
202007101800 METAR MROC 101800Z 23008KT 9999 FEW020 BKN030 25/21 A3003 NOSIG=
202007101900 METAR MROC 101900Z 23009KT 9999 SCT030 SCT250 25/22 A3001 NOSIG=
202007102000 METAR MROC 102000Z 25009KT 210V280 9999 RA SCT020 25/22 A3000 NOSIG=
202007102100 METAR MROC 102100Z 24004KT 180V320 9999 VCSH FEW006 FEW015TCU SCT060 23/23 A2999 NOSIG=
202007102200 METAR MROC 102200Z 24009KT 9999 VCFG FEW010 SCT120 22/22 A3001 NOSIG=
202007102300 METAR MROC 102300Z 25005KT 9999 VCFG FEW005 SCT015 BKN090 22/22 A3002 NOSIG=
202007110000 METAR MROC 110000Z 29003KT 210V340 4000 1800SW BR SCT002 BKN015 21/21 A3004 NOSIG=
202007110100 METAR MROC 110100Z 23003KT 8000 2000SW BCFG FEW003 SCT015 BKN030 21/21 A3004 NOSIG=
202007110200 METAR MROC 110200Z 31003KT 270V350 9999 4000SW BCFG FEW010 BKN060 21/21 A3004 NOSIG=
202007110300 METAR MROC 110300Z 07003KT 010V120 9999 FEW002 SCT040 21/21 A3006 NOSIG=
202007110400 METAR MROC 110400Z 09006KT 070V130 CAVOK 21/19 A3007 NOSIG=
202007110500 METAR MROC 110500Z 06006KT 040V110 CAVOK 21/18 A3008 NOSIG=
202007110600 METAR MROC 110600Z VRB02KT CAVOK 21/18 A3007 NOSIG=
202007110700 METAR MROC 110700Z 08006KT CAVOK 19/17 A3005 NOSIG=
202007110800 METAR MROC 110800Z VRB01KT 9999 FEW045 SCT100 19/18 A3004 NOSIG=
202007110900 METAR MROC 110900Z 01004KT CAVOK 19/18 A3004 NOSIG=
202007111000 METAR MROC 111000Z 09003KT 070V180 CAVOK 18/18 A3001 NOSIG=
202007111100 METAR MROC 111100Z 00000KT 9999 FEW045 BKN080 19/18 A3004 NOSIG=
202007111200 METAR MROC 111200Z 05008KT 9999 -RA NSC 19/18 A3006 NOSIG=
202007111300 METAR MROC 111300Z 09010KT 9999 -RA FEW045 BKN100 19/18 A3004 NOSIG=
202007111400 METAR MROC 111400Z 09008KT CAVOK 22/19 A3002 NOSIG=
202007111500 METAR MROC 111500Z 11012KT 070V150 CAVOK 26/19 A3002 NOSIG=
202007111600 METAR MROC 111600Z 11011KT 080V140 9999 FEW045 SCT120 BKN200 26/18 A3003 NOSIG=
202007111700 METAR MROC 111700Z 08012G22KT 050V110 9999 FEW035 SCT120 BKN200 27/16 A3004 NOSIG=
202007111800 METAR MROC 111800Z 09014KT 060V120 9999 FEW035 BKN200 27/17 A3002 NOSIG=
202007111900 METAR MROC 111900Z 09010KT 9999 FEW040 SCT120 BKN200 26/17 A3001 NOSIG=
202007112000 METAR MROC 112000Z 09007KT 9999 FEW040 SCT120 BKN200 26/17 A3000 NOSIG=
202007112100 METAR MROC 112100Z 19004KT 120V270 9999 FEW045 BKN200 26/19 A2999 NOSIG=
202007112200 METAR MROC 112200Z 27009KT 9999 FEW030 SCT140 24/20 A3000 NOSIG=
202007112300 METAR MROC 112300Z 25007KT 9999 FEW015 BKN140 23/21 A3002 NOSIG=
202007120000 METAR MROC 120000Z 23004KT 9999 FEW008 BKN160 22/20 A3003 NOSIG=
202007120100 METAR MROC 120100Z 00000KT 9999 SCT015 BKN130 22/20 A3005 NOSIG=
202007120200 METAR MROC 120200Z VRB02KT 9999 FEW030 BKN130 22/20 A3005 NOSIG=
202007120300 METAR MROC 120300Z 02004KT 9999 FEW035 BKN130 22/20 A3005 NOSIG=
202007120400 METAR MROC 120400Z 08006KT 060V130 CAVOK 23/18 A3004 NOSIG=
202007120500 METAR MROC 120500Z 07010KT CAVOK 23/18 A3001 NOSIG=
202007120600 METAR MROC 120600Z 09008KT 060V140 CAVOK 23/17 A3000 NOSIG=
202007120700 METAR MROC 120700Z 06008KT 030V090 CAVOK 22/17 A3001 NOSIG=
202007120800 METAR MROC 120800Z VRB03KT CAVOK 22/17 A3001 NOSIG=
202007120900 METAR MROC 120900Z 07008KT 050V120 CAVOK 22/17 A3000 NOSIG=
202007121000 METAR MROC 121000Z 08005KT 040V110 CAVOK 22/17 A3000 NOSIG=
202007121100 METAR MROC 121100Z 05004KT 360V100 CAVOK 21/17 A3001 NOSIG=
202007121200 METAR MROC 121200Z 03006KT CAVOK 21/17 A3002 NOSIG=
202007121300 METAR MROC 121300Z 07005KT 030V130 CAVOK 22/17 A3003 NOSIG=
202007121400 METAR MROC 121400Z 21008KT CAVOK 23/19 A3004 NOSIG=
202007121500 METAR MROC 121500Z VRB02KT CAVOK 25/19 A3003 NOSIG=
202007121600 METAR MROC 121600Z 22004KT 140V260 CAVOK 26/20 A3003 NOSIG=
202007121700 METAR MROC 121700Z 24008KT 9999 SCT040 BKN060 25/20 A3003 NOSIG=
202007121800 METAR MROC 121800Z 23007KT 190V250 9999 SCT030 BKN045 25/21 A3003 NOSIG=
202007121900 METAR MROC 121900Z 26007KT 220V300 9999 SCT030 BKN060 25/21 A3001 NOSIG=
202007122000 METAR MROC 122000Z 24006KT 210V280 9999 FEW020 SCT030 BKN060 25/22 A2999 NOSIG=
202007122100 METAR MROC 122100Z 22005KT 9999 FEW009 SCT020 BKN180 24/21 A2997 NOSIG=
202007122200 METAR MROC 122200Z 10006KT 070V140 9999 FEW012 BKN180 25/15 A2995 NOSIG=
202007122300 METAR MROC 122300Z 25008KT 9999 FEW010 BKN190 22/22 A2996 NOSIG=
202007130000 METAR MROC 130000Z 24007KT 9999 SCT005 BKN010 22/22 A2998 NOSIG=
202007130100 METAR MROC 130100Z 29004KT 260V320 9999 SCT005 BKN012 22/22 A3000 NOSIG=
202007130200 METAR MROC 130200Z 26003KT 220V290 9999 FEW003 SCT006 BKN020 22/22 A3002 NOSIG=
202007130300 METAR MROC 130300Z 24003KT 9999 3000SW BCFG FEW002 SCT006 BKN020 21/21 A3003 NOSIG=
202007130400 METAR MROC 130400Z VRB02KT 9999 BCFG FEW003 SCT020 21/21 A3004 NOSIG=
202007130500 METAR MROC 130500Z 02004KT 330V070 9999 FEW020 22/21 A3004 NOSIG=
202007130600 METAR MROC 130600Z VRB02KT 9999 VCFG FEW020 20/20 A3004 NOSIG=
202007130700 METAR MROC 130700Z 24003KT 150V280 9999 BCFG FEW020 20/20 A3003 NOSIG=
202007130800 METAR MROC 130800Z 03004KT 9999 FEW030 20/19 A3001 NOSIG=
202007130900 METAR MROC 130900Z 03006KT CAVOK 20/18 A2999 NOSIG=
202007131000 METAR MROC 131000Z VRB02KT 9999 FEW030 SCT200 20/18 A3001 NOSIG=
202007131100 METAR MROC 131100Z VRB04KT 9999 FEW025 BKN200 20/19 A3001 NOSIG=
202007131200 METAR MROC 131200Z 01010KT 350V050 9999 -RA FEW020 BKN140 22/18 A3003 NOSIG=
202007131300 METAR MROC 131300Z 07007KT 040V110 9999 -RA FEW045 OVC090 22/18 A3004 NOSIG=
202007131400 METAR MROC 131400Z 05009KT 020V080 9999 -RA FEW045 OVC090 22/18 A3006 NOSIG=
202007131500 METAR MROC 131500Z 09009KT 040V130 9999 -RA FEW045 OVC080 21/18 A3007 NOSIG=
202007131600 METAR MROC 131600Z 10016KT 9999 -RA NSC 21/18 A3007 NOSIG=
202007131700 METAR MROC 131700Z 10014G24KT 080V150 CAVOK 22/18 A3003 NOSIG=
202007131800 METAR MROC 131800Z 15005KT 100V180 CAVOK 23/18 A3004 NOSIG=
202007131900 METAR MROC 131900Z 21006KT CAVOK 22/20 A3004 NOSIG=
202007132000 METAR MROC 132000Z 29006KT 9999 FEW015 SCT050 OVC100 22/20 A3002 NOSIG=
202007132100 METAR MROC 132100Z 27004KT 230V300 9999 FEW015 OVC100 32/20 A3000 NOSIG=
202007132200 METAR MROC 132200Z 24004KT 9999 FEW015 OVC100 22/20 A2999 NOSIG=
202007132300 METAR MROC 132300Z 24005KT 9999 FEW010 OVC150 22/21 A2999 NOSIG=
202007140000 METAR MROC 140000Z 24004KT 9999 FEW005 OVC200 21/21 A3000 NOSIG=
202007140100 METAR MROC 140100Z VRB01KT 9999 SCT020 20/20 A3001 NOSIG=
202007140200 METAR MROC 140200Z 08004KT 050V130 CAVOK 21/19 A3002 NOSIG=
202007140300 METAR MROC 140300Z 08005KT CAVOK 21/17 A3002 NOSIG=
202007140400 METAR MROC 140400Z 13003KT CAVOK 20/20 A3002 NOSIG=
202007140500 METAR MROC 140500Z 04004KT 020V080 CAVOK 19/19 A3001 NOSIG=
202007140600 METAR MROC 140600Z 08006KT CAVOK 20/17 A3000 NOSIG=
202007140700 METAR MROC 140700Z 11010G20KT 9999 FEW035 SCT120 22/17 A2999 NOSIG=
202007140800 METAR MROC 140800Z 11012KT 360V140 9999 FEW035 SCT120 21/17 A2996 NOSIG=
202007140900 METAR MROC 140900Z 03005KT 9999 FEW035 SCT120 20/17 A2997 NOSIG=
202007141000 METAR MROC 141000Z 08012KT 060V120 CAVOK 21/17 A2996 NOSIG=
202007141100 METAR MROC 141100Z 09009KT CAVOK 21/17 A2995 NOSIG=
202007141200 METAR MROC 141200Z 05007KT 020V080 CAVOK 21/17 A2998 NOSIG=
202007141300 METAR MROC 141300Z VRB03KT 9999 FEW045 BKN100 22/18 A3001 NOSIG=
202007141400 METAR MROC 141400Z 07008KT CAVOK 23/19 A3000 NOSIG=
202007141500 METAR MROC 141500Z 09006KT 050V130 CAVOK 26/19 A3001 NOSIG=
202007141600 METAR MROC 141600Z 12010KT 090V150 CAVOK 27/18 A3000 NOSIG=
202007141700 METAR MROC 141700Z 14008KT 100V120 CAVOK 29/19 A3002 BECMG 25007KT=
202007141800 METAR MROC 141800Z 25011KT 220V280 9999 FEW020 BKN040 25/21 A3000 RMK FEW200 NOSIG=
202007141900 METAR MROC 141900Z 24009KT 200V260 9999 FEW015 SCT045 OVC080 25/22 A2999 NOSIG=
202007142000 METAR MROC 142000Z 23008KT 9999 BKN010 24/21 A2999 NOSIG=
202007142100 METAR MROC 142100Z 21008KT 180V240 9999 SCT020 OVC100 23/20 A2999 NOSIG=
202007142200 METAR MROC 142200Z 25005KT 9999 SCT045 BKN130 24/20 A2999 NOSIG=
202007142300 METAR MROC 142300Z 24005KT 210V270 9999 SCT040 BKN140 24/20 A2999 NOSIG=
202007150000 METAR MROC 150000Z 26006KT 9999 BKN040 22/19 A3002 NOSIG=
202007150100 METAR MROC 150100Z VRB02KT 9999 SCT045 22/20 A3002 NOSIG=
202007150200 METAR MROC 150200Z 07005KT CAVOK 21/20 A3002 NOSIG=
202007150300 METAR MROC 150300Z 13004KT 090V160 CAVOK 21/20 A3002 NOSIG=
202007150400 METAR MROC 150400Z 09008KT CAVOK 22/19 A3000 NOSIG=
202007150500 METAR MROC 150500Z 10014KT CAVOK 22/18 A2999 NOSIG=
202007150600 METAR MROC 150600Z 12012KT 080V150 CAVOK 22/18 A2998 NOSIG=
202007150700 METAR MROC 150700Z 12008KT 100V170 CAVOK 22/18 A2997 NOSIG=
202007150800 METAR MROC 150800Z 11009KT 060V150 CAVOK 21/18 A2997 NOSIG=
202007150900 METAR MROC 150900Z 33004KT 9999 VCTS FEW015CB FEW020 20/18 A2998 NOSIG=
202007151000 METAR MROC 151000Z 36005KT 330V030 9999 FEW015 21/18 A2998 NOSIG=
202007151100 METAR MROC 151100Z 04006KT 9999 FEW020 20/17 A2996 NOSIG=
202007151200 METAR MROC 151200Z 06005KT CAVOK 20/18 A2997 NOSIG=
202007151300 METAR MROC 151300Z 19005KT 140V260 CAVOK 23/19 A2999 NOSIG=
202007151400 METAR MROC 151400Z 25008KT CAVOK 23/19 A3003 NOSIG=
202007151500 METAR MROC 151500Z 25010KT 9999 FEW015 SCT035 23/20 A3005 NOSIG=
202007151600 METAR MROC 151600Z 28005KT 230V330 9999 FEW015 SCT030 24/20 A3005 NOSIG=
202007151700 METAR MROC 151700Z 25005KT 9999 SCT020 SCT100 24/19 A3003 NOSIG=
202007151725 METAR MROC 151725Z 22004KT 180V260 9999 RA FEW020 BKN120 24/19 A3002 NOSIG=
202007151800 METAR MROC 151800Z VRB04KT 9999 FEW025 SCT120 26/20 A3001 RERA NOSIG=
202007151900 METAR MROC 151900Z VRB04KT 9999 -RA SCT045 SCT080 26/21 A2999 TEMPO RA FEW020TCU=
202007152000 METAR MROC 152000Z 25005KT 180V220 9999 VCTS FEW045 SCT100 26/22 A2996 RERA NOSIG=
202007152100 METAR MROC 152100Z 25011KT 210V270 9999 VCTS FEW006 BKN020 23/23 A2996 NOSIG=
202007152200 METAR MROC 152200Z 22006KT 9999 SCT006 BKN015 23/23 A2996 NOSIG=
202007152300 METAR MROC 152300Z VRB02KT 9999 FEW030 SCT130 23/22 A2997 NOSIG=
202007160000 METAR MROC 160000Z 11006KT 9999 FEW030 SCT250 24/18 A2997 NOSIG=
202007160100 METAR MROC 160100Z 10009KT 070V140 CAVOK 23/17 A2998 NOSIG=
202007160200 METAR MROC 160200Z 10013KT CAVOK 23/18 A2999 NOSIG=
202007160300 METAR MROC 160300Z 11012KT CAVOK 23/17 A3000 NOSIG=
202007160400 METAR MROC 160400Z 12012KT CAVOK 22/18 A3000 NOSIG=
202007160500 METAR MROC 160500Z 11011KT CAVOK 22/17 A3000 NOSIG=
202007160600 METAR MROC 160600Z 11011KT CAVOK 23/17 A2999 NOSIG=
202007160700 METAR MROC 160700Z 12009KT 090V150 CAVOK 22/17 A2998 NOSIG=
202007160800 METAR MROC 160800Z 12009KT CAVOK 22/17 A2998 NOSIG=
202007160900 METAR MROC 160900Z 11008KT CAVOK 22/17 A2997 NOSIG=
202007161000 METAR MROC 161000Z 12011KT CAVOK 22/17 A2996 NOSIG=
202007161100 METAR MROC 161100Z 12012KT CAVOK 22/17 A2997 NOSIG=
202007161200 METAR MROC 161200Z 11014KT 9999 FEW045 22/17 A3000 NOSIG=
202007161300 METAR MROC 161300Z 11013KT 9999 FEW045 23/17 A3001 NOSIG=
202007161400 METAR MROC 161400Z 10013G23KT 070V130 9999 FEW045 25/17 A3002 NOSIG=
202007161500 METAR MROC 161500Z 09015G26KT 060V130 9999 FEW040 26/17 A3002 NOSIG=
202007161600 METAR MROC 161600Z 08020G30KT CAVOK 27/15 A3002 NOSIG=
202007161700 METAR MROC 161700Z 07022KT CAVOK 28/15 A3001 NOSIG=
202007161800 METAR MROC 161800Z 08015G25KT CAVOK 28/16 A3000 NOSIG=
202007161900 METAR MROC 161900Z 07018KT CAVOK 29/14 A2998 NOSIG=
202007162000 METAR MROC 162000Z 07018KT CAVOK 29/15 A2997 NOSIG=
202007162100 METAR MROC 162100Z 07016G26KT CAVOK 29/15 A2995 NOSIG=
202007162200 METAR MROC 162200Z 07016G26KT CAVOK 28/15 A2993 NOSIG=
202007162300 METAR MROC 162300Z 07012G22KT 9999 FEW040 26/15 A2994 NOSIG=
202007170000 METAR MROC 170000Z 07010G20KT 9999 FEW040 BKN250 25/15 A2994 NOSIG=
202007170100 METAR MROC 170100Z 08010G20KT CAVOK 24/15 A2995 NOSIG=
202007170200 METAR MROC 170200Z 08011G21KT CAVOK 23/15 A2996 NOSIG=
202007170300 METAR MROC 170300Z 11012KT 090V150 CAVOK 23/16 A2997 NOSIG=
202007170400 METAR MROC 170400Z 11013KT CAVOK 22/16 A2996 NOSIG=
202007170500 METAR MROC 170500Z 11014KT CAVOK 23/16 A2997 NOSIG=
202007170600 METAR MROC 170600Z 10015KT CAVOK 22/16 A2997 NOSIG=
202007170700 METAR MROC 170700Z 09014KT CAVOK 22/16 A2995 NOSIG=
202007170800 METAR MROC 170800Z 10013KT 080V140 CAVOK 22/16 A2995 NOSIG=
202007170900 METAR MROC 170900Z 10012KT CAVOK 22/16 A2995 NOSIG=
202007171000 METAR MROC 171000Z 10011KT CAVOK 21/16 A2995 NOSIG=
202007171100 METAR MROC 171100Z 10011KT CAVOK 21/16 A2996 NOSIG=
202007171200 METAR MROC 171200Z 10013KT CAVOK 22/16 A2998 NOSIG=
202007171300 METAR MROC 171300Z 11012KT CAVOK 23/16 A2992 NOSIG=
202007171400 METAR MROC 171400Z 10012G22KT CAVOK 25/16 A3000 NOSIG=
202007171500 METAR MROC 171500Z 10014G24KT CAVOK 27/15 A3001 NOSIG=
202007171600 METAR MROC 171600Z 09014G24KT CAVOK 28/13 A3000 NOSIG=
202007171700 METAR MROC 171700Z 08013KT 050V110 CAVOK 29/15 A2998 NOSIG=
202007171800 METAR MROC 171800Z 08014KT 050V110 CAVOK 29/15 A2997 NOSIG=
202007171900 METAR MROC 171900Z 08010KT 040V130 9999 FEW020 29/16 A2995 NOSIG=
202007172000 METAR MROC 172000Z 10006KT 040V150 9999 FEW020 30/16 A2993 NOSIG=
202007172100 METAR MROC 172100Z 14008KT 090V220 9999 FEW040 SCT250 30/17 A2991 BECMG 25005KT=
202007172200 METAR MROC 172200Z 25014KT 9999 FEW035 SCT060 27/22 A2992 NOSIG=
202007172300 METAR MROC 172300Z 23011KT 200V260 9999 FEW035 SCT060 25/22 A2994 NOSIG=
202007180000 METAR MROC 180000Z 20007KT 150V250 9999 FEW020 SCT030 24/21 A2995 NOSIG=
202007180100 METAR MROC 180100Z 10010KT 070V140 9999 FEW025 23/17 A2996 NOSIG=
202007180200 METAR MROC 180200Z 11010G20KT 9999 FEW025 23/18 A2996 NOSIG=
202007180300 METAR MROC 180300Z 10010G20KT 060V130 CAVOK 23/17 A2998 NOSIG=
202007180400 METAR MROC 180400Z 07008KT CAVOK 22/17 A2999 NOSIG=
202007180500 METAR MROC 180500Z 08005KT CAVOK 21/17 A2999 NOSIG=
202007180600 METAR MROC 180600Z 11005KT CAVOK 20/18 A2999 NOSIG=
202007180700 METAR MROC 180700Z 08007KT 050V110 CAVOK 21/16 A2997 NOSIG=
202007180800 METAR MROC 180800Z 08005KT 020V140 CAVOK 21/16 A2995 NOSIG=
202007180900 METAR MROC 180900Z 07007KT CAVOK 21/16 A2995 NOSIG=
202007181000 METAR MROC 181000Z 08008KT CAVOK 21/16 A2996 NOSIG=
202007181100 METAR MROC 181100Z 05007KT CAVOK 21/16 A2997 NOSIG=
202007181200 METAR MROC 181200Z 07008KT 030V120 CAVOK 21/16 A2998 NOSIG=
202007181300 METAR MROC 181300Z 15013G25KT CAVOK 23/17 A2998 NOSIG=
202007181400 METAR MROC 181400Z 12012KT CAVOK 24/17 A2997 NOSIG=
202007181500 METAR MROC 181500Z 11009KT 080V150 CAVOK 26/18 A2999 NOSIG=
202007181600 METAR MROC 181600Z 10013KT 9999 FEW045 SCT180 29/17 A2999 NOSIG=
202007181700 METAR MROC 181700Z 12009KT 080V160 9999 FEW045 SCT180 29/18 A2998 NOSIG=
202007181800 METAR MROC 181800Z 10007KT 050V170 9999 FEW040 29/18 A2997 NOSIG=
202007181900 METAR MROC 181900Z 21008KT 060V250 9999 FEW040 27/20 A2995 NOSIG=
202007182000 METAR MROC 182000Z 25011KT 220V290 9999 BKN030 27/20 A2993 NOSIG=
202007182100 METAR MROC 182100Z 24008KT 200V260 9999 BKN040 26/22 A2993 NOSIG=
202007182200 METAR MROC 182200Z 26007KT 9999 SCT015 BKN020 BKN045 25/22 A2992 NOSIG=
202007182300 METAR MROC 182300Z 22006KT 190V260 9999 SCT010 OVC035 24/23 A2993 NOSIG=
202007190000 METAR MROC 190000Z 18005KT 150V200 8000 SCT003 SCT030 BKN100 23/23 A2994 NOSIG=
202007190100 METAR MROC 190100Z 27005KT 8000 SCT002 BKN020 22/22 A2994 NOSIG=
202007190200 METAR MROC 190200Z 25004KT 220V280 6000 BCFG SCT003 22/22 A2996 NOSIG=
202007190300 METAR MROC 190300Z VRB02KT 9999 FEW030 21/21 A2998 NOSIG=
202007190400 METAR MROC 190400Z 07003KT 9999 FEW025 SCT045 22/21 A3000 NOSIG=
202007190500 METAR MROC 190500Z 10007KT 9999 FEW025 22/19 A2999 NOSIG=
202007190600 METAR MROC 190600Z 13008KT 9999 FEW025 22/19 A2997 NOSIG=
202007190700 METAR MROC 190700Z 10006KT 050V140 9999 FEW025 22/18 A2995 NOSIG=
202007190800 METAR MROC 190800Z 07005KT 040V120 CAVOK 22/18 A2992 NOSIG=
202007190900 METAR MROC 190900Z 09007G17KT 060V120 CAVOK 22/18 A2992 NOSIG=
202007191000 METAR MROC 191000Z 14010KT 110V170 CAVOK 22/18 A2993 NOSIG=
202007191100 METAR MROC 191100Z 11010G20KT CAVOK 22/18 A2993 NOSIG=
202007191200 METAR MROC 191200Z 12012KT 9999 FEW045 BKN250 22/18 A2993 NOSIG=
202007191300 METAR MROC 191300Z 12010KT 090V150 CAVOK 24/18 A2996 NOSIG=
202007191400 METAR MROC 191400Z 12009KT 090V160 CAVOK 26/18 A2995 NOSIG=
202007191500 METAR MROC 191500Z 10015KT CAVOK 27/18 A2996 NOSIG=
202007191600 METAR MROC 191600Z 09014KT CAVOK 28/18 A2997 NOSIG=
202007191700 METAR MROC 191700Z 08014KT CAVOK 28/18 A2997 NOSIG=
202007191800 METAR MROC 191800Z 10009KT 070V140 9999 FEW045 29/19 A2995 NOSIG=
202007191900 METAR MROC 191900Z 12007KT 080V190 9999 SCT045 30/18 A2993 NOSIG=
202007192000 METAR MROC 192000Z 23011KT 9999 SCT030TCU OVC140 26/23 A2992 NOSIG=
202007192100 METAR MROC 192100Z 20009KT 9999 SCT010 SCT040 BKN100 25/20 A2991 NOSIG=
202007192200 METAR MROC 192200Z 32008KT 280V010 9999 BKN030 24/20 A2992 NOSIG=
202007192300 METAR MROC 192300Z 10004KT 9999 FEW035 BKN100 24/20 A2991 NOSIG=
202007200000 METAR MROC 200000Z 20005KT 160V220 9999 VCTS BKN040 OVC100 23/20 A2994 NOSIG=
202007200100 METAR MROC 200100Z VRB02KT 9999 FEW045 BKN080 22/20 A2996 NOSIG=
202007200200 METAR MROC 200200Z VRB01KT CAVOK 22/20 A2999 NOSIG=
202007200300 METAR MROC 200300Z 33003KT 9999 SCT045 SCT100 22/20 A3001 NOSIG=
202007200400 METAR MROC 200400Z VRB02KT 9999 SCT040 22/22 A3001 NOSIG=
202007200500 METAR MROC 200500Z 32003KT 9999 SCT040 22/21 A3003 NOSIG=
202007200600 METAR MROC 200600Z VRB02KT 9999 FEW015 22/21 A3000 NOSIG=
202007200700 METAR MROC 200700Z 08004KT 9999 FEW040 21/21 A2998 NOSIG=
202007200800 METAR MROC 200800Z 04006KT CAVOK 21/19 A2994 NOSIG=
202007200900 METAR MROC 200900Z 06005KT 020V140 CAVOK 22/18 A2993 NOSIG=
202007201000 METAR MROC 201000Z 09008KT 060V120 CAVOK 22/18 A2993 NOSIG=
202007201100 METAR MROC 201100Z 04007KT CAVOK 22/18 A2994 NOSIG=
202007201200 METAR MROC 201200Z 05008KT 9999 FEW030 BKN200 23/18 A2993 NOSIG=
202007201300 METAR MROC 201300Z 09008KT 9999 FEW030 BKN200 23/18 A2996 NOSIG=
202007201400 METAR MROC 201400Z 07008KT 030V120 9999 FEW040 BKN250 25/19 A2997 NOSIG=
202007201500 METAR MROC 201500Z 10015KT 9999 FEW040 BKN250 26/19 A2997 NOSIG=
202007201600 METAR MROC 201600Z 10015KT 060V140 9999 FEW040 SCT230 28/19 A2996 NOSIG=
202007201700 METAR MROC 201700Z 10013KT 070V130 9999 FEW040 SCT230 29/18 A2996 NOSIG=
202007201800 METAR MROC 201800Z 08012KT 050V110 9999 FEW040 SCT200 28/18 A2995 NOSIG=
202007201900 METAR MROC 201900Z 13007KT 090V200 9999 FEW040 BKN130 30/19 A2993 TEMPO 24007KT=
202007202000 METAR MROC 202000Z 16005KT 080V220 9999 FEW040 BKN140 30/19 A2992 NOSIG=
202007202100 METAR MROC 202100Z 26012KT 9999 SCT020 SCT030 25/22 A2991 NOSIG=
202007202200 METAR MROC 202200Z 23009KT 190V260 9999 -SHRA VCTS SCT015CB SCT035 25/21 A2990 NOSIG=
202007202300 METAR MROC 202300Z 31006KT 270V340 9999 SCT0045 BKN200 23/22 A2993 NOSIG=
202007210000 METAR MROC 210000Z 33004KT 9999 BKN012 22/21 A2996 NOSIG=
202007210100 METAR MROC 210100Z 20004KT 160V220 9999 BKN015 22/21 A2995 NOSIG=
202007210200 METAR MROC 210200Z 34003KT 9999 BKN025 21/21 A3000 NOSIG=
202007210300 METAR MROC 210300Z VRB02KT 9999 FEW015 OVC030 21/21 A3003 NOSIG=
202007210400 METAR MROC 210400Z 32003KT 9999 FEW020 SCT045 SCT100 21/21 A3004 NOSIG=
202007210500 METAR MROC 210500Z 33002KT 9999 FEW030 SCT100 21/21 A3004 NOSIG=
202007210600 METAR MROC 210600Z 27004KT 9999 FEW004 BKN015 21/21 A3003 NOSIG=
202007210700 METAR MROC 210700Z 31002KT 9999 SCT015 BKN030 20/20 A3000 NOSIG=
202007210800 METAR MROC 210800Z 02002KT 9999 FEW015 BKN060 20/20 A2999 NOSIG=
202007210900 METAR MROC 210900Z 09004KT CAVOK 20/20 A2998 NOSIG=
202007211000 METAR MROC 211000Z 07004KT 020V100 CAVOK 20/19 A2997 NOSIG=
202007211100 METAR MROC 211100Z 04005KT CAVOK 20/19 A2997 NOSIG=
202007211200 METAR MROC 211200Z 13003KT 090V160 FEW001 BKN110 20/18 A2998 NOSIG=
202007211300 METAR MROC 211300Z VRB02KT CAVOK 21/20 A3000 NOSIG=
202007211400 METAR MROC 211400Z VRB02KT CAVOK 24/19 A3001 NOSIG=
202007211500 METAR MROC 211500Z 29003KT 230V350 9999 FEW035 BKN200 25/20 A3001 NOSIG=
202007211600 METAR MROC 211600Z 23006KT 200V270 9999 FEW040 BKN200 26/20 A3001 NOSIG=
202007211700 METAR MROC 211700Z 24005KT 170V280 9999 SCT040 BKN200 26/19 A3001 NOSIG=
202007211800 METAR MROC 211800Z 19010KT 140V220 9999 SCT040 BKN200 26/20 A3000 NOSIG=
202007211900 METAR MROC 211900Z 25010KT 9999 FEW030 SCT040 BKN200 25/22 A2999 NOSIG=
202007212000 METAR MROC 212000Z 24009KT 9999 FEW030 SCT040 BKN200 25/21 A2998 NOSIG=
202007212100 METAR MROC 212100Z 25009KT 9999 SCT020 BKN100 24/21 A2996 NOSIG=
202007212200 METAR MROC 212200Z 24006KT 9999 SCT012 BKN100 23/21 A2997 NOSIG=
202007212300 METAR MROC 212300Z 26006KT 9999 SCT010 BKN120 23/22 A2997 NOSIG=
202007220000 METAR MROC 220000Z 26005KT 9999 4000SW BCFG FEW007 BKN140 22/22 A3000 TEMPO 3000 BR BKN010=
202007220100 METAR MROC 220100Z 24006KT 9999 4500SW BCFG OVC005 21/21 A3002 TEMPO 3000 BR=
202007220200 METAR MROC 220200Z 24004KT 9999 BKN007 21/21 A3001 NOSIG=
202007220300 METAR MROC 220300Z 26004KT 9999 SCT005 21/21 A3004 NOSIG=
202007220400 METAR MROC 220400Z 27004KT 240V320 9999 SCT006 BKN020 21/21 A3005 NOSIG=
202007220500 METAR MROC 220500Z 23003KT 210V270 2000 BR SCT002 BKN010 21/21 A3006 NOSIG=
202007220600 METAR MROC 220600Z VRB02KT 5000 BR SCT002 BKN010 21/21 A3003 NOSIG=
202007220700 METAR MROC 220700Z 00000KT 9999 SCT005 BKN015 21/21 A3001 NOSIG=
202007220800 METAR MROC 220800Z 25004KT 1500 BR SCT002 BKN008 21/21 A3000 NOSIG=
202007220900 METAR MROC 220900Z 28002KT 1500 BR SCT002 BKN006 20/20 A2999 NOSIG=
202007221000 METAR MROC 221000Z VRB01KT 4000 BR SCT002 BKN010 20/20 A3000 NOSIG=
202007221100 METAR MROC 221100Z VRB01KT 9999 FEW002 SCT015 20/20 A3000 NOSIG=
202007221200 METAR MROC 221200Z VRB02KT 8000 VCFG FEW003 SCT120 20/20 A3001 NOSIG=
202007221300 METAR MROC 221300Z 00000KT 3000 1200SW BR SCT010 BKN200 20/20 A3003 NOSIG=
202007221400 METAR MROC 221400Z 07006KT 9999 FEW040 SCT120 24/20 A3001 NOSIG=
202007221500 METAR MROC 221500Z 11010G20KT 080V150 9999 FEW045 SCT120 26/18 A3002 NOSIG=
202007221600 METAR MROC 221600Z 10007G17KT 9999 FEW040 SCT120 28/18 A3002 NOSIG=
202007221700 METAR MROC 221700Z 11010KT 070V150 9999 FEW035 SCT060 BKN150 29/18 A3003 NOSIG=
202007221800 METAR MROC 221800Z 23012KT 200V260 9999 VCSH SCT035 BKN060 25/21 A3002 NOSIG=
202007221900 METAR MROC 221900Z 24012KT 210V280 9999 VCSH SCT035 BKN060 27/21 A2999 NOSIG=
202007222000 METAR MROC 222000Z 25007KT 190V320 9999 2000SW -TSRA FEW005 FEW015CB SCT035 BKN060 23/21 A2998 NOSIG=
202007222100 METAR MROC 222100Z 25007KT 210V270 9999 FEW030 OVC100 24/22 A2997 RETSRA NOSIG=
202007222200 METAR MROC 222200Z 26008KT 9999 SCT015 BKN100 23/22 A2998 NOSIG=
202007222300 METAR MROC 222300Z 26007KT 9999 FEW005 SCT020 OVC100 22/22 A2998 NOSIG=
202007230000 METAR MROC 230000Z COR 25008KT 5000 1500SW BCFG OVC010 21/21 A3000 NOSIG=
202007230100 METAR MROC 230100Z 26004KT 230V290 8000 FEW003 OVC010 21/21 A3001 NOSIG=
202007230200 METAR MROC 230200Z 26003KT 230V290 9999 FEW005 BKN020 21/21 A3003 NOSIG=
202007230300 METAR MROC 230300Z 28004KT 9999 FEW005 SCT020 21/21 A3005 NOSIG=
202007230400 METAR MROC 230400Z VRB02KT 9999 FEW007 BKN020 21/21 A3007 NOSIG=
202007230500 METAR MROC 230500Z 00000KT 9999 FEW010 21/21 A3007 NOSIG=
202007230600 METAR MROC 230600Z 34002KT 9999 BKN020 21/21 A3005 NOSIG=
202007230700 METAR MROC 230700Z 22002KT 9999 FEW020 20/20 A3003 NOSIG=
202007230800 METAR MROC 230800Z 03002KT CAVOK 20/20 A3001 NOSIG=
202007230900 METAR MROC 230900Z 08004KT 9999 FEW020 19/19 A3000 NOSIG=
202007231000 METAR MROC 231000Z 08005KT CAVOK 19/18 A3000 NOSIG=
202007231100 METAR MROC 231100Z 04010KT CAVOK 21/18 A2999 NOSIG=
202007231200 METAR MROC 231200Z 08008KT CAVOK 21/18 A3000 NOSIG=
202007231300 METAR MROC 231300Z 07008KT 040V110 CAVOK 23/18 A2999 NOSIG=
202007231400 METAR MROC 231400Z 12008KT 070V150 CAVOK 25/18 A3000 NOSIG=
202007231500 METAR MROC 231500Z 11010KT 080V140 9999 FEW040 BKN200 27/18 A3001 NOSIG=
202007231600 METAR MROC 231600Z 08004KT 350V150 9999 SCT045 BKN200 27/17 A3001 NOSIG=
202007231700 METAR MROC 231700Z 24006KT 200V270 9999 BKN047 26/21 A2999 NOSIG=
202007231800 METAR MROC 231800Z 26008KT 9999 BKN045 25/21 A2999 NOSIG=
202007231900 METAR MROC 231900Z 25011KT 9999 BKN048 27/22 A2996 NOSIG=
202007232000 METAR MROC 232000Z 24011KT 9999 SCT018 BKN030 25/21 A2994 NOSIG=
202007232100 METAR MROC 232100Z 24009KT 200V280 8000 -TSRA FEW015CB OVC060 22/22 A2994 NOSIG=
202007232200 METAR MROC 232200Z 23005KT 200V280 9999 VCTS FEW015CB BKN030 22/21 A2996 RETSRA NOSIG=
202007232300 METAR MROC 232300Z 26010KT 9999 SCT004 BKN015 21/21 A2998 NOSIG=
202007240000 METAR MROC 240000Z 31005KT 9999 OVC015 21/21 A3001 NOSIG=
202007240100 METAR MROC 240100Z VRB02KT 9999 -RA FEW015 BKN100 20/20 A3002 NOSIG=
202007240200 METAR MROC 240200Z 35002KT 9999 FEW015 20/20 A3003 NOSIG=
202007240300 METAR MROC 240300Z VRB02KT 9999 FEW005 SCT045 21/20 A3004 NOSIG=
202007240400 METAR MROC 240400Z 07003KT 9999 FEW040 20/20 A3004 NOSIG=
202007240500 METAR MROC 240500Z 09004KT 9999 FEW040 SCT100 20/20 A3004 NOSIG=
202007240600 METAR MROC 240600Z 04004KT 9999 FEW040 BKN100 20/20 A3003 NOSIG=
202007240700 METAR MROC 240700Z VRB02KT 9999 FEW040 BKN100 20/20 A3001 NOSIG=
202007240800 METAR MROC 240800Z 00000KT CAVOK 20/20 A2999 NOSIG=
202007240900 METAR MROC 240900Z 07003KT 020V110 9999 FEW035 SCT100 19/19 A2999 NOSIG=
202007241000 METAR MROC 241000Z 04003KT 9999 FEW035 19/18 A2999 NOSIG=
202007241100 METAR MROC 241100Z 07003KT 030V100 9999 SCT045 18/18 A3000 NOSIG=
202007241200 METAR MROC 241200Z 05004KT 010V120 9999 FEW045 BKN200 18/18 A3000 NOSIG=
202007241300 METAR MROC 241300Z 05004KT 020V090 9999 FEW038 BKN080 19/18 A3002 NOSIG=
202007241400 METAR MROC 241400Z 36004KT CAVOK 21/19 A3003 NOSIG=
202007241500 METAR MROC 241500Z 19003KT 140V220 9999 FEW047 BKN080 23/19 A3005 NOSIG=
202007241600 METAR MROC 241600Z 13006KT 090V170 9999 FEW035 BKN080 25/20 A3005 NOSIG=
202007241700 METAR MROC 241700Z 11006KT 070V140 9999 FEW040 BKN090 26/20 A3003 NOSIG=
202007241800 METAR MROC 241800Z 10007KT 050V140 9999 SCT045 BKN090 28/18 A3001 NOSIG=
202007241900 METAR MROC 241900Z 08007KT 040V120 9999 SCT047 BKN090 28/17 A2999 NOSIG=
202007242000 METAR MROC 242000Z 22005KT 150V260 9999 BKN040 BKN100 27/22 A2997 NOSIG=
202007242100 METAR MROC 242100Z 24012KT 200V260 9999 -RA VCTS SCT030TCU SCT120 25/22 A2995 TEMPO RA=
202007242141 METAR MROC 242141Z 19008KT 160V220 -TSRA SCT020TCU OVC100 21/21 A2997 NOSIG NOSIG=
202007242200 METAR MROC 242200Z 25010KT 5000 -TSRA SCT015CB OVC100 21/21 A2997 NOSIG=
202007242300 METAR MROC 242300Z 34008KT 300V060 9999 FEW005 SCT030 BKN110 21/21 A2997 RETSRA NOSIG=
202007250000 METAR MROC 250000Z VRB01KT 9999 SCT010 BKN120 22/20 A2998 NOSIG=
202007250100 METAR MROC 250100Z 27003KT 9999 SCT010 BKN120 21/21 A3000 NOSIG=
202007250200 METAR MROC 250200Z 36003KT 9999 SCT010 BKN120 21/21 A3001 NOSIG=
202007250300 METAR MROC 250300Z 20003KT 160V230 9999 FEW025 BKN120 21/21 A3002 NOSIG=
202007250400 METAR MROC 250400Z 04002KT 9999 FEW002 SCT030 21/21 A3004 NOSIG=
202007250500 METAR MROC 250500Z 02005KT 9999 FEW030 20/20 A3004 NOSIG=
202007250600 METAR MROC 250600Z 09004KT CAVOK 20/19 A3001 NOSIG=
202007250700 METAR MROC 250700Z 07003KT 030V100 CAVOK 20/20 A3001 NOSIG=
202007250800 METAR MROC 250800Z 05003KT CAVOK 20/19 A3001 NOSIG=
202007250900 METAR MROC 250900Z 03004KT 010V130 CAVOK 20/19 A3000 NOSIG=
202007251000 METAR MROC 251000Z 18002KT CAVOK 20/20 A3000 NOSIG=
202007251100 METAR MROC 251100Z 18002KT CAVOK 20/20 A3000 NOSIG=
202007251200 METAR MROC 251200Z VRB02KT CAVOK 20/20 A3001 NOSIG=
202007251300 METAR MROC 251300Z 25005KT 9999 2000S SCT003 BKN120 20/20 A3002 TEMPO 3000 BR=
202007251400 METAR MROC 251400Z VRB02KT 9999 4000SW FEW005 BKN120 20/20 A3005 TEMPO 3000 BR=
202007251500 METAR MROC 251500Z VRB02KT 9999 FEW009 BKN140 20/20 A3005 NOSIG=
202007251600 METAR MROC 251600Z VRB02KT CAVOK 24/19 A3003 BECMG 25006KT=
202007251700 METAR MROC 251700Z 25004KT 190V310 CAVOK 26/30 A3001 NOSIG=
202007251800 METAR MROC 251800Z 25010KT 9999 SCT030 25/21 A2999 NOSIG=
202007251900 METAR MROC 251900Z 24010KT 210V270 9999 RA VCTS FEW020CB FEW025TCU FEW030 27/21 A2998 NOSIG=
202007252000 METAR MROC 252000Z 23011KT 180V250 9999 4500SW -TSRA BCFG FEW012CB SCT035 24/21 A2997 TEMPO RA BKN015=
202007252100 METAR MROC 252100Z 25010KT 5000 -TSRA FEW004 SCT010CB OVC100 22/22 A2998 NOSIG=
202007252200 METAR MROC 252200Z 28005KT 5000 -TSRA FEW005 SCT010 OVC100 20/20 A2998 NOSIG=
202007252300 METAR MROC 252300Z 28006KT 8000 -RA VCFG SCT005 OVC100 21/21 A3000 RETSRA NOSIG=
202007260000 METAR MROC 260000Z 29004KT 5000 -RA BR FEW005 SCT025 OVC100 21/21 A3001 NOSIG=
202007260100 METAR MROC 260100Z 00000KT 9999 SCT010 OVC100 21/21 A3004 NOSIG=
202007260200 METAR MROC 260200Z 29003KT 260V320 9999 SCT015 OVC100 21/21 A3006 NOSIG=
202007260300 METAR MROC 260300Z VRB02KT 9999 SCT007 OVC100 21/21 A3007 NOSIG=
202007260400 METAR MROC 260400Z VRB02KT 9000 -DZ SCT001 OVC020 21/21 A3008 NOSIG=
202007260500 METAR MROC 260500Z VRB02KT 9999 BCFG FEW003 SCT035 21/21 A3007 NOSIG=
202007260600 METAR MROC 260600Z 06002KT CAVOK 20/20 A3004 NOSIG=
202007260700 METAR MROC 260700Z VRB02KT 9999 SCT003 20/20 A3003 NOSIG=
202007260800 METAR MROC 260800Z 08005KT CAVOK 19/19 A3001 NOSIG=
202007260900 METAR MROC 260900Z 08004KT CAVOK 19/19 A3002 NOSIG=
202007261000 METAR MROC 261000Z 07004KT CAVOK 18/18 A3000 NOSIG=
202007261100 METAR MROC 261100Z VRB02KT CAVOK 19/18 A3002 NOSIG=
202007261200 METAR MROC 261200Z 07005KT FEW001 SCT100 19/18 A3003 NOSIG=
202007261300 METAR MROC 261300Z 06007KT CAVOK 20/19 A3005 NOSIG=
202007261400 METAR MROC 261400Z 06005KT 010V100 CAVOK 23/18 A3005 NOSIG=
202007261500 METAR MROC 261500Z 11009KT 070V150 CAVOK 26/19 A3006 NOSIG=
202007261600 METAR MROC 261600Z 11011KT 080V150 9999 SCT045 25/18 A3006 NOSIG=
202007261700 METAR MROC 261700Z 13008KT 090V180 CAVOK 27/20 A3005 NOSIG=
202007261800 METAR MROC 261800Z 13005KT 070V190 9999 FEW045 SCT140 BKN200 28/19 A3003 NOSIG=
202007261900 METAR MROC 261900Z 25009KT 200V270 9999 BKN030 25/22 A3001 NOSIG=
202007262000 METAR MROC 262000Z 25012KT 9999 VCTS BKN030CB 23/22 A3000 NOSIG=
202007262100 METAR MROC 262100Z 29006KT 240V330 9999 3000SW BKN015 SCT025 23/18 A3000 TEMPO RA=
202007262200 METAR MROC 262200Z 24005KT 9999 VCTS FEW015CB SCT015 BKN200 24/19 A2998 NOSIG=
202007262300 METAR MROC 262300Z 22004KT 180V250 9999 -RA FEW010 SCT025 BKN080 23/21 A3000 NOSIG=
202007270000 METAR MROC 270000Z 25004KT 8000 3000SW VCFG FEW010 SCT025 BKN060 22/21 A3001 NOSIG=
202007270100 METAR MROC 270100Z 31003KT 9999 BCFG FEW010 SCT025 BKN060 22/22 A3003 NOSIG=
202007270200 METAR MROC 270200Z VRB02KT 9999 BCFG FEW010 SCT025 BKN060 22/22 A3006 NOSIG=
202007270300 METAR MROC 270300Z 27004KT 8000 3000SW VCFG SCT005 BKN020 21/21 A3008 NOSIG=
202007270400 METAR MROC 270400Z 10002KT 9999 FEW020 BKN120 21/21 A3007 NOSIG=
202007270500 METAR MROC 270500Z 06006KT 9999 FEW030 BKN120 22/19 A3006 NOSIG=
202007270600 METAR MROC 270600Z 09007KT 060V120 CAVOK 22/18 A3003 NOSIG=
202007270700 METAR MROC 270700Z 11006KT 040V160 CAVOK 22/18 A3001 NOSIG=
202007270800 METAR MROC 270800Z 25004KT 1200 BR FEW001 20/20 A3001 NOSIG=
202007270900 METAR MROC 270900Z VRB02KT 8000 SCT005 20/20 A3000 NOSIG=
202007271000 METAR MROC 271000Z 03005KT CAVOK 19/19 A3000 NOSIG=
202007271100 METAR MROC 271100Z 01003KT 290V080 CAVOK 20/18 A3002 NOSIG=
202007271200 METAR MROC 271200Z VRB01KT CAVOK 19/19 A3004 NOSIG=
202007271300 METAR MROC 271300Z 09003KT CAVOK 21/18 A3006 NOSIG=
202007271400 METAR MROC 271400Z VRB02KT CAVOK 24/18 A3007 NOSIG=
202007271500 METAR MROC 271500Z VRB02KT CAVOK 25/18 A3007 NOSIG=
202007271600 METAR MROC 271600Z 05003KT 350V100 CAVOK 26/18 A3005 NOSIG=
202007271700 METAR MROC 271700Z 14003KT 080V220 CAVOK 28/18 A3002 NOSIG=
202007271800 METAR MROC 271800Z 25009KT 210V270 9999 FEW025 BKN200 27/20 A3000 NOSIG=
202007271900 METAR MROC 271900Z 24011KT 9999 SCT030 BKN200 26/22 A2998 NOSIG=
202007272000 METAR MROC 272000Z 25010KT 9999 -RA VCTS FEW015CB SCT020 BKN100 26/22 A2997 NOSIG=
202007272100 METAR MROC 272100Z 25011KT 220V280 8000 3500NW -TSRA BKN010CB SCT025 24/22 A2997 NOSIG=
202007272200 METAR MROC 272200Z 23010KT 190V270 3000 TSRA BKN010CB SCT025 22/22 A2998 NOSIG=
202007272300 METAR MROC 272300Z 22004KT 150V270 5000 1500NW TSRA FEW010 SCT015CB BKN035 21/21 A3001 NOSIG=
202007280000 METAR MROC 280000Z 35005KT 310V040 8000 3000SW TSRA VCFG SCT010CB BKN020 20/20 A3003 NOSIG=
202007280100 METAR MROC 280100Z 21003KT 8000 -RA VCFG SCT002 BKN010 20/20 A3005 RETSRA NOSIG=
202007280200 METAR MROC 280200Z 07006KT CAVOK 20/20 A3003 NOSIG=
202007280300 METAR MROC 280300Z 07008KT CAVOK 21/20 A3003 NOSIG=
202007280400 METAR MROC 280400Z 10005KT 9999 BCFG FEW004 21/19 A3001 NOSIG=
202007280500 METAR MROC 280500Z 21002KT CAVOK 20/20 A3000 NOSIG=
202007280600 METAR MROC 280600Z VRB02KT CAVOK 19/19 A3000 NOSIG=
202007280700 METAR MROC 280700Z 04004KT CAVOK 19/19 A2998 NOSIG=
202007280800 METAR MROC 280800Z 09004KT CAVOK 18/18 A2999 NOSIG=
202007280900 METAR MROC 280900Z VRB02KT 9999 FEW015 BKN030 18/18 A2999 NOSIG=
202007281000 METAR MROC 281000Z 10006KT 9999 BKN015 18/18 A2999 NOSIG=
202007281100 METAR MROC 281100Z 10005KT 9999 SCT030 19/19 A3000 NOSIG=
202007281200 METAR MROC 281200Z 07005KT CAVOK 19/18 A3003 NOSIG=
202007281300 METAR MROC 281300Z 09005KT CAVOK 20/18 A3004 NOSIG=
202007281400 METAR MROC 281400Z 06005KT CAVOK 22/19 A3005 NOSIG=
202007281500 METAR MROC 281500Z VRB03KT CAVOK 24/18 A3005 NOSIG=
202007281600 METAR MROC 281600Z 25003KT 200V300 CAVOK 25/17 A3004 NOSIG=
202007281700 METAR MROC 281700Z 26005KT 230V290 9999 FEW025 BKN200 26/20 A3002 NOSIG=
202007281800 METAR MROC 281800Z 24008KT 200V270 9999 FEW020 BKN200 27/20 A3001 NOSIG=
202007281900 METAR MROC 281900Z 24008KT 200V270 9999 FEW015TCU SCT020 26/20 A2999 NOSIG=
202007282000 METAR MROC 282000Z 25009KT 220V280 9999 -RA VCTS FEW020CB BKN045 24/22 A2998 NOSIG=
202007282100 METAR MROC 282100Z 12005KT 080V170 9999 -RA VCTS FEW020CB BKN060 OVC090 21/20 A2998 NOSIG=
202007282200 METAR MROC 282200Z 07005KT 9999 -RA VCTS FEW005CB SCT070 OVC100 22/19 A2997 NOSIG=
202007282300 METAR MROC 282300Z 07004KT 9999 FEW020 SCT070 OVC130 22/20 A2999 NOSIG=
202007290000 METAR MROC 290000Z 09004KT 9999 FEW002 SCT070 OVC130 22/20 A3001 NOSIG=
202007290100 METAR MROC 290100Z 08006KT 050V130 9999 FEW040 BKN130 23/19 A3001 NOSIG=
202007290200 METAR MROC 290200Z 07008KT CAVOK 22/18 A3003 NOSIG=
202007290300 METAR MROC 290300Z 09007KT 9999 FEW040 BKN110 22/18 A3004 NOSIG=
202007290400 METAR MROC 290400Z 06008KT 360V110 9999 FEW035 BKN150 22/18 A3003 NOSIG=
202007290500 METAR MROC 290500Z 11009G21KT 070V150 9999 FEW035 SCT150 23/19 A3002 NOSIG=
202007290600 METAR MROC 290600Z 12010G20KT CAVOK 22/18 A3000 NOSIG=
202007290700 METAR MROC 290700Z 05007KT 020V090 CAVOK 21/18 A2998 NOSIG=
202007290800 METAR MROC 290800Z 00000KT CAVOK 20/18 A2997 NOSIG=
202007290900 METAR MROC 290900Z 05004KT 9999 FEW035 19/17 A2998 NOSIG=
202007291000 METAR MROC 291000Z 07005KT 030V120 9999 FEW035 21/17 A2998 NOSIG=
202007291100 METAR MROC 291100Z 12014KT 080V150 9999 FEW035 SCT120 22/18 A2998 NOSIG=
202007291200 METAR MROC 291200Z 12014KT 090V150 9999 FEW045 SCT180 22/18 A2999 NOSIG=
202007291300 METAR MROC 291300Z 11012KT CAVOK 23/18 A3000 NOSIG=
202007291400 METAR MROC 291400Z 12011KT 090V160 25/18 A3001 NOSIG=
202007291500 METAR MROC 291500Z 14009KT 100V180 CAVOK 27/18 A3002 NOSIG=
202007291600 METAR MROC 291600Z 26011KT 9999 FEW045 SCT120 25/20 A3002 NOSIG=
202007291700 METAR MROC 291700Z 26007KT 230V300 9999 FEW045 SCT250 26/21 A3001 NOSIG=
202007291800 METAR MROC 291800Z 25008KT 220V280 9999 SCT045 26/21 A3000 NOSIG=
202007291900 METAR MROC 291900Z 25007KT 190V300 9999 SCT045 27/21 A2998 NOSIG=
202007292000 METAR MROC 292000Z 23008KT 200V270 9999 SCT040 27/22 A2995 NOSIG=
202007292100 METAR MROC 292100Z 24011KT 210V270 9999 BKN045 27/22 A2994 NOSIG=
202007292200 METAR MROC 292200Z 26010KT 9999 FEW015 BKN035 25/23 A2994 NOSIG=
202007292300 METAR MROC 292300Z 25009KT 9999 SCT008TCU BKN020 23/23 A2995 NOSIG=
202007300000 METAR MROC 300000Z 23003KT 200V260 9999 SCT005 BKN045 23/23 A2997 NOSIG=
202007300100 METAR MROC 300100Z 25005KT 9999 FEW010 BKN050 22/22 A2999 NOSIG=
202007300200 METAR MROC 300200Z VRB01KT 9999 SCT002 22/22 A3000 NOSIG=
202007300300 METAR MROC 300300Z VRB02KT 9999 FEW035 21/21 A3000 NOSIG=
202007300400 METAR MROC 300400Z 11009KT CAVOK 23/17 A3000 NOSIG=
202007300500 METAR MROC 300500Z 12006KT 090V150 CAVOK 22/18 A3001 NOSIG=
202007300600 METAR MROC 300600Z 09006KT CAVOK 22/17 A2999 NOSIG=
202007300700 METAR MROC 300700Z 10007KT CAVOK 22/17 A2997 NOSIG=
202007300800 METAR MROC 300800Z 11010KT 080V140 CAVOK 22/17 A2996 NOSIG=
202007300900 METAR MROC 300900Z 12010KT 090V160 CAVOK 22/17 A2996 NOSIG=
202007301000 METAR MROC 301000Z 12010KT CAVOK 22/17 A2995 NOSIG=
202007301100 METAR MROC 301100Z 11011KT CAVOK 22/17 A2995 NOSIG=
202007301200 METAR MROC 301200Z 12011KT 090V150 9999 FEW025 SCT100 22/18 A2997 NOSIG=
202007301300 METAR MROC 301300Z 11012G22KT 070V140 CAVOK 24/19 A2999 NOSIG=
202007301400 METAR MROC 301400Z 10014KT CAVOK 25/18 A3000 NOSIG=
202007301500 METAR MROC 301500Z 09015KT CAVOK 27/18 A3001 NOSIG=
202007301600 METAR MROC 301600Z 08011KT 050V160 9999 SCT045 29/18 A3002 NOSIG=
202007301700 METAR MROC 301700Z 07013KT 9999 FEW045 SCT250 28/18 A3001 NOSIG=
202007301800 METAR MROC 301800Z 07013KT 040V110 9999 SCT045 30/18 A2998 NOSIG=
202007301900 METAR MROC 301900Z 06016KT 9999 FEW045 BKN150 30/17 A2995 NOSIG=
202007302000 METAR MROC 302000Z 06012KT 020V090 9999 FEW045 BKN250 30/17 A2993 NOSIG=
202007302100 METAR MROC 302100Z 05015KT CAVOK 29/16 A2991 NOSIG=
202007302200 METAR MROC 302200Z 04011KT 020V100 9999 FEW045 BKN200 29/16 A2990 NOSIG=
202007302300 METAR MROC 302300Z 07011KT 040V100 CAVOK 28/16 A2992 NOSIG=
202007310000 METAR MROC 310000Z 11004KT 060V120 CAVOK 25/16 A2994 NOSIG=
202007310100 METAR MROC 310100Z 12006KT CAVOK 24/17 A2996 NOSIG=
202007310200 METAR MROC 310200Z 09009KT CAVOK 24/17 A2996 NOSIG=
202007310300 METAR MROC 310300Z 08011KT CAVOK 24/17 A2997 NOSIG=
202007310400 METAR MROC 310400Z 09012KT CAVOK 23/16 A2998 NOSIG=
202007310500 METAR MROC 310500Z 11012KT 070V130 CAVOK 23/16 A2999 NOSIG=
202007310600 METAR MROC 310600Z 09008KT 050V140 CAVOK 23/17 A2998 NOSIG=
202007310700 METAR MROC 310700Z 10010KT 070V130 CAVOK 23/16 A2996 NOSIG=
202007310800 METAR MROC 310800Z 12008KT 090V150 CAVOK 21/17 A2996 NOSIG=
202007310900 METAR MROC 310900Z 05010KT CAVOK 21/17 A2994 NOSIG=
202007311000 METAR MROC 311000Z 10009KT CAVOK 21/16 A2994 NOSIG=
202007311100 METAR MROC 311100Z 07007KT 020V100 CAVOK 21/16 A2996 NOSIG=
202007311200 METAR MROC 311200Z 04005KT CAVOK 20/15 A2997 NOSIG=
202007311300 METAR MROC 311300Z 03005KT CAVOK 22/15 A2999 NOSIG=
202007311400 METAR MROC 311400Z 22003KT CAVOK 25/15 A3000 NOSIG=
202007311500 METAR MROC 311500Z 24004KT CAVOK 25/16 A3000 NOSIG=
202007311600 METAR MROC 311600Z 28006KT 250V330 CAVOK 28/18 A2999 NOSIG=
202007311700 METAR MROC 311700Z 29010KT 240V020 CAVOK 28/17 A2997 NOSIG=
202007311800 METAR MROC 311800Z 24012KT 210V270 CAVOK 28/19 A2997 NOSIG=
202007311900 METAR MROC 311900Z 25013KT CAVOK 28/21 A2996 NOSIG=
202007312000 METAR MROC 312000Z 25012KT 200V270 CAVOK 28/22 A2995 NOSIG=
202007312100 METAR MROC 312100Z 24008KT 9999 FEW035 28/21 A2993 NOSIG=
202007312200 METAR MROC 312200Z 24008KT 210V270 9999 FEW025TCU FEW045 26/22 A2994 NOSIG=
202007312300 METAR MROC 312300Z 27007KT 180V300 9999 FEW040 25/22 A2995 NOSIG=
202008010000 METAR MROC 010000Z 25005KT CAVOK 23/22 A2996 NOSIG=
202008010100 METAR MROC 010100Z VRB02KT 9999 FEW010 BKN020 23/23 A2998 NOSIG=
202008010200 METAR MROC 010200Z 26003KT CAVOK 22/22 A3000 NOSIG=
202008010300 METAR MROC 010300Z 28006KT 230V330 CAVOK 22/22 A3002 NOSIG=
202008010400 METAR MROC 010400Z 16003KT 050V210 CAVOK 22/20 A3002 NOSIG=
202008010500 METAR MROC 010500Z 11004KT 080V150 CAVOK 22/18 A3001 NOSIG=
202008010600 METAR MROC 010600Z 06004KT CAVOK 22/17 A3001 NOSIG=
202008010700 METAR MROC 010700Z 04006KT CAVOK 21/17 A3000 NOSIG=
202008010800 METAR MROC 010800Z 09009KT CAVOK 21/16 A2998 NOSIG=
202008010900 METAR MROC 010900Z 07008KT CAVOK 20/16 A2999 NOSIG=
202008011000 METAR MROC 011000Z 06006KT 020V090 CAVOK 20/16 A2997 NOSIG=
202008011100 METAR MROC 011100Z 08009KT CAVOK 21/16 A2997 NOSIG=
202008011200 METAR MROC 011200Z 05007KT CAVOK 20/16 A2999 NOSIG=
202008011300 METAR MROC 011300Z 08008KT CAVOK 22/16 A3001 NOSIG=
202008011400 METAR MROC 011400Z 09008KT 070V130 CAVOK 26/18 A3001 NOSIG=
202008011500 METAR MROC 011500Z 11009KT 060V170 CAVOK 27/16 A3001 NOSIG=
202008011600 METAR MROC 011600Z 15009KT 110V180 CAVOK 29/18 A3001 NOSIG=
202008011700 METAR MROC 011700Z 24010KT 210V280 CAVOK 28/20 A3001 NOSIG=
202008011800 METAR MROC 011800Z 25009KT 200V320 CAVOK 28/20 A2999 NOSIG=
202008011900 METAR MROC 011900Z 24009KT 200V270 9999 FEW040 BKN250 29/21 A2995 NOSIG=
202008012000 METAR MROC 012000Z 25013KT 9999 FEW020TCU SCT035 BKN250 28/22 A2994 NOSIG=
202008012100 METAR MROC 012100Z 25013KT 9999 VCTS FEW020CB SCT030 25/23 A2994 NOSIG=
202008012200 METAR MROC 012200Z 24010KT 9999 TS FEW015CB BKN040 24/22 A2994 NOSIG=
202008012300 METAR MROC 012300Z 26005KT 210V320 9999 SCT010 BKN030 24/22 A2995 NOSIG=
202008020000 METAR MROC 020000Z 26005KT 9999 SCT025 23/21 A2995 NOSIG=
202008020100 METAR MROC 020100Z 32005KT 9999 FEW010 BKN050 23/22 A2997 NOSIG=
202008020200 METAR MROC 020200Z 20002KT 9999 FEW010 BKN050 23/22 A2999 NOSIG=
202008020300 METAR MROC 020300Z VRB01KT CAVOK 23/23 A3000 NOSIG=
202008020400 METAR MROC 020400Z 15003KT 9999 4500S BCFG FEW003 SCT015 22/22 A3003 NOSIG=
202008020500 METAR MROC 020500Z VRB02KT 9999 BCFG FEW003 22/21 A3002 NOSIG=
202008020600 METAR MROC 020600Z 33003KT 250V330 CAVOK 22/21 A3002 NOSIG=
202008020700 METAR MROC 020700Z 07004KT 250V330 CAVOK 21/20 A2999 NOSIG=
202008020800 METAR MROC 020800Z 07005KT 040V110 CAVOK 22/19 A2996 NOSIG=
202008020900 METAR MROC 020900Z 03005KT 360V070 CAVOK 22/18 A2996 NOSIG=
202008021000 METAR MROC 021000Z 09006KT 060V120 CAVOK 22/18 A2997 NOSIG=
202008021100 METAR MROC 021100Z 08006KT 050V110 CAVOK 22/18 A2998 NOSIG=
202008021200 METAR MROC 021200Z 06006KT CAVOK 21/17 A2998 NOSIG=
202008021300 METAR MROC 021300Z 11007KT CAVOK 24/19 A3000 NOSIG=
202008021400 METAR MROC 021400Z 10007KT 060V130 CAVOK 26/18 A3001 NOSIG=
202008021500 METAR MROC 021500Z 09007KT 040V130 CAVOK 28/19 A3001 NOSIG=
202008021600 METAR MROC 021600Z 16008KT 120V200 CAVOK 30/18 A3001 BECMG 24009KT=
202008021700 METAR MROC 021700Z 26010KT CAVOK 28/22 A3000 NOSIG=
202008021800 METAR MROC 021800Z 25010KT 200V280 CAVOK 28/23 A2999 NOSIG=
202008021900 METAR MROC 021900Z 24010KT 9999 BKN045 28/22 A2997 NOSIG=
202008021949 METAR MROC 021949Z 25009KT 210V270 2000 SHRA FEW020TCU BKN041 25/23 A2996 NOSIG=
202008022000 METAR MROC 022000Z 25008KT 9999 -RA FEW020TCU BKN035 25/23 A2995 NOSIG=
202008022100 METAR MROC 022100Z 29006KT 230V340 9999 -RA VCTS FEW020CB BKN040 24/22 A2996 NOSIG=
202008022200 METAR MROC 022200Z 27005KT 220V320 9999 FEW015 SCT030 25/21 A2997 NOSIG=
202008022300 METAR MROC 022300Z 26005KT 9999 FEW010 BKN040 23/21 A2997 NOSIG=
202008030000 METAR MROC 030000Z 23005KT 9999 SCT015 22/22 A2999 NOSIG=
202008030100 METAR MROC 030100Z 35003KT 9999 SCT015 23/23 A3000 NOSIG=
202008030200 METAR MROC 030200Z 28003KT CAVOK 23/22 A3002 NOSIG=
202008030300 METAR MROC 030300Z 00000KT 9999 SCT020 23/23 A3003 NOSIG=
202008030400 METAR MROC 030400Z 05004KT CAVOK 22/22 A3006 NOSIG=
202008030500 METAR MROC 030500Z 09005KT CAVOK 21/21 A3005 NOSIG=
202008030600 METAR MROC 030600Z 05006KT 030V090 9999 FEW030 22/19 A3004 NOSIG=
202008030700 METAR MROC 030700Z 03004KT 360V060 9999 FEW030 21/18 A3003 NOSIG=
202008030800 METAR MROC 030800Z 04006KT CAVOK 20/17 A3001 NOSIG=
202008030900 METAR MROC 030900Z VRB02KT CAVOK 20/17 A3000 NOSIG=
202008031000 METAR MROC 031000Z VRB02KT CAVOK 20/16 A3000 NOSIG=
202008031100 METAR MROC 031100Z 02004KT 350V080 CAVOK 20/17 A3000 NOSIG=
202008031200 METAR MROC 031200Z 05007KT 020V080 CAVOK 21/16 A3002 NOSIG=
202008031300 METAR MROC 031300Z 07006KT CAVOK 23/17 A3004 NOSIG=
202008031400 METAR MROC 031400Z 10012KT CAVOK 25/17 A3005 NOSIG=
202008031500 METAR MROC 031500Z 10010KT CAVOK 28/18 A3005 NOSIG=
202008031600 METAR MROC 031600Z 10011KT CAVOK 29/19 A3007 NOSIG=
202008031700 METAR MROC 031700Z 08009KT 050V130 CAVOK 29/18 A3006 NOSIG=
202008031800 METAR MROC 031800Z 08007KT 040V130 CAVOK 30/19 A3004 BECMG 24009KT=
202008031900 METAR MROC 031900Z 21006KT 140V250 CAVOK 29/23 A3002 NOSIG=
202008032000 METAR MROC 032000Z 25011KT 9999 FEW035 BKN050 26/23 A2999 NOSIG=
202008032100 METAR MROC 032100Z 26012KT 5000 TSRA BKN015CB 24/24 A2997 TEMPO 5000=
202008032200 METAR MROC 032200Z 27012KT 5000 -RA BR SCT005 BKN010 22/22 A3001 RETSRA NOSIG=
202008032300 METAR MROC 032300Z 33006KT 9999 SCT005 BKN010 22/22 A3003 NOSIG=
202008040000 METAR MROC 040000Z 17003KT 9999 FEW010 SCT020 OVC110 22/22 A3006 NOSIG=
202008040100 METAR MROC 040100Z VRB01KT CAVOK 22/22 A3007 NOSIG=
202008040200 METAR MROC 040200Z VRB01KT 9999 FEW020 BKN110 22/22 A3008 NOSIG=
202008040300 METAR MROC 040300Z 05005KT CAVOK 22/22 A3009 NOSIG=
202008040400 METAR MROC 040400Z 03004KT 340V050 CAVOK 21/21 A3009 NOSIG=
202008040500 METAR MROC 040500Z 05006KT CAVOK 21/20 A3007 NOSIG=
202008040600 METAR MROC 040600Z 06006KT 040V100 CAVOK 21/20 A3005 NOSIG=
202008040700 METAR MROC 040700Z 05008KT 010V070 CAVOK 22/19 A3001 NOSIG=
202008040800 METAR MROC 040800Z 36003KT 300V090 CAVOK 22/19 A3000 NOSIG=
202008040900 METAR MROC 040900Z 36003KT 300V090 CAVOK 22/19 A3000 NOSIG=
202008041000 METAR MROC 041000Z 03006KT CAVOK 21/18 A3001 NOSIG=
202008041100 METAR MROC 041100Z 01003KT 320V070 CAVOK 20/18 A3001 NOSIG=
202008041200 METAR MROC 041200Z 07007KT CAVOK 21/18 A3002 NOSIG=
202008041300 METAR MROC 041300Z 03005KT CAVOK 21/18 A3004 NOSIG=
202008041400 METAR MROC 041400Z 26005KT 210V330 9999 FEW045 SCT120 BKN200 23/20 A3007 NOSIG=
202008041500 METAR MROC 041500Z COR VRB03KT CAVOK 25/20 A3007 BECMG 26005KT=
202008041600 METAR MROC 041600Z 28006KT 220V320 9999 FEW045 SCT250 26/20 A3007 NOSIG=
202008041700 METAR MROC 041700Z 25007KT 9999 SCT040 BKN250 26/22 A3005 NOSIG=
202008041800 METAR MROC 041800Z 25007KT 210V270 9999 FEW030TCU SCT030 26/22 A3002 NOSIG=
202008041900 METAR MROC 041900Z 24004KT 200V310 9999 SCT025 BKN100 26/22 A2999 NOSIG=
202008042000 METAR MROC 042000Z 26008KT 9999 RA BKN020 26/21 A2999 BECMG TSRA=
202008042100 METAR MROC 042100Z 21008KT 170V250 9999 VCTS SCT030 BKN110 26/22 A2997 TEMPO TSRA=
202008042200 METAR MROC 042200Z 23010KT 200V260 9999 -TS BKN020CB 23/21 A2999 NOSIG=
202008042300 METAR MROC 042300Z 27010KT 9999 -RA BKN010 23/21 A3001 RETS TEMPO 5000 BR=
202008050000 METAR MROC 050000Z 31006KT 9999 BKN010 22/21 A3004 NOSIG=
202008050100 METAR MROC 050100Z 26004KT 210V300 9999 BKN010 22/21 A3005 NOSIG=
202008050200 METAR MROC 050200Z 30003KT 260V330 9999 BKN010 22/21 A3007 NOSIG=
202008050300 METAR MROC 050300Z 09004KT 9999 BKN020 22/21 A3007 NOSIG=
202008050400 METAR MROC 050400Z 10004KT CAVOK 21/21 A3007 NOSIG=
202008050500 METAR MROC 050500Z 05007KT CAVOK 22/20 A3006 NOSIG=
202008050600 METAR MROC 050600Z 22003KT 120V280 CAVOK 21/20 A3005 NOSIG=
202008050700 METAR MROC 050700Z 31003KT 280V340 CAVOK 20/19 A3003 NOSIG=
202008050800 METAR MROC 050800Z 36003KT CAVOK 20/20 A3001 NOSIG=
202008050900 METAR MROC 050900Z VRB02KT CAVOK 20/20 A3002 NOSIG=
202008051000 METAR MROC 051000Z 08003KT CAVOK 19/19 A3000 NOSIG=
202008051100 METAR MROC 051100Z 07007KT CAVOK 19/17 A3000 NOSIG=
202008051200 METAR MROC 051200Z 06006KT 040V100 FEW045 OVC200 20/18 A3001 NOSIG=
202008051300 METAR MROC 051300Z COR 09009KT 050V110 CAVOK 23/18 A3000 NOSIG=
202008051400 METAR MROC 051400Z 12009KT 090V170 CAVOK 25/18 A3002 NOSIG=
202008051500 METAR MROC 051500Z VRB05KT CAVOK 27/18 A3004 BECMG 24007KT=
202008051600 METAR MROC 051600Z 23011KT 190V250 CAVOK 26/20 A3004 NOSIG=
202008051700 METAR MROC 051700Z 24009KT 210V270 9999 SCT020 26/21 A3003 NOSIG=
202008051800 METAR MROC 051800Z 24009KT 210V270 9999 FEW030TCU SCT035 BKN200 26/21 A3000 NOSIG=
202008051900 METAR MROC 051900Z 24011KT 9999 VCTS FEW020CB BKN040 25/22 A2999 BECMG TSRA=
202008052000 METAR MROC 052000Z 26008KT 220V290 9999 VCTS OVC020CB 24/21 A2997 BECMG 5000 TSRA=
202008052100 METAR MROC 052100Z 24006KT 8000 3000SW -RA FEW010 FEW015CB SCT035 BKN080 21/21 A2996 RETSRA NOSIG=
202008052200 METAR MROC 052200Z VRB02KT 5000 BR VCTS FEW005 FEW010 SCT015CB BKN035 21/21 A2996 NOSIG=
202008052300 METAR MROC 052300Z 16004KT 2500 RA BR FEW005 SCT015 BKN030 21/21 A2999 NOSIG=
202008060000 METAR MROC 060000Z VRB02KT 3000 -RA BR FEW005 SCT015 BKN060 20/20 A3001 NOSIG=
202008060100 METAR MROC 060100Z 34003KT 300V030 8000 -RA VCFG FEW003 SCT030 BKN060 21/21 A3003 NOSIG=
202008060200 METAR MROC 060200Z 21004KT 8000 1000SW -RA VCFG SCT003 BKN100 20/20 A3004 NOSIG=
202008060300 METAR MROC 060300Z 29004KT 230V330 9999 BCFG FEW005 SCT025 BKN100 20/20 A3004 NOSIG=
202008060400 METAR MROC 060400Z 25004KT 9999 SCT004 BKN010 20/20 A3006 NOSIG=
202008060500 METAR MROC 060500Z VRB02KT 9999 SCT004 BKN015 20/20 A3005 NOSIG=
202008060600 METAR MROC 060600Z VRB02KT 9999 FEW005 BKN015 20/20 A3001 NOSIG=
202008060700 METAR MROC 060700Z VRB02KT 9999 SCT005 BKN015 20/20 A3000 NOSIG=
202008060800 METAR MROC 060800Z 04005KT CAVOK 20/20 A2998 NOSIG=
202008060900 METAR MROC 060900Z 04007KT CAVOK 20/19 A2996 NOSIG=
202008061000 METAR MROC 061000Z 07012KT CAVOK 21/18 A2995 NOSIG=
202008061100 METAR MROC 061100Z 09011KT CAVOK 21/17 A2994 NOSIG=
202008061200 METAR MROC 061200Z 09008KT CAVOK 21/17 A2994 NOSIG=
202008061300 METAR MROC 061300Z 22007KT CAVOK 22/17 A2999 NOSIG=
202008061400 METAR MROC 061400Z 27006KT 240V310 CAVOK 22/18 A3003 NOSIG=
202008061500 METAR MROC 061500Z 36005KT 330V030 CAVOK 24/17 A3003 NOSIG=
202008061600 METAR MROC 061600Z 24006KT 190V290 9999 FEW045 SCT200 26/18 A3002 NOSIG=
202008061700 METAR MROC 061700Z 26008KT 230V300 9999 FEW045 SCT120 25/18 A3002 NOSIG=
202008061800 METAR MROC 061800Z 23005KT 170V260 9999 FEW040 BKN120 26/18 A3001 NOSIG=
202008061900 METAR MROC 061900Z 24010KT 9999 FEW015 BKN120 24/20 A3000 NOSIG=
202008062000 METAR MROC 062000Z 26009KT 9999 SCT040 BKN120 24/19 A2999 NOSIG=
202008062100 METAR MROC 062100Z 24007KT 210V270 9999 FEW030 SCT080 BKN120 24/20 A2998 NOSIG=
202008062200 METAR MROC 062200Z 26008KT 9999 SCT015 BKN100 22/20 A2997 NOSIG=
202008062300 METAR MROC 062300Z 28005KT 240V330 9999 SCT015 BKN035 22/20 A2998 NOSIG=
202008070000 METAR MROC 070000Z 30003KT 9999 FEW015 SCT035 BKN100 22/21 A3000 NOSIG=
202008070100 METAR MROC 070100Z VRB02KT 9999 -RA FEW020 BKN100 22/20 A3001 NOSIG=
202008070200 METAR MROC 070200Z VRB02KT 9999 FEW020 BKN200 21/21 A3002 NOSIG=
202008070300 METAR MROC 070300Z VRB02KT CAVOK 22/21 A3003 NOSIG=
202008070400 METAR MROC 070400Z 24003KT 1500 0500NE BR BKN003 21/21 A3003 NOSIG=
202008070500 METAR MROC 070500Z VRB01KT 0900 FG OVC003 20/20 A3003 NOSIG=
202008070600 METAR MROC 070600Z 02003KT CAVOK 20/20 A3002 NOSIG=
202008070700 METAR MROC 070700Z 00804KT CAVOK 20/20 A3000 NOSIG=
202008070800 METAR MROC 070800Z VRB01KT CAVOK 20/20 A3000 NOSIG=
202008070900 METAR MROC 070900Z VRB02KT 9999 SCT010 20/20 A2999 NOSIG=
202008071000 METAR MROC 071000Z VRB02KT 9999 FEW010 20/20 A2999 NOSIG=
202008071100 METAR MROC 071100Z VRB02KT CAVOK 20/20 A3000 NOSIG=
202008071200 METAR MROC 071200Z 08005KT CAVOK 20/20 A3001 NOSIG=
202008071300 METAR MROC 071300Z 06006KT CAVOK 22/19 A3000 NOSIG=
202008071400 METAR MROC 071400Z 07006KT 050V110 9999 FEW030 BKN120 23/19 A3004 NOSIG=
202008071500 METAR MROC 071500Z 10008KT 070V130 CAVOK 24/20 A3001 NOSIG=
202008071600 METAR MROC 071600Z 10009KT 080V140 9999 FEW045 SCT120 26/19 A3003 NOSIG=
202008071700 METAR MROC 071700Z 10008KT 070V130 9999 FEW040 SCT120 26/18 A3003 NOSIG=
202008071800 METAR MROC 071800Z 11009KT 070V140 9999 FEW040 BKN120 27/18 A3002 NOSIG=
202008071900 METAR MROC 071900Z 11007KT 080V150 9999 FEW040 SCT100 BKN200 28/19 A3000 NOSIG=
202008072000 METAR MROC 072000Z 12006KT 080V190 9999 SCT040 BKN200 28/19 A2998 NOSIG=
202008072100 METAR MROC 072100Z 25009KT 9999 FEW020TCU BKN045 OVC100 26/22 A2997 NOSIG=
202008072200 METAR MROC 072200Z 25009KT 220V280 9999 FEW020TCU SCT040 BKN100 25/23 A2997 NOSIG=
202008072300 METAR MROC 072300Z 26009KT 9999 FEW025 SCT050 BKN090 23/22 A2999 NOSIG=
202008080000 METAR MROC 080000Z 22003KT 180V250 9999 FEW010 SCT050 BKN080 23/23 A3001 NOSIG=
202008080100 METAR MROC 080100Z 23004KT 9999 FEW010 BKN035 22/22 A3001 NOSIG=
202008080200 METAR MROC 080200Z 27003KT 9999 FEW040 22/22 A3002 NOSIG=
202008080300 METAR MROC 080300Z 31004KT 9999 FEW040 22/22 A3005 NOSIG=
202008080400 METAR MROC 080400Z 00000KT 9999 FEW030 22/22 A3005 NOSIG=
202008080500 METAR MROC 080500Z 11011G21KT 9999 FEW030 23/19 A3002 NOSIG=
202008080600 METAR MROC 080600Z 12010KT CAVOK 23/18 A3001 NOSIG=
202008080700 METAR MROC 080700Z 10008KT CAVOK 23/17 A3000 NOSIG=
202008080800 METAR MROC 080800Z VRB02KT CAVOK 21/18 A2999 NOSIG=
202008080900 METAR MROC 080900Z 04006KT CAVOK 21/18 A2998 NOSIG=
202008081000 METAR MROC 081000Z 05004KT CAVOK 20/18 A2999 NOSIG=
202008081100 METAR MROC 081100Z VRB02KT CAVOK 20/18 A3000 NOSIG=
202008081200 METAR MROC 081200Z 02010KT 9999 FEW045 SCT140 21/17 A3000 NOSIG=
202008081300 METAR MROC 081300Z 11008KT 060V120 9999 FEW045 BKN120 23/18 A3003 NOSIG=
202008081400 METAR MROC 081400Z 12008KT 090V150 CAVOK 24/18 A3005 NOSIG=
202008081500 METAR MROC 081500Z 12008KT 090V160 CAVOK 26/19 A3003 NOSIG=
202008081600 METAR MROC 081600Z 11010KT 080V150 CAVOK 28/18 A3003 NOSIG=
202008081700 METAR MROC 081700Z 09013KT 050V110 CAVOK 29/18 A3002 NOSIG=
202008081800 METAR MROC 081800Z 09016KT 9999 FEW045 SCT140 29/18 A3001 NOSIG=
202008081900 METAR MROC 081900Z 08018KT 050V110 9999 SCT045 BKN140 29/18 A2999 NOSIG=
202008082000 METAR MROC 082000Z 09017KT 060V120 9999 BKN045 26/18 A3001=
202008082100 METAR MROC 082100Z 11017KT 9999 -RA FEW060 BKN080 23/17 A2997 NOSIG=
202008082200 METAR MROC 082200Z 09010KT 070V130 9999 -RA NSC 22/17 A2994 NOSIG=
202008082300 METAR MROC 082300Z 07013KT CAVOK 23/16 A2997 NOSIG=
202008090000 METAR MROC 090000Z 06008KT 9999 -DZ NSC 22/18 A3001 NOSIG=
202008090100 METAR MROC 090100Z 10007KT 060V130 CAVOK 23/18 A3002 NOSIG=
202008090200 METAR MROC 090200Z 02006KT 320V070 CAVOK 23/17 A3002 NOSIG=
202008090300 METAR MROC 090300Z 05007KT 010V140 CAVOK 23/18 A3002 NOSIG=
202008090400 METAR MROC 090400Z 10011KT 070V130 CAVOK 23/18 A3001 NOSIG=
202008090500 METAR MROC 090500Z 13011G21KT 090V160 CAVOK 23/18 A3000 NOSIG=
202008090600 METAR MROC 090600Z 10009KT 060V140 CAVOK 23/17 A2999 NOSIG=
202008090700 METAR MROC 090700Z 12011KT CAVOK 23/16 A2998 NOSIG=
202008090800 METAR MROC 090800Z 11015KT CAVOK 23/17 A2997 NOSIG=
202008090900 METAR MROC 090900Z 12010KT 080V150 CAVOK 22/17 A2998 NOSIG=
202008091000 METAR MROC 091000Z 06009KT CAVOK 21/17 A2997 NOSIG=
202008091100 METAR MROC 091100Z 11012KT 9999 FEW040 22/17 A2998 NOSIG=
202008091200 METAR MROC 091200Z 10010KT 9999 FEW040 SCT140 22/17 A2999 NOSIG=
202008091300 METAR MROC 091300Z 11013KT 9999 FEW045 SCT120 OVC250 23/18 A3003 NOSIG=
202008091400 METAR MROC 091400Z 11011KT 080V140 9999 FEW045 SCT120 OVC230 24/18 A3000 NOSIG=
202008091500 METAR MROC 091500Z 12013KT 090V160 9999 FEW045 SCT120 OVC250 25/19 A3000 NOSIG=
202008091600 METAR MROC 091600Z 13012G22KT 100V170 9999 FEW045 BKN120 26/18 A3002 NOSIG=
202008091700 METAR MROC 091700Z 09010KT 9999 FEW040 BKN130 27/17 A3004 NOSIG=
202008091800 METAR MROC 091800Z 10012KT CAVOK 27/17 A3001 NOSIG=
202008091900 METAR MROC 091900Z 11010KT CAVOK 27/18 A2998 NOSIG=
202008092000 METAR MROC 092000Z COR 11005KT 070V160 CAVOK 28/18 A2996 TEMPO 24007KT=
202008092100 METAR MROC 092100Z 24007KT 210V270 9999 FEW020 SCT035 BKN150 26/22 A2996 NOSIG=
202008092200 METAR MROC 092200Z 24008KT 9999 FEW008 SCT070 BKN140 26/22 A2998 NOSIG=
202008092300 METAR MROC 092300Z 23009KT 9999 +RA FEW007 BKN140 23/21 A2999 NOSIG=
202008100000 METAR MROC 100000Z 28006KT 9999 FEW010 OVC120 22/20 A3000 RERA NOSIG=
202008100100 METAR MROC 100100Z 32007KT 9999 FEW010 OVC120 22/21 A3001 NOSIG=
202008100200 METAR MROC 100200Z 28004KT CAVOK 22/19 A3000 NOSIG=
202008100300 METAR MROC 100300Z 09004KT CAVOK 21/20 A3003 NOSIG=
202008100400 METAR MROC 100400Z 09005KT CAVOK 21/19 A3004 NOSIG=
202008100500 METAR MROC 100500Z 03005KT CAVOK 22/19 A3001 NOSIG=
202008100600 METAR MROC 100600Z 09004KT CAVOK 22/18 A2998 NOSIG=
202008100700 METAR MROC 100700Z 25007KT CAVOK 20/20 A2998 NOSIG=
202008100800 METAR MROC 100800Z 29004KT 250V320 9999 FEW045 BKN100 20/20 A2999 NOSIG=
202008100900 METAR MROC 100900Z 36005KT 9999 SCT020 BKN200 21/19 A2998 NOSIG=
202008101000 METAR MROC 101000Z 14003KT 120V180 9999 FEW040 BKN120 20/20 A2998 NOSIG=
202008101100 METAR MROC 101100Z 07007KT 9999 FEW040 BKN130 20/19 A2997 NOSIG=
202008101200 METAR MROC 101200Z 07007KT CAVOK 21/19 A2998 NOSIG=
202008101300 METAR MROC 101300Z 31003KT CAVOK 21/19 A2999 NOSIG=
202008101400 METAR MROC 101400Z 08004KT CAVOK 23/19 A3001 NOSIG=
202008101500 METAR MROC 101500Z 26003KT 230V320 CAVOK 25/19 A3000 NOSIG=
202008101600 METAR MROC 101600Z 24007KT 9999 FEW035 SCT150 BKN200 26/18 A3001 NOSIG=
202008101700 METAR MROC 101700Z 25010KT 210V270 9999 FEW035 SCT150 BKN200 26/20 A3001 NOSIG=
202008101800 METAR MROC 101800Z 24010KT 200V270 9999 FEW035 SCT060 BKN200 26/20 A2999 NOSIG=
202008101900 METAR MROC 101900Z 24008KT 9999 FEW030 SCT050 BKN200 25/21 A2997 NOSIG=
202008102000 METAR MROC 102000Z 24010KT 9999 FEW030 SCT060 BKN200 27/21 A2995 NOSIG=
202008102100 METAR MROC 102100Z 24009KT 9999 VCTS SCT025CB SCT030 BKN200 25/21 A2992 NOSIG=
202008102200 METAR MROC 102200Z 25011KT 9999 TSRA FEW010CB FEW020 BKN030 24/21 A2993 NOSIG=
202008102300 METAR MROC 102300Z 22009KT 180V240 3000 TSRA FEW006CB BKN006 21/21 A2994 NOSIG=
202008110000 METAR MROC 110000Z VRB02KT 9999 -RA VCTS FEW003 BKN010 21/21 A2997 NOSIG=
202008110100 METAR MROC 110100Z 16003KT 130V190 9999 FEW003 BKN010 21/21 A2998 NOSIG=
202008110200 METAR MROC 110200Z COR 27003KT 240V300 9000 FEW003CB OVC008 21/21 A3000 TEMPO 3000 BR=
202008110300 METAR MROC 110300Z 06006KT 9999 FEW045 BKN140 21/21 A3001 NOSIG=
202008110400 METAR MROC 110400Z 05004KT CAVOK 22/22 A3000 NOSIG=
202008110500 METAR MROC 110500Z 08006KT 050V110 CAVOK 22/20 A2999 NOSIG=
202008110600 METAR MROC 110600Z 31004KT CAVOK 21/21 A2997 NOSIG=
202008110700 METAR MROC 110700Z 07004KT CAVOK 21/21 A2995 NOSIG=
202008110800 METAR MROC 110800Z 32003KT 270V350 CAVOK 21/21 A2994 NOSIG=
202008110900 METAR MROC 110900Z VRB02KT 9999 1500W FEW005 BKN120 20/20 A2994 NOSIG=
202008111000 METAR MROC 111000Z VRB02KT CAVOK 20/20 A2993 NOSIG=
202008111100 METAR MROC 111100Z 03003KT 340V080 CAVOK 20/20 A2993 NOSIG=
202008111200 METAR MROC 111200Z 05006KT 9999 SCT045 20/19 A2995 NOSIG=
202008111300 METAR MROC 111300Z 10006KT 020V080 9999 FEW035 SCT060 BKN250 23/20 A2996 NOSIG=
202008111400 METAR MROC 111400Z 07007KT 9999 FEW035 SCT060 BKN250 24/20 A2998 NOSIG=
202008111500 METAR MROC 111500Z 10009KT 070V140 9999 SCT040 BKN200 26/20 A2997 NOSIG=
202008111600 METAR MROC 111600Z 10011KT 9999 SCT035 BKN200 27/19 A2999 NOSIG=
202008111700 METAR MROC 111700Z 11010G20KT 050V140 9999 FEW035 SCT060 BKN200 28/19 A2997 NOSIG=
202008111800 METAR MROC 111800Z 10010G20KT 070V130 9999 FEW035 SCT060 BKN200 29/19 A2996 NOSIG=
202008111900 METAR MROC 111900Z 10008KT 070V140 9999 FEW035 SCT060 BKN120 27/19 A2995 NOSIG=
202008112000 METAR MROC 112000Z 24006KT 180V310 9999 FEW020TCU SCT035 BKN060 26/21 A2993 NOSIG=
202008112100 METAR MROC 112100Z 10011G23KT 070V130 9999 FEW020 OVC200 26/19 A2991 NOSIG=
202008112200 METAR MROC 112200Z 10016G26KT 070V130 9999 FEW020 SCT140 24/18 A2991 NOSIG=
202008112300 METAR MROC 112300Z 10013KT 9999 FEW025 SCT110 24/18 A2990 NOSIG=
202008120000 METAR MROC 120000Z 11020G31KT 9999 FEW020 BKN200 23/18 A2992 NOSIG=
202008120100 METAR MROC 120100Z 10018G30KT 9999 FEW020 OVC200 23/17 A2993 NOSIG=
202008120200 METAR MROC 120200Z 11018G29KT 9999 FEW025 BKN200 23/17 A2992 NOSIG=
202008120300 METAR MROC 120300Z 11019G30KT 9999 FEW025 23/17 A2995 NOSIG=
202008120400 METAR MROC 120400Z 11015G25KT CAVOK 24/15 A2996 NOSIG=
202008120500 METAR MROC 120500Z 11011KT CAVOK 22/16 A2995 NOSIG=
202008120600 METAR MROC 120600Z 06006KT 360V110 CAVOK 22/15 A2995 NOSIG=
202008120700 METAR MROC 120700Z 11009KT CAVOK 22/16 A2993 NOSIG=
202008120800 METAR MROC 120800Z 11012KT CAVOK 26/15 A2992 NOSIG=
202008120900 METAR MROC 120900Z 11013KT CAVOK 22/16 A2991 NOSIG=
202008121000 METAR MROC 121000Z 12013KT CAVOK 22/15 A2991 NOSIG=
202008121100 METAR MROC 121100Z 13011KT 100V160 CAVOK 21/16 A2992 NOSIG=
202008121200 METAR MROC 121200Z 11012KT 080V140 CAVOK 21/15 A2993 NOSIG=
202008121300 METAR MROC 121300Z 12014KT 090V150 CAVOK 23/16 A2993 NOSIG=
202008121400 METAR MROC 121400Z 12018G29KT CAVOK 24/16 A2996 NOSIG=
202008121500 METAR MROC 121500Z 11014G24KT 080V150 CAVOK 26/15 A2997 NOSIG=
202008121600 METAR MROC 121600Z 08014KT CAVOK 27/16 A2997 NOSIG=
202008121700 METAR MROC 121700Z 09012KT 060V130 CAVOK 28/17 A2996 NOSIG=
202008121800 METAR MROC 121800Z 07017KT 050V110 CAVOK 28/18 A2992 RMK FEW050 NOSIG=
202008121900 METAR MROC 121900Z 10010KT 060V140 CAVOK 29/18 A2991 NOSIG=
202008122000 METAR MROC 122000Z 13010KT 080V160 FEW035TCU SCT045 30/18 A2988 NOSIG=
202008122100 METAR MROC 122100Z 12008KT 080V160 9999 FEW035 BKN070 28/19 A2987 NOSIG=
202008122200 METAR MROC 122200Z VRB04KT 9999 FEW020 BKN060 26/20 A2987 NOSIG=
202008122300 METAR MROC 122300Z VRB05KT 9999 FEW010 BKN050 26/19 A2989 NOSIG=
202008130000 METAR MROC 130000Z 28006KT 250V310 9999 -DZ VCFG FEW020 BKN060 24/21 A2992 NOSIG=
202008130100 METAR MROC 130100Z 28005KT 9999 BCFG FEW020 SCT050 23/23 A2994 NOSIG=
202008130200 METAR MROC 130200Z 33004G17KT 250V020 9999 FEW010 SCT070 22/22 A2995 NOSIG=
202008130300 METAR MROC 130300Z 09004KT 9999 BCFG FEW010 24/20 A2996 NOSIG=
202008130400 METAR MROC 130400Z 10007KT 070V130 9999 BCFG FEW020 23/19 A2996 NOSIG=
202008130500 METAR MROC 130500Z 26006KT 240V300 9999 BCFG FEW002 22/22 A2996 NOSIG=
202008130600 METAR MROC 130600Z 11006KT 090V150 CAVOK 22/19 A2994 NOSIG=
202008130700 METAR MROC 130700Z VRB02KT CAVOK 21/21 A2992 NOSIG=
202008130800 METAR MROC 130800Z 35003KT 320V030 CAVOK 22/21 A2991 NOSIG=
202008130900 METAR MROC 130900Z 04005KT CAVOK 22/19 A2989 NOSIG=
202008131000 METAR MROC 131000Z 06004KT CAVOK 22/18 A2988 NOSIG=
202008131100 METAR MROC 131100Z 05005KT 020V130 CAVOK 22/18 A2990 NOSIG=
202008131200 METAR MROC 131200Z 11009KT 080V140 9999 FEW040 BKN200 22/18 A2991 NOSIG=
202008131300 METAR MROC 131300Z 13006KT 100V160 9999 FEW045 SCT060 OVC120 23/19 A2993 NOSIG=
202008131400 METAR MROC 131400Z 24004KT 200V260 9999 BKN040 OVC120 22/19 A2998 NOSIG=
202008131500 METAR MROC 131500Z 26005KT 210V300 CAVOK 23/20 A2998 NOSIG=
202008131600 METAR MROC 131600Z VRB02KT 9999 FEW035 BKN090 OVC200 24/20 A2999 NOSIG=
202008131700 METAR MROC 131700Z 09011KT 9999 -RA BKN040 OVC170 25/19 A2998 NOSIG=
202008131800 METAR MROC 131800Z 10013KT 9999 -RA NSC 23/18 A2993 NOSIG=
202008131900 METAR MROC 131900Z 12010KT 080V150 CAVOK 24/18 A2991 NOSIG=
202008132000 METAR MROC 132000Z 12011KT CAVOK 25/17 A2998 NOSIG=
202008132100 METAR MROC 132100Z 09009KT 070V130 CAVOK 27/19 A2988 NOSIG=
202008132200 METAR MROC 132200Z 10010KT CAVOK 26/18 A2988 NOSIG=
202008132300 METAR MROC 132300Z 08010KT CAVOK 26/17 A2998 NOSIG=
202008140000 METAR MROC 140000Z 09006KT 9999 FEW045 SCT120 25/17 A2991 NOSIG=
202008140100 METAR MROC 140100Z 09004KT 040V120 9999 SCT045 24/19 A2995 NOSIG=
202008140200 METAR MROC 140200Z 09003KT 9999 SCT045 23/19 A2995 NOSIG=
202008140300 METAR MROC 140300Z 24005KT 9999 VCTS FG FEW002 SCT040 22/22 A2998 TEMPO 5000 BR=
202008140400 METAR MROC 140400Z 02005KT 9999 FEW005 22/22 A2998 NOSIG=
202008140500 METAR MROC 140500Z 11002KT CAVOK 21/21 A2998 NOSIG=
202008140600 METAR MROC 140600Z 04007KT CAVOK 21/19 A2994 NOSIG=
202008140700 METAR MROC 140700Z 08007KT CAVOK 22/18 A2994 NOSIG=
202008140800 METAR MROC 140800Z 05006KT CAVOK 21/18 A2988 NOSIG=
202008140900 METAR MROC 140900Z 04007KT CAVOK 21/18 A2988 NOSIG=
202008141000 METAR MROC 141000Z 07007KT CAVOK 21/18 A2987 NOSIG=
202008141100 METAR MROC 141100Z 10008KT 060V130 CAVOK 22/18 A2987 NOSIG=
202008141200 METAR MROC 141200Z 22004KT CAVOK 22/19 A2989 NOSIG=
202008141300 METAR MROC 141300Z 19003KT 150V210 CAVOK 21/19 A2991 NOSIG=
202008141400 METAR MROC 141400Z 04005KT 340V120 CAVOK 25/19 A2993 NOSIG=
202008141500 METAR MROC 141500Z 10005KT 060V140 CAVOK 25/19 A2995 BECMG 25007KT=
202008141600 METAR MROC 141600Z VRB01KT CAVOK 26/19 A2995 NOSIG=
202008141700 METAR MROC 141700Z VRB06KT 9999 SCT030 BKN120 25/21 A2995 NOSIG=
202008141800 METAR MROC 141800Z 26008KT 230V320 9999 SCT030TCU FEW030 BKN200 26/21 A2993 NOSIG=
202008141900 METAR MROC 141900Z COR 26007KT 220V290 9999 VCSH FEW020 SCT030TCU BKN100 26/21 A2989 NOSIG=
202008142000 METAR MROC 142000Z 26006KT 170V340 5000 TSRA SCT020CB OVC030 26/21 A2990 NOSIG=
202008142100 METAR MROC 142100Z 30005KT 250V340 8000 -RA FEW005 SCT040 OVC100 22/22 A2989 RETSRA NOSIG=
202008142200 METAR MROC 142200Z 30005KT 9999 -RA SCT005 BKN010 22/22 A2988 NOSIG=
202008142300 METAR MROC 142300Z 26005KT 230V300 9999 -RA FEW005 SCT010 OVC100 22/22 A2989 NOSIG=
202008150000 METAR MROC 150000Z 29004KT 250V350 9999 FEW005 SCT025 OVC100 21/21 A2992 NOSIG=
202008150100 METAR MROC 150100Z 23004KT 190V290 9999 -RA SCT004 BKN010 OVC100 21/21 A2995 NOSIG=
202008150200 METAR MROC 150200Z 20008KT 160V240 5000 RA SCT005 BKN015 OVC100 20/20 A2999 NOSIG=
202008150300 METAR MROC 150300Z 33007KT 9999 -RA SCT010 OVC100 20/20 A3001 NOSIG=
202008150400 METAR MROC 150400Z VRB02KT 9999 FEW015 BKN180 20/20 A3002 NOSIG=
202008150500 METAR MROC 150500Z 11003KT 9999 FEW010 BKN180 19/19 A2998 NOSIG=
202008150600 METAR MROC 150600Z 09005KT CAVOK 20/20 A2997 NOSIG=
202008150700 METAR MROC 150700Z 06004KT 9999 -RA NSC 20/20 A2995 NOSIG=
202008150800 METAR MROC 150800Z 03005KT 9999 -RA NSC 20/20 A2994 NOSIG=
202008150900 METAR MROC 150900Z 06006KT 9999 -RA NSC 20/20 A2992 NOSIG=
202008151000 METAR MROC 151000Z 06005KT 9999 -RA NSC 20/19 A2990 NOSIG=
202008151100 METAR MROC 151100Z 04007KT 9999 -RA NSC 20/20 A2991 NOSIG=
202008151200 METAR MROC 151200Z VRB01KT 9999 FEW001 OVC090 20/20 A2992 NOSIG=
202008151300 METAR MROC 151300Z 25004KT CAVOK 20/20 A2996 NOSIG=
202008151400 METAR MROC 151400Z 32003KT CAVOK 20/20 A3000 NOSIG=
202008151500 METAR MROC 151500Z 20003KT 170V230 CAVOK 21/19 A3001 NOSIG=
202008151600 METAR MROC 151600Z 25004KT 210V300 9999 FEW025 SCT120 BKN200 23/19 A3000 NOSIG=
202008151700 METAR MROC 151700Z 24004KT 200V340 9999 FEW035 BKN140 24/19 A2999 NOSIG=
202008151800 METAR MROC 151800Z 15005KT 100V190 CAVOK 26/19 A2997 NOSIG=
202008151900 METAR MROC 151900Z 25004KT 210V300 9999 BKN040 25/19 A2995 NOSIG=
202008152000 METAR MROC 152000Z 10008KT 060V140 9999 FEW010 SCT030 BKN160 25/18 A2993 NOSIG=
202008152100 METAR MROC 152100Z 10010KT 070V130 9999 FEW015 SCT035 BKN200 26/18 A2992 NOSIG=
202008152200 METAR MROC 152200Z 12010KT 060V150 9999 FEW015 BKN035 24/18 BECMG 24005KT=
202008152300 METAR MROC 152300Z 24005KT 9999 FEW015 SCT035 BKN060 23/18 A2996 BECMG 5000 BR=
202008160000 METAR MROC 160000Z 11006KT 080V170 9999 FEW010 BKN035 22/19 A2998 NOSIG=
202008160100 METAR MROC 160100Z 13004KT 100V160 9999 -RA FEW010 BKN035 21/19 A3001 NOSIG=
202008160200 METAR MROC 160200Z 08006KT 9999 -RA FEW020 BKN100 20/20 A3002 NOSIG=
202008160300 METAR MROC 160300Z 05012KT 010V080 CAVOK 21/19 A3002 NOSIG=
202008160400 METAR MROC 160400Z 14004KT 090V180 CAVOK 21/19 A3002 NOSIG=
202008160500 METAR MROC 160500Z 07004KT 030V100 CAVOK 20/19 A3002 NOSIG=
202008160600 METAR MROC 160600Z VRB02KT CAVOK 20/19 A3000 NOSIG=
202008160700 METAR MROC 160700Z 11003KT 090V150 CAVOK 20/19 A3000 NOSIG=
202008160800 METAR MROC 160800Z VRB02KT CAVOK 20/20 A2999 NOSIG=
202008160900 METAR MROC 160900Z 07004KT CAVOK 20/19 A2999 NOSIG=
202008161000 METAR MROC 161000Z 07008KT CAVOK 21/18 A2998 NOSIG=
202008161100 METAR MROC 161100Z 07007KT 050V110 CAVOK 21/18 A2998 NOSIG=
202008161200 METAR MROC 161200Z 10009KT CAVOK 21/18 A2998 NOSIG=
202008161300 METAR MROC 161300Z 11010KT 080V140 CAVOK 22/18 A3001 NOSIG=
202008161400 METAR MROC 161400Z 10008KT 070V130 CAVOK 23/18 A3001 NOSIG=
202008161500 METAR MROC 161500Z 11010KT 090V150 CAVOK 24/18 A3001 NOSIG=
202008161600 METAR MROC 161600Z 11014KT 9999 FEW035 BKN150 26/18 A3002 NOSIG=
202008161700 METAR MROC 161700Z 11011KT 080V140 9999 FEW035 BKN100 28/18 A3001 NOSIG=
202008161800 METAR MROC 161800Z 11011KT 9999 FEW030 OVC150 27/18 A2999 NOSIG=
202008161900 METAR MROC 161900Z 13009KT 090V160 9999 FEW030 BKN150 27/19 A2998 NOSIG=
202008162000 METAR MROC 162000Z 14008KT 090V180 9999 FEW020 SCT050 BKN150 26/18 A2997 NOSIG=
202008162100 METAR MROC 162100Z 24008KT 9999 FEW035 SCT050 BKN120 24/22 A2996 NOSIG=
202008162200 METAR MROC 162200Z 16005KT 050V220 9999 FEW010 SCT035 BKN120 25/18 A2996 NOSIG=
202008162300 METAR MROC 162300Z 26005KT 210V290 9999 FEW005 SCT020 BKN040 22/22 A2999 NOSIG=
202008170000 METAR MROC 170000Z 20005KT 9999 FEW030 SCT045 BKN120 21/21 A3000 NOSIG=
202008170100 METAR MROC 170100Z VRB02KT 9999 SCT010 BKN120 21/21 A3001 NOSIG=
202008170200 METAR MROC 170200Z 27003KT 240V300 9999 FEW010 BKN120 20/20 A3002 NOSIG=
202008170300 METAR MROC 170300Z 09003KT 050V110 CAVOK 20/20 A3001 NOSIG=
202008170400 METAR MROC 170400Z 02005KT 360V060 CAVOK 21/21 A3003 NOSIG=
202008170500 METAR MROC 170500Z 09010KT 9999 FEW003 22/18 A3003 NOSIG=
202008170600 METAR MROC 170600Z 07007KT CAVOK 22/17 A3002 NOSIG=
202008170700 METAR MROC 170700Z 09004KT CAVOK 22/16 A3001 NOSIG=
202008170800 METAR MROC 170800Z 08004KT 9999 FEW040 BKN150 20/18 A2999 NOSIG=
202008170900 METAR MROC 170900Z 06008KT CAVOK 21/17 A2998 NOSIG=
202008171000 METAR MROC 171000Z 36005KT 330V050 CAVOK 21/17 A2998 NOSIG=
202008171100 METAR MROC 171100Z 24004KT 170V260 CAVOK 21/17 A3001 NOSIG=
202008171200 METAR MROC 171200Z 07004KT 040V100 CAVOK 21/17 A3002 NOSIG=
202008171300 METAR MROC 171300Z 11009KT 060V140 CAVOK 23/17 A3003 NOSIG=
202008171400 METAR MROC 171400Z 10007KT 070V150 CAVOK 25/16 A3004 NOSIG=
202008171500 METAR MROC 171500Z 10009KT 060V150 CAVOK 27/17 A3006 NOSIG=
202008171600 METAR MROC 171600Z 11009KT 080V150 9999 FEW020 BKN200 28/16 A3006 NOSIG=
202008171700 METAR MROC 171700Z 12007KT 080V160 9999 FEW015 BKN200 29/17 A3004 NOSIG=
202008171800 METAR MROC 171800Z 23007KT 180V260 9999 FEW015 BKN200 27/21 A3002 NOSIG=
202008171900 METAR MROC 171900Z 25014KT 9999 BKN030 25/22 A3000 NOSIG=
202008172000 METAR MROC 172000Z 22012KT 9999 FEW015TCU SCT020 SCT150 25/21 A2998 NOSIG=
202008172100 METAR MROC 172100Z 25008KT 7000 2000SW -TSRA FEW010CB SCT015 BKN025 22/22 A3000 NOSIG=
202008172200 METAR MROC 172200Z 32005KT 280V010 5000 2000SW -RA SCT010 BKN030 OVC100 20/20 A3002 NOSIG=
202008172300 METAR MROC 172300Z 09004KT 9999 FEW008 BKN035 OVC100 21/21 A3002 NOSIG=
202008180000 METAR MROC 180000Z 05006KT 010V070 9999 FEW015 BKN100 OVC200 22/22 A3002 NOSIG=
202008180100 METAR MROC 180100Z 09006KT CAVOK 21/21 A3001 NOSIG=
202008180200 METAR MROC 180200Z 10005KT CAVOK 21/20 A3002 NOSIG=
202008180300 METAR MROC 180300Z VRB02KT FEW001 20/20 A3003 NOSIG=
202008180400 METAR MROC 180400Z VRB02KT 9999 SCT001 20/20 A3004 NOSIG=
202008180500 METAR MROC 180500Z 03003KT 360V060 CAVOK 19/19 A3005 NOSIG=
202008180600 METAR MROC 180600Z 36003KT CAVOK 19/19 A3005 NOSIG=
202008180700 METAR MROC 180700Z 07003KT 9999 BKN025 19/19 A3004 NOSIG=
202008180800 METAR MROC 180800Z 06005KT CAVOK 19/19 A3001 NOSIG=
202008180900 METAR MROC 180900Z 12003KT CAVOK 19/19 A3001 NOSIG=
202008181000 METAR MROC 181000Z 08005KT CAVOK 19/18 A3000 NOSIG=
202008181100 METAR MROC 181100Z 08004KT 040V100 CAVOK 18/18 A3001 NOSIG=
202008181200 METAR MROC 181200Z 10005KT CAVOK 19/19 A3002 NOSIG=
202008181300 METAR MROC 181300Z 09007KT CAVOK 21/19 A3003 NOSIG=
202008181400 METAR MROC 181400Z 07003KT 030V120 CAVOK 25/19 A3002 BECMG 23006KT=
202008181500 METAR MROC 181500Z 11011G21KT 070V140 9999 FEW045 SCT250 25/18 A3002 NOSIG=
202008181600 METAR MROC 181600Z 10011G21KT 070V130 9999 FEW045 BKN250 26/19 A3003 NOSIG=
202008181700 METAR MROC 181700Z 10013KT 070V130 28/19 A3002 NOSIG=
202008181800 METAR MROC 181800Z 10010KT 070V130 9999 FEW040 BKN230 28/18 A3001 NOSIG=
202008181900 METAR MROC 181900Z 12008KT 090V150 9999 FEW040 BKN230 28/18 A2999 NOSIG=
202008182000 METAR MROC 182000Z 25009KT 9999 SCT040 BKN200 24/22 A2998 NOSIG=
202008182100 METAR MROC 182100Z 26008KT 9999 SCT003 BKN015 OVC080 23/23 A2998 NOSIG=
202008182200 METAR MROC 182200Z 25008KT 9999 VCTS SCT005CB SCT010 BKN030 22/22 A2998 NOSIG=
202008182230 METAR MROC 182230Z 30005KT 9999 VCTS FEW008 SCT015 BKN060 23/22 A3000 NOSIG=
202008182300 METAR MROC 182300Z 30005KT 9999 VCTS FEW008 SCT015 BKN060 23/22 A3000 NOSIG=
202008190000 METAR MROC 190000Z 30004KT 270V360 9999 BKN010 OVC180 22/22 A3000 NOSIG=
202008190100 METAR MROC 190100Z 11002KT 9999 FEW015 SCT100 22/22 A3000 NOSIG=
202008190200 METAR MROC 190200Z 34003KT CAVOK 22/22 A3001 NOSIG=
202008190300 METAR MROC 190300Z 06003KT 010V090 9999 FEW045 SCT100 22/21 A3004 NOSIG=
202008190400 METAR MROC 190400Z 05006KT CAVOK 23/19 A3006 NOSIG=
202008190500 METAR MROC 190500Z 29009KT 260V330 9999 FEW005 BKN100 21/21 A3007 NOSIG=
202008190600 METAR MROC 190600Z 33004KT CAVOK 21/21 A3005 NOSIG=
202008190700 METAR MROC 190700Z 01004KT 9999 FEW005 21/21 A3004 NOSIG=
202008190800 METAR MROC 190800Z 24002KT 9999 SCT005 21/21 A3002 NOSIG=
202008190900 METAR MROC 190900Z 24002KT 9999 SCT010 21/21 A3001 NOSIG=
202008191000 METAR MROC 191000Z COR 09002KT 9999 BKN015 21/21 A3000 NOSIG=
202008191100 METAR MROC 191100Z 09007KT 9999 SCT030 21/20 A3000 NOSIG=
202008191200 METAR MROC 191200Z 08007KT CAVOK 21/18 A2999 NOSIG=
202008191300 METAR MROC 191300Z 09006KT 050V130 CAVOK 23/17 A3002 NOSIG=
202008191400 METAR MROC 191400Z VRB02KT CAVOK 24/17 A3004 BECMG 24006KT NOSIG=
202008191500 METAR MROC 191500Z 24005KT 190V280 CAVOK 24/19 A3003 NOSIG=
202008191600 METAR MROC 191600Z 25005KT 210V310 CAVOK 26/20 A3001 NOSIG=
202008191700 METAR MROC 191700Z 24011KT CAVOK 26/21 A3001 NOSIG=
202008191800 METAR MROC 191800Z 26013KT 220V280 9999 SCT025 25/21 A3000 NOSIG=
202008191900 METAR MROC 191900Z 24012KT 9999 BKN020 25/22 A2998 NOSIG=
202008192000 METAR MROC 192000Z 24013KT 9999 -RA VCTS SCT011 BKN035 24/21 A2997 TEMPO TSRA=
202008192100 METAR MROC 192100Z 23008KT 9999 4500SW TSRA SCT010CB BKN030 22/22 A2996 NOSIG=
202008192200 METAR MROC 192200Z 22007KT 190V260 9999 RA FEW010 OVC030 22/22 A2997 NOSIG=
202008192300 METAR MROC 192300Z 28008KT 6000 -RA BCFG BKN010 21/21 A2998 TEMPO RA=
202008200000 METAR MROC 200000Z COR 23004KT 6000 R07/P2000N -TSRA BCFG FEW005 SCT020CB OVC030 21/21 A3001 NOSIG=
202008200100 METAR MROC 200100Z VRB02KT 6000 RA SCT020 OVC040 20/20 A3003 NOSIG=
202008200200 METAR MROC 200200Z 24003KT 9000 -RA SCT004 OVC012 20/20 A3006 NOSIG=
202008200300 METAR MROC 200300Z VRB02KT 9999 VCFG SCT004 BKN010 20/20 A3008 RERA NOSIG=
202008200400 METAR MROC 200400Z 08007KT 9999 FEW015 BKN100 21/21 A3007 NOSIG=
202008200500 METAR MROC 200500Z 09010KT CAVOK 21/21 A3005 NOSIG=
202008200600 METAR MROC 200600Z 08008KT CAVOK 21/20 A3002 NOSIG=
202008200700 METAR MROC 200700Z 09009KT CAVOK 21/19 A2997 NOSIG=
202008200800 METAR MROC 200800Z 25010KT 0500 R07/0650U FU VV002 20/20 A3001 NOSIG=
202008200900 METAR MROC 200900Z 29004KT 250V320 5000 +DZ BKN002 OVC010 19/19 A3002 NOSIG=
202008201000 METAR MROC 201000Z 15003KT 2000 -DZ SCT005 BKN010 19/19 A3000 NOSIG=
202008201100 METAR MROC 201100Z 12004KT 9999 FEW010 SCT100 19/19 A2999 NOSIG=
202008201200 METAR MROC 201200Z 08004KT CAVOK 19/19 A3001 NOSIG=
202008201300 METAR MROC 201300Z VRB02KT CAVOK 22/20 A3002 NOSIG=
202008201400 METAR MROC 201400Z 27003KT 9999 FEW035 SCT180 BKN250 23/21 A3005 NOSIG=
202008201500 METAR MROC 201500Z 24005KT 200V290 9999 FEW030 BKN120 23/20 A3005 NOSIG=
202008201600 METAR MROC 201600Z 27006KT 210V300 9999 FEW030 SCT080 BKN120 25/19 A3006 NOSIG=
202008201700 METAR MROC 201700Z 25013KT 200V280 9999 FEW030 SCT030 BKN080 24/21 A3005 NOSIG=
202008201800 METAR MROC 201800Z 23007KT 190V260 9999 -RA FEW030 SCT060 BKN120 24/21 A3003 NOSIG=
202008201900 METAR MROC 201900Z 24008KT 9999 FEW030 SCT060 BKN120 24/20 A3000 NOSIG=
202008202000 METAR MROC 202000Z 26007KT 210V300 9999 FEW030 SCT060 BKN120 25/19 A2998 NOSIG=
202008202100 METAR MROC 202100Z 25009KT 9999 SCT035CB FEW040 BKN140 25/20 A2997 NOSIG=
202008202200 METAR MROC 202200Z 24008KT 9999 SCT010 SCT030 24/20 A2997 NOSIG=
202008202300 METAR MROC 202300Z 26005KT 230V290 9999 4500SW R07/2000N BCFG FEW005 SCT030 BKN120 21/21 A3000 TEMPO 5000 BR=
202008210000 METAR MROC 210000Z 24002KT 9999 VCFG SCT003 OVC040 21/21 A3001 NOSIG=
202008210100 METAR MROC 210100Z 25005KT 1000 R07/0900U -RA BR SCT001 BKN004 21/21 A3002 NOSIG=
202008210200 METAR MROC 210200Z VRB02KT 9999 2000SW -RA BCFG FEW004 SCT010 BKN035 21/21 A3001 NOSIG=
202008210300 METAR MROC 210300Z VRB01KT 9999 BCFG FEW002 BKN005 21/21 A2999 NOSIG=
202008210336 METAR MROC 210336Z 21005KT 180V250 0500 FG VV/// 21/21 A3002 NOSIG=
202008210400 METAR MROC 210400Z 23006KT 1000 BR VV002 21/21 A3004 NOSIG=
202008210417 METAR MROC 210417Z 22005KT 9999 FEW005 BKN025 21/21 A3006 TEMPO 3000 BR=
202008210500 METAR MROC 210500Z 22003KT 150V260 9999 -RA FEW005 BKN015 20/20 A3003 NOSIG=
202008210600 METAR MROC 210600Z 28005KT 9999 SCT005 BKN015 20/20 A3004 NOSIG=
202008210700 METAR MROC 210700Z VRB02KT 8000 -RA SCT005 BKN015 20/20 A3002 NOSIG=
202008210800 METAR MROC 210800Z 24003KT 210V270 5000 -RA BR SCT005 BKN010 20/20 A3002 NOSIG=
202008210900 METAR MROC 210900Z 11002KT 9999 -RA SCT025 OVC100 20/20 A3000 NOSIG=
202008211000 METAR MROC 211000Z 10002KT 9000 -RA SCT005 BKN025 20/20 A3000 NOSIG=
202008211100 METAR MROC 211100Z VRB02KT 9999 -DZ FEW010 OVC040 20/20 A3000 NOSIG=
202008211200 METAR MROC 211200Z VRB02KT 9999 SCT020 OVC060 20/20 A3001 NOSIG=
202008211300 METAR MROC 211300Z 01003KT 340V040 5000 1000SW -DZ BR OVC015 21/21 A3004 NOSIG=
202008211400 METAR MROC 211400Z 20003KT 9999 FEW015 SCT180 23/20 A3004 NOSIG=
202008211500 METAR MROC 211500Z 23005KT 200V260 9999 SCT025 23/20 A3005 NOSIG=
202008211600 METAR MROC 211600Z 27006KT 220V300 9999 SCT025 25/21 A3005 NOSIG=
202008211700 METAR MROC 211700Z 24011KT 210V290 9999 SCT025 26/21 A3003 NOSIG=
202008211800 METAR MROC 211800Z 23010KT 200V260 9999 SCT025 BKN250 25/22 A3001 NOSIG=
202008211900 METAR MROC 211900Z 24010KT 200V280 9999 SCT025 BKN250 25/21 A2998 NOSIG=
202008212000 METAR MROC 212000Z 25013KT 9999 FEW005 BKN010 23/21 A2997 NOSIG=
202008212100 METAR MROC 212100Z 25012KT 3000 -DZ BR SCT002 OVC010 22/22 A2996 NOSIG=
202008212200 METAR MROC 212200Z 25005KT 1500 -RA BR SCT002 OVC025 21/21 A2997 NOSIG=
202008212300 METAR MROC 212300Z 27008KT 1500 -RA BR SCT002 OVC015 20/20 A3001 NOSIG=
202008220000 METAR MROC 220000Z 33003KT 300V010 5000 -RA BR FEW010 OVC030 20/20 A3003 NOSIG=
202008220100 METAR MROC 220100Z 18005KT 6000 RA SCT010 OVC030 20/20 A3007 NOSIG=
202008220200 METAR MROC 220200Z 08006KT 8000 RA FEW010 SCT030 OVC050 20/20 A3007 NOSIG=
202008220300 METAR MROC 220300Z 08004KT 9000 -RA SCT045 OVC100 19/19 A3007 NOSIG=
202008220400 METAR MROC 220400Z 09005KT CAVOK 20/20 A3007 NOSIG=
202008220500 METAR MROC 220500Z 10003KT 070V130 CAVOK 20/19 A3006 NOSIG=
202008220600 METAR MROC 220600Z 24002KT 9999 4500S BCFG FEW001 SCT060 BKN100 19/19 A3005 NOSIG=
202008220700 METAR MROC 220700Z 27003KT CAVOK 19/19 A3005 NOSIG=
202008220800 METAR MROC NIL=
202008220900 METAR MROC 220900Z 10004KT 9999 BKN020 19/19 A3001 NOSIG=
202008221000 METAR MROC 221000Z 09009KT CAVOK 19/19 A2999 NOSIG=
202008221100 METAR MROC 221100Z 08011KT CAVOK 20/19 A2997 NOSIG=
202008221200 METAR MROC 221200Z 08010KT CAVOK 20/18 A2997 NOSIG=
202008221300 METAR MROC 221300Z 06005KT CAVOK 22/18 A2999 NOSIG=
202008221400 METAR MROC 221400Z 12004KT CAVOK 23/19 A3000 NOSIG=
202008221500 METAR MROC 221500Z 25005KT 170V290 CAVOK 25/20 A3001 NOSIG=
202008221600 METAR MROC 221600Z 24012KT 9999 FEW045 BKN200 24/20 A3003 NOSIG=
202008221700 METAR MROC 221700Z 26010KT 220V280 9999 FEW015 SCT035 BKN070 24/20 A3005 NOSIG=
202008221800 METAR MROC 221800Z 33005KT 250V360 9999 SCT035 BKN080 23/20 A3003 NOSIG=
202008221900 METAR MROC 221900Z 24006KT 210V290 9999 SCT035 BKN090 24/20 A3001 NOSIG=
202008222000 METAR MROC 222000Z 26007KT 220V300 9999 SCT020 OVC090 24/20 A3000 NOSIG=
202008222100 METAR MROC 222100Z 24006KT 9999 FEW020 BKN100 24/20 A2998 NOSIG=
202008222200 METAR MROC 222200Z 25007KT 9999 FEW020 BKN100 23/21 A2997 NOSIG=
202008222300 METAR MROC 222300Z 25007KT 9999 FEW010 BKN100 22/21 A2999 NOSIG=
202008230000 METAR MROC 230000Z 24005KT 9999 BKN010 22/22 A3002 NOSIG=
202008230100 METAR MROC 230100Z 26005KT 9999 SCT003 BKN020 21/21 A3003 NOSIG=
202008230200 METAR MROC 230200Z 24003KT 9999 SCT003 OVC010 21/21 A3004 NOSIG=
202008230300 METAR MROC 230300Z 25004KT 9999 SCT002 OVC015 21/21 A3003 NOSIG=
202008230400 METAR MROC 230400Z VRB02KT 5000 2000SW BR SCT002 BKN015 21/21 A3003 NOSIG=
202008230500 METAR MROC 230500Z VRB02KT 0500 FG OVC001 21/21 A3002 NOSIG=
202008230600 METAR MROC 230600Z 16003KT 130V200 0500 FG VV/// 21/21 A3001 NOSIG=
202008230700 METAR MROC 230700Z VRB02KT 9999 BCFG FEW005 20/20 A2999 NOSIG=
202008230800 METAR MROC 230800Z 32005KT 9999 BCFG SCT005 20/20 A2997 NOSIG=
202008230900 METAR MROC 230900Z 23004KT 0500 R07/1200U FG OVC002 20/20 A2998 NOSIG=
202008231000 METAR MROC 231000Z 28003KT 1500 BR SCT002 20/20 A3000 NOSIG=
202008231100 METAR MROC 231100Z 32003KT 1500 BR SCT002 FEW005 20/20 A3000 NOSIG=
202008231200 METAR MROC 231200Z 00000KT 5000 1000SW BR FEW002 OVC005 20/20 A3001 NOSIG=
202008231300 METAR MROC 231300Z VRB02KT 6000 BR SCT002 OVC005 20/20 A3002 NOSIG=
202008231400 METAR MROC 231400Z 08004KT 060V120 8000 SCT006 21/21 A3002 NOSIG=
202008231500 METAR MROC 231500Z 30004KT 260V360 9999 FEW010 SCT060 24/20 A3002 NOSIG=
202008231600 METAR MROC 231600Z 25008KT 220V280 9999 SCT025 24/21 A3001 NOSIG=
202008231700 METAR MROC 231700Z 24009KT 210V270 9999 SCT035 BKN050 23/21 A3001 NOSIG=
202008231800 METAR MROC 231800Z 26011KT 9999 BKN007 OVC010 22/22 A3001 NOSIG=
202008231900 METAR MROC 231900Z 26010KT 5000 OVC009 21/21 A3000 NOSIG=
202008232000 METAR MROC 232000Z 25008KT 8000 OVC005 21/21 A2997 NOSIG=
202008232100 METAR MROC 232100Z 25007KT 8000 -RA VCTS SCT004 BKN010 21/21 A2997 TEMPO -TSRA FEW010CB=
202008232200 METAR MROC 232200Z 25008KT 1000 -RA BR SCT002 OVC010 20/20 A2997 NOSIG=
202008232300 METAR MROC 232300Z 22005KT 180V250 1200 BR SCT001 OVC008 20/20 A2998 NOSIG=
202008240000 METAR MROC 240000Z VRB02KT 8000 VCFG SCT003 OVC010 20/20 A2999 TEMPO 3000 BR=
202008240100 METAR MROC 240100Z 24008KT 210V270 5000 BR SCT002 OVC008 20/20 A3000 NOSIG=
202008240200 METAR MROC 240200Z 22004KT 200V260 1200 FG VV002 20/20 A3001 NOSIG=
202008240300 METAR MROC 240300Z 24005KT 210V270 1200 BR VV003 20/20 A3004 NOSIG=
202008240400 METAR MROC 240400Z 22005KT 190V250 0300 FG FEW001 OVC005 20/20 A3004 NOSIG=
202008240500 METAR MROC 240500Z 23005KT 190V250 0300 FG VV005 20/20 A3004 NOSIG=
202008240600 METAR MROC 240600Z 22003KT 0300 FG VV002 20/20 A3002 NOSIG=
202008240700 METAR MROC 240700Z 23003KT 190V260 0300 -DZ FG VV002 20/20 A3001 NOSIG=
202008240800 METAR MROC 240800Z 23002KT 0300 FG VV002 20/20 A2999 NOSIG=
202008240900 METAR MROC 240900Z 23003KT 200V270 0300 FG VV002 20/20 A2998 NOSIG=
202008241000 METAR MROC 241000Z 25002KT 0300 FG VV002 20/20 A2999 NOSIG=
202008241100 METAR MROC 241100Z 23005KT 5000 BR OVC015 20/20 A3000 NOSIG=
202008241200 METAR MROC 241200Z 26002KT 1000 FG OVC002 20/20 A3001 NOSIG=
202008241300 METAR MROC 241300Z VRB02KT 9999 4500S BCFG FEW001 20/20 A3002 NOSIG=
202008241400 METAR MROC 241400Z VRB02KT 9999 FEW007 23/20 A3003 NOSIG=
202008241500 METAR MROC 241500Z 22002KT 9999 FEW020 24/20 A3003 NOSIG=
202008241600 METAR MROC 241600Z 26006KT 200V300 9999 FEW030 25/20 A3003 NOSIG=
202008241700 METAR MROC 241700Z 24009KT 210V270 9999 FEW030 26/21 A3002 NOSIG=
202008241800 METAR MROC 241800Z 24008KT 200V280 9999 FEW035 25/21 A3000 NOSIG=
202008241900 METAR MROC 241900Z 24010KT 210V270 9999 SCT025 25/21 A2997 NOSIG=
202008242000 METAR MROC 242000Z 24009KT 210V270 9999 VCTS FEW010CB SCT020 SCT070 25/21 A2997 NOSIG=
202008242100 METAR MROC 242100Z 24009KT 210V270 9999 VCTS BKN010 23/22 A2994 TEMPO 5000 BR=
202008242200 METAR MROC 242200Z 24008KT 8000 -RA BKN006 OVC100 22/22 A2993 TEMPO 5000 BR=
202008242300 METAR MROC 242300Z 23007KT 190V260 9999 SCT004 OVC010 22/22 A2994 NOSIG=
202008250000 METAR MROC 250000Z 21007KT 5000 BR SCT003 OVC010 22/22 A2996 NOSIG=
202008250100 METAR MROC 250100Z VRB02KT 8000 -TSRA SCT010CB OVC015 21/21 A2999 NOSIG=
202008250200 METAR MROC 250200Z 35005KT 9999 SCT010 OVC100 20/20 A3001 RETSRA NOSIG=
202008250300 METAR MROC 250300Z 08003KT 9999 SCT004 OVC010 20/20 A3002 NOSIG=
202008250400 METAR MROC 250400Z 01003KT 9999 FEW015 SCT180 20/20 A3002 NOSIG=
202008250500 METAR MROC 250500Z 10004KT CAVOK 20/20 A2999 NOSIG=
202008250600 METAR MROC 250600Z 02003KT 350V050 CAVOK 20/20 A2998 NOSIG=
202008250700 METAR MROC 250700Z 14003KT 060V180 CAVOK 19/19 A2997 NOSIG=
202008250800 METAR MROC 250800Z 33003KT 9999 FEW002 SCT080 19/19 A2996 NOSIG=
202008250900 METAR MROC 250900Z VRB02KT 0450 R07/0600N FG FEW001 BKN004 19/19 A2995 NOSIG=
202008251000 METAR MROC 251000Z 10004KT 0500 R07/0550N FG VV002 19/19 A2994 NOSIG=
202008251015 METAR MROC 251015Z 09005KT 9999 FEW002 18/18 A2994 NOSIG=
202008251100 METAR MROC 251100Z 05005KT CAVOK 18/18 A2993 NOSIG=
202008251200 METAR MROC 251200Z 05005KT 9999 SCT005 OVC200 20/18 A2994 NOSIG=
202008251300 METAR MROC 251300Z 26004KT 170V230 9999 2000SW R07/0800N BCFG FEW001 SCT200 19/19 A2996 NOSIG=
202008251400 METAR MROC 251400Z 27003KT 220V320 CAVOK 21/19 A2997 NOSIG=
202008251500 METAR MROC 251500Z 24006KT 210V270 9999 VCFG FEW008 BKN100 22/21 A3000 NOSIG=
202008251600 METAR MROC 251600Z 24005KT 190V260 9999 VCFG FEW020 BKN120 23/20 A3000 NOSIG=
202008251700 METAR MROC 251700Z 25007KT 220V290 9999 VCFG SCT020 BKN100 24/21 A2998 NOSIG=
202008251800 METAR MROC 251800Z 25006KT 230V290 9999 VCFG FEW020TCU FEW020 BKN100 25/21 A2996 NOSIG=
202008251900 METAR MROC 251900Z 24006KT 210V270 9999 VCFG FEW015TCU SCT025 BKN080 25/21 A2993 NOSIG=
202008252000 METAR MROC 252000Z 24005KT 210V270 9999 VCTS FEW015CB FEW020 BKN060 25/21 A2991 NOSIG=
202008252100 METAR MROC 252100Z 24009KT 5000 2000SW BR FEW010 SCT020 BKN100 24/22 A2990 NOSIG=
202008252200 METAR MROC 252200Z 26005KT 4000 1500SW -TSRA FEW010 SCT015CB BKN035 23/22 A2991 NOSIG=
202008252300 METAR MROC 252300Z 19005KT 120V320 5000 2000SW -TSRA BR FEW010 SCT020CB BKN050 19/19 A2993 NOSIG=
202008260000 METAR MROC 260000Z VRB02KT 8000 3000SW VCTS VCFG FEW005 FEW015CB SCT025 BKN100 20/20 A2995 NOSIG=
202008260100 METAR MROC 260100Z 00000KT 9999 BCFG FEW045 SCT070 BKN100 20/20 A2996 NOSIG=
202008260200 METAR MROC 260200Z VRB02KT CAVOK 21/21 A2997 NOSIG=
202008260300 METAR MROC 260300Z VRB02KT 9999 BCFG NSC 21/21 A2999 NOSIG=
202008260400 METAR MROC 260400Z 26003KT 1000 BR SCT002 BKN007 20/20 A3001 NOSIG=
202008260500 METAR MROC 260500Z 33002KT 9999 SCT005 BKN015 20/20 A3000 NOSIG=
202008260600 METAR MROC 260600Z 27003KT 9999 SCT007 BKN017 21/21 A2999 NOSIG=
202008260700 METAR MROC 260700Z 30002KT 9999 SCT005 BKN010 20/20 A2996 NOSIG=
202008260800 METAR MROC 260800Z 25003KT 5000 BR SCT003 BKN010 20/20 A2994 NOSIG=
202008260900 METAR MROC 260900Z 27004KT 240V300 9999 BCFG SCT001 BKN010 20/20 A2994 NOSIG=
202008261000 METAR MROC 261000Z 26004KT 9999 FEW004 SCT015 BKN100 20/20 A2995 NOSIG=
202008261100 METAR MROC 261100Z 35003KT 9999 SCT004 BKN070 20/20 A2997 NOSIG=
202008261200 METAR MROC 261200Z 26006KT 8000 VCFG SCT003 OVC005 19/19 A2999 TEMPO 3000 BR=
202008261300 METAR MROC 261300Z 32005KT 300V030 9999 SCT004 OVC015 20/20 A3001 NOSIG=
202008261400 METAR MROC 261400Z 28006KT 9999 OVC010 21/21 A3002 NOSIG=
202008261500 METAR MROC 261500Z 23006KT 190V270 9999 SCT005 OVC040 21/20 A3004 NOSIG=
202008261600 METAR MROC 261600Z 27007KT 230V310 9999 BKN010 21/20 A3004 NOSIG=
202008261700 METAR MROC 261700Z 27006KT 220V310 9999 SCT005 OVC025 22/20 A3004 NOSIG=
202008261800 METAR MROC 261800Z 26004KT 210V300 9999 BKN015 22/21 A3003 NOSIG=
202008261900 METAR MROC 261900Z 25007KT 9999 BKN015 21/21 A3000 NOSIG=
202008262000 METAR MROC 262000Z 25006KT 200V290 9999 FEW005 BKN040 22/20 A2998 NOSIG=
202008262100 METAR MROC 262100Z 24008KT 190V270 9999 SCT010 BKN035 22/20 A2997 NOSIG=
202008262200 METAR MROC 262200Z 24009KT 8000 -RA VCFG FEW010 SCT020 BKN035 21/20 A2997 BECMG 5000 BR=
202008262300 METAR MROC 262300Z 27008KT 8000 3000SW -RA VCFG FEW050 SCT020 BKN080 20/20 A2999 NOSIG=
202008270000 METAR MROC 270000Z 26006KT 8000 3000SW -RA VCFG SCT005 BKN010 20/20 A3001 NOSIG=
202008270100 METAR MROC 270100Z 27006KT 9999 -RA BCFG SCT005 BKN010 20/20 A3002 NOSIG=
202008270200 METAR MROC 270200Z 27004KT 9999 -RA BCFG SCT005 BKN010 20/20 A3005 NOSIG=
202008270300 METAR MROC 270300Z 29003KT 9999 BCFG SCT005 BKN010 20/20 A3007 NOSIG=
202008270400 METAR MROC 270400Z 28004KT 9999 OVC005 20/20 A3008 NOSIG=
202008270500 METAR MROC 270500Z COR 28002KT 3000 -RA BR OVC004 20/20 A3007 NOSIG=
202008270600 METAR MROC 270600Z 33003KT 5000 BR OVC008 20/20 A3006 NOSIG=
202008270700 METAR MROC 270700Z 34003KT 5000 BR OVC010 20/20 A3006 NOSIG=
202008270800 METAR MROC 270800Z 35001KT 9999 SCT011 20/20 A3003 NOSIG=
202008270900 METAR MROC 270900Z VRB02KT 9999 FEW002 20/20 A3003 NOSIG=
202008271000 METAR MROC 271000Z 08002KT 9999 FEW005 SCT015 20/20 A3004 NOSIG=
202008271100 METAR MROC 271100Z 05003KT 9999 FEW001 20/20 A3005 NOSIG=
202008271200 METAR MROC 271200Z 08003KT CAVOK 19/19 A3006 NOSIG=
202008271300 METAR MROC 271300Z 05003KT CAVOK 20/19 A3008 NOSIG=
202008271400 METAR MROC 271400Z VRB02KT CAVOK 22/20 A3009 BECMG 25006KT=
202008271500 METAR MROC 271500Z 24004KT 200V280 CAVOK 23/20 A3009 NOSIG=
202008271600 METAR MROC 271600Z 26003KT 210V300 9999 FEW010 BKN200 24/20 A3008 NOSIG=
202008271700 METAR MROC 271700Z 22005KT 150V280 9999 FEW015 25/20 A3006 NOSIG=
202008271800 METAR MROC 271800Z 26009KT 9999 SCT020 26/21 A3004 NOSIG=
202008271900 METAR MROC 271900Z 25009KT 220V290 9999 FEW015TCU BKN025 25/21 A3002 NOSIG=
202008272000 METAR MROC 272000Z 24009KT 210V270 9999 FEW015TCU BKN040 24/21 A3001 NOSIG=
202008272100 METAR MROC 272100Z 23009KT 9999 BKN015 23/21 A3000 NOSIG=
202008272200 METAR MROC 272200Z 25010KT 7000 -RA SCT005 OVC010 21/21 A3000 NOSIG=
202008272300 METAR MROC 272300Z 25006KT 210V300 5000 -RA BKN010 20/20 A3002 NOSIG=
202008280000 METAR MROC 280000Z 28006KT 240V320 8000 SCT005 OVC010 20/20 A3004 NOSIG=
202008280100 METAR MROC 280100Z 27003KT 210V320 6000 SCT005 OVC015 20/20 A3006 NOSIG=
202008280200 METAR MROC 280200Z 33002KT 8000 SCT015 BKN030 20/20 A3008 NOSIG=
202008280300 METAR MROC 280300Z VRB02KT 9999 SCT010 BKN080 20/20 A3011 NOSIG=
202008280400 METAR MROC 280400Z 09004KT CAVOK 20/20 A3009 NOSIG=
202008280500 METAR MROC 280500Z 36003KT 330V030 CAVOK 20/20 A3008 NOSIG=
202008280600 METAR MROC 280600Z 00000KT CAVOK 19/19 A3007 NOSIG=
202008280700 METAR MROC 280700Z 08003KT 050V120 9999 BCFG NSC 19/19 A3004 NOSIG=
202008280800 METAR MROC 280800Z VRB02KT CAVOK 19/18 A3003 NOSIG=
202008280900 METAR MROC 280900Z 06005KT CAVOK 19/18 A3002 NOSIG=
202008281000 METAR MROC 281000Z VRB02KT 9999 BCFG NSC 18/18 A3004 NOSIG=
202008281100 METAR MROC 281100Z VRB02KT 0100 R07/0375N FG NSC 18/18 A3005 NOSIG=
202008281200 METAR MROC 281200Z 02004KT 9999 1000SW BCFG NSC 18/18 A3007 NOSIG=
202008281300 METAR MROC 281300Z VRB01KT CAVOK 21/18 A3008 NOSIG=
202008281400 METAR MROC 281400Z VRB02KT CAVOK 23/18 A3010 NOSIG=
202008281500 METAR MROC 281500Z 12008KT 090V170 CAVOK 26/18 A3009 NOSIG=
202008281600 METAR MROC 281600Z 11011KT 080V140 9999 FEW045 28/18 A3007 NOSIG=
202008281700 METAR MROC 281700Z 10007KT 060V160 9999 SCT045 29/18 A3008 NOSIG=
202008281800 METAR MROC 281800Z 23009KT 200V260 9999 SCT045 28/21 A3005 NOSIG=
202008281900 METAR MROC 281900Z 34007KT 310V040 9999 VCTS SCT020CB OVC110 25/21 A3004 TEMPO TSRA=
202008282000 METAR MROC 282000Z 26004KT 220V300 9999 -RA VCTS SCT030 OVC110 26/21 A3001 TEMPO TSRA=
202008282100 METAR MROC 282100Z 25009KT 9999 FEW005 BKN035 23/20 A3001 NOSIG=
202008282200 METAR MROC 282200Z 22005KT 190V260 7000 -RA FEW010 BKN035 21/21 A3003 RETSRA NOSIG=
202008282300 METAR MROC 282300Z 26006KT 9999 4500W BCFG FEW005 OVC025 21/21 A3005 NOSIG=
202008290000 METAR MROC 290000Z 34003KT 9999 FEW005 OVC080 21/21 A3005 NOSIG=
202008290100 METAR MROC 290100Z 05005KT 9999 -RA NSC 21/21 A3008 NOSIG=
202008290200 METAR MROC 290200Z 08004KT CAVOK 21/20 A3005 NOSIG=
202008290300 METAR MROC 290300Z 08007KT CAVOK 21/21 A3004 NOSIG=
202008290400 METAR MROC 290400Z 08005KT 040V120 CAVOK 21/18 A3006 NOSIG=
202008290500 METAR MROC 290500Z 25008KT CAVOK 20/20 A3009 NOSIG=
202008290600 METAR MROC 290600Z 27005KT 5000 BR OVC005 20/20 A3008 NOSIG=
202008290700 METAR MROC 290700Z VRB02KT 8000 BKN010 20/20 A3007 NOSIG=
202008290800 METAR MROC 290800Z 08005KT 9999 FEW020 BKN120 19/19 A3005 NOSIG=
202008290900 METAR MROC 290900Z 07005KT CAVOK 20/20 A3004 NOSIG=
202008291000 METAR MROC 291000Z 04006KT CAVOK 19/19 A3003 NOSIG=
202008291100 METAR MROC 291100Z 07004KT CAVOK 19/18 A3004 NOSIG=
202008291200 METAR MROC 291200Z 22002KT CAVOK 19/19 A3005 NOSIG=
202008291300 METAR MROC 291300Z VRB02KT CAVOK 22/18 A3007 NOSIG=
202008291400 METAR MROC 291400Z 13003KT 100V170 CAVOK 22/20 A3009 NOSIG=
202008291500 METAR MROC 291500Z 10003KT 040V170 CAVOK 25/18 A3008 NOSIG=
202008291600 METAR MROC 291600Z VRB05KT CAVOK 28/18 A3007 BECMG 24006KT=
202008291700 METAR MROC 291700Z 06011KT 030V090 CAVOK 29/18 A3005 NOSIG=
202008291800 METAR MROC 291800Z 11006KT 060V180 CAVOK 30/28 A3003 NOSIG=
202008291900 METAR MROC 291900Z 23009KT 9999 SCT030 26/22 A3002 NOSIG=
202008292000 METAR MROC 292000Z 25013KT 9999 SCT020 25/22 A3001 NOSIG=
202008292100 METAR MROC 292100Z 26010KT 9999 FEW015TCU SCT015 24/22 A3001 NOSIG=
202008292200 METAR MROC 292200Z 25008KT 9999 BKN010 24/22 A3001 TEMPO 3000 TSRA FEW015CB=
202008292300 METAR MROC 292300Z 24007KT 9999 VCFG FEW008 SCT012 22/21 A3003 NOSIG=
202008300000 METAR MROC 300000Z 32002KT 9999 BCFG FEW008 SCT120 BKN200 22/21 A3003 NOSIG=
202008300100 METAR MROC 300100Z 25003KT 9999 VCFG BKN007 21/21 A3006 TEMPO 5000 BR=
202008300200 METAR MROC 300200Z VRB02KT 9999 BKN003 21/21 A3006 NOSIG=
202008300300 METAR MROC 300300Z 35003KT CAVOK 22/22 A3008 NOSIG=
202008300400 METAR MROC 300400Z 25004KT 210V270 7000 SCT004 BKN080 21/21 A3009 NOSIG=
202008300500 METAR MROC 300500Z 36003KT 9999 FEW005 OVC180 21/21 A3008 NOSIG=
202008300600 METAR MROC 300600Z 09003KT 040V110 CAVOK 20/20 A3005 NOSIG=
202008300700 METAR MROC 300700Z 07005KT CAVOK 21/18 A3002 NOSIG=
202008300800 METAR MROC 300800Z 34003KT 320V020 CAVOK 21/18 A3000 NOSIG=
202008300900 METAR MROC 300900Z 05005KT 010V070 CAVOK 20/18 A3000 NOSIG=
202008301000 METAR MROC 301000Z 05006KT CAVOK 20/17 A2999 NOSIG=
202008301100 METAR MROC 301100Z 03004KT CAVOK 19/17 A3000 NOSIG=
202008301200 METAR MROC 301200Z 04007KT 360V070 9999 FEW008 20/17 A3001 NOSIG=
202008301300 METAR MROC 301300Z 01003KT 9999 BCFG NSC 22/18 A3003 NOSIG=
202008301400 METAR MROC 301400Z VRB02KT 9999 FEW040 SCT200 24/18 A3005 NOSIG=
202008301500 METAR MROC 301500Z 10014KT 9999 FEW040 SCT200 27/18 A3006 NOSIG=
202008301600 METAR MROC 301600Z 10009KT 070V140 9999 FEW045 BKN200 28/18 A3005 NOSIG=
202008301700 METAR MROC 301700Z 08010KT 050V110 9999 SCT045 BKN200 28/17 A3004 NOSIG=
202008301800 METAR MROC 301800Z 25005KT 190V330 9999 FEW025 SCT040 BKN200 25/20 A3002 NOSIG=
202008301900 METAR MROC 301900Z 21007KT 150V260 9999 VCSH FEW025TCU SCT040 BKN200 27/21 A2999 NOSIG=
202008302000 METAR MROC 302000Z 13012KT 090V180 9999 FEW025 SCT060 BKN100 25/16 A2998 NOSIG=
202008302100 METAR MROC 302100Z 10009KT 9999 FEW008 26/14 A2996 NOSIG=
202008302200 METAR MROC 302200Z VRB06KT 9999 4500SW BCFG FEW005 23/19 A2995 NOSIG=
202008302300 METAR MROC 302300Z 25005KT 9999 4500SW BCFG FEW007 21/20 A2997 NOSIG=
202008310000 METAR MROC 310000Z 24003KT 200V260 9999 2000SW BCFG SCT004 20/20 A3000 NOSIG=
202008310100 METAR MROC 310100Z VRB02KT 2000 BR OVC003 20/20 A3002 BECMG 3000 BKN010=
202008310200 METAR MROC 310200Z VRB02KT 9999 BCFG FEW006 20/20 A3003 NOSIG=
202008310300 METAR MROC 310300Z 10003KT CAVOK 20/20 A3005 NOSIG=
202008310400 METAR MROC 310400Z 04005KT CAVOK 20/19 A3005 NOSIG=
202008310500 METAR MROC 310500Z 07007KT CAVOK 19/17 A3005 NOSIG=
202008310600 METAR MROC 310600Z 08006KT CAVOK 19/16 A3004 NOSIG=
202008310700 METAR MROC 310700Z 03007KT CAVOK 19/16 A3001 NOSIG=
202008310800 METAR MROC 310800Z 08007KT CAVOK 20/16 A2999 NOSIG=
202008310900 METAR MROC 310900Z 10010KT CAVOK 20/16 A2997 NOSIG=
202008311000 METAR MROC 311000Z 08010KT CAVOK 20/16 A2999 NOSIG=
202008311100 METAR MROC 311100Z 08013KT CAVOK 20/16 A2999 NOSIG=
202008311200 METAR MROC 311200Z 12007KT CAVOK 20/15 A3003 NOSIG=
202008311300 METAR MROC 311300Z 14004KT 080V190 CAVOK 23/17 A3005 NOSIG=
202008311400 METAR MROC 311400Z 12014KT CAVOK 25/16 A3006 NOSIG=
202008311500 METAR MROC 311500Z 11013KT 080V140 CAVOK 26/16 A3006 NOSIG=
202008311600 METAR MROC 311600Z 09010KT 060V120 CAVOK 28/16 A3005 NOSIG=
202008311700 METAR MROC 311700Z 09012KT 050V140 CAVOK 28/15 A3005 NOSIG=
202008311800 METAR MROC 311800Z 09007G17KT 040V170 CAVOK 29/15 A3001 NOSIG=
202008311900 METAR MROC 311900Z 27008KT 9999 FEW030 SCT050 BKN250 27/21 A2999 NOSIG=
202008312000 METAR MROC 312000Z 23013KT 9999 FEW025 SCT035 BKN250 26/21 A2996 NOSIG=
202008312100 METAR MROC 312100Z 24011KT 9999 FEW015TCU 25/21 A2996 NOSIG=
202008312200 METAR MROC 312200Z 25011KT 9999 FEW015TCU SCT018 24/21 A2996 NOSIG=
202008312300 METAR MROC 312300Z 26009KT 9999 FEW015TCU SCT020 22/20 A2998 NOSIG=
202009010000 METAR MROC 010000Z 25005KT 9999 FEW003 BKN015 22/22 A3000 NOSIG=
202009010100 METAR MROC 010100Z 24007KT 9999 BKN010 21/21 A3002 NOSIG=
202009010200 METAR MROC 010200Z COR 23005KT 9999 SCT005 BKN015 21/21 A3005 NOSIG=
202009010300 METAR MROC 010300Z VRB01KT 9999 4500SW BKN010 20/20 A3006 NOSIG=
202009010400 METAR MROC 010400Z 31003KT 270V350 9999 SCT005 20/20 A3006 NOSIG=
202009010500 METAR MROC 010500Z VRB01KT CAVOK 20/20 A3007 NOSIG=
202009010600 METAR MROC 010600Z 04004KT CAVOK 20/20 A3005 NOSIG=
202009010700 METAR MROC 010700Z 01005KT 340V060 CAVOK 20/18 A3002 NOSIG=
202009010800 METAR MROC 010800Z 36005KT 330V050 9999 4500SW BCFG 19/17 A3002 NOSIG=
202009010900 METAR MROC 010900Z 08004KT CAVOK 18/17 A3001 NOSIG=
202009011000 METAR MROC 011000Z 08006KT CAVOK 19/17 A3000 NOSIG=
202009011100 METAR MROC 011100Z 06007KT CAVOK 19/16 A3000 NOSIG=
202009011200 METAR MROC 011200Z 06007KT CAVOK 20/16 A3000 NOSIG=
202009011300 METAR MROC 011300Z 07004KT 010V110 CAVOK 23/16 A3003 NOSIG=
202009011400 METAR MROC 011400Z 10010KT CAVOK 25/17 A3004 NOSIG=
202009011500 METAR MROC 011500Z 10012KT 070V150 CAVOK 25/16 A3004 NOSIG=
202009011600 METAR MROC 011600Z 11008KT 070V200 CAVOK 28/17 A3004 NOSIG=
202009011700 METAR MROC 011700Z 13006KT 060V200 CAVOK 28/17 A3003 NOSIG=
202009011800 METAR MROC 011800Z 25012KT 210V290 9999 FEW045 BKN070 27/21 A3001 NOSIG=
202009011900 METAR MROC 011900Z 24011KT 200V280 9999 FEW045 BKN080 26/21 A2999 NOSIG=
202009012000 METAR MROC 012000Z 24013KT 9999 BKN045 25/21 A2998 NOSIG=
202009012100 METAR MROC 012100Z 27006KT 240V300 9999 -TSRA FEW015CB BKN020 22/20 A2999 NOSIG=
202009012200 METAR MROC 012200Z 29006KT 9999 -RA SCT010 OVC035 20/19 A3000 RETS NOSIG=
202009012300 METAR MROC 012300Z 11005KT 070V150 9999 FEW003 OVC100 21/20 A3000 NOSIG=
202009020000 METAR MROC 020000Z 11009KT 9999 -RA NSC 20/19 A3001 NOSIG=
202009020100 METAR MROC 020100Z 10008KT CAVOK 20/17 A3001 NOSIG=
202009020200 METAR MROC 020200Z 07007KT CAVOK 21/17 A3003 NOSIG=
202009020300 METAR MROC 020300Z 04007KT CAVOK 21/18 A3004 NOSIG=
202009020400 METAR MROC 020400Z 09007KT CAVOK 20/18 A3004 NOSIG=
202009020500 METAR MROC 020500Z 06004KT CAVOK 20/17 A3003 NOSIG=
202009020600 METAR MROC 020600Z 08004KT CAVOK 20/17 A3003 NOSIG=
202009020700 METAR MROC 020700Z 00000KT CAVOK 19/17 A3000 NOSIG=
202009020800 METAR MROC 020800Z 08003KT CAVOK 19/17 A2998 NOSIG=
202009020900 METAR MROC 020900Z 05004KT CAVOK 19/17 A2997 NOSIG=
202009021000 METAR MROC 021000Z 09005KT CAVOK 17/16 A2998 NOSIG=
202009021100 METAR MROC 021100Z 08004KT CAVOK 18/16 A2997 NOSIG=
202009021200 METAR MROC 021200Z 09005KT CAVOK 18/16 A2998 NOSIG=
202009021300 METAR MROC 021300Z 06003KT 340V100 CAVOK 22/17 A3001 NOSIG=
202009021400 METAR MROC 021400Z 27003KT 210V320 CAVOK 24/18 A3001 NOSIG=
202009021500 METAR MROC 021500Z 26004KT 220V310 CAVOK 24/18 A3001 NOSIG=
202009021600 METAR MROC 021600Z 24008KT 210V280 CAVOK 25/20 A3001 NOSIG=
202009021700 METAR MROC 021700Z 25010KT 9999 FEW045 26/20 A3000 NOSIG=
202009021800 METAR MROC 021800Z 24010KT 9999 BKN035 26/21 A2997 NOSIG=
202009021900 METAR MROC 021900Z 25011KT 200V280 9999 FEW020CB BKN040 26/21 A2994 NOSIG=
202009022000 METAR MROC 022000Z 24009KT 9999 FEW020 SCT035 BKN090 25/21 A2992 NOSIG=
202009022100 METAR MROC 022100Z 24010KT 210V270 9999 -TSRA SCT015CB BKN100 25/22 A2991 TEMPO 5000=
202009022200 METAR MROC 022200Z 25008KT 8000 -TSRA SCT015CB OVC100 21/21 A2992 NOSIG=
202009022300 METAR MROC 022300Z 31004KT 280V340 9999 -RA VCTS SCT020 OVC100 22/21 A2993 RETSRA NOSIG=
202009030000 METAR MROC 030000Z 27004KT 9999 SCT015 OVC100 22/21 A2994 NOSIG=
202009030100 METAR MROC 030100Z 24004KT 210V270 9999 SCT010 OVC100 21/20 A2996 NOSIG=
202009030200 METAR MROC 030200Z 26004KT 220V190 9999 SCT010 OVC100 21/20 A2998 NOSIG=
202009030300 METAR MROC 030300Z 28004KT 220V330 5000 -RA SCT005 OVC100 21/20 A3001 NOSIG=
202009030400 METAR MROC 030400Z 31005KT 250V060 9999 SCT005 OVC015 20/20 A3002 NOSIG=
202009030500 METAR MROC 030500Z 34005KT 9999 BKN030 20/20 A3003 NOSIG=
202009030600 METAR MROC 030600Z VRB02KT CAVOK 20/20 A2999 NOSIG=
202009030700 METAR MROC 030700Z 06005KT 020V080 9999 SCT030 20/20 A2997 NOSIG=
202009030800 METAR MROC 030800Z 07004KT 9999 FEW030 20/19 A2994 NOSIG=
202009030900 METAR MROC 030900Z 05004KT CAVOK 20/19 A2992 NOSIG=
202009031000 METAR MROC NIL=
202009031100 METAR MROC 031100Z 13001KT 9999 FEW001 BKN045 19/19 A2994 NOSIG=
202009031200 METAR MROC 031200Z 11003KT CAVOK 18/18 A2996 NOSIG=
202009031300 METAR MROC 031300Z 09005KT CAVOK 21/19 A2997 NOSIG=
202009031400 METAR MROC 031400Z 08005KT 030V140 CAVOK 23/19 A2998 NOSIG=
202009031500 METAR MROC 031500Z VRB03KT CAVOK 26/18 A2998 NOSIG=
202009031600 METAR MROC 031600Z 15004KT 100V210 CAVOK 28/15 A2998 NOSIG=
202009031700 METAR MROC 031700Z 24012KT 9999 FEW045 26/20 A2995 NOSIG=
202009031800 METAR MROC 031800Z 24010KT 210V270 9999 FEW030TCU SCT040 BKN220 27/21 A2993 NOSIG=
202009031900 METAR MROC 031900Z 24013KT 210V270 9999 SCT015TCU SCT020 26/22 A2992 NOSIG=
202009032000 METAR MROC 032000Z 24013KT 9999 VCSH FEW020TCU BKN030 25/21 A2989 NOSIG=
202009032100 METAR MROC 032100Z 24011KT 9999 -TSRA SCT020CB BKN100 24/21 A2989 BECMG 5000=
202009032200 METAR MROC 032200Z 24009KT 9999 -TSRA SCT010CB OVC100 23/21 A2989 NOSIG=
202009032300 METAR MROC 032300Z 23004KT 200V260 9999 -RA SCT010 OVC100 21/21 A2991 NOSIG=
202009040000 METAR MROC 040000Z 27004KT 9999 SCT010 OVC100 21/21 A2993 NOSIG=
202009040100 METAR MROC 040100Z 29003KT 250V330 9999 BKN005 OVC100 21/21 A2996 RETSRA NOSIG=
202009040200 METAR MROC 040200Z 24004KT 200V260 9999 OVC005 21/21 A2998 NOSIG=
202009040300 METAR MROC 040300Z 25003KT 200V290 9999 RA VCTS BKN005 OVC100 21/21 A3000 NOSIG=
202009040400 METAR MROC 040400Z 31004KT 9999 -RA FEW005 BKN020 OVC100 21/21 A3002 NOSIG=
202009040500 METAR MROC 040500Z 10003KT 9999 FEW025 20/20 A2999 NOSIG=
202009040600 METAR MROC 040600Z 07003KT CAVOK 20/20 A2997 NOSIG=
202009040700 METAR MROC 040700Z 36004KT 330V030 9999 FEW005 20/20 A2996 NOSIG=
202009040800 METAR MROC 040800Z 23004KT 0600 R07/1500U FG VV002 20/20 A2995 NOSIG=
202009040900 METAR MROC NIL=
202009041000 METAR MROC NIL=
202009041100 METAR MROC NIL=
202009041200 METAR MROC NIL=
202009041300 METAR MROC 041300Z 12004KT 070V170 CAVOK 22/18 A2995 NOSIG=
202009041400 METAR MROC 041400Z 22007KT 190V250 CAVOK 23/19 A2999 NOSIG=
202009041500 METAR MROC 041500Z 26007KT 220V300 CAVOK 24/20 A3000 NOSIG=
202009041600 METAR MROC 041600Z 25009KT 9999 FEW045 BKN250 25/20 A3000 NOSIG=
202009041700 METAR MROC 041700Z 25009KT 9999 SCT030 26/21 A3000 NOSIG=
202009041800 METAR MROC 041800Z 25012KT 9999 SCT030 25/21 A2998 NOSIG=
202009041900 METAR MROC 041900Z 25009KT 210V280 9999 FEW020TCU SCT035 25/21 A2996 NOSIG=
202009042000 METAR MROC 042000Z 24008KT 210V280 9999 FEW020TCU BKN030 26/21 A2993 BECMG TSRA=
202009042100 METAR MROC 042100Z 25008KT 9999 FEW020TCU SCT030 BKN100 25/21 A2991 BECMG BKN015=
202009042200 METAR MROC 042200Z 25011KT 9999 -TSRA FEW008 SCT012CB BKN035 24/22 A2992 BECMG 5000=
202009042300 METAR MROC 042300Z 03008KT 360V060 1500 -TSRA FEW005 SCT008CB BKN020 20/20 A2994 NOSIG=
202009050000 METAR MROC 050000Z VRB02KT 8000 -TSRA VCFG FEW005 FEW015CB SCT045 BKN120 20/20 A2997 NOSIG=
202009050100 METAR MROC 050100Z 32003KT 290V350 8000 -TSRA VCFG FEW010 SCT045 BKN120 20/20 A3000 RETSRA NOSIG=
202009050200 METAR MROC 050200Z 00000KT 8000 -RA VCFG FEW010 SCT045 BKN120 20/20 A3003 NOSIG=
202009050300 METAR MROC 050300Z VRB02KT 9999 -RA FEW035 OVC120 20/20 A3003 NOSIG=
202009050400 METAR MROC 050400Z 02002KT CAVOK 20/20 A3003 NOSIG=
202009050500 METAR MROC 050500Z 03003KT CAVOK 20/20 A3002 NOSIG=
202009050600 METAR MROC 050600Z 18003KT 9999 FEW003 BKN100 20/20 A3000 TEMPO 5000 BR=
202009050700 METAR MROC 050700Z VRB02KT 9000 FEW003 BKN100 20/20 A3000 NOSIG=
202009050800 METAR MROC 050800Z 04002KT 8000 VCFG SCT003 BKN100 20/20 A2999 NOSIG=
202009050900 METAR MROC 050900Z 10002KT 9999 BCFG FEW005 BKN015 20/20 A2998 NOSIG=
202009051000 METAR MROC 051000Z 09004KT 9999 FEW035 19/19 A2998 NOSIG=
202009051100 METAR MROC 051100Z 07007KT CAVOK 19/19 A2998 NOSIG=
202009051200 METAR MROC 051200Z 07008KT CAVOK 20/18 A2999 NOSIG=
202009051300 METAR MROC 051300Z 08008KT CAVOK 21/17 A3003 NOSIG=
202009051400 METAR MROC 051400Z 11006KT 080V140 CAVOK 24/19 A3004 NOSIG=
202009051500 METAR MROC 051500Z 12007KT CAVOK 26/18 A3005 NOSIG=
202009051600 METAR MROC 051600Z 25007KT 9999 FEW040 BKN180 24/21 A3006 NOSIG=
202009051700 METAR MROC 051700Z 25009KT 210V290 9999 FEW020 BKN200 24/20 A3004 NOSIG=
202009051800 METAR MROC 051800Z 26007KT 230V290 9999 FEW020 26/20 A3002 NOSIG=
202009051900 METAR MROC 051900Z 24009KT 210V270 9999 SCT020 26/21 A2999 NOSIG=
202009052000 METAR MROC 052000Z 25009KT 220V280 9999 VCTS FEW015CB SCT020 27/22 A2997 NOSIG=
202009052100 METAR MROC 052100Z 24012KT 9999 VCSH FEW015TCU SCT025 BKN120 25/22 A2996 NOSIG=
202009052118 METAR MROC 052118Z 26012KT 9999 -TSRA SCT015CB BKN025 25/21 A2996 NOSIG=
202009052200 METAR MROC 052200Z 25012KT 9999 -TSRA FEW005 SCT015CB BKN025 23/21 A2996 NOSIG=
202009052300 METAR MROC 052300Z 25008KT 9999 BCFG BKN008 SCT015 22/21 A2998 RETSRA NOSIG=
202009060000 METAR MROC 060000Z 22006KT 9999 -RA FEW005 BKN015 22/21 A3001 NOSIG=
202009060100 METAR MROC 060100Z 26006KT 9999 -TSRA SCT015CB BKN030 21/21 A3003 NOSIG=
202009060200 METAR MROC 060200Z 32003KT 9999 BCFG FEW005 SCT015 BKN030 22/22 A3005 RETSRA NOSIG=
202009060300 METAR MROC 060300Z 00000KT 9999 BCFG FEW005 SCT015 BKN060 22/22 A3006 NOSIG=
202009060400 METAR MROC 060400Z VRB02KT 9999 BCFG FEW007 BKN035 21/21 A3006 NOSIG=
202009060500 METAR MROC 060500Z 19003KT 160V220 9999 BCFG FEW005 BKN030 21/21 A3004 NOSIG=
202009060600 METAR MROC 060600Z 36003KT 330V030 9999 BCFG FEW002 21/21 A3003 NOSIG=
202009060700 METAR MROC 060700Z VRB01KT 9999 2000SW BCFG FEW003 21/21 A3000 NOSIG=
202009060800 METAR MROC 060800Z VRB02KT 9999 4500SW BCFG FEW002 21/21 A3001 NOSIG=
202009060900 METAR MROC 060900Z VRB01KT CAVOK 21/19 A2999 NOSIG=
202009061000 METAR MROC 061000Z 25003KT 200V280 CAVOK 19/19 A2999 NOSIG=
202009061100 METAR MROC 061100Z 06004KT 350V090 9999 BCFG FEW003 20/20 A2999 NOSIG=
202009061200 METAR MROC 061200Z COR 08005KT CAVOK 20/20 A2998 NOSIG=
202009061300 METAR MROC 061300Z 04004KT 350V160 CAVOK 23/19 A2999 NOSIG=
202009061400 METAR MROC 061400Z 23006KT CAVOK 23/21 A3000 NOSIG=
202009061500 METAR MROC 061500Z 24005KT CAVOK 26/20 A3000 NOSIG=
202009061600 METAR MROC 061600Z 25009KT 220V290 CAVOK 25/21 A3001 NOSIG=
202009061700 METAR MROC 061700Z 24011KT 9999 SCT020 26/22 A3002 NOSIG=
202009061800 METAR MROC 061800Z 23007KT 200V260 9999 FEW015TCU BKN050 25/21 A3001 NOSIG=
202009061900 METAR MROC 061900Z 27006KT 240V300 9999 SCT020 25/23 A2998 NOSIG=
202009062000 METAR MROC 062000Z 28007KT 250V320 9999 BKN020 25/22 A2995 NOSIG=
202009062100 METAR MROC 062100Z 26008KT 220V290 9999 FEW030 BKN045 25/22 A2992 NOSIG=
202009062200 METAR MROC 062200Z 23008KT 7000 -RA SCT010 BKN025 23/22 A2992 NOSIG=
202009062300 METAR MROC 062300Z 24005KT 210V280 9999 FEW010 BKN045 21/22 A2996 NOSIG=
202009070000 METAR MROC 070000Z 35004KT 310V030 9999 FEW010 BKN040 21/20 A2997 NOSIG=
202009070100 METAR MROC 070100Z VRB01KT 9999 FEW015 SCT070 21/19 A2998 NOSIG=
202009070200 METAR MROC 070200Z 10003KT 9999 FEW040 21/20 A2999 NOSIG=
202009070300 METAR MROC 070300Z 08005KT 9999 FEW040 21/20 A3002 NOSIG=
202009070400 METAR MROC 070400Z 05003KT 9999 FEW040 21/20 A3002 NOSIG=
202009070500 METAR MROC 070500Z 27003KT 270V300 9999 FEW040 21/20 A3002 NOSIG=
202009070600 METAR MROC 070600Z 24005KT 9999 FEW040 20/20 A3000 NOSIG=
202009070700 METAR MROC 070700Z VRB02KT 9999 SCT005 BKN010 21/20 A2998 NOSIG=
202009070800 METAR MROC 070800Z 00000KT 9999 SCT005 BKN010 20/20 A2996 NOSIG=
202009070900 METAR MROC 070900Z 02003KT 9999 FEW005 SCT015 BKN025 20/20 A2995 NOSIG=
202009071000 METAR MROC 071000Z 20003KT 9999 FEW010 BKN025 20/20 A2996 NOSIG=
202009071100 METAR MROC 071100Z VRB02KT 9999 SCT010 BKN015 20/20 A2998 NOSIG=
202009071200 METAR MROC 071200Z 31003KT 5000 1000SW BR FEW005 SCT010 BKN020 20/20 A2999 NOSIG=
202009071300 METAR MROC 071300Z 30004KT 9999 SCT005 BKN015 20/20 A3001 NOSIG=
202009071400 METAR MROC 071400Z 31003KT 260V330 9999 BKN010 21/20 A3003 NOSIG=
202009071500 METAR MROC 071500Z 24004KT 150V290 9999 FEW020 BKN120 22/21 A3002 NOSIG=
202009071600 METAR MROC 071600Z 27003KT 180V300 9999 SCT020 SCT250 23/19 A3001 NOSIG=
202009071700 METAR MROC 071700Z VRB02KT 9999 FEW025 SCT250 25/20 A2999 NOSIG=
202009071800 METAR MROC 071800Z 26008KT 240V300 9999 FEW025 SCT250 27/20 A2996 NOSIG=
202009071900 METAR MROC 071900Z 25010KT 220V290 9999 SCT020 BKN200 26/21 A2992 NOSIG=
202009072000 METAR MROC 072000Z 24012KT 8000 -TSRA SCT010CB BKN020 23/21 A2990 BECMG 3000 TSRA=
202009072100 METAR MROC 072100Z 26004KT 240V300 6000 -TSRA SCT006CB OVC040 22/22 A2991 NOSIG=
202009072200 METAR MROC 072200Z 01004KT 330V060 2000 +TSRA SCT005CB BKN008 OVC025 20/20 A2993 NOSIG=
202009072300 METAR MROC 072300Z 09005KT 9999 -RA FEW030 OVC050 20/20 A2992 RETSRA NOSIG=
202009080000 METAR MROC 080000Z 03006KT 9999 -RA NSC 21/20 A2994 NOSIG=
202009080100 METAR MROC 080100Z VRB02KT CAVOK 21/20 A2997 NOSIG=
202009080200 METAR MROC 080200Z VRB02KT 9999 FEW005 21/20 A2997 NOSIG=
202009080300 METAR MROC 080300Z VRB01KT CAVOK 20/20 A2999 NOSIG=
202009080400 METAR MROC 080400Z 05003KT CAVOK 20/20 A2999 NOSIG=
202009080500 METAR MROC 080500Z 05005KT CAVOK 20/19 A2997 NOSIG=
202009080600 METAR MROC 080600Z 02004KT CAVOK 19/18 A2995 NOSIG=
202009080700 METAR MROC 080700Z 11003KT 040V150 CAVOK 18/18 A2993 NOSIG=
202009080800 METAR MROC 080800Z 04004KT CAVOK 18/17 A2991 NOSIG=
202009080900 METAR MROC 080900Z 01004KT CAVOK 18/17 A2993 NOSIG=
202009081000 METAR MROC 081000Z 10004KT 9999 FEW015 17/17 A2994 NOSIG=
202009081100 METAR MROC 081100Z 06006KT 9999 FEW015 18/17 A2995 NOSIG=
202009081200 METAR MROC 081200Z 09006KT CAVOK 18/17 A2996 NOSIG=
202009081300 METAR MROC 081300Z 06004KT CAVOK 21/18 A2997 NOSIG=
202009081400 METAR MROC 081400Z 00000KT CAVOK 23/17 A2999 NOSIG=
202009081500 METAR MROC 081500Z 25007KT CAVOK 23/19 A3001 NOSIG=
202009081600 METAR MROC 081600Z 25006KT 200V310 CAVOK 25/19 A3000 NOSIG=
202009081700 METAR MROC 081700Z 24009KT 210V280 9999 SCT030 26/21 A3000 NOSIG=
202009081800 METAR MROC 081800Z 26009KT 220V290 BKN025 25/21 A2998 NOSIG=
202009081900 METAR MROC 081900Z 24009KT 9999 -RA VCTS SCT025TCU 26/20 A2994 BECMG TSRA FEW020CB=
202009082000 METAR MROC 082000Z 24008KT 9999 -TSRA BKN020CB 25/21 A2992 TEMPO 3000 TSRA=
202009082100 METAR MROC 082100Z 34004KT 310V020 9999 2000SW -TSRA FEW001 FEW020CB OVC080 21/19 A2992 RETSRA NOSIG=
202009082200 METAR MROC 082200Z VRB02KT 9999 4500SW -RA OVC020 22/19 A2992 RETSRA NOSIG=
202009082300 METAR MROC 082300Z VRB01KT 9999 4500SW BCFG FEW005 BKN030 22/20 A2994 NOSIG=
202009090000 METAR MROC 090000Z 24005KT 9999 OVC010 22/21 A2996 TEMPO 3000 BR=
202009090100 METAR MROC 090100Z 32005KT 9999 OVC010 21/20 A2999 NOSIG=
202009090200 METAR MROC 090200Z 32005KT 9999 SCT010 21/20 A3000 NOSIG=
202009090300 METAR MROC 090300Z 26004KT 240V310 9999 OVC010 21/20 A3004 NOSIG=
202009090400 METAR MROC 090400Z VRB02KT 9999 SCT010 OVC025 21/21 A3004 NOSIG=
202009090500 METAR MROC 090500Z VRB02KT 9999 FEW010 OVC025 21/20 A3004 NOSIG=
202009090600 METAR MROC 090600Z 00000KT 9999 BKN030 21/19 A3002 NOSIG=
202009090700 METAR MROC 090700Z VRB02KT CAVOK 20/20 A3000 NOSIG=
202009090800 METAR MROC 090800Z 08004KT CAVOK 20/20 A2998 NOSIG=
202009090900 METAR MROC 090900Z 05006KT CAVOK 20/19 A2997 NOSIG=
202009091000 METAR MROC 091000Z 06006KT CAVOK 19/18 A2997 NOSIG=
202009091100 METAR MROC 091100Z 04005KT 010V080 CAVOK 19/18 A2998 NOSIG=
202009091200 METAR MROC 091200Z 06009KT CAVOK 20/18 A2999 NOSIG=
202009091300 METAR MROC 091300Z 05006KT 010V070 CAVOK 22/18 A3001 NOSIG=
202009091400 METAR MROC 091400Z 08008KT 050V110 CAVOK 25/19 A3003 NOSIG=
202009091500 METAR MROC 091500Z 15010KT 110V190 CAVOK 27/19 A3003 BECMG 25008KT=
202009091600 METAR MROC 091600Z 24011KT 9999 FEW040 BKN250 25/21 A3003 NOSIG=
202009091700 METAR MROC 091700Z 25010KT 220V280 9999 FEW035 BKN250 25/21 A3004 NOSIG=
202009091800 METAR MROC 091800Z 26012KT 230V290 9999 FEW015 SCT035 BKN250 26/22 A3002 NOSIG=
202009091900 METAR MROC 091900Z 25010KT 220V280 9999 VCTS BKN015CB SCT120 25/22 A3000 BECMG TSRA=
202009092000 METAR MROC 092000Z 22006KT 8000 3000N -TSRA FEW010 SCT015CB BKN035 23/22 A2999 NOSIG=
202009092100 METAR MROC 092100Z 25007KT 9999 4500SW BCFG VCTS FEW006CB BKN010 23/23 A2998 NOSIG=
202009092200 METAR MROC 092200Z 23004KT 190V250 9999 4500SW -RA BCFG SCT005 BKN110 23/22 A2999 RETSRA TEMPO 5000 BR=
202009092300 METAR MROC 092300Z 10004KT 9999 4500SW BCFG FEW005 SCT120 22/21 A2999 NOSIG=
202009100000 METAR MROC 100000Z 08003KT 9999 FEW045 SCT120 BKN200 22/20 A3001 NOSIG=
202009100100 METAR MROC 100100Z VRB01KT 9999 VCFG FEW002 21/20 A3003 NOSIG=
202009100200 METAR MROC 100200Z VRB02KT 9999 1500SW R07/0800U BCFG FEW001 21/20 A3006 TEMPO 1000 BR=
202009100300 METAR MROC 100300Z VRB01KT 9999 1000SW BCFG FEW001 21/21 A3009 NOSIG=
202009100400 METAR MROC 100400Z 06003KT 040V100 8000 VCFG SCT003 BKN010 21/21 A3009 NOSIG=
202009100500 METAR MROC 100500Z VRB02KT CAVOK 20/19 A3009 NOSIG=
202009100600 METAR MROC 100600Z 06004KT CAVOK 19/19 A3006 NOSIG=
202009100700 METAR MROC 100700Z 07006KT CAVOK 19/18 A3005 NOSIG=
202009100800 METAR MROC 100800Z 04006KT CAVOK 19/18 A3003 NOSIG=
202009100900 METAR MROC 100900Z 02004KT 350V060 CAVOK 19/18 A3001 NOSIG=
202009101000 METAR MROC 101000Z 02004KT 350V070 CAVOK 20/17 A3003 NOSIG=
202009101100 METAR MROC 101100Z 04007KT CAVOK 21/17 A3005 NOSIG=
202009101200 METAR MROC 101200Z 08005KT CAVOK 20/17 A3006 NOSIG=
202009101300 METAR MROC 101300Z 09006KT CAVOK 23/18 A3006 NOSIG=
202009101400 METAR MROC 101400Z 11003KT 060V180 CAVOK 26/19 A3007 BECMG 24006KT=
202009101500 METAR MROC 101500Z 09007KT CAVOK 26/17 A3006 NOSIG=
202009101600 METAR MROC 101600Z 09009G19KT 040V170 9999 FEW045 BKN250 29/17 A3004 NOSIG=
202009101700 METAR MROC 101700Z 12018KT 070V180 9999 FEW045 BKN250 29/18 A3002 BECMG 24006KT=
202009101800 METAR MROC 101800Z 23014KT 9999 FEW045 SCT250 27/22 A3000 NOSIG=
202009101900 METAR MROC 101900Z 26014KT 220V280 9999 FEW015 SCT045 BKN250 27/23 A2998 NOSIG=
202009102000 METAR MROC 102000Z 25015KT 9999 FEW015 SCT035 BKN250 26/23 A2997 NOSIG=
202009102100 METAR MROC 102100Z 24011KT 9999 FEW015TCU BKN035 25/22 A2996 NOSIG=
202009102200 METAR MROC 102200Z 25010KT 9999 SCT005 BKN030 23/22 A2996 NOSIG=
202009102300 METAR MROC 102300Z 25006KT 220V280 9999 SCT005 BKN015 23/22 A2997 NOSIG=
202009110000 METAR MROC 110000Z 25004KT 230V290 9999 BKN005 22/22 A2999 NOSIG=
202009110100 METAR MROC 110100Z VRB02KT 9999 BKN020 22/22 A3000 NOSIG=
202009110200 METAR MROC 110200Z 22002KT 9999 VCTS FEW015CB BKN015 22/22 A3001 NOSIG=
202009110300 METAR MROC 110300Z 27003KT 220V330 9999 BKN015 22/22 A3003 NOSIG=
202009110400 METAR MROC 110400Z 24002KT 9999 BKN010 21/21 A3004 NOSIG=
202009110500 METAR MROC 110500Z 09002KT 9999 BKN010 21/21 A3002 NOSIG=
202009110600 METAR MROC 110600Z 35003KT 9999 SCT010 21/21 A3000 NOSIG=
202009110700 METAR MROC 110700Z VRB02KT 9999 FEW011 21/21 A2998 NOSIG=
202009110800 METAR MROC 110800Z VRB02KT 9999 FEW005 20/20 A2996 NOSIG=
202009110900 METAR MROC 110900Z 07003KT 040V120 CAVOK 20/19 A2996 NOSIG=
202009111000 METAR MROC 111000Z 05005KT 020V110 CAVOK 20/19 A2997 NOSIG=
202009111100 METAR MROC 111100Z 04006KT 010V070 CAVOK 21/18 A2998 NOSIG=
202009111200 METAR MROC 111200Z 07007KT CAVOK 21/18 A2999 NOSIG=
202009111300 METAR MROC 111300Z 08006KT CAVOK 23/19 A3000 NOSIG=
202009111400 METAR MROC 111400Z 26005KT 220V290 CAVOK 23/19 A3001 NOSIG=
202009111500 METAR MROC 111500Z 25009KT 9999 FEW010 SCT080 BKN200 23/20 A3003 NOSIG=
202009111600 METAR MROC 111600Z 25006KT 210V290 9999 SCT015 BKN160 24/21 A3003 NOSIG=
202009111700 METAR MROC 111700Z 25007KT 200V290 9999 FEW040 BKN200 26/20 A3001 NOSIG=
202009111800 METAR MROC 111800Z 25007KT 9999 SCT040 27/21 A2998 NOSIG=
202009111900 METAR MROC 111900Z 22010KT 190V250 9999 SCT045 27/22 A2994 NOSIG=
202009112000 METAR MROC 112000Z 23011KT 9999 VCTS BKN035 26/22 A2993 NOSIG=
202009112100 METAR MROC 112100Z VRB07KT 9999 TSRA FEW015CB BKN020 23/20 A2993 TEMPO 5000=
202009112200 METAR MROC 112200Z 31005KT 280V340 9999 -DZ FEW020 OVC100 20/20 A2993 RETSRA NOSIG=
202009112300 METAR MROC 112300Z 36006KT 9999 VCTS FEW015CB BKN015 21/20 A2992 NOSIG=
202009120000 METAR MROC 120000Z 32003KT 280V350 9999 OVC025 21/20 A2996 NOSIG=
202009120100 METAR MROC 120100Z 25004KT 220V280 9999 OVC010 21/21 A2996 NOSIG=
202009120200 METAR MROC 120200Z VRB02KT 9999 FEW001 OVC010 20/20 A2997 NOSIG=
202009120300 METAR MROC 120300Z VRB01KT 9999 FEW001 BKN015 20/20 A2998 NOSIG=
202009120400 METAR MROC 120400Z 07003KT 050V110 9999 SCT015 BKN025 21/21 A2999 NOSIG=
202009120500 METAR MROC 120500Z 00000KT 9999 SCT015 BKN035 21/21 A2999 NOSIG=
202009120600 METAR MROC 120600Z 09003KT 9999 BCFG FEW025 BKN060 21/21 A2997 NOSIG=
202009120700 METAR MROC 120700Z 00000KT 9999 BCFG FEW025 BKN060 21/21 A2995 NOSIG=
202009120800 METAR MROC 120800Z VRB02KT 9999 BCFG FEW005 SCT025 BKN060 20/20 A2994 NOSIG=
202009120900 METAR MROC 120900Z 13003KT 8000 VCFG SCT015 BKN060 20/20 A2992 NOSIG=
202009121000 METAR MROC 121000Z 01003KT 9999 3000SW BCFG SCT010 BKN050 20/20 A2992 NOSIG=
202009121100 METAR MROC 121100Z VRB02KT 8000 1500NE BCFG SCT004 BKN015 20/20 A2993 NOSIG=
202009121200 METAR MROC 121200Z 09003KT 9999 2000SW BCFG FEW015 SCT250 20/20 A2993 NOSIG=
202009121300 METAR MROC 121300Z VRB02KT 6000 BCFG SCT004 SCT200 22/21 A2995 BECMG 25008KT=
202009121400 METAR MROC 121400Z 29003KT 240V340 8000 SCT010 BKN190 23/20 A2997 NOSIG=
202009121500 METAR MROC 121500Z 24007KT 190V270 9999 SCT030 BKN060 24/21 A2998 NOSIG=
202009121600 METAR MROC 121600Z VRB04KT 9999 SCT035 26/21 A2998 NOSIG=
202009121700 METAR MROC 121700Z 25007KT 220V280 9999 BKN035 26/21 A2996 NOSIG=
202009121800 METAR MROC 121800Z 24009KT 200V270 9999 FEW020TCU BKN040 26/22 A2992 NOSIG=
202009121900 METAR MROC 121900Z 24011KT 9999 SCT015TCU BKN045 26/22 A2989 NOSIG=
202009122000 METAR MROC 122000Z 25014KT 9999 TS SCT010CB OVC025 24/22 A2988 NOSIG=
202009122100 METAR MROC 122100Z 27009KT 9999 -TSRA BKN010CB 22/22 A2989 TEMPO 5000=
202009122200 METAR MROC 122200Z 28006KT 240V330 9999 -RA VCTS BKN010 22/22 A2990 NOSIG=
202009122300 METAR MROC 122300Z 36004KT 310V020 9999 -TSRA BKN010 21/21 A2992 NOSIG=
202009130000 METAR MROC 130000Z VRB01KT 9999 -RA SCT010 OVC100 21/21 A2994 RETSRA NOSIG=
202009130100 METAR MROC 130100Z 23002KT 9999 -RA BKN010 21/21 A2996 NOSIG=
202009130200 METAR MROC 130200Z 17002KT 8000 -RA FEW007 BKN015 21/21 A3000 TEMPO 5000 BR=
202009130300 METAR MROC 130300Z VRB02KT 9999 FEW030 OVC100 21/21 A3001 NOSIG=
202009130400 METAR MROC 130400Z VRB02KT 9999 2000SW BKN003 21/21 A3001 NOSIG=
202009130500 METAR MROC 130500Z VRB02KT 9999 BKN005 21/21 A3000 NOSIG=
202009130600 METAR MROC 130600Z VRB02KT 9999 3000SW BKN006 20/20 A2999 NOSIG=
202009130700 METAR MROC 130700Z 31003KT 9999 BKN005 20/20 A2996 NOSIG=
202009130800 METAR MROC 130800Z VRB02KT 9999 FEW010 BKN025 20/20 A2994 NOSIG=
202009130900 METAR MROC 130900Z 03004KT 9999 SCT010 20/20 A2995 NOSIG=
202009131000 METAR MROC 131000Z 02003KT 9999 SCT010 19/19 A2995 NOSIG=
202009131100 METAR MROC 131100Z 09004KT CAVOK 19/19 A2995 NOSIG=
202009131200 METAR MROC 131200Z 07006KT CAVOK 18/17 A2996 NOSIG=
202009131300 METAR MROC 131300Z 08005KT CAVOK 20/18 A2998 NOSIG=
202009131400 METAR MROC 131400Z 08006KT CAVOK 22/18 A2999 NOSIG=
202009131500 METAR MROC 131500Z 08008KT CAVOK 24/18 A2999 NOSIG=
202009131600 METAR MROC 131600Z 08008KT CAVOK 24/19 A2999 NOSIG=
202009131700 METAR MROC 131700Z 36004KT 330V030 CAVOK 26/18 A2998 BECMG 25006KT=
202009131800 METAR MROC 131800Z 25009KT 220V280 CAVOK 26/21 A2996 NOSIG=
202009131900 METAR MROC 131900Z 25010KT 9999 FEW030 BKN120 25/21 A2994 NOSIG=
202009132000 METAR MROC 132000Z 26010KT 9999 SCT012 BKN100 24/21 A2993 NOSIG=
202009132100 METAR MROC 132100Z 24008KT 9999 SCT010 OVC100 24/22 A2992 NOSIG=
202009132200 METAR MROC 132200Z 26009KT 9999 BKN010 OVC100 22/21 A2993 NOSIG=
202009132300 METAR MROC 132300Z 24008KT 9999 BKN010 OVC100 22/22 A2994 NOSIG=
202009140000 METAR MROC 140000Z 27006KT 9999 BKN007 OVC100 21/21 A2996 NOSIG=
202009140100 METAR MROC 140100Z 25004KT 8000 VCFG SCT003 BKN008 21/21 A3000 TEMPO 5000 BR=
202009140200 METAR MROC 140200Z 26005KT 5000 BR BKN003 21/21 A3003 NOSIG=
202009140300 METAR MROC 140300Z 27004KT 250V310 5000 BR OVC004 21/21 A3006 TEMPO 1500=
202009140400 METAR MROC 140400Z 24003KT 210V270 0800 R07/1600U -RA FG VV02 21/21 A3006 NOSIG=
202009140500 METAR MROC 140500Z VRB01KT 6000 1500SW -DZ BCFG SCT005 BKN015 21/21 A3004 NOSIG=
202009140600 METAR MROC 140600Z VRB02KT 9999 SCT010 BKN080 21/21 A3002 NOSIG=
202009140700 METAR MROC 140700Z 22003KT 3000 SCT002 BKN020 20/20 A3001 NOSIG=
202009140800 METAR MROC 140800Z 32001KT 8000 FEW002 OVC020 20/20 A3000 NOSIG=
202009140900 METAR MROC 140900Z 00000KT 9000 FEW005 OVC020 20/20 A3000 NOSIG=
202009141000 METAR MROC 141000Z 09003KT 9999 FEW005 BKN030 21/21 A3002 NOSIG=
202009141100 METAR MROC 141100Z VRB01KT 9999 BKN030 21/21 A3003 NOSIG=
202009141200 METAR MROC 141200Z 01003KT 9999 FEW045 BKN060 21/21 A3004 NOSIG=
202009141300 METAR MROC 141300Z 07003KT 020V090 CAVOK 23/21 A3006 NOSIG=
202009141400 METAR MROC 141400Z 18003KT 120V230 9999 FEW025 25/20 A3008 BECMG 25006KT=
202009141500 METAR MROC 141500Z 25008KT 9999 FEW030 SCT140 24/21 A3010 NOSIG=
202009141600 METAR MROC 141600Z 26007KT 230V090 9999 FEW025 26/21 A3009 NOSIG=
202009141700 METAR MROC 141700Z 25008KT 220V290 9999 SCT030 26/21 A3007 NOSIG=
202009141800 METAR MROC 141800Z COR 24011KT 9999 VCTS FEW020CB BKN020 26/21 A3005 NOSIG=
202009141900 METAR MROC 141900Z 25008KT 9999 VCSH VCTS FEW010CB BKN040 23/20 A3002 NOSIG=
202009141913 METAR MROC 141913Z 26008KT 220V290 7000 TSRA FEW008CB BKN010 23/21 A3003 NOSIG=
202009142000 METAR MROC 142000Z 25009KT 9999 4500SW -RA BCFG FEW010CB OVC010 22/22 A3001 RETSRA NOSIG=
202009142100 METAR MROC 142100Z 25009KT 4000 1500SW -RA BR FEW003 SCT008 BKN030 21/21 A3000 NOSIG=
202009142200 METAR MROC 142200Z 22006KT 190V250 1000 -RA BR VCTS SCT003 BKN008 21/21 A2998 NOSIG=
202009142300 METAR MROC 142300Z 22003KT 190V280 5000 -RA BR VCTS SCT003 BKN012 21/21 A3001 NOSIG=
202009150000 METAR MROC 150000Z 13003KT 9999 -RA BCFG FEW003 SCT008 BKN020 21/21 A3005 NOSIG=
202009150100 METAR MROC 150100Z 11010G20KT 080V140 9999 TSRA FEW005 SCT010CB BKN030 20/20 A3008 NOSIG=
202009150200 METAR MROC 150200Z 08011KT 9999 -RA BCFG NSC 21/20 A3012 RETSRA NOSIG=
202009150300 METAR MROC 150300Z 08014KT 9999 -RA NSC 20/19 A3011 NOSIG=
202009150400 METAR MROC 150400Z 07012KT CAVOK 21/18 A3008 NOSIG=
202009150500 METAR MROC 150500Z 08008KT CAVOK 21/17 A3004 NOSIG=
202009150600 METAR MROC 150600Z 08010KT CAVOK 21/17 A3003 NOSIG=
202009150700 METAR MROC 150700Z 25004KT CAVOK 20/17 A3005 NOSIG=
202009150800 METAR MROC 150800Z 10005KT CAVOK 19/17 A3004 NOSIG=
202009150900 METAR MROC 150900Z 04003KT CAVOK 19/18 A3004 NOSIG=
202009151000 METAR MROC 151000Z 09006KT CAVOK 19/17 A3004 NOSIG=
202009151100 METAR MROC 151100Z 08006KT CAVOK 19/17 A3004 NOSIG=
202009151200 METAR MROC 151200Z VRB02KT CAVOK 19/18 A3005 NOSIG=
202009151300 METAR MROC 151300Z VRB02KT CAVOK 21/18 A3007 BECMG 25006KT=
202009151400 METAR MROC 151400Z VRB02KT CAVOK 23/19 A3010 NOSIG=
202009151500 METAR MROC 151500Z 24005KT 190V280 CAVOK 25/20 A3010 NOSIG=
202009151600 METAR MROC 151600Z 25007KT 200V280 CAVOK 26/18 A3011 NOSIG=
202009151700 METAR MROC 151700Z 25007KT 210V280 CAVOK 27/21 A3009 NOSIG=
202009151800 METAR MROC 151800Z 24009KT 190V280 9999 SCT025 27/22 A3007 NOSIG=
202009151900 METAR MROC 151900Z 25008KT 9999 VCTS FEW015CB SCT045 25/22 A3004 NOSIG=
202009152000 METAR MROC 152000Z 25008KT 220V280 9999 FEW015 BKN040 24/22 A3002 NOSIG=
202009152100 METAR MROC 152100Z 22012KT 9999 VCSH FEW010 SCT020 BKN030 23/20 A3002 NOSIG=
202009152200 METAR MROC 152200Z 02005KT 350V060 3000 -TSRA FEW005 SCT015CB BKN030 22/22 A3003 NOSIG=
202009152300 METAR MROC 152300Z 06006KT 040V100 9999 VCTS FEW015CB BKN100 21/19 A3001 RETSRA NOSIG=
202009160000 METAR MROC 160000Z 09005KT 060V140 9999 FEW040 BKN100 20/19 A3004 NOSIG=
202009160100 METAR MROC 160100Z 03006KT CAVOK 21/19 A3007 NOSIG=
202009160200 METAR MROC 160200Z VRB02KT CAVOK 21/21 A3009 NOSIG=
202009160300 METAR MROC 160300Z 08003KT 050V110 CAVOK 20/20 A3012 NOSIG=
202009160400 METAR MROC 160400Z 17003KT CAVOK 20/20 A3011 NOSIG=
202009160500 METAR MROC 160500Z 04008KT CAVOK 20/20 A3008 NOSIG=
202009160600 METAR MROC 160600Z 07007KT CAVOK 20/19 A3006 NOSIG=
202009160700 METAR MROC 160700Z 11003KT CAVOK 19/19 A3004 NOSIG=
202009160800 METAR MROC 160800Z VRB02KT CAVOK 19/19 A3003 NOSIG=
202009160900 METAR MROC 160900Z 27005KT CAVOK 19/19 A3000 NOSIG=
202009161000 METAR MROC 161000Z 06005KT 9999 FEW010 19/19 A3002 NOSIG=
202009161100 METAR MROC 161100Z 07005KT 9999 FEW040 19/19 A3004 NOSIG=
202009161200 METAR MROC 161200Z 08005KT 9999 FEW020 BKN200 20/20 A3005 NOSIG=
202009161300 METAR MROC 161300Z 10006KT 080V140 CAVOK 22/20 A3007 NOSIG=
202009161400 METAR MROC 161400Z 07003KT 320V110 CAVOK 24/19 A3008 NOSIG=
202009161500 METAR MROC 161500Z VRB04KT CAVOK 27/19 A3008 BECMG 25006KT=
202009161600 METAR MROC 161600Z 09011KT 9999 FEW040 SCT250 27/19 A3007 NOSIG=
202009161700 METAR MROC 161700Z 11007KT 060V150 9999 FEW030 BKN200 28/18 A3005 NOSIG=
202009161800 METAR MROC 161800Z 11010KT CAVOK 28/19 A3001 NOSIG=
202009161900 METAR MROC 161900Z 08007KT 050V120 CAVOK 29/19 A2998 NOSIG=
202009162000 METAR MROC 162000Z 24012KT 190V260 9999 FEW030 BKN200 27/23 A2994 NOSIG=
202009162100 METAR MROC 162100Z 25013KT 9999 SCT010 BKN030 25/23 A2995 NOSIG=
202009162200 METAR MROC 162200Z 24009KT 210V280 9999 OVC035 23/23 A2996 NOSIG=
202009162300 METAR MROC 162300Z 24009KT 9999 VCTS SCT035 BKN050 23/21 A2997 NOSIG=
202009170000 METAR MROC 170000Z 31007G18KT 250V350 9999 FEW020 BKN050 OVC200 22/20 A3000 NOSIG=
202009170100 METAR MROC 170100Z 26003KT 230V300 9999 SCT015 BKN030 22/20 A3003 NOSIG=
202009170200 METAR MROC 170200Z VRB02KT 9999 FEW030 SCT080 21/21 A3005 NOSIG=
202009170300 METAR MROC 170300Z 27005KT 250V320 9999 FEW010 OVC090 22/21 A3008 NOSIG=
202009170400 METAR MROC 170400Z VRB02KT 9999 SCT007 BKN015 22/22 A3009 NOSIG=
202009170500 METAR MROC 170500Z VRB02KT 9999 FEW003 SCT007 BKN035 21/21 A3007 NOSIG=
202009170600 METAR MROC 170600Z 06003KT 9999 FEW007 SCT015 21/21 A3005 NOSIG=
202009170700 METAR MROC 170700Z 02003KT 9999 FEW015 21/21 A3003 NOSIG=
202009170800 METAR MROC 170800Z 04005KT 9999 FEW015 SCT045 20/19 A3002 NOSIG=
202009170900 METAR MROC 170900Z 12003KT 9999 FEW015 19/19 A3000 NOSIG=
202009171000 METAR MROC 171000Z 08003KT CAVOK 20/19 A2999 NOSIG=
202009171100 METAR MROC 171100Z VRB02KT 9999 3000S BCFG NSC 19/18 A3000 NOSIG=
202009171200 METAR MROC 171200Z VRB02KT 9999 BCFG FEW015 SCT120 BKN200 19/18 A3002 NOSIG=
202009171300 METAR MROC 171300Z VRB02K 9999 BCFG FEW015 SCT130 21/19 A3004 NOSIG=
202009171400 METAR MROC 171400Z 10004KT 060V120 CAVOK 24/19 A3005 NOSIG=
202009171500 METAR MROC 171500Z 33004KT 280V050 9999 FEW040 25/19 A3004 BECMG 24007KT=
202009171600 METAR MROC 171600Z 21005KT 150V260 9999 SCT040 27/18 A3004 NOSIG=
202009171700 METAR MROC 171700Z 24009KT 200V260 SCT040TCU 26/21 A3003 NOSIG=
202009171800 METAR MROC 171800Z 24012KT 9999 SCT030TCU 26/21 A3000 NOSIG=
202009171900 METAR MROC 171900Z 25015KT 9999 VCTS BKN025CB 25/20 A2999 TEMPO TSRA=
202009172000 METAR MROC 172000Z 26012KT 9999 BKN015 21/20 A2999 NOSIG=
202009172100 METAR MROC 172100Z 28003KT 210V350 5000 RA BKN003 OVC020 20/20 A2998 NOSIG=
202009172200 METAR MROC 172200Z 27003KT 240V320 8000 -RA BKN015 OVC030 20/20 A2998 NOSIG=
202009172300 METAR MROC 172300Z 35003KT 320V030 8000 -RA SCT005 BKN035 OVC160 20/20 A3001 NOSIG=
202009180000 METAR MROC 180000Z VRB01KT 9999 FEW010 SCT050 OVC080 20/20 A3002 NOSIG=
202009180100 METAR MROC 180100Z 15003KT 110V190 9999 FEW040 BKN090 20/20 A3005 NOSIG=
202009180200 METAR MROC 180200Z 01004KT 9999 RA NSC 20/20 A3007 NOSIG=
202009180300 METAR MROC 180300Z 10003KT 9999 -RA NSC 20/20 A3007 NOSIG=
202009180400 METAR MROC 180400Z 05005KT CAVOK 20/20 A3007 NOSIG=
202009180500 METAR MROC 180500Z 07006KT CAVOK 20/20 A3005 NOSIG=
202009180600 METAR MROC 180600Z 05004KT CAVOK 20/19 A3002 NOSIG=
202009180700 METAR MROC 180700Z 07007KT CAVOK 19/19 A2999 NOSIG=
202009180800 METAR MROC 180800Z 06005KT CAVOK 20/19 A2997 NOSIG=
202009180900 METAR MROC 180900Z 23004KT CAVOK 19/19 A2997 NOSIG=
202009181000 METAR MROC 181000Z COR 34004KT 9999 FEW003 19/19 A3001 NOSIG=
202009181100 METAR MROC 181100Z 35004KT 320V020 9999 FEW015 19/19 A3001 NOSIG=
202009181200 METAR MROC 181200Z 09004KT CAVOK 18/18 A3002 NOSIG=
202009181300 METAR MROC 181300Z 07004KT CAVOK 21/19 A3004 NOSIG=
202009181400 METAR MROC 181400Z VRB02KT CAVOK 23/18 A3006 BECMG 25007KT=
202009181500 METAR MROC 181500Z 25004KT 200V340 CAVOK 24/18 A3007 NOSIG=
202009181600 METAR MROC 181600Z VRB03KT 9999 FEW040 SCT230 26/19 A3006 NOSIG=
202009181700 METAR MROC 181700Z 24009KT 9999 FEW040 SCT250 26/21 A3004 NOSIG=
202009181800 METAR MROC 181800Z 25012KT 220V280 9999 SCT040 25/22 A3001 NOSIG=
202009181900 METAR MROC 181900Z 25012KT 220V280 9999 SCT035 26/21 A2998 NOSIG=
202009182000 METAR MROC 182000Z 26010KT 9999 -RA VCTS SCT015 BKN035 24/21 A2997 TEMPO -TSRA=
202009182100 METAR MROC 182100Z 25010KT 9999 -RA BCFG SCT010CB BKN020 23/21 A2997 NOSIG=
202009182200 METAR MROC 182200Z 24007KT 9999 -SHRA VCTS FEW010CB BKN010 22/22 A2997 TEMPO TSRA=
202009182300 METAR MROC 182300Z 26007KT 6000 -RA BCFG BKN008 21/21 A2999 TEMPO 3000 BR=
202009190000 METAR MROC 190000Z VRB02KT 9999 -TSRA VCFG FEW003 OVC010CB 21/21 A3001 NOSIG=
202009190100 METAR MROC 190100Z 06003KT 350V090 9999 -RA FEW005 BKN100 21/21 A3002 NOSIG=
202009190200 METAR MROC 190200Z 08004KT CAVOK 21/21 A3002 NOSIG=
202009190300 METAR MROC 190300Z 09004KT 040V170 CAVOK 21/20 A3002 NOSIG=
202009190400 METAR MROC 190400Z 22002KT 9999 FEW003 BKN100 20/20 A3004 NOSIG=
202009190500 METAR MROC 190500Z VRB02KT 1500 BR SCT003 BKN010 20/20 A3003 NOSIG=
202009190600 METAR MROC 190600Z 10002KT 8000 FEW005 BKN040 20/20 A3002 NOSIG=
202009190700 METAR MROC 190700Z 35002KT 9999 FEW040 20/20 A3000 NOSIG=
202009190800 METAR MROC 190800Z 06004KT CAVOK 20/20 A2999 NOSIG=
202009190900 METAR MROC 190900Z 11003KT CAVOK 19/19 A2998 NOSIG=
202009191000 METAR MROC 191000Z 08003KT 040V120 CAVOK 18/18 A2999 NOSIG=
202009191100 METAR MROC 191100Z 07005KT CAVOK 18/18 A3000 NOSIG=
202009191200 METAR MROC 191200Z 07004KT CAVOK 18/18 A3001 NOSIG=
202009191300 METAR MROC 191300Z 09005KT CAVOK 19/18 A3004 NOSIG=
202009191400 METAR MROC 191400Z VRB02KT CAVOK 23/18 A3005 NOSIG=
202009191500 METAR MROC 191500Z VRB02KT 9999 FEW030 25/18 A3005 NOSIG=
202009191600 METAR MROC 191600Z 24007KT 200V270 9999 FEW030 25/19 A3003 NOSIG=
202009191700 METAR MROC 191700Z 24011KT 210V270 9999 SCT030 26/20 A3002 NOSIG=
202009191800 METAR MROC 191800Z 27009KT 230V320 9999 SCT030 27/20 A2999 NOSIG=
202009191900 METAR MROC 191900Z 24009KT 200V270 9999 VCTS VCSH FEW020CB SCT025TCU BKN250 26/20 A2996 BECMG TSRA=
202009192000 METAR MROC 192000Z 25010KT 9999 -TSRA SCT015CB BKN025 24/22 A2994 NOSIG=
202009192100 METAR MROC 192100Z 01003KT 340V030 2000 TSRA OVC030 20/20 A2995 NOSIG=
202009192200 METAR MROC 192200Z 11004KT 090V160 9999 -RA FEW007 BKN120 20/20 A2995 RETSRA NOSIG=
202009192300 METAR MROC 192300Z 09004KT 9999 SCT030 BKN140 20/20 A2996 NOSIG=
202009200000 METAR MROC 200000Z 09003KT 9999 BKN045 21/21 A2998 NOSIG=
202009200100 METAR MROC 200100Z VRB02KT 9999 FEW040 21/21 A3000 NOSIG=
202009200200 METAR MROC 200200Z VRB01KT CAVOK 21/21 A2999 NOSIG=
202009200300 METAR MROC 200300Z 29003KT 260V340 9999 SCT020 BKN250 21/21 A3001 NOSIG=
202009200400 METAR MROC 200400Z 13003KT CAVOK 20/20 A3001 NOSIG=
202009200500 METAR MROC 200500Z 08003KT CAVOK 20/20 A3000 NOSIG=
202009200600 METAR MROC 200600Z 02004KT CAVOK 20/20 A2999 NOSIG=
202009200700 METAR MROC 200700Z 01004KT CAVOK 20/20 A2997 NOSIG=
202009200800 METAR MROC 200800Z 11003KT CAVOK 19/19 A2996 NOSIG=
202009200900 METAR MROC 200900Z 07004KT CAVOK 19/19 A2996 NOSIG=
202009201000 METAR MROC 201000Z 07005KT CAVOK 19/18 A2995 NOSIG=
202009201100 METAR MROC 201100Z 04005KT CAVOK 19/18 A2997 NOSIG=
202009201200 METAR MROC 201200Z 02005KT CAVOK 19/19 A2999 NOSIG=
202009201300 METAR MROC 201300Z VRB02KT 9999 FEW040 BKN200 22/19 A3001 NOSIG=
202009201400 METAR MROC 201400Z 27004KT 230V310 9999 FEW035 BKN200 23/19 A3003 NOSIG=
202009201500 METAR MROC 201500Z 22003KT 9999 FEW035 BKN200 26/20 A3003 NOSIG=
202009201600 METAR MROC 201600Z 10008KT 050V170 9999 FEW045 BKN200 27/19 A3003 NOSIG=
202009201700 METAR MROC 201700Z 12004KT 080V180 9999 FEW040 SCT090 BKN200 28/18 A3000 BECMG 25005KT=
202009201800 METAR MROC 201800Z 25006KT 210V280 9999 FEW040 SCT060 BKN200 27/21 A2997 NOSIG=
202009201900 METAR MROC 201900Z 24011KT 9999 SCT035 BKN200 26/22 A2994 NOSIG=
202009202000 METAR MROC 202000Z 28009KT 230V330 0800 TSRA SCT005 BKN012CB 24/22 A2993 NOSIG=
202009202100 METAR MROC 202100Z 22005KT 9999 VCTS FEW020CB BKN0030 20/20 A2994 RETSRA NOSIG=
202009202200 METAR MROC 202200Z 36003KT 280V060 9999 -RA SCT005 BKN0045 21/20 A2997 NOSIG=
202009202300 METAR MROC 202300Z 24003KT 210V290 9999 FEW010 SCT045 BKN150 22/21 A2996 NOSIG=
202009210000 METAR MROC 210000Z 32003KT 280V350 9999 FEW035 21/21 A2996 NOSIG=
202009210100 METAR MROC 210100Z VRB01KT CAVOK 21/21 A2999 NOSIG=
202009210200 METAR MROC 210200Z 21003KT 9999 FEW001 BKN180 21/20 A3001 NOSIG=
202009210300 METAR MROC 210300Z VRB01KT 9999 FEW001 21/20 A3003 NOSIG=
202009210400 METAR MROC 210400Z 08003KT 050V120 9999 FEW030 21/20 A3004 NOSIG=
202009210500 METAR MROC 210500Z 02003KT 360V070 20/19 A3003 NOSIG=
202009210600 METAR MROC 210600Z 05004KT CAVOK 20/19 A3000 NOSIG=
202009210700 METAR MROC 210700Z 03004KT CAVOK 20/19 A2998 NOSIG=
202009210800 METAR MROC 210800Z 05005KT CAVOK 20/19 A2996 NOSIG=
202009210900 METAR MROC 210900Z 09005KT CAVOK 20/18 A2996 NOSIG=
202009211000 METAR MROC 211000Z 06003KT 340V110 CAVOK 19/18 A2997 NOSIG=
202009211100 METAR MROC 211100Z 11007KT CAVOK 21/18 A2998 NOSIG=
202009211200 METAR MROC 211200Z 07007KT CAVOK 21/18 A2998 NOSIG=
202009211300 METAR MROC 211300Z 09007KT 030V140 CAVOK 23/18 A2999 NOSIG=
202009211400 METAR MROC 211400Z 07004KT 010V120 CAVOK 25/18 A3002 NOSIG=
202009211500 METAR MROC 211500Z 11008KT 060V150 CAVOK 26/18 A3002 NOSIG=
202009211600 METAR MROC 211600Z 11008KT 080V150 CAVOK 28/19 A3002 NOSIG=
202009211700 METAR MROC 211700Z 11005KT 070V160 CAVOK 28/19 A3000 BECMG 24009KT=
202009211800 METAR MROC 211800Z 24004KT 180V330 9999 BKN045 27/21 A2997 NOSIG=
202009211900 METAR MROC 211900Z 25011KT 9999 SCT045 26/22 A2995 NOSIG=
202009212000 METAR MROC 212000Z 24013KT 9999 VCTS SCT012 BKN025 26/23 A2993 NOSIG=
202009212100 METAR MROC 212100Z 25008KT 5000 TSRA FEW015CB FEW005 BKN020 23/22 A2994 NOSIG=
202009212200 METAR MROC 212200Z 18003KT 9999 3000SW -RA SCT005 BKN035 22/22 A2995 RETS NOSIG=
202009212300 METAR MROC 212300Z 24006KT 1500 BR SCT002 OVC010 22/21 A2998 NOSIG=
202009220000 METAR MROC 220000Z 26004KT 240V300 0500 FG VV001 21/21 A2999 NOSIG=
202009220100 METAR MROC 220100Z VRB02KT 5000 SCT001 21/21 A3000 NOSIG=
202009220200 METAR MROC 220200Z 24003KT 0200 FG SCT001 BKN010 21/20 A3003 NOSIG=
202009220300 METAR MROC 220300Z 24004KT 210V270 9999 BKN010 21/21 A3003 NOSIG=
202009220400 METAR MROC 220400Z VRB02KT 9999 SCT005 BKN045 21/21 A3003 NOSIG=
202009220500 METAR MROC 220500Z 11003KT 9999 BCFG SCT045 BKN200 21/21 A3002 NOSIG=
202009220600 METAR MROC 220600Z 04003KT 9999 BCFG FEW015 SCT045 BKN200 21/21 A3002 NOSIG=
202009220700 METAR MROC 220700Z 06003KT 030V100 9999 BKN045 21/21 A3000 NOSIG=
202009220800 METAR MROC 220800Z 06003KT 020V090 9999 FEW025 SCT045 BKN200 21/21 A2998 NOSIG=
202009220900 METAR MROC 220900Z 00000KT 9999 BCFG FEW025 SCT045 BKN200 20/20 A2998 NOSIG=
202009221000 METAR MROC 221000Z 08004KT 9999 BCFG NSC 20/20 A2998 NOSIG=
202009221100 METAR MROC 221100Z 04009KT 360V070 9999 BCFG NSC 20/19 A2999 NOSIG=
202009221200 METAR MROC 221200Z 07010KT 9999 BCFG FEW045 BKN200 21/18 A2998 NOSIG=
202009221300 METAR MROC 221300Z 08009KT CAVOK 22/19 A3000 NOSIG=
202009221400 METAR MROC 221400Z 11009KT 070V130 CAVOK 25/19 A3001 NOSIG=
202009221500 METAR MROC 221500Z 23006KT 200V270 CAVOK 25/20 A3001 NOSIG=
202009221600 METAR MROC 221600Z 24007KT 9999 SCT045 SCT060 26/21 A3002 NOSIG=
202009221700 METAR MROC 221700Z 25008KT 9999 BKN045 BKN080 25/21 A3001 NOSIG=
202009221800 METAR MROC 221800Z 23009KT 200V260 9999 BKN035 26/22 A2998 NOSIG=
202009221900 METAR MROC 221900Z 25008KT 9999 SCT015 BKN030 26/23 A2996 NOSIG=
202009222000 METAR MROC 222000Z 23006KT 190V260 9999 VCTS FEW020CB BKN035 26/22 A2993 TEMPO TSRA=
202009222100 METAR MROC 222100Z 21009KT 5000 +TSRA SCT010CB OVC015 22/22 A2994 NOSIG=
202009222200 METAR MROC 222200Z 24008KT 9999 -RA VCTS SCT005 OVC015 21/21 A2994 RETSRA NOSIG=
202009222300 METAR MROC 222300Z 30003KT 250V330 3000 -TSRA BR BKN002 OVC010 21/21 A2997 NOSIG=
202009230000 METAR MROC 230000Z VRB03KT 9999 -RA FEW005 BKN008 21/21 A3003 RETSRA NOSIG=
202009230100 METAR MROC 230100Z 05005KT 010V070 9999 SCT010 OVC100 21/21 A3000 NOSIG=
202009230200 METAR MROC 230200Z VRB02KT 9999 FEW045 BKN100 21/21 A3003 TEMPO 5000 BR=
202009230300 METAR MROC 230300Z VRB01KT 1200 BR BKN002 20/20 A3004 NOSIG=
202009230400 METAR MROC 230400Z 05003KT 9999 SCT005 20/20 A3004 NOSIG=
202009230500 METAR MROC 230500Z 05003KT 360V090 9999 FEW001 20/20 A3002 NOSIG=
202009230600 METAR MROC 230600Z 07006KT CAVOK 20/19 A3000 NOSIG=
202009230700 METAR MROC 230700Z 09007KT CAVOK 20/18 A2998 NOSIG=
202009230800 METAR MROC 230800Z 08008KT 050V110 CAVOK 22/18 A2996 NOSIG=
202009230900 METAR MROC 230900Z 08009KT CAVOK 21/18 A2995 NOSIG=
202009231000 METAR MROC 231000Z VRB02KT CAVOK 20/18 A2996 NOSIG=
202009231100 METAR MROC 231100Z 11004KT CAVOK 19/18 A2997 NOSIG=
202009231200 METAR MROC 231200Z 02004KT CAVOK 19/18 A2999 NOSIG=
202009231300 METAR MROC 231300Z VRB02KT CAVOK 23/18 A3002 BECMG 25006KT=
202009231400 METAR MROC 231400Z 23007KT CAVOK 23/20 A3000 NOSIG=
202009231500 METAR MROC 231500Z 27004KT 230V320 CAVOK 24/20 A3004 NOSIG=
202009231600 METAR MROC 231600Z 24006KT 140V290 9999 FEW045 BKN090 24/20 A3005 NOSIG=
202009231700 METAR MROC 231700Z 25009KT 9999 FEW030 BKN120 24/21 A3004 NOSIG=
202009231800 METAR MROC 231800Z 26007KT 220V310 9999 FEW030 26/21 A3001 NOSIG=
202009231900 METAR MROC 231900Z 22009KT 190V260 9999 FEW020 BKN030 25/21 A2998 NOSIG=
202009232000 METAR MROC 232000Z 23007KT 210V270 9999 VCSH SCT025TCU SCT025 26/20 A2995 NOSIG=
202009232100 METAR MROC 232100Z 11010KT 8000 -TSRA FEW010CB BKN020 23/20 A2996 TEMPO 3000 TSRA=
202009232200 METAR MROC 232200Z 17004KT 9999 -TSRA FEW025CB OVC100 20/20 A2998 NOSIG=
202009232300 METAR MROC 232300Z VRB02KT 9999 -RA SCT015 OVC100 20/20 A3000 NOSIG=
202009240000 METAR MROC 240000Z VRB02KT 9999 -RA SCT010 OVC100 21/21 A3002 NOSIG=
202009240100 METAR MROC 240100Z VRB01KT 8000 -RA SCT010 OVC100 20/20 A3005 TEMPO 5000 RA BR=
202009240200 METAR MROC 240200Z 00000KT 9999 -RA SCT010 OVC100 20/20 A3008 NOSIG=
202009240300 METAR MROC 240300Z 34002KT 9999 -RA FEW015 OVC100 20/20 A3007 NOSIG=
202009240400 METAR MROC 240400Z 19004KT 1500 0500SW BR BKN001 OVC005 20/20 A3008 TEMPO 0600 FG=
202009240500 METAR MROC 240500Z 32004KT 280V350 6000 2000SW BCFG SCT002 OVC010 20/20 A3009 NOSIG=
202009240600 METAR MROC 240600Z 34004KT 9999 FEW0005 BKN020 20/20 A3007 NOSIG=
202009240700 METAR MROC 240700Z 11002KT 9999 FEW007 20/20 A3002 NOSIG=
202009240800 METAR MROC 240800Z 07005KT CAVOK 19/19 A3000 NOSIG=
202009240900 METAR MROC 240900Z 05003KT 020V080 CAVOK 20/20 A2999 NOSIG=
202009241000 METAR MROC 241000Z 07004KT CAVOK 19/19 A3000 NOSIG=
202009241100 METAR MROC 241100Z VRB01KT CAVOK 19/19 A3001 NOSIG=
202009241200 METAR MROC 241200Z 12003KT CAVOK 19/19 A3003 NOSIG=
202009241300 METAR MROC 241300Z 09003KT 050V140 CAVOK 22/19 A3005 NOSIG=
202009241400 METAR MROC 241400Z 24005KT 200V270 9999 FEW020 22/20 A3007 NOSIG=
202009241500 METAR MROC 241500Z 25007KT 220V280 9999 FEW020 23/21 A3008 NOSIG=
202009241600 METAR MROC 241600Z 25008KT 210V290 9999 SCT025 24/22 A3009 NOSIG=
202009241700 METAR MROC 241700Z 26007KT 9999 BKN020 24/20 A3008 NOSIG=
202009241800 METAR MROC 241800Z 25007KT 9999 -RA VCSH VCTS FEW008 BKN015CB 23/21 A3005 NOSIG=
202009241900 METAR MROC 241900Z VRB05KT 9999 RA FEW008 SCT010CB BKN020 24/21 A3003 NOSIG=
202009242000 METAR MROC 242000Z 23009KT 190V250 5000 TSRA SCT008CB OVC008 21/21 A3002 TEMPO 3000=
202009242100 METAR MROC 242100Z 16003KT 130V190 1500 RA BR FEW003 SCT008 BKN020 20/20 A3004 RESHRA NOSIG=
202009242200 METAR MROC 242200Z 04006KT 020V080 5000 2000SW -RA BR FEW005 SCT015 BKN035 20/20 A3005 NOSIG=
202009242300 METAR MROC 242300Z 11003KT 9999 -RA FEW025 SCT050 BKN100 20/20 A3004 NOSIG=
202009250000 METAR MROC 250000Z 09004KT 9999 -RA VCTS FEW015CB OVC100 20/20 A3006 NOSIG=
202009250100 METAR MROC 250100Z 07004KT 9999 -RA NSC 20/20 A3010 NOSIG=
202009250200 METAR MROC 250200Z 09003KT 9999 -RA BCFG NSC 20/20 A3013 NOSIG=
202009250300 METAR MROC 250300Z 10003KT 9999 BCFG NSC 20/20 A3012 NOSIG=
202009250400 METAR MROC 250400Z 06004KT CAVOK 19/19 A3012 NOSIG=
202009250500 METAR MROC 250500Z 08004KT CAVOK 20/20 A3010 NOSIG=
202009250600 METAR MROC 250600Z 33003KT 1200 BR SCT001 BKN010 19/19 A3009 NOSIG=
202009250700 METAR MROC 250700Z VRB02KT 5000 BR SCT003 BKN010 19/19 A3007 NOSIG=
202009250800 METAR MROC 250800Z 00000KT 1000 BR SCT002 BKN008 19/19 A3006 NOSIG=
202009250900 METAR MROC 250900Z 11003KT 9999 FEW002 SCT020 19/19 A3005 NOSIG=
202009251000 METAR MROC 251000Z 04004KT CAVOK 19/19 A3005 NOSIG=
202009251100 METAR MROC 251100Z 06005KT CAVOK 19/19 A3005 NOSIG=
202009251200 METAR MROC 251200Z 07006KT CAVOK 19/19 A3007 NOSIG=
202009251300 METAR MROC 251300Z 08008KT CAVOK 21/19 A3008 NOSIG=
202009251400 METAR MROC 251400Z 09008KT 060V130 CAVOK 24/18 A3010 NOSIG=
202009251500 METAR MROC 251500Z 11008KT 070V150 CAVOK 26/18 A3010 NOSIG=
202009251600 METAR MROC 251600Z 12006KT 080V200 CAVOK 26/17 A3011 NOSIG=
202009251700 METAR MROC 251700Z 23007KT 9999 FEW045 BKN130 25/21 A3010 NOSIG=
202009251800 METAR MROC 251800Z 24009KT 220V280 9999 SCT045 BKN130 24/21 A3008 NOSIG=
202009251900 METAR MROC 251900Z 25008KT 9999 FEW010 BKN130 24/22 A3005 NOSIG=
202009252000 METAR MROC 252000Z 27006KT 230V310 9999 FEW015 BKN150 25/22 A3003 NOSIG=
202009252100 METAR MROC 252100Z 24007KT 9999 VCSH FEW015TCU SCT030 BKN150 25/22 A3001 NOSIG=
202009252200 METAR MROC 252200Z 16007KT 130V190 9999 1000S RA VCTS FEW008 SCT012CB BKN100 21/19 A3001 RETSRA NOSIG=
202009252300 METAR MROC 252300Z 28005KT 240V350 9999 FEW010 SCT040 BKN100 21/21 A3004 RETSRA NOSIG=
202009260000 METAR MROC 260000Z 13003KT 110V170 9999 BCFG FEW010 BKN100 21/21 A3006 NOSIG=
202009260100 METAR MROC 260100Z 09006KT 070V130 9999 -RA NSC 21/20 A3008 NOSIG=
202009260200 METAR MROC 260200Z 05003KT 360V080 9999 BCFG NSC 21/19 A3010 NOSIG=
202009260300 METAR MROC 260300Z 21004KT 8000 VCFG SCT002 BKN150 21/21 A3011 NOSIG=
202009260400 METAR MROC 260400Z 27003KT 4500 1500SW BR FEW001 BKN005 21/21 A3012 TEMPO 3000=
202009260500 METAR MROC 260500Z VRB02KT 9999 4000S FEW001 BKN008 20/20 A3011 NOSIG=
202009260600 METAR MROC 260600Z 08003KT 9999 -RA NSC 20/20 A3009 NOSIG=
202009260700 METAR MROC 260700Z VRB02KT CAVOK 20/20 A3008 NOSIG=
202009260800 METAR MROC 260800Z 05004KT CAVOK 20/20 A3005 NOSIG=
202009260900 METAR MROC 260900Z 05006KT CAVOK 20/19 A3004 NOSIG=
202009261000 METAR MROC 261000Z 05006KT CAVOK 20/18 A3004 NOSIG=
202009261100 METAR MROC 261100Z 04008KT CAVOK 20/18 A3005 NOSIG=
202009261200 METAR MROC 261200Z 04005KT 010V070 CAVOK 20/18 A3005 NOSIG=
202009261300 METAR MROC 261300Z 07005KT CAVOK 22/18 A3007 NOSIG=
202009261400 METAR MROC 261400Z 03004KT 360V070 CAVOK 23/19 A3007 NOSIG=
202009261500 METAR MROC 261500Z 12008KT 080V160 CAVOK 27/19 A3008 NOSIG=
202009261600 METAR MROC 261600Z 10010KT 070V140 CAVOK 27/18 A3008 NOSIG=
202009261700 METAR MROC 261700Z 09010KT 070V130 9999 FEW045 28/18 A3006 NOSIG=
202009261800 METAR MROC 261800Z 12010KT 090V160 9999 FEW040 27/18 A3002 NOSIG=
202009261900 METAR MROC 261900Z 13009KT 080V200 9999 FEW015TCU 28/19 A3000 NOSIG=
202009262000 METAR MROC 262000Z 14008KT 100V200 9999 FEW015TCU SCT030 28/18 A2998 NOSIG=
202009262100 METAR MROC 262100Z 25013KT 9999 -TSRA VCSH FEW012CB SCT025 BKN100 22/19 A2999 TEMPO 5000=
202009262200 METAR MROC 262200Z 23005KT 190V260 9999 -RA FEW015 SCT040 BKN100 21/19 A3000 NOSIG=
202009262300 METAR MROC 262300Z 36005KT 9999 -RA FEW012 SCT035 BKN100 22/19 A3002 NOSIG=
202009270000 METAR MROC 270000Z 25003KT 190V300 9999 VCFG FEW025 SCT060 BKN130 21/20 A3003 NOSIG=
202009270100 METAR MROC 270100Z 12002KT 9999 FEW015 OVC150 20/20 A3004 NOSIG=
202009270200 METAR MROC 270200Z 14002KT CAVOK 21/21 A3005 NOSIG=
202009270300 METAR MROC 270300Z 01003KT CAVOK 20/20 A3006 NOSIG=
202009270400 METAR MROC 270400Z 08004KT CAVOK 20/20 A3005 NOSIG=
202009270500 METAR MROC 270500Z 03003KT 350V050 CAVOK 19/19 A3004 NOSIG=
202009270600 METAR MROC 270600Z 09004KT CAVOK 19/19 A3002 NOSIG=
202009270700 METAR MROC 270700Z 05006KT CAVOK 20/18 A3001 NOSIG=
202009270800 METAR MROC 270800Z 03006KT CAVOK 20/18 A2999 NOSIG=
202009270900 METAR MROC 270900Z 04007KT CAVOK 20/18 A2997 NOSIG=
202009271000 METAR MROC 271000Z 05005KT 020V080 CAVOK 21/18 A2996 NOSIG=
202009271100 METAR MROC 271100Z 02004KT 350V060 CAVOK 21/18 A2998 NOSIG=
202009271200 METAR MROC 271200Z 29003KT 250V320 CAVOK 19/18 A3002 NOSIG=
202009271300 METAR MROC 271300Z VRB02KT CAVOK 22/18 A3003 NOSIG=
202009271400 METAR MROC 271400Z VRB02KT CAVOK 23/18 A3005 NOSIG=
202009271500 METAR MROC 271500Z VRB04KT 9999 SCT040 25/20 A3006 NOSIG=
202009271600 METAR MROC 271600Z 24004KT 210V310 9999 BKN040 25/19 A3006 NOSIG=
202009271700 METAR MROC 271700Z 25007KT 220V290 9999 SCT040 27/21 A3003 NOSIG=
202009271800 METAR MROC 271800Z 23008KT 190V260 9999 SCT035 BKN250 27/21 A3000 NOSIG=
202009271900 METAR MROC 271900Z 25010KT 220V280 9999 -RA VCTS FEW020CB BKN035 27/22 A2996 BECMG TSRA=
202009272000 METAR MROC 272000Z 35013G23KT 310V030 3000 TSRA SCT015CB BKN030 21/20 A2994 NOSIG=
202009272100 METAR MROC 272100Z 12004KT 9999 4500SW -RA VCTS FEW010CB SCT050 BKN100 20/19 A2993 RETSRA NOSIG=
202009272200 METAR MROC 272200Z 22003KT 140V270 9999 -RA NSC 20/19 A2994 NOSIG=
202009272300 METAR MROC 272300Z 04004KT 010V070 9999 -RA NSC 21/20 A2993 NOSIG=
202009280000 METAR MROC 280000Z 06006KT 9999 -RA BCFG NSC 21/18 A2994 NOSIG=
202009280100 METAR MROC 280100Z 14004KT 9999 -RA NSC 20/19 A2998 NOSIG=
202009280200 METAR MROC 280200Z VRB02KT 9999 -RA NSC 19/18 A3001 NOSIG=
202009280300 METAR MROC 280300Z VRB02KT CAVOK 20/19 A3001 NOSIG=
202009280400 METAR MROC 280400Z VRB01KT CAVOK 20/19 A3002 NOSIG=
202009280500 METAR MROC 280500Z 14004KT 100V160 CAVOK 19/18 A3000 NOSIG=
202009280600 METAR MROC 280600Z 09004KT CAVOK 19/18 A2998 NOSIG=
202009280700 METAR MROC 280700Z 05004KT CAVOK 19/17 A2993 NOSIG=
202009280800 METAR MROC 280800Z 06006KT CAVOK 18/17 A2991 NOSIG=
202009280900 METAR MROC 280900Z 06005KT CAVOK 18/16 A2990 NOSIG=
202009281000 METAR MROC 281000Z 06007KT CAVOK 19/15 A2990 NOSIG=
202009281100 METAR MROC 281100Z 06008KT CAVOK 19/15 A2992 NOSIG=
202009281200 METAR MROC 281200Z 07006KT 050V110 CAVOK 20/15 A2994 NOSIG=
202009281300 METAR MROC 281300Z 11011KT CAVOK 22/16 A2996 NOSIG=
202009281400 METAR MROC 281400Z 12010KT 090V150 CAVOK 24/17 A2997 NOSIG=
202009281500 METAR MROC 281500Z 12010KT 080V150 CAVOK 25/17 A2998 NOSIG=
202009281600 METAR MROC 281600Z 11009KT 080V140 CAVOK 27/17 A2998 NOSIG=
202009281700 METAR MROC 281700Z 12008KT 070V190 CAVOK 28/17 A2996 NOSIG=
202009281800 METAR MROC 281800Z 15007KT 090V200 CAVOK 28/17 A2992 BECMG 25007KT=
202009281900 METAR MROC 281900Z 26010KT 9999 SCT040 26/22 A2989 NOSIG=
202009282000 METAR MROC 282000Z 25012KT 210V270 9999 SCT030 25/21 A2985 NOSIG=
202009282100 METAR MROC 282100Z 25009KT 9999 2000SW TSRA BKN010CB 21/21 A2986 NOSIG=
202009282200 METAR MROC 282200Z 27004KT 210V340 6000 -RA VCTS FEW005 SCT010 BKN100 20/20 A2987 NOSIG=
202009282300 METAR MROC 282300Z 00000KT 9999 VCFG FEW002 SCT030 BKN100 20/20 A2989 NOSIG=
202009290000 METAR MROC 290000Z VRB02KT 9999 VCFG FEW010 BKN020 20/20 A2993 TEMPO RA=
202009290100 METAR MROC 290100Z 34004KT 9999 FEW006 OVC020 21/20 A2997 NOSIG=
202009290200 METAR MROC 290200Z COR 31003KT 9999 -RA VCFG FEW004 BKN040 20/20 A3000 NOSIG=
202009290300 METAR MROC 290300Z 10003KT 9999 VCFG FEW004 20/20 A2998 NOSIG=
202009290400 METAR MROC 290400Z COR 19003KT 6000 0500SW BCFG BKN001 20/20 A2998 NOSIG=
202009290500 METAR MROC 290500Z VRB02KT 9999 3000SW BCFG FEW004 BKN140 20/20 A2998 NOSIG=
202009290600 METAR MROC 290600Z VRB02KT 5000 0500S BR SCT002 BKN140 20/20 A2996 NOSIG=
202009290700 METAR MROC 290700Z 08005KT 9999 FEW002 SCT120 20/18 A2993 NOSIG=
202009290800 METAR MROC 290800Z 07008KT 9999 FEW030 SCT130 20/18 A2990 NOSIG=
202009290900 METAR MROC 290900Z 07006KT CAVOK 20/17 A2989 NOSIG=
202009291000 METAR MROC 291000Z 04004KT 360V080 CAVOK 19/17 A2991 NOSIG=
202009291100 METAR MROC 291100Z 03006KT 360V070 CAVOK 20/17 A2993 NOSIG=
202009291200 METAR MROC 291200Z 09004KT 070V130 CAVOK 20/17 A2995 NOSIG=
202009291300 METAR MROC 291300Z 09004KT 040V140 CAVOK 22/18 A2996 NOSIG=
202009291400 METAR MROC 291400Z 13006KT 090V190 CAVOK 24/18 A2998 NOSIG=
202009291500 METAR MROC 291500Z 15012KT 100V190 CAVOK 27/17 A2998 BECMG 25005KT=
202009291600 METAR MROC 291600Z 12005KT CAVOK 28/18 A2998 NOSIG=
202009291700 METAR MROC 291700Z 24011KT 9999 FEW045 SCT120 BKN200 25/21 A2997 NOSIG=
202009291800 METAR MROC 291800Z 24008KT 210V290 9999 FEW025 SCT040 BKN120 25/22 A2995 NOSIG=
202009291900 METAR MROC 291900Z 25011KT 9999 FEW020 SCT035 BKN120 26/22 A2992 NOSIG=
202009292000 METAR MROC 292000Z 24009KT 210V280 9999 4000NE -TSRA SCT015CB BKN025 24/21 A2991 BECMG 5000=
202009292100 METAR MROC 292100Z 02004KT 330V050 9999 4500SW -RA FEW006 SCT020 BKN140 20/20 A2991 RESHRA NOSIG=
202009292200 METAR MROC 292200Z VRB02KT 9999 -RA VCTS FEW003 BKN100 21/20 A2991 NOSIG=
202009292300 METAR MROC 292300Z 00000KT 9999 FEW010 OVC020 21/21 A2994 NOSIG=
202009300000 METAR MROC 300000Z VRB02KT 9999 FEW015 OVC030 21/23 A2997 NOSIG=
202009300100 METAR MROC 300100Z VRB02KT 9999 BKN015 21/21 A2999 NOSIG=
202009300200 METAR MROC 300200Z VRB02KT 9999 BKN040 21/21 A3002 NOSIG=
202009300300 METAR MROC 300300Z VRB02KT 9999 BKN030 21/21 A3004 NOSIG=
202009300400 METAR MROC 300400Z 04004KT CAVOK 21/21 A3005 NOSIG=
202009300500 METAR MROC 300500Z VRB02KT CAVOK 20/20 A3004 NOSIG=
202009300600 METAR MROC 300600Z 04004KT CAVOK 20/19 A3003 NOSIG=
202009300700 METAR MROC 300700Z 14003KT CAVOK 19/19 A3001 NOSIG=
202009300800 METAR MROC 300800Z 05002KT CAVOK 19/19 A2999 NOSIG=
202009300900 METAR MROC 300900Z 09004KT CAVOK 19/19 A2997 NOSIG=
202009301000 METAR MROC 301000Z 06004KT CAVOK 19/19 A2999 NOSIG=
202009301100 METAR MROC 301100Z 06006KT CAVOK 19/18 A2999 NOSIG=
202009301200 METAR MROC 301200Z 08006KT CAVOK 19/18 A2999 NOSIG=
202009301300 METAR MROC 301300Z 05006KT 350V100 CAVOK 22/18 A2999 NOSIG=
202009301400 METAR MROC 301400Z 11006KT 9999 FEW040 SCT200 25/18 A3002 NOSIG=
202009301500 METAR MROC 301500Z 14007KT 100V190 9999 FEW040 SCT200 26/18 A3003 NOSIG=
202009301600 METAR MROC 301600Z 35006KT 9999 SCT030 30/22 A2989=
202009301700 METAR MROC 301700Z 20006KT 9999 FEW040 SCT100 27/17 A3000 NOSIG=
202009301800 METAR MROC 301800Z 23006KT 150V310 9999 FEW040 SCT070 27/21 A2998 NOSIG=
202009301900 METAR MROC 301900Z 24015KT 9999 VCTS FEW020CB SCT030 BKN045 25/21 A2994 BECMG TSRA=
202009302000 METAR MROC 302000Z 25009KT 220V300 9999 SCT015 BKN035 24/21 A2993 NOSIG=
202009302100 METAR MROC 302100Z 34006KT 310V020 9999 TS FEW015CB BKN040 24/20 A2992 NOSIG=
202009302200 METAR MROC 302200Z 13005KT 9999 -RA VCTS FEW020CB SCT045 OVC100 20/19 A2994 RETS NOSIG=
202009302300 METAR MROC 302300Z 09004KT 060V120 9999 -RA FEW045 OVC100 21/1 A2995 NOSIG=
202010010000 METAR MROC 010000Z 32004KT 290V040 CAVOK 21/20 A2998 NOSIG=
202010010100 METAR MROC 010100Z 22003KT 180V270 CAVOK 20/20 A2999 NOSIG=
202010010200 METAR MROC 010200Z 01003KT 310V050 CAVOK 20/20 A2999 NOSIG=
202010010300 METAR MROC 010300Z 16004KT 130V190 CAVOK 20/20 A3001 NOSIG=
202010010400 METAR MROC 010400Z VRB02KT CAVOK 20/20 A3002 NOSIG=
202010010500 METAR MROC 010500Z 24004KT 9999 FEW015 19/19 A3002 NOSIG=
202010010600 METAR MROC 010600Z 05002KT 9999 FEW012 OVC020 19/19 A3000 NOSIG=
202010010700 METAR MROC 010700Z COR 13003KT 9999 BKN020 19/19 A2997 NOSIG=
202010010800 METAR MROC 010800Z 09004KT 9999 SCT012 19/19 A2996 NOSIG=
202010010900 METAR MROC 010900Z 09004KT CAVOK 19/19 A2995 NOSIG=
202010011000 METAR MROC 011000Z 09004KT CAVOK 19/18 A2995 NOSIG=
202010011100 METAR MROC 011100Z 04006KT CAVOK 19/18 A2995 NOSIG=
202010011200 METAR MROC 011200Z 05008KT CAVOK 19/17 A2996 NOSIG=
202010011300 METAR MROC 011300Z 09004KT CAVOK 21/17 A2998 NOSIG=
202010011400 METAR MROC 011400Z VRB02KT CAVOK 25/18 A3000 NOSIG=
202010011500 METAR MROC 011500Z VRB03KT 9999 FEW040 BKN200 26/18 A3001 NOSIG=
202010011600 METAR MROC 011600Z VRB05KT 9999 FEW030 BKN200 25/19 A3000 BECMG 24008KT=
202010011700 METAR MROC 011700Z 26006KT 220V300 9999 FEW030 OVC180 26/19 A2998 NOSIG=
202010011800 METAR MROC 011800Z 22009KT 200V260 9999 FEW030 OVC180 26/20 A2995 NOSIG=
202010011900 METAR MROC 011900Z 25010KT 9999 FEW020 OVC150 25/21 A2992 BECMG SHRA=
202010012000 METAR MROC 012000Z 24011KT 9999 SHRA VCTS FEW015CB BKN045 24/21 A2991 BECMG TSRA=
202010012100 METAR MROC 012100Z 24009KT 220V280 9999 -RA VCSH FEW010 FEW015TCU BKN030 23/20 A2991 NOSIG=
202010012200 METAR MROC 012200Z 25007KT 9999 FEW015 SCT030 23/20 A2991 NOSIG=
202010012300 METAR MROC 012300Z 26007KT 9999 FEW008 SCT020 21/20 A2993 NOSIG=
202010020000 METAR MROC 020000Z 26004KT 9999 VCFG FEW006 SCT030 21/21 A2995 NOSIG=
202010020100 METAR MROC 020100Z 31003KT 270V340 9999 FEW007 SCT100 22/21 A2996 NOSIG=
202010020200 METAR MROC 020200Z VRB02KT 9000 VCFG FEW004 BKN035 21/21 A2999 NOSIG=
202010020300 METAR MROC 020300Z 26003KT 9999 FEW001 BKN025 21/21 A3001 NOSIG=
202010020400 METAR MROC 020400Z 26003KT 240V300 8000 VCFG SCT005 BKN100 21/21 A3001 NOSIG=
202010020500 METAR MROC 020500Z VRB02KT 9999 BCFG FEW005 SCT100 21/21 A2999 NOSIG=
202010020600 METAR MROC 020600Z 00000KT 9999 BCFG SCT005 20/20 A2996 NOSIG=
202010020700 METAR MROC 020700Z VRB02KT 9999 BCFG FEW010 20/20 A2995 NOSIG=
202010020800 METAR MROC 020800Z VRB02KT 9999 BCFG NSC 20/20 A2993 NOSIG=
202010020900 METAR MROC 020900Z 08004KT CAVOK 19/19 A2991 NOSIG=
202010021000 METAR MROC 021000Z 09005KT CAVOK 19/19 A2991 NOSIG=
202010021100 METAR MROC 021100Z 07002KT CAVOK 18/18 A2992 NOSIG=
202010021200 METAR MROC 021200Z 08004KT CAVOK 19/19 A2993 NOSIG=
202010021300 METAR MROC 021300Z 08004KT CAVOK 21/19 A2996 NOSIG=
202010021400 METAR MROC 021400Z VRB02KT 9999 FEW035 BKN200 24/19 A2998 BECMG 25005KT=
202010021500 METAR MROC 021500Z 25003KT 9999 FEW025 BKN200 24/19 A2999 NOSIG=
202010021600 METAR MROC 021600Z 23006KT 180V280 9999 FEW025 BKN180 25/20 A2998 NOSIG=
202010021700 METAR MROC 021700Z 24005KT 200V280 9999 FEW030 BKN180 26/19 A2996 NOSIG=
202010021800 METAR MROC 021800Z 26007KT 230V300 9999 FEW025 BKN180 26/20 A2992 NOSIG=
202010021900 METAR MROC 021900Z 24011KT 210V270 9999 FEW020 SCT050 26/21 A2990 BECMG TSRA=
202010022000 METAR MROC 022000Z 24011KT 210V270 9999 4000SW SHRA FEW012TCU BKN020 24/21 A2988 TEMPO 5000=
202010022100 METAR MROC 022100Z COR 21005KT 180V240 9999 -RA VCTS FEW010CB SCT012 BKN060 22/21 A2988 NOSIG=
202010022200 METAR MROC 022200Z 26007KT 8000 -RA VCFG SCT003 BKN020 21/21 A2988 TEMPO 3000 BR=
202010022300 METAR MROC 022300Z 27005KT 9999 -RA FEW005 BKN025 21/21 A2990 NOSIG=
202010030000 METAR MROC 030000Z 31004KT 9999 -RA SCT006 BKN035 21/21 A2993 NOSIG=
202010030100 METAR MROC 030100Z VRB03KT 9999 -RA SCT010 BKN070 21/21 A2996 NOSIG=
202010030200 METAR MROC 030200Z 30004KT 9999 -RA FEW010 BKN060 21/21 A2999 NOSIG=
202010030300 METAR MROC 030300Z 33003KT 300V080 9999 -RA FEW007 BKN070 20/20 A3001 NOSIG=
202010030400 METAR MROC 030400Z VRB02KT 9999 -RA SCT005 BKN015 20/20 A3001 NOSIG=
202010030500 METAR MROC 030500Z 25002KT 9999 -DZ BCFG FEW001 BKN090 20/20 A3000 NOSIG=
202010030600 METAR MROC 030600Z 27002KT 9999 BCFG FEW001 SCT100 20/20 A2998 NOSIG=
202010030700 METAR MROC 030700Z 32003KT 9999 FEW001 SCT040 20/20 A2995 NOSIG=
202010030800 METAR MROC 030800Z VRB02KT 9999 FEW001 20/20 A2992 NOSIG=
202010030900 METAR MROC 030900Z VRB01KT 9999 FEW001 20/20 A2991 NOSIG=
202010031000 METAR MROC 031000Z VRB02KT 9999 FEW001 19/19 A2991 NOSIG=
202010031100 METAR MROC 031100Z 06002KT 9999 BKN040 19/19 A2993 NOSIG=
202010031200 METAR MROC 031200Z 08003KT 9999 FEW040 SCT100 20/20 A2995 NOSIG=
202010031300 METAR MROC 031300Z 08003KT CAVOK 21/20 A2997 NOSIG=
202010031400 METAR MROC 031400Z VRB01KT CAVOK 24/18 A2998 BECMG 25007KT=
202010031500 METAR MROC 031500Z 24007KT 210V270 9999 FEW020 BKN120 24/19 A3000 NOSIG=
202010031600 METAR MROC 031600Z 23007KT 9999 FEW040 SCT100 25/19 A3000 NOSIG=
202010031700 METAR MROC 031700Z 23009KT 200V260 9999 -DZ FEW030 BKN140 24/20 A2999 NOSIG=
202010031800 METAR MROC 031800Z 31005KT 270V350 9999 BKN040 24/20 A2997 TEMPO RA=
202010031900 METAR MROC 031900Z 22006KT 9999 4500SW DZ FEW020 BKN040 24/19 A2994 NOSIG=
202010032000 METAR MROC 032000Z 29006KT 230V330 9999 VCDZ BKN020 25/20 A2991 NOSIG=
202010032100 METAR MROC 032100Z 27007KT 9999 BKN030 23/21 A2990 NOSIG=
202010032200 METAR MROC 032200Z 22010KT 9999 -RA FEW015 BKN025 22/21 A2992 TEMPO RA=
202010032300 METAR MROC 032300Z 26005KT 9999 -RA BKN025 21/21 A2993 NOSIG=
202010040000 METAR MROC 040000Z 24006KT 9999 -RA SCT008 BKN020 20/20 A2996 NOSIG=
202010040100 METAR MROC 040100Z 24006KT 9999 RA SCT006 BKN020 20/20 A3001 NOSIG=
202010040200 METAR MROC 040200Z 24003KT 200V290 9999 -RA SCT005 BKN015 20/20 A3003 NOSIG=
202010040300 METAR MROC 040300Z VRB02KT 9999 -RA SCT005 BKN015 20/20 A3006 NOSIG=
202010040400 METAR MROC 040400Z 13003KT 9999 -RA FEW010 SCT025 BKN090 20/20 A3006 NOSIG=
202010040500 METAR MROC 040500Z 14002KT 9999 -RA SCT030 BKN100 20/20 A3005 NOSIG=
202010040600 METAR MROC 040600Z 07004KT 9999 FEW030 BKN130 20/20 A3003 NOSIG=
202010040700 METAR MROC 040700Z 09004KT CAVOK 20/20 A3000 NOSIG=
202010040800 METAR MROC 040800Z VRB01KT 9999 FEW035 BKN130 19/19 A2999 NOSIG=
202010040900 METAR MROC 040900Z 09005KT CAVOK 19/19 A3000 NOSIG=
202010041000 METAR MROC 041000Z 08004KT CAVOK 19/19 A2999 NOSIG=
202010041100 METAR MROC 041100Z 09004KT CAVOK 20/19 A3000 NOSIG=
202010041200 METAR MROC 041200Z COR 07005KT 9999 -DZ NSC 20/19 A3001 NOSIG=
202010041300 METAR MROC 041300Z 09005KT 360V120 9999 -RA NSC 22/19 A3002 NOSIG=
202010041400 METAR MROC 041400Z 10005KT 9999 -RA NSC 23/19 A3003 NOSIG=
202010041500 METAR MROC 041500Z 15003KT 120V180 CAVOK 25/18 A3004 BECMG 25007KT=
202010041600 METAR MROC 041600Z 24005KT CAVOK 25/20 A3003 NOSIG=
202010041700 METAR MROC 041700Z 26010KT 9999 FEW035 SCT140 24/20 A3003 NOSIG=
202010041800 METAR MROC 041800Z 23009KT 9999 FEW030 25/20 A3001 NOSIG=
202010041900 METAR MROC 041900Z 25007KT 9999 FEW040 26/17 A2997 NOSIG=
202010042000 METAR MROC 042000Z 25009KT 220V290 9999 FEW030 26/20 A2996 NOSIG=
202010042100 METAR MROC 042100Z 25013KT 220V280 9999 FEW015 SCT025TCU 24/21 A2994 NOSIG=
202010042200 METAR MROC 042200Z 25007KT 210V280 3000 1200SW -RA BR SCT001 BKN005 21/21 A2994 NOSIG=
202010042300 METAR MROC 042300Z 24006KT 1200 BR OVC005 20/20 A2996 NOSIG=
202010050000 METAR MROC 050000Z 20003KT 160V230 9999 BCFG SCT002 BKN005 21/21 A2998 NOSIG=
202010050100 METAR MROC 050100Z 27004KT 9999 BCFG SCT005 BKN010 21/21 A3002 NOSIG=
202010050200 METAR MROC 050200Z 10003KT 020V120 9999 FEW015 SCT100 21/21 A3002 NOSIG=
202010050300 METAR MROC 050300Z 07003KT CAVOK 21/21 A3003 NOSIG=
202010050400 METAR MROC 050400Z 25003KT 8000 VCFG SCT003 BKN015 21/21 A3003 TEMPO 5000 BR=
202010050500 METAR MROC 050500Z VRB02KT 2000 BR SCT002 BKN008 20/20 A3003 NOSIG=
202010050600 METAR MROC 050600Z 19003KT 2000 BR SCT002 BKN010 20/20 A3002 NOSIG=
202010050700 METAR MROC 050700Z 11003KT 9999 SCT015 BKN100 20/20 A2998 NOSIG=
202010050800 METAR MROC 050800Z 30003KT 9999 FEW010 SCT110 20/20 A2998 NOSIG=
202010050900 METAR MROC 050900Z 00000KT 9999 BKN010 20/20 A2998 NOSIG=
202010051000 METAR MROC 051000Z 14002KT 9999 FEW020 BKN030 20/20 A2998 NOSIG=
202010051100 METAR MROC 051100Z 12003KT 9999 FEW030 SCT120 20/20 A2999 NOSIG=
202010051200 METAR MROC 051200Z 07004KT CAVOK 20/20 A3001 NOSIG=
202010051300 METAR MROC 051300Z VRB02KT CAVOK 23/20 A3002 NOSIG=
202010051400 METAR MROC 051400Z VRB02KT CAVOK 24/20 A3003 NOSIG=
202010051500 METAR MROC 051500Z 26003KT 9999 SCT030 25/19 A3003 NOSIG=
202010051600 METAR MROC 051600Z 25006KT 200V280 9999 FEW025 BKN120 25/19 A3003 NOSIG=
202010051700 METAR MROC 051700Z 25009KT 220V280 9999 FEW020 SCT120 26/22 A3001 NOSIG=
202010051800 METAR MROC 051800Z 26011KT 230V290 9999 -RA SCT015 BKN110 24/20 A2999 NOSIG=
202010051900 METAR MROC 051900Z 32008KT 280V340 9999 RA SCT015 BKN110 22/22 A2997 NOSIG=
202010052000 METAR MROC 052000Z 30008KT 270V330 3000 RA FEW010 SCT030 BKN100 21/21 A2995 NOSIG=
202010052100 METAR MROC 052100Z VRB02KT 9999 FEW005 SCT015 BKN045 22/22 A2995 RERA NOSIG=
202010052200 METAR MROC 052200Z 00000KT 9999 BCFG SCT010 BKN015 21/21 A2996 BECMG BKN010=
202010052300 METAR MROC 052300Z 23004KT 190V260 2000 -RA BR SCT002 BKN010 21/21 A2997 NOSIG=
202010060000 METAR MROC 060000Z 26004KT 9999 -RA BCFG SCT002 BKN010 21/21 A2999 NOSIG=
202010060100 METAR MROC 060100Z 00000KT 9999 -RA BCFG FEW002 SCT010 BKN025 21/21 A3000 NOSIG=
202010060200 METAR MROC 060200Z 07005KT CAVOK 21/21 A3001 NOSIG=
202010060300 METAR MROC 060300Z 22003KT 9999 BCFG NSC 20/20 A3002 NOSIG=
202010060400 METAR MROC 060400Z VRB02KT 0500 R07/1100U FG OVC002 20/20 A3001 NOSIG=
202010060500 METAR MROC 060500Z VRB02KT 2000 BR SCT002 OVC003 20/20 A3000 NOSIG=
202010060600 METAR MROC 060600Z 09003KT 9999 BCFG FEW003 SCT010 BKN020 20/20 A2997 NOSIG=
202010060700 METAR MROC 060700Z 07004KT CAVOK 20/20 A2995 NOSIG=
202010060800 METAR MROC 060800Z 01003KT 9999 FEW003 BKN120 20/20 A2993 NOSIG=
202010060900 METAR MROC 060900Z 00000KT 9999 FEW003 19/19 A2993 NOSIG=
202010061000 METAR MROC 061000Z VRB01KT 9999 FEW005 19/19 A2994 NOSIG=
202010061100 METAR MROC 061100Z 03002KT CAVOK 19/19 A2995 NOSIG=
202010061200 METAR MROC 061200Z 09003KT CAVOK 18/18 A2997 NOSIG=
202010061300 METAR MROC 061300Z 10004KT CAVOK 20/19 A2999 NOSIG=
202010061400 METAR MROC 061400Z VRB02KT CAVOK 24/18 A3000 NOSIG=
202010061500 METAR MROC 061500Z 25004KT 210V280 9999 FEW030 BKN250 25/18 A3002 NOSIG=
202010061600 METAR MROC 061600Z 24008KT 200V280 9999 FEW020 BKN200 25/20 A3002 NOSIG=
202010061700 METAR MROC 061700Z 25009KT 9999 SCT020 BKN100 24/21 A3001 NOSIG=
202010061800 METAR MROC 061800Z 24005KT 220V290 9999 -RA SCT015 BKN050 22/21 A2997 NOSIG=
202010061900 METAR MROC 061900Z 22004KT 170V270 9999 FEW010 BKN180 24/21 A2991 NOSIG=
202010062000 METAR MROC 062000Z 25010KT 9999 BKN025 24/21 A2992 NOSIG=
202010062100 METAR MROC 062100Z 24009KT 9999 VCSH FEW015TCU SCT020 BKN100 23/20 A2992 TEMPO RA=
202010062200 METAR MROC 062200Z 23002KT 170V270 9999 FEW013 BKN200 23/20 A2992 NOSIG=
202010062300 METAR MROC 062300Z 25006KT 9999 VCFG FEW010 SCT060 BKN180 22/21 A2995 NOSIG=
202010070000 METAR MROC 070000Z 28004KT 9999 VCFG FEW006 SCT080 BKN180 21/21 A2996 NOSIG=
202010070100 METAR MROC 070100Z VRB02KT 9999 4800E BCFG FEW002 SCT010 BKN180 20/20 A2999 NOSIG=
202010070200 METAR MROC 070200Z 28002KT 8000 2000SW BCFG SCT002 BKN006 20/20 A3002 NOSIG=
202010070300 METAR MROC 070300Z VRB02KT 9999 VCFG FEW005 SCT130 BKN250 20/20 A3002 NOSIG=
202010070400 METAR MROC 070400Z 12003KT 9999 BCFG NSC 20/20 A3002 NOSIG=
202010070500 METAR MROC 070500Z 29003KT 5000 2000SW BR SCT002 BKN150 20/20 A3003 NOSIG=
202010070600 METAR MROC 070600Z 27003KT 5000 2000SW BR FEW001 SCT010 BKN020 20/20 A3001 NOSIG=
202010070700 METAR MROC 070700Z 25003KT 8000 3000SW VCFG FEW001 SCT005 BKN010 20/20 A2999 NOSIG=
202010070800 METAR MROC 070800Z 21003KT 8000 2000SW VCFG SCT003 BKN008 20/20 A2997 NOSIG=
202010070900 METAR MROC 070900Z 00000KT 9999 3000SW -DZ BCFG FEW005 SCT015 BKN025 20/20 A2997 NOSIG=
202010071000 METAR MROC 071000Z 11003KT 9999 FEW007 BKN120 20/20 A2997 NOSIG=
202010071100 METAR MROC 071100Z 06003KT CAVOK 21/21 A2998 NOSIG=
202010071200 METAR MROC 071200Z VRB02KT CAVOK 21/20 A3000 NOSIG=
202010071300 METAR MROC 071300Z VRB02KT CAVOK 21/21 A3001 NOSIG=
202010071400 METAR MROC 071400Z VRB01KT CAVOK 22/20 A3003 NOSIG=
202010071500 METAR MROC 071500Z VRB02KT CAVOK 24/19 A3004 NOSIG=
202010071600 METAR MROC 071600Z 24008KT 9999 SCT045 BKN120 24/21 A3005 NOSIG=
202010071700 METAR MROC 071700Z 27006KT 220V320 9999 SCT025 BKN130 25/20 A3002 NOSIG=
202010071800 METAR MROC 071800Z 25010KT 9999 SCT020 BKN130 24/21 A3000 TEMPO RA=
202010071900 METAR MROC 071900Z 26009KT 9999 BKN010 23/21 A2997 NOSIG=
202010072000 METAR MROC 072000Z 24008KT 9999 FEW010 SCT025 BKN160 23/21 A2995 NOSIG=
202010072100 METAR MROC 072100Z 22006KT 150V270 7000 -RA SCT005 OVC010 21/21 A2996 NOSIG=
202010072200 METAR MROC 072200Z 11003KT 5000 -RA FEW005 SCT010 OVC030 20/20 A2998 NOSIG=
202010072300 METAR MROC 072300Z VRB01KT 5000 -RA FEW005 BKN020 OVC030 20/20 A2999 NOSIG=
202010080000 METAR MROC 080000Z 26003KT 230V310 5000 -RA SCT004 BKN010 OVC025 20/20 A3001 NOSIG=
202010080100 METAR MROC 080100Z 32005KT 5000 -RA FEW003 SCT005 OVC010 20/20 A3004 NOSIG=
202010080200 METAR MROC 080200Z 04004KT 010V070 8000 -RA SCT020 BKN030 20/20 A3006 NOSIG=
202010080300 METAR MROC 080300Z 11004KT 9999 -RA SCT015 20/20 A3007 NOSIG=
202010080400 METAR MROC 080400Z 08004KT 9999 -RA NSC 20/20 A3007 NOSIG=
202010080500 METAR MROC 080500Z 07006KT CAVOK 20/20 A3006 NOSIG=
202010080600 METAR MROC 080600Z 10003KT CAVOK 20/20 A3005 NOSIG=
202010080700 METAR MROC 080700Z VRB02KT 9999 4000SW BCFG FEW002 BKN140 19/19 A3004 NOSIG=
202010080800 METAR MROC 080800Z VRB01KT 9999 3000SW BCFG SCT001 BKN180 19/19 A3003 NOSIG=
202010080900 METAR MROC 080900Z 12003KT CAVOK 19/19 A3001 NOSIG=
202010081000 METAR MROC 081000Z VRB02KT 5000 BR SCT001 BKN030 19/19 A3000 NOSIG=
202010081100 METAR MROC 081100Z 08006KT CAVOK 19/19 A2999 NOSIG=
202010081200 METAR MROC 081200Z 08007KT CAVOK 20/20 A3000 NOSIG=
202010081300 METAR MROC 081300Z 08005KT CAVOK 23/19 A3004 NOSIG=
202010081400 METAR MROC 081400Z 23006KT CAVOK 23/19 A3006 NOSIG=
202010081500 METAR MROC 081500Z 24006KT 200V270 CAVOK 23/20 A3007 NOSIG=
202010081600 METAR MROC 081600Z 24006KT 200V270 9999 FEW030 25/20 A3007 NOSIG=
202010081700 METAR MROC 081700Z 25009KT 220V280 9999 SCT030 26/20 A3005 NOSIG=
202010081800 METAR MROC 081800Z 23010KT 190V250 9999 FEW015 SCT030 25/21 A3001 NOSIG=
202010081900 METAR MROC 081900Z 22007KT 9999 SCT010TCU BKN020 23/21 A3000 TEMPO TSRA FEW010CB=
202010082000 METAR MROC 082000Z 22008KT 170V240 9999 -RA SCT010 BKN020 22/21 A2998 NOSIG=
202010082100 METAR MROC 082100Z 29003KT 240V330 9999 4500SW -RA BCFG FEW008 BKN050 21/21 A2999 NOSIG=
202010082200 METAR MROC 082200Z VRB02KT 9999 4500SW RA FEW040 BKN100 21/21 A3000 NOSIG=
202010082300 METAR MROC 082300Z 10004KT 9999 -RA FEW030 BKN100 21/21 A3002 NOSIG=
202010090000 METAR MROC 090000Z 07005KT 9999 -RA NSC 21/21 A3002 NOSIG=
202010090100 METAR MROC 090100Z 04005KT 9999 -RA NSC 20/20 A3004 NOSIG=
202010090200 METAR MROC 090200Z 04005KT 9999 -RA NSC 21/21 A3009 NOSIG=
202010090300 METAR MROC 090300Z 08006KT 9999 -RA NSC 20/20 A3008 NOSIG=
202010090400 METAR MROC 090400Z 08009KT 9999 -DZ NSC 21/19 A3004 NOSIG=
202010090500 METAR MROC 090500Z 05005KT 9999 FEW005 21/19 A3003 NOSIG=
202010090600 METAR MROC 090600Z 24004KT 9999 BCFG SCT001 19/19 A3005 NOSIG=
202010090700 METAR MROC 090700Z 26003KT 240V330 9999 SCT004 BKN030 19/19 A3005 NOSIG=
202010090800 METAR MROC 090800Z VRB02KT 9999 SCT020 BKN180 19/19 A3003 NOSIG=
202010090900 METAR MROC 090900Z 08004KT CAVOK 19/19 A3002 NOSIG=
202010091000 METAR MROC 091000Z 07006KT CAVOK 19/19 A3002 NOSIG=
202010091100 METAR MROC 091100Z 07007KT CAVOK 19/19 A3002 NOSIG=
202010091200 METAR MROC 091200Z 19003KT 090V170 CAVOK 19/18 A3004 NOSIG=
202010091300 METAR MROC 091300Z 06004KT CAVOK 21/18 A3007 NOSIG=
202010091400 METAR MROC 091400Z 28003KT 190V330 CAVOK 23/18 A3009 NOSIG=
202010091500 METAR MROC 091500Z 28003KT 220V360 9999 FEW035 BKN120 24/18 A3009 NOSIG=
202010091600 METAR MROC 091600Z 25005KT 200V290 9999 FEW035 24/19 A3007 NOSIG=
202010091700 METAR MROC 091700Z 24007KT 170V280 9999 FEW035 26/19 A3005 NOSIG=
202010091800 METAR MROC 091800Z 24012KT 9999 FEW025TCU SCT035 26/20 A3003 NOSIG=
202010091900 METAR MROC 091900Z 24012KT 9999 -RA FEW020TCU SCT035 25/21 A3000 NOSIG=
202010092000 METAR MROC 092000Z 25009KT 220V280 9999 SHRA SCT020TCU BKN035 24/21 A2998 NOSIG=
202010092100 METAR MROC 092100Z 26004KT 210V010 9999 DZ BKN012 23/22 A2997 RESHRA NOSIG=
202010092200 METAR MROC 092200Z 22006KT 9999 FEW020TCU FEW025 SCT120 23/21 A2998 REDZ NOSIG=
202010092300 METAR MROC 092300Z 23005KT 210V290 9999 FEW011 SCT020TCU 22/22 A3000 NOSIG=
202010100000 METAR MROC 100000Z 27003KT 250V310 9999 FEW008 BKN025 21/21 A3003 NOSIG=
202010100100 METAR MROC 100100Z 26004KT 9999 VCTS FEW008CB BKN010 21/21 A3005 TEMPO RA=
202010100200 METAR MROC 100200Z 26004KT 9999 4500S BCFG BKN005 21/21 A3008 NOSIG=
202010100300 METAR MROC 100300Z 31003KT 9999 4500S BCFG BKN005 21/21 A3008 NOSIG=
202010100400 METAR MROC 100400Z 19002KT 9999 FEW003 SCT007 BKN025 21/21 A3008 TEMPO 5000 BR=
202010100500 METAR MROC 100500Z 08004KT 9999 SCT030 BKN110 21/21 A3005 NOSIG=
202010100600 METAR MROC 100600Z 08007KT CAVOK 21/19 A3002 NOSIG=
202010100700 METAR MROC 100700Z 05008KT CAVOK 21/18 A2999 NOSIG=
202010100800 METAR MROC 100800Z 09005KT CAVOK 21/18 A2998 NOSIG=
202010100900 METAR MROC 100900Z VRB02KT CAVOK 20/18 A2998 NOSIG=
202010101000 METAR MROC 101000Z 03003KT CAVOK 19/17 A2999 NOSIG=
202010101100 METAR MROC 101100Z 00000KT 8000 VCFG FEW002 19/19 A3001 NOSIG=
202010101200 METAR MROC 101200Z 02005KT CAVOK 19/18 A3002 NOSIG=
202010101300 METAR MROC 101300Z 04003KT 350V100 CAVOK 23/18 A3004 NOSIG=
202010101400 METAR MROC 101400Z 25006KT 200V270 CAVOK 24/19 A3005 NOSIG=
202010101500 METAR MROC 101500Z 23005KT 180V270 9999 FEW045 25/20 A3005 NOSIG=
202010101600 METAR MROC 101600Z 24009KT 9999 FEW045 SCT200 26/21 A3004 NOSIG=
202010101700 METAR MROC 101700Z 24012KT 9999 SCT035 SCT200 27/21 A3002 NOSIG=
202010101800 METAR MROC 101800Z 25008KT 220V300 9999 FEW020TCU BKN035 25/21 A3000 NOSIG=
202010101900 METAR MROC 101900Z 25008KT 220V290 9999 SCT035 25/22 A2998 NOSIG=
202010102000 METAR MROC 102000Z 24010KT 220V320 9999 VCSH FEW020TCU SCT030 26/22 A2995 NOSIG=
202010102100 METAR MROC 102100Z 22009KT 9999 FEW020TCU SCT035 25/22 A2994 NOSIG=
202010102200 METAR MROC 102200Z VRB02KT 9999 VCTS FEW020CB BKN050 23/20 A2995 NOSIG=
202010102300 METAR MROC 102300Z 30004KT 280V340 9999 FEW015 BKN180 22/22 A2996 NOSIG=
202010110000 METAR MROC 110000Z 22003KT 190V260 9999 FEW010 22/22 A2997 NOSIG=
202010110100 METAR MROC 110100Z 26004KT 9999 FEW005 21/21 A2999 NOSIG=
202010110200 METAR MROC 110200Z 34004KT 9999 FEW005 21/21 A3001 NOSIG=
202010110300 METAR MROC 110300Z 01003KT 350V060 9999 FEW005 21/21 A3001 NOSIG=
202010110400 METAR MROC 110400Z 05005KT 9999 BCFG FEW003 21/20 A3002 NOSIG=
202010110500 METAR MROC 110500Z 03006KT 350V050 CAVOK 20/19 A3001 NOSIG=
202010110600 METAR MROC 110600Z 03006KT CAVOK 21/18 A2999 NOSIG=
202010110700 METAR MROC 110700Z 00000KT CAVOK 19/19 A2997 NOSIG=
202010110800 METAR MROC 110800Z 03002KT CAVOK 19/18 A2997 NOSIG=
202010110900 METAR MROC 110900Z VRB01KT CAVOK 20/18 A2997 NOSIG=
202010111000 METAR MROC 111000Z 08005KT 040V110 CAVOK 20/17 A2997 NOSIG=
202010111100 METAR MROC 111100Z 06004KT 040V110 CAVOK 20/17 A2998 NOSIG=
202010111120 METAR MROC 111120Z 09003KT 070V170 CAVOK 20/18 A2998 NOSIG=
202010111200 METAR MROC NIL=
202010111300 METAR MROC 111300Z 12007KT 090V180 CAVOK 23/18 A3000 NOSIG=
202010111400 METAR MROC 111400Z 12008KT 090V150 CAVOK 25/19 A3000 NOSIG=
202010111500 METAR MROC 111500Z 10011KT 070V130 9999 FEW040 27/17 A3001 NOSIG=
202010111600 METAR MROC 111600Z 09011G21KT 060V120 9999 FEW040 27/18 A3001 NOSIG=
202010111700 METAR MROC 111700Z 08013KT 050V120 CAVOK 28/18 A2998 NOSIG=
202010111800 METAR MROC 111800Z 07012KT CAVOK 28/17 A2995 NOSIG=
202010111900 METAR MROC 111900Z 07009KT 040V100 CAVOK 29/16 A2992 NOSIG=
202010112000 METAR MROC 112000Z 06012KT 040V100 CAVOK 30/17 A2990 NOSIG=
202010112100 METAR MROC 112100Z 06010KT 9999 FEW020 28/17 A2990 NOSIG=
202010112200 METAR MROC 112200Z 24010KT 9999 SCT010 SCT050 24/22 A2991 NOSIG=
202010112300 METAR MROC 112300Z 24006KT 9999 BKN040 23/22 A2993 NOSIG=
202010120000 METAR MROC 120000Z 31004KT 270V330 9999 BKN045 23/22 A2995 NOSIG=
202010120100 METAR MROC 120100Z 11007KT 9999 SCT045 SCT100 23/19 A2998 NOSIG=
202010120200 METAR MROC 120200Z 07003KT 030V130 CAVOK 23/18 A2998 NOSIG=
202010120300 METAR MROC 120300Z 11005KT 070V130 CAVOK 22/19 A2998 NOSIG=
202010120400 METAR MROC 120400Z 06003KT CAVOK 22/18 A3000 NOSIG=
202010120500 METAR MROC 120500Z 11010KT 080V140 CAVOK 22/18 A2997 NOSIG=
202010120600 METAR MROC 120600Z 08004KT CAVOK 22/18 A2996 NOSIG=
202010120700 METAR MROC 120700Z 10012KT CAVOK 22/18 A2993 NOSIG=
202010120800 METAR MROC 120800Z 11014KT CAVOK 22/18 A2992 NOSIG=
202010120900 METAR MROC 120900Z 11015KT 080V150 CAVOK 22/18 A2992 NOSIG=
202010121000 METAR MROC 121000Z 08005KT 040V130 CAVOK 21/18 A2992 NOSIG=
202010121100 METAR MROC 121100Z 11007KT 080V150 CAVOK 22/18 A2995 NOSIG=
202010121200 METAR MROC 121200Z 08006KT 9999 FEW040 SCT050 BKN200 22/18 A2998 NOSIG=
202010121300 METAR MROC 121300Z 22004KT 100V260 9999 FEW045 SCT060 22/19 A3001 NOSIG=
202010121400 METAR MROC 121400Z 30003KT 250V350 9999 FEW045 SCT070 24/19 A3002 NOSIG=
202010121500 METAR MROC 121500Z 13006KT 090V160 9999 FEW045 SCT180 BKN200 26/19 A3002 NOSIG=
202010121600 METAR MROC 121600Z 11005KT 070V150 9999 FEW037 BKN180 26/18 A3002 NOSIG=
202010121700 METAR MROC 121700Z 10009KT CAVOK 26/18 A2998 NOSIG=
202010121800 METAR MROC 121800Z 11009KT 080V150 CAVOK 26/17 A2996 NOSIG=
202010121900 METAR MROC 121900Z 10008KT 080V140 CAVOK 27/17 A2993 NOSIG=
202010122000 METAR MROC 122000Z 14006KT 100V180 9999 SCT030 BKN080 OVC200 28/15 A2990 NOSIG=
202010122100 METAR MROC 122100Z 24012KT 9999 SCT010 BKN110 24/21 A2989 NOSIG=
202010122200 METAR MROC 122200Z 26009KT 9999 BKN010 23/21 A2992 NOSIG=
202010122300 METAR MROC 122300Z 25008KT 9999 BKN006 22/21 A2993 NOSIG=
202010130000 METAR MROC 130000Z 26006KT 230V290 9999 BKN005 21/21 A2995 NOSIG=
202010130100 METAR MROC 130100Z 23004KT 200V260 9999 BKN005 21/21 A2998 NOSIG=
202010130200 METAR MROC 130200Z VRB02KT 9999 BKN005 21/21 A3000 NOSIG=
202010130300 METAR MROC 130300Z VRB02KT 9999 FEW010 BKN110 21/21 A3001 NOSIG=
202010130400 METAR MROC 130400Z 07008KT CAVOK 21/17 A3001 NOSIG=
202010130500 METAR MROC 130500Z VRB02KT CAVOK 21/17 A3001 NOSIG=
202010130600 METAR MROC 130600Z VRB03KT CAVOK 22/17 A2999 NOSIG=
202010130700 METAR MROC 130700Z VRB02KT CAVOK 21/18 A2996 NOSIG=
202010130800 METAR MROC 130800Z 05005KT 020V110 CAVOK 21/17 A2994 NOSIG=
202010130900 METAR MROC 130900Z 08006KT CAVOK 21/17 A2994 NOSIG=
202010131000 METAR MROC 131000Z 09006KT CAVOK 20/17 A2994 NOSIG=
202010131100 METAR MROC 131100Z 10006KT CAVOK 20/17 A2993 NOSIG=
202010131200 METAR MROC 131200Z 05003KT 330V130 CAVOK 20/16 A2997 NOSIG=
202010131300 METAR MROC 131300Z 34003KT 300V010 9999 BCFG FEW005 BKN150 20/18 A3002 NOSIG=
202010131400 METAR MROC 131400Z 27003KT 220V310 CAVOK 22/18 A3004 NOSIG=
202010131500 METAR MROC 131500Z 25004KT 200V290 CAVOK 24/19 A3005 NOSIG=
202010131600 METAR MROC 131600Z 24007KT 210V270 9999 BKN040 25/20 A3005 NOSIG=
202010131700 METAR MROC 131700Z 23005KT 190V280 CAVOK 26/21 A3001 NOSIG=
202010131800 METAR MROC 131800Z 26007KT 9999 FEW045 BKN120 25/21 A2999 NOSIG=
202010131900 METAR MROC 131900Z 24006KT 180V280 9999 FEW040 BKN120 26/21 A2996 NOSIG=
202010132000 METAR MROC 132000Z 28007KT 230V320 9999 SCT030TCU SCT035 25/21 A2993 NOSIG=
202010132100 METAR MROC 132100Z 25011KT 9999 -TSRA BKN010CB 23/22 A2993 TEMPO 5000=
202010132200 METAR MROC 132200Z 23005KT 180V270 9999 -TSRA SCT025CB BKN110 21/20 A2994 NOSIG=
202010132300 METAR MROC 132300Z 27005KT 230V300 9999 FEW004 SCT030 BKN160 21/21 A2996 NOSIG=
202010140000 METAR MROC 140000Z 26005KT 240V300 9999 -RA FEW002 BKN005 21/21 A2998 NOSIG=
202010140100 METAR MROC 140100Z 15003KT 9999 FEW006 SCT010 BKN110 21/21 A3000 NOSIG=
202010140200 METAR MROC 140200Z 10002KT 9999 SCT015 BKN110 21/21 A3003 NOSIG=
202010140300 METAR MROC 140300Z 03003KT 360V060 CAVOK 22/20 A3003 NOSIG=
202010140400 METAR MROC 140400Z VRB02KT 9999 FEW001 21/20 A3002 NOSIG=
202010140500 METAR MROC 140500Z 24004KT 0500 R07/P2000N FG SCT002 BKN005 20/20 A3002 NOSIG=
202010140600 METAR MROC 140600Z 06002KT 5000 SCT005 BKN020 20/20 A2999 NOSIG=
202010140700 METAR MROC 140700Z 23003KT 2500 SCT005 BKN010 20/19 A2997 NOSIG=
202010140800 METAR MROC 140800Z 05004KT 9999 FEW004 BKN030 20/19 A2995 NOSIG=
202010140900 METAR MROC 140900Z 04005KT CAVOK 19/18 A2994 NOSIG=
202010141000 METAR MROC 141000Z 08006KT CAVOK 19/17 A2993 NOSIG=
202010141100 METAR MROC 141100Z 06009KT CAVOK 19/17 A2993 NOSIG=
202010141200 METAR MROC 141200Z 04009KT CAVOK 20/16 A2995 NOSIG=
202010141300 METAR MROC 141300Z 06004KT 030V100 CAVOK 22/18 A2997 NOSIG=
202010141400 METAR MROC 141400Z 05004KT 010V080 CAVOK 24/18 A2999 NOSIG=
202010141500 METAR MROC 141500Z 25008KT CAVOK 24/20 A3001 NOSIG=
202010141600 METAR MROC 141600Z 25008KT 9999 FEW045 25/21 A3000 NOSIG=
202010141700 METAR MROC 141700Z 24009KT 200V280 9999 FEW040 25/21 A2998 NOSIG=
202010141800 METAR MROC 141800Z 24009KT 210V270 9999 BKN030 26/22 A2996 NOSIG=
202010141900 METAR MROC 141900Z 25009KT 210V280 9999 VCSH VCTS SCT020CB SCT030 26/21 A2992 TEMPO RA=
202010142000 METAR MROC 142000Z 26009KT 210V260 1000 R07/1000U TSRA VV/// 21/21 A2991 NOSIG=
202010142100 METAR MROC 142100Z VRB02KT 8000 3000SW -RA VCFG FEW010 SCT030 BKN045 20/20 A2991 NOSIG=
202010142200 METAR MROC 142200Z 29004KT 260V330 9999 -RA FEW010 SCT030 BKN060 21/20 A2994 NOSIG=
202010142300 METAR MROC 142300Z 25003KT 9999 3000SW BCFG SCT005 BKN030 20/20 A2997 NOSIG=
202010150000 METAR MROC 150000Z 09007KT 9999 SCT005 BKN100 20/20 A2998 NOSIG=
202010150100 METAR MROC 150100Z 07007KT 9999 -RA NSC 21/19 A2998 NOSIG=
202010150200 METAR MROC 150200Z 07008KT CAVOK 21/19 A2999 NOSIG=
202010150300 METAR MROC 150300Z 08008KT 040V110 CAVOK 21/18 A3000 NOSIG=
202010150400 METAR MROC 150400Z 03005KT 360V080 CAVOK 21/18 A2999 NOSIG=
202010150500 METAR MROC 150500Z VRB01KT CAVOK 20/18 A2997 NOSIG=
202010150600 METAR MROC 150600Z 21004KT 9999 FEW001 19/19 A2995 TEMPO 3000 BR BKN010=
202010150700 METAR MROC 150700Z 34003KT 5000 2000W BR SCT002 BKN006 19/19 A2993 NOSIG=
202010150800 METAR MROC 150800Z VRB01KT 9999 SCT006 BKN015 19/19 A2993 NOSIG=
202010150900 METAR MROC 150900Z 08003KT 9999 SCT015 19/19 A2993 NOSIG=
202010151000 METAR MROC 151000Z 10005KT CAVOK 18/18 A2993 NOSIG=
202010151100 METAR MROC 151100Z 04004KT CAVOK 18/17 A2993 NOSIG=
202010151200 METAR MROC 151200Z 04006KT CAVOK 19/17 A2995 NOSIG=
202010151300 METAR MROC 151300Z 00000KT CAVOK 20/18 A2999 NOSIG=
202010151400 METAR MROC 151400Z 28003KT 240V300 CAVOK 22/18 A2999 NOSIG=
202010151500 METAR MROC 151500Z 23006KT 180V290 9999 FEW030 SCT120 23/19 A3000 NOSIG=
202010151600 METAR MROC 151600Z 27008KT 230V320 9999 FEW030 24/19 A3000 NOSIG=
202010151700 METAR MROC 151700Z 26010KT 200V300 9999 SCT030 25/20 A2997 NOSIG=
202010151800 METAR MROC 151800Z 23012KT 190V260 9999 SCT030 26/21 A2993 NOSIG=
202010151900 METAR MROC 151900Z 24013KT 210V270 9999 VCSH SCT020TCU BKN035 25/21 A2990 TEMPO RA=
202010152000 METAR MROC 152000Z 22005KT 170V250 9999 -TSRA SCT015CB BKN035 23/22 A2989 NOSIG=
202010152100 METAR MROC 152100Z 29009KT 260V320 9999 TS FEW015CB BKN015 23/20 A2988 NOSIG=
202010152200 METAR MROC 152200Z 32007KT 9999 FEW015 SCT020 23/20 A2988 RETS NOSIG=
202010152300 METAR MROC 152300Z 25003KT 210V290 9999 BKN020 22/20 A2991 NOSIG=
202010160000 METAR MROC 160000Z VRB02KT 9999 -RA FEW005 SCT020 22/20 A2992 NOSIG=
202010160100 METAR MROC 160100Z 11004KT CAVOK 21/20 A2994 NOSIG=
202010160200 METAR MROC 160200Z 10003KT 070V130 CAVOK 21/20 A2997 NOSIG=
202010160300 METAR MROC 160300Z VRB01KT CAVOK 22/20 A2998 NOSIG=
202010160400 METAR MROC 160400Z 10004KT 070V140 CAVOK 20/19 A2998 NOSIG=
202010160500 METAR MROC 160500Z 07007KT 9999 4000S BCFG FEW002 20/18 A2997 NOSIG=
202010160600 METAR MROC 160600Z 09002KT CAVOK 20/18 A2995 NOSIG=
202010160700 METAR MROC 160700Z 11003KT 040V150 CAVOK 20/18 A2994 NOSIG=
202010160800 METAR MROC 160800Z VRB01KT CAVOK 20/18 A2993 NOSIG=
202010160900 METAR MROC 160900Z VRB01KT 9999 BKN004 19/17 A2993 NOSIG=
202010161000 METAR MROC 161000Z 08003KT 9999 BKN005 19/18 A2994 NOSIG=
202010161100 METAR MROC 161100Z 07005KT CAVOK 18/18 A2996 NOSIG=
202010161200 METAR MROC 161200Z 03007KT CAVOK 19/17 A2997 NOSIG=
202010161300 METAR MROC 161300Z 07008KT CAVOK 22/18 A2999 NOSIG=
202010161400 METAR MROC 161400Z 11007KT 060V150 CAVOK 25/18 A2999 NOSIG=
202010161500 METAR MROC 161500Z 09007KT 050V130 CAVOK 26/18 A3001 NOSIG=
202010161600 METAR MROC 161600Z 10004KT 050V180 CAVOK 27/18 A3000 NOSIG=
202010161700 METAR MROC 161700Z 25006KT 190V280 9999 BKN045 27/21 A2999 NOSIG=
202010161800 METAR MROC 161800Z 24007KT 180V290 9999 BKN030 27/20 A2997 NOSIG=
202010161900 METAR MROC 161900Z 25010KT 210V280 9999 SCT020 26/22 A2994 NOSIG=
202010162000 METAR MROC 162000Z 23014G26KT 9999 BKN030 24/21 A2992 NOSIG=
202010162100 METAR MROC 162100Z 25009KT 9999 VCTS BKN008 23/22 A2992 RETS NOSIG=
202010162200 METAR MROC 162200Z 24007KT 9999 DZ BKN005 OVC015 21/20 A2992 NOSIG=
202010162300 METAR MROC 162300Z 24006KT 210V270 4000 RA BKN004 OVC010 21/21 A2993 NOSIG=
202010170000 METAR MROC 170000Z 00000KT 9999 FEW010 BKN080 21/20 A2996 NOSIG=
202010170100 METAR MROC 170100Z VRB02KT 9999 FEW030 SCT080 21/20 A2997 NOSIG=
202010170200 METAR MROC 170200Z 00000KT CAVOK 21/20 A2999 NOSIG=
202010170300 METAR MROC 170300Z VRB02KT CAVOK 21/20 A2999 NOSIG=
202010170400 METAR MROC 170400Z VRB02KT 9999 FEW035 20/20 A3001 NOSIG=
202010170500 METAR MROC 170500Z 04011KT 340V070 CAVOK 22/18 A2999 NOSIG=
202010170600 METAR MROC 170600Z 07006KT 9999 FEW035 21/18 A2997 NOSIG=
202010170700 METAR MROC 170700Z 11010G20KT 9999 FEW035 22/18 A2994 NOSIG=
202010170800 METAR MROC 170800Z 05007KT 340V120 9999 FEW035 20/18 A2993 NOSIG=
202010170900 METAR MROC 170900Z 04008KT 010V070 CAVOK 21/18 A2992 NOSIG=
202010171000 METAR MROC 171000Z 05005KT 340V150 CAVOK 21/18 A2993 NOSIG=
202010171100 METAR MROC 171100Z 05008KT 020V150 CAVOK 21/18 A2994 NOSIG=
202010171200 METAR MROC 171200Z 03007KT 9999 FEW040 SCT200 21/18 A2996 NOSIG=
202010171300 METAR MROC 171300Z 06007KT 010V110 CAVOK 23/18 A2998 NOSIG=
202010171400 METAR MROC 171400Z 11011KT 070V130 CAVOK 25/19 A2999 NOSIG=
202010171500 METAR MROC 171500Z 10013KT CAVOK 26/19 A2999 NOSIG=
202010171600 METAR MROC 171600Z 10013KT 060V130 CAVOK 27/19 A2999 NOSIG=
202010171700 METAR MROC 171700Z 10012KT 080V140 CAVOK 28/20 A2998 NOSIG=
202010171800 METAR MROC 171800Z 13012KT 090V180 9999 SCT045 28/19 A2994 NOSIG=
202010171900 METAR MROC 171900Z 10009KT 070V160 9999 SCT045 28/19 A2993 NOSIG=
202010172000 METAR MROC 172000Z 10016KT 070V140 BKN045 27/18 A2990 NOSIG=
202010172100 METAR MROC 172100Z 17002KT 9999 SCT030 BKN070 OVC150 24/19 A2990 NOSIG=
202010172200 METAR MROC 172200Z 12010KT 080V160 9999 SCT025 BKN070 OVC150 24/19 A2991 NOSIG=
202010172300 METAR MROC 172300Z 11006KT 070V160 9999 FEW001 SCT030 BKN090 OVC160 23/19 A2993 NOSIG=
202010180000 METAR MROC 180000Z 10012KT CAVOK 23/18 A2992 NOSIG=
202010180100 METAR MROC 180100Z 12005KT 060V160 CAVOK 22/18 A2996 NOSIG=
202010180200 METAR MROC 180200Z 04007KT CAVOK 22/19 A3001 NOSIG=
202010180300 METAR MROC 180300Z 10003KT 070V130 CAVOK 22/18 A3001 NOSIG=
202010180400 METAR MROC 180400Z VRB01KT CAVOK 22/18 A3000 NOSIG=
202010180500 METAR MROC 180500Z 03003KT 350V080 CAVOK 21/19 A2998 NOSIG=
202010180600 METAR MROC 180600Z 11004KT 070V190 CAVOK 22/18 A2995 NOSIG=
202010180700 METAR MROC 180700Z 02005KT 360V080 CAVOK 22/17 A2993 NOSIG=
202010180800 METAR MROC 180800Z 08007KT CAVOK 20/18 A2992 NOSIG=
202010180900 METAR MROC 180900Z 11005KT 060V120 CAVOK 20/18 A2991 NOSIG=
202010181000 METAR MROC 181000Z 11011KT CAVOK 21/17 A2990 NOSIG=
202010181100 METAR MROC 181100Z 12009KT 090V150 CAVOK 21/17 A2992 NOSIG=
202010181200 METAR MROC 181200Z 11006KT 060V150 CAVOK 21/17 A2992 NOSIG=
202010181300 METAR MROC 181300Z 09008KT 030V160 CAVOK 23/17 A2995 NOSIG=
202010181400 METAR MROC 181400Z 10008KT 060V140 CAVOK 25/18 A2998 NOSIG=
202010181500 METAR MROC 181500Z 13007KT 080V190 CAVOK 27/18 A2999 NOSIG=
202010181600 METAR MROC 181600Z 11011KT 070V130 CAVOK 28/18 A2999 NOSIG=
202010181700 METAR MROC 181700Z 14006KT 090V220 CAVOK 29/18 A2999 BECMG 24006KT=
202010181800 METAR MROC 181800Z 25011KT 220V280 9999 SCT045 27/22 A2993 NOSIG=
202010181900 METAR MROC 181900Z 25009KT 220V280 9999 SCT040 27/22 A2989 NOSIG=
202010182000 METAR MROC 182000Z 25011KT 210V290 9999 BKN025 27/22 A2988 NOSIG=
202010182100 METAR MROC 182100Z 25009KT 5000 TSRA SCT020CB BKN020 24/22 A2988 TEMPO BKN010=
202010182200 METAR MROC 182200Z 16006KT 100V200 0500 R07/P2000N +TSRA VV/// 21/20 A2991 NOSIG=
202010182300 METAR MROC 182300Z 23005KT 190V270 9999 4500SW -TSRA FEW006 BKN030CB 20/19 A2992 TEMPO 5000 BR BKN010=
202010190000 METAR MROC 190000Z 03003KT 360V070 9999 -RA FEW008 OVC035 21/20 A2994 RETS TEMPO BR BKN010=
202010190100 METAR MROC 190100Z 36004KT 310V040 9999 -RA FEW020 BKN045 21/20 A2997 NOSIG=
202010190200 METAR MROC 190200Z 19003KT CAVOK 21/20 A2998 RERA NOSIG=
202010190300 METAR MROC 190300Z 15002KT CAVOK 21/20 A2999 NOSIG=
202010190400 METAR MROC 190400Z 35003KT 9999 R07/P2000N BCFG FEW002 20/20 A2999 NOSIG=
202010190500 METAR MROC 190500Z VRB02KT CAVOK 20/19 A2998 NOSIG=
202010190600 METAR MROC 190600Z 09004KT CAVOK 19/19 A2996 NOSIG=
202010190700 METAR MROC 190700Z 09006KT CAVOK 19/18 A2993 NOSIG=
202010190800 METAR MROC 190800Z 05007KT CAVOK 19/18 A2990 NOSIG=
202010190900 METAR MROC 190900Z 08005KT 9999 SCT045 19/17 A2991 NOSIG=
202010191000 METAR MROC 191000Z 08004KT CAVOK 19/17 A2989 NOSIG=
202010191100 METAR MROC 191100Z 14004KT 110V170 CAVOK 18/17 A2992 NOSIG=
202010191200 METAR MROC 191200Z 03003KT CAVOK 19/17 A2996 NOSIG=
202010191300 METAR MROC 191300Z 10003KT 050V130 CAVOK 22/18 A2996 NOSIG=
202010191400 METAR MROC 191400Z 09004KT 050V120 CAVOK 23/18 A2995 NOSIG=
202010191500 METAR MROC 191500Z 08004KT 020V160 CAVOK 26/18 A2996 NOSIG=
202010191600 METAR MROC 191600Z 24010KT 190V270 9999 FEW040 OVC200 25/21 A2995 NOSIG=
202010191700 METAR MROC 191700Z 25012KT 9999 SCT040 OVC200 25/21 A2995 NOSIG=
202010191800 METAR MROC 191800Z 25013KT 210V300 9999 BKN040 SCT200 26/21 A2992 NOSIG=
202010191900 METAR MROC 191900Z 24010KT 9999 FEW025 SCT035 BKN200 26/21 A2988 NOSIG=
202010192000 METAR MROC 192000Z 26010KT 220V280 9999 FEW020 SCT030 BKN120 25/22 A2986 NOSIG=
202010192100 METAR MROC 192100Z 26012KT 9999 TSRA BKN010CB 23/21 A2987 TEMPO 5000=
202010192200 METAR MROC 192200Z 09006KT 060V120 5000 TSRA SCT010CB BKN100 20/18 A2990 NOSIG=
202010192300 METAR MROC 192300Z 09003KT 060V130 9999 -RA BCFG FEW008 SCT020 BKN120 20/19 A2990 RETS NOSIG=
202010200000 METAR MROC 200000Z VRB02KT 9999 -RA BKN045 20/20 A2994 TEMPO 5000 BR=
202010200100 METAR MROC 200100Z 09004KT CAVOK 20/20 A2995 NOSIG=
202010200200 METAR MROC 200200Z 09005KT CAVOK 20/19 A2996 NOSIG=
202010200300 METAR MROC 200300Z VRB02KT 9999 BKN045 20/19 A2996 NOSIG=
202010200400 METAR MROC 200400Z 15003KT 9999 SCT045 20/19 A2998 NOSIG=
202010200500 METAR MROC 200500Z 04003KT 340V080 CAVOK 19/19 A2997 NOSIG=
202010200600 METAR MROC 200600Z 05004KT CAVOK 20/19 A2995 NOSIG=
202010200700 METAR MROC 200700Z VRB02KT CAVOK 19/18 A2994 NOSIG=
202010200800 METAR MROC 200800Z 04003KT CAVOK 19/18 A2993 NOSIG=
202010200900 METAR MROC 200900Z 04005KT CAVOK 20/19 A2992 NOSIG=
202010201000 METAR MROC 201000Z 11003KT 9999 FEW040 19/19 A2991 NOSIG=
202010201100 METAR MROC 201100Z 05003KT 9999 FEW040 SCT120 19/19 A2993 NOSIG=
202010201200 METAR MROC 201200Z 03003KT 9999 SCT030 BKN110 20/19 A2995 NOSIG=
202010201300 METAR MROC 201300Z 02003KT 330V050 9999 SCT020 BKN100 20/19 A2998 NOSIG=
202010201400 METAR MROC 201400Z 13003KT 110V170 9999 FEW025 SCT120 BKN200 21/20 A2998 BECMG 24005KT=
202010201500 METAR MROC 201500Z 24005KT 9999 FEW025 SCT120 BKN200 23/19 A2997 NOSIG=
202010201600 METAR MROC 201600Z 27007KT 230V300 9999 SCT025 SCT200 24/20 A2997 NOSIG=
202010201700 METAR MROC 201700Z 28006KT 190V350 9999 FEW025 SCT150 26/20 A2995 NOSIG=
202010201800 METAR MROC 201800Z 27010KT 220V300 9999 FEW025 SCT035 26/20 A2998 NOSIG=
202010201900 METAR MROC 201900Z 24013KT 190V270 9999 SCT025 26/21 A2989 NOSIG=
202010202000 METAR MROC 202000Z 24010KT 200V270 9999 FEW025 SCT035 25/21 A2987 NOSIG=
202010202100 METAR MROC 202100Z 22010KT 9999 SCT015 23/21 A2986 NOSIG=
202010202200 METAR MROC 202200Z 24009KT 9999 VCSH BKN015 23/21 A2987 NOSIG=
202010202300 METAR MROC 202300Z 32005KT 9999 FEW005 SCT050 OVC100 22/21 A2988 NOSIG=
202010210000 METAR MROC 210000Z VRB02KT 9999 FEW010 BKN150 22/21 A2990 NOSIG=
202010210100 METAR MROC 210100Z 20004KT 9999 FEW003 BKN150 21/21 A2992 NOSIG=
202010210200 METAR MROC 210200Z 35003KT 9999 FEW010 BKN150 21/21 A2996 NOSIG=
202010210300 METAR MROC 210300Z 01003KT 330V030 9999 FEW010 22/21 A2996 NOSIG=
202010210400 METAR MROC 210400Z VRB02KT CAVOK 21/21 A2996 NOSIG=
202010210500 METAR MROC 210500Z 25004KT 8000 3000SW -RA BCFG SCT002 BKN015 20/20 A2997 TEMPO 5000=
202010210600 METAR MROC 210600Z 02002KT 9999 -RA BCFG SCT003 BKN015 20/20 A2997 TEMPO 5000=
202010210700 METAR MROC 210700Z 07004KT 9999 FEW030 20/20 A2991 RERA NOSIG=
202010210800 METAR MROC 210800Z 23005KT 3000 -RA BR SCT001 BKN004 20/20 A2994 NOSIG=
202010210900 METAR MROC 210900Z 07003KT 9999 -RA FEW003 BKN020 20/20 A2993 NOSIG=
202010211000 METAR MROC 211000Z 12003KT CAVOK 20/20 A2994 NOSIG=
202010211100 METAR MROC 211100Z VRB02KT 9999 -RA NSC 20/20 A2995 NOSIG=
202010211200 METAR MROC 211200Z 23005KT 9999 -RA FEW002 SCT035 OVC130 20/20 A2997 NOSIG=
202010211300 METAR MROC 211300Z 02003KT 340V050 8000 -RA BKN003 OVC040 20/20 A3000 NOSIG=
202010211400 METAR MROC 211400Z VRB01KT 9000 -RA SCT002 OVC050 20/20 A3002 NOSIG=
202010211500 METAR MROC 211500Z 12005KT 9999 FEW020 BKN100 21/20 A3002 NOSIG=
202010211600 METAR MROC 211600Z 16003KT 130V210 9999 FEW035 BKN080 OVC130 23/20 A3002 NOSIG=
202010211700 METAR MROC 211700Z 23007KT 200V260 9999 SCT030 OVC060 24/20 A3001 NOSIG=
202010211800 METAR MROC 211800Z 24005KT 190V280 9999 FEW030 SCT080 BKN160 24/20 A2998 NOSIG=
202010211900 METAR MROC 211900Z 23007KT 190V280 9999 SCT020 BKN080 BKN130 24/20 A2996 NOSIG=
202010212000 METAR MROC 212000Z 23008KT 9999 FEW015 BKN040 OVC080 23/20 A2996 NOSIG=
202010212100 METAR MROC 212100Z 31004KT 260V330 9999 FEW030 BKN100 22/20 A2992 NOSIG=
202010212200 METAR MROC 212200Z 25007KT 9999 FEW005 BKN100 21/20 A2994 NOSIG=
202010212300 METAR MROC 212300Z 29004KT 240V320 9999 FEW005 SCT040 OVC100 22/20 A2994 NOSIG=
202010220000 METAR MROC 220000Z 30006KT 260V320 9999 -RA BKN015 21/21 A2997 NOSIG=
202010220100 METAR MROC 220100Z 32003KT 290V060 9999 FEW005 BKN030 20/20 A2999 NOSIG=
202010220200 METAR MROC 220200Z 31002KT 9999 SCT010 20/20 A3001 NOSIG=
202010220300 METAR MROC 220300Z 15002KT 9999 SCT015 20/20 A3001 NOSIG=
202010220400 METAR MROC 220400Z 08004KT CAVOK 20/20 A3001 NOSIG=
202010220500 METAR MROC 220500Z 11003KT 040V130 CAVOK 20/20 A2999 NOSIG=
202010220600 METAR MROC 220600Z 19003KT 140V220 9999 BCFG FEW002 SCT015 BKN150 20/20 A2999 NOSIG=
202010220700 METAR MROC 220700Z VRB02KT 9999 FEW015 SCT150 20/20 A2997 NOSIG=
202010220800 METAR MROC 220800Z 14003KT 090V170 9999 FEW020 SCT150 20/20 A2996 NOSIG=
202010220900 METAR MROC 220900Z 06004KT 9999 FEW020 SCT150 20/20 A2995 NOSIG=
202010221000 METAR MROC 221000Z 09004KT CAVOK 20/20 A2995 NOSIG=
202010221100 METAR MROC 221100Z 06003KT CAVOK 20/20 A2997 NOSIG=
202010221200 METAR MROC 221200Z VRB02KT CAVOK 20/20 A2998 NOSIG=
202010221300 METAR MROC 221300Z 07005KT CAVOK 22/20 A3001 NOSIG=
202010221400 METAR MROC 221400Z 15003KT 120V200 CAVOK 23/20 A3001 BECMG 24008KT=
202010221500 METAR MROC 221500Z 23005KT 180V270 9999 FEW040 25/20 A3002 NOSIG=
202010221600 METAR MROC 221600Z 24007KT 200V270 9999 FEW040 25/21 A3002 NOSIG=
202010221700 METAR MROC 221700Z 24007KT 220V280 9999 FEW035 26/20 A3000 NOSIG=
202010221800 METAR MROC 221800Z 25010KT 220V280 9999 FEW025 BKN035 26/22 A2997 NOSIG=
202010221900 METAR MROC 221900Z 25010KT 9999 FEW015TCU BKN030 BKN180 25/22 A2996 NOSIG=
202010222000 METAR MROC 222000Z 25606KT 9999 SCT013TCU SCT025 BKN080 25/22 A2995 NOSIG=
202010222100 METAR MROC 222100Z 25008KT 9999 SCT010 BKN020 24/22 A2994 NOSIG=
202010222200 METAR MROC 222200Z 24008KT 220V280 9999 FEW004 BKN010 23/23 A3993 TEMPO RA=
202010222300 METAR MROC 222300Z 25007KT 210V290 8000 VCFG SCT003 BKN006 22/22 A2995 TEMPO 5000 BR=
202010230000 METAR MROC 230000Z 27006KT 5000 BR SCT002 OVC005 21/21 A2998 NOSIG=
202010230100 METAR MROC 230100Z 23004KT 170V250 5000 BR SCT001 OVC006 21/21 A3000 NOSIG=
202010230200 METAR MROC 230200Z 23002KT 8000 VCFG SCT002 OVC010 21/21 A3003 NOSIG=
202010230300 METAR MROC 230300Z 24005KT 1000 BR VV002 21/21 A3004 NOSIG=
202010230400 METAR MROC 230400Z VRB02KT 2000 BR VV002 21/21 A3004 NOSIG=
202010230500 METAR MROC 230500Z VRB02KT 2000 BR VV002 21/21 A3003 NOSIG=
202010230600 METAR MROC 230600Z VRB02KT 9999 SCT010 21/21 A3002 NOSIG=
202010230700 METAR MROC 230700Z 29003KT 260V320 1000 VV002 21/21 A3000 NOSIG=
202010230748 METAR MROC 230748Z VRB02KT 7000 1000SW SCT002 BKN020 21/21 A2998 NOSIG=
202010230800 METAR MROC 230800Z 00000KT 8000 1000SW SCT002 BKN015 21/21 A2998 NOSIG=
202010230900 METAR MROC 230900Z 08003KT 040V110 OVC003 20/20 A2997 NOSIG=
202010231000 METAR MROC 231000Z 05005KT 350V070 CAVOK 20/20 A2997 NOSIG=
202010231100 METAR MROC 231100Z 02003KT 350V060 CAVOK 21/20 A2999 NOSIG=
202010231200 METAR MROC 231200Z VRB02KT CAVOK 19/19 A3000 NOSIG=
202010231300 METAR MROC 231300Z COR 03005KT CAVOK 22/19 A3002 NOSIG=
202010231400 METAR MROC 231400Z 25004KT 210V280 CAVOK 24/20 A3004 NOSIG=
202010231500 METAR MROC 231500Z 25006KT 190V280 9999 FEW015 SCT200 25/21 A3005 NOSIG=
202010231600 METAR MROC 231600Z 25007KT 9999 FEW020 SCT200 24/21 A3005 NOSIG=
202010231700 METAR MROC 231700Z 26007KT 180V300 9999 FEW030 BKN200 26/20 A3002 NOSIG=
202010231800 METAR MROC 231800Z 24010KT 200V270 9999 FEW025CB FEW040 BKN200 27/22 A2999 TEMPO RA=
202010231900 METAR MROC 231900Z 29010KT 250V310 9999 -RA VCTS FEW020CB BKN025 26/21 A2997 NOSIG=
202010232000 METAR MROC 232000Z 30004KT 230V340 9999 -RA VCTS FEW020CB SCT025 BKN090 24/19 A2995 NOSIG=
202010232100 METAR MROC 232100Z 24006KT 9999 BKN010 23/22 A2995 NOSIG=
202010232200 METAR MROC 232200Z 25008KT 9999 -TSRA SCT005 BKN010CB 22/22 A2997 NOSIG=
202010232300 METAR MROC 232300Z 25005KT 210V270 9999 VCTS SCT002 BKN006 OVC100 22/22 A2997 RETSRA NOSIG=
202010240000 METAR MROC 240000Z 29003KT 250V310 9999 FEW005 SCT010 OVC100 22/22 A2999 NOSIG=
202010240100 METAR MROC 240100Z 36003KT 300V090 9999 FEW025 BKN100 22/22 A3002 NOSIG=
202010240200 METAR MROC 240200Z 25003KT 9999 FEW015 BKN100 21/21 A3007 NOSIG=
202010240300 METAR MROC 240300Z 34003KT 310V020 9999 FEW015 BKN100 22/22 A3008 NOSIG=
202010240400 METAR MROC 240400Z 29002KT 9999 FEW015 SCT020 OVC080 22/22 A3008 NOSIG=
202010240500 METAR MROC 240500Z 25003KT 210V280 9999 SCT008 BKN030 21/21 A3007 NOSIG=
202010240600 METAR MROC 240600Z 29003KT 5000 BR BKN020 21/21 A3005 NOSIG=
202010240700 METAR MROC 240700Z VRB02KT 9999 FEW008 SCT030 BKN080 21/21 A3002 NOSIG=
202010240800 METAR MROC 240800Z VRB01KT 9999 FEW020 BKN080 21/21 A3000 NOSIG=
202010240900 METAR MROC 240900Z VRB02KT 9999 FEW015 21/21 A2999 NOSIG=
202010241000 METAR MROC 241000Z 10003KT CAVOK 20/20 A2999 NOSIG=
202010241100 METAR MROC 241100Z 04004KT 360V060 CAVOK 20/20 A3001 NOSIG=
202010241200 METAR MROC 241200Z 03003KT 010V080 CAVOK 20/20 A3001 NOSIG=
202010241300 METAR MROC 241300Z 08003KT CAVOK 21/19 A3004 NOSIG=
202010241400 METAR MROC 241400Z VRB02KT 9999 FEW040 24/19 A3005 NOSIG=
202010241500 METAR MROC 241500Z 26003KT 200V300 9999 FEW030 BKN250 24/20 A3007 NOSIG=
202010241600 METAR MROC 241600Z 26005KT 190V310 9999 BKN035 25/20 A3005 NOSIG=
202010241700 METAR MROC 241700Z 25007KT 220V290 9999 FEW040 26/20 A3003 NOSIG=
202010241800 METAR MROC 241800Z 25009KT 210V300 9999 SCT040 26/20 A2999 NOSIG=
202010241900 METAR MROC 241900Z 27013KT 240V300 9999 SCT020 BKN140 25/20 A2997 TEMPO RA=
202010242000 METAR MROC 242000Z 30007KT 260V330 9999 FEW020 BKN030 24/20 A2996 NOSIG=
202010242100 METAR MROC 242100Z 29007KT 240V320 9999 FEW015TCU FEW020 BKN040 24/20 A2993 NOSIG=
202010242200 METAR MROC 242200Z COR 24007KT 220V290 9999 VCSH FEW015TCU SCT030 BKN110 23/20 A2995 NOSIG=
202010242300 METAR MROC 242300Z 23006KT 9999 FEW008 SCT020 BKN100 22/20 A2997 NOSIG=
202010250000 METAR MROC 250000Z 28003KT 260V320 9999 FEW005 BKN110 22/21 A2999 NOSIG=
202010250100 METAR MROC 250100Z 29003KT 260V340 9999 -RA FEW015 SCT130 21/21 A3001 NOSIG=
202010250200 METAR MROC 250200Z 26003KT 200V270 9999 FEW008 SCT050 BKN120 21/21 A3005 NOSIG=
202010250300 METAR MROC 250300Z 27004KT 9999 3000S BCFG BKN010 SCT015 21/21 A3006 NOSIG=
202010250400 METAR MROC 250400Z 25003KT 9999 BKN008 21/21 A3006 NOSIG=
202010250500 METAR MROC 250500Z 25003KT 9999 BKN005 21/21 A3005 NOSIG=
202010250600 METAR MROC 250600Z VRB02KT 9999 BKN005 21/21 A3002 NOSIG=
202010250700 METAR MROC 250700Z 32005KT 9999 BKN025 20/20 A3000 NOSIG=
202010250800 METAR MROC 250800Z 00000KT CAVOK 20/20 A2998 NOSIG=
202010250900 METAR MROC 250900Z 10003KT CAVOK 20/20 A2996 NOSIG=
202010251000 METAR MROC 251000Z 12003KT CAVOK 19/19 A2996 NOSIG=
202010251100 METAR MROC 251100Z VRB02KT CAVOK 20/20 A2998 NOSIG=
202010251200 METAR MROC 251200Z 12002KT CAVOK 19/19 A3003 NOSIG=
202010251300 METAR MROC 251300Z 08003KT CAVOK 22/19 A3004 NOSIG=
202010251400 METAR MROC 251400Z 14003KT 090V190 CAVOK 24/18 A3004 BECMG 24008KT=
202010251500 METAR MROC 251500Z VRB03KT CAVOK 25/17 A3005 NOSIG=
202010251600 METAR MROC 251600Z 24006KT 200V290 9999 FEW040 SCT060 26/19 A3005 NOSIG=
202010251700 METAR MROC 251700Z 31008KT 290V350 9999 FEW025 BKN040 24/19 A3003 NOSIG=
202010251800 METAR MROC 251800Z 24005KT 9999 4500SW FEW005 BKN040 23/20 A3000 NOSIG=
202010251900 METAR MROC 251900Z 25008KT 9999 2000SW -RA FEW010 BKN035 22/20 A2997 NOSIG=
202010252000 METAR MROC 252000Z 32007KT 9999 FEW010 BKN070 23/20 A2996 NOSIG=
202010252100 METAR MROC 252100Z 26006KT 9999 SCT015 BKN060 23/20 A2994 NOSIG=
202010252200 METAR MROC 252200Z 26006KT 9999 4000SW RA SCT010 BKN040 22/21 A2994 NOSIG=
202010252300 METAR MROC 252300Z 27006KT 3000 1200SW -RA BR SCT002 BKN015 21/21 A2996 NOSIG=
202010260000 METAR MROC 260000Z 24004KT 5000 2000SW RA BR OVC005 20/20 A2999 NOSIG=
202010260100 METAR MROC 260100Z VRB01KT 8000 RA VCFG FEW010 BKN030 21/21 A3001 NOSIG=
202010260200 METAR MROC 260200Z 08002KT 9999 -RA FEW015 BKN070 21/21 A3002 NOSIG=
202010260300 METAR MROC 260300Z 00000KT CAVOK 21/21 A3003 NOSIG=
202010260400 METAR MROC 260400Z 23003KT 0100 R07/1100U FG OVC001 20/20 A3003 NOSIG=
202010260500 METAR MROC 260500Z VRB02KT 9999 SCT002 OVC005 20/20 A3002 NOSIG=
202010260600 METAR MROC 260600Z 09003KT 9999 FEW025 BKN130 20/20 A3000 NOSIG=
202010260700 METAR MROC 260700Z 10004KT CAVOK 20/20 A2997 NOSIG=
202010260800 METAR MROC 260800Z 08004KT CAVOK 20/20 A2994 NOSIG=
202010260900 METAR MROC 260900Z 08005KT CAVOK 20/20 A2993 NOSIG=
202010261000 METAR MROC 261000Z 08005KT CAVOK 20/20 A2993 NOSIG=
202010261100 METAR MROC 261100Z 25004KT 0900 R07/1700D FG SCT001 20/20 A2996 NOSIG=
202010261200 METAR MROC 261200Z 31003KT 0500 R07/0650D FG SCT001 OVC004 20/20 A2999 NOSIG=
202010261300 METAR MROC 261300Z 12003KT 9999 SCT005 BKN200 20/20 A3002 NOSIG=
202010261400 METAR MROC 261400Z 12003KT 070V160 9999 FEW010 BKN160 22/20 A3004 NOSIG=
202010261500 METAR MROC 261500Z 26004KT 230V320 9999 FEW010 BKN120 22/20 A3005 NOSIG=
202010261600 METAR MROC 261600Z 24007KT 9999 SCT010 BKN120 23/20 A3004 NOSIG=
202010261700 METAR MROC 261700Z 20004KT 120V250 9999 FEW015 BKN120 24/20 A3002 NOSIG=
202010261800 METAR MROC 261800Z 23003KT 190V280 9999 FEW015 BKN120 23/20 A2999 NOSIG=
202010261900 METAR MROC 261900Z 24005KT 9999 FEW015 BKN200 24/19 A2996 NOSIG=
202010262000 METAR MROC 262000Z 26005KT 9999 FEW015 BKN180 24/20 A2995 NOSIG=
202010262100 METAR MROC 262100Z 25004KT 9999 SCT020 OVC080 23/20 A2994 NOSIG=
202010262200 METAR MROC 262200Z 25007KT 9999 BKN010 OVC080 23/21 A2995 NOSIG=
202010262300 METAR MROC 262300Z 26004KT 9999 FEW005 SCT010 OVC080 21/21 A2996 NOSIG=
202010270000 METAR MROC 270000Z VRB02KT 4000 0750W FG BKN002 20/20 A2998 NOSIG=
202010270100 METAR MROC 270100Z 00000KT 9999 FEW010 BKN090 20/20 A3000 NOSIG=
202010270200 METAR MROC 270200Z VRB01KT 9999 FEW010 BKN200 20/20 A3003 NOSIG=
202010270300 METAR MROC 270300Z VRB02KT CAVOK 20/20 A3003 NOSIG=
202010270400 METAR MROC 270400Z 11007KT 9999 BCFG NSC 20/20 A3002 NOSIG=
202010270500 METAR MROC 270500Z 25004KT 9999 BCFG NSC 20/20 A3000 NOSIG=
202010270600 METAR MROC 270600Z VRB02KT 1200 BR SCT001 BKN200 20/20 A2999 NOSIG=
202010270700 METAR MROC 270700Z VRB02KT 5000 2000SW BR SCT001 BKN005 20/20 A2998 NOSIG=
202010270800 METAR MROC 270800Z 08004KT 040V120 5000 BR FEW001 BKN005 20/20 A2996 NOSIG=
202010270900 METAR MROC 270900Z 08003KT 9999 FEW010 20/20 A2996 NOSIG=
202010271000 METAR MROC 271000Z 04004KT 9999 BCFG NSC 20/19 A2997 NOSIG=
202010271100 METAR MROC 271100Z 12003KT 9999 3500S BCFG NSC 19/19 A2998 NOSIG=
202010271200 METAR MROC 271200Z 00000KT 0800 FG SCT001 BKN005 19/19 A2999 NOSIG=
202010271300 METAR MROC 271300Z VRB02KT 9999 SCT003 BKN120 20/20 A3001 NOSIG=
202010271400 METAR MROC 271400Z VRB02KT 9999 FEW002 BKN120 20/20 A3003 NOSIG=
202010271500 METAR MROC 271500Z VRB03KT CAVOK 23/20 A3004 NOSIG=
202010271600 METAR MROC 271600Z 24005KT 120V290 9999 FEW020 BKN250 25/21 A3003 NOSIG=
202010271700 METAR MROC 271700Z 25007KT 200V290 9999 FEW030 SCT250 26/20 A3000 NOSIG=
202010271800 METAR MROC 271800Z 24008KT 210V270 9999 SCT025 26/21 A2997 NOSIG=
202010271900 METAR MROC 271900Z 24009KT 200V270 9999 SCT025 26/21 A2994 NOSIG=
202010272000 METAR MROC 272000Z 04009KT 9999 SCT025 BKN120 25/21 A2991 NOSIG=
202010272100 METAR MROC 272100Z COR 24009KT 210V270 9999 TS FEW020CB BKN030 25/22 A2990 NOSIG=
202010272200 METAR MROC 272200Z 22008KT 9999 -RA VCTS FEW010 BKN020 23/23 A2992 NOSIG=
202010272300 METAR MROC 272300Z 26006KT 9999 VCTS FEW010 BKN030 OVC100 22/22 A2994 NOSIG=
202010280000 METAR MROC 280000Z 26005KT 9999 -DZ BKN010 OVC100 22/21 A2996 NOSIG=
202010280100 METAR MROC 280100Z 29003KT 170V300 9999 -DZ BKN015 22/22 A2999 NOSIG=
202010280200 METAR MROC 280200Z VRB01KT 9999 BKN010 OVC020 22/22 A3000 NOSIG=
202010280300 METAR MROC 280300Z 34003KT 280V020 9999 OVC010 22/21 A3003 NOSIG=
202010280400 METAR MROC 280400Z VRB02KT 9999 BKN010 22/22 A3001 NOSIG=
202010280500 METAR MROC 280500Z 13003KT 9999 SCT007 BKN030 22/22 A3001 NOSIG=
202010280600 METAR MROC 280600Z VRB01KT 9999 BKN020 21/21 A2999 NOSIG=
202010280700 METAR MROC 280700Z VRB02KT 9999 SCT020 21/21 A2997 NOSIG=
202010280800 METAR MROC 280800Z 21003KT 180V240 9999 FEW005 21/21 A2994 NOSIG=
202010280900 METAR MROC 280900Z VRB02KT 9999 BCFG FEW005 SCT100 21/21 A2994 NOSIG=
202010281000 METAR MROC 281000Z 08006KT 050V110 CAVOK 22/20 A2994 NOSIG=
202010281100 METAR MROC 281100Z VRB02KT CAVOK 22/20 A2995 NOSIG=
202010281200 METAR MROC 281200Z 25005KT 0500 FG BKN001 SCT050 21/21 A2997 NOSIG=
202010281300 METAR MROC 281300Z 00000KT 9999 SCT001 BKN120 21/21 A3001 NOSIG=
202010281400 METAR MROC 281400Z 06005KT CAVOK 22/20 A3002 NOSIG=
202010281500 METAR MROC 281500Z 36003KT 320V040 CAVOK 24/20 A3002 NOSIG=
202010281600 METAR MROC 281600Z 08005KT 040V180 CAVOK 26/19 A3000 NOSIG=
202010281700 METAR MROC 281700Z 11011KT CAVOK 27/19 A2995 NOSIG=
202010281800 METAR MROC 281800Z 12007KT 080V160 9999 SCT035 BKN230 28/20 A2994 NOSIG=
202010281900 METAR MROC 281900Z 25011KT 9999 SCT025 BKN120 25/23 A2993 NOSIG=
202010282000 METAR MROC 282000Z 26011KT 9999 -TSRA SCT010CB OVC100 23/23 A2992 NOSIG=
202010282100 METAR MROC 282100Z COR 17004KT 140V220 9999 3500SW -TSRA BCFG FEW005 SCT020CB OVC100 22/20 A2992 NOSIG=
202010282200 METAR MROC 282200Z 26003KT 220V280 9999 4000SW BCFG FEW007 SCT035 BKN120 23/21 A2993 RETSRA TEMPO 5000 BR BKN015=
202010282300 METAR MROC 282300Z 31003KT 280V340 9999 4300SW BCFG FEW005 BKN020 23/22 A2995 TEMPO 5000 BR=
202010290000 METAR MROC 290000Z VRB02KT 9999 FEW008 BKN020 23/21 A2996 NOSIG=
202010290100 METAR MROC 290100Z VRB02KT 9999 BCFG FEW003 BKN012 22/22 A2999 NOSIG=
202010290200 METAR MROC 290200Z VRB02KT 9999 BCFG FEW010 BKN025 22/22 A3000 NOSIG=
202010290300 METAR MROC 290300Z VRB02KT 9999 FEW010 BKN020 22/22 A3002 TEMPO 5000 BR=
202010290400 METAR MROC 290400Z VRB02KT 9999 BKN005 BKN040 22/22 A3002 NOSIG=
202010290500 METAR MROC 290500Z 26005KT 220V310 5000 1500W BR SCT003 BKN015 22/22 A3000 NOSIG=
202010290600 METAR MROC 290600Z 25002KT 7000 SCT003 BKN015 21/21 A2998 NOSIG=
202010290700 METAR MROC 290700Z 26003KT 240V300 8000 FEW003 BKN020 21/21 A2998 NOSIG=
202010290800 METAR MROC 290800Z 05004KT 9999 FEW006 BKN030 21/21 A2994 NOSIG=
202010290900 METAR MROC 290900Z VRB01KT 9999 BKN035 21/21 A2994 NOSIG=
202010291000 METAR MROC 291000Z 11002KT 9999 FEW035 21/21 A2994 NOSIG=
202010291100 METAR MROC 291100Z 08005KT 9999 FEW045 20/19 A2996 NOSIG=
202010291200 METAR MROC 291200Z 07006KT 9999 FEW005 20/19 A2997 NOSIG=
202010291300 METAR MROC 291300Z 07008KT CAVOK 22/19 A2998 NOSIG=
202010291400 METAR MROC 291400Z 09010KT CAVOK 24/18 A3000 NOSIG=
202010291500 METAR MROC 291500Z 12006KT 070V180 CAVOK 27/19 A3001 BECMG 24005KT=
202010291600 METAR MROC 291600Z 24005KT 9999 FEW045 BKN200 28/19 A3000 NOSIG=
202010291700 METAR MROC 291700Z 25010KT 9999 FEW045 BKN200 26/20 A2998 NOSIG=
202010291800 METAR MROC 291800Z 25009KT 9999 FEW045 BKN200 27/21 A2994 NOSIG=
202010291900 METAR MROC 291900Z 24011KT 9999 -TSRA FEW020CB FEW045 BKN200 27/22 A2991 NOSIG=
202010292000 METAR MROC 292000Z 36010KT 9999 2000N -TSRA SCT020CB BKN035 24/20 A2991 NOSIG=
202010292100 METAR MROC 292100Z 14005KT 9999 -TSRA NSC 20/19 A2992 NOSIG=
202010292200 METAR MROC 292200Z VRB02KT 9999 VCTS NSC 21/19 A2993 RERA NOSIG=
202010292300 METAR MROC 292300Z 01004G15KT 340V040 CAVOK 22/20 A2995 NOSIG=
202010300000 METAR MROC 300000Z 18003KT 9999 FEW025 OVC100 21/20 A2997 NOSIG=
202010300100 METAR MROC 300100Z 05003KT 010V090 9999 FEW040 BKN120 21/20 A3000 NOSIG=
202010300200 METAR MROC 300200Z VRB02KT 9999 FEW025 BKN130 21/20 A3003 NOSIG=
202010300300 METAR MROC 300300Z 02003KT 330V110 9999 FEW030 SCT140 21/21 A3005 NOSIG=
202010300400 METAR MROC 300400Z 08004KT 050V110 CAVOK 21/21 A3005 NOSIG=
202010300500 METAR MROC 300500Z 03005KT 360V060 CAVOK 21/20 A3001 NOSIG=
202010300600 METAR MROC 300600Z 08003KT CAVOK 21/19 A2997 NOSIG=
202010300700 METAR MROC 300700Z 20006KT 170V230 CAVOK 20/19 A2996 NOSIG=
202010300800 METAR MROC 300800Z 31004KT CAVOK 20/20 A2996 NOSIG=
202010300900 METAR MROC 300900Z 28003KT 260V330 9999 SCT010 20/20 A2999 NOSIG=
202010301000 METAR MROC 301000Z 11003KT 9999 SCT015 20/20 A2999 NOSIG=
202010301100 METAR MROC 301100Z 07003KT 030V130 CAVOK 20/20 A3000 NOSIG=
202010301200 METAR MROC 301200Z VRB02KT CAVOK 19/19 A3002 NOSIG=
202010301300 METAR MROC 301300Z 05003KT 9999 BCFG FEW030 SCT060 BKN200 21/20 A3005 NOSIG=
202010301400 METAR MROC 301400Z 26003KT CAVOK 22/20 A3005 NOSIG=
202010301500 METAR MROC 301500Z VRB02KT 9999 FEW030 SCT100 BKN200 23/19 A3007 NOSIG=
202010301600 METAR MROC 301600Z 21004KT 9999 FEW030 SCT100 BKN200 24/19 A3007 NOSIG=
202010301700 METAR MROC 301700Z 27006KT 210V300 9999 FEW030 SCT100 BKN200 24/19 A3004 NOSIG=
202010301800 METAR MROC 301800Z 27005KT 210V320 9999 SCT030 SCT250 26/20 A3000 NOSIG=
202010301900 METAR MROC 301900Z 26007KT 170V290 9999 SCT030 SCT250 26/21 A2997 NOSIG=
202010302000 METAR MROC 302000Z 24012KT 9999 FEW020TCU SCT025 26/21 A2994 NOSIG=
202010302100 METAR MROC 302100Z 24011KT 9999 SCT015 24/21 A2995 NOSIG=
202010302200 METAR MROC 302200Z 25009KT 9999 FEW010 BKN020 23/21 A2995 NOSIG=
202010302300 METAR MROC 302300Z 24008KT 9999 FEW005 BKN020 22/22 A2997 NOSIG=
202010310000 METAR MROC 310000Z 25007KT 8000 BKN005 21/21 A3000 NOSIG=
202010310100 METAR MROC 310100Z 26006KT 5000 BR OVC002 21/21 A3003 NOSIG=
202010310200 METAR MROC 310200Z 25006KT 5000 -RA BR FEW002 OVC010 20/20 A3006 NOSIG=
202010310300 METAR MROC 310300Z 25005KT 220V280 9999 -RA OVC010 20/20 A3007 NOSIG=
202010310400 METAR MROC 310400Z 27004KT 8000 -RA BCFG SCT004 OVC010 20/20 A3008 TEMPO 5000 BR=
202010310500 METAR MROC 310500Z 28003KT 240V330 0500 R07/0700D FG OVC002 20/20 A3006 NOSIG=
202010310600 METAR MROC 310600Z VRB01KT 8000 BCFG FEW005 OVC015 20/20 A3005 NOSIG=
202010310700 METAR MROC 310700Z VRB01KT 9999 BKN020 20/20 A3002 NOSIG=
202010310800 METAR MROC 310800Z 32003KT 9999 4500SW BCFG FEW003 BKN010 20/20 A3002 NOSIG=
202010310900 METAR MROC 310900Z VRB02KT 9999 4500S BCFG FEW002 OVC015 20/20 A3002 TEMPO 5000 BR=
202010311000 METAR MROC 311000Z 19002KT 9999 2000S BCFG FEW001 BKN012 20/20 A3002 NOSIG=
202010311100 METAR MROC 311100Z 18003KT 150V270 0100 R07/P2000N FG OVC002 20/20 A3003 NOSIG=
202010311200 METAR MROC 311200Z VRB01KT 5000 BR FEW003 SCT200 20/20 A3005 NOSIG=
202010311300 METAR MROC 311300Z 08003KT 050V150 9999 FEW045 BKN200 22/21 A3006 NOSIG=
202010311400 METAR MROC 311400Z 26003KT 230V320 9999 FEW035 SCT120 24/20 A3008 NOSIG=
202010311500 METAR MROC 311500Z 26008KT 230V290 9999 FEW015 SCT040 BKN060 23/21 A3010 NOSIG=
202010311600 METAR MROC 311600Z 24007KT 9999 BKN015 25/21 A3009 NOSIG=
202010311700 METAR MROC 311700Z 27005KT 210V310 9999 FEW020 BKN040 25/20 A3006 NOSIG=
202010311800 METAR MROC 311800Z 24007KT 200V290 9999 BKN030 25/20 A3002 NOSIG=
202010311900 METAR MROC 311900Z 24011KT 210V270 9999 BKN030 25/21 A2998 NOSIG=
202010312000 METAR MROC 312000Z 24009KT 9999 -RA FEW014 BKN030 OVC060 23/21 A2997 NOSIG=
202010312100 METAR MROC 312100Z 22006KT 5000 RA OVC010 22/22 A2996 NOSIG=
202010312200 METAR MROC 312200Z 16004KT 9999 2000SW -RA FEW003 SCT020 OVC080 20/20 A2997 NOSIG=
202010312300 METAR MROC 312300Z 24005KT 200V260 5000 -RA FEW002 OVC040 21/21 A2999 NOSIG=
202011010000 METAR MROC 010000Z 25006KT 5000 -RA BR OVC002 21/21 A3001 NOSIG=
202011010100 METAR MROC 010100Z 28004KT 260V350 8000 FEW002 BKN010 21/21 A3002 NOSIG=
202011010200 METAR MROC 010200Z 24003KT 7000 FEW002 SCT020 BKN050 21/21 A3004 NOSIG=
202011010300 METAR MROC 010300Z 30004KT 5000 BR BKN005 21/21 A3006 NOSIG=
202011010400 METAR MROC 010400Z 23003KT 5000 2000SW BR SCT002 BKN120 20/20 A3007 NOSIG=
202011010500 METAR MROC 010500Z VRB02KT 9999 BCFG FEW002 SCT040 BKN120 20/20 A3006 NOSIG=
202011010600 METAR MROC 010600Z 01003KT 9999 BCFG FEW002 BKN120 20/20 A3003 NOSIG=
202011010700 METAR MROC 010700Z 09003KT 9999 -RA BCFG FEW030 OVC100 20/20 A3001 NOSIG=
202011010800 METAR MROC 010800Z 02003KT 9999 -RA NSC 21/21 A2998 NOSIG=
202011010900 METAR MROC 010900Z 03003KT 9999 FEW030 SCT045 BKN100 20/20 A2997 NOSIG=
202011011000 METAR MROC 011000Z 00000KT 9999 -RA FEW030 BKN100 20/20 A2997 NOSIG=
202011011100 METAR MROC 011100Z 19002KT 2000 -RA BR SCT001 BKN060 20/20 A2999 NOSIG=
202011011200 METAR MROC 011200Z 08003KT 9999 -RA BCFG FEW030 SCT080 BKN120 20/20 A3000 NOSIG=
202011011300 METAR MROC 011300Z 11003KT 9999 -RA FEW005 BKN035 OVC070 21/21 A3003 NOSIG=
202011011400 METAR MROC 011400Z VRB01KT 9999 FEW008 BKN035 OVC080 22/21 A3004 NOSIG=
202011011500 METAR MROC 011500Z 10004KT 030V140 9999 SCT035 BKN100 24/20 A3004 NOSIG=
202011011600 METAR MROC 011600Z 21005KT 140V260 9999 BKN040 25/20 A3002 NOSIG=
202011011700 METAR MROC 011700Z 23007KT 9999 SCT025TCU BKN040 BKN120 25/20 A3000 NOSIG=
202011011800 METAR MROC 011800Z 23007KT 200V270 9999 FEW020 BKN040 26/20 A2997 NOSIG=
202011011900 METAR MROC 011900Z 24012KT 210V270 9999 4500E SCT020 BKN040 25/21 A2994 TEMPO 5000 RA=
202011012000 METAR MROC 012000Z 11003KT 030V170 9999 FEW005 BKN040 OVC080 21/21 A2993 RETSRA NOSIG=
202011012100 METAR MROC 012100Z 17004KT 120V200 9999 BKN010 21/21 A2993 NOSIG=
202011012200 METAR MROC 012200Z 22006KT 9999 BKN005 21/21 A2994 NOSIG=
202011012300 METAR MROC 012300Z 23005KT 5000 -RA BR FEW004 BKN010 21/21 A2995 TEMPO 3000=
202011020000 METAR MROC 020000Z 23007KT 5000 -RA BR SCT003 BKN010 20/20 A2995 NOSIG=
202011020100 METAR MROC 020100Z 21004KT 180V240 5000 -RA BR SCT002 BKN015 20/20 A2998 NOSIG=
202011020200 METAR MROC 020200Z VRB02KT 8000 -RA VCFG FEW005 BKN030 20/20 A3001 NOSIG=
202011020300 METAR MROC 020300Z VRB03KT 9999 -RA FEW003 BKN010 20/20 A3001 NOSIG=
202011020400 METAR MROC 020400Z 00000KT 9999 -RA FEW010 BKN040 20/20 A3001 NOSIG=
202011020500 METAR MROC 020500Z VRB01KT 9999 -RA SCT005 OVC040 20/20 A3001 NOSIG=
202011020600 METAR MROC 020600Z VRB02KT CAVOK 20/20 A2999 NOSIG=
202011020700 METAR MROC 020700Z 00000KT 9999 3000SW RA SCT005 BKN060 20/20 A2996 NOSIG=
202011020800 METAR MROC 020800Z 36003KT 310V070 9999 -RA NSC 20/20 A2994 NOSIG=
202011020900 METAR MROC 020900Z 06005KT CAVOK 20/20 A2991 NOSIG=
202011021000 METAR MROC 021000Z 05002KT 9999 FEW030 20/20 A2992 NOSIG=
202011021100 METAR MROC 021100Z VRB02KT 9999 OVC030 20/20 A2996 NOSIG=
202011021200 METAR MROC 021200Z 32003KT 9999 OVC035 20/20 A2996 NOSIG=
202011021300 METAR MROC 021300Z 30003KT 9999 4500SW BCFG FEW002 OVC020 20/20 A2999 NOSIG=
202011021400 METAR MROC 021400Z 26003KT 230V300 4000 BR OVC005 20/20 A3001 NOSIG=
202011021500 METAR MROC 021500Z 24004KT 210V290 9999 4500SW -DZ BCFG FEW005 BKN010 21/21 A3002 TEMPO 5000 BR=
202011021600 METAR MROC 021600Z 29003KT 260V320 9999 FEW012 BKN060 22/21 A3001 NOSIG=
202011021700 METAR MROC 021700Z 30005KT 260V340 9999 BKN030 23/20 A2999 NOSIG=
202011021800 METAR MROC 021800Z 29005KT 250V130 9999 RA SCT020 BKN100 23/21 A2996 NOSIG=
202011021900 METAR MROC 021900Z 24005KT 200V270 9999 -RA SCT020 BKN100 23/21 A2993 NOSIG=
202011022000 METAR MROC 022000Z 24008KT 9999 SCT012 BKN140 23/21 A2991 TEMPO 5000 BR=
202011022100 METAR MROC 022100Z 23006KT 9999 SCT025 BKN160 22/21 A2991 NOSIG=
202011022200 METAR MROC 022200Z 25007KT 9999 -RA SCT020 OVC120 21/21 A2991 NOSIG=
202011022300 METAR MROC 022300Z 25006KT 9999 FEW005 SCT020 OVC120 21/21 A2993 NOSIG=
202011030000 METAR MROC 030000Z 26005KT 9999 -RA BKN003 OVC010 21/21 A2995 NOSIG=
202011030100 METAR MROC 030100Z VRB01KT 9999 FEW005 OVC120 20/20 A2996 NOSIG=
202011030200 METAR MROC 030200Z 02003KT 340V060 9999 FEW025 BKN120 21/21 A2997 NOSIG=
202011030300 METAR MROC 030300Z 16003KT 9999 FEW025 BKN120 20/20 A2997 NOSIG=
202011030400 METAR MROC 030400Z VRB02KT CAVOK 20/20 A2997 NOSIG=
202011030500 METAR MROC 030500Z 28003KT 240V310 0500 R07/2000N FG OVC002 20/20 A2997 NOSIG=
202011030600 METAR MROC 030600Z 25005KT 0800 -RA FG OVC005 20/20 A2996 NOSIG=
202011030640 METAR MROC 030640Z 27005KT 240V300 3000 0800SW BR SCT002 BKN010 20/20 A2994 NOSIG=
202011030700 METAR MROC 030700Z 29004KT 0900 R07/P2000N FG BKN002 OVC008 20/20 A2993 NOSIG=
202011030716 METAR MROC 030716Z 30005KT 5000 BR SCT005 OVC030 20/20 A2993 NOSIG=
202011030800 METAR MROC 030800Z 29004KT 8000 FEW005 SCT015 OVC030 20/20 A2992 NOSIG=
202011030900 METAR MROC 030900Z 28006KT 250V310 7000 -RA BCFG SCT003 OVC030 20/20 A2992 NOSIG=
202011031000 METAR MROC 031000Z 32004KT 9999 DZ FEW003 SCT010 OVC030 20/20 A2992 NOSIG=
202011031100 METAR MROC 031100Z 30004KT 9999 -RA SCT030 OVC090 20/20 A2991 NOSIG=
202011031200 METAR MROC 031200Z COR 29004KT 260V320 9999 -RA FEW005 OVC020 20/20 A2994 NOSIG=
202011031300 METAR MROC 031300Z 29006KT 1500 RA BR SCT002 OVC020 20/20 A2996 NOSIG=
202011031400 METAR MROC 031400Z VRB03KT 5000 BR SCT002 OVC020 20/20 A2997 RERA NOSIG=
202011031500 METAR MROC 031500Z 24005KT 210V280 4000 -RA BR SCT004 OVC020 20/20 A2998 NOSIG=
202011031600 METAR MROC 031600Z COR 23005KT 200V260 8000 3000SW -RA BCFG FEW003 BKN012 21/21 A2997 NOSIG=
202011031700 METAR MROC 031700Z 23004KT 200V260 9999 4500SW -RA BCFG FEW003 BKN025 21/21 A2994 NOSIG=
202011031800 METAR MROC 031800Z 23006KT 200V270 5000 RA BR OVC010 21/21 A2992 NOSIG=
202011031900 METAR MROC 031900Z 23010KT 2000 -RA BR BKN002 20/20 A2990 NOSIG=
202011032000 METAR MROC 032000Z 25011KT 9999 OVC005 21/21 A2990 NOSIG=
202011032100 METAR MROC 032100Z 26010KT 8000 VCFG OVC005 21/21 A2988 NOSIG=
202011032200 METAR MROC 032200Z 25010KT 5000 BR OVC005 20/20 A2989 NOSIG=
202011032300 METAR MROC 032300Z 26011KT 3000 BR OVC004 20/20 A2989 NOSIG=
202011040000 METAR MROC 040000Z 24008KT 3000 -RA BR OVC003 20/20 A2991 NOSIG=
202011040100 METAR MROC 040100Z 24008KT 3000 1200SW -RA BR OVC003 20/20 A2993 NOSIG=
202011040200 METAR MROC 040200Z 26005KT 0500 FG VV/// 20/20 A2994 NOSIG=
202011040300 METAR MROC 040300Z 24005KT 3000 1200SW -RA BR FEW002 SCT005 BKN010 20/20 A2996 NOSIG=
202011040400 METAR MROC 040400Z 22005KT 5000 -RA BR BKN007 OVC015 20/20 A2995 NOSIG=
202011040500 METAR MROC 040500Z 29005KT 8000 -RA VCFG FEW002 SCT014 OVC025 20/20 A2994 NOSIG=
202011040600 METAR MROC 040600Z 31003KT 280V340 5000 -RA BR SCT004 OVC019 20/20 A2992 NOSIG=
202011040700 METAR MROC 040700Z 25006KT 5000 -RA BR BKN005 OVC010 20/20 A2990 NOSIG=
202011040800 METAR MROC 040800Z 24008KT 5000 -RA BR OVC003 20/20 A2989 NOSIG=
202011040900 METAR MROC 040900Z 23006KT 5000 -RA BR BKN005 OVC010 20/20 A2989 NOSIG=
202011041000 METAR MROC 041000Z 23011KT 5000 -RA BR SCT002 BKN010 OVC020 19/19 A2989 NOSIG=
202011041100 METAR MROC 041100Z 26014KT 5000 -RA BR SCT002 BKN006 OVC015 19/19 A2990 NOSIG=
202011041200 METAR MROC 041200Z 24007KT 2000 BR OVC002 19/19 A2993 NOSIG=
202011041300 METAR MROC 041300Z 25011KT 220V280 2000 -RA BR FEW002 OVC010 19/19 A2995 NOSIG=
202011041400 METAR MROC 041400Z 24006KT 5000 BR OVC003 20/20 A2998 NOSIG=
202011041500 METAR MROC 041500Z 24006KT 9999 FEW003 OVC015 20/20 A2998 NOSIG=
202011041600 METAR MROC 041600Z 23004KT 190V250 8000 2000S -RA BCFG SCT003 OVC010 20/20 A2999 NOSIG=
202011041700 METAR MROC 041700Z 21006KT 5000 -RA BR SCT003 OVC014 20/20 A2996 NOSIG=
202011041800 METAR MROC 041800Z 22007KT 5000 -RA BR SCT003 OVC010 20/20 A2994 NOSIG=
202011041900 METAR MROC 041900Z 21007KT 9000 2000SW -RA BCFG FEW004 SCT010 OVC020 21/21 A2992 NOSIG=
202011042000 METAR MROC 042000Z 24007KT 220V280 3000 -RA BR SCT003 OVC015 20/20 A2990 NOSIG=
202011042100 METAR MROC 042100Z 29005KT 1500 -RA BR SCT002 BKN010 20/20 A2990 NOSIG=
202011042200 METAR MROC 042200Z 26010KT 1200 -RA BR OVC005 19/19 A2991 NOSIG=
202011042300 METAR MROC 042300Z 26004KT 1500 -RA BR OVC003 19/19 A2993 NOSIG=
202011050000 METAR MROC 050000Z 28004KT 1500 -RA BR SCT002 OVC008 19/19 A2994 NOSIG=
202011050100 METAR MROC 050100Z 26007KT 2000 -RA BR SCT002 OVC008 19/19 A2996 NOSIG=
202011050200 METAR MROC 050200Z 26006KT 2000 -RA BR SCT002 OVC008 19/19 A2999 NOSIG=
202011050300 METAR MROC 050300Z 32003KT 2000 -RA BR SCT002 OVC008 19/19 A2999 NOSIG=
202011050400 METAR MROC 050400Z 31005KT 5000 -DZ BR BKN007 19/19 A2999 NOSIG=
202011050500 METAR MROC 050500Z 33004KT 9999 4500S -RA BCFG FEW002 OVC010 19/19 A2997 NOSIG=
202011050600 METAR MROC 050600Z 30003KT 9999 4500S BCFG FEW007 OVC010 19/19 A2996 NOSIG=
202011050700 METAR MROC 050700Z 34003KT 2000 BR OVC008 20/20 A2995 NOSIG=
202011050800 METAR MROC 050800Z 29004KT 2000 BR OVC004 20/20 A2993 NOSIG=
202011050900 METAR MROC 050900Z 26003KT 2000 RA BR SCT002 OVC015 20/20 A2994 NOSIG=
202011051000 METAR MROC 051000Z 36003KT 6000 -RA FEW003 OVC010 20/20 A2994 NOSIG=
202011051100 METAR MROC 051100Z 29004KT 2000 RA FEW005 OVC012 20/20 A2995 NOSIG=
202011051200 METAR MROC 051200Z 30004KT 2000 -RA BR SCT003 BKN005 20/20 A2998 NOSIG=
202011051300 METAR MROC 051300Z 27004KT 220V300 2000 -RA BR FEW004 SCT020 OVC050 20/20 A3000 NOSIG=
202011051400 METAR MROC 051400Z 28004KT 3000 -RA BR FEW005 BKN035 20/20 A3001 NOSIG=
202011051500 METAR MROC 051500Z 26005KT 8000 2000S -RA BCFG OVC003 20/20 A3001 NOSIG=
202011051600 METAR MROC 051600Z 23008KT 210V270 9999 -DZ FEW005 SCT030 BKN050 21/21 A3001 NOSIG=
202011051700 METAR MROC 051700Z 25008KT 9999 FEW005 BKN035 21/21 A3000 NOSIG=
202011051800 METAR MROC 051800Z 24006KT 200V300 9999 SCT005 BKN050 22/22 A2997 NOSIG=
202011051900 METAR MROC 051900Z 24010KT 9999 SCT010 OVC030 22/22 A2994 NOSIG=
202011052000 METAR MROC 052000Z 25008KT 210V270 9000 -RA VCFG SCT010 BKN040 21/21 A2993 NOSIG=
202011052100 METAR MROC 052100Z 24009KT 9999 SCT005 BKN020 OVC040 21/21 A2992 NOSIG=
202011052200 METAR MROC 052200Z 25009KT 9999 SCT002 BKN010 OVC030 21/21 A2993 NOSIG=
202011052300 METAR MROC 052300Z 24007KT 190V260 9999 BKN005 OVC030 20/20 A2993 BECMG 5000=
202011060000 METAR MROC 060000Z 25006KT 7000 DZ SCT003 OVC025 20/20 A2996 NOSIG=
202011060100 METAR MROC 060100Z 26005KT 7000 DZ SCT002 OVC010 20/20 A2998 NOSIG=
202011060200 METAR MROC 060200Z 24004KT 200V280 8000 SCT001 BKN010 20/20 A3000 NOSIG=
202011060300 METAR MROC 060300Z 24005KT 9999 SCT005 BKN060 20/20 A3001 NOSIG=
202011060400 METAR MROC 060400Z 28004KT 5000 2000SW -DZ BR SCT002 BKN035 20/20 A3001 NOSIG=
202011060500 METAR MROC 060500Z 27005KT 4000 1500SW -DZ BR SCT002 OVC010 20/20 A3000 NOSIG=
202011060600 METAR MROC 060600Z 27004KT 240V300 4000 1500SW -DZ BR SCT002 OVC010 20/20 A2998 NOSIG=
202011060700 METAR MROC 060700Z 25008KT 230V290 8000 VCFG SCT005 OVC015 20/20 A2995 NOSIG=
202011060800 METAR MROC 060800Z 23005KT 190V290 5000 2000SW -DZ BR FEW002 SCT010 BKN020 20/20 A2994 NOSIG=
202011060900 METAR MROC 060900Z 25005KT 8000 -DZ VCFG FEW002 SCT015 BKN025 19/19 A2993 NOSIG=
202011061000 METAR MROC 061000Z 26004KT 6000 BCFG SCT005 BKN015 19/19 A2994 NOSIG=
202011061100 METAR MROC 061100Z 26004KT 8000 VCFG SCT005 BKN010 19/19 A2996 NOSIG=
202011061200 METAR MROC 061200Z 26004KT 2000 -DZ FG SCT003 OVC008 19/19 A2998 NOSIG=
202011061300 METAR MROC 061300Z 25006KT 8000 VCFG SCT002 BKN025 OVC100 20/20 A3000 NOSIG=
202011061400 METAR MROC 061400Z 26006KT 9999 BKN005 OVC100 20/20 A3002 NOSIG=
202011061500 METAR MROC 061500Z 24007KT 220V280 9999 BKN010 OVC100 21/21 A3002 NOSIG=
202011061600 METAR MROC 061600Z 23010KT 200V260 9999 SCT015 BKN110 22/21 A3002 NOSIG=
202011061700 METAR MROC 061700Z 24009KT 9999 BKN010 22/20 A2999 NOSIG=
202011061800 METAR MROC 061800Z 22009KT 180V240 9999 BKN010 23/20 A2997 NOSIG=
202011061900 METAR MROC 061900Z 23009KT 200V260 9999 BKN010 OVC100 22/20 A2995 NOSIG=
202011062000 METAR MROC 062000Z 25007KT 9999 -RA SCT002 BKN010 OVC100 21/21 A2993 TEMPO 5000 BR=
202011062100 METAR MROC 062100Z COR 24007KT 210V280 9999 SCT002 BKN015 OVC100 20/20 A2993 NOSIG=
202011062200 METAR MROC 062200Z 22006KT 180V240 9999 FEW004 BKN015 OVC090 20/20 A2994 NOSIG=
202011062233 METAR MROC 062233Z 24005KT 210V280 4000 -RA BKN005 OVC010 20/20 A2995 NOSIG=
202011062300 METAR MROC 062300Z 23005KT 190V270 9999 4500SW DZ SCT003 BKN005 OVC020 20/20 A2996 NOSIG=
202011062325 METAR MROC 062325Z 25006KT 3000 DZ BKN002 OVC022 19/19 A2996 NOSIG=
202011070000 METAR MROC 070000Z 26004KT 3000 1500SW DZ BKN002 OVC010 19/19 A2996 NOSIG=
202011070100 METAR MROC 070100Z 27004KT 240V350 3500 1000SW +DZ BR SCT002 BKN008 OVC020 19/19 A2998 NOSIG=
202011070200 METAR MROC 070200Z 27006KT 2000 0800SW -DZ BR BKN001 OVC010 19/19 A3000 NOSIG=
202011070229 METAR MROC 070229Z 28006KT 0500 FG BKN002 OVC005 19/19 A3000 NOSIG=
202011070300 METAR MROC 070300Z 29005KT 0500 -DZ FG BKN001 OVC005 19/19 A3001 NOSIG=
202011070400 METAR MROC 070400Z 26005KT 0500 FG VV002 18/18 A3001 NOSIG=
202011070500 METAR MROC 070500Z 25005KT 0500 FG VV002 18/18 A3000 NOSIG=
202011070600 METAR MROC 070600Z 24003KT 0500 FG VV005 18/18 A2998 NOSIG=
202011070648 METAR MROC 070648Z 28004KT 1000 DZ BR BKN002O 18/18 A2997 NOSIG=
202011070700 METAR MROC 070700Z 27004KT 1000 DZ BR VV002 18/18 A2996 NOSIG=
202011070710 METAR MROC 070710Z 27003KT 1200 DZ BR VV002 18/18 A2996 NOSIG=
202011070800 METAR MROC 070800Z 26005KT 240V310 1200 -DZ BR VV002 18/18 A2995 NOSIG=
202011070900 METAR MROC 070900Z 28003KT 250V320 2000 BR 0VC008 18/18 A2995 NOSIG=
202011071000 METAR MROC 071000Z VRB01KT 5000 BR FEW002 0VC015 18/18 A2997 NOSIG=
202011071100 METAR MROC 071100Z VRB01KT 9999 FEW010 18/18 A2998 NOSIG=
202011071200 METAR MROC 071200Z 09003KT CAVOK 18/18 A3000 NOSIG=
202011071300 METAR MROC 071300Z VRB02KT CAVOK 19/18 A3003 NOSIG=
202011071400 METAR MROC 071400Z VRB01KT 9999 SCT020 SCT250 21/18 A3005 BECMG 25006KT=
202011071500 METAR MROC 071500Z 24005KT 210V270 9999 SCT020 22/18 A3005 NOSIG=
202011071600 METAR MROC 071600Z 21004KT 160V270 9999 FEW030 24/18 A3005 NOSIG=
202011071700 METAR MROC 071700Z 23006KT 190V290 9999 SCT025 24/19 A3002 NOSIG=
202011071800 METAR MROC 071800Z 26007KT 210V300 9999 SCT025 SCT250 25/19 A2999 NOSIG=
202011071900 METAR MROC 071900Z 24009KT 9999 SCT025 SCT250 25/20 A2996 NOSIG=
202011072000 METAR MROC 072000Z 25009KT 9999 FEW025 SCT250 24/20 A2994 NOSIG=
202011072100 METAR MROC 072100Z 26011KT 9999 SCT012 23/20 A2993 TEMPO BKN015=
202011072200 METAR MROC 072200Z 25011KT 9999 DZ OVC009 21/21 A2994 NOSIG=
202011072300 METAR MROC 072300Z 26008KT 6000 BCFG OVC010 20/20 A2995 TEMPO 3000 BR=
202011080000 METAR MROC 080000Z 25006KT 6000 BCFG OVC007 20/20 A2997 NOSIG=
202011080100 METAR MROC 080100Z 26005KT 230V310 5000 BR OVC002 20/20 A2999 NOSIG=
202011080200 METAR MROC 080200Z 24003KT 0500 R07/P2000N FG OVC002 20/20 A3002 NOSIG=
202011080300 METAR MROC 080300Z 25003KT 0100 R07/1500U FG VV/// 20/20 A3003 NOSIG=
202011080324 METAR MROC 080324Z 24003KT 8000 4000SW SCT002 OVC010 20/20 A3000 NOSIG=
202011080400 METAR MROC 080400Z COR 23002KT 9000 4000W BCFG SCT002 BKN015 19/19 A3003 NOSIG=
202011080500 METAR MROC 080500Z 24003KT 190V260 2000 BR BKN002 OVC009 19/19 A3001 NOSIG=
202011080600 METAR MROC 080600Z 21006KT 7000 3500W BCFG SCT001 OVC008 19/19 A3000 BECMG 3000 BR=
202011080700 METAR MROC 080700Z 00000KT 3000 BR BCFG SCT001 BKN006 19/19 A2999 NOSIG=
202011080800 METAR MROC 080800Z VRB02KT 9999 3000SW BCFG FEW004 SCT006 BKN025 19/19 A2996 NOSIG=
202011080900 METAR MROC 080900Z VRB02KT 9999 VCFG FEW007 BKN030 19/19 A2996 NOSIG=
202011081000 METAR MROC 081000Z VRB02KT 9999 FEW035 BKN080 20/20 A2998 NOSIG=
202011081100 METAR MROC 081100Z 14003KT 110V170 9999 VCFG FEW001 SCT045 BKN080 20/20 A2999 NOSIG=
202011081200 METAR MROC 081200Z 01003KT 9999 VCFG FEW001 BKN070 20/20 NOSIG=
202011081300 METAR MROC 081300Z 11004KT 9999 FEW005 BKN030 21/20 A3004 NOSIG=
202011081400 METAR MROC 081400Z VRB02KT 9999 SCT030 24/18 A3005 NOSIG=
202011081500 METAR MROC 081500Z 32003KT 280V020 9999 FEW015 BKN030 24/19 A3006 NOSIG=
202011081600 METAR MROC 081600Z 29003KT 9999 SCT030 25/19 A3005 NOSIG=
202011081700 METAR MROC 081700Z 27007KT 9999 SCT030 24/20 A3003 NOSIG=
202011081800 METAR MROC 081800Z 24011KT 190V290 9999 SCT030 26/20 A3001 NOSIG=
202011081900 METAR MROC 081900Z 25012KT 210V290 9999 SCT025 26/21 A2999 NOSIG=
202011082000 METAR MROC 082000Z 26011KT 220V290 9999 FEW015 SCT025 24/21 A2998 NOSIG=
202011082100 METAR MROC 082100Z 26011KT 9999 BKN015 24/21 A2997 NOSIG=
202011082200 METAR MROC 082200Z 26008KT 9999 BKN011 22/20 A2998 NOSIG=
202011082300 METAR MROC 082300Z 27008KT 5000 BR OVC005 21/21 A2999 BECMG 3000=
202011090000 METAR MROC 090000Z COR 24005KT 1000 R07/1400D BR OVC002 20/20 A3000 NOSIG=
202011090100 METAR MROC 090100Z 25005KT 0600 R07/0700D FG OVC002 20/20 A3003 NOSIG=
202011090200 METAR MROC 090200Z 25005KT 1000 R07/1400D BR OVC002 20/20 A3006 NOSIG=
202011090300 METAR MROC 090300Z VRB01KT 0900 R07/1100N FG BKN002 20/20 A3007 NOSIG=
202011090400 METAR MROC 090400Z 25002KT 1500 BR BKN002 OVC006 20/20 A3007 NOSIG=
202011090500 METAR MROC 090500Z 26003KT 2000 BR BKN002 OVC006 20/20 A3006 NOSIG=
202011090600 METAR MROC 090600Z 25003KT 5000 BR SCT002 OVC010 20/20 A3003 NOSIG=
202011090700 METAR MROC 090700Z VRB02KT 8000 VCFG SCT002 BKN006 OVC013 20/20 A3001 NOSIG=
202011090800 METAR MROC 090800Z 02003KT 340V050 9999 SCT003 OVC020 20/20 A2999 NOSIG=
202011090900 METAR MROC 090900Z 07003KT 9999 SCT025 19/19 A2998 NOSIG=
202011091000 METAR MROC 091000Z 31003KT 280V340 1500 BR SCT002 BKN008 19/19 A3000 NOSIG=
202011091100 METAR MROC 091100Z 11004KT 9999 FEW025 19/19 A3000 NOSIG=
202011091200 METAR MROC 091200Z 10004KT CAVOK 19/19 A3004 NOSIG=
202011091300 METAR MROC 091300Z VRB02KT CAVOK 21/20 A3005 NOSIG=
202011091400 METAR MROC 091400Z VRB02KT 9999 FEW035 23/20 A3006 NOSIG=
202011091500 METAR MROC 091500Z 23004KT 170V290 9999 SCT030 24/20 A3007 NOSIG=
202011091600 METAR MROC 091600Z 23011KT 9999 SCT030 25/20 A3007 NOSIG=
202011091700 METAR MROC 091700Z 23012KT 200V260 9999 SCT025 SCT060 25/21 A3005 NOSIG=
202011091800 METAR MROC 091800Z 24011KT 210V270 9999 SCT030 26/21 A3002 NOSIG=
202011091900 METAR MROC 091900Z 25011KT 220V290 9999 SCT030 26/21 A2999 NOSIG=
202011092000 METAR MROC 092000Z 26012KT 9999 BKN020 26/21 A2997 NOSIG=
202011092100 METAR MROC 092100Z 25011KT 220V280 9999 BKN015 25/21 A2996 NOSIG=
202011092200 METAR MROC 092200Z 25010KT 9999 SCT010 SCT035 23/21 A2996 NOSIG=
202011092300 METAR MROC 092300Z 23007KT 9999 BKN015 22/22 A2998 NOSIG=
202011100000 METAR MROC 100000Z 24006KT 210V270 9999 BKN010 21/21 A3000 NOSIG=
202011100100 METAR MROC 100100Z 25005KT 9999 BKN005 21/21 A3003 NOSIG=
202011100200 METAR MROC 100200Z 23005KT 9999 FEW002 BKN008 21/21 A3006 NOSIG=
202011100300 METAR MROC 100300Z 24004KT 9999 BKN010 21/21 A3006 NOSIG=
202011100400 METAR MROC 100400Z VRB01KT 9999 FEW008 BKN010 21/21 A3005 NOSIG=
202011100500 METAR MROC 100500Z 21002KT 9999 3000S DZ BCFG SCT005 BKN013 21/21 A3005 NOSIG=
202011100600 METAR MROC 100600Z 20004KT 2000 DZ BR BKN002 20/20 A3004 NOSIG=
202011100700 METAR MROC 100700Z 21005KT 180V240 2000 -DZ BR OVC002 20/20 A3003 NOSIG=
202011100800 METAR MROC 100800Z 14003KT 100V180 9999 DZ VCFG BKN003 20/20 A3001 NOSIG=
202011100900 METAR MROC 100900Z VRB02KT 9999 VCFG FEW007 BKN070 20/20 A3001 REDZ NOSIG=
202011101000 METAR MROC 101000Z VRB02KT 9999 2000SW BCFG OVC002 20/20 A3001 NOSIG=
202011101100 METAR MROC 101100Z 12002KT 9999 FEW007 BKN015 20/20 A3002 NOSIG=
202011101200 METAR MROC 101200Z 19003KT 5000 1500SW BR SCT002 BKN110 20/20 A3004 NOSIG=
202011101300 METAR MROC 101300Z VRB02KT 8000 3000SW BCFG SCT005 SCT020 BKN090 20/20 A3005 NOSIG=
202011101400 METAR MROC 101400Z 24003KT 200V270 9999 FEW008 SCT035 BKN090 21/21 A3008 NOSIG=
202011101500 METAR MROC 101500Z 23006KT 210V270 9999 BKN020 23/22 A3009 NOSIG=
202011101600 METAR MROC 101600Z 26007KT 230V290 9999 BKN025 BKN080 24/21 A3008 NOSIG=
202011101700 METAR MROC 101700Z 25008KT 210V280 9999 SCT020 BKN060 24/21 A3006 NOSIG=
202011101800 METAR MROC 101800Z 24009KT 210V280 9999 FEW015 BKN030 24/21 A3002 NOSIG=
202011101900 METAR MROC 101900Z 24012KT 9999 SCT015 24/21 A2999 NOSIG=
202011102000 METAR MROC 102000Z 24013KT 9999 FEW012TCU BKN025 25/21 A2997 NOSIG=
202011102100 METAR MROC 102100Z 23012KT 9999 BKN010 23/20 A2997 NOSIG=
202011102200 METAR MROC 102200Z 24010KT 9999 BKN010 21/21 A2998 NOSIG=
202011102300 METAR MROC 102300Z 25004KT 9999 -RA BKN030 21/21 A3001 NOSIG=
202011110000 METAR MROC 110000Z 25005KT 9999 BKN005 21/21 A3003 NOSIG=
202011110100 METAR MROC 110100Z VRB02KT 9999 -RA FEW005 SCT010 BKN040 20/20 A3006 NOSIG=
202011110200 METAR MROC 110200Z VRB02KT 9999 -RA FEW045 21/21 A3007 NOSIG=
202011110300 METAR MROC 110300Z VRB02KT 9999 -RA NSC 21/21 A3007 NOSIG=
202011110400 METAR MROC 110400Z 29004KT 0500 FG VV/// 20/20 A3007 NOSIG=
202011110500 METAR MROC 110500Z 24003KT 1500 BR SCT002 OVC004 20/20 A3006 NOSIG=
202011110600 METAR MROC 110600Z 00000KT 5000 BR SCT003 OVC015 20/20 A3005 NOSIG=
202011110700 METAR MROC 110700Z 09003KT 9999 BCFG SCT004 BKN120 20/20 A3002 NOSIG=
202011110800 METAR MROC 110800Z VRB02KT 9999 BCFG NSC 20/20 A3001 NOSIG=
202011110900 METAR MROC 110900Z VRB02KT 0800 FG SCT002 BKN120 19/19 A3000 NOSIG=
202011111000 METAR MROC 111000Z VRB02KT 1200 R07/1800D BR OVC002 19/19 A3002 NOSIG=
202011111100 METAR MROC 111100Z 00000KT 2500 1000SW BR BKN004 SCT120 20/20 A3003 NOSIG=
202011111200 METAR MROC 111200Z 08003KT 9999 BCFG NSC 20/20 A3004 NOSIG=
202011111300 METAR MROC 111300Z VRB023KT 9999 BCFG NSC 21/21 A3007 NOSIG=
202011111400 METAR MROC 111400Z 22005KT 9999 BCFG FEW005 OVC100 22/19 A3009 NOSIG=
202011111500 METAR MROC 111500Z VRB01KT CAVOK 24/19 A3009 NOSIG=
202011111600 METAR MROC 111600Z 24003KT 190V330 9999 FEW045 OVC090 25/19 A3008 NOSIG=
202011111700 METAR MROC 111700Z 23007KT 9999 FEW035 OVC090 24/21 A3007 NOSIG=
202011111800 METAR MROC 111800Z 24009KT 9999 SCT035 SCT100 25/20 A3004 NOSIG=
202011111900 METAR MROC 111900Z 27008KT 240V300 9999 -RA SCT015CB BKN020 23/21 A3001 BECMG TSRA=
202011112000 METAR MROC 112000Z 24006KT 9999 FEW015 SCT035 BKN080 23/21 A2999 NOSIG=
202011112100 METAR MROC 112100Z 26006KT 9999 SCT015 BKN100 23/22 A2998 NOSIG=
202011112200 METAR MROC 112200Z 21007KT 170V240 9999 -RA SCT010 OVC100 22/22 A2998 NOSIG=
202011112300 METAR MROC 112300Z 27004KT 9999 SCT010 OVC100 21/21 A3007 NOSIG=
202011120000 METAR MROC 120000Z 36003KT 9999 SCT020 OVC100 21/21 A3002 NOSIG=
202011120100 METAR MROC 120100Z 03003KT 9999 SCT015 OVC100 21/21 A3005 NOSIG=
202011120200 METAR MROC 120200Z 11003KT 9999 SCT025 BKN100 21/21 A3007 NOSIG=
202011120300 METAR MROC 120300Z VRB01KT 9999 SCT025 BKN100 21/21 A3008 NOSIG=
202011120400 METAR MROC 120400Z VRB02KT 9999 BKN035 21/21 A3008 NOSIG=
202011120500 METAR MROC 120500Z 11002KT 9999 BKN030 21/21 A3006 NOSIG=
202011120600 METAR MROC 120600Z VRB02KT 9999 BKN030 21/21 A3004 NOSIG=
202011120700 METAR MROC 120700Z 07006KT CAVOK 20/20 A3000 NOSIG=
202011120800 METAR MROC 120800Z 05006KT CAVOK 20/19 A2997 NOSIG=
202011120900 METAR MROC 120900Z 04004KT 010V070 CAVOK 19/18 A2997 NOSIG=
202011121000 METAR MROC 121000Z 03005KT CAVOK 20/18 A2998 NOSIG=
202011121100 METAR MROC 121100Z 04004KT CAVOK 19/18 A3000 NOSIG=
202011121200 METAR MROC 121200Z 10003KT 070V130 CAVOK 19/18 A3001 NOSIG=
202011121300 METAR MROC 121300Z 07006KT 020V090 9999 BCFG FEW003 23/19 A3003 NOSIG=
202011121400 METAR MROC 121400Z VRB03KT CAVOK 25/18 A3004 BECMG 24007KT=
202011121500 METAR MROC 121500Z 13005KT 080V190 CAVOK 27/19 A3004 NOSIG=
202011121600 METAR MROC 121600Z 25007KT 130V280 CAVOK 26/20 A3003 NOSIG=
202011121700 METAR MROC 121700Z 25010KT 220V280 9999 FEW040 26/22 A3002 NOSIG=
202011121800 METAR MROC 121800Z 24010KT 9999 FEW040 26/21 A3004 NOSIG=
202011121900 METAR MROC 121900Z COR 24011KT 210V270 9999 BKN030 26/22 A2998 NOSIG=
202011122000 METAR MROC 122000Z 24010KT 210V280 9999 VCTS VCSH SCT015 FEW020CB BKN050 26/21 A2996 NOSIG=
202011122100 METAR MROC 122100Z 25008KT 9999 -TSRA SCT010CB BKN100 23/23 A2996 NOSIG=
202011122200 METAR MROC 122200Z 31003KT 230V010 9999 SCT005 BKN010 22/22 A2995 RETS NOSIG=
202011122300 METAR MROC 122300Z 23006KT 9999 BKN010 22/22 A2997 NOSIG=
202011130000 METAR MROC 130000Z 22003KT 9999 BKN010 22/22 A3000 NOSIG=
202011130100 METAR MROC 130100Z 35003KT 290V050 9999 BKN015 22/22 A3003 NOSIG=
202011130200 METAR MROC 130200Z VRB02KT 9999 SCT020 OVC100 22/21 A3006 NOSIG=
202011130300 METAR MROC 130300Z VRB01KT 9999 SCT025 OVC100 22/21 A3007 NOSIG=
202011130400 METAR MROC 130400Z VRB02KT 9999 FEW005 SCT050 21/21 A3008 NOSIG=
202011130500 METAR MROC 130500Z VRB02KT 9999 FEW005 BKN080 21/21 A3007 NOSIG=
202011130600 METAR MROC 130600Z VRB01KT 9999 FEW005 21/21 A3005 NOSIG=
202011130700 METAR MROC 130700Z 05006KT 9999 BCFG NSC 20/20 A3002 NOSIG=
202011130800 METAR MROC 130800Z 05005KT CAVOK 20/20 A3000 NOSIG=
202011130900 METAR MROC 130900Z 06009KT CAVOK 20/17 A3000 NOSIG=
202011131000 METAR MROC 131000Z 05008KT CAVOK 20/17 A3000 NOSIG=
202011131100 METAR MROC 131100Z 06008KT CAVOK 20/17 A3001 NOSIG=
202011131200 METAR MROC 131200Z 05009KT CAVOK 20/17 A3002 NOSIG=
202011131300 METAR MROC 131300Z 07006KT CAVOK 22/18 A3004 NOSIG=
202011131400 METAR MROC 131400Z 18003KT 120V210 CAVOK 23/18 A3006 NOSIG=
202011131500 METAR MROC 131500Z 24005KT 210V270 CAVOK 24/20 A3008 NOSIG=
202011131600 METAR MROC 131600Z 27008KT CAVOK 25/20 A3007 NOSIG=
202011131700 METAR MROC 131700Z 25007KT 210V290 9999 FEW025 26/21 A3006 NOSIG=
202011131800 METAR MROC 131800Z 24010KT 9999 SCT025TCU 26/21 A3003 NOSIG=
202011131900 METAR MROC 131900Z 24010KT 200V270 9999 SCT030 26/21 A3001 NOSIG=
202011132000 METAR MROC 132000Z 23009KT 200V260 9999 DZ BKN030 25/20 A2998 NOSIG=
202011132100 METAR MROC 132100Z 22005KT 190V250 9999 -RA FEW020 SCT035 25/21 A2996 NOSIG=
202011132200 METAR MROC 132200Z 25007KT 9999 FEW015 SCT025 24/22 A2996 NOSIG=
202011132300 METAR MROC 132300Z 24009KT 3000 BR OVC004 22/22 A2998 NOSIG=
202011140000 METAR MROC 140000Z 26006KT 240V300 8000 VCFG FEW003 SCT005 BKN012 22/22 A3002 NOSIG=
202011140100 METAR MROC 140100Z VRB02KT 9999 BCFG FEW003 SCT005 BKN020 22/22 A3005 NOSIG=
202011140200 METAR MROC 140200Z 00000KT 9999 BCFG FEW010 SCT060 22/21 A3008 NOSIG=
202011140300 METAR MROC 140300Z 00000KT 9999 BCFG FEW003 SCT010 21/21 A3007 NOSIG=
202011140400 METAR MROC 140400Z 07005KT 9999 FEW025 22/18 A3008 NOSIG=
202011140500 METAR MROC 140500Z VRB02KT CAVOK 20/19 A3007 NOSIG=
202011140600 METAR MROC 140600Z 00000KT 9999 1000W BCFG SCT003 20/20 A3006 TEMPO 3000 BR=
202011140700 METAR MROC 140700Z VRB02KT 9999 SCT004 20/20 A3004 NOSIG=
202011140800 METAR MROC 140800Z 08003KT 9999 SCT010 20/19 A3003 NOSIG=
202011140900 METAR MROC 140900Z 08005KT CAVOK 19/18 A3001 NOSIG=
202011141000 METAR MROC 141000Z 08006KT CAVOK 19/17 A3000 NOSIG=
202011141100 METAR MROC 141100Z 06003KT CAVOK 19/17 A3000 NOSIG=
202011141200 METAR MROC 141200Z 10003KT 070V140 CAVOK 19/17 A3003 NOSIG=
202011141300 METAR MROC 141300Z 16004KT 9999 FEW040 SCT070 20/18 A3004 NOSIG=
202011141400 METAR MROC 141400Z VRB02KT 9999 FEW040 SCT070 23/18 A3006 BECMG 25006KT=
202011141500 METAR MROC 141500Z 30006KT 250V330 9999 FEW045 BKN060 24/19 A3007 NOSIG=
202011141600 METAR MROC 141600Z 24004KT 210V290 9999 FEW030 BKN060 24/20 A3007 NOSIG=
202011141700 METAR MROC 141700Z 15004KT 120V190 9999 -DZ FEW020 SCT050 BKN100 23/19 A3004 NOSIG=
202011141800 METAR MROC 141800Z 16004KT 100V200 9999 FEW030 SCT050 BKN100 24/20 A3001 NOSIG=
202011141900 METAR MROC 141900Z 11006KT 080V180 9999 FEW030 BKN120 25/20 A2998 NOSIG=
202011142000 METAR MROC 142000Z VRB03KT 9999 FEW045 BKN120 27/20 A2994 NOSIG=
202011142100 METAR MROC 142100Z 23012KT 9999 FEW025 SCT035 BKN120 25/21 A2993 NOSIG=
202011142200 METAR MROC 142200Z 24010KT 8000 RA SCT007 BKN035 23/22 A2995 NOSIG=
202011142300 METAR MROC 142300Z 22008KT 180V240 2000 RA BR VCTS FEW005 SCT012CB BKN025 21/21 A2998 NOSIG=
202011150000 METAR MROC 150000Z VRB02KT 9999 -RA FEW003 SCT008 BKN060 21/21 A2999 NOSIG=
202011150100 METAR MROC 150100Z 09003KT 9999 SCT030 BKN120 21/21 A3002 NOSIG=
202011150200 METAR MROC 150200Z VRB02KT 9999 BCFG FEW008 BKN120 21/21 A3005 NOSIG=
202011150300 METAR MROC 150300Z 09003KT 040V120 9999 BCFG NSC 20/20 A3004 NOSIG=
202011150340 METAR MROC 150340Z 25003KT 210V290 6000 BCFG FEW003 BKN012 21/21 A3005 TEMPO 5000 BR BKN010=
202011150400 METAR MROC 150400Z 25003KT 210V290 6000 BCFG FEW003 BKN012 21/21 A3005 TEMPO 5000 BR BKN010=
202011150500 METAR MROC 150500Z VRB02KT 9999 BKN010 20/20 A3004 NOSIG=
202011150600 METAR MROC 150600Z 00000KT CAVOK 20/20 A3003 TEMPO 5000 BR=
202011150700 METAR MROC 150700Z 36002KT 9999 4500S BCFG SCT007 20/20 A3000 NOSIG=
202011150800 METAR MROC 150800Z 16003KT 9999 FEW009 19/19 A2998 NOSIG=
202011150900 METAR MROC 150900Z 05003KT 010V070 9999 SCT012 19/19 A2997 NOSIG=
202011151000 METAR MROC 151000Z 07004KT 9999 FEW010 19/19 A2997 NOSIG=
202011151100 METAR MROC 151100Z VRB02KT CAVOK 19/19 A2997 NOSIG=
202011151200 METAR MROC 151200Z 09005KT CAVOK 18/18 A2998 NOSIG=
202011151300 METAR MROC 151300Z VRB02KT CAVOK 21/19 A3000 BECMG 25006KT=
202011151400 METAR MROC 151400Z 25003KT 210V010 9999 FEW015 22/19 A3003 NOSIG=
202011151500 METAR MROC 151500Z 26003KT 190V360 9999 FEW020 24/19 A3003 NOSIG=
202011151600 METAR MROC 151600Z 24007KT 210V270 9999 FEW020 24/20 A3003 NOSIG=
202011151700 METAR MROC 151700Z 26007KT 210V330 9999 SCT030 25/20 A3001 NOSIG=
202011151800 METAR MROC 151800Z 25007KT 210V300 9999 FEW025 SCT060 26/21 A2998 NOSIG=
202011151900 METAR MROC 151900Z 23009KT 200V270 9999 VCSH FEW020TCU FEW030 SCT060 26/20 A2995 NOSIG=
202011152000 METAR MROC 152000Z 24010KT 210V270 9999 FEW020TCU SCT060 26/22 A2992 NOSIG=
202011152100 METAR MROC 152100Z 23010KT 9999 -RA FEW015TCU BKN040 24/22 A2991 NOSIG=
202011152200 METAR MROC 152200Z 24010KT 9999 SCT010 BKN035 23/22 A2991 TEMPO RA=
202011152300 METAR MROC 152300Z 25009KT 9999 VCTS FEW010 BKN030 22/21 A2994 NOSIG=
202011160000 METAR MROC NIL=
202011160100 METAR MROC 160100Z VRB01KT 9999 BKN048 21/21 A2999 RETSRA NOSIG=
202011160200 METAR MROC 160200Z VRB02KT CAVOK 21/21 A3000 NOSIG=
202011160300 METAR MROC 160300Z VRB02KT CAVOK 21/21 A3001 NOSIG=
202011160400 METAR MROC 160400Z 00000KT 9999 BCFG NSC 21/21 A3001 NOSIG=
202011160500 METAR MROC 160500Z 00000KT 9999 BCFG NSC 21/20 A3001 NOSIG=
202011160600 METAR MROC 160600Z 03003KT 9999 BCFG NSC 20/20 A2998 NOSIG=
202011160700 METAR MROC 160700Z VRB02KT 0800 R07/P2000N FG VV002 20/20 A2995 NOSIG=
202011160800 METAR MROC 160800Z VRB02KT 3000 BR FEW003 BKN008 20/20 A2994 NOSIG=
202011160900 METAR MROC 160900Z VRB02KT 8000 3000SW VCFG SCT003 OVC008 20/20 A2994 NOSIG=
202011161000 METAR MROC 161000Z 08002KT 8000 VCFG SCT005 BKN010 20/20 A2994 NOSIG=
202011161100 METAR MROC 161100Z VRB02KT 9999 VCFG FEW010 SCT025 BKN200 20/20 A2995 NOSIG=
202011161200 METAR MROC 161200Z 04003KT 360V070 9999 BCFG FEW035 SCT100 BKN200 20/20 A2997 NOSIG=
202011161300 METAR MROC 161300Z 10003KT CAVOK 20/20 A2999 NOSIG=
202011161400 METAR MROC 161400Z VRB02KT CAVOK 22/20 A3001 BECMG 24006KT=
202011161500 METAR MROC 161500Z VRB02KT CAVOK 23/19 A3002 NOSIG=
202011161600 METAR MROC 161600Z 21004KT 160V270 9999 FEW040 BKN250 24/19 A3002 NOSIG=
202011161700 METAR MROC 161700Z 25009KT 9999 SCT040 BKN200 23/20 A3001 NOSIG=
202011161800 METAR MROC 161800Z 24009KT 9999 SCT025 BKN220 24/20 A2998 NOSIG=
202011161900 METAR MROC 161900Z 24009KT 220V290 9999 SCT020 BKN250 24/20 A2995 NOSIG=
202011162000 METAR MROC 162000Z 25009KT 9999 SCT030 BKN250 24/19 A2992 NOSIG=
202011162100 METAR MROC 162100Z 25009KT 220V280 9999 FEW010 SCT050 OVC180 23/20 A2990 NOSIG=
202011162200 METAR MROC 162200Z 25008KT 9999 FEW008 SCT040 OVC100 22/20 A2990 NOSIG=
202011162300 METAR MROC 162300Z 25008KT 9999 DZ FEW005 SCT030 OVC090 21/20 A2992 NOSIG=
202011170000 METAR MROC 170000Z 25007KT 9999 4500W -DZ BCFG SCT005 BKN025 21/21 A2994 BECMG 5000 BKN015=
202011170100 METAR MROC 170100Z 25005KT 8000 3000W BCFG BKN004 OVC035 21/21 A2997 NOSIG=
202011170200 METAR MROC 170200Z 25005KT 8000 -RA BKN003 OVC015 21/21 A3000 NOSIG=
202011170300 METAR MROC 170300Z 27004KT 230V300 9999 -RA SCT003 BKN040 21/21 A3001 NOSIG=
202011170400 METAR MROC 170400Z 24005KT 6000 -RA BCFG FEW002 BKN015 20/20 A3001 NOSIG=
202011170500 METAR MROC 170500Z 24004KT 9000 2000SW -RA BCFG FEW002 SCT015 BKN030 20/20 A3000 NOSIG=
202011170600 METAR MROC 170600Z 26004KT 9999 2500SW BCFG FEW002 SCT015 20/20 A2997 NOSIG=
202011170700 METAR MROC 170700Z 28005KT 250V310 6000 2000SW BCFG FEW005 BKN020 20/20 A2995 NOSIG=
202011170800 METAR MROC 170800Z 24006KT 5000 2000SW -RA BR SCT002 OVC015 20/20 A2994 NOSIG=
202011170900 METAR MROC 170900Z COR 23005KT 190V250 5000 2000SW BR SCT002 OVC020 20/20 A2993 NOSIG=
202011171000 METAR MROC 171000Z 27004KT 7000 BCFG SCT002 BKN020 20/20 A2994 NOSIG=
202011171100 METAR MROC 171100Z VRB02KT 9999 FEW002 SCT020 20/20 A2995 NOSIG=
202011171200 METAR MROC 171200Z 27004KT 230V300 8000 -RA VCFG FEW006 SCT010 BKN060 20/20 A2997 NOSIG=
202011171300 METAR MROC 171300Z 28003KT 8000 VCFG SCT003 BKN015 OVC100 20/20 A2999 NOSIG=
202011171400 METAR MROC 171400Z 26005KT 200V290 9999 FEW005 BKN010 OVC100 21/21 A3001 NOSIG=
202011171500 METAR MROC 171500Z 26008KT 9999 SCT005 BKN010 OVC100 21/21 A3003 NOSIG=
202011171600 METAR MROC 171600Z 27010KT 8000 VCFG BKN005 OVC100 21/21 A3003 NOSIG=
202011171700 METAR MROC 171700Z 24010KT 210V280 9999 FEW005 BKN010 OVC100 23/21 A3001 NOSIG=
202011171800 METAR MROC 171800Z 26009KT 220V290 8000 VCFG SCT003 BKN010 OVC100 21/21 A3000 NOSIG=
202011171900 METAR MROC 171900Z 27008KT 230V320 9999 SCT005 BKN009 OVC100 21/21 A2997 NOSIG=
202011172000 METAR MROC 172000Z 28010KT 9999 -RA SCT005 BKN010 OVC100 21/21 A2996 NOSIG=
202011172100 METAR MROC 172100Z 28011KT 9999 -RA FEW007 BKN011 21/20 A2994 NOSIG=
202011172200 METAR MROC 172200Z 27008KT 9999 4500SW -RA OVC010 21/20 A2995 TEMPO 5000 BR=
202011172300 METAR MROC 172300Z 27007KT 4000 -RA BR FEW006 OVC008 20/20 A2997 TEMPO 3000=
202011180000 METAR MROC 180000Z 27005KT 9999 3000SE -RA BCFG FEW005 OVC012 20/20 A2999 TEMPO 5000 BR=
202011180100 METAR MROC 180100Z 29003KT 9999 -RA VCFG OVC006 20/20 A3002 TEMPO 5000 BR=
202011180200 METAR MROC 180200Z 32004KT 9999 VCFG FEW003 OVC015 20/20 A3005 TEMPO 5000 BR=
202011180300 METAR MROC 180300Z 36004KT 9999 4500SE BCFG FEW015 20/20 A3005 NOSIG=
202011180400 METAR MROC 180400Z 20004KT 160V270 9000 4000W BCFG FEW001 OVC030 19/19 A3006 NOSIG=
202011180500 METAR MROC 180500Z 05002KT CAVOK 19/19 A3004 NOSIG=
202011180600 METAR MROC 180600Z COR VRB01KT 3000 BR BKN005 19/19 A3003 NOSIG=
202011180700 METAR MROC 180700Z 05003KT 350V060 9999 FEW004 19/19 A3001 NOSIG=
202011180800 METAR MROC 180800Z 10003KT 080V150 9999 FEW005 BKN060 19/19 A3000 NOSIG=
202011180900 METAR MROC 180900Z VRB02KT CAVOK 19/19 A2999 NOSIG=
202011181000 METAR MROC 181000Z 07003KT CAVOK 19/19 A3000 NOSIG=
202011181100 METAR MROC 181100Z 09003KT 9999 SCT030 BKN170 18/18 A3002 NOSIG=
202011181200 METAR MROC 181200Z 01002KT 9999 VCFG SCT001 BKN120 19/19 A3003 NOSIG=
202011181300 METAR MROC 181300Z 10003KT 8000 VCFG FEW015 BKN150 19/19 A3005 NOSIG=
202011181400 METAR MROC 181400Z VRB02KT 9999 BCFG FEW015 BKN150 21/18 A3006 NOSIG=
202011181500 METAR MROC 181500Z VRB02KT 9999 BCFG FEW015 BKN150 22/18 A3007 NOSIG=
202011181600 METAR MROC 181600Z 27003KT 9999 FEW015 BKN150 23/19 A3007 NOSIG=
202011181700 METAR MROC 181700Z 24005KT 170V270 9999 FEW020 BKN150 24/18 A3005 NOSIG=
202011181800 METAR MROC 181800Z 26007KT 240V310 9999 FEW030 BKN200 24/19 A3002 NOSIG=
202011181900 METAR MROC 181900Z 26008KT 210V290 9999 SCT030 BKN200 25/18 A2999 NOSIG=
202011182000 METAR MROC 182000Z 24012KT 210V280 9999 FEW025 SCT120 BKN200 24/20 A2996 NOSIG=
202011182100 METAR MROC 182100Z 24009KT 9999 -RA FEW006 BKN010 22/21 A2995 TEMPO RA=
202011182200 METAR MROC 182200Z 26008KT 9999 BKN010 22/21 A2996 NOSIG=
202011182300 METAR MROC 182300Z 25006KT 9999 3000SW BCFG SCT003 SCT200 21/21 A2997 TEMPO 5000 BR=
202011190000 METAR MROC 190000Z 26004KT 9999 FEW003 BKN015 21/21 A3000 NOSIG=
202011190100 METAR MROC 190100Z 25003KT 9999 FEW003 BKN005 20/20 A3002 TEMPO 5000 BR=
202011190200 METAR MROC 190200Z 00000KT 9999 FEW003 BKN030 20/20 A3004 NOSIG=
202011190300 METAR MROC 190300Z 25003KT 9999 4500SW BCFG SCT001 BKN020 20/20 A3006 TEMPO 5000 BR=
202011190400 METAR MROC NIL=
202011190500 METAR MROC NIL=
202011190600 METAR MROC 190600Z 24004KT 020V080 9999 FEW002 20/20 A3002 NOSIG=
202011190700 METAR MROC 190700Z 02004KT 360V060 CAVOK 19/19 A3000 NOSIG=
202011190800 METAR MROC 190800Z VRB01KT CAVOK 18/18 A2999 NOSIG=
202011190900 METAR MROC 190900Z 00000KT 9999 FEW003 18/18 A2999 NOSIG=
202011191000 METAR MROC 191000Z 07004KT 9999 FEW005 18/18 A2999 NOSIG=
202011191100 METAR MROC 191100Z 02004KT CAVOK 18/18 A2999 NOSIG=
202011191200 METAR MROC 191200Z 04005KT 340V080 CAVOK 18/18 A3001 NOSIG=
202011191300 METAR MROC 191300Z 09003KT 9999 FEW040 BKN180 19/18 A3004 BECMG 25004KT=
202011191400 METAR MROC 191400Z 03005KT CAVOK 22/18 A3006 NOSIG=
202011191500 METAR MROC 191500Z 36004KT 310V040 CAVOK 24/18 A3006 NOSIG=
202011191600 METAR MROC 191600Z 22008KT 190V250 9999 FEW040 BKN170 24/20 A3005 NOSIG=
202011191700 METAR MROC 191700Z 24008KT 200V280 9999 FEW035 OVC170 25/20 A3002 NOSIG=
202011191800 METAR MROC 191800Z 24007G17KT 200V270 9999 FEW030 OVC170 26/21 A3000 NOSIG=
202011191900 METAR MROC 191900Z 26010KT 210V280 9999 FEW030 SCT170 BKN250 25/21 A2997 NOSIG=
202011192000 METAR MROC 192000Z 25011KT 9999 -RA SCT020TCU BKN140 25/21 A2995 NOSIG=
202011192100 METAR MROC 192100Z 25010KT 9999 BKN030 24/21 A2995 NOSIG=
202011192200 METAR MROC 192200Z 20004KT 150V230 9999 -RA SCT005 BKN010 22/22 A2995 NOSIG=
202011192300 METAR MROC 192300Z 24006KT 5000 BR SCT003 BKN170 21/21 A2996 NOSIG=
202011200000 METAR MROC 200000Z 26005KT 5000 BR BKN003 21/21 A2998 NOSIG=
202011200100 METAR MROC 200100Z 25003KT 220V280 5000 BR SCT003 BKN015 21/21 A3001 NOSIG=
202011200200 METAR MROC 200200Z 26003KT 220V280 5000 BR SCT002 BKN015 21/21 A3003 NOSIG=
202011200300 METAR MROC 200300Z 00000KT 5000 BR BKN002 21/21 A3003 NOSIG=
202011200400 METAR MROC 200400Z 13003KT 9000 1000NE BCFG SCT004 20/20 A3003 NOSIG=
202011200500 METAR MROC 200500Z 36004KT 330V030 2000 BR SCT002 20/20 A3002 NOSIG=
202011200600 METAR MROC 200600Z VRB02KT 0100 R07/P2000N FG SCT002 20/20 A3001 BECMG 2000 BR=
202011200700 METAR MROC 200700Z VRB02KT 9999 4500SW BCFG FEW001 20/20 A2999 NOSIG=
202011200800 METAR MROC 200800Z 06004KT 9999 FEW025 19/19 A2997 NOSIG=
202011200900 METAR MROC 200900Z 08005KT CAVOK 19/19 A2996 NOSIG=
202011201000 METAR MROC 201000Z 06006KT 030V090 CAVOK 19/19 A2996 NOSIG=
202011201100 METAR MROC 201100Z 10005KT CAVOK 19/18 A2997 NOSIG=
202011201200 METAR MROC 201200Z 04005KT 010V080 CAVOK 19/18 A3000 NOSIG=
202011201300 METAR MROC 201300Z 08005KT 030V120 CAVOK 21/18 A3001 NOSIG=
202011201400 METAR MROC 201400Z 09005KT 060V130 CAVOK 24/19 A3003 NOSIG=
202011201500 METAR MROC 201500Z VRB03KT 9999 FEW045 26/19 A3003 NOSIG=
202011201600 METAR MROC 201600Z 09003KT 030V160 9999 FEW045 BKN060 26/19 A3002 BECMG 24008KT=
202011201700 METAR MROC 201700Z 27006KT 230V320 9999 FEW045 SCT060 BKN170 25/21 A3000 NOSIG=
202011201800 METAR MROC 201800Z 24008KT 9999 BKN045 24/20 A2997 NOSIG=
202011201900 METAR MROC 201900Z 25010KT 9999 BKN040 24/20 A2995 NOSIG=
202011202000 METAR MROC 202000Z 24009KT 9999 BKN044 25/22 A2993 NOSIG=
202011202100 METAR MROC 202100Z 18006KT 140V220 9999 -RA SCT005 SCT050 22/20 A2992 NOSIG=
202011202200 METAR MROC 202200Z 06004KT 9999 FEW030 BKN150 23/21 A2993 NOSIG=
202011202300 METAR MROC 202300Z 24005KT 220V280 9999 FEW002 SCT035 BKN200 22/22 A2995 NOSIG=
202011210000 METAR MROC 210000Z 27004KT 230V290 7000 BKN002 21/21 A2996 NOSIG=
202011210100 METAR MROC 210100Z VRB01KT 7000 2000SW BCFG BKN003 21/21 A2999 NOSIG=
202011210200 METAR MROC 210200Z VRB01KT 9999 SCT005 21/21 A3000 NOSIG=
202011210300 METAR MROC 210300Z VRB02KT 9999 SCT015 21/21 A3000 NOSIG=
202011210400 METAR MROC 210400Z VRB02KT 9999 FEW030 SCT120 21/19 A3000 NOSIG=
202011210500 METAR MROC 210500Z 10008KT 9999 FEW030 21/18 A2999 NOSIG=
202011210600 METAR MROC 210600Z 05007KT 020V080 CAVOK 20/19 A2996 NOSIG=
202011210700 METAR MROC 210700Z VRB02KT 9999 FEW030 19/19 A2996 NOSIG=
202011210800 METAR MROC 210800Z 36003KT 9999 BCFG FEW030 20/19 A2995 NOSIG=
202011210900 METAR MROC 210900Z 07003KT 9999 FEW030 19/18 A2992 NOSIG=
202011211000 METAR MROC 211000Z 04005KT CAVOK 19/18 A2992 NOSIG=
202011211100 METAR MROC 211100Z 05005KT CAVOK 19/17 A2993 NOSIG=
202011211200 METAR MROC 211200Z 07003KT 040V100 9999 FEW035 OVC200 18/18 A2995 NOSIG=
202011211300 METAR MROC 211300Z 08007KT 050V130 CAVOK 22/18 A2996 NOSIG=
202011211400 METAR MROC 211400Z 12007KT 080V180 CAVOK 24/18 A2999 NOSIG=
202011211500 METAR MROC 211500Z 11009KT 080V180 CAVOK 25/18 A2999 NOSIG=
202011211600 METAR MROC 211600Z 24007KT 9999 FEW040 BKN060 24/20 A2999 NOSIG=
202011211700 METAR MROC 211700Z 26009KT 220V290 9999 SCT040 BKN180 25/21 A2997 NOSIG=
202011211800 METAR MROC 211800Z 24008KT 9999 BKN035 25/21 A2994 NOSIG=
202011211900 METAR MROC 211900Z 25010KT 9999 BKN035 25/21 A2991 NOSIG=
202011212000 METAR MROC 212000Z 24010KT 9999 -RA SCT015 BKN030 OVC080 24/21 A2990 NOSIG=
202011212100 METAR MROC 212100Z 21008KT 170V230 9999 RA SCT010 OVC100 22/21 A2990 NOSIG=
202011212200 METAR MROC 212200Z 26005KT 230V310 8000 RA FEW010 SCT025 OVC100 21/21 A2991 NOSIG=
202011212300 METAR MROC 212300Z 34003KT 300V020 9999 -RA SCT010 BKN025 OVC100 21/21 A2993 NOSIG=
202011220000 METAR MROC 220000Z 32004KT 9999 BKN010 OVC100 21/21 A2995 NOSIG=
202011220100 METAR MROC 220100Z 31005KT 9999 -RA BKN005 OVC100 20/20 A2998 NOSIG=
202011220200 METAR MROC 220200Z 34006KT 9999 BKN010 OVC100 20/20 A3001 NOSIG=
202011220300 METAR MROC 220300Z 29003KT 9999 -RA SCT015 OVC100 20/20 A3002 NOSIG=
202011220400 METAR MROC 220400Z 04002KT 9999 FEW015 20/20 A3001 NOSIG=
202011220500 METAR MROC 220500Z 08003KT 9999 FEW040 20/20 A2998 NOSIG=
202011220600 METAR MROC 220600Z COR 02003KT 9999 -RA NSC 20/20 A2996 NOSIG=
202011220700 METAR MROC 220700Z VRB02KT 9999 FEW001 20/20 A2994 NOSIG=
202011220800 METAR MROC 220800Z 06003KT CAVOK 19/19 A2993 NOSIG=
202011220900 METAR MROC 220900Z 07003KT CAVOK 19/19 A2991 NOSIG=
202011221000 METAR MROC 221000Z 04006KT CAVOK 19/19 A2992 NOSIG=
202011221100 METAR MROC 221100Z 09003KT CAVOK 18/18 A2994 NOSIG=
202011221200 METAR MROC 221200Z 02004KT CAVOK 18/18 A2996 NOSIG=
202011221300 METAR MROC 221300Z 09004KT CAVOK 20/20 A3000 NOSIG=
202011221400 METAR MROC 221400Z VRB02KT CAVOK 22/20 A3002 BECMG 24005KT=
202011221500 METAR MROC 221500Z VRB02KT 9999 FEW030 SCT045 BKN100 22/20 A3003 BECMG 24005KT=
202011221600 METAR MROC 221600Z COR 26005KT 210V310 9999 FEW025 BKN100 23/19 A3001 NOSIG=
202011221700 METAR MROC 221700Z COR 24008KT 210V270 9999 FEW020 BKN120 24/20 A2999 NOSIG=
202011221800 METAR MROC 221800Z 24007KT 190V280 9999 SCT025 BKN100 24/20 A2996 NOSIG=
202011221900 METAR MROC 221900Z 24007KT 200V280 9999 BKN030 25/20 A2994 NOSIG=
202011222000 METAR MROC 222000Z 28011KT 9999 OVC030 23/21 A2992 NOSIG=
202011222100 METAR MROC 222100Z 22008KT 9999 SCT010 BKN020 OVC100 21/21 A2992 NOSIG=
202011222200 METAR MROC 222200Z 28007KT 9999 -RA SCT005 BKN020 OVC100 21/21 A2993 NOSIG=
202011222300 METAR MROC 222300Z 31006KT 240V330 9999 BKN007 OVC100 21/21 A2995 NOSIG=
202011230000 METAR MROC 230000Z 29003KT 250V360 9999 FEW005 SCT010 BKN100 21/21 A2996 NOSIG=
202011230100 METAR MROC 230100Z 25003KT 240V300 9999 BKN012 OVC100 21/21 A2998 NOSIG=
202011230200 METAR MROC 230200Z VRB02KT 9999 SCT005 BKN015 20/20 A3001 NOSIG=
202011230300 METAR MROC 230300Z 10003KT 9999 SCT006 BKN010 OVC100 20/20 A3002 NOSIG=
202011230400 METAR MROC 230400Z 04002KT CAVOK 20/20 A3002 NOSIG=
202011230500 METAR MROC 230500Z 02003KT CAVOK 20/20 A3001 NOSIG=
202011230600 METAR MROC 230600Z 28001KT 9999 4500SW BCFG NSC 19/19 A3000 NOSIG=
202011230700 METAR MROC 230700Z 12004KT 9999 4500SW BCFG NSC 18/18 A2999 NOSIG=
202011230800 METAR MROC 230800Z 05004KT 1500 R07/0650N BR SCT001 BKN005 19/19 A2997 NOSIG=
202011230900 METAR MROC 230900Z 09004KT CAVOK 18/18 A2997 NOSIG=
202011231000 METAR MROC 231000Z 07005KT CAVOK 18/18 A2995 NOSIG=
202011231100 METAR MROC 231100Z 06005KT CAVOK 19/18 A2997 NOSIG=
202011231200 METAR MROC 231200Z 06003KT 9999 BCFG NSC 19/18 A2999 NOSIG=
202011231300 METAR MROC 231300Z VRB02KT 9999 4500S BCFG NSC 21/19 A3001 NOSIG=
202011231400 METAR MROC 231400Z VRB02KT CAVOK 23/19 A3002 BECMG 25007KT=
202011231500 METAR MROC 231500Z VRB03KT CAVOK 24/20 A3002 NOSIG=
202011231600 METAR MROC 231600Z 25006KT 220V290 9999 FEW030 25/20 A3002 NOSIG=
202011231700 METAR MROC 231700Z 25008KT 190V290 9999 FEW025 25/21 A3000 NOSIG=
202011231800 METAR MROC 231800Z 25010KT 220V280 9999 FEW025 25/22 A2997 NOSIG=
202011231900 METAR MROC 231900Z 23009KT 210V270 9999 BKN020 25/22 A2995 NOSIG=
202011232000 METAR MROC 232000Z 23008KT 190V260 9999 BKN020 25/21 A2992 NOSIG=
202011232100 METAR MROC 232100Z 24010KT 210V270 9999 BKN020 24/22 A2991 NOSIG=
202011232200 METAR MROC 232200Z 24007KT 8000 VCFG OVC005 22/22 A2993 NOSIG=
202011232300 METAR MROC 232300Z 22004KT 190V270 8000 3000SW VCFG OVC005 22/22 A2994 NOSIG=
202011240000 METAR MROC 240000Z 27003KT 8000 VCFG OVC005 22/22 A2997 NOSIG=
202011240100 METAR MROC 240100Z 25003KT 9999 SCT005 BKN150 21/21 A2998 NOSIG=
202011240200 METAR MROC 240200Z 23004KT 9999 FEW005 SCT045 BKN120 21/21 A3000 NOSIG=
202011240300 METAR MROC 240300Z 00000KT 1000 R07/P2000N BR OVC005 21/21 A3002 NOSIG=
202011240400 METAR MROC 240400Z VRB02KT 3500 BR BKN005 21/21 A3001 NOSIG=
202011240500 METAR MROC 240500Z VRB02KT 1500 BR BKN002 OVC010 21/21 A3001 NOSIG=
202011240600 METAR MROC 240600Z 34003KT 330V140 9999 FEW003 BKN020 21/21 A2999 NOSIG=
202011240700 METAR MROC 240700Z 36003KT 340V060 9999 FEW035 BKN100 21/21 A2997 NOSIG=
202011240800 METAR MROC 240800Z 08003KT 360V130 9999 FEW005 BKN100 22/21 A2996 NOSIG=
202011240900 METAR MROC 240900Z 07004KT CAVOK 21/21 A2994 NOSIG=
202011241000 METAR MROC 241000Z VRB04KT CAVOK 22/20 A2994 NOSIG=
202011241100 METAR MROC 241100Z 01005KT 330V050 CAVOK 22/21 A2997 NOSIG=
202011241200 METAR MROC 241200Z 10003KT 070V130 CAVOK 21/21 A3000 NOSIG=
202011241300 METAR MROC 241300Z 08006KT 050V140 CAVOK 24/19 A3001 NOSIG=
202011241400 METAR MROC 241400Z VRB04KT 9999 FEW025 BKN130 24/19 A3003 NOSIG=
202011241500 METAR MROC 241500Z 29005KT 260V360 9999 FEW020 BKN150 26/21 A3004 NOSIG=
202011241600 METAR MROC 241600Z 11009KT 080V150 CAVOK 26/19 A3002 NOSIG=
202011241700 METAR MROC 241700Z 11007KT 060V160 9999 FEW020 BKN150 27/19 A3000 NOSIG=
202011241800 METAR MROC 241800Z 12010KT 090V150 CAVOK 26/19 A2997 NOSIG=
202011241900 METAR MROC 241900Z 12006KT 090V180 CAVOK 27/19 A2994 NOSIG=
202011242000 METAR MROC 242000Z 27006KT 9999 BKN045 26/21 A2993 NOSIG=
202011242100 METAR MROC 242100Z 23008KT 180V270 9999 FEW030 BKN045 25/22 A2992 NOSIG=
202011242200 METAR MROC 242200Z 23009KT 210V270 9999 FEW030 BKN045 24/22 A2992 NOSIG=
202011242300 METAR MROC 242300Z 26007KT 9999 4000SW BCFG SCT003 BKN040 22/22 A2995 NOSIG=
202011250000 METAR MROC 250000Z 24004KT 9999 BCFG SCT003 BKN015 22/22 A2998 NOSIG=
202011250100 METAR MROC 250100Z 24003KT 320V030 9999 FEW010 BKN040 22/22 A3001 NOSIG=
202011250200 METAR MROC 250200Z VRB02KT 9999 FEW030 BKN140 23/19 A3003 NOSIG=
202011250300 METAR MROC 250300Z 09005KT 9999 FEW030 BKN200 23/19 A3004 NOSIG=
202011250400 METAR MROC 250400Z 06004KT 010V110 9999 FEW030 22/19 A3002 NOSIG=
202011250500 METAR MROC 250500Z 04005KT 350V100 CAVOK 22/19 A3000 NOSIG=
202011250600 METAR MROC 250600Z 33005KT 280V040 CAVOK 22/19 A2998 NOSIG=
202011250700 METAR MROC 250700Z 26005KT CAVOK 21/19 A2997 NOSIG=
202011250800 METAR MROC 250800Z 34004KT 260V040 9999 FEW040 20/19 A2997 NOSIG=
202011250900 METAR MROC 250900Z VRB02KT CAVOK 20/18 A2995 NOSIG=
202011251000 METAR MROC 251000Z 07003KT 020V130 CAVOK 21/18 A2995 NOSIG=
202011251100 METAR MROC 251100Z 02005KT 360V060 CAVOK 21/18 A2999 NOSIG=
202011251200 METAR MROC 251200Z 06008KT CAVOK 21/18 A2999 NOSIG=
202011251300 METAR MROC 251300Z VRB04KT CAVOK 22/18 A3004 NOSIG=
202011251400 METAR MROC 251400Z 25006KT CAVOK 23/19 A3006 NOSIG=
202011251500 METAR MROC 251500Z 28005KT CAVOK 25/19 A3006 NOSIG=
202011251600 METAR MROC 251600Z 24010KT 210V270 CAVOK 25/21 A3004 NOSIG=
202011251700 METAR MROC 251700Z 24008KT 200V270 9999 FEW020 BKN180 26/20 A3004 NOSIG=
202011251800 METAR MROC 251800Z 25007KT 9999 SCT020 25/21 A3001 NOSIG=
202011251900 METAR MROC 251900Z 22005KT 150V270 9999 FEW020 SCT050 26/21 A2998 NOSIG=
202011252000 METAR MROC 252000Z 24009KT 220V290 9999 FEW020 25/22 A2995 NOSIG=
202011252100 METAR MROC 252100Z 25007KT 230V290 9999 FEW015 SCT020 BKN160 24/22 A2994 NOSIG=
202011252200 METAR MROC 252200Z 24007KT 200V260 9999 SCT020 24/22 A2995 NOSIG=
202011252300 METAR MROC 252300Z COR 24008KT 9999 BKN010 22/22 A2997 NOSIG=
202011260000 METAR MROC 260000Z 26006KT 9999 BKN003 22/22 A2999 NOSIG=
202011260100 METAR MROC 260100Z 23004KT 9000 FEW001 BKN005 22/22 A3001 NOSIG=
202011260200 METAR MROC 260200Z 22004KT 9999 FEW005 BKN050 21/21 A3003 NOSIG=
202011260300 METAR MROC 260300Z VRB02KT 9999 FEW005 21/21 A3005 NOSIG=
202011260400 METAR MROC 260400Z VRB02KT 9999 -DZ FEW003 SCT015 BKN060 21/21 A3006 NOSIG=
202011260500 METAR MROC 260500Z VRB02KT 5000 BR SCT002 BKN005 21/21 A3005 NOSIG=
202011260600 METAR MROC 260600Z 01003KT 9999 FEW002 21/21 A3002 NOSIG=
202011260700 METAR MROC 260700Z 00000KT CAVOK 20/20 A2998 NOSIG=
202011260800 METAR MROC 260800Z VRB02KT CAVOK 20/20 A2996 NOSIG=
202011260900 METAR MROC 260900Z 07004KT CAVOK 20/18 A2995 NOSIG=
202011261000 METAR MROC 261000Z 05004KT 330V100 CAVOK 21/17 A2994 NOSIG=
202011261100 METAR MROC 261100Z 06003KT 010V090 CAVOK 20/17 A2995 NOSIG=
202011261200 METAR MROC 261200Z 05003KT 020V080 CAVOK 20/17 A2998 NOSIG=
202011261300 METAR MROC 261300Z VRB02KT CAVOK 21/17 A3001 NOSIG=
202011261400 METAR MROC 261400Z 07004KT 010V120 CAVOK 24/18 A3002 NOSIG=
202011261500 METAR MROC 261500Z 10009KT CAVOK 26/17 A3001 NOSIG=
202011261600 METAR MROC 261600Z 12007KT 080V170 CAVOK 27/18 A3001 NOSIG=
202011261700 METAR MROC 261700Z 11009KT 060V170 CAVOK 28/17 A2998 NOSIG=
202011261800 METAR MROC 261800Z 08007KT 010V170 9999 SCT045 29/17 A2996 NOSIG=
202011261900 METAR MROC 261900Z 10010KT 080V140 9999 FEW045 29/17 A2994 NOSIG=
202011262000 METAR MROC 262000Z 09009KT 060V120 9999 SCT045 27/17 A2991 NOSIG=
202011262100 METAR MROC 262100Z 06008KT 020V090 9999 BKN035 27/18 A2991 NOSIG=
202011262200 METAR MROC 262200Z 26005KT 160V240 9999 SCT030 BKN050 25/21 A2991 NOSIG=
202011262300 METAR MROC 262300Z 10004KT 080V170 9999 FEW005 SCT050 BKN200 25/18 A2994 NOSIG=
202011270000 METAR MROC 270000Z 26006KT 9999 SCT010 BKN045 22/22 A2996 NOSIG=
202011270100 METAR MROC 270100Z 25004KT 230V290 9999 FEW010 SCT050 22/22 A2998 NOSIG=
202011270200 METAR MROC 270200Z 26003KT 9999 FEW006 21/21 A3001 NOSIG=
202011270300 METAR MROC 270300Z VRB01KT 9999 FEW005 21/21 A3002 NOSIG=
202011270400 METAR MROC 270400Z 34004KT 320V030 9999 FEW005 21/21 A3002 NOSIG=
202011270500 METAR MROC 270500Z 09005KT 050V110 CAVOK 21/18 A3002 NOSIG=
202011270600 METAR MROC 270600Z VRB02KT CAVOK 20/18 A3000 NOSIG=
202011270700 METAR MROC 270700Z 05007KT CAVOK 20/17 A2998 NOSIG=
202011270800 METAR MROC 270800Z 06009KT 030V090 CAVOK 20/17 A2995 NOSIG=
202011270900 METAR MROC 270900Z 08007KT CAVOK 20/16 A2994 NOSIG=
202011271000 METAR MROC NIL=
202011271100 METAR MROC 271100Z 09008KT 060V120 CAVOK 20/16 A2995 NOSIG=
202011271200 METAR MROC 271200Z 10008KT 050V150 CAVOK 21/16 A2996 NOSIG=
202011271300 METAR MROC 271300Z 10013KT CAVOK 22/17 A2999 NOSIG=
202011271400 METAR MROC 271400Z NOSIG=
202011271500 METAR MROC 271500Z 11012KT 080V150 CAVOK 25/18 A3000 NOSIG=
202011271600 METAR MROC 271600Z 11014KT 9999 FEW045 SCT250 26/18 A3000 NOSIG=
202011271700 METAR MROC 271700Z 12010KT 090V170 9999 FEW045 SCT250 27/19 A2999 NOSIG=
202011271800 METAR MROC 271800Z 12010KT 080V220 9999 FEW045 29/18 A2996 NOSIG=
202011271900 METAR MROC 271900Z VRB03KT 9999 FEW045 28/18 A2994 NOSIG=
202011272000 METAR MROC 272000Z 24012KT 9999 SCT040 26/22 A2992 NOSIG=
202011272100 METAR MROC 272100Z 25012KT 9999 RA FEW012 BKN020 25/21 A2991 NOSIG=
202011272200 METAR MROC 272200Z VRB03KT 9999 4500SW TS BCFG FEW007 OVC010CB 23/22 A2993 RERA NOSIG=
202011272300 METAR MROC 272300Z 34005KT 9999 2000SW BCFG FEW002 BKN070 22/21 A2994 RETS NOSIG=
202011280000 METAR MROC 280000Z VRB02KT 9999 VCTS FEW015CB BKN025 22/19 A2997 NOSIG=
202011280100 METAR MROC 280100Z 36003KT 330V100 9999 FEW025 BKN045 22/20 A2999 NOSIG=
202011280200 METAR MROC 280200Z VRB02KT CAVOK 22/19 A3001 NOSIG=
202011280300 METAR MROC 280300Z 09004KT 060V140 CAVOK 22/17 A3004 NOSIG=
202011280400 METAR MROC 280400Z 07004KT 010V110 CAVOK 21/17 A3004 NOSIG=
202011280500 METAR MROC 280500Z 11006KT 070V140 CAVOK 22/17 A3003 NOSIG=
202011280600 METAR MROC 280600Z 07006KT 030V100 CAVOK 21/17 A3002 NOSIG=
202011280700 METAR MROC 280700Z 06004KT 020V100 CAVOK 21/17 A3000 NOSIG=
202011280800 METAR MROC 280800Z 03004KT 360V090 CAVOK 21/17 A2996 NOSIG=
202011280900 METAR MROC 280900Z 09007KT CAVOK 22/16 A2994 NOSIG=
202011281000 METAR MROC 281000Z 11011KT CAVOK 21/16 A2994 NOSIG=
202011281100 METAR MROC 281100Z 11014KT CAVOK 21/15 A2996 NOSIG=
202011281200 METAR MROC 281200Z 11010KT 090V170 CAVOK 21/16 A2999 NOSIG=
202011281300 METAR MROC 281300Z 11011KT 080V150 CAVOK 22/16 A3000 NOSIG=
202011281400 METAR MROC 281400Z 11013G24KT 070V140 CAVOK 24/16 A3003 NOSIG=
202011281500 METAR MROC 281500Z 11012G22KT 080V140 CAVOK 25/15 A3002 NOSIG=
202011281600 METAR MROC 281600Z COR 10013G23KT 070V130 9999 FEW045 26/17 A3002 NOSIG=
202011281700 METAR MROC 281700Z 10009KT 050V160 9999 FEW045 27/17 A3001 NOSIG=
202011281800 METAR MROC 281800Z 12007KT 070V170 9999 FEW040 28/17 A2998 NOSIG=
202011281900 METAR MROC 281900Z 21006KT 9999 FEW025 SCT060 26/20 A2995 NOSIG=
202011282000 METAR MROC 282000Z 25010KT 9999 SCT030 26/21 A2994 NOSIG=
202011282100 METAR MROC 282100Z 25009KT 220V280 9999 FEW025 26/22 A2993 NOSIG=
202011282200 METAR MROC 282200Z 24009KT 9999 SCT010 24/22 A2993 NOSIG=
202011282300 METAR MROC 282300Z 22007KT 180V240 9999 BKN010 22/22 A2995 TEMPO 5000 BR=
202011290000 METAR MROC 290000Z 27006KT 240V310 3000 SHRA OVC012TCU 21/21 A2998 BECMG 5000=
202011290100 METAR MROC 290100Z VRB02KT 5000 -RA BR BKN003 21/21 A3000 BECMG BKN010=
202011290200 METAR MROC 290200Z 00000KT 9999 FEW008 BKN020 21/21 A3001 NOSIG=
202011290300 METAR MROC 290300Z VRB01KT CAVOK 21/21 A3003 NOSIG=
202011290400 METAR MROC 290400Z 32004KT 300V010 CAVOK 21/21 A3002 NOSIG=
202011290500 METAR MROC 290500Z VRB02KT CAVOK 20/20 A3001 NOSIG=
202011290600 METAR MROC 290600Z 03005KT 340V060 CAVOK 20/18 A2999 NOSIG=
202011290700 METAR MROC 290700Z 07008KT CAVOK 20/18 A2998 NOSIG=
202011290800 METAR MROC 290800Z 08007KT CAVOK 21/17 A2996 NOSIG=
202011290900 METAR MROC 290900Z 03005KT 350V060 CAVOK 20/17 A2996 NOSIG=
202011291000 METAR MROC 291000Z 03006KT CAVOK 19/17 A2995 NOSIG=
202011291100 METAR MROC 291100Z VRB02KT CAVOK 18/17 A2997 NOSIG=
202011291200 METAR MROC 291200Z 09003KT CAVOK 18/16 A2999 NOSIG=
202011291300 METAR MROC 291300Z VRB04KT CAVOK 20/17 A3001 NOSIG=
202011291400 METAR MROC 291400Z 02006KT 340V060 CAVOK 22/17 A3003 NOSIG=
202011291500 METAR MROC 291500Z VRB04KT CAVOK 26/18 A3003 NOSIG=
202011291600 METAR MROC 291600Z 10009KT 070V140 CAVOK 27/18 A3003 NOSIG=
202011291700 METAR MROC 291700Z 11008KT 040V150 9999 FEW045 SCT200 27/19 A3001 NOSIG=
202011291800 METAR MROC 291800Z 12006KT 080V190 9999 FEW040 BKN200 27/18 A2999 NOSIG=
202011291900 METAR MROC 291900Z 24010KT 9999 FEW020TCU SCT050 26/20 A2996 NOSIG=
202011292000 METAR MROC 292000Z 23010KT 9999 SCT025 SCT200 24/22 A2995 NOSIG=
202011292100 METAR MROC 292100Z 24010KT 210V270 9999 SCT015 24/22 A2994 NOSIG=
202011292200 METAR MROC 292200Z 28008KT 240V310 9999 3000E TSRA FEW015CB BKN015 23/19 A2997 TEMPO 5000=
202011292300 METAR MROC 292300Z 27005KT 230V320 9999 -RA BKN010 22/21 A2996 RETS NOSIG=
202011300000 METAR MROC 300000Z COR 24004KT 9999 BKN010 22/21 A2998 NOSIG=
202011300100 METAR MROC 300100Z VRB02KT 9999 BKN010 22/21 A3002 NOSIG=
202011300200 METAR MROC 300200Z 23003KT 9999 FEW020 21/21 A3003 NOSIG=
202011300300 METAR MROC 300300Z VRB02KT 9999 VCFG FEW006 BKN035 21/21 A3005 NOSIG=
202011300400 METAR MROC 300400Z VRB02KT 9999 FEW003 SCT030 21/20 A3004 NOSIG=
202011300500 METAR MROC 300500Z 07006KT 9999 FEW002 22/19 A3002 NOSIG=
202011300600 METAR MROC 300600Z 10006KT CAVOK 21/19 A3001 NOSIG=
202011300700 METAR MROC 300700Z 09005KT 060V130 CAVOK 21/18 A3000 NOSIG=
202011300800 METAR MROC 300800Z 04006KT CAVOK 21/18 A2998 NOSIG=
202011300900 METAR MROC 300900Z 09003KT 020V160 CAVOK 21/18 A2997 NOSIG=
202011301000 METAR MROC 301000Z 06006KT CAVOK 20/18 A2998 NOSIG=
202011301100 METAR MROC 301100Z 09004KT CAVOK 20/18 A2999 NOSIG=
202011301200 METAR MROC 301200Z VRB01KT CAVOK 20/18 A3000 NOSIG=
202011301300 METAR MROC 301300Z 05008KT 020V080 CAVOK 23/18 A3002 NOSIG=
202011301400 METAR MROC 301400Z 11006KT 070V160 9999 FEW048 SCT200 25/18 A3004 NOSIG=
202011301500 METAR MROC 301500Z 11009KT 9999 BKN045 26/19 A3005 NOSIG=
202011301600 METAR MROC 301600Z 08006KT 040V130 9999 SCT040 BKN060 27/18 A3004 NOSIG=
202011301700 METAR MROC 301700Z 15007KT 100V200 9999 FEW040 BKN060 28/19 A3002 NOSIG=
202011301800 METAR MROC 301800Z 07006KT 350V130 9999 SCT040 28/18 A2997 NOSIG=
202011301900 METAR MROC 301900Z COR 11016KT 080V140 9999 VCTS SCT035 26/19 A2994 NOSIG=
202011302000 METAR MROC 302000Z COR 31007KT 240V340 9999 FEW030 SCT050 OVC100 23/20 A2994 NOSIG=
202011302100 METAR MROC 302100Z 30006KT 260V330 9999 VCSH BKN025 22/20 A2993 NOSIG=
202011302200 METAR MROC 302200Z 10009KT 9999 BKN025 21/18 A2993 NOSIG=
202011302300 METAR MROC 302300Z 10008KT 060V140 9999 FEW015 BKN150 22/17 A2994 NOSIG=
202012010000 METAR MROC 010000Z VRB05KT CAVOK 21/17 A2996 NOSIG=
202012010100 METAR MROC 010100Z 11010KT CAVOK 21/17 A2999 NOSIG=
202012010200 METAR MROC 010200Z 05010KT 030V100 CAVOK 22/18 A3001 NOSIG=
202012010300 METAR MROC 010300Z 07008KT 040V120 CAVOK 22/17 A3001 NOSIG=
202012010400 METAR MROC 010400Z 12011G21KT 9999 FEW030 BKN120 22/17 A3001 NOSIG=
202012010500 METAR MROC 010500Z 06011KT 9999 FEW030 BKN120 22/18 A3001 NOSIG=
202012010600 METAR MROC 010600Z 08008KT CAVOK 21/18 A3000 NOSIG=
202012010700 METAR MROC 010700Z 08010KT 060V120 CAVOK 21/18 A2999 NOSIG=
202012010800 METAR MROC 010800Z 07009KT 050V110 CAVOK 21/17 A2997 NOSIG=
202012010900 METAR MROC 010900Z 11012KT 080V140 CAVOK 21/17 A2996 NOSIG=
202012011000 METAR MROC 011000Z 11008KT 070V140 9999 FEW035 BKN100 21/17 A2996 NOSIG=
202012011100 METAR MROC 011100Z 10008KT 070V130 CAVOK 21/17 A2996 NOSIG=
202012011200 METAR MROC 011200Z 09012KT 9999 FEW035 BKN080 21/17 A3001 NOSIG=
202012011300 METAR MROC 011300Z 09003KT 060V120 9999 FEW040 BKN100 OVC200 21/18 A3002 NOSIG=
202012011400 METAR MROC 011400Z VRB03KT 9999 FEW030 OVC070 24/17 A3005 NOSIG=
202012011500 METAR MROC 011500Z 11013G23KT 9999 FEW030 OVC070 23/17 A3005 NOSIG=
202012011600 METAR MROC 011600Z COR 11014KT 080V160 9999 SCT045 BKN080 25/18 A3005 NOSIG=
202012011700 METAR MROC 011700Z 12011KT 080V160 9999 SCT035 BKN080 26/18 A3002 NOSIG=
202012011800 METAR MROC 011800Z 12012KT 090V160 9999 FEW044 SCT060 BKN100 26/18 A2999 NOSIG=
202012011900 METAR MROC 011900Z 13008KT 090V190 9999 FEW040 SCT060 BKN100 26/18 A2995 NOSIG=
202012012000 METAR MROC 012000Z 12011KT 090V160 9999 SCT035 BKN070 OVC110 26/17 A2993 NOSIG=
202012012100 METAR MROC 012100Z 11010KT 080V140 9999 SCT035 OVC110 25/17 A2993 NOSIG=
202012012200 METAR MROC 012200Z 12010KT 080V150 9999 FEW040 OVC110 23/17 A2994 NOSIG=
202012012300 METAR MROC 012300Z 12008KT 080V160 9999 FEW045 BKN110 22/17 A2994 NOSIG=
202012020000 METAR MROC 020000Z 10009KT 080V170 9999 FEW045 BKN110 22/17 A2997 NOSIG=
202012020100 METAR MROC 020100Z 11007KT 070V140 CAVOK 21/17 A2999 NOSIG=
202012020200 METAR MROC 020200Z 10007KT 070V140 CAVOK 21/17 A3001 NOSIG=
202012020300 METAR MROC 020300Z 08009KT 050V120 CAVOK 21/17 A3002 NOSIG=
202012020400 METAR MROC 020400Z 10010KT 070V130 CAVOK 21/17 A3002 NOSIG=
202012020500 METAR MROC 020500Z 07009KT 040V100 9999 FEW045 SCT130 21/17 A3001 NOSIG=
202012020600 METAR MROC 020600Z 12010G20KT 100V160 9999 FEW048 SCT150 21/17 A3001 NOSIG=
202012020700 METAR MROC 020700Z 12008KT 090V150 9999 FEW045 SCT150 21/17 A2997 NOSIG=
202012020800 METAR MROC 020800Z 07006KT 040V100 9999 FEW045 21/17 A2996 NOSIG=
202012020900 METAR MROC 020900Z 05006KT 330V100 9999 SCT045 21/17 A2996 NOSIG=
202012021000 METAR MROC 021000Z 07006KT 010V110 CAVOK 21/17 A2996 NOSIG=
202012021100 METAR MROC 021100Z 11005KT 080V140 CAVOK 21/17 A2997 NOSIG=
202012021200 METAR MROC 021200Z 09006KT CAVOK 20/17 A2997 NOSIG=
202012021300 METAR MROC 021300Z 11007KT 070V150 CAVOK 22/17 A3001 NOSIG=
202012021400 METAR MROC 021400Z 09006KT 050V130 CAVOK 23/18 A3004 NOSIG=
202012021500 METAR MROC 021500Z 23004KT 150V300 CAVOK 24/18 A3004 NOSIG=
202012021600 METAR MROC 021600Z VRB05KT 9999 SCT030 BKN045 26/18 A3003 NOSIG=
202012021700 METAR MROC 021700Z 28008KT 250V310 9999 RA OVC040 23/21 A3003 NOSIG=
202012021800 METAR MROC 021800Z 33006KT 9999 3000SW RA FEW020 SCT030 BKN100 20/20 A3001 NOSIG=
202012021900 METAR MROC 021900Z VRB02KT 9999 FEW010 BKN100 22/20 A2997 NOSIG=
202012022000 METAR MROC 022000Z 29005KT 240V360 9999 FEW012 SCT025 BKN100 24/20 A2995 NOSIG=
202012022100 METAR MROC 022100Z 25007KT 9999 BKN020 OVC100 22/19 A2995 TEMPO RA=
202012022200 METAR MROC 022200Z 24006KT 210V290 5000 -RA BR FEW005 SCT010 OVC100 21/21 A2996 NOSIG=
202012022300 METAR MROC 022300Z 23003KT 190V290 5000 -RA BR FEW010 SCT015 OVC100 20/20 A2997 NOSIG=
202012030000 METAR MROC 030000Z 35005KT 9999 FEW025 BKN100 20/20 A2999 NOSIG=
202012030100 METAR MROC 030100Z 17003KT 150V270 CAVOK 20/20 A3000 NOSIG=
202012030200 METAR MROC 030200Z 22002KT 8000 VCFG FEW002 BKN100 20/20 A3003 TEMPO 5000 BR=
202012030300 METAR MROC 030300Z 26003KT 230V350 9999 FEW025 BKN100 20/20 A3004 NOSIG=
202012030400 METAR MROC 030400Z 11003KT 080V140 9999 SCT035 BKN080 20/20 A3004 NOSIG=
202012030500 METAR MROC 030500Z 08005KT 050V110 9999 CAVOK 20/18 A3002 NOSIG=
202012030600 METAR MROC 030600Z 05008KT CAVOK 20/19 A2999 NOSIG=
202012030700 METAR MROC 030700Z 26003KT 230V310 9999 FEW005 SCT010 BKN070 19/19 A2999 NOSIG=
202012030800 METAR MROC 030800Z 01003KT 9999 FEW004 BKN070 20/19 A2998 NOSIG=
202012030900 METAR MROC 030900Z 08003KT CAVOK 20/19 A2996 NOSIG=
202012031000 METAR MROC 031000Z 04006KT CAVOK 20/19 A2996 NOSIG=
202012031100 METAR MROC 031100Z 03006KT CAVOK 20/18 A2997 NOSIG=
202012031200 METAR MROC 031200Z 07007KT 9999 FEW010 BKN080 20/18 A2998 NOSIG=
202012031300 METAR MROC 031300Z 03006KT CAVOK 21/18 A2999 NOSIG=
202012031400 METAR MROC 031400Z 10007KT 050V140 CAVOK 23/18 A3001 NOSIG=
202012031500 METAR MROC 031500Z 10006KT 080V150 CAVOK 25/18 A3003 NOSIG=
202012031600 METAR MROC 031600Z 10008KT 080V140 CAVOK 26/18 A3002 NOSIG=
202012031700 METAR MROC 031700Z 12007KT 090V160 9999 FEW030 BKN140 26/18 A3000 BECMG 25007KT=
202012031800 METAR MROC 031800Z 22009KT 9999 FEW045 26/20 A2997 NOSIG=
202012031900 METAR MROC 031900Z 21011KT 9999 SCT025 25/21 A2994 NOSIG=
202012031910 METAR MROC 031910Z 23011KT 9999 TS FEW015CB SCT025 25/21 A2995 TEMPO RA=
202012032000 METAR MROC 032000Z 23009KT 210V270 9999 3000SW RA VCTS FEW010CB FEW020 BKN040 23/20 A2995 TEMPO 5000=
202012032100 METAR MROC 032100Z 28005KT 250V310 3000 RA BR SCT005 BKN010 21/20 A2995 NOSIG=
202012032200 METAR MROC 032200Z 28005KT 230V320 4000 -RA BR FEW005 SCT010 BKN020 21/20 A2996 NOSIG=
202012032300 METAR MROC 032300Z 31005KT 8000 -RA VCFG FEW005 SCT010 BKN020 20/20 A2996 NOSIG=
202012040000 METAR MROC 040000Z 35003KT 330V050 4000 RA BR SCT005 BKN010 20/20 A2999 NOSIG=
202012040100 METAR MROC 040100Z 03003KT 9999 -RA FEW010 BKN060 21/20 A3002 NOSIG=
202012040200 METAR MROC 040200Z 06003KT 9999 -RA BCFG NSC 20/20 A3004 NOSIG=
202012040300 METAR MROC 040300Z 09003KT CAVOK 20/19 A3005 NOSIG=
202012040400 METAR MROC 040400Z 09002KT CAVOK 20/19 A3005 NOSIG=
202012040500 METAR MROC 040500Z 12002KT CAVOK 20/20 A3003 NOSIG=
202012040600 METAR MROC 040600Z 00000KT 9999 FEW006 BKN100 20/20 A3002 NOSIG=
202012040700 METAR MROC 040700Z VRB01KT 9999 FEW005 BKN100 20/19 A3001 NOSIG=
202012040800 METAR MROC 040800Z 04004KT 9999 FEW005 BKN100 19/19 A2999 NOSIG=
202012040900 METAR MROC 040900Z VRB02KT 0800 FG FEW001 SCT004 BKN100 19/19 A2998 NOSIG=
202012041000 METAR MROC 041000Z VRB002 0800 FG SCT002 BKN004 19/19 A2999 NOSIG=
202012041100 METAR MROC 041100Z 04003KT 0800 FG VV002 19/19 A3001 NOSIG=
202012041200 METAR MROC 041200Z VRB02KT 9999 FEW002 SCT025 BKN100 19/18 A3002 NOSIG=
202012041300 METAR MROC 041300Z 01004KT 9999 FEW005 SCT030 BKN120 20/19 A3003 NOSIG=
202012041400 METAR MROC 041400Z VRB02KT 9999 FEW005 SCT030 BKN120 23/19 A3005 NOSIG=
202012041500 METAR MROC 041500Z 00000KT 9999 SCT030 BKN120 25/20 A3005 NOSIG=
202012041600 METAR MROC 041600Z 08013KT 050V120 9999 SCT030 BKN120 26/18 A3003 NOSIG=
202012041700 METAR MROC 041700Z 10013KT 060V140 9999 FEW030 SCT150 BKN200 27/18 A3002 NOSIG=
202012041800 METAR MROC 041800Z 09013KT 060V120 9999 FEW035 SCT060 BKN200 27/17 A3000 NOSIG=
202012041900 METAR MROC 041900Z 10010KT 080V140 9999 FEW035 SCT100 BKN200 28/19 A2996 BECMG 23006KT=
202012042000 METAR MROC 042000Z 11009G19KT 090V150 9999 FEW035 SCT100 BKN200 28/18 A2994 NOSIG=
202012042100 METAR MROC 042100Z 08013KT 9999 -RA BKN040 24/15 A2994 NOSIG=
202012042200 METAR MROC 042200Z 12014G24KT 9999 SCT040 BKN100 24/15 A2993 NOSIG=
202012042300 METAR MROC 042300Z 12013KT CAVOK 23/16 A2995 NOSIG=
202012050000 METAR MROC 050000Z 11010KT 070V140 CAVOK 22/15 A2998 NOSIG=
202012050100 METAR MROC 050100Z 07007KT 040V100 CAVOK 22/15 A3002 NOSIG=
202012050200 METAR MROC 050200Z 05011KT CAVOK 22/15 A3003 NOSIG=
202012050300 METAR MROC 050300Z 09008KT 040V130 CAVOK 22/15 A3003 NOSIG=
202012050400 METAR MROC 050400Z 09008KT 030V130 CAVOK 21/15 A3004 NOSIG=
202012050500 METAR MROC 050500Z 06009KT 030V110 CAVOK 21/15 A3002 NOSIG=
202012050600 METAR MROC 050600Z 09008KT 040V140 CAVOK 21/15 A3001 NOSIG=
202012050700 METAR MROC 050700Z 12010G20KT CAVOK 21/15 A3000 NOSIG=
202012050800 METAR MROC 050800Z 11009KT 060V140 CAVOK 20/15 A2999 NOSIG=
202012050900 METAR MROC 050900Z 08008KT CAVOK 20/15 A3000 NOSIG=
202012051000 METAR MROC 051000Z 11010KT 070V150 CAVOK 20/15 A3000 NOSIG=
202012051100 METAR MROC 051100Z 11014KT CAVOK 20/15 A3003 NOSIG=
202012051200 METAR MROC 051200Z 11013KT CAVOK 20/15 A3004 NOSIG=
202012051300 METAR MROC 051300Z 11012KT CAVOK 21/15 A3006 NOSIG=
202012051400 METAR MROC 051400Z 12013KT CAVOK 21/16 A3007 NOSIG=
202012051500 METAR MROC 051500Z 11015G25KT CAVOK 24/15 A3007 NOSIG=
202012051600 METAR MROC 051600Z 10015KT CAVOK 26/14 A3007 NOSIG=
202012051700 METAR MROC 051700Z 10011G21KT 070V130 CAVOK 27/16 A3005 NOSIG=
202012051800 METAR MROC 051800Z 08010KT 050V110 CAVOK 27/15 A3002 NOSIG=
202012051900 METAR MROC 051900Z 12007KT 070V160 CAVOK 28/15 A2999 NOSIG=
202012052000 METAR MROC 052000Z 12008KT 080V150 CAVOK 28/14 A2997 NOSIG=
202012052100 METAR MROC 052100Z 09006KT 050V130 CAVOK 28/15 A2996 NOSIG=
202012052200 METAR MROC 052200Z 11005KT 060V150 9999 FEW047 27/15 A2996 NOSIG=
202012052300 METAR MROC 052300Z 23008KT 9999 SCT035 23/23 A2997 NOSIG=
202012060000 METAR MROC 060000Z 23003KT 160V300 CAVOK 22/20 A2999 NOSIG=
202012060100 METAR MROC 060100Z 02003KT 9999 SCT040 22/21 A3002 NOSIG=
202012060200 METAR MROC 060200Z 10006KT 050V150 CAVOK 21/16 A3003 NOSIG=
202012060300 METAR MROC 060300Z 07005KT 020V110 CAVOK 21/15 A3004 NOSIG=
202012060400 METAR MROC 060400Z 09008KT 040V150 CAVOK 21/14 A3005 NOSIG=
202012060500 METAR MROC 060500Z 08005KT 020V090 CAVOK 20/14 A3003 NOSIG=
202012060600 METAR MROC 060600Z 03007KT 360V070 CAVOK 19/13 A3001 NOSIG=
202012060700 METAR MROC 060700Z 02005KT 360V060 CAVOK 19/14 A2999 NOSIG=
202012060800 METAR MROC 060800Z 04005KT 010V090 CAVOK 18/13 A2997 NOSIG=
202012060900 METAR MROC 060900Z 07005KT 020V110 CAVOK 19/14 A2995 NOSIG=
202012061000 METAR MROC 061000Z 06008KT CAVOK 19/14 A2997 NOSIG=
202012061100 METAR MROC 061100Z 11011KT CAVOK 20/14 A2996 NOSIG=
202012061200 METAR MROC 061200Z 10012KT 030V140 9999 FEW040 SCT150 BKN200 20/15 A2998 NOSIG=
202012061300 METAR MROC 061300Z 11010KT 070V130 CAVOK 21/15 A3001 NOSIG=
202012061400 METAR MROC 061400Z 11010KT 080V140 CAVOK 22/15 A3003 NOSIG=
202012061500 METAR MROC 061500Z 11011KT 080V140 CAVOK 24/16 A3003 NOSIG=
202012061600 METAR MROC 061600Z 10008KT 080V140 CAVOK 25/16 A3002 NOSIG=
202012061700 METAR MROC 061700Z 11007KT 070V180 CAVOK 28/16 A3001 NOSIG=
202012061800 METAR MROC 061800Z 25007KT 210V290 CAVOK 27/18 A2998 NOSIG=
202012061900 METAR MROC 061900Z 25009KT 220V280 CAVOK 26/20 A2995 NOSIG=
202012062000 METAR MROC 062000Z 25010KT 9999 FEW030 26/21 A2994 NOSIG=
202012062100 METAR MROC 062100Z 24010KT 210V270 9999 BKN025 25/21 A2994 NOSIG=
202012062200 METAR MROC 062200Z 25008KT 9999 BKN025 24/21 A2994 NOSIG=
202012062300 METAR MROC 062300Z 23006KT 190V250 9999 BKN015 22/22 A2996 NOSIG=
202012070000 METAR MROC 070000Z 22005KT 9999 BKN035 22/21 A2998 NOSIG=
202012070100 METAR MROC 070100Z 22004KT 9999 SCT004 BKN035 21/21 A3000 NOSIG=
202012070200 METAR MROC 070200Z 28003KT 250V310 9999 SCT010 BKN035 21/21 A3002 NOSIG=
202012070300 METAR MROC 070300Z 23003KT 5000 BR BKN003 21/21 A3003 NOSIG=
202012070400 METAR MROC 070400Z 23002KT 9999 SCT045 21/21 A3003 NOSIG=
202012070500 METAR MROC 070500Z 10003KT CAVOK 21/19 A3002 NOSIG=
202012070600 METAR MROC 070600Z 09004KT CAVOK 21/18 A3000 NOSIG=
202012070700 METAR MROC 070700Z 11007KT 080V140 CAVOK 20/17 A2999 NOSIG=
202012070800 METAR MROC 070800Z 09008KT 060V120 CAVOK 20/17 A2997 NOSIG=
202012070900 METAR MROC 070900Z 09008KT CAVOK 21/17 A2997 NOSIG=
202012071000 METAR MROC 071000Z 07007KT CAVOK 20/17 A2998 NOSIG=
202012071100 METAR MROC 071100Z 07007KT CAVOK 19/17 A3000 NOSIG=
202012071200 METAR MROC 071200Z 05007KT CAVOK 18/16 A3001 NOSIG=
202012071300 METAR MROC 071300Z 07005KT 010V130 CAVOK 20/17 A3003 NOSIG=
202012071400 METAR MROC 071400Z 10013KT 070V140 CAVOK 24/17 A3005 NOSIG=
202012071500 METAR MROC 071500Z 10013KT 060V130 CAVOK 25/17 A3006 NOSIG=
202012071600 METAR MROC 071600Z 11012KT 080V140 26/18 A3004 NOSIG=
202012071700 METAR MROC 071700Z 11013KT 080V150 CAVOK 27/18 A3002 NOSIG=
202012071800 METAR MROC 071800Z 12013KT 090V170 CAVOK 27/18 A3000 NOSIG=
202012071900 METAR MROC 071900Z 11011KT 080V140 9999 FEW045 28/18 A2998 NOSIG=
202012072000 METAR MROC 072000Z 10009KT 070V130 9999 FEW045 28/18 A2996 NOSIG=
202012072100 METAR MROC 072100Z 24010KT 210V270 9999 FEW025 SCT040 26/21 A2995 NOSIG=
202012072200 METAR MROC 072200Z 23008KT 9999 BKN030 25/21 A2996 NOSIG=
202012072300 METAR MROC 072300Z 22006KT 190V260 9999 FEW010 BKN020 23/21 A2999 NOSIG=
202012080000 METAR MROC 080000Z 24003KT 9999 BKN030 22/20 A3000 NOSIG=
202012080100 METAR MROC 080100Z 10006KT 060V150 9999 FEW020 SCT030 22/18 A3004 NOSIG=
202012080200 METAR MROC 080200Z COR 08008KT 9999 FEW030 SCT050 22/17 A3007 NOSIG=
202012080300 METAR MROC 080300Z 11007KT 080V140 9999 FEW020 21/17 A3008 NOSIG=
202012080400 METAR MROC 080400Z 11007KT 070V150 9999 FEW035 21/17 A3007 NOSIG=
202012080500 METAR MROC 080500Z 06009KT 040V100 9999 FEW040 21/17 A3006 NOSIG=
202012080600 METAR MROC 080600Z 07011KT CAVOK 21/17 A3005 NOSIG=
202012080700 METAR MROC 080700Z 08008KT 030V120 CAVOK 21/18 A3003 NOSIG=
202012080800 METAR MROC 080800Z 08005KT 040V130 9999 FEW045 21/17 A3002 NOSIG=
202012080900 METAR MROC 080900Z 09008KT 070V140 9999 FEW035 21/17 A3001 NOSIG=
202012081000 METAR MROC 081000Z 07004KT 330V140 9999 SCT040 21/16 A3003 NOSIG=
202012081100 METAR MROC 081100Z 11004KT 050V150 9999 SCT040 20/16 A3005 NOSIG=
202012081200 METAR MROC 081200Z 11005KT 9999 FEW040 BKN200 19/16 A3007 NOSIG=
202012081300 METAR MROC 081300Z 02008KT 320V040 9999 FEW035 SCT060 BKN250 21/17 A3010 NOSIG=
202012081400 METAR MROC 081400Z 15005KT 090V220 9999 FEW035 SCT060 BKN250 23/18 A3012 NOSIG=
202012081500 METAR MROC 081500Z 11009G19KT 060V170 9999 FEW035 SCT060 24/15 A3011 NOSIG=
202012081600 METAR MROC 081600Z 09009KT 050V140 9999 FEW035 SCT060 25/16 A3011 NOSIG=
202012081700 METAR MROC 081700Z 11006KT 9999 FEW035 BKN060 25/16 A3008 NOSIG=
202012081800 METAR MROC 081800Z 13011KT 080V190 9999 SCT035 BKN050 25/16 A3006 NOSIG=
202012081900 METAR MROC 081900Z 16012KT 120V190 9999 VCSH FEW030 BKN040 23/16 A3004 NOSIG=
202012082000 METAR MROC 082000Z 15012KT 120V200 9999 FEW035 BKN060 23/17 A3002 NOSIG=
202012082100 METAR MROC 082100Z 11010G20KT 080V160 CAVOK 24/15 A3002 NOSIG=
202012082200 METAR MROC 082200Z 11015G28KT 080V140 9999 FEW045 SCT120 22/16 A3001 NOSIG=
202012082300 METAR MROC 082300Z 11016G27KT CAVOK 22/16 A3004 NOSIG=
202012090000 METAR MROC 090000Z 11018KT CAVOK 21/15 A3006 NOSIG=
202012090100 METAR MROC 090100Z 10016G26KT CAVOK 21/15 A3008 NOSIG=
202012090200 METAR MROC 090200Z 10011KT CAVOK 20/14 A3011 NOSIG=
202012090300 METAR MROC 090300Z 10011KT CAVOK 20/14 A3011 NOSIG=
202012090400 METAR MROC 090400Z 11014KT CAVOK 21/14 A3011 NOSIG=
202012090500 METAR MROC 090500Z 09012G23KT 060V130 CAVOK 20/15 A3011 NOSIG=
202012090600 METAR MROC 090600Z 10012KT CAVOK 20/15 A3008 NOSIG=
202012090700 METAR MROC 090700Z 08009KT 030V140 CAVOK 20/15 A3006 NOSIG=
202012090800 METAR MROC 090800Z 11015G27KT 070V130 CAVOK 20/15 A3004 NOSIG=
202012090900 METAR MROC 090900Z 11013G25KT CAVOK 20/14 A3003 NOSIG=
202012091000 METAR MROC 091000Z 08011KT 030V110 CAVOK 20/15 A3006 NOSIG=
202012091100 METAR MROC 091100Z 09007KT 020V130 CAVOK 20/16 A3008 NOSIG=
202012091200 METAR MROC 091200Z 08010KT 9999 FEW040 20/16 A3008 NOSIG=
202012091300 METAR MROC 091300Z 09009KT 020V120 9999 FEW035 SCT200 21/16 A3010 NOSIG=
202012091400 METAR MROC 091400Z 10008G18KT 9999 FEW035 23/17 A3012 NOSIG=
202012091500 METAR MROC 091500Z 09011G21KT 020V130 9999 FEW035 24/17 A3011 NOSIG=
202012091600 METAR MROC 091600Z 10012G22KT 070V160 9999 FEW035 25/18 A3011 NOSIG=
202012091700 METAR MROC 091700Z 11010G20KT 070V160 9999 FEW035 SCT060 25/17 A3011 NOSIG=
202012091800 METAR MROC 091800Z 10012G22KT 060V150 9999 FEW035 SCT100 24/17 A3008 NOSIG=
202012091900 METAR MROC 091900Z 12010G20KT 050V160 9999 FEW035 BKN100 24/16 A3006 NOSIG=
202012092000 METAR MROC 092000Z 12011G21KT 090V190 9999 FEW035 BKN100 23/16 A3003 NOSIG=
202012092100 METAR MROC 092100Z 12010G22KT 080V190 9999 FEW040 SCT100 23/17 A3000 NOSIG=
202012092200 METAR MROC 092200Z 10011KT 060V150 9999 SCT045 22/16 A3002 NOSIG=
202012092300 METAR MROC 092300Z 12011KT 090V170 9999 BKN045 21/16 A3003 NOSIG=
202012100000 METAR MROC 100000Z 13004KT 090V170 CAVOK 21/16 A3004 NOSIG=
202012100100 METAR MROC 100100Z 12008KT 080V160 9999 BKN040 21/20 A3006 NOSIG=
202012100200 METAR MROC 100200Z VRB03KT CAVOK 21/17 A3009 NOSIG=
202012100300 METAR MROC 100300Z 09007KT 050V140 CAVOK 21/17 A3009 NOSIG=
202012100400 METAR MROC 100400Z 08011KT 040V120 9999 FEW045 BKN090 21/17 A3009 NOSIG=
202012100500 METAR MROC 100500Z 08009KT 060V120 9999 FEW025 BKN080 21/17 A3008 NOSIG=
202012100600 METAR MROC 100600Z 11012KT 080V140 9999 FEW020 BKN060 21/17 A3005 NOSIG=
202012100700 METAR MROC 100700Z 11012G23KT 080V150 9999 FEW020 BKN120 21/16 A3001 NOSIG=
202012100800 METAR MROC 100800Z 04010KT CAVOK 21/17 A2999 NOSIG=
202012100900 METAR MROC 100900Z 11015KT 9999 -RA FEW020 BKN100 21/17 A2997 NOSIG=
202012101000 METAR MROC 101000Z VRB07KT 9999 FEW020 BKN100 21/17 A2999 NOSIG=
202012101100 METAR MROC 101100Z 07008KT 020V110 CAVOK 20/17 A3001 NOSIG=
202012101200 METAR MROC 101200Z 03006KT 340V110 9999 FEW030 BKN080 21/17 A3002 NOSIG=
202012101300 METAR MROC 101300Z VRB02KT 9999 FEW030 BKN070 BKN160 21/17 A3004 NOSIG=
202012101400 METAR MROC 101400Z 16006KT 060V210 9999 FEW035 BKN080 23/17 A3006 NOSIG=
202012101500 METAR MROC 101500Z 10008KT 030V160 9999 FEW035 BKN080 22/17 A3008 NOSIG=
202012101600 METAR MROC 101600Z 05008KT 360V120 9999 SCT030 BKN080 23/18 A3007 NOSIG=
202012101700 METAR MROC 101700Z 10008KT 070V130 9999 -RA FEW040 BKN060 21/18 A3007 NOSIG=
202012101800 METAR MROC 101800Z 10008KT 030V140 9999 FEW030 OVC080 21/19 A3004 NOSIG=
202012101900 METAR MROC 101900Z 07005KT 360V130 9999 +DZ FEW040 BKN080 23/19 A3001 NOSIG=
202012102000 METAR MROC 102000Z 09008KT 060V130 9999 FEW040 BKN080 24/18 A2998 NOSIG=
202012102100 METAR MROC 102100Z 09010KT 9999 BKN040 25/17 A2997 NOSIG=
202012102200 METAR MROC 102200Z 10014KT CAVOK 23/17 A2996 NOSIG=
202012102300 METAR MROC 102300Z 09014KT 9999 FEW045 22/17 A2998 NOSIG=
202012110000 METAR MROC 110000Z 07008KT 010V130 CAVOK 22/18 A3000 NOSIG=
202012110100 METAR MROC 110100Z 05007KT 030V090 CAVOK 22/17 A3002 NOSIG=
202012110200 METAR MROC 110200Z 06007KT 020V120 CAVOK 21/17 A3004 NOSIG=
202012110300 METAR MROC 110300Z 03008KT 340V130 CAVOK 22/17 A3005 NOSIG=
202012110400 METAR MROC 110400Z 03007KT 320V120 CAVOK 21/17 A3004 NOSIG=
202012110500 METAR MROC 110500Z 09010G20KT 050V120 CAVOK 20/17 A3002 NOSIG=
202012110600 METAR MROC 110600Z 10010G20KT 070V130 CAVOK 20/17 A2999 NOSIG=
202012110700 METAR MROC 110700Z 10015G25KT 070V130 CAVOK 21/17 A2996 NOSIG=
202012110800 METAR MROC 110800Z 10008G18KT 040V130 CAVOK 20/17 A2994 NOSIG=
202012110900 METAR MROC 110900Z 08014KT 040V130 CAVOK 21/17 A2993 NOSIG=
202012111000 METAR MROC 111000Z 07009KT 030V110 CAVOK 21/17 A2994 NOSIG=
202012111100 METAR MROC 111100Z 07012KT 040V110 CAVOK 21/17 A2997 NOSIG=
202012111200 METAR MROC 111200Z 08006G16KT 040V110 9999 FEW035 21/17 A2997 NOSIG=
202012111300 METAR MROC 111300Z 09008KT 060V140 9999 FEW045 22/18 A2999 NOSIG=
202012111400 METAR MROC 111400Z 11013KT 080V150 9999 FEW040 23/18 A3001 NOSIG=
202012111500 METAR MROC 111500Z 12012KT 080V150 9999 SCT035 25/18 A3001 NOSIG=
202012111600 METAR MROC 111600Z 12011KT 090V160 9999 SCT035 26/18 A3001 NOSIG=
202012111700 METAR MROC 111700Z 08012KT 050V120 9999 BKN030 27/18 A2999 NOSIG=
202012111800 METAR MROC 111800Z 10015G25KT 070V140 9999 SCT035 SCT070 26/17 A2996 NOSIG=
202012111900 METAR MROC 111900Z 09015KT 9999 SCT035 27/16 A2993 NOSIG=
202012112000 METAR MROC 112000Z 10014G24KT 9999 SCT035 BKN080 25/16 A2993 NOSIG=
202012112100 METAR MROC 112100Z 09013KT 9999 SCT040 SCT230 25/15 A2992 NOSIG=
202012112200 METAR MROC 112200Z 12014KT 090V150 9999 SCT045 24/15 A2992 NOSIG=
202012112300 METAR MROC 112300Z 09012KT 070V140 CAVOK 23/15 A2994 NOSIG=
202012120000 METAR MROC 120000Z 13008KT 100V160 CAVOK 22/15 A2995 NOSIG=
202012120100 METAR MROC 120100Z 12011KT CAVOK 21/16 A2997 NOSIG=
202012120200 METAR MROC 120200Z 10008KT CAVOK 21/15 A2997 NOSIG=
202012120300 METAR MROC 120300Z 11011KT CAVOK 21/14 A3000 NOSIG=
202012120400 METAR MROC 120400Z 11015KT CAVOK 20/15 A3001 NOSIG=
202012120500 METAR MROC 120500Z 10012KT CAVOK 20/14 A3001 NOSIG=
202012120600 METAR MROC 120600Z 10010KT 060V130 CAVOK 20/14 A3000 NOSIG=
202012120700 METAR MROC 120700Z 11010G20KT CAVOK 19/14 A2998 NOSIG=
202012120800 METAR MROC 120800Z 11011KT CAVOK 19/14 A2996 NOSIG=
202012120900 METAR MROC 120900Z 12011KT CAVOK 19/14 A2994 NOSIG=
202012121000 METAR MROC 121000Z 10012KT CAVOK 20/15 A2995 NOSIG=
202012121100 METAR MROC 121100Z 11007KT 070V180 CAVOK 20/15 A2997 NOSIG=
202012121200 METAR MROC 121200Z 07007KT 020V120 CAVOK 20/15 A2998 NOSIG=
202012121300 METAR MROC 121300Z 11012KT CAVOK 21/16 A3000 NOSIG=
202012121400 METAR MROC 121400Z 11016KT 080V140 CAVOK 23/14 A3002 NOSIG=
202012121500 METAR MROC 121500Z 11015G25KT 080V140 CAVOK 25/13 A3002 NOSIG=
202012121600 METAR MROC 121600Z 11016G26KT CAVOK 26/13 A3002 NOSIG=
202012121700 METAR MROC 121700Z 11017G27KT CAVOK 27/10 A3001 NOSIG=
202012121800 METAR MROC 121800Z 11012G22KT 080V140 9999 FEW040 27/13 A2997 NOSIG=
202012121900 METAR MROC 121900Z 09012KT 9999 FEW040 27/13 A2995 NOSIG=
202012122000 METAR MROC 122000Z 08012G25KT 050V120 CAVOK 27/13 A2993 NOSIG=
202012122100 METAR MROC 122100Z 07016KT CAVOK 27/14 A2992 NOSIG=
202012122200 METAR MROC 122200Z 07011G21KT CAVOK 26/15 A2992 NOSIG=
202012122300 METAR MROC 122300Z 08011KT CAVOK 24/14 A2993 NOSIG=
202012130000 METAR MROC 130000Z 11008KT 080V140 CAVOK 22/16 A2994 NOSIG=
202012130100 METAR MROC 130100Z 10009KT CAVOK 22/15 A2997 NOSIG=
202012130200 METAR MROC 130200Z 11012KT CAVOK 21/15 A2999 NOSIG=
202012130300 METAR MROC 130300Z 11011KT CAVOK 21/15 A3002 NOSIG=
202012130400 METAR MROC 130400Z 12009KT 090V150 CAVOK 20/15 A3001 NOSIG=
202012130500 METAR MROC 130500Z 11013KT CAVOK 21/14 A3000 NOSIG=
202012130600 METAR MROC 130600Z 11012KT CAVOK 20/13 A2999 NOSIG=
202012130700 METAR MROC 130700Z 10008KT CAVOK 19/13 A2998 NOSIG=
202012130800 METAR MROC 130800Z 07006KT CAVOK 18/13 A2996 NOSIG=
202012130900 METAR MROC 130900Z 06008KT CAVOK 18/13 A2996 NOSIG=
202012131000 METAR MROC 131000Z 08005KT CAVOK 18/13 A2997 NOSIG=
202012131100 METAR MROC 131100Z 09008KT CAVOK 18/14 A2998 NOSIG=
202012131200 METAR MROC 131200Z 07007KT CAVOK 18/14 A3000 NOSIG=
202012131300 METAR MROC 131300Z 13007KT 080V170 CAVOK 21/14 A3003 NOSIG=
202012131400 METAR MROC 131400Z 11010KT 080V150 9999 FEW045 23/16 A3005 NOSIG=
202012131500 METAR MROC 131500Z 11009KT 060V150 CAVOK 24/16 A3005 NOSIG=
202012131600 METAR MROC 131600Z 10013KT 070V130 CAVOK 25/16 A3004 NOSIG=
202012131700 METAR MROC 131700Z 10014KT 080V160 9999 FEW040 27/15 A3002 NOSIG=
202012131800 METAR MROC 131800Z 10011KT 070V150 9999 FEW030 28/15 A3000 NOSIG=
202012131900 METAR MROC 131900Z 12009KT 080V170 9999 FEW040 28/15 A2996 NOSIG=
202012132000 METAR MROC 132000Z 09010KT 060V140 9999 FEW035 28/15 A2995 NOSIG=
202012132100 METAR MROC 132100Z 10007G17KT 050V150 9999 FEW045 27/15 A2994 NOSIG=
202012132200 METAR MROC 132200Z 08010G20KT 9999 FEW040 26/13 A2994 NOSIG=
202012132300 METAR MROC 132300Z 08014KT 9999 FEW040 25/13 A2996 NOSIG=
202012140000 METAR MROC 140000Z 10006KT 9999 FEW040 23/16 A2999 NOSIG=
202012140100 METAR MROC 140100Z 13012KT 9999 FEW040 22/16 A3001 NOSIG=
202012140200 METAR MROC 140200Z 11007KT 9999 FEW040 21/16 A3004 NOSIG=
202012140300 METAR MROC 140300Z 11008KT CAVOK 20/15 A3006 NOSIG=
202012140400 METAR MROC 140400Z 11007KT CAVOK 20/15 A3006 NOSIG=
202012140500 METAR MROC 140500Z 10007KT CAVOK 20/15 A3005 NOSIG=
202012140600 METAR MROC 140600Z 11010KT CAVOK 20/15 A3003 NOSIG=
202012140700 METAR MROC 140700Z 11010KT CAVOK 20/16 A3001 NOSIG=
202012140800 METAR MROC 140800Z 08004KT 030V120 CAVOK 20/15 A3000 NOSIG=
202012140900 METAR MROC 140900Z 11008KT 080V140 CAVOK 19/15 A3000 NOSIG=
202012141000 METAR MROC 141000Z 11009KT CAVOK 19/15 A3000 NOSIG=
202012141100 METAR MROC 141100Z 11010KT 090V150 CAVOK 19/15 A3001 NOSIG=
202012141200 METAR MROC 141200Z 11014KT CAVOK 19/14 A3002 NOSIG=
202012141300 METAR MROC 141300Z 12011KT CAVOK 21/15 A3004 NOSIG=
202012141400 METAR MROC 141400Z 12011KT 040V160 CAVOK 23/14 A3005 NOSIG=
202012141500 METAR MROC 141500Z 12008KT 080V170 CAVOK 25/14 A3006 NOSIG=
202012141600 METAR MROC 141600Z 10013KT 070V130 CAVOK 26/14 A3004 NOSIG=
202012141700 METAR MROC 141700Z 09017G27KT CAVOK 26/15 A3003 NOSIG=
202012141800 METAR MROC 141800Z 07018KT CAVOK 27/12 A3002 NOSIG=
202012141900 METAR MROC 141900Z 07019KT CAVOK 28/13 A3000 NOSIG=
202012142000 METAR MROC 142000Z 07015KT CAVOK 28/14 A2997 NOSIG=
202012142100 METAR MROC 142100Z 07016G26KT CAVOK 27/14 A2995 NOSIG=
202012142200 METAR MROC 142200Z 08010G20KT CAVOK 26/14 A2997 NOSIG=
202012142300 METAR MROC 142300Z 09006G16KT CAVOK 25/14 A2998 NOSIG=
202012150000 METAR MROC 150000Z 10014KT CAVOK 23/14 A2999 NOSIG=
202012150100 METAR MROC 150100Z 13006G16KT CAVOK 21/15 A3001 NOSIG=
202012150200 METAR MROC 150200Z 12015KT CAVOK 21/14 A3003 NOSIG=
202012150300 METAR MROC 150300Z 12014KT CAVOK 21/14 A3004 NOSIG=
202012150400 METAR MROC 150400Z 04008KT CAVOK 19/13 A3005 NOSIG=
202012150500 METAR MROC 150500Z 07007KT 040V100 CAVOK 18/12 A3004 NOSIG=
202012150600 METAR MROC 150600Z 06008KT CAVOK 17/12 A3003 NOSIG=
202012150700 METAR MROC 150700Z 05008KT CAVOK 17/11 A3001 NOSIG=
202012150800 METAR MROC 150800Z 06010KT CAVOK 17/11 A2999 NOSIG=
202012150900 METAR MROC 150900Z 03009KT CAVOK 18/11 A2999 NOSIG=
202012151000 METAR MROC 151000Z 05004KT 250V090 CAVOK 18/11 A2999 NOSIG=
202012151100 METAR MROC 151100Z 10006KT CAVOK 18/13 A2999 NOSIG=
202012151200 METAR MROC 151200Z 06005KT 030V100 CAVOK 18/12 A3000 NOSIG=
202012151300 METAR MROC 151300Z 08008KT 030V100 CAVOK 21/14 A3002 NOSIG=
202012151400 METAR MROC 151400Z 11007KT 030V150 CAVOK 24/15 A3002 NOSIG=
202012151500 METAR MROC 151500Z 12010KT 090V170 CAVOK 26/14 A3002 NOSIG=
202012151600 METAR MROC 151600Z 13010KT 100V170 CAVOK 27/16 A3002 NOSIG=
202012151700 METAR MROC 151700Z 12010KT 080V150 CAVOK 28/15 A2999 NOSIG=
202012151800 METAR MROC 151800Z 10009KT 060V170 CAVOK 28/16 A2996 NOSIG=
202012151900 METAR MROC 151900Z 08008KT 050V160 CAVOK 29/16 A2993 NOSIG=
202012152000 METAR MROC 152000Z 10011KT 060V120 CAVOK 28/16 A2991 NOSIG=
202012152100 METAR MROC 152100Z VRB03KT 9999 SCT045 26/20 A2991 NOSIG=
202012152200 METAR MROC 152200Z 24011KT 9999 BKN040 24/20 A2991 NOSIG=
202012152300 METAR MROC 152300Z 26008KT 9999 SCT035 SCT090 22/20 A2992 NOSIG=
202012160000 METAR MROC 160000Z 26005KT 9999 FEW045 21/20 A2993 NOSIG=
202012160100 METAR MROC 160100Z 27005G15KT 220V310 9999 FEW010 SCT045 21/19 A2996 NOSIG=
202012160200 METAR MROC 160200Z 00000KT 9999 SCT010 BKN045 20/19 A2999 NOSIG=
202012160300 METAR MROC 160300Z 23002KT 9999 FEW005 SCT050 20/18 A3000 NOSIG=
202012160400 METAR MROC 160400Z VRB02KT 9999 FEW005 19/18 A3000 NOSIG=
202012160500 METAR MROC 160500Z VRB02KT 9999 FEW005 19/19 A2999 NOSIG=
202012160600 METAR MROC 160600Z VRB02KT 1500 BR BKN002 19/19 A2998 NOSIG=
202012160700 METAR MROC 160700Z VRB02KT 3000 BR SCT002 BKN010 20/19 A2997 NOSIG=
202012160800 METAR MROC 160800Z 08003KT 9999 FEW005 SCT010 BKN020 19/19 A2995 NOSIG=
202012160900 METAR MROC 160900Z 17003KT 130V190 9999 SCT010 19/19 A2994 NOSIG=
202012161000 METAR MROC 161000Z 06006KT 9999 FEW030 18/17 A2995 NOSIG=
202012161100 METAR MROC 161100Z 09006KT 9999 FEW030 17/15 A2997 NOSIG=
202012161200 METAR MROC 161200Z 07008KT 9999 FEW035 BKN250 17/14 A2999 NOSIG=
202012161300 METAR MROC 161300Z 06009KT CAVOK 20/16 A3000 NOSIG=
202012161400 METAR MROC 161400Z 06004KT 360V100 CAVOK 23/16 A3002 NOSIG=
202012161500 METAR MROC 161500Z 22007KT 190V250 CAVOK 24/18 A3003 NOSIG=
202012161600 METAR MROC 161600Z 26008KT 220V290 9999 FEW030 25/19 A3003 NOSIG=
202012161700 METAR MROC 161700Z 27007KT 230V300 9999 FEW030 25/18 A3001 NOSIG=
202012161800 METAR MROC 161800Z 23006KT 120V290 9999 SCT045 26/19 A2998 NOSIG=
202012161900 METAR MROC 161900Z 25009KT 9999 SCT035 26/20 A2995 NOSIG=
202012162000 METAR MROC 162000Z 25010KT 9999 FEW030 26/19 A2994 NOSIG=
202012162100 METAR MROC 162100Z 25008KT 9999 SCT030 25/19 A2992 NOSIG=
202012162200 METAR MROC 162200Z 24007KT 9999 BKN040 24/19 A2993 NOSIG=
202012162300 METAR MROC 162300Z 25006KT 9999 BKN035 22/20 A2994 NOSIG=
202012170000 METAR MROC 170000Z 20003KT 170V250 9999 SCT030 22/18 A2996 NOSIG=
202012170100 METAR MROC 170100Z 26002KT 9999 FEW047 21/17 A2999 NOSIG=
202012170200 METAR MROC 170200Z VRB02KT CAVOK 21/18 A3000 NOSIG=
202012170300 METAR MROC 170300Z 09005KT CAVOK 21/17 A3001 NOSIG=
202012170400 METAR MROC 170400Z 07007KT CAVOK 20/17 A3001 NOSIG=
202012170500 METAR MROC 170500Z 08006KT CAVOK 20/17 A2999 NOSIG=
202012170600 METAR MROC 170600Z 07007KT CAVOK 21/16 A2998 NOSIG=
202012170700 METAR MROC 170700Z 03004KT 010V090 CAVOK 20/16 A2997 NOSIG=
202012170800 METAR MROC 170800Z 08006KT 9999 FEW040 18/16 A2996 NOSIG=
202012170900 METAR MROC 170900Z 09005KT CAVOK 18/16 A2996 NOSIG=
202012171000 METAR MROC 171000Z 09007KT CAVOK 20/16 A2996 NOSIG=
202012171100 METAR MROC 171100Z 08006KT 040V120 9999 FEW045 20/16 A2997 NOSIG=
202012171200 METAR MROC 171200Z 08008KT CAVOK 20/16 A2999 NOSIG=
202012171300 METAR MROC 171300Z 11008KT 070V170 CAVOK 22/17 A3001 NOSIG=
202012171400 METAR MROC 171400Z 11007KT 080V150 9999 FEW045 SCT070 23/17 A3000 NOSIG=
202012171500 METAR MROC 171500Z 11011KT 080V160 9999 SCT045 26/18 A3004 NOSIG=
202012171600 METAR MROC 171600Z 10013KT 060V120 9999 SCT045 25/18 A3004 NOSIG=
202012171700 METAR MROC 171700Z 10012KT 070V130 9999 SCT045 BKN080 25/18 A3003 NOSIG=
202012171800 METAR MROC 171800Z 11014KT 070V130 9999 BKN045 26/16 A3001 NOSIG=
202012171900 METAR MROC 171900Z 11016KT 9999 SCT045 25/16 A2997 NOSIG=
202012172000 METAR MROC 172000Z 09019KT 9999 SCT045 26/15 A2996 NOSIG=
202012172100 METAR MROC 172100Z 09017KT 9999 FEW040 SCT070 26/15 A2996 NOSIG=
202012172200 METAR MROC 172200Z 10017G27KT 9999 FEW035 SCT130 24/15 A2996 NOSIG=
202012172300 METAR MROC 172300Z 11015G25KT 9999 FEW040 SCT130 23/16 A2996 NOSIG=
202012180000 METAR MROC 180000Z 10016KT 9999 FEW040 22/16 A2998 NOSIG=
202012180100 METAR MROC 180100Z 11012KT CAVOK 22/16 A3000 NOSIG=
202012180200 METAR MROC 180200Z 11015KT CAVOK 21/16 A3002 NOSIG=
202012180300 METAR MROC 180300Z 10014G24KT 9999 FEW040 SCT120 22/16 A3004 NOSIG=
202012180400 METAR MROC 180400Z 09011KT 050V120 CAVOK 21/16 A3005 NOSIG=
202012180500 METAR MROC 180500Z 10018G29KT CAVOK 21/16 A3003 NOSIG=
202012180600 METAR MROC 180600Z 12015G23KT CAVOK 21/15 A3001 NOSIG=
202012180700 METAR MROC 180700Z 11015KT 080V140 CAVOK 21/16 A3000 NOSIG=
202012180800 METAR MROC 180800Z 10016KT CAVOK 21/16 A2999 NOSIG=
202012180900 METAR MROC 180900Z 10015G25KT 9999 FEW040 SCT100 21/15 A2999 NOSIG=
202012181000 METAR MROC 181000Z 10013KT 9999 FEW040 SCT100 21/15 A3000 NOSIG=
202012181100 METAR MROC 181100Z 09015KT CAVOK 21/16 A3001 NOSIG=
202012181200 METAR MROC 181200Z 10010KT 9999 FEW047 20/15 A3003 NOSIG=
202012181300 METAR MROC 181300Z 10013G23KT 9999 FEW045 22/15 A3003 NOSIG=
202012181400 METAR MROC 181400Z 10018G28KT 9999 FEW040 24/16 A3003 NOSIG=
202012181500 METAR MROC 181500Z 11019G29KT 9999 FEW040 24/16 A3004 NOSIG=
202012181600 METAR MROC 181600Z 09019G32KT 060V120 9999 FEW035 25/15 A3003 NOSIG=
202012181700 METAR MROC 181700Z 08019G34KT 9999 FEW030 26/14 A3002 NOSIG=
202012181800 METAR MROC 181800Z 08018G31KT 9999 FEW030 26/14 A3000 NOSIG=
202012181900 METAR MROC 181900Z 09017G27KT 9999 FEW045 27/13 A2998 NOSIG=
202012182000 METAR MROC 182000Z 08018G28KT 9999 SCT045 25/15 A2997 NOSIG=
202012182100 METAR MROC 182100Z 09015G25KT 9999 FEW045 26/12 A2997 NOSIG=
202012182200 METAR MROC 182200Z 09014G24KT 080V140 CAVOK 25/11 A2997 NOSIG=
202012182300 METAR MROC 182300Z 09012G22KT CAVOK 24/11 A2997 NOSIG=
202012190000 METAR MROC 190000Z 12010KT CAVOK 21/14 A2998 NOSIG=
202012190100 METAR MROC 190100Z 10007KT CAVOK 21/14 A3001 NOSIG=
202012190200 METAR MROC 190200Z 11012KT CAVOK 21/15 A3002 NOSIG=
202012190300 METAR MROC 190300Z 05006KT 340V090 9999 FEW040 19/13 A3003 NOSIG=
202012190400 METAR MROC 190400Z 10012KT CAVOK 20/15 A3002 NOSIG=
202012190500 METAR MROC 190500Z 10011KT CAVOK 20/15 A3001 NOSIG=
202012190600 METAR MROC 190600Z 08007KT 350V140 CAVOK 19/13 A3001 NOSIG=
202012190700 METAR MROC 190700Z 04006KT 020V090 CAVOK 18/13 A3000 NOSIG=
202012190800 METAR MROC 190800Z 09006KT 030V130 CAVOK 20/15 A2999 NOSIG=
202012190900 METAR MROC 190900Z 08009KT CAVOK 19/14 A2998 NOSIG=
202012191000 METAR MROC 191000Z 11011KT 090V150 CAVOK 20/15 A2996 NOSIG=
202012191100 METAR MROC 191100Z 11013KT CAVOK 21/16 A2997 NOSIG=
202012191200 METAR MROC 191200Z 11012KT 9999 FEW045 21/16 A2997 NOSIG=
202012191300 METAR MROC 191300Z 12015G26KT 9999 FEW040 22/17 A2999 NOSIG=
202012191400 METAR MROC 191400Z 10012G22KT 080V140 9999 FEW035 24/17 A3002 NOSIG=
202012191500 METAR MROC 191500Z 09017G27KT 9999 FEW030 25/17 A3002 NOSIG=
202012191600 METAR MROC 191600Z 09017G28KT 9999 FEW030 25/17 A3001 NOSIG=
202012191700 METAR MROC 191700Z 09015G25KT 070V130 9999 FEW030 SCT060 26/17 A3000 NOSIG=
202012191800 METAR MROC 191800Z 09017G27KT 9999 FEW030 SCT060 26/16 A2996 NOSIG=
202012191900 METAR MROC 191900Z 09016G26KT 060V120 9999 FEW030 SCT060 26/15 A2993 NOSIG=
202012192000 METAR MROC 192000Z 10019G29KT 9999 FEW030 BKN060 25/15 A2992 NOSIG=
202012192100 METAR MROC 192100Z 09016G26KT 9999 SCT030 26/15 A2991 NOSIG=
202012192200 METAR MROC 192200Z 10013KT 070V130 CAVOK 25/14 A2992 NOSIG=
202012192300 METAR MROC 192300Z 10015G25KT CAVOK 23/16 A2993 NOSIG=
202012200000 METAR MROC 200000Z 10012KT 9999 FEW045 22/16 A2995 NOSIG=
202012200100 METAR MROC 200100Z 11011KT CAVOK 22/16 A2997 NOSIG=
202012200200 METAR MROC 200200Z 11013G23KT CAVOK 22/15 A2999 NOSIG=
202012200300 METAR MROC 200300Z 11011G21KT CAVOK 21/16 A3000 NOSIG=
202012200400 METAR MROC 200400Z 12014KT 9999 FEW040 21/16 A3000 NOSIG=
202012200500 METAR MROC 200500Z 12014KT 9999 FEW040 21/16 A2999 NOSIG=
202012200600 METAR MROC 200600Z 11007KT 070V130 CAVOK 21/17 A2998 NOSIG=
202012200700 METAR MROC 200700Z 09008KT 9999 FEW025 21/17 A2997 NOSIG=
202012200800 METAR MROC 200800Z 06003KT 030V100 9999 FEW040 20/16 A2997 NOSIG=
202012200900 METAR MROC 200900Z 07005KT 020V110 9999 FEW035 21/16 A2995 NOSIG=
202012201000 METAR MROC 201000Z 11008KT 070V140 CAVOK 21/17 A2995 NOSIG=
202012201100 METAR MROC 201100Z 10012KT CAVOK 21/16 A2994 NOSIG=
202012201200 METAR MROC 201200Z 12012KT 9999 FEW035 21/16 A2994 NOSIG=
202012201300 METAR MROC 201300Z 11014KT 9999 FEW035 22/16 A2997 NOSIG=
202012201400 METAR MROC 201400Z 09016KT 9999 FEW040 24/15 A2999 NOSIG=
202012201500 METAR MROC 201500Z 11017KT 080V140 9999 FEW040 25/16 A3000 NOSIG=
202012201600 METAR MROC 201600Z 10019G31KT 9999 FEW047 26/14 A3000 NOSIG=
202012201700 METAR MROC 201700Z 09019KT 9999 FEW047 26/15 A2998 NOSIG=
202012201800 METAR MROC 201800Z 09016KT 9999 FEW048 SCT060 27/15 A2996 NOSIG=
202012201900 METAR MROC 201900Z 09017KT 9999 SCT047 27/15 A2993 NOSIG=
202012202000 METAR MROC 202000Z 09013KT 9999 SCT035 27/16 A2991 NOSIG=
202012202100 METAR MROC 202100Z 10015G25KT 9999 FEW045 27/14 A2991 NOSIG=
202012202200 METAR MROC 202200Z 09015KT 9999 FEW045 25/13 A2991 NOSIG=
202012202300 METAR MROC 202300Z 11014G24KT 9999 FEW045 23/15 A2993 NOSIG=
202012210000 METAR MROC 210000Z 11012KT CAVOK 22/15 A2995 NOSIG=
202012210100 METAR MROC 210100Z 10011KT CAVOK 21/15 A2998 NOSIG=
202012210200 METAR MROC 210200Z 10012G22KT CAVOK 21/15 A3000 NOSIG=
202012210300 METAR MROC 210300Z 12010KT 090V150 CAVOK 21/15 A3000 NOSIG=
202012210400 METAR MROC 210400Z 11010G20KT CAVOK 21/14 A3002 NOSIG=
202012210500 METAR MROC 210500Z 11016KT CAVOK 20/16 A3002 NOSIG=
202012210600 METAR MROC 210600Z 11011G21KT CAVOK 20/14 A3001 NOSIG=
202012210700 METAR MROC 210700Z 11011G21KT CAVOK 20/15 A2999 NOSIG=
202012210800 METAR MROC 210800Z 11011G21KT CAVOK 20/14 A2997 NOSIG=
202012210900 METAR MROC 210900Z 09013KT CAVOK 20/14 A2997 NOSIG=
202012211000 METAR MROC 211000Z 11013KT CAVOK 20/14 A2997 NOSIG=
202012211100 METAR MROC 211100Z 10013KT CAVOK 20/14 A2998 NOSIG=
202012211200 METAR MROC 211200Z 10010G20KT CAVOK 20/14 A2999 NOSIG=
202012211300 METAR MROC 211300Z 11012KT CAVOK 21/14 A3002 NOSIG=
202012211400 METAR MROC 211400Z 11017G31KT CAVOK 23/15 A3004 NOSIG=
202012211500 METAR MROC 211500Z 11018G29KT CAVOK 24/14 A3004 NOSIG=
202012211600 METAR MROC 211600Z 09015KT 060V120 CAVOK 26/13 A3003=
202012211700 METAR MROC 211700Z 09015KT 060V130 CAVOK 27/13 A3003 NOSIG=
202012211800 METAR MROC 211800Z 08016KT 060V120 CAVOK 27/14 A3001 NOSIG=
202012211900 METAR MROC 211900Z 09015KT 070V130 CAVOK 27/14 A2998 NOSIG=
202012212000 METAR MROC 212000Z 09013G23KT 060V120 CAVOK 27/13 A2996 NOSIG=
202012212100 METAR MROC 212100Z 08014KT CAVOK 27/13 A2995 NOSIG=
202012212200 METAR MROC 212200Z 08014KT CAVOK 26/14 A2995 NOSIG=
202012212300 METAR MROC 212300Z 09013KT 060V120 CAVOK 24/14 A2997 NOSIG=
202012220000 METAR MROC 220000Z 11010KT 080V140 CAVOK 22/15 A2999 NOSIG=
202012220100 METAR MROC 220100Z 11011G22KT 080V140 CAVOK 22/15 A3000 NOSIG=
202012220200 METAR MROC 220200Z 11014KT CAVOK 22/14 A3003 NOSIG=
202012220300 METAR MROC 220300Z 09015KT CAVOK 22/14 A3004 NOSIG=
202012220400 METAR MROC 220400Z 10012KT 070V130 CAVOK 21/14 A3004 NOSIG=
202012220500 METAR MROC 220500Z 11015G25KT CAVOK 21/14 A3003 NOSIG=
202012220600 METAR MROC 220600Z 11015KT 080V140 CAVOK 21/14 A3002 NOSIG=
202012220700 METAR MROC 220700Z 11015KT CAVOK 20/14 A3000 NOSIG=
202012220800 METAR MROC 220800Z 11013KT 090V150 CAVOK 20/14 A2999 NOSIG=
202012220900 METAR MROC 220900Z 11012KT 080V140 CAVOK 20/13 A2997 NOSIG=
202012221000 METAR MROC 221000Z 11014KT CAVOK 20/14 A2998 NOSIG=
202012221100 METAR MROC 221100Z 11015G27KT CAVOK 21/13 A2998 NOSIG=
202012221200 METAR MROC 221200Z 11013G23KT CAVOK 20/14 A2999 NOSIG=
202012221300 METAR MROC 221300Z 11015KT CAVOK 22/14 A3002 NOSIG=
202012221400 METAR MROC 221400Z 12015G25KT CAVOK 23/14 A3004 NOSIG=
202012221500 METAR MROC 221500Z 11017G28KT 080V150 CAVOK 25/15 A3004 NOSIG=
202012221600 METAR MROC 221600Z 10016G26KT 9999 FEW045 26/15 A3004 NOSIG=
202012221700 METAR MROC 221700Z 09016G26KT 9999 FEW040 27/15 A3003 NOSIG=
202012221800 METAR MROC 221800Z 09016KT 9999 FEW040 26/16 A3000 NOSIG=
202012221900 METAR MROC 221900Z 10015G25KT 9999 FEW040 28/16 A2998 NOSIG=
202012222000 METAR MROC 222000Z 09015G25KT 9999 FEW040 27/17 A2996 NOSIG=
202012222100 METAR MROC 222100Z 09013KT 9999 SCT045 27/16 A2995 NOSIG=
202012222200 METAR MROC 222200Z 12009KT 090V150 9999 SCT045 25/17 A2995 NOSIG=
202012222300 METAR MROC 222300Z 10008KT 080V140 9999 FEW045 BKN080 25/17 A2996 NOSIG=
202012230000 METAR MROC 230000Z VRB03KT CAVOK 23/20 A2998 NOSIG=
202012230100 METAR MROC 230100Z VRB02KT CAVOK 22/20 A3002 NOSIG=
202012230200 METAR MROC 230200Z 08010KT 9999 SCT045 22/19 A3003 NOSIG=
202012230300 METAR MROC 230300Z 09013KT CAVOK 22/16 A3003 NOSIG=
202012230400 METAR MROC 230400Z 10011KT 080V140 9999 FEW040 22/17 A3002 NOSIG=
202012230500 METAR MROC 230500Z 11015KT 9999 FEW045 22/17 A3001 NOSIG=
202012230600 METAR MROC 230600Z 11014KT 9999 FEW045 22/17 A3000 NOSIG=
202012230700 METAR MROC 230700Z 11013KT 080V140 9999 FEW045 22/17 A2998 NOSIG=
202012230800 METAR MROC 230800Z 05008KT 9999 FEW045 21/15 A2997 NOSIG=
202012230900 METAR MROC 230900Z 05006KT 360V110 9999 FEW045 21/16 A2997 NOSIG=
202012231000 METAR MROC 231000Z 02004KT 300V060 9999 FEW045 SCT120 20/16 A2998 NOSIG=
202012231100 METAR MROC 231100Z VRB02KT CAVOK 20/17 A2999 NOSIG=
202012231200 METAR MROC 231200Z 05006KT 320V100 9999 FEW040 BKN100 21/17 A3001 NOSIG=
202012231300 METAR MROC 231300Z 10013KT 080V140 9999 FEW030 BKN100 23/17 A3002 NOSIG=
202012231400 METAR MROC 231400Z 10015KT 9999 SCT045 BKN100 23/17 A3004 NOSIG=
202012231500 METAR MROC 231500Z 11013KT 9999 FEW045 SCT100 24/17 A3004 NOSIG=
202012231600 METAR MROC 231600Z 10015KT 9999 FEW035 27/18 A3004 NOSIG=
202012231700 METAR MROC 231700Z 10015G25KT 070V130 9999 FEW040 27/18 A3002 NOSIG=
202012231800 METAR MROC 231800Z 11013KT 9999 FEW035 SCT120 27/19 A2998 NOSIG=
202012231900 METAR MROC 231900Z 12013KT 090V150 9999 FEW020 SCT100 27/19 A2995 NOSIG=
202012232000 METAR MROC 232000Z 09009KT 9999 4500SW RA FEW001 SCT030 BKN070 23/20 A2994 NOSIG=
202012232100 METAR MROC 232100Z 12010G20KT 080V160 8000 3000SW -RA FEW030 BKN060 22/19 A2993 NOSIG=
202012232200 METAR MROC 232200Z 12007G17KT 080V160 9999 VCSH FEW030 BKN060 23/18 A2992 NOSIG=
202012232300 METAR MROC 232300Z 09010G20KT 9999 FEW030 SCT100 23/18 A2993 NOSIG=
202012240000 METAR MROC 240000Z 09010G20KT 9999 FEW030 23/16 A2994 NOSIG=
202012240100 METAR MROC 240100Z 09012G22KT 9999 FEW030 22/15 A2996 NOSIG=
202012240200 METAR MROC 240200Z 11012G22KT 9999 FEW030 21/16 A2997 NOSIG=
202012240300 METAR MROC 240300Z 10012G22KT CAVOK 21/15 A2998 NOSIG=
202012240400 METAR MROC 240400Z 11014G25KT CAVOK 21/16 A2999 NOSIG=
202012240500 METAR MROC 240500Z 11014KT CAVOK 21/16 A2999 NOSIG=
202012240600 METAR MROC 240600Z 12014KT CAVOK 22/15 A2998 NOSIG=
202012240700 METAR MROC 240700Z 11011G22KT 050V130 CAVOK 21/16 A2997 NOSIG=
202012240800 METAR MROC 240800Z 05007KT 360V110 CAVOK 21/17 A2996 NOSIG=
202012240900 METAR MROC 240900Z VRB06KT CAVOK 21/16 A2995 NOSIG=
202012241000 METAR MROC 241000Z 12003KT 090V150 9999 FEW045 21/16 A2995 NOSIG=
202012241100 METAR MROC 241100Z 11014G24KT 9999 FEW045 21/15 A2997 NOSIG=
202012241200 METAR MROC 241200Z 09014KT 9999 FEW045 21/15 A2998 NOSIG=
202012241300 METAR MROC 241300Z 11013KT CAVOK 21/15 A3001 NOSIG=
202012241400 METAR MROC 241400Z 11014KT CAVOK 23/14 A3003 NOSIG=
202012241500 METAR MROC 241500Z 11015KT 080V140 CAVOK 25/14 A3003 NOSIG=
202012241600 METAR MROC 241600Z 10012KT CAVOK 26/15 A3003 NOSIG=
202012241700 METAR MROC 241700Z 11010KT 070V140 CAVOK 27/15 A3000 NOSIG=
202012241800 METAR MROC 241800Z 12010KT 080V160 CAVOK 28/15 A2997 NOSIG=
202012241900 METAR MROC 241900Z 12010KT 070V150 CAVOK 28/15 A2996 NOSIG=
202012242000 METAR MROC 242000Z 11008KT 070V140 CAVOK 29/14 A2993 NOSIG=
202012242100 METAR MROC 242100Z 24012KT 170V280 9999 FEW045 27/19 A2993 NOSIG=
202012242200 METAR MROC 242200Z 25010KT 9999 FEW045 26/21 A2994 NOSIG=
202012242300 METAR MROC 242300Z 25009KT 9999 FEW045 26/21 A2994 NOSIG=
202012250000 METAR MROC 250000Z 23010KT 9999 FEW015 SCT040 23/20 A2998 NOSIG=
202012250100 METAR MROC 250100Z 26006KT 9999 FEW010 SCT020 22/21 A3001 NOSIG=
202012250200 METAR MROC 250200Z VRB02KT 9999 BKN020 22/21 A3003 BECMG 08005KT=
202012250300 METAR MROC 250300Z 08005KT 9999 FEW030 21/16 A3005 NOSIG=
202012250400 METAR MROC 250400Z 07005KT 020V110 9999 FEW030 21/15 A3005 NOSIG=
202012250500 METAR MROC 250500Z 07010KT 9999 FEW030 21/15 A3004 NOSIG=
202012250600 METAR MROC 250600Z 08006KT 030V120 CAVOK 20/15 A3002 NOSIG=
202012250700 METAR MROC 250700Z 09009KT 040V120 CAVOK 20/14 A3001 NOSIG=
202012250800 METAR MROC 250800Z COR 08007KT 020V120 CAVOK 19/15 A2999 NOSIG=
202012250900 METAR MROC 250900Z 11010KT CAVOK 19/14 A2998 NOSIG=
202012251000 METAR MROC 251000Z 05005KT 010V130 CAVOK 19/13 A2998 NOSIG=
202012251100 METAR MROC 251100Z 07006KT 040V120 CAVOK 19/14 A2999 NOSIG=
202012251200 METAR MROC 251200Z 08006KT 050V110 CAVOK 19/13 A3000 NOSIG=
202012251300 METAR MROC 251300Z 12008KT 090V170 CAVOK 21/13 A3001 NOSIG=
202012251400 METAR MROC 251400Z 10018G28KT CAVOK 24/14 A3001 NOSIG=
202012251500 METAR MROC 251500Z 09019G30KT CAVOK 25/13 A3001 NOSIG=
202012251600 METAR MROC 251600Z 09020KT CAVOK 26/11 A3002 NOSIG=
202012251700 METAR MROC 251700Z 08019G29KT CAVOK 27/11 A3001 NOSIG=
202012251800 METAR MROC 251800Z 08016KT 060V120 CAVOK 27/14 A2999 NOSIG=
202012251900 METAR MROC 251900Z 08015KT 040V110 CAVOK 27/15 A2997 NOSIG=
202012252000 METAR MROC 252000Z 08015KT 060V120 CAVOK 26/15 A2995 NOSIG=
202012252100 METAR MROC 252100Z 08014G24KT 9999 FEW045 SCT080 26/17 A2994 NOSIG=
202012252200 METAR MROC 252200Z 08013G23KT 9999 FEW045 SCT080 25/16 A2995 NOSIG=
202012252300 METAR MROC 252300Z 08012KT 9999 FEW045 23/15 A2997 NOSIG=
202012260000 METAR MROC 260000Z 10015G26KT 9999 FEW045 SCT160 22/15 A2998 NOSIG=
202012260100 METAR MROC 260100Z 11013G24KT CAVOK 21/16 A3001 NOSIG=
202012260200 METAR MROC 260200Z 11013G23KT 080V140 CAVOK 21/16 A3005 NOSIG=
202012260300 METAR MROC 260300Z 11011KT CAVOK 21/16 A3006 NOSIG=
202012260400 METAR MROC 260400Z 10009G19KT CAVOK 21/15 A3006 NOSIG=
202012260500 METAR MROC 260500Z 09012G22KT CAVOK 22/14 A3003 NOSIG=
202012260600 METAR MROC 260600Z 11015KT CAVOK 21/15 A3002 NOSIG=
202012260700 METAR MROC 260700Z 11016KT CAVOK 20/14 A3000 NOSIG=
202012260800 METAR MROC 260800Z 11010G20KT CAVOK 20/14 A2998 NOSIG=
202012260900 METAR MROC 260900Z 11016KT CAVOK 20/14 A2997 NOSIG=
202012261000 METAR MROC 261000Z 11013KT CAVOK 20/14 A2998 NOSIG=
202012261100 METAR MROC 261100Z 10008KT CAVOK 19/14 A2999 NOSIG=
202012261200 METAR MROC 261200Z 12010G20KT CAVOK 19/14 A3000 NOSIG=
202012261300 METAR MROC 261300Z 12012KT CAVOK 21/14 A3002 NOSIG=
202012261400 METAR MROC 261400Z 11013G24KT CAVOK 22/15 A3002 NOSIG=
202012261500 METAR MROC 261500Z 12011KT 080V150 CAVOK 25/15 A3003 NOSIG=
202012261600 METAR MROC 261600Z 11010KT 080V150 CAVOK 25/14 A3003 NOSIG=
202012261700 METAR MROC 261700Z 07011KT CAVOK 25/15 A3002 NOSIG=
202012261800 METAR MROC 261800Z 09010KT 060V130 CAVOK 25/16 A3000 NOSIG=
202012261900 METAR MROC 261900Z 10008KT 040V150 9999 SCT045 27/15 A2996 NOSIG=
202012262000 METAR MROC 262000Z 10007KT 060V150 9999 FEW045 SCT070 27/15 A2993 TEMPO 24006KT=
202012262100 METAR MROC 262100Z 21005KT 130V260 9999 FEW045 BKN080 25/19 A2991 NOSIG=
202012262200 METAR MROC 262200Z 26011KT 9999 SCT030 BKN080 24/20 A2992 NOSIG=
202012262300 METAR MROC 262300Z 25011KT 9999 FEW015 SCT035 BKN080 22/20 A2994 NOSIG=
202012270000 METAR MROC 270000Z 26005KT 230V340 9999 SCT015 BKN050 21/19 A2997 NOSIG=
202012270100 METAR MROC 270100Z 27003KT 240V300 9999 SCT045 20/19 A2999 NOSIG=
202012270200 METAR MROC 270200Z 26004KT 9999 FEW040 BKN060 20/20 A3000 NOSIG=
202012270300 METAR MROC 270300Z 27001KT 9999 FEW047 BKN070 20/19 A3002 NOSIG=
202012270400 METAR MROC 270400Z 10004KT 9999 BKN045 20/18 A3002 NOSIG=
202012270500 METAR MROC 270500Z 07009KT 9999 BKN045 21/17 A3001 NOSIG=
202012270600 METAR MROC 270600Z 09007KT 040V120 9999 BKN040 21/17 A3000 NOSIG=
202012270700 METAR MROC 270700Z 09008KT 050V130 9999 SCT045 21/17 A2997 NOSIG=
202012270800 METAR MROC 270800Z 11007KT 090V160 CAVOK 20/17 A2996 NOSIG=
202012270900 METAR MROC 270900Z 12005KT 9999 FEW045 19/16 A2994 NOSIG=
202012271000 METAR MROC 271000Z 12007KT CAVOK 20/16 A2995 NOSIG=
202012271100 METAR MROC 271100Z 12007KT CAVOK 19/16 A2995 NOSIG=
202012271200 METAR MROC 271200Z 12006KT 090V150 9999 FEW045 20/16 A2999 NOSIG=
202012271300 METAR MROC 271300Z VRB03KT CAVOK 20/16 A3001 NOSIG=
202012271400 METAR MROC 271400Z 12006KT 090V160 9999 FEW045 SCT120 21/16 A3003 NOSIG=
202012271500 METAR MROC 271500Z 11007KT 060V160 9999 FEW040 SCT120 24/16 A3004 NOSIG=
202012271600 METAR MROC 271600Z 12007KT 060V170 9999 FEW040 SCT140 26/17 A3004 NOSIG=
202012271700 METAR MROC 271700Z 12009KT 080V150 9999 FEW040 SCT140 26/17 A3001 NOSIG=
202012271800 METAR MROC 271800Z 13007KT 090V160 9999 FEW040 SCT140 26/16 A2999 NOSIG=
202012271900 METAR MROC 271900Z 13008KT 090V190 9999 FEW040 BKN070 27/17 A2996 NOSIG=
202012272000 METAR MROC 272000Z 14008KT 100V200 9999 FEW040 SCT100 27/17 A2994 NOSIG=
202012272100 METAR MROC 272100Z 15007KT 080V200 9999 FEW040 27/17 A2994 NOSIG=
202012272200 METAR MROC 272200Z 14007KT 090V200 9999 SCT040 25/17 A2994 NOSIG=
202012272300 METAR MROC 272300Z 12005KT 090V170 9999 BKN035 23/17 A2996 NOSIG=
202012280000 METAR MROC 280000Z VRB04KT 9999 BKN040 22/16 A2998 NOSIG=
202012280100 METAR MROC 280100Z 15007KT 110V180 9999 BKN040 21/16 A3001 NOSIG=
202012280200 METAR MROC 280200Z 13007KT 090V160 9999 BKN045 21/16 A3003 WS R07 NOSIG=
202012280300 METAR MROC 280300Z 10005KT 070V150 CAVOK 21/16 A3005 WS R07 NOSIG=
202012280400 METAR MROC 280400Z VRB03KT 9999 FEW035 SCT100 20/16 A3005 WS R07 TEMPO 27006KT=
202012280500 METAR MROC 280500Z 10005KT 040V140 9999 FEW040 BKN080 21/16 A3004 NOSIG=
202012280600 METAR MROC 280600Z 14003KT 090V180 9999 FEW035 BKN080 20/16 A3002 NOSIG=
202012280700 METAR MROC 280700Z 10004KT 070V130 9999 FEW035 BKN080 20/16 A2999 NOSIG=
202012280800 METAR MROC 280800Z 12005KT 9999 FEW035 SCT080 20/17 A2998 NOSIG=
202012280900 METAR MROC 280900Z 10004KT 9999 FEW035 20/17 A2998 NOSIG=
202012281000 METAR MROC 281000Z 11003KT 090V150 9999 FEW035 20/16 A2998 NOSIG=
202012281100 METAR MROC 281100Z 12006KT 9999 FEW040 20/16 A2999 NOSIG=
202012281200 METAR MROC 281200Z 10009KT 070V130 9999 SCT030 OVC200 20/16 A3000 NOSIG=
202012281300 METAR MROC 281300Z 10007G17KT 070V150 9999 FEW030 BKN200 21/17 A3002 NOSIG=
202012281400 METAR MROC 281400Z 10009G19KT 070V150 9999 FEW030 BKN200 23/17 A3004 NOSIG=
202012281500 METAR MROC 281500Z 12010G20KT 090V190 9999 FEW030 SCT200 24/17 A3005 NOSIG=
202012281600 METAR MROC 281600Z 12006G16KT 9999 FEW030 SCT080 26/16 A3005 NOSIG=
202012281700 METAR MROC 281700Z 10011KT 030V140 9999 SCT030 SCT080 26/17 A3003 NOSIG=
202012281800 METAR MROC 281800Z 14004KT 9999 FEW040 SCT040 26/16 A3001 NOSIG=
202012281900 METAR MROC 281900Z 11010G20KT 080V150 9999 FEW030 SCT060 26/17 A2998 NOSIG=
202012282000 METAR MROC 282000Z 11010G20KT 080V150 9999 FEW035 BKN060 26/17 A2997 NOSIG=
202012282100 METAR MROC 282100Z COR 10013KT 070V130 9999 DZ FEW045 BKN060 24/17 A2996 NOSIG=
202012282200 METAR MROC 282200Z 10008KT 080V150 CAVOK 24/17 A2997 REDZ NOSIG=
202012282300 METAR MROC 282300Z 10008KT 060V150 9999 BKN040 23/17 A2998 NOSIG=
202012290000 METAR MROC 290000Z 11009KT 060V140 9999 OVC045 22/17 A3000 NOSIG=
202012290100 METAR MROC 290100Z 11007KT 9999 BKN040 22/17 A3002 NOSIG=
202012290200 METAR MROC 290200Z 11009KT 9999 FEW040 BKN060 21/17 A3003 NOSIG=
202012290300 METAR MROC 290300Z 12008KT 090V170 9999 FEW040 BKN060 21/16 A3005 NOSIG=
202012290400 METAR MROC 290400Z 11005KT 050V150 CAVOK 21/16 A3005 NOSIG=
202012290500 METAR MROC 290500Z 10007KT 060V130 CAVOK 21/17 A3004 NOSIG=
202012290600 METAR MROC 290600Z 10007KT 070V140 CAVOK 21/16 A3002 NOSIG=
202012290700 METAR MROC 290700Z 13006KT 090V160 CAVOK 20/16 A2999 NOSIG=
202012290800 METAR MROC 290800Z 12010KT CAVOK 20/16 A2997 NOSIG=
202012290900 METAR MROC 290900Z 11008KT 070V150 CAVOK 21/16 A2997 NOSIG=
202012291000 METAR MROC 291000Z 11007KT CAVOK 20/16 A2997 NOSIG=
202012291100 METAR MROC 291100Z 10005KT CAVOK 20/16 A2998 NOSIG=
202012291200 METAR MROC 291200Z 09009KT CAVOK 20/16 A2999 NOSIG=
202012291300 METAR MROC 291300Z 03007KT 360V060 9999 FEW030 BKN060 21/17 A3001 NOSIG=
202012291400 METAR MROC 291400Z 06008KT 040V100 9999 FEW030 BKN060 22/17 A3003 NOSIG=
202012291500 METAR MROC 291500Z 22004KT 9999 FEW030 BKN060 24/18 A3004 NOSIG=
202012291600 METAR MROC 291600Z 14008KT 080V230 9999 FEW035 BKN060 25/17 A3003 NOSIG=
202012291700 METAR MROC 291700Z 12015KT 080V150 9999 FEW035 SCT060 27/16 A3002 NOSIG=
202012291800 METAR MROC 291800Z 12015KT 080V150 9999 FEW045 SCT100 27/17 A2999 NOSIG=
202012291900 METAR MROC 291900Z 12014KT 090V170 9999 FEW045 SCT100 28/16 A2995 NOSIG=
202012292000 METAR MROC 292000Z 22015KT 170V260 9999 BKN035 26/20 A2993 NOSIG=
202012292100 METAR MROC 292100Z 25012KT 9999 SCT035 23/20 A2994 NOSIG=
202012292200 METAR MROC 292200Z 27009KT 9999 BKN015 22/19 A2994 NOSIG=
202012292300 METAR MROC 292300Z 24005KT 9999 SCT010 SCT030 21/20 A2996 NOSIG=
202012300000 METAR MROC 300000Z 21004KT 9999 BKN015 21/20 A2997 NOSIG=
202012300100 METAR MROC 300100Z 25003KT 210V280 9999 FEW005 BKN045 20/20 A2999 NOSIG=
202012300200 METAR MROC 300200Z VRB01KT 9999 SCT010 21/20 A3001 NOSIG=
202012300300 METAR MROC 300300Z VRB03KT 9999 SCT045 21/19 A3002 NOSIG=
202012300400 METAR MROC 300400Z 11005KT 9999 FEW030 20/17 A3004 NOSIG=
202012300500 METAR MROC 300500Z 36003KT 9999 FEW025 SCT045 20/19 A3002 NOSIG=
202012300600 METAR MROC 300600Z VRB02KT CAVOK 20/19 A3001 NOSIG=
202012300700 METAR MROC 300700Z 03004KT 360V060 CAVOK 20/18 A3000 NOSIG=
202012300800 METAR MROC 300800Z VRB02KT 9999 2000S R07/1400U BCFG FEW001 BKN140 18/18 A2999 NOSIG=
202012300900 METAR MROC 300900Z 08003KT 030V100 9999 4500S BCFG FEW003 BKN140 19/18 A2998 NOSIG=
202012301000 METAR MROC 301000Z 06006KT CAVOK 20/16 A2999 NOSIG=
202012301100 METAR MROC 301100Z 00000KT CAVOK 19/16 A2999 NOSIG=
202012301200 METAR MROC 301200Z VRB02KT CAVOK 19/18 A3001 NOSIG=
202012301300 METAR MROC 301300Z COR 03004KT 360V060 9999 FEW010 BKN060 20/17 A3004 NOSIG=
202012301400 METAR MROC 301400Z 09004KT CAVOK 22/16 A3004 NOSIG=
202012301500 METAR MROC 301500Z VRB03KT 9999 FEW040 SCT100 24/15 A3004 NOSIG=
202012301600 METAR MROC 301600Z 26007KT 9999 FEW045 24/18 A3004 NOSIG=
202012301700 METAR MROC 301700Z 25009KT 210V290 9999 SCT045 26/18 A3002 NOSIG=
202012301800 METAR MROC 301800Z 22006KT 150V260 9999 SCT040 SCT100 26/18 A2999 NOSIG=
202012301900 METAR MROC 301900Z 24007KT 200V270 9999 BKN035 26/19 A2997 NOSIG=
202012302000 METAR MROC 302000Z 24010KT 210V270 9999 BKN030 26/20 A2994 NOSIG=
202012302100 METAR MROC 302100Z 24011KT 9999 SCT020 24/19 A2993 NOSIG=
202012302200 METAR MROC 302200Z 25009KT 210V270 9999 BKN015 23/20 A2994 NOSIG=
202012302300 METAR MROC 302300Z 25007KT 9999 BKN015 21/20 A2995 NOSIG=
202012310000 METAR MROC 310000Z 24008KT 9999 -RA OVC005 20/20 A2997 NOSIG=
202012310100 METAR MROC 310100Z 24007KT 5000 RA BR SCT002 OVC015 20/20 A3000 NOSIG=
202012310200 METAR MROC 310200Z 26008KT 240V310 9999 OVC005 20/20 A3002 RERA NOSIG=
202012310300 METAR MROC 310300Z VRB02KT 9999 OVC004 20/19 A3003 NOSIG=
202012310400 METAR MROC 310400Z VRB02KT 9999 FEW007 BKN015 20/20 A3003 NOSIG=
202012310500 METAR MROC 310500Z VRB02KT 9999 FEW005 SCT015 BKN100 20/20 A3002 NOSIG=
202012310600 METAR MROC 310600Z 00000KT 9999 FEW005 BKN035 20/19 A3000 NOSIG=
202012310700 METAR MROC 310700Z VRB02KT 8000 3000SW VCFG SCT002 BKN035 19/19 A2998 NOSIG=
202012310800 METAR MROC 310800Z VRB02KT 1500 BR SCT002 BKN005 19/19 A2997 NOSIG=
202012310900 METAR MROC 310900Z 00000KT 1500 BR SCT002 BKN005 19/19 A2997 NOSIG=
202012311000 METAR MROC 311000Z VRB01KT 9999 4500 BCFG BKN035 20/19 A2998 NOSIG=
202012311100 METAR MROC 311100Z 09004KT 9999 BCFG FEW035 20/18 A2999 NOSIG=
202012311200 METAR MROC 311200Z 00000KT 9999 BCFG NSC 19/17 A3000 NOSIG=
202012311300 METAR MROC 311300Z 07004KT 9999 FEW005 20/17 A3002 NOSIG=
202012311400 METAR MROC 311400Z 20003KT 150V240 9999 FEW005 22/19 A3003 NOSIG=
202012311500 METAR MROC 311500Z 24007KT 210V270 9999 FEW025 22/19 A3005 NOSIG=
202012311600 METAR MROC 311600Z 25006KT 210V290 9999 FEW040 24/20 A3004 NOSIG=
202012311700 METAR MROC 311700Z 25007KT 210V290 9999 FEW040 25/19 A3002 NOSIG=
202012311800 METAR MROC 311800Z 24007KT 190V280 9999 SCT040 26/19 A2999 NOSIG=
202012311900 METAR MROC 311900Z 25009KT 220V280 9999 BKN040 26/20 A2996 NOSIG=
202012312000 METAR MROC 312000Z 25010KT 210V270 9999 BKN040 26/20 A2994 NOSIG=
202012312100 METAR MROC 312100Z 25010KT 9999 SCT025 SCT250 24/21 A2994 NOSIG=
202012312200 METAR MROC 312200Z 24007KT 200V270 9999 FEW010 SCT020 BKN250 24/21 A2995 NOSIG=
202012312300 METAR MROC 312300Z 20006KT 190V250 9999 FEW010 SCT020 SCT110 22/21 A2996 NOSIG=
