200501010000 METAR MRLM 010000Z 04006KT 9999 SCT018 SCT090 25/22 A2989=
200501010100 METAR MRLM NIL=
200501010200 METAR MRLM NIL=
200501010300 METAR MRLM NIL=
200501010400 METAR MRLM NIL=
200501010500 METAR MRLM NIL=
200501010600 METAR MRLM NIL=
200501010700 METAR MRLM NIL=
200501010800 METAR MRLM NIL=
200501010900 METAR MRLM NIL=
200501011000 METAR MRLM NIL=
200501011100 METAR MRLM NIL=
200501011200 METAR MRLM NIL=
200501011300 METAR MRLM 011300Z VRB03KT 9999 RA OVC015 22/20 A2995=
200501011400 METAR MRLM 011400Z VRB03KT 9999 BKN025 SCT120 23/21 A2997=
200501011500 METAR MRLM 011500Z 21004KT 9999 SCT016 SCT130 24/21 A2998=
200501011600 METAR MRLM 011600Z 19004KT 9999 FEW030 BKN140 27/21 A2997=
200501011700 METAR MRLM 011700Z VRB03KT 9999 SCT025 SCT110 27/23 A2996=
200501011800 METAR MRLM 011800Z 07005KT 9999 SCT025 SCT130 28/22 A2993=
200501011900 METAR MRLM 011900Z 02009KT 9999 SCT030 SCT100 29/23 A2993=
200501012000 METAR MRLM NIL=
200501012100 METAR MRLM 012100Z 00000KT 9999 FEW026 BKN090 27/22 A2988=
200501012200 METAR MRLM 012200Z 00000KT CAVOK 27/21 A2988=
200501012300 METAR MRLM 012300Z 00000KT CAVOK 26/22 A2988=
200501012347 METAR MRLM 020000Z 00000KT CAVOK 24/22 A2990=
200501020000 METAR MRLM 020000Z 00000KT CAVOK 24/22 A2990=
200501020100 METAR MRLM NIL=
200501020200 METAR MRLM NIL=
200501020300 METAR MRLM NIL=
200501020400 METAR MRLM NIL=
200501020500 METAR MRLM NIL=
200501020600 METAR MRLM NIL=
200501020700 METAR MRLM NIL=
200501020800 METAR MRLM NIL=
200501020900 METAR MRLM NIL=
200501021000 METAR MRLM NIL=
200501021100 METAR MRLM NIL=
200501021200 METAR MRLM NIL=
200501021300 METAR MRLM 021300Z 22005KT 7000 DZ SCT012 BKN025 22/21 A2995=
200501021400 METAR MRLM 021400Z 24007KT 8000 -RA BKN030 SCT080 23/21 A2998=
200501021500 METAR MRLM 021500Z 22004KT 9999 BKN030 SCT090 23/22 A2998 RERA=
200501021600 METAR MRLM 021600Z 27003KT 9999 DZ BKN030 SCT080 24/23 A2998=
200501021700 METAR MRLM 021700Z 24005KT 9999 BKN030 SCT080 26/23 A2985 REDZ=
200501021800 METAR MRLM 021800Z 31005KT 9999 3000E +DZ SCT024 BKN030 26/23 A2994=
200501021900 METAR MRLM 021900Z 08006KT 9999 2000SE -RA SCT022 BKN026 26/22 A2991=
200501022100 METAR MRLM 022100Z 17003KT 9999 SCT025TCU 26/23 A2987=
200501022200 METAR MRLM 022200Z 00000KT 9999 SCT030 BKN080 27/22 A2988=
200501022300 METAR MRLM 022300Z 00000KT 9999 FEW024TCU SCT030 25/23 A2988=
200501030000 METAR MRLM 030000Z 00000KT 9999 3000SW VCSH SCT024 SCT080 25/23 A2990=
200501030100 METAR MRLM NIL=
200501030200 METAR MRLM NIL=
200501030300 METAR MRLM NIL=
200501030400 METAR MRLM NIL=
200501030500 METAR MRLM NIL=
200501030600 METAR MRLM NIL=
200501030700 METAR MRLM NIL=
200501030800 METAR MRLM NIL=
200501030900 METAR MRLM NIL=
200501031000 METAR MRLM NIL=
200501031100 METAR MRLM NIL=
200501031200 METAR MRLM 031200Z 32003KT 5000 -RA SCT012 BKN020 22/// A////=
200501031300 METAR MRLM 031300Z 21003KT 9999 3000N VCSH BKN022 SCT030 22/22 A2995=
200501031400 METAR MRLM 031400Z 24005KT 4000 RA BKN024 SCT080 23/22 A2998=
200501031500 METAR MRLM 031500Z 07003KT 5000 RA BKN015 23/22 A2999=
200501031600 METAR MRLM 031600Z 21004KT 8000 -RA BKN024 SCT040 24/22 A2999=
200501031700 METAR MRLM 031700Z 15004KT 9999 3000NW BKN022 SCT080 26/23 A2997=
200501031800 METAR MRLM 031800Z 15005KT 5000 2000N -RA SCT080 28/23 A2993=
200501031900 METAR MRLM 031900Z 09009KT 5000 2000SE VCSH BKN024 SCT080 25/23 A2991=
200501032100 METAR MRLM 032100Z 20004KT 8000 VCSH FEW010 SCT024 BKN080 24/22 A2988 RERA=
200501032200 METAR MRLM 032200Z 17003KT 9999 OVC025 24/22 A2987=
200501032300 METAR MRLM 032300Z 18003KT 9999 BKN024 SCT00 23/22 A2988=
200501040000 METAR MRLM 040000Z 18004KT 8000 VCSH SCT022 SCT024 23/22 A2989=
200501040100 METAR MRLM NIL=
200501040200 METAR MRLM NIL=
200501040300 METAR MRLM NIL=
200501040400 METAR MRLM NIL=
200501040500 METAR MRLM NIL=
200501040600 METAR MRLM NIL=
200501040700 METAR MRLM NIL=
200501040800 METAR MRLM NIL=
200501040900 METAR MRLM NIL=
200501041000 METAR MRLM NIL=
200501041100 METAR MRLM NIL=
200501041200 METAR MRLM NIL=
200501041300 METAR MRLM 041300Z 34004KT 8000 3000SW -RA SCT008 BKN020 23/22 A2994=
200501041400 METAR MRLM 041400Z 03012KT 4000 -RA SCT008 SCT018 23/22=
200501041500 METAR MRLM 041500Z 04010KT 4000 -RA BKN007 SCT015 23/21 A2997=
200501041600 METAR MRLM 041600Z 06005KT 4000 -RA BKN006 SCT090 23/21 A2994=
200501041700 METAR MRLM 041700Z 20004KT 9999 -DZ SCT007 SCT020 23/22 A2995=
200501041800 METAR MRLM 041800Z 13004KT 9999 SCT010 SCT080 24/22 A2992=
200501041900 METAR MRLM 041900Z 00000KT 9999 DZ FEW015 SCT025 BKN090 25/22 A2990=
200501042000 METAR MRLM NIL=
200501042100 METAR MRLM 042100Z 00000KT 9999 -DZ SCT009 SCT030 BKN090 23/21 A2986=
200501042200 METAR MRLM 042200Z 21004KT 9999 DZ FEW007 BKN030 23/22 A2986=
200501042300 METAR MRLM 042300Z 17004KT 9999 SCT015 SCT090 22/21 A2987=
200501050000 METAR MRLM 050000Z VRB03KT 9999 DZ SCT015 BKN090 22/21 A2989=
200501050100 METAR MRLM NIL=
200501050200 METAR MRLM NIL=
200501050300 METAR MRLM NIL=
200501050400 METAR MRLM NIL=
200501050500 METAR MRLM NIL=
200501050600 METAR MRLM NIL=
200501050700 METAR MRLM NIL=
200501050800 METAR MRLM NIL=
200501050900 METAR MRLM NIL=
200501051000 METAR MRLM NIL=
200501051100 METAR MRLM NIL=
200501051200 METAR MRLM NIL=
200501051300 METAR MRLM 051300Z 00000KT CAVOK 22/20 A2990=
200501051400 METAR MRLM 051400Z 23005KT CAVOK 23/20 A2992=
200501051500 METAR MRLM 051500Z VRB03KT CAVOK 26/21 A2992=
200501051600 METAR MRLM 051600Z 01005KT CAVOK 27/21 A2992=
200501051700 METAR MRLM 051700Z 36007KT 9999 FEW036 27/20 A2990=
200501051800 METAR MRLM 051800Z 35006KT 9999 FEW035 28/21 A2988=
200501051900 METAR MRLM 051900Z 35009KT 9999 FEW030 28/22 A2985=
200501052000 METAR MRLM 052000Z NIL=
200501052100 METAR MRLM 052100Z 36014KT 9999 FEW022 BKN120 26/22 A2982=
200501052200 METAR MRLM 052200Z 02010KT 9999 FEW015 BKN100 25/22 A2982=
200501052300 METAR MRLM 052300Z NIL=
200501060000 METAR MRLM 060000Z 00000KT CAVOK 23/21 A2983=
200501060100 METAR MRLM NIL=
200501060200 METAR MRLM NIL=
200501060300 METAR MRLM NIL=
200501060400 METAR MRLM NIL=
200501060500 METAR MRLM NIL=
200501060600 METAR MRLM NIL=
200501060700 METAR MRLM NIL=
200501060800 METAR MRLM NIL=
200501060900 METAR MRLM NIL=
200501061000 METAR MRLM NIL=
200501061100 METAR MRLM NIL=
200501061200 METAR MRLM 061200Z 04006KT 5000 1000W +DZ SCT015 BKN020 21/20 A2987=
200501061300 METAR MRLM 061300Z 02003KT 8000 DZ SCT025 BKN080 22/20 A2990=
200501061400 METAR MRLM 061400Z 22006KT 9999 BKN030 SCT080 21/20 A2990 REDZ=
200501061500 METAR MRLM 061500Z 17004KT 9999 SCT030 BKN090 22/20 A2991=
200501061600 METAR MRLM 061600Z 20005KT 9999 FEW030 BKN090 24/21 A2990=
200501061700 METAR MRLM 061700Z 21004KT 9999 FEW030 BKN090 26/21 A2988=
200501061800 METAR MRLM 061800Z 20003KT 9999 FEW030 BKN090 27/20 A2985=
200501061900 METAR MRLM 061900Z 00000KT 9999 FEW030 BKN090 28/21 A2993=
200501062000 METAR MRLM 062000Z NIL=
200501062100 METAR MRLM 062100Z 03003KT 9999 FEW030 BKN090 28/21 A2979=
200501062200 METAR MRLM 062200Z 02005KT 9999 FEW030 BKN090 27/22 A2979=
200501062300 METAR MRLM 062300Z 01004KT 9999 FEW028 BKN080 27/22 A2980=
200501070000 METAR MRLM 070000Z 03007KT 9999 SCT025 SCT080 26/22 A2981=
200501070100 METAR MRLM NIL=
200501070200 METAR MRLM NIL=
200501070300 METAR MRLM NIL=
200501070400 METAR MRLM NIL=
200501070500 METAR MRLM NIL=
200501070600 METAR MRLM NIL=
200501070700 METAR MRLM NIL=
200501070800 METAR MRLM NIL=
200501070900 METAR MRLM NIL=
200501071000 METAR MRLM NIL=
200501071100 METAR MRLM NIL=
200501071200 METAR MRLM NIL=
200501071300 METAR MRLM NIL=
200501071400 METAR MRLM 071400Z 15003KT 9999 BKN028 SCT080 22/21 A2993 REDZ=
200501071500 METAR MRLM 071500Z 00000KT 4000 -RA BKN026 SCT080 23/21 A2994=
200501071600 METAR MRLM 071600Z 22004KT 9999 SCT026 BKN080 25/22 A2993 RERA=
200501071700 METAR MRLM 071700Z 19004KT 9999 SCT025 BKN080 27/22 A2992=
200501071800 METAR MRLM 071800Z 00000KT 9999 SCT025 BKN080 27/22 A2990=
200501071900 METAR MRLM 071900Z 01008KT 9999 BKN026 SCT080 28/23 A2987=
200501072000 METAR MRLM NIL=
200501072100 METAR MRLM 072100Z 21005KT 9999 SCT030 BKN090 25/22 A2985=
200501072200 METAR MRLM 072200Z 23004KT 9999 BKN030 SCT080 25/21 A2985=
200501072300 METAR MRLM 072300Z 22004KT 9999 BKN030 SCT080 24/21 A2986=
200501072355 METAR MRLM 080000Z 20003KT 8000 VCSH SCT024TCU SCT030 24/22 A2987=
200501080000 METAR MRLM 080000Z 20003KT 8000 VCSH SCT024TCU SCT030 24/22 A2987=
200501080100 METAR MRLM NIL=
200501080200 METAR MRLM NIL=
200501080300 METAR MRLM NIL=
200501080400 METAR MRLM NIL=
200501080500 METAR MRLM NIL=
200501080600 METAR MRLM NIL=
200501080700 METAR MRLM NIL=
200501080800 METAR MRLM NIL=
200501080900 METAR MRLM NIL=
200501081000 METAR MRLM NIL=
200501081100 METAR MRLM NIL=
200501081200 METAR MRLM NIL=
200501081300 METAR MRLM 081300Z 00000KT 8000 DZ OVC015 22/21 A2991=
200501081400 METAR MRLM 081400Z VRB03KT 9000 3000W RA FEW005 BKN015 22/21 A2994=
200501081500 METAR MRLM 081500Z 21007KT 9999 RA SCT015 SCT100 23/22 A2994=
200501081600 METAR MRLM 081600Z 30006KT 7000 VCRA BKN015 SCT090 24/23 A2994=
200501081700 METAR MRLM 081700Z 11004KT 2000 +RA BKN015 SCT090 23/22 A2994=
200501081800 METAR MRLM 081800Z 16004KT 9999 +DZ FEW009 OVC015 24/23 A2990=
200501081900 METAR MRLM 081900Z 00000KT 3000 RA FEW009 BKN017 26/22 A2989=
200501082000 METAR MRLM NIL=
200501082100 METAR MRLM 082100Z 00000KT 3000 -RA FEW008 BKN015 24/22 A2985=
200501082200 METAR MRLM 082200Z 00000KT 8000 -DZ FEW005 OVC012 23/22 A2985=
200501082300 METAR MRLM 082300Z VRB03KT 3000 +RA FEW005 OVC013 23/22 A2986=
200501090000 METAR MRLM 090000Z 23005KT 5000 RA FEW005 OVC012 23/22 A2986=
200501090100 METAR MRLM NIL=
200501090200 METAR MRLM NIL=
200501090300 METAR MRLM NIL=
200501090400 METAR MRLM NIL=
200501090500 METAR MRLM NIL=
200501090600 METAR MRLM NIL=
200501090700 METAR MRLM NIL=
200501090800 METAR MRLM NIL=
200501090900 METAR MRLM NIL=
200501091000 METAR MRLM NIL=
200501091100 METAR MRLM NIL=
200501091200 METAR MRLM NIL=
200501091300 METAR MRLM 091300Z 322007KT 2000 +RA SCT003 OVC015 22/21 A2993=
200501091400 METAR MRLM 091400Z 00000KT 5000N 1000SE SHRA SCT003 OVC010TCU 22/22 A2994=
200501091500 METAR MRLM 091500Z 24005KT 9999 BKN015 SCT100 23/22 A2994 RERA=
200501091600 METAR MRLM 091600Z 01013KT 9999 4000NW VCSH BKN015 SCT100 26/23 A2983=
200501091700 METAR MRLM 091700Z 01012KT 2000 +RA BKN015 SCT100 26/23 A2992=
200501091800 METAR MRLM 091800Z 35012KT 8000 VCSH BKN012 26/23 A2989=
200501091900 METAR MRLM 091900Z 11014KT 9999 SCT015 BKN100 26/23 A2987=
200501092000 METAR MRLM 092000Z 36011KT 8000 VCRN OVC015 26/23 A2985=
200501092100 METAR MRLM 092100Z 01015KT 9999 BKN015 26/23 A2984=
200501092200 METAR MRLM 092200Z 01013KT 8000 VCRA BKN012 26/23 A2983=
200501092300 METAR MRLM 092300Z 01016KT 7000 VCRA BKN012 SCT100 26/23 A2984=
200501100000 METAR MRLM 100000Z 01014KT 7000 VCRA BKN018 SCT100 26/23 A2986=
200501100100 METAR MRLM NIL=
200501100200 METAR MRLM NIL=
200501100300 METAR MRLM NIL=
200501100400 METAR MRLM NIL=
200501100500 METAR MRLM NIL=
200501100600 METAR MRLM NIL=
200501100700 METAR MRLM NIL=
200501100800 METAR MRLM NIL=
200501100900 METAR MRLM NIL=
200501101000 METAR MRLM NIL=
200501101100 METAR MRLM NIL=
200501101200 METAR MRLM NIL=
200501101300 METAR MRLM 101300Z 34009KT 9999 SCT024 SCT090 26/22 A2992=
200501101400 METAR MRLM 101400Z 36007KT 9999 BKN024TCU SCT090 26/23 A2995=
200501101500 METAR MRLM 101500Z 34005KT 9999 BKN024 SCT090 26/23 A2995=
200501101600 METAR MRLM 101600Z 20004KT 5000 1500NW RA BKN024 24/23 A2995=
200501101700 METAR MRLM 101700Z 00000KT 9999 OVC026 24/22 A2993=
200501101800 METAR MRLM 101800Z 20006KT 5000 -RA OVC025 23/21 A2991=
200501101900 METAR MRLM 101900Z 19011KT 4000 -RA OVC025 22/21 A2989=
200501102000 METAR MRLM NIL=
200501102100 METAR MRLM 102100Z 21006KT 4000 -RA SCT022 BKN025 22/21 A2985=
200501102200 METAR MRLM 102200Z 00000KT 5000 DZ OVC024 22/21 A2984=
200501102300 METAR MRLM 102300Z 19003KT 2000 -RA OVC022 22/21 A2985=
200501110000 METAR MRLM 110000Z 23004KT 5000 -RA BKN022 SCT080 22/21 A2986=
200501110100 METAR MRLM NIL=
200501110200 METAR MRLM NIL=
200501110300 METAR MRLM NIL=
200501110400 METAR MRLM NIL=
200501110500 METAR MRLM NIL=
200501110600 METAR MRLM NIL=
200501110700 METAR MRLM NIL=
200501110800 METAR MRLM NIL=
200501110900 METAR MRLM NIL=
200501111000 METAR MRLM NIL=
200501111100 METAR MRLM NIL=
200501111200 METAR MRLM 111200Z 00000KT 8000 DZ BKN030 SCT080 22/21 A2987=
200501111300 METAR MRLM 111300Z 00000KT 9999 BKN030 SCT080 22/21 A2991 REDZ=
200501111400 METAR MRLM 111400Z 21003KT 9999 SCT030 BKN080 23/22 A2992=
200501111500 METAR MRLM 111500Z 29003KT 9999 SCT030 BKN090 26/22 A2993=
200501111600 METAR MRLM 111600Z 30004KT 9999 SCT028 BKN090 27/22 A2992=
200501111700 METAR MRLM 111700Z 34007KT 9999 SCT028 SCT080 26/22 A2991=
200501111800 METAR MRLM 111800Z 36012KT 9999 SCT022 BKN030 25/22 A2990=
200501111900 METAR MRLM 111900Z 00000KT 9999 SCT030 BKN090 25/22 A2986 REDZ=
200501112000 METAR MRLM NIL=
200501112100 METAR MRLM 112100Z 34003KT 9999 DZ SCT025 BKN045 24/22 A2983 RERA=
200501112200 METAR MRLM 112200Z 00000KT 9999 FEW025 BKN090 24/22 A2983 REDZ=
200501112300 METAR MRLM 112300Z 00000KT 9999 FEW025 BKN080 24/22 A2984=
200501120000 METAR MRLM 120000Z 00000KT 9999 SCT025 BKN080 24/22 A2985=
200501120100 METAR MRLM NIL=
200501120200 METAR MRLM NIL=
200501120300 METAR MRLM NIL=
200501120400 METAR MRLM NIL=
200501120500 METAR MRLM NIL=
200501120600 METAR MRLM NIL=
200501120700 METAR MRLM NIL=
200501120800 METAR MRLM NIL=
200501120900 METAR MRLM NIL=
200501121000 METAR MRLM NIL=
200501121100 METAR MRLM NIL=
200501121200 METAR MRLM NIL=
200501121300 METAR MRLM 121300Z 00000KT 9999 FEW015 SCT080 22/21 A2987=
200501121500 METAR MRLM 121500Z 29005KT 9999 FEW020 SCT120 26/22 A2990=
200501121600 METAR MRLM 121600Z 31008KT 9999 SCT024 SCT110 27/22 A2989=
200501121700 METAR MRLM 121700Z 31009KT 9999 SCT027 SCT100 28/22 A2989=
200501121800 METAR MRLM NIL=
200501121900 METAR MRLM 121900Z 36009KT 9999 SCT022 SCT035 27/23 A2982=
200501122000 METAR MRLM 122000Z 36007KT 9999 FEW020 SCT030 27/23 A2981=
200501122100 METAR MRLM 122100Z 02006KT 9999 DZ SCT017 SCT140 26/23 A2980=
200501122200 METAR MRLM NIL=
200501122300 METAR MRLM 122300Z 00000KT 9999 FEW015 SCT110 26/22 A29790=
200501130000 METAR MRLM 130000Z 00000KT CAVOK 25/22 A2979=
200501130100 METAR MRLM NIL=
200501130200 METAR MRLM NIL=
200501130300 METAR MRLM NIL=
200501130400 METAR MRLM NIL=
200501130500 METAR MRLM NIL=
200501130600 METAR MRLM NIL=
200501130700 METAR MRLM NIL=
200501130800 METAR MRLM NIL=
200501130900 METAR MRLM NIL=
200501131000 METAR MRLM NIL=
200501131100 METAR MRLM NIL=
200501131200 METAR MRLM NIL=
200501131300 METAR MRLM 131300Z 00000KT CAVOK 22/21 A2986=
200501131400 METAR MRLM 131400Z 00000KT CAVOK 24/22 A2988=
200501131500 METAR MRLM 131500Z VRB03KT CAVOK 26/22 A2989=
200501131600 METAR MRLM 131600Z 00000KT 9999 FEW022 26/22 A2988=
200501131700 METAR MRLM 131700Z 01005KT 9999 FEW024 27/22 A2986=
200501131800 METAR MRLM 131800Z 02005KT 9999 FEW024 27/22 A2983=
200501131900 METAR MRLM 131900Z 01006KT 9999 FEW024 28/19 A2997=
200501132000 METAR MRLM 132000Z 01006KT 9999 FEW024 28/23 A2979=
200501132100 METAR MRLM 132100Z 01006KT 9999 FEW023 28/23 A2981=
200501132200 METAR MRLM NIL=
200501132300 METAR MRLM 132300Z 04004KT CAVOK 27/23 A2982=
200501140000 METAR MRLM 140000Z 00000KT 9999 FEW016 27/23 A2980=
200501140100 METAR MRLM NIL=
200501140200 METAR MRLM NIL=
200501140300 METAR MRLM NIL=
200501140400 METAR MRLM NIL=
200501140500 METAR MRLM NIL=
200501140600 METAR MRLM NIL=
200501140700 METAR MRLM NIL=
200501140800 METAR MRLM NIL=
200501140900 METAR MRLM NIL=
200501141000 METAR MRLM NIL=
200501141100 METAR MRLM NIL=
200501141200 METAR MRLM 141200Z 00000KT 9999 SCT0320 BKN080 22/21 A2990=
200501141300 METAR MRLM 141300Z 00000KT 9999 FEW030 BKN080 23/22 A2990=
200501141400 METAR MRLM 141400Z 00000KT 9999 FEW030 BKN080 24/22 A2990=
200501141500 METAR MRLM 141500Z 28006KT 9999 FEW030 BKN090 27/23 A3000=
200501141600 METAR MRLM 141600Z 29006KT 9999 FEW025 BKN090 28/23 A3000=
200501141700 METAR MRLM 141700Z 29004KT 9999 FEW025 SCT090 29/23 A2990=
200501141800 METAR MRLM 141800Z 30008KT 9999 SCT025 SCT090 29/22 A2990=
200501141900 METAR MRLM 141900Z 30004KT 9999 SCT024 SCT090 29/23 A2990=
200501142000 METAR MRLM NIL=
200501142200 METAR MRLM 142200Z 02004KT 9999 SCT025 SCT080 26/22 A2986=
200501142300 METAR MRLM 142300Z 02004KT 9999 FEW028 BKN100 25/23 A2985=
200501150000 METAR MRLM 150000Z 28003KT 9999 BKN024 SCT080 25/23 A2989=
200501150100 METAR MRLM NIL=
200501150200 METAR MRLM NIL=
200501150300 METAR MRLM NIL=
200501150400 METAR MRLM NIL=
200501150500 METAR MRLM NIL=
200501150600 METAR MRLM NIL=
200501150700 METAR MRLM NIL=
200501150800 METAR MRLM NIL=
200501150900 METAR MRLM NIL=
200501151000 METAR MRLM NIL=
200501151100 METAR MRLM NIL=
200501151200 METAR MRLM 151200Z 29003KT 4000 RA BKN022 SCT080 22/22 A2993=
200501151300 METAR MRLM 151300Z 21003KT 8000 VCSH BKN022 SCT080 23/22 A2995=
200501151400 METAR MRLM 151400Z 22005KT 9999 -DZ BKN024 23/22 A2995=
200501151500 METAR MRLM 151500Z 25003KT 9999 3000NW VCSH BKN022 SCT080 24/22 A2999=
200501151600 METAR MRLM 151600Z 25005KT 9999 BKN024 SCT090 25/23 A2999=
200501151700 METAR MRLM 151700Z 22005KT 9999 BKN024 26/23 A2996=
200501151800 METAR MRLM 151800Z 26004KT 9999 BKN024TCU 28/22 A2995=
200501151900 METAR MRLM 151900Z 02004KT 9999 BKN024TCU 28/22 A2992=
200501152000 METAR MRLM 152000Z NIL=
200501152100 METAR MRLM 152100Z 32006KT 9999 3000SE VCSH BKN022TCU 27/23 A2989=
200501152200 METAR MRLM 152200Z 16004KT 9999 BKN022TCU 26/23 A2988=
200501152300 METAR MRLM 152300Z 00000KT 9999 2000SE VCSH BKN022TCU 27/23 A2989=
200501160000 METAR MRLM 160000Z 00000KT 9999 SCT022 SCT200 25/23 A2990=
200501160100 METAR MRLM NIL=
200501160200 METAR MRLM NIL=
200501160300 METAR MRLM NIL=
200501160400 METAR MRLM NIL=
200501160500 METAR MRLM NIL=
200501160600 METAR MRLM NIL=
200501160700 METAR MRLM NIL=
200501160800 METAR MRLM NIL=
200501160900 METAR MRLM NIL=
200501161000 METAR MRLM NIL=
200501161100 METAR MRLM NIL=
200501161200 METAR MRLM NIL=
200501161300 METAR MRLM NIL=
200501161400 METAR MRLM 161400Z 20004KT 6000 -RA FEW004 OVC015 22/21 A3000=
200501161500 METAR MRLM 161500Z 22005KT 8000 -RA FEW004 OVC015 22/21 A3000=
200501161600 METAR MRLM 161600Z 00000KT 9999 RA FEW006 OVC018 24/22 A3000=
200501161700 METAR MRLM 161700Z 30007KT 5000 -RA OVC014 25/23 A3000=
200501161800 METAR MRLM 161800Z 34012KT 2000 RA OVC012TCU 23/22 A3000=
200501161900 METAR MRLM 161900Z VRB03KT 9999 FEW008 BKN015 23/19 A2993 RERA=
200501162000 METAR MRLM NIL=
200501162100 METAR MRLM 162100Z 35008KT 6000 VCSH OVC022TCU 27/23 A2993=
200501162200 METAR MRLM 162200Z 35014KT 9999 SCT010 BKN100 24/22 A2992 RERA=
200501162300 METAR MRLM 162300Z 26005KT 9999 DZ SCT015 SCT100 23/21 A2993=
200501170000 METAR MRLM NIL=
200501170100 METAR MRLM NIL=
200501170200 METAR MRLM NIL=
200501170300 METAR MRLM NIL=
200501170400 METAR MRLM NIL=
200501170500 METAR MRLM NIL=
200501170600 METAR MRLM NIL=
200501170700 METAR MRLM NIL=
200501170800 METAR MRLM NIL=
200501170900 METAR MRLM NIL=
200501171000 METAR MRLM NIL=
200501171100 METAR MRLM NIL=
200501171200 METAR MRLM NIL=
200501171300 METAR MRLM 171300Z 28007KT 4000 RA FEW004 SCT015 OVC090 21/20 A3002=
200501171400 METAR MRLM 171400Z 30006KT 2000 +RA FEW004 BKN015 20/20 A3007=
200501171500 METAR MRLM 171500Z 22010KT 9999 DZ FEW005 BKN018 20/19 A3006=
200501171600 METAR MRLM 171600Z 26004KT 9000 -DZ FEW005 BKN018 21/20 A3005=
200501171700 METAR MRLM 171700Z 27006KT 9999 OVC018 22/20 A3003=
200501171800 METAR MRLM 171800Z VRB03KT 9999 DZ BKN015 23/20 A3001=
200501171900 METAR MRLM 171900Z 00000KT 7000 RA FEW005 BKN015 23/20 A3000=
200501172000 METAR MRLM 172000Z 27006KT 9999 FEW008 BKN020 22/20 A2998 RERA=
200501172100 METAR MRLM 172100Z 24005KT 9999 SCT015 SCT090 BKN110 22/20 A2997=
200501172200 METAR MRLM 172200Z 30006KT 4000 RA BKN012 SCT090 22/20 A2999=
200501172300 METAR MRLM 172300Z 26005KT 9999 SCT012 SCT100 22/20 A2997=
200501180000 METAR MRLM 180000Z 24008KT 9999 BKN012 21/19 A2998=
200501180100 METAR MRLM NIL=
200501180200 METAR MRLM NIL=
200501180300 METAR MRLM NIL=
200501180400 METAR MRLM NIL=
200501180500 METAR MRLM NIL=
200501180600 METAR MRLM NIL=
200501180700 METAR MRLM NIL=
200501180800 METAR MRLM NIL=
200501180900 METAR MRLM NIL=
200501181000 METAR MRLM NIL=
200501181100 METAR MRLM NIL=
200501181200 METAR MRLM NIL=
200501181300 METAR MRLM 181300Z 26007KT 8000 DZ BKN030 SCT080 21/19 A3001=
200501181400 METAR MRLM 181400Z 28006KT 9999 -DZ SCT030 BKN080 21/19 A3004=
200501181500 METAR MRLM 181500Z 26010KT 5000 2000NW -RA BKN028 SCT080 21/19 A3005=
200501181600 METAR MRLM 181600Z 24005KT 3000 -RA SCT012 BKN020 21/19 A3006=
200501181700 METAR MRLM 181700Z 27007KT 5000 DZ BKN022 SCT080 21/20 A3005=
200501181800 METAR MRLM 181800Z 25009KT 8000 DZ BKN022 SCT080 22/20 A3003=
200501181900 METAR MRLM 181900Z 25006KT 3000 -RA BKN022 21/20 A3001=
200501182000 METAR MRLM NIL=
200501182100 METAR MRLM 182100Z 25006KT 2000 -RA OVC022 21/20 A2996=
200501182200 METAR MRLM 182200Z 27009KT 5000 DZ SCT015 BKN022 21/20 A2996=
200501182300 METAR MRLM 182300Z 28013KT 3000 -RA SCT012 BKN018 21/20 A2999=
200501190000 METAR MRLM 190000Z 25007KT 5000 -RA SCT015 BKN020 21/20 A3000=
200501190100 METAR MRLM NIL=
200501190200 METAR MRLM NIL=
200501190300 METAR MRLM NIL=
200501190400 METAR MRLM NIL=
200501190500 METAR MRLM NIL=
200501190600 METAR MRLM NIL=
200501190700 METAR MRLM NIL=
200501190800 METAR MRLM NIL=
200501190900 METAR MRLM NIL=
200501191000 METAR MRLM NIL=
200501191100 METAR MRLM NIL=
200501191200 METAR MRLM NIL=
200501191300 METAR MRLM 191300Z 26010 8000 DZ BKN026 SCT080 20/18 A3000=
200501191400 METAR MRLM 191400Z 23008KT 9999 -DZ BKN026 SCT080 20/19 A3004=
200501191500 METAR MRLM 191500Z 27007KT 9999 -DZ BKN030 SCT080 21/19 A3005=
200501191600 METAR MRLM 191600Z 24010KT 9999 3000NW DZ BKN028 SCT080 21/19 A3004=
200501191700 METAR MRLM 191700Z 26009KT 9999 -DZ BKN040 SCT080 21/19 A3002=
200501191800 METAR MRLM 191800Z 28008KT 9999 BKN025 SCT080 21/19 A2999 REDZ=
200501191900 METAR MRLM 191900Z 24009KT 9999 BKN030 SCT080 21/19 A2996 REDZ=
200501192000 METAR MRLM NIL=
200501192100 METAR MRLM 192100Z 24008KT 9999 BKN028 SCT080 22/19 A2992=
200501192200 METAR MRLM 192200Z 26008KT 9999 -DZ BKN028 22/19 A2993=
200501192300 METAR MRLM 192300Z 24007KT 4000 DZ BKN024 21/19 A2995=
200501200000 METAR MRLM 200000Z 26006KT 8000 -DZ OVC024 21/20 A2996=
200501200100 METAR MRLM NIL=
200501200200 METAR MRLM NIL=
200501200300 METAR MRLM 200300Z 24008KT 9999 -DZ FEW010 SCT018 BKN090 21/19 A2997=
200501200400 METAR MRLM NIL=
200501200500 METAR MRLM NIL=
200501200600 METAR MRLM NIL=
200501200700 METAR MRLM NIL=
200501200800 METAR MRLM NIL=
200501200900 METAR MRLM NIL=
200501201000 METAR MRLM NIL=
200501201100 METAR MRLM NIL=
200501201200 METAR MRLM NIL=
200501201300 METAR MRLM NIL=
200501201400 METAR MRLM 201400Z 28008KT 4000 RA SCT012 OVC090 20/19 A3006=
200501201500 METAR MRLM 201500Z 25007KT 9999 FEW008 SCT030 BKN090 21/19 A3007=
200501201600 METAR MRLM 201600Z 26010KT 6000 -DZ SCT007 SCT015 BKN090 21/19 A3008=
200501201700 METAR MRLM 201700Z 28007KT 9999 FEW012 BKN030 22/19 A3006=
200501201800 METAR MRLM 201800Z 24012KT 9999 DZ FEW008 BKN025 22/19 A3004=
200501201900 METAR MRLM 201900Z 26010KT 9999 FEW015 BKN025 22/19 A3001=
200501202000 METAR MRLM NIL=
200501202100 METAR MRLM 202100Z 24008KT 9999 -DZ FEW010 SCT018 BKN090 21/19 A2997=
200501202200 METAR MRLM 202200Z 26007KT 7000 -DZ SCT012 OVC090 20/19 A2997=
200501202300 METAR MRLM 202300Z 26007KT 5000 +DZ FEW006 OVC090 20/19 A2999=
200501210000 METAR MRLM 210000Z 23005KT 9999 SCT030 BKN090 20/19 A2999=
200501210100 METAR MRLM NIL=
200501210200 METAR MRLM NIL=
200501210300 METAR MRLM NIL=
200501210400 METAR MRLM NIL=
200501210500 METAR MRLM NIL=
200501210600 METAR MRLM NIL=
200501210700 METAR MRLM NIL=
200501210800 METAR MRLM NIL=
200501210900 METAR MRLM NIL=
200501211000 METAR MRLM NIL=
200501211100 METAR MRLM NIL=
200501211200 METAR MRLM NIL=
200501211300 METAR MRLM 211300Z 25006KT 9999 DZ FEW015 BKN090 21/19 A3000=
200501211400 METAR MRLM 211400Z 26006KT 9999 FEW012 SCT025 BKN100 21/20 A3003=
200501211500 METAR MRLM 211500Z 29007KT 9999 -DZ FEW009 BKN030 21/20 A3005=
200501211600 METAR MRLM 211600Z 25005KT 9999 -DZ FEW010 SCT080 OVC100 22/20 A3005=
200501211700 METAR MRLM 211700Z 27006KT 9999 BKN014 SCT100 23/20 A3004=
200501211800 METAR MRLM 211800Z 27008KT 9999 DZ SCT014 SCT080 BKN120 23/20 A3002=
200501211900 METAR MRLM 211900Z 30007KT 9999 BKN017 23/20 A2999=
200501212000 METAR MRLM NIL=
200501212200 METAR MRLM 212200Z 00000KT 5000 +DZ SCT007 OVC100 23/21 A2995=
200501212300 METAR MRLM NIL=
200501220000 METAR MRLM 220000Z 24005KT 9999 DZ BKN010 SCT100 21/20 A2997=
200501220100 METAR MRLM NIL=
200501220200 METAR MRLM NIL=
200501220300 METAR MRLM NIL=
200501220400 METAR MRLM NIL=
200501220500 METAR MRLM NIL=
200501220600 METAR MRLM NIL=
200501220700 METAR MRLM NIL=
200501220800 METAR MRLM NIL=
200501220900 METAR MRLM NIL=
200501221000 METAR MRLM NIL=
200501221100 METAR MRLM NIL=
200501221200 METAR MRLM NIL=
200501221300 METAR MRLM 221300Z 00000KT 3000 DZ FEW015 BKN024 21/20 A3001=
200501221400 METAR MRLM 221400Z 18003KT 9999 -DZ SCT022 BKN030 21/20 A3003=
200501221500 METAR MRLM 221500Z 00000KT 9999 FEW025 BKN080 22/21 A3005 REDZ=
200501221600 METAR MRLM 221600Z 27004KT 9999 -DZ FEW025 BKN080 23/21 A3005=
200501221700 METAR MRLM 221700Z 00000KT 9999 SCT030 BKN080 25/20 A3003 REDZ=
200501221800 METAR MRLM 221800Z 00000KT 9999 SCT026 SCT080 25/21 A3001=
200501221900 METAR MRLM 221900Z 00000KT 9999 SCT026 BKN080 25/21 A2997=
200501222000 METAR MRLM NIL=
200501222100 METAR MRLM 222100Z 00000KT 9999 FEW026 BKN080 26/20 A2995=
200501222200 METAR MRLM 222200Z 26003KT 9999 FEW026 BKN080 27/20 A2993=
200501222300 METAR MRLM 222300Z 35003KT 9999 FEW026 BKN080 26/19 A2994=
200501230000 METAR MRLM 230000Z 00000KT 9999 SCT028 SCT220 23/21 A2995=
200501230100 METAR MRLM NIL=
200501230200 METAR MRLM NIL=
200501230300 METAR MRLM NIL=
200501230400 METAR MRLM NIL=
200501230500 METAR MRLM NIL=
200501230600 METAR MRLM NIL=
200501230700 METAR MRLM NIL=
200501230800 METAR MRLM NIL=
200501230900 METAR MRLM NIL=
200501231000 METAR MRLM NIL=
200501231100 METAR MRLM NIL=
200501231200 METAR MRLM 231200Z 20003KT CAVOK 19/18 A3004=
200501231300 METAR MRLM 231300Z 21004KT CAVOK 20/19 A2998=
200501231400 METAR MRLM 231400Z 00000KT CAVOK 23/20 A3002=
200501231500 METAR MRLM 231500Z 00000KT 9999 FEW030 BKN240 27/21 A3003=
200501231600 METAR MRLM 231600Z 04004KT 9999 FEW024 BKN240 27/21 A3002=
200501231700 METAR MRLM 231700Z 03007KT 9999 FEW024 SCT240 27/20 A3001=
200501231800 METAR MRLM 231800Z 03008KT 9999 FEW024 SCT100 26/21 A2997=
200501231900 METAR MRLM 231900Z 01008KT 9999 FEW024 BKN090 27/21 A2995=
200501232000 METAR MRLM NIL=
200501232100 METAR MRLM 232100Z 03003KT 9999 FEW024 BKN090 26/22 A2992=
200501232200 METAR MRLM 232200Z 04003KT 9999 FEW024 SCT080 27/20 A2992=
200501232300 METAR MRLM 232300Z 03004KT 9999 FEW024 SCT240 26/21 A2993=
200501240000 METAR MRLM 240000Z 02003KT 9999 FEW030 BKN240 26/21 A2994=
200501240100 METAR MRLM NIL=
200501240200 METAR MRLM NIL=
200501240300 METAR MRLM NIL=
200501240400 METAR MRLM NIL=
200501240500 METAR MRLM NIL=
200501240600 METAR MRLM NIL=
200501240700 METAR MRLM NIL=
200501240800 METAR MRLM NIL=
200501240900 METAR MRLM NIL=
200501241000 METAR MRLM NIL=
200501241100 METAR MRLM NIL=
200501241200 METAR MRLM NIL=
200501241300 METAR MRLM 241300Z 24005KT 9999 DZ FEW006 SCT030 BKN100 21/20 A3004=
200501241400 METAR MRLM 241400Z 23004KT 9999 BKN025 22/20 A3007=
200501241500 METAR MRLM 241500Z 00000KT 9999 DZ FEW010 BKN025 23/21 A3009=
200501241600 METAR MRLM 241600Z 24005KT 9999 DZ BKN025 23/20 A3009=
200501241700 METAR MRLM 241700Z 26006KT 4000 +DZ FEW006 BKN020 22/20 A3009=
200501241800 METAR MRLM 241800Z 26006KT 9999 FEW010 BKN025 22/21 A3007=
200501241900 METAR MRLM 241900Z 26009KT 9999 DZ SCT012 SCT080 22/20 A3003=
200501242000 METAR MRLM NIL=
200501242100 METAR MRLM 242100Z 24008KT 9000 -DZ FEW006 SCT020 BKN100 21/20 A2999=
200501242200 METAR MRLM 242200Z 26008KT 9999 BKN020 SCT100 21/19 A2998=
200501242300 METAR MRLM 242300Z 25008KT 9999 FEW012 SCT080 BKN110 21/19 A2998=
200501250000 METAR MRLM NIL=
200501250100 METAR MRLM NIL=
200501250200 METAR MRLM NIL=
200501250300 METAR MRLM NIL=
200501250400 METAR MRLM NIL=
200501250500 METAR MRLM NIL=
200501250600 METAR MRLM NIL=
200501250700 METAR MRLM NIL=
200501250800 METAR MRLM NIL=
200501250900 METAR MRLM NIL=
200501251000 METAR MRLM NIL=
200501251100 METAR MRLM NIL=
200501251200 METAR MRLM NIL=
200501251300 METAR MRLM 251300Z 00000KT 9999 FEW013 SCT080 BKN110 21/19 A3000=
200501251400 METAR MRLM 251400Z 21005KT 9999 FEW018 SCT080 BKN110 23/19 A3002=
200501251500 METAR MRLM 251500Z 27004KT 9999 BKN026 SCT110 25/19 A3003=
200501251600 METAR MRLM 251600Z VRB03KT 9999 BKN030 26/20 A3003=
200501251700 METAR MRLM 251700Z 00000KT 9999 SCT040 SCT110 27/19 A3001=
200501251800 METAR MRLM 251800Z 02005KT 9999 FEW040 SCT090 27/19 A2998=
200501251900 METAR MRLM 251900Z 03004KT 9999 FEW040 BKN110 27/19 A2995=
200501252100 METAR MRLM 252100Z 00000KT 9999 FEW040 SCT090 BKN110 26/18 A2991=
200501252200 METAR MRLM 252200Z 00000KT CAVOK 26/19 A2990=
200501252300 METAR MRLM 252300Z 00000KT CAVOK 25/20 A2991=
200501260000 METAR MRLM 260000Z 00000KT CAVOK 23/21 A2992=
200501260100 METAR MRLM NIL=
200501260200 METAR MRLM NIL=
200501260300 METAR MRLM NIL=
200501260400 METAR MRLM NIL=
200501260500 METAR MRLM NIL=
200501260600 METAR MRLM NIL=
200501260700 METAR MRLM NIL=
200501260800 METAR MRLM NIL=
200501260900 METAR MRLM NIL=
200501261000 METAR MRLM NIL=
200501261100 METAR MRLM NIL=
200501261200 METAR MRLM 261200Z 20004KT 9999 -DZ FEW026 SCT080 20/19 A2991=
200501261300 METAR MRLM 261300Z 22003KT 9999 BKN028 SCT080 21/19 A2993 REDZ=
200501261400 METAR MRLM 261400Z 00000KT 9999 BKN030 SCT080 21/19 A2995=
200501261500 METAR MRLM 261500Z 28003KT 9999 SCT030 BKN090 22/20 A2996=
200501261600 METAR MRLM 261600Z 23003KT 9999 FEW040 BKN090 25/20 A2998=
200501261700 METAR MRLM 261700Z 23003KT CAVOK 26/21 A2992=
200501261800 METAR MRLM 261800Z 32005KT 9999 FEW030 27/20 A2993=
200501261900 METAR MRLM 261900Z 36005KT 9999 FEW030 26/19 A2990=
200501262000 METAR MRLM NIL=
200501262100 METAR MRLM 262100Z 35004KT 9999 FEW030 SCT090 26/19 A2986=
200501262200 METAR MRLM 262200Z 34003KT 9999 FEW030 BKN090 26/20 A2986=
200501262300 METAR MRLM 262300Z 36003KT 9999 SCT030 BKN080 25/20 A2987=
200501270000 METAR MRLM NIL=
200501270100 METAR MRLM NIL=
200501270200 METAR MRLM NIL=
200501270300 METAR MRLM NIL=
200501270400 METAR MRLM NIL=
200501270500 METAR MRLM NIL=
200501270600 METAR MRLM NIL=
200501270700 METAR MRLM NIL=
200501270800 METAR MRLM NIL=
200501270900 METAR MRLM NIL=
200501271000 METAR MRLM NIL=
200501271100 METAR MRLM NIL=
200501271200 METAR MRLM NIL=
200501271300 METAR MRLM 271300Z 24003KT 5000 DZ BKN028 SCT080 21/20 A2993=
200501271400 METAR MRLM NIL=
200501271500 METAR MRLM 271500Z 23003KT 9999 -DZ BKN040 SCT080 22/21 A2997=
200501271600 METAR MRLM 271600Z 00000KT 6000 DZ BKN030 22/21 A2997=
200501271700 METAR MRLM 271700Z 23005KT 9999 -DZ SCT028 SCT080 23/22 A2995=
200501271800 METAR MRLM 271800Z 23003KT 9999 FEW025 BKN040 24/22 A2993 REDZ=
200501271900 METAR MRLM 271900Z 21005KT 9999 FEW030 BKN080 25/22 A2990=
200501272000 METAR MRLM 272000Z 30003KT 9999 SCT028 BKN090 25/21 A2988=
200501272100 METAR MRLM NIL=
200501272200 METAR MRLM NIL=
200501272300 METAR MRLM NIL=
200501280000 METAR MRLM 280000Z 30003KT 9999 FEW024 BKN045 24/21 A2988=
200501280100 METAR MRLM NIL=
200501280200 METAR MRLM NIL=
200501280300 METAR MRLM NIL=
200501280400 METAR MRLM NIL=
200501280500 METAR MRLM NIL=
200501280600 METAR MRLM NIL=
200501280700 METAR MRLM NIL=
200501280800 METAR MRLM NIL=
200501280900 METAR MRLM NIL=
200501281000 METAR MRLM NIL=
200501281100 METAR MRLM NIL=
200501281200 METAR MRLM NIL=
200501281300 METAR MRLM 281300Z 00000KT 9999 DZ SCT032 SCT100 22/21 A2992=
200501281400 METAR MRLM 281400Z 00000KT 9999 SCT035 BKN100 23/21 A2995=
200501281500 METAR MRLM 281500Z 22005KT 9999 FEW014 SCT100 25/22 A2995=
200501281600 METAR MRLM 281600Z 00000KT 9999 SCT026 BKN110 28/23 A2995=
200501281700 METAR MRLM NIL=
200501281800 METAR MRLM 281800Z 01005KT 9999 FEW024 SCT090 BKN130 27/23 A2990=
200501281900 METAR MRLM 281900Z 01007KT 9999 FEW020 OVC120 27/23 A2988=
200501282000 METAR MRLM NIL=
200501282100 METAR MRLM 282100Z 00000KT 9999 FEW030 OVC090 26/21 A2984=
200501282200 METAR MRLM 282200Z 34004KT 9999 FEW022 OVC080 26/22 A2984 DZ E ESE=
200501282300 METAR MRLM 282300Z 00000KT 9999 FEW020 OVC080 26/22 A2984=
200501290000 METAR MRLM 290000Z 00000KT 9999 BKN015 25/22 A2985=
200501290100 METAR MRLM NIL=
200501290200 METAR MRLM NIL=
200501290300 METAR MRLM NIL=
200501290400 METAR MRLM NIL=
200501290500 METAR MRLM NIL=
200501290600 METAR MRLM NIL=
200501290700 METAR MRLM NIL=
200501290800 METAR MRLM NIL=
200501290900 METAR MRLM NIL=
200501291000 METAR MRLM NIL=
200501291100 METAR MRLM NIL=
200501291200 METAR MRLM NIL=
200501291300 METAR MRLM 291300Z VRB03KT CAVOK 21/20 A2989=
200501291400 METAR MRLM 291400Z 00000KT 9999 FEW012 SCT100 BKN120 23/22 A2992=
200501291500 METAR MRLM 291500Z 03014KT 5000 -RA BKN007 23/22 A2995=
200501291600 METAR MRLM NIL=
200501291700 METAR MRLM 291700Z 02008KT 9999 FEW010 BKN035 24/22 A2993=
200501291800 METAR MRLM 291800Z 23004KT 9999 SCT014 BKN100 25/23 A2990=
200501291900 METAR MRLM 291900Z 00000KT 9999 FEW032 BKN100 28/21 A2988=
200501292100 METAR MRLM 292100Z 07004KT 9999 FEW026 BKN100 27/22 A2984=
200501292200 METAR MRLM 292200Z 06009KT 9999 FEW025 BKN280 27/22 A2984=
200501292300 METAR MRLM 292300Z 06005KT 9999 FEW020 SCT090 26/22 A2984=
200501300000 METAR MRLM 300000Z 05005KT 9999 FEW018 BKN090 26/22 A2984=
200501300100 METAR MRLM NIL=
200501300200 METAR MRLM NIL=
200501300300 METAR MRLM NIL=
200501300400 METAR MRLM NIL=
200501300500 METAR MRLM NIL=
200501300600 METAR MRLM NIL=
200501300700 METAR MRLM NIL=
200501300800 METAR MRLM NIL=
200501300900 METAR MRLM NIL=
200501301000 METAR MRLM NIL=
200501301100 METAR MRLM NIL=
200501301200 METAR MRLM 301200Z 00000KT 9999 -DZ FEW024 BKN040 21/20 A2985=
200501301300 METAR MRLM 301300Z 21003KT 9999 FEW030 20/21 A2987=
200501301400 METAR MRLM 301400Z 00000KT 9999 FEW030 25/22 A2989=
200501301500 METAR MRLM 301500Z 10004KT 9999 FEW030 26/22 A2990=
200501301600 METAR MRLM 301600Z 10004KT 9999 FEW028 27/22 A2990=
200501301700 METAR MRLM 301700Z 08007KT 9999 FEW028 28/21 A2988=
200501301800 METAR MRLM 301800Z 04004KT 9999 FEW025 28/22 A2986=
200501301900 METAR MRLM 301900Z 04016KT 9999 SCT025 SCT080 26/16 A2984=
200501302000 METAR MRLM NIL=
200501302100 METAR MRLM 302100Z 02012KT 9999 SCT024 BKN080 25/20 A2981=
200501302200 METAR MRLM 302200Z 02015KT 9999 SCT025 BKN080 24/21 A2981=
200501302300 METAR MRLM 302300Z 00000KT 9999 FEW024 SCT045 24/20 A2981=
200501310000 METAR MRLM 310000Z 24004KT 9999 SCT028 BKN080 23/20 A2982=
200501310100 METAR MRLM NIL=
200501310200 METAR MRLM NIL=
200501310300 METAR MRLM NIL=
200501310400 METAR MRLM NIL=
200501310500 METAR MRLM NIL=
200501310600 METAR MRLM NIL=
200501310700 METAR MRLM NIL=
200501310800 METAR MRLM NIL=
200501310900 METAR MRLM NIL=
200501311000 METAR MRLM NIL=
200501311100 METAR MRLM NIL=
200501311200 METAR MRLM 311200Z 02009KT 9999 -DZ FEW030 SCT080 23/20 A2984=
200501311300 METAR MRLM 311300Z 36009KT 9999 3000NW DZ SCT025 BKN080 22/20 A2987=
200501311400 METAR MRLM 311400Z 00000KT 3000 -RA BKN025 SCT080 22/20 A2990=
200501311500 METAR MRLM 311500Z 21006KT 4000 RA SCT024 BKN026 22/21 A2991=
200501311600 METAR MRLM 311600Z 16005KT 8000 DZ SCT014 BKN025 22/21 A2989 RERA=
200501311700 METAR MRLM 311700Z 16005KT 8000 DZ SCT014 BKN025 22/21 A2989 RERA=
200501311800 METAR MRLM 311800Z 18006KT 9999 DZ FEW015 BKN024 22/20 A2988=
200501311900 METAR MRLM 311900Z 14004KT 3000 RA OVC022 22/21 A2986=
200501312000 METAR MRLM NIL=
200501312100 METAR MRLM 312100Z 19003KT 9999 BKN028 23/21 A2981 RERA=
200501312200 METAR MRLM 312200Z 20003KT 9999 BKN026 23/21 A2981=
200501312300 METAR MRLM 312300Z 17005KT 5000 DZ BKN024 22/21 A2982=
200502010000 METAR MRLM 010000Z 17004KT 3000 -RA OVC024 21/20 A2982=
200502010100 METAR MRLM NIL=
200502010200 METAR MRLM NIL=
200502010300 METAR MRLM NIL=
200502010400 METAR MRLM NIL=
200502010500 METAR MRLM NIL=
200502010600 METAR MRLM NIL=
200502010700 METAR MRLM NIL=
200502010800 METAR MRLM NIL=
200502010900 METAR MRLM NIL=
200502011000 METAR MRLM NIL=
200502011100 METAR MRLM NIL=
200502011200 METAR MRLM NIL=
200502011300 METAR MRLM 011300Z 12008KT 6000 RA FEW008 BKN018 22/21 A2989=
200502011400 METAR MRLM 011400Z 18006KT 9999 -DZ SCT018 OVC100 22/20 A2991=
200502011500 METAR MRLM 011500Z 22005KT 8000 -DZ FEW015 OVC100 22/21 A2993=
200502011600 METAR MRLM 011600Z 21007KT 9999 FEW012 SCT090 BKN140 23/21 A2992=
200502011700 METAR MRLM 011700Z 17005KT 9999 SCT017 SCT090 BKN120 24/20 A2990=
200502011800 METAR MRLM 011800Z 15006KT 9999 FEW026 SCT090 BKN110 25/20 A2987=
200502011900 METAR MRLM 011900Z VRB03KT 9999 FEW030 SCT090 BKN110 26/20 A2984=
200502012000 METAR MRLM 012000Z 07006KT 9999 BKN040 SCT090 27/19 A2981=
200502012100 METAR MRLM NIL=
200502012200 METAR MRLM 012200Z 18004KT 9999 FEW015 OVC100 24/20 A2980=
200502012300 METAR MRLM 012300Z 00000KT CAVOK 24/20 A2981=
200502020000 METAR MRLM 020000Z 00000KT CAVOK 23/21 A2982=
200502020100 METAR MRLM NIL=
200502020200 METAR MRLM NIL=
200502020300 METAR MRLM NIL=
200502020400 METAR MRLM NIL=
200502020500 METAR MRLM NIL=
200502020600 METAR MRLM NIL=
200502020700 METAR MRLM NIL=
200502020800 METAR MRLM NIL=
200502020900 METAR MRLM NIL=
200502021000 METAR MRLM NIL=
200502021100 METAR MRLM NIL=
200502021200 METAR MRLM NIL=
200502021300 METAR MRLM 021300Z 00000KT 9999 FEW008 OVC090 20/19 A2990=
200502021400 METAR MRLM 021400Z 21006KT CAVOK 21/19 A2991=
200502021500 METAR MRLM 021500Z 00000KT CAVOK 25/20 A2992=
200502021600 METAR MRLM 021600Z 09005KT CAVOK 26/21 A2991=
200502021700 METAR MRLM 021700Z 06012KT 9999 FEW023 BKN110 26/21 A2991=
200502021800 METAR MRLM 021800Z 10005KT 9999 FEW026 OVC090 26/21 A2988=
200502021900 METAR MRLM 021900Z 03006KT 9999 FEW025 SCT090 BKN120 26/21 A2986=
200502022000 METAR MRLM NIL=
200502022100 METAR MRLM 022100Z 11005KT 9999 FEW027 SCT090 BKN100 26/21 A2984=
200502022200 METAR MRLM 022200Z 00000KT CAVOK 26/20 A2985=
200502022300 METAR MRLM 022300Z 00000KT CAVOK 26/21 A2986=
200502030000 METAR MRLM 030000Z 00000KT CAVOK 25/21 A2988=
200502030100 METAR MRLM NIL=
200502030200 METAR MRLM NIL=
200502030300 METAR MRLM NIL=
200502030400 METAR MRLM NIL=
200502030500 METAR MRLM NIL=
200502030600 METAR MRLM NIL=
200502030700 METAR MRLM NIL=
200502030800 METAR MRLM NIL=
200502030900 METAR MRLM NIL=
200502031000 METAR MRLM NIL=
200502031100 METAR MRLM NIL=
200502031200 METAR MRLM NIL=
200502031300 METAR MRLM 031300Z 00000KT 9999 FEW026 BKN080 21/19 A2995=
200502031400 METAR MRLM 031400Z 00000KT 9999 FEW030 SCT090 25/20 A2997=
200502031500 METAR MRLM 031500Z 15003KT 9999 FEW030 27/20 A2999=
200502031600 METAR MRLM 031600Z 04003KT 9999 FEW030 27/20 A2999=
200502031700 METAR MRLM 031700Z 03004KT 9999 FEW030 27/20 A2997=
200502031800 METAR MRLM 031800Z 04004KT 9999 SCT028 27/20 A2995=
200502031900 METAR MRLM 031900Z 03009KT 9999 FEW024 27/20 A2993=
200502032100 METAR MRLM 032100Z 36006KT 9999 FEW024 BKN090 27/18 A2989=
200502032300 METAR MRLM 032300Z 00000KT 9999 FEW030 SCT090 25/20 A2988=
200502040000 METAR MRLM 040000Z 00000KT 9999 FEW024 SCT090 24/20 A2989=
200502040100 METAR MRLM NIL=
200502040200 METAR MRLM NIL=
200502040300 METAR MRLM NIL=
200502040400 METAR MRLM NIL=
200502040500 METAR MRLM NIL=
200502040600 METAR MRLM NIL=
200502040700 METAR MRLM NIL=
200502040800 METAR MRLM NIL=
200502040900 METAR MRLM NIL=
200502041000 METAR MRLM NIL=
200502041100 METAR MRLM NIL=
200502041200 METAR MRLM NIL=
200502041300 METAR MRLM 041300Z 20004KT 9999 SCT030 BKN080 20/19 A2998=
200502041400 METAR MRLM 041400Z 21004KT 9999 FEW025 SCT090 22/20 A2999=
200502041500 METAR MRLM 041500Z 00000KT 9999 SCT025 BKN090 25/20 A3001=
200502041600 METAR MRLM 041600Z 25004KT 9999 SCT025 SCT090 27/20 A3001=
200502041700 METAR MRLM 041700Z 36015KT 9999 -RA BKN022 SCT080 24/20 A2999=
200502041800 METAR MRLM 041800Z 00000KT 9999 SCT024 SCT080 24/21 A2996=
200502041900 METAR MRLM 041900Z 00000KT 9999 FEW024 SCT080 26/20 A2993=
200502042000 METAR MRLM NIL=
200502042100 METAR MRLM 042100Z 36006KT 9999 FEW024 SCT090 27/18 A2989=
200502042200 METAR MRLM 042200Z 33005KT 9999 FEW024 27/19 A2988=
200502042300 METAR MRLM 042300Z 00000KT 9999 FEW024 25/19 A2990=
200502050000 METAR MRLM 050000Z 24003KT 9999 SCT024 22/20 A2991=
200502050100 METAR MRLM NIL=
200502050200 METAR MRLM NIL=
200502050300 METAR MRLM NIL=
200502050400 METAR MRLM NIL=
200502050500 METAR MRLM NIL=
200502050600 METAR MRLM NIL=
200502050700 METAR MRLM NIL=
200502050800 METAR MRLM NIL=
200502050900 METAR MRLM NIL=
200502051000 METAR MRLM NIL=
200502051100 METAR MRLM NIL=
200502051200 METAR MRLM NIL=
200502051300 METAR MRLM 051300Z 00000KT 9999 SCT012 OVC090 20/19 A2995=
200502051400 METAR MRLM 051400Z VRB03KT 9999 SCT015 SCT090 20/19 A2995=
200502051500 METAR MRLM 051500Z VRB03KT 9999 FEW014 OVC090 24/21 A2998=
200502051600 METAR MRLM 051600Z VRB03KT 9999 SCT023 BKN090 25/20 A2998=
200502051700 METAR MRLM 051700Z VRB03KT 9999 FEW026 BKN090 26/21 A2997=
200502051800 METAR MRLM 051800Z 31008KT 9999 SCT026 SCT080 25/20 A2995=
200502051900 METAR MRLM 051900Z 35008KT 9999 FEW035 SCT090 27/20 A2992=
200502052000 METAR MRLM NIL=
200502052100 METAR MRLM 052100Z 32008KT 9999 BKN023 SCT080 26/21 A2988=
200502052200 METAR MRLM 052200Z 32007KT 9999 BKN018 25/21 A2988=
200502052300 METAR MRLM 052300Z 33010KT 9999 OVC020 25/21 A2988=
200502060000 METAR MRLM 060000Z 01014KT 9999 DZ BKN016 24/20 A2990=
200502060100 METAR MRLM NIL=
200502060200 METAR MRLM NIL=
200502060300 METAR MRLM NIL=
200502060400 METAR MRLM NIL=
200502060500 METAR MRLM NIL=
200502060600 METAR MRLM NIL=
200502060700 METAR MRLM NIL=
200502060800 METAR MRLM NIL=
200502060900 METAR MRLM NIL=
200502061000 METAR MRLM NIL=
200502061100 METAR MRLM NIL=
200502061200 METAR MRLM NIL=
200502061300 METAR MRLM 061300Z 22005KT 9999 SCT025 BKN080 21/19 A2993=
200502061400 METAR MRLM 061400Z 20004KT 9999 FEW018 BKN100 23/20 A2996=
200502061500 METAR MRLM 061500Z 00000KT 9999 SCT024 SCT090 25/20 A2998=
200502061600 METAR MRLM 061600Z 00000KT 9999 FEW034 BKN090 26/19 A2998=
200502061700 METAR MRLM 061700Z 00000KT 9999 FEW035 SCT110 27/20 A2997=
200502061800 METAR MRLM 061800Z 00000KT 9999 FEW032 SCT100 27/20 A2994=
200502061900 METAR MRLM 061900Z 02004KT 9999 FEW033 27/20 A2992=
200502062100 METAR MRLM 062100Z 34004KT 9999 FEW034 27/20 A2988=
200502062200 METAR MRLM 062200Z 00000KT 9999 FEW034 27/20 A2987=
200502062300 METAR MRLM 062300Z 00000KT 9999 FEW032 26/20 A2988=
200502070000 METAR MRLM 070000Z 00000KT 9999 BKN016 24/21 A2989=
200502070100 METAR MRLM NIL=
200502070200 METAR MRLM NIL=
200502070300 METAR MRLM NIL=
200502070400 METAR MRLM NIL=
200502070500 METAR MRLM NIL=
200502070600 METAR MRLM NIL=
200502070700 METAR MRLM NIL=
200502070800 METAR MRLM NIL=
200502070900 METAR MRLM NIL=
200502071000 METAR MRLM NIL=
200502071100 METAR MRLM NIL=
200502071200 METAR MRLM NIL=
200502071300 METAR MRLM 071300Z 00000KT CAVOK 19/17 A2989=
200502071400 METAR MRLM 071400Z 00000KT CAVOK 22/17 A2992=
200502071500 METAR MRLM 071500Z 00000KT 9999 FEW028 SCT090 25/18 A2993=
200502071600 METAR MRLM 071600Z 35008KT 9999 FEW028 SCT100 26/19 A2994=
200502071700 METAR MRLM 071700Z 33006KT CAVOK 26/20 A2992=
200502071800 METAR MRLM 071800Z 01008KT 9999 FEW025 SCT090 26/21 A2982=
200502071900 METAR MRLM 071900Z 02009KT 9999 FEW025 SCT090 26/21 A2987=
200502072100 METAR MRLM 072100Z 36005KT 9999 FEW030 27/21 A2982=
200502072200 METAR MRLM 072200Z 33008KT 9999 FEW025 SCT080 25/21 A2982=
200502072300 METAR MRLM 072300Z 31007KT 9999 FEW035 SCT080 25/21 A2983=
200502080000 METAR MRLM 080000Z 24003KT 9999 FEW025 SCT080 23/21 A2984=
200502080100 METAR MRLM NIL=
200502080200 METAR MRLM NIL=
200502080300 METAR MRLM NIL=
200502080400 METAR MRLM NIL=
200502080500 METAR MRLM NIL=
200502080600 METAR MRLM NIL=
200502080700 METAR MRLM NIL=
200502080800 METAR MRLM NIL=
200502080900 METAR MRLM NIL=
200502081000 METAR MRLM NIL=
200502081100 METAR MRLM NIL=
200502081200 METAR MRLM NIL=
200502081300 METAR MRLM 081300Z 21003KT 9999 BKN030 SCT080 21/20 A2989=
200502081400 METAR MRLM 081400Z 00000KT 9999 SCT030 BKN080 22/21 A2991=
200502081500 METAR MRLM 081500Z 31006KT 9999 BKN030 SCT080 23/20 A2994=
200502081600 METAR MRLM 081600Z 27005KT 9999 -DZ BKN030 SCT080 23/21 A2995=
200502081700 METAR MRLM 081700Z 22003KT 9999 SCT030 BKN080 23/20 A2993=
200502081800 METAR MRLM 081800Z 00000KT 9999 FEW024 BKN080 25/20 A2991=
200502081900 METAR MRLM 081900Z 02010KT 9999 SCT022 SCT080 25/20 A2989=
200502082000 METAR MRLM 082000Z 01006KT 9999 FEW022 BKN045 23/20 A2986=
200502082100 METAR MRLM 082100Z 23003KT 9999 SCT030 BKN080 23/21 A2985=
200502082200 METAR MRLM 082200Z 23004KT 9999 FEW030 BKN080 22/21 A2984=
200502082300 METAR MRLM 082300Z 20003KT 9999 -DZ SCT026 BKN080 22/20 A2984=
200502090000 METAR MRLM 090000Z 14004KT 9999 -DZ BKN026 SCT080 22/20 A2986=
200502090100 METAR MRLM NIL=
200502090200 METAR MRLM NIL=
200502090300 METAR MRLM NIL=
200502090400 METAR MRLM NIL=
200502090500 METAR MRLM NIL=
200502090600 METAR MRLM NIL=
200502090700 METAR MRLM NIL=
200502090800 METAR MRLM NIL=
200502090900 METAR MRLM NIL=
200502091000 METAR MRLM NIL=
200502091100 METAR MRLM NIL=
200502091200 METAR MRLM NIL=
200502091300 METAR MRLM NIL=
200502091400 METAR MRLM 091400Z VRB03KT 9999 SCT020 SCT100 22/20 A2988=
200502091500 METAR MRLM 091500Z 00000KT 9999 SCT020 OVC090 25/21 A2990=
200502091600 METAR MRLM 091600Z VRB03KT 9999 FEW027 OVC090 26/20 A2990=
200502091700 METAR MRLM 091700Z VRB03KT 9999 SCT038 OVC100 27/19 A2989=
200502091800 METAR MRLM 091800Z 33006KT 9999 SCT033 BKN110 26/20 A2988=
200502091900 METAR MRLM 091900Z 30005KT 9999 FEW036 SCT090 OVC110 27/20 A2985=
200502092000 METAR MRLM NIL=
200502092100 METAR MRLM 092100Z 34006KT 9999 SCT027 SCT110 26/21 A2981=
200502092200 METAR MRLM 092200Z 01008KT 9999 BKN028 26/21 A2980=
200502092300 METAR MRLM 092300Z 36008KT 9999 RA BKN022 SCT090 25/21 A2993=
200502100000 METAR MRLM 100000Z 01007KT 9999 FEW027 BKN090 26/20 A2983=
200502100100 METAR MRLM NIL=
200502100200 METAR MRLM NIL=
200502100300 METAR MRLM NIL=
200502100400 METAR MRLM NIL=
200502100500 METAR MRLM NIL=
200502100600 METAR MRLM NIL=
200502100700 METAR MRLM NIL=
200502100800 METAR MRLM NIL=
200502100900 METAR MRLM NIL=
200502101000 METAR MRLM NIL=
200502101100 METAR MRLM NIL=
200502101200 METAR MRLM NIL=
200502101300 METAR MRLM 101300Z 20005KT 9999 SCT015 SCT080 22/20 A2990=
200502101400 METAR MRLM 101400Z VRB03KT 9999 SCT013 SCT090 23/21 A2993=
200502101500 METAR MRLM 101500Z 35005KT 9999 BKN027 SCT090 26/21 A2995=
200502101600 METAR MRLM 101600Z 25007KT 9999 BKN030 SCT090 27/21 A2995=
200502101700 METAR MRLM 101700Z 00000KT 9999 BKN030 SCT100 27/21 A2993=
200502101800 METAR MRLM 101800Z 00000KT 9999 SCT035 SCT100 27/20 A2990=
200502101900 METAR MRLM 101900Z 03007KT 9999 SCT030 BKN100 27/21 A2989=
200502102000 METAR MRLM NIL=
200502102100 METAR MRLM 102100Z 00000KT 9999 BKN026 SCT100 26/21 A2985=
200502102200 METAR MRLM 102200Z 27006KT 8000 -DZ OVC017 25/22 A2985 RERA=
200502110000 METAR MRLM 110000Z 00000KT 9999 FEW009 BKN015 23/21 A2988=
200502110100 METAR MRLM NIL=
200502110200 METAR MRLM NIL=
200502110300 METAR MRLM NIL=
200502110400 METAR MRLM NIL=
200502110500 METAR MRLM NIL=
200502110600 METAR MRLM NIL=
200502110700 METAR MRLM NIL=
200502110800 METAR MRLM NIL=
200502110900 METAR MRLM NIL=
200502111000 METAR MRLM NIL=
200502111100 METAR MRLM NIL=
200502111200 METAR MRLM NIL=
200502111300 METAR MRLM 111300Z 19006KT 9999 DZ BKN025 21/20 A2999=
200502111400 METAR MRLM 111400Z 28004KT 9999 2000N -RA OVC024 21/20 A3001=
200502111500 METAR MRLM 111500Z 29003KT 3000 -RA BKN022 21/20 A3003=
200502111600 METAR MRLM 111600Z 21005KT 1500 RA BKN015 22/21 A3003=
200502111700 METAR MRLM 111700Z 24005KT 9999 3000NW -RA OVC024 22/21 A3002=
200502111800 METAR MRLM 111800Z 21004KT 3000 -RA BKN022 22/21 A2999=
200502111900 METAR MRLM 111900Z 00000KT 4000 +DZ BKN022 22/21 A2997 RERA=
200502112000 METAR MRLM 112000Z 00000KT 9999 BKN022 22/21 A2995 RERA=
200502112100 METAR MRLM 112100Z 21004KT 3000 -RA BKN022 22/21 A2993=
200502112200 METAR MRLM 112200Z 23005KT 6000 -DZ BKN022 22/21 A2994/RERA=
200502112300 METAR MRLM 112300Z 24004KT 3000 RA SCT015 BKN022 22/21 A2995=
200502120000 METAR MRLM 120000Z 22005KT 5000 DZ BKN018 SCT025 21/21 A2997=
200502120100 METAR MRLM NIL=
200502120200 METAR MRLM NIL=
200502120300 METAR MRLM NIL=
200502120400 METAR MRLM NIL=
200502120500 METAR MRLM NIL=
200502120600 METAR MRLM NIL=
200502120700 METAR MRLM NIL=
200502120800 METAR MRLM NIL=
200502120900 METAR MRLM NIL=
200502121000 METAR MRLM NIL=
200502121100 METAR MRLM NIL=
200502121200 METAR MRLM 121200Z 21005KT 9999 FEW025 20/18 A3000=
200502121300 METAR MRLM 121300Z 20004KT 9999 FEW025 21/19 A3002=
200502121400 METAR MRLM 121400Z 18004KT 9999 FEW025 SCT100 23/20 A3004=
200502121500 METAR MRLM 121500Z 22003KT CAVOK 25/19 A3005=
200502121600 METAR MRLM 121600Z 05003KT 9999 FEW030 BKN090 27/19 A3003=
200502121700 METAR MRLM 121700Z 35006KT 9999 FEW030 BKN080 26/21 A3002=
200502121800 METAR MRLM 121800Z 33007KT 9999 FEW030 BKN090 26/18 A3000=
200502121900 METAR MRLM 121900Z 02003KT 9999 FEW030 SCT090 26/19 A2997=
200502122000 METAR MRLM NIL=
200502122100 METAR MRLM 122100Z 34011KT 9999 FEW030 SCT090 26/21 A2993=
200502122200 METAR MRLM 122200Z 34011KT 9999 SCT025 25/21 A2994=
200502122300 METAR MRLM 122300Z 34011KT 9999 SCT025 25/21 A2994=
200502130000 METAR MRLM 130000Z 00000KT 9999 -DZ SCT024 BKN030 24/22 A2994=
200502130100 METAR MRLM NIL=
200502130200 METAR MRLM NIL=
200502130300 METAR MRLM NIL=
200502130400 METAR MRLM NIL=
200502130500 METAR MRLM NIL=
200502130600 METAR MRLM NIL=
200502130700 METAR MRLM NIL=
200502130800 METAR MRLM NIL=
200502130900 METAR MRLM NIL=
200502131000 METAR MRLM NIL=
200502131100 METAR MRLM NIL=
200502131200 METAR MRLM NIL=
200502131300 METAR MRLM 131300Z 21004KT 9999 OVC015 22/21 A2996=
200502131400 METAR MRLM 131400Z 00000KT 9999 OVC015 22/21 A2999=
200502131500 METAR MRLM 131500Z 00000KT 9999 4000NW -RA FEW005 OVC012 23/22 A2999=
200502131600 METAR MRLM 131600Z 00000KT 9999 BKN026 26/21 A2999 RERA=
200502131700 METAR MRLM 131700Z VRB03KT 9999 BKN025TCU SCT100 26/22 A2998=
200502131800 METAR MRLM 131800Z 00000KT 9999 BKN030TCU 26/21 A2995=
200502131900 METAR MRLM 131900Z 01005KT 9999 BKN025TCU 26/21 A2992=
200502132100 METAR MRLM 132100Z 35005KT 9999 BKN022 26/22 A2988=
200502132200 METAR MRLM 132200Z 04009KT 9999 OVC028 27/21 A2987=
200502132300 METAR MRLM 132300Z 03009KT 9999 BKN027 SCT090 26/21 A2987=
200502140000 METAR MRLM 140000Z 04009KT 9999 SCT026 OVC080 26/21 A2988=
200502140100 METAR MRLM NIL=
200502140200 METAR MRLM NIL=
200502140300 METAR MRLM NIL=
200502140400 METAR MRLM NIL=
200502140500 METAR MRLM NIL=
200502140600 METAR MRLM NIL=
200502140700 METAR MRLM NIL=
200502140800 METAR MRLM NIL=
200502140900 METAR MRLM NIL=
200502141000 METAR MRLM NIL=
200502141100 METAR MRLM NIL=
200502141200 METAR MRLM NIL=
200502141300 METAR MRLM 141300Z 22004KT CAVOK 22/21 A2995=
200502141400 METAR MRLM 141400Z 20004KT 9999 FEW012 SCT080 BKN110 22/21 A2996=
200502141500 METAR MRLM 141500Z 00000KT 9999 FEW020 SCT090 BKN110 25/21 A2998=
200502141600 METAR MRLM 141600Z VRB03KT 9999 FEW028 SCT090 BKN120 26/21 A2998=
200502141700 METAR MRLM 141700Z VRB03KT 9999 FEW022 SCT090 BKN110 26/22 A2996=
200502141800 METAR MRLM 141800Z VRB03KT 9999 FEW023 BKN110 26/22 A2994=
200502141900 METAR MRLM 141900Z 05005KT 9999 FEW028 BKN110 27/22 A2991=
200502142000 METAR MRLM NIL=
200502142100 METAR MRLM 142100Z 07005KT 9999 FEW028 BKN120 27/21 A2986=
200502142200 METAR MRLM 142200Z 05008KT 9999 FEW022 SCT090 BKN110 26/22 A2986=
200502142300 METAR MRLM 142300Z 05006KT 9999 FEW022 SCT090 BKN120 26/21 A2986=
200502150000 METAR MRLM NIL=
200502150100 METAR MRLM NIL=
200502150200 METAR MRLM NIL=
200502150300 METAR MRLM NIL=
200502150400 METAR MRLM NIL=
200502150500 METAR MRLM NIL=
200502150600 METAR MRLM NIL=
200502150700 METAR MRLM NIL=
200502150800 METAR MRLM NIL=
200502150900 METAR MRLM NIL=
200502151000 METAR MRLM NIL=
200502151100 METAR MRLM NIL=
200502151200 METAR MRLM 151200Z 20004KT 9999 BKN028 SCT080 21/20 A2991=
200502151300 METAR MRLM 151300Z 22005KT 9999 DZ BKN030 SCT080 21/20 A2993 RERA=
200502151400 METAR MRLM 151400Z 19006KT 9999 SCT030 SCT080 22/21 A2994 REDZ=
200502151500 METAR MRLM 151500Z 00000KT 9999 SCT040 SCT080 24/22 A2996=
200502151600 METAR MRLM 151600Z 00000KT 9999 SCT035 BKN080 26/22 A2997=
200502151700 METAR MRLM 151700Z 01003KT 9999 SCT040 BKN090 26/21 A2996=
200502151800 METAR MRLM 151800Z 02004KT 9999 FEW024 BKN080 26/21 A2993=
200502151900 METAR MRLM 151900Z 00000KT 9999 FEW024 BKN090 26/22 A2990=
200502152000 METAR MRLM 152000Z 04003KT 9999 FEW024 BKN090 26/21 A2987=
200502152100 METAR MRLM 152100Z 04003KT 9999 FEW024 BKN090 26/21 A2987=
200502152200 METAR MRLM NIL=
200502152300 METAR MRLM 152300Z 00000KT 9999 FEW024 BKN090 26/21 A2986=
200502160000 METAR MRLM 160000Z 00000KT 9999 FEW024 BKN090 25/22 A2987=
200502160100 METAR MRLM NIL=
200502160200 METAR MRLM NIL=
200502160300 METAR MRLM NIL=
200502160400 METAR MRLM NIL=
200502160500 METAR MRLM NIL=
200502160600 METAR MRLM NIL=
200502160700 METAR MRLM NIL=
200502160800 METAR MRLM NIL=
200502160900 METAR MRLM NIL=
200502161000 METAR MRLM NIL=
200502161100 METAR MRLM NIL=
200502161200 METAR MRLM NIL=
200502161300 METAR MRLM 161300Z 00000KT 9999 SCT045 SCT080 20/19 A2988=
200502161400 METAR MRLM 161400Z 00000KT 9999 SCT040 SCT080 22/20 A2981=
200502161500 METAR MRLM 161500Z 28005KT 9999 BKN030 SCT080 23/19 A2993=
200502161600 METAR MRLM 161600Z 30004KT 9999 -DZ SCT030 BKN080 24/20 A2994=
200502161700 METAR MRLM 161700Z 22003KT 9999 SCT030 BKN080 24/20 A2992 REDZ=
200502161800 METAR MRLM 161800Z 31003KT 9999 FEW015 BKN040 25/20 A2990=
200502161900 METAR MRLM 161900Z 32005KT 9999 BKN030 SCT080 25/21 A2987=
200502162000 METAR MRLM NIL=
200502162100 METAR MRLM 162100Z 00000KT 9999 FEW024 BKN040 24/21 A2982=
200502162200 METAR MRLM 162200Z 01003KT 9999 -DZ SCT015 BKN030 24/21 A29/83=
200502162300 METAR MRLM 162300Z 16003KT 9999 -DZ SCT015 BKN030 23/21 A2984=
200502170000 METAR MRLM 170000Z 18003KT 9999 SCT015 SCT080 22/21 A2984/REDZ=
200502170100 METAR MRLM NIL=
200502170200 METAR MRLM NIL=
200502170300 METAR MRLM NIL=
200502170400 METAR MRLM NIL=
200502170500 METAR MRLM NIL=
200502170600 METAR MRLM NIL=
200502170700 METAR MRLM NIL=
200502170800 METAR MRLM NIL=
200502170900 METAR MRLM NIL=
200502171000 METAR MRLM NIL=
200502171100 METAR MRLM NIL=
200502171200 METAR MRLM NIL=
200502171300 METAR MRLM 171300Z VRB03KT 9999 SCT025 BKN110 22/21 A2989=
200502171400 METAR MRLM 171400Z VRB03KT 9999 BKN025 SCT110 24/21 A2989=
200502171500 METAR MRLM 171500Z 33006KT 5000 -RA SCT009 OVC100 23/21 A2993=
200502171600 METAR MRLM 171600Z 15005KT 9999 DZ SCT007 SCT025 BKN100 23/21 A2993=
200502171700 METAR MRLM 171700Z 21005KT 8000 -DZ FEW007 SCT020 OVC100 23/21 A2991=
200502171800 METAR MRLM 171800Z 20004KT 9999 FEW020 BKN090 26/22 A2988=
200502172000 METAR MRLM 172000Z 00000KT 9999 SCT035 SCT120 28/21 A2987=
200502172100 METAR MRLM 172100Z 35009KT 9999 FEW030 27/22 A2980=
200502172200 METAR MRLM 172200Z 04009KT 9999 FEW025 25/22 A2980=
200502172300 METAR MRLM 172300Z 30005KT 9999 FEW023 BKN100 26/22 A2981=
200502180000 METAR MRLM 180000Z 00000KT 9999 FEW017 BKN080 25/22 A2982=
200502180100 METAR MRLM NIL=
200502180200 METAR MRLM NIL=
200502180300 METAR MRLM NIL=
200502180400 METAR MRLM NIL=
200502180500 METAR MRLM NIL=
200502180600 METAR MRLM NIL=
200502180700 METAR MRLM NIL=
200502180800 METAR MRLM NIL=
200502180900 METAR MRLM NIL=
200502181000 METAR MRLM NIL=
200502181100 METAR MRLM NIL=
200502181200 METAR MRLM NIL=
200502181300 METAR MRLM 181300Z VRB03KT 9999 SCT006 SCT020 22/21 A2990=
200502181400 METAR MRLM 181400Z 17004KT 9999 FEW012 BKN110 25/22 A2992=
200502181500 METAR MRLM 181500Z 16005KT 9999 OVC022 26/22 A2994=
200502181600 METAR MRLM 181600Z VRB03KT 9999 4000NE VCRA OVC028 27/22 A2994=
200502181700 METAR MRLM 181700Z 00000KT 9999 4000SE RA FEW015 SCT020 BKN090 26/22 A2993=
200502181800 METAR MRLM 181800Z 21005KT 9999 OVC020 26/22 A2991=
200502181900 METAR MRLM 181900Z VRB03KT 9999 DZ BKN020TCU 26/22 A2990=
200502182100 METAR MRLM 182100Z VRB03KT 9999 OVC030TCU 28/22 A2986=
200502182200 METAR MRLM 182200Z 00000KT 9999 BKN020 26/22 A2985=
200502182300 METAR MRLM 182300Z 00000KT 9999 BKN020TCU 26/22 A2985=
200502190000 METAR MRLM 190000Z 01006KT 5000 -RA BKN015 25/22 A2987=
200502190100 METAR MRLM NIL=
200502190200 METAR MRLM NIL=
200502190300 METAR MRLM NIL=
200502190400 METAR MRLM NIL=
200502190500 METAR MRLM NIL=
200502190600 METAR MRLM NIL=
200502190700 METAR MRLM NIL=
200502190800 METAR MRLM NIL=
200502190900 METAR MRLM NIL=
200502191000 METAR MRLM NIL=
200502191100 METAR MRLM NIL=
200502191200 METAR MRLM 191200Z 21005KT 2000 RA BKN015 SCT080 21/21 A2994=
200502191300 METAR MRLM 191300Z 23004KT 3000 RA OVC015 22/17 A2996=
200502191400 METAR MRLM 191400Z 21004KT 3000 RA BKN018 SCT080 21/21 A2998=
200502191500 METAR MRLM 191500Z 21004KT 5000 -DZ BKN030 SCT080 22/21 A3000=
200502191600 METAR MRLM 191600Z 20006KT 9999 -RA BKN030 22/21 A3010=
200502191700 METAR MRLM 191700Z 23004KT 9999 FEW025 SCT090 23/22 A3001=
200502191800 METAR MRLM 191800Z 04003KT 9999 SCT028 SCT090 27/22 A2998=
200502191900 METAR MRLM 191900Z 00000KT 9999 SCT028 SCT090 27/22 A2997=
200502192000 METAR MRLM NIL=
200502192100 METAR MRLM 192100Z 00000KT 9999 BKN028 SCT090 26/21 A2992=
200502192200 METAR MRLM 192200Z 19004KT 9999 BKN028 SCT090 26/21 A2992=
200502192300 METAR MRLM 192300Z 21005KT 9999 BKN026TCU SCT090 25/21 A2992=
200502200000 METAR MRLM 200000Z 23004KT 9999 3000SE -RA BKN025 SCT090 22/21 A2995=
200502200100 METAR MRLM NIL=
200502200200 METAR MRLM NIL=
200502200300 METAR MRLM NIL=
200502200400 METAR MRLM NIL=
200502200500 METAR MRLM NIL=
200502200600 METAR MRLM NIL=
200502200700 METAR MRLM NIL=
200502200800 METAR MRLM NIL=
200502200900 METAR MRLM NIL=
200502201000 METAR MRLM NIL=
200502201100 METAR MRLM NIL=
200502201200 METAR MRLM NIL=
200502201300 METAR MRLM 201300Z 23004KT 9999 FEW025 BKN080 21/20 2999=
200502201400 METAR MRLM 201400Z 20005KT 9999 SCT024 SCT080 24/20 A3000=
200502201500 METAR MRLM 201500Z 19005KT 9999 SCT024 SCT080 25/20 A3002=
200502201600 METAR MRLM 201600Z 19003KT 9999 FEW025 SCT090 26/21 A3003=
200502201700 METAR MRLM 201700Z 29003KT 9999 FEW025 SCT090 27/20 A3001=
200502201800 METAR MRLM 201800Z 08003KT 9999 FEW025 SCT090 27/20 A2999=
200502201900 METAR MRLM 201900Z 01003KT 9999 FEW025 SCT090 28/20 A2996=
200502202100 METAR MRLM 202100Z 02003KT 9999 FEW025 BKN090 27/20 A2990=
200502202200 METAR MRLM 202200Z 02003KT 9999 FEW024 BKN090 26/19 A2989=
200502202300 METAR MRLM 202300Z 36004KT 9999 FEW024 BKN080 25/21 A2990=
200502210000 METAR MRLM 210000Z 00000KT 9999 BKN024 SCT080 25/20 A2992=
200502210100 METAR MRLM NIL=
200502210200 METAR MRLM NIL=
200502210300 METAR MRLM NIL=
200502210400 METAR MRLM NIL=
200502210500 METAR MRLM NIL=
200502210600 METAR MRLM NIL=
200502210700 METAR MRLM NIL=
200502210800 METAR MRLM NIL=
200502210900 METAR MRLM NIL=
200502211000 METAR MRLM NIL=
200502211100 METAR MRLM NIL=
200502211200 METAR MRLM NIL=
200502211300 METAR MRLM 211300Z 23004KT 9999 FEW015 OVC080 21/20 A2994 REDZ=
200502211400 METAR MRLM 211400Z 20006KT 9999 SCT020 BKN090 23/21 A2996=
200502211500 METAR MRLM 211500Z 11011KT 5000 RA SCT008 OVC090 22/21 A2999=
200502211600 METAR MRLM 211600Z VRB03KT 5000 +DZ SCT070 OVC090 22/21 A2999=
200502211700 METAR MRLM 211700Z 25005KT 9999 DZ FEW007 SCT015 OVC090 23/21 A2997=
200502211800 METAR MRLM 211800Z 21004KT 9999 FEW008 SCT013 OVC090 24/22 A2995=
200502211900 METAR MRLM 211900Z 00000KT 8000 -DZ FEW006 SCT014 OVC090 24/21 A2992=
200502212000 METAR MRLM NIL=
200502212100 METAR MRLM NIL=
200502212200 METAR MRLM NIL=
200502212300 METAR MRLM NIL=
200502220000 METAR MRLM NIL=
200502220100 METAR MRLM NIL=
200502220200 METAR MRLM NIL=
200502220300 METAR MRLM NIL=
200502220400 METAR MRLM NIL=
200502220500 METAR MRLM NIL=
200502220600 METAR MRLM NIL=
200502220700 METAR MRLM NIL=
200502220800 METAR MRLM NIL=
200502220900 METAR MRLM NIL=
200502221000 METAR MRLM NIL=
200502221100 METAR MRLM NIL=
200502221200 METAR MRLM NIL=
200502221300 METAR MRLM NIL=
200502221400 METAR MRLM NIL=
200502221500 METAR MRLM NIL=
200502221600 METAR MRLM NIL=
200502221700 METAR MRLM NIL=
200502221800 METAR MRLM NIL=
200502221900 METAR MRLM NIL=
200502222000 METAR MRLM NIL=
200502222100 METAR MRLM NIL=
200502222200 METAR MRLM NIL=
200502222300 METAR MRLM NIL=
200502230000 METAR MRLM NIL=
200502230100 METAR MRLM NIL=
200502230200 METAR MRLM NIL=
200502230300 METAR MRLM NIL=
200502230400 METAR MRLM NIL=
200502230500 METAR MRLM NIL=
200502230600 METAR MRLM NIL=
200502230700 METAR MRLM NIL=
200502230800 METAR MRLM NIL=
200502230900 METAR MRLM NIL=
200502231000 METAR MRLM NIL=
200502231100 METAR MRLM NIL=
200502231200 METAR MRLM NIL=
200502231300 METAR MRLM 231300Z 22003KT 8000 2000N +DZ FEW015 BKN024 22/21 A2993=
200502231400 METAR MRLM 231400Z 19003KT 9999 BKN024 SCT080 22/21 A2995=
200502231500 METAR MRLM 231500Z 20005KT 9999 BKN024 SCT080 23/22 A2996=
200502231600 METAR MRLM 231600Z 22006KT 9999 BKN024 SCT080 25/22 A2998=
200502231700 METAR MRLM 231700Z 00000KT 8000 DZ BKN024 SCT080 24/21 A2996=
200502231800 METAR MRLM 231800Z 19003KT 9999 FEW020 BKN024 24/21 A2995=
200502231900 METAR MRLM 231900Z 21005KT 9999 SCT024 SCT080 23/20 A2992=
200502232100 METAR MRLM 232100Z 21004KT 9999 FEW024 BKN090 25/20 A2986=
200502232200 METAR MRLM 232200Z 19003KT 9999 FEW030 BKN090 25/20 A2986=
200502232300 METAR MRLM 232300Z 19003KT 9999 FEW040 BKN090 25/21 A2985=
200502240000 METAR MRLM 240000Z 00000KT 9999 FEW028 BKN080 24/21 A2986=
200502240100 METAR MRLM NIL=
200502240200 METAR MRLM NIL=
200502240300 METAR MRLM NIL=
200502240400 METAR MRLM NIL=
200502240500 METAR MRLM NIL=
200502240600 METAR MRLM NIL=
200502240700 METAR MRLM NIL=
200502240800 METAR MRLM NIL=
200502240900 METAR MRLM NIL=
200502241000 METAR MRLM NIL=
200502241100 METAR MRLM NIL=
200502241200 METAR MRLM NIL=
200502241300 METAR MRLM 241300Z 00000KT 9999 SCT030 BKN080 21/19 A2990=
200502241400 METAR MRLM 241400Z 00000KT 9999 3000N DZ SCT025 BKN080 23/20 A2993=
200502241500 METAR MRLM 241500Z 34003KT 9999 SCT025 BKN080 24/21 A2995=
200502241600 METAR MRLM 241600Z 02005KT 9999 SCT025 BKN080 25/20 A2995=
200502241700 METAR MRLM 241700Z 01008KT 7000 DZ SCT025 BKN080 24/22 A2993=
200502241800 METAR MRLM 241800Z 03003KT 9999 FEW024 BKN090 25/22 A2991=
200502241900 METAR MRLM 241900Z 09007KT 9999 FEW024 BKN090 26/22 A2987=
200502242000 METAR MRLM 242000Z NIL=
200502242100 METAR MRLM 242100Z 08006KT 9999 SCT024 BKN080 27/22 A2981=
200502242200 METAR MRLM 242200Z 09006KT 9999 FEW024 BKN080 26/21 A2981=
200502242300 METAR MRLM 242300Z 00000KT 9999 FEW024 BKN080 26/22 A2981=
200502250000 METAR MRLM 250000Z 10004KT 9999 FEW025 BKN080 26/22 A2981=
200502250100 METAR MRLM NIL=
200502250200 METAR MRLM NIL=
200502250300 METAR MRLM NIL=
200502250400 METAR MRLM NIL=
200502250500 METAR MRLM NIL=
200502250600 METAR MRLM NIL=
200502250700 METAR MRLM NIL=
200502250800 METAR MRLM NIL=
200502250900 METAR MRLM NIL=
200502251000 METAR MRLM NIL=
200502251100 METAR MRLM NIL=
200502251200 METAR MRLM NIL=
200502251300 METAR MRLM 251300Z 20005KT CAVOK 23/21 A2985=
200502251400 METAR MRLM 251400Z 00000KT CAVOK 27/22 A2988=
200502251500 METAR MRLM 251500Z VRB03KT 9999 FEW020 27/23 A2990=
200502251600 METAR MRLM 251600Z 05004KT 9999 FEW025 27/22 A2990=
200502251700 METAR MRLM 251700Z 03006KT 9999 FEW024 27/23 A2989=
200502251800 METAR MRLM 251800Z 01005KT 9999 FEW025 28/23 A2986=
200502251900 METAR MRLM 251900Z 01007KT 9999 FEW026 SCT300 28/22 A2983=
200502252000 METAR MRLM NIL=
200502252100 METAR MRLM 252100Z 04005KT 9999 FEW025 SCT300 27/22 A2980=
200502252200 METAR MRLM 252200Z 06006KT 9999 FEW026 BKN300 27/22 A2980=
200502252300 METAR MRLM 252300Z VRB03KT 9999 FEW030 BKN300 27/21 A2980=
200502260000 METAR MRLM 260000Z 00000KT 9999 FEW024 SCT090 BKN300 27/23 A2991=
200502260100 METAR MRLM NIL=
200502260200 METAR MRLM NIL=
200502260300 METAR MRLM NIL=
200502260400 METAR MRLM NIL=
200502260500 METAR MRLM NIL=
200502260600 METAR MRLM NIL=
200502260700 METAR MRLM NIL=
200502260800 METAR MRLM NIL=
200502260900 METAR MRLM NIL=
200502261000 METAR MRLM NIL=
200502261100 METAR MRLM NIL=
200502261200 METAR MRLM NIL=
200502261300 METAR MRLM 261300Z 00000KT 9999 SCT035 SCT080 22/21 A2987=
200502261400 METAR MRLM 261400Z VRB03KT 9999 FEW016 SCT080 25/22 A2989=
200502261500 METAR MRLM 261500Z VRB03KT 4000SE VCSH FEW023 27/23 A2990=
200502261600 METAR MRLM 261600Z 08006KT 9999 FEW030 28/22 A2989=
200502261700 METAR MRLM 261700Z 08010KT 9999 FEW028 28/22 A2988=
200502261800 METAR MRLM 261800Z 08010KT 9999 FEW028 28/23 A2985=
200502261900 METAR MRLM 261900Z 08008KT 9999 FEW028 28/23 A2983=
200502262000 METAR MRLM NIL=
200502262100 METAR MRLM 262100Z 03005KT 9999 FEW024 28/23 A2980=
200502262200 METAR MRLM 262200Z 02004KT 9999 BKN023 27/23 A2980=
200502262300 METAR MRLM 262300Z VRB003KT 9999 BKN024 27/22 A2980=
200502270000 METAR MRLM NIL=
200502270100 METAR MRLM NIL=
200502270200 METAR MRLM NIL=
200502270300 METAR MRLM NIL=
200502270400 METAR MRLM NIL=
200502270500 METAR MRLM NIL=
200502270600 METAR MRLM NIL=
200502270700 METAR MRLM NIL=
200502270800 METAR MRLM NIL=
200502270900 METAR MRLM NIL=
200502271000 METAR MRLM NIL=
200502271100 METAR MRLM NIL=
200502271200 METAR MRLM 271200Z 22004KT 9999 SCT025 SCT050 23/22 A2988=
200502271300 METAR MRLM 271300Z 21003KT 9999 BKN026 24/22 A2990=
200502271400 METAR MRLM 271400Z 00000KT SCT026 BKN090 26/23 A29/92=
200502271500 METAR MRLM 271500Z 07003KT 9999 SCT025TCU 28/23 A2992=
200502271600 METAR MRLM 271600Z 09007KT 9999 SCT024 28/23 A2991=
200502271700 METAR MRLM 271700Z 11009KT 9999 SCT024 28/23 A2989=
200502271800 METAR MRLM 271800Z 07007KT 9999 FEW024 28/23 A2987=
200502271900 METAR MRLM 271900Z 06008KT 9999 FEW024 28/22 A2998=
200502272100 METAR MRLM 272100Z 07007KT 9999 FEW024 28/22 A2980=
200502272200 METAR MRLM 272200Z 07005KT 9999 FEW024 27/22 A2979=
200502272300 METAR MRLM 272300Z 08004KT 9999 SCT024 BKN080 27/22 A2980=
200502280000 METAR MRLM 280000Z 06004KT 9999 BKN025 27/22 A2981=
200502280100 METAR MRLM NIL=
200502280200 METAR MRLM NIL=
200502280300 METAR MRLM NIL=
200502280400 METAR MRLM NIL=
200502280500 METAR MRLM NIL=
200502280600 METAR MRLM NIL=
200502280700 METAR MRLM NIL=
200502280800 METAR MRLM NIL=
200502280900 METAR MRLM NIL=
200502281000 METAR MRLM NIL=
200502281100 METAR MRLM NIL=
200502281200 METAR MRLM 281200Z 17003KT 9999 FEW030 BKN080 23/20 A2983=
200502281300 METAR MRLM 281300Z 19003KT 9999 FEW030 SCT260 24/21 A2984=
200502281400 METAR MRLM 281400Z 11007KT 9999 FEW040 SCT280 27/22 A2986=
200502281500 METAR MRLM 281500Z 08007KT 9999 FEW024 27/21 A2989=
200502281600 METAR MRLM 281600Z 04007KT 9999 FEW024 28/22 A2990=
200502281700 METAR MRLM 281700Z 04007KT 9999 FEW024 SCT280 28/22 A2988=
200502281800 METAR MRLM 281800Z 04006KT 9999 FEW024 SCT250 28/22 A2987=
200502281900 METAR MRLM 281900Z 04004KT 9999 FEW024 SCT250 28/22 A2985=
200502282100 METAR MRLM 282100Z 09006KT 9999 FEW024 BKN250 28/23 A2979=
200502282300 METAR MRLM 282300Z 09013KT 9999 FEW024 BKN250 27/23 A2978=
200503010000 METAR MRLM 010000Z 08007KT 9999 FEW024 BKN080 27/23 A2979=
200503010100 METAR MRLM NIL=
200503010200 METAR MRLM NIL=
200503010300 METAR MRLM NIL=
200503010400 METAR MRLM NIL=
200503010500 METAR MRLM NIL=
200503010600 METAR MRLM NIL=
200503010700 METAR MRLM NIL=
200503010800 METAR MRLM NIL=
200503010900 METAR MRLM NIL=
200503011000 METAR MRLM NIL=
200503011100 METAR MRLM NIL=
200503011200 METAR MRLM NIL=
200503011300 METAR MRLM 011300Z 00000KT 9999 BKN015 23/22 A2990=
200503011400 METAR MRLM 011400Z 00000KT 9999 BKN015 26/23 A2992=
200503011500 METAR MRLM 011500Z 00000KT 9999 SCT021 SCT280 27/23 A2993=
200503011600 METAR MRLM 011600Z 06005KT SCT025 BKN280 28/23 A2993=
200503011700 METAR MRLM 011700Z 09004KT 9999 FEW026 BKN280 28/23 A2991=
200503011800 METAR MRLM 011800Z 07008KT 9999 FEW030 BKN280 28/22 A2988=
200503011900 METAR MRLM 011900Z 06006KT 9999 FEW028 BKN280 28/23 A2987=
200503012000 METAR MRLM NIL=
200503012100 METAR MRLM 012100Z 04007KT 9999 BKN027 28/22 A2983=
200503012200 METAR MRLM 012200Z 06006KT 9999 BKN028 28/22 A2983=
200503012300 METAR MRLM 012300Z 02007KT 9999 BKN024 SCT280 27/22 A2984=
200503020000 METAR MRLM 020000Z 05006KT 9999 BKN025 SCT080 27/22 A2985=
200503020100 METAR MRLM NIL=
200503020200 METAR MRLM NIL=
200503020300 METAR MRLM NIL=
200503020400 METAR MRLM NIL=
200503020500 METAR MRLM NIL=
200503020600 METAR MRLM NIL=
200503020700 METAR MRLM NIL=
200503020800 METAR MRLM NIL=
200503020900 METAR MRLM NIL=
200503021000 METAR MRLM NIL=
200503021100 METAR MRLM NIL=
200503021200 METAR MRLM NIL=
200503021300 METAR MRLM 021300Z 00000KT CAVOK 22/21 A2987=
200503021400 METAR MRLM 021400Z 00000KT 9999 FEW020 SCT300 25/22 A2992=
200503021500 METAR MRLM 021500Z VRB03KT 9999 FEW026 SCT300 27/22 A2994=
200503021600 METAR MRLM 021600Z VRB03KT 9999 FEW028 BKN300 27/22 A2994=
200503021700 METAR MRLM 021700Z 07005KT 9999 FEW027 SCT300 27/22 A2993=
200503021800 METAR MRLM 021800Z 07004KT 9999 FEW030 28/22 A2990=
200503021900 METAR MRLM 021900Z 02004KT 9999 FEW028 28/22 A2987=
200503022000 METAR MRLM NIL=
200503022100 METAR MRLM 022100Z 01005KT 9999 FEW032 28/22 A2983=
200503022200 METAR MRLM 022200Z 05006KT 9999 FEW031 28/22 A2984=
200503022300 METAR MRLM 022300Z 04005KT 9999 SCT028 27/22 A2984=
200503030000 METAR MRLM 030000Z VRB03KT 9999 BKN035 27/22 A2985=
200503030100 METAR MRLM NIL=
200503030200 METAR MRLM NIL=
200503030300 METAR MRLM NIL=
200503030400 METAR MRLM NIL=
200503030500 METAR MRLM NIL=
200503030600 METAR MRLM NIL=
200503030700 METAR MRLM NIL=
200503030800 METAR MRLM NIL=
200503030900 METAR MRLM NIL=
200503031000 METAR MRLM NIL=
200503031100 METAR MRLM NIL=
200503031200 METAR MRLM NIL=
200503031300 METAR MRLM 031300Z 19004KT 9999 FEW024 SCT080 23/22 A2991=
200503031400 METAR MRLM 031400Z 18006KT 9999 FEW024 SCT090 25/23 A2992=
200503031500 METAR MRLM 031500Z 11010KT 9999 FEW024 27/22 A2992=
200503031600 METAR MRLM 031600Z 10012KT 9999 FEW024 28/22 A2993=
200503031700 METAR MRLM 031700Z 00000KT 9999 SCT024 28/22 A2991=
200503031800 METAR MRLM 031800Z 08011KT 9999 FEW024 28/23 A2989=
200503031900 METAR MRLM 031900Z 07008KT 9999 FEW024 28/23 A2987=
200503032000 METAR MRLM NIL=
200503032100 METAR MRLM 032100Z 08008KT 9999 BKN025 SCT080 27/23 A2984=
200503032200 METAR MRLM 032200Z 07008KT 9999 SCT025 SCT080 27/22 A2983=
200503032300 METAR MRLM 032300Z 10007KT 9999 SCT025 SCT080 27/22 A2982=
200503040000 METAR MRLM 040000Z 10007KT 9999 FEW022 SCT025 27/22 A2874=
200503040100 METAR MRLM NIL=
200503040200 METAR MRLM NIL=
200503040300 METAR MRLM NIL=
200503040400 METAR MRLM NIL=
200503040500 METAR MRLM NIL=
200503040600 METAR MRLM NIL=
200503040700 METAR MRLM NIL=
200503040800 METAR MRLM NIL=
200503040900 METAR MRLM NIL=
200503041000 METAR MRLM NIL=
200503041100 METAR MRLM NIL=
200503041200 METAR MRLM NIL=
200503041300 METAR MRLM 041300Z 00000KT 9999 FEW030 SCT080 23/22 A2990=
200503041400 METAR MRLM 041400Z 00000KT CAVOK 28/23 A2992=
200503041500 METAR MRLM 041500Z 10007KT 9999 FEW030 27/23 A2992=
200503041600 METAR MRLM 041600Z 09010KT 9999 FEW030 28/23 A2993=
200503041700 METAR MRLM 041700Z 07008KT 9999 FEW030 SCT250 28/23 A2991=
200503041800 METAR MRLM 041800Z 05008KT 9999 FEW025 SCT200 28/23 A2990=
200503041900 METAR MRLM 041900Z 07007KT 9999 FEW025 SCT200 28/23 A2988=
200503042000 METAR MRLM NIL=
200503042100 METAR MRLM 042100Z 09006KT 9999 FEW025 SCT200 28/23 A2984=
200503042200 METAR MRLM 042200Z 09005KT 9999 FEW025 SCT200 28/23 A2984=
200503042300 METAR MRLM 042300Z 09008KT 9999 FEW025 SCT220 28/22 A2984 CB DST S SSW=
200503050000 METAR MRLM 050000Z 09008KT 9999 FEW025 SCT220 27/23 A2986=
200503050100 METAR MRLM NIL=
200503050200 METAR MRLM NIL=
200503050300 METAR MRLM NIL=
200503050400 METAR MRLM NIL=
200503050500 METAR MRLM NIL=
200503050600 METAR MRLM NIL=
200503050700 METAR MRLM NIL=
200503050800 METAR MRLM NIL=
200503050900 METAR MRLM NIL=
200503051000 METAR MRLM NIL=
200503051100 METAR MRLM NIL=
200503051200 METAR MRLM NIL=
200503051300 METAR MRLM NIL=
200503051400 METAR MRLM 051400Z 00000KT 9999 BKN012 SCT120 24/23 A2996=
200503051500 METAR MRLM 051500Z 00000KT 9999 SCT025 SCT140 28/23 A2997=
200503051600 METAR MRLM NIL=
200503051700 METAR MRLM 051700Z 01008KT 9999 BKN026 28/23 A2997=
200503051800 METAR MRLM 051800Z 04009KT 9999 OVC030 29/23 A2995=
200503051900 METAR MRLM NIL=
200503052000 METAR MRLM NIL=
200503052100 METAR MRLM 052100Z 03005KT 9999 FEW030 BKN110 27/22 A2988=
200503052200 METAR MRLM 052200Z 35006KT 9999 SCT030 SCT080 28/22 A2989=
200503052300 METAR MRLM 052300Z 33004KT 9999 BKN028 27/22 A2980=
200503060000 METAR MRLM 060000Z 01004KT 9999 SCT028 SCT090 27/22 A2992=
200503060100 METAR MRLM NIL=
200503060200 METAR MRLM NIL=
200503060300 METAR MRLM NIL=
200503060400 METAR MRLM NIL=
200503060500 METAR MRLM NIL=
200503060600 METAR MRLM NIL=
200503060700 METAR MRLM NIL=
200503060800 METAR MRLM NIL=
200503060900 METAR MRLM NIL=
200503061000 METAR MRLM NIL=
200503061100 METAR MRLM NIL=
200503061200 METAR MRLM NIL=
200503061300 METAR MRLM 061300Z 23005KT 9999 FEW015 BKN110 21/20 A2998=
200503061400 METAR MRLM 061400Z 24004KT CAVOK 23/21 A3000=
200503061500 METAR MRLM 061500Z 00000KT CAVOK 28/21 A3002=
200503061600 METAR MRLM 061600Z 00000KT CAVOK 30/19 A3001=
200503061700 METAR MRLM 061700Z 36006KT 9999 FEW048 BKN130 29/19 A2999=
200503061800 METAR MRLM 061800Z 02007KT 9999 FEW030 SCT160 29/23=
200503061900 METAR MRLM 061900Z 03007KT 9999 FEW044 29/20 A2994=
200503062000 METAR MRLM 062000Z 03004KT 9999 FEW042 SCT300 28/20 A2991=
200503062100 METAR MRLM 062100Z 03004KT CAVOK 28/20 A2989=
200503062200 METAR MRLM 062200Z 01004KT CAVOK 28/21 A2981=
200503062300 METAR MRLM 062300Z 00000KT 9999 FEW036 SCT120 27/20 A2990=
200503070000 METAR MRLM 070000Z 00000KT 9999 FEW018 SCT090 24/21 A2991=
200503070100 METAR MRLM NIL=
200503070200 METAR MRLM NIL=
200503070300 METAR MRLM NIL=
200503070400 METAR MRLM NIL=
200503070500 METAR MRLM NIL=
200503070600 METAR MRLM NIL=
200503070700 METAR MRLM NIL=
200503070800 METAR MRLM NIL=
200503070900 METAR MRLM NIL=
200503071000 METAR MRLM NIL=
200503071100 METAR MRLM NIL=
200503071200 METAR MRLM NIL=
200503071300 METAR MRLM 071300Z 20004KT 9999 FEW030 BKN280 22/19 A2996=
200503071400 METAR MRLM 071400Z 20003KT 9999 FEW030 BKN280 25/21 A2998=
200503071500 METAR MRLM 071500Z 08003KT 9999 FEW030 BKN280 27/21 A3000=
200503071600 METAR MRLM 071600Z 07004KT 9999 FEW030 SCT280 27/21 A2999=
200503071700 METAR MRLM 071700Z 08003KT 9999 FEW030 BKN280 28/21 A2996=
200503071800 METAR MRLM 071800Z 05006KT 9999 FEW030 BKN280 28/21 A2993=
200503071900 METAR MRLM 071900Z 05009KT 9999 FEW030 BKN280 28/21 A2990=
200503072000 METAR MRLM NIL=
200503072100 METAR MRLM 072100Z 05005KT 9999 FEW030 BKN250 29/22 A2986=
200503072200 METAR MRLM 072200Z 08004KT 9999 FEW030 BKN250 27/21 A2985=
200503072300 METAR MRLM 072300Z 06005KT 9999 SCT028 BKN250 27/22 A2985=
200503080000 METAR MRLM 080000Z 05006KT 9999 BKN025 SCT250 27/21 A2986=
200503080100 METAR MRLM 080100Z 26005KT 9999 SCT035 27/22 A2987=
200503080200 METAR MRLM NIL=
200503080300 METAR MRLM NIL=
200503080400 METAR MRLM NIL=
200503080500 METAR MRLM NIL=
200503080600 METAR MRLM NIL=
200503080700 METAR MRLM NIL=
200503080800 METAR MRLM NIL=
200503080900 METAR MRLM NIL=
200503081000 METAR MRLM NIL=
200503081100 METAR MRLM NIL=
200503081200 METAR MRLM NIL=
200503081300 METAR MRLM 081300Z 00000KT 9999 SCT028 SCT080 23/22 A2992 RMK RN DST SE=
200503081400 METAR MRLM 081400Z 00000KT 9999 SCT028 SCT080 26/22 A2994 RMK RN DST E=
200503081500 METAR MRLM 081500Z 05004KT 9999 SCT028 28/22 A2995=
200503081600 METAR MRLM 081600Z 05006KT 9999 SCT028 28/22 A2995=
200503081700 METAR MRLM 081700Z 06005KT 9999 SCT028 28/22 A2992=
200503081800 METAR MRLM 081800Z 06008KT 9999 SCT028 28/22 A2990=
200503081900 METAR MRLM 081900Z 05007KT 9999 FEW025 28/22 A2988=
200503082000 METAR MRLM NIL=
200503082100 METAR MRLM 082100Z 04005KT 9999 FEW025 28/21 A2982=
200503082200 METAR MRLM 082200Z 06007KT 9999 FEW025 28/22 A2982=
200503082300 METAR MRLM 082300Z 07003KT 9999 BKN025 27/21 A2982=
200503090000 METAR MRLM 090000Z 07006KT 9999 SCT025 27/21 A2983=
200503090100 METAR MRLM NIL=
200503090200 METAR MRLM NIL=
200503090300 METAR MRLM NIL=
200503090400 METAR MRLM NIL=
200503090500 METAR MRLM NIL=
200503090600 METAR MRLM NIL=
200503090700 METAR MRLM NIL=
200503090800 METAR MRLM NIL=
200503090900 METAR MRLM NIL=
200503091000 METAR MRLM NIL=
200503091100 METAR MRLM NIL=
200503091200 METAR MRLM NIL=
200503091300 METAR MRLM 091300Z VRB03KT 9999 FEW015 24/22 A2989=
200503091400 METAR MRLM 091400Z 11007KT CAVOK 27/22 A2988=
200503091500 METAR MRLM 091500Z 00000KT 9999KT FEW030 28/22 A2988=
200503091600 METAR MRLM 091600Z 09009KT 9999 FEW029 29/23 A2988=
200503091700 METAR MRLM 091700Z 09011KT 9999 FEW029 29/23 A2985=
200503091800 METAR MRLM 091800Z 08008KT 9999 FEW028 29/23 A2983=
200503091900 METAR MRLM 091900Z 07007KT 9999 FEW027 29/23 A2979=
200503092000 METAR MRLM NIL=
200503092100 METAR MRLM 092100Z 06007KT 9999 FEW029 BKN090 28/22 A2975=
200503092200 METAR MRLM 092200Z 07006KT 9999 FEW028 BKN090 28/22 A2974=
200503100000 METAR MRLM 100000Z VRB03KT 9999 FEW028 BKN280 27/22 A2976=
200503100100 METAR MRLM NIL=
200503100200 METAR MRLM NIL=
200503100300 METAR MRLM NIL=
200503100400 METAR MRLM NIL=
200503100500 METAR MRLM NIL=
200503100600 METAR MRLM NIL=
200503100700 METAR MRLM NIL=
200503100800 METAR MRLM NIL=
200503100900 METAR MRLM NIL=
200503101000 METAR MRLM NIL=
200503101100 METAR MRLM NIL=
200503101200 METAR MRLM NIL=
200503101300 METAR MRLM 101300Z 00000KT CAVOK 24/22 A2984=
200503101400 METAR MRLM 101400Z 00000KT CAVOK 26/22 A2986=
200503101600 METAR MRLM 101600Z 04006KT 9999 FEW035 SCT140 28/22 A2986=
200503101700 METAR MRLM 101700Z 09007KT 9999 FEW030 SCT140 29/22 A2985=
200503101800 METAR MRLM 101800Z 07007KT 9999 FEW030 SCT130 29/23 A2983=
200503101900 METAR MRLM 101900Z 09008KT 9999 FEW032 SCT120 29/23 A2981=
200503102100 METAR MRLM 102100Z 06006KT 9999 FEW025 BKN080 28/24 A2977=
200503102200 METAR MRLM 102200Z 06004KT 9999 SCT024 SCT080 28/23 A2977=
200503102300 METAR MRLM 102300Z VRB03KT 9999 SCT022 SCT080 28/23 A2978=
200503110000 METAR MRLM 110000Z 11006KT 9999 SCT019 SCT140 27/23 A2979=
200503110100 METAR MRLM NIL=
200503110200 METAR MRLM NIL=
200503110300 METAR MRLM NIL=
200503110400 METAR MRLM NIL=
200503110500 METAR MRLM NIL=
200503110600 METAR MRLM NIL=
200503110700 METAR MRLM NIL=
200503110800 METAR MRLM NIL=
200503110900 METAR MRLM NIL=
200503111000 METAR MRLM NIL=
200503111100 METAR MRLM NIL=
200503111200 METAR MRLM NIL=
200503111300 METAR MRLM NIL=
200503111400 METAR MRLM 111400Z 21003KT 9999 SCT028 SCT080 27/23 A2991=
200503111500 METAR MRLM NIL=
200503111600 METAR MRLM 111600Z 06003KT 9999 SCT028 28/23 A2994=
200503111700 METAR MRLM 111700Z 01003KT 9999 SCT028 28/23 A2992=
200503111800 METAR MRLM 111800Z 06005KT 9999 SCT028 29/23 A2989=
200503111900 METAR MRLM 111900Z 02005KT 9999 FEW028 30/22 A2997=
200503112000 METAR MRLM NIL=
200503112100 METAR MRLM 112100Z 03006KT 9999 SCT028 SCT250 29/23 A2983=
200503112300 METAR MRLM 112300Z 02010KT 9999 BKN028 SCT080 28/22 A2985=
200503120000 METAR MRLM 120000Z 02008KT 9999 SCT025 SCT080 28/22 A2986=
200503120100 METAR MRLM NIL=
200503120200 METAR MRLM NIL=
200503120300 METAR MRLM NIL=
200503120400 METAR MRLM NIL=
200503120500 METAR MRLM NIL=
200503120600 METAR MRLM NIL=
200503120700 METAR MRLM NIL=
200503120800 METAR MRLM NIL=
200503120900 METAR MRLM NIL=
200503121000 METAR MRLM NIL=
200503121100 METAR MRLM NIL=
200503121200 METAR MRLM NIL=
200503121300 METAR MRLM NIL=
200503121400 METAR MRLM 121400Z 23005KT 9999 SCT026 BKN080 25/22 A2999=
200503121500 METAR MRLM 121500Z 23003KT 9999 FEW026 BKN090 27/22 A3000=
200503121600 METAR MRLM 121600Z 04003KT 9999 FEW026 SCT090 28/22 A3000=
200503121700 METAR MRLM 121700Z 09003KT 9999 FEW025 SCT090 28/22 A2998=
200503121800 METAR MRLM 121800Z 04004KT 9999 FEW025 BKN090 28/22 A2997=
200503121900 METAR MRLM 121900Z 04005KT 9999 FEW025 SCT090 29/20 A2993=
200503122000 METAR MRLM NIL=
200503122100 METAR MRLM 122100Z 02004KT 9999 FEW025 BKN280 29/21 A2989=
200503122200 METAR MRLM 122200Z 07003KT 9999 FEW025 BKN280 29/21 A2989=
200503122300 METAR MRLM 122300Z 00000KT 9999 FEW025 BKN280 28/21 A2989=
200503130000 METAR MRLM 130000Z 00000KT 9999 FEW025 SCT100 BKN250 26/22 A2990=
200503130100 METAR MRLM NIL=
200503130200 METAR MRLM NIL=
200503130300 METAR MRLM NIL=
200503130400 METAR MRLM NIL=
200503130500 METAR MRLM NIL=
200503130600 METAR MRLM NIL=
200503130700 METAR MRLM NIL=
200503130800 METAR MRLM NIL=
200503130900 METAR MRLM NIL=
200503131000 METAR MRLM NIL=
200503131100 METAR MRLM NIL=
200503131200 METAR MRLM NIL=
200503131300 METAR MRLM 131300Z 20004KT 9999 FEW015 SCT300 22/19 A2994=
200503131400 METAR MRLM 131400Z 00000KT 9999 FEW025 SCT300 26/22 A2995=
200503131500 METAR MRLM 131500Z 08004KT 9999 SCT030 28/22 A2996=
200503131600 METAR MRLM 131600Z 07004KT 9999 FEW030 28/22 A2996=
200503131700 METAR MRLM 131700Z 05006KT 9999 FEW030 29/22 A2995=
200503131800 METAR MRLM 131800Z 09009KT 9999 FEW035 BKN300 29/22 A2992=
200503131900 METAR MRLM 131900Z 07005KT 9999 FEW035 BKN290 29/22 A2988=
200503132000 METAR MRLM NIL=
200503132100 METAR MRLM 132100Z 06008KT 9999 FEW033 BKN280 29/22 A2982=
200503132200 METAR MRLM 132200Z 09007KT 9999 SCT030 BKN280 28/22 A2981=
200503132300 METAR MRLM 132300Z 08004KT 9999 FEW030 SCT100 27/21 A2981=
200503140000 METAR MRLM 140000Z VRB03KT 9999 FEW030 BKN080 27/21 A2982=
200503140100 METAR MRLM NIL=
200503140200 METAR MRLM NIL=
200503140300 METAR MRLM NIL=
200503140400 METAR MRLM NIL=
200503140500 METAR MRLM NIL=
200503140600 METAR MRLM NIL=
200503140700 METAR MRLM NIL=
200503140800 METAR MRLM NIL=
200503140900 METAR MRLM NIL=
200503141000 METAR MRLM NIL=
200503141100 METAR MRLM NIL=
200503141200 METAR MRLM NIL=
200503141300 METAR MRLM 141300Z 21004KT 9999 OVC020 23/22 A2989=
200503141400 METAR MRLM 141400Z 00000KT 9999 FEW020 BKN080 26/22 A2990=
200503141500 METAR MRLM 141500Z 16004KT 9999 FEW032 SCT090 28/22 A2991=
200503141600 METAR MRLM 141600Z 09006KT 9999 FEW042 29/21 A2990=
200503141700 METAR MRLM NIL=
200503141800 METAR MRLM 141800Z 06008KT 9999 FEW042 29/21 A2985=
200503141900 METAR MRLM 141900Z 04010KT 9999 FEW033 28/22 A2983=
200503142000 METAR MRLM NIL=
200503142100 METAR MRLM 142100Z 03004KT 9999 FEW033 SCT120 BKN300 28/22 A2978=
200503142200 METAR MRLM 142200Z 06005KT 9999 FEW033 SCT120 BKN300 28/22 A2978=
200503142300 METAR MRLM NIL=
200503150000 METAR MRLM 150000Z 08006KT 9999 SCT025 BKN110 27/22 A2980=
200503150100 METAR MRLM NIL=
200503150200 METAR MRLM NIL=
200503150300 METAR MRLM NIL=
200503150400 METAR MRLM NIL=
200503150500 METAR MRLM NIL=
200503150600 METAR MRLM NIL=
200503150700 METAR MRLM NIL=
200503150800 METAR MRLM NIL=
200503150900 METAR MRLM NIL=
200503151000 METAR MRLM NIL=
200503151100 METAR MRLM NIL=
200503151200 METAR MRLM NIL=
200503151300 METAR MRLM 151300Z 00000KT 9999 FEW030 SCT090 23/21 A2985=
200503151400 METAR MRLM 151400Z 00000KT CAVOK 27/22 A2986=
200503151500 METAR MRLM 151500Z 06003KT 9999 FEW030 28/21 A2988=
200503151600 METAR MRLM 151600Z 04006KT CAVOK 29/22 A2988=
200503151700 METAR MRLM 151700Z 06006KT 9999 FEW025 SCT240 30/23 A2986=
200503151800 METAR MRLM 151800Z 06007KT 9999 FEW030 SCT250 30/21 A2985=
200503151900 METAR MRLM 151900Z 04007KT 9999 FEW030 SCT100 29/22 A2982=
200503152100 METAR MRLM 152100Z 02006KT 9999 FEW028 SCT024 29/23 A2978=
200503152200 METAR MRLM 152200Z 03008KT 9999 SCT020 BKN250 29/23 A2978=
200503152300 METAR MRLM 152300Z 04007KT 9999 SCT025 SCT240 29/23 A2978=
200503160000 METAR MRLM 160000Z 07006KT 9999 SCT025 BKN240 28/23 A2979=
200503160100 METAR MRLM NIL=
200503160200 METAR MRLM NIL=
200503160300 METAR MRLM NIL=
200503160400 METAR MRLM NIL=
200503160500 METAR MRLM NIL=
200503160600 METAR MRLM NIL=
200503160700 METAR MRLM NIL=
200503160800 METAR MRLM NIL=
200503160900 METAR MRLM NIL=
200503161000 METAR MRLM NIL=
200503161100 METAR MRLM NIL=
200503161200 METAR MRLM NIL=
200503161300 METAR MRLM 161300Z 21003KT 9999 SCT026 SCT080 24/23 A2989=
200503161400 METAR MRLM 161400Z 22003KT 9999 FEW026 BKN080 25/23 A2988=
200503161500 METAR MRLM 161500Z 10005KT 9999 SCT030 28/23 A2989=
200503161600 METAR MRLM 161600Z 09008KT 9999 SCT025 BKN250 28/22 A2989=
200503161700 METAR MRLM 161700Z 09007KT 9999 SCT028 BKN250 28/23 A2988=
200503161800 METAR MRLM 161800Z 06009KT 9999 FEW025 BKN250 29/24 A2986=
200503161900 METAR MRLM 161900Z 07007KT 9999 SCT025 BKN250 29/23 A2983=
200503162000 METAR MRLM NIL=
200503162100 METAR MRLM 162100Z 08007KT 9999 FEW025 SCT250 29/22 A2978=
200503162200 METAR MRLM 162200Z 08009KT 9999 SCT025 28/22 A2978=
200503162300 METAR MRLM NIL=
200503170000 METAR MRLM 170000Z 09007KT 9999 SCT015 SCT080 27/22 A2979=
200503170100 METAR MRLM NIL=
200503170200 METAR MRLM NIL=
200503170300 METAR MRLM NIL=
200503170400 METAR MRLM NIL=
200503170500 METAR MRLM NIL=
200503170600 METAR MRLM NIL=
200503170700 METAR MRLM NIL=
200503170800 METAR MRLM NIL=
200503170900 METAR MRLM NIL=
200503171000 METAR MRLM NIL=
200503171100 METAR MRLM NIL=
200503171200 METAR MRLM NIL=
200503171300 METAR MRLM 171300Z 19004KT 9999 FEW015 OVC090 23/21 A2986=
200503171400 METAR MRLM 171400Z 00000KT CAVOK 25/23 A2987=
200503171500 METAR MRLM 171500Z 10006KT CAVOK 28/22 A2988=
200503171600 METAR MRLM 171600Z 09007KT CAVOK 29/23 A2987=
200503171700 METAR MRLM 171700Z 08009KT 9999 FEW030 SCT280 29/23 A2986=
200503171800 METAR MRLM 171800Z 07007KT 9999 FEW026 SCT280 28/23 A2984=
200503171900 METAR MRLM 171900Z 07006KT 9999 FEW030 SCT280 29/23 A2981=
200503172000 METAR MRLM NIL=
200503172100 METAR MRLM 172100Z 07006KT 9999 FEW027 SCT100 28/23 A2978=
200503172200 METAR MRLM 172200Z 07006KT 9999 FEW025 SCT110 28/23 A2977=
200503172300 METAR MRLM 172300Z 08005KT 9999 BKN026 28/23 A2978=
200503180000 METAR MRLM 180000Z 06006KT 9999 BKN024 27/23 A2980=
200503180100 METAR MRLM NIL=
200503180200 METAR MRLM NIL=
200503180300 METAR MRLM NIL=
200503180400 METAR MRLM NIL=
200503180500 METAR MRLM NIL=
200503180600 METAR MRLM NIL=
200503180700 METAR MRLM NIL=
200503180800 METAR MRLM NIL=
200503180900 METAR MRLM NIL=
200503181000 METAR MRLM NIL=
200503181100 METAR MRLM NIL=
200503181200 METAR MRLM NIL=
200503181300 METAR MRLM 181300Z 00000KT 9999 OVC015 23/22 A2988=
200503181400 METAR MRLM 181400Z 18004KT 9999 OVC015 27/24 A2990=
200503181500 METAR MRLM 181500Z 00000KT 9999 OVC025 28/24 A2992=
200503181600 METAR MRLM 181600Z 04005KT 9999 SCT025 SCT300 29/24 A2991=
200503181700 METAR MRLM 181700Z 06007KT 9999 SCT026 SCT300 29/24 A2990 RMK HZ LEVE ARWND=
200503181800 METAR MRLM 181800Z 05010KT 9999 BKN026 29/24 A2987 RMK LEVE HZY=
200503181900 METAR MRLM 181900Z 05008KT 9999 BKN025 29/24 A2985 RMK LEVE HZY=
200503182000 METAR MRLM NIL=
200503182100 METAR MRLM 182100Z 09007KT 9999 SCT028 BKN280 29/23 A2981=
200503182200 METAR MRLM 182200Z 08005KT 9999 FEW025 OVC280 28/23 A2981=
200503182300 METAR MRLM 182300Z 08008KT 9999 FEW022 SCT150 BKN280 28/23 A2982=
200503190000 METAR MRLM 190000Z 06005KT 9999 FEW020 BKN270 27/23 A2982=
200503190100 METAR MRLM NIL=
200503190200 METAR MRLM NIL=
200503190300 METAR MRLM NIL=
200503190400 METAR MRLM NIL=
200503190500 METAR MRLM NIL=
200503190600 METAR MRLM NIL=
200503190700 METAR MRLM NIL=
200503190800 METAR MRLM NIL=
200503190900 METAR MRLM NIL=
200503191000 METAR MRLM NIL=
200503191100 METAR MRLM NIL=
200503191200 METAR MRLM NIL=
200503191300 METAR MRLM 191300Z 21003KT 9999 FEW035 SCT280 23/21 A2988=
200503191400 METAR MRLM 191400Z 19003KT 9999 FEW025 SCT280 27/22 A2991=
200503191500 METAR MRLM 191500Z 08003KT 9999 SCT028 25/22 A2992=
200503191600 METAR MRLM NIL=
200503191700 METAR MRLM 191700Z 05005KT 9999 FEW028 29/22 A2991=
200503191800 METAR MRLM 191800Z 05006KT 9999 FEDW025 SCT280 29/22 A2989=
200503191900 METAR MRLM 191900Z 04008KT 9999 FEW025 SCT280 29/23 A2987=
200503192000 METAR MRLM NIL=
200503192100 METAR MRLM 192100Z 02004KT 9999 FEW025 SCT280 29/22 A2982=
200503192200 METAR MRLM 192200Z 02006KT 9999 FEW025 BKN250 29/16 A2983=
200503192300 METAR MRLM 192300Z 03006KT 9999 FEW025 BKN250 28/22 A2983=
200503200000 METAR MRLM 200000Z 07004KT 9999 SCT025 SCT250 28/22 A2984=
200503200100 METAR MRLM 200100Z 08009KT CAVOK 31/19 A2982/ OVC250=
200503200200 METAR MRLM NIL=
200503200300 METAR MRLM NIL=
200503200400 METAR MRLM NIL=
200503200500 METAR MRLM NIL=
200503200600 METAR MRLM NIL=
200503200700 METAR MRLM NIL=
200503200800 METAR MRLM NIL=
200503200900 METAR MRLM NIL=
200503201000 METAR MRLM NIL=
200503201100 METAR MRLM NIL=
200503201200 METAR MRLM NIL=
200503201300 METAR MRLM 201300Z 00000KT 9999 SCT026 SCT080 24/23 A2989=
200503201400 METAR MRLM 201400Z 00000KT 9999 SCT026 SCT080 25/23 A2992=
200503201500 METAR MRLM 201500Z 17003KT 9999 SCT028 SCT090 26/23 A2992=
200503201600 METAR MRLM 201600Z 14006KT 9999 SCT028 BKN090 26/23 A2993=
200503201700 METAR MRLM 201700Z 11007KT 9999 FEW024 BKN090 28/22 A2992=
200503201800 METAR MRLM 201800Z 11007KT 9999 FEW025 SCT090 28/22 A2989=
200503201900 METAR MRLM 201900Z 09007KT 9999 FEW025 BKN250 28/22 A2986=
200503202000 METAR MRLM NIL=
200503202100 METAR MRLM 202100Z 07004KT 9999 FEW024 SCT090 BKN250 28/22 A2983=
200503202200 METAR MRLM 202200Z 07006KT 9999 BKN025 SCT250 27/23 A2983=
200503202300 METAR MRLM NIL=
200503210000 METAR MRLM 210000Z 09007KT 9999 BKN024 27/23 A2983=
200503210100 METAR MRLM NIL=
200503210200 METAR MRLM NIL=
200503210300 METAR MRLM NIL=
200503210400 METAR MRLM NIL=
200503210500 METAR MRLM NIL=
200503210600 METAR MRLM NIL=
200503210700 METAR MRLM NIL=
200503210800 METAR MRLM NIL=
200503210900 METAR MRLM NIL=
200503211000 METAR MRLM NIL=
200503211100 METAR MRLM NIL=
200503211200 METAR MRLM NIL=
200503211300 METAR MRLM NIL=
200503211400 METAR MRLM 211400Z VRB03KT 9999 FEW020 OVC090 24/22 A2987=
200503211500 METAR MRLM 211500Z 17004KT 9999 FEW016 OVC090 26/23 A2988=
200503211600 METAR MRLM 211600Z 11004KT 9999 FEW028 OVC090 28/22 A2988=
200503211700 METAR MRLM 211700Z 10006KT 9999 FEW025 SCT045 BKN090 28/23 A2986=
200503211800 METAR MRLM 211800Z 09009KT 9999 FEW032 BKN090 28/22 A2983=
200503211900 METAR MRLM 211900Z 09012KT 9999 FEW030 BKN120 29/23 A2980=
200503212000 METAR MRLM NIL=
200503212100 METAR MRLM 212100Z 09012KT 9999 FEW028 BKN110 29/23 A2975=
200503212300 METAR MRLM 212300Z 11008KT 9999 FEW025 SCT070 BKN090 27/22 A2975=
200503220000 METAR MRLM NIL=
200503220100 METAR MRLM NIL=
200503220200 METAR MRLM NIL=
200503220300 METAR MRLM NIL=
200503220400 METAR MRLM NIL=
200503220500 METAR MRLM NIL=
200503220600 METAR MRLM NIL=
200503220700 METAR MRLM NIL=
200503220800 METAR MRLM NIL=
200503220900 METAR MRLM NIL=
200503221000 METAR MRLM NIL=
200503221100 METAR MRLM NIL=
200503221200 METAR MRLM NIL=
200503221300 METAR MRLM 221300Z 20005KT 9999 DZ FEW015 OVC090 23/21 A2983=
200503221400 METAR MRLM 221400Z 21004KT 9999 FEW045 BKN120 24/22 A2984=
200503221500 METAR MRLM 221500Z 00000KT 9999 FEW028 27/22 A2986=
200503221600 METAR MRLM 221600Z 09005KT 9999 FEW030 28/22 A2986 RMK HZY=
200503221700 METAR MRLM NIL=
200503221800 METAR MRLM 221800Z 07004KT 9999 FEW030 29/23 A2983 RMK HZY=
200503221900 METAR MRLM 221900Z 05006KT 9999 FEW035 SCT270 29/22 A2980=
200503222000 METAR MRLM NIL=
200503222100 METAR MRLM 222100Z 02004KT 9999 FEW029 29/23 A2977 RMK LEVE HZY=
200503222200 METAR MRLM 222200Z 03005KT 9999 SCT025 29/23 A2977=
200503222300 METAR MRLM 222300Z 05004KT 9999 BKN025 SCT270 28/23 A2978=
200503230000 METAR MRLM 230000Z VRB03KT 9999 FEW025 BKN120 28/23 A2978=
200503230100 METAR MRLM NIL=
200503230200 METAR MRLM NIL=
200503230300 METAR MRLM NIL=
200503230400 METAR MRLM NIL=
200503230500 METAR MRLM NIL=
200503230600 METAR MRLM NIL=
200503230700 METAR MRLM NIL=
200503230800 METAR MRLM NIL=
200503230900 METAR MRLM NIL=
200503231000 METAR MRLM NIL=
200503231100 METAR MRLM NIL=
200503231200 METAR MRLM 231200Z 19004KT 3000 -RA BKN022 SCT080 23/22 A2982=
200503231300 METAR MRLM 231300Z 16003KT 5000 DZ BKN024 SCT080 23/22 A2984 RMK RN ARND=
200503231400 METAR MRLM 231400Z 20004KT 9999 SCT024 BKN040 24/22 A2986 REDZ RMK RN ARND=
200503231500 METAR MRLM 231500Z 23003KT 9999 BKN035 SCT080 25/24 A2987 RMK RN DST ARND=
200503231600 METAR MRLM 231600Z 00000KT 9999 FEW030 SCT090 BKN250 28/23 A2987=
200503231700 METAR MRLM 231700Z 07003KT 9999 FEW025 BKN250 28/23 A2987=
200503231800 METAR MRLM 231800Z 06004KT 9999 FEW025 BKN250 29/24 A2985=
200503231900 METAR MRLM 231900Z 04006KT 9999 FEW025 SCT250 29/24 A2983=
200503232000 METAR MRLM NIL=
200503232100 METAR MRLM 232100Z 03006KT 9999 BKN026 29/24 A2978=
200503232200 METAR MRLM 232200Z 01004KT 9999 BKN026 28/24 A2978=
200503232300 METAR MRLM 232300Z 00000KT 9999 FEW026 BKN240 28/23 A2978=
200503240000 METAR MRLM 240000Z 00000KT 9999 FEW014 BKN024 27/23 A2979=
200503240100 METAR MRLM NIL=
200503240200 METAR MRLM NIL=
200503240300 METAR MRLM NIL=
200503240400 METAR MRLM NIL=
200503240500 METAR MRLM NIL=
200503240600 METAR MRLM NIL=
200503240700 METAR MRLM NIL=
200503240800 METAR MRLM NIL=
200503240900 METAR MRLM NIL=
200503241000 METAR MRLM NIL=
200503241100 METAR MRLM NIL=
200503241200 METAR MRLM NIL=
200503241300 METAR MRLM 241300Z 21003KT 9999 FEW030 BKN080 23/22 A2989=
200503241400 METAR MRLM 241400Z 00000KT 9999 SCT030 BKN080 25/23 A2991=
200503241500 METAR MRLM 241500Z 00000KT 9999 FEW028 BKN080 27/24 A2992=
200503241600 METAR MRLM 241600Z 05003KT 9999 FEW025 SCT090 28/23 A2991=
200503241700 METAR MRLM 241700Z 04005KT 9999 FEW025 SCT100 BKN250 29/23 A2990=
200503241800 METAR MRLM 241800Z 03005KT 9999 FEW024 SCT100 BKN250 29/23 A2988=
200503241900 METAR MRLM 241900Z 03005KT 9999 FEW024 BKN250 29/24 A2986=
200503242000 METAR MRLM NIL=
200503242100 METAR MRLM 242100Z 03004KT 9999 FEW024 BKN250 29/24 A2980=
200503242200 METAR MRLM 242200Z 02005KT 9999 FEW025 SCT090 BKN250 29/23 A2980=
200503242300 METAR MRLM 242300Z 01005KT 9999 FEW025 BKN250 28/23 A2980=
200503250000 METAR MRLM 250000Z 31003KT 9999 FEW025 BKN250 28/23 A2982=
200503250100 METAR MRLM NIL=
200503250200 METAR MRLM NIL=
200503250300 METAR MRLM NIL=
200503250400 METAR MRLM NIL=
200503250500 METAR MRLM NIL=
200503250600 METAR MRLM NIL=
200503250700 METAR MRLM NIL=
200503250800 METAR MRLM NIL=
200503250900 METAR MRLM NIL=
200503251000 METAR MRLM NIL=
200503251100 METAR MRLM NIL=
200503251200 METAR MRLM NIL=
200503251300 METAR MRLM 251300Z 21005KT 9999 SKC 24/22 A2986=
200503251400 METAR MRLM 251400Z 00000KT CAVOK 27/23 A2988=
200503251500 METAR MRLM 251500Z 32006KT 9999 FEW032 30/23 A2989=
200503251600 METAR MRLM 251600Z 35009KT 9999 FEW030 BKN110 29/23 A2990=
200503251700 METAR MRLM 251700Z 36008KT 9999 FEW027 BKN090 30/24 A2989=
200503251900 METAR MRLM 251900Z 01005KT 9999 FEW026 BKN080 29/24 A2983=
200503252000 METAR MRLM NIL=
200503252100 METAR MRLM 252100Z 02008KT 9999 OVC025 29/24 A2978=
200503252200 METAR MRLM 252200Z 04009KT 9999 OVC025 29/24 A2978=
200503252300 METAR MRLM 252300Z 04006KT 9999 BKN025 28/23 A2978=
200503260000 METAR MRLM 260000Z 06006KT 9999 BKN020 28/24 A2979=
200503260100 METAR MRLM NIL=
200503260200 METAR MRLM NIL=
200503260300 METAR MRLM NIL=
200503260400 METAR MRLM NIL=
200503260500 METAR MRLM NIL=
200503260600 METAR MRLM NIL=
200503260700 METAR MRLM NIL=
200503260800 METAR MRLM NIL=
200503260900 METAR MRLM NIL=
200503261000 METAR MRLM NIL=
200503261100 METAR MRLM NIL=
200503261200 METAR MRLM NIL=
200503261300 METAR MRLM 261300Z 04004KT 9999 BKN017 26/23 A2984=
200503261400 METAR MRLM 261400Z 00000KT 9999 OVC015 26/23 A2985=
200503261500 METAR MRLM 261500Z VRB03KT 9999 OVC025 28/23 A2986=
200503261600 METAR MRLM 261600Z 05006KT 9999 BKN032 29/22 A2987=
200503261700 METAR MRLM 261700Z 04007KT 9999 SCT032 SCT070 29/22 A2985=
200503261800 METAR MRLM NIL=
200503261900 METAR MRLM NIL=
200503262000 METAR MRLM NIL=
200503262100 METAR MRLM 262100Z 05010KT 9999 OVC030 29/23 A2976=
200503262300 METAR MRLM 262300Z 06008KT 9999 BKN024 28/23 A2976=
200503270000 METAR MRLM 270000Z 28007KT 9999 BKN023 27/23 A2978=
200503270100 METAR MRLM NIL=
200503270200 METAR MRLM NIL=
200503270300 METAR MRLM NIL=
200503270400 METAR MRLM NIL=
200503270500 METAR MRLM NIL=
200503270600 METAR MRLM NIL=
200503270700 METAR MRLM NIL=
200503270800 METAR MRLM NIL=
200503270900 METAR MRLM NIL=
200503271000 METAR MRLM NIL=
200503271100 METAR MRLM NIL=
200503271200 METAR MRLM NIL=
200503271300 METAR MRLM 271300Z 21003KT 9999 FEW030 BKN250 24/22 A2982 RMK HZY=
200503271400 METAR MRLM 271400Z 20003KT 9999 FEW028 BKN090 28/22 A2984=
200503271500 METAR MRLM 271500Z 11005KT 9999 FEW025 BKN25O 29/22 A2984 RMK HZY=
200503271600 METAR MRLM 271600Z 07008KT 9999 FEW024 SCT090 29/23 A2984 RMK RN DST NW HZY=
200503271700 METAR MRLM 271700Z 07010KT 9999 FEW025 BKN090 30/23 A2984 RMK RN DST N NE HZY=
200503271800 METAR MRLM 271800Z 06011KT 9999 FEW025 BKN090 28/23 A2982 RMK RN DST NNE HZY=
200503271900 METAR MRLM 271900Z 06009KT 9999 FEW025 SCT090 29/23 A2979 RMK HZY=
200503272000 METAR MRLM NIL=
200503272100 METAR MRLM 272100Z 05008KT 9999 FEW025 SCT090 29/23 A2975=
200503272200 METAR MRLM 272200Z 07006KT 9999 FEW025 SCT250 28/24 A2975=
200503272300 METAR MRLM 272300Z 09005KT 9999 FEW025 BKN090 28/24 A2975=
200503280000 METAR MRLM 280000Z 07004KT 9999 FEW024 SCT080 28/24 A2977=
200503280100 METAR MRLM NIL=
200503280200 METAR MRLM NIL=
200503280300 METAR MRLM NIL=
200503280400 METAR MRLM NIL=
200503280500 METAR MRLM NIL=
200503280600 METAR MRLM NIL=
200503280700 METAR MRLM NIL=
200503280800 METAR MRLM NIL=
200503280900 METAR MRLM NIL=
200503281000 METAR MRLM NIL=
200503281100 METAR MRLM NIL=
200503281200 METAR MRLM NIL=
200503281300 METAR MRLM 281300Z 22003KT 9999 BKN028 SCT080 23/22 A2984 RMK RN DST E SE=
200503281400 METAR MRLM 281400Z 20004KT 9999 3000SE -RA BKN025 SCT080 23/22 A2987=
200503281500 METAR MRLM 281500Z 20003KT 8000 DZ BKN025 SCT080 24/23 A2988 RERA=
200503281600 METAR MRLM 281600Z 20006KT 9999 SCT025 BKN090 25/23 A2987 REDZ RMK TCU RN DST NE=
200503281700 METAR MRLM 281700Z 17004KT 9999 FEW025 BKN090 28/23 A2986 RMK TCU RN DST NW SW SE=
200503281800 METAR MRLM 281800Z 08007KT 8000 +DZ FEW024TCU BKN030 26/23 A2984=
200503281900 METAR MRLM 281900Z 35005KT 9999 FEW015TCU BKN024 26/23 A2983 RERA=
200503282000 METAR MRLM NIL=
200503282100 METAR MRLM 282100Z 24005KT 9999 FEW020 BKN100 27/23 A2976=
200503282200 METAR MRLM 282200Z 24003KT 9999 FEW025 SCT100 BKN250 27/23 A2976=
200503282300 METAR MRLM 282300Z 00000KT 9999 FEW025 BKN250 27/23 A2977=
200503290000 METAR MRLM 290000Z 00000KT 9999 FEW026 SCT100 BKN250 25/23 A2979=
200503290100 METAR MRLM NIL=
200503290200 METAR MRLM NIL=
200503290300 METAR MRLM NIL=
200503290400 METAR MRLM NIL=
200503290500 METAR MRLM NIL=
200503290600 METAR MRLM NIL=
200503290700 METAR MRLM NIL=
200503290800 METAR MRLM NIL=
200503290900 METAR MRLM NIL=
200503291000 METAR MRLM NIL=
200503291100 METAR MRLM NIL=
200503291200 METAR MRLM NIL=
200503291300 METAR MRLM 291300Z 00000KT 9999 BKN010 SCT080 23/21 A2985=
200503291400 METAR MRLM 291400Z 00000KT 9999 BKN015 SCT090 23/21 A2989=
200503291500 METAR MRLM 291500Z 00000KT 9999 DZ FEW010 BKN250 25/17 A3006=
200503291600 METAR MRLM 291600Z 21004KT 9999 +DZ OVC012 24/22 A2990=
200503291700 METAR MRLM NIL=
200503291800 METAR MRLM 291800Z 00000KT 9999 SCT018 SCT100 28/24 A2988=
200503291900 METAR MRLM 291900Z 11006KT 9999 SCT026 BKN280 28/23 A2985=
200503292000 METAR MRLM NIL=
200503292100 METAR MRLM 292100Z 21004KT 9999 FEW024 SCT110 28/23 A2981=
200503292200 METAR MRLM 292200Z 09008KT 9999 SCT023 SCT110 28/23 A2981=
200503292300 METAR MRLM NIL=
200503300000 METAR MRLM NIL=
200503300100 METAR MRLM NIL=
200503300200 METAR MRLM NIL=
200503300300 METAR MRLM NIL=
200503300400 METAR MRLM NIL=
200503300500 METAR MRLM NIL=
200503300600 METAR MRLM NIL=
200503300700 METAR MRLM NIL=
200503300800 METAR MRLM NIL=
200503300900 METAR MRLM NIL=
200503301000 METAR MRLM NIL=
200503301100 METAR MRLM NIL=
200503301200 METAR MRLM NIL=
200503301300 METAR MRLM 301300Z 20004KT 9999 FEW015 BKN280 24/22 A2989=
200503301400 METAR MRLM 301400Z 00000KT 9999 FEW020 BKN280 27/23 A2992=
200503301500 METAR MRLM 301500Z 08005KT 9999 SCT024 SCT280 28/23 A2992=
200503301600 METAR MRLM 301600Z 06006KT 9999 FEW028 SCT280 28/23 A2992=
200503301700 METAR MRLM 301700Z 11006KT 9999 FEW030 SCT280 28/22 A2991=
200503301800 METAR MRLM 301800Z 09006KT 9999 FEW032 SCT300 29/22 A2988=
200503301900 METAR MRLM 301900Z 09005KT 9999 FEW032 BKN300 28/22 A2985=
200503302000 METAR MRLM NIL=
200503302100 METAR MRLM 302100Z 08007KT 9999 FEW030 BKN300 29/22 A2981=
200503302200 METAR MRLM 302200Z 07006KT 9999 FEW030 BKN300 28/22 A2979=
200503302300 METAR MRLM 302300Z 06005KT 9999 SCT028 BKN300 28/22 A2980=
200503310000 METAR MRLM 310000Z 07006KT 9999 SCT024 SCT300 27/23 A2981=
200503310100 METAR MRLM NIL=
200503310200 METAR MRLM NIL=
200503310300 METAR MRLM NIL=
200503310400 METAR MRLM NIL=
200503310500 METAR MRLM NIL=
200503310600 METAR MRLM NIL=
200503310700 METAR MRLM NIL=
200503310800 METAR MRLM NIL=
200503310900 METAR MRLM NIL=
200503311000 METAR MRLM NIL=
200503311100 METAR MRLM NIL=
200503311200 METAR MRLM NIL=
200503311300 METAR MRLM 311300Z 20005KT 9999 FEW025 23/20 A2986=
200503311400 METAR MRLM 311400Z 19004KT 9999 FEW025 26/21 A2989=
200503311500 METAR MRLM 311500Z 11007KT 9999 FEW035 28/22 A2990=
200503311600 METAR MRLM 311600Z 09008KT 9999 SCT025 29/22 A2990=
200503311700 METAR MRLM 311700Z 08007KT 9999 FEW030 29/22 A2988=
200503311800 METAR MRLM 311800Z 08007KT 9999 FEW030 29/22 A2985=
200503311900 METAR MRLM 311900Z 06007KT 9999 FEW030 29/22 A2982=
200503312000 METAR MRLM NIL=
200503312100 METAR MRLM 312100Z 27006KT 9999 FEW030 29/26 A2978=
200503312200 METAR MRLM 312200Z 06006KT 9999 FEW030 28/22 A2978=
200503312300 METAR MRLM 312300Z 07006KT 9999 SCT028 28/22 A2978=
200504010000 METAR MRLM NIL=
200504010100 METAR MRLM NIL=
200504010200 METAR MRLM NIL=
200504010300 METAR MRLM NIL=
200504010400 METAR MRLM NIL=
200504010500 METAR MRLM NIL=
200504010600 METAR MRLM NIL=
200504010700 METAR MRLM NIL=
200504010800 METAR MRLM NIL=
200504010900 METAR MRLM NIL=
200504011000 METAR MRLM NIL=
200504011100 METAR MRLM NIL=
200504011200 METAR MRLM NIL=
200504011300 METAR MRLM NIL=
200504011400 METAR MRLM NIL=
200504011500 METAR MRLM 011500Z 23004KT 9999 SCT028 BKN080 25/22 A2989=
200504011600 METAR MRLM 011600Z 19004KT 9999 SCT028 BKN080 26/23 A2989=
200504011700 METAR MRLM 011700Z 19004KT 9999 SCT028 BKN080 26/23 A2989=
200504011800 METAR MRLM 011800Z 00000KT 9999 SCT028 BKN080 29/22 A2985=
200504011900 METAR MRLM 011900Z 14003KT 9999 FEW028 BKN090 29/22 A2982=
200504012000 METAR MRLM NIL=
200504012100 METAR MRLM 012100Z 06004KT 9999 FEW028 BKN090 28/22 A2979=
200504012200 METAR MRLM NIL=
200504012300 METAR MRLM 012300Z 08011KT 9999 SCT025 SCT080 27/23 A2978 RMK RN DST ARND=
200504020000 METAR MRLM 020000Z 07008KT 9999 SCT024 BKN080 27/22 A2979 RMK RN DST ARND=
200504020100 METAR MRLM NIL=
200504020200 METAR MRLM NIL=
200504020300 METAR MRLM NIL=
200504020400 METAR MRLM NIL=
200504020500 METAR MRLM NIL=
200504020600 METAR MRLM NIL=
200504020700 METAR MRLM NIL=
200504020800 METAR MRLM NIL=
200504020900 METAR MRLM NIL=
200504021000 METAR MRLM NIL=
200504021100 METAR MRLM NIL=
200504021200 METAR MRLM NIL=
200504021300 METAR MRLM NIL=
200504021400 METAR MRLM 021400Z VBR03KT 9999 FEW028 SCT120 28/22 A2988=
200504021500 METAR MRLM 021500Z VRB03KT 9999 FEW028 28/23 A2988=
200504021600 METAR MRLM NIL=
200504021700 METAR MRLM NIL=
200504021800 METAR MRLM 021800Z 04010KT 9999 FEW030 SCT140 29/24 A2986 RMK HZ LGT ARND=
200504021900 METAR MRLM 021900Z 04009KT 9999 FEW030 SCT110 29/24 A2986 RMK HZ ARND=
200504022000 METAR MRLM 022000Z 04009KT 9999 BKN030 29/23 A2981 RMK HZ ARND=
200504022100 METAR MRLM 022100Z 04007KT 9999 BKN031 29/23 A2979=
200504022200 METAR MRLM 022200Z 05007KT 9999 BKN030 SCT280 29/23 A2980=
200504022300 METAR MRLM 022300Z 04004KT 9999 FEW028 SCT150 BKN280 28/22 A2981=
200504030000 METAR MRLM 030000Z VRB03KT 9999 FEW030 SCT150 BKN280 28/22 A2982=
200504030100 METAR MRLM NIL=
200504030200 METAR MRLM NIL=
200504030300 METAR MRLM NIL=
200504030400 METAR MRLM NIL=
200504030500 METAR MRLM NIL=
200504030600 METAR MRLM NIL=
200504030700 METAR MRLM NIL=
200504030800 METAR MRLM NIL=
200504030900 METAR MRLM NIL=
200504031000 METAR MRLM NIL=
200504031100 METAR MRLM NIL=
200504031200 METAR MRLM NIL=
200504031300 METAR MRLM 031300Z 22004KT 9999 FEW015 SCT090 BKN280 22/20 A2991=
200504031400 METAR MRLM 031400Z VRB03KT CAVOK 27/22 A2994=
200504031500 METAR MRLM 031500Z 00000KT 9999 FEW030 SCT280 29/23 A2995=
200504031600 METAR MRLM 031600Z VRB03KT 9999 FEW030 SCT280 29/23 A2995=
200504031700 METAR MRLM 031700Z 01005KT 9999 FEW030 SCT280 29/23 A2993=
200504031800 METAR MRLM 031800Z 02008KT 9999 FEW028 BKN280 29/23 A2990=
200504031900 METAR MRLM 031900Z 02010KT 9999 FEW033 BKN280 30/23 A2988=
200504032100 METAR MRLM 032100Z 02007KT 9999 FEW037 29/22 A2985=
200504032200 METAR MRLM 032200Z 01005KT 9999 BKN032 29/22 A2985=
200504032300 METAR MRLM 032300Z 03005KT 9999 BKN092 28/22 A2985=
200504040000 METAR MRLM 040000Z 03004KT 9999 BKN028 28/22 A2986=
200504040100 METAR MRLM NIL=
200504040200 METAR MRLM NIL=
200504040300 METAR MRLM NIL=
200504040400 METAR MRLM NIL=
200504040500 METAR MRLM NIL=
200504040600 METAR MRLM NIL=
200504040700 METAR MRLM NIL=
200504040800 METAR MRLM NIL=
200504040900 METAR MRLM NIL=
200504041000 METAR MRLM NIL=
200504041100 METAR MRLM NIL=
200504041200 METAR MRLM NIL=
200504041300 METAR MRLM 041300Z 22004KT 9999 SCT030 SCT080 22/21 A2988=
200504041600 METAR MRLM 041600Z 23003KT 9999 SCT030 BKN090 25/23 A2992 RERA=
200504041700 METAR MRLM 041700Z 00000KT 9999 FEW025 BKN090 28/22 A2991=
200504041900 METAR MRLM 041900Z 01004KT 9999 FEW025 29/22 A2988=
200504042100 METAR MRLM 042100Z 35006KT 9999 FEW025 OVC090 28/21 A2980=
200504042200 METAR MRLM 042200Z 00000KT 9999 FEW025 OVC090 28/20 A2979=
200504042300 METAR MRLM 042300Z 32006KT 9999 FEW030 OVC090 28/21 A2979=
200504050000 METAR MRLM 050000Z 00000KT 9999 FEW028 BKN080 27/22 A2981=
200504050100 METAR MRLM NIL=
200504050200 METAR MRLM NIL=
200504050300 METAR MRLM NIL=
200504050400 METAR MRLM NIL=
200504050500 METAR MRLM NIL=
200504050600 METAR MRLM NIL=
200504050700 METAR MRLM NIL=
200504050800 METAR MRLM NIL=
200504050900 METAR MRLM NIL=
200504051000 METAR MRLM NIL=
200504051100 METAR MRLM NIL=
200504051200 METAR MRLM 051200Z 05006KT 9999 FEW024 BKN050 23/21 A2985=
200504051300 METAR MRLM 051300Z 22003KT 9999 BKN028 SCT080 23/21 A2986=
200504051400 METAR MRLM 051400Z 20005KT 9999 BKN030 24/22 A2989=
200504051500 METAR MRLM 051500Z 20006KT 9999 BKN030 SCT080 25/22 A2990=
200504051600 METAR MRLM 051600Z 20005KT 9999 BKN030 SCT080 27/22 A2989=
200504051700 METAR MRLM 051700Z 00000KT 9999 BKN030 SCT080 28/23 A2988=
200504051800 METAR MRLM 051800Z 00000KT 9999 FEW025 SCT045 BKN090 29/23 A2985=
200504051900 METAR MRLM 051900Z 34007KT 9999 SCT030 BKN080 27/23 A2983=
200504052000 METAR MRLM NIL=
200504052100 METAR MRLM 052100Z 33005KT 4000 -RA SCT025 BKN035 24/22 A2979=
200504052200 METAR MRLM 052200Z 00000KT 6000 -DZ BKN030 SCT080 24/22 A2978 RERA=
200504052300 METAR MRLM NIL=
200504060000 METAR MRLM NIL=
200504060100 METAR MRLM NIL=
200504060200 METAR MRLM NIL=
200504060300 METAR MRLM NIL=
200504060400 METAR MRLM NIL=
200504060500 METAR MRLM NIL=
200504060600 METAR MRLM NIL=
200504060700 METAR MRLM NIL=
200504060800 METAR MRLM NIL=
200504060900 METAR MRLM NIL=
200504061000 METAR MRLM NIL=
200504061100 METAR MRLM NIL=
200504061200 METAR MRLM NIL=
200504061300 METAR MRLM NIL=
200504061400 METAR MRLM NIL=
200504061500 METAR MRLM 061500Z VRB03KT 9999 FEW014 OVC090 25/22 A2989=
200504061600 METAR MRLM 061600Z 23004KT 9999 BKN018 SCT100 26/23 A2989=
200504061700 METAR MRLM 061700Z VRB03KT 9999 FEW016 BKN120 27/24 A2988=
200504061800 METAR MRLM 061800Z VRB03KT 9999 FEW028 BKN100 29/23 A2986=
200504061900 METAR MRLM 061900Z 00000KT 9999 FEW027 BKN090 28/23 A2982=
200504062000 METAR MRLM NIL=
200504062100 METAR MRLM 062100Z 00000KT 9999 FEW023 BKN110 OVC160 28/23 A2979 RMK RN DST N/NE/E/S=
200504062200 METAR MRLM 062200Z 02020KT 5000 RA FEW005 BKN015 25/23 A2981 RMK VIS 9999 S/SW/W=
200504062300 METAR MRLM 062300Z VRB03KT 8000 -RA BKN040 SCT100 24/22 A2981=
200504070000 METAR MRLM NIL=
200504070100 METAR MRLM NIL=
200504070200 METAR MRLM NIL=
200504070300 METAR MRLM NIL=
200504070400 METAR MRLM NIL=
200504070500 METAR MRLM NIL=
200504070600 METAR MRLM NIL=
200504070700 METAR MRLM NIL=
200504070800 METAR MRLM NIL=
200504070900 METAR MRLM NIL=
200504071000 METAR MRLM NIL=
200504071100 METAR MRLM NIL=
200504071200 METAR MRLM NIL=
200504071300 METAR MRLM 071300Z 00000KT 9999 SCT025 BKN100 23/22 A2985 RMK RN N/E DZ W=
200504071400 METAR MRLM 071400Z 34012KT 3000 RA SCT009 SCT020 24/23 A2991 RMK VIS 9999 SW/W=
200504071500 METAR MRLM 071500Z 28004KT 2000 +RA FEW004 BKN015 23/23 A2991=
200504071600 METAR MRLM 071600Z VRB03KT 6000 TSRA FEW010CB SCT015 OVC100 23/22 A2990 RMK TS DST E=
200504071700 METAR MRLM 071700Z VRB03KT 9999 -RA NKN015 SCT100 23/22 A2989 RMK RN DST SSE HZ LGT ARND=
200504071800 METAR MRLM 071800Z VRB03KT 9999 RA FEW012 BKN030 OVC100 24/23 A2987 RMK CB DST RN NW/E/SE HZ ARND=
200504071900 METAR MRLM 071900Z 26004KT 9999 DZ FEW010 BKN020 OVC120 24/24 A2984 RMK CB/RN DST N/E=
200504072000 METAR MRLM NIL=
200504072100 METAR MRLM 072100Z 00000KT 9999 FEW013 BKN120 27/24 A2978=
200504072200 METAR MRLM 072200Z 04016KT 8000 DZ FEW002 OVC015 25/23 A2980=
200504072300 METAR MRLM 072300Z 08007KT 5000 -RA SCT006 BKN012 24/23 A2981 RETS=
200504080000 METAR MRLM 080000Z 09008KT 3000 -TSRA SCT015CB BKN012 24/23 A2983=
200504080100 METAR MRLM NIL=
200504080200 METAR MRLM NIL=
200504080300 METAR MRLM NIL=
200504080400 METAR MRLM NIL=
200504080500 METAR MRLM NIL=
200504080600 METAR MRLM NIL=
200504080700 METAR MRLM NIL=
200504080800 METAR MRLM NIL=
200504080900 METAR MRLM NIL=
200504081000 METAR MRLM NIL=
200504081100 METAR MRLM NIL=
200504081200 METAR MRLM 081200Z 20003KT 4000 TSRA FEW020CB BKN026 23/22 A2981=
200504081300 METAR MRLM 081300Z 20006KT 9999 +DZ OVC035 23/22 A2984 RETS=
200504081400 METAR MRLM 081400Z 23003KT 9999 BKN030 SCT080 24/23 A2985=
200504081500 METAR MRLM 081500Z 29003KT 9999 DZ BKN030 SCT080 25/23 A2985=
200504081600 METAR MRLM 081600Z 32005KT 95000 S000NE RA SCT015 BKN024 24/23 A2986=
200504081700 METAR MRLM 081700Z 26004KT 4000 RA SCT015 BKN028 24/23 A2985=
200504081800 METAR MRLM 081800Z 00000KT 5000 RA SCT024 SCT080 24/23 A2983=
200504081900 METAR MRLM 081900Z 27003KT 5000 -RA SCT024 SCT080 24/23 A2981=
200504082000 METAR MRLM NIL=
200504082200 METAR MRLM 082200Z 00000KT 9999 SCT030 BKN090 25/24 A2975=
200504082300 METAR MRLM 082300Z 00000KT 9999 SCT030 BKN090 25/24 A2975=
200504090000 METAR MRLM NIL=
200504090100 METAR MRLM NIL=
200504090200 METAR MRLM NIL=
200504090300 METAR MRLM NIL=
200504090400 METAR MRLM NIL=
200504090500 METAR MRLM NIL=
200504090600 METAR MRLM NIL=
200504090700 METAR MRLM NIL=
200504090800 METAR MRLM NIL=
200504090900 METAR MRLM NIL=
200504091000 METAR MRLM NIL=
200504091100 METAR MRLM NIL=
200504091200 METAR MRLM 091200Z 20007KT 9999 SCT035 SCT080 23/22 A2981 RMK RN DST ARND=
200504091400 METAR MRLM 091400Z 00000KT 9999 DZ BKN026 SCT080 24/22 A2986=
200504091500 METAR MRLM 091500Z 19006KT 9999 3000N -DZ BKN026 SCT080 24/22 A2988=
200504091600 METAR MRLM 091600Z 18004KT 9999 DZ BKN024 24/23 A2987=
200504091700 METAR MRLM 091700Z 21005KT 9999 SCT030 SCT080 25/23 A2986=
200504091800 METAR MRLM 091800Z 22007KT 9999 SCT024 SCT080 26/23 A2984=
200504091900 METAR MRLM 091900Z 25003KT 9999 FEW024 SCT090 27/23 A2980=
200504092100 METAR MRLM 092100Z 00000KT 9999 FEW024 SCT090 28/23 A2975=
200504092200 METAR MRLM 092200Z 00000KT 9999 FEW024 SCT090 28/23 A2975=
200504092300 METAR MRLM NIL=
200504100000 METAR MRLM 100000Z 00000KT 9999 FEW024 BKN090 25/23 A2977=
200504100100 METAR MRLM NIL=
200504100200 METAR MRLM NIL=
200504100300 METAR MRLM NIL=
200504100400 METAR MRLM NIL=
200504100500 METAR MRLM NIL=
200504100600 METAR MRLM NIL=
200504100700 METAR MRLM NIL=
200504100800 METAR MRLM NIL=
200504100900 METAR MRLM NIL=
200504101000 METAR MRLM NIL=
200504101100 METAR MRLM NIL=
200504101200 METAR MRLM NIL=
200504101300 METAR MRLM 101300Z 00000KT 9999 BKN012 SCT090 24/22 A2981=
200504101400 METAR MRLM 101400Z 00000KT 9999 FEW010 OVC100 25/23 A2984=
200504101500 METAR MRLM 101500Z 31004KT 9999 BKN020 SCT100 27/23 A2983=
200504101600 METAR MRLM 101600Z 35004KT 9999 FEW023 OVC100 27/23 A2983=
200504101700 METAR MRLM NIL=
200504101800 METAR MRLM 101800Z 35008KT 9999 FEW025 SCT090 BKN120 28/23 A2980=
200504101900 METAR MRLM 101900Z 35011KT 9999 FEW023 SCT090 BLN120 27/23 A2977=
200504102000 METAR MRLM NIL=
200504102100 METAR MRLM 102100Z 33011KT 9999 BKN015 SCT090 26/23 A2975=
200504102200 METAR MRLM 102200Z 30007KT 9999 BKN014 26/23 A2973=
200504102300 METAR MRLM 102300Z 27004KT 9999 BKN012 SCT100 25/23 A2974=
200504110000 METAR MRLM 110000Z 35006KT 9999 FEW012 SCT080 BKN110 25/23 A2975=
200504110100 METAR MRLM NIL=
200504110200 METAR MRLM NIL=
200504110300 METAR MRLM NIL=
200504110400 METAR MRLM NIL=
200504110500 METAR MRLM NIL=
200504110600 METAR MRLM NIL=
200504110700 METAR MRLM NIL=
200504110800 METAR MRLM NIL=
200504110900 METAR MRLM NIL=
200504111000 METAR MRLM NIL=
200504111100 METAR MRLM NIL=
200504111200 METAR MRLM NIL=
200504111300 METAR MRLM 111300Z 00000KT CAVOK 25/23 A2980=
200504111400 METAR MRLM 111400Z 00000KT 9999 FEW020 SCT090 BKN110 26/23 A2982=
200504111500 METAR MRLM 111500Z 00000KT 9999 FEW022 BKN110 28/23 A2983=
200504111600 METAR MRLM 111600Z VRB03KT 9999 SCT030 SCT280 29/23 A2983=
200504111700 METAR MRLM 111700Z 35007KT 9999 SCT020 SCT110 28/24 A2981=
200504111800 METAR MRLM 111800Z 01008KT 9999 FEW020TCU BKN280 28/24 A2978=
200504111900 METAR MRLM NIL=
200504112000 METAR MRLM NIL=
200504112100 METAR MRLM 112100Z 02005KT 9999 FEW026 OVC270 28/25 HZ ARND=
200504112200 METAR MRLM 112200Z 04004KT 9999 FEW025 OVC270 29/24 A2971 RMK HZ ANRD=
200504112300 METAR MRLM 112300Z 05005KT 9999 FEW023 SCT110 BKN260 28/23 A2972 RMK HZ ARND=
200504120000 METAR MRLM 120000Z VRB03KT CAVOK 28/24 A2973 RMK SCT100 BKN260 HZ ARND=
200504120100 METAR MRLM NIL=
200504120200 METAR MRLM NIL=
200504120300 METAR MRLM NIL=
200504120400 METAR MRLM NIL=
200504120500 METAR MRLM NIL=
200504120600 METAR MRLM NIL=
200504120700 METAR MRLM NIL=
200504120800 METAR MRLM NIL=
200504120900 METAR MRLM NIL=
200504121000 METAR MRLM NIL=
200504121100 METAR MRLM NIL=
200504121200 METAR MRLM 121200Z 20004KT 9999 SCT045 BKN080 23/22 A2976=
200504121300 METAR MRLM NIL=
200504121400 METAR MRLM 121400Z 00000KT CAVOK 27/23 A2981 RMK SCT100 BKN260=
200504121500 METAR MRLM 121500Z 05003KT 9999 FEW030 BKN260 28/23 A2981=
200504121600 METAR MRLM 121600Z 06005KT 9999 FEW025 BKN260 29/23 A2981=
200504121700 METAR MRLM 121700Z 07006KT 9999 FEW025 BKN260 29/23 A2979=
200504121800 METAR MRLM 121800Z 06007KT 9999 FEW025 BKN260 29/25 A2978=
200504121900 METAR MRLM 121900Z 06007KT 9999 FEW025 BKN260 29/24 A2976=
200504122000 METAR MRLM NIL=
200504122100 METAR MRLM 122100Z 08005KT 9999 SCT025 BKN260 29/23 A2971=
200504122200 METAR MRLM 122200Z 08004KT 9999 FEW025 BKN260 29/24 A2971=
200504122300 METAR MRLM 122300Z 07003KT 9999 FEW025 BKN260 28/24 A2972=
200504130000 METAR MRLM 130000Z 00000KT 9999 SCT025 SCT260 27/24 A2973=
200504130100 METAR MRLM NIL=
200504130200 METAR MRLM NIL=
200504130300 METAR MRLM NIL=
200504130400 METAR MRLM NIL=
200504130500 METAR MRLM NIL=
200504130600 METAR MRLM NIL=
200504130700 METAR MRLM NIL=
200504130800 METAR MRLM NIL=
200504130900 METAR MRLM NIL=
200504131000 METAR MRLM NIL=
200504131100 METAR MRLM NIL=
200504131200 METAR MRLM 131200Z 21003KT 9999 FEW024 OVC280 23/21 A2976=
200504131300 METAR MRLM 131300Z 20003KT 9999 FEW025 BKN280 25/23 A2981=
200504131400 METAR MRLM 131400Z 00000KT 9999 FEW025 SCT280 29/23 A2981=
200504131500 METAR MRLM 131500Z 09003KT 9999 FEW025 BKN280 28/23 A2982=
200504131600 METAR MRLM 131600Z 06003KT 9999 FEW025 BKN280 29/24 A2982=
200504131700 METAR MRLM 131700Z 04005KT 9999 SCT025 29/24 A2981=
200504131800 METAR MRLM 131800Z 04008KT 9999 SCT025 30/24 A2978=
200504131900 METAR MRLM NIL=
200504132000 METAR MRLM NIL=
200504132100 METAR MRLM 132100Z 04008KT 9999 SCT025 30/24 A2972=
200504132200 METAR MRLM 132200Z 06005KT 9999 BKN025 29/24 A2972=
200504132300 METAR MRLM 132300Z 07007KT 9999 BKN025 28/24 A2973=
200504140000 METAR MRLM 140000Z 07005KT 9999 SCT025 SCT250 28/23 A2974=
200504140100 METAR MRLM NIL=
200504140200 METAR MRLM NIL=
200504140300 METAR MRLM NIL=
200504140400 METAR MRLM NIL=
200504140500 METAR MRLM NIL=
200504140600 METAR MRLM NIL=
200504140700 METAR MRLM NIL=
200504140800 METAR MRLM NIL=
200504140900 METAR MRLM NIL=
200504141000 METAR MRLM NIL=
200504141100 METAR MRLM NIL=
200504141200 METAR MRLM NIL=
200504141300 METAR MRLM NIL=
200504141400 METAR MRLM 141400Z 25004KT 9999 BKN013 24/23 A2982=
200504141500 METAR MRLM 141500Z 20006KT 9999 BKN010 SCT090 26/25 A2984=
200504141600 METAR MRLM 141600Z 00000KT 9999 BKN018 SCT090 28/24 A2984=
200504141700 METAR MRLM 141700Z 00000KT 9999 FEW026 BKN100 29/24 A2983=
200504141800 METAR MRLM NIL=
200504141900 METAR MRLM 141900Z 03005KT 9999 FEW028 BKN280 29/24 A2977=
200504142000 METAR MRLM NIL=
200504142100 METAR MRLM 142100Z 02004KT 9999 FEW027 BKN280 25/17 A2991=
200504142200 METAR MRLM 142200Z 36005KT 9999 FEW026 BKN280 29/23 A2974=
200504142300 METAR MRLM 142300Z 01004KT 9999 FEW023 BKN280 28/24 A2974=
200504150000 METAR MRLM 150000Z 00000KT 9999 FEW022 BKN280 28/23 A2975=
200504150100 METAR MRLM NIL=
200504150200 METAR MRLM NIL=
200504150300 METAR MRLM NIL=
200504150400 METAR MRLM NIL=
200504150500 METAR MRLM NIL=
200504150600 METAR MRLM NIL=
200504150700 METAR MRLM NIL=
200504150800 METAR MRLM NIL=
200504150900 METAR MRLM NIL=
200504151000 METAR MRLM NIL=
200504151100 METAR MRLM NIL=
200504151200 METAR MRLM NIL=
200504151300 METAR MRLM 151300Z VRB03KT CAVOK 24/22 A2982=
200504151400 METAR MRLM 151400Z 22004KT CAVOK 27/22 A2985=
200504151500 METAR MRLM 151500Z 28004KT CAVOK 29/22 A2985=
200504151600 METAR MRLM 151600Z 31004KT 9999 FEW036 BKN270 30/24 A2985=
200504151700 METAR MRLM 151700Z 31006KT 9999 FEW043 BKN270 30/22 A2983=
200504151800 METAR MRLM 151800Z 34010KT 9999 FEW042 SCT280 31/22 A2981=
200504151900 METAR MRLM 151900Z 35008KT 9999 FEW035 SCT120 30/23 A2979=
200504152000 METAR MRLM NIL=
200504152100 METAR MRLM 152100Z 02005KT 9999 FEW028 OVC100 29/24 A2977=
200504152200 METAR MRLM 152200Z 01007KT 9999 SCT025 SCT090 28/24 A2978=
200504152300 METAR MRLM 152300Z 03006KT 9999 -RA FEW014 OVC100 26/23 A2979=
200504160000 METAR MRLM 160000Z 00000KT 9999 FEW010 OVC090 24/22 A2979=
200504160100 METAR MRLM NIL=
200504160200 METAR MRLM NIL=
200504160300 METAR MRLM NIL=
200504160400 METAR MRLM NIL=
200504160500 METAR MRLM NIL=
200504160600 METAR MRLM NIL=
200504160700 METAR MRLM NIL=
200504160800 METAR MRLM NIL=
200504160900 METAR MRLM NIL=
200504161000 METAR MRLM NIL=
200504161100 METAR MRLM NIL=
200504161200 METAR MRLM NIL=
200504161300 METAR MRLM 161300Z 00000KT 3000 -RA FEW020CB BKN024 24/23 A2985=
200504161400 METAR MRLM 161400Z 21005KT 5000 -RA BKN022 SCT080 23/23 A2990=
200504161500 METAR MRLM 161500Z 19004KT 9999 BKN028 SCT080 23/22 A2991 RERA=
200504161600 METAR MRLM NIL=
200504161700 METAR MRLM 161700Z 23004KT 9999 SCT030 BKN090 26/24 A2991=
200504161800 METAR MRLM 161800Z 24004KT 9999 FEW025 BKN090 29/23 A2989=
200504161900 METAR MRLM NIL=
200504162000 METAR MRLM NIL=
200504162100 METAR MRLM 162100Z 28004KT 9999 FEW024 SCT090 BKN240 30/23 A2983 RMK CB DST WNW RN NW/N/NE/SSW=
200504162200 METAR MRLM 162200Z 35004KT 9999 SCT024 BKN090 29/23 A2982 RMK RN DST=
200504162300 METAR MRLM 162300Z 00000KT 9999 SCT024 BKN080 28/23 A2984 RMK RN DST W/NW N/NE/E=
200504170000 METAR MRLM NIL=
200504170100 METAR MRLM NIL=
200504170200 METAR MRLM NIL=
200504170300 METAR MRLM NIL=
200504170400 METAR MRLM NIL=
200504170500 METAR MRLM NIL=
200504170600 METAR MRLM NIL=
200504170700 METAR MRLM NIL=
200504170800 METAR MRLM NIL=
200504170900 METAR MRLM NIL=
200504171000 METAR MRLM NIL=
200504171100 METAR MRLM NIL=
200504171200 METAR MRLM NIL=
200504171300 METAR MRLM 171300Z 27008KT 3000 RA BKN015 SCT040 23/23 A2992=
200504171400 METAR MRLM 171400Z 26005KT 5000 -RA BKN015 SCT035 23/22 A2994=
200504171500 METAR MRLM 171500Z 30009KT 8000 -RA BKN026 SCT080 23/22 A2994=
200504171600 METAR MRLM 171600Z 28008KT 8000 -RA BKN036 SCT080 23/22 A2993=
200504171700 METAR MRLM 171700Z 28008KT 9999 SCT015 BKN035 23/22 A2993 RMK RERA RN DST ARND=
200504171800 METAR MRLM 171800Z 28007KT 9999 -DZ SCT015 BKN030 23/22 A2991 RMK RN DST ARND=
200504171900 METAR MRLM 171900Z 22005KT 5000 -RA BKN015 SCT030 23/22 A2987=
200504172000 METAR MRLM NIL=
200504172100 METAR MRLM 172100Z 27006KT 9999 BKN015 SCT080 23/22 A2984 RERA=
200504172200 METAR MRLM 172200Z 26006KT 9999 3000NW +DZ BKN015 23/22 A2984=
200504172300 METAR MRLM 172300Z 27007KT 9999 -DZ SCT015 BKN025 23/22 A2986=
200504180000 METAR MRLM 180000Z 28007KT 9999 -DZ OVC015 23/22 A2989=
200504180100 METAR MRLM NIL=
200504180200 METAR MRLM NIL=
200504180300 METAR MRLM NIL=
200504180400 METAR MRLM NIL=
200504180500 METAR MRLM NIL=
200504180600 METAR MRLM NIL=
200504180700 METAR MRLM NIL=
200504180800 METAR MRLM NIL=
200504180900 METAR MRLM NIL=
200504181000 METAR MRLM NIL=
200504181100 METAR MRLM NIL=
200504181200 METAR MRLM NIL=
200504181300 METAR MRLM 181300Z 30018KT 9999 BKN020 27/23 A2986=
200504181400 METAR MRLM 181400Z 35017KT 9999 OVC018 27/24 A2988=
200504181500 METAR MRLM 181500Z 35016KT 9999 BKN120 27/23 A2989=
200504181600 METAR MRLM 181600Z 34015KT 9999 OVC023 28/23 A2990=
200504181700 METAR MRLM 181700Z 35014KT 6000 RA OVC015 27/24 A2988=
200504181800 METAR MRLM 181800Z 29006KT 9999 OVC012 26/23 A2987 RERA=
200504181900 METAR MRLM 181900Z 26007KT 9999 OVC014 26/23 A2984=
200504182000 METAR MRLM NIL=
200504182100 METAR MRLM 182100Z VRB03KT 9999 OVC010 25/23 A2982 RERA=
200504182200 METAR MRLM 182200Z 23004KT 9999 DZ BKN010 25/23 A2980=
200504182300 METAR MRLM 182300Z 00000KT 3000 -RA SCT005 SCT010 24/23 A2981=
200504190000 METAR MRLM NIL=
200504190100 METAR MRLM NIL=
200504190200 METAR MRLM NIL=
200504190300 METAR MRLM NIL=
200504190400 METAR MRLM NIL=
200504190500 METAR MRLM NIL=
200504190600 METAR MRLM NIL=
200504190700 METAR MRLM NIL=
200504190800 METAR MRLM NIL=
200504190900 METAR MRLM NIL=
200504191000 METAR MRLM NIL=
200504191100 METAR MRLM NIL=
200504191200 METAR MRLM NIL=
200504191300 METAR MRLM 191300Z 00000KT 9999 BKN012 SCT120 25/23 A2988=
200504191400 METAR MRLM 191400Z VRB03KT 9999 BKN012 SCT120 25/24 A2989=
200504191500 METAR MRLM 191500Z 18004KT 9999 SCT014 SCT130 27/24 A2989=
200504191600 METAR MRLM 191600Z VRB03KT 9999 BKN025TCU 28/24 A2989=
200504191700 METAR MRLM 191700Z 36005KT 9999 BKN020 28/24 A2988=
200504191800 METAR MRLM 191800Z 35007KT 9999 BKN020 28/24 A2986=
200504191900 METAR MRLM 191900Z 01005KT 9999 FEW020 SCT120 BKN290 28/24 A2983=
200504192100 METAR MRLM 192100Z 01004KT 9999 FEW024 SCT090 28/23 A2980=
200504192200 METAR MRLM 192200Z 36007KT 9999 FEW020 SCT100 27/23 A2979=
200504192300 METAR MRLM 192300Z 02004KT 9999 FEW023 BKN300 28/23 A2981=
200504200000 METAR MRLM NIL=
200504200100 METAR MRLM NIL=
200504200200 METAR MRLM NIL=
200504200300 METAR MRLM NIL=
200504200400 METAR MRLM NIL=
200504200500 METAR MRLM NIL=
200504200600 METAR MRLM NIL=
200504200700 METAR MRLM NIL=
200504200800 METAR MRLM NIL=
200504200900 METAR MRLM NIL=
200504201000 METAR MRLM NIL=
200504201100 METAR MRLM NIL=
200504201200 METAR MRLM NIL=
200504201300 METAR MRLM 201300Z 00000KT 9999 FEW025 SCT090 BKN250 23/22 A2988=
200504201400 METAR MRLM 201400Z 19004KT CAVOK 25/23 A2989=
200504201500 METAR MRLM 201500Z 00000KT CAVOK 27/23 A2989=
200504201600 METAR MRLM 201600Z 04003KT 9999 FEW/25 BKN090 27/23 A2990=
200504201700 METAR MRLM 201700Z 07005KT 9999 FEW025 BKN090 28/23 A2989=
200504201800 METAR MRLM 201800Z 08006KT 9999 FEW025 BKN090 27/23 A2987=
200504201900 METAR MRLM 201900Z 06004KT 9999 FEW025 BKN090 28/22 A2985=
200504202000 METAR MRLM NIL=
200504202100 METAR MRLM 202100Z 05004KT 9999 FEW025 BKN090 28/23 A2981=
200504202200 METAR MRLM 202200Z 03003KT 9999 FEW025 BKN090 28/22 A2986=
200504202300 METAR MRLM 202300Z 00000KT 9999 FEW025 BKN090 28/23 A2981=
200504210000 METAR MRLM 210000Z 00000KT 9999 FEW025 SCT090 BKN250 27/22 A2982=
200504210100 METAR MRLM NIL=
200504210200 METAR MRLM NIL=
200504210300 METAR MRLM NIL=
200504210400 METAR MRLM NIL=
200504210500 METAR MRLM NIL=
200504210600 METAR MRLM NIL=
200504210700 METAR MRLM NIL=
200504210800 METAR MRLM NIL=
200504210900 METAR MRLM NIL=
200504211000 METAR MRLM NIL=
200504211100 METAR MRLM NIL=
200504211200 METAR MRLM 211200Z 20004KT 9999 FEW028 OVC240 22/21 A2982=
200504211300 METAR MRLM 211300Z 21003KT 9999 FEW028 OVC250 24/22 A2985=
200504211500 METAR MRLM NIL=
200504211600 METAR MRLM 211600Z 09005KT 9999 FEW028 BKN250 28/23 A2985=
200504211700 METAR MRLM 211700Z 07006KT 9999 FEW028 BKN250 29/23 A2984=
200504211800 METAR MRLM 211800Z 05009KT 9999 FEW028 BKN250 29/23 A2983=
200504211900 METAR MRLM 211900Z 05007KT 9999 FEW028 BKN250 29/23 A2981=
200504212000 METAR MRLM NIL=
200504212100 METAR MRLM 212100Z 02006KT 9999 FEW028 BKN250 28/23 A2977=
200504212200 METAR MRLM 212200Z 03006KT 9999 FEW025 BKN090 28/23 A2977 RMK DZ SW=
200504212300 METAR MRLM 212300Z 00000KT 9999 FEW025 SCT090 BKN250 28/22 A2978=
200504220000 METAR MRLM 220000Z 00000KT 9999 FEW025 SCT080 BKN250 26/24 A2979=
200504220100 METAR MRLM NIL=
200504220200 METAR MRLM NIL=
200504220300 METAR MRLM NIL=
200504220400 METAR MRLM NIL=
200504220500 METAR MRLM NIL=
200504220600 METAR MRLM NIL=
200504220700 METAR MRLM NIL=
200504220800 METAR MRLM NIL=
200504220900 METAR MRLM NIL=
200504221000 METAR MRLM NIL=
200504221100 METAR MRLM NIL=
200504221200 METAR MRLM NIL=
200504221300 METAR MRLM 221300Z 00000KT CAVOK 24/21 A2983=
200504221400 METAR MRLM 221400Z 00000KT CAVOK 28/21 A2986=
200504221500 METAR MRLM 221500Z 00000KT 9999 FEW032 BKN280 29/22 A2987 RMK HZ ARND=
200504221600 METAR MRLM 221600Z VRB03KT 9999 FEW028 BKN280 28/23 A2987 RMK HZ ARND=
200504221700 METAR MRLM 221700Z VRB03KT 9999 FEW024 OVC280 28/23 A2985 RMK HZ ARND=
200504221800 METAR MRLM 221800Z 05005KT 9999 FEW025 OVC280 28/23 A2983 RMK HZ ARND=
200504221900 METAR MRLM NIL=
200504222000 METAR MRLM NIL=
200504222100 METAR MRLM 222100Z VRB03KT 9999 BKN030 SCT270 29/23 A2977=
200504222200 METAR MRLM 222200Z 05004KT 9999 SCT028 BKN270 29/23 A2976=
200504222300 METAR MRLM 222300Z 05005KT 9999 FEW030 BKN270 28/22 A2977=
200504230000 METAR MRLM 230000Z VRB03KT CAVOK 28/22 A2977=
200504230100 METAR MRLM NIL=
200504230200 METAR MRLM NIL=
200504230300 METAR MRLM NIL=
200504230400 METAR MRLM NIL=
200504230500 METAR MRLM NIL=
200504230600 METAR MRLM NIL=
200504230700 METAR MRLM NIL=
200504230800 METAR MRLM NIL=
200504230900 METAR MRLM NIL=
200504231000 METAR MRLM NIL=
200504231100 METAR MRLM NIL=
200504231200 METAR MRLM NIL=
200504231300 METAR MRLM 231300Z 20004KT CAVOK 23/21 A2984=
200504231400 METAR MRLM 231400Z 00000KT 9999 FEW018 BKN280 27/23 A2987=
200504231600 METAR MRLM 231600Z VRB03KT 9999 SCT025 BKN280 29/24 A2989 HZY=
200504231700 METAR MRLM 231700Z 06004KT 9999 SCT026 BKN300 29/24 A2988. HZY=
200504231800 METAR MRLM 231800Z 07005KT 9999 FEW028 SCT140 29/24 A2986 HZY=
200504231900 METAR MRLM 231900Z 04006KT 9999 FEW026 29/24 A2983 HZY=
200504232100 METAR MRLM 232100Z VRB03KT 9999 FEW026 SCT150 29/24 A2979=
200504232200 METAR MRLM 232200Z VRB03KT 9999 FEW025 29/24 A2977 HZ=
200504232300 METAR MRLM 232300Z VRB03KT CAVOK 28/23 A2979=
200504240000 METAR MRLM 240000Z 00000KT CAVOK 28/23 A2980=
200504240100 METAR MRLM NIL=
200504240200 METAR MRLM NIL=
200504240300 METAR MRLM NIL=
200504240400 METAR MRLM NIL=
200504240500 METAR MRLM NIL=
200504240600 METAR MRLM NIL=
200504240700 METAR MRLM NIL=
200504240800 METAR MRLM NIL=
200504240900 METAR MRLM NIL=
200504241000 METAR MRLM NIL=
200504241100 METAR MRLM NIL=
200504241200 METAR MRLM 241200Z 23004KT 9999 FEW025 OVC280 22/20 A2985 RMK HZ ARND=
200504241300 METAR MRLM 241300Z 22003KT CAVOK 24/21 A2988 HZ=
200504241400 METAR MRLM 241400Z 21003KT CAVOK 27/23 A2990 HZ=
200504241500 METAR MRLM 241500Z 06003KT CAVOK 29/22 A2989 HZ=
200504241600 METAR MRLM 241600Z 06004KT 9999 FEW30 OVC270 29/22 A2988 RMK HZ ARND=
200504241700 METAR MRLM 241700Z 05006KT 9999 FEW030 OVC280 29/23 A2987=
200504241800 METAR MRLM 241800Z 04006KT 9999 FEW030 OVC280 29/23 A2986 HZ=
200504241900 METAR MRLM 241900Z 05006KT 9999 FEW030 OVC280 29/24 A2984 HZ=
200504242100 METAR MRLM 242100Z 03005KT 9999 SCT028 BKN280 29/23 A2982=
200504242200 METAR MRLM 242200Z 02006KT 9999 SCT025 BKN280 29/23 A2981=
200504242300 METAR MRLM 242300Z 23004KT 9999 FEW025 BKN280 28/23 A2980 HZ=
200504250000 METAR MRLM 250000Z 04004KT 9999 FEW025 SCT045 28/22 A2982 HZ=
200504250100 METAR MRLM NIL=
200504250200 METAR MRLM NIL=
200504250300 METAR MRLM 250300Z 07005KT 9999 SCT025 SCT250 29/22 A2982=
200504250400 METAR MRLM NIL=
200504250500 METAR MRLM NIL=
200504250600 METAR MRLM NIL=
200504250700 METAR MRLM NIL=
200504250800 METAR MRLM NIL=
200504250900 METAR MRLM NIL=
200504251000 METAR MRLM NIL=
200504251100 METAR MRLM NIL=
200504251200 METAR MRLM 251200Z 21004KT 9999 FEW025 BKN250 22/21 A2987=
200504251300 METAR MRLM 251300Z 00000KT 9999 FEW025 BKN250 24/22 A2989=
200504251400 METAR MRLM 251400Z 00000KT 9999 FEW025 BKN250 28/23 A2991=
200504251500 METAR MRLM 251500Z 04003KT 9999 FEW025 BKN250 28/23 A2992=
200504251600 METAR MRLM 291600Z 04005KT 9999 FEW025 BKN250 29/23 A2991=
200504251700 METAR MRLM 251700Z 05007KT 9999 FEW025 BKN250 29/23 A2991=
200504251800 METAR MRLM 251800Z 03007KT 9999 SCT025 BKN250 29/22 A2989=
200504251900 METAR MRLM 251900Z 05006KT 9999 FEW025 SCT250 29/22 A2987=
200504252000 METAR MRLM NIL=
200504252100 METAR MRLM 252100Z 07005KT 9999 SCT025 SCT250 29/22 A2982=
200504252200 METAR MRLM 252200Z 05006KT 9999 BKN025 SCT250 28/22 A2981=
200504252300 METAR MRLM 252300Z 06005KT 9999 BKN025 28/22 A2980=
200504260000 METAR MRLM 260000Z 07004KT 9999 SCT025 SCT250 27/22 A2922=
200504260100 METAR MRLM NIL=
200504260200 METAR MRLM NIL=
200504260300 METAR MRLM NIL=
200504260400 METAR MRLM NIL=
200504260500 METAR MRLM NIL=
200504260600 METAR MRLM NIL=
200504260700 METAR MRLM NIL=
200504260800 METAR MRLM NIL=
200504260900 METAR MRLM NIL=
200504261000 METAR MRLM NIL=
200504261100 METAR MRLM NIL=
200504261200 METAR MRLM NIL=
200504261300 METAR MRLM 261300Z 00000KT 9999 BKN025 25/22 A2989=
200504261400 METAR MRLM 261400Z 12004KT 9999 SCT028 SCT300 28/22 A2990 HZY=
200504261500 METAR MRLM 261500Z 07004KT 9999 SCT028 SCT300 28/22 A2990 RMK HZY=
200504261600 METAR MRLM 261600Z 08007KT 9999 SCT030 SCT280 28/23 A2990 RMK HZY=
200504261700 METAR MRLM 261700Z 07006KT 9999 SCT030 SCT280 29/23 A2989 RMK HZY=
200504261800 METAR MRLM 261800Z 07005KT 9999 FEW033 BKN280 29/22 A2987 RMK HZY=
200504261900 METAR MRLM 261900Z 06007KT 9999 SCT033 BKN280 29/22 A2982 RMK HZY=
200504262000 METAR MRLM NIL=
200504262100 METAR MRLM 262100Z 08007KT 9999 SCT030 OVC280 28/22 A2982 RMK HZ ARND=
200504262200 METAR MRLM 262200Z 09007KT 9999 BKN030 28/22 A2981 RMK RN DST SW HZ ARND=
200504262300 METAR MRLM 262300Z 08006KT 9999 BKN028 27/22 A2981 RMK HZ ARND=
200504270000 METAR MRLM 270000Z 08006KT 9999 BKN028 SCT280 27/22 A2981 RMK HZ ARND=
200504270100 METAR MRLM NIL=
200504270200 METAR MRLM NIL=
200504270300 METAR MRLM NIL=
200504270400 METAR MRLM NIL=
200504270500 METAR MRLM NIL=
200504270600 METAR MRLM NIL=
200504270700 METAR MRLM NIL=
200504270800 METAR MRLM NIL=
200504270900 METAR MRLM NIL=
200504271000 METAR MRLM NIL=
200504271100 METAR MRLM NIL=
200504271200 METAR MRLM NIL=
200504271300 METAR MRLM 271300Z VRB03KT 9999 FEW010 OVC300 24/22 A2991 RMK HZ ARND=
200504271400 METAR MRLM 271400Z 00000KT 9999 FEW028 BKN300 28/22 A2993 RMK HZ ARND=
200504271500 METAR MRLM 271500Z 11004KT 9999 FEW028 BKN300 28/22 A2993 RMK HZ ARND=
200504271600 METAR MRLM 271600Z 07005KT 9999 FEW028 OVC300 28/22 A2992 RMK HZ ARND=
200504271700 METAR MRLM 271700Z 08006KT 9999 FEW032 OVC300 29/22 A2991 RMK HZ ARND=
200504271800 METAR MRLM 271800Z 07007KT 9999 FEW030 OVC300 29/23 A2989 RMK HZ ARND=
200504271900 METAR MRLM NIL=
200504272000 METAR MRLM NIL=
200504272100 METAR MRLM 272100Z 04006KT 9999 FEW028 OVC300 28/23 A2984 HZY=
200504272200 METAR MRLM 272200Z VRB03KT 9999 FEW028 OVC300 28/22 A2982 HZY=
200504272300 METAR MRLM 272300Z 06006KT 9999 FEW028 OVC280 28/22 A2984 HZY=
200504280000 METAR MRLM 280000Z 09004KT CAVOK 27/22 A2986 HZY=
200504280100 METAR MRLM NIL=
200504280200 METAR MRLM NIL=
200504280300 METAR MRLM NIL=
200504280400 METAR MRLM NIL=
200504280500 METAR MRLM NIL=
200504280600 METAR MRLM NIL=
200504280700 METAR MRLM NIL=
200504280800 METAR MRLM NIL=
200504280900 METAR MRLM NIL=
200504281000 METAR MRLM NIL=
200504281100 METAR MRLM NIL=
200504281200 METAR MRLM 281200Z 22004KT 9999 FEW026 BKN250 22/21 A2991 RMK HZY=
200504281300 METAR MRLM 281300Z 21005KT 9999 FEW026 BKN250 24/22 A2993 HZY=
200504281400 METAR MRLM 281400Z 00000KT CAVOK 27/23 A2994 HZY=
200504281500 METAR MRLM 281500Z 05003KT CAVOK 28/23 A=
200504281600 METAR MRLM 281600Z 03005KT CAVOK 29/21 A2993 HZY=
200504281700 METAR MRLM 281700Z 02004KT CAVOK 29/21 A2996 HZY=
200504281800 METAR MRLM 281800Z 03005KT CAVOK 29/22 A2991 HZY=
200504281900 METAR MRLM 281900Z 03006KT CAVOK 29/22 A2990 HZY=
200504282000 METAR MRLM NIL=
200504282100 METAR MRLM 282100Z 03005KT CAVOK 30/25 A2987 HZ=
200504282200 METAR MRLM 282200Z 03003KT 9999 FEW026 SCT250 29/23 A2983 HZ ARND=
200504290000 METAR MRLM 290000Z 35003KT CAVOK 28/23 A2985 HZ ARND=
200504290100 METAR MRLM NIL=
200504290200 METAR MRLM NIL=
200504290300 METAR MRLM NIL=
200504290400 METAR MRLM NIL=
200504290500 METAR MRLM NIL=
200504290600 METAR MRLM NIL=
200504290700 METAR MRLM NIL=
200504290800 METAR MRLM NIL=
200504290900 METAR MRLM NIL=
200504291000 METAR MRLM NIL=
200504291100 METAR MRLM NIL=
200504291200 METAR MRLM 291200Z 04005KT 4000 -RA BKN024 SCT080 24/23 A2988=
200504291300 METAR MRLM 291300Z 20003KT 9999 SCT030 BKN080 24/23 A2991 RERA=
200504291500 METAR MRLM 291500Z 20004KT 9999 BKN035 SCT080 26/23 A2993 REDZ=
200504291600 METAR MRLM 291600Z 20004KT 9999 SCT035 SCT080 27/23 A2993 RN DST E W=
200504291700 METAR MRLM 291700Z 09004KT 9999 FEW025 SCT090 BKN250 28/23 A2992=
200504291800 METAR MRLM 291800Z 08004KT 9999 FEW025 BKN250 29/24 A2990 CB RN NE E=
200504291900 METAR MRLM 291900Z 08005KT 9999 FEW025 BKN250 30/24 A2987=
200504292100 METAR MRLM 292100Z 04010KT 9999 FEW025 BKN250 30/24 A2983=
200504292200 METAR MRLM 292200Z 26011KT 9999 FEW035 SCT250 29/23 A2983=
200504292300 METAR MRLM 292300Z 08007KT 9999 FEW025 SCT250 29/23 A2983=
200504300000 METAR MRLM 300000Z 09006KT 9999 FEW030 BKN250 28/23 A2984=
200504300100 METAR MRLM NIL=
200504300200 METAR MRLM NIL=
200504300300 METAR MRLM NIL=
200504300400 METAR MRLM NIL=
200504300500 METAR MRLM NIL=
200504300600 METAR MRLM NIL=
200504300700 METAR MRLM NIL=
200504300800 METAR MRLM NIL=
200504300900 METAR MRLM NIL=
200504301000 METAR MRLM NIL=
200504301100 METAR MRLM NIL=
200504301200 METAR MRLM NIL=
200504301300 METAR MRLM 301300Z 20004KT CAVOK 25/22 A2991=
200504301400 METAR MRLM 301400Z 00000KT CAVOK 27/12 A3009=
200504301500 METAR MRLM 301500Z 05004KT FEW026 OVC280 28/23 A2994=
200504301600 METAR MRLM 301600Z 08005KT 9999 FEW040 OVC280 29/22 A2993=
200504301700 METAR MRLM 301700Z 06007KT 9999 FEW030 OVC280 29/23 A2992=
200504301800 METAR MRLM 301800Z 06009KT 9999 FEW030 OVC280 29/24 A2991=
200504301900 METAR MRLM 301900Z 26008KT 9999 SCT028 BKN280 29/24 A2989=
200504302000 METAR MRLM NIL=
200504302100 METAR MRLM 302100Z 05006KT 9999 FEW028 OVC280 29/23 A2986 RMK HZY=
200504302200 METAR MRLM 302200Z 09005KT 9999 BKN028 SCT280 29/23 A2985=
200504302300 METAR MRLM 302300Z 08007KT 9999 BKN028 SCT280 29/23 A2986 RMK HZY=
200505010000 METAR MRLM 010000Z VRB03KT 9999 FEW026 SCT110 BKN280 28/23 A2987=
200505010100 METAR MRLM NIL=
200505010200 METAR MRLM NIL=
200505010300 METAR MRLM NIL=
200505010400 METAR MRLM NIL=
200505010500 METAR MRLM NIL=
200505010600 METAR MRLM NIL=
200505010700 METAR MRLM NIL=
200505010800 METAR MRLM NIL=
200505010900 METAR MRLM NIL=
200505011000 METAR MRLM NIL=
200505011100 METAR MRLM NIL=
200505011200 METAR MRLM NIL=
200505011300 METAR MRLM 011300Z 22005KT CAVOK 25/22 A2998 RMK LEVE HZY=
200505011400 METAR MRLM 011400Z 00000KT CAVOK 29/22 A2993 RMK CB DST E HZY=
200505011500 METAR MRLM 011500Z VRB03KT CAVOK 28/22 A2992 RMK HZY=
200505011600 METAR MRLM 011600Z 03005KT 9999 FEW026 BKN280 28/23 A2992 RMK HZY=
200505011700 METAR MRLM 011700Z 02005KT 9999 FEW028 BKN280 29/23 A2992 RMK LEVE HZY=
200505011800 METAR MRLM 011800Z 04006KT 9999 FEW025 BKN280 29/24 A2990 RMK HZY=
200505011900 METAR MRLM NIL=
200505012000 METAR MRLM NIL=
200505012100 METAR MRLM 012100Z 02004KT 9999 BKN028 SCT280 29/24 A2983=
200505012200 METAR MRLM 012200Z 00000KT 9999 FEW028 SCT110 BKN280 29/24 A2984 RMK HZ ARND=
200505012300 METAR MRLM NIL=
200505020000 METAR MRLM 020000Z 00000KT 9999 SCT025 SCT090 28/22 A2986 RMK CB DST SSE HZ ARND=
200505020100 METAR MRLM NIL=
200505020200 METAR MRLM NIL=
200505020300 METAR MRLM NIL=
200505020400 METAR MRLM NIL=
200505020500 METAR MRLM NIL=
200505020600 METAR MRLM NIL=
200505020700 METAR MRLM NIL=
200505020800 METAR MRLM NIL=
200505020900 METAR MRLM NIL=
200505021000 METAR MRLM NIL=
200505021100 METAR MRLM NIL=
200505021200 METAR MRLM 021200Z 20004KT 9999 FEW030 SCT090 BKN250 23/22 A2989=
200505021300 METAR MRLM 021300Z 21003KT 9999 FEW030 OVC250 25/23 A2990=
200505021400 METAR MRLM 021400Z 00000KT 9999 FEW030 SCT080 28/24 A2993=
200505021500 METAR MRLM 021500Z 00000KT 9999 FEW030 OVC250 29/24 A2994 RMK DST ENE=
200505021600 METAR MRLM 021600Z 04005KT 9999 FEW028 OVC250 29/24 A2994 RMK CB DST ENE=
200505021700 METAR MRLM 021700Z 05005KT 9999 FEW025 BKN250 29/25 A2993 RMK RN DST NE=
200505021800 METAR MRLM 021800Z 07004KT 9999 FEW024 SCT250 29/24 A2990 RMK CB DST NE TCU/RN S/SW/W=
200505021900 METAR MRLM 021900Z 04006KT 9999 FEW024TCU BKN250 29/23 A2987 RMK TCU/RN S/W/SW=
200505022000 METAR MRLM NIL=
200505022100 METAR MRLM 022100Z 02004KT 9999 FEW024 BKN250 29/23 A2984=
200505022200 METAR MRLM 022200Z 00000KT 9999 SCT034 BKN250 28/23 A2983=
200505022300 METAR MRLM 022300Z 00000KT 9999 SCT024TCU SCT080 27/24 A2985=
200505030000 METAR MRLM 030000Z 00000KT 9999 SCT015TCU SCT080 26/23 A2987=
200505030100 METAR MRLM NIL=
200505030200 METAR MRLM NIL=
200505030300 METAR MRLM NIL=
200505030400 METAR MRLM NIL=
200505030500 METAR MRLM NIL=
200505030600 METAR MRLM NIL=
200505030700 METAR MRLM NIL=
200505030800 METAR MRLM NIL=
200505030900 METAR MRLM NIL=
200505031000 METAR MRLM NIL=
200505031100 METAR MRLM NIL=
200505031200 METAR MRLM 031200Z 21003KT 9999 FEW030 SCT090 BKN250 23/22 A2989 RMK HZY=
200505031300 METAR MRLM 031300Z 00000KT 9999 FEW030 BKN090 24/22 A2991=
200505031400 METAR MRLM 031400Z 23004KT 9999 FEW025 BKN090 27/23 A2992=
200505031500 METAR MRLM 031500Z 36003KT 9999 FEW024 SCT045 28/23 A2994=
200505031600 METAR MRLM 031600Z 01009KT 9999 FEW024 SCT045 BKN090 26/23 A2995=
200505031700 METAR MRLM 031700Z 32008KT 9999 BKN045 SCT080 26/23 A2995=
200505031800 METAR MRLM 031800Z 31005KT 9999 DZ FEW020 BKN028 26/23 A2995=
200505031900 METAR MRLM 031900Z 31006KT 9999 SCT025 BKN080 27/23 A2992 REDZ=
200505032000 METAR MRLM NIL=
200505032100 METAR MRLM 032100Z 36010KT 9999 SCT025 SCT080 26/22 A2988=
200505032200 METAR MRLM 032200Z 35007KT 9999 BKN028 26/22 A2989=
200505032300 METAR MRLM 032300Z 32003KT 9999 BKN028 SCT080 26/23 A2989=
200505040000 METAR MRLM 040000Z 00000KT 9999 FEW020 SCT024 BKN080 25/23 A2989=
200505040100 METAR MRLM NIL=
200505040200 METAR MRLM NIL=
200505040300 METAR MRLM NIL=
200505040400 METAR MRLM NIL=
200505040500 METAR MRLM NIL=
200505040600 METAR MRLM NIL=
200505040700 METAR MRLM NIL=
200505040800 METAR MRLM NIL=
200505040900 METAR MRLM NIL=
200505041000 METAR MRLM NIL=
200505041100 METAR MRLM NIL=
200505041200 METAR MRLM NIL=
200505041300 METAR MRLM 041300Z 00000KT CAVOK 25/22 A2993 RMK SCT280 TCU/RN N HZ LGT ARND=
200505041400 METAR MRLM 041400Z 01004KT 9999 FEW022 SCT120 25/22 A2993 RN N=
200505041500 METAR MRLM 041500Z 34004KT 9999 FEW020 BKN100 27/23 A2995=
200505041600 METAR MRLM 041600Z 24007KT 9999 FEW026 OVC100 28/23 A2996=
200505041700 METAR MRLM 041700Z 33005KT 9999 DZ FEW022 OVC090 27/23 A2995=
200505041800 METAR MRLM 041800Z 36006KT 9999 FEW025 OVC100 28/23 A2994=
200505041900 METAR MRLM 041900Z 35008KT 9999 BKN025 SCT110 28/23 A2991=
200505042100 METAR MRLM NIL=
200505042200 METAR MRLM 042200Z 00000KT 9999 BKN020 SCT100 27/23 A2985=
200505042300 METAR MRLM 042300Z 00000KT 9999 BKN020 27/23 A2986=
200505050000 METAR MRLM 050000Z 35006KT 9999 SCT020TCU SCT100 27/23 A2988=
200505050100 METAR MRLM NIL=
200505050200 METAR MRLM NIL=
200505050300 METAR MRLM NIL=
200505050400 METAR MRLM NIL=
200505050500 METAR MRLM NIL=
200505050600 METAR MRLM NIL=
200505050700 METAR MRLM NIL=
200505050800 METAR MRLM NIL=
200505050900 METAR MRLM NIL=
200505051000 METAR MRLM NIL=
200505051100 METAR MRLM NIL=
200505051200 METAR MRLM NIL=
200505051300 METAR MRLM 051300Z 22004KT 9999 DZ FEW015 OVC100 23/22 A2995=
200505051400 METAR MRLM 051400Z 00000KT 9999 FEW020 BKN120 27/23 A2995=
200505051500 METAR MRLM 051500Z 00000KT 9999 FEW024 BKN120 28/23 A2996=
200505051600 METAR MRLM 051600Z VRB03KT 9999 FEW032 BKN120 29/22 A2996=
200505051700 METAR MRLM 051700Z 05006KT 9999 FEW033 SCT130 29/23 A2995=
200505051800 METAR MRLM 051800Z 06008KT 9999 FEW030 SCT130 29/23 A2994=
200505051900 METAR MRLM 051900Z 07006KT 9999 SCT030 SCT130 29/23 A2991=
200505052000 METAR MRLM NIL=
200505052100 METAR MRLM 052100Z 36005KT 9999 FEW030 SCT120 28/22 A2987 RMK CB DST E SE E LEVE HZY=
200505052200 METAR MRLM 052200Z 02004KT 9999 FEW030 SCT120 BKN280 28/22 A2986 RMK CB S SW W HZY=
200505052300 METAR MRLM 052300Z 00000KT 9999 FEW035 OVC280 28/21 A2987 RMK CB RN DST S SW W TCU RN SW=
200505060000 METAR MRLM 060000Z 00000KT 9999 FEW016 OVC280 26/22 A2988 RMK CB RN DST S SW W HZY=
200505060100 METAR MRLM NIL=
200505060200 METAR MRLM NIL=
200505060300 METAR MRLM NIL=
200505060400 METAR MRLM NIL=
200505060500 METAR MRLM NIL=
200505060600 METAR MRLM NIL=
200505060700 METAR MRLM NIL=
200505060800 METAR MRLM NIL=
200505060900 METAR MRLM NIL=
200505061000 METAR MRLM NIL=
200505061100 METAR MRLM NIL=
200505061200 METAR MRLM 061200Z 02005KT 9999 FEW028 SCT090 21/20 A2990=
200505061300 METAR MRLM 061300Z 21005KT 9999 FEW028 SCT100 24/21 A2991=
200505061400 METAR MRLM 061400Z 23004KT 9999 FEW028 SCT100 27/22 A2993 RMK CB DST N=
200505061500 METAR MRLM 061500Z 02004KT 9999 FEW028 SCT100 29/23 A2994=
200505061600 METAR MRLM 061600Z 01005KT 9999 FEW025 SCT100 29/23 A2993=
200505061700 METAR MRLM 061700Z 01008KT 9999 FEW024 SCT130 29/23 A2991=
200505061800 METAR MRLM 061800Z 36007KT 9999 FEW024 29/23 A2989 RMK CB DST NE E=
200505061900 METAR MRLM 061900Z 35007KT 9999 FEW024 29/23 A2986 RMK CB DST NE E=
200505062000 METAR MRLM NIL=
200505062100 METAR MRLM 062100Z 01007KT 9999 FEW024 29/23 A2983 RMK CB DST N/NE/E=
200505062200 METAR MRLM 062200Z 04008KT 9999 FEW025 BKN090 29/24 A2983 RMK RN DST NE=
200505062300 METAR MRLM 062300Z 03008KT 9999 FEW024 BKN090 28/22 A2984 RMK RN DST NE/SSW/SW=
200505070000 METAR MRLM 070000Z 05005KT 9999 SCT024 BKN080 28/23 A2984 RMK RN DST SW=
200505070100 METAR MRLM NIL=
200505070200 METAR MRLM NIL=
200505070300 METAR MRLM NIL=
200505070400 METAR MRLM NIL=
200505070500 METAR MRLM NIL=
200505070600 METAR MRLM NIL=
200505070700 METAR MRLM NIL=
200505070800 METAR MRLM NIL=
200505070900 METAR MRLM NIL=
200505071000 METAR MRLM NIL=
200505071100 METAR MRLM NIL=
200505071200 METAR MRLM NIL=
200505071300 METAR MRLM 071300Z 00000KT 9999 FEW030 SCT090 25/23 A2988 RMK HA ARND=
200505071400 METAR MRLM 071400Z 27005KT 9999 FEW028 SCT100 28/22 A2989 RMK HZ ARND=
200505071500 METAR MRLM 071500Z 29006KT 9999 FEW025 BKN090 29/22 A2990 RMK CB/RN WNW/N/NE HZY=
200505071600 METAR MRLM 071600Z 33013KT 9999 FEW025 SCT120 BKN250 29/22 A2990 RMK CB/RN DST WNW/NW/N=
200505071700 METAR MRLM 071700Z 32015KT 9999 SCT024 BKN240 28/23 A2990 RMK CB/RN WNW/NW/N=
200505071800 METAR MRLM 071800Z 33013KT 9999 SCT024 SCT250 28/23 A2988 RMK CB/RN DST W/NW/ N/NNE=
200505071900 METAR MRLM 071900Z 33014KT 9999 BKN024 SCT090 27/23 A2985 RMK CB/RN W/NW/N/NE=
200505072000 METAR MRLM NIL=
200505072100 METAR MRLM 072100Z 30009KT 9999 BKN024 SCT220 28/23 A2981=
200505072200 METAR MRLM 072200Z 27004KT 9999 BKN024 SCT090 27/23 A2981=
200505072300 METAR MRLM 072300Z 00000KT 9999 BKN024 SCT080 28/23 A2982=
200505080000 METAR MRLM 080000Z 35007KT 3000 RA BKN024 SCT080 25/23 A2985=
200505080100 METAR MRLM NIL=
200505080200 METAR MRLM NIL=
200505080300 METAR MRLM NIL=
200505080400 METAR MRLM NIL=
200505080500 METAR MRLM NIL=
200505080600 METAR MRLM NIL=
200505080700 METAR MRLM NIL=
200505080800 METAR MRLM NIL=
200505080900 METAR MRLM NIL=
200505081000 METAR MRLM NIL=
200505081100 METAR MRLM NIL=
200505081200 METAR MRLM NIL=
200505081300 METAR MRLM 081300Z 00000KT CAVOK 24/23 A2986=
200505081400 METAR MRLM 081400Z 00000KT CAVOK 24/23 A2987=
200505081500 METAR MRLM 081500Z 00000KT 9999 FEW018 BKN130 27/23 A2987=
200505081600 METAR MRLM 081600Z 01005KT 9999 FEW030 BKN100 28/22 A2986=
200505081700 METAR MRLM 081700Z 01008KT 9999 FEW024 BKN110 28/23 A2986=
200505081800 METAR MRLM 081800Z 35006KT 9999 FEW026 SCT140 28/23 A2984=
200505081900 METAR MRLM 081900Z 35008KT 9999 SCT024 SCT140 28/24 A2982=
200505082000 METAR MRLM NIL=
200505082100 METAR MRLM 082100Z 05008KT 9999 BKN020TCU 28/24 A2979=
200505082200 METAR MRLM 082200Z 05007KT 9999 SCT022 BKN140 28/24 A2979=
200505082300 METAR MRLM 082300Z VRB03KT 9999 SCT020 SCT130 27/23 A2980=
200505090000 METAR MRLM 090000Z 00000KT 9999 BKN018 SCT110 27/24 A2981=
200505090100 METAR MRLM NIL=
200505090200 METAR MRLM NIL=
200505090300 METAR MRLM NIL=
200505090400 METAR MRLM NIL=
200505090500 METAR MRLM NIL=
200505090600 METAR MRLM NIL=
200505090700 METAR MRLM NIL=
200505090800 METAR MRLM NIL=
200505090900 METAR MRLM NIL=
200505091000 METAR MRLM NIL=
200505091100 METAR MRLM NIL=
200505091200 METAR MRLM NIL=
200505091300 METAR MRLM 091300Z 18004KT 9999 DZ FEW005 SCT090 BKN120 23/22 A2983=
200505091400 METAR MRLM 091400Z 04004KT CAVOK 24/23 A2985=
200505091500 METAR MRLM 091500Z VRB03KT 9999 SCT014 SCT090 26/23 A2986 DZ ARND=
200505091600 METAR MRLM 091600Z 28007KT 9999 3000NW RA BKN008 SCT100 24/23 A2987=
200505091700 METAR MRLM 091700Z VRB03KT 8000 -RA FEW006SCT025 BKN100 24/23 A2985=
200505091800 METAR MRLM 091800Z 22004KT 9999 -DZ SCT035 BKN110 25/23 A2982=
200505091900 METAR MRLM 091900Z 00000KT 9999 FEW016 SCT090 BKN110 27/24 A2980=
200505092100 METAR MRLM 092100Z 03012KT 9999 FEW015 SCT030 BKN090 26/24 2977 RMK RN HZ ARND TCU DST N=
200505092200 METAR MRLM 092200Z 00000KT 9999 SCT016 SCT032 BKN130 26/23 2975 RMK RN DST ARND CB DST E/SW=
200505092300 METAR MRLM 092300Z VRB03KT 9999 BKN014 26/22 A2976 RMK RN ARND=
200505100000 METAR MRLM 100000Z 05004KT 9999 FEW015 SCT025 BKN120 26/23 A2996 RMK CB DST E RN DST QUANDS N/E=
200505100100 METAR MRLM NIL=
200505100200 METAR MRLM NIL=
200505100300 METAR MRLM NIL=
200505100400 METAR MRLM NIL=
200505100500 METAR MRLM NIL=
200505100600 METAR MRLM NIL=
200505100700 METAR MRLM NIL=
200505100800 METAR MRLM NIL=
200505100900 METAR MRLM NIL=
200505101000 METAR MRLM NIL=
200505101100 METAR MRLM NIL=
200505101200 METAR MRLM NIL=
200505101300 METAR MRLM 101300Z 00000KT 9999 FEW030 BKN240 25/23 A2979 RMK CB DST NW/N/NE=
200505101400 METAR MRLM 101400Z 00000KT 9999 FEW030 SCT080 28/23 A2982 RMK CB/RN DST NW/N/NE=
200505101500 METAR MRLM 101500Z 04003KT 9999 SCT040 SCT080 27/23 A2982 RMK RN DST E=
200505101600 METAR MRLM 101600Z 01005KT 9999 FEW025 SCT090 BKN250 28/23 A2982 RMK RN DST NE/E=
200505101700 METAR MRLM 101700Z 04004KT 9999 FEW025 BKN110 28/24 A2980=
200505101800 METAR MRLM 101800Z 03005KT 9999 FEW025 BKN100 29/24 A2977=
200505101900 METAR MRLM 101900Z 01005KT 9999 FEW025 SCT100 BKN240 29/23 A2974=
200505102000 METAR MRLM NIL=
200505102100 METAR MRLM 102100Z 36008KT 9999 SCT024 SCT100 29/24 A2971 RMK CB DST SW W=
200505102200 METAR MRLM 102200Z 02008KT 9999 SCT024 BKN250 27/24 A2971 RMK RN CB DST SW SW=
200505102300 METAR MRLM 102300Z 00000KT 9999 FEW024 BKN250 27/23 A2972 RMK CB RN DST S SW W=
200505110000 METAR MRLM 110000Z 02003KT 9999 FEW024 BKN250 27/23 A2972=
200505110100 METAR MRLM NIL=
200505110200 METAR MRLM NIL=
200505110300 METAR MRLM NIL=
200505110400 METAR MRLM NIL=
200505110500 METAR MRLM NIL=
200505110600 METAR MRLM NIL=
200505110700 METAR MRLM NIL=
200505110800 METAR MRLM NIL=
200505110900 METAR MRLM NIL=
200505111000 METAR MRLM NIL=
200505111100 METAR MRLM NIL=
200505111200 METAR MRLM NIL=
200505111300 METAR MRLM 111300Z 00000KT 9999 SCT024 BKN045 24/23 A2976 RMK RN DST NW N NE E HZY LEVE=
200505111400 METAR MRLM 111400Z 00000KT 9999 -DZ SCT020 BKN030 25/23 A2978 RMK RN DST ARND=
200505111500 METAR MRLM 111500Z 23004KT 9999 -DZ FEW020 BKN045 25/24 A2977 RMK RN DST ARDN=
200505111600 METAR MRLM 111600Z 00000KT 9999 SCT030 BKN080 29/24 A2977 REDZ RMK RN DST ARND=
200505111700 METAR MRLM 111700Z 05003KT 9999 SCT025 BKN080 28/24 A2977 RMK RN DST ARND=
200505111800 METAR MRLM 111800Z 36008KT 9999 FEW025 BKN080 28/24 A2975 RMK RN DST NW N NE=
200505111900 METAR MRLM 111900Z 35008KT 9999 SCT026 BKN080 28/24 A2972 RMK CB DST S RN ARND=
200505112000 METAR MRLM NIL=
200505112100 METAR MRLM 112100Z 31006KT 9999 BKN026 SCT090 27/24 A2970 CB DST S RN SW/W=
200505112200 METAR MRLM 112200Z 29005KT 9999 BKN026 SCT090 27/23 A2970 RMK CB/RN DST SE/S/SW=
200505112300 METAR MRLM 112300Z 29003KT 9999 BKN026 SCT080 26/24 A2972 RMK CB DST S/SW/W RN ARND=
200505120000 METAR MRLM 120000Z 00000KT 9999 BKN026 SCT080 26/24 A2974 RMK CB DST SE/S/SW RN ARND=
200505120100 METAR MRLM NIL=
200505120200 METAR MRLM NIL=
200505120300 METAR MRLM NIL=
200505120400 METAR MRLM NIL=
200505120500 METAR MRLM NIL=
200505120600 METAR MRLM NIL=
200505120700 METAR MRLM NIL=
200505120800 METAR MRLM NIL=
200505120900 METAR MRLM NIL=
200505121000 METAR MRLM NIL=
200505121100 METAR MRLM NIL=
200505121200 METAR MRLM NIL=
200505121300 METAR MRLM 121300Z 33006KT 8000 RA SCT020 BKN090 24/23 A2978 RMK VIS 9999 S/W=
200505121400 METAR MRLM 121400Z VRB03KT 9999 -DZ FEW006 SCT090 BKN110 24/23 A2979 RMK CB/RN N/NE/E=
200505121500 METAR MRLM 121500Z VRB03KT 9999 FEW035 SCT110 BKN130 25/24 A2981 RMK RN DST N DZ/HZ E/S=
200505121600 METAR MRLM 121600Z 00000KT 9999 +DZ FEW035 SCT100 BKN140 24/23 A2979 RMK CB/RN DST N=
200505121700 METAR MRLM 121700Z 00000KT 9999 FEW035 SCT100 OVC140 26/24 A2978 RMK CB/RN DST NW/N=
200505121800 METAR MRLM 121800Z 00000KT 9999 FEW040 SCT130 OVC150 26/24 A2978 RMK CB/RN DST NW/N/NE/E=
200505121900 METAR MRLM 121900Z 00000KT 9999 FEW020 SCT100 OVC100 27/23 A2975 RMK CB/RN DST NW/ N/NE/S=
200505122000 METAR MRLM NIL=
200505122100 METAR MRLM 122100Z 00000KT CAVOK 27/24 A2970=
200505122200 METAR MRLM 122200Z 34008KT FEW016 BKN130 OVC150 27/24 A2996=
200505122300 METAR MRLM 122300Z VRB03KT 9999 DZ FEW016 BKN110 OVC250 27/23 A2972=
200505130000 METAR MRLM 130000Z 00000KT 9999 SCT012 BKN100 26/23 A2974=
200505130100 METAR MRLM NIL=
200505130200 METAR MRLM NIL=
200505130300 METAR MRLM NIL=
200505130400 METAR MRLM NIL=
200505130500 METAR MRLM NIL=
200505130600 METAR MRLM NIL=
200505130700 METAR MRLM NIL=
200505130800 METAR MRLM NIL=
200505130900 METAR MRLM NIL=
200505131000 METAR MRLM NIL=
200505131100 METAR MRLM NIL=
200505131200 METAR MRLM NIL=
200505131300 METAR MRLM 131300Z 00000KT 9999 BKN010 SCT035 25/23 A2978=
200505131400 METAR MRLM 131400Z 00000KT 9999 DZ SCT009 SCT030 BKN120 25/23 A2979=
200505131500 METAR MRLM 131500Z 29006KT 9999 SCT009 BKN020 25/23 A2981=
200505131600 METAR MRLM 131600Z 28005KT 9999 BKN014 SCT140 27/24 A2981=
200505131700 METAR MRLM 131700Z 34004KT 9999 SCT026 BKN110 28/23 A2980=
200505131800 METAR MRLM 131800Z 32004KT 9999 SCT028 BKN100 29/23 A2977=
200505131900 METAR MRLM 131900Z 35007KT 9999 SCT030 SCT110 29/23 A2975=
200505132000 METAR MRLM NIL=
200505132100 METAR MRLM 132100Z 05006KT 9999 FEW014 SCT020TCU BKN090 27/24 A2972=
200505132200 METAR MRLM 132200Z 05005KT 9999 SCT019 SCT035 27/24 A2971=
200505132300 METAR MRLM 132300Z 00000KT 9999 FEW018 SCT080 27/23 A2972=
200505140000 METAR MRLM 140000Z 19004KT 9999 FEW014 SCT080 BKN150 25/23 A2970=
200505140100 METAR MRLM NIL=
200505140200 METAR MRLM NIL=
200505140300 METAR MRLM NIL=
200505140400 METAR MRLM NIL=
200505140500 METAR MRLM NIL=
200505140600 METAR MRLM NIL=
200505140700 METAR MRLM NIL=
200505140800 METAR MRLM NIL=
200505140900 METAR MRLM NIL=
200505141000 METAR MRLM NIL=
200505141100 METAR MRLM NIL=
200505141200 METAR MRLM NIL=
200505141300 METAR MRLM 141300Z 23003KT 9999 SCT030 BKN090 25/23 A2978=
200505141400 METAR MRLM 141400Z 25004KT 9999 FEW030 BKN090 27/24 A2979=
200505141500 METAR MRLM 141500Z 31004KT 9999 FEW030 BKN090 27/23 A2978=
200505141600 METAR MRLM 141600Z 30003KT 9999 FEW030 BKN090 29/24 A2979=
200505141700 METAR MRLM 141700Z 35009KT 9999 FEW025 BKN250 29/23 A2979=
200505141800 METAR MRLM 141800Z 35009KT 9999 FEW025 OVC250 28/24 A2977=
200505141900 METAR MRLM 141900Z 35008KT 9999 FEW025 OVC250 29/24 A2975=
200505142000 METAR MRLM NIL=
200505142100 METAR MRLM 142100Z 34011KT 9999 SCT025 SCT090 28/24 A2971 RMK RN DST S/SW=
200505142200 METAR MRLM 142200Z 35007KT 9999 SCT025 SCT090 28/24 A2971 RMK DST S/SW/W=
200505142300 METAR MRLM 142300Z 36006KT 9999 SCT025 BKN090 27/24 A2973 RMK RN DST ARND=
200505150000 METAR MRLM 150000Z 03003KT 9999 TS FEW022CB SCT024 BKN080 27/24 A2974 RMK CB ARND TS SSW=
200505150100 METAR MRLM NIL=
200505150200 METAR MRLM NIL=
200505150300 METAR MRLM NIL=
200505150400 METAR MRLM NIL=
200505150500 METAR MRLM NIL=
200505150600 METAR MRLM NIL=
200505150700 METAR MRLM NIL=
200505150800 METAR MRLM NIL=
200505150900 METAR MRLM NIL=
200505151000 METAR MRLM NIL=
200505151100 METAR MRLM NIL=
200505151200 METAR MRLM NIL=
200505151300 METAR MRLM NIL=
200505151400 METAR MRLM 151400Z 27004KT 9999 FEW025 BKN250 27/23 A2981 RMK RN DST N/NE=
200505151500 METAR MRLM 151500Z 27005KT 9999 FEW025 SCT090 BKN250 29/24 A2980 RMK CB/RN DST NW/N/NE=
200505151600 METAR MRLM 151600Z 29008KT 9999 FEW024 BKN090 30/23 A2980 RMK CB/RN DST NW/N/NE=
200505151700 METAR MRLM 151700Z 30007KT 9999 SCT026 BKN250 30/23 A2979 RMK CB/RN DST NW/N/NE/ENE=
200505151800 METAR MRLM 151800Z 33010KT 9999 SCT026 BKN250 30/24 A2978 RMK TCU/RN DST NE=
200505151900 METAR MRLM 151900Z 35012KT 9999 SCT025 BKN250 29/24 A2974 RMK CB DST WNW=
200505152000 METAR MRLM NIL=
200505152100 METAR MRLM 152100Z 35010KT 9999 SCT025 BKN250 29/24 A2970 RMK CB RN DST SE S SW W=
200505152200 METAR MRLM 152200Z 35010KT 9999 BKN025 SCT090 28/24 A2970 RMK CB RN DST ARND=
200505152300 METAR MRLM 152300Z 34006KT 9999 BKN025 SCT090 28/24 A2972 RMK CB RN DSTSE S SW S=
200505160000 METAR MRLM 160000Z 34005KT 9999 TS FEW020CB BKN025 28/24 A2972 RMK CB RN DST SE S SW W TS S=
200505160100 METAR MRLM NIL=
200505160200 METAR MRLM NIL=
200505160300 METAR MRLM NIL=
200505160400 METAR MRLM NIL=
200505160500 METAR MRLM NIL=
200505160600 METAR MRLM NIL=
200505160700 METAR MRLM NIL=
200505160800 METAR MRLM NIL=
200505160900 METAR MRLM NIL=
200505161000 METAR MRLM NIL=
200505161100 METAR MRLM NIL=
200505161200 METAR MRLM NIL=
200505161300 METAR MRLM 161300Z 00000KT CAVOK 26/23 A2997 RMK CB DST S NNW=
200505161400 METAR MRLM 161400Z 29006KT CAVOK 29/22 A2979 RMK CB DST S HZY LEVE=
200505161500 METAR MRLM 161500Z 30007KT 9999 FEW042 SCT130 30/22 A2979 RMK CB DST S=
200505161600 METAR MRLM 161600Z 33008KT 9999 FEW040 SCT140 30/23 A2978=
200505161700 METAR MRLM 161700Z 01008KT 9999 SCT030 SCT150 30/24 A2977=
200505161800 METAR MRLM 161800Z 35011KT 9999 FEW028 SCT130 30/24 A2975 RMK CB DST S W RN DST SW=
200505161900 METAR MRLM 161900Z 35012KT 9999 FEW022 BKN120 29/25 A2973 RMK CB DST S W RN DST S SW=
200505162000 METAR MRLM NIL=
200505162100 METAR MRLM 162100Z 36007KT 9999 BKN020 SCT090 28/24 A2972=
200505162200 METAR MRLM 162200Z 00000KT 9999 OVC020 28/24 A2973=
200505162300 METAR MRLM 162300Z 26011KT 1000 TSRA FEW006 SCT010CB BKN012 24/22 A2977=
200505170000 METAR MRLM 170000Z 21004KT 8000 TSRA SCT010CB SCT015 BKN090 22/21 A2979=
200505170100 METAR MRLM NIL=
200505170200 METAR MRLM NIL=
200505170300 METAR MRLM NIL=
200505170400 METAR MRLM NIL=
200505170500 METAR MRLM NIL=
200505170600 METAR MRLM NIL=
200505170700 METAR MRLM NIL=
200505170800 METAR MRLM NIL=
200505170900 METAR MRLM NIL=
200505171000 METAR MRLM NIL=
200505171100 METAR MRLM NIL=
200505171200 METAR MRLM NIL=
200505171300 METAR MRLM 171300Z VRB03KT CAVOK 24/22 A2981=
200505171400 METAR MRLM 171400Z 00000KT CAVOK 27/23 A2982=
200505171500 METAR MRLM 171500Z VRB03KT 9999 FEW033 BKN140 29/22 A2982=
200505171600 METAR MRLM 171600Z 02005KT 9999 FEW030 BKN150 29/23 A2983=
200505171700 METAR MRLM 171700Z 36008KT 9999 FEW032 BKN150 29/23 A2982=
200505171800 METAR MRLM 171800Z 01005KT 9999 FEW035 BKN150 29/23 A2980=
200505171900 METAR MRLM 171900Z 01008KT 9999 FEW026 BKN090 29/23 A2977=
200505172000 METAR MRLM NIL=
200505172100 METAR MRLM 172100Z 00000KT 9999 -DZ SCT023 BKN110 29/24 A2974=
200505172200 METAR MRLM 172200Z 09006KT 9999 BKN023 SCT100 28/24 A2975=
200505172300 METAR MRLM 172300Z 12006KT 9999 BKN018 SCT090 28/24 A2975=
200505180000 METAR MRLM 180000Z 00000KT 9999 4000NE RA SCT010 SCT090 26/24 A2976=
200505180100 METAR MRLM NIL=
200505180200 METAR MRLM NIL=
200505180300 METAR MRLM NIL=
200505180400 METAR MRLM NIL=
200505180500 METAR MRLM NIL=
200505180600 METAR MRLM NIL=
200505180700 METAR MRLM NIL=
200505180800 METAR MRLM NIL=
200505180900 METAR MRLM NIL=
200505181000 METAR MRLM NIL=
200505181100 METAR MRLM NIL=
200505181200 METAR MRLM NIL=
200505181300 METAR MRLM 181300Z 26003KT 9999 FEW025 BKN100 26/23 A2981=
200505181400 METAR MRLM 181400Z 28004KT 9999 FEW025 SCT100 BKN250 28/23 A2984=
200505181500 METAR MRLM 181500Z 28004KT 9999 SCT025 BKN250 29/23 A2984=
200505181600 METAR MRLM 181600Z 30004KT 9999 FEW025 BKN250 29/23 A2985=
200505181700 METAR MRLM 181700Z 36009KT 9999 SCT025 BKN250 29/24 A2982=
200505181800 METAR MRLM 181800Z 35010KT 9999 FEW024 BKN250 29/24 A2980=
200505181900 METAR MRLM 181900Z 35009KT 9999 FEW025 BKN250 29/24 A2977=
200505182000 METAR MRLM NIL=
200505182100 METAR MRLM 182100Z 32004KT 9999 SCT022 BKN090 28/24 A2973 RN SE S=
200505182200 METAR MRLM 182200Z 33004KT 9999 BKN025 SCT090 28/24 A2973=
200505182300 METAR MRLM 182300Z 36005KT 9999 SCT025 BKN100 28/24 A2974=
200505190000 METAR MRLM 190000Z 00000KT 9999 TS FEW018CB SCT025 BKN090 27/24 A2975=
200505190100 METAR MRLM NIL=
200505190200 METAR MRLM NIL=
200505190300 METAR MRLM NIL=
200505190400 METAR MRLM NIL=
200505190500 METAR MRLM NIL=
200505190600 METAR MRLM NIL=
200505190700 METAR MRLM NIL=
200505190800 METAR MRLM NIL=
200505190900 METAR MRLM NIL=
200505191000 METAR MRLM NIL=
200505191100 METAR MRLM NIL=
200505191200 METAR MRLM NIL=
200505191300 METAR MRLM 191300Z 23004KT 9999 SCT040 BKN080 24/23 A2979=
200505191400 METAR MRLM 191400Z 00000KT 9999 FEW040 BKN090 25/24 A2982=
200505191500 METAR MRLM 191500Z 11003KT 9999 FEW035 BKN090 27/23 A2983=
200505191600 METAR MRLM 191600Z 07009KT 9999 FEW025 SCT100 BKN250 28/24 A2984=
200505191700 METAR MRLM 191700Z 06004KT 9999 FEW024 SCT100 BKN250 28/23 A2983=
200505191800 METAR MRLM 191800Z 08006KT 9999 FEW024 SCT100 BKN250 29/24 A2980=
200505191900 METAR MRLM 191900Z 08006KT 9999 FEW024 BKN250 29/24 A2976=
200505192000 METAR MRLM NIL=
200505192100 METAR MRLM 192100Z 05007KT 9999 FEW025 SCT100 BKN250 29/24 A2972 RMK CB/RN DST WNW=
200505192200 METAR MRLM 192200Z 05007KT 9999 FEW025 SCT100 BKN250 28/24 A2970 RMK CB DST SE/S/SW RN SW=
200505192300 METAR MRLM 192300Z 08005KT 9999 DZ SCT025 SCT090 28/24 A2973 RMK CB DST SE/S/SW RN SW=
200505200000 METAR MRLM 200000Z 07006KT 9999 TS FEW020CB BKN030 28/24 A2975 REDZ RMK CB SE/S/SW RN TS SSW=
200505200100 METAR MRLM NIL=
200505200200 METAR MRLM NIL=
200505200300 METAR MRLM NIL=
200505200400 METAR MRLM NIL=
200505200500 METAR MRLM NIL=
200505200600 METAR MRLM NIL=
200505200700 METAR MRLM NIL=
200505200800 METAR MRLM NIL=
200505200900 METAR MRLM NIL=
200505201000 METAR MRLM NIL=
200505201100 METAR MRLM NIL=
200505201200 METAR MRLM NIL=
200505201300 METAR MRLM 201300Z 00000KT 9999 FEW015 SCT120 BKN270 25/24 A2981 RMK RN DST N/ENE/E HZ LGT ARND=
200505201400 METAR MRLM 201400Z 00000KT 9999 FEW017 SCT110 BKN270 A2982 RMK RN DST E HZY=
200505201500 METAR MRLM 201500Z 02004KT 9999 DZ BKN017 SCT090 27/24 A2985=
200505201600 METAR MRLM 201600Z 04004KT 9999 SCT020 SCT280 28/24 A2984 RMK RN DST S/SW/NE/E HSY=
200505201700 METAR MRLM 201700Z 08005KT 9999 BKN023 SCT270 29/24 A2983 RMK RN DST SW=
200505201800 METAR MRLM 201800Z 06006KT 9999 BKN020 SCT270 28/24 A2981 RMK CB/RN DST WSW LGT HZ ARND=
200505201900 METAR MRLM 201900Z 07007KT 9999 SCT020 BKN280 28/24 A2978 RMK RN DST=
200505202000 METAR MRLM NIL=
200505202100 METAR MRLM 202100Z 07007KT 9999 BKN026 SCT090 28/23 A2975 RMK CB RN DST S SW W=
200505202200 METAR MRLM 202200Z VRB03KT 9999 FEW023 SCT080 BKN110 28/23 A2975 CB RN DST S W TSTM DST W=
200505202300 METAR MRLM 202300Z 22004KT 9999 DZ BKN010 SCT090 26/24 A2978 RMK CB RN DST S W=
200505210000 METAR MRLM 210000Z 24004KT 9999 DZ FEW008 SCT010 BKN100 25/23 A2979 RMK CB RN DST QUANDS S W=
200505210100 METAR MRLM NIL=
200505210200 METAR MRLM NIL=
200505210300 METAR MRLM NIL=
200505210400 METAR MRLM NIL=
200505210500 METAR MRLM NIL=
200505210600 METAR MRLM NIL=
200505210700 METAR MRLM NIL=
200505210800 METAR MRLM NIL=
200505210900 METAR MRLM NIL=
200505211000 METAR MRLM NIL=
200505211100 METAR MRLM NIL=
200505211200 METAR MRLM NIL=
200505211300 METAR MRLM 211300Z VRB03KT CAVOK 23/22 A2987 RMK CB RN DST NE E=
200505211400 METAR MRLM 211400Z 00000KT CAVOK 25/23 A2988 RMK CB RN DST E=
200505211500 METAR MRLM 211500Z 01004KT CAVOK 27/23 A2988 RMK LEVE HZY=
200505211600 METAR MRLM 211600Z 10006KT 9999 SCT023 OVC270 27/23 A2988 RMK LEVE HZY=
200505211700 METAR MRLM 211700Z 10009KT 9999 FEW028 OVC270 28/23 A2986=
200505211800 METAR MRLM 211800Z 08005KT 9999 FEW028 OVC270 28/23 A2984 RMK HZY=
200505211900 METAR MRLM 211900Z 07004KT 9999 FEW028 OVC270 28/22 A2982=
200505212000 METAR MRLM NIL=
200505212100 METAR MRLM 212100Z VRB03KT 9999 FEW023 SCT150 BKN270 28/24 A2977=
200505212200 METAR MRLM 212200Z VRB03KT 9999 FEW023 SCT150 BKN270 28/24 A2976=
200505212300 METAR MRLM 212300Z 00000KT 9999 SCT023B SCT150 BKN270 28/23 A2977=
200505220000 METAR MRLM NIL=
200505220100 METAR MRLM NIL=
200505220200 METAR MRLM NIL=
200505220300 METAR MRLM NIL=
200505220400 METAR MRLM NIL=
200505220500 METAR MRLM NIL=
200505220600 METAR MRLM NIL=
200505220700 METAR MRLM NIL=
200505220800 METAR MRLM NIL=
200505220900 METAR MRLM NIL=
200505221000 METAR MRLM NIL=
200505221100 METAR MRLM NIL=
200505221200 METAR MRLM NIL=
200505221300 METAR MRLM 221300Z 21003KT 9999 FEW040 BKN090 25/23 A2988=
200505221400 METAR MRLM 221400Z 20003KT 9999 FEW030 SCT090 BKN250 26/23 A2990=
200505221500 METAR MRLM 221500Z 00000KT 9999 FEW030 SCT090 BKN250 27/23 A2991=
200505221600 METAR MRLM 221600Z 09004KT 9999 FEW030 SCT090 BKN250 29/24 A2991=
200505221700 METAR MRLM 221700Z 09009KT 9999 FEW028 SCT090 BKN250 29/23 A2990=
200505221800 METAR MRLM 221800Z 10008KT 9999 FEW025 BKN250 29/24 A2987=
200505221900 METAR MRLM 221900Z 09005KT 9999 FEW025 BKN250 29/234 A2983=
200505222000 METAR MRLM NIL=
200505222100 METAR MRLM 222100Z 05006KT 9999 FEW024 BKN250 29/24 A2978=
200505222200 METAR MRLM 222200Z 06005KT 9999 FEW024 BKN250 28/24 A2978=
200505222300 METAR MRLM 222300Z 00000KT 9999 FEW024 BKN250 27/24 A2979=
200505230000 METAR MRLM 230000Z 00000KT 9999 FEW030 BKN100 26/24 A2981=
200505230100 METAR MRLM NIL=
200505230200 METAR MRLM NIL=
200505230300 METAR MRLM NIL=
200505230400 METAR MRLM NIL=
200505230500 METAR MRLM NIL=
200505230600 METAR MRLM NIL=
200505230700 METAR MRLM NIL=
200505230800 METAR MRLM NIL=
200505230900 METAR MRLM NIL=
200505231000 METAR MRLM NIL=
200505231100 METAR MRLM NIL=
200505231200 METAR MRLM NIL=
200505231300 METAR MRLM 231300Z 00000KT CAVOK 25/23 A2985=
200505231400 METAR MRLM 231400Z 00000KT 9999 FEW030 BKN250 29/23 A2988=
200505231500 METAR MRLM 231500Z 02005KT 9999 FEW026 SCT250 29/23 A2990=
200505231600 METAR MRLM 231600Z 03006KT 9999 SCT026 SCT250 29/24 A2991=
200505231700 METAR MRLM 231700Z 02005KT 9999 SCT026 SCT250 29/24 A2989=
200505231800 METAR MRLM 231800Z 03006KT 9999 SCT024 SCT250 29/24 A2987=
200505231900 METAR MRLM 231900Z 03007KT 9999 FEW020CB FEW024 SCT250 29/24 A2986=
200505232000 METAR MRLM NIL=
200505232100 METAR MRLM 232100Z 10005KT 9999 SCT030 BKN240 29/24 A2982=
200505232200 METAR MRLM 232200Z 12008KT 9999 FEW028 SCT100 BKN250 29/24 A2982=
200505232300 METAR MRLM 232300Z 16003KT 9999 FEW025 BKN250 28/24 A2982=
200505240000 METAR MRLM 240000Z 00000KT 9999 FEW025 SCT100 BKN220 27/23 A2984=
200505240100 METAR MRLM NIL=
200505240200 METAR MRLM NIL=
200505240300 METAR MRLM NIL=
200505240400 METAR MRLM NIL=
200505240500 METAR MRLM NIL=
200505240600 METAR MRLM NIL=
200505240700 METAR MRLM NIL=
200505240800 METAR MRLM NIL=
200505240900 METAR MRLM NIL=
200505241000 METAR MRLM NIL=
200505241100 METAR MRLM NIL=
200505241200 METAR MRLM 241200Z 08004KT 9999 FEW037 SCT270 30/23 A2977 RMK CB DST=
200505241300 METAR MRLM 241300Z 00000KT CAVOK 24/22 A2987=
200505241400 METAR MRLM 241400Z 00000KT CAVOK 27/22 A2989=
200505241500 METAR MRLM 241500Z VRB03KT CAVOK 28/22 A2989=
200505241600 METAR MRLM 241600Z 05005KT CAVOK 29/23 A2987=
200505241700 METAR MRLM 241700Z 07004KT 9999 FEW033 BKN130 29/23 A2987=
200505241800 METAR MRLM 241800Z 05007KT 9999 FEW034 SCT130 30/23 A2984=
200505241900 METAR MRLM 241900Z 04008KT 9999 FEW036 SCT140 30/23 A2981=
200505242000 METAR MRLM NIL=
200505242200 METAR MRLM 242200Z 10008KT 9999 FEW030 SCT270 29/23 A2976 RMK CB DST S HZ LGT ARND=
200505242300 METAR MRLM 242300Z 09007KT 9999 FEW030 SCT270 29/23 A2977 CB DST S/SW/W/NW HZY=
200505250000 METAR MRLM 250000Z 08004KT CAVOK 29/23 A2978 RMK CB DST S/SW/WNW SCT270=
200505250100 METAR MRLM NIL=
200505250200 METAR MRLM NIL=
200505250300 METAR MRLM NIL=
200505250400 METAR MRLM NIL=
200505250500 METAR MRLM NIL=
200505250600 METAR MRLM NIL=
200505250700 METAR MRLM NIL=
200505250800 METAR MRLM NIL=
200505250900 METAR MRLM NIL=
200505251000 METAR MRLM NIL=
200505251100 METAR MRLM NIL=
200505251200 METAR MRLM NIL=
200505251300 METAR MRLM 251300Z 00000KT CAVOK 27/24 A2982 RMK OVC300 CB DST NW/N LGT HZ ARND=
200505251400 METAR MRLM 251400Z 00000KT CAVOK 29/23 A2985 RMK FEW140 OVC300 LGT ARMD CB DST N/NW=
200505251500 METAR MRLM 251500Z 03004KT 9999 FEW030 OVC300 29/23 A2986 RMK LGT HZ ARND=
200505251600 METAR MRLM 251600Z 02007KT 9999 FEW030 BKN300 30/24 A2984 RMK HZ LGT ARND=
200505251700 METAR MRLM 251700Z 36008KT 9999 FEW030 SCT300 30/24 A2984 RMK HZ LGT ARND=
200505251800 METAR MRLM 251800Z 01010KT 9999 FEW030 SCT300 30/24 A2983 RMK HZ LGT ARND=
200505251900 METAR MRLM 251900Z 03007KT 9999 FEW030 30/24 A2981 RMK CB DST SE/S HZ LGT ARND=
200505252000 METAR MRLM NIL=
200505252100 METAR MRLM 252100Z 06004KT 9999 FEW030 30/24 A2977 RMK CB DST QUAD S W=
200505252200 METAR MRLM 252200Z 00000KT 9999 FEW028 SCT280 30/24 A2975 RMK CB DST S SW W HZY=
200505252300 METAR MRLM 252300Z 09006KT 9999 FEW023 BKN280 29/24 A2976 RMK CB DST S SW W HZY=
200505260000 METAR MRLM 260000Z 09006KT 9999 FEW025 SCT150 29/24 A2976 RMK HZY=
200505260100 METAR MRLM NIL=
200505260200 METAR MRLM NIL=
200505260300 METAR MRLM NIL=
200505260400 METAR MRLM NIL=
200505260500 METAR MRLM NIL=
200505260600 METAR MRLM NIL=
200505260700 METAR MRLM NIL=
200505260800 METAR MRLM NIL=
200505260900 METAR MRLM NIL=
200505261000 METAR MRLM NIL=
200505261100 METAR MRLM NIL=
200505261200 METAR MRLM NIL=
200505261300 METAR MRLM 261300Z 19004KT 9999 FEW030 SCT250 26/23 A2985 RMK HZY=
200505261400 METAR MRLM 261400Z 12004KT CAVOK 29/23 A2985=
200505261500 METAR MRLM 261500Z 08006KT CAVOK 30/24 A2986=
200505261600 METAR MRLM 261600Z 09012KT 9999 FEW025 SCT250 30/24 A2984=
200505261700 METAR MRLM 261700Z 09012KT 9999 FEW025 SCT250 30/24 A2982=
200505261800 METAR MRLM 261800Z 09013KT 9999 FEW025 SCT250 30/24 A2982=
200505261900 METAR MRLM 261900Z 09013KT 9999 FEW025 BKN250 30/25 A2980=
200505262000 METAR MRLM NIL=
200505262100 METAR MRLM 262100Z 08009KT 9999 FEW025 BKN250 30/25 A2977=
200505262200 METAR MRLM 262200Z 08008KT 9999 FEW025 BKN250 30/24 A2975=
200505262300 METAR MRLM 262300Z 08008KT 9999 FEW025 BKN250 29/24 A2976=
200505270000 METAR MRLM 270000Z 09006KT 9999 FEW025 BKN250 29/24 A2978=
200505270100 METAR MRLM NIL=
200505270200 METAR MRLM NIL=
200505270300 METAR MRLM NIL=
200505270400 METAR MRLM NIL=
200505270500 METAR MRLM NIL=
200505270600 METAR MRLM NIL=
200505270700 METAR MRLM NIL=
200505270800 METAR MRLM NIL=
200505270900 METAR MRLM NIL=
200505271000 METAR MRLM NIL=
200505271100 METAR MRLM NIL=
200505271200 METAR MRLM 271200Z 00000KT 9999 FEW025 BKN240 24/23 A2983 RMK RN DST=
200505271300 METAR MRLM 271300Z 00000KT 9999 FEW025 BKN240 24/23 A2985=
200505271400 METAR MRLM 271400Z 20004KT 9999 FEW025 BKN240 27/23 A2986=
200505271500 METAR MRLM 271500Z 09004KT 9999 FEW025 BKN240 29/24 A2988=
200505271600 METAR MRLM 271600Z 09005KT 9999 FEW025 BKN240 29/24 A2989=
200505271700 METAR MRLM 271700Z 07006KT 9999 FEW025 BKN240 30/24 A2988=
200505271800 METAR MRLM 271800Z 07005KT 9999 FEW025 BKN240 30/23 A2987=
200505271900 METAR MRLM 271900Z 05005KT 9999 FEW025 BKN240 30/24 A2984=
200505272000 METAR MRLM NIL=
200505272100 METAR MRLM 272100Z 04008KT 9999 FEW030 BKN240 30/25 A2982=
200505272200 METAR MRLM 272200Z 07004KT 9999 BKN030 29/25 A2982=
200505272300 METAR MRLM 272300Z 05011KT 9999 SCT024TCU SCT100 29/24 A2983=
200505280000 METAR MRLM 280000Z 06003KT 9999 SCT024 BKN090 29/24 A2983=
200505280100 METAR MRLM NIL=
200505280200 METAR MRLM NIL=
200505280300 METAR MRLM NIL=
200505280400 METAR MRLM NIL=
200505280500 METAR MRLM NIL=
200505280600 METAR MRLM NIL=
200505280700 METAR MRLM NIL=
200505280800 METAR MRLM NIL=
200505280900 METAR MRLM NIL=
200505281000 METAR MRLM NIL=
200505281100 METAR MRLM NIL=
200505281200 METAR MRLM NIL=
200505281300 METAR MRLM 281300Z 00000KT 9999 FEW010 BKN090 24/22 A2986 RMK CB RN W NW NE=
200505281400 METAR MRLM 281400Z 00000KT 9999 FEW010 BKN090 24/22 A2986 RMK CB RN W NW NE=
200505281500 METAR MRLM 281500Z 27004KT 9999 FEW015 SCT090 OVC270 27/24 A2986 RMK CB RN N NE=
200505281600 METAR MRLM 281600Z 00000KT CAVOK 28/24 A2985 RMK CB RN NW N BKN090 SCT270=
200505281700 METAR MRLM 281700Z 01005KT CAVOK 28/24 A2984 RMK SCT090 OVC270=
200505281800 METAR MRLM 281800Z 01006KT 9999 FEW020 SCT110 OVC270 28/24 A2984 RMK HZ ARND=
200505281900 METAR MRLM 281900Z 03004KT 9999 FEW027 BKN090 28/23 A2983 RMK RN E=
200505282000 METAR MRLM NIL=
200505282100 METAR MRLM 282100Z 00000KT 9999 FEW025 SCT140 BKN260 29/24 A2978=
200505282200 METAR MRLM 282200Z 00000KT CAVOK 28/24 A2976=
200505282300 METAR MRLM 282300Z 00000KT CAVOK 28/23 A2976=
200505290000 METAR MRLM 290000Z 36004KT CAVOK 28/23 A2977=
200505290100 METAR MRLM NIL=
200505290200 METAR MRLM NIL=
200505290300 METAR MRLM NIL=
200505290400 METAR MRLM NIL=
200505290500 METAR MRLM NIL=
200505290600 METAR MRLM NIL=
200505290700 METAR MRLM NIL=
200505290800 METAR MRLM NIL=
200505290900 METAR MRLM NIL=
200505291000 METAR MRLM NIL=
200505291100 METAR MRLM NIL=
200505291200 METAR MRLM NIL=
200505291300 METAR MRLM 291300Z 00000KT CAVOK 25/23 A2982=
200505291400 METAR MRLM 291400Z 25004KT CAVOK 26/23 A2981=
200505291500 METAR MRLM 291500Z VRB03KT CAVOK 29/24 A2983=
200505291600 METAR MRLM 291600Z 36004KT 9999 FEW027 BKN110 30/24 A2981=
200505291700 METAR MRLM 291700Z 31007KT 9999 FEW040 BKN100 31/23 A2980=
200505291900 METAR MRLM 291900Z 00000KT 8000 -TSRA FEW008 SCT015CB BKN100 24/22 A2979=
200505292000 METAR MRLM 292000Z 00000KT 9999 RA FEW010 BKN130 24/23 A2976=
200505292100 METAR MRLM 292100Z 00000KT 9999 FEW006 SCT090 BKN150 24/23 A2975 RERA=
200505292200 METAR MRLM 292200Z 00000KT CAVOK 25/24 A2976=
200505292300 METAR MRLM 292300Z 00000KT CAVOK 26/24 A2975=
200505300000 METAR MRLM 300000Z 00000KT CAVOK 26/24 A2976=
200505300100 METAR MRLM NIL=
200505300200 METAR MRLM NIL=
200505300300 METAR MRLM NIL=
200505300400 METAR MRLM NIL=
200505300500 METAR MRLM NIL=
200505300600 METAR MRLM NIL=
200505300700 METAR MRLM NIL=
200505300800 METAR MRLM NIL=
200505300900 METAR MRLM NIL=
200505301000 METAR MRLM NIL=
200505301100 METAR MRLM NIL=
200505301200 METAR MRLM NIL=
200505301300 METAR MRLM 301300Z 00000KT 9999 BKN030 SCT080 24/23 A2982 REDZ=
200505301400 METAR MRLM 301400Z 23003KT 9999 SCT030 BKN090 24/23 A2982 RERA=
200505301500 METAR MRLM 301500Z 29003KT 9999 FEW030 SCT090 BKN220 26/23 A2983=
200505301600 METAR MRLM 301600Z 29006KT 9999 FEW030 BKN220 28/24 A2983=
200505301700 METAR MRLM 301700Z 29003KT 9999 FEW030 SCT100 BKN220 29/23 A2981=
200505301800 METAR MRLM 301800Z 32003KT 9999 FEW030 SCT100 BKN220 29/24 A2978=
200505301900 METAR MRLM 301900Z 36007KT 9999 FEW030 SCT100 BKN250 28/25 A2975=
200505302000 METAR MRLM NIL=
200505302100 METAR MRLM 302100Z 00000KT 9999 FEW030 SCT100 BKN250 28/24 A2973 RMK HZY=
200505302200 METAR MRLM 302200Z 00000KT 9999 FEW030 BKN100 28/24 A2972 RMK RN DST SW HZY=
200505302300 METAR MRLM 302300Z 00000KT 9999 FEW030 SCT100 BKN250 28/24 A2972 RMK HZY=
200505310000 METAR MRLM 310000Z 00000KT 9999 FEW030 BKN100 28/24 A2973 RMK RN DST E HZY=
200505310100 METAR MRLM NIL=
200505310200 METAR MRLM NIL=
200505310300 METAR MRLM NIL=
200505310400 METAR MRLM NIL=
200505310500 METAR MRLM NIL=
200505310600 METAR MRLM NIL=
200505310700 METAR MRLM NIL=
200505310800 METAR MRLM NIL=
200505310900 METAR MRLM NIL=
200505311000 METAR MRLM NIL=
200505311100 METAR MRLM NIL=
200505311200 METAR MRLM 311200Z 00000KT 9999 DZ FEW024 BKN030 24/22 A2977=
200505311300 METAR MRLM 311300Z 00000KT 9999 BKN030 SCT090 24/23 A2979 REDZ RMK RN DST ARND=
200505311400 METAR MRLM 311400Z 31007KT 9999 3000NW VCSH FEW022CB BKN026 25/24 A2983=
200505311500 METAR MRLM 311500Z 31005KT 8000 DZ SCT020 BKN030 25/24 A2985 RMK RN ARND=
200505311600 METAR MRLM 311600Z 28004KT 9999 -DZ BKN030 SCT080 25/24 A2984 RMK RN DST ARND=
200505311700 METAR MRLM 311700Z 26005KT 9999 FEW028 BKN080 26/24 A2983 REDZ RMK RN DST ARND=
200505311800 METAR MRLM 211800Z 02006KT 9999 SCT028 SCT080 28/24 A2982 RMK RN DST ARND=
200505311900 METAR MRLM 311900Z 06003KT 9999 FEW024 BKN090 28/24 A2977 RMK CB RN DST ARND=
200505312000 METAR MRLM NIL=
200505312100 METAR MRLM 312100Z 03006KT 9999 -DZ SCT024 BKN080 27/22 A2976=
200505312200 METAR MRLM 312200Z 01004KT 9999 SCT030 BKN100 27/23 A2974=
200505312300 METAR MRLM 312300Z 01004KT 9999 FEW030 BKN100 27/23 A2974=
200506010000 METAR MRLM 010000Z 00000KT 9999 FEW030 BKN090 26/24 A2975=
200506010100 METAR MRLM NIL=
200506010200 METAR MRLM NIL=
200506010300 METAR MRLM NIL=
200506010400 METAR MRLM NIL=
200506010500 METAR MRLM NIL=
200506010600 METAR MRLM NIL=
200506010700 METAR MRLM NIL=
200506010800 METAR MRLM NIL=
200506010900 METAR MRLM NIL=
200506011000 METAR MRLM NIL=
200506011100 METAR MRLM NIL=
200506011200 METAR MRLM NIL=
200506011300 METAR MRLM 011300Z 19005KT CAVOK 25/23 A2981=
200506011400 METAR MRLM 011400Z 00000KT CAVOK 28/24 A2982=
200506011500 METAR MRLM 011500Z 10004KT 9999 FEW027 SCT300 29/23 A2982=
200506011600 METAR MRLM 011600Z 02004KT 9999 FEW026 SCT300 29/24 A2982=
200506011700 METAR MRLM 011700Z 05005KT 9999 FEW026 SCT250 29/24 A2982=
200506011800 METAR MRLM 011800Z 07006KT 9999 FEW026 29/24 A2980=
200506011900 METAR MRLM 011900Z 08007KT 9999 SCT020 SCT250 28/24 A2978=
200506012000 METAR MRLM NIL=
200506012100 METAR MRLM 012100Z VRB03KT 9999 SCT020 SCT140 28/24 A2974 CB RN S SW W=
200506012200 METAR MRLM 012200Z 00000KT 9999 FEW020 BKN140 28/24 A2975 RMK CB S W RB W NW=
200506012300 METAR MRLM 012300Z 00000KT 9999 FEW017 BKN090 28/24 A2977 CB RN SW W=
200506020000 METAR MRLM 020000Z 00000KT 9999 FEW012 BKN130 28/24 A2977=
200506020100 METAR MRLM NIL=
200506020200 METAR MRLM NIL=
200506020300 METAR MRLM NIL=
200506020400 METAR MRLM NIL=
200506020500 METAR MRLM NIL=
200506020600 METAR MRLM NIL=
200506020700 METAR MRLM NIL=
200506020800 METAR MRLM NIL=
200506020900 METAR MRLM NIL=
200506021000 METAR MRLM NIL=
200506021100 METAR MRLM NIL=
200506021200 METAR MRLM NIL=
200506021300 METAR MRLM 021300Z 19004KT CAVOK 25/22 A2981=
200506021400 METAR MRLM 021400Z VRB03KT CAVOK 27/23 A2983 RMK RN N SCT240 BKN270=
200506021500 METAR MRLM 021500Z 00000KT 9999 FEW022 SCT150 BKN270 28/23 A2983 RMK CB RN N E=
200506021600 METAR MRLM 021600Z 01005KT 9999 FEW025 SCT150 BKN270 29/24 A2982=
200506021700 METAR MRLM 021700Z 06004KT 9999 FEW029 SCT140 BKN280 29/23 A2980=
200506021800 METAR MRLM 021800Z 03008KT 9999 FEW020 BKN270 29/24 A2978 RMK CB S SW W=
200506021900 METAR MRLM 021900Z 03006KT 9999 FEW028 BKN280 29/24 A2975 RMK CB S SW E NE=
200506022000 METAR MRLM NIL=
200506022100 METAR MRLM 022100Z VRB03KT 9999 SCT026 BKN280 29/24 A2972=
200506022200 METAR MRLM 022200Z 00000KT 9999 SCT026 SCT140 29/23 A2973=
200506022300 METAR MRLM 022300Z 00000KT 9999 FEW027 SCT140 29/23 A2974=
200506030000 METAR MRLM 030000Z 00000KT 9999 FEW016 BKN120 27/24 A2976=
200506030100 METAR MRLM NIL=
200506030200 METAR MRLM NIL=
200506030300 METAR MRLM NIL=
200506030400 METAR MRLM NIL=
200506030500 METAR MRLM NIL=
200506030600 METAR MRLM NIL=
200506030700 METAR MRLM NIL=
200506030800 METAR MRLM NIL=
200506030900 METAR MRLM NIL=
200506031000 METAR MRLM NIL=
200506031100 METAR MRLM NIL=
200506031200 METAR MRLM NIL=
200506031300 METAR MRLM 031300Z 00000KT 9999 SCT030 BKN230 24/22 A2978=
200506031400 METAR MRLM 031400Z 00000KT 9999 FEW030 SCT090 BKN230 25/23 A2981=
200506031500 METAR MRLM 031500Z 20003KT 9999 FEW030 SCT100 BKN230 26/23 A2981=
200506031600 METAR MRLM 031600Z 04003KT 9999 FEW030 BKN250 29/24 A2979=
200506031700 METAR MRLM 031700Z 04006KT 9999 FEW028 BKN250 29/24 A2976=
200506031800 METAR MRLM 031800Z 04006KT 9999 FEW028 BKN250 30/24 A2974=
200506031900 METAR MRLM 031900Z 02006KT 9999 FEW028 BKN250 30/24 A2972=
200506032000 METAR MRLM NIL=
200506032100 METAR MRLM 032100Z 36005KT 9999 FEW028 BKN250 29/24 A2968=
200506032200 METAR MRLM 032200Z 01004KT 9999 FEW024 BKN250 29/24 A2967=
200506032300 METAR MRLM 032300Z 35005KT 9999 FEW024 BKN250 29/24 A2968=
200506040000 METAR MRLM 040000Z 35003KT 9999 FEW024 BKN250 28/24 A2970=
200506040100 METAR MRLM NIL=
200506040200 METAR MRLM NIL=
200506040300 METAR MRLM NIL=
200506040400 METAR MRLM NIL=
200506040500 METAR MRLM NIL=
200506040600 METAR MRLM NIL=
200506040700 METAR MRLM NIL=
200506040800 METAR MRLM NIL=
200506040900 METAR MRLM NIL=
200506041000 METAR MRLM NIL=
200506041100 METAR MRLM NIL=
200506041200 METAR MRLM NIL=
200506041300 METAR MRLM 041300Z 00000KT 9999 FEW012 SCT150 BKN260 25/23 A2976=
200506041400 METAR MRLM 041400Z 00000KT 9999 FEW020 BKN270 29/24 A2977=
200506041500 METAR MRLM 041500Z 03004KT 9999 FEW024 BKN270 29/24 A2978=
200506041600 METAR MRLM 041600Z 03004KT 9999 FEW025 BKN270 29/24 A2978=
200506041700 METAR MRLM 041700Z 03006KT 9999 FEW026 BKN270 29/24 A2976=
200506041800 METAR MRLM 041800Z 03006KT 9999 FEW026 BKN270 30/24 A2975=
200506041900 METAR MRLM 041900Z 01007KT 9999 FEW026 BKN270 29/24 A2973=
200506042000 METAR MRLM NIL=
200506042100 METAR MRLM 042100Z 36006KT 9999 SCT026 SCT270 29/24 A2970 RMK CB DST ARND RN DST SW W=
200506042200 METAR MRLM 042200Z 36005KT 9999 SCT026TCU BKN270 29/24 A2970 RMK CB DST SE S RN DST SW=
200506042300 METAR MRLM 042300Z 24004KT 9999 TS FEW018CB BKN026 26/23 A2974 RMK CB RN S SE SW W=
200506050000 METAR MRLM 050000Z 22005KT 9999 TS FEW015CB BKN022 25/23 A2976 RMK CB ARND RN TS SW W N NE=
200506050100 METAR MRLM NIL=
200506050200 METAR MRLM NIL=
200506050300 METAR MRLM NIL=
200506050400 METAR MRLM NIL=
200506050500 METAR MRLM NIL=
200506050600 METAR MRLM NIL=
200506050700 METAR MRLM NIL=
200506050800 METAR MRLM NIL=
200506050900 METAR MRLM NIL=
200506051000 METAR MRLM NIL=
200506051100 METAR MRLM NIL=
200506051200 METAR MRLM NIL=
200506051300 METAR MRLM 051300Z 00000KT 9999 FEW015 BKN270 24/23 A2978 CB RN DST N NE E HZY=
200506051400 METAR MRLM 051400Z 00000KT CAVOK 26/23 A2979 RMK CB RN DST N E HZY=
200506051500 METAR MRLM 051500Z 00000KT 9999 FEW030 BKN270 29/23 A2981 RMK CB RN DST N NE E=
200506051600 METAR MRLM 051600Z VRB03KT 9999 FEW030 BKN270 29/23 A2981 RMK RN CB DST N NE E=
200506051700 METAR MRLM 051700Z 01008KT 9999 SCT028 SCT270 29/24 A2980 RMK RN CB DST N NE E=
200506051800 METAR MRLM 051800Z 02008KT 9999 FEW028 BKN270 29/24 A2979 RMK CB RN DST N NE E E HZY=
200506051900 METAR MRLM 051900Z 36010KT 9999 BKN026 SCT270 30/25 A2976 RMK CB DST ARND RN DST S SW N W NE TSTM DST W=
200506052000 METAR MRLM NIL=
200506052100 METAR MRLM 052100Z VRB03KT 9999 SCT020 SCT140 28/24 A2974 RMK CB DIST ARNW=
200506052200 METAR MRLM 052200Z 00000KT 9999 FEW015 SCT028 BKN140 28/23 A2975=
200506052300 METAR MRLM 052300Z 25007KT 9999 RA OVC010 26/24 A2977=
200506060000 METAR MRLM NIL=
200506060100 METAR MRLM NIL=
200506060200 METAR MRLM NIL=
200506060300 METAR MRLM NIL=
200506060400 METAR MRLM NIL=
200506060500 METAR MRLM NIL=
200506060600 METAR MRLM NIL=
200506060700 METAR MRLM NIL=
200506060800 METAR MRLM NIL=
200506060900 METAR MRLM NIL=
200506061000 METAR MRLM NIL=
200506061100 METAR MRLM NIL=
200506061200 METAR MRLM NIL=
200506061300 METAR MRLM 061300Z 00000KT CAVOK 24/23 A2983=
200506061400 METAR MRLM 061400Z 00000KT CAVOK 26/23 A2984=
200506061500 METAR MRLM 061500Z 08004KT 9999 FEW026 BKN120 28/23 A2985=
200506061600 METAR MRLM 061600Z VRB03KT 9999 FEW030 SCT100 BKN130 28/23 A2984=
200506061700 METAR MRLM 061700Z 10005KT 9999 FEW032 OVC110 29/22 A2983=
200506061800 METAR MRLM 061800Z 07004KT 9999 FEW032 OVC110 29/23 A2984=
200506061900 METAR MRLM 061900Z 10008KT 9999 FEW030 BKN110 29/23 A2981=
200506062000 METAR MRLM NIL=
200506062100 METAR MRLM 062100Z 10007KT 9999 FEW030 BKN090 29/23 A2976 RMK SW W NE=
200506062200 METAR MRLM 062200Z 09004KT 9999 FEW034 SCT090 BKN120 29/22 A2974 RMK CB RN S SW E=
200506062300 METAR MRLM 062300Z 09007KT 9999 FEW028 BKN090 29/23 A2976 RERA RMK CB RN SE S W=
200506070000 METAR MRLM 070000Z 11012KT 9999 FEW026 SCT080 BKN120 28/23 A2975 RMK CB RN DST S=
200506070100 METAR MRLM NIL=
200506070200 METAR MRLM NIL=
200506070300 METAR MRLM NIL=
200506070400 METAR MRLM NIL=
200506070500 METAR MRLM NIL=
200506070600 METAR MRLM NIL=
200506070700 METAR MRLM NIL=
200506070800 METAR MRLM NIL=
200506070900 METAR MRLM NIL=
200506071000 METAR MRLM NIL=
200506071100 METAR MRLM NIL=
200506071200 METAR MRLM NIL=
200506071300 METAR MRLM 071300Z 21004KT 9999 FEW026 26/23 A2978 RMK TCU RN NE=
200506071400 METAR MRLM 071400Z 00000KT 9999 FEW024CB 29/24 A2979=
200506071500 METAR MRLM 071500Z 06004KT 9999 FEW024 SCT280 28/24 A2980 RMK CB RN NW N E=
200506071600 METAR MRLM 071600Z 04006KT 9999 FEW024 BKN250 28/24 A2980 RMK CB RN N NE=
200506071700 METAR MRLM 071700Z 04005KT 9999 FEW024 BKN250 28/24 A2979=
200506071800 METAR MRLM 071800Z 07005KT 9999 FEW024 BKN250 29/24 A2977=
200506071900 METAR MRLM 071900Z 07006KT 9999 FEW024 BKN250 29/24 A2975 RMK CB RN S SW=
200506072000 METAR MRLM NIL=
200506072100 METAR MRLM 072100Z 11005KT 9999 FEW024 BKN100 28/24 A2970=
200506072200 METAR MRLM 072200Z 00000KT 9999 +DZ FEW024 BKN090 26/24 A2969=
200506072300 METAR MRLM 072300Z 00000KT 9999 -DZ FEW035 BKN090 26/25 A2977=
200506080000 METAR MRLM 080000Z 25003KT 9999 DZ FEW030 BKN090 25/24 A2973=
200506080100 METAR MRLM NIL=
200506080200 METAR MRLM NIL=
200506080300 METAR MRLM NIL=
200506080400 METAR MRLM NIL=
200506080500 METAR MRLM NIL=
200506080600 METAR MRLM NIL=
200506080700 METAR MRLM NIL=
200506080800 METAR MRLM NIL=
200506080900 METAR MRLM NIL=
200506081000 METAR MRLM NIL=
200506081100 METAR MRLM NIL=
200506081200 METAR MRLM NIL=
200506081300 METAR MRLM 081300Z 00000KT CAVOK 24/22 A2974=
200506081400 METAR MRLM 081400Z 00000KT 9999 FEW025 BKN250 28/24 A2975=
200506081500 METAR MRLM 081500Z 00000KT 9999 FEW025 BKN250 29/23 A2977=
200506081600 METAR MRLM NIL=
200506081700 METAR MRLM 081700Z 08006KT 9999 FEW025 BKN250 30/23 A2976=
200506081800 METAR MRLM 081800Z 06005KT 9999 FEW025 BKN250 30/23 A2974=
200506081900 METAR MRLM 081900Z 04007KT 9999 FEW024 SCT250 30/24 A2971=
200506082000 METAR MRLM NIL=
200506082100 METAR MRLM 082100Z 06005KT 9999 FEW024 BKN100 30/24 A2968=
200506082200 METAR MRLM 082200Z 07009KT 9999 FEW024 BKN080 30/24 A2968=
200506082300 METAR MRLM 082300Z 02004KT 9999 SCT024 BKN080 29/24 A2969=
200506090000 METAR MRLM 090000Z 31004KT 9999 DZ BKN025 SCT080 29/24 A2974=
200506090100 METAR MRLM NIL=
200506090200 METAR MRLM NIL=
200506090300 METAR MRLM NIL=
200506090400 METAR MRLM NIL=
200506090500 METAR MRLM NIL=
200506090600 METAR MRLM NIL=
200506090700 METAR MRLM NIL=
200506090800 METAR MRLM NIL=
200506090900 METAR MRLM NIL=
200506091000 METAR MRLM NIL=
200506091100 METAR MRLM NIL=
200506091200 METAR MRLM NIL=
200506091300 METAR MRLM 091300Z 00000KT 9999 FEW030 BKN090 24/23 A2976=
200506091400 METAR MRLM 091400Z 18003KT 9999 FEW030 BKN100 24/23 A2978=
200506091500 METAR MRLM 091500Z 00000KT 9999 FEW030 BKN100 27/24 A2977 CB N NE=
200506091600 METAR MRLM 091600Z 11003KT 9999 FEW030 SCT100 BKN250 28/23 A2976 RN N NE=
200506091700 METAR MRLM 091700Z 09003KT 9999 FEW030 SCT100 BKN250 29/23 A2977=
200506091800 METAR MRLM 091800Z 05006KT 9999 FEW030 BKN250 29/24 A2975=
200506091900 METAR MRLM 091900Z 05005KT 9999 FEW026 BKN270 30/24 A2973 CB SE S W=
200506092000 METAR MRLM 092000Z VRB03KT 9999 FEW026 BKN270 30/24 A2971 CB SE S W=
200506092100 METAR MRLM 092100Z 09004KT 9999 FEW027 SCT140 BKN270 29/24 A2969 RMK CB DST SE S SW W=
200506092200 METAR MRLM 092200Z 07005KT 9999 FEW026 BKN270 29/24 A2968 RMK CB DST SE S SW RN DST SW=
200506092300 METAR MRLM 092300Z 07004KT 9999 FEW025 BKN270 29/24 A2968 RMK CB DST SE S SW W RN DST W=
200506100000 METAR MRLM 100000Z 00000KT CAVOK 28/24 A2971 RMK CB RN DST S W=
200506100100 METAR MRLM NIL=
200506100200 METAR MRLM NIL=
200506100300 METAR MRLM NIL=
200506100400 METAR MRLM NIL=
200506100500 METAR MRLM NIL=
200506100600 METAR MRLM NIL=
200506100700 METAR MRLM NIL=
200506100800 METAR MRLM NIL=
200506100900 METAR MRLM NIL=
200506101000 METAR MRLM NIL=
200506101100 METAR MRLM NIL=
200506101200 METAR MRLM NIL=
200506101300 METAR MRLM 101300Z 22004KT 9999 SCT020 SCT100 25/23 A2979 RMK CB RN DST N E SW=
200506101400 METAR MRLM 101400Z 00000KT 9999 FEW020 SCT100 BKN150 26/23 A2981 CB RN DST N E SW=
200506101500 METAR MRLM 101500Z 00000KT CAVOK 28/24 A2979 RMK CB RN DST N E SW=
200506101600 METAR MRLM 101600Z 00000KT 9999 FEW020 SCT120 BKN270 28/24 A2980 RMK CB RN DST E=
200506101700 METAR MRLM 101700Z VRB03KT 9999 FEW024 SCT120 BKN270 29/24 A2989 RMK RN CD DST E=
200506101800 METAR MRLM 101800Z 00000KT 9999 FEW023 SCT130 BKN270 29/24 A2978 RMK CB RN DST NE E=
200506101900 METAR MRLM 101900Z 01007KT 9999 FEW026 BKN110 30/24 A2977 RMK CB RN DST ENE WNW=
200506102000 METAR MRLM NIL=
200506102100 METAR MRLM 102100Z 09008KT 9999 FEW025 SCT140 OVC270 29/24 A2971=
200506102200 METAR MRLM 102200Z VRB03KT 9999 FEW024 SCT140 OVC270 29/24 A2972=
200506102300 METAR MRLM 102300Z 00000KT 9999 FEW024 BKN130 29/24 A2974=
200506110000 METAR MRLM 110000Z 00000KT 9999 FEW016 BKN130 28/25 A2975=
200506110100 METAR MRLM NIL=
200506110200 METAR MRLM NIL=
200506110300 METAR MRLM NIL=
200506110400 METAR MRLM NIL=
200506110500 METAR MRLM NIL=
200506110600 METAR MRLM NIL=
200506110700 METAR MRLM NIL=
200506110800 METAR MRLM NIL=
200506110900 METAR MRLM NIL=
200506111000 METAR MRLM NIL=
200506111100 METAR MRLM NIL=
200506111200 METAR MRLM 111200Z 00000KT 9999 FEW024 OVC250 30/24 A2973=
200506111300 METAR MRLM 111300Z 00000KT 9999 FEW024 BKN250 25/24 A2978=
200506111400 METAR MRLM 111400Z 23003KT 9999 FEW024 SCT090 BKN250 27/24 A2989=
200506111500 METAR MRLM 111500Z 24003KT 9999 FEW024 SCT090 BKN250 29/24 A2980=
200506111600 METAR MRLM 111600Z 29004KT 9999 FEW024 BKN080 28/24 A2983=
200506111700 METAR MRLM 111700Z 33006KT 9999 SCT030 SCT080 27/24 A2982=
200506111800 METAR MRLM 111800Z 00000KT 9999 -DZ SCT020 BKN080 27/25 A2982=
200506111900 METAR MRLM 111900Z 02003KT 9999 SCT028 SCT080 27/24 A2978=
200506112000 METAR MRLM NIL=
200506112036 METAR MRLM 112036Z 27004KT 9999 FEW024 SCT090 BKN250 30/24 A2974=
200506112100 METAR MRLM 112100Z 27003KT 9999 FEW024 SCT090 BKN250 31/22 A2974=
200506112200 METAR MRLM 112200Z 31005KT 9999 FEW025 BKN250 30/24 A2973=
200506112300 METAR MRLM 112300Z 34006KT 9999 FEW024 BKN250 29/24 A2974=
200506120000 METAR MRLM 120000Z 00000KT 9999 FEW024 BKN250 28/24 A2976=
200506120100 METAR MRLM NIL=
200506120200 METAR MRLM NIL=
200506120300 METAR MRLM NIL=
200506120400 METAR MRLM NIL=
200506120500 METAR MRLM NIL=
200506120600 METAR MRLM NIL=
200506120700 METAR MRLM NIL=
200506120800 METAR MRLM NIL=
200506120900 METAR MRLM NIL=
200506121000 METAR MRLM NIL=
200506121100 METAR MRLM NIL=
200506121200 METAR MRLM NIL=
200506121300 METAR MRLM NIL=
200506121400 METAR MRLM NIL=
200506121500 MRLM 121500Z 06003KT 9999 FEW025 BKN250 29/23 A2981=
200506121600 METAR MRLM 121600Z 03005KT 9999 FEW025 BKN250 30/24 A2979 RMK CB NNW=
200506121700 METAR MRLM 121700Z 03005KT 9999 FEW025 BKN250 29/24 A2977=
200506121800 METAR MRLM 121800Z 03006KT 9999 FEW025 BKN250 30/25 A2976=
200506121900 METAR MRLM 121900Z 03006 9999 FEW025 BKN250 30/25 A2974=
200506122000 METAR MRLM NIL=
200506122100 METAR MRLM 122100Z 05004KT 9999 FEW024 BKN250 29/25 A2971=
200506122200 METAR MRLM 122200Z 03004KT 9999 FEW024 BKN250 29/25 A2970=
200506122300 METAR MRLM 122300Z 00000KT 9999 SCT024 BKN250 29/25 A2971=
200506130000 METAR MRLM 130000Z 00000KT 9999 SCT024 BKN250 29/25 A2972=
200506130100 METAR MRLM NIL=
200506130200 METAR MRLM NIL=
200506130300 METAR MRLM NIL=
200506130400 METAR MRLM NIL=
200506130500 METAR MRLM NIL=
200506130600 METAR MRLM NIL=
200506130700 METAR MRLM NIL=
200506130800 METAR MRLM NIL=
200506130900 METAR MRLM NIL=
200506131000 METAR MRLM NIL=
200506131100 METAR MRLM NIL=
200506131200 METAR MRLM NIL=
200506131300 METAR MRLM 131300Z 23005KT 9999 FEW025 SCT280 27/24 A2977=
200506131400 METAR MRLM 131400Z 00000KT 9999 FEW025 SCT280 30/25 A2978=
200506131500 METAR MRLM 131500Z 05003KT 9999 SCT025 SCT280 30/25 A2978=
200506131600 METAR MRLM NIL=
200506131700 METAR MRLM 131700Z 02006KT 9999 FEW025 BKN280 30/25 A2976=
200506131800 METAR MRLM 131800Z 03007KT 9999 TS FEW020CB BKN080 30/25 A2974=
200506131900 METAR MRLM 131900Z 02005KT 9999 FEW020CB BKN280 30/25 A2972=
200506132000 METAR MRLM NIL=
200506132100 METAR MRLM 132100Z 07004KT 9999 FEW024 BKN280 30/25 A2966=
200506132200 METAR MRLM 132200Z 07005KT 9999 FEW024 BKN280 30/25 A2966 CB SE S NW=
200506132300 METAR MRLM 132300Z 07007KT 9999 FEW024 BKN280 30/25 A2966 CB ARND=
200506140000 METAR MRLM 140000Z 07006KT 9999 FEW022CB SCT030 BKN280 29/25 A2962 CB ARND RN SE SW W=
200506140100 METAR MRLM NIL=
200506140200 METAR MRLM NIL=
200506140300 METAR MRLM NIL=
200506140400 METAR MRLM NIL=
200506140500 METAR MRLM NIL=
200506140600 METAR MRLM NIL=
200506140700 METAR MRLM NIL=
200506140800 METAR MRLM NIL=
200506140900 METAR MRLM NIL=
200506141000 METAR MRLM NIL=
200506141100 METAR MRLM NIL=
200506141200 METAR MRLM 141200Z 00000KT 9999 FEW030 SCT100 BKN250 24/22 2975 RMK CB DST ARND=
200506141300 METAR MRLM 141300Z 00000KT 9999 FEW030 SCT090 BKN250 25/23 A2977 CB/RN DST N/NE/E/SE=
200506141400 METAR MRLM 141400Z 00000KT 9999 FEW030 BKN230 27/23 A2978=
200506141500 METAR MRLM 141500Z 00000KT 9999 FEW040 BKN220 30/23 A2977=
200506141600 METAR MRLM 141600Z 04004KT 9999 FEW030 BKN220 29/23 A2978=
200506141700 METAR MRLM 141700Z 05006KT 9999 FEW028 BKN220 29/23 A2978 RN E=
200506141800 METAR MRLM 141800Z 06006KT 9999 FEW028 SCT100 BKN220 29/23 A2977 CB S SW W=
200506141900 METAR MRLM 141900Z 08005KT 9999 FEW025 BKN220 29/24 A2976 CB S=
200506142000 METAR MRLM NIL=
200506142100 METAR MRLM 142100Z 06005KT 9999 FEW025 BKN220 29/24 A2971 RMK CB DST SE S W=
200506142200 METAR MRLM 142200Z 04003KT 9999 FEW024 BKN220 29/24 A2971 RMK CB DST ARND=
200506142300 METAR MRLM 142300Z 00000KT 9999 FEW025 BKN220 28/24 A2973 RMK CB DST ARND RN DST SE S SW W=
200506150000 METAR MRLM 150000Z 01003KT 9999 FEW024 SCT090 BKN240 28/24 A2976 RMK CB DST ARND RN DST SE S SW W=
200506150100 METAR MRLM NIL=
200506150200 METAR MRLM NIL=
200506150300 METAR MRLM NIL=
200506150400 METAR MRLM NIL=
200506150500 METAR MRLM NIL=
200506150600 METAR MRLM NIL=
200506150700 METAR MRLM NIL=
200506150800 METAR MRLM NIL=
200506150900 METAR MRLM NIL=
200506151000 METAR MRLM NIL=
200506151100 METAR MRLM NIL=
200506151200 METAR MRLM NIL=
200506151300 METAR MRLM 151300Z 00000KT 9999 SCT020 SCT220 24/22 A2983 RMK CB RN DST NW N=
200506151400 METAR MRLM 151400Z 00000KT 9999 FEW025 BKN220 26/22 A2984 RMK CB RN DST NW N=
200506151500 METAR MRLM 151500Z 00000KT 9999 FEW025 BKN220 28/23 A2984 RMK CB DST NW N NE RN DST NW N=
200506151600 METAR MRLM 151600Z 00000KT 9999 FEW025 BKN240 28/23 A2984 RMK CB RN DST NE=
200506151700 METAR MRLM 151700Z 02006KT 9999 FEW025 BKN240 24/23 A2984 RMK CB DST NE=
200506151800 METAR MRLM 151800Z 02007KT 9999 FEW024TCU BKN240 30/24 A2982 RMK TCU NE S SW RN DST S SW=
200506151900 METAR MRLM 151900Z 01005KT 9999 FEW024 SCT100 BKN250 29/24 A2979 RMK CB DST S SW W RN DST SW=
200506152000 METAR MRLM NIL=
200506152100 METAR MRLM 152100Z 04004KT 9999 FEW024 BKN250 29/24 A2974=
200506152200 METAR MRLM 152200Z 04005KT 9999 FEW024 BKN250 29/24 A2973=
200506152300 METAR MRLM 152300Z 04004KT 9999 FEW024 BKN250 29/23 A2974=
200506160000 METAR MRLM NIL=
200506160100 METAR MRLM NIL=
200506160200 METAR MRLM NIL=
200506160300 METAR MRLM NIL=
200506160400 METAR MRLM NIL=
200506160500 METAR MRLM NIL=
200506160600 METAR MRLM NIL=
200506160700 METAR MRLM NIL=
200506160800 METAR MRLM NIL=
200506160900 METAR MRLM NIL=
200506161000 METAR MRLM NIL=
200506161100 METAR MRLM NIL=
200506161200 METAR MRLM NIL=
200506161300 METAR MRLM 161300Z 22004KT 9999 FEW030 BKN250 26/24 A2983=
200506161500 METAR MRLM 161500Z 04003KT 9999 FEW025 SCT250 29/23 A2984=
200506161600 METAR MRLM 161600Z 01006KT 9999 FEW025 SCT300 30/24 A2983=
200506161700 METAR MRLM 161700Z 01007KT 9999 FEW025 SCT300 30/25 A2982=
200506161800 METAR MRLM 161800Z 04006KT 9999 FEW025 SCT300 30/25 A2980=
200506161900 METAR MRLM 161900Z 02005KT 9999 SCT025 SCT300 30/25 A2979=
200506162000 METAR MRLM 162000Z 03006KT 9999 SCT025 SCT300 30/25 A2977=
200506162100 METAR MRLM 162100Z 01006KT 9999 SCT025 SCT300 30/25 A2976 RMK CB SW W=
200506162200 METAR MRLM 162200Z 02005KT 9999 SCT025 SCT300 30/25 A2975 RMK CB S SW=
200506162300 METAR MRLM 162300Z 05003KT 9999 BKN025 SCT300 30/24 A2977 RMK CB DST SE S SW W=
200506170000 METAR MRLM 170000Z 06006KT 9999 SCT025 SCT300 29/25 A2977 RMK CB RN DST SE S SW W=
200506170100 METAR MRLM NIL=
200506170200 METAR MRLM NIL=
200506170300 METAR MRLM NIL=
200506170400 METAR MRLM NIL=
200506170500 METAR MRLM NIL=
200506170600 METAR MRLM NIL=
200506170700 METAR MRLM NIL=
200506170800 METAR MRLM NIL=
200506170900 METAR MRLM NIL=
200506171000 METAR MRLM NIL=
200506171100 METAR MRLM NIL=
200506171200 METAR MRLM NIL=
200506171300 METAR MRLM 171300Z 19003KT 9999 FEW030 BKN250 27/23 A2982=
200506171400 METAR MRLM 171400Z 00000KT CAVOK 29/24 A2984 RMK FEW020 BKN250=
200506171500 METAR MRLM 171500Z 05003KT 9999 FEW030 BKN250 30/24 A2984=
200506171600 METAR MRLM 171600Z 03004KT 9999 FEW030 BKN250 30/25 A2983=
200506171700 METAR MRLM 171700Z 03005KT 9999 FEW030 BKN250 30/25 A2983 RMK CB E NE=
200506171800 METAR MRLM 171800Z 04006KT 9999 FEW026TCU BKN250 31/25 A2982=
200506171900 METAR MRLM 171900Z 04007KT 9999 FEW026TCU BKN250 30/25 A2980 RMK CB SE SW W=
200506172000 METAR MRLM NIL=
200506172100 METAR MRLM 172100Z 05005KT 9999 SCT025 BKN250 31/25 A2977=
200506172200 METAR MRLM NIL=
200506172300 METAR MRLM NIL=
200506180000 METAR MRLM NIL=
200506180100 METAR MRLM NIL=
200506180200 METAR MRLM NIL=
200506180300 METAR MRLM NIL=
200506180400 METAR MRLM NIL=
200506180500 METAR MRLM NIL=
200506180600 METAR MRLM NIL=
200506180700 METAR MRLM NIL=
200506180800 METAR MRLM NIL=
200506180900 METAR MRLM NIL=
200506181000 METAR MRLM NIL=
200506181100 METAR MRLM NIL=
200506181200 METAR MRLM 181200Z 21004KT 9999 TS FEW020CB SCT100 BKN240 24/22 A2979=
200506181300 METAR MRLM 181300Z 23003KT 9999 FEW025 SCT090 BKN250 24/22 A2981=
200506181400 METAR MRLM 181400Z 00000KT 9999 FEW025 SCT080 BKN250 26/23 A2982=
200506181500 METAR MRLM 181500Z 00000KT 9999 FEW024 BKN250 29/23 A2983=
200506181600 METAR MRLM 181600Z 06006KT 9999 FEW030 BKN250 30/23 A2982/ CB DIST NW NE E=
200506181700 METAR MRLM 181700Z 04005KT 9999 FEW030 BKN250 30/24 A2981=
200506181800 METAR MRLM 181800Z 06007KT 9999 FEW030 BKN250 31/24 A2979=
200506181900 METAR MRLM 181900Z 06006KT 9999 FEW030 BKN250 30/24 A2976=
200506182000 METAR MRLM NIL=
200506182100 METAR MRLM 182100Z 07006KT 9999 FEW030 BKN250 30/24 A2974 CB ARND=
200506182200 METAR MRLM 182200Z 06005KT 9999 FEW025 BKN250 30/24 A2973 CB S W RN W=
200506182300 METAR MRLM 182300Z 08004KT 9999 FEW030 BKN250 30/24 A2974 CB N S SW W RN SW W=
200506190000 METAR MRLM 190000Z 05004KT 9999 FEW030 BKN250 29/24 A2976 CB S SW W N RN SW W=
200506190100 METAR MRLM NIL=
200506190200 METAR MRLM NIL=
200506190300 METAR MRLM NIL=
200506190400 METAR MRLM NIL=
200506190500 METAR MRLM NIL=
200506190600 METAR MRLM NIL=
200506190700 METAR MRLM NIL=
200506190800 METAR MRLM NIL=
200506190900 METAR MRLM NIL=
200506191000 METAR MRLM NIL=
200506191100 METAR MRLM NIL=
200506191200 METAR MRLM 191200Z 21003KT 9999 FEW025 BKN250 24/22 A2981 RMK CB NE N E HZ ARND=
200506191400 METAR MRLM 191400Z 21003KT 9999 FEW020CB BKN250 29/24 A2982=
200506191500 METAR MRLM 191500Z 03003KT 9999 FEW028 SCT250 30/24 A2981=
200506191600 METAR MRLM 191600Z 03007KT 9999 FEW025 BKN300 30/24 A2980=
200506191700 METAR MRLM 191700Z 01008KT 9999 FEW030 OVC300 31/25 A2981=
200506191800 METAR MRLM 191800Z 01008KT 9999 FEW024TCU BKN300 31/25 A2980 CB E=
200506191900 METAR MRLM 191900Z 02006KT 9999 FEW024 BKN300 31/25 A2978=
200506192000 METAR MRLM NIL=
200506192100 METAR MRLM 192100Z 36009KT 9999 FEW024 BKN300 31/25 A2973 RMK TCU DST SE SSE=
200506192200 METAR MRLM 192200Z 36008KT 9999 FEW024 BKN250 30/24 A2973 RMK CB DST SE S SW RN DST S=
200506192300 METAR MRLM 192300Z 36005KT 9999 SCT024 BKN250 30/24 A2974 RMK CB DST SE S SW RN DST SE S=
200506200000 METAR MRLM 200000Z 01003KT 9999 FEW024 BKN250 28/24 A2973=
200506200100 METAR MRLM NIL=
200506200200 METAR MRLM NIL=
200506200300 METAR MRLM NIL=
200506200400 METAR MRLM NIL=
200506200500 METAR MRLM NIL=
200506200600 METAR MRLM NIL=
200506200700 METAR MRLM NIL=
200506200800 METAR MRLM NIL=
200506200900 METAR MRLM NIL=
200506201000 METAR MRLM NIL=
200506201100 METAR MRLM NIL=
200506201200 METAR MRLM 201200Z 00000KT 9999 FEW025 SCT250 26/23 A2977=
200506201400 METAR MRLM 201400Z 20003KT 9999 FEW025TCU BKN100 27/24 A2985 RMK RN DST NW=
200506201500 METAR MRLM 201500Z 18003KT 9999 FEW025 SCT100 BKN240 29/24 A2985 RMK CB RN DST WNW NW NE E=
200506201600 METAR MRLM 201600Z 00000KT 9999 FEW025 SCT100 BKN240 29/23 A2984 RMK CB RN DST WNW N NE E=
200506201700 METAR MRLM 201700Z 09004KT 9999 FEW025 BKN090 29/24 A2982 RMK CB RN DST NE N E SE=
200506201800 METAR MRLM 201800Z 06004KT 9999 FEW030 SCT090 BKN220 29/24 A2980 RMK CB RN DST NW N E=
200506201900 METAR MRLM 201900Z 00000KT 9999 FEW030 BKN120 29/24 A2977=
200506202000 METAR MRLM NIL=
200506202100 METAR MRLM 202100Z 09006KT 9999 FEW030 BKN100 29/24 A2972=
200506202200 METAR MRLM 202200Z 11007KT 9999 FEW030 BKN230 29/23 A2971=
200506202300 METAR MRLM 202300Z 00000KT 9999 FEW030 SCT120 BKN230 29/23 A2972=
200506210000 METAR MRLM 210000Z 01005KT 9999 FEW025 SCT090 BKN220 29/24 A2979=
200506210100 METAR MRLM NIL=
200506210200 METAR MRLM NIL=
200506210300 METAR MRLM NIL=
200506210400 METAR MRLM NIL=
200506210500 METAR MRLM NIL=
200506210600 METAR MRLM NIL=
200506210700 METAR MRLM NIL=
200506210800 METAR MRLM NIL=
200506210900 METAR MRLM NIL=
200506211000 METAR MRLM NIL=
200506211100 METAR MRLM NIL=
200506211200 METAR MRLM NIL=
200506211300 METAR MRLM 211300Z 23004KT 9999 FEW030 BKN220 25/23 A2981=
200506211400 METAR MRLM 211400Z 22003KT 9999 FEW030 BKN220 28/24 A2983=
200506211500 METAR MRLM 211500Z 00000KT 9999 FEW030 BKN220 30/24 A2984=
200506211600 METAR MRLM 211600Z 01004KT 9999 FEW028 BKN240 29/24 A2984=
200506211700 METAR MRLM 211700Z 15004KT 9999 FEW025 BKN250 29/24 A2984=
200506211800 METAR MRLM 211800Z 07006KT 9999 FEW024 BKN250 29/24 A2982=
200506211900 METAR MRLM 211900Z 06008KT 9999 FEW024 BKN250 30/24 A2980=
200506212000 METAR MRLM NIL=
200506212100 METAR MRLM 212100Z 06008KT 9999 FEW024 BKN250 29/23 A2975 RMK CB SE SW HZ ARND=
200506212200 METAR MRLM 212200Z 09007KT 9999 FEW024 SCT100 BKN250 29/22 A2975 RMK CB SE S W SW HZ ARND=
200506212300 METAR MRLM 212300Z 08007KT 9999 FEW030 SCT100 BKN250 29/22 A2976 RMK CB S SW W HZ ARND=
200506220000 METAR MRLM 220000Z 05007KT 9999 FEW030 SCT100 29/23 A2978=
200506220100 METAR MRLM NIL=
200506220200 METAR MRLM NIL=
200506220300 METAR MRLM NIL=
200506220400 METAR MRLM NIL=
200506220500 METAR MRLM NIL=
200506220600 METAR MRLM NIL=
200506220700 METAR MRLM NIL=
200506220800 METAR MRLM NIL=
200506220900 METAR MRLM NIL=
200506221000 METAR MRLM NIL=
200506221100 METAR MRLM NIL=
200506221200 METAR MRLM NIL=
200506221300 METAR MRLM 221300Z 21004KT 9999 FEW024 BKN090 24/23 A2983 RMK CB RN NW E=
200506221400 METAR MRLM NIL=
200506221500 METAR MRLM 221500Z 27003KT 9999 FEW024 BKN090 27/23 A2987 RMK CB RN W NW N NE HZ ARND=
200506221600 METAR MRLM 221600Z 29008KT 9999 SCT024 BKN080 28/23 A2988=
200506221700 METAR MRLM 221700Z 32011KT 9999 OVC024 26/23 A2989 RMK CB RN N NE HZ ARND=
200506221800 METAR MRLM 221800Z 33011KT 999 SCT024 SCT080 26/21 A2986 RMK CB RN ARND=
200506221900 METAR MRLM 221900Z 00000KT 9999 SCT024 BKN080 27/23 A2985 RMK CB RN ARND=
200506222000 METAR MRLM NIL=
200506222100 METAR MRLM 222100Z 26008KT 9999 FEW025 BKN090 26/23 A2981=
200506222200 METAR MRLM 222200Z 00000KT 9999 FEW025 BKN090 27/24 A2981=
200506222300 METAR MRLM NIL=
200506230000 METAR MRLM 230000Z 00000KT 9999 FEW025 SCT090 BKN220 26/24 A2983=
200506230100 METAR MRLM NIL=
200506230200 METAR MRLM NIL=
200506230300 METAR MRLM NIL=
200506230400 METAR MRLM NIL=
200506230500 METAR MRLM NIL=
200506230600 METAR MRLM NIL=
200506230700 METAR MRLM NIL=
200506230800 METAR MRLM NIL=
200506230900 METAR MRLM NIL=
200506231000 METAR MRLM NIL=
200506231100 METAR MRLM NIL=
200506231200 METAR MRLM 231200Z 20003KT 9999 3000NW VCSH FEW012 BKN015TCU 24/22 A2986 RMK RASH NW N NE=
200506231300 METAR MRLM 231300Z 00000KT 9999 FEW025 BKN045 24/23 A2986=
200506231400 METAR MRLM 231400Z 27003KT 9999 FEW025 BKN080 25/23 A2986 RN DST NW N NE=
200506231500 METAR MRLM 231500Z 27003KT 9999 FEW022 SCT100 BKN240 25/24 A2986 CB RN DST NW N NE=
200506231600 METAR MRLM 231600Z 00000KT 9999 FEW022 SCT100 BKN240 27/23 A2985 RN DST N NE=
200506231700 METAR MRLM 231700Z 34007KT 9999 FEW025 BKN250 28/23 A2984=
200506231800 METAR MRLM 231800Z 31007KT 9999 FEW025 SCT100 BKN240 29/22 A2985=
200506231900 METAR MRLM 231900Z 36008KT 9999 FEW025 SCT100 BKN240 29/23 A2980 CB DST SW RN S=
200506232000 METAR MRLM NIL=
200506232100 METAR MRLM 232100Z 36005KT 9999 FEW025 BKN250 29/22 A2977 CB RN SE S SW W=
200506232200 METAR MRLM 232200Z 36005KT 9999 FEW024 BKN250 29/22 A2976 CB RN SE S SW W=
200506232300 METAR MRLM 232300Z 36005KT 9999 FEW024 BKN090 28/22 A2977 CB RN SE S SW W=
200506240000 METAR MRLM 240000Z 03004KT 9999 FEW024 BKN080 28/22 A2979 CB RN DST SE S SW W=
200506240100 METAR MRLM NIL=
200506240200 METAR MRLM NIL=
200506240300 METAR MRLM NIL=
200506240400 METAR MRLM NIL=
200506240500 METAR MRLM NIL=
200506240600 METAR MRLM NIL=
200506240700 METAR MRLM NIL=
200506240800 METAR MRLM NIL=
200506240900 METAR MRLM NIL=
200506241000 METAR MRLM NIL=
200506241100 METAR MRLM NIL=
200506241200 METAR MRLM 241200Z 20004KT 9999 FEW025 SCT100 BKN250 24/22 A2980 RMK CB DST E=
200506241300 METAR MRLM 241300Z 22003KT 9999 FEW030 SCT100 BKN250 25/22 A2980 RMK CB DST E=
200506241400 METAR MRLM 241400Z 00000KT 9999 FEW030 BKN100 27/23 A2982=
200506241500 METAR MRLM 241500Z 00000KT 9999 FEW030 BKN100 29/23 A2984 CB E=
200506241600 METAR MRLM 241600Z 04003KT 9999 FEW030 BKN250 29/23 A2982=
200506241700 METAR MRLM 241700Z 03006KT 9999 FEW030 BKN280 30/24 A2982=
200506241800 METAR MRLM 241800Z 02008KT 9999 FEW024TCU SCT120 BKN250 30/25 A2982 CB N E=
200506241900 METAR MRLM 241900Z 03009KT 9999 FEW020CB BKN250 30/24 A2980 CB ARND RN SW=
200506242000 METAR MRLM NIL=
200506242100 METAR MRLM 242100Z 03005KT 9999 FEW015CB SCT030 BKN250 30/24 A2977 RMK CB RN DST SE S SW W=
200506242200 METAR MRLM 242200Z 04003KT 9999 BKN028 SCT100 29/23 A2977 RMK CB RN DST SE S SW W=
200506242300 METAR MRLM 242300Z 10003KT 9999 FEW015CB BKN028 29/24 A2978 RMK CB DST SE S W RN DST ARND=
200506250000 METAR MRLM 250000Z 20006KT 9999 BKN018 SCT090 26/23 A2977 RETS RMK CB RN DST ARND=
200506250100 METAR MRLM NIL=
200506250200 METAR MRLM NIL=
200506250300 METAR MRLM NIL=
200506250400 METAR MRLM NIL=
200506250500 METAR MRLM NIL=
200506250600 METAR MRLM NIL=
200506250700 METAR MRLM NIL=
200506250800 METAR MRLM NIL=
200506250900 METAR MRLM NIL=
200506251000 METAR MRLM NIL=
200506251100 METAR MRLM NIL=
200506251200 METAR MRLM 251200Z 19005KT 9999 FEW030 SCT100 BKN250 23/22 A2979 CB=
200506251300 METAR MRLM 251300Z 00000KT 9999 FEW030 BKN120 25/23 A2980 RMK CB DST NW N=
200506251400 METAR MRLM 251400Z 00000KT 9999 FEW030 BKN120 28/23 A2981 RMK CB DST NE=
200506251500 METAR MRLM 251500Z 01003KT 9999 FEW030 SCT120 BKN250 29/24 A2983 RMK CB DST NE=
200506251600 METAR MRLM 251600Z 03004KT 9999 FEW025 OVC250 29/24 A2983=
200506251700 METAR MRLM 251700Z 05006KT 9999 FEW025 BKN250 29/24 A2983=
200506251800 METAR MRLM 251800Z 06006KT 9999 FEW024TCU BKN250 29/24 A2981 RMK TCU NE S SW=
200506251900 METAR MRLM 251900Z 06009KT 9999 SCT025 BKN250 30/24 A2979 RMK CB DST SW=
200506252000 METAR MRLM NIL=
200506252100 METAR MRLM 252100Z 07008KT 9999 SCT024 SCT250 30/24 A2974=
200506252200 METAR MRLM 252200Z 07008KT 9999 SCT024 SCT250 30/24 A2974=
200506252300 METAR MRLM 252300Z 09007KT 9999 SCT024 BKN250 30/24 A2975=
200506260000 METAR MRLM NIL=
200506260100 METAR MRLM NIL=
200506260200 METAR MRLM NIL=
200506260300 METAR MRLM NIL=
200506260400 METAR MRLM NIL=
200506260500 METAR MRLM NIL=
200506260600 METAR MRLM NIL=
200506260700 METAR MRLM NIL=
200506260800 METAR MRLM NIL=
200506260900 METAR MRLM NIL=
200506261000 METAR MRLM NIL=
200506261100 METAR MRLM NIL=
200506261200 METAR MRLM NIL=
200506261300 METAR MRLM 261300Z 20004KT 9999 FEW024 SCT100 BKN240 24/23 A2982=
200506261400 METAR MRLM 261400Z 00000KT 9999 FEW030 BKN240 26/24 A2982=
200506261500 METAR MRLM 261500Z 00000KT 9999 FEW030 BKN240 28/24 A2983=
200506261600 METAR MRLM 261600Z 00000KT 9999 FEW030 BKN240 28/22 A2983=
200506261700 METAR MRLM 261700Z 08003KT 9999 FEW030 BKN240 28/23 A2983=
200506261800 METAR MRLM 261800Z 31005KT 9999 SCT025 OVC250 32/25 A2986=
200506261900 METAR MRLM 261900Z 09006KT 9999 FEW028 SCT100 BKN250 29/23 A2980=
200506262000 METAR MRLM NIL=
200506262100 METAR MRLM 262100Z 06006KT 9999 FEW025 BKN250 29/24 A2976 RMK CB RN SE S SW W=
200506262200 METAR MRLM 262200Z 06006KT 9999 FEW025 BKN250 29/24 A2976 RMK CB RN SE S SW W=
200506262300 METAR MRLM 262300Z 07003KT 9999 FEW025 BKN250 29/23 A2977 RMK CB RN SE S SW W=
200506270000 METAR MRLM 270000Z 00000KT 9999 FEW030 BKN250 27/24 A2977 RMK CB RN DST SW W=
200506270100 METAR MRLM NIL=
200506270200 METAR MRLM NIL=
200506270300 METAR MRLM NIL=
200506270400 METAR MRLM NIL=
200506270500 METAR MRLM NIL=
200506270600 METAR MRLM NIL=
200506270700 METAR MRLM NIL=
200506270800 METAR MRLM NIL=
200506270900 METAR MRLM NIL=
200506271000 METAR MRLM NIL=
200506271100 METAR MRLM NIL=
200506271200 METAR MRLM NIL=
200506271300 METAR MRLM 271300Z 00000KT 9999 FEW028 BKN260 25/23 A2983 RMK CB DST E=
200506271400 METAR MRLM 271400Z 00000KT 9999 FEW028 BKN260 27/23 A2985 RMK CB E NE=
200506271500 METAR MRLM 271500Z 32003KT 9999 FEW030 BKN260 29/24 A2986 RMK CB N NE E=
200506271600 METAR MRLM 271600Z 35004KT 9999 FEW025 BKN250 29/23 A2986 RMK CB RN NW N E=
200506271700 METAR MRLM 271700Z 35007KT 9999 FEW025 BKN220 29/23 A2987 RMK CB NW RN NW N NE=
200506271800 METAR MRLM 271800Z 04004KT 9999 FEW025 BKN220 29/23 A2984 RMK CB RN W NW=
200506271900 METAR MRLM NIL=
200506272000 METAR MRLM NIL=
200506272100 METAR MRLM NIL=
200506272200 METAR MRLM NIL=
200506272300 METAR MRLM 272300Z 35005KT 9999 FEW025 BKN220 29/24 A2976=
200506280000 METAR MRLM 280000Z 31003KT 9999 FEW025 BKN220 28/23 A2977=
200506280100 METAR MRLM NIL=
200506280200 METAR MRLM NIL=
200506280300 METAR MRLM NIL=
200506280400 METAR MRLM NIL=
200506280500 METAR MRLM NIL=
200506280600 METAR MRLM NIL=
200506280700 METAR MRLM NIL=
200506280800 METAR MRLM NIL=
200506280900 METAR MRLM NIL=
200506281000 METAR MRLM NIL=
200506281100 METAR MRLM NIL=
200506281200 METAR MRLM 281200Z 00000KT 9999 FEW025 BKN200 23/22 A2978=
200506281300 METAR MRLM 281300Z 00000KT 9999 SCT025 SCT090 23/22 A2980=
200506281400 METAR MRLM 281400Z 00000KT 3000 TSRA SCT015CB BKN026 24/22 A2983=
200506281500 METAR MRLM 281500Z 20003KT 9999 DZ SCT024 BKN080 24/23 A2985 RETSRA CB DST E SE W RN ARND=
200506281600 METAR MRLM 281600Z 19004KT 9999 DZ FEW024 BKN090 24/23 A2981 CB NW N NE DST=
200506281700 METAR MRLM 281700Z 17003KT 9999 FEW024 SCT100 BKN230 26/24 A2978 CB DST NW N NE TS NE=
200506281900 METAR MRLM 281900Z 00000KT 9999 FEW030 SCT100 BKN220 28/24 A2978 CB DST W=
200506282000 METAR MRLM NIL=
200506282100 METAR MRLM 282100Z 04003KT 9999 FEW030 SCT100 BKN220 28/23 A2976=
200506282200 METAR MRLM 282200Z 00000KT 9999 FEW030 SCT100 BKN220 28/23 A2973=
200506282300 METAR MRLM 282300Z 00000KT 9999 FEW030 BKN090 28/24 A2973=
200506290000 METAR MRLM 290000Z 00000KT CAVOK 27/24 A2975 BKN090=
200506290100 METAR MRLM NIL=
200506290200 METAR MRLM NIL=
200506290300 METAR MRLM NIL=
200506290400 METAR MRLM NIL=
200506290500 METAR MRLM NIL=
200506290600 METAR MRLM NIL=
200506290700 METAR MRLM NIL=
200506290800 METAR MRLM NIL=
200506290900 METAR MRLM NIL=
200506291000 METAR MRLM NIL=
200506291100 METAR MRLM NIL=
200506291200 METAR MRLM NIL=
200506291300 METAR MRLM 291300Z 27005KT 9999 FEW024 BKN090 25/23 A2981=
200506291400 METAR MRLM 291400Z 25004KT 9999 FEW024 BKN090 27/22 A2984=
200506291500 METAR MRLM 291500Z 20003KT 9999 FEW028 BKN090 27/23 A2986 RETS=
200506291600 METAR MRLM 291600Z 00000KT 9999 FEW028 BKN090 28/23 A2987=
200506291700 METAR MRLM 291700Z 31007KT 9999 SCT028 BKN090 28/24 A2986 REDZ=
200506291800 METAR MRLM 291800Z 31006KT 9999 FEW025 SCT100 BKN230 29/24 A2984=
200506291900 METAR MRLM 291900Z 33008KT 9999 FEW025 SCT100 BKN230 28/24 A2983=
200506292000 METAR MRLM NIL=
200506292015 METAR MRLM 292015Z 33011KT 9999 BKN026 SCT230 29/24 2981 RMK CB DST SE S SW HZ ARND=
200506292100 METAR MRLM 292100Z 33010KT 9999 SCT026 SCT100 28/24 A2980 RMK CB DST SE S SW RN DST SW HZ ARWND=
200506292200 METAR MRLM 292200Z 31005KT 3000 1000SE +DZ FEW020CB BKN026 29/24 A2982 RMK SHRA ARND=
200506292300 METAR MRLM 292300Z 21006KT 9999 3000S TSRA FEW018CB BKN025 23/22 A2984=
200506300000 METAR MRLM 300000Z 25003KT 5000 TSDZ FEW018CB BKN024 23/22 A2987 RMK SHRA NW SE=
200506300100 METAR MRLM NIL=
200506300200 METAR MRLM NIL=
200506300300 METAR MRLM NIL=
200506300400 METAR MRLM NIL=
200506300500 METAR MRLM NIL=
200506300600 METAR MRLM NIL=
200506300700 METAR MRLM NIL=
200506300800 METAR MRLM NIL=
200506300900 METAR MRLM NIL=
200506301000 METAR MRLM NIL=
200506301100 METAR MRLM NIL=
200506301200 METAR MRLM NIL=
200506301300 METAR MRLM 301300Z 21004KT 9999 FEW028 SCT090 BKN220 23/21 A2989 RMK CB RN DST NW N NE HZ ARND=
200506301400 METAR MRLM 301400Z 19004KT 9999 FEW028 BKN220 26/22 A2990 RMK CB RN DST WNW NW HZ ARND=
200506301500 METAR MRLM 301500Z 16004KT 9999 FEW030 BKN230 29/22 A2988 RMK CB RN DST WNW NW N=
200506301600 METAR MRLM 301600Z 06004KT 9999 FEW025 BKN090 28/21 A2990 RMK LINEA CB RN DST NW N NE E=
200506301700 METAR MRLM 301700Z 04006KT 9999 FEW024 BKN045 28/22 A2991 RMK CB RN DST NW N NE=
200506301800 METAR MRLM 301800Z 02008KT 9999 RA SCT015TCU BKN030 27/23 A2991=
200506301900 METAR MRLM 301900Z 03015KT 9999 3000W +DZ BKN015SCT090 25/23 A2990=
200506302000 METAR MRLM NIL=
200506302100 METAR MRLM 302100Z 00000KT 9999 DZ FEW015 BKN090 29/23 A2985=
200506302200 METAR MRLM 302200Z 13006KT 9999 DZ FEW030 BKN090 25/23 A2982=
200506302300 METAR MRLM 302300Z 00000KT 9999 FEW030 BKN110 25/23 A2979=
200507010000 METAR MRLM NIL=
200507010100 METAR MRLM NIL=
200507010200 METAR MRLM NIL=
200507010300 METAR MRLM NIL=
200507010400 METAR MRLM NIL=
200507010500 METAR MRLM NIL=
200507010600 METAR MRLM NIL=
200507010700 METAR MRLM NIL=
200507010800 METAR MRLM NIL=
200507010900 METAR MRLM NIL=
200507011000 METAR MRLM NIL=
200507011100 METAR MRLM NIL=
200507011200 METAR MRLM NIL=
200507011300 METAR MRLM 011300Z 00000KT 9999 FEW030 BKN090 22/21 A2988=
200507011400 METAR MRLM 011400Z 22003KT 9999 FEW030 BKN090 24/21 A2991=
200507011500 METAR MRLM 011500Z 00000KT 9999 FEW030 BKN050 26/22 A2992=
200507011600 METAR MRLM 011600Z 00000KT 9999 SCT028 BKN080 26/22 A2992=
200507011700 METAR MRLM 011700Z 00000KT 9999 SCT028 BKN090 27/23 A2992=
200507011800 METAR MRLM 011800Z 30005KT 9999 FEW025 SCT100 BKN230 27/22 A2989=
200507011900 METAR MRLM 011900Z 28004KT 9999 FEW025 BKN220 27/22 A2986=
200507012000 METAR MRLM NIL=
200507012100 METAR MRLM 012100Z 32007KT 9999 FEW025 BKN230 28/23 A2983=
200507012200 METAR MRLM 012200Z 30006KT 9999 FEW025 BKN230 28/23 A2982 RMK RN S SW W=
200507012300 METAR MRLM 012300Z 30005KT 9999 +DZ FEW024 SCT090 BKN230 26/23 A2981 RN S SW=
200507020000 METAR MRLM 020000Z 00000KT 9999 -DZ FEW024 BKN090 25/23 A2982 RERA=
200507020100 METAR MRLM NIL=
200507020200 METAR MRLM NIL=
200507020300 METAR MRLM NIL=
200507020400 METAR MRLM NIL=
200507020500 METAR MRLM NIL=
200507020600 METAR MRLM NIL=
200507020700 METAR MRLM NIL=
200507020800 METAR MRLM NIL=
200507020900 METAR MRLM NIL=
200507021000 METAR MRLM NIL=
200507021100 METAR MRLM NIL=
200507021200 METAR MRLM 021200Z 23004KT 9999 FEW024 BKN080 23/22 A2987 RMK TCU DST NW NE HZ ARND=
200507021300 METAR MRLM 021300Z 21003KT 9999 FEW024 BKN090 24/23 A2988 RMK TCU W HZ ARND=
200507021400 METAR MRLM 021400Z 21003KT 9999 FEW025 BKN100 26/23 A2988=
200507021500 METAR MRLM 021500Z 07003KT 9999 FEW024 BKN100 28/23 A2988=
200507021600 METAR MRLM 021600Z 06004KT 9999 FEW030 SCT260 28/23 A2988=
200507021700 METAR MRLM 021700Z 04006KT 9999 FEW024 29/24 A2987=
200507021800 METAR MRLM 021800Z 06006KT 9999 FEW024 SCT250 29/23 A2987=
200507021900 METAR MRLM 021900Z 06009KT 9999 FEW024 SCT250 29/23 A2984 RMK CB SE TCU S SW=
200507022000 METAR MRLM 022000Z 09005KT 9999 SCT025 SCT120 29/24 A2983=
200507022100 METAR MRLM 022100Z 06007KT 9999 SCT024 SCT250 29/24 A2982=
200507022200 METAR MRLM NIL=
200507022300 METAR MRLM 022300Z 12008KT 9999 BKN026 SCT080 27/22 A2985 CB RN DST SE S SW TS SSW=
200507030000 METAR MRLM 030000Z 19003KT 9999 FEW024 BKN090 25/20 A2985=
200507030100 METAR MRLM NIL=
200507030200 METAR MRLM NIL=
200507030300 METAR MRLM NIL=
200507030400 METAR MRLM NIL=
200507030500 METAR MRLM NIL=
200507030600 METAR MRLM NIL=
200507030700 METAR MRLM NIL=
200507030800 METAR MRLM NIL=
200507030900 METAR MRLM NIL=
200507031000 METAR MRLM NIL=
200507031100 METAR MRLM NIL=
200507031200 METAR MRLM NIL=
200507031300 METAR MRLM 031300Z 20004KT CAVOK 24/22 A2990=
200507031400 METAR MRLM 031400Z 00000KT CAVOK 28/22 A2992=
200507031500 METAR MRLM 031500Z VRB03KT CAVOK 29/22 A2993=
200507031600 METAR MRLM 031600Z 02005KT 9999 FEW030 SCT280 29/23 A2994=
200507031700 METAR MRLM 031700Z 01004KT 9999 FEW029 BKN280 29/23 A2993=
200507031800 METAR MRLM 031800Z 03006KT 9999 FEW030 BKN280 29/23 A2991=
200507031900 METAR MRLM 031900Z 06007KT 9999 FEW030 BKN280 29/23 A2988=
200507032000 METAR MRLM NIL=
200507032100 METAR MRLM 032100Z 05007KT 9999 SCT030 OVC250 28/24 A2986 CB DST SE S HZ ARND=
200507032200 METAR MRLM 032200Z 05007KT 9999 FEW025 BKN280 29/24 A2986 CB SE S=
200507032300 METAR MRLM 032300Z 08007KT 9999 SCT022 SCT280 28/24 A2986=
200507040000 METAR MRLM 040000Z 10006KT 9999 BKN020 SCT280 28/24 A2987 RMK CB DST QUAND S HZ LEVE ARWND=
200507040100 METAR MRLM NIL=
200507040200 METAR MRLM NIL=
200507040300 METAR MRLM NIL=
200507040400 METAR MRLM NIL=
200507040500 METAR MRLM NIL=
200507040600 METAR MRLM NIL=
200507040700 METAR MRLM NIL=
200507040800 METAR MRLM NIL=
200507040900 METAR MRLM NIL=
200507041000 METAR MRLM NIL=
200507041100 METAR MRLM NIL=
200507041200 METAR MRLM NIL=
200507041300 METAR MRLM 041300Z 23004KT CAVOK 24/23 A2993=
200507041400 METAR MRLM 041400Z 00000KT CAVOK 27/24 A2995=
200507041500 METAR MRLM 041500Z 00000KT 9999 FEW027 BKN100 29/24 A2996=
200507041600 METAR MRLM 041600Z VRB03KT 9999 FEW025 SCT090 BKN270 29/24 A2995=
200507041700 METAR MRLM 041700Z VRB03KT 9999 FEW026 SCT090 BKN270 29/24 A2995=
200507041800 METAR MRLM 041800Z 01005KT 9999 FEW026 SCT110 BKN280 30/25 A2994=
200507041900 METAR MRLM 041900Z 02007KT 9999 FEW022 BKN280 29/25 A2991=
200507042000 METAR MRLM NIL=
200507042100 METAR MRLM 042100Z 04006KT 9999 FEW028 OVC270 29/24 A2987 RMK HZ ARND=
200507042200 METAR MRLM 042200Z 00000KT 9999 SCT028 SCT270 29/24 A2989 RMK HZ ARND=
200507042300 METAR MRLM 042300Z VRB03KT 9999 SCT026 BKN150 29/24 A2988 RMK HZ ARND=
200507050000 METAR MRLM 050000Z 00000KT 9999 SCT030 SCT150 29/23 A2989 RMK CB RN DST S E S HZ ARND=
200507050100 METAR MRLM NIL=
200507050200 METAR MRLM NIL=
200507050300 METAR MRLM NIL=
200507050400 METAR MRLM NIL=
200507050500 METAR MRLM NIL=
200507050600 METAR MRLM NIL=
200507050700 METAR MRLM NIL=
200507050800 METAR MRLM NIL=
200507050900 METAR MRLM NIL=
200507051000 METAR MRLM NIL=
200507051100 METAR MRLM NIL=
200507051200 METAR MRLM NIL=
200507051300 METAR MRLM 051300Z 20005KT CAVOK 25/22 A2989 RMK CB DST E NE HZ LEVE ARND=
200507051400 METAR MRLM 051400Z 00000KT CAVOK 28/23 A2991=
200507051500 METAR MRLM 051500Z 09004KT 9999 FEW030 BKN280 29/23 A2993 RMK HZ ARND=
200507051600 METAR MRLM 051600Z 08004KT 9999 FEW043 BKN280 30/21 A2992 RMK HZ ARND=
200507051700 METAR MRLM 051700Z VRB03KT 9999 FEW038 OVC270 29/22 A2990 RMK CB DST ENE HZ ARND=
200507051800 METAR MRLM 051800Z 04004KT 9999 FEW040 OVC270 30/22 A2987 RMK CB DST NE HZ ARND=
200507051900 METAR MRLM 051900Z 02005KT 9999 FEW034 BKN270 29/23 A2986 RMK HZ ARND=
200507052000 METAR MRLM NIL=
200507052100 METAR MRLM 052100Z 02005KT 9999 FEW030 SCT130 BKN270 29/24 A2982=
200507052200 METAR MRLM 052200Z 02005KT 9999 FEW027 SCT140 BKN270 29/24 A2982=
200507052300 METAR MRLM NIL=
200507060000 METAR MRLM 060000Z 00000KT 9999 FEW018 SCT140 BKN270 28/24 A2982=
200507060100 METAR MRLM NIL=
200507060200 METAR MRLM NIL=
200507060300 METAR MRLM NIL=
200507060400 METAR MRLM NIL=
200507060500 METAR MRLM NIL=
200507060600 METAR MRLM NIL=
200507060700 METAR MRLM NIL=
200507060800 METAR MRLM NIL=
200507060900 METAR MRLM NIL=
200507061000 METAR MRLM NIL=
200507061100 METAR MRLM NIL=
200507061200 METAR MRLM NIL=
200507061300 METAR MRLM 061300Z 21004KT CAVOK 24/22 A2986=
200507061400 METAR MRLM NIL=
200507061500 METAR MRLM 061500Z VRB03KT CAVOK 29/23 A2985=
200507061600 METAR MRLM 061600Z 03004KT 9999 FEW030 OVC280 29/23 A2987=
200507061700 METAR MRLM 061700Z 01005KT 9999 FEW030 OVC280 29/24 A2986=
200507061800 METAR MRLM 061800Z 35006KT 9999 FEW032 BKN280 29/23 A2985=
200507061900 METAR MRLM 061900Z 01007KT 9999 FEW032 BKN280 30/23 A2982=
200507062000 METAR MRLM 062000Z 24004KT 9999 SCT035 BKN250 33/23 A2982=
200507062100 METAR MRLM 262100Z 04004KT 9999 FEW033 BKN270 29/23 A2977 RMK CB S HAY ARND=
200507062200 METAR MRLM 062200Z 02004KT 9999 FEW033 BKN270 29/23 A2977 RMK HZY=
200507062300 METAR MRLM 062300Z VRB03KT 9999 FEW030 BKN270 29/23 A2977 RMK HZY=
200507070000 METAR MRLM NIL=
200507070100 METAR MRLM NIL=
200507070200 METAR MRLM NIL=
200507070300 METAR MRLM NIL=
200507070400 METAR MRLM NIL=
200507070500 METAR MRLM NIL=
200507070600 METAR MRLM NIL=
200507070700 METAR MRLM NIL=
200507070800 METAR MRLM NIL=
200507070900 METAR MRLM NIL=
200507071000 METAR MRLM NIL=
200507071100 METAR MRLM NIL=
200507071200 METAR MRLM NIL=
200507071300 METAR MRLM 071300Z 22004KT CAVOK 25/23 A2984 RMK CB NW N HZ ARND=
200507071400 METAR MRLM 071400Z 00000KT CAVOK 29/23 A2986 RMK ARND=
200507071500 METAR MRLM 071500Z 33007KT 9999 FEW032 OVC280 30/23 A2987 RMK CB N HZ ARND=
200507071600 METAR MRLM 071600Z 35007KT 9999 FEW032 BKN280 30/23 A2987 RMK HZ ARND CB DST N=
200507071700 METAR MRLM 071700Z 33010KT 9999 SCT026 BKN280 29/24 A2985=
200507071800 METAR MRLM 071800Z 35008KT 9999 FEW026 BKN280 30/25 A2983 RMK HZ ARND=
200507071900 METAR MRLM 071900Z 35012KT 9999 SCT026 BKN280 30/25 A2981 RMK CB S=
200507072000 METAR MRLM NIL=
200507072100 METAR MRLM 072100Z 00000KT 9999 SCT023 SCT140 BKN270 28/24 A2980=
200507072200 METAR MRLM 072200Z 00000KT 9999 TSRA FEW015CV SCT018 BKN130 27/24 A2978=
200507072300 METAR MRLM 072300Z VRB03KT 9999 FEW010 SCT015 BKN130 25/24 A2979=
200507080000 METAR MRLM 080000Z 22004KT 9999 BKN010 26/24 A2984=
200507080100 METAR MRLM NIL=
200507080200 METAR MRLM NIL=
200507080300 METAR MRLM NIL=
200507080400 METAR MRLM NIL=
200507080500 METAR MRLM NIL=
200507080600 METAR MRLM NIL=
200507080700 METAR MRLM NIL=
200507080800 METAR MRLM NIL=
200507080900 METAR MRLM NIL=
200507081000 METAR MRLM NIL=
200507081100 METAR MRLM NIL=
200507081200 METAR MRLM NIL=
200507081300 METAR MRLM 081300Z 18004KT CAVOK 25/22 A2987=
200507081400 METAR MRLM 081400Z 00000KT 9999 FEW025 28/23 A2989=
200507081500 METAR MRLM 081500Z 05004KT 9999 FEW032 SCT300 29/23 A2988=
200507081600 METAR MRLM 081600Z 06004KT 9999 FEW035 SCT300 29/22 A2986=
200507081700 METAR MRLM 081700Z 07004KT 9999 FEW034 30/24 A2985=
200507081800 METAR MRLM 081800Z 02006KT 9999 FEW035 30/23 A2983=
200507081900 METAR MRLM 081900Z 02005KT 9999 FEW033 30/23 A2981=
200507082000 METAR MRLM NIL=
200507082100 METAR MRLM 082100Z 04007KT 9999 FEW035 SCT300 30/23 A2978=
200507082200 METAR MRLM 082200Z 04005KT 9999 FEW033 SCT300 29/23 A2977=
200507082300 METAR MRLM 082300Z VRB03KT 9999 FEW030 SCT110 BKN280 29/23 A2978=
200507090000 METAR MRLM 090000Z 00000KT 9999 FEW030 BKN280 29/23 A2978=
200507090100 METAR MRLM NIL=
200507090200 METAR MRLM NIL=
200507090300 METAR MRLM NIL=
200507090400 METAR MRLM NIL=
200507090500 METAR MRLM NIL=
200507090600 METAR MRLM NIL=
200507090700 METAR MRLM NIL=
200507090800 METAR MRLM NIL=
200507090900 METAR MRLM NIL=
200507091000 METAR MRLM NIL=
200507091100 METAR MRLM NIL=
200507091200 METAR MRLM NIL=
200507091300 METAR MRLM 091300Z 20004KT CAVOK 25/22 A2982=
200507091400 METAR MRLM 091400Z 00000KT CAVOK 29/23 A2983=
200507091500 METAR MRLM 091500Z 06004KT CAVOK 29/22 A2981=
200507091600 METAR MRLM NIL=
200507091700 METAR MRLM NIL=
200507091800 METAR MRLM 091800Z 04006KT 9999 FEW033 BKN280 30/24 A2981 CB S=
200507091900 METAR MRLM 091900Z 03006KT 9999 SCT028 BKN280 30/24 A2979=
200507092000 METAR MRLM NIL=
200507092100 METAR MRLM 092100Z 04005KT 9999 SCT028 BKN280 30/24 A2979 RMK CB DST S HZ LEVE ARND=
200507092200 METAR MRLM 092200Z 06004KT 9999 BKN028 SCT270 30/24 A2976 RMK CB DST S W=
200507092300 METAR MRLM 092300Z 09007KT 9999 SCT030 BKN270 29/24 A2975 RMK CB DST SW HZ LEVE ARND=
200507100000 METAR MRLM 100000Z 00000KT 9999 FEW025 BKN270 28/23 A2976 RMK CB DST S W=
200507100100 METAR MRLM NIL=
200507100200 METAR MRLM NIL=
200507100300 METAR MRLM NIL=
200507100400 METAR MRLM NIL=
200507100500 METAR MRLM NIL=
200507100600 METAR MRLM NIL=
200507100700 METAR MRLM NIL=
200507100800 METAR MRLM NIL=
200507100900 METAR MRLM NIL=
200507101000 METAR MRLM NIL=
200507101100 METAR MRLM NIL=
200507101200 METAR MRLM NIL=
200507101300 METAR MRLM 101300Z VRB03KT CAVOK 26/22 A2980 RMK CB DST N=
200507101400 METAR MRLM 101400Z 0000KT CAVOK 29/23 A2981 RMK CB DST N HZY LEVE=
200507101500 METAR MRLM 101500Z 00000KT CAVOK 30/23 A2981 RMK CB DST N HZY ARND=
200507101600 METAR MRLM 101600Z 03005KT 9999 FEW038 BKN280 30/23 A2982 RMK CB DST NW N HZY LEVE=
200507101700 METAR MRLM 101700Z 05007KT 9999 FEW030 SCT140 BKN280 30/24 A2982 RMK HZY=
200507101800 METAR MRLM 101800Z 01005KT 9999 FEW027 BKN120 30/24 A2981 RMK CB DST ENE HZY=
200507101900 METAR MRLM 101900Z 03006KT 9999 FEW030 BKN280 30/24 A2977 RMK CB DST S NE HZY LEVE=
200507102000 METAR MRLM 102000Z 02006KT 9999 FEW030 OVC280 30/24 A2976 RMK CB DST N NE HZY LEVE=
200507102100 METAR MRLM 102100Z 02005KT 9999 FEW022 OVC280 30/24 A2974 RMK CB DST NE HZ LGT ARND=
200507102200 METAR MRLM 102200Z 02004KT 9999 FEW030 OVC280 30/24 A2974=
200507102300 METAR MRLM NIL=
200507110000 METAR MRLM NIL=
200507110100 METAR MRLM NIL=
200507110200 METAR MRLM NIL=
200507110300 METAR MRLM NIL=
200507110400 METAR MRLM NIL=
200507110500 METAR MRLM NIL=
200507110600 METAR MRLM NIL=
200507110700 METAR MRLM NIL=
200507110800 METAR MRLM NIL=
200507110900 METAR MRLM NIL=
200507111000 METAR MRLM NIL=
200507111100 METAR MRLM NIL=
200507111200 METAR MRLM NIL=
200507111300 METAR MRLM 111300Z VRB03KT 9999 FEW035 BKN110 24/23 A2979 RMK CB DST NW RN SE S HZY=
200507111400 METAR MRLM 111400Z 00000KT 9999 FEW030 BKN090 26/24 A2981=
200507111500 METAR MRLM 111500Z 00000KT 9999 FEW030 BKN280 30/24 A2980 RMK CB DST NW HZY=
200507111600 METAR MRLM 111600Z 04007KT 9999 FEW030 BKN280 30/24 A2981 RMK CB DST N HZY=
200507111700 METAR MRLM 111700Z 29003KT 9999 SCT035 BKN140 30/25 A2985 RMK RN DST NE=
200507111800 METAR MRLM 111800Z 02004KT 9999 FEW030 BKN110 30/24 A2980 RMK TS DST WSW RN NE E S SW W=
200507111900 METAR MRLM 111900Z 35006KT 9999 SCT027 SCT130 29/24 A2977=
200507112000 METAR MRLM NIL=
200507112100 METAR MRLM 112100Z 21004KT 9999 OVC017 27/23 A2977 RMK CB RN ARND=
200507112135 METAR MRLM 112135Z 19005KT 1000 +TSRA SCT005 BKNCB012 24/22 A2980=
200507112200 METAR MRLM 112200Z 22009KT 3000 RATS SCT005 SCY012 BKN018 23/22 A2981 RMK VIS UNL E NE=
200507112300 METAR MRLM 112300Z VRB03KT 8000 TS RA SCT015CB BKN020 SCT130 22/22 A2980 VIS UNL N=
200507120000 METAR MRLM 120000Z 23005KT 9999 RA FEW005 OVC130 23/22 A2981 RMK CB ARND=
200507120100 METAR MRLM NIL=
200507120200 METAR MRLM NIL=
200507120300 METAR MRLM NIL=
200507120400 METAR MRLM NIL=
200507120500 METAR MRLM NIL=
200507120600 METAR MRLM NIL=
200507120700 METAR MRLM NIL=
200507120800 METAR MRLM NIL=
200507120900 METAR MRLM NIL=
200507121000 METAR MRLM NIL=
200507121100 METAR MRLM NIL=
200507121200 METAR MRLM NIL=
200507121300 METAR MRLM 121300Z 22004KT 9999 FEW035 OVC100 22/21 A2985 RMK CB TSTM E NE=
200507121400 METAR MRLM 121400Z VRB03KT 9999 FEW035 BKN110 25/22 A2987 RMK CB RN DST NW N NE E=
200507121500 METAR MRLM 121500Z 00000KT 9999 FEW035 BKN100 25/22 A2989 RMK CB RN DST N=
200507121600 METAR MRLM 121600Z 00000KT CAVOK 26/23 A2990=
200507121700 METAR MRLM 121700Z VRB03KT CAVOK 26/23 A2991=
200507121800 METAR MRLM 121800Z 27006KT 9999 FEW025 SCT110 BKN250 27/22 A2988 RMK CB RN N=
200507121900 METAR MRLM 121900Z 35005KT 9999 FEW033 SCT130 BKN250 28/22 A2987 RMK CB RN N=
200507122000 METAR MRLM NIL=
200507122100 METAR MRLM 122100Z 30007KT 9999 SCT024 SCT260 28/23 A2985 CB RN DST N CB DST SW S=
200507122200 METAR MRLM 122200Z 32007KT 9999 FEW022 OVC260 27/23 A2984=
200507122300 METAR MRLM 122300Z 31004KT 9999 FEW030 SCT140 BKN260 27/23 A2984=
200507130000 METAR MRLM 130000Z 00000KT CAVOK 26/23 A2985=
200507130100 METAR MRLM NIL=
200507130200 METAR MRLM NIL=
200507130300 METAR MRLM NIL=
200507130400 METAR MRLM NIL=
200507130500 METAR MRLM NIL=
200507130600 METAR MRLM NIL=
200507130700 METAR MRLM NIL=
200507130800 METAR MRLM NIL=
200507130900 METAR MRLM NIL=
200507131000 METAR MRLM NIL=
200507131100 METAR MRLM NIL=
200507131200 METAR MRLM NIL=
200507131300 METAR MRLM 131300Z 00000KT CAVOK 24/22 A2988=
200507131400 METAR MRLM 131400Z 00000KT 9999 FEW015 SCT140 BKN270 27/23 A2991 CB DST N NE SE RN DST E=
200507131500 METAR MRLM 131500Z 31004KT 9999 FEW028 SCT140 BKN270 28/23 A2992 CB DST N RN DST E=
200507131600 METAR MRLM 131600Z 00000KT 9999 FEW035 OVC270 29/22 A2991 CBDST NW NE RN DST E=
200507131700 METAR MRLM NIL=
200507131800 METAR MRLM 131800Z 36006KT 9999 FEW027 BKN270 29/23 A2988=
200507131900 METAR MRLM 131900Z 01006KT 9999 FEW027 SCT140 BKN270 29/23 A2988 CB RN DST E=
200507132000 METAR MRLM NIL=
200507132100 METAR MRLM 132100Z 02008KT 9999 FEW026 SCT140 BKN270 29/24 A2982=
200507132200 METAR MRLM 132200Z 04007KT 9999 BKN025 29/24 A2982=
200507132300 METAR MRLM 132300Z 05006KT 9999 BKN023 28/24 A2983=
200507140000 METAR MRLM 140000Z VRB03KT 9999 BKN023 28/23 A2983=
200507140100 METAR MRLM NIL=
200507140200 METAR MRLM NIL=
200507140300 METAR MRLM NIL=
200507140400 METAR MRLM NIL=
200507140500 METAR MRLM NIL=
200507140600 METAR MRLM NIL=
200507140700 METAR MRLM NIL=
200507140800 METAR MRLM NIL=
200507140900 METAR MRLM NIL=
200507141000 METAR MRLM NIL=
200507141100 METAR MRLM NIL=
200507141200 METAR MRLM NIL=
200507141300 METAR MRLM 141300Z 00000KT 9000 -RA FEW020 OVC110 23/22 A2986 RMK CB N/E=
200507141400 METAR MRLM 141400Z VRB03KT 9999 DZ FEW015 SCT100 BKN120 23/22 A2987=
200507141500 METAR MRLM 141500Z VRB03KT 9999 +DZ SCT090 BKN140 24/22 A2987=
200507141600 METAR MRLM 141600Z 00000KT 9999 +DZ SCT100 BKN140 25/23 A2988=
200507141700 METAR MRLM 141700Z 26004KT 9999 DZ FEW012 SCT110 BKN14 26/24 A2988=
200507141800 METAR MRLM 141800Z 29005KT 9999 FEW020 BKN130 27/23 A2984=
200507141900 METAR MRLM 141900Z 31005KT 9999 FEW022 BKN130 27/23 A2982=
200507142000 METAR MRLM NIL=
200507142100 METAR MRLM 142100Z 33009KT 9999 FEW022 BKN140 27/23 A2979 RMK CB DST ARND RN DST QUAD. N=
200507142200 METAR MRLM 142200Z 30005KT 9999 SCT023 SCT120 27/23 A2978 RMK CB RN DST QUAD S N=
200507142300 METAR MRLM 142300Z 00000KT 9999 SCT020 BKN110 27/23 A2978 RMK CB DST ARND RN DST QUAD S N=
200507150000 METAR MRLM 150000Z 00000KT 9999 FEW014 BKN110 25/23 A2978 CB DST QUAD S N=
200507150100 METAR MRLM NIL=
200507150200 METAR MRLM NIL=
200507150300 METAR MRLM NIL=
200507150400 METAR MRLM NIL=
200507150500 METAR MRLM NIL=
200507150600 METAR MRLM NIL=
200507150700 METAR MRLM NIL=
200507150800 METAR MRLM NIL=
200507150900 METAR MRLM NIL=
200507151000 METAR MRLM NIL=
200507151100 METAR MRLM NIL=
200507151200 METAR MRLM NIL=
200507151300 METAR MRLM 151300Z 00000KT CAVOK 23/22 A2983 RMK CB RN DST QUAD N E S=
200507151400 METAR MRLM 151400Z 27004KT 9999 FEW015 SCT140 BKN270 26/23 A2984 RMK CB RN DST N=
200507151500 METAR MRLM 151500Z 31005KT 9999 FEW030 SCT140 28/22 A2986 RMK CB RN DST N NE=
200507151600 METAR MRLM 151600Z 04004KT 9999 FEW034 SCT140 29/22 A2985 RMK CB/RN QUARD N=
200507151700 METAR MRLM 151700Z 01005KT 9999 FEW032 SCT140 BKN280 29/23 A2984 RMK CB RN DS N E S=
200507151800 METAR MRLM 151800Z 01006KT 9999 FEW030 BKN270 28/23 A2982 CB DST ARND RN DST NE E S=
200507151900 METAR MRLM 151900Z 02007KT 9999 FEW024 SCT140 BKN280 28/24 A2981 RMK CB DST ARND RN DST W NE E=
200507152000 METAR MRLM NIL=
200507152100 METAR MRLM 152100Z 07005KT 9999 FEW023 BKN140 28/23 A2977=
200507152200 METAR MRLM 152200Z 10007KT 9999 SCT023 BKN130 28/23 A2977=
200507152300 METAR MRLM 152300Z 00000KT 9999 SCT017 SCT120 26/23 A2978=
200507160000 METAR MRLM 160000Z 15008KT 9999 TSRA FEW016CB SCT020 BKN100 26/23 A2980=
200507160100 METAR MRLM NIL=
200507160200 METAR MRLM NIL=
200507160300 METAR MRLM NIL=
200507160400 METAR MRLM NIL=
200507160500 METAR MRLM NIL=
200507160600 METAR MRLM NIL=
200507160700 METAR MRLM NIL=
200507160800 METAR MRLM NIL=
200507160900 METAR MRLM NIL=
200507161000 METAR MRLM NIL=
200507161100 METAR MRLM NIL=
200507161200 METAR MRLM NIL=
200507161300 METAR MRLM 161300Z 24004KT CAVOK 24/22 A2983 RMK SCT140 BKN270=
200507161400 METAR MRLM 161400Z 00000KT CAVOK 27/22 A2985 RMK SCT140 SCT270 CB RN DST NW N=
200507161500 METAR MRLM 161500Z 00000KT 9999 FEW030 BKN140 28/22 A2987=
200507161600 METAR MRLM 161600Z 00000KT 9999 FEW038 BKN140 30/22 A2987=
200507161700 METAR MRLM 161700Z 34008KT 9999 FEW034 BKN140 29/22 A2987=
200507161800 METAR MRLM 161800Z 35009KT 9999 FEW033 BKN140 29/23 A2985=
200507161900 METAR MRLM 161900Z 01006KT 9999 FEW035 BKN140 300/23 A2983=
200507162000 METAR MRLM NIL=
200507162100 METAR MRLM 162100Z 35007KT 9999 FEWE032 BKN280 29/23 A2978 RMK CB ARND RN S=
200507162200 METAR MRLM 162200Z 01008KT 9999 FEW28 BKN280 29/23 A2978 RMK CB RN S W=
200507162300 METAR MRLM 162300Z 36006KT 9999 FEW027 SCT270 28/23 A2978 RMK CB RN S W=
200507170000 METAR MRLM 170000Z 01004KT 9999 FEW023 BKN270 28/23 A2980 RMK CB RN DST S W N=
200507170100 METAR MRLM NIL=
200507170200 METAR MRLM NIL=
200507170300 METAR MRLM NIL=
200507170400 METAR MRLM NIL=
200507170500 METAR MRLM NIL=
200507170600 METAR MRLM NIL=
200507170700 METAR MRLM NIL=
200507170800 METAR MRLM NIL=
200507170900 METAR MRLM NIL=
200507171000 METAR MRLM NIL=
200507171100 METAR MRLM NIL=
200507171200 METAR MRLM NIL=
200507171300 METAR MRLM 171300Z 00000KT CAVOK 26/22 A2983 RMK CB NW NE=
200507171400 METAR MRLM 171400Z 00000KT CAVOK 27/23 A2985 RMK CB NW NE=
200507171500 METAR MRLM 171500Z 04004KT CAVOK 29/22 A2985 RMK CB NW HZ ARND=
200507171600 METAR MRLM 171600Z 05006KT 9999 FEW032 BKN270 29/23 A2985 RMK CB NW=
200507171700 METAR MRLM 171700Z 04005KT 9999 FEW030 BKN270 29/23 A2989 RMK HZ ARND=
200507171800 METAR MRLM 171800Z 05006KT 9999 FEW028 BKN280 29/24 A2983 RMK CB NW=
200507171900 METAR MRLM 171900Z 04007KT 9999 FEW033 BKN280 30/24 A2980 RMK CB SW W NW=
200507172100 METAR MRLM 172100Z 03009KT 9999 FEW028 SCT280 30/24 A2976 CB DST SE S WNW=
200507172200 METAR MRLM 172200Z 03005KT 9999 SCT028 SCT280 30/24 A2977=
200507172300 METAR MRLM 172300Z 02006KT 9999 BKN027 SCT280 29/24 A2978=
200507180000 METAR MRLM 180000Z 04004KT 9999 BKN027 SCT280 29/24 A2978=
200507180100 METAR MRLM NIL=
200507180200 METAR MRLM NIL=
200507180300 METAR MRLM NIL=
200507180400 METAR MRLM NIL=
200507180500 METAR MRLM NIL=
200507180600 METAR MRLM NIL=
200507180700 METAR MRLM NIL=
200507180800 METAR MRLM NIL=
200507180900 METAR MRLM NIL=
200507181000 METAR MRLM NIL=
200507181100 METAR MRLM NIL=
200507181200 METAR MRLM NIL=
200507181300 METAR MRLM 181300Z 20004KT CAVOK 24/22 A2981=
200507181400 METAR MRLM 181400Z VRB03KT CAVOK 26/22 A2983 CV RN DST N NE E SE=
200507181500 METAR MRLM 181500Z 00000KT CAVOK 26/23 A2986 CB RN DST NW N NE E=
200507181600 METAR MRLM 181600Z 00000KT 9999 FEW030 SCT120 BKN270 28/22 A2985 CB RN DST NW=
200507181700 METAR MRLM 181700Z 36006KT 9999 FEW028 SCT120 BKN270 29/24 A2983=
200507181800 METAR MRLM 181800Z 36007KT 9999 FEW026 BKN035 28/23 A2982 DZ NW N NE E=
200507181900 METAR MRLM 181900Z 01006KT 9999 FEW025 BKN035 29/24 A2979=
200507182000 METAR MRLM 182000Z 04007KT 9999 FEW027 SCT040 BKN120 28/23 A2977 DZ E RN SW=
200507182100 METAR MRLM 182100Z VRB03KT 9999 FEW027 BKN100 28/23 A2974=
200507182200 METAR MRLM 182200Z VRB03KT 9999 FEW025 OVC090 28/23 A2975=
200507182300 METAR MRLM 182300Z 31004KT 9999 FEW027 BKN100 29/24 A2977=
200507190000 METAR MRLM 190000Z 00000KT 9999 FEW020 SCT100 28/24 A2979=
200507190100 METAR MRLM NIL=
200507190200 METAR MRLM NIL=
200507190300 METAR MRLM NIL=
200507190400 METAR MRLM NIL=
200507190500 METAR MRLM NIL=
200507190600 METAR MRLM NIL=
200507190700 METAR MRLM NIL=
200507190800 METAR MRLM NIL=
200507190900 METAR MRLM NIL=
200507191000 METAR MRLM NIL=
200507191100 METAR MRLM NIL=
200507191200 METAR MRLM NIL=
200507191300 METAR MRLM 191300Z 23004KT CAVOK 23/22 A2980=
200507191400 METAR MRLM 191400Z VRB03KT CAVOK 26/24 A2983=
200507191500 METAR MRLM 191500Z 00000KT 9999 FEW034 OVC280 29/23 A2983=
200507191600 METAR MRLM 191600Z 00000KT 9999 FEW034 SCT150 BKN280 30/23 A2983 CB RN E SE=
200507191700 METAR MRLM 191700Z 01006KT 9999 FEW030 SCT110 SCT140 29/23 A2982 CB RN E SE=
200507191800 METAR MRLM 191800Z 01007KT CAVOK 29/23 A2980=
200507191900 METAR MRLM 191900Z 35004KT CAVOK 29/22 A2976=
200507192000 METAR MRLM NIL=
200507192100 METAR MRLM 192100Z 36004KT 9999 FEW032 OVC070 28/22 A2975 RMK CB RN DST N NE E HZ ARND=
200507192200 METAR MRLM 192200Z 02006KT 9999 DZ FEW028 OVC080 28/23 A2976 RMK CB RN DST NW N NE E HZ ARND=
200507192300 METAR MRLM 192300Z 27005KT 9999 FEW020 SCT090 BKN140 25/21 A2973 RNK CB RN DST W NW N NE HZ ARND=
200507200000 METAR MRLM 200000Z 00000KT 9999 FEW018 SCT120 BKN150 26/22 A2973 RMK CB DST ARND HZ LEVE ARND=
200507200100 METAR MRLM NIL=
200507200200 METAR MRLM NIL=
200507200300 METAR MRLM NIL=
200507200400 METAR MRLM NIL=
200507200500 METAR MRLM NIL=
200507200600 METAR MRLM NIL=
200507200700 METAR MRLM NIL=
200507200800 METAR MRLM NIL=
200507200900 METAR MRLM NIL=
200507201000 METAR MRLM NIL=
200507201100 METAR MRLM NIL=
200507201200 METAR MRLM NIL=
200507201300 METAR MRLM 201300Z VRB03KT 6000 RA FEW005 OVC015 23/21 A2983 RETS RMK CB NW N NE E=
200507201400 METAR MRLM 201400Z 23006KT 9999 RA FEW005 SCT020 OVC120 22/21 A3003 RMK CB DST W NW N NE=
200507201500 METAR MRLM 201500Z 24004KT 9999 RA FEW005 BKN090 OVC120 23/22 A2984 RMK CB RN DST NW N=
200507201600 METAR MRLM 201600Z 25004KT 9999 DZ FEW008 BKN110 24/23 A2984 RMK CB RN DST QUAD N=
200507201700 METAR MRLM 201700Z 34004KT CAVOK 26/23 A2984 RMK CB RN DST QUAD N=
200507201800 METAR MRLM 201800Z 26005KT 9999 FEW023 SCT120 BKN250 27/23 A2982 RMK CB RN NW/N/NE/E=
200507201900 METAR MRLM 201900Z 32010KT 9999 FEW010 OVC025 27/23 A2981 RMK CB/RN DST NW/N/NE/E=
200507202000 METAR MRLM NIL=
200507202100 METAR MRLM 202100Z 35010KT 6000 RA FEW005 BKN015 25/22 A2977 RMK VIS NW UNLTD=
200507202200 METAR MRLM 202200Z 21006KT 5000 2000SE -RA FEW005 OVC015 23/22 A2979=
200507202300 METAR MRLM 202300Z 21005KT 6000 RA FEW005 SCT015 OVC100 23/22 A2980=
200507210000 METAR MRLM 210000Z VRB03KT 9999 RA FEW005 SCT020 BKN120 23/22 A2981=
200507210100 METAR MRLM NIL=
200507210200 METAR MRLM NIL=
200507210300 METAR MRLM NIL=
200507210400 METAR MRLM NIL=
200507210500 METAR MRLM NIL=
200507210600 METAR MRLM NIL=
200507210700 METAR MRLM NIL=
200507210800 METAR MRLM NIL=
200507210900 METAR MRLM NIL=
200507211000 METAR MRLM NIL=
200507211100 METAR MRLM NIL=
200507211200 METAR MRLM NIL=
200507211300 METAR MRLM 211300Z 23004KT 9999 SCT025 SCT100 23/22 A2987 RMK RN DST WSW NW=
200507211400 METAR MRLM 211400Z 00000KT 9999 FEW010 SCT030 24/23 A2986 RMK RN DST W/S/NW=
200507211500 METAR MRLM 211500Z VRB03KT 9999 FEW018 SCT080 BKN120 27/23 A2986 RMK CB RN DST N/NE=
200507211600 METAR MRLM 211600Z 05007KT 9999 FEW020 SCT130 28/23 A2986 RMK CB DST NW/N/NE/ENE=
200507211700 METAR MRLM 211700Z 01004KT 9999 FEW023 SCT140 28/23 A2985=
200507211800 METAR MRLM 211800Z 05006KT 9999 FEW028 SCT150 28/23 A2985 RMK CB NW N NE E RN NW=
200507211900 METAR MRLM 211900Z 05005KT 9999 FEW027 SCT150 BKN270 28/23 A2982=
200507212000 METAR MRLM NIL=
200507212100 METAR MRLM 212100Z 03006KT 9999 FEW027 OVC270 29/23 A2979 RMK CB RN S W=
200507212200 METAR MRLM 212200Z 36006KT 9999 FEW026 SCT140 BKN270 28/23 A2979 CB RN S W=
200507212300 METAR MRLM 212300Z 35005KT 9999 FEW028 SCT140 BKN270 28/22 A2980 RMK RN CB S W=
200507220000 METAR MRLM 220000Z 00000KT 9999 FEW018 SCT090 26/23 A2981 RMK CB RN DST SE SW W=
200507220100 METAR MRLM NIL=
200507220200 METAR MRLM NIL=
200507220300 METAR MRLM NIL=
200507220400 METAR MRLM NIL=
200507220500 METAR MRLM NIL=
200507220600 METAR MRLM NIL=
200507220700 METAR MRLM NIL=
200507220800 METAR MRLM NIL=
200507220900 METAR MRLM NIL=
200507221000 METAR MRLM NIL=
200507221100 METAR MRLM NIL=
200507221200 METAR MRLM NIL=
200507221300 METAR MRLM 221300Z 20004KT CAVOK 23722 A2986 RMK CB RN N NE E=
200507221400 METAR MRLM 221400Z VRB03KT CAVOK 25/23 A2988 RMK CB RN N NE E=
200507221500 METAR MRLM 221500Z 00000KT CAVOK 26/23 A2987=
200507221600 METAR MRLM 221600Z 00000KT 9999 +DZ SCT110 OVC130 26/23 A2991 RMK CB N E=
200507221700 METAR MRLM 221700Z 00000KT 9999 +DZ SCT100 OVC140 26/23 A2991 RMK CB N NE E TSTM E=
200507221800 METAR MRLM 221800Z 00000KT 8000 RA SCT008 OVC130 25/23 A2993=
200507221900 METAR MRLM 221900Z 16006KT 9000 +DZ FEW006 OVC120 25/23 A2989=
200507222000 METAR MRLM NIL=
200507222100 METAR MRLM 222100Z 29006KT CAVOK 28/24 A2972 CBDST NW DZ W SW S=
200507222200 METAR MRLM 222200Z 31008KT 9999 FEW024 SCT140 BKN270 28/23 A2974 CB DST N=
200507222300 METAR MRLM 222300Z 31006KT 9999 FEW020 SCT130 BKN270 27/23 A2978=
200507230000 METAR MRLM 230000Z 00000KT 9999 BKN017 SCT270 27/23 A2982=
200507230100 METAR MRLM NIL=
200507230200 METAR MRLM NIL=
200507230300 METAR MRLM NIL=
200507230400 METAR MRLM NIL=
200507230500 METAR MRLM NIL=
200507230600 METAR MRLM NIL=
200507230700 METAR MRLM NIL=
200507230800 METAR MRLM NIL=
200507230900 METAR MRLM NIL=
200507231000 METAR MRLM NIL=
200507231100 METAR MRLM NIL=
200507231200 METAR MRLM NIL=
200507231300 METAR MRLM 231300Z 00000KT CAVOK 22/21 A2985 CB DST NW N E RN DST E=
200507231400 METAR MRLM 231400Z 00000KT CAVOK 25/22 A2986 CB DST NW N NE E RN DST E=
200507231500 METAR MRLM 231500Z 00000KT CAVOK 27/22 A2986 CB DST NW N E RN DST N E=
200507231600 METAR MRLM NIL=
200507231700 METAR MRLM 231700Z 01005KT CAVOK 26/19 A3004=
200507231800 METAR MRLM NIL=
200507231900 METAR MRLM NIL=
200507232000 METAR MRLM NIL=
200507232100 METAR MRLM NIL=
200507232200 METAR MRLM NIL=
200507232300 METAR MRLM 232300Z 00000KT 9999 FEW023 SCT150 BKN270 28/24 A2979 CB DST S W RN DST N=
200507240000 METAR MRLM NIL=
200507240100 METAR MRLM NIL=
200507240200 METAR MRLM NIL=
200507240300 METAR MRLM NIL=
200507240400 METAR MRLM NIL=
200507240500 METAR MRLM NIL=
200507240600 METAR MRLM NIL=
200507240700 METAR MRLM NIL=
200507240800 METAR MRLM NIL=
200507240900 METAR MRLM NIL=
200507241000 METAR MRLM NIL=
200507241100 METAR MRLM NIL=
200507241200 METAR MRLM NIL=
200507241300 METAR MRLM NIL=
200507241400 METAR MRLM NIL=
200507241500 METAR MRLM NIL=
200507241600 METAR MRLM 241600Z 35007KT 9999 FEW024 OVC280 29/24 A2987=
200507241700 METAR MRLM 241700Z 01006KT 9999 FEW025 BKN280 29/24 A2985=
200507241800 METAR MRLM 241800Z 35007KT 9999 FEW025 BKN280 29/24 A2984=
200507241900 METAR MRLM 241900Z 02007KT 9999 FEW027 OVC280 29/24 A2981=
200507242000 METAR MRLM NIL=
200507242100 METAR MRLM 242100Z 36005KT 9999 FEW025 BKN280 29/24 A2977 RMK CB DST S SW LEVE HZY=
200507242200 METAR MRLM 242200Z 36009KT 9999 FEW024 BKN280 29/24 A2977 RMK RN CB DST W NW LEVE HZY=
200507242300 METAR MRLM 242300Z 35004KT 9999 FEW020 BKN270 29/24 A2979 RMK CB RN DST W LEVE HZY=
200507250000 METAR MRLM 250000Z 35006KT 9999 BKN020 SCT270 28/24 A2981 RMK CB RN DST W HZ ARND=
200507250100 METAR MRLM NIL=
200507250200 METAR MRLM NIL=
200507250300 METAR MRLM NIL=
200507250400 METAR MRLM NIL=
200507250500 METAR MRLM NIL=
200507250600 METAR MRLM NIL=
200507250700 METAR MRLM NIL=
200507250800 METAR MRLM NIL=
200507250900 METAR MRLM NIL=
200507251000 METAR MRLM NIL=
200507251100 METAR MRLM NIL=
200507251200 METAR MRLM 251200Z 00000KT 9999 FEW025 BKN080 22/21 A2981=
200507251300 METAR MRLM 251300Z 23003KT 9999 FEW025 SCT090 BKN250 24/22 A2981 RMK CB DST E=
200507251400 METAR MRLM 251400Z 00000KT 9999 FEW025 SCT090 BKN250 26/23 A2982=
200507251500 METAR MRLM 251500Z 00000KT 9999 FEW025 BKN250 29/24 A2983 RMK CB DST N NW=
200507251600 METAR MRLM 251600Z 01006KT 9999 FEW025 BKN250 30/24 A2984 RMK CB DST NW N NE=
200507251700 METAR MRLM 251700Z 36006KT 9999 FEW025 BKN250 30/24 A2986 RMK CB DST NW N NE=
200507251800 METAR MRLM 251800Z 01007KT 9999 FEW024 BKN250 30/24 A2982 RMK CB DST N NE=
200507251900 METAR MRLM 251900Z 03007KT 9999 FEW024 SCT090 BKN250 30/24 A2981 RMK CB DST N NE TS DST NE=
200507252000 METAR MRLM NIL=
200507252100 METAR MRLM 252100Z 03003KT 9999 FEW024 BKN250 30/24 A2975=
200507252200 METAR MRLM 252200Z 02005KT 9999 FEW024 BKN250 30/24 A2975=
200507252300 METAR MRLM 252300Z 03010KT 9999 FEW024 SCT090 BKN230 29/24 A2976=
200507260000 METAR MRLM 260000Z 36007KT 9999 FEW024 SCT080 BKN230 29/24 A2979=
200507260100 METAR MRLM NIL=
200507260200 METAR MRLM NIL=
200507260300 METAR MRLM NIL=
200507260400 METAR MRLM NIL=
200507260500 METAR MRLM NIL=
200507260600 METAR MRLM NIL=
200507260700 METAR MRLM NIL=
200507260800 METAR MRLM NIL=
200507260900 METAR MRLM NIL=
200507261000 METAR MRLM NIL=
200507261100 METAR MRLM NIL=
200507261200 METAR MRLM 261200Z 20003KT 5000 TSRA SCT018CB BKN028 24/23 A2979=
200507261300 METAR MRLM 261300Z 22003KT 8000 TSRA FEW018CB BKN030 24/23 A2980=
200507261400 METAR MRLM 261400Z 25003KT 9999 FEW018CB BKN090 24/23 A2979 RERA=
200507261500 METAR MRLM 261500Z 23003KT 9999 BKN045 SCT100 24/23 A2980=
200507261600 METAR MRLM 261600Z 00000KT 9999 TS FEW018 BKN030 25/24 A2982=
200507261700 METAR MRLM 261700Z 20003KT 9999 SCT030 BKN280 25/23 A2978 RETS=
200507261800 METAR MRLM 261800Z 18003KT 8000 -RA FEW030 BKN100 25/24 A2977 RMK CB DST WNW N NE=
200507261900 METAR MRLM 261900Z 21003KT 8000 DZ SCT028 BKN090 25/24 A2977=
200507262000 METAR MRLM NIL=
200507262100 METAR MRLM 262100Z 19004KT 9999 SCT030 BKN090 26/24 A2974 REDZ RMK RN ARND=
200507262200 METAR MRLM 262200Z 00000KT 9999 FEW025 SCT080 26/25 A2973 RMK RN ARND=
200507262300 METAR MRLM NIL=
200507270000 METAR MRLM 270000Z 00000KT 9999 BKN030 SCT080 26/25 A2976 RMK CBTS RN W NW N NE HZ ARND=
200507270100 METAR MRLM NIL=
200507270200 METAR MRLM NIL=
200507270300 METAR MRLM NIL=
200507270400 METAR MRLM NIL=
200507270500 METAR MRLM NIL=
200507270600 METAR MRLM NIL=
200507270700 METAR MRLM NIL=
200507270800 METAR MRLM NIL=
200507270900 METAR MRLM NIL=
200507271000 METAR MRLM NIL=
200507271100 METAR MRLM NIL=
200507271200 METAR MRLM NIL=
200507271300 METAR MRLM 271300Z 24006KT 8000 RA SCT005 SCT025 24/23 A2982 RMK CB N E=
200507271400 METAR MRLM 271400Z VRB03KT 9999 SCT025 SCT100 BKN140 24/23 A2980 RMK CB RN N E=
200507271500 METAR MRLM NIL=
200507271600 METAR MRLM 271600Z 00000KT 9999 SCT035 BKN130 25/24 A2981 RMK CB RN N E DZ S W=
200507271700 METAR MRLM 271700Z 00000KT 9999 DZ SCT035 BKN260 28/26 RMK CB RN N E TSTM NE=
200507271800 METAR MRLM 271800Z 34006KT 9999 SCT025 SCT090 25/22 A2978 RMK CB RN HZ ARND=
200507271900 METAR MRLM 271900Z 31006KT 9999 FEW012 BKN090 25/22 A2978 RMK CB RN DZ E SE=
200507272000 METAR MRLM NIL=
200507272100 METAR MRLM 272100Z 00000KT 9999 FEW020 SCT040 OVC090 27/23 A2973 CB RN DST W NW N NE TSTM NE=
200507272200 METAR MRLM 272200Z 00000KT 9999 FEW040 BKN090 28/23 A2974 CB RN DST W NW NE E SE=
200507272300 METAR MRLM 272300Z 00000KT 9999 SCT035 SCT090 28/24 A2976 CBS RN DST W NW N NE E SE HZY=
200507280000 METAR MRLM 280000Z 00000KT 9999 SCT030 SCT090 27/23 A2979=
200507280100 METAR MRLM NIL=
200507280200 METAR MRLM NIL=
200507280300 METAR MRLM NIL=
200507280400 METAR MRLM NIL=
200507280500 METAR MRLM NIL=
200507280600 METAR MRLM NIL=
200507280700 METAR MRLM NIL=
200507280800 METAR MRLM NIL=
200507280900 METAR MRLM NIL=
200507281000 METAR MRLM NIL=
200507281100 METAR MRLM NIL=
200507281200 METAR MRLM NIL=
200507281300 METAR MRLM 281300Z 00000KT 5000 +TS RA FEW005 SCT012CB SCT020 24/23 A2981=
200507281400 METAR MRLM NIL=
200507281500 METAR MRLM 281500Z 21004KT 9999 DZ FEW005 SCT090 OVC120 24/23 A2986 CBS RN HZ ARND=
200507281600 METAR MRLM 281600Z 00000KT 9999 DZ SCT006 SCT090 OVC150 24/23 A2983 CB RN N E=
200507281700 METAR MRLM 281700Z 00000KT 9999 FEW012 SCT120 BKN260 26/24 A2979 CBS DST N E=
200507281800 METAR MRLM NIL=
200507281900 METAR MRLM 281900Z 00000KT 9999 RA FEW013 SCT090 BKN130 26/23 A2981 RMK CB N TSTM NE=
200507282000 METAR MRLM NIL=
200507282100 METAR MRLM 282100Z 08004KT 9999 +DZ SCT008 OVC130 25/23 A2980=
200507282200 METAR MRLM 282200Z 18005KT 9999 +DZ FEW008 OVC130 25/23 A2974=
200507282300 METAR MRLM 282300Z 03015KT 9999 SCT012 SCT090 BKN130 26/24 A2976=
200507290000 METAR MRLM NIL=
200507290100 METAR MRLM NIL=
200507290200 METAR MRLM NIL=
200507290300 METAR MRLM NIL=
200507290400 METAR MRLM NIL=
200507290500 METAR MRLM NIL=
200507290600 METAR MRLM NIL=
200507290700 METAR MRLM NIL=
200507290800 METAR MRLM NIL=
200507290900 METAR MRLM NIL=
200507291000 METAR MRLM NIL=
200507291100 METAR MRLM NIL=
200507291200 METAR MRLM 291200Z 23005KT 9999 DZ BKN030 23/22 A2979 RERA=
200507291300 METAR MRLM 291300Z 22004KT 9999 BKN030 23/22 A2980=
200507291400 METAR MRLM 291400Z 00000KT 9999 SCT030 SCT090 25/23 A2982=
200507291500 METAR MRLM 291500Z 22003KT 9999 SCT040 BKN090 28/24 A2983=
200507291600 METAR MRLM 291600Z 00000KT 9999 FEW024 BKN240 30/24 A2980=
200507291700 METAR MRLM 291700Z 03005KT 9999 FEW024 BKN100 30/24 A2982=
200507291800 METAR MRLM 291800Z 36008KT 9999 FEW024 BKN090 30/24 A2982=
200507291900 METAR MRLM 291900Z 35004KT 9999 FEW024 BKN080 30/25 A2980=
200507292000 METAR MRLM NIL=
200507292100 METAR MRLM 292100Z 34007KT 9999 FEW024 SCT100 BKN230 29/24 A2977 TCU NE=
200507292200 METAR MRLM 292200Z 31005KT 9999 FEW024TCU BKN090 29/24 A2978 RN S SW W=
200507292300 METAR MRLM 292300Z 27003KT 9999 SCT025TCU BKN090 28/25 A2979 RMK CB N NE E=
200507300000 METAR MRLM 300000Z 13005KT 0500 TSRA FEW015CB BKN022 27/25 A2980 CB ARND TSTM NE=
200507300100 METAR MRLM NIL=
200507300200 METAR MRLM NIL=
200507300300 METAR MRLM NIL=
200507300400 METAR MRLM NIL=
200507300500 METAR MRLM NIL=
200507300600 METAR MRLM NIL=
200507300700 METAR MRLM NIL=
200507300800 METAR MRLM NIL=
200507300900 METAR MRLM NIL=
200507301000 METAR MRLM NIL=
200507301100 METAR MRLM NIL=
200507301200 METAR MRLM 301200Z 04004KT 5000 RA FEW018CB BKN022 24/23 A2987 RETS CB ARND=
200507301300 METAR MRLM 301300Z 20005KT 5000 RA FEW015 BKN026 23/22 A2988 RMK CB DST NW N NE=
200507301400 METAR MRLM 301400Z 00000KT 9999 +DZ FEW025 BKN090 23/22 A2985=
200507301500 METAR MRLM 301500Z 00000KT 9999 FEW025 SCT100 BKN240 24/23 A2984 REDZ=
200507301600 METAR MRLM 301600Z 03003KT 9999 FEW030 SCT100 BKN240 27/24 A2986 RMK RN DST ENE E=
200507301700 METAR MRLM NIL=
200507301800 METAR MRLM 301800Z 02003KT 9999 SCT030 SCT080 28/23 A2985 RMK RN DST NW N NE=
200507302000 METAR MRLM NIL=
200507302100 METAR MRLM 302100Z 35003KT 9999 FEW030 BKN240 28/24 A2979=
200507302200 METAR MRLM NIL=
200507302220 METAR MRLM 302220Z 36004KT 9999 FEW030 BKN240 29/23 A2977=
200507302300 METAR MRLM 302300Z 36004KT 9999 FEW030 SCT100 28/23 A2980=
200507310000 METAR MRLM 310000Z 35004KT 9999 FEW028 SCT100 BKN240 28/23 A2983=
200507310100 METAR MRLM NIL=
200507310200 METAR MRLM NIL=
200507310300 METAR MRLM NIL=
200507310400 METAR MRLM NIL=
200507310500 METAR MRLM NIL=
200507310600 METAR MRLM NIL=
200507310700 METAR MRLM NIL=
200507310800 METAR MRLM NIL=
200507310900 METAR MRLM NIL=
200507311000 METAR MRLM NIL=
200507311100 METAR MRLM NIL=
200507311200 METAR MRLM NIL=
200507311300 METAR MRLM 311300Z 00000KT 9999 BKN025 SCT090 23/21 A2984=
200507311400 METAR MRLM 311400Z VRB03KT 8000 TSRA SCT015CB BKN025 22/21 A2987=
200507311500 METAR MRLM 311500Z 25006KT 9999 FEW020 SCT080 BKN250 23/22 A2985 RETS RMK CB RN DST W/N S QDS=
200507311600 METAR MRLM 311600Z VRB03KT 9999 -DZ SCT020 SCT080 25/22 A2986=
200507311700 METAR MRLM 311700Z 26006KT 9999 FEW016 SCT032 26/22 A2986=
200507311800 METAR MRLM 311800Z 02006KT 9999 FEW020 BKN090 27/23 A2985=
200507311900 METAR MRLM 311900Z 13011KT 9999 FEW009 BKN020 25/23 A2985=
200507312000 METAR MRLM 312000Z 24005KT 8000 RA SCT006 OVC090 24/22 A2983=
200507312100 METAR MRLM 312100Z 00000KT 8000 RA SCT020 OVC090 23/22 A2980 RMK VIS SW W UNL=
200507312200 METAR MRLM 312200Z 00000KT 9999 RA FEW025 OVC090 23/22 A2978 RMK CB N=
200507312300 METAR MRLM 312300Z 22004KT 9999 FEW015 SCT080 BKN10 23/22 A2978 RMK CB RN W N=
200508010000 METAR MRLM 010000Z 00000KT 9999 FEW020 SCT070 BKN120 23/22 A2981 RMK CB RN ARND=
200508010100 METAR MRLM NIL=
200508010200 METAR MRLM NIL=
200508010300 METAR MRLM NIL=
200508010400 METAR MRLM NIL=
200508010500 METAR MRLM NIL=
200508010600 METAR MRLM NIL=
200508010700 METAR MRLM NIL=
200508010800 METAR MRLM NIL=
200508010900 METAR MRLM NIL=
200508011000 METAR MRLM NIL=
200508011100 METAR MRLM NIL=
200508011200 METAR MRLM NIL=
200508011300 METAR MRLM 011300Z 00000KT 999 FEW025 BKN110 23/22 A2984 RMK CB RN N SW=
200508011400 METAR MRLM 011400Z VRB03KT 9999 BKN030 SCT090 24/22 A2987 RMK CB RN N=
200508011500 METAR MRLM 011500Z 24004KT 9999 BKN032 24/22 A2987 RMK CB RN N DZ S=
200508011600 METAR MRLM 011600Z VRB03KT 9999 BKN025 SCT260 27/22 A2988 RMK CB RN N=
200508011700 METAR MRLM 011700Z 28005KT 9999 SCT028 SCT090 BKN250 27/22 A2988 RMK CB RN W NW N NE=
200508011800 METAR MRLM 011800Z 26005KT 9999 FEW031 OVC260 28/22 A2985 RKM CB RN NW N=
200508011900 METAR MRLM 0119000Z 32010KT 9999 FEW028 OVC260 29/23 A2984 RMK CB RN NW NE=
200508012000 METAR MRLM NIL=
200508012100 METAR MRLM 012100Z 31009KT 9999 FEW025 OVC270 26/21 A2979 CBS DST NE ENE S RN DST NW=
200508012200 METAR MRLM 012200Z 31010KT 9999 FEW020 SCT150 BKLN270 28/24 A2979 CB DST S NE ENE RN DST NW=
200508012300 METAR MRLM 012300Z 29005KT 9999 FEW017 SCT150 BKN270 27/24 A2981=
200508020000 METAR MRLM 020000Z 00000KT 9999 FEW014 SCT150 BKN270 27/24 A2983=
200508020100 METAR MRLM NIL=
200508020200 METAR MRLM NIL=
200508020300 METAR MRLM NIL=
200508020400 METAR MRLM NIL=
200508020500 METAR MRLM NIL=
200508020600 METAR MRLM NIL=
200508020700 METAR MRLM NIL=
200508020800 METAR MRLM NIL=
200508020900 METAR MRLM NIL=
200508021000 METAR MRLM NIL=
200508021100 METAR MRLM NIL=
200508021200 METAR MRLM NIL=
200508021300 METAR MRLM 021300Z 00000KT 9999 FEW030 BKN090 23/21 A2982 CB RN DST N NE E TS E NE=
200508021400 METAR MRLM 021400Z 00000KT 9999 FEW030 BKN080 25/22 A2986=
200508021500 METAR MRLM 021500Z 00000KT 9999 FEW030 SCT090 BKN240 27/23 A2984 CB RN NW N NE TS NE=
200508021600 METAR MRLM 021600Z 35003KT 9999 FEW030 BKN090 27/23 A2985 CB RN DST NW N NE E=
200508021700 METAR MRLM 021700Z 36006KT 9999 FEW030 BKN045 27/24 A2987 CB RN DST W NW N NE E=
200508021800 METAR MRLM 021800Z 36010KT 3000 TSRA FEW018CB BKN024 27/22 A2987 TS E SE=
200508021900 METAR MRLM 021900Z 16003KT 9999 -RA BKN030 SCT090 24/23 A2983 RETS CB DST ARND=
200508022000 METAR MRLM NIL=
200508022100 METAR MRLM 022100Z 10003KT 9999 FEW030 SCT090 BKN230 26/23 A2977=
200508022200 METAR MRLM 022200Z 12004KT 9999 FEW030 SCT090 BKN230 27/23 A2978=
200508022300 METAR MRLM 022300Z 13005KT 9999 SCT045 BKN230 26/23 A2980=
200508030000 METAR MRLM 030000Z 00000KT 9999 FEW040 BKN230 26/23 A2980=
200508030100 METAR MRLM NIL=
200508030200 METAR MRLM NIL=
200508030300 METAR MRLM NIL=
200508030400 METAR MRLM NIL=
200508030500 METAR MRLM NIL=
200508030600 METAR MRLM NIL=
200508030700 METAR MRLM NIL=
200508030800 METAR MRLM NIL=
200508030900 METAR MRLM NIL=
200508031000 METAR MRLM NIL=
200508031100 METAR MRLM NIL=
200508031200 METAR MRLM NIL=
200508031300 METAR MRLM 031300Z 22004KT 9999 FEW030 SCT080 BKN230 24/22 A2981=
200508031400 METAR MRLM NIL=
200508031500 METAR MRLM NIL=
200508031600 METAR MRLM NIL=
200508031700 METAR MRLM 031700Z 21003KT 9999 SCT028 SCT080 26/24 A2983=
200508031800 METAR MRLM 031800Z 34007KT 3000 -RA SCT020 BKN030 25/23 A2982=
200508031900 METAR MRLM 031900Z 00000KT 9999 TS FEW018CB BKN028 25/24 A2982=
200508032000 METAR MRLM NIL=
200508032100 METAR MRLM 032100Z 20004KT 9999 FEW030 BKN080 25/23 A2977 RETS RMK CB DST N NE E SE RN ARND=
200508032200 METAR MRLM 032200Z 00000KT 9999 FEW025 BKN090 26/23 A2975 RMK CB DST NW N NE E RN DST ARND=
200508032300 METAR MRLM 032300Z 00000KT 9999 SCT040 BKN090 26/24 A2978 RMK CD DST N NE E RN ARND=
200508040000 METAR MRLM 040000Z 00000KT 9999 SCT030 SCT090 25/23 A2979 RMK CD RN DST NW N NE E=
200508040100 METAR MRLM NIL=
200508040200 METAR MRLM NIL=
200508040300 METAR MRLM NIL=
200508040400 METAR MRLM NIL=
200508040500 METAR MRLM NIL=
200508040600 METAR MRLM NIL=
200508040700 METAR MRLM NIL=
200508040800 METAR MRLM NIL=
200508040900 METAR MRLM NIL=
200508041000 METAR MRLM NIL=
200508041100 METAR MRLM NIL=
200508041200 METAR MRLM NIL=
200508041300 METAR MRLM 041300Z 00000KT CAVOK 25/23 A2983 RMK CB RN DST QUAD N HZY=
200508041400 METAR MRLM 041400Z VRB03KT 9999 FEW015 OVC090 26/23 A2984 RMK CB RN DST QUAD N=
200508041500 METAR MRLM 041500Z 27007KT CAVOK 27/23 A2985 RMK CB RN DST QUAD N=
200508041600 METAR MRLM 041600Z 33004KT CAVOK 28/22 A2985 RMK CB RN DST QUAD N=
200508041700 METAR MRLM 041700Z 35008KT 9999 FEW028 BKN100 29/23 A2985 RMK CB RN NW N=
200508041800 METAR MRLM 041800Z 31009KT 9999 FEW032 SCT080 BKN100 29/23 A2983 CB NE=
200508041900 METAR MRLM 041900Z 27005KT 9999 FEW030 SCT120 BKN270 29/24 A2978 CB NE S=
200508042000 METAR MRLM NIL=
200508042100 METAR MRLM 042100Z 33014KT 9999 FEW035 BKN250 33/22 A2979=
200508042200 METAR MRLM 042200Z 33009KT 9999 FEW028 OVC270 29/23 A2975=
200508042300 METAR MRLM 042300Z 29004KT 9999 FEW025 OVC260 27/23 A2975=
200508050000 METAR MRLM 050000Z 00000KT 9999 FEW018 BKN080 27/23 A2978=
200508050100 METAR MRLM NIL=
200508050200 METAR MRLM NIL=
200508050300 METAR MRLM NIL=
200508050400 METAR MRLM NIL=
200508050500 METAR MRLM NIL=
200508050600 METAR MRLM NIL=
200508050700 METAR MRLM NIL=
200508050800 METAR MRLM NIL=
200508050900 METAR MRLM NIL=
200508051000 METAR MRLM NIL=
200508051100 METAR MRLM NIL=
200508051200 METAR MRLM NIL=
200508051300 METAR MRLM 051300Z 00000KT 9999 BKN010 SCT140 25/23 A2982 RMK TSTM=
200508051400 METAR MRLM 051400Z 00000KT 9999 RA FEW009 OVC130 24/23 A2983=
200508051500 METAR MRLM 051500Z 00000KT CAVOK 24/23 A2983=
200508051600 METAR MRLM 051600Z 00000KT 9999 SCT008 SCT090 25/23 A2985=
200508051700 METAR MRLM 051700Z 00000KT 9999 FEW010 BKN090 25/23 A2984=
200508051800 METAR MRLM 051800Z 00000KT 9999 FEW018 BKN090 27/23 A2983=
200508051900 METAR MRLM NIL=
200508052000 METAR MRLM 052000Z 21006KT 7000 -RA SCT003 OVC015 25/23 A2981 CB N E=
200508052100 METAR MRLM 052100Z 20004KT 9999 SCT006 SCT020 25/23 A2979 RMK RN HZ ARND TSTM S=
200508052200 METAR MRLM 052200Z 00000KT 9999 FEW020 BKN140 25/23 A2977 RMK CB RN HZ ARND=
200508052300 METAR MRLM 052300Z 00000KT CAVOK 25/23 A2979 RMK CB RN E S=
200508060000 METAR MRLM 060000Z 20004KT 9999 FEW006 BKN120 24/23 A2980 RMK CB RN DST E S HZ ARND=
200508060100 METAR MRLM NIL=
200508060200 METAR MRLM NIL=
200508060300 METAR MRLM NIL=
200508060400 METAR MRLM NIL=
200508060500 METAR MRLM NIL=
200508060600 METAR MRLM NIL=
200508060700 METAR MRLM NIL=
200508060800 METAR MRLM NIL=
200508060900 METAR MRLM NIL=
200508061000 METAR MRLM NIL=
200508061100 METAR MRLM NIL=
200508061200 METAR MRLM NIL=
200508061300 METAR MRLM 061300Z 23006KT 9999 SCT030 SCT080 23/21 A2981 RMK CB W NW N NE RN HZ ARND=
200508061400 METAR MRLM NIL=
200508061500 METAR MRLM 061500Z 00000KT 9999 DZ SCT018 SCT080 24/22 A2984 RMK TCU NW N=
200508061600 METAR MRLM 061600Z 27004KT 999 FEW020 SCT090 BKN220 27/24 A2983 RMK RN ARND=
200508061700 METAR MRLM 061700Z 27003KT 9999 FEW030 SCT100 BKN230 27/23 A2982 RMK TCU RN NW N NE=
200508061800 METAR MRLM 061800Z 01007KT 9999 SCT018 SCT220 27/23 A2982 RMK CB RN NW N NE=
200508061900 METAR MRLM 061900Z 29004KT 9999 SCT018 BKN100 29/23 A2981 RMK CB RN NW N NE=
200508062000 METAR MRLM NIL=
200508062100 METAR MRLM 062100Z 28004KT 9999 SCT030 BKN120 27/24 A2978=
200508062200 METAR MRLM 062200Z 28009KT 9999 FEW030 BKN090 27/24 A2977=
200508062300 METAR MRLM 062300Z 00000KT 9999 FEW030 SCT090 BKN220 26/24 A2977=
200508070000 METAR MRLM 070000Z 00000KT 9999 -DZ FEW026 BKN090 26/23 A2981=
200508070100 METAR MRLM NIL=
200508070200 METAR MRLM NIL=
200508070300 METAR MRLM NIL=
200508070400 METAR MRLM NIL=
200508070500 METAR MRLM NIL=
200508070600 METAR MRLM NIL=
200508070700 METAR MRLM NIL=
200508070800 METAR MRLM NIL=
200508070900 METAR MRLM NIL=
200508071000 METAR MRLM NIL=
200508071100 METAR MRLM NIL=
200508071200 METAR MRLM NIL=
200508071300 METAR MRLM 071300Z 33008KT 3000 TSRA SCT018CB BKN024 23/21 A2988=
200508071400 METAR MRLM 071400Z 23004KT 8000 +DZ SCT015 BKN025 22/21 A2991 RETS CB SW W RN ARND=
200508071500 METAR MRLM NIL=
200508071600 METAR MRLM 071600Z 24004KT 9999 FEW030 BKN090 24/22 A2990 REDZ CB RN DST W NWN=
200508071700 METAR MRLM 071700Z 25005KT 9999 SCT028 BKN090 26/23 A2990 CB RN LINE NW N NE E SE=
200508071800 METAR MRLM 071800Z 28003KT 4000 RA SCT024 BKN080 25/22 A2990 CB DST NW N NE E=
200508071900 METAR MRLM 071900Z 19004KT 8000 -RA FEW015 BKN026 23/22 A2989=
200508072000 METAR MRLM NIL=
200508072100 METAR MRLM 072100Z 23004KT 9999 -DZ BKN025 SCT080 26/25 A2985=
200508072200 METAR MRLM 072200Z 24004KT 9999 FEW025 BKN090 26/25 A2986 REDZ=
200508072300 METAR MRLM 072300Z 23004KT 9999 FEW025 BKN090 26/25 A2986=
200508080000 METAR MRLM NIL=
200508080100 METAR MRLM NIL=
200508080200 METAR MRLM NIL=
200508080300 METAR MRLM NIL=
200508080400 METAR MRLM NIL=
200508080500 METAR MRLM NIL=
200508080600 METAR MRLM NIL=
200508080700 METAR MRLM NIL=
200508080800 METAR MRLM NIL=
200508080900 METAR MRLM NIL=
200508081000 METAR MRLM NIL=
200508081100 METAR MRLM NIL=
200508081200 METAR MRLM NIL=
200508081300 METAR MRLM NIL=
200508081400 METAR MRLM 21005KT CAVOK 24/22 A3005=
200508081402 METAR MRLM 081402Z 21005KT CAVOK 24/22 A3005=
200508081500 METAR MRLM 081500Z 09006KT 9999 DZ FEW014 BKN030 25/22 A2989=
200508081600 METAR MRLM NIL=
200508081700 METAR MRLM NIL=
200508081800 METAR MRLM 081800Z 22005KT 9999 FEW025 OVC100 26/23 A2987 RMK CB RN SE S=
200508081900 METAR MRLM 081900Z VRB03KT 9999 FEW025 BKN100 27/23 A2985 CB RN N NE E SE=
200508082000 METAR MRLM NIL=
200508082100 METAR MRLM 082100Z 18005KT 9999 DZ FEW015 BKN100 25/23 A2981 RMK CB RN DST E SE S SW LEVE HZY=
200508082200 METAR MRLM 082200Z 00000KT CAVOK 26/23 A2981 RMK CB RN DST NE E SE S LEVE HZY=
200508082300 METAR MRLM 082300Z 00000KT CAVOK 25/23 A2981 RMK CB RN DST E SE S HZY=
200508090000 METAR MRLM 090000Z VRO03KT CAVOK 24/22 A2981 RMK CB RN DST E SE HZY=
200508090100 METAR MRLM NIL=
200508090200 METAR MRLM NIL=
200508090300 METAR MRLM NIL=
200508090400 METAR MRLM NIL=
200508090500 METAR MRLM NIL=
200508090600 METAR MRLM NIL=
200508090700 METAR MRLM NIL=
200508090800 METAR MRLM NIL=
200508090900 METAR MRLM NIL=
200508091000 METAR MRLM NIL=
200508091100 METAR MRLM NIL=
200508091200 METAR MRLM NIL=
200508091300 METAR MRLM 091300Z 26006KT 9999 OVC025 23/21 A2983 RMK CB RN HZ DST ARND=
200508091400 METAR MRLM 091400Z VRB03KT 9999 FEW006 OVC025 24/22 A2984 RMK CB RN DST QUAD W N NW=
200508091500 METAR MRLM 091500Z 28005KT 9999 BKN030 25/22 A2986 RMK RN DST QUAD N E S=
200508091600 METAR MRLM 091600Z 00000KT 5000 TSRA FEW006 SCT012CB BKN020 25/23 A2988 RMK TS NE=
200508091700 METAR MRLM 091700Z 00000KT 5000 -TSRA SCT005 SCT015CB BKN020 23/22 A2990 RMK TS NE E=
200508091800 METAR MRLM 091800Z 22004KT 5000 -RA SCT005 SCT015 BKN090 23/22 A2988 RETS RMK CB DST QUAD NE=
200508091900 METAR MRLM 091900Z 30004KT 9999 DZ SCT020 SCT130 BKN150 23/22 A2983 RMK CB RN QUAD N W E=
200508092000 METAR MRLM 092000Z VRB03KT 9999 SCT030 SCT120 BKN150 24/23 A2980 RMK RN DST QUAD W N E=
200508092100 METAR MRLM 092100Z 27004KT 9999 BKN025 24/22 A2979 RERA RMK CB RN ARND=
200508092200 METAR MRLM 092200Z VRB03KT 9999 SCT025 SCT100 25/23 A2979 RMK CB/RN ARND=
200508092300 METAR MRLM 092300Z 29004KT 9999 DZ FEW025 BKN090 25/22 A2979=
200508100000 METAR MRLM 100000Z VRB03KT 9999 BKN030 24/22 A2981 CB RN W N NE E=
200508100100 METAR MRLM NIL=
200508100200 METAR MRLM NIL=
200508100300 METAR MRLM NIL=
200508100400 METAR MRLM NIL=
200508100500 METAR MRLM NIL=
200508100600 METAR MRLM NIL=
200508100700 METAR MRLM NIL=
200508100800 METAR MRLM NIL=
200508100900 METAR MRLM NIL=
200508101000 METAR MRLM NIL=
200508101100 METAR MRLM NIL=
200508101200 METAR MRLM NIL=
200508101300 METAR MRLM 101300Z 19005KT 9999 -DZ FEW030 BKN90 23/22 A2984=
200508101400 METAR MRLM 101400Z 24003KT 9999 FEW040 SCT090 BKN230 25/23 A2987=
200508101500 METAR MRLM 101500Z 00000KT 9999 FEW030 BKN045 27/24 A2988=
200508101600 METAR MRLM 201600Z 20003KT 9999 SCT025 BKN230 28/24 A2987 RMK CB/RN N-NE=
200508101700 METAR MRLM 101700Z 35010KT 9999 FEW025 BKN230 29/24 A2986=
200508101800 METAR MRLM 101800Z 36008KT 9999 FEW025 BKN230 30/24 A2984 RMK CB NW N=
200508101900 METAR MRLM 101900Z 35007KT 9999 FEW024 BKN230 29/24 A2982=
200508102000 METAR MRLM NIL=
200508102100 METAR MRLM 102100Z 340007KT 9999 FEW024 BKN230 29/23 A2980 RMK CB SE S SW HZ ARND=
200508102200 METAR MRLM 102200Z 35006KT 9999 FEW024 BKN230 28/22 A2980 RMK CB SW W HZ ARND=
200508102300 METAR MRLM 102300Z 00000KT 9999 FEW024 SCT100 BKN230 28/23 A2983 CB RN SE SW DUPE MID2/SENEAM/GOB/80 DXB665 AUG 110010=
200508110000 METAR MRLM 110000Z 00000KT 9999 FEW024 BKN090 27/23 A2984 RMK CB RN DST SE S SW W HZ ARND=
200508110100 METAR MRLM NIL=
200508110200 METAR MRLM NIL=
200508110300 METAR MRLM NIL=
200508110400 METAR MRLM NIL=
200508110500 METAR MRLM NIL=
200508110600 METAR MRLM NIL=
200508110700 METAR MRLM NIL=
200508110800 METAR MRLM NIL=
200508110900 METAR MRLM NIL=
200508111000 METAR MRLM NIL=
200508111100 METAR MRLM NIL=
200508111200 METAR MRLM 111200Z 21003KT 9999 FEW028 SCT090 BKN250 23/22 A2985 RMK CB DST NNW=
200508111300 METAR MRLM 111300Z 21003KT 9999 FEW025 BKN250 24/22 A2985=
200508111400 METAR MRLM 111400Z 00000KT 9999 FEW030 BKN250 26/23 A2987=
200508111500 METAR MRLM 111500Z 22003KT 9999 FEW024 BKN240 29/23 A2989=
200508111600 METAR MRLM 111600Z 01007KT 9999 FEW030 BKN230 29/23 A2989 CB NE N=
200508111700 METAR MRLM 111700Z 36008KT 9999 FEW025 BKN230 29/23 A2987=
200508111800 METAR MRLM 111800Z 01007KT 9999 FEW024 BKN080 28/24 A2986=
200508111900 METAR MRLM 111900Z 03007KT 9999 FEW024 BKN090 29/24 A2984 RMK CB TS SW=
200508112000 METAR MRLM NIL=
200508112100 METAR MRLM 112100Z 02005KT 9999 FEW024 BKN240 29/24 A2980=
200508112200 METAR MRLM 112200Z 07006KT 9999 SCT025 BKN240 29/24 A2980 CB DST N NE SW=
200508112300 METAR MRLM 112300Z 00000KT 9999 FEW030 BKN240 29/24 A2980=
200508120000 METAR MRLM 120000Z 00000KT 9999 FEW030 BKN240 28/24 A2980=
200508120100 METAR MRLM NIL=
200508120200 METAR MRLM NIL=
200508120300 METAR MRLM NIL=
200508120400 METAR MRLM NIL=
200508120500 METAR MRLM NIL=
200508120600 METAR MRLM NIL=
200508120700 METAR MRLM NIL=
200508120800 METAR MRLM NIL=
200508120900 METAR MRLM NIL=
200508121000 METAR MRLM NIL=
200508121100 METAR MRLM NIL=
200508121200 METAR MRLM 121200Z 27003KT 9999 TS FEW018CB BKN030 23/22 A2985=
200508121300 METAR MRLM 121300Z 00000KT 7000 TSRA FEW018CB BKN025 24/22 A2988=
200508121400 METAR MRLM 121400Z 18003KT 3000 TSRA FEW018CB BKN022 23/22 A2991=
200508121600 METAR MRLM 121600Z 20004KT 8000 -RA FEW024 BKN045 22/22 A2992=
200508121700 METAR MRLM 121700Z 20003KT 9999 DZ FEW025 SCT090 BKN220 23/22 A2990 RN ARND=
200508121800 METAR MRLM 121800Z 21004KT 9999 FEW030 BKN090 25/18 A2989 REDZ=
200508121900 METAR MRLM 121900Z 24003KT 9999 FEW030 BKN090 27/23 A2987=
200508122000 METAR MRLM NIL=
200508122100 METAR MRLM 122100Z 24003KT 9999 FEW040 BKN090 30/24 A2979=
200508122200 METAR MRLM 122200Z 35009KT 9999 FEW040 BKN090 28/22 A2979=
200508122300 METAR MRLM 122300Z 32003KT 9999 FEW025 BKN090 27/23 A2982=
200508130000 METAR MRLM 130000Z 00000KT 9999 FEW024 BKN090 26/23 A2983=
200508130100 METAR MRLM NIL=
200508130200 METAR MRLM NIL=
200508130300 METAR MRLM NIL=
200508130400 METAR MRLM NIL=
200508130500 METAR MRLM NIL=
200508130600 METAR MRLM NIL=
200508130700 METAR MRLM NIL=
200508130800 METAR MRLM NIL=
200508130900 METAR MRLM NIL=
200508131000 METAR MRLM NIL=
200508131100 METAR MRLM NIL=
200508131200 METAR MRLM NIL=
200508131300 METAR MRLM 131300Z 00000KT 9999 SCT030 SCT090 23/22 A2987=
200508131400 METAR MRLM 131400Z 19005KT 9999 SCT035 BKN080 24/23 A2989=
200508131500 METAR MRLM 131500Z 00000KT 9999 DZ SCT028 BKN080 25/23 A2991=
200508131600 METAR MRLM 131600Z 23006KT 9999 FEW028 SCT090 27/23 A2991=
200508131700 METAR MRLM 131700Z 29004KT 9999 SCT030 SCT090 27/23 A2989=
200508131800 METAR MRLM 131800Z 29004KT 9999 FEW024 SCT090 28/23 A2986=
200508131900 METAR MRLM 131900Z 31003KT 9999 FEW024 SCT090 BKN240 29/23 A2984=
200508132000 METAR MRLM NIL=
200508132100 METAR MRLM 132100Z 33011KT 9999 FEW024 SCT090 BKN240 28/23 A2982 RMK CB DST ARND RN DST N NE=
200508132200 METAR MRLM 132200Z 03009KT 9999 BKN028 SCT140 27/23 A2982 RMK CB RN DST NW N NE=
200508132300 METAR MRLM 132300Z 01005KT 9999 FEW024 BKN040 26/23 A2984 RMK RN DST ARND=
200508140000 METAR MRLM 140000Z 21004KT 9999 FEW020 BKN030 25/23 A2985 RMK TCU RN DST ARND CB DST SW W=
200508140100 METAR MRLM NIL=
200508140200 METAR MRLM NIL=
200508140300 METAR MRLM NIL=
200508140400 METAR MRLM NIL=
200508140500 METAR MRLM NIL=
200508140600 METAR MRLM NIL=
200508140700 METAR MRLM NIL=
200508140800 METAR MRLM NIL=
200508140900 METAR MRLM NIL=
200508141000 METAR MRLM NIL=
200508141100 METAR MRLM NIL=
200508141200 METAR MRLM 141200Z 20004KT 9999 FEW028 BKN230 22/21 A2985 CB RN DIST NW N NE=
200508141300 METAR MRLM 141300Z 22003KT 9999 FEW025 SCT090 BKN240 23/22 A2986=
200508141400 METAR MRLM 141400Z 00000KT 9999 FEW025 BKN240 28/22 A2986 RMK LINEA CB DST W NW N E NE=
200508141500 METAR MRLM 141500Z 00000KT 9999 FEW025 SCT100 BKN240 29/21 A2986 RMK CB DST NW N NE TS DST N=
200508141600 METAR MRLM 141600Z 35008KT 9999 FEW025 BKN090 28/22 A2988 RMK CB RN DST NW N NE=
200508141700 METAR MRLM 141700Z 34008KT 9999 FEW030 BKN140 27/23 A2989 RMK CB RN DST NW N NE TCU DST W=
200508141800 METAR MRLM 141800Z 29003KT 9999 -DZ FEW028 BKN080 27/23 A2988 RMK CB DST ARND RN DST WNW NW N NE=
200508141900 METAR MRLM 141900Z 28005KT 9999 BKN026 SCT080 27/23 A2986 REDZ RMK TCU RN DST W NW=
200508142000 METAR MRLM NIL=
200508142100 METAR MRLM 142100Z 30004KT 9999 FEW025 BKN090 27/23 A2982=
200508142200 METAR MRLM 142200Z 34003KT 9999 FEW028 SCT090 BKN290 27/23 A2981=
200508142300 METAR MRLM 142300Z 31005KT 9999 FEW025 BKN100 27/23 A2981=
200508150000 METAR MRLM 150000Z 00000KT 9999 FEW030 SCT100 BKN250 26/23 A2981=
200508150100 METAR MRLM NIL=
200508150200 METAR MRLM NIL=
200508150300 METAR MRLM NIL=
200508150400 METAR MRLM NIL=
200508150500 METAR MRLM NIL=
200508150600 METAR MRLM NIL=
200508150700 METAR MRLM NIL=
200508150800 METAR MRLM NIL=
200508150900 METAR MRLM NIL=
200508151000 METAR MRLM NIL=
200508151100 METAR MRLM NIL=
200508151200 METAR MRLM NIL=
200508151300 METAR MRLM 151300Z 22003KT 9999 FEW025 BKN250 23/22 A2987=
200508151400 METAR MRLM 151400Z 24003KT 9999 FEW025 SCT100 BKN250 28/23 A2989=
200508151500 METAR MRLM 151500Z 28006KT 9999 FEW025 SCT100 BKN250 29/23 A2991=
200508151600 METAR MRLM 151600Z 29005KT 9999 FEW025 SCT100 BKN250 29/22 A2990=
200508151700 METAR MRLM 151700Z 34010KT 9999 FEW024 SCT100 BKN250 29/23 A2989 RMK CB RN NW N NE=
200508151800 METAR MRLM 151800Z 34010KT 9999 FEW024 SCT100 BKN250 29/24 A2988=
200508151900 METAR MRLM 151900Z 33010KT 9999 FEW024 SCT090 BKN250 28/24 A2985=
200508152000 METAR MRLM NIL=
200508152100 METAR MRLM 152100Z 32006KT 9999 FEW024 BKN240 28/23 A2980 RMK CB ARND RN W NW N=
200508152200 METAR MRLM 152200Z 29005KT 9999 FEW024 BKN240 28722 A2978 RMK CB ARND RN N W=
200508160000 METAR MRLM 160000Z 00000KT 9999 FEW024 BKN220 26/23 A2982 RMK CB ARND RN NW N NE=
200508160100 METAR MRLM NIL=
200508160200 METAR MRLM NIL=
200508160300 METAR MRLM NIL=
200508160400 METAR MRLM NIL=
200508160500 METAR MRLM NIL=
200508160600 METAR MRLM NIL=
200508160700 METAR MRLM NIL=
200508160800 METAR MRLM NIL=
200508160900 METAR MRLM NIL=
200508161000 METAR MRLM NIL=
200508161100 METAR MRLM NIL=
200508161200 METAR MRLM NIL=
200508161300 METAR MRLM 161300Z 24003KT 9999 SCT028 BKN090 24/22 A2985 RMK REDZ RN N NW E=
200508161400 METAR MRLM 161400Z 26004KT 9999 FEW015 BKN045 24/23 A2987 RMK CB NW NE E RN ARND=
200508161500 METAR MRLM 161500Z 29006KT 9999 BKN035 SCT090 25/23 A2987 RMK RN E NE NW=
200508161600 METAR MRLM 161600Z 27004KT 9999 SCT035 BKN110 27/23 A2987 RMK CB RN N NE E=
200508161700 METAR MRLM 161700Z 29005KT 9999 FEW025 SCT090BKN220 28/22 A2987 RMK CB RN NW N E=
200508161800 METAR MRLM 161800Z 31006KT 9999 FEW025 SCT100 BKN230 28/23 A2984 RM CB RN E N=
200508161900 METAR MRLM 161900Z 35006KT 9999 FEW025 SCT100 BKN230 28/22 A2981 RMK CB RN S SW E=
200508162000 METAR MRLM NIL=
200508162100 METAR MRLM 162100Z 32006KT 9999 FEW024 BKN130 27/22 A2976 CB DST SE S SW W RN SW=
200508162200 METAR MRLM 162200Z 34006KT 9999 FEW024 SCT130 27/23 A2976 RN CB S SW W DST=
200508162300 METAR MRLM 162300Z 25005KT 9999 SCT024 BKN130 27/23 A2978 CB RN DST SE S SW W=
200508170000 METAR MRLM 170000Z 00000KT 9999 SCT024 BKN120 26/23 A2979=
200508170100 METAR MRLM NIL=
200508170200 METAR MRLM NIL=
200508170300 METAR MRLM NIL=
200508170400 METAR MRLM NIL=
200508170500 METAR MRLM NIL=
200508170600 METAR MRLM NIL=
200508170700 METAR MRLM NIL=
200508170800 METAR MRLM NIL=
200508170900 METAR MRLM NIL=
200508171000 METAR MRLM NIL=
200508171100 METAR MRLM NIL=
200508171200 METAR MRLM NIL=
200508171300 METAR MRLM 171300Z 28003KT 9999 FEW030 BKN080 24/23 A2981 CB RN DST NW N NE=
200508171400 METAR MRLM 171400Z 28005KT 9999 BKN040 SCT090 25/23 A2984 CB RN NW N NE E=
200508171500 METAR MRLM 171500Z 27003KT 9999 SCT030 BKN090 26/23 A2986 CB RN WNW ENE=
200508171600 METAR MRLM 171600Z 27004KT 9999 SCT028 BKN140 27/23 A2985 TCU RN DST WNW N ENE=
200508171700 METAR MRLM 171700Z 32008KT 9999 SCT025 BKN220 28/23 A2985 TCU RN DST NW SW=
200508171800 METAR MRLM 171800Z 35006KT 9999 SCT025 BKN150 28/23 A2983 CB RN DST ARND=
200508171900 METAR MRLM 171900Z 31003KT 9999 SCT025 BKN150 28/23 A2990 CB RN DST ARND=
200508172000 METAR MRLM NIL=
200508172100 METAR MRLM 172100Z 06008KT 6000 RA BKN020 SCT080 26/23 A2976=
200508172200 METAR MRLM 172200Z 04009KT 7000 -RA BKN015 25/23 A2975=
200508172300 METAR MRLM 172300Z 24003KT 5000 RA OVC015 25/23 A2978=
200508180000 METAR MRLM NIL=
200508180100 METAR MRLM NIL=
200508180200 METAR MRLM NIL=
200508180300 METAR MRLM NIL=
200508180400 METAR MRLM NIL=
200508180500 METAR MRLM NIL=
200508180600 METAR MRLM NIL=
200508180700 METAR MRLM NIL=
200508180800 METAR MRLM NIL=
200508180900 METAR MRLM NIL=
200508181000 METAR MRLM NIL=
200508181100 METAR MRLM NIL=
200508181200 METAR MRLM NIL=
200508181300 METAR MRLM 181300Z 00000KT 9999 FEW045 BKN090 23/22 A2980=
200508181400 METAR MRLM 181400Z 15003KT 9999 FEW040 BKN090 25/23 A2981=
200508181500 METAR MRLM 181500Z 08004KT 9999 FEW040 BKN100 27/23 A2981=
200508181600 METAR MRLM 181600Z 08004KT CAVOK 28/22 A2982 RMK 0VC090=
200508181700 METAR MRLM 181700Z 06008KT 9999 FEW030 BKN100 28/22 A2983=
200508181800 METAR MRLM 181800Z 08007KT 9999 FEW030 BKN090 28/22 A2983=
200508181900 METAR MRLM 181900Z 06007KT 9999 FEW025 BKN100 29/23 A2982=
200508182000 METAR MRLM NIL=
200508182100 METAR MRLM 182100Z 07006KT 9999 DZ SCT024 SCT100 27/24 A2980 RMK CB RN DST S SW W=
200508182200 METAR MRLM 182200Z 12004KT 9999 DZ SCT024 SCT100 27/23 A2979 RMK CB RN DST S SW W=
200508182300 METAR MRLM 182300Z 14003KT 9999 DZ SCT024 SCT100 26/23 A2979 RMK CBB RN DST S SW W=
200508190000 METAR MRLM 190000Z 00000KT 9999 -DZ FEW024 BKN090 25/24 A2979 RMK CB RN DST SE S SW W=
200508190100 METAR MRLM NIL=
200508190200 METAR MRLM NIL=
200508190300 METAR MRLM NIL=
200508190400 METAR MRLM NIL=
200508190500 METAR MRLM NIL=
200508190600 METAR MRLM NIL=
200508190700 METAR MRLM NIL=
200508190800 METAR MRLM NIL=
200508190900 METAR MRLM NIL=
200508191000 METAR MRLM NIL=
200508191100 METAR MRLM NIL=
200508191200 METAR MRLM NIL=
200508191300 METAR MRLM 191300Z 00000KT 9999 FEW025 SCT280 24/22 A2987=
200508191400 METAR MRLM 191400Z 00000KT 9999 FEW025 SCT280 27/22 A2989 RMK TCU DST NW N E=
200508191500 METAR MRLM 191500Z 10006KT 9999 FEW018CB BKN280 29/21 A2989 RMK CB DST N=
200508191600 METAR MRLM 191600Z 07006KT 9999 FEW025 BKN280 30/21 A2990 RMK CB DST NW=
200508191700 METAR MRLM 191700Z 08007KT 9999 FEW025 BKN240 29/21 A2989=
200508191800 METAR MRLM 191800Z 08005KT 9999 FEW025 BKN240 29/22 A2986 CB NW NE=
200508191900 METAR MRLM 191900Z 06006KT 9999 FEW024 BKN240 29/22 A2982 CB W=
200508192000 METAR MRLM NIL=
200508192100 METAR MRLM 192100Z 04008KT 9999 FEW025 SCT240 29/23 A2980=
200508192200 METAR MRLM 192200Z 04007KT 9999 FEW024 SCT250 29/23 A2979=
200508192300 METAR MRLM 192300Z 06003KT 9999 FEW024 BKN240 29/22 A2980=
200508200000 METAR MRLM 200000Z 05003KT 9999 FEW024 OVC240 28/23 A2981=
200508200100 METAR MRLM NIL=
200508200200 METAR MRLM NIL=
200508200300 METAR MRLM NIL=
200508200400 METAR MRLM NIL=
200508200500 METAR MRLM NIL=
200508200600 METAR MRLM NIL=
200508200700 METAR MRLM NIL=
200508200800 METAR MRLM NIL=
200508200900 METAR MRLM NIL=
200508201000 METAR MRLM NIL=
200508201100 METAR MRLM NIL=
200508201200 METAR MRLM 201200Z 23005KT 9999 -DZ FEW015 BKN045 23/22 A2984 RN ARND=
200508201300 METAR MRLM 201300Z 23004KT 9999 FEW030 BKN080 24/22 A2985 RMK RN DST ARND=
200508201400 METAR MRLM 201400Z 21003KT 9999 FEW030 BKN080 26/23 A2988=
200508201500 METAR MRLM 201500Z 25005KT 9999 SCT040 SCT080 28/23 A2991=
200508201600 METAR MRLM 201600Z 31006KT 9999 FEW03 BKN230 29/23 A2988 RMK CB NW N NE ENE TS DIST NE=
200508201700 METAR MRLM 201700Z 08005KT 9999 FEW028 BKN230 29/23 A2985 RMK CB DIST NW N NE ENE=
200508201800 METAR MRLM 201800Z 35007KT 9999 FEW028 SCT090 BKN230 29/23 A2984 RMK CB RN DIST N NE E TS DIST NE=
200508201900 METAR MRLM 201900Z 33008KT 9999 FEW025 BKN080 28/23 A2983 RMK RN DIST NW-SW=
200508202000 METAR MRLM NIL=
200508202100 METAR MRLM 202100Z 33009KT 9999 FEW025 BKN090 29/22 A2980 RMK TCU S=
200508202200 METAR MRLM 202200Z 33006KT 9999 FEW024 BKN080 28/23 A2979 RMK CB NE=
200508202300 METAR MRLM 202300Z 34004KT 9999 FEW024 BKN240 29/23 A2979=
200508210000 METAR MRLM 210000Z 00000KT 9999 FEW024 BKN240 28/23 A2981 RMK HZ ARND=
200508210100 METAR MRLM NIL=
200508210200 METAR MRLM NIL=
200508210300 METAR MRLM NIL=
200508210400 METAR MRLM NIL=
200508210500 METAR MRLM NIL=
200508210600 METAR MRLM NIL=
200508210700 METAR MRLM NIL=
200508210800 METAR MRLM NIL=
200508210900 METAR MRLM NIL=
200508211000 METAR MRLM NIL=
200508211100 METAR MRLM NIL=
200508211200 METAR MRLM NIL=
200508211300 METAR MRLM 211300Z 21003KT 9999 FEW028 BKN090 23/22 A2981 RMK CB NE=
200508211400 METAR MRLM 211400Z 31004KT 9999 FEW025 SCT090 BKN220 25/22 A2983=
200508211500 METAR MRLM 211500Z 22004KT 9999 FEW025 BKN080 25723 A2990 RMK CB RN TS N NE=
200508211600 METAR MRLM 211600Z 27003KT 9999 SCT030 BKN090 27/23 A2990 RMK CB RN N NE E=
200508211700 METAR MRLM 211700Z 24003KT 9999 FEW025 SCT090 27/23 A2987 RMK CB RN NW NE E=
200508211800 METAR MRLM 211800Z 27005KT 9999 FEW025 SCT090 BKN240 29/23 A2983 RMK CB RN N NE E=
200508211900 METAR MRLM 211900Z 30004KT 9999 FEW030 BKN240 29/23 A2981=
200508212000 METAR MRLM NIL=
200508212100 METAR MRLM 212100Z 22003KT 9999 FEW030 BKN250 29/23 A2977 CB DST SW W N RN DST W=
200508212300 METAR MRLM 212300Z 29003KT 9999 FEW028 BKN230 28/23 A2978 TCU DST SE=
200508220000 METAR MRLM 220000Z 31003KT 9999 FEW028 SCT090 BKN230 27/24 A2979=
200508220100 METAR MRLM NIL=
200508220200 METAR MRLM NIL=
200508220300 METAR MRLM NIL=
200508220400 METAR MRLM NIL=
200508220500 METAR MRLM NIL=
200508220600 METAR MRLM NIL=
200508220700 METAR MRLM NIL=
200508220800 METAR MRLM NIL=
200508220900 METAR MRLM NIL=
200508221000 METAR MRLM NIL=
200508221100 METAR MRLM NIL=
200508221200 METAR MRLM NIL=
200508221300 METAR MRLM 221300Z 00000KT CAVOK 23/21 A2983=
200508221400 METAR MRLM 221400Z 00000KT CAVOK 25/23 A2985=
200508221500 METAR MRLM 221500Z 00000KT 9999 FEW030 SCT100 BKN230 27/23 A2985 CB DST SW HZ ARND=
200508221600 METAR MRLM 221600Z 05004KT 9999 FEW030 BKN230 28/23 A2985 CB DST SW=
200508221700 METAR MRLM 221700Z 02005KT 9999 FEW025 BKN240 28/22 A2986=
200508221800 METAR MRLM 221800Z 01004KT 9999 FEW025 BKN240 28/23 A2983 CB DST ARND=
200508221900 METAR MRLM 221900Z 01006KT 9999 FEW025 BKN240 28/23 A2981 CB DST AND HZ ARND=
200508222000 METAR MRLM NIL=
200508222100 METAR MRLM 222100Z 02005KT 9999 FEW024 BKN240 29/24 A2975=
200508222200 METAR MRLM 222200Z 06004KT 9999 FEW024 BKN240 28/23 A2977 CB ARND=
200508222300 METAR MRLM 222300Z 00000KT 9999 FEW024 BKN240 27/23 A2977=
200508230000 METAR MRLM NIL=
200508230100 METAR MRLM NIL=
200508230200 METAR MRLM NIL=
200508230300 METAR MRLM NIL=
200508230400 METAR MRLM NIL=
200508230500 METAR MRLM NIL=
200508230600 METAR MRLM NIL=
200508230700 METAR MRLM NIL=
200508230800 METAR MRLM NIL=
200508230900 METAR MRLM NIL=
200508231000 METAR MRLM NIL=
200508231100 METAR MRLM NIL=
200508231200 METAR MRLM 231200Z 20004KT 9999 FEW024 BKN240 23/21 A2981 RMK TCU RN ENE=
200508231300 METAR MRLM 231300Z 00000KT 9999 FEW024 SCT090 BKN240 24/22 A2984=
200508231400 METAR MRLM 231400Z 20003KT 9999 FEW024 BKN080 25/23 A2985=
200508231500 METAR MRLM 231500Z 00000KT 9999 FEW024 BKN080 27/23 A2986=
200508231600 METAR MRLM 231600Z 08003KT 9999 FEW024 BKN090 28/23 A2986 RMK CB/RN NW N NE=
200508231700 METAR MRLM NIL=
200508231800 METAR MRLM NIL=
200508231900 METAR MRLM NIL=
200508232000 METAR MRLM NIL=
200508232100 METAR MRLM NIL=
200508232200 METAR MRLM NIL=
200508232300 METAR MRLM NIL=
200508240000 METAR MRLM NIL=
200508240100 METAR MRLM NIL=
200508240200 METAR MRLM NIL=
200508240300 METAR MRLM NIL=
200508240400 METAR MRLM NIL=
200508240500 METAR MRLM NIL=
200508240600 METAR MRLM NIL=
200508240700 METAR MRLM NIL=
200508240800 METAR MRLM NIL=
200508240900 METAR MRLM NIL=
200508241000 METAR MRLM NIL=
200508241100 METAR MRLM NIL=
200508241200 METAR MRLM NIL=
200508241300 METAR MRLM 241300Z 23003KT CAVOK 24/22 A2983=
200508241400 METAR MRLM NIL=
200508241500 METAR MRLM 241500Z 31004KT 9999 FEW030 SCT280 29/21 A2986=
200508241600 METAR MRLM 241600Z 01007KT 9999 FEW030 SCT100 29/24 A2987=
200508241700 METAR MRLM 241700Z 36008KT 9999 FEW028 SCT090 28/23 A2887=
200508241800 METAR MRLM 241800Z 36007KT 9999 FEW028 SCT240 29/23 A2984 RMK TCU DST NW ESE S=
200508241900 METAR MRLM 241900Z 36005KT 9999 FEW028 OVC240 29/23 A2982 RMK CB DST ARND=
200508242000 METAR MRLM NIL=
200508242100 METAR MRLM 242100Z 01007KT 9999 SCT024 BKN230 29/23 A2981=
200508242200 METAR MRLM 242200Z 10003KT 9999 SCT025 BKN140 25/23 A2983=
200508242300 METAR MRLM 242300Z 23003KT 9999 BKN024 28/24 A2981=
200508250000 METAR MRLM NIL=
200508250100 METAR MRLM NIL=
200508250200 METAR MRLM NIL=
200508250300 METAR MRLM NIL=
200508250400 METAR MRLM NIL=
200508250500 METAR MRLM NIL=
200508250600 METAR MRLM NIL=
200508250700 METAR MRLM NIL=
200508250800 METAR MRLM NIL=
200508250900 METAR MRLM NIL=
200508251000 METAR MRLM NIL=
200508251100 METAR MRLM NIL=
200508251200 METAR MRLM NIL=
200508251300 METAR MRLM 251300Z 00000KT 9999 FEW028 SCT090 BKN240 24/22 A2988=
200508251400 METAR MRLM 251400Z 00000KT CAVOK 27/22 A2989=
200508251500 METAR MRLM 251500Z 03006KT 9999 FEW028 BKN100 28/22 A2989=
200508251600 METAR MRLM 251600Z 03003KT 9999 FEW025 SCT100 BKN240 28/23 A2990=
200508251700 METAR MRLM 251700Z 03003KT 9999 FEW025 SCT120 BKN240 29/22 A2989=
200508251800 METAR MRLM 251800Z 05004KT 9999 FEW025 BKN090 29/22 A2987=
200508251900 METAR MRLM 251900Z 03004KT 9999 FEW024 SCT090 BKN220 29/23 A2985 RMK CB RN ARND TS DIST SW=
200508252000 METAR MRLM NIL=
200508252100 METAR MRLM 252100Z 07004KT 9999 SCT024 BKN220 28/23 A2980 RMK CB SE S RN ARND=
200508252200 METAR MRLM 252200Z 07003KT 9999 SCT024 BKN220 28/23 A2981=
200508252300 METAR MRLM 252300Z 00000KT 9999 SCT024 BKN220 28/23 A2981 RN E SE=
200508260000 METAR MRLM 260000Z 01004KT 9999 FEW024 SCT10A0 BKN220 27/24 A2982 RN NE E=
200508260100 METAR MRLM NIL=
200508260200 METAR MRLM NIL=
200508260300 METAR MRLM NIL=
200508260400 METAR MRLM NIL=
200508260500 METAR MRLM NIL=
200508260600 METAR MRLM NIL=
200508260700 METAR MRLM NIL=
200508260800 METAR MRLM NIL=
200508260900 METAR MRLM NIL=
200508261000 METAR MRLM NIL=
200508261100 METAR MRLM NIL=
200508261200 METAR MRLM NIL=
200508261300 METAR MRLM 261300Z 21004KT 9999 FEW025 BKN280 25/21 A2985=
200508261400 METAR MRLM 261400Z 00000KT 9999 FEW025 BKN280 29/23 A2986=
200508261500 METAR MRLM 261500Z 07004KT 9999 FEW025 BKN280 29/21 A2985=
200508261600 METAR MRLM 261600Z 04005KT 9999 FEW025 SCT280 29/22 A2985=
200508261700 METAR MRLM 261700Z 02007KT 9999 FEW025 SCT280 29/23 A2985=
200508261800 METAR MRLM 261800Z 03006KT 9999 FEW025 SCT28 29/23 A2983=
200508261900 METAR MRLM 261900Z 01006KT 9999 FEW024 SCT280 29/23 A2980 CB S SW=
200508262000 METAR MRLM NIL=
200508262100 METAR MRLM 262100Z 04005KT 9999 SCT024TCU BKN280 29/23 A2975 TCU SE S SW W RN SW=
200508262300 METAR MRLM 262300Z 03003KT 9999 SCT024 BKN280 28/23 A2976 TCU DST SE SW W RN SW W=
200508270000 METAR MRLM NIL=
200508270100 METAR MRLM NIL=
200508270200 METAR MRLM NIL=
200508270300 METAR MRLM NIL=
200508270400 METAR MRLM NIL=
200508270500 METAR MRLM NIL=
200508270600 METAR MRLM NIL=
200508270700 METAR MRLM NIL=
200508270800 METAR MRLM NIL=
200508270900 METAR MRLM NIL=
200508271000 METAR MRLM NIL=
200508271100 METAR MRLM NIL=
200508271200 METAR MRLM NIL=
200508271300 METAR MRLM NIL=
200508271400 METAR MRLM 271400Z 30004KT 9999 FEW025 SCT280 28/22 A2981 TCU DST NW NE=
200508271500 METAR MRLM 271500Z 29005KT 9999 FEW025 SCT280 29/21 A2982 CB DST NW NE E=
200508271600 METAR MRLM 271600Z 36007KT 9999 FEW025 BKN250 30/21 A2982 CB DST NW N NE E=
200508271700 METAR MRLM 271700Z 01006KT 9999 FEW025 BKN230 30/21 A2981 CB DST NW N NE E RN NE=
200508271800 METAR MRLM 271800Z 02006KT 9999 FEW025 BKN250 30/21 A2980 CB DST NE SE SW RN NE=
200508271900 METAR MRLM 271900Z 04005KT 9999 FEW025 BKN250 29/22 A2976 CB DST ARND RN NE SW=
200508272000 METAR MRLM NIL=
200508272100 METAR MRLM 272100Z 00000KT 9999 FEW025 BKN250 28/22 A2972=
200508272200 METAR MRLM 272200Z 08003KT 9999 FEW025 BKN250 29/22 A2972=
200508272300 METAR MRLM 272300Z 11006KT 9999 FEW025 BKN250 29/22 A2973=
200508280000 METAR MRLM NIL=
200508280100 METAR MRLM NIL=
200508280200 METAR MRLM NIL=
200508280300 METAR MRLM NIL=
200508280400 METAR MRLM NIL=
200508280500 METAR MRLM NIL=
200508280600 METAR MRLM NIL=
200508280700 METAR MRLM NIL=
200508280800 METAR MRLM NIL=
200508280900 METAR MRLM NIL=
200508281000 METAR MRLM NIL=
200508281100 METAR MRLM NIL=
200508281200 METAR MRLM 281200Z 20004KT 9999 FEW028 OVC300 23/22 A2975 RMK TCU DIST E=
200508281300 METAR MRLM NIL=
200508281400 METAR MRLM 281400Z 00000KT 9999 FEW028 BKN300 28/23 A2978=
200508281500 METAR MRLM 281500Z 04004KT 9999 FEW028 BKN300 28/23 A2979=
200508281600 METAR MRLM 281600Z 06006KT 9999 FEW025 BKN300 29/23 A2982=
200508281700 METAR MRLM 281700Z 05007KT 9999 FEW024 BKN300 29/23 A2981=
200508281800 METAR MRLM 281800Z 05006KT 9999 FEW024 BKN280 29/24 A2978=
200508281900 METAR MRLM 281900Z 06008KT 9999FEW024 BKN280 30/23 A2976 CB ESE=
200508282000 METAR MRLM NIL=
200508282100 METAR MRLM 282100Z 05005KT 9999 SCT024 BKN250 30/24 A2972 RMK CB RN DST SE S SW W=
200508282200 METAR MRLM 282200Z 07005KT 9999 SCT024 BKN250 29/23 A2973 RMK CB RN DST SE SE S SW W=
200508282300 METAR MRLM 282300Z 00000KT 9999 SCT024 BKN250 28/24 A2974 RMK RN DST SE S SW W=
200508290000 METAR MRLM 290000Z 24003KT 9999 SCT024 BKN250 27/24 A2977 RMK RN CB DST SE S SW W=
200508290100 METAR MRLM NIL=
200508290200 METAR MRLM NIL=
200508290300 METAR MRLM NIL=
200508290400 METAR MRLM NIL=
200508290500 METAR MRLM NIL=
200508290600 METAR MRLM NIL=
200508290700 METAR MRLM NIL=
200508290800 METAR MRLM NIL=
200508290900 METAR MRLM NIL=
200508291000 METAR MRLM NIL=
200508291100 METAR MRLM NIL=
200508291200 METAR MRLM 291200Z 00000KT 9999 FEW040 BKN230 24/22 A2983 CB RN DIST NW NE E=
200508291300 METAR MRLM 291300Z 21004KT 9999 FEW040 BKN230 27/21 A2985 RMK CB RN DST NW NE E=
200508291400 METAR MRLM NIL=
200508291500 METAR MRLM 291500Z 28006KT 9999 FEW030 BKN230 29/21 A2986 RMK CB RN DST NE ENE=
200508291600 METAR MRLM NIL=
200508291700 METAR MRLM 291700Z 32006KT 9999 FEW030 BKN230 28/21 A2988 RMK CB RN DST N NE E=
200508291800 METAR MRLM 291800Z 00000KT 9999 FEW030 SCT090 BKN230 29/22 A2987 RMK CB RN DST N NE E=
200508291900 METAR MRLM 291900Z 02004KT 9999 FEW030 SCT090 BKN230 28/23 A2983 RMK CB RN DST N NE E=
200508292000 METAR MRLM NIL=
200508292100 METAR MRLM 292100Z 05006KT 9999 FEW030 SCT090 BKN220 28/23 A2982=
200508292200 METAR MRLM 292200Z 00000KT 9999 FEW030 SCT090 BKN220 28/23 A2980=
200508292300 METAR MRLM 292300Z 00000KT 9999 FEW030 BKN100 26/23 A2997=
200508300000 METAR MRLM 300000Z 00000KT 9999 FEW030 BKN090 27/23 A2977=
200508300100 METAR MRLM NIL=
200508300200 METAR MRLM NIL=
200508300300 METAR MRLM NIL=
200508300400 METAR MRLM NIL=
200508300500 METAR MRLM NIL=
200508300600 METAR MRLM NIL=
200508300700 METAR MRLM NIL=
200508300800 METAR MRLM NIL=
200508300900 METAR MRLM NIL=
200508301000 METAR MRLM NIL=
200508301100 METAR MRLM NIL=
200508301200 METAR MRLM NIL=
200508301300 METAR MRLM 301300Z 20004KT CAVOK 26/22 A2986=
200508301400 METAR MRLM 301400Z 00000KT CAVOK 29/22 A2988=
200508301500 METAR MRLM 301500Z 05004KT CAVOK 29/22 A2988=
200508301600 METAR MRLM 301600Z 05006KT 9999 FEW030 SCT300 30/22 A2988=
200508301700 METAR MRLM 301700Z 09004KT 9999 FEW030 BKN100 30/21 A2987=
200508301800 METAR MRLM 301800Z 04005KT 9999 FEW030 BKN300 30/22 A2984=
200508301900 METAR MRLM 301900Z 03008KT 9999 FEW030 BKN300 30/23 A2981=
200508302000 METAR MRLM NIL=
200508302100 METAR MRLM 302100Z 18010KT 9999 FEW025 BKN230 29/24=
200508302200 METAR MRLM 302200Z 00000KT 9999 FEW028 BKN300 30/23 A2976=
200508302300 METAR MRLM 302300Z 00000KT 9999 FEW030 BKN300 30/23 A2978=
200508310000 METAR MRLM 310000Z 00000KT CAVOK 28/23 A2978=
200508310100 METAR MRLM NIL=
200508310200 METAR MRLM NIL=
200508310300 METAR MRLM NIL=
200508310400 METAR MRLM NIL=
200508310500 METAR MRLM NIL=
200508310600 METAR MRLM NIL=
200508310700 METAR MRLM NIL=
200508310800 METAR MRLM NIL=
200508310900 METAR MRLM NIL=
200508311000 METAR MRLM NIL=
200508311100 METAR MRLM NIL=
200508311200 METAR MRLM NIL=
200508311300 METAR MRLM 311300Z 00000KT 9999 SCT026 BKN250 26/23 A2984=
200508311400 METAR MRLM 311400Z 00000KT 9999 FEW025 BKN250 28/23 A2983=
200508311500 METAR MRLM 311500Z 36004KT 9999 FEW030 SCT090 BKN250 29/24 A2984=
200508311600 METAR MRLM 311600Z 02004KT 9999 FEW030 BKN080 29/24 A2984=
200508311700 METAR MRLM 311700Z 03006KT 9999 FEW025 BKN240 29/24 A2982=
200508311800 METAR MRLM 311800Z 06006KT 9999 FEW025 BKN240 30/23 A2978=
200508311900 METAR MRLM 311900Z 05006KT 9999 FEW025 BKN240 30/23 A2975=
200508312000 METAR MRLM 312000Z NIL=
200508312100 METAR MRLM 312100Z 03006KT 9999 FEW025 BKN240 30/23 A2972 CB DST S=
200508312200 METAR MRLM 312200Z 04006KT 9999 FEW025 BKN240 30/23 A2972 CB DST S=
200508312300 METAR MRLM 312300Z 05005KT 9999 SCT025 BKN250 29/23 A2974=
200509010000 METAR MRLM 010000Z 06005KT 9999 BKN025 SCT240 29/23 A2975=
200509010100 METAR MRLM NIL=
200509010200 METAR MRLM NIL=
200509010300 METAR MRLM NIL=
200509010400 METAR MRLM NIL=
200509010500 METAR MRLM NIL=
200509010600 METAR MRLM NIL=
200509010700 METAR MRLM NIL=
200509010800 METAR MRLM NIL=
200509010900 METAR MRLM NIL=
200509011000 METAR MRLM NIL=
200509011100 METAR MRLM NIL=
200509011200 METAR MRLM NIL=
200509011300 METAR MRLM 011300Z 00000KT 9999 FEW006 SCT035 BKN090 24/23 A2983 CB DST ARND RN DST W N=
200509011400 METAR MRLM 011400Z 00000KT 9999 FEW035 BKN090 24/23 A2983 CB RN DST W NW N NE E=
200509011500 METAR MRLM 011500Z 00000KT 9999 FEW02 SCT090 27/23 A2983 CB RN W NW N NE E=
200509011600 METAR MRLM 011600Z VRB03KT 9999 DZ SCT025 SCT090 27/23 A2984 CB RN DST W NW N NE E=
200509011700 METAR MRLM 011700Z 00000KT 9999 +DZ SCT025 BKN100 26/23 A2981 CB DST W NW N NE E SE=
200509011800 METAR MRLM 011800Z 00000KT 9999 FEW026 BKN100 27/23 A2980 CB RN DST N E TSTM DST NE=
200509011900 METAR MRLM 011900Z 36008KT 9999 FEW027 SCT110 BKN150 27/22 A2976 CB RN DST ARND=
200509012000 METAR MRLM NIL=
200509012100 METAR MRLM 012100Z 33007KT 9999 FEW028 SCT090 BKN150 28/22 A2973=
200509012200 METAR MRLM 012200Z 33005KT 9999 FEW023 BKN150 27/23 A2973 CB ARND=
200509012300 METAR MRLM 012300Z 00000KT 9999 FEW022 BKN150 27/23 A2974=
200509020000 METAR MRLM NIL=
200509020100 METAR MRLM NIL=
200509020200 METAR MRLM NIL=
200509020300 METAR MRLM NIL=
200509020400 METAR MRLM NIL=
200509020500 METAR MRLM NIL=
200509020600 METAR MRLM NIL=
200509020700 METAR MRLM NIL=
200509020800 METAR MRLM NIL=
200509020900 METAR MRLM NIL=
200509021000 METAR MRLM NIL=
200509021100 METAR MRLM NIL=
200509021200 METAR MRLM NIL=
200509021300 METAR MRLM 021300Z 28005KT CAVOK 25/22 A2982=
200509021400 METAR MRLM 021400Z 29006KT CAVOK 28/22 A2984=
200509021500 METAR MRLM 021500Z 26006KT 9999 FEW025 SCT120 30/22 A2983=
200509021600 METAR MRLM 021600Z 29005KT 9999 FEW038 SCT120 BKN280 30/22 A2984=
200509021700 METAR MRLM 021700Z 34010KT 9999 FEW035 BKN280 30/23 A2983=
200509021800 METAR MRLM 021800Z 36012KT 9999 FEW032 OVC270 30/24 A2981=
200509021900 METAR MRLM 021900Z 34014KT 9999 FEW035 OVC260 30/23 A2979=
200509022000 METAR MRLM NIL=
200509022100 METAR MRLM 022100Z 33012KT 9999 BKN020 27/23 A2978 RMK CB HZ DST ARND RN DST N E S SW W=
200509022200 METAR MRLM 022200Z 28004KT 9999 SCT020 SCT120 BKN150 27/23 A2979 RMK CB DST ARND RN DST NE E S SW W=
200509022300 METAR MRLM 022300Z 00000KT 9999 FEW017 SCT120 BKN150 26/23 A2981 RMK CB DST ARND RN DST S SW W=
200509030000 METAR MRLM 030000Z 00000KT 9999 FEW014 SCT130 BKN150 26/23 A2982 RMK CB HZ ARND DST RN DST NE E=
200509030100 METAR MRLM NIL=
200509030200 METAR MRLM NIL=
200509030300 METAR MRLM NIL=
200509030400 METAR MRLM NIL=
200509030500 METAR MRLM NIL=
200509030600 METAR MRLM NIL=
200509030700 METAR MRLM NIL=
200509030800 METAR MRLM NIL=
200509030900 METAR MRLM NIL=
200509031000 METAR MRLM NIL=
200509031100 METAR MRLM NIL=
200509031200 METAR MRLM NIL=
200509031300 METAR MRLM 031300Z 22003KT 9999 FEW024 BKN080 24/21 A2984 RMK LINEA CB DST WNW NW N NE=
200509031400 METAR MRLM 031400Z 29004KT 9999 +DZ SCT025 SCT080 25/22 A2988 RMK LINEA CB DST W NW N NE=
200509031500 METAR MRLM 031500Z 32007KT 9999 SCT025 SCT080 25/22 A2989 REDZ RMK CB RN DST NE E=
200509031600 METAR MRLM 031600Z 33003KT 9999 SCT030 BKN090 26/23 A2980 RMK RN DST NE=
200509031700 METAR MRLM 031700Z 00000KT 9999 SCT030 BKN090 27/23 A2986=
200509031800 METAR MRLM 031800Z 27003KT 9999 FEW030 BKN080 28/23 A2984=
200509031900 METAR MRLM 031900Z 01006KT 9999 FEW030 SCT100 BKN250 29/23 A2981=
200509032000 METAR MRLM NIL=
200509032100 METAR MRLM 032100Z 35007KT 9999 FEW024 SCT090 BKN250 29/22 A2977=
200509032200 METAR MRLM 032200Z 31007KT 9999 FEW024 BKN090 28/22 A2978=
200509032300 METAR MRLM 032300Z 31004KT 9999 BKN030 27/23 A2979=
200509040000 METAR MRLM NIL=
200509040100 METAR MRLM NIL=
200509040200 METAR MRLM NIL=
200509040300 METAR MRLM NIL=
200509040400 METAR MRLM NIL=
200509040500 METAR MRLM NIL=
200509040600 METAR MRLM NIL=
200509040700 METAR MRLM NIL=
200509040800 METAR MRLM NIL=
200509040900 METAR MRLM NIL=
200509041000 METAR MRLM NIL=
200509041100 METAR MRLM NIL=
200509041200 METAR MRLM NIL=
200509041300 METAR MRLM 041300Z 23003KT 9999 FEW0230 SCT240 25/22 A2983=
200509041400 METAR MRLM 041400Z 29004KT 9999 FEW030 SCT250 29/22 A2984=
200509041500 METAR MRLM 041500Z 29004KT 9999 FEW030 SCT250 30/22 A2985=
200509041600 METAR MRLM 041600Z 35010KT 9999 FEW030 SCT250 29/23 A2985=
200509041700 METAR MRLM 041700Z 35010KT 9999 FEW030 SCT250 29/23 A2983=
200509041800 METAR MRLM 041800Z 35013KT 9999 FEW028 SCT250 30/24 A2981=
200509041900 METAR MRLM 041900Z 36012KT 9999 FEW024TCU SCT250 29/24 A2976=
200509042000 METAR MRLM NIL=
200509042100 METAR MRLM 042100Z 34010KT 9999 SCT024 SCT250 29/24 A2975 CB SE S SW W=
200509042200 METAR MRLM NIL=
200509042300 METAR MRLM 042300Z 36004KT 9999 BKN028 SCT250 28/24 A2978 RMK CB RN SE S SW W=
200509050000 METAR MRLM 050000Z 00000KT 9999 FEW028 BKN120 28/24 A2980 RMK CB SE S SW W=
200509050100 METAR MRLM NIL=
200509050200 METAR MRLM NIL=
200509050300 METAR MRLM NIL=
200509050400 METAR MRLM NIL=
200509050500 METAR MRLM NIL=
200509050600 METAR MRLM NIL=
200509050700 METAR MRLM NIL=
200509050800 METAR MRLM NIL=
200509050900 METAR MRLM NIL=
200509051000 METAR MRLM NIL=
200509051100 METAR MRLM NIL=
200509051200 METAR MRLM NIL=
200509051300 METAR MRLM 051300Z 19005KT CAVOK 24/22 A2980=
200509051400 METAR MRLM 051400Z VRB03KT CAVOK 28/22 A2981=
200509051500 METAR MRLM 051500Z 00000KT CAVOK 30/22 A2982=
200509051600 METAR MRLM 051600Z 03005KT 9999 FEW032 BKN110 29/23 A2982 CB/RN N NE E=
200509051700 METAR MRLM 051700Z 02006KT 9999 FEW030 OVC090 29/23 A2984 RMK CB/RN N NW NE E=
200509051800 METAR MRLM 051800Z 04010KT 9999 FEW025 OVC090 28/23 A2983 RMK CB/RN N E=
200509051900 METAR MRLM 051900Z 08007KT 9999 FEW025 OVC090 28/23 A2982 CB ARND RN N E=
200509052000 METAR MRLM NIL=
200509052100 METAR MRLM 052100Z 04005KT 9999 FEW022 BKN140 28/23 A2974 CB DST HZ ARND=
200509052200 METAR MRLM 052200Z 01006KT 9999 FEW020 BKN140 27/23 A2974=
200509052300 METAR MRLM 052300Z 00000KT CAVOK 27/23 A2976 CB HZ DST ARND=
200509060000 METAR MRLM 060000Z 00000KT CAVOK 26/23 A2978=
200509060100 METAR MRLM NIL=
200509060200 METAR MRLM NIL=
200509060300 METAR MRLM NIL=
200509060400 METAR MRLM NIL=
200509060500 METAR MRLM NIL=
200509060600 METAR MRLM NIL=
200509060700 METAR MRLM NIL=
200509060800 METAR MRLM NIL=
200509060900 METAR MRLM NIL=
200509061000 METAR MRLM NIL=
200509061100 METAR MRLM NIL=
200509061200 METAR MRLM NIL=
200509061300 METAR MRLM 061300Z 02004KT 9999 -DZ FEW005 BKN025 22/21 A2983 CB N E TSTM NE=
200509061400 METAR MRLM 061400Z 00000KT 9999 DZ FEW06 SCT025 BKN120 23/22 A2981=
200509061500 METAR MRLM 061500Z VRB03KT 9999 DZ FEW010 SCT030 BKN120 25/23 A2986 CB RN DST N E=
200509061600 METAR MRLM 061600Z VRB03KT 9999 FEW010 SCT025 BKN130 25/23 A2986 CB RN DST N E TSTM NE=
200509061700 METAR MRLM 061700Z 01006KT 9999 3000NW -RA FEW009 BKN020 25/23 A2986 3KM NW DUE RASH=
200509061800 METAR MRLM 061800Z 14004KT 8000 RA FEW006 SCT020 OVC110 22/21 A2985 CB N E S=
200509061900 METAR MRLM 061900Z VRB03KT 9999 RA FEW006 SCT035 OVC120 22/21 A2985 CB N E S=
200509062000 METAR MRLM NIL=
200509062100 METAR MRLM 062100Z 00000KT CAVOK 24/24 A2973=
200509062200 METAR MRLM 062200Z 00000KT CAVOK 25/22 A2965=
200509070000 METAR MRLM 070000Z 14008KT CAVOK 26/21 A2975=
200509070100 METAR MRLM NIL=
200509070200 METAR MRLM NIL=
200509070300 METAR MRLM NIL=
200509070400 METAR MRLM NIL=
200509070500 METAR MRLM NIL=
200509070600 METAR MRLM NIL=
200509070700 METAR MRLM NIL=
200509070800 METAR MRLM NIL=
200509070900 METAR MRLM NIL=
200509071000 METAR MRLM NIL=
200509071100 METAR MRLM NIL=
200509071200 METAR MRLM NIL=
200509071300 METAR MRLM 071300Z 22004KT CAVOK 23/21 A2980 CB N=
200509071400 METAR MRLM 071400Z VRB03KT CAVOK 26/22 A2982=
200509071500 METAR MRLM 071500Z VRB03KT CAVOK 29/21 A2982=
200509071600 METAR MRLM 071600Z 36009KT CAVOK 29/22 A2981=
200509071700 METAR MRLM 071700Z 35007KT 9999 FEW040 BKN140 29/21 A2982=
200509071800 METAR MRLM 071800Z 01008KT 9999 FEW027 BKN110 29/24 A2981=
200509071900 METAR MRLM 071900Z 01006KT 9999 FEW028 BKN110 29/24 A2978=
200509072000 METAR MRLM NIL=
200509072100 METAR MRLM 072100Z 36007KT 9999 SCT026 SCT140 29/24 2972 RMK CB/RN DST N LGT HZ ARND=
200509072200 METAR MRLM 072200Z 02007KT 9999 BKN026 SCT140 28/24 A2973 RMK CB RN DST N=
200509072300 METAR MRLM 072300Z 36006KT 9999 BKN020 SCT130 28/24 A2974 RMK CB RN DST W N NW E HZ LEVE ARND=
200509080000 METAR MRLM 080000Z 01004KT 9999 BKN020 SCT120 28/24 A2975 RMRK CB RN DST NE E HZ LEVE ARND=
200509080100 METAR MRLM NIL=
200509080200 METAR MRLM NIL=
200509080300 METAR MRLM NIL=
200509080400 METAR MRLM NIL=
200509080500 METAR MRLM NIL=
200509080600 METAR MRLM NIL=
200509080700 METAR MRLM NIL=
200509080800 METAR MRLM NIL=
200509080900 METAR MRLM NIL=
200509081000 METAR MRLM NIL=
200509081100 METAR MRLM NIL=
200509081200 METAR MRLM NIL=
200509081300 METAR MRLM 081300Z 00000KT 9999 DZ SCT020 SCT100 24/23 A2983 RMK CB RN DST QUAD N E S TSTM ESE=
200509081400 METAR MRLM 081400Z 00000KT 8000 -RA FEW006 BKN020 24/23 A2985 RMK CB RN QUAD N E SE=
200509081500 METAR MRLM 081500Z 11022KT 1000 SHRA FEW003 OVC015TCU 24/22 A2985=
200509081600 METAR MRLM 081600Z 23006KT 9999 RA FEW005 OVC090 25/21 A2986 RMK CB DST SW=
200509081700 METAR MRLM 081700Z 32005KT 9999 RA FEW090 OVC110 23/22 A2982 RMK CB DST E=
200509081800 METAR MRLM 081800Z 00000KT 9999 -DZ SCT008 OVC110 23/22 A2981 RMK CB DST N NE=
200509081900 METAR MRLM 081900Z 22004KT CAVOK 25/23 A2976=
200509082000 METAR MRLM 082000Z NIL=
200509082100 METAR MRLM 082100Z 00000KT CAVOK 29/22 A2975 BKN SCT140 BKN280=
200509082200 METAR MRLM 082200Z 00000KT CAVOK 27/22 A2976 RMK BKN110 SCT280 CB DSY N NE=
200509082300 METAR MRLM 082300Z 00000KT 9999 SCT040 BKN100 27/22 A2977=
200509090000 METAR MRLM 090000Z 00000KT 9999 SCT035 SCT100 27/22 A2980=
200509090100 METAR MRLM NIL=
200509090200 METAR MRLM NIL=
200509090300 METAR MRLM NIL=
200509090400 METAR MRLM NIL=
200509090500 METAR MRLM NIL=
200509090600 METAR MRLM NIL=
200509090700 METAR MRLM NIL=
200509090800 METAR MRLM NIL=
200509090900 METAR MRLM NIL=
200509091000 METAR MRLM NIL=
200509091100 METAR MRLM NIL=
200509091200 METAR MRLM NIL=
200509091300 METAR MRLM 091300Z 00000KT CAVOK 24/23 A2981=
200509091400 METAR MRLM 091400Z 00000KT 9999 FEW025 BKN110 27/23 A2983=
200509091500 METAR MRLM 091500Z 31004KT 9999 FEW025 BKN110 29/23 A2982=
200509091600 METAR MRLM 091600Z 34004KT 9999 SCT035 BKN120 29/22 A2984=
200509091700 METAR MRLM 091700Z 11006KT 9999 FEW035 SCT130 29/23 A2982=
200509091800 METAR MRLM 091800Z 35007KT 9999 FEW030 SCT140 29/23 A2981=
200509091900 METAR MRLM 091900Z 01008KT 9999 SCT130 29/24 A2977=
200509092000 METAR MRLM NIL=
200509092100 METAR MRLM 092100Z 01008KT 9999 SCT025 SCT140 28/24 A2973=
200509092200 METAR MRLM 092200Z 35006KT 9999 FEW020 BKN120 27/23 A2974 CB RN ARND=
200509092300 METAR MRLM 092300Z 32004KT 9999 SCT022 BKN120 27/23 A2976=
200509100000 METAR MRLM 100000Z 00000KT 9999 BKN020 26/22 A2977 RN CB S W=
200509100100 METAR MRLM NIL=
200509100200 METAR MRLM NIL=
200509100300 METAR MRLM NIL=
200509100400 METAR MRLM NIL=
200509100500 METAR MRLM NIL=
200509100600 METAR MRLM NIL=
200509100700 METAR MRLM NIL=
200509100800 METAR MRLM NIL=
200509100900 METAR MRLM NIL=
200509101000 METAR MRLM NIL=
200509101100 METAR MRLM NIL=
200509101200 METAR MRLM NIL=
200509101300 METAR MRLM 101300Z 30005KT 9999 SCT012 SCT110 24/22 A2983 RMK CB RN N NE E=
200509101400 METAR MRLM 101400Z 26004KT 9999 FEW015 SCT030 BKN100 25/25 A2986=
200509101500 METAR MRLM 101500Z 28004KT 9999 FEW022 BKN110 27/22 A2987 CB RN N NE E=
200509101600 METAR MRLM 101600Z 23005KT 9999 SCT025 SCT110 29/23 A2986 CB RN NW N NE E=
200509101700 METAR MRLM 101700Z 34014KT 8000 DZ SCT008 OVC014 25/23 A2988=
200509101800 METAR MRLM 101800Z 25005KT 9999 3000SW TSRA FEW006 SCT15CB BKN035 23/22 A2984 TS SW W=
200509101900 METAR MRLM 101900Z 21005KT 9999 DZ FEW006 SCT025 BKN110 23/22 2980 RETS=
200509102000 METAR MRLM NIL=
200509102100 METAR MRLM 102100Z 28006KT 9999 FEW032 SCT140 BKN270 29/22 A2977 CB HZ ARND=
200509102200 METAR MRLM 102200Z 31008KT 9999 FEW028 SCT140 BKN270 28/22 A2979 CB DST E NE S SW RN DST S=
200509102300 METAR MRLM 102300Z 33005KT 9999 FEW028 SCT140 BKN280 28/22 A2980=
200509110000 METAR MRLM 110000Z 00000KT 9999 FEW018 SCT140 26/22 A2981=
200509110100 METAR MRLM NIL=
200509110200 METAR MRLM NIL=
200509110300 METAR MRLM NIL=
200509110400 METAR MRLM NIL=
200509110500 METAR MRLM NIL=
200509110600 METAR MRLM NIL=
200509110700 METAR MRLM NIL=
200509110800 METAR MRLM NIL=
200509110900 METAR MRLM NIL=
200509111000 METAR MRLM NIL=
200509111100 METAR MRLM NIL=
200509111200 METAR MRLM NIL=
200509111300 METAR MRLM 111300Z 00000KT CAVOK 26/22 A2983 CB DST N HZ ARND=
200509111400 METAR MRLM 111400Z 00000KT 9999 FEW025 SCT150 28/23 A2985=
200509111500 METAR MRLM 111500Z 36004KT 9999 FEW035 SCT150 29/22 A2987=
200509111600 METAR MRLM 111600Z 35008KT 9999 FEW030 SCT090 BKN110 29/23 A2987=
200509111700 METAR MRLM 111700Z 33008KT 9999 FEW028 BKN110 29/23 A2987=
200509111800 METAR MRLM 111800Z 32008KT 9999 FEW034 BKN120 30/23 A2985 TCU DST S=
200509111900 METAR MRLM 111900Z 34013KT 9999 FEW034 SCT150 BKN280 30/23 A2981=
200509112000 METAR MRLM 112000Z 34016KT 9999 FEW024 OVC080 29/24 A2980=
200509112100 METAR MRLM 112100Z 34012KT 9999 SCT027 SCT120 29/24 A2980=
200509112200 METAR MRLM 112200Z 32008KT 9999 BKN022 27/23 A2980=
200509112300 METAR MRLM 112300Z 26004KT 9999 BKN018 SCT270 26/23 A2981=
200509120000 METAR MRLM 120000Z 26005KT 9999 FEW017 OVC270 26/22 A2982=
200509120100 METAR MRLM NIL=
200509120200 METAR MRLM NIL=
200509120300 METAR MRLM NIL=
200509120400 METAR MRLM NIL=
200509120500 METAR MRLM NIL=
200509120600 METAR MRLM NIL=
200509120700 METAR MRLM NIL=
200509120800 METAR MRLM NIL=
200509120900 METAR MRLM NIL=
200509121000 METAR MRLM NIL=
200509121100 METAR MRLM NIL=
200509121200 METAR MRLM NIL=
200509121300 METAR MRLM 121300Z VRB03KT CAVOK 24/22 A2985=
200509121400 METAR MRLM 121400Z 21004KT 9999 FEW020 SCT090 BKN270 26/23 A2987=
200509121500 METAR MRLM 121500Z VRB03KT 9999 FEW024 BKN080 28/24 A2987=
200509121600 METAR MRLM 121600Z VRB03KT 9999 FEW025 BKN080 29/24 A2986=
200509121700 METAR MRLM 121700Z 00000KT 9999 BKN018 SCT150 28/25 A2986 RERA=
200509121800 METAR MRLM 121800Z 02005KT 9999 7000E TSRA SCT015CB SCT020 SCT090 29/24 A2984=
200509121900 METAR MRLM 121900Z 00000KT 9999 SCT020 BKN130 23/20 A2983 RERA=
200509122000 METAR MRLM NIL=
200509122100 METAR MRLM 122100Z 00000KT CAVOK 26/22 A2978 RMK CB RN DST N HZ LEVE ARND=
200509122200 METAR MRLM 122200Z 29006KT CAVOK 27/23 A2977 RMK CB RN DST NW HZ LEVE ARND=
200509122300 METAR MRLM 122300Z 00000KT CAVOK 26/22 A2978 HZ ARMD=
200509130000 METAR MRLM 130000Z VRB03KT CAVOK 25/23 A2978 RMK CB DST W NW N NE=
200509130100 METAR MRLM NIL=
200509130200 METAR MRLM NIL=
200509130300 METAR MRLM NIL=
200509130400 METAR MRLM NIL=
200509130500 METAR MRLM NIL=
200509130600 METAR MRLM NIL=
200509130700 METAR MRLM NIL=
200509130800 METAR MRLM NIL=
200509130900 METAR MRLM NIL=
200509131000 METAR MRLM NIL=
200509131100 METAR MRLM NIL=
200509131200 METAR MRLM NIL=
200509131300 METAR MRLM 131300Z 00000KT CAVOK 24/23 A2982 CB RN DST N E HZ LEVE ARND=
200509131400 METAR MRLM 131400Z 26005KT 9999 FEW015 BKN120 26/23 A2986 RMK CB RN DST QUAD N=
200509131500 METAR MRLM 131500Z 28005KT 9999 FEW017 SCT120 BKN270 26/23 A2985 RMK CB RN DST NW N HZ ARND=
200509131600 METAR MRLM 131600Z 30005KT 9999 FEW020 BKN130 27/23 A2984 RMK CB RN DST NW=
200509131700 METAR MRLM 131700Z 29007KT 9999 FEW022 BKN120 27/23 A2984 RMK CB RN DST NW E=
200509131800 METAR MRLM 131800Z 29006KT 9999 FEW020 BKN100 27/23 A2982 RMK CB RN DST ENE LEVE HZY=
200509131900 METAR MRLM 131900Z 30006KT 9999 FEW020 BKN110 27/23 A2979 RMK CB RN DST NE=
200509132000 METAR MRLM NIL=
200509132100 METAR MRLM 132100Z 31007KT 9999 FEW020 BKN140 28/23 A2977=
200509132200 METAR MRLM 132200Z 32007KT 9999 FEW022 SCT120 BKN270 27/23 A2978=
200509132300 METAR MRLM 132300Z 32006KT 9999 FEW020 BKN260 27/23 A2979=
200509140000 METAR MRLM 140000Z 32005KT 9999 FEW016 SCT130 BKN260 26/23 A2981=
200509140100 METAR MRLM NIL=
200509140200 METAR MRLM NIL=
200509140300 METAR MRLM NIL=
200509140400 METAR MRLM NIL=
200509140500 METAR MRLM NIL=
200509140600 METAR MRLM NIL=
200509140700 METAR MRLM NIL=
200509140800 METAR MRLM NIL=
200509140900 METAR MRLM NIL=
200509141000 METAR MRLM NIL=
200509141100 METAR MRLM NIL=
200509141200 METAR MRLM NIL=
200509141300 METAR MRLM 141300Z 0000KT 9999 -DZ FEW020 SCT100 BKN140 23/22 A2984=
200509141400 METAR MRLM NIL=
200509141500 METAR MRLM 141500Z 00000KT 9999 FEW010 SCT090 BKN260 26/24 A2988 RMK CBS RN DIST N=
200509141600 METAR MRLM 141600Z 29006KT 9999 FEW022 BKN110 27/23 A2990 RMK RN DIST N=
200509141700 METAR MRLM 141700Z 30007KT 9999 BKN020 SCT260 27/23 A2989 RMK CBS DIST N QUAD=
200509141800 METAR MRLM 141800Z 31008KT 9999 BKN023 28/23 A2985 RMK CBS RN DIST N QD=
200509141900 METAR MRLM 141900Z 31007KT 9999 SCT020 SCT250 28/24 A2981 RMK CBS RN=
200509142000 METAR MRLM NIL=
200509142100 METAR MRLM 142100Z 30005KT 9999 FEW024 SCT150 BKN260 28/23 A2977 RMK CB/RN N=
200509142200 METAR MRLM 142200Z 34008KT 9999 FEW022 SCT150 BKN270 28/23 A2979 CB RN W NW N NE=
200509142300 METAR MRLM 142300Z 31007KT 9999 FEW018 SCT150 BKN260 27/23 A2981 CB RN N NE=
200509150000 METAR MRLM 150000Z 31005KT 9999 SCT016 SCT150 26/23 A2983 CB RN S N=
200509150100 METAR MRLM NIL=
200509150200 METAR MRLM NIL=
200509150300 METAR MRLM NIL=
200509150400 METAR MRLM NIL=
200509150500 METAR MRLM NIL=
200509150600 METAR MRLM NIL=
200509150700 METAR MRLM NIL=
200509150800 METAR MRLM NIL=
200509150900 METAR MRLM NIL=
200509151000 METAR MRLM NIL=
200509151100 METAR MRLM NIL=
200509151200 METAR MRLM NIL=
200509151300 METAR MRLM 151300Z VRB03KT 7000 TSRA FEW003 SCT020CB BKN025 23/22 A2990 RMK 9999 E TS NW=
200509151400 METAR MRLM 151400Z VRB03KT 9999 RA FEW005 SCT025 BKN100 23/22 A2992=
200509151500 METAR MRLM 151500Z 26004KT 9999 FEW006 BKN025 24/23 A2993 CB RN W NW N NE E SE=
200509151600 METAR MRLM 151600Z 25004KT CAVOK 27/23 A2990=
200509151700 METAR MRLM 151700 Z 04004KT 9999 FEW025 BKN130 28/22 A2999 CB R E=
200509151800 METAR MRLM 151800Z 03006KT CAVOK 28/23 A2989=
200509151900 METAR MRLM 151900Z 10010KT 9999 +DZ FEW024 SCT080 BKN110 27/22 A2989 CB RN E=
200509152000 METAR MRLM NIL=
200509152100 METAR MRLM 152100Z 00000KT 9999 -DZ SCT010 BKN120 24/22 A2983=
200509152200 METAR MRLM 152200Z 10006KT 9999 DZ FEW010 OVC130 25/22 A2981=
200509152300 METAR MRLM 152300Z 09006KT CAVOK 27/22 A2980=
200509160000 METAR MRLM 160000Z 23005KT CAVOK 24/22 A2977=
200509160100 METAR MRLM NIL=
200509160200 METAR MRLM NIL=
200509160300 METAR MRLM NIL=
200509160400 METAR MRLM NIL=
200509160500 METAR MRLM NIL=
200509160600 METAR MRLM NIL=
200509160700 METAR MRLM NIL=
200509160800 METAR MRLM NIL=
200509160900 METAR MRLM NIL=
200509161000 METAR MRLM NIL=
200509161100 METAR MRLM NIL=
200509161200 METAR MRLM NIL=
200509161300 METAR MRLM 161300Z 00000KT CAVOK 23/21 A2986=
200509161400 METAR MRLM 161400Z 24004KT 9999 FEW015 BKN120 23/21 A2989=
200509161500 METAR MRLM 161500Z 00000KT 9999 FEW008 SCT020 BKN100 26/22 A2990=
200509161600 METAR MRLM 161600Z 35008KT 9999 -DZ SCT010 BKN205 26/22 A2993=
200509161700 METAR MRLM 161700Z 31004KT 9999 FEW015 SCT090 BKN120 26/22 A2990=
200509161800 METAR MRLM 161800Z 32004KT 9999 FEW025 SCT090 BKN110 27/22 A2988=
200509161900 METAR MRLM 161900Z 27006KT 9999 FEW028 SCT090 BKN110 28/22 A2985=
200509162000 METAR MRLM NIL=
200509162100 METAR MRLM 162100Z VRB03KT 9999 FEW026 BKN090 27/22 A2981=
200509162200 METAR MRLM 162200Z 05004KT CAVOK 27/22 A2979=
200509162300 METAR MRLM 162300Z 00000KT CAVOK 27/22 A2979=
200509170000 METAR MRLM 170000Z 00000KT CAVOK 25/23 A2980=
200509170100 METAR MRLM NIL=
200509170200 METAR MRLM NIL=
200509170300 METAR MRLM NIL=
200509170400 METAR MRLM NIL=
200509170500 METAR MRLM NIL=
200509170600 METAR MRLM NIL=
200509170700 METAR MRLM NIL=
200509170800 METAR MRLM NIL=
200509170900 METAR MRLM NIL=
200509171000 METAR MRLM NIL=
200509171100 METAR MRLM NIL=
200509171200 METAR MRLM NIL=
200509171300 METAR MRLM 171300Z 27005KT CAVOK 26/22 A2980=
200509171400 METAR MRLM 171400Z 36006KT CAVOK 27/23 A2981=
200509171500 METAR MRLM 171500Z 29004KT 9999 FEW024 BKN090 28/23 A2982=
200509171600 METAR MRLM 171600Z 32006KT 9999 FEW028 OVC100 28/23 A2983=
200509171700 METAR MRLM 171700Z 34011KT 9999 FEW030 SCT100 29/23 A2983=
200509171800 METAR MRLM 171800Z 34011KT 9999 FEW035 BKN120 29/22 A2981=
200509171900 METAR MRLM 171900Z 34010KT 9999 SCT026 SCT090 29/24 A2978=
200509172000 METAR MRLM NIL=
200509172100 METAR MRLM 172100Z 33007KT 9999 BKN017 SCT260 27/24 A2973 RMK CB RN DST S SW W=
200509172200 METAR MRLM 172200Z 28005KT 9999 BKN015 27/24 A2974 RMK CB RN DST S W=
200509172300 METAR MRLM 172300Z 26004KT 9999 SCT010 SCT280 26/24 A2975 RMK CB RN DST ARND=
200509180000 METAR MRLM 180000Z VRB03KT 9999 FEW010 SCT035 26/24 A2978 RMK RETS DST LTNG VISIB. 7000 N E RN CB ARND=
200509180100 METAR MRLM NIL=
200509180200 METAR MRLM NIL=
200509180300 METAR MRLM NIL=
200509180400 METAR MRLM NIL=
200509180500 METAR MRLM NIL=
200509180600 METAR MRLM NIL=
200509180700 METAR MRLM NIL=
200509180800 METAR MRLM NIL=
200509180900 METAR MRLM NIL=
200509181000 METAR MRLM NIL=
200509181100 METAR MRLM NIL=
200509181200 METAR MRLM NIL=
200509181300 METAR MRLM 181300Z VRB03KT 9999 FEW015 SCT035 24/22 A2977 RMK CB RN DST QUAD N E S=
200509181400 METAR MRLM 181400Z VRB03KT 9999 SCT018 BKN035 24/23 A2981 RMK 7000 SW VCSH CB RN QUAD NE=
200509181500 METAR MRLM 181500Z VRB03KT 9999 FEW020 BKN100 25/23 A2981 RMK CB RN DST ARND=
200509181600 METAR MRLM 181600Z 34004KT 9999 SCT020 SCT080 BKN120 27/23 A2982 RMK RN CB DST QUAD N E=
200509181700 METAR MRLM 181700Z 31006KT 9999 SCT022 BKN090 28/23 A2981 RMK CB RN DST QUAD N E=
200509181800 METAR MRLM 181800Z 34006KT 9999 FEW020 BKN110 27/23 A2979 RMK RN CB DST N NE E SE S=
200509181900 METAR MRLM 181900Z 34007KT 9999 FEW020 BKN120 27/23 A2974 RMK CB DST ARND RN DST N NE E=
200509182000 METAR MRLM NIL=
200509182100 METAR MRLM 182100Z 35008KT 9999 FEW013 SCT140 BKN270 28/23 A2970 RMK CB RN DST N NE E S SW=
200509182200 METAR MRLM 182200Z VRB03KT 9999 FEW023 BKN120 28/23 A2971 RMK CB RN=
200509182300 METAR MRLM 182300Z VRB03KT CAVOK 28/22 A2972=
200509190000 METAR MRLM 190000Z 00000KT CAVOK 25/23 A2974=
200509190100 METAR MRLM NIL=
200509190200 METAR MRLM NIL=
200509190300 METAR MRLM NIL=
200509190400 METAR MRLM NIL=
200509190500 METAR MRLM NIL=
200509190600 METAR MRLM NIL=
200509190700 METAR MRLM NIL=
200509190800 METAR MRLM NIL=
200509190900 METAR MRLM NIL=
200509191000 METAR MRLM NIL=
200509191100 METAR MRLM NIL=
200509191200 METAR MRLM NIL=
200509191300 METAR MRLM 191300Z VRB03KT CAVOK 24/23 A2981 RMK SCT090 SCT140 CB RN=
200509191400 METAR MRLM 191400Z VRB03KT CAVOK 26/23 A2984 RMK SCT080 BKN120 CB RN=
200509191500 METAR MRLM 191500Z 00000KT 9999 FEW022 SCT090 BKN110 28/23 A2984 RMK CB RN DIST W QD=
200509191600 METAR MRLM 191600Z 00000KT 9999 FEW026 SCT090 BKN110 28/23 A2984=
200509191700 METAR MRLM 191700Z 04006KT 9999 FEW025 SCT140 BKN270 29/23 A2982 HZY=
200509191800 METAR MRLM 191800Z 03006KT 9999 FEW028 SCT100 28/23 A2981 RMK CB RN=
200509191900 METAR MRLM 191900Z 05006KT 9999 FEW030 SCT140 BKN270 29/23 A2978 RMK CBS DIST SW WSW HZY=
200509192000 METAR MRLM 192000Z 27005KT 9999 SCT030 BKN100 32/25 A2977 RMK RN DIST SW=
200509192100 METAR MRLM 192100Z 10005KT 9999 BKN023 28/23 A2974 CB RN ARND=
200509192200 METAR MRLM 192200Z 12009KT 5000 TSRA SCT010 SCT015CB BKN090 24/22 A2977 TS W=
200509192300 METAR MRLM 192300Z 18004KT 9999 FEW013 BKN025 25/23 A2978 RETS=
200509200000 METAR MRLM 200000Z VRB03KT 9999 FEW015 SCT025 BKN140 24/23 A2979 CB RN ARND=
200509200100 METAR MRLM NIL=
200509200200 METAR MRLM NIL=
200509200300 METAR MRLM NIL=
200509200400 METAR MRLM NIL=
200509200500 METAR MRLM NIL=
200509200600 METAR MRLM NIL=
200509200700 METAR MRLM NIL=
200509200800 METAR MRLM NIL=
200509200900 METAR MRLM NIL=
200509201000 METAR MRLM NIL=
200509201100 METAR MRLM NIL=
200509201200 METAR MRLM NIL=
200509201300 METAR MRLM 201300Z 21004KT CAVOK 24/22 A2984 CB RN N=
200509201400 METAR MRLM 201400Z 00000KT CAVOK 26/22 A2985 CB RN N=
200509201500 METAR MRLM 201500Z 00000KT 9999 FEW020 BKN270 27/23 A2986=
200509201600 METAR MRLM 201600Z 04004KT 9999 FEW025 SCT280 28/23 A2986=
200509201700 METAR MRLM 201700Z 03005KT 9999 FEW026 SCT280 28/23 A2984=
200509201800 METAR MRLM 201800Z 03005KT 9999 FEW032 29/23 A2983 CB W=
200509201900 METAR MRLM 201900Z 35006KT 9999 FEW027 SCT280 28/23 A2980 CB SE W NW N=
200509202000 METAR MRLM NIL=
200509202100 METAR MRLM 202100Z 36007KT 9999 FEW023 BKN130 28/24 A2977=
200509202200 METAR MRLM 202200Z 36006KT 9999 SCT023 SCT130 28/24 A2977=
200509202300 METAR MRLM 202300Z 00000KT 9999 BKN019 28/24 A2996=
200509210000 METAR MRLM NIL=
200509210100 METAR MRLM NIL=
200509210200 METAR MRLM NIL=
200509210300 METAR MRLM NIL=
200509210400 METAR MRLM NIL=
200509210500 METAR MRLM NIL=
200509210600 METAR MRLM NIL=
200509210700 METAR MRLM NIL=
200509210800 METAR MRLM NIL=
200509210900 METAR MRLM NIL=
200509211000 METAR MRLM NIL=
200509211100 METAR MRLM NIL=
200509211200 METAR MRLM NIL=
200509211600 METAR MRLM 211600Z VRB03KT 9999 FEW023 SCT140 BKN270 27/23 A2984=
200509211700 METAR MRLM 211700Z VRB03KT 9999 FEW030 BKN140 28/22 A2982=
200509211800 METAR MRLM 211800Z 05005KT 9999 FEW032 SCT140 BKN270 28/22 A2980 CB DST N NE SE W=
200509211900 METAR MRLM 211900Z 04004KT 9999 FEW030 SCT140 BKN280 28/23 A2977 CB DST N NE E SE W=
200509212000 METAR MRLM 212000Z NIL=
200509212100 METAR MRLM 212100Z 04004KT 9999 FEW026 BKN280 29/23 A2974=
200509212200 METAR MRLM 212200Z 07004KT 9999 FEW026 BKN280 29/23 A2975=
200509212300 METAR MRLM 212300Z 08005KT 9999 FEW023 SCT140 BKN280 28/23 A2975=
200509220000 METAR MRLM 220000Z 10005KT 9999 FEW020 SCT140 BKN280 28/24 A2977=
200509220100 METAR MRLM NIL=
200509220200 METAR MRLM NIL=
200509220300 METAR MRLM NIL=
200509220400 METAR MRLM NIL=
200509220500 METAR MRLM NIL=
200509220600 METAR MRLM NIL=
200509220700 METAR MRLM NIL=
200509220800 METAR MRLM NIL=
200509220900 METAR MRLM NIL=
200509221000 METAR MRLM NIL=
200509221100 METAR MRLM NIL=
200509221200 METAR MRLM NIL=
200509221300 METAR MRLM 221300Z 00000KT CAVOK 24/22 A2977=
200509221400 METAR MRLM 221400Z 00000KT CAVOK 26/23 A2979=
200509221500 METAR MRLM 221500Z 09009KT CAVOK 28/22 A2981=
200509221600 METAR MRLM 221600Z 11012KT CAVOK 29/23 A2981=
200509221700 METAR MRLM 221700Z 10014KT CAVOK 29/23 A2980=
200509221800 METAR MRLM 221800Z 10013KT 9999 FEW034 BKN140 30/23 A2978=
200509221900 METAR MRLM 221900Z 10012KT 9999 FEW032 SCT140 BKN270 29/23 A2976=
200509222000 METAR MRLM NIL=
200509222100 METAR MRLM 222100Z 09007KT 9999 FEW024 SCT150 BKN270 28/24 A2972 RMK CB DST SW W NW RN DST E NE=
200509222200 METAR MRLM 222200Z 08007KT 9999 FEW023 BKN150 28/24 A2973 RMK CB DST NE W SW=
200509222300 METAR MRLM 222300Z VRB03KT 9999 FEW020 SCT140 BKN270 28/24 A2974 RMK CB RN DST NE SW W=
200509230000 METAR MRLM 230000Z 00000KT CAVOK 26/24 A2974 RMK CB RN DST NE SE SW WNW=
200509230100 METAR MRLM NIL=
200509230200 METAR MRLM NIL=
200509230300 METAR MRLM NIL=
200509230400 METAR MRLM NIL=
200509230500 METAR MRLM NIL=
200509230600 METAR MRLM NIL=
200509230700 METAR MRLM NIL=
200509230800 METAR MRLM NIL=
200509230900 METAR MRLM NIL=
200509231000 METAR MRLM NIL=
200509231100 METAR MRLM NIL=
200509231200 METAR MRLM NIL=
200509231300 METAR MRLM 231300Z VRB03KT CAVOK 25/23 A2984 RMK CB RN DST E=
200509231400 METAR MRLM 231400Z VRB03KT CAVOK 28/23 A2986 RMK CB RN DST E=
200509231500 METAR MRLM 231500Z 08004KT CAVOK 28/22 A2986 RMK CB RN DST E=
200509231600 METAR MRLM 231600Z 08005KT 9999 FEW030 BKN140 28/22 A2986 RMK CB RN DST E=
200509231700 METAR MRLM 231700Z 08008KT 9999 FEW030 SCT140 BKN270 29/23 A2985 RMK CB RN DST ESE=
200509231800 METAR MRLM 231800Z 07006KT 9999 SCT028 SCT140 29/24 A2983 RMK CB DST ESE S=
200509231900 METAR MRLM 231900Z 08004KT 9999 FEW025 SCT140 29/24 A2979 CB DST SE S=
200509232000 METAR MRLM NIL=
200509232100 METAR MRLM 232100Z 11007KT 9999 SCT25 SCT130 29/24 A2976 RMK CB DST S W RN DST S SW=
200509232200 METAR MRLM 232200Z 10010KT 9999 SCT025 BKN280 29/24 A2976 RMK CB DST E/ S/ W RN DST S SW=
200509232300 METAR MRLM 232300Z 12011KT 9999 SCT024 BKN260 28/24 A2978=
200509240000 METAR MRLM 240000Z 15005KT 9999 FEW018 BKN280 27/23 A2979 RMK CBS RN DST S/W=
200509240100 METAR MRLM NIL=
200509240200 METAR MRLM NIL=
200509240300 METAR MRLM NIL=
200509240400 METAR MRLM NIL=
200509240500 METAR MRLM NIL=
200509240600 METAR MRLM NIL=
200509240700 METAR MRLM NIL=
200509240800 METAR MRLM NIL=
200509240900 METAR MRLM NIL=
200509241000 METAR MRLM NIL=
200509241100 METAR MRLM NIL=
200509241200 METAR MRLM NIL=
200509241300 METAR MRLM 241300Z 00000KT 9999 FEW015 SCT120 OVC150 23/22 A2989=
200509241400 METAR MRLM 241400Z 00000KT 9999 FEW015 SCT120 OVC150 24/23 A2990 RMK CB RN DST N=
200509241500 METAR MRLM 241500Z 00000KT 9999 FEW020 SCT140 BKN270 26/22 A2991 RMK CB DIST N-E-ESE=
200509241600 METAR MRLM 241600Z 07004KT 9999 FEW030 SCT130 BKN260 28/22 A2990 RMK CB DST N ESE=
200509241700 METAR MRLM 241700Z 07004KT 9999 FEW030 SCT130 BKN270 28/22 A2988 CBS RN DST N ESE=
200509241800 METAR MRLM 241800Z 06005KT 9999 FEW028 SCT140 BKN270 25/23 A2985 RMK CB RN DIST NE/E/SE=
200509241900 METAR MRLM 241900Z 08009KT 9999 SCT028 SCT150 BKN270 28/23 A2982 RMK CB RN DIST N/E/ESE HZY=
200509242100 METAR MRLM 242100Z 08006KT 9999 BKLN025 28/23 A2979 CB S SW RN SW=
200509242200 METAR MRLM 242200Z 07006KT 9999 +DZ OVC022 28/23 A2978=
200509242300 METAR MRLM 242300Z 00000KT 9999 BKN010 25/23 A2980 RERA CB RN E S SW W=
200509250000 METAR MRLM 250000Z 08009KT 9999 BKN015 27/24 A2981 CB RN E S SW W=
200509250100 METAR MRLM NIL=
200509250200 METAR MRLM NIL=
200509250300 METAR MRLM NIL=
200509250400 METAR MRLM NIL=
200509250500 METAR MRLM NIL=
200509250600 METAR MRLM NIL=
200509250700 METAR MRLM NIL=
200509250800 METAR MRLM NIL=
200509250900 METAR MRLM NIL=
200509251000 METAR MRLM NIL=
200509251100 METAR MRLM NIL=
200509251200 METAR MRLM NIL=
200509251300 METAR MRLM 251300Z 22004KT CAVOK 23/22 A2989 CB RN NE E=
200509251400 METAR MRLM 251400Z VRB03KT 9999 DZ FEW015 BKN090 25/23 A2991 RERA RMK RN W N E=
200509251500 METAR MRLM 251500Z 00000KT 9999 FEW020 SCT120 BKN270 27/23 A2991 CB RN E=
200509251600 METAR MRLM 251600Z VRB03KT 9999 FEW028 SCT120 BKN270 28/23 A2991 CB RN N E=
200509251700 METAR MRLM 251700Z 09004KT 9999 FEW024 BKN120 28/23 A2990 CB RN N NE E=
200509251800 METAR MRLM 251800Z 10006KT 9999 FEW023 SCT130 BKN150 27/23 A2986 CB ARND RN E W SW=
200509251900 METAR MRLM 251900Z 11008KT 9999 FEW020 SCT130 BKN150 27/23 A2982 RN W SE CB ARND=
200509252000 METAR MRLM NIL=
200509252100 METAR MRLM 252100Z 08006KT 9999 FEW028 SCT140 BKN270 29/23 A2977=
200509252200 METAR MRLM 252200Z 09009KT 9999 FEW023 SCT130 BKN270 28/23 A2977=
200509252300 METAR MRLM 252300Z 27006KT 9999 FEW025 BKN130 27/22 A2978=
200509260000 METAR MRLM 260000Z 00000KT CAVOK 26/23 A2980 CB RN S W=
200509260100 METAR MRLM NIL=
200509260200 METAR MRLM NIL=
200509260300 METAR MRLM NIL=
200509260400 METAR MRLM NIL=
200509260500 METAR MRLM NIL=
200509260600 METAR MRLM NIL=
200509260700 METAR MRLM NIL=
200509260800 METAR MRLM NIL=
200509260900 METAR MRLM NIL=
200509261000 METAR MRLM NIL=
200509261100 METAR MRLM NIL=
200509261200 METAR MRLM NIL=
200509261300 METAR MRLM 261300Z VRB03KT CAVOK 23/22 A2985 CB RN DST TCU W/NW=
200509261400 METAR MRLM 261400Z 00000KT CAVOK 26/22 A2987 CB RN DST N NE E ESE=
200509261500 METAR MRLM 261500Z 00000KT CAVOK 28/23 A2987=
200509261600 METAR MRLM 261600Z 01005KT 9999 FEW030 OVC270 28/22 A2987=
200509261700 METAR MRLM 261700Z 01007KT 9999 FEW028 SCT140 BKN270 28/23 A2986=
200509261800 METAR MRLM 261800Z VRB03KT 9999 FEW026 SCT140 BKN270 28/22 A2984 CB DST AROUND RN DST NE=
200509261900 METAR MRLM 261900Z 02004KT 9999 FEW028 SCT140 BKN270 28/23 A2980=
200509262000 METAR MRLM NIL=
200509262100 METAR MRLM 262100Z 05006KT 9999 SCT030 SCT140 BKN270 29/23 A2976=
200509262200 METAR MRLM 262200Z 04006KT 9999 SCT028 SCT090 BKN270 28/23 A2976=
200509262300 METAR MRLM 262300Z 08007KT 9999 BKN026 SCT100 28/23 A2978=
200509270000 METAR MRLM NIL=
200509270100 METAR MRLM NIL=
200509270200 METAR MRLM NIL=
200509270300 METAR MRLM NIL=
200509270400 METAR MRLM NIL=
200509270500 METAR MRLM NIL=
200509270600 METAR MRLM NIL=
200509270700 METAR MRLM NIL=
200509270800 METAR MRLM NIL=
200509270900 METAR MRLM NIL=
200509271000 METAR MRLM NIL=
200509271100 METAR MRLM NIL=
200509271200 METAR MRLM NIL=
200509271300 METAR MRLM 271300Z 22005KT 9999 FEW024 BKN080 24/23 A2982 RN DST N NE=
200509271400 METAR MRLM 271400Z 00000KT 9999 FEW024 BKN230 26/24 A2984 CB RN N NE=
200509271500 METAR MRLM 271500Z 02003KT 9999 FEW024 BKN230 26/23 A2986 CB RN NW NE=
200509271600 METAR MRLM 271600Z 00000KT 9999 FEW024 BKN230 27/23 A2985 CB RN DST NW N=
200509271700 METAR MRLM 271700Z 34004KT 9999 FEW024 SCT090 27/23 A2984=
200509271800 METAR MRLM 271800Z 01008KT 9999 FEW024 BKN230 28/24 A2982 CB RN NW N NE=
200509271900 METAR MRLM 271900Z 04009KT 9999 FEW024 BKN230 28/24 A2978=
200509272000 METAR MRLM NIL=
200509272100 METAR MRLM 272100Z 01005KT 9999 SCT025 SCT280 28/23 A2976 RMK CB DST SE S SW RN DST SSW SW=
200509272200 METAR MRLM 272200Z 04003KT 9999 SCT025 BKN080 27/24 A2979 RMK CB RN DST E S SW=
200509272300 METAR MRLM 272300Z 00000KT 9999 FEW025 SCT090 27/24 A2978 RMK CB RN SE S SW W=
200509280000 METAR MRLM 280000Z 00000KT 9999 FEW024 SCT090 BKN250 26/24 A2978 RMK CB DST SE S SSW RN DST NE SE S SW=
200509280100 METAR MRLM NIL=
200509280200 METAR MRLM NIL=
200509280300 METAR MRLM NIL=
200509280400 METAR MRLM NIL=
200509280500 METAR MRLM NIL=
200509280600 METAR MRLM NIL=
200509280700 METAR MRLM NIL=
200509280800 METAR MRLM NIL=
200509280900 METAR MRLM NIL=
200509281000 METAR MRLM NIL=
200509281100 METAR MRLM NIL=
200509281200 METAR MRLM NIL=
200509281300 METAR MRLM 281300Z 23003KT 9999 FEW030 BKN250 24/22 A2982=
200509281400 METAR MRLM 281400Z 00000KT 9999 FEW030 BKN260 28/23 A2984=
200509281500 METAR MRLM 281500Z 30003KT 9999 FEW030 BKN260 29/22 A2985 RMK TCU DST NW=
200509281600 METAR MRLM 281600Z 01006KT 9999 FEW030 BKN260 29/23 A2985 RMK CB DST E=
200509281700 METAR MRLM 281700Z 01007KT 9999 FEW028 SCT100 BKN250 29/22 A2984=
200509281800 METAR MRLM 281800Z 03006KT 9999 FEW025 BKN260 29/22 A2982 RMK CB RN DST N SSW=
200509281900 METAR MRLM 281900Z 03006KT 9999 FEW024TCU BKN260 29/23 A2978 RMK TCU RN S SW=
200509282000 METAR MRLM NIL=
200509282100 METAR MRLM 282100Z 03005KT 9999 FEW024 BKN260 29/23 A2975 RMK CB DST NW RN NW=
200509282200 METAR MRLM 282200Z 04004KT 9999 FEW024 BKN260 29/23 A2976 RMK CB SE S SW W RN S SW=
200509282300 METAR MRLM 282300Z 00000KT 9999 FEW024 BKN260 28/23 A2978 CB DST SE S SW W RN DST S SW=
200509290000 METAR MRLM 290000Z 36004KT 9999 FEW024 BKN260 28/23 A2979=
200509290100 METAR MRLM NIL=
200509290200 METAR MRLM NIL=
200509290300 METAR MRLM NIL=
200509290400 METAR MRLM NIL=
200509290500 METAR MRLM NIL=
200509290600 METAR MRLM NIL=
200509290700 METAR MRLM NIL=
200509290800 METAR MRLM NIL=
200509290900 METAR MRLM NIL=
200509291000 METAR MRLM NIL=
200509291100 METAR MRLM NIL=
200509291200 METAR MRLM NIL=
200509291300 METAR MRLM 291300Z 00000KT CAVOK 23/21 A2984 SCT090 SCT150 RMK CB DIST N/E=
200509291400 METAR MRLM 291400Z 00000KT CAVOK 25/22 A2987 SCT090 SCT150 RMK CBS RN DST N/E=
200509291500 METAR MRLM 291500Z 00000KT CAVOK 27/22 A2987 SCT110 BKN250 CB RN N/E=
200509291600 METAR MRLM 291600Z VRB03KT 9999 FEW025 SCT110 BKN260 28/21 A2987=
200509291700 METAR MRLM NIL=
200509291800 METAR MRLM 291800Z 08004KT 9999 FEW027 BKN090 28/22 A2984 RMK CB RN DST N/E=
200509291900 METAR MRLM 291900Z 09004KT 9999 FEW025 BKN100 28/22 A2980 RMK CB DIST N/E/S=
200509292000 METAR MRLM NIL=
200509292100 METAR MRLM 292100Z 02004KT 9999 FEW022 SCT120 BKN260 27/23 A2976 CB RN N NE W=
200509292200 METAR MRLM 292200Z 00000KT 9999 FEW028 BKN120 28/23 A2975 CB RN NE W NW=
200509292300 METAR MRLM 292300Z 00000KT CAVOK 27/23 A2976=
200509300000 METAR MRLM 300000Z 00000KT CAVOK 25/23 A2977 RMK CB RN W=
200509300100 METAR MRLM NIL=
200509300200 METAR MRLM NIL=
200509300300 METAR MRLM NIL=
200509300400 METAR MRLM NIL=
200509300500 METAR MRLM NIL=
200509300600 METAR MRLM NIL=
200509300700 METAR MRLM NIL=
200509300800 METAR MRLM NIL=
200509300900 METAR MRLM NIL=
200509301000 METAR MRLM NIL=
200509301100 METAR MRLM NIL=
200509301200 METAR MRLM NIL=
200509301300 METAR MRLM 301300Z 00000KT CAVOK 22/21 A2980 CB RN NE E=
200509301400 METAR MRLM 301400Z 00000KT CAVOK 27/23 A2983 CB RN NE E=
200509301500 METAR MRLM 301500Z 00000KT 9999 FEW020 SCT150 BKN270 27/23 A2982 RMK CB RN N NE E CB CB SW=
200509301600 METAR MRLM 301600Z 08005KT 9999 FEW028 BKN270 28/22 A2981 CB RN NE E=
200509301700 METAR MRLM 301700Z 08004KT 9999 FEW028 BKN270 28/23 A2980 CB RN N NE E=
200509301800 METAR MRLM 301800Z 35007KT 9999 FEW032 BKN270 29/22 A2977 CB RN N NE E=
200509301900 METAR MRLM 301900Z 35010KT 9999 FEW035 BKN270 29/22 A2974 CB RN NE E SW NW=
200509302000 METAR MRLM NIL=
200509302100 METAR MRLM 302100Z VRB03KT 9999 FEW024 BKN260 28/23 A2969 CB DST S/W RN DST SW=
200509302200 METAR MRLM 302200Z 00000KT 9999 SCT024 SCT120 BKN270 28/23 A2970=
200509302300 METAR MRLM 302300Z 00000KT 9999 FEW020 SCT110 BKN270 27/23 A2972=
200510010000 METAR MRLM 010000Z VRB03KT 9999 FEW018 SCT0130 BKN270 27/23 A2973=
200510010100 METAR MRLM NIL=
200510010200 METAR MRLM NIL=
200510010300 METAR MRLM NIL=
200510010400 METAR MRLM NIL=
200510010500 METAR MRLM NIL=
200510010600 METAR MRLM NIL=
200510010700 METAR MRLM NIL=
200510010800 METAR MRLM NIL=
200510010900 METAR MRLM NIL=
200510011000 METAR MRLM NIL=
200510011100 METAR MRLM NIL=
200510011200 METAR MRLM 011200Z 20003KT 9999 FEW030 SCT100 BKN250 22/21 A2977=
200510011300 METAR MRLM 011300Z 00000KT 9999 FEW030 BKN250 25/22 A2979=
200510011400 METAR MRLM 011400Z 00000KT 9999 FEW030 SCT250 27/22 A2982=
200510011500 METAR MRLM 011500Z 07003KT 9999 FEW030 BKN250 28/21 A2982=
200510011600 METAR MRLM 011600Z 05003KT 9999 FEW030 BKN250 29/21 A2982=
200510011700 METAR MRLM 011700Z 02005KT 9999 FEW025 BKN250 29/22 A2980=
200510011800 METAR MRLM 011800Z 03007KT 9999 FEW025 BKN250 29/22 A2976=
200510011900 METAR MRLM 011900Z 02008KT 9999 FEW025 BKN250 29/23 A2973=
200510012000 METAR MRLM NIL=
200510012100 METAR MRLM 012100Z 01005KT 9999 FEW025 BKN250 29/22 A2970=
200510012200 METAR MRLM 012200Z 05003KT 9999 FEW030 BKN250 29/22 A2971=
200510012300 METAR MRLM 012300Z 00000KT 9999 FEW025 BKN250 28/23 A2973=
200510020000 METAR MRLM NIL=
200510020100 METAR MRLM NIL=
200510020200 METAR MRLM NIL=
200510020300 METAR MRLM NIL=
200510020400 METAR MRLM NIL=
200510020500 METAR MRLM NIL=
200510020600 METAR MRLM NIL=
200510020700 METAR MRLM NIL=
200510020800 METAR MRLM NIL=
200510020900 METAR MRLM NIL=
200510021000 METAR MRLM NIL=
200510021100 METAR MRLM NIL=
200510021200 METAR MRLM NIL=
200510021300 METAR MRLM 021300Z 00000KT 9999 DZ FEW030 BKN080 23/22 A2981 RN NW N NE=
200510021400 METAR MRLM 021400Z 19003KT 9999 FEW028 BKN080 25/22 A2983 REDZ=
200510021600 METAR MRLM 021600Z 07003KT 9999 FEW028 BKN090 27/23 A2983=
200510021700 METAR MRLM 021700Z 03004KT 9999 FEW028 BKN090 27/23 A2981=
200510021800 METAR MRLM 021800Z 04004KT 9999 FEW025 BKN090 28/23 A2979=
200510021900 METAR MRLM 021900Z 03005KT 9999 FEW025 BKN090 28/23 A2976 TCU S SW=
200510022000 METAR MRLM NIL=
200510022100 METAR MRLM 022100Z 03005KT 9999 FEW025 SCT100 BKN250 28/23 A2997 RMK CB DST SE S SW=
200510022200 METAR MRLM 022200Z 03004KT 9999 FEW025 SCT100 BKN250 28/23 A2973 RMK CB DST SE S SW W RN DST SSW=
200510022300 METAR MRLM 022300Z 00000KT 9999 FEW025 SCT100 BKN250 28/23 A2976 RMK CB DST SE S SW W RN DST SSW W=
200510030000 METAR MRLM 030000Z 00000KT 9999 FEW025 BKN100 26/23 A2977 RMK CB DST SE S SW W RN DST S SW=
200510030100 METAR MRLM NIL=
200510030200 METAR MRLM NIL=
200510030300 METAR MRLM NIL=
200510030400 METAR MRLM NIL=
200510030500 METAR MRLM NIL=
200510030600 METAR MRLM NIL=
200510030700 METAR MRLM NIL=
200510030800 METAR MRLM NIL=
200510030900 METAR MRLM NIL=
200510031000 METAR MRLM NIL=
200510031100 METAR MRLM NIL=
200510031200 METAR MRLM NIL=
200510031300 METAR MRLM 031300Z 00000KT CAVOK 24/22 A2980 RMK CB RN DST E=
200510031400 METAR MRLM 031400Z 00000KT CAVOK 25/22 A2982 RMK CB RN DST E=
200510031500 METAR MRLM 031500Z 11009KT 9999 FEW016 BKN110 27/22 A2983 RMK CB RN DST E=
200510031600 METAR MRLM 031600Z 11011KT 9999 FEW030 BKN120 27/21 A2982 RMK RN DST E=
200510031700 METAR MRLM 031700Z 11010KT 9999 FEW030 SCT090 BKN110 28/21 A2979=
200510031800 METAR MRLM 031800Z 10011KT 9999 FEW032 BKN110 28/22 A2976 RMK CB DST SE W HZ LEVE ARND=
200510031900 METAR MRLM 031900Z 08011KT 9999 FEW028 SCT140 BKN250 28/22 A2973=
200510032000 METAR MRLM NIL=
200510032100 METAR MRLM 032100Z 10010KT 9999 FEW028 BKN260 28/23 A2968=
200510032200 METAR MRLM 032200Z 12008KT 9999 FEW025 OVC260 28/23 A2968 RMK CB DIST SSW/WSW/WNW=
200510032300 METAR MRLM 032300Z 16004KT CAVOK 27/23 A2969 RMK CB DST W FEW0120 SCT140 BKN260=
200510040000 METAR MRLM 040000Z 00000KT CAVOK 25/23 A2970=
200510040100 METAR MRLM NIL=
200510040200 METAR MRLM NIL=
200510040300 METAR MRLM NIL=
200510040400 METAR MRLM NIL=
200510040500 METAR MRLM NIL=
200510040600 METAR MRLM NIL=
200510040700 METAR MRLM NIL=
200510040800 METAR MRLM NIL=
200510040900 METAR MRLM NIL=
200510041000 METAR MRLM NIL=
200510041100 METAR MRLM NIL=
200510041200 METAR MRLM NIL=
200510041300 METAR MRLM 041300Z 00000KT 9999 FEW015 SCT120 BKN250 24/22 A2978 RMK CB RN DIST N=
200510041400 METAR MRLM 041400Z 00000KT 9999 FEW012 BKN250 24/23 A2979 RMK CBS RN=
200510041500 METAR MRLM 041500Z 00000KT 9999 FEW016 SCT140 BKN250 24/23 A2979 RMK CBS RN DIST NE ENE=
200510041600 METAR MRLM 041600Z 12005KT 9999 FEW020 SCT140 BKN260 27/23 A2981 RMK CBS RN DIST NE/ENE=
200510041700 METAR MRLM 041700Z 11009KT 9999 FEW023 SCT150 BKN260 28/23 A2979 RMK CBS RN DST NE=
200510041800 METAR MRLM NIL=
200510041900 METAR MRLM 041900Z 09008KT 9999 FEW022 BKN260 29/23 A2972=
200510042000 METAR MRLM NIL=
200510042200 METAR MRLM 042200Z 11013KT 9999 FEW026 SCT110 BKN270 29/24 A2967 RMK CB S W RN W=
200510042300 METAR MRLM 042300Z 12012KT 9999 FEW022 SCT090 BKN140 28/23 A2969 RMK CB RN S W=
200510050000 METAR MRLM 050000Z 12008KT 9999 FEW020 SCT100 BKN140 27/23 A297 CB RN S SW=
200510050100 METAR MRLM NIL=
200510050200 METAR MRLM NIL=
200510050300 METAR MRLM NIL=
200510050400 METAR MRLM NIL=
200510050500 METAR MRLM NIL=
200510050600 METAR MRLM NIL=
200510050700 METAR MRLM NIL=
200510050800 METAR MRLM NIL=
200510050900 METAR MRLM NIL=
200510051000 METAR MRLM NIL=
200510051100 METAR MRLM NIL=
200510051200 METAR MRLM NIL=
200510051300 METAR MRLM 051300Z 00000KT 9999 SCT024 SCT250 26/22 A2979 RMK RN NW N E=
200510051400 METAR MRLM 051400Z 00000KT 9999 SCT025 SCT250 27/23 A2980 RN NW N NE=
200510051500 METAR MRLM 051500Z 35003KT 9999 FEW025 BKN250 28/23 A2982=
200510051600 METAR MRLM 051600Z 04003KT 9999 FEW030 BKN250 28/23 A2982=
200510051700 METAR MRLM 051700Z 02003KT 9999 FEW030 BKN250 28/23 A2980=
200510051800 METAR MRLM 051800Z 02006KT 9999 FEW030 BKN250 28/23 A2978=
200510051900 METAR MRLM 051900Z 02007KT 9999 FEW030 BKN250 29/23 A2977=
200510052000 METAR MRLM NIL=
200510052100 METAR MRLM 052100Z 05003KT 9999 FEW025 BKN250 28/23 A2976=
200510052200 METAR MRLM 052200Z 00000KT 9999 FEW025 BKN250 28/23 A2973 CB DST SE S SW W RN SSW=
200510052300 METAR MRLM 052300Z 10003KT 9999 FEW025 BKN250 28/23 A2974 CB LINE DST SE S SW W RN SSW=
200510060000 METAR MRLM 060000Z 00000KT 9999 FEW030 BKN220 26/23 A2975=
200510060100 METAR MRLM NIL=
200510060200 METAR MRLM NIL=
200510060300 METAR MRLM NIL=
200510060400 METAR MRLM NIL=
200510060500 METAR MRLM NIL=
200510060600 METAR MRLM NIL=
200510060700 METAR MRLM NIL=
200510060800 METAR MRLM NIL=
200510060900 METAR MRLM NIL=
200510061000 METAR MRLM NIL=
200510061100 METAR MRLM NIL=
200510061200 METAR MRLM 061200Z 22003KT CAVOK 22/21 A2981 RMK BKN250=
200510061300 METAR MRLM 061300Z 21003KT CAVOK 25/22 A2984=
200510061400 METAR MRLM 061400Z 07003KT CAVOK 28/22 A2986=
200510061500 METAR MRLM 061500Z 04004KT 9999 FEW030 BKN280 28/22 A2987 CB E NE=
200510061600 METAR MRLM 061600Z 05005KT 9999 FEW030 BKN280 29/22 A2986 CB DST E NE=
200510061700 METAR MRLM 061700Z 04006KT 9999 FEW030 BKN280 29/22 A2984 CB DST E=
200510061800 METAR MRLM 061800Z 04007KT 9999 FEW030 SCT280 30/22 A2982=
200510061900 METAR MRLM 061900Z 04007KT 9999 FEW030 SCT280 30/22 A2978=
200510062000 METAR MRLM NIL=
200510062100 METAR MRLM 062100Z 04005KT 9999 FEW030 SCT280 30/23 A2974=
200510062200 METAR MRLM 062200Z 04004KT 9999 FEW030 SCT280 29/23 A2974=
200510062300 METAR MRLM 062300Z 09003KT 9999 FEW025 BKN280 29/23 A2976=
200510070000 METAR MRLM 070000Z 15003KT 9999 FEW028 SCT280 27/23 A2976=
200510070100 METAR MRLM NIL=
200510070200 METAR MRLM NIL=
200510070300 METAR MRLM NIL=
200510070400 METAR MRLM NIL=
200510070500 METAR MRLM NIL=
200510070600 METAR MRLM NIL=
200510070700 METAR MRLM NIL=
200510070800 METAR MRLM NIL=
200510070900 METAR MRLM NIL=
200510071000 METAR MRLM NIL=
200510071100 METAR MRLM NIL=
200510071200 METAR MRLM NIL=
200510071300 METAR MRLM 071300Z 21004KT CAVOK 25/22 A2983 FEW090 SCT150=
200510071400 METAR MRLM 071400Z 00000KT 9999 FEW030 SCT150 29/22 A2985=
200510071500 METAR MRLM 071500Z 08004KT 9999 FEW030 SCT280 29/23 A2986=
200510071600 METAR MRLM NIL=
200510071700 METAR MRLM 071700Z 09008KT 9999 FEW032 30/23 A2986=
200510071900 METAR MRLM 071900Z 07007KT 9999 FEW030 SCT280 30/23 A2978=
200510072000 METAR MRLM 072000Z 06006KT 9999 FEW028 BKN280 30/22 A2976=
200510072100 METAR MRLM 072100Z 08006KT 9999 FEW034 SCT280 30/23 A2975 RMK CB DST QUAD S RN DST WSW=
200510072200 METAR MRLM 072200Z 11008KT 9999 SCT034 SCT280 29/23 A2975 RMK CB DST E S SW W=
200510072300 METAR MRLM 072300Z 15005KT 9999 FEW024 BKN280 28/23 A2976 RMK CB RN DST QUAD S W=
200510080000 METAR MRLM 080000Z VRB03KT CAVOK 27/23 A2977 RMK CB RN DST QUAD S W DST LTNG W=
200510080100 METAR MRLM NIL=
200510080200 METAR MRLM NIL=
200510080300 METAR MRLM NIL=
200510080400 METAR MRLM NIL=
200510080500 METAR MRLM NIL=
200510080600 METAR MRLM NIL=
200510080700 METAR MRLM NIL=
200510080800 METAR MRLM NIL=
200510080900 METAR MRLM NIL=
200510081000 METAR MRLM NIL=
200510081100 METAR MRLM NIL=
200510081200 METAR MRLM NIL=
200510081300 METAR MRLM 081300Z VRB03KT 9999 FEW015 BKN110 24/22 A2986 RMK CB RN DST E SE S NW=
200510081400 METAR MRLM 081400Z 21005KT 9999 DZ FEW015 BKN110 26/23 A2987 RMK CB RN DST NW E SE S=
200510081500 METAR MRLM 081500Z 00000KT 9999 DZ FEW016 SCT090 BKN150 26/23 A2988 RMK CB RN DST QUAD N=
200510081700 METAR MRLM 081700Z 06004KT 9999 FEW028 BKN140 29/24 A2986 RMK CB RN DST N NE=
200510081800 METAR MRLM 081800Z 04007KT 9999 FEW029 BKN140 29/23 A2984 RMK CB RN DST SW N HZY LEVE=
200510081900 METAR MRLM 081900Z 04006KT 9999 FEW025 SCT130 BKN270 29/24 A2981 RMK CB DST QUAD S W RN DST SW W=
200510082000 METAR MRLM NIL=
200510082100 METAR MRLM 082100Z 20006KT 9999 SCT018 SCT100 27/24 A2980 RMK CB RN DST S SW TSTM DST SW=
200510082200 METAR MRLM 082200Z 19005KT 9999 +DZ FEW012 OVC120 24/22 A2981 RMK CB RN DST S / W=
200510082300 METAR MRLM 082300Z VRB03KT 9999 -DZ FEW008 OVC110 24/24 A2982 RMK CB RN DIST S/W=
200510090000 METAR MRLM 090000Z 21004KT 9999 -DZ FEW010 OVC110 23/22 A2985 RMK CBS RN DST E / S /W QDS=
200510090100 METAR MRLM NIL=
200510090200 METAR MRLM NIL=
200510090300 METAR MRLM NIL=
200510090400 METAR MRLM NIL=
200510090500 METAR MRLM NIL=
200510090600 METAR MRLM NIL=
200510090700 METAR MRLM NIL=
200510090800 METAR MRLM NIL=
200510090900 METAR MRLM NIL=
200510091000 METAR MRLM NIL=
200510091100 METAR MRLM NIL=
200510091200 METAR MRLM 091200Z 19003KT 9999 FEW030 BKN090 22/21 A2987=
200510091300 METAR MRLM 091300Z 19004KT 9999 FEW030 BKN090 22/21 A2989 RMK RN DST NE E SE=
200510091400 METAR MRLM 091400Z 00000KT 9999 FEW030 BKN090 24/22 A2991=
200510091500 METAR MRLM 091500Z 11010KT 9999 FEW030 SCT100 BKN250 27/22 A2991=
200510091600 METAR MRLM 091600Z 11014KT 9999 FEW030 BKN280 29/21 A2989=
200510091700 METAR MRLM 091700Z 11015KT 9999 FEW030 BKN250 30/22 A2986=
200510091800 METAR MRLM 091800Z 09013KT 9999 FEW030 BKN250 30/22 A2983=
200510091900 METAR MRLM 091900Z 09007KT 9999 FEW030 BKN250 30/23 A2981=
200510092000 METAR MRLM NIL=
200510092100 METAR MRLM 092100Z 09010KT 9999 FEW028 SCT100 BKN250 29/23 A2979 RMK CB RN SE S SW W=
200510092200 METAR MRLM 092200Z 08009KT 9999 FEW028 SCT100 BKN250 29/24 A2980 RMK CB SE S SW W=
200510092300 METAR MRLM 092300Z 10009KT 9999 FEW025 BKN090 28/23 A2981 CB RN SE S SW W=
200510100000 METAR MRLM 100000Z 16003KT 9999 FEW022 SCT035 27/23 A2985 CB RN SE S SW=
200510100100 METAR MRLM NIL=
200510100200 METAR MRLM NIL=
200510100300 METAR MRLM NIL=
200510100400 METAR MRLM NIL=
200510100500 METAR MRLM NIL=
200510100600 METAR MRLM NIL=
200510100700 METAR MRLM NIL=
200510100800 METAR MRLM NIL=
200510100900 METAR MRLM NIL=
200510101000 METAR MRLM NIL=
200510101100 METAR MRLM NIL=
200510101200 METAR MRLM 101200Z 21003KT CAVOK 22/21 A2984=
200510101300 METAR MRLM 101300Z 20004KT CAVOK 23/21 A2985=
200510101400 METAR MRLM 101400Z 22003KT CAVOK 25/23 A2986=
200510101500 METAR MRLM 101500Z 02003KT CAVOK 27/21 A2987=
200510101600 METAR MRLM 101600Z 01003KT CAVOK 28/22 A2987=
200510101700 METAR MRLM 101700Z 03005KT 9999 FEW030 BKN100 29/22 A2985=
200510101800 METAR MRLM 101800Z 07005KT 9999 FEW030 BKN100 29/23 A2983=
200510101900 METAR MRLM 101900Z 06003KT 9999 FEW030 SCT100 29/23 A2979=
200510102000 METAR MRLM NIL=
200510102100 METAR MRLM 102100Z 05004KT 9999 TS FEW018CB FEW020 BKN250 28/22 A2974 CB LINE SE S SW TS RM SW=
200510102200 METAR MRLM 102200Z 00000KT 9999 TS FEW020CB BKN150 27/24 A2975 CB LINE SE S SW W TS RN SW SSW=
200510102300 METAR MRLM 102300Z 23003KT 9999 SCT035 SCT100 26/24 A2977 RETS CB DST ARND RN S SW W NW=
200510110000 METAR MRLM 110000Z 27012KT 3000 TS RA FEW018CB BKN022 23/21 A2984 CB ARND TS W NW=
200510110100 METAR MRLM NIL=
200510110200 METAR MRLM NIL=
200510110300 METAR MRLM NIL=
200510110400 METAR MRLM NIL=
200510110500 METAR MRLM NIL=
200510110600 METAR MRLM NIL=
200510110700 METAR MRLM NIL=
200510110800 METAR MRLM NIL=
200510110900 METAR MRLM NIL=
200510111000 METAR MRLM NIL=
200510111100 METAR MRLM NIL=
200510111200 METAR MRLM NIL=
200510111300 METAR MRLM 111300Z 00000KT CAVOK 24/22 A2980=
200510111400 METAR MRLM 111400Z VRB03KT 9999 CAVOK 26/23 A2982=
200510111500 METAR MRLM 111500Z VRB03KT 9999 FEW030 SCT140 BKN280 28/22 A2983 CB DST SW S=
200510111600 METAR MRLM 111600Z VRB03KT 9999 FEW035 SCT140 BKN280 28/21 A2982 CB DST S SW=
200510111700 METAR MRLM 111700Z 06004KT 9999 FEW038 BKN110 29/21 A2979 CB DST S W=
200510111800 METAR MRLM 111800Z 04004KT 9999 FEW033 BKN090 29/22 A2977 CB RN DST S W=
200510111900 METAR MRLM 111900Z 32004KT 9999 -DZ FEW028 OVC090 28/22 A2979 CB RN DST S W=
200510112000 METAR MRLM NIL=
200510112100 METAR MRLM 112100Z 00000KT 9999 FEW030 BKN090 28/22 A2972=
200510112200 METAR MRLM 112200Z 30004KT 9999 FEW017 BKN035 27/24 A2973=
200510112300 METAR MRLM 112300Z 00000KT 9999 FEW015 BKN100 27/24 A2973=
200510120000 METAR MRLM 120000Z 00000KT 9999 FEW014 BKN100 26/23 A2976=
200510120100 METAR MRLM NIL=
200510120200 METAR MRLM NIL=
200510120300 METAR MRLM NIL=
200510120400 METAR MRLM NIL=
200510120500 METAR MRLM NIL=
200510120600 METAR MRLM NIL=
200510120700 METAR MRLM NIL=
200510120800 METAR MRLM NIL=
200510120900 METAR MRLM NIL=
200510121000 METAR MRLM NIL=
200510121100 METAR MRLM NIL=
200510121200 METAR MRLM NIL=
200510121300 METAR MRLM 121300Z VRB03KT 9999 FEW015 OVC280 23/21 A2978=
200510121400 METAR MRLM 121400Z VRB03KT CAVOK 26/23 A2981=
200510121500 METAR MRLM 121500Z 00000KT CAVOK 27/23 A2981=
200510121600 METAR MRLM 121600Z 00000KT 9999 FEW028 SCT110 28/23 A2980=
200510121700 METAR MRLM 121700Z 03007KT 9999 FEW027 BKN120 29/24 A2978=
200510121800 METAR MRLM 121800Z 03007KT 9999 FEW023 BKN110 29/24 A2975=
200510121900 METAR MRLM 121900Z 01006KT 9999 FEW022 BKN110 28/24 A2975=
200510122000 METAR MRLM NIL=
200510122100 METAR MRLM 122100Z 25005KT 9999 -DZ SCT015 BKN100 24/23 A2972 RMK CB DST QUAD S W N=
200510122200 METAR MRLM 122200Z 23005KT 9999 SCT012 BKN090 25/22 A2973 RMK CB RN DST QUAD S W N=
200510122300 METAR MRLM 122300Z 22004KT 9999 RA SCT009 BKN090 24/22 A2975 RMK CB DST QUAD S W N=
200510130000 METAR MRLM 130000Z 23004KT 9999 RA SCT010 BKN090 23/22 A2977 RMK TSTM DST QUAD S=
200510130100 METAR MRLM NIL=
200510130200 METAR MRLM NIL=
200510130300 METAR MRLM NIL=
200510130400 METAR MRLM NIL=
200510130500 METAR MRLM NIL=
200510130600 METAR MRLM NIL=
200510130700 METAR MRLM NIL=
200510130800 METAR MRLM NIL=
200510130900 METAR MRLM NIL=
200510131000 METAR MRLM NIL=
200510131100 METAR MRLM NIL=
200510131200 METAR MRLM 131200Z 20004KT 9999 SCT030 SCT090 22/21 A2976=
200510131300 METAR MRLM 131300Z 20004KT 9999 FEW025 SCT100 BKN250 23/22 A2978=
200510131400 METAR MRLM 131400Z 20003KT 9999 FEW025 BKN250 26/23 A2980=
200510131500 METAR MRLM 131500Z 11005KT 9999 FEW025 BKN250 28/23 A2982=
200510131600 METAR MRLM 131600Z 08008KT 9999 FEW025 BKN250 28/23 A2981=
200510131700 METAR MRLM 131700Z 07007KT 9999 FEW025 BKN250 29/23 A2978 RMK RN DST SSW=
200510131800 METAR MRLM 131800Z 09009KT 9999 FEW025 BKN090 29/22 A2976 RMK TCU RN DST SSW SW W=
200510131900 METAR MRLM 131900Z 14004KT 9999 -DZ FEW025 BKN090 28/23 A2974 RMK TCU RN DST SSW SW W=
200510132000 METAR MRLM NIL=
200510132100 METAR MRLM 132100Z 00000KT 9999 DZ SCT035 BKN090 25/23 A2971=
200510132200 METAR MRLM 132200Z 00000KT 9999 DZ FEW035 BKN090 25/23 A2971 RMK CB DST S/SW RN ARND=
200510132300 METAR MRLM 132300Z 00000KT 9999 DZ FEW030 BKN090 25/24 A2974=
200510140000 METAR MRLM 140000Z 19004KT 9999 SCT035 BKN080 25/23 A2975=
200510140100 METAR MRLM NIL=
200510140200 METAR MRLM NIL=
200510140300 METAR MRLM NIL=
200510140400 METAR MRLM NIL=
200510140500 METAR MRLM NIL=
200510140600 METAR MRLM NIL=
200510140700 METAR MRLM NIL=
200510140800 METAR MRLM NIL=
200510140900 METAR MRLM NIL=
200510141000 METAR MRLM NIL=
200510141100 METAR MRLM NIL=
200510141200 METAR MRLM 141200Z 22004KT 9999 FEW025 BKN080 22/21 A2980=
200510141300 METAR MRLM 141300Z 24004KT 9999 FEW025 BKN090 23/22 A2981=
200510141400 METAR MRLM 141400Z 21003KT 9999 FEW025 BKN090 25/23 A2982=
200510141500 METAR MRLM 141500Z 00000KT 9999 FEW025 SCT090 BKN220 26/23 A2984 TCU RN DST ENE=
200510141600 METAR MRLM 141600Z 00000KT 9999 FEW025 SCT090 28/22 A2984 RMK CB DST ENE NE=
200510141700 METAR MRLM 141700Z 00000KT 9999 FEW025 SCT100 28/22 A2982 RMK CB RN DST ENE NE=
200510141800 METAR MRLM 141800Z 09003KT 9999 FEW025 SCT100 BKN220 28/23 A2979=
200510141900 METAR MRLM 141900Z 09004KT 9999 FEW024 BKN220 28/23 A2976 RMK CB DST E SE S SW RN S SW=
200510142000 METAR MRLM NIL=
200510142100 METAR MRLM 142100Z 10004KT 9999 FEW024 BKN220 29/24 A2972 RMK CB RN SE S SW W=
200510142200 METAR MRLM 142200Z 11007KT 9999 FEW024 SCT090 BKN220 28/23 A2973 RMK CB RN SE S SW W=
200510142300 METAR MRLM 142300Z 16003KT 9999 FEW030 SCT090 27/24 A2974 CB RN SE S SW=
200510150000 METAR MRLM 150000Z 00000KT 9999 FEW030 BKN080 26/24 A2974 RMK CB RN SE SW=
200510150100 METAR MRLM NIL=
200510150200 METAR MRLM NIL=
200510150300 METAR MRLM NIL=
200510150400 METAR MRLM NIL=
200510150500 METAR MRLM NIL=
200510150600 METAR MRLM NIL=
200510150700 METAR MRLM NIL=
200510150800 METAR MRLM NIL=
200510150900 METAR MRLM NIL=
200510151000 METAR MRLM NIL=
200510151100 METAR MRLM NIL=
200510151200 METAR MRLM 151200Z 00000KT 9999 FEW025 BKN090 23/22 A2977 RMK CB RN DST NE=
200510151300 METAR MRLM 151300Z 22004KT 9999 FEW025 BKN100 23/22 A2979 CB RN NE=
200510151400 METAR MRLM 151400Z 00000KT 9999 FEW025 BKN100 26/23 A2981 RMK CB RN NE=
200510151500 METAR MRLM 151500Z 04003KT 9999 FEW025 BKN230 27/23 A2982 RMK CB RN NE=
200510151600 METAR MRLM 151600Z 36003KT 9999 FEW030 SCT100 BKN250 27/23 A2981=
200510151700 METAR MRLM 151700Z 07004KT 9999 FEW025 SCT100 BKN250 28/23 A2978 RMK TCU RN S SW=
200510151800 METAR MRLM 151800Z 05004KT 9999 FEW024 SCT100 BKN240 28/23 A2975 RMK CB RN S SW W=
200510151900 METAR MRLM 151900Z 02004KT 9999 FEW024 SCT100 BKN240 28/23 A2973 RMK CB RN S SW W=
200510152000 METAR MRLM NIL=
200510152100 METAR MRLM 152100Z 23004KT 9999 +DZ SCT024 SCT080 26/23 A2972 RN ARND=
200510152200 METAR MRLM 152200Z 00000KT 5000 -RA BKN024 SCT080 24/23 A2972=
200510152300 METAR MRLM 152300Z 22003KT 9999 DZ FEW025 BKN080 24/23 A2973=
200510160000 METAR MRLM 160000Z 27003KT 9999 +DZ BKN024 SCT080 23/22 A2975=
200510160100 METAR MRLM NIL=
200510160200 METAR MRLM NIL=
200510160300 METAR MRLM NIL=
200510160400 METAR MRLM NIL=
200510160500 METAR MRLM NIL=
200510160600 METAR MRLM NIL=
200510160700 METAR MRLM NIL=
200510160800 METAR MRLM NIL=
200510160900 METAR MRLM NIL=
200510161000 METAR MRLM NIL=
200510161100 METAR MRLM NIL=
200510161200 METAR MRLM 161200Z 22005KT 9999 FEW025 SCT100 BKN250 22/21 A2977=
200510161300 METAR MRLM 161300Z 22003KT 9999 FEW025 BKN100 23/22 A2981=
200510161400 METAR MRLM 161400Z 26003KT 9999 FEW025 BKN100 26/22 A2981=
200510161500 METAR MRLM 161500Z 28010KT 9999 FEW025 SCT100 BKN250 28/23 A2984=
200510161600 METAR MRLM 161600Z 02003KT 9999 FEW025 BKN240 29/23 A2983=
200510161700 METAR MRLM 161700Z 02008KT 9999 FEW025 BKN240 29/23 A2980 TCU E NE=
200510161800 METAR MRLM 161800Z 36008KT 9999 FEW025 BKN240 29/23 A2977=
200510161900 METAR MRLM 161900Z 36007KT 9999 FEW024 BKN240 29/23 A2974=
200510162000 METAR MRLM NIL=
200510162100 METAR MRLM 162100Z 09003KT 9999 FEW025 BKN240 29/22 A2969=
200510162200 METAR MRLM 162200Z 02003KT 9999 FEW024 SCT090 BKN240 28/22 A2970=
200510162300 METAR MRLM 172300Z 00000KT 9999 TS DZ FEW018CB BKN040 27/24 A2972=
200510170000 METAR MRLM NIL=
200510170100 METAR MRLM NIL=
200510170200 METAR MRLM NIL=
200510170300 METAR MRLM NIL=
200510170400 METAR MRLM NIL=
200510170500 METAR MRLM NIL=
200510170600 METAR MRLM NIL=
200510170700 METAR MRLM NIL=
200510170800 METAR MRLM NIL=
200510170900 METAR MRLM NIL=
200510171000 METAR MRLM NIL=
200510171100 METAR MRLM NIL=
200510171200 METAR MRLM 171200Z 20003KT 9999 SCT045 BKN080 23/22 A2977=
200510171300 METAR MRLM 171300Z 21007KT 9999 -DZ SCT045 BKN090 24/22 A2978=
200510171400 METAR MRLM 171400Z 25003KT CAVOK 27/23 A2980 REDZ=
200510171500 METAR MRLM 171500Z 01003KT CAVOK 28/22 A2981=
200510171600 METAR MRLM 171600Z 02006KT 9999 FEW020 SCT100 BKN250 28/22 A2980=
200510171700 METAR MRLM 171700Z 03005KT 9999 FEW026 BKN250 28/22 A2979 TCU RN S SW=
200510171800 METAR MRLM 171800Z 03006KT 9999 FEW022 BKN250 29/23 A2976 CB RN S SW=
200510171900 METAR MRLM 171900Z 02005KT 9999 FEW022 BKN250 29/23 A2973 CB RN S SW=
200510172000 METAR MRLM NIL=
200510172100 METAR MRLM 172100Z 20003KT 9999 TS FEW022CB SCT080 BKN250 27/24 A2971 RMK CB RN DST SW SE W TS W=
200510172200 METAR MRLM 172200Z 23004KT 9999 DZ FEW024 BKN090 26/24 A2971 RETS RMK CB RN DST SE S SW W=
200510172300 METAR MRLM 172300Z 00000KT 9999 FEW025 BKN080 25/23 A2972 REDZ RMK RN DST SE S SW W=
200510180000 METAR MRLM 180000Z 21005KT 9999 FEW025 BKN080 24/22 A2973 RMK CB DST E SE WNW RN DST E SE S W=
200510180100 METAR MRLM NIL=
200510180200 METAR MRLM NIL=
200510180300 METAR MRLM NIL=
200510180400 METAR MRLM NIL=
200510180500 METAR MRLM NIL=
200510180600 METAR MRLM NIL=
200510180700 METAR MRLM NIL=
200510180800 METAR MRLM NIL=
200510180900 METAR MRLM NIL=
200510181000 METAR MRLM NIL=
200510181100 METAR MRLM NIL=
200510181200 METAR MRLM 181200Z 22003KT CAVOK 22/21 A2973 OVC200=
200510181300 METAR MRLM 181300Z 19005KT CAVOK 23/22 A2976=
200510181400 METAR MRLM 181400Z 00000KT CAVOK 26/22 A2977=
200510181500 METAR MRLM 181500Z 09003KT CAVOK 28/22 A2977=
200510181600 METAR MRLM 181600Z 07006KT CAVOK 29/22 A2977=
200510181700 METAR MRLM 181700Z 06007KT 9999 FEW030 BKN220 29/22 A2976=
200510181800 METAR MRLM 181800Z 09005KT 9999 FEW030 BKN220 29/23 A2973 RMK RN DST SSW=
200510181900 METAR MRLM 181900Z 09007KT 9999 FEW030 BKN220 29/23 A2970=
200510182000 METAR MRLM NIL=
200510182100 METAR MRLM 182100Z 10009KT 9999 FEW024 SCT100 BKN220 29/24 A2967=
200510182200 METAR MRLM 182200Z 14004KT 9999 FEW024 BKN090 29/24 A2969 RMK CB LINE DST SE S SW W=
200510182300 METAR MRLM 182300Z 13004KT 9999 SCT024 BKN080 27/24 A2971 RMK CB LINE DST SE S SW W=
200510190000 METAR MRLM NIL=
200510190100 METAR MRLM NIL=
200510190200 METAR MRLM NIL=
200510190300 METAR MRLM NIL=
200510190400 METAR MRLM NIL=
200510190500 METAR MRLM NIL=
200510190600 METAR MRLM NIL=
200510190700 METAR MRLM NIL=
200510190800 METAR MRLM NIL=
200510190900 METAR MRLM NIL=
200510191000 METAR MRLM NIL=
200510191100 METAR MRLM NIL=
200510191200 METAR MRLM NIL=
200510191300 METAR MRLM 191300Z 00000KT CAVOK 26/22 A2978 RMK SCT140 SCT280 TCU NW HZY=
200510191400 METAR MRLM 191400Z 00000KT 9999 FEW035 BKN140 29/22 A2981 RMK TCU DST NE SW HZY=
200510191500 METAR MRLM 191500Z VRB03KT 9999 FEW037 BKN140 30/23 A2980=
200510191600 METAR MRLM NIL=
200510191700 METAR MRLM 191700Z 05005KT 9999 FEW040 BKN150 30/22 A2976 RMK CB DST W=
200510191800 METAR MRLM 191800Z 00000KT 9999 FEW032 BKN130 30/22 A2980=
200510191900 METAR MRLM NIL=
200510192000 METAR MRLM 192000Z 03004KT 9999 FEW030 BKN110 29/23 A2976 RMK CB TS RN DST W=
200510192100 METAR MRLM 192100Z 00000KT 9999 FEW030 SCT045 BKN110 29/23 A2975 CB RN S W=
200510192200 METAR MRLM 192200Z 00000KT 9999 -DZ FEW020 OVC110 27/24 A2972 CB RN S W=
200510192300 METAR MRLM 192300Z 25005KT 99999 +DZ FEW020 OVC110 25/25 A2974 CB S SW=
200510200000 METAR MRLM 200000Z VRB03KT 9999 DZ FEW015 OVC110 24/23 A2976 CB RN S W=
200510200100 METAR MRLM NIL=
200510200200 METAR MRLM NIL=
200510200300 METAR MRLM NIL=
200510200400 METAR MRLM NIL=
200510200500 METAR MRLM NIL=
200510200600 METAR MRLM NIL=
200510200700 METAR MRLM NIL=
200510200800 METAR MRLM NIL=
200510200900 METAR MRLM NIL=
200510201000 METAR MRLM NIL=
200510201100 METAR MRLM NIL=
200510201200 METAR MRLM NIL=
200510201300 METAR MRLM 201300Z 00000KT CAVOK 26/23 A2977 CB E=
200510201400 METAR MRLM 201400Z 00000KT CAOK 28/23 A2979=
200510201500 METAR MRLM 201500Z 10008KT CAVOK 29/23 A2980=
200510201600 METAR MRLM 201600Z 10011KT 9999 FEW030 BKN110 30/23 A2980=
200510201700 METAR MRLM 201700Z 09009KT 9999 FEW028 SCT150 BKN280 30/24 A2979 CB S=
200510201800 METAR MRLM 201800Z 09012KT 9999 FEW032 SCT140 BKN280 30/24 A2977 RMK CB S SW=
200510201900 METAR MRLM 201900Z 08011KT 9999 FEW030 SCT140 BKN280 30/24 A2974 CBRN S SW W=
200510202000 METAR MRLM NIL=
200510202100 METAR MRLM 202100Z 08007KT 9999 BKN020 SCT130 29/25 A2972=
200510202200 METAR MRLM 202200Z 08007KT 9999 RA BKN020 SCT130 29/25 A2972 CB S W=
200510202300 METAR MRLM 202300Z 23004KT 8000 RA OVC007 25/24 A2976=
200510210000 METAR MRLM 210000Z 18005KT 9999 +DZ BKN007 SCT110 25/23 A2977=
200510210100 METAR MRLM NIL=
200510210200 METAR MRLM NIL=
200510210300 METAR MRLM NIL=
200510210400 METAR MRLM NIL=
200510210500 METAR MRLM NIL=
200510210600 METAR MRLM NIL=
200510210700 METAR MRLM NIL=
200510210800 METAR MRLM NIL=
200510210900 METAR MRLM NIL=
200510211000 METAR MRLM NIL=
200510211100 METAR MRLM NIL=
200510211200 METAR MRLM NIL=
200510211300 METAR MRLM 211300Z 000000KT CZVOK 24/22 A2978=
200510211400 METAR MRLM 211400Z 00000KT CAVOK 28/23 A2982 CB DST E SE=
200510211500 METAR MRLM 211500Z 00000KT 9999 FEW038 SCT140 BKN280 29/22 A2984=
200510211600 METAR MRLM 211600Z 01005KT 9999 FEW030 SCT130 30/22 A2983 CB DST NE E=
200510211700 METAR MRLM 211700Z 02006KT 9999 FEW032 BKN130 29/23 A2980 CB DST NE HZ ARND=
200510211800 METAR MRLM NIL=
200510211900 METAR MRLM 211900Z 35009KT 9999 FEW036 SCT130 BKN280 30/23 A2973=
200510212000 METAR MRLM NIL=
200510212100 METAR MRLM 212100Z 04005KT 9999 FEW030 BKN280 29/23 A2972 CB S=
200510212200 METAR MRLM 212200Z 07006KT 9999 FEW027 SCT110 BKN280 29/23 A2972 CB S W=
200510220000 METAR MRLM 220000Z VRB03KT CAVOK 26/23 A2975=
200510220100 METAR MRLM NIL=
200510220200 METAR MRLM NIL=
200510220300 METAR MRLM NIL=
200510220400 METAR MRLM NIL=
200510220500 METAR MRLM NIL=
200510220600 METAR MRLM NIL=
200510220700 METAR MRLM NIL=
200510220800 METAR MRLM NIL=
200510220900 METAR MRLM NIL=
200510221000 METAR MRLM NIL=
200510221100 METAR MRLM NIL=
200510221200 METAR MRLM NIL=
200510221300 METAR MRLM 221300Z 20004KT 9999 FEW025 SCT110 BKN270 23/22 A2979=
200510221400 METAR MRLM 221400Z 18004KT CAVOK 27/22 A2980 CB RN DST E=
200510221500 METAR MRLM 221500Z 12006KT CAVOK 28/23 A2981 CB RN DST E=
200510221600 METAR MRLM 221600Z 15007KT CAVOK 29/22 A2979 RMX FEW140 OVC270 CB/RN DST NE/E=
200510221700 METAR MRLM 221700Z 11013KT 9999 FEW035 SCT130 BKN270 30/23 A2977 CB DST S/S W W CB/RN DST NE=
200510221800 METAR MRLM 221800Z 08012KT 9999 FEW028 SCT110 BKN270 30/24 A2976 A2976 RMX CB DST S/W RN DST ENE HZY=
200510221900 METAR MRLM 221900Z 10015KT 9999 FEW030 SCT140 BKN280 30/24 A2973 RMX CB DST S/W RN DST W=
200510222000 METAR MRLM NIL=
200510222100 METAR MRLM 222100Z 10008KT 9999 FEW025 BKN100 29/24 A2972 RMK CB RN DST QUAD S W=
200510222200 METAR MRLM 222200Z 00000KT 9999 -DZ BKN020 SCT100 27/23 A2975 RMK CB RN DST QUAD S W=
200510222300 METAR MRLM 222300Z VRB03KT 9999 RA FEW013 OVC090 24/21 A2975 RMK CB DST QUAD S W=
200510230000 METAR MRLM 230000Z VRB03KT 9999 RA FEW010 OVC090 23/22 A2977 RMK CB DST QUAD S W=
200510230100 METAR MRLM NIL=
200510230200 METAR MRLM NIL=
200510230300 METAR MRLM NIL=
200510230400 METAR MRLM NIL=
200510230500 METAR MRLM NIL=
200510230600 METAR MRLM NIL=
200510230700 METAR MRLM NIL=
200510230800 METAR MRLM NIL=
200510230900 METAR MRLM NIL=
200510231000 METAR MRLM NIL=
200510231100 METAR MRLM NIL=
200510231200 METAR MRLM NIL=
200510231300 METAR MRLM 231300Z VRB03KT 9999 FEW010 BKN120 22/21 A2978 RMK CB DST E S LEVE HZY=
200510231400 METAR MRLM 231400Z 19006KT 9999 FEW015 BKN140 26/22 A2981 RMK CB DST NE E S SW=
200510231500 METAR MRLM 231500Z 10006KT 9999 FEW032 BKN140 28/22 A2983 RMK RN DST NE CB DST NE E S W=
200510231600 METAR MRLM 231600Z 11008KT 9999 FEW036 SCT150 30/23 A2983 RMK RN DST NE CB DST NE S SW=
200510231700 METAR MRLM 231700Z 08009KT 9999 FEW037 SCT150 30/22 A2980 RMK CB DST S SW W N NW NE=
200510231800 METAR MRLM 231800Z 08011KT 9999 FEW030 SCT150 30/23 A2979 RMK CB DST S W RN DST SW W=
200510231900 METAR MRLM 231900Z 07008KT 9999 FEW030 SCT090 BKN150 30/24 A2977 RMK CB DST QUAD S W RN DST SW W=
200510232000 METAR MRLM NIL=
200510232100 METAR MRLM 232100Z VRB03KT 9999 -DZ FEW010 SCT090 BKN140 27/25 A2976 RERA RMK CBS RN DST S W QDS=
200510232200 METAR MRLM 232200Z 00000KT 9999 SCT010 BKN100 26/24 A2976 CB S RN DST S/W=
200510232300 METAR MRLM 232300Z 21006KT 9999 SCT009 SCT090 24/22 A2979 RMK RN DST ESE SE NW DZ S SW=
200510240000 METAR MRLM 240000Z 18004KT 9999 -DZ SCT013 SCT090 23/21 A2981=
200510240100 METAR MRLM NIL=
200510240200 METAR MRLM NIL=
200510240300 METAR MRLM NIL=
200510240400 METAR MRLM NIL=
200510240500 METAR MRLM NIL=
200510240600 METAR MRLM NIL=
200510240700 METAR MRLM NIL=
200510240800 METAR MRLM NIL=
200510240900 METAR MRLM NIL=
200510241000 METAR MRLM NIL=
200510241100 METAR MRLM NIL=
200510241200 METAR MRLM NIL=
200510241300 METAR MRLM 241300Z 21004KT CAVOK 24/22 A2987 RMK SCT150 CB RN DST E HZ SE=
200510241400 METAR MRLM 241400Z 00000KT CAVOK 27/21 A2990 RMK SCT150 CBS RN DST E=
200510241500 METAR MRLM 241500Z 05005KT 9999 FEW030 BKN150 28/22 A2992 RMK CB DST RN ESE=
200510241600 METAR MRLM 241600Z 07004KT 9999 FEW028 SCT140 28/22 A2991 RMK HZ SE=
200510241700 METAR MRLM 241700Z 04004KT 9999 FEW028 SCT140 BKN280 28/22 A2989=
200510241800 METAR MRLM 241800Z 02005KT 9999 FEW030 BKN280 29/23 A2986 RMK CB DST S/SW/RN DST SW=
200510241900 METAR MRLM 241900Z 05005KT 9999 FEW028 BKN280 28/23 A2984 RMK CB DST S/W RN SW=
200510242000 METAR MRLM NIL=
200510242100 METAR MRLM 242100Z 07004KT 9999 SCT027 SCT110 BKN280 28/23 A2980 RMK CB RN S W=
200510242200 METAR MRLM 242200Z 12005KT 9999 SCT026 BKN090 28/23 A2981 RN CB RN S W=
200510242300 METAR MRLM 242300Z 15006KT 9999 SCT020 BKN090 27/23 A2982 RMK CB RN S W=
200510250000 METAR MRLM 250000Z VRB03KT 9999 SCT018 BKN090 26/23 A2984 RMK CB RN S W LTNG W=
200510250100 METAR MRLM NIL=
200510250200 METAR MRLM NIL=
200510250300 METAR MRLM NIL=
200510250400 METAR MRLM NIL=
200510250500 METAR MRLM NIL=
200510250600 METAR MRLM NIL=
200510250700 METAR MRLM NIL=
200510250800 METAR MRLM NIL=
200510250900 METAR MRLM NIL=
200510251000 METAR MRLM NIL=
200510251100 METAR MRLM NIL=
200510251200 METAR MRLM 251200Z 28004KT 4000 RA BKN022 SCT080 22/21 A2991 RETS=
200510251300 METAR MRLM 251300Z 24009KT 2000 RA OVC 020 21/20 A2995=
200510251400 METAR MRLM 251400Z 19005KT 9999 DZ BKN028 SCT080 21/21 A2995 RERA RN ARND=
200510251500 METAR MRLM 251500Z 21004KT 9999 BKN030 SCT080 23/21 A2995 REDZ RMK RN ARND=
200510251600 METAR MRLM 251600Z 00000KT 4000 -RA BKN025 SCT080 22/21 A2996=
200510251700 METAR MRLM 251700Z 28004KT 2000 RA OVC025 22/21 A2996=
200510251800 METAR MRLM 251800Z 24004KT 4000 RA BKN024 SCT080 22/21 A2992=
200510251900 METAR MRLM 251900Z 24004KT 4000 RA BKN024 SCT080 22/21 A2882=
200510252000 METAR MRLM NIL=
200510252100 METAR MRLM 252100Z 26006KT 4000 -RA BKN030 SCT080 22/20 A2987=
200510252200 METAR MRLM 252200Z 26005KT 5000 -RA BKN028 21/20 A2989=
200510252300 METAR MRLM 252300Z 26005KT 8000 DZ BKN030 SCT080 21/20 A2989=
200510260000 METAR MRLM 260000Z 30004KT 6000 -RA BKN260 SCT080 21/20 A2991=
200510260100 METAR MRLM NIL=
200510260200 METAR MRLM NIL=
200510260300 METAR MRLM NIL=
200510260400 METAR MRLM NIL=
200510260500 METAR MRLM NIL=
200510260600 METAR MRLM NIL=
200510260700 METAR MRLM NIL=
200510260800 METAR MRLM NIL=
200510260900 METAR MRLM NIL=
200510261000 METAR MRLM NIL=
200510261100 METAR MRLM NIL=
200510261200 METAR MRLM 261200Z 29009KT 9999 -DZ SCT040 BKN080 23/19 A2985 RMK RN DST ARND=
200510261300 METAR MRLM 261300Z 29004KT 9999 BKN030 SCT080 23/20 A2988=
200510261400 METAR MRLM 261400Z 25007KT 3000 RA BKN024 21/20 A2991=
200510261500 METAR MRLM 261500Z 28008KT 7000 -RA BKN024 SCT080 22/20 A2991=
200510261600 METAR MRLM 261600Z 24010KT 8000 -RA FEW015 BKN024 22/21 A2991=
200510261700 METAR MRLM 261700Z 23012KT 8000 +DZ BKN024 23/21 A2988=
200510261800 METAR MRLM 261800Z 26008KT 3000 RA BKN022 22/20 A2986=
200510261900 METAR MRLM 261900Z 25010KT 7000 -RA BKN024 SCT080 22/20 A2983=
200510262100 METAR MRLM 262100Z 27010KT 8000 +DZ BKN030 SCT080 22/20 A2979=
200510262200 METAR MRLM 262200Z 26009KT 9999 -DZ BKN040 SCT090 22/19 A2980 RN ARND=
200510262300 METAR MRLM 262300Z 25007KT 7000 +DZ BKN025 22/20 A2982 RN ARND=
200510270000 METAR MRLM NIL=
200510270100 METAR MRLM NIL=
200510270200 METAR MRLM NIL=
200510270300 METAR MRLM NIL=
200510270400 METAR MRLM NIL=
200510270500 METAR MRLM NIL=
200510270600 METAR MRLM NIL=
200510270700 METAR MRLM NIL=
200510270800 METAR MRLM NIL=
200510270900 METAR MRLM NIL=
200510271000 METAR MRLM NIL=
200510271100 METAR MRLM NIL=
200510271200 METAR MRLM NIL=
200510271300 METAR MRLM 271300Z 28006KT CAVOK 24/19 A2983=
200510271400 METAR MRLM 271400Z 25009KT CAVOK 25/19 A2985 SCT100 BKN140 CB RN N NE=
200510271500 METAR MRLM 271500Z 29011KT CAVOK 26/19 A2986 FEW090 SCT140 BKN270=
200510271600 METAR MRLM 271600Z 28014KT CAVOK 26/20 A2986 FEW100 SCT150 BKN270=
200510271700 METAR MRLM 271700Z 29012KT CAVOK 28/20 A2985 FEW110 SCT150 BKN270=
200510271800 METAR MRLM 271800Z 29009KT CAVOK 28/20 A2979 SCT130=
200510271900 METAR MRLM 271900Z 29010KT 9999 FEW040 BKN140 29/21 A2976 CB S SW=
200510272000 METAR MRLM NIL=
200510272100 METAR MRLM 272100Z 31013KT 9999 FEW035 BKN140 28/21 A2974 RMK CB DST S SW=
200510272200 METAR MRLM 272200Z 31007KT 9999 FEW32 BKN140 28/2 A2977 RMK CB RN DST S=
200510272300 METAR MRLM 272300Z 00000KT 9999 FEW026 BKN130 27/22 A2978 RMK CB RN DST S=
200510280000 METAR MRLM 280000Z VRB03KT 9999 FEW020 SCT140 BKN280 25/21 A2979 RMK CB DST QUAD S=
200510280100 METAR MRLM NIL=
200510280200 METAR MRLM NIL=
200510280300 METAR MRLM NIL=
200510280400 METAR MRLM NIL=
200510280500 METAR MRLM NIL=
200510280600 METAR MRLM NIL=
200510280700 METAR MRLM NIL=
200510280800 METAR MRLM NIL=
200510280900 METAR MRLM NIL=
200510281000 METAR MRLM NIL=
200510281100 METAR MRLM NIL=
200510281200 METAR MRLM NIL=
200510281300 METAR MRLM 281300Z 25010KT CAVOK 25/20 A2984 RMK CB RN DST W=
200510281400 METAR MRLM 281400Z 28013KT CAVOK 27/21 A2987 RMK LEVE HZY=
200510281500 METAR MRLM 281500Z 29010KT 9999 FEW038 BKN270 28/21 A2987 RMK LEVE HZY=
200510281600 METAR MRLM 281600Z 30012KT 9999 FEW042 BKN280 29/20 A2986 RMK LEVE HZY=
200510281700 METAR MRLM 281700Z 30012KT 9999 FEW05 OVC280 29/20 A2984 RMK LEVE HZY=
200510281800 METAR MRLM 281800Z 30012KT CAVOK 30/19 A2981 RMK CB DST S=
200510281900 METAR MRLM 281900Z 30011KT CAVOK 30/19 A2978 RMK CB RN DST SE S=
200510282000 METAR MRLM NIL=
200510282100 METAR MRLM 282100Z 30013KT CAVOK 30/21 A2975 RMK FEW060 OVC280 CB SE HZY=
200510282200 METAR MRLM 282200Z 30004KT CAVOK 29/21 A2976 RMK FEW090 OVC280 CB SW HZY=
200510282300 METAR MRLM 282300Z VRB03KT CAVOK 28/21 A2976 RMK CBS DST S SW SCT090 SCT280 HZY=
200510290000 METAR MRLM 290000Z 00000KT CAVOK 26/22 A2977 RMK SCT090 SCT280 CB S DST S SW HZY=
200510290100 METAR MRLM NIL=
200510290200 METAR MRLM NIL=
200510290300 METAR MRLM NIL=
200510290400 METAR MRLM NIL=
200510290500 METAR MRLM NIL=
200510290600 METAR MRLM NIL=
200510290700 METAR MRLM NIL=
200510290800 METAR MRLM NIL=
200510290900 METAR MRLM NIL=
200510291000 METAR MRLM NIL=
200510291100 METAR MRLM NIL=
200510291200 METAR MRLM 291200Z 22003KT CAVOK 23/21 A2980=
200510291300 METAR MRLM 291300Z 23003KT CAVOK 26/21 A2983=
200510291400 METAR MRLM 291400Z 00000KT CAVOK 28/21 A2984 RMK OVC250=
200510291500 METAR MRLM 291500Z 00000KT CAVOK 29/22 A2985=
200510291600 METAR MRLM 291600Z 02008KT CAVOK 29/23 A2983 RMK OVC250=
200510291700 METAR MRLM 291700Z 31009KT CAVOK 30/22 A2980 RMK OVC250=
200510291800 METAR MRLM 291800Z 02009KT 9999 SCT030 BKN250 30/24 A2978 RMK RN S SW=
200510291900 METAR MRLM 291900Z 02008KT 9999 FEW025 SCT080 29/24 A2975=
200510292000 METAR MRLM NIL=
200510292100 METAR MRLM 292100Z 14004KT 9999 BKN040 SCT080 27/23 A2972 RMK RN E SW S=
200510292200 METAR MRLM 292200Z 18003KT 9999 2000W DZ BKN028 SCT080 26/23 A2973 RMK RASH W NW N=
200510292300 METAR MRLM 292300Z 18003KT 9999 SCT030 SCT080 26/24 A2974 RERA RN ARND=
200510300000 METAR MRLM 300000Z 00000KT 9999 BKN028 SCT080 25/24 A2975 RMK RN ARND=
200510300100 METAR MRLM NIL=
200510300200 METAR MRLM NIL=
200510300300 METAR MRLM NIL=
200510300400 METAR MRLM NIL=
200510300500 METAR MRLM NIL=
200510300600 METAR MRLM NIL=
200510300700 METAR MRLM NIL=
200510300800 METAR MRLM NIL=
200510300900 METAR MRLM NIL=
200510301000 METAR MRLM NIL=
200510301100 METAR MRLM NIL=
200510301200 METAR MRLM NIL=
200510301300 METAR MRLM 301300Z 00000KT CAVOK 25/23 A2981=
200510301400 METAR MRLM 301400Z 17003KT CAVOK 27/22 A2983=
200510301500 METAR MRLM 301500Z 10004KT 9999 FE2030 BKN230 28/24 A2987=
200510301600 METAR MRLM 301600Z 11004KT 9999 FEW030 BKN100 29/22 A2984=
200510301700 METAR MRLM 301700Z 10009KT 9999 FEW030 BKN090 29/23 A2982 RN S SW=
200510301800 METAR MRLM 301800Z 11008KT 9999 FEW030 BKN090 28/23 A2979 RN S SW=
200510301900 METAR MRLM 301900Z 11008KT 9999 FEW030 BKN090 29/22 A2977 RN S SW=
200510302000 METAR MRLM NIL=
200510302100 METAR MRLM 302100Z 11008KT 9999 FEW030 BKN080 29/21 A2973=
200510302200 METAR MRLM 302200Z 18004KT 6000 -RA SCT028 SCT080 25/22 A2974=
200510302300 METAR MRLM 302300Z 22005KT 9999 SCT028 SCT080 24/23 A2975=
200510310000 METAR MRLM 310000Z 21005KT 9999 -DZ SCT024 SCT080 24/22 A2977=
200510310100 METAR MRLM NIL=
200510310200 METAR MRLM NIL=
200510310300 METAR MRLM NIL=
200510310400 METAR MRLM NIL=
200510310500 METAR MRLM NIL=
200510310600 METAR MRLM NIL=
200510310700 METAR MRLM NIL=
200510310800 METAR MRLM NIL=
200510310900 METAR MRLM NIL=
200510311000 METAR MRLM NIL=
200510311100 METAR MRLM NIL=
200510311200 METAR MRLM NIL=
200510311300 METAR MRLM 311300Z VRB03KT 9999 FEW010 BKN110 25/23 A2983 CB RN DST NW N NE E HZ ARND=
200510311400 METAR MRLM 311400Z 00000KT 9999 BKN018 SCT090 27/23 A2986 CB RN DST N NE E=
200510311500 METAR MRLM 311500Z VRB03KT 9999 SCT020 SCT120 27/23 A2986 CB RN DST N=
200510311700 METAR MRLM 311700Z 01009KT 9999 BKN015 SCT100 27/24 A2985 CB RN DST N=
200510311800 METAR MRLM 311800Z 36009KT 9999 SCT019 SCT140 27/24 A2982 CB RN N RN DST W SW=
200510311900 METAR MRLM 311900Z 35006KT 9999 BKN017 27/24 A2979=
200510312000 METAR MRLM NIL=
200510312100 METAR MRLM 312100Z 34009KT 9999 SCT020 SCT150 27/23 A2976 CB RN S W N=
200510312200 METAR MRLM 312200Z 31007KT 9999 BKN020 27/23 A2978 CB RN S W=
200510312300 METAR MRLM 312300Z 31006KT 9999 SCT016 SCT150 26/23 A2978 CB RN S W=
200511010000 METAR MRLM NIL=
200511010100 METAR MRLM NIL=
200511010200 METAR MRLM NIL=
200511010300 METAR MRLM NIL=
200511010400 METAR MRLM NIL=
200511010500 METAR MRLM NIL=
200511010600 METAR MRLM NIL=
200511010700 METAR MRLM NIL=
200511010800 METAR MRLM NIL=
200511010900 METAR MRLM NIL=
200511011000 METAR MRLM NIL=
200511011100 METAR MRLM NIL=
200511011200 METAR MRLM NIL=
200511011300 METAR MRLM 011300Z 25004KT 9999 FEW025 BKN090 25/22 A2987=
200511011400 METAR MRLM 011400Z 30004KT CAVOK 26/23 A2988 BKN090=
200511011800 METAR MRLM 011800Z 33008KT 9999 +DZ BKN016 OVC100 27/23 A2985 CB ARND=
200511011900 METAR MRLM 011900Z 33008KT 9999 DZ BKN020 SCT120 27/23 A2983 CB ARND=
200511012000 METAR MRLM NIL=
200511012100 METAR MRLM 012100Z 32005KT 9999 FEW020 SCT120 BKN270 27/23 A2978 RMK HZY CB DST ARND=
200511012200 METAR MRLM 012200Z VRB03KT 9999 FEW018 SCT150 BKN270 27/23 A2997 RMR CB DST SE NW=
200511012300 METAR MRLM O12300Z VRB03KT 9999 FEW015 SCT140 BKN260 27/23 A2979 RMK CB DST SE NW=
200511020000 METAR MRLM 020000Z 00000KT 9999 FEW012 SCT130 BKN260 26/23 A2981 RMK CB DST NW N SE HZY=
200511020100 METAR MRLM NIL=
200511020200 METAR MRLM NIL=
200511020300 METAR MRLM NIL=
200511020400 METAR MRLM NIL=
200511020500 METAR MRLM NIL=
200511020600 METAR MRLM NIL=
200511020700 METAR MRLM NIL=
200511020800 METAR MRLM NIL=
200511020900 METAR MRLM NIL=
200511021000 METAR MRLM NIL=
200511021100 METAR MRLM NIL=
200511021200 METAR MRLM 021200Z 30004KT 9999 FEW015 BKN030 24/23 A2986=
200511021300 METAR MRLM 021300Z 29003KT 4000 RA FEW015 BKN030 24/23 A2988=
200511021400 METAR MRLM 021400Z 24005KT 9999 FEW025 BKN040 24/23 A2991 RERA RMK RN DST ARND=
200511021500 METAR MRLM 021500Z 23003KT 9999 FEW015 BKN045 25/23 A2991 RMK RN DST ARND=
200511021600 METAR MRLM 021600Z 25004KT 9999 3000SW +DZ FEW012 BKN026 24/23 A2993 RERA RMK RN ARND=
200511021700 METAR MRLM 021700Z 25004KT 8000 +DZ SCT022 BKN080 24/22 A2990 RMK RN ARND=
200511021800 METAR MRLM 021800Z 26007KT 5000 RA OVC022 24/23 A2988=
200511021900 METAR MRLM 211900Z 27005KT 9999 DZ SCT015 BKN090 24/23 A2985 RERA RMK RN ARND=
200511022000 METAR MRLM NIL=
200511022100 METAR MRLM 022100Z 27006KT 9999 FEW015 BKN090 27/22 A2980 REDZ RMK RN W NW N=
200511022200 METAR MRLM 022200Z 26007KT 9999 SCT015 BKN090 24/22 A2980 RMK RN DST W NW N NE=
200511022300 METAR MRLM 022300Z 00000KT 9999 SCT014 BKN090 24/22 A2994 RN W NW N NE=
200511030000 METAR MRLM 030000Z 25003KT 9999 SCT015 BKN080 23/22 A2985 RMK RN DST W NW N NE=
200511030100 METAR MRLM NIL=
200511030200 METAR MRLM NIL=
200511030300 METAR MRLM NIL=
200511030400 METAR MRLM NIL=
200511030500 METAR MRLM NIL=
200511030600 METAR MRLM NIL=
200511030700 METAR MRLM NIL=
200511030800 METAR MRLM NIL=
200511030900 METAR MRLM NIL=
200511031000 METAR MRLM NIL=
200511031100 METAR MRLM NIL=
200511031200 METAR MRLM 031200Z 22003KT 9999 DZ OVC045 23/21 A2988=
200511031300 METAR MRLM 031300Z 23003KT 9999 SCT040 SCT090 23/21 A2989 REDZ RMK RN DST W WNW N NE=
200511031400 METAR MRLM 031400Z 27005KT 9999 SCT030 BKN100 26/21 A2990 RMK CB W NW N NE TS NNE=
200511031500 METAR MRLM 031500Z 25005KT 9999 FEW030 BKN100 25/22 A2991=
200511031600 METAR MRLM 031600Z 28009KT 9999 FEW030 BKN090 24/21 A2992 CB W NW N NE TS DST NE=
200511031700 METAR MRLM 031700Z 29006KT 9999 SCT030 BKN080 25/22 A2992 RMK CB DST RN NW N NE=
200511031800 METAR MRLM 031800Z 27006KT 9999 BKN035 SCT080 24/21 A2990 RMK CB RN DST W NW N NE E=
200511031900 METAR MRLM NIL=
200511032000 METAR MRLM NIL=
200511032100 METAR MRLM 032100Z 27003KT 9999 +DZ OVC026 24/22 A2985 RMK CB NW N NE=
200511032200 METAR MRLM 032200Z 25004KT 8000 DZ BKN024 SCT080 24/22 A2985 RMK CB NW N NE RN ARND=
200511032300 METAR MRLM NIL=
200511040000 METAR MRLM 040000Z 00000KT 9999 SCT018 SCT080 23/22 A2985 RMK CB NW N NE RN ARND=
200511040100 METAR MRLM NIL=
200511040200 METAR MRLM NIL=
200511040300 METAR MRLM NIL=
200511040400 METAR MRLM NIL=
200511040500 METAR MRLM NIL=
200511040600 METAR MRLM NIL=
200511040700 METAR MRLM NIL=
200511040800 METAR MRLM NIL=
200511040900 METAR MRLM NIL=
200511041000 METAR MRLM NIL=
200511041100 METAR MRLM NIL=
200511041200 METAR MRLM NIL=
200511041300 METAR MRLM 041300Z 00000KT 9999 FEW010 SCT090 OVC150 23/21 A2986 RMK CB RN N/E=
200511041400 METAR MRLM 041400Z 00000KT 9999 FEW012 BKN090 24/22 A2988 RMK CB RN N E=
200511041500 METAR MRLM 041500Z 00000KT 9999 FEW017 BKN090 25/22 A2989 RMK CB/RN DST N E=
200511041600 METAR MRLM 041600Z 00000KT 9999 FEW020 BKN090 27/22 A2989 RMK CB RN N E=
200511041700 METAR MRLM 041700Z 33007KT 9999 FEW027 BKN080 27/22 A2987 RMK CB RN N E=
200511041800 METAR MRLM 041800Z 35008KT 9999 FEW027 SCT140 BKN260 28/23 A2984 CB RN N E=
200511041900 METAR MRLM 041900Z 36009KT 9999 SCT023 SCT150 BKN2690 28/23 A2982 RMK CB RN N E S SW=
200511042000 METAR MRLM NIL=
200511042100 METAR MRLM 042100Z 00000KT 9999 FEW017 SCT110 BKN220 25/22 A2978 CB DST RN ARND=
200511042200 METAR MRLM 042200Z VRB03KT 9999 -DZ SCT016 SCT025 25/22 A2980=
200511042300 METAR MRLM 042300Z 00000KT 9999 +DZ SCT009 BKN025 24/22 A2981 CB DST ARND=
200511050000 METAR MRLM 050000Z 00000KT 9999 DZ SCT009 BKN025 24/22 A2981 CB DST ARND=
200511050100 METAR MRLM NIL=
200511050200 METAR MRLM NIL=
200511050300 METAR MRLM NIL=
200511050400 METAR MRLM NIL=
200511050500 METAR MRLM NIL=
200511050600 METAR MRLM NIL=
200511050700 METAR MRLM NIL=
200511050800 METAR MRLM NIL=
200511050900 METAR MRLM NIL=
200511051000 METAR MRLM NIL=
200511051100 METAR MRLM NIL=
200511051200 METAR MRLM NIL=
200511051300 METAR MRLM 051300Z 00000KT 9999 FEW007 BKN140 23/22 A2982 CBS RN DST N=
200511051400 METAR MRLM 051400Z 00000KT 9999 FEW035 BKN140 25/22 A2984=
200511051500 METAR MRLM 051500Z VRB03KT 9999 FEW027 BKN140 27/22 A2985 TCU DST N=
200511051600 METAR MRLM 051600Z 35009KT 9999 SCT030 SCT140 28/22 A2985 TCU DST N CB DST E=
200511051700 METAR MRLM 051700Z 35007KT 9999 FEW030 SCT140 28/22 A2983 CB DST E=
200511051800 METAR MRLM 051800Z 36006KT 9999 FEW029 SCT140 28/22 A2981=
200511051900 METAR MRLM 051900Z 01006KT 9999 FEW030 BKN140 28/22 A2977 CB DST N E S=
200511052000 METAR MRLM NIL=
200511052100 METAR MRLM 052100Z 36008KT 9999 BKN020 SCT140 28/23 A2976 CB RN DST S SW SE=
200511052200 METAR MRLM 052200Z 01004KT 9999 OVC019 27/23 A2977 RN DST S W=
200511052300 METAR MRLM 052300Z 00000KT 9999 OVC017TCU 26/23 A2977 VIS 5000 N NE E/RA=
200511060000 METAR MRLM 060000Z 19005KT 5000 +TSRA OVC015 24/22 A2981=
200511060100 METAR MRLM NIL=
200511060200 METAR MRLM NIL=
200511060300 METAR MRLM NIL=
200511060400 METAR MRLM NIL=
200511060500 METAR MRLM NIL=
200511060600 METAR MRLM NIL=
200511060700 METAR MRLM NIL=
200511060800 METAR MRLM NIL=
200511060900 METAR MRLM NIL=
200511061000 METAR MRLM NIL=
200511061100 METAR MRLM NIL=
200511061200 METAR MRLM NIL=
200511061300 METAR MRLM NIL=
200511061400 METAR MRLM 061400Z 00000KT 9999 -DZ FEW026 BKN080 23/21 A2988 RN DST ARND=
200511061500 METAR MRLM 061500Z 25003KT 9999 FEW030 BKN090 25/22 A2986 REDZ=
200511061600 METAR MRLM 061600Z 00000KT 9999 FEW025 BKN100 26/23 A2985 RN DST N NE=
200511061700 METAR MRLM 061700Z 01003KT 9999 FEW025 BKN090 27/23 A2984=
200511061800 METAR MRLM 061800Z 01003KT 9999 FEW025 BKN080 28/22 A2982 RN DST NW N NE=
200511061900 METAR MRLM 061900Z 34007KT 9999 FEW025 BKN080 27/21 A2981 RN N NE ENE=
200511062000 METAR MRLM NIL=
200511062100 METAR MRLM 062100Z 34005KT 9999 OVC030 26/22 A2976 RMK TCU DST SE RN DST E SE=
200511062200 METAR MRLM 062200Z 29003KT 9999 SCT030 BKN080 26/22 A2976=
200511062300 METAR MRLM 062300Z 00000KT 9999 3000NW -RA SCT030 BKN080 25/23 A2977=
200511070000 METAR MRLM NIL=
200511070100 METAR MRLM NIL=
200511070200 METAR MRLM NIL=
200511070300 METAR MRLM NIL=
200511070400 METAR MRLM NIL=
200511070500 METAR MRLM NIL=
200511070600 METAR MRLM NIL=
200511070700 METAR MRLM NIL=
200511070800 METAR MRLM NIL=
200511070900 METAR MRLM NIL=
200511071000 METAR MRLM NIL=
200511071100 METAR MRLM NIL=
200511071200 METAR MRLM NIL=
200511071300 METAR MRLM 071300Z 00000KT 9999 BKN030 SCT080 23/21 A2983 RMK RN CB DST NW N NE E /TS DST NNE=
200511071400 METAR MRLM 071400Z 00000KT 9999 -DZ SCT015 BKN030 23/21 A2986 RERA RMK LINEA CB DST NW N NE RN DST ARND=
200511071500 METAR MRLM 071500Z 00000KT 9999 SCT030 BKN080 23/21 A2981 REDA RMK RN DST ARND=
200511071600 METAR MRLM 071600Z 00000KT 3000 RA BKN025 SCT080 23/22 A2987 RMK CB DST N NE E=
200511071700 METAR MRLM 071700Z 00000KT 8000 -RA SCT025 BKN080 23/22 A2986 RMK CB DST NW N NE=
200511071800 METAR MRLM 071800Z 19003KT 8000 -RA SCT030 BKN080 23/22 A2982 RMK CB DST N NE=
200511071900 METAR MRLM 071900Z 34004KT 9999 FEW030 BKN090 24/23 A2979 RERA RMK CB DST NW N NE RN ARND=
200511072000 METAR MRLM NIL=
200511072100 METAR MRLM 072100Z 28009KT 9999 FEW028 BKN090 24/22 A2977 RMK RN W NW N NE=
200511072200 METAR MRLM 072200Z 24005KT 9999 SCT028 BKN100 24/22 A2978 RMK RN DST ARND=
200511072300 METAR MRLM 072300Z 29008KT 9999 FEW025 SCT080 BKN130 24/22 A2979 RMK CB DST NW N NE RN ARND=
200511080000 METAR MRLM 080000Z 30003KT 9999 FEW025 SCT045 BKN100 24/22 A2979 RMK CB DST NW N NE RN ARND=
200511080100 METAR MRLM NIL=
200511080200 METAR MRLM NIL=
200511080300 METAR MRLM NIL=
200511080400 METAR MRLM NIL=
200511080500 METAR MRLM NIL=
200511080600 METAR MRLM NIL=
200511080700 METAR MRLM NIL=
200511080800 METAR MRLM NIL=
200511080900 METAR MRLM NIL=
200511081000 METAR MRLM NIL=
200511081100 METAR MRLM NIL=
200511081200 METAR MRLM NIL=
200511081300 METAR MRLM 081300Z 21006KT 4000 -TSRA SCT010 BKN015 22/21 A2983 RMK TS E=
200511081400 METAR MRLM 081400Z 23005KT 4000 -RA OVC012 22/21 A2987 RMK RETS=
200511081500 METAR MRLM 081500Z 22004KT 7000 -RA FEW004 BKN020 22/21 A2987 RMK CB DST E=
200511081600 METAR MRLM 081600Z 24005KT 9999 -DZ BKN025 SCT110 22/21 A2987 RMK CBS RN DST N/E=
200511081700 METAR MRLM 081700Z 00000KT 9999 DZ FEW004 OVC080 23/22 A2983 RMK CB RN DST ARND=
200511081800 METAR MRLM 081800Z VRB03KT 9999 FEW025 BKN090 24/23 A2981 RMK CB RN DST ARND=
200511081900 METAR MRLM 081900Z 00000KT 9999 RA SCT015 BKN100 24/22 A2980 RMK CBS DST ARND TSTM DST E=
200511082000 METAR MRLM NIL=
200511082100 METAR MRLM 082100Z 00000KT 9999 +DZ FEW015 SCT100 OVC130 23/22 A2977 RMK CB E S=
200511082200 METAR MRLM 082200Z 00000KT 9999 -DZ BKN080 OVC130 23/22 A2978=
200511082300 METAR MRLM 082300Z 00000KT 9999 SCT035 BKN090 23/22 A2979 CB RN N E=
200511090000 METAR MRLM 090000Z 00000KT 9999 SCT030 SCT090 BKN130 23/22 A2979 RMK CB RN N E=
200511090100 METAR MRLM NIL=
200511090200 METAR MRLM NIL=
200511090300 METAR MRLM NIL=
200511090400 METAR MRLM NIL=
200511090500 METAR MRLM NIL=
200511090600 METAR MRLM NIL=
200511090700 METAR MRLM NIL=
200511090800 METAR MRLM NIL=
200511090900 METAR MRLM NIL=
200511091000 METAR MRLM NIL=
200511091100 METAR MRLM NIL=
200511091200 METAR MRLM NIL=
200511091300 METAR MRLM 091300Z 28006KT 9999 DZ FEW012 SCT070 BKN090 24/22 A2984 RMK RN W CB N=
200511091400 METAR MRLM 091400Z 28007KT 9999 +DZ SCT015 BKN090 24/22 A2985=
200511091500 METAR MRLM 091500Z 26007KT 9999 FEW030 SCT100 24/18 A3003 CB RN N E=
200511091600 METAR MRLM 091600Z 30008KT 3000 -RA SCT010 BKN090 24/22 A2988=
200511091700 METAR MRLM 091700Z 00000KT 9999 +DZ BKN007 SCT090 24/22 A2985=
200511091800 METAR MRLM 091800Z 26005KT 9999 DZ SCT006 BKN025 24/23 A2982 RMK CB E RN ARND=
200511091900 METAR MRLM 091900Z 28005KT 8000 RA BKN007 24/23 A29769 RMK VSBY S UNL=
200511092000 METAR MRLM NIL=
200511092100 METAR MRLM 092100Z 27006KT 9999 SCT020 SCT090 OVC150 25/22 A2975 CB DST ARND RN DST W N NE E=
200511092200 METAR MRLM NIL=
200511092300 METAR MRLM 092300Z VRB03KT 9999 DZ FEW012 BKN080 25/22 A2977 RN ARND CB DST NE=
200511100000 METAR MRLM 100000Z 00000KT 9999 FEW012 FEW012 SCT090 BKN150 24/22 A2978=
200511100100 METAR MRLM NIL=
200511100200 METAR MRLM NIL=
200511100300 METAR MRLM NIL=
200511100400 METAR MRLM NIL=
200511100500 METAR MRLM NIL=
200511100600 METAR MRLM NIL=
200511100700 METAR MRLM NIL=
200511100800 METAR MRLM NIL=
200511100900 METAR MRLM NIL=
200511101000 METAR MRLM NIL=
200511101100 METAR MRLM NIL=
200511101200 METAR MRLM NIL=
200511101300 METAR MRLM 101300Z 00000KT 9999 -DZ BKN028 SCT080 24/23 A2981 RERA=
200511101400 METAR MRLM 101400Z 28003KT 9999 3000NW DZ BKN028 SCT080 25/23 A2986 RN ARND=
200511101500 METAR MRLM 101500Z 29003KT 9999 -DZ SCT020 SCT080 26/23 A2986 RN DST ARND=
200511101600 METAR MRLM 101600Z 30005KT 9999 BKN030 SCT080 26/23 A2985 REDZ RN DST ARND=
200511101700 METAR MRLM 101700Z 32008KT 9999 3000NW +DZ BKN020 SCT080 26/23 A2985 RN ARND=
200511101800 METAR MRLM 101800Z 30006KT 3000 RA BKN022 25/23 A2980=
200511101900 METAR MRLM 101900Z 29004KT 7000 +DZ SCT020 SCT080 24/23 A2978 RN ARND=
200511102000 METAR MRLM NIL=
200511102100 METAR MRLM 102100Z 01007KT 3000 -RA BKN015 24/22 A2976 TCU ARND=
200511102200 METAR MRLM 102200Z 27005KT 7000 -RA FEW014 BKN035 23/22 A2976=
200511102300 METAR MRLM 102300Z 00000KT 7000 -DZ BKN024 SCT080 23/22 A2977 RN ARND=
200511110000 METAR MRLM 110000Z 28003KT 7000 +DZ BKN025 SCT080 23/22 A2979 RN ARND=
200511110100 METAR MRLM NIL=
200511110200 METAR MRLM NIL=
200511110300 METAR MRLM NIL=
200511110400 METAR MRLM NIL=
200511110500 METAR MRLM NIL=
200511110600 METAR MRLM NIL=
200511110700 METAR MRLM NIL=
200511110800 METAR MRLM NIL=
200511110900 METAR MRLM NIL=
200511111000 METAR MRLM NIL=
200511111100 METAR MRLM NIL=
200511111200 METAR MRLM 111200Z 00000KT 7000 -RA BKN028 SCT080 22/21 A2981=
200511111300 METAR MRLM 111300Z 00000KT 7000 -RA SCT025 BKN080 22/21 A2984=
200511111400 METAR MRLM 111400Z 00000KT 7000 RA BKN025 SCT080 23/22 A2986=
200511111500 METAR MRLM 111500Z 21003KT 7000 RA BKN028 SCT080 23/22 A2987=
200511111600 METAR MRLM 111600Z 30003KT 7000 -RA BKN026 SCT080 23/22 A2986=
200511111700 METAR MRLM 111700Z 27004KT 9999 3000NW +DZ BKN030 SCT090 23/22 A2985 TCU NW N=
200511111800 METAR MRLM 111800Z 27007KT 9999 -DZ SCT015 SCT080 24/23 A2980 CB W NW=
200511111900 METAR MRLM 111900Z 26004KT 9999 DZ BKN020 SCT080 25/22 A2978 CB W NW N RN ARND=
200511112000 METAR MRLM NIL=
200511112100 METAR MRLM 112100Z 27004KT 9999 FEW020 BKN090 27/22 A2974 REDZ RMK TCU DST E S SW RN DST W NW N=
200511112200 METAR MRLM 112200Z 32006KT 9999 SCT024 BKN090 26/22 A2976 RMK RN DST NW N=
200511112300 METAR MRLM 112300Z 28004KT 9999 SCT024 BKN090 25/22 A2977 RMK RN DST ARND=
200511120000 METAR MRLM 120000Z 28003KT 9999 +DZ SCT024 SCT090 24/22 A2978 RMK RN DST ARND=
200511120100 METAR MRLM NIL=
200511120200 METAR MRLM NIL=
200511120300 METAR MRLM NIL=
200511120400 METAR MRLM NIL=
200511120500 METAR MRLM NIL=
200511120600 METAR MRLM NIL=
200511120700 METAR MRLM NIL=
200511120800 METAR MRLM NIL=
200511120900 METAR MRLM NIL=
200511121000 METAR MRLM NIL=
200511121100 METAR MRLM NIL=
200511121200 METAR MRLM NIL=
200511121300 METAR MRLM 121300Z 27007KT CAVOK 25/22 A2982 RMK TCU DST NE=
200511121400 METAR MRLM 121400Z 28005KT 9999 FEW024 BKN140 27/22 A2984 RMK HZY=
200511121500 METAR MRLM 121500Z 28008KT 9999 FEW025 BKN130 27/22 A2985 RMK RN TCU DST N HZY=
200511121600 METAR MRLM 121600Z 28006KT 9999 FEW027 BKN140 28/22 A2984 RMK TCU RN DST N=
200511121700 METAR MRLM 121700Z 33010KT 9999 FEW025 SCT110 BKN140 28/23 A2982 RMK CB RN DST QUAD N=
200511121800 METAR MRLM 121800Z 34012KT 9999 FEW025 SCT100 27/23 A2980 RMK CB RN DST N E S=
200511121900 METAR MRLM 121900Z 35013KT 9999 FEW017 SCT090 26/23 A2978 RMK CB RN DST QUAD N E S=
200511122000 METAR MRLM NIL=
200511122100 METAR MRLM 122100Z VRB03KT 9999 RA SCT020 SCT090 BKN130 25/21 A2975 RMK CB DST ARND=
200511122200 METAR MRLM 122200Z 00000KT 9999 DZ SCT010 BKN090 24/22 A2977 RMK CB DST ARND RN DIST W QUAD=
200511122300 METAR MRLM 122300Z 00000KT 9999 SCT010 SCT025 24/22 A2977 RMK CBS RN DST W QUAD=
200511130000 METAR MRLM 130000Z 00000KT 9999 FEW007 SCT025 BKN090 24/22 A2981=
200511130100 METAR MRLM NIL=
200511130200 METAR MRLM NIL=
200511130300 METAR MRLM NIL=
200511130400 METAR MRLM NIL=
200511130500 METAR MRLM NIL=
200511130600 METAR MRLM NIL=
200511130700 METAR MRLM NIL=
200511130800 METAR MRLM NIL=
200511130900 METAR MRLM NIL=
200511131000 METAR MRLM NIL=
200511131100 METAR MRLM NIL=
200511131200 METAR MRLM NIL=
200511131300 METAR MRLM 131300Z VRB03KT CAVOK 23/21 A2983 RMK SCT140 CB N/E QD=
200511131400 METAR MRLM 131400Z 00000KT CAVOK 25/21 A2984 RMK SCT150 CBS RN N QD=
200511131500 METAR MRLM NIL=
200511131600 METAR MRLM 131600Z 34010KT 9999 FEW033 BKN140 28/22 A2986 CB DST RN N=
200511131700 METAR MRLM 131700Z 34009KT 9999 FEW030 BKN120 28/22 A2985 RMK TCU RN DST W CB RN DST N=
200511131800 METAR MRLM 131800Z 31010KT 9999 FEW028 BKN110 28/23 A2983 RMK CBS RN N QD=
200511131900 METAR MRLM 131900Z 35011KT 9999 FEW025 BKN110 28/23 A2979 CB RN DST W/N=
200511132000 METAR MRLM NIL=
200511132100 METAR MRLM 132100Z 36006KT 9999 SCT028 BKN110 28/22 A2975 RMK CB RN W N=
200511132200 METAR MRLM 132200Z 28007KT 9999 SCT018 BKN110 26/23 A2976 RMK CB ARND RN N=
200511132300 METAR MRLM 132300Z 32006KT 9999 BKN015 SCT120 25/23 A2978 RMK CB RN ARND RN N=
200511140000 METAR MRLM 140000Z 00000KT 9999 FEW013 SCT090 BKN120 25/22 A2979 RMK CB ARND RN N=
200511140100 METAR MRLM NIL=
200511140200 METAR MRLM NIL=
200511140300 METAR MRLM NIL=
200511140400 METAR MRLM NIL=
200511140500 METAR MRLM NIL=
200511140600 METAR MRLM NIL=
200511140700 METAR MRLM NIL=
200511140800 METAR MRLM NIL=
200511140900 METAR MRLM NIL=
200511141000 METAR MRLM NIL=
200511141100 METAR MRLM NIL=
200511141200 METAR MRLM 141200Z 24003KT 9999 DZ SCT030 BKN080 22/21 A2982=
200511141300 METAR MRLM 141300Z 00000KT 9999 SCT030 BKN090 23/22 A2983 REDZ RMK RN ARND=
200511141400 METAR MRLM 141400Z 24003KT 9999 FEW030 BKN090 23/22 A2985 RMK RN NW N NE=
200511141500 METAR MRLM 141500Z 28006KT 9999 SCT030 SCT080 25/23 A2985 RMK RN NW W N NE=
200511141600 METAR MRLM 141600Z 28007KT 9999 FEW028 BKN045 27/23 A2984 RN NW N NE=
200511141700 METAR MRLM 141700Z 27006KT 9999 FEW025 BKN040 26/23 A2981 REDZ RN E SE SW=
200511141800 METAR MRLM 141800Z 32006KT 9999 FEW025 SCT100 28/22 A2979 RMK CB N RN NW N S SW=
200511141900 METAR MRLM 141900Z 33008KT 9999 FEW024 SCT100 29/22 A2975 RMK CB RN NW N NE=
200511142000 METAR MRLM NIL=
200511142200 METAR MRLM 142200Z 31010KT 9999 BKN024 SCT100 26/23 A2973=
200511142300 METAR MRLM 142300Z 30004KT 9999 FEW024 BKN080 25/23 A2973 CB RN DST ARND=
200511150000 METAR MRLM 150000Z 00000KT 9999 FEW024 BKN030 25/22 A2976=
200511150100 METAR MRLM NIL=
200511150200 METAR MRLM NIL=
200511150300 METAR MRLM NIL=
200511150400 METAR MRLM NIL=
200511150500 METAR MRLM NIL=
200511150600 METAR MRLM NIL=
200511150700 METAR MRLM NIL=
200511150800 METAR MRLM NIL=
200511150900 METAR MRLM NIL=
200511151000 METAR MRLM NIL=
200511151100 METAR MRLM NIL=
200511151200 METAR MRLM 151200Z 25007KT 9999 DZ SCT030 BKN090 23/22 A2975=
200511151300 METAR MRLM 151300Z 23009KT 9999 -DZ BKN028 SCT080 23/222 A2977 TCU W NW RN ARND=
200511151400 METAR MRLM 151400Z 25007KT 3000 RA BKN024 SCT080 23/22 A2980=
200511151500 METAR MRLM 151500Z 26008KT 2000 +RA BKN020 22/22 A2981=
200511151600 METAR MRLM NIL=
200511151700 METAR MRLM 151700Z 25006KT 3000 -RA SCT015TCU BKN025 23/22 A2979=
200511151800 METAR MRLM 151800Z 28007KT 5000 RA BKN020 SCT080 23/22 A2977 TCU W NW N=
200511151900 METAR MRLM 151900Z 24010KT 5000 -RA BKN020 23/22 A2974=
200511152000 METAR MRLM NIL=
200511152100 METAR MRLM 152100Z 26008KT 4000 RA OVC018 23/21 A2972=
200511152200 METAR MRLM 152200Z 23010KT 3000 RA OVC020 22/21 A2971=
200511152300 METAR MRLM 152300Z 28007KT 2000 RA OVC020 23/21 A2973=
200511160000 METAR MRLM 160000Z 25007KT 3000 RA OVC022 23/22 A2975=
200511160100 METAR MRLM NIL=
200511160200 METAR MRLM NIL=
200511160300 METAR MRLM NIL=
200511160400 METAR MRLM NIL=
200511160500 METAR MRLM NIL=
200511160600 METAR MRLM NIL=
200511160700 METAR MRLM NIL=
200511160800 METAR MRLM NIL=
200511160900 METAR MRLM NIL=
200511161000 METAR MRLM NIL=
200511161100 METAR MRLM NIL=
200511161200 METAR MRLM NIL=
200511161300 METAR MRLM 161300Z 29007KT 9999 FEW010 OVC025 24/22 A2977 VIS 5000NW/RA=
200511161400 METAR MRLM 161400Z 24004KT 9999 DZ BKN008 23/21 A2980 CB RN N=
200511161500 METAR MRLM 161500Z 27006KT 9999 FEW013 SCT120 BKN220 24/22 A2978 CB RN N/S=
200511161600 METAR MRLM 161600Z 28007KT 9999 FEW021 SCT140 BKN220 26/22 A2976 CB RN N NE SE=
200511161700 METAR MRLM 161700Z 29010KT 9999 FEW023 BKN120 27/22 A2974 CB RN NW=
200511161800 METAR MRLM 161800Z 30004KT 9999 FEW026 BKN090 27/22 A2972 CB RN DST N S W=
200511161900 METAR MRLM 161900Z 28010KT 9999 FEW022 OVC090 26/22 A2979 CB RN DST S=
200511162000 METAR MRLM NIL=
200511162100 METAR MRLM 162100Z VRB03KT 9999 FEW020 BKN100 27/23 A2965 RMK CB RN DST ARND=
200511162200 METAR MRLM 162200Z 25007KT 9999 FEW018 SCT025 BKN100 25/22 A2967 RMK CB RN DST ARND=
200511162300 METAR MRLM 162300Z 28005KT 9999 SCT025 BKN100 24/21 A2968 RMK RN DST QUAD E S=
200511170000 METAR MRLM 170000Z 00000KT 9999 SCT025 BKN100 24/21 A2969 RMK CB DST QUAD N RN ARND=
200511170100 METAR MRLM NIL=
200511170200 METAR MRLM NIL=
200511170300 METAR MRLM NIL=
200511170400 METAR MRLM NIL=
200511170500 METAR MRLM NIL=
200511170600 METAR MRLM NIL=
200511170700 METAR MRLM NIL=
200511170800 METAR MRLM NIL=
200511170900 METAR MRLM NIL=
200511171000 METAR MRLM NIL=
200511171100 METAR MRLM NIL=
200511171200 METAR MRLM NIL=
200511171300 METAR MRLM 171300Z 22004KT 9999 FEW025 BKN090 25/22 A2972 RMK CB DST SW S=
200511171400 METAR MRLM 171400Z 26007KT CAVOK 27/21 A2976 RMK CB RN DST S SW=
200511171500 METAR MRLM 171500Z 24004KT 9999 FEW030 BKN090 28/21 A2976 RMK CB DST SE S LEVE HZY=
200511171600 METAR MRLM 171600Z 27004KT 9999 FEW038 BKN110 29/22 A2976=
200511171700 METAR MRLM NIL=
200511171800 METAR MRLM 171800Z 29005KT 9999 SCT035 SCT110 29/22 A2971 RMK CB RN DST SW=
200511171900 METAR MRLM 171900Z 00000KT 9999 DZ SCT035 SCT110 28/22 A2968 RMK CB RN DST QUAD S=
200511172000 METAR MRLM NIL=
200511172100 METAR MRLM 172100Z VRB03KT 9999 DZ FEW030 SCT080 BKN100 28/22 A2965 RMK CB RN DST W=
200511172200 METAR MRLM 172200Z 00000KT 9999 FEW028 BKN100 27/22 A2965 RMK DZ W NW=
200511172300 METAR MRLM 172300Z VRB03KT 9999 FEW015 BKN110 26/23 A2966 RMK RN DST E=
200511180000 METAR MRLM 180000Z 00000KT 9999 FEW015 BKN090 24/22 A2967 RMK RN DST N=
200511180100 METAR MRLM NIL=
200511180200 METAR MRLM NIL=
200511180300 METAR MRLM NIL=
200511180400 METAR MRLM NIL=
200511180500 METAR MRLM NIL=
200511180600 METAR MRLM NIL=
200511180700 METAR MRLM NIL=
200511180800 METAR MRLM NIL=
200511180900 METAR MRLM NIL=
200511181000 METAR MRLM NIL=
200511181100 METAR MRLM NIL=
200511181200 METAR MRLM 181200Z 00000KT CAVOK 22/20 A2972=
200511181300 METAR MRLM 181300Z 18004KT CAVOK 23/21 A2974=
200511181400 METAR MRLM 181400Z 09003KT 9999 FEW025 SCT250 27/22 A2976=
200511181500 METAR MRLM 181500Z 07003KT 9999 FEW025 SCT280 27/23 A2976=
200511181600 METAR MRLM 181600Z 06005KT 9999 FEW025 BKN280 29/23 A2976=
200511181700 METAR MRLM 181700Z 07007KT 9999 FEW025 BKN280 28/23 A2974=
200511181800 METAR MRLM 181800Z 07007KT 9999 FEW028 SCT090 28/23 A2973=
200511181900 METAR MRLM 181900Z 09007KT 9999 FEW025 SCT090 29/23 A2974=
200511182000 METAR MRLM 182000Z 09006KT 999 FEW025 BKN090 28/23 A2973 RMK RN DST SW=
200511182100 METAR MRLM 182100Z 09006KT 9999 FEW025 BKN090 28/24 A2972 RN SW=
200511190000 METAR MRLM 190000Z 04003KT 9999 FEW025 SCT090 26/24 A2970 RMK RN SW=
200511190100 METAR MRLM NIL=
200511190200 METAR MRLM NIL=
200511190300 METAR MRLM NIL=
200511190400 METAR MRLM NIL=
200511190500 METAR MRLM NIL=
200511190600 METAR MRLM NIL=
200511190700 METAR MRLM NIL=
200511190800 METAR MRLM NIL=
200511190900 METAR MRLM NIL=
200511191000 METAR MRLM NIL=
200511191100 METAR MRLM NIL=
200511191200 METAR MRLM 191200Z 21004KT 9999 FEW026 BKN080 23/22 A2976=
200511191300 METAR MRLM 191300Z 24003KT 9999 FEW030 SCT090 BKN250 24/23 A2978 RMK CB RN NW N=
200511191400 METAR MRLM 191400Z 28004KT 9999 FEW030 BKN080 27/23 A2981 CB RN NW N=
200511191500 METAR MRLM 191500Z 24006KT 9999 FEW030 BKN080 27/23 A3005=
200511191600 METAR MRLM 191600Z 02004KT 9999 FEW025 BKN100 27/22 A2981 CB NW=
200511191700 METAR MRLM 191700Z 30007KT 9999 FEW025 BKN100 28/23 A2980 CB NW NE=
200511191800 METAR MRLM 191800Z 35008KT 9999 FEW025 BKN090 28/24 A2978 RMK CB NW N NE RN SW=
200511191900 METAR MRLM 191900Z 25008KT 9999 BKN028 28/24 A2975 TCU NW N RN SW=
200511192000 METAR MRLM NIL=
200511192100 METAR MRLM 192100Z 36005KT 9999 SCT025 BKN250 24/20 A2993 TCU RN SW=
200511192200 METAR MRLM 192200Z 01003KT 9999 SCT025 BKN250 27/23 A2972 TCU SE S SW CB RN W=
200511192300 METAR MRLM 192300Z 33004KT 9999 FEW025 SCT090 26/23 A2974 CB DST SE S SW W=
200511200000 METAR MRLM 200000Z 00000KT 9999 FEW025 SCT090 25/23 A2975=
200511200100 METAR MRLM NIL=
200511200200 METAR MRLM NIL=
200511200300 METAR MRLM NIL=
200511200400 METAR MRLM NIL=
200511200500 METAR MRLM NIL=
200511200600 METAR MRLM NIL=
200511200700 METAR MRLM NIL=
200511200800 METAR MRLM NIL=
200511200900 METAR MRLM NIL=
200511201000 METAR MRLM NIL=
200511201100 METAR MRLM NIL=
200511201200 METAR MRLM NIL=
200511201300 METAR MRLM 201300Z 00000KT CAVOK 24/22 A2983 CB RN DST E SE=
200511201400 METAR MRLM 201400Z 19004KT CAVOK 25/23 A2984 CB RN SE=
200511201500 METAR MRLM 201500Z 08005KT CAVOK 27/23 A2985 CB RN DST SE=
200511201600 METAR MRLM 201600Z 08004KT 9999 FEW020 OVC270 27/23 A2985=
200511201700 METAR MRLM 201700Z 07005KT 9999 FEW022 OVC270 28/23 A2983=
200511201800 METAR MRLM 201800Z 05006KT 9999 FEW024 OVC270 28/24 A2980=
200511201900 METAR MRLM 201900Z 06007KT 9999 FEW022 OVC270 28/24 A2978=
200511202000 METAR MRLM NIL=
200511202100 METAR MRLM 202100Z 05005KT 9999 SCT023 SCT280 28/24 A2975 RMK HZ DST=
200511202200 METAR MRLM 202200Z 09004KT 9999 SCT023 SCT280 28/23 A2975=
200511202300 METAR MRLM 202300Z 11004KT 9999 SCT018 BKN280 27/23 A2976 HZ=
200511210000 METAR MRLM NIL=
200511210100 METAR MRLM NIL=
200511210200 METAR MRLM NIL=
200511210300 METAR MRLM NIL=
200511210400 METAR MRLM NIL=
200511210500 METAR MRLM NIL=
200511210600 METAR MRLM NIL=
200511210700 METAR MRLM NIL=
200511210800 METAR MRLM NIL=
200511210900 METAR MRLM NIL=
200511211000 METAR MRLM NIL=
200511211100 METAR MRLM NIL=
200511211200 METAR MRLM NIL=
200511211300 METAR MRLM 211300Z 22004KT 9999 FEW010 23/21 A2984 HZ ARND=
200511211400 METAR MRLM 211400Z VRB03KT 9999 FEW020 26/22 A2986 HY ARND=
200511211500 METAR MRLM 211500Z 31004KT 9999 SCT024 SCT300 27/22 A2987 HZ ARND=
200511211600 METAR MRLM 211600Z 35007KT 9999 SCT032 28/22 A2987 HZ ARND=
200511211700 METAR MRLM 211700Z 01008KT 9999 SCT032 29/22 A2985=
200511211800 METAR MRLM 211800Z 01008KT 9999 FEW030 28/22 A2982 HZ ARND=
200511211900 METAR MRLM 211900Z 01007KT 9999 FEW026 28/23 A2979=
200511212000 METAR MRLM NIL=
200511212100 METAR MRLM 212100Z 35007KT 9999 FEW024 BKN280 28/23 A2975 RMK LEVE HZY=
200511212200 METAR MRLM 212200Z 34006KT 9999 FEW023 BKN280 28/23 A2976 RMK LEVE HZY=
200511212300 METAR MRLM 212300Z 35006KT 9999 BKN020 27/23 A2977 RMK HZY=
200511220000 METAR MRLM 220000Z 36005KT 9999 BKN020 27/23 A2979 RMK RN DST QUAD S=
200511220100 METAR MRLM NIL=
200511220200 METAR MRLM NIL=
200511220300 METAR MRLM NIL=
200511220400 METAR MRLM NIL=
200511220500 METAR MRLM NIL=
200511220600 METAR MRLM NIL=
200511220700 METAR MRLM NIL=
200511220800 METAR MRLM NIL=
200511220900 METAR MRLM NIL=
200511221000 METAR MRLM NIL=
200511221100 METAR MRLM NIL=
200511221200 METAR MRLM NIL=
200511221300 METAR MRLM 221300Z 26005KT 3000 -RA BKN014 SCT030 23/21 A2988=
200511221400 METAR MRLM 221400Z 23006KT 3000 RA SCT015 BKN025 22/21 A2989=
200511221500 METAR MRLM 221500Z 22008KT 9999 -DZ SCT025 SCT080 23/22 A2989 RERA RMK RN DST ARND=
200511221600 METAR MRLM 221600Z 22003KT 9999 -DZ BKN035 SCT080 24/22 A2987 RMK RN DST ARND=
200511221700 METAR MRLM 221700Z 00000KT 9999 SCT035 SCT080 24/22 A2985 REDZ RMK RN DST ARND=
200511221800 METAR MRLM 221800Z 26005KT 9999 -DZ BKN030 SCT080 25/21 A2981 RMK RN DST ARND=
200511221900 METAR MRLM 221900Z 27008KT 9999 -DZ OVC030 25/21 A2980 RMK RN DST ARND=
200511222000 METAR MRLM NIL=
200511222100 METAR MRLM 222100Z 26007KT 5000 +DZ OVC023 23/22 A2978 RERA RN ARND=
200511222200 METAR MRLM 222200Z 25004KT 4000 RA SCT015 BKN023 23/22 A2979=
200511222300 METAR MRLM 222300Z 28005KT 8000 DZ BKN025 SCT080 23/22 A2981=
200511230000 METAR MRLM NIL=
200511230100 METAR MRLM NIL=
200511230200 METAR MRLM NIL=
200511230300 METAR MRLM NIL=
200511230400 METAR MRLM NIL=
200511230500 METAR MRLM NIL=
200511230600 METAR MRLM NIL=
200511230700 METAR MRLM NIL=
200511230800 METAR MRLM NIL=
200511230900 METAR MRLM NIL=
200511231000 METAR MRLM NIL=
200511231100 METAR MRLM NIL=
200511231200 METAR MRLM NIL=
200511231300 METAR MRLM 231300Z 27008KT 9999 FEW024 BKN040 22/15 A2993=
200511231400 METAR MRLM 231400Z 26008KT 9999 SCT040 BKN080 23/15 A2996=
200511231500 METAR MRLM 231500Z 27010KT 9999 FEW040 BKN080 24/16 A2997=
200511231600 METAR MRLM 231600Z 27009KT 9999 FEW040 BKN080 25/16 A2997=
200511231700 METAR MRLM 231700Z 27010KT 9999 SCT040 BKN090 25/16 A2994 RMK RN DST N/NE=
200511231800 METAR MRLM 231800Z 27008KT 9999 SCT040 BKN080 25/16 A2992 RMK RN DST ARND=
200511231900 METAR MRLM 231900Z 28008KT 9999 SCT035 BKN080 25/17 A2990 RMK RN DST ARND=
200511232000 METAR MRLM NIL=
200511232100 METAR MRLM 232100Z 29009KT 9999 -DZ BKN040 SCT080 24/17 A2989 RMK RN ARND=
200511232200 METAR MRLM 232200Z 27008KT 9999 -DZ BKN040 SCT080 23/16 A2989=
200511240000 METAR MRLM 240000Z 27003KT 9999 +DZ BKN030 SCT080 22/18 A2990 RN ARND=
200511240100 METAR MRLM NIL=
200511240200 METAR MRLM NIL=
200511240300 METAR MRLM NIL=
200511240400 METAR MRLM NIL=
200511240500 METAR MRLM NIL=
200511240600 METAR MRLM NIL=
200511240700 METAR MRLM NIL=
200511240800 METAR MRLM NIL=
200511240900 METAR MRLM NIL=
200511241000 METAR MRLM NIL=
200511241100 METAR MRLM NIL=
200511241200 METAR MRLM NIL=
200511241300 METAR MRLM 241300Z 00000KT 9999 DZ BKN025 22/20 A2993 RMK CB N RN ARND=
200511241400 METAR MRLM 241400Z 24005KT CAVOK 22/20 A2995=
200511241500 METAR MRLM 241500Z 25007KT CAVOK 23/19 A2995=
200511241600 METAR MRLM 241600Z 26007KT CAVOK 24/20 A2994=
200511241700 METAR MRLM 241700Z VRB03KT 9999 FEW029 SCT090 BKN110 25/19 A2991=
200511241800 METAR MRLM 241800Z 30008KT 9999 FEW032 BKN040 25/18 A2989=
200511241900 METAR MRLM 241900Z 30007KT 9999 BKN025 24/19 A2986=
200511242000 METAR MRLM NIL=
200511242100 METAR MRLM 242100Z 31009KT 9000 DZ BKN016 SCT100 23/20 A2984 HZ ARND=
200511242200 METAR MRLM 242200Z 28005KT 9999 BKN014 SCT100 22/20 A2984 DZ HZ ARND=
200511242300 METAR MRLM 242300Z VRB03KT 9999 DZ FEW007 SCT025 BKN100 21/20 A2986=
200511250000 METAR MRLM 250000Z 24005KT 8000 -DZ BKN006 SCT100 21/20 A2987=
200511250100 METAR MRLM NIL=
200511250200 METAR MRLM NIL=
200511250300 METAR MRLM NIL=
200511250400 METAR MRLM NIL=
200511250500 METAR MRLM NIL=
200511250600 METAR MRLM NIL=
200511250700 METAR MRLM NIL=
200511250800 METAR MRLM NIL=
200511250900 METAR MRLM NIL=
200511251000 METAR MRLM NIL=
200511251100 METAR MRLM NIL=
200511251200 METAR MRLM NIL=
200511251300 METAR MRLM 251300Z 21005KT 9999 -DZ SCT015 BKN090 21/20 A2991 RN DST W NW=
200511251400 METAR MRLM 251400Z 23004KT 9999 BKN012 SCT090 23/21 A2993 RN DST W=
200511251500 METAR MRLM 251500Z 24004KT 9999 BKN030 SCT110 24/21 A2995 RN DST SW W HZ ARND=
200511251600 METAR MRLM 251600Z 26006KT 9999 BKN020 SCT110 25/21 A2993 RN W HZ ARND=
200511251700 METAR MRLM 251700Z 22005KT 9999 SCT020 OVC100 25/21 A2991 RN W HZ ARND=
200511252000 METAR MRLM NIL=
200511252100 METAR MRLM 252100Z 35008KT 9999 BKN025 SCT090 25/21 A2983 RN DST W N=
200511252200 METAR MRLM 252200Z 00000KT 9999 BKN025 25/20 A2984 RN HZ ARND=
200511252300 METAR MRLM 252300Z VRB03KT CAVOK 24/21 A2985 RN W DST=
200511260000 METAR MRLM 260000Z VRB03KT 9999 FEW013 OVC090 24/21 A2987 RN DST W=
200511260100 METAR MRLM NIL=
200511260200 METAR MRLM NIL=
200511260300 METAR MRLM NIL=
200511260400 METAR MRLM NIL=
200511260500 METAR MRLM NIL=
200511260600 METAR MRLM NIL=
200511260700 METAR MRLM NIL=
200511260800 METAR MRLM NIL=
200511260900 METAR MRLM NIL=
200511261000 METAR MRLM NIL=
200511261100 METAR MRLM NIL=
200511261200 METAR MRLM 261200Z 00000KT CAVOK 21/19 A2984=
200511261300 METAR MRLM 261300Z 23003KT CAVOK 22/20 A2985=
200511261400 METAR MRLM 261400Z 22003KT CAVOK 24/20 A2988=
200511261500 METAR MRLM 261500Z 28005KT CAVOK 28/20 A2988 BKN100=
200511261600 METAR MRLM 261600Z 32008KT CAVOK 28/18 A2987=
200511261700 METAR MRLM 261700Z 33003KT 9999 FEW030 BKN090 28/19 A2985=
200511261800 METAR MRLM 261800Z 33011KT 9999 FEW030 BKN090 28/19 A2983=
200511261900 METAR MRLM 261900Z 32008KT 9999 FEW030 SCT090 28/19 A2979=
200511262000 METAR MRLM NIL=
200511262100 METAR MRLM 262100Z 34008KT 9999 FEW030 SCT090 27/21 A2976 RMK CB DST SSE=
200511262200 METAR MRLM 262200Z 33008KT 9999 FEW030 26/21 A2976 RMK CB DST S=
200511262300 METAR MRLM 262300Z 32005KT 9999 FEW030 26/21 A2978=
200511270000 METAR MRLM 270000Z 25003KT 9999 FEW030 23/21 A2979=
200511270100 METAR MRLM NIL=
200511270200 METAR MRLM NIL=
200511270300 METAR MRLM NIL=
200511270400 METAR MRLM NIL=
200511270500 METAR MRLM NIL=
200511270600 METAR MRLM NIL=
200511270700 METAR MRLM NIL=
200511270800 METAR MRLM NIL=
200511270900 METAR MRLM NIL=
200511271000 METAR MRLM NIL=
200511271100 METAR MRLM NIL=
200511271200 METAR MRLM NIL=
200511271300 METAR MRLM 271300Z 00000KT CAVOK 22/21 A2979=
200511271400 METAR MRLM 271400Z 00000KT CAVOK 25/21 A2981=
200511271500 METAR MRLM 271500Z 00000KT CAVOK 27/21 A2982=
200511271600 METAR MRLM 271600Z 03003KT 9999 FEW028 SCT300 27/21 A2982=
200511271700 METAR MRLM 271700Z 03005KT 9999 FEW028 SCT300 27/21 A2979=
200511271800 METAR MRLM 271800Z 03005KT 9999 FEW028 SCT300 28/22 A2977=
200511271900 METAR MRLM 271900Z 22006KT 9999 FEW028 SCT300 28/23 A2974=
200511272000 METAR MRLM NIL=
200511272100 METAR MRLM 272100Z 02003KT 9999 FEW022 SCT300 28/22 A2977=
200511272200 METAR MRLM 272200Z 03004KT 9999 FEW022 27/22 A2971=
200511272300 METAR MRLM 272300Z 00000KT 9999 FEW022 27/22 A2972=
200511280000 METAR MRLM 280000Z 00000KT 9999 FEW022 SCT300 24/22 A2972=
200511280100 METAR MRLM NIL=
200511280200 METAR MRLM NIL=
200511280300 METAR MRLM NIL=
200511280400 METAR MRLM NIL=
200511280500 METAR MRLM NIL=
200511280600 METAR MRLM NIL=
200511280700 METAR MRLM NIL=
200511280800 METAR MRLM NIL=
200511280900 METAR MRLM NIL=
200511281000 METAR MRLM NIL=
200511281100 METAR MRLM NIL=
200511281200 METAR MRLM NIL=
200511281300 METAR MRLM 281300Z 22005KT CAVOK 24/21 A2978 RMK FEW280 HZY=
200511281400 METAR MRLM 281400Z 00000KT CAVOK 27/22 A2980 RMK FEW280 HZY=
200511281500 METAR MRLM 281500Z 04005KT CAVOK 28/21 A2981 RMK FEW280 HZY=
200511281600 METAR MRLM 281600Z 01007KT 9999 FEW030 28/23 A2981=
200511281700 METAR MRLM NIL=
200511281800 METAR MRLM 281800Z 03007KT 9999 FEW030 28/22 A2976=
200511281900 METAR MRLM 281900Z 02006KT 9999 FEW030 28/22 A2973=
200511282000 METAR MRLM NIL=
200511282100 METAR MRLM 282100Z 36006KT 9999 FEW026 28/23 A2971=
200511282200 METAR MRLM 282200Z 0104KT 9999 FEW026 28/23 A2971=
200511282300 METAR MRLM 282300Z 02005KT 9999 FFEW025 27/22 A2971 RMK CB S SW=
200511290000 METAR MRLM 290000Z VRB03KT CAVOK 24/22 A2973 CB S=
200511290100 METAR MRLM NIL=
200511290200 METAR MRLM NIL=
200511290300 METAR MRLM NIL=
200511290400 METAR MRLM NIL=
200511290500 METAR MRLM NIL=
200511290600 METAR MRLM NIL=
200511290700 METAR MRLM NIL=
200511290800 METAR MRLM NIL=
200511290900 METAR MRLM NIL=
200511291000 METAR MRLM NIL=
200511291100 METAR MRLM NIL=
200511291200 METAR MRLM NIL=
200511291300 METAR MRLM 291300Z 21005KT CAVOK 22/19 A2980=
200511291400 METAR MRLM 291400Z 22005KT CAVOK 25/23 A2987=
200511291500 METAR MRLM 291500Z 04004KT CAVOK 28/21 A2983=
200511291600 METAR MRLM 291600Z 02006KT CAVOK 28/21 A2982=
200511291700 METAR MRLM 291700Z 03007KT 9999 FEW032 29/22 A2980=
200511291800 METAR MRLM 291800Z 02008KT 9999 FEW033 28/22 A2978=
200511291900 METAR MRLM 291900Z 01007KT 9999 FEW028 28/23 A2975=
200511292000 METAR MRLM NIL=
200511292100 METAR MRLM 292100Z 01006KT 9999 FEW028 28/23 A2973=
200511292200 METAR MRLM 292200Z 01007KT 9999 FEW027 28/22 A2974=
200511292300 METAR MRLM 292300Z 03004KT 9999 SCT024 27/22 A2975 CB DST NE HZ ARND=
200511300000 METAR MRLM 300000Z VRB03KT 9999 SCT012 24/22 A2977=
200511300100 METAR MRLM NIL=
200511300200 METAR MRLM NIL=
200511300300 METAR MRLM NIL=
200511300400 METAR MRLM NIL=
200511300500 METAR MRLM NIL=
200511300600 METAR MRLM NIL=
200511300700 METAR MRLM NIL=
200511300800 METAR MRLM NIL=
200511300900 METAR MRLM NIL=
200511301000 METAR MRLM NIL=
200511301100 METAR MRLM NIL=
200511301200 METAR MRLM 301200Z 00000KT 9999 FEW025 BKN280 21/19 A2980=
200511301300 METAR MRLM 301300Z 22004KT 9999 FEW025 BKN280 22/20 A2983=
200511301400 METAR MRLM 301400Z 18003KT 9999 FEW025 BKN280 26/21 A2986=
200511301500 METAR MRLM 301500Z 06003KT 9999 FEW024 SCT280 28/21 A2988=
200511301600 METAR MRLM 301600Z 06004KT 9999 FEW030 SCT280 28/21 A2986=
200511301700 METAR MRLM 301700Z 06004KT 9999 FEW025 28/22 A2983=
200511301800 METAR MRLM 301800Z 07006KT 9999 FEW025 28/23 A2980=
200511301900 METAR MRLM 301900Z 06007KT 9999 FEW025 28/23 A2977=
200511302000 METAR MRLM NIL=
200511302100 METAR MRLM 302100Z 06005KT 9999 FEW025 28/22 A2973=
200511302200 METAR MRLM 302200Z 06005KT 9999 FEW025 28/22 A2974=
200511302300 METAR MRLM 302300Z 05005KT 9999 FEW025 27/23 A2976=
200512010000 METAR MRLM 010000Z 05006KT 9999 FEW025 27/22 A2977=
200512010100 METAR MRLM NIL=
200512010200 METAR MRLM NIL=
200512010300 METAR MRLM NIL=
200512010400 METAR MRLM NIL=
200512010500 METAR MRLM NIL=
200512010600 METAR MRLM NIL=
200512010700 METAR MRLM NIL=
200512010800 METAR MRLM NIL=
200512010900 METAR MRLM NIL=
200512011000 METAR MRLM NIL=
200512011100 METAR MRLM NIL=
200512011200 METAR MRLM 011200Z 21004KT 9999 FEW025 BKN080 22/20 A2981=
200512011300 METAR MRLM 011300Z 20005KT 9999 FEW025 BKN080 22/19 A2982 RN DST W=
200512011400 METAR MRLM 011400Z 24003KT 9999 FEW025 BKN080 24/20 A2985=
200512011500 METAR MRLM 011500Z 05003KT 9999 FEW040 SCT080 25/22 A2987=
200512011600 METAR MRLM 011600Z 00000KT 9999 FEW040 BKN080 27/22 A2986=
200512011700 METAR MRLM 011700Z 03005KT 9999 FEW030 BKN090 28/21 A2985=
200512011800 METAR MRLM 011800Z 02004KT 9999 FEW030 BKN090 28/21 A2983=
200512011900 METAR MRLM 011900Z 01007KT 9999 FEW030 SCT090 28/21 A2980=
200512012000 METAR MRLM NIL=
200512012100 METAR MRLM 012100Z 36007KT 9999 FEW030 BKN090 27/21 A2977 RMK RN DST NW N NE=
200512012200 METAR MRLM 012200Z 35007KT 9999 FEW028 BKN080 27/22 A2978 RMK RN DST NW N NE=
200512012300 METAR MRLM 012300Z 35004KT 9999 FEW028 BKN080 27/2 A2979 RMK RN DST NE=
200512020000 METAR MRLM 020000Z 26003KT 9999 SCT025 SCT080 26/22 A2979 RMK RN DST ARND=
200512020100 METAR MRLM NIL=
200512020200 METAR MRLM NIL=
200512020300 METAR MRLM NIL=
200512020400 METAR MRLM NIL=
200512020500 METAR MRLM NIL=
200512020600 METAR MRLM NIL=
200512020700 METAR MRLM NIL=
200512020800 METAR MRLM NIL=
200512020900 METAR MRLM NIL=
200512021000 METAR MRLM NIL=
200512021100 METAR MRLM NIL=
200512021200 METAR MRLM 021200Z 00000KT 9999 FEW024 BKN090 22/21 A2981=
200512021300 METAR MRLM 021300Z 00000KT 9999 FEW024 BKN090 24/21 A2984=
200512021400 METAR MRLM 021400Z 20003KT 9999 FEW024 BKN090 26/21 A2987=
200512021500 METAR MRLM 021500Z 27003KT 9999 FEW030 SCT100 BKN250 28/22 A2987=
200512021600 METAR MRLM 021600Z 02005KT 9999 FEW030 SCT100 27/21 A2987=
200512021700 METAR MRLM 021700Z 36005KT 9999 FEW030 BKN280 28/21 A2985=
200512021800 METAR MRLM 021800Z 36008KT 9999 FEW028 BKN280 27/22 A2983=
200512021900 METAR MRLM 021900Z 36007KT 9999 FEW028 BKN280 28/22 A2980=
200512022000 METAR MRLM NIL=
200512022100 METAR MRLM 022100Z 36007KT 9999 FEW028 SCT280 28/22 A2978=
200512022200 METAR MRLM 022200Z 01003KT 9999 SCT025 SCT090 27/22 A2978 RMK TCU RN ESE=
200512022300 METAR MRLM 022300Z 09014KT 9999 SCT025 SCT090 26/22 A2979=
200512030000 METAR MRLM 030000Z 10010KT 9999 SCT024 SCT090 26/22 A2979=
200512030100 METAR MRLM NIL=
200512030200 METAR MRLM NIL=
200512030300 METAR MRLM NIL=
200512030400 METAR MRLM NIL=
200512030500 METAR MRLM NIL=
200512030600 METAR MRLM NIL=
200512030700 METAR MRLM NIL=
200512030800 METAR MRLM NIL=
200512030900 METAR MRLM NIL=
200512031000 METAR MRLM NIL=
200512031100 METAR MRLM NIL=
200512031200 METAR MRLM NIL=
200512031300 METAR MRLM 031300Z 00000KT CAVOK 22/19 A2986 SCT110 SCT280=
200512031400 METAR MRLM 031400Z 00000KT CAVOK 23/20 A2988 RMK SCT090 BKN110 RN DST ESE=
200512031500 METAR MRLM 031500Z 00000KT CAVOK 26/21 A2988 RMK BKN110 RN DIST E HZY=
200512031600 METAR MRLM 031600Z 00000KT CAVOK 27/23 A2986 BKN110=
200512031700 METAR MRLM 031700Z 05004KT CAVOK 28/21 A2986 BKN110 RMK TCU DST NE=
200512031800 METAR MRLM 031800Z 09004KT 9999 FEW037 SCT100 28/20 A2984=
200512031900 METAR MRLM 031900Z 07006KT 9999 FEW035 BKN110 28/21 A2981=
200512032000 METAR MRLM NIL=
200512032100 METAR MRLM 032100Z 08004KT 9999 FEW026 BKN100 27/22 A2978=
200512032200 METAR MRLM 032200Z 02005KT 9999 FEW024 BKN110 27/23 A2979=
200512032300 METAR MRLM 032300Z 02004KT 9999 FEW020 BKN120 27/23 A2980=
200512040000 METAR MRLM NIL=
200512040100 METAR MRLM NIL=
200512040200 METAR MRLM NIL=
200512040300 METAR MRLM NIL=
200512040400 METAR MRLM NIL=
200512040500 METAR MRLM NIL=
200512040600 METAR MRLM NIL=
200512040700 METAR MRLM NIL=
200512040800 METAR MRLM NIL=
200512040900 METAR MRLM NIL=
200512041000 METAR MRLM NIL=
200512041100 METAR MRLM NIL=
200512041200 METAR MRLM 041200Z 21005KT 9999 FEW025 BKN090 20/19 A2984 RMK RN DSR NW N=
200512041300 METAR MRLM 041300Z 20005KT 9999 FEW025 BKN090 22/20 A2986=
200512041400 METAR MRLM 041400Z 20004KT 9999 FEW030 SCT100 25/21 A2988=
200512041500 METAR MRLM 041500Z 06003KT 9999 FEW030 SCT100 28/22 A2989=
200512041600 METAR MRLM 041600Z 02005KT 9999 FEW030 SCT100 27/22 A2990=
200512041700 METAR MRLM 041700Z 01006KT 9999 FEW025 BKN090 27/22 A2988=
200512041800 METAR MRLM 041800Z 36006KT 9999 FEW020 BKN090 27/22 A2986=
200512041900 METAR MRLM 041900Z 36007KT 9999 FEW024 BKN090 27/22 A2983=
200512042000 METAR MRLM NIL=
200512042100 METAR MRLM 042100Z 04006KT 9999 FEW024 SCT280 27/21 A2979=
200512042200 METAR MRLM 042200Z 36003KT 9999 FEW024 SCT280 27/21 A2979=
200512042300 METAR MRLM 042300Z 36004KT 9999 FEW024 SCT280 27/22 A2981=
200512050000 METAR MRLM 050000Z 01003KT 9999 FEW024 SCT280 24/21 A2982=
200512050100 METAR MRLM NIL=
200512050200 METAR MRLM NIL=
200512050300 METAR MRLM NIL=
200512050400 METAR MRLM NIL=
200512050500 METAR MRLM NIL=
200512050600 METAR MRLM NIL=
200512050700 METAR MRLM NIL=
200512050800 METAR MRLM NIL=
200512050900 METAR MRLM NIL=
200512051000 METAR MRLM NIL=
200512051100 METAR MRLM NIL=
200512051200 METAR MRLM NIL=
200512051300 METAR MRLM 051300Z 23004KT 9999 FEW025 BKN270 21/19 A2988=
200512051400 METAR MRLM 051400Z 21004KT CAVOK 25/21 A2991=
200512051500 METAR MRLM 051500Z 00000KT CAVOK 28/22 A2991=
200512051600 METAR MRLM 051600Z 04003KT CAVOK 27/22 A2991=
200512051700 METAR MRLM 051700Z 05005KT CAVOK 28/22 A2988=
200512051800 METAR MRLM 051800Z 04007KT 9999 FEW030 BKN260 28/22 A2985=
200512051900 METAR MRLM 051900Z 01008KT 9999 FEW030 BKN260 28/22 A2983=
200512052000 METAR MRLM 052000Z 36005KT 9999 FEW025 BKN260 28/22 A2980=
200512052100 METAR MRLM 052100Z 36005KT 9999 FEW025 BKN260 28/22 A2979=
200512052200 METAR MRLM 052200Z 36005KT 9999 FEW025 SCT260 27/22 A2978=
200512052300 METAR MRLM 052300Z 35004KT 9999 SCT025 SCT260 27/22 A2980=
200512060000 METAR MRLM 060000Z 35003KT 9999 BKN025 25/22 A2981=
200512060100 METAR MRLM NIL=
200512060200 METAR MRLM NIL=
200512060300 METAR MRLM NIL=
200512060400 METAR MRLM NIL=
200512060500 METAR MRLM NIL=
200512060600 METAR MRLM NIL=
200512060700 METAR MRLM NIL=
200512060800 METAR MRLM NIL=
200512060900 METAR MRLM NIL=
200512061000 METAR MRLM NIL=
200512061100 METAR MRLM NIL=
200512061200 METAR MRLM NIL=
200512061300 METAR MRLM 061300Z VRB03KT 9999 FEW015 SCT130 23/20 A2985 HZY=
200512061400 METAR MRLM 061400Z VRB03KT 9999 FEW027 SCT140 27/21 A2988 HZY=
200512061500 METAR MRLM 061500Z VRB03KT 9999 SCT030 28/22 A2988 HZY=
200512061600 METAR MRLM 061600Z 01006KT 9999 SCT028 28/22 A2988=
200512061700 METAR MRLM 061700Z 36009KT 9999 FEW028 SCT140 28/22 A2985=
200512061800 METAR MRLM 061800Z 01009KT 9999 FEW030 BKN140 28/22 A2983 HZY=
200512061900 METAR MRLM 061900Z 01008KT 9999 FEW030 BKN130 28/22 A2980=
200512062000 METAR MRLM NIL=
200512062100 METAR MRLM 062100Z 01006KT 9999 SCT027 SCT130 28/22 A2976 RMK LEVE HZY=
200512062200 METAR MRLM 062200Z 03004KT 9999 SCT025 BKN140 27/22 A2976=
200512062300 METAR MRLM 062300Z 00000KT 9999 FEW025 OVC100 27/22 A2977 RMK HZY=
200512070000 METAR MRLM 070000Z 00000KT 9999 FEW015 OVC100 25/22 A2978 RMK LEVE HZY=
200512070100 METAR MRLM NIL=
200512070200 METAR MRLM NIL=
200512070300 METAR MRLM NIL=
200512070400 METAR MRLM NIL=
200512070500 METAR MRLM NIL=
200512070600 METAR MRLM NIL=
200512070700 METAR MRLM NIL=
200512070800 METAR MRLM NIL=
200512070900 METAR MRLM NIL=
200512071000 METAR MRLM NIL=
200512071100 METAR MRLM NIL=
200512071200 METAR MRLM NIL=
200512071300 METAR MRLM 071300Z VRB03KT 9999 DZ BKN025 SCT090 22/21 A2983 RMK RN DST SE NW W LEVE HZY=
200512071400 METAR MRLM 071400Z 22005KT 9999 SCT025 SCT120 24/22 A2986 RMK RN DST S W LEVE HZY=
200512071500 METAR MRLM 071500Z 24005KT 9999 FEW022 SCT090 27/22 A2987 RMK TCU RN DST SE S N LEVE HZY=
200512071600 METAR MRLM 071600Z 22004KT 9999 SCT035 SCT100 28/22 A2987 RMK TCU RN DST NNW SSE LEVE HZY=
200512071700 METAR MRLM NIL=
200512071800 METAR MRLM 071800Z 05004KT 9999 SCT030 SCT110 28/22 A2982 RMK RN DST S NNW ENE HZY=
200512071900 METAR MRLM 071900Z 05005KT 9999 FEW030 BKN100 29/22 A2979 RMK TCU RN DST N NE E HZY=
200512072000 METAR MRLM NIL=
200512072100 METAR MRLM 072100Z 02020KT 8000 +DZ SCT016 OVC090 25/22 A2977=
200512072200 METAR MRLM 072200Z 20006KT 9999 SCT016 BKN090 24/21 A2978 RMK RN N S=
200512072300 METAR MRLM 072300Z 21004KT 9999 SCT012 BKN090 24/22 A2979 RMK TCU RN W N E=
200512080000 METAR MRLM 080000Z 03003KT 9000 +DZ SCT010 SCT090 24/22 A2982 RMK RN ARND=
200512080100 METAR MRLM NIL=
200512080200 METAR MRLM NIL=
200512080300 METAR MRLM NIL=
200512080400 METAR MRLM NIL=
200512080500 METAR MRLM NIL=
200512080600 METAR MRLM NIL=
200512080700 METAR MRLM NIL=
200512080800 METAR MRLM NIL=
200512080900 METAR MRLM NIL=
200512081000 METAR MRLM NIL=
200512081100 METAR MRLM NIL=
200512081200 METAR MRLM NIL=
200512081300 METAR MRLM 081300Z 20004KT 9999 FEW010 SCT080 BKN110 22/21 A2988 RMK RN N NE HZY ARND=
200512081400 METAR MRLM 081400Z VRB03KT 9999 SCT025 BKN100 24/22 A2990 RMK RN W N NE=
200512081500 METAR MRLM 081500Z 01006KT 9999 SCT018 BKN100 25/21 A2992 RMK TCU RN W NW N NE=
200512081600 METAR MRLM 081600Z 35005KT 9999 FEW035 BKN100 27/20 A2991 RMK RN W NW HZY ARND=
200512081700 METAR MRLM 081700Z 03005KT 9999 FEW040 SCT090 28/20 A2989=
200512081800 METAR MRLM 081800Z 01005KT 9999 FEW033 BKN100 27/21 A2985=
200512081900 METAR MRLM 081900Z 01005KT 9999 FEW035 28/21 A2982 RMK CB E=
200512082000 METAR MRLM NIL=
200512082100 METAR MRLM 082100Z 02010KT 9999 FEW030 BKN110 28/23 A2871 RMK RN E=
200512082200 METAR MRLM 082200Z 00000KT 9999 FEW015 SCT028 BKN090 27/22 A2981=
200512082300 METAR MRLM 082300Z 07014KT 9999 +DZ SCT024 BKN090 27/22 A2983=
200512090000 METAR MRLM 090000Z 00000KT 9999 SCT025 BKN090 25/22 A2984=
200512090100 METAR MRLM NIL=
200512090200 METAR MRLM NIL=
200512090300 METAR MRLM NIL=
200512090400 METAR MRLM NIL=
200512090500 METAR MRLM NIL=
200512090600 METAR MRLM NIL=
200512090700 METAR MRLM NIL=
200512090800 METAR MRLM NIL=
200512090900 METAR MRLM NIL=
200512091000 METAR MRLM NIL=
200512091100 METAR MRLM NIL=
200512091200 METAR MRLM NIL=
200512091300 METAR MRLM 091300Z 00000KT 9999 FEW024 BKN080 22/20 A2989 RMK RN DIST E=
200512091400 METAR MRLM 091400Z 00000KT 9999 FEW025 SCT080 23/21 A2992=
200512091500 METAR MRLM 091500Z 24004KT 9999 FEW025 26/22 A2992=
200512091600 METAR MRLM 091600Z 09004KT 9999 FEW025 28/22 A2990 RN NE=
200512091700 METAR MRLM 091700Z 07005KT 9999 FEW035 SCT080 27/22 A2987=
200512091800 METAR MRLM 091800Z 04005KT 9999 FEW025 SCT080 28/22 A2984=
200512091900 METAR MRLM 091900Z 24008KT 9999 FEW025 28/22 A2982=
200512092000 METAR MRLM NIL=
200512092100 METAR MRLM 092100Z 01006KT 9999 FEW025 28/22 A2979=
200512092200 METAR MRLM 092200Z 02010KT 9999 FEW025 BKN090 28/22 A2979 RN DST N NE=
200512092300 METAR MRLM 092300Z 02008KT 9999 SCT026 BKN080 27/22 A2980=
200512100000 METAR MRLM 100000Z 02008KT 9999 FEW024 BKN080 26/22 A2980=
200512100100 METAR MRLM NIL=
200512100200 METAR MRLM NIL=
200512100300 METAR MRLM NIL=
200512100400 METAR MRLM NIL=
200512100500 METAR MRLM NIL=
200512100600 METAR MRLM NIL=
200512100700 METAR MRLM NIL=
200512100800 METAR MRLM NIL=
200512100900 METAR MRLM NIL=
200512101000 METAR MRLM NIL=
200512101100 METAR MRLM NIL=
200512101200 METAR MRLM NIL=
200512101300 METAR MRLM 101300Z 00000KT CAVOK 22/20 A2983=
200512101400 METAR MRLM 101400Z 00000KT CAVOK 24/21 A2985=
200512101500 METAR MRLM 101500Z 00000KT CAVOK 27/21 A2985=
200512101600 METAR MRLM 101600Z 02006KT 9999 FEW024 SCT090 BKN110 27/22 A2986 DZ N E HZ ARND=
200512101700 METAR MRLM 101700Z 01006KT 9999 DZ FEW025 OVC090 26/22 A2985 RN DST N HZ ARND=
200512101800 METAR MRLM 101800Z 01006KT 9999 FEW020 OVC090 26/22 A2985=
200512101900 METAR MRLM 101900Z VRB03KT 9999 FEW025 28/22 A2986=
200512102000 METAR MRLM NIL=
200512102100 METAR MRLM 102100Z 36008KT 9999 FEW025 SCT110 28/22 A2973 HZY=
200512102200 METAR MRLM 102200Z 35005KT 9999 FEW026 SCT090 28/22 A2974 RN N HZY=
200512102300 METAR MRLM 102300Z VRB03KT 9999 FEW022 OVC090 27/22 A2976 RN DST N E HZY=
200512110000 METAR MRLM 110000Z VRB03KT 9999 FEW015 SCT080 BKN100 25/22 A2977 RN DST N E=
200512110100 METAR MRLM NIL=
200512110200 METAR MRLM NIL=
200512110300 METAR MRLM NIL=
200512110400 METAR MRLM NIL=
200512110500 METAR MRLM NIL=
200512110600 METAR MRLM NIL=
200512110700 METAR MRLM NIL=
200512110800 METAR MRLM NIL=
200512110900 METAR MRLM NIL=
200512111000 METAR MRLM NIL=
200512111100 METAR MRLM NIL=
200512111200 METAR MRLM NIL=
200512111300 METAR MRLM 111300Z 00000KT CAVOK 24/22 A2980 FEW110 TCU N NW NE=
200512111400 METAR MRLM 111400Z 25004KT CAVOK 26/23 A2982 FEW270 HZY=
200512111500 METAR MRLM 111500Z 04005KT CAVOK 28/23 A2982 FEW110 CB NNE NE=
200512111600 METAR MRLM 111600Z 33008KT 9999 FEW030 29/23 A2982 HZY=
200512111700 METAR MRLM 111700Z 35011KT 9999 FEW022 SCT110 28/24 A2980 HZY=
200512111800 METAR MRLM 111800Z 35011KT 9999 FEW027 BKN110 29/23 A2978 HZY=
200512111900 METAR MRLM 111900Z 34011KT 9999 FEW025 BKN110 29/24 A2976=
200512112000 METAR MRLM NIL=
200512112100 METAR MRLM 112100Z 34011KT 9999 FEW022 BKN100 28/24 A2973 RMK CB DST NE HZY=
200512112200 METAR MRLM 112200Z 30008KT 9999 BKN017 27/24 A2974 RMK RN DST W HZY=
200512112300 METAR MRLM 112300Z 31005KT 9999 BKN017 SCT280 27/23 A2975 RNK HZY=
200512120000 METAR MRLM 120000Z 00000KT 9999 SCT010 BKN280 25/23 A2975 RMK HZY=
200512120100 METAR MRLM NIL=
200512120200 METAR MRLM NIL=
200512120300 METAR MRLM NIL=
200512120400 METAR MRLM NIL=
200512120500 METAR MRLM NIL=
200512120600 METAR MRLM NIL=
200512120700 METAR MRLM NIL=
200512120800 METAR MRLM NIL=
200512120900 METAR MRLM NIL=
200512121000 METAR MRLM NIL=
200512121100 METAR MRLM NIL=
200512121200 METAR MRLM NIL=
200512121300 METAR MRLM 121300Z 27003KT 9999 FEW025 BKN250 24/23 A2980 RMK CB DST NW HZY=
200512121400 METAR MRLM 121400Z 27007KT 9999 FEW025 SCT090 BKN250 26/23 A2984 RMK CB RN DST WNW NW HZY=
200512121500 METAR MRLM 121500Z 27009KT 9999 FEW025 BKN080 27/23 A2985 RMK RN DST W NW N NE HZY=
200512121600 METAR MRLM 121600Z 29007KT 9999 DZ SCT030 BKN080 26/23 A2985 RMK LINEA CB RN DST NW N NE HZY=
200512121700 METAR MRLM 121700Z 28008KT 9999 SCT030 BKN090 28/23 A2983 RERA RMK CB RN DST NW N NE E HZY=
200512121800 METAR MRLM 121800Z 34010KT 9999 SCT025 SCT050 28/23 A2981 RMK CB RN DST NW N NE E HZY=
200512121900 METAR MRLM 121900Z 35009KT 9999 1000SW -DZ BKN025 SCT030 25/3 A2980=
200512122000 METAR MRLM NIL=
200512122100 METAR MRLM 122100Z 20004KT 9999 FEW015 SCT030 BKN090 23/22 A2977 RERA RMK RN ARND=
200512122200 METAR MRLM 122200Z 00000KT 9999 FEW030 SCT080 BKN150 25/23 A2975 RMK CB NW N RN ARND=
200512122300 METAR MRLM 122300Z 06006KT 9999 FEW030 SCT080 BKN150 26/23 A2975 RMK RN NW N NE HZ ARND=
200512130000 METAR MRLM 130000Z 24004KT 9999 SCT030 BKN080 25/23 A2978 RMK RN NW N NE E HZ ARND=
200512130100 METAR MRLM NIL=
200512130200 METAR MRLM NIL=
200512130300 METAR MRLM NIL=
200512130400 METAR MRLM NIL=
200512130500 METAR MRLM NIL=
200512130600 METAR MRLM NIL=
200512130700 METAR MRLM NIL=
200512130800 METAR MRLM NIL=
200512130900 METAR MRLM NIL=
200512131000 METAR MRLM NIL=
200512131100 METAR MRLM NIL=
200512131200 METAR MRLM NIL=
200512131300 METAR MRLM 131300Z 18006KT 9999 200W +DZ FEW010 BKN024 23/22 A2986 RMK TCU W NW N=
200512131400 METAR MRLM 131400Z 23005KT 8000 -RA BKN026 SCT080 23/22 A2990 RMK TCU W NW=
200512131500 METAR MRLM 131500Z 24006KT 9999 3000NW VCSH BKN026 SCT080 25/23 A2990 RERA=
200512131600 METAR MRLM 131600Z 25007KT 9999 BKN028 SCT090 25/22 A2990 REDZ RMK TCU W NW N NE RN ARND=
200512131700 METAR MRLM 131700Z 24004KT 9999 BKN026 SCT230 26/23 A2988 RERA RMK RN ARND=
200512131800 METAR MRLM 131800Z 29005KT 9999 BKN026 SCT090 28/23 A2986 RN ARND=
200512131900 METAR MRLM 131900Z 29004KT 9999 BKN026 SCT100 28/21 A2983 RMK RN ARND=
200512132000 METAR MRLM NIL=
200512132100 METAR MRLM 132100Z 28005KT 9999 SCT026 SCT080 27/23 A2979 RMK RN ARND=
200512132200 METAR MRLM 132200Z 25005KT 9999 SCT026 BKN080 26/22 A2980 RN ARND=
200512132300 METAR MRLM 132300Z 23004KT 9999 SCT026 SCT080 25/22 A2980 RN ARND=
200512140000 METAR MRLM NIL=
200512140100 METAR MRLM 140100Z 21004KT 9999 SCT024 BKN050 25/22 A2981 RMK RN ARND=
200512140200 METAR MRLM NIL=
200512140300 METAR MRLM NIL=
200512140400 METAR MRLM NIL=
200512140500 METAR MRLM NIL=
200512140600 METAR MRLM NIL=
200512140700 METAR MRLM NIL=
200512140800 METAR MRLM NIL=
200512140900 METAR MRLM NIL=
200512141000 METAR MRLM NIL=
200512141100 METAR MRLM NIL=
200512141200 METAR MRLM NIL=
200512141300 METAR MRLM 141300Z 21004KT CAVOK 23/21 A2986=
200512141400 METAR MRLM 141400Z VRB03KT CAVOK 25/22 A2988=
200512141500 METAR MRLM 141500Z 02005KT 9999 FEW020 SCT080 BKN140 26/22 A2990=
200512141600 METAR MRLM 141600Z 02007KT 9999 SCT025 SCT110 27/22 A2989=
200512141700 METAR MRLM 141700Z 34009KT 9999 FEW022 SCT045 BKN110 26/24 A2987 RMK RN ARND=
200512141800 METAR MRLM 141800Z 02007KT 9999 FEW022 BKN110 27/23 A2985=
200512141900 METAR MRLM 141900Z 05005KT 9999 FEW025 BKN110 27/22 A2983=
200512142000 METAR MRLM NIL=
200512142100 METAR MRLM 142100Z 09007KT 9999 FEW025 BKN280 27/22 A2979 HZY=
200512142200 METAR MRLM 142200Z 10006KT 9999 FEW025 BKN280 28/23 A2978 HZY=
200512142300 METAR MRLM 142300Z 14004KT 9999 FEW025 BKN280 27/22 A2979 HZY=
200512150000 METAR MRLM 150000Z 00000KT CAVOK 24/21 A2979=
200512150100 METAR MRLM NIL=
200512150200 METAR MRLM NIL=
200512150300 METAR MRLM NIL=
200512150400 METAR MRLM NIL=
200512150500 METAR MRLM NIL=
200512150600 METAR MRLM NIL=
200512150700 METAR MRLM NIL=
200512150800 METAR MRLM NIL=
200512150900 METAR MRLM NIL=
200512151000 METAR MRLM NIL=
200512151100 METAR MRLM NIL=
200512151200 METAR MRLM NIL=
200512151300 METAR MRLM 151300Z 00000KT CAVOK 21/18 A2981=
200512151400 METAR MRLM 151400Z VRB03KT 9999 FEW018 BKN280 24/20 A2986 TCU N NE=
200512151500 METAR MRLM 151500Z 22004KT 9999 FEW032 BKN280 27/21 A2987=
200512151600 METAR MRLM 151600Z 02007KT 9999 FEW026 SCT140 BKN280 28/22 A2987 HZY=
200512151700 METAR MRLM 151700Z 01006KT 9999 FEW027 SCT140 BKN280 28/22 A2985 CB E=
200512151800 METAR MRLM 151800Z 01007KT 9999 FEW028 SCT140 BKN280 28/22 A2982 CB DST ESE=
200512151900 METAR MRLM 151900Z 35008KT 9999 FEW026 SCT140 BKN280 28/23 A2979=
200512152000 METAR MRLM NIL=
200512152100 METAR MRLM 152100Z 02007KT 9999 FEW025 BKN280 28/23 A2977 HZY=
200512152200 METAR MRLM 152200Z 07005KT 9999 FEW023 27/23 A2977 CB DST S=
200512152300 METAR MRLM 152300Z 09005KT 9999 FEW021 27/22 A2978=
200512160000 METAR MRLM 160000Z 15004KT 9999 FEW012 24/22 A2978 CB S=
200512160100 METAR MRLM NIL=
200512160200 METAR MRLM NIL=
200512160300 METAR MRLM NIL=
200512160400 METAR MRLM NIL=
200512160500 METAR MRLM NIL=
200512160600 METAR MRLM NIL=
200512160700 METAR MRLM NIL=
200512160800 METAR MRLM NIL=
200512160900 METAR MRLM NIL=
200512161000 METAR MRLM NIL=
200512161100 METAR MRLM NIL=
200512161200 METAR MRLM 161200Z 00000KT 9999 FEW028 OVC240 19/18 A2982=
200512161300 METAR MRLM 161300Z 00000KT 9999 FEW028 BKN240 22/20 A2985=
200512161500 METAR MRLM 161500Z 00000KT 9999 FEW028 BKN240 28/21 A2990=
200512161600 METAR MRLM 161600Z 12003KT 9999 FEW028 BKN240 28/21 A2981=
200512161700 METAR MRLM 161700Z 10003KT 9999 FEW028 BKN240 28/21 A2987=
200512161800 METAR MRLM 161800Z 04005KT 9999 FEW028 BKN240 28/21 A2984=
200512161900 METAR MRLM 161900Z 04005KT 9999 FEW028 BKN240 28/21 A2981=
200512162000 METAR MRLM NIL=
200512162100 METAR MRLM 162100Z 06005KT 9999 FEW030 BKN240 28/20 A2979=
200512162200 METAR MRLM 162200Z 05004KT 9999 FEW030 BKN240 28/21 A2980=
200512162300 METAR MRLM 162300Z 05004KT CAVOK 27/21 A2981=
200512170000 METAR MRLM 170000Z 00000KT CAVOK 24/21 A2983=
200512170100 METAR MRLM NIL=
200512170200 METAR MRLM NIL=
200512170300 METAR MRLM NIL=
200512170400 METAR MRLM NIL=
200512170500 METAR MRLM NIL=
200512170600 METAR MRLM NIL=
200512170700 METAR MRLM NIL=
200512170800 METAR MRLM NIL=
200512170900 METAR MRLM NIL=
200512171000 METAR MRLM NIL=
200512171100 METAR MRLM NIL=
200512171200 METAR MRLM 171200Z 21004KT CAVOK 19/18 A2992=
200512171300 METAR MRLM 171300Z 19005KT CAVOK 21/19 A2994=
200512171400 METAR MRLM 171400Z 19004KT CAVOK 25/21 A2997=
200512171500 METAR MRLM 171500Z 00000KT CAVOK 28/21 A2998=
200512171600 METAR MRLM 171600Z 10005KT CAVOK 28/20 A2998=
200512171700 METAR MRLM 171700Z 09006KT CAVOK 28/20 A2996=
200512171800 METAR MRLM 171800Z 08007KT CAVOK 29/20 A2994=
200512171900 METAR MRLM 171900Z 09009KT 9999 FEW030 29/20 A2991=
200512172000 METAR MRLM NIL=
200512172100 METAR MRLM 172100Z 08007KT 9999 FEW030 28/21 A2987=
200512172200 METAR MRLM 172200Z 07006KT CAVOK 28/21 A2987=
200512172300 METAR MRLM 172300Z 09006KT CAVOK 28/21 A2988=
200512180000 METAR MRLM 18000Z 08006KT CAVOK 27/21 A2989=
200512180100 METAR MRLM NIL=
200512180200 METAR MRLM NIL=
200512180300 METAR MRLM NIL=
200512180400 METAR MRLM NIL=
200512180500 METAR MRLM NIL=
200512180600 METAR MRLM NIL=
200512180700 METAR MRLM NIL=
200512180800 METAR MRLM NIL=
200512180900 METAR MRLM NIL=
200512181000 METAR MRLM NIL=
200512181100 METAR MRLM NIL=
200512181200 METAR MRLM NIL=
200512181300 METAR MRLM 181300Z 00000KT CAVOK 22/20 A2997=
200512181400 METAR MRLM NIL=
200512181500 METAR MRLM 181500Z 02004KT CAVOK 28/21 A2999=
200512181600 METAR MRLM NIL=
200512181700 METAR MRLM 181700Z 02004KT 9999 FEW032 OVC110 28/21 A2999 RMK RN NE=
200512181800 METAR MRLM 181800Z 05004KT 9999 FEW030 SCT090 BKN110 27/21 A2997 RMK RN NE E=
200512181900 METAR MRLM 181900Z 07010KT 9999 FEW026 OVC100 27/22 A2994 RMK DZ NE=
200512182000 METAR MRLM NIL=
200512182100 METAR MRLM 182100Z 10005KT 9999 FEW034 BKN090 28/21 A2992 DZ NW=
200512182200 METAR MRLM 182200Z VRB03KT 9999 FEW035 SCT110 28/21 A2992=
200512182300 METAR MRLM 182300Z 00000KT 9999 FEW028 SCT090 27/21 A2994=
200512190000 METAR MRLM 190000Z VRB03KT 9999 FEW010 SCT100 23/21 A2994=
200512190100 METAR MRLM NIL=
200512190200 METAR MRLM NIL=
200512190300 METAR MRLM NIL=
200512190400 METAR MRLM NIL=
200512190500 METAR MRLM NIL=
200512190600 METAR MRLM NIL=
200512190700 METAR MRLM NIL=
200512190800 METAR MRLM NIL=
200512190900 METAR MRLM NIL=
200512191000 METAR MRLM NIL=
200512191100 METAR MRLM NIL=
200512191200 METAR MRLM NIL=
200512191300 METAR MRLM 191300Z VRB03KT 8000 +DZ SCT025 SCT090 22/21 A2997=
200512191400 METAR MRLM 191400Z 18005KT 9999 -DZ BKN025 SCT090 22/21 A3000 RMK RN N S W=
200512191500 METAR MRLM 191500Z 21004KT 9999 BKN015 24/21 A3001 RN S W=
200512191600 METAR MRLM 191600Z 22007KT 9999 FEW035 BKN110 27/20 A3000=
200512191700 METAR MRLM 191700Z 22006KT 9999 FEW042 BKN120 28/20 A2998=
200512191800 METAR MRLM 191800Z 04006KT 9999 FEW038 SCT140 28/21 A2994=
200512191900 METAR MRLM 191900Z 03005KT 9999 FEW032 SCT140 28/21 A2991=
200512192000 METAR MRLM NIL=
200512192100 METAR MRLM 192100Z 07006KT 9999 FEW038 SCT150 29/21 A2987=
200512192200 METAR MRLM 192200Z 05009KT CAVOK 29/21 A2987=
200512192300 METAR MRLM 192300Z 06007KT CAVOK 28/21 A2988=
200512200000 METAR MRLM 200000Z 05008KT CAVOK 28/20 A2990=
200512200100 METAR MRLM NIL=
200512200200 METAR MRLM NIL=
200512200300 METAR MRLM NIL=
200512200400 METAR MRLM NIL=
200512200500 METAR MRLM NIL=
200512200600 METAR MRLM NIL=
200512200700 METAR MRLM NIL=
200512200800 METAR MRLM NIL=
200512200900 METAR MRLM NIL=
200512201000 METAR MRLM NIL=
200512201100 METAR MRLM NIL=
200512201200 METAR MRLM 01005KT 9999 FEW026 BKN080 20/18 A2993=
200512201300 METAR MRLM 201300Z 21004KT 9999 SCT026 BKN080 21/19 A2994 HZ ARND=
200512201400 METAR MRLM 201400Z 24004KT CAVOK 22/20 A2996=
200512201500 METAR MRLM 201500Z 21003KT CAVOK 25/21 A2996=
200512201600 METAR MRLM 201600Z 02004KT 9999 FEW030 BKN090 28/22 A2996 RN DST NE=
200512201700 METAR MRLM 201700Z 35007KT 9999 SCT030 BKN090 27/22 A2995 RN DST NE ENE HZ ARND=
200512201800 METAR MRLM 201800Z 01006KT 9999 FEW028 BKN090 26/20 A2993=
200512202000 METAR MRLM NIL=
200512202100 METAR MRLM 202100Z 02004KT 9999 FEW025 BKN250 28/20 A2987=
200512202200 METAR MRLM 202200Z 08003KT 9999 FEW025 BKN250 27/21 A2987=
200512202300 METAR MRLM 202300Z 13003KT 9999 FEW025 BKN250 25/21 A2987=
200512210000 METAR MRLM 210000Z 16003KT 9999 FEW025 BKN250 23/21 A2987=
200512210100 METAR MRLM NIL=
200512210200 METAR MRLM NIL=
200512210300 METAR MRLM NIL=
200512210400 METAR MRLM NIL=
200512210500 METAR MRLM NIL=
200512210600 METAR MRLM NIL=
200512210700 METAR MRLM NIL=
200512210800 METAR MRLM NIL=
200512210900 METAR MRLM NIL=
200512211000 METAR MRLM NIL=
200512211100 METAR MRLM NIL=
200512211200 METAR MRLM 211200Z 21003KT 9999 FEW028 BKN080 20/18 A2996 RN DST N NE=
200512211300 METAR MRLM 211300Z 21003KT 9999 FEW028 BKN080 20/18 A2996 RN DST N NE=
200512211400 METAR MRLM 211400Z 20003KT 9999 SCT026 SCT080 22/19 A3000 RN DST N ENE=
200512211500 METAR MRLM 211500Z 05008KT CAVOK 30/19 A2995=
200512211600 METAR MRLM 211600Z 19003KT 9999 SCT030 SCT080 25/21 A3001 DZ ARND=
200512211700 METAR MRLM 211700Z 19007KT 9999 SCT030 BKN080 24/21 A2998 DZ ARND=
200512211800 METAR MRLM 211800Z 20005KT 9999 SCT030 BKN090 25/21 A2995 DZ ARND=
200512211900 METAR MRLM 211900Z 08007KT 9999 SCT026 SCT090 25/20 A2994 DZ DAT ARND=
200512212000 METAR MRLM NIL=
200512212100 METAR MRLM 212100Z 20005KT 9999 FEW045 BKN080 26/21 A2989=
200512212200 METAR MRLM 212200Z 20003KT CAVOK 27/20 A2989=
200512212300 METAR MRLM 212300Z 00000KT CAVOK 26/21 A2989=
200512220000 METAR MRLM 220000Z 00000KT CAVOK 23/21 A2990=
200512220100 METAR MRLM NIL=
200512220200 METAR MRLM NIL=
200512220300 METAR MRLM NIL=
200512220400 METAR MRLM NIL=
200512220500 METAR MRLM NIL=
200512220600 METAR MRLM NIL=
200512220700 METAR MRLM NIL=
200512220800 METAR MRLM NIL=
200512220900 METAR MRLM NIL=
200512221000 METAR MRLM NIL=
200512221100 METAR MRLM NIL=
200512221200 METAR MRLM NIL=
200512221300 METAR MRLM 221300Z VRB03KT CAVOK 21/18 A2995 RMK LEVE HZY=
200512221400 METAR MRLM 221400Z 22004KT CAVOK 24/19 A2997 RMK LEVE HZY=
200512221500 METAR MRLM 221500Z 28004KT CAVOK 27/19 A2977 RMK HZ SE=
200512221600 METAR MRLM 221600Z 02006KT CAVOK 27/20 A2996 RMK HZ SE=
200512221700 METAR MRLM NIL=
200512221800 METAR MRLM 221800Z 02006KT 9999 FEW032 27/21 A2992=
200512221900 METAR MRLM 221900Z 01005KT 9999 FEW033 27/21 A2988=
200512222000 METAR MRLM NIL=
200512222100 METAR MRLM 222100Z 35006KT 9999 FEW033 27/21 A2986=
200512222200 METAR MRLM 222200Z 34009KT 9999 FEW025 27/22 A2987=
200512222300 METAR MRLM 222300Z 30005KT 9999 BKN024 27/22 A2988=
200512230000 METAR MRLM 230000Z 26004KT 9999 SCT013 24/22 A2990=
200512230100 METAR MRLM NIL=
200512230200 METAR MRLM NIL=
200512230300 METAR MRLM NIL=
200512230400 METAR MRLM NIL=
200512230500 METAR MRLM NIL=
200512230600 METAR MRLM NIL=
200512230700 METAR MRLM NIL=
200512230800 METAR MRLM NIL=
200512230900 METAR MRLM NIL=
200512231000 METAR MRLM NIL=
200512231100 METAR MRLM NIL=
200512231200 METAR MRLM NIL=
200512231300 METAR MRLM 231300Z 22005KT CAVOK 22/20 A2985 RMK TCU RN N NW NE SE=
200512231400 METAR MRLM 231400Z VRB03KT CAVOK 25/21 A2997=
200512231500 METAR MRLM 231500Z 07004KT 9999 FEW030 SCT110 27/21 A2993 RMK TCU NE=
200512231600 METAR MRLM 231600Z 04004KT 9999 FEW036 SCT110 28/20 A2996 RMK TCU N NE E=
200512231800 METAR MRLM 231800Z 02010KT 9999 FEW030 BKN110 28/22 A2991=
200512231900 METAR MRLM 231900Z 01006KT 9999 FEW022 BKN110 27/22 A2988=
200512232000 METAR MRLM NIL=
200512232100 METAR MRLM 232100Z 06005KT 9999 FEW035 BKN110 28/21 A2985=
200512232200 METAR MRLM 232200Z 03005KT 9999 FEW030 SCT110 BKN280 28/22 A2985=
200512232300 METAR MRLM 232300Z VRB03KT 9999 FEW030 BKN280 27/21 A2986=
200512240000 METAR MRLM 240000Z 00000KT 9999 FEW015 BKN270 24/21 A2987=
200512240100 METAR MRLM NIL=
200512240200 METAR MRLM NIL=
200512240300 METAR MRLM NIL=
200512240400 METAR MRLM NIL=
200512240500 METAR MRLM NIL=
200512240600 METAR MRLM NIL=
200512240700 METAR MRLM NIL=
200512240800 METAR MRLM NIL=
200512240900 METAR MRLM NIL=
200512241000 METAR MRLM NIL=
200512241100 METAR MRLM NIL=
200512241200 METAR MRLM NIL=
200512241300 METAR MRLM 241300Z 20004KT 9999 FEW030 BKN100 21/19 A2992=
200512241400 METAR MRLM 241400Z 21004KT 9999 FEW028 BKN100 24/20 A2994=
200512241500 METAR MRLM 241500Z 28005KT 9999 FEW028 SCT100 28/21 A2995=
200512241600 METAR MRLM 241600Z 30006KT 9999 FEW028 SCT100 28/21 A2995=
200512241700 METAR MRLM 241700Z 36007KT 9999 FEW030 SCT130 28/21 A2992=
200512241800 METAR MRLM 241800Z 36008KT 9999 FEW028 SCT250 28/21 A2989=
200512241900 METAR MRLM 241900Z 36009KT 9999 FEW028 SCT140 27/22 A2985=
200512242000 METAR MRLM NIL=
200512242100 METAR MRLM 242100Z 36006KT 9999 FEW028 BKN250 27/22 A2983=
200512242200 METAR MRLM 242200Z 35005KT 9999 FEW028 BKN250 27/22 A2982=
200512242300 METAR MRLM 242300Z 34003KT 9999 FEW028 SCT100 BKN240 27/22 A2984=
200512250000 METAR MRLM 250000Z 00000KT 9999 FEW028 BKN120 25/22 A2985=
200512250100 METAR MRLM NIL=
200512250200 METAR MRLM NIL=
200512250300 METAR MRLM NIL=
200512250400 METAR MRLM NIL=
200512250500 METAR MRLM NIL=
200512250600 METAR MRLM NIL=
200512250700 METAR MRLM NIL=
200512250800 METAR MRLM NIL=
200512250900 METAR MRLM NIL=
200512251000 METAR MRLM NIL=
200512251100 METAR MRLM NIL=
200512251200 METAR MRLM NIL=
200512251300 METAR MRLM 251300Z 21004KT 9999 FEW025 SCT100 BKN240 22/20 A2989=
200512251400 METAR MRLM 251400Z 21004KT 9999 FEW025 BKN100 25/21 A2992=
200512251500 METAR MRLM 251500Z 25003KT 9999 FEW025 BKN100 28/21 A2994=
200512251600 METAR MRLM 251600Z 32004KT 9999 FEW025 BKN120 28/22 A2995=
200512251700 METAR MRLM 251700Z 36005KT 9999 FEW025 BKN120 28/22 A2993=
200512251800 METAR MRLM 251800Z 36006KT 9999 FEW025 BKN100 28/22 A2991=
200512251900 METAR MRLM 251900Z 01006KT 9999 FEW025 BKN100 27/23 A2988=
200512252000 METAR MRLM NIL=
200512252100 METAR MRLM 252100Z 36006KT 9999 FEW025 BKN090 27/23 A2985=
200512252200 METAR MRLM 252200Z 01004KT 9999 FEW025 BKN090 27/22 A2985=
200512252300 METAR MRLM 252300Z 20003KT 9999 FEW025 BKN090 27/23 A2986=
200512260000 METAR MRLM 260000Z 19003KT 9999 SCT025 BKN090 25/23 A2987=
200512260100 METAR MRLM NIL=
200512260200 METAR MRLM NIL=
200512260300 METAR MRLM NIL=
200512260400 METAR MRLM NIL=
200512260500 METAR MRLM NIL=
200512260600 METAR MRLM NIL=
200512260700 METAR MRLM NIL=
200512260800 METAR MRLM NIL=
200512260900 METAR MRLM NIL=
200512261000 METAR MRLM NIL=
200512261100 METAR MRLM NIL=
200512261200 METAR MRLM NIL=
200512261300 METAR MRLM NIL=
200512261400 METAR MRLM 261400Z 26006KT 9999 -DZ BKN025 SCT090 24/23 A2998 RN DST ARND=
200512261500 METAR MRLM 261500Z 28005KT 9999 SCT025 SCT100 27/22 A2998 RN DST N NE E SE=
200512261600 METAR MRLM 261600Z 27007KT 9999 FEW030 BKN100 27/21 A2998 RN DST NE E=
200512261700 METAR MRLM 261700Z 32010KT 9999 FEW030 BKN110 28/22 A2996 RN DST NE E SE=
200512261800 METAR MRLM 261800Z 27007KT 9999 SCT036 SCT110 29/22 A2992 CB RN DST NE E SE=
200512261900 METAR MRLM 261900Z 33012KT 9999 FEW040 BKN110 29/21 A2989 RN DST N E=
200512262000 METAR MRLM NIL=
200512262100 METAR MRLM 262100Z 35011KT 9999 FEW014 OVC090 26/23 A2989 RMK RN DST ARND=
200512262200 METAR MRLM 262200Z 30007KT 9999 FEW016 OVC090 25/22 A2988 RMK RN DST ARND=
200512262300 METAR MRLM 262300Z 29006KT 9999 FEW015 BKN030 25/22 A2990 RMK RN DST ARND=
200512270000 METAR MRLM 270000Z 26008KT 9999 FEW013 BKN025 24/22 A2991 RMK RN DST ARND=
200512270100 METAR MRLM NIL=
200512270200 METAR MRLM NIL=
200512270300 METAR MRLM NIL=
200512270400 METAR MRLM NIL=
200512270500 METAR MRLM NIL=
200512270600 METAR MRLM NIL=
200512270700 METAR MRLM NIL=
200512270800 METAR MRLM NIL=
200512270900 METAR MRLM NIL=
200512271000 METAR MRLM NIL=
200512271100 METAR MRLM NIL=
200512271200 METAR MRLM NIL=
200512271300 METAR MRLM 271300Z 27009KT 9999 FEW015 BKN110 24/21 A2995 RMK CB RN DST N NE=
200512271400 METAR MRLM 271400Z 27007KT 9999 FEW018 BKN120 25/22 A2997 RMK CB RN DST QUAD N E HZY=
200512271500 METAR MRLM 271500Z 29011KT 9999 FEW019 SCT090 BKN140 26/22 A2998 RMK CB RN DST N NW NE E=
200512271600 METAR MRLM 271600Z 28013KT 9999 SCT023 SCT110 27/22 A2997 RMK TCU RN DST N E=
200512271700 METAR MRLM 271700Z 27013KT 9999 SCT024 BKN130 27/22 A2995=
200512271800 METAR MRLM 271800Z 27011KT 9999 SCT025 SCT110 27/22 A2991 RMK RN CB DST QUAD N=
200512271900 METAR MRLM 271900Z 28012KT 9999 BKN025 SCT100 26/21 A2989 RMK CB RN DST QUAD N=
200512272000 METAR MRLM NIL=
200512272100 METAR MRLM 272100Z 29010KT 9999 SCT020 BKN100 25/21 A2986=
200512272200 METAR MRLM 272200Z 27011KT 9999 FEW018 BKN110 24/21 A2986 RMK RN W NW=
200512272300 METAR MRLM 272300Z 26010KT 9999 FEW018 BKN110 24/20 A2988=
200512280000 METAR MRLM 280000Z 26008KT CAVOK 24/21 A2989=
200512280100 METAR MRLM NIL=
200512280200 METAR MRLM NIL=
200512280300 METAR MRLM NIL=
200512280400 METAR MRLM NIL=
200512280500 METAR MRLM NIL=
200512280600 METAR MRLM NIL=
200512280700 METAR MRLM NIL=
200512280800 METAR MRLM NIL=
200512280900 METAR MRLM NIL=
200512281000 METAR MRLM NIL=
200512281100 METAR MRLM NIL=
200512281200 METAR MRLM NIL=
200512281300 METAR MRLM NIL=
200512281400 METAR MRLM 281400Z 27005KT 9999 FEW025 BKN250 25/21 A2993=
200512281500 METAR MRLM 281500Z 30006KT 9999 FEW025 BKN250 26/21 A2994=
200512281600 METAR MRLM 281600Z 31007KT 9999 FEW025 BKN250 26/22 A2994=
200512281700 METAR MRLM 281700Z 34010KT 9999 FEW025 BKN250 27/22 A2993=
200512281800 METAR MRLM 281800Z 33011KT 9999 FEW025 BKN250 27/22 A2990=
200512281900 METAR MRLM 281900Z 33011KT 9999 FEW025 BKN250 27/22 A2987=
200512282000 METAR MRLM NIL=
200512282100 METAR MRLM 282100Z 31009KT 9999 SCT025 BKN250 26/22 A2983=
200512282200 METAR MRLM 282200Z 28005KT 9999 FEW025 BKN250 26/22 A2983=
200512282300 METAR MRLM 282300Z 31005KT 9999 FEW025 BKN250 26/22 A2983=
200512290000 METAR MRLM 290000Z 30005KT 9999 FEW025 BKN250 25/22 A2985=
200512290100 METAR MRLM NIL=
200512290200 METAR MRLM NIL=
200512290300 METAR MRLM NIL=
200512290400 METAR MRLM NIL=
200512290500 METAR MRLM NIL=
200512290600 METAR MRLM NIL=
200512290700 METAR MRLM NIL=
200512290800 METAR MRLM NIL=
200512290900 METAR MRLM NIL=
200512291000 METAR MRLM NIL=
200512291100 METAR MRLM NIL=
200512291200 METAR MRLM NIL=
200512291300 METAR MRLM 291300Z 22003KT 9999 FEW025 BKN240 22/20 A2986=
200512291400 METAR MRLM 291400Z 20003KT 9999 FEW025 BKN250 25/22 A2990=
200512291500 METAR MRLM 291500Z 04003KT 9999 FEW025 SCT250 27/21 A2991=
200512291600 METAR MRLM 291600Z 36006KT 9999 FEW025 BKN250 27/23 A2990=
200512291700 METAR MRLM 291700Z 01006KT 9999 FEW025 BKN250 27/22 A2989=
200512291800 METAR MRLM 291800Z 01007KT 9999 FEW025 BKN250 27/23 A2987=
200512291900 METAR MRLM 291900Z 36006KT 9999 FEW025 BKN250 27/23 A2983=
200512292000 METAR MRLM NIL=
200512292100 METAR MRLM 292100Z 02005KT 9999 FEW025 BKN250 27/23 A2979=
200512292200 METAR MRLM 292200Z 04004KT 9999 SCT025 BKN250 27/23 A2980 TCU NE=
200512292300 METAR MRLM 292300Z 05003KT 9999 SCT025 BKN250 27/23 A2981 TCU DST S SW=
200512300000 METAR MRLM 300000Z 08004KT 9999 SCT025 SCT250 26/22 A2982 TCU DST S SE=
200512300100 METAR MRLM NIL=
200512300200 METAR MRLM NIL=
200512300300 METAR MRLM NIL=
200512300400 METAR MRLM NIL=
200512300500 METAR MRLM NIL=
200512300600 METAR MRLM NIL=
200512300700 METAR MRLM NIL=
200512300800 METAR MRLM NIL=
200512300900 METAR MRLM NIL=
200512301000 METAR MRLM NIL=
200512301100 METAR MRLM NIL=
200512301200 METAR MRLM NIL=
200512301300 METAR MRLM 301300Z 20005KT 9999 OVC025 23/21 A2986 RN DST W NW NE E=
200512301400 METAR MRLM 301400Z VRB03KT 9999 SCT025 25/22 A2989 RN DST NW N=
200512301500 METAR MRLM 301500Z 09005KT 9999 BKN023 27/23 A2991 DZ NE=
200512301600 METAR MRLM 301600Z 09007KT 9999 SCT030 27/22 A2990=
200512301700 METAR MRLM 301700Z 07007KT 9999 SCT030 28/22 A2989=
200512301800 METAR MRLM 301800Z 07008KT 9999 FEW028 28/22 A2986=
200512301900 METAR MRLM 301900Z 06007KT 9999 FEW030 28/22 A2983=
200512302000 METAR MRLM NIL=
200512302100 METAR MRLM 302100Z 05007KT 9999 FEW037 28/21 A2981=
200512302200 METAR MRLM 302200Z 06006KT 9999 FEW032 27/21 A2981=
200512302300 METAR MRLM 302300Z 05005KT 9999 FEW030 BKN100 27/21 A2982=
200512310000 METAR MRLM 310000Z 10005KT 9999 FEW028 BKN100 26/21 A2984 HZ ARND=
200512310100 METAR MRLM NIL=
200512310200 METAR MRLM NIL=
200512310300 METAR MRLM NIL=
200512310400 METAR MRLM NIL=
200512310500 METAR MRLM NIL=
200512310600 METAR MRLM NIL=
200512310700 METAR MRLM NIL=
200512310800 METAR MRLM NIL=
200512310900 METAR MRLM NIL=
200512311000 METAR MRLM NIL=
200512311100 METAR MRLM NIL=
200512311200 METAR MRLM NIL=
200512311300 METAR MRLM 311300Z 22005KT CAVOK 21/19 A2991 FEW300=
200512311400 METAR MRLM 311400Z 21004KT CAVOK 25/21 A2992 FEW300=
200512311500 METAR MRLM 311500Z 09004KT CAVOK 27/20 A2993=
200512311600 METAR MRLM 311600Z 07004KT 9999 FEW033 27/20 A2992=
200512311700 METAR MRLM NIL=
200512311800 METAR MRLM 311800Z 07006KT 9999 FEW040 28/20 A2988=
200512311900 METAR MRLM 311900Z 06008KT 9999 FEW038 28/21 A2985=
200512312000 METAR MRLM NIL=
200512312100 METAR MRLM NIL=
200512312200 METAR MRLM 312200Z 07007KT 9999 FEW030 BKN300 27/21 A2982 RMK HZY=
200512312300 METAR MRLM 312300Z 08007KT 9999 FEW030 BKN300 27/21 A2983 RMK HZY=
