200601010000 METAR MRLM 010000Z 00000KT 9999 FEW015 BKN280 24/21 A2983 RMK KZ LEVE ARND=
200601010100 METAR MRLM NIL=
200601010200 METAR MRLM NIL=
200601010300 METAR MRLM NIL=
200601010400 METAR MRLM NIL=
200601010500 METAR MRLM NIL=
200601010600 METAR MRLM NIL=
200601010700 METAR MRLM NIL=
200601010800 METAR MRLM NIL=
200601010900 METAR MRLM NIL=
200601011000 METAR MRLM NIL=
200601011100 METAR MRLM NIL=
200601011200 METAR MRLM NIL=
200601011300 METAR MRLM 011300Z 20004KT 9999 -DZ BKN035 SCT080 20/19 A2988=
200601011400 METAR MRLM 011400Z 18004KT 9999 SCT035 BKN080 22/20 A2992 RERA RMK RN DST NW N E=
200601011500 METAR MRLM 011500Z 19003KT 9999 FEW030 SCT090 25/20 A2991 RMK TCU RN DST NW E NE=
200601011600 METAR MRLM 011600Z 32003KT 9999 FEW030 BKN090 26/20 A2990 RMK TCU RN DST NW N NE E=
200601011700 METAR MRLM 011700Z 33011KT 9999 FEW030 BKN080 26/20 A2990 RMK DZ DST W NE E=
200601011800 METAR MRLM 011800Z 32005KT 9999 FEW030 BKN080 25/21 A2987 RMK RN DST ARND=
200601011900 METAR MRLM 011900Z 02003KT 9999 FEW030 BKN080 26/21 A2985 RMK DZ DST ARND=
200601012000 METAR MRLM NIL=
200601012100 METAR MRLM 012100Z 36003KT 9999 FEW030 BKN090 26/22 A2981 RMK RN W=
200601012200 METAR MRLM 012200Z 34003KT 9999 FEW030 BKN080 26/22 A2982=
200601012300 METAR MRLM 012300Z 34003KT 9999 FEW030 BKN080 26/22 A2983=
200601020000 METAR MRLM 020000Z 22003KT 9999 FEW030 BKN080 25/22 A2984 RMK RN DST W E=
200601020100 METAR MRLM NIL=
200601020200 METAR MRLM NIL=
200601020300 METAR MRLM NIL=
200601020400 METAR MRLM NIL=
200601020500 METAR MRLM NIL=
200601020600 METAR MRLM NIL=
200601020700 METAR MRLM NIL=
200601020800 METAR MRLM NIL=
200601020900 METAR MRLM NIL=
200601021000 METAR MRLM NIL=
200601021100 METAR MRLM NIL=
200601021200 METAR MRLM NIL=
200601021300 METAR MRLM 021300Z 21004KT 9999 FEW025 SCT280 22/20 A2993=
200601021400 METAR MRLM 021400Z 21003KT 9999 FEW025 SCT300 24/21 A2994=
200601021500 METAR MRLM 021500Z 19003KT 9999 FEW025 SCT300 27/22 A2995=
200601021600 METAR MRLM 021600Z 02003KT 9999 FEW025 SCT300 28/21 A2995=
200601021700 METAR MRLM 021700Z 02003KT 9999 FEW025 SCT090 28/21 A2995=
200601021800 METAR MRLM 021800Z 04003KT 9999 FEW025 SCT090 28/21 A2993=
200601021900 METAR MRLM 021900Z 02004KT 9999 FEW025 SCT300 28/22 A2990=
200601022000 METAR MRLM NIL=
200601022100 METAR MRLM 022100Z 03004KT 9999 FEW025 SCT280 27/22 A2986=
200601022200 METAR MRLM 022200Z 03003KT 9999 FEW025 SCT280 28/22 A2987=
200601022300 METAR MRLM 022300Z 23003KT 9999 FEW025 SCT260 27/23 A2989=
200601030000 METAR MRLM 030000Z 00000KT 9999 SCT025 SCT230 24/22 A2989=
200601030100 METAR MRLM NIL=
200601030200 METAR MRLM NIL=
200601030300 METAR MRLM NIL=
200601030400 METAR MRLM NIL=
200601030500 METAR MRLM NIL=
200601030600 METAR MRLM NIL=
200601030700 METAR MRLM NIL=
200601030800 METAR MRLM NIL=
200601030900 METAR MRLM NIL=
200601031000 METAR MRLM NIL=
200601031100 METAR MRLM NIL=
200601031200 METAR MRLM NIL=
200601031300 METAR MRLM 031300Z 24004KT 9999 FEW015 BKN090 21/19 A2993 TCU RN N E=
200601031400 METAR MRLM 031400Z 20005KT 9999 FEW015 BKN100 20/19 A2996 RMK TCU RN N NE E=
200601031500 METAR MRLM 031500Z 00000KT 9999 FEW025 OVC100 26/21 A2997 RMK RN NE E NW=
200601031600 METAR MRLM NIL=
200601031700 METAR MRLM 031700Z 03005KT 9999 FEW026 OVC100 27/22 A2996 RN NE E=
200601031800 METAR MRLM 031800Z 03006KT 9999 FEW027 SCT090 BKN110 27/22 A2994 RMK TCU RN NW NE E=
200601031900 METAR MRLM 031900Z 04007KT 9999 FEW030 SCT090 BKN120 28/22 A2991 RMK RN NE E=
200601032000 METAR MRLM NIL=
200601032100 METAR MRLM 032100Z 03005KT 9999 FEW028 BKN100 27/22 A2988=
200601032200 METAR MRLM 032200Z 02007KT 9999 FEW024TCU BKN120 27/22 A2988 RN DST S SW W DZ NE E HZ ARND=
200601032300 METAR MRLM 032300Z 01004KT 9999 FEW025 BKN110 26/21 A2988 RN DST SSW W DZ N E=
200601040000 METAR MRLM 040000Z VRB03KT CAVOK 25/22 A2990=
200601040100 METAR MRLM NIL=
200601040200 METAR MRLM NIL=
200601040300 METAR MRLM NIL=
200601040400 METAR MRLM NIL=
200601040500 METAR MRLM NIL=
200601040600 METAR MRLM NIL=
200601040700 METAR MRLM NIL=
200601040800 METAR MRLM NIL=
200601040900 METAR MRLM NIL=
200601041000 METAR MRLM NIL=
200601041100 METAR MRLM NIL=
200601041200 METAR MRLM NIL=
200601041300 METAR MRLM 041300Z 00000KT 9999 FEW015 SCT080 BKN140 21/19 A2993 TCU RN DST N NE E=
200601041400 METAR MRLM 041400Z 00000KT 9999 FEW022 SCT090 BKN140 25/21 A2996 TCU RN DST NW NE E=
200601041500 METAR MRLM 041500Z VRB03KT 9999 FEW027 BKN080 26/21 A2996 DZ NW CB DST NE=
200601041600 METAR MRLM 041600Z VRB03KT 9999 FEW030 OVC080 27/21 A2996 RN DST NE HZ ARND=
200601041700 METAR MRLM 041700Z 02006KT 9999 FEW030 SCT110 27/21 A2995 TCU RN DST N NE E=
200601041800 METAR MRLM 041800Z 35006KT 9999 FEW030 BKN090 27/21 A2991 CB DST NW=
200601041900 METAR MRLM 041900Z 01008KT 9999 FEW030 OVC100 27/21 A2988=
200601042000 METAR MRLM NIL=
200601042100 METAR MRLM 042100Z 01006KT 9999 FEW030 SCT090 BKN120 27/21 A2985 TCU RN SW=
200601042200 METAR MRLM 042200Z 35005KT 9999 FEW028 SCT090 BKN120 26/21 A2985 RN DST SW=
200601042300 METAR MRLM 042300Z VRB03KT 9999 FEW020 SCT110 25/21 A2986 CB S=
200601050000 METAR MRLM 050000Z 00000KT 9999 FEW012 SCT110 BKN270 23/21 A2987 CB S=
200601050100 METAR MRLM NIL=
200601050200 METAR MRLM NIL=
200601050300 METAR MRLM NIL=
200601050400 METAR MRLM NIL=
200601050500 METAR MRLM NIL=
200601050600 METAR MRLM NIL=
200601050700 METAR MRLM NIL=
200601050800 METAR MRLM NIL=
200601050900 METAR MRLM NIL=
200601051000 METAR MRLM NIL=
200601051100 METAR MRLM NIL=
200601051200 METAR MRLM NIL=
200601051300 METAR MRLM 051300Z 22003KT 9999 FEW026 BKN080 21/20 A2990=
200601051400 METAR MRLM 051400Z 20003KT 9999 FEW026 BKN230 24/21 A2992 TCU NW N E=
200601051500 METAR MRLM 051500Z 00000KT 9999 FEW026 SCT100 BKN230 26/21 A2993 CB NW N NE=
200601051600 METAR MRLM 051600Z 02005KT 9999 FEW026 SCT090 27/21 A2995 CB RN W NW N NE=
200601051700 METAR MRLM 051700Z 05010KT 9999 2000W DZ BKN025 SCT090 24/22 A2993 RERA=
200601051800 METAR MRLM 051800Z 11006KT 9999 SCT024 BKN080 24/22 A2989 REDZ=
200601051900 METAR MRLM 051900Z 11004KT 9999 SCT025 BKN080 25/21 A2986 RN DST ARND=
200601052100 METAR MRLM 052100Z 21003KT 9999 FEW025 SCT090 27/20 A2983 RMK RN DST N NE=
200601052200 METAR MRLM 052200Z 35006KT 9999 SCT030 BKN090 25/21 A2983 RMK TCU DST WNW=
200601052300 METAR MRLM 052300Z 24003KT 9999 FEW028 BKN080 24/21 A2984 RMK RN DST N E NE=
200601060000 METAR MRLM 060000Z 23003KT 9999 -DZ BKN024 SCT080 24/22 A2984 RMK RN DST ARND=
200601060100 METAR MRLM NIL=
200601060200 METAR MRLM NIL=
200601060300 METAR MRLM NIL=
200601060400 METAR MRLM NIL=
200601060500 METAR MRLM NIL=
200601060600 METAR MRLM NIL=
200601060700 METAR MRLM NIL=
200601060800 METAR MRLM NIL=
200601060900 METAR MRLM NIL=
200601061000 METAR MRLM NIL=
200601061100 METAR MRLM NIL=
200601061200 METAR MRLM NIL=
200601061300 METAR MRLM 061300Z 27009KT 9999 2000N +DZ BKN015 21/20 A2992 RMK RN ARND=
200601061400 METAR MRLM 061400Z 29009KT 3000 -RA SCT012 BKN018 20/18 A2997=
200601061500 METAR MRLM 061500Z 24006KT 4000 -RA BKN015 20/19 A2997=
200601061600 METAR MRLM 061600Z 24006KT 9999 DZ BKN026 SCT090 20/19 A2997 RERA RMK RN DST ARND=
200601061700 METAR MRLM 061700Z 24007KT 9999 -DZ SCT026 BKN080 21/20 A2995 RMK RN=
200601061800 METAR MRLM 061800Z 24008KT 8000 +DZ BKN026 SCT080 21/20 A2993 RMK RN ARND=
200601061900 METAR MRLM 061900Z 27005KT 3000 -RA BKN024 SCT080 21/20 A2991=
200601062000 METAR MRLM NIL=
200601062100 METAR MRLM 062100Z 23006KT 8000DZ BKN025 SCT080 20/19 A2988 RERA RMK RN ARND=
200601062200 METAR MRLM 062200Z 23005KT 9999 SCT030 BKN080 20/19 A2989 REDZ RMK RN ARND=
200601062300 METAR MRLM 062300Z 23006KT 9999 SCT035 SCT080 21/18 A2990 RMK RN ARND=
200601070000 METAR MRLM 070000Z 01004KT 8000DZ SCT040 SCT080 20/19 A2991=
200601070100 METAR MRLM NIL=
200601070200 METAR MRLM NIL=
200601070300 METAR MRLM NIL=
200601070400 METAR MRLM NIL=
200601070500 METAR MRLM NIL=
200601070600 METAR MRLM NIL=
200601070700 METAR MRLM NIL=
200601070800 METAR MRLM NIL=
200601070900 METAR MRLM NIL=
200601071000 METAR MRLM NIL=
200601071100 METAR MRLM NIL=
200601071200 METAR MRLM NIL=
200601071300 METAR MRLM 071300Z 26012KT 9999 FEW015 SCT080 BKN110 20/18 A2997 RMK RN W N S=
200601071400 METAR MRLM 071400Z 28010KT 9999 FEW025 BKN090 21/17 A3000 RMK RN W N=
200601071500 METAR MRLM 071500Z 28012KT 5000 RA FEW009 BKN025 20/19 A3005=
200601071600 METAR MRLM NIL=
200601071608 METAR MRLM 081608Z 24007KK 9999 DZ FEW006 BKN090 20/19 A3004=
200601071700 METAR MRLM 071700Z 27007KT 9999 FEW013 SCT080 BKN100 22/19 A3001 RMK RN S W=
200601071800 METAR MRLM 071800Z 27010KT 9999 SCT020 SCT080 BKN130 24/20 A2997 RMK RN W N=
200601071900 METAR MRLM 071900Z 01011KT 4000 RA SCT015 SCT080 BKN110 23/20 A2996=
200601072100 METAR MRLM 072100Z 27009KT 9999 FEW010 BKN090 22/20 A2992 RN ARND=
200601072200 METAR MRLM 072200Z 2501KT 9999 DZ FEW012 SCT025 BKN100 22/20 A2992 RMK RN ARND=
200601072300 METAR MRLM 072300Z 24007KT 9999 DZ FEW010 SCT025 BKN100 22/20 A2994 RMK VSBY E 8KM DUE RN=
200601080000 METAR MRLM 080000Z 27008KT 5000 RA OVC009 21/19 A2996=
200601080100 METAR MRLM NIL=
200601080200 METAR MRLM NIL=
200601080300 METAR MRLM NIL=
200601080400 METAR MRLM NIL=
200601080500 METAR MRLM NIL=
200601080600 METAR MRLM NIL=
200601080700 METAR MRLM NIL=
200601080800 METAR MRLM NIL=
200601080900 METAR MRLM NIL=
200601081000 METAR MRLM NIL=
200601081100 METAR MRLM NIL=
200601081200 METAR MRLM NIL=
200601081300 METAR MRLM 081300Z 25011KT 8000 +DZ FEW006 OVC025 20/19 A2998=
200601081400 METAR MRLM 081400Z 24010KT 9000 -DZ FEW008 BKN025 20/19 A3000=
200601081500 METAR MRLM O81500Z 26007KT 4000 RA FEW008 SCT025 20/19 A3001=
200601081600 METAR MRLM 081600Z 28008KT 8000 RA BKN007 OVC090 21/17 A3001=
200601081700 METAR MRLM 081700Z 30009KT 9999 FEW007 OVC025 21/20 A2999 RERA RMN RN ARND=
200601081800 METAR MRLM 081800Z 26007KT 9000 +DZ SCT007 OVC025 21/20 A2996=
200601081900 METAR MRLM 081900Z 28008KT 9999 FEW007 SCT025 OVC090 22/21 A2993=
200601082000 METAR MRLM NIL=
200601082100 METAR MRLM 082100Z 28005KT 9999 DZ FEW012 BKN025 23/21 A2989 RMK VIS 8000 QUART N DUE RN=
200601082200 METAR MRLM 082200Z 24005KT 5000 RA FEW007 OVC025 23/21 A2990=
200601082300 METAR MRLM 082300Z 25007KT 8000 -DZ FEW007 BKN025 22/21 A2990=
200601090000 METAR MRLM 090000Z 27007KT 9999 RA FEW007 BKN025 22/20 A2992=
200601090100 METAR MRLM NIL=
200601090200 METAR MRLM NIL=
200601090300 METAR MRLM NIL=
200601090400 METAR MRLM NIL=
200601090500 METAR MRLM NIL=
200601090600 METAR MRLM NIL=
200601090700 METAR MRLM NIL=
200601090800 METAR MRLM NIL=
200601090900 METAR MRLM NIL=
200601091000 METAR MRLM NIL=
200601091100 METAR MRLM NIL=
200601091200 METAR MRLM NIL=
200601091300 METAR MRLM 091300Z 24003KT 9999 SCT028 SCT080 21/20 A2994 RN DST N NE=
200601091400 METAR MRLM 091400Z 22003KT 9999 FEW025 BKN080 23/20 A2997=
200601091500 METAR MRLM 091500Z 20003KT 9999 FEW025 SCT090 26/21 A2991 TCU DST NW NNE=
200601091600 METAR MRLM 091600Z 07004KT CAVOK 26/20 A2998=
200601091700 METAR MRLM 091700Z 03004KT CAVOK 27/21 A2996=
200601091800 METAR MRLM 091800Z 02005KT 9999 FEW030 SCT090 27/22 A2994 RN DST NW N=
200601091900 METAR MRLM 091900Z 01009KT 9999 FEW030 SCT090 28/22 A2991=
200601092000 METAR MRLM NIL=
200601092100 METAR MRLM 092100Z 02013KT 9999 FEW030 SCT090 27/22 A2986=
200601092200 METAR MRLM 092200Z 02010KT 9999 FEW030 SCT090 27/22 A2986=
200601092300 METAR MRLM 092300Z 03014KT 9999 FEW030 SCT090 27/22 A2986=
200601100000 METAR MRLM 100000Z 05009KT 9999 FEW030 SCT090 26/22 A2988=
200601100100 METAR MRLM NIL=
200601100200 METAR MRLM NIL=
200601100300 METAR MRLM NIL=
200601100400 METAR MRLM NIL=
200601100500 METAR MRLM NIL=
200601100600 METAR MRLM NIL=
200601100700 METAR MRLM NIL=
200601100800 METAR MRLM NIL=
200601100900 METAR MRLM NIL=
200601101000 METAR MRLM NIL=
200601101100 METAR MRLM NIL=
200601101200 METAR MRLM NIL=
200601101300 METAR MRLM 101300Z 20004KT 9999 FEW028 22/20 A2992 HZ ARND=
200601101400 METAR MRLM 101400Z 19004KT 9999 FEW028 25/21 A2994 HZ ARND=
200601101500 METAR MRLM 101500Z 07003KT 9999 FEW026 SCT100 27/22 A2995 HZ ARND=
200601101600 METAR MRLM 101600Z 07004KT 9999 FEW026 SCT100 27/21 A2994 TCU NW/N HZ ARND=
200601101700 METAR MRLM 101700Z 06004KT 9999 FEW026 27/21 A2993 HZ ARND=
200601101800 METAR MRLM 101800Z 04004KT 9999 FEW026 28/21 A2990 HZ ARND=
200601101900 METAR MRLM 101900Z 03005KT 9999 FEW025 28/22 A2987=
200601102100 METAR MRLM 102100Z 04005KT 9999 FEW026 28/21 A2982=
200601102200 METAR MRLM 102200Z 05004KT CAVOK 27/22 A2984=
200601102300 METAR MRLM 102300Z 04004KT CAVOK 27/21 A2984=
200601110000 METAR MRLM 110000Z 01003KT CAVOK 25/21 A2984=
200601110100 METAR MRLM NIL=
200601110200 METAR MRLM NIL=
200601110300 METAR MRLM NIL=
200601110400 METAR MRLM NIL=
200601110500 METAR MRLM NIL=
200601110600 METAR MRLM NIL=
200601110700 METAR MRLM NIL=
200601110800 METAR MRLM NIL=
200601110900 METAR MRLM NIL=
200601111000 METAR MRLM NIL=
200601111100 METAR MRLM NIL=
200601111200 METAR MRLM NIL=
200601111300 METAR MRLM 111300Z VRB03KT CAVOK 22/21 A2989 RMK TCU RN DST NE LEVE HZY=
200601111400 METAR MRLM 111400Z 22004KT CAVOK 25/21 A2991=
200601111500 METAR MRLM 111500Z VRB03KT CAVOK 25/22 A2992 RMK LEVE HZY DZ DST E=
200601111600 METAR MRLM 111600Z VRB03KT 9999 FEW030 27/21 A2991 RMK HZY=
200601111700 METAR MRLM 111700Z 04006KT 9999 FEW028 27/22 A2990 RMR HZY=
200601111800 METAR MRLM 111800Z 03004KT 9999 FEW034 27/21 A2986 RMK TCU DST QUAD N HZY=
200601111900 METAR MRLM 111900Z 02008KT 9999 FEW030 SCT110 27/21 A2985 RMK TCU RN DST QUAD N=
200601112000 METAR MRLM NIL=
200601112100 METAR MRLM 112100Z 03006KT 9999 FEW027 BKN100 27/22 A2980 RMK DZ E=
200601112200 METAR MRLM 112200Z 03006KT 9999 FEW027 BKN100 27/22 A2980 RMK DZ E=
200601112300 METAR MRLM 112300Z 05004KT 9999 FEW024 SCT090 BKN110 26/22 A2981 RMK TCU RN SW DZ E NE=
200601120000 METAR MRLM 120000Z 02005KT 9999 FEW025 SCT090 BKN110 26/21 A2982=
200601120100 METAR MRLM NIL=
200601120200 METAR MRLM NIL=
200601120300 METAR MRLM NIL=
200601120400 METAR MRLM NIL=
200601120500 METAR MRLM NIL=
200601120600 METAR MRLM NIL=
200601120700 METAR MRLM NIL=
200601120800 METAR MRLM NIL=
200601120900 METAR MRLM NIL=
200601121000 METAR MRLM NIL=
200601121100 METAR MRLM NIL=
200601121200 METAR MRLM NIL=
200601121300 METAR MRLM 121300Z 20006KT CAVOK 21/20 A2964 TMK TCU RN N NE=
200601121400 METAR MRLM 121400Z 22005KT CAVOK 23/21 A2986 RMK TCU RN N NE=
200601121500 METAR MRLM 121500Z VRB03KT CAVOK 27/22 A2987=
200601121600 METAR MRLM 121600Z 02006KT 9999 FEW028 SCT090 BKN120 27/21 A2987=
200601121700 METAR MRLM 121700Z 01005KT 9999 FEW030 OVC100 27/21 A2986=
200601121900 METAR MRLM 121900Z 01006KT 9999 FEW027 OVC100 27/21 A2980=
200601122000 METAR MRLM NIL=
200601122100 METAR MRLM 122100Z 36005KT 9999 FEW023 BKN100 27/22 A2977=
200601122200 METAR MRLM 122200Z VRB03KT 9999 SCT027 BKN090 27/21 A2977 RMK HZY=
200601122300 METAR MRLM 122300Z VRB03KT 9999 FEW025 BKN090 27/22 A2978=
200601130000 METAR MRLM NIL=
200601130100 METAR MRLM NIL=
200601130200 METAR MRLM NIL=
200601130300 METAR MRLM NIL=
200601130400 METAR MRLM NIL=
200601130500 METAR MRLM NIL=
200601130600 METAR MRLM NIL=
200601130700 METAR MRLM NIL=
200601130800 METAR MRLM NIL=
200601130900 METAR MRLM NIL=
200601131000 METAR MRLM NIL=
200601131100 METAR MRLM NIL=
200601131200 METAR MRLM NIL=
200601131300 METAR MRLM 131300Z 20004KT 9999 FEW025 SCT090 22/20 A2986=
200601131400 METAR MRLM 131400Z 22003KT 9999 FEW025 25/22 A2987=
200601131500 METAR MRLM 131500Z 00000KT 9999 FEW025 SCT100 27/22 A2988=
200601131600 METAR MRLM 131600Z 03003KT 9999 FEW030 BKN100 27/22 A2988=
200601131700 METAR MRLM 131700Z 01005KT 9999 FEW030 BKN100 27/22 A2987=
200601131800 METAR MRLM 131800Z 36005KT 9999 FEW030 BKN090 27/22 A2984 RMK HZY=
200601131900 METAR MRLM 131900Z 01004KT 9999 FEW030 BKN090 27/22 A2981=
200601132000 METAR MRLM NIL=
200601132100 METAR MRLM 132100Z 21004KT 9999 FEW030 27/22 A2979=
200601132200 METAR MRLM 132200Z 02003KT 9999 FEW030 27/22 A2979=
200601132300 METAR MRLM 132300Z 03003KT 9999 FEW030 27/22 A2980=
200601140000 METAR MRLM 140000Z 03003KT 9999 SCT030 26/22 A2981=
200601140100 METAR MRLM NIL=
200601140200 METAR MRLM NIL=
200601140300 METAR MRLM NIL=
200601140400 METAR MRLM NIL=
200601140500 METAR MRLM NIL=
200601140600 METAR MRLM NIL=
200601140700 METAR MRLM NIL=
200601140800 METAR MRLM NIL=
200601140900 METAR MRLM NIL=
200601141000 METAR MRLM NIL=
200601141100 METAR MRLM NIL=
200601141200 METAR MRLM NIL=
200601141300 METAR MRLM 141300Z 21005KT 9999 FEW025 SCT090 21/20 A2989=
200601141400 METAR MRLM 141400Z 22004KT 9999 FEW025 BKN090 23/20 A2991 RMK TCU RN DST N/NE=
200601141500 METAR MRLM 141500Z 23003KT 9999 FEW030 BKN080 26/21 A2992 TCU RN DST N NE=
200601141600 METAR MRLM 141600Z 07003KT 9999 FEW028 BKN080 26/22 A2993 REDZ RN DST N NE=
200601141700 METAR MRLM 141700Z 10003KT 9999 FEW028 BKN090 27/22 A2991 HZ ARND=
200601141800 METAR MRLM 141800Z 33013KT 9999 SCT028 BKN080 27/22 A2988=
200601141900 METAR MRLM 141900Z 30009KT 9999 FEW025 BKN090 27/22 A2986=
200601142000 METAR MRLM NIL=
200601142100 METAR MRLM 142100Z 32010KT 9999 FEW025 SCT090 BKN220 28/22 A2982=
200601142200 METAR MRLM 142200Z 23012KT 9999 FEW025 SCT100 27/22 A2984=
200601142300 METAR MRLM 142300Z 30006KT 9999 SCT035 BKN090 26/22 A2984=
200601150000 METAR MRLM 150000Z 30005KT 9999 SCT024 SCT080 25/22 A2987=
200601150100 METAR MRLM NIL=
200601150200 METAR MRLM NIL=
200601150300 METAR MRLM NIL=
200601150400 METAR MRLM NIL=
200601150500 METAR MRLM NIL=
200601150600 METAR MRLM NIL=
200601150700 METAR MRLM NIL=
200601150800 METAR MRLM NIL=
200601150900 METAR MRLM NIL=
200601151000 METAR MRLM NIL=
200601151100 METAR MRLM NIL=
200601151200 METAR MRLM NIL=
200601151300 METAR MRLM 151300Z 21004KT 9999 SCT005 SCT090 22/20 A2990=
200601151400 METAR MRLM 151400Z 00000KT 1000 +RA OVC010 22/21 A2993=
200601151500 METAR MRLM 151500Z 21006KT 9999 FEW007 OVC020TCU 23/22 A2991=
200601151600 METAR MRLM 151600Z 20005KT 8000 DZ FEW007 OVC015TCU 23/22 A2990=
200601151800 METAR MRLM 151800Z 27005KT 8000 DZ FEW010 OVC015TCU 24/23 A2987=
200601151900 METAR MRLM 151900Z 36007KT 8000 RA FEW006 BKN015 22/21 A2986=
200601152000 METAR MRLM 152000Z 02017KT 8000 -DZ FEW005 BKN012 25/23 A2984 RMK VIS 9999 CUAD N=
200601152100 METAR MRLM 152100Z 36012KT 2000 +RA FEW005 BKN012 26/23 A2984=
200601152200 METAR MRLM 152200Z 04016KT 4000 RA FEW002 BKN010 23/22 A2987=
200601152300 METAR MRLM 152300Z 01011KT 3000 -RA OVC010 22/20 A2987=
200601160000 METAR MRLM 160000Z 07011KT 3000 -RA OVC010 22/21 A2989=
200601160100 METAR MRLM NIL=
200601160200 METAR MRLM NIL=
200601160300 METAR MRLM NIL=
200601160400 METAR MRLM NIL=
200601160500 METAR MRLM NIL=
200601160600 METAR MRLM NIL=
200601160700 METAR MRLM NIL=
200601160800 METAR MRLM NIL=
200601160900 METAR MRLM NIL=
200601161000 METAR MRLM NIL=
200601161100 METAR MRLM NIL=
200601161200 METAR MRLM NIL=
200601161300 METAR MRLM 161300Z 27010KT 8000 -DZ FEW005 OVC020 20/19 A2990 RMK RN DST ARND HZY=
200601161400 METAR MRLM 161400Z 26007KT 5000 FEW005 OVC020 20/19 A2992=
200601161500 METAR MRLM NIL=
200601161600 METAR MRLM 161600Z 27008KT 5000 RA FEW005 BKN025 21/20 A2993=
200601161700 METAR MRLM 161700Z 26012KT 6000 RA FEW005 OVC023 21/20 A2991=
200601161800 METAR MRLM 161800Z 29009KT 6000 RA SCT005 OVC020 21/20 A2991 RMK 3000NW RA=
200601161900 METAR MRLM 161900Z 29009KT 5000 RA SCT005 BKN020 21/20 A2989=
200601162000 METAR MRLM 162000Z 27007KT 6000 -DZ SCT005 BKN025 21/20 A2985 RMK 9999 QUAD N=
200601162100 METAR MRLM 162100Z 27006KT 9999 SCT005 OVC020 21/20 A2984=
200601162200 METAR MRLM 162200Z 28006KT 4000 RA SCT005 SCT025 OVC090 21/20 A2984=
200601162300 METAR MRLM 162300Z 29007KT 9999 FEW005 SCT025 OVC100 21/20 A2985 RMK RN ARND=
200601170000 METAR MRLM 170000Z 28007KT 9999 FEW005 SCT025 BKN100 21/20 A2984 RMK RN W N=
200601170100 METAR MRLM NIL=
200601170200 METAR MRLM NIL=
200601170300 METAR MRLM NIL=
200601170400 METAR MRLM NIL=
200601170500 METAR MRLM NIL=
200601170600 METAR MRLM NIL=
200601170700 METAR MRLM NIL=
200601170800 METAR MRLM NIL=
200601170900 METAR MRLM NIL=
200601171000 METAR MRLM NIL=
200601171100 METAR MRLM NIL=
200601171200 METAR MRLM NIL=
200601171300 METAR MRLM 171300Z 00000KT CAVOK 21/20 A2990=
200601171400 METAR MRLM 171400Z 23003KT CAVOK 22/20 A2992=
200601171500 METAR MRLM 171500Z 26004KT 9999 FEW030 BKN090 24/21 A2993=
200601171600 METAR MRLM 171600Z 34004KT 9999 FEW030 BKN090 26/21 A2993=
200601171700 METAR MRLM 171700Z 33005KT 9999 FEW030 SCT090 27/21 A2992=
200601171800 METAR MRLM 171800Z 35008KT 9999 FEW030 27/23 A2990=
200601171900 METAR MRLM 171900Z 35007KT 9999 FEW030 27/22 A2989=
200601172000 METAR MRLM NIL=
200601172100 METAR MRLM 172100Z 36006KT 9999 FEW030 BKN100 27/22 A2986=
200601172200 METAR MRLM 172200Z 35005KT 9999 FEW028 SCTR100 BKN220 27/22 A2986 RMK RN DST SW W=
200601172300 METAR MRLM 172300Z 33004KT 9999 FEW028 BKN220 27/22 A2987=
200601180000 METAR MRLM NIL=
200601180100 METAR MRLM NIL=
200601180200 METAR MRLM NIL=
200601180300 METAR MRLM NIL=
200601180400 METAR MRLM NIL=
200601180500 METAR MRLM NIL=
200601180600 METAR MRLM NIL=
200601180700 METAR MRLM NIL=
200601180800 METAR MRLM NIL=
200601180900 METAR MRLM NIL=
200601181000 METAR MRLM NIL=
200601181100 METAR MRLM NIL=
200601181200 METAR MRLM NIL=
200601181300 METAR MRLM 181300Z 21004KT 9999 FEW028 BKN090 21/20 A2998 RMK TCU RN NW N NE E=
200601181400 METAR MRLM 181400Z 20004KT 9999 SCT030 BKN090 23/21 A3001 RMK TCU RN WNW NW N NE=
200601181500 METAR MRLM 181500Z 29008KT 3000 -RA SCT020 BKN080 23/21 A3003 RMK TCU=
200601181600 METAR MRLM 181600Z 22005KT 9999 SCT025 SCT24/22 A3002 RERA RMK RN DST ARND=
200601181700 METAR MRLM 181700Z 24008KT 9999 FEW025 BKN090 27/22 A3000 RMK RN DST NW N=
200601181800 METAR MRLM 181800Z 29005KT 9999 FEW030 BKN090 27/22 A2997 RMK RN DSY NE E=
200601181900 METAR MRLM 181900Z 02006KT 9999 FEW025 BKN045 27/22 A2995 RMK RN DST ARND HZY=
200601182000 METAR MRLM NIL=
200601182100 METAR MRLM 182100Z 16004KT 9999 BKN024 24/22 A2992 RERE RN DST ARND=
200601182300 METAR MRLM 182300Z 20004KT 9999 -RA SCT024 SCT045 24/22 A2994=
200601190000 METAR MRLM 190000Z 16005KT 8000 BKN024 23/22 A2995 RERA=
200601190100 METAR MRLM NIL=
200601190200 METAR MRLM NIL=
200601190300 METAR MRLM NIL=
200601190400 METAR MRLM NIL=
200601190500 METAR MRLM NIL=
200601190600 METAR MRLM NIL=
200601190700 METAR MRLM NIL=
200601190800 METAR MRLM NIL=
200601190900 METAR MRLM NIL=
200601191000 METAR MRLM NIL=
200601191100 METAR MRLM NIL=
200601191200 METAR MRLM NIL=
200601191300 METAR MRLM 191300Z 13004KT 9999 DZ SCT015TCU SCT030 21/19 A2994 RN ARND=
200601191400 METAR MRLM 191400Z 21006KT 9999 FEW015 SCT090 23/21 A2997=
200601191500 METAR MRLM 191500Z 17004KT 9999 FEW023 26/22 A2998 HZ ARND=
200601191600 METAR MRLM 191600Z VRB03KT 9999 SCT033 27/21 A2997=
200601191700 METAR MRLM 191700Z VRB03KT 9999 SCT035 28/21 A2995=
200601191800 METAR MRLM 191800Z VRB03KT 9999 SCT040 28/20 A2995 HZ ARND=
200601191900 METAR MRLM 191900Z 05005KT 9999 FEW035 OVC100 27/20 A2989 RN DST N HZ ARND=
200601192000 METAR MRLM NIL=
200601192100 METAR MRLM 192100Z 35007KT 9999 FEW036 SCT090 BKN110 26/19 A2984 RN DST W/N=
200601192200 METAR MRLM 192200Z 36012KT 9999 SCT022 SCT090 BKN110 25/21 A2984 RN DST W=
200601192300 METAR MRLM 192300Z 34006KT 9999 FEW028 BKN090 25/20 A2985 RN DST W=
200601200000 METAR MRLM 200000Z 00000KT 9999 FEW014 OVC090 23/20 A2986 RN DST E=
200601200100 METAR MRLM NIL=
200601200200 METAR MRLM NIL=
200601200300 METAR MRLM NIL=
200601200400 METAR MRLM NIL=
200601200500 METAR MRLM NIL=
200601200600 METAR MRLM NIL=
200601200700 METAR MRLM NIL=
200601200800 METAR MRLM NIL=
200601200900 METAR MRLM NIL=
200601201000 METAR MRLM NIL=
200601201100 METAR MRLM NIL=
200601201200 METAR MRLM NIL=
200601201300 METAR MRLM 201300Z 25007KT 9999 4000NW RA OVC012 22/20 A2987 RERA=
200601201400 METAR MRLM 201400Z 22007KT 9999 OVC013 24/21 A2988 RN DST W=
200601201500 METAR MRLM 201500Z 16005KT 9999 SCT025 27/22 A2988 HZ ARND CB E NE DST=
200601201600 METAR MRLM 201600Z 11009KT 9999 SCT035 28/21 A2988 HZ ARND=
200601201700 METAR MRLM 201700Z 09007KT 9999 BKN035 29/22 A2986 HZ ARND=
200601201800 METAR MRLM 201800Z 10012KT 9999 BKN035 28/21 A2984 HZ ARND=
200601201900 METAR MRLM 201900Z 11010KT 9999 SCT040 29/21 A2980 HZ ARND=
200601202000 METAR MRLM NIL=
200601202100 METAR MRLM 202100Z 10009KT 9999 SCT036 28/21 A2976=
200601202200 METAR MRLM 202200Z 10008KT 9999 FEW034 28/21 A2976 RMK HZY=
200601202300 METAR MRLM 202300Z 07007KT 9999 SCT030 27/21 A2978 RMK TCU RN DST E HZY=
200601210000 METAR MRLM 210000Z 07009KT 9999 BKN022 26/22 A2979 RMK DZ DST SE HZY=
200601210100 METAR MRLM NIL=
200601210200 METAR MRLM NIL=
200601210300 METAR MRLM NIL=
200601210400 METAR MRLM NIL=
200601210500 METAR MRLM NIL=
200601210600 METAR MRLM NIL=
200601210700 METAR MRLM NIL=
200601210800 METAR MRLM NIL=
200601210900 METAR MRLM NIL=
200601211000 METAR MRLM NIL=
200601211100 METAR MRLM NIL=
200601211200 METAR MRLM NIL=
200601211300 METAR MRLM 211300Z 21003KT 9999 FEW030 20/19 A2984 RMK HZY=
200601211400 METAR MRLM 211400Z 23003KT 9999 FEW028 BKN080 22/20 A2985 RMK HZ=
200601211500 METAR MRLM 211500Z 28003KT 9999 FEW028 BKN080 23/19 A2987 RMK HZY=
200601211600 METAR MRLM 211600Z 25003KT 9999 FEW025 BKN080 27/20 A2986 RMK HZY=
200601211700 METAR MRLM 211700Z 03003KT 9999 FEW025 SCT090 27/21 A2984 RMK TCU DST N HZY=
200601211800 METAR MRLM 211800Z 36005KT 9999 FEW025 BKN090 27/21 A2982 RMK RN DST NE E HZY=
200601211900 METAR MRLM 211900Z 35005KT 9999 FEW025 BKN090 27/22 A2979 RMK RN DIST SSE/ HZ ARND=
200601212000 METAR MRLM NIL=
200601212100 METAR MRLM 212100Z 36005KT 9999 FEW025 BKN100 27/22 A2975 RMK RN NW NE=
200601212200 METAR MRLM 212200Z 36005KT 9999 SCT030 BKN080 26/23 A2976 RN E SE=
200601212300 METAR MRLM 212300Z 05004KT 9999 FEW026 SCT080 26/22 A2977=
200601220000 METAR MRLM 220000Z 00000KT 9999 FEW030 SCT080 25/22 A2978 RMK RN DST N NE=
200601220100 METAR MRLM NIL=
200601220200 METAR MRLM NIL=
200601220300 METAR MRLM NIL=
200601220400 METAR MRLM NIL=
200601220500 METAR MRLM NIL=
200601220600 METAR MRLM NIL=
200601220700 METAR MRLM NIL=
200601220800 METAR MRLM NIL=
200601220900 METAR MRLM NIL=
200601221000 METAR MRLM NIL=
200601221100 METAR MRLM NIL=
200601221200 METAR MRLM NIL=
200601221300 METAR MRLM 221300Z 19005KT 9999 FEW030 BKN090 21/20 A2982 RMK RN E SE=
200601221400 METAR MRLM 221400Z 20004KT 9999 FEW030 SCT090 23/21 A2984=
200601221500 METAR MRLM 221500Z 18003KT 9999 FEW030 27/22 A2984=
200601221600 METAR MRLM 221600Z 09005KT 9999 FEW030 27/22 A2983=
200601221700 METAR MRLM 221700Z 03005KT 9999 FEW030 27/22 A2982=
200601221800 METAR MRLM 221800Z 03005KT 9999 FEW030 28/22 A2980=
200601221900 METAR MRLM 221900Z 02004KT 9999 FEW030 27/22 A2977=
200601222000 METAR MRLM NIL=
200601222100 METAR MRLM 222100Z 36005KT 9999 FEW028 SCT100 28/22 A2973=
200601222200 METAR MRLM 222200Z 36007KT 9999 FEW028 27/22 A2974=
200601222300 METAR MRLM 222300Z 30006KT 9999 FEW028 27/22 A2975 HZY=
200601230000 METAR MRLM 230000Z 00000KT CAVOK 25/22 A2976 RMK FEW090 HZY=
200601230100 METAR MRLM NIL=
200601230200 METAR MRLM NIL=
200601230300 METAR MRLM NIL=
200601230400 METAR MRLM NIL=
200601230500 METAR MRLM NIL=
200601230600 METAR MRLM NIL=
200601230700 METAR MRLM NIL=
200601230800 METAR MRLM NIL=
200601230900 METAR MRLM NIL=
200601231000 METAR MRLM NIL=
200601231100 METAR MRLM NIL=
200601231200 METAR MRLM NIL=
200601231300 METAR MRLM 231300Z 23006KT 9999 SCT035 BKN090 22/20 A2978 RN DST WNW /SE=
200601231400 METAR MRLM 231400Z 21005KT 9999 SCT030 BKN090 24/21 A2981 RMK RN S/W HZY=
200601231500 METAR MRLM 231500Z 00000KT CAVOK 27/21 A2982 HZY=
200601231600 METAR MRLM 231600Z 36008KT 9999 FEW020 SCT150 27/23 A2982=
200601231700 METAR MRLM 231700Z 35007KT 9999 FEW025 BKN110 28/22 A2981 RMK HZ ARND=
200601231800 METAR MRLM 231800Z 35009KT 9999 FEW027 BKN100 28/22 A2979 RMK RN DST N NE E HZY=
200601231900 METAR MRLM 231900Z 34008KT 9999 FEW028 OVC090 27/22 A2977=
200601232000 METAR MRLM NIL=
200601232100 METAR MRLM 232100Z 36005KT 9999 FEW022CB BKN120 27/22 A2975=
200601232200 METAR MRLM 232200Z VRB03KT 9999 FEW020 SCT120 27/22 A2976 HZ ARND=
200601232300 METAR MRLM 232300Z 04004KT 9999 FEW020 SCT130 27/23 A2997 HZ ARND=
200601240000 METAR MRLM 240000Z VRB03KT 9999 FEW018 SCT130 26/23 A2977=
200601240100 METAR MRLM 240100Z 09004KT 9999 FEW035 SCT250 28/20 A2976=
200601240200 METAR MRLM NIL=
200601240300 METAR MRLM NIL=
200601240400 METAR MRLM NIL=
200601240500 METAR MRLM NIL=
200601240600 METAR MRLM NIL=
200601240700 METAR MRLM NIL=
200601240800 METAR MRLM NIL=
200601240900 METAR MRLM NIL=
200601241000 METAR MRLM NIL=
200601241100 METAR MRLM NIL=
200601241200 METAR MRLM NIL=
200601241300 METAR MRLM 241300Z VRB03KT 9999 FEW035 BKN090 22/21 A2981=
200601241400 METAR MRLM 241400Z VRB03KT 9999 SCT035 SCT090 24/22 A2983 RN DST N E HZ ARND=
200601241500 METAR MRLM 241500Z VRB03KT 9999 DZ SCT015 SCT090 25/22 A2985 HZ ARND=
200601241600 METAR MRLM 241600Z 22004KT 9000 -DZ SCT012 BKN090 25/22 A2985 RERA HZ ARND=
200601241700 METAR MRLM 241700Z 00000KT 9999 BKN018 SCT090 27/23 A2984 RN DST W N E HZ ARND=
200601241800 METAR MRLM 241800Z 04010KT 9999 BKN015 SCT090 26/24 A2982 RN HZ ARND=
200601241900 METAR MRLM 241900Z 05007KT 8000 RA BKN013 SCT090 25/23 A2980 RN HZ ARND=
200601242000 METAR MRLM NIL=
200601242100 METAR MRLM 242100Z 00000KT 9999 SCT023 BKN090 27/23 A2977 TCU RN DST SW N=
200601242200 METAR MRLM NIL=
200601242300 METAR MRLM 242300Z 02011KT 9999 4000NW RA OVC015TCU 26/23 A2979=
200601250000 METAR MRLM 250000Z VRB03KT 9999 OVC012 24/22 A2980 RN HZ ARND=
200601250100 METAR MRLM NIL=
200601250200 METAR MRLM NIL=
200601250300 METAR MRLM NIL=
200601250400 METAR MRLM NIL=
200601250500 METAR MRLM NIL=
200601250600 METAR MRLM NIL=
200601250700 METAR MRLM NIL=
200601250800 METAR MRLM NIL=
200601250900 METAR MRLM NIL=
200601251000 METAR MRLM NIL=
200601251100 METAR MRLM NIL=
200601251200 METAR MRLM NIL=
200601251300 METAR MRLM 251300Z 04005KT 9999 BKN028 26/23 A2988 HZY=
200601251400 METAR MRLM 251400Z 21004KT 9999 BKN028 26/23 A2991 REDZ HZ ARND=
200601251500 METAR MRLM 251500Z 17006KT 9999 BKN028 27/23 A2992 TCU RN NW N HZ ARND=
200601251600 METAR MRLM 251600Z 03004KT 9999 BKN028 27/23 A2992 RN NW NE HZ ARND=
200601251700 METAR MRLM 251700Z 03008KT 9999 SCT028 27/22 A2991 RN DST NW HZY=
200601251800 METAR MRLM 251800Z 36004KT 9999 SCT027 28/21 A2989 HZY=
200601251900 METAR MRLM 251900Z 02005KT 9999 FEW028 28/23 A2985 HZY=
200601252000 METAR MRLM NIL=
200601252100 METAR MRLM 252100Z 03005KT 9999 FEW025 28/23 A2981 RMK HZY=
200601252200 METAR MRLM 252200Z 01006KT 9999 FEW025 28/23 A2981=
200601252300 METAR MRLM 252300Z 03005KT 9999 SCT028 27/22 A2981 RMK HZY=
200601260000 METAR MRLM 260000Z 03004KT 9999 SCT028 27/22 A2982 RMK HZY=
200601260100 METAR MRLM NIL=
200601260200 METAR MRLM NIL=
200601260300 METAR MRLM NIL=
200601260400 METAR MRLM NIL=
200601260500 METAR MRLM NIL=
200601260600 METAR MRLM NIL=
200601260700 METAR MRLM NIL=
200601260800 METAR MRLM NIL=
200601260900 METAR MRLM NIL=
200601261000 METAR MRLM NIL=
200601261100 METAR MRLM NIL=
200601261200 METAR MRLM NIL=
200601261300 METAR MRLM 261300Z 21004KT 9999 BKN040 SCT080 22/21 A2989 RMK RN DST ARND=
200601261400 METAR MRLM 261400Z 21005KT 9999 BKN040 SCT080 23/21 A2992 RMK RN DST ARND=
200601261500 METAR MRLM 261500Z 20007KT 9999 BKN040 SCT090 24/22 A2993 RNK RN DST ARND=
200601261600 METAR MRLM 261600Z 20004KT 9999 BKN040 SCT090 25/22 A2993=
200601261700 METAR MRLM 261700Z 28004KT 9999 3000W -DZ SCT035 BKN080 25/23 A2993 RMK SHRA DST ARND=
200601261800 METAR MRLM 261800Z 21004KT 9999 SCT030 BKN090 27/23 A2991 REDZ RN DST N NE=
200601261900 METAR MRLM 261900Z 27007KT 9999 SCT028 BKN090 28/23 A2988 RMK RN DST N NE=
200601262000 METAR MRLM NIL=
200601262100 METAR MRLM 262100Z 36010KT 3000 +DZ BKN024 SCT080 25/23 A2986=
200601262200 METAR MRLM 262200Z 24004KT 9999 DZ BKN024 SCT080 25/23 A2987 RMK CB TS N=
200601262300 METAR MRLM 262300Z 24005KT 4000 DZ BKN024 SCT080 24/23 A2988=
200601270000 METAR MRLM 270000Z 18003KT 6000 +DZ SCT015 BKN024 24/23 A2988 RMK RN ARND=
200601270100 METAR MRLM NIL=
200601270200 METAR MRLM NIL=
200601270300 METAR MRLM NIL=
200601270400 METAR MRLM NIL=
200601270500 METAR MRLM NIL=
200601270600 METAR MRLM NIL=
200601270700 METAR MRLM NIL=
200601270800 METAR MRLM NIL=
200601270900 METAR MRLM NIL=
200601271000 METAR MRLM NIL=
200601271100 METAR MRLM NIL=
200601271200 METAR MRLM NIL=
200601271300 METAR MRLM 271300Z 35014KT 9999 SCT025 OVC090 26722 A2997 RMK RN S W=
200601271400 METAR MRLM 271400Z 36015KT 9999 BKN022 26/22 A3000 RMK RN S W=
200601271500 METAR MRLM 271500Z 35013KT 9999 BKN024 SCT140 27/23 A3000 RMK S W=
200601271600 METAR MRLM 271600Z 34014KT 9999 BKN026 28/22 A3000 RMK RN S=
200601271700 METAR MRLM 271700Z 35012KT 9999 BKN026 SCT150 28/22 A2999 RMK RN S=
200601271800 METAR MRLM 271800Z 36009KT 9999 SCT023 SCT140 27/23 A2997 RMK TCU RN NW SW=
200601271900 METAR MRLM 271900Z 36009KT 9999 SCT025 SCT150 28/23 A2976 RMK RN SW=
200601272000 METAR MRLM NIL=
200601272100 METAR MRLM 272100Z 01008KT 9999 OVC029 28/22 A2992 RMK TCU RN DST S/SW/W=
200601272200 METAR MRLM 272200Z 27006KT 9999 BKN015TCU 24/21 A2992 RERA RMK VIS W 7KMS/RN=
200601272300 METAR MRLM 272300Z 23005KT 9999 DZ OVC010TCU 24/22 A2992 RMK RN HZ ARND=
200601280100 METAR MRLM NIL=
200601280200 METAR MRLM NIL=
200601280300 METAR MRLM NIL=
200601280400 METAR MRLM NIL=
200601280500 METAR MRLM NIL=
200601280600 METAR MRLM NIL=
200601280700 METAR MRLM NIL=
200601280800 METAR MRLM NIL=
200601280900 METAR MRLM NIL=
200601281000 METAR MRLM NIL=
200601281100 METAR MRLM NIL=
200601281200 METAR MRLM NIL=
200601281300 METAR MRLM 281300Z 19005KT 9999 OVC013TCU 23/22 A2992 RMK RN HZ ARND=
200601281400 METAR MRLM 281400Z 21005KT 9999 DZ OVC012TCU 23/22 A2995 RMK RN HZ ARND=
200601281500 METAR MRLM 281500Z 20008KT 9999 OVC015TCU 24/23 A2996 RMK RN/HZ ARND=
200601281600 METAR MRLM 281600Z 18004KT 9999 OVC012TCU 24/23 A2995 RMK RN HZ/ARND=
200601281700 METAR MRLM 281700Z 05008KT 9999 OVC013TCU 26/24 A2995 RMK RASH S/W HZY=
200601281800 METAR MRLM 281800Z 03012KT 9999 SCT015TCU SCT110 26/23 A2995 RERA RMK RASH S/W HZY=
200601281900 METAR MRLM 281900Z 05009KT 9999 BKN016 SCT110 29/24 A2991 RMK RN DST S QD=
200601282000 METAR MRLM NIL=
200601282100 METAR MRLM NIL=
200601282200 METAR MRLM 282200Z 05008KT 9999 SCT018TCU SCT280 27/23 A2987 RN DST S SW W HZ ARND=
200601282300 METAR MRLM 282300Z 08006KT 9999 BKN015TCU SCT280 26/23 A2987 RN S W N HZ ARND=
200601290000 METAR MRLM 290000Z 11008KT 8000 RA OVC014TCU 26/23 A2987 RASH N E=
200601290100 METAR MRLM NIL=
200601290200 METAR MRLM NIL=
200601290300 METAR MRLM NIL=
200601290400 METAR MRLM NIL=
200601290500 METAR MRLM NIL=
200601290600 METAR MRLM NIL=
200601290700 METAR MRLM NIL=
200601290800 METAR MRLM NIL=
200601290900 METAR MRLM NIL=
200601291000 METAR MRLM NIL=
200601291100 METAR MRLM NIL=
200601291200 METAR MRLM NIL=
200601291300 METAR MRLM 291300Z 19005KT 9999 FEW025 SCT280 22/17 A2987=
200601291400 METAR MRLM 291400Z 19003KT 9999 FEW025 SCT090 24/16 A2991 TCU RN N NE HZ ARND=
200601291500 METAR MRLM 291500Z 05003KT 9999 FEW025 BKN090 25/19 A2993 RN DST E NE E HZ ARND=
200601291600 METAR MRLM 291600Z 06010KT 8000 RA SCT015 BKN040 24/20 A2993=
200601291700 METAR MRLM 291700Z 10006KT 9999 SCT030 BKN090 27/20 A2992 RERA TCU DST W N NE E=
200601291800 METAR MRLM 291800Z 08005KT 9999 FEW030 SCT090 27/21 A2990 HZ ARND=
200601291900 METAR MRLM 291900Z 07004KT 9999 FEW028 BKN090 27/22 A2988=
200601292000 METAR MRLM NIL=
200601292100 METAR MRLM 292100Z 11008KT 9999 FEW025 SCT100 BKN230 27/24 A2983 HZY=
200601292200 METAR MRLM 292200Z 10005KT 9999 FEW025 BKN230 27/21 A2983 HZY=
200601292300 METAR MRLM 292300Z 11004KT 9999 FEW025 SCT090 BKN220 26/22 A2984 HZ ARND=
200601300000 METAR MRLM 300000Z 02003KT 9999 3000N HZ FEW025 BKN220 25/22 A2985=
200601300100 METAR MRLM NIL=
200601300200 METAR MRLM NIL=
200601300300 METAR MRLM NIL=
200601300400 METAR MRLM NIL=
200601300500 METAR MRLM NIL=
200601300600 METAR MRLM NIL=
200601300700 METAR MRLM NIL=
200601300800 METAR MRLM NIL=
200601300900 METAR MRLM NIL=
200601301000 METAR MRLM NIL=
200601301100 METAR MRLM NIL=
200601301200 METAR MRLM NIL=
200601301300 METAR MRLM 301300Z 16005KT 9999 SCT030 BKN090 22/21 A2987 RN DST ARND=
200601301400 METAR MRLM 301400Z 20007KT 9999 SCT028 SCT090 25/22 A2988 RN ARND=
200601301500 METAR MRLM 301500Z 22004KT 9999 FEW025 BKN080 27/22 A2988 RN N NW NE E=
200601301600 METAR MRLM 301600Z 36004KT 9999 SCT025 SCT080 27/23 A2988 TCU RN NW N NE E=
200601301700 METAR MRLM 301700Z 36008KT 9999 BKN035 SCT080 27/23 A2987 RN N NE E HZY=
200601301800 METAR MRLM 301800Z 08004KT 9999 FEW024 BKN040 26/23 A2986 REDZ RN DST W NW=
200601301900 METAR MRLM 301900Z 11006KT 9999 SCT030 SCT080 26/22 A2984 RN DST NW NE HZY=
200601302000 METAR MRLM NIL=
200601302100 METAR MRLM 302100Z 11004KT 7000 -DZ BKN015 SCT080 24/22 A2981 RERA RMK TCU DST N NW SW RN DZT ARND=
200601302200 METAR MRLM 302200Z 21004KT 9999 SCT035 BKN080 25/23 A2980 REDZ RMK RN DST ARND=
200601302300 METAR MRLM 302300Z 21005KT 9999 SCT030 SCT080 25/23 A2981 RMK RN DST ARND=
200601310000 METAR MRLM 310000Z 24003KT 9999 FEW025 BKN080 25/23 A2982 RMK RN DST ARND HZY=
200601310100 METAR MRLM NIL=
200601310200 METAR MRLM NIL=
200601310300 METAR MRLM NIL=
200601310400 METAR MRLM NIL=
200601310500 METAR MRLM NIL=
200601310600 METAR MRLM NIL=
200601310700 METAR MRLM NIL=
200601310800 METAR MRLM NIL=
200601310900 METAR MRLM NIL=
200601311000 METAR MRLM NIL=
200601311100 METAR MRLM NIL=
200601311200 METAR MRLM 311200Z 17006KT 7000 +DZ FEW006 OVC015 24/23 A2981 RMK RN DST ARND HZY=
200601311300 METAR MRLM 311300Z 00000KT 1000 +RA BKN015 SCT090 23/22 A2983=
200601311400 METAR MRLM 311400Z 24008KT 1000 +RA FEW005 OVC010 22/21 A2986=
200601311500 METAR MRLM 311500Z 19004KT 3000 -RA FEW003 OVC012 22/21 A2989=
200601311700 METAR MRLM 311700Z 21009KT 9999 -DZ FEW005 OVC012 23/22 A2986 RMK RN DST ARND=
200601311800 METAR MRLM 311800Z 26004KT 3000 RA FEW005 OVC012 23/22 A2985=
200601311900 METAR MRLM 311900Z 19008KT 5000 +DZ FEW005 OVC012 23/22 A2983=
200601312000 METAR MRLM NIL=
200601312100 METAR MRLM 312100Z 22004KT 8000 DZ SCT006 BKN010 24/23 A2979=
200601312200 METAR MRLM 312200Z VRB03KT 9999 FEW006 OVC012TCU 24/23 A2980 RMK RN ARND=
200601312300 METAR MRLM 312300Z 18006KT 9999 SCT006 BKN012 24/22 A2982 RMK RN ARND=
200602010000 METAR MRLM 010000Z 00000KT 8000 DZ SCT006 BKN012TCU 23/22 A2982 RMK RN ARND=
200602010100 METAR MRLM NIL=
200602010200 METAR MRLM NIL=
200602010300 METAR MRLM NIL=
200602010400 METAR MRLM NIL=
200602010500 METAR MRLM NIL=
200602010600 METAR MRLM NIL=
200602010700 METAR MRLM NIL=
200602010800 METAR MRLM NIL=
200602010900 METAR MRLM NIL=
200602011000 METAR MRLM NIL=
200602011100 METAR MRLM NIL=
200602011200 METAR MRLM NIL=
200602011300 METAR MRLM 011300Z 20005KT 8000 VCFG FEW015 BKN270 22/21 A2988=
200602011400 METAR MRLM 011400Z 20005KT 9999 FEW015 BKN270 24/22 A2990=
200602011500 METAR MRLM 011500Z VRB03KT 9999 SCT020 BKN270 27/22 A2991 RMK 7000 SE BR=
200602011600 METAR MRLM 011600Z 08005KT 9999 SCT025 BKN280 27/22 A2991=
200602011700 METAR MRLM 011700Z 08005KT 9999 FEW024 BKN280 27/22 A2988=
200602012000 METAR MRLM NIL=
200602012100 METAR MRLM 012100Z 04010KT 9999 SCT027 BKN280 27/21 A2980=
200602012200 METAR MRLM 012200Z 06009KT 9999 FEW029 OVC280 27/21 A2979=
200602012300 METAR MRLM 012300Z 06009KT 9999 FEW025 OVC260 26/21 A2980=
200602020000 METAR MRLM 020000Z 07006KT 9999 FEW025 OVC250 26/21 A2981 RMK RN DST S SW W HZY=
200602020100 METAR MRLM NIL=
200602020200 METAR MRLM NIL=
200602020300 METAR MRLM NIL=
200602020400 METAR MRLM NIL=
200602020500 METAR MRLM NIL=
200602020600 METAR MRLM NIL=
200602020700 METAR MRLM NIL=
200602020800 METAR MRLM NIL=
200602020900 METAR MRLM NIL=
200602021000 METAR MRLM NIL=
200602021100 METAR MRLM NIL=
200602021200 METAR MRLM NIL=
200602021300 METAR MRLM 021300Z 22005KT 9999 FEW024 BKN200 22/20 A2985 HZY=
200602021400 METAR MRLM 021400Z 20004KT 9999 FEW024 BKN200 25/22 A2987 HZY=
200602021500 METAR MRLM 021500Z 09004KT 9999 FEW024 BKN230 26/22 A2988 HZY=
200602021600 METAR MRLM 021600Z 05004KT 9999 FEW024 BKN230 27/21 A2986 HZY=
200602021700 METAR MRLM 021700Z 04005KT 9999 FEW024 BKN250 27/21 A2984=
200602021800 METAR MRLM 021800Z 05008KT 9999 FEW024 BKN250 27/21 A2982 HZY=
200602021900 METAR MRLM 021900Z 04007KT 9999 FEW024 BKN250 27/20 A2979 HZY=
200602022000 METAR MRLM NIL=
200602022100 METAR MRLM 022100Z 01009KT 9999 FEW030 BKN240 27/21 A2975=
200602022200 METAR MRLM 022200Z 03006KT 9999 FEW030 BKN240 27/21 A2975=
200602022300 METAR MRLM 022300Z 04004KT 9999 FEW030 SCT090 BKN240 26/21 A2976=
200602030000 METAR MRLM NIL=
200602030100 METAR MRLM NIL=
200602030200 METAR MRLM NIL=
200602030300 METAR MRLM NIL=
200602030400 METAR MRLM NIL=
200602030500 METAR MRLM NIL=
200602030600 METAR MRLM NIL=
200602030700 METAR MRLM NIL=
200602030800 METAR MRLM NIL=
200602030900 METAR MRLM NIL=
200602031000 METAR MRLM NIL=
200602031100 METAR MRLM NIL=
200602031200 METAR MRLM 031200Z 22003KT 9999 FEW028 BKN080 22/21 A2977 RMK RN DST NW N=
200602031300 METAR MRLM 031300Z 2103KT 9999 FEW028 BKN090 23/21 A2980=
200602031400 METAR MRLM 031400Z 19004KT 9999 FEW028 SCT090 24/22 A2982=
200602031500 METAR MRLM 031500Z 06003KT 9999 FEW025 SCT100 BKN250 27/21 A2983=
200602031600 METAR MRLM 031600Z 05006KT CAVOK 28/21 A2984=
200602031700 METAR MRLM 031700Z 07007KT 9999 FEW025 BKN250 28/21 A2981=
200602031800 METAR MRLM 031800Z 06008KT 9999 FEW025 BKN250 28/21 A2979=
200602031900 METAR MRLM 031900Z 05007KT 9999 FEW025 BKN250 28/22 A2977=
200602032000 METAR MRLM NIL=
200602032100 METAR MRLM 032100Z 03007KT 9999 FEW025 BKN250 27/22 A2974 HZY=
200602032200 METAR MRLM 032200Z 03007KT 9999 FEW025 BKN250 27/22 A2974 HZY=
200602032300 METAR MRLM 032300Z 04004KT 9999 FEW030 BKN250 27/22 A2975 RN S SW W HZY=
200602040000 METAR MRLM 040000Z 05003KT 9999 FEW025 SCT250 26/22 A2976 RN DST SW=
200602040100 METAR MRLM NIL=
200602040200 METAR MRLM NIL=
200602040300 METAR MRLM NIL=
200602040400 METAR MRLM NIL=
200602040500 METAR MRLM NIL=
200602040600 METAR MRLM NIL=
200602040700 METAR MRLM NIL=
200602040800 METAR MRLM NIL=
200602040900 METAR MRLM NIL=
200602041000 METAR MRLM NIL=
200602041100 METAR MRLM NIL=
200602041200 METAR MRLM NIL=
200602041300 METAR MRLM 041300Z 21004KT CAVOK 23/20 A2983 SCT110 BKN140 RN DST SE=
200602041400 METAR MRLM 041400Z VRB03KT CAVOK 26/21 A2984 SCT120 BKN140 HZY=
200602041500 METAR MRLM 041500Z VRB03KT CAVOK 27/22 A2986 BKN140 SCT280 HZY=
200602041600 METAR MRLM 041600Z 03006KT 9999 FEW025 BKN140 28/23 A2986 HZY=
200602041700 METAR MRLM 041700Z 02005KT 9999 FEW024 OVC140 27/22 A2985 HZY=
200602041800 METAR MRLM 041800Z 02007KT 9999 FEW025 SCT120 BKN150 27/22 A2983 HZY=
200602041900 METAR MRLM 041900Z 01008KT 9999 FEW022 OVC140 27/23 A2980 HZY=
200602042000 METAR MRLM NIL=
200602042100 METAR MRLM 042100Z 04005KT 9999 FEW022 BKN110 27/23 A2980=
200602042200 METAR MRLM 042200Z 6004KT 9999 FEW023 SCT110 27/22 A2977 RN W NW=
200602042300 METAR MRLM 042300Z 07004KT 9999 SCT028 SCT080 27/21 A2979=
200602050000 METAR MRLM 050000Z 00000KT 9999 FEW015 BKN090 25/22 A2980 RN W=
200602050100 METAR MRLM NIL=
200602050200 METAR MRLM NIL=
200602050300 METAR MRLM NIL=
200602050400 METAR MRLM NIL=
200602050500 METAR MRLM NIL=
200602050600 METAR MRLM NIL=
200602050700 METAR MRLM NIL=
200602050800 METAR MRLM NIL=
200602050900 METAR MRLM NIL=
200602051000 METAR MRLM NIL=
200602051100 METAR MRLM NIL=
200602051200 METAR MRLM NIL=
200602051300 METAR MRLM 051300Z VRB03KT 9999 SCT012 SCT110 23/20 A2988=
200602051400 METAR MRLM 051400Z 00000KT 9999 FEW035 BKN150 26/21 A2992=
200602051600 METAR MRLM 051600Z 36006KT 9999 FEW036 BKN150 28/21 A2993=
200602051700 METAR MRLM 051700Z 36005KT 9999 FEW038 SCT150 29/21 A2992=
200602051800 METAR MRLM 051800Z 36007KT 9999 FEW038 SCT150 29/22 A2990=
200602051900 METAR MRLM 051900Z 01009KT 9999 FEW040 29/21 A2987=
200602052000 METAR MRLM NIL=
200602052100 METAR MRLM NIL=
200602052200 METAR MRLM NIL=
200602052300 METAR MRLM 052300Z 34011KT 9999 FEW040 SCT100 BKN130 29/20 A2984 RMK TCU RN N=
200602060000 METAR MRLM 060000Z 32005KT 9999 FEW036 BKN100 28/21 Q2986 RMK TCU RN N=
200602060100 METAR MRLM NIL=
200602060200 METAR MRLM NIL=
200602060300 METAR MRLM NIL=
200602060400 METAR MRLM NIL=
200602060500 METAR MRLM NIL=
200602060600 METAR MRLM NIL=
200602060700 METAR MRLM NIL=
200602060800 METAR MRLM NIL=
200602060900 METAR MRLM NIL=
200602061000 METAR MRLM NIL=
200602061100 METAR MRLM NIL=
200602061200 METAR MRLM 061200Z 19004KT 5000 RA BKN026 SCT080 22/21 A2986=
200602061300 METAR MRLM 061300Z 25004KT 9999 OVC030 22/21 A2987 RERA RMK RN ARND=
200602061400 METAR MRLM 061400Z 19004KT 9999 FEW020 BKN040 23/22 A2990 RMK RN ARND=
200602061500 METAR MRLM 061500Z 26004KT 9999 FEW015 BKN045 24/22 A2993 RMK RN ARND=
200602061600 METAR MRLM 061600Z 24003KT 9999 SCT030 BKN080 24/22 A2992 RMK RN ARND=
200602061700 METAR MRLM 061700Z 17004KT 9999 SCT030 SCT080 27/22 A2991 RMK RN ARND=
200602061800 METAR MRLM 061800Z 36012KT 9999 SCT030 SCT080 26/23 A2989 RMK RN W NW=
200602061900 METAR MRLM 061900Z 05004KT 9999 FEW030 SCT080 27/23 A2987 RMK RN W N=
200602062000 METAR MRLM NIL=
200602062100 METAR MRLM 062100Z 09010KT 9999 SCT028 BKN080 28/21 A2984 RMK RN DST ARND=
200602062200 METAR MRLM 062200Z 08009KT 9999 SCT030 BKN080 27/21 A2984 RMK RN DST N ENE=
200602062300 METAR MRLM 062300Z 07006KT 9999 SCT028 SCT080 27/22 A2985 RMK RN DST ARND=
200602070000 METAR MRLM 070000Z 07006KT 9999 SCT025 SCT080 26/22 A2985 REDZ=
200602070100 METAR MRLM NIL=
200602070200 METAR MRLM NIL=
200602070300 METAR MRLM NIL=
200602070400 METAR MRLM NIL=
200602070500 METAR MRLM NIL=
200602070600 METAR MRLM NIL=
200602070700 METAR MRLM NIL=
200602070800 METAR MRLM NIL=
200602070900 METAR MRLM NIL=
200602071000 METAR MRLM NIL=
200602071100 METAR MRLM NIL=
200602071200 METAR MRLM 071200Z 19005KT 9999 FEW024 21/20 A2988=
200602071300 METAR MRLM 071300Z 22005KT 9999 FEW024 22/20 A2990=
200602071400 METAR MRLM 071400Z 19004KT 9999 FEW024 24/21 A2993=
200602071500 METAR MRLM 071500Z 09003KT 9999 FEW024 27/21 A2994=
200602071600 METAR MRLM 071600Z 05005KT 9999 FEW024 27/21 A2994=
200602071700 METAR MRLM 071700Z 05005KT 9999 FEW030 27/20 A2993=
200602071800 METAR MRLM 071800Z 06006KT 9999 FEW030 28/20 A2990=
200602071900 METAR MRLM 071900Z 06007KT 9999 FEW028 28/21 A2987=
200602072000 METAR MRLM NIL=
200602072100 METAR MRLM 072100Z 05008KT 9999 FEW028 SCT250 27/21 A2982=
200602072200 METAR MRLM 072200Z 06007KT 9999 FEW028 27/21 A2983=
200602072300 METAR MRLM 072300Z 05004KT 9999 SCT028 27/22 A2984=
200602080000 METAR MRLM 080000Z 05004KT 9999 FEW024 SCT030 27/20 A2985=
200602080100 METAR MRLM NIL=
200602080200 METAR MRLM NIL=
200602080300 METAR MRLM NIL=
200602080400 METAR MRLM NIL=
200602080500 METAR MRLM NIL=
200602080600 METAR MRLM NIL=
200602080700 METAR MRLM NIL=
200602080800 METAR MRLM NIL=
200602080900 METAR MRLM NIL=
200602081000 METAR MRLM NIL=
200602081100 METAR MRLM NIL=
200602081200 METAR MRLM NIL=
200602081300 METAR MRLM 081300Z 19006KT CAVOK 21/19 A2989=
200602081400 METAR MRLM 081400Z VRB03KT CAVOK 24/21 A2992=
200602081500 METAR MRLM 081500Z 05004KT CAVOK 27/22 A2993 RN DST N HZ ARND=
200602081600 METAR MRLM 081600Z VRB03KT 9999 FEW027 OVC110 28/22 A2993 RN DST N W E=
200602081700 METAR MRLM 081700Z 35010KT 9999 FEW026 OVC100 27/22 A2993 RN DST S SW W HZ ARND=
200602081800 METAR MRLM 081800Z 01008KT 9999 FEW030 OVC130 27/21 A2990 DZ E HZ ARND=
200602081900 METAR MRLM 081900Z 03005KT 9999 FEW034 OVC120 28/21 A2988=
200602082000 METAR MRLM NIL=
200602082100 METAR MRLM 082100Z 36008KT 9999 FEW025 OVC090 27/22 A2984 DZ/E RN DST S SW W=
200602082200 METAR MRLM 082200Z VRB03KT 9999 FEW030 OVC090 28/22 A2983 RN DST SW=
200602082300 METAR MRLM 082300Z VRB03KT 9999 FEW025 BKN090 27/22 A2984 HZY=
200602090000 METAR MRLM 090000Z VRB03KT CAVOK 27/21 A2986=
200602090100 METAR MRLM NIL=
200602090200 METAR MRLM NIL=
200602090300 METAR MRLM NIL=
200602090400 METAR MRLM NIL=
200602090500 METAR MRLM NIL=
200602090600 METAR MRLM NIL=
200602090700 METAR MRLM NIL=
200602090800 METAR MRLM NIL=
200602090900 METAR MRLM NIL=
200602091000 METAR MRLM NIL=
200602091100 METAR MRLM NIL=
200602091200 METAR MRLM NIL=
200602091300 METAR MRLM 091300Z 23005KT 9999 FEW015 SCT110 19/17 A2995 RN E=
200602091400 METAR MRLM 091400Z 21004KT 9999 FEW015 BKN110 21/19 A2998 HZY=
200602091500 METAR MRLM 091500Z 22004KT CAVOK 27/20 A2999 HZY BKN110=
200602091600 METAR MRLM 091600Z 03004KT CAVOK 27/21 A3000 RN TCU ENE=
200602091700 METAR MRLM 091700Z 05005KT 9999 FEW030 SCT130 28/22 A2998 HZY=
200602091800 METAR MRLM 091800Z 04007KT 9999 FEW036 28/21 A2995 HZY=
200602091900 METAR MRLM 091900Z 03008KT 9999 FEW036 28/21 A2993=
200602092000 METAR MRLM NIL=
200602092100 METAR MRLM 092100Z 01007KT 9999 FEW035 28/21 A2989=
200602092200 METAR MRLM 092200Z 36006KT 9999 FEW037 28/21 A2990=
200602092300 METAR MRLM 092300Z 36006KT 9999 FEW037 29/21 A2981=
200602100000 METAR MRLM 100000Z 00000KT CAVOK 24/21 A2992=
200602100100 METAR MRLM NIL=
200602100200 METAR MRLM NIL=
200602100300 METAR MRLM NIL=
200602100400 METAR MRLM NIL=
200602100500 METAR MRLM NIL=
200602100600 METAR MRLM NIL=
200602100700 METAR MRLM NIL=
200602100800 METAR MRLM NIL=
200602100900 METAR MRLM NIL=
200602101000 METAR MRLM NIL=
200602101100 METAR MRLM NIL=
200602101200 METAR MRLM 101200Z 20005KT 9999 FEW028 SCT090 21/19 A2994=
200602101300 METAR MRLM 101300Z 19006KT 9999 FEW025 23/19 A2996=
200602101400 METAR MRLM 101400Z 29005KT 9999 FEW025 25/21 A2999=
200602101500 METAR MRLM 101500Z 15007KT 9999 FEW025 28/22 A3000=
200602101600 METAR MRLM 101600Z 10007KT 9999 FEW025 28/21 A3000=
200602101700 METAR MRLM 101700Z 07007KT 9999 FEW025 28/21 A2998=
200602101800 METAR MRLM 101800Z 06008KT 9999 FEW030 28/22 A2995=
200602101900 METAR MRLM 101900Z 07008KT 9999 FEW030 28/22 A2993=
200602102000 METAR MRLM NIL=
200602102100 METAR MRLM 102100Z 05010KT 9999 FEW030 29/22 A2988=
200602102200 METAR MRLM 102200Z 05006KT 9999 FEW030 29/20 A2988=
200602102300 METAR MRLM 102300Z 07004KT 9999 FEW030 28/20 A2989=
200602110000 METAR MRLM 110000Z 05006KT 9999 FEW028 SCT260 27/20 A2990=
200602110100 METAR MRLM NIL=
200602110200 METAR MRLM NIL=
200602110300 METAR MRLM NIL=
200602110400 METAR MRLM NIL=
200602110500 METAR MRLM NIL=
200602110600 METAR MRLM NIL=
200602110700 METAR MRLM NIL=
200602110800 METAR MRLM NIL=
200602110900 METAR MRLM NIL=
200602111000 METAR MRLM NIL=
200602111100 METAR MRLM NIL=
200602111200 METAR MRLM 111200Z 21005KT 9999 FEW028 20/18 A2990=
200602111300 METAR MRLM 111300Z 22004KT 9999 FEW028 21/19 A2993=
200602111500 METAR MRLM 111500Z 16004KT 9999 FEW028 29/21 A2997=
200602111800 METAR MRLM 111800Z 04006KT 9999 FEW028 28/21 A2993=
200602112000 METAR MRLM NIL=
200602112100 METAR MRLM 112100Z 02008KT 9999 FEW028 28/21 A2987=
200602112200 METAR MRLM 112200Z 36006KT 9999 FEW028 28/21 A2987=
200602112300 METAR MRLM 112300Z 36004KT 9999 FEW030 28/21 A2989=
200602120000 METAR MRLM 120000Z 27004KT 9999 FEW040 25/22 A2990=
200602120100 METAR MRLM NIL=
200602120200 METAR MRLM NIL=
200602120300 METAR MRLM NIL=
200602120400 METAR MRLM NIL=
200602120500 METAR MRLM NIL=
200602120600 METAR MRLM NIL=
200602120700 METAR MRLM NIL=
200602120800 METAR MRLM NIL=
200602120900 METAR MRLM NIL=
200602121000 METAR MRLM NIL=
200602121100 METAR MRLM NIL=
200602121200 METAR MRLM NIL=
200602121300 METAR MRLM 121300Z 22005KT 9999 SCT025 BKN090 22/20 A2994 RMK RN DST N/E HZY=
200602121400 METAR MRLM 121400Z 23005KT 9999 SCT025 BKN100 23/21 A2997 RMK RN DST N/ DZ SE HZY=
200602121500 METAR MRLM 121500Z 25008KT 9999 SCT025 BKN090 23/21 A2998 RMK DZ ESE/W HZY=
200602121600 METAR MRLM 121600Z 25008KT 9999 FEW035 BKN090 25/21 A2999 RMK DZ WSW/SE=
200602121700 METAR MRLM 121700Z 27004KT CAVOK 28/21 A2997 RMK FEW080 BKN100 HZY=
200602121800 METAR MRLM 121800Z 01007KT CAVOK 29/21 A2995 RMK BKN110 HZY=
200602121900 METAR MRLM 121900Z 01008KT 9999 FEW025 SCT120 29/22 A2992=
200602122000 METAR MRLM NIL=
200602122100 METAR MRLM 122100Z 01007KT 9999 FEW033 SCT090 SCT130 28/22 A2990 RN DST SW=
200602122200 METAR MRLM 122200Z 35005KT 9999 FEW030 BKN090 28/22 A2990=
200602122300 METAR MRLM 122300Z 36007KT CAVOK 27/22 A2992=
200602130000 METAR MRLM 130000Z 36004KT 9999 FEW027 BKN090 27/22 A2993=
200602130100 METAR MRLM NIL=
200602130200 METAR MRLM NIL=
200602130300 METAR MRLM NIL=
200602130400 METAR MRLM NIL=
200602130500 METAR MRLM NIL=
200602130600 METAR MRLM NIL=
200602130700 METAR MRLM NIL=
200602130800 METAR MRLM NIL=
200602130900 METAR MRLM NIL=
200602131000 METAR MRLM NIL=
200602131100 METAR MRLM NIL=
200602131200 METAR MRLM NIL=
200602131300 METAR MRLM 131300Z 26004KT 9999 SCT025 BKN100 23/21 A3003=
200602131400 METAR MRLM 131400Z 24007KT 9999 FEW035 BKN100 24/21 A3004 RN DST S SW W NW=
200602131500 METAR MRLM 131500Z 24005KT 9999 SCT035 BKN100 26/22 A3006 RN DST W NW NE=
200602131600 METAR MRLM 131600Z 35006KT 9999 SCT015 SCT030 BKN100 27/21 A3008 DZ HZ ARND=
200602131700 METAR MRLM NIL=
200602131800 METAR MRLM 131800Z 24006KT CAVOK 27/21 A3003 RN DST SE=
200602131900 METAR MRLM 131900Z 31010KT 9999 BKN025 27/22 A3001 DZ W=
200602132000 METAR MRLM NIL=
200602132100 METAR MRLM 132100Z 29006KT 5000 RA SCT009 OVC090 24/22 A2998=
200602132200 METAR MRLM 132200Z 31005KT 4000 RA SCT005 SCT090 23/22 A2999=
200602132300 METAR MRLM 132300Z 22006KT 9999 FEW004 SCT035 BKN100 22/22 A2998 RMK RN/HZ ARND=
200602140000 METAR MRLM 140000Z 00000KT 7000 +DZ BKN025 SCT090 22/22 A2999 RMK HZ ARND=
200602140100 METAR MRLM NIL=
200602140200 METAR MRLM NIL=
200602140300 METAR MRLM NIL=
200602140400 METAR MRLM NIL=
200602140500 METAR MRLM NIL=
200602140600 METAR MRLM NIL=
200602140700 METAR MRLM NIL=
200602140800 METAR MRLM NIL=
200602140900 METAR MRLM NIL=
200602141000 METAR MRLM NIL=
200602141100 METAR MRLM NIL=
200602141200 METAR MRLM 141200Z 28010KT 5000 -DZ FEW012 BKN030 20/19 A3001=
200602141300 METAR MRLM 141300Z 26007KT 9999 FEW015 BKN045 20/19 A3003 REDZ RMK RN DST ARND=
200602141400 METAR MRLM 141400Z 27008KT 9999 FEW015 SCT090 22/21 A3004 RMK RN DST ARND=
200602141500 METAR MRLM 141500Z 27008KT 9999 DZ FEW015 BKN045 22/21 A3004 RMK RN DST ARND=
200602141600 METAR MRLM 141600Z 28003KT 7000 DZ FEW015 BKN030 23/22 A3006 RMK RN ARND=
200602141700 METAR MRLM 141700Z 28003KT 9999 FEW015 BKN030 23/22 A3005 REDZ RMK RN DST ARND=
200602141800 METAR MRLM 141800Z 25010KT 9999 FEW015 BKN030 25/21 A3003 RMK RN DST ARND=
200602141900 METAR MRLM 141900Z 26007KT 9999 OVC030 24/21 A3000 RMK RN DST ARND=
200602142000 METAR MRLM NIL=
200602142100 METAR MRLM 142100Z 25004KT 400 DZ OVC028 24/21 A2996 RMK RN ARND=
200602142200 METAR MRLM 142200Z 20004KT 5000 -DZ BKN026 23/22 A2994 RN ARND=
200602142300 METAR MRLM 142300Z 22004KT 9999 OVC026 23/22 A2995 REDZ RN ARND=
200602150000 METAR MRLM 150000Z 23004KT 9999 FEW024 BKN026 23/22 A2996 RN ARND=
200602150100 METAR MRLM NIL=
200602150200 METAR MRLM NIL=
200602150300 METAR MRLM NIL=
200602150400 METAR MRLM NIL=
200602150500 METAR MRLM NIL=
200602150600 METAR MRLM NIL=
200602150700 METAR MRLM NIL=
200602150800 METAR MRLM NIL=
200602150900 METAR MRLM NIL=
200602151000 METAR MRLM NIL=
200602151100 METAR MRLM NIL=
200602151200 METAR MRLM NIL=
200602151300 METAR MRLM 151300Z 21006KT 9999 FEW028 BKN090 22/22 A2995 RN ARND=
200602151400 METAR MRLM 151400Z 20008KT 9999 -DZ BKN030 SCT080 24/22 A2997=
200602151600 METAR MRLM 151600Z 20009KT 9999 FEW030 BKN090 26/22 A2999 RN SE S SW=
200602151700 METAR MRLM 151700Z 17006KT 9999 FEW025 SCT090 29/22 A2998=
200602151900 METAR MRLM 151900Z 09008KT 9999 FEW030 SCT090 29/23 A2991=
200602152000 METAR MRLM NIL=
200602152100 METAR MRLM 152100Z 06009KT 9999 FEW028 SCT090 29/22 A2986=
200602152200 METAR MRLM 152200Z 08008KT 9999 FEW028 BKN090 28/22 A2986=
200602152300 METAR MRLM 152300Z 05010KT 9999 FEW028 BKN080 27/22 A2987=
200602160000 METAR MRLM 160000Z 06006KT 9999 FEW025 BKN080 27/22 A2988 RMK RN DST E=
200602160100 METAR MRLM NIL=
200602160200 METAR MRLM NIL=
200602160300 METAR MRLM NIL=
200602160400 METAR MRLM NIL=
200602160500 METAR MRLM NIL=
200602160600 METAR MRLM NIL=
200602160700 METAR MRLM NIL=
200602160800 METAR MRLM NIL=
200602160900 METAR MRLM NIL=
200602161000 METAR MRLM NIL=
200602161100 METAR MRLM NIL=
200602161200 METAR MRLM NIL=
200602161300 METAR MRLM 161300Z 00000KT 9999 FEW015 BKN080 24/22 A2991 RMK RN NW N E=
200602161400 METAR MRLM 161400Z 20004KT 9999 FEW015 BKN080 25/22 A2992 RMK RN DST NW N NE=
200602161500 METAR MRLM 161500Z 00000KT 9999 FEW025 OVC090 27/23 A2993 RMK RN W N NE W=
200602161600 METAR MRLM 161600Z 01013KT 4000 RA FEW008 OVC090 24/22 A2995=
200602161700 METAR MRLM 161700Z 16005KT 9999 SCT015 SCT090 25/23 A2992 RERA RMK RN ARND=
200602161800 METAR MRLM 161800Z 23004KT 9999 FEW025 OVC090 26/22 A2990 RMK DZ ARND=
200602161900 METAR MRLM 161900Z 23005KT 9999 FEW035 OVC080 29/22 A2988 RMK DZ W=
200602162000 METAR MRLM NIL=
200602162100 METAR MRLM 162100Z VRB03KT 9999 SCT028 SCT080 BKN130 28/22 A2984 RMK TCU DST N NE HZY=
200602162200 METAR MRLM 162200Z 02005KT 9999 FEW025 BKN090 28/22 A2984 RMK RN DST N HZY=
200602162300 METAR MRLM 162300Z VRB03KT 9999 FEW025 OVC100 27/23 A2985 RMK RN DST N NW HZY=
200602170000 METAR MRLM 170000Z VRB03KT 9999 FEW025 BKN110 26/24 A2985 RN N/E QDS HZY=
200602170100 METAR MRLM NIL=
200602170200 METAR MRLM NIL=
200602170300 METAR MRLM NIL=
200602170400 METAR MRLM NIL=
200602170500 METAR MRLM NIL=
200602170600 METAR MRLM NIL=
200602170700 METAR MRLM NIL=
200602170800 METAR MRLM NIL=
200602170900 METAR MRLM NIL=
200602171000 METAR MRLM NIL=
200602171100 METAR MRLM NIL=
200602171200 METAR MRLM NIL=
200602171300 METAR MRLM 171300Z 20005KT 9999 -DZ OVC015 22/21 A2992 RMK RN HZY=
200602171400 METAR MRLM NIL=
200602171500 METAR MRLM 171500Z 20005KT 9999 BKN014 SCT090 25/22 A2996 RMK RN S QD HZY=
200602171600 METAR MRLM 171600Z 16006KT 9999 FEW020 BKN120 27/22 A2996 RMK RN SE HZY=
200602171700 METAR MRLM 171700Z 14005KT 9999 FEW032 OVC120 28/22 A2994=
200602171800 METAR MRLM 171800Z 07005KT 9999 SCT033 BKN130 29/22 A2992 HZY=
200602171900 METAR MRLM 171900Z 08005KT 9999 FEW025 OVC130 29/22 A2990 RMK RN N DZ W HZY=
200602172000 METAR MRLM NIL=
200602172100 METAR MRLM 172100Z 34008KT 9999 FEW020 SCT090 BKN130 27/23 A2986 DZ NW E RN DST SW HZ ARND=
200602172200 METAR MRLM 172200Z 01005KT 9999 FEW030 BKN090 28/22 A2986=
200602172300 METAR MRLM 172300Z VRB03KT CAVOK 27/22 A2987=
200602180000 METAR MRLM 180000Z 00000KT CAVOK 26/23 A2988=
200602180100 METAR MRLM NIL=
200602180200 METAR MRLM NIL=
200602180300 METAR MRLM NIL=
200602180400 METAR MRLM NIL=
200602180500 METAR MRLM NIL=
200602180600 METAR MRLM NIL=
200602180700 METAR MRLM NIL=
200602180800 METAR MRLM NIL=
200602180900 METAR MRLM NIL=
200602181000 METAR MRLM NIL=
200602181100 METAR MRLM NIL=
200602181200 METAR MRLM 181200Z 27006KT 4000 DZ SCT015 BKN025 22/22 A2991 RERA=
200602181300 METAR MRLM 181300Z 15006KT 7000 VCSH SCT015 BKN026 22/21 A2994 REDZ RN ARND=
200602181400 METAR MRLM 181400Z 22006KT 9999 FEW025 BKN040 23/22 A2987 RN DST ARND=
200602181500 METAR MRLM 181500Z 20006KT 9999 3000SE -DZ SCT015 BKN030 24/22 A2998 RN ARND=
200602181600 METAR MRLM 181600Z 19008KT 9999 SCT020 BKN035 23/22 A2999 REDZ RN DST ARND=
200602181700 METAR MRLM 181700Z 20009KT 9999 SCT026 SCT080 24/23 A2997 RN DST ARND=
200602181800 METAR MRLM 181800Z 22009KT 9999 SCT026 BKN050 25/23 A2995 REDZ RN DST ARND=
200602181900 METAR MRLM 181900Z 20009KT 9999 SCT030 SCT080 25/22 A2993 RN DST ARND=
200602182000 METAR MRLM NIL=
200602182100 METAR MRLM 182100Z 20003KT 9999 3000SE -DZ SCT030 SCT080 26/24 A2989 RMK RN ARND=
200602182200 METAR MRLM 182200Z 27008KT 9999 SCT030 SCT080 23/22 A2989 RMK RN DST HZ ARND=
200602182300 METAR MRLM 182300Z 19007KT 9999 BKN030 SCT080 23/22 A2989 RMK RN DST HZ ARND=
200602190000 METAR MRLM 190000Z 19005KT 9999 SCT030 BKN090 23/21 A2989 RERA RMK RN DST ARND=
200602190100 METAR MRLM NIL=
200602190200 METAR MRLM NIL=
200602190300 METAR MRLM NIL=
200602190400 METAR MRLM NIL=
200602190500 METAR MRLM NIL=
200602190600 METAR MRLM NIL=
200602190700 METAR MRLM NIL=
200602190800 METAR MRLM NIL=
200602190900 METAR MRLM NIL=
200602191000 METAR MRLM NIL=
200602191100 METAR MRLM NIL=
200602191200 METAR MRLM 191200Z 20007KT 9999 FEW025 BKN080 22/21 A2995 RMK RN DIST ARND=
200602191300 METAR MRLM 191300Z 20004KT 9999 SCT030 SCT090 23/21 A2998 RMK HZY=
200602191400 METAR MRLM 191400Z 25003KT 9999 SCT030 SCT090 24/22 A3000 RMK HZY=
200602191500 METAR MRLM 191500Z 22004KT 9999 FEW028 27/22 30002 RMK HZY=
200602191600 METAR MRLM 191600Z 07005KT 9999 SCT030 SCT090 28/22 A3003 RMK RN DST N/NE HZY=
200602191700 METAR MRLM 191700Z 08006KT 9999 FEW030 SCT090 28/22 A3003 RMK TCU/RN DST ENE/SW/WSW=
200602191800 METAR MRLM 191800Z 07008KT 9999 FEW028 SCT090 28/21 A3000 RMK RN DST=
200602191900 METAR MRLM 191900Z 05014KT 9999 FEW028 SCT090 27/21 A2998 RMK HZY=
200602192000 METAR MRLM NIL=
200602192100 METAR MRLM 192100Z 05008KT 9999 FEW025 29/20 A2993=
200602192200 METAR MRLM 192200Z 05008KT 9999 FEW025 28/20 A2992=
200602192300 METAR MRLM 192300Z 05007KT 9999 FEW025 28/21 A2992=
200602200000 METAR MRLM 200000Z 06005KT 9999 FEW025 27/21 A2992=
200602200100 METAR MRLM NIL=
200602200200 METAR MRLM NIL=
200602200300 METAR MRLM NIL=
200602200400 METAR MRLM NIL=
200602200500 METAR MRLM NIL=
200602200600 METAR MRLM NIL=
200602200700 METAR MRLM NIL=
200602200800 METAR MRLM NIL=
200602200900 METAR MRLM NIL=
200602201000 METAR MRLM NIL=
200602201100 METAR MRLM NIL=
200602201200 METAR MRLM NIL=
200602201300 METAR MRLM 201300Z 21006KT 9999 FEW040 BKN080 20/18 A2996=
200602201400 METAR MRLM 201400Z 21005KT CAVOK 23/20 A2998=
200602201500 METAR MRLM 201500Z 00000KT CAVOK 25/20 A2999=
200602201600 METAR MRLM 201600Z 00000KT 9999 FEW025 BKN110 27/20 A2999=
200602201700 METAR MRLM 201700Z 09005KT 9999 FEW040 BKN120 29/20 A2998=
200602201800 METAR MRLM 201800Z 11008KT 9999 FEW038 BKN090 28/20 A2995=
200602201900 METAR MRLM 201900Z 09010KT 9999 FEW043 SCT110 29/20 A2993=
200602202000 METAR MRLM NIL=
200602202100 METAR MRLM 202100Z 07007KT 9999 FEW043 29/20 A2988=
200602202200 METAR MRLM 202200Z 05010KT CAVOK 29/20 A2988=
200602202300 METAR MRLM 202300Z 05008KT CAVOK 28/20 A2988=
200602210000 METAR MRLM 210000Z 03010KT CAVOK 27/21 A2969=
200602210100 METAR MRLM NIL=
200602210200 METAR MRLM NIL=
200602210300 METAR MRLM NIL=
200602210400 METAR MRLM NIL=
200602210500 METAR MRLM NIL=
200602210600 METAR MRLM NIL=
200602210700 METAR MRLM NIL=
200602210800 METAR MRLM NIL=
200602210900 METAR MRLM NIL=
200602211000 METAR MRLM NIL=
200602211100 METAR MRLM NIL=
200602211200 METAR MRLM NIL=
200602211300 METAR MRLM 211300Z VRB03KT CAVOK 22/20 A2994 RMK RN NE E=
200602211400 METAR MRLM 211400Z 03013KT 9999 FEW014 OVC100 25/22 A2996 RMK RN N E=
200602211500 METAR MRLM 211500Z 03011KT 9999 BKN018 SCT100 25/21 A2998=
200602211600 METAR MRLM 211600Z 09007KT 9999 SCT027 SCT100 26/20 A2999 RMK DZ N E=
200602211700 METAR MRLM 211700Z 10004KT 9999 SCT045 SCT100 27/19 A2997 DZ E ESE=
200602211800 METAR MRLM 211800Z VRB03KT 9999 SCT035 BKN100 27/20 A2995=
200602211900 METAR MRLM 211900Z 09004KT 9999 FEW036 BKN090 27/20 A2992=
200602212000 METAR MRLM NIL=
200602212100 METAR MRLM NIL=
200602212200 METAR MRLM NIL=
200602212300 METAR MRLM NIL=
200602220000 METAR MRLM NIL=
200602220100 METAR MRLM NIL=
200602220200 METAR MRLM NIL=
200602220300 METAR MRLM NIL=
200602220400 METAR MRLM NIL=
200602220500 METAR MRLM NIL=
200602220600 METAR MRLM NIL=
200602220700 METAR MRLM NIL=
200602220800 METAR MRLM NIL=
200602220900 METAR MRLM NIL=
200602221000 METAR MRLM NIL=
200602221100 METAR MRLM NIL=
200602221200 METAR MRLM NIL=
200602221300 METAR MRLM 221300Z 25005KT 9999 BKN040 SCT080 21/20 A2979 REDZ RMK RN E SE SW=
200602221400 METAR MRLM 221400Z 20006KT 9999 FEW040 SCT080 22/21 A2991 RMK RN DST N DZ S SW=
200602221500 METAR MRLM 221500Z 35005KT 9999 FEW028 SCT080 26/22 A2993 RMK RN DST E HZY=
200602221600 METAR MRLM 221600Z 01006KT 9999 SCT010 BKN080 26/21 A2994 RMK RN ENE HZY=
200602221700 METAR MRLM 221700Z 02005KT 9999 FEW030 BKN090 27/22 A2992 RMK HZY=
200602221800 METAR MRLM 221800Z 01004KT 9999 FEW028 BKN080 27/21 A2990 RMK HZY=
200602221900 METAR MRLM 221900Z 36007KT 9999 FEW028 SCT090 28/23 A2988=
200602222000 METAR MRLM NIL=
200602222100 METAR MRLM 222100Z 01007KT 9999 FEW028 29/23 A2983=
200602222200 METAR MRLM 222200Z 02008KT 9999 FEW028 SCT090 28/23 A2983 HZ ARND=
200602222300 METAR MRLM 222300Z 02009KT 9999 FEW028 SCT090 27/23 A2984 HZ ARND=
200602230000 METAR MRLM 230000Z 02005KT 9999 FEW028 SCT090 26/23 A2985=
200602230100 METAR MRLM NIL=
200602230200 METAR MRLM NIL=
200602230300 METAR MRLM NIL=
200602230400 METAR MRLM NIL=
200602230500 METAR MRLM NIL=
200602230600 METAR MRLM NIL=
200602230700 METAR MRLM NIL=
200602230800 METAR MRLM NIL=
200602230900 METAR MRLM NIL=
200602231000 METAR MRLM NIL=
200602231100 METAR MRLM NIL=
200602231200 METAR MRLM 231200Z 26003KT 9999 -DZ BKN030 SCT080 23/22 A2986=
200602231300 METAR MRLM 231300Z 21005KT 9999 FEW025 BKN090 24/22 A2987=
200602231400 METAR MRLM 231400Z 19005KT 9999 FEW025 BKN090 26/23 A2989=
200602231500 METAR MRLM 231500Z 24003KT 9999 FEW025 SCT090 29/23 A2990=
200602231600 METAR MRLM 231600Z 04005KT 9999 FEW025 28/24 A2991 RN DST N W=
200602231700 METAR MRLM 231700Z 36009KT 9999 FEW025 SCT090 28/24 A2989=
200602231800 METAR MRLM 231800Z 35013KT 9999 FEW028 SCT090 25/22 A2986 RN DST N=
200602231900 METAR MRLM 231900Z 36009KT 9999 FEW025 SCT090 29/23 A2974=
200602232000 METAR MRLM NIL=
200602232100 METAR MRLM 232100Z 01008KT 9999 FEW028 BKN090 28/23 A2980 RMK HZY=
200602232200 METAR MRLM 232200Z 01008KT 9999 FEW035 SCT090 28/23 A2980 RMK HZY=
200602232300 METAR MRLM 232300Z 02006KT 9999 FEW025 SCT090 28/23 A2981 RMK HZY=
200602240000 METAR MRLM 240000Z 01004KT 9999 FEW025 SCT090 27/23 A2982 RMK TCU DST SSW/SW HZY=
200602240100 METAR MRLM NIL=
200602240200 METAR MRLM NIL=
200602240300 METAR MRLM NIL=
200602240400 METAR MRLM NIL=
200602240500 METAR MRLM NIL=
200602240600 METAR MRLM NIL=
200602240700 METAR MRLM NIL=
200602240800 METAR MRLM NIL=
200602240900 METAR MRLM NIL=
200602241000 METAR MRLM NIL=
200602241100 METAR MRLM NIL=
200602241200 METAR MRLM NIL=
200602241300 METAR MRLM 241300Z 20008KT 5000 -RA BKN018 22/22 A2989=
200602241400 METAR MRLM 241400Z 20007KT 9000 DZ BKN015 23/22 A2991=
200602241600 METAR MRLM 241600Z 00000KT 9999 DZ FEW008 BKN015 25/24 A2995 RMK HZY=
200602241700 METAR MRLM 241700Z 00000KT 9999 OVC016 27/24 A2994 RMK RN/HZ ARND=
200602241900 METAR MRLM 241900Z 36004KT 9999 BKN016 27/24 A2989 RMK RN/HZ ARND=
200602242000 METAR MRLM NIL=
200602242100 METAR MRLM 242100Z 07007KT 9999 SCT026 BKN120 28/23 A2985 RN S W=
200602242200 METAR MRLM 242200Z 05010KT 9999 BKN025 28/23 A2985 RN S=
200602242300 METAR MRLM 242300Z 05009KT 9999 SCT023 SCT120 27/23 A2987=
200602250000 METAR MRLM 250000Z VRB03KT 9999 SCT012 SCT120 25/23 A2988 RN SE=
200602250100 METAR MRLM NIL=
200602250200 METAR MRLM NIL=
200602250300 METAR MRLM NIL=
200602250400 METAR MRLM NIL=
200602250500 METAR MRLM NIL=
200602250600 METAR MRLM NIL=
200602250700 METAR MRLM NIL=
200602250800 METAR MRLM NIL=
200602250900 METAR MRLM NIL=
200602251000 METAR MRLM NIL=
200602251100 METAR MRLM NIL=
200602251200 METAR MRLM NIL=
200602251300 METAR MRLM 251300Z 36009KT 9999 DZ SCT010 SCT100 23/21 A2994=
200602251400 METAR MRLM 251400Z 04005KT 3000 -RA OVC010 23/22 A2997=
200602251500 METAR MRLM 251500Z VRB03KT 9999 OVC012 23/22 A2998 RERA RMK RN ARND=
200602251600 METAR MRLM 251600Z 19007KT 9999 BKN012 24/22 A2999 RN S W=
200602251700 METAR MRLM 251700Z 21009KT 9999 SCT020 SCT110 26/22 A2997=
200602251800 METAR MRLM 251800Z 16005KT 9999 FEW030 SCT120 28/22 A2994=
200602251900 METAR MRLM 251900Z 05004KT 9999 FEW036 SCT120 29/22 A2992=
200602252000 METAR MRLM NIL=
200602252100 METAR MRLM 252100Z 05004KT 9999 FEW037 SCT120 28/21 A2987=
200602252200 METAR MRLM 262200Z VRB03KT 9999 FEW038 28/21 A2987=
200602252300 METAR MRLM 252300Z 00000KT 9999 FEW038 28/21 A2987=
200602260000 METAR MRLM 260000Z 00000KT 9999 FEW013 BKN300 24/21 A2987=
200602260100 METAR MRLM NIL=
200602260200 METAR MRLM NIL=
200602260300 METAR MRLM NIL=
200602260400 METAR MRLM NIL=
200602260500 METAR MRLM NIL=
200602260600 METAR MRLM NIL=
200602260700 METAR MRLM NIL=
200602260800 METAR MRLM NIL=
200602260900 METAR MRLM NIL=
200602261000 METAR MRLM NIL=
200602261100 METAR MRLM NIL=
200602261200 METAR MRLM 261200Z 22004KT CAVOK 18/17 A2993=
200602261300 METAR MRLM 261300Z 22004KT CAVOK 21/17 A2988=
200602261400 METAR MRLM 261400Z 21005KT CAVOK 23/19 A2990=
200602261500 METAR MRLM 261500Z 21005KT CAVOK 27/20 A2992=
200602261600 METAR MRLM 261600Z 36006KT CAVOK 28/21 A2994=
200602261700 METAR MRLM 261700Z 01006KT CAVOK 28/21 A2993=
200602261800 METAR MRLM 261800Z 36009KT 9999 SCT040 BKN080 28/21 A2991=
200602261900 METAR MRLM 261900Z 02012KT 9999 SCT040 BKN090 27/22 A2989 RMK RN N SW=
200602262000 METAR MRLM NIL=
200602262100 METAR MRLM 262100Z 02012KT 9999 SCT030 SCT090 26/23 A2986 RMK RN S SW HZY=
200602262200 METAR MRLM NIL=
200602262300 METAR MRLM 262300Z 36008KT 9999 FEW030 BKN080 26/22 A2987 RMK RN DST N NW SSW W HZY=
200602270000 METAR MRLM NIL=
200602270100 METAR MRLM NIL=
200602270200 METAR MRLM NIL=
200602270300 METAR MRLM NIL=
200602270400 METAR MRLM NIL=
200602270500 METAR MRLM NIL=
200602270600 METAR MRLM NIL=
200602270700 METAR MRLM NIL=
200602270800 METAR MRLM NIL=
200602270900 METAR MRLM NIL=
200602271000 METAR MRLM NIL=
200602271100 METAR MRLM NIL=
200602271200 METAR MRLM NIL=
200602271300 METAR MRLM 271300Z 23006KT 9999 FEW025 BKN080 22/19 A2997 RMK RN DST ARND=
200602271400 METAR MRLM 271400Z 19007KT 9999 FEW030 BKN090 22/20 A2999 RMK RN DST ARND=
200602271500 METAR MRLM 271500Z 16007KT 9999 FEW030 BKN090 23/20 A3000 RMK RN DST E SE HZY=
200602271600 METAR MRLM 271600Z 20009KT 9999 SCT030 SCT090 25/21 A3000 RMK RN ARND HZY=
200602271700 METAR MRLM 271700Z 20005KT 9999 FEW030 BKN100 27/21 A2999=
200602271800 METAR MRLM 271800Z 11006KT 9999 FEW030 SCT100 28/21 A2997 HZY=
200602271900 METAR MRLM 271900Z 05005KT 9999 FEW030 BKN100 29/21 A2995 RMK HZY=
200602272000 METAR MRLM NIL=
200602272100 METAR MRLM 272100Z 01005KT 9999 FEW028 SCT100 28/20 A2998=
200602272200 METAR MRLM 272200Z 02005KT 9999 FEW028 SCT250 28/21 A2990=
200602272300 METAR MRLM 272300Z 01005KT 9999 FEW030 SCT120 28/21 A2990=
200602280000 METAR MRLM 280000Z 02003KT 9999 FEW028 26/22 A2990=
200602280100 METAR MRLM NIL=
200602280200 METAR MRLM NIL=
200602280300 METAR MRLM NIL=
200602280400 METAR MRLM NIL=
200602280500 METAR MRLM NIL=
200602280600 METAR MRLM NIL=
200602280700 METAR MRLM NIL=
200602280800 METAR MRLM NIL=
200602280900 METAR MRLM NIL=
200602281000 METAR MRLM NIL=
200602281100 METAR MRLM NIL=
200602281200 METAR MRLM NIL=
200602281300 METAR MRLM 281300Z 19008KT 9999 FEW028 BKN090 22/20 A2992=
200602281400 METAR MRLM 281400Z 19007KT CAVOK 23/20 A2994=
200602281500 METAR MRLM 281500Z 18004KT CAVOK 27/20 A2996=
200602281600 METAR MRLM 281600Z 06006 CAVOK 28/21 A2996=
200602281700 METAR MRLM 281700Z 08008KT CAVOK 28/21 A2994=
200602281800 METAR MRLM 281800Z 07007KT 9999 FEW030 SCT100 29/21 A2991=
200602281900 METAR MRLM NIL=
200602282000 METAR MRLM NIL=
200602282100 METAR MRLM 282100Z 02010KT 9999 FEW030 SCT100 27/21 A2984=
200602282200 METAR MRLM 282200Z 04008KT 9999 FEW030 SCT100 28/22 A2984=
200602282300 METAR MRLM 282300Z 04007KT 9999 FEW030 27/22 A2985=
200603010000 METAR MRLM 010000Z 03007KT 9999 FEW028 27/22 A2986=
200603010100 METAR MRLM NIL=
200603010200 METAR MRLM NIL=
200603010300 METAR MRLM NIL=
200603010400 METAR MRLM NIL=
200603010500 METAR MRLM NIL=
200603010600 METAR MRLM NIL=
200603010700 METAR MRLM NIL=
200603010800 METAR MRLM NIL=
200603010900 METAR MRLM NIL=
200603011000 METAR MRLM NIL=
200603011100 METAR MRLM NIL=
200603011200 METAR MRLM NIL=
200603011300 METAR MRLM 011300Z 00000KT 9999 SCT015 BKN090 24/22 A2991=
200603011400 METAR MRLM 011400Z 21005KT 9999 SCT015 BKN090 24/23 A2993 RMK RN HZ ARND=
200603011500 METAR MRLM 011500Z 00000KT 9999 BKN015 SCT090 26/23 A2994 RMK RN HZ ARND=
200603011600 METAR MRLM 011600Z 36009KT 6000 RA BKN008 SCT090 25/23 A2995=
200603011700 METAR MRLM 011700Z 00000KT 9999 SCT016 BKN100 26/23 A2993 RERA RMK RN QUARD S/W HZ LGT ARND=
200603011800 METAR MRLM 011800Z VRB03KT 9999 SCT020 BKN090 27/23 A2990 RMK RN DST=
200603011900 METAR MRLM 011900Z 00000KT 9999 FEW024 OVC090 28/23 A2986 RMK RN QUADR S DZ W=
200603012000 METAR MRLM NIL=
200603012100 METAR MRLM 012100Z 10011KT 9999 FEW020 OVC110 27/23 A2981=
200603012200 METAR MRLM 012200Z 09007KT 9999 FEW020 OVC090 27/23 A2982=
200603012300 METAR MRLM 012300Z 11007KT 9999 SCT030 SCT090 27/22 A2983 RN ARND=
200603020000 METAR MRLM 020000Z 00000KT 9999 DZ BKN016 SCT090 26/23 A2984 RN ARND=
200603020100 METAR MRLM NIL=
200603020200 METAR MRLM NIL=
200603020300 METAR MRLM NIL=
200603020400 METAR MRLM NIL=
200603020500 METAR MRLM NIL=
200603020600 METAR MRLM NIL=
200603020700 METAR MRLM NIL=
200603020800 METAR MRLM NIL=
200603020900 METAR MRLM NIL=
200603021000 METAR MRLM NIL=
200603021100 METAR MRLM NIL=
200603021200 METAR MRLM NIL=
200603021300 METAR MRLM 021300Z 21004KT 9999 FEW028 24/22 A2991 RN SE S W=
200603021400 METAR MRLM 021400Z 20005KT 9999 FEW028 26/23 A2993=
200603021500 METAR MRLM 021500Z 02004KT 9999 FEW028 SCT090 28/23 A2994=
200603021600 METAR MRLM 021600Z 07005KT 9999 FEW028 29/23 A2994=
200603021700 METAR MRLM 021700Z 05005KT 9999 FEW028 29/23 A2992=
200603021800 METAR MRLM 021800Z 03006KT 9999 FEW028 29/22 A2990=
200603021900 METAR MRLM 021900Z 03008KT 9999 FEW028 29/23 A2987=
200603022000 METAR MRLM NIL=
200603022100 METAR MRLM 022100Z 36008KT 9999 FEW028 29/23 A2981=
200603022200 METAR MRLM 022200Z 35007KT 9999 FEW028 28/23 A2981=
200603022300 METAR MRLM 022300Z 35008KT 9999 SCT028 27/23 A2982=
200603030000 METAR MRLM 030000Z 01005KT 9999 SCT025 27/23 A2983=
200603030100 METAR MRLM NIL=
200603030200 METAR MRLM NIL=
200603030300 METAR MRLM NIL=
200603030400 METAR MRLM NIL=
200603030500 METAR MRLM NIL=
200603030600 METAR MRLM NIL=
200603030700 METAR MRLM NIL=
200603030800 METAR MRLM NIL=
200603030900 METAR MRLM NIL=
200603031000 METAR MRLM NIL=
200603031100 METAR MRLM NIL=
200603031200 METAR MRLM NIL=
200603031300 METAR MRLM 031300Z 21006KT CAVOK 23/22 A2989=
200603031400 METAR MRLM 031400Z 22005KT CAVOK 25/23 A2991=
200603031500 METAR MRLM 031500Z 04004KT 9999 FEW018 SCT090 BKN120 27/24 A2992 RMK RN NE E=
200603031600 METAR MRLM 031600Z 03006KT 9999 FEW025 SCT090 BKN100 28/23 A2994 RMK RN NE E=
200603031700 METAR MRLM 031700Z 04008KT 9999 FEW015 BKN090 27/24 A2992 RMK DZ NE E RN SE=
200603031800 METAR MRLM 031800Z 09007KT 9999 FEW024 SCT090 BKN110 28/23 A2990 RMK RN NE E SE SW=
200603031900 METAR MRLM 031900Z VRB03KT 9999 FEW024 SCT090 BKN110 28/23 A2988 RMK RN N NE E SW=
200603032000 METAR MRLM NIL=
200603032100 METAR MRLM 032100Z 33008KT 9999 FEW030 SCT100 BKN120 28/22 A2983 RN DST N HZY=
200603032200 METAR MRLM 032200Z 34007KT 9999 FEW030 BKN100 28/22 A2983 RMK HZY=
200603032300 METAR MRLM 032300Z 02004KT CAVOK 28/23 A2983 RMK RN DST E SE BKN090 SCT110 HZY=
200603040000 METAR MRLM 040000Z VRB03KT CAVOK 27/23 A2993=
200603040100 METAR MRLM NIL=
200603040200 METAR MRLM NIL=
200603040300 METAR MRLM NIL=
200603040400 METAR MRLM NIL=
200603040500 METAR MRLM NIL=
200603040600 METAR MRLM NIL=
200603040700 METAR MRLM NIL=
200603040800 METAR MRLM NIL=
200603040900 METAR MRLM NIL=
200603041000 METAR MRLM NIL=
200603041100 METAR MRLM NIL=
200603041200 METAR MRLM NIL=
200603041300 METAR MRLM 041300Z VRB03KT 9999 SCT015 BKN080 24/23 A2991 RMK RN HZ ARND=
200603041400 METAR MRLM 041400Z VRB03KT 9999 DZ SCT015 SCT090 24/23 A2993 RMK RN HZ ARND=
200603041500 METAR MRLM 041500Z 00000KT 9999 DZ FEW010 OVC090 25/24 A2994 RMK RN HZ ARND=
200603041600 METAR MRLM 041600Z 31007KT 9999 FEW010 BKN030 25/23 A2994 RMK RN N QD HZY=
200603041700 METAR MRLM 041700Z 28007KT 9999 -DZ FEW012 SCT030 BKN090 25/23 A2992 RMK RN DST N NE HZY=
200603041800 METAR MRLM 041800Z 01006KT 9999 -DZ FEW018 SCT040 BKN100 26/23 A2991 RMK TCU N RN ARND=
200603041900 METAR MRLM 041900Z 35006KT 9999 FEW025 SCT080 BKN100 28/23 A2989 RMK TCU RN DST N=
200603042000 METAR MRLM NIL=
200603042100 METAR MRLM 042100Z 27006KT 9999 FEW018 SCT040 BKN090 26/23 A2986=
200603042200 METAR MRLM 042200Z 23004KT 9999 FEW020 SCT045 BKN090 26/23 A2985 RN N/=
200603042300 METAR MRLM 042300Z 01008KT 8000 +DZ BKN018 SCT090 26/23 2987=
200603050000 METAR MRLM NIL=
200603050100 METAR MRLM NIL=
200603050200 METAR MRLM NIL=
200603050300 METAR MRLM NIL=
200603050400 METAR MRLM NIL=
200603050500 METAR MRLM NIL=
200603050600 METAR MRLM NIL=
200603050700 METAR MRLM NIL=
200603050800 METAR MRLM NIL=
200603050900 METAR MRLM NIL=
200603051000 METAR MRLM NIL=
200603051100 METAR MRLM NIL=
200603051200 METAR MRLM NIL=
200603051300 METAR MRLM 051300Z 13008KT 9999 +DZ SCT006 BKN025 23/22 A2996 RN DST E SE SW=
200603051400 METAR MRLM 051400Z 20007KT 9999 SCT015 SCT110 24/22 A2999 RN DST E SE S=
200603051500 METAR MRLM 051500Z 18007KT 9999 SCT020 27/23 A3000 RN DST NE=
200603051600 METAR MRLM 051600Z 00000KT 9999 SCT030 BKN110 28/22 A3001 DZ DST NE E=
200603051700 METAR MRLM 051700Z VRB03KT 9999 SCT030 BKN100 28/22 A2999=
200603051800 METAR MRLM 051800Z 03006KT 9999 FEW030 28/22 A2997=
200603051900 METAR MRLM 051900Z 03008KT 9999 FEW032 29/22 A2995=
200603052000 METAR MRLM NIL=
200603052100 METAR MRLM NIL=
200603052200 METAR MRLM 052200Z 00000KT 9999 SCT030 28/22 A2993 RMK HZ LGT ARND=
200603052300 METAR MRLM NIL=
200603060000 METAR MRLM 060000Z VRB03KT 9999 SCT015 28/22 A2993 RMK HZ LGT ARND=
200603060100 METAR MRLM NIL=
200603060200 METAR MRLM NIL=
200603060300 METAR MRLM NIL=
200603060400 METAR MRLM NIL=
200603060500 METAR MRLM NIL=
200603060600 METAR MRLM NIL=
200603060700 METAR MRLM NIL=
200603060800 METAR MRLM NIL=
200603060900 METAR MRLM NIL=
200603061000 METAR MRLM NIL=
200603061100 METAR MRLM NIL=
200603061200 METAR MRLM 061200Z 33008KT 9999 3000NW DZ BKN025 SCT080 22/21 A2997 RMK RN DST ARND=
200603061300 METAR MRLM 061300Z 23006KT 9999 DZ BKN030 SCT080 22/21 A2998 RMK RN DST ARND=
200603061400 METAR MRLM 061400Z 19006KT 9999 BKN030 SCT080 22/21 A3001 REDZ RMK RN DST ARND=
200603061500 METAR MRLM 061500Z 21007KT 9999 SCT030 BKN090 25/22 A3003 RMK RN DST ARND=
200603061600 METAR MRLM 061600Z 19006KT 9999 FEW030 SCT100 26/23 A3003 RMK RN DST S/SW=
200603061700 METAR MRLM 061700Z 03003KT 9999 FEW028 SCT100 29/23 A3002=
200603061800 METAR MRLM 061800Z 06005KT 9999 FEW028 29/23 A2999=
200603061900 METAR MRLM 061900Z 05007KT 9999 FEW028 29/22 A2997=
200603062000 METAR MRLM NIL=
200603062100 METAR MRLM 062100Z 01007KT 9999 FEW028 29/22 A2993=
200603062200 METAR MRLM 062200Z 01009KT 9999 FEW028 28/23 A2992=
200603062300 METAR MRLM 062300Z 36008KT 9999 FEW028 SCT280 28/23 A2993=
200603070000 METAR MRLM 070000Z 36007KT 9999 SCT028 BKN280 27/22 A2995=
200603070100 METAR MRLM NIL=
200603070200 METAR MRLM NIL=
200603070300 METAR MRLM NIL=
200603070400 METAR MRLM NIL=
200603070500 METAR MRLM NIL=
200603070600 METAR MRLM NIL=
200603070700 METAR MRLM NIL=
200603070800 METAR MRLM NIL=
200603070900 METAR MRLM NIL=
200603071000 METAR MRLM NIL=
200603071100 METAR MRLM NIL=
200603071200 METAR MRLM NIL=
200603071300 METAR MRLM 071300Z 23007KT 9999 BKN030 SCT080 22/21 A2998 RMK RN ARND=
200603071400 METAR MRLM 071400Z 25006KT 9999 BKN030 SCT080 23/21 A3001=
200603071500 METAR MRLM 071500Z 13006KT 9999 -DZ SCT030 SCT080 24/22 A3002=
200603071600 METAR MRLM NIL=
200603071700 METAR MRLM 071700Z 19009KT 9999 BKN030 SCT080 25/22 A3000 RMK RN NW N S SE=
200603071800 METAR MRLM 071800Z 20004KT 9999 SCT030 SCT090 26/22 A2998 RN NE E SW=
200603071900 METAR MRLM 071900Z 15005KT 9999 SCT028 BKN090 27/22 A2995 RN NE S W=
200603072000 METAR MRLM NIL=
200603072100 METAR MRLM 072100Z 08013KT 9999 BKN028 SCT090 26/22 A2991 RMK RN NW N E SE=
200603072200 METAR MRLM 072200Z 15006KT 9999 FEW020 SCT045 BKN090 23/20 A2991 RERA RMK RN ARND=
200603072300 METAR MRLM 072300Z 20006KT 9999 FEW028 BKN080 22/21 A2992 RMK RN ARND=
200603080000 METAR MRLM 080000Z 19006KT 9999 FEW028 BKN080 22/20 A2992 RMK RN ARND=
200603080100 METAR MRLM NIL=
200603080200 METAR MRLM NIL=
200603080300 METAR MRLM NIL=
200603080400 METAR MRLM NIL=
200603080500 METAR MRLM NIL=
200603080600 METAR MRLM NIL=
200603080700 METAR MRLM NIL=
200603080800 METAR MRLM NIL=
200603080900 METAR MRLM NIL=
200603081000 METAR MRLM NIL=
200603081100 METAR MRLM NIL=
200603081200 METAR MRLM NIL=
200603081300 METAR MRLM 081300Z 13006KT 9999 SCT020 OVC100 21/20 A2999=
200603081400 METAR MRLM 081400Z 20009KT CAVOK 22/20 A2998=
200603081500 METAR MRLM 081500Z 20009KT CAVOK 24/21 A2998 RMK DZ S E=
200603081600 METAR MRLM 081600Z 18005KT CAVOK 27/21 A2997=
200603081700 METAR MRLM 081700Z 01004KT 9999 FEW040 BKN110 28/20 A2995=
200603081800 METAR MRLM 081800Z 36005KT 9999 FEW035 OVC110 28/21 A2993=
200603081900 METAR MRLM 081900Z 02006KT 9999 FEW035 BKN110 28/21 A2991=
200603082000 METAR MRLM NIL=
200603082100 METAR MRLM 082100Z 02007KT 9999 FEW028 OVC100 27/22 A2986 RMK RN DIST SW HZY=
200603082200 METAR MRLM 082200Z 02006KT 9999 BKN025 SCT090 27/22 A2985 RMK HZ ARND RN SW W=
200603082300 METAR MRLM 082300Z 35004KT 9999 SCT023 BKN090 27/22 A2985 RMK RN DST S/W=
200603090000 METAR MRLM 090000Z 21006KT 9999 4000NW VCSH OVC120 25/22 A2986=
200603090100 METAR MRLM NIL=
200603090200 METAR MRLM NIL=
200603090300 METAR MRLM NIL=
200603090400 METAR MRLM NIL=
200603090500 METAR MRLM NIL=
200603090600 METAR MRLM NIL=
200603090700 METAR MRLM NIL=
200603090800 METAR MRLM NIL=
200603090900 METAR MRLM NIL=
200603091000 METAR MRLM NIL=
200603091100 METAR MRLM NIL=
200603091200 METAR MRLM NIL=
200603091300 METAR MRLM 091300Z 00000KT 9999 FEW004 SCT025 BKN090 23/22 A2993 RMK RN DST W NW N NE E HZY=
200603091400 METAR MRLM 091400Z VRB03KT 9999 DZ SCT004 SCT080 23/23 A2994 RMK RN DST N=
200603091500 METAR MRLM 091500Z VRB03KT 9999 DZ SCT006 OVC090 24/23 A2996 RN HZ ARND=
200603091600 METAR MRLM NIL=
200603091700 METAR MRLM 091700Z 13009KT 9999 SCT020 OVC090 26/22 A2994 RN NW N E HZY=
200603091800 METAR MRLM 091800Z 08006KT 9999 FEW028 SCT035 BKN090 26/21 A2992 RMK RN DST W/ N/ E HZY=
200603091900 METAR MRLM 091900Z 11005KT 9999 FEW022 BKN110 27/22 A2989 RMK RN DST N NE E HZY=
200603092000 METAR MRLM NIL=
200603092100 METAR MRLM 092100Z 01007KT 9999 FEW025 SCT080 BKN100 27/22 A2984 RN DST SW W HZ ARND=
200603092200 METAR MRLM 092200Z 10009KT 9999 FEW022 BKN090 27/22 A2982 RN DST SW S W=
200603092300 METAR MRLM 092300Z 16004KT 9999 FEW020 OVC100 26/22 A2982 RN DST SW W=
200603100000 METAR MRLM 100000Z VRB03KT 9999 FEW013 OVC100 25/22 A2983=
200603100100 METAR MRLM NIL=
200603100200 METAR MRLM NIL=
200603100300 METAR MRLM NIL=
200603100400 METAR MRLM NIL=
200603100500 METAR MRLM NIL=
200603100600 METAR MRLM NIL=
200603100700 METAR MRLM NIL=
200603100800 METAR MRLM NIL=
200603100900 METAR MRLM NIL=
200603101000 METAR MRLM NIL=
200603101100 METAR MRLM NIL=
200603101200 METAR MRLM NIL=
200603101300 METAR MRLM 101300Z 18005KT 9999 FEW028 SCT300 23/21 A2987=
200603101400 METAR MRLM 101400Z 13008KT 9999 FEW028 SCT300 27/22 A2989=
200603101500 METAR MRLM 101500Z 11013KT CAVOK 29/22 A2991=
200603101600 METAR MRLM 101600Z 10012KT 9999 FEW028 28/22 A2991=
200603101900 METAR MRLM 101900Z 06010KT 9999 FEW028 29/22 A2985=
200603102000 METAR MRLM NIL=
200603102100 METAR MRLM 102100Z 05010KT 9999 FEW028 29/24 A2982=
200603102200 METAR MRLM 102200Z 04008KT 9999 FEW028 SCT100 28/23 A2982=
200603102300 METAR MRLM 102300Z 05005KT 9999 FEW028 BKN090 28/23 A2983=
200603110000 METAR MRLM 110000Z 04007KT 9999 BKN028 27/24 A2984 HZ ARND=
200603110100 METAR MRLM NIL=
200603110200 METAR MRLM NIL=
200603110300 METAR MRLM NIL=
200603110400 METAR MRLM NIL=
200603110500 METAR MRLM NIL=
200603110600 METAR MRLM NIL=
200603110700 METAR MRLM NIL=
200603110800 METAR MRLM NIL=
200603110900 METAR MRLM NIL=
200603111000 METAR MRLM NIL=
200603111100 METAR MRLM NIL=
200603111200 METAR MRLM NIL=
200603111300 METAR MRLM 111300Z 24005KT 9999 BKN030 SCT080 23/22 A2990 RN DST ARND=
200603111400 METAR MRLM 111400Z 16006KT 9999 -DZ SCT018 BKN030 23/22 A2993 RN ARND=
200603111500 METAR MRLM 111500Z 17005KT 4000 +DZ BKN020 SCT080 23/22 A2995 RN ARND=
200603111600 METAR MRLM 111600Z 20008KT 5000 DZ FEW015 BKN035 24/23 A2996 RN ARND=
200603111700 METAR MRLM 111700Z 19010KT 8000 DZ SCT030 BKN080 24/23 A2995 RN ARND=
200603111800 METAR MRLM 111800Z 20010KT 9999 -DZ SCT030 BKN080 24/23 A2992 RN DST ARND=
200603111900 METAR MRLM 111900Z 23006KT 9999 SCT030 BKN080 26/23 A2989 REDZ RN DST ARND=
200603112000 METAR MRLM NIL=
200603112100 METAR MRLM 112100Z 25003KT 9999 FEW026 BKN045 26/22 A2986 RN ARND=
200603112200 METAR MRLM 112200Z 13004KT 9999 FEW040 BKN080 27/22 A2985 RMK RN ARND=
200603112300 METAR MRLM 112300Z 12004KT 9999 FEW040 BKN080 26/22 A2986 RN ARND=
200603120000 METAR MRLM 120000Z 00000KT 9999 SCT035 BKN080 26/23 A2987=
200603120100 METAR MRLM NIL=
200603120200 METAR MRLM NIL=
200603120300 METAR MRLM NIL=
200603120400 METAR MRLM NIL=
200603120500 METAR MRLM NIL=
200603120600 METAR MRLM NIL=
200603120700 METAR MRLM NIL=
200603120800 METAR MRLM NIL=
200603120900 METAR MRLM NIL=
200603121000 METAR MRLM NIL=
200603121100 METAR MRLM NIL=
200603121200 METAR MRLM NIL=
200603121300 METAR MRLM NIL=
200603121400 METAR MRLM NIL=
200603121500 METAR MRLM NIL=
200603121600 METAR MRLM NIL=
200603121700 METAR MRLM NIL=
200603121800 METAR MRLM NIL=
200603121900 METAR MRLM NIL=
200603122000 METAR MRLM NIL=
200603122100 METAR MRLM 122100Z 18004KT CAVOK 27/23 A2984=
200603122200 METAR MRLM 122200Z 00000KT CAVOK 27/23 A2983=
200603122300 METAR MRLM 122300Z VRB03KT CAVOK 26/23 A2984=
200603130000 METAR MRLM 130000Z VRB03KT CAVOK 25/23 A2984=
200603130100 METAR MRLM NIL=
200603130200 METAR MRLM NIL=
200603130300 METAR MRLM NIL=
200603130400 METAR MRLM NIL=
200603130500 METAR MRLM NIL=
200603130600 METAR MRLM NIL=
200603130700 METAR MRLM NIL=
200603130800 METAR MRLM NIL=
200603130900 METAR MRLM NIL=
200603131000 METAR MRLM NIL=
200603131100 METAR MRLM NIL=
200603131200 METAR MRLM NIL=
200603131300 METAR MRLM 131300Z 22004KT CAVOK 22/20 A2986=
200603131400 METAR MRLM 131400Z VRB03KT CAVOK 25/22 A2988=
200603131600 METAR MRLM 131600Z 04005KT 9999 FEW034 SCT150 28/21 A2990=
200603131700 METAR MRLM 131700Z 04005KT 9999 FEW036 SCT140 28/21 A2989=
200603131800 METAR MRLM 131800Z 06006KT 9999 FEW032 SCT120 28/22 A2987=
200603131900 METAR MRLM 131900Z 07004KT 9999 FEW030 SCT130 28/22 A2984=
200603132000 METAR MRLM NIL=
200603132100 METAR MRLM NIL=
200603132200 METAR MRLM NIL=
200603132300 METAR MRLM NIL=
200603140000 METAR MRLM 140000Z 05006KT 9999 FEW025 BKN100 27/22 A2979 RMK HZ LGT ARND=
200603140100 METAR MRLM NIL=
200603140200 METAR MRLM NIL=
200603140300 METAR MRLM NIL=
200603140400 METAR MRLM NIL=
200603140500 METAR MRLM NIL=
200603140600 METAR MRLM NIL=
200603140700 METAR MRLM NIL=
200603140800 METAR MRLM NIL=
200603140900 METAR MRLM NIL=
200603141000 METAR MRLM NIL=
200603141100 METAR MRLM NIL=
200603141200 METAR MRLM 141200Z 21006KT 9999 FEW028 21/20 A2982=
200603141300 METAR MRLM 141300Z 24003KT CAVOK 23/21 A2983=
200603141400 METAR MRLM 141400Z 21003KT CAVOK 26/22 A2985 RMK HZ ARND=
200603141500 METAR MRLM 141500Z 35006KT 9999 FEW028 27/23 A2987 RMK RN DST NW/W HZ ARND=
200603141600 METAR MRLM 141600Z 01007KT 9999 FEW028 SCT090 28/23 A2989 RMK RN DST NE HZ ARND=
200603141700 METAR MRLM 141700Z 01008KT 9999 FEW030 BKN090 27/23 A2989 RMK RN DST N/NE HZ ARND=
200603141800 METAR MRLM 141800Z 06014KT 9999 FEW028 BKN090 26/23 A2987 RMK RN DST NW/N/NE HZ ARND=
200603141900 METAR MRLM 141900Z 05004KT 9999 FEW025 BKN090 28/22 A2985 RMK RN DST=
200603142000 METAR MRLM NIL=
200603142100 METAR MRLM 142100Z 04003KT 9999 FEW025 BKN090 28/21 A2983=
200603142200 METAR MRLM 142200Z 36004KT 9999 FEW028 BKN090 28/22 A2982 RN DST SW HZ ARND=
200603142300 METAR MRLM 142300Z 03003KT CAVOK 27/21 A2983=
200603150000 METAR MRLM 150000Z 00000KT CAVOK 26/22 A2985=
200603150100 METAR MRLM NIL=
200603150200 METAR MRLM NIL=
200603150300 METAR MRLM NIL=
200603150400 METAR MRLM NIL=
200603150500 METAR MRLM NIL=
200603150600 METAR MRLM NIL=
200603150700 METAR MRLM NIL=
200603150800 METAR MRLM NIL=
200603150900 METAR MRLM NIL=
200603151000 METAR MRLM NIL=
200603151100 METAR MRLM NIL=
200603151200 METAR MRLM 151200Z 22005KT 9999 FEW026 BKN250 21/20 A2989=
200603151300 METAR MRLM 151300Z 21004KT 9999 FEW026 SCT250 23/21 A2991 HZY=
200603151400 METAR MRLM 151400Z 20005KT 9999 FEW026 SCT100 25/22 A2993 HZY=
200603151500 METAR MRLM 151500Z 19003KT 9999 FEW025 BKN090 26/23 A2995 RN NE E HZY=
200603151600 METAR MRLM 151600Z 02005KT 9999 FEW024 BKN080 27/23 A2996 RN DST NE E SE DST=
200603151700 METAR MRLM 151700Z 12011KT 9999 SCT026 SCT080 24/21 A2994 RN DST ARND HZY=
200603151800 METAR MRLM 151800Z 19004KT 9999 FEW026 BKN080 26/22 A2991 REDZ RN DST ARND=
200603151900 METAR MRLM 151900Z 12003KT 9999 BKN035 SCT080 27/21 A2989 RN DST ARND=
200603152000 METAR MRLM NIL=
200603152100 METAR MRLM 152100Z 23008KT 9999 FEW035 BKN090 24/22 A2986 RN DST S SW=
200603152200 METAR MRLM 152200Z 20005KT 9999 FEW035 BKN090 25/21 A2986=
200603152300 METAR MRLM 152300Z 20006KT FEW030 BKN090 25/21 A2987=
200603160000 METAR MRLM 160000Z 22003KT 9999 FEW030 BKN090 24/21 A2988 RN DST E SE S=
200603160100 METAR MRLM NIL=
200603160200 METAR MRLM NIL=
200603160300 METAR MRLM NIL=
200603160400 METAR MRLM NIL=
200603160500 METAR MRLM NIL=
200603160600 METAR MRLM NIL=
200603160700 METAR MRLM NIL=
200603160800 METAR MRLM NIL=
200603160900 METAR MRLM NIL=
200603161000 METAR MRLM NIL=
200603161100 METAR MRLM NIL=
200603161200 METAR MRLM NIL=
200603161300 METAR MRLM 161300Z 24004KT CAVOK 23/21 A2993 FEW140 HZY=
200603161400 METAR MRLM 161400Z 00000KT CAVOK 26/22 A2995 FEW140 HZY=
200603161500 METAR MRLM 161500Z VRB03KT 9999 FEW034 SCT150 28/21 A2996 HZY=
200603161600 METAR MRLM 161600Z 03005KT 9999 FEW033 28/21 A2996 HZY=
200603161700 METAR MRLM 161700Z 05006KT 9999 FEW036 29/22 A2994 HZY=
200603161800 METAR MRLM 161800Z 04007KT 9999 FEW034 29/22 A2992 TCU N NW NE HZY=
200603161900 METAR MRLM 161900Z 03007KT 9999 FEW033 29/22 A2989 HZY=
200603162000 METAR MRLM NIL=
200603162100 METAR MRLM 162100Z 02009KT 9999 FEW029 BKN130 29/23 A2985=
200603162200 METAR MRLM 162200Z 01009KT 9999 FEW027 SCT120 28/23 A2983=
200603162300 METAR MRLM 162300Z 02009KT 9999 BKN025 28/23 A2986=
200603170000 METAR MRLM 170000Z 06020KT 9999 SKC 29/15 A2979=
200603170100 METAR MRLM NIL=
200603170200 METAR MRLM NIL=
200603170300 METAR MRLM NIL=
200603170400 METAR MRLM NIL=
200603170500 METAR MRLM NIL=
200603170600 METAR MRLM NIL=
200603170700 METAR MRLM NIL=
200603170800 METAR MRLM NIL=
200603170900 METAR MRLM NIL=
200603171000 METAR MRLM NIL=
200603171100 METAR MRLM NIL=
200603171200 METAR MRLM NIL=
200603171300 METAR MRLM 171300Z 00000KT 9000 RA SCT018 OVC090 22/21 A2993=
200603171400 METAR MRLM 171400Z 18007KT 9999 BKN025 23/22 A2995 RERA RMK RN ARND=
200603171500 METAR MRLM 171500Z 21007KT 9999 BKN025 SCT110 24/22 A2996=
200603171600 METAR MRLM 171600Z 18006KT 9999 BKN025 SCT110 27/22 A2996 RMK RN W N=
200603171700 METAR MRLM 171700Z VRB03KT 9999 FEW025 OVC110 28/23 A2994 RN W=
200603171800 METAR MRLM 171800Z 02005KT 9999 FEW025 OVC110 28/23 A2992 RN N=
200603171900 METAR MRLM 171900Z 35007KT 9999 SCT023 BKN110 28/23 A2990 RN N=
200603172000 METAR MRLM NIL=
200603172100 METAR MRLM 172100Z 01004KT 9999 FEW030 BKN090 29/23 A2986=
200603172200 METAR MRLM 172200Z 01007KT 9999 FEW028 SCT140 28/23 A2985 RMK TCU RN S SW W N NE=
200603172300 METAR MRLM 172300Z VRB03KT 9999 FEW027 BKN110 28/22 A2985 RMK TCU RN S SW NW NE=
200603180000 METAR MRLM 180000Z VRB03KT 9999 BKN025 27/22 A2986=
200603180100 METAR MRLM NIL=
200603180200 METAR MRLM NIL=
200603180300 METAR MRLM NIL=
200603180400 METAR MRLM NIL=
200603180500 METAR MRLM NIL=
200603180600 METAR MRLM NIL=
200603180700 METAR MRLM NIL=
200603180800 METAR MRLM NIL=
200603180900 METAR MRLM NIL=
200603181000 METAR MRLM NIL=
200603181100 METAR MRLM NIL=
200603181200 METAR MRLM NIL=
200603181300 METAR MRLM 181300Z 22004KT 9999 DZ BKN026 SCT080 23/22 A2990=
200603181400 METAR MRLM 181400Z 20005KT 9999 DZ BKN026 24/23 A2992=
200603181500 METAR MRLM 181500Z 15003KT 9999 BKN026 SCT080 26/24 A2994 REDZ RN ARND=
200603181600 METAR MRLM 181600Z 16006KT 9999 BKN028 SCT080 25/23 A2993 REDZ RMK RN ARND=
200603181700 METAR MRLM 181700Z 20005KT 9999 SCT028 SCT080 27/23 A2992 RMK RN ARND=
200603181800 METAR MRLM 181800Z 08004KT 9999 FEW028 BKN090 28/23 A2990 RMK RN W NW=
200603181900 METAR MRLM 181900Z 02004KT 9999 SCT026 28/23 A2988=
200603182000 METAR MRLM NIL=
200603182100 METAR MRLM 182100Z 04006KT 9999 SCT026 29/23 A2984 RMK HZY=
200603182200 METAR MRLM 182200Z 04007KT 9999 SCT026 28/23 A2983=
200603182300 METAR MRLM 182300Z 04007KT 9999 SCT026 27/23 A2983=
200603190000 METAR MRLM 190000Z 04007KT 9999 SCT026 27/22 A2984 RMK HZY=
200603190100 METAR MRLM NIL=
200603190200 METAR MRLM NIL=
200603190300 METAR MRLM NIL=
200603190400 METAR MRLM NIL=
200603190500 METAR MRLM NIL=
200603190600 METAR MRLM NIL=
200603190700 METAR MRLM NIL=
200603190800 METAR MRLM NIL=
200603190900 METAR MRLM NIL=
200603191000 METAR MRLM NIL=
200603191100 METAR MRLM NIL=
200603191200 METAR MRLM 191200Z 00000KT 9999 FEW028 BKN080 23/21 A2995=
200603191300 METAR MRLM 191300Z 19006KT CAVOK 24/22 A2986 RMK HZY=
200603191400 METAR MRLM 191400Z 19004KT 9999 FEW030 27/23 A2989 RMK HZY=
200603191500 METAR MRLM 191500Z 10008KT 9999 FEW030 28/22 A2990 RMK LGT HZ ARND=
200603191600 METAR MRLM 191600Z 09009KT 9999 FEW030 28/21 A2990=
200603191700 METAR MRLM 191700Z 08008KT 9999 FEW030 29/21 A2989=
200603191800 METAR MRLM 191800Z 07007KT 9999 FEW030 29/22 A2987=
200603191900 METAR MRLM 191900Z 06007KT 9999 FEW030 29/22 A2984=
200603192000 METAR MRLM NIL=
200603192100 METAR MRLM 192100Z 05007KT 9999 FEW030 29/22 A2980=
200603192200 METAR MRLM 192200Z 06008KT 9999 FEW030 SCT090 22/22 A2980=
200603192300 METAR MRLM 192300Z 07005KT 9999 SCT030 28/22 A2980=
200603200000 METAR MRLM 200000Z 09008KT 9999 SCT030 SCT090 27/23 A2981=
200603200100 METAR MRLM NIL=
200603200200 METAR MRLM NIL=
200603200300 METAR MRLM NIL=
200603200400 METAR MRLM NIL=
200603200500 METAR MRLM NIL=
200603200600 METAR MRLM NIL=
200603200700 METAR MRLM NIL=
200603200800 METAR MRLM NIL=
200603200900 METAR MRLM NIL=
200603201000 METAR MRLM NIL=
200603201100 METAR MRLM NIL=
200603201200 METAR MRLM NIL=
200603201300 METAR MRLM 201300Z 21004KT 9999 FEW015 BKN090 21/20 A2986 RN DST NE E HZ ARND=
200603201400 METAR MRLM NIL=
200603201500 METAR MRLM 201500Z 00000KT CAVOK 27/21 A2989 TCU RN DST N NW=
200603201600 METAR MRLM 201600Z 10005KT 9999 FEW36 28/21 A2989=
200603201700 METAR MRLM 201700Z 08007KT 9999 FEW037 29/21 A2987=
200603201800 METAR MRLM 201800Z 06009KT 9999 FEW032 28/22 A2984=
200603201900 METAR MRLM 201900Z 07010KT 9999 FEW030 29/22 A2982=
200603202000 METAR MRLM NIL=
200603202100 METAR MRLM 202100Z 06010KT 9999 FEW030 29/22 A2977 CB DST S SE HZY=
200603202200 METAR MRLM 202200Z 07006KT 9999 SCT029 28/22 A2977 HZY=
200603202300 METAR MRLM 202300Z 06006KT 9999 FEW040 BKN080 28/20 A2977 HZY=
200603210000 METAR MRLM 210000Z 06006KT 9999 FEW030 SCT080 27/21 A2978 HZY=
200603210100 METAR MRLM NIL=
200603210200 METAR MRLM NIL=
200603210300 METAR MRLM NIL=
200603210400 METAR MRLM NIL=
200603210500 METAR MRLM NIL=
200603210600 METAR MRLM NIL=
200603210700 METAR MRLM NIL=
200603210800 METAR MRLM NIL=
200603210900 METAR MRLM NIL=
200603211000 METAR MRLM NIL=
200603211100 METAR MRLM NIL=
200603211200 METAR MRLM NIL=
200603211300 METAR MRLM 211300Z VRB03KT 9999 FEW015 BKN090 22/20 A2986 RN N E=
200603211400 METAR MRLM 211400Z 17006KT 9999 FEW013 OVC090 23/20 A2988 DZ N/E HZY=
200603211500 METAR MRLM 211500Z 20004KT CAVOK 26/21 A2989 OVC090 HZY=
200603211600 METAR MRLM 211600Z 20004KT CAVOK 27/22 A2989 OVC090 HZY=
200603211700 METAR MRLM 211700Z 08004KT CAVOK 29/21 A2987 OVC100 HZY=
200603211800 METAR MRLM 211800Z 06005KT 9999 FEW037 OVC100 29/21 A2985 HZY=
200603211900 METAR MRLM 211900Z 07004KT 9999 FEW040 BKN110 29/21 A2983 HZY=
200603212000 METAR MRLM NIL=
200603212100 METAR MRLM 212100Z 03008KT 9999 FEW032 29/23 A2979=
200603212200 METAR MRLM 212200Z 03005KT 9999 FEW030 29/23 A2979=
200603212300 METAR MRLM 212300Z 02006KT 9999 FEW028 28/23 A2978=
200603220000 METAR MRLM 220000Z 01004KT 9999 FEW024 28/23 A2980 RMK CB S=
200603220100 METAR MRLM NIL=
200603220200 METAR MRLM NIL=
200603220300 METAR MRLM NIL=
200603220400 METAR MRLM NIL=
200603220500 METAR MRLM NIL=
200603220600 METAR MRLM NIL=
200603220700 METAR MRLM NIL=
200603220800 METAR MRLM NIL=
200603220900 METAR MRLM NIL=
200603221000 METAR MRLM NIL=
200603221100 METAR MRLM NIL=
200603221200 METAR MRLM 221200Z 00000KT 5000 +DZ BKN026 SCT080 22/22 A2985 RERA RN DST ARND=
200603221300 METAR MRLM 221300Z 22005KT 5000 -DZ SCT020 SCT080 22/22 A2987=
200603221400 METAR MRLM 221400Z 30004KT 9999 BKN030 SCT080 23/22 A2989 REDZ=
200603221500 METAR MRLM 221500Z 25005KT 9999 FEW015 BKN035 24/23 A2990 RMK RN ARND=
200603221600 METAR MRLM 221600Z 23005KT 9999 -DZ BKN030 SCT080 24/23 A2991 RN ARND=
200603221700 METAR MRLM 221700Z 25004KT 9999 BKN035 25/23 A2990 REDZ RN ARND=
200603221800 METAR MRLM 221800Z 27005KT 9999 FEW024 BKN035 28/24 A2988 RMK RN ARND=
200603221900 METAR MRLM 221900Z 26007KT 9999 BKN030 SCT080 28/24 A2985 RN ARND=
200603222000 METAR MRLM NIL=
200603222100 METAR MRLM 222100Z 25003KT 9999 BKN030 SCT090 27/23 A2982 RMK RN ARND=
200603222200 METAR MRLM 222200Z 19004KT 9999 DZ BKN030 SCT090 25/24 A2981 RMK RN ARND=
200603222300 METAR MRLM 222300Z 18004KT 9999 3000 N DZ BKN025 SCT090 24/23 A2980 RMK RN ARND=
200603230000 METAR MRLM 230000Z 23004KT 9999 DZ BKN030 SCT090 24/23 A2983 RMK RN ARND=
200603230100 METAR MRLM NIL=
200603230200 METAR MRLM NIL=
200603230300 METAR MRLM NIL=
200603230400 METAR MRLM NIL=
200603230500 METAR MRLM NIL=
200603230600 METAR MRLM NIL=
200603230700 METAR MRLM NIL=
200603230800 METAR MRLM NIL=
200603230900 METAR MRLM NIL=
200603231000 METAR MRLM NIL=
200603231100 METAR MRLM NIL=
200603231200 METAR MRLM NIL=
200603231300 METAR MRLM 231300Z 19005KT 999 FEW030 BKN090 23/22 A2987 REDZ=
200603231400 METAR MRLM 231400Z 20006KT 9999 SCT028 SCT090 25/23 A2991=
200603231500 METAR MRLM 231500Z 20004KT 9999 SCT030 SCT090 26/23 A2993 RMK RN SW W=
200603231600 METAR MRLM 231600Z 10004KT 9999 FEW030 SCT090 BKN230 28/23 A2993=
200603231700 METAR MRLM 231700Z 06003KT 9999 FEW030 BKN230 29723 A2991=
200603231800 METAR MRLM 231800Z 02005KT 9999 FEW028 SCT230 29/23 A2988=
200603231900 METAR MRLM 231900Z 02005KT 9999 FEW028 BKN230 28/23 A2986=
200603232000 METAR MRLM NIL=
200603232100 METAR MRLM 232100Z 01006KT 9999 FEW028 SCT230 28/23 A2981 HZY=
200603232200 METAR MRLM 232200Z 35006KT 9999 SCT028 SCT230 28/23 A2980=
200603232300 METAR MRLM 232300Z 36007KT 9999 SCT028 BKN230 28/24 A2980=
200603240000 METAR MRLM NIL=
200603240100 METAR MRLM NIL=
200603240200 METAR MRLM NIL=
200603240300 METAR MRLM NIL=
200603240400 METAR MRLM NIL=
200603240500 METAR MRLM NIL=
200603240600 METAR MRLM NIL=
200603240700 METAR MRLM NIL=
200603240800 METAR MRLM NIL=
200603240900 METAR MRLM NIL=
200603241000 METAR MRLM NIL=
200603241100 METAR MRLM NIL=
200603241200 METAR MRLM NIL=
200603241300 METAR MRLM 241300Z VRB03KT 2000 RA BKN010 24/22 A2990 RMK VIS N 8KMS=
200603241400 METAR MRLM 241400Z 27006KT 7000 RA FEW004 BKN025 24/23 A2992=
200603241500 METAR MRLM 241500Z 26006KT 6000 -RA FEW004 BKN020 23/22 A2994=
200603241600 METAR MRLM 241600Z 21004KT 4000 RA FEW004 BKN020 23/23 A2996=
200603241700 METAR MRLM 241700Z 00000KT 5000 RA SCT006 SCT020 23/22 A2995=
200603241800 METAR MRLM 241800Z 20009KT 7000 RA SCT004 SCT025 OVC100 23/22 A2993=
200603241900 METAR MRLM 241900Z 22010KT 9999 +DZ SCT025 OVC100 24/23 A2988 RNH/HZ ARND=
200603242000 METAR MRLM NIL=
200603242100 METAR MRLM 242100Z 17004KT CAVOK 27/22 A2982 HZ ARND=
200603242200 METAR MRLM 242200Z VRB03KT CAVOK 27/24 A2980 HZ ARND=
200603242300 METAR MRLM 242300Z 00000KT CAVOK 26/23 A2980=
200603250000 METAR MRLM 250000Z 00000KT CAVOK 25/24 A2981=
200603250100 METAR MRLM NIL=
200603250200 METAR MRLM NIL=
200603250300 METAR MRLM NIL=
200603250400 METAR MRLM NIL=
200603250500 METAR MRLM NIL=
200603250600 METAR MRLM NIL=
200603250700 METAR MRLM NIL=
200603250800 METAR MRLM NIL=
200603250900 METAR MRLM NIL=
200603251000 METAR MRLM NIL=
200603251100 METAR MRLM NIL=
200603251200 METAR MRLM NIL=
200603251300 METAR MRLM 251300Z 24006KT 9000 -DZ FEW007 OVC020 22/21 A2989=
200603251400 METAR MRLM 251400Z 00000KT 5000 RA OVC015 23/22 A2994=
200603251500 METAR MRLM 251500Z 20006KT 9999 DZ SCT006 OVC090 23/22 A2996=
200603251600 METAR MRLM 251600Z 18006KT 9000 DZ SCT005 OVC090 24/23 A2996 HZ ARND=
200603251700 METAR MRLM 251700Z 19008KT 9999 -DZ FEW006 SCT015 OVC090 24/23 A2994=
200603251800 METAR MRLM 251800Z 21008KT 9999 SCT010 OVC090 24/23 A2992 RN HZ ARND=
200603251900 METAR MRLM 251900Z 21010KT 9999 FEW015 SCT090 OVC110 25/22 A2989=
200603252000 METAR MRLM NIL=
200603252100 METAR MRLM 252100Z 14009KT 9999 SCT016 BKN100 25/22 A2985 RN DST S W HZY=
200603252200 METAR MRLM 252200Z 20008KT CAVOK 25/22 A2983 OVC100=
200603252300 METAR MRLM 252300Z 20006KT CAVOK 25/22 A2983 OVC100=
200603260000 METAR MRLM 260000Z 21006KT CAVOK 24/22 A2984 FEW080 OVC110 HZY=
200603260100 METAR MRLM NIL=
200603260200 METAR MRLM NIL=
200603260300 METAR MRLM NIL=
200603260400 METAR MRLM NIL=
200603260500 METAR MRLM NIL=
200603260600 METAR MRLM NIL=
200603260700 METAR MRLM NIL=
200603260800 METAR MRLM NIL=
200603260900 METAR MRLM NIL=
200603261000 METAR MRLM NIL=
200603261100 METAR MRLM NIL=
200603261200 METAR MRLM 261200Z 19004KT 9999 FEW015 BKN030 22/21 A2990 REDZ RMK RN DST N NE E SE HZY=
200603261300 METAR MRLM 261300Z 18006KT 9999 FEW015 SCT030 23/22 A2992 REDZ RN DST S SW=
200603261400 METAR MRLM 261400Z 18004KT 9999 FEW015 SCT090 26/22 A2995=
200603261500 METAR MRLM 261500Z 09003KT 9999 FEW025 SCT100 28/22 A2996=
200603261600 METAR MRLM 261600Z 01005KT 9999 FEW025 SCT100 28/22 A2995=
200603261700 METAR MRLM 261700Z 35009KT 9999 FEW028 SCT300 29/21 A2993=
200603261800 METAR MRLM 261800Z 01011KT 9999 FEW028 SCT300 29/23 A2991=
200603261900 METAR MRLM 261900Z 35011KT 9999 FEW025 SCT250 29/22 A2989=
200603262000 METAR MRLM NIL=
200603262100 METAR MRLM 262100Z 35007KT 9999 FEW025 BKN250 29/22 A2985=
200603262200 METAR MRLM 262200Z 36010KT 9999 FEW025 SCT250 28/23 A2984=
200603262300 METAR MRLM 262300Z 36009KT 9999 SCT030 SCT250 27/22 A2985=
200603270000 METAR MRLM 270000Z 1004KT 9999 SCT025 SCT250 27/22 A2986 RMK RN SE S SW=
200603270100 METAR MRLM NIL=
200603270200 METAR MRLM NIL=
200603270300 METAR MRLM NIL=
200603270400 METAR MRLM NIL=
200603270500 METAR MRLM NIL=
200603270600 METAR MRLM NIL=
200603270700 METAR MRLM NIL=
200603270800 METAR MRLM NIL=
200603270900 METAR MRLM NIL=
200603271000 METAR MRLM NIL=
200603271100 METAR MRLM NIL=
200603271200 METAR MRLM 271200Z 20007KT 9999 FEW030 SCT090 22/20 A2992 RN DST NE HZ ARND=
200603271300 METAR MRLM 271300Z 24004KT 9999 SCT030 BKN090 22/20 A2995=
200603271400 METAR MRLM 271400Z 20005KT 9999 FEW028 SCT045 22/21 A2996 REDZ=
200603271500 METAR MRLM 271500Z 19005KT 9999 FEW028 BKN220 26/22 A2996=
200603271700 METAR MRLM 271700Z 01011KT 9999 FEW030 BKN090 27/22 A2997 RN N NE E=
200603271800 METAR MRLM 271800Z 34009KT 9999 FEW030 BKN080 27/22 A2994 RN NW N NE E=
200603271900 METAR MRLM 271900Z 24006KT 9999 FEW030 BKN090 27/21 A2991 RN N NE E=
200603272000 METAR MRLM NIL=
200603272100 METAR MRLM 272100Z 33005KT 8000 DZ SCT028 SCT080 25/23 A2987 RMK RN ARND=
200603272200 METAR MRLM 272200Z 09008KT 3000 RA OVC025 23/22 A2987=
200603272300 METAR MRLM 272300Z 20008KT 5000 DZ OVC026 23/22 A2988 RERA=
200603280000 METAR MRLM 280000Z 16006KT 3000 RA OVC025 23/22 A2989=
200603280100 METAR MRLM NIL=
200603280200 METAR MRLM NIL=
200603280300 METAR MRLM NIL=
200603280400 METAR MRLM NIL=
200603280500 METAR MRLM NIL=
200603280600 METAR MRLM NIL=
200603280700 METAR MRLM NIL=
200603280800 METAR MRLM NIL=
200603280900 METAR MRLM NIL=
200603281000 METAR MRLM NIL=
200603281100 METAR MRLM NIL=
200603281200 METAR MRLM NIL=
200603281300 METAR MRLM 281300Z 24005KT 9999 DZ FEW005 OVC012 24/23 A2995 RMK RN QUADNS S/W=
200603281400 METAR MRLM 281400Z 18005KT 9999 OVC012 25/23 A2997 RMK RN DST SW W=
200603281500 METAR MRLM 281500Z 23005KT 9999 DZ SCT012 SCT080 25/24 A2999 RMK RD DST QUADNS E/N=
200603281600 METAR MRLM 281600Z 24005KT 9999 SCT018 SCT090 27/24 A2998 RMK RN DST QUADNS S/E/N=
200603281700 METAR MRLM 281700Z 34005KT 9999 BKN025 SCT090 28/23 A2996 RMK RN DST QUAD E=
200603281800 METAR MRLM 281800Z 30005KT 9999 SCT023 SCT090 BKN120 28/23 A2993 RMK RN DST QUADNS N/E/S=
200603281900 METAR MRLM 281900Z VRB03KT 2000 RA BKN010 SCT090 25/23 A2991=
200603282000 METAR MRLM NIL=
200603282100 METAR MRLM 282100Z VRB03KT 2000 RA FEW005 SCT012 BKN090 24/23 A2991=
200603282200 METAR MRLM 292200Z VRB03KT 5000 RA FEW006 OVC015 25/24 A2980 TSTM E=
200603282300 METAR MRLM 282300Z 27004KT 7000 -RA FEW004 BKN012 23/22 A2985 RMK VIS N 4KMS=
200603290000 METAR MRLM 290000Z 23005KT 6000 RA SCT003 SCT020 BKN090 23/22 A2987=
200603290100 METAR MRLM NIL=
200603290200 METAR MRLM NIL=
200603290300 METAR MRLM NIL=
200603290400 METAR MRLM NIL=
200603290500 METAR MRLM NIL=
200603290600 METAR MRLM NIL=
200603290700 METAR MRLM NIL=
200603290800 METAR MRLM NIL=
200603290900 METAR MRLM NIL=
200603291000 METAR MRLM NIL=
200603291100 METAR MRLM NIL=
200603291200 METAR MRLM NIL=
200603291300 METAR MRLM 291300Z 22010KT 3000 TSRA SCT003 BKN012CB 23/23 A2987=
200603291400 METAR MRLM 291400Z 23004KT 0500 +TSRA OVC010CB 23/23 A2990 RMK CAMPO INUNDADO=
200603291500 METAR MRLM 291500Z VRB03KT 1000 +RA OVC010TCU 23/23 A2995 RMK CAMPO INUNDADO=
200603291600 METAR MRLM 291600Z 22005KT 3000 RA BKN002 SCT010 23/23 A2993=
200603291700 METAR MRLM 291700Z 22004KT 4000 RA FEW002 BKN010 23/23 A2992=
200603291800 METAR MRLM 291800Z 25006KT 6000 TSRA FEW002 OVC015CB 23/23 A2988 RMK TS NE=
200603291900 METAR MRLM 291900Z 26006KT 6000 RA FEW002 OVC012 24/23 A2985 RETS=
200603292000 METAR MRLM 292000Z 22005KT 9999 DZ BKN015 SCT090 24/24 A2982 RMK RN ARND=
200603292100 METAR MRLM 292100Z VRB03KT 7000 RA OVC015 25/24 A2980 VISB S 9999=
200603292200 METAR MRLM 292200Z VRB03KT 5000 RA FEW006 OVC015 25/24 A2980 TSTM E=
200603292300 METAR MRLM 292300Z 29005KT 6000 RN SCT003 SCT020 BKN100 24/24 A2982 9999 E=
200603300000 METAR MRLM 300000Z 23004KT 4000 RA FEW003 BKN020 24/23 A2983=
200603300100 METAR MRLM NIL=
200603300200 METAR MRLM NIL=
200603300300 METAR MRLM NIL=
200603300400 METAR MRLM NIL=
200603300500 METAR MRLM NIL=
200603300600 METAR MRLM NIL=
200603300700 METAR MRLM NIL=
200603300800 METAR MRLM NIL=
200603300900 METAR MRLM NIL=
200603301000 METAR MRLM NIL=
200603301100 METAR MRLM NIL=
200603301200 METAR MRLM NIL=
200603301300 METAR MRLM 301300Z 25008KT 9999 SCT030 BKN080 23/23 A2985 RN DST ARND=
200603301400 METAR MRLM 301400Z 23005KT 9999 BKN030 SCT080 25/24 A2989 RN DST ARND=
200603301500 METAR MRLM 301500Z 25006KT 9999 BKN030 SCT080 25/23 A2991 RN DST ARND=
200603301600 METAR MRLM 301600Z 28005KT 4000 -RA BKN026 SCT080 26/24 A2991=
200603301700 METAR MRLM 301700Z 25004KT 4000 -RA BKN025 SCT080 26/24 A2990 CB TS DST NE=
200603301800 METAR MRLM 301800Z 18003KT 6000 +DZ BKN025 SCT080 25/17 A2988 RETSRA CB DST N NE RN ARND=
200603301900 METAR MRLM 301900Z 06003KT 7000 DZ BKN026 SCT080 26/24 A2985 CB N NW RN ARND=
200603302000 METAR MRLM NIL=
200603302100 METAR MRLM 302100Z 04007KT 2000 RA SCT018TCU BKN026 24/23 A2982 TCU NW N NE=
200603302200 METAR MRLM 302200Z 21004KT 3000 -RA SCT012 BKN018 24/23 A2981=
200603302300 METAR MRLM 302300Z 23004KT 4000 -RA BKN015 SCT030 24/23 A2982=
200603310000 METAR MRLM 310000Z 28004KT 5000 +DZ SCT015 SCT025 24/24 A2984 RN ARND=
200603310100 METAR MRLM NIL=
200603310200 METAR MRLM NIL=
200603310300 METAR MRLM NIL=
200603310400 METAR MRLM NIL=
200603310500 METAR MRLM NIL=
200603310600 METAR MRLM NIL=
200603310700 METAR MRLM NIL=
200603310800 METAR MRLM NIL=
200603310900 METAR MRLM NIL=
200603311000 METAR MRLM NIL=
200603311100 METAR MRLM NIL=
200603311200 METAR MRLM 311200Z 19004KT 5000 -RA BKN024 23/23 A2991=
200603311300 METAR MRLM 311300Z 22005KT 9999 3000NW BKN026 SCT080 24/23 A2993 RERA=
200603311400 METAR MRLM 311400Z 19006KT 9999 BKN028 25/24 A2995 REDZ RN DST ARND=
200603311500 METAR MRLM 311500Z 18006KT 8000 DZ BKN028 25/24 A2996 RN DST HZ/ARND=
200603311600 METAR MRLM 311600Z 21004KT 9999 BKN028 28/24 A2995 RN/HZ ARND=
200603311700 METAR MRLM 311700Z 01004KT 9999 BKN028 28/24 A2994 RN DST/ HZ ARND=
200603311800 METAR MRLM 311800Z 01004KT 9999 SCT028 SCT090 28/24 A2993 RN DST S SW WSW HZY=
200603311900 METAR MRLM 311900Z 01006KT 9999 BKN028 29/21 A2990 RN DST SW=
200603312000 METAR MRLM NIL=
200603312100 METAR MRLM 312100Z 01007KT 9999 SCT028 29/24 A2986=
200603312200 METAR MRLM 312200Z 02007KT 9999 BKN028 SCT250 28/24 A2986=
200603312300 METAR MRLM 312300Z 02006KT 9999 SCT025 SCT250 28/23 A2988=
200604010000 METAR MRLM 010000Z 02005KT 9999 SCT025 BKN250 27/23 A2989=
200604010100 METAR MRLM NIL=
200604010200 METAR MRLM NIL=
200604010300 METAR MRLM NIL=
200604010400 METAR MRLM NIL=
200604010500 METAR MRLM NIL=
200604010600 METAR MRLM NIL=
200604010700 METAR MRLM NIL=
200604010800 METAR MRLM NIL=
200604010900 METAR MRLM NIL=
200604011000 METAR MRLM NIL=
200604011100 METAR MRLM NIL=
200604011200 METAR MRLM NIL=
200604011300 METAR MRLM 011300Z 00000KT CAVOK 25/22 A2991 RMK HZ ARND=
200604011400 METAR MRLM 011400Z 00000KT CAVOK 28/23 A2994 RMK HZ ARND=
200604011500 METAR MRLM 011500Z 10004KT CAVOK 28/22 A2995=
200604011600 METAR MRLM 011600Z 09004KT CAVOK 28/23 A2994 RMK TCU DST N HZY=
200604011700 METAR MRLM 011700Z 06006KT CAVOK 29/24 A2992=
200604011800 METAR MRLM 011800Z 05007KT CAVOK 30/22 A2990=
200604011900 METAR MRLM 011900Z 03009KT CAVOK 30/23 A2987=
200604012000 METAR MRLM NIL=
200604012100 METAR MRLM 012100Z 04008KT 9999 FEW030 BKN280 29/23 A2984=
200604012200 METAR MRLM 012200Z 03005KT 9999 FEW030 BKN280 29/23 A2985=
200604012300 METAR MRLM 012300Z 04006KT 9999 FEW028 BKN280 28/23 A2985=
200604020000 METAR MRLM 020000Z 03005KT 9999 FEW028 BKN280 28/22 A2986 RMK CB DST S/SW HZ ARND=
200604020100 METAR MRLM NIL=
200604020200 METAR MRLM NIL=
200604020300 METAR MRLM NIL=
200604020400 METAR MRLM NIL=
200604020500 METAR MRLM NIL=
200604020600 METAR MRLM NIL=
200604020700 METAR MRLM NIL=
200604020800 METAR MRLM NIL=
200604020900 METAR MRLM NIL=
200604021000 METAR MRLM NIL=
200604021100 METAR MRLM NIL=
200604021200 METAR MRLM NIL=
200604021300 METAR MRLM 021300Z 00000KT 9999 FEW012 SCT150 BKN280 22/21 A2987 RMK HZY=
200604021400 METAR MRLM 021400Z 19004KT CAVOK 25/22 A2990 RMK HZY=
200604021500 METAR MRLM 021500Z 07004KT CAVOK 27/23 A2990 RMK RN DST NE HZY=
200604021700 METAR MRLM 021700Z 09006KT 9999 FEW037 BKN100 29/21 A2990 RMK RN DST N NE HZY=
200604021800 METAR MRLM 021800Z 06008KT 9999 FEW032 BKN110 29/22 A2988 RMK RN DST N HZY=
200604021900 METAR MRLM 021900Z 05010KT 9999 FEW028 BKN100 28/23 A2986 RMK RN DST NE E=
200604022000 METAR MRLM 022000Z 05012KT 9999 FEW024 OVC100 27/22 A2985 RMK RN DST N NE=
200604022100 METAR MRLM 022100Z 08007KT 9999 FEW030 SCT080 BKN100 28/22 A2984 RN DST N=
200604022200 METAR MRLM 022200Z VRB03KT 9999 FEW027 BKN080 28/22 A2983 HZY=
200604022300 METAR MRLM 022300Z 00000KT 9999 SCT025 BKN090 27/22 A2983 RN DST E SE S SW W=
200604030000 METAR MRLM 030000Z 19004KT 9999 SCT013 BKN090 25/23 A2984 RN DST S W=
200604030100 METAR MRLM NIL=
200604030200 METAR MRLM NIL=
200604030300 METAR MRLM NIL=
200604030400 METAR MRLM NIL=
200604030500 METAR MRLM NIL=
200604030600 METAR MRLM NIL=
200604030700 METAR MRLM NIL=
200604030800 METAR MRLM NIL=
200604030900 METAR MRLM NIL=
200604031000 METAR MRLM NIL=
200604031100 METAR MRLM NIL=
200604031200 METAR MRLM NIL=
200604031300 METAR MRLM 031300Z 02014KT 9999 DZ SCT024 BKN080 24/21 A2988 RERA RMK RN ARND=
200604031400 METAR MRLM 031400Z FEW028 BKN090 25/21 A2989 REDZ RN SSW=
200604031500 METAR MRLM 031500Z 23005KT 9999 FEW026 BKN090 26/14 A3005=
200604031600 METAR MRLM 031600Z 09003KT 9999 FEW026 BKN090 28/20 A2991=
200604031700 METAR MRLM 031700Z 01006KT 9999 FEW028 BKN090 28/21 A2990=
200604031800 METAR MRLM 031800Z 02006KT 9999 FEW028 SCT100 28/22 A2988=
200604031900 METAR MRLM 031900Z 02008KT 9999 FEW028 SCT250 29/22 A2985=
200604032000 METAR MRLM NIL=
200604032100 METAR MRLM 032100Z 01007KT 9999 FEW028 BKN250 28/22 A2980=
200604032200 METAR MRLM 032200Z 02007KT 9999 FEW028 BKN250 28/21 A2979=
200604032300 METAR MRLM 032300Z 01004KT 9999 FEW028 BKN250 28/21 A2980=
200604040000 METAR MRLM 040000Z 03005KT 9999 FEW028 BKN250 27/21 A2981=
200604040100 METAR MRLM NIL=
200604040200 METAR MRLM NIL=
200604040300 METAR MRLM NIL=
200604040400 METAR MRLM NIL=
200604040500 METAR MRLM NIL=
200604040600 METAR MRLM NIL=
200604040700 METAR MRLM NIL=
200604040800 METAR MRLM NIL=
200604040900 METAR MRLM NIL=
200604041000 METAR MRLM NIL=
200604041100 METAR MRLM NIL=
200604041200 METAR MRLM NIL=
200604041300 METAR MRLM 041300Z 21011KT 9999 -DZ FEW028 BKN090 22/21 A2988 RN DST ARND=
200604041500 METAR MRLM 041500Z 20005KT 9999 FEW028 BKN090 27/21 A2989 RN DST N NE=
200604041600 METAR MRLM 041600Z 20005KT 9999 SCT030 BKN090 24/16 A3003 RN DST NW N NE=
200604041700 METAR MRLM 041700Z 06008KT 9999 DZ SCT028 BKN080 27/22 A2988 RN DST NW N NE=
200604041900 METAR MRLM 041900Z 01011KT 9999 -DZ SCT028 BKN080 25/22 A2985 RN DST ARND=
200604042000 METAR MRLM NIL=
200604042100 METAR MRLM 042100Z 25006KT 9999 SCT030 BKN090 25/22 A2980 REDZ RN DST S SW W=
200604042200 METAR MRLM 042200Z 23006KT 9999 FEW030 BKN080 25/22 A2980 RN DST S SW W=
200604042300 METAR MRLM NIL=
200604050000 METAR MRLM NIL=
200604050100 METAR MRLM NIL=
200604050200 METAR MRLM NIL=
200604050300 METAR MRLM NIL=
200604050400 METAR MRLM NIL=
200604050500 METAR MRLM NIL=
200604050600 METAR MRLM NIL=
200604050700 METAR MRLM NIL=
200604050800 METAR MRLM NIL=
200604050900 METAR MRLM NIL=
200604051000 METAR MRLM NIL=
200604051100 METAR MRLM NIL=
200604051200 METAR MRLM NIL=
200604051300 METAR MRLM 051300Z 24005KT 9999 FEW008 SCT025 OVC100 24/22 A2991 DZ HZ ARND=
200604051400 METAR MRLM 051400Z 24008KT 9999 FEW013 BKN110 24/21 A2992 DZ ESE W NW HZY=
200604051500 METAR MRLM 051500Z 23007KT 9999 FEW025 BKN130 26/21 A2993 HZY=
200604051600 METAR MRLM 051600Z 04005KT 9999 FEW035 SCT130 BKN270 29/21 A2992 HZY=
200604051700 METAR MRLM 051700Z VRB03KT 9999 FEW043 SCT150 BKN270 29/20 A2992 HZY=
200604051800 METAR MRLM 051800Z 04004KT 9999 FEW038 BKN110 29/21 A2990 HZY=
200604051900 METAR MRLM 051900Z 01007KT 9999 FEW032 BKN120 29/22 A2988=
200604052000 METAR MRLM NIL=
200604052100 METAR MRLM 052100Z 35011KT 9999 FEW030 SCT110 BKN270 29/22 A2984 RMK RN N=
200604052200 METAR MRLM 052200Z 36015KT 9999 SCT020 SCT110 27/23 A2984 RN SW W=
200604052300 METAR MRLM 052300Z 35011KT 9999 FEW028 BKN100 27/21 A2985 RN N S SW=
200604060000 METAR MRLM 060000Z 22004KT 9999 FEW012 BKN100 25/22 A2986 CB S=
200604060100 METAR MRLM NIL=
200604060200 METAR MRLM NIL=
200604060300 METAR MRLM NIL=
200604060400 METAR MRLM NIL=
200604060500 METAR MRLM NIL=
200604060600 METAR MRLM NIL=
200604060700 METAR MRLM NIL=
200604060800 METAR MRLM NIL=
200604060900 METAR MRLM NIL=
200604061000 METAR MRLM NIL=
200604061100 METAR MRLM NIL=
200604061200 METAR MRLM 061200Z 22005KT CAVOK 22/20 A2987=
200604061300 METAR MRLM 061300Z 22005KT CAVOK 23/21 A2989=
200604061400 METAR MRLM 061400Z 19004KT CAVOK 26/22 A2991 RN NE E=
200604061500 METAR MRLM 061500Z VRB03KT 9999 FEW025 OVC100 28/23 A2992=
200604061600 METAR MRLM 061600Z 09004KT 9999 FEW027 BKN100 28/21 A2991=
200604061700 METAR MRLM 061700Z 06006KT 9999 FEW027 BKN110 28/23 A2990=
200604061800 METAR MRLM 061800Z 05007KT 9999 FEW027 BKN110 28/23 A2987=
200604061900 METAR MRLM 061900Z 05008KT 9999 FEW029 BKN110 29/23 A2983 CB S=
200604062000 METAR MRLM NIL=
200604062100 METAR MRLM 062100Z 04007KT 9999 FEW034 SCT140 29/22 A2979 RMK CB DST S SW LEVE HZY=
200604062200 METAR MRLM 062200Z 04007KT 9999 FEW036 SCT130 BKN270 29/22 A2980 RMK CB DST QUAD S HZY=
200604062300 METAR MRLM 062300Z 06004KT CAVOK 28/22 A2980 RMK CB DST SSE LEVE HZY=
200604070000 METAR MRLM 070000Z 08004KT 9999 FEW028 SCT110 BKN270 28/22 A2992 RMK CB DST S SW LEVE HZY=
200604070100 METAR MRLM NIL=
200604070200 METAR MRLM NIL=
200604070300 METAR MRLM NIL=
200604070400 METAR MRLM NIL=
200604070500 METAR MRLM NIL=
200604070600 METAR MRLM NIL=
200604070700 METAR MRLM NIL=
200604070800 METAR MRLM NIL=
200604070900 METAR MRLM NIL=
200604071000 METAR MRLM NIL=
200604071100 METAR MRLM NIL=
200604071200 METAR MRLM NIL=
200604071300 METAR MRLM 071300Z 19005KT 9999 FEW026 BKN250 24/21 A2988=
200604071400 METAR MRLM 071400Z 16003KT 9999 FEW026 BKN250 28/23 A2991=
200604071500 METAR MRLM 071500Z 08006KT 9999 FEW026 BKN250 28/23 A2993=
200604071600 METAR MRLM 071600Z 08009KT 9999 FEW026 BKN250 29/22 A2992=
200604071700 METAR MRLM 071700Z 07010KT 9999 FEW025 BKN250 29/23 A2991=
200604071900 METAR MRLM 071900Z 08010KT 9999 FEW026 BKN250 29/23 A2986=
200604072000 METAR MRLM NIL=
200604072100 METAR MRLM 072100Z 07008KT 9999 FEW025 BKN250 29/23 A2982 RMK RN DST SW=
200604072200 METAR MRLM 072200Z 07008KT 9999 FEW025 BKN250 29/23 A2981 RMK RN DST S/SW=
200604080000 METAR MRLM 080000Z 09006KT 9999 FEW030 BKN090 28/23 A2983 RMK RN DST SSW=
200604080100 METAR MRLM NIL=
200604080200 METAR MRLM NIL=
200604080300 METAR MRLM NIL=
200604080400 METAR MRLM NIL=
200604080500 METAR MRLM NIL=
200604080600 METAR MRLM NIL=
200604080700 METAR MRLM NIL=
200604080800 METAR MRLM NIL=
200604080900 METAR MRLM NIL=
200604081000 METAR MRLM NIL=
200604081100 METAR MRLM NIL=
200604081200 METAR MRLM NIL=
200604081300 METAR MRLM 081300Z 22004KT 9999 FEW025 BKN090 24/22 A2987=
200604081400 METAR MRLM 081400Z 16003KT 9999 FEW030 SCT250 27/21 A2989=
200604081500 METAR MRLM 081500Z 05003KT CAVOK 28/21 A2990=
200604081600 METAR MRLM 081600Z 06004KT CAVOK 29/21 A2990=
200604081700 METAR MRLM 081700Z 05006KT CAVOK 29/22 A2989 RMK BKN250=
200604081800 METAR MRLM 081800Z 04008KT 9999 FEW030 SCT250 29/22 A2987=
200604081900 METAR MRLM 081900Z 03009KT 9999 FEW030 SCT250 29/23 A2985=
200604082000 METAR MRLM NIL=
200604082100 METAR MRLM 082100Z 02007KT 9999 FEW028 SCT250 29/24 A2981=
200604082200 METAR MRLM 082200Z 02009KT 9999 FEW028 SCT250 29/24 A2980 RN DST SE S SW=
200604082300 METAR MRLM 082300Z 04006KT 9999 FEW025 SCT100 28/24 A2981 RN DST SE S SW=
200604090000 METAR MRLM 090000Z 02005KT 9999 FEW025 SCT090 BKN250 28/24 A2982=
200604090100 METAR MRLM NIL=
200604090200 METAR MRLM NIL=
200604090300 METAR MRLM NIL=
200604090400 METAR MRLM NIL=
200604090500 METAR MRLM NIL=
200604090600 METAR MRLM NIL=
200604090700 METAR MRLM NIL=
200604090800 METAR MRLM NIL=
200604090900 METAR MRLM NIL=
200604091000 METAR MRLM NIL=
200604091100 METAR MRLM NIL=
200604091200 METAR MRLM NIL=
200604091300 METAR MRLM 091300Z VRB03KT CAVOK 26/24 A2986 RN DST NE HZ ARND=
200604091400 METAR MRLM 091400Z 00000KT 9999 FEW028 SCT120 29/24 A2988 RN DST N HZ ARND=
200604091500 METAR MRLM 091500Z 01009KT 9999 FEW020 BKN110 28/24 A2989 RN NW N NE E HZ ARND=
200604091600 METAR MRLM 091600Z 36010KT 9999 FEW018 BKN110 28/25 A2988 RN E HZ ARND=
200604091700 METAR MRLM 091700Z 02005KT 9999 FEW028 SCT090 BKN110 29/23 A2987 DZ E HZ ARND=
200604091800 METAR MRLM 091800Z 04004KT 9999 FEW024 SCT090 BKN110 28/23 A2986 HZ ARND=
200604091900 METAR MRLM 091900Z 03005KT 9999 FEW026 OVC110 29/24 A2982=
200604092000 METAR MRLM NIL=
200604092100 METAR MRLM 092100Z 01007KT 9999 FEW020 BKN100 28/24 A2977 RN DST S/SW DZ N/NE=
200604092200 METAR MRLM 092200Z 02005KT 9999 FEW020 BKN100 28/23 A2976=
200604092300 METAR MRLM 092300Z 00000KT 9999 FEW022 BKN100 28/23 A2978 RN DST E SE S=
200604100000 METAR MRLM 100000Z VRB03KT 9999 SCT015 SCT100 26/24 A2980 RN S/E/W HZ ARND=
200604100100 METAR MRLM NIL=
200604100200 METAR MRLM NIL=
200604100300 METAR MRLM NIL=
200604100400 METAR MRLM NIL=
200604100500 METAR MRLM NIL=
200604100600 METAR MRLM NIL=
200604100700 METAR MRLM NIL=
200604100800 METAR MRLM NIL=
200604100900 METAR MRLM NIL=
200604101000 METAR MRLM NIL=
200604101100 METAR MRLM NIL=
200604101200 METAR MRLM NIL=
200604101300 METAR MRLM 101300Z 05004KT 9999 BKN0600 25/24 A2985 RN HZ ARND=
200604101400 METAR MRLM 101400Z 02012KT 8000 DZ BKN0600 SCT090 25/24 A2989 RN S W=
200604101500 METAR MRLM 101500Z VRB03KT 9999 DZ BKN0900 SCT090 25/23 A2989 HZ ARND=
200604101600 METAR MRLM 101600Z 17008KT 9999 SCT012 SCT110 26/24 A2988 RN S=
200604101700 METAR MRLM 101700Z 17005KT CAVOK 28/24 A2986 SCT090 SCT120 DZ S HZY=
200604101800 METAR MRLM 101800Z 04004KT 9999 FEW029 BKN110 29/23 A2982 CB DST NE S SW=
200604101900 METAR MRLM 101900Z 01010KT 9999 FEW027 SCT120 30/24 A2979 CB DST ENE HZY=
200604102000 METAR MRLM NIL=
200604102100 METAR MRLM 102100Z 01009KT 9999 FEW023 SCT120 BKN270 28/24 A2975 CB RN NE SE S SW=
200604102200 METAR MRLM 102200Z 01007KT 9999 FEW030 SCT140 BKN270 29/23 A2975 RMK CB RN SE S SW W=
200604102300 METAR MRLM 102300Z 36006KT 9999 FEW025 BKN120 28/23 A2866 CB RN S=
200604110000 METAR MRLM 110000Z 01007KT 9999 FEW022 BKN100 28/23 A2979 RMK CB RN N NE SE S SW=
200604110100 METAR MRLM NIL=
200604110200 METAR MRLM NIL=
200604110300 METAR MRLM NIL=
200604110400 METAR MRLM NIL=
200604110500 METAR MRLM NIL=
200604110600 METAR MRLM NIL=
200604110700 METAR MRLM NIL=
200604110800 METAR MRLM NIL=
200604110900 METAR MRLM NIL=
200604111000 METAR MRLM NIL=
200604111100 METAR MRLM NIL=
200604111200 METAR MRLM NIL=
200604111300 METAR MRLM 111300Z 20004KT 6000 DZ BKN024 SCT080 22/22 A2986 RN ARND=
200604111400 METAR MRLM 111400Z 200907KT 9999 SCT024 SCT080 23/22 A2988 REDZ RN ARND=
200604111500 METAR MRLM 111500Z 24005KT 5000 DZ BKN025 SCT080 23/22 A2991 RN ARND=
200604111600 METAR MRLM 111600Z 20006KT 9999 DZ BKN030 SCT080 23/22 A299 RN ARND=
200604111700 METAR MRLM 111700Z 21004KT 9999 BKN025 SCT080 24/22 A2989 REDZ RN ARND=
200604111800 METAR MRLM 111800Z 22009KT 9999 -DZ SCT030 SCT080 24/23 A2987 RERA RN ARND=
200604111900 METAR MRLM 111900Z 23006KT 9999 -DZ BKN030 SCT080 25/23 A2984 RN ARND=
200604112000 METAR MRLM NIL=
200604112100 METAR MRLM 112100Z 01006KT 3000 -RA BKN028 SCT080 24/22 A2982=
200604112200 METAR MRLM 112200Z 21005KT 9999 SCT025 SCT090 24/22 A2980 RERA RMK RN DST ARND=
200604112300 METAR MRLM 112300Z 35010KT 9999 3000NW DZ BKN025 SCT080 25/23 A2983=
200604120000 METAR MRLM 120000Z 27005KT 9999 BKN028 SCT080 23/22 A2984 REDZ RMK RN ARND=
200604120100 METAR MRLM NIL=
200604120200 METAR MRLM NIL=
200604120300 METAR MRLM NIL=
200604120400 METAR MRLM NIL=
200604120500 METAR MRLM NIL=
200604120600 METAR MRLM NIL=
200604120700 METAR MRLM NIL=
200604120800 METAR MRLM NIL=
200604120900 METAR MRLM NIL=
200604121000 METAR MRLM NIL=
200604121100 METAR MRLM NIL=
200604121200 METAR MRLM 121200Z 21006KT 9999 SCT045 BKN080 22/21 A2986=
200604121300 METAR MRLM 121300Z 23003KT 9999 FEW045 BKN090 24/22 A2989=
200604121400 METAR MRLM 121400Z 23004KT 9999 FEW028 SCT100 BKN250 26/23 A2992=
200604121500 METAR MRLM 121500Z 34004KT CAVOK 28/22 A2993=
200604121600 METAR MRLM 121600Z 01004KT 9999 FEW030 SCT100 BKN250 29/23 A2993=
200604121800 METAR MRLM 121800Z 01009KT 9999 FEW025 SCT100 BKN250 28/24 A2991 RMK RN DST SSW=
200604121900 METAR MRLM 121900Z 02004KT 9999 FEW025 SCT100 BKN250 29/23 A2989 RMK RN DST SSW=
200604122000 METAR MRLM NIL=
200604122100 METAR MRLM 122100Z 35007KT 9999 FEW025 SCT100 BKN240 28/23 A2987 RKM RN DST SSW/W=
200604122200 METAR MRLM 122200Z 36007KT 9999 FEW025 SCT100 BKN250 28/23 A2986 RMK RN DST SSW/W=
200604122300 METAR MRLM 122300Z 34007KT 9999 SCT030 BKN100 27/23 A2986 RMK RN DST SSW/W=
200604130000 METAR MRLM 130000Z 33004KT 9999 BKN030 SCT100 27/21 A2988 RMK TCU/RN DST SE/S/SW=
200604130100 METAR MRLM NIL=
200604130200 METAR MRLM NIL=
200604130300 METAR MRLM NIL=
200604130400 METAR MRLM NIL=
200604130500 METAR MRLM NIL=
200604130600 METAR MRLM NIL=
200604130700 METAR MRLM NIL=
200604130800 METAR MRLM NIL=
200604130900 METAR MRLM NIL=
200604131000 METAR MRLM NIL=
200604131100 METAR MRLM NIL=
200604131200 METAR MRLM NIL=
200604131300 METAR MRLM 131300Z 20006KT CAVOK 23/21 A2990 RMK FEW100 BKN140 CB DST S/SW=
200604131400 METAR MRLM 131400Z VRB03KT CAVOK 27/21 A2993 RMK SCT140 SCT270 CB DST SW=
200604131600 METAR MRLM 131600Z 30010KT 9999 FEW045 BKN270 29/20 A2993 RMK CB DST NNW=
200604131700 METAR MRLM 131700Z 33013KT 9999 FEW037 SCT110 BKN270 29/22 A2993 RMK TCU/DST NNW=
200604131800 METAR MRLM 131800Z 33017KT 9999 FEW036 BKN120 29/22 A2991 RMK RN DST SW/HZ ARND=
200604131900 METAR MRLM 131900Z 32016KT 9999 FEW033 BKN110 28/22 A2988 RMK RN DST S/SW=
200604132000 METAR MRLM NIL=
200604132100 METAR MRLM 132100Z 32015KT 9999 FEW037 OVC110 28/20 A2985 RN DST SE S SW W=
200604132200 METAR MRLM 132200Z 31011KT 9999 FEW030 BKN110 27/21 A2985 RN DST SE S SW W=
200604132300 METAR MRLM 132300Z 28005KT 9999 -DZ FEW023 BKN100 26/22 A2986 RN DST S=
200604140000 METAR MRLM 140000Z 24005KT 9999 FEW017 SCT110 BKN140 25/22 A2987 RN DST SE S=
200604140100 METAR MRLM NIL=
200604140200 METAR MRLM NIL=
200604140300 METAR MRLM NIL=
200604140400 METAR MRLM NIL=
200604140500 METAR MRLM NIL=
200604140600 METAR MRLM NIL=
200604140700 METAR MRLM NIL=
200604140800 METAR MRLM NIL=
200604140900 METAR MRLM NIL=
200604141000 METAR MRLM NIL=
200604141100 METAR MRLM NIL=
200604141200 METAR MRLM NIL=
200604141300 METAR MRLM 141300Z 29005KT 9999 SCT012 BKN100 23/20 A2992 TCU RN N=
200604141400 METAR MRLM 141400Z 29008KT 9999 BKN017 24/21 A2995 RN DST N E=
200604141500 METAR MRLM 141500Z 30008KT 9999 BKN020 SCT120 25/21 A2996 RN DST NW N NE E=
200604141600 METAR MRLM 141600Z 30010KT 9999 DZ SCT024 SCT100 26/21 A2996 RN DST NW N NE E=
200604141700 METAR MRLM 141700Z 33013KT 9999 SCT015 SCT030 BKN090 27/21 A2996 RN DST N NE E SW=
200604141800 METAR MRLM 141800Z 35014KT 9999 BKN023 SCT110 26721 A2993 RN DST S SW W NW=
200604141900 METAR MRLM 141900Z 35010KT 9999 FEW020 SCT040 BKN110 27/19 A2989 RN S SW W=
200604142000 METAR MRLM NIL=
200604142100 METAR MRLM 142100Z 22006KT 9999 FEW030 SCT090 BKN110 27/21 A2983 RN DST S SW=
200604142200 METAR MRLM 142200Z 21004KT 9999 SCT035 SCT100 BKN150 26/21 A2983 RN DST S=
200604142300 METAR MRLM 142300Z VRB03KT CAVOK 25/21 A2983 SCT090 BKN150 HZY=
200604150000 METAR MRLM 150000Z 19004KT CAVOK 24/21 A2983 BKN100 SCT150 RN DST S=
200604150100 METAR MRLM NIL=
200604150200 METAR MRLM NIL=
200604150300 METAR MRLM NIL=
200604150400 METAR MRLM NIL=
200604150500 METAR MRLM NIL=
200604150600 METAR MRLM NIL=
200604150700 METAR MRLM NIL=
200604150800 METAR MRLM NIL=
200604150900 METAR MRLM NIL=
200604151000 METAR MRLM NIL=
200604151100 METAR MRLM NIL=
200604151200 METAR MRLM NIL=
200604151300 METAR MRLM 151300Z 21003KT CAVOK 24/19 A2990 FEW100=
200604151400 METAR MRLM 151400Z 17004KT CAVOK 26/21 A2992 FEW280=
200604151500 METAR MRLM 151500Z 07004KT CAVOK 28/21 A2992 FEW250=
200604151600 METAR MRLM 151600Z 05007KT CAVOK 28/21 A2991 FEW250=
200604151700 METAR MRLM 151700Z 04008KT CAVOK 28/21 A2990 FEW250=
200604151800 METAR MRLM 151800Z 02007KT 9999 FEW030 28/21 A2988=
200604151900 METAR MRLM 151900Z 01008KT 9999 FEW030 29/20 A2985=
200604152000 METAR MRLM NIL=
200604152100 METAR MRLM NIL=
200604152200 METAR MRLM 152200Z 02006KT 9999 FEW030 SCT250 29/21 A2983=
200604152300 METAR MRLM 152300Z 03003KT 9999 FEW030 BKN100 28/21 A2985 RN SW=
200604160000 METAR MRLM 160000Z 04004KT 9999 FEW030 BKN090 28/21 A2986 RN SW=
200604160100 METAR MRLM NIL=
200604160200 METAR MRLM NIL=
200604160300 METAR MRLM NIL=
200604160400 METAR MRLM NIL=
200604160500 METAR MRLM NIL=
200604160600 METAR MRLM NIL=
200604160700 METAR MRLM NIL=
200604160800 METAR MRLM NIL=
200604160900 METAR MRLM NIL=
200604161000 METAR MRLM NIL=
200604161100 METAR MRLM NIL=
200604161200 METAR MRLM NIL=
200604161300 METAR MRLM 161300Z 20005KT 9999 FEW028 24/21 A2990=
200604161400 METAR MRLM 161400Z 18004KT 9999 FEW028 27/22 A2995=
200604161500 METAR MRLM 161500Z 10007KT 9999 FEW028 28/22 A2996=
200604161600 METAR MRLM 161600Z 07007KT 9999 FEW028 29/22 A2996=
200604161700 METAR MRLM 161700Z 06008KT 9999 FEW028 SCT300 29/22 A2995=
200604161800 METAR MRLM 161800Z 06008KT 9999 FEW028 SCT300 29/22 A2993=
200604161900 METAR MRLM 161900Z 06007KT 9999 FEW028 SCT300 29/22 A2990=
200604162000 METAR MRLM NIL=
200604162100 METAR MRLM 162100Z 06006KT 9999 FEW028 SCT300 29/23 A2986=
200604162200 METAR MRLM 162200Z 04007KT 9999 FEW028 SCT300 29/22 A2986=
200604162300 METAR MRLM 162300Z 06006KT 9999 FEW028 28/22 A2986=
200604170000 METAR MRLM 170000Z 06006KT 9999 FEW028 SCT300 27/22 A2988=
200604170100 METAR MRLM NIL=
200604170200 METAR MRLM NIL=
200604170300 METAR MRLM NIL=
200604170400 METAR MRLM NIL=
200604170500 METAR MRLM NIL=
200604170600 METAR MRLM NIL=
200604170700 METAR MRLM NIL=
200604170800 METAR MRLM NIL=
200604170900 METAR MRLM NIL=
200604171000 METAR MRLM NIL=
200604171100 METAR MRLM NIL=
200604171200 METAR MRLM NIL=
200604171300 METAR MRLM 171300Z 20005KT 9999 FEW015 OVC300 24/22 A2991 RMK LEVE HZY=
200604171400 METAR MRLM 171400Z 15005KT 9999 FEW029 OVC300 28/22 A2992 RMK LEVE HZY=
200604171500 METAR MRLM 171500Z 10009KT CAVOK 29/21 A2994 HZY=
200604171600 METAR MRLM 171600Z 08006KT 9999 FEW030 SCT300 29/21 A2993=
200604171700 METAR MRLM 171700Z 07009KT 9999 FEW037 OVC300 29/22 A2992 RMK HZY LEVE=
200604171800 METAR MRLM 171800Z 06010KT 9999 FEW036 OVC300 29/22 A2990 RMK LEVE HZY=
200604171900 METAR MRLM 171900Z 06010KT 9999 FEW030 OVC300 29/22 A2988 RMK LEVE HZY=
200604172000 METAR MRLM NIL=
200604172100 METAR MRLM 172100Z 05006KT 9999 FEW033 OVC300 29/22 A2984 RMK RN DST SW HZY=
200604172200 METAR MRLM 172200Z 04006KT 9999 FEW030 SCT120 BKN300 29/22 A2983 RMK RN DST SW=
200604172300 METAR MRLM 172300Z 08005KT 9999 FEW028 BKN120 28/22 A2983 RMK RN DST S SW=
200604180000 METAR MRLM 180000Z 06005KT 9999 FEW028 BKN110 28/22 A2983 RMK RN DST S SW HZ LGT ARND=
200604180100 METAR MRLM NIL=
200604180200 METAR MRLM NIL=
200604180300 METAR MRLM NIL=
200604180400 METAR MRLM NIL=
200604180500 METAR MRLM NIL=
200604180600 METAR MRLM NIL=
200604180700 METAR MRLM NIL=
200604180800 METAR MRLM NIL=
200604180900 METAR MRLM NIL=
200604181000 METAR MRLM NIL=
200604181100 METAR MRLM NIL=
200604181200 METAR MRLM NIL=
200604181300 METAR MRLM NIL=
200604181400 METAR MRLM 181400Z 09005KT 9999 FEW026 OVC300 28/23 A2987 RMK HZ LIG ARND=
200604181500 METAR MRLM 181500Z 07005KT 9999 BKN027 29/23 A2988 RMK HZY TCU RN DST NE=
200604181600 METAR MRLM 181600Z 07005KT 9999 FEW026 SCT120 BKN300 29/24 A2988 RMK HZY=
200604181700 METAR MRLM 181700Z 06007KT 9999 SCT026 SCT120 BKN300 29/23 A2988 RMK HZY=
200604181800 METAR MRLM 181800Z 06008KT 9999 FEW032 SCT140 BKN300 30/23 A2985 RMK HZY=
200604181900 METAR MRLM 181900Z 05009KT 9999 FEW030 SCT300 29/23 A2982=
200604182000 METAR MRLM NIL=
200604182100 METAR MRLM 182100Z 06007KT 9999 FEW032 BKN100 29/22 A2978 RN DST SW HZ ARND=
200604182200 METAR MRLM 182200Z 06005KT 9999 FEW034 BKN090 29/22 A2978 RN DST SW=
200604182300 METAR MRLM 182300Z 08004KT 9999 FEW030 BKN090 28/22 A2979 RN DST SW=
200604190000 METAR MRLM 190000Z VRB03KT CAVOK 28/23 A2980=
200604190100 METAR MRLM NIL=
200604190200 METAR MRLM NIL=
200604190300 METAR MRLM NIL=
200604190400 METAR MRLM NIL=
200604190500 METAR MRLM NIL=
200604190600 METAR MRLM NIL=
200604190700 METAR MRLM NIL=
200604190800 METAR MRLM NIL=
200604190900 METAR MRLM NIL=
200604191000 METAR MRLM NIL=
200604191100 METAR MRLM NIL=
200604191200 METAR MRLM NIL=
200604191300 METAR MRLM 191300Z 00000KT 9999 FEW025 BKN090 24/23 A2983 RN DST NE=
200604191400 METAR MRLM 191400Z 14004KT 9999 FEW025 BKN090 27/24 A2985=
200604191500 METAR MRLM 191500Z 11008KT 9999 FEW025 25/24 A2986=
200604191600 METAR MRLM 191600Z 09010KT 9999 FEW030 SCT300 29/23 A2986=
200604191800 METAR MRLM 191800Z 07007KT 9999 FEW030 SCT300 30/24 A2984=
200604191900 METAR MRLM 191900Z 07007KT 9999 FEW030 BKN300 30/24 A2981=
200604192000 METAR MRLM NIL=
200604192100 METAR MRLM NIL=
200604192200 METAR MRLM 192200Z 05004KT 9999 FEW025 BKN250 29/24 A2976=
200604192300 METAR MRLM 192300Z 06004KT 9999 FEW025 SCT100 BKN250 29/24 A2976=
200604200000 METAR MRLM 200000Z 09004KT 9999 FEW025 BKN080 28/24 A2977=
200604200100 METAR MRLM NIL=
200604200200 METAR MRLM NIL=
200604200300 METAR MRLM NIL=
200604200400 METAR MRLM NIL=
200604200500 METAR MRLM NIL=
200604200600 METAR MRLM NIL=
200604200700 METAR MRLM NIL=
200604200800 METAR MRLM NIL=
200604200900 METAR MRLM NIL=
200604201000 METAR MRLM NIL=
200604201100 METAR MRLM NIL=
200604201200 METAR MRLM 201200Z 00000KT 9999 FEW028 BKN090 24/23 A2978=
200604201300 METAR MRLM 201300Z 24003KT 9999 FEW028 BKN100 26/23 A2981 HZ ARND=
200604201400 METAR MRLM 201400Z 17003KT 9999 FEW028 BKN250 29/23 A2984 HZ ARND=
200604201500 METAR MRLM 201500Z 11007KT 9999 FEW028 BKN250 29/23 A2985 TCU RN DST N HZ ARND=
200604201600 METAR MRLM 201600Z 10007KT 9999 FEW028 BKN250 30/24 A2985 HZ ARND=
200604201700 METAR MRLM NIL=
200604201800 METAR MRLM 201800Z 07006KT 9999 FEW028 SCT250 30/24 A2982 HZ ARND=
200604201900 METAR MRLM 201900Z 04007KT 9999 FEW028 BKN250 30/24 A2979 HZ ARND=
200604202000 METAR MRLM NIL=
200604202100 METAR MRLM 202100Z 01006KT 9999 FEW020 BKN250 30/25 A2976=
200604202200 METAR MRLM 202200Z 36005KT 9999 FEW028 SCT250 30/24 A2976=
200604202300 METAR MRLM 202300Z 01004KT 9999 SCT026 SCT250 29/24 A2977=
200604210000 METAR MRLM 210000Z 02004KT 9999 SCT028 SCT250N 29/24 A2977=
200604210100 METAR MRLM NIL=
200604210200 METAR MRLM NIL=
200604210300 METAR MRLM NIL=
200604210400 METAR MRLM NIL=
200604210500 METAR MRLM NIL=
200604210600 METAR MRLM NIL=
200604210700 METAR MRLM NIL=
200604210800 METAR MRLM NIL=
200604210900 METAR MRLM NIL=
200604211000 METAR MRLM NIL=
200604211100 METAR MRLM NIL=
200604211200 METAR MRLM NIL=
200604211300 METAR MRLM 211300Z 23004KT CAVOK 25/23 A2982 TCU RN N NE E=
200604211400 METAR MRLM 211400Z 00000KT CAVOK 28/24 A2984=
200604211500 METAR MRLM 211500Z 00000KT CAVOK 28/23 A2985=
200604211600 METAR MRLM 211600Z 02004KT 9999 FEW024 BKN110 29/24 A2984=
200604211700 METAR MRLM 211700Z 03006KT 9999 FEW026 SCT090 BKN130 30/25 A2980 RN N NE E=
200604211800 METAR MRLM 211800Z 01012KT 9999 FEW022 SCT090 BKN110 29/25 A2981 RMK RN N NE E=
200604211900 METAR MRLM 211900Z 02008KT 9999 FEW020 BKN090 29/25 A2979=
200604212000 METAR MRLM NIL=
200604212100 METAR MRLM 212100Z 08006KT 9999 FEW022 SCT080 BKN100 29/24 A2976 RMK DZ SE/S LGT HZ ARND=
200604212200 METAR MRLM 212200Z 11004KT 9999 FEW020 SCT080 BKN110 28/25 A2976 RMK DZ DST S SW HZY=
200604212300 METAR MRLM 212300Z 18005KT CAVOK 29/25 A2978 RMK HZY=
200604220000 METAR MRLM 220000Z 17004KT CAVOK 27/24 A2979 RMK CB DST SSE W HZY=
200604220100 METAR MRLM NIL=
200604220200 METAR MRLM NIL=
200604220300 METAR MRLM NIL=
200604220400 METAR MRLM NIL=
200604220500 METAR MRLM NIL=
200604220600 METAR MRLM NIL=
200604220700 METAR MRLM NIL=
200604220800 METAR MRLM NIL=
200604220900 METAR MRLM NIL=
200604221000 METAR MRLM NIL=
200604221100 METAR MRLM NIL=
200604221200 METAR MRLM NIL=
200604221300 METAR MRLM 221300Z 22005KT 9999 DZ OVC025 25/24 A2983 RMK RN HZY=
200604221400 METAR MRLM 221400Z VRB03KT 9999 DZ FEW005 OVC025 A2986 RMK RN HZY=
200604221600 METAR MRLM 221600Z 00000KT 9999 FEW017 BKN025 28/25 A2986 RMK RN DST QUAD N HZY=
200604221700 METAR MRLM 221700Z 36009KT 9999 SCT018 SCT110 29/16 A2985 RMK TCU RN DST N HZY=
200604221800 METAR MRLM 221800Z 36008KT 9999 FEW020 BKN280 29/26 A2982=
200604221900 METAR MRLM 221900Z 02010KT 9999 SCT023 SCT080 30/25 A2980 RMK TCU RN DST W SW HZY=
200604222000 METAR MRLM NIL=
200604222100 METAR MRLM 222100Z 35008KT 9999 SCT025 SCT280 30/25 A2976 RMK TCU RN DST SW HZY=
200604222200 METAR MRLM NIL=
200604222300 METAR MRLM NIL=
200604230000 METAR MRLM 230000Z 02011KT 9999 BKN015 29/26 A2979 RMK CBS RN DST S/W QDS HZY=
200604230100 METAR MRLM NIL=
200604230200 METAR MRLM NIL=
200604230300 METAR MRLM NIL=
200604230400 METAR MRLM NIL=
200604230500 METAR MRLM NIL=
200604230600 METAR MRLM NIL=
200604230700 METAR MRLM NIL=
200604230800 METAR MRLM NIL=
200604230900 METAR MRLM NIL=
200604231000 METAR MRLM NIL=
200604231100 METAR MRLM NIL=
200604231200 METAR MRLM NIL=
200604231300 METAR MRLM 231300Z 04011KT 9999 BKN030 29/25 A2986=
200604231400 METAR MRLM 231400Z 04012KT 9999 BKN040 SCT080 29/25 A2988 RMK RN SW ENE=
200604231500 METAR MRLM 231500Z 04007KT 9999 FEW025 BKN045 29/24 A2989 RMK RN E SW DST HZY=
200604231600 METAR MRLM 231600Z 04005KT 9999 SCT025 BKN220 30/24 A2990 RMK HZ ARND=
200604231700 METAR MRLM 231700Z 04007KT 9999 FEW030 BKN250 30/24 A2989=
200604231800 METAR MRLM 231800Z 02005KT 9999 FEW025 SCT250 29/24 A2987 RMK HZY=
200604231900 METAR MRLM 231900Z 02005KT 9999 FEW025 SCT250 SCT250 30/24 A2984=
200604232000 METAR MRLM NIL=
200604232100 METAR MRLM 232100Z 02006KT 9999 SCT025 30/24 A2980=
200604232200 METAR MRLM 232200Z 35008KT 9999 FEW025 SCT250 30/25 2981 HZ ARND=
200604232300 METAR MRLM 232300Z 33008KT 9999 BKN025 SCT025 29/24 A2982=
200604240000 METAR MRLM 240000Z 35006KT 9999 SCT025 SCT250 29/24 A2984=
200604240100 METAR MRLM NIL=
200604240200 METAR MRLM NIL=
200604240300 METAR MRLM NIL=
200604240400 METAR MRLM NIL=
200604240500 METAR MRLM NIL=
200604240600 METAR MRLM NIL=
200604240700 METAR MRLM NIL=
200604240800 METAR MRLM NIL=
200604240900 METAR MRLM NIL=
200604241000 METAR MRLM NIL=
200604241100 METAR MRLM NIL=
200604241200 METAR MRLM NIL=
200604241300 METAR MRLM 241300Z 21004KT 9999 BKN020 SCT090 25/24 A2985 TCU RN N NW E HZ ARND=
200604241400 METAR MRLM 241400Z 30004KT 9999 3000NW DZ BKN025 SCT090 26/24 A2987 RN ARND=
200604241500 METAR MRLM NIL=
200604241600 METAR MRLM 241600Z 13006KT 3000 -RA BKN025 25/24 A2988=
200604241700 METAR MRLM 241700Z 22006KT 3000 -RA BKN025 25/24 A2988=
200604241800 METAR MRLM 241800Z 18007KT 8000 DZ FEW012 BKN024 24/24 A2986 RERA TCU W NW RN ARND=
200604241900 METAR MRLM 241900Z 19005KT 5000 DZ FEW012 BKN024TCU 25/24 A2983 RN ARND=
200604242000 METAR MRLM NIL=
200604242100 METAR MRLM 242100Z 19008KT 9999 SCT026 SCT090 24/23 A2981 RERA RN ARND=
200604242200 METAR MRLM 242200Z 18007KT 9999 BKN026 SCT080 25/23 A2980 RN DST ARND=
200604242300 METAR MRLM 242300Z 09010KT 9999 BKN028 SCT080 25/24 A2982 CB N/NE RN ARND=
200604250000 METAR MRLM 250000Z 12005KT 9999 BKN028 SCT080 25/23 A2984 CB TS N NE/ RN ARND=
200604250100 METAR MRLM NIL=
200604250200 METAR MRLM NIL=
200604250300 METAR MRLM NIL=
200604250400 METAR MRLM NIL=
200604250500 METAR MRLM NIL=
200604250600 METAR MRLM NIL=
200604250700 METAR MRLM NIL=
200604250800 METAR MRLM NIL=
200604250900 METAR MRLM NIL=
200604251000 METAR MRLM NIL=
200604251100 METAR MRLM NIL=
200604251200 METAR MRLM NIL=
200604251300 METAR MRLM 251300Z 18005KT 7000 RA SCT004 SCT025 24/23 A2987=
200604251400 METAR MRLM 251400Z 22006KT 8000 RA FEW004 BKN025 23/23 A2989 VIS 9999 E=
200604251500 METAR MRLM 251500Z 23005KT 9999 DZ FEW005 OVC025 24/23 A2991 RN HZ ARND=
200604251600 METAR MRLM 251600Z 21004KT 9999 FEW009 BKN025 26/24 A2990 RN HZ ARND=
200604251700 METAR MRLM 251700Z 27007KT 9999 FEW014 BKN090 27/24 A2980 RN DST W N E=
200604251800 METAR MRLM 251800Z 27006KT 9999 FEW025 BKN110 28/23 A2985 RN DST W/N=
200604251900 METAR MRLM 251900Z 30010KT 9999 FEW025 BKN090 OVC260 28/23 A2983 DZ DST W/N HZY=
200604252000 METAR MRLM NIL=
200604252100 METAR MRLM 252100Z 28004KT 9999 DZ FEW022 SCT090 OVC230 27/23 A2980 RN NE=
200604252200 METAR MRLM 252200Z 29004KT 9999 FEW020 SCT090 OVC220 27/23 A2980 RN NE E=
200604252300 METAR MRLM 252300Z 00000KT 9999 FEW016 BKN080 26/23 A2982=
200604260000 METAR MRLM 260000Z VRB03KT 9999 FEW012 BKN090 25/23 A2983 RN N E=
200604260100 METAR MRLM NIL=
200604260200 METAR MRLM NIL=
200604260300 METAR MRLM NIL=
200604260400 METAR MRLM NIL=
200604260500 METAR MRLM NIL=
200604260600 METAR MRLM NIL=
200604260700 METAR MRLM NIL=
200604260800 METAR MRLM NIL=
200604260900 METAR MRLM NIL=
200604261000 METAR MRLM NIL=
200604261100 METAR MRLM NIL=
200604261200 METAR MRLM NIL=
200604261300 METAR MRLM 261300Z VRB03KT CAVOK 25/23 A2986 RN N=
200604261400 METAR MRLM 261400Z 20006KT CAVOK 27/23 A2988=
200604261500 METAR MRLM 261500Z VRB03KT 9999 FEW027 OVC080 28/23 A2991=
200604261600 METAR MRLM 261600Z VRB03KT 9999 FEW029 BKN140 29/23 A2991=
200604261700 METAR MRLM 261700Z 35010KT 9999 FEW027 SCT080 BKN120 30/24 A2990 RN N NE=
200604261800 METAR MRLM 261800Z 02016KT 9999 SCT018 SCT140 28/25 A2989 CB RN NE S SW=
200604261900 METAR MRLM 261900Z 03013KT 9999 BKN015 27/24 A2986 RMK CB ARND RN NE SW W=
200604262000 METAR MRLM NIL=
200604262100 METAR MRLM 262100Z 10007KT 9999 DZ FEW017 SCT100 BKN150 27/23 A2983 RMK CB RN DST ARND HZY=
200604262200 METAR MRLM 262200Z VRB03KT 9999 RA FEW010 SCT100 BKN130 25/23 A2983 RMK CB DST ARND=
200604262300 METAR MRLM 262300Z VRB03KT 9999 +DZ FEW007 SCT025 OVC120 25/24 A2984 RMK CB HZ ARND=
200604270000 METAR MRLM 270000Z VRB03KT 9999 -DZ BKN025 25/24 A2986 RMK CB RN HZ ARND=
200604270100 METAR MRLM NIL=
200604270200 METAR MRLM NIL=
200604270300 METAR MRLM NIL=
200604270400 METAR MRLM NIL=
200604270500 METAR MRLM NIL=
200604270600 METAR MRLM NIL=
200604270700 METAR MRLM NIL=
200604270800 METAR MRLM NIL=
200604270900 METAR MRLM NIL=
200604271000 METAR MRLM NIL=
200604271100 METAR MRLM NIL=
200604271200 METAR MRLM NIL=
200604271300 METAR MRLM 271300Z 23003KT 9999 FEW028 SCT090 BKN250 25/23 A2989 RMK RN DST NW N LEVE HZY=
200604271400 METAR MRLM 271400Z 23003KT CAVOK 27/23 A2991 RMK LEVE HZY=
200604271500 METAR MRLM 271500Z 18004KT 9999 FEW030 SCT100 29/24 A2992 RMK LEVE HZY=
200604271600 METAR MRLM 271600Z 04005KT 9999 FEW030 29/24 A2990 RMK LEVE HZY=
200604271700 METAR MRLM 271700Z 04007KT 9999 FEW030 SCT250 30/24 A2990=
200604271800 METAR MRLM 271800Z 06007KT 9999 FEW030 BKN250 30/24 A2989=
200604272000 METAR MRLM NIL=
200604272100 METAR MRLM 272100Z 03008KT 9999 SCT030 SCT250 29/24 A2983=
200604272200 METAR MRLM 272200Z 02006KT 9999 SCT026 BKN250 29/24 A2983=
200604272300 METAR MRLM 272300Z 02007KT 9999 SCT026 BKN250 29/24 A2984=
200604280000 METAR MRLM 280000Z 01007KT 9999 SCT026 BKN250 28/24 A2985=
200604280100 METAR MRLM NIL=
200604280200 METAR MRLM NIL=
200604280300 METAR MRLM NIL=
200604280400 METAR MRLM NIL=
200604280500 METAR MRLM NIL=
200604280600 METAR MRLM NIL=
200604280700 METAR MRLM NIL=
200604280800 METAR MRLM NIL=
200604280900 METAR MRLM NIL=
200604281000 METAR MRLM NIL=
200604281100 METAR MRLM NIL=
200604281200 METAR MRLM NIL=
200604281300 METAR MRLM 281300Z 21007KT 9999 FEW026 BKN090 23/22 A2988 RMK RN DST E/NE HZ ARND=
200604281400 METAR MRLM 281400Z 20004KT 9999 FEW026 BKN090 26/23 A2990 HZY=
200604281500 METAR MRLM 281500Z 04006KT 9999 -DZ SCT025 BKN090 27/23 A2992 RMK RN N=
200604281600 METAR MRLM 281600Z 09007KT 9999 DZ FEW024 BKN040 26/24 A2992 RMK RN DST ARND=
200604281700 METAR MRLM 281700Z 09003KT 9999 SCT024 SCT045 26/24 A2991 REDZ RMK RN DST ARND=
200604281800 METAR MRLM 281800Z 21005KT 9999 -DZ FEW024 BKN080 26/25 A2988 RMK RN E/W DST=
200604281900 METAR MRLM 281900Z 03004KT 9999 FEW030 BKN090 28/24 A2985 REDZ=
200604282000 METAR MRLM NIL=
200604282100 METAR MRLM 282100Z 01004KT 9999 FEW028 BKN090 29/23 A2982=
200604282200 METAR MRLM 282200Z 02004KT 9999 FEW028 BKN090 28/23 A2981=
200604282300 METAR MRLM 282300Z 01004KT 9999 FEW028 BKN090 28/24 A2981=
200604290000 METAR MRLM 290000Z 01003KT 9999 FEW028 BKN090 28/24 A2983=
200604290100 METAR MRLM NIL=
200604290200 METAR MRLM NIL=
200604290300 METAR MRLM NIL=
200604290400 METAR MRLM NIL=
200604290500 METAR MRLM NIL=
200604290600 METAR MRLM NIL=
200604290700 METAR MRLM NIL=
200604290800 METAR MRLM NIL=
200604290900 METAR MRLM NIL=
200604291000 METAR MRLM NIL=
200604291100 METAR MRLM NIL=
200604291200 METAR MRLM NIL=
200604291300 METAR MRLM 291300Z 19004KT 9999 FEW025 OVC100 24/23 A2986 RN DST E DZ SW W=
200604291400 METAR MRLM 291400Z VRB03KT 9999 FEW020 OVC100 26/23 A2988 DZ SE HZ ARND=
200604291500 METAR MRLM 291500Z 06005KT 9999 FEW034 BKN110 29/22 A2989 HZ ARND=
200604291600 METAR MRLM 291600Z 10005KT 9999 FEW028 BKN110 28/23 A2989 HZ ARND=
200604291700 METAR MRLM 291700Z 11011KT 9999 FEW030 SCT110 29/23 A2989=
200604291800 METAR MRLM 291800Z 08009KT 9999 FEW030 SCT120 29/24 A2985 TCU DST NE=
200604291900 METAR MRLM 291900Z 10010KT 9999 FEW036 30/23 A2983=
200604292000 METAR MRLM NIL=
200604292100 METAR MRLM 292100Z 10009KT 9999 FEW033 30/23 A2979 CB S SW HZY=
200604292200 METAR MRLM 292200Z 10006KT 9999 FEW033 29/23 A2978 CB DST S SW=
200604292300 METAR MRLM 292300Z 09007KT 9999 FEW030 29/23 A2978 HZY CB DST S=
200604300000 METAR MRLM 300000Z 07007KT 9999 FEW027 28/23 A2979 CB DST SW HZ ARND=
200604300100 METAR MRLM NIL=
200604300200 METAR MRLM NIL=
200604300300 METAR MRLM NIL=
200604300400 METAR MRLM NIL=
200604300500 METAR MRLM NIL=
200604300600 METAR MRLM NIL=
200604300700 METAR MRLM NIL=
200604300800 METAR MRLM NIL=
200604300900 METAR MRLM NIL=
200604301000 METAR MRLM NIL=
200604301100 METAR MRLM NIL=
200604301200 METAR MRLM NIL=
200604301300 METAR MRLM 301300Z 21005KT 9999 FEW015 SCT032 BKN100 23/22 A2986 DZ W NW ESE=
200604301400 METAR MRLM 301400Z 23005KT 9999 FEW015 BKN120 26/24 A2988 HZ ARND=
200604301500 METAR MRLM 301500Z VRB03KT 9999 FEW030 BKN120 29/23 A2988 HZ ARND=
200604301600 METAR MRLM 301600Z 06004KT 9999 SCT030 BKN130 29/23 A2989 HZ ARND=
200604301700 METAR MRLM 301700Z 07006KT 9999 FEW028 BKN140 29/23 A2988 HZ ARND=
200604301800 METAR MRLM 301800Z 05006KT 9999 FEW030 BKN140 29/23 A2985 HZ LEVE ARND=
200604301900 METAR MRLM 301900Z 07005KT 9999 FEW030 BKN130 29/23 A2983 HZ ARND=
200604302000 METAR MRLM NIL=
200604302100 METAR MRLM 302100Z 06006KT 9999 FEW030 BKN110 29/23 A2979=
200604302200 METAR MRLM 302200Z 05006KT 9999 FEW032 SCT110 29/23 A2978=
200604302300 METAR MRLM 302300Z 06006KT 9999 FEW022 SCT130 BKN280 29/23 A2979 CB S=
200605010000 METAR MRLM 010000Z 06004KT 9999 FEW027 SCT120 BKN280 28/23 A2980=
200605010100 METAR MRLM NIL=
200605010200 METAR MRLM NIL=
200605010300 METAR MRLM NIL=
200605010400 METAR MRLM NIL=
200605010500 METAR MRLM NIL=
200605010600 METAR MRLM NIL=
200605010700 METAR MRLM NIL=
200605010800 METAR MRLM NIL=
200605010900 METAR MRLM NIL=
200605011000 METAR MRLM NIL=
200605011100 METAR MRLM NIL=
200605011200 METAR MRLM NIL=
200605011300 METAR MRLM NIL=
200605011400 METAR MRLM 011400Z 17004KT 9999 FEW028 SCT280 28/21 A2985=
200605011500 METAR MRLM 011500Z 09005KT 9999 FEW028 SCT280 29/22 A2986=
200605011600 METAR MRLM NIL=
200605011700 METAR MRLM 011700Z 09006KT 9999 FEW028 SCT280 30/22 A2985=
200605011800 METAR MRLM 011800Z 07007KT 9999 FEW028 SCT280 29/23 A2984=
200605011900 METAR MRLM 011900Z 06007KT 9999 FEW028 SCT280 30/23 A2982=
200605012000 METAR MRLM NIL=
200605012100 METAR MRLM 012100Z 05007KT 9999 FEW028 SCT280 30/23 A2979=
200605012200 METAR MRLM 012200Z 05006KT 9999 FEW028 SCT280 30/22 A2979=
200605012300 METAR MRLM 012300Z 05005KT 9999 SCT028 SCT280 29/22 A2981=
200605020000 METAR MRLM 020000Z 05006KT 9999 FEW028 SCT280 28/22 A2982=
200605020100 METAR MRLM NIL=
200605020200 METAR MRLM NIL=
200605020300 METAR MRLM NIL=
200605020400 METAR MRLM NIL=
200605020500 METAR MRLM NIL=
200605020600 METAR MRLM NIL=
200605020700 METAR MRLM NIL=
200605020800 METAR MRLM NIL=
200605020900 METAR MRLM NIL=
200605021000 METAR MRLM NIL=
200605021100 METAR MRLM NIL=
200605021200 METAR MRLM 021200Z 20005KT 9999 FEW026 BKN250 21/20 A2986=
200605021300 METAR MRLM 021300Z 24003KT 9999 FEW026 SCT250 25/21 A2988=
200605021400 METAR MRLM 021400Z 09003KT 9999 FEW026 SCT250 28/22 A2988=
200605021500 METAR MRLM 021500Z 11008KT 9999 FEW026 SCT250 29/22 A2989=
200605021600 METAR MRLM 021600Z 08008KT 9999 FEW026 SCT250 30/22 A2990=
200605021700 METAR MRLM 021700Z 08007KT 9999 FEW026 SCT250 30/23 A2988=
200605021800 METAR MRLM 021800Z 07008KT 9999 FEW026 SCT250 30/23 A2986=
200605021900 METAR MRLM 021900Z 05011KT 9999 FEW026 SCT250 30/25 A2985=
200605022000 METAR MRLM NIL=
200605022100 METAR MRLM 022100Z 05010KT 9999 FEW026 BKN250 30/23 A2982=
200605022200 METAR MRLM 022200Z 07008KT 9999 FEW030 BKN250 29/22 A2982=
200605022300 METAR MRLM 022300Z 09008KT 9999 FEW030 BKN250 29/22 A2983=
200605030000 METAR MRLM 030000Z 10006KT CAVOK 28/22 A2984 RMK BKN250=
200605030100 METAR MRLM NIL=
200605030200 METAR MRLM NIL=
200605030300 METAR MRLM NIL=
200605030400 METAR MRLM NIL=
200605030500 METAR MRLM NIL=
200605030600 METAR MRLM NIL=
200605030700 METAR MRLM NIL=
200605030800 METAR MRLM NIL=
200605030900 METAR MRLM NIL=
200605031000 METAR MRLM NIL=
200605031100 METAR MRLM NIL=
200605031200 METAR MRLM NIL=
200605031300 METAR MRLM 031300Z 02012KT 9999 BKN013 SCT080 26/23 A2992 RMK RN NW N NE E=
200605031400 METAR MRLM 031400Z 02008KT 9999 BKN015 SCT080 26/23 A2994 RMK RN DST W/NW/N/NE/E/SE=
200605031500 METAR MRLM 031500Z 02004KT 9999 DZ BKN020 SCT090 26/22 A2996 RMK HZ RN ARND=
200605031600 METAR MRLM 031600Z 34006KT 9999 DZ BKN024 SCT090 27/22 A2995 RMK RN HZ ARND=
200605031700 METAR MRLM 031700Z 03006KT 9999 BKN020 SCT100 27/23 A2993 RMK RN HZ ARND=
200605031800 METAR MRLM 031800Z 34009KT 9999 BKN018 SCT090 27/23 A2992 RMK RN HZ ARND=
200605031900 METAR MRLM 031900Z 35006KT 9999 FEW018 BKN030 27/23 A2992 RMK RN HZ ARND=
200605032000 METAR MRLM NIL=
200605032100 METAR MRLM 032100Z 23005KT CAVOK 28/22 A2986 DZ W HZ ARND=
200605032200 METAR MRLM 032200Z VRB03KT CAVOK 28/22 A2985 HZ ARND=
200605032300 METAR MRLM 032300Z 00000KT CAVOK 27/22 A2985=
200605040000 METAR MRLM 040000Z 00000KT CAVOK 26/23 A2985=
200605040100 METAR MRLM NIL=
200605040200 METAR MRLM NIL=
200605040300 METAR MRLM NIL=
200605040400 METAR MRLM NIL=
200605040500 METAR MRLM NIL=
200605040600 METAR MRLM NIL=
200605040700 METAR MRLM NIL=
200605040800 METAR MRLM NIL=
200605040900 METAR MRLM NIL=
200605041000 METAR MRLM NIL=
200605041100 METAR MRLM NIL=
200605041200 METAR MRLM NIL=
200605041300 METAR MRLM 041300Z 21005KT CAVOK 25/22 A2989=
200605041400 METAR MRLM 041400Z 17004KT CAVOK 29/23 A2991=
200605041500 METAR MRLM 041500Z 02004KT 9999 FEW030 BKN300 29/23 A2993=
200605041700 METAR MRLM 041700Z 35009KT 9999 FEW030 BKN280 29/23 A2991 LEVE HZ ARND=
200605041800 METAR MRLM 041800Z 36008KT 9999 FEW028 OVC280 29/23 A2989 RMK LTG HZ ARND=
200605041900 METAR MRLM 041900Z 35011KT FEW028 BKN280 29/24 A2987 RMK CB DST S LTG HZ ARND=
200605042000 METAR MRLM NIL=
200605042100 METAR MRLM 042100Z 36006KT 9999 FEW028 SCT120 BKN270 29/23 A2983 CB DST S RN W=
200605042200 METAR MRLM 042200Z 01004KT 9999 FEW030 SCT140 BKN270 29/23 A2982 RN DST SW CB S=
200605042300 METAR MRLM 042300Z 03005KT 9999 FEW028 BKN120 29/23 A2984 CB RN DST S=
200605050000 METAR MRLM 050000Z 03005KT 9999 FEW025 OVC090 28/23 A2986 CB RN DST S=
200605050100 METAR MRLM NIL=
200605050200 METAR MRLM NIL=
200605050300 METAR MRLM NIL=
200605050400 METAR MRLM NIL=
200605050500 METAR MRLM NIL=
200605050600 METAR MRLM NIL=
200605050700 METAR MRLM NIL=
200605050800 METAR MRLM NIL=
200605050900 METAR MRLM NIL=
200605051000 METAR MRLM NIL=
200605051100 METAR MRLM NIL=
200605051200 METAR MRLM 051200Z 22008KT 9999 DZ FEW025 BKN080 23/23 A2986. RMK RN DIST ARND=
200605051300 METAR MRLM 051300Z 22006KT 9999 FEW025 BKN080 24/23 A2987 REDZ RN DST ARND=
200605051400 METAR MRLM 051400Z 22003KT 9999 FEW030 BKN080 27/24 A2989 RN DST ARND=
200605051500 METAR MRLM 051500Z 19004KT 9999 FEW030 BKN090 28/24 A2989 RN DST NW N NE E=
200605051600 METAR MRLM 051600Z 10020KT 9999 SCT028 SCT080 27/24 A2990 RN DST NW N NE E=
200605051700 METAR MRLM 051700Z 07015KT 9999 FEW028 SCT080 26/23 A2991 RN DST ARND=
200605051800 METAR MRLM 051800Z 11007KT 9999 DZ BKN030 SCT080 26/23 A2988 TCU DST S SW RN ARND=
200605051900 METAR MRLM 051900Z 13004KT 9999 SCT030 BKN080 29/23 A2985 TCU S SW RN S SW W=
200605052000 METAR MRLM NIL=
200605052100 METAR MRLM 052100Z 22004KT CAVOK 28/23 A2983=
200605052200 METAR MRLM 052200Z 19003KT CAVOK 28/23 A2982=
200605052300 METAR MRLM 052300Z 00000KT CAVOK 29/23 A2983 RN S=
200605060000 METAR MRLM 060000Z 17003KT CAVOK 27/23 A2984 RN S=
200605060100 METAR MRLM NIL=
200605060200 METAR MRLM NIL=
200605060300 METAR MRLM NIL=
200605060400 METAR MRLM NIL=
200605060500 METAR MRLM NIL=
200605060600 METAR MRLM NIL=
200605060700 METAR MRLM NIL=
200605060800 METAR MRLM NIL=
200605060900 METAR MRLM NIL=
200605061000 METAR MRLM NIL=
200605061100 METAR MRLM NIL=
200605061200 METAR MRLM 061200Z 00000KT 9999 FEW028 BKN040 23/22 A2984=
200605061300 METAR MRLM 061300Z 22003KT CAVOK 25/23 A2986=
200605061400 METAR MRLM 061400Z 16003KT CAVOK 27/24 A2987=
200605061500 METAR MRLM 061500Z 08003KT 9999 FEW028 BKN100 29/23 A2988=
200605061600 METAR MRLM 061600Z 08008KT 9999 FEW030 BKN250 29/24 A2988=
200605061700 METAR MRLM 061700Z 08009KT 9999 FEW030 BKN250 29/24 A2987=
200605061800 METAR MRLM 061800Z 08008KT 9999 FEW030 BKN250 30/24 A2986=
200605061900 METAR MRLM 061900Z 08007KT 9999 FEW030 BKN250 30/25 A2982=
200605062000 METAR MRLM NIL=
200605062100 METAR MRLM 062100Z 05008KT 9999 FEW030 BKN250 30/24 A2979=
200605062200 METAR MRLM 062200Z 07006KT 9999 FEW030 BKN250 29/24 A2979=
200605062300 METAR MRLM 062300Z 05004KT 9999 FEW028 BKN250 29/24 A2981 RMK CB DST S=
200605070000 METAR MRLM 070000Z 07004KT 9999 SCT028 BKN250 29/24 A2981 RMK CB DST S=
200605070100 METAR MRLM NIL=
200605070200 METAR MRLM NIL=
200605070300 METAR MRLM NIL=
200605070400 METAR MRLM NIL=
200605070500 METAR MRLM NIL=
200605070600 METAR MRLM NIL=
200605070700 METAR MRLM NIL=
200605070800 METAR MRLM NIL=
200605070900 METAR MRLM NIL=
200605071000 METAR MRLM NIL=
200605071100 METAR MRLM NIL=
200605071200 METAR MRLM NIL=
200605071300 METAR MRLM 071300Z 21006KT 9999 FEW015 SCT120 BKN270 26/23 A2988 RMK HZY=
200605071400 METAR MRLM 071400Z 18004KT 9999 FEW026 BKN270 29/24 A2988 RMK CB DST E LEVE HZY=
200605071500 METAR MRLM 071500Z 09006KT 9999 FEW027 BKN270 29/24 A2989 RMK CB DST E LEVE HZY=
200605071600 METAR MRLM 071600Z 04005KT 9999 FEW028 BKN270 30/24 A2988 RMK LEVE HZY=
200605071700 METAR MRLM 071700Z 05008KT 9999 FEW032 SCT270 30/24 A2987 RMK LEVE HZY=
200605071800 METAR MRLM 071800Z 03008KT 9999 FEW028 SCT280 30/24 A2985 RMK CB DST ENE LEVE HZY=
200605071900 METAR MRLM 071900Z 01009KT 9999 FEW026 BKN280 30/25 A2982 RMK CB DST S SW=
200605072000 METAR MRLM NIL=
200605072100 METAR MRLM 072100Z 36008KT 9999 SCT028 SCT280 30/24 A2978 RMK CB DST SW HZY=
200605072200 METAR MRLM 072200Z 01007KT 9999 SCT025 SCT280 29/24 A2978 HZY=
200605072300 METAR MRLM 072300Z 02005KT 9999 SCT027 SCT120 29/24 A2979 RMK TCU DST SW=
200605080000 METAR MRLM 080000Z 34005KT 9999 SCT023 SCT100 29/24 A2991 RMK TCU DST S SW W HZY=
200605080100 METAR MRLM NIL=
200605080200 METAR MRLM NIL=
200605080300 METAR MRLM NIL=
200605080400 METAR MRLM NIL=
200605080500 METAR MRLM NIL=
200605080600 METAR MRLM NIL=
200605080700 METAR MRLM NIL=
200605080800 METAR MRLM NIL=
200605080900 METAR MRLM NIL=
200605081000 METAR MRLM NIL=
200605081100 METAR MRLM NIL=
200605081200 METAR MRLM NIL=
200605081300 METAR MRLM 081300Z 22004KT CAVOK 25/23 A2983=
200605081400 METAR MRLM 081400Z 29005KT CAVOK 30/24 A2985=
200605081500 METAR MRLM 081500Z 31007KT CAVOK 31/22 A2985=
200605081600 METAR MRLM 081600Z 35009KT 9999 FEW036 BKN120 30/23 A2985=
200605081700 METAR MRLM 081700Z 35008KT 9999 FEW027 BKN120 30/24 A2984=
200605081800 METAR MRLM 081800Z 35012KT 9999 FEW025 BKN130 29/24 A2982=
200605081900 METAR MRLM 081900Z 36010KT 9999 FEW026 SCT140 30/25 A2979=
200605082000 METAR MRLM 082000Z NIL=
200605082100 METAR MRLM 082100Z 35014KT 9999 BKN026 29/25 A2974 RMK RN DIST SW / TCU E AND RN=
200605082200 METAR MRLM 082200Z 35014KT 9999 BKN020 29/25 A2973 RMK CB RN DIST S/W=
200605082300 METAR MRLM 082300Z 35011KT 9999 BKN017 28/25 A2976 RMK CB RN DIST S/ W=
200605090000 METAR MRLM 090000Z 34007KT 9999 BKN018 28/25 A2979 RMK TS DIST SW/ W=
200605090100 METAR MRLM NIL=
200605090200 METAR MRLM NIL=
200605090300 METAR MRLM NIL=
200605090400 METAR MRLM NIL=
200605090500 METAR MRLM NIL=
200605090600 METAR MRLM NIL=
200605090700 METAR MRLM NIL=
200605090800 METAR MRLM NIL=
200605090900 METAR MRLM NIL=
200605091000 METAR MRLM NIL=
200605091100 METAR MRLM NIL=
200605091200 METAR MRLM 091200Z 22004KT 9999 FEW026 SCT090 24/23 A2976 RMK TCU RN DST W NW N NE=
200605091300 METAR MRLM 091300Z 22003KT 9999 BKN038 SCT080 24/23 A2980 RMK TCU RN DST NW N NE=
200605091400 METAR MRLM 091400Z 19005KT 9999 3000W +DZ BKN028 SCT080 25/24 A2981 RMK RN NW N NE=
200605091500 METAR MRLM 091500Z 3104KT 9999 SCT028 BKN090 25/24 A2982 REDZ RMK TCU RN WNW W N NE=
200605091600 METAR MRLM 091600Z 28005KT 9999 -DZ FEW030 BKN090 27/25 A2982 RMK TCU RN DST W NW NE E=
200605091700 METAR MRLM 091700Z 29005KT 9999 FEW030 BKN090 28/25 A2980 REDZ RMK RN DST NE=
200605091800 METAR MRLM 091800Z 34003KT 9999 FEW028 SCT100 29/25 A2977 RMK RN DST N NE=
200605091900 METAR MRLM 091900Z 35010KT 99999 SCT028 SCT100 28/25 A2975 TCU DST ARND=
200605092000 METAR MRLM NIL=
200605092100 METAR MRLM 092100Z 36005KT 9999 FEW025 BKN090 28/25 A2972 CB DST ARND RN S/SW=
200605092200 METAR MRLM 092200Z 02004KT 9999 SCT025 BKN090 28/24 A2974 RN DST ARND=
200605092300 METAR MRLM 092300Z 00000KT 9999 SCT025 BKN090 28/24 A2975 RN DST ARND=
200605100000 METAR MRLM 100000Z 15003KT 9999 SCT024TCU SCT080 27/24 A2978 TCU RN ARND=
200605100100 METAR MRLM NIL=
200605100200 METAR MRLM NIL=
200605100300 METAR MRLM NIL=
200605100400 METAR MRLM NIL=
200605100500 METAR MRLM NIL=
200605100600 METAR MRLM NIL=
200605100700 METAR MRLM NIL=
200605100800 METAR MRLM NIL=
200605100900 METAR MRLM NIL=
200605101000 METAR MRLM NIL=
200605101100 METAR MRLM NIL=
200605101200 METAR MRLM NIL=
200605101300 METAR MRLM 101300Z 19004KT 9999 -DZ SCT025 SCT090 24/24 A2983=
200605101400 METAR MRLM 101400Z 22004KT 9999 SCT030 BKN080 25/24 A2984 REDZ CB RN NW/NNE/E=
200605101500 METAR MRLM 101500Z 20004KT 9999 FEW028 BKN080 25/24 A2985 TCU RN DST NE=
200605101600 METAR MRLM 101600Z 23004KT 9999 FEW028 SCT090 BKN230 27/25 A2985 CB RN DST N NE=
200605101700 METAR MRLM 101700Z 04004KT 9999 FEW028 BKN230 28/24 A2985 CB RN DST NW N NE E=
200605101800 METAR MRLM 101800Z 03004KT 9999 FEW030 BKN230 28/24 A2983 CB DST NW N NE E RN DST N E=
200605101900 METAR MRLM 101900Z 03005KT 9999 FEW030 BKN230 28/24 A2981 CB RN DST NW N NE=
200605102000 METAR MRLM NIL=
200605102100 METAR MRLM 102100Z 03005KT 9999 FEW025 SCT080 28/25 A2976=
200605102200 METAR MRLM 102200Z 03004KT 9999 FEW028 SCT090 28/25 A2976=
200605102300 METAR MRLM 102300Z 05003KT 9999 FEW025 SCT090 29/25 A2977 CB ARND RN NE=
200605110000 METAR MRLM 110000Z 00000KT 9999 FEW025 SCT090 28/25 A2979 CB RN ARND=
200605110100 METAR MRLM NIL=
200605110200 METAR MRLM NIL=
200605110300 METAR MRLM NIL=
200605110400 METAR MRLM NIL=
200605110500 METAR MRLM NIL=
200605110600 METAR MRLM NIL=
200605110700 METAR MRLM NIL=
200605110800 METAR MRLM NIL=
200605110900 METAR MRLM NIL=
200605111000 METAR MRLM NIL=
200605111100 METAR MRLM NIL=
200605111200 METAR MRLM NIL=
200605111300 METAR MRLM 111300Z 23004KT CAVOK 25/24 A2983=
200605111400 METAR MRLM 111400Z 00000KT 9999 FEW025 SCT140 BKN280 29/24 A2987=
200605111500 METAR MRLM 111500Z 06005KT 9999 FEW026 BKN280 30/24 A2987=
200605111600 METAR MRLM 111600Z 04006KT 9999 FEW025 BKN280 30/25 A2986=
200605111700 METAR MRLM 111700Z 05008KT 9999 FEW026 BKN280 30/25 A2985 CB NW=
200605111900 METAR MRLM 111900Z 04008KT 9999 FEW028 BKN280 30/25 A2980 RMK CB SE S W=
200605112000 METAR MRLM NIL=
200605112100 METAR MRLM NIL=
200605112200 METAR MRLM NIL=
200605112300 METAR MRLM NIL=
200605120000 METAR MRLM NIL=
200605120100 METAR MRLM NIL=
200605120200 METAR MRLM NIL=
200605120300 METAR MRLM NIL=
200605120400 METAR MRLM NIL=
200605120500 METAR MRLM NIL=
200605120600 METAR MRLM NIL=
200605120700 METAR MRLM NIL=
200605120800 METAR MRLM NIL=
200605120900 METAR MRLM NIL=
200605121000 METAR MRLM NIL=
200605121100 METAR MRLM NIL=
200605121200 METAR MRLM NIL=
200605121300 METAR MRLM 121300Z 19004KT 9999 OVC015 24/23 A2985 RMK RN DST ARND HZY=
200605121400 METAR MRLM 121400Z 00000KT 9999 OVC015 26/25 A2989 RERA RMK RN DST ARND HZY=
200605121500 METAR MRLM 121500Z 17006KT 9999 FEW016 SCT120 BKN270 29/25 A2988 RMK CB RN DST S W LEVE HZY=
200605121600 METAR MRLM 121600Z 10010KT 9999 SCT025 SCT120 29/24 A2987 RMK CB DST SE=
200605121700 METAR MRLM 121700Z 10010KT 9999 FEW028 SCT120 BKN270 30/25 A2985 RMK=
200605121800 METAR MRLM 121800Z 08010KT 9999 FEW032 SCT120 BKN270 30/24 A2982 RMK=
200605121900 METAR MRLM 121900Z 08012KT 9999 FEW030 SCT120 BKN270 30/24 A2980 RMK CB DST W LEVE HZY=
200605122000 METAR MRLM NIL=
200605122100 METAR MRLM 122100Z 05011KT 9999 FEW027 SCT140 BKN270 30/24 A2976 RMK CB DST S SW HZY=
200605122200 METAR MRLM NIL=
200605122300 METAR MRLM NIL=
200605130000 METAR MRLM NIL=
200605130100 METAR MRLM NIL=
200605130200 METAR MRLM NIL=
200605130300 METAR MRLM NIL=
200605130400 METAR MRLM NIL=
200605130500 METAR MRLM NIL=
200605130600 METAR MRLM NIL=
200605130700 METAR MRLM NIL=
200605130800 METAR MRLM NIL=
200605130900 METAR MRLM NIL=
200605131000 METAR MRLM NIL=
200605131100 METAR MRLM NIL=
200605131200 METAR MRLM NIL=
200605131300 METAR MRLM 131300Z 20005KT 9999 FEW025 SCT280 26/24 A2986=
200605131400 METAR MRLM 131400Z 18004KT 9999 FEW025 SCT280 29/24 A2988=
200605131500 METAR MRLM 131500Z 08004KT 9999 FEW025 BKN280 30/23 A2988=
200605131600 METAR MRLM NIL=
200605131700 METAR MRLM 131700Z 06007KT 9999 FEW025 BKN250 30/23 A2986=
200605131800 METAR MRLM 131800Z 06008KT 9999 FEW025 BKN250 30/23 A2984=
200605131900 METAR MRLM 131900Z 04008KT 9999 FEW025 BKN250 30/23 A2983=
200605132000 METAR MRLM NIL=
200605132100 METAR MRLM 132100Z 03007KT 9999 FEW025 BKN250 30/23 A2980=
200605132200 METAR MRLM 132200Z 04006KT 9999 FEW025 BKN250 30/24 A2980=
200605132300 METAR MRLM 132300Z 05004KT 9999 SCT025 BKN250 29/24 A2981=
200605140000 METAR MRLM 140000Z 07004KT 9999 SCT025 BKN250 29/23 A2983=
200605140100 METAR MRLM NIL=
200605140200 METAR MRLM NIL=
200605140300 METAR MRLM NIL=
200605140400 METAR MRLM NIL=
200605140500 METAR MRLM NIL=
200605140600 METAR MRLM NIL=
200605140700 METAR MRLM NIL=
200605140800 METAR MRLM NIL=
200605140900 METAR MRLM NIL=
200605141000 METAR MRLM NIL=
200605141100 METAR MRLM NIL=
200605141200 METAR MRLM 141200Z 18003KT 9999 FEW025 BKN080 24/23 A2984 RMK RN DST SE S=
200605141300 METAR MRLM 141300Z 19006KT 9999 FEW025 BKN090 25/23 A2986 RMK RN DST SE S=
200605141500 METAR MRLM 141500Z 18006KT 9999 FEW025 SCT100 29/23 A2981 CB DST NE E RN NE S SW=
200605141600 METAR MRLM 141600Z 10007KT 9999 FEW025 SCT250 31/23 A2988 RMK CB RN DST NNE NE=
200605141700 METAR MRLM 141700Z 10007KT 9999 FEW025 BKN090 30/23 A2988 RMK CB RN DST NE=
200605141800 METAR MRLM 141800Z 08009KT 9999 FEW025 BKN090 30/24 A2986 RMK RN DST NW N=
200605141900 METAR MRLM 141900Z 03011KT 9999 FEW025 SCT090 29/24 A2984=
200605142000 METAR MRLM NIL=
200605142100 METAR MRLM 142100Z 04008KT 9999 FEW025 SCT250 29/24 A2980=
200605142200 METAR MRLM 142200Z 04006KT 9999 FEW025 SCT250 29/24 A2980 CB DST S SW=
200605142300 METAR MRLM 142300Z 05006KT 9999 FEW025 SCT250 29/24 A2981 CB S SW=
200605150000 METAR MRLM 150000Z 06004KT 9999 FEW025 BKN250 28/24 A2981=
200605150100 METAR MRLM NIL=
200605150200 METAR MRLM NIL=
200605150300 METAR MRLM NIL=
200605150400 METAR MRLM NIL=
200605150500 METAR MRLM NIL=
200605150600 METAR MRLM NIL=
200605150700 METAR MRLM NIL=
200605150800 METAR MRLM NIL=
200605150900 METAR MRLM NIL=
200605151000 METAR MRLM NIL=
200605151100 METAR MRLM NIL=
200605151200 METAR MRLM NIL=
200605151300 METAR MRLM 151300Z 23004KT CAVOK 26/23 A2987 BKN100 SCT120 CB DST ENE HZ ARND=
200605151400 METAR MRLM 151400Z 20004KT CAVOK 28/24 A2988 BKN110 CB DST NE E HZ ARND=
200605151500 METAR MRLM 151500Z 06004KT 9999 FEW032 SCT130 30/24 A2989 CB RN DST NE HZ ARND=
200605151600 METAR MRLM 151600Z 03006KT 9999 FEW030 SCT280 30/24 A2988 CB RN DST NE HZ ARND=
200605151700 METAR MRLM 151700Z 01008KT 9999 FEW030 SCT280 30/24 A2987 CB DST N NE E=
200605151800 METAR MRLM 151800Z 03009KT 9999 FEW022 SCT140 BKN280 29/25 A2986 CB DST N NW NE E=
200605151900 METAR MRLM 151900Z 03009KT 9999 FEW026 SCT140 BKN280 30/25 A2983 CB DST ARND RN DST SW=
200605152000 METAR MRLM NIL=
200605152100 METAR MRLM 152100Z 02007KT 9999 FEW026 SCT140 BKN280 30/25 A2980 CB N NE S SW W=
200605152200 METAR MRLM 152200Z 05006KT 9999 FEW030 SCT120 BKN280 30/24 A2980 CB RN S SW W=
200605152300 METAR MRLM 152300Z 12006KT 9999 FEW026 SCT120 BKN280 29/24 A2981 CB RN S SW W=
200605160000 METAR MRLM 160000Z 00000KT CAVOK 28/24 A2982 CB RN S SW W=
200605160100 METAR MRLM NIL=
200605160200 METAR MRLM NIL=
200605160300 METAR MRLM NIL=
200605160400 METAR MRLM NIL=
200605160500 METAR MRLM NIL=
200605160600 METAR MRLM NIL=
200605160700 METAR MRLM NIL=
200605160800 METAR MRLM NIL=
200605160900 METAR MRLM NIL=
200605161000 METAR MRLM NIL=
200605161100 METAR MRLM NIL=
200605161200 METAR MRLM NIL=
200605161300 METAR MRLM 161300Z 19004KT CAVOK 26/23 A2982=
200605161400 METAR MRLM 161400Z 03004KT CAOK 29/24 A2983=
200605161500 METAR MRLM 161500Z 02006KT CAVOK 30/24 A2984=
200605161600 METAR MRLM 161600Z 01007KT 9999 FEW033 OVC270 30/24 A2984=
200605161700 METAR MRLM 161700Z 01007KT 9999 FEW034 OVC270 30/23 A2984=
200605161800 METAR MRLM 161800Z 36008KT 9999 FEW030 OVC270 30/25 A2981=
200605161900 METAR MRLM 161900Z 36010KT 9999 FEW030 OVC270 31/25 A2978 CB SE S SW=
200605162000 METAR MRLM NIL=
200605162100 METAR MRLM 162100Z 36007KT 9999 FEW027 OVC270 30/25 A2978 RMK CB DST SE S SW W RN DST W=
200605162200 METAR MRLM 162200Z VRB03KT 9999 FEW027 SCT140 BKN270 29/24 A2974 RMK CB DST S W RN DST SW W=
200605162300 METAR MRLM 162300Z 10004KT 9999 FEW024 SCT130 BKN270 29/24 A2974 RMK CB RN DST S SW W=
200605170000 METAR MRLM 170000Z VRB03KT CAVOK 28/24 A2976 RMK RN DST S SW=
200605170100 METAR MRLM NIL=
200605170200 METAR MRLM NIL=
200605170300 METAR MRLM NIL=
200605170400 METAR MRLM NIL=
200605170500 METAR MRLM NIL=
200605170600 METAR MRLM NIL=
200605170700 METAR MRLM NIL=
200605170800 METAR MRLM NIL=
200605170900 METAR MRLM NIL=
200605171000 METAR MRLM NIL=
200605171100 METAR MRLM NIL=
200605171200 METAR MRLM 171200Z 21004KT 9999 BKN040 SCT080 25/24 A2982 RN DST ESE HZ ARND=
200605171300 METAR MRLM 171300Z 27003KT 9999 BKN030 SCT080 26/24 A2983 RMK CB RN DST NW N NE TS DST NE=
200605171400 METAR MRLM 171400Z 01009KT 9999 BKN035 SCT090 27/25 A2985 REDZ RMK RN DST N NE E HZY=
200605171500 METAR MRLM 171500Z 30003KT 9999 SCT025 SCT080 28/24 A2986 RMK HZY=
200605171600 METAR MRLM 171600Z 03003KT 9999 FEW028 BKN090 29/24 A2986 RMK RN DST ESE LEVE HZY=
200605171700 METAR MRLM 171700Z 05005KT 9999 FEW028 SCT090 29/25 A2985 RMK TCU DST S SW HZY=
200605171900 METAR MRLM 171900Z 10009KT 9999 FEW025 SCT090 BKN250 29/25 A2983 RMK CB RN DST S SW W TS DST SW W=
200605172000 METAR MRLM NIL=
200605172100 METAR MRLM 172100Z 10008KT 9999 FEW025 BKN240 30/24 A2979 HZY=
200605172200 METAR MRLM 172200Z 10007KT 9999 FEW025 BKN240 29/25 A2980=
200605172300 METAR MRLM 172300Z 10006KT 9999 FEW025 SCT090 BKN240 29/25 A2980 CB RN DST SSW SW WSW=
200605180000 METAR MRLM NIL=
200605180100 METAR MRLM NIL=
200605180200 METAR MRLM NIL=
200605180300 METAR MRLM NIL=
200605180400 METAR MRLM NIL=
200605180500 METAR MRLM NIL=
200605180600 METAR MRLM NIL=
200605180700 METAR MRLM NIL=
200605180800 METAR MRLM NIL=
200605180900 METAR MRLM NIL=
200605181000 METAR MRLM NIL=
200605181100 METAR MRLM NIL=
200605181200 METAR MRLM NIL=
200605181300 METAR MRLM 181300Z 26006KT 9999 3000 TS VCSH FEW018CB BKN024 25/24 A2989 RMK CB LINE RASH NW N NE E HZ ARND=
200605181400 METAR MRLM 181400Z 25004KT 9999 2000NW -RA FEW015CB BKN022 29/24 A2990 RETS RMK CB RASH W NW N NE=
200605181500 METAR MRLM 181500Z 35012KT 2000 TSRA FEW015CB BKN020 25/24 A2992 RMK CB NW N NE TS NW=
200605181600 METAR MRLM 181600Z 24006KT 2000 TSRA FEW018CB BKN020 24/24 A2993 RMK CB NE E TS NE=
200605181700 METAR MRLM 181700Z 26006KT 2000 TSRA FEW018CB BKN020 24/23 A2991 RMK CB NE E TS ENE=
200605181900 METAR MRLM 181900Z 26005KT 9999 +DZ SCT040 BKN080 24/23 A2988 RMK RN DST ARND=
200605182000 METAR MRLM NIL=
200605182100 METAR MRLM 182100Z 27009KT 5000 RA SCT035 SCT080 23/23 A2986=
200605182200 METAR MRLM 182200Z 27010KT 9999 +DZ SCT035 BKN080 24/23 A2984=
200605182300 METAR MRLM 182300Z 28005KT 9999 DZ BKN035 SCT080 24/23 A2987=
200605190000 METAR MRLM 190000Z 21003KT 9999 DZ BKN040 SCT100 24/23 A2988=
200605190100 METAR MRLM NIL=
200605190200 METAR MRLM NIL=
200605190300 METAR MRLM NIL=
200605190400 METAR MRLM NIL=
200605190500 METAR MRLM NIL=
200605190600 METAR MRLM NIL=
200605190700 METAR MRLM NIL=
200605190800 METAR MRLM NIL=
200605190900 METAR MRLM NIL=
200605191000 METAR MRLM NIL=
200605191100 METAR MRLM NIL=
200605191200 METAR MRLM NIL=
200605191300 METAR MRLM 191300Z 26004KT 9999 FEW035 BKN090 26/24 A2990 RMK RN DST W NW N NE E=
200605191400 METAR MRLM 191400Z 25007KT 9999 SCT035 BKN090 27/23 A2991 RMK RN DST NW N NE E=
200605191500 METAR MRLM 191500Z 06005KT 9999 FEW020 BKN035 27/23 A2992 RMK DZ W NW RN DST NE=
200605191600 METAR MRLM 191600Z 26005KT 9999 FEW022 SCT035 BKN090 28/24 A2994 DZ W RN DST NE=
200605191700 METAR MRLM 191700Z 24004KT 9999 FEW020 SCT040 BKN090 29/23 A2992 RMK RN DST E=
200605191800 METAR MRLM 191800Z 33008KT 9999 FEW030 BKN090 29/23 A2991 RN DST S DZ E=
200605191900 METAR MRLM 191900Z 30008KT 9999 FEW030 BKN090 29/23 A2988 RMK RN DST E DZ S=
200605192000 METAR MRLM NIL=
200605192100 METAR MRLM 192100Z 29011KT 9999 BKN020 SCT140 28/24 A2986 RN DST SW W=
200605192200 METAR MRLM 192200Z 31008KT 9999 BKN020 28/24 A2986 RN DST S/W=
200605192300 METAR MRLM 192300Z 31005KT 9999 OVC018 28/24 A2982 RN S/W=
200605200000 METAR MRLM 200000Z 23005KT 9999 OVC018 26/24 A2989 RN ARND=
200605200100 METAR MRLM NIL=
200605200200 METAR MRLM NIL=
200605200300 METAR MRLM NIL=
200605200400 METAR MRLM NIL=
200605200500 METAR MRLM NIL=
200605200600 METAR MRLM NIL=
200605200700 METAR MRLM NIL=
200605200800 METAR MRLM NIL=
200605200900 METAR MRLM NIL=
200605201000 METAR MRLM NIL=
200605201100 METAR MRLM NIL=
200605201200 METAR MRLM NIL=
200605201300 METAR MRLM 201300Z 32005KT 9999 DZ SCT025 SCT110 26/23 A2987 RN DST N E=
200605201400 METAR MRLM 201400Z 29005KT 9999 SCT025 BKN110 27/24 A2989 DZ N/E=
200605201500 METAR MRLM 201500Z 31008KT 9999 DZ FEW019 BKN035 27/23 A2989=
200605201600 METAR MRLM 201600Z 25005KT 9999 DZ FEW016 SCT025 BKN100 27/24 A2990 HZ ARND=
200605201700 METAR MRLM 201700Z 25005KT 9999 FEW023 BKN090 28/24 A2988 RN DST NE/E HZ LEVE=
200605201800 METAR MRLM 201800Z 03005KT 9999 FEW020 BKN090 29/25 A2985 CB DST=
200605201900 METAR MRLM 201900Z 01009KT 9999 FEW018 SCT100 BKN260 29/23 A2982 CB ARND=
200605202000 METAR MRLM NIL=
200605202100 METAR MRLM 202100Z 36010KT 9999 FEW027 BKN270 29/24 A2977 CB ARND RN W=
200605202200 METAR MRLM 202200Z 34011KT 9999 FEW025 SCT140 BKN270 29/24 A2978 CB ARND RN W=
200605202300 METAR MRLM 202300Z 33009KT 9999 FEW020 BKN130 28/24 A2980 CB ARND RN W=
200605210000 METAR MRLM 210000Z 00000KT 9999 FEW014 SCT130 BKN270 27/24 A2980 CB ARND RN S W=
200605210100 METAR MRLM NIL=
200605210200 METAR MRLM NIL=
200605210300 METAR MRLM NIL=
200605210400 METAR MRLM NIL=
200605210500 METAR MRLM NIL=
200605210600 METAR MRLM NIL=
200605210700 METAR MRLM NIL=
200605210800 METAR MRLM NIL=
200605210900 METAR MRLM NIL=
200605211000 METAR MRLM NIL=
200605211100 METAR MRLM NIL=
200605211200 METAR MRLM 211200Z 22005KT 9999 FEW030 BKN090 23/22 A2981 CB DST NW N=
200605211300 METAR MRLM 211300Z 23004KT 9999 FEW030 BKN090 25/24 A2983 RMK CB/TS NW N=
200605211400 METAR MRLM 211400Z 26003KT 9999 FEW030 BKN090 28/24 A2983 RMK CB RN NW NE=
200605211500 METAR MRLM 211500Z 28004KT 9999 FEW030 SCT090 29/24 A2984 CB/RN NE=
200605211600 METAR MRLM 211600Z 36006KT 9999 FEW030 BKN090 30/24 A2984 CB RN NE=
200605211800 METAR MRLM 211800Z 34009KT 9999 FEW025 SCT090 BKN250 29/25 A2981 RN S SW=
200605211900 METAR MRLM 211900Z 35008KT 9999 FEW025 SCT080 BKN230 28/25 A2979 RN NE=
200605212000 METAR MRLM NIL=
200605212100 METAR MRLM 212100Z 05004KT 9999 FEW025 BKN230 29/25 A2973 RMK RN DST E SE=
200605212200 METAR MRLM 212200Z 10006KT 9999 FEW025 BKN230 29/25 A2973=
200605212300 METAR MRLM 212300Z 07007KT 9999 FEW025 BKN230 28/23 A2974=
200605220000 METAR MRLM 220000Z 08008KT 9999 FEW030 BKN230 28/25 A2975=
200605220100 METAR MRLM NIL=
200605220200 METAR MRLM NIL=
200605220300 METAR MRLM NIL=
200605220400 METAR MRLM NIL=
200605220500 METAR MRLM NIL=
200605220600 METAR MRLM NIL=
200605220700 METAR MRLM NIL=
200605220800 METAR MRLM NIL=
200605220900 METAR MRLM NIL=
200605221000 METAR MRLM NIL=
200605221100 METAR MRLM NIL=
200605221200 METAR MRLM NIL=
200605221300 METAR MRLM 221300Z 23005KT 9999 SCT025 BKN080 25/24 A2983 REDZ=
200605221400 METAR MRLM 221400Z 25007KT 9999 SCT025 SCT250 26/24 A2984 RMK RN DST HZY=
200605221500 METAR MRLM 221500Z 24006KT 9999 SCT025 SCT250 28/24 A2983 RMK RN CB DST ARND=
200605221600 METAR MRLM 221600Z 33007KT 9999 2000E VCSH BKN025 SCT080 28/24 A2984 REDZ RMK RN NE E SE S=
200605221700 METAR MRLM 221700Z 02004KT 9999 -DZ SCT026 BKN080 28/24 A2984 RNK RN DST ARND HZY=
200605221800 METAR MRLM 221800Z 02014KT 9999 3000NW DZ SCT020 BKN026 27/24 A2984 RMK RN ARND=
200605221900 METAR MRLM 221900Z 01009KT 5000 +DZ BKN025 SCT090 26/24 A2982 RMK RN ARND=
200605222000 METAR MRLM NIL=
200605222200 METAR MRLM 222200Z 21004KT 9999 SCT030 BKN090 26/24 A2978 RMK RN/HZ ARND=
200605222300 METAR MRLM 222300Z 21003KT 9999 SCT028 SCT090 26/24 A2979 RMK RN HZ/ARND=
200605230000 METAR MRLM 230000Z 18003KT 9999 SCT026 SCT090 25/24 A2980 RMK RN/HZ ARND=
200605230100 METAR MRLM NIL=
200605230200 METAR MRLM NIL=
200605230300 METAR MRLM NIL=
200605230400 METAR MRLM NIL=
200605230500 METAR MRLM NIL=
200605230600 METAR MRLM NIL=
200605230700 METAR MRLM NIL=
200605230800 METAR MRLM NIL=
200605230900 METAR MRLM NIL=
200605231000 METAR MRLM NIL=
200605231100 METAR MRLM NIL=
200605231200 METAR MRLM NIL=
200605231300 METAR MRLM 231300Z 21006KT CAVOK 25/22 A2988 RMK BKN280 HZY=
200605231400 METAR MRLM 231400Z 00000KT CAVOK 28/23 A2984 RMK BKN280=
200605231500 METAR MRLM 231500Z 05004KT CAVOK 28/23 A2984 0VC280 HZY=
200605231600 METAR MRLM NIL=
200605231700 METAR MRLM 231700Z 36008KT 9999 FEW028 OVC280 29/24 A2986 RMK CB DST=
200605231800 METAR MRLM 231800Z 35009KT 9999 FEW027 OVC280 29/24 A2985 RMK CB DST S HZ ARND=
200605231900 METAR MRLM 231900Z 35010KT 9999 FEW025 OVC280 29/24 A2982 CB DST S HZY=
200605232000 METAR MRLM NIL=
200605232100 METAR MRLM 232100Z 29006KT 9999 FEW028 BKN280 29/24 A2978 RMK CB RASH S W HZ ARND=
200605232200 METAR MRLM 232200Z 34006KT 9999 FEW023 OVC270 29/24 A2977 RMK CB DST S HZ ARND=
200605232300 METAR MRLM 232300Z 34006KT 9999 FEW020 OVC270 28/25 A2979 RMK CB DST S W HZ ARND=
200605240000 METAR MRLM 240000Z 32007KT 9999 FEW017 SCT150 BKN270 28/24 A2980 RMK CB DST S HZ ARND=
200605240100 METAR MRLM NIL=
200605240200 METAR MRLM NIL=
200605240300 METAR MRLM NIL=
200605240400 METAR MRLM NIL=
200605240500 METAR MRLM NIL=
200605240600 METAR MRLM NIL=
200605240700 METAR MRLM NIL=
200605240800 METAR MRLM NIL=
200605240900 METAR MRLM NIL=
200605241000 METAR MRLM NIL=
200605241100 METAR MRLM NIL=
200605241200 METAR MRLM NIL=
200605241300 METAR MRLM 241300Z 28004KT CAVOK 26/24 A2988 CB DST N NE HZ ARND=
200605241400 METAR MRLM 241400Z 28008KT 9999 FEW028 BKN280 28/24 A2990 RMK LOW SCT ARND=
200605241500 METAR MRLM 241500Z 29006KT 9999 FEW025 BKN280 28/24 A2988 RMK HZ ARND=
200605241600 METAR MRLM 241600Z 32011KT 9999 FEW035 OVC280 31/24 A2988 RMK HZ ARND=
200605241700 METAR MRLM 241700Z 34010KTK 9999 FEW026 OVC280 30/24 A2988 RMK CB DST E HZ ARND=
200605241800 METAR MRLM 241800Z 34012KT 9999 FEW026 OVC280 30/25 A2988 RMK CB DST E=
200605241900 METAR MRLM 241900Z 35011KT 9999 FEW020 OVC280 29/25 A2985 CB DST N NE E SE HZ ARND=
200605242000 METAR MRLM NIL=
200605242100 METAR MRLM 242100Z 35008KT 9999 FEW018 SCT110 BKN270 29/25 A2982 RMK CB RN S SW W=
200605242200 METAR MRLM 242200Z 34004KT 9999 FEW022 SCT110 BKN270 28/24 A2982 RMK CB RN S SW W=
200605242300 METAR MRLM 242300Z VRB03KT 9999 FEW018 SCT110 BKN280 28/24 A2982=
200605250000 METAR MRLM 250000Z VRB03KT 9999 FEW014 SCT140 BKN270 27/24 A2983=
200605250100 METAR MRLM NIL=
200605250200 METAR MRLM NIL=
200605250300 METAR MRLM NIL=
200605250400 METAR MRLM NIL=
200605250500 METAR MRLM NIL=
200605250600 METAR MRLM NIL=
200605250700 METAR MRLM NIL=
200605250800 METAR MRLM NIL=
200605250900 METAR MRLM NIL=
200605251000 METAR MRLM NIL=
200605251100 METAR MRLM NIL=
200605251200 METAR MRLM 251200Z 05005KT CAVOK 23/22 A2983=
200605251300 METAR MRLM 251300Z 21004KT CAVOK 26/23 A2985=
200605251400 METAR MRLM 251400Z 29003KT 9999 FEW030 BKN250 30/24 A2985=
200605251500 METAR MRLM 251500Z 36008KT 9999 FEW030 BKN250 30/24 A2985=
200605251600 METAR MRLM 251600Z 36008KT 9999 FEW030 BKN250 30/24 A2986=
200605251700 METAR MRLM 251700Z 01007KT 9999 FEW030 BKN250 30/25 Z2984 RMK CB NE E=
200605251800 METAR MRLM 251800Z 02009KT 9999 FEW030 BKN250 30/25 A2982 RMK CB NE=
200605252000 METAR MRLM NIL=
200605252100 METAR MRLM 252100Z 01008KT 9999 FEW028 BKN240 30/25 A2977=
200605252200 METAR MRLM 252200Z 36006KT 9999 FEW025 BKN240 29/25 A2977=
200605252300 METAR MRLM 252300Z 05006KT 9999 DZ BKN025 SCT240 29/25 A2977 RN NE E=
200605260000 METAR MRLM 260000Z 01015KT 6000 RA BKN024 SCT090 27/24 A2978=
200605260100 METAR MRLM NIL=
200605260200 METAR MRLM NIL=
200605260300 METAR MRLM NIL=
200605260400 METAR MRLM NIL=
200605260500 METAR MRLM NIL=
200605260600 METAR MRLM NIL=
200605260700 METAR MRLM NIL=
200605260800 METAR MRLM NIL=
200605260900 METAR MRLM NIL=
200605261000 METAR MRLM NIL=
200605261100 METAR MRLM NIL=
200605261200 METAR MRLM NIL=
200605261300 METAR MRLM 261300Z 23004KT 9999 SCT028 BKN230 25/24 A2979 RMK CB RN W NW N E=
200605261400 METAR MRLM 261400Z 27005KT 9999 BKN035 SCT080 27/25 A2982=
200605261500 METAR MRLM 261500Z 22004KT 9999 -DZ BKN024 27/25 A2984 RN ARND=
200605261600 METAR MRLM 261600Z 22006KT 9999 BKN024 26/25 A2984 RERA RN ARND=
200605261700 METAR MRLM 261700Z 18005KT 3000 TSRA FEW018CB BKN022 25/24 A2984 RMK CB NE E SE TS E=
200605261800 METAR MRLM 261800Z 18005KT 3000 TSRA FEW018CB BKN022 25/24 A2984 RMK CB NE E SE TS E=
200605261900 METAR MRLM 261900Z 21006KT 3000N -RA BKN024 SCT080 25/24 A2982 RETS RMK TCU NW N NE=
200605262000 METAR MRLM NIL=
200605262100 METAR MRLM 262100Z 20006KT 999 SCT028 SCT080 28/25 A2976 RERA RMK RN DST ARND LEVE HZY=
200605262200 METAR MRLM 262200Z 29005KT 9999 -DZ BKN028 SCT080 27/25 A2977 RMK RN DST ARND LEVE HZY=
200605262300 METAR MRLM 262300Z 15003KT 9999 -DZ BKN026 27/25 A2977 RMK RN DST ARND HZY=
200605270000 METAR MRLM 270000Z 21004KT 9999 -DZ BKN030 SCT080 26/24 A2977 RERA RMK TCU DST W NW N RN ARND=
200605270100 METAR MRLM NIL=
200605270200 METAR MRLM NIL=
200605270300 METAR MRLM NIL=
200605270400 METAR MRLM NIL=
200605270500 METAR MRLM NIL=
200605270600 METAR MRLM NIL=
200605270700 METAR MRLM NIL=
200605270800 METAR MRLM NIL=
200605270900 METAR MRLM NIL=
200605271000 METAR MRLM NIL=
200605271100 METAR MRLM NIL=
200605271200 METAR MRLM NIL=
200605271300 METAR MRLM 271300Z 26006KT 9999 FEW008 BKN110 24/23 A2979 RMK RN DST QUAD N=
200605271400 METAR MRLM 271400Z 26007KT 9999 FEW012 BKN090 26/23 A2982 RMK RN DST N NE E HZY=
200605271500 METAR MRLM 271500Z 29006KT 9999 FEW016 OVC025 26/23 A2983 RMK RN DST N NE E SE WSW HZY=
200605271600 METAR MRLM 271600Z 28008KT 9999 FEW012 BKN090 26/24 A2983 RMK RN DST QUAD N E HZY=
200605271700 METAR MRLM 271700Z 00000KT 9999 FEW010 BKN090 26/24 A2983 RMK RN DST QUAD N E=
200605271800 METAR MRLM 271800Z VRB03KT 9999 FEW010 BKN025 26/24 A2983 RMK RN DST QUAD N TSTM DST NE=
200605271900 METAR MRLM 271900Z 04014KT 2000 TSRA SCT006 SCT015CB BKN025 25/24 A2983 RMK TS N NE=
200605272000 METAR MRLM 272000Z VRB03KT 8000 TSRA FEW006 SCT020CB SCT025 BKN090 25/23 A2982=
200605272100 METAR MRLM 272100Z 18006KT 9999 +DZ FEW004 SCT110 BKN150 25/24 A2979 RMK RETS CBS RN DST ARND=
200605272200 METAR MRLM 272200Z 21006KT 9999 FEW005 SCT110 BKN150 25/24 A2977 RMK CBS RN DST ARND=
200605272300 METAR MRLM 272300Z 00000KT 9999 FEW009 SCT110 BKN150 26/24 A2977 RMK CB DST ARND RN DST S /W=
200605280000 METAR MRLM NIL=
200605280100 METAR MRLM NIL=
200605280200 METAR MRLM NIL=
200605280300 METAR MRLM NIL=
200605280400 METAR MRLM NIL=
200605280500 METAR MRLM NIL=
200605280600 METAR MRLM NIL=
200605280700 METAR MRLM NIL=
200605280800 METAR MRLM NIL=
200605280900 METAR MRLM NIL=
200605281000 METAR MRLM NIL=
200605281100 METAR MRLM NIL=
200605281200 METAR MRLM NIL=
200605281300 METAR MRLM NIL=
200605281400 METAR MRLM 281400Z 28006KT 9999 SCT020 SCT090 25/23 A2988 RMK RN DST N HZY=
200605281500 METAR MRLM 281500Z 28006KT 9999 SCT025 SCT090 BKN150 25/23 A2989 RMK RN DST N HZY=
200605281600 METAR MRLM 281600Z 28008KT 7000 VCSH BKN012 26/23 A2991 RMK VIS S/W QD UNL=
200605281700 METAR MRLM NIL=
200605281800 METAR MRLM 281800Z 29004KT 9999 BKN018 28/24 A2986 RMK CBS RN DST W NW=
200605281900 METAR MRLM 281900Z 01005KT 9999 FEW022 BKN130 28/24 A2985 RMK CB RN DST W/NW HZY=
200605282000 METAR MRLM NIL=
200605282100 METAR MRLM 282100Z 34004KT 9999 FEW023 BKN140 28/24 2981 RMK RN DST N NE HZ LGT ARND=
200605282200 METAR MRLM 282200Z VRB03KT 9999 FEW025 SCT130 BKN260 28/23 A2979 RMK RNDST N NE=
200605282300 METAR MRLM 282300Z VRB03KT 9999 FEW020 SCT130 BKN260 27/24 A2979 RMK LGT HZ ARND RN DST N NE=
200605290000 METAR MRLM 290000Z 03006KT 9999 FEW018 SCT140 BKN260 28/24 A2981=
200605290100 METAR MRLM NIL=
200605290200 METAR MRLM NIL=
200605290300 METAR MRLM NIL=
200605290400 METAR MRLM NIL=
200605290500 METAR MRLM NIL=
200605290600 METAR MRLM NIL=
200605290700 METAR MRLM NIL=
200605290800 METAR MRLM NIL=
200605290900 METAR MRLM NIL=
200605291000 METAR MRLM NIL=
200605291100 METAR MRLM NIL=
200605291200 METAR MRLM 291200Z 21004KT 9999 +DZ SCT030 SCT090 24/23 A2983 RETS RMK CB RN DST NW N NE=
200605291300 METAR MRLM 291300Z 24005KT 9999 +DZ SCT030 BKN090 24/24 A2986 RMK CB DST W NW N NE RN ARND=
200605291400 METAR MRLM 291400Z 24005KT 9999 SCT025 BKN090 25/24 A2988 REDZ RMK RN DST ARND=
200605291500 METAR MRLM 291500Z 24004KT 9999 SCT035 BKN090 26/25 A2988 RN DST ARND=
200605291600 METAR MRLM 291600Z 28005KT 9999 SCT035 BKN090 28/24 A2989 RMK RN DST W NW N NE=
200605291800 METAR MRLM 291800Z 36008KT 9999 FEW028 SCT100 BKN240 29/24 A2986 RMK DST SSE RN SSW SW=
200605291900 METAR MRLM 291900Z 35006KT 9999 FEW025 SCT100 BKN240 29/25 A2984 REDZ RMK CB DST ARND RN SE S SW=
200605292000 METAR MRLM NIL=
200605292100 METAR MRLM 292100Z 02003KT 9999 SCT025TCU BKN090 29/23 A2982=
200605292200 METAR MRLM 292200Z 01015KT 9999 3000NW VCSH SCT015 BKN025 27/24 A2982=
200605292300 METAR MRLM 292300Z 01009KT 9999 SCT015 BKN035 26/23 A2983 REDZ RMK RN ARND=
200605300000 METAR MRLM 30000Z 20003KT 9999 FEW020 SCT030 35/23 A2985 RMK RN ARND=
200605300100 METAR MRLM NIL=
200605300200 METAR MRLM NIL=
200605300300 METAR MRLM NIL=
200605300400 METAR MRLM NIL=
200605300500 METAR MRLM NIL=
200605300600 METAR MRLM NIL=
200605300700 METAR MRLM NIL=
200605300800 METAR MRLM NIL=
200605300900 METAR MRLM NIL=
200605301000 METAR MRLM NIL=
200605301100 METAR MRLM NIL=
200605301200 METAR MRLM 301200Z 00000KT 9999 FEW025 SCT045 23/22 A2980=
200605301300 METAR MRLM 301300Z 20003KT 9999 FEW025 SCT100 BKN250 25/23 A2983=
200605301400 METAR MRLM 301400Z 16003KT 9999 FEW030 BKN250 28/24 A2983 RMK RN N NW=
200605301500 METAR MRLM 301500Z 06003KT 9999 FEW030 SCT100 BKN250 29/23 A2983 RMK HZ ARND=
200605301700 METAR MRLM 301700Z 02007KT 9999 FEW030 SCT250 29/24 A2982=
200605301800 METAR MRLM 301800Z 36007KT 9999 FEW030 SCT250 29/24 A2981=
200605301900 METAR MRLM 301900Z 01008KT 9999 FEW030 SCT250 30/24 A2980 CB RN SW=
200605302000 METAR MRLM NIL=
200605302100 METAR MRLM 302100Z 01006KT 9999 SCT030 SCT250 29/25 A2978=
200605302200 METAR MRLM 302200Z 02005KT 9999 BKN030 SCT250 29/25 A2978 RN SW=
200605302300 METAR MRLM 302300Z 03008KT 9999 BKN030 29/24 A2977 TCU RN NE SE S SW=
200605310000 METAR MRLM 310000Z 03005KT 9999 BKN030 28/24 A2978 RN SE S SW=
200605310100 METAR MRLM NIL=
200605310200 METAR MRLM NIL=
200605310300 METAR MRLM NIL=
200605310400 METAR MRLM NIL=
200605310500 METAR MRLM NIL=
200605310600 METAR MRLM NIL=
200605310700 METAR MRLM NIL=
200605310800 METAR MRLM NIL=
200605310900 METAR MRLM NIL=
200605311000 METAR MRLM NIL=
200605311100 METAR MRLM NIL=
200605311200 METAR MRLM NIL=
200605311300 METAR MRLM 311300Z 00000KT CAVOK 25/24 A2979 RMK SCT070 BKN100 TCU DST N/NE HZ ARND DZ W=
200605311400 METAR MRLM 311400Z 36008KT CAVOK 28/23 A2980 RMK CB E=
200605311500 METAR MRLM 311500Z 35006KT 9999 FEW026 SCT120 BKN300 29/23 A2981 CB NW NE=
200605311600 METAR MRLM 311600Z 01010KT 9999 FEW028 SCT120 BKN300 29/23 A2981 CB N=
200605311700 METAR MRLM 311700Z 03007KT 9999 FEW026 SCT130 BKN300 28/23 A2980 CB N=
200605311800 METAR MRLM 311800Z 02006KT 9999 FEW026 SCT120 BKN300 29/24 A2979 CB DST N=
200605311900 METAR MRLM 311900Z 01011KT 9999 FEW026 SCT110 BKN250 29/24 A2978=
200605312000 METAR MRLM NIL=
200605312100 METAR MRLM 312100Z 03005KT 9999 FEW024 SCT120 BKN280 29/24 A2976 RMK CB HZ ARND RN DST SW W=
200605312200 METAR MRLM 312200Z 00000KT 9999 FEW027 SCT120 BKN280 29/24 A2976 RMK CB DST ARND RN DST W NW=
200605312300 METAR MRLM 312300Z 00000KT 9999 FEW027 SCT090 BKN280 29/23 A2977 RMK RN DST S SW NW CB DST QUAD S W N=
200606010000 METAR MRLM 010000Z 00000KT 9999 FEW020 SCT120 BKN280 27/23 A2979 RMK CB DST QUAD S W N RN DST SW WN NE=
200606010100 METAR MRLM NIL=
200606010200 METAR MRLM NIL=
200606010300 METAR MRLM NIL=
200606010400 METAR MRLM NIL=
200606010500 METAR MRLM NIL=
200606010600 METAR MRLM NIL=
200606010700 METAR MRLM NIL=
200606010800 METAR MRLM NIL=
200606010900 METAR MRLM NIL=
200606011000 METAR MRLM NIL=
200606011100 METAR MRLM NIL=
200606011200 METAR MRLM NIL=
200606011300 METAR MRLM NIL=
200606011400 METAR MRLM NIL=
200606011500 METAR MRLM 011500Z 26005KT 9999 FEW007 BKN025 26/24 A2986 RMK CB RN DST QUAD N E=
200606011600 METAR MRLM 011600Z 29006KT 9999 FEW012 BKN025 26/24 A2986 RMK 8000 NE E VCSH TCU DST NE E=
200606011700 METAR MRLM 011700Z 06012KT 5000 RA OVC008 25/24 A2986=
200606011800 METAR MRLM 011800Z 05007KT 6000 +DZ SCT006 OVC090 25/23 A2986=
200606011900 METAR MRLM 011900Z 02007KT 9999 -DZ SCT010 OVC090 25/23 A2984 RMK HZY=
200606012000 METAR MRLM NIL=
200606012100 METAR MRLM 012100Z 23007KT 9999 FEW016 BKN100 26/23 A2979 RMK CB RN DST N NE E ESE DZ SW W=
200606012200 METAR MRLM 012200Z VRB03KT CAVOK 28/23 A2979=
200606012300 METAR MRLM 012300Z 00000KT CAVOK 27/23 A2998=
200606020000 METAR MRLM NIL=
200606020100 METAR MRLM NIL=
200606020200 METAR MRLM NIL=
200606020300 METAR MRLM NIL=
200606020400 METAR MRLM NIL=
200606020500 METAR MRLM NIL=
200606020600 METAR MRLM NIL=
200606020700 METAR MRLM NIL=
200606020800 METAR MRLM NIL=
200606020900 METAR MRLM NIL=
200606021000 METAR MRLM NIL=
200606021100 METAR MRLM NIL=
200606021200 METAR MRLM NIL=
200606021300 METAR MRLM 021300Z 24005KT CAVOK 24/21 A2984 RMK FEW100 BKN240=
200606021400 METAR MRLM 021400Z 22006KT 9999 FEW028 BKN120 27/22 A2986 HZY=
200606021500 METAR MRLM 021500Z 25005KT 9999 FEW028 SCT120 BKN240 29/23 A2988 RMK RN DST NE HZ LGT ARND=
200606021600 METAR MRLM 021600Z 29008KT 9999 FEW028 SCT120 BKN240 30/24 A2987 RMK TCU NE HZY=
200606021700 METAR MRLM NIL=
200606021800 METAR MRLM NIL=
200606021900 METAR MRLM NIL=
200606022000 METAR MRLM NIL=
200606022100 METAR MRLM NIL=
200606022200 METAR MRLM NIL=
200606022300 METAR MRLM NIL=
200606030000 METAR MRLM 030000Z 30008KT 9999 FEW024 BKN240 28/24 A2978=
200606030100 METAR MRLM NIL=
200606030200 METAR MRLM NIL=
200606030300 METAR MRLM NIL=
200606030400 METAR MRLM NIL=
200606030500 METAR MRLM NIL=
200606030600 METAR MRLM NIL=
200606030700 METAR MRLM NIL=
200606030800 METAR MRLM NIL=
200606030900 METAR MRLM NIL=
200606031000 METAR MRLM NIL=
200606031100 METAR MRLM NIL=
200606031200 METAR MRLM NIL=
200606031300 METAR MRLM 031300Z 00000KT 9999 FEW028 BKN0090 25/23 A2985=
200606031400 METAR MRLM 031400Z 23003KT 9999 FEW028 BKN090 27/24 A2986=
200606031500 METAR MRLM 031500Z 02003KT 9999 FEW028 BKN090 29/24 A2988=
200606031700 METAR MRLM 031700Z 01007KT 9999 FEW025 BKN250 29/24 A2983=
200606031900 METAR MRLM 031900Z 01007KT 9999 FEW026 SCT090 BKN250 29/24 A2979 RMK CB RASH SSW=
200606032000 METAR MRLM NIL=
200606032100 METAR MRLM 032100Z 33010KT 9999 -DZ FEW024 BKN090 28/24 A2976 RMK CB S SW=
200606032200 METAR MRLM 032200Z 28003KT 9999 SCT028 SCT090 27/25 A2977 REDZ RMK CB SSW=
200606032300 METAR MRLM 032300Z 21004KT 9999 DZ SCT025 SCT090 27/25 A2979 RMK CB RN SE S SW=
200606040000 METAR MRLM 04000Z 19003KT 9999 +DZ FEW024 BKN080 25/24 A2981 CB DST SE S SW=
200606040100 METAR MRLM NIL=
200606040200 METAR MRLM NIL=
200606040300 METAR MRLM NIL=
200606040400 METAR MRLM NIL=
200606040500 METAR MRLM NIL=
200606040600 METAR MRLM NIL=
200606040700 METAR MRLM NIL=
200606040800 METAR MRLM NIL=
200606040900 METAR MRLM NIL=
200606041000 METAR MRLM NIL=
200606041100 METAR MRLM NIL=
200606041200 METAR MRLM NIL=
200606041300 METAR MRLM 041300Z 24005KT 9999 SCT025 SCT090 BKN140 24/23 A2982 RMK CB RN N=
200606041400 METAR MRLM 041400Z 27005KT 9999 FEW025 SCT100 BKN140 26/23 A2984 RMK CB RN N=
200606041500 METAR MRLM 041500Z 27007KT CAVOK 29/23 A2985=
200606041600 METAR MRLM 041600Z 31008KT 9999 FEW032 BKN140 29/23 A2983=
200606041700 METAR MRLM 041700Z 02508KT 9999 FEW037 SCT140 BKN270 30/23 A2980=
200606041800 METAR MRLM 041800Z 30007KT 9999 FEW038 SCT130 BKN270 31/24 A2978 RMK CB SE=
200606041900 METAR MRLM 041900Z 34011KT 9999 FEW027 BKN280 30/24 A2975 RMK CB S=
200606042000 METAR MRLM NIL=
200606042100 METAR MRLM 042100Z 01006KT 9999 FEW020 BKN280 29/25 A2971 CB S=
200606042200 METAR MRLM 042200Z 06007KT 9999 FEW024 BKN280 29/25 A2971 CB S=
200606042300 METAR MRLM 042300Z 09009KT 9999 FEW022 BKN280 29/25 A2976 CB RN S=
200606050000 METAR MRLM 050000Z 14006KT 9999 FEW020 BKN280 28/24 A2974 CB RN S W=
200606050100 METAR MRLM NIL=
200606050200 METAR MRLM NIL=
200606050300 METAR MRLM NIL=
200606050400 METAR MRLM NIL=
200606050500 METAR MRLM NIL=
200606050600 METAR MRLM NIL=
200606050700 METAR MRLM NIL=
200606050800 METAR MRLM NIL=
200606050900 METAR MRLM NIL=
200606051000 METAR MRLM NIL=
200606051100 METAR MRLM NIL=
200606051200 METAR MRLM NIL=
200606051300 METAR MRLM 051300Z 23004KT CAVOK 25/23 A2979=
200606051400 METAR MRLM 051400Z 09004KT CAVOK 29/24 A2980=
200606051500 METAR MRLM 051500Z 03004KT 9999 FEW030 OVC280 29/23 A2981=
200606051600 METAR MRLM 051600Z 05007KT 9999 FEW028 SCT150 BKN280 29/24 A2981=
200606051700 METAR MRLM 051700Z 05006KT 9999 FEW030 SCT140 BKN280 30/24 A2978 RMK CB SE S TCU SW=
200606051800 METAR MRLM 051800Z 03008KT 9999 FEW028 BKN280 30/24 A2976 CB SE S=
200606051900 METAR MRLM 051900Z 04007KT 9999 FEW028 BKN280 30/24 A2987 RMK CB S RN SW=
200606052000 METAR MRLM NIL=
200606052100 METAR MRLM 052100Z 10010KT 9999 FEW030 SCT140 BKN280 30/24 A2971 RMK CB RN DST QUAD S W=
200606052200 METAR MRLM 052200Z 11008KT 9999 FEW027 SCT140 BKN280 29/24 A2970 RMK CB RN DST S W=
200606052300 METAR MRLM 052300Z 14006KT 9999 FEW022 SCT110 BKN150 28/24 A2971 RMK RN CB DST QUAD S W=
200606060000 METAR MRLM 060000Z 00000KT CAVOK 28/24 A2972 RMK CB DST QUAD S W=
200606060100 METAR MRLM NIL=
200606060200 METAR MRLM NIL=
200606060300 METAR MRLM NIL=
200606060400 METAR MRLM NIL=
200606060500 METAR MRLM NIL=
200606060600 METAR MRLM NIL=
200606060700 METAR MRLM NIL=
200606060800 METAR MRLM NIL=
200606060900 METAR MRLM NIL=
200606061000 METAR MRLM NIL=
200606061100 METAR MRLM NIL=
200606061200 METAR MRLM NIL=
200606061300 METAR MRLM 061300Z 20004KT CAVOK 25/24 A2978 RMK LEVE HZY=
200606061400 METAR MRLM 061400Z 17004KT CAVOK 27/24 A2979=
200606061500 METAR MRLM 061500Z 10008KT 9999 FEW028 BKN100 29/24 A2981=
200606061600 METAR MRLM 061600Z 08010KT 9999 FEW028 SCT100 BKN2500 30/24 A2981=
200606061700 METAR MRLM 061700Z 08007KT 9999 FEW028 SCT100 BKN250 30/23 A2979=
200606061800 METAR MRLM 061800Z 07008KT 9999 FEW028 BKN250 30/24 A2977 RMK CB DST WSW TCU DST SE S SW=
200606061900 METAR MRLM 061900Z 07008KT 9999 FEW024TCU BKN250 30/25 A2976 RMK LINEA CB RN DST ESE SE S SW WSW=
200606062000 METAR MRLM NIL=
200606062100 METAR MRLM 062100Z 14004KT 9999 SCT030 SCT230 29/24 A2973 RMK CB RN DST SE S SW W=
200606062200 METAR MRLM 062200Z 16003KT 9999 FEW030 SCT100 BKN230 28/24 A2972 RMK RN SE S SW W=
200606062300 METAR MRLM 062300Z 18003KT 9999 FEW030 BKN090 28/24 A2974=
200606070000 METRA MRLM NIL=
200606070100 METAR MRLM NIL=
200606070200 METAR MRLM NIL=
200606070300 METAR MRLM NIL=
200606070400 METAR MRLM NIL=
200606070500 METAR MRLM NIL=
200606070600 METAR MRLM NIL=
200606070700 METAR MRLM NIL=
200606070800 METAR MRLM NIL=
200606070900 METAR MRLM NIL=
200606071000 METAR MRLM NIL=
200606071100 METAR MRLM NIL=
200606071200 METAR MRLM NIL=
200606071300 METAR MRLM NIL=
200606071400 METAR MRLM 071400Z 19003KT CAVOK 27/24 A2982 RMK OVC120=
200606071500 METAR MRLM 071500Z 17003KT CAVOK 29/23 A2984 RMK BKN120 SCT250=
200606071600 METAR MRLM 071600Z 02006KT 9999 FEW030 BKN100 30/23 A2984=
200606071700 METAR MRLM 071700Z 01005KT 9999 FEW030 BKN100 29/23 A2985=
200606071800 METAR MRLM 071800Z 01003KT 9999 FEW030 BKN100 29/23 A2983=
200606071900 METAR MRLM 071900Z 01006KT 9999 FEW028 BKN100 30/24 A2982 RMK RN DST SSW W=
200606072000 METAR MRLM NIL=
200606072100 METAR MRLM 072100Z 03004KT 9999 FEW025 BKN090 29/24 A2976 RN DST S SW SW W=
200606072200 METAR MRLM 072200Z 02005KT 9999 SCT028 SCT090 29/24 A2977=
200606072300 METAR MRLM 072300Z 04005KT 9999 SCT025 SCT090 29/23 A2977 RMK RN DST SW W E=
200606080000 METAR MRLM 080000Z 06004KT 9999 FEW025 BKN090 29/23 A2979 RMK TCU RN DST E SE S SW W=
200606080100 METAR MRLM NIL=
200606080200 METAR MRLM NIL=
200606080300 METAR MRLM NIL=
200606080400 METAR MRLM NIL=
200606080500 METAR MRLM NIL=
200606080600 METAR MRLM NIL=
200606080700 METAR MRLM NIL=
200606080800 METAR MRLM NIL=
200606080900 METAR MRLM NIL=
200606081000 METAR MRLM NIL=
200606081100 METAR MRLM NIL=
200606081200 METAR MRLM NIL=
200606081300 METAR MRLM 081300Z VRB03KT 9999 SCT025 SCT120 25/24 A2986 RMK CB RN DST NE E HZ ARND=
200606081400 METAR MRLM 081400Z 20004KT CAVOK 28/24 A2987 RMK CB DST NE E=
200606081500 METAR MRLM 081500Z 05004KT 9999 FEW025 SCT120 BKN280 29/24 A2988 RMK CB RN DST E HZ ARND=
200606081600 METAR MRLM 081600Z 08005KT 9999 FEW026 SCT140 BKN270 29/24 A2987 RMK CB RN DST NE E HZ ARND=
200606081700 METAR MRLM 081700Z 10008KT 9999 FEW030 BKN140 29/23 A2987 RMK RN DST NE E=
200606081800 METAR MRLM 081800Z 11011KT 9999 SCT030 BKN120 30/24 A3005 RMK RN DST E S W=
200606081900 METAR MRLM 081900Z 11013KT 9999 FEW028 SCT120 BKN150 29/24 A2982 RMK CB SW RN DST E=
200606082000 METAR MRLM NIL=
200606082200 METAR MRLM 082200Z 10014KT 9999 FEW016 BKN110 28/25 A2975 RMK CB SE=
200606082300 METAR MRLM 082300Z 09012KT 9999 FEW019 BKN120 28725 A2976 RMK CB S SW=
200606090000 METAR MRLM 090000Z 11009KT CAVOK 28/25 A2977 RMK CB LTNG DST NW=
200606090100 METAR MRLM NIL=
200606090200 METAR MRLM NIL=
200606090300 METAR MRLM NIL=
200606090400 METAR MRLM NIL=
200606090500 METAR MRLM NIL=
200606090600 METAR MRLM NIL=
200606090700 METAR MRLM NIL=
200606090800 METAR MRLM NIL=
200606090900 METAR MRLM NIL=
200606091000 METAR MRLM NIL=
200606091100 METAR MRLM NIL=
200606091200 METAR MRLM NIL=
200606091300 METAR MRLM 091300Z 00000KT CAVOK 27/24 A2982=
200606091400 METAR MRLM 091400Z 00000KT 9999 FEW030 SCT140 BKN280 30/24 A2984 RMK HZ ARND=
200606091600 METAR MRLM 091600Z 07008KT 9999 FEW026 SCT140 BKN280 30/25 A2984=
200606091700 METAR MRLM 091700Z 09010KT 9999 FEW030 SCT140 BKN280 30/24 A2983 RMK TCU N=
200606091800 METAR MRLM 091800Z 08012KT 9999 FEW030 SCT150 BKN280 30/24 A2982 RMK CB S SW=
200606091900 METAR MRLM 091900Z 08012KT 9999 FEW032 BKN140 30/24 A2979 RMK CB DST S SW=
200606092000 METAR MRLM 092000Z 08012KT 9999 FEW032 BKN140 30/24 A2979 RMK CB DST S SW=
200606092100 METAR MRLM 092100Z 07010KT 9999 SCT030 BKN280 30/24 A2974 CB SE S SW W=
200606092200 METAR MRLM 092200Z 08007KT 9999 SCT027 SCT140 BKN280 30/25 A2975 CB S W=
200606092300 METAR MRLM 092300Z 10009KT 9999 FEW024 OVC280 29/25 A2975 CB S W=
200606100000 METAR MRLM 100000Z 12008KT 9999 BKN022 SCT280 29/24 A2978 CB RN S W=
200606100100 METAR MRLM NIL=
200606100200 METAR MRLM NIL=
200606100300 METAR MRLM NIL=
200606100400 METAR MRLM NIL=
200606100500 METAR MRLM NIL=
200606100600 METAR MRLM NIL=
200606100700 METAR MRLM NIL=
200606100800 METAR MRLM NIL=
200606100900 METAR MRLM NIL=
200606101000 METAR MRLM NIL=
200606101100 METAR MRLM NIL=
200606101200 METAR MRLM NIL=
200606101300 METAR MRLM 101300Z 18004KT 9999 SCT040 BKN090 24/23 A2980 CB RN NE E=
200606101400 METAR MRLM 101400Z 18003KT 9999 +DZ FEW030 BKN090 24/23 A2982 RN NE E=
200606101500 METAR MRLM 101500Z 14003KT 9999 FEW028 SCT090 BKN200 25/24 A2984 REDZ=
200606101600 METAR MRLM 101600Z 10007KT 9999 FEW028 SCT090 BKN220 27/24 A2984 RMK TCU RN NW N NE=
200606101700 METAR MRLM 101700Z 11014KT 9999 FEW025 SCT100 28/23 A2983 CB RN NW N NE=
200606101800 METAR MRLM 101800Z 11013KT 9999 FEW025 BKN100 29/24 A2981 RN NW=
200606101900 METAR MRLM 101900Z 10012KT 9999 SCT025 BKN090 29/25 A2980=
200606102000 METAR MRLM NIL=
200606102100 METAR MRLM 102100Z 08015KT 9999 BKN035 SCT090 28/24 A2976=
200606102200 METAR MRLM 102200Z 09015KT 9999 SCT020 BKN090 29/24 A2977 RMK RN DST SE S SSW=
200606102300 METAR MRLM 102300Z 10015KT 9999 SCT028 BKN090 28/23 A2978 RMK CB RN DST ARND=
200606110000 METAR MRLM 110000Z 16006KT 9999 BKN028 SCT090 27/23 A2979 RMK CB RN DST E SE S SW W=
200606110100 METAR MRLM NIL=
200606110200 METAR MRLM NIL=
200606110300 METAR MRLM NIL=
200606110400 METAR MRLM NIL=
200606110500 METAR MRLM NIL=
200606110600 METAR MRLM NIL=
200606110700 METAR MRLM NIL=
200606110800 METAR MRLM NIL=
200606110900 METAR MRLM NIL=
200606111000 METAR MRLM NIL=
200606111100 METAR MRLM NIL=
200606111200 METAR MRLM NIL=
200606111300 METAR MRLM 111300Z 20004KT 9999 FEW028 SCT250 24/23 A2983=
200606111400 METAR MRLM 111400Z 18004KT 9999 FEW030 SCT300 28/24 A2983=
200606111500 METAR MRLM 111500Z 06007KT 9999 FEW030 SCT300 28/23 A2983=
200606111600 METAR MRLM 111600Z 07008KT 9999 FEW030 SCT300 29/24 A2984=
200606111700 METAR MRLM 111700Z 06006KT 9999 FEW028 BKN300 29/24 A2983=
200606111800 METAR MRLM 111800Z 01008KT 9999 FEW028 SCT300 29/23 A2982 RMK TCU RN DST SSW=
200606111900 METAR MRLM 111900Z 01007KT 9999 FEW028 SCT300 30/23 A2980 RMK TCU DST SSW SW=
200606112000 METAR MRLM NIL=
200606112100 METAR MRLM NIL=
200606112200 METAR MRLM 112200Z 06005KT 9999 SCT030 BKN300 29/23 A2978 RMK CB RN DST SSW=
200606112300 METAR MRLM 112300Z 07006KT 9999 SCT030 BKN300 29/23 A2978=
200606120000 METAR MRLM 120000Z 07003KT 9999 FEW015 BKN300 28/24 A2979 RMK TCU DST SE SW W RN SW W=
200606120023 METAR MRLM 120023Z 21005KT 9999 FEW028 BKN240 24/23 A2979 CB DIST WNW NW N. RN WNW N. TS N. HZ ARND=
200606120100 METAR MRLM NIL=
200606120200 METAR MRLM NIL=
200606120300 METAR MRLM NIL=
200606120400 METAR MRLM NIL=
200606120500 METAR MRLM NIL=
200606120600 METAR MRLM NIL=
200606120700 METAR MRLM NIL=
200606120800 METAR MRLM NIL=
200606120900 METAR MRLM NIL=
200606121000 METAR MRLM NIL=
200606121100 METAR MRLM NIL=
200606121200 METAR MRLM NIL=
200606121300 METAR MRLM 121300Z 21004KT 9999 SCT028 SCT250 23/22 A2985 RMK CB N NE SE=
200606121400 METAR MRLM 121400Z 04004KT 9999 SCT028 SCT250 25/23 A2986 RMK CB RN DST NNW=
200606121500 METAR MRLM 121500Z 02004KT 9999 FEW025 BKN250 28/23 A2986 RMK CB DST E=
200606121600 METAR MRLM 121600Z 33005KT 9999 FEW025 BKN250 29/23 A2985 TCU RN NE=
200606121700 METAR MRLM 121700Z 03006KT 9999 FEW025 BKN250 29/24 A2984 RMK TCU SW=
200606121800 METAR MRLM 121800Z 02007KT 9999 FEW025 BKN250 30/24 A2982 RMK TCU DST ARND=
200606121900 METAR MRLM 121900Z 01008KT 9999 FEW025 BKN250 29/24 A2979 RMK CB DST S SW=
200606122000 METAR MRLM NIL=
200606122100 METAR MRLM NIL=
200606122200 METAR MRLM NIL=
200606122300 METAR MRLM NIL=
200606130000 METAR MRLM 130000Z 36003KT 9999 SCT025 BKN250 28/24 A2977=
200606130100 METAR MRLM NIL=
200606130200 METAR MRLM NIL=
200606130300 METAR MRLM NIL=
200606130400 METAR MRLM NIL=
200606130500 METAR MRLM NIL=
200606130600 METAR MRLM NIL=
200606130700 METAR MRLM NIL=
200606130800 METAR MRLM NIL=
200606130900 METAR MRLM NIL=
200606131000 METAR MRLM NIL=
200606131100 METAR MRLM NIL=
200606131200 METAR MRLM NIL=
200606131300 METAR MRLM 131300Z 00000KT 9999 FEW030 SCT250 25/24 A2981=
200606131400 METAR MRLM 131400Z 20004KT 9999 FEW030 SCT250 28/24 A2980=
200606131500 METAR MRLM 131500Z 02006KT 9999 FEW030 SCT250 29/24 A29982 RMK CB NW=
200606131600 METAR MRLM 131600Z 36006KT 9999 FEW030 SCT120 BKN250 30/25 A2981=
200606131700 METAR MRLM 131700Z 36010KT 9999 FEW028 BKN250 30/24 A2981=
200606131800 METAR MRLM 131800Z 36008KT 9999 FEW028 BKN250 30/25 A2979=
200606131900 METAR MRLM 131900Z 01006KT 9999 FEW028 BKN250 30/24 A2976 RMK CB W SW=
200606132000 METAR MRLM NIL=
200606132100 METAR MRLM 132100Z 02006KT 9999 FEW025 BKN250 30/24 A2971 CB DST S=
200606132200 METAR MRLM 132200Z 35008KT 9999 FEW025 BKN250 30/24 A2972=
200606132300 METAR MRLM 132300Z 36008KT 9999 SCT030 BKN250 29/24 A2974=
200606140000 METAR MRLM 140000Z 36007KT 9999 SCT030 SCT250 29/25 A2974 CB RN DST S SW W=
200606140100 METAR MRLM NIL=
200606140200 METAR MRLM NIL=
200606140300 METAR MRLM NIL=
200606140400 METAR MRLM NIL=
200606140500 METAR MRLM NIL=
200606140600 METAR MRLM NIL=
200606140700 METAR MRLM NIL=
200606140800 METAR MRLM NIL=
200606140900 METAR MRLM NIL=
200606141000 METAR MRLM NIL=
200606141100 METAR MRLM NIL=
200606141200 METAR MRLM NIL=
200606141300 METAR MRLM 141300Z 21005KT 9999 FEW030 BKN090 25/24 A2983 REDZ CB RN N NE ENE=
200606141400 METAR MRLM 141400Z 20005KT 9999 FEW030 BKN100 27/24 A2983 CB RN N NE ENE/TS NE=
200606141500 METAR MRLM 141500Z 28003KT 9999 FEW030 BKN100 28/25 A2984 CB RN N NE E/TS NE=
200606141600 METAR MRLM 141600Z 22003KT 9999 FEW030 BKN250 30/24 A2982 CB RN DST NW N=
200606141700 METAR MRLM 141700Z 02009KT 9999 FEW030 BKN250 30/24 A2982 CB DST N=
200606141800 METAR MRLM 141800Z 01009KT 9999 FEW026 BKN250 30/24 A2982 CB DST NW N NE TCU SE=
200606141900 METAR MRLM 141900Z 01011KT 9999 FEW026 BKN250 30/24 A2979 CB DST ARND=
200606142000 METAR MRLM NIL=
200606142100 METAR MRLM 142100Z 36009KT 9999 SCT026 BKN250 29/25 A2978 RMK CB S SW W RN SW=
200606142200 METAR MRLM 142200Z 35005KT 9999 SCT024 BKN250 29/25 A2978 RMK CB RN SE S SW W=
200606142300 METAR MRLM 142300Z 21006KT 9999 SCT024 BKN100 28/25 A2980 CB/RN SE S SW W=
200606150000 METAR MRLM 150000Z 15004KT 9999 SCT022 BKN090 27/24 A2980 CB RN E SE S SW W=
200606150100 METAR MRLM NIL=
200606150200 METAR MRLM NIL=
200606150300 METAR MRLM NIL=
200606150400 METAR MRLM NIL=
200606150500 METAR MRLM NIL=
200606150600 METAR MRLM NIL=
200606150700 METAR MRLM NIL=
200606150800 METAR MRLM NIL=
200606150900 METAR MRLM NIL=
200606151000 METAR MRLM NIL=
200606151100 METAR MRLM NIL=
200606151200 METAR MRLM 151200Z 22005KT 9999 FEW024 BKN090 23/22 A2982 RMK CB RN DST NW N NE ENE=
200606151300 METAR MRLM 151300Z 27005KT 9999 SCT022 SCT040 25/23 A2986 RMK CB/RN DST NW/ N/NE HZ ARND=
200606151400 METAR MRLM 151400Z 26005KT 9999 BKN030 SCT090 25/23 A2989 RN NW N NE=
200606151500 METAR MRLM 151500Z 28006KT 9999 -DZ FEW030 BKN080 26/22N A2990 RMK RN NW N NE SE=
200606151600 METAR MRLM 151600Z 26010KT 9999 FEW030 BKN080 28/24 A2989 REDZ RN ARND=
200606151700 METAR MRLM 151700Z 23008KT 9999 FEW030 BKN100 30/23 A2986 RN NW N=
200606151800 METAR MRLM 151800Z 36008KT 9999 FEW030 BKN240 29/24 A2983=
200606151900 METAR MRLM 151900Z 36010KT 9999 FEW030 BKN1240 28/24 A2981=
200606152000 METAR MRLM NIL=
200606152100 METAR MRLM 152100Z 35010KT 9999 FEW028 BKN120 29/23 A2979=
200606152200 METAR MRLM 152200Z 33010KT 9999 FEW028 SCT120 BKN240 29/23 A2979=
200606152300 METAR MRLM 152300Z 31009KT 9999 FEW025 BKN240 29/23 A2980=
200606160000 METAR MRLM 160000Z 28005KT 9999 FEW030 BKN240 27/23 A2981=
200606160100 METAR MRLM NIL=
200606160200 METAR MRLM NIL=
200606160300 METAR MRLM NIL=
200606160400 METAR MRLM NIL=
200606160500 METAR MRLM NIL=
200606160600 METAR MRLM NIL=
200606160700 METAR MRLM NIL=
200606160800 METAR MRLM NIL=
200606160900 METAR MRLM NIL=
200606161000 METAR MRLM NIL=
200606161100 METAR MRLM NIL=
200606161200 METAR MRLM NIL=
200606161300 METAR MRLM 161300Z 26006KT CAVOK 24/22 A2982 RMK BKN090=
200606161400 METAR MRLM 161400Z 17003KT CAVOK 25/23 A2983 RMK BKN090=
200606161500 METAR MRLM 161500Z 35004KT CAVOK 27/23 A2984=
200606161600 METAR MRLM 161600Z 28007KT CAVOK 30/23 A2983=
200606161700 METAR MRLM 161700Z 31011KT 9999 FEW030 BKN250 31/23 A2982=
200606161800 METAR MRLM 161800Z 35012KT 9999 FEW030 BKN250 31/25 A2979=
200606161900 METAR MRLM 161900Z 36012KT 9999 FEW030 BKN250 30/24 A2979=
200606162000 METAR MRLM NIL=
200606162100 METAR MRLM 162100Z 01005KT 9999 FEW028 BKN240 30/24 A2975 RMK CB DST SE S SW W RN SW=
200606162200 METAR MRLM 162200Z 01006KT 9999 FEW025 BKN240 29/24 A2975 RMK CB DST SW=
200606162300 METAR MRLM 162300Z 02006KT 9999 FEW030 BKN240 29/24 A2975=
200606170000 METAR MRLM 170000Z 02005KT 9999 FEW028 BKN240 28/25 A2977=
200606170100 METAR MRLM NIL=
200606170200 METAR MRLM NIL=
200606170300 METAR MRLM NIL=
200606170400 METAR MRLM NIL=
200606170500 METAR MRLM NIL=
200606170600 METAR MRLM NIL=
200606170700 METAR MRLM NIL=
200606170800 METAR MRLM NIL=
200606170900 METAR MRLM NIL=
200606171000 METAR MRLM NIL=
200606171100 METAR MRLM NIL=
200606171200 METAR MRLM 171200Z 26003KT 9999 SCT026TCU SCT090 24/22 A2979 RMK CB RN NW N NE E=
200606171300 METAR MRLM 171300Z 22004KT 9999 SCT026 BKN080 25/24 A2982=
200606171400 METAR MRLM 171400Z 22003KT 9999 FEW023 BKN090 26/24 A2983 RMK CB/RN DST NW N NE E=
200606171500 METAR MRLM 171500Z 19004KT 9999 FEW030 SCT090 BKN220 26/25 A2984 RMK CB DST NW N NE E HZY=
200606171600 METAR MRLM 171600Z 01003KT 9999 SCT028 BKN050 28/24 A2986 CB LINE NW N NE E RN DST ARN D HZY=
200606171700 METAR MRLM 171700Z 14011KT 9999 -DZ FEW026CB BKN030 23/22 A2987 RMK RN DST ARBD TS DST NE S=
200606171800 METAR MRLM 171800Z 22006KT 9999 DZ SCT030 BKN090 23/22 A2984 RETS RMK CB DST WNW NW N RN ARND=
200606171900 METAR MRLM 171900Z 22004KT 9999 -DZ FEW030 BKN090 24/23 A2983=
200606172000 METAR MRLM NIL=
200606172100 METAR MRLM 172100Z 28008KT 9999 FEW028 BKN090 27/24 A2980 REDZ RMK CB E RN ARND=
200606172200 METAR MRLM 172200Z 28006KT 9999 SCT028 BKN080 27/24 A2979 RMK RN ARND=
200606172300 METAR MRLM 172300Z 30005KT 9999 BKN028 SCT080 26/24 A2982=
200606180000 METAR MRLM 180000Z 24003KT 9999 SCT028 SCT080 26724 A2981=
200606180100 METAR MRLM NIL=
200606180200 METAR MRLM NIL=
200606180300 METAR MRLM NIL=
200606180400 METAR MRLM NIL=
200606180500 METAR MRLM NIL=
200606180600 METAR MRLM NIL=
200606180700 METAR MRLM NIL=
200606180800 METAR MRLM NIL=
200606180900 METAR MRLM NIL=
200606181000 METAR MRLM NIL=
200606181100 METAR MRLM NIL=
200606181200 METAR MRLM 181200Z 30003KT CAVOK 24/23 A2995 RMK SCT080 HZ ARND=
200606181300 METAR MRLM 181300Z 21004KT CAVOK 29/23 A2984=
200606181400 METAR MRLM 181400Z 23003KT CAVOK 28/24 A2985=
200606181500 METAR MRLM 181500Z 02005KT 9999 FEW030 SCT280 29/24 A2986=
200606181600 METAR MRLM 181600Z 36006KT 9999 FEW030 SCT250 29/24 A2984=
200606181700 METAR MRLM 181700Z 00000KT 9999 SCT035 28/24=
200606181800 METAR MRLM 181800Z 03007KT 9999 FEW028 SCT100 29/25 A2983=
200606181900 METAR MRLM 181900Z 03007KT 9999 FEW028 SCT100 30/25 A2982=
200606182200 METAR MRLM 182200Z 04006KT 9999 SCT028 BKN250 30/25 A2979 HZ ARND=
200606190000 METAR MRLM 190000Z 01004KT 9999 FEW028 BKN250 29/25 A2979 HZ=
200606190100 METAR MRLM NIL=
200606190200 METAR MRLM NIL=
200606190300 METAR MRLM NIL=
200606190400 METAR MRLM NIL=
200606190500 METAR MRLM NIL=
200606190600 METAR MRLM NIL=
200606190700 METAR MRLM NIL=
200606190800 METAR MRLM NIL=
200606190900 METAR MRLM NIL=
200606191000 METAR MRLM NIL=
200606191100 METAR MRLM NIL=
200606191200 METAR MRLM NIL=
200606191300 METAR MRLM 191300Z 22004KT 9999 FEW026TCU BKN240 24/22 A2985 CB RN DST NW N NE E TS NE HZ=
200606191400 METAR MRLM 191400Z 21005KT 9999 FEW026 BKN240 27/24 A2985 CB RN DST NW N NE HZ=
200606191500 METAR MRLM 191500Z 05005KT 9999 FEW030 BKN080 28/24 A2988 CB DST E RN N NE SE HZ=
200606191600 METAR MRLM 191600Z 05004KT 9999 FEW030 BKN090 28/24 A2988 REDZ CB RN DST N/NE HZ=
200606191700 METAR MRLM 191700Z 09006KT 9999 FEW030 BKN230 29/25 A2986 CB RN DST NW E SE HZ=
200606191800 METAR MRLM 191800Z 10009KT 9999 FEW028 BKN230 29/25 A2985 CB DST NW N NE TS RN NE=
200606191900 METAR MRLM 191900Z 09011KT 9999 FEW028 SCT090 BKN230 29/24 A2984 CB DST N NE E=
200606192000 METAR MRLM NIL=
200606192100 METAR MRLM 192100Z 07007KT 9999 FEW025 BKN220 29/23 A2996=
200606192200 METAR MRLM 192200Z 07006KT 9999 FEW030 BKN220 29/23 A2978=
200606192300 METAR MRLM 192300Z 02003KT 9999 FEW030 SCT090 BKN220 28/23 A2977=
200606200000 METAR MRLM 200000Z 04003KT CAVOK 28/24 A2978=
200606200100 METAR MRLM NIL=
200606200200 METAR MRLM NIL=
200606200300 METAR MRLM NIL=
200606200400 METAR MRLM NIL=
200606200500 METAR MRLM NIL=
200606200600 METAR MRLM NIL=
200606200700 METAR MRLM NIL=
200606200800 METAR MRLM NIL=
200606200900 METAR MRLM NIL=
200606201000 METAR MRLM NIL=
200606201100 METAR MRLM NIL=
200606201200 METAR MRLM NIL=
200606201300 METAR MRLM 201300Z 26005KT 9999 FEW024 BKN050 25/22 A2983 CB/RN DST NW/N/NE/E HZY=
200606201400 METAR MRLM 201400Z 28010KT 9999 DZ SCT018 BKN030 25/24 A2983 RERA CB NW N SE RN ARND=
200606201500 METAR MRLM 201500Z 24007KT 9999 SCT026 BKN080 25/23 A2986 REDZ RMK CB NW NE E TSTM NE RN ARND=
200606201600 METAR MRLM 201600Z 25008KT 9999 SCT024 SCT045 27/24 A2986 RN ARND CB NW N NE=
200606201700 METAR MRLM 201700Z 30010KT 9999 -DZ BKN030 SCT080 26/23 A2988 RN ARND CB W NW N NE=
200606201800 METAR MRLM 201800Z 26008KT 9999 -DZ SCT028 BKN080 25/23 A2985 RMK RN ARND CB W NW N=
200606201900 METAR MRLM 201900Z 24010KT 9999 FEW025 BKN090 27/23 A2982 REDZ RMK CB RN W NW N NE=
200606202000 METAR MRLM NIL=
200606202100 METAR MRLM 202100Z 29007KT 9999 FEW030 BKN090 29/22 A2976 RMK CB RN DST SE=
200606202200 METAR MRLM 202200Z 30007KT 9999 FEW030 BKN090 29/23 A2977 RMK LINEA CB RN DST NW N NE=
200606202300 METAR MRLM 202300Z 30005KT 9999 FEW030 BKN090 28/23 A2981 RMK CB RN DST NW N NE SE=
200606210000 METAR MRLM 210000Z 33006KT 9999 -DZ FEW025 BKN090 28/24 A2982 RMK CB RN DST NW N NE E=
200606210100 METAR MRLM NIL=
200606210200 METAR MRLM NIL=
200606210300 METAR MRLM NIL=
200606210400 METAR MRLM NIL=
200606210500 METAR MRLM NIL=
200606210600 METAR MRLM NIL=
200606210700 METAR MRLM NIL=
200606210800 METAR MRLM NIL=
200606210900 METAR MRLM NIL=
200606211000 METAR MRLM NIL=
200606211100 METAR MRLM NIL=
200606211200 METAR MRLM NIL=
200606211300 METAR MRLM 211300Z 30004KT 9999 SCT040 SCT250 24/23 A2982 RMK RN DST NE LEVE HZY=
200606211400 METAR MRLM 211400Z 25005KT 9999 SCT040 BKN080 25/24 A2983 RMK HZY=
200606211500 METAR MRLM 211500Z 28005KT 9999 FEW030 BKN090 28/23 A2986 RMK CB RN DST N NE E HZY=
200606211600 METAR MRLM 211600Z 30005KT 9999 BKN035 28/23 A2987 RMK CB RN DST N NE E SE HZY=
200606211700 METAR MRLM 211700Z 34009KT 9999 SCT030 BKN090 27/24 A2988 RMK RN DST ARND CB DST N NE E SE HZY=
200606211800 METAR MRLM 211800Z 18005KT 9999 -DZ SCT030 BKN090 27/25 A2986 RMK CB RN DST N NE E SE HZY=
200606211900 METAR MRLM 211900Z 17003KT 9999 SCT030 SCT090 27/24 A2983 REDZ RMK HZY RN DST ARND CB DST NE E SE=
200606212000 METAR MRLM NIL=
200606212100 METAR MRLM 212100Z 15003KT 9999 -DZ FEW030 BKN090 27/24 A2980 RMK RN DST ARND=
200606212200 METAR MRLM 212200Z 22003KT 9999 FEW040 BKMN100 27/25 2979 REDZ RMK RN ENE HZY=
200606212300 METAR MRLM 212300Z 00000KT CAVOK 27/25 A2976 SCT090 BKN220 HZY=
200606220000 METAR MRLM 220000Z 00000KT 9999 FEW026 SCT090 BKN220 27/25 A2976 HZY=
200606220100 METAR MRLM NIL=
200606220200 METAR MRLM NIL=
200606220300 METAR MRLM NIL=
200606220400 METAR MRLM NIL=
200606220500 METAR MRLM NIL=
200606220600 METAR MRLM NIL=
200606220700 METAR MRLM NIL=
200606220800 METAR MRLM NIL=
200606220900 METAR MRLM NIL=
200606221000 METAR MRLM NIL=
200606221100 METAR MRLM NIL=
200606221200 METAR MRLM 221200Z 2304KT CAVOK 23/22 A2980 CB DST NW N NE=
200606221300 METAR MRLM NIL=
200606221400 METAR MRLM 221400Z 00000KT CAVOK 25/23 A2983 RMK BKN240 CB DST N NE HZY=
200606221500 METAR MRLM 221500Z 26006KT CAVOK 28/23 A2985 RMK RMK BKN240 CB NW N HZY=
200606221600 METAR MRLM 221600Z 28006KT CAVOK 30/23 A2984 RMK SCT100 SCT240 HZY=
200606221700 METAR MRLM 221700Z 33006KT 9999 FEW030 SCT100 BKN240 30/24 A2983 RMK HZY=
200606221800 METAR MRLM 221800Z 36010KT 9999 FEW030 BKN250 30/25 A2982 RMK HZY=
200606221900 METAR MRLM 221900Z 01007KT 9999 FEW030 BKN250 30/24 A2979 RMK HZY=
200606222000 METAR MRLM NIL=
200606222100 METAR MRLM 222100Z 36010KT 9999 FEW030 BKN250 30/25 A2974 RMK HZ LEVE ARND=
200606222200 METAR MRLM 222200Z 35007KT 9999 FEW028 BKN250 29/25 A2975 RMK CB RN SE SW W=
200606222300 METAR MRLM 222300Z 35007KT 9999 SCT028 BKN250 29/25 A2977=
200606230000 METAR MRLM 230000Z 34008KT 9999 BKN030 29/25 A2980 RMK CB RN SW W=
200606230100 METAR MRLM NIL=
200606230200 METAR MRLM NIL=
200606230300 METAR MRLM NIL=
200606230400 METAR MRLM NIL=
200606230500 METAR MRLM NIL=
200606230600 METAR MRLM NIL=
200606230700 METAR MRLM NIL=
200606230800 METAR MRLM NIL=
200606230900 METAR MRLM NIL=
200606231000 METAR MRLM NIL=
200606231100 METAR MRLM NIL=
200606231200 METAR MRLM 21005KT 9999 FEW028 BKN240 24/23 A2979 CB DIST WNW NW N. RN WNW N. TS N. HZ ARND.=
200606231300 METAR MRLM 231300Z 22004KT 9999 FEW028 BKN240 26/24 A2981 CB RN W NW=
200606231400 METAR MRLM 231400Z 28006KT CAVOK 29/24 A2982=
200606231500 METAR MRLM 231500Z 30012KT 9999 FEW030 BKN240 29/24 A2984 RMK CB NW N NE=
200606231600 METAR MRLM 231600Z 29007KT 9999 FEW028 BKN240 29/25 A2984=
200606231700 METAR MRLM 231700Z 28008KT 9999 FEW028 BKN240 31/24 A2984=
200606231800 METAR MRLM 231800Z 35008KT 9999 FEW028 BKN240 31/25 A2982=
200606231900 METAR MRLM 231900Z 35011KT 9999 FEW028 BKN240 31/25 A2980 RMK CB W NW TCU N=
200606232000 METAR MRLM NIL=
200606232100 METAR MRLM 232100Z 33011KT 9999 FEW028 BKN240 30725 A2979 CB DST S SW W RN/SW=
200606232200 METAR MRLM 232200Z 33011KT 9999 FEW028 BKN240 29/25 A2974 CB DST S W HZ ARND=
200606232300 METAR MRLM 232300Z 30009KT 9999 SCT028 BKN240 29/25 A2975 CB RN DST S SW W HZ=
200606240000 METAR MRLM 240000Z 28004KT 9999 BKN028 SCT240 28/25 A2977 CB DST SE S SW W=
200606240100 METAR MRLM NIL=
200606240200 METAR MRLM NIL=
200606240300 METAR MRLM NIL=
200606240400 METAR MRLM NIL=
200606240500 METAR MRLM NIL=
200606240600 METAR MRLM NIL=
200606240700 METAR MRLM NIL=
200606240800 METAR MRLM NIL=
200606240900 METAR MRLM NIL=
200606241000 METAR MRLM NIL=
200606241100 METAR MRLM NIL=
200606241200 METAR MRLM NIL=
200606241300 METAR MRLM 241300Z 24003KT 9999 FEW030 BKN080 25/24 A2979 TCU RN DST WNW NW ENE=
200606241400 METAR MRLM 241400Z 00000KT 9999 SCT030 SCT080 26/24 A2982 TCU RN DST ENE N NE E=
200606241500 METAR MRLM 241500Z 23006KT 9999 FEW030 SCT090 BKN240 26/25 A2982 REDZ CB/RN DST W=
200606241700 METAR MRLM 241700Z 29007KT 9999 FEW030 BKN240 31/25 A2980 CB DST NW E HZ ARND=
200606241800 METAR MRLM 241800Z 35011KT 9999 FEW030 BKN240 30/24 A2979 CB DST NW ENE HZ ARND=
200606241900 METAR MRLM 241900Z 34012KT 9999 FEW030 BKN240 30/25 A2977 RMK RN DIST E=
200606242000 METAR MRLM 242000Z 35007KT 9999 FEW030 BKN240 30/24 A2975 CB DST ARND HZY=
200606242100 METAR MRLM 242100Z 36008KT 9999 FEW028 SCT100 BKN240 30/25 A2974 CB ARND=
200606242200 METAR MRLM 242200Z 35008KT 9999 FEW028 BKN240 29/24 A2973 CB SE S SW W=
200606242300 METAR MRLM 242300Z 30010KT 9999 FEW030 BKN240 29/25 A2974 CB SE S SW W RN S SE=
200606250000 METAR MRLM 250000Z 30005KT 9999 FEW030 BKN240 28/25 A2975 RMK CB RN SE S SW W=
200606250100 METAR MRLM NIL=
200606250200 METAR MRLM NIL=
200606250300 METAR MRLM NIL=
200606250400 METAR MRLM NIL=
200606250500 METAR MRLM NIL=
200606250600 METAR MRLM NIL=
200606250700 METAR MRLM NIL=
200606250800 METAR MRLM NIL=
200606250900 METAR MRLM NIL=
200606251000 METAR MRLM NIL=
200606251100 METAR MRLM NIL=
200606251200 METAR MRLM 251200Z 22004KT 9999 FEW025 BKN250 24/23 A2977 RMK TCU N NE E=
200606251300 METAR MRLM 251300Z 23004KT 9999 FEW030 SCT250 26/24 A2979 RMK CB DST N/NE HZ ARND=
200606251400 METAR MRLM 251400Z 26006KT 9999 FEW030 SCT250 28/24 A2979=
200606251500 METAR MRLM 251500Z 30011KT 9999 FEW030 SCT300 29/23 A2980=
200606251600 METAR MRLM 251600Z 33011KT 9999 FEW028TCU SCT300 29/24 A3001=
200606251700 METAR MRLM 251700Z 31012KT 9999 FEW028 SCT120 BKN250 30/23 A2981 CB SE=
200606251800 METAR MRLM 251800Z 35010KT 9999 FEW026TCU BKN250 30/25 A2978 CB SE W=
200606252000 METAR MRLM NIL=
200606252100 METAR MRLM 252100Z 35007KT 9999 SCT028 BKN250 29/25 A2972 RMK CB RN DST S SW W=
200606252200 METAR MRLM 252200Z 31005KT 9999 BKN028 SCT250 29/25 A2973 RMK CB RN DST S SW W=
200606252300 METAR MRLM 252300Z 34005KT 9999 BKN028 SCT250 29/25 A2975 RMK CB SHRA DST S SW W=
200606260000 METAR MRLM 260000Z 35003KT 9999 BKN028 SCT250 28/25 A2976 RMK CB RN DST S SW W HZY=
200606260100 METAR MRLM NIL=
200606260200 METAR MRLM NIL=
200606260300 METAR MRLM NIL=
200606260400 METAR MRLM NIL=
200606260500 METAR MRLM NIL=
200606260600 METAR MRLM NIL=
200606260700 METAR MRLM NIL=
200606260800 METAR MRLM NIL=
200606260900 METAR MRLM NIL=
200606261000 METAR MRLM NIL=
200606261100 METAR MRLM NIL=
200606261200 METAR MRLM NIL=
200606261300 METAR MRLM 261300Z 23006KT 9999 SCT020 SCT090 24/23 A2978 RMK CB RN DST NW N NE HZY=
200606261400 METAR MRLM 261400Z 23005KT 9999 SCT020 BKN080 24/23 A2980 RMK CB SHRA DST WNW NW N LEVE HZY=
200606261500 METAR MRLM 261500Z 26004KT 9999 FEW020 SCT100 BKN240 25/24 A2979 RMK CB RN DST NW N LEVE HZY=
200606261600 METAR MRLM 261600Z 27010KT 9999 FEW030 BKN220 25/23 A2979 RMK RN DST NW N HZY LEVE=
200606261700 METAR MRLM 261700Z 28006KT 9999 FEW030 SCT100 BKN220 27/24 A2979 RMK RN DST NW W N=
200606261800 METAR MRLM 261800Z 27010KT 9999 FEW030 SCT090 BKN220 28/24 A2980 RMK RN DST NW=
200606261900 METAR MRLM 261900Z 29009KT 9999 FEW030 BKN220 29/24 A2977 RMK LEVE HZY=
200606262000 METAR MRLM NIL=
200606262100 METAR MRLM 262100Z 30014KT 9999 BKN030 SCT220 28/24 A2976=
200606262200 METAR MRLM 262200Z 30015KT 9999 FEW030 BKN220 28/24 A2973 RMK CB DST W=
200606262300 METAR MRLM 262300Z 27011KT 9999 FEW030 BKN220 27/24 A2973 RMK RN DST NE SW CB DST SE=
200606270000 METAR MRLM NIL=
200606270100 METAR MRLM NIL=
200606270200 METAR MRLM NIL=
200606270300 METAR MRLM NIL=
200606270400 METAR MRLM NIL=
200606270500 METAR MRLM NIL=
200606270600 METAR MRLM NIL=
200606270700 METAR MRLM NIL=
200606270800 METAR MRLM NIL=
200606270900 METAR MRLM NIL=
200606271000 METAR MRLM NIL=
200606271100 METAR MRLM NIL=
200606271200 METAR MRLM 271200Z 26003KT 9999 FEW030 SCT240 24/23 A2980=
200606271300 METAR MRLM 271300Z 28006KT 9999 FEW030 SCT100 27/24 A2980 RMK TCU DST NW HZ ARND=
200606271400 METAR MRLM 271400Z 26010KT CAVOK 28/24 A2979/RMK HZY SCT250=
200606271500 METAR MRLM 271500Z 30008KT CAVOK 30/24 A2981 RMK SCT250 HZY=
200606271600 METAR MRLM 271600Z 35011KT CAVOK 29/24 A2992 RMK CB DST E/W HZY BKN250=
200606271700 METAR MRLM 271700Z 36011KT 9999 FEW030 BKN090 29/25 A2983 RMK HZY=
200606271800 METAR MRLM NIL=
200606271900 METAR MRLM 271900Z 36011KT 9999 FEW025TCU BKN240 29/25 A2980=
200606272000 METAR MRLM NIL=
200606272100 METAR MRLM 272100Z 02006KT 9999 FEW025 SCT100 BKN240 29/25 A2975 RMK CB S E=
200606272200 METAR MRLM 272200Z 03006KT 9999 FEW025 BKN080 29/25 A2975=
200606272300 METAR MRLM 272300Z 06006KT 9999 SCT035 SCT080 29/25 A2977=
200606280000 METAR MRLM 280000Z 06005KT 9999 FEW025 BKN080 29/25 A2979=
200606280100 METAR MRLM NIL=
200606280200 METAR MRLM NIL=
200606280300 METAR MRLM NIL=
200606280400 METAR MRLM NIL=
200606280500 METAR MRLM NIL=
200606280600 METAR MRLM NIL=
200606280700 METAR MRLM NIL=
200606280800 METAR MRLM NIL=
200606280900 METAR MRLM NIL=
200606281000 METAR MRLM NIL=
200606281100 METAR MRLM NIL=
200606281200 METAR MRLM NIL=
200606281300 METAR MRLM 281300Z 31010KT 3000 TSRA FEW005CB BKN022 25/24 A2985=
200606281400 METAR MRLM 281400Z 19008KT 3000 TSRA FEW015CB BKN028 25/24 A2985=
200606281500 METAR MRLM 281500Z 14004KT 9999 DZ SCT028 BKN090 25/24 A2986 RMK CB W NW N RN ARND=
200606281600 METAR MRLM 281600Z 22004KT 9999 FEW030 BKN100 26/25 A2984 RMK CB RN W=
200606281700 METAR MRLM 281700Z 00000KT 9999 SCT030 SCT120 28/26 A2984 RMK HZ ARND=
200606281800 METAR MRLM 281800Z 05004KT 9999 SCT030 BKN220 29/25 A2983 RMK CB NE E RN ARND=
200606281900 METAR MRLM 281900Z 02006KT 9999 BKN030 SCT090 30/25 A2979 RMK CB E RN ARND=
200606282000 METAR MRLM NIL=
200606282100 METAR MRLM 282100Z 22004KT CAVOK 30/26 A2975 FEW090 BKN240 HZ ARND=
200606282200 METAR MRLM 282200Z 06004KT CAVOK 30/26 A2975 SCT090 BKN240 RN DST N NE HZY=
200606282300 METAR MRLM 282300Z 05005KT 9999 BKN045 29/25 A2976 HZY=
200606290000 METAR MRLM 290000Z 00000KT 9999 SCT045 SCT080 29/26 A2978 HZ ARND=
200606290100 METAR MRLM NIL=
200606290200 METAR MRLM NIL=
200606290300 METAR MRLM NIL=
200606290400 METAR MRLM NIL=
200606290500 METAR MRLM NIL=
200606290600 METAR MRLM NIL=
200606290700 METAR MRLM NIL=
200606290800 METAR MRLM NIL=
200606290900 METAR MRLM NIL=
200606291000 METAR MRLM NIL=
200606291100 METAR MRLM NIL=
200606291200 METAR MRLM 291200Z 19007KT 8000 DZ FEW018CB BKN028 25/24 A2980/ RMK RETSRA. CB DIST SE S=
200606291300 METAR MRLM 291300Z 18005KT 8000 -DZ BKN028 25/24 A2982 CB DST SE S RN ARND=
200606291400 METAR MRLM 291400Z 20005KT 8000 +DZ BKN028 25/24 A2983 CB ARND=
200606291500 METAR MRLM 291500Z 17009KT 9999 BKN028 SCT090 27/25 A2984 REDZ CB S SW W TCU RN HZ ARND=
200606291600 METAR MRLM 291600Z 17008KT 9999 SCT025 BKN250 29/24 A2982 CB DST S SW ENE RN HZ ARND=
200606291700 METAR MRLM 291700Z 10007KT 9999 BKN028TCU SCT080 29/25 A2982 CB DST S RN NE E S HZY=
200606291800 METAR MRLM 291800Z 07004KT 9999 SCT028TCU SCT080 30/25 A2980 CB RN ARND HZY=
200606291900 METAR MRLM 291900Z 01003KT 8000 -DZ BKN025 SCT080 26/25 A2979 RERA CB DST ARND=
200606292000 METAR MRLM NIL=
200606292100 METAR MRLM 292100Z 20005KT 9999 3000NW VCSH SCT025 SCT080 29/25 A2975 REDZ CB RN ARND=
200606292200 METAR MRLM 292200Z 35011KT 9999 TSRA FEW020CB BKN030 28/25 A2976 CB RN ARND=
200606292300 METAR MRLM 292300Z 04006KT 7000 -RA SCT025 SCT080 26/25 A2976 RETS CB RN ARND=
200606300000 METAR MRLM 300000Z 21003KT 7000 VCSH BKN024 SCT035 26/25 A2972=
200606300100 METAR MRLM NIL=
200606300200 METAR MRLM NIL=
200606300300 METAR MRLM NIL=
200606300400 METAR MRLM NIL=
200606300500 METAR MRLM NIL=
200606300600 METAR MRLM NIL=
200606300700 METAR MRLM NIL=
200606300800 METAR MRLM NIL=
200606300900 METAR MRLM NIL=
200606301000 METAR MRLM NIL=
200606301100 METAR MRLM NIL=
200606301200 METAR MRLM NIL=
200606301300 METAR MRLM 301300Z 23004KT 9999 BKN026 25/24 A2978 TCU RN ARND=
200606301400 METAR MRLM 301400Z 21005KT 4000 +DZ BKN026 25/25 A2980 TCU ARND=
200606301500 METAR MRLM 301500Z 13003KT 9999 3000E +DZ BKN026 27/26 A2980 TCU RN ARND=
200606301600 METAR MRLM 301600Z 01009KT 9999 2000SE -RA FEW018CB BKN028TCU 27/26 A2979 CB W E SE=
200606301700 METAR MRLM 301700Z 03012KT 9999 SCT028 SCT045 27/24 A2978 RERA CB RN ARND=
200606301800 METAR MRLM 301800Z 03015KT 9999 DZ BKN028 SCT080 27/25 A2978 CB NE SE SW=
200606301900 METAR MRLM 301900Z 14005KT 4000 RA BKN026 SCT080 26/25 A2976 CB ARND=
200606302000 METAR MRLM 302000Z 20007KT 7000 VCSH OVC025 26/25 A2973 CB NE=
200606302100 METAR MRLM 302100Z 14006KT 2000 TSRA FEW020CB BKN028 25/25 A2973 RMK TS SW TCU DST ARND=
200606302200 METAR MRLM 302200Z 20006KT 9999 3000N DZ OVC026 26/25 A2973 RMK NW N NE E TS DST NE=
200606302300 METAR MRLM 302300Z 28004KT 3000 -RA OVC026 26/25 A2974 RMK RN NW N NE E TS DST NE=
200607010000 METAR MRLM 010000Z 21004KT 3000 RA OVC026 25/25 A2975 RETS RMK RN NW N NE E TS DST NE=
200607010100 METAR MRLM NIL=
200607010200 METAR MRLM NIL=
200607010300 METAR MRLM NIL=
200607010400 METAR MRLM NIL=
200607010500 METAR MRLM NIL=
200607010600 METAR MRLM NIL=
200607010700 METAR MRLM NIL=
200607010800 METAR MRLM NIL=
200607010900 METAR MRLM NIL=
200607011000 METAR MRLM NIL=
200607011100 METAR MRLM NIL=
200607011200 METAR MRLM NIL=
200607011300 METAR MRLM 011300Z 19005KT 9999 SCT028 BKN080 26/25 A2979 RMK TCU DST ARND=
200607011400 METAR MRLM 011400Z 22004KT 8000 -RA BKN028 SCT080 28/25 A2981 RMK TCU HZ ARND=
200607011500 METAR MRLM 011500Z 20005KT 9999 SCT028TCU SCT080 28/26 A2980 RMK CB DST E SE S TCU RN HZ ARND=
200607011600 METAR MRLM 011600Z 12005KT 9999 -DZ SCT028 BKN080 29/25 A2981 RMK CB DST E SE HZY=
200607011700 METAR MRLM 011700Z 08005KT 9999 FEW028 SCT090 29/26 A2979=
200607011800 METAR MRLM 011800Z 08006KT 9999 FEW028 SCT090 30/25 A2979 RMK HZY=
200607011900 METAR MRLM 011900Z 07004KT 9999 FEW028 31/16 A2977 RMK HZY=
200607012000 METAR MRLM NIL=
200607012100 METAR MRLM 012100Z 04007KT 9999 FEW028 31/25 A2973 HZY=
200607012200 METAR MRLM 012200Z 04006KT 9999 FEW028 SCT230 30/25 A2973=
200607012300 METAR MRLM 012300Z 04009KT 9999 FEW028 BKN230 30/25 A2973=
200607020000 METAR MRLM 020000Z 03005KT 9999 FEW028 OVC230 29/25 A2974=
200607020100 METAR MRLM NIL=
200607020200 METAR MRLM NIL=
200607020300 METAR MRLM NIL=
200607020400 METAR MRLM NIL=
200607020500 METAR MRLM NIL=
200607020600 METAR MRLM NIL=
200607020700 METAR MRLM NIL=
200607020800 METAR MRLM NIL=
200607020900 METAR MRLM NIL=
200607021000 METAR MRLM NIL=
200607021100 METAR MRLM NIL=
200607021200 METAR MRLM NIL=
200607021300 METAR MRLM 021300Z 25004KT 9999 FEW025 BKN150 24/ // A2988 CB RN DIST W=
200607021400 METAR MRLM 021400Z 24004KT CAVOK 27/// A2986 RMK FEW110 OVC270 DZ DST SW HZY=
200607021500 METAR MRLM 021500Z 25004KT 9999 FEW020 OVC280 29/// A2985=
200607021600 METAR MRLM 021600Z 08004KT 9999 FEW025 BKN280 31/// A2985=
200607021700 METAR MRLM 021700Z 08006KT 9999 FEW025 SCT140 32/// A2985=
200607021800 METAR MRLM 021800Z 08005KT 9999 FEW025 SCT140 31/// A2984=
200607021900 METAR MRLM 021900Z 08005KT 9999 FEW025 SCT140 31/// A2984 RMK CB DST N NE E HZY=
200607022000 METAR MRLM NIL=
200607022100 METAR MRLM 022100Z 07005KT 9999 FEW025 BKN280 30/ND A2979 RMK CB NE S SW=
200607022200 METAR MRLM 022200Z 06004KT 9999 SCT025 SCT140 30/ND A2979 RMK CB S W=
200607022300 METAR MRLM 022300Z 07004KT 9999 FEW020 SCT110 BKN280 29/ND A2980=
200607030000 METAR MRLM 030000Z 00000KT 9999 FEW020 BKN280 28/11 A2981 RMK CB DST SW=
200607030100 METAR MRLM NIL=
200607030200 METAR MRLM NIL=
200607030300 METAR MRLM NIL=
200607030400 METAR MRLM NIL=
200607030500 METAR MRLM NIL=
200607030600 METAR MRLM NIL=
200607030700 METAR MRLM NIL=
200607030800 METAR MRLM NIL=
200607030900 METAR MRLM NIL=
200607031000 METAR MRLM NIL=
200607031100 METAR MRLM NIL=
200607031200 METAR MRLM NIL=
200607031300 METAR MRLM 031300Z 00000KT 9999 BKN020 SCT100 26/24 A2989 CB NW RN NE=
200607031400 METAR MRLM 031400Z VRB03KT 9999 FEW020 SCT110 BKN280 28/26 A2988 RMK CB RN S=
200607031500 METAR MRLM 031500Z 00000KT 9999 BKN020 SCT100 26/24 A2989 RMK CB RN NE=
200607031600 METAR MRLM 031600Z 06004KT 9999 SCT018 SCT100 29/25 A2988=
200607031700 METAR MRLM 031700Z 07005KT 9999 SCT022 SCT120 30/26 A2988=
200607031800 METAR MRLM 031800Z 05004KT 9999 FEW026 OVC280 30/25 A2987=
200607031900 METAR MRLM 031900Z 05005KT 9999 FEW025 OVC270 30/25 A2987=
200607032000 METAR MRLM 032000Z 09005KT 9999 FEW024 OVC270 31/26 A2982 CB DST N HZ ARND=
200607032100 METAR MRLM 032100Z 08005KT 9999 FEW025 OVC270 30/26 A2987 CB DST NW HZY=
200607032200 METAR MRLM 032200Z 03005KT 9999 FEW025 OVC270 30/26 A2979 CB DST NE E S HZ ARND=
200607032300 METAR MRLM 032300Z 10004KT 9999 FEW022 OVC270 30/26 A2981 HZ ARND=
200607040000 METAR MRLM 040000Z 10004KT 9999 FEW018 OVC270 29/26 A2981 TCU NE /E HZY=
200607040100 METAR MRLM NIL=
200607040200 METAR MRLM NIL=
200607040300 METAR MRLM NIL=
200607040400 METAR MRLM NIL=
200607040500 METAR MRLM NIL=
200607040600 METAR MRLM NIL=
200607040700 METAR MRLM NIL=
200607040800 METAR MRLM NIL=
200607040900 METAR MRLM NIL=
200607041000 METAR MRLM NIL=
200607041100 METAR MRLM NIL=
200607041200 METAR MRLM NIL=
200607041300 METAR MRLM 041300Z 17008KT 8000 TSRA FEW002 SCT015CB BKN100 24/23 A2985=
200607041400 METAR MRLM 041400Z VRB03KT 8000 +DZ FEW003 SCT020 OVC090 24/23 A2988 CB N E=
200607041500 METAR MRLM 041500Z 17004KT 9000 -RA FEW003 SCT025 OVC090 24/24 A2989 CB N/E=
200607041700 METAR MRLM 041700Z 23004KT CAVOK 27/25 A2984 SCT110 BKN260 CB RN DST NW=
200607041800 METAR MRLM 041800Z 26004KT CAVOK 29/25 A2983 CB RN DST W NW BKN120 SCT270 HZY=
200607041900 METAR MRLM 041900Z 36004KT CAVOK 29/25 A2981 BKN110 SCT270 CB DST N NE HZY=
200607042000 METAR MRLM NIL=
200607042100 METAR MRLM 042100Z 33009KT 9999 FEW020 BKN140 30/26 A2976 RN W CB N=
200607042200 METAR MRLM 042200Z 32007KT 9999 FEW040 BKN110 30/26 A2976 TCU RN SW W CB N=
200607042300 METAR MRLM 042300Z 29008KT 9999 FEW020 BKN120 29/25 A2978 CB RN W NW=
200607050000 METAR MRLM 050000Z VRB03KT 9999 FEW014 BKN110 28/25 A29881 RMK CB RN W N=
200607050100 METAR MRLM NIL=
200607050200 METAR MRLM NIL=
200607050300 METAR MRLM NIL=
200607050400 METAR MRLM NIL=
200607050500 METAR MRLM NIL=
200607050600 METAR MRLM NIL=
200607050700 METAR MRLM NIL=
200607050800 METAR MRLM NIL=
200607050900 METAR MRLM NIL=
200607051000 METAR MRLM NIL=
200607051100 METAR MRLM NIL=
200607051200 METAR MRLM NIL=
200607051300 METAR MRLM 051300Z 23006KT 9999 SCT025 SCT120 23/22 A2983 RN N=
200607051400 METAR MRLM 051400Z 22005KT 9999 BKN025 26/22 A2986 RN NW N=
200607051500 METAR MRLM 051500Z 23006KT CAVOK 28/23 A2986=
200607051600 METAR MRLM 051600Z 31005KT CAVOK 29/23 A2986 RN DST E BKN140=
200607051700 METAR MRLM 051700Z 36006KT CAVOK 30/23 A2985=
200607051800 METAR MRLM 051800Z 01006KT 9999 FEW026 SCT100 29/24 A2983=
200607051900 METAR MRLM 051900Z 36007KT 9999 FEW030 SCT090 BKN110 29/24 A2092 CB RN NE=
200607052000 METAR MRLM NIL=
200607052100 METAR MRLM 052100Z 36007KT 9999 FEW027 BKN120 29/24 A2978 RMK CB DST QUAD S W W RN DST QUAD W N=
200607052200 METAR MRLM 052200Z 34008KT 9999 FEW028 BKN120 29/24 A2979 RMK CB DST ARND RN DST QUAD W N=
200607052300 METAR MRLM 052300Z 26005KT CAVOK 29/24 A2978 RMK CB DST ARND RN DST QUAD W N=
200607060000 METAR MRLM 060000Z 26007KT CAVOK 27/23 A2977 RMK CB DST ARND RN DST QUAD N=
200607060100 METAR MRLM NIL=
200607060200 METAR MRLM NIL=
200607060300 METAR MRLM NIL=
200607060400 METAR MRLM NIL=
200607060500 METAR MRLM NIL=
200607060600 METAR MRLM NIL=
200607060700 METAR MRLM NIL=
200607060800 METAR MRLM NIL=
200607060900 METAR MRLM NIL=
200607061000 METAR MRLM NIL=
200607061100 METAR MRLM NIL=
200607061200 METAR MRLM NIL=
200607061300 METAR MRLM 061300Z 00000KT 9999 BKN025 25/23 A2986 CB DST N RN DST E HZY=
200607061400 METAR MRLM 061400Z VRB03KT 9999 FEW025 SCT090 BKN130 26/24 A2987 RMK CB RN DST E=
200607061500 METAR MRLM 061500Z VRB03KT CAVOK 28/24 A2987 RMK LEVE HZY=
200607061600 METAR MRLM 061600Z VRB03KT 9999 FEW017 BKN140 28/25 A2986 RMK CB DST N LEVE HZY=
200607061700 METAR MRLM 061700Z 02006KT 9999 FEW026 SCT140 29/24 A2986 RMK CB DST N HZY=
200607061800 METAR MRLM 061800Z 02006KT 9999 FEW023 BKN140 29/25 A2984 RMK CB DST NW LEVE HZY=
200607061900 METAR MRLM 061900Z 04007KT 9999 FEW023 SCT140 BKN280 29/25 A2981 RMK CB DST NW LEVE HZY=
200607062000 METAR MRLM NIL=
200607062100 METAR MRLM 062100Z 02006KT 9999 FEW022 OVC27 29/25 A2976 RMK CB DST S W HZY=
200607062200 METAR MRLM 062200Z 02007KT 9999 FEW023 OVC270 29/25 A2976 RMK CB DST SE W HZY=
200607062300 METAR MRLM 062300Z 01007KT 9999 SCT020 BKN280 29/25 A2979 RMK CB RN DST S SW W=
200607070000 METAR MRLM 070000Z 36007KT 9999 BKN019 SCT270 29/25 A2981 RMK CBS RN DST S/W QDS=
200607070100 METAR MRLM NIL=
200607070200 METAR MRLM NIL=
200607070300 METAR MRLM NIL=
200607070400 METAR MRLM NIL=
200607070500 METAR MRLM NIL=
200607070600 METAR MRLM NIL=
200607070700 METAR MRLM NIL=
200607070800 METAR MRLM NIL=
200607070900 METAR MRLM NIL=
200607071000 METAR MRLM NIL=
200607071100 METAR MRLM NIL=
200607071200 METAR MRLM NIL=
200607071300 METAR MRLM 071300Z 27010KT 8000 RA OVC015 26/23 A2983 RMK VIS S UNLTD=
200607071400 METAR MRLM NIL=
200607071500 METAR MRLM 071500Z 33011KT 9999 FEW017 BKN120 28/25 A2986 RMK RN DST N NE E=
200607071600 METAR MRLM 071600Z 27005KT 9999 FEW023 OVC110 29/24 A2986 RMK CB RN DST N NE E LGT HZ ARND=
200607071700 METAR MRLM 071700Z 34006KT 9999 FEW028 BKN110 30/24 A2985 RMK CB RN DST N NE E SE=
200607071800 METAR MRLM 071800Z 35009KT 9999 SCT020 SCT110 BKN270 29/25 A2984 RMK CB RN HZ ARND DST=
200607071900 METAR MRLM 071900Z 36009KT 9999 FEW020 BKN110 29/25 A2982 RMK CB RN DST ARND=
200607072000 METAR MRLM NIL=
200607072100 METAR MRLM 072100Z 28004KT 9999 SCT018 SCT140 BKN270 28/25 A2980 RMK RN SW W=
200607072200 METAR MRLM 072200Z 29004KT 9999 FEW018 SCT130 BKN270 28/25 A2979 RMK RN S W=
200607072300 METAR MRLM 072300Z VRB03KT CAVOK 27/25 A2980=
200607080000 METAR MRLM 080000Z VRB03KT CAVOK 27/24 A2981=
200607080100 METAR MRLM NIL=
200607080200 METAR MRLM NIL=
200607080300 METAR MRLM NIL=
200607080400 METAR MRLM NIL=
200607080500 METAR MRLM NIL=
200607080600 METAR MRLM NIL=
200607080700 METAR MRLM NIL=
200607080800 METAR MRLM NIL=
200607080900 METAR MRLM NIL=
200607081000 METAR MRLM NIL=
200607081100 METAR MRLM NIL=
200607081200 METAR MRLM NIL=
200607081300 METAR MRLM 081300Z 31007KT 8000 +DZ SCT005 BKN025 25/23 A2984=
200607081400 METAR MRLM 081400Z VRB03KT 8000 DZ SCT003 BKN125 25/24 A2986 RMK VIS UNL S=
200607081500 METAR MRLM NIL=
200607081600 METAR MRLM NIL=
200607081700 METAR MRLM NIL=
200607081800 METAR MRLM 081800Z 26004KT CAVOK 29/25 A2979 RMK CB RN NW E SE=
200607081900 METAR MRLM 081900Z 36006KT CAVOK 29/25 A2975 RM CB N E=
200607082000 METAR MRLM NIL=
200607082100 METAR MRLM 082100Z 07007KT 9999 FEW020 BKN110 29/25 A2976 CB RN DST E SE DZ SW=
200607082200 METAR MRLM 082200Z 10007KT 9999 FEW020 BKN110 29/25 A2974 CB DST RN W E HZ ARND=
200607082300 METAR MRLM 082300Z 08007KT CAVOK 29/24 A2976 RMK CB RN DST W=
200607090000 METAR MRLM 090000Z 36004KT CAVOK 28/25 A2973=
200607090100 METAR MRLM NIL=
200607090200 METAR MRLM NIL=
200607090300 METAR MRLM NIL=
200607090400 METAR MRLM NIL=
200607090500 METAR MRLM NIL=
200607090600 METAR MRLM NIL=
200607090700 METAR MRLM NIL=
200607090800 METAR MRLM NIL=
200607090900 METAR MRLM NIL=
200607091000 METAR MRLM NIL=
200607091100 METAR MRLM NIL=
200607091200 METAR MRLM NIL=
200607091300 METAR MRLM 091300Z 23004KT CAVOK 26/24 A2977=
200607091400 METAR MRLM 091400Z 04005KT 9999 FEW020 BKN280 29/25 A2979 HZ ARND=
200607091500 METAR MRLM 091500Z 06006KT 9999 FEW018 BKN100 29/25 A2981 RMK HZ ARND=
200607091600 METAR MRLM 091600Z 08004KT 9999 FEW024 SCT110 30/25 A2980=
200607091700 METAR MRLM 091700Z 05005KT 9999 FEW024 BKN270 30/25 A2979 RMK CB DST NW N NE E RN DST NW NE=
200607091800 METAR MRLM 091800Z 04012KT 9999 BKN022 30/12 A2997 CB RN DST NW N NE E HZ ARND=
200607091900 METAR MRLM NIL=
200607092000 METAR MRLM NIL=
200607092100 METAR MRLM 092100Z VRB03KT 9999 FEW024 SCT140 BKN270 28/24 A2974 CB RN ARND=
200607092200 METAR MRLM 092200Z 00000KT 9999 FEW023 BKN270 28/23 A2972 CB RN S W=
200607092300 METAR MRLM 092300Z 00000KT 9999 FEW020 SCT140 BKN27 28/24 A2973 CB/R W=
200607100000 METAR MRLM 100000Z 21003KT 9999 FEW012 SCT140 BKN270 26/24 A2974 CB RN W=
200607100100 METAR MRLM NIL=
200607100200 METAR MRLM NIL=
200607100300 METAR MRLM NIL=
200607100400 METAR MRLM NIL=
200607100500 METAR MRLM NIL=
200607100600 METAR MRLM NIL=
200607100700 METAR MRLM NIL=
200607100800 METAR MRLM NIL=
200607100900 METAR MRLM NIL=
200607101000 METAR MRLM NIL=
200607101100 METAR MRLM NIL=
200607101200 METAR MRLM NIL=
200607101300 METAR MRLM 101300Z VRB03KT 9999 RA FEW005 SCT030 OVC100 24/23 A2980 CB N E TSTM NE=
200607101400 METAR MRLM 101400Z VRB03KT 9999 RA FEW005 SCT030 OVC100 24/23 A2979=
200607101600 METAR MRLM 101600Z 26005KT 9999 FEW010 SCT025 BKN090 26/24 A2982 RMK CB/RN DST N/E=
200607101700 METAR MRLM 101700Z 27006KT 9999 FEW012 SCT035 BKN120 26/24 A2981 CB RN N E=
200607101800 METAR MRLM 101800Z 27006KT 9999 FEW013 SCT080 BKN140 27/25 A2980 RNK CB RN N NE E DZ W=
200607101900 METAR MRLM 101900Z 30008KT 9999 FEW015 BKN140 28/23 A2978 CB RN NE E=
200607102000 METAR MRLM NIL=
200607102100 METAR MRLM 102100Z 34007KT 9999 FEW018 SCT140 BKN260 28/24 A2975 RMK CB RN DST W NW N NE HZY=
200607102200 METAR MRLM 102200Z 27004KT 9999 FEW015 BKN140 28/25 A2972 RMK CB RN DST N NE E=
200607102300 METAR MRLM 102300Z 35009KT 9999 FEW015 SCT140 BKN260 28/25 A2975 RMK CB RN DST N NE E=
200607110000 METAR MRLM 110000Z 33009KT 9999 FEW015 SCT080 BKN140 27/24 A2977 RMK CB RN DST N NE E SE LEVE HZY=
200607110100 METAR MRLM NIL=
200607110200 METAR MRLM NIL=
200607110300 METAR MRLM NIL=
200607110400 METAR MRLM NIL=
200607110500 METAR MRLM NIL=
200607110600 METAR MRLM NIL=
200607110700 METAR MRLM NIL=
200607110800 METAR MRLM NIL=
200607110900 METAR MRLM NIL=
200607111000 METAR MRLM NIL=
200607111100 METAR MRLM NIL=
200607111200 METAR MRLM NIL=
200607111300 METAR MRLM 111300Z 19006KT 8000 TSRA FEW012 SCT020CB BKN090 24/23 A2983 RMK VIS UNL W/NW/N/NE TS SE=
200607111400 METAR MRLM 111400Z 18007KT 9999 RA FEW020 OVC100 23/22 A2984 RMK CB DST SE/S=
200607111500 METAR MRLM 111500Z 32004KT CAVOK 23/22 A2982 RERA RMK CB RN DST SE S NW=
200607111600 METAR MRLM 111600Z 26005KT CAVOK 26/23 A2982 RMK CB DST NW N NE S SW=
200607111700 METAR MRLM 111700Z 31005KT CAVOK 28/22 A2982 RMK CB DST SW NW N NE=
200607111800 METAR MRLM 111800Z VRB03KT CAVOK 28/22 A2981 RMK CB RN DST N NE=
200607111900 METAR MRLM 111900Z VRB03KT CAVOK 29/22 A2979 RMK CB RN DST N NE LEVE HZY=
200607112000 METAR MRLM NIL=
200607112100 METAR MRLM 112100Z 02007KT 9999 FEW028 BKN080 29/23 A2977 RM CB RN DST N HZ LGT ARND=
200607112200 METAR MRLM 112200Z VRB03KT 9999 FEW028 OVC270 29/23 A2975 RMK CB RN DST N=
200607112300 METAR MRLM 112300Z VRB03KT CAVOK 29/24 A2974 RMK SCT080 BKN270 CB RN DST N=
200607120000 METAR MRLM 120000Z 36004KT CAVOK 28/23 A2977 RMK SCT090 BKN270 CB RN DST NW=
200607120100 METAR MRLM NIL=
200607120200 METAR MRLM NIL=
200607120300 METAR MRLM NIL=
200607120400 METAR MRLM NIL=
200607120500 METAR MRLM NIL=
200607120600 METAR MRLM NIL=
200607120700 METAR MRLM NIL=
200607120800 METAR MRLM NIL=
200607120900 METAR MRLM NIL=
200607121000 METAR MRLM NIL=
200607121100 METAR MRLM NIL=
200607121200 METAR MRLM NIL=
200607121300 METAR MRLM 121300Z 26004KT 9999 SCT030 SCT090 24/23 A2978 RMK CB RN=
200607121400 METAR MRLM 121400Z VRB03KT 9999 +DZ SCT025 SCT090 25/23 A2980 RMK HZ ARND=
200607121500 METAR MRLM NIL=
200607121600 METAR MRLM 121600Z 25005KT 9999 BKN025 SCT090 26/24 A2983 RMK RN DST E/S QDS HZY=
200607121700 METAR MRLM 121700Z 20008KT 9999 OVC025 27/25 A2984 RMK CB TS DIST SE RN S DZ N HZY=
200607121800 METAR MRLM 121800Z 19007KT CAVOK 27/25 A2981 RMK SCT110 SCT150 BKN260 TS DST NE=
200607121900 METAR MRLM 121900Z 07004KT 9999 +DZ FEW025 SCT110 BKN130 28/25 A2979 CB RN DST N E QD TS NE=
200607122000 METAR MRLM NIL=
200607122100 METAR MRLM 122100Z 35005KT 9999 FEW013 SCT035 BKN120 27/25 A2976 RMK CB RN DST N E=
200607122200 METAR MRLM 122200Z 35005KT 9999 DZ FEW012 BKN025 27/25 A2974=
200607122300 METAR MRLM 122300Z 22002KT 9999 FEW016 BKN025 28/24 A2973 RM RN W N=
200607130000 METAR MRLM 130000Z 20002KT 9999 FEW025 BKN090 27/24 A2976 RMK CB RN W N E=
200607130100 METAR MRLM NIL=
200607130200 METAR MRLM NIL=
200607130300 METAR MRLM NIL=
200607130400 METAR MRLM NIL=
200607130500 METAR MRLM NIL=
200607130600 METAR MRLM NIL=
200607130700 METAR MRLM NIL=
200607130800 METAR MRLM NIL=
200607130900 METAR MRLM NIL=
200607131000 METAR MRLM NIL=
200607131100 METAR MRLM NIL=
200607131200 METAR MRLM NIL=
200607131300 METAR MRLM 131300Z VRB03KT SCT025 SCT090 25/24 A2979 RMK CB RN N E=
200607131400 METAR MRLM 131400Z 25004KT 9999 +DZ BKN025 25/24 A2981 RMK CB RN N E=
200607131500 METAR MRLM 131500Z 29004KT 9999 BKN025 SCT080 27/25 A2982 CB RN N E=
200607131600 METAR MRLM 131600Z 29006KT 9999 FEW022 BKN090 29/25 A2981 RMK CB RN N E=
200607131700 METAR MRLM 131700Z 35006KT 3000 -RA OVC020 27/25 A2981=
200607131800 METAR MRLM 131800Z 19002KT 8000 +DZ BKN015TCU SCT080 27/25 A2978=
200607131900 METAR MRLM 131900Z 35005KT 2000 -RA BKN010 SCT080 27/25 A2977 RNK TS NE=
200607132000 METAR MRLM NIL=
200607132100 METAR MRLM 132100Z 06012KT 4000 TS RA SCT005 SCT015CB BKN030 26/25 A2977 TS SSW VSB 8000 E=
200607132200 METAR MRLM 132200Z 22004KT 9000 RA FEW005 BKN020 25/24 A2975 RMK CB RN HZ ARND=
200607132300 METAR MRLM 132300Z 20006KT 9999 FEW004 BKN020 25/24 A2978 RMK RN HZ ARND=
200607140000 METAR MRLM 140000Z 20005KT 9999 SCT015 SCT140 BKN260 25/24 A2975=
200607140100 METAR MRLM NIL=
200607140200 METAR MRLM NIL=
200607140300 METAR MRLM NIL=
200607140400 METAR MRLM NIL=
200607140500 METAR MRLM NIL=
200607140600 METAR MRLM NIL=
200607140700 METAR MRLM NIL=
200607140800 METAR MRLM NIL=
200607140900 METAR MRLM NIL=
200607141000 METAR MRLM NIL=
200607141100 METAR MRLM NIL=
200607141200 METAR MRLM NIL=
200607141300 METAR MRLM 141300Z 27002KT 5000 RA FEW003 SCT015 BKN090 24/24 A2980=
200607141400 METAR MRLM 141400Z 16004KT 6000 RA SCT003 SCT025 BKN090 25/24 A2983 RMK CB DST N E=
200607141500 METAR MRLM 141500Z VRB03KT 8000 RA FEW003 SCT025 OVC100 25/24 A2983 RMK CB N E=
200607141600 METAR MRLM 141600Z 14005KT 9999 -DZ FEW007 SCT080 BKN110 26/24 A2983=
200607141700 METAR MRLM 141700Z VRB03KT 9999 +DZ FEW020 BKN090 27/25 A2983 RMK CB RN DST N E=
200607141800 METAR MRLM 141800Z 11006KT 9999 DZ FEW014 BKN080 27/25 A2981 RMK CB RN DST NW N HZ ARND=
200607141900 METAR MRLM 141900Z 10007KT 9999 FEW020 SCT035 BKN090 28/24 A2979 RMK CB RN DST NW=
200607142000 METAR MRLM NIL=
200607142100 METAR MRLM 142100Z 11011KT 9999 FEW020 BKN140 29/25 A2976 CB NW=
200607142200 METAR MRLM 142200Z 10009KT 9999 FEW024 SCT090 BKN130 29/24 A2977=
200607142300 METAR MRLM 142300Z 10006KT 9999 FEW025 BKN110 28/25 A2978 CB RN S NW=
200607150000 METAR MRLM 150000Z VRB03KT 9999 FEW030 BKN110 27/25 A2980 CB RN E S=
200607150100 METAR MRLM NIL=
200607150200 METAR MRLM NIL=
200607150300 METAR MRLM NIL=
200607150400 METAR MRLM NIL=
200607150500 METAR MRLM NIL=
200607150600 METAR MRLM NIL=
200607150700 METAR MRLM NIL=
200607150800 METAR MRLM NIL=
200607150900 METAR MRLM NIL=
200607151000 METAR MRLM NIL=
200607151100 METAR MRLM NIL=
200607151200 METAR MRLM NIL=
200607151300 METAR MRLM 151300Z 23002KT 9999 FEW015 BKN110 25/23 A2983 RMK RN DST N HZ LGT ARND=
200607151400 METAR MRLM 151400Z 27005KT CAVOK 26/23 A2984 FEW090 BKN130 RN N=
200607151500 METAR MRLM 151500Z 02004KT 9999 FEW025 SCT130 BKN270 29/24 A2985=
200607151600 METAR MRLM 151600Z 02007KT 9999 FEW025 SCT140 29/24 A2985 RMK HZ LGT ARND=
200607151700 METAR MRLM 151700Z 01008KT 9999 FEW025 SCT140 BKN270 29/24 A2983 CB N E=
200607151800 METAR MRLM 151800Z 36010KT 9999 FEW025 SCT140 BKN270 29/24 A2981 CB N S=
200607151900 METAR MRLM 151900Z 35010KT 9999 FEW022 SCT140 BKN270 29/24 A2981 CB S=
200607152000 METAR MRLM NIL=
200607152100 METAR MRLM 152100Z 34010KT 9999 SCT025 SCT260 29/24 A2977 RMK CB RN DST QUAD S LEVE HZY=
200607152200 METAR MRLM 152200Z 30006KT 9999 BKN020 29/25 A2978 RMK CB RN DST QUAD S=
200607152300 METAR MRLM 152300Z 33007KT 9999 BKN018 SCT140 28/25 A2980 RMK CB RN QUAD S=
200607160000 METAR MRLM 160000Z VRB03KT 9999 SCT013 SCT140 BKN270 27/25 A2981 RMK CB RN DST S SW W RN E=
200607160100 METAR MRLM NIL=
200607160200 METAR MRLM NIL=
200607160300 METAR MRLM NIL=
200607160400 METAR MRLM NIL=
200607160500 METAR MRLM NIL=
200607160600 METAR MRLM NIL=
200607160700 METAR MRLM NIL=
200607160800 METAR MRLM NIL=
200607160900 METAR MRLM NIL=
200607161000 METAR MRLM NIL=
200607161100 METAR MRLM NIL=
200607161200 METAR MRLM NIL=
200607161300 METAR MRLM 161300Z VRB03KT 9999 FEW015 SCT100 BKN260 24/24 A2979 RMK CB RN HZ DST QUAD N/E=
200607161400 METAR MRLM 161400Z 23002KT CAVOK 25/24 A2980 RMK CB RN HZ DST QUAD N E=
200607161500 METAR MRLM 161500Z 34004KT 9999 FEW010 BKN050 26/24 A2982 RMK CB RN DST QUAD N E=
200607161600 METAR MRLM 161600Z 06002KT 9999 BKN013 27/24 A2983 RMK RN HZ ARND=
200607161700 METAR MRLM 161700Z 20004KT 9999 FEW012 SCT080 BKN110 26/24 A2981 RERA RMK RN HZ ARND=
200607161800 METAR MRLM 161800Z 10007KT 9999 FEW022 BKN090 27/22 A2980 RMK RN CB DST NW N NE E LEVE HZY=
200607161900 METAR MRLM 161900Z 04004KT 9999 FEW027 BKN110 28/23 A2977 RMK CB DST ARND RN DST W NW N NE E=
200607162000 METAR MRLM NIL=
200607162100 METAR MRLM 162100Z 31005KT 9999 FEW020 BKN110 28/24 A2979 CB ARND RN W NW N NE=
200607162200 METAR MRLM 162200Z 32005KT 9999 FEW020 BKN110 28/24 A2973 CB RN NW N NE E=
200607162300 METAR MRLM 162300Z 29004KT 9999 FEW016 SCT080 BKN110 27/24 A2973 CBS RN NW N NE E=
200607170000 METAR MRLM 170000Z 29004KT 9999 DZ FEW013 OVC090 27/24 A2975 CBS RN DST S NE E N=
200607170100 METAR MRLM NIL=
200607170200 METAR MRLM NIL=
200607170300 METAR MRLM NIL=
200607170400 METAR MRLM NIL=
200607170500 METAR MRLM NIL=
200607170600 METAR MRLM NIL=
200607170700 METAR MRLM NIL=
200607170800 METAR MRLM NIL=
200607170900 METAR MRLM NIL=
200607171000 METAR MRLM NIL=
200607171100 METAR MRLM NIL=
200607171200 METAR MRLM NIL=
200607171300 METAR MRLM 171300Z 23004KT 9999 SCT025 SCT110 25/23 A2979 RMK CB RN DIST N/E/S=
200607171400 METAR MRLM 171400Z 23004KT 9999 SCT015 BKN100 26/23 A2980 RMK CB RN DST N/E QDS=
200607171500 METAR MRLM 171500Z 32008KT 9999 FEW023 SCT035 BKN110 28/23 A2981 RMK CB RN DST N E QD=
200607171600 METAR MRLM 171600Z 33007KT 9999 FEW022 BKN035 28/23 A2981 RMK CB RN DST N NE=
200607171700 METAR MRLM 171700Z 33011KT 9999 FEW020 SCT035 BKN100 28/24 A2979 RMK CB RN DST N E QDS=
200607171800 METAR MRLM 171800Z 01012KT 9999 BKN013 26/23 A2977 CB RN S W N=
200607171900 METAR MRLM 171900Z 01008KT 9999 FEW022 SCT080 BKN130 27/23 A2976 RMK CB DST ARND STNG RASH S SW W=
200607172000 METAR MRLM NIL=
200607172100 METAR MRLM 172100Z 31007KT 9999 DZ SCT010 SCT040 BKN100 26/24 A2974 RMK CB RN ARND=
200607172200 METAR MRLM 172200Z VRB03KT 9999 +DZ SCT008 SCT090 26/24 A2975 RMK RN ARND=
200607172300 METAR MRLM 172300Z 24006KT 9999 +DZ SCT005 SCT025 BKN090 25/24 A2077 RMK CB RN S W=
200607180000 METAR MRLM 180000Z 26005KT 8000 RA FEW005 SCT020 BKN090 25/24 A2979 RMK CB S W=
200607180100 METAR MRLM NIL=
200607180200 METAR MRLM NIL=
200607180300 METAR MRLM NIL=
200607180400 METAR MRLM NIL=
200607180500 METAR MRLM NIL=
200607180600 METAR MRLM NIL=
200607180700 METAR MRLM NIL=
200607180800 METAR MRLM NIL=
200607180900 METAR MRLM NIL=
200607181000 METAR MRLM NIL=
200607181100 METAR MRLM NIL=
200607181200 METAR MRLM NIL=
200607181300 METAR MRLM 181300Z 19004KT CAVOK 25/23 A2980 RMK CB RN N=
200607181400 METAR MRLM 181400Z 02004KT CAVOK 28/24 A2983 RMK CB RN N=
200607181500 METAR MRLM 181500Z 01005KT 9999 FEW020 SCT100 BKN140 28/24 A2983 RMK CBRN N NE E=
200607181600 METAR MRLM 181600Z 01006KT 9999 FEW020 BKN140 28/24 A2982 RMK CB RN N NE E=
200607181700 METAR MRLM 181700Z 02010KT 9999 FEW020 BKN150 29/24 A2985 RMK CB N NE E=
200607181800 METAR MRLM 181800Z 35009KT 9999 FEW025 BKN140 29/24 A2980 RMK CB N E=
200607181900 METAR MRLM NIL=
200607182000 METAR MRLM NIL=
200607182100 METAR MRLM 182100Z 27004KT 9999 FEW023 SCT140 BKN260 28/24 A2974 RMK CB DST ARND RN DST S SW W=
200607182200 METAR MRLM 182200Z 32004KT 9999 FEW022 SCT140 BKN270 28/24 A2975 RMK CB RN DST SW=
200607182300 METAR MRLM 182300Z 01006KT 9999 FEW020 BKN140 28/24 A2976 RMK CB RN DST S W=
200607190000 METAR MRLM 190000Z VRB03KT 9999 FEW020 SCT130 BKN150 28/24 A2978=
200607190100 METAR MRLM NIL=
200607190200 METAR MRLM NIL=
200607190300 METAR MRLM NIL=
200607190400 METAR MRLM NIL=
200607190500 METAR MRLM NIL=
200607190600 METAR MRLM NIL=
200607190700 METAR MRLM NIL=
200607190800 METAR MRLM NIL=
200607190900 METAR MRLM NIL=
200607191000 METAR MRLM NIL=
200607191100 METAR MRLM NIL=
200607191200 METAR MRLM NIL=
200607191300 METAR MRLM 191300Z 29004KT 9999 BKN018 SCT100 25/23 A2982 RMK CB RN N=
200607191400 METAR MRLM 191400Z VRB03KT 9999 FEW018 BKN080 26/24 A2982 RMK RN DST N HZ ARND=
200607191500 METAR MRLM 191500Z 28006KT 9999 FEW016 SCT150 BKN270 27/24 A2980 RMK CB RN N=
200607191600 METAR MRLM 191600Z 35008KT 9999 FEW023 SCT150 BKN270 28/24 A2980 RMK CB DST N=
200607191700 METAR MRLM 191700Z 35009KT 9999 FEW016 SCT130 BKN270 28/25 A2982 RMK CB S SW W RN DST N=
200607191800 METAR MRLM 191800Z 36009KT 9999 FEW020 SCT090 BKN270 28/24 A2981 RMK CB DST S W N RN SDT W N=
200607191900 METAR MRLM 191900Z 36007KT 9999 SCT018 SCT120 BKN270 28/25 A2979 RMK CB DST S SW N RN DST W N=
200607192000 METAR MRLM NIL=
200607192100 METAR MRLM 192100Z 03007KT 9999 SCT020 BKN270 29/25 A2975 CB ARND RN SW W N NE=
200607192300 METAR MRLM 192300Z 34006KT 9999 FEW020 BKN130 28/24 A2977 CB RN SW W=
200607200000 METAR MRLM 200000Z 34005KT 9999 FEW020 SCT090 BKN270 28/24 A2979 CB RN SE W=
200607200100 METAR MRLM NIL=
200607200200 METAR MRLM NIL=
200607200300 METAR MRLM NIL=
200607200400 METAR MRLM NIL=
200607200500 METAR MRLM NIL=
200607200600 METAR MRLM NIL=
200607200700 METAR MRLM NIL=
200607200800 METAR MRLM NIL=
200607200900 METAR MRLM NIL=
200607201000 METAR MRLM NIL=
200607201100 METAR MRLM NIL=
200607201200 METAR MRLM NIL=
200607201300 METAR MRLM 201300Z VRB03KT 9999 -DZ FEW040 BKN140 25/24 A2980 CB DST ARND RN NW SE=
200607201400 METAR MRLM 201400Z VRB03KT 9999 SCT025 SCT090 26/25 2984 RN W NW=
200607201500 METAR MRLM 201500Z 23005KT 9999 FEW015 SCT080 BKN100 28/25 A2985 CB RN E W NW=
200607201600 METAR MRLM 201600Z 30005KT 9999 FEW015 BKN025 29/24 A2986 DZ NE=
200607201700 METAR MRLM 201700Z 33007KT 9999 FEW030 SCT090 BKN140 30/24 A2984 CB RN N SE=
200607201800 METAR MRLM 201800Z 36009KT 9999 FEW030 SCT130 BKN270 30/25 A2982 CB RN S NW N NE SE=
200607201900 METAR MRLM 201900Z 34008KT 9999 FEW025 SCT120 BKN260 29/24 A2979 CB ARND RN S SW=
200607202000 METAR MRLM NIL=
200607202100 METAR MRLM 202100Z 01005KT 9999 FEW020 OVC270 29/25 A2976 CB DST ARND HZY=
200607202200 METAR MRLM 202200Z 36006KT 9999 FEW020 OVC270 29/25 A2975 CB DST SE S SW W N HZ=
200607202300 METAR MRLM 202300Z 01005KT 9999 FEW020 SCT130 BKN270 29/25 A2976 CB DST S/W HZY=
200607210000 METAR MRLM 210000Z VRB03KT CAVOK 28/24 A2977 CB DST S/W BKN130 SCT270=
200607210100 METAR MRLM NIL=
200607210200 METAR MRLM NIL=
200607210300 METAR MRLM NIL=
200607210400 METAR MRLM NIL=
200607210500 METAR MRLM NIL=
200607210600 METAR MRLM NIL=
200607210700 METAR MRLM NIL=
200607210800 METAR MRLM NIL=
200607210900 METAR MRLM NIL=
200607211000 METAR MRLM NIL=
200607211100 METAR MRLM NIL=
200607211200 METAR MRLM NIL=
200607211300 METAR MRLM 211300Z 25002KT CAVOK 25/23 A2981 SCT140 BKN260 CB RN DST N HZ ARND=
200607211400 METAR MRLM 211400Z 22004KT CAVOK 27/24 A2983 SCT130 BKN270 CB RN DST N TSTM NE=
200607211500 METAR MRLM 211500Z VRB03KT 9999 FEW018 BKN120 28/24 A2984 CB RN DST N/E=
200607211600 METAR MRLM 211600Z 00000KT 9999 FEW018 SCT120 BKN150 28/25 A2982 RN DST N/NE/E HZ ARND=
200607211700 METAR MRLM 211700Z 31009KT CAVOK 30/24 A2968 FEW140 OVC260 CB RN DST N E HZ ARND=
200607211800 METAR MRLM 211800Z 35007KT 9999 FEW026 SCT140 BKN260 29/24 A2982 CB RN DST QUAD N E HZ ARND=
200607211900 METAR MRLM 211900Z 36008KT 9999 FEW020 BKN090 29/25 A2981 CB DST ARND RN DST QUAD N/E=
200607212100 METAR MRLM NIL=
200607212200 METAR MRLM NIL=
200607212300 METAR MRLM NIL=
200607220000 METAR MRLM NIL=
200607220100 METAR MRLM NIL=
200607220200 METAR MRLM NIL=
200607220300 METAR MRLM NIL=
200607220400 METAR MRLM NIL=
200607220500 METAR MRLM NIL=
200607220600 METAR MRLM NIL=
200607220700 METAR MRLM NIL=
200607220800 METAR MRLM NIL=
200607220900 METAR MRLM NIL=
200607221000 METAR MRLM NIL=
200607221100 METAR MRLM NIL=
200607221200 METAR MRLM NIL=
200607221300 METAR MRLM 221300Z 23002KT 9999 BKN020 24/23 A2982 RMK CB RN DST E=
200607221400 METAR MRLM 221400Z 17006KT 5000 TSRA SCT008 SCT015CB BKN020 24/23 A2985 RMK VIS NW N UNLTD=
200607221500 METAR MRLM 221500Z 20005KT 8000 RA FEW003 OVC100 24/23 A2985 RMK CBS E/S QDS VIS N UNLTD=
200607221600 METAR MRLM 221600Z 20004KT 9999 +DZ FEW100 OVC120 24/23 A2984 RMK CB DST ARND=
200607221700 METAR MRLM NIL=
200607221800 METAR MRLM 221800Z 08006KT 9999 FEW015 SCT030 BKN120 29/24 A2983 RMK HZ ARND CB DST NE=
200607221900 METAR MRLM 221900Z 10005KT 9999 FEW020 SCT080 BKN120 29/25 A2982 RMK CB RN DST N E HZY=
200607222000 METAR MRLM NIL=
200607222100 METAR MRLM 222100Z 10013KT 9999 TS VCSH FEW012 SCT015CB BKN110 26/24 A2978=
200607222200 METAR MRLM 222200Z 22005KT 9999 +DZ FEW025 SCT110 BKN140 26/23 A2977 RETS RMK CB RN E S W=
200607222300 METAR MRLM 222300Z 19005KT 9999 FEW012 SCT110 BKN 150 26/24 A2976 RMK CB RN E SW=
200607230000 METAR MRLM 230000Z 00000KT CAVOK 26/24 A2976 RMK CB RN DST SE S SW W=
200607230100 METAR MRLM NIL=
200607230200 METAR MRLM NIL=
200607230300 METAR MRLM NIL=
200607230400 METAR MRLM NIL=
200607230500 METAR MRLM NIL=
200607230600 METAR MRLM NIL=
200607230700 METAR MRLM NIL=
200607230800 METAR MRLM NIL=
200607230900 METAR MRLM NIL=
200607231000 METAR MRLM NIL=
200607231100 METAR MRLM NIL=
200607231200 METAR MRLM NIL=
200607231300 METAR MRLM 231300Z 22006KT CAVOK 24/21 A2983 RMK TCU NE=
200607231400 METAR MRLM 231400Z 24004KT CAVOK 27/23 A2984 RMK TCU NE=
200607231500 METAR MRLM 231500Z 05004KT 9999 FEW032 OVC270 30/23 A2986 RMK CB N=
200607231600 METAR MRLM 231600Z 36006KT 9999 FEW027 BKN140 29/23 A2988 RMK CB RN N RN SW S=
200607231700 METAR MRLM 231700Z 01012KT 9999 SCT015 SCT090 27/24 A2988 RMK CB RN ARND TSTM E=
200607231800 METAR MRLM 231800Z 11008KT 5000 RA FEW009 SCT025 BKN100 25/23 A2987 RETS RMK CB ARND=
200607231900 METAR MRLM 231900Z 22004KT CAVOK 25/24 A2983 RERA RMK CB RN N E=
200607232000 METAR MRLM NIL=
200607232100 METAR MRLM 232100Z 02004KT 9999 FEW030 BKN270 30/24 A2977 RMK CB DST S/W QD=
200607232200 METAR MRLM 232200Z 00000KT CAVOK 27/24 A2978=
200607232300 METAR MRLM 232300Z 24004KT CAVOK 27/24 A2978 RMK CB DST S SW=
200607240000 METAR MRLM 240000Z 20005KT CAVOK 26/24 A2979=
200607240100 METAR MRLM NIL=
200607240200 METAR MRLM NIL=
200607240300 METAR MRLM NIL=
200607240400 METAR MRLM NIL=
200607240500 METAR MRLM NIL=
200607240600 METAR MRLM NIL=
200607240700 METAR MRLM NIL=
200607240800 METAR MRLM NIL=
200607240900 METAR MRLM NIL=
200607241000 METAR MRLM NIL=
200607241100 METAR MRLM NIL=
200607241200 METAR MRLM NIL=
200607241300 METAR MRLM 241300Z 21004KT CAVOK 24/22 A2981=
200607241400 METAR MRLM 241400Z 22005KT CAVOK 28/23 A2982=
200607241500 METAR MRLM 241500Z 24004KT CAVOK 29/23 A2983 RMK CB DST N HZ ARND=
200607241600 METAR MRLM 241600Z 05005KT 9999 FEW030 BKN280 30/24 A2983 RMK CB DST N HZ LIGT ARND=
200607241700 METAR MRLM 241700Z 36010KT 9999 FEW030 BKN280 30/24 A2983 RMK CB DST N NE TS NE=
200607241800 METAR MRLM 241800Z 36008KT 9999 FEW030 BKN280 30/24 A2983 CB DST N NE TS RA DST NE=
200607241900 METAR MRLM 241900Z 36011KT 9999 FEW030 BKN090 30/25 A2981 RMK CB DST ARND RN N NE E=
200607242000 METAR MRLM NIL=
200607242100 METAR MRLM 242100Z 27003KT 9999 FEW025 BKN090 29/23 A2975 CB ARND RN N S SW W=
200607242200 METAR MRLM 242200Z 07005KT 9999 FEW030 BKN080 28/23 A2973 RN W NW=
200607242300 METAR MRLM 242300Z 36003KT 9999 FEW030 BKN080 28/24 A2977 RN W NW=
200607250000 METAR MRLM 250000Z 32003KT 9999 FEW030 SCT250 28/24 A2979=
200607250100 METAR MRLM NIL=
200607250200 METAR MRLM NIL=
200607250300 METAR MRLM NIL=
200607250400 METAR MRLM NIL=
200607250500 METAR MRLM NIL=
200607250600 METAR MRLM NIL=
200607250700 METAR MRLM NIL=
200607250800 METAR MRLM NIL=
200607250900 METAR MRLM NIL=
200607251000 METAR MRLM NIL=
200607251100 METAR MRLM NIL=
200607251200 METAR MRLM NIL=
200607251300 METAR MRLM 251300Z 22004KT 9999 FEW028 SCT090 BKN250 24/23 A2980 CB NW N NE E TSTM RN NE=
200607251400 METAR MRLM 251400Z 00000KT 9999 BKN028 SCT080 25/24 A2984 CB RN ARND=
200607251500 METAR MRLM 251500Z 24004KT 7000 VCSH BKN028TCU 25/24 A2985 RERA TCU/RASH ARND=
200607251600 METAR MRLM 251600Z 18005KT 7000 -RA BKN024 SCT080 24/23 A2987 TCU ARND=
200607251700 METAR MRLM 251700Z 22006KT 9999 BKN025 BKN080 26/24 A2985 RERA RN ARND=
200607251800 METAR MRLM 251800Z 18006KT 9999 BKN028 SCT080 28/24 A2983 TCU RN ARND=
200607251900 METAR MRLM 251900Z 13007KT 9999 BKN028 SCT090 29/24 A2981=
200607252000 METAR MRLM NIL=
200607252100 METAR MRLM 252100Z 09016KT 8000 /DZ BKN028 SCT080 27/23 A2978 RERA CB RN DST ARND=
200607252200 METAR MRLM 252200Z 05009KT 7000 -RA BKN028 SCT080 26/24 A2979 CB ARND=
200607252300 METAR MRLM 252300Z 15005KT 5000 RA SCT028 SCT080 25/23 A2986 CB ARND TS NE=
200607260000 METAR MRLM 260000Z 19006KT 9999 FEW030 BKN090 24/23 A2979 RERA RN ARND=
200607260100 METAR MRLM NIL=
200607260200 METAR MRLM NIL=
200607260300 METAR MRLM NIL=
200607260400 METAR MRLM NIL=
200607260500 METAR MRLM NIL=
200607260600 METAR MRLM NIL=
200607260700 METAR MRLM NIL=
200607260800 METAR MRLM NIL=
200607260900 METAR MRLM NIL=
200607261000 METAR MRLM NIL=
200607261100 METAR MRLM NIL=
200607261200 METAR MRLM NIL=
200607261300 METAR MRLM 261300Z 22005KT CAVOK 25/23 A2982 SCT300 HZ ARND=
200607261400 METAR MRLM 261400Z 00000KT 9999 FEW022 SCT300 28/24 A2984 HZ ARND=
200607261500 METAR MRLM 261500Z VRB03KT 9999 FEW023 SCT090 29/24 A2985 VIS 8000 SE=
200607261600 METAR MRLM 261600Z 01008KT 9999 FEW027 SCT300 30/24 A2985 HZ ARND=
200607261700 METAR MRLM 261700Z 35008KT 9999 FEW027 BKN300 30/24 A2984 HZ ARND=
200607261800 METAR MRLM 261800Z 35010KT 9999 FEW028 SCT130 30/24 A2982 HZ ARND=
200607261900 METAR MRLM 261900Z 36009KT 9999 FEW027 SCT130 BKN280 30/24 A2980 CB DST S SW W N HZ ARND=
200607262000 METAR MRLM NIL=
200607262100 METAR MRLM 262100Z 35013KT 9999 FEW025 BKN120 29/24 A2978 RMK CB RN DST SW NW N NE HZ ARND=
200607262200 METAR MRLM 262200Z 35009KT 9999 FEW025 BKN120 28/23 A2978 RMK CB RN DST S W N QUADS HZY=
200607262300 METAR MRLM 262300Z 36012KT 9999 SCT020 BKN090 28/24 A2980 RMK RN HZ ARND=
200607270000 METAR MRLM NIL=
200607270100 METAR MRLM NIL=
200607270200 METAR MRLM NIL=
200607270300 METAR MRLM NIL=
200607270400 METAR MRLM NIL=
200607270500 METAR MRLM NIL=
200607270600 METAR MRLM NIL=
200607270700 METAR MRLM NIL=
200607270800 METAR MRLM NIL=
200607270900 METAR MRLM NIL=
200607271000 METAR MRLM NIL=
200607271100 METAR MRLM NIL=
200607271200 METAR MRLM NIL=
200607271300 METAR MRLM 271300Z 21004KT 9999 -DZ FEW025 OVC110 23/22 A2985 RMK CBS RN DST W/N QUADS HZ LGT ARND=
200607271400 METAR MRLM 271400Z 23005KT 9999 DZ OVC110 24/23 A2986 RMK CB RN DST N=
200607271500 METAR MRLM 271500Z 20004KT 9999 DZ BKN100 SCT140 25/23 A2986 HZY=
200607271600 METAR MRLM 271600Z VRB03KT CAVOK 27/22 A2987 RMK OVC110=
200607271700 METAR MRLM 271700Z 35005KT 9999 DZ BKN010 SCT130 27/22 A2987 CBS RN DST N=
200607271800 METAR MRLM 271800Z 35005KT 9999 DZ FEW033 SCT090 SCT120 28/22 A2987 CBS RN DST NE HZY=
200607271900 METAR MRLM 271900Z 33006KT 9999 DZ FEW030 SCT100 BKN140 28/22 A2985=
200607272000 METAR MRLM NIL=
200607272100 METAR MRLM 272100Z 02006KT 9999 FEW035 BKN110 29/19 A2983 RMK CB S=
200607272200 METAR MRLM 272200Z 33005KT 9999 FEW040 BKN110 29/20 A2982=
200607272300 METAR MRLM 272300Z 30004KT 9999 FEW035 BKN120 28/22 A2983 RMK CB RN S=
200607280000 METAR MRLM 280000Z VRB03KT 9999 FEW020 OVC100 27/22 A2983 RMK CB RN DST NE E=
200607280100 METAR MRLM NIL=
200607280200 METAR MRLM NIL=
200607280300 METAR MRLM NIL=
200607280400 METAR MRLM NIL=
200607280500 METAR MRLM NIL=
200607280600 METAR MRLM NIL=
200607280700 METAR MRLM NIL=
200607280800 METAR MRLM NIL=
200607280900 METAR MRLM NIL=
200607281000 METAR MRLM NIL=
200607281100 METAR MRLM NIL=
200607281200 METAR MRLM 281200Z 20006KT CAVOK 22/21 A2985 RMK SCT120 TCU DST NW=
200607281300 METAR MRLM 281300Z 20006KT CAVOK 25/22 A2986=
200607281400 METAR MRLM 281400Z 00000KT CAVOK 27/23 A2988=
200607281500 METAR MRLM 281500Z 25006KT 9999 FEW026 SCT120 29/21 A2988=
200607281600 METAR MRLM 281600Z 31010KT 9999 FEW026 SCT120 30/22 A2989=
200607281700 METAR MRLM 281700Z 34011KT 9999 FEW026 30/23 A2987=
200607281800 METAR MRLM 281800Z 34014KT 9999 FEW026 30/24 A2987 RMK TCU S SW=
200607281900 METAR MRLM 281900Z 34015KT 9999 FEW025TCU 30/24 A2985 RMK CB SE S SW W=
200607282000 METAR MRLM NIL=
200607282100 METAR MRLM 282100Z 33013KT 9999 SCT025 30/24 A2982 RMK CB DST S=
200607282200 METAR MRLM 282200Z 35010KT 9999 SCT025 29/24 A2981 RMK CB DST S SW W=
200607282300 METAR MRLM 282300Z 35008KT 9999 SCT025 SCT240 28/24 A2982 RMK CB DST S=
200607290000 METAR MRLM 290000Z 32005KT 9999 SCT025 SCT240 28/24 A2983=
200607290100 METAR MRLM NIL=
200607290200 METAR MRLM NIL=
200607290300 METAR MRLM NIL=
200607290400 METAR MRLM NIL=
200607290500 METAR MRLM NIL=
200607290600 METAR MRLM NIL=
200607290700 METAR MRLM NIL=
200607290800 METAR MRLM NIL=
200607290900 METAR MRLM NIL=
200607291000 METAR MRLM NIL=
200607291100 METAR MRLM NIL=
200607291200 METAR MRLM 291200Z 27004KT 9999 FEW030 BKN250 23/22 A2982/ TCU DIST E/ HZY=
200607291300 METAR MRLM 291300Z 21003KT 9999 FEW030 BKN250 25/23 A2982 RMK HZ ARND=
200607291400 METAR MRLM 291400Z 00000KT 9999 FEW028 BKN250 29/24 A2985 RMK CB DST NE HZ ARND=
200607291500 METAR MRLM 291500Z 03006KT 9999 FEW028 BKN250 28/23 A3008 RMK CB DST N NE E=
200607291600 METAR MRLM 291600Z 34010KT 9999 FEW028 BKN250 30/23 A2985=
200607291700 METAR MRLM 291700Z 35011KT 9999 FEW028 BKN250 29/24 A2985 RMK CB DST N E=
200607291800 METAR MRLM 291800Z 35010KT 9999 FEW024TCU BKN250 30/24 A2983 RMK CB DST NW N NE TCU DST SSW W=
200607291900 METAR MRLM 291900Z 35012KT 9999 FEW024TCU BKN250 29/24 A2981=
200607292000 METAR MRLM NIL=
200607292100 METAR MRLM 292100Z 36010KT 9999 SCT024 BKN250 29/25 A2978 RN RN S SW W=
200607292200 METAR MRLM 292200Z 02010KT 9999 BKN028 SCT250 29/25 A120 24/23 A2985=
200607292300 METAR MRLM 292300Z 01010KT 9999 BKN028 SCT250 29/24 A2977 TCU RN ARND=
200607300000 METAR MRLM 300000Z 000000KT 9999 BKN022 SCT250 27/23 A2980 CB RN E SE SW=
200607300100 METAR MRLM NIL=
200607300200 METAR MRLM NIL=
200607300300 METAR MRLM NIL=
200607300400 METAR MRLM NIL=
200607300500 METAR MRLM NIL=
200607300600 METAR MRLM NIL=
200607300700 METAR MRLM NIL=
200607300800 METAR MRLM NIL=
200607300900 METAR MRLM NIL=
200607301000 METAR MRLM NIL=
200607301100 METAR MRLM NIL=
200607301200 METAR MRLM NIL=
200607301300 METAR MRLM 301300Z 28002KT CAVOK 23/23 A2981 RMK SCT110 SCT140 CB DST N/NE/E RN DST NE/E=
200607301400 METAR MRLM 301400Z 21002KT CAVOK 25/23 A2982 CB RN E=
200607301500 METAR MRLM 301500Z VRB03KT CAVOK 26/24 A2983 CB NW=
200607301600 METAR MRLM 301600Z 03004KT 9999 FEW022 SCT140 28/23 A2982 CB NW=
200607301700 METAR MRLM 301700Z 35008KT 9999 SCT020 SCT140 BKN280 28/24 A2980=
200607301800 METAR MRLM 301800Z 35009KT 9999 FEW026 BKN280 28/23 A2977 CB NW=
200607301900 METAR MRLM 301900Z 01009KT 9999 FEW020 BKN280 29/23 A2975 CB SE S SW NW=
200607302000 METAR MRLM NIL=
200607302100 METAR MRLM 302100Z 36007KT 9999 FEW030 BKN280 29/24 A2971 CB DST QUAD S SE HZ/S=
200607302200 METAR MRLM 302200Z 35008KT 9999 FEW024 SCT090 BKN280 28/24 A2971 CB DST QUAD S/W=
200607302300 METAR MRLM 302300Z 35007KT 9999 FEW028 SCT090 BKN280 29/23 A2973 CB DST QUAD S/W=
200607310000 METAR MRLM 310000Z 36008KT 9999 FEW022 SCT090 BKN280 28/24 A2975 CB RN DST S/W=
200607310100 METAR MRLM NIL=
200607310200 METAR MRLM NIL=
200607310300 METAR MRLM NIL=
200607310400 METAR MRLM NIL=
200607310500 METAR MRLM NIL=
200607310600 METAR MRLM NIL=
200607310700 METAR MRLM NIL=
200607310800 METAR MRLM NIL=
200607310900 METAR MRLM NIL=
200607311000 METAR MRLM NIL=
200607311100 METAR MRLM NIL=
200607311200 METAR MRLM NIL=
200607311300 METAR MRLM 311300Z 18004KT 9999 FEW015 SCT090 BKN260 24/23 A2979 CB RN DST E=
200607311400 METAR MRLM 311400Z 00000KT CAVOK 26/24 A2982 SCT100 BKN270 CB RN DST E=
200607311500 METAR MRLM 311500Z 08007KT 9999 FEW020 SCT110 BKN270 29/24 A2982 CB RN DST NE E=
200607311600 METAR MRLM 311600Z 09009KT 9999 FEW028 SCT110 29/24 A2983 CB DST NW NE RN/NE=
200607311700 METAR MRLM 311700Z 09007KT 9999 FEW023 BKN100 29/24 A2983 CB DST NW NE RN/NE=
200607311800 METAR MRLM 311800Z 07007KT 9999 FEW030 SCT110 BKN270 30/24 A2982 CB DST S/W/NW/N RN DST N=
200607311900 METAR MRLM 311900Z 06006KT 9999 FEW026 BKN110 30/25 A2981 CB DST ARND=
200607312000 METAR MRLM NIL=
200607312100 METAR MRLM NIL=
200607312200 METAR MRLM 312200Z 01005KT 9999 FEW028 SCT270 29/24 A2977 CB DST S W QDS=
200607312300 METAR MRLM 312300Z 03005KT 9999 FEW030 SCT280 29/24 A2977 RMK CBS DST S/W QDS=
200608010000 METAR MRLM 010000Z 35005KT 9999 FEW025 SCT280 29/24 A2979 RMK CBS DST S/W QDS=
200608010100 METAR MRLM NIL=
200608010200 METAR MRLM NIL=
200608010300 METAR MRLM NIL=
200608010400 METAR MRLM NIL=
200608010500 METAR MRLM NIL=
200608010600 METAR MRLM NIL=
200608010700 METAR MRLM NIL=
200608010800 METAR MRLM NIL=
200608010900 METAR MRLM NIL=
200608011000 METAR MRLM NIL=
200608011100 METAR MRLM NIL=
200608011200 METAR MRLM NIL=
200608011300 METAR MRLM 011300Z 21005KT 9999 FEW030 26/24 A2986=
200608011400 METAR MRLM 011400Z 19003KT 9999 FEW028 SCT280 30/25 A2987=
200608011500 METAR MRLM 011500Z 03004KT 9999 FEW028 30/24 A2986=
200608011600 METAR MRLM 011600Z 05005KT 9999 FEW025 29/25 A2987 RMK CB DST SE=
200608011700 METAR MRLM 011700Z 05007KT 9999 FEW025 30/25 A2985=
200608011800 METAR MRLM 011800Z 04008KT 9999 FEW025 30/25 A2983 RMK CB DST E=
200608011900 METAR MRLM 011900Z 03009KT 9999 SCT025 30/25 A2981=
200608012000 METAR MRLM NIL=
200608012100 METAR MRLM 012100Z 01008KT 9999 SCT025 SCT250 30/25 A2979=
200608012200 METAR MRLM 012200Z 01008KT 9999 SCT025 SCT250 30/24 A2979=
200608012300 METAR MRLM 012300Z 02006KT 9999 SCT025 30/24 A2980=
200608020000 METAR MRLM 020000Z 03005KT 9999 SCT025 SCT300 29/24 A2981 RMK TCU SSW=
200608020100 METAR MRLM NIL=
200608020200 METAR MRLM NIL=
200608020300 METAR MRLM NIL=
200608020400 METAR MRLM NIL=
200608020500 METAR MRLM NIL=
200608020600 METAR MRLM NIL=
200608020700 METAR MRLM NIL=
200608020800 METAR MRLM NIL=
200608020900 METAR MRLM NIL=
200608021000 METAR MRLM NIL=
200608021100 METAR MRLM NIL=
200608021200 METAR MRLM 021200Z 21006KT 9999 FEW028 BKN250 23/22 A2981 TCU DST N NE=
200608021300 METAR MRLM 021300Z 20005KT 9999 FEW028 BKN250 25/23 A2985 RMK CB N NE=
200608021400 METAR MRLM 021400Z 20004KT 9999 FEW028 BKN240 27/24 A2986 RMK CB RN N NE E=
200608021500 METAR MRLM 021500Z 25004KT 9999 FEW030 BKN240 30/24 A2986 RMK CB RN N NW=
200608021600 METAR MRLM 021600Z 03005KT 9999 FEW030 BKN240 29/24 A2987 RMK CB NW NE=
200608021700 METAR MRLM NIL=
200608021800 METAR MRLM 021800Z 05007KT 9999 FEW028 SCT100 BKN240 30/25 A2987 RMK CB NNE=
200608021900 METAR MRLM 021900Z 07005KT 9999 FEW025 BKN250 30/25 A2983=
200608022000 METAR MRLM NIL=
200608022100 METAR MRLM 022100Z 05005KT 9999 FEW025 BKN250 30/25 A2977=
200608022200 METAR MRLM 022200Z 01006KT 9999 FEW025 BKN250 29/25 A2976=
200608022300 METAR MRLM 022300Z 05005KT 9999 FEW025 BKN250 30/25 A2977=
200608030000 METAR MRLM NIL=
200608030100 METAR MRLM NIL=
200608030200 METAR MRLM NIL=
200608030300 METAR MRLM NIL=
200608030400 METAR MRLM NIL=
200608030500 METAR MRLM NIL=
200608030600 METAR MRLM NIL=
200608030700 METAR MRLM NIL=
200608030800 METAR MRLM NIL=
200608030900 METAR MRLM NIL=
200608031000 METAR MRLM NIL=
200608031100 METAR MRLM NIL=
200608031200 METAR MRLM NIL=
200608031300 METAR MRLM 031300Z 23004KT CAVOK 26/24 A2982 RMK HZ ARND CB DST N NE=
200608031400 METAR MRLM 031400Z 15002KT CAVOK 29/25 A2983 RMK CB DST N NE HZ ARND LIGHT=
200608031500 METAR MRLM 031500Z 09005KT 9999 FEW025 SCT280 30/24 A2984 RMK CB DST N HZ ARND LIGHT=
200608031600 METAR MRLM 031600Z 07005KT 9999 FEW030 SCT280 30/24 A2984 HZ ARND LIGHT=
200608031700 METAR MRLM 031700Z 06006KT 9999 FEW033 SCT280 31/24 A2983=
200608031800 METAR MRLM 031800Z 04007KT 9999 FEW033 31/24 A2981 CB DST NW HZ ARND=
200608031900 METAR MRLM 031900Z 03009KT 9999 FEW028 31/25 A2979 RMK CB DST SE=
200608032000 METAR MRLM NIL=
200608032100 METAR MRLM 032100Z 04006KT 9999 FEW030 31/25 A2976 CB SW=
200608032200 METAR MRLM 032200Z 05005KT 9999 FEW030 31/25 A2976 CB SW=
200608032300 METAR MRLM 032300Z 03005KT 9999 FEW028 30/25 A2977=
200608040000 METAR MRLM 040000Z 06005KT 9999 FEW025 30/25 A2979 CB DST SE W=
200608040100 METAR MRLM NIL=
200608040200 METAR MRLM NIL=
200608040300 METAR MRLM NIL=
200608040400 METAR MRLM NIL=
200608040500 METAR MRLM NIL=
200608040600 METAR MRLM NIL=
200608040700 METAR MRLM NIL=
200608040800 METAR MRLM NIL=
200608040900 METAR MRLM NIL=
200608041000 METAR MRLM NIL=
200608041100 METAR MRLM NIL=
200608041300 METAR MRLM 041300Z 22007KT 9999 SCT015 SCT260 24/22 A2982 RMK CB/RN DST NW/N/NE/E HZ ARND=
200608041400 METAR MRLM 041400Z 23004KT 9999 FEW016 BKN270 28/24 A2985 CB RN N NE E SE=
200608041500 METAR MRLM 041500Z VRB03KT 9999 FEW020 SCT080 BKN260 29/25 A2985 CB RN NW N NE E TSTM N=
200608041600 METAR MRLM 041600Z 06004KT 9999 FEW020 BKN080 29/25 A2986 CB RN NW N NE E=
200608041700 METAR MRLM 041700Z 01009KT 9999 SCT020 BKN080 29/25 A2983 CB NW N=
200608041800 METAR MRLM 041800Z 01009KT 9999 FEW025 30/25 A2981 CB SE S=
200608041900 METAR MRLM 041900Z 01008KT 9999 FEW025 30/25 A2978 CB N NE E SE=
200608042000 METAR MRLM 042000Z NIL=
200608042100 METAR MRLM 042100Z 02007KT 9999 OVC025 30/25 A2976 RMK CB DST SW LEVE HZY=
200608042200 METAR MRLM 042200Z 03008KT 9999 BKN026 30/25 A2973 RMK RN CB DST S SW W LEVE HZY=
200608042300 METAR MRLM 042300Z 02007KT 9999 OVC022 29/25 A2975 RMK CB RN DST S W=
200608050000 METAR MRLM 050000Z 02008KT 9999 SCT022 SCT280 29/25 A2976 RERA RMK CB DST SE S SW W=
200608050100 METAR MRLM NIL=
200608050200 METAR MRLM NIL=
200608050300 METAR MRLM NIL=
200608050400 METAR MRLM NIL=
200608050500 METAR MRLM NIL=
200608050600 METAR MRLM NIL=
200608050700 METAR MRLM NIL=
200608050800 METAR MRLM NIL=
200608050900 METAR MRLM NIL=
200608051000 METAR MRLM NIL=
200608051100 METAR MRLM NIL=
200608051200 METAR MRLM 051200Z 21005KT 9999 BKN026TCU 24/23 A2977 RERA=
200608051300 METAR MRLM 051300Z 17004KT 9999 BKN026 24/24 A2978 RMK CB RN DST ARND TS DST WNW NE=
200608051400 METAR MRLM 051400Z 23004KT 9999 BKN028 SCT080 26/24M A2980 RMK CB RN DST ARND=
200608051500 METAR MRLM 051500Z 08004KT 9999 BKN030 SCT080 28/25 A2981 RMK TCU RN DST ARND=
200608051600 METAR MRLM 051600Z 03004KT 9999 BKN030 29/25 A2980 RMK TCU RN DST ARND=
200608051700 METAR MRLM 051700Z 06005KT 9999 BKN030 30/25 A2979 RMK TCU RN DST ARND=
200608051800 METAR MRLM 051800Z 07009KT 9999 SCT028TCU SCT090 29/25 A2978 RMK RN DST ARND=
200608051900 METAR MRLM 051900Z 07004KT 9999 SCT028TCU BKN250 30/23 A2976 RMK RN DST SSW=
200608052000 METAR MRLM 052000Z NIL=
200608052100 METAR MRLM 052100Z 04003KT 9999 FEW028 BKN250 31/24 A2973=
200608052200 METAR MRLM 052200Z 06005KT 9999 FEW028 BKN250 30/24 A2972=
200608052300 METAR MRLM 052300Z 02004KT 9999 FEW028 BKN250 30/24 A2972=
200608060000 METAR MRLM NIL=
200608060100 METAR MRLM NIL=
200608060200 METAR MRLM NIL=
200608060300 METAR MRLM NIL=
200608060400 METAR MRLM NIL=
200608060500 METAR MRLM NIL=
200608060600 METAR MRLM NIL=
200608060700 METAR MRLM NIL=
200608060800 METAR MRLM NIL=
200608060900 METAR MRLM NIL=
200608061000 METAR MRLM NIL=
200608061100 METAR MRLM NIL=
200608061200 METAR MRLM 061200Z 23005KT 9999 TSRA FEW018CB SCT030 BKN080 24/23 A//// CB RN ARND TS NNE=
200608061300 METAR MRLM 061300Z 20004KT 9999 BKN035 SCT080 24/23 A2980 RETS RMK CB RN DST ARND TS N NE=
200608061400 METAR MRLM 061400Z 23005KT 9999 DZ SCT035 BKN090 24/23 A2979 RMK CB DST NW N NE RN ARND=
200608061500 METAR MRLM 061500Z 28005KT 9999 +DZ SCT030 SCT090 24/23 A2978 RMK CB DST N NE E=
200608061600 METAR MRLM 061600Z 20006KT 9999 FEW028 SCT045 25/24 A2979 REDZ RMK CB DST N E SE RN DST ARND=
200608061700 METAR MRLM 061700Z 24005KT 9999 SCT030 SCT090 28/25 A2980 RMK CB DST NW N NE SE DST RNA RND TS DST NE=
200608061800 METAR MRLM 061800Z 35004KT 9999 FEW028 SCT080 BKN240 30/24 A2980 RMK CB RN DST ARND=
200608061900 METAR MRLM 061900Z 01007KT 9999 FEW026 SCT040 29/24 A2977 CB RN DST ARND=
200608062000 METAR MRLM NIL=
200608062100 METAR MRLM 062100Z 09009KT 9999 DZ FEW026 SCT130 28/25 A2974 RMK CB RN ARND=
200608062200 METAR MRLM 062200Z 14004KT 9999 -DZ 9999 FEW026 SCT040 28/25 A2973 RMK CB SW RN ARND=
200608062300 METAR MRLM 062300Z 21003KT 9999 BKN040 SCT220 26725 A2973 REDZ=
200608070000 METAR MRLM 070000Z 18003KT 9999 SCT040 SCT120 26/25 A2976 RMK CB DST SW W RN ARND=
200608070100 METAR MRLM NIL=
200608070200 METAR MRLM NIL=
200608070300 METAR MRLM NIL=
200608070400 METAR MRLM NIL=
200608070500 METAR MRLM NIL=
200608070600 METAR MRLM NIL=
200608070700 METAR MRLM NIL=
200608070900 METAR MRLM NIL=
200608071100 METAR MRLM NIL=
200608071200 METAR MRLM NIL=
200608071300 METAR MRLM 071300Z 19005KT 9999 BKN025 24/23 A2980 RMK CB RN N S SW=
200608071400 METAR MRLM 071400Z VRB03KT 9999 BKN025 25/24 A2981 RMK CB RN N E=
200608071500 METAR MRLM 071500Z 27005KT 9999 FEW015 SCT025 27/24 A2981 RMK CB RN NE=
200608071600 METAR MRLM 071600Z VRB03KT 9999 SCT028 SCT100 30/24 A2982 RMK CB RN NN NE=
200608071700 METAR MRLM NIL=
200608071800 METAR MRLM 071800Z 33006KT 9999 RA FEW015 BKN025 27/25 A2980 RMK CB E SE S W=
200608071900 METAR MRLM 071900Z VRB03KT 9999 SCT020 SCT080 29/25 A2978 CB RN ARND=
200608072000 METAR MRLM NIL=
200608072100 METAR MRLM 072100Z 11006KT 9999 SCT022 SCT150 29/24 A2974 CB/RN/HZ ARND=
200608072200 METAR MRLM 072200Z VRB03KT 9999 FEW016 SCT150 BKN270 28/25 A2974 CB RN HZ ARND=
200608072300 METAR MRLM 072300Z 17004KT 9999 TS SCT010CB BKN016 28/25 A2974 CB RN ARND VIS 6000NE/E TSRA=
200608080000 METAR MRLM 080000Z 12009KT 8000 TSRA SCT003 SCT010CB BKN025 26/24 A2977=
200608080100 METAR MRLM NIL=
200608080200 METAR MRLM NIL=
200608080300 METAR MRLM NIL=
200608080400 METAR MRLM NIL=
200608080500 METAR MRLM NIL=
200608080600 METAR MRLM NIL=
200608080700 METAR MRLM NIL=
200608080800 METAR MRLM NIL=
200608080900 METAR MRLM NIL=
200608081000 METAR MRLM NIL=
200608081100 METAR MRLM NIL=
200608081200 METAR MRLM NIL=
200608081300 METAR MRLM 081300Z 00000KT 8000 RA FEW012 BKN090 24/23 A2978 CB DST N/E VIS 9999 S/W=
200608081400 METAR MRLM 081400Z 21004KT 8000 RA SCT015 OVC090 25/23 A2982 CB DST N/E=
200608081500 METAR MRLM 081500Z 21006KT 9000 RA FEW004 SCT025 BKN080 24/23 A2984 CB RN VIS 9999 QUAD N E=
200608081600 METAR MRLM 081600Z 20007KT 9999 FEW012 SCT090 BKN270 26/24 A2983 CB DST ARND RN/NE RERA=
200608081700 METAR MRLM 081700Z 21006KT CAVOK 29/23 A2980 RMK BKN130/SCT270=
200608081800 METAR MRLM 081800Z 08006KT CAVOK 31/23 A2978 BKN140 CB RN DST N/E HZ ARND=
200608081900 METAR MRLM 081900Z 08005KT 9999 FEW035 BKN110 30/24 A2977 RMK CB RN=
200608082000 METAR MRLM NIL=
200608082100 METAR MRLM 082100Z 01008KT 9999 FEW030 BKN130 29/23 A2974 CB RN W E=
200608082200 METAR MRLM 082200Z 36005KT 9999 FEW028 SCT150 BKN270 29/24 A2973 CB NW W E RN E=
200608082300 METAR MRLM 082300Z 32002KT CAVOK 29/23 A2974=
200608090000 METAR MRLM 090000Z 19002KT CAVOK 27/25 A2976 CB DST W NW RN SE S=
200608090100 METAR MRLM NIL=
200608090200 METAR MRLM NIL=
200608090300 METAR MRLM NIL=
200608090400 METAR MRLM NIL=
200608090500 METAR MRLM NIL=
200608090600 METAR MRLM NIL=
200608090700 METAR MRLM NIL=
200608090800 METAR MRLM NIL=
200608090900 METAR MRLM NIL=
200608091000 METAR MRLM NIL=
200608091100 METAR MRLM NIL=
200608091200 METAR MRLM NIL=
200608091300 METAR MRLM 091300Z 22005KT 9999 FEW030 SCT100 BKN250 23/22 A2978 CB RN NW N NE E=
200608091400 METAR MRLM 091400Z 21004KT 9999 FEW030 SCT090 25/23 A2981 CB RN NW N NE E TS NE=
200608091500 METAR MRLM 091500Z 00000KT 9999 FEW030 BKN080 26/23 A2983 CB RN NW N NE E=
200608091600 METAR MRLM 091600Z 22005KT 9999 DZ FEW030 BKN080 26/24 A2983 RN ARND=
200608091700 METAR MRLM 091700Z 24003KT 9999 FEW030 BKN080 27/24 A2983 RN NE E=
200608091800 METAR MRLM 091800Z 33012KT 9999 SCT028 BKN090 28/24 A2983 RN CB N NE S E=
200608091900 METAR MRLM 091900Z 34010KT 9999 SCT028 BKN230 28/23 A2980 RN S SW=
200608092000 METAR MRLM NIL=
200608092100 METAR MRLM 092100Z 36007KT 9999 FEW028 SCT090 28/24 A2977 RMK RN DST NE E SE=
200608092200 METAR MRLM 092200Z 31005KT 9999 FEW028 BKN090 28/24 A2976 RMK RN DST N NE E SE HZY=
200608092300 METAR MRLM 092300Z 34006KT 9999 FEW028 SCT090 28/24 A2976 RMK TCU RN DST N NE E SE HZY=
200608100000 METAR MRLM 100000Z 25003KT 9999 FEW026 BKN080 27/24 A2976 RMK TCU RN DST N E SE HZY=
200608100100 METAR MRLM NIL=
200608100200 METAR MRLM NIL=
200608100300 METAR MRLM NIL=
200608100400 METAR MRLM NIL=
200608100500 METAR MRLM NIL=
200608100600 METAR MRLM NIL=
200608100700 METAR MRLM NIL=
200608100800 METAR MRLM NIL=
200608100900 METAR MRLM NIL=
200608101000 METAR MRLM NIL=
200608101100 METAR MRLM NIL=
200608101200 METAR MRLM 101200Z 00000KT 9999 SCT026 BKN090 24/23 A2978 CB/TS DST N RN ARND=
200608101300 METAR MRLM 101300Z 00000KT 9999 SCT026 BKN120 24/23 A2980 RMK DST ARND=
200608101400 METAR MRLM 101400Z 20004KT 9999 DZ FEW030 SCT120 26/24 A2979 RMK CB RN DST N E SE=
200608101500 METAR MRLM 101500Z 07004KT CAVOK 30/24 A2979 REDZ RMK HZY=
200608101600 METAR MRLM 101600Z 02006KT 9999 FEW030 BKN250 29/24 A2980 RMK HZ ARND=
200608101700 METAR MRLM 101700Z 35007KT 9999 FEW025 BKN250 29/24 A2980 RMK LEVE HZY=
200608101800 METAR MRLM 101800Z 36010KT 9999 FEW025 BKN250 30/24 A2977 RMK CB DST N S RN DST S LEVE HZY=
200608101900 METAR MRLM 101900Z 35009KT 9999 FEW025 BKN250 29/24 A2975 RMK CB DST S HZY=
200608102000 METAR MRLM NIL=
200608102100 METAR MRLM 102100Z 35011KT 9999 BKN028 29/25 A2973 RMK RN S/SW=
200608102200 METAR MRLM 102200Z 34010KT 9999 SCT028 SCT250 28/25 A2972 RMK CB DST S SW=
200608102300 METAR MRLM 102300Z 35009KT 9999 BKN028 SCT250 28/25 A2975 RMK RN DST SW WSW=
200608110000 METAR MRLM 110000Z 28003KT 9999 SCT025 BKN100 28/25 A2976 RMK RN DST N NE SW WSW=
200608110100 METAR MRLM NIL=
200608110200 METAR MRLM NIL=
200608110300 METAR MRLM NIL=
200608110400 METAR MRLM NIL=
200608110500 METAR MRLM NIL=
200608110600 METAR MRLM NIL=
200608110700 METAR MRLM NIL=
200608110800 METAR MRLM NIL=
200608110900 METAR MRLM NIL=
200608111000 METAR MRLM NIL=
200608111100 METAR MRLM NIL=
200608111200 METAR MRLM 111200Z 21005KT 9999 -RA FEW025 BKN090 24/23 A2977 CB N NE E SE TS E=
200608111300 METAR MRLM 111300Z 22006KT 9999 -RA FEW025 BKN090 24/23 A2977=
200608111400 METAR MRLM 111400Z 17004KT 9999 +DZ FEW028 BKN090 24/23 A2978 RMK CB DST NW=
200608111500 METAR MRLM 111500Z 18003KT 9999 FEW030 SCT090 25/24 A2981 REDZ=
200608111600 METAR MRLM 111600Z 02004KT 9999 FEW030 SCT090 BKN250 29/24 A2980 RMK RN DST WNW=
200608111800 METAR MRLM 111800Z 03005KT 9999 FEW030 SCT250 29/24 A2977=
200608111900 METAR MRLM 111900Z 01006KT 9999 FEW028 BKN250 30/24 A2975 RMK CB DST NW N SW=
200608112000 METAR MRLM 222000Z NIL=
200608112100 METAR MRLM 112100Z 02006KT 9999 FEW028 BKN250 30/24 A2971 RMK CB SW=
200608112200 METAR MRLM 112200Z 01007KT 9999 FEW028 BKN250 30/25 A2971 RMK CB NW TCU W SW=
200608112300 METAR MRLM 112300Z 02006KT 9999 FEW028 BKN250 29/24 A2973 CB S SW=
200608120000 METAR MRLM 120000Z 02003KT 9999 FEW028 SCT090 BKN250 29/24 A2974 RMK CB RN DST S SW=
200608120100 METAR MRLM NIL=
200608120200 METAR MRLM NIL=
200608120300 METAR MRLM NIL=
200608120400 METAR MRLM NIL=
200608120500 METAR MRLM NIL=
200608120600 METAR MRLM NIL=
200608120700 METAR MRLM NIL=
200608120800 METAR MRLM NIL=
200608120900 METAR MRLM NIL=
200608121000 METAR MRLM NIL=
200608121100 METAR MRLM NIL=
200608121200 METAR MRLM 121200Z 22005KT CAVOK 24/22 A2976 RMK CB DST NW N NE E HZY=
200608121300 METAR MRLM 121300Z 21005KT CAVOK 25/23 A2977 RMK CB NW N NE E=
200608121400 METAR MRLM 121400Z 21004TK CAVOK 26/24 A2978 RMK CB W NW N=
200608121500 METAR MRLM 121500Z 35004KT CAVOK 29/25 A2978 RMK CB NE=
200608121600 METAR MRLM 121600Z 29007KT 9999 FEW030 SCT100 BKN250 30/24 A2978=
200608121700 METAR MRLM 121700Z 35010KT 9999 FEW030 BKN250 30/24 A2977=
200608121800 METAR MRLM 121800Z 34011KT 9999 FEW025 BKN250 30/25 A2976=
200608121900 METAR MRLM 121900Z 35015KT 9999 FEW025 BKN250 30/25 A2975=
200608122000 METAR MRLM NIL=
200608122100 METAR MRLM NIL=
200608122200 METAR MRLM 122200Z 36009KT 9999 FEW025 BKN250 29/25 A2971 CB DST SE S SW=
200608122300 METAR MRLM 122300Z 36004KT 9999 FEW025 SCT090 BKN250 29/24 A2973 CB SE S SW DST=
200608130000 METAR MRLM NIL=
200608130100 METAR MRLM NIL=
200608130200 METAR MRLM NIL=
200608130300 METAR MRLM NIL=
200608130400 METAR MRLM NIL=
200608130500 METAR MRLM NIL=
200608130600 METAR MRLM NIL=
200608130700 METAR MRLM NIL=
200608130800 METAR MRLM NIL=
200608130900 METAR MRLM NIL=
200608131000 METAR MRLM NIL=
200608131100 METAR MRLM NIL=
200608131200 METAR MRLM NIL=
200608131300 METAR MRLM 131300Z 21004KT 9999 FEW025 BKN090 26/24 A2980 RMK TCU DST NE HZY=
200608131400 METAR MRLM 131400Z 20003KT CAVOK 28/25 A2982 RMK HZY=
200608131500 METAR MRLM 131500Z 05004KT 9999 FEW025 SCT100 BKN250 30/25 A2984 RMK HZY=
200608131600 METAR MRLM 131600Z 04004KT 9999 FEW025 BKN250 31/25 A2982 RMK HZY=
200608131700 METAR MRLM 131700Z 02007KT 9999 FEW025 BKN250 30/24 A2982 RMK CB DST N NE=
200608131800 METAR MRLM 131800Z 36010KT 9999 FEW035 SCT090 BKN250 31/25 A2981 RMK HZY=
200608131900 METAR MRLM 131900Z 34016KT 9999 FEW025 BKN050 29/26 A2980 RMK CB RN DST ENE SW=
200608132000 METAR MRLM 132000Z NIL=
200608132100 METAR MRLM 132100Z 29004KT 9999 FEW025 BKN090 29/25 A2978=
200608132200 METAR MRLM 132200Z 25004KT 9999 FEW025 SCT100 NBKN240 29/25 A2977 CB RN S SW W=
200608132300 METAR MRLM 132300Z 25005KT 9999 FEW030 BKN090 28/25 A2977=
200608140000 METAR MRLM 140000Z 00000KT 9999 BKN040 SCT090 28/25 A2979 RN DST NW N NE E=
200608140100 METAR MRLM NIL=
200608140200 METAR MRLM NIL=
200608140300 METAR MRLM NIL=
200608140400 METAR MRLM NIL=
200608140500 METAR MRLM NIL=
200608140600 METAR MRLM NIL=
200608140700 METAR MRLM NIL=
200608140800 METAR MRLM NIL=
200608140900 METAR MRLM NIL=
200608141000 METAR MRLM NIL=
200608141100 METAR MRLM NIL=
200608141200 METAR MRLM 141200Z 22006KT 9999 FEW026 BKN080 24/23 A2979 RMK CB RN DST WNW NW N NE E TS NNE=
200608141300 METAR MRLM 141300Z 25003KT 9999 FEW028 SCT050 BKN140 25/24 A2980 CB RN NW N NE E TSTM NE=
200608141400 METAR MRLM 141400Z 00000KT 9999 -DZ BKN030 SCT090 25/24 A2985 CB RN ARND=
200608141500 METAR MRLM 141500Z 27004KT 9999 -DZ SCT028 BKN045 25/24 A2988 CB RN ARND TSTM N NE=
200608141600 METAR MRLM 141600Z 23006KT 9999 DZ FEW020CB BKN040 25/24 A2988 RETS CB RN ARND=
200608141700 METAR MRLM 141700Z 25008KT 7000 -RA BKN026 SCT080 25/24 A2986 RMK TCU N/NE/E=
200608141800 METAR MRLM 141800Z 27004KT 9999 -DZ SCT028 BKN045 25/24 A2988 CB RN ARND TSTM N NE=
200608141900 METAR MRLM 141900Z 20004KT 9999 FEW030 BKN140 26/25 A2981 TCU N E SE RN ARND=
200608142000 METAR MRLM NIL=
200608142100 METAR MRLM 142100Z 19005KT 9999 SCT040 BKN130 27/25 A2979 CB DST NW N NE E RN/HZ ARND=
200608142200 METAR MRLM 142200Z 20004KT 9999 BKN030 SCT090 28/25 A2979 CB DST NW N NE E TS NE E RN HZ ARND=
200608142300 METAR MRLM 142300Z 07008KT 3000 -RA OVC024 27/25 A2981 CB DST ARND=
200608150000 METAR MRLM 150000Z 24003KT 9999 3000N VCSH FEW020CB BKN026 26/25 A2982 CB RN ARND=
200608150100 METAR MRLM NIL=
200608150200 METAR MRLM NIL=
200608150300 METAR MRLM NIL=
200608150400 METAR MRLM NIL=
200608150500 METAR MRLM NIL=
200608150600 METAR MRLM NIL=
200608150700 METAR MRLM NIL=
200608150800 METAR MRLM NIL=
200608150900 METAR MRLM NIL=
200608151000 METAR MRLM NIL=
200608151100 METAR MRLM NIL=
200608151200 METAR MRLM 151200Z 31005KT 9999 SCT030 SCT080 24/23 A2980 RN DST HZ ARND=
200608151300 METAR MRLM 151300Z 19006KT 9999 SCT028 BKN035 24/24 A2984 RMK TCU RN DST ARND=
200608151400 METAR MRLM 151400Z 20006KT 9999 BKN030 SCT090 25/24 A2985 RMK CB DST NW N NE E TS DST NE E=
200608151500 METAR MRLM 151500Z 31009KT 8000 TS DZ FEW020CB BKN026 26/24 A2987 RMK CB RN ARND TS N NE=
200608151600 METAR MRLM 151600Z 01014KT 1000 TSRA FEW015CB BKN024 25/24 A2991=
200608151700 METAR MRLM 151700Z 03005KT 9999 DZ FEW015CB BKN035 24/24 A2989 RETSRA CB RA ARND=
200608151800 METAR MRLM 151800Z 02003KT 9999 BKN028 SCT080 25/24 A2987 REDZ RMK CB RN ARND HZY=
200608151900 METAR MRLM 151900Z 26006KT 9999 SCT030 SCT080 26/25 A2984 RMK CB DST ARND HZY=
200608152000 METAR MRLM NIL=
200608152100 METAR MRLM 152100Z 26005KT 9999 SCT030 BKN080 27/24 A2981 RMK RN HZ ARND DST=
200608152200 METAR MRLM 152200Z 19004KT 9999 BKN028 27/25 A2983 RMK CB RN DST ARND=
200608152300 METAR MRLM 152300Z 21006KT 9999 SCT030 BKN090 26/25 A2982 RMK CB RN NE E SE S HZY=
200608160000 METAR MRLM 160000Z 20006KT 9999 BKN028 SCT090 26/24 A2982 RERA RMK CB DST NE E SE S=
200608160100 METAR MRLM NIL=
200608160200 METAR MRLM NIL=
200608160300 METAR MRLM NIL=
200608160400 METAR MRLM NIL=
200608160500 METAR MRLM NIL=
200608160600 METAR MRLM NIL=
200608160800 METAR MRLM NIL=
200608160900 METAR MRLM NIL=
200608161000 METAR MRLM NIL=
200608161100 METAR MRLM NIL=
200608161200 METAR MRLM 161200Z NIL=
200608161300 METAR MRLM 161300Z 20006KT 9999 FEW028 BKN240 24/23 A2984 RMK CB RN DST N NE E=
200608161400 METAR MRLM 161400Z 24004KT 9999 FEW028 SCT090 25/24 A2985 RMK CB RN DST N NE E=
200608161500 METAR MRLM 161500Z 00000KT 9999 +DZ FEW028 BKN090 25/24 A2984 RMK CB RN DST N NE E SE=
200608161600 METAR MRLM 161600Z 26005KT 8000 DZ FEW030 BKN090 24/23 A2982 RERA CB DST N NE E DST TS E=
200608161700 METAR MRLM 161700Z 18004KT 5000 -RA FEW025 BKN030 24/23 A2991 RMK CB DST N NE E T S NE E=
200608161800 METAR MRLM 161800Z 00000KT 4000 RA BKN026 SCT080 24/23 A2991 RMK CB DST NW N NE E=
200608161900 METAR MRLM 161900Z 23004KT 7000 -RA BKN026 SCT080 24/23 A2991 RMK CB DST NW N NE E TS DST N NE=
200608162000 METAR MRLM 162000Z NIL=
200608162100 METAR MRLM 162100Z 24004KT 9999 DZ FEW030 BKN090 24/23 A2980 RMK CB NW N NE=
200608162200 METAR MRLM 162200Z 02005KT 9999 DZ FEW030 BKN090 25723 A2983 RMK CB NW N NE=
200608162300 METAR MRLM 162300Z 24004KT 9999 SCT040 BKN090 24/24 A2983 REDZ RMK RN ARND=
200608170000 METAR MRLM 170000Z 00000KT 9999 BKN045 SCT100 24/23 A2983 RMK CB DST N NE E RN ARND=
200608170100 METAR MRLM NIL=
200608170200 METAR MRLM NIL=
200608170300 METAR MRLM NIL=
200608170400 METAR MRLM NIL=
200608170500 METAR MRLM NIL=
200608170600 METAR MRLM NIL=
200608170700 METAR MRLM NIL=
200608170800 METAR MRLM NIL=
200608170900 METAR MRLM NIL=
200608171000 METAR MRLM NIL=
200608171100 METAR MRLM NIL=
200608171200 METAR MRLM 171200Z 20004KT 9999 BKN045 23/22 A2984=
200608171300 METAR MRLM 171300Z 22004KT 9999 FEW045 BKN080 24/22 A2984=
200608171400 METAR MRLM 171400Z 22003KT 9999 FEW035 BKN090 26/23 A2984=
200608171500 METAR MRLM 171500Z 19004KT 9999 FEW045 BKN090 28/23 A2986=
200608171600 METAR MRLM 171600Z 03005KT CAVOK 29/24 A2986=
200608171700 METAR MRLM 171700Z 36009KT 9999 FEW030 BKN250 29/24 A2985 RMK CB NE=
200608171800 METAR MRLM 171800Z 35011KT 9999 FEW025 BKN250 30/24 A2983 RMK CB NW N TCU W SW=
200608171900 METAR MRLM 171900Z 36010KT 9999 FEW025 SCT100 BKN250 30/25 A2980 RMK CB DST ARND RN DST SSW=
200608172000 METAR MRLM 172000Z NIL=
200608172100 METAR MRLM 172100Z 35007KT 9999 FEW025 BKN240 29/24 A2982 RMK CB DST ARND RN NE E SW=
200608172200 METAR MRLM 172200Z 35006KT 9999 BKN030 29/25 A2977 RMK RN DST ARND=
200608172300 METAR MRLM 172300Z 35004KT 9999 FEW030 SCT240 29/24 A2978 RMK CB RN DST SW W NW N=
200608180000 METAR MRLM 180000Z 20003KT 9999 SCT030 BKN240 27/25 A2980=
200608180100 METAR MRLM NIL=
200608180200 METAR MRLM NIL=
200608180300 METAR MRLM NIL=
200608180400 METAR MRLM NIL=
200608180500 METAR MRLM NIL=
200608180700 METAR MRLM NIL=
200608180800 METAR MRLM NIL=
200608180900 METAR MRLM NIL=
200608181000 METAR MRLM NIL=
200608181100 METAR MRLM NIL=
200608181200 METAR MRLM 181200Z 00000KT 9999 DZ FEW026 BKN090 23/23 A2982=
200608181300 METAR MRLM 181300Z 00000KT 9999 FEW026 BKN090 24/23 A2982 REDZ RMK RN SDT N NE E=
200608181400 METAR MRLM NIL=
200608181500 METAR MRLM 181500Z 09003KT 9999 FEW040 BKN250 28/23 A2986 RMK RN DST NE=
200608181600 METAR MRLM 181600Z 06004KT 9999 FEW025 BKN090 28/24 A2986 RMK TCU RN DST NE E SE=
200608181700 METAR MRLM 181700Z 08004KT 9999 FEW028 BKN100 29/24 A2984=
200608181800 METAR MRLM 181800Z 07005KT 9999 FEW030 BKN080 29/24 A2981 RMK CB DST NE W RN NE=
200608181900 METAR MRLM 181900Z 04007KT 9999 FEW030 BKN090 31/23 A2979 RMK CB DST N=
200608182100 METAR MRLM 182100Z 02004KT 9999 FEW030 BKN250 30/24 A2974 CB S SE=
200608182200 METAR MRLM 182200Z 05004KT 9999 FEW030 BKN250 30/24 A2975 CB S SW W=
200608182300 METAR MRLM 182300Z 04005KT 9999 FEW028 BKN250 29/25 A2976=
200608190000 METAR MRLM 190000Z 02003KT 9999 FEW026 SCT090 BKN250 29/24 A2977 CB ARND RN SW=
200608190100 METAR MRLM NIL=
200608190200 METAR MRLM NIL=
200608190300 METAR MRLM NIL=
200608190400 METAR MRLM NIL=
200608190500 METAR MRLM NIL=
200608190600 METAR MRLM NIL=
200608190700 METAR MRLM NIL=
200608190800 METAR MRLM NIL=
200608190900 METAR MRLM NIL=
200608191000 METAR MRLM NIL=
200608191100 METAR MRLM NIL=
200608191200 METAR MRLM 191200Z 19004KRT 9999 FEW025 SCT250 24/23 A2979 RMK CB RN DST NW N NE E SE=
200608191300 METAR MRLM 191300Z 20003KT 9999 FEW025 BKN080 24/23 A2982 CB RN NW NE E SE=
200608191400 METAR MRLM 191400Z 21003KT 9999 FEW030 BKN080 26/24 A2984 CB RN NW E SE=
200608191500 METAR MRLM 191500Z 28006KT 9999 FEW028 SCT090 BKN240 28/24 A2984 CB RN NW N NE=
200608191600 METAR MRLM 191600Z 30006KT 9999 FEW028 BKN090 28/23 A2984 CB RN N NE E TS E=
200608191700 METAR MRLM 191700Z 34007KT 9999 FEW028 BKN090 28/24 A2983 CB RN NW N NE E=
200608191800 METAR MRLM 191800Z 07012KT 9999 BKN028 27/24 A2982 CB RN NE E=
200608191900 METAR MRLM 191900Z 12006KT 9999 FEW025 BKN240 27/23 A2979 CB RN ARND=
200608192000 METAR MRLM 192000Z 13003KT 9999 FEW025 BKN090 28/23 A2975 RMK RN DST NE SE SW=
200608192100 METAR MRLM 192100Z 08005KT 9999 FEW025 SCT090 BKN240 28/23 A2976 RMK CB RN DST ARND=
200608192200 METAR MRLM 192200Z 09004KT 9999 FEW025 BKN090 28/23 A2975 RMK CB RN DST NE S SW=
200608192300 METAR MRLM NIL=
200608200000 METAR MRLM 200000Z 13003KT 9999 FEW025 BKN080 27/23 A2976 RMK CB RN DST ARND=
200608200100 METAR MRLM NIL=
200608200200 METAR MRLM NIL=
200608200300 METAR MRLM NIL=
200608200400 METAR MRLM NIL=
200608200500 METAR MRLM NIL=
200608200600 METAR MRLM NIL=
200608200700 METAR MRLM NIL=
200608200800 METAR MRLM NIL=
200608200900 METAR MRLM NIL=
200608201000 METAR MRLM NIL=
200608201100 METAR MRLM NIL=
200608201200 METAR MRLM 201200Z 21004KT 9999 FEW025 BKN090 23/22 A2980 RMK CB/RN=
200608201300 METAR MRLM 201300Z 20004KT 9999 FEW025 BKN100 25/24 A2981 RMK LEVE HZY=
200608201400 METAR MRLM 201400Z 31003KT 9999 FEW025 SCT100 BKN250 29/24 A2983 RMK=
200608201500 METAR MRLM 201500Z 29003KT 9999 SCT028 BKN250 30/24 A2984=
200608201600 METAR MRLM 201600Z 35010KT 9999 FEW028 BKN250 30/24 A2983=
200608201700 METAR MRLM 201700Z 35009KT 9999 FEW025 BKN250 29/24 A2982=
200608201800 METAR MRLM 201800Z 35012KT 9999 FEW025 BKN250 29/25 A2981 RMK CB RN DST W TCU DST SE=
200608201900 METAR MRLM 201900Z 34013KT 9999 FEW025 BKN250 29/24 A2979 RMK CB DST SE S SW RN DST SW=
200608202000 METAR MRLM NIL=
200608202100 METAR MRLM 202100Z 32012KT 9999 FEW020CB BKN230 29/24 A2978 RMK CB RN SE S SW W=
200608202200 METAR MRLM 202200Z 27007KT 9999 FEW020CB BKN030 28/24 A2977 RMK CB RN SE S SW W=
200608202300 METAR MRLM 202300Z 23004KT 9999 FEW020CB BKN030 27/24 A2979 RMK CB RN SE S SW W=
200608210000 METAR MRLM NIL=
200608210100 METAR MRLM NIL=
200608210200 METAR MRLM NIL=
200608210300 METAR MRLM NIL=
200608210400 METAR MRLM NIL=
200608210500 METAR MRLM NIL=
200608210600 METAR MRLM NIL=
200608210700 METAR MRLM NIL=
200608210800 METAR MRLM NIL=
200608210900 METAR MRLM NIL=
200608211000 METAR MRLM NIL=
200608211100 METAR MRLM NIL=
200608211200 METAR MRLM 211200Z 00000KT 9999 SCT030 BKN250 23/22 A2983 CB RN N NE W NW=
200608211300 METAR MRLM 211300Z 21007KT 9999 FEW028 BKN090 23/22 A2986 RM CB RN DST W NW NE E=
200608211400 METAR MRLM 211400Z 20005KT 9999 FEW028 BKN090 25/23 A2988 RN DST NW ENE=
200608211500 METAR MRLM 211500Z 36004KT 9999 FEW028 SCT100 29/24 A2989 RMK CB DST NE=
200608211600 METAR MRLM 211600Z 04004KT 9999 FEW028 SCT030 29/24 A2988=
200608211700 METAR MRLM 211700Z 03005KT 9999 FEW030 BKN250 29/25 A2989=
200608211800 METAR MRLM 211800Z 02006KT 9999 FEW030 BKN250 29/25 A2986 CB DST NW NE=
200608211900 METAR MRLM 211900Z 36007KT 9999 FEW028 BKN250 30/24 A2982 RMK CB NE DST=
200608212000 METAR MRLM 212000Z NIL=
200608212100 METAR MRLM 212100Z 35010KT 9999 FEW030 SCT100 BKN250 30/24 A2979=
200608212200 METAR MRLM 212200Z 32011KT 9999 FEW028 BKN230 29/24 A2979=
200608212300 METAR MRLM 212300Z 32004KT 9999 FEW028 BKN250 29/24 A2980=
200608220000 METAR MRLM 220000Z 00000KT 9999 FEW030 SCT090 BKN230 28/24 A2982=
200608220100 METAR MRLM NIL=
200608220200 METAR MRLM NIL=
200608220300 METAR MRLM NIL=
200608220400 METAR MRLM NIL=
200608220500 METAR MRLM NIL=
200608220600 METAR MRLM NIL=
200608220700 METAR MRLM NIL=
200608220800 METAR MRLM NIL=
200608220900 METAR MRLM NIL=
200608221000 METAR MRLM NIL=
200608221100 METAR MRLM NIL=
200608221200 METAR MRLM 221200Z 21006KT 9999 FEW030 BKN240 23/22 A2985 RMK LINEA CB RN DST WNW NWN N E=
200608221300 METAR MRLM 221300Z 20003KT 9999 SCT045 BKN230 24/23 A2989 RMK CB RN DST NW N S SE=
200608221400 METAR MRLM 221400Z 21005KT 9999 FEW028 BKN080 24/23 A2991 RMK CB RN W NW N NE TS NW N=
200608221500 METAR MRLM 221500Z 24005KT 9999 FEW022 BKN045 24/23 A2992 RMK CB RN W NW N NE=
200608221600 METAR MRLM 221600Z 30006KT 9999 BKN030 SCT250 26/23 A2994 RMK CB RN NE E SE TS NE=
200608221700 METAR MRLM 221700Z 26005KT 9999 -DZ BKN035 SCT090 25/23 A2993=
200608221800 METAR MRLM 221800Z 23003KT 9999 FEW040 BKN080 26/23 A2988 REDZ RMK CB RN NW N NE=
200608221900 METAR MRLM 221900Z 00000KT 9999 SCT035 BKN090 26/23 A2987 RMK RN NW N NE=
200608222000 METAR MRLM NIL=
200608222100 METAR MRLM 222100Z 23004KT 9999 FEW030 BKN220 26/23 A2982 RMK CB RN DST WNW NE=
200608222200 METAR MRLM 222200Z 00000KT 9999 FEW030 BKN220 27/23 A2981=
200608222300 METAR MRLM 222300Z 23003KT CAVOK 27/24 A2982 RNK RN DST NE E=
200608230000 METAR MRLM 230000Z 19003KT 9999 FEW026 BKN220 26/24 A2985 RMK RN DST NE E=
200608230100 METAR MRLM NIL=
200608230200 METAR MRLM NIL=
200608230300 METAR MRLM NIL=
200608230400 METAR MRLM NIL=
200608230500 METAR MRLM NIL=
200608230600 METAR MRLM NIL=
200608230700 METAR MRLM NIL=
200608230800 METAR MRLM NIL=
200608230900 METAR MRLM NIL=
200608231000 METAR MRLM NIL=
200608231100 METAR MRLM NIL=
200608231200 METAR MRLM NIL=
200608231300 METAR MRLM 231300Z 32003KT 9999 3000SE -DZ BKN035 SCT080 25/24 A2988 RN ARND=
200608231400 METAR MRLM 231400Z 23004KT 9999 BKN035 SCT090 26/24 A2988 REDZ RN DST N E=
200608231700 METAR MRLM 231700Z 07004KT 9999 SCT030 BKN250 30/25 A2989 RMK HZ LEVE ARNWD=
200608231800 METAR MRLM 231800Z 07004KT 9999 FEW030 BKN250 30/25 A2987 TCU NW NE HZ ARND=
200608231900 METAR MRLM 231900Z 04004KT 9999 FEW028 BKN250 30/25 A2984 CB DST WNW NW ENE HZY=
200608232000 METAR MRLM NIL=
200608232100 METAR MRLM 232100Z 03006KT 9999 FEW028 BKN250 30/25 A2979 TCU NE=
200608232200 METAR MRLM 232200Z 02007KT 9999 FEW028 BKN250 29/25 A2979=
200608232300 METAR MRLM 232300Z 02004KT 9999 FEW028 BKN250 25/25 A2979=
200608240000 METAR MRLM 240000Z 00000KT 9999 FEW028 BKN250 28/25 A2980 TCU NW NE=
200608240100 METAR MRLM NIL=
200608240200 METAR MRLM NIL=
200608240300 METAR MRLM NIL=
200608240400 METAR MRLM NIL=
200608240500 METAR MRLM NIL=
200608240600 METAR MRLM NIL=
200608240700 METAR MRLM NIL=
200608240800 METAR MRLM NIL=
200608240900 METAR MRLM NIL=
200608241000 METAR MRLM NIL=
200608241100 METAR MRLM NIL=
200608241200 METAR MRLM 241200Z 18004KT 3000 -TS RA FEW020CB BKN028 24/23 A2978=
200608241300 METAR MRLM 241300Z 29004KT 4000 TSRA FEW020CB BKN025 24/23 A2991 RMK CB NW/N/NE/E TS DST N=
200608241400 METAR MRLM 241400Z 24010KT 9999 DZ FEW012 BKN035 24/23 A2982 RETSRA CB NW N NE E TS NE=
200608241500 METAR MRLM 241500Z 30004KT 4000 +DZ FEW025 BKN028 24/23 A2984 CB N NE E RN ARND=
200608241600 METAR MRLM NIL=
200608241700 METAR MRLM 241700Z 00000KT 9999 3000N -RA SCT024 BKN045 24/23 A2987 CB NW N NE=
200608241800 METAR MRLM NIL=
200608241900 METAR MRLM 241900Z 26007KT 9999 BKN024 SCT090 27/24 A2982 REDZ RN ARND=
200608242000 METAR MRLM NIL=
200608242100 METAR MRLM 242100Z 24009KT 9999 FEW030 SCT100 BKN250 29/24 A2974=
200608242200 METAR MRLM 242200Z 30006KT CAVOK 30/24 A2973 BKN100 SCT250=
200608242300 METAR MRLM 242300Z 30004KT CAVOK 29/24 A2975 BKN100 SCT250=
200608250000 METAR MRLM 250000Z 00000KT 9999 FEW030 SCT090 BKN250 27/24 A2977 TCU RN DST E SE S SW HZ/ARND=
200608250100 METAR MRLM NIL=
200608250200 METAR MRLM NIL=
200608250300 METAR MRLM NIL=
200608250400 METAR MRLM NIL=
200608250500 METAR MRLM NIL=
200608250600 METAR MRLM NIL=
200608250700 METAR MRLM NIL=
200608250800 METAR MRLM NIL=
200608250900 METAR MRLM NIL=
200608251000 METAR MRLM NIL=
200608251100 METAR MRLM NIL=
200608251200 METAR MRLM 251200Z 00000KT 9999 SCT045 SCT080 24/23 A2978 TCU RN DIST N/NE/E HZ ARND=
200608251300 METAR MRLM 251300Z 21004KT CAVOK 25/24 A2979 RMK LEVE HZY=
200608251400 METAR MRLM 251400Z 00000KT CAVOK 28/23 A2981 RMK LEVE HZY=
200608251500 METAR MRLM 251500Z 25004KT CAVOK 29/23 A2983 RMK LEVE HZY=
200608251600 METAR MRLM 251600Z 34010KT CAVOK 29/24 A2982 RMK LEVE HZY=
200608251700 METAR MRLM 251700Z 27007KT 9999 FEW030 BKN100 30/23 A2981 RMK LEVE HZY=
200608251800 METAR MRLM 251800Z 34007KT 9999 FEW030 BKN100 30/23 A2978 RMK TCU DST N LEVE HZY=
200608251900 METAR MRLM 251900Z 34013KT 9999 FEW028 SCT120 30/24 A2976 RMK CB RN DST SW=
200608252000 METAR MRLM NIL=
200608252100 METAR MRLM 252100Z 34013KT FEW028 SCT120 BKN250 29/25 A2974 RMK CB=
200608252200 METAR MRLM 252200Z 35013KT 9999 FEW022CB BKN250 28/25 A2972 CB LINE SE S SW RN SW W=
200608252300 METAR MRLM 252300Z 35010KT 9999 FEW020CB SCT035 SCT090 28/25 A2975 RMK CB SE S SW W RN SW W=
200608260000 METAR MRLM 260000Z 01011KT 9999 FEW020CB BKN028 28/25 A2976 RMK RN S SW W NW=
200608260100 METAR MRLM NIL=
200608260200 METAR MRLM NIL=
200608260300 METAR MRLM NIL=
200608260400 METAR MRLM NIL=
200608260500 METAR MRLM NIL=
200608260600 METAR MRLM NIL=
200608260700 METAR MRLM NIL=
200608260800 METAR MRLM NIL=
200608260900 METAR MRLM NIL=
200608261000 METAR MRLM NIL=
200608261100 METAR MRLM NIL=
200608261200 METAR MRLM 261200Z 23004KT 9999 FEW030 BKN045 23/23 A2979 CB RN NE/E=
200608261300 METAR MRLM 261300Z 21007KT 9999 FEW028 BKN045 23/23 A2981 RMK CB RN E NE=
200608261400 METAR MRLM 261400Z 24003KT 9999 FEW025 BKN080 25/23 A2983 RMK RN ENE=
200608261500 METAR MRLM 261500Z 27007KT 9999 FEW025 BKN090 27/23 A2984 RMK CB RN NW N NE=
200608261600 METAR MRLM 261600Z 29009KT 9999 SCT024TCU BKN080 27/23 A2985 RKM RN N NW=
200608261700 METAR MRLM 261700Z 33012KT 9999 BKN028 SCT080 27/24 A2985 RMK RN NE E=
200608261800 METAR MRLM 261800Z 30006KT 7000 -RA BKN024 SCT080 25/24 A2983=
200608261900 METAR MRLM 261900Z 33010KT 9999 -DZ SCT026 SCT080 26/24 A2981 RERA=
200608262000 METAR MRLM NIL=
200608262100 METAR MRLM 262100Z 36007KT 9999 SCT007 TCU BKN250 27/24 A2978 REDZ=
200608262200 METAR MRLM 262200Z 34004KT 9999 SCT024 BKN080 24/23 A2977 RMK RN ARND=
200608262300 METAR MRLM 262300Z 22004KT 9999 DZ BKN025 SCT080 26/24 A2979 RMK RN ARND=
200608270000 METAR MRLM 270000Z 22003KT 9999 -DZ BKN030 SCT080 25/23 A2981 RMK RN DST ARND=
200608270100 METAR MRLM NIL=
200608270200 METAR MRLM NIL=
200608270300 METAR MRLM NIL=
200608270400 METAR MRLM NIL=
200608270500 METAR MRLM NIL=
200608270600 METAR MRLM NIL=
200608270700 METAR MRLM NIL=
200608270800 METAR MRLM NIL=
200608270900 METAR MRLM NIL=
200608271000 METAR MRLM NIL=
200608271100 METAR MRLM NIL=
200608271200 METAR MRLM 271200Z 00000KT 9999 BKN040 SCT080 23/22 A2980=
200608271300 METAR MRLM 271300Z 19004KT 9999 SCT030 BKN090 24/23 A2982 RMK RN DST ARND=
200608271400 METAR MRLM 271400Z 20006KT 9999 SCT030 BKN090 26/24 A2985 RMK RN ARND=
200608271500 METAR MRLM 271500Z 26003KT 9999 SCT030 SCT090 28/24 A2988 RMK TCU RN N NE E=
200608271600 METAR MRLM 271600Z 04005KT 9999 SCT028 SCT080 29/24 A2985 RMK TCU RN E NE N=
200608271700 METAR MRLM 271700Z 03009KT 9999 SCT025TCU SCT090 29/24 A2986 RMK CB RN SW N NE E=
200608271800 METAR MRLM 271800Z 36014KT 9999 SCT026TCU SCT090 28/24 A2984 RMK CB W NW E=
200608271900 METAR MRLM 271900Z 36014KT 9999 FEW026 BKN080 28/23 A2982 CB RN S SW=
200608272000 METAR MRLM NIL=
200608272100 METAR MRLM 272100Z 01005KT 9999 FEW030TCU BKN100 29/23 A2978 TCU SW=
200608272200 METAR MRLM 272200Z 35007KT 9999 FEW025 BKN100 29/23 A2977=
200608272300 METAR MRLM 272300Z 33006KT 9999 FEW030 BKN080 28/22 A2979 RN S SW W DST=
200608280000 METAR MRLM 280000Z 28003KT 9999 FEW030 SCT090 27/23 A2980 TCU DST SE RN SSW/SW=
200608280100 METAR MRLM NIL=
200608280200 METAR MRLM NIL=
200608280300 METAR MRLM NIL=
200608280400 METAR MRLM NIL=
200608280500 METAR MRLM NIL=
200608280600 METAR MRLM NIL=
200608280700 METAR MRLM NIL=
200608280800 METAR MRLM NIL=
200608280900 METAR MRLM NIL=
200608281000 METAR MRLM NIL=
200608281100 METAR MRLM NIL=
200608281200 METAR MRLM 281200Z 22004KT 9999 FEW026 BKN090 22/21 A2978 RMK TCU RN DST NW N=
200608281300 METAR MRLM 281300Z 21005KT CAVOK 26/23 A2981 SCT090 HZ ARND=
200608281400 METAR MRLM 281400Z 00000KT 9999 FEW030 SCT090 29/23 A2984=
200608281500 METAR MRLM 281500Z 26004KT 9999 FEW026 SCT090 29/23 A2985 TCU RN NW/N HZY=
200608281600 METAR MRLM 281600Z 01013KT 9999 FEW028 BKN080 28/24 A2984 RN DST NE HZY=
200608281700 METAR MRLM 281700Z 02008KT 9999 FEW025 BKN080 29/23 A2983 HZY=
200608281800 METAR MRLM 281800Z 03009KT 9999 FEW025 BKN090 29/24 A2981 HZ LEVE ARND=
200608281900 METAR MRLM 281900Z 02006KT 9999 FEW025 BKN090 29/23 A2979 HZ ARND=
200608282000 METAR MRLM NIL=
200608282100 METAR MRLM 282100Z 03006KT 9999 FEW025 SCT220 30/24 A2975=
200608282200 METAR MRLM 282200Z 02005KT 9999 FEW025 SCT240 29/23 A2974=
200608282300 METAR MRLM 282300Z 02004KT 9999 FEW025 29/23 A2974=
200608290000 METAR MRLM 290000Z 06004KT 9999 FEW025 28/24 A2974=
200608290100 METAR MRLM NIL=
200608290200 METAR MRLM NIL=
200608290300 METAR MRLM NIL=
200608290400 METAR MRLM NIL=
200608290500 METAR MRLM NIL=
200608290700 METAR MRLM NIL=
200608290800 METAR MRLM NIL=
200608290900 METAR MRLM NIL=
200608291000 METAR MRLM NIL=
200608291100 METAR MRLM NIL=
200608291200 METAR MRLM NIL=
200608291300 METAR MRLM 291300Z 21005KT 9999 FEW025 BKN280 24/23 A2982=
200608291400 METAR MRLM 291400Z 18004KT 9999 FEW025 BKN280 28/24 A2985 CB N NE E=
200608291500 METAR MRLM 291500Z 09003KT 9999 FEW025 BKN280 29/25 A2985 CB N NE=
200608291600 METAR MRLM 291600Z 09005KT 9999 FEW030 BKN280 30/25 A2985=
200608291700 METAR MRLM 291700Z 06006KT 9999 FEW025 BKN280 30/24 A2983=
200608291800 METAR MRLM 291800Z 06009KT 9999 FEW025 SCT280 30/25 A2981=
200608291900 METAR MRLM 291900Z 04008KT 9999 FEW025 SCT280 30/25 A2978=
200608292000 METAR MRLM NIL=
200608292100 METAR MRLM 292100Z 04006KT 9999 FEW025 SCT280 30/25 A2974=
200608292200 METAR MRLM 292200Z 05006KT 9999 FEW025 SCT280 30/25 A2973=
200608292300 METAR MRLM 292300Z 05005KT 9999 FEW025 SCT280 30/25 A2973=
200608300000 METAR MRLM 300000Z 05003KT 9999 FEW025 SCT280 29/25 A2975 RMK CB DST S SW=
200608300100 METAR MRLM NIL=
200608300200 METAR MRLM NIL=
200608300300 METAR MRLM NIL=
200608300400 METAR MRLM NIL=
200608300500 METAR MRLM NIL=
200608300600 METAR MRLM NIL=
200608300700 METAR MRLM NIL=
200608300800 METAR MRLM NIL=
200608300900 METAR MRLM NIL=
200608301000 METAR MRLM NIL=
200608301100 METAR MRLM NIL=
200608301200 METAR MRLM 301200Z 20006KT 9999 -DZ SCT026 SCT200 25/24 A2980 RMK TCU=
200608301300 METAR MRLM 301300Z 18006KT 9999 SCT026 BKN230 25/24 A2983 RMK RN TCU DST ENE=
200608301400 METAR MRLM 301400Z 19005KT 9999 FEW026 BKN240 27/25 A2984 RMK CB RN DST S=
200608301500 METAR MRLM 301500Z 17004KT 9999 FEW025 BKN240 30/25 A2985 RMK CB RN DST NNE=
200608301600 METAR MRLM 301600Z 03006KT 9999 FEW025 BKN230 30/25 A2985 RMK CB RN DST N=
200608301700 METAR MRLM 301700Z 05004KT 9999 FEW025 BKN230 29/25 A2985 RMK CB RN DST E=
200608301800 METAR MRLM 301800Z 04008KT 9999 FEW025 BKN230 30/25 A2985 RMK CB DST NW NE RN DST NE=
200608301900 METAR MRLM 301900Z 05009KT 9999 FEW025 BKN230 30/25 A2982 RMK CB DST ARND=
200608302000 METAR MRLM NIL=
200608302100 METAR MRLM 302100Z 06006KT 9999 FEW025 BKN230 30/25 A2976 CB DST WSW=
200608302200 METAR MRLM 302200Z 06006KT 9999 FEW028 BKN230 29/25 A2977 RMK RN DST SSW SW=
200608302300 METAR MRLM 302300Z 08004KT 9999 FEW025 BKN230 29/25 A2978=
200608310000 METAR MRLM 310000Z 00000KT 9999 FEW025 BKN230 28/25 A2978=
200608310100 METAR MRLM NIL=
200608310200 METAR MRLM NIL=
200608310300 METAR MRLM NIL=
200608310400 METAR MRLM NIL=
200608310500 METAR MRLM NIL=
200608310600 METAR MRLM NIL=
200608310700 METAR MRLM NIL=
200608310800 METAR MRLM NIL=
200608310900 METAR MRLM NIL=
200608311000 METAR MRLM NIL=
200608311100 METAR MRLM NIL=
200608311200 METAR MRLM NIL=
200608311300 METAR MRLM 311300Z 23004KT 9999 FEW015 SCT025 24/22 A2983 RMK CBS RN DST NW E=
200608311400 METAR MRLM 311400Z 22005KT 9999 FEW035 BKN090 27/24 A2986 RMK CBS RN DST NW E=
200608311500 METAR MRLM 311500Z 23005KT CAVOK 29/25 A2986 RMK CB RN DST E BKN110 SCT270=
200608311600 METAR MRLM 311600Z VRB03KT 9999 FEW025 BKN120 30/24 A2986 LGT HZ ARND CB TO N=
200608311700 METAR MRLM 311700Z 34008KT 9999 FEW040 SCT140 BKN270 31/23 A2985 CB DST N=
200608311800 METAR MRLM 311800Z 33009KT 9999 FEW040 BKN270 31/23 A2983 RMK CB DST N HZY=
200608311900 METAR MRLM 311900Z 35010KT 9999 FEW035 BKN270 30/23 A2981 RMK CB N SE=
200608312000 METAR MRLM 312000Z NIL=
200608312100 METAR MRLM 312100Z 33010KT 9999 FEW033 SCT130 BKN270 30/24 A2979 CB RN S=
200608312200 METAR MRLM 312200Z 32009KT 9999 FEW028 SCT140 BKN270 30/24 A2978 RMK CB RN S W=
200608312300 METAR MRLM 312300Z 32009KT 9999 FEW027 SCT130 BKN270 29/24 A2979 RMK CB RN S W=
200609010000 METAR MRLM 01000Z 27002KT 9999 FEW018 SCT150 BKN270 28/24 A2981 RMK CB DST S W RN DST SW=
200609010100 METAR MRLM NIL=
200609010200 METAR MRLM NIL=
200609010300 METAR MRLM NIL=
200609010400 METAR MRLM NIL=
200609010500 METAR MRLM NIL=
200609010600 METAR MRLM NIL=
200609010700 METAR MRLM NIL=
200609010800 METAR MRLM NIL=
200609010900 METAR MRLM NIL=
200609011000 METAR MRLM NIL=
200609011100 METAR MRLM NIL=
200609011200 METAR MRLM NIL=
200609011300 METAR MRLM 011300Z 23005KT CAVOK 23/20 A2981 RMK CB RN N TSTM NE=
200609011400 METAR MRLM 011400Z 00000KT CAVOK 24/21 A2986 CB RN TSTM N=
200609011500 METAR MRLM 011500Z 22006KT CAVOK 25/22 A2986 RMK CB RN N=
200609011600 METAR MRLM 011600Z 29004KT CAVOK 28/23 A2986 RMK CB RN N=
200609011700 METAR MRLM 011700Z 28007KT 9999 FEW045 SCT110 BKN270 30/21 A2986 RMK CB RN N NW=
200609011800 METAR MRLM 011800Z 35010KT 9999 FEW033 BKN280 30/23 A2982 RMK CB S=
200609011900 METAR MRLM 011900Z 29005KT 9999 FEW034 SCT140 BKN280 31/24 A2977 RMK CB S SE=
200609012000 METAR MRLM NIL=
200609012100 METAR MRLM 012100Z 34008KT 9999 FEW033 BKN140 31/25 A2975 CB DST ARND=
200609012200 METAR MRLM 012200Z 36007KT 9999 FEW025 BKN110 29/24 A2978 CB DST QUAD S/W=
200609012300 METAR MRLM 012300Z 35011KT 9999 FEW020 BKN110 28/24 A2978 CB RN DST QUAD S/W=
200609020000 METAR MRLM 020000Z VRB03KT 9999 SCT018 BKN150 27/24 A2980 CB RN DST QUAD S/W=
200609020100 METAR MRLM NIL=
200609020200 METAR MRLM NIL=
200609020300 METAR MRLM NIL=
200609020400 METAR MRLM NIL=
200609020500 METAR MRLM NIL=
200609020600 METAR MRLM NIL=
200609020700 METAR MRLM NIL=
200609020800 METAR MRLM NIL=
200609020900 METAR MRLM NIL=
200609021000 METAR MRLM NIL=
200609021100 METAR MRLM NIL=
200609021300 METAR MRLM 021300Z 23004KT 3000 TSRA FEW018CB BKN028 24/24 A2981 TS/EST=
200609021400 METAR MRLM 021400Z 23005KT 9999 3000W DZ FEW028 BKN090 23/22 A2985 RETSRA CB RN ARND=
200609021500 METAR MRLM 021500Z 25004KT 9999 FEW028 SCT090 BKN230 29/23 A2984 REDZ CB RN W WNW=
200609021600 METAR MRLM 021600Z 22006KT 9999 FEW025 BKN230 27/25 A2984 RMK CB RN=
200609021700 METAR MRLM 021700Z 28007KT 9999 FEW028 BKN230 29/24 A2983 CB NW N NE=
200609021800 METAR MRLM 021800Z 32005KT 9999 FEW028 BKN230 30/23 A2982 CB RN NW N NE=
200609021900 METAR MRLM 021900Z 34008KT 9999 FEW028 BKN230 30/24 A2980 CB RN NW N NE=
200609022000 METAR MRLM NIL=
200609022100 METAR MRLM 022100Z 29005KT 9999 FEW025 BKN230 29/24 A2975 CB RN NE S SW=
200609022200 METAR MRLM 022200Z 34007KT 9999 SCT030 BKN230 28/24 A2976 RN CB SE S SW=
200609022300 METAR MRLM NIL=
200609030000 METAR MRLM 030000Z 00000KT 9999 FEW026 BKN080 26/24 A2980 CB RN ARND=
200609030100 METAR MRLM NIL=
200609030200 METAR MRLM NIL=
200609030300 METAR MRLM NIL=
200609030400 METAR MRLM NIL=
200609030500 METAR MRLM NIL=
200609030600 METAR MRLM NIL=
200609030700 METAR MRLM NIL=
200609030800 METAR MRLM NIL=
200609030900 METAR MRLM NIL=
200609031000 METAR MRLM NIL=
200609031100 METAR MRLM NIL=
200609031200 METAR MRLM 23004KT 9999 SCT030 BKN080 23/23 A2983 RMK CB RN NW N NE E SE TSTM NNE=
200609031300 METAR MRLM 031300Z 00000KT 9999 -DZ BKN028 SCT080 24/23 A2985 RMK CB/RN DST NW/N/NE/E=
200609031400 METAR MRLM 031400Z 24003KT 9999 SCT025 BKN090 25/23 A2986 REDZ CB RN W NW N=
200609031500 METAR MRLM 031500Z 29005KT 9999 SCT030 SCT080 27/23 A2986 CB RN NW N NE SE=
200609031600 METAR MRLM 031600Z 22003KT 9999 FEW020CB BKN030 27/24 A2988 CB RN N NE SE=
200609031700 METAR MRLM 031700Z 13012KT 8000 DZ FEW020CB BKN026 24/23 A2990 CB RN ARND=
200609031800 METAR MRLM 031800Z 19005KT 9999 DZ FEW025 BKN090 23/22 A2987 CB W/NW RN ARND=
200609031900 METAR MRLM 031900Z 17004KT 9999 -RA FEW025 BKN090 23/22 A2982=
200609032000 METAR MRLM NIL=
200609032100 METAR MRLM 032100Z 06007KT 9999 SCT030 BKN200 27/23 A2979=
200609032200 METAR MRLM 032200Z 20007KT 9999 SCT040 BKN150 25/23 A2978 RMK RN DST SE=
200609032300 METAR MRLM 032300Z 20005KT CAVOK 25/23 A2977 RMK RN DST E SE S=
200609040000 METAR MRLM 040000Z 20005KT CAVOK 24/23 A2977 RMK RN DST E SE S=
200609040100 METAR MRLM NIL=
200609040200 METAR MRLM NIL=
200609040300 METAR MRLM NIL=
200609040400 METAR MRLM NIL=
200609040500 METAR MRLM NIL=
200609040600 METAR MRLM NIL=
200609040700 METAR MRLM NIL=
200609040800 METAR MRLM NIL=
200609040900 METAR MRLM NIL=
200609041000 METAR MRLM NIL=
200609041100 METAR MRLM NIL=
200609041200 METAR MRLM NIL=
200609041300 METAR MRLM 041300Z 24005KT CAVOK 24/22 A2982 RMK CB RN DST E=
200609041400 METAR MRLM 041400Z 22005KT 9999 FEW040 SCT100 25/22N A2987 RMK LEVE HZY=
200609041500 METAR MRLM 041500Z VRB03KT 9999 FEW045 BKN110 28/22 A2989 RMK HZY=
200609041600 METAR MRLM 041600Z 30006KT 9999 FEW035 SCT110 BKN270 30/23 A2989 RMK CB DST E HZY=
200609041700 METAR MRLM 041700Z 02006KT 9999 FEW034 SCT140 BKN270 31/24 A2987 RMK CB DST N NE E LEVE HZY=
200609041800 METAR MRLM 041800Z 36008KT 9999 FEW030 SCT040 BKN270 30/24 A2986 RMK CB DST N NE E LEVE HZY=
200609041900 METAR MRLM 041900Z 35009KT 9999 FEW024 SCT140 BKN270 29/24 A2984 RMK CB DST N NE E SE SW LEVE HZY=
200609042000 METAR MRLM NIL=
200609042100 METAR MRLM 042100Z 36006KT 9999 FEW028 SCT140 BKN270 29/24 A2981 RMK CB DST E S SW W HZY=
200609042200 METAR MRLM 042200Z RB03KT 9999 FEW028 SCT140 BKN270 29/24 A2981 RMK CB DST S SE SW W HZY=
200609042300 METAR MRLM 042300Z 08012KT 9999 FEW026 SCT140 BKN270 29/24 A2982 RMK CBS RN DST SE S SW W HZY=
200609050000 METAR MRLM 050000Z 03005KT CAVOK 28/24 A2983 RMK CBS DST E SE=
200609050100 METAR MRLM NIL=
200609050200 METAR MRLM NIL=
200609050300 METAR MRLM NIL=
200609050400 METAR MRLM NIL=
200609050500 METAR MRLM NIL=
200609050600 METAR MRLM NIL=
200609050700 METAR MRLM NIL=
200609050800 METAR MRLM NIL=
200609050900 METAR MRLM NIL=
200609051000 METAR MRLM NIL=
200609051100 METAR MRLM NIL=
200609051200 METAR MRLM 051200Z NIL=
200609051300 METAR MRLM 051300Z 23005KT CAVOK 26/23 A2984=
200609051400 METAR MRLM 051400Z 30006KT CAVOK 29/24 A2987 RMK CB/ N QD SCT280 HZY=
200609051500 METAR MRLM 051500Z 30007KT CAVOK 31/24 A2988 RMK CBS RN N QD HZ=
200609051600 METAR MRLM 051600Z 34011KT 9999 FEW040 SCT140 31/23 A2988 RMK CBS RN DST N NE=
200609051700 METAR MRLM 051700Z 32012KT 9999 FEW030 BKN270 31/25 A2988 RMK CBS RN DS N NE=
200609051800 METAR MRLM 051800Z 32016KT 9999 FEW026 SCT140 BKN270 31/25 A2983 RMK CBS DST W NW N HZY=
200609051900 METAR MRLM 051900Z 32014KT 9999 FEW030 BKN270 31/25 A2980 RMK CB DST S SW W=
200609052000 METAR MRLM 052000Z NIL=
200609052100 METAR MRLM 052100Z 30010KT 9999 BKN020 29/25 A2978 RMK CB RN S SW W=
200609052200 METAR MRLM 052200Z 31012KT 9999 BKN018 29/25 A2977 RMK CB RN SW W=
200609052300 METAR MRLM 052300Z 33010KT 9999 BKN018 SCT280 28/25 A2979 RMK CB RN S W=
200609060000 METAR MRLM 060000Z 29004KT 9999 BKN015 28/25 A2981 RMK CB RN DST S W=
200609060100 METAR MRLM NIL=
200609060200 METAR MRLM NIL=
200609060300 METAR MRLM NIL=
200609060600 METAR MRLM NIL=
200609060700 METAR MRLM NIL=
200609060800 METAR MRLM NIL=
200609060900 METAR MRLM NIL=
200609061000 METAR MRLM NIL=
200609061100 METAR MRLM NIL=
200609061200 METAR MRLM NIL=
200609061300 METAR MRLM 061300Z 1205KT 9999 TS FEW020CB BKN030 24/23 A2987=
200609061400 METAR MRLM 061400Z 00000KT 9999 -RA FEW025 BKN090 25/24 A2987 RETS RMK RN ARND=
200609061500 METAR MRLM 061500Z 34007KT 9999 -DZ BKN030 SCT090 26/24 A2988 RERA=
200609061600 METAR MRLM 061600Z 20004KT 9999 -DZ BKN040 SCT090 26/24 A2988=
200609061700 METAR MRLM 061700Z 26003KT 9999 FEW028 BKN045 27/25 A2987=
200609061800 METAR MRLM 061800Z 08005KT 9999 FEW025 SCT090 29/25 A2985 RMK CB NW NE E=
200609061900 METAR MRLM 061900Z 05004KT 9999 FEW025 BKN240 29/25 A2981 RMK CB ARND=
200609062100 METAR MRLM 062100Z 05005KT 9999 FEW025 SCT100 BKN240 29/23 A2978 CB DST S/SW/SE=
200609062200 METAR MRLM 062200Z 08006KT 9999 FEW025 BKN080 29/23 A2979 RN DST E SW=
200609062300 METAR MRLM 062300Z 10006KT 9999 FEW025 BKN090 29/23 A2979 CB DST ARND=
200609070000 METAR MRLM 070000Z 22003KT 9999 FEW025 SCT090 BKN270 26/24 A2980 CB DST ARND=
200609070100 METAR MRLM NIL=
200609070200 METAR MRLM NIL=
200609070300 METAR MRLM NIL=
200609070400 METAR MRLM NIL=
200609070500 METAR MRLM NIL=
200609070600 METAR MRLM NIL=
200609070700 METAR MRLM NIL=
200609070800 METAR MRLM NIL=
200609070900 METAR MRLM NIL=
200609071000 METAR MRLM NIL=
200609071100 METAR MRLM NIL=
200609071200 METAR MRLM NIL=
200609071300 METAR MRLM NIL=
200609071400 METAR MRLM NIL=
200609071500 METAR MRLM 071500Z 32005KT 9999 FEW030 BKN270 30/22 A2975 TCU WNW ENE=
200609071600 METAR MRLM 071600Z 01009KT 9999 FEW030 BKN270 31/23 A2984 CB DST WNW NW N NE=
200609071700 METAR MRLM NIL=
200609071800 METAR MRLM NIL=
200609071900 METAR MRLM 071900Z 36008KT 9999 FEW030 SCT300 30/24 A2981 CB DST ARND=
200609072000 METAR MRLM NIL=
200609072100 METAR MRLM 072100Z 02006KT 9999 FEW028 BKN300 30/24 A2975 CB SE S SW W=
200609072200 METAR MRLM 072200Z 02005KT 9999 FEW028 BKN260 30/24 A2974=
200609072300 METAR MRLM 072300Z 03003KT 9999 FEW028 BKN250 29/24 A2976=
200609080000 METAR MRLM 080000Z 05003KT 9999 FEW028 BKN250 29/24 A2977 CB RN SE S SW W=
200609080100 METAR MRLM NIL=
200609080200 METAR MRLM NIL=
200609080300 METAR MRLM 080300Z 36007KT 9999 FEW028 SCT140 BKN270 29/24 A2977 RMK CB DST ARND RN DST QUAD S/ W=
200609080400 METAR MRLM NIL=
200609080500 METAR MRLM NIL=
200609080600 METAR MRLM NIL=
200609080700 METAR MRLM NIL=
200609080800 METAR MRLM NIL=
200609080900 METAR MRLM NIL=
200609081000 METAR MRLM NIL=
200609081100 METAR MRLM NIL=
200609081200 METAR MRLM NIL=
200609081300 METAR MRLM 081300Z 21004KT 9999 FEW014 SCT100 24/22 A2983 RMK CB/RN DST NW/N/NE/E TSTM DST E=
200609081400 METAR MRLM NIL=
200609081500 METAR MRLM NIL=
200609081600 METAR MRLM 081600Z VRB03KT 9999 DZ FEW015 BKN140 26/24 A2987 CB RN NW N NE E=
200609081700 METAR MRLM NIL=
200609081800 METAR MRLM 081800Z 03005KT 9999 SCT025 SCT140 29/24 A2984 CB RN NW N=
200609081900 METAR MRLM 081900Z 36009KT 9999 SCT020 SCT140 BKN270 29/25 A2880 CB ARND RN S W=
200609082000 METAR MRLM NIL=
200609082100 METAR MRLM 082100Z 36007KT 9999 FEW028 SCT140 BKN270 29/24 A2977 RMK CB DST ARND RN DST QUAD S/ W=
200609082200 METAR MRLM 082200Z 36004KT 9999 FEW025 BKN130 29/24 A2977 RMK CB DST ARND RN DST QUAD S W=
200609082300 METAR MRLM 082300Z 04005KT 9999 FEW025 BKN140 28/24 A2979 RMK CB DST ARND RN DST QUAD S/W=
200609090000 METAR MRLM 090000Z 03004KT 9999 SCT025 BKN130 28/24 A2981 RMK CB DST ARND RN DST QUAD S/ W=
200609090100 METAR MRLM NIL=
200609090200 METAR MRLM NIL=
200609090300 METAR MRLM NIL=
200609090400 METAR MRLM NIL=
200609090500 METAR MRLM NIL=
200609090600 METAR MRLM NIL=
200609090700 METAR MRLM NIL=
200609090800 METAR MRLM NIL=
200609090900 METAR MRLM NIL=
200609091000 METAR MRLM NIL=
200609091100 METAR MRLM NIL=
200609091200 METAR MRLM NIL=
200609091300 METAR MRLM 091300Z 22005KT 9999 FEW015 BKN090 26/24 A2983 RMK CB RN DST QUAD N LEVE HZY=
200609091400 METAR MRLM 091400Z 27004KT 90999 FEW026 BKN100 29/24 A2985 RMK CB RN DST QUAD N LEVE HZY=
200609091500 METAR MRLM 091500Z 28006KT 9999 FEW030 SCT140 BKN270 29/23 A2985 RMK CB RN DST N LEVE HZY=
200609091600 METAR MRLM 091600Z 31008KT 9999 FEW035 BKN130 30/23 A2985 RMK CB RN DST NW N LEVE HZY=
200609091700 METAR MRLM 091700Z 35011KT 9999 FEW030 BKN140 30/24 A2984 RMK HZY=
200609091800 METAR MRLM 091800Z 25011KT 9999 3000N -RA BKN015 SCT130 27/24 A2985=
200609091900 METAR MRLM 091900Z 33012KT 9999 RA FEW025 BKN140 29/24 A2979 RMK CB DST ARND=
200609092000 METAR MRLM 092000Z NIL=
200609092100 METAR MRLM 092100Z 34007KT 9999 DZ BKN018 28/24 A2977 RMK CBS DST ARND RN S/W=
200609092200 METAR MRLM 092200Z 19005KT 9999 RA BKN012 SCT120 25/24 A2977 CB DST ARND=
200609092300 METAR MRLM 092300Z 21005KT 9999 DZ BKN010 BKN015 25/24 A2978=
200609100000 METAR MRLM NIL=
200609100100 METAR MRLM NIL=
200609100200 METAR MRLM NIL=
200609100300 METAR MRLM NIL=
200609100400 METAR MRLM NIL=
200609100500 METAR MRLM NIL=
200609100600 METAR MRLM NIL=
200609100700 METAR MRLM NIL=
200609100800 METAR MRLM NIL=
200609100900 METAR MRLM NIL=
200609101000 METAR MRLM NIL=
200609101100 METAR MRLM NIL=
200609101200 METAR MRLM NIL=
200609101300 METAR MRLM 101300Z 00000KT 9999 SCT025 BKN140 25/24 A2985 RMK CBS RN DST W NW N NE E=
200609101400 METAR MRLM 101400Z VRB03KT 9999 FEW015 SCT035 27/24 A2986 RMK CB RN DST N QD=
200609101500 METAR MRLM NIL=
200609101600 METAR MRLM 101600Z 30007KT 9999 FEW025 SCT090 28/23 A2988 RMK CBS RN DST N/E=
200609101700 METAR MRLM 101700Z 34010KT 9999 BKN025 29/24 A2988 RMK CB DST E HZY=
200609101800 METAR MRLM 101800Z 28009KT 9999 FEW030 SCT130 BKN270 29/23 A2984 RMK CB RN DST N NE E SE HZY=
200609101900 METAR MRLM 101900Z 34012KT 9999 FEW025 BKN270 29/24 A2981 RMK CB DST NW SE S RN DST N=
200609102000 METAR MRLM 102000Z NIL=
200609102100 METAR MRLM NIL=
200609102200 METAR MRLM 102200Z 34006KT 9999 FEW028 SCT120 BKN280 28/23 A2976 RMK CB RN S W=
200609102300 METAR MRLM 102300Z 28002KT 9999 FEW023 SCT120 BKN280 28/23 A2978 RMK CB RN S W=
200609110000 METAR MRLM 110000Z VRB03KT 9999 FEW010 SCT090 BKN280 26724 A2979 RMK CB RN DST SE SW W=
200609110100 METAR MRLM NIL=
200609110200 METAR MRLM NIL=
200609110300 METAR MRLM NIL=
200609110400 METAR MRLM NIL=
200609110500 METAR MRLM NIL=
200609110600 METAR MRLM NIL=
200609110700 METAR MRLM NIL=
200609110800 METAR MRLM NIL=
200609110900 METAR MRLM NIL=
200609111000 METAR MRLM NIL=
200609111100 METAR MRLM NIL=
200609111200 METAR MRLM NIL=
200609111300 METAR MRLM 111300Z VRB03KT 9999 FEW015 BKN280 24723 A2985 RMK CB N NE=
200609111400 METAR MRLM 111400Z 22004KT 9999 FEW020 BKN280 28/24 A2989 RMK CB NE=
200609111500 METAR MRLM 111500Z 04004KT 9999 FEW030 BKN280 29/23 A2991 RMK CB N NE HZ ARND=
200609111600 METAR MRLM 111600Z 02007KT 9999 FEW030 BKN280 30/24 A2990 RMK CB N NE=
200609111700 METAR MRLM 111700Z 02007KT 9999 FEW030 BKN270 30/23 A2988=
200609111800 METAR MRLM 111800Z 02007KT 9999 FEW030 BKN270 30/23 A2985 RMK CB W=
200609111900 METAR MRLM 111900Z 03009KT 9999 FEW030 BKN270 30/24 A2985 RMK CB W NW=
200609112000 METAR MRLM NIL=
200609112100 METAR MRLM 112100Z 35009KT 9999 FEW028 BKN280 30/24 A2978 CB DST SE/W HZ LEVE ARND=
200609112200 METAR MRLM 112200Z 35006KT 9999 FEW030 BKN280 30/24 A2977 CB DST SE S NE=
200609112300 METAR MRLM 112300Z 01007KT 9999 FEW023 SCT090 BKN270 29/24 A2979 CB DST S NE HZ ARND=
200609120000 METAR MRLM 120000Z 34005KT 9999 FEW022 BKN270 29/24 A2981 CB DST NE E S HZ LEVE ARND=
200609120100 METAR MRLM NIL=
200609120200 METAR MRLM NIL=
200609120300 METAR MRLM NIL=
200609120400 METAR MRLM NIL=
200609120500 METAR MRLM NIL=
200609120600 METAR MRLM NIL=
200609120700 METAR MRLM NIL=
200609120800 METAR MRLM NIL=
200609120900 METAR MRLM NIL=
200609121000 METAR MRLM NIL=
200609121100 METAR MRLM NIL=
200609121200 METAR MRLM NIL=
200609121300 METAR MRLM 121300Z 20005KT CAVOK 25/23 A2984 FEW140 BKN280 TCU CB RN NW SE=
200609121400 METAR MRLM 121400Z VRB03KT CAVOK 29/23 A2987 FEW130 BKN280 CB RN DST N/E/ HZ ARND=
200609121500 METAR MRLM 121500Z VRB03KT CAVOK 30/23 A2988 FEW140 BKN270 CB RN DST N/E=
200609121600 METAR MRLM 121600Z 01007KT CAVOK 29/24 A2989 SCT120 SCT140 CB RN DST N/E=
200609121700 METAR MRLM 121700Z 06005KT 9999 FEW028 BKN080 29/24 A2990 CB RN DST E=
200609121800 METAR MRLM 121800Z 04009KT 9999 BKN025 SCT080 29/24 A2986 CB RN DST N/E TSTM DST E=
200609121900 METAR MRLM 121900Z VRB03KT 9999 SCT010 OVC090 27/25 A2984=
200609122000 METAR MRLM NIL=
200609122100 METAR MRLM 122100Z 03009KT 9999 SCT013 BKN140 27/25 A2977 CB RN W=
200609122200 METAR MRLM 122200Z VRB03KT 9999 FEW016 SCT140 BKN2U0 28/25 A2978 CB RN W=
200609122300 METAR MRLM 122300Z 20002KT 9999 FEW010 SCT140 BKN270 27/25 A2980 CB W=
200609130000 METAR MRLM 130000Z VRB03KT CAVOK 26/25 A2982 CB W RN SE SCT080 BKN270=
200609130100 METAR MRLM NIL=
200609130200 METAR MRLM NIL=
200609130300 METAR MRLM NIL=
200609130400 METAR MRLM NIL=
200609130500 METAR MRLM NIL=
200609130600 METAR MRLM NIL=
200609130700 METAR MRLM NIL=
200609130800 METAR MRLM NIL=
200609130900 METAR MRLM NIL=
200609131000 METAR MRLM NIL=
200609131100 METAR MRLM NIL=
200609131200 METAR MRLM NIL=
200609131300 METAR MRLM NIL=
200609131400 METAR MRLM 131400Z 27004KT CAVOK 27/23 A2886 SCT140 BKN270 CB RN NW=
200609131500 METAR MRLM 131500Z VRB02KT CAVOK 25/24 A2987=
200609131600 METAR MRLM 131600Z 04006KT 9999 FEW030 SCT130 29/23 A2987=
200609131700 METAR MRLM 131700Z 05004KT 9999 FEW030 SCT140 BKN270 30/23 A2985=
200609131800 METAR MRLM 131800Z 04005KT 9999 FEW035 SCT 150 BKN270 29/22 A2983 CB NE=
200609131900 METAR MRLM 131900Z 04005KT 9999 FEW040 SCT140 BKN270 30/22 A2980 CB NE S=
200609132000 METAR MRLM NIL=
200609132100 METAR MRLM 132100Z 03008KT 9999 FEW035 BKN270 30/23 A2977 RMK CB DST S/W LGT HZ ARND=
200609132200 METAR MRLM 132200Z 32006KT 9999 FEW025 BKN270 30/24 A2975 RMK CB DST S SW W LEVE HZY=
200609132300 METAR MRLM 132300Z 33010KT 9999 SCT025 SCT280 29/24 A2977 RMK CB DST S SW LEVE HZY=
200609140000 METAR MRLM 140000Z 26002KT 9999 FEW018 BKN280 28/24 A2979 RMK CB DST SW W HZ LEVE ARND=
200609140100 METAR MRLM NIL=
200609140200 METAR MRLM NIL=
200609140300 METAR MRLM NIL=
200609140400 METAR MRLM NIL=
200609140500 METAR MRLM NIL=
200609140600 METAR MRLM NIL=
200609140700 METAR MRLM NIL=
200609140800 METAR MRLM NIL=
200609140900 METAR MRLM NIL=
200609141000 METAR MRLM NIL=
200609141100 METAR MRLM NIL=
200609141200 METAR MRLM 141200Z NIL=
200609141300 METAR MRLM 141300Z VRB03KT 9999 BKN020 24/23 A2986 RMK CB DST QUAD N/E TSTM DST E RN DST QUAD E=
200609141400 METAR MRLM 141400Z VRB03KT 9999 SCT020 SCT260 25/23 A2988 RMK CB RN DST QUAD N E TSTM DST E=
200609141500 METAR MRLM 141500Z 20002KT 9999 SCT020 SCT080 26/24 A2989 RERA RMK CB RN DST QUAD N E=
200609141600 METAR MRLM 141600Z 11007KT 9999 FEW030 SCT130 BKN270 29/23 A2990 RMK CB RN DST QUAD N E TSTM DST E NE=
200609141700 METAR MRLM 141700Z 07004KT 9999 FEW028 SCT130 BKN270 30/24 A2989 RMK TCU DST S CB TCU DST N LEVE HZY=
200609141800 METAR MRLM 141800Z 04017KT 9999 BKN020 30/25 A2988 RMK CB RN DST QUAD N/S HZ ARND=
200609141900 METAR MRLM 141900Z 03012KT 9999 FEW020 SCT090 BKN270 29/25 A2984 RMK CB DST HZ ARND RN DST SW W=
200609142000 METAR MRLM NIL=
200609142100 METAR MRLM 142100Z 03002KT 9999 FEW025 BKN090 28/23 A2981 RMK CBS DST SW W RN DST SW W=
200609142200 METAR MRLM 142200Z 19002KT 9999 FEW025 BKN100 29/24 A2983 CBS RN DST S/SSW/W=
200609142300 METAR MRLM 142300Z 24004KT 9999 SCT020 SCT130 28/24 A2982 RMK CBS RB DST S/SW/W=
200609150000 METAR MRLM 150000Z VRB03KT 9999 DZ SCT018 SCT270 27/23 A2980 RMK CB RN DST SE HZY=
200609150100 METAR MRLM NIL=
200609150200 METAR MRLM NIL=
200609150300 METAR MRLM NIL=
200609150400 METAR MRLM NIL=
200609150500 METAR MRLM NIL=
200609150700 METAR MRLM NIL=
200609150800 METAR MRLM NIL=
200609150900 METAR MRLM NIL=
200609151000 METAR MRLM NIL=
200609151100 METAR MRLM NIL=
200609151200 METAR MRLM 151200Z NIL=
200609151300 METAR MRLM 151300Z 30004KT 9999 FEW015 BKN270 26/23 A2984 RMK CBS RN DST NW N NE E=
200609151400 METAR MRLM 151400Z NIL=
200609151500 METAR MRLM 151500Z 08015KT 4000 +RA OVC010 25/24 A2990=
200609151600 METAR MRLM 151600Z 29004KT 8000 RA FEW007 BKN025 25/24 A2990 RMK CBS DST N QD VIS S UNLTD=
200609151700 METAR MRLM 151700Z VRB03KT 9999 BKN015 26/24 A2989 RMK CB RN W N E=
200609151800 METAR MRLM 151800Z 28007KT 9999 BKN012 SCT140 26/24 A2993 RMK CBS RN DST W/N LGT HZ ARND=
200609151900 METAR MRLM 151900Z 35013KT 6000 RA BKN010 24/23 A2990=
200609152000 METAR MRLM NIL=
200609152100 METAR MRLM 152100Z 06005KT 9999 SCT010 SCT120 BKN140 25723 A2985 CB RN ARND=
200609152200 METAR MRLM 152200Z VRB03KT 9999 FEW010 BKN120 25/24 A2984 RMK CB RN N NE=
200609152300 METAR MRLM 152300Z VRB03KT 9999 FEW010 BKN120 25724 A2984 RMK CB RN N E=
200609160000 METAR MRLM 160000Z VRB03KT CAVOK 24/23 A2983 CB RN DST NE E=
200609160100 METAR MRLM NIL=
200609160200 METAR MRLM NIL=
200609160300 METAR MRLM NIL=
200609160400 METAR MRLM NIL=
200609160500 METAR MRLM NIL=
200609160600 METAR MRLM NIL=
200609160700 METAR MRLM NIL=
200609160800 METAR MRLM NIL=
200609160900 METAR MRLM NIL=
200609161000 METAR MRLM NIL=
200609161100 METAR MRLM NIL=
200609161200 METAR MRLM NIL=
200609161300 METAR MRLM 161300Z 22004KT CAVOK 25/22 A2984=
200609161400 METAR MRLM 161400Z 04002KT 29/24 A2987 RMK CB E=
200609161500 METAR MRLM 161500Z 01008KT CAVOK 29/23 A2988 RMK CB E=
200609161600 METAR MRLM 161600Z 01007KT 9999 FEW035 BKN140 29/23 A2988=
200609161700 METAR MRLM 161700Z 36009KT 9999 FEW028 BKN150 29/24 A2986=
200609161800 METAR MRLM 161800Z 35009KT 9999 FEW028 BKN150 29/24 A2985 RMK CB NW W RN E=
200609161900 METAR MRLM 161900Z 36009KT 9999 FEW025 BKN090 29/24 A2983 RMK CB RN S SW W RN N NE E=
200609162000 METAR MRLM NIL=
200609162100 METAR MRLM 162100Z 04011KT 9999 4000N VCSH OVC015TCU 28/24 A2979 VIS 5000 W=
200609162200 METAR MRLM 162200Z 22007KT 9999 RA FEW005 BKN120 24/24 A2976 CB DST N NE E=
200609162300 METAR MRLM 162300Z 28004KT 9999 FEW004 SCT120 BKN250 25/24 A2976 CB RN DST N NE W=
200609170000 METAR MRLM 170000Z VRB03KT 9999 FEW006 BKN140 25/23 A2979 CB RN DST N NE E W=
200609170100 METAR MRLM NIL=
200609170200 METAR MRLM NIL=
200609170300 METAR MRLM NIL=
200609170400 METAR MRLM NIL=
200609170500 METAR MRLM NIL=
200609170700 METAR MRLM NIL=
200609170800 METAR MRLM NIL=
200609170900 METAR MRLM NIL=
200609171000 METAR MRLM NIL=
200609171100 METAR MRLM NIL=
200609171200 METAR MRLM NIL=
200609171300 METAR MRLM 171300Z VRB03KT CAVOK 24/23 A2984 FEW080 BKN100 TSTM DST N E CB DST NW N NE E=
200609171400 METAR MRLM 171400Z VRB03KT CAVOK 27/23 A2985 CB/RN DST NW N NE E SCT090 SCT150=
200609171500 METAR MRLM 171500Z VRB03KT 9999 FEW025 SCT150 28/23 A2985 CB RN DST N NE=
200609171600 METAR MRLM 171600Z 32012KT 9999 FEW035 SCT120 29/23 A2984 CB RN DST N NE=
200609171700 METAR MRLM 171700Z 33010KT 9999 FEW030 BKN100 30/23 A2984 CB RN DST N NE E=
200609171800 METAR MRLM 171800Z 35007KT 9999 FEW030 SCT120 BKN270 30/23 A2980 CB/RN DST NW N NE E=
200609171900 METAR MRLM 171900Z 34007KT 9999 FEW025 SCT150 BKN270 29/24 A2976 CB RN DST QUAD N=
200609172000 METAR MRLM NIL=
200609172100 METAR MRLM NIL=
200609172105 METAR MRLM 172105Z 35010KT 9999 SCT020 OVC140 29/24 A2976 CB DST ARND RN NE/E/N=
200609172200 METAR MRLM 172200Z 36009KT 9999 FEW018 28/24 A2976 CB RN DST ARND=
200609172300 METAR MRLM 172300Z VRB03KT 9999 FEW012 SCT090 BKN150 26/24 A2976 CB RN DST ARND=
200609180000 METAR MRLM 180000Z 00000KT CAVOK 26/24 A2976 BKN090 SCT150 CB/RN DST N E=
200609180100 METAR MRLM NIL=
200609180300 METAR MRLM NIL=
200609180400 METAR MRLM NIL=
200609180500 METAR MRLM NIL=
200609180700 METAR MRLM NIL=
200609180800 METAR MRLM NIL=
200609180900 METAR MRLM NIL=
200609181000 METAR MRLM NIL=
200609181100 METAR MRLM NIL=
200609181300 METAR MRLM 181300Z 22005KT CAVOK 25/23 A2982 RMK BKN280 CB DST NW/SE HZ LGT ARND=
200609181400 METAR MRLM 181400Z VRB03KT 9999 FEW028 BKN100 29/23 A2987 CB SE=
200609181500 METAR MRLM 181500Z 31008KT 9999 FEW028 SCT080 29/23 A2878 CB RN E=
200609181600 METAR MRLM 181600Z 27007KT 9999 SCT030 SCT270 30/24 A2987 CB NW=
200609181700 METAR MRLM 181700Z 01008KT 9999 SCT030 SCT280 30/24 A2985 CB NW=
200609181800 METAR MRLM 181800Z 01010KT 9999 FEW028 SCT140 30/24 A2983 CB NW N=
200609181900 METAR MRLM 181900Z 01009KT 9999 FEW030 BKN280 30/24 A2979=
200609182000 METAR MRLM NIL=
200609182300 METAR MRLM 182300Z 04004KT 9999 FEW025 BKN140 29/24 A2980 RMK CB RN DST QUAD S W=
200609190000 METAR MRLM 190000Z 22002KT 9999 FEW010 SCT140 BKN270 26/24 A2982 RMK CB DST QUAD S/W=
200609190100 METAR MRLM NIL=
200609190300 METAR MRLM NIL=
200609190400 METAR MRLM NIL=
200609190500 METAR MRLM NIL=
200609190600 METAR MRLM NIL=
200609190700 METAR MRLM NIL=
200609190800 METAR MRLM NIL=
200609190900 METAR MRLM NIL=
200609191000 METAR MRLM NIL=
200609191100 METAR MRLM NIL=
200609191300 METAR MRLM NIL=
200609191400 METAR MRLM 191400Z 29004KT 9999 FEW022 BKN140 28/24 A2991 RMK CB RN DST N NE E LEVE HZY=
200609191500 METAR MRLM 191500Z 35004KT 9999 FEW025 BKN090 29/24 A2992 RMK CB RN DST N NE=
200609191600 METAR MRLM 191600Z 29005KT 9999 FEW045 BKN140 31/22 A2992 RMK CB RN DST N S SW LEVE HZY=
200609191700 METAR MRLM 191700Z 28005KT 9999 FEW035 BKN130 30/23 A2991 RMK CB DST N NE HZY=
200609191800 METAR MRLM 191800Z 35010KT 9999 FEW030 BKN130 30/24 A2988 RMK CB RN DST N NE TCU DST S SW W HZY=
200609191900 METAR MRLM 191900Z 34013KT 9999 FEW033 BKN140 30/24 A2984 RMK CB DST ARND RN DST SE S=
200609192000 METAR MRLM 192000Z NIL=
200609192100 METAR MRLM 192100Z 36013KT 9999 SCT025 SCT140 29/24 A2981 RMK CBS DST S W TSTM RAS SW W=
200609192200 METAR MRLM 192200Z 01011KT 9999 DZ BKN015 SCT130 28/25 A2982 RMK CBS RN DST S W=
200609192300 METAR MRLM 192300Z 02008KT 9999 RA BKN013 28/25 A2983 RMK CBS DST S/W=
200609200000 METAR MRLM 200000Z 19005KT 9999 +DZ OVC010 25/24 A2985 RMK CBS DST S/W TS OCNL DST SW=
200609200100 METAR MRLM NIL=
200609200200 METAR MRLM NIL=
200609200300 METAR MRLM NIL=
200609200400 METAR MRLM NIL=
200609200500 METAR MRLM NIL=
200609200600 METAR MRLM NIL=
200609200700 METAR MRLM NIL=
200609200800 METAR MRLM NIL=
200609200900 METAR MRLM NIL=
200609201000 METAR MRLM NIL=
200609201100 METAR MRLM NIL=
200609201200 METAR MRLM NIL=
200609201300 METAR MRLM 201300Z 20005KT 9999 FEW004 SCT025 BKN140 24/23 A2986 RMK CBS RN DST W NW=
200609201400 METAR MRLM 201400Z 20005KT CAVOK 26/24 A2989 RMK FEW090 BKN110 CBS RN DST W NW E SE HZY=
200609201500 METAR MRLM 201500Z 29006KT 9999 FEW018 BKN120 28/24 A2990 RMK CB RN DST NW E HZY=
200609201600 METAR MRLM 201600Z 31008KT 9999 FEW020 OVC100 28/24 A2990 RMK CBS RN DST E DZ NE=
200609201700 METAR MRLM 201700Z 31008KT 9999 FEW020 OVC100 28/24 A2990 RMK CBS RN DST E=
200609201800 METAR MRLM 201800Z 35009KT 9999 FEW025 BKN100 29/24 A2985 RMK CB DST ARND RN DST E/S QDS=
200609201900 METAR MRLM 201900Z 35008KT 9999 SCT025 SCT150 29/24 A2984 RMK CB RN DST ARND=
200609202000 METAR MRLM 202000Z NIL=
200609202100 METAR MRLM 08009KT 9999 SCT025 SCT090 27/25 A2985 RMK CB RN ARND=
200609202200 METAR MRLM 202200Z 12008KT 9999 DZ BKN018 SCT090 27/24 A2982 RMK CB ARND=
200609202300 METAR MRLM 202300Z 17005KT 9999 DZ FEW010 BKN090 26/24 A2982 CB ARND=
200609210000 METAR MRLM NIL=
200609210100 METAR MRLM NIL=
200609210200 METAR MRLM NIL=
200609210300 METAR MRLM NIL=
200609210400 METAR MRLM NIL=
200609210500 METAR MRLM NIL=
200609210600 METAR MRLM NIL=
200609210700 METAR MRLM NIL=
200609210800 METAR MRLM NIL=
200609210900 METAR MRLM NIL=
200609211000 METAR MRLM NIL=
200609211100 METAR MRLM NIL=
200609211200 METAR MRLM NIL=
200609211300 METAR MRLM 211300Z 19005KT CAVOK 25/23 A2984=
200609211400 METAR MRLM 211400Z VRB03KT CAVOK 28/23 A2986 RMK CB NW N=
200609211500 METAR MRLM 211500Z 04004KT 9999 FEW033 SCT110 29/22 A2988 RMK CB NW TCU E NE=
200609211600 METAR MRLM 211600Z 04006KT 9999 FEW036 SCT110 30/22 A2989 RMK CB N=
200609211700 METAR MRLM 211700Z 04005KT 9999 FEW035 30/23 A2989 RMK CB N=
200609211800 METAR MRLM 211800Z 04005KT 9999 FEW030 SCT280 30/24 A2985 RMK CB N S W=
200609211900 METAR MRLM 211900Z 06005KT 9999 FEW028 SCT280 30/24 A2981 RMK CB S W N=
200609212000 METAR MRLM 212000Z NIL=
200609212100 METAR MRLM 212100Z 05007KT 9999 FEW032 BKN280 30/24 A2977 CB SE S W N=
200609212200 METAR MRLM 212200Z 04005KT 9999 FEW030 SCT120 BKN280 30/24 A2976=
200609212300 METAR MRLM 212300Z 07004KT 9999 FEW027 SCT120 BKN280 29/23 A2977 CB S W=
200609220000 METAR MRLM 220000Z 25002KT 9999 FEW015 SCT120 BKN280 27/24 A2979 CB S W LTNG DST S RN S W=
200609220100 METAR MRLM NIL=
200609220200 METAR MRLM NIL=
200609220300 METAR MRLM NIL=
200609220400 METAR MRLM NIL=
200609220500 METAR MRLM NIL=
200609220600 METAR MRLM NIL=
200609220700 METAR MRLM NIL=
200609220800 METAR MRLM NIL=
200609220900 METAR MRLM NIL=
200609221000 METAR MRLM NIL=
200609221100 METAR MRLM NIL=
200609221200 METAR MRLM NIL=
200609221300 METAR MRLM 221300Z 20005KT CAVOK 24/23 A2984 TCU DST N NW DZ/NE SCT090=
200609221400 METAR MRLM 221400Z 04002KT CAVOK 28/24 A2989 BKN080 CB DST N NW=
200609221500 METAR MRLM 221500Z 03004KT 9999 FEW023 SCT280 29/24 A2980 CB DST NNW HZ/ARND=
200609221600 METAR MRLM 221600Z 06006KT 9999 FEW025 SCT280 29/25 A2989=
200609221700 METAR MRLM 221700Z 04008KT 9999 FEW025 BKN280 30/25 A2989=
200609221800 METAR MRLM 221800Z 05012KT 9999 FEW028 BKN280 30/25 A2983 CB DST NE HZ/SE=
200609221900 METAR MRLM 221900Z 05010KT 9999 FEW030 BKN280 31/25 A2980 CB DST N NE SE=
200609222000 METAR MRLM NIL=
200609222100 METAR MRLM 222100Z 05008KT 9999 FEW028 BKN280 30/25 A2976 CB N SE=
200609222200 METAR MRLM 222200Z 06006KT 9999 FEW028 BKN280 30/25 A2975=
200609222300 METAR MRLM 222300Z 03005KT 9999 FEW026 BKN280 30/24 A2975=
200609230000 METAR MRLM 230000Z 36006KT 9999 FEW022 BKN280 29/25 A2976 CB DST W=
200609230100 METAR MRLM NIL=
200609230200 METAR MRLM NIL=
200609230300 METAR MRLM NIL=
200609230400 METAR MRLM NIL=
200609230500 METAR MRLM NIL=
200609230600 METAR MRLM NIL=
200609230700 METAR MRLM NIL=
200609230800 METAR MRLM NIL=
200609230900 METAR MRLM NIL=
200609231000 METAR MRLM NIL=
200609231100 METAR MRLM NIL=
200609231300 METAR MRLM 231300Z 20006KT CAVOK 25/23 A2981 RMK BKN090 CB/RN DST N/E ARND=
200609231400 METAR MRLM 231400Z 19005KT 9999 FEW025 BKN090 29/24 A2985 TCU RN NW N E=
200609231500 METAR MRLM 231500Z VRB03KT 9999 FEW028 SCT280 30/25 A2985 CB RN E=
200609231600 METAR MRLM 231600Z 09004KT 9999 BKN026 31/25 A2985=
200609231700 METAR MRLM 231700Z 08006KT 9999 FEW028 SCT280 31/25 A2982 CB E=
200609231800 METAR MRLM 231800Z 04007KT 9999 FEW030 BKN270 31/23 A2978 CB N RN N NE=
200609231900 METAR MRLM 231900Z 04010KT 9999 FEW024 SCT120 30/25 A2977 CB NW E=
200609232000 METAR MRLM 232000Z NIL=
200609232100 METAR MRLM 232100Z 05006KT 9999 SCT028 31/25 A2974 RMR CB DST NE E SW W LEVE HZY=
200609232200 METAR MRLM NIL=
200609232300 METAR MRLM 232300Z 03010KT 9999 BKN020TCU 30/26 A2975 RMK TCU RN DST S SW W=
200609240000 METAR MRLM 240000Z 04008KT 9999 BKN020 29/25 A2976 RMK TCU RN DST SW W HZY=
200609240100 METAR MRLM NIL=
200609240200 METAR MRLM NIL=
200609240300 METAR MRLM NIL=
200609240400 METAR MRLM NIL=
200609240500 METAR MRLM NIL=
200609240600 METAR MRLM NIL=
200609240700 METAR MRLM NIL=
200609240800 METAR MRLM NIL=
200609240900 METAR MRLM NIL=
200609241000 METAR MRLM NIL=
200609241100 METAR MRLM NIL=
200609241200 METAR MRLM NIL=
200609241300 METAR MRLM 241300Z 19005KT 9999 FEW012 BKN300 25/24 A2980 RMK HZY=
200609241400 METAR MRLM 241400Z 20004KT 9999 FEW018 BKN300 28/25 A2982 RMK HZY=
200609241500 METAR MRLM 241500Z 10002KT 9999 FEW028 BKN280 31/25 A2982 RMK HZY=
200609241600 METAR MRLM 241600Z 09005KT 9999 FEW032 BKN280 31/24 A2983 RMK HZY=
200609241700 METAR MRLM 241700Z 05006KT 9999 FEW035 BKN280 31/24 A2981 RMK HZY=
200609241800 METAR MRLM 241800Z 04007KT 9999 FEW030 BKN280 31/24 A2979 RMK HZY=
200609241900 METAR MRLM 241900Z 04008KT 9999 FEW035 BKN280 31/24 A2976 RMK LGT HZ ARND=
200609242000 METAR MRLM NIL=
200609242100 METAR MRLM 242100Z 03008KT 9999 FEW030 OVC280 31/25 A2971 RMK CB DST S=
200609242200 METAR MRLM 242200Z 02004KT 9999 FEW028 OVC280 30/24 A2972 RMK HZY CB DST S=
200609242300 METAR MRLM 242300Z 05004KT 9999 FEW028 BKN280 30/24 A2973 HZ ARND CB S=
200609250000 METAR MRLM 250000Z VRB03KT CAVOK 29/24 A2974 RMK OVC080 CB DST S HZY=
200609250100 METAR MRLM NIL=
200609250200 METAR MRLM NIL=
200609250300 METAR MRLM NIL=
200609250400 METAR MRLM NIL=
200609250500 METAR MRLM NIL=
200609250600 METAR MRLM NIL=
200609250700 METAR MRLM NIL=
200609250800 METAR MRLM NIL=
200609250900 METAR MRLM NIL=
200609251000 METAR MRLM NIL=
200609251100 METAR MRLM NIL=
200609251200 METAR MRLM NIL=
200609251300 METAR MRLM 251300Z 20004KT CAVOK 24/22 A2983 RMK BKN140 SCT300=
200609251400 METAR MRLM 251400Z 19006KT CAVOK 28/22 A2984 RMK FEW140 BKN300 CB DST E HZY=
200609251500 METAR MRLM 251500Z VRB03KT CAVOK 31/23 A2985 RMK BKN140=
200609251600 METAR MRLM 251600Z 07004KT 9999 FEW030 OVC130 29/23 A2986=
200609251700 METAR MRLM 251700Z 04005KT 9999 DZ FEW028 BKN120 29/23 A2985 CB DST N NE=
200609251800 METAR MRLM 251800Z 03009KT 9999 DZ FEW026 OVC120 29/24 A2983 RMK CB DST N HZ ARND=
200609251900 METAR MRLM 251900Z 04011KT 9999 BKN022 SCT130 29/24 A2981 RMK CB DST SW W N=
200609252000 METAR MRLM 252000Z=
200609252100 METAR MRLM 252100Z 07006KT 9999 FEW020 BKN120 26/24 A2978 RMK CB NW SW=
200609252200 METAR MRLM 252200Z 07004KT 9999 FEW020 OVC100 28/24 A2976=
200609252300 METAR MRLM 252300Z 03006KT 9999 SCT020 BKN120 28/24 A2977=
200609260000 METAR MRLM 260000Z VRB03KT 9999 FEW020 BKN110 29/23 A2978 RMK HZ ARND=
200609260100 METAR MRLM 260100Z VRB03KT 9999 FEW020 BKN110 29/23 A2978 RMK HZ ARND=
200609260200 METAR MRLM NIL=
200609260300 METAR MRLM NIL=
200609260400 METAR MRLM NIL=
200609260500 METAR MRLM NIL=
200609260600 METAR MRLM NIL=
200609260700 METAR MRLM NIL=
200609260800 METAR MRLM NIL=
200609260900 METAR MRLM NIL=
200609261000 METAR MRLM NIL=
200609261100 METAR MRLM NIL=
200609261200 METAR MRLM NIL=
200609261300 METAR MRLM 261300Z 22004KT 9999 FEW025 25/23 A2986 RMK CB E=
200609261400 METAR MRLM 261400Z 18005KT 9999 FEW028 29/23 A2988 RMK CB E=
200609261500 METAR MRLM 261500Z 04004KT 9999 FEW035 SCT120 30/23 A2988 RMK CB RN E=
200609261600 METAR MRLM 261600Z 03005KT 9999 SCT030 BKN120 30/24 A2989=
200609261700 METAR MRLM 261700Z 36008KT 9999 FEW028 SCT130 30/24 A2987=
200609261800 METAR MRLM 261800Z 36009KT 9999 FEW028 30/25 A2982=
200609261900 METAR MRLM 261900Z 01009KT 9999 FEW028 30/25 A2980=
200609262000 METAR MRLM NIL=
200609262100 METAR MRLM 262100Z 36011KT 9999 FEW028 30/24 A2976 CB DST S HZ LEVE ARND=
200609262200 METAR MRLM 262200Z 01007KT 9999 BKN025 SCT100 29/24 A2977 HZ LEVE ARND=
200609262300 METAR MRLM 262300Z 35009KT 9999 SCT025 SCT080 29/24 A2978 CB RN DST S SW W=
200609270000 METAR MRLM 270000Z 35007KT 9999 SCT023 SCT100 29/24 A2979 CB RN DST S SW W=
200609270100 METAR MRLM NIL=
200609270200 METAR MRLM NIL=
200609270300 METAR MRLM NIL=
200609270400 METAR MRLM NIL=
200609270500 METAR MRLM NIL=
200609270600 METAR MRLM NIL=
200609270700 METAR MRLM NIL=
200609270800 METAR MRLM NIL=
200609270900 METAR MRLM NIL=
200609271000 METAR MRLM NIL=
200609271100 METAR MRLM NIL=
200609271200 METAR MRLM NIL=
200609271300 METAR MRLM 271300Z 21004KT CAVOK 26/24 A2983 SCT110 CB/RN DST QUAD N HZ ARND=
200609271400 METAR MRLM 271400Z VRB03KT CAVOK 29/24 A2985 BKN110 CB RN DST QUAD/N HZ ARND=
200609271500 METAR MRLM NIL=
200609271600 METAR MRLM 271600Z 03004KT 9999 FEW026 BKN110 30/25 A2985 HZ ARND=
200609271700 METAR MRLM 271700Z 03004KT 9999 SCT028 SCT110 30/24 A2983 CB RN DST NW N NE E=
200609271800 METAR MRLM 271800Z 03006KT 9999 FEW028 SCT270 30/25 A2981 CB DST NW/E HZ LEVE ARND=
200609271900 METAR MRLM 271900Z 36008KT 9999 FEW026 SCT130 31/25 A2979 CB DST W NW N HZ ARND=
200609272000 METAR MRLM NIL=
200609272100 METAR MRLM 272100Z VRB03KT 9999 FEW026 BKN100 30/25 A2976 CB N SE S=
200609272200 METAR MRLM 272200Z 01007KT 9999 FEW026 SCT090 BKN280 30/25 A2976 CB W NW N S=
200609272300 METAR MRLM 272300Z 03005KT 9999 FEW024 SCT090 BKN280 30/25 A2977 CB S SW W NW N=
200609280000 METAR MRLM 280000Z VRB03KT 9999 FEW022 BKN280 29/25 A2978 CB S SW W=
200609280100 METAR MRLM NIL=
200609280200 METAR MRLM NIL=
200609280300 METAR MRLM NIL=
200609280400 METAR MRLM NIL=
200609280500 METAR MRLM NIL=
200609280600 METAR MRLM NIL=
200609280700 METAR MRLM NIL=
200609280800 METAR MRLM NIL=
200609280900 METAR MRLM NIL=
200609281000 METAR MRLM NIL=
200609281100 METAR MRLM NIL=
200609281200 METAR MRLM NIL=
200609281300 METAR MRLM 281300Z 21006KT 9999 FEW015 SCT035 BKN150 25/24 A2983 CB/RN/TS E=
200609281400 METAR MRLM 281400Z 19006KT 9999 FEW012 SCT090 BKN150 25/24 A2986 CB RN SE=
200609281500 METAR MRLM 281500Z 22006KT 9999 FEW012 SCT110 BKN150 27/25 A2984 CB RN SE=
200609281600 METAR MRLM 281600Z 19006KT 9999 BKN013 27/25 A2984 RN ARND=
200609281700 METAR MRLM 281700Z 05002KT 9999 FEW022 SCT080 BKN260 30/25 A2984 RN NW N E S=
200609281800 METAR MRLM 281800Z VRB03KT 9999 SCT023 SCT130 30/25 A2982 RN N NE E SW CB NE E=
200609281900 METAR MRLM 281900Z 36005KT 9999 SCT028 SCT120 30/25 A2978 CB RN N=
200609282000 METAR MRLM 282000Z NIL=
200609282100 METAR MRLM 282100Z 35008KT 9999 FEW028 BKN280 30/24 A2974 HZY=
200609282200 METAR MRLM 282200Z 35008KT 9999 FEW020 OVC280 29/25 A2974 RMK CB DST W HZY=
200609282300 METAR MRLM 282300Z 34004KT 9999 FEW020 OVC280 29/25 A2975 RMK CB DST E HZY=
200609290000 METAR MRLM 290000Z 25004KT 9999 FEW010 BKN280 27/25 A2976 RMK CB DST E HZY=
200609290100 METAR MRLM NIL=
200609290200 METAR MRLM NIL=
200609290300 METAR MRLM NIL=
200609290400 METAR MRLM NIL=
200609290500 METAR MRLM NIL=
200609290600 METAR MRLM NIL=
200609290700 METAR MRLM NIL=
200609290800 METAR MRLM NIL=
200609290900 METAR MRLM NIL=
200609291000 METAR MRLM NIL=
200609291100 METAR MRLM NIL=
200609291200 METAR MRLM NIL=
200609291300 METAR MRLM 291300Z VRB03KT CAVOK 26/23 A2980 RMK CB RN DST NW N NE E TSTM E LEVE HZY=
200609291400 METAR MRLM 291400Z VRB03KT 9999 FEW018 BKN090 28/25 A2983 RMK CB RN DST E LEVE HZY=
200609291500 METAR MRLM 291500Z VRB03KT 9999 FEW022 BKN080 29/25 A2984 RMK CB DST NW LEVE HZY=
200609291600 METAR MRLM 291600Z 36008KT 9999 FEW030 SCT140 30/25 A2984 RMK CB DST QUAD N RN DST N NE LEVE HZY=
200609291700 METAR MRLM 291700Z 01007KT 9999 SCT030 SCT130 31/25 A2982 RMK CB RN DST QUAD N HZY=
200609291800 METAR MRLM 291800Z 36009KT 9999 SCT025 SCT140 30/25 A2980 RMK CB DST NW LEVE HZY=
200609291900 METAR MRLM 291900Z 36009KT 9999 FEW032 SCT140 BKN280 31/24 A2977 RMK CB DST QUAD S W LEVE HZY=
200609292000 METAR MRLM 292000Z NIL=
200609292100 METAR MRLM 292100Z 02005KT 9999 FEW028 SCT120 BKN280 30/24 A2976 CBS RN DST N NE E SE TS DST NE HZY=
200609292200 METAR MRLM 292200Z 01013KT 9999 BKN018 28/24 A2975 RMK RN HZ ARND=
200609292300 METAR MRLM 292300Z 33008KT 9999 BKN014 28/25 A2975 RMK RN HZ ARND=
200609300000 METAR MRLM 300000Z 01002KT 9999 DZ FEW030 BKN220 28/25 A2974=
200609300100 METAR MRLM NIL=
200609300200 METAR MRLM NIL=
200609300300 METAR MRLM NIL=
200609300400 METAR MRLM NIL=
200609300500 METAR MRLM NIL=
200609300600 METAR MRLM NIL=
200609300700 METAR MRLM NIL=
200609300800 METAR MRLM NIL=
200609300900 METAR MRLM NIL=
200609301000 METAR MRLM NIL=
200609301100 METAR MRLM NIL=
200609301200 METAR MRLM 301200Z NIL=
200609301300 METAR MRLM 301300Z 22003KT 9999 FEW030 SCT240 24/23 A2983 RMK CB RN DST N NE E=
200609301400 METAR MRLM 301400Z 00000KT 9999 FEW025 SCT045 26/24 A2985 CB RN DST NW N NE E=
200609301500 METAR MRLM NIL=
200609301600 METAR MRLM 301600Z 25003KT 9999 FEW028 SCT100 BKN240 29/24 A2986 RMK CB DST NW N NE E=
200609301700 METAR MRLM 301700Z 02008KT 9999 SCT028 BKN080 29/24 A2986=
200609301800 METAR MRLM 301800Z 01018KT 9999 SCT014 SCT025 27/24 A2985 RMK CB RN DST ARND TS DST SSE=
200609301900 METAR MRLM 301900Z 03008KT 9999 -DZ SCT022 SCT080 26/23 A2983 RMK CB RN ARND DST=
200609302000 METAR MRLM 302000Z NIL=
200609302100 METAR MRLM 302100Z 15004KT 9999 FEW025 BKN080 27/23 A2976 RN E SE=
200609302200 METAR MRLM 302200Z 04012KT 9999 FEW025 BKN090 27/24 A2978 RMK RN SE S=
200609302300 METAR MRLM 302300Z 18006KT 9999 FEW025 SCT090 BKN220 27/23 A2977=
200610010000 METAR MRLM 010000Z 20003KT 9999 FEW030 BKN140 25/23 A2979=
200610010100 METAR MRLM NIL=
200610010200 METAR MRLM NIL=
200610010300 METAR MRLM NIL=
200610010400 METAR MRLM NIL=
200610010500 METAR MRLM NIL=
200610010600 METAR MRLM NIL=
200610010700 METAR MRLM NIL=
200610010800 METAR MRLM NIL=
200610010900 METAR MRLM NIL=
200610011000 METAR MRLM NIL=
200610011100 METAR MRLM NIL=
200610011200 METAR MRLM NIL=
200610011300 METAR MRLM 011300Z 19006KT CAVOK 25/22 A2982=
200610011400 METAR MRLM 011400Z 18004KT CAVOK 28/23 A2983 RMK CB NE=
200610011500 METAR MRLM 011500Z 03003KT CAVOK 30723 A2984 RMK CB NW NE N=
200610011600 METAR MRLM 011600Z 01006KT 9999 FEW030 SCT090 BKN240 30/24 A2984 RMK CB RN NW N NE=
200610011700 METAR MRLM 011700Z 35008KT FEW028 SCT050 30/24 A2983 RMK CB NW N NE W SE=
200610011800 METAR MRLM 011800Z 36007KT 9999 FEW028 BKN080 30/24 A2983 RMK CB RN ARND=
200610011900 METAR MRLM 011900Z 36007KT 9999 OVC030 30/24 A2983 RMK CB RN ARND=
200610012000 METAR MRLM NIL=
200610012100 METAR MRLM 012100Z 36007KT 9999 SCT030 BKN090 30/24 A2983 CB DST NW/N/NE RN ARND=
200610012200 METAR MRLM 012200Z 03003KT 9999 SCT030 BKN090 27/24 A2976 RN DST NW N NE E=
200610012300 METAR MRLM 012300Z 23004KT 9999 DZ FEW030 BKN080 26/24 A2975 RN ARND=
200610020000 METAR MRLM 020000Z 24006KT 9999 -DZ FEW030 BKN080 25/24 A2972 RN DST ARND CB NE=
200610020100 METAR MRLM NIL=
200610020400 METAR MRLM NIL=
200610020500 METAR MRLM NIL=
200610020600 METAR MRLM NIL=
200610021000 METAR MRLM NIL=
200610021100 METAR MRLM NIL=
200610021200 METAR MRLM NIL=
200610021300 METAR MRLM 021300Z 24005KT CAVOK 24/23 A2982 BKN280 CB RN DST N NE E TSTM DST NE HZ ARND=
200610021400 METAR MRLM 021400Z 24004KT CAVOK 27/24 A2982 FEW140 BKN280 CB RN DST NW N NE TSTM HZ ARND=
200610021500 METAR MRLM 021500Z 02007KT 9999 FEW020 BKN030 28/24 A2985 CB RN DST NW N NE E=
200610021600 METAR MRLM 021600Z 30006KT 9999 DZ FEW015 BKN025 26/23 A2985 CB RN DST QUAD N E=
200610021700 METAR MRLM 021700Z 22005KT 9999 FEW020 SCT110 BKN270 28/24 A2982 CB DST QUAD N/E=
200610021800 METAR MRLM 021800Z 03004KT 9999 FEW025 SCT130 BKN270 29/24 A2979 CB DST QUAD N/E HZ ARND=
200610021900 METAR MRLM 021900Z 36010KT 9999 FEW032 SCT110 BKN270 30/24 A2975 CB DST N/E HZ ARND=
200610022000 METAR MRLM NIL=
200610022100 METAR MRLM 022100Z 35007KT 9999 FEW030 BKN090 30/24 A2971 CB ARND RN N=
200610022200 METAR MRLM 022200Z 30004KT 9999 FEW028 BKN090 29/24 A2970 CB ARND RN N=
200610022300 METAR MRLM 022300Z 33012KT 9999 FEW022 OVC090 28/24 A2974 CB ARND TS/RN N=
200610030000 METAR MRLM 030000Z 34007KT 9999 FEW018 BKN090 28/25 A2975 CB ARND RN N E TSTM NE=
200610030100 METAR MRLM NIL=
200610030200 METAR MRLM NIL=
200610030300 METAR MRLM NIL=
200610030400 METAR MRLM NIL=
200610030500 METAR MRLM NIL=
200610030600 METAR MRLM NIL=
200610030800 METAR MRLM NIL=
200610030900 METAR MRLM NIL=
200610031000 METAR MRLM NIL=
200610031100 METAR MRLM NIL=
200610031300 METAR MRLM 031300Z 12004KT 9999 SCT025 SCT090 26/24 A2980 RMK CB/RN DST HZ ARND=
200610031400 METAR MRLM 031400Z 20006KT 9999 SCT020 SCT110 27/24 A2981 CB ARND RN N E S=
200610031500 METAR MRLM 031500Z 19004KT 9999 SCT018 SCT090 28/25 A2982 CB RN N E=
200610031600 METAR MRLM 031600Z 36006KT 9999 SCT020 SCT110 28/24 A2982 RN S W CB NW=
200610031700 METAR MRLM 031700Z 02007KT 9999 BKN020 SCT110 29/24 A2982 CB RN S W=
200610031800 METAR MRLM 031800Z 36008KT 9999 BKN025 SCT130 30/25 A2978 CB RN S W=
200610031900 METAR MRLM 031900Z VRB03KT 9999 SCT028 SCT280 31/25 A2973 RN S CB NE=
200610032000 METAR MRLM 032000Z NIL=
200610032100 METAR MRLM 032100Z 36008KT 9999 FEW026 SCT120 BKN280 30/25 A2970 RMK RN CB DST N NE E SE LEVE HZY=
200610032200 METAR MRLM NIL=
200610032300 METAR MRLM 032300Z 05024KT 9999 BKN018 27/23 A2974 RMK RN ARND=
200610040000 METAR MRLM 040000Z 02010KT 9999 DZ SCT016 BKN090 27/24 A2975 RMK CB RN ARND=
200610040100 METAR MRLM NIL=
200610040200 METAR MRLM NIL=
200610040300 METAR MRLM NIL=
200610040400 METAR MRLM NIL=
200610040500 METAR MRLM NIL=
200610040600 METAR MRLM NIL=
200610040700 METAR MRLM NIL=
200610040800 METAR MRLM NIL=
200610040900 METAR MRLM NIL=
200610041000 METAR MRLM NIL=
200610041200 METAR MRLM NIL=
200610041300 METAR MRLM 041300Z 21004KT CAVOK 25/23 A2975 RMK CB RN DST E LEVE HZY=
200610041400 METAR MRLM 041400Z VRB03KT CAVOK 29/23 A2976 RMK CB RN DST E LEVE HZY=
200610041500 METAR MRLM NIL=
200610041600 METAR MRLM 041600Z 36007KT 9999 +DZ BKN023 SCT100 28/23 A2980=
200610041700 METAR MRLM 041700Z 07005KT 9999 RA FEW010 BKN100 26/24 A2976=
200610041800 METAR MRLM 041800Z 20007KT 9999 DZ FEW015 OVC110 27/24 A2973 RMK CB RN DST N E HZY=
200610041900 METAR MRLM 041900Z 06004KT 9999 FEW020 OVC090 29/24 A2970=
200610042000 METAR MRLM NIL=
200610042100 METAR MRLM 042100Z 03022KT 9999 BKN012 SCT025 26/23 A2969 RMK CBS RN ARND=
200610042200 METAR MRLM 042200Z 04006KT 9999 FEW013 SCT025 BKN120 26/23 A2967 RERA RMK CBS RN DTS S/ /W/ E=
200610042300 METAR MRLM 042300Z 21004KT 9999 DZ FEW010 SCT025 BKN100 25/23 A2968 RMK CB DST ARND RN DST S=
200610050000 METAR MRLM 050000Z 13008KT 9999 VCFG FEW003 SCT020 BKN250 21/18 A2988 VIS NW 7KMS=
200610050100 METAR MRLM NIL=
200610050200 METAR MRLM NIL=
200610050300 METAR MRLM NIL=
200610050400 METAR MRLM NIL=
200610050500 METAR MRLM NIL=
200610050600 METAR MRLM NIL=
200610050700 METAR MRLM NIL=
200610050800 METAR MRLM NIL=
200610050900 METAR MRLM NIL=
200610051000 METAR MRLM NIL=
200610051100 METAR MRLM NIL=
200610051200 METAR MRLM NIL=
200610051300 METAR MRLM 051300Z 22004KT 9999 FEW025 BKN090 24/23 A2973 RMK CBS RN DST N QD HZY=
200610051400 METAR MRLM 051400Z 26007KT 9999 FEW018 OVC110 27/24 A2976 RMK CB RN DST NW HZY=
200610051500 METAR MRLM 051500Z 29009KT 9999 FEW020 BKN100 28/24 A2977=
200610051600 METAR MRLM 051600Z 29006KT 9999 FEW022 OVC110 28/24 A2976=
200610051700 METAR MRLM 051700Z 31009KT 9999 FEW032 BKN120 30/24 A2974=
200610051800 METAR MRLM 051800Z 35007KT 9999 SCT043 SCT140 31/23 A2969=
200610051900 METAR MRLM 051900Z 35013KT 9999 FEW028 SCT140 29/24 A2967=
200610052000 METAR MRLM 052000Z NIL=
200610052100 METAR MRLM 052100Z 33010KT 9999 FEW030 SCT280 30/23 A2963 RMK CB S W=
200610052200 METAR MRLM 052200Z 34009KT 9999 FEW026 BKN280 29/24 A2963 RMK CB S W=
200610052300 METAR MRLM 052300Z VRB03KT 9999 FEW020 SCT140 BKN280 28/24 A2964 RMK CB S W=
200610060000 METAR MRLM 060000Z 25002KT CAVOK 26/24 A2965 RMK CB DST S W N=
200610060100 METAR MRLM NIL=
200610060200 METAR MRLM NIL=
200610060300 METAR MRLM NIL=
200610060400 METAR MRLM NIL=
200610060500 METAR MRLM NIL=
200610060600 METAR MRLM NIL=
200610060700 METAR MRLM NIL=
200610060800 METAR MRLM NIL=
200610060900 METAR MRLM NIL=
200610061000 METAR MRLM NIL=
200610061100 METAR MRLM NIL=
200610061200 METAR MRLM NIL=
200610061300 METAR MRLM 061300Z 21002KT CAVOK 26/25 A2977 RMK CB N=
200610061400 METAR MRLM 061400Z 29006KT CAVOK 29/24 A2978 RMK CB N=
200610061500 METAR MRLM 061500Z 33006KT 9999 BKN280 30/23 A2978 RMK CB N NE=
200610061600 METAR MRLM 061600Z 35008KT 9999 FEW028 BKN280 30/25 A2980=
200610061700 METAR MRLM 061700Z 01010KT 9999 FEW028 BKN280 30/25 A2977=
200610061800 METAR MRLM 061800Z 36010KT 9999 FEW025 BKN280 30/25 A2974 RMK CB N SE S W=
200610061900 METAR MRLM 061900Z 35012KT 9999 FEW025 BKN280 30/26 A2972 RMK CB S=
200610062000 METAR MRLM NIL=
200610062100 METAR MRLM NIL=
200610062200 METAR MRLM 062200Z 35007KT 9999 SCT020 SCT140 29/25 A2970 CB DST QUAD S/W RN DST SW W=
200610062300 METAR MRLM 062300Z 33006KT 9999 FEW020 SCT120 BKN270 29/25 A2972 CB RN DST S/W=
200610070000 METAR MRLM 070000Z 27002KT 9999 FEW013 SCT120 BKN270 28/25 A2973 CB RN DST S/W=
200610070100 METAR MRLM NIL=
200610070200 METAR MRLM NIL=
200610070300 METAR MRLM NIL=
200610070400 METAR MRLM NIL=
200610070500 METAR MRLM NIL=
200610070600 METAR MRLM NIL=
200610070700 METAR MRLM NIL=
200610070800 METAR MRLM NIL=
200610070900 METAR MRLM NIL=
200610071000 METAR MRLM NIL=
200610071100 METAR MRLM NIL=
200610071200 METAR MRLM NIL=
200610071300 METAR MRLM 071300Z 24005KT 9999 FEW025 SCT120 BKN150 25/24 A2978 CB RN DST W/N/E=
200610071400 METAR MRLM 071400Z 26004KT 9999 SCT035 SCT120 26/24 A2980 CB RN DST NW N HZ ARND=
200610071500 METAR MRLM 071500Z VRB03KT 9999 FEW022 SCT110 BKN270 29/24 A2981 CB RN DST N NE E SE HZ/ARND=
200610071600 METAR MRLM 071600Z 05006KT 9999 FEW028 BKN080 30/24 A2983 CB RN DST N/E/ HZ LEVE=
200610071700 METAR MRLM 071700Z 07004KT 9999 DZ SCT028 SCT080 29/24 A2982 CB RN DST N/E HZ ARND=
200610071800 METAR MRLM 071800Z VRB03KT 9999 FEW025 SCT090 BKN120 29/24 A2976 CB ARND RN E/SE=
200610071900 METAR MRLM 071900Z 11005KT 9999 FEW025 SCT090 BKN120 30/25 A2972 CB RN DST S=
200610072000 METAR MRLM NIL=
200610072100 METAR MRLM 072100Z 05007KT 9999 FEW020 BKN130 30/26 A2972 CB S W RN W NW=
200610072200 METAR MRLM 072200Z 08006KT 9999 FEW028 BKN130 30/24 A2971 CB RN S SW W N=
200610072300 METAR MRLM 072300Z 11008KT CAVOK 29/23 A2972 BKN090 SCT130 CB RN S W=
200610080000 METAR MRLM 080000Z 21004KT CAVOK 23/23 A2973 CB LTNG W=
200610080100 METAR MRLM NIL=
200610080200 METAR MRLM NIL=
200610080300 METAR MRLM NIL=
200610080400 METAR MRLM NIL=
200610080500 METAR MRLM NIL=
200610080600 METAR MRLM NIL=
200610080700 METAR MRLM NIL=
200610080800 METAR MRLM NIL=
200610080900 METAR MRLM NIL=
200610081000 METAR MRLM NIL=
200610081100 METAR MRLM NIL=
200610081200 METAR MRLM 081200Z 29003KT CAVOK 24/23 A2977 RMK OVC090=
200610081300 METAR MRLM NIL=
200610081400 METAR MRLM 081400Z 21003KT CAVOK 27/24 A2981=
200610081500 METAR MRLM 081500Z 29003KT 9999 SCT050 BKN090 28/24 A2983=
200610081600 METAR MRLM 081600Z 27005KT 9999 -DZ FEW030 BKN090 28/24 A2983 RN W=
200610081700 METAR MRLM 081700Z 30007KT 9999 FEW030 BKN100 29/24 A2980 REEDZ RN E=
200610081800 METAR MRLM 081800Z 35007KT 9999 FEW025 BKN120 31/24 A2977 CB RN E SW=
200610081900 METAR MRLM 081900Z 36008KT 9999 SCT028 BKN080 29/24 A2976 CB RN NE E SE SW=
200610082000 METAR MRLM NIL=
200610082100 METAR MRLM NIL=
200610082200 METAR MRLM 082200Z 20004KT 9999 DZ SCT030 SCT090 25/23 A2974 RMK RN ARND=
200610082300 METAR MRLM 082300Z 20004KT 9999 DZ SCT035 BKN090 24/23 A2973 RMK RN DST ARND=
200610090000 METAR MRLM 090000Z 23003KT 9999 -DZ SCT035 BKN080 24/23 A2973 RMK RN DST ARND=
200610090100 METAR MRLM NIL=
200610090200 METAR MRLM NIL=
200610090300 METAR MRLM NIL=
200610090400 METAR MRLM NIL=
200610090500 METAR MRLM NIL=
200610090600 METAR MRLM NIL=
200610090700 METAR MRLM NIL=
200610090800 METAR MRLM NIL=
200610090900 METAR MRLM NIL=
200610091000 METAR MRLM NIL=
200610091100 METAR MRLM NIL=
200610091200 METAR MRLM NIL=
200610091300 METAR MRLM 091300Z 22004KT 9999 FEW028 26/23 A2979 RMK CB DST N=
200610091400 METAR MRLM 091400Z 24003KT 9999 FEW030 BKN090 29/24 A2981 RMK CB DST N=
200610091500 METAR MRLM 091500Z 34004KT 9999 FEW030 BKN090 28/24 A2982=
200610091600 METAR MRLM 091600Z 35006KT 9999 FEW030 BKN080 29/24 A2983=
200610091700 METAR MRLM 091700Z 36008KT 9999 FEW030 30/24 A2981 RMK CB DST WNW NE SE=
200610091800 METAR MRLM 091800Z 01009KT 9999 FEW030 SCT120 30/24 A2978 RMK TCU DST WNW NW NE=
200610091900 METAR MRLM 091900Z 36008KT 9999 FEW030 BKN100 30/25 A2975 RMK CB DST NNW RN DST SSE SW=
200610092000 METAR MRLM 092000Z NIL=
200610092100 METAR MRLM 092100Z 02006KT 9999 FEW030 BKN090 29/25 A2973 CB RN DST SE S SW=
200610092200 METAR MRLM 092200Z 06003KT 9999 SCT030 BKN080 29/25 A2972 RMK RN DIST E SE S SW=
200610092300 METAR MRLM 092300Z 09006KT 9999 SCT030 BKN080 28/25 A2974 REDZ=
200610100000 METAR MRLM 100000Z 18003KT 9999 SCT028 BKN080 27/25 A2975 RMK CB RN DST SE S SW W=
200610100100 METAR MRLM NIL=
200610100200 METAR MRLM NIL=
200610100300 METAR MRLM NIL=
200610100400 METAR MRLM NIL=
200610100500 METAR MRLM NIL=
200610100600 METAR MRLM NIL=
200610100700 METAR MRLM NIL=
200610100800 METAR MRLM NIL=
200610100900 METAR MRLM NIL=
200610101000 METAR MRLM NIL=
200610101100 METAR MRLM NIL=
200610101200 METAR MRLM NIL=
200610101300 METAR MRLM 101300Z 24002KT CAVOK 26/25 A2981 RMK SCT080 SCT110 CB RN N QD HZY=
200610101400 METAR MRLM 101400Z 28006KT CAVOK 28/24 A2982 RMK FEW090 BKN110 CB RN DST N HZY=
200610101500 METAR MRLM 101500Z 31011KT 9999 FEW025 SCT090 BKN120 30/24 A2985 RMK CBS RN DST N NE HZY=
200610101600 METAR MRLM 101600Z 31013KT 9999 SCT025 BKN120 30/25 A2985 CBS RN DST N HZY=
200610101700 METAR MRLM 101700Z 32013KT 9999 BKN023 SCT120 30/26 A2983=
200610101800 METAR MRLM 101800Z 33012KT 9999 SCT025 SCT280 30/25 A2980 CBS RN DST S SW W HZY=
200610101900 METAR MRLM 101900Z 35014KT 9999 BKN018 SCT270 29/25 A2977 RMK CB RN DST S/W QDS=
200610102000 METAR MRLM 102000Z NIL=
200610102100 METAR MRLM 102100Z 30006KT 9999 OVC018 29/25 A2973 RMK CB S W=
200610102200 METAR MRLM 102200Z VRB03KT 9999 OVC012 26/25 A2975 VIS NW 8000 MTS DUE RN CB RN S=
200610102300 METAR MRLM 102300Z 24004KT 9999 SCT012 SCT150 26/25 A2976 RERA RMK CB RN S W=
200610110000 METAR MRLM 110000Z VRB03KT 9999 FEW010 SCT150 BKN290 26/25 A2976 RMK CB RN DST S W=
200610110100 METAR MRLM NIL=
200610110200 METAR MRLM NIL=
200610110300 METAR MRLM NIL=
200610110400 METAR MRLM NIL=
200610110500 METAR MRLM NIL=
200610110600 METAR MRLM NIL=
200610110700 METAR MRLM NIL=
200610110800 METAR MRLM NIL=
200610110900 METAR MRLM NIL=
200610111000 METAR MRLM NIL=
200610111100 METAR MRLM NIL=
200610111200 METAR MRLM 111200Z NIL=
200610111300 METAR MRLM 111300Z 18002KT CAVOK 25/24 A2979 RMK CB RN E NE=
200610111400 METAR MRLM 111400Z 22002KT CAVOK 28/24 A2983 RMK CB RN E=
200610111500 METAR MRLM 111500Z VRB03KT 9999 FEW025 BKN090 30/24 A2984 CB RN NE E=
200610111600 METAR MRLM 111600Z 06007KT 9999 FEW023 BKN090 29/25 A2984 RMK CB RN N E=
200610111700 METAR MRLM 111700Z 02004KT 9999 FEW025 SCT090 BKN260 29/25 A2982 RMK CB RN N E=
200610111800 METAR MRLM 111800Z 01004KT 9999 FEW025 SCT150 BKN260 29/24 A2978 RMK CB RN N E=
200610111900 METAR MRLM 111900Z 02007KT 9999 FEW028 SCT140 BKN270 31/25 A2975 RMK CB RN N=
200610112000 METAR MRLM NIL=
200610112100 METAR MRLM 112100Z 02006KT 9999 FEW028 BKN280 30/25 A2974 CB RN DST N=
200610112200 METAR MRLM 112200Z 02006KT 9999 SCT020 BKN270 30/25 A2975 CB RN DST ARND=
200610112300 METAR MRLM 112300Z 04005KT 9999 BKN018 29/25 A2977 CB RN DST ARND=
200610120000 METAR MRLM 120000Z 21003KT 9999 FEW012 BKN270 27/25 A2998 CB RN DST S/N=
200610120100 METAR MRLM NIL=
200610120200 METAR MRLM NIL=
200610120300 METAR MRLM NIL=
200610120400 METAR MRLM NIL=
200610120500 METAR MRLM NIL=
200610120600 METAR MRLM NIL=
200610120700 METAR MRLM NIL=
200610120800 METAR MRLM NIL=
200610120900 METAR MRLM NIL=
200610121000 METAR MRLM NIL=
200610121100 METAR MRLM NIL=
200610121200 METAR MRLM NIL=
200610121300 METAR MRLM 121300Z 22003KT 9999 FEW025 BKN250 26/24 A2982 RMK CB DIST E=
200610121400 METAR MRLM 121400Z 28003KT 9999 FEW025 BKN250 30/24 A2984 CB DST E=
200610121500 METAR MRLM 121500Z 31004KT 9999 FEW025 SCT100 BKN250 30/24 A2986 CB RN DST ENE=
200610121600 METAR MRLM NIL=
200610121700 METAR MRLM NIL=
200610121800 METAR MRLM 121800Z 36010KT 9999 FEW025 SCT250 30/25 A2979=
200610121900 METAR MRLM 121900Z 36008KT 9999 FEW025 SCT250 30/25 A2972=
200610122000 METAR MRLM NIL=
200610122100 METAR MRLM 122100Z 01008KT 9999 FEW025 SCT250 30/24 A2971=
200610122200 METAR MRLM NIL=
200610122300 METAR MRLM 122300Z 36004KT 9999 FEW025 SCT250 29/25 A2973 TCU SW=
200610130000 METAR MRLM 130000Z 00000KT 9999 FEW025 29/25 A2975 CB RN SW W TS W=
200610130100 METAR MRLM NIL=
200610130200 METAR MRLM NIL=
200610130300 METAR MRLM NIL=
200610130400 METAR MRLM NIL=
200610130500 METAR MRLM NIL=
200610130600 METAR MRLM NIL=
200610130700 METAR MRLM NIL=
200610130800 METAR MRLM NIL=
200610130900 METAR MRLM NIL=
200610131000 METAR MRLM NIL=
200610131100 METAR MRLM NIL=
200610131200 METAR MRLM 131200Z 22004KT 9999 FEW025 SCT120 23/22 A2979 RMK TCU N NE=
200610131300 METAR MRLM 131300Z 22003KT 9999 FEW025 SCT120 24/23 A2981=
200610131400 METAR MRLM 131400Z 00000KT 9999 FEW025 SCT100 29/24 A2984 CB RN N=
200610131500 METAR MRLM 131500Z 02004KT 9999 FEDW025 SCT100 30/24 A2986 CB RN NW=
200610131600 METAR MRLM 131600Z 03005KT 9999 FEW025 SCT100 30/24 A2985=
200610131700 METAR MRLM 131700Z 02007KT 9999 FEW025 30/25 A2985 TCU E=
200610131800 METAR MRLM 131800Z 36007KT 9999 FEW025 30/25 A2978 CB E=
200610131900 METAR MRLM 131900Z 01006KT 9999 FEW025 31/25 A2977=
200610132000 METAR MRLM 132000Z NIL=
200610132100 METAR MRLM 132100Z 01005KT 9999 FEW025 30/24 A2973=
200610132200 METAR MRLM 132200Z 36005KT 9999 FEW025 30/24 A2974 RMK CB DST S=
200610132300 METAR MRLM 132300Z 05004KT 9999 FEW025 30/24 A2975=
200610140000 METAR MRLM 140000Z 06004KT 9999 FEW025 SCT280 29/25 A2976=
200610140100 METAR MRLM NIL=
200610140200 METAR MRLM NIL=
200610140300 METAR MRLM NIL=
200610140400 METAR MRLM NIL=
200610140500 METAR MRLM NIL=
200610140600 METAR MRLM NIL=
200610140700 METAR MRLM NIL=
200610140800 METAR MRLM NIL=
200610140900 METAR MRLM NIL=
200610141000 METAR MRLM NIL=
200610141100 METAR MRLM NIL=
200610141200 METAR MRLM NIL=
200610141300 METAR MRLM 141300Z 17004KT 8000 DZ BKN020 SCT080 24/23 A2982 RERA RMK CB DST WNW E RN DST ARND=
200610141400 METAR MRLM 141400Z 23005KT 9999 FEW025 BKN250 25/24 A2983 REDZ RMK RN DST E SW W=
200610141500 METAR MRLM 141500Z 00000KT 9999 FEW025 SCT090 BKN250 29/25 A2985 RMK RN DST E=
200610141600 METAR MRLM 141600Z 07003KT 9999 FEW025 BKN250 30/24 A2985 RMK CB RN DST N NE E=
200610141700 METAR MRLM 141700Z 05005KT 9999 FEW025 SCT090 29/24 A2983 RMK RN DST N NE E TCU DST S=
200610141800 METAR MRLM 141800Z 06004KT 9999 FEW028 SCT100 30/25 A2979 RMK TCU DST SW W RN DST ENE=
200610141900 METAR MRLM 141900Z 06003KT 9999 FEW028 BKN250 30/24 A2976=
200610142000 METAR MRLM 142000Z NIL=
200610142100 METAR MRLM 142100Z 03004KT 9999 FEW028 BKN250 29/24 A2971 RMK CB DST ENE=
200610142200 METAR MRLM 142200Z 05003KT 9999 FEW025 BKN250 29/25 A2972=
200610142300 METAR MRLM NIL=
200610150000 METAR MRLM NIL=
200610150100 METAR MRLM NIL=
200610150200 METAR MRLM NIL=
200610150300 METAR MRLM NIL=
200610150400 METAR MRLM NIL=
200610150500 METAR MRLM NIL=
200610150600 METAR MRLM NIL=
200610150700 METAR MRLM NIL=
200610150800 METAR MRLM NIL=
200610150900 METAR MRLM NIL=
200610151000 METAR MRLM NIL=
200610151100 METAR MRLM NIL=
200610151200 METAR MRLM NIL=
200610151300 METAR MRLM 151300Z 29004KT 9999 FEW025 BKN090 26/23 A2983 CB WNW NW HZY=
200610151400 METAR MRLM 151400Z 26003KT 9999 FEW025 BKN090 27/24 A2984 RMK CB RN E=
200610151500 METAR MRLM 151500Z 10004KT 9999 FEW025 BKN090 28/24 A2986 RMK CB RN DST NE E SE=
200610151600 METAR MRLM 151600Z 11005KT 9999 DZ FEW025 BKN090 28/24 A2985 RMK CB RN DST NE E SE S=
200610151700 METAR MRLM 151700Z 11009KT 9999 DZ FEW028 BKN090 27/25 A2985 RMK CB RN DST NNE E=
200610151800 METAR MRLM 151800Z 10009KT 9999 FEW028 BKN100 28/25 A2980=
200610151900 METAR MRLM 151900Z 09007KT 9999 FEW028 SCT100 29/25 A2974=
200610152000 METAR MRLM 152000Z NIL=
200610152100 METAR MRLM 152100Z 08012KT 9999 FEW028 30/24 A2969 RMK CB E SE S=
200610152200 METAR MRLM 152200Z 08010KT 9999 FEW028 28/24 A2970 RMK CB E SE S=
200610152300 METAR MRLM 152300Z 09006KT 9999 FEW028 29/24 A2970 RMK CB E SE S=
200610160000 METAR MRLM 160000Z 14004KT 9999 FEW028 27/24 A2973 RMK CB DST SE S SW=
200610160100 METAR MRLM NIL=
200610160200 METAR MRLM NIL=
200610160300 METAR MRLM NIL=
200610160400 METAR MRLM NIL=
200610160500 METAR MRLM NIL=
200610160600 METAR MRLM NIL=
200610160700 METAR MRLM NIL=
200610160800 METAR MRLM NIL=
200610160900 METAR MRLM NIL=
200610161000 METAR MRLM NIL=
200610161100 METAR MRLM NIL=
200610161200 METAR MRLM NIL=
200610161300 METAR MRLM 161300Z 19005KT 9999 FEW028 26/24 A2982=
200610161400 METAR MRLM 161400Z 21004KT 9999 FEW028 29/25 A2984=
200610161500 METAR MRLM 161500Z 01010KT 9999 SCT028 29/24 A2984=
200610161600 METAR MRLM 161600Z 36009KT 9999 FEW028 30/25 A2984=
200610161700 METAR MRLM 161700Z 01008KT 9999 FEW028 30/25 A2982 RMK CB E NE=
200610161800 METAR MRLM 161800Z 36010KT 9999 FEW028 30/25 A2979 RMK TCU RN S SW W=
200610161900 METAR MRLM 161900Z 02007KT 9999 SCT028 30/25 A2977 RMK TCU RN SW CB E=
200610162000 METAR MRLM NIL=
200610162100 METAR MRLM 162100Z 04004KT 9999 SCT028 SCT090 30/25 A2973 RMK RN DIST S/SW=
200610162200 METAR MRLM 162200Z 08004KT 9999 SCT028 29/25 A2973 TCU RN DST S SW W=
200610162300 METAR MRLM 162300Z 00000KT 9999 SCT028 SCT090 29/25 A2974 TCU DST SE S SW SSW=
200610170000 METAR MRLM 170000Z 16003KT 9999 SCT025 SCT090 27/25 A2975 TCU RN DST ARND=
200610170100 METAR MRLM NIL=
200610170200 METAR MRLM NIL=
200610170300 METAR MRLM NIL=
200610170400 METAR MRLM NIL=
200610170500 METAR MRLM NIL=
200610170600 METAR MRLM NIL=
200610170700 METAR MRLM NIL=
200610170800 METAR MRLM NIL=
200610170900 METAR MRLM NIL=
200610171000 METAR MRLM NIL=
200610171100 METAR MRLM NIL=
200610171200 METAR MRLM 171200Z 21004KT 9999 FEW028 SCT240 25/24 A2980 RMK CB DST WNW=
200610171300 METAR MRLM 171300Z 25005KT 9999 FEW028 27/24 A2983 CB DST E/SE=
200610171400 METAR MRLM 171400Z 24005KT 9999 FEW025TCU 29/24 A2985 CB DST E/SE TCU RN NE=
200610171500 METAR MRLM 171500Z 33007KT 9999 SCT025TCU 30/24 A2985 TCU RN NE/E CB DST E/SE=
200610171600 METAR MRLM 171600Z 03005KT 9999 FEW025 30/25 A2984 TCU DST E=
200610171700 METAR MRLM 171700Z 33003KT 9999 FEW025 30/25 A2982 CB DST E/SE=
200610171800 METAR MRLM 171800Z 04007KT 9999 FEW025 30/25 A2978 CB DST E=
200610171900 METAR MRLM 171900Z 03008KT 9999 FEW025 30/25 A2975=
200610172000 METAR MRLM NIL=
200610172100 METAR MRLM NIL=
200610172200 METAR MRLM 172200Z 07005KT 9999 FEW030 30/25 A2972 CB NW=
200610172300 METAR MRLM 172300Z 07005KT 9999 SCT028 30/25 A2973 TCU SW W S=
200610180000 METAR MRLM 180000Z 07007KT 9999 SCT028 29/25 A2974 CB S SW W TSTM W=
200610180100 METAR MRLM NIL=
200610180200 METAR MRLM NIL=
200610180300 METAR MRLM NIL=
200610180400 METAR MRLM NIL=
200610180500 METAR MRLM NIL=
200610180600 METAR MRLM NIL=
200610180700 METAR MRLM NIL=
200610180800 METAR MRLM NIL=
200610180900 METAR MRLM NIL=
200610181000 METAR MRLM NIL=
200610181100 METAR MRLM NIL=
200610181200 METAR MRLM NIL=
200610181300 METAR MRLM 181300Z VRB03KT CAVOK 27/24 A2977 FEW120 BKN250=
200610181400 METAR MRLM 281400 09004KT 9999 FEW025 SCT120 BKN280 29/24 A2980=
200610181500 METAR MRLM 181500Z 09005KT 9999 FEW025 BKN280 29/25 A2979=
200610181600 METAR MRLM NIL=
200610181700 METAR MRLM 181700Z 07009KT 9999 FEW030 BKN280 31/25 A2976=
200610181800 METAR MRLM 181800Z 05008KT 9999 FEW028 BKN280 31/25 A2973=
200610181900 METAR MRLM 181900Z 06008KT 9999 FEW032 BKN270 31/25 A2971=
200610182000 METAR MRLM NIL=
200610182100 METAR MRLM 182100Z 03007KT 9999 SCT025 SCT090 30/25 A2967 RMK CB DST W=
200610182200 METAR MRLM 182200Z 03006KT 9999 BKN025 SXCT280 30/25 A2967 RMK CB DST S SW=
200610182300 METAR MRLM 182300Z VRB03KT 9999 BKN022 SCT280 29/25 A2968 RMK CB RN DST QUAD S / W=
200610190000 METAR MRLM 190000Z 06007KT 9999 BKN025 29/25 A2969 RMK CB RN DST QUAD S/W=
200610190100 METAR MRLM NIL=
200610190200 METAR MRLM NIL=
200610190300 METAR MRLM NIL=
200610190400 METAR MRLM NIL=
200610190500 METAR MRLM NIL=
200610190600 METAR MRLM NIL=
200610190700 METAR MRLM NIL=
200610190800 METAR MRLM NIL=
200610190900 METAR MRLM NIL=
200610191000 METAR MRLM NIL=
200610191100 METAR MRLM NIL=
200610191200 METAR MRLM NIL=
200610191300 METAR MRLM 191300Z 21004KT 9999 FEW015 BKN090 25/24 A2975 RMK CB RN DST N LEVE HZY=
200610191400 METAR MRLM 191400Z 24004KT 9999 FEW015 BKN090 26/24 A2977 RMK CB RN DST QUAD N=
200610191500 METAR MRLM 191500Z 04002KT 9999 FEW020 BKN090 29/24 A2979 RMK CB RN DST QUAD N LEVE HZY=
200610191600 METAR MRLM 191600Z 06004KT 9999 SCT020 SCT120 29/25 A2978 RMK CB RN DST N NE=
200610191700 METAR MRLM 191700Z 09008KT 9999 FEW023 SCT110 BKN280 30/25 A2976 RMK CB RN DST N NE=
200610191800 METAR MRLM 191800Z 07007KT 9999 FEW025 SCT130 BKN280 30/25 A2972 RMK CB RN DST N NE LEVE HZY=
200610191900 METAR MRLM 191900Z 08008KT 9999 BKN023 SCT280 30/25 A2969 RMK CB DST QUAD S W CB RN DST N NE=
200610192000 METAR MRLM NIL=
200610192100 METAR MRLM 192100Z 09010KT 9999 FEW025 BKN270 30/25 A2965 RMK CB RN DST S W HZ ARND=
200610192200 METAR MRLM 192200Z 07010KT 9999 BKN022 29/25 A2966 RMK CB RN DST N S SW W=
200610192300 METAR MRLM 192300Z 05011KT 9999 BKN020 SCT090 29/25 A2969 RMK CB RASH S W=
200610192320 SPECI MRLM 192320Z 27013KT 5000 FEW003 BKN015CB SCT090 27/23 A2971 UNL E=
200610200000 METAR MRLM 200000Z 26009KT 4000 TSRA OVC010CB 23/20 A2973=
200610200100 METAR MRLM NIL=
200610200200 METAR MRLM NIL=
200610200300 METAR MRLM NIL=
200610200400 METAR MRLM NIL=
200610200500 METAR MRLM NIL=
200610200600 METAR MRLM NIL=
200610200700 METAR MRLM NIL=
200610200800 METAR MRLM NIL=
200610200900 METAR MRLM NIL=
200610201000 METAR MRLM NIL=
200610201100 METAR MRLM NIL=
200610201200 METAR MRLM 201200Z 00000KT 9999 FEW030 BKN090 24/23 A2972 CB N NE=
200610201300 METAR MRLM 201300Z 19003KT 9999 FEW030 BKN090 24/23 A2974 RMK CB DST E NE=
200610201400 METAR MRLM 201400Z 21003KT 9999 FEW030 BKN100 26/24 A2977 CB DST NW N=
200610201500 METAR MRLM 201500Z 19003KT 9999 TS FEW026CB SCT090 28/24 A2978 RMK RN N NE TS NNE=
200610201600 METAR MRLM 201600Z 00000KT 9999 FEW025 BKN090 29/24 A2977 RETS RMK CB DST SW N NE=
200610201700 METAR MRLM 201700Z 05003KT 9999 SCT028 SCT090 29/24 A2975 RMK CB DST NW N SSW RN DST N NW=
200610201800 METAR MRLM NIL=
200610201900 METAR MRLM NIL=
200610202000 METAR MRLM NIL=
200610202100 METAR MRLM 202100Z 01004KT 9999 SCT026 BKN090 28/25 A2967 RMK CB RN ARND=
200610202200 METAR MRLM 202200Z 03003KT 9999 SCT026 SCT080 28/25 A2969 RMK CB RN ARND TSTM SW W=
200610202300 METAR MRLM 202300Z 00000KT 9999 BKN028 SCT100 28/25 A2970 RMK CB RN ARND TSTM SW W=
200610210000 METAR MRLM 210000Z 19005KT 9999 DZ BKN025 SCT080 27/25 A2970 RMK CB RN ARND=
200610210100 METAR MRLM NIL=
200610210200 METAR MRLM NIL=
200610210300 METAR MRLM NIL=
200610210400 METAR MRLM NIL=
200610210500 METAR MRLM NIL=
200610210600 METAR MRLM NIL=
200610210700 METAR MRLM NIL=
200610210800 METAR MRLM NIL=
200610210900 METAR MRLM NIL=
200610211000 METAR MRLM NIL=
200610211100 METAR MRLM NIL=
200610211200 METAR MRLM 211200Z 22004KT 9999 FEW025 BKN100 23/23 A2974 RMK CB RN DST NW N=
200610211300 METAR MRLM 211300Z 22003KT CAVOK 26/24 A2977 RMK CB RN NW N=
200610211400 METAR MRLM 211400Z 27003KT CAVOK 27/24 A2980 RMK CB RN NW N=
200610211500 METAR MRLM 211500Z 27003KT CAVOK 28/25 A2981 RMK CB NW W=
200610211600 METAR MRLM 211600Z 30006KT CAVOK 29/24 A2982 RMK CB RN NW W=
200610211700 METAR MRLM 211700Z 30008KT 9999 FEW030 BKKN090 28/23 A2981 RMK CB RN N NE=
200610211800 METAR MRLM 211800Z 30006KT 9999 -DZ FEW030 BKN090 28/23 A2979 RMK CB RN N NE S SW=
200610211900 METAR MRLM 211900Z 29006KT 9999 -DZ FEW030 BKN090 29/24 A2976=
200610212000 METAR MRLM NIL=
200610212100 METAR MRLM 212100Z 36008KT 9999 SCT028 SCT090 28/24 A2976 CB RN DST S SW W=
200610212200 METAR MRLM 212200Z 01006KT 9999 FEW028 BKN100 28/24 A2974 TCU S/SW=
200610212300 METAR MRLM 212300Z 01003KT 9999 FEW025 BKN100 28/24 A2974 TCU RN DST S SW=
200610220000 METAR MRLM 220000Z 20003KT 9999 FEW025 BKN090 26/25 A2977 TCU RN S SW CB DST E=
200610220100 METAR MRLM NIL=
200610220200 METAR MRLM NIL=
200610220300 METAR MRLM 220250 220606 26006KT 9999 FEW025 BKN100 PROB40 6000 -DZRA BECMG 1517 32006KT 9999 FEW025 SCT100 BKN260 BECMG 1820 31007KT 9999 SCT020 BKN090 TEMPO 2024 03005KT 9999 FEW025 BKN100 PROB30 6000 VCSH BECMG 0103 20004KT 9999 SCT025 BKN090=
200610220400 METAR MRLM 220250 220606 26006KT 9999 FEW025 BKN100 PROB40 6000 -DZRA BECMG 1517 32006KT 9999 FEW025 SCT100 BKN260 BECMG 1820 31007KT 9999 SCT020 BKN090 TEMPO 2024 03005KT 9999 FEW025 BKN100 PROB30 6000 VCSH BECMG 0103 20004KT 9999 SCT025 BKN090=
200610220500 METAR MRLM NIL=
200610220600 METAR MRLM NIL=
200610220700 METAR MRLM NIL=
200610220800 METAR MRLM NIL=
200610220900 METAR MRLM NIL=
200610221000 METAR MRLM NIL=
200610221100 METAR MRLM NIL=
200610221200 METAR MRLM NIL=
200610221300 METAR MRLM 221300Z 22004KT 9999 FEW040 BKN130 26/24 A2983 CB RN TCU QUAD N/E=
200610221400 METAR MRLM 221400Z VRB03KT 9999 FEW022 BKN120 28/24 A2986 CB RN DST QUAD N=
200610221500 METAR MRLM 221500Z 28004KT 9999 SCT025 SCT130 29/24 A2986 CB RN DST NW NE E HZ ARND=
200610221600 METAR MRLM 221600Z 36008KT 9999 SCT030 BKN130 30/24 A2987 CB RN DST N NE=
200610221700 METAR MRLM 221700Z 35009KT 9999 SCT027 SCT130 30/24 A2985 CB DST N HZY=
200610221800 METAR MRLM 221800Z 35011KT 9999 FEW025 SCT140 29/25 A2983 CB DST NE E HZ LEVE ARND=
200610221900 METAR MRLM 221900Z 09009KT 9999 SCT025 SCT130 30/25 A2980 CB DST E/S/SW RN DST SW=
200610222000 METAR MRLM NIL=
200610222100 METAR MRLM 222100Z 01007KT 9999 BKN020 29/25 A2976 CB S W RN SW W=
200610222200 METAR MRLM 222200Z 34004KT 9999 BKN020 29/25 A2977 CB RN S W=
200610222300 METAR MRLM 222300Z 00000KT 9999 SCT014 SCT270 28/25 A2977 CB RN S W=
200610230000 METAR MRLM 230000Z 23004KT 9999 SCT012 SCT110 27/25 A2978 CB RN S W=
200610230100 METAR MRLM NIL=
200610230200 METAR MRLM NIL=
200610230300 METAR MRLM NIL=
200610230400 METAR MRLM NIL=
200610230500 METAR MRLM NIL=
200610230600 METAR MRLM NIL=
200610230700 METAR MRLM NIL=
200610230800 METAR MRLM NIL=
200610230900 METAR MRLM NIL=
200610231000 METAR MRLM NIL=
200610231100 METAR MRLM NIL=
200610231200 METAR MRLM NIL=
200610231300 METAR MRLM 231300Z VRB03KT CAVOK 26/23 A2986 RMK FEW040 SCT080 HZ LGT ARND=
200610231400 METAR MRLM 231400Z VRB03KT 9999 FEW028 BKN140 29/24 A2988=
200610231500 METAR MRLM 231500Z 05005KT 9999 FEW028 SCT240 29/24 A2989=
200610231600 METAR MRLM 231600Z 05005KT 9999 FEW028 SCT140 30/24 A2988=
200610231700 METAR MRLM 231700Z 03008KT 9999 FEW026 SCT280 30/25 A2985=
200610231800 METAR MRLM 231800Z 03009KT 9999 FEW025 SCT280 30/25 A2983 CB S=
200610231900 METAR MRLM 231900Z 02009KT 9999 FEW025 BKN280 30/25 A2980 CB SW W NE=
200610232000 METAR MRLM 232000Z NIL=
200610232100 METAR MRLM 232100Z 05007KT 9999 FEW028 BKN280 30/24 A2977 RMK CB DST QUAD S W=
200610232200 METAR MRLM 232200Z 08005KT 9999 FEW030 BKN270 30/24 A2977 RMK CB DST QUAD S W=
200610232300 METAR MRLM 232300Z 10004KT 9999 FEW023 BKN270 26/24 A2977 RMK CB DST QUAD S W=
200610240000 METAR MRLM 240000Z VRB03KT 9999 FEW010 BKN270 26/24 A2981 RMK CB DST QUAD S W HZY LEVE=
200610240100 METAR MRLM NIL=
200610240200 METAR MRLM NIL=
200610240300 METAR MRLM NIL=
200610240400 METAR MRLM NIL=
200610240500 METAR MRLM NIL=
200610240600 METAR MRLM NIL=
200610240700 METAR MRLM NIL=
200610240800 METAR MRLM NIL=
200610240900 METAR MRLM NIL=
200610241000 METAR MRLM NIL=
200610241100 METAR MRLM NIL=
200610241200 METAR MRLM NIL=
200610241300 METAR MRLM 241300Z 22005KT 9999 FEW030 BKN250 25/22 A2084=
200610241400 METAR MRLM 241400Z 21003KT CAVOK 29/24 A2986 RMK CB DST WNW=
200610241500 METAR MRLM 241500Z 02004KT 9999 FEW030 BKN250 30/24 A2987=
200610241600 METAR MRLM 241600Z 03005KT 9999 FEW030 BKN250 30/24 A2986 RMK CB DST NE E=
200610241700 METAR MRLM 241700Z 04006KT 9999 FEW030 BKN250 30/25 A2984=
200610241800 METAR MRLM 241800Z 02006KT 9999 FEW030 BKN250 30/24 A2982 RMK CB DST ENE=
200610241900 METAR MRLM 241900Z 36009KT 9999 FEW030 BKN250 30/25 A2979 RMK CB DST ARND TCU DST SSW=
200610242000 METAR MRLM 242000Z NIL=
200610242100 METAR MRLM 242100Z 03005KT 9999 FEW030 BKN250 30/24 A2972 RMK CB DST ARND=
200610242200 METAR MRLM 242200Z 02005KT 9999 FEW030 BKN250 30/25 A2977=
200610242300 METAR MRLM 242300Z 07003KT 9999 FEW030 BKN250 29/24 A2976 RMK CB DST S=
200610250000 METAR MRLM 250000Z 06004KT 9999 FEW030 BKN250 28/24 A2979=
200610250100 METAR MRLM NIL=
200610250200 METAR MRLM NIL=
200610250300 METAR MRLM NIL=
200610250400 METAR MRLM NIL=
200610250500 METAR MRLM NIL=
200610250600 METAR MRLM NIL=
200610250700 METAR MRLM NIL=
200610250800 METAR MRLM NIL=
200610250900 METAR MRLM NIL=
200610251000 METAR MRLM NIL=
200610251100 METAR MRLM NIL=
200610251200 METAR MRLM 251200Z NIL=
200610251300 METAR MRLM 251300Z 22005KT 9999 -DZ FEW028 BKN090 24/22 A2985 RMK CB RN DST NW N NE=
200610251400 METAR MRLM 251400Z 22003KT 9999 SCT030 BKN090 25/23 A2988 REDS RMK CB RN DST NW N NE E TS NNE=
200610251500 METAR MRLM 251500Z 28004KT 9999 SCT030 BKN090 30/24 A2989 RMK CB RN DST W NW NNE=
200610251600 METAR MRLM 251600Z 29006KT 9999 SCT030 BKN080 30/24 A2988 RMK CB RN W NW N E=
200610251700 METAR MRLM 251700Z 36009KT 9999 FEW030 SCT090 29/25 A2985 RMK CB RN DST W NW=
200610251800 METAR MRLM 251800Z 34011KT 9999 FEW030 SCT090 BKN250 29/25 A2984 RMK CB DST ARND=
200610251900 METAR MRLM 251900Z 31009KT 9999 FEW030 SCT090 BKN250 30/24 A2979 RMK CB ARND=
200610252000 METAR MRLM NIL=
200610252100 METAR MRLM 252100Z 34010KT 9999 FEW030 BKN250 30/25 A2975 RMK CB RN ARND=
200610252200 METAR MRLM 252200Z 33009KT 9999 FEW030 BKN250 29/24 A2976 RMK CB SE S SW W=
200610252300 METAR MRLM NIL=
200610260000 METAR MRLM 260000Z 25003KT 9999 FEW028 SCT090 BKN240 27/24 A2980=
200610260100 METAR MRLM NIL=
200610260200 METAR MRLM NIL=
200610260300 METAR MRLM NIL=
200610260400 METAR MRLM NIL=
200610260500 METAR MRLM NIL=
200610260600 METAR MRLM NIL=
200610260700 METAR MRLM NIL=
200610260800 METAR MRLM NIL=
200610260900 METAR MRLM NIL=
200610261000 METAR MRLM NIL=
200610261100 METAR MRLM NIL=
200610261200 METAR MRLM NIL=
200610261300 METAR MRLM 261300Z 20006KT 8000 RA SCT030 OVC090 25/23 A2984 RMK CB N E TSTM NE=
200610261400 METAR MRLM 261400Z VRB03KT 7000 RA BKN025 SCT090 24/23 A2987 RMK CB N E TSTM NE=
200610261500 METAR MRLM 261500Z 19004KT 9999 DZ FEW015 SCT030 BKN100 24/24 A2989 RMK CB ARND TSTM N=
200610261600 METAR MRLM NIL=
200610261700 METAR MRLM 261700Z 13005KT 9999 FEW018 BKN090 28/25 A2988 RMK CB RN ARND=
200610261800 METAR MRLM 261800Z 13009KT 9999 FEW020 SCT090 BKN150 28/24 A2986 RMK CB RN ARND=
200610261900 METAR MRLM 261900Z 20002KT CAVOK 29/24 A2980 RMK CB RN ARND=
200610262000 METAR MRLM NIL=
200610262100 METAR MRLM 262100Z VRB03KT CAVOK 28/25 A2967 SCT130 SCT150 BKN270 CB ARND RN QUAD E=
200610262200 METAR MRLM 262200Z VRB03KT CAVOK 29/25 A2979 SCT120 SCT150 BKN270 CB ARND RN DST E=
200610262300 METAR MRLM 262300Z 00000KT CAVOK 28/25 A2978 BKN130 SCT270 CB DST ARND RN QUAD E=
200610270000 METAR MRLM 270000Z 28002KT CAVOK 27/25 A2977 CB DST ARND RN DST S SE=
200610270100 METAR MRLM NIL=
200610270200 METAR MRLM NIL=
200610270300 METAR MRLM NIL=
200610270400 METAR MRLM NIL=
200610270500 METAR MRLM NIL=
200610270600 METAR MRLM NIL=
200610270700 METAR MRLM NIL=
200610270800 METAR MRLM NIL=
200610270900 METAR MRLM NIL=
200610271000 METAR MRLM NIL=
200610271100 METAR MRLM NIL=
200610271200 METAR MRLM NIL=
200610271300 METAR MRLM 271300Z 23002KT CAVOK 26/22 A2982 OVC280 HZ ARND=
200610271400 METAR MRLM 271400Z VRB03KT CAVOK 29/23 A2983 BKN280 CB DST SW E HZY=
200610271500 METAR MRLM 271500Z 06004KT CAVOK 30/24 A2984 CB DST NW NE E BKN280 HZY=
200610271600 METAR MRLM 271600Z 03006KT CAVOK 30/24 A2983 SCT140 SCT280 CB DST NW NE E HZY=
200610271700 METAR MRLM 271700Z 01006KT 9999 FEW025 SCT140 30/24 A2980 CB DST NE E HZY=
200610271800 METAR MRLM 271800Z 01006KT 9999 FEW032 BKN130 30/24 A2979 CB DST NW E HZY=
200610271900 METAR MRLM 271900Z 36008KT 9999 FEW028 BKN110 30/24 A2976 RMK CB DSIT=
200610272000 METAR MRLM NIL=
200610272100 METAR MRLM 272100Z 36005KT 9999 BKN025 30/25 A2973 CB NE S=
200610272200 METAR MRLM 272200Z 01006KT 9999 BKN025 SCT120 30/25 A2973 CB N=
200610272300 METAR MRLM 272300Z VRB03KT 9999 FEW025 BKN280 29/25 A2974 CB SW NW N NE=
200610280000 METAR MRLM 280000Z VRB03KT 9999 FEW010 SCT280 27/25 A2975 CB SW=
200610280100 METAR MRLM NIL=
200610280200 METAR MRLM NIL=
200610280300 METAR MRLM NIL=
200610280400 METAR MRLM NIL=
200610280600 METAR MRLM NIL=
200610280700 METAR MRLM NIL=
200610280800 METAR MRLM NIL=
200610280900 METAR MRLM NIL=
200610281000 METAR MRLM NIL=
200610281100 METAR MRLM NIL=
200610281200 METAR MRLM NIL=
200610281300 METAR MRLM 281300Z 21005KT 9999 FEW028 BKN300 26/23 A2979=
200610281400 METAR MRLM 281400Z 24004KT 9999 FEW028 BKN300 29/24 A2981 CB NE=
200610281500 METAR MRLM 281500Z 32006KT 9999 FEW028 SCT100 31/24 A2984 CB RN NE=
200610281600 METAR MRLM 281600Z 34004KT 9999 FEW028 BKN090 31/24 A2985 RN E SE=
200610281700 METAR MRLM 281700Z 36008KT 9999 FEW028 BKN090 31/25 A2981 CB NE N=
200610281800 METAR MRLM 291800Z 36008KT 9999 FEW028 BKN090 31/25 A2978 RN N NE=
200610281900 METAR MRLM 281900Z 36008KT 9999 FEW028 SCT100 BKN280 31/25 A2976 CB NW N NE=
200610282000 METAR MRLM 282000Z NIL=
200610282100 METAR MRLM 282100Z 35007KT 9999 SCT028 BKN280 30/25 A2971=
200610282200 METAR MRLM 282200Z 36010KT 9999 SCT024TCU SCT090 29/26 A2973 RMK RN CB DST SE S SW=
200610282300 METAR MRLM NIL=
200610290000 METAR MRLM 290000Z 25003KT 9999 FEW024 SCT090 BKN250 27/25 A2976 RMK CB RN DST SE S SW W=
200610290100 METAR MRLM NIL=
200610290200 METAR MRLM NIL=
200610290300 METAR MRLM NIL=
200610290400 METAR MRLM NIL=
200610290500 METAR MRLM NIL=
200610290600 METAR MRLM NIL=
200610290700 METAR MRLM NIL=
200610290800 METAR MRLM NIL=
200610290900 METAR MRLM NIL=
200610291000 METAR MRLM NIL=
200610291100 METAR MRLM NIL=
200610291200 METAR MRLM NIL=
200610291300 METAR MRLM 291300Z 28006KT 9999 FEW028 BKN220 26/23 A2982 RMK CB RN DST NW N NE E=
200610291400 METAR MRLM 291400Z 27009KT 9999 FEW028 SCT120 28/23 A2984 RMK CB RN DST NW N NE E=
200610291500 METAR MRLM 291500Z 27005KT 9999 FEW028 BKN220 28/24 A2985 RMK CB RN DST NW N NE E=
200610291600 METAR MRLM 291600Z 30009KT 9999 SCT025 BKN045 29/24 A3987 RMK CB RN DST ARND=
200610291700 METAR MRLM 291700Z 33012KT 9999 +DZ BKN026 SCT080 27/25 A2984 RMK CB RN DST ARND=
200610291800 METAR MRLM 291800Z 29004KT 8000 -RA SCT026 BKN080 26/24 A2984 RMK CB DST ARND=
200610291900 METAR MRLM 291900Z 24005KT 8000 DZ SCT024 SCT080 25/24 A2977 RMK CB DST ARND=
200610292000 METAR MRLM 292000Z NIL=
200610292100 METAR MRLM 292100Z 30005KT 9999 DZ FEW025 BKN080 26/24 A2974 RMK RN DST ARND=
200610292200 METAR MRLM 292200Z 21003KT 9999 SCT030 BKN090 26/25 A2973 REDZ RMK RN DST ARND=
200610292300 METAR MRLM 292300Z 00000KT 9999 FEW028 BKN090 26/25 A2974 RMK RN DST NW N NE=
200610300000 METAR MRLM 300000Z 00000KT 9999 SCT028 BKN090 25/24 A2975=
200610300100 METAR MRLM NIL=
200610300200 METAR MRLM NIL=
200610300300 METAR MRLM NIL=
200610300400 METAR MRLM NIL=
200610300500 METAR MRLM NIL=
200610300600 METAR MRLM NIL=
200610300700 METAR MRLM NIL=
200610300800 METAR MRLM NIL=
200610300900 METAR MRLM NIL=
200610301000 METAR MRLM NIL=
200610301100 METAR MRLM NIL=
200610301200 METAR MRLM NIL=
200610301300 METAR MRLM 301300Z 27012KT 9999 SCT015 SCT130 25/23 A2979 CB RN DST N=
200610301400 METAR MRLM 301400Z 27007KT 9999 FEW015 SCT120 25/23 A2982 RMK CB RN DST N E=
200610301500 METAR MRLM 301500Z 25007KT 9999 FEW020 SCT120 BKN150 27/23 A2982 RMK CB RN DST N E=
200610301600 METAR MRLM NIL=
200610301700 METAR MRLM NIL=
200610301800 METAR MRLM NIL=
200610301900 METAR MRLM 301900Z 31014KT 9999 BKN026 SCT120 29/24 A2974 RMK CB DST ARND RN DST NW N=
200610302000 METAR MRLM 302000Z NIL=
200610302100 METAR MRLM 302100Z 29008KT 9999 BKN020 SCT110 27/24 A2971 RMK CB ARND RN S W N=
200610302200 METAR MRLM 302200Z 28008KT 9999 DZ SCT015 BKN090 26/23 A2973 RMK RN S W N=
200610302300 METAR MRLM 302300Z 26007KT 9999 DZ SCT010 SCT035 25/24 A2974 RERA RMK RN ARND=
200610310000 METAR MRLM NIL=
200610310100 METAR MRLM NIL=
200610310200 METAR MRLM NIL=
200610310300 METAR MRLM NIL=
200610310400 METAR MRLM NIL=
200610310500 METAR MRLM NIL=
200610310600 METAR MRLM NIL=
200610310700 METAR MRLM NIL=
200610310800 METAR MRLM NIL=
200610310900 METAR MRLM NIL=
200610311000 METAR MRLM NIL=
200610311100 METAR MRLM NIL=
200610311200 METAR MRLM NIL=
200610311300 METAR MRLM 311300Z 19002KT CAVOK 25/23 A2976 RMK CB N E TCU SE S=
200610311400 METAR MRLM 311400Z 27002KT CAVOK 27/22 A2978 RMK CB RN NE=
200610311500 METAR MRLM 311500Z 32008KT 9999 FEW035 SCT150 BKN270 29/22 A2980 RMK CB RN NE=
200610311600 METAR MRLM 311600Z 33013KT 9999 FEW028 SCT150 BKN270 31/23 A2979 RMK CB RN N=
200610311700 METAR MRLM 311700Z 31014KT 9999 FEW026 SCT150 BKN270 29/24 A2977 RMK CB RN N=
200610311800 METAR MRLM 311800Z 32014KT 9999 SCT023 SCT140 BKN270 28/24 A2974 RMK CB RN N=
200610311900 METAR MRLM 311900Z 32014KT 9999 BKN023 29/24 A2974 RMK CB RN N=
200610312000 METAR MRLM NIL=
200610312100 METAR MRLM 312100Z 31012KT 9999 BKN020 28/24 A2968 CB RN DST ARND=
200610312200 METAR MRLM 312200Z 29007KT 9999 BKN018 28/24 A2970 CB RN DST ARND=
200610312300 METAR MRLM 312300Z 29004KT 9999 BKN014 SCT140 27/24 A2971 CB RN DST ARND=
200611010000 METAR MRLM 010000Z 21002KT 9999 FEW010 BKN140 26/24 A2973 CB RN DST ARND=
200611010100 METAR MRLM NIL=
200611010200 METAR MRLM NIL=
200611010300 METAR MRLM NIL=
200611010400 METAR MRLM NIL=
200611010500 METAR MRLM NIL=
200611010600 METAR MRLM NIL=
200611010700 METAR MRLM NIL=
200611010800 METAR MRLM NIL=
200611010900 METAR MRLM NIL=
200611011000 METAR MRLM NIL=
200611011100 METAR MRLM NIL=
200611011200 METAR MRLM 011200Z 24004KT 9999 FEW028 SCT230 23/22 A2975 RMK LINE CB RN NW N NE E=
200611011300 METAR MRLM 011300Z 23003KT 9999 FEW024 SCT230 23/22 A2977 CB RN DST NW N NE E=
200611011400 METAR MRLM 011400Z 00000KT 9999 FEW024 BKN230 24/23 A2981 CB RN DST NW N NE E=
200611011500 METAR MRLM 011500Z 26003KT 9999 FEW025 BKN140 26/23 A2983 CB RN DST NW N NE E=
200611011600 METAR MRLM 011600Z 29004KT 9999 FEW026 BKN140 26/23 A2981 CB RN DST NW N NE E=
200611011700 METAR MRLM 011700Z 30004KT 9999 FEW030 BKN200 28/24 A2977 CB RN DST NW NE E=
200611011800 METAR MRLM 011800Z 32008KT 9999 FEW026 BKN240 29/23 A2975 CB DST NW NE E RN/NE=
200611011900 METAR MRLM 011900Z 28006KT 9999 FEW025 BKN240 30/24 A2970 CB DST NW NE SE RN/NE=
200611012000 METAR MRLM NIL=
200611012100 METAR MRLM 012100Z 35009KT 9999 FEW024 BKN250 29/24 A2967 CB NW N SE=
200611012200 METAR MRLM 012200Z 35009KT 9999 FEW025 BKN250 29/24 A2969=
200611012300 METAR MRLM 012300Z 29003KT 9999 FEW024CB SCT100 BKN250 27/24 A2971 CB R W NW S SW=
200611020000 METAR MRLM 020000Z 00000KT 9999 FEW024 SCT100 BKN250 26/24 A2973 CB ARND RN SE S SW W=
200611020100 METAR MRLM NIL=
200611020200 METAR MRLM NIL=
200611020300 METAR MRLM NIL=
200611020400 METAR MRLM NIL=
200611020500 METAR MRLM NIL=
200611020600 METAR MRLM NIL=
200611020700 METAR MRLM NIL=
200611020800 METAR MRLM NIL=
200611020900 METAR MRLM NIL=
200611021000 METAR MRLM NIL=
200611021100 METAR MRLM NIL=
200611021200 METAR MRLM 021200Z 21004KT 9999 FEW030 SCT090 23/22 A2988 CB RN E=
200611021300 METAR MRLM 021300Z 18004KT 9999 FEW022 SCT250 24/22 A2978 CB RN E=
200611021400 METAR MRLM 021400Z 20003KT 9999 FEW025 BKN250 27/24 A2880 CB RN E=
200611021500 METAR MRLM 021500Z 06005KT 9999 FEW025 BKN250 28/24 A2981 CB NW N NE E RN NE=
200611021600 METAR MRLM 021600Z 09005KT 9999 BKN250 28/24 A2981 CB NW N NE E=
200611021700 METAR MRLM 021700Z 10007KT 9999 FEW025 BKN230 29/23 A2979 CB RN NW N NE=
200611021800 METAR MRLM 021800Z 09006KT 9999 FEW030 BKN250 29/24 A2976 CB RN NW N NE=
200611021900 METAR MRLM 021900Z 04007KT 9999 FEW030 BKN250 29/25 A2972 CB ARND=
200611022000 METAR MRLM 022000Z NIL=
200611022100 METAR MRLM 022100Z 04011KT 9999 FEW026 BKN250 29/24 A2967 RMK LINE CB DST SE/S/SW/W=
200611022200 METAR MRLM 022200Z 06007KT 9999 FEW025 BKN250 29/24 A2969 RMK CR RN DST SE S SW W=
200611022300 METAR MRLM 022300Z 07005KT 9999 SCT025 BKN250 28/25 A2990 RMK CB RN DST SE S SW W=
200611030000 METAR MRLM 030000Z 16003KT 9999 SCT025 BKN250 27/24 A2972 RMK CB RN DST SE S SW W=
200611030100 METAR MRLM NIL=
200611030200 METAR MRLM NIL=
200611030300 METAR MRLM NIL=
200611030400 METAR MRLM NIL=
200611030500 METAR MRLM NIL=
200611030600 METAR MRLM NIL=
200611030700 METAR MRLM NIL=
200611030800 METAR MRLM NIL=
200611030900 METAR MRLM NIL=
200611031000 METAR MRLM NIL=
200611031100 METAR MRLM NIL=
200611031200 METAR MRLM NIL=
200611031300 METAR MRLM 031300Z VRB03KT CAVOK 25/23 A2977 RMK CB DST SE LEVE HZY=
200611031400 METAR MRLM 031400Z 20004KT CAVOK 24/24 A2978 RMK CB DST NE E LEVE HZY=
200611031500 METAR MRLM 031500Z 06004KT CAVOK 30/24 A2979 RMK CB DST NE E N LEVE HZY=
200611031600 METAR MRLM 031600Z 05004KT 9999 FEW023 BKN110 29/25 A2979 RMK CB DST N NE LEVE HZY=
200611031700 METAR MRLM 031700Z 05008KT 9999 FEW028 BKN120 30/24 A2977 RMK CB DST N/NE/E=
200611031800 METAR MRLM 031800Z 03012KT 9999 BKN026TCU SCT130 30/25 A2976 RMK RN DST NW N NE=
200611031900 METAR MRLM 031900Z 03019KT 9999 BKN015 SCT090 27/24 A2974 RMK RN DST QUAD S W N=
200611032000 METAR MRLM NIL=
200611032100 METAR MRLM 032100Z 19006KT 9999 FEW030 SCT100 BKN140 29/23 A2969 RMK CB DST S DZ DST N=
200611032200 METAR MRLM 032200Z 15002KT CAVOK 29/24 A2968 RMK CB DST W S N=
200611032300 METAR MRLM 032300Z 07006KT CAVOK 28/24 A2970 RMK CB DST SW W NE=
200611040000 METAR MRLM 040000Z 07005KT CAVOK 28/23 A2971=
200611040100 METAR MRLM NIL=
200611040200 METAR MRLM NIL=
200611040300 METAR MRLM NIL=
200611040400 METAR MRLM NIL=
200611040500 METAR MRLM NIL=
200611040600 METAR MRLM NIL=
200611040700 METAR MRLM NIL=
200611040800 METAR MRLM NIL=
200611040900 METAR MRLM NIL=
200611041000 METAR MRLM NIL=
200611041100 METAR MRLM NIL=
200611041200 METAR MRLM NIL=
200611041300 METAR MRLM 041300Z 23004KT 9999 FEW002 SCT032 BKN120 23/23 A2976 RMK RERA.RN RN DIST S W=
200611041400 METAR MRLM 041400Z 22004KT 9999 FEW040 SCT130 25/24 A2977/ RMK C N E DIST. HZY=
200611041500 METAR MRLM 041500Z 18002KT CAVOK 30/24 A2978 RMK CB DST N=
200611041600 METAR MRLM 041600Z 01009KT CAVOK 30/25 A2977 RMK CB DST N=
200611041700 METAR MRLM 041700Z 02006KT 9999 FEW028 SCT110 BKN280 30/24 A2974=
200611041800 METAR MRLM 041800Z 36013KT 9999 FEW020 BKN030 30/25 A2973 RMK RN N E=
200611041900 METAR MRLM 041900Z 03022KT 9999 FEW010 SCT025 BKN090 27/25 A2970 RMK RN ARND=
200611042000 METAR MRLM 042000Z NIL=
200611042100 METAR MRLM 042100Z 22006KT 9999 FEW020 SCT035 BKN110 28/24 A2968 DZ W NW=
200611042200 METAR MRLM 042200Z 23002KT 9999 SCT040 SCT110 28/24 A2988 RMK CB N=
200611042300 METAR MRLM 042300Z VTB03KT CAVOK 27/24 A2969 RMK CB NW=
200611050000 METAR MRLM 050000Z 24002KT CAVOK 25/24 A2970 RM CB NW=
200611050100 METAR MRLM NIL=
200611050200 METAR MRLM NIL=
200611050300 METAR MRLM NIL=
200611050400 METAR MRLM NIL=
200611050500 METAR MRLM NIL=
200611050600 METAR MRLM NIL=
200611050700 METAR MRLM NIL=
200611050800 METAR MRLM NIL=
200611050900 METAR MRLM NIL=
200611051000 METAR MRLM NIL=
200611051100 METAR MRLM NIL=
200611051200 METAR MRLM NIL=
200611051300 METAR MRLM 051300Z 25005KT 9999 FEW025 BKN250 25/23 A2975 RKM CB NE=
200611051400 METAR MRLM 051400Z 23004KT 9999 FEW025TCU SCT250 28/23 A2977 RMK CB RN N NE ENE=
200611051500 METAR MRLM 051500Z 28005KT 9999 FEW025 SCT250 30/23 A2979 RMK CB RN N NW N NE=
200611051600 METAR MRLM 051600Z 35010KT 9999 FEW025 BKN100 31/24 A2977 RMK CB RN N NW N NE E=
200611051700 METAR MRLM 051700Z 35010KT 9999 FEW025 BKN090 29/23 A2975 CB RN E NE=
200611051800 METAR MRLM 051800Z 35007KT 9999 FEW025 BKN090 29/24 A2973 RMK CB RN N E NE=
200611051900 METAR MRLM 051900Z 36007KT 9999 FEW025 BKN100 30/23 A2969 RMK CB RN NW N NE=
200611052000 METAR MRLM NIL=
200611052100 METAR MRLM 052100Z 33005KT 9999 BKN025 BKN100 31/23 A2966 CB DIST N/NE=
200611052200 METAR MRLM 052200Z 33003KT 9999 SCT025 BKN090 30/24 A2967=
200611052300 METAR MRLM 052300Z 33008KT 9999 FEW030 SCT090 30/24 A2967 CB DST NW N NE E=
200611060000 METAR MRLM 060000Z 00000KT 9999 FEW028 SCT090 27/24 A2969 CB RN DST NE E SE=
200611060100 METAR MRLM NIL=
200611060200 METAR MRLM NIL=
200611060300 METAR MRLM NIL=
200611060400 METAR MRLM NIL=
200611060500 METAR MRLM NIL=
200611060600 METAR MRLM NIL=
200611060700 METAR MRLM NIL=
200611060800 METAR MRLM NIL=
200611060900 METAR MRLM NIL=
200611061000 METAR MRLM NIL=
200611061100 METAR MRLM NIL=
200611061200 METAR MRLM NIL=
200611061300 METAR MRLM 061300Z 00000KT 9999 +DZ BKN025 SCT080 24/24 A2975 RN ARND=
200611061400 METAR MRLM 061400Z 24003KT 9999 SCT028 BKN080 25/24 A2977 REDZ RN DST ARND=
200611061500 METAR MRLM 061500Z 26004KT 9999 SCT030 BKN080 27/24 A2977 TCU RN DST NW N NE E=
200611061600 METAR MRLM 061600Z 15003KT 7000 -RA BKN025 SCT080 25/24 A2978 TCU NE E SE=
200611061700 METAR MRLM 061700Z 26004KT 7000 RA BKN030 SCT080 25/24 A2975 TCU SW N NE ENE=
200611061800 METAR MRLM 061800Z 30004KT 7000 -RA BKN035 SCT080 25/24 A2973 TCU SW NW N=
200611061900 METAR MRLM 061900Z 24004KT 9999 -DZ SCT035 BKN090 26/24 A2970 CB DST N ENE S RN NW N NE=
200611062000 METAR MRLM NIL=
200611062100 METAR MRLM 062100Z 24004KT 9999 FEW035 SCT080 29/24 A2967 RMK CB RN DST N S=
200611062200 METAR MRLM 062200Z 29003KT 9999 FEW030 SCT090 27/25 A2968 LGT HZ ARND=
200611062300 METAR MRLM 062300Z 24003KT 9999 FEW035 BKN220 27/25 A2968 RMK RN DST N NE HZY=
200611070000 METAR MRLM 070000Z 32003KT 9999 FEW030 BKN090 26/25 A2968 RMK CB RN DST N NE E=
200611070100 METAR MRLM NIL=
200611070200 METAR MRLM NIL=
200611070300 METAR MRLM NIL=
200611070400 METAR MRLM NIL=
200611070500 METAR MRLM NIL=
200611070600 METAR MRLM NIL=
200611070700 METAR MRLM NIL=
200611070800 METAR MRLM NIL=
200611070900 METAR MRLM NIL=
200611071000 METAR MRLM NIL=
200611071100 METAR MRLM NIL=
200611071200 METAR MRLM NIL=
200611071300 METAR MRLM 071300Z VRB03KT 9999 BKN025 SCT140 24/23 A2977 RMK CB RN DST N E SE HZY=
200611071400 METAR MRLM 071400Z VRB03KT 9999 BKN025 26/24 A2979 RMK CB RN DST E SE HZY=
200611071500 METAR MRLM 071500Z 27006KT 9999 SCT025 BKN100 27/24 A2981 RMK CBS RN DST E/SE=
200611071600 METAR MRLM 071600Z 27004KT 9999 BKN025 SCT100 28/24 A2985 RMK CBS RN DST NE E SE HZY=
200611071700 METAR MRLM NIL=
200611071800 METAR MRLM NIL=
200611071900 METAR MRLM 071900Z 02004KT 9999 FEW025 SCT140 BKN270 29/24 A2971 RMK CB RN DST W/ E=
200611072000 METAR MRLM 072000Z NIL=
200611072200 METAR MRLM 072200Z 31006KT 9999 FEW025 SCT140 BKN270 29/23 A2969 RMK CB RN DST N NE S SW W LEVE HZY=
200611072300 METAR MRLM 072300Z 00000KT 9999 FEW020 SCT140 27/24 A2971 RMK RN DST N E CB RN DST S SW W LEVE HZY=
200611080000 METAR MRLM 080000Z 01015KT 4000 RA OVC015 27/25 A2972 RMK LTNG E=
200611080600 METAR MRLM NIL=
200611080700 METAR MRLM NIL=
200611080800 METAR MRLM NIL=
200611080900 METAR MRLM NIL=
200611081000 METAR MRLM NIL=
200611081100 METAR MRLM NIL=
200611081200 METAR MRLM NIL=
200611081300 METAR MRLM 081300Z 26004KT CAVOK 24/23 A2975 RMK LEVE HZY=
200611081400 METAR MRLM 081400Z VRB03KT CAVOK 27/23 A2978 RMK CB DST NW N E LEVE HZY=
200611081500 METAR MRLM 081500Z 32004KT 9999 FEW025 SCT280 29/24 A2978 RMK CB DST NW N NE E=
200611081600 METAR MRLM 081600Z 02006KT 9999 FEW025 SCT140 BKN280 29/23 A2976 RMK CB RN DST NW N E LEVE HZY=
200611081700 METAR MRLM 081700Z 36007KT 9999 FEW025 SCT140 BKN280 30/25 A2977 RMK CB DST S SW N NE E RN DST E LEVE HZY=
200611081800 METAR MRLM 081800Z 03007KT 9999 FEW025 SCT140 30/24 A2976 RMK CB DST ARND RN DST SW LEVE HZY=
200611081900 METAR MRLM 081900Z 01008KT 9999 FEW025 BKN130 30/25 A2975 RMK CB DST HZ ARND RN DST SW=
200611082000 METAR MRLM 082000Z NIL=
200611082100 METAR MRLM 082100Z 04006KT 9999 SCT020 BKN130 28/25 A2972 RMK CB RN DST NE RN SW=
200611082200 METAR MRLM 082200Z 02004KT 9999 FEW020 BKN120 29/24 A2971 RMK RN DST S SW HZ ARND=
200611082300 METAR MRLM 082300Z VRB03KT 9999 FEW020 BKN130 28/23 A2970 RMK CB RN DST S=
200611090000 METAR MRLM 090000Z VRB03KT 9999 FEW015 BKN120 26/24 A2973=
200611090100 METAR MRLM NIL=
200611090200 METAR MRLM NIL=
200611090300 METAR MRLM NIL=
200611090400 METAR MRLM NIL=
200611090500 METAR MRLM NIL=
200611090600 METAR MRLM NIL=
200611090700 METAR MRLM NIL=
200611090800 METAR MRLM NIL=
200611090900 METAR MRLM NIL=
200611091000 METAR MRLM NIL=
200611091100 METAR MRLM NIL=
200611091200 METAR MRLM 091200Z 22004KT 9999 FEW030 SCT100 BKN250 23/22 A2977 RMK CB DST NW N NE E HZ ARND=
200611091300 METAR MRLM 091300Z 22004KT 9999 FEW030 BKN090 23/22 A2979=
200611091400 METAR MRLM 091400Z 23004KT 9999 FEW030 BKN090 23/22 A2978 RMK CB RN DST NW N NE E TS NNE=
200611091500 METAR MRLM 091500Z 22004KT 9999 DZ FEW028 BKN080 23/22 A2982 RMK CB RN DST NW N NE E=
200611091600 METAR MRLM 091600Z 19005KT 9999 SCT028 BKN080 24/20 A2981 REDZ RMK RN DST ARND=
200611091700 METAR MRLM 091700Z 23004KT 9999 -DZ FEW030 BKN090 26/24 A2979=
200611091800 METAR MRLM NIL=
200611091900 METAR MRLM 091900Z 04006KT 9999 FEW028 BKN100 29/25 A2975=
200611092000 METAR MRLM 092000Z 03004KT 9999 FEW025 BKN090 28/24 A2974=
200611092100 METAR MRLM 092100Z 04004KT 9999 FEW025 SCT100 28/24 A2972 RMK TCU W NW N=
200611092200 METAR MRLM NIL=
200611092300 METAR MRLM 092300Z 00000KT 9999 FEW030 BKN090 27/24 A2974 RMK CB W NW=
200611100000 METAR MRLM 100000Z 00000KT 9999 FEW028 BKN090 26/24 A2975 RMK CB DST WNW=
200611100100 METAR MRLM NIL=
200611100200 METAR MRLM NIL=
200611100300 METAR MRLM NIL=
200611100400 METAR MRLM NIL=
200611100500 METAR MRLM NIL=
200611100700 METAR MRLM NIL=
200611100800 METAR MRLM NIL=
200611100900 METAR MRLM NIL=
200611101000 METAR MRLM NIL=
200611101100 METAR MRLM NIL=
200611101200 METAR MRLM 101200Z 21006KT 9999 FEW028 BKN090 23/22 A2978 RMK TCU DST NW N ESE RN DST E SE=
200611101300 METAR MRLM 101300Z 21004KT 9999 FEW030 BKN090 24/23 A2980=
200611101400 METAR MRLM 101400Z 19004KT 9999 FEW028 SCT090 27/24 A2982 RMKCB NW=
200611101500 METAR MRLM 101500Z 01004KT 9999 FEW025 SCT100 29/24 A2985 TCU W NW=
200611101600 METAR MRLM 101600Z 36006KT 9999 FEW025BKN100 29/24 A2984 RMK TCU NW=
200611101700 METAR MRLM 101700Z 02005KT 9999 FEW025 BKN100 29/24 A2982 RMK CB NW=
200611101800 METAR MRLM 101800Z 03005KT 9999 FEW025 BKN100 30/24 A2979 RMK CB NW W E SE=
200611101900 METAR MRLM 101900Z 04005KT 9999 FEW025 BKN100 30/24 A2977 RMK CB E SE=
200611102000 METAR MRLM NIL=
200611102100 METAR MRLM 102100Z 03006KT 9999 FEW025 SCT100 BKN250 29/24 A2973 CB DST NW=
200611102200 METAR MRLM 102200Z 05004KT 9999 FEW025 SCT100 BKN250 30/24 A2974 CB DST N NW=
200611102300 METAR MRLM 102300Z 04003KT 9999 FEW026 BKN250 29/24 A2974=
200611110000 METAR MRLM 110000Z 18003KT 9999 FEW028 SCT250 26/24 A2975=
200611110100 METAR MRLM NIL=
200611110200 METAR MRLM NIL=
200611110300 METAR MRLM NIL=
200611110400 METAR MRLM NIL=
200611110500 METAR MRLM NIL=
200611110600 METAR MRLM NIL=
200611110700 METAR MRLM NIL=
200611110800 METAR MRLM NIL=
200611110900 METAR MRLM NIL=
200611111000 METAR MRLM NIL=
200611111100 METAR MRLM NIL=
200611111200 METAR MRLM 111200Z NIL=
200611111300 METAR MRLM 111300Z VRB03KT 9999 FEW015 BKN090 24/23 A2982 CB/RN DST N HZ LEVE=
200611111400 METAR MRLM 111400Z 22004KT 9999 FEW014 BKN090 26/23 A2984 CB RN DST N/E HZY=
200611111500 METAR MRLM 111500Z 08004KT 9999 FEW022 BKN090 28/24 A2986 CB RN DST NW N NE E HZY=
200611111600 METAR MRLM 111600Z 04005KT 9999 FEW026 BKN110 29/24 A2986 HZY CB DST N NE ESE=
200611111700 METAR MRLM 111700Z 02007KT 9999 FEW028 BKN110 30/24 A2985 CB RN DST N HZY=
200611111800 METAR MRLM 111800Z 36009KT 9999 SCT020 BKN120 29/25 A2982 CB RN DST NW N HZY=
200611111900 METAR MRLM 111900Z VRB03KT 9999 FEW025 BKN090 29/25 A2980 CB RN DST NW W HZY=
200611112000 METAR MRLM NIL=
200611112100 METAR MRLM 112100Z 06004KT 9999 FEW028 BKN090 29/24 A2978=
200611112200 METAR MRLM 222200Z 08004KT 9999 FEW025 OVC090 29/24 A2979 CB RN DST S SW W HZ=
200611112300 METAR MRLM 112300Z 00000KT 9999 FEW018 BKN090 28/25 A2980 CBS RN HZ ARND=
200611120000 METAR MRLM 120000Z 00000KT CAVOK 27/24 A2979 BKN100 CBS RN E/S QDS=
200611120100 METAR MRLM NIL=
200611120200 METAR MRLM NIL=
200611120300 METAR MRLM NIL=
200611120400 METAR MRLM NIL=
200611120500 METAR MRLM NIL=
200611120700 METAR MRLM NIL=
200611120800 METAR MRLM NIL=
200611120900 METAR MRLM NIL=
200611121000 METAR MRLM NIL=
200611121100 METAR MRLM NIL=
200611121300 METAR MRLM 121300Z 24002KT CAVOK 25/23 A2983 SCT120 BKN150 CB S RN N E=
200611121400 METAR MRLM 121400Z 24005KT 4000 VCSH SCT012 SCT100 26/23 A2987 RMK VIS S/W UNLTD=
200611121500 METAR MRLM 121500Z 28002KT 7000 +DZ SCT020 BKN100 24/23 A2989=
200611121600 METAR MRLM 121600Z 22007KT 9999 FEW005 SCT025 BKN100 25/24 A2987 RMK RN DST W/N/E HZY=
200611121700 METAR MRLM 121700Z 26007KT 9999 FEW020 BKN090 27/23 A2984 RMK RN DST N/E QDA HZY=
200611121800 METAR MRLM 121800Z 28006KT 9999 DZ FEW018 SCT025 BKN100 27/24 A2982 RMK HZ LGT ANRD=
200611121900 METAR MRLM 121900Z 25007KT 9999 FEW010 SCT025 BKN100 25/24 A2979 RMK RERA RN DST S/W HZY=
200611122000 METAR MRLM 122000Z NIL=
200611122100 METAR MRLM 122100Z VRB03KT 9999 FEW028 BKN130 29/24 A2976 RMK CB DST E LEVE HZY=
200611122200 METAR MRLM 122200Z VRB03KT 9999 FEW024 BKN130 28/24 A2977 RMK CB DST E LEVE HZY=
200611122300 METAR MRLM 122300Z VRB03KT CAVOK 26/24 A2977 RMK CB RN DST E LEVE HZY=
200611130000 METAR MRLM 130000Z 21002KT CAVOK 25/24 A2979 RMK CB DST E SW LEVE HZY=
200611130100 METAR MRLM NIL=
200611130200 METAR MRLM NIL=
200611130300 METAR MRLM NIL=
200611130400 METAR MRLM NIL=
200611130500 METAR MRLM NIL=
200611130600 METAR MRLM NIL=
200611130700 METAR MRLM NIL=
200611130800 METAR MRLM NIL=
200611130900 METAR MRLM NIL=
200611131300 METAR MRLM NIL=
200611131400 METAR MRLM 131400Z 20004KT 9999 FEW030 BKN090 24/23 A2985 RMK RN DST NE E SE S=
200611131500 METAR MRLM 131500Z 19004KT 9999 -DZ FEW030 BKN090 25/23 A2986 RMK TCU DST NW RN DST NE E SE S=
200611131600 METAR MRLM 131600Z 18004KT 9999 DZ FEW030 BKN090 25/23 A2986 RMK TCU DST NW N=
200611131700 METAR MRLM 131700Z 21005KT CAVOK 27/24 A2984 REDZ=
200611131800 METAR MRLM 131800Z 20003KT CAVOK 28/23 A2981 RMK DZ DST S SW=
200611131900 METAR MRLM 131900Z 12003KT 9999 FEW030 BKN090 29/23 A2978 RMK TCU DST N NE=
200611132000 METAR MRLM 132000Z NIL=
200611132100 METAR MRLM 132100Z 01005KT 9999 FEW030 BKN090 28/24 A2975 RMK TCU DST W=
200611132200 METAR MRLM NIL=
200611132300 METAR MRLM 132300Z 00000KT 9999 FEW030 BKN240 26/24 A2976 RMK TCU DST NW N=
200611140000 METAR MRLM 140000Z 15003KT CAVOK 25/24 A2972=
200611140100 METAR MRLM NIL=
200611140200 METAR MRLM NIL=
200611140300 METAR MRLM NIL=
200611140400 METAR MRLM NIL=
200611140500 METAR MRLM NIL=
200611140600 METAR MRLM NIL=
200611140700 METAR MRLM NIL=
200611140800 METAR MRLM NIL=
200611140900 METAR MRLM NIL=
200611141000 METAR MRLM NIL=
200611141100 METAR MRLM NIL=
200611141200 METAR MRLM 141200Z 00000KT 9999 FEW030 BKN090 23/22 A2979 RMK CB DST NW NE E RN NE E=
200611141300 METAR MRLM 141300Z 22004KT 9999 FEW028 BKN100 23/22 A2981 RMK TCU NW N RN DST NE E=
200611141400 METAR MRLM 141400Z 20005KT 9999 FEW028 SCT100 BKN240 25/23 A2982 RMK CB DST W NW N=
200611141500 METAR MRLM 141500Z 18004KT CAVOK 27/23 A2983 RMK CB RN N NE=
200611141600 METAR MRLM 141600Z 04004KT 9999 FEW030 BKN250 29/23 A2982 RMK CB DST RN N NE=
200611141700 METAR MRLM NIL=
200611141800 METAR MRLM NIL=
200611141900 METAR MRLM 141900Z 02008KT 9999 FEW028 BKN090 29/24 A2975 RMK CB RN DST NW N NE=
200611142000 METAR MRLM 142000Z NIL=
200611142100 METAR MRLM 142100Z 04006KT 9999 FEW025 BKN080 28/24 A2971 RMK CB RN SW W NW=
200611142200 METAR MRLM 142200Z 09004KT 9999 FEW025 BKN080 28/23 A2970=
200611142300 METAR MRLM 142300Z 14003KT 9999 FEW030 BKN080 27/23 A2971=
200611150000 METAR MRLM 150000Z 00000KT 9999 SCT045 BKN080 26/24 A2972 RMK CB SE SW RN ARND=
200611150100 METAR MRLM NIL=
200611150200 METAR MRLM NIL=
200611150300 METAR MRLM NIL=
200611150400 METAR MRLM NIL=
200611150500 METAR MRLM NIL=
200611150600 METAR MRLM NIL=
200611150700 METAR MRLM NIL=
200611150800 METAR MRLM NIL=
200611150900 METAR MRLM NIL=
200611151000 METAR MRLM NIL=
200611151100 METAR MRLM NIL=
200611151300 METAR MRLM 151300Z 21004KT CAVOK 23/22 A2975 RMK TCU NW RN SE CB S=
200611151400 METAR MRLM 151400Z VRB03KT CAVOK 25/22 A2977 RMK CB NW=
200611151500 METAR MRLM 151500Z VRB03KT CAVOK 27/23 A2979 RMK CB N NE E RN E=
200611151600 METAR MRLM 151600Z 08004KT CAVOK 28/23 A2979 RMK CB RN N E=
200611151700 METAR MRLM 151700Z 09006KT 9999 FEW026 BKN120 29/24 A2976 RMH CB RN N E=
200611151800 METAR MRLM 151800Z 09006KT FEW030 BKN120 29/23 A2975 RMK CB NW NE E=
200611152000 METAR MRLM NIL=
200611152100 METAR MRLM 152100Z 09008KT 9999 FEW025 SCT090 BKN110 29/23 A2969 CB RN DST QUAD N/E HZY=
200611152200 METAR MRLM 152200Z 09007KT 9999 FEW025 BKN100 28/23 A2969 CB RN DST ARND HZY=
200611152300 METAR MRLM 152300Z 12006KT 9999 FEW023 OVC090 28/23 A2971 CB RN DST HZ ARND=
200611160000 METAR MRLM 160000Z 16004KT 9999 FEW015 OVC090 26/23 A2972 CB RN DST HZ ARND=
200611160100 METAR MRLM NIL=
200611160200 METAR MRLM NIL=
200611160300 METAR MRLM NIL=
200611160400 METAR MRLM NIL=
200611160500 METAR MRLM NIL=
200611160600 METAR MRLM NIL=
200611160700 METAR MRLM NIL=
200611160800 METAR MRLM NIL=
200611160900 METAR MRLM NIL=
200611161000 METAR MRLM NIL=
200611161100 METAR MRLM NIL=
200611161200 METAR MRLM NIL=
200611161300 METAR MRLM 161300Z 22004KT CAVOK 24/23 A2976 SCT090 BKN130 CB RN DST N/E HZY=
200611161400 METAR MRLM 161400Z 26004KT 9999 SCT040 BKN130 27/23 A2981 CB RN DST N/E HZY=
200611161500 METAR MRLM 161500Z 31007KT 9999 SCT030 SCT090 28/22 A2982 CB RN DST N/E HZY=
200611161600 METAR MRLM 161600Z 33011KT 9999 SCT028 BKN130 29/23 A2981 CB RN DST N/E=
200611161700 METAR MRLM 161700Z 22012KT 9999 FEW028 BKN130 29/23 A2978 CB RN DST N/E HZY=
200611161800 METAR MRLM 161800Z 34013KT 9999 FEW025 BKN140 29/24 A2975 CB DST N/E RN DST N HZY=
200611161900 METAR MRLM 161900Z 34013KT 9999 FEW025 BKN140 29/24 A2971 CB RN DST NW N NE HZY=
200611162000 METAR MRLM NIL=
200611162100 METAR MRLM NIL=
200611162200 METAR MRLM NIL=
200611162300 METAR MRLM NIL=
200611170000 METAR MRLM NIL=
200611170300 METAR MRLM NIL=
200611171200 METAR MRLM NIL=
200611171300 METAR MRLM NIL=
200611171500 METAR MRLM NIL=
200611171800 METAR MRLM NIL=
200611172100 METAR MRLM 172100Z 32011KT 9999 -DZ SCT025 SCT230 27/24 A2970 RMK CB RN DST SE SW S W=
200611172200 METAR MRLM 172200Z 22005KT 9999 -RA BKN025 25/24 A2971 RMK CB DST SE S SW W=
200611172300 METAR MRLM 172300Z 25005KT 9999 +DZ BKN025 25/24 A2970 RMK TCU RN ARND=
200611180000 METAR MRLM 180000Z 26003KT 8000 DZ BKN025 SCT080 24/24 A2974 RERA RMK CB DST ARND=
200611180300 METAR MRLM NIL=
200611180900 METAR MRLM NIL=
200611181000 METAR MRLM NIL=
200611181100 METAR MRLM NIL=
200611181200 METAR MRLM NIL=
200611181300 METAR MRLM 181300Z 00000KT 9999 FEW025 BKN200 24/23 A2977 RMK CB RN DST NW N NE E=
200611181400 METAR MRLM 181400Z 25003KT 9999 FEW028 BKN230 27/23 A2980 RMK CB RN DST NW N NE E=
200611181500 METAR MRLM 181500Z 26008KT 9999 FEW028 BKN250 29/23 A2981 RMK CB RN DST NW N NE E=
200611181600 METAR MRLM 181600Z 30004KT 9999 FEW025 BKN250 30/23 A2981 RMK CB RN DST NW NE N E=
200611181700 METAR MRLM 181700Z 28013KT 9999 SCT028 BKN250 29/23 A2979 RMK CB RN DST NW N=
200611181800 METAR MRLM 181800Z 30013KT 9999 SCT028 BKN250 29/23 A2976 RMK CB RN DST NE N=
200611181900 METAR MRLM 181900Z 31015KT 9999 SCT028 BKN250 29/24 A2974 RMK CB RN DST WNW/NW=
200611182000 METAR MRLM NIL=
200611182100 METAR MRLM 182100Z 31016KT 9999 SCT025 BKN250 29/24 A2968 RMK CB RN DST SE S SW=
200611182200 METAR MRLM 182200Z 31008KT 9999 FEW025 SCT080 BKN240 28/24 A2969 RMK CB RN E SE S SW W=
200611182300 METAR MRLM 182300Z 29005KT 9999 SCT025 BKN090 27/24 A2972 RMK RN DST W E SE=
200611190000 METAR MRLM 190000Z 29007KT 9999 SCT025 SCT090 27/24 A2973=
200611190100 METAR MRLM NIL=
200611190200 METAR MRLM NIL=
200611190300 METAR MRLM NIL=
200611190400 METAR MRLM NIL=
200611190500 METAR MRLM NIL=
200611190600 METAR MRLM NIL=
200611190700 METAR MRLM NIL=
200611190800 METAR MRLM NIL=
200611190900 METAR MRLM NIL=
200611191000 METAR MRLM NIL=
200611191100 METAR MRLM NIL=
200611191200 METAR MRLM NIL=
200611191300 METAR MRLM 191300Z 22004KT 9999 FEW012 BKN025 24/23 A2976/ RMK CB RN=
200611191400 METAR MRLM 191400Z 28008KT 9999 FEW015 SCT140 BKN270 27/20 A2977 RMK CB RN DST NW N NE E=
200611191500 METAR MRLM 191500Z 28012KT 9999 FEW028 BKN270 29/23 A2978 RMK CB RN DST N NE E=
200611191600 METAR MRLM 191600Z 31012KT 9999 SCT030 BKN270 29/23 A2978 RMK CB RN DST NW N NE E=
200611191700 METAR MRLM 191700Z 32012KT 9999 SCT028 SCT140 BKN270 29/24 A2977=
200611191800 METAR MRLM 191800Z NIL=
200611191900 METAR MRLM 191900Z 32013KT 9999 SCT030 BKN260 29/23 A2974 RMK CB DST ARND RN DST NW N NE E=
200611192000 METAR MRLM NIL=
200611192100 METAR MRLM NIL=
200611192200 METAR MRLM 192200Z 30008KT 9999 SCT018 SCT090 BKN026 27/24 A2972 RMK CB RN ARND=
200611192300 METAR MRLM 192300Z 29005KT 9999 SCT014 SCT090 27/23 A2973 RMK CB RN ARND=
200611200000 METAR MRLM 200000Z VRB03KT 9999 SCT010 SCT090 26/24 A2975 RMK CB RN ARND=
200611200100 METAR MRLM NIL=
200611200200 METAR MRLM NIL=
200611200300 METAR MRLM NIL=
200611200400 METAR MRLM NIL=
200611200500 METAR MRLM NIL=
200611200600 METAR MRLM NIL=
200611200700 METAR MRLM NIL=
200611200800 METAR MRLM NIL=
200611200900 METAR MRLM NIL=
200611201000 METAR MRLM NIL=
200611201100 METAR MRLM NIL=
200611201200 METAR MRLM 201200Z NIL=
200611201300 METAR MRLM 201300Z 201300A 23007KT 9999 OVC015 24/22 A2981 RMK RN W NE TSTM NE=
200611201400 METAR MRLM 201400Z 24008KT 9999 OVC012 24/22 A2984 RMK RN NW RASH N NE E TSTM NE=
200611201500 METAR MRLM 201500Z 27008KT OVC012 25/22 A2985 RMK RN W NE=
200611201600 METAR MRLM NIL=
200611201700 METAR MRLM 201700Z 27013KT 9999 SCT022 SCT100 BKN140 26/22 A2982 RMK CB RN N E=
200611201800 METAR MRLM 201800Z 27010KT 9999 FEW025 SCT090 BKN150 26/21 A2980 RMK CB N E=
200611201900 METAR MRLM 201900Z 26017KT 9999 SCT025 SCT110 BKN150 26/21 A2977 RMK CB ARND RN N NE E=
200611202000 METAR MRLM 202000Z=
200611202100 METAR MRLM 202100Z 27010KT 9999 FEW025 SCT090 BKN250 27/22 A2976 CB RN DST N/E=
200611202200 METAR MRLM 202200Z 26010KT 9999 SCT025 SCT110 BKN250 27/22 A2976 RN QUAD N/E=
200611202300 METAR MRLM 202300Z 34012KT 9999 SCT012 OVC025 25/23 A2978 VIS 8000 N/RN=
200611210000 METAR MRLM 210000Z 29006KT 9999 FEW015 OVC025 26/23 A2980 RN DST ARND CB N/E=
200611210100 METAR MRLM NIL=
200611210200 METAR MRLM NIL=
200611210300 METAR MRLM NIL=
200611210400 METAR MRLM NIL=
200611210500 METAR MRLM NIL=
200611210600 METAR MRLM NIL=
200611210700 METAR MRLM NIL=
200611210800 METAR MRLM NIL=
200611210900 METAR MRLM NIL=
200611211000 METAR MRLM NIL=
200611211100 METAR MRLM NIL=
200611211200 METAR MRLM 211200Z 29015KT 9999 BKN045 20/18 A2984/ RMK RN DIST ARND=
200611211300 METAR MRLM 211300Z 26011KT 9999 SCT045 SCT080 25/18 A2992 RN DST W N ENE=
200611211400 METAR MRLM 211400Z 26015KT 9999 SCT040 BKN080 26/19 A2987 DZ DST ARND=
200611211500 METAR MRLM 211500Z 26014KT 9999 SCT040 SCT080 26/19 A2985 RN DST ARND=
200611211600 METAR MRLM 211600Z 27018KT 9999 BKN040 SCT080 26/19 A2988 DZ DST ARND=
200611211700 METAR MRLM 211700Z 27012KT 9999 BKN040 SCT080 27/20 A2988 DZ DST ARND=
200611211800 METAR MRLM NIL=
200611211900 METAR MRLM 211900Z 26015KT 3000 +DZ SCT015 SCT030 22/20 A2986 RN ARND=
200611212000 METAR MRLM NIL=
200611212100 METAR MRLM 212100Z 27010KT 7000 -DZ SCT014 BKN028 24/21 A2984 RN ARND=
200611212200 METAR MRLM 212200Z 27014KT 2000 RA BKN014 SCT020 22/21 A2984=
200611212300 METAR MRLM 212300Z 26014KT 2000 -RA OVC015 21/21 A2984=
200611220000 METAR MRLM 220000Z 27012KT 3999 DZ BKN014 21/20 A2986=
200611220100 METAR MRLM NIL=
200611220200 METAR MRLM NIL=
200611220300 METAR MRLM NIL=
200611220400 METAR MRLM NIL=
200611220500 METAR MRLM NIL=
200611220600 METAR MRLM NIL=
200611220700 METAR MRLM NIL=
200611220800 METAR MRLM NIL=
200611220900 METAR MRLM NIL=
200611221000 METAR MRLM NIL=
200611221100 METAR MRLM NIL=
200611221200 METAR MRLM 221200Z 30019KT 9999 FEW014 BKN025 22/14 A2988 RMK RN DST=
200611221300 METAR MRLM 221300Z 29018KT 9999 BKN020 SCT080 22/15 A2989 RMK RN DST ARND=
200611221400 METAR MRLM 221400Z 27015KT 9999 SCT020 BKN040 22/16 A2990 RN ARND=
200611221500 METAR MRLM 221500Z 27015KT 9999 SCT020 BKN045 22/15 A2990 RN ARND=
200611221600 METAR MRLM 221600Z 27014KT 9999 SCT022 BKN080 24/15 A2990 RN W N NE=
200611221700 METAR MRLM 221700Z 26014KT 9999 SCT024 BKN080 25/16 A2989 RN NW N NE W=
200611221800 METAR MRLM NIL=
200611221900 METAR MRLM 221900Z 26016KT 9999 FEW015 SCT028 BKN080 25/16 A2988 RN NW NE=
200611222000 METAR MRLM NIL=
200611222100 METAR MRLM 222100Z 26010KT 9999 SCT024 SCT080 24/16 A2986 RMK RN DST ARND=
200611222200 METAR MRLM 222200Z 26008KT 9999 BKN025 SCT080 24/17 A2985 RMK DZ DST ARND=
200611222300 METAR MRLM 222300Z 25006KT 9999 BKN025 SCT080 22/17 A2991 RMK RN DST ARND=
200611230000 METAR MRLM 230000Z 26005KT 9999 BKN025 22/18 A2991 RMK RN DST ARND=
200611230100 METAR MRLM NIL=
200611230200 METAR MRLM NIL=
200611230300 METAR MRLM NIL=
200611230400 METAR MRLM NIL=
200611230500 METAR MRLM NIL=
200611230600 METAR MRLM NIL=
200611230700 METAR MRLM NIL=
200611230800 METAR MRLM NIL=
200611230900 METAR MRLM NIL=
200611231000 METAR MRLM NIL=
200611231100 METAR MRLM NIL=
200611231200 METAR MRLM NIL=
200611231300 METAR MRLM 231300Z 26012KT 9999 OVC025 22/16 A2992 RMK RN HZ DST ARND=
200611231400 METAR MRLM 231400Z 25013KT 9999 SCT025 SCT090 24/17 A2994 RMK RN DST QUAD N E HZY=
200611231500 METAR MRLM 231500Z 28015KT 9999 SCT040 BKN090 24/17 A2994 RMK RN DST QUAD N E LEVE HZY=
200611231600 METAR MRLM 231600Z 29018KT 9999 SCT040 SCT090 25/17 A2992 RMK RN DST QUAD N E LEVE HZY=
200611231700 METAR MRLM NIL=
200611231800 METAR MRLM 231800Z 29015KT 9999 SCT040 BKN110 26/18 A2988 RMK RN DST N NE LEVE HZY=
200611231900 METAR MRLM 231900Z 28015KT 9999 SCT040 BKN120 26/18 A2985 RMK RN DST NE=
200611232000 METAR MRLM 232000Z NIL=
200611232100 METAR MRLM 232100Z 26010KT 9999 BKN035 SCT110 25/19 A2982 RMK RN DST S W=
200611232200 METAR MRLM 232200Z 26010KT 9999 SCT030 BKN100 25/19 A2982 RMK RN DST S W=
200611232300 METAR MRLM 232300Z 24009KT 9999 BKN028 SCT110 24/19 A2983 RMK RN DST S W=
200611240000 METAR MRLM 240000Z 25008KT 9999 BKN025 SCT110 24/19 A2984=
200611240100 METAR MRLM NIL=
200611240200 METAR MRLM NIL=
200611240300 METAR MRLM NIL=
200611240400 METAR MRLM NIL=
200611240500 METAR MRLM NIL=
200611240600 METAR MRLM NIL=
200611240700 METAR MRLM NIL=
200611240800 METAR MRLM NIL=
200611240900 METAR MRLM NIL=
200611241000 METAR MRLM NIL=
200611241100 METAR MRLM NIL=
200611241200 METAR MRLM NIL=
200611241300 METAR MRLM 241300Z 28008KT 9999 FEW025 OVC110 23/18 A2985 RMK RN DST E HZ ARND=
200611241400 METAR MRLM 241400Z 29010KT 9999 SCT035 BKN130 25/19 A2986 RMK HZ ARND=
200611241500 METAR MRLM 241500Z 29015KT CAVOK 27/19 A2987=
200611241600 METAR MRLM 241600Z 29015KT CAVOK 28/19 A2984=
200611241700 METAR MRLM 241700Z 30018KT CAVOK 28/19 A2982=
200611241800 METAR MRLM 241800Z 31020KT CAVOK 28/20 A2979 RMK CB DST E HZ ARND=
200611241900 METAR MRLM 241900Z 30015KT 9999 FEW040 SCT130 29/21 A2976=
200611242000 METAR MRLM 242000Z NIL=
200611242100 METAR MRLM 242100Z 31018KT 9999 FEW035 SCT130 28/21 A2975=
200611242200 METAR MRLM 30012KT 9999 FEW025 OVC110 26/21 A2976=
200611242300 METAR MRLM 242300Z 29007KT 9999 FEW023 OVC090 26/21 A2977=
200611250000 METAR MRLM NIL=
200611250100 METAR MRLM 250100Z 26005KT 9999 BKN022 25/21 A2978=
200611250200 METAR MRLM NIL=
200611250300 METAR MRLM NIL=
200611250400 METAR MRLM NIL=
200611250500 METAR MRLM NIL=
200611250600 METAR MRLM NIL=
200611250700 METAR MRLM NIL=
200611250800 METAR MRLM NIL=
200611250900 METAR MRLM NIL=
200611251000 METAR MRLM NIL=
200611251100 METAR MRLM NIL=
200611251200 METAR MRLM 251200Z 28008KT 9999 SCT025 SCT050 25/20 A2978 RMK RN DST NE ENE=
200611251300 METAR MRLM 251300Z 26008KT 9999 FEW025 BKN080 24/20 A2982 RMK RN E=
200611251400 METAR MRLM 251400Z 25010KT 9999 FEW025 BKN090 26/20 A2984=
200611251500 METAR MRLM 251500Z 28013KT 9999 FEW025 BKN090 27/20 A2984=
200611251600 METAR MRLM 251600Z 27017KT 9999 FEW025 BKN090 28/20 A2983 RMK RN NE E=
200611251700 METAR MRLM 251700Z 28004KT 9999 FEW030 BKN090 28/21 A2982=
200611251800 METAR MRLM 251800Z 28011KT 9999 FEW030 BKN090 28/21 A2980=
200611251900 METAR MRLM 251900Z 30007KT 9999 FEW030 BKN090 29/21 A2977=
200611252000 METAR MRLM 252000Z NIL=
200611252100 METAR MRLM 252100Z 30019KT 9999 FEW025 BKN080 27/21 A2975 RN DST NW N NE=
200611252200 METAR MRLM 252200Z 27009KT 9999 FEW025 BKN080 27/21 A2975=
200611252300 METAR MRLM 252300Z 27007KT 9999 FEW030 BKN080 26/21 A2976 RMK RN DST NE E=
200611260000 METAR MRLM 260000Z 28005KT 9999 FEW030 BKN080 26/21 A2976 RMK RN DST NE E=
200611260100 METAR MRLM NIL=
200611260200 METAR MRLM NIL=
200611260300 METAR MRLM NIL=
200611260400 METAR MRLM NIL=
200611260500 METAR MRLM NIL=
200611260600 METAR MRLM NIL=
200611260700 METAR MRLM NIL=
200611260800 METAR MRLM NIL=
200611260900 METAR MRLM NIL=
200611261000 METAR MRLM NIL=
200611261100 METAR MRLM NIL=
200611261200 METAR MRLM 261200Z 27007KT 9999 DZ SCT020 BKN040 25/22 A2978 RMK CB RN DST NW W=
200611261300 METAR MRLM 261300Z 26004KT 9999 -DZ FEW020 BKN040 24/23 A2980 RERA RMK CB DST WNW NW NE TS NE RN ARND=
200611261400 METAR MRLM 261400Z 27007KT 9999 SCT040 BKN080 25/23 A2981 REDZ RMK RN DST W NW N=
200611261500 METAR MRLM 261500Z 29007KT 9999 SCT025 SCT090 26/23 A2982 RMK RN DST SW W NW N=
200611261600 METAR MRLM 261600Z 28012KT 9999 FEW028 BKN080 26/23 A2983 RMK RN W NW N NE=
200611261700 METAR MRLM 261700Z 28011KT 9999 SCT015 BKN080 27/23 A2981 REDZ RMK CBS DST ARND EN SW W NW N=
200611261800 METAR MRLM 261800Z 27012KT 9999 FEW015 BKN080 26/23 A2979 CBS DST ARND RN SW W NW=
200611261900 METAR MRLM 261900Z 27009KT 9999 FEW020 SCT080 27/23 A2976 RMK CBS DST ARND RN SSW NW=
200611262000 METAR MRLM NIL=
200611262100 METAR MRLM 262100Z 30009KT 9999 FEW028 SCT090 28/23 A2973 CB ARND=
200611262200 METAR MRLM 262200Z 30011KT 9999 FEW025 BKN090 28/23 A2973 CB ARND RN NW N NE=
200611262300 METAR MRLM 262300Z 29013KT 9999 FEW015 SCT080 27/24 A2973 CB RN NW N=
200611270000 METAR MRLM 270000Z 28006KT 9999 SCT024 SCT080 26/24 A2974 CB RN W NW N=
200611270100 METAR MRLM NIL=
200611270200 METAR MRLM NIL=
200611270300 METAR MRLM NIL=
200611270400 METAR MRLM NIL=
200611270500 METAR MRLM NIL=
200611270600 METAR MRLM NIL=
200611270700 METAR MRLM NIL=
200611270800 METAR MRLM NIL=
200611270900 METAR MRLM NIL=
200611271000 METAR MRLM NIL=
200611271100 METAR MRLM NIL=
200611271200 METAR MRLM NIL=
200611271300 METAR MRLM 271300Z 25004KT 9999 DZ SCT025 SCT090 24/23 A2980 RMK RN DST N/E HZ ARND=
200611271400 METAR MRLM 271400Z 23002KT 9999 FEW015 BKN025 26/24 A2981 RN N E=
200611271500 METAR MRLM 271500Z 34006KT 9999 DZ FEW005 SCT020 BKN100 26/23 A2984=
200611271600 METAR MRLM 271600Z 34004KT 9999 DZ FEW008 SCT025 BKN090 26/24 A2983 RN ARND=
200611271700 METAR MRLM 271700Z 24007KT 9999 FEW025 BKN120 29/24 A2980 CB RN N=
200611271800 METAR MRLM NIL=
200611271900 METAR MRLM NIL=
200611272000 METAR MRLM 272000Z 34014KT 9999 FEW025 BKN110 29/24 A2975 DZ N RN S=
200611272100 METAR MRLM NIL=
200611272200 METAR MRLM 272200Z 36006KT 9999 FEW020 BKN130 28/24 A2972 RMK CB HZ DST ARND RN DST S SW=
200611272300 METAR MRLM 272300Z 33006KT 9999 FEW018 SCT030 28/24 A2973 RMK CB HZ DST ARND RN DST QUAD N E S=
200611280000 METAR MRLM 280000Z VRB03KT 9999 FEW025 BKN090 26/24 A2974 RMK CB RN HZ ARND=
200611280100 METAR MRLM NIL=
200611280200 METAR MRLM NIL=
200611280300 METAR MRLM NIL=
200611280400 METAR MRLM NIL=
200611280500 METAR MRLM NIL=
200611280700 METAR MRLM NIL=
200611280800 METAR MRLM NIL=
200611280900 METAR MRLM NIL=
200611281000 METAR MRLM NIL=
200611281100 METAR MRLM NIL=
200611281200 METAR MRLM NIL=
200611281300 METAR MRLM 281300Z 29005KT 9999 DZ BKN025 SCT090 24/23 A2977 RMK HZY=
200611281400 METAR MRLM 281400Z VRB03KT 4000 RA BKN020 SCT090 24/24 A2981=
200611281500 METAR MRLM 281500Z 24005KT 9999 RA SCT005 SCT025 25/24 A2980 RMK 8000 QUAD W RA DUE ST=
200611281600 METAR MRLM 281600Z 25004KT 9999 DZ BKN025 SCT100 25/24 A2980 RMK RN HZ ARND=
200611281700 METAR MRLM 281700Z 21004KT 9999 +DZ SCT007 SCT025 BKN100 26/24 A2978=
200611281800 METAR MRLM NIL=
200611281900 METAR MRLM 281900Z 31002KT 9999 SCT010 BKN025 26/24 A2972 RERA RMK DZ DST W N LEVE HZY=
200611282000 METAR MRLM NIL=
200611282100 METAR MRLM 282100Z 32008KT 9999 BKN010 SCT025 26/24 A2970 RMK RM DST HZ ARND=
200611282200 METAR MRLM 282200Z 31008KT 9999 DZ BKN010 SCT025 26/24 A2971 RMK RN HZ ARND=
200611282300 METAR MRLM 282300Z 03009KT 3000 RA BKN008 24/23 A2973=
200611290000 METAR MRLM 290000Z 08006KT 9999 DZ SCT008 BKN025 25/23 A2994=
200611290100 METAR MRLM NIL=
200611290200 METAR MRLM NIL=
200611290300 METAR MRLM NIL=
200611290400 METAR MRLM NIL=
200611290500 METAR MRLM NIL=
200611290600 METAR MRLM NIL=
200611290700 METAR MRLM NIL=
200611290800 METAR MRLM NIL=
200611290900 METAR MRLM NIL=
200611291000 METAR MRLM NIL=
200611291100 METAR MRLM NIL=
200611291200 METAR MRLM 291200Z 22003KT 9999 BKN030 23/22 A2975 RN DST ARND=
200611291300 METAR MRLM 291300Z 22004KT 9999 BKN030 23/22 A2978 RMK RN DST ARND=
200611291400 METAR MRLM 291400Z 22004KT 9999 BKN030 23/22 A2978 RMK CB DST NW N NE E RN ARND=
200611291500 METAR MRLM 291500Z 21012KT 3000 -RA FEW015CB BKN024 26/23 A2982 RMK CB NW N NE E=
200611291600 METAR MRLM 291600Z 27008KT 9999 BKN028 SCT090 24/23 A2981 RERA RMK CB DST NW N NE E RN ARND=
200611291700 METAR MRLM NIL=
200611291800 METAR MRLM NIL=
200611291900 METAR MRLM 291900Z 23005KT 9999 -DZ SCT025 BKN050 25/24 A2975=
200611292000 METAR MRLM NIL=
200611292100 METAR MRLM 292100Z 30004KT 9999 3000NW DZ BKN024 SCT080 25/24 A2970=
200611292200 METAR MRLM 292200Z 26004KT 9999 SCT030 BKN090 25/23 A2970 REDZ RMK RN ARND=
200611292300 METAR MRLM 292300Z 27003KT 9999 SCT030 BKN080 25/23 A2972 RMK RN NW N NE E=
200611300000 METAR MRLM 300000Z 29003KT 9999 BKN028 SCT080 24/23 A2973 RMK TCU NW N NE E=
200611300100 METAR MRLM NIL=
200611300200 METAR MRLM NIL=
200611300300 METAR MRLM NIL=
200611300400 METAR MRLM NIL=
200611300500 METAR MRLM NIL=
200611300800 METAR MRLM NIL=
200611300900 METAR MRLM NIL=
200611301000 METAR MRLM NIL=
200611301100 METAR MRLM NIL=
200611301300 METAR MRLM 301300Z 25003KT 9999 FEW022 SCT090 24/23 A2977 RMK CB RN NW N NE E=
200611301400 METAR MRLM 301400Z 00000KT 9999 SCT040 BKN080 26/24 A2980=
200611301500 METAR MRLM 301500Z 24003KT 9999 FEW028 BKN090 27/24 A2981 RMK CB RN NW NE E SE=
200611301600 METAR MRLM NIL=
200611301700 METAR MRLM 301700Z 03003KT 9999 FEW028 BKN090 28/24 A2978 RMK RN E=
200611301800 METAR MRLM 301800Z 35008KT 9999 FEW025 BKN080 28/24 A2974 RMK CB NW RN E SE=
200611301900 METAR MRLM 301900Z 34007KT 9999 FEW025 BKN230 28/24 A2971 RMK CB W NW TCU SE=
200611302000 METAR MRLM NIL=
200611302100 METAR MRLM 302100Z 33009KT 9999 FEW025 BKN250 28/24 A2968 RMK CB DST SE S TCU N=
200611302200 METAR MRLM 302200Z 34007KT 9999 FEW025 SCT100 BKN250 28/24 A2968 RMK CB SE S SW W RN W=
200611302300 METAR MRLM 302300Z 32006KT 9999 SCT028 BKN090 28/25 A2971 RMK DST W WNW=
200612010000 METAR MRLM NIL=
200612010100 METAR MRLM NIL=
200612010200 METAR MRLM NIL=
200612010300 METAR MRLM NIL=
200612010400 METAR MRLM NIL=
200612010500 METAR MRLM NIL=
200612010700 METAR MRLM NIL=
200612010800 METAR MRLM NIL=
200612010900 METAR MRLM NIL=
200612011000 METAR MRLM NIL=
200612011100 METAR MRLM NIL=
200612011200 METAR MRLM NIL=
200612011300 METAR MRLM 011300Z 27004KT 9999 FEW025 BKN080 25/24 A2980 RMK CBS RN N HZY=
200612011400 METAR MRLM 011400Z 30011KT 9999 BKN012 26/24 A2982 RMK RN N/E QDS=
200612011500 METAR MRLM 011500Z 30008KT 9999 SCT015 SCT120 27/24 A2982 RMK CBS RN DST NW N NE E HZY=
200612011600 METAR MRLM 011600Z 32013KT 9999 SCT028 BKN100 28/24 A2983 RMK CB RN DST N NE E HZY=
200612011700 METAR MRLM 011700Z 31010KT 9999 SCT025 BKN110 29/24 A2981 RMK CBS RN DST N/E QDS HZY=
200612011800 METAR MRLM 011800Z 32012KT 9999 OVC025 29/24 A2978 RMK RN DST N/E QDS HZY=
200612011900 METAR MRLM 011900Z 32014KT 9999 FEW010 OVC025 29/24 A2975 RMK RN HZ ARND RASH N QD=
200612012000 METAR MRLM 012000Z NIL=
200612012100 METAR MRLM 012100Z 33012KT 9999 FEW010 BKN020 28/24 A2971 RN ARND=
200612012200 METAR MRLM 012200Z 30010KT 9999 FEW015 SCT110 BKN270 27/15 A2971 CB ARND RN N E=
200612012300 METAR MRLM 012300Z 30007KT 9999 FEW010 BKN025 27/25 A2974 RN ARND=
200612020000 METAR MRLM 020000Z 29006KT 9999 SCT010 SCT025 26/25 A2973=
200612020100 METAR MRLM NIL=
200612020200 METAR MRLM NIL=
200612020300 METAR MRLM NIL=
200612020400 METAR MRLM NIL=
200612020500 METAR MRLM NIL=
200612020600 METAR MRLM NIL=
200612020700 METAR MRLM NIL=
200612020800 METAR MRLM NIL=
200612020900 METAR MRLM NIL=
200612021000 METAR MRLM NIL=
200612021100 METAR MRLM NIL=
200612021200 METAR MRLM NIL=
200612021300 METAR MRLM 021300Z 22005KT 9999 BKN012 SCT100 24/23 A2978 RMK RM/HZ ARND=
200612021400 METAR MRLM 021400Z 25004KT 8000 +DZ BKN012 SCT100 24/23 A2981=
200612021500 METAR MRLM 021500Z 35004KT 4000 RA FEW003 OVC015 25/24 A2983 VSBY SW UNL=
200612021600 METAR MRLM 021600Z 21004KT 4000 RA FEW003 BKN020 25/24 A2983 VSBY NW 8KM=
200612021700 METAR MRLM 021700Z 18004KT 8000 RA FEW003 BKN025 24/24 A2982=
200612021800 METAR MRLM 021800Z 24006KT 8000 RA FEW003 BKN025 25/24 A2980=
200612021900 METAR MRLM 021900Z 14004KT 5000 DZ BKN015 26/24 A2977 VSBY S UNL=
200612022000 METAR MRLM 022000Z 24006KT 6000 RA SCT004 BKN025 24/24 A2974 VSBY SE UNL=
200612022100 METAR MRLM 022100Z 22007KT 9999 DZ SCT005 SCT025 BKN120 24/23 A2973 RMK CB RN DST ARND=
200612022200 METAR MRLM 022200Z 30005KT 9999 DZ SCT004 OVC025 25/24 A2973 RMK RN HZ DST ARND=
200612022300 METAR MRLM 022300Z 21004KT 9999 FEW004 OVC025 24/23 A2975 RERE RMK RN HZ DST ARND=
200612030000 METAR MRLM 030000Z 26004KT 9999 BKN025 24/23 A2977 RNK CB RN HZ ARND=
200612030100 METAR MRLM NIL=
200612030200 METAR MRLM NIL=
200612030300 METAR MRLM NIL=
200612030400 METAR MRLM NIL=
200612030500 METAR MRLM NIL=
200612030600 METAR MRLM NIL=
200612030700 METAR MRLM NIL=
200612030800 METAR MRLM NIL=
200612030900 METAR MRLM NIL=
200612031000 METAR MRLM NIL=
200612031100 METAR MRLM NIL=
200612031200 METAR MRLM NIL=
200612031300 METAR MRLM 031300Z 22003KT 9999 FEW025 SCT080 23/21 A2981 RMK CB RN DST NW N NE E=
200612031400 METAR MRLM 031400Z 20003KT 9999 FEW025 BKN090 27/22 A2984 RMK HZY=
200612031500 METAR MRLM 031500Z 01004KT CAVOK 27/22 A2985 RMK HZY=
200612031600 METAR MRLM 031600Z 04005KT CAVOK 28/23 A2985 RMK HZY=
200612031700 METAR MRLM 031700Z 04005KT 9999 FEW030 BKN250 29/24 A2983 RMK HZY=
200612031800 METAR MRLM 031800Z 05006KT 9999 FEW030 BKN250 29/23 A2980 RMK HZY=
200612031900 METAR MRLM 031900Z 06006KT 9999 FEW030 BKN250 29/23 A2977 RMK CB DST WNW TCU DST NE HZY=
200612032000 METAR MRLM 032000Z NIL=
200612032100 METAR MRLM 032100Z 03006KT 9999 FEW028 BKN250 29/24 A2973 RMK TCU DST E NE ENE HZ ARND=
200612032200 METAR MRLM 032200Z 02005KT 9999 FEW028 SCT250 29/25 A2973 RMK TCU DST N NE HZ ARND=
200612032300 METAR MRLM 032300Z 01006KT 9999 FEW030 SCT090 28/25 A2974 RMK TCU DST NW ENE HZ ARND=
200612040000 METAR MRLM 040000Z 00000KT 9999 FEW030 BKN090 26/24 A2975=
200612040100 METAR MRLM NIL=
200612040200 METAR MRLM NIL=
200612040300 METAR MRLM NIL=
200612040400 METAR MRLM NIL=
200612040500 METAR MRLM NIL=
200612040600 METAR MRLM NIL=
200612040700 METAR MRLM NIL=
200612040800 METAR MRLM NIL=
200612040900 METAR MRLM NIL=
200612041000 METAR MRLM NIL=
200612041100 METAR MRLM NIL=
200612041200 METAR MRLM 041200Z 21006KT 9999 FEW024 BKN080 23/22 A2981 RERA CB N RN ARND=
200612041300 METAR MRLM 041300Z 21005KT 9999 FEW024 SCT280 24/23 A2982 RMK CB RN DST NW N NE HZ ARND=
200612041400 METAR MRLM 041400Z 20007KT 9999 SCT024 SCT080 27/23 A2984 RMK CB RN DST W NW N NE HZ ARND=
200612041500 METAR MRLM 041500Z 16004KT 9999 FEW015CB SCT024 BKN080 29/24 A2986 RMK CB NW N NE RN ARND=
200612041600 METAR MRLM 041600Z 06020KT 1000 RA SCT015CB BKN020 23/22 A2989=
200612041700 METAR MRLM 041700Z 20007KT 3000 RA BKN015 23/22 A2988=
200612041800 METAR MRLM 041800Z 21009KT 9999 DZ SCT020 BKN030 23/22 A2985 RERA RMK RN ARND=
200612041900 METAR MRLM 041900Z 20005KT 9999 SCT025 BKN080 25/17 A2992 REDZ RMK RN DST ARND=
200612042000 METAR MRLM NIL=
200612042100 METAR MRLM NIL=
200612042200 METAR MRLM 042200Z 19006KT 9999 FEW020 BKN080 26/24 A2977 RMK TCU N HZ ARND=
200612042300 METAR MRLM 042300Z 19003KT 9999 SCT015TCU BKN050 26/23 A2976 TCU RASH NW N=
200612050000 METAR MRLM 050000Z 06010KT 4000 -RA SCT015 SCT050 24/22 A2981=
200612050100 METAR MRLM NIL=
200612050200 METAR MRLM NIL=
200612050300 METAR MRLM NIL=
200612050400 METAR MRLM NIL=
200612050500 METAR MRLM NIL=
200612050600 METAR MRLM NIL=
200612050700 METAR MRLM NIL=
200612050800 METAR MRLM NIL=
200612050900 METAR MRLM NIL=
200612051000 METAR MRLM NIL=
200612051100 METAR MRLM NIL=
200612051200 METAR MRLM NIL=
200612051300 METAR MRLM 051300Z 22004KT 9999 BKN025 SCT090 22/21 A2986 RN N E=
200612051400 METAR MRLM 051400Z VRB03KT 4000 RA BKN025 23/21 A2992=
200612051500 METAR MRLM 051500Z 20006KT 9999 DZ SCT025 SCT090 BKN140 23/22 A2991=
200612051600 METAR MRLM 051600Z 22009KT 9999 FEW013 BKN025 25/22 A2991 RMK RN HZ ARND=
200612051700 METAR MRLM 051700Z 19004KT 9999 FEW010 SCT025 BKN100 24/23 A2989 RMK RN S W=
200612051800 METAR MRLM 051800Z 21009KT 9999 FEW020 BKN120 26/22 A2986 RMK RN S SW W=
200612051900 METAR MRLM 051900Z 19008KT CAVOK 27/22 A2983=
200612052000 METAR MRLM NIL=
200612052100 METAR MRLM 052100Z VRB03KT 9999 DZ BKN028 SCT100 28/22 A2980 RMK RN/HZ DST ARND=
200612052200 METAR MRLM 052200Z 29008KT 8000 RA BKN013 25/23 A2980=
200612052300 METAR MRLM 052300Z 25007KT 4000 RA BKN015 SCT090 24/22 A2983=
200612060000 METAR MRLM 060000Z 23008KT 9999 DZ FEW005 SCT025 BKN100 23/22 A2983=
200612060100 METAR MRLM NIL=
200612060200 METAR MRLM NIL=
200612060300 METAR MRLM NIL=
200612060400 METAR MRLM NIL=
200612060500 METAR MRLM NIL=
200612060600 METAR MRLM NIL=
200612060700 METAR MRLM NIL=
200612060800 METAR MRLM NIL=
200612060900 METAR MRLM NIL=
200612061000 METAR MRLM NIL=
200612061100 METAR MRLM NIL=
200612061200 METAR MRLM NIL=
200612061300 METAR MRLM 061300Z 20007KT 9999 +DZ BKN020 SCT090 22/22 A2984 RMK VIS 8KMS SW W=
200612061400 METAR MRLM 061400Z 21005KT 9999 BKN025 24/23 A2987 RMK RN HZ ARND=
200612061500 METAR MRLM 061500Z VRB03KT 9999 DZ SCT025 BKN100 24/23 A2987 RMK RN/HZ ARND=
200612061600 METAR MRLM 061600Z 16006KT 9999 DZ FEW007 BKN025 25/24 A2986 RMK RN/HZ ARND=
200612061700 METAR MRLM 061700Z 25004KT 9999 FEW010 BKN030 26/23 A2984 RMK RN DST N QUAD HZY=
200612061800 METAR MRLM 061800Z 28007KT 9999 FEW012 SCT090 BKN110 26/24 A2982 RMK RN DST W NW N NE HZY=
200612061900 METAR MRLM 061900Z 28007KT 9999 FEW018 BKN025 27/24 A2980 RMK RN DST NW N NE=
200612062000 METAR MRLM 062000Z NIL=
200612062100 METAR MRLM 062100Z 29007KT CAVOK 28/24 A2976 SCT149 RN NE=
200612062200 METAR MRLM 062200Z 28006KT 9999 FEW022 SCT100 28/23 A2976 RN N=
200612062300 METAR MRLM 062300Z 30006KT 9999 FEW015 BKN090 26/23 A2978 DZ NW N=
200612070000 METAR MRLM 070000Z VRB03KT CAVOK 25/23 A2979 BKN100=
200612070100 METAR MRLM NIL=
200612070200 METAR MRLM NIL=
200612070300 METAR MRLM NIL=
200612070400 METAR MRLM NIL=
200612070500 METAR MRLM NIL=
200612070600 METAR MRLM NIL=
200612070700 METAR MRLM NIL=
200612070800 METAR MRLM NIL=
200612070900 METAR MRLM NIL=
200612071000 METAR MRLM NIL=
200612071100 METAR MRLM NIL=
200612071300 METAR MRLM 071300Z 11010KT 9999 FEW035 BKN100 24/22 A2982 REDZ DZ W NW N=
200612071400 METAR MRLM 071400Z 28006KT CAVOK 26/22 A2984 BKN100 RN W=
200612071500 METAR MRLM 071500Z 26006KT CAVOK 28/23 A2986 BKN100=
200612071600 METAR MRLM 071600Z 26007KT 9999 FEW030 SCT100 28/23 A2985=
200612071700 METAR MRLM 071700Z 30006KT 9999 FEW030 SCT300 30/22 A2983 TCU NE=
200612071800 METAR MRLM 071800Z 35009KT 9999 FEW030 SCT120 30/24 A2982=
200612071900 METAR MRLM 071900Z 35009KT 9999 FEW030 SCT120 30/24 A2982=
200612072000 METAR MRLM 072000Z NIL=
200612072100 METAR MRLM 072100Z 34006KT 9999 FEW026 SCT100 29/23 A2977 RMK TCU RN DST N NE=
200612072200 METAR MRLM 072200Z 34005KT 9999 FEW026 BKN100 28/24 A2979 RMK TCU RN DST N NE=
200612072300 METAR MRLM 072300Z 02005KT 9999 SCT026 SCT090 27/24 A2980=
200612080000 METAR MRLM 080000Z 00000KT 9999 FEW026 BKN090 26/23 A2979=
200612080100 METAR MRLM NIL=
200612080200 METAR MRLM NIL=
200612080300 METAR MRLM NIL=
200612080400 METAR MRLM NIL=
200612080500 METAR MRLM NIL=
200612080600 METAR MRLM NIL=
200612080700 METAR MRLM NIL=
200612080800 METAR MRLM NIL=
200612080900 METAR MRLM NIL=
200612081000 METAR MRLM NIL=
200612081100 METAR MRLM NIL=
200612081200 METAR MRLM NIL=
200612081300 METAR MRLM 081300Z 27003KT CAVOK 24/22 A2988=
200612081400 METAR MRLM 081400Z 26006KT CAVOK 27/22 A2986=
200612081500 METAR MRLM 081500Z 28011KT CAVOK 28/22 A2987=
200612081600 METAR MRLM 081600Z 30012KT 9999 FEW030 BKN090 29/24 A2988=
200612081700 METAR MRLM 081700Z 31012KT 9999 FEW030 BKN090 29/24 A2985=
200612081800 METAR MRLM 081800Z 28011KT 9999 FEW030 BKN090 30/24 A2982 RMK TCU DST ENE=
200612081900 METAR MRLM 081900Z 29013KT 9999 FEW030 BKN100 30/23 A2980TCU NW N=
200612082000 METAR MRLM NIL=
200612082100 METAR MRLM 082100Z 31012KT 9999 FEW030 SCT100 BKN250 30/24 A2977 RMK TCU SW HZ W N=
200612082200 METAR MRLM 082200Z 30012KT 9999 FEW030 BKN250 29/23 A2977 RMK CB DST NNW SE=
200612082300 METAR MRLM 082300Z 30010KT 9999 FEW025 BKN250 27/24 A2978 RMK CB DST SE S=
200612090000 METAR MRLM 090000Z 29009KT 9999 FEW020 BKN240 26/23 A2981=
200612090100 METAR MRLM NIL=
200612090200 METAR MRLM NIL=
200612090300 METAR MRLM NIL=
200612090400 METAR MRLM NIL=
200612090500 METAR MRLM NIL=
200612090600 METAR MRLM NIL=
200612090700 METAR MRLM NIL=
200612090800 METAR MRLM NIL=
200612090900 METAR MRLM NIL=
200612091000 METAR MRLM NIL=
200612091100 METAR MRLM NIL=
200612091200 METAR MRLM NIL=
200612091300 METAR MRLM 091300Z 20002KT CAVOK 24/22 A2985/RMK BKN080=
200612091400 METAR MRLM 091400Z VRB03KT 9999 SCT025 BKN090 27/22 A2988 RMK RN NW N NE E HZ ARND=
200612091500 METAR MRLM 091500Z 27007KT 9999 FEW022 BKN080 27/23 A2988 RMK TCU RN DST N NE E=
200612091600 METAR MRLM 091600Z 26005KT 9999 FEW028 BKN090 29/24 A2988 RMK RN DST N NE E=
200612091700 METAR MRLM 091700Z 03006KT 9999 FEW028 BKN090 29/24 A2986 RMK RN DST N=
200612091800 METAR MRLM 091800Z 35010KT 9999 BKN015 SCT090 27/24 A2983 RMK DZ N NE E=
200612091900 METAR MRLM 091900Z 01004KT 9999 FEW018 SCT035 BKN090 27/24 A2980 RMK RN NE N E=
200612092000 METAR MRLM 092000Z NIL=
200612092100 METAR MRLM 092100Z 04002KT 9999 FEW020 BKN120 28/25 A2977 RMK TCU RN N=
200612092200 METAR MRLM 092200Z VRB03KT 9999 FEW018 SCT140 BKN270 27/24 A2976 RMK TCU RN N NE CB S W=
200612092300 METAR MRLM 092300Z 03002KT 9999 FEW015 SCT140 BKN280 27/24 A2978 RMK CB SW NW N NE RN N=
200612100000 METAR MRLM 100000Z VRB03KT 9999 FFEW015 SCT140 27/24 A2980 RMK CB DST W NW N S=
200612100100 METAR MRLM NIL=
200612100200 METAR MRLM NIL=
200612100300 METAR MRLM NIL=
200612100400 METAR MRLM NIL=
200612100500 METAR MRLM NIL=
200612100600 METAR MRLM NIL=
200612100700 METAR MRLM NIL=
200612100800 METAR MRLM NIL=
200612100900 METAR MRLM NIL=
200612101000 METAR MRLM NIL=
200612101100 METAR MRLM NIL=
200612101200 METAR MRLM NIL=
200612101300 METAR MRLM 101300Z 29004KT 9999 SCT030 BKN120 25/24 A2984 RMK RN DST N E=
200612101400 METAR MRLM 101400Z 25006KT 9999 DZ BKN025 SCT100 26/24 A2987=
200612101500 METAR MRLM 101500Z 28008KT 9999 SCT025 BKN110 28/23 A2983=
200612101600 METAR MRLM 101600Z 32008KT 9999 FEW020 SCT035 BKN100 28/24 A2988 RMK RN NW N NE E=
200612101700 METAR MRLM 101700Z 29008KT 9999 FEW015 BKN110 27/24 A2985 RMK CB RN W NW N NE E=
200612101800 METAR MRLM 101800Z 30009KT 9999 SCT018 BKN110 28/24 A2981 RMK CB RN W NW N NE=
200612101900 METAR MRLM 101900Z 34013KT 9999 SCT018 SCT270 28/24 A2979 RMK CB RN W NW N NE=
200612102000 METAR MRLM NIL=
200612102100 METAR MRLM 102100Z 32013KT 9999 OVC015 27/24 A2976 RMK RN DST S/W/N HZY=
200612102200 METAR MRLM 102200Z 30006KT 9999 BKN018 27/24 A2977 CB DST S=
200612102300 METAR MRLM 102300Z 30008KT 9999 OVC012 26/24 A2978 RMK RN DST S/W=
200612110000 METAR MRLM 110000Z 25004KT 9999 DZ OVC010 26/24 A2980=
200612110100 METAR MRLM NIL=
200612110200 METAR MRLM NIL=
200612110300 METAR MRLM NIL=
200612110400 METAR MRLM NIL=
200612110500 METAR MRLM NIL=
200612110600 METAR MRLM NIL=
200612110700 METAR MRLM NIL=
200612110800 METAR MRLM NIL=
200612110900 METAR MRLM NIL=
200612111000 METAR MRLM NIL=
200612111100 METAR MRLM NIL=
200612111200 METAR MRLM 111200Z 25003KT 9999 -DZ SCT026 SCT280 24/23 A2983=
200612111300 METAR MRLM 111300Z 27004KT 9999 -DZ BKN025 24/23 A2986 RMK RN ARND=
200612111400 METAR MRLM 111400Z 25006KT 9999 +DZ OVC020 24/23 A2988 RMK RN ARND=
200612111500 METAR MRLM 111500Z 26005KT 9999 SCT026 SCT080 24/29 A2989 RMK RERA RN ARND=
200612111600 METAR MRLM 111600Z 27008KT 9999 -DZ BKN022 SCT080 25/24 A2990 RMK RN ARND=
200612111700 METAR MRLM 111700Z 27004KT 9999 DZ SCT008 BKN026 25/24 A2988 RMK RN DST ARND=
200612111800 METAR MRLM 111800Z 25004KT 3000 -RA SCT015 BKN026 25/24 A2986=
200612111900 METAR MRLM 111900Z 29009KT 9999 BKN024 29/24 A2984 RERA=
200612112000 METAR MRLM 112000Z NIL=
200612112100 METAR MRLM 112100Z 26004KT 9999 BKN025 SCT090 26/24 A2879 REDZ RN ARND=
200612112200 METAR MRLM 112200Z 24003KT 9999 SCT026 BKN090 26/24 A2980 RN ARND=
200612112300 METAR MRLM 112300Z 29003KT 9999 BKN026 SCT080 26/24 A2981 RN ARND=
200612120000 METAR MRLM 120000Z 21004KT 9999 BKN006 SCT080 25/24 A2982 RN DST ARND=
200612120100 METAR MRLM NIL=
200612120200 METAR MRLM NIL=
200612120300 METAR MRLM NIL=
200612120400 METAR MRLM NIL=
200612120500 METAR MRLM NIL=
200612120600 METAR MRLM NIL=
200612120700 METAR MRLM NIL=
200612120800 METAR MRLM NIL=
200612120900 METAR MRLM NIL=
200612121000 METAR MRLM NIL=
200612121100 METAR MRLM NIL=
200612121200 METAR MRLM NIL=
200612121300 METAR MRLM 121300Z 32011KT 2000 RA FEW012 BKN020 24/23 A2988=
200612121400 METAR MRLM 121400Z 20003KT 9999 DZ FEW012 BKN040 24/23 A2991 RN ARND=
200612121500 METAR MRLM 121500Z 26003KT 3000 -RA BKN015 SCT080 24/24 A2992=
200612121600 METAR MRLM 121600Z 24003KT 4000 -RA BKN018 SCT080 24/23 A2991=
200612121700 METAR MRLM 121700Z 20005KT 9999 FEW018 SCT090 28/25 A2989 RERA TCU N NE RN SW=
200612121800 METAR MRLM 121800Z 19005KT 9999 FEW025 SCT250 29/23 A2985 TCU NW N NE=
200612121900 METAR MRLM 121900Z 02008KT 9999 SCT025 SCT250 28/23 A2982=
200612122000 METAR MRLM 122000Z NIL=
200612122100 METAR MRLM 122100Z 36006KT 9998 FEW025 BKN090 28/23 A2979 RMK TCU DST NE HZY=
200612122200 METAR MRLM 122200Z 24008KT 9999 SCT090 BKN250 28/24 A2978 RMK TCU DST ENE RN DST N HZY=
200612122300 METAR MRLM 122300Z 35005KT 9999 FEW025 SCT080 27/24 A2979 RMK HZY=
200612130000 METAR MRLM 130000Z 22003KT 9999 FEW025 BKN080 26/24 A2981 RMK HZY=
200612130100 METAR MRLM NIL=
200612130200 METAR MRLM NIL=
200612130300 METAR MRLM NIL=
200612130400 METAR MRLM NIL=
200612130500 METAR MRLM NIL=
200612130600 METAR MRLM NIL=
200612130700 METAR MRLM NIL=
200612130800 METAR MRLM NIL=
200612130900 METAR MRLM NIL=
200612131000 METAR MRLM NIL=
200612131100 METAR MRLM NIL=
200612131200 METAR MRLM NIL=
200612131300 METAR MRLM 131300Z 22004KT CAVOK 25/23 A2984 RMK CB DST N LEVE HZY=
200612131400 METAR MRLM NIL=
200612131500 METAR MRLM 131500Z 27012KT 9999 FEW020 BKN120 28/23 A2988 RMK RN DST N LEVE HZY=
200612131600 METAR MRLM 131600Z 29007KT 9999 FEW022 BKN100 28/23 A2988 RMK HZY=
200612131700 METAR MRLM 131700Z 29010KT 9999 BKN018 SCT090 29/24 A2987 RMK HZY=
200612131800 METAR MRLM 131800Z 34012KT 9999 FEW025 BKN120 29/24 A2982 RMK PRECAUCION COLUMNAS DE HUMO A 7MILLAS HASTA 1200 PIES POR INCENDIO CON AEROQUIMICOS AL NW=
200612131900 METAR MRLM 131900Z 32013KT 9999 FEW025 BKN120 28/24 A2980 RMK PRECAUCION COLUMNAS DE HUMO A 7 MILLAS HASTA 1200 PIES DE ALTURA POR INCENDIO CON QUIMICOS EN SECTOR NW=
200612132000 METAR MRLM 132000Z 34011KT 9999 FEW020 BKN110 28/24 A2977 RMK PRECAUCION COLUMNAS DE HUMO A 2000 PIEZ DE ALTURA POR INCENDIO CON QUIMICOS EN SECTOR NW=
200612132100 METAR MRLM 132100Z 32009KT 9999 FEW025 SCT090 27/24 A2975 RMK FU 015 ARND=
200612132200 METAR MRLM 132200Z 32010KT 9999 FEW018 BKN140 27/24 A2974 FU S SW W=
200612132300 METAR MRLM 132300Z 31006KT 9999 FEW015 SCT130 BKN270 27/24 A2975 RMK FU S SW W=
200612140000 METAR MRLM 140000Z VRB03KT 9999 FEW010 SCT120 BKN270 25/24 A2976 RMK FU S W=
200612140100 METAR MRLM NIL=
200612140200 METAR MRLM NIL=
200612140300 METAR MRLM NIL=
200612140400 METAR MRLM NIL=
200612140500 METAR MRLM NIL=
200612140600 METAR MRLM NIL=
200612140700 METAR MRLM NIL=
200612140800 METAR MRLM NIL=
200612140900 METAR MRLM NIL=
200612141000 METAR MRLM NIL=
200612141100 METAR MRLM NIL=
200612141200 METAR MRLM 141200Z NIL=
200612141300 METAR MRLM 141300Z 24002KT CAVOK 25/24 A29/81 RKN140 CB RN DIST NW E=
200612141400 METAR MRLM 141400Z 09002KT CAVOK 28/24 A2985 RMK CB DST NW RN DST N=
200612141500 METAR MRLM 141500Z 07004KT 9999 FEW022 SCT130 28/24 A2986 RMK CB DST NW E=
200612141600 METAR MRLM 141600Z 02006KT 9999 SCT028 SCT140 29/24 A2985 RMK CB DST NW E=
200612141700 METAR MRLM 141700Z 01007KT 9999 FEW025 29/24 A2982 RMK CB DST NW NE E=
200612141800 METAR MRLM 141800Z 01008KT 9999 FEW025 29/24 A2979 RMK CB DST NW N NE E=
200612141900 METAR MRLM 141900Z 03007KT 9999 FEW025 29/24 A2977 RMK CB DST NW N NE E SE=
200612142000 METAR MRLM 142000Z NIL=
200612142100 METAR MRLM 142100Z 02005KT 9999 FEW025 SCT280 29/24 A2973 CB HZ ARND=
200612142200 METAR MRLM 142200Z 04004KT 9999 SCT020 28/24 A2974 CB NE E SE SW=
200612142300 METAR MRLM 142300Z VRB03KT 9999 SCT016 27/24 A2975 RMK CB SW NE=
200612150000 METAR MRLM 150000Z 16002KT 9999 SCT020 SCT280 26/24 A2976 RMK CB S W=
200612150100 METAR MRLM NIL=
200612150200 METAR MRLM NIL=
200612150300 METAR MRLM NIL=
200612150400 METAR MRLM NIL=
200612150500 METAR MRLM NIL=
200612150600 METAR MRLM NIL=
200612150700 METAR MRLM NIL=
200612150800 METAR MRLM NIL=
200612150900 METAR MRLM NIL=
200612151000 METAR MRLM NIL=
200612151100 METAR MRLM NIL=
200612151200 METAR MRLM NIL=
200612151300 METAR MRLM 151300Z 20005KT 9999 FEW025 24/23 A2981=
200612151400 METAR MRLM 151400Z 17005KT 9999 FEW025 27/23 A2983 RMK TCU N=
200612151500 METAR MRLM 151500Z 16004KT 9999 FEW025 29/23 A2983 RMK TCU W N ENE=
200612151600 METAR MRLM 151600Z 09009KT 9999 FEW025 30/23 A2983 RMK TCU RN NNE=
200612151700 METAR MRLM 151700Z 07006KT 9999 FEW025 SCT090 30/23 A2982 RMK TCU NNE=
200612151800 METAR MRLM 151800Z 05006KT 9999 FEW030 30/22 A2980=
200612151900 METAR MRLM 151900Z 05009KT 9999 FEW030 30/23 A2977=
200612152000 METAR MRLM 152000Z NIL=
200612152100 METAR MRLM 152100Z 06008KT 9999 FEW030 29/23 A2973 RMK CB DST E/S=
200612152200 METAR MRLM 152200Z 06006KT 9999 FEW030 SCT260 29/23 A2973 RMK CB DST SE S=
200612152300 METAR MRLM 152300Z 07007KT CAVOK 28/23 A2974 RMK SCT260=
200612160000 METAR MRLM 160000Z 10005KT CAVOK 28/23 A2975=
200612160100 METAR MRLM NIL=
200612160200 METAR MRLM NIL=
200612160300 METAR MRLM NIL=
200612160400 METAR MRLM NIL=
200612160500 METAR MRLM NIL=
200612160600 METAR MRLM NIL=
200612160700 METAR MRLM NIL=
200612160800 METAR MRLM NIL=
200612160900 METAR MRLM NIL=
200612161000 METAR MRLM NIL=
200612161100 METAR MRLM NIL=
200612161200 METAR MRLM 161200Z 22005KT CAVOK 22/20 A2980=
200612161300 METAR MRLM 161300Z 20005KT CAVOK 23/21 A2982=
200612161400 METAR MRLM 161400Z 21003KT CAVOK 27/22 A2985 FEW300=
200612161500 METAR MRLM 161500Z 05003KT 9999 FEW030 29/23 A2986=
200612161600 METAR MRLM 161600Z 01006KT 9999 FEW030 29/23 A2985=
200612161700 METAR MRLM 161700Z 01007KT 9999 FEW030 29/24 A2983=
200612161800 METAR MRLM 161800Z 36007KT 9999 FEW030 29/23 A2981=
200612161900 METAR MRLM 161900Z 01007KT 9999 FEW030 29/24 A2978=
200612162000 METAR MRLM 162000Z NIL=
200612162100 METAR MRLM 162100Z 36006KT 9999 FEW030 23/23 A2989=
200612162200 METAR MRLM 162200Z 36007KT 9999 FEW030 28/24 A2975=
200612162300 METAR MRLM 162300Z 34004KT 9999 FEW030 28/23 A2976=
200612170000 METAR MRLM NIL=
200612170100 METAR MRLM NIL=
200612170200 METAR MRLM NIL=
200612170300 METAR MRLM NIL=
200612170400 METAR MRLM NIL=
200612170500 METAR MRLM NIL=
200612170600 METAR MRLM NIL=
200612170700 METAR MRLM NIL=
200612170800 METAR MRLM NIL=
200612170900 METAR MRLM NIL=
200612171000 METAR MRLM NIL=
200612171100 METAR MRLM NIL=
200612171200 METAR MRLM NIL=
200612171300 METAR MRLM 171300Z 22006KT 9999 FEW025 BKN100 23/21 A2986=
200612171400 METAR MRLM 171400Z 35009KT 2000 RA SCT015 BKN090 24/23 A2990=
200612171500 METAR MRLM 171500Z 23004KT 9999 DZ BKN025 SCT090 24/23 A2990 RN ARND=
200612171600 METAR MRLM 171600Z 23007KT 9999 BKN020 26/24 A2989 RERA RMK RN DIST S/W=
200612171700 METAR MRLM 171700Z 23004KT 9999 SCT030 29/23 A2988=
200612171800 METAR MRLM 171800Z VRB03KT 9999 SCT035 30/23 A2986=
200612171900 METAR MRLM 171900Z 06005KT 9999 SCT028 29/24 A2981=
200612172000 METAR MRLM 172000Z NIL=
200612172100 METAR MRLM 172100Z 05007KT 9999 FEW030 29/24 A2978 RMK LEVE HZY=
200612172200 METAR MRLM 172200Z 04007KT 9999 FEW028 29/24 A2978 RMK LEVE HZY=
200612172300 METAR MRLM 172300Z 03006KT 9999 FEW020 28/24 A2979 RMK LEVE HZY=
200612180000 METAR MRLM 180000Z VRB03KT 9999 FEW020 28/24 A2979 LEVE HZY=
200612180100 METAR MRLM NIL=
200612180200 METAR MRLM NIL=
200612180300 METAR MRLM NIL=
200612180400 METAR MRLM NIL=
200612180500 METAR MRLM NIL=
200612180600 METAR MRLM NIL=
200612180700 METAR MRLM NIL=
200612180800 METAR MRLM NIL=
200612180900 METAR MRLM NIL=
200612181000 METAR MRLM NIL=
200612181100 METAR MRLM NIL=
200612181200 METAR MRLM NIL=
200612181300 METAR MRLM 181300Z VRB03KT CAVOK 23/22 A2986 RMK HZY=
200612181400 METAR MRLM 181400Z 21004KT CAVOK 27/22 A2988 RMK HZY=
200612181500 METAR MRLM 181500Z 06004KT 9999 FEW025 SCT140 28/23 A2990 RMK LEVE HZY=
200612181600 METAR MRLM 181600Z 08004KT 9999 FEW020 BKN110 28/24 A2989 RMK HZY=
200612181700 METAR MRLM 181700Z 09004KT 9999 FEW028 SCT110 29/23 A2988 RMK HZY=
200612181800 METAR MRLM 181800Z 05004KT 9999 FEW030 29/23 A2985 RMK HZY=
200612181900 METAR MRLM 181900Z 26005KT 9999 FEW030 29/23 A2982 RMK HZY=
200612182000 METAR MRLM 182000Z NIL=
200612182100 METAR MRLM 182100Z 03005KT 9999 FEW025 SCT140 29/24 A2978=
200612182200 METAR MRLM 182200Z 01008KT 9999 FEW030 BKN090 29/23 A2978=
200612182300 METAR MRLM 182300Z 36007KT 9999 FEW023 OVC090 28/24 A2980=
200612190000 METAR MRLM 190000Z 36007KT 9999 FEW023 OVC090 28/23 A2980=
200612190100 METAR MRLM NIL=
200612190200 METAR MRLM NIL=
200612190300 METAR MRLM NIL=
200612190400 METAR MRLM NIL=
200612190500 METAR MRLM NIL=
200612190600 METAR MRLM NIL=
200612190700 METAR MRLM NIL=
200612190800 METAR MRLM NIL=
200612190900 METAR MRLM NIL=
200612191000 METAR MRLM NIL=
200612191100 METAR MRLM NIL=
200612191200 METAR MRLM 191200Z 22004KT 9999 FEW024 BKN090 22/21 A2994 RN N NE E=
200612191300 METAR MRLM 191300Z 14012KT 9999 DZ SCT015 BKN028 24/22 A2983=
200612191400 METAR MRLM 191400Z 20007KT 9999 FEW028 BKN080 24/22 A2984 REDZ RMK RN DST HZ ARND=
200612191500 METAR MRLM 191500Z 19005KT 9999 FEW028 BKN080 26/23 A2985 RMK DZ ARND=
200612191600 METAR MRLM NIL=
200612191700 METAR MRLM 191700Z 03003KT 9999 FEW030 BKN090 28/23 A2984=
200612191800 METAR MRLM 191800Z 05004KT 9999 FEW030 BKN090 29/23 A2982 RMK RN DST E=
200612191900 METAR MRLM 191900Z 07006KT 9999 FEW030 BKN090 29/22 A2979 RMK RN DST E=
200612192000 METAR MRLM 192000Z NIL=
200612192100 METAR MRLM 192100Z 11012KT 9999 FEW030 SCT090 28/23 A2976 RMK RN E=
200612192200 METAR MRLM 192200Z 12010KT 9999 FEW030 SCT100 28/22 A2976=
200612192300 METAR MRLM 192300Z 10012KT 9999 FEW030 SCT100 27/22 A2977=
200612200000 METAR MRLM 200000Z 00000KT 9999 FEW030 SCT100 25/22 A2978=
200612200100 METAR MRLM NIL=
200612200200 METAR MRLM NIL=
200612200300 METAR MRLM NIL=
200612200400 METAR MRLM NIL=
200612200500 METAR MRLM NIL=
200612200600 METAR MRLM NIL=
200612200700 METAR MRLM NIL=
200612200800 METAR MRLM NIL=
200612200900 METAR MRLM NIL=
200612201000 METAR MRLM NIL=
200612201100 METAR MRLM NIL=
200612201200 METAR MRLM NIL=
200612201300 METAR MRLM 201300Z 00000KT 9999 BKN080 23/22 A2982 RMK RN TCU NW=
200612201400 METAR MRLM 201400Z 00000KT CAVOK 26/22 A2985=
200612201500 METAR MRLM 201500Z 24004KT 9999 FEW030 SCT090 28/22 A2986=
200612201600 METAR MRLM 201600Z 01011KT 9999 FEW030 SCT090 29/22 A2985=
200612201700 METAR MRLM 201700Z 35012KT 9999 FEW030 SCT090 28/23 A2984 RMK TCU NE=
200612201800 METAR MRLM 201800Z 34011KT 9999 FEW030 BKN090 28/23 A2980 RMK TCU NE=
200612201900 METAR MRLM 201900Z 34011KT 9999 FEW030 BKN090 28/23 A2978=
200612202000 METAR MRLM NIL=
200612202100 METAR MRLM 202100Z 29006KT 9999 FEW028 BKN080 28/23 A2975 RMK RN DST SW=
200612202200 METAR MRLM 202200Z 29005KT 9999 FEW028 BKN080 28/23 A2975 RMK RN DST SW=
200612202300 METAR MRLM 202300Z 30007KT 9999 FEW028 BKN080 27/23 A2977=
200612210000 METAR MRLM 210000Z 28003KT 9999 FEW028 BKN080 27/23 A2978=
200612210100 METAR MRLM NIL=
200612210200 METAR MRLM NIL=
200612210300 METAR MRLM NIL=
200612210400 METAR MRLM NIL=
200612210500 METAR MRLM NIL=
200612210600 METAR MRLM NIL=
200612210700 METAR MRLM NIL=
200612210800 METAR MRLM NIL=
200612210900 METAR MRLM NIL=
200612211000 METAR MRLM NIL=
200612211100 METAR MRLM NIL=
200612211200 METAR MRLM NIL=
200612211300 METAR MRLM 211300Z 20006KT CAVOK 23/21 A2986 RMK BKN140 HZY=
200612211400 METAR MRLM 211400Z 23002KT CAVOK 26/22 A2989 RMK FEW150 HZY=
200612211500 METAR MRLM 211500Z 04004KT CAVOK 28/23 A2990 RMK HZ LGT ARND FEW140=
200612211600 METAR MRLM 211600Z 03006KT 9999 FEW025 28/23 A2990 RMK LGT HZ ARND=
200612211700 METAR MRLM 211700Z 02006KT 9999 FEW025 28/23 A2987=
200612211800 METAR MRLM 211800Z 01007KT 9999 FEW028 29/23 A2985=
200612211900 METAR MRLM 211900Z 36007KT 9999 FEW025 28/23 A2981=
200612212000 METAR MRLM 212000Z NIL=
200612212100 METAR MRLM 212100Z 36005KT 9999 FEW025 28/24 A2978=
200612212200 METAR MRLM 212200Z 35006KT 9999 FEW025 28/24 A2979 CB SE S=
200612212300 METAR MRLM 212300Z VRB03KT 9999 FEW025 28/23 A2979 CB W=
200612220000 METAR MRLM 220000Z 00000KT CAVOK 25/23 A2979 CB DST S=
200612220100 METAR MRLM NIL=
200612220200 METAR MRLM NIL=
200612220300 METAR MRLM NIL=
200612220400 METAR MRLM NIL=
200612220500 METAR MRLM NIL=
200612220600 METAR MRLM NIL=
200612220700 METAR MRLM NIL=
200612220800 METAR MRLM NIL=
200612220900 METAR MRLM NIL=
200612221000 METAR MRLM NIL=
200612221100 METAR MRLM NIL=
200612221200 METAR MRLM NIL=
200612221300 METAR MRLM 221300Z 21005KT CAVOK 23/21 A2985 SCT140=
200612221400 METAR MRLM 221400Z 20004KT CAVOK 26/22 A2986 SCT120=
200612221500 METAR MRLM 221500Z 19004KT CAVOK 28/23 A2988 BKN120 CB E=
200612221600 METAR MRLM 221600Z 02007KT CAVOK 29/23 A2987 CB E=
200612221700 METAR MRLM 221700Z 01008KT 9999 FEW030 29/23 A2986 CB E=
200612221800 METAR MRLM 221800Z 01007KT 9999 FEW028 29/23 A2985 CB NW NE E=
200612221900 METAR MRLM 221900Z 01006KT 9999 FEW028 29/24 A2979 CB NE=
200612222000 METAR MRLM 222000Z NIL=
200612222100 METAR MRLM 222100Z 01008KT 9999 FEW025 SCT140 29/24 A2979 CB DST NE=
200612222200 METAR MRLM 222200Z 01004KT 9999 BKN020 SCT120 28/24 A2978 RMK LEVE HZY=
200612222300 METAR MRLM 222300Z 04009KT 9999 BKN015 SCT110 27/25 A2979 RMK RN DST S W LEVE HZY=
200612230000 METAR MRLM 230000Z 04007KT 9999 SCT014 BKN110 27/24 A2980 RMK RN DST QUAD S W=
200612230100 METAR MRLM NIL=
200612230200 METAR MRLM NIL=
200612230300 METAR MRLM NIL=
200612230400 METAR MRLM NIL=
200612230500 METAR MRLM NIL=
200612230600 METAR MRLM NIL=
200612230700 METAR MRLM NIL=
200612230800 METAR MRLM NIL=
200612230900 METAR MRLM NIL=
200612231000 METAR MRLM NIL=
200612231100 METAR MRLM NIL=
200612231200 METAR MRLM 231200Z 34004KT 5000 RA BKN022 SCT080 24/23 A2983 RETS RMK CB DST NW N=
200612231300 METAR MRLM 231300Z 20005KT 9999 FEW010 BKN028 23/23 A2985 RERA RMK CB DST W NW SE RN DST ARND=
200612231400 METAR MRLM 231400Z 21004KT 9999 SCT015 BKN080 24/24 A2986 RMK CB DST N SE RN ARND=
200612231500 METAR MRLM 231500Z 24004KT 9999 FEW028 BKN100 27/24 A2987 RMK TCU DST NNE NE RN DST SE=
200612231600 METAR MRLM 231600Z 03004KT 9999 FEW028 BKN120 30/24 A2986 RMK CB DST N=
200612231700 METAR MRLM 231700Z 01007KT 9999 FEW028 BKN100 28/25 A2984 RMK TCU DST NW N NE E LEVE HZY=
200612231800 METAR MRLM 231800Z 01007KT 9999 FEW025TCU SCT100 29/24 A2981 RMK TCU RN DST ARND=
200612231900 METAR MRLM 231900Z 01007KT 9999 FEW024TCU BKN090 30/24 A2979 RMK TCU RN DST ARND=
200612232000 METAR MRLM 232000Z NIL=
200612232100 METAR MRLM 232100Z 35011KT 9999 FEW015 BKN080 27/24 A2976 RMK CB RN DST ARND=
200612232200 METAR MRLM 232200Z 02008KT 9999 SCT024 BKN080 27/24 A2978 RMK CB RN DST ARND=
200612232300 METAR MRLM 232300Z 00000KT 9999 -DZ FEW024 BKN080 26/24 A2977 RMK CB DST ARND=
200612240000 METAR MRLM 240000Z 00000KT 9999 DZ BKN026 SCT080 26/24 A2979=
200612240100 METAR MRLM NIL=
200612240200 METAR MRLM NIL=
200612240300 METAR MRLM NIL=
200612240400 METAR MRLM NIL=
200612240500 METAR MRLM NIL=
200612240600 METAR MRLM NIL=
200612240700 METAR MRLM NIL=
200612240800 METAR MRLM NIL=
200612240900 METAR MRLM NIL=
200612241000 METAR MRLM NIL=
200612241100 METAR MRLM NIL=
200612241200 METAR MRLM 241200Z 20003KT 9999 BKN028 SCT080 23/22 A2981 CB RN NW N NE E=
200612241300 METAR MRLM 241300Z 21004KT 9999 BKN028 SCT080 23/23 A2982 RMK CB RN DST NW N NE E TS NE HZ ARND=
200612241400 METAR MRLM 241400Z 21003KT 9999 DZ FEW024 BKN080 24/23 A2985 RMK CB RN DST NW N NE E=
200612241500 METAR MRLM 241500Z 35003KT 9999 SCT024 SCT080 27/24 A2987 REDZ RMK CB RN DST W NW N NE=
200612241600 METAR MRLM NIL=
200612241700 METAR MRLM 241700Z 36004KT 9999 BKN028 SCT080 29/24 A2985 RMK HZ ARND=
200612241800 METAR MRLM 241800Z 02004KT 9999 SCT026 SCT080 29/22 A2986 RMK TCU DST WNW NW N NE HZ ARND=
200612241900 METAR MRLM 241900Z 36006KT 9999 FEW026 SCT100 BKN240 29/25 A2978 RMK HZ ARND=
200612242000 METAR MRLM 242000Z NIL=
200612242100 METAR MRLM NIL=
200612242200 METAR MRLM 242200Z 01008KT 9999 FEW025 BKN240 28/25 A2975 RMK CB RN S SW WSW=
200612242300 METAR MRLM 242300Z 35003KT 9999 SCT024TCU SCT250 28/25 A2976 RMK RN NW N NE=
200612250000 METAR MRLM 250000Z 23003KT 9999 BKN024 26/25 A2977 RMK TCU RN NE SW=
200612250100 METAR MRLM NIL=
200612250200 METAR MRLM NIL=
200612250300 METAR MRLM NIL=
200612250400 METAR MRLM NIL=
200612250500 METAR MRLM NIL=
200612250600 METAR MRLM NIL=
200612250700 METAR MRLM NIL=
200612250800 METAR MRLM NIL=
200612250900 METAR MRLM NIL=
200612251000 METAR MRLM NIL=
200612251100 METAR MRLM NIL=
200612251200 METAR MRLM 251200Z NIL=
200612251300 METAR MRLM 251300Z 00000KT CAVOK 23/20 A2985 RMK HZ ARND=
200612251400 METAR MRLM NIL=
200612251500 METAR MRLM 251500Z VRB03KT 2000 TS RA FEW005 SCT015CB BKN020 24/24 A2989=
200612251600 METAR MRLM 251600Z 28004KT 8000 RA FEW005 BKN025 24/23 A2987 RETS VIS S UNL CB N E=
200612251700 METAR MRLM 251700Z VRB03KT 9999 RA BKN025 SCT100 24/24 A2993=
200612251800 METAR MRLM 251800Z 17004KT 9999 +DZ FEW005 BKN025 25/24 A2981 RMK CB N E=
200612251900 METAR MRLM 251900Z 18004KT 9999 BKN025 SCT120 26/25 A2977 RMK CB RN N E=
200612252000 METAR MRLM 252000Z NIL=
200612252100 METAR MRLM 252100Z 27004KT 9999 BKN025 SCT110 27/25 A2973 RMK RN HZ ARND CB N=
200612252200 METAR MRLM 252200Z VRB03KT 9999 RA BKN025 SCT110 27/25 A2974 RMK VIS 8KMS S HZY=
200612252300 METAR MRLM NIL=
200612260000 METAR MRLM NIL=
200612260100 METAR MRLM NIL=
200612260200 METAR MRLM NIL=
200612260300 METAR MRLM NIL=
200612260400 METAR MRLM NIL=
200612260500 METAR MRLM NIL=
200612260600 METAR MRLM NIL=
200612260700 METAR MRLM NIL=
200612260800 METAR MRLM NIL=
200612260900 METAR MRLM NIL=
200612261000 METAR MRLM NIL=
200612261100 METAR MRLM NIL=
200612261200 METAR MRLM 261200Z NIL=
200612261300 METAR MRLM 261300Z 22005KT 9999 BKN015 25/23 A2983 RMK RN DIST N/E=
200612261400 METAR MRLM NIL=
200612261500 METAR MRLM 261500Z 30005KT 9999 SCT020 28/24 A2988 RMK RN DIST S/SW HZY=
200612261600 METAR MRLM NIL=
200612261700 METAR MRLM 261700Z 36006KT 9999 SCT025 29/24 A2987=
200612261800 METAR MRLM 261800Z 36005KT 9999 SCT025 29/24 A2984 HZY=
200612261900 METAR MRLM NIL=
200612262000 METAR MRLM 262000Z NIL=
200612262100 METAR MRLM 262100Z 36007KT 9999 BKN023 29/24 A2978=
200612262200 METAR MRLM NIL=
200612262300 METAR MRLM 262300Z 34004KT 9999 BKN022 28/24 A2981=
200612270000 METAR MRLM 270000Z 26002KT 9999 BKN015 SCT110 27/24 A2983 CB S=
200612270100 METAR MRLM NIL=
200612270200 METAR MRLM NIL=
200612270300 METAR MRLM NIL=
200612270400 METAR MRLM NIL=
200612270500 METAR MRLM NIL=
200612270600 METAR MRLM NIL=
200612270700 METAR MRLM NIL=
200612270800 METAR MRLM NIL=
200612270900 METAR MRLM NIL=
200612271000 METAR MRLM NIL=
200612271100 METAR MRLM NIL=
200612271200 METAR MRLM 271200Z 25013KT 2000 RA SCT012 BKN020 21/21 A2990=
200612271300 METAR MRLM 271300Z 25009KT 8000 DZ SCT012 BKN020 21/21 A2992 RERA RN ARND=
200612271400 METAR MRLM 271400Z 26015KT 3000 RA BKN012 SCT020 21/20 A2995=
200612271500 METAR MRLM 271500Z 25011KT 5000 -RA FEW012 BKN022 21/20 A2995=
200612271600 METAR MRLM 271600Z 27014KT 3000 RA FEW012 BKN022 21/20 A2994=
200612271700 METAR MRLM 271700Z 25014KT 4000 -RA SCT012 BKN022 21/20 A2991=
200612271800 METAR MRLM 271800Z 28008KT 25016KT 9999 -DZ SCT015 BKN050 22/20 A2988 RERA RN ARND=
200612271900 METAR MRLM 271900Z 35011KT 9999 -DZ FEW018 BKN045 23/21 A2985 RN ARND=
200612272000 METAR MRLM 272000Z NIL=
200612272100 METAR MRLM 272100Z 24011KT 4000 -RA SCT018 BKN030 22/21 A2982=
200612272200 METAR MRLM 272200Z 25011KT 5000 -RA SCT018 SCT030 22/21 A2981=
200612272300 METAR MRLM 272300Z 26010KT 8000 DZ BKN020 SCT030 22/21 A2982 RMK RN ARND=
200612280000 METAR MRLM 280000Z 25011KT 6000 -RA FEW015 BKN028 22/20 A2983=
200612280100 METAR MRLM NIL=
200612280200 METAR MRLM NIL=
200612280300 METAR MRLM NIL=
200612280400 METAR MRLM NIL=
200612280500 METAR MRLM NIL=
200612280600 METAR MRLM NIL=
200612280700 METAR MRLM NIL=
200612280800 METAR MRLM NIL=
200612280900 METAR MRLM NIL=
200612281000 METAR MRLM NIL=
200612281100 METAR MRLM NIL=
200612281200 METAR MRLM 281200Z 26014KT 9999 BKN030 22/20 A2986 RN DIST ARND=
200612281300 METAR MRLM 281300Z 26012KT 9999 BKN035 22/20 A2988 RMK RN DST ARND=
200612281400 METAR MRLM 281400Z 27010KT 9999 BKN035 SCT080 23/21 A2981 RMK RN DST ARND=
200612281500 METAR MRLM NIL=
200612281600 METAR MRLM 281600Z 27009KT 9999 BKN030 25/22 A2991 RMK RN DST ARND=
200612281700 METAR MRLM 281700Z 29011KT 9999 SCT028 SCT080 26/22 A2990 RMK RN DST ARND=
200612281800 METAR MRLM 281800Z 25009KT 9999 FEW015 BKN040 25/22 A2987 RMK RN DST ARND=
200612281900 METAR MRLM 281900Z 25008KT 9999 SCT030 BKN080 26/22 A2982=
200612282000 METAR MRLM 282000Z NIL=
200612282100 METAR MRLM 282100Z 35007KT 9999 FEW030 BKN090 28/22 A2978 RMK CB DST NW=
200612282200 METAR MRLM 282200Z 30005KT 9999 FEW030 BKN080 26/23 A2978=
200612282300 METAR MRLM 282300Z 31004KT 9999 FEW030 BKN080 26/23 A2979=
200612290000 METAR MRLM 290000Z 00000KT CAVOK 25/23 A2980=
200612290100 METAR MRLM NIL=
200612290200 METAR MRLM NIL=
200612290300 METAR MRLM NIL=
200612290400 METAR MRLM NIL=
200612290500 METAR MRLM NIL=
200612290600 METAR MRLM NIL=
200612290700 METAR MRLM NIL=
200612290800 METAR MRLM NIL=
200612290900 METAR MRLM NIL=
200612291000 METAR MRLM NIL=
200612291100 METAR MRLM NIL=
200612291200 METAR MRLM NIL=
200612291300 METAR MRLM 291300Z 21007KT CAVOK 24/23 A2986 RMK RN DST N E S=
200612291400 METAR MRLM 291400Z 28007KT CAVOK 26/23 A2988 RMK RN DST N NE E=
200612291500 METAR MRLM 291500Z 06012KT 9999 +DZ SCT015 BKN090 26/23 A2989 RMK HZ ARND=
200612291600 METAR MRLM 291600Z 05011KT 7000 RA BKN015 SCT090 25/23 A2989=
200612291700 METAR MRLM 291700Z 20004KT 9999 SCT015 SCT090 26/24 A2987 RERA RMK 8000 DUE RN S W=
200612291800 METAR MRLM 291800Z 18004KT 9999 FEW030 SCT110 29/23 A2985 RMK DZ S SW W HZ ARND=
200612291900 METAR MRLM 291900Z 09004KT 9999 FEW033 30/23 A2982=
200612292000 METAR MRLM NIL=
200612292100 METAR MRLM 292100Z 02005KT 9999 FEW028 29/23 A2978=
200612292200 METAR MRLM 292200Z 02005KT 9999 FEW023 28/23 A2978=
200612292300 METAR MRLM 292300Z 02002KT 9999 FEW020 27/24 A2979=
200612300000 METAR MRLM 300000Z 22002KT 9999 FEW010 25/23 A2979=
200612300100 METAR MRLM NIL=
200612300200 METAR MRLM NIL=
200612300300 METAR MRLM NIL=
200612300400 METAR MRLM NIL=
200612300500 METAR MRLM NIL=
200612300600 METAR MRLM NIL=
200612300700 METAR MRLM NIL=
200612300800 METAR MRLM NIL=
200612300900 METAR MRLM NIL=
200612301000 METAR MRLM NIL=
200612301100 METAR MRLM NIL=
200612301200 METAR MRLM NIL=
200612301300 METAR MRLM 301300Z 22005KT 9999 FEW012 BKN090 23/22 A2982 RMK RN N E=
200612301400 METAR MRLM 301400Z 34008KT 9999 BKN015 SCT090 25/24 A2988 RN ARND=
200612301500 METAR MRLM NIL=
200612301600 METAR MRLM 301600Z 19004KT 9999 DZ FEW015 SCT025 BKN090 26/23 A2986=
200612301700 METAR MRLM 301700Z 20002KT 9000 +DZ FEW015 OVC025 26/24 A2985=
200612301800 METAR MRLM 301800Z VRB03KT 9999 DZ FEW010 SCT025 26/24 A2982=
200612301900 METAR MRLM 301900Z 23004KT 9999 OVC025 27/24 A2979 RMK RN S W=
200612302000 METAR MRLM 302000Z NIL=
200612302100 METAR MRLM 302100Z 18006KT 9999 DZ OVC015 27/23 A2975 RMK RN DTS S/W HZY=
200612302200 METAR MRLM NIL=
200612302300 METAR MRLM 302300Z 20004KT 9999 DZ BKN015 SCT090 25/23 A2976=
200612310000 METAR MRLM 310000Z 14002KT 9999 SCT025 BKN090 25/23 A2978=
200612310100 METAR MRLM NIL=
200612310200 METAR MRLM NIL=
200612310300 METAR MRLM NIL=
200612310400 METAR MRLM NIL=
200612310500 METAR MRLM NIL=
200612310600 METAR MRLM NIL=
200612310700 METAR MRLM NIL=
200612310800 METAR MRLM NIL=
200612310900 METAR MRLM NIL=
200612311000 METAR MRLM NIL=
200612311100 METAR MRLM NIL=
200612311200 METAR MRLM 311200Z 25004KT 9999 SCT025 BKN030 23/22 A2980 RMK RN DST ARND=
200612311300 METAR MRLM 311300Z 06003KT 3000 -RA SCT020 BKN024 23/22 A2983=
200612311400 METAR MRLM 311400Z 23004KT 2000 RA BKN015 SCT020 23/22 A2986=
200612311500 METAR MRLM 311500Z 22006KT 3000 -RA BKN015 SCT025 23/23 A2986=
200612311600 METAR MRLM 311600Z 19008KT 9999 -DZ OVC028 24/23 A2985 RN ARND=
200612311700 METAR MRLM 311700Z 20008KT 9999 BKN028 SCT080 25/23 A2984 RMK REDZ RN ARND=
200612311800 METAR MRLM 311800Z 23006KT 9999 SCT080 26/23 A2983 RMK RN DST ARND=
200612311900 METAR MRLM 311900Z 20008KT 9999 SCT028 BKN080 27/24 A2980 RMK RN DST S SW HZY=
200612312000 METAR MRLM 312000Z NIL=
200612312100 METAR MRLM NIL=
200612312200 METAR MRLM 312200Z 14003KT 9999 FEW028 BKN090 28/24 A2970 RN S SW=
200612312300 METAR MRLM 312300Z 15003KT 9999 FEW028 SCT090 27/24 A2976=
