200701010000 METAR MRLM 010000Z 19003KT 9999 3000N HZ FEW025 SCT080 26/24 A2977=
200701010100 METAR MRLM NIL=
200701010200 METAR MRLM NIL=
200701010300 METAR MRLM NIL=
200701010400 METAR MRLM NIL=
200701010500 METAR MRLM NIL=
200701010600 METAR MRLM NIL=
200701010700 METAR MRLM NIL=
200701010800 METAR MRLM NIL=
200701010900 METAR MRLM NIL=
200701011000 METAR MRLM NIL=
200701011100 METAR MRLM NIL=
200701011200 METAR MRLM 011200Z 00000KT 9999 SCT030 SCT090 22/22 A2978=
200701011300 METAR MRLM 011300Z 20004KT 9999 FEW030 SCT090 23/22 A2979=
200701011400 METAR MRLM 011400Z 24003KT 6000 HZ BKN030 25/23 A2983 RN W NW N=
200701011500 METAR MRLM 011500Z 35004KT 9999 SCT025 SCT090 27/23 A2985 RN NW N NE E=
200701011600 METAR MRLM 011600Z 02003KT 9999 SCT025 SCT090 27/24 A2983 RN N NE E=
200701011700 METAR MRLM 011700Z 01006KT 9999 FEW025 BKN090 27/24 A2982 TCU NW N NE=
200701011800 METAR MRLM 011800Z 36007KT 9999 FEW025 BKN090 28/24 A2980 RN N NE E=
200701011900 METAR MRLM 011900Z 36008KT 9999 FEW025 SCT090 29/24 A2977 RN N=
200701012000 METAR MRLM 012000Z NIL=
200701012100 METAR MRLM 012100Z 05013KT 9999 SCT024 BKN080 26/23 A2976 RMK RN DST ARND HZY=
200701012200 METAR MRLM 012200Z 23004KT 9999 SCT024 BKN080 26/23 A2975 RMK RN DST ARND HZY=
200701012300 METAR MRLM 012300Z 20004KT 9999 SCT024 SCT080 25/23 A2976 RMK RN DST SW W HZY=
200701020000 METAR MRLM 020000Z 17003KT 9999 FEW024 BKN080 25/23 A2977 RMK RN DST SW W HZY=
200701020100 METAR MRLM NIL=
200701020200 METAR MRLM NIL=
200701020300 METAR MRLM NIL=
200701020400 METAR MRLM NIL=
200701020500 METAR MRLM NIL=
200701020600 METAR MRLM NIL=
200701020700 METAR MRLM NIL=
200701020800 METAR MRLM NIL=
200701020900 METAR MRLM NIL=
200701021000 METAR MRLM NIL=
200701021100 METAR MRLM NIL=
200701021200 METAR MRLM NIL=
200701021300 METAR MRLM 021300Z 00000KT CAVOK 23/22 A2981 RMK HZY=
200701021400 METAR MRLM 021400Z 08018KT 9999 FEW040 28/19 A2982=
200701021500 METAR MRLM 021500Z 12002KT 9999 NSC 28/23 A2985 RMK VIS 5000SW HZ BKN140=
200701021600 METAR MRLM 021600Z VRB03KT 9999 NSC 29/23 A2984 RMK 5000SW HZ BKN140 TCU DST N NE=
200701021700 METAR MRLM 021700Z 03005KT 9999 FEW028 SCT140 29/23 A2982 RMK HZY CB RN DST N=
200701021800 METAR MRLM 021800Z 01011KT 9999 FEW025 SCT140 29/24 A2980 RMK CB RN DST QUAD N HZY=
200701021900 METAR MRLM 021900Z 07012KT 9999 FEW025 BKN110 29/24 A2978/ RMK RN DIST N.HZY=
200701022000 METAR MRLM NIL=
200701022100 METAR MRLM 022100Z 06015KT 9999 FEW015 SCT090 BKN110 26/24 A2975 RMK RN HZ ARND=
200701022200 METAR MRLM 022200Z 19005KT 9999 DZ FEW015 BKN025 26/22 A2975 RMK RN HZ ARND=
200701022300 METAR MRLM 022300Z 13004KT 9999 BKN025 SCT090 25/23 A2976 RERA RMK RN HZ ARND=
200701030000 METAR MRLM 030000Z 30004KT 6000 +DZ BKN020 SCT090 25/23 A2977 RMK VIS 9999 S/SW=
200701030100 METAR MRLM NIL=
200701030200 METAR MRLM NIL=
200701030300 METAR MRLM NIL=
200701030400 METAR MRLM NIL=
200701030500 METAR MRLM NIL=
200701030600 METAR MRLM NIL=
200701030700 METAR MRLM NIL=
200701030800 METAR MRLM NIL=
200701030900 METAR MRLM NIL=
200701031000 METAR MRLM NIL=
200701031100 METAR MRLM NIL=
200701031200 METAR MRLM NIL=
200701031300 METAR MRLM 031300Z 22004KT 8000 FEW005 BKN015 23/23 A2984 RMK VIS S SW W UNL=
200701031400 METAR MRLM 031400Z 02005KT 3000 RA OVC015 24/23 A2988=
200701031500 METAR MRLM 031500Z 25006KT 9999 OVC015TCU 25/24 A2988 RMK RN HZ ARND=
200701031600 METAR MRLM 031600Z 21006KT 9999 OVC015TCU 26/24 A2988 RMK RN HZ ARND=
200701031700 METAR MRLM 031700Z 22007KT 9999 OVC028TCU 29/23 A2986 RMK VIS SE 5000 DUE RASH=
200701031800 METAR MRLM 031800Z 18006KT 9999 SCT035 29/22 A2984 RMK RN DST N S HZ ARND=
200701031900 METAR MRLM 031900Z 08006KT 9999 BKN035 30/23 A2981 RMK RN DST N HZ ARND=
200701032000 METAR MRLM 032000Z NIL=
200701032100 METAR MRLM 032100Z 02004KT 9999 BN025 SCT120 29/24 A2979 RMK RN HZ ARND=
200701032200 METAR MRLM 032200Z 01004KT 9999 BKN025 SCT090 29/24 A2978 RMK RN ARND=
200701032300 METAR MRLM 032300Z 13008KT 7000 RA OVCTCU015 24/23 A2979=
200701040000 METAR MRLM 040000Z 18006KT 7000 DZ OVC015 24/23 A2979 RMK RASH ARND=
200701040100 METAR MRLM NIL=
200701040200 METAR MRLM NIL=
200701040300 METAR MRLM NIL=
200701040400 METAR MRLM NIL=
200701040500 METAR MRLM NIL=
200701040600 METAR MRLM NIL=
200701040700 METAR MRLM NIL=
200701040800 METAR MRLM NIL=
200701040900 METAR MRLM NIL=
200701041000 METAR MRLM NIL=
200701041100 METAR MRLM NIL=
200701041200 METAR MRLM NIL=
200701041300 METAR MRLM 041300Z 19004KT 3000 DZ SCT012 BKN015 23/22 A2982=
200701041400 METAR MRLM 041400Z 10004KT 3000 -RA SCT015 BKN024 23/23 A2985=
200701041500 METAR MRLM 041500Z 19005KT 4000 +DZ SCT014 BKN024 24/22 A2985=
200701041600 METAR MRLM 041600Z 22007KT 5000 DZ BKN024 SCT028 24/23 A2984 RETS RMK CB NW N=
200701041700 METAR MRLM 041700Z 21005KT 3000 RA SCT015 BKN022 24/23 A2983=
200701041800 METAR MRLM 041800Z 21008KT 4000 -RA BKN024 SCT028 24/23 A2980=
200701041900 METAR MRLM 041900Z 26003KT 4000 +DZ BKN024 SCT028 25/24 A2997=
200701042000 METAR MRLM NIL=
200701042100 METAR MRLM 042100Z 25007KT 3000 RA BKN024 SCT030 24/23 A2975=
200701042200 METAR MRLM 042200Z 20003KT 5000 VCSH BKN028 SCT035 24/23 A2974 RERA=
200701042300 METAR MRLM 042300Z 21005KT 7000 DZ SCT025 SCT040 24/23 A2974=
200701050000 METAR MRLM 050000Z 19005KT 7000 -DZ BKN024 SCT030 24/23 A2975=
200701050100 METAR MRLM NIL=
200701050200 METAR MRLM NIL=
200701050300 METAR MRLM NIL=
200701050400 METAR MRLM NIL=
200701050500 METAR MRLM NIL=
200701050600 METAR MRLM NIL=
200701050700 METAR MRLM NIL=
200701050800 METAR MRLM NIL=
200701050900 METAR MRLM NIL=
200701051000 METAR MRLM NIL=
200701051100 METAR MRLM NIL=
200701051200 METAR MRLM 051200Z 22005KT 4000 +DZ SCT015 BKN024 23/23 A2975 RMK RN ARND=
200701051300 METAR MRLM 051300Z 19003KT 3000 -RA FEW013 BKN022 23/23 A2978=
200701051400 METAR MRLM 051400Z 23003KT 3000 -RA FEW012 BKN020 23/23 A2981=
200701051500 METAR MRLM 051500Z 21004KT 2000N RA FEW008 BKN015 24/23 A2981=
200701051600 METAR MRLM 051600Z 16006KT 2000N RA FEW010 BKN015 24/24 A2980=
200701051700 METAR MRLM 051700Z 19004KT 5000 -DZ FEW012 BKN022 24/24 A2980 RMK RERA RN ARND=
200701051800 METAR MRLM 051800Z 20007KT 9999 SCT015 BKN024 25/24 A2974 REDZ RMK RN/HZ ARND=
200701051900 METAR MRLM 051900Z 20007KT 9999 SCT015 BKN024 25/24 A2974 REDZ RMK RN/HZ ARND=
200701052000 METAR MRLM 052000Z NIL=
200701052100 METAR MRLM 052100Z 00000KT 9999 -DZ SCT024 BKN030 27/24 A2971 RN ARND=
200701052200 METAR MRLM 052200Z 00000KT 9999 BKN025 SCT040 27/24 A2971 REDZ RN ARND=
200701052300 METAR MRLM 052300Z 00000KT 6000 DZ BKN026 SCT080 26/24 A2972 RN ARND=
200701060000 METAR MRLM 060000Z 00000KT 5000 -DZ SCT015 BKN025 25/24 A2973 RN ARND=
200701060100 METAR MRLM NIL=
200701060200 METAR MRLM NIL=
200701060300 METAR MRLM NIL=
200701060400 METAR MRLM NIL=
200701060500 METAR MRLM NIL=
200701060600 METAR MRLM NIL=
200701060700 METAR MRLM NIL=
200701060800 METAR MRLM NIL=
200701060900 METAR MRLM NIL=
200701061000 METAR MRLM NIL=
200701061100 METAR MRLM NIL=
200701061200 METAR MRLM NIL=
200701061300 METAR MRLM 061300Z VRB03KT 9999 OVC015 24/23 A2979 RMK RN/HZ ARND=
200701061400 METAR MRLM 061400Z 26005KT 3000 RA OVC015 24/24 A2995=
200701061500 METAR MRLM 061500Z 21005KT 5000 +RA FEW005 OVC015 25/24 A2982 VSBY NW /W UNL=
200701061600 METAR MRLM 061600Z 19004KT 9000 DZ OVC015 25/25 A2982 RN ARND=
200701061700 METAR MRLM 061700Z 19006KT 9000 DZ OVC015 26/25 A2980 RN ARND=
200701061800 METAR MRLM 061800Z 00000KT 9000 +DZ OVC015 27/24 A2978 VSBY SE 5KM RN ARND=
200701061900 METAR MRLM 061900Z 17005KT 9000 RA OVC012 27/25 A2975 RN ARND=
200701062000 METAR MRLM 062000Z NIL=
200701062100 METAR MRLM 062100Z 05012KT 9999 OVC015 28/24 A2972 RMK VIS 7000 QUAD S SHRA HZ=
200701062200 METAR MRLM 062200Z 04012KT 9999 BKN015 28/24 A2973 RMK SHRA DST S W=
200701062300 METAR MRLM 062300Z 04013KT 9999 SCT018 BKN090 28/24 A2974 RMK RN DST S W HZY=
200701070000 METAR MRLM 070000Z 04011KT 9999 BKN015 27/24 A2975 RMK RN QUAD S W HZY=
200701070100 METAR MRLM NIL=
200701070200 METAR MRLM NIL=
200701070300 METAR MRLM NIL=
200701070400 METAR MRLM NIL=
200701070500 METAR MRLM NIL=
200701070600 METAR MRLM NIL=
200701070700 METAR MRLM NIL=
200701070800 METAR MRLM NIL=
200701070900 METAR MRLM NIL=
200701071000 METAR MRLM NIL=
200701071100 METAR MRLM NIL=
200701071200 METAR MRLM NIL=
200701071300 METAR MRLM 071300Z 19005KT CAVOK 23/22 A2983 RMK RN DST QUAD N LEVE HZY=
200701071400 METAR MRLM 071400Z 19004KT 9999 FEW015 BKN100 26/23 A2986 RMK RN DST QUAD N LEVE HZY=
200701071500 METAR MRLM 071500Z 06007KT 9999 FEW020 BKN100 28/23 A2987 RMK RN DST QUAD N LEVE HZY=
200701071600 METAR MRLM 071600Z 04007KT 9999 FEW020 BKN100 28/24 A2987 RMK RN DST N LEVE HZY=
200701071700 METAR MRLM 071700Z 04005KT 9999 SCT030 SCT130 29/23 A2984 RMK HZY=
200701071800 METAR MRLM 071800Z 04006KT 9999 SCT025 29/24 A2982 RMK HZY=
200701071900 METAR MRLM 071900Z 06006KT 9999 FEW030 29/23 A2979 RMK HZY=
200701072000 METAR MRLM NIL=
200701072100 METAR MRLM 072100Z 07006KT 9999 FEW030 29/23 A2975=
200701072200 METAR MRLM 072200Z 07007KT 9999 SCT025 29/24 A2976=
200701072300 METAR MRLM 072300Z 06009KT 9999 BKN023 28/23 A2977=
200701080000 METAR MRLM 080000Z 08007KT 9999 BKN023 28/23 A2978 RMK RN DST S SW W=
200701080100 METAR MRLM NIL=
200701080200 METAR MRLM NIL=
200701080300 METAR MRLM NIL=
200701080400 METAR MRLM NIL=
200701080500 METAR MRLM NIL=
200701080600 METAR MRLM NIL=
200701080700 METAR MRLM NIL=
200701080800 METAR MRLM NIL=
200701080900 METAR MRLM NIL=
200701081000 METAR MRLM NIL=
200701081100 METAR MRLM NIL=
200701081200 METAR MRLM NIL=
200701081300 METAR MRLM 081300Z 20005KT 9999 FEW024 21/20 A2984=
200701081400 METAR MRLM 081400Z 20005KT 9999 FEW024 25/21 A2987 RMK HZ ARND=
200701081500 METAR MRLM 081500Z 19005KT 9999 FEW024 28/22 A2988 RMK HZ ARND=
200701081600 METAR MRLM 081600Z 08004KT 9999 FEW024 29/23 A2988 RMK HZ ARND=
200701081700 METAR MRLM 081700Z 08006KT 9999 FEW024 29/23 A2987 RMK HZ ARND=
200701081800 METAR MRLM 081800Z 07005KT 9999 FEW024 29/23 A2984 RMK HZ ARND=
200701081900 METAR MRLM 081900Z 05006KT 9999 FEW024 29/23 A2981 RMK HZ ARND=
200701082000 METAR MRLM 082000Z NIL=
200701082100 METAR MRLM 082100Z 04008KT 9999 FEW024 SCT090 28/23 A2978 RMK HZ ARND=
200701082200 METAR MRLM 082200Z 02007KT 9999 FEW024 SCT090 28/23 A2978=
200701082300 METAR MRLM 082300Z 05013KT 9999 SCT024 SCT090 28/24 A2980 RMK RN SE=
200701090000 METAR MRLM 090000Z 07003KT 9999 FEW024 SCT090 27/23 A2986 RMK DZ DST SE HZ ARND=
200701090100 METAR MRLM NIL=
200701090200 METAR MRLM NIL=
200701090300 METAR MRLM NIL=
200701090400 METAR MRLM NIL=
200701090500 METAR MRLM NIL=
200701090600 METAR MRLM NIL=
200701090700 METAR MRLM NIL=
200701090800 METAR MRLM NIL=
200701090900 METAR MRLM NIL=
200701091000 METAR MRLM NIL=
200701091100 METAR MRLM NIL=
200701091200 METAR MRLM 091200Z 22006KT 9999 FEW030 BKN080 22/21 A2985 RMK RN DST SE S SW HZY=
200701091300 METAR MRLM 091300Z 20005KT 9999 FEW018 BKN090 22721 A2987 RMK RN SE S=
200701091400 METAR MRLM 091400Z 19004KT 9999 FEW028 25/22 A2989 RMK HZ ARND=
200701091500 METAR MRLM 091500Z 08004KT 9999 FEW028 BKN090 27/22 A2991 RMK DZ W NW=
200701091600 METAR MRLM 091600Z 09003KT 9999 FEW025 BKN080 27/22 A2991 RMK TCU N E NE=
200701091700 METAR MRLM 091700Z 04004KT 9999 FEW025 BKN090 28/22 A2989=
200701091800 METAR MRLM 091800Z 02005KT 9999 FEW025 BKN090 29/22 A2986 RMK RN N NE=
200701091900 METAR MRLM 091900Z 01018KT 9999 FEW024 BKN080 26/23 A2985 RMK RN ARND=
200701092000 METAR MRLM NIL=
200701092100 METAR MRLM 092100Z 18003KT 9999 FEW024 BKN090 27/21 A2981=
200701092200 METAR MRLM 092200Z 20003KT 9999 FEW024 BKN080 27/22 A2981 RMK RN DST SW W HZY=
200701092300 METAR MRLM 092300Z 23003KT 9999 FEW024 BKN080 27/22 A2983=
200701100000 METAR MRLM 100000Z 00000KT 9999 FEW024 BKN080 25/23 A2984=
200701100100 METAR MRLM NIL=
200701100200 METAR MRLM NIL=
200701100300 METAR MRLM NIL=
200701100400 METAR MRLM NIL=
200701100500 METAR MRLM NIL=
200701100600 METAR MRLM NIL=
200701100700 METAR MRLM NIL=
200701100800 METAR MRLM NIL=
200701100900 METAR MRLM NIL=
200701101000 METAR MRLM NIL=
200701101100 METAR MRLM NIL=
200701101200 METAR MRLM 101200Z NIL=
200701101300 METAR MRLM 101300Z 24006KT 9999 SCT025 BKN090 22/21 A2986 RMK RN DST NW E HZY=
200701101400 METAR MRLM 101400Z 07002KT 9999 BKN025 SCT090 25/21 A2989 RMK RN DST N NE HZY=
200701101500 METAR MRLM 101500Z 14005KT 9999 FEW025 BKN090 26/21 A2990=
200701101600 METAR MRLM 101600Z 16005KT CAVOK 28/20 A2988 RMK BKN130 HZY=
200701101700 METAR MRLM 101700Z 05007KT CAVOK 29/20 A2986 RMK FEW140 HZY=
200701101800 METAR MRLM 101800Z 05009KT 9999 FEW038 SCT140 29/21 A2984 RMK HZ LGT ARND=
200701101900 METAR MRLM 101900Z 05009KT 9999 FEW038 BKN140 28/21 A2981 RMK HZ LGT ARND=
200701102000 METAR MRLM NIL=
200701102100 METAR MRLM 102100Z 05009KT 9999 FEW030 BKN110 28/22 A2978 RMK HZ LGT ARND=
200701102200 METAR MRLM 102200Z 05008KT 9999 FEW030 BKM090 28/22 A2979 RMK HZ LGT ARND=
200701102300 METAR MRLM 102300Z 06005KT 9999 FEW030 BKN090 28/22 A2980 RMK RN DST N/NE HZ LGT ARND=
200701110000 METAR MRLM 110000Z 02004KT CAVOK 28/22 A2981 RMK BKN090 HZ LGT ARND=
200701110100 METAR MRLM NIL=
200701110200 METAR MRLM NIL=
200701110300 METAR MRLM NIL=
200701110400 METAR MRLM NIL=
200701110500 METAR MRLM NIL=
200701110600 METAR MRLM NIL=
200701110700 METAR MRLM NIL=
200701110800 METAR MRLM NIL=
200701110900 METAR MRLM NIL=
200701111000 METAR MRLM NIL=
200701111100 METAR MRLM NIL=
200701111200 METAR MRLM NIL=
200701111300 METAR MRLM 111300Z 13006KT 9999 DZ SCT015 SCT025 23/21 A2989 RMK VIS 6KM RN/HZ SE=
200701111400 METAR MRLM 111400Z 18009KT 9999 FEW015 BKN250 23/22 A2991 RMK RN EN CUADRANTES N/E=
200701111500 METAR MRLM 111500Z 36016KT 9999 FEW012 SCT025 BKN090 24/22 A2992 RMK RN/HZ ARND=
200701111600 METAR MRLM 111600Z 21007KT 9999 FEW025 OVC090 24/22 A2991 RMK RN DST EN EL QUADRANTE E=
200701111700 METAR MRLM 111700Z 20005KT 9999 BKN018 SCT100 26/22 A2990 RMK RN DST EN LOS QUADRANTES N/E=
200701111800 METAR MRLM 111800Z 13004KT 9999 BKN025 SCT100 26/22 A2988 RMK RN EN EL QUARANTE N/E HZ LGT ARND=
200701111900 METAR MRLM 111900Z 16006KT 9999 BKN020 SCT100 25/22 A2986 RMK DZ N/E/SE HZ LGT ARND=
200701112000 METAR MRLM NIL=
200701112100 METAR MRLM 112100Z 14010KT 9999 DZ BKN020 SCT100 25/21 A2983 RMK HZY=
200701112200 METAR MRLM 112200Z 21007KT CAVOK 25/22 A2982 RMK OVC090 HZY=
200701112300 METAR MRLM 112300Z 22006KT CAVOK 24/21 A2982 RMK HZY=
200701120000 METAR MRLM 120000Z 21005KT CAVOK 23/21 A2983 RMK DZ DST SW W LEVE HZY=
200701120100 METAR MRLM NIL=
200701120200 METAR MRLM NIL=
200701120300 METAR MRLM NIL=
200701120400 METAR MRLM NIL=
200701120700 METAR MRLM NIL=
200701120800 METAR MRLM NIL=
200701120900 METAR MRLM NIL=
200701121000 METAR MRLM NIL=
200701121100 METAR MRLM NIL=
200701121200 METAR MRLM NIL=
200701121300 METAR MRLM 121300Z 21004KT 7000 DZ SCT025 SCT080 21/20 A2985 RERA RMK RN ARND=
200701121400 METAR MRLM 121400Z 22005KT 6000 +DZ BKN045 SCT080 22/21 A2987 RMK RN ARND=
200701121500 METAR MRLM 121500Z 19005KT 9999 -DZ BKN028 SCT080 23/22 A2988 RMK RN ARND=
200701121600 METAR MRLM 121600Z 19009KT 9999 SCT028 SCT080 24/22 A2988 REDZ RMK RN DST ARND=
200701121700 METAR MRLM 121700Z 17007KT 9999 BKN030 28/23 A2987 RMK RN DST ARND=
200701121800 METAR MRLM 121800Z 10009KT 9999 SCT030 SCT080 28/23 A2986 RMK RN DST ARND=
200701121900 METAR MRLM 121900Z 13004KT 9999 SCT026 SCT080 30/23 A2983 RMK TCU RN DST N E=
200701122000 METAR MRLM 122000Z NIL=
200701122100 METAR MRLM 122100Z 09005KT 9999 SCT026 29/25 A2979 RMK TCU RN N E=
200701122200 METAR MRLM 122200Z 10010KT 9999 FEW025 SCT080 28/23 A2978 RMK HZ ARND=
200701122300 METAR MRLM 122300Z 14003KT 9999 FEW025 27/23 A2979 RMK HZ ARND=
200701130000 METAR MRLM 130000Z 17003KT 9999 3000NW HZ FEW025 25/23 A2999 RMK HZ ARND=
200701130100 METAR MRLM NIL=
200701130200 METAR MRLM NIL=
200701130300 METAR MRLM NIL=
200701130400 METAR MRLM NIL=
200701130500 METAR MRLM NIL=
200701130600 METAR MRLM NIL=
200701130700 METAR MRLM NIL=
200701130800 METAR MRLM NIL=
200701130900 METAR MRLM NIL=
200701131000 METAR MRLM NIL=
200701131100 METAR MRLM NIL=
200701131200 METAR MRLM 131200Z 21003KT 9999 SCT024 SCT030 22/21 A2979 RERA RMK RN HZ ARND=
200701131300 METAR MRLM 131300Z 24004KT 9999 SCT022 BKN080 23/22 A2982 RMK RN HZ ARND=
200701131400 METAR MRLM 131400Z 19003KT 9999 SCT024 SCT080 24/23 A2984 RMK RN HZ ARND=
200701131500 METAR MRLM 131500Z 18007KT 9999 FEW030 SCT080 27/22 A2984 RMK HZ ARND=
200701131600 METAR MRLM 131600Z 10007KT 9999 BKN030 SCT080 29/23 A2985 RMK RN HZ DST ARND=
200701131700 METAR MRLM 131700Z 10010KT 9999 BKN028 SCT080 28/23 A2983 REDZ RMK RN DST E SE S HZ ARND=
200701131800 METAR MRLM 131800Z 05004KT 9999 FEW024 28/23 A2982 RMK HZ ARND=
200701131900 METAR MRLM 131900Z 07005KT 9999 FEW024 29/23 A2979 RMK HZ ARND=
200701132000 METAR MRLM 132000Z NIL=
200701132100 METAR MRLM 132100Z 07007KT 9999 SCT020TCU 29/23 A2976 RASH NW N=
200701132200 METAR MRLM 132200Z 05004KT 9999 SCT024 28/23 A2976=
200701132300 METAR MRLM 132300Z 09004KT 9999 BKN024TCU 28/23 A2977 RMK RN NW N=
200701140000 METAR MRLM 140000Z 36015KT 5000 -DZ BKN015 26/23 A2977 RMK RN HZ ARND=
200701140100 METAR MRLM NIL=
200701140200 METAR MRLM NIL=
200701140300 METAR MRLM NIL=
200701140400 METAR MRLM NIL=
200701140500 METAR MRLM NIL=
200701140600 METAR MRLM NIL=
200701140700 METAR MRLM NIL=
200701140800 METAR MRLM NIL=
200701140900 METAR MRLM NIL=
200701141000 METAR MRLM NIL=
200701141100 METAR MRLM NIL=
200701141200 METAR MRLM NIL=
200701141300 METAR MRLM 141300Z 21005KT 9000 DZ OVC020 23/22 A2982=
200701141400 METAR MRLM 141400Z 24005KT 9999 SCT020 SCT110 24/23 A2984 RMK RN NE=
200701141500 METAR MRLM 141500Z VRB03KT 9999 SCT025 SCT110 25/23 A2985 RMK RN W N E=
200701141600 METAR MRLM 141600Z 07005KT 9999 BKN025 SCT110 27/23 A2985 RMK RN N=
200701141700 METAR MRLM 141700Z 02004KT 9999 BKN025 SCT110 27/23 A2984=
200701141800 METAR MRLM 141800Z 05009KT 9999 DZ BKN018 27/23 A2982 RMK RN ARND=
200701141900 METAR MRLM 141900Z 09002KT 9999 BKN018 SCT110 26/23 A2979 RERA RMK RN ARND=
200701142000 METAR MRLM NIL=
200701142100 METAR MRLM 142100Z 07004KT 9999 BKN025 SCT100 28/24 A2975 RMK RN HZ ARND=
200701142200 METAR MRLM 142200Z 09005KT 9999 OVC025 28/23 A2974 RMK RN HZ ARND=
200701142300 METAR MRLM 142300Z 09007KT 8000 +DZ OVC015 27/24 A2975 RMK RN/HZ ARND=
200701150000 METAR MRLM 150000Z 10006KT 8000 +DZ OVC013 26/24 A2976 RMK RN HZ ARND=
200701150100 METAR MRLM NIL=
200701150200 METAR MRLM NIL=
200701150300 METAR MRLM NIL=
200701150400 METAR MRLM NIL=
200701150500 METAR MRLM NIL=
200701150600 METAR MRLM NIL=
200701150700 METAR MRLM NIL=
200701150800 METAR MRLM NIL=
200701150900 METAR MRLM NIL=
200701151000 METAR MRLM NIL=
200701151100 METAR MRLM NIL=
200701151200 METAR MRLM NIL=
200701151300 METAR MRLM 151300Z 19007KT 9999 SCT015 BKN090 22/22 A2980 RMK RN HZ ARND=
200701151400 METAR MRLM 151400Z 20006KT 9999 OVC015 24/22 A2984 RMK RN HZ ARND=
200701151500 METAR MRLM 151500Z 19005KT 9999 SCT025 SCT110 27/23 A2985 RMK HZ ARND RN DIST N /E=
200701151600 METAR MRLM 151600Z 18004KT 9999 BKN025 28/23 A2984 RMK N/ E HZY=
200701151700 METAR MRLM 151700Z 09013KT 3000 +RA OVC020 25/24 A2984=
200701151800 METAR MRLM 151800Z 20007KT 9999 DZ FEW006 SCT015 BKN100 24/23 A2983 RMK RN/HZ ARND=
200701151900 METAR MRLM 151900Z 26005KT 9999 +DZ FEW006 BKN015 25/23 A2980 RMK RN/HZ ARND=
200701152000 METAR MRLM 252000Z NIL=
200701152100 METAR MRLM 152100Z VRB03KT 9999 FEW030 BKN090 29/23 A2975 RMK DST N/E/S HZY=
200701152200 METAR MRLM 152200Z 02004KT 9999 FEW025 SCT110 28/23 A2975 RMK RN DST QUADRANTE N HZY=
200701152300 METAR MRLM 152300Z 04006KT 9999 FEW020 BKN090 27/23 A2976 RMK RN QUADRATES N/E HZY=
200701160000 METAR MRLM 160000Z 03005KT 9999 SCT035 BKN090 27/23 A2977 RMK RN QUADRANTES N/E HZY=
200701160100 METAR MRLM NIL=
200701160200 METAR MRLM NIL=
200701160300 METAR MRLM NIL=
200701160400 METAR MRLM NIL=
200701160500 METAR MRLM NIL=
200701160600 METAR MRLM NIL=
200701160700 METAR MRLM NIL=
200701160800 METAR MRLM NIL=
200701160900 METAR MRLM NIL=
200701161000 METAR MRLM NIL=
200701161100 METAR MRLM NIL=
200701161200 METAR MRLM 161200Z 21005KT 9999 FEW024TCU SCT080 22/22 A2979 TCU/RN/NW N NE E=
200701161300 METAR MRLM 161300Z 19005KT 9999 BKN024 SCT080 23/22 A2982 RMK RN ARND=
200701161400 METAR MRLM 161400Z 19004KT 3000 NW -RA BKN023 23/22 A2986=
200701161500 METAR MRLM 161500Z 19005KT 4000 -RA BKN024 23/23 A2987=
200701161600 METAR MRLM 161600Z 20004KT 9999 BKN024 25/24 A2987 RERA RMK RN ARND=
200701161700 METAR MRLM 161700Z 19009KT 9999 -DZ SCT024 SCT080 25/23 A2986 RMK RN ARND=
200701161800 METAR MRLM 161800Z 21004KT 9999 SCT024 BKN080 26/23 A2984 REDZ RMK RN DST ARND=
200701161900 METAR MRLM 161900Z 21007KT 9999 SCT024 BKN080 29/23 A2982 RMK RN DST ARND=
200701162000 METAR MRLM NIL=
200701162100 METAR MRLM 162100Z 01005KT 9999 SCT024 SCT080 28/23 A2977 RMK RN HZ ARND=
200701162200 METAR MRLM 162200Z 13005KT 8000 +DZ BKN020 SCT080 24/23 A2979 RMK RN ARND=
200701162300 METAR MRLM 162300Z 20006KT 9999 SCT030 BKN090 23/22 A2979 RERA RMK RN ARND=
200701170000 METAR MRLM 170000Z 21004KT 8000 VCSH BKN024 SCT080 23/22 A2980 RMK RN HZ ARND=
200701170100 METAR MRLM NIL=
200701170200 METAR MRLM NIL=
200701170300 METAR MRLM NIL=
200701170400 METAR MRLM NIL=
200701170500 METAR MRLM NIL=
200701170600 METAR MRLM NIL=
200701170700 METAR MRLM NIL=
200701170800 METAR MRLM NIL=
200701170900 METAR MRLM NIL=
200701171000 METAR MRLM NIL=
200701171100 METAR MRLM NIL=
200701171200 METAR MRLM 171200Z 19006KT 7000 DZ SCT022 BKN030 23/22 A2985 RMK RERA RN ARND=
200701171300 METAR MRLM 171300Z 20007KT 7000 DZ FEW015 BKN028 22/22 A2987 RMK RN ARND=
200701171400 METAR MRLM 171400Z 21005KT BKN030 SCT080 23/22 A2989 REDZ RMK RN HZ ARND=
200701171500 METAR MRLM 171500Z 19005KT 9999 -DZ SCT028 SCT080 25/22 A2991 RMK RN DST ARND=
200701171600 METAR MRLM 171600Z 19004KT 9999 BKN028 27/23 A2991 REDZ RMK RN HZ DST ARND=
200701171700 METAR MRLM 171700Z 06003KT 9999 BKN026 SCT080 30/24 A2990 RMK RN DST HZ ARND=
200701171800 METAR MRLM 171800Z 08008KT 9999 -DZ BKN 026 SCT080 28/23 AA2989 RMK RN DST HZ ARND=
200701171900 METAR MRLM 171900Z 05005KT 9999 BKN028 SCT080 26/23 A2987 RMK RERA RN HA ARND=
200701172000 METAR MRLM NIL=
200701172100 METAR MRLM 172100Z 25004KT 9999 SCT028 SCT080 25/23 A2984 RMK RN DST HZ ARND=
200701172200 METAR MRLM 172200Z 23003KT 9999 SCT028 SCT090 28/24 A2984 RMK HZ ARND=
200701172300 METAR MRLM 172300Z 17003KT 9999 SCT020 SCT080 28/24 A2984 RMK RN DST HZ ARND=
200701180000 METAR MRLM 180000Z 11003KT 8000 VCSH BKN025 SCT080 28/24 A2984 RERA RMK RN ARND=
200701180100 METAR MRLM NIL=
200701180200 METAR MRLM NIL=
200701180300 METAR MRLM NIL=
200701180400 METAR MRLM NIL=
200701180500 METAR MRLM NIL=
200701180600 METAR MRLM NIL=
200701180700 METAR MRLM NIL=
200701180800 METAR MRLM NIL=
200701180900 METAR MRLM NIL=
200701181000 METAR MRLM NIL=
200701181100 METAR MRLM NIL=
200701181200 METAR MRLM 181200Z NIL=
200701181300 METAR MRLM 181300Z 28004KT 9999 DZ OVC015 22/21 A2991 RMK RN/HZ ARND=
200701181400 METAR MRLM 181400Z 21004KT 9999 DZ OVC015 23/22 A2994 RMK HZ RN ARND=
200701181500 METAR MRLM 181500Z 19008KT 9999 DZ FEW005 BKN015 23/21 A2995 RMK 8000 N DUE RN HZ ARND=
200701181600 METAR MRLM 181600Z 22005KT 9000 DZ HZ BKN015 24/22 A2995 RMK RN ARND=
200701181700 METAR MRLM 181700Z 20009KT 9000 RN HZ OVC015 23/22 A2994=
200701181800 METAR MRLM 181800Z 21007KT 9999 FEW005 BKN015 23/21 A2992 RMK RN HZ ARND=
200701181900 METAR MRLM 181900Z 19007KT 9999 +DZ BKN015 SCT090 23/22 A2990 RMK 7000 N DUE HZ RN=
200701182000 METAR MRLM 182000Z 25005KT 9999 -DZ BKN012 SCT090 24/22 A2987 RMK RN HZ ARND=
200701182100 METAR MRLM 182100Z 22006KT 9999 BKN015 SCT090 25/22 A2985 RMK RN ARND=
200701182200 METAR MRLM NIL=
200701182300 METAR MRLM 182300Z 20005KT 9999 SCT015 SCT100 24/22 A2985 RMK RN SW W=
200701190000 METAR MRLM 190000Z 21006KT 9999 FEW012 SCT140 23/21 A2985=
200701190100 METAR MRLM NIL=
200701190200 METAR MRLM NIL=
200701190300 METAR MRLM NIL=
200701190400 METAR MRLM NIL=
200701190500 METAR MRLM NIL=
200701190600 METAR MRLM NIL=
200701190700 METAR MRLM NIL=
200701190800 METAR MRLM NIL=
200701190900 METAR MRLM NIL=
200701191000 METAR MRLM NIL=
200701191100 METAR MRLM NIL=
200701191200 METAR MRLM NIL=
200701191300 METAR MRLM 191300Z 21006KT 9999 SCT015 SCT090 22/20 A2988 RMK RN ARND=
200701191400 METAR MRLM 191400Z 20005KT 9999 OVC018 23/21 A2991 RMK RN ARND=
200701191500 METAR MRLM 191500Z 21004KT 9999 BKN015 SCT090 24/21 A2993 RMK RN ARND=
200701191600 METAR MRLM 191600Z 18007KT 9999 SCT020 BKN090 25/21 A2993 RMK RN S=
200701191700 METAR MRLM 191700Z 20008KT 9999 FEW025 BKN090 27/21 A2992 RMK RN S=
200701191800 METAR MRLM 191800Z 18004KT 9999 FEW030 BKN100 28/22 A2990=
200701191900 METAR MRLM 191900Z 16002KT 9999 SCT032 SCT110 28/22 A2987=
200701192000 METAR MRLM NIL=
200701192100 METAR MRLM 192100Z 01007KT 9999 SCT030 28/22 A2982 RMK LGT HZ ARND=
200701192200 METAR MRLM 192200Z 36007KT 9999 FEW028 BKN090 28/22 A2982=
200701192300 METAR MRLM 192300Z 36007KT 9999 SCT025 BKN090 27/22 A2982 RMK RN N/CB DST S HZY=
200701200000 METAR MRLM 200000Z 21002KT 9999 FEW012 BKN100 25/22 A2982 RMK RN N QD CB DST S HZ ARND=
200701200100 METAR MRLM NIL=
200701200200 METAR MRLM NIL=
200701200300 METAR MRLM NIL=
200701200400 METAR MRLM NIL=
200701200500 METAR MRLM NIL=
200701200600 METAR MRLM NIL=
200701200700 METAR MRLM NIL=
200701200800 METAR MRLM NIL=
200701200900 METAR MRLM NIL=
200701201000 METAR MRLM NIL=
200701201100 METAR MRLM NIL=
200701201200 METAR MRLM NIL=
200701201300 METAR MRLM 201300Z 24005KT 9999 SCT026 SCT080 22/21 A2985 RMK RN DIST ARND=
200701201400 METAR MRLM 201400Z 25007KT 9999 DZ BKN028 SCT080 22/21 A2988 RMK RN ARND=
200701201500 METAR MRLM 201500Z 17004KT 9999 DZ BKN025 SCT080 23/22 A2991 RMK RN ARND=
200701201600 METAR MRLM 201600Z 19005KT 9999 FEW025 BKN090 24/22 A2991 RMK REDZ RN DST SW W NW=
200701201700 METAR MRLM 201700Z 20005KT 9999 FEW025 BKN090 27/22 A2990 RMK RN DST NW=
200701201800 METAR MRLM 201800Z 20007KT 9999 FEW025 BKN090 29/22 A2986 RMK RN DST N NE=
200701201900 METAR MRLM 201900Z 04004KT 9999 FEW025 BKN090 30/22 A2984 RMK RN DST N NE=
200701202000 METAR MRLM 202000Z NIL=
200701202100 METAR MRLM 202100Z 35009KT 9999 FEW028 BKN090 28/20 A2980 RMK RN DST WNW/E/SW=
200701202200 METAR MRLM 202200Z 36005KT 9999 FEW028 BKN090 27/22 A2979=
200701202300 METAR MRLM 202300Z 01008KT 9999 FEW028 SCT090 27/22 A2980 RMK RN DST N=
200701210000 METAR MRLM NIL=
200701210100 METAR MRLM NIL=
200701210200 METAR MRLM NIL=
200701210300 METAR MRLM NIL=
200701210400 METAR MRLM NIL=
200701210500 METAR MRLM NIL=
200701210600 METAR MRLM NIL=
200701210700 METAR MRLM NIL=
200701210800 METAR MRLM NIL=
200701210900 METAR MRLM NIL=
200701211000 METAR MRLM NIL=
200701211100 METAR MRLM NIL=
200701211200 METAR MRLM 211200Z 21004KT CAVOK 20/20 A2983=
200701211300 METAR MRLM 211300Z 21005KT CAVOK 21/20 A2984 RMK HZY=
200701211400 METAR MRLM 211400Z 20005KT CAVOK 25/22 A2987 RMK BKN260 HZY=
200701211500 METAR MRLM 211500Z 08004KT 9999 FEW025 BKN260 28/22 A2989 RMK HZY=
200701211600 METAR MRLM 211600Z 06005KT 9999 FEW025 BKN250 28/22 A2989 RMK HZY=
200701211700 METAR MRLM 211700Z 08006KT 9999 FEW025 SCT250 28/23 A2988 RMK LGT HZ ARND=
200701211800 METAR MRLM 211800Z 05007KT 9999 FEW025 SCT250 28/22 A2986 RMK HZY=
200701211900 METAR MRLM 211900Z 06005KT 9999 FEW025 SCT250 28/22 A2984=
200701212000 METAR MRLM 212000Z NIL=
200701212100 METAR MRLM 212100Z 06006KT 9999 FEW025 SCT090 28/23 A2980 RMK LEVE HZY=
200701212200 METAR MRLM 212200Z 07004KT 9999 FEW025 SCT090 28/23 A2980 RMK LEVE HZY=
200701212300 METAR MRLM 212300Z 05004KT 9999 FEW028 SCT090 28/22 A2980 RMK LEVE HZY=
200701220000 METAR MRLM 220000Z 00000KT 9999 FEW025 SCT090 25/22 A2980 RMK HZY=
200701220100 METAR MRLM NIL=
200701220200 METAR MRLM NIL=
200701220300 METAR MRLM NIL=
200701220400 METAR MRLM NIL=
200701220500 METAR MRLM NIL=
200701220600 METAR MRLM NIL=
200701220700 METAR MRLM NIL=
200701220800 METAR MRLM NIL=
200701220900 METAR MRLM NIL=
200701221000 METAR MRLM NIL=
200701221100 METAR MRLM NIL=
200701221200 METAR MRLM NIL=
200701221300 METAR MRLM NIL=
200701221400 METAR MRLM NIL=
200701221500 METAR MRLM 221500Z 21007KT 9999 SCT015 BKN100 25/22 A2985 RMK DZ DST SE LEVE HZY=
200701221600 METAR MRLM 221600Z 14002KT 9999 FEW025 OVC090 27/22 A2985 RMK LEVE HZY=
200701221700 METAR MRLM 221700Z VRB03KT 9999 FEW025 OVC090 27/22 A2984 RMK DZ DST SW W LEVE HZY=
200701221800 METAR MRLM 221800Z 06005KT CAVOK 27/22 A2982 RMK HZY=
200701221900 METAR MRLM 221900Z VRB03KT 9999 FEW025 OVC090 28/23 A2979 RMK LEVE HZ Y=
200701222000 METAR MRLM 222000Z NIL=
200701222100 METAR MRLM 222100Z 03006KT 9999 FEW028 BKN090 28/23 A2975 RMK HZ ARND=
200701222200 METAR MRLM 222200Z 03008KT CAVOK 28/23 A2974 RMK HZ ARND=
200701222300 METAR MRLM 222300Z 03006KT CAVOK 28/23 A2975 RMK CB DST S HZ ARND=
200701230000 METAR MRLM 230000Z 03006KT CAVOK 27/22 A2976=
200701230100 METAR MRLM NIL=
200701230200 METAR MRLM NIL=
200701230300 METAR MRLM NIL=
200701230400 METAR MRLM NIL=
200701230500 METAR MRLM NIL=
200701230600 METAR MRLM NIL=
200701230700 METAR MRLM NIL=
200701230800 METAR MRLM NIL=
200701230900 METAR MRLM NIL=
200701231000 METAR MRLM NIL=
200701231100 METAR MRLM NIL=
200701231200 METAR MRLM 231200Z NIL=
200701231300 METAR MRLM 231300Z VRB03KT 9999 FEW015 SCT025 BKN100 A2977 RMK RN N E HZ ARND=
200701231400 METAR MRLM 231400Z VRB03KT 4000 RA SCT015 OVC090 24/22 A2981 RMK RN HZ ARND=
200701231500 METAR MRLM 231500Z 35004KT 3000 RA SCT015 OVC090 24/23 A2982=
200701231600 METAR MRLM 231600Z 20004KT 9999 FEW005 BKN025 24/24 A2981 RERA RMK RN HZ ARND=
200701231700 METAR MRLM 231700Z 18006KT 9999 FEW010 SCT035 BKN090 25/23 A2980 RMK DZ HZ ARND=
200701231800 METAR MRLM 231800Z 21005KT 9999 SCT020 SCT090 27/23 A2978 RMK RN HZ ARND=
200701231900 METAR MRLM 231900Z 18007KT 9999 SCT020 SCT090 27/23 A2976 RMK DZ SE S SW W HZ ARND=
200701232000 METAR MRLM NIL=
200701232100 METAR MRLM 232100Z VRB03KT 9999 BKN028 SCT090 29/23 A2972=
200701232200 METAR MRLM 232200Z 08009KT 9999 BKN015 26/24 A2972 RMK RN ARND=
200701232300 METAR MRLM 232300Z 16006KT 9999 BKN015 25/23 A2973 RMK RN ARND=
200701240000 METAR MRLM 240000Z 19004KT 9999 +DZ SCT010 BKN090 24/23 A2973 RMK HZ ARND=
200701240100 METAR MRLM NIL=
200701240200 METAR MRLM NIL=
200701240300 METAR MRLM NIL=
200701240400 METAR MRLM NIL=
200701240500 METAR MRLM NIL=
200701240600 METAR MRLM NIL=
200701240800 METAR MRLM NIL=
200701240900 METAR MRLM NIL=
200701241000 METAR MRLM NIL=
200701241100 METAR MRLM NIL=
200701241200 METAR MRLM 241200Z 20004KT CAVOK 22/21 A2975 RMK HZY=
200701241300 METAR MRLM 241300Z 00000KT CAVOK 23/22 A2978=
200701241400 METAR MRLM 241400Z 00000KT CAVOK 26/22 A2980=
200701241500 METAR MRLM 241500Z 02003KT CAVOK 27/22 A2983=
200701241600 METAR MRLM 241600Z 36006KT 9999 FEW030 SCT090 28/23 A2983=
200701241700 METAR MRLM 241700Z 01007KT 9999 FEW030 SCT090 29/24 A2982 RMK RN NE=
200701241800 METAR MRLM 241800Z 01010KT 9999 FEW028 BKN080 28/23 A2981 RMK RN N NE SW=
200701241900 METAR MRLM 241900Z 01011KT 9999 FEW025 BKN080 27/24 A2980 RMK RN ARND=
200701242000 METAR MRLM NIL=
200701242100 METAR MRLM 242100Z 36005KT 9999 FEW025 BKN090 28/22 A2976 RM RN DST NW N NE HZ ARND=
200701242200 METAR MRLM 242200Z 35008KT 9999 BKN026 SCT080 27/23 A2976 RMK RN NW N NE E HZY=
200701242300 METAR MRLM 242300Z 03014KT 9999 BKN028 SCT080 25/23 A2977 RMK RN DST ARND=
200701250000 METAR MRLM 250000Z 04011KT 9999 FEW025 SCT030 25/22 A2978 RMK RN DST ARND=
200701250100 METAR MRLM NIL=
200701250200 METAR MRLM NIL=
200701250300 METAR MRLM NIL=
200701250400 METAR MRLM NIL=
200701250500 METAR MRLM NIL=
200701250600 METAR MRLM NIL=
200701250700 METAR MRLM NIL=
200701250800 METAR MRLM NIL=
200701250900 METAR MRLM NIL=
200701251000 METAR MRLM NIL=
200701251100 METAR MRLM NIL=
200701251200 METAR MRLM 251200Z 00000KT 9999 FEW028 BKN050 23/22 A2980 RMKRN SE SW W=
200701251300 METAR MRLM NIL=
200701251400 METAR MRLM 251400Z 20003KT 9999 FEW030 BKN090 24/23 A2984=
200701251500 METAR MRLM 251500Z 24003KT 9999 FEW028 BKN090 26/23 A2986=
200701251600 METAR MRLM 251600Z 26005KT 9999 FEW028 BKN090 27/22 A2987=
200701251700 METAR MRLM 251700Z 29006KT 9999 FEW026 BKN090 28/22 A2986=
200701251800 METAR MRLM 251800Z 26006KT 9999 SCT026TCU SCT090 28/23 A2984 RMK RN DST NE E HZY=
200701251900 METAR MRLM 251900Z 35010KT 9999 FEW026 SCT090 29/23 A2980=
200701252000 METAR MRLM NIL=
200701252100 METAR MRLM 252100Z 32009KT 9999 FEW026 BKN090 28/23 A2977 RMK HZY=
200701252200 METAR MRLM 252200Z 33010KT 9999 FEW026 BKN090 28/23 A2977 RMK RN DST=
200701252300 METAR MRLM 252300Z 33006KT 9999 FEW026 SCT090 27/24 A2978 RMK RN DST S/SW/W/NW HZY=
200701260000 METAR MRLM 260000Z 33006KT 9999 FEW024 SCT030 27/24 A2980 RN DST ARND HZY=
200701260100 METAR MRLM NIL=
200701260200 METAR MRLM NIL=
200701260300 METAR MRLM NIL=
200701260400 METAR MRLM NIL=
200701260500 METAR MRLM NIL=
200701260600 METAR MRLM NIL=
200701260700 METAR MRLM NIL=
200701260800 METAR MRLM NIL=
200701260900 METAR MRLM NIL=
200701261000 METAR MRLM NIL=
200701261100 METAR MRLM NIL=
200701261200 METAR MRLM NIL=
200701261300 METAR MRLM 261300Z 19007KT 9999 BKN020 SCT100 22/21 A2988 RMK RN/HZ ARND=
200701261400 METAR MRLM 261400Z 21007KT 9999 FEW015 SCT090 BKN110 23/20 A2990 RMK RN QUADRANTES E/S/W=
200701261500 METAR MRLM 261500Z 18008KT 9999 FEW015 SCT090 BKN110 24/21 A2991 RMK RN QUADRANTRES E/S LGT HZ ARND=
200701261600 METAR MRLM 261600Z 18004KT 9999 FEW015 BKN090 26/22 A2991 RMK RN QUADRANTES N/E=
200701261700 METAR MRLM 261700Z 11006KT 9999 FEW020 BKN090 26/22 A2990 RMK RN QUADRANTE E LGT HZ ARND=
200701261800 METAR MRLM 261800Z 12012KT 9999 FEW018 OVC090 25/22 A2988 RMK RN ARND=
200701261900 METAR MRLM 261900Z 09010KT 5000 RA BKN020 SCT100 25/21 A2987 RMK VIS UNL QUADRANTE W=
200701262000 METAR MRLM 262000Z NIL=
200701262100 METAR MRLM 262100Z 01005KT CAVOK 26/20 A2983 RMK DZ HZ DST ARND=
200701262200 METAR MRLM 262200Z 20006KT CAVOK 25/22 A2982 RMK DZ DST SE=
200701262300 METAR MRLM 262300Z VRB03KT CAVOK 25/22 A2982 RMK LEVE HZY=
200701270000 METAR MRLM 270000Z 20004KT CAVOK 24/22 A2982 RMK HZ LEVE ARND=
200701270100 METAR MRLM NIL=
200701270200 METAR MRLM NIL=
200701270300 METAR MRLM NIL=
200701270400 METAR MRLM NIL=
200701270500 METAR MRLM NIL=
200701270600 METAR MRLM NIL=
200701270800 METAR MRLM NIL=
200701270900 METAR MRLM NIL=
200701271000 METAR MRLM NIL=
200701271100 METAR MRLM NIL=
200701271200 METAR MRLM NIL=
200701271300 METAR MRLM 271300Z 15002KT 9999 BKN020N SCT100 21/20 A2985 RMK RN QUAD N LEVE HZY=
200701271400 METAR MRLM 271400Z VRB03KT 9999 BKN015 SCT100 23/21 A2989 RMK RN DST QUAD N E LEVE HZY=
200701271500 METAR MRLM 271500Z 21004KT 9999 SCT025 SCT080 BKN100 26/22 A2990 RMK RN DST QUAD N E LEVE HZY=
200701271600 METAR MRLM 271600Z 01004KT 9999 FEW022 SCT080 BKN100 27/22 A2990 RMK RN DST E LEVE HZY=
200701271700 METAR MRLM 271700Z VRB03KT 9999 FEW025 OVC090 28/22 A2988 RMK RN DST NE E LEVE HZY=
200701271800 METAR MRLM 271800Z 08008KT 9999 FEW035 BKN100 28/21 A2986 RMK TCU RN DST NE LEVE HZY=
200701271900 METAR MRLM 271900Z 10008KT 9999 FEW025 SCT120 27/22 A2983 RMK RN DST SW LEVE HZY=
200701272000 METAR MRLM 272000Z NIL=
200701272100 METAR MRLM 272100Z 11008KT 9999 FEW030 BKN100 28/22 A2979 RMK RN DST SW HZ ARND=
200701272200 METAR MRLM 272200Z 11004KT 9999 FEW025 SCT080 BKN100 27/21 A2979 RMK HZ ARND=
200701272300 METAR MRLM 272300Z 17002KT CAVOK 27/22 A2979 RMK HZ ARND=
200701280000 METAR MRLM 280000Z 19002KT CAVOK 25/23 A2980=
200701280100 METAR MRLM NIL=
200701280200 METAR MRLM NIL=
200701280300 METAR MRLM NIL=
200701280400 METAR MRLM NIL=
200701280500 METAR MRLM NIL=
200701280700 METAR MRLM NIL=
200701280800 METAR MRLM NIL=
200701280900 METAR MRLM NIL=
200701281000 METAR MRLM NIL=
200701281100 METAR MRLM NIL=
200701281200 METAR MRLM 281200Z 22004KT 9999 SCT035 SCT080 22/21 A2983 RMK HZ ARND=
200701281300 METAR MRLM 281300Z 22004KT 9999 FEW035 BKN080 22/21 A2986 RMK HZ ARND=
200701281400 METAR MRLM 281400Z 23004KT 9999 FEW028 BKN080 24/21 A2989 RMK RN NW N NE HZ ARND=
200701281500 METAR MRLM 281500Z 01010KT 9999 BKN028 SCT080 25/22 A2991 RMK RN DST W NW NW N=
200701281600 METAR MRLM 281600Z 00000KT 9999 SCT028 BKN080 26/22 A2992=
200701281700 METAR MRLM 281700Z 21003KT 9999 FEW028 BKN080 26/22 A2990=
200701281800 METAR MRLM 281800Z 04005KT 9999 FEW028 BKN080 27/22 A2988=
200701281900 METAR MRLM 281900Z 02004KT 9999 FEW025 BKN090 27/22 A2985=
200701282000 METAR MRLM 282000Z NIL=
200701282100 METAR MRLM 282100Z 35004KT 9999 FEW028 BKN090 27/22 A2982 RMK RN S SW W=
200701282200 METAR MRLM 282200Z 00000KT 9999 FEW028 BKN090 27/12 A2981 RMK RN S SW W=
200701282300 METAR MRLM 282300Z 00000KT 9999 FEW028 BKN090 27/22 A2983=
200701290000 METAR MRLM 290000Z 36005KT 9999 FEW025 BKN080 27/21 A2984 RMK RN NW N NE=
200701290100 METAR MRLM NIL=
200701290200 METAR MRLM NIL=
200701290300 METAR MRLM NIL=
200701290400 METAR MRLM NIL=
200701290500 METAR MRLM NIL=
200701290600 METAR MRLM NIL=
200701290700 METAR MRLM NIL=
200701290800 METAR MRLM NIL=
200701290900 METAR MRLM NIL=
200701291000 METAR MRLM NIL=
200701291100 METAR MRLM NIL=
200701291200 METAR MRLM 291200Z 36007KT 9999 SCT025 BKN035 24/22 A2988 RMK RN DST NW N NE=
200701291300 METAR MRLM 291300Z 25004KT 9999 SCT030 BKN080 24/22 A2990 RMK RN NW N NE=
200701291400 METAR MRLM 291400Z 28007KT 9999 FEW030 BKN090 25/22 A2992 RMK RN ARND=
200701291500 METAR MRLM 291500Z 24007KT 9999 SCT030 BKN080 25/22 A2993 RMK RN W NW N NE=
200701291600 METAR MRLM 291600Z 28004KT 9999 SCT025 BKN080 26/22 A2992 RMK RN NW N NE=
200701291700 METAR MRLM 291700Z 35004KT 4000 +DZ SCT024 BKN040 25/22 A2991=
200701291800 METAR MRLM 291800Z 22005KT 4000 -RA SCT022 SCT030 24/23 A2989=
200701291900 METAR MRLM 291900Z 21008KT 4000 -RA BKN022 SCT030 23/23 A2986=
200701292000 METAR MRLM NIL=
200701292100 METAR MRLM 292100Z 21005KT 9999 FEW015 BKN030 24/22 A2981 RERA RN ARND=
200701292200 METAR MRLM 292200Z 23004KT 5000 DZ BKN025 SCT080 23/23 A2981 RMK RN ARND=
200701292300 METAR MRLM 292300Z 22006KT 7000 -DZ BKN026 SCT080 23/22 A2982 RMK RN ARND=
200701300000 METAR MRLM 300000Z 20003KT 3000 -RA BKN026 SCT035 23/22 A2983=
200701300100 METAR MRLM NIL=
200701300200 METAR MRLM NIL=
200701300300 METAR MRLM NIL=
200701300400 METAR MRLM NIL=
200701300500 METAR MRLM NIL=
200701300600 METAR MRLM NIL=
200701300700 METAR MRLM NIL=
200701300800 METAR MRLM NIL=
200701300900 METAR MRLM NIL=
200701301000 METAR MRLM NIL=
200701301200 METAR MRLM NIL=
200701301300 METAR MRLM 301300Z VRB03KT 5000 RA BKN005 SCT025 23/22 A2991=
200701301400 METAR MRLM 301400Z 21010KT 9999 SCT005 SCT030 BKN100 23/22 A2992 RERA RN S/W=
200701301500 METAR MRLM 301500Z 22006KT CAVOK 24/23 A2993 RMK SCT070 BKN100 DZ S=
200701301600 METAR MRLM 301600Z 17007KT CAVOK 28/23 A2992 RMK SCT130=
200701301700 METAR MRLM 301700Z 06004KT 9999 FEW035 SCT090 29/22 A2990 HZY=
200701301800 METAR MRLM 301800Z 04007KT 9999 FEW020 BKN090 28/24 A2988 RMK HZ LGT ARND=
200701301900 METAR MRLM 301900Z 01008KT 9999 FEW025 BKN090 28/23 A2985 RMK RN DST S SW W HZ LGT ARND=
200701302000 METAR MRLM 302000Z NIL=
200701302100 METAR MRLM 302100Z 35006KT 9999 FEW025 OVC090 28/23 A2981 RMK DST SW=
200701302200 METAR MRLM 302200Z 36009KT 9999 FEW020 OVC090 27/23 A2981 RMK RN DST SW=
200701302300 METAR MRLM 302300Z 36008KT 9999 SCT015 SCT090 27/23 A2983 RMK RN DST QUADRANTES N/S=
200701310000 METAR MRLM 310000Z 36005KT 9999 BKN020 27/23 A2984 RMK HZ ARND=
200701310100 METAR MRLM NIL=
200701310200 METAR MRLM NIL=
200701310300 METAR MRLM NIL=
200701310400 METAR MRLM NIL=
200701310500 METAR MRLM NIL=
200701310600 METAR MRLM NIL=
200701310700 METAR MRLM NIL=
200701310800 METAR MRLM NIL=
200701310900 METAR MRLM NIL=
200701311000 METAR MRLM NIL=
200701311100 METAR MRLM NIL=
200701311200 METAR MRLM NIL=
200701311300 METAR MRLM 311300Z 20004KT 9999 FEW015 SCT100 BKN100 22/21 A2984 RMK RN DIST N/NE/E=
200701311400 METAR MRLM 311400Z 00000KT 9999 DZ BKN020 SCT090 23/22 A2987 RMK HZ ARND=
200701311500 METAR MRLM 311500Z VRB03KT 9999 BKN020 SCT110 26/22 A2988 RMK RN W/NW LGT HZ ARND=
200701311600 METAR MRLM 311600Z VRB03KT 9999 FEW020 BKN100 27/24 A2988 RMK LGT HZ ARND=
200701311700 METAR MRLM 311700Z VRB03KT 9999 FEW030 SCT110 28/22 A2987 RMK TCU DST N LGT HZ ARND=
200701311800 METAR MRLM 311800Z 04006KT 9999 FEW028 28/23 A2985 RMK LGT HZ ARND=
200701311900 METAR MRLM 311900Z 04007KT 9999 FEW028 29/23 A2983 RMK LGT HZ ARND=
200701312000 METAR MRLM 312000Z NIL=
200701312100 METAR MRLM 312100Z 03007KT 9999 FEW025 28/23 A2979 LEVE HZY=
200701312200 METAR MRLM 312200Z 03006KT 9999 FEW025 28/23 A2979 RMK LEVE HZY=
200701312300 METAR MRLM 312300Z 02006KT 9999 FEW025 SCT100 28/23 A2979 RMK LEVE HZY=
200702010000 METAR MRLM 010000Z 06002KT 9999 FEW020 BKN100 27/23 A2980 RMK RN DST QUAD N E S HZ LEVE ARND=
200702010100 METAR MRLM NIL=
200702010200 METAR MRLM NIL=
200702010300 METAR MRLM NIL=
200702010400 METAR MRLM NIL=
200702010500 METAR MRLM NIL=
200702010600 METAR MRLM NIL=
200702010700 METAR MRLM NIL=
200702010800 METAR MRLM NIL=
200702010900 METAR MRLM NIL=
200702011000 METAR MRLM NIL=
200702011100 METAR MRLM NIL=
200702011200 METAR MRLM NIL=
200702011300 METAR MRLM 011300Z 17004KT 9999 FEW028 BKN090 23/22 A2981 RMK RN DST N NE E LEVE HZY=
200702011400 METAR MRLM 011400Z 14005KT 9999 FEW028 BKN090 24/23 A2984 RMK RN DST NW SW LEVE HZY=
200702011500 METAR MRLM 011500Z 19006KT 9999 FEW028 BKN090 28/23 A2984 RMK LEVE HZY=
200702011600 METAR MRLM 011600Z 18006KT 9999 FEW028 BKN090 28/23 A2984=
200702011700 METAR MRLM 011700Z 09006KT 9999 FEW028 SCT100 28/23 A2983=
200702011800 METAR MRLM 011800Z 08011KT 9999 FEW025 29/24 A2980=
200702011900 METAR MRLM 011900Z 08014KT 9999 FEW025 29/23 A2977=
200702012000 METAR MRLM 012000Z NIL=
200702012100 METAR MRLM 012100Z 08009KT 9999 FEW025 BKN100 29/23 A2973=
200702012200 METAR MRLM 012200Z 09009KT 9999 FEW025 SCT100 28/23 A2972=
200702012300 METAR MRLM 012300Z NIL=
200702020000 METAR MRLM NIL=
200702020100 METAR MRLM NIL=
200702020200 METAR MRLM NIL=
200702020300 METAR MRLM NIL=
200702020400 METAR MRLM NIL=
200702020500 METAR MRLM NIL=
200702020600 METAR MRLM NIL=
200702020700 METAR MRLM NIL=
200702020800 METAR MRLM NIL=
200702020900 METAR MRLM NIL=
200702021000 METAR MRLM NIL=
200702021100 METAR MRLM NIL=
200702021200 METAR MRLM 021200Z 21005KT 9999 FEW024 SCT045 21/21 A2979 RMK RN DST NW/N/NE=
200702021300 METAR MRLM 021300Z 21004KT 9999 SCT025 22/21 A2981 RMK RN DST W NW NW N HZ ARND=
200702021400 METAR MRLM 021400Z 20003KT 9999 SCT024 25/23 A2984 RMK NW N NE HZ ARND=
200702021500 METAR MRLM 021500Z 02005KT 9999 FEW024 SCT080 27/23 A2985 RMK RN DST N NE HZ ARND=
200702021600 METAR MRLM 021600Z 04003KT 9999 FEW028 28/23 A2985 RMK HZ ARND=
200702021700 METAR MRLM 021700Z 03004KT 9999 FEW028 28/23 A2984 RMK HZ ARND=
200702021800 METAR MRLM 021800Z 23007KT 9999 FEW028 28/24 A2981 RMK HZ ARND=
200702021900 METAR MRLM 021900Z 02007KT 9999 FEW028 28/23 A2979 RMK HZ ARND=
200702022000 METAR MRLM 022000Z NIL=
200702022100 METAR MRLM 022100Z 01009KT 9999 FEW028 28/23 A2976=
200702022200 METAR MRLM 022200Z 36008KT 9999 SCT026 28/23 A2975=
200702022300 METAR MRLM 022300Z 03004KT 9999 BKN028 27/23 A2976=
200702030000 METAR MRLM 030000Z 04004KT 9999 FEW028 SCT300 27/23 A2977=
200702030100 METAR MRLM NIL=
200702030200 METAR MRLM NIL=
200702030300 METAR MRLM NIL=
200702030400 METAR MRLM NIL=
200702030500 METAR MRLM NIL=
200702030600 METAR MRLM NIL=
200702030700 METAR MRLM NIL=
200702030800 METAR MRLM NIL=
200702030900 METAR MRLM NIL=
200702031000 METAR MRLM NIL=
200702031100 METAR MRLM NIL=
200702031300 METAR MRLM 031300Z 21005KT 9999 DZ BKN015 SCT090 23/22 A2985=
200702031400 METAR MRLM 031400Z 20005KT 9999 DZ SCT015 SCT090 23/22 A2987=
200702031500 METAR MRLM 031500Z VRB03KT 9999 FEW015 OVC090 25/23 A2988=
200702031600 METAR MRLM 031600Z 36002KT 9999 FEW020 OVC090 28/23 A2988 RMK RN S SW W=
200702031700 METAR MRLM 031700Z 06004KT 9999 FEW022 BKN090 28/24 A2987 RMK RN SW W=
200702031800 METAR MRLM 031800Z 01005KT 9999 FEW020 SCT090 28/24 A2986 RMK RN S SW W=
200702031900 METAR MRLM 031900Z 02004KT 9999 BKN023 SCT090 28/24 A2983 RMK RN S SW=
200702032000 METAR MRLM NIL=
200702032100 METAR MRLM 032100Z 02004KT 9999 SCT025 SCT090 28/23 A2978 RMK RN DST SW HZ ARND=
200702032200 METAR MRLM 032200Z 35004KT 9999 BKN025 28/23 A2978 RMK HZ ARND=
200702032300 METAR MRLM 032300Z 02002KT 9999 BKN025 27/23 A2978 RMK RN DS SW HZY=
200702040000 METAR MRLM 040000Z 21002KT 9999 FEW010 BKN100 26/24 A2979=
200702040100 METAR MRLM NIL=
200702040200 METAR MRLM NIL=
200702040300 METAR MRLM NIL=
200702040400 METAR MRLM NIL=
200702040500 METAR MRLM NIL=
200702040600 METAR MRLM NIL=
200702040700 METAR MRLM NIL=
200702040800 METAR MRLM NIL=
200702040900 METAR MRLM NIL=
200702041000 METAR MRLM NIL=
200702041100 METAR MRLM NIL=
200702041200 METAR MRLM 041200Z 35006KT 9999 FEW025 29/24 A2981 RMK HZ ARND=
200702041300 METAR MRLM 041300Z 21006KT 9999 SCT020 SCT300 22/22 A2987 RMK HZ ARND=
200702041400 METAR MRLM 041400Z 20007KT 9999 FEW015 BKN030 25/23 A2989=
200702041500 METAR MRLM 041500Z 23002KT 9999 FEW028 BKN090 28/22 A2991 HZY=
200702041600 METAR MRLM 041600Z 04005KT 9999 FEW030 BKN090 29/22 A2992 RMK HZY RN E=
200702041700 METAR MRLM 041700Z 03004KT 9999 FEW030 BKN090 28/23 A2990 HZY=
200702041800 METAR MRLM 041800Z 01004KT 9999 FEW030 29/23 A2988 RMK HZ ARND=
200702041900 METAR MRLM 041900Z 36006KT 9999 FEW028 SCT300 29/23 A2985 HZ ARND=
200702042000 METAR MRLM 042000Z NIL=
200702042100 METAR MRLM NIL=
200702042200 METAR MRLM 042200Z 01005KT 9999 SCT025 29/23 A2981 RMK ARND=
200702042300 METAR MRLM 042300Z 04005KT 9999 SCT025 28/23 A2981 RMK HZ ARND=
200702050000 METAR MRLM 050000Z VRB03KT 9999 FEW025 BKN300 27/23 A2982 RMK HZ ARND=
200702050100 METAR MRLM NIL=
200702050200 METAR MRLM NIL=
200702050300 METAR MRLM NIL=
200702050400 METAR MRLM NIL=
200702050500 METAR MRLM NIL=
200702050600 METAR MRLM NIL=
200702050700 METAR MRLM NIL=
200702050800 METAR MRLM NIL=
200702050900 METAR MRLM NIL=
200702051000 METAR MRLM NIL=
200702051100 METAR MRLM NIL=
200702051200 METAR MRLM NIL=
200702051300 METAR MRLM 051300Z 19006KT 9999 SCT028 SCT080 23/21 A2986 RMK DST W/NW/N/NE HZY=
200702051400 METAR MRLM NIL=
200702051500 METAR MRLM 051500Z 10009KT 9999 FEW025 SCT080 28/22 A2991 RMK TCU/RN DST WNW/NW/N HZY=
200702051600 METAR MRLM 051600Z 10007KT 9999 FEW028 BKN090 29/23 A2992 RMK HZY=
200702051700 METAR MRLM 051700Z 10007KT 9999 FEW028 BKN080 28/23 A2992 RMK HZY=
200702051800 METAR MRLM 051800Z 08016KT 9999 FEW026 29/23 A2989 RMK HSY=
200702051900 METAR MRLM 051900Z 08005KT 9999 FEW025 29/23 A2987 RMK HZY=
200702052000 METAR MRLM 052000Z NIL=
200702052100 METAR MRLM 052100Z 05005KT 9999 FEW025 29/23 A2982 RMK HZY=
200702052200 METAR MRLM 052200Z 02004KT 9999 FEW025 SCT090 28/23 A2981 RMK HZY=
200702052300 METAR MRLM 052300Z 00000KT 9999 FEW025 28/23 A2983 RMK HZY=
200702060000 METAR MRLM 060000Z 00000KT 9999 FEW025 26/24 A2983 RMK HZY=
200702060100 METAR MRLM NIL=
200702060200 METAR MRLM NIL=
200702060300 METAR MRLM NIL=
200702060400 METAR MRLM NIL=
200702060500 METAR MRLM NIL=
200702060600 METAR MRLM NIL=
200702060700 METAR MRLM NIL=
200702060800 METAR MRLM NIL=
200702060900 METAR MRLM NIL=
200702061000 METAR MRLM NIL=
200702061100 METAR MRLM NIL=
200702061200 METAR MRLM 061200Z 19005KT 9999 FEW025 SCT300 21/21 A2989 HZY=
200702061300 METAR MRLM 061300Z 20005KT 9999 FEW025 22/21 A2990 RMK HZY=
200702061400 METAR MRLM 061400Z 00000KT 9999 FEW025 28/23 A2993 RMK RN DST N HZY=
200702061500 METAR MRLM 061500Z 08004KT 9999 FEW025 SCT090 27/24 A2985 RMK RN DST NW N HZY=
200702061600 METAR MRLM 061600Z 06006KT 9999 FEW025 SCT090 28/23 A2996 RMK RN DST N HZY=
200702061700 METAR MRLM 061700Z 06006KT 999 FEW025 SCT090 29/22 A2995 RMK RN DST NW N HZY=
200702061800 METAR MRLM 061800Z 01012KT 9999 FEW025 BKN080 27/24 A2993 RMK RN DST N NE HZY=
200702061900 METAR MRLM 061900Z 02017KT 9999 SCT025 BKN080 27/23 A2991 RMK RN DST N NE HZY=
200702062000 METAR MRLM 062000Z NIL=
200702062100 METAR MRLM 062100Z 01015KT 9999 SCT025 BKN080 29/19 A2985 RMK RN DST E NE SW W SW HZ ARND=
200702062200 METAR MRLM 062200Z 02009KT 9999 SCT025 BKN090 28/22 A2985 RMK RN NE HZ ARND=
200702062300 METAR MRLM 062300Z 01005KT 9999 SCT028 SCT080 27/22 A2986 RMK HZ ARND=
200702070000 METAR MRLM 070000Z 00000KT 9999 SCT028 SCT080 26/23 A2987 RMK HZ ARND=
200702070100 METAR MRLM NIL=
200702070200 METAR MRLM NIL=
200702070300 METAR MRLM NIL=
200702070400 METAR MRLM NIL=
200702070500 METAR MRLM NIL=
200702070600 METAR MRLM NIL=
200702070700 METAR MRLM NIL=
200702070800 METAR MRLM NIL=
200702070900 METAR MRLM NIL=
200702071000 METAR MRLM NIL=
200702071100 METAR MRLM NIL=
200702071200 METAR MRLM NIL=
200702071300 METAR MRLM 071300Z 11014KT 9999 FEW015 BKN070 22/21 A2993 RMK DZ E SE HZ ARND=
200702071400 METAR MRLM 071400Z 18005KT CAVOK 25/22 A2996 RMK RN DST SE HZ ARND=
200702071500 METAR MRLM 071500Z VRB03KT CAVOK 28/22 A2997 RMK HZ ARND=
200702071600 METAR MRLM 071600Z 09007KT CAVOK 28/22 A2996=
200702071700 METAR MRLM 071700Z 08008KT 9999 FEW045 BKN140 29/20 A2995 RMK HZ ARND=
200702071800 METAR MRLM 071800Z 07007KT 9999 FEW040 28/21 A2993=
200702071900 METAR MRLM 071900Z 05008KT 9999 FEW038 28/21 A2989 RMK HZ ARND=
200702072000 METAR MRLM NIL=
200702072100 METAR MRLM 072100Z 03009KT 9999 FEW035 28/21 A2989=
200702072200 METAR MRLM 072200Z 04010KT 9999 FEW040 SCT120 28/21 A2984=
200702072300 METAR MRLM 072300Z 07005KT 9999 FEW040 SCT120 28/20 A2985=
200702080000 METAR MRLM 080000Z VRB03KT 9999 FEW025 BKN120 28/20 A2985=
200702080100 METAR MRLM NIL=
200702080200 METAR MRLM NIL=
200702080300 METAR MRLM NIL=
200702080400 METAR MRLM NIL=
200702080500 METAR MRLM NIL=
200702080600 METAR MRLM NIL=
200702080700 METAR MRLM NIL=
200702080800 METAR MRLM NIL=
200702080900 METAR MRLM NIL=
200702081000 METAR MRLM NIL=
200702081100 METAR MRLM NIL=
200702081200 METAR MRLM 081200Z NIL=
200702081300 METAR MRLM 081300Z 23002KT 9999 BKN020 SCT090 22/19 A2994 RMK RN NW N=
200702081400 METAR MRLM 081400Z 21006KT 9999 FEW015 SCT080 BKN100 24/20 A2996 RMK DZ N=
200702081500 METAR MRLM 081500Z 25004KT 9999 FEW020 BKN090 25/21 A2998 RMK DZ N=
200702081600 METAR MRLM 081600Z 01004KT 9999 FEW030 BKN090 28/22 A2998 RMK DZ N=
200702081700 METAR MRLM 081700Z 36008KT 9999 FEW040 BKN100 28/20 A2997=
200702081800 METAR MRLM 081800Z 33009KT 9999 FEW040 SCT110 29/20 A2994=
200702081900 METAR MRLM 081900Z 35010KT 9999 FEW035 29/22 A2991 RMK RN SW=
200702082000 METAR MRLM 082000Z NIL=
200702082100 METAR MRLM 082100Z 35008KT 9999 FEW035 28/21 A2987 RMK RN DST SW LGT HZ ARND=
200702082200 METAR MRLM 082200Z 35008KT 9999 FEW035 28/21 A2988 RMK RN DST SW HZY=
200702082300 METAR MRLM 082300Z 33007KT 9999 SCT030 BKN090 27/21 A2988 RMK RN DST AW LGT HZ ARND=
200702090000 METAR MRLM 090000Z VRB03KT 9999 SCT025 BKN090 26/22 A2990 RMK RN DST SW LGT HZ ARND=
200702090100 METAR MRLM NIL=
200702090200 METAR MRLM NIL=
200702090300 METAR MRLM NIL=
200702090400 METAR MRLM NIL=
200702090500 METAR MRLM NIL=
200702090600 METAR MRLM NIL=
200702090700 METAR MRLM NIL=
200702090800 METAR MRLM NIL=
200702090900 METAR MRLM NIL=
200702091000 METAR MRLM NIL=
200702091100 METAR MRLM NIL=
200702091200 METAR MRLM 091200Z 21003KT 9999 FEW040 21/20 A2993 HZ ARND=
200702091300 METAR MRLM 091300Z 20005KT CAVOK 22/21 A2994 RMK FEW090 HZY=
200702091400 METAR MRLM 091400Z 18004KT CAVOK 26/22 A2977 RMK FEW100 HZY=
200702091500 METAR MRLM 091500Z 07004KT CAVOK 27/21 A2998 HZY=
200702091600 METAR MRLM 091600Z 05005KT 9999 FEW030 28/22 A2998 HZY=
200702091700 METAR MRLM 091700Z 03006KT 9999 FEW030 SCT300 28/22 A2996=
200702091800 METAR MRLM 091800Z 02007KT 9999 FEW030 28/22 A2995=
200702091900 METAR MRLM 091900Z 36004KT 9999 FEW030 28/22 A2992=
200702092000 METAR MRLM 092000Z NIL=
200702092100 METAR MRLM 092100Z 02006KT 9999 FEW030 28/22 A2989=
200702092200 METAR MRLM 092200Z 03009KT 9999 SCT030 28/22 A2989=
200702092300 METAR MRLM 092300Z 04006KT 9999 SCT030 28/23 A2990=
200702100000 METAR MRLM 100000Z 04005KT 9999 SCT030 27/22 A2990 RMK HZY=
200702100100 METAR MRLM NIL=
200702100200 METAR MRLM NIL=
200702100300 METAR MRLM NIL=
200702100400 METAR MRLM NIL=
200702100500 METAR MRLM NIL=
200702100600 METAR MRLM NIL=
200702100700 METAR MRLM NIL=
200702100800 METAR MRLM NIL=
200702100900 METAR MRLM NIL=
200702101000 METAR MRLM NIL=
200702101100 METAR MRLM NIL=
200702101200 METAR MRLM NIL=
200702101300 METAR MRLM 101300Z 00000KT 9999 FEW030 BKN080 20/19 A2996 RMK RN DST NW/N/NE HZ LGT ARND=
200702101400 METAR MRLM 101400Z 21004KT 9999 FEW028 BKN090 22/20 A2998=
200702101500 METAR MRLM 101500Z 22004KT 9999 FEW028 BKN080 25/21 A2999 RMK RN DST=
200702101600 METAR MRLM 101600Z 03004KT 9999 FEW028 BKN080 27/21 A3000 RMK RN DST=
200702101700 METAR MRLM 101700Z 09008KT 9999 FEW028 BKN080 28/22 A2998 RMK HZ LGT ARND=
200702101800 METAR MRLM 101800Z 09007KT 9999 FEW025 BKN090 28/21 A2996 RMK HZ LGT ARND=
200702101900 METAR MRLM 101900Z 06007KT 9999 FEW025 SCT090 28/22 A2994 RMK HZ LGT ARND=
200702102000 METAR MRLM 102000Z NIL=
200702102100 METAR MRLM 102100Z 06007KT 9999 FEW025 SCT100 28/22 A2990 RMK HZY=
200702102200 METAR MRLM 102200Z 05007KT 9999 FEW025 28/23 A2988 RMK RN DST SW HZY=
200702102300 METAR MRLM 102300Z 08006KT 9999 SCT028 SCT080 27/22 A2989 RMK S SSW SW W LEVE HZY=
200702110000 METAR MRLM 110000Z 04007KT 9999 SCT028 27/22 A2989 RMK RN DST SE S SW W HZY=
200702110100 METAR MRLM NIL=
200702110200 METAR MRLM NIL=
200702110300 METAR MRLM NIL=
200702110400 METAR MRLM NIL=
200702110500 METAR MRLM NIL=
200702110600 METAR MRLM NIL=
200702110700 METAR MRLM NIL=
200702110800 METAR MRLM NIL=
200702110900 METAR MRLM NIL=
200702111000 METAR MRLM NIL=
200702111100 METAR MRLM NIL=
200702111200 METAR MRLM NIL=
200702111300 METAR MRLM 111300Z VRB03KT CAVOK 23/21 A2984 RMK LEVE HZY=
200702111400 METAR MRLM 111400Z VRB03KT CAVOK 26/22 A2997 RMK LEVE HZY=
200702111500 METAR MRLM 111500Z 08005KT CAVOK 28/22 A2998 RMK LEVE HZY=
200702111600 METAR MRLM 111600Z 08005KT CAVOK 29/21 A2997 RMK LEVE HZY=
200702111700 METAR MRLM 111700Z 05006KT CAVOK 29/21 A2994 RMK LEVE HZY=
200702111800 METAR MRLM 111800Z 05010KT 9999 FEW040 30/22 A2992 RMK LEVE HZY=
200702111900 METAR MRLM 111900Z 05010KT 9999 FEW045 29/21 A2989 RMK LEVE HZY=
200702112000 METAR MRLM 112000Z NIL=
200702112100 METAR MRLM 112100Z 05008KT 9999 FEW045 SCT120 29/22 A2986=
200702112200 METAR MRLM 112200Z 07006KT 9999 BKN030 29/22 A2986=
200702112300 METAR MRLM 112300Z 09004KT 9999 BKN028 SCT090 27/22 A2987 RMK HZ ARND=
200702120000 METAR MRLM 120000Z 08007KT 9999 SCT020 BKN110 27/23 A2987=
200702120200 METAR MRLM NIL=
200702120300 METAR MRLM NIL=
200702120400 METAR MRLM NIL=
200702120500 METAR MRLM NIL=
200702120600 METAR MRLM NIL=
200702120700 METAR MRLM NIL=
200702120800 METAR MRLM NIL=
200702120900 METAR MRLM NIL=
200702121000 METAR MRLM NIL=
200702121100 METAR MRLM NIL=
200702121200 METAR MRLM NIL=
200702121300 METAR MRLM 121300Z VRB03KT 9999 FEW015 SCT110 23/21 A2991 RMK RN DST NW HZ ARND=
200702121400 METAR MRLM 121400Z VRB03KT 9999 FEW022 BKN100 26/22 A2994 RMK HZ ARND=
200702121500 METAR MRLM 121500Z VRB03KT 9999 FEW030 26/23 A2995 RMK HZ ARND=
200702121600 METAR MRLM 121600Z 08005KT 9999 SCT030 SCT090 29/22 A2995 RMK HZ ARND=
200702121700 METAR MRLM 121700Z 05005KT 9999 SCT028 29/23 A2992 RMK HZ ARND=
200702121800 METAR MRLM 121800Z 06007KT 9999 FEW030 29/23 A2990 RMK HZ ARND=
200702121900 METAR MRLM 121900Z 05006KT 9999 FEW030 29/23 A2986=
200702122000 METAR MRLM 122000Z NIL=
200702122100 METAR MRLM 122100Z 03009KT 9999 BKN025 29/24 A2982=
200702122200 METAR MRLM 122200Z 05008KT 9999 BKN025 29/24 A2982=
200702122300 METAR MRLM 122300Z 06006KT 9999 BKN025 28/23 A2982 RMK RN SW=
200702130000 METAR MRLM 130000Z 06006KT 9999 BKN025 28/22 A2983 RMK RN DST S SW=
200702130100 METAR MRLM 130100Z NIL=
200702130200 METAR MRLM NIL=
200702130300 METAR MRLM NIL=
200702130400 METAR MRLM NIL=
200702130600 METAR MRLM NIL=
200702130700 METAR MRLM NIL=
200702130800 METAR MRLM NIL=
200702130900 METAR MRLM NIL=
200702131000 METAR MRLM NIL=
200702131100 METAR MRLM NIL=
200702131200 METAR MRLM NIL=
200702131300 METAR MRLM 131300Z 21004KT 9999 FEW028 22/21 A2987=
200702131400 METAR MRLM 131400Z 21004KT 9999 FEW028 26/23 A2990=
200702131500 METAR MRLM 131500Z 05003KT 9999 FEW028 28/22 A2992=
200702131600 METAR MRLM 131600Z 03005KT 9999 FEW025 29/23 A2991=
200702131700 METAR MRLM 131700Z 03008KT 9999 FEW028 29/23 A2988=
200702131800 METAR MRLM 131800Z 03010KT 9999 FEW028 29/23 A2986=
200702131900 METAR MRLM 131900Z 03011KT 9999 FEW028 29/24 A2983=
200702132000 METAR MRLM 132000Z NIL=
200702132100 METAR MRLM 132100Z 03009KT 9999 FEW025 SCT080 28/23 A2980 RM RN SSW HZ LGT ARND=
200702132200 METAR MRLM 132200Z 05008KT 9999 SCT025 28/24 A2979 RMK RN SSW HZY=
200702132300 METAR MRLM 132300Z 04008KT 9999 SCT025 SCT080 28/23 A2980 RMK RB DST S SW W HZY=
200702140000 METAR MRLM 140000Z 04007KT 9999 SCT025 SCT080 27/23 A2981 RMK RN DST S SW W HZ ARND=
200702140100 METAR MRLM 140100Z 20005KT 9999 FEW040 27/18 A2981=
200702140200 METAR MRLM NIL=
200702140300 METAR MRLM NIL=
200702140400 METAR MRLM NIL=
200702140500 METAR MRLM NIL=
200702140600 METAR MRLM NIL=
200702140700 METAR MRLM NIL=
200702140800 METAR MRLM NIL=
200702140900 METAR MRLM NIL=
200702141000 METAR MRLM NIL=
200702141100 METAR MRLM NIL=
200702141200 METAR MRLM NIL=
200702141300 METAR MRLM 141300Z 20004KT 9999 FEW025 23/23 A2986/HZ ARND=
200702141400 METAR MRLM 141400Z 18003KT 9999 FEW025 27/23 A2988 RMK HZY=
200702141500 METAR MRLM 141500Z 05004KT 9999 SCT026 28/24 A2990 RMK HZY=
200702141600 METAR MRLM 141600Z 04006KT 9999 FEW025 29/24 A2990 RMK HZY=
200702141700 METAR MRLM 141700Z 04007KT 9999 FEW025 29/24 A2988 RMK HZY=
200702141800 METAR MRLM 141800Z 03010KT 9999 FEW025 29/24 A2986 RMK HZY=
200702141900 METAR MRLM 141900Z 04008KT 9999 FEW025 29/23 A2984 RMK HZY=
200702142000 METAR MRLM 142000Z NIL=
200702142100 METAR MRLM 142100Z 04008KT 9999 SCT025 29/23 A2980 RMK HZY=
200702142200 METAR MRLM 142200Z 04008KT 9999 SCT025 29/23 A2980 RMK HZY=
200702142300 METAR MRLM 142300Z 05007KT 9999 SCT025 28/23 A2981 RMK HZY=
200702150000 METAR MRLM 150000Z 03007KT 9999 BKN025 27/23 A2982 RMK HZ ARND=
200702150100 METAR MRLM NIL=
200702150200 METAR MRLM NIL=
200702150300 METAR MRLM NIL=
200702150400 METAR MRLM NIL=
200702150500 METAR MRLM NIL=
200702150600 METAR MRLM NIL=
200702150700 METAR MRLM NIL=
200702150800 METAR MRLM NIL=
200702150900 METAR MRLM NIL=
200702151000 METAR MRLM NIL=
200702151100 METAR MRLM NIL=
200702151200 METAR MRLM NIL=
200702151300 METAR MRLM 151300Z 20005KT 9999 SCT015 21/21 A2988 RMK HZ LGT ARND=
200702151400 METAR MRLM 151400Z 21004KT 9999 BKN012 24/22 A2992 RMK HZ LGT ARND=
200702151500 METAR MRLM 151500Z VRB03KT 9999 BKN025 28/23 A2993 RMK HZ LGT ARND=
200702151600 METAR MRLM 151600Z 05005KT 9999 SCT025 28/23 A2993 RMK HZY=
200702151700 METAR MRLM 151700Z 06007KT 9999 FEW025 28/23 A2992 RMK HZ LGT ARND=
200702151800 METAR MRLM 151800Z 07008KT 9999 FEW030 29/23 A2992 RMK HZ LGT ARND=
200702151900 METAR MRLM 151900Z 05008KT 9999 FEW033 29/22 A2986 RMK HZ LGT ARND=
200702152000 METAR MRLM NIL=
200702152100 METAR MRLM 152100Z 05007KT 9999 FEW035 29/22 A2982 RMK LEVE HZY=
200702152200 METAR MRLM 152200Z 06006KT 9999 FEW030 29/21 A2983 RMK LEVE HZY=
200702152300 METAR MRLM 152300Z 05005KT CAVOK 28/21 A2984 RMK LEVE HZY=
200702160000 METAR MRLM 160000Z 00000KT CAVOK 24/22 A2984 RMK LEVE HZY=
200702160100 METAR MRLM NIL=
200702160200 METAR MRLM NIL=
200702160300 METAR MRLM NIL=
200702160400 METAR MRLM NIL=
200702160500 METAR MRLM NIL=
200702160600 METAR MRLM NIL=
200702160700 METAR MRLM NIL=
200702160800 METAR MRLM NIL=
200702160900 METAR MRLM NIL=
200702161000 METAR MRLM NIL=
200702161100 METAR MRLM NIL=
200702161200 METAR MRLM NIL=
200702161300 METAR MRLM 161300Z 20005KT CAVOK 21/20 A2992 RMK LEVE HZY=
200702161400 METAR MRLM 161400Z 20007KT CAVOK 25/21 A2995 RMK LEVE HZY=
200702161500 METAR MRLM 161500Z VRB03KT CAVOK 25/21 A2995 RMK HZ LGT ARND=
200702161600 METAR MRLM 161600Z 05006KT 9999 FEW035 BKN300 28/21 A2996=
200702161700 METAR MRLM 161700Z 04008KT 9999 FEW038 BKN300 28/21 A2994 RMK HZ LGT ARND=
200702161800 METAR MRLM 161800Z 04008KT 9999 FEW035 BKN300 29/22 A2991=
200702161900 METAR MRLM 161900Z 05009KT 9999 FEW035 SCT300 29/21 A2988 RMK HZ LGT ARND=
200702162000 METAR MRLM 162000Z NIL=
200702162100 METAR MRLM 162100Z 03009KT 9999 FEW035 SCT300 29/22 A2983 RMK HZ ARND CB DST S=
200702162200 METAR MRLM 162200Z 04008KT 9999 FEW035 SCT300 29/22 A2984 RMK HZ ARND TCU DST S=
200702162300 METAR MRLM 162300Z 02007KT 9999 FEW028 SCT120 28/22 A2985 RMK RN DST W HZ ARND=
200702170000 METAR MRLM 170000Z 03006KT 9999 SCT030 SCT080 28/22 A2987=
200702170100 METAR MRLM NIL=
200702170200 METAR MRLM NIL=
200702170300 METAR MRLM NIL=
200702170400 METAR MRLM NIL=
200702170500 METAR MRLM NIL=
200702170700 METAR MRLM NIL=
200702170800 METAR MRLM NIL=
200702170900 METAR MRLM NIL=
200702171000 METAR MRLM NIL=
200702171100 METAR MRLM NIL=
200702171200 METAR MRLM 171200Z 21005KT 9999 FEW028 BKN300 21/20 A2991 RMK HZ LGT ARND=
200702171300 METAR MRLM 171300Z NIL=
200702171400 METAR MRLM 171400Z 20005KT 9999 FEW028 SCT300 25/22 A2995 RMK HZ ARND=
200702171500 METAR MRLM 171500Z 21004KT 9999 FEW025 BKN280 28/22 A2998 RMK HZ ARND=
200702171600 METAR MRLM 171600Z 03004KT 9999 FEW025 BKN080 28/22 A2997 RMK HZ ARND=
200702171700 METAR MRLM 171700Z 03007KT 9999 FEW026 BKN100 28/22 A2995 RMK HZ ARND=
200702171800 METAR MRLM 171800Z 01007KT 9999 FEW026 BKN100 29/22 A2993 RMK HZ ARND=
200702171900 METAR MRLM 171900Z 01006KT 9999 FEW025 BKN100 29/23 A2991=
200702172000 METAR MRLM 172000Z NIL=
200702172100 METAR MRLM 172100Z 02005KT 9999 FEW026 SCT090 28/23 A2986=
200702172200 METAR MRLM 172200Z 04006KT 9999 FEW025 SCT090 29/21 A2986=
200702172300 METAR MRLM 172300Z 04006KT 9999 FEW030 SCT090 28/22 A2987=
200702180000 METAR MRLM 180000Z 06005KT 9999 FEW030 SCT090 28/21 A2988=
200702180100 METAR MRLM NIL=
200702180200 METAR MRLM NIL=
200702180300 METAR MRLM NIL=
200702180400 METAR MRLM NIL=
200702180500 METAR MRLM NIL=
200702180600 METAR MRLM NIL=
200702180700 METAR MRLM NIL=
200702180800 METAR MRLM NIL=
200702180900 METAR MRLM NIL=
200702181000 METAR MRLM NIL=
200702181100 METAR MRLM NIL=
200702181200 METAR MRLM NIL=
200702181300 METAR MRLM 181300Z 20005KT 9999 FEW028 SCT300 22/19 A2997=
200702181400 METAR MRLM 181400Z 19006KT 9999 FEW028 BKN300 25/21 A3000=
200702181500 METAR MRLM 181500Z 05003KT 9999 FEW028 BKN300 28/23 A3003=
200702181600 METAR MRLM 181600Z 03004KT 9999 SCT028 BKN300 29/22 A3004=
200702181700 METAR MRLM 181700Z 01005KT 9999 SCT028 BKN300 28/23 A3002=
200702181800 METAR MRLM 181800Z 02005KT 9999 FEW028 SCT300 29/23 A3000=
200702181900 METAR MRLM 181900Z 03007KT 9999 FEW028 SCT090 29/23 A2997=
200702182000 METAR MRLM NIL=
200702182100 METAR MRLM 182100Z 03008KT 9999 FEW028 BKN100 29/21 A2992=
200702182200 METAR MRLM 182200Z 02009KT 9999 FEW028 BKN090 28/23 A2993=
200702182300 METAR MRLM 182300Z 01006KT 9999 FEW025 BKN080 28/22 A2995=
200702190000 METAR MRLM 190000Z 35007KT 9999 SCT025 BKN080 28/22 A2996 RMK RN DST NW N=
200702190100 METAR MRLM NIL=
200702190200 METAR MRLM NIL=
200702190300 METAR MRLM NIL=
200702190400 METAR MRLM NIL=
200702190500 METAR MRLM NIL=
200702190600 METAR MRLM NIL=
200702190700 METAR MRLM NIL=
200702190800 METAR MRLM NIL=
200702190900 METAR MRLM NIL=
200702191000 METAR MRLM NIL=
200702191100 METAR MRLM NIL=
200702191200 METAR MRLM 191200Z NIL=
200702191300 METAR MRLM 191300Z 19006KT 9999 FEW015 BKN080 22/20 A2993 RMK RN DST W/N/E HZY=
200702191400 METAR MRLM 191400Z 24002KT 9999 +DZ FEW005 SCT020 BKN090 22/21 A3004 RMK RN HZ ARND=
200702191500 METAR MRLM 191500Z 21008KT 9999 FEW007 SCT025 BKN100 23/21 A3003 RMK RN DST N/ E REDZ HZY=
200702191600 METAR MRLM 191600Z 28005KT 9999 +DZ FEW004 BKN020 23/22 A3003 8KMS TO W DUE RASH=
200702191700 METAR MRLM 191700Z 28005KT 9999 +DZ FEW004 BKN020 23/22 A3003 8KMS TO W DUE RASH=
200702191800 METAR MRLM 191800Z 23008KT 9999 FEW008 SCT025 BKN090 24/23 A3000 RMK RN HZ ARND=
200702191900 METAR MRLM 191900Z 30007KT 9999 SCT025 BKN090 26/21 A2998 RMK RN HZ ARND=
200702192000 METAR MRLM NIL=
200702192100 METAR MRLM 192100Z 34004KT 9999 BKN025 SCT090 26/21 A2994 RMK RN/ HZ ARND=
200702192200 METAR MRLM 192200Z 32005KT 9999 SCT030 SCT090 26/21 A2994 RMK RN S/SW/NW/N/NE/E HZ LGT ARND=
200702192300 METAR MRLM 192300Z 33005KT 9999 BKN025 26/21 A2994 RMK RN/HZ ARND=
200702200000 METAR MRLM 200000Z 28003KT 9999 OVC015 24/21 A2994 RMK RN QUANDS W/N/E HZ LGT ARND=
200702200100 METAR MRLM NIL=
200702200200 METAR MRLM NIL=
200702200400 METAR MRLM NIL=
200702200500 METAR MRLM NIL=
200702200600 METAR MRLM NIL=
200702200700 METAR MRLM NIL=
200702200800 METAR MRLM NIL=
200702200900 METAR MRLM NIL=
200702201000 METAR MRLM NIL=
200702201100 METAR MRLM NIL=
200702201200 METAR MRLM NIL=
200702201300 METAR MRLM 201300Z 21005KT 3000 RA BKN020 SCT090 21/20 A2995=
200702201400 METAR MRLM 201400Z 19005KT 2000 +RA BKN015 SCT090 21/21 A2996=
200702201500 METAR MRLM 201500Z 20008KT 5000 +DZ FEW002 BKN020 22/22 A2997 RMK RN/HZ ARND=
200702201600 METAR MRLM 201600Z 21007KT 6000 +DZ FEW003 BKN020 22/22 A2997=
200702201700 METAR MRLM 201700Z 20008KT 5000 RA FEW003 BKN015 23/22 A2995=
200702201800 METAR MRLM 201800Z 18005KT 5000 +DZ SCT004 SCT015 23/23 A2993 RMK HZ/RN ARND=
200702201900 METAR MRLM 201900Z 21005KT 5000 RA FEW005 SCT015 BKN090 24/23 A2990=
200702202000 METAR MRLM 202000Z NIL=
200702202100 METAR MRLM 202100Z 20006KT 9999 FEW030 SCT035 BKN100 23/23 A2987 RN ARND=
200702202200 METAR MRLM 202200Z 20004KT 9999 BKN025 SCT100 24/23 A2987 RN W N=
200702202300 METAR MRLM 202300Z 23002KT 9999 FEW025 OVC090 25/23 A2987 RN N=
200702210000 METAR MRLM 210000Z 00000KT 9999 SCT020 SCT090 24/23 A2988 RN ARND=
200702210100 METAR MRLM NIL=
200702210200 METAR MRLM NIL=
200702210300 METAR MRLM NIL=
200702210400 METAR MRLM NIL=
200702210500 METAR MRLM NIL=
200702210600 METAR MRLM NIL=
200702210700 METAR MRLM NIL=
200702210800 METAR MRLM NIL=
200702210900 METAR MRLM NIL=
200702211100 METAR MRLM NIL=
200702211200 METAR MRLM 211200Z 20005KT 9999 FEW025 BKN250 19/19 A2988 RMK HZ ARND=
200702211300 METAR MRLM 211300Z 20005KT CAVOK 21/20 A2990 SCT250=
200702211400 METAR MRLM 211400Z 21004KT CAVOK 25/22 A2992 SCT250=
200702211500 METAR MRLM 211500Z 07004KT CAVOK 27/22 A2995 SCT100 HZY=
200702211600 METAR MRLM 211600Z 07003KT 9999 FEW025 28/21 A2994 HZY=
200702211700 METAR MRLM 211700Z 05006KT CAVOK 28/22 A2992 FEW100 HZY=
200702211800 METAR MRLM 211800Z 04007KT 9999 FEW030 28/22 A2991 HZY=
200702211900 METAR MRLM NIL=
200702212000 METAR MRLM 212000Z=
200702212100 METAR MRLM 212100Z 03007KT 9999 FEW028 29/24 A2984 RMK HZ ARND=
200702212200 METAR MRLM 212200Z 03007KT 9999 FEW028 29/23 A2983 RMK HZ ARND=
200702212300 METAR MRLM 212300Z 04005KT 9999 FEW028 28/23 A2984 RMK HZ ARND=
200702220000 METAR MRLM 220000Z 02004KT 9999 FEW028 27/22 A2985=
200702220100 METAR MRLM NIL=
200702220200 METAR MRLM NIL=
200702220300 METAR MRLM NIL=
200702220400 METAR MRLM NIL=
200702220500 METAR MRLM NIL=
200702220600 METAR MRLM NIL=
200702220700 METAR MRLM NIL=
200702220800 METAR MRLM NIL=
200702220900 METAR MRLM NIL=
200702221000 METAR MRLM NIL=
200702221100 METAR MRLM NIL=
200702221200 METAR MRLM 221200Z 20004KT 9999 FEW025 20/19 A2990 RMK HZ ARND=
200702221300 METAR MRLM 221300Z 19005KT 9999 FEW025 22/20 A2992 RMK HZ ARND=
200702221400 METAR MRLM 221400Z 18004KT 9999 FEW025 26/22 A2994 RMK HZ ARND=
200702221500 METAR MRLM 221500Z 10006KT 9999 FEW025 28/23 A2986 RMK HZ ARND=
200702221600 METAR MRLM 221600Z 08006KT 9999 FEW025 29/23 A2996 RMK HZ ARND=
200702221700 METAR MRLM 221700Z 10006KT 9999 FEW025 29/22 A2993 RMK HZ ARND=
200702221800 METAR MRLM 221800Z 06008KT 9999 FEW025 29/22 A2990 RMK HZ ARND=
200702221900 METAR MRLM 221900Z 06007KT 9999 FEW025 29/22 A2987 RMK HZ ARND=
200702222000 METAR MRLM 222000Z NIL=
200702222100 METAR MRLM 222100Z 01018KT 9999 FEW024 SCT090 27/24 A2983=
200702222200 METAR MRLM 222200Z 01012KT 9999 FEW025 SCT100 28/23 A2982=
200702230400 METAR MRLM NIL=
200702230500 METAR MRLM NIL=
200702230600 METAR MRLM NIL=
200702230700 METAR MRLM NIL=
200702230800 METAR MRLM NIL=
200702230900 METAR MRLM NIL=
200702231000 METAR MRLM NIL=
200702231100 METAR MRLM NIL=
200702231200 METAR MRLM 231200Z NIL=
200702231300 METAR MRLM 231300Z 19009KT 9999 FEW020 SCT090 BKN110 21/20 A2986 RMK RN DST N S=
200702231400 METAR MRLM 231400Z 19004KT 9999 FEW020 SCT090 25/21 A2989 RMK RN N S=
200702231500 METAR MRLM 231500Z 13007KT 9999 FEW033 BKN090 28/21 A2991=
200702231600 METAR MRLM 231600Z 08007KT 9999 FEW042 29/21 A2990=
200702231700 METAR MRLM 231700Z 06008KT 9999 FEW040 29/21 A2990 RMK RN N=
200702231800 METAR MRLM 231800Z 05007KT 9999 FEW038 29/21 A2990=
200702231900 METAR MRLM 231900Z 05008KT 9999 FEW040 29/21 A2987=
200702232000 METAR MRLM 232000Z 05008KT 9999 FEW040 29/21 A2987=
200702232100 METAR MRLM 232100Z 02008KT 9999 FEW040 29/21 A2981=
200702232200 METAR MRLM 232200Z 02007KT 9999 FEW030 28/23 A2981 RMK HZY=
200702232300 METAR MRLM 232300Z 01006KT 9999 BKN025 28/23 A2982 RMK HZY=
200702240000 METAR MRLM 240000Z 33004KT 9999 BKN020 27/22 A2983 RMK HZY=
200702240100 METAR MRLM NIL=
200702240200 METAR MRLM NIL=
200702240300 METAR MRLM NIL=
200702240400 METAR MRLM NIL=
200702240500 METAR MRLM NIL=
200702240600 METAR MRLM NIL=
200702240700 METAR MRLM NIL=
200702240800 METAR MRLM NIL=
200702240900 METAR MRLM NIL=
200702241000 METAR MRLM NIL=
200702241100 METAR MRLM NIL=
200702241200 METAR MRLM NIL=
200702241300 METAR MRLM 241300Z 19007KT CAVOK 21/18 A2986 RMK BKN080 RN DST N HZY=
200702241400 METAR MRLM 241400Z 21004KT CAVOK 26/21 A2989 RMK BKN080 RN DST N NE HZY=
200702241500 METAR MRLM 241500Z 17008KT CAVOK 28/21 A2990 RMK BKN090 RN N NE E=
200702241600 METAR MRLM 241600Z 05005KT 9999 FEW035 SCT100 28/21 A2991 RMK RN DST N HZ LG ARND=
200702241700 METAR MRLM 241700Z 07005KT 9999 FEW030 SCT110 28/22 A2989 RMK HZ ARND=
200702241800 METAR MRLM 241800Z 03007KT 9999 FEW030 BKN110 28/22 A2987 RMK HZY=
200702241900 METAR MRLM 241900Z 03006KT 9999 FEW035 BKN110 29/22 A2985 RMK HZY=
200702242000 METAR MRLM 242000Z NIL=
200702242100 METAR MRLM 242100Z 03006KT 9999 FEW035 SCT120 28/22 A2081 RMK HZ LGT ARND=
200702242200 METAR MRLM 242200Z 03004KT 9999 FEW035 28/22 A2981 RMK HZ LGT ANRD=
200702242300 METAR MRLM 242300Z 01004KT 9999 FEW028 28/22 A2982 RMK HZ LGT ARND=
200702250000 METAR MRLM 250000Z 00000KT 9999 FEW020 26/22 A2982 RMK HZ LGT ARND=
200702250100 METAR MRLM NIL=
200702250200 METAR MRLM NIL=
200702250400 METAR MRLM NIL=
200702250500 METAR MRLM NIL=
200702250600 METAR MRLM NIL=
200702250700 METAR MRLM NIL=
200702250800 METAR MRLM NIL=
200702250900 METAR MRLM NIL=
200702251000 METAR MRLM NIL=
200702251100 METAR MRLM NIL=
200702251200 METAR MRLM NIL=
200702251300 METAR MRLM 251300Z 19003KT CAVOK 23/21 A2986 RMK FEW100 HZ ARND=
200702251400 METAR MRLM 251400Z 18003KT 9999 FEW028 27/22 A2988 RMK HZ LGT ARND=
200702251500 METAR MRLM 251500Z 09009KT 9999 FEW028 29/21 A2989 RMK HZ LGT ARND=
200702251600 METAR MRLM 251600Z 09010KT 9999 FEW028 29/22 A2987 RMK HZ LGT ARND=
200702251700 METAR MRLM 251700Z 08010KT 9999 FEW028 29/22 A2987 RMK HZ LGT ARND=
200702251800 METAR MRLM 251800Z 07007KT 9999 FEW028 29/22 A2985 RMK HZ LGT ARND=
200702251900 METAR MRLM 251900Z 06010KT 9999 FEW028 29/22 A2982 RMK VIS 8KM W/SW DUE HZ=
200702252000 METAR MRLM 252000Z NIL=
200702252100 METAR MRLM 252100Z 05008KT 9999 FEW028 29/23 A2979=
200702252200 METAR MRLM 252200Z 250907KT 9999 FEW025 27/16 A2991=
200702252300 METAR MRLM 252300Z 03006KT 9999 FEW028 28/23 A2979=
200702260000 METAR MRLM 260000Z 05005KT 9999 SCT030 SCT090 27/23 A2980=
200702260100 METAR MRLM NIL=
200702260200 METAR MRLM NIL=
200702260300 METAR MRLM NIL=
200702260400 METAR MRLM NIL=
200702260500 METAR MRLM NIL=
200702260600 METAR MRLM NIL=
200702260700 METAR MRLM NIL=
200702260800 METAR MRLM NIL=
200702260900 METAR MRLM NIL=
200702261100 METAR MRLM NIL=
200702261200 METAR MRLM NIL=
200702261300 METAR MRLM 261300Z 20006KT 9999 FEW030 22/21 A2986=
200702261400 METAR MRLM 261400Z 21004KT 9999 FEW028 26/23 A2988=
200702261500 METAR MRLM 261500Z 07003KT 9999 FEW028 28/22 A2989=
200702261600 METAR MRLM 261600Z 07004KT 9999 FEW028 29/23 A2989=
200702261700 METAR MRLM 261700Z 04004KT 9999 FEW028 29/22 A2987=
200702261800 METAR MRLM 261800Z 02006KT 9999 FEW028 29/22 A2985=
200702261900 METAR MRLM 261900Z 01008KT 9999 FEW028 29/23 A2982=
200702262000 METAR MRLM 262000Z NIL=
200702262100 METAR MRLM 262100Z 36006KT 9999 FEW028 29/24 A2977 RMK HZ ARND=
200702262200 METAR MRLM 262200Z 35006KT 9999 FEW028 SCT100 28/24 A2977 RMK HZ ARND=
200702262300 METAR MRLM 262300Z 34005KT 9999 FEW028 SCT100 28/24 A2978 RMK HZ ARND=
200702270000 METAR MRLM 270000Z 29004KT 9999 SCT028 27/24 A2980=
200702270100 METAR MRLM NIL=
200702270300 METAR MRLM NIL=
200702270400 METAR MRLM NIL=
200702270500 METAR MRLM NIL=
200702270600 METAR MRLM NIL=
200702270700 METAR MRLM NIL=
200702270800 METAR MRLM NIL=
200702270900 METAR MRLM NIL=
200702271000 METAR MRLM NIL=
200702271100 METAR MRLM NIL=
200702271200 METAR MRLM NIL=
200702271300 METAR MRLM 271300Z 19005KT 9999 FEW018 SCT090 24/22 A2981 RMK RN S E N HZ ARND=
200702271400 METAR MRLM 271400Z VRB03KT 9999 FEW015 OVC090 26/23 A2983 RMK DST N E HZ ARND=
200702271500 METAR MRLM 271500Z VRB03KT 9999 FEW025 OVC090 29/24 A2984 RMK RN DST E HZ ARND=
200702271600 METAR MRLM 271600Z VRB03KT 9999 FEW025 BKN090 29/24 A2984 RMK HZ ARND=
200702271700 METAR MRLM 271700Z 02004KT 9999 SCT025 BKN090 30/25 A2983 RMK LGT HZ ARND=
200702271800 METAR MRLM 271800Z 01006KT 9999 FEW025 29/25 A2980 RMK LGT HZ ARND=
200702271900 METAR MRLM 271900Z 02005KT 9999 FEW022 29/25 A2976 RMK LGT HZ ARND=
200702272000 METAR MRLM 272000Z NIL=
200702272100 METAR MRLM 272100Z 02007KT 9999 FEW025 30/25 A2972 RMK HZ ARND=
200702272200 METAR MRLM 272200Z 02005KT 9999 SCT020 29/23 A2974 HZ ARND=
200702272300 METAR MRLM 272300Z VRB03KT 9999 FEW020 29/25 A2992 RMK HZ ARND=
200702280000 METAR MRLM NIL=
200702280100 METAR MRLM NIL=
200702280200 METAR MRLM NIL=
200702280300 METAR MRLM NIL=
200702280400 METAR MRLM NIL=
200702280500 METAR MRLM NIL=
200702280600 METAR MRLM NIL=
200702280700 METAR MRLM NIL=
200702280800 METAR MRLM NIL=
200702280900 METAR MRLM NIL=
200702281000 METAR MRLM NIL=
200702281100 METAR MRLM NIL=
200702281200 METAR MRLM 281200Z NIL=
200702281300 METAR MRLM 281300Z 20004KT 9999 BKN015 SCT100 24/23 A2977 RMK RN HZ ARND=
200702281400 METAR MRLM 281400Z VRB03KT 9999 DZ OVC010 27/25 A2979 RMK RN HZ ARND=
200702281500 METAR MRLM 281500Z 21005KT 9999 OVC018 29/25 A2980 RMK RN HZ ARND=
200702281600 METAR MRLM NIL=
200702281700 METAR MRLM 281700Z 00510KT 8000 VCSH OVC015 29/24 A2988 RMK HZ ARND=
200702281800 METAR MRLM 281800Z NIL=
200702281900 METAR MRLM NIL=
200702282000 METAR MRLM NIL=
200702282100 METAR MRLM NIL=
200703010300 METAR MRLM NIL=
200703010400 METAR MRLM NIL=
200703010500 METAR MRLM NIL=
200703010600 METAR MRLM NIL=
200703010700 METAR MRLM NIL=
200703010800 METAR MRLM NIL=
200703010900 METAR MRLM NIL=
200703011100 METAR MRLM NIL=
200703011300 METAR MRLM 011300Z 24005KT 9999 SCT026 SCT080 24/24 A2982 RN DST NW N=
200703011400 METAR MRLM 011400Z 25005KT 9999 -DZ SCT026 SCT080 25/22 A2984=
200703011500 METAR MRLM 011500Z 26005KT 9999 3000NW VCSH BKN026 29/26 A2984 RMK RN W N WN HZY=
200703011600 METAR MRLM 011600Z 01008KT 9999 BKN028 29/26 A2984 RMK RN S SW HZY=
200703011700 METAR MRLM 011700Z 02005KT 9999 SCT028 30/25 A2984 RMK HZY=
200703011800 METAR MRLM 011800Z 02006KT 9999 SCT028 30/25 A2981 RMK HZY=
200703011900 METAR MRLM 011900Z 06009KT 9999 SCT025 30/24 A2969 RMK HZ ARND=
200703012000 METAR MRLM NIL=
200703012100 METAR MRLM NIL=
200703012200 METAR MRLM NIL=
200703012300 METAR MRLM 012300Z 03009KT 9999 BKN028 28/22 A2975 RMK HZY=
200703020000 METAR MRLM NIL=
200703020100 METAR MRLM NIL=
200703020200 METAR MRLM NIL=
200703020300 METAR MRLM NIL=
200703020400 METAR MRLM NIL=
200703020500 METAR MRLM NIL=
200703020600 METAR MRLM NIL=
200703020700 METAR MRLM NIL=
200703020800 METAR MRLM NIL=
200703020900 METAR MRLM NIL=
200703021000 METAR MRLM NIL=
200703021200 METAR MRLM NIL=
200703021300 METAR MRLM NIL=
200703021400 METAR MRLM NIL=
200703021500 METAR MRLM 021500Z 10006KT 9999 BKN028 29/24 A2974 RMK HZY=
200703021700 METAR MRLM NIL=
200703021800 METAR MRLM 021800Z 06010KT 9999 SCT025 30/24 A2971 RMK HZ ARND=
200703021900 METAR MRLM NIL=
200703022000 METAR MRLM 022000Z NIL=
200703022100 METAR MRLM 022100Z 05010KT 9999 BKN028 29/24 A2965 HZY=
200703022200 METAR MRLM 022200Z 06011KT 9999 SCT028 SCT050 29/24 A2965 HZY=
200703022300 METAR MRLM NIL=
200703030000 METAR MRLM NIL=
200703030100 METAR MRLM NIL=
200703030200 METAR MRLM NIL=
200703030300 METAR MRLM NIL=
200703030400 METAR MRLM NIL=
200703030500 METAR MRLM NIL=
200703030600 METAR MRLM NIL=
200703030700 METAR MRLM NIL=
200703030800 METAR MRLM NIL=
200703030900 METAR MRLM NIL=
200703031100 METAR MRLM NIL=
200703031200 METAR MRLM NIL=
200703031300 METAR MRLM 031300Z 22005KT 9999 OVC015 24/24 A2975 RMK RN DIS S/W=
200703031400 METAR MRLM 031400Z 24005KT 9999 OVC015 25/24 A2976 RN S W=
200703031500 METAR MRLM 031500Z 20005KT 9999 DZ OVC015 25/24 A2978 RN S W HZY=
200703031600 METAR MRLM NIL=
200703031700 METAR MRLM 031700Z 07004KT 9999 BKN025 29/24 A2976 HZY RN W=
200703031800 METAR MRLM 031800Z 08005KT 9999 FEW025 29/24 A2973 HZY=
200703031900 METAR MRLM 031900Z 07005KT 9999 FEW025 29/24 A2970=
200703032000 METAR MRLM 032000Z NIL=
200703032100 METAR MRLM 032100Z 05009KT 9999 SCT028 29/24 A2967 LGT HZ ARND=
200703032200 METAR MRLM 032200Z 05007KT 9999 BKN025 29/24 A2967 RMK HZ ARND=
200703032300 METAR MRLM 032300Z 06008KT 9999 OVC022 29/24 A2968 RMK HZ ARND=
200703040000 METAR MRLM NIL=
200703040100 METAR MRLM NIL=
200703040200 METAR MRLM NIL=
200703040300 METAR MRLM NIL=
200703040400 METAR MRLM NIL=
200703040500 METAR MRLM NIL=
200703040700 METAR MRLM NIL=
200703040800 METAR MRLM NIL=
200703040900 METAR MRLM NIL=
200703041000 METAR MRLM NIL=
200703041100 METAR MRLM NIL=
200703041200 METAR MRLM 041200Z NIL=
200703041300 METAR MRLM 041300Z 24004KT 9999 BKN015 24/24 A2982 RMK RN S W N HZ ARND=
200703041500 METAR MRLM NIL=
200703041600 METAR MRLM 041600Z VRB03KT 9999 SCT030 30/23 A2985 RMK HZ ARND=
200703041700 METAR MRLM 041700Z 03007KT 9999 SCT030 29/24 A2983 RMK HZ ARND=
200703041800 METAR MRLM 041800Z 04006KT 9999 SCT028 29/24 A2981 RMK HZ ARNS LGT=
200703042000 METAR MRLM 042000Z NIL=
200703042100 METAR MRLM 042100Z 36010KT 9999 BKN025 29/24 A2975 RMK HZ LGT ARND=
200703042200 METAR MRLM 042200Z 36010KT 9999 BKN020 29/24 A2975 RMK RN DST SW W=
200703042300 METAR MRLM NIL=
200703050000 METAR MRLM 050000Z 02006KT 9999 BKN022 28/24 A2977=
200703050100 METAR MRLM NIL=
200703050200 METAR MRLM NIL=
200703050300 METAR MRLM NIL=
200703050400 METAR MRLM NIL=
200703050500 METAR MRLM NIL=
200703050600 METAR MRLM NIL=
200703050700 METAR MRLM NIL=
200703050800 METAR MRLM NIL=
200703050900 METAR MRLM NIL=
200703051000 METAR MRLM NIL=
200703051100 METAR MRLM NIL=
200703051200 METAR MRLM 051200Z 24004KT 9999 FEW028 BKN080 22/20 A2987 RN DIST S W HZ ARND=
200703051300 METAR MRLM 051300Z 22004KT 9999 FEW028 BKN090 22/20 A2987 RMK DZ S W HZ ARND=
200703051400 METAR MRLM 051400Z 21006KT 9999 FEW025 BKN090 24/21 A2990 RMK HZ ARND=
200703051500 METAR MRLM 051500Z 23006KT 9999 FEW025 BKN100 27/22 A2992 RMK HZ ARND=
200703051600 METAR MRLM 051600Z 20005KT 9999 FEW025 BKN100 29/22 A2991 RMK HZ ARND=
200703051700 METAR MRLM 051700Z 06005KT 9999 FEW025 BKN100 29/21 A2989 RMK HZ ARND=
200703051800 METAR MRLM NIL=
200703051900 METAR MRLM 051900Z 11008KT 9999 FEW030 SCT100 31/21 A2984 RMK HZ=
200703052000 METAR MRLM NIL=
200703052100 METAR MRLM NIL=
200703052200 METAR MRLM 052200Z 07006KT 9999 FEW030 30/20 A2979 RMK HZY=
200703052300 METAR MRLM 052300Z 05008KT 9999 FEW030 29/21 A2980=
200703060100 METAR MRLM NIL=
200703060200 METAR MRLM NIL=
200703060300 METAR MRLM NIL=
200703060400 METAR MRLM NIL=
200703060500 METAR MRLM NIL=
200703060600 METAR MRLM NIL=
200703060700 METAR MRLM NIL=
200703060800 METAR MRLM NIL=
200703060900 METAR MRLM NIL=
200703061000 METAR MRLM NIL=
200703061100 METAR MRLM NIL=
200703061200 METAR MRLM 061200Z NIL=
200703061300 METAR MRLM 061300Z 21003KT 9999 FEW025 SCT090 23/21 A2988 RMK HZY=
200703061400 METAR MRLM 061400Z 19003KT 9999 FEW025 SCT100 27/22 A2989 RMK HZY=
200703061500 METAR MRLM 061500Z 10004KT 9999 FEW025 SCT120 29/22 A2991 RMK HZ ARND=
200703061600 METAR MRLM 061600Z 05004KT 9999 FEW030 SCT120 29/21 A2992 RMK HZY=
200703061700 METAR MRLM 061700Z 07006KT 9999 FEW030 SCT100 20/20 A2990 RMK HZY=
200703061800 METAR MRLM 061800Z 07006KT 9999 FEW030 BKN100 29/21 A2987 RMK HZY=
200703061900 METAR MRLM 061900Z 05012KT 9999 FEW025 BKN090 30/22 A2985 RMK RN DST N NE HZY=
200703062000 METAR MRLM 062000Z NIL=
200703062100 METAR MRLM 062100Z 05008KT 9999 FEW025 BKN050 28/21 A2982 RMK DST N/NE HZY=
200703062200 METAR MRLM 062200Z 05009KT 9999 FEW025 BKN080 28/21 A2981 RMK RN DST=
200703062300 METAR MRLM 062300Z 04013KT 9999 FEW025 BKN080 28/21 A2982 RMK RN DST=
200703070000 METAR MRLM 070000Z 07019KT 9999 FEW025 BKN080 26/22 A2983 RMK RN DST NNE/ENE/SE=
200703070100 METAR MRLM NIL=
200703070200 METAR MRLM NIL=
200703070300 METAR MRLM NIL=
200703070400 METAR MRLM NIL=
200703070500 METAR MRLM NIL=
200703070600 METAR MRLM NIL=
200703070700 METAR MRLM NIL=
200703070800 METAR MRLM NIL=
200703070900 METAR MRLM NIL=
200703071000 METAR MRLM NIL=
200703071100 METAR MRLM NIL=
200703071200 METAR MRLM NIL=
200703071300 METAR MRLM 071300Z 23004KT 9999 FEW020 BKN090 22/20 A2987 RMK RN QUADRANTES N/E HZ LGT ARND=
200703071400 METAR MRLM 071400Z 22004KT 9999 FEW018 BKN090 23/21 A2989 RMK RN QUADRANTE N DZ E HZ LGT ARND=
200703071500 METAR MRLM 071500Z 22004KT 9999 FEW020 BKN090 25/22 A2990 RMK RN QUADRANTE N RN E HZ LGT ARND=
200703071600 METAR MRLM 071600Z 07004KT 9999 FEW025 BKN110 28/23 A2990 RMK RN QUADRANTE N HZ ARND=
200703071700 METAR MRLM 071700Z 10005KT 9999 FEW025 BKN100 28/23 A2988 RN DST W/NW HZ LGT ARND=
200703071800 METAR MRLM 071800Z 02006KT 9999 FEW030 SCT120 29/23 A2986 RMK HZ ARND=
200703071900 METAR MRLM 071900Z 04006KT 9999 FEW028 29/23 A2983 RMK HZ LGT ARND TCU DST N/NE=
200703072000 METAR MRLM 072000Z NIL=
200703072100 METAR MRLM 072100Z 02012KT 9999 FEW032 SCT120 29/24 A2979 RN/CB SW RN E=
200703072200 METAR MRLM 072200Z 04009KT 9999 SCT025 BKN090 28/23 A2979 RN E S HZY=
200703072300 METAR MRLM 072300Z 07010KT 9999 FEW020 SCT040 BKN110 26/23 A2979 CB/RN S W DZ E=
200703080000 METAR MRLM 080000Z VRB03KT 9999 FEW025 SCT090 BKN110 23/22 A2980 DZ E RN SW W=
200703080100 METAR MRLM NIL=
200703080300 METAR MRLM NIL=
200703080400 METAR MRLM NIL=
200703080500 METAR MRLM NIL=
200703080600 METAR MRLM NIL=
200703080700 METAR MRLM NIL=
200703080800 METAR MRLM NIL=
200703080900 METAR MRLM NIL=
200703081000 METAR MRLM NIL=
200703081200 METAR MRLM NIL=
200703081300 METAR MRLM 081300Z 34002KT 9999 FEW015 BKN090 23/21 A2984 DZ E HZY=
200703081400 METAR MRLM 081400Z 05006KT 9999 DZ SCT018 BKN090 24/22 A2986 HZY=
200703081500 METAR MRLM 081500Z 26006KT 9999 FEW015 BKN090 26/23 A2987 RN N DZ SE W=
200703081600 METAR MRLM 081600Z 07014KT 9999 FEW010 BKNTCU025 29/23 AA2988 RASH N E VSBY 8KM RN N E=
200703081700 METAR MRLM 081700Z 35007KT 9999 SCT020 SCT090 26/23 A2987 RN S W HZY=
200703081800 METAR MRLM 081800Z 13004KT 9999 FEW020 SCT090 BKN110 28/20 A2985 DZ S SW W HZY=
200703081900 METAR MRLM 081900Z 13005KT CAVOK 29/22 A2982 SCT080 BKN140 DZ SW HZY=
200703082000 METAR MRLM 082000Z NIL=
200703082100 METAR MRLM 082100Z 10004KT 9999 FEW030 BKN130 29/22 A2977 RMK HZ ARND=
200703082200 METAR MRLM 082200Z 10007KT 9999 FEW030 BKN120 28/22 A2978 RMK HZ ARND=
200703082300 METAR MRLM 082300Z 10006KT CAVOK 28/22 A2976 RMK SCT080 BKN100 HZ=
200703090000 METAR MRLM 090000Z 09005KT CAVOK 27/22 A2977 RMK SCT100 HZ ARND=
200703090100 METAR MRLM NIL=
200703090200 METAR MRLM NIL=
200703090400 METAR MRLM NIL=
200703090500 METAR MRLM NIL=
200703090600 METAR MRLM NIL=
200703090700 METAR MRLM NIL=
200703090800 METAR MRLM NIL=
200703090900 METAR MRLM NIL=
200703091000 METAR MRLM NIL=
200703091100 METAR MRLM NIL=
200703091200 METAR MRLM 091200Z NIL=
200703091300 METAR MRLM 091300Z 25003KT 9999 FEW025 BKN080 21/20 A2982 RMK RN W/NW/N/NE HZ LEVE ARNWD=
200703091400 METAR MRLM 091400Z 28005KT 9999 FEW030 BKN080 24/22 A2986 RMK RN DST E NE DZ W HZ ARND=
200703091500 METAR MRLM NIL=
200703091600 METAR MRLM 091600Z 21004KT 9999 FEW025 BKN090 26/22 A2987 RMK HZ ARND LGT=
200703091700 METAR MRLM 091700Z 25004KT 9999 FEW025 BKN090 28/20 A2985 RMK HZ LGT ARND=
200703091800 METAR MRLM 091800Z 07004KT 9999 SCT090 29/20 A2987 RMK HZ LGT ARND=
200703091900 METAR MRLM 091900Z 09004KT 9999 FEW025 SCT090 29/21 A2981=
200703092000 METAR MRLM 092000Z NIL=
200703092100 METAR MRLM 092100Z 03005KT 9999 FEW030 29/22 A2975=
200703092200 METAR MRLM 092200Z 03006KT 9999 FEW030 29/22 A2975=
200703092300 METAR MRLM 092300Z 02006KT CAVOK 28/22 A2975 RMK TRACE CI HZ ARND=
200703100000 METAR MRLM 100000Z 31004KT CAVOK 27/22 A2976 RMK SCT100 HZ ARND=
200703100200 METAR MRLM NIL=
200703100400 METAR MRLM NIL=
200703100500 METAR MRLM NIL=
200703100700 METAR MRLM NIL=
200703100800 METAR MRLM NIL=
200703100900 METAR MRLM NIL=
200703101000 METAR MRLM NIL=
200703101100 METAR MRLM NIL=
200703101200 METAR MRLM 101200Z NIL=
200703101300 METAR MRLM 101300Z 22004KT 3000 +DZ OVC026 22/22 A2984 RMK TCU NW N NE=
200703101400 METAR MRLM 101400Z 23008KT 9999 DZ SCT028 BKN090 23/22 A2984 RMK RN S SW W NW=
200703101500 METAR MRLM 101500Z 23007KT 9999 SCT026 BKN080 24/23 A2985 REDZ RMK RN ARND=
200703101600 METAR MRLM 101600Z 24006KT 9999 BKN028 SCT080 27/23 A2985 RMK RN ARND=
200703101700 METAR MRLM 101700Z 04009KT 9999 4000 DZ SCT080 25/23 A2985 RMK RN ARND=
200703101800 METAR MRLM 101800Z 31008KT 9999 BKN028 ASCT080 25/23 A2984 REDZ RMK RN ARND=
200703101900 METAR MRLM 101900Z 29006KT 8000 DZ BKN025 SCT080 24/23 A2982=
200703102000 METAR MRLM NIL=
200703102100 METAR MRLM 102100Z 22006KT 8000 -RA BKN020 SCT080 23/23 A2977=
200703102200 METAR MRLM 102200Z 22006KT 8000 DZ SCT030 BKN080 23/23 A2976 RMK RERA=
200703102300 METAR MRLM 102300Z 05006KT 9999 -DZ SCT030 BKN080 24/23 A2977 RMK RN ARND=
200703110000 METAR MRLM 110000Z 24003KT 9999 -DZ BKN035 SCT080 23/23 A2978 RN DST ARND=
200703110100 METAR MRLM NIL=
200703110500 METAR MRLM NIL=
200703110600 METAR MRLM NIL=
200703110700 METAR MRLM NIL=
200703110800 METAR MRLM NIL=
200703110900 METAR MRLM NIL=
200703111100 METAR MRLM NIL=
200703111200 METAR MRLM NIL=
200703111300 METAR MRLM 111300Z 24005KT 9999 +DZ FEW025 OVC100 23/23 A2983 RMK RN HZ ARND=
200703111400 METAR MRLM 111400Z 28004KT 9999 FEW004 SCT020 BKN110 25/24 A2984 RMK RN HZ ARND=
200703111500 METAR MRLM 111500Z 26005KT 9999 SCT015 BKN120 26/24 A2986 RMK RN DST N QD HZY=
200703111600 METAR MRLM 111600Z 28005KT 9999 SCT030 SCT150 29/23 A2985 RMK HZ RN TO S QD=
200703111700 METAR MRLM 111700Z 07004KT 9000 BKN032 SCT140 30/23 A2984 RMK HZY RN S/W=
200703111800 METAR MRLM 111800Z 03007KT 8000 RA BKN025 SCT110 29/24 A2982 RMK VIS S W UNL=
200703111900 METAR MRLM 111900Z NIL=
200703112000 METAR MRLM 112000Z NIL=
200703112100 METAR MRLM 112100Z 01013KT 9999 RA BKN025 SCT090 28/23 A2977 RMK HZ LGT ARND=
200703112200 METAR MRLM 112200Z 28002KT 9000 BKN025 29/23 A2976 RERA RMK RN ARND=
200703112300 METAR MRLM 112300Z 00000KT 9999 SCT020 BKN110 28/24 A2976 RMK VIS 7KM QUADRANTE N DUE RASH HZ ARND=
200703120000 METAR MRLM 120000Z 04004KT 9000 BKN015 SCT100 27/24 A2978 RERA RMK RN/HZ ARND=
200703120100 METAR MRLM NIL=
200703120200 METAR MRLM NIL=
200703120300 METAR MRLM NIL=
200703120400 METAR MRLM NIL=
200703120600 METAR MRLM NIL=
200703120700 METAR MRLM NIL=
200703120800 METAR MRLM NIL=
200703120900 METAR MRLM NIL=
200703121000 METAR MRLM NIL=
200703121100 METAR MRLM NIL=
200703121200 METAR MRLM NIL=
200703121300 METAR MRLM 121300Z 27005KT 9999 FEW015 BKN100 23/22 A2985 RMK RN QUADRANTES N/E HZ ARND=
200703121400 METAR MRLM 121400Z 28005KT 9999 FEW035 BKN110 25/23 A2986 RMK HZ ARND=
200703121500 METAR MRLM 121500Z VRB03KT 9999 BKN030 SCT100 27/23 A2988 RMK DZ QUADRANTES S/W HZ ARND=
200703121600 METAR MRLM 121600Z 10002KT 9999 FEW028 BKN110 29/24 A2988 RMK HZ ARND=
200703121700 METAR MRLM 121700Z 04004KT 9999 FEW025 BKN130 29/24 A2987 RMK HZY=
200703121800 METAR MRLM 121800Z VRB03KT 9000 FEW035 BKN150 30/23 A2984 RMK HZ ARND=
200703121900 METAR MRLM 121900Z 10006KT 9000 FEW035 BKN110 30/24 A2982 RMK HZ ARND=
200703122000 METAR MRLM 122000Z NIL=
200703122100 METAR MRLM 122100Z 02007KT 9999 FEW035 BKN120 28/24 A2978 HZY=
200703122200 METAR MRLM 122200Z VRB03KT 9999 BKN020 29/24 A2978=
200703122300 METAR MRLM 122300Z 07002KT 9999 BKN015 27/24 A2979 TCU RN W HZY=
200703130000 METAR MRLM 130000Z 06008KT 9999 OVC018 28/24 A2980 RN S W HZY=
200703130100 METAR MRLM NIL=
200703130200 METAR MRLM NIL=
200703130300 METAR MRLM NIL=
200703130500 METAR MRLM NIL=
200703130600 METAR MRLM NIL=
200703130700 METAR MRLM NIL=
200703130800 METAR MRLM NIL=
200703130900 METAR MRLM NIL=
200703131000 METAR MRLM NIL=
200703131100 METAR MRLM NIL=
200703131200 METAR MRLM NIL=
200703131300 METAR MRLM 131300Z 21006KT 9999 SCT024 23/23 A2988 HZY=
200703131400 METAR MRLM 131400Z 21004KT 9999 FEW024 27/24 A2991 HZY=
200703131500 METAR MRLM 131500Z 10004KT 9999 SCT024 23/14 A3010 HZY=
200703131600 METAR MRLM 131600Z 07004KT 9999 SCT024 29/23 A2993 HZY=
200703131700 METAR MRLM 131700Z 06006KT 9999 SCT024 SCT080 28/23 A2992 TCU RN NW N NE HZY=
200703131800 METAR MRLM 131800Z 01007KT 9999 SCT024 SCT080 28/22 A2990 HZY=
200703131900 METAR MRLM 131900Z 08007KT 9999 FEW024 29/23 A2987 HZY=
200703132000 METAR MRLM 132000Z NIL=
200703132100 METAR MRLM 132100Z 08010KT 9999 29/23 A2982 RMK HZ ARND=
200703132300 METAR MRLM 132300Z 10008KT 9999 FEW024 28/23 A2982 RMK HZ ARND=
200703140000 METAR MRLM 140000Z 10007KT 9999 FEW024 28/23 A2982 RMK HZ ARND=
200703140100 METAR MRLM NIL=
200703140200 METAR MRLM NIL=
200703140300 METAR MRLM NIL=
200703140400 METAR MRLM NIL=
200703140500 METAR MRLM NIL=
200703140600 METAR MRLM NIL=
200703140700 METAR MRLM NIL=
200703140800 METAR MRLM NIL=
200703140900 METAR MRLM NIL=
200703141100 METAR MRLM NIL=
200703141200 METAR MRLM 141200Z 27003KT CAVOK 19/19 A2983 RMK SCT100 HZ ARND=
200703141300 METAR MRLM 141300Z 22004KT CAVOK 22/20 A2985 RMK HZ ARND=
200703141400 METAR MRLM 141400Z 20004KT CAVOK 25/21 A2987 RMK FEW 100 HZ ARND=
200703141500 METAR MRLM 141500Z 06003KT CAVOK 28/22 A2988 RMK FEW100 HZ ARND=
200703141600 METAR MRLM 141600Z 02009KT CAVOK 28/21 A2988 RMK HZ ARND FEW100=
200703141700 METAR MRLM 141700Z 02010KT 9999 FEW030 29/22 A2986 RMK HZ ARND=
200703141800 METAR MRLM 141800Z 02008KT 9999 FEW030 28/22 A2983 RMK TCU DST NE HZ ARND=
200703141900 METAR MRLM 141900Z 05007KT 9999 FEW030 29/23 A2980 RMK HZ ARND=
200703142000 METAR MRLM 142000Z NIL=
200703142100 METAR MRLM 142100Z 05018KT 9999 FEW025 SCT100 28/23 A2977 RMK TCU SW W HZ ARND=
200703142200 METAR MRLM 142200Z 05008KT 9999 FEW025 SCT090 28/22 A2977 RMK HZ ARND=
200703142300 METAR MRLM 142300Z 08003KT 9999 FEW025 SCT090 28/21 A2977 RMK HZ ARND=
200703150000 METAR MRLM 150000Z 21004KT 9999 FEW028 SCT090 26/22 A2977 RMK HZ ARND=
200703150100 METAR MRLM NIL=
200703150200 METAR MRLM NIL=
200703150300 METAR MRLM NIL=
200703150400 METAR MRLM NIL=
200703150500 METAR MRLM NIL=
200703150600 METAR MRLM NIL=
200703150700 METAR MRLM NIL=
200703150800 METAR MRLM NIL=
200703150900 METAR MRLM NIL=
200703151000 METAR MRLM NIL=
200703151100 METAR MRLM NIL=
200703151200 METAR MRLM 151200Z NIL=
200703151300 METAR MRLM 151300Z VRB03KT CAVOK 22/20 A2979 RMK SCT280 HZ ARND=
200703151400 METAR MRLM 151400Z VRB03KT CAVOK 26/20 A2982 RMK SCT280 HZ ARND=
200703151500 METAR MRLM 151500Z 07005KT CAVOK 27/21 A2983 RMK SCT300 HZ ARND=
200703151600 METAR MRLM 151600Z 08007KT CAVOK 28/22 A2983 RMK SCT280 HZ ARND=
200703151700 METAR MRLM 151700Z 08008KT CAVOK 29/22 A2981 RMK SCT280 HZ ARND=
200703151800 METAR MRLM 151800Z 07008KT 9999 FEW035 SCT280 30/23 A2978 RMK HZ ARND=
200703151900 METAR MRLM 151900Z 07009KT 9999 FEW035 29/22 A2974 RMK HZ ARND=
200703152000 METAR MRLM NIL=
200703152100 METAR MRLM 152100Z 07008KT 9999 FEW035 29/22 A2970 RMK HZY=
200703152200 METAR MRLM 152200Z 06007KT 9999 FEW030 29/23 A2970 RMK HZY=
200703152300 METAR MRLM 152300Z 05004KT 9999 FEW028 29/23 A2997 RMK CB DST S SW HZY=
200703160000 METAR MRLM 160000Z 06004KT 9999 BKN025 28/23 A2972 RMK CB DST SE S W HZY=
200703160100 METAR MRLM NIL=
200703160200 METAR MRLM NIL=
200703160300 METAR MRLM NIL=
200703160400 METAR MRLM NIL=
200703160700 METAR MRLM NIL=
200703160800 METAR MRLM NIL=
200703160900 METAR MRLM NIL=
200703161000 METAR MRLM NIL=
200703161100 METAR MRLM NIL=
200703161200 METAR MRLM NIL=
200703161300 METAR MRLM 161300Z 20007KT CAVOK 23/22 A2979 RMK BKN110 TCU RN DST N QD HZY=
200703161400 METAR MRLM 161400Z 22004KT CAVOK 27/22 A2980 RMK FEW110 BKN280 TCU N HZY=
200703161500 METAR MRLM 161500Z VRB03KT 9999 FEW030 SCT280 29/23 A2982 RMK TCU DST NE HZY=
200703161600 METAR MRLM 161600Z 08005KT 9999 FEW032 SCT300 29/23 A2982 RMK HZY=
200703161700 METAR MRLM 161700Z 08005KT 9999 FEW032 SCT300 29/23 A2982 RMK HZ LGT ARND=
200703161800 METAR MRLM 161800Z 09006KT 9999 FEW025 SCT300 30/24 A2978=
200703161900 METAR MRLM 161900Z 06008KT 9999 FEW028 SCT300 30/24 A2976=
200703162000 METAR MRLM 162000Z NIL=
200703162100 METAR MRLM 162100Z 09010KT 9999 FEW028 SCT280 29/24 A2970 RMK HZ ARND CB S=
200703162200 METAR MRLM 162200Z 27008KT 9999 FEW028 SCT090 BKN280 28/23 A2971 RMK RN DST SW HZ LGT ARND=
200703162300 METAR MRLM 162300Z 07009KT 9999 SCT035 SCT090 BKN280 28/25 A2971 RMK RN DST S/SW HZ LGT ARND=
200703170000 METAR MRLM NIL=
200703170100 METAR MRLM NIL=
200703170200 METAR MRLM NIL=
200703170300 METAR MRLM NIL=
200703170400 METAR MRLM NIL=
200703170500 METAR MRLM NIL=
200703170600 METAR MRLM NIL=
200703170700 METAR MRLM NIL=
200703171000 METAR MRLM NIL=
200703171100 METAR MRLM NIL=
200703171200 METAR MRLM NIL=
200703171300 METAR MRLM 171300Z 23005KT 9999 FEW026 23/21 A2983 RMK HZY=
200703171400 METAR MRLM 171400Z 23004KT 9999 SCT100 25/22 A2985 RMK HZY=
200703171500 METAR MRLM 171500Z 00000KT 9999 FEW026 SCT100 28/22 A2986 RMK HZ ARND=
200703171600 METAR MRLM 171600Z 05004KT 9999 FEW026 29/22 A2986 RMK HZY=
200703171700 METAR MRLM 171700Z 04007KT 9999 FEW028 SCT300 29/23 A2986 RMK HZY=
200703171800 METAR MRLM 171800Z 03008KT 9999 FEW025 SCT280 30/24 A2984 RMK TCU DST NE HZY=
200703171900 METAR MRLM 171900Z 02004KT 9999 FEW024 BKN280 30/24 A2980 RMK HZY=
200703172000 METAR MRLM 172000Z NIL=
200703172100 METAR MRLM 172100Z 04008KT 9999 FEW025 BKN250 29/24 A2977 HZY=
200703172200 METAR MRLM 172200Z 06006KT 9999 SCT025 BKN250 29/23 A2976 HZY=
200703172300 METAR MRLM 172300Z 02008KT 9999 SCT025 BKN240 28/24 A2997=
200703180000 METAR MRLM 180000Z 032009KT 9999 SCT025 SCT240 28/24 A2978 HZY=
200703180100 METAR MRLM NIL=
200703180200 METAR MRLM NIL=
200703180300 METAR MRLM NIL=
200703180500 METAR MRLM NIL=
200703180600 METAR MRLM NIL=
200703180700 METAR MRLM NIL=
200703180800 METAR MRLM NIL=
200703180900 METAR MRLM NIL=
200703181000 METAR MRLM NIL=
200703181200 METAR MRLM NIL=
200703181300 METAR MRLM 181300Z 23005KT 9999 FEW025 24/21 A2983 HZY=
200703181400 METAR MRLM 181400Z 21004KT 9999 FEW025 27/22 A2986 HZY=
200703181500 METAR MRLM 181500Z 10008KT 9999 FEW025 29/22 A2988 HZY=
200703181600 METAR MRLM NIL=
200703181700 METAR MRLM 181700Z 04009KT 9999 FEW025 SCT100 29/23 A2986 HZY=
200703181800 METAR MRLM 181800Z 04023KT 9999 SCT025 SCT100 29/24 A2985 RN N NE HZY=
200703181900 METAR MRLM 181900Z 03020KT 9999 SCT025 BKN090 28/23 A2981 HZY=
200703182000 METAR MRLM 182000Z NIL=
200703182100 METAR MRLM 182100Z 05004KT 9999 FEW025 BKN080 30/21 A2976 RMK HZ LGT ARND=
200703182200 METAR MRLM 182200Z 04019KT 9999 FEW025 BKN090 28/23 A2977 RMK RN HZ LGT ARND=
200703182300 METAR MRLM 182300Z 04013KT 9999 FEW025 SCT090 27/22 A2978 RMK TCU DST W NW HZ LGT ARND=
200703190000 METAR MRLM 190000Z 30004KT 9999 FEW025 SCT090 27/22 A2979 RMK HZ ARND=
200703190100 METAR MRLM NIL=
200703190200 METAR MRLM NIL=
200703190400 METAR MRLM NIL=
200703190600 METAR MRLM NIL=
200703190700 METAR MRLM NIL=
200703190800 METAR MRLM NIL=
200703190900 METAR MRLM NIL=
200703191000 METAR MRLM NIL=
200703191100 METAR MRLM NIL=
200703191200 METAR MRLM NIL=
200703191300 METAR MRLM 191300Z 22996KT 9999 DZ BKN020 22/22 A2986 RMK RN HZ ARND=
200703191400 METAR MRLM 191400Z VRB03KT 9999 FEW015 BKN025 24/23 A2988 RMK RN HZ ARND=
200703191500 METAR MRLM 191500Z 36009KT 9999 SCT010 BKN025 25/23 A2990 RMK RN W N E HZ LGT ARND=
200703191600 METAR MRLM 191600Z 33007KT 9999 DZ BKN010 SCT025 25/23 A2991 RMK HZ ARND=
200703191700 METAR MRLM 191700Z VRB03KT 9999 BKN015 SCT025 26/23 A2990 RN DST W N HZ LGT ARND=
200703191800 METAR MRLM 191800Z 30008KT 9999 SCT018 SCT090 BKN110 27/23 A2987 RMK RN DST N S HZ LGT ARND=
200703191900 METAR MRLM 191900Z VRB03KT 9999 FEW025 SCT080 BKN110 28/23 A2984 RMK TCU RN DST N S SW HZ LGT ARND=
200703192000 METAR MRLM NIL=
200703192100 METAR MRLM NIL=
200703192200 METAR MRLM 192200Z VRB03KT 9999 FEW025 BKN120 28/23 A2979 RMK RN SW TCU N=
200703192300 METAR MRLM 192300Z 09002KT 9999 FEW020 BKN090 27/22 A2980 RMK HZ ARND RN SW=
200703200000 METAR MRLM 200000Z VRB03KT CAVOK 25/23 A2981 RMK SCT110 FEW300=
200703200100 METAR MRLM NIL=
200703200300 METAR MRLM NIL=
200703200700 METAR MRLM NIL=
200703200900 METAR MRLM NIL=
200703201000 METAR MRLM NIL=
200703201100 METAR MRLM NIL=
200703201200 METAR MRLM 201200Z NIL=
200703201300 METAR MRLM 201300Z 21008KT CAVOK 24/22 A2987 RMK DZ DST QUAD A NW=
200703201400 METAR MRLM 201400Z 19004KT CAVOK 27/22 A2988 RMK SCT130 LEVE HZY=
200703201500 METAR MRLM 201500Z 09006KT CAVOK 30/22 A2989 RMK FEW140 FEW300 LEVE HZY=
200703201600 METAR MRLM 201600Z 09006KT CAVOK 29/23 A2988 RMK FEW140 SCT300 LEVE HZY=
200703201700 METAR MRLM 201700Z 06007KT CAVOK 31/22 A2986 RMK FEW140 SCT300=
200703201800 METAR MRLM 201800Z 10013KT 9999 FEW045 BKN140 31/22 A2984 RMK LEVE HZY=
200703201900 METAR MRLM 201900Z 08015KT 9999 FEW040 BKN090 30/25 A2981 RMK HZY=
200703202000 METAR MRLM NIL=
200703202100 METAR MRLM 202100Z 07013KT 9999 FEW030 OVC090 29/23 A2978 RMK CB DST N HZ LGT ARND=
200703202200 METAR MRLM 202200Z 05014KT 9999 FEW025 OVC080 28/23 A2980 RMK RN DST N HZ ARND=
200703202300 METAR MRLM 202300Z 06011KT 9999 SCT015 BKN090 26/23 A2980 DZ N E RN S W=
200703210000 METAR MRLM 210000Z 36005KT 9999 SCT030 BKN090 27/21 A2980 RMK DZ N E RN DST SW HZ LGT ARND=
200703210100 METAR MRLM NIL=
200703210200 METAR MRLM NIL=
200703210300 METAR MRLM NIL=
200703210400 METAR MRLM NIL=
200703210500 METAR MRLM NIL=
200703210700 METAR MRLM NIL=
200703210800 METAR MRLM NIL=
200703210900 METAR MRLM NIL=
200703211000 METAR MRLM NIL=
200703211100 METAR MRLM NIL=
200703211200 METAR MRLM NIL=
200703211300 METAR MRLM 211300Z 22003KT 9999 FEW025 23/20 A2980 RMK TRAZAS AC=
200703211400 METAR MRLM 211400Z 35004KT 9999 FEW025 SCT100 27/21 A2982=
200703211500 METAR MRLM 211500Z 36009KT 9999 FEW025 BKN090 27/23 A2985 RMK RN NE HZY=
200703211600 METAR MRLM 211600Z 35011KT 9999 FEW025 BKN080 26/23 A2986 RN NE HZY=
200703211700 METAR MRLM 211700Z 03007KT 9999 FEW026 BKN080 27/23 A2984 RMK RN DST WNW HZY=
200703211800 METAR MRLM 211800Z 35012KT 9999 FEW026 BKN080 28/22 A2982 HZY=
200703211900 METAR MRLM 211900Z 27005KT 9999 FEW030 BKN080 28/21 A2980 RMK HZY=
200703212000 METAR MRLM 212000Z NIL=
200703212100 METAR MRLM 212100Z 29004KT 9999 FEW026 BKN090 28/21 A2976 RMK HZ LGT ARND=
200703212200 METAR MRLM 212200Z 27004KT 9999 FEW026 BKN090 29/22 A2075 RMK HZ LGT ARND=
200703212300 METAR MRLM 212300Z 03006KT 9999 FEW026 SCT090 29/22 A2975 RMK RN DST NE/E/SE/S CB S HZ ARND=
200703220000 METAR MRLM 220000Z 06004KT 9999 FEW030 BKN090 28/22 A2976 RMK RN DST E/SE HZ ARND=
200703220100 METAR MRLM NIL=
200703220200 METAR MRLM NIL=
200703220300 METAR MRLM NIL=
200703220400 METAR MRLM NIL=
200703220500 METAR MRLM NIL=
200703220600 METAR MRLM NIL=
200703220700 METAR MRLM NIL=
200703220800 METAR MRLM NIL=
200703220900 METAR MRLM NIL=
200703221000 METAR MRLM NIL=
200703221200 METAR MRLM NIL=
200703221300 METAR MRLM 221300Z 23007KT 9999 FEW028 BKN080 22/20 A2979 RMK DZ NE/E HZY=
200703221400 METAR MRLM 221400Z 29005KT 9999 FEW028 BKN090 24/22 A2981 RMK HZY=
200703221500 METAR MRLM 221500Z 29005KT 9999 FEW028 BKN090 27/22 A2983 RMK RN DST ENE HZY=
200703221600 METAR MRLM 221600Z 32009KT 9999 FEW028 SCT100 29/22 A2982 RMK HZY=
200703221700 METAR MRLM 221700Z 36012KT 9999 FEW028 BKN100 29/24 A2981 RMK DZ N/NE HZY=
200703221800 METAR MRLM 221800Z 02009KT 9999 FEW028 BKN080 29/24 A2978 RMK RN DST=
200703221900 METAR MRLM 221900Z 05011KT 9999 SCT028 BKN080 28/24 A2976 RMK TCU/RN DST SSW HZY=
200703222000 METAR MRLM 222000Z NIL=
200703222100 METAR MRLM 222100Z 03007KT 9999 FEW028 BKN090 29/22 A2971 HZY=
200703222200 METAR MRLM 222200Z 04005KT 9999 FEW028 BKN090 28/21 A2971 CB DST S HZY=
200703222300 METAR MRLM 222300Z 07004KT 9999 FEW028 BKN090 28/22 A2971=
200703230000 METAR MRLM 230000Z 00000KT 9999 FEW028 SCT090 28/23 A2971 HZY=
200703230100 METAR MRLM NIL=
200703230300 METAR MRLM NIL=
200703230400 METAR MRLM NIL=
200703230700 METAR MRLM NIL=
200703230800 METAR MRLM NIL=
200703230900 METAR MRLM NIL=
200703231000 METAR MRLM NIL=
200703231100 METAR MRLM NIL=
200703231200 METAR MRLM NIL=
200703231300 METAR MRLM 231300Z 25006KT CAVOK 23/21 A2977 FEW110 HZY=
200703231400 METAR MRLM 231400Z VRB03KT CAVOK 27/21 A2979 FEW140 TCU NE=
200703231500 METAR MRLM 231500Z 04006KT CAVOK 29/22 A2980 TCU NE FEW140=
200703231600 METAR MRLM 231600Z 02007KT 9999 FDEW025 29/24 A2980 HZY=
200703231700 METAR MRLM 231700Z 34009KT 9999 FEW030 SCT110 29/23 A2978 HZY=
200703231800 METAR MRLM 231800Z 02009KT 9999 FEW030 SCT120 29/23 A2976 HZY=
200703231900 METAR MRLM 231900Z 36009KT 9999 FEW035 29/22 A2974=
200703232000 METAR MRLM 232000Z NIL=
200703232100 METAR MRLM 232100Z 01008KT 9999 FEW028 29/23 A2970 RMK HZ LGT ARND=
200703232200 METAR MRLM 232200Z 03009KT 9999 BKN025 28/23 A2970 RMK CB DST SE S HZ LGT ARND=
200703232300 METAR MRLM 232300Z 02009KT 9999 SCT025 28/23 A2970 RMK CB DST S HZ LGT ARND=
200703240000 METAR MRLM 240000Z 03004KT 9999 SCT025 28/23 A2971=
200703240100 METAR MRLM NIL=
200703240300 METAR MRLM NIL=
200703240400 METAR MRLM NIL=
200703240500 METAR MRLM NIL=
200703240600 METAR MRLM NIL=
200703240700 METAR MRLM NIL=
200703240800 METAR MRLM NIL=
200703240900 METAR MRLM NIL=
200703241000 METAR MRLM NIL=
200703241100 METAR MRLM NIL=
200703241200 METAR MRLM 241200Z NIL=
200703241300 METAR MRLM 241300Z 21005KT 9999 FEW020 OVC090 23/22 A2981 RMK DZ S E TCU RN DST N HZ LGT ARND=
200703241400 METAR MRLM 241400Z 23006KT 9999 FEW015 OVC090 25/22 A2983 RMK TCU RN DST N HZ LGT ARND=
200703241500 METAR MRLM 241500Z 26004KT CAVOK 26/22 A2984 RMK RN DST N NE HZ LGT ARND=
200703241600 METAR MRLM 241600Z 31005KT CAVOK 29/23 A2984 RMK TCU DST N HZ LGT ARND BKN100=
200703241700 METAR MRLM 241700Z 02010KT 9999 FEW025 29/24 A2982 RMK HZ LGT ARND=
200703241800 METAR MRLM 241800Z 03009KT 9999 FEW025 29/23 A2979 RMK TCU DST NE HZ LGT ARND=
200703241900 METAR MRLM 241900Z 03009KT 9999 FEW028 SCT120 29/23 A2978=
200703242000 METAR MRLM NIL=
200703242100 METAR MRLM 242100Z 03009KT 9999 FEW030 SCT130 30/24 A2975 RMK RN DST SW TCU DST N NE LEVE HZY=
200703242200 METAR MRLM 242200Z 03006KT 9999 FEW030 SCT110 29/23 A2975 RMK RN DST SW CB DST S LEVE HZY=
200703242300 METAR MRLM 242300Z 01007KT 9999 FEW025 BKN100 28/23 A2975 RMK CB DST QUAD S=
200703250000 METAR MRLM 250000Z 36009KT 9999 SCT025 BKN110 28/23 A2976 RN DST QUAD S=
200703250100 METAR MRLM NIL=
200703250200 METAR MRLM NIL=
200703250300 METAR MRLM NIL=
200703250400 METAR MRLM NIL=
200703250500 METAR MRLM NIL=
200703250600 METAR MRLM NIL=
200703250700 METAR MRLM NIL=
200703250800 METAR MRLM NIL=
200703250900 METAR MRLM NIL=
200703251000 METAR MRLM NIL=
200703251100 METAR MRLM NIL=
200703251300 METAR MRLM 251300Z 26007KT 9999 SCT028 SCT080 24/23 A2982 RERA RMK RN DST NW N NE=
200703251400 METAR MRLM 251400Z 28003KT 9999 BKN028 SCT080 24/23 A2984 RMK RN DST NW N NE E=
200703251500 METAR MRLM 251500Z 08003KT 9999 BKN028 SCT080 25/23 A2986 REDZ RMK RN DST ARND=
200703251600 METAR MRLM 251600Z 30006KT 9999 3000NW DZ BKN028 SCT080 25/23 A2987 RN DST ARND=
200703251700 METAR MRLM 251700Z 25006KT 9999 BKN030 SCT090 25/23 A2985 REDZ RMK RN DST ARND=
200703251800 METAR MRLM 251800Z 27012KT 9999 -DZ FEW028 BKN080 25/23 A2982 RMK RN DST ARND=
200703251900 METAR MRLM 251900Z 23008KT 9999 FEW028 BKN090 27/22 A2979=
200703252000 METAR MRLM 252000Z NIL=
200703252100 METAR MRLM 252100Z 03015KT 9999 BKN028 SCT080 26/22 A2976 RMK RN DST ARND=
200703252200 METAR MRLM 252200Z 02009KT 9999 BKN028 SCT0890 27/22 A2975=
200703252300 METAR MRLM 252300Z 29007KT 9999 SCT026 BKN080 24/22 A2976 RMK RN ARND=
200703260000 METAR MRLM 260000Z 30003KT 9999 3000NW -DZ BKN025 SCT080 23/21 A2976=
200703260100 METAR MRLM NIL=
200703260200 METAR MRLM NIL=
200703260300 METAR MRLM NIL=
200703260400 METAR MRLM NIL=
200703260500 METAR MRLM NIL=
200703260600 METAR MRLM NIL=
200703260700 METAR MRLM NIL=
200703260800 METAR MRLM NIL=
200703260900 METAR MRLM NIL=
200703261000 METAR MRLM NIL=
200703261100 METAR MRLM NIL=
200703261200 METAR MRLM 261200Z NIL=
200703261300 METAR MRLM 261300Z 27003KT 9999 FEW025 BKN090 24/22 A2980=
200703261400 METAR MRLM 261400Z 28007KT 9999 FEW025 BKN100 27/22 A2983 RMK HZY=
200703261500 METAR MRLM 261500Z 30011KT 9999 FEW030 28/22 A2983 RMK FEW100 HZY=
200703261600 METAR MRLM 261600Z 34009KT 9999 FEW030 29/21 A2982=
200703261700 METAR MRLM 261700Z 36012KT 9999 FEW030 30/21 A2980=
200703261800 METAR MRLM 261800Z 01012KT 9999 FEW030 29/23 A2977 RMK FEW AC=
200703261900 METAR MRLM 261900Z 36013KT 9999 FEW030 29/23 A2975=
200703262000 METAR MRLM 262000Z 36012KT 9999 FEW028 29/23 A2972 RMK FEW AC RN DST SW=
200703262100 METAR MRLM 262100Z 36013KT 9999 FEW026 SCT090 28/23 A2970 RMK RN DST SW=
200703262200 METAR MRLM 262200Z 01010KT 9999 FEW026 BKN080 28/23 A2970 RMK RN DST S/SW=
200703262300 METAR MRLM 262300Z 36009KT 9999 FEW026 SCT080 28/23 A2971 RMK DST SE/S/SW=
200703270000 METAR MRLM 270000Z 33005KT 9999 BKM026 27/23 A2972 RMK RN DST SE/S/SW/E=
200703270100 METAR MRLM NIL=
200703270200 METAR MRLM NIL=
200703270300 METAR MRLM NIL=
200703270400 METAR MRLM NIL=
200703270600 METAR MRLM NIL=
200703270700 METAR MRLM NIL=
200703270800 METAR MRLM NIL=
200703270900 METAR MRLM NIL=
200703271000 METAR MRLM NIL=
200703271100 METAR MRLM NIL=
200703271200 METAR MRLM 271200Z NIL=
200703271300 METAR MRLM 271300Z 23005KT 9999 FEW015 23/21 A2977 RMK HZ LGT ARND=
200703271400 METAR MRLM 271400Z 23004KT 9999 FEW015 27/22 A2980 RMK HZ LGT ARND=
200703271500 METAR MRLM 271500Z 33006KT 9999 FEW035 29/21 A2980 RMK HZ LGT ARND=
200703271600 METAR MRLM 271600Z 02009KT 9999 FEW038 29/22 A2980 RMK HZ LGT ARND=
200703271700 METAR MRLM 271700Z 03011KT 9999 FEW030 SCT250 29/23 A2978 RMK HZ LGT ARND=
200703271800 METAR MRLM 271800Z 02010KT 9999 FEW032 SCT300 29/23 A2978 RMK HZ LGT ARND=
200703271900 METAR MRLM 271900Z 03010KT 9999 FEW025 SCT300 29/24 A2974 RMK HZ LGT ARND=
200703272000 METAR MRLM 272000Z NIL=
200703272100 METAR MRLM 272100Z 03009KT 9999 BKN025 29/24 A2971 HZ RN S SW=
200703272200 METAR MRLM 272200Z 03009KT 9999 SCT025 SCT120 28/23 A2970 CB RN SE S SW W=
200703272300 METAR MRLM 272300Z 04006KT 9999 BKN025 28/23 A2972 RN SE S SW W=
200703280000 METAR MRLM 280000Z 04006KT 9999 BKN025 SCT100 28/23 A2973 RN SE S SW W=
200703280200 METAR MRLM NIL=
200703280300 METAR MRLM NIL=
200703280400 METAR MRLM NIL=
200703280500 METAR MRLM NIL=
200703280600 METAR MRLM NIL=
200703280700 METAR MRLM NIL=
200703280800 METAR MRLM NIL=
200703280900 METAR MRLM NIL=
200703281000 METAR MRLM NIL=
200703281100 METAR MRLM NIL=
200703281200 METAR MRLM NIL=
200703281300 METAR MRLM 281300Z 25005KT CAVOK 24/22 A2978 FEW100 BKN300 HZY=
200703281400 METAR MRLM 281400Z VRB03KT CAVOK 29/22 A2980 FEW120 OVC300 HZY=
200703281500 METAR MRLM 281500Z 07004KT CAVOK 29/23 A2981 OVC280 HZY=
200703281600 METAR MRLM 281600Z 03007KT 9999 FEW028 BKN280 29/23 A2980 HZY=
200703281700 METAR MRLM 281700Z 04008KT 9999 FEW030 BKN280 30/24 A2979 HZY=
200703281800 METAR MRLM 281800Z 05008KT 9999 FEW028 BKN280 29/24 A2976=
200703281900 METAR MRLM 281900Z 03008KT 9999 FEW035 SCT280 30/23 A2975=
200703282000 METAR MRLM 282000Z NIL=
200703282100 METAR MRLM 282100Z 04006KT 9999 FEW032 SCT280 30/24 A2971 RMK CB DST S RN DST SW HZ LGT ARND=
200703282200 METAR MRLM 07005KT 9999 SCT028 SCT110 29/23 A2971 RMK RN DST SW=
200703282300 METAR MRLM 282300Z 06004KT 9999 BKN025 SCT090 28/23 A2970 RMK RN DST S SW=
200703290000 METAR MRLM 290000Z 10002KT 9999 SCT025 SCT090 28/23 A2971=
200703290100 METAR MRLM NIL=
200703290200 METAR MRLM NIL=
200703290300 METAR MRLM NIL=
200703290400 METAR MRLM NIL=
200703290500 METAR MRLM NIL=
200703290600 METAR MRLM NIL=
200703290700 METAR MRLM NIL=
200703290800 METAR MRLM NIL=
200703290900 METAR MRLM NIL=
200703291000 METAR MRLM NIL=
200703291100 METAR MRLM NIL=
200703291200 METAR MRLM 291200Z 21005KT 9999 FEW026 BKN300 23/21 A2977=
200703291300 METAR MRLM 291300Z 21006KT 9999 FEW026 BKN300 25/22 A2979=
200703291400 METAR MRLM 291400Z 10003KT 9999 FEW026 BKN300 29/23 A2981=
200703291500 METAR MRLM 291500Z 06003KT 9999 FEW026 BKN300 29/24 A2982=
200703291600 METAR MRLM 291600Z 06007KT 9999 SCT026 BKN300 29/24 A2980=
200703291700 METAR MRLM 291700Z 05007KT 9999 FEW026 BKN300 30/24 A2979=
200703291800 METAR MRLM 291800Z 03009KT 9999 FEW026 BKN300 30/24 A2976=
200703291900 METAR MRLM 291900Z 05009KT 9999 FEW026 BKN300 A2973=
200703292000 METAR MRLM 292000Z NIL=
200703292100 METAR MRLM 292100Z 05006KT 9999 FEW026 SCT090 29/22 A2969=
200703292200 METAR MRLM 292200Z 04006KT 9999 FEW026 SCT300 29/23 A2969=
200703292300 METAR MRLM 292300Z 05004KT 9999 FEW026 SCT260 29/23 A2970 RMK RN DST S SW W=
200703300000 METAR MRLM 300000Z 05003KT 9999 SCT026 28/23 A2971=
200703300100 METAR MRLM NIL=
200703300200 METAR MRLM NIL=
200703300300 METAR MRLM NIL=
200703300400 METAR MRLM NIL=
200703300500 METAR MRLM NIL=
200703300600 METAR MRLM NIL=
200703300700 METAR MRLM NIL=
200703300900 METAR MRLM NIL=
200703301000 METAR MRLM NIL=
200703301200 METAR MRLM 301200Z NIL=
200703301300 METAR MRLM 301300Z 21006KT 9999 FEW025 24/22 A2976 RMK LEVE HZY=
200703301400 METAR MRLM 301400Z 07003KT 9999 FEW025 28/23 A2978 RMK RN DST N NE=
200703301500 METAR MRLM 301500Z 09005KT 9999 FEW025 SCT080 29/23 A2979 RMK DST RN NW N=
200703301600 METAR MRLM 301600Z 27007KT 9999 FEW030 BKN090 29/23 A2979 RMK RN DST N=
200703301700 METAR MRLM 301700Z 03010KT 9999 FEW026 BKN090 29/24 A2977=
200703301800 METAR MRLM 301800Z 05008KT 9999 FEW028 BKN090 30/24 A2976=
200703301900 METAR MRLM 301900Z 07007KT 9999 SCT028 SCT090 29/24 A2973 RMK RN DST SSW SW=
200703302000 METAR MRLM NIL=
200703302100 METAR MRLM 302100Z 07006KT 9999 FEW026 BKN090 29/23 A2969 RMK RN DST SSW W=
200703302200 METAR MRLM 302200Z 09007KT 9999 FEW026 BKN090 29/22 A2967 RMK RN DST SE S SW=
200703302300 METAR MRLM 302300Z 13006KT 9999 SCT026 BKN090 29/22 A2968 RMK RN DST SE SS W=
200703310000 METAR MRLM 310000Z 10005KT 9999 SCT025 BKN080 28/22 A2969 RMK RN DST SW=
200703310100 METAR MRLM NIL=
200703310300 METAR MRLM NIL=
200703310400 METAR MRLM NIL=
200703310500 METAR MRLM NIL=
200703310600 METAR MRLM NIL=
200703310700 METAR MRLM NIL=
200703310800 METAR MRLM NIL=
200703310900 METAR MRLM NIL=
200703311000 METAR MRLM NIL=
200703311100 METAR MRLM NIL=
200703311200 METAR MRLM NIL=
200703311300 METAR MRLM 311300Z 23006KT CAVOK 24/20 A2973 RMK SCT120 FEW300 HZY=
200703311400 METAR MRLM 311400Z VRB03KT 9999 FEW015 SCT120 27/21 A2971 RMK RN DST N NE E HZY=
200703311500 METAR MRLM 311500Z 07004KT 9999 FEW035 BKN120 28/22 A2978 RMK RN DST N NE E=
200703311600 METAR MRLM 311600Z 06009KT 9999 SCT030 BKN110 29/23 A2977 RMK RMN DST N NE E=
200703311700 METAR MRLM 311700Z 06011KT 9999 FEW025 OVC110 29/24 A2976 RMK DZ N NE HZY=
200703311800 METAR MRLM 311800Z 06009KT 9999 FEW028 OVC110 29/23 A2974 RMK DZ NE E HZY=
200703311900 METAR MRLM 311900Z 07012KT 9999 SCT028 OVC100 29/23 A2971 RMK DZ N NE E=
200703312000 METAR MRLM 312000Z NIL=
200703312100 METAR MRLM 312100Z 07014KT 9999 SCT015 BKN100 27/23 A2969 RMK RN/HZ ARND=
200703312200 METAR MRLM 312200Z 10012KT 9999 FEW018 OVC090 27/23 A2968 RMK RN QUADRANTES DEL S/W DZ QUADRANTE E=
200703312300 METAR MRLM 312300Z 08009KT 9999 FEW020 BKN110 27/23 A2968 RMK RN DST S/SW/W DZ EN LOS QUADRANTES N/E=
200704010000 METAR MRLM 010000Z VRB03KT 9999 FEW018 OVC090 26/23 A2969 RMK RN DST S/SW/W DZ EN LOS QUADRANTES N/E=
200704010100 METAR MRLM NIL=
200704010200 METAR MRLM NIL=
200704010300 METAR MRLM NIL=
200704010400 METAR MRLM NIL=
200704010500 METAR MRLM NIL=
200704010600 METAR MRLM NIL=
200704010700 METAR MRLM NIL=
200704010800 METAR MRLM NIL=
200704010900 METAR MRLM NIL=
200704011100 METAR MRLM NIL=
200704011200 METAR MRLM NIL=
200704011300 METAR MRLM 011300Z 22005KT CAVOK 24/22 A2975 RMK SCT130 FEW300 HZ LGT ARND=
200704011400 METAR MRLM 011400Z 21004KT CAVOK 28/23 A2977 RMK HZ LGT ARND=
200704011500 METAR MRLM 011500Z 11007KT 9999 FEW032 BKN110 29/23 A2978 RMK HZ LGT ARND=
200704011600 METAR MRLM 011600Z 11008KT 9999 FEW035 BKN100 30/24 A2978 RMK HZ LGT ARND=
200704011700 METAR MRLM 011700Z 011700Z11007KT 9999 FEW040 SCT120 31/23 A2977 RMK TCU DST N/NE HZ LGT ARND=
200704011800 METAR MRLM 011800Z 09007KT 9999 FEW038 BKN110 31/23 A2976 RMK TCU DST QUADRANTE N HZ LGT ARND=
200704011900 METAR MRLM 011900Z 11008KT 9999 FEW035 BKN110 30/24 A2974 RMK HZ LGT ARND=
200704012000 METAR MRLM 012000Z NIL=
200704012100 METAR MRLM 012100Z 08009KT 9999 FEW035 BKN120 31/24 A2970 CB SW S=
200704012200 METAR MRLM 012200Z 09009KT 9999 FEW026 BKN140 30/25 A2969 CB S SW=
200704012300 METAR MRLM 012300Z 10008KT 9999 FEW020 SCT120 BKN280 29/25 A2970 CB S SW W=
200704020000 METAR MRLM 020000Z 10007KT 9999 BKN018 SCT280 28/25 A2972 TCU RN NW E=
200704020100 METAR MRLM NIL=
200704020200 METAR MRLM NIL=
200704020300 METAR MRLM NIL=
200704020400 METAR MRLM NIL=
200704020500 METAR MRLM NIL=
200704020600 METAR MRLM NIL=
200704020800 METAR MRLM NIL=
200704020900 METAR MRLM NIL=
200704021000 METAR MRLM NIL=
200704021100 METAR MRLM NIL=
200704021200 METAR MRLM 021200Z 21006KT 9999 FEW026 SCT090 23/22 A2975 HZY=
200704021300 METAR MRLM 021300Z 21003KT 9999 FEW025 SCT090 25/23 A2977 RN W NW N=
200704021400 METAR MRLM 021400Z 06003KT 9999 FEW026 SCT090 28/25 A2980 RN W NW=
200704021500 METAR MRLM 021500Z 09005KT 9999 FEW026 29/24 A2980 HZY=
200704021600 METAR MRLM 021600Z 09006KT 9999 FEW026 30/24 A2981 TCU NW N NE=
200704021700 METAR MRLM 021700Z 09009KT 9999 FEW026 SCT090 30/24 A2979 RN N NE=
200704021800 METAR MRLM 021800Z 09011KT 9999 FEW026 SCT090 30/25 A2977 RN N=
200704021900 METAR MRLM 021900Z 08010KT 9999 FEW026 BKN090 30/25 A2974=
200704022000 METAR MRLM 022000Z NIL=
200704022100 METAR MRLM 022100Z 08012KT 9999 FEW026 BKN230 30/25 A2971 RMK TCU DST NW SSW HZ ARND=
200704022300 METAR MRLM 022300Z 07009KT 9999 FEW025 BKN230 29/25 A2972 RMK TCU RN DST SW HZ ARND=
200704030000 METAR MRLM 030000Z 08010KT 9999 BKN025 SCT230 28/25 A2974=
200704030100 METAR MRLM NIL=
200704030200 METAR MRLM NIL=
200704030300 METAR MRLM NIL=
200704030400 METAR MRLM NIL=
200704030500 METAR MRLM NIL=
200704030600 METAR MRLM NIL=
200704030700 METAR MRLM NIL=
200704030800 METAR MRLM NIL=
200704030900 METAR MRLM NIL=
200704031000 METAR MRLM NIL=
200704031100 METAR MRLM NIL=
200704031200 METAR MRLM 031200Z 21005KT 9999 FEW026TCU BKN250 23/23 A2976 RMK RN DST WNW/NW/N/NE HZ ARND=
200704031300 METAR MRLM 031300Z 23003KT 9999 FEW026 SCT090 29/24 A2980 RMK TCU NW N NE E RN E HZ ARND=
200704031400 METAR MRLM 031400Z 20004KT 9999 FEW026 SCT250 27/25 A2980 RMK TCU RN DST NW N E HZ ARND=
200704031500 METAR MRLM 031500Z 07003KT 9999 SCT026 SCT080 29/25 A2981 RMK TCU RN DST NW N NE E HZ ARND=
200704031600 METAR MRLM NIL=
200704031700 METAR MRLM 031700Z 10006KT 9999 SCT026 BKN250 29/24 A2981 RMK TCU RN DST NW N NE E HZ ARND=
200704031800 METAR MRLM 031800Z 07007KT 9999 +DZ BKN025 SCT080 28/24 A2979 RMK TCU RN DST ARND=
200704031900 METAR MRLM 031900Z 11004KT 9999 BKN025 SCT080 29/25 A2976 REDZ RMK TCU RN HZ ARND=
200704032000 METAR MRLM 032000Z NIL=
200704032100 METAR MRLM 032100Z 02005KT 9999 BKN026 SCT080 27/24 A2973 RMK TCU RN HZ ARND=
200704032200 METAR MRLM NIL=
200704032300 METAR MRLM NIL=
200704040000 METAR MRLM 040000Z 24004KT 6000 TS -RA FEW020CB BKN025 24/24 A2976 RMK CB W E TS E=
200704040100 METAR MRLM NIL=
200704040200 METAR MRLM NIL=
200704040300 METAR MRLM NIL=
200704040400 METAR MRLM NIL=
200704040500 METAR MRLM NIL=
200704040600 METAR MRLM NIL=
200704040800 METAR MRLM NIL=
200704040900 METAR MRLM NIL=
200704041000 METAR MRLM NIL=
200704041100 METAR MRLM NIL=
200704041200 METAR MRLM 041200Z NIL=
200704041300 METAR MRLM 041300Z 26002KT 9999 FEW012 SCT025 BKN090 25/24 A2976 RMK RN HZ ARND=
200704041400 METAR MRLM 041400Z 27004KT 9999 FEW015 SCT025 BKN110 26/25 A2977 RMK RN DST QUAD W N HZY=
200704041500 METAR MRLM 041500Z 06005KT 9999 SCT025 SCT110 27/25 A2978 RMK RN DST QUAD N HZY=
200704041600 METAR MRLM 041600Z 02005KT 9999 FEW015 BKN090 28/25 A2978 RMK HZY=
200704041700 METAR MRLM 041700Z 02006KT 9999 FEW022 BKN110 30/25 A2977 RMK HZY=
200704041800 METAR MRLM 041800Z 02008KT 9999 FEW020 BKN110 29/25 A2974 RMK RN DST QUAD E DZ W LEVE HZY=
200704041900 METAR MRLM 041900Z 04008KT 9999 FEW022 BKN120 30/25 A2977 RMK RN QUAD W E LEVE HZY=
200704042000 METAR MRLM 042000Z NIL=
200704042100 METAR MRLM 042100Z 08009KT 9999 SCT014 SCT110 27/25 A2969 RMK RN HZ ARND CBS DST N /E=
200704042200 METAR MRLM 042200Z 08004KT 9999 DZ BKN020 SCT140 27/25 A2967 RMK RN HZ ARND=
200704042300 METAR MRLM 042300Z VRB03KT 9999 VCSH OVC012 27/25 A2967 RMK VIS 5KMS SE DUE RASH=
200704050000 METAR MRLM 050000Z VRB03KT 9999 DZ VCSH SCT010 SCT090 26/24 A2968 RMK VIS 7KMS TO N QD=
200704050100 METAR MRLM NIL=
200704050200 METAR MRLM NIL=
200704050300 METAR MRLM NIL=
200704050400 METAR MRLM NIL=
200704050600 METAR MRLM NIL=
200704050700 METAR MRLM NIL=
200704050900 METAR MRLM NIL=
200704051000 METAR MRLM NIL=
200704051100 METAR MRLM NIL=
200704051200 METAR MRLM NIL=
200704051300 METAR MRLM 051300Z 22004KT 2000 +RA OVC003 23/22 A2976=
200704051400 METAR MRLM 051400Z 21006KT 5000 -RA FEW003 BKN020 23/22 A2978=
200704051500 METAR MRLM 051500Z 23007KT 7000 -RA FEW002 SCT025 BKN090 22/22 A2976 RMK VIS NW N UNL=
200704051600 METAR MRLM 051600Z 19006KT 9999 RA FEW002 SCT025 OVC090 23/22 A2980=
200704051700 METAR MRLM 051700Z 20005KT 9999 RA FEW010 SCT030 OVC100 23/23 A2978 RMK CBS DST N/E=
200704051800 METAR MRLM 051800Z 20004KT 9999 BKN035 SCT130 25/24 A2977 RMK RERA CBS RN DST N E=
200704051900 METAR MRLM 051900Z 25005KT 9999 FEW010 BKN035 26/24 A2974 RMK CBS RN DST E QD DZ SW W=
200704052000 METAR MRLM 052000Z NIL=
200704052100 METAR MRLM 052100Z 12006KT CAVOK 28/25 A2967 RMK BKN090 SCT270 SC DST QUADRANTES N/E RN DST E/SE=
200704052200 METAR MRLM 052200Z 09006KT CAVOK 28/24 A2966 RMK SCT140 OVC270 CB DST QUADRANTE N/E RN DST QUARANTE S=
200704052300 METAR MRLM 052300Z 00000KT CAVOK 28/24 A2967 RMK SCT140 OVC270 CB/RN DST SW HZ LGT ARND=
200704060000 METAR MRLM 060000Z 00000KT CAVOK 26/24 A2969 RMK SCT140 OVC270 CB/RN DST S/SW HZ LGT ARND=
200704060100 METAR MRLM NIL=
200704060200 METAR MRLM NIL=
200704060300 METAR MRLM NIL=
200704060400 METAR MRLM NIL=
200704060500 METAR MRLM NIL=
200704060600 METAR MRLM NIL=
200704060800 METAR MRLM NIL=
200704060900 METAR MRLM NIL=
200704061000 METAR MRLM NIL=
200704061100 METAR MRLM NIL=
200704061200 METAR MRLM 061200Z 24003KT 9999 BKN026 SCT045 22/22 A2973 RMK RN DST NW N NE E=
200704061300 METAR MRLM 061300Z 08013KT 4000 +DZ BKN020 SCT040 24/23 A2976 RMK RN ARND=
200704061400 METAR MRLM 061400Z 22005KT 9999 -DZ SCT028 BKN080 24/23 A2977 RERA RMK RN DST ARND=
200704061500 METAR MRLM 061500Z 21003KT 9999 FEW030 BKN090 26/24 A2978 REDZ RMK RN DST ARND=
200704061600 METAR MRLM 061600Z 02003KT 9999 FEW030 BKN090 27/24 A2978 RMK RN DST NW/N/NE=
200704061700 METAR MRLM 061700Z 36014KT 9999 SCT030 SCT080 28/24 A2978 RMK RN DST ARND=
200704061800 METAR MRLM 061800Z 01011KT 9999 SCT028 BKN080 28/25 A2976 RMK RN DST NW/N/NE/S/SW=
200704061900 METAR MRLM 061900Z 010010KT 9999 SCT028 BKN090 27/24 A2973 RN DST ARND=
200704062000 METAR MRLM 062000Z NIL=
200704062100 METAR MRLM 072100Z 35006KT 9999 SCT030 BKN090 28/23 A2969 RN ARND=
200704062200 METAR MRLM 062200Z 29007KT 9999 SCT025 BKN090 27/24 A2970 RN ARND=
200704062300 METAR MRLM 062300Z 26005KT 9999 FEW025 BKN090 26/24 A2972 RN SW W NW=
200704070000 METAR MRLM 070000Z 26004KT 9999 FEW026 BKN090 25/24 A2974 RN SW W=
200704070100 METAR MRLM NIL=
200704070200 METAR MRLM NIL=
200704070300 METAR MRLM NIL=
200704070400 METAR MRLM NIL=
200704070500 METAR MRLM NIL=
200704070600 METAR MRLM NIL=
200704070700 METAR MRLM NIL=
200704070800 METAR MRLM NIL=
200704070900 METAR MRLM NIL=
200704071000 METAR MRLM NIL=
200704071200 METAR MRLM NIL=
200704071300 METAR MRLM 071300Z 06003KT 9999 -DZ BKN028 SCT090 25/24 A2982 RN ARND=
200704071400 METAR MRLM 071400Z 22006KT 9999 FEW025 BKN090 25/24 A2984 REDZ RN ARND=
200704071500 METAR MRLM 071500Z 25004KT 9999 FEW030 BKN090 26/24 A2985 RN N E SW=
200704071600 METAR MRLM 071600Z 21004KT 9999 SCT030 BKN090 28/24 A2985=
200704071700 METAR MRLM 071700Z 36016KT 9999 BKN030 SCT080 28/24 A2984 RN NW N NE S SW=
200704071800 METAR MRLM 071800Z 02008KT 9999 SCT025TCU BKN090 28/24 A2983 TCU RN NE E S SW=
200704071900 METAR MRLM 071900Z 02006KT 9999 SCT025 BKN090 27/24 A2980 RN N E S=
200704072000 METAR MRLM NIL=
200704072100 METAR MRLM 072100Z 03004KT 9999 FEW025 BKN090 28/23 A2977 RMK RN DST N S SW=
200704072200 METAR MRLM 072200Z 02004KT 9999 FEW025 BKN090 27/23 A2977 RMK RN DST N S SW=
200704072300 METAR MRLM 072300Z 00000KT 9999 SCT025 BKN090 27/23 A2978 RMK TCU DST S=
200704072350 METAR MRLM 080000Z 29003KT 9999 FEW025 SCT035 26/24 A2979=
200704080000 METAR MRLM 080000Z 29003KT 9999 FEW025 SCT035 26/24 A2979=
200704080200 METAR MRLM NIL=
200704080300 METAR MRLM NIL=
200704080500 METAR MRLM NIL=
200704080600 METAR MRLM NIL=
200704080700 METAR MRLM NIL=
200704080900 METAR MRLM NIL=
200704081000 METAR MRLM NIL=
200704081100 METAR MRLM NIL=
200704081200 METAR MRLM NIL=
200704081300 METAR MRLM 081300Z 22006KT 9999 FEW020 SCT090 BKN120 23/23 A2988 RMK RN HZY=
200704081400 METAR MRLM 081400Z VRB03KT 9999 BKN035 SCT100 24/23 A2990 RMK RN HZ ARND=
200704081500 METAR MRLM 081500Z 03005KT 9000 DZ FEW010 OVC100 25/23 A2991 RMK HZY=
200704081600 METAR MRLM 081600Z VRB03KT 8000 -DZ FEW012 OVC100 25/23 A2992 RMK HZY=
200704081700 METAR MRLM 081700Z 23008KT 9999 FEW006 BKN025 24/23 A2990 RMK RN HZY=
200704081800 METAR MRLM 081800Z 23007KT 9999 BKN025 SCT110 25/24 A2989 RMK RN HZ ARND=
200704081900 METAR MRLM 081900Z 25006KT 9999 FEW018 SCT090 BKN110 27/23 A2986 RNK RN/DZ DST S/W/N=
200704082000 METAR MRLM 082000Z NIL=
200704082200 METAR MRLM 082200Z 26002KT CAVOK 27/23 A2980 RMK BKN090 FEW270 RN DST S SW W=
200704082300 METAR MRLM 082300Z VRB03KT CAVOK 27/24 A2980=
200704082359 METAR MRLM 090000Z 30003KT CAVOK 26/24 A2981=
200704090000 METAR MRLM 090000Z 30003KT CAVOK 26/24 A2981=
200704090100 METAR MRLM NIL=
200704090300 METAR MRLM NIL=
200704090400 METAR MRLM NIL=
200704090500 METAR MRLM NIL=
200704090600 METAR MRLM NIL=
200704090700 METAR MRLM NIL=
200704090800 METAR MRLM NIL=
200704090900 METAR MRLM NIL=
200704091000 METAR MRLM NIL=
200704091100 METAR MRLM NIL=
200704091200 METAR MRLM NIL=
200704091300 METAR MRLM 091300Z 21002KT CAVOK 25/23 A2984 RMK CB DST NE SCT150 HZ LGT ARND=
200704091400 METAR MRLM 091400Z VRB03KT CAVOK 28/23 A2986 RMK SCT150 FEW300 CB DST N HZ LGT ARND=
200704091500 METAR MRLM 091500Z 04007KT CAVOK 29/23 A2988 RMK BKN170 FEW030 CB DST N HZ LGT ARND=
200704091600 METAR MRLM 091600Z 06006KT 9999 FEW025 BKN140 29/24 A2988 RMK TCU DST NW HZ LGT ARND=
200704091700 METAR MRLM 091700Z 03008KT 9999 FEW030 BKN280 30/24 A2986 RMK CB DST N=
200704091800 METAR MRLM 091800Z 02008KT 9999 FEW030 BKN270 30/24 A2988 RMK CB DST NW N HZ LGT ARND=
200704091900 METAR MRLM 091900Z 02007KT 9999 FEW030 BKN270 30/24 A2980 RMK CB DST N NE S=
200704092000 METAR MRLM 092000Z NIL=
200704092100 METAR MRLM 092100Z 03009KT 9999 FEW025 OVC270 29/25 A2975/ CB DIST SW W S N /HZY=
200704092200 METAR MRLM 092200Z 02006KT 9999 FEW020 OVC270 29/25 A2975 CB DIST S SW W N/ HZY=
200704092300 METAR MRLM 092300Z 36006KT 9999 FEW030 SCT140 BKN270 28/25 A2976/ CB=
200704100000 METAR MRLM 100000Z 01005KT 9999 SCT018 SCT120 28/25 A2977 RMK RN DIST N NE CB DIST S SW W HZY=
200704100100 METAR MRLM NIL=
200704100300 METAR MRLM NIL=
200704100400 METAR MRLM NIL=
200704100500 METAR MRLM NIL=
200704100600 METAR MRLM NIL=
200704100700 METAR MRLM NIL=
200704100800 METAR MRLM NIL=
200704100900 METAR MRLM NIL=
200704101000 METAR MRLM NIL=
200704101100 METAR MRLM NIL=
200704101200 METAR MRLM 101200Z 22005KT 9999 FEW026TCU SCT100 BKN250 22/22 A2974 RMK TCU NW N NE E RN E HZ ARND=
200704101300 METAR MRLM 101300Z 22003KT 9999 TS FEW025CB BKN080 23/23 A2978 TS NE/=
200704101400 METAR MRLM 101400Z 00000KT 9999 DZ FEW028 SCT080 24/23 A2980 RETS/CB NW N NE/ HZY=
200704101500 METAR MRLM 101500Z 26003KT 9999 +DZ FEW040 BKN080 25/24 A2981/RETS HZY=
200704101600 METAR MRLM 101600Z 26004KT 9999 -DZ SCT015 SCT100 26/25 A2981/RN S SW W NW=
200704101700 METAR MRLM 101700Z 05009KT 9999 FEW025 BKN250 29/25 A2978/ RN DIST SW W=
200704101800 METAR MRLM 101800Z 03011KT 9999 FEW025 SCT100 BKN220 29/25 A2976=
200704101900 METAR MRLM 101900Z 36009KT 9999 FEW025 BKN250 30/25 A2973 CB DIST SSW SW=
200704102000 METAR MRLM NIL=
200704102100 METAR MRLM 102100Z 02007KT 9999 FEW025 BKN250 29/25 A2967 RMK CB/RN SE/S/W/NW DST=
200704102200 METAR MRLM 102200Z 04007KT 9999 FEW026 BKN250 28/25 A2969 RMK CB/RN DST SE/S/SW/W=
200704102300 METAR MRLM 102300Z 07003KT 9999 FEW026 SCT090 BKN250 28/24 A2970 RMK CB/RN DST SE/S/SW/W=
200704110000 METAR MRLM 110000Z 08004KT 9999 FEW026 BKN150 28/24 A2970 RMK CB DST ARND RN E/SE/S/SW=
200704110100 METAR MRLM NIL=
200704110200 METAR MRLM NIL=
200704110300 METAR MRLM NIL=
200704110400 METAR MRLM NIL=
200704110500 METAR MRLM NIL=
200704110600 METAR MRLM NIL=
200704110700 METAR MRLM NIL=
200704110900 METAR MRLM NIL=
200704111000 METAR MRLM NIL=
200704111100 METAR MRLM NIL=
200704111200 METAR MRLM 111200Z 00000KT 9999 FEW025 BKN260 23/23 A2970 RMK HZ ARND=
200704111300 METAR MRLM 111300Z 21005KT 9999 FEW025 SCT260 25/24 A2972 RMK FEWAC HZ ARND=
200704111400 METAR MRLM 111400Z 00000KT 9999 FEW025 29/24 A2975 RMK TRAZAS CI HZ LGT ARND=
200704111500 METAR MRLM 111500Z 06004KT 9999 FEW025 30/24 A2976 RMK FEWCI HZ ARND=
200704111600 METAR MRLM 111600Z 08007KT 9999 FEW025 30/24 A2976 RMK FEWCI=
200704111700 METAR MRLM 111700Z 07007KT 9999 FEW025 30/25 A2975=
200704111800 METAR MRLM 111800Z 06007KT 9999 FEW025 SCT300 30/25 A2971=
200704111900 METAR MRLM 111900Z 07007KT 9999 FEW025 SCT300 30/25 A2968=
200704112000 METAR MRLM 112000Z NIL=
200704112100 METAR MRLM 112100Z 06007KT 9999 FEW025 BKN280 30/25 A2969 CB SE S=
200704112200 METAR MRLM 112200Z 08006KT 9999 FEW025 BKN250 30/25 A2964 CB RN SE S SW=
200704112300 METAR MRLM 112300Z 10008KT 9999 FEW028 BKN080 29/25 A2965 CB TS S SW=
200704120000 METAR MRLM 120000Z 11005KT 9999 SCT028 SCT080 29/25 A2967 CB SE SW RN SW=
200704120100 METAR MRLM NIL=
200704120300 METAR MRLM NIL=
200704120400 METAR MRLM NIL=
200704120500 METAR MRLM NIL=
200704120900 METAR MRLM NIL=
200704121000 METAR MRLM NIL=
200704121100 METAR MRLM NIL=
200704121200 METAR MRLM NIL=
200704121300 METAR MRLM 121300Z VRB03KT 9999 FEW015 BKN090 26/24 A2977 HZY RN N=
200704121400 METAR MRLM 121400Z VRB03KT CAVOK 28/25 A2980 SCT090 SCT110 HZY=
200704121500 METAR MRLM 121500Z VRB03KT 9999 FEW028 SCT120 30/24 A2980 CB N NE E RN E=
200704121600 METAR MRLM 121600Z 08007KT 9999 FEW025 SCT120 BKN270 30/25 A2980 RN E=
200704121700 METAR MRLM 121700Z 07007KT 9999 FEW020 SCT120 BKN270 30/26 A2979=
200704121800 METAR MRLM 121800Z 09008KT 9999 BKN023 31/23 A2977 CB SW W=
200704121900 METAR MRLM 121900Z 07008KT 9999 BKN020 30/26 A2976 CB RN SW W=
200704122000 METAR MRLM NIL=
200704122100 METAR MRLM 122100Z 10007KT 9999 BKN020 30/26 A2969 RMK CB DST S W RN DST W=
200704122200 METAR MRLM 122200Z 09006KT 9999 SCT020 BKN270 29/25 A2969 RMK CB DST W RN DST W=
200704122300 METAR MRLM 122300Z 12006KT 9999 BKN022 SCT270 29/25 A2970 RMK CB RN DST W S HZ LGT ARND=
200704130000 METAR MRLM 130000Z VRB03KT 9999 SCT012 SCT140 BKN270 27/25 A2971=
200704130100 METAR MRLM NIL=
200704130200 METAR MRLM NIL=
200704130300 METAR MRLM NIL=
200704130400 METAR MRLM NIL=
200704130500 METAR MRLM NIL=
200704130600 METAR MRLM NIL=
200704130700 METAR MRLM NIL=
200704130800 METAR MRLM NIL=
200704130900 METAR MRLM NIL=
200704131000 METAR MRLM NIL=
200704131100 METAR MRLM NIL=
200704131200 METAR MRLM 131200Z NIL=
200704131300 METAR MRLM 131300Z 29002KT 9999 OVC012 26/24 A2981 RMK RN E HZ LGT ARND=
200704131400 METAR MRLM 131400Z 22004KT 9999 DZ OVC015 27/24 A2982 RMK HZ ARND=
200704131500 METAR MRLM 131500Z 12006KT 9999 SCT025 SCT300 30/25 A2982 RMK RN DST N HZ LGT ARND=
200704131600 METAR MRLM 131600Z 10008KT 9999 SCT025 SCT300 30/26 A2982 RMK HZ LGT ARND=
200704131700 METAR MRLM 131700Z 09009KT 9999 SCT028 BKN300 31/25 A2980 RMK HZ ARND=
200704131800 METAR MRLM 131800Z 08011KT 9999 SCT025 BKN300 30/26 A2977 RMK HZ LGT ARND=
200704131900 METAR MRLM 131900Z 08013KT 9999 BKN030 SCT300 31/25 A2976 RMK HZ ARND=
200704132000 METAR MRLM 132000Z NIL=
200704132100 METAR MRLM 132100Z 09011KT 9999 SCT025 SCT300 31/25 A2972 RMK LEVE HZY=
200704132200 METAR MRLM 132200Z 09009KT 9999 BKN025 30/25 A2970 RMK HZY=
200704132300 METAR MRLM 132300Z 08008KT 9999 BKN020 29/25 A2971 RMK LEVE HZY=
200704140000 METAR MRLM 140000Z 07008KT 9999 BKN018 29/25 A2973 RMK RN DST S SW W HZY=
200704140100 METAR MRLM NIL=
200704140200 METAR MRLM NIL=
200704140300 METAR MRLM NIL=
200704140400 METAR MRLM NIL=
200704140500 METAR MRLM NIL=
200704140600 METAR MRLM NIL=
200704140700 METAR MRLM NIL=
200704140800 METAR MRLM NIL=
200704141000 METAR MRLM NIL=
200704141100 METAR MRLM NIL=
200704141200 METAR MRLM 141200Z NIL=
200704141300 METAR MRLM 141300Z 24005KT 9999 BKN026 24/24 A2977 RERA RMK RN DST ARND=
200704141400 METAR MRLM 141400Z 25004KT 9999 3000NW -RA BKN026 25/24 A2980 RMK RN ARND=
200704141500 METAR MRLM 141500Z 22005KT 9999 -DZ BKN026 SCT030 25/24 A2981 RERA RMK RN ARND=
200704141600 METAR MRLM 141600Z 29003KT 9999 DZ BKN026 SCT080 26/24 A2982 RMK RN ARND=
200704141700 METAR MRLM 141700Z 23007KT 9999 BKN026 SCT080 28/25 A2981 REDZ RMK RN DST ARND=
200704141800 METAR MRLM 141800Z 05004KT 9999 BKN026 29/25 A2979 RMK RN DST ARND=
200704141900 METAR MRLM 141900Z 04004KT 9999 SCT026 BKN300 30/25 A2996 RMK RN DST S SW LEVE HZY=
200704142000 METAR MRLM NIL=
200704142100 METAR MRLM 142100Z 05005KT 9999 SCT026 BKN300 30/25 A2971.RN W SW.HZY=
200704142200 METAR MRLM 142200Z 07004KT 9999 SCT025 BKN300 29/25 A2970/TCU RN DIST NE/HZY=
200704142300 METAR MRLM 142300Z 06005KT 9999 FEW025 BKN300 29/25 A2997/HZY=
200704150000 METAR MRLM 150000Z 08005KT 9999 FEW025 BKN250 28/24 A2972=
200704150100 METAR MRLM NIL=
200704150300 METAR MRLM NIL=
200704150400 METAR MRLM NIL=
200704150600 METAR MRLM NIL=
200704150700 METAR MRLM NIL=
200704150800 METAR MRLM NIL=
200704150900 METAR MRLM NIL=
200704151000 METAR MRLM NIL=
200704151100 METAR MRLM NIL=
200704151200 METAR MRLM 151200Z 23004KT 9999 BKN040 23/22 A2975 RMK HZ ARND=
200704151300 METAR MRLM 151300Z 23005KT 9999 FEW030 SCT090 BKN240 24/23 A2979/HZY=
200704151400 METAR MRLM 151400Z 24004KT CAVOK 26/24 A2981 OVC240 HZY=
200704151500 METAR MRLM 151500Z 24003KT CAVOK 29/24 A2982 OVC240 HZY=
200704151600 METAR MRLM 151600Z 04004KT 9999 FEW028 BKN240 29/24 A2982/HZY=
200704151700 METAR MRLM 151700Z 04005KT 9999 FEW026 BKN240 29/24 A2981 HZY=
200704151800 METAR MRLM 151800Z 04006KT 9999 FEW026 BKN240 30/25 A2980=
200704151900 METAR MRLM 151900Z 02007KT 9999 FEW026 BKN240 30/25 A2977/HZY=
200704152000 METAR MRLM NIL=
200704152100 METAR MRLM 152100Z 05008KT 9999 SCT026 SCT240 31/25 A2973 RMK HZ ARND=
200704152200 METAR MRLM 152200Z 07010KT 9999 SCT026 SCT240 30/24 A2972 RMK HZ ARND=
200704152300 METAR MRLM 152300Z 06011KT 9999 BKN026TCU SCT240 29/25 A2973 RMK HZ ARND=
200704160000 METAR MRLM 160000Z 06009KT 9999 BKN026 SCT240 29/25 A2974 RMK RN DST SE/S/SW HZ ARND=
200704160200 METAR MRLM NIL=
200704160300 METAR MRLM NIL=
200704160500 METAR MRLM NIL=
200704160600 METAR MRLM NIL=
200704160800 METAR MRLM NIL=
200704160900 METAR MRLM NIL=
200704161100 METAR MRLM NIL=
200704161200 METAR MRLM NIL=
200704161300 METAR MRLM 161300Z 25005KT 9999 OVC015 26/24 A2986 RN QUAND S HZ ARND=
200704161400 METAR MRLM 161400Z 26006KT 9999 SCT028 29/24 A2988 RMK HZ ARND=
200704161500 METAR MRLM 161500Z 05004KT 9999 BKN028 30/24 A2988 RMK HZ ARND=
200704161600 METAR MRLM 161600Z 03007KT 9999 SCT028 30/24 A2988 RMK FEW300 HZ LGT ARND=
200704161700 METAR MRLM 161700Z 03010KT 9999 FEW025 SCT300 30/25 A2985 RMK HZ LGT ARND=
200704161800 METAR MRLM 161800Z 03008KT 9999 FEW028 SCT300 30/25 A2983 RMK HZ LGT ARND=
200704161900 METAR MRLM 161900Z 02010KT 9999 FEW025 SCT300 31/24 A2978 RMK HZ LGT ARND=
200704162100 METAR MRLM 162100Z 02008KT 9999 FEW040 SCT300 31/23 A2974=
200704162200 METAR MRLM 162200Z 03004KT CAVOK 30/21 A2973 FEW070 BKN300=
200704162300 METAR MRLM 162300Z 03006KT CAVOK 30/22 A2974 FEW100 BKN280=
200704170000 METAR MRLM NIL=
200704170100 METAR MRLM NIL=
200704170200 METAR MRLM NIL=
200704170300 METAR MRLM NIL=
200704170400 METAR MRLM NIL=
200704170500 METAR MRLM NIL=
200704170600 METAR MRLM NIL=
200704170700 METAR MRLM NIL=
200704170800 METAR MRLM NIL=
200704170900 METAR MRLM NIL=
200704171000 METAR MRLM NIL=
200704171100 METAR MRLM NIL=
200704171200 METAR MRLM NIL=
200704171300 METAR MRLM 171300Z 24005KT CAVOK 25/21 A2980 SCT300=
200704171400 METAR MRLM 171400Z 25005KT CAVOK 28/22 A2982 FEW300=
200704171500 METAR MRLM 171500Z 04008KT CAVOK 30/23 A2981 FEW300 CB SW=
200704171600 METAR MRLM 171600Z 04007KT CAVOK 31/22 A2979 FEW300=
200704171700 METAR MRLM 171700Z 02009KT CAVOK 31/22 A2979 FEW140=
200704171800 METAR MRLM 171800Z 03008KT 9999 FEW042 30/22 A2976=
200704171900 METAR MRLM 171900Z 03010KT 9999 FEW040 30/23 A2972 RMK HZ LEVE ARNWD=
200704172000 METAR MRLM 172000Z NIL=
200704172100 METAR MRLM 172100Z 04008KT 9999 FEW038 30/23 A2969 RMK HZ LGT ARND=
200704172200 METAR MRLM 172200Z 06008KT 9999 FEW035 SCT300 29/22 A2968 RMK FEW100 HZ LGT ARND=
200704172300 METAR MRLM 172300Z 03006KT 9999 FEW030 SCT300 29/23 A2968 RMK HZ LGT ARND=
200704180000 METAR MRLM 180000Z 02005KT 9999 FEW028 BKN300 28/23 A2969=
200704180100 METAR MRLM NIL=
200704180300 METAR MRLM NIL=
200704180400 METAR MRLM NIL=
200704180500 METAR MRLM NIL=
200704180700 METAR MRLM NIL=
200704180800 METAR MRLM NIL=
200704180900 METAR MRLM NIL=
200704181000 METAR MRLM NIL=
200704181100 METAR MRLM NIL=
200704181200 METAR MRLM 181200Z 23005KT 9999 FEW028 BKN300 21/20 A2968 RMK HZ ARND=
200704181300 METAR MRLM 181300Z 22005KT 9999 FEW028 BKN300 24/22 A2971 RMK HZ LGT ARND=
200704181400 METAR MRLM 181400Z 22004KT 9999 FEW028 BKN300 28/23 A2973 RMK HZ LGT ARND=
200704181500 METAR MRLM 181500Z 08005KT 9999 FEW028 29/23 A2974 RMK HZ ARND FEW300=
200704181600 METAR MRLM 181600Z 08006KT 9999 FEW025 29/23 A2974 RMK FEW300 HZ ARND=
200704181700 METAR MRLM 181700Z 09008KT 999 FEW035 BKN300 29/23 A2974=
200704181800 METAR MRLM 181800Z 07008KT 9999 FEW025 SCT300 30/24 A2971 RMK HZ LGT ARND=
200704181900 METAR MRLM 181900Z 07007KT 9999 FEW025 30/23 A2967 RMK FEW300 HZ ARND=
200704182000 METAR MRLM 182000Z NIL=
200704182200 METAR MRLM 192200Z 07007KT 9999 SCT028 BKN250 30/25 A2963.HZY=
200704182300 METAR MRLM 182300Z 08004KT 9999 FEW025 29/23 A2963 CB DST SE FEWCI=
200704190000 METAR MRLM 190000Z 08006KT 9999 FEW030 28/23 A2964 RMK CB DST SE FEW300=
200704190100 METAR MRLM NIL=
200704190200 METAR MRLM NIL=
200704190300 METAR MRLM NIL=
200704190400 METAR MRLM NIL=
200704190500 METAR MRLM NIL=
200704190600 METAR MRLM NIL=
200704190700 METAR MRLM NIL=
200704190800 METAR MRLM NIL=
200704190900 METAR MRLM NIL=
200704191000 METAR MRLM NIL=
200704191100 METAR MRLM NIL=
200704191200 METAR MRLM NIL=
200704191300 METAR MRLM 191300Z 24004KT 9999 FEW028 BKN250 25/24 A2969 RMK HZY=
200704191400 METAR MRLM 191400Z 11006KT 9999 FEW028 BKN250 29/24 A2971 RMK HZY=
200704191500 METAR MRLM 191500Z 08006KT 9999 FEW028 BKN300 30/24 A2972 RMK HZY=
200704191600 METAR MRLM 191600Z 06006KT 9999 FEW028 BKN300 30/24 A2972 RMK HZY=
200704191700 METAR MRLM 191700Z 05006KT 9999 FEW028 BKN300 30/24 A2972 HZY=
200704191800 METAR MRLM 191800Z 06008KT 9999 FEW028 BKN300 30/25 A2971 RMK LEVE HZY=
200704191900 METAR MRLM 191900Z 07006KT 9999 FEW028 BKN300 31/25 A2968 RMK RN DST SW HZY=
200704192000 METAR MRLM 192000Z NIL=
200704192100 METAR MRLM 192100Z 10007KT 9999 FEW028 BKN300 30/25 A29/64/HZY=
200704192200 METAR MRLM 192200Z 07007KT 9999 SCT028 BKN250 30/25 A2963/HZY=
200704192300 METAR MRLM 192300Z 09007KT 9999 SCT028 BKN250 30/24 A2965/HZY=
200704200000 METAR MRLM 200000Z 10008KT 9999 SCT028 BKN250 29/24 A2968/HZ ARND=
200704200400 METAR MRLM NIL=
200704200600 METAR MRLM NIL=
200704200700 METAR MRLM NIL=
200704200800 METAR MRLM NIL=
200704200900 METAR MRLM NIL=
200704201300 METAR MRLM 201300Z 23005KT CAVOK 24/21 A2974.OVC270 TRACE CU AC HZY=
200704201400 METAR MRLM 201400Z 20004KT CAVOK 28/22 A2978/OVC280 TRACE CU AC=
200704201500 METAR MRLM 201500Z 10005KT CAVOK 29/24 A2979/FEW140 OVC280/ TRACE CU HZ LGT ARND=
200704201600 METAR MRLM 201600Z 08004KT CAVOK 30/25 A2978 HZY/ FEW140 OVC280 TRACE CU=
200704201700 METAR MRLM 201700Z 08007KT CAVOK 30/24 A2977 TRACE CU/FEW130 BKN280/HZY=
200704201800 METAR MRLM NIL=
200704201900 METAR MRLM 201900Z 05009KT 9999 FEW028 BKN280 30/25 A2973/HZY=
200704202100 METAR MRLM 202100Z 09007KT 9999 FEW028 SCT190 BKN280 30/24 A2969 RMK HZ ARND=
200704202200 METAR MRLM 202200Z 10006KT 9999 FEW030 BKN110 30/24 A2969 RMK RN DST S HZ ARND=
200704202300 METAR MRLM 202300Z 10005KT CAVOK 29/23 A2970 RMK FEW080 BKN110 RN DST S/SW HZ LGT ARND=
200704210000 METAR MRLM 210000Z 11006KT CAVOK 29/23 A2972 RMK FEW100 BKN130 RN DST QUAND S=
200704210100 METAR MRLM NIL=
200704210200 METAR MRLM NIL=
200704210400 METAR MRLM NIL=
200704210500 METAR MRLM NIL=
200704210600 METAR MRLM NIL=
200704210700 METAR MRLM NIL=
200704210800 METAR MRLM NIL=
200704210900 METAR MRLM NIL=
200704211000 METAR MRLM NIL=
200704211100 METAR MRLM NIL=
200704211200 METAR MRLM NIL=
200704211300 METAR MRLM 211300Z 22004KT CAVOK 24/22 A2979 RMK FEW150 BKN270 HZ LGT ARND=
200704211400 METAR MRLM 211400Z VRB03KT CAVOK 27/23 A2981 RMK FEW150 BKN270 TRAZAS CU HZ LGT ARND=
200704211500 METAR MRLM 211500Z VRB03KT 9999 FEW025 SCT280 29/24 A2983 RMK FEWAC HZ LGT ARND=
200704211600 METAR MRLM 211600Z 08005KT 9999 FEW028 SCT150 30/24 A2983 RMK HZ LGT ARND=
200704211700 METAR MRLM 211700Z 08007KT 9999 FEW028 SCT150 30/24 A2981 RMK HZ LGT ARND=
200704211800 METAR MRLM 211800Z 06006KT 9999 FEW030 SCT140 30/24 A2979 RMK HZ LGT ARND=
200704211900 METAR MRLM 211900Z 06009KT 9999 FEW030 SCT140 30/24 A2976 RMK HZ LGT ARND CB DST S=
200704212000 METAR MRLM 212000Z NIL=
200704212100 METAR MRLM 212100Z 07007KT 9999 SCT035 SCT120 30/23 A2973 HZY=
200704212200 METAR MRLM 212200Z 08006KT 9999 FEW033 SCT280 30/23 A2972 HZY=
200704212300 METAR MRLM 212300Z 09006KT 9999 FEW030 BKN280 29/22 A2972 HZY=
200704220000 METAR MRLM 220000Z 12008KT 9999 FEW028 BKN090 28/23 A2973 RN S HZY=
200704220100 METAR MRLM NIL=
200704220500 METAR MRLM NIL=
200704220600 METAR MRLM NIL=
200704220700 METAR MRLM NIL=
200704220800 METAR MRLM NIL=
200704220900 METAR MRLM NIL=
200704221000 METAR MRLM NIL=
200704221100 METAR MRLM NIL=
200704221200 METAR MRLM 221200Z 22004KT 9999 FEW026 22/21 A2975/ FEW250 HZ ARND=
200704221300 METAR MRLM 221300Z 21005KT 9999 FEW026 25/23 A2978 FEW250=
200704221400 METAR MRLM 221400Z 18005KT 9999 FEW026 28/23 A2980 HZY=
200704221500 METAR MRLM 221500Z 11006KT 9999 NSC 30/23 A2982 TRACE CU=
200704221600 METAR MRLM 221600Z 09008KT 9999 FEW030 30/23 A2982=
200704221700 METAR MRLM 221700Z 09007KT 9999 FEW030 30/24 A2982=
200704221800 METAR MRLM 221800Z 08008KT 9999 FEW030 30/24 A2980=
200704221900 METAR MRLM 221900Z 08010KT 9999 FEW030 30/24 A2977=
200704222000 METAR MRLM NIL=
200704222100 METAR MRLM 222100Z 08008KT 9999 FEW030 31/22 A2976 RMK CB DST S=
200704222200 METAR MRLM 222200Z 09008KT 9999 FEW030 30/22 A2976 RMK CB DST S=
200704222300 METAR MRLM 222300Z 11005KT CAVOK 29/23 A2976 RMK FEW250=
200704230000 METAR MRLM 230000Z 17004KT CAVOK 27/22 A2977=
200704230100 METAR MRLM NIL=
200704230200 METAR MRLM NIL=
200704230300 METAR MRLM NIL=
200704230500 METAR MRLM NIL=
200704230600 METAR MRLM NIL=
200704230700 METAR MRLM NIL=
200704230800 METAR MRLM NIL=
200704231000 METAR MRLM NIL=
200704231100 METAR MRLM NIL=
200704231200 METAR MRLM 231200Z 22005KT CAVOK 21/20 A2978 RMK FEW100 TRAZAS CU/CI HZ ARND=
200704231300 METAR MRLM 231300Z 22004KT 9999 FEW030 25/21 A2981 RMK TRACE AC CI HZ ARND=
200704231400 METAR MRLM 231400Z 15005KT 9999 FEW030 29/22 A2983 RKM TRACE CI HZ ARND=
200704231500 METAR MRLM 231500Z 10006KT 9999 FEW030 30/22 A2983 RMK TRACE AC CI HZ ARND=
200704231600 METAR MRLM 231600Z 09007KT 9999 FEW030 31/22 A2983 RMK TRACE AC CI HZ ARND=
200704231700 METAR MRLM 231700Z 07006KT 9999 NSC 30/23 A2982 RMK TRACE CU CI=
200704231800 METAR MRLM 231800Z 08006KT 9999 FEW030 30/24 A2980 RMK TRACE CI=
200704231900 METAR MRLM 231900Z 06009KT 9999 FEW030 31/24 A2979 RMK TRACE AC=
200704232000 METAR MRLM 232000Z NIL=
200704232100 METAR MRLM 232100Z 05006KT 9999 SCT028 31/24 A2975 RMK TRACE AC=
200704232200 METAR MRLM 232200Z 07006KT 9999 FEW028 31/23 A2975 RMK TRACE AC=
200704232300 METAR MRLM 232300Z 08006KT 9999 FEW028 30/23 A2975 RMK TRACE AC=
200704240000 METAR MRLM 240000Z 06003KT 9999 SCT025 29/23 A2976 RMK TCU DST WNW SW TRACE CI=
200704240100 METAR MRLM NIL=
200704240200 METAR MRLM NIL=
200704240300 METAR MRLM NIL=
200704240400 METAR MRLM NIL=
200704240500 METAR MRLM NIL=
200704240600 METAR MRLM NIL=
200704240700 METAR MRLM NIL=
200704240800 METAR MRLM NIL=
200704240900 METAR MRLM NIL=
200704241100 METAR MRLM NIL=
200704241200 METAR MRLM NIL=
200704241300 METAR MRLM 241300Z 22005KT CAVOK 25/23 A2981 RMK SCT100 BKN130 RN DST QUAD N E S=
200704241400 METAR MRLM 241400Z 18002KT 9999 FEW015 BKN100 27/23 A2983 RMK TCU RN DST QUAD N DZ DST QUAD E HZY=
200704241500 METAR MRLM 241500Z 09004KT 9999 FEW025 BKN110 28/23 A2983 RN DST QUAD N LEVE HZ ARND=
200704241600 METAR MRLM 241600Z 05004KT 9999 FEW025 BKN110 28/23 A2982 RMK RN TCU DST NE=
200704241700 METAR MRLM 241700Z 04004KT 9999 FEW028 SCT130 29/24 A2981 RMK CB DST NE=
200704241800 METAR MRLM 241800Z 06009KT 9999 FEW035 30/23 A2979 RMK CB RN DST NE TCU DST S SW FEW AC CI=
200704241900 METAR MRLM 241900Z NIL=
200704242000 METAR MRLM NIL=
200704242100 METAR MRLM 242100Z 05009KT 9999 FEW030 SCT300 31/24 A2973/CB DIST SW FEW AC=
200704242200 METAR MRLM 242200Z 06005KT 9999 FEW030 SCT300 30/24 A2972/ CB DIST SW/ HZ LGT ARND=
200704242300 METAR MRLM 242300Z VRB03KT 9999 FEW028 BKN280 29/24 A2972/ HZ LGT ARND=
200704250000 METAR MRLM 250000Z 24002KT CAVOK 27/24 A2974 FEW110 BKN280 CB DIST S/HZY=
200704250200 METAR MRLM NIL=
200704250300 METAR MRLM NIL=
200704250400 METAR MRLM NIL=
200704250500 METAR MRLM NIL=
200704250800 METAR MRLM NIL=
200704251000 METAR MRLM NIL=
200704251100 METAR MRLM NIL=
200704251200 METAR MRLM NIL=
200704251300 METAR MRLM 251300Z 25002KT 9999 FEW015 SCT080 BKN090 24/21 A2978/ CR RN DIST QUADS N E=
200704251400 METAR MRLM 251400Z 36006KT 9999 FEW020 BKN090 26/22 A2982/ RN N NE QUADS=
200704251500 METAR MRLM 251500Z 32008KT 9999 2000W +RA FEW007 BKN018 25/24 A2983=
200704251600 METAR MRLM 251600Z 24008KT 9999 RA SCT040 BKN100 25/24 A2982=
200704251700 METAR MRLM 251700Z 25008KT 9999 FEW025 SCT090 BKN110 26/24 A2979 DZ S W/ HZ LGT ARND=
200704251800 METAR MRLM 251800Z 00000KT FEW025 BKN110 30/22 A2979/ FEW CI 280 HZY=
200704251900 METAR MRLM 251900Z VRB03KT 9999 FEW035 BKN110 30/23 A2977/ FEW CI 280 CB DIST W HZY=
200704252000 METAR MRLM NIL=
200704252100 METAR MRLM 252100Z 01005KT 9999 FEW030 SCT150 30/24 A2973 RMK SCT280 CB DST NE/SE/S/SW HZ LGT ARND=
200704252200 METAR MRLM 252200Z 04004KT 9999 FEW028 SCT150 BKN280 29/24 A2972 RMK CB DST NE/S/SW/W HZ ARND=
200704252300 METAR MRLM 252300Z 01005KT 9999 FEW023 SCT150 BKN280 28/24 A2972 RMK CB DST S/SW/W TCU DST E HZ ARND=
200704260000 METAR MRLM 260000Z 04004KT CAVOK 28/24 A2973 RMK SCT150 BKN280 CB DST S/SW/W HZ ARND=
200704260100 METAR MRLM NIL=
200704260200 METAR MRLM NIL=
200704260300 METAR MRLM NIL=
200704260400 METAR MRLM NIL=
200704260500 METAR MRLM NIL=
200704260600 METAR MRLM NIL=
200704260700 METAR MRLM NIL=
200704260900 METAR MRLM NIL=
200704261000 METAR MRLM NIL=
200704261200 METAR MRLM 261200Z 24003KT 9999 FEW025 BKN080 23/22 A2975 RMK CB RN=
200704261300 METAR MRLM 261300Z 21006KT 9999 FEW025 BKN090 24/22 A2978 RMK HZY=
200704261400 METAR MRLM 261400Z 21004KT CAVOK 27/23 A2980 RMK SCT100 SCT220 HZY=
200704261500 METAR MRLM 261500Z 10005KT CAVOK 29/24 A2981 RMK FEW100 BKN250 HZY=
200704261600 METAR MRLM 261600Z 10007KT CAVOK 30/24 A2981 RMK FEW100 BKN250 TRAZAS CU HZ ARND=
200704261700 METAR MRLM 261700Z 11008KT 9999 FEW025 SCT250 30/23 A2980 RMK TCU N TRAZAS AC HZ ARND=
200704261800 METAR MRLM 261800Z 10008KT 9999 FEW025 BKN250 31/24 A2978 RMK CB DST N/NE TRAZAS AC HZY=
200704261900 METAR MRLM 261900Z 09009KT 9999 FEW025 SCT100 31/24 A2975 RMK SCT250 CB/RN DST NW/N HZ ARND=
200704262000 METAR MRLM 262000Z NIL=
200704262100 METAR MRLM 262100Z 08008KT 9999 FEDW025 SCT250 30/24 A2972 CB S SW=
200704262200 METAR MRLM 262200Z 08006KT 9999 FEDW025 SCT090 30/24 A2971 CB S SW=
200704262300 METAR MRLM 262300Z 12004KT 9999 FEW025 BKN090 29/24 A2973 CB SE S SW HZY=
200704270000 METAR MRLM 270000Z 20003KT 9999 SCT025 SCT250 28/25 A2974 CB SE S SW HZY=
200704270100 METAR MRLM NIL=
200704270200 METAR MRLM NIL=
200704270300 METAR MRLM NIL=
200704270400 METAR MRLM NIL=
200704270600 METAR MRLM NIL=
200704270700 METAR MRLM NIL=
200704270800 METAR MRLM NIL=
200704270900 METAR MRLM NIL=
200704271000 METAR MRLM NIL=
200704271200 METAR MRLM 271200Z 24004KT 8000 +DZ BKN030 SCT080 23/23 A2977/ RN ARND=
200704271300 METAR MRLM 271300Z 20005KT 9999 -DZ SCT030 BKN080 24/24 A2979=
200704271400 METAR MRLM 271400Z 21008KT 9999 SCT025 SCT080 25/24 A2980 REDZ RN ARND=
200704271500 METAR MRLM 271500Z 23005KT 9999 SCT030 SCT045 28/24 A2981 CB NW N NE RN ARND=
200704271600 METAR MRLM 271600Z 01016KT 1000 +RA FEW015 BKN022 26/24 A2983 CB NE SW=
200704271700 METAR MRLM 271700Z 18005KT 8000 +DZ BKN026 SCT040 24/23 A2983 RN ARND=
200704271800 METAR MRLM 271800Z 22005KT 9999 -DZ FEW025 BKN080 25/24 A2981 CB NW N NE RN ARND=
200704271900 METAR MRLM 271900Z 23005KT 9999 DZ SCT025 BKN045 25/23 A2979 RN ARND CB E=
200704272000 METAR MRLM 272000Z NIL=
200704272100 METAR MRLM 272100Z 21005KT 9999 DZ FEW025 BKN090 26/24 A2974 RMK CB DST N NE E RN DST ARND=
200704272200 METAR MRLM 272200Z 22004KT 9999 FEW025 BKN090 27/24 A2972 REDZ RMK CB DST NW N NE E RN ARND=
200704272300 METAR MRLM 272300Z 00000KT 9999 FEW026 BKN090 27/25 A2975 RMK CB NW FEWCI HZ ARND=
200704280000 METAR MRLM 280000Z 21003KT CAVOK 25/24 A2976 RMK BKN080 SCT250 HZ ARND=
200704280100 METAR MRLM NIL=
200704280200 METAR MRLM NIL=
200704280300 METAR MRLM NIL=
200704280500 METAR MRLM NIL=
200704280700 METAR MRLM NIL=
200704280800 METAR MRLM NIL=
200704280900 METAR MRLM NIL=
200704281100 METAR MRLM NIL=
200704281200 METAR MRLM 281200Z NIL=
200704281300 METAR MRLM 281300Z 36009KT 4000 RA OVC015 24/23 A2983=
200704281400 METAR MRLM 281400Z 25006KT 4000 -RA OVC012 24/23 A2984=
200704281500 METAR MRLM 281500Z 23004KT 5000 RA FEW002 OVC010 23/23 A2988=
200704281600 METAR MRLM 281600Z 24006KT 8000 RA FEW003 SCT025 BKN100 24/24 A2986=
200704281700 METAR MRLM 281700Z 26002KT 9999 -DZ FEW005 SCT025 BKN100 25/24 A2985=
200704281800 METAR MRLM 281800Z 26004KT 5000 -RA FEW003 BKN010 25/24 A2983 RMK UNL N=
200704282000 METAR MRLM 282000Z NIL=
200704282100 METAR MRLM 282100Z 23004KT 7000 SCT003 SCT025 BKN100 25/24 A2978=
200704282200 METAR MRLM 282200Z 23004KT 7000 RA FEW020 SCT080 BKN100 24/23 A2979=
200704282300 METAR MRLM NIL=
200704290000 METAR MRLM 290000Z 21004KT 9999 DZ FEW010 SCT025 BKN100 24/24 A2982 RMK RN ARND=
200704290100 METAR MRLM NIL=
200704290300 METAR MRLM NIL=
200704290500 METAR MRLM NIL=
200704290600 METAR MRLM NIL=
200704290700 METAR MRLM NIL=
200704290800 METAR MRLM NIL=
200704290900 METAR MRLM NIL=
200704291000 METAR MRLM NIL=
200704291100 METAR MRLM NIL=
200704291300 METAR MRLM 291300Z 24006KT CAVOK 24/22 A2984 RMK FEW090 BKN150 RN DST N W LEVE HZY=
200704291400 METAR MRLM 291400Z 22006KT CAVOK 26/23 A2986 RMK FEW110 BKN150 LEVE HZY=
200704291600 METAR MRLM 291600Z 03004KT CAVOK 28/22 A2987 RMK FEW090 OVC150 LEVE HZY=
200704291700 METAR MRLM 291700Z VRB03KT 9999 29/22 A2986 FEW110 BKN140 LEVE HZY=
200704291800 METAR MRLM 291800Z 04005KT 9999 FEW038 OVC140 30/25 A2984 RMK LEVE HZY=
200704291900 METAR MRLM 291900Z 05007KT 9999 FEW035 OVC140 30/25 A2981 RMK LEVE HZY=
200704292000 METAR MRLM 292000Z NIL=
200704292100 METAR MRLM 292100Z 06005KT 9999 FEW028 BKN240 29/24 A2973.HZY=
200704292200 METAR MRLM 292200Z 06006KT 9999 FEW023 BKN140 29/24 A2997/HZY=
200704292300 METAR MRLM 292300Z VRB03KT 9999 FEW025 BKN140 29/24 A2974/FEW280=
200704300000 METAR MRLM 300000Z 01004KT 9999 FEW020 BKN130 28/24 A2976/ DIST SW HZY=
200704300100 METAR MRLM NIL=
200704300200 METAR MRLM NIL=
200704300400 METAR MRLM NIL=
200704300500 METAR MRLM NIL=
200704300700 METAR MRLM NIL=
200704300800 METAR MRLM NIL=
200704300900 METAR MRLM NIL=
200704301100 METAR MRLM NIL=
200704301200 METAR MRLM 301200Z 21003KT 9999 -DZ SCT030 BKN080 23/22 A2978=
200704301300 METAR MRLM 301300Z 25005KT 9999 FEW030 BKN090 24/23 A2979/ REDZ=
200704301400 METAR MRLM 301400Z 19004KT 9999 FEW030 SCT250 28/24 A2981/ TCU DIST N=
200704301500 METAR MRLM 301500Z 08005KT 9999 FEW030 BKN250 30/24 A2981/TCU ENE=
200704301600 METAR MRLM 301600Z 02007KT 9999 FEW030 BKN250 30/24 A2981/ CB DIST WNW NW N ENE=
200704301700 METAR MRLM 301700Z 01010KT 9999 FEW030 BKN250 30/24 A2980 CB DST NW N ENE TCU W FEW AC=
200704301800 METAR MRLM 301800Z 02010KT 9999 FEW030 BKN250 30/24 A2978/ TCU RN S CB ENE/ TRACE AC=
200704301900 METAR MRLM 301900Z 02010KT 9999 FEW030 BKN250 29/25 A2974/ CB DIST S SW W=
200704302000 METAR MRLM NIL=
200704302100 METAR MRLM 302100Z 02007KT 9999 FEW028 BKN250 29/24 A2971 RMK CB DST S/SW/W TCU NE=
200704302200 METAR MRLM 302200Z 05004KT 9999 FEW028 BKN250 29/24 A2971 RN DST S/WSW/W TRAZAS AC=
200704302300 METAR MRLM 302300Z 03005KT 9999 FEW028 BKN250 29/24 A2972 RMK CB DST S/SW RN NW/N FEWAC=
200705010000 METAR MRLM 010000Z 04004KT 9999 FEW028 BKN250 28/23 A2974 RMK CB/RN DST S/SW/W=
200705010200 METAR MRLM NIL=
200705010300 METAR MRLM NIL=
200705010400 METAR MRLM NIL=
200705010600 METAR MRLM NIL=
200705010700 METAR MRLM NIL=
200705010800 METAR MRLM NIL=
200705010900 METAR MRLM NIL=
200705011000 METAR MRLM NIL=
200705011100 METAR MRLM NIL=
200705011200 METAR MRLM 011200Z 24005KT 9999 FEW030 BKN040 22/22 A2972 RMK TCU DST WNW N NE E NW HZ ARND=
200705011300 METAR MRLM 011300Z 20005KT 9999 FEW028TCU BKN090 24/22 A2974 RMK CB DST NW/NE=
200705011400 METAR MRLM 011400Z 00000KT 9999 FEW026TCU SCT090 27/23 A2978 RMK CB/RN DST NW/N/NE HZ ARND=
200705011500 METAR MRLM 011500Z 04005KT 9999 SCT026 BKN090 29/24 A2980 RMK CB/TCU/RN WNW/N/NE HZY=
200705011600 METAR MRLM 011600Z 03004KT 9999 SCT026 BKN090 29/24 A2980 RMK RN DST WNW/W/N HZY=
200705011700 METAR MRLM 011700Z 07004KT 9999 FEW026 BKN090 28/24 A2979 RMK HZ LGT ARN=
200705011800 METAR MRLM NIL=
200705011900 METAR MRLM 011900Z 07017KT 9999 BKN026 28/25 A2975 RMK RN DST NE/E/SW FEWAC=
200705012000 METAR MRLM 012000Z NIL=
200705012100 METAR MRLM 012100Z 12008KT 9999 SCT026 BKN080 26/23 A2972 RN ARND=
200705012200 METAR MRLM 012200Z 20003KT 9999 BKN028 SCT080 26/24 A2972 RN ARND=
200705012300 METAR MRLM 012300Z 22003KT 9999 SCT028 BKN080 26/24 A2973 RN ARND=
200705012358 METAR MRLM 020000Z 23003KT 9999 BKN026 SCT045 26/24 A2974=
200705020000 METAR MRLM 020000Z 23003KT 9999 BKN026 SCT045 26/24 A2974=
200705020100 METAR MRLM NIL=
200705020200 METAR MRLM NIL=
200705020300 METAR MRLM NIL=
200705020400 METAR MRLM NIL=
200705020500 METAR MRLM NIL=
200705020600 METAR MRLM NIL=
200705020900 METAR MRLM NIL=
200705021100 METAR MRLM NIL=
200705021200 METAR MRLM NIL=
200705021300 METAR MRLM 021300Z 23002KT 9999 FEW015 SCT120 BKN270 24/23 A2997 RMK RN DIST NE/E HZ LEVE ARNWD=
200705021400 METAR MRLM 021400Z 13009KT 9999 SCT013 SCT140 27/24 A2979 RN E=
200705021500 METAR MRLM 021500Z 12011KT 9999 BKN020 SCT110 29/24 A2981 HZ/TCU/RN ARND=
200705021600 METAR MRLM 021600Z 19006KT 9999 SCT018 BKN100 27/24 A2979 RN N S=
200705021700 METAR MRLM 021700Z 11008KT CAVOK 29/24 A2977 OVC110 TRACE CU=
200705021800 METAR MRLM 021800Z 10007KT 9999 FEW028 SCT100 BKN140 28/23 A2975 CB N=
200705021900 METAR MRLM 021900Z VRB03KT 9999 FEW030 BKN090 29/23 A2972 CB S RN W FEW140=
200705022000 METAR MRLM 022000Z NIL=
200705022100 METAR MRLM NIL=
200705022200 METAR MRLM 022200Z NIL=
200705022300 METAR MRLM 022300Z 12005KT CAVOK 28/24 A2970 RMK CB RN DST S W FEW090 OVC110=
200705030000 METAR MRLM 030000Z 15002KT CAVOK 28/24 A2970 RMK CB RN DST S W SCT090 BKN110=
200705030200 METAR MRLM NIL=
200705030300 METAR MRLM NIL=
200705030400 METAR MRLM NIL=
200705030500 METAR MRLM NIL=
200705030600 METAR MRLM NIL=
200705030800 METAR MRLM NIL=
200705030900 METAR MRLM NIL=
200705031000 METAR MRLM NIL=
200705031100 METAR MRLM NIL=
200705031200 METAR MRLM 031200Z NIL=
200705031300 METAR MRLM 031300Z 23006KT CAVOK 26/23 A2975 RMK SCT110 BKN270 HZ LGT ARND=
200705031400 METAR MRLM 031400Z 05004KT CAVOK 29/24 A2977 RMK SCT130 SCT270 HZ LGT ARND=
200705031500 METAR MRLM 031500Z 04005KT CAVOK 29/23 A2980 RMK BKN110 SCT270 CB DST N NE HZ LGT ARND=
200705031600 METAR MRLM 031600Z 08005KT 9999 FEW028 BKN140 29/24 A2979 RMK CB DST N NE HZ LGT ARND=
200705031800 METAR MRLM 031800Z 02009KT 9999 FEW028 BKN280 30/25 A2975 RMK FEW140 CB N W RN DST SW=
200705031900 METAR MRLM 031900Z 08008KT 9999 BKN015 SCT140 28/25 A2974 RETS RMK CB DST S W N HZ LGT ARND=
200705032000 METAR MRLM 032000Z NIL=
200705032100 METAR MRLM 032100Z 03006KT 9999 DZ BKN015 SCT150 29/23 A2978 MRTAR ESTIMADO RMK CB DST QUAD S W N RN DST SW=
200705032200 METAR MRLM 032200Z NIL=
200705032300 METAR MRLM 032300Z VRB03KT 9999 SCT018 BKN140 28/24 A2972 RMK CB RN DST QUAD S W FEW270=
200705040000 METAR MRLM 040000Z 26002KT 9999 -DZ SCT012 SCT120 BKN140 27/25 A2974 RMK CB RN DST QUAD S W=
200705040100 METAR MRLM NIL=
200705040300 METAR MRLM NIL=
200705040400 METAR MRLM NIL=
200705040500 METAR MRLM NIL=
200705040600 METAR MRLM NIL=
200705040700 METAR MRLM NIL=
200705040800 METAR MRLM NIL=
200705040900 METAR MRLM NIL=
200705041200 METAR MRLM 041200Z 21005KT 9999 SCT020 BKN035 23/22 A2975 RN NE E SE W=
200705041300 METAR MRLM 041300Z 21006KT 9999 -DZ FEW020 BKN080 24/23 A2977 RMK RN DST ARND=
200705041400 METAR MRLM 041400Z 18007KT 9999 FEW030 SCT090 27/25 A2979 REDZ RMK RN DST SE S SW=
200705041500 METAR MRLM 041500Z 19004KT 9999 FEW030 29/24 A2977 RMK FEW100 FEW250 CB RN DST S=
200705041600 METAR MRLM 041600Z 08004KT 9999 FEW028 29/25 A2977 RMK TRACE AC CI=
200705041700 METAR MRLM 041700Z 06004KT 9999 FEW025 30/24 A2977 RMK TRACE AC CI=
200705041800 METAR MRLM 041800Z 05006KT 9999 SCT025 30/24 A2976 RMK TCU DST ARND=
200705041900 METAR MRLM 041900Z 05006KT 9999 FEW025 30/24 A2973 RMK TRACE CI=
200705042000 METAR MRLM 042000Z NIL=
200705042100 METAR MRLM 042100Z 05008KT 9999 FEW025 30/24 A2969 CB DIST ARND/FEW CI=
200705042200 METAR MRLM 042200Z 04005KT 9999 FEW025 29/24 A2969/ CB DIST ARND/ FEW CI=
200705042300 METAR MRLM 042300Z 07003KT 9999 FEW025 BKN250 29/24 A2969/ CB DIST ARND=
200705050000 METAR MRLM 050000Z 00000KT 9999 FEW026 BKN250 27/25 A2971/ CB RN DIST SE S SW W FEW AC 090=
200705050100 METAR MRLM NIL=
200705050200 METAR MRLM NIL=
200705050300 METAR MRLM NIL=
200705050400 METAR MRLM NIL=
200705050500 METAR MRLM NIL=
200705050600 METAR MRLM NIL=
200705050700 METAR MRLM NIL=
200705050800 METAR MRLM NIL=
200705050900 METAR MRLM NIL=
200705051000 METAR MRLM NIL=
200705051100 METAR MRLM NIL=
200705051300 METAR MRLM 051300Z 23004KT 9999 FEW028 SCT090 27/24 A2972/ TRACE CI HZ ARND=
200705051400 METAR MRLM 051400Z 07003KT 9999 FEW028 30/25 A2972/ CB DIST NW FEW AC TRACE=
200705051500 METAR MRLM 051500Z 08005KT 9999 FEW028 30/25 A2973/FEW250 TRACE AC/CB NW N E=
200705051600 METAR MRLM 051600Z 05006KT 9999 FEW028 SCT250 30/25 A2973/ TRACE AC CB NW N=
200705051700 METAR MRLM 051700Z 05008KT 9999 FEW026 SCT250 31/26 A2973/ CB NW N/ TRACE AC TCU S=
200705051800 METAR MRLM 051800Z 01010KT 9999 FEW026 BKN100 31/26 A2972/ CB SW NE/ TS RN SW=
200705051900 METAR MRLM 051900Z 36008KT 9999 SCT025 SCT070 29/25 A2970/ CB S SW W TS DIST SW=
200705052200 METAR MRLM 052200Z 23006KT 9999 DZ SCT025 BKN050 26/25 A2967 RMK CB W/NW RN ARND=
200705052300 METAR MRLM 052300Z 26005KT 9999 TSRA SCT020CB SCT030 26/25 A2968 RMK CB/RN WNW/N/NE TS N ARND=
200705060000 METAR MRLM 060000Z 33010KT 3000N TSRA SCT015CB SCT028 25/24 A2970 RMK CB TS RN ARND=
200705060200 METAR MRLM NIL=
200705060300 METAR MRLM NIL=
200705060500 METAR MRLM NIL=
200705060600 METAR MRLM NIL=
200705060700 METAR MRLM NIL=
200705060800 METAR MRLM NIL=
200705060900 METAR MRLM NIL=
200705061000 METAR MRLM NIL=
200705061100 METAR MRLM NIL=
200705061200 METAR MRLM 061200Z NIL=
200705061300 METAR MRLM 061300Z 36007KT 9999 FEW005 BKN025 25/24 A2972 RMK VIS QUND N 8KM DUE RASH FEW090=
200705061400 METAR MRLM 061400Z VRB03KT 9999 DZ BKN010 25/24 A2976 RMK VIS 6KM QUND E FEW090=
200705061500 METAR MRLM 061500Z 30007KT 2000 +RA FEW005 BKN015 25/24 A2978=
200705061600 METAR MRLM 061600Z 25004KT 9999 +DZ BKN003 SCT090 25/25 A2977 RMK VIS 8KM QUND W=
200705061700 METAR MRLM 061700Z 25004KT 9999 +DZ BKN006 SCT090 26/25 A2976 RMK RN ARND=
200705061800 METAR MRLM 061800Z 31008KT 9999 BKN013 SCT030 28/25 A2973 RMK CB DST N/S RN QUANDS N/S FEWACAS=
200705061900 METAR MRLM 061900Z 33009KT 9999 SCT015 BKN110 28/25 A2971 RMK CB/RN DST ARND=
200705062000 METAR MRLM 062000Z NIL=
200705062100 METAR MRLM 062100Z 02012KT 9999 SCT018 BKN120 28/25 A2968 TCU RN S W=
200705062200 METAR MRLM 062200Z 34009KT 9999 FEW018 BKN120 28/25 A2967 CB ARND RN E S W=
200705062300 METAR MRLM 062300Z 35006KT 9999 SCT015 BKN120 28/25 A2969 CB ARND RN E S W=
200705070000 METAR MRLM 070000Z 35005KT 9999 FEW015 SCT080 BKN120 28/25 A2971 CB ARND RN E S W=
200705070200 METAR MRLM NIL=
200705070300 METAR MRLM NIL=
200705070400 METAR MRLM NIL=
200705070500 METAR MRLM NIL=
200705070600 METAR MRLM NIL=
200705070700 METAR MRLM NIL=
200705070800 METAR MRLM NIL=
200705071000 METAR MRLM NIL=
200705071100 METAR MRLM NIL=
200705071155 METAR MRLM MIL=
200705071200 METAR MRLM NIL=
200705071300 METAR MRLM 071300Z 24004KT 9999 FEW015 BKN090 24/24 A2971 CB RN N E SCT270=
200705071400 METAR MRLM 071400Z 23004KT 9999 VCSH SCT010 BKN025 25/24 A2973 CB RASH N/E VSBY 7KM=
200705071500 METAR MRLM 071500Z 02007KT 9999 DZ BKN008 26/24 A2974 VSBY E 5KM RASH FEW025=
200705071600 METAR MRLM 071600Z 01007KT 5000 RA SCT007 SCT020 26/24 A2976 VSBY S UNL=
200705071700 METAR MRLM 071700Z 34002KT 9999 SCT007 SCT025 26/24 A2976 RERA TCU S W=
200705071800 METAR MRLM 07180Z VRB03KT 9999 RA FEW009 OVC090 26/24 A2973=
200705072000 METAR MRLM 072000Z NIL=
200705072100 METAR MRLM 072100Z VRB03KT 9999 FEW022 BKN110 29/24 A2967 CB RN DST E S W HZ LGT ARND=
200705072200 METAR MRLM 072200Z VRB03KT 9999 FEW020 BKN110 28/24 A2966 RMK RN DST SW HZ LGT ARND=
200705072300 METAR MRLM 072300Z 00000KT CAVOK 28/24 A2969 RMK RKN110 FEW270 CB RN DST S W HZ ARND LGT=
200705080000 METAR MRLM 080000Z VRB03KT CAVOK 26/25 A2969 RMK BKN110 SCT270 CB RN DST S W=
200705080100 METAR MRLM NIL=
200705080200 METAR MRLM NIL=
200705080300 METAR MRLM NIL=
200705080500 METAR MRLM NIL=
200705080600 METAR MRLM NIL=
200705080900 METAR MRLM NIL=
200705081000 METAR MRLM NIL=
200705081100 METAR MRLM NIL=
200705081200 METAR MRLM 081200Z 24003KT 9999 FEW015 SCT090 23/22 A2972 RMK TCU/RN DST NW/W=
200705081300 METAR MRLM 081300Z 25003KT 9999 FEW026 SCT250 25/23 A2974 RMK TCU RN DST N W HZ ARND=
200705081400 METAR MRLM 081400Z 15003KT 9999 FEW026 SCT090 29/23 A2977 RMK RN DST NNW NW N NE CB NW HZ ARND=
200705081500 METAR MRLM 081500Z 10006KT 9999 FEW025 29/23 A2977 RMK FEW090 HZ ARND=
200705081600 METAR MRLM 081600Z 11010KT 9999 FEW030 SCT100 30/24 A2976 RMK HZ LGT ARND=
200705081700 METAR MRLM 081700Z 11010KT 9999 FEW028 30/24 A2974 RMK FEW100 FEW250 TCU DST NW SE=
200705081800 METAR MRLM 081800Z 08012KT 9999 FEW025 30/24 A2973 RMK TCU DST SE SW RN SW=
200705081900 METAR MRLM 081900Z 08015KT 9999 FEW028 31/23 A2970 RMK FEW250 CB DST SE S SW=
200705082000 METAR MRLM NIL=
200705082100 METAR MRLM 082100Z 06009KT 9999 FEW028 SCT250 30/25 A2967 RMK CB DST S SW HZY=
200705082200 METAR MRLM 082200Z 05007KT 9999 FEW028 BKN240 29/24 A2969 RMK CB RN DST S SW W TRACE AC HZY=
200705082300 METAR MRLM 082300Z 04004KT 9999 BKN028 SCT240 28/24 A2969 RMK CB RN DST S SW HZY=
200705090000 METAR MRLM 090000Z 03003KT 9999 SCT025 SCT240 28/24 A2971 RMK CB RN DST SE S SW W HZY=
200705090100 METAR MRLM NIL=
200705090200 METAR MRLM NIL=
200705090300 METAR MRLM NIL=
200705090600 METAR MRLM NIL=
200705090700 METAR MRLM NIL=
200705090800 METAR MRLM NIL=
200705091000 METAR MRLM NIL=
200705091100 METAR MRLM NIL=
200705091200 METAR MRLM 091200Z NIL=
200705091400 METAR MRLM 091400Z 24004KT 9999 FEW025TCU BKN230 27/24 A2980 RMK TCU RN NW N W HZY=
200705091500 METAR MRLM 091500Z 27005KT 9999 FEW025TCUM BKN230 28/24 A2980 RMK TCY RN N NE TRACE AC HZY=
200705091600 METAR MRLM 091600Z 03006KT 9999 FEW025 BKN250 29/24 A2981 RMK TCU RN N NW TRACE AC LEVE HZY=
200705091700 METAR MRLM 091700Z 36009KT 9999 -DZ SCT025 BKN250 29/24 A2980 RMK CB RN DST NW N NE TCU W HZY=
200705091900 METAR MRLM 091900Z 02010KT 9999 FEW025 BKN250 30/25 A2977 RMK CB NE S=
200705092000 METAR MRLM NIL=
200705092100 METAR MRLM 092100Z 01009KT 9999 FEW025 BKN250 30/24 A2972 RMK CB RN S SW FEW090=
200705092200 METAR MRLM 092200Z 01007KT 9999 FEW025 SCT100 BKN250 29/24 A2972 RMK CB RN DST S SW=
200705092300 METAR MRLM 092300Z 21006KT 9999 FEW025 BKN250 28/24 A2973 RMK CB RN DST S SW W FEW AC HZY=
200705100000 METAR MRLM 100000Z 21004KT 9999 FEW025 BKN250 26/23 A2974 RMK CB RN DST SE S SW W FEW090 HZY=
200705100100 METAR MRLM NIL=
200705100200 METAR MRLM NIL=
200705100300 METAR MRLM NIL=
200705100400 METAR MRLM NIL=
200705100500 METAR MRLM NIL=
200705100600 METAR MRLM NIL=
200705100700 METAR MRLM NIL=
200705100800 METAR MRLM NIL=
200705100900 METAR MRLM NIL=
200705101000 METAR MRLM NIL=
200705101100 METAR MRLM NIL=
200705101200 METAR MRLM 101200Z NIL=
200705101300 METAR MRLM 101300Z 23004KT 9999 FEW015 SCT090 BKN100 25/23 A2977/ CB RN DIST NE E=
200705101400 METAR MRLM 101400Z VRB03KT CAVOK 27/23 A2979 BKN110 FEW270 DZ E=
200705101500 METAR MRLM 101500Z 08002KT CAVOK 29/23 A2979/ FEW090 BKN110 TRACE CU CI /HZY=
200705101600 METAR MRLM 101600Z 10005KT 9999 FEW035 BKN120 29/24 A2978/ CB DIST N/ TRACE CI HZY=
200705101700 METAR MRLM 101700Z 09005KT 9999 FEW025 OVC090 29/24 A2978/CB N HZY=
200705101800 METAR MRLM 101800Z 09006KT 9999 FEW028 OVC090 30/24 A2977/ RN DIST SW/ CB N /HZY=
200705101900 METAR MRLM 101900Z 06006KT 9999 FEW026 BKN100 30/24 A2974 FEW270 CB RN N=
200705102000 METAR MRLM NIL=
200705102100 METAR MRLM 102100Z 01012KT 9999 BKN018 SCT270 29/25 A2970 RMK CB DST S N RN DST N NE TRACE AC=
200705102200 METAR MRLM 102200Z 02011KT 9999 BKN018 SCT120 29/25 A2972 RMK RN DST E/S=
200705102300 METAR MRLM 102300Z 02011KT 9999 FEW014 SCT080 BKN130 28/25 A2972 RMK RN DST N E S QDS FEW270=
200705110000 METAR MRLM 110000Z 30004KT 9999 FEW016 SCT130 BKN270 27/25 A2972 RMK CBS RN DST ARND=
200705110100 METAR MRLM NIL=
200705110200 METAR MRLM NIL=
200705110300 METAR MRLM NIL=
200705110400 METAR MRLM NIL=
200705110500 METAR MRLM NIL=
200705110600 METAR MRLM NIL=
200705110700 METAR MRLM NIL=
200705110800 METAR MRLM NIL=
200705110900 METAR MRLM NIL=
200705111000 METAR MRLM NIL=
200705111100 METAR MRLM NIL=
200705111200 METAR MRLM 111200Z NIL=
200705111300 METAR MRLM 111300Z 23002KT CAVOK 26/24 A2976 RMK BKN110 FEW250 CB/RN DST QUAND N=
200705111400 METAR MRLM 111400Z 30004KT 9999 FEW024 SCT080 BKN120 28/24 A2978 RMK CB/RN DST N/NE/E TRAZAS CI 270=
200705111500 METAR MRLM 111500Z 02006KT 9999 FEW025 BKN090 29/24 A2979 RMK CB/RN DST NE/E FEWCI270=
200705111600 METAR MRLM 111600Z 01009KT 9999 FEW025 BKN090 30/25 A2977 RMK FEWCI270 RN DST E=
200705111700 METAR MRLM 111700Z 01011KT 9999 FEW022 SCT140 BKN270 30/26 A2975 RMK CB DST N/NE/E=
200705111800 METAR MRLM 111800Z 01010KT 9999 FEW022 SCT130 BKN270 30/25 A2975 RMK TCU/RN DST S CB DST N/NE=
200705111900 METAR MRLM 111900Z 36011KT 9999 FEW030 SCT140 BKN270 31/25 A2972 RMK CB DST QUADNTS S/W/N=
200705112000 METAR MRLM NIL=
200705112100 METAR MRLM 112100Z 36011KT 9999 FEW024 BKN270 30/25 A2969 CB S W RN S=
200705112200 METAR MRLM 112200Z 02009KT 9999 SCT020 SCT140 BKN280 29/25 A2970 CB RN S W=
200705112300 METAR MRLM 112300Z 30004KT 9999 FEW020 SCT140 BKN270 29/25 A2972 CB RN S W CB NE=
200705120000 METAR MRLM 120000Z 30002KT 9999 FEW015 SCT140 BKN270 28/25 2974 CB RN S W N=
200705120100 METAR MRLM NIL=
200705120200 METAR MRLM NIL=
200705120300 METAR MRLM NIL=
200705120400 METAR MRLM NIL=
200705120500 METAR MRLM NIL=
200705120600 METAR MRLM NIL=
200705120700 METAR MRLM NIL=
200705120800 METAR MRLM NIL=
200705120900 METAR MRLM NIL=
200705121000 METAR MRLM NIL=
200705121100 METAR MRLM NIL=
200705121200 METAR MRLM 121200Z 22003KT CAVOK 24/24 A2974.BKN100 FEW260 HZ ARND=
200705121300 METAR MRLM 121300Z 23003KT CAVOK 28/25 A2977=
200705121400 METAR MRLM 121400Z 23004KT CAVOK 29/24 A2979 SCT100 TCU W=
200705121500 METAR MRLM 121500Z 05006KT CAVOK 30/25 A2980 FEW100 SCT260 TRACE CU=
200705121600 METAR MRLM 121600Z 01010KT 9999 FEW030 BKN280 31/25 A2978=
200705121700 METAR MRLM 121700Z 01010KT 9999 FEDW028 BKN280 31/26 A2977=
200705121800 METAR MRLM 121800Z 01011KT 9999 FEW028 BKN280 31/26 A2975 CB NW NE=
200705121900 METAR MRLM 121900Z 01011KT 9999 FEW020CB FEW028 BKN280 31/26 A2973 CB ARND RN SW=
200705122000 METAR MRLM 122000Z NIL=
200705122100 METAR MRLM 122100Z 01009KT 9999 BKN026 SCT250 30/26 A2969 RMK CB DST ARND RN SW W HZ ARND=
200705122200 METAR MRLM 122200Z 01011KT 9999 SCT026 SCT090 29/26 A2971 RMK CB RN DST ARND TS W HZ ARND TRACE CI=
200705122300 METAR MRLM 122300Z 01008KT 9999 BKN028 SCT050 29/25 A2974 RMK RN DST ARND CB SE S SW W TS S SW=
200705130000 METAR MRLM 130000Z 01007KT 9999 BKN025 SCT045 29/25 A2975 RMK CB DST SE S SW W TS S SW RN ARND=
200705130100 METAR MRLM NIL=
200705130200 METAR MRLM NIL=
200705130300 METAR MRLM NIL=
200705130400 METAR MRLM NIL=
200705130500 METAR MRLM NIL=
200705130600 METAR MRLM NIL=
200705130700 METAR MRLM NIL=
200705130800 METAR MRLM NIL=
200705130900 METAR MRLM NIL=
200705131000 METAR MRLM NIL=
200705131100 METAR MRLM NIL=
200705131200 METAR MRLM 131200Z 26003KT CAVOK 24/24 A2978 RMK FEW100 BKN230 HZ ARND=
200705131300 METAR MRLM 131300Z 23003KT CAVOK 25/24 A2980 RMK SCT100 SCT230 TCU DST N HZ ARND=
200705131400 METAR MRLM 131400Z 25003KT CAVOK 27/24 A2982 RMK SCT100 BKN230 HZ ARND=
200705131500 METAR MRLM 131500Z 07003KT 9999 FEW028 BKN090 28/25 A2982 RMK TCU DST NW N FEW230 HZ ARND=
200705131600 METAR MRLM 131600Z 32008KT 9999 FEW028 SCT100 31/25 A2982 RMK CB DST NW TRACE CI HZ ARND=
200705131700 METAR MRLM 131700Z 35012KT 9999 FEW026TCU SCT250 31/25 A2980 RMK CB DST NW NE E SE RN W HZ ARND=
200705131800 METAR MRLM 131800Z 01011KT 9999 FEW026TCU SCT240 30/26 A2979 RMK CB DST HZ ARND FEW100=
200705131900 METAR MRLM 131900Z 01010KT 9999 TS FEW018CB FEW026 SCT240 31/26 A2975 RMK CB ARND TS S SW TRACE AC=
200705132000 METAR MRLM 132000Z NIL=
200705132100 METAR MRLM 132100Z 04006KT 9999 SCT026 SCT230 29/26 A2973 RETS RMK CB RN DST SE S SW TRACE AC HZY=
200705132200 METAR MRLM 132200Z 08004KT 9999 BKN026 SCT090 29/26 A2974 RMK CB RN DST S SW W HZY=
200705132300 METAR MRLM 132300Z 10003KT 9999 BKN026 SCT080 29/26 A2975 RMK CB RN S SW W TS DST W=
200705140000 METAR MRLM 140000Z NIL=
200705140100 METAR MRLM NIL=
200705140200 METAR MRLM NIL=
200705140300 METAR MRLM NIL=
200705140400 METAR MRLM NIL=
200705140500 METAR MRLM NIL=
200705140600 METAR MRLM NIL=
200705140700 METAR MRLM NIL=
200705140800 METAR MRLM NIL=
200705140900 METAR MRLM NIL=
200705141000 METAR MRLM NIL=
200705141100 METAR MRLM NIL=
200705141200 METAR MRLM 141200Z NIL=
200705141300 METAR MRLM 141300Z 23005KT 9999 SCT025 BKN090 25/24 A2977 RMK RN DST QUAD W N E CB DST QUAD N E TSTM DST E=
200705141400 METAR MRLM 141400Z VRB03KT 9999 FEW015 BKN025 26/24 A2980 RMK CB RN DST QUAD N E FEW100=
200705141500 METAR MRLM 141500Z 36004KT 9999 FEW010 SCT090 BKN140 27/25 A2980 RMK CB RN DST QUAD N E=
200705141600 METAR MRLM 141600Z 33006KT 9999 BKN012 SCT100 27/25 A2981 RMK CB RN DST N NE=
200705141700 METAR MRLM 141700Z 32006KT 9999 RA FEW008 OVC015 27/25 A2982 RMK VIS 6000 NE=
200705141800 METAR MRLM 141800Z 30005KT 9999 +DZ BKN010 27/26 A2980 RMK VIS 8000 S SW FEW100=
200705141900 METAR MRLM 141900Z 33004KT 9999 DZ BKN012 SCT100 28/25 A2977 RMK RN HZ ARND=
200705142000 METAR MRLM 142000Z NIL=
200705142100 METAR MRLM 142100Z 32006KT 9999 FEW012 BKN090 28/25 A2973 RMK DZ NE E SE FEW140=
200705142200 METAR MRLM 142200Z 31005KT 9999 FEW012 BKN090 28/25 A2973 RMK CB RN DST S SW FEW270=
200705142300 METAR MRLM 142300Z VRB03KT CAVOK 28/25 A2976 RMK SCT090 SCT120 RMK CBS RN DST S SW TRACE SC FEW270=
200705150000 METAR MRLM 150000Z 31002KT CAVOK 27/25 A2974 RMK TACE OF SC BKN270 CBS DST S NE=
200705150100 METAR MRLM NIL=
200705150200 METAR MRLM NIL=
200705150300 METAR MRLM NIL=
200705150400 METAR MRLM NIL=
200705150500 METAR MRLM NIL=
200705150600 METAR MRLM NIL=
200705150700 METAR MRLM NIL=
200705150800 METAR MRLM NIL=
200705150900 METAR MRLM NIL=
200705151000 METAR MRLM NIL=
200705151100 METAR MRLM NIL=
200705151200 METAR MRLM NIL=
200705151300 METAR MRLM 151300Z 27002KT CAVOK 27/25 A2977 RMK SCT130 HZ LG ARND TRAZAS CI=
200705151400 METAR MRLM 151400Z 36004KT CAVOK 30/24 A2977 RMK FEW140 FEW300 HZY=
200705151500 METAR MRLM 151500Z 34010KT 9999 FEW032 30/24 A2977 RMK FEW300 HZY=
200705151600 METAR MRLM 151600Z 36009KT 9999 FEW032 30/24 A2977 RMK FEW300 HZ LGT ARND=
200705151700 METAR MRLM 161700Z 02008KT 9999 FEW028 31/25 A2975 RMK FEW300 HZY=
200705151800 METAR MRLM 151800Z 01011KT 9999 FEW028 31/25 A2974 RMK FEW300 CB DST SE HZY=
200705151900 METAR MRLM 151900Z 01014KT 9999 FEW022 30/26 A2971 RMK TCU DST S SW HZY=
200705152000 METAR MRLM 152000Z NIL=
200705152100 METAR MRLM 152100Z 02009KT 9999 BKN016 SCT280 29/25 A2969 RMK CB RN SW HZ ARND=
200705152200 METAR MRLM 152200Z 01008KT 9999 BKN016 SCT140 29/26 A2970 RMK FEW270 CB RN SW=
200705152300 METAR MRLM 152300Z 01004KT 9999 SCT018 SCT140 29/25 A2971 RMK CB S W FEW270=
200705160000 METAR MRLM 160000Z VRB03KT 9999 SCT012 BKN140 27/26 A2972 RMK CB RN DST W DZ S FEW270=
200705160100 METAR MRLM NIL=
200705160200 METAR MRLM NIL=
200705160300 METAR MRLM NIL=
200705160400 METAR MRLM NIL=
200705160500 METAR MRLM NIL=
200705160600 METAR MRLM NIL=
200705160700 METAR MRLM NIL=
200705160800 METAR MRLM NIL=
200705160900 METAR MRLM NIL=
200705161000 METAR MRLM NIL=
200705161100 METAR MRLM NIL=
200705161200 METAR MRLM 161200Z NIL=
200705161300 METAR MRLM 161300Z 210004KT CAVOK 26/14 A2974 RMK FEW090 BKN250 HZ ARND=
200705161400 METAR MRLM 161400Z 29004KT CAVOK 29/25 A2975 RMK SC090 BKN250 TRACE CU HZ ARND=
200705161500 METAR MRLM 161500Z 28006KT CAVOK 31/24 A2975 RMK FEW090 BKN250 TCU N NW HZ ARND TRACE CU=
200705161600 METAR MRLM 161600Z 32008KT 9999 FEW028 BKN250 32/24 A2974 RMK CB N NE HZ ARND=
200705161700 METAR MRLM 161700Z 26012KT 9999 FEW028 BKN250 32/25 A2975 CB NW N NE HZ ARND=
200705161800 METAR MRLM 161800Z 01013KT 9999 FEW028 BKN250 31/26 A2974 RMK CB ARND=
200705161900 METAR MRLM 161900Z 36013KT 9999 SCT028 BKN250 31/25 A2979 RMK CB ARND=
200705162000 METAR MRLM 162000Z NIL=
200705162100 METAR MRLM 162100Z 01010KT 9999 FEW026 BKN250 30/26 A2968 CB ARND RN S SW W=
200705162200 METAR MRLM 162200Z 32006KT 9999 BKN026 29/25 A2968 CB RN S SW W=
200705162300 METAR MRLM 162300Z 34004KT 9999 SCT026 SCT090 29/26 A2969 CB S SW W RN NE=
200705170000 METAR MRLM 170000Z 00000KT 9999 SCT026 SCT090 28/26 A2971 CB E SE RN NW N NE=
200705170100 METAR MRLM NIL=
200705170200 METAR MRLM NIL=
200705170300 METAR MRLM NIL=
200705170400 METAR MRLM NIL=
200705170500 METAR MRLM NIL=
200705170600 METAR MRLM NIL=
200705170800 METAR MRLM NIL=
200705170900 METAR MRLM NIL=
200705171000 METAR MRLM NIL=
200705171100 METAR MRLM NIL=
200705171200 METAR MRLM NIL=
200705171300 METAR MRLM 171300Z 23005KT CAVOK 25/24 A2972 OVC240 TCU NW=
200705171400 METAR MRLM 171400Z 00000KT CAVOK 28/25 A2974 BKN240 TCU NW HZY=
200705171500 METAR MRLM 171500Z 30010KT 9999 FEW026 BKN250 30/24 A2975 TCU NE E HZY=
200705171600 METAR MRLM 171600Z 34010KT 9999 FEW026 BKN250 31/25 A2976 TCU E HZY=
200705171700 METAR MRLM 171700Z 35013KT 9999 FEW025TCU BKN250 31/25 A2974 HZY=
200705171800 METAR MRLM 171800Z 01013KT 9999 FEW025 SCT250 31/26 A2974 CB N NE S=
200705171900 METAR MRLM 171900Z 36007KT 9999 SCT025 SCT250 31/26 A2970 CB ARND RN S SW HZY=
200705172000 METAR MRLM NIL=
200705172100 METAR MRLM 172100Z 36013KT 9999 SCT025 BKN250 31/25 A2969 RMK CB RN DST S SW W TRACE AC HZ ARND=
200705172200 METAR MRLM 172200Z 35012KT 9999 BKN025TCU SCT100 29/26 A2970 RMK CB RN DST S SW W=
200705172300 METAR MRLM 172300Z 01014KR 9999 SCT025 SCT100 29/26 A2970 RMK CB RN DST S SW W HZ ARND=
200705180000 METAR MRLM 180000Z 02010KT 9999 BKN025 SCT090 28/26 A2971 RMK CB RN DST S SW W TRACE CI HZ ARND=
200705180100 METAR MRLM NIL=
200705180200 METAR MRLM NIL=
200705180300 METAR MRLM NIL=
200705180400 METAR MRLM NIL=
200705180500 METAR MRLM NIL=
200705180600 METAR MRLM NIL=
200705180700 METAR MRLM NIL=
200705180800 METAR MRLM NIL=
200705180900 METAR MRLM NIL=
200705181000 METAR MRLM NIL=
200705181100 METAR MRLM NIL=
200705181200 METAR MRLM NIL=
200705181300 METAR MRLM 181300Z VRB03KT CAVOK 26/24 A2976 TRACE SCT BKN090 FEW270 CB DST N HZ ARND=
200705181400 METAR MRLM 181400Z 24004KT 9999 FEW028 SCT270 30/24 A2977 RMK TRACE AC CB RN DST N HZ ARND=
200705181500 METAR MRLM 181500Z 33011KT 9999 FEW028 SCT270 31/24 A2977 RMK FEW140 CB RN DST N HZ ARND=
200705181600 METAR MRLM 181600Z 32014KT 9999 SCT030 SCT270 31/25 A2976 RMK TRACE 110 HZ ARND=
200705181700 METAR MRLM 181700Z 34015KT 9999 FEW028 SCT270 31/25 A2975 RMK FEW140 CB DST E HZ ARND LGT=
200705181800 METAR MRLM 181800Z 35015KT 9999 FEW028 BKN280 31/25 A2974 RMK CB DST E FEW140 HZ JGT ARND=
200705181900 METAR MRLM 181900Z 35018KT 9999 FEW025 BKN280 30/25 A2971 RMK CB DST E SE S SW=
200705182000 METAR MRLM NIL=
200705182100 METAR MRLM 182100Z 34010KT 9999 BKN018 SCT140 29/26 A2969 RMK FEW270 CB RN DST QUAD S W=
200705182200 METAR MRLM 182200Z 33009KT 9999 BKN020 29/25 A2970 RMK FEW120 FEW150 TRACE CI=
200705182300 METAR MRLM 182300Z 35009KT 9999 BKN018 SCT140 29/25 A2972 RMK FEW120 TRACE CI CB RN DST QUAD S W=
200705190000 METAR MRLM 190000Z 33006KT 9999 BKN018 29/25 A2975 RMK FEW090 TRACE140 CB RN DST QUAD S W=
200705190100 METAR MRLM NIL=
200705190200 METAR MRLM NIL=
200705190300 METAR MRLM NIL=
200705190400 METAR MRLM NIL=
200705190500 METAR MRLM NIL=
200705190600 METAR MRLM NIL=
200705190700 METAR MRLM NIL=
200705190800 METAR MRLM NIL=
200705190900 METAR MRLM NIL=
200705191000 METAR MRLM NIL=
200705191100 METAR MRLM NIL=
200705191200 METAR MRLM 191200Z NIL=
200705191300 METAR MRLM 191300Z 24004KT 9999 SCT018 BKN090 24/24 A2977 RMK RN DST NW HZY=
200705191400 METAR MRLM 191400Z 29010KT 9999 DZ FEW025 OVC110 27/24 A2977 RMK RN DST N NE HZY=
200705191500 METAR MRLM 191500Z 30013KT 9999 BKN013 SCT110 27/25 A2979 RMK CB RN DST N NE SW=
200705191600 METAR MRLM 191600Z 30014KT 9999 SCT018 BKN140 28/25 A2979 RMK RN DST QUAD N FEW035 TRACE 270=
200705191700 METAR MRLM 191700Z 27011KT 9999 FEW028 BKN140 30/24 A2977 RMK FEW270 CB RN DST NW N NE E=
200705191800 METAR MRLM 191800Z 32010KT 9999 FEW018 BKN120 30/25 A2975 RMK CB RN DST N FEW270=
200705191900 METAR MRLM 191900Z 34018KT 9999 SCT026 BKN140 30/25 A2974 RMK CB DST ARND RN DST QUAD N S=
200705192000 METAR MRLM 192000Z NIL=
200705192100 METAR MRLM 192100Z 32010KT 9999 SCT016 SCT140 BKN270 28/25 A2971 RMK CB DST ARND RN DST N W S TRACE AC120=
200705192200 METAR MRLM 192200Z 29009KT 9999 RA BKN010 27/25 A2971 RMK VIS N 7KMS DUE RASH=
200705192300 METAR MRLM 192300Z 28006KT 9999 DZ FEW007 BKN025 26/25 A2972 CBS RN DST ARND FEW100=
200705200000 METAR MRLM 200000Z 36014KT 3000 RA OVC012 26/25 A2975 VIS S UNLTD=
200705200100 METAR MRLM NIL=
200705200200 METAR MRLM NIL=
200705200300 METAR MRLM NIL=
200705200400 METAR MRLM NIL=
200705200500 METAR MRLM NIL=
200705200600 METAR MRLM NIL=
200705200700 METAR MRLM NIL=
200705200800 METAR MRLM NIL=
200705200900 METAR MRLM NIL=
200705201000 METAR MRLM NIL=
200705201100 METAR MRLM NIL=
200705201200 METAR MRLM 201200Z 27006KT 9999 SCT100 24/24 A2976 RMK CB RN DST NW=
200705201300 METAR MRLM 201300Z 27006KT 9999 FEW025 SCT120 26/24 A2977 RMK FEW250=
200705201400 METAR MRLM 201400Z 26006KT 9999 FEW028 BKN120 27/24 A2978 RMK RN DST NW N NE ENE=
200705201500 METAR MRLM 201500Z 29008KT 9999 FEW028 BKN120 28/24 A2978 RMK CB DST NW N NE E=
200705201600 METAR MRLM 201600Z 32009KT 9999 FEW028 BKN120 29/24 A2979 RMK CB RN NW N NE E DST=
200705201700 METAR MRLM 201700Z 32016KT 9999 SCT026 SCT240 29/24 A2978 RMK CB RN W NW N NE FEW100=
200705201800 METAR MRLM 201800Z 33017KT 9999 SCT026 SCT100 29/25 A2978 RMK RN DST NW N NE=
200705201900 METAR MRLM 201900Z 34013KT 9999 BKN026 SCT100 28/25 A2976 CB NW NE RN ARND=
200705202000 METAR MRLM 202000Z NIL=
200705202100 METAR MRLM 202100Z 32012KT 9999 BKN026 SCT090 28/25 A2972 RMK RN ARND=
200705202200 METAR MRLM 202200Z 32009KT 9999 BKN025 SCT090 27/25 A2973 RMK TCU RN S SW W=
200705202300 METAR MRLM 202300Z 26004KT 9999 SCT020 BKN045 27/25 A2974 RMK RN ARND TCU SE SW S=
200705210000 METAR MRLM 210000Z 24005KT 9999 -DZ SCT025 SCT045 25/24 A2975 RMK RN ARND=
200705210100 METAR MRLM NIL=
200705210200 METAR MRLM NIL=
200705210300 METAR MRLM NIL=
200705210400 METAR MRLM NIL=
200705210500 METAR MRLM NIL=
200705210600 METAR MRLM NIL=
200705210700 METAR MRLM NIL=
200705210800 METAR MRLM NIL=
200705210900 METAR MRLM NIL=
200705211000 METAR MRLM NIL=
200705211100 METAR MRLM NIL=
200705211200 METAR MRLM 211200Z NIL=
200705211300 METAR MRLM 211300Z 27004KT 9999 FEW028 BKN090 25/24 A2976 RN E NE TRACE CI=
200705211400 METAR MRLM 211400Z 30004KT 9999 FEW028 BKN090 27/24 A2977 RMK TRACE CI=
200705211500 METAR MRLM 211500Z 30008KT 9999 SCT028 BKN090 28/24 A2979 TRACE CI RN E NE=
200705211600 METAR MRLM 211600Z 33008KT 9999 SCT028 BKN080 29/24 A2980 TRACE CI RN ARND=
200705211700 METAR MRLM 211700Z 31008KT 9999 SCT028 BKN090 30/24 A2979 TRACE CI TCU RN ARND=
200705211800 METAR MRLM 211800Z 35011KT 9999 SCT028 SCT090 29/24 A2977 RMK FEWCI CB RN ARND=
200705211900 METAR MRLM 211900Z 34010KT 9999 BKN026TCU SCT090 29/24 A2978 RMK CB RN ARND=
200705212000 METAR MRLM 212000Z NIL=
200705212100 METAR MRLM 212100Z 21007KT 9999 3000SW TS VCSH SCT015CB BKN025 24/24 A2974 REDZ CB SE S SW W TS S=
200705212200 METAR MRLM 212200Z 23005KT 59000 TSRA FEW015CB BKN025 24/24 A2974 CB SE S SW W TS S SW=
200705212300 METAR MRLM 212300Z 18005KT 5000 RA FEW015 BKN045 24/24 A2975 RETS=
200705220000 METAR MRLM 220000Z 19003KT 9999 -RA SCT030 SCT080 24/24 A2976=
200705220100 METAR MRLM NIL=
200705220200 METAR MRLM NIL=
200705220300 METAR MRLM NIL=
200705220400 METAR MRLM NIL=
200705220500 METAR MRLM NIL=
200705220600 METAR MRLM NIL=
200705220700 METAR MRLM NIL=
200705220800 METAR MRLM NIL=
200705220900 METAR MRLM NIL=
200705221000 METAR MRLM NIL=
200705221100 METAR MRLM NIL=
200705221200 METAR MRLM NIL=
200705221300 METAR MRLM 221300Z 26004KT 9999 FEW035 BKN090 23/23 A2975 CB RN N E=
200705221400 METAR MRLM 221400Z VRB03KT 9999 RA SCT025 SCT090 BKN140 24/23 A2978 VSBY N NE 8KM DUE RN=
200705221500 METAR MRLM 221500Z 00000KT 9000 RA SCT090 OVC120 24/24 A2979=
200705221600 METAR MRLM 221600Z VRB03KT 9999 RA FEW005 SCT090 OVC120 24/24 A2979=
200705221700 METAR MRLM 221700Z 31002KT 9999 FEW004 SCT100 OVC130 25/24 A2978 CB RN N E=
200705221800 METAR MRLM 221800Z 21004KT 9999 DZ FEW007 BKN100 26/24 A2976=
200705221900 METAR MRLM 221900Z 10004KT 9999 FEW015 BKN110 27/24 A2972 CB ARND RN E=
200705222000 METAR MRLM NIL=
200705222100 METAR MRLM 222100Z VRB03KT 9999 FEW025 SCT120 BKN270 28/23 A2968 RMK CB DST ARND RN DST E=
200705222200 METAR MRLM 222200Z 10005KT 9999 FEW020 SCT140 BKN270 28/23 A2968 RMK CB DST ARND RN DST E SE=
200705222300 METAR MRLM 222300Z 10010KT 9999 FEW018 BKN140 27/23 A2969 RMK CB DST ARND RN DST E SE=
200705230000 METAR MRLM 230000Z 12005KT 9999 FEW015 BKN120 27/24 A2970 RMK CB DST ARND RN DST SE S SW NW=
200705230100 METAR MRLM NIL=
200705230200 METAR MRLM NIL=
200705230300 METAR MRLM NIL=
200705230400 METAR MRLM NIL=
200705230500 METAR MRLM NIL=
200705230600 METAR MRLM NIL=
200705230700 METAR MRLM NIL=
200705230800 METAR MRLM NIL=
200705230900 METAR MRLM NIL=
200705231000 METAR MRLM NIL=
200705231100 METAR MRLM NIL=
200705231200 METAR MRLM 231200Z NIL=
200705231300 METAR MRLM 231300Z 24004KT 9999 FEW015 SCT090 BKN120 25/24 A2975 RMK TCU DST NW N W HZ LGT ARND=
200705231400 METAR MRLM 231400Z VRB03KT 9999 FEW012 SCT100 BKN120 27/25 A2972 RMK CB DST NNW NE E SE RN DST E=
200705231500 METAR MRLM 231500Z 05004KT 9999 +DZ FEW015 SCT120 28/25 A2977 RMK CB DST N E=
200705231600 METAR MRLM 231600Z 05006KT 9999 SCT020 BKN120 28/24 2976 RERA RMK CB RN DST N E TRACE CI=
200705231700 METAR MRLM 231700Z 03006KT 9999 SCT028 BKN120 30/24 A2974 RMK CB RN DST N E TRACE 270=
200705231800 METAR MRLM 231800Z 02008KT 9999 FEW025 BKN120 30/24 A2972 RMK CB RN DST N=
200705231900 METAR MRLM 231900Z 03009KT 9999 FEW025 BKN120 30/24 A2969 RMK CB DST ARND RN DST N TRACE 270=
200705232000 METAR MRLM 232000Z NIL=
200705232100 METAR MRLM 232100Z 05006KT 9999 SCT022 BKN120 29/25 A2966 RMK CB DST ARND RN DST SW W TRACE CI=
200705232200 METAR MRLM 232200Z 02006KT 9999 BKN020 SCT120 28/25 A2965 RMK CB DST QUAD S W RN DST W TRACE CI=
200705232300 METAR MRLM 232300Z 04005KT 9999 SCT018 BKN120 28/25 A2967 RMK CB RN DST QUAD S W FEW CI=
200705240000 METAR MRLM 240000Z 09002KT 9999 FEW018 BKN120 28/24 A2968 RMK CB DST ARND RN DST QUAD E S SW FEW CI=
200705240100 METAR MRLM NIL=
200705240200 METAR MRLM NIL=
200705240300 METAR MRLM NIL=
200705240400 METAR MRLM NIL=
200705240500 METAR MRLM NIL=
200705240600 METAR MRLM NIL=
200705240700 METAR MRLM NIL=
200705240800 METAR MRLM NIL=
200705240900 METAR MRLM NIL=
200705241100 METAR MRLM NIL=
200705241200 METAR MRLM NIL=
200705241300 METAR MRLM 241300Z 24004KT 9999 FEW024 BKN090 25/24 A2975 RMK TCU RN DST NW N NE=
200705241400 METAR MRLM 241400Z 26004KT 9999 FEW024 SCT090 27/25 A2976 RMK SCT250=
200705241500 METAR MRLM 241500Z 05004KT 9999 FEW024 SCT250 29/25 A2977 RMK RN DST ENE FEW090=
200705241600 METAR MRLM 241600Z 05006KT 9999 FEW024TCU BKN090 28/25 A2977 RMK FEW CI TCU DST W NW=
200705241700 METAR MRLM 241700Z 02007KT 9999 FEW020TCU SCT090 29/25 A2975 RMK CB DST N NW W FEW250=
200705241800 METAR MRLM 241800Z 02006KT 9999 FEW020CB SCT025 BKN100 29/25 A2974 RETS RMK TRACE CI CB RN DST SE SW S W NW=
200705241900 METAR MRLM 241900Z 02008KT 9999 FEW015CB BKN025 29/25 A2971 RMK CB/RN S/SW/W FEWAC100 TRAZAS CI=
200705242000 METAR MRLM 242000Z NIL=
200705242100 METAR MRLM 242100Z 22003KT 4000 -RA BKN022 SCT080 25/25 A2968 RMK CBS DST ARND=
200705242200 METAR MRLM 242200Z 23004KT 7000 -RA BKN025 SCT080 25/25 A2968=
200705242300 METAR MRLM 242300Z 23004KT 9999 -DZ SCT025TCU SCT080 25/25 A2970 RMK CB DST SW W NW RN ARND=
200705250000 METAR MRLM 250000Z 04008KT 9999 SCT030 SCT080 29/24 A2972 RMK RN ESE W NW=
200705250100 METAR MRLM NIL=
200705250200 METAR MRLM NIL=
200705250300 METAR MRLM NIL=
200705250400 METAR MRLM NIL=
200705250500 METAR MRLM NIL=
200705250600 METAR MRLM NIL=
200705250700 METAR MRLM NIL=
200705250800 METAR MRLM NIL=
200705250900 METAR MRLM NIL=
200705251000 METAR MRLM NIL=
200705251100 METAR MRLM NIL=
200705251200 METAR MRLM NIL=
200705251300 METAR MRLM 251300Z 22004KT 9999 FEW025 BKN090 24/24 A2978 RN DST NW N NE E=
200705251400 METAR MRLM 251400Z 23006KT 9999 FEW025 BKN090 26/24 A2980 RMK RN DST NW N NE=
200705251500 METAR MRLM 251500Z 07003KT 9999 FEW025 BKN100 28/24 A2980 RMK RN DST N NE TRAZAS CI=
200705251600 METAR MRLM 251600Z 35008KT 9999 SCT025 SCT250 29/23 A2979 RMK FEW100=
200705251700 METAR MRLM 251700Z 03008KT 9999 FEW025 SCT090 28/24 A2977 TCU RN S SW=
200705251800 METAR MRLM 251800Z 30010KT 9999 FEW025 BKN250 30/24 A2974 RMK TRAZAS AC=
200705251900 METAR MRLM 251900Z 02011KT 9999 FEW025 BKN250 29/25 A2972 RMK TRAZAS AC=
200705252000 METAR MRLM 252000Z NIL=
200705252100 METAR MRLM 252100Z 02011KT 9999 FEW025 SCT090 29/25 A2968 RMK RN S W SCT250=
200705252200 METAR MRLM 252200Z 01010KT 9999 FEW025 BKN090 29/24 A2969 RMK RN SE S SW W=
200705252300 METAR MRLM 252300Z 02009KT 9999 SCT030 BKN090 29/24 A2970 RMK RN SE SW TRACE CI=
200705260000 METAR MRLM 260000Z 04008KT 9999 SCT030 SCT080 29/24 A2972 RMK RN ESE W NW=
200705260100 METAR MRLM NIL=
200705260200 METAR MRLM NIL=
200705260300 METAR MRLM NIL=
200705260400 METAR MRLM NIL=
200705260500 METAR MRLM NIL=
200705260600 METAR MRLM NIL=
200705260700 METAR MRLM NIL=
200705260800 METAR MRLM NIL=
200705260900 METAR MRLM NIL=
200705261000 METAR MRLM NIL=
200705261100 METAR MRLM NIL=
200705261200 METAR MRLM NIL=
200705261300 METAR MRLM 261300Z 23005KT CAVOK 25/24 A2977 RMK FEW140 BKN280 HZ ARND=
200705261400 METAR MRLM 261400Z 20004KT CAVOK 28/24 A2978 RMK FEW140 BKN280 HZ ARND=
200705261500 METAR MRLM 261500Z 30008KT CAVOK 30/23 A2978 RMK BKN280 TRACE CU AC HZ ARND=
200705261600 METAR MRLM 261600Z 30008KT 9999 FEW035 BKN200 30/23 A2977 RMK TRACE AC HZ ARND=
200705261700 METAR MRLM 261700Z 01011KT 9999 FEW032 BKN280 30/24 A2975=
200705261800 METAR MRLM 261800Z 02011KT 9999 FEW032 BKN280 30/24 A2977=
200705261900 METAR MRLM 261900Z 02011KT 9999 FEW028 BKN280 30/25 A2973=
200705262000 METAR MRLM 262000Z NIL=
200705262100 METAR MRLM 262100Z 01012KT 9999 FEW028 SCT280 30/25 A2968 CB SE S SW W=
200705262200 METAR MRLM 262200Z 02012KT 9999 TS FEW015CB FEW025 SCT280 30/25 A2968 CB SW W TS RASH SW W=
200705262300 METAR MRLM 262300Z 01005KT 9999 TS SCT015CB SCT120 SCT280 29/24 A2970 CB S/W TS W RN SW W=
200705270000 METAR MRLM 270000Z 25002KT 9999 TS SCT015CB BKN100 27/25 A2971 TSTM W CB S W=
200705270100 METAR MRLM NIL=
200705270200 METAR MRLM NIL=
200705270300 METAR MRLM NIL=
200705270400 METAR MRLM NIL=
200705270500 METAR MRLM NIL=
200705270600 METAR MRLM NIL=
200705270700 METAR MRLM NIL=
200705270800 METAR MRLM NIL=
200705270900 METAR MRLM NIL=
200705271000 METAR MRLM NIL=
200705271100 METAR MRLM NIL=
200705271200 METAR MRLM NIL=
200705271300 METAR MRLM 271300Z 25004KT 9999 FEW015 BKN090 26/23 A2978 HZY=
200705271400 METAR MRLM 271400Z 31004KT CAVOK 28/24 OVC080 TRACE CU=
200705271500 METAR MRLM 271500Z 30006KT 9999 FEW018 BKN080 28/24 A2980 DZ W NE=
200705271600 METAR MRLM 271600Z 36010KT 9999 FEW025 SCT280 30/25 A2979 FEW140=
200705271700 METAR MRLM 271700Z 32009KT 9999 FEW033 SCT280 31/24 A2977=
200705271800 METAR MRLM 271800Z 02012KT 9999 FEW025 SCT280 30/25 A2974 CB E=
200705271900 METAR MRLM 271900Z 03011KT 9999 FEW025 30/25 A2974 CB E FEW280=
200705272000 METAR MRLM NIL=
200705272100 METAR MRLM 272100Z 01010KT 9999 FEW025 SCT030 30/26 A2969 RMK CB/DST S HZ ARND TRAZAS AC=
200705272200 METAR MRLM 272200Z 02009KT 9999 FEW022 SCT300 30/26 A2968 RKM CB DST S/W HZ LGT ARND=
200705272300 METAR MRLM 272300Z 06005KT 9999 TS SCT020CB BKN300 29/25 A2970 TSTM/RASH SW FEW AC=
200705272355 METAR MRLM 280000Z VRB03KT 9999 SCT015CB BKN300 28/25 A2972 CB RN QUADS S W FEWAC 090=
200705280000 METAR MRLM 280000Z VRB03KT 9999 SCT015CB BKN300 28/25 A2972 CB RN QUADS S W FEWAC 090=
200705280056 METAR MRLM NIL=
200705280100 METAR MRLM NIL=
200705280200 METAR MRLM NIL=
200705280300 METAR MRLM NIL=
200705280400 METAR MRLM NIL=
200705280500 METAR MRLM NIL=
200705280600 METAR MRLM NIL=
200705280700 METAR MRLM NIL=
200705280800 METAR MRLM NIL=
200705280900 METAR MRLM NIL=
200705281000 METAR MRLM NIL=
200705281100 METAR MRLM NIL=
200705281200 METAR MRLM 281200Z 23005KT 9999 FEW030 BKN080 24/24 A2977 RMK HZ ARND=
200705281300 METAR MRLM 281300Z 24005KT 9999 FEW030 BKN090 25/25 A2979=
200705281400 METAR MRLM 281400Z 24003KT CAVOK 28/25 A2980 RMK SCT100 SCT250 TRACE CU SC=
200705281500 METAR MRLM 281500Z 05004KT 9999 FEW028 BKN250 29/24 A2980=
200705281600 METAR MRLM 281600Z 04006KT 9999 FEW028 BKN250 29/24 A2982 RMK HZ ARND=
200705281700 METAR MRLM 281700Z 06005KT 9999 FEW0 28 BKN250 29/25 A2979 HZ ARND=
200705281800 METAR MRLM 281800Z 06009KT 9999 FEW025 BKN250 30/25 A2976 RMK HZ ARND=
200705281900 METAR MRLM 281900Z 07006KT 9999 FEW025 BKN250 30/24 A2974 RMK TCU S SW HZ ARND=
200705282000 METAR MRLM 282000Z 28011KT 3000 BR SCT001 BKN007 23/20 A3000=
200705282100 METAR MRLM 282100Z 06004KT 9999 FEW025 BKN250 30/24 A2969 RMK HZY=
200705282200 METAR MRLM 282200Z 07004KT 9999 FEW028 BKN250 30/24 A2968 RMK HZY=
200705282300 METAR MRLM 282300Z 06003KT 9999 FEW028 BKN250 30/25 A2969 RMK HZY=
200705290000 METAR MRLM 290000Z 00000KT 9999 FEW025 BKN250 28/25 A2970 RMK TCU DST S SW W HZY=
200705290100 METAR MRLM NIL=
200705290200 METAR MRLM NIL=
200705290300 METAR MRLM NIL=
200705290400 METAR MRLM NIL=
200705290500 METAR MRLM NIL=
200705290600 METAR MRLM NIL=
200705290700 METAR MRLM NIL=
200705290800 METAR MRLM NIL=
200705290900 METAR MRLM NIL=
200705291000 METAR MRLM NIL=
200705291100 METAR MRLM NIL=
200705291200 METAR MRLM 291200Z NIL=
200705291300 METAR MRLM 291300Z 21005KT 9999 FEW028 SCT250 26/25 A2977 RMK FEW080 HZY=
200705291400 METAR MRLM 291400Z 00000KT 9999 FEW030 BKN250 27/25 A2978 RMK TCU DST N HZY=
200705291500 METAR MRLM 291500Z 36005KT 9999 FEW028 BKN230 28/24 A2981 RMK TCU DST SSW FEW080 HZY=
200705291600 METAR MRLM 291600Z 28003KT 9999 FEW028 BKN090 28/24 A2980 RMK HZY=
200705291700 METAR MRLM NIL=
200705291800 METAR MRLM NIL=
200705291900 METAR MRLM NIL=
200705292000 METAR MRLM NIL=
200705292100 METAR MRLM 292100Z 10009KT 9999 FEW025 BKN230 30/25 A2970 RMK CB DST S SSW TRAZAS AC HZY=
200705292200 METAR MRLM 292200Z 10009KT 9999 FEW025 BKN230 30/25 A2970 RMK CB DST SSW TRACE AC HZY=
200705292300 METAR MRLM 292300Z 11009KT 9999 FEW025 BKN230 29/25 A2971 RMK CB DST S SW TRAZAS AC HZY=
200705300000 METAR MRLM 300000Z 12011KT 9999 SCT025 SCT230 29/26 A2972 CB DST S SW W HZY=
200705300100 METAR MRLM NIL=
200705300200 METAR MRLM NIL=
200705300300 METAR MRLM NIL=
200705300400 METAR MRLM NIL=
200705300500 METAR MRLM NIL=
200705300600 METAR MRLM NIL=
200705300700 METAR MRLM NIL=
200705300800 METAR MRLM NIL=
200705300900 METAR MRLM NIL=
200705301000 METAR MRLM NIL=
200705301100 METAR MRLM NIL=
200705301200 METAR MRLM NIL=
200705301300 METAR MRLM 301300Z 00000KT CAVOK 27/24 A2974 RMK CBS DST N TRACE CU AC BKN280=
200705301400 METAR MRLM 301400Z VRB03KT CAVOK 29/24 A2977 RMK TRAZAS CU AC BKN280=
200705301500 METAR MRLM 301500Z 11005KT 9999 FEW028 BKN280 29/24 A2979 RMK LGT HZ ARND=
200705301600 METAR MRLM 301600Z 09006KT 9999 FEW030 BKN280 30/24 A2978 RMK CB DST N NE=
200705301700 METAR MRLM 301700Z 04008KT 9999 FEW024 BKN280 30/25 A2977 RMK HZY=
200705301800 METAR MRLM 301800Z 05008KT 9999 FEW022 BKN280 30/25 A2975 RMK HZ ARND TRACE AC=
200705301900 METAR MRLM 301900Z 05011KT 9999 FEW020 BKN280 30/25 A2972 RMK CB DST S SW RN DST SW FEW140=
200705302000 METAR MRLM 302000Z NIL=
200705302100 METAR MRLM 302100Z 06004KT 9999 SCT025 BKN280 30/25 A2968 RMK CB NW S SW W=
200705302200 METAR MRLM 302200Z 09006KT 9999 BKN022 29/25 A2988 RMK CB RN SW FEW110 FEW280=
200705302300 METAR MRLM 302300Z 11004KT 9999 BKN023 29/25 A2969 RMK CB RN SW FEW130 TRACE CI=
200705310000 METAR MRLM 310000Z VRB03KT 9999 BKN014 SCT140 28/25 A2971 RMK CB RN S W TRACE CI HZ ARND=
200705310100 METAR MRLM NIL=
200705310200 METAR MRLM NIL=
200705310300 METAR MRLM NIL=
200705310400 METAR MRLM NIL=
200705310500 METAR MRLM NIL=
200705310600 METAR MRLM NIL=
200705310700 METAR MRLM NIL=
200705310800 METAR MRLM NIL=
200705310900 METAR MRLM NIL=
200705311000 METAR MRLM NIL=
200705311100 METAR MRLM NIL=
200705311200 METAR MRLM 311200Z NIL=
200705311300 METAR MRLM 311300Z 21005KT CAVOK 24/13 A2973 RMK CB RN DST E FEW150 BKN270 TRACE CU=
200705311400 METAR MRLM 311400Z VRB03KT 9999 FEW020 BKN270 28/24 A2975 RMK CB RN NE HZ ARND=
200705311500 METAR MRLM 311500Z 03004KT 9999 FEW024 BKN270 28/24 A2975 RMK CB NE HZ ARND=
200705311600 METAR MRLM 311600Z 02007KT 9999 FEW025 SCT140 BKN270 29/25 A2976=
200705311700 METAR MRLM 311700Z 02009KT 9999 FEW025 SCT140 29/25 A2975 RMK FE270=
200705311800 METAR MRLM 311800Z 02010KT 9999 FEW028 SCT150 30/25 A2973 RMK CB SE FEW280=
200705311900 METAR MRLM 311900Z 01009KT 9999 TS FEW025CB SCT140 BKN280 30/25 A2971 RMK RN SW=
200705312000 METAR MRLM 312000Z NIL=
200705312100 METAR MRLM 312100Z 31006KT 9999 BKN020 29/25 A2968 FEW120 CB RN S W=
200705312200 METAR MRLM 312200Z 01008KT 9999 BKN022 SCT110 29/25 A2969 RN S SW=
200705312300 METAR MRLM 312300Z 29008KT 5000 +DZ OVC013 27/25 A2970 VSBY NE E SE UNL=
200706010000 METAR MRLM 010000Z 24007KT 5000 -RA FEW003 BKN012TCU 24/24 A2972 CB W VSBYE 8KM=
200706010100 METAR MRLM NIL=
200706010200 METAR MRLM NIL=
200706010300 METAR MRLM NIL=
200706010400 METAR MRLM NIL=
200706010500 METAR MRLM NIL=
200706010600 METAR MRLM NIL=
200706010700 METAR MRLM NIL=
200706010800 METAR MRLM NIL=
200706010900 METAR MRLM NIL=
200706011000 METAR MRLM NIL=
200706011100 METAR MRLM NIL=
200706011200 METAR MRLM 011200Z 21005KT 9999 FEW025 BKN090 23/23 A2975 RMK TCU DST NE=
200706011300 METAR MRLM 011300Z 20004KT 9999 FEW025 BKN090 24/24 A2970 TCU NE=
200706011400 METAR MRLM 011400Z 22003KT 9999 FEW030 BKN090 25/24 A2979=
200706011500 METAR MRLM 011500Z 15004KT 9999 FEW030 BKN090 27/24 A29790=
200706011600 METAR MRLM 011600Z 14008KT 9999 FEW030 BKN090 28/24 A2979=
200706011700 METAR MRLM 011700Z 16005KT CAVOK 28/24 A2979 OVC090=
200706011800 METAR MRLM 011800Z 15008KT CAVOK 28/24 A2977 OVC090 TRAZAS DE CU=
200706011900 METAR MRLM 011900Z 14007KT CAVOK 29/24 A2975 OVC090=
200706012000 MRLM 012000Z NIL=
200706012100 METAR MRLM 012100Z 12013KT CAVOK 29/25 A2970 RMK BKN100 FEW250 TRACE CU=
200706012200 METAR MRLM 012200Z 12012KT 9999 FEW030 BKN100 29/25 A2970 RMK FEW250 TCU SE=
200706012300 METAR MRLM 012300Z 11011KT 9999 FEW030 BKN100 28/25 A2971 RMK CB SE FEW250=
200706012357 METAR MRLM 020000Z 11009KT 9999 FEW030 BKN100 28/24 A2973 RMK TCU DST ARND FEW250=
200706020000 METAR MRLM 020000Z 11009KT 9999 FEW030 BKN100 28/24 A2973 RMK TCU DST ARND FEW250=
200706020100 METAR MRLM NIL=
200706020200 METAR MRLM NIL=
200706020300 METAR MRLM NIL=
200706020400 METAR MRLM NIL=
200706020500 METAR MRLM NIL=
200706020600 METAR MRLM NIL=
200706020700 METAR MRLM NIL=
200706020800 METAR MRLM NIL=
200706020900 METAR MRLM NIL=
200706021000 METAR MRLM NIL=
200706021100 METAR MRLM NIL=
200706021200 METAR MRLM 021200Z 00000KT 9999 SCT030 SCT090 24/24 A2978 RMK TCU RN NE E FEW250=
200706021300 METAR MRLM 021300Z 240004KT 9999 FEW030 SCT220 25/24 A2979 FEW090 HZ ARND=
200706021400 METAR MRLM 021400Z 22003KT 9999 FEW030 SCT220 26/25 A2980 RMK CB DST E NE TRACE AC HZ ARND=
200706021500 METAR MRLM 021500Z 31005KT 9999 FEW030 SCT250 29/25 A2981 RMK CB DST E NE TRACE AC HZ ARND=
200706021600 METAR MRLM 021600Z 03007KT 9999 FEW030 SCT100 30/25 A2981 RMK CB DST E FEW CI CU=
200706021700 METAR MRLM 021700Z 05006KT 9999 FEW030 SCT250 30/25 A2980 RMK FEW CI CB DST E SE=
200706021800 METAR MRLM 021800Z 07008KT 9999 FEW030 SCT100 30/25 A2979 RMK CB DST E FEW250=
200706021900 METAR MRLM 021900Z 08009KT 9999 FEW030 SCT250 30/25 A2976 RMK CB DST NE E SE S=
200706022000 METAR MRLM 022000Z NIL=
200706022100 METAR MRLM 022100Z 10013KT 9999 FEW030 BKN250 31/25 A2973 RMK CB DST ARND=
200706022200 METAR MRLM 022200Z 11009KT 9999 FEW028 BKN250 30/25 A2973 RMK CB DST NE S SW TRACE AC=
200706022300 METAR MRLM 022300Z 13011KT 9999 FEW028 BKN250 30/25 A2974 RMK CB DST SE SW W=
200706030000 METAR MRLM 030000Z 12011KT 9999 FEW026 BKN250 29/25 A2973 RMK CB DST SE S SW W TCU DST NE=
200706030100 METAR MRLM NIL=
200706030200 METAR MRLM NIL=
200706030300 METAR MRLM NIL=
200706030400 METAR MRLM NIL=
200706030500 METAR MRLM NIL=
200706030600 METAR MRLM NIL=
200706030700 METAR MRLM NIL=
200706030800 METAR MRLM NIL=
200706030900 METAR MRLM NIL=
200706031000 METAR MRLM NIL=
200706031100 METAR MRLM NIL=
200706031200 METAR MRLM NIL=
200706031300 METAR MRLM 031300Z 24005KT 9999 FEW015 BKN270 24/24 A2979 TRACE AC RMK CB DST NW E=
200706031400 METAR MRLM 031400Z 30002KT CAVOK 28/24 A2981 RMK TRACECU OVC280 LEVE HZY CB DST NW E=
200706031500 METAR MRLM 031500Z 05004KT 9999 FEW028 BKN280 29/24 A2981 RMK FEW AC CB DST NW E TCU DST NE LEVE HZY=
200706031600 METAR MRLM 031600Z 07005KT 9999 FEW028 OVC280 30/24 A2981 RMK LEVE HZY=
200706031700 METAR MRLM 031700Z 11008KT 9999 FEW028 OVC280 30/24 A2979 RMK HZY=
200706031800 METAR MRLM 031800Z 11010KT 9999 FEW032 OVC280 31/24 A2977 RMK LEVE HZY=
200706031900 METAR MRLM 031900Z 11010KT 9999 FEW033 OVC280 31/24 A2976 RMK TCU DST SE LEVE HZ ARND=
200706032000 METAR MRLM 032000Z NIL=
200706032100 METAR MRLM 032100Z 07008KT 9999 FEW028 BKN280 30/24 A2972 RMK CB DST S SW W NW LGT HZ ARND=
200706032200 METAR MRLM 032200Z 08008KT 9999 FEW028 BKN280 30/25 A2972 TRACE OF AC HZY=
200706032300 METAR MRLM 032300Z 08008KT 9999 FEW024 BKN270 29/25 A2973 RMK CB W FEW140=
200706040000 METAR MRLM 040000Z 11005KT 9999 FEW023 SCT110 BKN270 29/24 A2973 CB DST N HZ ARND=
200706040100 METAR MRLM NIL=
200706040200 METAR MRLM NIL=
200706040300 METAR MRLM NIL=
200706040400 METAR MRLM NIL=
200706040500 METAR MRLM NIL=
200706040600 METAR MRLM NIL=
200706040700 METAR MRLM NIL=
200706040800 METAR MRLM NIL=
200706040900 METAR MRLM NIL=
200706041000 METAR MRLM NIL=
200706041100 METAR MRLM NIL=
200706041200 METAR MRLM 041200Z NIL=
200706041300 METAR MRLM 041300Z 25005KT 9999 FEW015 SCT120 25/24 A2978 RMK TCU RN DST N DZ E LGT HZ FEW280=
200706041400 METAR MRLM 041400Z 25004KT 9999 FEW015 BKN120 27/25 A2979 RMK FEW280 CB DST N LGT HZ ARND=
200706041500 METAR MRLM 041500Z 06004KT 9999 FEW030 SCT090 30/24 A2979 RMK FEW280 LGT HZ ARND=
200706041600 METAR MRLM 041600Z 07005KT 9999 FEW028 30/24 A2979 RMK FEW280 CB DST E TUC N NE HZY=
200706041700 METAR MRLM 041700Z 07008KT 9999 FEW025 30/25 A2979 RMK CB DST NE E SE TCU DST S SW HZY=
200706041800 METAR MRLM 041800Z 06007KT 9999 FEW025 SCT300 30/26 A2978 RMK TCU DST N S SW W CB DST NE E TRACE AC HZY=
200706041900 METAR MRLM 041900Z 06007KT 9999 FEW023 BKN300 30/26 A2975 RMK CB DST S W N=
200706042000 METAR MRLM NIL=
200706042100 METAR MRLM 042100Z 03007KT 9999 FEW026 BKN300 30/25 A2971 RMK CB SW=
200706042200 METAR MRLM 042200Z 06005KT 9999 FEW030 OVC300 30/24 A2970 RMK CB SW=
200706042300 METAR MRLM 042300Z 07004KT 9999 SCT028 BKN300 30/24 A2973 RMK CB RN SW W=
200706050000 METAR MRLM 050000Z 10004KT 9999 SCT024 BKN300 29/24 A2975 RMK CB RN S SW W=
200706050100 METAR MRLM NIL=
200706050200 METAR MRLM NIL=
200706050300 METAR MRLM NIL=
200706050400 METAR MRLM NIL=
200706050500 METAR MRLM NIL=
200706050600 METAR MRLM NIL=
200706050700 METAR MRLM NIL=
200706050800 METAR MRLM NIL=
200706050900 METAR MRLM NIL=
200706051000 METAR MRLM NIL=
200706051100 METAR MRLM NIL=
200706051200 METAR MRLM 051200Z NIL=
200706051300 METAR MRLM 051300Z 25005KT 9999 FEW025 SCT300 26/23 A2978 RMK CB NE E TRACE AC=
200706051400 METAR MRLM 051400Z 00000KT 9999 FEW025 SCT300 29/24 A2980 RMK CB NE E TRACE AC=
200706051500 METAR MRLM 051500Z 05005KT 9999 SCT028 SCT100 30/25 A2981 RMK CB NW N NE E=
200706051600 METAR MRLM 051600Z 03006KT 9999 FEW025 SCT100 30/25 A2981 RMK CB E FEW250=
200706051700 METAR MRLM 051700Z 04007KT 9999 FEW028 BKN280 30/25 A2979 RMK TRACE AC=
200706051800 METAR MRLM 051800Z 03007KT 9999 FEW028 BKN280 30/25 A2979 RMK TCU SW NW TRACE AC=
200706051900 METAR MRLM 051900Z 03008KT 9999 FEW028 BKN280 30/25 A2977 RMK TCU SW NW TRACE AC=
200706052000 METAR MRLM 052000Z NIL=
200706052100 METAR MRLM 052100Z 04008KT 9999 FEW024TCU BKN280 30/25 A2972 CB SEE S SW=
200706052200 METAR MRLM 052200Z 04005KT 9999 FEW024 BKN280 30/25 A2971 CB SE W=
200706052300 METAR MRLM 052300Z 04007KT 9999 FEW024 BKN280 30/25 A2972=
200706060000 METAR MRLM 060000Z 05004KT 9999 FEW024 BKN280 29/24 A2973 TCU S SW CB W=
200706060100 METAR MRLM NIL=
200706060200 METAR MRLM NIL=
200706060300 METAR MRLM NIL=
200706060400 METAR MRLM NIL=
200706060500 METAR MRLM NIL=
200706060800 METAR MRLM NIL=
200706060900 METAR MRLM NIL=
200706061000 METAR MRLM NIL=
200706061100 METAR MRLM NIL=
200706061200 METAR MRLM NIL=
200706061300 METAR MRLM 061300Z 22005KT 9999 FEW028 BKN250 24/23 A2977 FEW100 HZY=
200706061400 METAR MRLM 061400Z 21005KT 9999 FEW025 BKN250 27/24 A2974 HZY=
200706061500 METAR MRLM 061500Z 09004KT 9999 FEW025 BKN100 30/24 A2979 CB NW HZY=
200706061600 METAR MRLM 061600Z 09003KT 9999 FEW025 BKN090 29/24 A2979 RN N NE HZY=
200706061700 METAR MRLM 061700Z 27004KT 9999 FEW030 BKN240 30/24 A2978=
200706061800 METAR MRLM 061800Z 01008KT 9999 FEW028 BKN240 30/25 A2977 HZY=
200706061900 METAR MRLM 061900Z 02008KT 9999 FEW028 BKN240 30/25 A2974 CB NW N NE HZY=
200706062000 METAR MRLM NIL=
200706062100 METAR MRLM 062100Z 02007KT 9999 FEW028TCU BKN240 30/25 A2969 CB DST SE HZ ARND=
200706062200 METAR MRLM 062200Z 02005KT 9999 FEW028 BKN240 29/25 A2970 RMK CB DST SE S SW W HZ ARND=
200706062300 METAR MRLM 062300Z 05004KT 9999 FEW028 BKN240 29/25 A2974 CB DST S SW HZ LGT ARND=
200706070000 METAR MRLM 070000Z 07003KT 9999 FEW028 BKN240 29/25 A2972 RMK RN DST SE S W HZ ARND=
200706070100 METAR MRLM NIL=
200706070300 METAR MRLM NIL=
200706070400 METAR MRLM NIL=
200706070500 METAR MRLM NIL=
200706070600 METAR MRLM NIL=
200706070700 METAR MRLM NIL=
200706070800 METAR MRLM NIL=
200706070900 METAR MRLM NIL=
200706071000 METAR MRLM NIL=
200706071100 METAR MRLM NIL=
200706071200 METAR MRLM NIL=
200706071300 METAR MRLM 071300Z 25002KT CAVOK 25/23 A2974 RMK CB RN DST N E HZ LGT ARND=
200706071400 METAR MRLM 071400Z 24005KT CAVOK 27/23 A2975 RMK SCT090 BKN280 CB RN DST N E HZ ARND LGT=
200706071500 METAR MRLM 071500Z 19002KT 9999 FEW028 BKN090 29/24 A2976 RMK SCT280 CB RN DST N E DZ S=
200706071600 METAR MRLM 071600Z VRB03KT 9999 FEW028 SCT110 BKN280 30/24 A2975 RMK CB RN N E HZ LGT ARND=
200706071700 METAR MRLM 071700Z 05006KT 9999 FEW028 BKN280 30/24 A2975 RMK FEW140 CB RN DST N=
200706071800 METAR MRLM 071800Z 02009KT 9999 FEW023 BKN100 29/25 A2973 RMK CB DST ARND RN DST E=
200706071900 METAR MRLM 071900Z 03010KT 9999 FEW020 SCT140 BKN270 30/25 A2972 RMK CB DST ARND RN DST E=
200706072000 METAR MRLM 072000Z NIL=
200706072100 METAR MRLM 072100Z 04008KT 9999 -DZ FEW015 BKN090 29/26 A2969 RMK CB RN DST ARND SHRA DST SW S W TRACE CI=
200706072200 METAR MRLM NIL=
200706072300 METAR MRLM NIL=
200706080000 METAR MRLM 080000Z 21004KT CAVOK 26/23 A2971 RMK CB DST HZ ARND RN DST N SE BKN090 SCT270=
200706080100 METAR MRLM NIL=
200706080200 METAR MRLM NIL=
200706080300 METAR MRLM NIL=
200706080400 METAR MRLM NIL=
200706080500 METAR MRLM NIL=
200706080600 METAR MRLM NIL=
200706080700 METAR MRLM NIL=
200706080800 METAR MRLM NIL=
200706080900 METAR MRLM NIL=
200706081000 METAR MRLM NIL=
200706081200 METAR MRLM NIL=
200706081300 METAR MRLM 081300Z VRB03KT 9999 FEW015 SCT120 BKN140 25/24 A2974 RMK FEW270 CB RN DST QUAD N E LEVE HZY=
200706081600 METAR MRLM NIL=
200706081700 METAR MRLM 081700Z 31006KT 4000 -RA SCT002 OVC015 25/24 A2979 RMK VIS 2000SE=
200706081800 METAR MRLM 081800Z 29002KT 4000 TSRA FEW003 SCT010CB BKN015 24/24 A2978=
200706081900 METAR MRLM 081900Z 17004KT 5000 RA SCT002 SCT020 BKN090 24/24 A2977 RMK CB DST QUAD E RETS=
200706082000 METAR MRLM NIL=
200706082100 METAR MRLM 082100Z 15006KT 7000 -RA SCT020 OVC100 24/23 A2975 RMK VIS SW UNLTD=
200706082200 METAR MRLM 082200Z VRB03KT 9999 RA FEW001 SCT020 OVC100 23/23 A2975 VIS 7KMS TO NE CB DST E=
200706082300 METAR MRLM 082300Z 15009KT 9999 RA FEW040 OVC140 24/23 A2970 RMK TRAZAS ST CB DST NW E SW=
200706090000 METAR MRLM 090000Z VRB03KT 9999 -DZ FEW030 OVC120 24/23 A2970 RMK CBS DST N E SW=
200706090100 METAR MRLM NIL=
200706090200 METAR MRLM NIL=
200706090300 METAR MRLM NIL=
200706090400 METAR MRLM NIL=
200706090500 METAR MRLM NIL=
200706090600 METAR MRLM NIL=
200706090700 METAR MRLM NIL=
200706090800 METAR MRLM NIL=
200706090900 METAR MRLM NIL=
200706091000 METAR MRLM NIL=
200706091100 METAR MRLM NIL=
200706091300 METAR MRLM NIL=
200706091400 METAR MRLM NIL=
200706091500 METAR MRLM NIL=
200706091600 METAR MRLM 091600Z 03005KT 9999 -DZ FEW030 BKN080 28/23 A2977 TCU RN DST N NE HZY=
200706091700 METAR MRLM 091700Z 01009KT 9999 FEW026 SCT090 29/24 A2975 REDZ RMK SCT240 HZY=
200706091800 METAR MRLM 091800Z 02009KT 9999 FEW025 BKN090 28/25 A2974 RMK CB NW N FEWCI HZY=
200706091900 METAR MRLM 091900Z 03006KT 9999 FEW024TCU BKN090 29/23 A2972 RMK TCU S SW W RN SSW HZY=
200706092000 METAR MRLM NIL=
200706092100 METAR MRLM 092100Z 04010KT 9999 SCT025 BKN250 29/24 A2969 RMK VIS RN SE S SW W FEW090 HZ ARND=
200706092200 METAR MRLM 092200Z 05006KT 9999 SCT025 SCT090 28/24 A2969 RMK RN SE S SW FEW250 HZ ARND=
200706092300 METAR MRLM 092300Z 22005KT 9999 BKN025 27/24 A2970 RMK RN SE S TRACE AC=
200706100000 METAR MRLM 100000Z 18007KT 4000 RA BKN025 SCT080 25/24 A2972 RMK CB DST SE S=
200706100100 METAR MRLM NIL=
200706100200 METAR MRLM NIL=
200706100300 METAR MRLM NIL=
200706100400 METAR MRLM NIL=
200706100500 METAR MRLM NIL=
200706100600 METAR MRLM NIL=
200706100700 METAR MRLM NIL=
200706100800 METAR MRLM NIL=
200706100900 METAR MRLM NIL=
200706101000 METAR MRLM NIL=
200706101100 METAR MRLM NIL=
200706101200 METAR MRLM 101200Z NIL=
200706101300 METAR MRLM 101300Z 14005KT 9999 FEW030 BKN250 25/23 A2972=
200706101400 METAR MRLM 101400Z 28005KT 9999 FEW028 BKN250 27/23 A2973 RMK TCU RN NE E N TRACE AC HZ ARND=
200706101500 METAR MRLM 101500Z 27007KT 9999 FEW020CB FEW030 BKN250 28/23 A2973 RMK CB NW NNE RN N NE TRACE AC HZ ARND=
200706101600 METAR MRLM 101600Z 25005KT 9999 FEW025 BKN250 29/24 A2972 RMK CB NW N NE ENE RN NE=
200706101700 METAR MRLM 101700Z 02004KT 9999 FEW025 SCT250 30/23 A2970 RMK CB RN NW NE ENE=
200706101800 METAR MRLM 101800Z 02011KT 9999 SCT025 SCT250 29/24 A2970 RMK CB ARND RN SW N NE TRACE AC=
200706101900 METAR MRLM 101900Z 05010KT 9999 SCT026 SCT250 28725 A2968 RMK CB ARND RN SW FEW090=
200706102000 METAR MRLM 102000Z NIL=
200706102100 METAR MRLM 102100Z 11003KT 9999 FEW026 BKN080 28/24 A2965 RN CB SE S SW N=
200706102200 METAR MRLM 102200Z 27004KT 9999 BKN026 SCT090 26/25 A2966 CB RN SW W=
200706102300 METAR MRLM 102300Z 23006KT 9999 DZ BKN028 SCT0990 25/24 A2968 RN SW W=
200706110000 METAR MRLM 110000Z 23006KT 9999 +DZ SCT024 SCT080 25/24 A2970 TCU W RN SW W=
200706110100 METAR MRLM NIL=
200706110200 METAR MRLM NIL=
200706110300 METAR MRLM NIL=
200706110400 METAR MRLM NIL=
200706110500 METAR MRLM NIL=
200706110600 METAR MRLM NIL=
200706110700 METAR MRLM NIL=
200706110800 METAR MRLM NIL=
200706110900 METAR MRLM NIL=
200706111000 METAR MRLM NIL=
200706111100 METAR MRLM NIL=
200706111200 METAR MRLM NIL=
200706111300 METAR MRLM 111300Z 23003KT CAVOK 25/24 A2975 BKN250=
200706111400 METAR MRLM 111400Z 03004KT 9999 FEW030 BKN250 28/24 A2976=
200706111500 METAR MRLM 111500Z 05003KT 9999 FEW030 BKN250 29/22 A2978=
200706111600 METAR MRLM 111600Z 05004KT 9999 FEW030 SCT250 29/23 A2976=
200706111700 METAR MRLM 111700Z 05005KT 9999 FEW030 BKN250 29/24 A2975=
200706111800 METAR MRLM 111800Z 04008KT 9999 FEW030 BKN250 30/24 A2974 TCU E=
200706111900 METAR MRLM 111900Z 03010KT 9999 FEW030 BKN250 29/24 A2972 TCU SE=
200706112000 METAR MRLM 112000Z NIL=
200706112100 METAR MRLM 112100Z 02008KT 9999 FEW025 BKN250 29/25 A2962 RMK CB DST SE S SW=
200706112200 METAR MRLM 112200Z 04004KT 9999 FEW025 BKN250 29/24 A2968 RMK CB DST SE S SW NE=
200706112300 METAR MRLM 112300Z 02004KT 9999 SCT025 BKN250 29/24 A2968 RMK CB DST SE S SW W=
200706120000 METAR MRLM 120000Z 36003KT 9999 SCT025 BKN250 28/24 A2970 RMK CB RN SE SW W=
200706120100 METAR MRLM NIL=
200706120200 METAR MRLM NIL=
200706120300 METAR MRLM NIL=
200706120400 METAR MRLM NIL=
200706120500 METAR MRLM NIL=
200706120600 METAR MRLM NIL=
200706120700 METAR MRLM NIL=
200706120800 METAR MRLM NIL=
200706120900 METAR MRLM NIL=
200706121000 METAR MRLM NIL=
200706121100 METAR MRLM NIL=
200706121200 METAR MRLM NIL=
200706121300 METAR MRLM 121300Z 23003KT 9999 FEW028 BKN080 25/23 A2971 RMK CB DST NW N RN NNE TRACE CI=
200706121400 METAR MRLM 121400Z 26006KT 9999 FEW028 BKN090 29/24 A2973 RMK CB DST N NE=
200706121500 METAR MRLM 121500Z 24004KT 9999 FEW028 SCT250 31/24 A2975 RMK CB DST NW N NE E RN NW N NE=
200706121600 METAR MRLM 121600Z 35010KT 9999 FEW028 SCT090 31/24 A2974 RMK CB RN DST W NW N NE SCT250=
200706121700 METAR MRLM 121700Z 34016KT 9999 FEW028 SCT090 30/23 A2975 RMK CB RN DST WNW NW N NE TS DAT N=
200706121800 METAR MRLM 121800Z 31008KT 9999 FEW028 BKN250 31/23 A2971 RETS RMK CB DST ARND=
200706121900 METAR MRLM 121900Z 05006KT 9999 FEW028 BKN250 31/22 A2970 RMK CB DST ARND FEW090=
200706122000 METAR MRLM 122000Z NIL=
200706122100 METAR MRLM 122100Z 36007KT 9999 FEW028 BKN240 31/23 A2977 RMK CB DST ARND HZY=
200706122200 METAR MRLM 122200Z 35006KT 9999 FEW030 BKN240 30/23 A2975 RMK CB DST S SW W=
200706122300 METAR MRLM 122300Z 30004KT 9999 FEW030 BKN230 30/23 A2977=
200706130000 METAR MRLM 130000Z 35008KT 9999 FEW030 BKN200 30/24 A2978RMK TCU DST W=
200706130100 METAR MRLM NIL=
200706130200 METAR MRLM NIL=
200706130300 METAR MRLM NIL=
200706130400 METAR MRLM NIL=
200706130500 METAR MRLM NIL=
200706130600 METAR MRLM NIL=
200706130700 METAR MRLM NIL=
200706130800 METAR MRLM NIL=
200706130900 METAR MRLM NIL=
200706131000 METAR MRLM NIL=
200706131100 METAR MRLM NIL=
200706131200 METAR MRLM NIL=
200706131300 METAR MRLM 131300Z 22004KT 9999 FEW030 SCT280 27/22 A2976 RMK CB DST NW HZY=
200706131400 METAR MRLM 131400Z 17003KT 9999 FEW030 30/23 A2978 RMK TCU DST SW E HZ ARND=
200706131500 METAR MRLM 131500Z 04005KT 9999 FEW028 BKN280 30/23 A2980 RMK CB DST W LEVE HZY=
200706131600 METAR MRLM 131600Z 01005KT 9999 FEW030 BKN280 30/24 A2980 RMK CB DST WNW ENE HZZ ARND=
200706131700 METAR MRLM 131700Z 36010KT 9999 FEW028 BKN280 31/24 A2978 RMK CB DST NW NE ENE LEVE HZ ARND=
200706131800 METAR MRLM 131800Z 36010KT 9999 FEW028 BKN280 31/24 A2976 RMK CB DST WNW=
200706131900 METAR MRLM 131900Z 36011KT 9999 FEW028 SCT280 31/25 A2974 RMK CB DST SW W=
200706132000 METAR MRLM 132000Z NIL=
200706132100 METAR MRLM 132100Z 01007KT 9999 FEW028 SCT280 31/24 A2970 CB DST SE S SW=
200706132200 METAR MRLM 132200Z 01006KT 9999 SCT028 SCT280 30/25 A2970 RMK CB DST SE S SW W=
200706132300 METAR MRLM 132300Z 05004KT 9999 SCT028 SCT280 30/24 A2973 RMK CB DST SE S SW W=
200706140000 METAR MRLM NIL=
200706140100 METAR MRLM NIL=
200706140200 METAR MRLM NIL=
200706140300 METAR MRLM NIL=
200706140400 METAR MRLM NIL=
200706140500 METAR MRLM NIL=
200706140600 METAR MRLM NIL=
200706140700 METAR MRLM NIL=
200706140800 METAR MRLM NIL=
200706140900 METAR MRLM NIL=
200706141000 METAR MRLM NIL=
200706141100 METAR MRLM NIL=
200706141200 METAR MRLM 141200Z 23004KT 9999 -DZ FEW025 BKN250 24/22 A2979 TCU RN ENE HZ ARND=
200706141300 METAR MRLM 141300Z 19005KT 9999 FEW025 BKN250 26/23 A2979 REDZ CB DST NW N NE E TRACE AC HZ ARND=
200706141400 METAR MRLM 141400Z 19003KT 9999 FEW025 BKN250 29/23 A2981 CB DST NW N NE HZ ARND=
200706141500 METAR MRLM 141500Z 07004KT 9999 FEW025 BKN250 30/24 A2982 RMK CB DST NW N NE HZY=
200706141600 METAR MRLM 141600Z 03007KT 9999 FEW028 BKN250 31/24 A2983 RMK CB DST W NW HZ ARND=
200706141700 METAR MRLM 141700Z 36008KT 9999 FEW028 BKN250 31/25 A2982 RMK CB DST NW N TRACE AC HZY=
200706141800 METAR MRLM 141800Z 35009KT 9999 FEW018CB FEW025 BKN250 31/24 A2981 RMK CB ARND RN SW HZY=
200706141900 METAR MRLM 141900Z 01008KT 9999 FEW028 BKN250 31/24 A2978 RMK CB S DST ARND HZY=
200706142000 METAR MRLM 142000Z NIL=
200706142100 METAR MRLM 142100Z 36007KT 9999 FEW028 BKN250 31/24 A2974 RMK CB SE S SW HZ ARND=
200706142200 METAR MRLM NIL=
200706142300 METAR MRLM 142300Z 06005KT 9999 FEW028 BKN250 30/24 A2974 RMK CB RN SE S SW HZ ARND=
200706150000 METAR MRLM 150000Z 10005KT 9999 FEW025 BKN230 30/24 A2976 RMK CB RN DST SE S SW W HZ ARND=
200706150100 METAR MRLM NIL=
200706150300 METAR MRLM NIL=
200706150400 METAR MRLM NIL=
200706150500 METAR MRLM NIL=
200706150600 METAR MRLM NIL=
200706150700 METAR MRLM NIL=
200706150800 METAR MRLM NIL=
200706150900 METAR MRLM NIL=
200706151000 METAR MRLM NIL=
200706151100 METAR MRLM NIL=
200706151200 METAR MRLM NIL=
200706151300 METAR MRLM 151300Z 23003KT 9999 -DZ FEW028 SCT040 25/23 A2985 RMK CB ARND SCT080 TRACE CI=
200706151400 METAR MRLM 151400Z 17004KT 9999 SCT025TCU SCT080 26/24 A2986 REDZ RMK CB RN ARND TRACE CI=
200706151500 METAR MRLM 151500Z 18003KT 9999 DZ SCT025 BKN100 26/24 A2988 RERA RMK CB NW N NE RN ARND=
200706151600 METAR MRLM 151600Z 26003KT 9999 FEW028 BKN230 28/24 A2988 RMK CB RN NW N NE FEW100=
200706151700 METAR MRLM 151700Z 34006KT 9999 SCT028 BKN100 29/24 A2989 RMK CB RN W NW N NE HZ LEVE ARND=
200706151800 METAR MRLM 151800Z 36008KT 9999 SCT028 BKN220 29/24 A2988 RMK CB NW N NE TRACE AC HZ ARND=
200706151900 METAR MRLM 151900Z 36005KT 9999 SCT028 BKN220 29/24 A2985 RMK CB RN ARND=
200706152000 METAR MRLM 152000Z NIL=
200706152100 METAR MRLM 152100Z 04003KT 9999 FEW028 BKN220 29/23 A2979 CB SE HZY=
200706152200 METAR MRLM 152200Z 10005KT 9999 FEW028 BKN240 29/24 A2976 TCU SE=
200706152300 METAR MRLM NIL=
200706160000 METAR MRLM 160000Z 05006KT CAVOK 29/24 A2977 OVC240=
200706160100 METAR MRLM NIL=
200706160200 METAR MRLM NIL=
200706160300 METAR MRLM NIL=
200706160400 METAR MRLM NIL=
200706160500 METAR MRLM NIL=
200706160600 METAR MRLM NIL=
200706160700 METAR MRLM NIL=
200706160800 METAR MRLM NIL=
200706160900 METAR MRLM NIL=
200706161000 METAR MRLM NIL=
200706161100 METAR MRLM NIL=
200706161200 METAR MRLM 161200Z 22003KT 9999 FEW025TCU SCT100 BKN280 24/22 A2987 RMK CB DST ENE HZ ARND=
200706161300 METAR MRLM NIL=
200706161400 METAR MRLM 161400Z 20003KT 9999 FEW025 BKN280 29/23 A2990 TRACE CU HZY=
200706161500 METAR MRLM 161500Z 01004KT 9999 FEW028 BKN280 30/23 A2991 CB NW N NE FEW100 HZY=
200706161600 METAR MRLM 161600Z 06004KT 9999 FEW028 BKN100 30/23 A2991 CB N FEW280 TCU SW HZY=
200706161700 METAR MRLM 161700Z 05005KT 9999 FEW028 BKN280 30/24 A2990 HZY=
200706161800 METAR MRLM 161800Z 04007KT 9999 FEW028 BKN280 30/24 A2988 CB SW HZY=
200706161900 METAR MRLM NIL=
200706162000 METAR MRLM NIL=
200706162100 METAR MRLM 162100Z 04009KT 9999 FEW025 BKN250 31/24 A2982 RMK CB DST S SW HZ LGT ARND=
200706162200 METAR MRLM 162200Z 02008KT 9999 FEW025 BKN250 A2982 RMK CB DST S SW W HZ ARND=
200706162300 METAR MRLM 162300Z 02005KT 9999 FEW025 BKN250 30/24 A2983 RMK CB DST SE S SW W HZ ARND=
200706170000 METAR MRLM 170000Z 06003KT 9999 SCT025 BKN250 30/23 A2984 RMK CB DST SE S SW W HZ ARND=
200706170100 METAR MRLM NIL=
200706170200 METAR MRLM NIL=
200706170300 METAR MRLM NIL=
200706170400 METAR MRLM NIL=
200706170500 METAR MRLM NIL=
200706170600 METAR MRLM NIL=
200706170700 METAR MRLM NIL=
200706170800 METAR MRLM NIL=
200706170900 METAR MRLM NIL=
200706171000 METAR MRLM NIL=
200706171100 METAR MRLM NIL=
200706171200 METAR MRLM NIL=
200706171300 METAR MRLM 171300Z 21003KT 9999 FEW025 SCT280 27/23 A2988 RMK TRACE 100 HZ ARND=
200706171400 METAR MRLM 171400Z 00000KT 9999 FEW025 BKN280 30/24 A2987 RMK CB DST W NW TRACE AC HZ ARND=
200706171500 METAR MRLM 171500Z 03004KT 9999 SCT025 SCT280 30/24 A2990 RMK CB DST NW ENE HZ ARND=
200706171600 METAR MRLM 171600Z 20004KT 9999 FEW025 BKN280 30/25 A2990 RMK CB DST NE E HZ ARND=
200706171700 METAR MRLM 171700Z 02008KT 9999 FEW025 BKN280 31/25 A2989 RMK CB DST N NE HZ ARND=
200706171800 METAR MRLM 171800Z 03006KT 9999 FEW025 BKN250 30/25 A2987 RMK CB DST SW N NE E HZ ARND=
200706171900 METAR MRLM 171900Z 04005KT 9999 FEW025 BKN250 30/24 A2985 RMK CB DST SW N NE HZ ARND=
200706172000 METAR MRLM 172000Z NIL=
200706172100 METAR MRLM 172100Z 04008KT 9999 FEW025 BKN250 30/24 A2983 RMK TCU DST SE S HZY=
200706172200 METAR MRLM 172200Z 04005KT 9999 FEW025 BKN250 30/24 A2982 RMK CB DST S SW HZY=
200706172300 METAR MRLM NIL=
200706180000 METAR MRLM NIL=
200706180100 METAR MRLM NIL=
200706180200 METAR MRLM NIL=
200706180300 METAR MRLM NIL=
200706180400 METAR MRLM NIL=
200706180500 METAR MRLM NIL=
200706180600 METAR MRLM NIL=
200706180700 METAR MRLM NIL=
200706180800 METAR MRLM NIL=
200706180900 METAR MRLM NIL=
200706181000 METAR MRLM NIL=
200706181100 METAR MRLM NIL=
200706181200 METAR MRLM NIL=
200706181300 METAR MRLM NIL=
200706181400 METAR MRLM 181400Z 28004KT 9999 SCT026 SCT080 25/23 A2988 REDZ RMK CB DST NW N RN DST ARND=
200706181458 MRLM 25003 9999 -DZ FEW022 BKN045 26/23 A2990=
200706181500 METAR MRLM 181500Z 25003KT 9999 -DZ FEW022 BKN045 26/23 A2990 RMK CB DST NW N RN DST ARND FEW100=
200706181600 METAR MRLM 181600Z 32004KT 9999 SCT022 BKN045 26/23 A2991 RMK CB DST NW N NE E TS DST NE=
200706181700 METAR MRLM 181700Z 00000KT 9999 -DZ SCT028 BKN090 26/23 A2990 RMK CB DST NW N NE TS ENE RN DST ARND=
200706181800 METAR MRLM 181800Z 19003KT 9999 FEW028 BKN120 26/24 A2986 REDZ RMK RN DST NW N NE=
200706181900 METAR MRLM 181900Z 00000KT 9999 FEW030 BKN120 26/23 A2984 RMK CB RN DST N NE ENE HZ ARND=
200706182000 METAR MRLM NIL=
200706182100 METAR MRLM 182100Z 22004KT 9999 FEW030 SCT100 27/24 A2981 RMK CB RN DST NW N NE E TS NE FEW220 HZY=
200706182200 METAR MRLM 182200Z 36004KT 9999 SCT028 BKN100 29/25 A2980 RMK CB RN DST NW N NE E HZ ARND=
200706182300 METAR MRLM 182300Z 05018KT 4000 TSRA SCT015CB BKN025 27/24 A2983 RMK TS NE=
200706190000 METAR MRLM 190000Z 06008KT 9999 DZ FEW015 BKN045 26/23 A2982 RETS CB DST W NW N TS N FEW080 RN ARND=
200706190100 METAR MRLM NIL=
200706190200 METAR MRLM NIL=
200706190300 METAR MRLM NIL=
200706190400 METAR MRLM NIL=
200706190500 METAR MRLM NIL=
200706190600 METAR MRLM NIL=
200706190700 METAR MRLM NIL=
200706190800 METAR MRLM NIL=
200706190900 METAR MRLM NIL=
200706191000 METAR MRLM NIL=
200706191100 METAR MRLM NIL=
200706191200 METAR MRLM 191200Z 27006KT 9999 FEW026 BKN250 24/22 A2985 RMK TCU DST NE HZ ARND=
200706191300 METAR MRLM 191300Z 24003KT 9999 FEW026 BKN250 27/22 A2987 HZY=
200706191400 METAR MRLM 191400Z 00000KT 9999 FEW026 SCT250 30/24 A2990 RMK TCU DST NW NE FEW090 HZY=
200706191500 METAR MRLM 191500Z 36004KT 9999 SCT026 SCT090 30/25 A2990 RMK FEW250 HZ ARND=
200706191600 METAR MRLM 191600Z 04003KT 9999 SCT026 SCT090 30/24 A2991 RMK FEW250 HZ ARND=
200706191700 METAR MRLM 191700Z 03005KT 9999 SCT026 30/24 A2990 RMK FEW250 HZY=
200706191800 METAR MRLM NIL=
200706191900 METAR MRLM 191900Z 04007KT 9999 SCT026TCU SCT250 31/25 A2987 RMK HZ ARND=
200706192000 METAR MRLM 192000Z NIL=
200706192100 METAR MRLM 192100Z 06008KT 9999 SCT026 BKN250 30/25 A2983 RMK HZ ARND=
200706192200 METAR MRLM 192200Z 05007KT 9999 SCT026 BKN250 31/24 A2983 RMK HZ ARND=
200706192300 METAR MRLM 192300Z 04007KT 9999 BKN026 SCT250 30/24 A2984 RMK HZ ARND=
200706200000 METAR MRLM 200000Z 04004KT 9999 SCT026 BKN250 30/24 A2984 RMK HZ ARND=
200706200100 METAR MRLM NIL=
200706200200 METAR MRLM NIL=
200706200300 METAR MRLM NIL=
200706200400 METAR MRLM NIL=
200706200500 METAR MRLM NIL=
200706200600 METAR MRLM NIL=
200706200700 METAR MRLM NIL=
200706200800 METAR MRLM NIL=
200706200900 METAR MRLM NIL=
200706201000 METAR MRLM NIL=
200706201100 METAR MRLM NIL=
200706201200 METAR MRLM 201200Z 24005KT 9999 BKN026 SCT250 24/22 A2986 RMK RN DST ARND=
200706201300 METAR MRLM 201300Z 21004KT 9999 SCT026 SCT250 25/23 A2987 RMK TCU RN DST N NW NE HZ ARND=
200706201400 METAR MRLM 201400Z 24005KT 9999 FEW025 BKN090 26/23 A2987 RMK RN N NW NE HZ ARND=
200706201500 METAR MRLM 201500Z 00000KT 9999 SCT028 BKN090 30/24 A2988 RMK CB NW RN N NW NE HZ ARND=
200706201600 METAR MRLM 201600Z 28005KT 9999 FEW025 BKN090 31/23 A2987 RMK LINE CB RN NW N NE HZ ARND=
200706201700 METAR MRLM 201700Z 30008KT 9999 -DZ FEW025 BKN080 30/25 A2987 RMK CB ARND RN S SW N NE E HZ ARND=
200706201800 METAR MRLM 201800Z 34007KT 9999 SCT025 BKN080 30/24 A2987 RMK RERA CB RN ARND HZ=
200706201900 METAR MRLM 201900Z 36012KT 7000 +DZ FEW018CB BKN028 28/24 A2986 RMK CB RN ARND FEW080=
200706202000 METAR MRLM 202000Z NIL=
200706202100 METAR MRLM 202100Z 27003KT 4000 -RA FEW015 BKN025 28/24 A2982 RETS CB ARND FEW080=
200706202200 METAR MRLM 202200Z 00000KT 9999 DZ SCT025 BKN090 24/23 A2984 RERA CB NW RN ARND=
200706202300 METAR MRLM 202300Z 22007KT 9999 FEW025 BKN090 23/22 A2982 REDZ RN ARND=
200706210000 METAR MRLM 210000Z 32003KT 9999 FEW025 BKN090 24/22 A2983 RN DST ARND=
200706210100 METAR MRLM NIL=
200706210200 METAR MRLM NIL=
200706210300 METAR MRLM NIL=
200706210400 METAR MRLM NIL=
200706210500 METAR MRLM NIL=
200706210600 METAR MRLM NIL=
200706210700 METAR MRLM NIL=
200706210800 METAR MRLM NIL=
200706210900 METAR MRLM NIL=
200706211000 METAR MRLM NIL=
200706211100 METAR MRLM NIL=
200706211200 METAR MRLM NIL=
200706211300 METAR MRLM NIL=
200706211400 METAR MRLM 211400Z 27007KT 9999 FEW028 SCT250 28/21 A2988 TCU NW HZY=
200706211500 METAR MRLM 211500Z 31008KT 9999 FEW028 29/22 A2988 FEW120 CB W NW HZY=
200706211600 METAR MRLM 211600Z 34012KT 9999 FEW028 BKN120 30/24 A2988 CB NW W HZY=
200706211700 METAR MRLM 211700Z 35007KT 9999 FEW028 BKN120 30/24 A2988 CB W NW HZY=
200706211800 METAR MRLM 211800Z 34014KT 9999 FEW026 BKN120 30/23 A2987 CB SW NW E HZY=
200706211900 METAR MRLM 211900Z 33015KT 9999 FEW025 BKN100 30/24 A2986 CB RN DST ARND=
200706212000 METAR MRLM 212000Z NIL=
200706212100 METAR MRLM 212100Z 35013KT 9999 SCT020 BKN030 29/24 A2984 RMK CB RN DST ARND TRACE AC=
200706212200 METAR MRLM 212200Z 36009KT 9999 BKN028 SCT090 28/25 A2983 RMK CB RN DST SE S SW W=
200706212300 METAR MRLM 212300Z 23004KT 9999 SCT025 BKN080 26/23 A2983 REDZ RMK CB RN DST SE S=
200706220000 METAR MRLM 220000Z 27003KT 9999 SCT025 SCT080 26/23 A2986 RMK TCU RN DST SW W NW N=
200706220100 METAR MRLM NIL=
200706220200 METAR MRLM NIL=
200706220300 METAR MRLM NIL=
200706220400 METAR MRLM NIL=
200706220500 METAR MRLM NIL=
200706220600 METAR MRLM NIL=
200706220700 METAR MRLM NIL=
200706220800 METAR MRLM NIL=
200706220900 METAR MRLM NIL=
200706221000 METAR MRLM NIL=
200706221100 METAR MRLM NIL=
200706221200 METAR MRLM NIL=
200706221300 METAR MRLM 221300Z 20004KT 9999 FEW030 BKN090 24/22 A2988 RMK CB DST NW FEW250 HZ ARND=
200706221400 METAR MRLM 221400Z 24004KT 9999 FEW030 BKN250 28/23 A2990 RMK CB DST NW NE E RN SE S FEW080=
200706221500 METAR MRLM 221500Z 22003KT 9999 FEW030 BKN250 30/23 A2989 RMK CB DST NW NE E FEW090 HZ ARND=
200706221600 METAR MRLM 221600Z 35006KT 9999 FEW030 BKN250 30/24 A2988 RMK TRCE AC CB DST NW N NE E=
200706221700 METAR MRLM 221700Z 36007KT 9999 FEW030 BKN250 30/24 A2986 RMK CB DST NW HZ ARND=
200706221800 METAR MRLM 221800Z 02004KT 9999 FEW030 BKN250 30/24 A2984 RMK TRACE AC HZ ARND=
200706221900 METAR MRLM 221900Z 01005KT 9999 FEW030 BKN250 30/24 A2981 RMK TRACE AC HZ ARND=
200706222000 METAR MRLM NIL=
200706222100 METAR MRLM 222100Z 35009KT 9999 FEW028 BKN250 30/25 A2979 RMK CB DST S SW TRACE AC HZY=
200706222200 METAR MRLM 222200Z 36008KT 9999 FEW028 BKN250 30/25 A2979 RMK CB DST S SW W TRACE AC HZY=
200706222300 METAR MRLM 222300Z 33005KT 9999 SCT030 BKN250 30/25 A2979 RMK CB DST S SW HZY=
200706230000 METAR MRLM 230000Z 28003KT 9999 FEW028 SCT090 BKN250 29/24 A2980 RMK CB RN DST S WSW HZY=
200706230100 METAR MRLM NIL=
200706230200 METAR MRLM NIL=
200706230300 METAR MRLM NIL=
200706230400 METAR MRLM NIL=
200706230500 METAR MRLM NIL=
200706230600 METAR MRLM NIL=
200706230700 METAR MRLM NIL=
200706230800 METAR MRLM NIL=
200706230900 METAR MRLM NIL=
200706231000 METAR MRLM NIL=
200706231100 METAR MRLM NIL=
200706231200 METAR MRLM 231200Z 00000KT 9999 FEW028 BKN080 24/23 A2983 RETS CB RN NW N NE E FEW250 HZY=
200706231300 METAR MRLM 231300Z 24003KT 24003KT 9999 -DZ SCT028 SCT090 25/23 A2983 RMK CB DST NE E TS DST NE FEW230=
200706231400 METAR MRLM 231400Z 00000KT 9999 SCT028 SCT090 26/24 A2983 REDZ RMK CB DST NW N TS DST ARND HZY FEW230=
200706231500 METAR MRLM 231500Z 19004KT 9999 FEW026 BKN050 27/24 A2986 RMK CB DST NW N NE E RN DST ARND HZ ARND FEW250=
200706231600 METAR MRLM 231600Z 27004KT 9999 SCT030 SCT090 28/24 A2986 RMK CB RN DST NW N NE E SCT250 HZY=
200706231700 METAR MRLM 231700Z 35005KT 9999 +DZ SCT025 BKN080 27/25 A2985 RMK CB DST N NE=
200706231800 METAR MRLM 231800Z 34003KT 9999 -DZ SCT025 BKN090 28/25 A2985 RMK CB DST ARND HZ ARND=
200706231900 METAR MRLM 231900Z 24004KT 9999 SCT026 BKN230 29/24 A2982 REDZ RMK CB DST ARND TRACE AC HZ ARND=
200706232000 METAR MRLM 232000Z 07003KT 9999 FEW025 BKN250 30/25 A2980 RMK CB DST ARND HZY=
200706232100 METAR MRLM 232100Z 26003KT 9999 FEW025 BKN250 30/25 A2978 RMK CB DST ARND HZY=
200706232200 METAR MRLM 232200Z 05004KT 9999 FEW025 BKN250 30/24 A2979 RMK CB DST W SW TRACE AC HZY=
200706232300 METAR MRLM 232300Z NIL=
200706240000 METAR MRLM 240000Z 07007KT 9999 FEW030 BKN230 29/25 A2980 RMK TCU DST W SSW HZ ARND FEW090=
200706240100 METAR MRLM NIL=
200706240200 METAR MRLM NIL=
200706240300 METAR MRLM NIL=
200706240400 METAR MRLM NIL=
200706240500 METAR MRLM NIL=
200706240600 METAR MRLM NIL=
200706240700 METAR MRLM NIL=
200706240900 METAR MRLM NIL=
200706241000 METAR MRLM NIL=
200706241100 METAR MRLM NIL=
200706241200 METAR MRLM NIL=
200706241300 METAR MRLM 241300Z 18004KT 9999 BKN028 SCT080 24/23 A2984 RMK CB RN DST NE E SE TRAZAS CI HZY=
200706241400 METAR MRLM 241400Z 1890009KT 4000 RA FEW020CB BKN024 24/22 A2986 RETS CB W NW N=
200706241500 METAR MRLM 241500Z 14004KT 9999 SCT025 BKN200 26/23 A2986 RMK RERA CB RN NW N NE TRAZAS AC HZY=
200706241600 METAR MRLM 241600Z 10007KT 9999 SCT026TCU BKN230 29/23 A2986 RMK CB DST ENE TRAZAS AC RN SE HZY=
200706241700 METAR MRLM 241700Z 10007KT 9999 FEW020CB FEW024 BKN220 30/25 A2986 RN DST ARND=
200706241800 METAR MRLM 241800Z 07014KT 2000 RA BKN018TCU SCT080 27/24 A2985 RMK CB DST N NE E SW=
200706241900 METAR MRLM 241900Z 16003KT 9999 FEW020TCU BKN045 27/25 A2982 RMK RERA CB DST WSW FEW090 RN HZ ARND=
200706242000 METAR MRLM 242000Z NIL=
200706242100 METAR MRLM 242100Z 05003KT 9999 FEW018CB BKN250 31/24 A2979 RMK CB NE SW W HZ ARND=
200706242200 METAR MRLM 242200Z 00000KT 9999 FEW024 BKN230 30/24 A2980 RMK CB RN NE SE S SW FEW090 TSTM NE HZ ARND=
200706242300 METAR MRLM NIL=
200706250000 METAR MRLM 250000Z 09010KT 9999 -DZ FEW018CB BKN030 27/23 A2984 RMK CB W NW N RN HZ ARND=
200706250100 METAR MRLM NIL=
200706250200 METAR MRLM NIL=
200706250300 METAR MRLM NIL=
200706250400 METAR MRLM NIL=
200706250500 METAR MRLM NIL=
200706250600 METAR MRLM NIL=
200706250700 METAR MRLM NIL=
200706250800 METAR MRLM NIL=
200706250900 METAR MRLM NIL=
200706251000 METAR MRLM NIL=
200706251100 METAR MRLM NIL=
200706251200 METAR MRLM 251200Z 00000KT 6000 +DZ SCT026 BKN080 24/23 A2987 RMK CB RN ARND TSTM N NE=
200706251300 METAR MRLM 251300Z 00000KT 6000 +DZ SCT026 BKN080 24/23 A2987 RMK CB RN ARND TSTM N NE=
200706251400 METAR MRLM 251400Z 20004KT 4000 -RA BKN028 SCT080 24/23 A2991 RETS CB ARND=
200706251500 METAR MRLM 251500Z 19003KT 8000 VCSH BKN030 SCT080 28/24 A2993 RERA RMK CB RN ARND=
200706251600 METAR MRLM 251600Z 21005KT 9999 BKN028 SCT230 26/24 A2993 RMK CB S SW W E RN ARND=
200706251700 METAR MRLM 251700Z 20008KT 9999 SCT030 BKN250 27/24 A2990 RMK CB RN S SW E HZ ARND=
200706251800 METAR MRLM 251800Z 20007KT 9999 SCT030 BKN250 29/24 A2989 RMK CB RN W N NE E HZ ARND=
200706251900 METAR MRLM 251900Z 15004KT 9999 DZ SCT025 SCT080 29/24 A2988 RMK CB NE E TSTM NE=
200706252000 METAR MRLM 252000Z NIL=
200706252100 METAR MRLM 252100Z 00000KT 9999 +DZ FEW015CB BKN028 25/23 A2986 CB NE FEW080 RN ARND=
200706252200 METAR MRLM 252200Z 11003KT 9999 3000N VCSH BKN028 25/23 A2986 REDZ CB RN ARND RASH N FEW080=
200706252300 METAR MRLM NIL=
200706260000 METAR MRLM NIL=
200706260100 METAR MRLM NIL=
200706260200 METAR MRLM NIL=
200706260300 METAR MRLM NIL=
200706260400 METAR MRLM NIL=
200706260500 METAR MRLM NIL=
200706260600 METAR MRLM NIL=
200706260700 METAR MRLM NIL=
200706260800 METAR MRLM NIL=
200706260900 METAR MRLM NIL=
200706261000 METAR MRLM NIL=
200706261100 METAR MRLM NIL=
200706261200 METAR MRLM NIL=
200706261300 METAR MRLM NIL=
200706261400 METAR MRLM 261400Z 22003KT 9999 SCT015TCU BKN250 27/24 A2994 RMK TRAZAS AC HZY=
200706261500 METAR MRLM 261500Z 21003KT 9999 SCT025TCU BKN250 RMK CB DIST HZY=
200706261600 METAR MRLM 261600Z 16003KT 9999 FEW028 BKN250 30/24 A2994 CB ARND HZY=
200706261700 METAR MRLM 261700Z 02004KT 9999 -DZ FEW028 BKN120 29/24 A2994 CB TS NE HZY=
200706261800 METAR MRLM 261800Z 02007KT 9999 FEW025 BKN090 29/25 A2989 REDZ CB RN NE FEW230 HZY=
200706261900 METAR MRLM 261900Z 36010KT 9999 FEW025 BKN090 29/24 A2988 FEW230 HZY=
200706262000 METAR MRLM 262000Z NIL=
200706262057 METAR MRLM 2621OOZ 33005KT 9999 FEW030 BKN050 29/24 A2986 RMK HZY=
200706262100 METAR MRLM 262100Z 33005KT 9999 FEW030 BKN050 29/24 A2986 RMK FEW220 HZ ARND=
200706262200 METAR MRLM 262200Z 26003KT 9999 FEW028 SCT050 29/24 A2985 RMK RN DST NW NE E HZ ARND=
200706262300 METAR MRLM 262300Z 00000KT 9999 SCT028 BKN080 29/24 A2986 RMK TCU RN DST W NW NE E HZ ARND=
200706270000 METAR MRLM 270000Z 00000KT 9999 FEW028 BKN240 28/24 A2985 RMK CB RN N NE E TCU RN NNW HZ ARND=
200706270100 METAR MRLM NIL=
200706270200 METAR MRLM NIL=
200706270300 METAR MRLM NIL=
200706270400 METAR MRLM NIL=
200706270500 METAR MRLM NIL=
200706270600 METAR MRLM NIL=
200706270700 METAR MRLM NIL=
200706270800 METAR MRLM NIL=
200706270900 METAR MRLM NIL=
200706271000 METAR MRLM NIL=
200706271100 METAR MRLM NIL=
200706271200 METAR MRLM NIL=
200706271300 METAR MRLM 271300Z 20004KT 9999 -DZ BKN045 SCT080 25/23 A2981 RMK RN DST ARND=
200706271400 METAR MRLM 271400Z 21003KT 9999 BKN040 SCT090 26/24 A2983 REDZ RMK CB DST NW RN DST ARND=
200706271500 METAR MRLM 271500Z 07004KT CAVOK 29/24 A2984 RMK SCT090 SCT250 TRACE SC HZ ARND=
200706271600 METAR MRLM 271600Z 04005KT 9999 FEW028 BKN090 29/23 A2985 RMK RN NW N NE TCU DST NW SW HZ ARND=
200706271700 METAR MRLM 271700Z 04009KT 9999 SCT025 BKN090 30/24 A2982 RMK CB DST E RN DST S TRACE CI HZ ARND=
200706271800 METAR MRLM 271800Z 04008KT 9999 FEW025 BKN080 30/24 A2984 RMK CB DST ARND RN DST S HZ ARND=
200706271900 METAR MRLM 271900Z 02005KT 9999 FEW025 BKN090 30/25 A2981 RMK CB DST HZ ARND=
200706272000 METAR MRLM NIL=
200706272100 METAR MRLM NIL=
200706272200 METAR MRLM 272200Z 03005KT 9999 FEW025 BKN220 29/24 A2977 RMK CB RN DST SW HZ=
200706272300 METAR MRLM 272300Z 02006KT 9999 SCT025 SCT090 29/24 A2979 RMK CB DST WSW RN DST S SW W FEW230 HZY=
200706280000 METAR MRLM 280000Z 06006KT 9999 SCT026 SCT090 29/24 A2980 RMK CB RN DST WSW TRACE CI HZ ARND=
200706280100 METAR MRLM NIL=
200706280200 METAR MRLM NIL=
200706280300 METAR MRLM NIL=
200706280400 METAR MRLM NIL=
200706280500 METAR MRLM NIL=
200706280600 METAR MRLM NIL=
200706280700 METAR MRLM NIL=
200706280800 METAR MRLM NIL=
200706281000 METAR MRLM NIL=
200706281100 METAR MRLM NIL=
200706281200 METAR MRLM 281200Z NIL=
200706281300 METAR MRLM 281300Z 28003KT 9999 FEW025 BKN090 26/23 A2982 RMK CB DST NW N TCU DST W FEW250 HZ ARND=
200706281400 METAR MRLM 281400Z 22006KT CAVOK 27/23 A2984 RMK BKN090 FEW250 TRACE SC HZY=
200706281500 METAR MRLM 281500Z 24003KT CAVOK 28/24 A2984 RMK BKN080 FEW250 TRACE CU HZY=
200706281600 METAR MRLM 281600Z 02007KT 9999 FEW030 SCT100 30/24 A2983 RMK CB DST N NE FEW250 HZ LEVE ARND=
200706281700 METAR MRLM 281700Z 35012KT 9999 FEW030 SCT100 30/23 A2983 RMK TCU DST NW FEW250 HZ ARND=
200706281800 METAR MRLM 281800Z 36012KT 9999 FEW024 SCT100 30/24 A2982 RMK CB RN DST S SW TCU DST NW FEW250 HZ ARND=
200706281900 METAR MRLM 281900Z 35009KT 9999 FEW024 SCT250 30/24 A2980 RMK CB RN DST S SW FEW100 LEVE HZY=
200706282000 METAR MRLM NIL=
200706282100 METAR MRLM 282100Z 33004KT 5000 +RA BR SCT005 BKN020 21/18 A2994 RMK VIS S SW 3KMS=
200706282200 METAR MRLM 282200Z 34007KT 9999 FEW024 BKN250 30/24 A2976 RMK TRAZAS AC CB DST SE S SW W RN SW W=
200706282300 METAR MRLM 282300Z 34009KT 9999 SCT024 BKN090 29/24 A2981 RMK CB RN DST SE S SW W TCU N FEW250=
200706290000 METAR MRLM 290000Z 33009KT 9999 SCT024 SCT250 29/24 A2982 RMK RN DST SE S SW TCU NW N TRAZAS DE AC=
200706290100 METAR MRLM NIL=
200706290200 METAR MRLM NIL=
200706290300 METAR MRLM NIL=
200706290400 METAR MRLM NIL=
200706290500 METAR MRLM NIL=
200706290600 METAR MRLM NIL=
200706290700 METAR MRLM NIL=
200706290800 METAR MRLM NIL=
200706290900 METAR MRLM NIL=
200706291000 METAR MRLM NIL=
200706291100 METAR MRLM NIL=
200706291200 METAR MRLM 291200Z 00000KT 9999 FEW030 BKN220 24/23 A2983 RETS CB RN=
200706291300 METAR MRLM 291300Z 00000KT 9999 SCT035 SCT220 25/23 A2998 RMK CB DST NW N NE E TRACE AC HZY=
200706291400 METAR MRLM 291400Z 00000KT 9999 SCT035 SCT120 25/23 A2988 RMK CB DST NW N NE FEW250 HZY=
200706291500 METAR MRLM 291500Z 33008KT 9999 3000N TSRA FEW015CB BKN030 26/24 A2993 CB NW N NE RMK TS N=
200706291600 METAR MRLM 291600Z 21004KT 4000 TSRA FEW015CB BKN026 25/24 A2995 CBS NW N NE E TS N=
200706291700 METAR MRLM 291700Z 25007KT 8000 -RA SCT025 BKN040 24/23 A2994 RMK RETS CB N NE E TRACE AC=
200706291800 METAR MRLM 291800Z 27007KT 6000 TSRA FEW015CB SCT018 BKN090 25/23 A2993 RMK CB LINE W NW N NE TS N=
200706291900 METAR MRLM 291900Z 28004KT 6000 -RA SCT015 SCT080 25/24 A2992 RETS CB DST W NW N NE TS DST N NE=
200706292000 METAR MRLM 292000Z NIL=
200706292100 METAR MRLM 292100Z 27008KT 4000 -RA BKN024 SCT090 24/23 A2988 RETS RMK CB NW N NE=
200706292200 METAR MRLM 292200Z 00000KT 9999 DZ SCT040 BKN090 24/23 A2986 RERA RN ARND=
200706292300 METAR MRLM 292300Z 22003KT 9999 FEW040 BKN090 25/23 A2985 REDZ=
200706300000 METAR MRLM NIL=
200706300100 METAR MRLM NIL=
200706300200 METAR MRLM NIL=
200706300300 METAR MRLM NIL=
200706300400 METAR MRLM NIL=
200706300500 METAR MRLM NIL=
200706300600 METAR MRLM NIL=
200706300700 METAR MRLM NIL=
200706300800 METAR MRLM NIL=
200706300900 METAR MRLM NIL=
200706301000 METAR MRLM NIL=
200706301100 METAR MRLM NIL=
200706301200 METAR MRLM NIL=
200706301300 METAR MRLM NIL=
200706301400 METAR MRLM 301400Z 36006KT 9999 -DZ BKN035 SCT090 24/23 A2995 RERA RMK RN ARND=
200706301500 METAR MRLM 301500Z 25004KT 9999 -DZ SCT45 SCT080 25/23 A2995 RMK RN ARND=
200706301600 METAR MRLM 301600Z 21005KT 9999 -DZ FEW040 BKN090 26/24 A2993=
200706301700 METAR MRLM 301700Z 20003KT CAVOK 28/24 A2990 REDZ RMK OVC230 TRACE AC=
200706301800 METAR MRLM 301800Z 02005KT CAVOK 29/25 A2988 RMK BKN250 TRACE SC AC HZ ARND=
200706301900 METAR MRLM 301900Z 01005KT CAVOK 29724 A2987 RMK FEW100 BKN250 HZ ARND=
200706302000 METAR MRLM 302000Z NIL=
200706302100 METAR MRLM 302100Z 35005KT 9999 FEW030 BKN100 29/24 A2983 HZY=
200706302200 METAR MRLM 302200Z 34007KT 9999 FEW030 BKN100 30/24 A2982 HZY=
200706302300 METAR MRLM NIL=
200707010000 METAR MRLM 010000Z 00000KT 9999 FEW026 BKN090 28/24 A2984 TCU SW HZY=
200707010100 METAR MRLM NIL=
200707010200 METAR MRLM NIL=
200707010300 METAR MRLM NIL=
200707010400 METAR MRLM NIL=
200707010500 METAR MRLM NIL=
200707010600 METAR MRLM NIL=
200707010700 METAR MRLM NIL=
200707010800 METAR MRLM NIL=
200707010900 METAR MRLM NIL=
200707011000 METAR MRLM NIL=
200707011100 METAR MRLM NIL=
200707011200 METAR MRLM NIL=
200707011300 METAR MRLM 011300Z 00000KT CAVOK 26/23 A2991 SCT140 BKN280 CB RN N W HZY=
200707011400 METAR MRLM 011400Z 12002KT CAVOK 29/23 A2992 FEW140 BKN280 CB NW E=
200707011500 METAR MRLM 011500Z VRB03KT 9999 FEW028 SCT120 BKN280 30/24 A2993 CB NW N HZY=
200707011600 METAR MRLM 011600Z 08004KT 9999 FEW028 SCT130 BKN280 30/24 A2993 CB N HZY=
200707011700 METAR MRLM 011700Z 06005KT 9999 FEW030 SCT120 BKN280 30/24 A2992 CB N HZY=
200707011800 METAR MRLM 011800Z 02006KT 9999 FEW030 SCT140 BKN280 30/24 A2982 CB W NW N HZY=
200707011900 METAR MRLM 011900Z 01008KT 9999 FEW028 SCT140 BKN280 31/25 A2988 CB W HZY=
200707012000 METAR MRLM NIL=
200707012100 METAR MRLM 012100Z 01006KT 9999 FEW025 BKN280 30/25 A2984 RMK CB DST S W HZ LGT ARND=
200707012200 METAR MRLM 012200Z VRB03KT 9999 FEW026 BKN280 30/25 A2984 RMK CB DST S SW W HZ ARND=
200707012300 METAR MRLM 012300Z 04005KT 9999 FEW025 BKN280 30/25 A2984 RMK CB DST S SW W HZ ARND=
200707020000 METAR MRLM 020000Z 05006KT 9999 FEW022 BKN280 29/25 A2986 RMK CB DST W TRACE AC HZ LGT ARND=
200707020100 METAR MRLM NIL=
200707020200 METAR MRLM NIL=
200707020300 METAR MRLM NIL=
200707020400 METAR MRLM NIL=
200707020500 METAR MRLM NIL=
200707020600 METAR MRLM NIL=
200707020700 METAR MRLM NIL=
200707020800 METAR MRLM NIL=
200707020900 METAR MRLM NIL=
200707021000 METAR MRLM NIL=
200707021100 METAR MRLM NIL=
200707021200 METAR MRLM NIL=
200707021300 METAR MRLM 021300Z 21005KT 9999 FEW035 SCT120 BKN280 27/24 A2990 RMK CB DST N E HZ ARND LGT=
200707021400 METAR MRLM 021400Z 24007KT CAVOK 28/24 A2990 RMK BKN260 TRACE CU AC HZ LGT ARND=
200707021500 METAR MRLM 021500Z VRB03KT 9999 FEW026 SCT280 30/25 A2990 RMK HZ LGT ARND=
200707021600 METAR MRLM 021600Z 02005KT 9999 FEW030 SCT300 30/24 A2989 RMK HZ LGT ARND=
200707021700 METAR MRLM 021700Z 01007KT 9999 FEW030 31/25 A2989 RMK CB DST NW E TCU DST NE HZ LGT ARND=
200707021800 METAR MRLM 021800Z 03008KT 9999 FEW026 SCT280 31/26 A2988 RMK CB DST ARND TRACE AC HZ ARND=
200707021900 METAR MRLM 021900Z 04006KT 9999 FEW028 SCT280 31/25 A2987 RMK CB DST HZ ARND TRACE AC=
200707022000 METAR MRLM 022000Z NIL=
200707022100 METAR MRLM 022100Z 02006KT 9999 FEW028 SCT280 31/25 A2982 RMK CB DST QUAD S HZY=
200707022200 METAR MRLM 022200Z 02005KT 9999 FEW9028 SCT280 31/25 A2981 RMK CB DST QUAD S HZY=
200707022300 METAR MRLM 022300Z 03006KT 9999 SCT028 SCT280 30/25 A2982 RMK CB DST QUAD S HZY=
200707030000 METAR MRLM 030000Z 04005KT 9999 BKN023 30/25 A2984 RMK FEW280 TRACE AC CB DST QUAD S HZ LEVE ARND=
200707030100 METAR MRLM NIL=
200707030200 METAR MRLM NIL=
200707030300 METAR MRLM NIL=
200707030400 METAR MRLM NIL=
200707030500 METAR MRLM NIL=
200707030600 METAR MRLM NIL=
200707030700 METAR MRLM NIL=
200707030800 METAR MRLM NIL=
200707030900 METAR MRLM NIL=
200707031000 METAR MRLM NIL=
200707031100 METAR MRLM NIL=
200707031200 METAR MRLM 031200Z 27007KT 5000 TSRA FEW015CB BKN026 24/23 A2988 CB TS NW N NE=
200707031300 METAR MRLM 031300Z 10009KT 0800 TSRA SCT015CB BKN020 24/23 A2992=
200707031400 METAR MRLM 031400Z 20005KT 7000 TSRA FEW015CB BKN035 23/23 A2992 RMK CB W NW N TS W=
200707031500 METAR MRLM 031500Z 22004KT 9999 DZ BKN030 SCT100 24/23 A2991 RETS RMK CB RN DST W NW N=
200707031600 METAR MRLM 031600Z 20004KT 9999 SCT026 BKN090 26/24 A2991 REDZ RMK CB RN DST ARND TS DST E=
200707031700 METAR MRLM 031700Z 20003KT 9999 BKN030 SCT080 28/24 A2991 RMK CB RN=
200707031800 METAR MRLM 031800Z 21003KT 9999 FEW028 BKN220 29/24 A2987 RMK CB RN DST W N NE E FEW100=
200707031900 METAR MRLM 031900Z 04003KT 9999 FEW028 BKN220 30/24 A2983 RMK CB RN DST NE E FEW090=
200707032000 METAR MRLM 032000Z NIL=
200707032100 METAR MRLM 032100Z 10005KT 9999 FEW025 BKN220 29/25 A2981 RMK CB RN DST N SW W FEW090=
200707032200 METAR MRLM NIL=
200707032300 METAR MRLM 032300Z 14004KT 9999 FEW026 BKN220 29/25 A2982 RMK CB RN DST W WNW=
200707040000 METAR MRLM 040000Z 00000KT 9999 FEW030 BKN090 28/25 A2983 RMK CB DST E S SW W TS SW FEW230 HZY=
200707040100 METAR MRLM NIL=
200707040200 METAR MRLM NIL=
200707040300 METAR MRLM NIL=
200707040400 METAR MRLM NIL=
200707040500 METAR MRLM NIL=
200707040600 METAR MRLM NIL=
200707040700 METAR MRLM NIL=
200707040800 METAR MRLM NIL=
200707040900 METAR MRLM NIL=
200707041000 METAR MRLM NIL=
200707041100 METAR MRLM NIL=
200707041200 METAR MRLM 041200Z 08014KT 2000 TSRA SCT015CB BKN028 25/24 A2986=
200707041300 METAR MRLM 041300Z 20006KT 8000 -RA FEW015CB BKN026 24/23 A2987 RETS RMK CBS ARND TS DST E W=
200707041400 METAR MRLM 041400Z 20005KT 8000 +DZ FEW018 BKN090 24/23 A2987 RMK CB DST W NW N SE TS W=
200707041500 METAR MRLM 041500Z 23003KT 9999 DZ SCT030 BKN090 25/24 A2989 RMK CB DST W NW RN DST ARND=
200707041600 METAR MRLM 041600Z 22005KT 9999 FEW025 BKN090 25/24 A2987 RERA RMK CBS DST N NE E TCU NE RN DST ARND=
200707041700 METAR MRLM 041700Z 27004KT 9999 -RA BKN020 SCT080 26/25 A2988=
200707041800 METAR MRLM 041800Z 21005KT 9999 -DZ BKN020 SCT080 26/24 A2987 RETS RMK CB DST W NW S RN DST ARND=
200707041900 METAR MRLM 041900Z 21008KT 9999 SCT028 SCT080 27/24 A2984 RMK CB TS OCNL DST NW N RN DIST ARND=
200707042000 METAR MRLM 042000Z 02005KT 9999 -DZ SCT024 SCT080 27/24 A2983 RMK CB DST W NW N NE RN DST ARND=
200707042100 METAR MRLM 042100Z 26005KT 9999 FEW040 BKN120 27/24 A2982 RMK CB NW N VIS NW 9000MTS DUE RN=
200707042200 METAR MRLM 042200Z 26004KT 9999 FEW040 BKN090 27/24 A2981 RMK HZ LEVE ARND=
200707042300 METAR MRLM 042300Z 30003KT 9999 SCT040 SCT080 27/25 A2980 RMK CB TS E HZ ARND=
200707050000 METAR MRLM 050000Z 30003KT 9999 TS FEW015CB BKN028 27/25 A2983 RMK CB RN DST NW N NE TS NE HZ ARND=
200707050100 METAR MRLM NIL=
200707050200 METAR MRLM NIL=
200707050300 METAR MRLM NIL=
200707050400 METAR MRLM NIL=
200707050500 METAR MRLM NIL=
200707050600 METAR MRLM NIL=
200707050700 METAR MRLM NIL=
200707050800 METAR MRLM NIL=
200707050900 METAR MRLM NIL=
200707051000 METAR MRLM NIL=
200707051100 METAR MRLM NIL=
200707051200 METAR MRLM NIL=
200707051300 METAR MRLM 051300Z 14005KT 4000 RA FEW003 OVCTCU012 25/24 A2983 RMK TSTM=
200707051400 METAR MRLM 051400Z 23004KT 9999 TSRA SCT012CB BKN015 24/23 A2986 RMK VIS NW 8000 DUE TSTM=
200707051500 METAR MRLM 051500Z 00000KT 2000 TSRA FEW010CB SCT015 BKN090 24/24 A2987=
200707051600 METAR MRLM 051600Z 26004KT 3000 TSRA FEW010CB BKN010 24/24 A2987=
200707051700 METAR MRLM 051700Z 33009KT 3000 TSRA SCT005CB BKN008 23/22 A2992 RMK RAFAGAS 14KT=
200707051800 METAR MRLM 051800Z 22002KT 8000 TSRA FEW005 SCT015CB BKN025 23/22 A2990 RMK FEW100 VIS S SW UNL=
200707051900 METAR MRLM 051900Z 25003KT 9999 FEW005 SCT025 BKN100 24/23 A2987 RMK CB RN ARND TRACE AC AS=
200707052000 METAR MRLM 052000Z 00000KT 9999 FEW015 SCT080 BKN120 25/24 A2982 RMK CB RN NW ESE DZ SE TRACE CI=
200707052100 METAR MRLM 052100Z 00000KT CAVOK 25/24 A2984 FEW080 SCT120 CB RN NW E SE T TRAZAS SCT=
200707052200 METAR MRLM 052200Z 27002KT 27002KT CAVOK 25/24 A2982 FEW080 OVC120 CB /RN NW SE=
200707052300 METAR MRLM 052300Z 17003KT CAVOK 25/24 A2983 FEW090 BKN120 CB RN NW SE=
200707060000 METAR MRLM 060000Z 17002KT CAVOK 25/24 A2983 RMK SCT090 SCT120 CB NW RN E=
200707060100 METAR MRLM NIL=
200707060200 METAR MRLM NIL=
200707060300 METAR MRLM NIL=
200707060400 METAR MRLM NIL=
200707060500 METAR MRLM NIL=
200707060600 METAR MRLM NIL=
200707060700 METAR MRLM NIL=
200707060800 METAR MRLM NIL=
200707060900 METAR MRLM NIL=
200707061000 METAR MRLM NIL=
200707061100 METAR MRLM NIL=
200707061200 METAR MRLM NIL=
200707061300 METAR MRLM NIL=
200707061400 METAR MRLM 061400Z 23004KT 9999 FEW016 SCT110 BKN280 28/25 A2987 CB RN N HZY=
200707061500 METAR MRLM 061500Z 22002KT 9999 FEW020 BKN100 29/25 A2988 CB RN N HZY=
200707061600 METAR MRLM 061600Z 06004KT 9999 FEW020 BKN110 30/25 A2987 CB RN NE HZY=
200707061700 METAR MRLM 061700Z 04005KT 9999 FEW028 SCT120 BKN280 31/25 A2986 CB RN NE HZY=
200707061800 METAR MRLM 061800Z 02007KT 9999 FEW028 SCT120 BKN280 31/25 A2984 CB RN N NE E HZY=
200707061900 METAR MRLM 061900Z 02006KT 9999 FEW028 SCT120 BKN280 31/25 A2982 RMK CB RN NW N NE E HZY=
200707062000 METAR MRLM 062000Z NIL=
200707062100 METAR MRLM 062100Z 36007KT 9999 FEW025 SCT100 BKN280 30/25 A2979 RMK CB RN DST N HZ ARND=
200707062200 METAR MRLM 062200Z 01003KT 9999 FEW030 BKN110 30/24 A2979 RMK CB RN DST N HZ ARND=
200707062300 METAR MRLM 062300Z 36007KT 9999 FEW018 SCT110 BKN280 29/25 A2980 RMK HZ ARND=
200707070000 METAR MRLM 070000Z 32004KT 9999 FEW018 OVC 28/25 A2982 RMK CB DST W FEWAC 130 HZ ARND=
200707070100 METAR MRLM NIL=
200707070200 METAR MRLM NIL=
200707070300 METAR MRLM NIL=
200707070400 METAR MRLM NIL=
200707070500 METAR MRLM NIL=
200707070600 METAR MRLM NIL=
200707070700 METAR MRLM NIL=
200707070800 METAR MRLM NIL=
200707070900 METAR MRLM NIL=
200707071000 METAR MRLM NIL=
200707071100 METAR MRLM NIL=
200707071200 METAR MRLM NIL=
200707071300 METAR MRLM 071300Z 14005KT 5000 TSRA SCT010CB SCT012 24/22 A2988=
200707071400 METAR MRLM 071400Z NIL=
200707071500 METAR MRLM 071500Z 00000KT 6000 RA FEW006 SCT015 OVC090 24/23 A2989 RMK VIS UNL NW CB DST E=
200707071600 METAR MRLM 071600Z 00000KT 8000 RA FEW007 SCT020 OVC090 25/20 A2991 RMK CB DST N E VIS UNL S=
200707071700 METAR MRLM 071700Z 27004KT 9999 RA FEW010 OVC100 26/24 A2990 RMK VIS 8000 N=
200707071800 METAR MRLM 071800Z 26002KT 9999 DZ FEW018 OVC110 26/23 A2986 RMK CB RN DST N E=
200707071900 METAR MRLM 071900Z 03003KT 9999 DZ SCT120 SCT140 27/23 A2983 RMK TRACE ST FEWCI CB RN DST N NE E=
200707072000 METAR MRLM 072000Z NIL=
200707072100 METAR MRLM 072100Z 29008KT CAVOK 27/23 A2982 RMK BKN120 FEW140 TRACE CU CB RN DST QUAD N E=
200707072200 METAR MRLM 072200Z 30009KT 9999 FEW020 BKN110 28/23 A2983 RMK CB RN DST QUAD W N E TRACE CI FEW AC 150=
200707072300 METAR MRLM 072300Z 32006KT 9999 FEW018 SCT080 BKN100 28/24 A2985 RMK CB RN DST QUAD W NE=
200707080000 METAR MRLM 080000Z 25002KT 9999 DZ FEW012 BKN140 27/24 A2986 RMK CB RN DST QUAD E FEW100=
200707080100 METAR MRLM NIL=
200707080200 METAR MRLM NIL=
200707080300 METAR MRLM NIL=
200707080400 METAR MRLM NIL=
200707080500 METAR MRLM NIL=
200707080600 METAR MRLM NIL=
200707080700 METAR MRLM NIL=
200707080800 METAR MRLM NIL=
200707080900 METAR MRLM NIL=
200707081000 METAR MRLM NIL=
200707081100 METAR MRLM NIL=
200707081200 METAR MRLM NIL=
200707081300 METAR MRLM 081300Z 23004KT CAVOK 25/23 A2987 RMK TRACE CU FEW090 BKN120 CB RN DST QUAD E SE LEVE HZY=
200707081400 METAR MRLM 081400Z 18003KT CAVOK 27/23 A2989 RMK SCT080 BKN110 TRACE CU CB RN DST QUAD N E LEVE HZY=
200707081500 METAR MRLM 081500Z 00000KT CAVOK 29/22 A2989 RMK TRACE CU BKN090 SCT120 CB RN DST QUAD N E LEVE HZY=
200707081600 METAR MRLM 081600Z 03006KT 9999 +DZ SCT090 BKN100 28/23 A2990 RMK CB RN DST QUAD N E=
200707081700 METAR MRLM 081700Z 06004KT CAVOK 29/23 A2989 RMK TRACE BKN100 FEW140 CB RN DST QUAD N E=
200707081800 METAR MRLM 081800Z 09007KT 9999 FEW025 BKN110 29/24 A2987 RMK FEW150 CB RN DST QUAD N E DZ DST W=
200707081900 METAR MRLM 081900Z 10012KT 9999 SCT028 BKN110 29/24 A2985 RMK CB RN DST QUAD N E=
200707082000 METAR MRLM 082000Z NIL=
200707082100 METAR MRLM 082100Z 09010KT 9999 BKN020 SCT090 28/24 A2982 RMK CBS RN DST W N E QDS TRACE CI=
200707082200 METAR MRLM 082200Z 07010KT 9999 SCT020 BKN120 28/24 A2985 RMK CB RN DST ARND FEW250=
200707082300 METAR MRLM 082300Z 06009KT 9999 BKN020 28/23 A2987 RMK FEW090 TRACE CI CB RN DST ARND=
200707090000 METAR MRLM 090000Z 06007KT 9999 BKN020 SCT090 27/24 A2989 RMK CBS RN DST ARND FEW140=
200707090100 METAR MRLM NIL=
200707090200 METAR MRLM NIL=
200707090300 METAR MRLM NIL=
200707090400 METAR MRLM NIL=
200707090500 METAR MRLM NIL=
200707090600 METAR MRLM NIL=
200707090700 METAR MRLM NIL=
200707090800 METAR MRLM NIL=
200707090900 METAR MRLM NIL=
200707091000 METAR MRLM NIL=
200707091100 METAR MRLM NIL=
200707091200 METAR MRLM NIL=
200707091300 METAR MRLM 091300Z 21005KT CAVOK 24/22 A2989 RMK BKN090 FEW150 RMK CB RN DST N E=
200707091400 METAR MRLM 091400Z 11004KT 9999 FEW018 OVC090 26/23 A2992 RMK CB RN DST N E=
200707091500 METAR MRLM 091500Z 05010KT 9999 FEW015 SCT035 BKN090 26/23 A2992 RMK RN DST W N E=
200707091600 METAR MRLM 091600Z 05006KT 9999 FEW020 BKN090 27/23 A2991 RMK FEW250 CB RN DST N E QDS=
200707091700 METAR MRLM 091700Z 01007KT 9999 FEW023 OVC120 28/23 A2991 RMK TRACE CI CB RN DST N=
200707091800 METAR MRLM 091800Z 03007KT 9999 FEW028 SCT100 BKN270 28/22 A2990 RMK CBS RN DST N HZY=
200707091900 METAR MRLM 091900Z 03011KT 9999 SCT023 BKN090 28/23 A2990 RMK CB RN DST N E=
200707092000 METAR MRLM 092000Z NIL=
200707092100 METAR MRLM 092100Z 03013KT 9999 FEW020 SCT090 BKN140 27/23 A2985 RMK FEW270 CB RN ARND=
200707092200 METAR MRLM 092200Z 18002KT 9999 +DZ FEW014 BKN110 27/24 A2985 RMK FEW150 CB RN W=
200707092300 METAR MRLM 092300Z 21002KT 9999 FEW010 OVC110 26724 A2987 RMK CB RN DST W TRACE AS=
200707100000 METAR MRLM 100000Z 21004KT CAVOK 25/24 A2988 RMK BKN110 FEW140 TRACE ST CB RN DST W=
200707100100 METAR MRLM NIL=
200707100200 METAR MRLM NIL=
200707100300 METAR MRLM NIL=
200707100400 METAR MRLM NIL=
200707100500 METAR MRLM NIL=
200707100600 METAR MRLM NIL=
200707100700 METAR MRLM NIL=
200707100800 METAR MRLM NIL=
200707100900 METAR MRLM NIL=
200707101000 METAR MRLM NIL=
200707101100 METAR MRLM NIL=
200707101200 METAR MRLM NIL=
200707101300 METAR MRLM 101300Z 27003KT 9999 FEW006 BKN015 24/23 A2992 RMK RN W N E=
200707101400 METAR MRLM 101400Z 30007KT 9999 OVC010 25/24 A2993 RMK RN ARND=
200707101500 METAR MRLM 101500Z 23006KT 9999 DZ SCT010 SCT090 26/23 A2994 RMK FEW260 CB N HZ ARND=
200707101600 METAR MRLM 101600Z 23006KT 9999 SCT018 SCT110 27/24 A2993 RMK FEW260 CB RN N=
200707101700 METAR MRLM 101700Z 02005KT 9999 FEW022 BKN120 28/24 A2992 RMK CB RN N FEW280=
200707101800 METAR MRLM 101800Z 02007KT 9999 FEW026 BKN110 29/24 A2990 RMK FEW280 CB RN N=
200707101900 METAR MRLM 101900Z 35007KT 9999 FEW025 BKN110 29/23 A2988 RMK FEW270 CB RN N=
200707102000 METAR MRLM 102000Z NIL=
200707102100 METAR MRLM 102100Z 34009KT 9999 FEW028 SCT140 BKN270 29/24 A2983 CB S=
200707102200 METAR MRLM 102200Z 24009KT 9999 FEW028 SCT140 BKN270 CB S HZY=
200707102300 METAR MRLM 102300Z 33007KT 9999 FEW030 BKN140 29/23 A2985 CB S W RN SW NW=
200707110000 METAR MRLM 110000Z 28004KT 9999 FEW022 BKN130 27/23 A2986 CB S RN SW HZY=
200707110100 METAR MRLM NIL=
200707110200 METAR MRLM NIL=
200707110300 METAR MRLM NIL=
200707110400 METAR MRLM NIL=
200707110500 METAR MRLM NIL=
200707110600 METAR MRLM NIL=
200707110700 METAR MRLM NIL=
200707110800 METAR MRLM NIL=
200707110900 METAR MRLM NIL=
200707111000 METAR MRLM NIL=
200707111100 METAR MRLM NIL=
200707111200 METAR MRLM NIL=
200707111300 METAR MRLM 111300Z 00000KT CAVOK 24/23 A2987 OVC090 CB RN N E TS NE HZY=
200707111400 METAR MRLM 111400Z 29003KT 9999 DZ SCT015 BKN090 25/23 A2989 FEW150=
200707111500 METAR MRLM 111500Z 26003KT 9999 SCT020 SCT090 26/23 A2987 RERA CB RN N E SCT260 HZY=
200707111600 METAR MRLM 111600Z 25002KT 9999 FEW022 SCT090 BKN140 28/24 A2987 CB RN N E HZY=
200707111700 METAR MRLM 111700Z 31005KT 9999 DZ FEW026 BKN090 28/23 A2990=
200707111800 METAR MRLM 111800Z 32015KT 8000 TSRA SCT010CB BKN020 24/21 A2988 VSBY S UNL=
200707111900 METAR MRLM 111900Z 04010KT 9999 RA FEW090 OVC120 23/21 A2986 TRAZAS SCT=
200707112000 METAR MRLM 112000Z NIL=
200707112100 METAR MRLM 112100Z 24007KT 9999 DZ FEW013 SCT120 OVC140 24/22 A2982 RMK CB RN DST N NE E=
200707112200 METAR MRLM 112200Z 24002KT 9999 FEW018 BKN100 25/21 A2983 RMK CB RN DST N NE E=
200707112300 METAR MRLM 112300Z 26003KT CAVOK 25/21 A2984 RMK SCT100 SCT140 CB RN DST W NW N NE TRACE SC=
200707120000 METAR MRLM 120000Z 20004KT CAVOK 24/22 A2985 RMK BKN110 CB DST W NW N NE=
200707120100 METAR MRLM NIL=
200707120200 METAR MRLM NIL=
200707120300 METAR MRLM NIL=
200707120400 METAR MRLM NIL=
200707120500 METAR MRLM NIL=
200707120600 METAR MRLM NIL=
200707120700 METAR MRLM NIL=
200707120800 METAR MRLM NIL=
200707120900 METAR MRLM NIL=
200707121000 METAR MRLM NIL=
200707121100 METAR MRLM NIL=
200707121200 METAR MRLM NIL=
200707121300 METAR MRLM 121300Z 00000KT 9999 FEW025 BKN090 24/22 A2988 RMK CB RN DST S W TRACE CI=
200707121400 METAR MRLM 121400Z 27006KT 9999 SCT020 SCT090 25/21 A2988 RMK CB DST N HZ ARND=
200707121500 METAR MRLM 121500Z 29008KT 9999 FEW020 SCT100 BKN270 26/22 A2989 RMK CB RN DST N E HZ ARND=
200707121600 METAR MRLM 121600Z 28010KT 9999 SCT020 SCT110 BKN270 27/23 A2989 RMK CB RN DST N=
200707121700 METAR MRLM 121700Z 28012KT 9999 OVC022 28/23 A2988 RMK CB RN DST N=
200707121800 METAR MRLM 121800Z 30012KT 9999 BKN023 SCT090 28/23 A2986 RMK CB RN DST N=
200707121900 METAR MRLM 121900Z 31011KT 9999 SCT023 SCT120 28/23 A2984 RMK CB RN DST N FEW270=
200707122000 METAR MRLM NIL=
200707122100 METAR MRLM 122100Z 30014KT 9999 BKN023 28/23 A2982 RMK FEW120 FEW270 CB DST QUAD S N RN DST QUAD N=
200707122200 METAR MRLM 122200Z 28009KT 9999 SCT022 BKN120 27/23 A2982 RMK FEW270 CB RN DST QUAD S W=
200707122300 METAR MRLM 122300Z 30009KT 9999 SCT018 BKN090 27/23 A2984 RMK CB RN DST QUAD S W=
200707130000 METAR MRLM 130000Z 31011KT 9999 SCT018 BKN090 26/23 A2986 RMK CB RN DST ARND DZ DST NW=
200707130100 METAR MRLM NIL=
200707130200 METAR MRLM NIL=
200707130300 METAR MRLM NIL=
200707130400 METAR MRLM NIL=
200707130500 METAR MRLM NIL=
200707130600 METAR MRLM NIL=
200707130700 METAR MRLM NIL=
200707130800 METAR MRLM NIL=
200707130900 METAR MRLM NIL=
200707131000 METAR MRLM NIL=
200707131100 METAR MRLM NIL=
200707131200 METAR MRLM NIL=
200707131300 METAR MRLM 131300Z 30004KT CAVOK 26/23 A2987 RMK SCT090 SCT150 FEW270 CB RN DST QUAD N LEVE HZY=
200707131400 METAR MRLM 131400Z 29009KT CAVOK 27/22 A2989 RMK BKN090 FEW270 TRACE SC CB DST NW RN DST E=
200707131500 METAR MRLM 131500Z 29009KT 9999 FEW025 BKN090 28/23 A2989 RMK CB RN DST QUAD N E FEW270=
200707131600 METAR MRLM 131600Z 29010KT 9999 FEW032 SCT100 BKN270 29/23 A2989 RMK CB RN DST QUAD N E HZ SE=
200707131700 METAR MRLM 131700Z 30009KT 9999 FEW026 BKN100 29/24 A2990 RMK FEW270=
200707131800 METAR MRLM 131800Z 31010KT 9999 FEW028 BKN100 29/24 A2988 RMK CB DST SW RN DST W TRACE CI LEVE HZY=
200707131900 METAR MRLM 131900Z 34010KT 9999 FEW030 BKN090 30/24 A2986 RMK DZ DST NW CB DST W FEW270 LEVE HZY=
200707132000 METAR MRLM 132000Z NIL=
200707132100 METAR MRLM 132100Z 32012KT 9999 FEW022 SCT140 BKN270 28/24 A2980 RMK CB DST N TRACE AC HZ LGT ARND=
200707132200 METAR MRLM 132200Z 32013KT 9999 FEW020 BKN270 28/24 A2981 RMK CB DST S SW W RN SW HZY=
200707132300 METAR MRLM 132300Z 32013KT 9999 FEW020 BKN270 28/24 A2981 RMK CB DST S SW W RN SW HZY=
200707140000 METAR MRLM 140000Z 30007KT 9999 OVC015 27/24 A2982 CBS RN DST S SW W TRACE CI=
200707140100 METAR MRLM NIL=
200707140200 METAR MRLM NIL=
200707140300 METAR MRLM NIL=
200707140400 METAR MRLM NIL=
200707140500 METAR MRLM NIL=
200707140600 METAR MRLM NIL=
200707140700 METAR MRLM NIL=
200707140800 METAR MRLM NIL=
200707140900 METAR MRLM NIL=
200707141000 METAR MRLM NIL=
200707141100 METAR MRLM NIL=
200707141200 METAR MRLM NIL=
200707141300 METAR MRLM 141300Z 20005KT 5000 RA FEW005 SCT015 BKN090 24/23 A2987 RMK VIS 3KMS NW VIS S UNL=
200707141400 METAR MRLM 141400Z 20005KT 9999 +DZ SCT120 SCT140 25/24 A2987 RMK TRACE ST FEW250 CB DST NW E=
200707141500 METAR MRLM 141500Z 20004KT 9999 -DZ SCT140 SCT250 26/24 A2987 CB RN DST NW E TRACE ST=
200707141600 METAR MRLM 141600Z 03004KT 9999 DZ BKN120 27/24 A2986 RMK TRACE CU FEW260=
200707141700 METAR MRLM 141700Z 02005KT 9999 FEW022 SCT090 BKN140 28/24 A2987 RMK FEW270 CB RN DST NE=
200707141800 METAR MRLM 141800Z 01008KT 9999 FEW023 SCT140 BKN270 29/24 A2984 CBS RN DST N NE HZY=
200707141900 METAR MRLM 141900Z 01009KT 9999 FEW025 BKN270 29/24 A2982 CB DST N FEW140 HZY=
200707142000 METAR MRLM 142000Z NIL=
200707142100 METAR MRLM 142100Z 36007KT 9999 FEW020 SCT120 BKN270 28/24 A2979 RMK CB RN S=
200707142200 METAR MRLM 142200Z 01006KT 9999 FEW022 BKN110 28/24 A2976 RMK FEW260 CB RN S W=
200707142300 METAR MRLM 142300Z 36007KT 9999 FEW022 BKN100 28/24 A2976 RMK FEW270 CB RN SW=
200707150000 METAR MRLM NIL=
200707150100 METAR MRLM NIL=
200707150200 METAR MRLM NIL=
200707150300 METAR MRLM NIL=
200707150400 METAR MRLM NIL=
200707150500 METAR MRLM NIL=
200707150600 METAR MRLM NIL=
200707150700 METAR MRLM NIL=
200707150800 METAR MRLM NIL=
200707150900 METAR MRLM NIL=
200707151000 METAR MRLM NIL=
200707151100 METAR MRLM NIL=
200707151200 METAR MRLM 151200Z NIL=
200707151300 METAR MRLM 151300Z 19003KT CAVOK 27/24 A2985 RMK CB RN NW N SE SCT110 BKN270 HZ ARND=
200707151400 METAR MRLM 151400Z 32003KT CAVOK 29/24 A2988 RMK SCT110 BKN270 CB RN DST N HZ ARND TRACE CU=
200707151500 METAR MRLM 151500Z 04005KT 9999 FEW026 SCT090 BKN270 29/24 A2988 RMK CB RN N HZ ARND=
200707151600 METAR MRLM 151600Z 04006KT 9999 FEW028 SCT140 BKN270 30/24 A2987 RMK CB RN NW N HZ ARND=
200707151700 METAR MRLM 151700Z 34014KT 9999 FEW030 SCT150 BKN270 30/24 A2988 RMK CB RN N TCU RN S SW=
200707151800 METAR MRLM 151800Z 34011KT 9999 FEW030 SCT150 BKN270 30/24 A2989 RMK CB RN N CB RN SW HZ ARND=
200707151900 METAR MRLM 151900Z 34012KT 9999 SCT028 SCT150 BKN270 30/24 A2987 RMK CB RN N S=
200707152000 METAR MRLM 152000Z NIL=
200707152100 METAR MRLM 152100Z 32012KT 9999 SCT022 BKN270 29/24 A2983 CB RN W N HZY=
200707152200 METAR MRLM 152200Z 31008KT 9999 BKN022 28/24 A2984 FEW100 CB RN W S N=
200707152300 METAR MRLM 152300Z 31008KT 9999 FEW018 BKN270 28/24 A2984 CB RN W=
200707160000 METAR MRLM 160000Z 29003KT 9999 FEW017 BKN090 27/24 A2987 CB RN SE HZY=
200707160100 METAR MRLM NIL=
200707160200 METAR MRLM NIL=
200707160300 METAR MRLM NIL=
200707160400 METAR MRLM NIL=
200707160500 METAR MRLM NIL=
200707160600 METAR MRLM NIL=
200707160700 METAR MRLM NIL=
200707160800 METAR MRLM NIL=
200707160900 METAR MRLM NIL=
200707161000 METAR MRLM NIL=
200707161100 METAR MRLM NIL=
200707161200 METAR MRLM NIL=
200707161300 METAR MRLM 161300Z 22005KT 9999 SCT015 SCT300 25/24 A2993 FEW120 HZY=
200707161400 METAR MRLM 161400Z 29003KT 9999 SCT023 SCT130 29/24 A2992 FEW300 HZY=
200707161500 METAR MRLM 161500Z 01005KT 9999 FEW025 SCT130 BVKN300 29/24 A2993 HZY=
200707161600 METAR MRLM 161600Z 03004KT 9999 FEW027 SCT120 29/24 A2994 FEW300 HZY=
200707161700 METAR MRLM 161700Z 06005KT 9999 FEW030 BKN140 30/24 A2993 HZY=
200707161800 METAR MRLM 161800Z 09004KT 9999 FEW030 BKN120 30/24 A2882 HZY=
200707161900 METAR MRLM 161900Z 06007KT 9999 FEW033 BKN130 30/23 A2991 HZY=
200707162000 METAR MRLM 162000Z NIL=
200707162100 METAR MRLM 162100Z 04005KT 9999 FEW033 BKN140 30/23 A2985 RMK FEW300 HZ ARND=
200707162200 METAR MRLM 162200Z 36007KT 9999 FEW030 SCT140 29/23 A2983 RMK HZ ARND=
200707162300 METAR MRLM 162300Z 35007KT 9999 FEW028 SCT140 29/23 A2984 RMK FEW300 HZ ARND=
200707170000 METAR MRLM 170000Z 35006KT CAVOK 28/23 A2986 RMK TRACE SC HZ ARND SCT140 FEW280=
200707170100 METAR MRLM NIL=
200707170200 METAR MRLM NIL=
200707170300 METAR MRLM NIL=
200707170400 METAR MRLM NIL=
200707170500 METAR MRLM NIL=
200707170600 METAR MRLM NIL=
200707170700 METAR MRLM NIL=
200707170800 METAR MRLM NIL=
200707170900 METAR MRLM NIL=
200707171000 METAR MRLM NIL=
200707171300 METAR MRLM 171300Z 21003KT 9999 DZ FEW020 SCT100 BKN130 23/22 A2991 RMK CB DST RN N E=
200707171400 METAR MRLM 171400Z 22003KT 9999 RA SCT025 OVC130 23/22 A2993 RMK CB N E=
200707171500 METAR MRLM 171500Z 00000KT 8000 RA BKN025 SCT100 24/22 A2997 RMK CB N=
200707171600 METAR MRLM 171600Z 07017KT 1000 +RA OVC015 23/22 A3001=
200707171700 METAR MRLM 171700Z 20007KT 5000 SCT040 OVC100 22/22 RMK VIS 3000 DUE LOW ST NW=
200707171800 METAR MRLM 171800Z 22005KT 9000 RA SCT025 BKN100 22/22 A2995 RMK VIS UNL S SW=
200707171900 METAR MRLM 171900Z 20004KT 9999 RA FEW120 OVC140 23/23 A2988 RMK CB DST SE=
200707172000 METAR MRLM 172000Z NIL=
200707172100 METAR MRLM 172100Z 04015KT CAVOK 26/22 A2984 RMK BKN100 FEW140 TRACE SC CI CB RN DST NW N W=
200707172200 METAR MRLM 172200Z 01005KT 9999 DZ FEW090 OVC140 26/22 A2987 RMK CB RN DST NW N=
200707172300 METAR MRLM 172300Z 23006KT CAVOK 25/22 A2989 RMK SCT110 BKN140 CB RN DST NW=
200707180000 METAR MRLM 180000Z 23003KT CAVOK 24/22 A2990 RMK CB RN DST NW FEW110 BKN140=
200707180100 METAR MRLM NIL=
200707180200 METAR MRLM NIL=
200707180300 METAR MRLM NIL=
200707180400 METAR MRLM NIL=
200707180500 METAR MRLM NIL=
200707180600 METAR MRLM NIL=
200707180700 METAR MRLM NIL=
200707180800 METAR MRLM NIL=
200707180900 METAR MRLM NIL=
200707181000 METAR MRLM NIL=
200707181100 METAR MRLM NIL=
200707181200 METAR MRLM 181200Z NIL=
200707181300 METAR MRLM 181300Z 22005KT 9999 SCT025 BKN080 23/21 A2992 RMK DZ QUAD N RN DST E SE=
200707181400 METAR MRLM 181400Z 21005KT 9999 RA BKN025 25/21 A2994 RMK FEW090=
200707181500 METAR MRLM 181500Z 16003KT 9999 SCT016 SCT090 25/22 A2993 RERA RMK CB RN DST N NE E SW LEVE HZY=
200707181600 METAR MRLM 181600Z 23005KT 9999 SCT020 BKN090 27/23 A2994 RMK CB RN DST QUAD E DZ DST E NW=
200707181700 METAR MRLM 181700Z 23004KT 9999 SCT030 SCT090 30/21 A2991 RMK FEW140 CB RN DST NE E SE=
200707181800 METAR MRLM 181800Z 09010KT 9999 FEW033 BKN080 29/23 A2992 RMK CB DST QUAD N RN HZ DST ARND FEW130=
200707181900 METAR MRLM 181900Z 16003KT 9999 FEW022 BKN080 27/23 A2991 RMK DZ DST QUAD W RN DST N NE LEVE HZY=
200707182000 METAR MRLM 182000Z NIL=
200707182100 METAR MRLM 182100Z 28004KT 9999 FEW012 BKN090 26/24 A2982 RMK RERA HZY CBS RN DST S W N=
200707182200 METAR MRLM 182200Z 27008KT CAVOK 27/23 A2988 RMK FEW080 BKN110 FEW270 CBS RN DST S W N=
200707182300 METAR MRLM 182300Z 30005KT CAVOK 27/24 A2990 RMK BKN090 FEW120 FEW270 RN DST S W HZY=
200707190000 METAR MRLM 190000Z 26005KT 9999 FEW020 BKN090 26/24 A2991 RN DST QDS S W TRACE CI FEW130 HZ ARND=
200707190100 METAR MRLM NIL=
200707190200 METAR MRLM NIL=
200707190300 METAR MRLM NIL=
200707190400 METAR MRLM NIL=
200707190500 METAR MRLM NIL=
200707190600 METAR MRLM NIL=
200707190700 METAR MRLM NIL=
200707190800 METAR MRLM NIL=
200707190900 METAR MRLM NIL=
200707191000 METAR MRLM NIL=
200707191100 METAR MRLM NIL=
200707191200 METAR MRLM NIL=
200707191300 METAR MRLM 191300Z 23002KT CAVOK 24/22 A2989 RMK TRACE CU CI SCT090 HZY=
200707191400 METAR MRLM 191400Z 23003KT 9999 FEW028 SCT130 28/23 A2990 RMK HZ ARND=
200707191500 METAR MRLM 191500Z 01007KT 9999 FEW026 SCT110 29/23 A2991 RMK HZY=
200707191600 METAR MRLM 191600Z 36006KT 9999 FEW025 29/24 A2991 RMK HZY FEW AC CI=
200707191700 METAR MRLM 191700Z 01008KT 9999 FEW028 30/24 A2990 RMK FEW280 HZY=
200707191800 METAR MRLM 191800Z 01005KT 9999 FEW030 30/24 A2989 RMK FEW280 TRACE CC HZY=
200707191900 METAR MRLM 191900Z 36009KT 9999 FEW030 SCT280 30/24 A2987 RMK HZY=
200707192000 METAR MRLM 192000Z NIL=
200707192100 METAR MRLM 192100Z 34009KT 9999 FEW030 BKN280 30/24 A2983 RMK CB S SW FEW140 HZ ARND=
200707192200 METAR MRLM 192200Z 35007KT 9999 BKN025 29/24 A2984 RMK FEW140 CB S SW W HZ ARND=
200707192300 METAR MRLM 192300Z 32006KT 9999 BKN023TCU 29/24 A2986 RMK FEW140 FEW280 RN S HZ ARND=
200707200000 METAR MRLM 200000Z 30005KT 9999 SCT018 SCT130 28/25 A2987 RMK CB DST W RN E S FEW280 HZ ARND=
200707200100 METAR MRLM NIL=
200707200200 METAR MRLM NIL=
200707200300 METAR MRLM NIL=
200707200400 METAR MRLM NIL=
200707200500 METAR MRLM NIL=
200707200600 METAR MRLM NIL=
200707200700 METAR MRLM NIL=
200707200800 METAR MRLM NIL=
200707200900 METAR MRLM NIL=
200707201000 METAR MRLM NIL=
200707201100 METAR MRLM NIL=
200707201200 METAR MRLM NIL=
200707201300 METAR MRLM 201300Z 23004KT 9999 SCT025 SCT280 25/23 A2991 RMK TCU RN N NE FEW080 HZ ARND=
200707201400 METAR MRLM 201400Z 21003KT CAVOK 28/24 A2991 RMK SCT090 SCT280 TRACE CU TCU RN N HZ ARND=
200707201500 METAR MRLM 201500Z 03003KT 9999 FEW030 BKN300 29/23 A2991 RMK HZ ARND FEW140=
200707201600 METAR MRLM 201600Z 04004KT 9999 FEW032 BKN300 29/23 A2992 RMK HZ ARND=
200707201700 METAR MRLM 201700Z 03006KT 9999 FEW033 BKN280 30/24 A2990 RMK HZ ARND FEW140=
200707201800 METAR MRLM 201800Z 02007KT 9999 FEW030 BKN280 30/24 A2988 RMK FEW140 HZ ARND=
200707201900 METAR MRLM 201900Z 02008KT 9999 FEW032 BKN280 31/24 A2986 RMK CB SE HZ ARND TRACE AC=
200707202000 METAR MRLM 202000Z NIL=
200707202100 METAR MRLM 202100Z 04007KT 9999 FEW035 OVC280 30/23 A2983 CB S HZY=
200707202200 METAR MRLM NIL=
200707202300 METAR MRLM 202300Z 05005KT 9999 FEW030 OVC280 29/23 A2983 HZY=
200707210000 METAR MRLM 210000Z 03007KT 9999 FEW026 BKN280 29/24 A2984 FEW140 HZY=
200707210100 METAR MRLM NIL=
200707210200 METAR MRLM NIL=
200707210300 METAR MRLM NIL=
200707210400 METAR MRLM NIL=
200707210500 METAR MRLM NIL=
200707210600 METAR MRLM NIL=
200707210700 METAR MRLM NIL=
200707210800 METAR MRLM NIL=
200707210900 METAR MRLM NIL=
200707211000 METAR MRLM NIL=
200707211100 METAR MRLM NIL=
200707211200 METAR MRLM NIL=
200707211300 METAR MRLM 211300Z 23004KT CAVOK 24/22 A2992 SCT110 SCT280 CB RN E HZY=
200707211400 METAR MRLM 211400Z 25002KT CAVOK 28/23 A2993 SCT120 SCT280 TCU NE RN SE=
200707211500 METAR MRLM 211500Z 07004KT 9999 FEW025 BKN110 28/24 A2995 FEW280 CB N NE DZ SE HZY=
200707211600 METAR MRLM 211600Z 03003KT 9999 FEW030 BKN110 24/23 A2994 CB RN N HZY=
200707211700 METAR MRLM 211700Z NIL=
200707211800 METAR MRLM 211800Z 02009KT 9999 FEW028 BKN120 30/24 A2991 CB NW N SW HZY=
200707211900 METAR MRLM 211900Z 22007KT 9999 FEW030 SCT130 BKN280 29/23 A2990 CB S SW W N NE RN SW W HZY=
200707212000 METAR MRLM 212000Z NIL=
200707212100 METAR MRLM 212100Z 02010KT 9999 FEW035 BKN280 30/23 A2985 RMK CB DST SW NE HZ ARND=
200707212200 METAR MRLM 212200Z 02010KT 9999 FEW030 BKN280 30/24 A2986 RMK CB DST S W RN DST S SW=
200707212300 METAR MRLM 212300Z 02010KT 9999 FEW028 SCT140 29/24 A2987 RMK CB RN DST S W=
200707220000 METAR MRLM 220000Z 05003KT 9999 SCT022 SCT140 28/24 A2989 RMK CBS RN DST S W CB RN ST E TRACE CI=
200707220100 METAR MRLM NIL=
200707220200 METAR MRLM NIL=
200707220300 METAR MRLM NIL=
200707220400 METAR MRLM NIL=
200707220500 METAR MRLM NIL=
200707220600 METAR MRLM NIL=
200707220700 METAR MRLM NIL=
200707220800 METAR MRLM NIL=
200707220900 METAR MRLM NIL=
200707221000 METAR MRLM NIL=
200707221100 METAR MRLM NIL=
200707221200 METAR MRLM NIL=
200707221300 METAR MRLM 221300Z 25004KT CAVOK 25/22 A2992 RMK FEW090 BKN140 CB DST RN N NE E HZ LGT ARND=
200707221400 METAR MRLM 221400Z 26004KT 9999 FEW012 SCT090 BKN140 27/22 A2994 RMK CB RN DST N E=
200707221500 METAR MRLM 221500Z 36010KT 9999 SCT025 SCT110 27/23 A2995 RMK RN N E CB NE E=
200707221600 METAR MRLM 221600Z 35010KT 9999 VCSH BKN018 27/23 A2995 RMK 8000 N DUE VCSH TCU RN DST DST W FEWAC AS=
200707221700 METAR MRLM 221700Z 36006KT 9999 SCT028 SCT120 27/22 A2995 RMK RN DST ARND=
200707221800 METAR MRLM 221800Z 01005KT 9999 RA FEW028 BKN090 27/22 A2993 RMK CB RN ARND=
200707221900 METAR MRLM 221900Z 34004KT 9999 DZ FEW022 SCT090 BKN140 27/23 A2991 RMK CB RN DST ARND=
200707222000 METAR MRLM NIL=
200707222100 METAR MRLM 222100Z 03002KT 9999 FEW026 BKN090 27/22 A2988 RMK FEW140 CB RN DST SW W=
200707222200 METAR MRLM 222200Z 06002KT 9999 SCT028 BKN090 27/22 A2989 RMK CB RN DST QUAD S W N FEW140=
200707222300 METAR MRLM 222300Z 06002KT 9999 FEW028 BKN090 27/22 A2989 RMK CB RN DST QUAD S W N FEW140=
200707230000 METAR MRLM 230000Z 00000KT 9999 DZ BKN090 SCT140 26/24 A2990 RMK CB RN DST QUAD S W N TRACE SC CI=
200707230100 METAR MRLM NIL=
200707230200 METAR MRLM NIL=
200707230300 METAR MRLM NIL=
200707230400 METAR MRLM NIL=
200707230500 METAR MRLM NIL=
200707230600 METAR MRLM NIL=
200707230700 METAR MRLM NIL=
200707230800 METAR MRLM NIL=
200707230900 METAR MRLM NIL=
200707231000 METAR MRLM NIL=
200707231100 METAR MRLM NIL=
200707231200 METAR MRLM 231200Z NIL=
200707231300 METAR MRLM 231300Z 23005KT CAVOK 23/321 A2991 RMK SCT120 FEW280 CB DST NW/NE/S RN DST NE=
200707231400 METAR MRLM 231400Z 22004KT CAVOK 27/22 A2992 RMK SCT130 SCT280 CB/RN DST QUAND N TRAZAS CU=
200707231500 METAR MRLM 231500Z 03004KT 9999 FEW032 SCT280 29/22 A2993 CB RN DST N FEW AC 100=
200707231600 METAR MRLM 231600Z 02006KT 9999 FEW035 SCT130 29/22 A2993 FEW270 CB RN DST N=
200707231700 METAR MRLM 231700Z 02006KT 9999 FEW035 SCT280 29/22 A2993 RMK FEW130 CB DST NW NE RN DST NE=
200707231800 METAR MRLM 231800Z 03006KT 9999 FEW022 SCT280 30/23 A2991 RMK FEW130 CB DST NE LEVE HZ ARND=
200707231900 METAR MRLM 231900Z 03008KT 9999 FEW030 BKN270 29/24 A2988 RMK CB DST S SE NW N TRACE SC LEVE HZ ARND=
200707232000 METAR MRLM 232000Z NIL=
200707232100 METAR MRLM 232100Z 03009KT 9999 FEW032 BKN280 30/23 A2983 RMK CB DST S QD HZY=
200707232200 METAR MRLM 232200Z 02009KT 9999 SCT028 BKN280 29/23 A2982 RMK CB DST S QD=
200707232300 METAR MRLM 232300Z 03006KT 9999 BKN028 SCT280 29/23 A2982 RMK CB DST W S=
200707240000 METAR MRLM 240000Z 06003KT 9999 BKN025 SCT280 28/23 A2985 CBS DST QDS S W RN DST S SW=
200707240100 METAR MRLM NIL=
200707240200 METAR MRLM NIL=
200707240300 METAR MRLM NIL=
200707240400 METAR MRLM NIL=
200707240500 METAR MRLM NIL=
200707240600 METAR MRLM NIL=
200707240700 METAR MRLM NIL=
200707240800 METAR MRLM NIL=
200707240900 METAR MRLM NIL=
200707241000 METAR MRLM NIL=
200707241100 METAR MRLM NIL=
200707241200 METAR MRLM 241200Z NIL=
200707241300 METAR MRLM 241300Z 22005KT 9999 FEW015 25/22 A2989 RMK FEW150 FEW300 TCU NW N NE=
200707241400 METAR MRLM 241400Z 18003KT 9999 FEW030 SCT130 29/22 A2990=
200707241500 METAR MRLM 241500Z 02003KT 9999 FEW030 BKN120 29/23 A2990 RMK TSTM DSTE TRACE CI CB DST NW=
200707241600 METAR MRLM 241600Z 06004KT 9999 FEW028 SCT120 29/24 A2991 RMK FEW280 CB DST NW NE RN DST NE=
200707241700 METAR MRLM 241700Z 08005KT 9999 FEW028 SCT280 30/24 A2988 RMK CB DST NW=
200707241800 METAR MRLM 241800Z 06009KT 9999 FEW030 BKN280 30/24 A2985 RMK CB DST E HZY=
200707241900 METAR MRLM 241900Z 07010KT 9999 FEW030 BKN280 30/24 A2984 RMK CB DST NE E=
200707242000 METAR MRLM 242000Z NIL=
200707242100 METAR MRLM 242100Z 06008KT 9999 FEW030 BKN280 30/24 A2978 RMK CB DST S W HZ ARND=
200707242200 METAR MRLM 242200Z 06009KT 9999 SCT025 BKN280 30/23 A2979 RMK CB S=
200707242300 METAR MRLM 242300Z 08008KT 9999 BKN030 SCT280 30/24 A2979 RMK CB S SW W HZ ARND=
200707250000 METAR MRLM 250000Z 12005KT 9999 FEW030 BKN280 29/23 A2981 RMK CB DST S SW W HZ ARND=
200707250100 METAR MRLM NIL=
200707250200 METAR MRLM NIL=
200707250300 METAR MRLM NIL=
200707250400 METAR MRLM NIL=
200707250500 METAR MRLM NIL=
200707250600 METAR MRLM NIL=
200707250700 METAR MRLM NIL=
200707250800 METAR MRLM NIL=
200707250900 METAR MRLM NIL=
200707251000 METAR MRLM NIL=
200707251100 METAR MRLM NIL=
200707251200 METAR MRLM 251200Z NIL=
200707251300 METAR MRLM 251300Z 21006KT 9999 FEW015 SCT120 BKN270 25/22 A2987 RMK CB RN DST N NE E HZ ARND=
200707251400 METAR MRLM 251400Z 23002KT 9999 FEW015 SCT090 BKN270 27/23 A2990 TCU RN DST N HZ ARND=
200707251500 METAR MRLM 251500Z 08003KT 9999 FEW028 BKN280 29/23 A2992 RMK CB RN NE HZ ARND FEW140=
200707251600 METAR MRLM 251600Z 04006KT 9999 FEW015 BKN025 29/23 A2984 RMK CB RN DST N E TSTM NE=
200707251700 METAR MRLM 251700Z 04010KT 9999 VCSH BKN025 28/24 A2994 RMK FEW090 CB RN N E VIS NE E 8000MTS=
200707251800 METAR MRLM 251800Z 07027KT 1000 TSRA SCT010CB BKN015 24/23 A2994=
200707251900 METAR MRLM 251900Z 21005KT 9999 TSRA FEW002 SCT015CB SCT030 BKN090 23/23 A2993=
200707252000 METAR MRLM 252000Z 23007KT 9999 FEW006 SCT090 BKN140 24/23 A2987 RETS CB RN W N=
200707252100 METAR MRLM 252100Z 13004KT CAVOK 25/23 A2984 SCT090 BKN140 TRAZAS SCT CB RN N=
200707252200 METAR MRLM 252200Z 25006KT CAVOK 25/23 A2981 SCT090 BKN140 CB RN W NW=
200707252300 METAR MRLM 252300Z 35009KT CAVOK 26/22 A2984 SCT100 BKN140 CB RN NW W=
200707260000 METAR MRLM 260000Z 23004KT CAVOK 25/23 A2987 FEW100 BKN270 CB NW TRAZAS SCT=
200707260100 METAR MRLM NIL=
200707260200 METAR MRLM NIL=
200707260300 METAR MRLM NIL=
200707260400 METAR MRLM NIL=
200707260500 METAR MRLM NIL=
200707260600 METAR MRLM NIL=
200707260700 METAR MRLM NIL=
200707260800 METAR MRLM NIL=
200707260900 METAR MRLM NIL=
200707261000 METAR MRLM NIL=
200707261100 METAR MRLM NIL=
200707261200 METAR MRLM NIL=
200707261300 METAR MRLM 261300Z 22005KT CAVOK 22/20 A2989 OVC280 CB RN E HZY=
200707261400 METAR MRLM 261400Z 20004KT CAVOK 25/22 A2992 OVC270 CB RN NE E HZY=
200707261500 METAR MRLM 261500Z 20004KT CAVOK 27/23 A2992 SCT150 BKN270 CB N RN NE E=
200707261600 METAR MRLM 261600Z 05003KT CAVOK 28/22 A2993 FEW120 SCT150 BKN270 CB RN NE E=
200707261700 METAR MRLM 261700Z 06004KT CAVOK 28/21 A2993 BKN090 SCT150 CB RN NE E SE TRAZAS SCT=
200707261800 METAR MRLM 261800Z 06009KT 9999 SCT035 BKN090 28/23 A2993 CB RN NE SE S=
200707261900 METAR MRLM 261900Z 10007KT 9999 FEW028 BKN090 29/23 A2989 SCT150 CB RN N NE=
200707262000 METAR MRLM 262000Z NIL=
200707262100 METAR MRLM 262100Z 04006KT CAVOK 29/23 A2979 RMK TRACE CU AC CB DST SW NE=
200707262200 METAR MRLM 262200Z 06010KT 9999 FEW035 SCT140 BKN270 30/23 A2981 RMK CB DST NNW NNW HZ LGT ARND=
200707262300 METAR MRLM 262300Z 05007KT 9999 FEW025 SCT140 BKN270 29/24 A2986 RMK CB DST NW N W=
200707270000 METAR MRLM 270000Z 09007KT 9999 SCT023 SCT140 28/24 A2988 RMK CB DST S W NW N NE SCT270=
200707270100 METAR MRLM NIL=
200707270200 METAR MRLM NIL=
200707270300 METAR MRLM NIL=
200707270400 METAR MRLM NIL=
200707270500 METAR MRLM NIL=
200707270600 METAR MRLM NIL=
200707270700 METAR MRLM NIL=
200707270800 METAR MRLM NIL=
200707270900 METAR MRLM NIL=
200707271000 METAR MRLM NIL=
200707271100 METAR MRLM NIL=
200707271200 METAR MRLM 271200Z 25004KT 9999 FEW025 SCT080 23/23 A2987 RMK TCU WNW NE HZ ARND=
200707271300 METAR MRLM 271300Z 20004KT 9999 FEW025 BKN080 25/22 A2989 RMK TCU DST N W WNW HZ LG ARND=
200707271400 METAR MRLM 271400Z 30004KT 9999 FEW025 SCT090 28/22 A2990 RMK HZ LGT ARND=
200707271500 METAR MRLM 271500Z 04003KT 9999 FEW030 BKN090 28/22 A2991 RMK HZ LGT ARND=
200707271600 METAR MRLM 271600Z 02004KT 9999 FEW030 BKN090 30/24 A2991 RMK HZ LGT ARND=
200707271700 METAR MRLM 271700Z 02007KT 9999 FEW030 SCT090 30/24 A2990 RMK TCU DST NE HZ LGT ARND=
200707271800 METAR MRLM 271800Z 02008KT 9999 FEW030 SCT280 30/23 A2987 RMK TCU DST SW W NW HZ ARND LGT=
200707271900 METAR MRLM 271900Z 02009KT 9999 FEW028 SCT090 30/24 A2985 RMK CB DST SW W TRACE CI HZ LGT ARND=
200707272000 METAR MRLM 272000Z NIL=
200707272100 METAR MRLM 272100Z 01005KT 9999 SCT030 SCT250 29/24 A2980 RMK CB DST SW W HZY=
200707272200 METAR MRLM 272200Z NIL=
200707272300 METAR MRLM 272300Z 00000KT 9999 FEW026 BKN230 29/24 A2982 RMK CB RN DST S SW W LEVE HZ ARND=
200707280000 METAR MRLM 280000Z 06003KT 9999 FEW026 SCT140 29/24 A2982 RMK CB RN DST S SW W KZ ARND=
200707280100 METAR MRLM NIL=
200707280200 METAR MRLM NIL=
200707280300 METAR MRLM NIL=
200707280400 METAR MRLM NIL=
200707280500 METAR MRLM NIL=
200707280600 METAR MRLM NIL=
200707280700 METAR MRLM NIL=
200707280800 METAR MRLM NIL=
200707280900 METAR MRLM NIL=
200707281000 METAR MRLM NIL=
200707281100 METAR MRLM NIL=
200707281200 METAR MRLM NIL=
200707281300 METAR MRLM 281300Z 21005KT 9999 FEW025 BKN080 24/22 A2985 RMK CB DST NW RN DST NW N NE=
200707281400 METAR MRLM 281400Z 20006KT 9999 DZ SCT025 BKN080 25/23 A2987 RMK RN DST SW W NW=
200707281500 METAR MRLM 281500Z 22007KT 9999 FEW030 SCT230 29/23 A2987 REDZ RMK TRACE AC HZY=
200707281600 METAR MRLM 281600Z 03004KT 9999 FEW030 SCT230 30/24 A2985 RMK TCU DST NE HZ ARND=
200707281700 METAR MRLM 281700Z 02006KT 9999 FEW030 BKN230 30/24 A2984 RMK CB DST NE ENE HZ ARND=
200707281800 METAR MRLM 281800Z 36008KT 9999 FEW030 BKN230 30/25 A2982 RMK CB DST N NE=
200707281900 METAR MRLM 281900Z 01007KT 9999 FEW028 BKN230 31/24 A2979 RMK CB DST ARND HZ ARND=
200707282000 METAR MRLM 282000Z NIL=
200707282100 METAR MRLM 282100Z 34016KT 9999 FEW025 BKN230 30/24 A2977 CBS RN ARND RN SW W HZY=
200707282200 METAR MRLM 282200Z 28006KT 9999 FEW025 BKN230 30/24 A2975 RMK CB DST S SW W HZY=
200707282300 METAR MRLM 282300Z 26005KT 9999 FEW025 BKN230 28/24 A2977 CB DST S W HZY=
200707290000 METAR MRLM 290000Z 29003KT 9999 FEW030 SCT090 28/24 A2979 RMK SCT230 CB DST SW HZY=
200707290100 METAR MRLM NIL=
200707290200 METAR MRLM NIL=
200707290300 METAR MRLM NIL=
200707290400 METAR MRLM NIL=
200707290500 METAR MRLM NIL=
200707290600 METAR MRLM NIL=
200707290700 METAR MRLM NIL=
200707290800 METAR MRLM NIL=
200707290900 METAR MRLM NIL=
200707291000 METAR MRLM NIL=
200707291100 METAR MRLM NIL=
200707291200 METAR MRLM NIL=
200707291300 METAR MRLM 291300Z 22005KT CAVOK 24/24 A2998 RMK FEW090 SCT140 BKN280 CB RN DST N=
200707291400 METAR MRLM 291400Z 27003KT CAVOK 27/24 A2984 RMK CB RN DST N BKN100 SCT260=
200707291500 METAR MRLM 291500Z 27008KT CAVOK 29/23 A2984 RMK FEW140 BKN280 TRACE CU CB RN N HZY=
200707291600 METAR MRLM 291600Z 31011KT 9999 FEW040 BKN280 30/22 A2985 RMK CB N=
200707291700 METAR MRLM 291700Z 30007KT 9999 FEW040 BKN280 30/22 A2985 HZY=
200707291800 METAR MRLM 291800Z 35008KT 9999 SCT035 BKN280 31/23 A2984 RMK CB DST S HZY=
200707291900 METAR MRLM 291900Z 35009KT 9999 FEW028 BKN280 30/24 A2981 RMK CB DST S HZY=
200707292000 METAR MRLM 292000Z NIL=
200707292100 METAR MRLM 292100Z 36008KT 9999 FEW028 BKN280 30/24 A2979 RMK CB DST S HZ ARND=
200707292200 METAR MRLM 292200Z 35005KT 9999 FEW025 SCT250 30/22 A2972=
200707292300 METAR MRLM 292300Z 35002KT 9999 FEW025 SCT120 BKN270 29/24 A2989 RMK CB RN S W HZ ARND=
200707300000 METAR MRLM 300000Z 34006KT 9999 FEW025 SCT130 BKN270 28/23 A2980 RMK CB RN DST S W HZ ARND=
200707300100 METAR MRLM NIL=
200707300200 METAR MRLM NIL=
200707300300 METAR MRLM NIL=
200707300400 METAR MRLM NIL=
200707300500 METAR MRLM NIL=
200707300600 METAR MRLM NIL=
200707300700 METAR MRLM NIL=
200707300800 METAR MRLM NIL=
200707300900 METAR MRLM NIL=
200707301000 METAR MRLM NIL=
200707301100 METAR MRLM NIL=
200707301200 METAR MRLM NIL=
200707301300 METAR MRLM 301300Z 20005KT 9999 FEW010 SCT070 24/23 A2982 RMK FEW140 FEW250 CB RN N E TSTM E=
200707301400 METAR MRLM 301400Z 22003KT 3000 RN OVC012 25/23 A2986 RETS=
200707301500 METAR MRLM 301500Z 23005KT 9999 +DZ FEW008 SCT030 BKN090 25/23 A2988 VIS N E 8000=
200707301600 METAR MRLM 301600Z 25006KT 9999 +DZ FEW008 BKN025 24/23 A2987 RMK FEW120 CB RN ARND=
200707301700 METAR MRLM 301700Z 05008KT 9999 FEW018 SCT025 BKN090 27/23 A2987 RMK CB RN HZ ARND=
200707301800 METAR MRLM 301800Z 24009KT 9999 FEW030 BKN090 29/23 A2985 RMK CB RN DST N E HZ ARND=
200707301815 METAR MRLM 301815Z 29008KT 070V290 9999 FEW032 BKN100 30/23 A2985 RMK CB RN DST N E HZ ARND=
200707301900 METAR MRLM 301900Z 29008KT 9999 FEW040 SCT130 BKN270 31/23 A2982 RMK CB RN N E HZ ARND=
200707302000 METAR MRLM 302000Z NIL=
200707302100 METAR MRLM 302100Z 36010KT 9999 FEW020 SCT140 BKN270 29/25 A2979 CB/HZ ARND RN E=
200707302200 METAR MRLM 302200Z 02009KT 9999 FEW022 BKN140 28/24 A2979 RN E HZY=
200707302300 METAR MRLM 302300Z 12003KT 9999 +DZ OVC120 28/24 A2979=
200707310000 METAR MRLM 310000Z 04006KT 9999 FEW020 OVC120 28/24 A2980 CB RN S CB NW HZ REDZ=
200707310100 METAR MRLM NIL=
200707310200 METAR MRLM NIL=
200707310300 METAR MRLM NIL=
200707310400 METAR MRLM NIL=
200707310500 METAR MRLM NIL=
200707310600 METAR MRLM NIL=
200707310700 METAR MRLM NIL=
200707310800 METAR MRLM NIL=
200707310900 METAR MRLM NIL=
200707311000 METAR MRLM NIL=
200707311100 METAR MRLM NIL=
200707311200 METAR MRLM 311200Z 20003KT CAVOK 24/23 A2980 SCT100 SCT250 HZY=
200707311300 METAR MRLM 311300Z 00000KT CAVOK 27/24 A2982 SCT100 SCT250 HZY=
200707311400 METAR MRLM 311400Z 16003KT 9999 FEW040 BKN080 28/24 A2984 CB NW NE E RN NE HZY=
200707311500 METAR MRLM 311500Z 04003KT 9999 -DZ SCT040 SCT080 28/24 A2985 CB RN NW N NE HZY=
200707311600 METAR MRLM 311600Z 03005KT 9999 -DZ BKN035 SCT080 28/25 A2986 CB RN NW N NE HZY=
200707311700 METAR MRLM 311700Z 03006KT 9999 BKN035 SCT080 28/25 A2985 REDZ RN NW N E HZY=
200707311800 METAR MRLM 311800Z 05003KT 9999 FEW028 BKN080 28/24 A2983 HZY=
200707311900 METAR MRLM 311900Z 06005KT 9999 FEW025 BKN230 29/25 A2979 HZY=
200707312000 METAR MRLM 312000Z NIL=
200707312100 METAR MRLM 312100Z 04005KT 9999 FEW025 BKN230 29/25 A2976 RMK TCU DST S SSW HZ ARND=
200707312200 METAR MRLM 312200Z 04004KT 9999 FEW030 BKN230 29/24 A2975 RMK TCU DST SW HZ ARND=
200707312300 METAR MRLM 312300Z 05003KT 9999 FEW024 BKN230 29/24 A2977 RMK CB DST SW HZ ARND=
200708010000 METAR MRLM 010000Z 36004KT 9999 FEW025 BKN230 28/24 A2979 RMK CB DST SW W HZ ARND TRACE AC=
200708010100 METAR MRLM NIL=
200708010200 METAR MRLM NIL=
200708010300 METAR MRLM NIL=
200708010400 METAR MRLM NIL=
200708010500 METAR MRLM NIL=
200708010600 METAR MRLM NIL=
200708010700 METAR MRLM NIL=
200708010800 METAR MRLM NIL=
200708010900 METAR MRLM NIL=
200708011000 METAR MRLM NIL=
200708011100 METAR MRLM NIL=
200708011200 METAR MRLM 011200Z 22003KT 9999 FEW028 SCT230 23/22 A2980 RMK CB DST W NW TRACE AC HZ ARND=
200708011300 METAR MRLM 011300Z 22004KT CAVOK 26/23 A2981 RMK BKN230 HZ ARND=
200708011400 METAR MRLM 011400Z 28003KT CAVOK 29/23 A2984 RMK BKN230 TRACE CU AC HZ ARND=
200708011500 METAR MRLM 011500Z 32004KT 9999 FEW025 BKN230 31/23 A2984 RMK CB DST E TCU NW HZ ARND=
200708011600 METAR MRLM 011600Z 35006KT 9999 FEW025 BKN230 30/24 A2982 RMK CB DST E TCU DST WNW HZ ARND=
200708011700 METAR MRLM 011700Z 35010KT 9999 FEW025 BKN230 31/24 A2982 RMK TCU DST NE HZ ARND=
200708011800 METAR MRLM 011800Z 02007KT 9999 FEW025 BKN230 30/24 A2981 RMK CB DST ARND TRACE AC HZ ARND=
200708011900 METAR MRLM 011900Z 010067KT 9999 FEW025 BKN230 30/25 A2979 RMK CB DST S TRACE AC HZ ARND=
200708012000 METAR MRLM NIL=
200708012100 METAR MRLM 012100Z 03006KT 9999 FEW025 BKN230 30/25 A2975 RMK CB DST S SW HZY=
200708012200 METAR MRLM 012200Z 03008KT 9999 FEW025 BKN230 30/25 A2975 RMK CB DST S SW TRACE AC HZY=
200708012300 METAR MRLM 012300Z 04005KT 9999 FEW025 BKN230 30/25 A2976 RMK LEVE HZY=
200708020000 METAR MRLM 020000Z 05003KT 9999 SCT025 SCT230 29/24 A2976 RMK HZ ARND TCU DST WSW=
200708020100 METAR MRLM NIL=
200708020200 METAR MRLM NIL=
200708020300 METAR MRLM NIL=
200708020400 METAR MRLM NIL=
200708020500 METAR MRLM NIL=
200708020600 METAR MRLM NIL=
200708020700 METAR MRLM NIL=
200708020800 METAR MRLM NIL=
200708020900 METAR MRLM NIL=
200708021000 METAR MRLM NIL=
200708021100 METAR MRLM NIL=
200708021200 METAR MRLM 021200Z NIL=
200708021300 METAR MRLM 021300Z 25005KT 9999 VCSH BKN015 SCT025 24/222 A2988 RMK 8000 QUAD N CB DST QUAD N E TSTM NE=
200708021400 METAR MRLM 021400Z 14009KT 6000 TSRA FEW007 SCT010CB BKN015 23/22 A2991 RMK CB QUAD N E=
200708021500 METAR MRLM 021500Z 18007KT 5000 -RA BKN015 SCT090 22/21 A2994 RETS RMK CB DST N=
200708021600 METAR MRLM 021600Z 18010KT 9999 +DZ FEW020 SCT090 BKN120 24/22 A2992 RMK CB DST QUAD N E=
200708021700 METAR MRLM 021700Z 20005KT 9999 DZ FEW025 OVC120 25/22 A2991 RMK CB DST QUAD N E=
200708021800 METAR MRLM 021800Z 19005KT 9999 -DZ FEW020 OVC120 26/22 A2988 RMK CB RN DST QUAD N E=
200708021900 METAR MRLM 021900Z 23004KT 9999 DZ FEW100 OVC130 26/23 A2983 RMK CB RN DST QUAD N TRACE CU=
200708022000 METAR MRLM 022000Z NIL=
200708022100 METAR MRLM 022100Z 03013KT 9999 DZ FEW026 OVC140 27/22 A2983 CBS RN DST N FEW120=
200708022200 METAR MRLM 022200Z 08005KT 9999 FEW025 SCT140 BKN270 27/22 A2982 RMK FEW AC CB RN DST NE NW=
200708022300 METAR MRLM 022300Z 19005KT 9999 FEW016 BKN120 26/23 A2982 RMK CBS RN DST NE N FEW270=
200708030000 METAR MRLM 030000Z 20006KT 9999 FEW015 BKN090 25/22 A2982 RMK CB RN DST NE FEW250=
200708030100 METAR MRLM NIL=
200708030200 METAR MRLM NIL=
200708030300 METAR MRLM NIL=
200708030400 METAR MRLM NIL=
200708030500 METAR MRLM NIL=
200708030600 METAR MRLM NIL=
200708030700 METAR MRLM NIL=
200708030800 METAR MRLM NIL=
200708030900 METAR MRLM NIL=
200708031000 METAR MRLM NIL=
200708031100 METAR MRLM NIL=
200708031200 METAR MRLM NIL=
200708031300 METAR MRLM 031300Z 23003KT CAVOK 27/22 A2986 RMK SCT140 SCT300 HZY=
200708031400 METAR MRLM 031400Z 32009KT 9999 FEW025 BKN130 28/22 A2988 RMK FEW300 HZY=
200708031500 METAR MRLM 031500Z 28006KT 9999 FEW035 SCT090 BKN300 29/22 A2989 RMK HZ ARND=
200708031600 METAR MRLM 031600Z 31006KT 9999 FEW045 SCT140 BKN280 30/20 A2989 HZY=
200708031700 METAR MRLM 031700Z 35008KT 9999 FEW045 BKN090 31/22 A2988 HZY RN E DST=
200708031800 METAR MRLM 031800Z 35005KT 9999 FEW040 BKN090 30/22 A2987 RMK CBS DST NE E RN DST E SE SW TRACE CI=
200708031900 METAR MRLM 031900Z 36009KT 9999 BKN038 30/23 A2985 RMK FEW110 TRACE CI CB DST S HZY=
200708032000 METAR MRLM 032000Z NIL=
200708032100 METAR MRLM 032100Z 34009KT 9999 SCT032 SCT090 30/24 A2981 RMK CB DST E SE S SW RN ESE HZ ARND FEW280=
200708032200 METAR MRLM 032200Z 34010KT 99999 SCT028 SCT130 30/24 A2981 RMK CB RN E FEW280 HZ ARND=
200708032300 METAR MRLM 032300Z 32008KT 9999 SCT030 SCT130 30/23 A2983 RMK FEW280 CB RN E S HZ ARND=
200708040000 METAR MRLM 040000Z 31006KT 9999 SCT024 BKN140 29/24 A2984 RMK FEW280 CB RN DST E S HZ LEVE ARND=
200708040100 METAR MRLM NIL=
200708040200 METAR MRLM NIL=
200708040300 METAR MRLM NIL=
200708040400 METAR MRLM NIL=
200708040500 METAR MRLM NIL=
200708040600 METAR MRLM NIL=
200708040700 METAR MRLM NIL=
200708040800 METAR MRLM NIL=
200708040900 METAR MRLM NIL=
200708041000 METAR MRLM NIL=
200708041100 METAR MRLM NIL=
200708041200 METAR MRLM 041200Z NIL=
200708041300 METAR MRLM 041300Z 20003KT 9999 FEW025 BKN240 26/23 A2987 RMK FEW100 CB E SE S HZ ARND=
200708041400 METAR MRLM 041400Z 19004KT 9999 FEW030 BKN240 26/23 A2988 RMK CB RN NE E TCU NW HZ ARND=
200708041500 METAR MRLM 041500Z 20004KT CAVOK 27/23 A2987 RMK OVC230 HZ ARND=
200708041600 METAR MRLM 041600Z 08003KT CAVOK 28/24 A2988 RMK OVC230 TRACE AC AS HZ ARND=
200708041700 METAR MRLM 041700Z 04004KT 9999 FEW030 BKN240 29/24 A2986 RMK TRACE AC HZ ARND=
200708041800 METAR MRLM 041800Z 06006KT 9999 FEW030 BKN240 30/22 A2985 RMK FEW100 HZ ARND=
200708041900 METAR MRLM 041900Z 05004KT 9999 FEW030 SCT100 30/22 A2983 RMK CB RN NE SCT240 HZ ARND=
200708042000 METAR MRLM 042000Z NIL=
200708042100 METAR MRLM 042100Z 04007KT 9999 FEW030 BKN090 29/24 A2981 FEW240 HZY=
200708042300 METAR MRLM NIL=
200708050000 METAR MRLM 050000Z 00000KT 9999 FEW030 BKN120 28/24 A2982 CB S SW W HZY=
200708050100 METAR MRLM NIL=
200708050200 METAR MRLM NIL=
200708050300 METAR MRLM NIL=
200708050400 METAR MRLM NIL=
200708050500 METAR MRLM NIL=
200708050600 METAR MRLM NIL=
200708050700 METAR MRLM NIL=
200708050800 METAR MRLM NIL=
200708050900 METAR MRLM NIL=
200708051000 METAR MRLM NIL=
200708051100 METAR MRLM NIL=
200708051200 METAR MRLM NIL=
200708051300 METAR MRLM 051300Z 21004KT 9999 FEW028TCU SCT240 26/24 A2988 RMK TCU NW/N/TRAZAS AC HZ ARND=
200708051400 METAR MRLM 051400Z 11004KT 9999 FEW028 SCT250 30/24 A2990 CB NW NE RN NE FEW100 HZY=
200708051500 METAR MRLM 051500Z 08006KT 9999 FEW028 SCT240 30/24 A2990 HZY=
200708051600 METAR MRLM 051600Z 07007KT 9999 FEW028 SCT240 30/25 A2990 CB NW NE SE FEW100 HZY=
200708051700 METAR MRLM 051700Z 08009KT 9999 FEW028 BKN240 31/24 A2989 TCU ARND HZY=
200708051800 METAR MRLM NIL=
200708051900 METAR MRLM 051900Z 08008KT 9999 FEW028 BKN240 30/25 A2873 CB SE TCU SW W HZY=
200708052000 METAR MRLM 052000Z NIL=
200708052100 METAR MRLM 052100Z 05011KT 9999 FEW028 BKN250 30/25 A2983 RMK CB DST ARND FEW100 HZ ARND=
200708052200 METAR MRLM 052200Z 06008KT 9999 FEW028 BKN250 30/24 A2981 RMK CB HZ DST ARND=
200708052300 METAR MRLM 052300Z 06006KT 9999 FEW025 BKN250 30/25 A2983 RMK CB DST S SW=
200708060000 METAR MRLM 060000Z 03003KT 9999 FEW025 BKN240 29/24 A2985 RMK CB DST S FEW090=
200708060100 METAR MRLM NIL=
200708060200 METAR MRLM NIL=
200708060300 METAR MRLM NIL=
200708060400 METAR MRLM NIL=
200708060500 METAR MRLM NIL=
200708060600 METAR MRLM NIL=
200708060700 METAR MRLM NIL=
200708060800 METAR MRLM NIL=
200708060819 METAR MRLM 060819Z 04005KT 9999 FEW030 BKN110 30/23 A2986 RN DST NE E HZ ARND=
200708060900 METAR MRLM NIL=
200708061000 METAR MRLM NIL=
200708061100 METAR MRLM NIL=
200708061200 METAR MRLM NIL=
200708061300 METAR MRLM 061300Z 24004KT 9999 BKN020 24/22 A2992 RMK CB RN DIST NE E FEW140=
200708061400 METAR MRLM 061400Z 27004KT 9999 -DZ SCT025 BKN130 25/22 A2989 CB RN=
200708061500 METAR MRLM NIL=
200708061600 METAR MRLM 061600Z 18003KT 9999 SCT020 SCT090 28/23 A2992 DZ E SE HZ ARND=
200708061700 METAR MRLM 061700Z 24002KT 9999 SCT020 SCT090 30/23 A2990=
200708061800 METAR MRLM 061800Z 04005KT 9999 FEW030 BKN110 2923 A2988 DZ E HZ ARND FEW CI=
200708061900 METAR MRLM NIL=
200708062000 METAR MRLM 062000Z NIL=
200708062100 METAR MRLM 062100Z 09005KT 9999 SCT030 SCT120 29/24 A2984 RMK FEW270 CB RN DST E S LEVE HZ ARND=
200708062200 METAR MRLM 062200Z 10007KT 9999 FEW028 BKN110 29/24 A2985 RMK CB RN DST QUAD E S LEVE HZ ARND=
200708062300 METAR MRLM 062300Z 14003KT 9999 FEW023 BKN090 28/24 A2987 RMK FEW140 FEW270 CB RN DST QUAD E S=
200708070000 METAR MRLM 070000Z 16004KT CAVOK 27/24 A2989 RMK BKN090 FEW260 CB DST QUAD E S HZ LEVE ARND=
200708070100 METAR MRLM NIL=
200708070200 METAR MRLM NIL=
200708070300 METAR MRLM NIL=
200708070400 METAR MRLM NIL=
200708070500 METAR MRLM NIL=
200708070600 METAR MRLM NIL=
200708070700 METAR MRLM NIL=
200708070800 METAR MRLM NIL=
200708070900 METAR MRLM NIL=
200708071000 METAR MRLM NIL=
200708071100 METAR MRLM NIL=
200708071200 METAR MRLM 071200Z NIL=
200708071300 METAR MRLM 071300Z 22004KT 9999 FEW020 BKN090 25/22 A2988 RMK DZ DST N NE HZ ARND=
200708071400 METAR MRLM 071400Z 22005KT CAVOK 26/23 A2989 FEW090 BKN110 FEW150 TCU RN DST N NE LEVE HZ ARND=
200708071500 METAR MRLM 071500Z 32008KT 9999 FEW030 BKN110 29/23 A2990 RMK CB RN DST N NE E TRACE CI LEVE HZ ARND=
200708071600 METAR MRLM 071600Z 32012KT 9999 SCT034 BKN110 30/23 A2991 RMK TRACE CI LEVE HZ ARND DZ NE=
200708071700 METAR MRLM 071700Z 31011KT 9999 FEW030 BKN110 29/23 A2990 RMK TRCE CI LEVE HZ ARND=
200708071800 METAR MRLM 071800Z 32011KT 9999 FEW032 BKN110 30/24 A2988 RMK TRACE CI LEVE HZ ARND=
200708071900 METAR MRLM 071900Z 36013KT 9999 FEW034 BKN130 30/24 A2987 RMK CB DST S SW W RN DST SW LEVE HZ ARND FEW300=
200708072000 METAR MRLM 072000Z 08006KT 9999 FEW015TCU SCT035 BKN120 26/18 A2996 RMK SHRA DST NW NE=
200708072100 METAR MRLM 072100Z 03009KT 9999 FEW032 BKN140 29/23 A2983 CB RN DST S SW W TSTM DST S HZ LIG ARND FEW280=
200708072200 METAR MRLM 072200Z 05006KT 9999 BKN023 28/24 A2984 RMK FEW280 CB RN E S W DST HZY=
200708072300 METAR MRLM NIL=
200708080000 METAR MRLM 080000Z 23006KT 9999 BKN018 27/23 A2983 RN ARND CBS QD W FEW120=
200708080100 METAR MRLM NIL=
200708080200 METAR MRLM NIL=
200708080300 METAR MRLM NIL=
200708080400 METAR MRLM NIL=
200708080500 METAR MRLM NIL=
200708080600 METAR MRLM NIL=
200708080700 METAR MRLM NIL=
200708080800 METAR MRLM NIL=
200708080900 METAR MRLM NIL=
200708081000 METAR MRLM NIL=
200708081100 METAR MRLM NIL=
200708081200 METAR MRLM NIL=
200708081300 METAR MRLM 081300Z 22004KT 9999 FEW025 BKN250 25/22 A2986 RMK CB DST N HZY=
200708081400 METAR MRLM 081400Z 21004KT CAVOK 28/24 A2987 RMK BKN250 TRACE CU HZY=
200708081500 METAR MRLM 081500Z 00000KT 9999 FEW025 BKN250 29/22 A2986 HZY=
200708081600 METAR MRLM 081600Z 07004KT 9999 FEW025 BKN250 30/21 A2987 RMK HZY=
200708081700 METAR MRLM 081700Z 04005KT 9999 FEW025 BKN250 30/23 A2985 RMK HZY=
200708081800 METAR MRLM 081800Z 05006KT 9999 FEW025 BKN250 30/23 A2984 RMK HZY=
200708081900 METAR MRLM 081900Z 04007KT 9999 FEW025 BKN250 30/24 A2982 RMK HZY=
200708082000 METAR MRLM NIL=
200708082100 METAR MRLM 082100Z 04006KT 9999 FEW025 BKN250 31/24 A2977 RMK HZ ARND=
200708082200 METAR MRLM 082200Z 03004KT 9999 FEW025 BKN250 30/24 A2976 RMK HZ ARND=
200708082300 METAR MRLM 082300Z 36003KT 9999 FEW025 BKN250 30/24 A2979 RMK HZ ARND=
200708090000 METAR MRLM 090000Z 35005KT 9999 FEW025 BKN230 29/24 A2981 RMK FEWACAS HZ ARND=
200708090100 METAR MRLM NIL=
200708090200 METAR MRLM NIL=
200708090300 METAR MRLM NIL=
200708090400 METAR MRLM NIL=
200708090500 METAR MRLM NIL=
200708090600 METAR MRLM NIL=
200708090700 METAR MRLM NIL=
200708090800 METAR MRLM NIL=
200708090900 METAR MRLM NIL=
200708091000 METAR MRLM NIL=
200708091100 METAR MRLM NIL=
200708091200 METAR MRLM NIL=
200708091300 METAR MRLM 091300Z 22003KT 9999 SCT026 BKN080 25/23 A2987 RMK CB RN NW NE E TRACE CI HZ ARND=
200708091400 METAR MRLM 091400Z 26003KT 9999 FEW025 BKN080 26724 A2987 RMK CB RN W NW NE E HZ ARND=
200708091500 METAR MRLM 091500Z 25007KT 9999 FEW025 BKN090 28/24 A2987 RMK CB RN N NE E RN E SE FEW250 HZ ARND=
200708091600 METAR MRLM 091600Z 31005KT 9999 FEW025 BKN090 29/24 A2987 RMK TCU NW FEW250 HZ ARND=
200708091700 METAR MRLM 091700Z 34006KT 9999 FEW025 BKN090 30/24 A2987 TRACE FEW250 HZ ARND=
200708091800 METAR MRLM 091800Z 35010KT 9999 FEW025 BKN090 30/25 A2984 RMK TRACE CI HZ ARND=
200708091900 METAR MRLM 091900Z 01005KT 9999 FEW025 SCT100 29/24 A2980 RMK TCU SW SCT250 HZ ARND=
200708092000 METAR MRLM 092000Z NIL=
200708092100 METAR MRLM 092100Z 03007KT 9999 FEW025 BKN240 30/24 A2977 TCU S SE W HZY=
200708092200 METAR MRLM 092200Z 02005KT 9999 FEW028 BKN240 29/24 A2976 CB S W HZY=
200708092300 METAR MRLM 092300Z 00000KT 9999 FEW028 BKN230 29/24 A2976 FEW100 HZY=
200708100000 METAR MRLM 100000Z 00000KT CAVOK 28/24 A2977 BKN080 SCT230 HZY=
200708100100 METAR MRLM NIL=
200708100200 METAR MRLM NIL=
200708100300 METAR MRLM NIL=
200708100400 METAR MRLM NIL=
200708100500 METAR MRLM NIL=
200708100600 METAR MRLM NIL=
200708100700 METAR MRLM NIL=
200708100800 METAR MRLM NIL=
200708100900 METAR MRLM NIL=
200708101000 METAR MRLM NIL=
200708101100 METAR MRLM NIL=
200708101200 METAR MRLM 101200Z NIL=
200708101300 METAR MRLM 101300Z 23002KT 9999 DZ BKN100 SCT140 25/23 A2986 CB RN NW SE=
200708101400 METAR MRLM 101400Z 23004KT CAVOK 26/24 A2986 BKN120 SCT140 CB RN N=
200708101500 METAR MRLM 101500Z 18004KT 9999 FEW015 BKN120 27/24 A2987 FEW270 CB RN N HZY=
200708101600 METAR MRLM 101600Z 24005KT 9999 FEW020 BKN130 29/24 A2986 HZY=
200708101700 METAR MRLM 101700Z 02008KT 9999 FEW028 SCT140 30/24 A2094 FEW270 HZY CB E=
200708101800 METAR MRLM 101800Z 35012KT 9999 FEW035 SCT399 39/23 A2981 CB DST S HZY=
200708101900 METAR MRLM 101900Z 35011KT 9999 FEW033 BKN280 30/23 A2977 CB ARND=
200708102000 METAR MRLM NIL=
200708102100 METAR MRLM 102100Z 01008KT 9999 FEW030 BKN280 30/24 A2974 RMK TRACE AC CB DST HZ ARND=
200708102200 METAR MRLM 102200Z 03006KT 9999 FEW035 BKN270 30/23 A2974 RMK CB DST HZ ARND TRACE AC=
200708102300 METAR MRLM 102300Z 08004KT 9999 FEW032 SCT130 BKN270 29/23 A2977 RMK CB DST S W=
200708110000 METAR MRLM NIL=
200708110100 METAR MRLM NIL=
200708110200 METAR MRLM NIL=
200708110300 METAR MRLM NIL=
200708110400 METAR MRLM NIL=
200708110500 METAR MRLM NIL=
200708110600 METAR MRLM NIL=
200708110700 METAR MRLM NIL=
200708110800 METAR MRLM NIL=
200708110900 METAR MRLM NIL=
200708111000 METAR MRLM NIL=
200708111100 METAR MRLM NIL=
200708111200 METAR MRLM NIL=
200708111300 METAR MRLM 111300Z 23005KT 9999 FEW015 SCT140 24/22 A2984 RMK FEW100 FEW250 CB DST E=
200708111400 METAR MRLM 111400Z 22004KT 9999 FEW018 SCT090 BKN140 27/23 A2985 RMK CB RN DST NE FEW280=
200708111500 METAR MRLM 111500Z 22003KT 9999 FEW034 BKN140 30/23 A2985 RMK CB RN DST NE FEW270=
200708111600 METAR MRLM 111600Z 01006KT 9999 FEW033 BKN140 30/23 A2985 RMK CB DST N RN DST NE=
200708111700 METAR MRLM 111700Z 02008KT 9999 FEW035 SCT140 BKN280 31/24 A2985 RMK CB DST N=
200708111800 METAR MRLM 111800Z 03009KT 9999 FEW033 BKN270 31/24 A2983 RMK CB DST ARND RN DST SW=
200708111900 METAR MRLM 111900Z 03008KT 9999 SCT032 SCT110 31/25 A2980 RETS RMK CB DST ARND RN DST S W=
200708112000 METAR MRLM 112000Z NIL=
200708112100 METAR MRLM 112100Z 23006KT 9999 +DZ OVC022 28/24 A2978 RMK TRACE AC CB RN DST QUAD S W=
200708112200 METAR MRLM 112200Z 21005KT 9999 SCT016 BKN100 27/24 A2978 RMK CB RN DST S W=
200708112300 METAR MRLM 112300Z 21004KT 9999 FEW014 BKN090 27/24 A2981 RMK CB RN DST QUAD S W DZ DST E FEW110=
200708120000 METAR MRLM 120000Z 21006KT 9999 +DZ FEW012 SCT090 BKN110 26/24 A2982 RMK CB RN DST QUAD S W TCU RN E=
200708120100 METAR MRLM NIL=
200708120200 METAR MRLM NIL=
200708120300 METAR MRLM NIL=
200708120400 METAR MRLM NIL=
200708120500 METAR MRLM NIL=
200708120600 METAR MRLM NIL=
200708120700 METAR MRLM NIL=
200708120800 METAR MRLM NIL=
200708120900 METAR MRLM NIL=
200708121000 METAR MRLM NIL=
200708121100 METAR MRLM NIL=
200708121200 METAR MRLM 121200Z NIL=
200708121300 METAR MRLM 121300Z 21003KT 9999 FEW030 BKN100 24/22 A2988 REDZ RMK CB RN DST ENE FEW230=
200708121400 METAR MRLM 121400Z 19005KT 9999 -DZ FEW030 BKN100 24/23 A2989 RMK RN DST ENE FEW230=
200708121500 METAR MRLM NIL=
200708121600 METAR MRLM 121600Z 12007KT 9999 FEW030 BKN100 28/23 A2991 RMK CB RN DST ENE E FEW230=
200708121700 METAR MRLM 121700Z 13006KT 9999 -DZ FEW030 BKN100 28/23 A2999 RMK RN DST ENE E FEW230=
200708121800 METAR MRLM 121800Z 11008KT 9999 +DZ FEW030 BKN100 27/23 A2990 RMK RN DST ENE E=
200708121900 METAR MRLM 121900Z 11005KT 9999 FEW030 BKN100 28/23 A2986 REDZ RMK TCU DST SE=
200708122000 METAR MRLM 122000Z NIL=
200708122100 METAR MRLM 122100Z 09004KT 9999 -DZ FEW030 BKN230 29/24 A2980 RMK TCU DST SE S SW W FEW100=
200708122200 METAR MRLM 122200Z 03003KT 9999 FEW030 BKN100 28/23 A2981 RMK REDZ TCU DST SE S SW W FEW230=
200708122300 METAR MRLM 122300Z 34003KT 9999 SCT030 SCT090 28/24 A2983 RMK TCU DST SE S SW W RN DST SW WNW FEW230=
200708130000 METAR MRLM 130000Z 25003KT 9999 SCT028 SCT230 25/21 A2986 RMK RN DST SE S SW W FEW090=
200708130100 METAR MRLM NIL=
200708130200 METAR MRLM NIL=
200708130300 METAR MRLM NIL=
200708130400 METAR MRLM NIL=
200708130500 METAR MRLM NIL=
200708130600 METAR MRLM NIL=
200708130700 METAR MRLM NIL=
200708130800 METAR MRLM NIL=
200708130900 METAR MRLM NIL=
200708131000 METAR MRLM NIL=
200708131100 METAR MRLM NIL=
200708131200 METAR MRLM 131200Z 21004KT CAVOK 23/21 A2986 RMK OVC280 TRACE CU HZ ARND=
200708131300 METAR MRLM 131300Z 22004KT CAVOK 25/21 A2988 RMK BKN280 TRACE CU HZY=
200708131400 METAR MRLM 131400Z 00000KT CAVOK 30/22 A2988 RMK BKN280 TRACE CU AC HZY=
200708131500 METAR MRLM 131500Z 07004KT CAVOK 29/21 A2989 RMK BKN280 RMKTRACE CU AC HZY=
200708131600 METAR MRLM 131600Z 01006KT CAVOK 30/22 A2988 RMK FEW100 BKN280 TRACE CU HZY=
200708131700 METAR MRLM 131700Z 01008KT 9999 FEW030 BKN280 31/22 A2987 RMK TRACE HZY=
200708131800 METAR MRLM 131800Z 35011KT 9999 FEW030 BKN280 31/23 A2986 RMK FEW120 HZY=
200708131900 METAR MRLM 131900Z 35012KT 9999 FEW030 BKN280 31/23 A2983 RMK CB DST NE SSW HZY=
200708132000 METAR MRLM 132000Z NIL=
200708132100 METAR MRLM 132100Z 06006KT 9999 FEW030 BKN280 30/24 A2980 RMK CB SW TRACE AC=
200708132200 METAR MRLM 132200Z 03006KT 9999 FEW030 BKN240 30/24 A2979 RMK TCU S SW W=
200708132300 METAR MRLM 132300Z 10003KT 9999 FEW030 BKN230 29/23 A2978 RMK CB S TCU S SW=
200708140000 METAR MRLM 140000Z 16003KT CAVOK 28/24 A2979 RMK OVC230 TRACE SC AC=
200708140100 METAR MRLM NIL=
200708140200 METAR MRLM NIL=
200708140300 METAR MRLM NIL=
200708140400 METAR MRLM NIL=
200708140500 METAR MRLM NIL=
200708140600 METAR MRLM NIL=
200708140700 METAR MRLM NIL=
200708140800 METAR MRLM NIL=
200708140900 METAR MRLM NIL=
200708141000 METAR MRLM NIL=
200708141100 METAR MRLM NIL=
200708141200 METAR MRLM 141200Z NIL=
200708141300 METAR MRLM 141300Z 25003KT 9999 FEW030 BKN230 26/23 A2987 REDZ=
200708141400 METAR MRLM NIL=
200708141500 METAR MRLM 141500Z 02007KT 9999 FEW030 SCT230 30/24 A2988 RMK CB W NW NE E TRACE AC HZ ARND=
200708141600 METAR MRLM 141600Z 36012KT 9999 FEW030 SCT230 31/24 A2988 RMK CB W NW FEW100=
200708141700 METAR MRLM 141700Z 01009KT 9999 FEW028 SCT230 31/24 A2987 RMK TCU NW S FEW100=
200708141800 METAR MRLM 141800Z 02009KT 9999 FEW028 SCT230 31/24 A2985 RMK CB ARND FEW100=
200708141900 METAR MRLM 141900Z 04007KT 9999 FEW028 BKN230 31/24 A2983 RMKCB ARND TRACE AC=
200708142000 METAR MRLM NIL=
200708142100 METAR MRLM NIL=
200708142200 METAR MRLM 242200Z 09009KT 9999 FEW028 BKN230 31/24 A2979 CB RN SE S SW W=
200708142300 METAR MRLM 142300Z 13007KT 9999 FEW028 BKN100 29/23 A2980 CB RN SE S=
200708150000 METAR MRLM 150000Z 17005KT 9999 FEW028 BKN090 27/21 A2979 CB SE S SW W RN S=
200708150100 METAR MRLM NIL=
200708150200 METAR MRLM NIL=
200708150300 METAR MRLM NIL=
200708150400 METAR MRLM NIL=
200708150500 METAR MRLM NIL=
200708150600 METAR MRLM NIL=
200708150700 METAR MRLM NIL=
200708150800 METAR MRLM NIL=
200708150900 METAR MRLM NIL=
200708151000 METAR MRLM NIL=
200708151100 METAR MRLM NIL=
200708151200 METAR MRLM 151200Z NIL=
200708151300 METAR MRLM 151300Z 24003KT CAVOK 26/23 A2987 OVC250 TRAZAS CU HZY=
200708151400 METAR MRLM 151400Z 30004KT CAVOK 28/23 A2988 OVC250 TRAZAS CU=
200708151500 METAR MRLM 151500Z 29008KT CAVOK 30/22 A2988 BKN250 TRAZAS CU=
200708151600 METAR MRLM 151600Z 30008KT 9999 FEW028 SCT250 31/23 A2988 CB NE=
200708151700 METAR MRLM 151700Z 01009KT 9999 FEW029 SCT250 30/24 A2087 CB NE E=
200708151800 METAR MRLM 151800Z 04008KT 9999 FEW028 SCT240 30/24 A2985 CB NE E=
200708151900 METAR MRLM 151900Z 04008KT 9999 FEW028 SCT240 30/24 A2982 CB NE SE SW=
200708152000 METAR MRLM 152000Z NIL=
200708152100 METAR MRLM 152100Z 06008KT 9999 FEW028 BKN240 31/24 A2979 RMK CB DST ARND=
200708152200 METAR MRLM 152200Z 07007KT 9999 FEW028 BKN240 31/24 A2980 RMK CB DST S SW W=
200708152300 METAR MRLM 152300Z 08006KT 9999 FEW028 BKN240 30/24 A2981 RMK CB DST SE S SW W=
200708160000 METAR MRLM 160000Z 08006KT 9999 SCT028 BKN240 29/24 A2982 RMK CB DST CHECK TEXT NEW ENDING ADDED KATLYTAA=
200708160100 METAR MRLM NIL=
200708160200 METAR MRLM NIL=
200708160300 METAR MRLM NIL=
200708160400 METAR MRLM NIL=
200708160500 METAR MRLM NIL=
200708160600 METAR MRLM NIL=
200708160700 METAR MRLM NIL=
200708160800 METAR MRLM NIL=
200708160900 METAR MRLM NIL=
200708161000 METAR MRLM NIL=
200708161100 METAR MRLM NIL=
200708161200 METAR MRLM NIL=
200708161300 METAR MRLM NIL=
200708161400 METAR MRLM NIL=
200708161500 METAR MRLM NIL=
200708161600 METAR MRLM NIL=
200708161700 METAR MRLM 161700Z 33009KT 9999 DZ SCT024 BKN090 28/24 A2990=
200708161800 METAR MRLM 161800Z 01008KT 8000 -RA SCT020 SCT080 27/24 A2989=
200708161900 METAR MRLM 161900Z 20003KT 9999 FEW028 BKN090 27/25 A2986 RERA=
200708162000 METAR MRLM NIL=
200708162100 METAR MRLM 162100Z 17004KT 9999 FEW028 BKN230 29/24 A2981 RMK FEW090=
200708162110 METAR MRLM 162110Z 17004KT 9999 FEW028 BKN230 29/24 A2981 FEW090=
200708162200 METAR MRLM NIL=
200708162300 METAR MRLM 162300Z 02003KT 9999 FEW028 BKN090 29/24 A2982 RMK TCU DST S SW FEW230=
200708170000 METAR MRLM NIL=
200708170100 METAR MRLM NIL=
200708170200 METAR MRLM NIL=
200708170300 METAR MRLM NIL=
200708170400 METAR MRLM NIL=
200708170500 METAR MRLM NIL=
200708170600 METAR MRLM NIL=
200708170700 METAR MRLM NIL=
200708170800 METAR MRLM NIL=
200708170900 METAR MRLM NIL=
200708171000 METAR MRLM NIL=
200708171100 METAR MRLM NIL=
200708171200 METAR MRLM NIL=
200708171300 METAR MRLM 171300Z 21005KT 9999 FEW026 BKN090 24/22 A2986=
200708171400 METAR MRLM 171400Z 22005KT 9999 FEW023 BKN090 28/23 A2988 RMK TCU DST NW N NE E=
200708171500 METAR MRLM 171500Z 20003KT 9999 FEW025 SCT230 27/24 A2988 RMK FEW090 CB RN DST N NE E=
200708171600 METAR MRLM 171600Z 04004KT 9999 FEW025 BKN090 30/24 A2987 RMK TRACE CI CB RN DST ENE=
200708171700 METAR MRLM 171700Z 36007KT 9999 FEW025 BKN090 31/23 A2985 RMK CB RN DST ENE FEW230=
200708171800 METAR MRLM 171800Z 35007KT 9999 FEW025 BKN090 31/24 A2984 RMK TCU DST N ENE EW230=
200708171900 METAR MRLM 171900Z 36000KT 9999 FEW025 BKN230 31/24 A2982 RMK CB DST N SE TRACE AC=
200708172000 METAR MRLM 172000Z NIL=
200708172100 METAR MRLM NIL=
200708172200 METAR MRLM 172200Z 06005KT 9999 FEW025 BKN230 30/24 A2980 RMK CB DST NW N NE TRACE AC=
200708172300 METAR MRLM 172300Z 07007KT 9999 BKN025 30/24 A2982 RN DST E FEW230=
200708180000 METAR MRLM 180000Z 09006KT 9999 TS FEW020CB BKN025 29/24 A2982 RN DST N E SE S=
200708180100 METAR MRLM NIL=
200708180200 METAR MRLM NIL=
200708180300 METAR MRLM NIL=
200708180400 METAR MRLM NIL=
200708180500 METAR MRLM NIL=
200708180600 METAR MRLM NIL=
200708180700 METAR MRLM NIL=
200708180800 METAR MRLM NIL=
200708180900 METAR MRLM NIL=
200708181000 METAR MRLM NIL=
200708181100 METAR MRLM NIL=
200708181200 METAR MRLM 181200Z 20006KT 9999 FEW024 BKN050 23/22 A2989 FEW080 HZY=
200708181300 METAR MRLM 181300Z 21005KT 9999 FEW024 BKN050 24/22 A2986 RMK RN DST E FEW080 LGT HZ ARND=
200708181400 METAR MRLM NIL=
200708181500 METAR MRLM 181500Z 24005KT 9999 FEW025 BKN080 28/23 A2986 RMK CB RN DST NW E SE S TRACE HZY=
200708181600 METAR MRLM 181600Z 28005KT 9999 -DZ SCT025 BKN080 29/23 A2985 CB RN DST ARND TSTM DST E=
200708181700 METAR MRLM 181700Z 00000KT 9999 -DZ SCT030 SCT080 28/25 A2986 RERA RMK CB RN DST ARND=
200708181800 METAR MRLM 181800Z 01012KT 8000 -RA SCT025 SCT080 27/25 A2986 RMK CB DST ARND=
200708181900 METAR MRLM NIL=
200708182000 METAR MRLM NIL=
200708182100 METAR MRLM 182100Z 34005KT 9999 BKN024 SCT080 27/24 A2982 REDZ RMK CB N ENE RN ARND=
200708182200 METAR MRLM 182200Z 35009KT 9999 BKN025 SCT080 28/23 A2980 RMK CB RN ARND=
200708182300 METAR MRLM 182300Z 25003KT 9999 SCT025 BKN080 27/23 A2980 RMK CB RN S SW W=
200708190000 METAR MRLM 190000Z 25005KT 9999 FEW025 BKN080 26/23 A2980 RMK TCU RN SW W=
200708190100 METAR MRLM NIL=
200708190200 METAR MRLM NIL=
200708190300 METAR MRLM NIL=
200708190400 METAR MRLM NIL=
200708190500 METAR MRLM NIL=
200708190600 METAR MRLM NIL=
200708190700 METAR MRLM NIL=
200708190800 METAR MRLM NIL=
200708190900 METAR MRLM NIL=
200708191000 METAR MRLM NIL=
200708191100 METAR MRLM NIL=
200708191200 METAR MRLM 191200Z NIL=
200708191300 METAR MRLM 191300Z 00000KT CAVOK 26/22 A2985 RMK TRACE AC HZ ARND BKN240=
200708191400 METAR MRLM 191400Z 02002KT CAVOK 29/23 A2985 RMK TRACE SC AC HZ ARND BKN240=
200708191500 METAR MRLM 191500Z 02004KT 9999 FEW030 SCT240 29/23 A2986 RMK TRACE AC HZ ARND=
200708191600 METAR MRLM 191600Z 04005KT 9999 FEW030 SCT240 30/22 A2985 RMK HZ LEVE ARND=
200708191700 METAR MRLM 191700Z 01007KT 9999 FEW025 SCT250 30/23 A2981 RMK CB N S SW=
200708191800 METAR MRLM 191800Z 36008KT 9999 FEW025 SCT240 31/22 A2982 RMK CB RN S SW TRACE AC=
200708191900 METAR MRLM 191900Z 36010KT 9999 FEW025 BKN240 31/23 A2979 RMK HZ ARND=
200708192000 METAR MRLM 192000Z NIL=
200708192100 METAR MRLM 192100Z 35009KT 9999 FEW025 OVC090 30/24 A2977 CB RN S SW W FEW240 HZY=
200708192200 METAR MRLM 192200Z 35006KT 9999 FEW025 BKN090 29/24 A2977 CB RN S SW W=
200708192300 METAR MRLM 192300Z 30004KT 9999 SCT025 SCT090 29/24 A2978 CB RN SE S SW W=
200708200000 METAR MRLM 200000Z 25003KT 9999 BKN025 SCT080 28/24 A2979 CB RN S SW W=
200708200100 METAR MRLM NIL=
200708200200 METAR MRLM NIL=
200708200300 METAR MRLM NIL=
200708200400 METAR MRLM NIL=
200708200500 METAR MRLM NIL=
200708200600 METAR MRLM NIL=
200708200700 METAR MRLM NIL=
200708200800 METAR MRLM NIL=
200708200900 METAR MRLM NIL=
200708201000 METAR MRLM NIL=
200708201100 METAR MRLM NIL=
200708201200 METAR MRLM NIL=
200708201300 METAR MRLM 201300Z 20003KT CAVOK 25/21 A2980 BKN250 HZY=
200708201400 METAR MRLM 201400Z 18004KT CAVOK 29/22 A2981 BKN250 TRZAS AC HZY=
200708201500 METAR MRLM 201500Z 02003KT CAVOK 29/23 A2982 OVC250 TRAZAS SCT AC HZY=
200708201600 METAR MRLM 201600Z 25005KT CAVOK 30/23 A2982 OVC250 HZY=
200708201700 METAR MRLM 201700Z 08008KT 9999 FEW030 BKN250 31/23 A2981 HZY=
200708201800 METAR MRLM 201800Z 08010KT 9999 FEW030 BKN250 31/23 A2979 FEW100 HZY=
200708201900 METAR MRLM 201900Z 07008KT 9999 FEW030 BKN250 31/23 A2976 TCU S HZY=
200708202000 METAR MRLM 202000Z NIL=
200708202100 METAR MRLM 202100Z 07009KT 9999 FEW025 BKN250 31/24 A2973 RMK CB DST SE S HZ ARND=
200708202200 METAR MRLM 202200Z 08009KT 9999 FEW025 BKN250 31/24 A2973 RMK CB DST SE S HZ ARND=
200708202300 METAR MRLM 202300Z 09013KT 9999 FEW025 SCT045 30/25 A2975 CB DST SE S SCT080 HZ ARND=
200708210000 METAR MRLM 210000Z 10011KT 9999 FEW025 BKN045 29/24 A2977 RMK CB RN DST S SW FEW090 HZ ARND=
200708210100 METAR MRLM NIL=
200708210200 METAR MRLM NIL=
200708210300 METAR MRLM NIL=
200708210400 METAR MRLM NIL=
200708210500 METAR MRLM NIL=
200708210600 METAR MRLM NIL=
200708210700 METAR MRLM NIL=
200708210800 METAR MRLM NIL=
200708210900 METAR MRLM NIL=
200708211000 METAR MRLM NIL=
200708211100 METAR MRLM NIL=
200708211200 METAR MRLM NIL=
200708211300 METAR MRLM 211300Z 22004KT 9999 FEW025 BKN250 25/22 A2983 RMK CB DST N NE TRACE AC HZ ARND=
200708211400 METAR MRLM 211400Z 23003KT CAVOK 27/23 A2985 RMK OVC100 HZ ARND=
200708211500 METAR MRLM 211500Z 23003KT CAVOK 28/24 A2985 RMK BKN090 FEW250 TRACE CU HZ ARND=
200708211600 METAR MRLM 211600Z 28003KT CAVOK 29/23 A2986 RMK OVC090 HZ ARND=
200708211700 METAR MRLM 211700Z 00000KT CAVOK 30/23 A2986 RMK BKN090 FEW240 TRACE CU HZ ARND=
200708211800 METAR MRLM 211800Z 02002KT 9999 FEW025 BKN090 30/23 A2985 RMK TCU DST W NW RN NW N NE E DST HZ ARND=
200708211900 METAR MRLM 211900Z 01005KT 9999 FEW020CB FEW025 BKN150 30/24 A2983 RMK CB RN DST NW N NE TCU DST NE HZ ARND=
200708212000 METAR MRLM NIL=
200708212100 METAR MRLM 212100Z 01007KT 9999 SCT025 SCT100 28/22 A2979 RMK CB DST NW SSW SW RN DST ARND HZY=
200708212200 METAR MRLM 212200Z 05009KT 9999 BKN025 SCT100 28/24 A2980 RMK TCU RN DST W HZY=
200708212300 METAR MRLM 212300Z 05008KT 9999 TS FEW018CB SCT025 BKN090 28/23 A2982 RMK CB RN SE S SW W TS S=
200708220000 METAR MRLM 220000Z 06006KT 9999 TS FEW018CB SCT025 SCT090 28/23 A2984 RMK CB RN SE S SW W TS S=
200708220100 METAR MRLM NIL=
200708220200 METAR MRLM NIL=
200708220300 METAR MRLM NIL=
200708220400 METAR MRLM NIL=
200708220500 METAR MRLM NIL=
200708220600 METAR MRLM NIL=
200708220700 METAR MRLM NIL=
200708220800 METAR MRLM NIL=
200708220900 METAR MRLM NIL=
200708221000 METAR MRLM NIL=
200708221100 METAR MRLM NIL=
200708221200 METAR MRLM 221200Z 22005KT 9999 SCT030 SCT090 23/22 A2987 CB RN N NE E=
200708221300 METAR MRLM 221300Z 23004KT 9999 BKN030 SCT080 24/22 A2987 RMK CB RN=
200708221400 METAR MRLM 221400Z 22004KT 9999 -DZ BKN030 24/22 A2990 RMK CB RN DST N NE E FEW080=
200708221500 METAR MRLM 221500Z 23002KT 8000 -RA FEW015 BKN025 24/23 A2993 RMK FEW080 CB DST N NE E SE=
200708221600 METAR MRLM 221600Z 00000KT 9999 -RA FEW015 SCT020 24/23 A2993 RMK FEW080 CB DST N NE E=
200708221700 METAR MRLM 221700Z 24004KT 9999 -RA SCT030 BKN080 24/23 A2992 CB DST N NE=
200708221800 METAR MRLM 221800Z 27004KT 9999 DZ FEW020 BKN090 25/23 A2989 RMK CB RN DST N=
200708221900 METAR MRLM 221900Z 27003KT 9999 -DZ FEW025 BKN090 26/23 A2987 RMK CB RN DST NW NE=
200708222000 METAR MRLM 222000Z NIL=
200708222100 METAR MRLM 222100Z 29003KT 9999 SCT024 BKN090 27/23 A2984 REDZ TCU DST WSW RN DST ARND=
200708222200 METAR MRLM 222200Z 32004KT 9999 SCT024 SCT090 27/23 A2982 RMK CB DST W RN ARND=
200708222300 METAR MRLM 222300Z 22002KT 9999 FEW020 BKN090 27/23 A2983 RMK RN DST SE=
200708230000 METAR MRLM 230000Z 00000KT 9999 FEW020 BKN090 26/24 A2984 RMK RN DST NW N TRACE CI=
200708230100 METAR MRLM NIL=
200708230200 METAR MRLM NIL=
200708230300 METAR MRLM NIL=
200708230400 METAR MRLM NIL=
200708230500 METAR MRLM NIL=
200708230600 METAR MRLM NIL=
200708230700 METAR MRLM NIL=
200708230800 METAR MRLM NIL=
200708230900 METAR MRLM NIL=
200708231000 METAR MRLM NIL=
200708231100 METAR MRLM NIL=
200708231200 METAR MRLM 231200Z 21003KT 9999 FEW025 23/22 A2986 TRACE AC HZ ARND=
200708231300 METAR MRLM 231300Z 20006KT 9999 FEW025 24/22 A2989 RMK FEW100 TCU DST ENE HZY=
200708231400 METAR MRLM 231400Z 23003KT 9999 FEW025 27/23 A2990 RMK FEW100 FEW250 TCU ENE HZY=
200708231500 METAR MRLM 231500Z 04003KT 9999 FEW025 SCT250 29/23 A2990 CB RN DST ENE=
200708231600 METAR MRLM 231600Z 02006KT 9999 FEW025 BKN250 30/23 A2991 RMK CB RN DST ENE TRACE AC HZY=
200708231700 METAR MRLM 231700Z 03006KT 9999 FEW025 BKN250 30/24 A2990 RMK TRACE AC=
200708231800 METAR MRLM 231800Z 02008KT 9999 FEW025 SCT250 30/24 A2988 RMK TRACE AC=
200708231900 METAR MRLM 231900Z 02006KT 9999 FEW025 BKN250 30/24 A2986 RMK TCU DST SE TRACE AC=
200708232000 METAR MRLM NIL=
200708232100 METAR MRLM 232100Z 01007KT 9999 FEW025 BKN250 30/24 A2981 RMK TCU W NW=
200708232200 METAR MRLM 232200Z 04007KT 9999 FEW025 BKN250 29/23 A2980 RMK CB S SW W FEW100=
200708232300 METAR MRLM 232300Z 36004KT 9999 FEW025 BKN250 29/23 A2982 RMK CB S SW W TRACE AC=
200708240000 METAR MRLM 240000Z 02002KT 9999 FEW025 BKN250 29/24 A2983 RMK CB DST S SW W TRACE AC=
200708240100 METAR MRLM NIL=
200708240200 METAR MRLM NIL=
200708240300 METAR MRLM NIL=
200708240400 METAR MRLM NIL=
200708240500 METAR MRLM NIL=
200708240600 METAR MRLM NIL=
200708240700 METAR MRLM NIL=
200708240800 METAR MRLM NIL=
200708240900 METAR MRLM NIL=
200708241000 METAR MRLM NIL=
200708241100 METAR MRLM NIL=
200708241200 METAR MRLM NIL=
200708241300 METAR MRLM 241300Z 30004KT 9999 FEW025 BKN250 24/23 A2988=
200708241400 METAR MRLM 241400Z 21004KT 9999 FEW025 BKN250 28/24 A2989 RMK HZ LEVE ARND=
200708241500 METAR MRLM 241500Z 30003KT 9999 FEW025 BKN250 30/22 A2989 RMK HZ LEVE ARND=
200708241600 METAR MRLM 241600Z 02007KT 9999 FEW025 BKN250 31/24 A2988=
200708241700 METAR MRLM 241700Z 35010KT 9999 FEW025 BKN250 31/23 A2988 RMK HZ ARND=
200708241800 METAR MRLM 241800Z 36008KT 9999 FEW025 BKN250 31/23 A2986 RMK TRACE AC=
200708241900 METAR MRLM 241900Z 35011KT 9999 FEW025 BKN250 31/24 A2983 RMK TCU N NE=
200708242000 METAR MRLM NIL=
200708242100 METAR MRLM 242100Z 35011KT 9999 FEW025 BKN250 31/24 A2979 CB N NE E=
200708242200 METAR MRLM 242200Z 35009KT 9999 FEW025 BKN250 30/24 A2979 TCU NW NE=
200708242300 METAR MRLM 242300Z 36008KT 9999 FEW025 BKN140 29/24 A2982 FEW250 RN E SE=
200708250000 METAR MRLM NIL=
200708250100 METAR MRLM NIL=
200708250200 METAR MRLM NIL=
200708250300 METAR MRLM NIL=
200708250400 METAR MRLM NIL=
200708250500 METAR MRLM NIL=
200708250600 METAR MRLM NIL=
200708250700 METAR MRLM NIL=
200708250800 METAR MRLM NIL=
200708250900 METAR MRLM NIL=
200708251000 METAR MRLM NIL=
200708251100 METAR MRLM NIL=
200708251200 METAR MRLM 251200Z 22003KT 9999 FEW025 BKN090 23/22 A2984 RMK CB RN=
200708251300 METAR MRLM 251300Z 25002KT 9999 DZ FEW040 BKN090 23/22 A2985 CB RN NW N FEW250=
200708251400 METAR MRLM 251400Z 22003KT CAVOK 25/23 A2986 REDZ BKN100 FEW250=
200708251500 METAR MRLM 251500Z 24004KT CAVOK 28/23 A2988 BKN100 FEW250=
200708251600 METAR MRLM 251600Z 29008KT 9999 FEW030 BKN100 30/22 A2987 CB N FEW250=
200708251700 METAR MRLM 251700Z 29008KT 9999 FEW030 BKN100 30/22 A2987 CB N FEW250=
200708251800 METAR MRLM 251800Z 34009KT 9999 FEW030 BKN240 31/23 A2984 TCU N E=
200708251900 METAR MRLM 251900Z 34011KT 9999 FEW030 BKN240 31/23 A2980 CB N=
200708252000 METAR MRLM NIL=
200708252100 METAR MRLM 252100Z 34010KT 9999 FEW028 BKN240 30/23 A2978 RMK CB DST S E S SW=
200708252200 METAR MRLM 252200Z 35007KT 9999 SCT028 SCT090 29/24 A2979 RMK CB DST SE S SW W FEW240 RN DST ARND=
200708252300 METAR MRLM 252300Z 25003KT 9999 SCT025 SCT090 28/24 A2979 RMK CB DST SE S SW W RN HZ DST ARND=
200708260000 METAR MRLM 260000Z 00000KT 9999 SCT025 BKN090 27/24 A2979 RMK CB DST NE E SE S TRACE CI HZ ARND=
200708260100 METAR MRLM NIL=
200708260200 METAR MRLM NIL=
200708260300 METAR MRLM NIL=
200708260400 METAR MRLM NIL=
200708260500 METAR MRLM NIL=
200708260600 METAR MRLM NIL=
200708260700 METAR MRLM NIL=
200708260800 METAR MRLM NIL=
200708260900 METAR MRLM NIL=
200708261000 METAR MRLM NIL=
200708261100 METAR MRLM NIL=
200708261200 METAR MRLM 261200Z 00000KT 9999 FEW028 SCT090 23/22 A2980 RMK TCU DST NW NE RN W NW FEW250 HZ ARND=
200708261300 METAR MRLM 261300Z 24007KT 9999 FEW025 BKN090 24/23 A2984 RMK CB RN WNW FEW022 HZ ARND=
200708261400 METAR MRLM 261400Z 29004KT 9999 FEW025 BKN090 25/21 A2986 RMK RN DST W NW FEW220=
200708261600 METAR MRLM NIL=
200708261700 METAR MRLM 261700Z 32006KT CAVOK 30/23 A2984 RMK TRACE SC AC BKN250=
200708261800 METAR MRLM 261800Z 36012KT 9999 FEW025 BKN250 30/24 A2982 RMK TRACE AC CB DST NW=
200708261900 METAR MRLM 261900Z 36012KT 9999 FEW025 BKN250 30/24 A2979 RMK CB DST NW SE=
200708262000 METAR MRLM NIL=
200708262100 METAR MRLM 262100Z 01008KT 9999 FEW024 BKN250 29/24 A2975 RMK CB DST SE S SW W RN DST S SW TS DST SW=
200708262200 METAR MRLM 262200Z 02004KT 9999 FEW024 SCT100 29/24 A2976 RMK CB DST SE S SW W RN DST S SW SCT250=
200708262300 METAR MRLM 262300Z 09004KT 9999 FEW024 BKN250 28/23 A2976 RMK CB DST ARND FEW100 RN DST S SW=
200708270000 METAR MRLM 270000Z 16002KT 9999 FEW024 BKN090 27/24 A2979 RMK CB RN DST SE S SW W TRACE CI=
200708270100 METAR MRLM NIL=
200708270200 METAR MRLM NIL=
200708270300 METAR MRLM NIL=
200708270400 METAR MRLM NIL=
200708270500 METAR MRLM NIL=
200708270600 METAR MRLM NIL=
200708270700 METAR MRLM NIL=
200708270800 METAR MRLM NIL=
200708270900 METAR MRLM NIL=
200708271000 METAR MRLM NIL=
200708271100 METAR MRLM NIL=
200708271200 METAR MRLM NIL=
200708271300 METAR MRLM 271300Z 21003KT 9999 FEW025 SCT090 25/23 A2984 RMK FEW250=
200708271400 METAR MRLM 271400Z 29003KT 9999 FEW025 SCT090 29/23 A2985 RMK TCU DST NNE FEW280 LEVE HZ ARND=
200708271500 METAR MRLM 271500Z 03003KT 9999 FEW025 BKN090 29/23 A2986 RMK TCU RN DST NE N TRACE CI=
200708271600 METAR MRLM 271600Z 02006KT 9999 FEW025 BKN080 30/24 A2986 RMK TCU RN DST NW ENE LEVE HZY=
200708271700 METAR MRLM NIL=
200708271800 METAR MRLM 271800Z 05008KT 9999 FEW025 BKN090 30/24 A2983 RMK CB RN DST N NE E FEW250 HZY=
200708271900 METAR MRLM 271900Z 06009KT 9999 FEW025 BKN250 30/24 A2980 RMK CB DST N NE S SE RN N NE FEW090=
200708272000 METAR MRLM NIL=
200708272100 METAR MRLM 272100Z 06006KT 9999 FEW025 BKN240 29/24 A2977 RMK CB DST ARND RN S SW W FEW090=
200708272200 METAR MRLM 272200Z 07004KT 9999 SCT025 BKN240 30/24 A2976 RMK CB RN S SW W DST FEW090=
200708272300 METAR MRLM NIL=
200708280000 METAR MRLM NIL=
200708280100 METAR MRLM NIL=
200708280200 METAR MRLM NIL=
200708280300 METAR MRLM NIL=
200708280400 METAR MRLM NIL=
200708280500 METAR MRLM NIL=
200708280600 METAR MRLM NIL=
200708280700 METAR MRLM NIL=
200708280800 METAR MRLM NIL=
200708280900 METAR MRLM NIL=
200708281100 METAR MRLM NIL=
200708281200 METAR MRLM NIL=
200708281300 METAR MRLM NIL=
200708281400 METAR MRLM 281400Z 01003KT 9999 FEW025 BKN240 28/23 A2984 RMK CB DST NE TRACE AC=
200708281500 METAR MRLM 281500Z 03004KT 9999 FEW025 BKN250 29/23 A2985 CB DST NW N NE TRACE AC=
200708281600 METAR MRLM 281600Z 04005KT 9999 FEW025 BKN250 29/22 A2986 RMK CB RN DST NW N TRACE AC=
200708281700 METAR MRLM 281700Z 02006KT 9999 FEW025 SCT250 30/22 A2985 RMK CB DST N TRACE AC=
200708281800 METAR MRLM 281800Z 02006KT 9999 FEW025 BKN250 30/23 A2983 RMK CB DST NW TCU NE SE=
200708281900 METAR MRLM 281900Z 02006KT 9999 FEW025 SCT250 30/23 A2980 RMK CB DST W NW NE SE=
200708282000 METAR MRLM 282000Z NIL=
200708282100 METAR MRLM 282100Z 35009KT 9999 FEW025 SCT250 30/24 A2976 RMK CB ARND=
200708282200 METAR MRLM 282200Z 34009KT 9999 FEW025 SCT250 30/24 A2976 RMK CB SE S SW W RN S SW=
200708282300 METAR MRLM 282300Z 01004KT 9999 SCT025 SCT250 29/23 A2979 RMK CB RN SE S SW W=
200708290000 METAR MRLM 290000Z 20002KT 9999 SCT025 BKN250 27/24 A2980 RMK CB RN DST SE S SW W TRACE AC=
200708290100 METAR MRLM NIL=
200708290200 METAR MRLM NIL=
200708290300 METAR MRLM NIL=
200708290400 METAR MRLM NIL=
200708290500 METAR MRLM NIL=
200708290600 METAR MRLM NIL=
200708290700 METAR MRLM NIL=
200708290800 METAR MRLM NIL=
200708290900 METAR MRLM NIL=
200708291000 METAR MRLM NIL=
200708291100 METAR MRLM NIL=
200708291200 METAR MRLM 291200Z NIL=
200708291300 METAR MRLM 291300Z 22004KT 9999 FEW025 BKN250 24/22 A2988 RMK CB RN NW N NE TS NE=
200708291400 METAR MRLM 291400Z 25002KT 9999 TS FEW015CB SCT080 SCT250 27/23 A2990 RMK CB RN NW N NE=
200708291500 METAR MRLM 291500Z 03005KT 9999 FEW020 BKN250 30/24 A2990 RETS RMK CB RN NW N NE FEW080=
200708291600 METAR MRLM 291600Z 34009KT 9999 FEW025 BKN250 29/23 A2991 RMK CB DST NW FEW090=
200708291700 METAR MRLM 291700Z 01004KT 9999 FEW025 BKN250 31/24 A2990 RMK CB RN N NE FEW090=
200708291800 METAR MRLM 291800Z 35011KT 9999 FEW025 BKN250 30/24 A2988 RMK CB NW FEW090=
200708291900 METAR MRLM 291900Z 35006KT 9999 FEW025 BKN250 31/24 A2982 RMK FEW090=
200708292000 METAR MRLM 292000Z NIL=
200708292100 METAR MRLM 292100Z 01005KT 9999 FEW025 BKN250 31/24 A2979 CB S=
200708292200 METAR MRLM 292200Z 032005KT 9999 FEW025 BKN250 31/24 A2980 CB SE SW W=
200708292300 METAR MRLM 292300Z 01005KT CAVOK 30/24 A2981 OVC250 TRAZAS CU=
200708300000 METAR MRLM 300000Z 01005KT 9999 FEW025 BKN250 29/24 A2983 CB NE=
200708300100 METAR MRLM NIL=
200708300200 METAR MRLM NIL=
200708300300 METAR MRLM NIL=
200708300400 METAR MRLM NIL=
200708300500 METAR MRLM NIL=
200708300600 METAR MRLM NIL=
200708300700 METAR MRLM NIL=
200708300800 METAR MRLM NIL=
200708300900 METAR MRLM NIL=
200708301000 METAR MRLM NIL=
200708301100 METAR MRLM NIL=
200708301200 METAR MRLM NIL=
200708301300 METAR MRLM 301300Z 22004KT 9999 FEW028 BKN250 26/24 A2988 CB RN NW N W=
200708301400 METAR MRLM 301400Z 15003KT 9999 FEW028 BKN230 29/24 A2988 CB RN NW N E=
200708301500 METAR MRLM 301500Z 32003KT 9999 FEW025 BKN230 29/24 A2989 CB NW N NE=
200708301600 METAR MRLM 301600Z 01006KT 9999 FEW025 BKN230 30/25 A2989 CB NW NE TRAZAS AC=
200708301700 METAR MRLM 301700Z 01008KT 9999 FEW025 BKN230 30/25 A2989 CB NW N TCU SE=
200708301800 METAR MRLM 301800Z 02007KT 9999 FEW025 BKN230 30/25 A2986 CB NW N=
200708301900 METAR MRLM NIL=
200708302000 METAR MRLM 302000Z NIL=
200708302100 METAR MRLM 302100Z 03009KT 9999 FEW025 BKN250 31/25 A2979 RMK CB DST ARND=
200708302200 METAR MRLM 302200Z 01006KT 9999 FEW025 BKN250 31/24 A2980 RMK CB DST S SW TCU N=
200708302300 METAR MRLM 302300Z 35006KT 9999 FEW025 BKN250 29/24 A2980 RMK CB DST S SW W=
200708310000 METAR MRLM 310000Z 31006KT 9999 FEW025 BKN250 29/24 A2982 RMK CB DST SE S SW W=
200708310100 METAR MRLM NIL=
200708310200 METAR MRLM NIL=
200708310300 METAR MRLM NIL=
200708310400 METAR MRLM NIL=
200708310500 METAR MRLM NIL=
200708310600 METAR MRLM NIL=
200708310700 METAR MRLM NIL=
200708310800 METAR MRLM NIL=
200708310900 METAR MRLM NIL=
200708311100 METAR MRLM NIL=
200708311200 METAR MRLM 311200Z 21005KT 9999 FEW030 BKN250 24/23 A2987 RMK CB DST NW N E TRACE AC HZ ARND=
200708311300 METAR MRLM 311300Z 21003KT 9999 FEW030 SCT250 26/23 A2987 RMK CB DST NW N SE RN DST SE=
200708311400 METAR MRLM 311400Z 26006KT 9999 FEW030 SCT250 29/23 A2988 RMK CB RN DST S SE TRACE AC=
200708311500 METAR MRLM 311500Z 32006KT 9999 FEW025 SCT250 31/23 A2988 RMK CB DST NW ENE=
200708311600 METAR MRLM 311600Z 35011KT 9999 FEW024 SCT250 31/24 A2988 RMK TCU DST NW NNE=
200708311700 METAR MRLM 311700Z 35009KT 9999 FEW024 SCT250 31/24 A2982 RMK TCU DST NW N SE ENE=
200708311800 METAR MRLM 311800Z 36008KT 9999 FEW024 BKN250 31/24 A2986 RMK CB DST NW N NE=
200708311900 METAR MRLM 311900Z 35009KT 9999 FEW024 BKN250 31/24 A2983 RMK CB DST ARND RN SW=
200708312000 METAR MRLM NIL=
200708312100 METAR MRLM NIL=
200708312200 METAR MRLM 312200Z 35012KT 2000 +RA SCT020TCU SCT024 28/26 A2981 RMK CB DST ARND=
200708312300 METAR MRLM 312300Z 02014KT 9999 3000S -DZ SCT020 SCT240 28/25 A2982 RMK RERA CB/RN DST E/SE/S/SW/W TS E/S=
200709010000 METAR MRLM 010000Z 03015KT 9999 3000S TSRA SCT020CB SCT020 29/25 A2985 RMK REDZ CB RN E/SE/S/SW/W TS SE/S=
200709010100 METAR MRLM NIL=
200709010200 METAR MRLM NIL=
200709010300 METAR MRLM NIL=
200709010400 METAR MRLM NIL=
200709010500 METAR MRLM NIL=
200709010600 METAR MRLM NIL=
200709010700 METAR MRLM NIL=
200709010800 METAR MRLM NIL=
200709010900 METAR MRLM NIL=
200709011000 METAR MRLM NIL=
200709011100 METAR MRLM NIL=
200709011200 METAR MRLM 011200Z 22004KT CAVOK 22/21 A2988 FEW100 BKN230=
200709011300 METAR MRLM 011300Z 20005KT CAVOK 25/22 A2990 RMK FEW100 BKN230=
200709011400 METAR MRLM 011400Z 21005KT CAVOK 27/21 A2991 RMK BKN100 FEW230=
200709011500 METAR MRLM 011500Z 18003KT CAVOK 29/21 A2991 RMK FEW100 FEW230=
200709011600 METAR MRLM 011600Z 04004KT 9999 FEW025 SCT250 29/22 A2991=
200709011700 METAR MRLM 011700Z 01006KT 9999 FEW025 SCT250 30/22 A2991 RMK TCU DST NW/N/NE=
200709011800 METAR MRLM 011800Z 01009KT 9999 FEW025 SCT250 30/22 A2989 RMK CB DST=
200709011900 METAR MRLM 011900Z 02007KT 9999 FEW025 BKN100 30/23 A2986 RMK CB DST NW/N/SE FEW250=
200709012000 METAR MRLM NIL=
200709012100 METAR MRLM 012100Z 06007KT 9999 FEW025 SCT100 30/23 A2983 CB DST E SE S SW RN S SW SCT250=
200709012200 METAR MRLM 012200Z 06007KT 9999 SCT025 SCT200 30/24 A2982 RMK CB DST SE S SW TRACE AC=
200709012300 METAR MRLM 012300Z 11008KT 9999 SCT025 BKN250 29/24 A2984 RMK CB RN DST SE S SW W TRACE AC=
200709020000 METAR MRLM 020000Z 15003KT 9999 FEW025 BKN250 27/24 A2985 RMK CB DST ARND RN SW W TCU NW FEW090=
200709020100 METAR MRLM NIL=
200709020200 METAR MRLM NIL=
200709020300 METAR MRLM NIL=
200709020400 METAR MRLM NIL=
200709020500 METAR MRLM NIL=
200709020600 METAR MRLM NIL=
200709020700 METAR MRLM NIL=
200709020800 METAR MRLM NIL=
200709020900 METAR MRLM NIL=
200709021000 METAR MRLM NIL=
200709021100 METAR MRLM NIL=
200709021200 METAR MRLM 021200Z 22004KT 9999 FEW025 BKN250 23/21 A2990 RMK TRACE AC=
200709021300 METAR MRLM 021300Z 22005KT 9999 FEW025 BKN250 24/22 A2991 RMK TRACE AC=
200709021400 METAR MRLM 021400Z 24003KT 9999 FEW025 BKN250 28/24 A2992 RMK CB DST NW TRACE AC=
200709021500 METAR MRLM 021500Z 03005KT 9999 FEW025 SCT250 30/24 A2993=
200709021600 METAR MRLM 021600Z 36005KT 9999 FEW025 SCT250 29/24 A2993=
200709021700 METAR MRLM 021700Z 36008KT 9999 FEW025 SCT250 30/24 A2993 RMK CB DST E TCU N=
200709021800 METAR MRLM 021800Z 36010KT 9999 FEW024 SCT250 31/24 A2970 RMK CB DST E S SW RN DST SW=
200709021900 METAR MRLM 021900Z 08008KT 9999 FEWQW025 BKN250 31/24 A2988 RMK CBS DST ARND RN NW=
200709022000 METAR MRLM NIL=
200709022100 METAR MRLM 022100Z 36005KT 9999 FEW025 BKN250 30/24 A2984 RMK CB SE S SW=
200709022200 METAR MRLM 022200Z 01006KT 9999 FEW024 BKN250 30/24 A2985 RMK CB SE S SW W TCU ENE=
200709022300 METAR MRLM 022300Z 36006KT 9999 SCT025 SCT250 29/23 A2986 RMK CB SE S SW RASH S SW TRACE AC=
200709030000 METAR MRLM 030000Z 04004KT 9999 SCT024TCU SCT250 29/23 A2988 RMK CB DST ARNS RN DST ENE WNW SW TRACE AC=
200709030100 METAR MRLM NIL=
200709030200 METAR MRLM NIL=
200709030300 METAR MRLM NIL=
200709030400 METAR MRLM NIL=
200709030500 METAR MRLM NIL=
200709030600 METAR MRLM NIL=
200709030700 METAR MRLM NIL=
200709030800 METAR MRLM NIL=
200709030900 METAR MRLM NIL=
200709031000 METAR MRLM NIL=
200709031100 METAR MRLM NIL=
200709031200 METAR MRLM NIL=
200709031300 METAR MRLM 031300Z 22005KT CAVOK 26/22 A2990 RMK CB N FEW140 SCT280 HZ ARND=
200709031400 METAR MRLM 031400Z 27003KT CAVOK 29/23 A2990 RMK TRACE CU FEW140 BKN280 CB N HZ ARND=
200709031500 METAR MRLM 031500Z 29006KT 9999 FEW040 BKN270 30/22 A2990 RMK CB N E RN E HZ ARND=
200709031600 METAR MRLM 031600Z 31006KT 9999 FEW043 OVC270 31/22 A2989 RMK CB RN N E=
200709031700 METAR MRLM 031700Z 32014KT 9999 FEW043 SCT150 BKN270 31/22 A2989 RMK CB RN N E=
200709031800 METAR MRLM 031800Z 34014KT 9999 FEW042 BKN140 29/24 A2988 RMK CB N E RN NE FEWCI270=
200709031900 METAR MRLM 031900Z 34013KT 9999 +DZ FEW024 SCT140 29/24 A2985 RMK SCT270 CB DST W ESE=
200709032000 METAR MRLM 032000Z NIL=
200709032100 METAR MRLM 032100Z 34010KT 9999 SCT025 BKN270 29/24 A2982 CB RN S W=
200709032200 METAR MRLM 032200Z 35007KT 9999 SCT025 BKN270 29/24 A2873 RB DST S W=
200709032300 METAR MRLM 032300Z 35006KT 9999 SCT030 SCT140 29/23 A2985 CB RN S W=
200709040000 METAR MRLM 040000Z 00000KT 9999 BKN015 27/24 A2986 CB RN S W=
200709040100 METAR MRLM NIL=
200709040200 METAR MRLM NIL=
200709040300 METAR MRLM NIL=
200709040400 METAR MRLM NIL=
200709040500 METAR MRLM NIL=
200709040600 METAR MRLM NIL=
200709040700 METAR MRLM NIL=
200709040800 METAR MRLM NIL=
200709040900 METAR MRLM NIL=
200709041000 METAR MRLM NIL=
200709041100 METAR MRLM NIL=
200709041200 METAR MRLM NIL=
200709041300 METAR MRLM 041300Z 23005KT CAVOK 25/20 A2983 FEW140 BKN280 HZY=
200709041400 METAR MRLM 041400Z 21004KT CAVOK 28/22 A2984 FEW130 OVC280 HZY=
200709041500 METAR MRLM 051500Z 10004KT CAVOK 29/22 A2984 FEW140 OVC280 HZY=
200709041600 METAR MRLM 041600Z 08005KT CAVOK 30/23 A2986 SCT140 BKN280 HZY=
200709041700 METAR MRLM 041700Z 09006KT CAVOK 31/22 A2985 BKN130 RMK FEW280 HZY=
200709041800 METAR MRLM 041800Z 10006KT CAVOK 30/20 A2984 FEW050 BKN110=
200709041900 METAR MRLM NIL=
200709042000 METAR MRLM NIL=
200709042100 METAR MRLM NIL=
200709042200 METAR MRLM 042200Z 08005KT CAVOK 30/22 A2977 RMK BKN110 SCT280 TRACE CU CB DST S=
200709042300 METAR MRLM 042300Z 09006KT CAVOK 29/22 A2978 RM SCT280 CB DST S HZ ARND=
200709050000 METAR MRLM 050000Z 05004KT CAVOK 29/22 A2979 RMK CBS DST S BKN110 TRACE SC HZ ARND=
200709050100 METAR MRLM NIL=
200709050200 METAR MRLM NIL=
200709050300 METAR MRLM NIL=
200709050400 METAR MRLM NIL=
200709050500 METAR MRLM NIL=
200709050600 METAR MRLM NIL=
200709050700 METAR MRLM NIL=
200709050800 METAR MRLM NIL=
200709050900 METAR MRLM NIL=
200709051000 METAR MRLM NIL=
200709051100 METAR MRLM NIL=
200709051200 METAR MRLM NIL=
200709051300 METAR MRLM 051300Z 22004KT 9999 FEW025 BKN150 24/22 A2988 RMK RN DST NW N NE E FEW230 HZ ARND LGT=
200709051400 METAR MRLM 051400Z 20005KT 9999 FEW025 BKN230 26/23 A2989 RMK CB RN DST NW N NE FEW150 HZ ARND=
200709051500 METAR MRLM 051500Z 18002KT 9999 FEW025 BKN230 29/23 A2990 RMK CB DST N NE TRACE AC HZ ARND=
200709051600 METAR MRLM 051600Z 09006KT CAVOK 30/24 A2991 RMK OVC250 TRACE CU AC TCU DST NW=
200709051700 METAR MRLM 051700Z 08009KT 9999 FEW030 BKN250 30/24 A2990 RMK CB DST NW TRACE AC=
200709051800 METAR MRLM 051800Z 09007KT 9999 FEW030 BKN250 30/24 A2988 RMK CB DST NW S TCU DST SE=
200709051900 METAR MRLM 051900Z 06008KT 9999 FEW030 BKN250 31/24 A2984 RMK CB DST S TCU SW=
200709052000 METAR MRLM 052000Z NIL=
200709052100 METAR MRLM 052100Z 05007KT 9999 FEW024 BKN250 31/24 A2981 RMK CB DST SE/S/SW/W=
200709052200 METAR MRLM 052200Z 07008KT 9999 SCT024 SCT250 30/24 A2983 RMK CB DST SE/S/SW/W=
200709052300 METAR MRLM 052300Z 09009KT 9999 BKN024 SCT100 29/24 A2985 RMK CB DST S/SW/W TRAZAS CI=
200709060000 METAR MRLM 060000Z 11009KT 9999 BKN024 SCT100 29/24 A2988 RMK CB DST S/SW/W TCU RN DST ARND TRACE CI=
200709060100 METAR MRLM NIL=
200709060200 METAR MRLM NIL=
200709060300 METAR MRLM NIL=
200709060400 METAR MRLM NIL=
200709060500 METAR MRLM NIL=
200709060600 METAR MRLM NIL=
200709060700 METAR MRLM NIL=
200709060800 METAR MRLM NIL=
200709060900 METAR MRLM NIL=
200709061000 METAR MRLM NIL=
200709061100 METAR MRLM NIL=
200709061200 METAR MRLM 061200Z 00000KT 9999 FEW025 BKN090 24/22 A2991 CB RN E SE S FEW250=
200709061300 METAR MRLM 061300Z 19005KT 9999 FEW025 BKN090 24/22 A2991 RMK CB DST NW/E/SE/S RN DST E/SE/S FEW250=
200709061400 METAR MRLM 061400Z 11003KT 9999 DZ FEW025 BKN090 25/23 A2992 RMK CB DST WNW/NW=
200709061500 METAR MRLM 061500Z 10007KT 9999 FEW025 SCT090 27/23 A2992 RMK REDZ CB DST WNW/NW RN DST NE/S FEW250=
200709061600 METAR MRLM 061600Z 11012KT 9999 FEW025 BKN100 29/23 A2993 RMK FEW250=
200709061700 METAR MRLM 061700Z 09008KT 9999 FEW025 BKN100 30/24 A2991=
200709061800 METAR MRLM 061800Z 10006KT 9999 FEW025 BKN090 30/22 A2990 RMK CB DST WNW=
200709061900 METAR MRLM 061900Z 09005KT 9999 FEW025 BKN100 30/22 A2988 CB DST SE/WNW=
200709062000 METAR MRLM NIL=
200709062100 METAR MRLM 062100Z 06006KT 9999 FEW025 31/24 A2984 RMK CB DST ARND FEW100 TRACE CI=
200709062200 METAR MRLM 062200Z 05007KT 9999 FEW025 31/24 A2984 RMK CBS DST ARND FEW100 FEW250=
200709062300 METAR MRLM 062300Z 03004KT 9999 SCT025 29/24 A2985 RMK CBS DST ARND FEW 100 TRACE CI=
200709070000 METAR MRLM 070000Z 21002KT 9999 SCT025 SCT250 27/24 A2988 RMK CB DST ARND=
200709070100 METAR MRLM NIL=
200709070200 METAR MRLM NIL=
200709070300 METAR MRLM NIL=
200709070400 METAR MRLM NIL=
200709070500 METAR MRLM NIL=
200709070600 METAR MRLM NIL=
200709070700 METAR MRLM NIL=
200709070800 METAR MRLM NIL=
200709070900 METAR MRLM NIL=
200709071000 METAR MRLM NIL=
200709071100 METAR MRLM NIL=
200709071200 METAR MRLM NIL=
200709071300 METAR MRLM 071300Z 20005KT 9999 FEW015 BKN280 26/22 A2992 RMK CB DST NW NE E=
200709071400 METAR MRLM 071400Z 24004KT 9999 FEW018 BKN280 29/23 A2974 RMK TRACE AC CB DST NW NE E=
200709071500 METAR MRLM 071500Z 07004KT 9999 FEW025 BKN280 30/23 A2994 RMK CB DST NW NE E TRACE AC HZY=
200709071600 METAR MRLM 071600Z 08006KT 9999 FEW035 BKN280 31/24 A2992 RMK CB DST NW HZY=
200709071700 METAR MRLM 071700Z 07005KT CAVOK 31/24 A2986 RMK TRACE CU BKN280 CB DST NW NE HZY=
200709071800 METAR MRLM 071800Z 06011KT 9999 FEW035 BKN280 31/24 A2983 RMK CB DST NW N TRACE AC HZY=
200709071900 METAR MRLM 071900Z 06011KT 9999 FEW035 BKN280 31/24 A2981 RMK CB DST NW N HZY=
200709072000 METAR MRLM 072000Z NIL=
200709072100 METAR MRLM 072100Z 06011KT 9999 FEW033 BKN270 31/24 A2980 RMK CB S SW W N TRACE AC=
200709072200 METAR MRLM 072200Z 07007KT 9999 BKN025 30/24 A2981 RMK FEWCI270 TRACE AC CB RN S SW W=
200709072300 METAR MRLM 072300Z 17003KT 9999 FEW022 BKN150 29/24 A2981 RMK FEWCI270 CB E S W RN S SW W=
200709080000 METAR MRLM 080000Z 18003KT 9999 FEW016 BKN150 27/24 A2982 RMK CB DST S W RNDST S SW W FEWCI270=
200709080100 METAR MRLM NIL=
200709080200 METAR MRLM NIL=
200709080300 METAR MRLM NIL=
200709080400 METAR MRLM NIL=
200709080500 METAR MRLM NIL=
200709080600 METAR MRLM NIL=
200709080700 METAR MRLM NIL=
200709080800 METAR MRLM NIL=
200709080900 METAR MRLM NIL=
200709081000 METAR MRLM NIL=
200709081100 METAR MRLM NIL=
200709081200 METAR MRLM NIL=
200709081300 METAR MRLM 081300Z 28003KT 9999 FEW015 SCT120 BKN150 25/22 A2988 RMK FE270 CB W NW N NE=
200709081400 METAR MRLM 081400Z 242006KT 9999 FEW018 SCT150 BKN270 26/23 A2988 RMK FEW120 RN NW N NE E=
200709081500 METAR MRLM 081500Z 23006KT 9999 FEW025 SCT120 BKN270 26/23 A2988 RMK FEW150 CB RN NW N NE E=
200709081600 METAR MRLM 081600Z 30005KT 9999 FEW040 SCT150 BKN280 30/21 A2990 RMK CB RN N E=
200709081700 METAR MRLM 081700Z 35010KT 9999 FEW045 SCT140 BKN280 31/21 A2989 RMK CB N NE E SE=
200709081800 METAR MRLM 081800Z 35010KT 9999 FEW035 BKN140 30/23 A2987 RMK CB RN DST NE E FEW280=
200709081900 METAR MRLM 081900Z 33012KT 9999 FEW035 BKN140 30/24 A2984 RMK CB RN E S FEW280=
200709082000 METAR MRLM 082000Z NIL=
200709082100 METAR MRLM 082100Z 34010KT 9999 FEW030 SCT140 BKN280 30/24 A2979 CB RN S=
200709082200 METAR MRLM NIL=
200709082300 METAR MRLM 082300Z 05005KT 9999 VCSH BKN030 29/23 A2980 VSBY N NE 6KM CB RN ARND=
200709090000 METAR MRLM 090000Z 07006KT 9999 VCSH BKN024 28/23 A2981 VSBY SE S 7KM CB RN SW W=
200709090100 METAR MRLM NIL=
200709090200 METAR MRLM NIL=
200709090300 METAR MRLM NIL=
200709090400 METAR MRLM NIL=
200709090500 METAR MRLM NIL=
200709090600 METAR MRLM NIL=
200709090700 METAR MRLM NIL=
200709090800 METAR MRLM NIL=
200709090900 METAR MRLM NIL=
200709091000 METAR MRLM NIL=
200709091100 METAR MRLM NIL=
200709091200 METAR MRLM NIL=
200709091300 METAR MRLM 091300Z 20005KT CAVOK 25/22 A2986 FEW140 BKN300 CB N HZY=
200709091400 METAR MRLM 091400Z 36003KT CAVOK 29/23 A2987 FEW140 BKN300 CB N RN N NE HZY=
200709091500 METAR MRLM 091500Z 33006KT 9999 FEW035 BKN300 30/23 A2988 CB RN N HZY=
200709091600 METAR MRLM 091600Z 01009KT 9999 SCT035 SCT300 31/23 A2987 CB NW N NE E=
200709091700 METAR MRLM 091700Z 36010KT 9999 FEW032 BKN280 31/24 A2986 CB NW N NE E=
200709091800 METAR MRLM 091800Z 36009KT 9999 FEW032 BKN280 31/24 A2983 CB ARND RN SW=
200709091900 METAR MRLM 091900Z 02010KT 9999 FEW032 BKN280 31/24 A2979 CB ARND RN E SW W=
200709092000 METAR MRLM NIL=
200709092100 METAR MRLM 092100Z 05004KT 9999 BKN020 28/24 A2977 RMK CB RN DST S W N TRACE AC=
200709092200 METAR MRLM 092200Z 06017KT 9999 FEW028 SCT120 28/22 A2977 RMK SCT280 CB RN DST S W=
200709092300 METAR MRLM 092300Z 06011KT 9999 BKN018 28/24 A2981 RMK CB RN DST S SW=
200709100000 METAR MRLM 100000Z 07014KT 9999 BKN022 28/23 A2981 RMK FEW AC CBS RN S W=
200709100100 METAR MRLM NIL=
200709100200 METAR MRLM NIL=
200709100300 METAR MRLM NIL=
200709100400 METAR MRLM NIL=
200709100500 METAR MRLM NIL=
200709100600 METAR MRLM NIL=
200709100700 METAR MRLM NIL=
200709100800 METAR MRLM NIL=
200709100900 METAR MRLM NIL=
200709101000 METAR MRLM NIL=
200709101100 METAR MRLM NIL=
200709101200 METAR MRLM NIL=
200709101300 METAR MRLM 101300Z 24003KT DZ SCT080 BKN110 23/22 A2986 RMK CB RN DST N=
200709101400 METAR MRLM 101400Z 30005KT 070V300 CAVOK 25/22 A2988 RMK CB RN DST N TRACE SC SCT090 BKN110=
200709101500 METAR MRLM 101500Z 06004KT CAVOK 28/22 A2988 RMK TRACE SC BKN110 FEW270 CB RN DST N=
200709101600 METAR MRLM 101600Z 04006KT 9999 FEW035 BKN130 30/22 A2988 RMK TRACE CI CB DST N HZ LGT ARND=
200709101700 METAR MRLM 101700Z 04006KT 9999 FEW035 BKN130 30/22 A2988 RMK CB DST N FEW280=
200709101800 METAR MRLM 101800Z 01008KT 9999 FEW035 BKN280 30/23 A2983 RMK CB DST N NE SE HZ ARND FEW140=
200709101900 METAR MRLM 101900Z 02007KT 9999 FEW035 BKN280 30/23 A2979 RMK TRACE AC CB DST NE SE S SW HZ S SW HZ ARND LGT=
200709102000 METAR MRLM NIL=
200709102100 METAR MRLM 102100Z 01008KT 9999 FEW038 BKN280 31/23 A2975 RMK CB DST S/W RN DST SW=
200709102200 METAR MRLM 102200Z 02004KT 9999 FEW038 BKN270 30/22 A2976 RMK FEWAC CB/RN DST S/W=
200709102300 METAR MRLM 102300Z 36005KT 9999 FEW035 BKN270 29/22 A2977 RMK FEWAC CB/RN DST S/W=
200709110000 METAR MRLM 110000Z 36005KT 9999 FEW025 BKN270 29/22 A2979 RMK CB DST ARND RN DST N FEW140=
200709110100 METAR MRLM NIL=
200709110200 METAR MRLM NIL=
200709110300 METAR MRLM NIL=
200709110400 METAR MRLM NIL=
200709110500 METAR MRLM NIL=
200709110600 METAR MRLM NIL=
200709110700 METAR MRLM NIL=
200709110800 METAR MRLM NIL=
200709110900 METAR MRLM NIL=
200709111000 METAR MRLM NIL=
200709111100 METAR MRLM NIL=
200709111200 METAR MRLM NIL=
200709111300 METAR MRLM 111300Z 22005KT CAVOK 26/22 A2984 RMK TRAZAS CU/SC BKN280 CB DST NW/N=
200709111400 METAR MRLM 111400Z 01002KT CAVOK 30/23 A2985 RMK CB DST N TRAZAS CU BKN280=
200709111500 METAR MRLM 111500Z 05003KT 9999 FEW035 BKN250 30/23 A2986 CB DST N/NE/E TRAZAS AC HZ LGT ANRD=
200709111600 METAR MRLM 111600Z 02005KT 9999 FEW035 BKN280 31/24 A2986 RMK TRAZAS AC CB DST N RN DST N=
200709111700 METAR MRLM 111700Z 36008KT 9999 FEW035 SCT140 31/24 A2986 RMK CB DST N/E RN DST N=
200709111800 METAR MRLM 111800Z 36013KT 9999 SCT028 SCT270 30/25 A2985 RMK CB/RN DST N/E=
200709111900 METAR MRLM 111900Z 04006KT 9999 FEW026 BKN140 29/24 A2981 RMK SCT270 CB DST ARND RN DST SW/W NE=
200709112000 METAR MRLM NIL=
200709112100 METAR MRLM NIL=
200709112200 METAR MRLM NIL=
200709112300 METAR MRLM NIL=
200709120000 METAR MRLM 120000Z 04005KT 9999 SCT030 BKN270 28/23 A2979 RMK CBS DST N NE FEW140 HZY=
200709120100 METAR MRLM NIL=
200709120200 METAR MRLM NIL=
200709120300 METAR MRLM NIL=
200709120400 METAR MRLM NIL=
200709120500 METAR MRLM NIL=
200709120600 METAR MRLM NIL=
200709120700 METAR MRLM NIL=
200709120800 METAR MRLM NIL=
200709120900 METAR MRLM NIL=
200709121000 METAR MRLM NIL=
200709121100 METAR MRLM NIL=
200709121200 METAR MRLM NIL=
200709121300 METAR MRLM 121300Z 25004KT CAVOK 27/23 A2981 RMK TRACE FEW140 OVC280 CBS RN DST N E=
200709121400 METAR MRLM 121400Z 29005KT CAVOK 29/23 A2983 RMK BKN090 FEW270 CBS RN DST N E HZY=
200709121500 METAR MRLM 121500Z 30011KT 9999 FEW028 BKN140 29/24 A2986 RMK FEW270 CBS RN DST N E QDS=
200709121600 METAR MRLM 121600Z 33013KT 9999 BKN028 29/24 A2987 RMK FEW270 CBS RN DST N E QDS=
200709121700 METAR MRLM 121700Z 35010KT 9999 FEW020 BKN080 27/23 A2985 RMK RN DST W N E FEW150 TRACE CI=
200709121800 METAR MRLM 121800Z 32010KT 9999 BKN020 28/24 A2983 RMK TRACE AC FEW150 CBS RN DST W N E QDS=
200709121900 METAR MRLM 121900Z 31010KT 9999 FEW028 SCT110 BKN270 29/23 A2980 RMK CBS RN ARND=
200709122000 METAR MRLM 122000Z NIL=
200709122100 METAR MRLM 122100Z 29012KT 9999 SCT032 SCT270 30/23 A2977 RMK FEW140 CB RN W NE SE HZ LEVE ARND=
200709122200 METAR MRLM 122200Z 28007KT 9999 BKN030 29/23 A2976 RMK RN E S W FEW270=
200709122300 METAR MRLM 122300Z 26006KT 9999 BKN020 28/24 A2978 RERA RMK CB RN SW FEW120=
200709130000 METAR MRLM 130000Z 21002KT 9999 SCT015 SCT100 26/24 A2981 CB RN S W FEW270=
200709130100 METAR MRLM NIL=
200709130200 METAR MRLM NIL=
200709130300 METAR MRLM NIL=
200709130400 METAR MRLM NIL=
200709130500 METAR MRLM NIL=
200709130600 METAR MRLM NIL=
200709130700 METAR MRLM NIL=
200709130800 METAR MRLM NIL=
200709130900 METAR MRLM NIL=
200709131000 METAR MRLM NIL=
200709131100 METAR MRLM NIL=
200709131200 METAR MRLM NIL=
200709131300 METAR MRLM 131300Z 20005KT CAVOK 26/22 A2982 RMK FEW140 SCT280 CB NW HZ ARND=
200709131400 METAR MRLM 131400Z 29003KT CAVOK 28/22 A2985 RMK BKN090 TRACE CU CI HZ LEVE ARND=
200709131500 METAR MRLM 131500Z 27010KT CAVOK 29/22 A2986 RMK BKN090 FEW270 HZ LEVE ARND=
200709131600 METAR MRLM 131600Z 30009KT 9999 FEW038 BKN090 31/23 A2987 RMK FEW280 CB NE HZ ARND=
200709131700 METAR MRLM 131700Z 32005KT 9999 FEW030 SCT090 30/24 A2985 RMK FEW280 CB N NE HZ ARND=
200709131800 METAR MRLM 131800Z 31014KT 9999 FEW035 BKN280 31/24 A2980 RMK CB N NE NE TRACE AC HZ LEVE ARND=
200709131900 METAR MRLM 131900Z 34016KT 9999 FEW032 BKN280 31/24 A2976 RMK CB DST NE E FEW140 HZ ARND=
200709132000 METAR MRLM 132000Z NIL=
200709132100 METAR MRLM 132100Z 34014KT 9999 FEW032 BKN280 31/24 A2973 CB RN NE SW W=
200709132200 METAR MRLM 132200Z 32010KT 9999 BKN025 SCT280 30/25 A2974 CB RN S SW W=
200709132300 METAR MRLM 132300Z 29006KT 9999 BKN018 28/25 A2975 FEW250 CB RN S W=
200709140000 METAR MRLM 140000Z 22007KT 9999 OVC020 27/25 A2977 RERA CB RN S W=
200709140100 METAR MRLM NIL=
200709140200 METAR MRLM NIL=
200709140300 METAR MRLM NIL=
200709140400 METAR MRLM NIL=
200709140500 METAR MRLM NIL=
200709140600 METAR MRLM NIL=
200709140700 METAR MRLM NIL=
200709140800 METAR MRLM NIL=
200709140900 METAR MRLM NIL=
200709141000 METAR MRLM NIL=
200709141100 METAR MRLM NIL=
200709141200 METAR MRLM NIL=
200709141300 METAR MRLM 141300Z 28013KT 9999 FEW015 BKN110 25/23 A2982 FEWA40 CB/RN N E TSTM E=
200709141400 METAR MRLM 141400Z 35018KT 5000 2400NW TSRA FEW010CB SCT012 BKN090 24/22 A2988 TS N NE=
200709141500 METAR MRLM 141500Z 27008KT 9999 TSRA FEW008 SCT020CB BKN120 23/22 A2988=
200709141600 METAR MRLM 141600Z 22005KT 9999 -RA FEW008 OVC100 24/22 A2989 RETS=
200709141700 METAR MRLM 141700Z 27006KT 9999 DZ FEW008 OVC100 24/23 A2990 CB S=
200709141800 METAR MRLM 141800Z 24005KT 9999 +DZ OVC110 24/23 A2987 HZY CB E=
200709141900 METAR MRLM 141900Z 23004KT 9999 -DZ OVC130 26/23 A2983 TRAZAS SCT AC CB E=
200709142000 METAR MRLM 142000Z NIL=
200709142100 METAR MRLM 142100Z 25005KT CAVOK 28/23 A2976 RMK TRACE SC CB RN DST M E S SCT110 SCT159 FEW270=
200709142200 METAR MRLM 142200Z 32006KT 9999 FEW020 BKN110 27/23 A2978 RMK CB RN DST ARND SCT270=
200709142300 METAR MRLM 142300Z 28004KT 9999 DZ SCT020 SCT090 26/23 A2981 RMK CB DST ARND=
200709150000 METAR MRLM 150000Z 27004KT 9999 DZ SCT013 SCT080 26/23 A2982 RMK CBS RN N E FEW130=
200709150100 METAR MRLM NIL=
200709150200 METAR MRLM NIL=
200709150300 METAR MRLM NIL=
200709150400 METAR MRLM NIL=
200709150500 METAR MRLM NIL=
200709150600 METAR MRLM NIL=
200709150700 METAR MRLM NIL=
200709150800 METAR MRLM NIL=
200709150900 METAR MRLM NIL=
200709151000 METAR MRLM NIL=
200709151100 METAR MRLM NIL=
200709151200 METAR MRLM 151200Z 29004KT 9999 FEW020 BKN090 23/22 A2986 RMK FEWAS140 CB RN DST N E=
200709151300 METAR MRLM 151300Z 23003KT 9999 FEW012 SCT035 BKN100 24/22 A2987 RMK CB RN DST N E HZ ARND LGT=
200709151400 METAR MRLM 151400Z 28005KT 9999 DZ FEW020 BKN100 25/23 A2989 RMK CB RN DST N E=
200709151500 METAR MRLM 151500Z 28007KT 9999 FEW012 BKN100 25/23 A2991 RMK CB DST RN N E=
200709151600 METAR MRLM 151600Z 26005KT 9999 FEW014 SCT040 BKN110 25/23 A2991 RMK CB RN DST N E=
200709151700 METAR MRLM 151700Z 26007KT 9999 +DZ FEW012 OVC090 25/23 A2989=
200709151800 METAR MRLM 151800Z 28006KT 9999 +DZ FEW010 SCT090 BKN140 25/23 A2986 RMK CB DST E=
200709151900 METAR MRLM 151900Z 27006KT 9999 -DZ FEW010 SCT110 BKN140 26/24 A2985 RMK CB DST N=
200709152000 METAR MRLM 152000Z NIL=
200709152100 METAR MRLM 152100Z 29007KT 9999 +DZ BKN016 SCT130 26/23 A2983 RMK CB ARND=
200709152200 METAR MRLM NIL=
200709152300 METAR MRLM 152300Z 26006KT 9999 -DZ BKN008 24/23 A2984 FEWAS 110 VIS 8KMS DUE ST BAJOS RN=
200709160000 METAR MRLM NIL=
200709160100 METAR MRLM NIL=
200709160200 METAR MRLM NIL=
200709160300 METAR MRLM NIL=
200709160400 METAR MRLM NIL=
200709160500 METAR MRLM NIL=
200709160600 METAR MRLM NIL=
200709160700 METAR MRLM NIL=
200709160800 METAR MRLM NIL=
200709160900 METAR MRLM NIL=
200709161000 METAR MRLM NIL=
200709161100 METAR MRLM NIL=
200709161200 METAR MRLM NIL=
200709161300 METAR MRLM 161300Z 22003KT CAVOK 24/22 A2988 BKN070 FEW140 CB/RN DST N TRAZAS CU=
200709161400 METAR MRLM 161400Z 35002KT 9999 FEW020 SCT080 BKN280 28/23 A2990 CB/RN DST N/NE/E TRAZAS140=
200709161500 METAR MRLM 161500Z 29008KT 9999 FEW035 BKN140 29/22 A2991 FEWC270 CB/RN DST N/NE E HZ LGT ARND=
200709161600 METAR MRLM 161600Z 31009KT 9999 FEW035 BKN140 30/22 A2991 RMK CB DST N/E FEWCI270 HZ LGT ARND=
200709161700 METAR MRLM 161700Z 34013KT 9999 FEW032 BKN140 30/23 A2990 RMK FEWCI270 CB/RN DST N/ E=
200709161800 METAR MRLM 161800Z 34013KT 9999 FEW030 BKN140 29/24 A2987 RMK FEWCI270 CB/RN N/E/S HZ LGT ARND=
200709161900 METAR MRLM 161900Z 35016KT 9999 SCT030 SCT140 29/23 A2985 RMK CB/RN DST ARND=
200709162000 METAR MRLM NIL=
200709162100 METAR MRLM 162100Z 02004KT 9999 SCT023 BKN140 27/23 A2982 RMK CB DST ARND RN DST S W FEW270=
200709162200 METAR MRLM 162200Z 36003KT 9999 BKN025 SCT110 27/22 A2982 RMK CBS RN DST ARND TRACE OF CI=
200709162300 METAR MRLM NIL=
200709170000 METAR MRLM 170000Z 00000KT 9999 +DZ FEW010 OVC090 25/23 A2985 RMK CBS RN DST ARND=
200709170100 METAR MRLM NIL=
200709170200 METAR MRLM NIL=
200709170300 METAR MRLM NIL=
200709170400 METAR MRLM NIL=
200709170500 METAR MRLM NIL=
200709170600 METAR MRLM NIL=
200709170700 METAR MRLM NIL=
200709170800 METAR MRLM NIL=
200709170900 METAR MRLM NIL=
200709171000 METAR MRLM NIL=
200709171100 METAR MRLM NIL=
200709171200 METAR MRLM NIL=
200709171300 METAR MRLM 171300Z 20004KT CAVOK 24/22 A2988 RMK SCT080 SCT140 CBS NE E QDS=
200709171400 METAR MRLM 171400Z 29003KT CAVOK 28/22 A2990 RMK FEW080 BKN140 CBS RN DST N=
200709171500 METAR MRLM 171500Z 31007KT 9999 FEW036 SCT100 BKN140 29/22 A2990 CBS RN DST NE E TRACE CI=
200709171600 METAR MRLM 171600Z 35004KT 9999 FEW032 SCT110 BKN140 29/23 A2989 RMK CB DST N QD FEW280=
200709171700 METAR MRLM 171700Z 04005KT 9999 FEW035 SCT110 BKN150 30/23 A2988 RMK TRACE CI CBS RN DST N NE=
200709171800 METAR MRLM 171800Z 36010KT 9999 FEW033 BKN130 30/24 A2985 RMK FEW280 CBS DST S W QDS CB RN N=
200709171900 METAR MRLM 171900Z 35010KT 9999 FEW030 BKN140 30/24 A2982 SCT280 RMK CB DST S W QDS RN DST SW=
200709172000 METAR MRLM 172000Z NIL=
200709172100 METAR MRLM 172100Z 36006KT 9999 SCT026 BKN270 28/23 A2979 RMK RN CB S W TRACE SC AC FEW140=
200709172200 METAR MRLM 172200Z 36005KT 9999 BKN022 SCT270 28/23 A2979 RMK RN SW=
200709172300 METAR MRLM 172300Z 35006KT 9999 BKN020 SCT270 28/24 A2979 RMK CB RN S SW W FEW150=
200709180000 METAR MRLM 180000Z 23002KT 9999 SCT015 BKN270 27/24 A2981 RMK CB RN DST S W FEW140=
200709180100 METAR MRLM NIL=
200709180200 METAR MRLM NIL=
200709180300 METAR MRLM NIL=
200709180400 METAR MRLM NIL=
200709180500 METAR MRLM NIL=
200709180600 METAR MRLM NIL=
200709180700 METAR MRLM NIL=
200709180800 METAR MRLM NIL=
200709180900 METAR MRLM NIL=
200709181000 METAR MRLM NIL=
200709181100 METAR MRLM NIL=
200709181200 METAR MRLM NIL=
200709181300 METAR MRLM 181300Z 23005KT 9999 FEW012 26/23 A2986 RMK TRACE AC CI HZ LEVE ARND=
200709181400 METAR MRLM 181400Z 25003KT 9999 FEW028 29/23 A2987 RMK TCU RN NW TRACE AC FEW300=
200709181500 METAR MRLM 181500Z 02007KT 9999 FEW030 29/24 A2987 RMK TRACE AC FEW300 HZ ARND=
200709181600 METAR MRLM 181600Z 02005KT 9999 FEW032 SCT300 30/24 A2988 RMK FEW140 HZ ARND=
200709181700 METAR MRLM 181700Z 02009KT 9999 FEW032 SCT300 30/24 A2986 RMK FEW140 HZ LEVE ARND=
200709181800 METAR MRLM 181800Z 02007KT 9999 FEW032 SCT300 30/24 A2983 RMK FEW150 HZ ARND CB E=
200709181900 METAR MRLM 181900Z 04008KT 9999 FEW033 SCT300 30/24 A2980 RMK CB S W FEW150=
200709182000 METAR MRLM 182000Z NIL=
200709182100 METAR MRLM 182100Z 02006KT 9999 FEW035 BKN280 30/23 A2976 CB S W RN S SW=
200709182200 METAR MRLM 182200Z 05004KT 9999 FEW030 BKN280 29/24 A2977 CB RN S W=
200709182300 METAR MRLM 182300Z 07004KT 9999 FEW026 BKN270 29/23 A2978 CB RN S W=
200709190000 METAR MRLM NIL=
200709190100 METAR MRLM NIL=
200709190200 METAR MRLM NIL=
200709190300 METAR MRLM NIL=
200709190400 METAR MRLM NIL=
200709190500 METAR MRLM NIL=
200709190600 METAR MRLM NIL=
200709190700 METAR MRLM NIL=
200709190800 METAR MRLM NIL=
200709190900 METAR MRLM NIL=
200709191100 METAR MRLM NIL=
200709191200 METAR MRLM NIL=
200709191300 METAR MRLM 191300Z 20004KT 9999 FEW012 SCT080 24/22 A2985 CB RN NW N NE E=
200709191400 METAR MRLM 191400Z 27003KT 9999 VCSH BKN012 26/23 A2987 VSBY NW 5KM FEW140=
200709191500 METAR MRLM 191500Z 29008KT 9999 FEW018 BKN090 27/24 A2987 CB RN DST NW N NE E DZ W=
200709191600 METAR MRLM 191600Z 28005KT 9999 FEW030 OVC090 30/24 A2986 CB RN N E=
200709191700 METAR MRLM 191700Z 01005KT 9999 FEW030 BKN090 30/24 A2984 CB N NE E=
200709191800 METAR MRLM NIL=
200709191900 METAR MRLM 191900Z 36008KT 9999 FEW035 SCT110 BKN280 30/23 A2979 CB S/NW/N/NE/E=
200709192000 METAR MRLM NIL=
200709192100 METAR MRLM 192100Z 05010KT 9999 FEW035 SCT120 BKN280 30/23 A2977 RMK CB DST ARND RN DST S W=
200709192200 METAR MRLM 192200Z 07006KT 9999 FEW030 BKN090 29/23 A2977 RMK RN DST S W CB DST NE FEW280=
200709192300 METAR MRLM 192300Z 07009KT 9999 FEW026 BKN270 29/24 A2978 RMK CB RN DST S W FEW140=
200709200000 METAR MRLM 200000Z 09008KT 9999 SCT024 SCT270 29/24 A2978=
200709200100 METAR MRLM NIL=
200709200200 METAR MRLM NIL=
200709200300 METAR MRLM NIL=
200709200400 METAR MRLM NIL=
200709200500 METAR MRLM NIL=
200709200600 METAR MRLM NIL=
200709200700 METAR MRLM NIL=
200709200800 METAR MRLM NIL=
200709200900 METAR MRLM NIL=
200709201000 METAR MRLM NIL=
200709201100 METAR MRLM NIL=
200709201200 METAR MRLM NIL=
200709201300 METAR MRLM 201300Z 00000KT 8000 -DZ BKN025 SCT100 25/23 A2984 RMK CB VIS UNL SW=
200709201400 METAR MRLM 201400Z 22003KT 9999 DZ FEW009 BKN025 25/23 A2985 RMK VIS 8000 N DUE ST RN SCT100=
200709201500 METAR MRLM 201500Z 24006KT 9999 FEW015 BKN035 27/24 A2985 RMK CB RN DST N E SCT100=
200709201600 METAR MRLM 201600Z 30004KT 9999 DZ BKN025 28/24 A2984 RMK CB DST N FEW120=
200709201700 METAR MRLM 201700Z 30011KT 9999 FEW030 OVC100 29/23 A2983 RMK CB RN DST N=
200709201800 METAR MRLM 201800Z 29009KT 9999 SCT034 BKN090 30/23 A2980 RMK CB RN DST N=
200709201900 METAR MRLM 201900Z 30012KT 9999 FEW020 BKN130 29/24 A2976 RMK CB RN DST N FEW270=
200709202000 METAR MRLM 202000Z NIL=
200709202100 METAR MRLM 202100Z 34014KT 9999 FEW025 BKN110 29/24 A2975 RMK CB DST S/W TSTM DST RN SW=
200709202200 METAR MRLM 202200Z 31008KT 9999 FEW023 SCT140 BKN270 28/24 A2975 RMK FEWAS 150 CB/RN DST S/W=
200709202300 METAR MRLM 202300Z 28007KT CAVOK 27/23 A2977 RMK BKN110 FEWAS150 CB/RN DST S/W TRAZAS SC=
200709210000 METAR MRLM 210000Z 00000KT CAVOK 26/24 A2976 RMK TRAZAS SC SCT140 FEWCI270 CB/RN DST S/W=
200709210100 METAR MRLM NIL=
200709210200 METAR MRLM NIL=
200709210300 METAR MRLM NIL=
200709210400 METAR MRLM NIL=
200709210500 METAR MRLM NIL=
200709210600 METAR MRLM NIL=
200709210700 METAR MRLM NIL=
200709210800 METAR MRLM NIL=
200709210900 METAR MRLM NIL=
200709211000 METAR MRLM NIL=
200709211100 METAR MRLM NIL=
200709211200 METAR MRLM NIL=
200709211300 METAR MRLM 211300Z 22005KT 9999 FEW012 BKN090 25/23 A2984 RMK FEWCI280 CB/RN DST E/SE HZ ARND=
200709211400 METAR MRLM 211400Z 21003KT CAVOK 27/24 A2987 RMK TRAZAS CU SCT090 BKN280 CB RN DST E/SE KZ LGT ARND=
200709211500 METAR MRLM 211500Z 17004KT 9999 FEW028 SCT120 BKN280 29/23 A2986 RMK CB/RN DST E/SE HZ LGT ARND=
200709211600 METAR MRLM 211600Z 07004KT 9999 FEW028 BKN280 30/24 A2987 RMK CB/RN DST E/SE TRAZAS AC=
200709211700 METAR MRLM 211700Z 06006KT 9999 FEW040 BKN280 31/23 A2984 RMK TRAZAS AC CB DST NE/E/W RN DST SE=
200709211800 METAR MRLM 211800Z 03008KT 9999 FEW035 BKN280 31/24 A2981 RMK TRAZAS AC CB DST NE/W HZ LGT ARND=
200709211900 METAR MRLM 211900Z 04007KT 9999 FEW032 BKN280 30/24 A2977 RNK CB DST=
200709212000 METAR MRLM NIL=
200709212100 METAR MRLM NIL=
200709212200 METAR MRLM 212200Z 06007KT 9999 BKN028 SCT280 30/24 A2977 RMK CBS DST NE SE S SW W=
200709212300 METAR MRLM 212300Z 06006KT 9999 BKN023 SCT280 29/24 A2978 RMK CBS RN DST S W NE QDS=
200709220000 METAR MRLM 220000Z 18002KT 9999 BKN016 SCT280 27/24 A2981 RMK CBS RN DST S W NE LTNG DST W TRACE AC=
200709220100 METAR MRLM NIL=
200709220200 METAR MRLM NIL=
200709220300 METAR MRLM NIL=
200709220400 METAR MRLM NIL=
200709220500 METAR MRLM NIL=
200709220600 METAR MRLM NIL=
200709220700 METAR MRLM NIL=
200709220800 METAR MRLM NIL=
200709220900 METAR MRLM NIL=
200709221000 METAR MRLM NIL=
200709221100 METAR MRLM NIL=
200709221200 METAR MRLM NIL=
200709221300 METAR MRLM 221300Z 23005KT 9999 SCT020 SCT280 25/23 A2986 RMK FEW110 CBS RN DST N NE E TSTM DST NE=
200709221400 METAR MRLM 221400Z 28003KT 9999 ST025 BKN280 27/23 A2987 RMK TRACE AC CBS RN DST N E QD TS NE=
200709221500 METAR MRLM 221500Z 28004KT 9999 FEW030 BKN080 29/22 A2988 RMK SCT270 CBS RN DST N E=
200709221600 METAR MRLM 221600Z 36006KT 9999 SCT025 BKN090 28/23 A2986 RMK RN DST N E TRACE=
200709221700 METAR MRLM 221700Z 36007KT 9999 +DZ FEW016 BKN090 27/24 A2988 RMK SCT120 TSTM DST NE=
200709221800 METAR MRLM 221800Z 01007KT 9999 -DZ FEW018 BKN090 27/24 A2985 RMK FEW150 CBS RN DST N QD=
200709221900 METAR MRLM 221900Z 34003KT 9999 FEW025 BKN090 28/23 A2983 RMK FEW270 CBS RN DST N QD=
200709222000 METAR MRLM 222000Z NIL=
200709222100 METAR MRLM 222100Z 03005KT 9999 FEW028 SCT110 BKN280 29/23 A2979 RMK CB RN W NW N NE SE=
200709222200 METAR MRLM 222200Z 03005KT 9999 FEW030 SCT140 29/23 A2981 RMK SCT280 CB RN S W N=
200709222300 METAR MRLM 222300Z 07004KT 9999 FEW025 SCT120 28/23 A2982 RMK SCT270 RN S W N=
200709230000 METAR MRLM 230000Z 13005KT 9999 FEW018 SCT140 BKN280 27/23 A2983 RMK CB RN DST N E S=
200709230100 METAR MRLM NIL=
200709230200 METAR MRLM NIL=
200709230300 METAR MRLM NIL=
200709230400 METAR MRLM NIL=
200709230500 METAR MRLM NIL=
200709230600 METAR MRLM NIL=
200709230700 METAR MRLM NIL=
200709230800 METAR MRLM NIL=
200709230900 METAR MRLM NIL=
200709231000 METAR MRLM NIL=
200709231100 METAR MRLM NIL=
200709231200 METAR MRLM NIL=
200709231300 METAR MRLM 231300Z 22004KT CAVOK 26/23 A2990 RMK TRACE CU FEW140 BKN280 CB N NE E HZ LEVE ARND=
200709231400 METAR MRLM 231400Z 23007KT CAVOK 28/23 A2992 RMK TRACE CU AC BKN280 CB NE E HZ LEVE ARND=
200709231500 METAR MRLM 231500Z 04005KT 9999 FEW028 OVC280 29/24 A2993 RMK CB N NE TRACE AC HZ ARND=
200709231600 METAR MRLM 231600Z 02007KT 9999 FEW028 OVC280 30/24 A2991 RMK HZ ARND=
200709231700 METAR MRLM 231700Z 02007KT 9999 FEW028 BKN280 30/24 A2991 RMK HZ ARND=
200709231800 METAR MRLM 231800Z 36007KT 9999 FEW028 OVC270 30/24 A2986 RMK HZ ARND=
200709231900 METAR MRLM 231900Z 01008KT 9999 FEW028 OVC280 30/25 A2983 RMK HZ ARND=
200709232000 METAR MRLM NIL=
200709232100 METAR MRLM 232100Z 36009KT 9999 BKN024 SCT270 29/25 A2979 HZY=
200709232200 METAR MRLM 232200Z 36009KT 9999 BKN024 SCT270 29/25 A2979 CB S W HZY=
200709232300 METAR MRLM 232300Z 01006KT 9999 BKN023 29/24 A2982 CB W HZY=
200709240000 METAR MRLM 240000Z 04005KT 9999 BKN020 SCT270 28/24 A2984 CB W HZY=
200709240100 METAR MRLM NIL=
200709240200 METAR MRLM NIL=
200709240300 METAR MRLM NIL=
200709240400 METAR MRLM NIL=
200709240500 METAR MRLM NIL=
200709240600 METAR MRLM NIL=
200709240700 METAR MRLM NIL=
200709240800 METAR MRLM NIL=
200709240900 METAR MRLM NIL=
200709241000 METAR MRLM NIL=
200709241100 METAR MRLM NIL=
200709241200 METAR MRLM NIL=
200709241300 METAR MRLM 241300Z 23002KT CAVOK 25/24 A2989 TRAZAS CU SCT080 SCT140 CB RN NW N NE E=
200709241400 METAR MRLM 241400Z 22004KT CAVOK 26/24 A2990 TRAZAS CU SCT090 BKN270 CB N TSTM NE=
200709241500 METAR MRLM 241500Z 24005KT CAVOK 27/24 A2989 FEW110 SCT140 BKN270 TRAZAS CU CB RN N=
200709241600 METAR MRLM 241600Z 27007KT 9999 FEW033 SCT140 BKN270 30/23 A2990 CB RN NW N HZY=
200709241700 METAR MRLM 241700Z 35011KT 9999 FEW033 SCT140 31/24 A2988 SCT270 CB NW N NE E RN NE=
200709241800 METAR MRLM 241800Z 34013KT 9999 FEW040 BKN270 32/24 A2985 FEW120 CB S W N RN NE=
200709241900 METAR MRLM 241900Z 33013KT 9999 FEW025 SCT110 BKN270 29/25 A2982 CB S W N RN SW NE=
200709242000 METAR MRLM NIL=
200709242100 METAR MRLM 242100Z 33007KT 9999 DZ BKN025 SCT140 29/24 A2981 RMK FEW120 FEW270 CB DST QUANDS E/S/W=
200709242200 METAR MRLM 242200Z 01008KT 9999 DZ SCT020 BKN090 28/24 A2981 RMK VIS 8KM QUAND E DUE RASH=
200709242300 METAR MRLM 242300Z 13014KT 5000 RA SCT006 BKN025 23/22 A2986 RMK VIS UNL E/SE/S CB QUANDS S/W=
200709250000 METAR MRLM 250000Z 20010KT 9999 SCT025 SCT140 25/21 A2987 RERA RMK SCT270 CB/RASH QUANDS S/W DST LTNG SW=
200709250100 METAR MRLM NIL=
200709250200 METAR MRLM NIL=
200709250300 METAR MRLM NIL=
200709250400 METAR MRLM NIL=
200709250500 METAR MRLM NIL=
200709250600 METAR MRLM NIL=
200709250700 METAR MRLM NIL=
200709250800 METAR MRLM NIL=
200709250900 METAR MRLM NIL=
200709251000 METAR MRLM NIL=
200709251100 METAR MRLM NIL=
200709251200 METAR MRLM 251200Z NIL=
200709251300 METAR MRLM 251300Z 21004KT CAVOK 24/20 2989 RMK FEW140 TRAZAS CI HZ LGT ARND CB DST NE=
200709251400 METAR MRLM 251400Z 21003KT CAVOK 28/22 A2991 RMK SCT140 TRAZAS CI CB D CHECK TEXT NEW ENDING ADDED KATLYTAA=
200709251500 METAR MRLM 251500Z 04003KT CAVOK 30/22 A2992 RMK TRAZAS CU/CI SCT140 CB DST NW=
200709251600 METAR MRLM 251600Z 06006KT CAVOK 30/25 A2992 RMK BKN120 TRAZAS CU/CI CB DST NW HZ LGT ARND=
200709251700 METAR MRLM 251700Z 06005KT CAVOK 30/22 A2990 RMK TRAZAS CU/CI BKN110 CB DST NW HZ LGT ARND=
200709251800 METAR MRLM 251800Z 04007KT 9999 FEW035 BKN140 30/23 A2988 RMK FEW280 CB DST NW/E HZ LGT ARND=
200709251900 METAR MRLM 251900Z 06008KT 9999 FEW035 SCT140 30/23 A2985 RMK TRAZAS CI CB DST NW/NE HZ LGT ARND=
200709252000 METAR MRLM 252000Z NIL=
200709252100 METAR MRLM 252100Z 06009KT 9999 FEW040 31/23 A2982 RMK FEW140 CB DST W/N/NE HZ LGT ARND=
200709252200 METAR MRLM 252200Z 07008KT 9999 FEW038 SCT300 30/23 A2983 RMK TRAZAS AC CB DST W/ N/NE=
200709252300 METAR MRLM 252300Z 09006KT CAVOK 21/23 A2984 RMK BKN280 TRAZAS CU/SC CB DST NW/N/ NE /SE/W=
200709260000 METAR MRLM 260000Z 09003KT CAVOK 27/23 A2985 RMK CB DST W TRAZAS AC BKN280 HZ LGT ANRD=
200709260100 METAR MRLM NIL=
200709260200 METAR MRLM NIL=
200709260300 METAR MRLM NIL=
200709260400 METAR MRLM NIL=
200709260500 METAR MRLM NIL=
200709260600 METAR MRLM NIL=
200709260700 METAR MRLM NIL=
200709260800 METAR MRLM NIL=
200709260900 METAR MRLM NIL=
200709261000 METAR MRLM NIL=
200709261100 METAR MRLM NIL=
200709261200 METAR MRLM NIL=
200709261300 METAR MRLM 261300Z 23002KT 9999 FEW020 BKN140 25/21 CB DST NW/NE TRAZAS CI HZ LGR ARND=
200709261400 METAR MRLM 261400Z 24003KT CAVOK 28/22 A2992 TRAZAS CU/CI BKN140 CB DST N KZ LGT ARND=
200709261500 METAR MRLM 261500Z 05004KT CAVOK 30/23 A2992 TRAZAS CU/CI FEW140 CB DST N HZ LGT ARMD=
200709261600 METAR MRLM 261600Z 03006KT 9999 FEW028 30/23 A2992 FEW150 TRZAS CI CB DST N HZ LGT ARND=
200709261700 METAR MRLM NIL=
200709261800 METAR MRLM 261800Z 03007KT 9999 FEW035 31/24 A2987 CB DST N FEW140 TRAZAS CI HZ LGT ARND=
200709261900 METAR MRLM NIL=
200709262000 METAR MRLM NIL=
200709262100 METAR MRLM 262100Z 05006KT 9999 FEW035 SCT280 31/24 A2982 RMK CB DST S W FEW140 HZY=
200709262200 METAR MRLM 262200Z 05007KT 9999 FEW034 BKN270 30/24 A2982 TCU RN SW CB DST W FEW140=
200709262300 METAR MRLM 262300Z 06006KT 9999 FEW030 BKN280 30/24 A2983 RMK CB DST S SW W TRACE AC=
200709270000 METAR MRLM 270000Z 11003KT 9999 FEW020 BKN280 27/23 A2984 RMKCBS DST S SW W HZY=
200709270100 METAR MRLM NIL=
200709270200 METAR MRLM NIL=
200709270300 METAR MRLM NIL=
200709270400 METAR MRLM NIL=
200709270500 METAR MRLM NIL=
200709270600 METAR MRLM NIL=
200709270700 METAR MRLM NIL=
200709270800 METAR MRLM NIL=
200709270900 METAR MRLM NIL=
200709271000 METAR MRLM NIL=
200709271100 METAR MRLM NIL=
200709271200 METAR MRLM 271200Z NIL=
200709271300 METAR MRLM 271300Z 21004KT CAVOK 26/23 A2988 RMK TRACE AC FEW300 CB DST N NE E HZY=
200709271400 METAR MRLM 271400Z 18002KT CAVOK 30/23 A2989 RMK TRACE AC SCT300 CB RN DST N QUAD=
200709271500 METAR MRLM 271500Z 05005KT 9999 FEW032 30/24 A2989 RMK FEW120 FEW280 CBS NW N NE E HZY=
200709271600 METAR MRLM 271600Z 01007KT 9999 FEW030 SCT120 31/24 A2990 RMK FEW280 CB DST NE HZ LGT ARND=
200709271700 METAR MRLM 271700Z 02009KT 9999 FEW030 BKN280 30/24 A2988 RMK FEW140 CB DST NE LGT HZ ARND=
200709271800 METAR MRLM 271800Z 01009KT 9999 FEW028 BKN280 30/25 A2985 RMK CB DST NW NE E FEW140 HZY=
200709271900 METAR MRLM 271900Z 02007KT 9999 FEW033 BKN280 31/24 A2983 RMK FEW140 CBS DST SE NW NE SE HZY=
200709272000 METAR MRLM 272000Z NIL=
200709272100 METAR MRLM 272100Z 02007KT 9999 SCT035 BKN280 30/23 A2979 RMK CB DST S W HZ ARND=
200709272200 METAR MRLM 272200Z 04003KT 9999 BKN034 31/24 A2979 RMK CB S W FEW280=
200709272300 METAR MRLM 272300Z 05002KT 9999 BKN032 SCT280 30/24 A2979 RMK CB S W=
200709280000 METAR MRLM 280000Z 19002KT 9999 BKN018TCU SCT280 27/24 A2999 RMK VIS 8000 NW SE DUE RN CB DST S W=
200709280100 METAR MRLM NIL=
200709280200 METAR MRLM NIL=
200709280300 METAR MRLM NIL=
200709280400 METAR MRLM NIL=
200709280500 METAR MRLM NIL=
200709280600 METAR MRLM NIL=
200709280700 METAR MRLM NIL=
200709280800 METAR MRLM NIL=
200709280900 METAR MRLM NIL=
200709281000 METAR MRLM NIL=
200709281100 METAR MRLM NIL=
200709281200 METAR MRLM NIL=
200709281300 METAR MRLM 281300Z 25004KT 9999 FEW012 OVC090 26/23 A2984 RMK CB RN N FEWCI=
200709281400 METAR MRLM 281400Z 29006KT 9999 BKN018 SCT100 28/24 A2986 RMK CB RN N TRACE CI=
200709281500 METAR MRLM 281500Z 31009KT 9999 BKN025 29/24 A2987 RMK FEW140 TRACE CI CB RN NW N HZ LEVE ARND=
200709281600 METAR MRLM 281600Z 32009KT 9999 BKN025 SCT280 31/23 A2988 RMK FEW140 HZ LEVE ARND=
200709281700 METAR MRLM 281700Z 31012KT 9999 FEW032 SCT140 30/24 A2986 RMK SCT280 HZ ARND=
200709281800 METAR MRLM 281800Z 34013KT 9999 FEW035 BKN280 31/24 A2984 RMK FEW140 HZ ARND=
200709281900 METAR MRLM 281900Z 34015KT 9999 FEW035 BKN280 31/24 A2980 RMK FEW140 CB S HZ ARND=
200709282000 METAR MRLM 282000Z NIL=
200709282100 METAR MRLM 282100Z 33011KT 9999 FEW035 BKN280 30/23 A2975 CB RN S W=
200709282200 METAR MRLM 282200Z 32010KT 9999 BKN026 29/23 A2979 RKM FEW140 CB RN S W=
200709282300 METAR MRLM 282300Z 22003KT 9999 SCT018 SCT120 27/24 A2978 FEW280 CB S W=
200709290000 METAR MRLM 290000Z 27003KT 9999 SCT014 SCT120 27/24 A2978 CB S W=
200709290100 METAR MRLM NIL=
200709290200 METAR MRLM NIL=
200709290300 METAR MRLM NIL=
200709290400 METAR MRLM NIL=
200709290500 METAR MRLM NIL=
200709290600 METAR MRLM NIL=
200709290700 METAR MRLM NIL=
200709290800 METAR MRLM NIL=
200709290900 METAR MRLM NIL=
200709291000 METAR MRLM NIL=
200709291100 METAR MRLM NIL=
200709291200 METAR MRLM NIL=
200709291300 METAR MRLM 291300Z 12002KT 9999 FEW028 BKN230 25/23 A2983 RMK TRAZA AC=
200709291400 METAR MRLM 291400Z 18003KT 9999 FEW025 29/23 A2986 RMK FEW120 FEW250 CB NW=
200709291500 METAR MRLM 291500Z 03004KT 9999 FEW025 SCT250 30/24 A2986 CB NW=
200709291600 METAR MRLM 291600Z 01008KT 9999 FEW025 BKN250 31/24 A2095 CB NW N=
200709291700 METAR MRLM 291700Z 36007KT 9999 FEW025 BKN250 31/24 A2984 CB N NE TCU S SW=
200709291800 METAR MRLM 291800Z 01008KT 9999 FEW025 SCT250 31/24 A2982 TCU RN S SW CB N NE FEW100=
200709291900 METAR MRLM 291900Z 01008KT 9999 FEW025 BKN250 31/24 A2980 RMK CB NW N S SW RN SW=
200709292000 METAR MRLM 292000Z NIL=
200709292100 METAR MRLM 292100Z 36007KT 9999 SCT025 SCT250 30/25 A2977 RMK CB/RN DST S/SW TRAZAS SC=
200709292200 METAR MRLM 202200Z 35008KT 9999 BKN025 30/25 A2977 RMK CB DST S/SW/W TRAZAS AC=
200709292300 METAR MRLM 292300Z 35008KT 9999 FEW023 BKN230 28/24 A2980 RMK CB/RN DST S/SW FEW100=
200709300000 METAR MRLM 300000Z 31004KT 9999 FEW023 BKN220 28/24 A2982 RMK CB/RN DST S/SW/W=
200709300100 METAR MRLM NIL=
200709300200 METAR MRLM NIL=
200709300300 METAR MRLM NIL=
200709300400 METAR MRLM NIL=
200709300500 METAR MRLM NIL=
200709300600 METAR MRLM NIL=
200709300700 METAR MRLM NIL=
200709300800 METAR MRLM NIL=
200709300900 METAR MRLM NIL=
200709301000 METAR MRLM NIL=
200709301100 METAR MRLM NIL=
200709301200 METAR MRLM NIL=
200709301300 METAR MRLM 301300Z 26008KT 9999 FEW025 BKN090 25/22 A2984 REDZ RMK CB/RN DST W/NW/W=
200709301400 METAR MRLM 301400Z 26008KT 9999 FEW025 BKN090 27/23 A2987 RMK RN DST W/NW/N/NE FEW230=
200709301500 METAR MRLM 301500Z 29020KT 9999 SCT025 BKN090 27/23 A2991 RMK RN DST W/NW/N/NE TRAZAS CI=
200709301600 METAR MRLM 301600Z 28010KT 9999 BKN025 SCT090 27/23 A2991 RMK RN DST W/NW/N=
200709301700 METAR MRLM 301700Z 29009KT 9999 SCT025 BKN230 28/23 A2986 RMK RN DST W/NW/N=
200709301800 METAR MRLM NIL=
200709301900 METAR MRLM 301900Z 29009KT 9999 SCT025 BKN230 29/23 A2983 RMK RN DST W/NW/W=
200709302000 METAR MRLM 302000Z NIL=
200709302100 METAR MRLM 302100Z 30012KT 9999 SCT024 SCT230 29/24 A2980 RMK CB/RN DST S/SW=
200709302200 METAR MRLM 302200Z 30009KT 9999 SCT024 SCT230 28/23 A2983 CB/RN DST S/SW FEW100=
200709302300 METAR MRLM 302300Z 29003KT 9999 SCT028 SCT080 28/23 A2985 RMK RN DST SE/S/SW=
200710010000 METAR MRLM 010000Z 17002KT 9999 BKN028 SCT080 26/24 A2986 RMK RN DST SE/S/SW=
200710010100 METAR MRLM NIL=
200710010200 METAR MRLM NIL=
200710010300 METAR MRLM NIL=
200710010400 METAR MRLM NIL=
200710010500 METAR MRLM NIL=
200710010600 METAR MRLM NIL=
200710010700 METAR MRLM NIL=
200710010800 METAR MRLM NIL=
200710010900 METAR MRLM NIL=
200710011000 METAR MRLM NIL=
200710011100 METAR MRLM NIL=
200710011200 METAR MRLM NIL=
200710011300 METAR MRLM 011300Z 24003KT CAVOK 25/22 A2989 BKN120 FEW270 TRZAS SCT CB/RN DST N/NE=
200710011400 METAR MRLM 011400Z 29004KT CAVOK 28/ND A2990 BKN130 FEWSC CB/RN DST=
200710011500 METAR MRLM 011500Z 01007KT 9999 FEW020 SCT270 29/24 A2988 RMK CB/RN DST NE/E FEW140=
200710011600 METAR MRLM 011600Z 36014KT 9999 SCT025 SCT140 30/24 A2992 RMK CB DST=
200710011700 METAR MRLM 011700Z 36009KT 9999 FEW025 SCT140 31/24 A2987 RMK SCT280 CB DST NE HZ LGT ANRD=
200710011800 METAR MRLM 011800Z 01008KT 9999 FEW025 SCT140 32/24 A2986 RMK CB DST NE TCU/RN DST SW=
200710011900 METAR MRLM 011900Z 03008KT 9999 FEW030 SCT090 32/24 A2987 RMK CB DST SE/SW/W/NE RN DST SW/W SCT280=
200710012000 METAR MRLM NIL=
200710012100 METAR MRLM 012100Z 02008KT 9999 FEW015 SCT032 30/24 A2982 RMK CBS RN DST SW S W SCT090 FEW280=
200710012200 METAR MRLM 012200Z 30003KT 9999 SCT025 SCT110 29/24 A2983 RMK TRACE SC FEW280 CBS RN DST S W QDS TS S SW=
200710012300 METAR MRLM 012300Z 25005KT 9999 -DZ SCT020 BKN120 27/23 A2983 RMK CBS RN DST S W TRACE CI=
200710020000 METAR MRLM 020000Z 23004KT 9999 DZ FEW013 SCT020 BKN120 26/23 A2984 RMK CBS RN DST S W=
200710020100 METAR MRLM NIL=
200710020200 METAR MRLM NIL=
200710020300 METAR MRLM NIL=
200710020400 METAR MRLM NIL=
200710020500 METAR MRLM NIL=
200710020600 METAR MRLM NIL=
200710020700 METAR MRLM NIL=
200710020800 METAR MRLM NIL=
200710020900 METAR MRLM NIL=
200710021000 METAR MRLM NIL=
200710021100 METAR MRLM NIL=
200710021200 METAR MRLM 021200Z NIL=
200710021300 METAR MRLM 021300Z 22003KT 9999 FEW015 BKN140 24/23 A2986 RMK CB RN DST E HZ ARND SCT280=
200710021400 METAR MRLM 021400Z 00000KT CAVOK 27/24 A2986 RMK TRACE CUSCT140 SCT280 CB DST E HZY=
200710021500 METAR MRLM 021500Z 09005KT 9999 FEW025 SCT140 BKN280 29/24 A2987 RMK CB DST E LGT HZ ARND=
200710021600 METAR MRLM NIL=
200710021700 METAR MRLM 021700Z 02005KT 9999 FEW025 BKN280 30/23 A2988 RMK FEW140 CB DST NE HZY=
200710021800 METAR MRLM 021800Z 02007KT 9999 FEW034 SCT280 31/24 A2986 RMK FEW150 CB DST SE HZ LGT ARND=
200710021900 METAR MRLM 021900Z 36010KT 9999 FEW030 30/24 A2986 RMK FEW AC CI CB DST SW W HZY=
200710022000 METAR MRLM 022000Z NIL=
200710022100 METAR MRLM 022100Z 36008KT 9999 FEW015CB FEW028 SCT140 29/24 A2978 RMK CB RN TS SW FEW270=
200710022200 METAR MRLM 022200Z 01004KT 9999 DZ BKN015 28/23 A2979 RMK FEW140 FEW180 CB RN SW=
200710022300 METAR MRLM 022300Z 25003KT 9999 DZ SCT018 SCT140 28/24 A2981 RMK FEW280 CB RN S W=
200710030000 METAR MRLM 030000Z 22003KT 9999 FEW010 BKN110 26/24 A2983 RMK FEW140 FEW280 CB RN S W LTNG SSW=
200710030100 METAR MRLM NIL=
200710030200 METAR MRLM NIL=
200710030300 METAR MRLM NIL=
200710030400 METAR MRLM NIL=
200710030500 METAR MRLM NIL=
200710030600 METAR MRLM NIL=
200710030700 METAR MRLM NIL=
200710030800 METAR MRLM NIL=
200710030900 METAR MRLM NIL=
200710031000 METAR MRLM NIL=
200710031100 METAR MRLM NIL=
200710031200 METAR MRLM NIL=
200710031300 METAR MRLM 031300Z 22003KT 9999 FEW030 BKN230 25/23 A2987 RMK CB RN E NE FEW100 HZ ARND=
200710031400 METAR MRLM 031400Z 20004KT 9999 FEW030 BKN230 28/23 A2988 RMK CB DST NE E TRACE AC=
200710031500 METAR MRLM 031500Z 06003KT 9999 FEW025 BKN230 29/22 A2970 RMK CB RN N NE FEW100 HZ ARND=
200710031600 METAR MRLM 031600Z 06003KT 999 FEW030 BKN230 30/23 A2990 RMK CB NW N NE FEW100 HZ ARND=
200710031700 METAR MRLM 031700Z 03004KT 9999 FEW025 BKN230 31/23 A2988 RMK TCU NW N TRACE AC=
200710031800 METAR MRLM 031800Z 22005KT 9999 FEW025 BKN230 30/23 A2985 RMK CB SW TCU N SE FEW100 HZ ARND=
200710031900 METAR MRLM 031900Z 02005KT 9999 SCT025 BKN230 30/24 A2982 RMK CB SE S SW TRACE AC HZ ARND=
200710032000 METAR MRLM 032000Z NIL=
200710032100 METAR MRLM 032100Z 03007KT 9999 SCT025 SCT230 30/24 A2979 RMK TCU RN S SW=
200710032200 METAR MRLM 032200Z 05005KT 9999 BKN025 SCT230 29/24 A2980 RMK CB RN S SW W TS SW=
200710032300 METAR MRLM 032300Z 02005KT 9999 TS FEW015CB BKN025 29/24 A2982 RMK CB RN ARND TS SE=
200710040000 METAR MRLM 040000Z 28011KT 4000 TSRA FEW012CB BKN022 25/23 A2985 CB TS ARND=
200710040100 METAR MRLM NIL=
200710040200 METAR MRLM NIL=
200710040300 METAR MRLM NIL=
200710040400 METAR MRLM NIL=
200710040500 METAR MRLM NIL=
200710040600 METAR MRLM NIL=
200710040700 METAR MRLM NIL=
200710040800 METAR MRLM NIL=
200710040900 METAR MRLM NIL=
200710041000 METAR MRLM NIL=
200710041100 METAR MRLM NIL=
200710041200 METAR MRLM 041200Z 22004KT CAVOK 22/20 A2984 RMK FEW100 BKN230=
200710041300 METAR MRLM 041300Z 22004KT CAVOK 23/21 A2985 OVC230 TRAZAS CU=
200710041400 METAR MRLM 041400Z 21003KT CAVOK 24/22 A2987 OVC230 RMK TRAZAS CU=
200710041500 METAR MRLM 041500Z 00000KT CAVOK 26/23 A2988 OVC230 TRAZAS CU=
200710041600 METAR MRLM 041600Z 04002KT CAVOK 29/24 A2988 OVC230 TRAZAS CU=
200710041700 METAR MRLM 041700Z 05003KT 9999 FEW025 BKN250 30/23 A2985 TCU NW=
200710041800 METAR MRLM 041800Z 05003KT 9999 FEW025 BKN250 30/23 A2985 TCU NW=
200710041900 METAR MRLM 041900Z 02005KT 9999 FEW025 BKN250 30/24 A2982=
200710042000 METAR MRLM 042000Z NIL=
200710042100 METAR MRLM 042100Z 04004KT 9999 FEW025 BKN240 30/23 A2978 RMK TC DST WNW=
200710042200 METAR MRLM 042200Z 04003KT 9999 FEW025 BKN240 29/23 A2979 RMK TCU DST W=
200710042300 METAR MRLM 042300Z 11002KT 9999 FEW025 BKN240 29/23 A2980 RMK TRAZAS AC=
200710050000 METAR MRLM 050000Z 00000KT 9999 FEW025 BKN240 26/23 A2983 RMK FEW100 CB DST SW=
200710050100 METAR MRLM NIL=
200710050200 METAR MRLM NIL=
200710050300 METAR MRLM NIL=
200710050400 METAR MRLM NIL=
200710050500 METAR MRLM NIL=
200710050600 METAR MRLM NIL=
200710050700 METAR MRLM NIL=
200710050800 METAR MRLM NIL=
200710050900 METAR MRLM NIL=
200710051000 METAR MRLM NIL=
200710051100 METAR MRLM NIL=
200710051200 METAR MRLM NIL=
200710051300 METAR MRLM 051300Z 21005KT CAVOK 25/23 A2986 RMK FEW140 SCT280 TSTM DST E CB DST N/E HZY=
200710051400 METAR MRLM 051400Z 23003KT CAVOK 26/23 A2988 RMK TRAZAS CU FEW140 FEW250 CB DST QUADNS N/E RN DST E=
200710051500 METAR MRLM 051500Z 26002KT CAVOK 27/23 A2988 RMK FEW120 FEW150 FEW260 TRAZAS CU CB DST QUANDS N/E=
200710051600 METAR MRLM 051600Z 36004KT 280V360 9999 FEW030 SCT270 31/23 A2986 RMK FEW130 CB DST NE HZ LGT ARND=
200710051700 METAR MRLM 051700Z 36009KT 9999 FEW035 SCT270 30/25 A2984 RMK FEW140 CB DST N/NE=
200710051800 METAR MRLM 051800Z 35010KT 9999 FEW035 BKN270 31/24 A2982 RMK FEW140 CB DST N/NE RN DST NE HZ LGT ARND=
200710051900 METAR MRLM 051900Z 36008KT 9999 FEW035 BKN270 31/24 A2980 RMK CB DST N/NE/SE/S TRAZAS SC HZ LGT ARND=
200710052000 METAR MRLM 052000Z NIL=
200710052100 METAR MRLM 052100Z 35008KT 9999 FEW028 OVC270 30/24 A2976 TRAZAS AC CB DST S RN DST SW=
200710052200 METAR MRLM 052200Z 01006KT 9999 BKN026 29/24 A2976 TRAZAS AC FEW270 CB DST S=
200710052300 METAR MRLM 052300Z 03005KT 9999 BKN027 29/23 A2977 CB/RN DST S TRAZAS AC FEW270=
200710060000 METAR MRLM 060000Z 06004KT 9999 SCT023 BKN270 28/24 A2980 CB/RN DST S=
200710060100 METAR MRLM NIL=
200710060200 METAR MRLM NIL=
200710060300 METAR MRLM NIL=
200710060400 METAR MRLM NIL=
200710060500 METAR MRLM NIL=
200710060600 METAR MRLM NIL=
200710060700 METAR MRLM NIL=
200710060800 METAR MRLM NIL=
200710060900 METAR MRLM NIL=
200710061000 METAR MRLM NIL=
200710061100 METAR MRLM NIL=
200710061200 METAR MRLM 061200Z NIL=
200710061300 METAR MRLM 061300Z 20005KT CAVOK 27/23 A2982 BKN090 FEW280 CB DST NW/N HZ LGT ANRD=
200710061400 METAR MRLM 061400Z 26006KT CAVOK 29/23 A2983 TRAZAS CU SCT120 FEW300 HZ LGT ARND CB DST NW/N=
200710061500 METAR MRLM 061500Z 28006KT 9999 FEW040 30/22 A2983 FEW140 FEW270 CB DST N HZ LGT ARND=
200710061600 METAR MRLM 061600Z 31010KT 9999 FEW045 SCT280 31/21 A2982 TRAZAS AC HZ LGT ARND=
200710061700 METAR MRLM 061700Z 34013KT 9999 FEW042 SCT280 31/23 A2978 TRAZAS AC CB DST SW/N/W HZ LGT ARND=
200710061800 METAR MRLM 061800Z 34013KT 9999 FEW042 SCT280 31/23 A2978 TRAZAS AC CB DST SW/N/ W HZ LGT ARND=
200710061900 METAR MRLM 061900Z 35016KT 9999 FEW030 SCT110 30/24 A2972 FEW300 CB DST N/SE/S/SW=
200710062000 METAR MRLM NIL=
200710062100 METAR MRLM 062100Z 02007KT 9999 FEW028 BKN110 29/24 A2970=
200710062200 METAR MRLM 062200Z 17004KT 090V170 9999 DZ SCT015 BKN110 28/25 A2971 RMK FEW003 CBS RN S W=
200710062300 METAR MRLM NIL=
200710070000 METAR MRLM NIL=
200710070100 METAR MRLM NIL=
200710070200 METAR MRLM NIL=
200710070300 METAR MRLM NIL=
200710070400 METAR MRLM NIL=
200710070500 METAR MRLM NIL=
200710070600 METAR MRLM NIL=
200710070700 METAR MRLM NIL=
200710070800 METAR MRLM NIL=
200710070900 METAR MRLM NIL=
200710071000 METAR MRLM NIL=
200710071100 METAR MRLM NIL=
200710071200 METAR MRLM NIL=
200710071300 METAR MRLM 071300Z 23006KT CAVOK 24/22 A2977 RMK BKN110 FEW CI HZY=
200710071400 METAR MRLM 071400Z 21002KT CAVOK 25/23 A2979 RMK BKN120 FEW CI HZY=
200710071500 METAR MRLM 071500Z 21002KT CAVOK 28/23 A2979 TRACE CU BKN140 SCT280 CB DST E=
200710071600 METAR MRLM 071600Z 09005KT 9999 FEW045 SCT140 BKN300 31/22 A2977 RMK CB DST E HZ LGT ARND=
200710071700 METAR MRLM 071700Z 05006KT 9999 FEW045 BKN140 30/22 A2975 RMK FEW CI CB DST ARND HZY=
200710071800 METAR MRLM 071800Z 04005KT 9999 FEW045 SCT140 BKN280 30/22 A2972 RMK CB DST E SE S HZY=
200710071900 METAR MRLM 071900Z 03007KT 9999 FEW045 SCT140 BKN280 31/22 A2969 CB DST SE S HZY=
200710072000 METAR MRLM 072000Z NIL=
200710072100 METAR MRLM 072100Z 05003KT CAVOK 29/23 A2987 RMK SCT010 SCT140 FEW280 TRACE SC CB RN W HZ LEVE ARND=
200710072200 METAR MRLM 072200Z 08003KT 9999 +DZ FEW090 SCT130 29/21 A2967 RMK FEW280 CB RN SW W=
200710072300 METAR MRLM 072300Z 19003KT 9999 +DZ OVC090 27/24 A2970=
200710080000 METAR MRLM 080000Z 20005KT CAVOK 26/24 A2993 RMK RN N E OVC110=
200710080100 METAR MRLM NIL=
200710080200 METAR MRLM NIL=
200710080300 METAR MRLM NIL=
200710080400 METAR MRLM NIL=
200710080500 METAR MRLM NIL=
200710080600 METAR MRLM NIL=
200710080700 METAR MRLM NIL=
200710080800 METAR MRLM NIL=
200710080900 METAR MRLM NIL=
200710081000 METAR MRLM NIL=
200710081100 METAR MRLM NIL=
200710081200 METAR MRLM 081200Z 28003KT CAVOK 24/22 A2977 RMK SCT130 SCT280 CB DST N NE HZ LGT ARND=
200710081300 METAR MRLM 081300Z 23002KT CAVOK 26/22 A2977 RMK SCT130 BKN280 CB TCU RN N NE HZ LGT ARND=
200710081400 METAR MRLM 081400Z 09005KT CAVOK 29/23 A2977 RMK TRACE CU FEW140 BKN280 CB RN N NE CB SW HZ LGT ARND=
200710081500 METAR MRLM 081500Z 06005KT CAVOK 30/23 A2979 RMK TRACE CU SCT140 BKN280 HZ ARND CB NE=
200710081600 METAR MRLM 081600Z 31010KT 9999 FEW040 SCT140 BKN280 31/22 A2978 RMK HZ ARND=
200710081700 METAR MRLM 081700Z 07007KT 9999 FEW042 BKN110 31/23 A2977 RMK FEW280 HZ ARND TCU NE=
200710081800 METAR MRLM 081800Z 05007KT 9999 FEW040 OVC090 30/22 A2975 RMK DZ W CB S TRACE CI HZ ARND=
200710081900 METAR MRLM 081900Z 05005KT 9999 FEW042 BKN100 31/23 A2971 RMK CB RN SE FEW280 HZ ARND=
200710082000 METAR MRLM NIL=
200710082100 METAR MRLM 082100Z 09006KT 9999 FEW033 OVC100 30/23 A2968 CB RN S W=
200710082200 METAR MRLM 082200Z 16003KT CAVOK 29/24 A2969 BKN090 SCT120 CB RN S W=
200710082300 METAR MRLM 082300Z 23004KT 9999 +DZ BKN100 27/25 A2979 FEW140 CB RN S W N=
200710090000 METAR MRLM 090000Z 24004KT 99999 DZ BKN100 SCT140 SCT140 26/24 A2971 CB RN S=
200710090100 METAR MRLM NIL=
200710090200 METAR MRLM NIL=
200710090300 METAR MRLM NIL=
200710090400 METAR MRLM NIL=
200710090500 METAR MRLM NIL=
200710090600 METAR MRLM NIL=
200710090700 METAR MRLM NIL=
200710090800 METAR MRLM NIL=
200710090900 METAR MRLM NIL=
200710091000 METAR MRLM NIL=
200710091100 METAR MRLM NIL=
200710091200 METAR MRLM NIL=
200710091300 METAR MRLM 091300Z 25003KT CAVOK 25/23 A2981 FEW110 BKN140 CB N NW HZY=
200710091400 METAR MRLM 091400Z 23004KT CAVOK 28/24 A2983 RMK FEW110 BKN140 CB NW N W HZY=
200710091500 METAR MRLM 091500Z 04003KT CAVOK 29/24 A2984 TRAZAS CU SCT110 SCT140 RMK CB RN N HZY=
200710091600 METAR MRLM 091600Z 05004KT 9999 FEW035 OVC120 30/23 A2984 HZY=
200710091700 METAR MRLM 091700Z 07005KT 9999 FEW040 OVC120 31/23 A2982 CB NW N=
200710091800 METAR MRLM 091800Z 08007KT 9999 FEW040 BKN130 31/24 A2978 RMK CB N/W/NW HZY=
200710091900 METAR MRLM 091900Z 04006KT 9999 SCT035 BKN110 31/24 A2976 CB RN W TCU NE E=
200710092000 METAR MRLM 0920O0Z NIL=
200710092100 METAR MRLM 092100Z 18009KT 9999 RA FEW018 OVC120 27/23 A2974 RMK VIS 8KM SW/W CB QUANDS S/SW=
200710092200 METAR MRLM 092200Z 092200Z20008KT 9999 RA FEW010 OVC110 24/22 A2974 RMK CB QUANDS S/W TRAZAS CI=
200710092300 METAR MRLM 092300Z 22006KT 9999 +DZ FEW009 OVC120 24/22 A2976 RMK CB QUANDS S=
200710100000 METAR MRLM 100000Z 21006KT 9999 FEW008 SCT100 BKN120 24/22 A2978 RMK CB/RN QUAND S LTNG DST NW=
200710100100 METAR MRLM NIL=
200710100200 METAR MRLM NIL=
200710100300 METAR MRLM NIL=
200710100400 METAR MRLM NIL=
200710100500 METAR MRLM NIL=
200710100600 METAR MRLM NIL=
200710100700 METAR MRLM NIL=
200710100800 METAR MRLM NIL=
200710100900 METAR MRLM NIL=
200710101000 METAR MRLM NIL=
200710101100 METAR MRLM NIL=
200710101200 METAR MRLM NIL=
200710101300 METAR MRLM 101300Z 21005KT 9999 FEW015 SCT100 BKN140 25/23 A2982 RMK FEW280 TCU/RN DST NE HZ LGT ARND=
200710101400 METAR MRLM 101400Z 21004KT 9999 FEW025 BKN140 28/23 A2984 RMK FEW270 CB/RN DST NE RN DST SW/W=
200710101500 METAR MRLM 101500Z 06007KT 9999 FEW025 BKN140 30/23 A2985 RMK HZ ARND TRAZAS CI CB DST NE=
200710101600 METAR MRLM 101600Z 01007KT 9999 FEW032 BKN140 31/24 A2984 RMK TRAZAS SC CB DST SW HZ LGT ARND=
200710101700 METAR MRLM 101700Z 36010KT 9999 FEW032 OVC140 31/24 A2981 RMK TRAZAS CI CB DST E HZ LGT ARND=
200710101800 METAR MRLM 101800Z 36008KT 9999 FEW030 BKN140 31/25 A2980 RMK FEW280 TCU DST SW CB DST E HZ LGT ARND=
200710101900 METAR MRLM 101900Z 36009KT 9999 TS FEW015CB SCT030 BKN140 31/25 A2978 RMK FEW280 CB/TSTM SW CB QUAND S=
200710102000 METAR MRLM NIL=
200710102100 METAR MRLM 102100Z 02003KT 9999 SCT028 SCT090 30/25 A2975 CB/RN S/W FEW280 HZ LGT ARND=
200710102200 METAR MRLM 102200Z 26007KT 9999 SCT020 SCT130 28/24 A2976 TCU/RN E CB/RN W/S TRZAS CI=
200710102300 METAR MRLM 102300Z 22004KT 9999 FEW015 BKN080 28/25 A2976 FEW140 CB/RN E/S/W=
200710110000 METAR MRLM 110000Z 21005KT 9999 BKN014 SCT110 27/24 A2978 CB/RN DST ARND LTNG DST SE=
200710110100 METAR MRLM NIL=
200710110200 METAR MRLM NIL=
200710110300 METAR MRLM NIL=
200710110400 METAR MRLM NIL=
200710110500 METAR MRLM NIL=
200710110600 METAR MRLM NIL=
200710110700 METAR MRLM NIL=
200710110800 METAR MRLM NIL=
200710110900 METAR MRLM NIL=
200710111000 METAR MRLM NIL=
200710111100 METAR MRLM NIL=
200710111200 METAR MRLM 111200Z 21003KT CAVOK 24/22 A2982 BKN100 SCT250 TRAZAS CU=
200710111300 METAR MRLM 111300Z 00000KT CAVOK 25/23 A2983 BKN100 FEW250 TRAZAS CU=
200710111400 METAR MRLM 111400Z 20003KT CAVOK 27/24 A2983 BKN100 FEW250 TRAZAS CU=
200710111500 METAR MRLM 111500Z 07002KT CAVOK 30/24 A2984 BKN100 SCT250 TRAZAS CU=
200710111600 METAR MRLM 111600Z 05004KT CAVOK 30/24 A2984 BKN100 FEW250=
200710111700 METAR MRLM 111700Z 03004KT 9999 FEW028 BKN100 31/24 A2982 TRAZAS CI=
200710111800 METAR MRLM 111800Z 05004KT 9999 FEW028 BKN100 31/24 A2980 FEW250=
200710111900 METAR MRLM 111900Z 06007KT 9999 FEW028 SCT100 32/24 A2977 SCT250 TCU DST SE/S/WNW=
200710112000 METAR MRLM NIL=
200710112100 METAR MRLM 112100Z 04006KT 9999 FEW025 SCT100 32/24 A2973 RMK CB DST S SW W TS RN W WSW SCT250=
200710112200 METAR MRLM 112200Z 07003KT 9999 FEW028 SCT100 30/24 A2973 RM CB DST SE S SW RN SW FEW250=
200710112300 METAR MRLM 112300Z 03002KT 9999 FEW028 BKN090 29/24 A2975 RMK CB DST SE S SW RN SW FEW250=
200710120000 METAR MRLM 120000Z 00000KT 9999 FEW028 BKN090 27/24 A2976 RMK CB DST SW S SE RN SW FEW250=
200710120100 METAR MRLM NIL=
200710120200 METAR MRLM NIL=
200710120300 METAR MRLM NIL=
200710120400 METAR MRLM NIL=
200710120500 METAR MRLM NIL=
200710120600 METAR MRLM NIL=
200710120700 METAR MRLM NIL=
200710120800 METAR MRLM NIL=
200710120900 METAR MRLM NIL=
200710121000 METAR MRLM NIL=
200710121100 METAR MRLM NIL=
200710121200 METAR MRLM NIL=
200710121300 METAR MRLM 121300Z 27002KT 210V270 9999 FEW015 BKN270 26/23 A2981 RMK TS RN E CBS S SW=
200710121400 METAR MRLM 121400Z 09002KT 170V090 9999 FEW015 BKN270 29/23 A2983 RMK CB RN DST E=
200710121500 METAR MRLM 121500Z 10011KT 9999 FEW032 BKN270 30/24 A2984 RMK TRACE AC CB DST NE E HZY=
200710121600 METAR MRLM 121600Z 09012KT 9999 FEW032 BKN270 31/24 A2984 RMK FEW120 CBS RN DST NE=
200710121700 METAR MRLM 121700Z 08010KT 9999 FEW032 BKN280 31/25 A2978 RMK CB DST SE W NW NE RN DST W NE=
200710121800 METAR MRLM 121800Z 08010KT 9999 FEW032 BKN280 31/25 A2978 RMK CB DST SE W NW NE RN DST W NE=
200710121900 METAR MRLM 121900Z 07010KT 9999 FEW032 BKN280 31/25 A2975 RMK CB DST NE SE W NW RN DST W=
200710122000 METAR MRLM 122000Z NIL=
200710122100 METAR MRLM 122100Z 04008KT 9999 FEW030 SCT280 31/25 A2974 RMK CB RN S W RN SW TRACE AC HZ ARND=
200710122200 METAR MRLM 122200Z 02005KT 9999 SCT030 SCT280 31/25 A2975 RMK FEW140 CB RN S W RN SW=
200710122300 METAR MRLM 122300Z 05002KT 9999 BKN025 29/25 A2977 RMK FEW100 FEW280 CB RN S W=
200710130000 METAR MRLM 130000Z 21004KT 9999 BKN018 28/24 A2979 RMK CB RN S W TCU RASH W LTNG DST NW=
200710130100 METAR MRLM NIL=
200710130200 METAR MRLM NIL=
200710130300 METAR MRLM NIL=
200710130400 METAR MRLM NIL=
200710130500 METAR MRLM NIL=
200710130600 METAR MRLM NIL=
200710130700 METAR MRLM NIL=
200710130800 METAR MRLM NIL=
200710130900 METAR MRLM NIL=
200710131000 METAR MRLM NIL=
200710131100 METAR MRLM NIL=
200710131200 METAR MRLM NIL=
200710131300 METAR MRLM 131300Z 22003KT CAVOK 26/23 A2983 RMK TRACE SC AC FEW280 CB RN N E=
200710131400 METAR MRLM 131400Z 19004KT CAVOK 27/23 A2985 RMK CB RN E TRACE SC AC BKN280=
200710131500 METAR MRLM 131500Z 12006KT 9999 FEW020 BKN270 29/23 A2985 RMK CB ENE E RN E=
200710131600 METAR MRLM 131600Z 10006KT 9999 FEW035 BKN270 30/23 A2985 RMK CB ENE E TRACE SC=
200710131700 METAR MRLM 131700Z 09006KT 9999 FEW045 BKN280 31/22 A2982 RMK TRACE AC CB RN E=
200710131800 METAR MRLM 131800Z 09010KT 9999 FEW040 BKN280 32/23 A2980 RMK FEW140 CB SE S SW W CB RN E=
200710131900 METAR MRLM 131900Z 08009KT 9999 FEW028 VBKN280 31/23 A2978 RM CB E SE S SW W RN E SW TRACE AC=
200710132000 METAR MRLM NIL=
200710132100 METAR MRLM 132100Z 06010KT 9999 SCT030 SCT270 31/25 A2863 CB S W RN SW=
200710132200 METAR MRLM 132200Z 07009KT 9999 SCT030 BKN280 30/24 A2973 CB S W=
200710132300 METAR MRLM 132300Z 08006KT 9999 BKN025 29/24 A2975 CB RN S W=
200710140000 METAR MRLM 140000Z 08007KT 9999 BKN020 29/24 A2977 CB RN S W=
200710140100 METAR MRLM NIL=
200710140200 METAR MRLM NIL=
200710140300 METAR MRLM NIL=
200710140400 METAR MRLM NIL=
200710140500 METAR MRLM NIL=
200710140600 METAR MRLM NIL=
200710140700 METAR MRLM NIL=
200710140800 METAR MRLM NIL=
200710140900 METAR MRLM NIL=
200710141000 METAR MRLM NIL=
200710141100 METAR MRLM NIL=
200710141200 METAR MRLM NIL=
200710141300 METAR MRLM 141300Z 20005KT CAVOK 26/22 A2981 FEW110 BKN280 RMK CB NE E SE HZY=
200710141400 METAR MRLM 141400Z 22004KT CAVOK 30/23 A2983 SCT280 TRAZAS CU CB NE E SE=
200710141500 METAR MRLM 141500Z 04006KT 9999 FEW038 30/23 A2983 FEW140 FEW280 CB NE E HZY=
200710141600 METAR MRLM 141600Z 03007KT 9999 FEW035 SCT280 31/23 A2982 CB N NE=
200710141700 METAR MRLM 141700Z 04009KT 9999 FEW040 SCT280 31/23 A2982 CB N NE=
200710141800 METAR MRLM 141800Z 04007KT 9999 FEW035 BKN270 31/23 A2977 CB E HZY=
200710141900 METAR MRLM 141900Z 02008KT 9999 FEW038 BKN270 31/24 A2974 CB NE W=
200710142000 METAR MRLM 142000Z NIL=
200710142100 METAR MRLM 142100Z 02008KT 9999 FEW035 OVC280 31/24 A2976 RMK CB DST S RN DST SW TRACE AC HZ LEVE ARND=
200710142200 METAR MRLM 142200Z 04005KT 9999 FEW030 OVC280 30/24 A2971 RMK CB DST S SW W=
200710142300 METAR MRLM 142300Z 08004KT 9999 FEW030 OVC280 30/24 A2973 RMK CB DST S SW W NW HZ LEVE ARND=
200710150000 METAR MRLM 150000Z 13004KT 9999 FEW020 OVC280 28/24 A2972 RMK CB DST S SW NW HZ LEVE ARND=
200710150100 METAR MRLM NIL=
200710150200 METAR MRLM NIL=
200710150300 METAR MRLM NIL=
200710150700 METAR MRLM NIL=
200710150800 METAR MRLM NIL=
200710150900 METAR MRLM NIL=
200710151000 METAR MRLM NIL=
200710151100 METAR MRLM NIL=
200710151200 METAR MRLM 151200Z 22004KT 9999 FEW025 BKN130 24/23 A2977 RMK CB DST NW N NE E TS DST E FEW220=
200710151300 METAR MRLM 151300Z 00000KT 9999 FEW025 BKN120 24/22 A2978 RMK FEW220 CB RN DST NW N NE E=
200710151400 METAR MRLM 151400Z 27002KT 9999 -DZ SCT025 BKN120 24/22 A2982 RMK RN DST NW N NE=
200710151500 METAR MRLM 151500Z 00000KT 9999 SCT025 BKN080 26/23 A2983 REDZ RMK TCU RN DST WNW N NE FEW220 HZ ARND=
200710151600 METAR MRLM NIL=
200710151700 METAR MRLM 151700Z 24002KT 9999 SCT025 BKN090 28/23 A2981 REDZ RMK RN DST WNW NW N TRACE CI HZ ARND=
200710151800 METAR MRLM 151800Z 23004KT 9999 SCT028 BKN090 29/23 A2977 RMK TCU DST ESE WNW FEW240 HZ LEVE ARND=
200710151900 METAR MRLM 151900Z 35005KT 9999 FEW028 BKN090 29/24 A2975 TCU DST SE RN NE FEW240=
200710152000 METAR MRLM NIL=
200710152100 METAR MRLM 152100Z 35006KT 9999 SCT025TCU BKN230 28/24 A2973 TCU SE/S/SW TRAZAS AC=
200710152200 METAR MRLM 152200Z 35005KT 9999 SCT025 BKN090 28/24 A2974 RN DST SSW/SW FEW240=
200710152300 METAR MRLM 152300Z 34002KT 9999 SCT025 BKN090 28/23 A2976 CB/RN DST E/SE/S=
200710160000 METAR MRLM 160000Z 00000KT 9999 FEW025 BKN090 26/23 A2977 CB/RN DST E/SE/S/SE FEW240=
200710160100 METAR MRLM NIL=
200710160200 METAR MRLM NIL=
200710160300 METAR MRLM NIL=
200710160400 METAR MRLM NIL=
200710160500 METAR MRLM NIL=
200710160600 METAR MRLM NIL=
200710160700 METAR MRLM NIL=
200710160800 METAR MRLM NIL=
200710160900 METAR MRLM NIL=
200710161000 METAR MRLM NIL=
200710161100 METAR MRLM NIL=
200710161200 METAR MRLM 161200Z NIL=
200710161300 METAR MRLM 161300Z 00000KT 9999 DZ SCT022 SCT026 23/22 A2984 RMK LINE CB DST NW/N/NE/E/SE RN DST ARND=
200710161400 METAR MRLM 161400Z 00000KT 7000 -RA SCT012 BKN030 24/22 A2986 CB DST NW=
200710161500 METAR MRLM 161500Z 02002KT 8000 DZ FEW012 BKN024 24/23 A2987 RN ARND FEW080=
200710161600 METAR MRLM 161600Z 00000KT 8000 +DZ FEW012 BKN028 24/23 A2987 RN ARND FEW080=
200710161700 METAR MRLM 161700Z 22002KT 9999 DZ SCT014 SCT028 26/24 A2984 TCU DST W/NW/N RN DST ARND=
200710161800 METAR MRLM 161800Z 09003KT 9999 SCT025 SCT035 28/24 A2981 REDZ RN DST ARND TCU DST NW=
200710161900 METAR MRLM 161900Z 33002KT 9999 SCT025 SCT080 30/24 A2978 RN DST ARND FEW240=
200710162000 METAR MRLM NIL=
200710162100 METAR MRLM 162100Z 33005KT 9999 FEW024 BKN090 28/24 A2975 RMK TCU RN DST SE S SW FEW240=
200710162200 METAR MRLM 162200Z 33003KT 9999 FEW024 BKN090 28/24 A2974 RMK CB RN SE S SW TRACE CI=
200710162300 METAR MRLM 162300Z 00000KT 9999 FEW024 BKN080 27/24 A2975 RMK CB RN DST E SE S=
200710170000 METAR MRLM 170000Z 00000KT 9999 FEW024 BKN080 27/24 A2976 RMK CB RN DST E S E S=
200710170100 METAR MRLM NIL=
200710170200 METAR MRLM NIL=
200710170300 METAR MRLM NIL=
200710170400 METAR MRLM NIL=
200710170500 METAR MRLM NIL=
200710170600 METAR MRLM NIL=
200710170700 METAR MRLM NIL=
200710170800 METAR MRLM NIL=
200710170900 METAR MRLM NIL=
200710171000 METAR MRLM NIL=
200710171100 METAR MRLM NIL=
200710171200 METAR MRLM NIL=
200710171300 METAR MRLM 171300Z 23003KT 9999 FEW010 OVC030 25/23 A2988 RMK CBS RN DST N E=
200710171400 METAR MRLM 171400Z NIL=
200710171500 METAR MRLM 171500Z 27006KT 9999 FEW015 BKN030 27/23 A2990 RMK CBS RN DST N E=
200710171600 METAR MRLM NIL=
200710171700 METAR MRLM 171700Z 34011KT 9999 SCT030 BKN090 30/23 A2988 RMK CB RN N E S FEW140=
200710171800 METAR MRLM 171800Z 35009KT 9999 SCT030 SCT100 29/23 A2988 RMK CB RN DST QDS E S SW FEW140=
200710171900 METAR MRLM 171900Z 02006KT 8000 TSRA SCT015CB BKN025 27/24 A2984 RMK CBS S W VIS E UNL=
200710172000 METAR MRLM 172000Z NIL=
200710172100 METAR MRLM 172100Z 21004KT 9999 FEW016 BKN040 27/24 A2978 RMK CB RN ARND FEW250=
200710172200 METAR MRLM 172200Z 21003KT 9999 RA FEW015 BKN110 27/21 A2979 RMK CB ARND=
200710172300 METAR MRLM 172300Z 27003KT 9999 FEW010 BKN110 26/24 A2981 RERA RMK FEW140 CB RN W N=
200710180000 METAR MRLM 180000Z 27007KT 9999 FEW010 BKN090 26/24 A2983 RMK CB RN ARND FEW140=
200710180100 METAR MRLM NIL=
200710180200 METAR MRLM NIL=
200710180300 METAR MRLM NIL=
200710180400 METAR MRLM NIL=
200710180500 METAR MRLM NIL=
200710180600 METAR MRLM NIL=
200710180700 METAR MRLM NIL=
200710180800 METAR MRLM NIL=
200710180900 METAR MRLM NIL=
200710181000 METAR MRLM NIL=
200710181100 METAR MRLM NIL=
200710181200 METAR MRLM NIL=
200710181300 METAR MRLM 181300Z 22004KT 9999 FEW012 BKN090 26/24 A2988 RMK FEW140 FEW280 RN DST SW N E=
200710181400 METAR MRLM 181400Z 25005KT 9999 FEW012 BKN120 27/23 A2989 RMK FEW090 FEW280 TCU CB RN N NE HZ ARND=
200710181500 METAR MRLM 181500Z 26008KT 9999 FEW028 BKN090 28/23 A2990 RM CB RN N FEW110 TRACE CI=
200710181600 METAR MRLM 181600Z 28009KT 9999 FEW035 SCT090 BKN120 29/22 A2989 RMK HZ ARND=
200710181700 METAR MRLM 181700Z 30007KT 9999 FEW030 SCT090 BKN120 29/23 A2986 RMK HZ ARND=
200710181800 METAR MRLM 181800Z 30008KT 9999 FEW040 BKN110 31/23 A2983 RMK CB DST W HZ LGT ARND=
200710181900 METAR MRLM 181900Z 32010KT 9999 FEW035 BKN110 31/23 A2979 RMK CB RN N SCT280 HZ ARND=
200710182000 METAR MRLM 182000Z NIL=
200710182100 METAR MRLM 182100Z 31011KT 9999 FEW040 SCT090 BKN130 30/22 A2976 CB RN S W=
200710182200 METAR MRLM 182200Z 28005KT 9999 TSRA FEW015CB SCT025 BKN090 28/23 A2979 VSBY SW W 8KM TS CB RASH=
200710182300 METAR MRLM 182300Z 22006KT 9999 RA FEW010 SCT080 BKN100 25/23 A2982 CB S W=
200710190000 METAR MRLM 190000Z 19007KT 9999 FEW008 BKN080 24/22 A2983 CB ARND TSTM NW LTNG S NW RERA=
200710190100 METAR MRLM NIL=
200710190200 METAR MRLM NIL=
200710190300 METAR MRLM NIL=
200710190400 METAR MRLM NIL=
200710190500 METAR MRLM NIL=
200710190600 METAR MRLM NIL=
200710190700 METAR MRLM NIL=
200710190800 METAR MRLM NIL=
200710190900 METAR MRLM NIL=
200710191000 METAR MRLM NIL=
200710191100 METAR MRLM NIL=
200710191200 METAR MRLM NIL=
200710191300 METAR MRLM 191300Z 21002KT 9999 FEW030 BKN080 24/22 A2987 HZY=
200710191400 METAR MRLM 191400Z 20003KT CAVOK 26/23 A2987 FEW090 BKN230 TRAZAS CU HZY=
200710191500 METAR MRLM 191500Z 00000KT CAVOK 28/23 A2987 FEW100 BKN230 TRAZAS CU HZY=
200710191600 METAR MRLM 191600Z 03003KT CAVOK 29/23 A2987 FEW100 BKN230 TRAZAS CU=
200710191700 METAR MRLM 191700Z 04002KT 9999 FEW030 BKN230 29/23 A2986 FEW100=
200710191800 METAR MRLM 191800Z 04003KT 9999 FEW030 BKN230 31/23 A2982 FEW100=
200710191900 METAR MRLM 191900Z 05005KT 9999 FEW030 BKN230 30/23 A2979 FEW100=
200710192000 METAR MRLM 192000Z NIL=
200710192100 METAR MRLM 192100Z 07005KT 9999 FEW028 BKN230 29/23 A2975 RMK CB DST SW S SW W RN DST SSE SW FEW090=
200710192200 METAR MRLM 192200Z 08005KT 9999 FEW028 BKN230 29/23 A2977 RMK CB DST SE S SW W RN DST S SW W FEW090=
200710192300 METAR MRLM 192300Z 10005KT 9999 FEW028 SCT080 SCT230 29/24 A2979 RMK CB RN DST ARND=
200710200000 METAR MRLM 200000Z 16002KT 9999 SCT022 SCT080 26/24 A2982 RMK CB RN DST ARND TS DST W FEW230=
200710200100 METAR MRLM NIL=
200710200200 METAR MRLM NIL=
200710200300 METAR MRLM NIL=
200710200400 METAR MRLM NIL=
200710200500 METAR MRLM NIL=
200710200600 METAR MRLM NIL=
200710200700 METAR MRLM NIL=
200710200800 METAR MRLM NIL=
200710200900 METAR MRLM NIL=
200710201000 METAR MRLM NIL=
200710201100 METAR MRLM NIL=
200710201200 METAR MRLM 201200Z 00000KT 9999 FEW030 BKN120 23/22 A2984=
200710201300 METAR MRLM 201300Z 18002KT CAVOK 24/23 A2986 RMK TRCE SC SCT080 BKN220=
200710201400 METAR MRLM 201400Z 10004KT CAVOK 26/23 A2988 RMK OVC090 TRACE SC/CI=
200710201500 METAR MRLM 201500Z 10004KT CAVOK 28/23 A2989 RMK BKN090 FEW230 TRACE CU=
200710201600 METAR MRLM 201600Z 10009KT 9999 FEW025 BKN100 29/24 A2988 RMK TCU DST NW FEW240=
200710201700 METAR MRLM 201700Z 10007KT 9999 FEW025 BKN230 29/24 A2986 RMK FEW100 CB DST NW N=
200710201800 METAR MRLM 201800Z 08004KT 9999 FEW025 BKN230 29/24 A2984 RMK CB DST NW N FEW100=
200710201900 METAR MRLM 201900Z 08007KT 9999 SCT024 SCT230 30/24 A2981 RMK CB RN DST NW W SW=
200710202000 METAR MRLM 202000Z NIL=
200710202100 METAR MRLM 202100Z 10009KT 9999 BKN024 SCT090 29/24 A2980 CB/RN DST S/SW/W=
200710202200 METAR MRLM 202200Z 11010KT 9999 BKN024 SCT090 29/23 A2980 CB/RN DST SE/S/SW/W=
200710202300 METAR MRLM 202300Z 14008KT 9999 FEW015CB BKN024 27/22 A2984 CB/RN SE/S/SW=
200710210000 METAR MRLM 210000Z 23011KT 7000 RA BKN020 SCT030 23/20 A2979 RMK TCU DST NW N NE=
200710210100 METAR MRLM NIL=
200710210200 METAR MRLM NIL=
200710210300 METAR MRLM NIL=
200710210400 METAR MRLM NIL=
200710210500 METAR MRLM NIL=
200710210600 METAR MRLM NIL=
200710210700 METAR MRLM NIL=
200710210800 METAR MRLM NIL=
200710210900 METAR MRLM NIL=
200710211000 METAR MRLM NIL=
200710211100 METAR MRLM NIL=
200710211200 METAR MRLM 211200Z 21002KT 9999 DZ FEW025 BKN090 23/21 A2989=
200710211300 METAR MRLM 211300Z 00000KT 9999 +DZ FEW035 BKN090 23/22 A2992 RN N/NE=
200710211400 METAR MRLM 211400Z 20002KT 9999 -DZ FEW035 BKN090 24/22 A2993 RN DST NW TRAZAS CU=
200710211500 METAR MRLM 211500Z 20003KT 9999 FEW035 BKN120 24/23 A2994 REDZ RN DST SE TRAZAS CU FEW220=
200710211600 METAR MRLM NIL=
200710211700 METAR MRLM 211700Z 06004KT CAVOK 28/23 A2991 SCT100 BKN230 TRAZAS CU=
200710211800 METAR MRLM 211800Z 08003KT 9999 FEW025 BKN230 28/22 A2989 CB/RN DST ARND FEW100=
200710211900 METAR MRLM 211900Z 09007KT 9999 SCT024 BKN080 27/23 A2989 CB/RN DST NW/N/NE/E FEW230=
200710212000 METAR MRLM NIL=
200710212100 METAR MRLM 212100Z 19002KT 9999 +DZ BKN022 SCT080 26/24 A2984 RMK CB DST NW N NE RN ARND=
200710212200 METAR MRLM 212200Z 09005KT 9999 SCT024 SCT080 27/23 A2983 REDZ RMK CB DST NW RN ARND=
200710212300 METAR MRLM 212300Z 08007KT 9999 FEW030 BKN090 27/23 A2985 RMK RN DST ARND TRACE CI=
200710220000 METAR MRLM 220000Z 11007KT 9999 FEW030 SCT090 25/23 A2986 CB DST SE S RN DST ARND=
200710220100 METAR MRLM NIL=
200710220200 METAR MRLM NIL=
200710220300 METAR MRLM NIL=
200710220400 METAR MRLM NIL=
200710220500 METAR MRLM NIL=
200710220600 METAR MRLM NIL=
200710220700 METAR MRLM NIL=
200710220800 METAR MRLM NIL=
200710220900 METAR MRLM NIL=
200710221000 METAR MRLM NIL=
200710221100 METAR MRLM NIL=
200710221200 METAR MRLM 221200Z 00000KT 9999 SCT030 SCT230 22/20 A2988 RMK TRACE AC CB RN DST N NE E TS DST ENE=
200710221300 METAR MRLM 221300Z 22002KT 9999 SCT030 SCT230 23/21 A2989 RMK CBRN DST N NE E FEW090=
200710221400 METAR MRLM 221400Z 00000KT 9999 BKN040 SCT280 24/22 A2992 CB RN DST NW N NE E TRACE CI=
200710221500 METAR MRLM 221500Z 09011KT 9999 2000SE +DZ BKN030 SCT080 26/23 A2994 CB NW N NE E DST=
200710221600 METAR MRLM 221600Z 08012KT 7000 VCSH OVC015 25/23 A2997 REDZ RMK RASH ARND=
200710221700 METAR MRLM 221700Z 12006KT 9999 -DZ BKN015 SCT080 25/22 A2996 RERA RMK RN DST ARND=
200710221800 METAR MRLM 221800Z 18005KT 9999 -DZ FEW015 BKN08027/23 A2989 RMK CB DST SW W NW RN ARND FEW230=
200710221900 METAR MRLM NIL=
200710222000 METAR MRLM 222000Z NIL=
200710222100 METAR MRLM 222100Z 30005KT CAVOK 27/22 A2977 RMK BKN090 SCT230 TRACE CU=
200710222200 METAR MRLM 222200Z 02005KT CAVOK 27/22 A2978 RMK BKN090 SCT230 RMK TRACE CU=
200710222300 METAR MRLM 222300Z 00000KT 9999 FEW020 BKN230 27/23 A2983 RMK FEW090=
200710230000 METAR MRLM 230000Z 23004KT 9999 FEW020 BKN230 25722 A2984 RMK CB DST W TCU N FEW090=
200710230100 METAR MRLM NIL=
200710230200 METAR MRLM NIL=
200710230300 METAR MRLM NIL=
200710230400 METAR MRLM NIL=
200710230500 METAR MRLM NIL=
200710230600 METAR MRLM NIL=
200710230700 METAR MRLM NIL=
200710230800 METAR MRLM NIL=
200710230900 METAR MRLM NIL=
200710231000 METAR MRLM 231000Z 02004KT CAVOK 29/24 A2988 RMK FEW260 TRACE CU=
200710231100 METAR MRLM NIL=
200710231200 METAR MRLM 231200Z 21003KT CAVOK 21/19 A2985 FEW260 TRAZAS CU=
200710231300 METAR MRLM 231300Z 22003KT CAVOK 24/20 A2986 RMK FEW260 TRACE CU=
200710231400 METAR MRLM 231400Z 00000KT CAVOK 28/20 A2987 RMK FEW260 TRACE CU=
200710231500 METAR MRLM NIL=
200710231600 METAR MRLM 231600Z 01005KT 9999 FEW028 30721 A2988 RMK TRACE CI=
200710231700 METAR MRLM 231700Z 35007KT 9999 FEW025 30/21 A2987 RMK TRACE CI=
200710231800 METAR MRLM 231800Z 35008KT 9999 FEW028 30/21 A2984 RMK TRACE CI=
200710231900 METAR MRLM 231900Z 34008KT 9999 FEW028 30/21 A2981 RMK TCU SW W RMK TRACE CI=
200710232000 METAR MRLM 232000Z NIL=
200710232100 METAR MRLM 232100Z 36006KT 9999 FEW028 SCT230 29/23 A2977 CB S SE W RN SW=
200710232200 METAR MRLM 232200Z 35004KT 9999 FEW025 SCT100 28/22 A2977 FEW250 CB S SW W RN SW=
200710232300 METAR MRLM 232300Z 02002KT 9999 FEW028 SCT230 28/23 A2978 FEW100 CB S SE W=
200710240000 METAR MRLM 240000Z 00000KT 9999 FEW040 BKN230 25/23 A2981 CB SSE SE W NW=
200710240100 METAR MRLM NIL=
200710240200 METAR MRLM NIL=
200710240300 METAR MRLM NIL=
200710240400 METAR MRLM NIL=
200710240500 METAR MRLM NIL=
200710240700 METAR MRLM NIL=
200710240800 METAR MRLM NIL=
200710240900 METAR MRLM NIL=
200710241000 METAR MRLM NIL=
200710241100 METAR MRLM NIL=
200710241200 METAR MRLM 241200Z 21004KT 9999 FEW028 BKN250 23/21 A2984 RMK TRACE AC HZY=
200710241300 METAR MRLM 241300Z 22004KT 9999 FEW028 BKN250 26/22 A2980 FEW100 TCU NE=
200710241400 METAR MRLM 241400Z 28003KT 9999 FEW028 BKN250 29/22 A2986 TCU N NE=
200710241500 METAR MRLM 241500Z 30004KT 9999 FEW028 SCT250 30/23 A2987 CB NE=
200710241600 METAR MRLM 241600Z 36009KT 9999 FEW025 BKN250 30/23 A2987=
200710241700 METAR MRLM 241700Z 36009KT 9999 FEW025 SCT250 30/24 A2984=
200710241800 METAR MRLM 241800Z 35010KT 9999 FFEW024 BKN250 30/24 A2981 TCU RN SW=
200710241900 METAR MRLM 241900Z 35008KT 9999 FEW024 BKN250 30/24 A2979 TCU RN S SW0=
200710242000 METAR MRLM NIL=
200710242100 METAR MRLM 242100Z 36004KT 9999 SCT024 SCT080 29/23 A2975 RMK CB RN DST SE S SW FEW250=
200710242200 METAR MRLM 242200Z 00000KT 9999 FEW024 SCT090 28/23 A2976 RMK CB RN DST SE S SW FEW250 HZY=
200710242300 METAR MRLM 242300Z 23003KT 9999 FEW024 BKN080 25/24 A2978 REDZ RMK HZ LEVE ARND=
200710250000 METAR MRLM 250000Z 23003KT 9999 FEW024 BKN080 25/24 A2980 RMK CB RN DST SW W WNW=
200710250100 METAR MRLM NIL=
200710250200 METAR MRLM NIL=
200710250300 METAR MRLM NIL=
200710250400 METAR MRLM NIL=
200710250500 METAR MRLM NIL=
200710250600 METAR MRLM NIL=
200710250700 METAR MRLM NIL=
200710250800 METAR MRLM NIL=
200710250900 METAR MRLM NIL=
200710251000 METAR MRLM NIL=
200710251100 METAR MRLM NIL=
200710251200 METAR MRLM NIL=
200710251300 METAR MRLM 251300Z 00000KT 9999 FEW025 SCT110 BKN270 24/23 A2985 RMK CB RN DST SW=
200710251400 METAR MRLM 251400Z 27007KT 9999 FEW020 BKN260 26/22 A2986 RMK TCU DST NE LEVE HZ ARND=
200710251500 METAR MRLM 251500Z 27009KT 9999 FEW028 SCT120 BKN260 28/23 A2988 RMK TCU DST N NE E LEVE HZY=
200710251600 METAR MRLM 251600Z 26011KT 9999 FEW040 OVC270 30/22 A2987 RMK CB DST E ESE LEVE HZ ARND TRACE AC=
200710251700 METAR MRLM 251700Z 32013KT 9999 FEW040 OVC270 31/23 A2983 RMK TRACE AC=
200710251800 METAR MRLM 251800Z 34015KT 9999 SCT035 BKN270 31/23 A2980 RMK CB DST E TRACE AC LEVE HZ ARND=
200710251900 METAR MRLM 251900Z 34015KT 9999 FEW040 SCT130 BKN270 31/23 A2977 RMK CB DST E LEVE HZ ARND=
200710252000 METAR MRLM 252000Z NIL=
200710252100 METAR MRLM 252100Z 33010KT 9999 FEW035 BKN090 30/23 A2976 FEW270 CB DST S/W RN DST S CB DST NE=
200710252200 METAR MRLM 252200Z 34011KT 9999 SCT030 SCT090 29/23 A2977 CB/RN DST S/W/E FEW270=
200710252300 METAR MRLM 252300Z 33008KT 9999 BKN028 29/23 A2979 CB/RN DST S/W FEW090 FEW270=
200710260000 METAR MRLM 260000Z 28006KT 9999 SCT020 BKN270 27/23 A2980 CB/RN DST S/W TCU RASH SW/FEW100=
200710260100 METAR MRLM NIL=
200710260200 METAR MRLM NIL=
200710260300 METAR MRLM NIL=
200710260400 METAR MRLM NIL=
200710260500 METAR MRLM NIL=
200710260600 METAR MRLM NIL=
200710260800 METAR MRLM NIL=
200710260900 METAR MRLM NIL=
200710261000 METAR MRLM NIL=
200710261100 METAR MRLM NIL=
200710261200 METAR MRLM NIL=
200710261300 METAR MRLM 261300Z 21003KT 8000 3000NW RA SCT007 OVC020 23/22 A2990 CB S/W=
200710261400 METAR MRLM 261400Z 22005KT 9999 SCT006 BKN025 23/22 A2991 CB DST S/W RN DST ARND TRAZAS AS=
200710261500 METAR MRLM 261500Z 22005KT 9999 DZ FEW007 SCT025 BKN120 24/23 A2992 CB DST S/W=
200710261600 METAR MRLM 261600Z 24008KT 9999 FEW012 SCT030 BKN120 25/23 A2992 DZ HZ ARND=
200710261700 METAR MRLM 261700Z 22011KT CAVOK 25/22 A2990 FEW090 OVC110 DZ S HZ LGT ARND TRAZAS SCT=
200710261800 METAR MRLM 261800Z 23011KT CAVOK 29/22 A2987 DZ DST S TRAZAS SCT SCT100 BKN120=
200710261900 METAR MRLM 261900Z 28010KT 9999 FEW040 BKN120 29/21 A2984 DZ DST S/SW TRAZAS CI=
200710262000 METAR MRLM NIL=
200710262100 METAR MRLM 262100Z 28008KT 9999 FEW040 BKN090 30/21 A2981 CB DST SE FEW280 HZY=
200710262200 METAR MRLM 262200Z 30007KT CAVOK 30/21 A2982 RMK SCT080 SCT140 FEW280 CB DST SW HZ LGT ARND=
200710262300 METAR MRLM 262300Z 25003KT CAVOK 27/22 A2983 RMK SCT070 BKN090 TRACE RN DST SE=
200710270000 METAR MRLM 270000Z 23002KT CAVOK 26/23 A2984 RMK SCT080 BKN100 CB RN DS SE HZY=
200710270100 METAR MRLM NIL=
200710270200 METAR MRLM NIL=
200710270300 METAR MRLM NIL=
200710270400 METAR MRLM NIL=
200710270500 METAR MRLM NIL=
200710270600 METAR MRLM NIL=
200710270700 METAR MRLM NIL=
200710270800 METAR MRLM NIL=
200710270900 METAR MRLM NIL=
200710271000 METAR MRLM NIL=
200710271100 METAR MRLM NIL=
200710271200 METAR MRLM 271200Z NIL=
200710271300 METAR MRLM 271300Z 23003KT 9999 BKN030 SCT090 23/22 A2986 RMK RN DST ARND TRACE CU=
200710271400 METAR MRLM 271400Z 23004KT 9999 FEW035 BKN090 27/22 A2987 RMK RN DST E=
200710271500 METAR MRLM 271500Z 25006KT CAVOK 29/20 A2987 RMK BKN090 FEW250 TRACE CI=
200710271600 METAR MRLM 271600Z 28004KT 9999 FEW025 BKN090 30/20 A2987=
200710271700 METAR MRLM 271700Z 33005KT CAVOK 30/21 A2986 RMK BKN100 FEW250 TRACE CU=
200710271800 METAR MRLM 271800Z 34010KT 9999 FEW025 BKN100 30/22 A2985 RMK CB RN DST ENE FEW250=
200710271900 METAR MRLM 271900Z 24008KT 9999 FEW025 BKN100 29/22 A2982 RMK FEW250=
200710272000 METAR MRLM 272000Z NIL=
200710272100 METAR MRLM 272100Z 30005KT 9999 FEW025 BKN100 29/22 A2977 RMK CB S WSW FEW230=
200710272200 METAR MRLM 272200Z 29003KT 9999 FEW030 BKN080 28/22 A2978 RMK FEW230=
200710272300 METAR MRLM 272300Z 29003KT 9999 FEW030 BKN080 28/22 A2979 RMK FEW230 HZ LEVE ARND=
200710280000 METAR MRLM 280000Z 31007KT 9999 BKN030 SCT080 28/21 A2977 RMK RN DST E SE=
200710280100 METAR MRLM NIL=
200710280200 METAR MRLM NIL=
200710280300 METAR MRLM NIL=
200710280400 METAR MRLM NIL=
200710280500 METAR MRLM NIL=
200710280600 METAR MRLM NIL=
200710280700 METAR MRLM NIL=
200710280800 METAR MRLM NIL=
200710280900 METAR MRLM NIL=
200710281000 METAR MRLM NIL=
200710281100 METAR MRLM NIL=
200710281200 METAR MRLM 281200Z 26004KT 9999 BKN028 SCT080 26/20 A2984 CB/RN DST N/NE/E/SE=
200710281300 METAR MRLM 281300Z 24004KT 9999 BKN028 SCT080 26/20 A2985 RMK CB RN N NE E SE=
200710281400 METAR MRLM 281400Z 24004KT 9999 SCT025 BKN080 26/24 A2987 RMK CB RN N NE E SSE=
200710281500 METAR MRLM 281500Z 25003KT 9999 FEW024 BKN080 27/21 A2988 RMK CB RN DST ARND=
200710281600 METAR MRLM 281600Z 26005KT 9999 SCT030 BKN080 29/20 A2989 RMK RN N NE E=
200710281700 METAR MRLM 281700Z 09005KT 9999 FEW030 BKN090 30/20 A2984 RMK RN N NE E=
200710281800 METAR MRLM 281800Z 33010KT 9999 FEW030 BKN100 30/21 A2981 RMK FEW250=
200710282300 METAR MRLM 282300Z 30005KT 9999 FEW025 BKN230 28/21 A2977 CB S SW=
200710290000 METAR MRLM 290000Z 24003KT 9999 FEW025 BKN230 26/22 A2978 CB SW=
200710290100 METAR MRLM NIL=
200710290200 METAR MRLM NIL=
200710290300 METAR MRLM NIL=
200710290400 METAR MRLM NIL=
200710290700 METAR MRLM NIL=
200710290800 METAR MRLM NIL=
200710290900 METAR MRLM NIL=
200710291100 METAR MRLM NIL=
200710291300 METAR MRLM 291300Z 25008KT CAVOK 27/21 A2984 FEW070 SCT130 SCT280 CB RN N NE E=
200710291400 METAR MRLM 291400Z 26012KT 9999 SCT030 SCT110 28/21 A2986 FEW140 CB RN N E=
200710291500 METAR MRLM 291500Z 28011KT 9999 SCT040 SCT140 29/21 A2987 CB RN N=
200710291600 METAR MRLM 291600Z 27011KT 9999 FEW035 BKN130 28/21 A2987 CB RN N=
200710291700 METAR MRLM 291700Z 28016KT 9999 FEW045 SCT130 30/21 A2984 CB RN N NE=
200710291800 METAR MRLM NIL=
200710291900 METAR MRLM 291900Z 29015KT 9999 FEW045 SCT150 BKN2U0 31/21 A2978 CB S W RN NE=
200710291955 METAR MRLM NIL=
200710292000 METAR MRLM NIL MRLB 292000Z 28005KT 9999 DZ FEW025 BKN120 27/24 A 2978 CB DIST NE=
200710292100 METAR MRLM 292100Z 30013KT 9999 FEW045 SCT110 BKN270 31/21 A2974 RMK CB DST SE S HZ LEVE ARND=
200710292200 METAR MRLM 292200Z 32013KT 9999 FEW040 SCT130 BKN270 30/23 A2975 RMK RN DST SE S=
200710292300 METAR MRLM 292300Z 32012KT 9999 FEW030 SCT120 BKN270 29/23 A2977 RMK CB RN DST QUAD E S=
200710300000 METAR MRLM 300000Z 30006KT 9999 FEW025 BKN270 28/23 A2979 RMK FEW140 CB RN DST QUAD E S=
200710300100 METAR MRLM NIL=
200710300200 METAR MRLM NIL=
200710300300 METAR MRLM NIL=
200710300400 METAR MRLM NIL=
200710300800 METAR MRLM NIL=
200710301000 METAR MRLM NIL=
200710301100 METAR MRLM NIL=
200710301200 METAR MRLM NIL=
200710301300 METAR MRLM 301300Z 22005KT CAVOK 26/22 A2984 RMK TRACE CU AC FEW280 CB DST SW W TCU DST NNW=
200710301400 METAR MRLM 301400Z 26005KT 9999 FEW030 BKN090 28/22 A2986 RMK CB DST SW FEW280 HZ LEVE ARND=
200710301500 METAR MRLM 301500Z 29010KT 9999 FEW040 BKN090 30/21 A2987 RMK CB DST SW LEVE HZ ARND=
200710301600 METAR MRLM 301600Z 30008KT 9999 FEW040 30/22 A2985 RMK CB DST SW FEW110 FEW280=
200710301700 METAR MRLM 301700Z 34013KT 9999 FEW040 31/22 A2983 RMK FEW120 FEW280=
200710301800 METAR MRLM 301800Z 35012KT 9999 FEW040 31/23 A2979 RMK FEW120 FEW280 CB DST W NE=
200710301900 METAR MRLM 301900Z 35014KT 9999 FEW030 BKN280 30/24 A2976 RMK TRACE AC CB DST S SE ENE LEVE HZ ARND=
200710302000 METAR MRLM NIL=
200710302100 METAR MRLM 302100Z 34014KT 9999 FEW030 SCT140 BKN280 29/23 A2975 TRAZAS AC CB/RN DST S=
200710302200 METAR MRLM 302200Z 35007KT 9999 FEW025 SCT090 29/24 A2977 FEW140 FEW280 CB/RN DST S=
200710302300 METAR MRLM 302300Z 18004KT 9999 SCT015 SCT090 27/24 A2979 CB/RN DST S FEW280=
200710310000 METAR MRLM 310000Z 20005KT 9999 SCT015 SCT090 26/23 A2980 CB/RN DST S DZ N DST LTNG W=
200710310100 METAR MRLM NIL=
200710310200 METAR MRLM NIL=
200710310300 METAR MRLM NIL=
200710310400 METAR MRLM NIL=
200710310500 METAR MRLM NIL=
200710310600 METAR MRLM NIL=
200710310700 METAR MRLM NIL=
200710310800 METAR MRLM NIL=
200710310900 METAR MRLM NIL=
200710311000 METAR MRLM NIL=
200710311100 METAR MRLM NIL=
200710311200 METAR MRLM 311200Z 00000KT 9999 FEW025 SCT230 23/22 A2982 TCU NNW FEW080=
200710311300 METAR MRLM 311300Z 23002KT 9999 SCT025 SCT090 25/22 A2984 TCU DST N FEW230 HZY=
200710311400 METAR MRLM 311400Z 28006KT 9999 FEW025 SCT250 28/23 A2986 CB DST NW/N FEW100 HZY0=
200710311500 METAR MRLM 311500Z 30007KT 9999 BKN028 SCT090 28/23 A2988 RN DST ENE TRAZAS CI HZ ARND=
200710311600 METAR MRLM 311600Z 30012KT 9999 BKN025 SCT230 28/23 A2988 RN DST W/NW/N/NE TRAZAS ST/SC HZY=
200710311700 METAR MRLM 311700Z 31013KT 9999 BKN025 28/23 A2985 RN DST W/N/NE/E FEW080 HZY=
200710311800 METAR MRLM 311800Z 21011KT 9999 BKN025 SCT230 28/22 A2982 CB DST N/NE TRAZAS AC HZ ARND=
200710311900 METAR MRLM 311900Z 30012KT 9999 SCT025 BKN230 29/21 A2979 CB /RN DST ENE TRAZAS AC=
200710312000 METAR MRLM NIL=
200710312100 METAR MRLM 312100Z 27007KT 9999 FEW025 BKN090 29/18 A2975 RMK CB SW W NW FEW230=
200710312200 METAR MRLM 312200Z 25004KT 9999 FEW030 BKN090 28/19 A2977 RMK RN DST E SE S SW FEW230=
200710312300 METAR MRLM 312300Z 00000KT 9999 FEW030 BKN090 27/20 A2979 RMK RN DST SE S SW FEW230=
200711010000 METAR MRLM 010000Z 00000KT 9999 FEW030 BKN090 25/20 A2980 CB RN DST E SE S SW FEW230=
200711010100 METAR MRLM NIL=
200711010200 METAR MRLM NIL=
200711010400 METAR MRLM NIL=
200711010500 METAR MRLM NIL=
200711010600 METAR MRLM NIL=
200711010700 METAR MRLM NIL=
200711010800 METAR MRLM NIL=
200711010900 METAR MRLM NIL=
200711011000 METAR MRLM NIL=
200711011100 METAR MRLM NIL=
200711011200 METAR MRLM NIL=
200711011300 METAR MRLM 011300Z 21004KT CAVOK 25/21 A2983 RMK OVC090 TRACE CU=
200711011400 METAR MRLM 011400Z 00000KT 9999 FEW040 BKN090 27/22 A2985=
200711011500 METAR MRLM 011500Z 26002KT CAVOK 30/21 A2986 RMK BKN100 TRACE CU=
200711011600 METAR MRLM 011600Z 02005KT CAVOK 30/21 A2984 BKN100 RMK TRACE CU CI=
200711011800 METAR MRLM 011800Z 06004KT 9999 FEW025 SCT100 30/21 A2980 RMK SCT230 TCU DST SSW=
200711011900 METAR MRLM 011900Z 04005KT 9999 FEW025 SCT240 30/22 A2977 RMK TRACE AC=
200711012000 METAR MRLM 012000Z NIL=
200711012100 METAR MRLM 012100Z 03006KT 9999 FEW025 BKN240 30/22 A2975 RMK CB S SE SW=
200711012200 METAR MRLM 012200Z 11004KT 9999 FEW025 BKN240 29/22 A2976 RMK CB RN SE S SW W TRACE AC=
200711012300 METAR MRLM 012300Z 18002KT 9999 FEW030 BKN090 27/23 A2977 RMK CB RN SE S SW W FEW240=
200711020000 METAR MRLM 020000Z 20003KT 9999 FEW025 BKN090 26/23 A2979 RMK CB RN DST SE S SW W=
200711020100 METAR MRLM NIL=
200711020200 METAR MRLM NIL=
200711020300 METAR MRLM NIL=
200711020400 METAR MRLM NIL=
200711020500 METAR MRLM NIL=
200711020600 METAR MRLM NIL=
200711020700 METAR MRLM NIL=
200711020800 METAR MRLM NIL=
200711020900 METAR MRLM NIL=
200711021000 METAR MRLM NIL=
200711021200 METAR MRLM NI=
200711021300 METAR MRLM 021300Z 23004KT CAVOK 26/21 A2985 RMK BKN270 HZ LEVE ARND=
200711021400 METAR MRLM 021400Z 19004KT CAVOK 29/22 A2986 RMK BKN270 HZ ARND=
200711021500 METAR MRLM 021500Z 04006KT CAVOK 30/22 A2988 RMK TRACE CU AC HZ LEVE ARND=
200711021600 METAR MRLM 021600Z 01007KT 9999 FEW035 SCT300 30/23 A2985 RMK HZ LEVE ARND=
200711021700 METAR MRLM 021700Z 02007KT 9999 FEW040 SCT300 30/23 A2983 RMK HZ ARND CN NE=
200711021800 METAR MRLM 021800Z 02009KT 9999 FEW040 SCT280 30/23 A2981 RMK HZ LEVE ARND CB S SW=
200711021900 METAR MRLM 021900Z 04008KT 9999 FEW040 SCT090 30/23 A2978 RMK RETS CB S RN SW SCT300=
200711022000 METAR MRLM 022000Z NIL=
200711022100 METAR MRLM 022100Z 14006KT 9999 FEW040 BKN110 31/23 A2975=
200711022200 METAR MRLM 022200Z 13006KT 9999 FEW030 BKN100 29/23 A2977 CB DST SE/S/SW/W RN DST SW W HZ ARND=
200711022300 METAR MRLM 022300Z 19003KT 9999 FEW020 BKN110 28/23 A2980 FEW280 CB DST S/W RN SW=
200711022357 METAR MRLM 030000Z 18003KT 9999 FEW020 BKN090 27/23 A2981 CB DST ARND S/W RN DST N FEW280=
200711030000 METAR MRLM 030000Z 18003KT 9999 FEW020 BKN090 27/23 A2981 CB DST ARND S/W RN DST N FEW280=
200711030100 METAR MRLM NIL=
200711030200 METAR MRLM NIL=
200711030300 METAR MRLM 030300Z 28009KT 9999 FEW030 BKN110 27/23 A2979 RMK CB RN DST ARND=
200711030400 METAR MRLM NIL=
200711030500 METAR MRLM NIL=
200711030600 METAR MRLM NIL=
200711030700 METAR MRLM NIL=
200711030800 METAR MRLM NIL=
200711030900 METAR MRLM NIL=
200711031000 METAR MRLM NIL=
200711031100 METAR MRLM NIL=
200711031200 METAR MRLM NIL=
200711031300 METAR MRLM 031300Z 27009KT 9999 FEW015 SCT130 BKN270 26/22 A2988 CB RN N=
200711031400 METAR MRLM 031400Z 28012KT 9999 FEW020 BKN110 26/23 A2989 FEW280 CB RN N=
200711031500 METAR MRLM 031500Z 28017KT 9999 FEW025 BKN090 28/23 A2989 CB RN N NE E=
200711031600 METAR MRLM 031600Z 28015KT 9999 FEW030 BKN090 28/22 A2989 CB RN N NE=
200711031700 METAR MRLM 031700Z 30015KT 9999 FEW035 BKN110 30/22 A2987 FEW270 CB RN NE=
200711031800 METAR MRLM 031800Z 29013KT 9999 FEW035 BKN090 30/23 A2874 CB RN N=
200711031900 METAR MRLM 031900Z 29008KT 9999 FEW035 SCT090 BKN150 30/22 A2981 CB ARND RN N S=
200711032000 METAR MRLM NIL=
200711032100 METAR MRLM NIL=
200711032200 METAR MRLM 032200Z 25006KT 9999 RA BKN020 SCT090 27/23 A2982=
200711032300 METAR MRLM 032300Z 24004KT 9999 VCSH BKN010 25/23 A2987 RERA RMK VIS 6000 QUAD N TRACE AC=
200711040000 METAR MRLM 040000Z 06013KT 230V060 9999 TSRA SCT010CB SCT013 SCT090 25/23 A2983 RMK VIS 5000 TS N NE E FEW150=
200711040100 METAR MRLM NIL=
200711040200 METAR MRLM NIL=
200711040300 METAR MRLM NIL=
200711040400 METAR MRLM NIL=
200711040500 METAR MRLM NIL=
200711040600 METAR MRLM NIL=
200711040700 METAR MRLM NIL=
200711040800 METAR MRLM NIL=
200711040900 METAR MRLM NIL=
200711041000 METAR MRLM NIL=
200711041100 METAR MRLM NIL=
200711041200 METAR MRLM 041200Z 25007KT 9999 FEW028 BKN090 25/21 A2983 RMK CB DST N TRACE CI=
200711041300 METAR MRLM 041300Z 25006KT 9999 FEW028 BKN090 26/22 A2985 RMK CB RN DST N NE TRACE CI=
200711041400 METAR MRLM 041400Z 26009KT 9999 FEW028 BKN090 27/22 A2986 RMK CB RN DST NW N NE TRACE CI=
200711041500 METAR MRLM 041500Z 26006KT 9999 SCT030 BKN090 26/22 A2987 RMK CB DST N NE RN DST SW W N NE FEW220=
200711041600 METAR MRLM 041600Z 25008KT 9999 SCT030 BKN090 28/21 A2986 RMK CB DST ENE RN DST W N NE FEW230=
200711041700 METAR MRLM 041700Z 27006KT 9999 SCT028 SCT090 28/21 A2984 RMK CB DST NE RN DST NW N NE FEW230=
200711041800 METAR MRLM 041800Z 27011KT 9999 SCT030 SCT080 29/20 A2980 RMK CB DST NE RN DST N NE FEW230=
200711041900 METAR MRLM 041900Z 28007KT 9999 FEW030 BKN100 30/20 A2976 RMK TRCE CI=
200711042000 METAR MRLM 042000Z NIL=
200711042100 METAR MRLM 042100Z 30007KT 9999 FEW030 BKN230 30/21 A2971 FEW100=
200711042200 METAR MRLM 042200Z 31007KT CAVOK 29/21 A2972 SCT100 BKN230 TRAZAS CU=
200711042300 METAR MRLM 042300Z 30006KT 9999 FEW030 BKN230 28/22 A2975 FEW100=
200711050000 METAR MRLM 050000Z 31009KT 9999 SCT028 SCT230 27/23 A2976 RN DST SW W TRAZAS AC=
200711050100 METAR MRLM NIL=
200711050200 METAR MRLM NIL=
200711050300 METAR MRLM NIL=
200711050400 METAR MRLM NIL=
200711050500 METAR MRLM NIL=
200711050600 METAR MRLM NIL=
200711050700 METAR MRLM NIL=
200711050800 METAR MRLM NIL=
200711050900 METAR MRLM NIL=
200711051000 METAR MRLM NIL=
200711051100 METAR MRLM NIL=
200711051200 METAR MRLM 051200Z 00000KT 9999 FEW028 BKN230 23/22 A2978 CB NW N NE FEW090=
200711051300 METAR MRLM 051300Z 25003KT 9999 FEW028 BKN100 25/22 A2980 CB DST WNW/N FEW230=
200711051400 METAR MRLM 051400Z 26005KT 9999 FEW028 SCT100 27/22 A2982 FEW230=
200711051500 METAR MRLM 051500Z 28005KT 9999 FEW028 BKN090 29/22 A2983 CB DST NE TRAZAS CI=
200711051600 METAR MRLM 051600Z 35005KT 9999 FEW028 BKN090 29/23 A2981 FEW230 CB DST E=
200711051700 METAR MRLM 051700Z 30005KT 9999 SCT028 BKN230 30/23 A2977 CB DST E TCU DST WNW/NW TRAZAS AC=
200711051800 METAR MRLM 051800Z 34012KT 9999 FEW025 BKN090 30/24 A2976 TCU DST WNW/E FEW230=
200711051900 METAR MRLM 051900Z 34012KT 9999 FEW025 BKN100 30/24 A2972 TCU DST SSW FEW230=
200711052000 METAR MRLM NIL=
200711052100 METAR MRLM 052100Z 34009KT 9999 SCT024 SCT100 29/24 A2969 RMK CBS DST ARND RN S SW FEW230=
200711052200 METAR MRLM 052200Z 34006KT 9999 BKN025 SCT230 29/24 A2970 RMK CB RN DST S SW W TRACE AC=
200711052300 METAR MRLM 052300Z 26004KT 9999 2000W VCSH BKN024 27/24 A2974 REDZ TCU RASH FEW230=
200711060000 METAR MRLM 060000Z 21002KT 9999 BKN024TCU SCT250 26/24 A2975 RMK TCU RASH SW W=
200711060100 METAR MRLM NIL=
200711060200 METAR MRLM NIL=
200711060300 METAR MRLM NIL=
200711060400 METAR MRLM NIL=
200711060500 METAR MRLM NIL=
200711060600 METAR MRLM NIL=
200711060700 METAR MRLM NIL=
200711060800 METAR MRLM NIL=
200711060900 METAR MRLM NIL=
200711061000 METAR MRLM NIL=
200711061100 METAR MRLM NIL=
200711061200 METAR MRLM NIL=
200711061300 METAR MRLM 061300Z 31003KT 210V300 9999 FEW010 SCT100 BKN140 24/22 A2982 RMK RN DST N E FEW280=
200711061400 METAR MRLM O61400Z 00000KT 9999 DZ FEW010 BKN090 24/23 A2984 RMK CB DST NE=
200711061500 METAR MRLM 061500Z 27007KT CAVOK 26/23 A2982 RMK BKN080 FEW140 CB RN DST NW NE E TRACE SC=
200711061600 METAR MRLM 061600Z 29010KT CAVOK 28/23 A2982 RMK TRACE CU BKN080 FEW280 CB DST NW N NE E=
200711061700 METAR MRLM 061700Z 29007KT 9999 FEW035 SCT090 30/23 A2979 RMK CB RN DST N E SCT270=
200711061800 METAR MRLM 061800Z 33010KT 9999 FEW025 SCT090 BKN260 29/24 A2977 RMK CB RN DST N E=
200711061900 METAR MRLM 061900Z 30010 9999 FEW025 BKN090 28/24 A2975 RMK CB RN DST N E=
200711062000 METAR MRLM 062000Z=
200711062100 METAR MRLM 062100Z 30011KT 9999 DZ SCT020 SCT030 27/23 A2975 RMK CB RN W N FEW140 FEW260=
200711062200 METAR MRLM 062200Z 28012KT 9999 SCT015 SCT120 27/23 A2965 RMK FEW260 CB RN DST W N CB ARND=
200711062300 METAR MRLM 062300Z 27010KT 9999 FEW015 SCT025 BKN090 26/23 A2978 RMK CB RN ARND TRACE CI=
200711070000 METAR MRLM 070000Z 28008KT 9999 DZ FEW015 SCT025 BKN090 26/22 A2999 RMK CB RN DST ARND TRACE CI=
200711070100 METAR MRLM NIL=
200711070200 METAR MRLM NIL=
200711070300 METAR MRLM NIL=
200711070400 METAR MRLM NIL=
200711070500 METAR MRLM NIL=
200711070600 METAR MRLM NIL=
200711070700 METAR MRLM NIL=
200711070800 METAR MRLM NIL=
200711070900 METAR MRLM NIL=
200711071000 METAR MRLM NIL=
200711071100 METAR MRLM NIL=
200711071200 METAR MRLM NIL=
200711071300 METAR MRLM 071300Z 27012KT 5000 -RA FEW007 BKN015 23/21 A2991 RMK SCT090=
200711071400 METAR MRLM 071400Z 26006KT 7000 RA SCT006 BKN020 23/22 A2993 RMK SCT090 CB N=
200711071500 METAR MRLM 071500Z 27011KT 9999 DZ FEW008 SCT025 BKN100 24/22 A2993 RMK CB RN N E=
200711071600 METAR MRLM 071600Z 26013KT 9999 FEW010 SCT120 BKN150 24/22 A2991 RMK CB RN N E=
200711071700 METAR MRLM 071700Z 27011KT 9999 OVC015 25/22 A2991 RMK RN ARND=
200711071800 METAR MRLM 071800Z 28013KT 9999 OVC015 26/23 A2987 RMK RN ARND=
200711071900 METAR MRLM 071900Z 27013KT 9999 BKN020 27/23 A2983 RMK FEW140 RN ARND=
200711072000 METAR MRLM 072000Z NIL=
200711072100 METAR MRLM 072100Z 28010KT 9999 DZ FEW010 SCT015TCU BKN090 25/23 A2979 RN ARND=
200711072200 METAR MRLM 072200Z 29007KT 5000 RA BKN020 SCT090 25/23 A2979 VSBY S UNL=
200711072300 METAR MRLM 072300Z 26009KT 5000 RA FEW008 OVC015 24/22 A2980=
200711080000 METAR MRLM 080000Z 24007KT 5000 -RA FEW006 OVC015 23/22 A2980=
200711080100 METAR MRLM NIL=
200711080200 METAR MRLM NIL=
200711080300 METAR MRLM NIL=
200711080400 METAR MRLM NIL=
200711080500 METAR MRLM NIL=
200711080600 METAR MRLM NIL=
200711080700 METAR MRLM NIL=
200711080800 METAR MRLM NIL=
200711080900 METAR MRLM NIL=
200711081000 METAR MRLM NIL=
200711081100 METAR MRLM NIL=
200711081200 METAR MRLM NIL=
200711081300 METAR MRLM NIL=
200711081400 METAR MRLM 081400Z 25010KT 2000 RA SCT010 BKN015 22/21 A2990=
200711081500 METAR MRLM 081500Z 25007KT 8000 -RA BKN030 SCT080 23/21 A2989=
200711081600 METAR MRLM 081600Z 25007KT 9999 -RA BKN025 SCT080 23/22 A2988 RASH NW N=
200711081700 METAR MRLM 081700Z 27008KT 9999 -DZ BKN028 SCT080 24/22 A2986 RERA RN ARND TCU E=
200711081800 METAR MRLM 081800Z 27008KT 9999 3000NW RA BKN025 SCT080 23/22 A2984=
200711081900 METAR MRLM 081900Z 26008KT 9999 +DZ BKN025 SCT080 23/22 A2983 RERA RN ARND=
200711082000 METAR MRLM 082000Z NIL=
200711082100 METAR MRLM NIL=
200711082200 METAR MRLM 082200Z 25007KT 7000 +DZ OVC015 23/22 A2980 RERA RMK SHRA ARND=
200711082300 METAR MRLM 082300Z 26013KT 5000 RA BKN015 SCT020 23/20 A2982 RMK TCU DST NW N NE=
200711090000 METAR MRLM 090000Z 24009KT 4000 RA BKN015 SCT020 23/23 A2982 RMK TCU NW N NE=
200711090100 METAR MRLM NIL=
200711090200 METAR MRLM NIL=
200711090300 METAR MRLM NIL=
200711090400 METAR MRLM NIL=
200711090500 METAR MRLM NIL=
200711090600 METAR MRLM NIL=
200711090700 METAR MRLM NIL=
200711090800 METAR MRLM NIL=
200711090900 METAR MRLM NIL=
200711091000 METAR MRLM NIL=
200711091100 METAR MRLM NIL=
200711091200 METAR MRLM 091200Z 25007KT 5000 RA OVC024 22/21 A2987=
200711091300 METAR MRLM 091300Z 26007KT 2000 RA OVC020 22/21 A2989=
200711091400 METAR MRLM 091400Z 25009KT 6000 RA BKN025 SCT080 23/21 A2992=
200711091500 METAR MRLM 091500Z 25008KT 25008KT 3000 RA BKN025 SCT080 22/21 A2993=
200711091600 METAR MRLM 091600Z 24010KT 4000 RA BKN022 SCT080 22/21 A2993=
200711091700 METAR MRLM 091700Z 24008KT 8000 -RA BKN025 SCT080 22/21 A2991=
200711091800 METAR MRLM 091800Z 25006KT 6000 RA BKN024 SCT080 22/21 A2989=
200711091900 METAR MRLM 091900Z 25007KT 5000 -RA BKN024 SCT080 23/21 A2987=
200711092000 METAR MRLM 092000Z NIL=
200711092100 METAR MRLM 092100Z 25006KT 2000 RA FEW015 SCT024 24/21 A2986 FEW080=
200711092200 METAR MRLM 092200Z 24005KT 9999 BKN028 22/21 A2987 RERA FEW080 RN DST ARND=
200711092300 METAR MRLM 092300Z 23006KT 9999 BKN030 23/21 A2989 FEW080 RN DST ARND=
200711100000 METAR MRLM 100000Z 25003KT 9999 BKN030 SCT080 23/21 A2989 RN DST ARND=
200711100100 METAR MRLM NIL=
200711100200 METAR MRLM NIL=
200711100300 METAR MRLM NIL=
200711100400 METAR MRLM NIL=
200711100500 METAR MRLM NIL=
200711100600 METAR MRLM NIL=
200711100700 METAR MRLM NIL=
200711100800 METAR MRLM NIL=
200711100900 METAR MRLM NIL=
200711101000 METAR MRLM NIL=
200711101100 METAR MRLM NIL=
200711101200 METAR MRLM NIL=
200711101300 METAR MRLM NIL=
200711101400 METAR MRLM NIL=
200711101500 METAR MRLM 101500Z 27007KT 6000 RA SCT015 OVC090 21/18 A2996=
200711101600 METAR MRLM 101600Z 25007KT 7000 -RA FEW010 SCT020 BKN090 21/19 A2995=
200711101700 METAR MRLM 101700Z 27010KT 6000 RA SCT012 BKN090 21/19 A2994=
200711101800 METAR MRLM 101800Z 26013KT 7000 FZ BKN015 SCT090 21/18 A2989=
200711101900 METAR MRLM 101900Z 25011KT 6000 RA SCT020 BKN090 21/18 A29880=
200711102000 METAR MRLM NIL=
200711102100 METAR MRLM 102100Z 26008KT 7000 RA BKN015 SCT090 21/18 A2986=
200711102200 METAR MRLM 102200Z 25011KT 7000 RA BKN010 SCT090 20/18 A2986=
200711102300 METAR MRLM 102300Z 25008KT 8000 RA BKN012 SCT090 21/19 A2986=
200711110000 METAR MRLM 110000Z 24013KT 7000 +DZ BKN010 SCT090 22/20 A2986=
200711110100 METAR MRLM NIL=
200711110200 METAR MRLM NIL=
200711110300 METAR MRLM NIL=
200711110400 METAR MRLM NIL=
200711110500 METAR MRLM NIL=
200711110600 METAR MRLM NIL=
200711110700 METAR MRLM NIL=
200711110800 METAR MRLM NIL=
200711110900 METAR MRLM NIL=
200711111000 METAR MRLM NIL=
200711111100 METAR MRLM NIL=
200711111200 METAR MRLM NIL=
200711111300 METAR MRLM 111300Z 26013KT 9000 RA FEW006 OVC090 23/19 A2989 RMK VIS SE UNL=
200711111400 METAR MRLM 111400Z 26013KT 7000 -RA FEW006 OVC090 21/17 A2990=
200711111500 METAR MRLM 111500Z 26008KT 8000 SCT020 OVC090 21/18 A2991=
200711111600 METAR MRLM 111600Z 26011KT 9999 -DZ FEW013 OVC09022/19 A2989 RMK HZ LGT ARND=
200711111700 METAR MRLM 111700Z 26010KT 9999 RA FEW015 OVC090 23/20 A2987 RMK HZ LGT ARND=
200711111800 METAR MRLM 111800Z 26012KT 9999 -DZ FEW015 SCT100 BKN140 24/21 A2988 RMK HZ ARND=
200711111900 METAR MRLM 111900Z 27014KT 9999 FEW020 SCT110 BKN260 24/22 A2987 RMK CB RN DST N=
200711112000 METAR MRLM NIL=
200711112100 METAR MRLM 112100Z 31014KT 9999 FEW020 BKN090 25/ND A2984 RMK SCT260 CB RN N CB S=
200711112200 METAR MRLM 112200Z 30014KT CAVOK 24/ND A2984 RMK TRACE SC BKN080 SCT110 FEW270 CB RN DST N=
200711112300 METAR MRLM 112300Z 27013KT 9999 CAVOK 24/ND A2985 RMK TRACE ST FEW090 BKN110 FEW270 CB RN N S=
200711120000 METAR MRLM 120000Z 27013KT CAVOK 24/ND A2984 RMK TRACE ST SCT090 SCT110 FEW270 CB RN N S=
200711120100 METAR MRLM NIL=
200711120200 METAR MRLM NIL=
200711120300 METAR MRLM NIL=
200711120400 METAR MRLM NIL=
200711120500 METAR MRLM NIL=
200711120600 METAR MRLM NIL=
200711120700 METAR MRLM NIL=
200711120800 METAR MRLM NIL=
200711120900 METAR MRLM NIL=
200711121000 METAR MRLM NIL=
200711121100 METAR MRLM NIL=
200711121200 METAR MRLM 121200Z 00000KT 9999 SCT028 SCT080 22/21 A2984 RN DST NW/N/NE=
200711121300 METAR MRLM 121300Z 18003KT 9999 SCT028 BKN080 24/22 A2985 RMK RN NE N NE=
200711121400 METAR MRLM 121400Z 20006KT 9999 FEW028 SCT080 27/22 A2985 RMK RN N FEW250=
200711121500 METAR MRLM 121500Z 26008KT 9999 FEW028 SCT250 28/24 A2988 RMK FEW080=
200711121600 METAR MRLM 121600Z 28008KT 9999 FEW025 BKN280 29/24 A2988=
200711121700 METAR MRLM 121700Z 04012KT 9999 FEW025 SCT250 30725 A2987=
200711121800 METAR MRLM 121800Z 04010KT 9999 FEW025 SCT250 29/23 A2986 RMK TRACE AC=
200711121900 METAR MRLM 121900Z 04008KT 9999 FEW025 SCT250 29/22 A2981 RMK CB E SE S TRACE AC=
200711122000 METAR MRLM 122000Z NIL=
200711122100 METAR MRLM 122100Z 04006KT 9999 FEW025 SCT250 29/21 A2977 CB E SE S SW W RN S SW W=
200711122200 METAR MRLM 122200Z 04005KT 9999 FEW025 SCT250 28/21 A2981 CB RN SE S SW W=
200711122300 METAR MRLM 122300Z 07004KT 9999 FEW025 SCT250 28/22 A2978 CB E SE S SW W RN S SW W=
200711130000 METAR MRLM 130000Z 00000KT 9999 FEW025 SCT250 26/22 A2980 CB E SE S SW W RN S SW W FEW080=
200711130300 METAR MRLM NIL=
200711130400 METAR MRLM NIL=
200711130500 METAR MRLM NIL=
200711130600 METAR MRLM NIL=
200711130700 METAR MRLM NIL=
200711130800 METAR MRLM NIL=
200711130900 METAR MRLM NIL=
200711131000 METAR MRLM NIL=
200711131100 METAR MRLM NIL=
200711131200 METAR MRLM 131200Z 00000KT 9999 FEW028 SCT250 23/21 A2980 RMK TRACE AC=
200711131300 METAR MRLM 131300Z 27003KT 9999 FEW028 SCT250 24/21 A2984 TCU N NE=
200711131400 METAR MRLM 131400Z 26007KT 9999 FEW028 SCT250 27/20 A2985 CB N NE=
200711131500 METAR MRLM 131500Z 30008KT 9999 FEW030 SCT250 28/22 A2986 CB NW N NE E=
200711131600 METAR MRLM 131600Z 35012KT 9999 FEW030 SCT250 29/22 A2985 CB NW N NE E=
200711131700 METAR MRLM 131700Z 35016KT 9999 FEW026 SCT100 30/22 A2984 CB N NE FEW250=
200711131800 METAR MRLM 131800Z 35014KT 9999 FEW025 BKN090 30/21 A2982 CB RN N NE E=
200711131900 METAR MRLM 131900Z 36014KT 9999 FEW024TCU BKN090 29/21 A2981 CB RN NW N NE SW=
200711132000 METAR MRLM 132000Z NIL=
200711132100 METAR MRLM 132100Z 33007KT 9999 SCT024 BKN090 28/23 A2977 RMK CB RN DST ARND TRACE CI=
200711132200 METAR MRLM 132200Z 33010KT 9999 SCT024 SCT090 27/24 A2979 RMK CB RN DST S SW NW N E=
200711132300 METAR MRLM 132300Z 31005KT 9999 SCT025 BKN080 27/23 A2981 RMK CB RN DST ARND=
200711140000 METAR MRLM 140000Z 26003KT 9999 BKN025 SCT080 26/23 A2982 RMK CB RN DST ARND=
200711140100 METAR MRLM NIL=
200711140200 METAR MRLM NIL=
200711140300 METAR MRLM NIL=
200711140400 METAR MRLM NIL=
200711140500 METAR MRLM NIL=
200711140600 METAR MRLM NIL=
200711140700 METAR MRLM NIL=
200711140800 METAR MRLM NIL=
200711140900 METAR MRLM NIL=
200711141000 METAR MRLM NIL=
200711141100 METAR MRLM NIL=
200711141200 METAR MRLM NIL=
200711141300 METAR MRLM 141300Z 21005KT 9999 FEW005 SCT025 BKN090 23/22 A2984 RMK RN DST QUAD S W=
200711141400 METAR MRLM 141400Z 22005KT 9999 FEW010 BKN090 25/23 A2984 RMK FEW270 RN DST W LEVE HZ ARND=
200711141500 METAR MRLM 141500Z 20004KT 9999 FEW030 BKN110 29/22 A2982 RMK FEW270 CB RN DST NW N NE E LEVE HZ ARND=
200711141600 METAR MRLM 141600Z 20004KT 9999 FEW030 BKN110 29/22 A2982 RMK FEW270 CB RN DST NW N NE E LEVE HZ ARND=
200711141635 METAR MRLM 141635Z 08006KT 150V080 9999 VCSH BKN035 29/22 A2982 RMK VIS 8000 NW N NE E=
200711141700 METAR MRLM 141700Z 05004KT 9999 TSRA FEW005 SCT015CB BKN025 29/23 A2982 RMK TS N NE VIS 5000 NW NE E TRACE AC=
200711141715 METAR MRLM 141715Z 02022KT 9999 4000N VCSH FEW005 OVC020 26/23 A2982=
200711141800 METAR MRLM 141800Z 03009KT 9999 +DZ FEW005 SCT020 BKN090 26/23 A2980 RMK CB RN HZ ARND=
200711141900 METAR MRLM 141900Z 16005KT 9999 DZ FEW008 BKN110 27/23 A2977 RMK FEW025 FEW270 CB RN DST S W=
200711142000 METAR MRLM NIL=
200711142100 METAR MRLM 142100Z 22004KT CAVOK 27/23 A2974 BKN090 SCT270 HZ LGT ARND=
200711142200 METAR MRLM 142200Z 22003KT 9999 SCT020 SCT090 28/23 A2975 CB DST NW/N/E HZ LGT ARND FEW270=
200711142300 METAR MRLM 142300Z 24002KT CAVOK 27/24 A2975 SCT080 SCT120 FEW270 CB DST NW/NE/E SE=
200711150000 METAR MRLM NIL=
200711150200 METAR MRLM NIL=
200711150300 METAR MRLM NIL=
200711150400 METAR MRLM NIL=
200711150500 METAR MRLM NIL=
200711150600 METAR MRLM NIL=
200711150700 METAR MRLM NIL=
200711150800 METAR MRLM NIL=
200711150900 METAR MRLM NIL=
200711151000 METAR MRLM NIL=
200711151100 METAR MRLM NIL=
200711151200 METAR MRLM NIL=
200711151300 METAR MRLM 151300Z 22007KT 9999 FEW020 BKN100 23/21 A2985 RN/HA DST ARND TRAZAS CI=
200711151400 METAR MRLM 151400Z 22006KT CAVOK 26/22 A2986 TRAZAS CU/CI SCT090 BKN110 RN DST E/SE CB DST NW HZ LGT ARND=
200711151500 METAR MRLM 151500Z 24003KT CAVOK 30/22 A2986 FEW080 BKN120 TRAZAS CU/CI CB DST NW RN DST NE/E HZ ARND=
200711151600 METAR MRLM 151600Z 04004KT 9999 FEW040 BKN140 30/22 A2987 CB DST NE HZ ARND=
200711151700 METAR MRLM 151700Z 05005KT 9999 FEW040 SCT120 BKN270 30/23 A2985 CB DST E HZ ARND=
200711151800 METAR MRLM 151800Z 02005KT 9999 FEW035 SCT130 BKN270 30/23 A2982 CB DST NE/E HZ ARND=
200711151900 METAR MRLM 151900Z 02007KT 9999 FEW045 BKN130 31/22 A2982 SCT270 CB DST NE/E HZ ARND=
200711152000 METAR MRLM NIL=
200711152100 METAR MRLM 152100Z NIL=
200711152200 METAR MRLM 152200Z 03004KT 9999 FEW025 SCT080 BKN120 28/23 A2978 RMK DZ N TRACE CI HZ LGT ARND=
200711152300 METAR MRLM 152300Z 03003KT 9999 FEW015 OVC025 28/23 A2981 RMK HZ ARND=
200711160000 METAR MRLM 160000Z 35002KT 9999 FEW015 OVC025 26/23 A2982 RMK RN DST N NE=
200711160100 METAR MRLM NIL=
200711160200 METAR MRLM NIL=
200711160300 METAR MRLM NIL=
200711160400 METAR MRLM NIL=
200711160500 METAR MRLM NIL=
200711160600 METAR MRLM NIL=
200711160700 METAR MRLM NIL=
200711160800 METAR MRLM NIL=
200711160900 METAR MRLM NIL=
200711161000 METAR MRLM NIL=
200711161200 METAR MRLM NIL=
200711161300 METAR MRLM 161300Z 32005KT 3000 RA BKN024 SCT08 24/22 A2989 CB DST NW N NE=
200711161400 METAR MRLM 161400Z 26006KT 9999 FEW008 BKN026 25/23 A2990 RERA RMK CB DST NW N NE RN ARND=
200711161500 METAR MRLM 161500Z 24005KT 9999 BKN028 SCT080 25/22 A2990 RMK CB DST NW N NE E RN DST ARND=
200711161600 METAR MRLM 161600Z 27006KT 9999 FEW030 SCT080 27/23 A2988 RMK CB DST NW N NE RN DST ARND TRACE CI=
200711161700 METAR MRLM 161700Z 28007KT 9999 FEW025 SCT090 28/23 A2985 RMK CB RN DST W NW N NE FEW240=
200711161800 METAR MRLM 161800Z 29005KT 9999 SCT025 SCT080 29/23 A2982 RMK CB RN DST WNW NW N NE=
200711161900 METAR MRLM 161900Z 30006KT 9999 BKN026 SCT080 28/23 A2981 RMK CB RN DST NW N NE=
200711162000 METAR MRLM 162000Z NIL=
200711162100 METAR MRLM 162100Z 24005KT 9999 FEW028 BKN080 26/23 A2978 RMK CB RN SW W NW N=
200711162200 METAR MRLM 162200Z 26003KT 9999 FEW028 SCT080 27/23 A2978 RMK CB RN DST NW N NE SW=
200711162300 METAR MRLM 162300Z 27004KT 9999 ST028 SCT080 26/23 A2980 RMK CB RN W NW N=
200711170000 METAR MRLM 170000Z 27005KT 9999 FEW022 SCT030 25/23 A2982 RMK CB RN DST W N NE=
200711170100 METAR MRLM 170100Z NIL=
200711170200 METAR MRLM NIL=
200711170300 METAR MRLM NIL=
200711170400 METAR MRLM NIL=
200711170500 METAR MRLM NIL=
200711170600 METAR MRLM NIL=
200711170700 METAR MRLM NIL=
200711170800 METAR MRLM NIL=
200711170900 METAR MRLM NIL=
200711171000 METAR MRLM NIL=
200711171100 METAR MRLM NIL=
200711171200 METAR MRLM 171200Z 26004KT 9999 SCT022 BKN030 23/22 A2987 RETS CV DST NW/N/E RN DST ARND=
200711171300 METAR MRLM 171300Z 00000KT 4000 RA SCT022 SCT080 23/22 A2989 RMK CB RN N NE=
200711171400 METAR MRLM 171400Z 26003KT 9999 SCT028 SCT080 25/23 A2988 RERA RMK CB NW N NE RN ARND=
200711171500 METAR MRLM 171500Z 28004KT 3000 -RA BKN024 SCT080 26/23 A2989 RMK CB NW N NE=
200711171600 METAR MRLM 171600Z 31006KT 2000 RA BKN015 SCT080 24/23 A2990 RMK CB NW N NE=
200711171700 METAR MRLM 171700Z 21003KT 5000 +DZ SCT012 BKN024 24/23 A2989 RMK RN ARND=
200711171800 METAR MRLM 171800Z 20006KT 9999 -DZ SCT012 SCT080 26/24 A2985 RERA CB ARND TSTM N=
200711171900 METAR MRLM 171900Z 15004KT 9999 SCT015 SCT080 28/24 A2982 REDZ CB RN ARND=
200711172000 METAR MRLM 172000Z NIL=
200711172100 METAR MRLM 172100Z 00000KT 9999 FEW025 BKN035 28/22 A2979 CB RN W NW N NE FEW080=
200711172200 METAR MRLM 172200Z 24002KT 9999 SCT025 BKN080 27/24 A2978 CB RN ARND=
200711172300 METAR MRLM 172300Z 28002KT 9999 BKN028 SCT080 26/24 A2981 CB RN ARND=
200711180000 METAR MRLM 180000Z 00000KT 9999 BKN025 26/24 A2982 CB RN ARND FEW080=
200711180100 METAR MRLM NIL=
200711180200 METAR MRLM NIL=
200711180300 METAR MRLM NIL=
200711180400 METAR MRLM NIL=
200711180500 METAR MRLM NIL=
200711180600 METAR MRLM NIL=
200711180700 METAR MRLM NIL=
200711180800 METAR MRLM NIL=
200711180900 METAR MRLM NIL=
200711181000 METAR MRLM NIL=
200711181100 METAR MRLM NIL=
200711181200 METAR MRLM NIL=
200711181300 METAR MRLM 181300Z 20006KT 9999 SCT025 SCT090 23/22 A2986 CB RN DIST QUADS S W=
200711181400 METAR MRLM 181400Z 15005KT 9999 SCT025 BKN090 25/22 A2989 RN N E=
200711181500 METAR MRLM 181500Z 19005KT 9999 BKN025 SCT090 26/23 A2990 RN N E=
200711181600 METAR MRLM 181600Z 22006KT 9999 +DZ SCT025 BKN090 26/24 A2987=
200711181700 METAR MRLM 181700Z 28004KT 9999 BKN025 SCT090 28/23 A2985 RN NW N NE E=
200711181800 METAR MRLM 181800Z 35009KT 9999 BKN025 SCT090 28/23 A2981 DZ E SE HZY=
200711181900 METAR MRLM 181900Z 36010KT 9999 BKN025 SCT090 28/24 A2979 DZ E SE=
200711182000 METAR MRLM 182000Z NIL=
200711182100 METAR MRLM 182100Z 24004KT 9999 SCT012 BKN090 26/24 A2979 RERA RMK RN ARND=
200711182200 METAR MRLM 182200Z 24004KT 9999 FEW010 SCT080 BKN100 26/24 A2978 RMK DZ DST QUAD S W=
200711182300 METAR MRLM 182300Z 33002KT 9999 SCT025 SCT090 26/24 A2980 RMK RN DST QUAD E=
200711190000 METAR MRLM 190000Z 22002KT 9999 SCT025 BKN100 25/24 A2981 RMK RN DST QUAD E TCU DST N NE=
200711190100 METAR MRLM NIL=
200711190200 METAR MRLM NIL=
200711190300 METAR MRLM NIL=
200711190400 METAR MRLM NIL=
200711190500 METAR MRLM NIL=
200711190600 METAR MRLM NIL=
200711190700 METAR MRLM NIL=
200711190800 METAR MRLM NIL=
200711190900 METAR MRLM NIL=
200711191000 METAR MRLM NIL=
200711191400 METAR MRLM 191400Z 28008KT 9999 SCT025 SCT090 26/22 A2984 RMK RN DST QUAD N DZ E LEVE HZ ARND=
200711191500 METAR MRLM 191500Z 26007KT 9999 BKN025 SCT090 26/23 A2985 RMK DZ DST QUAD N E S LEVE HZ ARND=
200711191600 METAR MRLM 191600Z 26003KT 9999 BKN020 SCT090 27/23 A2984 RMK HZ DZ ARND=
200711191700 METAR MRLM 191700Z 02004KT 220V020 9999 SCT020 BKN090 28/24 A2981 RMK DZ DST E S LEVE HZ ARND=
200711191800 METAR MRLM 191800Z 15004KT 9999 SCT030 BKN090 29/23 A2977 RMK TCU DST N NE E LEVE HZ ARND=
200711191900 METAR MRLM 191900Z 09007KT 9999 FEW020 SCT090 BKN120 28/24 A2974 RMK CB DST NW TRACE CI TCU DST NW N NE E LEVE HZ ARND=
200711192000 METAR MRLM 192000Z NIL=
200711192100 METAR MRLM 192100Z 24007KT 9999 FEW020 SCT080 BKN100 29/25 A2971 TCU/RN DST NE/N HZ LGT ARND=
200711192200 METAR MRLM 192200Z 35008KT 9999 FEW025 BKN110 29/24 A2969 HZ ARND=
200711192300 METAR MRLM 192300Z 01003KT 9999 FEW020 BKN090 28/25 A2971 TRAZAS CI CB DST N/E HZ LGT ARND=
200711200000 METAR MRLM 200000Z 04004KT CAVOK 27/25 A2972 BKN100 FEW280 CB DST N/E HZ LGT ARND=
200711200100 METAR MRLM NIL=
200711200200 METAR MRLM NIL=
200711200300 METAR MRLM NIL=
200711200400 METAR MRLM NIL=
200711200500 METAR MRLM NIL=
200711200600 METAR MRLM NIL=
200711200700 METAR MRLM NIL=
200711200800 METAR MRLM NIL=
200711200900 METAR MRLM NIL=
200711201000 METAR MRLM NIL=
200711201100 METAR MRLM NIL=
200711201200 METAR MRLM 201200Z NIL=
200711201300 METAR MRLM 201300Z 27006KT 9999 3000NW +DZ SCT015 BKN030 25/23 A2982 RN DST W/NW/N/NE=
200711201400 METAR MRLM 201400Z 28004KT 9999 -DZ BKN020 SCT080 25/23 A2987 RN DST ARND=
200711201500 METAR MRLM 201500Z 27005KT 9999 FEW015 SCT020 25/23 A2987 REDZ TCU NW/N/NE RN/HZ ARND FEW080=
200711201600 METAR MRLM 201600Z 21004KT 3000 DZ SCT015 BKN028 25/23 A2987 RN ARND0 DUPE=
200711201700 METAR MRLM 201700Z 21004KT 9999 -DZ BKN015 SCT080 26/24 A2985 RN DST ARND=
200711201800 METAR MRLM 201800Z 25003KT 9999 BKN022 SCT080 26/24 A2983 REDZ TCU DST N/NE RN ARND=
200711201900 METAR MRLM 201900Z 27003KT 4000 +DZ BKN015 27/24 A2981 TCU NW/N/NE RN ARND FEW030=
200711202000 METAR MRLM NIL=
200711202100 METAR MRLM 202100Z 25003KT 6000 -RA BKN015 SCT080 24/23 A2981 RMK TCU DST NW N NE=
200711202200 METAR MRLM 202200Z 25003KT 8000 DZ SCT022 SCT080 24/22 A2981 RMK RN ARND=
200711202300 METAR MRLM 202300Z 25004KT 9999 SCT030 BKN080 24/22 A2980 REDZ RMK RN HZ DST ARND=
200711210000 METAR MRLM 210000Z 18004KT 9999 SCT015 SCT080 24/22 A2980 RMK TCU DST N NE RN DST ARND=
200711210100 METAR MRLM NIL=
200711210200 METAR MRLM NIL=
200711210300 METAR MRLM NIL=
200711210400 METAR MRLM NIL=
200711210500 METAR MRLM NIL=
200711210600 METAR MRLM NIL=
200711210700 METAR MRLM NIL=
200711210800 METAR MRLM NIL=
200711210900 METAR MRLM NIL=
200711211000 METAR MRLM NIL=
200711211100 METAR MRLM NIL=
200711211200 METAR MRLM NIL=
200711211300 METAR MRLM 211300Z 25003KT 9999 BKN030 SCT080 24/22 A2990 RMK CB RN HZ DST ARND=
200711211400 METAR MRLM 211400Z 27002KT 9999 BKN028 SCT080 25/21 A2993 RMK CB DST W NE E SE RN HZ DST ARND=
200711211500 METAR MRLM 211500Z 36003KT 9999 SCT030 SCT080 27/22 A2992 RMK TCU RN DST W NW NE E TRACE CI HZ ARND=
200711211600 METAR MRLM 211600Z 09006KT 9999 SCT030 SCT080 27/22 A2992 RMK HZ ARND=
200711211700 METAR MRLM 211700Z 22002KT 9999 FEW030 BKN090 28/23 A2988 RMK CB DST N NE HZ ARND=
200711211800 METAR MRLM 211800Z 03006KT 9999 FEW030 BKN230 28/24 A2987 RMK CB DST E NE FEW100 HZ ARND=
200711211900 METAR MRLM 211900Z 02005KT 9999 FEW026 BKN230 29/23 A2984 RMK TCU DST W NW FEW100 HZ ARND=
200711212000 METAR MRLM 212000Z NIL=
200711212100 METAR MRLM 212100Z 35007KT 9999 FEW030 BKN230 29/23 A2981 RMK CB NE S TRACE AC HZ ARND=
200711212200 METAR MRLM 212200Z 35008KT 9999 FEW025 BKN230 28/23 A2982 RMK FEW090 HZ ARND=
200711212300 METAR MRLM 212300Z 32004KT 9999 FEW030 BKN230 38/23 A2985 RMK FEW090 HZ ARND=
200711220000 METAR MRLM 220000Z 29002KT 9999 FEW028 BKN230 25/23 A2986 RMK FEW090 HZ ARND=
200711220100 METAR MRLM NIL=
200711220200 METAR MRLM NIL=
200711220300 METAR MRLM NIL=
200711220400 METAR MRLM NIL=
200711220500 METAR MRLM NIL=
200711220600 METAR MRLM NIL=
200711220700 METAR MRLM NIL=
200711220800 METAR MRLM NIL=
200711220900 METAR MRLM NIL=
200711221000 METAR MRLM NIL=
200711221100 METAR MRLM NIL=
200711221200 METAR MRLM NIL=
200711221300 METAR MRLM 221300Z 35005KT 4000 RA BKN020 23/22 A2995 RMK FEW100=
200711221400 METAR MRLM 221400Z 19008KT 8000 -DZ FEW006 BKN020 22/21 A2986 RMK FEW100=
200711221500 METAR MRLM 221500Z 19007KT 9999 DZ OVC015 24/22 A2996 RMK TCU N NE E SE=
200711221600 METAR MRLM 221600Z 20006KT 9999 OVC015 25/22 A2995 RMK RN HZ ARND=
200711221700 METAR MRLM 221700Z 19007KT 9999 BKN020 26/22 A2997 RMK HZ ARND RN S FEW100=
200711221800 METAR MRLM 221800Z 20009KT CAVOK 28/22 A2988 RMK BKN110 SCT280 HZ ARND=
200711221900 METAR MRLM 221900Z 05005KT 9999 FEW030 ASCT120 BKN280 30/23 A2986 RMK HZ ARND=
200711222000 METAR MRLM 222000Z NIL=
200711222100 METAR MRLM 222100Z 01007KT 9999 FEW020 BKN280 28/24 A2984 CB RN SW W TCU NE E=
200711222200 METAR MRLM 222200Z 34004KT CAVOK 28/24 A2984 FEW120 SCT140 BKN280 CB RN S SW TCU NE E HZY=
200711222300 METAR MRLM 222300Z 00000KT CAVOK 27/24 A2985 TRAZAS ST FEW120 SCT140 BKN280 RN S CB N=
200711230000 METAR MRLM 230000Z 25003KT CAVOK 26/24 A2987 TRAZAS CU SCT120 FEW280 RN S CB N=
200711230100 METAR MRLM NIL=
200711230200 METAR MRLM NIL=
200711230300 METAR MRLM NIL=
200711230400 METAR MRLM NIL=
200711230500 METAR MRLM NIL=
200711230600 METAR MRLM NIL=
200711230700 METAR MRLM NIL=
200711230800 METAR MRLM NIL=
200711230900 METAR MRLM NIL=
200711231000 METAR MRLM NIL=
200711231100 METAR MRLM NIL=
200711231200 METAR MRLM NIL=
200711231300 METAR MRLM 231300Z 22004KT CAVOK 25/23 A2990 BKN090 TCU RN NW HZY=
200711231400 METAR MRLM 231400Z 24004KT CAVOK 28/23 A2991 SCT120 FEW280 CB N HZY=
200711231500 METAR MRLM 231500Z 02006KT280V020 CAVOK 29/23 A2989 FEW280 CB NW NE E HZY=
200711231600 METAR MRLM 231600Z 35012KT CAVOK 29/24 A2987 TRAZAS CU FEW280 CB NW NE E=
200711231700 METAR MRLM 231700Z 35013KT 9999 FEW030 29/23 A2986 FEW110 FEW280 CB NW NE E=
200711231800 METAR MRLM NIL=
200711231900 METAR MRLM 231900Z 34009KT 9999 FEW030 BKN090 29/24 A2984 CB RN NE E HZY=
200711232000 METAR MRLM NIL=
200711232100 METAR MRLM 232100Z 32008KT 9999 FEW030 BKN100 29/23 A2979 RMK CB DST QUAD N E TRACE CI HZ ARND=
200711232200 METAR MRLM 232200Z 04005KT 9999 FEW020 BKN090 28/24 A2980RMK FEW280 CI DST S SE LEVE HZ ARND=
200711232300 METAR MRLM 232300Z 00000KT 9999 FEW020 BKN080 27/23 A2982 RMK CB DST S FEW270 LEVE HZ ARND=
200711240000 METAR MRLM 240000Z 00000KT 9999 FEW010 BKN090 25/23 A2984 RMK CB DST SE S FEW280 HZ ARWND=
200711240100 METAR MRLM NIL=
200711240200 METAR MRLM NIL=
200711240300 METAR MRLM NIL=
200711240400 METAR MRLM NIL=
200711240500 METAR MRLM NIL=
200711240600 METAR MRLM NIL=
200711240700 METAR MRLM NIL=
200711240800 METAR MRLM NIL=
200711240900 METAR MRLM NIL=
200711241000 METAR MRLM NIL=
200711241100 METAR MRLM NIL=
200711241200 METAR MRLM NIL=
200711241300 METAR MRLM 241300Z 22004KT 9999 FEW030 SCT080 24/22 A2989 RMK CB DST NE RN DST S SW LEVE HZ ARWND=
200711241400 METAR MRLM 241400Z 19004KT 9999 FEW030 SCT080 28/23 A2990 RMK CB TS DST NE TRACE CI LEVE HZ ARND=
200711241500 METAR MRLM 241500Z 08003KT 9999 SCT028 BKN080 28/23 A2992 RMK CB RN DST NE HZ ARND=
200711241600 METAR MRLM 241600Z 07003KT 9999 SCT028 SCT080 27/23 A2992 A2992 REDZ CB RN DST N NE HZ ARND=
200711241700 METAR MRLM 241700Z 06002KT 9999 FEW028 BKN080 29/23 A2990 RMK TCU RN DST N NE W HZ ARND=
200711241800 METAR MRLM 241800Z 02004KT 9999 FEW025TCU SCT030 29/23 A2986 RMK CB RN DST NW N NE TCU DST S TRACE AC HZ ARND=
200711241900 METAR MRLM 241900Z 03008KT 9999 FEW025 BKN080 28/24 A2984 RMK CB RN DST NW N NE TCU RN DST SSW W LEVE HZ ARND=
200711242000 METAR MRLM 242000Z NIL=
200711242100 METAR MRLM 242100Z 03006KT 9999 FEW024 BKN045 28/23 A2981 CB DST WNW/NE RN DST ARND HZY FEW080=
200711242200 METAR MRLM 242200Z 10003KT 9999 FEW025 BKN080 28/23 A2980 CB/RN WNW/NW/N/NE HZY=
200711242300 METAR MRLM 242300Z 00000KT 9999 FEW025 SCT080 27/24 A2982 CB DST N/NE TRAZAS CI HZ ARND=
200711250000 METAR MRLM 250000Z 00000KT 9999 SCT025 BKN080 26/24 A2983 CB DST N/NE HZ ARND=
200711250100 METAR MRLM NIL=
200711250200 METAR MRLM NIL=
200711250300 METAR MRLM NIL=
200711250400 METAR MRLM NIL=
200711250500 METAR MRLM NIL=
200711250600 METAR MRLM NIL=
200711250700 METAR MRLM NIL=
200711250900 METAR MRLM NIL=
200711251000 METAR MRLM NIL=
200711251100 METAR MRLM NIL=
200711251200 METAR MRLM 251200Z 21002KT 9999 FEW030 SCT080 23/22 A2985 REDZ CB NE HZY=
200711251300 METAR MRLM 251300Z 00000KT 9999 FEW030 SCT090 25/23 A2986 CB DST NW/N HZ ARND=
200711251400 METAR MRLM 251400Z 00000KT 9999 FEW030 SCT080 29/23 A2989 CB/RN DST NW/N/NE HZY=
200711251500 METAR MRLM 251500Z 36003KT 9999 FEW028 SCT090 29/24 A2988 CB DST NW/N/ENE TRAZAS CI HZ ARND=
200711251600 METAR MRLM 251600Z 31004KT 9999 FEW028 SCT090 29/23 A2989 CB DST ENE TRAZAS CI HZ ARND=
200711251700 METAR MRLM 251700Z 01003KT 9999 FEW028 SCT090 29/24 A2986 CB DST N/NE/E FEW230 HZ ARND=
200711251800 METAR MRLM 251800Z 03004KT 9999 FEW028 29/24 A2982 CB DST NE/E FEW090 FEW230 HZ ARND=
200711251900 METAR MRLM 251900Z 01008KT 9999 FEW028 30/24 CB DIST WNW NE E HZY=
200711252000 METAR MRLM 252000Z NIL=
200711252100 METAR MRLM 252100Z 02006KT 9999 FEW028 SCT090 29/24 A2976 RMK CB DST NW NE S HZ ARND=
200711252200 METAR MRLM 252200Z 00000KT 9999 FEW028 SCT090 30/24 A2976 RMK CB DST NW NNE S HZ ARND=
200711252300 METAR MRLM 252300Z 00000KT 9999 FEW028 BKN090 28/24 A2978 RMK CB DST NNE N HZ ARND=
200711260000 METAR MRLM 260000Z 00000KT 9999 SCT026 SCT080 27/24 A2979 RMK TCU RN DST ARND HZ ARND=
200711260100 METAR MRLM NIL=
200711260200 METAR MRLM NIL=
200711260300 METAR MRLM NIL=
200711260400 METAR MRLM NIL=
200711260500 METAR MRLM NIL=
200711260600 METAR MRLM NIL=
200711260700 METAR MRLM NIL=
200711260800 METAR MRLM NIL=
200711260900 METAR MRLM NIL=
200711261000 METAR MRLM NIL=
200711261100 METAR MRLM NIL=
200711261200 METAR MRLM 261200Z NIL=
200711261300 METAR MRLM 261300Z 29005KT 9999 FEW008 OVC025 25/22 A2985 RMK RN DST N NW HZ ARND=
200711261400 METAR MRLM 261400Z 27012KT 9999 FEW012 SCT110 BKN280 27/23 A2986 RMK CB RN DST NW N HZ ARND=
200711261500 METAR MRLM 261500Z 27013KT 9999 SCT025 SCT110 28/23 A2988 RMK CB RN DST NW N HZ ARND=
200711261600 METAR MRLM 261600Z 29013KT 9999 FEW025 BKN110 28/23 A2987 RMK FEW280 HZ ARND=
200711261700 METAR MRLM 261700Z 29012KT 9999 FEW030 SCT120 BKN280 30/24 A2983 RMK CB DST N HZ LGT ARND=
200711261800 METAR MRLM 261800Z 32014KT 9999 FEW025 BKN120 29/24 A2982 RMK CB RN DST N NE E HZ ARND=
200711261900 METAR MRLM 261900Z 34017KT 9999 3000N RA OVC020 28/24 A2983=
200711262000 METAR MRLM 262000Z NIL=
200711262100 METAR MRLM 262100Z 28010KT 9999 SCT015 BKN025 25/22 A2982 RMK CB S W RN W=
200711262200 METAR MRLM 262200Z 27006KT 9999 FEW010 OVC025 24/22 A2982 RMK RN DST ARND=
200711262300 METAR MRLM 262300Z 26009KT 9999 -DZ OVC015 23/22 A2985 RMK TRACE ST=
200711270000 METAR MRLM 270000Z 26008KT 9999 +DZ OVC012 23/21 A2987=
200711270100 METAR MRLM NIL=
200711270200 METAR MRLM NIL=
200711270300 METAR MRLM NIL=
200711270400 METAR MRLM NIL=
200711270500 METAR MRLM NIL=
200711270600 METAR MRLM NIL=
200711270700 METAR MRLM NIL=
200711270800 METAR MRLM NIL=
200711270900 METAR MRLM NIL=
200711271000 METAR MRLM NIL=
200711271100 METAR MRLM NIL=
200711271200 METAR MRLM NIL=
200711271300 METAR MRLM 271300Z 24007KT 6000 RA SCT006 SCT020 BKN100 23/22 A29996=
200711271400 METAR MRLM 271400Z 25009KT 9999 +DZ BKN020 SCT100 23/22 A2998=
200711271500 METAR MRLM 271500Z 25007KT 9999 +DZ FEW010 BKN020 24/22 A2997 RMK CB RN DST W NW N NE FEW100=
200711271600 METAR MRLM 271600Z 24006KT 9999 SCT020 SCT090 26/23 A2995 RMK RN DST HZ ARND=
200711271700 METAR MRLM 271700Z 15004KT 9999 DZ BKN015 SCT100 27/23 A2993 RMK RN HZ ARND=
200711271800 METAR MRLM 271800Z 05004KT 9999 +DZ BKN015 27/24 A2990 RMK HZ ARND FEW100=
200711271900 METAR MRLM 271900Z 05005KT 9999 -DZ BKN020 27/24 A2988 RMK FEW100 HZ ARND=
200711272000 METAR MRLM 272000Z NIL=
200711272100 METAR MRLM 272100Z 17006KT 7000 RA FEW008 BKN020 24/22 A2987 CB E SE S=
200711272200 METAR MRLM 272200Z 25003KT 8000 RA FEW007 SCT020 BKN090 24/23 A2987 VSBY SE S UNL CB E SE S=
200711272300 METAR MRLM 272300Z 28002KT 8000 RA BKN015 24/23 A2988 VSBY SW W UNL=
200711280000 METAR MRLM 200000Z 13003KT 3000 -RA BKN012 24/22 A2990 CB E SE=
200711280100 METAR MRLM NIL=
200711280200 METAR MRLM NIL=
200711280300 METAR MRLM NIL=
200711280400 METAR MRLM NIL=
200711280500 METAR MRLM NIL=
200711280600 METAR MRLM NIL=
200711280700 METAR MRLM NIL=
200711280800 METAR MRLM NIL=
200711280900 METAR MRLM NIL=
200711281000 METAR MRLM NIL=
200711281100 METAR MRLM NIL=
200711281200 METAR MRLM NIL=
200711281300 METAR MRLM 281300Z 00000KT 9999 SCT028 SCT090 24/22 A2993 HZY=
200711281400 METAR MRLM 281400Z 210O4KT 9999 SCT028 SCT090 25/23 A2993 HZY=
200711281500 METAR MRLM 281500Z 24003KT 9999 DZ BKN028 SCT090 28/24 A2994 RN ARND HZY=
200711281600 METAR MRLM 281600Z 33003KT 9999 3000E VCSH SCT025 SCT090 30/23 A2993 REDZ RN N NE E S HZY=
200711281700 METAR MRLM 281700Z 02012KT 8000 1000NW +DZ SCT015 SCT080 25/23 A2994 RERA TCU RASH S SW=
200711281800 METAR MRLM 281800Z 34005KT 8000 -DZ BKN020 26/24 A2990 FEW080 RN HZ ARND=
200711281900 METAR MRLM 281900Z 31006KT 9999 FEW018 BKN028 28/23 A2988 REDZ FEW080 RN HZ ARND=
200711282000 METAR MRLM 282000Z NIL=
200711282100 METAR MRLM 282100Z 00000KT 9999 SCT022TCU SCT035 27/24 A2985 RMK TCU/RASH SW/W/NW FEW230 HZY=
200711282200 METAR MRLM 282200Z 27003KT 9999 BKN028 27/23 A2985 RMK FEW080 TRACE CI RN DST ARND HZ Y=
200711282300 METAR MRLM 282300Z 02012KT 0500 +RA OVC014 24/22 A2984=
200711290000 METAR MRLM 290000Z 00000KT 9999 BKN025 SCT090 23/22 A2988 RERA RMK RN DST ARND=
200711290100 METAR MRLM NIL=
200711290200 METAR MRLM NIL=
200711290300 METAR MRLM NIL=
200711290400 METAR MRLM NIL=
200711290500 METAR MRLM NIL=
200711290600 METAR MRLM NIL=
200711290700 METAR MRLM NIL=
200711290800 METAR MRLM NIL=
200711290900 METAR MRLM NIL=
200711291000 METAR MRLM NIL=
200711291100 METAR MRLM NIL=
200711291200 METAR MRLM NIL=
200711291300 METAR MRLM 291300Z 20004KT 9999 FEW025 BKN230 23/22 A2994 RMK FEW080 RN DST E HZ ARND=
200711291400 METAR MRLM 291400Z 19005KT 9999 FEW030 BKN230 26/22 A2995 RMK RN DST ENE FEW080=
200711291500 METAR MRLM 291500Z 18002KT 9999 FEW030 BKN230 29/22 A2995 RMK CB RN DST E FEW080 HZ ARND=
200711291600 METAR MRLM 291600Z 07003KT 9999 FEW030 BKN230 29/24 A2993 RMK FEW090 HZ ARND=
200711291700 METAR MRLM 291700Z 06006KT 9999 FEW030 BKN080 30/24 A2992 RMK TCU RN DST NW N NE FEW230 HZ ARND=
200711291800 METAR MRLM 291800Z 08008KT 9999 FEW030 SCT080 29/24 A2990 RMK FEW230 TCU RN DST NW N HZ ARND=
200711291900 METAR MRLM 291900Z 10009KT 9999 FEW030 BKN080 30/23 A2988 RMK TCU RN DST N NE LEVE HZ ARND=
200711292000 METAR MRLM 292000Z NIL=
200711292100 METAR MRLM 292100Z 09010KT 9999 FEW028 BKN035 28/22 A2988 RMK TCU RN NW N NE SE HZ ARND=
200711292200 METAR MRLM 292200Z 01009KT 9999 FEW024 BKN035 27/22 A2990 RMK TCU RN DST SW W TRACE AC HZY=
200711292300 METAR MRLM 292300Z 20004KT 9999 FEW024 SCT035 26/23 A2991 RMK FEW080 HZY=
200711300000 METAR MRLM 300000Z 20003KT 9999 FEW030 BKN230 25/23 A2992 RMK TUC DST N FEW080 HZY=
200711300100 METAR MRLM NIL=
200711300200 METAR MRLM NIL=
200711300300 METAR MRLM NIL=
200711300400 METAR MRLM NIL=
200711300500 METAR MRLM NIL=
200711300600 METAR MRLM NIL=
200711300700 METAR MRLM NIL=
200711300800 METAR MRLM NIL=
200711300900 METAR MRLM NIL=
200711301000 METAR MRLM NIL=
200711301100 METAR MRLM NIL=
200711301200 METAR MRLM NIL=
200711301300 METAR MRLM 301300Z 21004KT CAVOK 24/21 A2996 RMK SCT120 BKN270 RMK RN N NE HZY=
200711301400 METAR MRLM 301400Z 22004KT CAVOK 26/22 A2997 RMK BKN110 SCT270 HZY=
200711301500 METAR MRLM 301500Z 27005KT CAVOK 29/23 A2998 RMK SCT120 SCT270=
200711301600 METAR MRLM 301600Z 35010KT 9999 FEW035 BKN090 28/21 A2998 RMK HZY=
200711301700 METAR MRLM 301700Z 01016KT 9999 BKN015 SCT090 26/23 A2999 RMK DZ E HZY=
200711301800 METAR MRLM 301800Z 08005KT 9999 FEW030 BKN090 27/21 A2996 RMK SCT040 HZY=
200711301900 METAR MRLM 301900Z 19002KT 9999 FEW035 SCT090 BKN140 27/20 A2993 RMK DZ W E=
200711302000 METAR MRLM 302000Z NIL=
200711302100 METAR MRLM 302100Z 19006KT CAVOK 28/20 A2989 RMK DZ DST SE S HZ LGT ARND OVC090=
200711302200 METAR MRLM 302200Z 20003KT CAVOK 27/21 A2990 RMK HZ ARND BKN090 FEW280=
200711302300 METAR MRLM 302300Z 20002KT CAVOK 26/22 A2992 RMK CB DST NW HZ ARND BKN090 SCT280=
200712010000 METAR MRLM 010000Z 00000KT CAVOK 24/22 A2993 RMK TCU DST NW HZ ARND SCT090 BKN270=
200712010100 METAR MRLM NIL=
200712010200 METAR MRLM NIL=
200712010300 METAR MRLM NIL=
200712010400 METAR MRLM NIL=
200712010500 METAR MRLM NIL=
200712010600 METAR MRLM NIL=
200712010700 METAR MRLM NIL=
200712010800 METAR MRLM NIL=
200712010900 METAR MRLM NIL=
200712011000 METAR MRLM NIL=
200712011100 METAR MRLM NIL=
200712011200 METAR MRLM NIL=
200712011300 METAR MRLM 011300Z 24003KT 9999 SCT020 SCT090 24/21 A2999 RMK TCU RN DST N HZ LGT ARND=
200712011400 METAR MRLM 011400Z 34008KT 9999 SCT025 BKN100 26/21 A3001 RMK RN DST N W HZ ARND=
200712011500 METAR MRLM 011500Z 33003KT 9999 SCT020 BKN090 26/22 A3002 RMK RN DST NE S HZ ARND=
200712011600 METAR MRLM 011600Z 19003KT 9999 FEW030 BKN100 28/22 A3000 RMK RN DST NE HZ ARND=
200712011700 METAR MRLM 011700Z 07004KT 9999 FEW035 OVC090 29/21 A2997 RMK DZ N HZ ARND=
200712011800 METAR MRLM 011800Z 21003KT 9999 FEW045 SCT090 BKN110 29/20 A2994=
200712011900 METAR MRLM 011900Z 04007KT 9999 FEW045 SCT090 BKN110 29/20 A2992 RMK HZ ARND=
200712012000 METAR MRLM 012000Z NIL=
200712012100 METAR MRLM 012100Z 03003KT 9999 FEW040 BKN140 29/21 A2990 RMK TCU N HZ ARND=
200712012200 METAR MRLM 012200Z 05003KT 9999 FEW035 SCT140 28/21 A2991 RMK TCU NW HZ ARND=
200712012300 METAR MRLM 012300Z 00000KT 9999 FEW025 OVC110 26/22 A2992 RMK TCU RN N=
200712020000 METAR MRLM 020000Z 20003KT CAVOK 24/22 A2994 RMK BKN100 RN DST N W TRACE CU HZ ARND=
200712020100 METAR MRLM NIL=
200712020200 METAR MRLM NIL=
200712020300 METAR MRLM NIL=
200712020400 METAR MRLM NIL=
200712020500 METAR MRLM NIL=
200712020600 METAR MRLM NIL=
200712020700 METAR MRLM NIL=
200712020800 METAR MRLM NIL=
200712020900 METAR MRLM NIL=
200712021000 METAR MRLM NIL=
200712021100 METAR MRLM NIL=
200712021200 METAR MRLM 021200Z 00000KT 9999 FEW030 20/19 A2998=
200712021300 METAR MRLM 021300Z 19003KT 9999 NSC 23/20 A2999 RMK TRACE CU SC=
200712021400 METAR MRLM 021400Z 18004KT CAVOK 26/21 A3000 RMK FEW100 TRACE CI=
200712021500 METAR MRLM 021500Z 08004KT CAVOK 28/21 A3001 RMK TRACE CU FEW100=
200712021600 METAR MRLM 021600Z 06004KT CAVOK 28/22 A3000 RMK TRACE CU FEW100=
200712021700 METAR MRLM 021700Z 03004KT 9999 FEW026 28/22 A2999 RMK TCU NW NE FEW100=
200712021800 METAR MRLM 021800Z 03005KT 9999 FEW026 SCT090 28/22 A2997=
200712021900 METAR MRLM 021900Z 04007KT 9999 FEW025 BKN080 28/22 A2995 RMK RN NE=
200712022000 METAR MRLM NIL=
200712022100 METAR MRLM 022100Z 07010KT 9999 FEW025 BKN080 28/20 A2992 TCU RN NW NE SW=
200712022200 METAR MRLM 022200Z 14002KT 9999 FEW025 BKN080 27/21 A2993 TCU RN NE SW S=
200712022300 METAR MRLM 022300Z 09006KT 9999 FEW025 BKN080 27/21 A2995 RN NE=
200712030000 METAR MRLM 030000Z 10003KT 9999 FEW035 SCT080 26/22 A2996 RN DST NE ENE=
200712030100 METAR MRLM NIL=
200712030200 METAR MRLM NIL=
200712030300 METAR MRLM NIL=
200712030400 METAR MRLM NIL=
200712030500 METAR MRLM NIL=
200712030600 METAR MRLM NIL=
200712030700 METAR MRLM NIL=
200712030800 METAR MRLM NIL=
200712030900 METAR MRLM NIL=
200712031000 METAR MRLM NIL=
200712031100 METAR MRLM NIL=
200712031200 METAR MRLM NIL=
200712031300 METAR MRLM NIL=
200712031400 METAR MRLM 031400Z 21003KT 9999 SCT030 BKN080 24/21 A3003 RN NW NE HZY=
200712031500 METAR MRLM 031500Z 33004KT 9999 FEW030 BKN080 26/21 A3003 HZY=
200712031600 METAR MRLM 031600Z 00000KT 9999 FEW030 BKN090 28/20 A3001 HZY=
200712031700 METAR MRLM 031700Z 02005KT 9999 FEW030 BKN090 28/21 A2999 HZY=
200712031800 METAR MRLM 031800Z 01005KT 9999 FEW026 BKN090 28/20 A2997 HZY=
200712031900 METAR MRLM 031900Z 02005KT 9999 FEW025 SCT100 29/20 A2995 TCU NW=
200712032000 METAR MRLM 032000Z NIL=
200712032100 METAR MRLM 032100Z 02003KT 9999 FEW026 SCT230 28/20 A2992 RMK FEW100=
200712032200 METAR MRLM 032200Z 01004KT 9999 FEW026 BKN230 27/22 A2992 RMK HZ ARND=
200712032300 METAR MRLM 032300Z 00000KT 9999 FEW026 BKN230 27/22 A2992 RMK FEW090 HZ ARND=
200712040000 METAR MRLM 040000Z 21002KT 9999 FEW025 BKN230 25/22 A2994 RMK RN DST ENE=
200712040100 METAR MRLM NIL=
200712040200 METAR MRLM NIL=
200712040300 METAR MRLM NIL=
200712040400 METAR MRLM NIL=
200712040500 METAR MRLM NIL=
200712040600 METAR MRLM NIL=
200712040700 METAR MRLM NIL=
200712040800 METAR MRLM NIL=
200712040900 METAR MRLM NIL=
200712041000 METAR MRLM NIL=
200712041100 METAR MRLM NIL=
200712041200 METAR MRLM NIL=
200712041300 METAR MRLM 041300Z 25004KT CAVOK 25/21 A2997 RMK FEW110 BKN280 RN DST N NE CB DST NE LEVE HZ ARND=
200712041400 METAR MRLM 041400Z 29014KT CAVOK 27/21 A2998 RMK TRCE SC FEW100 BKN280 TCU RN DST QUAD N LEVE HZ ARND=
200712041500 METAR MRLM 041500Z 28016KT 9999 FEW030 BKN090 27/21 A2999 RMK RN DST N NE FEW280 HZ LEVE ARND=
200712041600 METAR MRLM 041600Z 28013KT 9999 FEW030 BKN090 28/21 A2998 RMK RN DST N NE LEVE HZ ARND FEW280=
200712041700 METAR MRLM 041700Z 31016KT 9999 SCT030 BKN090 28/22 A2995 RMK TCU DST N E TRACE CI=
200712041800 METAR MRLM 041800Z 32016KT 9999 FEW040 BKN110 29/21 A2992 RMK FEW280 CB RN DST N E LEVE HZ ARND=
200712041900 METAR MRLM 041900Z 31014KT 9999 FEW035 BKN100 29/22 A2989 RMK CI RN DST N LEVE HZ ARND=
200712042000 METAR MRLM 042000Z NIL=
200712042100 METAR MRLM 042100Z 32020KT 9999 SCT025 SCT270 27/22 A2987 RMK TCU RN N FEW090 CB RN SW=
200712042200 METAR MRLM 042200Z 31018KT 9999 SCT025 BKN090 26//21 A2987 RMK CBS RN DST N FEW270=
200712042300 METAR MRLM 042300Z 30010KT 9999 SCT025 BKN100 26/21 A2990 RMK CB RN DST ARN D DZ NW N FEW280=
200712050000 METAR MRLM 050000Z 27007KT 9999 SCT015 BKN090 25/22 A2992 RMK RN DST ARND DZ N TRACE CI=
200712050100 METAR MRLM NIL=
200712050200 METAR MRLM NIL=
200712050300 METAR MRLM NIL=
200712050400 METAR MRLM NIL=
200712050500 METAR MRLM NIL=
200712050600 METAR MRLM NIL=
200712050700 METAR MRLM NIL=
200712050800 METAR MRLM NIL=
200712050900 METAR MRLM NIL=
200712051000 METAR MRLM NIL=
200712051100 METAR MRLM NIL=
200712051200 METAR MRLM 051200Z NIL=
200712051300 METAR MRLM 051300Z 22003KT CAVOK 23/21 A2995 OVC070 TRACE CU CI CBS RN DST N NE=
200712051400 METAR MRLM 051400Z 24002KT CAVOK 25/22 A2996 RMK TRACE SC CBS RN DST N E OVC080 HZY=
200712051500 METAR MRLM 051500Z 28006KT 9999 FEW030 OVC100 27/21 A2996 RMK CB DST N E TRACE CI HZY=
200712051600 METAR MRLM 051600Z 30009KT 9999 FEW030 OVC100 27/21 A2996=
200712051700 METAR MRLM 051700Z 29010KT 9999 FEW035 OVC100 29/22 A2994 RMK TRACE CI TCU DST N NE E LGT HZ ARND=
200712051800 METAR MRLM 051800Z 32013KT 9999 FEW035 OVC110 29/22 A2991 RMK CB DST N NE E HZY=
200712051900 METAR MRLM 051900Z 34013KT 9999 FEW030 BKN110 28/22 A2989 RMK CBS RN DST N NE E TRACE CI=
200712052000 METAR MRLM 052000Z NIL=
200712052100 METAR MRLM 052100Z 33014KT 9999 FEW025 SCT100 28/22 A2986 RMK CB DST N NE S SW RN S SW HZ LGT ARND=
200712052200 METAR MRLM 052200Z 33009KT 9999 BKN020 27/23 A2988 RMK CB RN DST S=
200712052300 METAR MRLM 052300Z 32009KT 9999 SCT020 BKN090 27/23 A2989 RMK CB RN DST ARND=
200712060000 METAR MRLM 060000Z 289004KT 9999 BKN020 26/22 A2991 RMK RN DST S SW W NW HZ LGT ARND=
200712060100 METAR MRLM NIL=
200712060200 METAR MRLM NIL=
200712060300 METAR MRLM NIL=
200712060400 METAR MRLM NIL=
200712060500 METAR MRLM NIL=
200712060600 METAR MRLM NIL=
200712060700 METAR MRLM NIL=
200712060800 METAR MRLM NIL=
200712060900 METAR MRLM NIL=
200712061000 METAR MRLM NIL=
200712061100 METAR MRLM NIL=
200712061200 METAR MRLM 061200Z 00000KT 9999 FEW024TCU BKN028 23/22 A2997 RMK RN DST NW N NE E=
200712061300 METAR MRLM 061300Z 24003KT 9999 FEW025 SCT030 23/22 A2999=
200712061400 METAR MRLM NIL=
200712061500 METAR MRLM 061500Z 17003KT 8000 DZ FEW024 BKN030 24/22 A3005=
200712061600 METAR MRLM NIL=
200712061700 METAR MRLM 061700Z 21005KT 9999 SCT030 SCT080 23/21 A3003=
200712061800 METAR MRLM 061800Z 19005KT 9999 FEW030 BKN090 27/23 A3000 TCU RN DIST ARND=
200712061900 METAR MRLM 061900Z 10005KT 9999 FEW030 BKN090 27/23 A2996=
200712062000 METAR MRLM 062000Z NIL=
200712062100 METAR MRLM 062100Z 06005KT 9999 FEW030 BKN090 28/22 A2993 TCU W E TRACE CI=
200712062200 METAR MRLM 062200Z 09005KT 9999 FEW030 BKN090 28/21 A2994 RMK TRACE CI RN ENE E NW=
200712062300 METAR MRLM 062300Z 00000KT 9999 SCT035 BKN090 27/22 A2995 RMK RN NE SE=
200712070000 METAR MRLM 070000Z 06005KT 999 SCT030 BKN090 27/22 A2996 RMK RN DST NE SE=
200712070100 METAR MRLM NIL=
200712070200 METAR MRLM NIL=
200712070300 METAR MRLM NIL=
200712070400 METAR MRLM NIL=
200712070500 METAR MRLM NIL=
200712070600 METAR MRLM NIL=
200712070700 METAR MRLM NIL=
200712070800 METAR MRLM NIL=
200712070900 METAR MRLM NIL=
200712071000 METAR MRLM NIL=
200712071100 METAR MRLM NIL=
200712071200 METAR MRLM NIL=
200712071300 METAR MRLM 071300Z 22002KT 9999 FEW025 SCT090 23/20 A3003 RMK TCU RN NW N NE FEW250 HZ ARND=
200712071400 METAR MRLM 071400Z 00000KT 9999 SCT030 SCT080 24/21 A3006 RMK TCU RN N W N NNE HZ ARND=
200712071500 METAR MRLM 071500Z 32003KT 9999 SCT028 BKN080 26/22 A3007 RMK TCU RN SW W NW HZ ARND=
200712071600 METAR MRLM 071600Z 24005KT 9999 FEW025 28/23 A3005 RMK FEW090 TRACE CI=
200712071700 METAR MRLM 071700Z 01003KT 9999 FEW025 SCT090 29/22 A3003 RMK TCU NNW NW NE RN NE=
200712071800 METAR MRLM 071800Z 02005KT 9999 FEW025 BKN080 29/23 A3000 RMK RN N=
200712071900 METAR MRLM 071900Z 25004KT 9999 FEW024 SCT090 28/23 A2998 RMK FEW230=
200712072000 METAR MRLM NIL=
200712072100 METAR MRLM 072100Z 35005KT 9999 FEW024 SCT230 28/22 A2995=
200712072200 METAR MRLM 072200Z 35004KT 9999 FEW030 BKN230 28/22 A2994=
200712072300 METAR MRLM 072300Z 33003KT 9999 FEW030 BKN230 28/22 A2995=
200712080000 METAR MRLM 080000Z 00000KT CAVOK 24/22 A2996 BKN230 TAZAS CU=
200712080100 METAR MRLM NIL=
200712080200 METAR MRLM NIL=
200712080300 METAR MRLM NIL=
200712080400 METAR MRLM NIL=
200712080500 METAR MRLM NIL=
200712080600 METAR MRLM NIL=
200712080700 METAR MRLM NIL=
200712080800 METAR MRLM NIL=
200712080900 METAR MRLM NIL=
200712081000 METAR MRLM NIL=
200712081100 METAR MRLM NIL=
200712081200 METAR MRLM NIL=
200712081300 METAR MRLM 081300Z 23005KT 9999 SCT025 BKN090 22/20 A2995 RN HZ ARND=
200712081400 METAR MRLM 081410 25004KT 9999 BKN025 SCT090 23/21 A2998 RN HZ ARND=
200712081413 SPECI MRLM 081410 25004KT 9999 BKN025 SCT090 23/21 A2998 RN HZ ARND=
200712081500 METAR MRLM 081500Z 17005KT 6000 RA SCT025 SCT090 23/21 A3000 VSBY W NW N NE UNL=
200712081600 METAR MRLM NIL=
200712081700 METAR MRLM 081700Z 24005KT 9999 OVC025 27/22 A2996 DZ N NE E HZY=
200712081800 METAR MRLM NIL=
200712081900 METAR MRLM 081900Z 27005KT 9999 FEW030 OVC090 29/23 A2989 DZ ARND=
200712082000 METAR MRLM 082000Z NIL=
200712082100 METAR MRLM 082100Z 22004KT 9999 SCT020 BKN090 26/22 A2986 RMK RN HZ ARND=
200712082200 METAR MRLM 082200Z 29004KT 9999 FEW010 BKN025 25/23 A2987 RMK RN HZ ARND=
200712082300 METAR MRLM 082300Z 25003KT 9999 SCT025 SCT090 25/23 A2987 RMK RN HZ ARND=
200712090000 METAR MRLM 090000Z 23002KT 9999 SCT025 SCT090 25/23 A2987 RERA RMK TCU DST NE E RN HZ ARND=
200712090100 METAR MRLM NIL=
200712090200 METAR MRLM NIL=
200712090300 METAR MRLM NIL=
200712090400 METAR MRLM NIL=
200712090500 METAR MRLM NIL=
200712090600 METAR MRLM NIL=
200712090700 METAR MRLM NIL=
200712090800 METAR MRLM NIL=
200712090900 METAR MRLM NIL=
200712091000 METAR MRLM NIL=
200712091100 METAR MRLM NIL=
200712091200 METAR MRLM NIL=
200712091300 METAR MRLM 001300Z 25004KT 9999 OVC020 23/22 A2990 RMK TRACE ST AC RN HZ ARND=
200712091400 METAR MRLM 091400Z 22005KT 8000 RA OVC015TCU 25/23 A2991 RMK VIS 9999 QUAD N=
200712091500 METAR MRLM 091500Z 03009KT 9999 BKN020 26/23 A2993 RERA RMK RN HA ARND FEW AS=
200712091600 METAR MRLM 091600Z 22007KT 9999 OVC015TCU 27/24 A2992 RMK RN HZ ARND=
200712091700 METAR MRLM 091700Z 23004KT 5000 +RA OVC015 27/24 A2990=
200712091800 METAR MRLM 091800Z 17004KT 050V170 8000 RA FEW006 OVC015TCU 27/24 A2986 RMK VIS 9999 W NW=
200712091900 METAR MRLM 091900Z 17006KT 7000 RA FEW008 OVC015TCU 25/23 A2986 RMK VIS 9999 S=
200712092000 METAR MRLM 092000Z NIL=
200712092100 METAR MRLM 092100Z 20003KT 9999 OVC015 27/24 A2981 RMK VIS E SE 5KMS DUE RASH=
200712092200 METAR MRLM 092200Z 16006KT 9000 DZ SCT008 BKN015 24/23 A2982 RMK RN HZ ARND=
200712092300 METAR MRLM 092300Z 22004KT 9999 OVC015 24/23 A2982 RMK RN HZ ARND=
200712100000 METAR MRLM 100000Z 14006KT 4000 RA OVC015 24/23 A2984=
200712100100 METAR MRLM NIL=
200712100200 METAR MRLM NIL=
200712100300 METAR MRLM NIL=
200712100400 METAR MRLM NIL=
200712100500 METAR MRLM NIL=
200712100600 METAR MRLM NIL=
200712100700 METAR MRLM NIL=
200712100800 METAR MRLM NIL=
200712100900 METAR MRLM NIL=
200712101000 METAR MRLM NIL=
200712101100 METAR MRLM NIL=
200712101200 METAR MRLM NIL=
200712101300 METAR MRLM 101300Z 19005KT 3000 NW HZ BKN024 24/23 A2989 RMK RN DST ARND=
200712101400 METAR MRLM 101400Z 21002KT 9999 BKN026 26/23 A2982 RMK HZ RN ARND=
200712101500 METAR MRLM 101500Z 00000KT 2000 RA SCT015 BKN024TCU 27/23 A2992=
200712101600 METAR MRLM 101600Z 26002 9999 3000N VCSH SCT015 BKN024 27/23 A2990 RMK TCU RASH NW N NE=
200712101700 METAR MRLM 101700Z 10006KT 9999 DZ SCT015 BKN025 24/22 A2991 RERA RMK TCU RN ARND=
200712101800 METAR MRLM 101800Z 21003KT 9999 NKN022 28/24 A2986 REDZ RMK TCU RASH ARND FEW090/230 HZY=
200712101900 METAR MRLM 101900Z 18002KT 5000 +DZ SCT015 BKN024 27/24 A2984 RERA RMK RN ARND=
200712102000 METAR MRLM 102000Z NIL=
200712102100 METAR MRLM 102100Z 18004KT 9999 BKN026 SCT080 25/23 A2981 REDZ RMK RN HZ ARND=
200712102200 METAR MRLM 102200Z 18003KT 9999 -DZ BKN025 26/23 A2982 RMK RN HZ ARND=
200712102300 METAR MRLM 102300Z 00000KT 9999 BKN025 25/22 A2983 RMK RN HZ DST ARND=
200712110000 METAR MRLM 110000Z 17002KT 9999 -DZ BKN024 SCT080 25/22 A2985 RMK RN DST ARND=
200712110100 METAR MRLM NIL=
200712110200 METAR MRLM NIL=
200712110300 METAR MRLM NIL=
200712110400 METAR MRLM NIL=
200712110500 METAR MRLM NIL=
200712110600 METAR MRLM NIL=
200712110700 METAR MRLM NIL=
200712110800 METAR MRLM NIL=
200712110900 METAR MRLM NIL=
200712111000 METAR MRLM NIL=
200712111100 METAR MRLM NIL=
200712111200 METAR MRLM 111200Z NIL=
200712111300 METAR MRLM 111300Z 23002KT 5000 -RA BKN015 SCT080 22/21 A2993 RMK TCU DST ARND=
200712111400 METAR MRLM 111400Z 23004KT 9999 3000NW VCSH BKN020TCU 23/22 A2984 RERA RMK FEW080 RASH NW=
200712111500 METAR MRLM 111500Z 24004KT 6000 +DZ BKN024 SCT080 24/22 A2996 RMK TCU RN DST ARND=
200712111600 METAR MRLM 111600Z 26004KT 9999 -DZ BKN025 SCT080 24/22 A2996 RERA RMK TCU RN DST ARND=
200712111700 METAR MRLM 111700Z 24003KT 9999 DZ BKN025 SCT080 25/22 A2995 RMK RN ARND=
200712111800 METAR MRLM 111800Z 21004KT 9999 -DZ BKN025 SCT080 25/23 A2991 RMK TCU RN HZ DST ARND=
200712111900 METAR MRLM 111900Z 24004KT 9999 BKN025 SCT080 27/23 A2988 REDZ RMK TCU RN HZ DST ARND=
200712112000 METAR MRLM 112000Z NIL=
200712112100 METAR MRLM 112100Z 05003KT 9999 SCT026 SCT080 27/22 A2985 RMK RN HZ ARND=
200712112200 METAR MRLM 112200Z 00000KT 9999 SCT028 SCT080 27/22 A2985 RMK TCU N RN S SW HZ ARND=
200712112300 METAR MRLM 112300Z 25002KT 9999 SCT028 SCT090 25/23 A2986 RMK RN SW HZ ARND TRACE CI=
200712120000 METAR MRLM 120000Z 00000KT 9999 FEW028 SCT230 25/23 A2987 RMK FEW080 HZ ARND=
200712120100 METAR MRLM NIL=
200712120200 METAR MRLM NIL=
200712120300 METAR MRLM NIL=
200712120400 METAR MRLM NIL=
200712120500 METAR MRLM NIL=
200712120600 METAR MRLM NIL=
200712120700 METAR MRLM NIL=
200712120800 METAR MRLM NIL=
200712120900 METAR MRLM NIL=
200712121000 METAR MRLM NIL=
200712121100 METAR MRLM NIL=
200712121200 METAR MRLM NIL=
200712121300 METAR MRLM 121300Z 27005KT 9999 FEW015 BKN080 23/21 A2991 RMK TCU RN N HZ ARND=
200712121400 METAR MRLM 121400Z 26008KT 9999 FEW015 BKN090 23/20 A2993 RMK FEW110 HZ ARND RN NW N NE E=
200712121500 METAR MRLM 121500Z 28009KT 9999 DZ SCT015 OVC100 24/21 A2995 RMK HZ ARND=
200712121600 METAR MRLM 121600Z 26011KT 9999 DZ FEW010 SCT025 24/22 A2994 RMK FEW090 RN NW N NE E HZ ARND=
200712121700 METAR MRLM 121700Z 28016KT 9999 SCT020 SCT100 26/22 A2992 RN NW N NE=
200712121800 METAR MRLM 121800Z 31012KT 9999 DZ SCT020 BKN100 25/21 A2990 RMK HZ ARND=
200712121900 METAR MRLM 121900Z 28008KT 9999 DZ FEW020 OVC100 25/21 A2988 RMK HZ ARND=
200712122000 METAR MRLM 12200Z NIL=
200712122100 METAR MRLM 122100Z 06003KT 9999 SCT035 OVC100 27/21 A2984 RN NE E SE HZY=
200712122200 METAR MRLM 122200Z 09008KT CAVOK 26/22 A2984 BKN080 SCT100 RN E SE S=
200712122300 METAR MRLM 122300Z 16004KT CAVOK 25/22 A2985 TRZAS SCT BKN080 SCT100 RN E NSE=
200712130000 METAR MRLM 130000Z 08010KT 9999 SCT015 BKN110 25/22 A2987 TCU N RN E SE HZY=
200712130100 METAR MRLM NIL=
200712130200 METAR MRLM NIL=
200712130300 METAR MRLM NIL=
200712130400 METAR MRLM NIL=
200712130500 METAR MRLM NIL=
200712130600 METAR MRLM NIL=
200712130700 METAR MRLM NIL=
200712130800 METAR MRLM NIL=
200712130900 METAR MRLM NIL=
200712131000 METAR MRLM NIL=
200712131100 METAR MRLM NIL=
200712131200 METAR MRLM NIL=
200712131300 METAR MRLM 131300Z 23006KT CAVOK 22/20 A2993 TRAZAS SCT OVC100 RN N=
200712131400 METAR MRLM 131400Z 25007KT 9999 FEW020 OVC090 23/20 A2994 RN N=
200712131500 METAR MRLM 131500Z 28004KT CAOK 25/20 A2985 TRAZAS CU FEW090 BKN120 RN N=
200712131600 METAR MRLM 131600Z 31009KT 9999 FEW035 BKN120 28/21 A2994 RN N NE HZY=
200712131700 METAR MRLM 131700Z 35011KT 9999 FEW035 BKN120 28/21 A2991=
200712131800 METAR MRLM 131800Z 04006KT 9999 FEW035 28/21 A2989 HZY=
200712131900 METAR MRLM 131900Z 35008KT 9999 FEW035 SCT120 29/20 A2986 HZY=
200712132000 METAR MRLM 132000Z NIL=
200712132100 METAR MRLM 132100Z 32009KT 9999 FEW035 SCT140 29/21 A2983 RMK LEVE HZ ARND=
200712132200 METAR MRLM 132200Z 29005KT 9999 FEW030 SCT140 28/22 A2983 TCU DST W=
200712132300 METAR MRLM 132300Z 27003KT CAVOK 26/22 A2984 RMK TRACE CU FEW090 FEW300=
200712140000 METAR MRLM 140000Z 27002KT CAVOK 24/22 A2986 RMK TRACE CU FEW090 FEW300 HZ LGT ARND=
200712140100 METAR MRLM NIL=
200712140200 METAR MRLM NIL=
200712140300 METAR MRLM NIL=
200712140400 METAR MRLM NIL=
200712140500 METAR MRLM NIL=
200712140600 METAR MRLM NIL=
200712140700 METAR MRLM NIL=
200712140800 METAR MRLM NIL=
200712140900 METAR MRLM NIL=
200712141000 METAR MRLM NIL=
200712141100 METAR MRLM NIL=
200712141200 METAR MRLM 141200Z 20004KT CAVOK 20/19 A2990 RMK TRACE CU AC FEW250=
200712141300 METAR MRLM 141300Z 00000KT CAVOK 22/20 A2992 RMK TRACE CU AC FEW250=
200712141400 METAR MRLM 141400Z 22003KT CAVOK 25/20 A2993 RMK FEW250 TRACE CU=
200712141500 METAR MRLM 141500Z 24002KT CAVOK 28/21 A2994 RMK FEW250 TRACE CU=
200712141600 METAR MRLM 141600Z 04004KT CAVOK 28/20 A2993 RMK FEW250 TRACE CU=
200712141700 METAR MRLM 141700Z 02008KT CAVOK 28/20 A2991 RMK FEW250 TRACE CU=
200712141800 METAR MRLM 141800Z 25008KT CAVOK 29/19 A2988 RMK FEW250 TRACE CU=
200712141900 METAR MRLM 141900Z 36008KT 9999 FEW030 28/21 A2986 RMK FEW250=
200712142000 METAR MRLM 142000Z NIL=
200712142100 METAR MRLM 142100Z 34006KT 9999 FEW030 28/22 A2982 RMK FEW250=
200712142200 METAR MRLM 142200Z 34006KT CAVOK 28/22 A2981 RMK FEW250 TRACE CU AC=
200712142300 METAR MRLM 142300Z 29002KT CAVOK 27/22 A2984 RMK SCT250 TRACE CU AC=
200712150000 METAR MRLM NIL=
200712150100 METAR MRLM NIL=
200712150200 METAR MRLM NIL=
200712150300 METAR MRLM NIL=
200712150400 METAR MRLM NIL=
200712150500 METAR MRLM NIL=
200712150600 METAR MRLM NIL=
200712150700 METAR MRLM NIL=
200712150800 METAR MRLM NIL=
200712150900 METAR MRLM NIL=
200712151000 METAR MRLM NIL=
200712151100 METAR MRLM NIL=
200712151200 METAR MRLM 151200Z 00000KT 9999 FEW026 SCT090 22/19 A2987 CB NW N HZY=
200712151300 METAR MRLM 151300Z 00000KT 9999 FEW026 SCT090 24/20 A2988 RMK CB DST NW N TRACE CI HZY=
200712151400 METAR MRLM 151400Z 24003KT 9999 FEW025 SCT250 27/20 A2990 RMK CB DST WNW N TRACE AC HZ ARND=
200712151500 METAR MRLM 151500Z 06005KT 9999 FEW025 SCT250 28/21 A2991 RMK CB DST WNW NNE FEW090 HZY=
200712151600 METAR MRLM 151600Z 30005KT 9999 FEW025 SCT250 30/21 A2990 RMK CB DST WNW NW TRACE AC=
200712151700 METAR MRLM 151700Z 33007KT 9999 FEW025 BKN230 29/21 A2988 RMK CB WNW NW N DST TRACE AC=
200712151800 METAR MRLM NIL=
200712151900 METAR MRLM 151900Z 34012KT 9999 FEW025 SCT230 30/21 A2982 RMK CB DST NW TRACE AC=
200712152000 METAR MRLM 152000Z NIL=
200712152100 METAR MRLM 152100Z 32010KT 9999 FEW025 SCT250 29/23 A2978 RMK CB DST NW NE E TRACE AC=
200712152200 METAR MRLM 152200Z 30010KT 9999 FEW025 28/23 A2978 RMK TCU DST NW ENE FEW250 TRACE AC=
200712152300 METAR MRLM 152300Z 30006KT 9999 FEW025 SCT250 27/23 A2980 RMK TCU DST NW N ENE HZ LGT ARND=
200712160000 METAR MRLM 160000Z 29005KT 9999 FEW025 SCT250 26/23 A2981=
200712160100 METAR MRLM NIL=
200712160200 METAR MRLM NIL=
200712160300 METAR MRLM NIL=
200712160400 METAR MRLM NIL=
200712160500 METAR MRLM NIL=
200712160600 METAR MRLM NIL=
200712160700 METAR MRLM NIL=
200712160800 METAR MRLM NIL=
200712160900 METAR MRLM NIL=
200712161000 METAR MRLM NIL=
200712161100 METAR MRLM NIL=
200712161200 METAR MRLM 161200Z NIL=
200712161300 METAR MRLM 161300Z 22005KT CAVOK 24/21 A2987 RMK FEW090 FEW300 CB DST N E HZ LGT ARND=
200712161400 METAR MRLM 161400Z 27008KT CAVOK 27/21 A2989 RMK FEW090 FEW300 CB DST N E HZ LGT ARND=
200712161500 METAR MRLM 161500Z 29010KT CAVOK 28/21 A2990 RMK TRACE CU CB RN DST N BKN080 FEW300=
200712161600 METAR MRLM 161600Z 29010KT 9999 FEW040 BKN080 29/22 A2990 RMK CB RN DST N HZ LGT ARND FEW300=
200712161700 METAR MRLM 161700Z 31017KT 9999 SCT025 SCT090 28/23 A2990 RMK CB RN DST W N=
200712161800 METAR MRLM 161800Z 28014KT 9999 BKN030 SCT090 29/23 A2987 RMK RN DST W N TRACE CI=
200712161900 METAR MRLM 161900Z 29013KT 9999 FEW030 BKN090 29/23 A2984 RMK CB DST W N E DZ W NW N FEW280=
200712162000 METAR MRLM 162000Z NIL=
200712162100 METAR MRLM 162100Z 29010KT 9999 FEW035 BKN100 29/22 A2981 RMK FEW280 CB RN N=
200712162200 METAR MRLM 162200Z 30010KT 9999 -DZ FEW025 BKN080 28/23 A2982 RMK CB RN N=
200712162300 METAR MRLM 162300Z 30007KT 9999 FEW015 BKN080 27/24 A2983 RMK FEW280 CB RN NW=
200712170000 METAR MRLM 170000Z 30007KT 9999 FEW015 BKN090 26/23 A2985 RMK RN DST NW SCT280 HZ LGT ARND=
200712170100 METAR MRLM NIL=
200712170200 METAR MRLM NIL=
200712170300 METAR MRLM NIL=
200712170400 METAR MRLM NIL=
200712170500 METAR MRLM NIL=
200712170600 METAR MRLM NIL=
200712170700 METAR MRLM NIL=
200712170800 METAR MRLM NIL=
200712170900 METAR MRLM NIL=
200712171000 METAR MRLM NIL=
200712171100 METAR MRLM NIL=
200712171200 METAR MRLM NIL=
200712171300 METAR MRLM 171300Z 25006KT 9999 SCT015 SCT090 24/23 A2982 RMK TCU RN W NW N HZ ARND=
200712171400 METAR MRLM 171400Z 26007KT 9999 FEW020 SCT280 26/23 A2994 RMK FEW140 CB RN NW N NE HZ ARND=
200712171500 METAR MRLM 171500Z 30010KT 9999 RA BKN025 28/23 A2994 RMK VIS 5000 NE FEW080=
200712171600 METAR MRLM 171600Z 27007KT 9999 +DZ BKN015 26/23 A2995 RMK FEW080 VIS 7000 SW=
200712171700 METAR MRLM 171700Z 26006KT 9999 DZ BKN010 26/25 A2994 RMK FEW080 VIS 6000 SE W=
200712171800 METAR MRLM 171800Z 26008KT 9999 FEW025 SCT120 28/23 A2991 RMK TCU RN W HZ ARND TRCE CI=
200712171900 METAR MRLM 171900Z 31006KT 9999 SCT025 28/23 A2991 RMK TRACE CI=
200712172000 METAR MRLM 172000Z NIL=
200712172100 METAR MRLM 172100Z 03005KT 9999 SCT035 29/22 A2985 CB NE E HZY=
200712172200 METAR MRLM NIL=
200712172300 METAR MRLM 172300Z 01005KT 9999 FEDW025 BKN090 28/23 A2987 RN N NE E=
200712180000 METAR MRLM 180000Z 01017KT 9999 +DZ BKN010 SCT080 26/24 A2989=
200712180100 METAR MRLM NIL=
200712180200 METAR MRLM NIL=
200712180300 METAR MRLM NIL=
200712180400 METAR MRLM NIL=
200712180500 METAR MRLM NIL=
200712180600 METAR MRLM NIL=
200712180700 METAR MRLM NIL=
200712180800 METAR MRLM NIL=
200712180900 METAR MRLM NIL=
200712181000 METAR MRLM NIL=
200712181100 METAR MRLM NIL=
200712181200 METAR MRLM NIL=
200712181300 METAR MRLM 181300Z 22003KT 9999 FEW026 24/22 A2995 TRAZAS AC HZY=
200712181400 METAR MRLM 181400Z 27003KT 9999 FEW026 SCT080 25/23 A2997 HZY=
200712181500 METAR MRLM 181500Z 04002KT 9999 FEW025 SCT080 27/23 A2998 TCU RN NE E HZY=
200712181600 METAR MRLM 181600Z 05004KT 9999 FEW025 BKN090 28/22 A2998 HZY=
200712181700 METAR MRLM 181700Z 05004KT 9999 FEW025 SCT090 28/23 A2996 TCU NW=
200712181800 METAR MRLM 181800Z 03005KT 9999 FEW025 SCT090 29/23 A2993 TCU NW=
200712181900 METAR MRLM 181900Z 02007KT 9999 FEW025 29/23 A2991 TCU NW=
200712182000 METAR MRLM 182000Z NIL=
200712182100 METAR MRLM 182100Z 04005KT 9999 FEW025 29/23 A2987 RMK TRACE AC=
200712182200 METAR MRLM 182200Z 04004KT 9999 FEW025 29/22 A2987 RMK TRACE AC CI=
200712182300 METAR MRLM 182300Z 05004KT CAVOK 28/22 A2989 RMK FEW090 TRACE CU=
200712190000 METAR MRLM 190000Z 03005KT 9999 FEW025 SCT080 28/22 A2991 RMK RN DST NE ENE=
200712190100 METAR MRLM NIL=
200712190200 METAR MRLM NIL=
200712190300 METAR MRLM NIL=
200712190400 METAR MRLM NIL=
200712190500 METAR MRLM NIL=
200712190600 METAR MRLM NIL=
200712190700 METAR MRLM NIL=
200712190800 METAR MRLM NIL=
200712190900 METAR MRLM NIL=
200712191000 METAR MRLM NIL=
200712191100 METAR MRLM NIL=
200712191200 METAR MRLM 191200Z NIL=
200712191300 METAR MRLM 191300Z 00000KT 9999 BKN028 SCT080 23/21 A2998 RMK RN DST NW E SE S LEVE HZ ARND=
200712191400 METAR MRLM 191400Z 20004KT 9999 FEW028 SCT090 25/22 A2999 RMK TCU DST NW=
200712191500 METAR MRLM 191500Z 20003KT CAVOK 28/21 A2998 RMK FEW090 TRACE CU=
200712191600 METAR MRLM 191600Z 06003KT CAVOK 28/22 A2998 RMK FEW090 TRACE CU=
200712191700 METAR MRLM 191700Z 05003KT 9999 FEW030 29/21 A2996 RMK TRACE AC=
200712191800 METAR MRLM 191800Z 02007KT 9999 FEW030 29/22 A2994 RMK TRACE AC=
200712191900 METAR MRLM 191900Z 01005KT 9999 FEW030 29/22 A2991 RMK TRACE AC=
200712192000 METAR MRLM 192000Z NIL=
200712192100 METAR MRLM 192100Z 02008KT 9999 FEW025 29/22 A2986 RMK TRACE AC=
200712192200 METAR MRLM 192200Z 01008KT 9999 FEW025 29/22 A2986 RMK FEW080=
200712192300 METAR MRLM 192300Z 02011KT 9999 FEW025 SCT080 28/22 A2987 RMK TCU RN DST NW N NE=
200712200000 METAR MRLM 200000Z 36010KT 9999 FEW025 BKN080 28/22 A2989=
200712200100 METAR MRLM NIL=
200712200200 METAR MRLM NIL=
200712200300 METAR MRLM NIL=
200712200400 METAR MRLM NIL=
200712200500 METAR MRLM NIL=
200712200600 METAR MRLM NIL=
200712200700 METAR MRLM NIL=
200712200800 METAR MRLM NIL=
200712200900 METAR MRLM NIL=
200712201000 METAR MRLM NIL=
200712201100 METAR MRLM NIL=
200712201200 METAR MRLM 201200Z NIL=
200712201300 METAR MRLM 201300Z 22005KT 9999 FEW025 SCT090 23/22 A2991 RMK CB DST N RN W TRACE CI=
200712201400 METAR MRLM 201400Z 25004KT CAVOK 25/22 A2992 BKN090 RMK DZ N CB DST NW TRACEN SC CI=
200712201500 METAR MRLM 201500Z 01003KT CAVOK 27/22 A2993 RMK OVC090 TRACE SC CI CB DST NW HZY=
200712201600 METAR MRLM 201600Z 02005KT CAVOK 28/22 A2992 RMK TRACE CU CI SCT090 HZY=
200712201700 METAR MRLM 201700Z 02006KT 9999 FEW030 28/22 A2991 RMK TRACE CI TCU N NW=
200712201800 METAR MRLM 201800Z 36009KT 9999 FEW030 28/22 A2987 RMK FEW110 CB DST NW TRAZAS DE CIRRUS=
200712201900 METAR MRLM 201900Z 35009KT 9999 FEW025 28/23 A2984 RMK FEW110 CB DST N=
200712202000 METAR MRLM 202000Z NIL=
200712202100 METAR MRLM 202100Z 34008KT 9999 OVC020 28/23 A2982 RMK RN N E TRACE AC=
200712202200 METAR MRLM 202200Z 02005KT 9999 FEW025 BKN090 27/22 A2982 RMK DZ N NE E RN DST SW HZ LGT ARND=
200712202300 METAR MRLM 202300Z 05005KT 9999 FEW030 OVC090 28/22 A2983 RMK RN DST N NE E HZ ARND LGT=
200712210000 METAR MRLM 210000Z 03010KT 9999 BKN020 27/23 A2985 RN DIST N E QUADS FEW100=
200712210100 METAR MRLM NIL=
200712210200 METAR MRLM NIL=
200712210300 METAR MRLM NIL=
200712210400 METAR MRLM NIL=
200712210500 METAR MRLM NIL=
200712210600 METAR MRLM NIL=
200712210700 METAR MRLM NIL=
200712210800 METAR MRLM NIL=
200712210900 METAR MRLM NIL=
200712211000 METAR MRLM NIL=
200712211100 METAR MRLM NIL=
200712211200 METAR MRLM NIL=
200712211300 METAR MRLM 211300Z 23003KT CAVOK 23/21 A2990 RMK BKN090 HZ LGT ARND=
200712211400 METAR MRLM 211400Z 23004KT CAVOK 26/22 A2002 RMK SCT140 RN DST E TRACE SC HZ LGT ARND=
200712211500 METAR MRLM 211500Z 18002KT 240V180 9999 FEW030 BKN090 29/23 A2992 RMK RN DST NE E HZ ARND=
200712211600 METAR MRLM 211600Z 01004KT 9999 +DZ FEW025 BKN090 28/23 A2991 RMK HZ ARND=
200712211700 METAR MRLM 211700Z 03004KT 9999 FEW030 OVC090 28/22 A2990 REDZ RMK HZ LGT ARND RN N NE=
200712211800 METAR MRLM 211800Z 02010KT 9999 FEW020 OVC090 27/23 A2988 RMK RN DST N NE E DZ NW W HZ LGT ARND=
200712211900 METAR MRLM 211900Z 36006KT 9999 FEW020 SCT080 BKN100 27/23 A2985 RMK RZ N HZ ARND=
200712212000 METAR MRLM 212000Z NIL=
200712212100 METAR MRLM 212100Z 36006KT 9999 DZ FEW015 BKN025 27/23 A2981 RMK RN N E FEW100=
200712212200 METAR MRLM 212200Z 35007KT 9999 DZ FEW020 OVC090 26/23 A2981 RMK RN HZ ARND=
200712212300 METAR MRLM 212300Z 01006KT 9999 -DZ BK020 27/23 A2983 RMK RN HZ ARND FEW090=
200712220000 METAR MRLM 220000Z 01008KT 9999 DZ SCT010 SCT090 24/22 A2984 RERA RMK RN ARND=
200712220100 METAR MRLM NIL=
200712220200 METAR MRLM NIL=
200712220300 METAR MRLM NIL=
200712220400 METAR MRLM NIL=
200712220500 METAR MRLM NIL=
200712220600 METAR MRLM NIL=
200712220700 METAR MRLM NIL=
200712220800 METAR MRLM NIL=
200712220900 METAR MRLM NIL=
200712221000 METAR MRLM NIL=
200712221100 METAR MRLM NIL=
200712221200 METAR MRLM 221200Z 22004KT 9999 FEW024 SCT035 23/22 A2987 RERA RMK FEW080 RN DST ARND=
200712221300 METAR MRLM 221300Z 22005KT 9999 BKN024 23/22 A2989 REDZ RMK FEW080 RN ARND=
200712221400 METAR MRLM 221400Z 20005KT 1000 +RA OVC020 23/22 A2991=
200712221500 METAR MRLM 221500Z 20005KT 5000 RA SCT015 BKN025 23/22 A2992=
200712221600 METAR MRLM 221600Z 19003KT 4000 RA BKN024 SCT080 23/22 A2993=
200712221700 METAR MRLM 221700Z 18004KT 8000 +DZ FEW015 BKN035 23/22 A2991 RERA RN ARND=
200712221800 METAR MRLM 221800Z 20003KT 7000 +DZ BKN024 SCT080 24/23 A2987 RMK RN ARND=
200712221900 METAR MRLM 221900Z 19005KT 3000 -RA OVC022 24/23 A2986=
200712222000 METAR MRLM 222000Z NIL=
200712222100 METAR MRLM 222100Z 20003KT 7000 DZ OVC022 25/23 A2983 RERA RN ARND=
200712222200 METAR MRLM 222200Z 19004KT 5000 -RA BKN024 24/22 A2983 FEW080=
200712222300 METAR MRLM 222300Z 19004KT 5000 +DZ BKN022 24/23 A2984 FEW080 RN ARND=
200712230000 METAR MRLM 230000Z 20003KT 9999 BKN024 SCT080 24/22 A2984 RERA RN ARND=
200712230100 METAR MRLM NIL=
200712230200 METAR MRLM NIL=
200712230300 METAR MRLM NIL=
200712230400 METAR MRLM NIL=
200712230500 METAR MRLM NIL=
200712230600 METAR MRLM NIL=
200712230700 METAR MRLM NIL=
200712230800 METAR MRLM NIL=
200712230900 METAR MRLM NIL=
200712231000 METAR MRLM NIL=
200712231100 METAR MRLM NIL=
200712231200 METAR MRLM NIL=
200712231300 METAR MRLM 231300Z 21005KT 6000 -RA SCT026 SCT090 23/21 A2994=
200712231400 METAR MRLM 231400Z 23003KT 8000 -RA SCT026 BKN080 23/22 A2995=
200712231500 METAR MRLM 231500Z 24002KT 9999 +DZ SCT026 BKN080 24/22 A2996 RN ARND=
200712231600 METAR MRLM 231600Z 23003KT 9999 -DZ BKN028 SCT080 25/23 A2996 RN ARND=
200712231700 METAR MRLM 231700Z 00000KT 7000 DZ BKN025 SCT080 25/23 A2996 RN ARND=
200712231800 METAR MRLM 231800Z 22006KT 9999 SCT024 SCT080 26/23 A2994 REDZ RN ARND=
200712231900 METAR MRLM 231900Z 10013KT 6000 +DZ BKN015 SCT080 24/22 A2993 TCU E SE S RASH ARND=
200712232000 METAR MRLM 232000Z NIL=
200712232100 METAR MRLM 232100Z 15003KT 4000 -RA BKN020 SCT080 23/22 A2989=
200712232200 METAR MRLM 232200Z 00000KT 7000 DZ BKN022 SCT080 24/22 A2988 RMK RN DST ARND=
200712232300 METAR MRLM 232300Z 19004KT 5000 RA BKN022 SCT080 23/21 A2990=
200712240000 METAR MRLM 240000Z 20002KT 5000 +DZ BKN022 SCT080 22/21 A2992 RMK RN ARND=
200712240100 METAR MRLM NIL=
200712240200 METAR MRLM NIL=
200712240300 METAR MRLM NIL=
200712240400 METAR MRLM NIL=
200712240500 METAR MRLM NIL=
200712240600 METAR MRLM NIL=
200712240700 METAR MRLM NIL=
200712240800 METAR MRLM NIL=
200712240900 METAR MRLM NIL=
200712241000 METAR MRLM NIL=
200712241100 METAR MRLM NIL=
200712241200 METAR MRLM 241200Z NIL=
200712241300 METAR MRLM 241300Z 23005KT 9999 BKN015 SCT090 23/20 A2991 RMK RN HZ ARND=
200712241400 METAR MRLM 241400Z 23007KT 9999 DZ SCT010 OVC090 23/21 A2993 RERA RMK RN HZ ARND=
200712241500 METAR MRLM 241500Z 08009KT 150V080 3000 RA BKN015 SCT090 23/21 A2998=
200712241600 METAR MRLM 241600Z 7000 RA SCT005 SCT015 22/21 A2997 RMK FEW090=
200712241700 METAR MRLM 241700Z 24007KT 3000 /RA SCT007 SCT015 22/21 A2996 RMK FEW090=
200712241800 METAR MRLM 241800Z 23007KT 4000 RA SCT007 SCT015 23/21 A2993 RMK FEW090=
200712241900 METAR MRLM 241900Z 24008KT 9999 DZ FEW007 OVC025 23/22 A2982 RMK TRACE AS=
200712242000 METAR MRLM NIL=
200712242100 METAR MRLM 242100Z 23007KT 9999 DZ FEW007 OVC025 23/22 A2985 RMK TRACE AS=
200712242200 METAR MRLM 242200Z 24006KT 8000 RA BKN015 24/22 A2985 RMK FEW090=
200712242300 METAR MRLM 242300Z 23004KT 7000 RA FEW007 BKN020 23/21 A2986 RMK FEW090=
200712250000 METAR MRLM 250000Z 08010KT 8000 +DZ OVC020 23/21 A2986 RN ARND=
200712250100 METAR MRLM NIL=
200712250200 METAR MRLM NIL=
200712250300 METAR MRLM NIL=
200712250400 METAR MRLM NIL=
200712250500 METAR MRLM NIL=
200712250600 METAR MRLM NIL=
200712250700 METAR MRLM NIL=
200712250800 METAR MRLM NIL=
200712250900 METAR MRLM NIL=
200712251000 METAR MRLM NIL=
200712251100 METAR MRLM NIL=
200712251200 METAR MRLM NIL=
200712251300 METAR MRLM 251300Z NIL=
200712251400 METAR MRLM 251400Z 35019KT 350V040 TSRA SCT005 SCT010CB SCT015 24/23 A2989=
200712251500 METAR MRLM 251500Z 01017KT 1000 TSRA SCT003 SCT015CB SCT015 25/24 A2990 RMK TS N NE E=
200712251600 METAR MRLM 251600Z 05018KT 2000 TSRA SCT006 SCT010CB SCT015 24/23 A2990=
200712251700 METAR MRLM 251700Z 33014KT 330V010 3000 TSRA SCT005 SCT010CB SCT015 25/24 A2989=
200712251800 METAR MRLM 251800Z 21008KT 3000 TSRA SCT005 SCT010CB SCT015 23/22 A2989 RMK TS DST E=
200712251900 METAR MRLM 251900Z 17006KT 4000 RA SCT005 SCT015 23/22 A2988 RETS=
200712252000 METAR MRLM 252000Z 21006KT 9000 RA SCT010 BKN100 23/22 A2986=
200712252100 METAR MRLM 252100Z 28006KT 9000 +DZ OVC015 23/22 A2984 RMK RN HZ ARND=
200712252200 METAR MRLM 252200Z 21008KT 9999 DZ FEW015 BKN090 23/22 A2982 RMK FEW110 RN HZ ARND=
200712252300 METAR MRLM 252300Z 21006KT 9999 FEW015 SCT080 BKN100 23/22 A2983 RMK RN HZ ARND=
200712260000 METAR MRLM 260000Z 21006KT 9999 SCT015 BKN090 23/21 A2983 RMK HZ ARND=
200712260100 METAR MRLM NIL=
200712260200 METAR MRLM NIL=
200712260300 METAR MRLM NIL=
200712260400 METAR MRLM NIL=
200712260500 METAR MRLM NIL=
200712260600 METAR MRLM NIL=
200712260700 METAR MRLM NIL=
200712260800 METAR MRLM NIL=
200712260900 METAR MRLM NIL=
200712261000 METAR MRLM NIL=
200712261100 METAR MRLM NIL=
200712261200 METAR MRLM NIL=
200712261300 METAR MRLM 261300Z 22002KT 9999 FEW025 BKN090 22/21 A2987 RMK HZ ARND=
200712261400 METAR MRLM 261400Z 00000KT 9999 FEW025 BKN090 24/21 A2989 RMK TRACE CI HZ ARND=
200712261500 METAR MRLM 261500Z 00000KT CAVOK 27/22 A2989 RMK TRACE CU FEW090 FEW230 HZ ARND=
200712261600 METAR MRLM 261600Z 04003KT CAVOK 26/21 A2987 RMK FEW090 FEW230 TRACE CU HZ ARND=
200712261700 METAR MRLM 261700Z 01006KT CAVOK 27/22 A2986 RMK FEW090 FEW230 TRACE CU HZ ARND=
200712261800 METAR MRLM 261800Z 36006KT 9999 FEW025 27/22 A2984 RMK FEW090 TRACE CI HZ ARND=
200712261900 METAR MRLM 261900Z 01006KT 9999 FEW025 28/21 A2981 RMK FEW100 TRACE CI=
200712262000 METAR MRLM 262000Z NIL=
200712262100 METAR MRLM 262100Z 33007KT 9999 FEW025 SCT230 28/23 A2979 RMK TRACE AC=
200712262200 METAR MRLM 262200Z 31007KT 9999 BKN025 SCT230 27/23 A2980=
200712262300 METAR MRLM 262300Z 29006KT 9999 SCT025 BKN230 26/23 A2981 RMK TCU RN WNW N NE=
200712270000 METAR MRLM 270000Z 26003KT 9999 SCT025 SCT230 25/23 A2982 RMK FEW090 RNDST WNW NNE HZ ARND=
200712270100 METAR MRLM NIL=
200712270200 METAR MRLM NIL=
200712270300 METAR MRLM NIL=
200712270400 METAR MRLM NIL=
200712270500 METAR MRLM NIL=
200712270600 METAR MRLM NIL=
200712270700 METAR MRLM NIL=
200712270800 METAR MRLM NIL=
200712270900 METAR MRLM NIL=
200712271000 METAR MRLM NIL=
200712271100 METAR MRLM NIL=
200712271200 METAR MRLM 271200Z 22003KT 9999 FEW025 BKN080 21/20 A2986 RMK HZY=
200712271300 METAR MRLM 271300Z 21003KT 9999 FEW025 BKN090 22/20 A2988 RMK HZ ARND=
200712271400 METAR MRLM 271400Z 22002KT 9999 FEW025 BKN100 24/21 A2991 RMK TRACE AC HZ ARND=
200712271500 METAR MRLM 271500Z 22002KT 9999 FEW025 BKN220 26/22 A2991 RMK TRACE AC HZ ARND=
200712271600 METAR MRLM 271600Z 03002KT 9999 FEW025 BKN230 28/22 A2991 RMK RN NNW HZ ARND=
200712271700 METAR MRLM 271700Z 02004KT 9999 FEW026 BKN230 28/22 A2989 RMK RN N NE HZ ARND=
200712271800 METAR MRLM 271800Z 03003KT 9999 FEW025 BKN230 28/22 A2986 RMK TCU RN N TRACE AC HZ ARND=
200712271900 METAR MRLM 271900Z 01006KT 9999 FEW025 BKN250 28/22 A2984 RMK TRACE AC HZ ARND=
200712272000 METAR MRLM 272000Z NIL=
200712272100 METAR MRLM 272100Z 35004KT 9999 FEW025 BKN230 27/22 A2981 TCU NE HZY=
200712272200 METAR MRLM 272200Z 33003KT 9999 FEW025 BKN230 28/23 A2982 TRAZAS AC HZY=
200712272300 METAR MRLM 272300Z 34004KT CAVOK FEW025 BKN230 27/22 A2982 FEW090 HZY=
200712280000 METAR MRLM 280000Z 25002KT CAVOK 25/22 A2983 FEW090 BKN230 HZY TRAZAS SCT=
200712280100 METAR MRLM NIL=
200712280200 METAR MRLM NIL=
200712280300 METAR MRLM NIL=
200712280400 METAR MRLM NIL=
200712280500 METAR MRLM NIL=
200712280600 METAR MRLM NIL=
200712280700 METAR MRLM NIL=
200712280800 METAR MRLM NIL=
200712280900 METAR MRLM NIL=
200712281000 METAR MRLM NIL=
200712281100 METAR MRLM NIL=
200712281200 METAR MRLM NIL=
200712281300 METAR MRLM 281300Z 25007KT 9999 FEW010 SCT080 BKN100 23/20 A2988 RMK RN/HZ ARND=
200712281400 METAR MRLM 281400Z 30005KT 9999 FEW015 BKN080 24/21 A2990 FEW100 RN N NE SW=
200712281500 METAR MRLM 281500Z 24003KT 9999 +DZ SCT015 BKN080 25/24 A2991 HZY=
200712281600 METAR MRLM 281600Z 26004KT 8000 -DZ SCT012 SCT090 25/23 A2991 VSBY SE UNL=
200712281700 METAR MRLM 281700Z 29009KT 9999 FEW015 OVC080 25/22 A2991 DZ W RN E N=
200712281800 METAR MRLM 281800Z 28008KT 9999 FEW015 SCT025 BKN090 26/22 A2987 RN HZ ARND=
200712281900 METAR MRLM 281900Z 26007KT 8000 +DZ FEW010 BKN020 24/22 A2985 HZY=
200712282000 METAR MRLM 282000Z NIL=
200712282100 METAR MRLM 282100Z 21007KT 9000 +DZ FEW005 BKN025 23/22 A2983=
200712282200 METAR MRLM 282200Z 19005KT 9999 DZ FEW015 BKN080 24/22 A2983 RMK FEW110 RN HZ DST ARND=
200712282300 METAR MRLM 282300Z 21005KT 9999 SCT025 BKN090 24/22 A2983 RMK RN HZ DST ARND=
200712290000 METAR MRLM 290000Z 20002KT 9999 BKN025 24/22 A2983 RMK FEW090 RN ARND=
200712290100 METAR MRLM NIL=
200712290200 METAR MRLM NIL=
200712290300 METAR MRLM NIL=
200712290400 METAR MRLM NIL=
200712290500 METAR MRLM NIL=
200712290600 METAR MRLM NIL=
200712290700 METAR MRLM NIL=
200712290800 METAR MRLM NIL=
200712290900 METAR MRLM NIL=
200712291000 METAR MRLM NIL=
200712291100 METAR MRLM NIL=
200712291200 METAR MRLM 291200Z NIL=
200712291300 METAR MRLM 291300Z 22007KT 9999 OVC015 24/22 A2988 RMK TRACE AC CI RN HZ ARND=
200712291400 METAR MRLM 291400Z 21006KT 9999 OVC015 25/23 A2990 RMK RN HZ ARND TRACE AC=
200712291500 METAR MRLM 291500Z 24005KT 9999 FEW008 BKN015 25/23 A2990 RERA RN HZ ARND TRACE AC AS=
200712291600 METAR MRLM 291600Z 19007KT 5000 1500SE +RA OVC012 24/23 A2990=
200712291700 METAR MRLM 291700Z 19007KT 9999 SCT008 OVC015 24/23 A2989 RMK VIS 8000 QUAD W RA=
200712291800 METAR MRLM 291800Z 20005KT 9999 FEW008 BKN015 25/23 A2987 RMK RN HZ DST ARND=
200712291900 METAR MRLM 291900Z 20007KT 9999 DZ BKN015 26/23 A2985 RMK RN HZ ARND FEW110=
200712292000 METAR MRLM 292000Z NIL=
200712292100 METAR MRLM 292100Z 11005KT 9999 SCT025 BKN110 28/23 A2981 RMK RN DST W HZY=
200712292200 METAR MRLM 292200Z 10003KT 9999 SCT025 BKN110 28/23 A2981 RN DST N NE E VIS E SE 8KMS=
200712292300 METAR MRLM 292300Z NIL=
200712300000 METAR MRLM 300000Z 00000KT 9999 FEW010 SCT110 25/23 A2982 VIS 8KMS E SE DUE HZ FEW280=
200712300100 METAR MRLM NIL=
200712300200 METAR MRLM NIL=
200712300300 METAR MRLM NIL=
200712300400 METAR MRLM NIL=
200712300500 METAR MRLM NIL=
200712300600 METAR MRLM NIL=
200712300700 METAR MRLM NIL=
200712300800 METAR MRLM NIL=
200712300900 METAR MRLM NIL=
200712301000 METAR MRLM NIL=
200712301100 METAR MRLM NIL=
200712301200 METAR MRLM 301200Z NIL=
200712301300 METAR MRLM 301300Z 22003KT 9999 FEW025 BKN080 23/21 A2989 RMK HZ ARND=
200712301400 METAR MRLM 301400Z 23004KT 9999 FEW025 SCT240 25/22 A2991 RMK FEW080 HZY=
200712301500 METAR MRLM 301500Z 23003KT 9999 FEE025 SCT080 29/22 A2992 RMK FEW250 RN DST NE W HZ ARND=
200712301600 METAR MRLM 301600Z NIL=
200712301700 METAR MRLM 301700Z 36004KT 9999 FEW025 SCT080 28/22 A2989 RMK FEW250 HZY=
200712301800 METAR MRLM 301800Z 36005KT 9999 FEW025 BKN080 29/23 A2987 HZY=
200712301900 METAR MRLM 301900Z 34005KT 9999 FEW025 SCT080 28/23 A2985 RMK TRACE CI HZY=
200712302000 METAR MRLM NIL=
200712302100 METAR MRLM 302100Z 35004KT 9999 FEW025 29/23 A2981 RMK TRACE CI HZ ARND=
200712302200 METAR MRLM 302200Z 36003KT 9999 FEW025 28/23 A2974 RMK TRACE CI HZ ARND=
200712302300 METAR MRLM 302300Z 35002KT 9999 SCT025 SCT250 27/23 A2983 RMK HZ ARND=
200712310000 METAR MRLM 310000Z 20002KT 9999 BKN025 SCT250 25/23 A2983 RMK HZ ARND=
200712310100 METAR MRLM NIL=
200712310200 METAR MRLM NIL=
200712310300 METAR MRLM NIL=
200712310400 METAR MRLM NIL=
200712310500 METAR MRLM NIL=
200712310600 METAR MRLM NIL=
200712310700 METAR MRLM NIL=
200712310800 METAR MRLM NIL=
200712310900 METAR MRLM NIL=
200712311000 METAR MRLM NIL=
200712311100 METAR MRLM NIL=
200712311200 METAR MRLM 311200Z NIL=
200712311300 METAR MRLM 311300Z 00000KT 9999 FEW026 SCT090 23/21 A2990 RMK SCT240 HZ ARND=
200712311400 METAR MRLM 311400Z 22002KT 9999 FEW026 BKN240 25/22 A2993 RMK FEW090 HZ ARND=
200712311500 METAR MRLM 311500Z 22002KT 9999 FEW025 BKN240 27/22 A2993 RMK FEW090 HZ ARND=
200712311600 METAR MRLM 311600Z 10002KT 9999 FEW025 BKN090 28/23 A2993 RMK TCU DST NW N NE HZ ARND=
200712311700 METAR MRLM 311700Z 07003KT 9999 SCT025 BKN080 28/22 A2992 RMK TCU RN DST NW N NE HZ ARND=
200712311800 METAR MRLM 311800Z 02011KT 9999 SCT025 BKN080 27/22 A2990 RMK RN DST NW N SW HZ ARND=
200712311900 METAR MRLM 311900Z 35005KT 9999 FEW025 BKN090 28/21 A2988 RMK HZ ARND=
200712312000 METAR MRLM 312000Z NIL=
200712312100 METAR MRLM 312100Z 02002KT 9999 FEW025 BKN090 29/21 A2983 RMK FEW240 HZ ARND=
200712312200 METAR MRLM 312200Z 36005KT 9999 FEW025 SCT100 28/23 A2984 RMK SCT240 HZ ARND=
200712312300 METAR MRLM 312300Z 26002KT 9999 FEW025 BKN080 27/22 A2985 RMK FEW240 HZ ARND=
